,addressline1,addressline2,addressline3,addressline4,businessname,businesstype,businesstypeid,confidenceinmanagement,extractdate,fhrsid,hygiene,itemcount,latitude,localauthoritybusinessid,localauthoritycode,localauthorityemailaddress,localauthorityname,localauthoritywebsite,longitude,postcode,ratingdate,ratingkey,ratingvalue,returncode,schemetype,structural
222674,,,,,A Moveable Feast,Other catering premises,7841,5,,355771,0,,,04/00040/FHCAT,022,envhealth@chiltern.gov.uk,Chiltern,http://www.chiltern.gov.uk,,,2012-03-15,fhrs_5_en-GB,5,,FHRS,0
222675,125 Chestnut Lane,Amersham,Buckinghamshire,,Abbeyfield Amersham (The Leys),Other catering premises,7841,5,,355734,5,,51.68130400000000,02510/0125/0/000,022,envhealth@chiltern.gov.uk,Chiltern,http://www.chiltern.gov.uk,-0.60046200000000,HP6 6DZ,2013-07-05,fhrs_5_en-GB,5,,FHRS,0
222676,Link Road,Great Missenden,Buckinghamshire,,Abbeyfield Great Missenden & District Society,Other catering premises,7841,5,,355946,0,,51.70449700000000,07210/2000/2/001,022,envhealth@chiltern.gov.uk,Chiltern,http://www.chiltern.gov.uk,-0.70746200000000,HP16 9AE,2012-02-28,fhrs_5_en-GB,5,,FHRS,0
222677,Mansil House,Hervines Road,Amersham,Buckinghamshire,Abbeyfield Society,Other catering premises,7841,0,,355818,5,,51.67865100000000,05500/2017/2/000,022,envhealth@chiltern.gov.uk,Chiltern,http://www.chiltern.gov.uk,-0.61098700000000,HP6 5HS,2014-03-03,fhrs_5_en-GB,5,,FHRS,0
222678,133 Broad Street,Chesham,Buckinghamshire,,Abrakebabra,Takeaway/sandwich shop,7844,10,,712482,0,,51.71053100000000,14/00091/FTAKO,022,envhealth@chiltern.gov.uk,Chiltern,http://www.chiltern.gov.uk,-0.60907000000000,HP5 3EF,2014-10-15,fhrs_4_en-GB,4,,FHRS,5
222679,The Barn,Chiltern Avenue,Amersham,Buckinghamshire,ACAS Club,Other catering premises,7841,,,355736,,,51.67627200000000,02570/2003/2/000,022,envhealth@chiltern.gov.uk,Chiltern,http://www.chiltern.gov.uk,-0.60225200000000,HP6 5AH,2001-03-21,fhrs_exempt_en-GB,Exempt,,FHRS,
222680,Alfriston School,Penn Road,Knotty Green,Beaconsfield,Accent Catering Services Ltd,School/college/university,7845,5,,356085,5,,51.62687500000000,09570/2032/2/000,022,envhealth@chiltern.gov.uk,Chiltern,http://www.chiltern.gov.uk,-0.65492800000000,HP9 2TS,2013-10-16,fhrs_5_en-GB,5,,FHRS,0
222681,197 - 199 Woodside Road,Amersham,Buckinghamshire,,Acrewood Nursery School,Hospitals/Childcare/Caring Premises,5,5,,626976,0,,51.67337800000000,12/00056/FNURSH,022,envhealth@chiltern.gov.uk,Chiltern,http://www.chiltern.gov.uk,-0.59330200000000,HP6 6NU,2013-12-10,fhrs_5_en-GB,5,,FHRS,0
222682,Drake Hall Complex  Amersham Commun,Chiltern Avenue,Amersham,Buckinghamshire,Age Concern Lunch Club,Other catering premises,7841,10,,355735,10,,51.67627200000000,02570/2001/3/002,022,envhealth@chiltern.gov.uk,Chiltern,http://www.chiltern.gov.uk,-0.60225200000000,HP6 5AH,2012-05-31,fhrs_3_en-GB,3,,FHRS,5
222683,Gt Miss Baptist Church,Age Concern Thursday Club,High Street,Great Missenden,Age Concern Lunch Club,Other catering premises,7841,5,,355856,0,,51.70156300000000,05700/2042/3/001,022,envhealth@chiltern.gov.uk,Chiltern,http://www.chiltern.gov.uk,-0.70478100000000,HP16 0BB,2013-07-25,fhrs_5_en-GB,5,,FHRS,0
222684,Amersham Service Station,40-42 Woodside Road,Amersham,Buckinghamshire,AGVA Limited,Retailers - other,4613,5,,356338,5,,51.67782000000000,13940/2031/2/000,022,envhealth@chiltern.gov.uk,Chiltern,http://www.chiltern.gov.uk,-0.60237800000000,HP6 6AJ,2009-09-18,fhrs_5_en-GB,5,,FHRS,5
222685,68 Broad Street,Chesham,Buckinghamshire,,Al Halal Meat and Grocery Store,Retailers - other,4613,0,,356114,5,,51.70919800000000,10/00066/FBUTR,022,envhealth@chiltern.gov.uk,Chiltern,http://www.chiltern.gov.uk,-0.61042800000000,HP5 3DX,2014-03-14,fhrs_5_en-GB,5,,FHRS,0
222686,Church Road,Penn,High Wycombe,Buckinghamshire,Alde House,Other catering premises,7841,5,,355741,5,,51.63150500000000,02750/2011/2/000,022,envhealth@chiltern.gov.uk,Chiltern,http://www.chiltern.gov.uk,-0.68506100000000,HP10 8NX,2012-06-13,fhrs_5_en-GB,5,,FHRS,5
222687,,,,,All Pickled Out,Retailers - other,4613,,,636678,,,,13/00083/FMKTL,022,envhealth@chiltern.gov.uk,Chiltern,http://www.chiltern.gov.uk,,,2014-01-30,fhrs_exempt_en-GB,Exempt,,FHRS,
222688,Chesham Grammar School,White Hill,Chesham,Buckinghamshire,Alliance In Partnership,Other catering premises,7841,10,,356324,5,,51.70884400000000,13470/2000/3/001,022,envhealth@chiltern.gov.uk,Chiltern,http://www.chiltern.gov.uk,-0.60023500000000,HP5 1BA,2014-06-09,fhrs_4_en-GB,4,,FHRS,5
222689,Dr Challoners Grammar School,Chesham Road,Amersham,Buckinghamshire,Alliance In Partnership,School/college/university,7845,5,,355729,0,,51.67624500000000,02360/2056/2/000,022,envhealth@chiltern.gov.uk,Chiltern,http://www.chiltern.gov.uk,-0.60983100000000,HP6 5HA,2013-11-21,fhrs_5_en-GB,5,,FHRS,5
222690,Shortenills Environmental Education,Nightingales Lane,Chalfont St. Giles,Buckinghamshire,Alliance In Partnership,Other catering premises,7841,0,,356035,5,,51.64088000000000,08800/2007/3/001,022,envhealth@chiltern.gov.uk,Chiltern,http://www.chiltern.gov.uk,-0.55320700000000,HP8 4SG,2014-06-09,fhrs_5_en-GB,5,,FHRS,5
222691,,,,,Amanda Jayne Smith,Restaurant/Cafe/Canteen,1,5,,356266,0,,,12/00008/FCAT,022,envhealth@chiltern.gov.uk,Chiltern,http://www.chiltern.gov.uk,,,2012-02-22,fhrs_5_en-GB,5,,FHRS,0
222692,49 London Road West,Amersham,Buckinghamshire,,Ambers Of Amersham,Other catering premises,7841,0,,355959,5,,51.66458600000000,07410/0049/0/000,022,envhealth@chiltern.gov.uk,Chiltern,http://www.chiltern.gov.uk,-0.60703600000000,HP7 9DA,2011-10-24,fhrs_5_en-GB,5,,FHRS,0
222693,Ash Grove,Amersham,Buckinghamshire,,Amersham and Chiltern Rugby Club,Other catering premises,7841,5,,356309,0,,51.68201300000000,13140/2000/0/000,022,envhealth@chiltern.gov.uk,Chiltern,http://www.chiltern.gov.uk,-0.62393100000000,HP6 5QU,2013-03-04,fhrs_5_en-GB,5,,FHRS,0
222694,Missenden Road,Amersham,Buckinghamshire,,Amersham Cricket Club,Other catering premises,7841,0,,356019,5,,51.67150200000000,08290/2005/2/000,022,envhealth@chiltern.gov.uk,Chiltern,http://www.chiltern.gov.uk,-0.64482900000000,HP7 0RL,2014-07-01,fhrs_5_en-GB,5,,FHRS,5
222695,11 Woodside Road,Amersham,Buckinghamshire,,Amersham Fish Bar,Restaurant/Cafe/Canteen,1,10,,356184,5,,51.67770000000000,11/00041/FTAKO,022,envhealth@chiltern.gov.uk,Chiltern,http://www.chiltern.gov.uk,-0.60359600000000,HP6 6AA,2011-04-05,fhrs_4_en-GB,4,,FHRS,5
222696,Woodside Road,Amersham,Buckinghamshire,,Amersham Hill Cricket Club,Other catering premises,7841,,,356339,,,51.67477900000000,13940/2034/2/000,022,envhealth@chiltern.gov.uk,Chiltern,http://www.chiltern.gov.uk,-0.59693200000000,HP6 6NJ,2003-06-30,fhrs_exempt_en-GB,Exempt,,FHRS,
222697,Stanley Hill,Amersham,Buckinghamshire,,Amersham School,School/college/university,7845,0,,356198,0,,51.66687500000000,11/00079/FSCHNC,022,envhealth@chiltern.gov.uk,Chiltern,http://www.chiltern.gov.uk,-0.59617900000000,HP7 9HH,2013-06-27,fhrs_5_en-GB,5,,FHRS,0
222698,School Lane,Amersham,Buckinghamshire,,Amersham Town Football Club,Other catering premises,7841,10,,356158,15,,51.67109600000000,10730/2010/2/000,022,envhealth@chiltern.gov.uk,Chiltern,http://www.chiltern.gov.uk,-0.62533200000000,HP7 0EJ,2013-09-21,fhrs_2_en-GB,2,,FHRS,10
222699,,,,,Angelic Cupcakes,Other catering premises,7841,10,,356100,5,,,10/00020/FHCAT,022,envhealth@chiltern.gov.uk,Chiltern,http://www.chiltern.gov.uk,,,2011-08-18,fhrs_4_en-GB,4,,FHRS,5
222700,,,,,Anna's Bakes,Retailers - other,4613,0,,507684,0,,,13/00007/FHCAT,022,envhealth@chiltern.gov.uk,Chiltern,http://www.chiltern.gov.uk,,,2013-02-06,fhrs_5_en-GB,5,,FHRS,0
222701,1 Severalls Avenue,Chesham,Buckinghamshire,,Annes Fish Bar,Takeaway/sandwich shop,7844,10,,356163,5,,51.71413300000000,10840/0001/0/000,022,envhealth@chiltern.gov.uk,Chiltern,http://www.chiltern.gov.uk,-0.60570300000000,HP5 3EL,2013-07-09,fhrs_3_en-GB,3,,FHRS,10
222702,Heatherton House School,Copperkins Lane,Amersham,Buckinghamshire,Aramark Ltd,School/college/university,7845,5,,355750,5,,51.68196200000000,03110/0010/0/000,022,envhealth@chiltern.gov.uk,Chiltern,http://www.chiltern.gov.uk,-0.61272300000000,HP6 5QB,2014-05-19,fhrs_5_en-GB,5,,FHRS,5
222703,Unit 6 Francis House,East Street,Chesham,Buckinghamshire,Around The Pound,Restaurant/Cafe/Canteen,1,10,,718426,10,,,14/00093/FCAT,022,envhealth@chiltern.gov.uk,Chiltern,http://www.chiltern.gov.uk,,,2014-09-15,fhrs_4_en-GB,4,,FHRS,0
222704,Citrix,Chalfont Park,Chalfont St. Peter,Gerrards Cross,Artizian Catering Services Ltd,Other catering premises,7841,5,,355706,5,,51.59779800000000,01970/2000/3/003,022,envhealth@chiltern.gov.uk,Chiltern,http://www.chiltern.gov.uk,-0.54868600000000,SL9 0QA,2013-03-05,fhrs_5_en-GB,5,,FHRS,5
222705,Unit 7&8,Fairview Industrial Estate,Raans Road,Amersham,Asco Foods,Importers/Exporters,14,,,732969,,,51.67354100000000,13/00092/FIMP,022,envhealth@chiltern.gov.uk,Chiltern,http://www.chiltern.gov.uk,-0.58521200000000,HP6 6JY,2014-11-12,fhrs_exempt_en-GB,Exempt,,FHRS,
222706,35 Asheridge Road,Chesham,Buckinghamshire,,Asheridge Food Store,Retailers - other,4613,5,,355655,0,,51.71505700000000,00330/0035/0/000,022,envhealth@chiltern.gov.uk,Chiltern,http://www.chiltern.gov.uk,-0.61851400000000,HP5 2PY,2014-01-06,fhrs_5_en-GB,5,,FHRS,0
222707,12 The Broadway,Amersham,Buckinghamshire,,ASK,Other catering premises,7841,0,,356257,0,,51.66602100000000,11870/0012/3/002,022,envhealth@chiltern.gov.uk,Chiltern,http://www.chiltern.gov.uk,-0.61510400000000,HP7 0HP,2013-02-11,fhrs_5_en-GB,5,,FHRS,5
222708,29 North Park,Chalfont St. Peter,Gerrards Cross,Buckinghamshire,Austenwood Nursing Home,Other catering premises,7841,,,356037,,,51.59581500000000,08850/0029/0/000,022,envhealth@chiltern.gov.uk,Chiltern,http://www.chiltern.gov.uk,-0.55198300000000,SL9 8JA,2014-06-09,fhrs_5_en-GB,5,,FHRS,
222709,72 Elizabeth Avenue,Amersham,Buckinghamshire,,Avenue Stores,Retailers - other,4613,10,,355764,0,,51.67122900000000,03880/0072/0/000,022,envhealth@chiltern.gov.uk,Chiltern,http://www.chiltern.gov.uk,-0.56728000000000,HP6 6QJ,2013-02-25,fhrs_4_en-GB,4,,FHRS,10
222710,96 Sycamore Road,Amersham,Buckinghamshire,,Barracuda Cafe,Restaurant/Cafe/Canteen,1,10,,732970,15,,51.67839100000000,14/00046/FCAFE,022,envhealth@chiltern.gov.uk,Chiltern,http://www.chiltern.gov.uk,-0.60500700000000,HP6 5EN,2014-06-26,fhrs_2_en-GB,2,,FHRS,10
222711,,,,,Barry Price Meats Ltd,Retailers - other,4613,0,,356093,5,,,09920/2018/3/001,022,envhealth@chiltern.gov.uk,Chiltern,http://www.chiltern.gov.uk,,,2011-09-27,fhrs_5_en-GB,5,,FHRS,5
222712,67 Hill Avenue,Amersham,Buckinghamshire,,Baskin Robbin,Retailers - other,4613,0,,581808,0,,51.67601900000000,13/00072/FSWEET,022,envhealth@chiltern.gov.uk,Chiltern,http://www.chiltern.gov.uk,-0.60739400000000,HP6 5BX,2013-08-20,fhrs_5_en-GB,5,,FHRS,0
222713,Farm Lane,Jordans,Buckinghamshire,,Beaconsfield Golf Club,Other catering premises,7841,5,,356162,0,,51.60964800000000,10810/2000/2/000,022,envhealth@chiltern.gov.uk,Chiltern,http://www.chiltern.gov.uk,-0.60876100000000,HP9 2UR,2014-02-10,fhrs_5_en-GB,5,,FHRS,5
222714,St Michaels Church Hall,Sycamore Road,Amersham,Buckinghamshire,Beehive Montessori School,Other catering premises,7841,5,,356255,5,,51.67754400000000,11730/2021/3/001,022,envhealth@chiltern.gov.uk,Chiltern,http://www.chiltern.gov.uk,-0.60634900000000,HP6 5DR,2010-03-01,fhrs_5_en-GB,5,,FHRS,5
222715,18 Market Square,Chesham,Buckinghamshire,,Beijing,Takeaway/sandwich shop,7844,5,,355985,5,,51.70384100000000,07920/0018/0/000,022,envhealth@chiltern.gov.uk,Chiltern,http://www.chiltern.gov.uk,-0.61360200000000,HP5 1ES,2013-02-21,fhrs_5_en-GB,5,,FHRS,5
222716,Bell Lane,Amersham,Buckinghamshire,,Bell Lane County Combined School,Other catering premises,7841,5,,355666,5,,51.67252500000000,00850/2004/2/000,022,envhealth@chiltern.gov.uk,Chiltern,http://www.chiltern.gov.uk,-0.57102800000000,HP6 6PF,2012-01-17,fhrs_5_en-GB,5,,FHRS,5
222717,135 Bellingdon Road,Chesham,Buckinghamshire,,Bellingdon News and Off Licence,Retailers - other,4613,20,,355662,0,,51.71085700000000,00840/0135/0/000,022,envhealth@chiltern.gov.uk,Chiltern,http://www.chiltern.gov.uk,-0.61306900000000,HP5 2HG,2013-04-25,fhrs_1_en-GB,1,,FHRS,0
222718,3 Station Approach,Amersham,Buckinghamshire,,Belly Busters,Takeaway/sandwich shop,7844,10,,356234,10,,51.67471600000000,11360/0003/0/000,022,envhealth@chiltern.gov.uk,Chiltern,http://www.chiltern.gov.uk,-0.60821500000000,HP6 5AZ,2014-03-22,fhrs_2_en-GB,2,,FHRS,15
222719,Berkeley Close,Chesham,Buckinghamshire,,Berkeley Stores,Retailers - other,4613,20,,355667,0,,51.71249400000000,00910/0002/0/000,022,envhealth@chiltern.gov.uk,Chiltern,http://www.chiltern.gov.uk,-0.62609000000000,HP5 2RL,2012-06-07,fhrs_1_en-GB,1,,FHRS,0
222720,26 Orchard Road,Seer Green,Beaconsfield,Buckinghamshire,Best One,Retailers - other,4613,0,,356075,5,,51.61822900000000,09140/0026/0/000,022,envhealth@chiltern.gov.uk,Chiltern,http://www.chiltern.gov.uk,-0.60743000000000,HP9 2XX,2012-03-08,fhrs_5_en-GB,5,,FHRS,0
222721,74 Broad Street,Chesham,Buckinghamshire,,Best One,Retailers - other,4613,10,,355686,5,,51.70919800000000,01450/0074/0/000,022,envhealth@chiltern.gov.uk,Chiltern,http://www.chiltern.gov.uk,-0.61042800000000,HP5 3DX,2012-02-16,fhrs_4_en-GB,4,,FHRS,0
222722,Big Bite,98 Broad Street,Chesham,Buckinghamshire,Big Bite,Restaurant/Cafe/Canteen,1,10,,698991,5,,51.71058300000000,14/00071/FTAKO,022,envhealth@chiltern.gov.uk,Chiltern,http://www.chiltern.gov.uk,-0.60966200000000,HP5 3ED,2014-08-18,fhrs_3_en-GB,3,,FHRS,10
222723,,,,,Big Day Bakery,Retailers - other,4613,5,,355990,5,,,08/00005/FHCAT,022,envhealth@chiltern.gov.uk,Chiltern,http://www.chiltern.gov.uk,,,2009-04-08,fhrs_5_en-GB,5,,FHRS,5
222724,,,,,Bills Diner,Mobile caterer,7846,0,,356297,5,,,12860/0227/0/000,022,envhealth@chiltern.gov.uk,Chiltern,http://www.chiltern.gov.uk,,,2014-02-13,fhrs_5_en-GB,5,,FHRS,0
222725,Fullers Close,Chesham,Buckinghamshire,,Birchwood - Scope Chess Section,Other catering premises,7841,10,,355799,5,,51.69991500000000,05/00052/FOLD,022,envhealth@chiltern.gov.uk,Chiltern,http://www.chiltern.gov.uk,-0.61694900000000,HP5 1DP,2010-08-10,fhrs_4_en-GB,4,,FHRS,0
222726,1A Market Place,Chalfont St. Peter,Gerrards Cross,Buckinghamshire,Birring Greengrocers,Retailers - other,4613,5,,355974,5,,51.60690500000000,07890/0001/A/000,022,envhealth@chiltern.gov.uk,Chiltern,http://www.chiltern.gov.uk,-0.55874900000000,SL9 9EA,2012-02-09,fhrs_5_en-GB,5,,FHRS,5
222727,Blackwells,High Street,Chalfont St. Giles,Buckinghamshire,Blackwells,Retailers - other,4613,5,,355828,5,,51.63127200000000,05670/2033/2/000,022,envhealth@chiltern.gov.uk,Chiltern,http://www.chiltern.gov.uk,-0.57049000000000,HP8 4QH,2012-02-09,fhrs_5_en-GB,5,,FHRS,5
222728,St Josephs Rc Combined School,Priory Road,Chalfont St Peter,Buckinghamshire,Blast (Busy Living After School Team),Other catering premises,7841,5,,356118,5,,51.59992700000000,10/00073/FSCHNC,022,envhealth@chiltern.gov.uk,Chiltern,http://www.chiltern.gov.uk,-0.56463000000000,SL9 8SB,2010-06-24,fhrs_5_en-GB,5,,FHRS,5
222729,,,,,Blossoming Cooks,Other catering premises,7841,0,,484883,0,,,12/00100/FHCAT,022,envhealth@chiltern.gov.uk,Chiltern,http://www.chiltern.gov.uk,,,2012-12-11,fhrs_5_en-GB,5,,FHRS,0
222730,94 Sycamore Road,Amersham,Buckinghamshire,,Blue Lily,Restaurant/Cafe/Canteen,1,10,,643546,0,,51.67839100000000,14/00018/FRESTI,022,envhealth@chiltern.gov.uk,Chiltern,http://www.chiltern.gov.uk,-0.60500700000000,HP6 5EN,2014-03-26,fhrs_4_en-GB,4,,FHRS,5
222731,Blue Orchid Restaurant,102 - 104 Sycamore Road,Amersham,Buckinghamshire,Blue Orchid,Other catering premises,7841,5,,356253,5,,51.67839100000000,11730/1021/0/000,022,envhealth@chiltern.gov.uk,Chiltern,http://www.chiltern.gov.uk,-0.60500700000000,HP6 5EN,2013-02-04,fhrs_5_en-GB,5,,FHRS,5
222732,The Chiltern Hospital,Great Missenden,Buckinghamshire,,BMI Healthcare Group Plc,Other catering premises,7841,5,,355789,0,,51.69052400000000,04890/2003/2/000,022,envhealth@chiltern.gov.uk,Chiltern,http://www.chiltern.gov.uk,-0.69368200000000,HP16 0EN,2014-11-17,fhrs_4_en-GB,4,,FHRS,10
222733,Bojangles Ceramic Cafe,29 Hill Avenue,Amersham,Buckinghamshire,Bojangles,Other catering premises,7841,5,,355792,5,,51.67601900000000,05/00006/FCAFE,022,envhealth@chiltern.gov.uk,Chiltern,http://www.chiltern.gov.uk,-0.60739400000000,HP6 5BX,2012-09-18,fhrs_5_en-GB,5,,FHRS,5
222734,,,,,Boo Lee Scrumptious,Retailers - other,4613,5,,356119,5,,,10/00074/FHCAT,022,envhealth@chiltern.gov.uk,Chiltern,http://www.chiltern.gov.uk,,,2013-05-02,fhrs_5_en-GB,5,,FHRS,5
222735,2 Rickmansworth Road,Amersham,Buckinghamshire,,Boot and Slipper,Other catering premises,7841,5,,356154,10,,51.67980200000000,10320/0002/2/000,022,envhealth@chiltern.gov.uk,Chiltern,http://www.chiltern.gov.uk,-0.60792900000000,HP6 5JN,2013-04-24,fhrs_4_en-GB,4,,FHRS,5
222736,56-58 High Street,Chesham,Buckinghamshire,,Boots Co Plc,Retailers - other,4613,0,,355847,0,,51.70489500000000,05690/5658/0/000,022,envhealth@chiltern.gov.uk,Chiltern,http://www.chiltern.gov.uk,-0.61304900000000,HP5 1EP,2010-03-01,fhrs_5_en-GB,5,,FHRS,0
222737,Boots Company Plc,18 Sycamore Road,Amersham,Buckinghamshire,Boots Co Plc,Retailers - other,4613,5,,356246,0,,51.67754400000000,11730/0018/0/000,022,envhealth@chiltern.gov.uk,Chiltern,http://www.chiltern.gov.uk,-0.60634900000000,HP6 5DR,2012-04-11,fhrs_5_en-GB,5,,FHRS,5
222738,195 Botley Road,Chesham,Buckinghamshire,,Botley Stores,Retailers - other,4613,5,,355680,5,,51.71039200000000,01160/0195/0/000,022,envhealth@chiltern.gov.uk,Chiltern,http://www.chiltern.gov.uk,-0.57794100000000,HP5 1XT,2012-01-30,fhrs_5_en-GB,5,,FHRS,5
222739,17 Market Square,Chesham,Buckinghamshire,,Brazils,Restaurant/Cafe/Canteen,1,10,,448824,5,,51.70372500000000,12/00088/FCAFE,022,envhealth@chiltern.gov.uk,Chiltern,http://www.chiltern.gov.uk,-0.61295500000000,HP5 1HG,2012-09-20,fhrs_4_en-GB,4,,FHRS,5
222740,High Street,Chesham,Buckinghamshire,,Broadway Baptist Church,Other catering premises,7841,0,,355846,0,,51.70621500000000,05690/2007/2/000,022,envhealth@chiltern.gov.uk,Chiltern,http://www.chiltern.gov.uk,-0.61287800000000,HP5 1EG,2012-03-20,fhrs_5_en-GB,5,,FHRS,0
222741,34 Broadway,Amersham,Buckinghamshire,,Broadway Newsagency,Retailers - other,4613,0,,581810,5,,51.66571900000000,13/00075/FRETH,022,envhealth@chiltern.gov.uk,Chiltern,http://www.chiltern.gov.uk,-0.61385500000000,HP7 0HJ,2013-08-28,fhrs_5_en-GB,5,,FHRS,5
222742,110 High Street,Chesham,Buckinghamshire,,Broadway Newsagents,Retailers - other,4613,5,,355841,5,,51.70682400000000,05690/0110/0/000,022,envhealth@chiltern.gov.uk,Chiltern,http://www.chiltern.gov.uk,-0.61189000000000,HP5 1EB,2011-02-24,fhrs_5_en-GB,5,,FHRS,5
222743,74 The Broadway,High Street,Chesham,Buckinghamshire,Brown Sugar,Other catering premises,7841,10,,355863,10,,51.70621500000000,05760/0074/0/000,022,envhealth@chiltern.gov.uk,Chiltern,http://www.chiltern.gov.uk,-0.61287800000000,HP5 1EG,2012-02-15,fhrs_3_en-GB,3,,FHRS,10
222744,Brushwood Road,Chesham,Buckinghamshire,,Brushwood Junior School,School/college/university,7845,5,,356012,5,,51.71494300000000,08/00097/FSCHFC,022,envhealth@chiltern.gov.uk,Chiltern,http://www.chiltern.gov.uk,-0.59676100000000,HP5 3DW,2012-11-15,fhrs_5_en-GB,5,,FHRS,5
222745,149 Sunnyside Road,Chesham,Buckinghamshire,,Bubbles Fish and Chips,Takeaway/sandwich shop,7844,5,,356242,10,,51.71155400000000,11630/0149/0/000,022,envhealth@chiltern.gov.uk,Chiltern,http://www.chiltern.gov.uk,-0.61196300000000,HP5 2AP,2014-01-14,fhrs_4_en-GB,4,,FHRS,0
222746,Sun House,32 Church Street,Chesham,Buckinghamshire,Bucks MIND,Other catering premises,7841,0,,355744,0,,51.70426400000000,02790/0032/2/000,022,envhealth@chiltern.gov.uk,Chiltern,http://www.chiltern.gov.uk,-0.61519600000000,HP5 1HU,2012-08-29,fhrs_5_en-GB,5,,FHRS,0
222747,Bishops House,Market Place,Chalfont St Peter,Buckinghamshire,Budgens,Retailers - supermarkets/hypermarkets,7840,10,,355980,15,,51.60686700000000,07890/2007/3/005,022,envhealth@chiltern.gov.uk,Chiltern,http://www.chiltern.gov.uk,-0.55784100000000,SL9 9HE,2014-06-09,fhrs_2_en-GB,2,,FHRS,10
222748,8 Red Lion Street,Chesham,Buckinghamshire,,Bulldog Newsagents,Retailers - other,4613,10,,356148,0,,51.70350000000000,10250/0008/0/000,022,envhealth@chiltern.gov.uk,Chiltern,http://www.chiltern.gov.uk,-0.61288900000000,HP5 1HF,2010-11-05,fhrs_4_en-GB,4,,FHRS,0
222749,105 High Street,Chesham,Buckinghamshire,,Burger Inn,Other catering premises,7841,10,,355840,10,,51.70717500000000,05690/0105/0/003,022,envhealth@chiltern.gov.uk,Chiltern,http://www.chiltern.gov.uk,-0.61118500000000,HP5 1DE,2014-04-14,fhrs_4_en-GB,4,,FHRS,0
222750,Robertswood School,Denham Lane,Chalfont St Peter,Buckinghamshire,Busy Living After School And Pre School Club,Pub/bar/nightclub,7843,5,,356062,5,,51.61340600000000,09/00056/FCLBC,022,envhealth@chiltern.gov.uk,Chiltern,http://www.chiltern.gov.uk,-0.54564600000000,SL9 0EW,2012-10-29,fhrs_5_en-GB,5,,FHRS,5
222751,Elangeni School,Woodside Avenue,Chesham Bois,Buckinghamshire,Busy Living Out Of School Club,Other catering premises,7841,0,,356009,5,,51.68285200000000,08/00088/FCLBC,022,envhealth@chiltern.gov.uk,Chiltern,http://www.chiltern.gov.uk,-0.59675500000000,HP6 6EG,2011-11-30,fhrs_5_en-GB,5,,FHRS,5
222752,Little Chalfont Methodist Church,Chalfont Avenue,Little Chalfont,Amersham,Busy Living Pre School,Other catering premises,7841,0,,355804,5,,51.66790700000000,05/00103/FNURSE,022,envhealth@chiltern.gov.uk,Chiltern,http://www.chiltern.gov.uk,-0.56100800000000,HP7 9PR,2013-09-26,fhrs_5_en-GB,5,,FHRS,0
222753,27 Chesham Road,Amersham,Buckinghamshire,,Cafe Africa,Other catering premises,7841,10,,356006,5,,51.67738600000000,08/00072/FCAFE,022,envhealth@chiltern.gov.uk,Chiltern,http://www.chiltern.gov.uk,-0.60742400000000,HP6 5HN,2014-04-28,fhrs_3_en-GB,3,,FHRS,10
222754,Dr Challoners Grammar School,Chesham Road,Amersham,Buckinghamshire,Cafe Africa,Restaurant/Cafe/Canteen,1,5,,543192,10,,51.67624500000000,13/00009/FCAFE,022,envhealth@chiltern.gov.uk,Chiltern,http://www.chiltern.gov.uk,-0.60983100000000,HP6 5HA,2013-03-27,fhrs_4_en-GB,4,,FHRS,0
222755,Royal British Legion,58 Whielden Street,Amersham,Buckinghamshire,Cafe at Kings Auction Old Amersham,Restaurant/Cafe/Canteen,1,10,,577201,0,,51.66376900000000,13/00055/FCAFE,022,envhealth@chiltern.gov.uk,Chiltern,http://www.chiltern.gov.uk,-0.61854200000000,HP7 0JB,2013-07-22,fhrs_4_en-GB,4,,FHRS,10
222756,The Elgiva Theatre,St Marys Way,Chesham,Buckinghamshire,Cafe Encore,Restaurant/Cafe/Canteen,1,5,,356117,0,,51.70804300000000,10/00072/FCAFE,022,envhealth@chiltern.gov.uk,Chiltern,http://www.chiltern.gov.uk,-0.61233000000000,HP5 1HR,2013-09-30,fhrs_5_en-GB,5,,FHRS,0
222757,99 High Street,Great Missenden,Buckinghamshire,,Cafe Toria,Other catering premises,7841,5,,355852,5,,51.70156300000000,05700/0099/0/000,022,envhealth@chiltern.gov.uk,Chiltern,http://www.chiltern.gov.uk,-0.70478100000000,HP16 0BB,2012-12-19,fhrs_5_en-GB,5,,FHRS,0
222758,The Roald Dahl Museum and Story Cen,83B High Street,Great Missenden,Buckinghamshire,Cafe Twit,Other catering premises,7841,5,,355869,5,,51.70283100000000,06/00018/FCAFE,022,envhealth@chiltern.gov.uk,Chiltern,http://www.chiltern.gov.uk,-0.70645300000000,HP16 0AL,2014-03-13,fhrs_4_en-GB,4,,FHRS,10
222759,68 The Broadway,High Street,Chesham,Buckinghamshire,Caffe Nero,Other catering premises,7841,5,,355862,0,,51.70621500000000,05760/0068/0/000,022,envhealth@chiltern.gov.uk,Chiltern,http://www.chiltern.gov.uk,-0.61287800000000,HP5 1EG,2012-02-16,fhrs_5_en-GB,5,,FHRS,5
222760,,,,,Cake Elation,Other catering premises,7841,0,,564283,5,,,13/00022/FHCAT,022,envhealth@chiltern.gov.uk,Chiltern,http://www.chiltern.gov.uk,,,2013-05-08,fhrs_4_en-GB,4,,FHRS,10
222761,,,,,Cakes,Other catering premises,7841,0,,356176,0,,,11/00029/FHCAT,022,envhealth@chiltern.gov.uk,Chiltern,http://www.chiltern.gov.uk,,,2014-07-18,fhrs_5_en-GB,5,,FHRS,0
222762,,,,,Cakes About U,Other catering premises,7841,0,,484880,0,,,12/00064/FHCAT,022,envhealth@chiltern.gov.uk,Chiltern,http://www.chiltern.gov.uk,,,2012-11-26,fhrs_5_en-GB,5,,FHRS,0
222763,,,,,Cakes By Caz,Other catering premises,7841,10,,356188,10,,,11/00051/FHCAT,022,envhealth@chiltern.gov.uk,Chiltern,http://www.chiltern.gov.uk,,,2012-03-21,fhrs_4_en-GB,4,,FHRS,0
222764,Gower House,The Gowers,Amersham,Buckinghamshire,Camaraderie,Pub/bar/nightclub,7843,0,,543193,0,,51.68144100000000,13/00010/FOLD,022,envhealth@chiltern.gov.uk,Chiltern,http://www.chiltern.gov.uk,-0.59533800000000,HP6 6ES,2014-06-18,fhrs_5_en-GB,5,,FHRS,5
222765,Pond Approach,Holmer Green,Buckinghamshire,,Caramel Square,Other catering premises,7841,10,,356045,5,,51.66394400000000,09/00015/FCAFE,022,envhealth@chiltern.gov.uk,Chiltern,http://www.chiltern.gov.uk,-0.69600800000000,HP15 6RH,2012-06-27,fhrs_4_en-GB,4,,FHRS,5
222766,47 Darvell Drive,Chesham,Buckinghamshire,,Carlsburger,Mobile caterer,7846,0,,516718,5,,51.71591400000000,13/00002/FMOB,022,envhealth@chiltern.gov.uk,Chiltern,http://www.chiltern.gov.uk,-0.62329400000000,HP5 2QN,2013-02-15,fhrs_5_en-GB,5,,FHRS,0
222767,Dr Challoners High School For Girls,Cokes Lane,Little Chalfont,Amersham,Cater Link,Other catering premises,7841,5,,355748,5,,51.66731300000000,03000/4037/3/001,022,envhealth@chiltern.gov.uk,Chiltern,http://www.chiltern.gov.uk,-0.56986200000000,HP7 9QB,2012-05-11,fhrs_4_en-GB,4,,FHRS,10
222768,Great Missenden C E Combined School,Church Street,Great Missenden,Buckinghamshire,Cater Link,School/college/university,7845,0,,355746,0,,51.70238000000000,02800/2004/2/000,022,envhealth@chiltern.gov.uk,Chiltern,http://www.chiltern.gov.uk,-0.70378800000000,HP16 0AZ,2014-10-06,fhrs_5_en-GB,5,,FHRS,0
222769,Amersham And Wycombe College,Amersham Campus,Stanley Hill,Amersham,Caterlink,School/college/university,7845,0,,468209,0,,51.66828900000000,12/00078/FCAT,022,envhealth@chiltern.gov.uk,Chiltern,http://www.chiltern.gov.uk,-0.59036500000000,HP7 9HN,2014-03-05,fhrs_4_en-GB,4,,FHRS,10
222770,,,,,Celebrate Cakes,Retailers - other,4613,5,,356113,0,,,10/00065/FHCAT,022,envhealth@chiltern.gov.uk,Chiltern,http://www.chiltern.gov.uk,,,2010-08-18,fhrs_5_en-GB,5,,FHRS,0
222771,,,,,Celebratory Cakes,Hospitals/Childcare/Caring Premises,5,0,,356132,0,,,10/00108/FHCAT,022,envhealth@chiltern.gov.uk,Chiltern,http://www.chiltern.gov.uk,,,2011-07-26,fhrs_5_en-GB,5,,FHRS,0
222772,M and Co Ltd,48 - 52 High Street,Chesham,Buckinghamshire,Central Cafe,Restaurant/Cafe/Canteen,1,5,,531050,0,,51.70489500000000,13/00020/FCAFE,022,envhealth@chiltern.gov.uk,Chiltern,http://www.chiltern.gov.uk,-0.61304900000000,HP5 1EP,2013-03-25,fhrs_5_en-GB,5,,FHRS,5
222773,69 Chartridge Lane,Chesham,Buckinghamshire,,Centurion Healthcare Ltd,Hospitals/Childcare/Caring Premises,5,10,,356190,5,,51.71105400000000,11/00057/FOLD,022,envhealth@chiltern.gov.uk,Chiltern,http://www.chiltern.gov.uk,-0.62371600000000,HP5 2RG,2014-05-20,fhrs_4_en-GB,4,,FHRS,5
222774,Unit 5 The Business Centre,Corinium Industrial Estate,Raans Road,Amersham,Chalfont Classic Cuisine,Other catering premises,7841,5,,356145,5,,51.67302800000000,10120/2012/3/005,022,envhealth@chiltern.gov.uk,Chiltern,http://www.chiltern.gov.uk,-0.58660300000000,HP6 6FB,2013-06-14,fhrs_5_en-GB,5,,FHRS,0
222775,23 Rickmansworth Lane,Chalfont St Peter,Buckinghamshire,,Chalfont Common Food Fayre Ltd,Retailers - other,4613,10,,356153,0,,51.61867400000000,10310/2065/2/000,022,envhealth@chiltern.gov.uk,Chiltern,http://www.chiltern.gov.uk,-0.54839500000000,SL9 0NA,2012-02-22,fhrs_4_en-GB,4,,FHRS,5
222776,Denham Lane,Chalfont St. Peter,Gerrards Cross,,Chalfont Lodge Nursing Care Home,Other catering premises,7841,0,,355759,0,,51.59883300000000,03600/2013/2/000,022,envhealth@chiltern.gov.uk,Chiltern,http://www.chiltern.gov.uk,-0.53789600000000,SL9 0QQ,2013-11-19,fhrs_5_en-GB,5,,FHRS,0
222777,National Society For Epilepsy,Chesham Lane,Chalfont St Peter,Buckinghamshire,Chalfont Market Garden,Retailers - other,4613,5,,356199,5,,51.62184600000000,11/00080/FMKTL,022,envhealth@chiltern.gov.uk,Chiltern,http://www.chiltern.gov.uk,-0.55047500000000,SL9 0RJ,2012-03-20,fhrs_5_en-GB,5,,FHRS,5
222778,105 White Lion Road,Amersham,Buckinghamshire,,Chalfont Oriental,Takeaway/sandwich shop,7844,10,,356328,5,,51.67130100000000,13520/0105/0/000,022,envhealth@chiltern.gov.uk,Chiltern,http://www.chiltern.gov.uk,-0.58434300000000,HP7 9JR,2014-03-13,fhrs_3_en-GB,3,,FHRS,10
222779,Chalfont Park Sport Club,Chalfont St Peter Bypass,Chalfont St Peter,Buckinghamshire,Chalfont Park Hospitality Ltd,Other catering premises,7841,0,,636677,0,,51.59779800000000,13/00082/FCLBH,022,envhealth@chiltern.gov.uk,Chiltern,http://www.chiltern.gov.uk,-0.54868600000000,SL9 0QA,2013-12-10,fhrs_5_en-GB,5,,FHRS,0
222780,The Lodge,Chalfont Park,Chalfont St. Peter,Gerrards Cross,Chalfont Park Nursery,Other catering premises,7841,0,,355709,5,,51.59779800000000,01970/2007/2/000,022,envhealth@chiltern.gov.uk,Chiltern,http://www.chiltern.gov.uk,-0.54868600000000,SL9 0QA,2014-06-23,fhrs_5_en-GB,5,,FHRS,5
222781,Crossleys,Chalfont St Giles,Buckinghamshire,,Chalfont St Giles Bowling Club,Pub/bar/nightclub,7843,,,355753,,,51.62888500000000,03320/0013/2/000,022,envhealth@chiltern.gov.uk,Chiltern,http://www.chiltern.gov.uk,-0.58122800000000,HP8 4LB,2009-05-07,fhrs_exempt_en-GB,Exempt,,FHRS,
222782,School Lane,Chalfont St. Giles,Buckinghamshire,,Chalfont St Giles County First School,Other catering premises,7841,5,,356159,5,,51.63133000000000,10740/2000/2/000,022,envhealth@chiltern.gov.uk,Chiltern,http://www.chiltern.gov.uk,-0.57223600000000,HP8 4JJ,2006-10-02,fhrs_5_en-GB,5,,FHRS,0
222783,Chalfont St Giles Memorial Hall,School Lane,Chalfont St Giles,Buckinghamshire,Chalfont St Giles Infant School And Nursery,Hospitals/Childcare/Caring Premises,5,0,,355941,5,,51.63133000000000,07/00155/FSCHNC,022,envhealth@chiltern.gov.uk,Chiltern,http://www.chiltern.gov.uk,-0.57223600000000,HP8 4JJ,2014-05-09,fhrs_5_en-GB,5,,FHRS,5
222784,Chalfont St Giles Cricket Club,Bowstridge Lane,Chalfont St Giles,Buckinghamshire,Chalfont St Giles Pre School Playgroup,Hospitals/Childcare/Caring Premises,5,5,,355887,5,,51.62834000000000,07/00009/FNURSE,022,envhealth@chiltern.gov.uk,Chiltern,http://www.chiltern.gov.uk,-0.57038000000000,HP8 4QN,2013-09-09,fhrs_5_en-GB,5,,FHRS,5
222785,Tennis Club Recreation Ground,Bowstridge Lane,Chalfont St Giles,Buckinghamshire,Chalfont St Giles Tennis Club,Pub/bar/nightclub,7843,,,531049,,,51.62888500000000,13/00018/FCLBL,022,envhealth@chiltern.gov.uk,Chiltern,http://www.chiltern.gov.uk,-0.58122800000000,HP8 4LB,2013-04-04,fhrs_exempt_en-GB,Exempt,,FHRS,
222786,Narcot Lane,Chalfont St. Giles,Buckinghamshire,,Chalfont St Giles Youth Club,Other catering premises,7841,0,,356028,0,,51.62794100000000,08590/2030/2/000,022,envhealth@chiltern.gov.uk,Chiltern,http://www.chiltern.gov.uk,-0.58273100000000,HP8 4DA,2012-03-15,fhrs_5_en-GB,5,,FHRS,0
222787,Gravel Hill,Chalfont St. Peter,Gerrards Cross,Buckinghamshire,Chalfont St Peter Football Club,Other catering premises,7841,10,,564282,15,,51.61027000000000,04830/2030/2/000,022,envhealth@chiltern.gov.uk,Chiltern,http://www.chiltern.gov.uk,-0.55894600000000,SL9 9QX,2014-03-15,fhrs_2_en-GB,2,,FHRS,0
222788,Lovel End,Chalfont St. Peter,Gerrards Cross,Buckinghamshire,Chalfont St Peter Infant School,Other catering premises,7841,5,,355963,5,,51.61083700000000,07580/2002/2/000,022,envhealth@chiltern.gov.uk,Chiltern,http://www.chiltern.gov.uk,-0.56776700000000,SL9 9PB,2011-08-18,fhrs_5_en-GB,5,,FHRS,5
222789,Tennis Court And Pavilion,Gravel Hill,Chalfont St Peter,Buckinghamshire,Chalfont St Peter Tennis Club,Other catering premises,7841,,,355788,,,51.61027000000000,04830/2043/2/000,022,envhealth@chiltern.gov.uk,Chiltern,http://www.chiltern.gov.uk,-0.55894600000000,SL9 9QX,2008-03-25,fhrs_exempt_en-GB,Exempt,,FHRS,
222790,Tithe Barn,Sandy Rise,Chalfont St. Peter,Gerrards Cross,Chalfont St Peter Youth Centre,Other catering premises,7841,,,356156,,,51.60805100000000,10650/2005/2/000,022,envhealth@chiltern.gov.uk,Chiltern,http://www.chiltern.gov.uk,-0.55321100000000,SL9 9TR,2012-06-08,fhrs_exempt_en-GB,Exempt,,FHRS,
222791,4 Station Approach,Little Chalfont,Amersham,Buckinghamshire,Chalfont Tandoori,Takeaway/sandwich shop,7844,10,,356237,10,,51.66790700000000,11380/0004/0/000,022,envhealth@chiltern.gov.uk,Chiltern,http://www.chiltern.gov.uk,-0.56100800000000,HP7 9PR,2014-08-28,fhrs_3_en-GB,3,,FHRS,10
222792,BP Express Shopping Ltd,68 White Lion Road,Amersham,Buckinghamshire,Chalfonts Way SF Connect,Retailers - other,4613,0,,356327,0,,51.67153600000000,13520/0066/0/000,022,envhealth@chiltern.gov.uk,Chiltern,http://www.chiltern.gov.uk,-0.58369900000000,HP7 9JS,2014-01-22,fhrs_5_en-GB,5,,FHRS,0
222793,High Street,Great Missenden,Buckinghamshire,,Chalk Leys Elderly Peoples Home,Other catering premises,7841,0,,355855,0,,51.70156300000000,05700/2036/2/000,022,envhealth@chiltern.gov.uk,Chiltern,http://www.chiltern.gov.uk,-0.70478100000000,HP16 0BB,2014-06-16,fhrs_5_en-GB,5,,FHRS,5
222794,Chartridge Lodge,Chartridge Road,Chartridge,Buckinghamshire,Chartridge Centre Ltd,Hotel/bed & breakfast/guest house,7842,5,,355718,0,,51.72979600000000,02100/2055/2/000,022,envhealth@chiltern.gov.uk,Chiltern,http://www.chiltern.gov.uk,-0.66133100000000,HP5 2TU,2014-09-02,fhrs_5_en-GB,5,,FHRS,0
222795,Chartridge Lane,Chesham,Buckinghamshire,,Chartridge Park Golf Club,Other catering premises,7841,5,,355723,5,,51.72339000000000,02110/2014/2/000,022,envhealth@chiltern.gov.uk,Chiltern,http://www.chiltern.gov.uk,-0.64840300000000,HP5 2TF,2013-03-12,fhrs_5_en-GB,5,,FHRS,5
222796,,,,,Chassebi's,Hospitals/Childcare/Caring Premises,5,5,,356008,0,,,08/00086/FHCAT,022,envhealth@chiltern.gov.uk,Chiltern,http://www.chiltern.gov.uk,,,2014-01-15,fhrs_5_en-GB,5,,FHRS,0
222797,Chenies Village,Chenies,Rickmansworth,Hertfordshire,Chenies Baptist Church,Other catering premises,7841,5,,355727,0,,51.67182922363281,02160/2005/2/000,022,envhealth@chiltern.gov.uk,Chiltern,http://www.chiltern.gov.uk,-0.52425241470337,WD3 6ED,2011-11-15,fhrs_5_en-GB,5,,FHRS,0
222798,The Chequers Public House,High Street,Prestwood,Buckinghamshire,Chequers Peking Cuisine,Other catering premises,7841,10,,355913,15,,51.69996900000000,07/00074/FRESTC,022,envhealth@chiltern.gov.uk,Chiltern,http://www.chiltern.gov.uk,-0.74177000000000,HP16 9HD,2014-03-22,fhrs_2_en-GB,2,,FHRS,10
222799,9 Stubbs Wood,Amersham,Buckinghamshire,,Cheriton Residential Care Home,Other catering premises,7841,0,,356241,0,,51.68423300000000,11600/0009/0/000,022,envhealth@chiltern.gov.uk,Chiltern,http://www.chiltern.gov.uk,-0.59648100000000,HP6 6EY,2013-06-24,fhrs_5_en-GB,5,,FHRS,5
222800,Cherry Garth Residential Home,Orchard Way,Holmer Green,Buckinghamshire,Cherry Garth,Hospitals/Childcare/Caring Premises,5,5,,375766,5,,51.66281000000000,12/00021/FOLD,022,envhealth@chiltern.gov.uk,Chiltern,http://www.chiltern.gov.uk,-0.69589600000000,HP15 6RF,2014-09-29,fhrs_5_en-GB,5,,FHRS,0
222801,Ashridge Lane,Ley Hill,Chesham,Buckinghamshire,Chesham & Ley Hill Golf Club,Other catering premises,7841,5,,355945,5,,51.70573400000000,07110/2040/2/000,022,envhealth@chiltern.gov.uk,Chiltern,http://www.chiltern.gov.uk,-0.56164600000000,HP5 1UZ,2014-09-22,fhrs_5_en-GB,5,,FHRS,5
222802,Pednor Road,Chesham,Buckinghamshire,,Chesham 1879 Lawn Tennis and Squash Club,Other catering premises,7841,5,,356083,0,,51.70349900000000,09480/2028/2/000,022,envhealth@chiltern.gov.uk,Chiltern,http://www.chiltern.gov.uk,-0.62125400000000,HP5 2JU,2013-10-01,fhrs_5_en-GB,5,,FHRS,0
222803,Darvell and Sons,28 High Street,Chesham,Buckinghamshire,Chesham Bakehouse,Manufacturers/packers,7839,10,,355835,10,,51.70489500000000,05690/0028/0/000,022,envhealth@chiltern.gov.uk,Chiltern,http://www.chiltern.gov.uk,-0.61304900000000,HP5 1EP,2014-06-26,fhrs_3_en-GB,3,,FHRS,10
222804,Bois Lane,Amersham,Buckinghamshire,,Chesham Bois CE Combined School,Other catering premises,7841,0,,355677,0,,51.68761800000000,01130/2014/2/000,022,envhealth@chiltern.gov.uk,Chiltern,http://www.chiltern.gov.uk,-0.59830000000000,HP6 6DE,2009-12-11,fhrs_5_en-GB,5,,FHRS,0
222805,The Common,North Road,Chesham Bois,Amersham,Chesham Bois Cricket Club,Other catering premises,7841,,,356038,,,51.68367400000000,08860/2030/2/000,022,envhealth@chiltern.gov.uk,Chiltern,http://www.chiltern.gov.uk,-0.60467100000000,HP6 5NA,2008-12-22,fhrs_exempt_en-GB,Exempt,,FHRS,
222806,Amersham Road,Chesham,Buckinghamshire,,Chesham Bois Manor,Other catering premises,7841,0,,626979,0,,51.69896200000000,900180/2007/2/000,022,envhealth@chiltern.gov.uk,Chiltern,http://www.chiltern.gov.uk,-0.61163900000000,HP5 1NE,2014-01-15,fhrs_5_en-GB,5,,FHRS,5
222807,Woodfield Park,Amersham,Buckinghamshire,,Chesham Bois Tennis and Squash Club,Other catering premises,7841,,,356336,,,51.68289300000000,13810/2000/2/000,022,envhealth@chiltern.gov.uk,Chiltern,http://www.chiltern.gov.uk,-0.61923300000000,HP6 5QQ,2014-06-16,fhrs_exempt_en-GB,Exempt,,FHRS,
222808,10 Bury Lane,Chesham,Buckinghamshire,,Chesham Bowls Club,Other catering premises,7841,0,,355696,0,,51.70444700000000,01680/0010/0/000,022,envhealth@chiltern.gov.uk,Chiltern,http://www.chiltern.gov.uk,-0.61545100000000,HP5 1HX,2013-05-02,fhrs_5_en-GB,5,,FHRS,0
222809,20 Church Street,Chesham,Buckinghamshire,,Chesham Cottage Chinese Restaurant,Other catering premises,7841,5,,355743,0,,51.70426400000000,02790/0020/0/000,022,envhealth@chiltern.gov.uk,Chiltern,http://www.chiltern.gov.uk,-0.61519600000000,HP5 1HU,2013-03-21,fhrs_5_en-GB,5,,FHRS,5
222810,Chesham Swimming Pool And Leisure C,Moor Road,Chesham,Buckinghamshire,Chesham Moor Gym & Swim,Restaurant/Cafe/Canteen,1,5,,692371,0,,51.70225700000000,08380/2006/3/001,022,envhealth@chiltern.gov.uk,Chiltern,http://www.chiltern.gov.uk,-0.61651600000000,HP5 1JH,2014-08-08,fhrs_5_en-GB,5,,FHRS,0
222811,Two Dells Lane,Orchard Leigh,Chesham,Buckinghamshire,Chesham Preparatory School,School/college/university,7845,5,,356074,0,,51.72221500000000,09090/2012/2/000,022,envhealth@chiltern.gov.uk,Chiltern,http://www.chiltern.gov.uk,-0.57859800000000,HP5 3QF,2013-11-12,fhrs_5_en-GB,5,,FHRS,0
222812,Chesham Park Community College,Chartridge Lane,Chesham,Buckinghamshire,Chesham Stags Rugby Club,Other catering premises,7841,5,,355721,0,,51.71105400000000,02110/2009/3/001,022,envhealth@chiltern.gov.uk,Chiltern,http://www.chiltern.gov.uk,-0.62371600000000,HP5 2RG,2011-11-24,fhrs_5_en-GB,5,,FHRS,0
222813,48 Broad Street,Chesham,Buckinghamshire,,Chesham Tandoori,Other catering premises,7841,10,,355684,5,,51.70919800000000,01450/0048/0/000,022,envhealth@chiltern.gov.uk,Chiltern,http://www.chiltern.gov.uk,-0.61042800000000,HP5 3DX,2013-02-26,fhrs_4_en-GB,4,,FHRS,0
222814,Amy Lane,Chesham,Buckinghamshire,,Chesham United Football Club,Other catering premises,7841,10,,355653,0,,51.69896200000000,00230/2013/2/000,022,envhealth@chiltern.gov.uk,Chiltern,http://www.chiltern.gov.uk,-0.61163900000000,HP5 1NE,2013-09-03,fhrs_4_en-GB,4,,FHRS,5
222815,Old Drill Hall,Bellingdon Road,Chesham,Buckinghamshire,Chesham Youth Centre,Other catering premises,7841,,,355664,,,51.70796200000000,00840/2012/2/000,022,envhealth@chiltern.gov.uk,Chiltern,http://www.chiltern.gov.uk,-0.61388200000000,HP5 2HA,2014-07-18,fhrs_exempt_en-GB,Exempt,,FHRS,
222816,Chess Vale Bowls Club,111 Asheridge Road,Chesham,Buckinghamshire,Chess Vale Bowling Club,Pub/bar/nightclub,7843,,,355810,,,51.71815400000000,05/00133/FCLBC,022,envhealth@chiltern.gov.uk,Chiltern,http://www.chiltern.gov.uk,-0.62267600000000,HP5 2PZ,2013-12-13,fhrs_exempt_en-GB,Exempt,,FHRS,
222817,1 The Phygtle,Chalfont St. Peter,Gerrards Cross,Buckinghamshire,Childlink Early Learning Centre,Other catering premises,7841,0,,356286,5,,51.61585500000000,12220/0001/0/000,022,envhealth@chiltern.gov.uk,Chiltern,http://www.chiltern.gov.uk,-0.55170600000000,SL9 0JT,2014-12-04,fhrs_5_en-GB,5,,FHRS,0
222818,17 Hill Avenue,Amersham,Buckinghamshire,,Chilli Indian Restaurant,Restaurant/Cafe/Canteen,1,10,,676304,5,,51.67485900000000,14/00024/FRESTI,022,envhealth@chiltern.gov.uk,Chiltern,http://www.chiltern.gov.uk,-0.60744400000000,HP6 5BD,2014-04-28,fhrs_2_en-GB,2,,FHRS,15
222819,Bottrells Lane,Coleshill,Amersham,Buckinghamshire,Chiltern Farm Food,Retailers - other,4613,10,,355682,0,,51.63761700000000,01240/2002/2/000,022,envhealth@chiltern.gov.uk,Chiltern,http://www.chiltern.gov.uk,-0.61066600000000,HP7 0JX,2013-12-13,fhrs_4_en-GB,4,,FHRS,0
222820,Chartridge Lane,Chesham,Buckinghamshire,,Chiltern Hills Academy,School/college/university,7845,0,,355720,0,,51.71105400000000,02110/2009/2/000,022,envhealth@chiltern.gov.uk,Chiltern,http://www.chiltern.gov.uk,-0.62371600000000,HP5 2RG,2013-10-09,fhrs_5_en-GB,5,,FHRS,5
222821,All Saints Church,31 Oval Way,Gerrards Cross,Buckinghamshire,Chiltern Nursery,Other catering premises,7841,5,,356077,0,,51.59467100000000,09180/2006/2/000,022,envhealth@chiltern.gov.uk,Chiltern,http://www.chiltern.gov.uk,-0.55692800000000,SL9 8PZ,2014-06-09,fhrs_5_en-GB,5,,FHRS,0
222822,Chiltern Open Air Museum,Gorelands Lane,Chalfont St. Giles,Buckinghamshire,Chiltern Open Air Museum Enterprises Ltd Cafe,Other catering premises,7841,10,,355785,5,,51.63219700000000,04740/2042/2/000,022,envhealth@chiltern.gov.uk,Chiltern,http://www.chiltern.gov.uk,-0.53965600000000,HP8 4AB,2014-10-21,fhrs_4_en-GB,4,,FHRS,5
222823,ChurchHall,St Johns Methodist Church,Woodside Road,Amersham,Chiltern Opportunity Playgroup,Other catering premises,7841,5,,355996,5,,51.67782000000000,08/00031/FNURSE,022,envhealth@chiltern.gov.uk,Chiltern,http://www.chiltern.gov.uk,-0.60237800000000,HP6 6AJ,2011-05-31,fhrs_5_en-GB,5,,FHRS,5
222824,Cameron Road,Chesham,Buckinghamshire,,Chiltern Skills and Enterprise Centre,School/college/university,7845,5,,643537,5,,51.71157000000000,13/00089/FSCHFC,022,envhealth@chiltern.gov.uk,Chiltern,http://www.chiltern.gov.uk,-0.60187300000000,HP5 3BP,2014-03-03,fhrs_5_en-GB,5,,FHRS,0
222825,Chiltern Way Federation Prestwood C,Nairdwood Lane,Prestwood,Buckinghamshire,Chiltern Way Federation,School/college/university,7845,5,,356025,0,,51.69375500000000,08560/2008/2/000,022,envhealth@chiltern.gov.uk,Chiltern,http://www.chiltern.gov.uk,-0.72838500000000,HP16 0QQ,2011-12-08,fhrs_5_en-GB,5,,FHRS,0
222826,Chiltern Avenue,Amersham,Buckinghamshire,,Chiltern Youth Centre,Other catering premises,7841,,,355737,,,51.67627200000000,02570/2006/2/000,022,envhealth@chiltern.gov.uk,Chiltern,http://www.chiltern.gov.uk,-0.60225200000000,HP6 5AH,2008-12-22,fhrs_exempt_en-GB,Exempt,,FHRS,
222827,The Pavilion,Chalfont Road,Seer Green,Beaconsfield,Chilterns Montessori School,Other catering premises,7841,5,,355711,5,,51.62064300000000,01980/2001/3/001,022,envhealth@chiltern.gov.uk,Chiltern,http://www.chiltern.gov.uk,-0.60253100000000,HP9 2QP,2010-01-21,fhrs_5_en-GB,5,,FHRS,5
222828,27 Broadway,Amersham,Buckinghamshire,,Chimichanga,Restaurant/Cafe/Canteen,1,5,,356202,5,,51.66629500000000,11/00088/FRESTO,022,envhealth@chiltern.gov.uk,Chiltern,http://www.chiltern.gov.uk,-0.61472000000000,HP7 0HL,2014-01-30,fhrs_4_en-GB,4,,FHRS,10
222829,Beech Tree House,65 Beech Tree Road,Holmer Green,Buckinghamshire,Choice Care Group,Hospitals/Childcare/Caring Premises,5,0,,643547,0,,51.66794800000000,14/00020/FOLD,022,envhealth@chiltern.gov.uk,Chiltern,http://www.chiltern.gov.uk,-0.69952200000000,HP15 6UR,2014-03-18,fhrs_5_en-GB,5,,FHRS,0
222830,Gold Hill North,Chalfont St. Peter,Gerrards Cross,Buckinghamshire,Chung Ying House,Takeaway/sandwich shop,7844,10,,355781,10,,51.60588500000000,04670/2010/2/000,022,envhealth@chiltern.gov.uk,Chiltern,http://www.chiltern.gov.uk,-0.56213200000000,SL9 9JQ,2014-12-12,fhrs_3_en-GB,3,,FHRS,5
222831,,,,,Claire's Cake Boutique,Other catering premises,7841,10,,516714,0,,,12/00050/FHCAT,022,envhealth@chiltern.gov.uk,Chiltern,http://www.chiltern.gov.uk,,,2013-02-18,fhrs_4_en-GB,4,,FHRS,0
222832,,,,,Classic Caterine,Other catering premises,7841,5,,355986,5,,,07930/2009/2/000,022,envhealth@chiltern.gov.uk,Chiltern,http://www.chiltern.gov.uk,,,2010-03-03,fhrs_4_en-GB,4,,FHRS,10
222833,30 High Street,Great Missenden,Buckinghamshire,,Coffee Approach,Restaurant/Cafe/Canteen,1,10,,564286,5,,51.70352500000000,13/00035/FTAKO,022,envhealth@chiltern.gov.uk,Chiltern,http://www.chiltern.gov.uk,-0.70740200000000,HP16 0AU,2013-06-19,fhrs_4_en-GB,4,,FHRS,5
222834,Tower Road,Coleshill,Amersham,Buckinghamshire,Coleshill Cricket Club,Other catering premises,7841,,,356291,,,51.65305300000000,12460/2002/2/000,022,envhealth@chiltern.gov.uk,Chiltern,http://www.chiltern.gov.uk,-0.62334900000000,HP7 0LB,2002-04-24,fhrs_exempt_en-GB,Exempt,,FHRS,
222835,GE Healthcare Limited,The Grove Centre,White Lion Road,Little Chalfont,Compass Catering UK and Ireland,Restaurant/Cafe/Canteen,1,5,,356066,0,,51.67172700000000,09/00060/FCONTR,022,envhealth@chiltern.gov.uk,Chiltern,http://www.chiltern.gov.uk,-0.58686000000000,HP7 9LL,2012-11-09,fhrs_5_en-GB,5,,FHRS,5
222836,GE Healthcare,Amersham Place,Little Chalfont,Buckinghamshire,Compass Group,Other catering premises,7841,5,,355646,5,,51.66792500000000,00140/2000/3/001,022,envhealth@chiltern.gov.uk,Chiltern,http://www.chiltern.gov.uk,-0.56398600000000,HP7 9NA,2012-11-16,fhrs_5_en-GB,5,,FHRS,5
222837,Pollards Wood Laboratory,Nightingales Lane,Chalfont St. Giles,Buckinghamshire,Compass Services UK Ltd,Other catering premises,7841,5,,356036,10,,51.65536900000000,08800/2099/3/001,022,envhealth@chiltern.gov.uk,Chiltern,http://www.chiltern.gov.uk,-0.57185700000000,HP8 4SP,2013-01-08,fhrs_4_en-GB,4,,FHRS,0
222838,15 White Hill,Chesham,Buckinghamshire,,Confident Computing Limited,Restaurant/Cafe/Canteen,1,,,356210,,,51.70752800000000,11/00099/FCAFE,022,envhealth@chiltern.gov.uk,Chiltern,http://www.chiltern.gov.uk,-0.61062400000000,HP5 1AB,2011-09-26,fhrs_exempt_en-GB,Exempt,,FHRS,
222839,1-2 Sycamore Place,Hill Avenue,Amersham,Buckinghamshire,Convenience Store,Retailers - other,4613,10,,355868,15,,51.67500100000000,05840/0012/0/000,022,envhealth@chiltern.gov.uk,Chiltern,http://www.chiltern.gov.uk,-0.60801800000000,HP6 5BG,2014-06-12,fhrs_2_en-GB,2,,FHRS,10
222840,103 - 107 High Street,Prestwood,Buckinghamshire,,Co-op,Retailers - supermarkets/hypermarkets,7840,0,,356002,5,,51.69954100000000,08/00048/FSUPM,022,envhealth@chiltern.gov.uk,Chiltern,http://www.chiltern.gov.uk,-0.73958200000000,HP16 9EU,2013-03-04,fhrs_4_en-GB,4,,FHRS,10
222841,12 - 16 Station Approach,Great Missenden,Buckinghamshire,,Co-op,Retailers - supermarkets/hypermarkets,7840,5,,356067,5,,51.70432300000000,09/00062/FSUPM,022,envhealth@chiltern.gov.uk,Chiltern,http://www.chiltern.gov.uk,-0.70879800000000,HP16 9AZ,2012-02-28,fhrs_5_en-GB,5,,FHRS,5
222842,Stone House,12 High Street,Chalfont St Giles,Buckinghamshire,Co-op,Retailers - supermarkets/hypermarkets,7840,5,,355823,5,,51.63289800000000,05670/0012/2/000,022,envhealth@chiltern.gov.uk,Chiltern,http://www.chiltern.gov.uk,-0.56955800000000,HP8 4QA,2014-10-21,fhrs_5_en-GB,5,,FHRS,0
222843,Metro Court,Station Approach,Amersham,Buckinghamshire,Coriander Restaurant,Restaurant/Cafe/Canteen,1,0,,356051,0,,51.67471600000000,09/00031/FRESTI,022,envhealth@chiltern.gov.uk,Chiltern,http://www.chiltern.gov.uk,-0.60821500000000,HP6 5AZ,2013-11-25,fhrs_5_en-GB,5,,FHRS,0
222844,,,,,Cornelli Sugarcraft Specialists,Other catering premises,7841,10,,356201,0,,,11/00086/FHCAT,022,envhealth@chiltern.gov.uk,Chiltern,http://www.chiltern.gov.uk,,,2011-08-12,fhrs_4_en-GB,4,,FHRS,0
222845,35 - 37 Sycamore Road,Amersham,Buckinghamshire,,Costa,Other catering premises,7841,5,,355773,5,,51.67775600000000,04/00082/FCAFE,022,envhealth@chiltern.gov.uk,Chiltern,http://www.chiltern.gov.uk,-0.60682000000000,HP6 5EQ,2013-05-08,fhrs_5_en-GB,5,,FHRS,0
222846,13 Chenies Parade,Little Chalfont,Buckinghamshire,,Costa Coffee,Restaurant/Cafe/Canteen,1,0,,636687,5,,51.66687000000000,13/00111/FCAFE,022,envhealth@chiltern.gov.uk,Chiltern,http://www.chiltern.gov.uk,-0.56375900000000,HP7 9PH,2014-01-07,fhrs_5_en-GB,5,,FHRS,5
222847,31 High Street,Chesham,Buckinghamshire,,Costa Coffee,Restaurant/Cafe/Canteen,1,10,,356221,5,,51.70522800000000,11/00118/FCAFE,022,envhealth@chiltern.gov.uk,Chiltern,http://www.chiltern.gov.uk,-0.61233000000000,HP5 1BW,2014-10-07,fhrs_2_en-GB,2,,FHRS,15
222848,Tesco Stores Limited,London Road West,Amersham,Buckinghamshire,Costa Coffee,Other catering premises,7841,0,,355894,0,,51.66617500000000,07/00042/FCAFE,022,envhealth@chiltern.gov.uk,Chiltern,http://www.chiltern.gov.uk,-0.61135400000000,HP7 0HA,2011-12-13,fhrs_5_en-GB,5,,FHRS,0
222849,The Crown Public House,High Street,Chalfont St Giles,Buckinghamshire,Costa Coffee,Restaurant/Cafe/Canteen,1,5,,732971,5,,51.63173200000000,14/00100/FCAFE,022,envhealth@chiltern.gov.uk,Chiltern,http://www.chiltern.gov.uk,-0.57060500000000,HP8 4QQ,2014-12-31,fhrs_5_en-GB,5,,FHRS,0
222850,7 Greenway Parade,Greenway,Chesham,Buckinghamshire,Costcutters,Retailers - other,4613,10,,355811,0,,51.72151200000000,05020/0007/0/000,022,envhealth@chiltern.gov.uk,Chiltern,http://www.chiltern.gov.uk,-0.61687000000000,HP5 2DA,2014-01-15,fhrs_4_en-GB,4,,FHRS,0
222851,Chequers Parade,Wycombe Road,Prestwood,Great Missenden,Costcutters,Retailers - other,4613,10,,356343,10,,51.69944000000000,14000/2008/3/001,022,envhealth@chiltern.gov.uk,Chiltern,http://www.chiltern.gov.uk,-0.74195800000000,HP16 0PN,2014-05-12,fhrs_3_en-GB,3,,FHRS,10
222852,,,,,Country Markets,Retailers - other,4613,5,,355814,5,,,05070/0079/0/000,022,envhealth@chiltern.gov.uk,Chiltern,http://www.chiltern.gov.uk,,,2009-12-08,fhrs_5_en-GB,5,,FHRS,5
222853,Croft Cottage Care Home,17 Rickmansworth Lane,Chalfont St Peter,Buckinghamshire,Croft Cottage,Hospitals/Childcare/Caring Premises,5,5,,692374,5,,51.61662700000000,14/00034/FOLD,022,envhealth@chiltern.gov.uk,Chiltern,http://www.chiltern.gov.uk,-0.55234600000000,SL9 0JY,2014-06-27,fhrs_5_en-GB,5,,FHRS,0
222854,Church Road,Penn,High Wycombe,Buckinghamshire,Crown Inn,Other catering premises,7841,0,,356335,0,,51.63160500000000,13760/2021/2/000,022,envhealth@chiltern.gov.uk,Chiltern,http://www.chiltern.gov.uk,-0.67712600000000,HP10 8NY,2013-05-21,fhrs_5_en-GB,5,,FHRS,0
222855,5 The Broadway,Market Place,Chalfont St Peter,Buckinghamshire,Crumbs,Retailers - other,4613,10,,355911,5,,51.60733000000000,07/00072/FCAFE,022,envhealth@chiltern.gov.uk,Chiltern,http://www.chiltern.gov.uk,-0.55752300000000,SL9 9DX,2014-05-20,fhrs_4_en-GB,4,,FHRS,5
222856,130 Lye Green Road,Chesham,Buckinghamshire,,Culwood House Residential Home,Other catering premises,7841,5,,355969,0,,51.71549600000000,07670/0130/0/000,022,envhealth@chiltern.gov.uk,Chiltern,http://www.chiltern.gov.uk,-0.59105500000000,HP5 3NH,2011-05-18,fhrs_5_en-GB,5,,FHRS,0
222857,,,,,Cupcakes Joy,Other catering premises,7841,10,,643534,10,,,13/00046/FMKTL,022,envhealth@chiltern.gov.uk,Chiltern,http://www.chiltern.gov.uk,,,2014-03-31,fhrs_3_en-GB,3,,FHRS,10
222858,53 Oakington Avenue,Little Chalfont,Amersham,Buckinghamshire,Cupcakes Of Chalfont,Other catering premises,7841,0,,551270,5,,51.66762700000000,12/00053/FHCAT,022,envhealth@chiltern.gov.uk,Chiltern,http://www.chiltern.gov.uk,-0.55291900000000,HP6 6SX,2012-06-21,fhrs_5_en-GB,5,,FHRS,5
222859,St Georges Church Of England Primar,White Lion Road,Amersham,Buckinghamshire,Cygnet Catering,Other catering premises,7841,10,,356331,0,,51.67248900000000,13520/2017/2/000,022,envhealth@chiltern.gov.uk,Chiltern,http://www.chiltern.gov.uk,-0.59040800000000,HP7 9HX,2011-12-07,fhrs_4_en-GB,4,,FHRS,5
222860,Fairview Industrial Estate,Raans Road,Amersham,Buckinghamshire,Daves Snacks,Mobile caterer,7846,10,,636691,10,,51.67354200000000,14/00022/FMOB,022,envhealth@chiltern.gov.uk,Chiltern,http://www.chiltern.gov.uk,-0.58521300000000,HP6 6JY,2014-02-12,fhrs_3_en-GB,3,,FHRS,5
222861,Whielden Street,Amersham,Buckinghamshire,,Day Nursery Amersham Hospital,Other catering premises,7841,0,,355803,0,,51.66295700000000,05/00102/FNURSE,022,envhealth@chiltern.gov.uk,Chiltern,http://www.chiltern.gov.uk,-0.62140000000000,HP7 0JD,2012-05-28,fhrs_5_en-GB,5,,FHRS,0
222862,29 Chiltern Avenue,Amersham,Buckinghamshire,,Daybreak Nurseries,Hospitals/Childcare/Caring Premises,5,0,,698988,0,,51.67637700000000,14/00006/FNURSH,022,envhealth@chiltern.gov.uk,Chiltern,http://www.chiltern.gov.uk,-0.60346400000000,HP6 5AE,2014-03-26,fhrs_5_en-GB,5,,FHRS,0
222863,Herald House,150 Station Road,Amersham,Buckinghamshire,Daybreak Nurseries,Other catering premises,7841,5,,356240,5,,51.67466000000000,11410/0150/0/000,022,envhealth@chiltern.gov.uk,Chiltern,http://www.chiltern.gov.uk,-0.60885300000000,HP6 5DW,2014-05-19,fhrs_5_en-GB,5,,FHRS,5
222864,Latimer Place,Latimer,Buckinghamshire,,De Vere Venues,Hotel/bed & breakfast/guest house,7842,,,643531,,,51.67941300000000,`06870/2028/3/001,022,envhealth@chiltern.gov.uk,Chiltern,http://www.chiltern.gov.uk,-0.55561000000000,HP5 1UG,2014-01-15,fhrs_5_en-GB,5,,FHRS,
222865,London Road,Little Kingshill,Great Missenden,Buckinghamshire,Deep Mill Diner,Other catering premises,7841,10,,355954,10,,51.68588000000000,07390/2007/2/000,022,envhealth@chiltern.gov.uk,Chiltern,http://www.chiltern.gov.uk,-0.68277800000000,HP16 0DH,2013-10-23,fhrs_3_en-GB,3,,FHRS,5
222866,3 - 4 Buckingham Parade,Market Place,Chalfont St Peter,Buckinghamshire,Delhi Spice,Restaurant/Cafe/Canteen,1,5,,356265,5,,51.60692500000000,12/00007/FRESTC,022,envhealth@chiltern.gov.uk,Chiltern,http://www.chiltern.gov.uk,-0.55744900000000,SL9 9EH,2013-08-19,fhrs_4_en-GB,4,,FHRS,10
222867,,,,,Dinky Donuts,Mobile caterer,7846,0,,577198,0,,,13/00041/FMOB,022,envhealth@chiltern.gov.uk,Chiltern,http://www.chiltern.gov.uk,,,2013-07-15,fhrs_5_en-GB,5,,FHRS,0
222868,,,,,Dinners For Sinners,Other catering premises,7841,5,,356316,5,,,13440/0054/0/000,022,envhealth@chiltern.gov.uk,Chiltern,http://www.chiltern.gov.uk,,,2002-06-26,fhrs_5_en-GB,5,,FHRS,0
222869,Gorilla,Paper Stock House,Amersham Road,Chalfont St Giles,DJ BBQ Limited,Mobile caterer,7846,5,,636665,5,,51.64231800000000,13/00023/FMOB,022,envhealth@chiltern.gov.uk,Chiltern,http://www.chiltern.gov.uk,-0.57446400000000,HP8 4RU,2013-08-15,fhrs_5_en-GB,5,,FHRS,0
222870,Chestnut Lane School,105 Chestnut Lane,Amersham,Buckinghamshire,Dolce Ltd @ Chestnut School,Other catering premises,7841,10,,551272,10,,51.68156000000000,13/00025/FSCHNC,022,envhealth@chiltern.gov.uk,Chiltern,http://www.chiltern.gov.uk,-0.59779300000000,HP6 6EF,2013-05-07,fhrs_4_en-GB,4,,FHRS,0
222871,72 Sycamore Road,Amersham,Buckinghamshire,,Dominos Pizza,Takeaway/sandwich shop,7844,5,,356248,5,,51.67754400000000,11730/0072/0/000,022,envhealth@chiltern.gov.uk,Chiltern,http://www.chiltern.gov.uk,-0.60634900000000,HP6 5DR,2012-11-06,fhrs_5_en-GB,5,,FHRS,5
222872,Domino Pizza,26 Market Place,Chalfont St Peter,Buckinghamshire,Dominos Pizzas,Takeaway/sandwich shop,7844,0,,726432,0,,51.60660700000000,14/00076/FTAKO,022,envhealth@chiltern.gov.uk,Chiltern,http://www.chiltern.gov.uk,-0.56011600000000,SL9 9DU,2014-12-04,fhrs_5_en-GB,5,,FHRS,0
222873,East Street,Chesham,Buckinghamshire,,Douglas McMinn Centre,Other catering premises,7841,0,,355762,5,,51.70407600000000,03830/2007/2/000,022,envhealth@chiltern.gov.uk,Chiltern,http://www.chiltern.gov.uk,-0.61223500000000,HP5 1DG,2011-07-05,fhrs_5_en-GB,5,,FHRS,0
222874,Elangeni School,Woodside Avenue,Chesham Bois,Buckinghamshire,Dulce @ Elangeni School (lunch Supply),Other catering premises,7841,5,,551273,10,,51.68285200000000,13/00033/FSCHNC,022,envhealth@chiltern.gov.uk,Chiltern,http://www.chiltern.gov.uk,-0.59675500000000,HP6 6EG,2013-05-07,fhrs_4_en-GB,4,,FHRS,0
222875,Pond Approach,Holmer Green,High Wycombe,Buckinghamshire,Eastern Flavours,Other catering premises,7841,10,,636664,5,,51.66470400000000,1209820/2029/2/000,022,envhealth@chiltern.gov.uk,Chiltern,http://www.chiltern.gov.uk,-0.69563900000000,HP15 6RQ,2014-08-18,fhrs_3_en-GB,3,,FHRS,10
222876,Old Church Hall,Station Road,Chesham,Buckinghamshire,Education and Youth Services,School/college/university,7845,0,,531044,0,,51.70549900000000,12/00044/FSCHFC,022,envhealth@chiltern.gov.uk,Chiltern,http://www.chiltern.gov.uk,-0.61161200000000,HP5 1DH,2013-10-21,fhrs_5_en-GB,5,,FHRS,0
222877,The Elephant And Castle Public Hous,97 High Street,Amersham,Buckinghamshire,Elephant and Castle,Pub/bar/nightclub,7843,10,,356275,10,,51.66717200000000,12/00030/FPUBFC,022,envhealth@chiltern.gov.uk,Chiltern,http://www.chiltern.gov.uk,-0.61891500000000,HP7 0DT,2013-10-07,fhrs_3_en-GB,3,,FHRS,10
222878,Arqiva Ltd,The Manor House (Office),Chalfont Grove,Narcot Lane,Elior Uk Plc,Restaurant/Cafe/Canteen,1,0,,676300,5,,51.61372400000000,14/00015/FCONTR,022,envhealth@chiltern.gov.uk,Chiltern,http://www.chiltern.gov.uk,-0.57670300000000,SL9 8TN,2014-05-22,fhrs_5_en-GB,5,,FHRS,5
222879,Elmtree Hill,Chesham,Buckinghamshire,,Elmtree School,School/college/university,7845,0,,355908,0,,51.71106600000000,07/00068/FSCHNC,022,envhealth@chiltern.gov.uk,Chiltern,http://www.chiltern.gov.uk,-0.61707200000000,HP5 2PA,2009-12-01,fhrs_5_en-GB,5,,FHRS,0
222880,Broad Street,Chesham,Buckinghamshire,,Emmanuel Church,Other catering premises,7841,5,,355692,0,,51.71053100000000,01450/2003/2/000,022,envhealth@chiltern.gov.uk,Chiltern,http://www.chiltern.gov.uk,-0.60907000000000,HP5 3EF,2014-09-09,fhrs_5_en-GB,5,,FHRS,5
222881,London Road West,Amersham,Buckinghamshire,,Euphorium Bakery at Tesco Superstore,Retailers - supermarkets/hypermarkets,7840,10,,726433,10,,51.66617500000000,14/00102/FRETH,022,envhealth@chiltern.gov.uk,Chiltern,http://www.chiltern.gov.uk,-0.61135400000000,HP7 0HA,2014-11-24,fhrs_4_en-GB,4,,FHRS,0
222882,55 Highfield Close,Amersham,Buckinghamshire,,Everyeventuality,Other catering premises,7841,0,,502239,0,,51.67753200000000,13/00005/FHCAT,022,envhealth@chiltern.gov.uk,Chiltern,http://www.chiltern.gov.uk,-0.59781600000000,HP6 6HQ,2013-01-14,fhrs_5_en-GB,5,,FHRS,5
222883,,,,,Extravaganza Food,Other catering premises,7841,5,,355802,5,,,05/00094/FHCAT,022,envhealth@chiltern.gov.uk,Chiltern,http://www.chiltern.gov.uk,,,2012-04-05,fhrs_4_en-GB,4,,FHRS,10
222884,5 White Hill,Chesham,Buckinghamshire,,Farmhouse Pizza,Takeaway/sandwich shop,7844,10,,356191,10,,51.70752800000000,11/00062/FTAKO,022,envhealth@chiltern.gov.uk,Chiltern,http://www.chiltern.gov.uk,-0.61062400000000,HP5 1AB,2014-05-06,fhrs_3_en-GB,3,,FHRS,10
222885,Newland Park,Gorelands Lane,Chalfont St Giles,Buckinghamshire,Feature Academy,Other catering premises,7841,5,,636666,0,,51.63219700000000,13/00039/FCONTR,022,envhealth@chiltern.gov.uk,Chiltern,http://www.chiltern.gov.uk,-0.53965600000000,HP8 4AB,2013-09-12,fhrs_5_en-GB,5,,FHRS,5
222886,Filipettos,14 Chenies Parade,Little Chalfont,Buckinghamshire,Filippetto's,Other catering premises,7841,0,,355713,0,,51.66687000000000,02000/2013/3/001,022,envhealth@chiltern.gov.uk,Chiltern,http://www.chiltern.gov.uk,-0.56375900000000,HP7 9PH,2013-04-11,fhrs_5_en-GB,5,,FHRS,0
222887,Amersham Road,Chesham,Buckinghamshire,,Fitches Service Station Ltd,Retailers - other,4613,5,,551267,5,,51.70103500000000,04/03766/,022,envhealth@chiltern.gov.uk,Chiltern,http://www.chiltern.gov.uk,-0.61131500000000,HP5 1NQ,2013-05-22,fhrs_5_en-GB,5,,FHRS,5
222888,21 High Street,Chalfont St Peter,Buckinghamshire,,Flames and Fries,Takeaway/sandwich shop,7844,10,,355796,5,,51.60656100000000,05/00046/FRESTO,022,envhealth@chiltern.gov.uk,Chiltern,http://www.chiltern.gov.uk,-0.55634900000000,SL9 9QE,2013-11-12,fhrs_4_en-GB,4,,FHRS,0
222889,Flexmore House,Hill Farm Lane,Chalfont St Giles,Bucks,Flexmore Farm,Retailers - other,4613,10,,356004,0,,51.63790400000000,08/00055/FBUTM,022,envhealth@chiltern.gov.uk,Chiltern,http://www.chiltern.gov.uk,-0.58572900000000,HP8 4NT,2012-11-14,fhrs_4_en-GB,4,,FHRS,5
222890,,,,,Flying Saucers,Other catering premises,7841,10,,516715,5,,,12/00051/FHCAT,022,envhealth@chiltern.gov.uk,Chiltern,http://www.chiltern.gov.uk,,,2013-02-18,fhrs_4_en-GB,4,,FHRS,0
222891,FMY Chemists Ltd,36 High Street,Chesham,Buckinghamshire,FMY Chemists Ltd,Retailers - other,4613,,,355837,,,51.70489500000000,05690/0036/0/000,022,envhealth@chiltern.gov.uk,Chiltern,http://www.chiltern.gov.uk,-0.61304900000000,HP5 1EP,2006-10-31,fhrs_exempt_en-GB,Exempt,,FHRS,
222892,,,,,For Goodness Cake...,Other catering premises,7841,0,,356216,5,,,11/00109/FHCAT,022,envhealth@chiltern.gov.uk,Chiltern,http://www.chiltern.gov.uk,,,2011-10-26,fhrs_5_en-GB,5,,FHRS,5
222893,Woodlands,Oak Lane,St Leonards,Buckinghamshire,Forest View,Hospitals/Childcare/Caring Premises,5,10,,356127,5,,51.75094300000000,10/00097/FNURSH,022,envhealth@chiltern.gov.uk,Chiltern,http://www.chiltern.gov.uk,-0.66440000000000,HP23 6NN,2011-01-21,fhrs_4_en-GB,4,,FHRS,5
222894,,,,,Four Seasons Catering,Other catering premises,7841,5,,356340,0,,,13970/0021/0/000,022,envhealth@chiltern.gov.uk,Chiltern,http://www.chiltern.gov.uk,,,2014-02-06,fhrs_5_en-GB,5,,FHRS,0
222895,Silver Hill,Chalfont St. Giles,Buckinghamshire,,Fox and Hounds,Other catering premises,7841,5,,356227,5,,51.63273200000000,11010/2032/2/000,022,envhealth@chiltern.gov.uk,Chiltern,http://www.chiltern.gov.uk,-0.57291500000000,HP8 4PS,2013-08-28,fhrs_4_en-GB,4,,FHRS,10
222896,Water Meadow Surgery,31A Red Lion Street,Chesham,Buckinghamshire,Garlicks Chemist,Retailers - other,4613,,,356149,,,51.70311500000000,10250/0031/A/000,022,envhealth@chiltern.gov.uk,Chiltern,http://www.chiltern.gov.uk,-0.61307500000000,HP5 1ET,2011-01-25,fhrs_exempt_en-GB,Exempt,,FHRS,
222897,1 High Street,Great Missenden,Buckinghamshire,,Gateway School Limited,School/college/university,7845,0,,355848,5,,51.70589300000000,05700/0001/2/000,022,envhealth@chiltern.gov.uk,Chiltern,http://www.chiltern.gov.uk,-0.70931800000000,HP16 9AA,2011-11-15,fhrs_5_en-GB,5,,FHRS,0
222898,Lloyds Banking Group,Part First Floor Unit 2,Latimer House,White Lion Road,Gather and Gather Ltd,Restaurant/Cafe/Canteen,1,10,,468207,5,,51.67172700000000,12/00067/FCAT,022,envhealth@chiltern.gov.uk,Chiltern,http://www.chiltern.gov.uk,-0.58686000000000,HP7 9LL,2014-01-23,fhrs_4_en-GB,4,,FHRS,5
222899,Bull Lane,Chalfont St. Peter,Gerrards Cross,Buckinghamshire,Gayhurst School,School/college/university,7845,0,,355694,0,,51.59451400000000,01610/2037/2/000,022,envhealth@chiltern.gov.uk,Chiltern,http://www.chiltern.gov.uk,-0.56614400000000,SL9 8RJ,2013-09-12,fhrs_5_en-GB,5,,FHRS,0
222900,137 High Street,Chalfont St Peter,Buckinghamshire,,George Inn Public House,Pub/bar/nightclub,7843,5,,643532,0,,51.60787300000000,10/00064/FPUBFC,022,envhealth@chiltern.gov.uk,Chiltern,http://www.chiltern.gov.uk,-0.55559900000000,SL9 9QL,2014-03-22,fhrs_5_en-GB,5,,FHRS,5
222901,Chalfont Park,Chalfont St. Peter,Gerrards Cross,Buckinghamshire,Gerrards Cross Golf Club,Other catering premises,7841,5,,355707,5,,51.59779800000000,01970/2003/2/000,022,envhealth@chiltern.gov.uk,Chiltern,http://www.chiltern.gov.uk,-0.54868600000000,SL9 0QA,2011-09-13,fhrs_5_en-GB,5,,FHRS,5
222902,Bull Lane,Chalfont St Peter,Buckinghamshire,,Gerrards Cross Lawn Tennis Club,Other catering premises,7841,10,,355695,10,,51.59518900000000,01610/2050/2/000,022,envhealth@chiltern.gov.uk,Chiltern,http://www.chiltern.gov.uk,-0.56465000000000,SL9 8RN,2011-12-06,fhrs_4_en-GB,4,,FHRS,0
222903,46 High Street,Chesham,Buckinghamshire,,Gerry Martins Butchers,Retailers - other,4613,0,,355838,5,,51.70489500000000,05690/0044/0/000,022,envhealth@chiltern.gov.uk,Chiltern,http://www.chiltern.gov.uk,-0.61304900000000,HP5 1EP,2011-09-21,fhrs_5_en-GB,5,,FHRS,0
222904,1 Market Square,Amersham,Buckinghamshire,,Gilbeys Restaurant,Other catering premises,7841,5,,355981,0,,51.66656500000000,07910/0001/0/000,022,envhealth@chiltern.gov.uk,Chiltern,http://www.chiltern.gov.uk,-0.61624400000000,HP7 0DF,2014-11-17,fhrs_5_en-GB,5,,FHRS,0
222905,Gold Hill East,Chalfont St. Peter,Gerrards Cross,Buckinghamshire,Gold Hill Baptist Church,Other catering premises,7841,5,,355779,5,,51.60307700000000,04660/2016/2/000,022,envhealth@chiltern.gov.uk,Chiltern,http://www.chiltern.gov.uk,-0.56412700000000,SL9 9DG,2014-10-29,fhrs_5_en-GB,5,,FHRS,0
222906,Rock House,Austenwood Lane,Chalfont St Peter,Buckinghamshire,Gold Hill Housing Association,Other catering premises,7841,0,,355656,0,,51.60207200000000,00450/2016/3/001,022,envhealth@chiltern.gov.uk,Chiltern,http://www.chiltern.gov.uk,-0.56505400000000,SL9 9DF,2014-02-27,fhrs_5_en-GB,5,,FHRS,0
222907,41 Lower Road,Chalfont St. Peter,Gerrards Cross,Buckinghamshire,Golden River Takeaway,Takeaway/sandwich shop,7844,5,,355965,10,,51.60532300000000,07620/0041/0/000,022,envhealth@chiltern.gov.uk,Chiltern,http://www.chiltern.gov.uk,-0.55517500000000,SL9 9AL,2014-10-17,fhrs_4_en-GB,4,,FHRS,0
222908,Village Hall,Green West Road,Jordans,Buckinghamshire,Granby's Drinks Company Ltd,Other catering premises,7841,0,,636668,0,,51.61401300000000,13/00056/FMKTL,022,envhealth@chiltern.gov.uk,Chiltern,http://www.chiltern.gov.uk,-0.59626500000000,HP9 2SY,2013-08-06,fhrs_5_en-GB,5,,FHRS,0
222909,The Lee,Great Missenden,Buckinghamshire,,Graziemille Restaurant at The Cock and Rabbit,Other catering premises,7841,10,,356284,10,,51.73006439208984,12140/2039/2/000,022,envhealth@chiltern.gov.uk,Chiltern,http://www.chiltern.gov.uk,-0.69959396123886,HP16 9LZ,2014-10-06,fhrs_3_en-GB,3,,FHRS,10
222910,,,,,Great Griddler (Trading @ Frith Hill Lay-by Great Missenden),Mobile caterer,7846,10,,355800,15,,,05/00080/FMOB,022,envhealth@chiltern.gov.uk,Chiltern,http://www.chiltern.gov.uk,,,2014-03-26,fhrs_2_en-GB,2,,FHRS,15
222911,London Road,Little Kingshill,Great Missenden,Buckinghamshire,Great Missenden Lawn Tennis Club,Other catering premises,7841,5,,355956,0,,51.70050600000000,07390/2013/2/000,022,envhealth@chiltern.gov.uk,Chiltern,http://www.chiltern.gov.uk,-0.70268400000000,HP16 0BD,2014-02-19,fhrs_5_en-GB,5,,FHRS,0
222912,2 High Street,Prestwood,Great Missenden,Buckinghamshire,Green Man,Pub/bar/nightclub,7843,5,,355857,5,,51.70018200000000,05740/0002/0/000,022,envhealth@chiltern.gov.uk,Chiltern,http://www.chiltern.gov.uk,-0.72978200000000,HP16 9EB,2009-01-08,fhrs_5_en-GB,5,,FHRS,5
222913,Epilepsy Society,Chesham Lane,Chalfont St Peter,Buckinghamshire,Greene House,Other catering premises,7841,10,,355703,5,,51.62184600000000,01930/2043/2/000,022,envhealth@chiltern.gov.uk,Chiltern,http://www.chiltern.gov.uk,-0.55047500000000,SL9 0RJ,2013-02-11,fhrs_4_en-GB,4,,FHRS,0
222914,42 Sycamore Road,Amersham,Buckinghamshire,,Greggs,Retailers - other,4613,0,,356247,0,,51.67754400000000,11730/0042/0/000,022,envhealth@chiltern.gov.uk,Chiltern,http://www.chiltern.gov.uk,-0.60634900000000,HP6 5DR,2013-11-08,fhrs_5_en-GB,5,,FHRS,5
222915,49A High Street,Chesham,Buckinghamshire,,Greggs,Retailers - other,4613,5,,355839,0,,51.70522800000000,05690/0049/A/000,022,envhealth@chiltern.gov.uk,Chiltern,http://www.chiltern.gov.uk,-0.61233000000000,HP5 1BW,2012-04-24,fhrs_5_en-GB,5,,FHRS,5
222916,1 South Road,Amersham,Buckinghamshire,,Guido's Restaurant,Other catering premises,7841,5,,356228,0,,51.68169600000000,11120/0001/0/000,022,envhealth@chiltern.gov.uk,Chiltern,http://www.chiltern.gov.uk,-0.60772600000000,HP6 5LX,2012-05-16,fhrs_5_en-GB,5,,FHRS,5
222917,,,,,Gusto Cuisine,Other catering premises,7841,10,,636690,0,,,14/00019/FHCAT,022,envhealth@chiltern.gov.uk,Chiltern,http://www.chiltern.gov.uk,,,2014-01-15,fhrs_4_en-GB,4,,FHRS,0
222918,Quill Hall Farm,Quill Hall Lane,Amersham,Buckinghamshire,H Sears and Sons,Distributors/Transporters,7,5,,493302,0,,51.67991100000000,10090/2004/2/000,022,envhealth@chiltern.gov.uk,Chiltern,http://www.chiltern.gov.uk,-0.58996100000000,HP6 6LL,2012-07-05,fhrs_5_en-GB,5,,FHRS,5
222919,35 St. Peters Court,High Street,Chalfont St. Peter,Gerrards Cross,Halls Patisserie,Manufacturers/packers,7839,10,,355861,10,,51.60711200000000,05750/0035/0/000,022,envhealth@chiltern.gov.uk,Chiltern,http://www.chiltern.gov.uk,-0.55584000000000,SL9 9QQ,2013-12-13,fhrs_4_en-GB,4,,FHRS,0
222920,Gold Hill West,Chalfont St. Peter,Gerrards Cross,Buckinghamshire,Handy Stores,Retailers - other,4613,10,,355784,5,,51.60423300000000,04680/2016/2/000,022,envhealth@chiltern.gov.uk,Chiltern,http://www.chiltern.gov.uk,-0.56674700000000,SL9 9HN,2013-05-31,fhrs_4_en-GB,4,,FHRS,5
222921,,,,,Happy Hog Roast,Other catering premises,7841,0,,676308,0,,,14/00037/FMOB,022,envhealth@chiltern.gov.uk,Chiltern,http://www.chiltern.gov.uk,,,2014-06-05,fhrs_4_en-GB,4,,FHRS,10
222922,Harewood Downs Golf Club,Cokes Lane,Chalfont St Giles,Buckinghamshire,Harewood Downs Golf Club (Bar Only),Pub/bar/nightclub,7843,5,,356049,5,,51.65548700000000,09/00029/HGOLF,022,envhealth@chiltern.gov.uk,Chiltern,http://www.chiltern.gov.uk,-0.58078800000000,HP8 4TA,2009-02-11,fhrs_5_en-GB,5,,FHRS,5
222923,Harewood Downs Golf Club,Cokes Lane,Chalfont St Giles,Buckinghamshire,Harewood Downs Golf Club Ltd,Other catering premises,7841,10,,355749,5,,51.65548700000000,03010/2060/2/000,022,envhealth@chiltern.gov.uk,Chiltern,http://www.chiltern.gov.uk,-0.58078800000000,HP8 4TA,2014-09-15,fhrs_3_en-GB,3,,FHRS,10
222924,47 Sycamore Road,Amersham,Buckinghamshire,,Harris & Hoole,Restaurant/Cafe/Canteen,1,5,,468208,0,,51.67775600000000,12/00070/FCAFE,022,envhealth@chiltern.gov.uk,Chiltern,http://www.chiltern.gov.uk,-0.60682000000000,HP6 5EQ,2014-10-06,fhrs_5_en-GB,5,,FHRS,0
222925,Magpie Lane,Coleshill,Buckinghamshire,,Harte and Magpies,Other catering premises,7841,5,,355970,5,,51.63929700000000,07730/2000/2/000,022,envhealth@chiltern.gov.uk,Chiltern,http://www.chiltern.gov.uk,-0.62422800000000,HP7 0LU,2013-08-05,fhrs_4_en-GB,4,,FHRS,10
222926,Asheridge Road,Asheridge,Buckinghamshire,,Hazeldene Farm,Retailers - other,4613,10,,355875,0,,51.72246500000000,06/00044/FFMS,022,envhealth@chiltern.gov.uk,Chiltern,http://www.chiltern.gov.uk,-0.63218700000000,HP5 2XD,2013-01-30,fhrs_4_en-GB,4,,FHRS,0
222927,,,,,Hebborns Burger Bars,Mobile caterer,7846,10,,643549,0,,,14/00026/FMOB,022,envhealth@chiltern.gov.uk,Chiltern,http://www.chiltern.gov.uk,,,2014-03-19,fhrs_4_en-GB,4,,FHRS,10
222928,Russell House,National Society For Epilepsy,Chesham Lane,Chalfont St Giles,Hedgerow Flat,Hospitals/Childcare/Caring Premises,5,10,,705678,10,,51.62184600000000,14/00083/FOLD,022,envhealth@chiltern.gov.uk,Chiltern,http://www.chiltern.gov.uk,-0.55047500000000,SL9 0RJ,2014-09-11,fhrs_3_en-GB,3,,FHRS,5
222929,,,,,Helen Walker,Other catering premises,7841,10,,375768,0,,,12/00054/FHCAT,022,envhealth@chiltern.gov.uk,Chiltern,http://www.chiltern.gov.uk,,,2012-05-30,fhrs_4_en-GB,4,,FHRS,0
222930,Cameron Road,Chesham,Buckinghamshire,,Heritage House School,School/college/university,7845,10,,355698,5,,51.71157000000000,01720/2001/2/000,022,envhealth@chiltern.gov.uk,Chiltern,http://www.chiltern.gov.uk,-0.60187300000000,HP5 3BP,2014-04-29,fhrs_3_en-GB,3,,FHRS,10
222931,Highclere,Newbarn Lane,Seer Green,Beaconsfield,Highclere Farm,Retailers - other,4613,0,,356001,5,,51.62482600000000,08/00044/HRES,022,envhealth@chiltern.gov.uk,Chiltern,http://www.chiltern.gov.uk,-0.59366300000000,HP9 2QZ,2014-05-14,fhrs_5_en-GB,5,,FHRS,0
222932,Hill House,10 Hollow Way Lane,Chesham Bois,Buckinghamshire,Hill House Bed and Breakfast,Hotel/bed & breakfast/guest house,7842,10,,531046,5,,51.68726100000000,12/00094/FBB,022,envhealth@chiltern.gov.uk,Chiltern,http://www.chiltern.gov.uk,-0.59630100000000,HP6 6DJ,2013-03-04,fhrs_4_en-GB,4,,FHRS,0
222933,266 Waterside,Chesham,Buckinghamshire,,Hings Fish and Chips,Takeaway/sandwich shop,7844,10,,356304,5,,51.69879400000000,13050/0266/0/000,022,envhealth@chiltern.gov.uk,Chiltern,http://www.chiltern.gov.uk,-0.60659400000000,HP5 1PY,2014-11-20,fhrs_3_en-GB,3,,FHRS,10
222934,Russell House,National Society For Epilepsy,Chesham Lane,Chalfont St Giles,Hollytree Flat,Hospitals/Childcare/Caring Premises,5,0,,705676,5,,51.62184600000000,14/00065/FOLD,022,envhealth@chiltern.gov.uk,Chiltern,http://www.chiltern.gov.uk,-0.55047500000000,SL9 0RJ,2014-09-11,fhrs_5_en-GB,5,,FHRS,0
222935,The Common,Holmer Green,High Wycombe,Buckinghamshire,Holmer Green Baptist Church,Other catering premises,7841,0,,355793,0,,51.66701500000000,05/00031/HCHUR,022,envhealth@chiltern.gov.uk,Chiltern,http://www.chiltern.gov.uk,-0.69078600000000,HP15 6TD,2014-04-25,fhrs_5_en-GB,5,,FHRS,0
222936,Watchet Lane,Holmer Green,Buckinghamshire,,Holmer Green First School,School/college/university,7845,0,,356189,0,,51.66416800000000,11/00054/FSCHNC,022,envhealth@chiltern.gov.uk,Chiltern,http://www.chiltern.gov.uk,-0.70404000000000,HP15 6UG,2011-04-28,fhrs_5_en-GB,5,,FHRS,0
222937,3 Lynford Parade,Pond Approach,Holmer Green,Buckinghamshire,Holmer Green Fruit,Retailers - other,4613,0,,356011,0,,51.66470100000000,08/00095/FGRNR,022,envhealth@chiltern.gov.uk,Chiltern,http://www.chiltern.gov.uk,-0.69456900000000,HP15 6RW,2011-08-18,fhrs_5_en-GB,5,,FHRS,0
222938,The Common,Holmer Green,High Wycombe,Buckinghamshire,Holmer Green Junior School,Other catering premises,7841,5,,356259,5,,51.66701500000000,11900/2013/2/000,022,envhealth@chiltern.gov.uk,Chiltern,http://www.chiltern.gov.uk,-0.69078600000000,HP15 6TD,2009-01-21,fhrs_5_en-GB,5,,FHRS,5
222939,7 Turners Place,Holmer Green,High Wycombe,Buckinghamshire,Holmer Green Kebabs,Takeaway/sandwich shop,7844,5,,356294,5,,51.66412300000000,12630/0007/0/000,022,envhealth@chiltern.gov.uk,Chiltern,http://www.chiltern.gov.uk,-0.69513500000000,HP15 6RN,2014-03-17,fhrs_4_en-GB,4,,FHRS,10
222940,Holmer Green Methodist Church,Earl Howe Road,Holmer Green,Buckinghamshire,Holmer Green Methodist Pre School,School/college/university,7845,0,,355929,0,,51.66396800000000,07/00123/FNURSE,022,envhealth@chiltern.gov.uk,Chiltern,http://www.chiltern.gov.uk,-0.69334600000000,HP15 6PX,2010-11-17,fhrs_5_en-GB,5,,FHRS,0
222941,48 Beech Tree Road,Holmer Green,High Wycombe,Buckinghamshire,Holmer Green Royal British Legion Club,Other catering premises,7841,,,355661,,,51.66794800000000,00790/0048/0/000,022,envhealth@chiltern.gov.uk,Chiltern,http://www.chiltern.gov.uk,-0.69952200000000,HP15 6UR,2014-01-19,fhrs_exempt_en-GB,Exempt,,FHRS,
222942,87 Watchet Lane,Holmer Green,High Wycombe,Buckinghamshire,Holmer Green Sports Association,Other catering premises,7841,,,356299,,,51.66465900000000,13000/0087/0/000,022,envhealth@chiltern.gov.uk,Chiltern,http://www.chiltern.gov.uk,-0.70459000000000,HP15 6UF,2007-03-26,fhrs_exempt_en-GB,Exempt,,FHRS,
222943,Parish Piece,Holmer Green,High Wycombe,Buckinghamshire,Holmer Green Youth Club,Other catering premises,7841,,,356081,,,51.66634000000000,09280/2003/2/000,022,envhealth@chiltern.gov.uk,Chiltern,http://www.chiltern.gov.uk,-0.69800600000000,HP15 6SP,2010-02-08,fhrs_exempt_en-GB,Exempt,,FHRS,
222944,Maltmans Green School,Maltmans Lane,Chalfont St Peter,Buckinghamshire,Holroyd Howe Independent,Restaurant/Cafe/Canteen,1,0,,356110,0,,51.59735000000000,10/00052/FCONTR,022,envhealth@chiltern.gov.uk,Chiltern,http://www.chiltern.gov.uk,-0.56710800000000,SL9 8RR,2011-03-09,fhrs_5_en-GB,5,,FHRS,0
222945,,,,,Horigan Pies,Other catering premises,7841,10,,484882,5,,,12/00098/FMKTH,022,envhealth@chiltern.gov.uk,Chiltern,http://www.chiltern.gov.uk,,,2012-11-21,fhrs_4_en-GB,4,,FHRS,5
222946,Weedon Hill,Hyde Heath,Amersham,Buckinghamshire,Hyde Heath Infant School,Other catering premises,7841,0,,356308,0,,51.69370600000000,13130/2040/2/000,022,envhealth@chiltern.gov.uk,Chiltern,http://www.chiltern.gov.uk,-0.65454000000000,HP6 5RW,2012-01-30,fhrs_5_en-GB,5,,FHRS,0
222947,Hyde Heath Infant School,Weedon Hill,Hyde Heath,Buckinghamshire,Hyde Heath Pre School,Hospitals/Childcare/Caring Premises,5,0,,355805,0,,51.69370600000000,05/00109/HNURSE,022,envhealth@chiltern.gov.uk,Chiltern,http://www.chiltern.gov.uk,-0.65454000000000,HP6 5RW,2011-04-28,fhrs_5_en-GB,5,,FHRS,5
222948,,,,,Ice It Right,Other catering premises,7841,0,,356225,0,,,11/00130/FHCAT,022,envhealth@chiltern.gov.uk,Chiltern,http://www.chiltern.gov.uk,,,2012-02-22,fhrs_5_en-GB,5,,FHRS,0
222949,Iceland Frozen Foods Plc,75 Sycamore Road,Amersham,Buckinghamshire,Iceland,Retailers - other,4613,0,,356249,0,,51.67775600000000,11730/0075/0/000,022,envhealth@chiltern.gov.uk,Chiltern,http://www.chiltern.gov.uk,-0.60682000000000,HP6 5EQ,2011-01-31,fhrs_5_en-GB,5,,FHRS,5
222950,,,,,In The Mix Company,Other catering premises,7841,5,,643545,0,,,14/00008/FMKTL,022,envhealth@chiltern.gov.uk,Chiltern,http://www.chiltern.gov.uk,,,2014-02-21,fhrs_5_en-GB,5,,FHRS,0
222951,13 Greenway Parade,Chesham,Buckinghamshire,,Indian Massala,Takeaway/sandwich shop,7844,10,,355812,0,,51.72151200000000,05020/0013/0/000,022,envhealth@chiltern.gov.uk,Chiltern,http://www.chiltern.gov.uk,-0.61687000000000,HP5 2DA,2013-12-12,fhrs_4_en-GB,4,,FHRS,10
222952,,,,,Inglenook Catering,Restaurant/Cafe/Canteen,1,5,,676307,0,,,14/00033/FMKTH,022,envhealth@chiltern.gov.uk,Chiltern,http://www.chiltern.gov.uk,,,2014-04-03,fhrs_5_en-GB,5,,FHRS,0
222953,Misbourne School,Misbourne Drive,Great Missenden,Buckinghamshire,Innovate Services Limited,Other catering premises,7841,10,,356018,10,,51.69864900000000,08270/2000/3/001,022,envhealth@chiltern.gov.uk,Chiltern,http://www.chiltern.gov.uk,-0.70467600000000,HP16 0BN,2014-11-10,fhrs_2_en-GB,2,,FHRS,15
222954,Holmer Green Senior School,Parish Piece,Holmer Green,Buckinghamshire,Innovate Services Ltd,School/college/university,7845,5,,356115,5,,51.66634000000000,10/00068/FSCHFC,022,envhealth@chiltern.gov.uk,Chiltern,http://www.chiltern.gov.uk,-0.69800600000000,HP15 6SP,2011-12-08,fhrs_5_en-GB,5,,FHRS,5
222955,,,,,Interval,Hospitals/Childcare/Caring Premises,5,10,,636676,10,,,13/00080/FHCAT,022,envhealth@chiltern.gov.uk,Chiltern,http://www.chiltern.gov.uk,,,2014-01-30,fhrs_3_en-GB,3,,FHRS,5
222956,,,,,Irene Spoor,Other catering premises,7841,5,,356313,5,,,13300/0030/0/000,022,envhealth@chiltern.gov.uk,Chiltern,http://www.chiltern.gov.uk,,,2012-09-18,fhrs_5_en-GB,5,,FHRS,5
222957,Plantation Road,Amersham,Buckinghamshire,,Ivy Stores,Retailers - other,4613,5,,356091,10,,51.67836500000000,09770/2008/2/000,022,envhealth@chiltern.gov.uk,Chiltern,http://www.chiltern.gov.uk,-0.59527400000000,HP6 6HL,2013-02-25,fhrs_4_en-GB,4,,FHRS,0
222958,28 Orchard Road,Seer Green,Buckinghamshire,,J and L Mash,Retailers - other,4613,10,,356076,0,,51.61822900000000,09140/0028/0/000,022,envhealth@chiltern.gov.uk,Chiltern,http://www.chiltern.gov.uk,-0.60743000000000,HP9 2XX,2013-07-02,fhrs_4_en-GB,4,,FHRS,5
222959,34 Hazlemere Road,Penn,High Wycombe,Buckinghamshire,J P Gleeson,Retailers - other,4613,10,,355817,0,,51.64179900000000,05350/0034/0/000,022,envhealth@chiltern.gov.uk,Chiltern,http://www.chiltern.gov.uk,-0.69379600000000,HP10 8AD,2014-01-07,fhrs_4_en-GB,4,,FHRS,10
222960,,,,,Jackie Evans,Hospitals/Childcare/Caring Premises,5,,,732972,,,,14/00109/FCHILD,022,envhealth@chiltern.gov.uk,Chiltern,http://www.chiltern.gov.uk,,,2015-01-19,fhrs_exempt_en-GB,Exempt,,FHRS,
222961,,,,,Jane Carty,Other catering premises,7841,5,,531045,5,,,12/00069/FCHILD,022,envhealth@chiltern.gov.uk,Chiltern,http://www.chiltern.gov.uk,,,2013-03-04,fhrs_5_en-GB,5,,FHRS,0
222962,,,,,Janet Horton,Other catering premises,7841,5,,676305,10,,,14/00027/FHCAT,022,envhealth@chiltern.gov.uk,Chiltern,http://www.chiltern.gov.uk,,,2014-05-02,fhrs_4_en-GB,4,,FHRS,5
222963,51 High Street,Chesham,Buckinghamshire,,Jasmine Thai Kitchen,Restaurant/Cafe/Canteen,1,10,,705677,0,,51.70522800000000,14/00066/FRESTC,022,envhealth@chiltern.gov.uk,Chiltern,http://www.chiltern.gov.uk,-0.61233000000000,HP5 1BW,2014-09-29,fhrs_4_en-GB,4,,FHRS,10
222964,109 White Lion Road,Amersham,Buckinghamshire,,Jay Newsagents,Retailers - other,4613,10,,356329,0,,51.67130100000000,13520/0109/0/000,022,envhealth@chiltern.gov.uk,Chiltern,http://www.chiltern.gov.uk,-0.58434300000000,HP7 9JR,2013-02-25,fhrs_4_en-GB,4,,FHRS,0
222965,,,,,Jeanne Goode Catering,Other catering premises,7841,5,,355739,0,,,02610/2029/2/000,022,envhealth@chiltern.gov.uk,Chiltern,http://www.chiltern.gov.uk,,,2011-03-29,fhrs_5_en-GB,5,,FHRS,5
222966,Johns Lane Farm,Johns Lane,Ashley Green,Chesham,JG & BM Newman,Retailers - other,4613,10,,636672,0,,51.74472600000000,13/00065/FFMS,022,envhealth@chiltern.gov.uk,Chiltern,http://www.chiltern.gov.uk,-0.59692500000000,HP5 3PT,2013-09-25,fhrs_4_en-GB,4,,FHRS,0
222967,,,,,JM Catering,Mobile caterer,7846,0,,676303,5,,,14/00023/FMOB,022,envhealth@chiltern.gov.uk,Chiltern,http://www.chiltern.gov.uk,,,2014-03-31,fhrs_5_en-GB,5,,FHRS,0
222968,,,,,Joannas Cakes,Hospitals/Childcare/Caring Premises,5,5,,356048,0,,,09/00023/FHCAT,022,envhealth@chiltern.gov.uk,Chiltern,http://www.chiltern.gov.uk,,,2014-04-07,fhrs_5_en-GB,5,,FHRS,0
222969,31 Broad Street,Chesham,Buckinghamshire,,Joe's Cafe,Restaurant/Cafe/Canteen,1,5,,712481,10,,51.70883600000000,14/00082/FCAFE,022,envhealth@chiltern.gov.uk,Chiltern,http://www.chiltern.gov.uk,-0.61016400000000,HP5 3EA,2014-10-24,fhrs_3_en-GB,3,,FHRS,10
222970,Village Hall,Green West Road,Jordans,Beaconsfield,Jordans Village Nursery,Other catering premises,7841,5,,355791,0,,51.61401300000000,05/00005/FNURSE,022,envhealth@chiltern.gov.uk,Chiltern,http://www.chiltern.gov.uk,-0.59626500000000,HP9 2SY,2013-04-24,fhrs_5_en-GB,5,,FHRS,5
222971,Green West Road,Jordans,Beaconsfield,Buckinghamshire,Jordans Village Store Ltd,Retailers - other,4613,5,,355813,5,,51.61401300000000,05030/2015/2/000,022,envhealth@chiltern.gov.uk,Chiltern,http://www.chiltern.gov.uk,-0.59626500000000,HP9 2SY,2013-02-14,fhrs_5_en-GB,5,,FHRS,5
222972,,,,,Judith Palfreman,Other catering premises,7841,5,,355999,5,,,08/00035/FHCAT,022,envhealth@chiltern.gov.uk,Chiltern,http://www.chiltern.gov.uk,,,2011-02-03,fhrs_5_en-GB,5,,FHRS,5
222973,,,,,Just Cakes,Retailers - other,4613,5,,356053,5,,,09/00035/FHCAT,022,envhealth@chiltern.gov.uk,Chiltern,http://www.chiltern.gov.uk,,,2012-05-25,fhrs_4_en-GB,4,,FHRS,10
222974,,,,,Just Keep Stirring,Other catering premises,7841,5,,356220,5,,,11/00115/FHCAT,022,envhealth@chiltern.gov.uk,Chiltern,http://www.chiltern.gov.uk,,,2012-03-20,fhrs_5_en-GB,5,,FHRS,0
222975,,,,,Just Puddings,Other catering premises,7841,5,,356232,5,,,11330/0041/0/000,022,envhealth@chiltern.gov.uk,Chiltern,http://www.chiltern.gov.uk,,,2013-01-08,fhrs_5_en-GB,5,,FHRS,5
222976,A413 Layby,London Road West,Amersham,Buckinghamshire,Kamila's Snack Bar,Mobile caterer,7846,10,,581807,5,,,13/00059/FMOB,022,envhealth@chiltern.gov.uk,Chiltern,http://www.chiltern.gov.uk,,,2013-08-27,fhrs_4_en-GB,4,,FHRS,5
222977,Katsina,Broomstick Lane,Chesham,Buckinghamshire,Katsina Bed and Breakfast,Hotel/bed & breakfast/guest house,7842,5,,355693,5,,51.70951500000000,01540/2003/2/000,022,envhealth@chiltern.gov.uk,Chiltern,http://www.chiltern.gov.uk,-0.57979200000000,HP5 1XU,2013-01-08,fhrs_5_en-GB,5,,FHRS,5
222978,,,,,Katy The Cook.com,Other catering premises,7841,10,,594109,0,,,13/00028/FHCAT,022,envhealth@chiltern.gov.uk,Chiltern,http://www.chiltern.gov.uk,,,2013-10-15,fhrs_4_en-GB,4,,FHRS,0
222979,,,,,"Kebab House (Trading @ Chesham Market, High Street, Chesham)",Mobile caterer,7846,10,,356111,15,,,10/00057/FMOB,022,envhealth@chiltern.gov.uk,Chiltern,http://www.chiltern.gov.uk,,,2013-06-12,fhrs_2_en-GB,2,,FHRS,15
222980,Kens Beijing,131 Station Road,Amersham,Buckinghamshire,Ken's Beijing,Other catering premises,7841,10,,356239,10,,51.67319500000000,11410/0131/0/000,022,envhealth@chiltern.gov.uk,Chiltern,http://www.chiltern.gov.uk,-0.60808800000000,HP7 0AH,2013-07-17,fhrs_3_en-GB,3,,FHRS,10
222981,,,,,Kerridge's Kitchen,Other catering premises,7841,10,,643543,10,,,14/00001/FMKTL,022,envhealth@chiltern.gov.uk,Chiltern,http://www.chiltern.gov.uk,,,2014-02-28,fhrs_4_en-GB,4,,FHRS,0
222982,Raans Road,Amersham,Buckinghamshire,,Kings Church,Other catering premises,7841,10,,643542,0,,51.67450900000000,13/00109/FCHURC,022,envhealth@chiltern.gov.uk,Chiltern,http://www.chiltern.gov.uk,-0.58713500000000,HP6 6LX,2014-02-12,fhrs_4_en-GB,4,,FHRS,0
222983,Kings Head,188 Wycombe Road,Prestwood,Buckinghamshire,Kings Head,Restaurant/Cafe/Canteen,1,10,,594110,10,,51.68763000000000,13/00077/FRESTO,022,envhealth@chiltern.gov.uk,Chiltern,http://www.chiltern.gov.uk,-0.73483500000000,HP16 0HJ,2013-08-21,fhrs_3_en-GB,3,,FHRS,5
222984,Kings Church,Raans Road,Amersham,Buckinghamshire,Kings Roast,Other catering premises,7841,10,,676302,10,,51.67450900000000,14/00017/FCAFE,022,envhealth@chiltern.gov.uk,Chiltern,http://www.chiltern.gov.uk,-0.58713500000000,HP6 6LX,2014-05-08,fhrs_4_en-GB,4,,FHRS,0
222985,44 High Street,Great Missenden,Buckinghamshire,,Kinton Pharmacy,Retailers - other,4613,,,355850,,,51.70352500000000,05700/0044/2/000,022,envhealth@chiltern.gov.uk,Chiltern,http://www.chiltern.gov.uk,-0.70740200000000,HP16 0AU,2009-01-30,fhrs_exempt_en-GB,Exempt,,FHRS,
222986,Amersham Railway Station,Station Approach,Amersham,Buckinghamshire,Kiosk,Retailers - other,4613,5,,577200,0,,51.67471600000000,13/00049/FCAFE,022,envhealth@chiltern.gov.uk,Chiltern,http://www.chiltern.gov.uk,-0.60821500000000,HP6 5AZ,2013-08-13,fhrs_5_en-GB,5,,FHRS,0
222987,Forty Green Road,Knotty Green,Buckinghamshire,,Knotty Green Cricket Club,Other catering premises,7841,,,355777,,,51.62170600000000,04270/2035/2/000,022,envhealth@chiltern.gov.uk,Chiltern,http://www.chiltern.gov.uk,-0.65659800000000,HP9 1XX,2007-09-28,fhrs_exempt_en-GB,Exempt,,FHRS,
222988,Woodstock,1 The Limes,Chesham Bois,Buckinghamshire,Kracklin Hog Company Ltd,Restaurant/Cafe/Canteen,1,5,,626977,0,,51.68621300000000,13/00098/FMOB,022,envhealth@chiltern.gov.uk,Chiltern,http://www.chiltern.gov.uk,-0.61406800000000,HP6 5NW,2013-12-18,fhrs_5_en-GB,5,,FHRS,0
222989,Target House,12 Hill Avenue,Amersham,Buckinghamshire,La Baguette,Takeaway/sandwich shop,7844,10,,355864,10,,51.67589100000000,05830/0012/0/000,022,envhealth@chiltern.gov.uk,Chiltern,http://www.chiltern.gov.uk,-0.60797600000000,HP6 5BW,2013-11-14,fhrs_3_en-GB,3,,FHRS,10
222990,107 High Street,Great Missenden,Buckinghamshire,,La Petite Auberge,Other catering premises,7841,0,,355853,10,,51.70156300000000,05700/0107/0/000,022,envhealth@chiltern.gov.uk,Chiltern,http://www.chiltern.gov.uk,-0.70478100000000,HP16 0BB,2014-03-11,fhrs_4_en-GB,4,,FHRS,0
222991,36 Chalfont Road,Seer Green,Beaconsfield,Buckinghamshire,Lambs Newsagents,Retailers - other,4613,10,,356200,5,,51.61780800000000,11/00081/FRET,022,envhealth@chiltern.gov.uk,Chiltern,http://www.chiltern.gov.uk,-0.60536300000000,HP9 2YG,2013-05-21,fhrs_4_en-GB,4,,FHRS,5
222992,Gold Hill Baptist Church,Gold Hill East,Chalfont St Peter,Buckinghamshire,Lanterns (Bucks Mind),Other catering premises,7841,0,,356276,0,,51.60307700000000,12/00032/FCAT,022,envhealth@chiltern.gov.uk,Chiltern,http://www.chiltern.gov.uk,-0.56412700000000,SL9 9DG,2012-04-24,fhrs_5_en-GB,5,,FHRS,0
222993,Unit 8,Alma Road,Chesham,Buckinghamshire,Laziza Catering Services,Other catering premises,7841,5,,577199,0,,51.71337000000000,13/00043/FCONTR,022,envhealth@chiltern.gov.uk,Chiltern,http://www.chiltern.gov.uk,-0.60964900000000,HP5 3HB,2013-07-16,fhrs_4_en-GB,4,,FHRS,10
222994,,,,,Lee Singer,Other catering premises,7841,10,,543196,0,,,13/00017/FCAT,022,envhealth@chiltern.gov.uk,Chiltern,http://www.chiltern.gov.uk,,,2013-04-04,fhrs_4_en-GB,4,,FHRS,5
222995,The Lee Parish Hall,Lee Clump Road,Lee Common,Buckinghamshire,Leeside Nursery School,Other catering premises,7841,0,,355942,0,,51.72788700000000,07020/2015/3/000,022,envhealth@chiltern.gov.uk,Chiltern,http://www.chiltern.gov.uk,-0.68258500000000,HP16 9JY,2012-03-31,fhrs_5_en-GB,5,,FHRS,5
222996,Ley Hill School,Botley Through Ley Hill,Ley Hill,Buckinghamshire,Ley Hill Owls,School/college/university,7845,0,,543189,0,,51.70956500000000,12/00071/FCLBL,022,envhealth@chiltern.gov.uk,Chiltern,http://www.chiltern.gov.uk,-0.57197500000000,HP5 1YF,2013-04-24,fhrs_5_en-GB,5,,FHRS,0
222997,68 Elizabeth Avenue,Amersham,Buckinghamshire,,Linas,Retailers - other,4613,0,,355763,0,,51.67122900000000,03880/0068/0/000,022,envhealth@chiltern.gov.uk,Chiltern,http://www.chiltern.gov.uk,-0.56728000000000,HP6 6QJ,2009-09-24,fhrs_5_en-GB,5,,FHRS,0
222998,106 The Broadway,High Street,Chesham,Buckinghamshire,Liri Cafe,Restaurant/Cafe/Canteen,1,10,,636670,5,,51.70621500000000,13/00062/FCAFE,022,envhealth@chiltern.gov.uk,Chiltern,http://www.chiltern.gov.uk,-0.61287800000000,HP5 1EG,2014-02-13,fhrs_4_en-GB,4,,FHRS,5
222999,St Leonards Parish Hall,Jenkins Lane,St Leonards,Buckinghamshire,Little Bears Pre School,Other catering premises,7841,5,,355806,5,,51.75536900000000,05/00112/HNURSE,022,envhealth@chiltern.gov.uk,Chiltern,http://www.chiltern.gov.uk,-0.67813500000000,HP23 6NW,2010-02-11,fhrs_5_en-GB,5,,FHRS,5
223000,Oakington Avenue,Amersham,Buckinghamshire,,Little Chalfont Primary School,Other catering premises,7841,5,,356039,5,,51.66762700000000,08940/2000/2/000,022,envhealth@chiltern.gov.uk,Chiltern,http://www.chiltern.gov.uk,-0.55291900000000,HP6 6SX,2010-04-27,fhrs_4_en-GB,4,,FHRS,10
223001,92- 94 Broad Street,Chesham,Buckinghamshire,,Little Cherubs Chesham,Hospitals/Childcare/Caring Premises,5,5,,676298,0,,51.71058300000000,13/00095/FNURSH,022,envhealth@chiltern.gov.uk,Chiltern,http://www.chiltern.gov.uk,-0.60966200000000,HP5 3ED,2014-02-19,fhrs_5_en-GB,5,,FHRS,0
223002,,,,,Little Cravings Catering and Attic By Night,Other catering premises,7841,0,,356041,5,,,09/00008/FHCAT,022,envhealth@chiltern.gov.uk,Chiltern,http://www.chiltern.gov.uk,,,2011-10-25,fhrs_5_en-GB,5,,FHRS,0
223003,St Georges Church Of England Primar,White Lion Road,Amersham,Buckinghamshire,Little Dragons Pre School,Hospitals/Childcare/Caring Premises,5,5,,355807,5,,51.67248900000000,05/00113/HNURSE,022,envhealth@chiltern.gov.uk,Chiltern,http://www.chiltern.gov.uk,-0.59040800000000,HP7 9HX,2012-09-18,fhrs_5_en-GB,5,,FHRS,5
223004,Village Road,Little Missenden,Buckinghamshire,,Little Missenden C Of E Infant School,Other catering premises,7841,,,355948,,,51.68237200000000,07270/2030/2/000,022,envhealth@chiltern.gov.uk,Chiltern,http://www.chiltern.gov.uk,-0.67152500000000,HP7 0RA,2010-03-30,fhrs_exempt_en-GB,Exempt,,FHRS,
223005,Holy Trinity Church Hall,Church Road,Penn,Buckinghamshire,Little Oaks Nurseries Ltd,Other catering premises,7841,0,,712478,0,,51.63160500000000,14/00047/FNURSL,022,envhealth@chiltern.gov.uk,Chiltern,http://www.chiltern.gov.uk,-0.67712600000000,HP10 8NY,2014-10-16,fhrs_5_en-GB,5,,FHRS,5
223006,Little Missenden Village Hall,Village Road,Little Missenden,Buckinghamshire,Little Scholars Montessori School,Other catering premises,7841,,,355947,,,51.68049900000000,07270/2007/3/001,022,envhealth@chiltern.gov.uk,Chiltern,http://www.chiltern.gov.uk,-0.66251000000000,HP7 0RF,2014-11-10,fhrs_exempt_en-GB,Exempt,,FHRS,
223007,,,,,Little Stanleys Homemade,Other catering premises,7841,10,,356224,0,,,11/00129/FHCAT,022,envhealth@chiltern.gov.uk,Chiltern,http://www.chiltern.gov.uk,,,2012-02-13,fhrs_4_en-GB,4,,FHRS,0
223008,Commerce House,High Street,Chalfont St Giles,Buckinghamshire,Lloyds Pharmacy,Retailers - other,4613,,,356203,,,51.63127200000000,11/00089/HCHEM,022,envhealth@chiltern.gov.uk,Chiltern,http://www.chiltern.gov.uk,-0.57049000000000,HP8 4QH,2012-03-21,fhrs_exempt_en-GB,Exempt,,FHRS,
223009,Parkview,1A Stanley Avenue,Chesham,Buckinghamshire,Lorraine Brooker (Chesham Bed and Breakfast),Hotel/bed & breakfast/guest house,7842,5,,355925,5,,51.70814600000000,07/00114/FBB,022,envhealth@chiltern.gov.uk,Chiltern,http://www.chiltern.gov.uk,-0.61575700000000,HP5 2JF,2014-06-04,fhrs_5_en-GB,5,,FHRS,5
223010,Lovel End,Chalfont St. Peter,Gerrards Cross,Buckinghamshire,Lovel End Nursery,Other catering premises,7841,5,,355964,5,,51.61083700000000,07580/2002/3/001,022,envhealth@chiltern.gov.uk,Chiltern,http://www.chiltern.gov.uk,-0.56776700000000,SL9 9PB,2012-02-08,fhrs_5_en-GB,5,,FHRS,5
223011,,,,,Lovelly Cakes,Other catering premises,7841,0,,551274,0,,,13/00038/FHCAT,022,envhealth@chiltern.gov.uk,Chiltern,http://www.chiltern.gov.uk,,,2013-05-28,fhrs_5_en-GB,5,,FHRS,5
223012,Amersham Free Church,Woodside Road,Amersham,Buckinghamshire,Lunch Break,Other catering premises,7841,5,,356181,5,,51.67782000000000,11/00037/FCAT,022,envhealth@chiltern.gov.uk,Chiltern,http://www.chiltern.gov.uk,-0.60237800000000,HP6 6AJ,2011-05-03,fhrs_5_en-GB,5,,FHRS,0
223013,Baptist Church,Wood Pond Close,Seer Green,Beaconsfield,Lunch Club,Other catering premises,7841,10,,355774,5,,51.61702100000000,04/00084/FCHURC,022,envhealth@chiltern.gov.uk,Chiltern,http://www.chiltern.gov.uk,-0.60798700000000,HP9 2XG,2013-08-13,fhrs_4_en-GB,4,,FHRS,0
223014,,,,,M F Asian Aroma,Mobile caterer,7846,5,,643550,5,,,14/00028/FMOB,022,envhealth@chiltern.gov.uk,Chiltern,http://www.chiltern.gov.uk,,,2014-04-10,fhrs_5_en-GB,5,,FHRS,0
223015,9 High Street,Chalfont St Peter,Buckinghamshire,,Madeira Coffee Shop,Restaurant/Cafe/Canteen,1,5,,356129,10,,51.60656100000000,10/00101/FCAFE,022,envhealth@chiltern.gov.uk,Chiltern,http://www.chiltern.gov.uk,-0.55634900000000,SL9 9QE,2013-10-15,fhrs_4_en-GB,4,,FHRS,5
223016,18 High Street,Amersham,Buckinghamshire,,Mans Oriental Cafe,Other catering premises,7841,5,,355819,0,,51.66661800000000,05660/0018/0/000,022,envhealth@chiltern.gov.uk,Chiltern,http://www.chiltern.gov.uk,-0.61844000000000,HP7 0DJ,2013-03-19,fhrs_5_en-GB,5,,FHRS,5
223017,Marks And Spencer Simply Food,38 - 40 Sycamore Road,Amersham,Buckinghamshire,Marks & Spencer,Retailers - supermarkets/hypermarkets,7840,5,,355920,5,,51.67754400000000,07/00101/FRET,022,envhealth@chiltern.gov.uk,Chiltern,http://www.chiltern.gov.uk,-0.60634900000000,HP6 5DR,2010-07-28,fhrs_5_en-GB,5,,FHRS,0
223018,Martin The Newsagent Ltd,5 Chenies Parade,Little Chalfont,Buckinghamshire,Martins,Retailers - other,4613,5,,355715,5,,51.66687000000000,02000/2023/2/000,022,envhealth@chiltern.gov.uk,Chiltern,http://www.chiltern.gov.uk,-0.56375900000000,HP7 9PH,2010-02-08,fhrs_5_en-GB,5,,FHRS,5
223019,St. Leonards Parish Centre,Glebe Way,Amersham,Buckinghamshire,Maryland Pre School Nursery,Other catering premises,7841,5,,355770,5,,51.68268400000000,04/00014/FNURSE,022,envhealth@chiltern.gov.uk,Chiltern,http://www.chiltern.gov.uk,-0.60381900000000,HP6 5ND,2009-12-02,fhrs_4_en-GB,4,,FHRS,10
223020,11 - 15 Sycamore Road,Amersham,Buckinghamshire,,Master Chef,Restaurant/Cafe/Canteen,1,10,,564287,10,,51.67775600000000,13/00050/FCAFE,022,envhealth@chiltern.gov.uk,Chiltern,http://www.chiltern.gov.uk,-0.60682000000000,HP6 5EQ,2014-03-05,fhrs_4_en-GB,4,,FHRS,0
223021,32 Bois Lane,Amersham,Buckinghamshire,,Mayo Bros,Retailers - other,4613,10,,355676,0,,51.68316000000000,01130/0032/0/000,022,envhealth@chiltern.gov.uk,Chiltern,http://www.chiltern.gov.uk,-0.60147600000000,HP6 6BP,2013-12-10,fhrs_4_en-GB,4,,FHRS,0
223022,St Peters Court,51 - 55 High Street,Chalfont St Peter,Buckinghamshire,McColls,Retailers - other,4613,0,,355870,5,,51.60711200000000,06/00027/FSWEET,022,envhealth@chiltern.gov.uk,Chiltern,http://www.chiltern.gov.uk,-0.55584000000000,SL9 9QQ,2014-11-06,fhrs_5_en-GB,5,,FHRS,0
223023,Russell House,National Society For Epilepsy,Chesham Lane,Chalfont St Giles,Meadowcroft Flat,Hospitals/Childcare/Caring Premises,5,10,,705680,10,,51.62184600000000,14/00085/FOLD,022,envhealth@chiltern.gov.uk,Chiltern,http://www.chiltern.gov.uk,-0.55047500000000,SL9 0RJ,2014-09-11,fhrs_3_en-GB,3,,FHRS,10
223024,25 High Street,Chalfont St Peter,Buckinghamshire,,Meat At Judds,Retailers - other,4613,5,,355794,5,,51.60656100000000,05/00041/FBUTR,022,envhealth@chiltern.gov.uk,Chiltern,http://www.chiltern.gov.uk,-0.55634900000000,SL9 9QE,2014-05-09,fhrs_5_en-GB,5,,FHRS,5
223025,Amersham General Hospital,Whielden Street,Amersham,Buckinghamshire,Medirest,Other catering premises,7841,0,,356351,5,,51.66295700000000,9613440/2006/2/005,022,envhealth@chiltern.gov.uk,Chiltern,http://www.chiltern.gov.uk,-0.62140000000000,HP7 0JD,2013-12-03,fhrs_5_en-GB,5,,FHRS,0
223026,,,,,"Megabite (Trading at Wickes, Townsend Rd, Chesham)",Mobile caterer,7846,10,,356219,0,,,11/00114/FTAKO,022,envhealth@chiltern.gov.uk,Chiltern,http://www.chiltern.gov.uk,,,2013-10-24,fhrs_4_en-GB,4,,FHRS,0
223027,13 Nightingales Corner,Little Chalfont,Buckinghamshire,,Meng House,Other catering premises,7841,10,,356033,5,,51.66665500000000,08790/0013/0/000,022,envhealth@chiltern.gov.uk,Chiltern,http://www.chiltern.gov.uk,-0.56600800000000,HP7 9PZ,2013-07-30,fhrs_3_en-GB,3,,FHRS,10
223028,High Street,Chalfont St. Giles,Buckinghamshire,,Merlins Cave,Other catering premises,7841,10,,355827,5,,51.63224700000000,05670/2030/2/000,022,envhealth@chiltern.gov.uk,Chiltern,http://www.chiltern.gov.uk,-0.56930300000000,HP8 4QF,2014-09-23,fhrs_3_en-GB,3,,FHRS,10
223029,16 Market Place,Chalfont St Peter,Buckinghamshire,,Metro Piazza,Restaurant/Cafe/Canteen,1,5,,543190,5,,51.60690500000000,12/00091/FRESTO,022,envhealth@chiltern.gov.uk,Chiltern,http://www.chiltern.gov.uk,-0.55874900000000,SL9 9EA,2013-03-25,fhrs_5_en-GB,5,,FHRS,5
223030,,,,,Michelle Bunty Patte,Other catering premises,7841,5,,356046,5,,,09/00016/FHCAT,022,envhealth@chiltern.gov.uk,Chiltern,http://www.chiltern.gov.uk,,,2012-01-27,fhrs_5_en-GB,5,,FHRS,5
223031,National Society For Epilepsy,Balmoral Flat,Micholls House,Chesham Lane,Micholls House - Balmoral Flat,Hospitals/Childcare/Caring Premises,5,10,,356281,10,,51.62184600000000,12/00038/FOLD,022,envhealth@chiltern.gov.uk,Chiltern,http://www.chiltern.gov.uk,-0.55047500000000,SL9 0RJ,2014-09-29,fhrs_4_en-GB,4,,FHRS,0
223032,National Society For Epilepsy,Eden Flat,Micholls House,Chesham Lane,Micholls House - Eden Flat,Hospitals/Childcare/Caring Premises,5,5,,356279,10,,51.62184600000000,12/00036/FOLD,022,envhealth@chiltern.gov.uk,Chiltern,http://www.chiltern.gov.uk,-0.55047500000000,SL9 0RJ,2013-09-03,fhrs_4_en-GB,4,,FHRS,5
223033,National Society For Epilepsy,Chesham Lane,Chalfont St Peter,Buckinghamshire,Micholls House - Kew Flat,Hospitals/Childcare/Caring Premises,5,10,,356280,0,,51.62184600000000,12/00037/FOLD,022,envhealth@chiltern.gov.uk,Chiltern,http://www.chiltern.gov.uk,-0.55047500000000,SL9 0RJ,2014-02-25,fhrs_4_en-GB,4,,FHRS,0
223034,National Society For Epilepsy,Micholls Avenue,Chalfont St Peter,Buckinghamshire,Micholls House - Windsor House,Hospitals/Childcare/Caring Premises,5,5,,356185,5,,51.62184600000000,11/00042/FOLD,022,envhealth@chiltern.gov.uk,Chiltern,http://www.chiltern.gov.uk,-0.55047500000000,SL9 0RJ,2013-09-03,fhrs_5_en-GB,5,,FHRS,0
223035,9 Winters Way,Holmer Green,Buckinghamshire,,Mikes Snack Bar,Mobile caterer,7846,5,,356334,0,,51.66771000000000,13740/0009/0/000,022,envhealth@chiltern.gov.uk,Chiltern,http://www.chiltern.gov.uk,-0.68702100000000,HP15 6YA,2014-03-14,fhrs_5_en-GB,5,,FHRS,0
223036,Mile End,Penfold Lane,Little Missenden,Amersham,Mile End Farm,Other catering premises,7841,5,,356270,5,,51.68015500000000,12/00017/FHCAT,022,envhealth@chiltern.gov.uk,Chiltern,http://www.chiltern.gov.uk,-0.66943400000000,HP7 0QU,2012-01-22,fhrs_5_en-GB,5,,FHRS,5
223037,National Society For Epilepsy,Chesham Lane,Chalfont St Peter,Buckinghamshire,Milton House,Other catering premises,7841,0,,355702,0,,51.62184600000000,01930/2042/2/000,022,envhealth@chiltern.gov.uk,Chiltern,http://www.chiltern.gov.uk,-0.55047500000000,SL9 0RJ,2010-09-17,fhrs_5_en-GB,5,,FHRS,0
223038,20 Deanway,Chalfont St Giles,Buckinghamshire,,Miltons Head,Restaurant/Cafe/Canteen,1,5,,356273,10,,51.63033000000000,12/00026/FPUBFC,022,envhealth@chiltern.gov.uk,Chiltern,http://www.chiltern.gov.uk,-0.57507100000000,HP8 4JL,2013-09-13,fhrs_4_en-GB,4,,FHRS,5
223039,8 Deanway,Chalfont St. Giles,Buckinghamshire,,Miltons Indian Restaurant,Other catering premises,7841,5,,355754,10,,51.63073100000000,03480/0008/0/000,022,envhealth@chiltern.gov.uk,Chiltern,http://www.chiltern.gov.uk,-0.57255900000000,HP8 4JH,2014-06-17,fhrs_4_en-GB,4,,FHRS,0
223040,London Road,Little Kingshill,Great Missenden,Buckinghamshire,Missenden Abbey Ltd,Hotel/bed & breakfast/guest house,7842,5,,355955,5,,51.70050600000000,07390/2012/2/000,022,envhealth@chiltern.gov.uk,Chiltern,http://www.chiltern.gov.uk,-0.70268400000000,HP16 0BD,2014-06-02,fhrs_4_en-GB,4,,FHRS,10
223041,302 Berkhampstead Road,Chesham,Buckinghamshire,,Mokarram Brothers,Retailers - other,4613,0,,355669,10,,51.71340800000000,00920/0302/0/000,022,envhealth@chiltern.gov.uk,Chiltern,http://www.chiltern.gov.uk,-0.60827300000000,HP5 3EZ,2013-09-03,fhrs_4_en-GB,4,,FHRS,10
223042,RNS House,Fullers Hill,Chesham,Buckinghamshire,Monkey Puzzle Day Nursery,Other catering premises,7841,5,,355871,0,,51.70117800000000,06/00036/FNURSE,022,envhealth@chiltern.gov.uk,Chiltern,http://www.chiltern.gov.uk,-0.61576800000000,HP5 1LR,2014-10-20,fhrs_5_en-GB,5,,FHRS,5
223043,,,,,Moonraker Preserves,Manufacturers/packers,7839,0,,446679,0,,,12/00063/FHCAT,022,envhealth@chiltern.gov.uk,Chiltern,http://www.chiltern.gov.uk,,,2012-09-10,fhrs_5_en-GB,5,,FHRS,0
223044,National Society For Epilepsy,Chesham Lane,Chalfont St Peter,Buckinghamshire,Morton House,Other catering premises,7841,10,,355704,5,,51.62184600000000,01930/2047/2/000,022,envhealth@chiltern.gov.uk,Chiltern,http://www.chiltern.gov.uk,-0.55047500000000,SL9 0RJ,2013-06-26,fhrs_4_en-GB,4,,FHRS,0
223045,26 High Street,Chalfont St. Peter,Gerrards Cross,Buckinghamshire,Mr Crusty Sandwich Bar,Takeaway/sandwich shop,7844,0,,355830,0,,51.60665500000000,05680/0026/0/000,022,envhealth@chiltern.gov.uk,Chiltern,http://www.chiltern.gov.uk,-0.55675000000000,SL9 9QA,2011-08-09,fhrs_5_en-GB,5,,FHRS,0
223046,49 Lowndes Avenue,Chesham,Buckinghamshire,,Mr G.A.Orme,Other catering premises,7841,5,,355966,10,,51.71056000000000,07630/0049/0/000,022,envhealth@chiltern.gov.uk,Chiltern,http://www.chiltern.gov.uk,-0.61535100000000,HP5 2HH,2012-03-09,fhrs_4_en-GB,4,,FHRS,5
223047,London Road,Chalfont St. Giles,Buckinghamshire,,Mr Poons,Other catering premises,7841,10,,355952,10,,51.63194000000000,07360/4056/3/000,022,envhealth@chiltern.gov.uk,Chiltern,http://www.chiltern.gov.uk,-0.56551300000000,HP8 4NJ,2014-10-16,fhrs_3_en-GB,3,,FHRS,10
223048,69 The Broadway,Chesham,Buckinghamshire,,Mr Simms Olde Sweet Shop,Retailers - other,4613,0,,623461,0,,51.70608700000000,14/00003/FSWEET,022,envhealth@chiltern.gov.uk,Chiltern,http://www.chiltern.gov.uk,-0.61192700000000,HP5 1BX,2014-01-08,fhrs_5_en-GB,5,,FHRS,0
223049,4 Station Road,Amersham,Buckinghamshire,,Mr Wright And Mrs Wright,Retailers - other,4613,,,356238,,,51.66628600000000,11410/0004/0/000,022,envhealth@chiltern.gov.uk,Chiltern,http://www.chiltern.gov.uk,-0.60788000000000,HP7 0BE,2010-02-10,fhrs_exempt_en-GB,Exempt,,FHRS,
223050,14 Stanley Hill,Amersham,Buckinghamshire,,Mrs Allen,Retailers - other,4613,5,,356231,5,,51.66430700000000,11330/0014/0/000,022,envhealth@chiltern.gov.uk,Chiltern,http://www.chiltern.gov.uk,-0.59949700000000,HP7 9HR,2001-11-09,fhrs_5_en-GB,5,,FHRS,5
223051,,,,,Mrs Anne Begley,Other catering premises,7841,0,,356283,0,,,12000/0008/0/000,022,envhealth@chiltern.gov.uk,Chiltern,http://www.chiltern.gov.uk,,,2011-08-31,fhrs_5_en-GB,5,,FHRS,0
223052,,,,,Mrs Betty Wright,Other catering premises,7841,5,,356230,5,,,11230/0022/0/000,022,envhealth@chiltern.gov.uk,Chiltern,http://www.chiltern.gov.uk,,,2011-05-03,fhrs_5_en-GB,5,,FHRS,0
223053,,,,,Mrs Cuthbertson,Other catering premises,7841,0,,356073,5,,,09080/2000/2/000,022,envhealth@chiltern.gov.uk,Chiltern,http://www.chiltern.gov.uk,,,2014-02-17,fhrs_5_en-GB,5,,FHRS,0
223054,,,,,Mrs Felicity Beynon,Retailers - other,4613,0,,356312,0,,,13240/0020/0/000,022,envhealth@chiltern.gov.uk,Chiltern,http://www.chiltern.gov.uk,,,2011-08-31,fhrs_5_en-GB,5,,FHRS,5
223055,,,,,Mrs M Crowshaw,Other catering premises,7841,10,,355962,5,,,07500/0064/0/000,022,envhealth@chiltern.gov.uk,Chiltern,http://www.chiltern.gov.uk,,,2011-07-06,fhrs_4_en-GB,4,,FHRS,5
223056,63 Hundred Acres Lane,Amersham,Buckinghamshire,,Mrs N Hurley,Hotel/bed & breakfast/guest house,7842,10,,355878,0,,51.66853500000000,06280/0063/0/000,022,envhealth@chiltern.gov.uk,Chiltern,http://www.chiltern.gov.uk,-0.60114500000000,HP7 9BX,2013-08-02,fhrs_4_en-GB,4,,FHRS,0
223057,Guides Hut,Lansdown Road,Chalfont St. Peter,Gerrards Cross,Mrs Sheila Johnson,Other catering premises,7841,,,355883,,,51.60727900000000,06800/2000/2/000,022,envhealth@chiltern.gov.uk,Chiltern,http://www.chiltern.gov.uk,-0.56285300000000,SL9 9SR,2002-03-22,fhrs_exempt_en-GB,Exempt,,FHRS,
223058,,,,,Mrs Teresa Watson,Retailers - other,4613,5,,356055,5,,,09/00038/FHCAT,022,envhealth@chiltern.gov.uk,Chiltern,http://www.chiltern.gov.uk,,,2012-05-14,fhrs_5_en-GB,5,,FHRS,5
223059,Gold Hill East,Chalfont St Peter,Buckinghamshire,,Mulberry Court,Hospitals/Childcare/Caring Premises,5,0,,676296,0,,51.60397700000000,13/00085/FOLD,022,envhealth@chiltern.gov.uk,Chiltern,http://www.chiltern.gov.uk,-0.56197600000000,SL9 9DL,2014-07-31,fhrs_5_en-GB,5,,FHRS,5
223060,Chequers Parade,Wycombe Road,Prestwood,Buckinghamshire,N Stirrett Butchers,Retailers - other,4613,5,,355992,5,,51.69944000000000,08/00009/FBUTC,022,envhealth@chiltern.gov.uk,Chiltern,http://www.chiltern.gov.uk,-0.74195800000000,HP16 0PN,2014-03-28,fhrs_5_en-GB,5,,FHRS,5
223061,16 Hill Avenue,Amersham,Buckinghamshire,,Nautica,Takeaway/sandwich shop,7844,5,,355866,5,,51.67589100000000,05830/0016/0/002,022,envhealth@chiltern.gov.uk,Chiltern,http://www.chiltern.gov.uk,-0.60797600000000,HP6 5BW,2013-05-29,fhrs_5_en-GB,5,,FHRS,0
223062,56 High Street,Great Missenden,Buckinghamshire,,New Akash,Other catering premises,7841,20,,355851,10,,51.70238200000000,05700/0056/0/000,022,envhealth@chiltern.gov.uk,Chiltern,http://www.chiltern.gov.uk,-0.70645100000000,HP16 0AN,2014-03-17,fhrs_1_en-GB,1,,FHRS,15
223063,7 White Hill,Chesham,Buckinghamshire,,New International,Other catering premises,7841,10,,356322,15,,51.70752800000000,13470/0037/0/000,022,envhealth@chiltern.gov.uk,Chiltern,http://www.chiltern.gov.uk,-0.61062400000000,HP5 1AB,2013-11-27,fhrs_2_en-GB,2,,FHRS,15
223064,204 Berkhampstead Road,Chesham,Buckinghamshire,,New Town News,Retailers - other,4613,10,,355668,0,,51.71219400000000,00920/0204/0/000,022,envhealth@chiltern.gov.uk,Chiltern,http://www.chiltern.gov.uk,-0.60829500000000,HP5 3ET,2013-05-20,fhrs_4_en-GB,4,,FHRS,5
223065,97 Sycamore Road,Amersham,Buckinghamshire,,Newburys Greengrocers,Retailers - other,4613,5,,356252,5,,51.67862300000000,11730/0097/0/000,022,envhealth@chiltern.gov.uk,Chiltern,http://www.chiltern.gov.uk,-0.60560700000000,HP6 5EJ,2010-12-02,fhrs_4_en-GB,4,,FHRS,10
223066,Berkhampstead Road,Chesham,Buckinghamshire,,Newtown Early Years and Infant School,Other catering premises,7841,10,,355670,5,,51.71352600000000,00920/2001/2/000,022,envhealth@chiltern.gov.uk,Chiltern,http://www.chiltern.gov.uk,-0.60757400000000,HP5 3AT,2014-07-14,fhrs_3_en-GB,3,,FHRS,10
223067,Newtown Evangelical Baptist Church,Berkhampstead Road,Chesham,Buckinghamshire,Newtown Neighbours (luncheon Meeting),Other catering premises,7841,5,,355671,0,,51.71352600000000,00920/2012/2/000,022,envhealth@chiltern.gov.uk,Chiltern,http://www.chiltern.gov.uk,-0.60757400000000,HP5 3AT,2013-03-07,fhrs_5_en-GB,5,,FHRS,0
223068,,,,,Nikki's Cakes,Other catering premises,7841,10,,516716,0,,,12/00086/FHCAT,022,envhealth@chiltern.gov.uk,Chiltern,http://www.chiltern.gov.uk,,,2013-02-18,fhrs_4_en-GB,4,,FHRS,0
223069,Newtown Infant School,Berkhampstead Road,Chesham,Buckinghamshire,Northend Playgroup,Other catering premises,7841,5,,355672,5,,51.71352600000000,00920/2012/3/001,022,envhealth@chiltern.gov.uk,Chiltern,http://www.chiltern.gov.uk,-0.60757400000000,HP5 3AT,2013-01-08,fhrs_5_en-GB,5,,FHRS,5
223070,,,,,Nortons Farm,Restaurant/Cafe/Canteen,1,10,,676310,10,,,14/00041/FHCAT,022,envhealth@chiltern.gov.uk,Chiltern,http://www.chiltern.gov.uk,,,2014-06-09,fhrs_3_en-GB,3,,FHRS,10
223071,,,,,Not Fridays,Mobile caterer,7846,0,,712479,0,,,14/00048/FMOB,022,envhealth@chiltern.gov.uk,Chiltern,http://www.chiltern.gov.uk,,,2014-10-14,fhrs_5_en-GB,5,,FHRS,0
223072,The Barn,Hazeldene Farm,Asheridge Road,Asheridge,Nuts N Tings,Retailers - other,4613,0,,718424,0,,51.72246500000000,14/00045/FRETL,022,envhealth@chiltern.gov.uk,Chiltern,http://www.chiltern.gov.uk,-0.63218700000000,HP5 2XD,2014-11-12,fhrs_5_en-GB,5,,FHRS,0
223073,Three Households,Chalfont St. Giles,Buckinghamshire,,Oakland Park Golf Club,Other catering premises,7841,5,,356290,5,,51.62619600000000,12420/2062/2/000,022,envhealth@chiltern.gov.uk,Chiltern,http://www.chiltern.gov.uk,-0.58791400000000,HP8 4LW,2013-12-20,fhrs_5_en-GB,5,,FHRS,0
223074,8 Market Square,Amersham,Buckinghamshire,,Old Amersham Sweet Shop,Retailers - other,4613,5,,581809,0,,51.66623300000000,13/00074/FSWEET,022,envhealth@chiltern.gov.uk,Chiltern,http://www.chiltern.gov.uk,-0.61632700000000,HP7 0DQ,2013-08-20,fhrs_4_en-GB,4,,FHRS,10
223075,Woodside House,Latimer Camp Road,Latimer,Buckinghamshire,Old MacDonald's Day Nursery Ltd.,Hospitals/Childcare/Caring Premises,5,5,,468212,0,,51.68637700000000,12/00092/FNURSL,022,envhealth@chiltern.gov.uk,Chiltern,http://www.chiltern.gov.uk,-0.55669000000000,HP5 1UQ,2014-05-21,fhrs_5_en-GB,5,,FHRS,5
223076,Flat 2,Highfield Court,32 Cross Lanes,Chalfont St Peter,Olga Johnson,Other catering premises,7841,10,,636685,5,,51.61930600000000,13/00107/FHCAT,022,envhealth@chiltern.gov.uk,Chiltern,http://www.chiltern.gov.uk,-0.54791300000000,SL9 0NE,2014-01-29,fhrs_4_en-GB,4,,FHRS,0
223077,The White Lion Public House,57 High Street,Great Missenden,Buckinghamshire,Origins,Pub/bar/nightclub,7843,10,,356060,10,,51.70283100000000,09/00051/FPUBFC,022,envhealth@chiltern.gov.uk,Chiltern,http://www.chiltern.gov.uk,-0.70645300000000,HP16 0AL,2014-02-03,fhrs_3_en-GB,3,,FHRS,10
223078,Amersham Road,Chesham Bois,Amersham,Buckinghamshire,Our Ladys Catholic Primary School,Other catering premises,7841,5,,355649,0,,51.69030300000000,00170/2000/2/000,022,envhealth@chiltern.gov.uk,Chiltern,http://www.chiltern.gov.uk,-0.61466700000000,HP6 5PL,2014-01-23,fhrs_5_en-GB,5,,FHRS,0
223079,St Mary's C Of E Primary School,School Lane,Amersham,Buckinghamshire,Out Of School Club,Other catering premises,7841,10,,355873,5,,51.66934200000000,06/00038/FSCHNC,022,envhealth@chiltern.gov.uk,Chiltern,http://www.chiltern.gov.uk,-0.61916700000000,HP7 0EL,2012-09-27,fhrs_4_en-GB,4,,FHRS,0
223080,1 Nightingales Corner,Little Chalfont,Buckinghamshire,,Ozzy's Coffee House,Restaurant/Cafe/Canteen,1,10,,356186,15,,51.66660100000000,11/00043/FCAFE,022,envhealth@chiltern.gov.uk,Chiltern,http://www.chiltern.gov.uk,-0.56525700000000,HP7 9PY,2014-08-22,fhrs_2_en-GB,2,,FHRS,10
223081,53 High Street,Prestwood,Great Missenden,Buckinghamshire,P E M Newsagents,Retailers - other,4613,,,355858,,,51.69949800000000,05740/0053/0/000,022,envhealth@chiltern.gov.uk,Chiltern,http://www.chiltern.gov.uk,-0.73476500000000,HP16 9EJ,2012-03-12,fhrs_exempt_en-GB,Exempt,,FHRS,
223082,Chalfont Heights Scout Camp & Activ,Denham Lane,Chalfont St. Peter,Gerrards Cross,PACCAR Scout Camp,Other catering premises,7841,,,355755,,,51.61040600000000,03600/2000/2/000,022,envhealth@chiltern.gov.uk,Chiltern,http://www.chiltern.gov.uk,-0.54517900000000,SL9 0QJ,2011-08-16,fhrs_exempt_en-GB,Exempt,,FHRS,
223083,Hazeldene Farm,Asheridge Road,Asheridge,Buckinghamshire,Painted Barn Tea & Vintage,Other catering premises,7841,10,,718425,5,,51.72246500000000,14/00054/FCAFE,022,envhealth@chiltern.gov.uk,Chiltern,http://www.chiltern.gov.uk,-0.63218700000000,HP5 2XD,2014-09-18,fhrs_3_en-GB,3,,FHRS,10
223084,131 Broad Street,Chesham,Buckinghamshire,,Papad,Restaurant/Cafe/Canteen,1,10,,643552,5,,51.71053100000000,14/00035/FRESTI,022,envhealth@chiltern.gov.uk,Chiltern,http://www.chiltern.gov.uk,-0.60907000000000,HP5 3EF,2014-03-25,fhrs_4_en-GB,4,,FHRS,0
223085,6C Chequers Parade,Wycombe Road,Prestwood,Great Missenden,Pathila Tandoori and Pappa's Pizza,Takeaway/sandwich shop,7844,,,356341,,,51.69944000000000,14000/0006/0/000,022,envhealth@chiltern.gov.uk,Chiltern,http://www.chiltern.gov.uk,-0.74195800000000,HP16 0PN,2014-04-15,fhrs_5_en-GB,5,,FHRS,
223086,,,,,Patty Cakes Chesham,Other catering premises,7841,10,,643536,0,,,13/00088/FHCAT,022,envhealth@chiltern.gov.uk,Chiltern,http://www.chiltern.gov.uk,,,2014-02-24,fhrs_4_en-GB,4,,FHRS,5
223087,Elm Road,Penn,High Wycombe,Buckinghamshire,Penn and Tylers Green Sports and Social Club,Other catering premises,7841,5,,355767,0,,51.63560200000000,03920/2057/2/000,022,envhealth@chiltern.gov.uk,Chiltern,http://www.chiltern.gov.uk,-0.69036100000000,HP10 8LF,2012-03-22,fhrs_4_en-GB,4,,FHRS,10
223088,The Common,Holmer Green,High Wycombe,Buckinghamshire,Penn Street and Holmer Green PCC,Retailers - other,4613,,,356261,,,51.66928100000000,11900/2024/2/000,022,envhealth@chiltern.gov.uk,Chiltern,http://www.chiltern.gov.uk,-0.69163200000000,HP15 6XQ,2006-03-30,fhrs_exempt_en-GB,Exempt,,FHRS,
223089,20 Market Square,Chesham,Buckinghamshire,,Peri Peri Original,Takeaway/sandwich shop,7844,20,,493304,10,,51.70384100000000,12/00095/FTAKO,022,envhealth@chiltern.gov.uk,Chiltern,http://www.chiltern.gov.uk,-0.61360200000000,HP5 1ES,2014-09-02,fhrs_1_en-GB,1,,FHRS,15
223090,Peterley Manor Farm,Peterley Lane,Prestwood,Buckinghamshire,Peterley Manor Farm Shop,Retailers - other,4613,0,,356089,0,,51.68667000000000,09650/2013/2/000,022,envhealth@chiltern.gov.uk,Chiltern,http://www.chiltern.gov.uk,-0.72755600000000,HP16 0HH,2014-01-22,fhrs_5_en-GB,5,,FHRS,5
223091,Cherry Orchard,Maybush Gardens,Prestwood,Buckinghamshire,Pippin Bucks MIND,Hospitals/Childcare/Caring Premises,5,0,,493303,0,,51.69911700000000,12/00031/FCAT,022,envhealth@chiltern.gov.uk,Chiltern,http://www.chiltern.gov.uk,-0.73862400000000,HP16 9EH,2014-03-31,fhrs_5_en-GB,5,,FHRS,0
223092,12 Sycamore Road,Amersham,Buckinghamshire,,Pizza Express,Other catering premises,7841,5,,356245,5,,51.67754400000000,11730/0012/0/000,022,envhealth@chiltern.gov.uk,Chiltern,http://www.chiltern.gov.uk,-0.60634900000000,HP6 5DR,2014-11-17,fhrs_4_en-GB,4,,FHRS,10
223093,Paper Stock House,Amersham Road,Chalfont St Giles,Buckinghamshire,Pizza Express Summer On Tour,Mobile caterer,7846,0,,692377,0,,51.64231800000000,14/00043/FMOB,022,envhealth@chiltern.gov.uk,Chiltern,http://www.chiltern.gov.uk,-0.57446400000000,HP8 4RU,2014-07-21,fhrs_5_en-GB,5,,FHRS,0
223094,Pizza Go-Go,13 White Hill,Chesham,Buckinghamshire,Pizza Go Go,Takeaway/sandwich shop,7844,5,,356321,0,,51.70752800000000,13470/0013/0/000,022,envhealth@chiltern.gov.uk,Chiltern,http://www.chiltern.gov.uk,-0.61062400000000,HP5 1AB,2014-10-02,fhrs_5_en-GB,5,,FHRS,5
223095,Watchet Lane,Holmer Green,High Wycombe,Buckinghamshire,Playmates Nursery,Other catering premises,7841,5,,356300,0,,51.66416800000000,13000/2001/2/000,022,envhealth@chiltern.gov.uk,Chiltern,http://www.chiltern.gov.uk,-0.70404000000000,HP15 6UG,2013-11-21,fhrs_5_en-GB,5,,FHRS,0
223096,Raans Road,Amersham,Buckinghamshire,,Polish Ex-servicemen's Club,Other catering premises,7841,5,,356143,5,,51.67450900000000,10110/2003/2/000,022,envhealth@chiltern.gov.uk,Chiltern,http://www.chiltern.gov.uk,-0.58713500000000,HP6 6LX,2008-08-07,fhrs_5_en-GB,5,,FHRS,5
223097,3 High Street,Chesham,Buckinghamshire,,Poppins,Restaurant/Cafe/Canteen,1,10,,356068,5,,51.70439800000000,09/00067/FRESTO,022,envhealth@chiltern.gov.uk,Chiltern,http://www.chiltern.gov.uk,-0.61286200000000,HP5 1BG,2014-05-06,fhrs_4_en-GB,4,,FHRS,5
223098,,,,,Porkie Pig,Retailers - other,4613,0,,356218,0,,,11/00112/FHCAT,022,envhealth@chiltern.gov.uk,Chiltern,http://www.chiltern.gov.uk,,,2011-11-30,fhrs_5_en-GB,5,,FHRS,0
223099,,,,,Potdeli @ Great Missenden Station,Mobile caterer,7846,10,,429038,0,,,11/00095/FMOB,022,envhealth@chiltern.gov.uk,Chiltern,http://www.chiltern.gov.uk,,,2014-01-15,fhrs_4_en-GB,4,,FHRS,10
223100,1 - 3 Hazell Road,Prestwood,Buckinghamshire,,Prestwood Food Store,Retailers - other,4613,5,,355816,0,,51.69522100000000,05330/0001/0/000,022,envhealth@chiltern.gov.uk,Chiltern,http://www.chiltern.gov.uk,-0.73750300000000,HP16 0LR,2014-01-22,fhrs_5_en-GB,5,,FHRS,5
223101,Prestwood Infant School,Moat Lane,Prestwood,Buckinghamshire,Prestwood Infant School (breakfast and After School Club),Other catering premises,7841,0,,356024,5,,51.70336600000000,08360/2038/2/000,022,envhealth@chiltern.gov.uk,Chiltern,http://www.chiltern.gov.uk,-0.73911400000000,HP16 9DF,2010-02-11,fhrs_5_en-GB,5,,FHRS,5
223102,Chequers Parade,Wycombe Road,Prestwood,Great Missenden,Prestwood Plaice,Takeaway/sandwich shop,7844,0,,356342,10,,51.69944000000000,14000/2002/2/000,022,envhealth@chiltern.gov.uk,Chiltern,http://www.chiltern.gov.uk,-0.74195800000000,HP16 0PN,2013-12-18,fhrs_4_en-GB,4,,FHRS,0
223103,Holy Trinity Church Hall,134A Wycombe Road,Prestwood,Buckinghamshire,Prestwood Pre School Group,Other catering premises,7841,,,356348,,,51.68763000000000,14020/2008/3/001,022,envhealth@chiltern.gov.uk,Chiltern,http://www.chiltern.gov.uk,-0.73483500000000,HP16 0HJ,2014-01-31,fhrs_exempt_en-GB,Exempt,,FHRS,
223104,3 Whielden Street,Amersham,Buckinghamshire,,Prezzo,Other catering premises,7841,0,,355989,5,,51.66576400000000,08/00003/FRESTO,022,envhealth@chiltern.gov.uk,Chiltern,http://www.chiltern.gov.uk,-0.61615300000000,HP7 0HT,2011-10-25,fhrs_5_en-GB,5,,FHRS,0
223105,National Society For Epilepsy,Chesham Lane,Chalfont St Peter,Buckinghamshire,Queen Elizabeth House,Other catering premises,7841,5,,355701,5,,51.62184600000000,01930/2024/2/000,022,envhealth@chiltern.gov.uk,Chiltern,http://www.chiltern.gov.uk,-0.55047500000000,SL9 0RJ,2012-02-24,fhrs_5_en-GB,5,,FHRS,5
223106,30 Rickmansworth Lane,Chalfont St Peter,Buckinghamshire,,Quickstop,Retailers - other,4613,5,,356152,0,,51.61645300000000,10310/2002/2/000,022,envhealth@chiltern.gov.uk,Chiltern,http://www.chiltern.gov.uk,-0.55207700000000,SL9 0JR,2014-01-07,fhrs_5_en-GB,5,,FHRS,0
223107,89 Sycamore Road,Amersham,Buckinghamshire,,R M Terry Newsagents,Retailers - other,4613,10,,356251,10,,51.67862300000000,11730/0089/0/000,022,envhealth@chiltern.gov.uk,Chiltern,http://www.chiltern.gov.uk,-0.60560700000000,HP6 5EJ,2013-03-28,fhrs_4_en-GB,4,,FHRS,0
223108,The Firs,Potter Row,Great Missenden,Buckinghamshire,Raffety,Other catering premises,7841,5,,356271,5,,51.71592400000000,12/00018/FHCAT,022,envhealth@chiltern.gov.uk,Chiltern,http://www.chiltern.gov.uk,-0.69675700000000,HP16 9LT,2012-01-17,fhrs_5_en-GB,5,,FHRS,5
223109,Raj Darbar,29 Market Place,Chalfont St Peter,Buckinghamshire,Raj Darbar Restaurant,Restaurant/Cafe/Canteen,1,10,,623460,10,,51.60660700000000,13/00114/FRESTI,022,envhealth@chiltern.gov.uk,Chiltern,http://www.chiltern.gov.uk,-0.56011600000000,SL9 9DU,2013-12-13,fhrs_3_en-GB,3,,FHRS,5
223110,20 - 22 Broadway,Amersham,Buckinghamshire,,Raj Gate,Restaurant/Cafe/Canteen,1,10,,356056,10,,51.66602100000000,09/00042/FRESTI,022,envhealth@chiltern.gov.uk,Chiltern,http://www.chiltern.gov.uk,-0.61510400000000,HP7 0HP,2014-10-20,fhrs_3_en-GB,3,,FHRS,10
223111,115 High Street,Chesham,Buckinghamshire,,Rajasthan,Other catering premises,7841,10,,355843,5,,51.70717500000000,05690/1151/0/000,022,envhealth@chiltern.gov.uk,Chiltern,http://www.chiltern.gov.uk,-0.61118500000000,HP5 1DE,2014-08-15,fhrs_3_en-GB,3,,FHRS,10
223112,Weedon Hill,Hyde Heath,Amersham,Buckinghamshire,Rayners (Extra Care Home) Ltd,Other catering premises,7841,0,,356307,5,,51.69274900000000,13130/2016/2/000,022,envhealth@chiltern.gov.uk,Chiltern,http://www.chiltern.gov.uk,-0.65339600000000,HP6 5UH,2012-02-09,fhrs_5_en-GB,5,,FHRS,0
223113,17 Vale Road,Chesham,Buckinghamshire,,Reach,Hospitals/Childcare/Caring Premises,5,10,,355997,5,,51.71778100000000,08/00033/FOLD,022,envhealth@chiltern.gov.uk,Chiltern,http://www.chiltern.gov.uk,-0.60703800000000,HP5 3HH,2014-07-03,fhrs_4_en-GB,4,,FHRS,5
223114,28 Orchard Road,Seer Green,Buckinghamshire,,Rebecca's Delicatessen,Other catering premises,7841,5,,692375,0,,51.61822900000000,14/00038/FDELI,022,envhealth@chiltern.gov.uk,Chiltern,http://www.chiltern.gov.uk,-0.60743000000000,HP9 2XX,2014-07-01,fhrs_5_en-GB,5,,FHRS,0
223115,Jubilee Scout Hall,Rectory Hill,Amersham,Buckinghamshire,Rectory Hill Pre School,Other catering premises,7841,5,,356147,5,,51.67199000000000,10190/2017/3/001,022,envhealth@chiltern.gov.uk,Chiltern,http://www.chiltern.gov.uk,-0.61346100000000,HP7 0BT,2010-01-21,fhrs_5_en-GB,5,,FHRS,5
223116,,,,,Reel To Reel,Mobile caterer,7846,5,,355795,5,,,05/00044/FMOB,022,envhealth@chiltern.gov.uk,Chiltern,http://www.chiltern.gov.uk,,,2013-09-27,fhrs_5_en-GB,5,,FHRS,5
223117,Quaker Meeting House,Welders Lane,Jordans,Beaconsfield,Religious Society Of Friends,Other catering premises,7841,,,356310,,,51.60961700000000,13160/2000/2/000,022,envhealth@chiltern.gov.uk,Chiltern,http://www.chiltern.gov.uk,-0.59406100000000,HP9 2SN,2004-03-23,fhrs_exempt_en-GB,Exempt,,FHRS,
223118,,,,,Rex Bakery Ltd,Retailers - other,4613,10,,636667,0,,,13/00053/FHCAT,022,envhealth@chiltern.gov.uk,Chiltern,http://www.chiltern.gov.uk,,,2013-07-23,fhrs_4_en-GB,4,,FHRS,10
223119,Denham Lane,Chalfont St Peter,Buckinghamshire,,Robertswood School,Other catering premises,7841,5,,355756,10,,51.61340600000000,03600/2004/2/000,022,envhealth@chiltern.gov.uk,Chiltern,http://www.chiltern.gov.uk,-0.54564600000000,SL9 0EW,2012-04-04,fhrs_4_en-GB,4,,FHRS,5
223120,50 Broad Street,Chesham,Buckinghamshire,,Rocca,Takeaway/sandwich shop,7844,5,,636683,0,,51.70919800000000,13/00102/FTAKO,022,envhealth@chiltern.gov.uk,Chiltern,http://www.chiltern.gov.uk,-0.61042800000000,HP5 3DX,2014-01-06,fhrs_2_en-GB,2,,FHRS,15
223121,6 Roundwood Road,Amersham,Buckinghamshire,,Roundwood Stores,Retailers - other,4613,10,,356155,0,,51.67781900000000,10500/0006/0/000,022,envhealth@chiltern.gov.uk,Chiltern,http://www.chiltern.gov.uk,-0.59093700000000,HP6 6NA,2013-02-25,fhrs_4_en-GB,4,,FHRS,0
223122,91 Woodside Road,Amersham,Buckinghamshire,,Royal British Legion Club Ltd (Amersham On The Hill),Other catering premises,7841,,,356350,,,51.67639300000000,880713940/0091/0/000,022,envhealth@chiltern.gov.uk,Chiltern,http://www.chiltern.gov.uk,-0.60028100000000,HP6 6AL,2011-11-10,fhrs_exempt_en-GB,Exempt,,FHRS,
223123,Forty Green,Beaconsfield,Buckinghamshire,,Royal Standard Of England,Other catering premises,7841,10,,355776,0,,51.61718700000000,04260/2025/2/000,022,envhealth@chiltern.gov.uk,Chiltern,http://www.chiltern.gov.uk,-0.66482000000000,HP9 1XS,2014-02-12,fhrs_4_en-GB,4,,FHRS,10
223124,1 - 2 Chalfont House,Chalfont Station Road,Little Chalfont,Buckinghamshire,Rucola Italian Restaurant,Other catering premises,7841,5,,355716,5,,51.66730100000000,02000/4022/3/002,022,envhealth@chiltern.gov.uk,Chiltern,http://www.chiltern.gov.uk,-0.56219900000000,HP7 9PS,2014-01-15,fhrs_5_en-GB,5,,FHRS,5
223125,6 Church Street,Chesham,Buckinghamshire,,Rumbles Pantry,Other catering premises,7841,0,,355742,0,,51.70395000000000,02790/0006/0/000,022,envhealth@chiltern.gov.uk,Chiltern,http://www.chiltern.gov.uk,-0.61374400000000,HP5 1HT,2014-11-07,fhrs_5_en-GB,5,,FHRS,5
223126,Tower Road,Coleshill,Buckinghamshire,,Rushymead Residential Care Home,Other catering premises,7841,10,,356292,10,,51.65103500000000,12460/2009/3/001,022,envhealth@chiltern.gov.uk,Chiltern,http://www.chiltern.gov.uk,-0.61921800000000,HP7 0LA,2014-07-14,fhrs_3_en-GB,3,,FHRS,5
223127,,,,,Rustica,Other catering premises,7841,10,,636681,0,,,13/00091/FHCAT,022,envhealth@chiltern.gov.uk,Chiltern,http://www.chiltern.gov.uk,,,2014-01-31,fhrs_4_en-GB,4,,FHRS,0
223128,134-144 High Street,Chesham,Buckinghamshire,,Sainsburys,Retailers - supermarkets/hypermarkets,7840,0,,355844,0,,51.70755900000000,05690/1341/0/000,022,envhealth@chiltern.gov.uk,Chiltern,http://www.chiltern.gov.uk,-0.61173700000000,HP5 1EF,2012-07-30,fhrs_5_en-GB,5,,FHRS,0
223129,9 - 11 Wycombe Road,Prestwood,Buckinghamshire,,Sainsbury's,Retailers - supermarkets/hypermarkets,7840,0,,692373,0,,51.69866300000000,14/00025/FSUPMH,022,envhealth@chiltern.gov.uk,Chiltern,http://www.chiltern.gov.uk,-0.74241400000000,HP16 0NZ,2014-06-02,fhrs_5_en-GB,5,,FHRS,0
223130,,,,,Sally Ali,Retailers - other,4613,10,,356103,10,,,10/00028/FHCAT,022,envhealth@chiltern.gov.uk,Chiltern,http://www.chiltern.gov.uk,,,2011-02-08,fhrs_3_en-GB,3,,FHRS,10
223131,Samways,35 Station Approach,Great Missenden,Buckinghamshire,Samways News,Retailers - other,4613,5,,356235,5,,51.70432300000000,11370/0035/0/000,022,envhealth@chiltern.gov.uk,Chiltern,http://www.chiltern.gov.uk,-0.70879800000000,HP16 9AZ,2009-06-09,fhrs_5_en-GB,5,,FHRS,5
223132,Esso Service Station,Amersham Road,Chesham,Buckinghamshire,Santha Services,Retailers - other,4613,5,,531041,5,,51.70005600000000,00180/2015/2/000,022,envhealth@chiltern.gov.uk,Chiltern,http://www.chiltern.gov.uk,-0.61060700000000,HP5 1NG,2013-01-08,fhrs_5_en-GB,5,,FHRS,0
223133,16 Hill Avenue,Amersham,Buckinghamshire,,Santhi,Other catering premises,7841,10,,355865,5,,51.67589100000000,05830/0016/0/001,022,envhealth@chiltern.gov.uk,Chiltern,http://www.chiltern.gov.uk,-0.60797600000000,HP6 5BW,2013-10-30,fhrs_3_en-GB,3,,FHRS,10
223134,Rowan Farm Nursery,Gorelands Lane,Chalfont St Giles,Buckinghamshire,Seasons Cafe @ Rowan,Restaurant/Cafe/Canteen,1,5,,543194,10,,51.63219700000000,13/00012/FCAFE,022,envhealth@chiltern.gov.uk,Chiltern,http://www.chiltern.gov.uk,-0.53965600000000,HP8 4AB,2013-04-17,fhrs_4_en-GB,4,,FHRS,0
223135,6 Market Square,Amersham,Buckinghamshire,,Seasons Cafe Deli,Other catering premises,7841,10,,355772,10,,51.66623300000000,04/00077/FCAFE,022,envhealth@chiltern.gov.uk,Chiltern,http://www.chiltern.gov.uk,-0.61632700000000,HP7 0DQ,2014-09-08,fhrs_3_en-GB,3,,FHRS,10
223136,30 - 32 Higham Road,Chesham,Buckinghamshire,,Seasons Catering Co. Ltd.,Other catering premises,7841,5,,356138,0,,51.71040200000000,10/00121/FCAT,022,envhealth@chiltern.gov.uk,Chiltern,http://www.chiltern.gov.uk,-0.61182400000000,HP5 2AF,2014-04-25,fhrs_5_en-GB,5,,FHRS,0
223137,2 Nightingales Corner,Little Chalfont,Buckinghamshire,,Seaworld Fish and Chips,Other catering premises,7841,10,,356034,10,,51.66660100000000,08790/2005/2/000,022,envhealth@chiltern.gov.uk,Chiltern,http://www.chiltern.gov.uk,-0.56525700000000,HP7 9PY,2014-05-14,fhrs_3_en-GB,3,,FHRS,5
223138,Seeleys House,Campbell Drive,Knotty Green,Buckinghamshire,Seeleys House Day Service,Other catering premises,7841,5,,355700,0,,51.61966000000000,01730/2000/3/001,022,envhealth@chiltern.gov.uk,Chiltern,http://www.chiltern.gov.uk,-0.65304700000000,HP9 1TF,2014-12-16,fhrs_5_en-GB,5,,FHRS,5
223139,Campbell Drive,Beaconsfield,Buckinghamshire,,Seeleys House Respite Centre,Other catering premises,7841,0,,355699,5,,51.61966000000000,01730/2000/2/000,022,envhealth@chiltern.gov.uk,Chiltern,http://www.chiltern.gov.uk,-0.65304700000000,HP9 1TF,2012-11-29,fhrs_5_en-GB,5,,FHRS,0
223140,Jubilee Hall,School Lane,Seer Green,Buckinghamshire,Seer Green Preschool,Other catering premises,7841,0,,356161,0,,51.61370100000000,10770/2028/3/001,022,envhealth@chiltern.gov.uk,Chiltern,http://www.chiltern.gov.uk,-0.60628300000000,HP9 2QJ,2014-03-26,fhrs_5_en-GB,5,,FHRS,0
223141,9 Nightingales Corner,Little Chalfont,Buckinghamshire,,Shahins,Restaurant/Cafe/Canteen,1,10,,698990,10,,51.66665500000000,14/00053/FRESTI,022,envhealth@chiltern.gov.uk,Chiltern,http://www.chiltern.gov.uk,-0.56600800000000,HP7 9PZ,2014-08-07,fhrs_3_en-GB,3,,FHRS,10
223142,154 Broad Street,Chesham,Buckinghamshire,,Shangri La,Takeaway/sandwich shop,7844,5,,355691,10,,51.71058300000000,01450/0154/0/000,022,envhealth@chiltern.gov.uk,Chiltern,http://www.chiltern.gov.uk,-0.60966200000000,HP5 3ED,2013-05-22,fhrs_3_en-GB,3,,FHRS,10
223143,NEM Petroleum Company,Shell Missenden,Deep Mill,London Road,Shell Missenden,Retailers - other,4613,0,,355957,0,,51.68588000000000,07390/2016/2/000,022,envhealth@chiltern.gov.uk,Chiltern,http://www.chiltern.gov.uk,-0.68277800000000,HP16 0DH,2011-12-06,fhrs_5_en-GB,5,,FHRS,0
223144,,,,,Shire Lane Cakes,Other catering premises,7841,5,,356172,5,,,11/00017/FHCAT,022,envhealth@chiltern.gov.uk,Chiltern,http://www.chiltern.gov.uk,,,2011-04-14,fhrs_5_en-GB,5,,FHRS,0
223145,,,,,Sinnful American Homemade Pies,Other catering premises,7841,10,,356137,0,,,10/00120/FHCAT,022,envhealth@chiltern.gov.uk,Chiltern,http://www.chiltern.gov.uk,,,2010-12-07,fhrs_4_en-GB,4,,FHRS,0
223146,3-4 The Gatehouse,Blucher Street,Chesham,Buckinghamshire,Sophies Chocolates,Retailers - other,4613,10,,355674,5,,51.70659600000000,01100/2000/3/002,022,envhealth@chiltern.gov.uk,Chiltern,http://www.chiltern.gov.uk,-0.61320000000000,HP5 2JB,2012-03-29,fhrs_4_en-GB,4,,FHRS,0
223147,11 Turners Place,Holmer Green,High Wycombe,Buckinghamshire,South Hill Fish and Chips,Takeaway/sandwich shop,7844,0,,356295,5,,51.66412300000000,12630/0011/0/000,022,envhealth@chiltern.gov.uk,Chiltern,http://www.chiltern.gov.uk,-0.69513500000000,HP15 6RN,2014-03-04,fhrs_5_en-GB,5,,FHRS,0
223148,148 Plantation Road,Amersham,Buckinghamshire,,Southernwood,Other catering premises,7841,10,,356090,5,,51.67411300000000,09770/0148/0/000,022,envhealth@chiltern.gov.uk,Chiltern,http://www.chiltern.gov.uk,-0.59161600000000,HP6 6JG,2012-05-14,fhrs_4_en-GB,4,,FHRS,5
223149,3 Turners Place,Holmer Green,Buckinghamshire,,Spar,Retailers - other,4613,0,,356293,0,,51.66412300000000,12630/0003/2/000,022,envhealth@chiltern.gov.uk,Chiltern,http://www.chiltern.gov.uk,-0.69513500000000,HP15 6RN,2011-08-31,fhrs_5_en-GB,5,,FHRS,0
223150,10 Market Place,Chalfont St Peter,Buckinghamshire,,Spice,Other catering premises,7841,5,,355976,0,,51.60690500000000,07890/0010/0/000,022,envhealth@chiltern.gov.uk,Chiltern,http://www.chiltern.gov.uk,-0.55874900000000,SL9 9EA,2011-12-20,fhrs_5_en-GB,5,,FHRS,0
223151,17 Whielden Street,Amersham,Buckinghamshire,,Spice Society,Other catering premises,7841,5,,356315,10,,51.66526300000000,13440/0017/0/000,022,envhealth@chiltern.gov.uk,Chiltern,http://www.chiltern.gov.uk,-0.61715100000000,HP7 0HU,2013-06-05,fhrs_4_en-GB,4,,FHRS,5
223152,,,,,Splendiferous,Other catering premises,7841,10,,356126,0,,,10/00094/FHCAT,022,envhealth@chiltern.gov.uk,Chiltern,http://www.chiltern.gov.uk,,,2012-03-01,fhrs_4_en-GB,4,,FHRS,0
223153,9 Parkfield Avenue,Amersham,Buckinghamshire,,St Catherins,Hotel/bed & breakfast/guest house,7842,5,,356082,5,,51.68021200000000,09290/0009/0/000,022,envhealth@chiltern.gov.uk,Chiltern,http://www.chiltern.gov.uk,-0.60085800000000,HP6 6BE,2009-10-06,fhrs_5_en-GB,5,,FHRS,5
223154,St Josephs RC Combined School,Priory Road,Chalfont St Peter,Buckinghamshire,St Josephs Pre School,Other catering premises,7841,5,,355888,10,,51.59992700000000,07/00012/FNURSE,022,envhealth@chiltern.gov.uk,Chiltern,http://www.chiltern.gov.uk,-0.56463000000000,SL9 8SB,2014-11-24,fhrs_4_en-GB,4,,FHRS,5
223155,Priory Road,Chalfont St. Peter,Gerrards Cross,Buckinghamshire,St Josephs Roman Catholic Combined School,School/college/university,7845,5,,356094,0,,51.59992700000000,09970/2001/2/000,022,envhealth@chiltern.gov.uk,Chiltern,http://www.chiltern.gov.uk,-0.56463000000000,SL9 8SB,2012-12-03,fhrs_5_en-GB,5,,FHRS,0
223156,School Lane,Amersham,Buckinghamshire,,St Marys C E Primary School,Other catering premises,7841,0,,356157,5,,51.66934200000000,10730/2002/2/000,022,envhealth@chiltern.gov.uk,Chiltern,http://www.chiltern.gov.uk,-0.61916700000000,HP7 0EL,2012-03-26,fhrs_5_en-GB,5,,FHRS,0
223157,St Marys Church Rooms,Church Street,Chesham,Buckinghamshire,St Marys Pre School (Chesham),Hospitals/Childcare/Caring Premises,5,5,,355808,5,,51.70378300000000,05/00116/HNURSE,022,envhealth@chiltern.gov.uk,Chiltern,http://www.chiltern.gov.uk,-0.61558700000000,HP5 1HY,2010-06-29,fhrs_5_en-GB,5,,FHRS,5
223158,St Michaels & All Angels Church,Sycamore Road,Amersham,Buckinghamshire,St Michaels and All Angels Church and Hall,Other catering premises,7841,,,356254,,,51.67754400000000,11730/2021/2/000,022,envhealth@chiltern.gov.uk,Chiltern,http://www.chiltern.gov.uk,-0.60634900000000,HP6 5DR,2010-03-15,fhrs_exempt_en-GB,Exempt,,FHRS,
223159,22 Bishops House,Market Place,Chalfont St. Peter,Gerrards Cross,St Peters News,Retailers - other,4613,10,,355977,10,,51.60690500000000,07890/0022/0/000,022,envhealth@chiltern.gov.uk,Chiltern,http://www.chiltern.gov.uk,-0.55874900000000,SL9 9EA,2014-03-18,fhrs_4_en-GB,4,,FHRS,0
223160,,,,,Star Bakes,Other catering premises,7841,10,,636675,5,,,13/00078/FHCAT,022,envhealth@chiltern.gov.uk,Chiltern,http://www.chiltern.gov.uk,,,2013-09-25,fhrs_4_en-GB,4,,FHRS,0
223161,,,,,Stardust Cakes,Hospitals/Childcare/Caring Premises,5,5,,356136,5,,,10/00119/FHCAT,022,envhealth@chiltern.gov.uk,Chiltern,http://www.chiltern.gov.uk,,,2010-10-20,fhrs_5_en-GB,5,,FHRS,5
223162,Missenden Road,Amersham,Buckinghamshire,,Stepping Stones Nursery,Other catering premises,7841,10,,356020,10,,51.67150200000000,08290/2005/3/001,022,envhealth@chiltern.gov.uk,Chiltern,http://www.chiltern.gov.uk,-0.64482900000000,HP7 0RL,2014-06-16,fhrs_3_en-GB,3,,FHRS,10
223163,Orchard End Avenue,Amersham,Buckinghamshire,,Stony Dean School,School/college/university,7845,10,,356072,0,,51.66975300000000,09050/2013/2/000,022,envhealth@chiltern.gov.uk,Chiltern,http://www.chiltern.gov.uk,-0.58793400000000,HP7 9JW,2014-10-09,fhrs_4_en-GB,4,,FHRS,5
223164,1 Bishops House,Market Place,Chalfont St. Peter,Gerrards Cross,Stratton Bakery,Manufacturers/packers,7839,5,,355973,0,,51.60690500000000,07890/0001/0/000,022,envhealth@chiltern.gov.uk,Chiltern,http://www.chiltern.gov.uk,-0.55874900000000,SL9 9EA,2013-12-13,fhrs_5_en-GB,5,,FHRS,0
223165,High Street,Chalfont St. Giles,Buckinghamshire,,Stratton Bakery,Manufacturers/packers,7839,5,,355829,5,,51.63127200000000,05670/2039/2/000,022,envhealth@chiltern.gov.uk,Chiltern,http://www.chiltern.gov.uk,-0.57049000000000,HP8 4QH,2014-01-02,fhrs_4_en-GB,4,,FHRS,10
223166,6 Sycamore Place,Hill Avenue,Amersham,Buckinghamshire,Subway,Takeaway/sandwich shop,7844,0,,356016,0,,51.67500100000000,08/00161/FTAKO,022,envhealth@chiltern.gov.uk,Chiltern,http://www.chiltern.gov.uk,-0.60801800000000,HP6 5BG,2013-10-09,fhrs_5_en-GB,5,,FHRS,0
223167,50 High Street,Great Missenden,Buckinghamshire,,Sukhothai,Restaurant/Cafe/Canteen,1,10,,356057,5,,51.70238200000000,09/00043/FRESTO,022,envhealth@chiltern.gov.uk,Chiltern,http://www.chiltern.gov.uk,-0.70645100000000,HP16 0AN,2013-12-20,fhrs_3_en-GB,3,,FHRS,10
223168,The Royal British Legion Club,48 Beech Tree Road,Holmer Green,Buckinghamshire,Sunday Lunches at Royal British Legion - Holmer Green,Pub/bar/nightclub,7843,10,,626978,10,,51.66825200000000,14/00007/FCONTR,022,envhealth@chiltern.gov.uk,Chiltern,http://www.chiltern.gov.uk,-0.69858800000000,HP15 6UT,2014-01-19,fhrs_3_en-GB,3,,FHRS,10
223169,Gold Hill North,Chalfont St. Peter,Gerrards Cross,Buckinghamshire,Sunrise Fish and Chips,Takeaway/sandwich shop,7844,5,,355782,0,,51.60639900000000,04670/2029/2/000,022,envhealth@chiltern.gov.uk,Chiltern,http://www.chiltern.gov.uk,-0.56080200000000,SL9 9DS,2013-08-27,fhrs_4_en-GB,4,,FHRS,10
223170,18 - 20 Hill Avenue,Amersham,Buckinghamshire,,Superb Kebabs,Takeaway/sandwich shop,7844,10,,429041,5,,51.67589100000000,12/00073/FTAKO,022,envhealth@chiltern.gov.uk,Chiltern,http://www.chiltern.gov.uk,-0.60797600000000,HP6 5BW,2013-06-10,fhrs_3_en-GB,3,,FHRS,10
223171,10 Chenies Parade,Chalfont Station Road,Little Chalfont,Amersham,T A Robertson,Retailers - other,4613,5,,355712,5,,51.66687000000000,02000/2009/2/000,022,envhealth@chiltern.gov.uk,Chiltern,http://www.chiltern.gov.uk,-0.56375900000000,HP7 9PH,2013-08-01,fhrs_5_en-GB,5,,FHRS,5
223172,Teddies Nursery,107 Bois Moor Road,Chesham,Buckinghamshire,Teddies Chesham Bois,Other catering premises,7841,10,,355678,0,,51.69325900000000,01140/0107/2/000,022,envhealth@chiltern.gov.uk,Chiltern,http://www.chiltern.gov.uk,-0.60310300000000,HP5 1SS,2014-06-06,fhrs_4_en-GB,4,,FHRS,0
223173,London Road,Amersham,Buckinghamshire,,Tesco,Retailers - supermarkets/hypermarkets,7840,0,,355951,0,,51.66617500000000,07340/2001/2/000,022,envhealth@chiltern.gov.uk,Chiltern,http://www.chiltern.gov.uk,-0.61135400000000,HP7 0HA,2011-09-15,fhrs_5_en-GB,5,,FHRS,5
223174,6 - 8 Chenies Parade,Little Chalfont,Buckinghamshire,,Tesco Express,Retailers - other,4613,5,,355926,5,,51.66687000000000,07/00115/FRET,022,envhealth@chiltern.gov.uk,Chiltern,http://www.chiltern.gov.uk,-0.56375900000000,HP7 9PH,2012-02-09,fhrs_5_en-GB,5,,FHRS,5
223175,Gravel Hill,Chalfont St. Peter,Gerrards Cross,Buckinghamshire,Tesco Express,Retailers - other,4613,5,,355787,0,,51.61389700000000,04830/2003/2/000,022,envhealth@chiltern.gov.uk,Chiltern,http://www.chiltern.gov.uk,-0.55630400000000,SL9 0NP,2010-02-11,fhrs_5_en-GB,5,,FHRS,5
223176,Ground Floor,Merritt House,Hill Avenue,Amersham,Tesco Express,Retailers - other,4613,0,,355930,5,,51.67458700000000,07/00125/FRET,022,envhealth@chiltern.gov.uk,Chiltern,http://www.chiltern.gov.uk,-0.60797300000000,HP6 5BQ,2011-06-01,fhrs_5_en-GB,5,,FHRS,0
223177,The Queens Head Public House,120 Church Street,Chesham,Buckinghamshire,Thai at Queen's Head,Restaurant/Cafe/Canteen,1,10,,692379,10,,51.70309800000000,14/00055/FPUBFC,022,envhealth@chiltern.gov.uk,Chiltern,http://www.chiltern.gov.uk,-0.61693900000000,HP5 1JD,2014-08-13,fhrs_4_en-GB,4,,FHRS,0
223178,56 School Lane,Chalfont St. Peter,Gerrards Cross,Buckinghamshire,The Abbeyfield Chalfonts Society Limited,Other catering premises,7841,10,,356160,0,,51.60050000000000,10750/0056/0/000,022,envhealth@chiltern.gov.uk,Chiltern,http://www.chiltern.gov.uk,-0.56072800000000,SL9 9BB,2012-04-24,fhrs_4_en-GB,4,,FHRS,0
223179,Pratt House,Quill Hall Lane,Amersham,Buckinghamshire,The Abbeyfield Society,Other catering premises,7841,0,,356141,5,,51.67808200000000,10090/2008/2/000,022,envhealth@chiltern.gov.uk,Chiltern,http://www.chiltern.gov.uk,-0.58667700000000,HP6 6LU,2014-01-27,fhrs_5_en-GB,5,,FHRS,5
223180,9 Market Square,Amersham,Buckinghamshire,,The Artichoke,Other catering premises,7841,0,,355982,5,,51.66656500000000,07910/0009/0/000,022,envhealth@chiltern.gov.uk,Chiltern,http://www.chiltern.gov.uk,-0.61624400000000,HP7 0DF,2011-09-15,fhrs_5_en-GB,5,,FHRS,0
223181,Penfold Lane,Holmer Green,High Wycombe,Buckinghamshire,The Bat and Ball,Pub/bar/nightclub,7843,5,,356084,5,,51.66864600000000,09500/2036/2/000,022,envhealth@chiltern.gov.uk,Chiltern,http://www.chiltern.gov.uk,-0.68951000000000,HP15 6XW,2012-08-09,fhrs_5_en-GB,5,,FHRS,5
223182,Village Road,Chenies,Buckinghamshire,,The Bedford Arms Hotel,Hotel/bed & breakfast/guest house,7842,10,,355726,15,,51.67336800000000,02160/2002/2/000,022,envhealth@chiltern.gov.uk,Chiltern,http://www.chiltern.gov.uk,-0.52719600000000,WD3 6EQ,2014-08-27,fhrs_2_en-GB,2,,FHRS,10
223183,Chartridge Lane,Chartridge,Buckinghamshire,,The Bell Public House,Other catering premises,7841,10,,355717,10,,51.72339000000000,02100/2032/2/000,022,envhealth@chiltern.gov.uk,Chiltern,http://www.chiltern.gov.uk,-0.64840300000000,HP5 2TF,2013-09-20,fhrs_3_en-GB,3,,FHRS,10
223184,Ashley Green Road,Chesham,Buckinghamshire,,The Bellcote,Restaurant/Cafe/Canteen,1,0,,705675,0,,51.72664900000000,14/00056/RESTO,022,envhealth@chiltern.gov.uk,Chiltern,http://www.chiltern.gov.uk,-0.59664500000000,HP5 3PF,2014-09-22,fhrs_5_en-GB,5,,FHRS,0
223185,Lycrome Road,Chesham,Buckinghamshire,,The Black Cat,Other catering premises,7841,5,,355967,0,,51.72045900000000,07650/2012/2/000,022,envhealth@chiltern.gov.uk,Chiltern,http://www.chiltern.gov.uk,-0.58731000000000,HP5 3LF,2011-11-24,fhrs_5_en-GB,5,,FHRS,0
223186,The Black Horse Public House,Aylesbury Road,Great Missenden,Buckinghamshire,The Black Horse,Other catering premises,7841,0,,355658,0,,51.71031500000000,00490/2020/2/000,022,envhealth@chiltern.gov.uk,Chiltern,http://www.chiltern.gov.uk,-0.71240500000000,HP16 9AX,2012-05-14,fhrs_5_en-GB,5,,FHRS,0
223187,Asheridge Road,Asheridge,Buckinghamshire,,The Blue Ball Public House,Pub/bar/nightclub,7843,5,,356058,0,,51.73273500000000,09/00046/FPUBFC,022,envhealth@chiltern.gov.uk,Chiltern,http://www.chiltern.gov.uk,-0.64402600000000,HP5 2UX,2014-07-16,fhrs_5_en-GB,5,,FHRS,0
223188,Narcot Lane,Chalfont St. Peter,Gerrards Cross,Buckinghamshire,The Chalfonts Community College,School/college/university,7845,5,,356030,5,,51.60984200000000,08600/2014/2/000,022,envhealth@chiltern.gov.uk,Chiltern,http://www.chiltern.gov.uk,-0.57022400000000,SL9 8TP,2014-02-25,fhrs_5_en-GB,5,,FHRS,0
223189,Chatgaon Tandoori,96 Broad Street,Chesham,Buckinghamshire,The Chatgaon Indian Cuisine,Other catering premises,7841,5,,355687,0,,51.71058300000000,01450/0096/0/000,022,envhealth@chiltern.gov.uk,Chiltern,http://www.chiltern.gov.uk,-0.60966200000000,HP5 3ED,2014-10-06,fhrs_5_en-GB,5,,FHRS,0
223190,51 London Road West,Amersham,Buckinghamshire,,The Chequers,Other catering premises,7841,10,,355960,10,,51.66458600000000,07410/0051/2/000,022,envhealth@chiltern.gov.uk,Chiltern,http://www.chiltern.gov.uk,-0.60703600000000,HP7 9DA,2014-10-13,fhrs_4_en-GB,4,,FHRS,0
223191,28-30 Bois Lane,Amersham,Buckinghamshire,,The Collection,Retailers - other,4613,10,,355675,10,,51.68316000000000,01130/0028/0/000,022,envhealth@chiltern.gov.uk,Chiltern,http://www.chiltern.gov.uk,-0.60147600000000,HP6 6BP,2013-12-03,fhrs_3_en-GB,3,,FHRS,10
223192,The Penningtons,Amersham,Buckinghamshire,,The Croft Residential Home,Other catering premises,7841,10,,356285,0,,51.68014200000000,12210/2000/2/000,022,envhealth@chiltern.gov.uk,Chiltern,http://www.chiltern.gov.uk,-0.59652100000000,HP6 6EJ,2013-12-12,fhrs_4_en-GB,4,,FHRS,10
223193,High Street,Great Missenden,Buckinghamshire,,The Cross Keys,Other catering premises,7841,20,,355854,15,,51.70352500000000,05700/2028/2/000,022,envhealth@chiltern.gov.uk,Chiltern,http://www.chiltern.gov.uk,-0.70740200000000,HP16 0AU,2013-12-09,fhrs_1_en-GB,1,,FHRS,15
223194,Blackwellhall Lane To Kiln Lane,Ley Hill,Chesham,Buckinghamshire,The Crown,Other catering premises,7841,10,,355944,10,,51.70735700000000,07110/2037/2/000,022,envhealth@chiltern.gov.uk,Chiltern,http://www.chiltern.gov.uk,-0.56936700000000,HP5 1UY,2013-08-19,fhrs_3_en-GB,3,,FHRS,10
223195,The Crown Hotel,16 High Street,Amersham,Buckinghamshire,The Crown Inn,Hotel/bed & breakfast/guest house,7842,0,,355983,10,,51.66627500000000,07910/2001/2/000,022,envhealth@chiltern.gov.uk,Chiltern,http://www.chiltern.gov.uk,-0.61681700000000,HP7 0DH,2013-01-16,fhrs_4_en-GB,4,,FHRS,5
223196,Village Road,Little Missenden,Buckinghamshire,,The Crown Public House,Other catering premises,7841,5,,355950,0,,51.68146000000000,07270/2092/2/000,022,envhealth@chiltern.gov.uk,Chiltern,http://www.chiltern.gov.uk,-0.66485400000000,HP7 0RD,2014-11-17,fhrs_5_en-GB,5,,FHRS,0
223197,4A The Green,Chalfont St Giles,Buckinghamshire,,The Deli,Restaurant/Cafe/Canteen,1,10,,636673,10,,51.63224700000000,13/00068/FCAFE,022,envhealth@chiltern.gov.uk,Chiltern,http://www.chiltern.gov.uk,-0.56930300000000,HP8 4QF,2014-08-12,fhrs_3_en-GB,3,,FHRS,5
223198,Francis Yard,East Street,Chesham,Buckinghamshire,The Drawing Room,Other catering premises,7841,10,,355761,5,,51.70407600000000,03830/2004/2/000,022,envhealth@chiltern.gov.uk,Chiltern,http://www.chiltern.gov.uk,-0.61223500000000,HP5 1DG,2014-03-26,fhrs_2_en-GB,2,,FHRS,15
223199,145 High Street,Amersham,Buckinghamshire,,The Eagle,Other catering premises,7841,10,,355822,10,,51.66758400000000,05660/0145/0/000,022,envhealth@chiltern.gov.uk,Chiltern,http://www.chiltern.gov.uk,-0.62033400000000,HP7 0DY,2014-03-26,fhrs_3_en-GB,3,,FHRS,10
223200,The Earl Howe Public House,11 Earl Howe Road,Holmer Green,Buckinghamshire,The Earl Howe,Other catering premises,7841,10,,355760,10,,51.66368800000000,03810/0011/0/000,022,envhealth@chiltern.gov.uk,Chiltern,http://www.chiltern.gov.uk,-0.69240000000000,HP15 6PU,2014-09-29,fhrs_2_en-GB,2,,FHRS,15
223201,High Street,Chalfont St. Giles,Buckinghamshire,,The Feathers,Pub/bar/nightclub,7843,5,,355824,5,,51.63173200000000,05670/2004/2/000,022,envhealth@chiltern.gov.uk,Chiltern,http://www.chiltern.gov.uk,-0.57060600000000,HP8 4QQ,2012-04-04,fhrs_5_en-GB,5,,FHRS,5
223202,205 Bois Moor Road,Chesham,Buckinghamshire,,The Flying Tea Parlour Limited,Other catering premises,7841,10,,468204,5,,51.69196100000000,11/00105/FMOB,022,envhealth@chiltern.gov.uk,Chiltern,http://www.chiltern.gov.uk,-0.60129100000000,HP5 1SU,2012-11-13,fhrs_4_en-GB,4,,FHRS,5
223203,Chiltern Open Air Museum,Newland Park,Gorelands Lane,Chalfont St Giles,The Friends Centre,Retailers - other,4613,5,,676291,5,,51.63219700000000,08/00016/HRETF,022,envhealth@chiltern.gov.uk,Chiltern,http://www.chiltern.gov.uk,-0.53965600000000,HP8 4AB,2014-05-14,fhrs_5_en-GB,5,,FHRS,5
223204,Hawridge,Chesham,Buckinghamshire,,The Full Moon,Other catering premises,7841,10,,355815,5,,51.75279998779297,05290/2022/2/000,022,envhealth@chiltern.gov.uk,Chiltern,http://www.chiltern.gov.uk,-0.64346915483475,HP5 2UH,2014-01-20,fhrs_4_en-GB,4,,FHRS,0
223205,Hare Lane,Little Kingshill,Buckinghamshire,,The Full Moon Public House,Restaurant/Cafe/Canteen,1,5,,356194,5,,51.68373600000000,11/00069/FPUBNC,022,envhealth@chiltern.gov.uk,Chiltern,http://www.chiltern.gov.uk,-0.70997700000000,HP16 0EE,2014-09-22,fhrs_5_en-GB,5,,FHRS,5
223206,Bellingdon Road,Chesham,Buckinghamshire,,The Gamekeepers Lodge,Pub/bar/nightclub,7843,0,,355663,0,,51.71184300000000,00840/2000/2/000,022,envhealth@chiltern.gov.uk,Chiltern,http://www.chiltern.gov.uk,-0.61353100000000,HP5 2NN,2013-01-08,fhrs_5_en-GB,5,,FHRS,0
223207,14 High Street,Chesham,Buckinghamshire,,The George and Dragon,Pub/bar/nightclub,7843,10,,355834,10,,51.70489500000000,05690/0014/0/000,022,envhealth@chiltern.gov.uk,Chiltern,http://www.chiltern.gov.uk,-0.61304900000000,HP5 1EP,2011-08-03,fhrs_3_en-GB,3,,FHRS,5
223208,Chesham Road,Ashley Green,Chesham,Buckinghamshire,The Golden Eagle,Other catering premises,7841,5,,355730,10,,51.73852100000000,02370/2002/2/000,022,envhealth@chiltern.gov.uk,Chiltern,http://www.chiltern.gov.uk,-0.58706600000000,HP5 3PW,2014-08-27,fhrs_4_en-GB,4,,FHRS,5
223209,High Street,Chalfont St. Peter,Gerrards Cross,Buckinghamshire,The Greyhound Inn,Other catering premises,7841,5,,355833,10,,51.60742900000000,05680/2003/2/000,022,envhealth@chiltern.gov.uk,Chiltern,http://www.chiltern.gov.uk,-0.55674000000000,SL9 9RA,2014-09-11,fhrs_4_en-GB,4,,FHRS,5
223210,15 Broadway,Amersham,Buckinghamshire,,The Grocer at 15,Restaurant/Cafe/Canteen,1,5,,676309,10,,51.66629500000000,14/00040/FTAKO,022,envhealth@chiltern.gov.uk,Chiltern,http://www.chiltern.gov.uk,-0.61472000000000,HP7 0HL,2014-06-19,fhrs_3_en-GB,3,,FHRS,10
223211,91 High Street,Amersham,Buckinghamshire,,The Grocer at 91,Restaurant/Cafe/Canteen,1,10,,608432,10,,51.66717200000000,12/00090/FRESTO,022,envhealth@chiltern.gov.uk,Chiltern,http://www.chiltern.gov.uk,-0.61891500000000,HP7 0DT,2013-04-10,fhrs_4_en-GB,4,,FHRS,0
223212,119 Botley Road,Chesham,Buckinghamshire,,The Hen and Chickens,Other catering premises,7841,10,,355679,5,,51.70931900000000,01160/0119/0/000,022,envhealth@chiltern.gov.uk,Chiltern,http://www.chiltern.gov.uk,-0.59259300000000,HP5 1XG,2014-03-26,fhrs_3_en-GB,3,,FHRS,10
223213,4 Chalfont House,Chalfont Station Road,Little Chalfont,Buckinghamshire,The Hidden Tea Shop,Restaurant/Cafe/Canteen,1,10,,698989,0,,51.66730100000000,14/00051/FCAFE,022,envhealth@chiltern.gov.uk,Chiltern,http://www.chiltern.gov.uk,-0.56219900000000,HP7 9PS,2014-08-20,fhrs_4_en-GB,4,,FHRS,5
223214,Penn Street,Amersham,Buckinghamshire,,The Hit Or Miss Inn,Other catering premises,7841,5,,356086,5,,51.65364800000000,09580/2024/2/000,022,envhealth@chiltern.gov.uk,Chiltern,http://www.chiltern.gov.uk,-0.66716000000000,HP7 0PX,2014-03-04,fhrs_5_en-GB,5,,FHRS,0
223215,Hyde Heath Village Shop,Brays Lane,Hyde Heath,Buckinghamshire,The Hyde Heath Village Shop Ltd,Retailers - other,4613,10,,355683,5,,51.69368800000000,01370/2043/2/000,022,envhealth@chiltern.gov.uk,Chiltern,http://www.chiltern.gov.uk,-0.65524900000000,HP6 5SN,2011-03-22,fhrs_4_en-GB,4,,FHRS,0
223216,Amersham Road,Chalfont St. Giles,Buckinghamshire,,The Ivy House,Other catering premises,7841,10,,355647,10,,51.64976800000000,00150/2024/2/000,022,envhealth@chiltern.gov.uk,Chiltern,http://www.chiltern.gov.uk,-0.57856700000000,HP8 4RS,2014-09-01,fhrs_3_en-GB,3,,FHRS,10
223217,24 Chalfont Road,Seer Green,Beaconsfield,Buckinghamshire,The Jolly Cricketers,Other catering premises,7841,10,,355710,10,,51.61780800000000,01980/0024/0/000,022,envhealth@chiltern.gov.uk,Chiltern,http://www.chiltern.gov.uk,-0.60536300000000,HP9 2YG,2014-09-08,fhrs_3_en-GB,3,,FHRS,5
223218,Jolly Sportsman Public House,Eskdale Avenue,Chesham,Buckinghamshire,The Jolly Sportsman,Other catering premises,7841,10,,355768,5,,51.71085700000000,03980/2000/2/000,022,envhealth@chiltern.gov.uk,Chiltern,http://www.chiltern.gov.uk,-0.60771400000000,HP5 3AX,2014-08-18,fhrs_4_en-GB,4,,FHRS,5
223219,30 High Street,Amersham,Buckinghamshire,,The Kings Arms,Other catering premises,7841,,,355820,,,51.66661800000000,05660/0030/2/000,022,envhealth@chiltern.gov.uk,Chiltern,http://www.chiltern.gov.uk,-0.61844000000000,HP7 0DJ,2014-06-16,fhrs_3_en-GB,3,,FHRS,
223220,Hildreths Ltd,169 Wycombe Road,Prestwood,Great Missenden,The Limes Coffee Shop,Other catering premises,7841,5,,356344,5,,51.68763000000000,14020/0169/3/001,022,envhealth@chiltern.gov.uk,Chiltern,http://www.chiltern.gov.uk,-0.73483500000000,HP16 0HJ,2014-07-07,fhrs_4_en-GB,4,,FHRS,10
223221,22 High Street,Chesham,Buckinghamshire,,The Little Orchard,Restaurant/Cafe/Canteen,1,10,,712480,5,,51.70512000000000,14/00069/FCAFE,022,envhealth@chiltern.gov.uk,Chiltern,http://www.chiltern.gov.uk,-0.61308600000000,HP5 1EP,2014-10-09,fhrs_4_en-GB,4,,FHRS,5
223222,,,,,The Lop Eared Pig  Or Duende,Other catering premises,7841,5,,692378,0,,,14/00052/FMOB,022,envhealth@chiltern.gov.uk,Chiltern,http://www.chiltern.gov.uk,,,2014-07-03,fhrs_5_en-GB,5,,FHRS,0
223223,77 The Broadway,Chesham,Buckinghamshire,,The Misty Moon,Restaurant/Cafe/Canteen,1,10,,356015,5,,51.70608700000000,08/00128/FPUBFC,022,envhealth@chiltern.gov.uk,Chiltern,http://www.chiltern.gov.uk,-0.61192700000000,HP5 1BX,2014-02-11,fhrs_3_en-GB,3,,FHRS,10
223224,8 Market Place,Chalfont St Peter,Buckinghamshire,,The Myrtle Tree,Other catering premises,7841,0,,355975,0,,51.60690500000000,07890/0008/0/000,022,envhealth@chiltern.gov.uk,Chiltern,http://www.chiltern.gov.uk,-0.55874900000000,SL9 9EA,2010-12-14,fhrs_5_en-GB,5,,FHRS,0
223225,London Road,Little Kingshill,Great Missenden,Buckinghamshire,The Nags Head,Other catering premises,7841,5,,355953,10,,51.69357800000000,07390/2003/2/000,022,envhealth@chiltern.gov.uk,Chiltern,http://www.chiltern.gov.uk,-0.69818000000000,HP16 0DG,2013-09-02,fhrs_4_en-GB,4,,FHRS,5
223226,The Old Swan Public House,Swan Lane,The Lee,Buckinghamshire,The Old Swan,Other catering premises,7841,10,,356243,0,,51.74115700000000,11650/2030/2/000,022,envhealth@chiltern.gov.uk,Chiltern,http://www.chiltern.gov.uk,-0.69537900000000,HP16 9NU,2013-04-25,fhrs_4_en-GB,4,,FHRS,5
223227,High Street,Chalfont St. Giles,Buckinghamshire,,The Olde Post House,Retailers - other,4613,5,,355825,5,,51.63289800000000,05670/2024/2/000,022,envhealth@chiltern.gov.uk,Chiltern,http://www.chiltern.gov.uk,-0.56955800000000,HP8 4QA,2012-09-26,fhrs_5_en-GB,5,,FHRS,5
223228,Great Missenden Railway Station,Station Approach,Great Missenden,Buckinghamshire,The Pantry,Restaurant/Cafe/Canteen,1,10,,484881,5,,51.70432300000000,12/00097/FCAFE,022,envhealth@chiltern.gov.uk,Chiltern,http://www.chiltern.gov.uk,-0.70879800000000,HP16 9AZ,2014-05-12,fhrs_4_en-GB,4,,FHRS,5
223229,120 High Street,Chesham,Buckinghamshire,,The Perfect Retreat,Restaurant/Cafe/Canteen,1,10,,676301,5,,51.70682400000000,14/00016/FCAFE,022,envhealth@chiltern.gov.uk,Chiltern,http://www.chiltern.gov.uk,-0.61189000000000,HP5 1EB,2014-06-12,fhrs_4_en-GB,4,,FHRS,5
223230,Waterside,Chesham,Buckinghamshire,,The Pheasant,Pub/bar/nightclub,7843,0,,356305,0,,51.69618606567380,13050/2018/2/000,022,envhealth@chiltern.gov.uk,Chiltern,http://www.chiltern.gov.uk,-0.60359185934067,HP5 1QE,2010-10-25,fhrs_5_en-GB,5,,FHRS,0
223231,The Hill,Winchmore Hill,Buckinghamshire,,The Plough,Pub/bar/nightclub,7843,10,,543188,15,,51.64580500000000,12/00015/FPUBFC,022,envhealth@chiltern.gov.uk,Chiltern,http://www.chiltern.gov.uk,-0.65280700000000,HP7 0PA,2014-09-17,fhrs_2_en-GB,2,,FHRS,5
223232,Hyde Heath Road,Hyde Heath,Buckinghamshire,,The Plough Public House,Other catering premises,7841,10,,355879,5,,51.69370600000000,06330/2025/2/000,022,envhealth@chiltern.gov.uk,Chiltern,http://www.chiltern.gov.uk,-0.65454000000000,HP6 5RW,2013-12-16,fhrs_3_en-GB,3,,FHRS,10
223233,The Polecat Public House,170 Wycombe Road,Prestwood,Buckinghamshire,The Polecat Inn,Other catering premises,7841,5,,356345,0,,51.68763000000000,14020/0170/2/000,022,envhealth@chiltern.gov.uk,Chiltern,http://www.chiltern.gov.uk,-0.73483500000000,HP16 0HJ,2014-09-22,fhrs_5_en-GB,5,,FHRS,5
223234,131 White Lion Road,Amersham,Buckinghamshire,,The Pomeroy Inn,Pub/bar/nightclub,7843,5,,356196,5,,51.67060100000000,11/00075/FPUBFC,022,envhealth@chiltern.gov.uk,Chiltern,http://www.chiltern.gov.uk,-0.58219500000000,HP7 9JY,2012-02-23,fhrs_4_en-GB,4,,FHRS,10
223235,The Potters Arms,Fagnall Lane,Winchmore Hill,Amersham,The Potters Arms,Other catering premises,7841,10,,531042,15,,51.64490700000000,04010/2005/2/000,022,envhealth@chiltern.gov.uk,Chiltern,http://www.chiltern.gov.uk,-0.65287700000000,HP7 0PH,2014-06-16,fhrs_2_en-GB,2,,FHRS,10
223236,120 Church Street,Chesham,Buckinghamshire,,The Queens Head,Pub/bar/nightclub,7843,5,,355654,5,,51.70309800000000,002790/0120/2/000,022,envhealth@chiltern.gov.uk,Chiltern,http://www.chiltern.gov.uk,-0.61693900000000,HP5 1JD,2012-07-19,fhrs_5_en-GB,5,,FHRS,5
223237,Chenies,Rickmansworth,Hertfordshire,,The Red Lion,Other catering premises,7841,10,,355724,10,,51.67182922363281,02150/2008/2/000,022,envhealth@chiltern.gov.uk,Chiltern,http://www.chiltern.gov.uk,-0.52425241470337,WD3 6ED,2013-06-26,fhrs_3_en-GB,3,,FHRS,10
223238,Elm Road,Penn,High Wycombe,Buckinghamshire,The Red Lion,Other catering premises,7841,10,,355766,0,,51.63560200000000,03920/2036/2/000,022,envhealth@chiltern.gov.uk,Chiltern,http://www.chiltern.gov.uk,-0.69036100000000,HP10 8LF,2013-12-18,fhrs_4_en-GB,4,,FHRS,5
223239,The Red Lion Inn Public House,Village Road,Coleshill,Buckinghamshire,The Red Lion,Pub/bar/nightclub,7843,5,,643541,0,,51.64656800000000,13/00106/FPUBFC,022,envhealth@chiltern.gov.uk,Chiltern,http://www.chiltern.gov.uk,-0.63091600000000,HP7 0LH,2014-03-13,fhrs_5_en-GB,5,,FHRS,5
223240,The Red Lion Public House,Red Lion Street,Chesham,Buckinghamshire,The Red Lion,Other catering premises,7841,5,,356150,10,,51.70311500000000,10250/2001/2/000,022,envhealth@chiltern.gov.uk,Chiltern,http://www.chiltern.gov.uk,-0.61307500000000,HP5 1ET,2014-01-13,fhrs_4_en-GB,4,,FHRS,0
223241,Penn Road,Knotty Green,Buckinghamshire,,The Red Lion Public House,Pub/bar/nightclub,7843,5,,356000,0,,51.62372000000000,08/00038/FPUBFC,022,envhealth@chiltern.gov.uk,Chiltern,http://www.chiltern.gov.uk,-0.65658100000000,HP9 2TN,2013-12-18,fhrs_5_en-GB,5,,FHRS,0
223242,Village Road,Little Missenden,Buckinghamshire,,The Red Lion Public House,Other catering premises,7841,10,,355949,10,,51.68181200000000,07270/2038/2/000,022,envhealth@chiltern.gov.uk,Chiltern,http://www.chiltern.gov.uk,-0.66727400000000,HP7 0QZ,2013-09-18,fhrs_2_en-GB,2,,FHRS,15
223243,Gerrards Cross Bowling Club,Maltmans Lane,Chalfont St. Peter,Gerrards Cross,The Robert Brown Green,Other catering premises,7841,5,,355971,5,,51.59689800000000,07750/2002/2/000,022,envhealth@chiltern.gov.uk,Chiltern,http://www.chiltern.gov.uk,-0.56397500000000,SL9 8RS,2010-11-01,fhrs_5_en-GB,5,,FHRS,5
223244,Amersham Hospital,Whielden Street,Amersham,Buckinghamshire,The Royal Voluntary Services Coffee Shop,Other catering premises,7841,0,,356318,0,,51.66295700000000,13440/2006/3/001,022,envhealth@chiltern.gov.uk,Chiltern,http://www.chiltern.gov.uk,-0.62140000000000,HP7 0JD,2014-07-01,fhrs_5_en-GB,5,,FHRS,0
223245,Whielden Street,Amersham,Buckinghamshire,,The Saracens Head Inn,Other catering premises,7841,10,,356320,10,,51.68015500000000,13440/2022/2/000,022,envhealth@chiltern.gov.uk,Chiltern,http://www.chiltern.gov.uk,-0.66943400000000,HP7 0QU,2014-04-28,fhrs_3_en-GB,3,,FHRS,10
223246,Penn Street,Amersham,Buckinghamshire,,The School On The Green,School/college/university,7845,5,,356087,5,,51.65364800000000,09580/2026/3/001,022,envhealth@chiltern.gov.uk,Chiltern,http://www.chiltern.gov.uk,-0.66716000000000,HP7 0PX,2012-01-30,fhrs_5_en-GB,5,,FHRS,5
223247,National Society For Epilepsy,Chesham Lane,Chalfont St Peter,Buckinghamshire,The Sir William Gower Assessment Centre,Other catering premises,7841,0,,355705,0,,51.62184600000000,01930/2051/2/000,022,envhealth@chiltern.gov.uk,Chiltern,http://www.chiltern.gov.uk,-0.55047500000000,SL9 0RJ,2012-01-26,fhrs_5_en-GB,5,,FHRS,0
223248,Penn Street,Amersham,Buckinghamshire,,The Squirrel,Other catering premises,7841,5,,356088,0,,51.65364800000000,09580/2057/2/000,022,envhealth@chiltern.gov.uk,Chiltern,http://www.chiltern.gov.uk,-0.66716000000000,HP7 0PX,2014-09-11,fhrs_4_en-GB,4,,FHRS,10
223249,24 High Street,Chesham,Buckinghamshire,,The Stay and Play,Restaurant/Cafe/Canteen,1,10,,643539,0,,51.70512000000000,13/00099/FCAFE,022,envhealth@chiltern.gov.uk,Chiltern,http://www.chiltern.gov.uk,-0.61308600000000,HP5 1EP,2014-03-04,fhrs_4_en-GB,4,,FHRS,10
223250,Chalfont Station Road,Little Chalfont,Amersham,Buckinghamshire,The Sugar Loaf Inn,Other catering premises,7841,10,,355714,0,,51.66774500000000,02000/2020/2/000,022,envhealth@chiltern.gov.uk,Chiltern,http://www.chiltern.gov.uk,-0.56247400000000,HP7 9PN,2013-02-22,fhrs_4_en-GB,4,,FHRS,10
223251,Ley Hill,Chesham,Buckinghamshire,,The Swan,Other catering premises,7841,5,,355943,5,,51.70677100000000,07110/2019/2/000,022,envhealth@chiltern.gov.uk,Chiltern,http://www.chiltern.gov.uk,-0.56851700000000,HP5 1UT,2012-02-15,fhrs_5_en-GB,5,,FHRS,0
223252,The Swan Public House,122 High Street,Amersham,Buckinghamshire,The Swan,Other catering premises,7841,0,,355821,0,,51.66732200000000,05660/0122/0/000,022,envhealth@chiltern.gov.uk,Chiltern,http://www.chiltern.gov.uk,-0.62174500000000,HP7 0ED,2011-09-06,fhrs_5_en-GB,5,,FHRS,5
223253,Austenwood Lane,Chalfont St Peter,Buckinghamshire,,The Three Oaks,Restaurant/Cafe/Canteen,1,10,,356197,15,,51.59753100000000,11/00077/FPUBFC,022,envhealth@chiltern.gov.uk,Chiltern,http://www.chiltern.gov.uk,-0.55693800000000,SL9 8NL,2014-08-01,fhrs_2_en-GB,2,,FHRS,10
223254,The Venture Hall,Park Place,Seer Green,Beaconsfield,The Venture Hall,Other catering premises,7841,,,356229,,,51.62047400000000,11150/2000/2/000,022,envhealth@chiltern.gov.uk,Chiltern,http://www.chiltern.gov.uk,-0.60116400000000,HP9 2FJ,2003-08-13,fhrs_exempt_en-GB,Exempt,,FHRS,
223255,The Village Chippy,1 Three Households,Chalfont St Giles,Buckinghamshire,The Village Chippy (Traditional Foods Ltd),Takeaway/sandwich shop,7844,0,,356289,5,,51.62803200000000,12420/2020/2/000,022,envhealth@chiltern.gov.uk,Chiltern,http://www.chiltern.gov.uk,-0.58427400000000,HP8 4LJ,2014-08-05,fhrs_4_en-GB,4,,FHRS,10
223256,Gold Hill West,Chalfont St. Peter,Gerrards Cross,Buckinghamshire,The Village Hall,Other catering premises,7841,0,,355783,0,,51.60323900000000,04680/2013/2/000,022,envhealth@chiltern.gov.uk,Chiltern,http://www.chiltern.gov.uk,-0.56563800000000,SL9 9HH,2013-08-19,fhrs_5_en-GB,5,,FHRS,5
223257,30 High Street,Chalfont St. Peter,Gerrards Cross,Buckinghamshire,The White Hart,Other catering premises,7841,0,,355832,0,,51.60665500000000,05680/0030/2/000,022,envhealth@chiltern.gov.uk,Chiltern,http://www.chiltern.gov.uk,-0.55675000000000,SL9 9QA,2012-10-31,fhrs_5_en-GB,5,,FHRS,0
223258,The White Hart Public House,Village Road,Whelpley Hill,Buckinghamshire,The White Hart,Pub/bar/nightclub,7843,5,,676293,5,,51.72626400000000,12/00108/FPUBFC,022,envhealth@chiltern.gov.uk,Chiltern,http://www.chiltern.gov.uk,-0.55449400000000,HP5 3RL,2014-06-18,fhrs_4_en-GB,4,,FHRS,10
223259,Three Households,Chalfont St. Giles,Buckinghamshire,,The White Hart,Other catering premises,7841,5,,356288,5,,51.62883600000000,12420/2016/2/000,022,envhealth@chiltern.gov.uk,Chiltern,http://www.chiltern.gov.uk,-0.58387300000000,HP8 4LP,2013-08-05,fhrs_4_en-GB,4,,FHRS,10
223260,,,,,The White Rose Cake Company,Other catering premises,7841,5,,356207,5,,,11/00096/FHCAT,022,envhealth@chiltern.gov.uk,Chiltern,http://www.chiltern.gov.uk,,,2011-09-15,fhrs_5_en-GB,5,,FHRS,5
223261,,,,,The Wild Kitchen,Other catering premises,7841,5,,356174,0,,,11/00020/FHCAT,022,envhealth@chiltern.gov.uk,Chiltern,http://www.chiltern.gov.uk,,,2014-05-27,fhrs_5_en-GB,5,,FHRS,0
223262,110 Chartridge Lane,Chesham,Buckinghamshire,,The Willow,Other catering premises,7841,0,,355719,0,,51.71105400000000,02110/0110/0/000,022,envhealth@chiltern.gov.uk,Chiltern,http://www.chiltern.gov.uk,-0.62371600000000,HP5 2RG,2011-09-20,fhrs_5_en-GB,5,,FHRS,0
223263,Perkin Elmer Ltd,Chalfont Road,Seer Green,Beaconsfield,Thomas Franks Ltd,Other catering premises,7841,0,,355991,5,,51.62491400000000,08/00007/FCONTR,022,envhealth@chiltern.gov.uk,Chiltern,http://www.chiltern.gov.uk,-0.59876000000000,HP9 2FX,2011-02-16,fhrs_5_en-GB,5,,FHRS,0
223264,Fullers Hill,Chesham,Buckinghamshire,,Thomas Harding Junior School,Other catering premises,7841,0,,355778,0,,51.70117800000000,04390/2003/2/000,022,envhealth@chiltern.gov.uk,Chiltern,http://www.chiltern.gov.uk,-0.61576800000000,HP5 1LR,2014-09-08,fhrs_5_en-GB,5,,FHRS,0
223265,29 Oval Way,Gerrards Cross,Buckinghamshire,,Thorpe House School,School/college/university,7845,5,,356079,0,,51.59499400000000,09180/2015/2/000,022,envhealth@chiltern.gov.uk,Chiltern,http://www.chiltern.gov.uk,-0.55687400000000,SL9 8QA,2013-10-10,fhrs_5_en-GB,5,,FHRS,0
223266,20 Pheasant Rise,Chesham,Buckinghamshire,,Timo's Potatoes,Mobile caterer,7846,5,,676306,0,,51.69752600000000,14/00030/FMOB,022,envhealth@chiltern.gov.uk,Chiltern,http://www.chiltern.gov.uk,-0.60350700000000,HP5 1NT,2014-06-04,fhrs_5_en-GB,5,,FHRS,5
223267,101 - 103 Sycamore Road,Amersham,Buckinghamshire,,Tom Yum Thai Restaurant,Restaurant/Cafe/Canteen,1,5,,643551,5,,51.67862300000000,14/00032/FRESTC,022,envhealth@chiltern.gov.uk,Chiltern,http://www.chiltern.gov.uk,-0.60560700000000,HP6 5EJ,2014-03-20,fhrs_4_en-GB,4,,FHRS,10
223268,16 Marygold Walk,Little Chalfont,Amersham,Buckinghamshire,Tonys Catering,Mobile caterer,7846,10,,356142,10,,51.67031500000000,10110/2002/3/001,022,envhealth@chiltern.gov.uk,Chiltern,http://www.chiltern.gov.uk,-0.56897200000000,HP6 6QF,2014-02-05,fhrs_4_en-GB,4,,FHRS,0
223269,,,,,Tristana's Treats,Retailers - other,4613,0,,375767,0,,,12/00049/FCAT,022,envhealth@chiltern.gov.uk,Chiltern,http://www.chiltern.gov.uk,,,2012-06-01,fhrs_5_en-GB,5,,FHRS,0
223270,87 High Street,Chesham,Buckinghamshire,,Truly Scrumptious,Restaurant/Cafe/Canteen,1,0,,676297,0,,51.70717500000000,13/00086/FRETH,022,envhealth@chiltern.gov.uk,Chiltern,http://www.chiltern.gov.uk,-0.61118500000000,HP5 1DE,2014-05-06,fhrs_4_en-GB,4,,FHRS,10
223271,,,,,Truly Scrumptious,Other catering premises,7841,5,,643535,5,,,13/00063/FHCAT,022,envhealth@chiltern.gov.uk,Chiltern,http://www.chiltern.gov.uk,,,2014-02-19,fhrs_5_en-GB,5,,FHRS,0
223272,15 White Lion Road,Amersham,Buckinghamshire,,TS One Stop Shop,Retailers - other,4613,5,,356326,0,,51.67214400000000,13520/0015/0/000,022,envhealth@chiltern.gov.uk,Chiltern,http://www.chiltern.gov.uk,-0.58861100000000,HP7 9HZ,2011-04-29,fhrs_5_en-GB,5,,FHRS,0
223273,,,,,Utterly Delicious Cakes,Other catering premises,7841,5,,356054,5,,,09/00037/FHCAT,022,envhealth@chiltern.gov.uk,Chiltern,http://www.chiltern.gov.uk,,,2011-06-15,fhrs_5_en-GB,5,,FHRS,0
223274,Van Hage Garden Company,Amersham Road,Chenies,Buckinghamshire,Van Hage Garden Centre Ltd,Retailers - other,4613,5,,355725,5,,51.67097900000000,02150/2024/2/000,022,envhealth@chiltern.gov.uk,Chiltern,http://www.chiltern.gov.uk,-0.52882100000000,WD3 6EN,2011-12-28,fhrs_5_en-GB,5,,FHRS,5
223275,The Gamekeepers Lodge Public House,Bellingdon Road,Chesham,Buckinghamshire,Vietnam Eats,Restaurant/Cafe/Canteen,1,10,,676299,10,,51.71184300000000,13/00113/FRESTC,022,envhealth@chiltern.gov.uk,Chiltern,http://www.chiltern.gov.uk,-0.61353100000000,HP5 2NN,2014-06-09,fhrs_4_en-GB,4,,FHRS,0
223276,Holmer Green Village Centre,The Common,Holmer Green,Buckinghamshire,Village Centre Pre-School Nursery,Other catering premises,7841,5,,355892,5,,51.66809600000000,07/00036/FNURSE,022,envhealth@chiltern.gov.uk,Chiltern,http://www.chiltern.gov.uk,-0.69259100000000,HP15 6XG,2010-10-05,fhrs_5_en-GB,5,,FHRS,0
223277,13 Hill Avenue,Amersham,Buckinghamshire,,Village Mangal,Restaurant/Cafe/Canteen,1,10,,356267,0,,51.67485900000000,12/00009/FRESTO,022,envhealth@chiltern.gov.uk,Chiltern,http://www.chiltern.gov.uk,-0.60744400000000,HP6 5BD,2013-07-15,fhrs_4_en-GB,4,,FHRS,0
223278,1 Chenies Parade,Little Chalfont,Buckinghamshire,,Village Wine,Retailers - other,4613,,,643533,,,51.66687000000000,11/00024/FOFF,022,envhealth@chiltern.gov.uk,Chiltern,http://www.chiltern.gov.uk,-0.56375900000000,HP7 9PH,2011-02-16,fhrs_exempt_en-GB,Exempt,,FHRS,
223279,12 Broadway,Amersham,Buckinghamshire,,V's Kitchen,Restaurant/Cafe/Canteen,1,10,,636689,10,,51.66593400000000,14/00009/FCAFE,022,envhealth@chiltern.gov.uk,Chiltern,http://www.chiltern.gov.uk,-0.61530900000000,HP7 0HP,2014-01-21,fhrs_3_en-GB,3,,FHRS,5
223280,Holmer Green Garage,Pond Approach,Holmer Green,High Wycombe,W & M Stevens,Retailers - other,4613,5,,551268,5,,51.66470400000000,09820/2020/2/000,022,envhealth@chiltern.gov.uk,Chiltern,http://www.chiltern.gov.uk,-0.69563900000000,HP15 6RQ,2013-05-02,fhrs_5_en-GB,5,,FHRS,5
223281,232 Waterside,Chesham,Buckinghamshire,,Waffle House,Restaurant/Cafe/Canteen,1,10,,564284,5,,51.69981800000000,13/00029/FTAKO,022,envhealth@chiltern.gov.uk,Chiltern,http://www.chiltern.gov.uk,-0.60802400000000,HP5 1PG,2014-02-14,fhrs_4_en-GB,4,,FHRS,5
223282,46 Sycamore Road,Amersham,Buckinghamshire,,Waitrose,Retailers - supermarkets/hypermarkets,7840,0,,356135,5,,51.67754400000000,10/00112/FRET,022,envhealth@chiltern.gov.uk,Chiltern,http://www.chiltern.gov.uk,-0.60634900000000,HP6 5DR,2014-08-18,fhrs_5_en-GB,5,,FHRS,5
223283,Waitrose Limited,The Backs,Chesham,Buckinghamshire,Waitrose Ltd,Retailers - supermarkets/hypermarkets,7840,0,,356256,5,,51.70701100000000,11830/2000/2/000,022,envhealth@chiltern.gov.uk,Chiltern,http://www.chiltern.gov.uk,-0.61103100000000,HP5 1DR,2014-08-18,fhrs_5_en-GB,5,,FHRS,5
223284,Amersham Hospital,Whielden Street,Amersham,Buckinghamshire,Ward Kitchens (only Fridges For Patients Drinks),Other catering premises,7841,10,,356317,0,,51.66295700000000,13440/2006/2/000,022,envhealth@chiltern.gov.uk,Chiltern,http://www.chiltern.gov.uk,-0.62140000000000,HP7 0JD,2013-12-03,fhrs_4_en-GB,4,,FHRS,0
223285,High Street,Chalfont St Giles,Buckinghamshire,,Warners,Retailers - other,4613,10,,356268,10,,51.63127200000000,12/00012/FRET,022,envhealth@chiltern.gov.uk,Chiltern,http://www.chiltern.gov.uk,-0.57049000000000,HP8 4QH,2013-10-02,fhrs_3_en-GB,3,,FHRS,10
223286,Waterside Combined School,Black Horse Avenue,Chesham,Buckinghamshire,Waterside County Combined School,Other catering premises,7841,0,,355673,5,,51.69510400000000,01030/2000/2/000,022,envhealth@chiltern.gov.uk,Chiltern,http://www.chiltern.gov.uk,-0.59942900000000,HP5 1QU,2012-02-27,fhrs_5_en-GB,5,,FHRS,5
223287,124 Waterside,Chesham,Buckinghamshire,,Waterside News,Retailers - other,4613,5,,356301,0,,51.70119800000000,13050/0124/2/000,022,envhealth@chiltern.gov.uk,Chiltern,http://www.chiltern.gov.uk,-0.60983400000000,HP5 1PE,2011-09-21,fhrs_5_en-GB,5,,FHRS,5
223288,,,,,Wendy's Kitchen,Retailers - other,4613,0,,543195,0,,,13/00016/FHCAT,022,envhealth@chiltern.gov.uk,Chiltern,http://www.chiltern.gov.uk,,,2013-04-29,fhrs_5_en-GB,5,,FHRS,0
223289,Chesham Methodist Church,Bellingdon Road,Chesham,Buckinghamshire,Wesley Hall,Other catering premises,7841,0,,355665,0,,51.70796200000000,00840/2013/2/000,022,envhealth@chiltern.gov.uk,Chiltern,http://www.chiltern.gov.uk,-0.61388200000000,HP5 2HA,2012-01-12,fhrs_5_en-GB,5,,FHRS,0
223290,128 White Hill,Chesham,Buckinghamshire,,White Hill House,Other catering premises,7841,5,,356323,0,,51.70891200000000,13470/0128/0/000,022,envhealth@chiltern.gov.uk,Chiltern,http://www.chiltern.gov.uk,-0.60519700000000,HP5 1AR,2014-07-31,fhrs_5_en-GB,5,,FHRS,5
223291,Chesham And District Community Asso,White Hill Centre,White Hill,Chesham,White Hill Pre School,Retailers - other,4613,5,,355809,5,,51.70630400000000,05/00122/HNURSE,022,envhealth@chiltern.gov.uk,Chiltern,http://www.chiltern.gov.uk,-0.60973500000000,HP5 1AG,2011-08-18,fhrs_5_en-GB,5,,FHRS,0
223292,The White Lion,White Lion Road,Little Chalfont,Buckinghamshire,White Lion Amersham,Pub/bar/nightclub,7843,10,,643548,10,,51.66827500000000,14/00021/FPUBFC,022,envhealth@chiltern.gov.uk,Chiltern,http://www.chiltern.gov.uk,-0.57944800000000,HP7 9LJ,2014-04-09,fhrs_2_en-GB,2,,FHRS,15
223293,Grange Road,Chalfont St. Peter,Gerrards Cross,Buckinghamshire,Whitewebbs Bed and Breakfast,Hotel/bed & breakfast/guest house,7842,0,,355786,5,,51.60665500000000,04800/2004/2/000,022,envhealth@chiltern.gov.uk,Chiltern,http://www.chiltern.gov.uk,-0.55675000000000,SL9 9QA,2012-02-06,fhrs_5_en-GB,5,,FHRS,5
223294,,,,,Who Ate The Cake,Other catering premises,7841,0,,448823,0,,,12/00061/FHCAT,022,envhealth@chiltern.gov.uk,Chiltern,http://www.chiltern.gov.uk,,,2012-09-09,fhrs_5_en-GB,5,,FHRS,5
223295,Peterley Manor Farm,Peterley Lane,Prestwood,Buckinghamshire,Wild Strawberry Cafe,Restaurant/Cafe/Canteen,1,10,,692376,10,,51.68667000000000,14/00042/FCAFE,022,envhealth@chiltern.gov.uk,Chiltern,http://www.chiltern.gov.uk,-0.72755600000000,HP16 0HH,2014-07-22,fhrs_4_en-GB,4,,FHRS,0
223296,The Beacon School,Amersham Road,Chesham Bois,Buckinghamshire,Wilson Vale,Other catering premises,7841,,,355648,,,51.68765200000000,00170/0015/3/001,022,envhealth@chiltern.gov.uk,Chiltern,http://www.chiltern.gov.uk,-0.61484900000000,HP6 5PF,2014-09-15,fhrs_5_en-GB,5,,FHRS,
223297,83 Sycamore Road,Amersham,Buckinghamshire,,Wimpy,Other catering premises,7841,10,,356250,0,,51.67862300000000,11730/0083/0/000,022,envhealth@chiltern.gov.uk,Chiltern,http://www.chiltern.gov.uk,-0.60560700000000,HP6 5EJ,2014-03-19,fhrs_4_en-GB,4,,FHRS,0
223298,Whielden Lane,Winchmore Hill,Amersham,Buckinghamshire,Winchmore Hill Cricket Club,Other catering premises,7841,,,356314,,,51.64724700000000,13430/2018/2/000,022,envhealth@chiltern.gov.uk,Chiltern,http://www.chiltern.gov.uk,-0.66492000000000,HP7 0PS,2008-12-22,fhrs_exempt_en-GB,Exempt,,FHRS,
223299,Denham Lane,Chalfont St. Peter,Gerrards Cross,Buckinghamshire,Winkers Farm Country Club,Other catering premises,7841,,,355757,,,51.61040600000000,03600/2006/3/001,022,envhealth@chiltern.gov.uk,Chiltern,http://www.chiltern.gov.uk,-0.54517900000000,SL9 0QJ,2008-08-05,fhrs_exempt_en-GB,Exempt,,FHRS,
223300,105 Chestnut Lane,Amersham,Buckinghamshire,,Woodlands Day Nursery,Other catering premises,7841,5,,355733,5,,51.68156000000000,02510/0105/3/001,022,envhealth@chiltern.gov.uk,Chiltern,http://www.chiltern.gov.uk,-0.59779300000000,HP6 6EF,2010-12-09,fhrs_5_en-GB,5,,FHRS,5
223301,Woodlands Park Home,Aylesbury Road,Great Missenden,Buckinghamshire,Woodlands Park Care Centre,Other catering premises,7841,5,,355657,5,,51.72150500000000,00490/2012/2/000,022,envhealth@chiltern.gov.uk,Chiltern,http://www.chiltern.gov.uk,-0.72020900000000,HP16 9LS,2013-12-12,fhrs_5_en-GB,5,,FHRS,0
223302,Cherry Lane,Woodrow,Amersham,Buckinghamshire,Woodrow High House Sodexo,School/college/university,7845,0,,355728,0,,51.66045100000000,02250/2001/2/000,022,envhealth@chiltern.gov.uk,Chiltern,http://www.chiltern.gov.uk,-0.65182300000000,HP7 0QG,2012-11-28,fhrs_5_en-GB,5,,FHRS,0
223303,Russell House,National Society For Epilepsy,Chesham Lane,Chalfont St Giles,Woodside Flat,Hospitals/Childcare/Caring Premises,5,5,,705679,0,,51.62184600000000,14/00084/FOLD,022,envhealth@chiltern.gov.uk,Chiltern,http://www.chiltern.gov.uk,-0.55047500000000,SL9 0RJ,2014-09-12,fhrs_5_en-GB,5,,FHRS,5
223304,123 High Street,Prestwood,Great Missenden,Buckinghamshire,Zorans Bakery,Retailers - other,4613,20,,355859,15,,51.69967000000000,05740/0123/0/000,022,envhealth@chiltern.gov.uk,Chiltern,http://www.chiltern.gov.uk,-0.74069300000000,HP16 9EX,2013-11-13,fhrs_1_en-GB,1,,FHRS,5
