,addressline1,addressline2,addressline3,addressline4,businessname,businesstype,businesstypeid,confidenceinmanagement,extractdate,fhrsid,hygiene,itemcount,latitude,localauthoritybusinessid,localauthoritycode,localauthorityemailaddress,localauthorityname,localauthoritywebsite,longitude,postcode,ratingdate,ratingkey,ratingvalue,returncode,schemetype,structural
255051,33 High Street,Iver,Buckinghamshire,,A H Stores,Retailers - other,4613,10,,23902,10,,51.52003300000000,07080/0033/0/000,024,envhealth@southbucks.gov.uk,South Buckinghamshire,http://www.southbucks.gov.uk,-0.50555400000000,SL0 9ND,2014-09-18,fhrs_3_en-GB,3,,FHRS,10
255052,Abbeyfield Society,Briony,3 - 5 Church Street,Burnham,Abbeyfield Maidenhead Society,Other catering premises,7841,5,,8617,5,,51.53305900000000,03100/0003/0/000,024,envhealth@southbucks.gov.uk,South Buckinghamshire,http://www.southbucks.gov.uk,-0.65932400000000,SL1 7HX,2014-07-30,fhrs_5_en-GB,5,,FHRS,5
255053,Bradbury House,Windsor End,Beaconsfield,Buckinghamshire,Abbeyfield Society,Other catering premises,7841,0,,75008,0,,51.60024400000000,17410/2018/2/000,024,envhealth@southbucks.gov.uk,South Buckinghamshire,http://www.southbucks.gov.uk,-0.63646800000000,HP9 2JW,2014-05-08,fhrs_5_en-GB,5,,FHRS,5
255054,The Wyke,16 Marsham Way,Gerrards Cross,Buckinghamshire,Abbeyfield Society,Other catering premises,7841,0,,32396,0,,51.58624600000000,09560/2042/2/000,024,envhealth@southbucks.gov.uk,South Buckinghamshire,http://www.southbucks.gov.uk,-0.55181100000000,SL9 8AD,2013-03-27,fhrs_5_en-GB,5,,FHRS,5
255055,Burnham Lodge,Parliament Lane,Taplow,Buckinghamshire,Accent Catering Services Ltd,Other catering premises,7841,5,,52250,5,,51.54868900000000,11780/2000/2/000,024,envhealth@southbucks.gov.uk,South Buckinghamshire,http://www.southbucks.gov.uk,-0.67692100000000,SL1 8NU,2014-11-17,fhrs_5_en-GB,5,,FHRS,5
255056,54 London End,Beaconsfield,Buckinghamshire,,Achimi,Restaurant/Cafe/Canteen,1,10,,29402,5,,51.60187000000000,09/00078/REST,024,envhealth@southbucks.gov.uk,South Buckinghamshire,http://www.southbucks.gov.uk,-0.63475900000000,HP9 2JH,2014-03-21,fhrs_4_en-GB,4,,FHRS,5
255057,Gerrards Cross Youth Centre,The Memorial Centre,8 East Common,Gerrards Cross,Acorn Montessori School,Other catering premises,7841,10,,21444,10,,51.58292900000000,07/00023/NURSER,024,envhealth@southbucks.gov.uk,South Buckinghamshire,http://www.southbucks.gov.uk,-0.55190200000000,SL9 7AD,2014-03-07,fhrs_3_en-GB,3,,FHRS,5
255058,21 High Street,Burnham,Buckinghamshire,,Akash Tandoori,Other catering premises,7841,5,,23835,5,,51.53277000000000,07050/0021/0/000,024,envhealth@southbucks.gov.uk,South Buckinghamshire,http://www.southbucks.gov.uk,-0.65842400000000,SL1 7JD,2013-06-25,fhrs_5_en-GB,5,,FHRS,5
255059,Burnham Upper School,Opendale Road,Burnham,Buckinghamshire,Alliance In Partnership,Other catering premises,7841,10,,50377,15,,51.52860800000000,11220/0000/3/000,024,envhealth@southbucks.gov.uk,South Buckinghamshire,http://www.southbucks.gov.uk,-0.66171800000000,SL1 7LZ,2014-02-12,fhrs_2_en-GB,2,,FHRS,15
255060,Alpha Garden Centre,142 - 144 Swallow Street,Iver,Buckinghamshire,Alpa Garden Centre,Retailers - other,4613,10,,65808,10,,51.53028500000000,14820/1421/0/000,024,envhealth@southbucks.gov.uk,South Buckinghamshire,http://www.southbucks.gov.uk,-0.52198500000000,SL0 0HR,2013-03-19,fhrs_3_en-GB,3,,FHRS,10
255061,16 Oxford Road,New Denham,Denham,Buckinghamshire,Amma Convenience Store,Retailers - other,4613,10,,51429,15,,51.55178800000000,11520/0016/0/000,024,envhealth@southbucks.gov.uk,South Buckinghamshire,http://www.southbucks.gov.uk,-0.48626800000000,UB9 4DQ,2013-03-21,fhrs_2_en-GB,2,,FHRS,5
255062,3 The Parade,Beaconsfield Road,Farnham Common,Buckinghamshire,Andrews Plaice,Other catering premises,7841,10,,67483,5,,51.55567200000000,15060/2028/2/000,024,envhealth@southbucks.gov.uk,South Buckinghamshire,http://www.southbucks.gov.uk,-0.61505300000000,SL2 3QJ,2015-01-23,fhrs_4_en-GB,4,,FHRS,5
255063,9 Station Road,Gerrards Cross,Buckinghamshire,,Andrews Plaice,Takeaway/sandwich shop,7844,5,,199623,5,,51.58811300000000,10/00033/TKAWAY,024,envhealth@southbucks.gov.uk,South Buckinghamshire,http://www.southbucks.gov.uk,-0.55084200000000,SL9 8ES,2013-08-05,fhrs_5_en-GB,5,,FHRS,0
255064,,,,,Ann Tennant,Other catering premises,7841,5,,69558,5,,,15660/0045/0/000,024,envhealth@southbucks.gov.uk,South Buckinghamshire,http://www.southbucks.gov.uk,,,2013-07-17,fhrs_4_en-GB,4,,FHRS,10
255065,Hitachi Data Systems Ltd,Building E,Sefton Park,Bells Hill,Artizian Catering Services Ltd,Other catering premises,7841,5,,4700,5,,51.54727800000000,01290/2001/3/001,024,envhealth@southbucks.gov.uk,South Buckinghamshire,http://www.southbucks.gov.uk,-0.58451700000000,SL2 4HD,2014-09-25,fhrs_5_en-GB,5,,FHRS,5
255066,Auberge Du Chocolat,27 Packhorse Road,Gerrards Cross,Buckinghamshire,Auberge Du Chocolat Ltd,Other catering premises,7841,5,,14538,10,,51.58697900000000,05/00016/REST,024,envhealth@southbucks.gov.uk,South Buckinghamshire,http://www.southbucks.gov.uk,-0.55509300000000,SL9 7QA,2012-04-25,fhrs_4_en-GB,4,,FHRS,5
255067,62 Eastfield Road,Burnham,Buckinghamshire,,B H Dhariwal,Retailers - other,4613,10,,13985,5,,51.52628600000000,04570/0062/0/000,024,envhealth@southbucks.gov.uk,South Buckinghamshire,http://www.southbucks.gov.uk,-0.67256800000000,SL1 7PF,2013-03-25,fhrs_4_en-GB,4,,FHRS,5
255068,Chiltern House,Bells Hill,Stoke Poges,Buckinghamshire,Banana Moon Day Nursery,Hospitals/Childcare/Caring Premises,5,5,,707699,5,,51.54590300000000,14/00046/NURSER,024,envhealth@southbucks.gov.uk,South Buckinghamshire,http://www.southbucks.gov.uk,-0.58606000000000,SL2 4EG,2014-10-07,fhrs_5_en-GB,5,,FHRS,5
255069,43 Aylesbury End,Beaconsfield,Buckinghamshire,,Basmati,Other catering premises,7841,10,,2108,10,,51.60265500000000,00640/0043/2/000,024,envhealth@southbucks.gov.uk,South Buckinghamshire,http://www.southbucks.gov.uk,-0.63810000000000,HP9 1LU,2014-12-18,fhrs_3_en-GB,3,,FHRS,10
255070,Bawarchi,1A Packhorse Road,Gerrards Cross,Buckinghamshire,Bawarchi Restaurant,Other catering premises,7841,30,,51700,20,,51.58697900000000,11600/0001/A/000,024,envhealth@southbucks.gov.uk,South Buckinghamshire,http://www.southbucks.gov.uk,-0.55509300000000,SL9 7QA,2014-11-19,fhrs_0_en-GB,0,,FHRS,15
255071,Deluxe Laboratories Ltd,Denham Film Laboratories,Denham Media Park,North Orbital Road,Baxter Storey,Restaurant/Cafe/Canteen,1,5,,44479,5,,51.58680700000000,10790/2011/2/000,024,envhealth@southbucks.gov.uk,South Buckinghamshire,http://www.southbucks.gov.uk,-0.49912100000000,UB9 5HQ,2013-11-07,fhrs_5_en-GB,5,,FHRS,5
255072,Beaconsfield Childrens Centre,Beacon Close,Holtspur,Buckinghamshire,Beaconsfield Children Centre,School/college/university,7845,5,,45804,5,,51.60338100000000,11/00028/EDUCAT,024,envhealth@southbucks.gov.uk,South Buckinghamshire,http://www.southbucks.gov.uk,-0.66845900000000,HP9 1RJ,2014-08-08,fhrs_5_en-GB,5,,FHRS,5
255073,Wilton Park,London Road,Beaconsfield,Buckinghamshire,Beaconsfield Cricket Club,Pub/bar/nightclub,7843,5,,33306,10,,51.60238500000000,10/00037/CLUB_C,024,envhealth@southbucks.gov.uk,South Buckinghamshire,http://www.southbucks.gov.uk,-0.63036800000000,HP9 2HZ,2013-04-16,fhrs_3_en-GB,3,,FHRS,10
255074,The Old School House,Windsor End,Beaconsfield,Buckinghamshire,Beaconsfield Masonic And Community Centre,Other catering premises,7841,5,,75005,5,,51.60024400000000,17410/2008/2/000,024,envhealth@southbucks.gov.uk,South Buckinghamshire,http://www.southbucks.gov.uk,-0.63646800000000,HP9 2JW,2014-10-01,fhrs_5_en-GB,5,,FHRS,5
255075,Beaconsfield Rugby Club,Oak Lodge Meadow,Windsor End,Beaconsfield,Beaconsfield RGF,Other catering premises,7841,5,,75007,5,,51.59691100000000,17410/2016/2/000,024,envhealth@southbucks.gov.uk,South Buckinghamshire,http://www.southbucks.gov.uk,-0.63288600000000,HP9 2SQ,2012-01-27,fhrs_4_en-GB,4,,FHRS,10
255076,Shepherds Lane,Beaconsfield,Buckinghamshire,,Beaconsfield Squash Club,Other catering premises,7841,5,,61676,5,,51.60258800000000,13570/0048/2/000,024,envhealth@southbucks.gov.uk,South Buckinghamshire,http://www.southbucks.gov.uk,-0.63619600000000,HP9 2DT,2015-02-03,fhrs_5_en-GB,5,,FHRS,5
255077,Beaconsfield SYCOB Football Club,Holloway Park,Windsor Road,Beaconsfield,Beaconsfield SYCOB Football Club Ltd,Other catering premises,7841,10,,62201,10,,51.58743800000000,13725/2000/2/000,024,envhealth@southbucks.gov.uk,South Buckinghamshire,http://www.southbucks.gov.uk,-0.62787300000000,HP9 2SE,2014-07-15,fhrs_3_en-GB,3,,FHRS,5
255078,Beaconsfield School Of Lawn Tennis,The Oval,Wilton Crescent,Beaconsfield,Beaconsfield Tennis Centre,Other catering premises,7841,5,,74664,10,,51.61332200000000,17260/0000/2/000,024,envhealth@southbucks.gov.uk,South Buckinghamshire,http://www.southbucks.gov.uk,-0.64143500000000,HP9 2BY,2014-01-15,fhrs_4_en-GB,4,,FHRS,5
255079,Beeches Countryside Nurseries,St Peters Church Of England Combine,Minniecroft Road,Burnham,Beeches Day Nursery,Other catering premises,7841,5,,40402,5,,51.53435100000000,10120/2005/3/001,024,envhealth@southbucks.gov.uk,South Buckinghamshire,http://www.southbucks.gov.uk,-0.66224100000000,SL1 7DE,2014-04-16,fhrs_5_en-GB,5,,FHRS,5
255080,Bekonscot Model Village And Railway,14 Ledborough Lane,Beaconsfield,Buckinghamshire,Bekonscot Tea Rooms,Other catering premises,7841,5,,72097,5,,51.61450100000000,16400/2031/2/000,024,envhealth@southbucks.gov.uk,South Buckinghamshire,http://www.southbucks.gov.uk,-0.64618000000000,HP9 2PZ,2013-11-11,fhrs_5_en-GB,5,,FHRS,5
255081,Oxford Road,Beaconsfield,Buckinghamshire,,Bell House Hotel,Other catering premises,7841,5,,51302,5,,51.59540400000000,11480/2000/2/000,024,envhealth@southbucks.gov.uk,South Buckinghamshire,http://www.southbucks.gov.uk,-0.59735800000000,HP9 2XE,2014-05-08,fhrs_5_en-GB,5,,FHRS,5
255082,12 Gregories Road,Beaconsfield,Buckinghamshire,,Benedict's Store,Other catering premises,7841,0,,542749,5,,51.61071200000000,13/00011/CAFE,024,envhealth@southbucks.gov.uk,South Buckinghamshire,http://www.southbucks.gov.uk,-0.64822800000000,HP9 1HQ,2014-11-19,fhrs_5_en-GB,5,,FHRS,5
255083,95 Oxford Road,New Denham,Denham,Buckinghamshire,Bertrams Cafe,Other catering premises,7841,10,,535939,10,,51.55680600000000,08/00006/REST,024,envhealth@southbucks.gov.uk,South Buckinghamshire,http://www.southbucks.gov.uk,-0.49185700000000,UB9 4DE,2013-03-24,fhrs_3_en-GB,3,,FHRS,5
255084,87 Lent Rise Road,Burnham,Buckinghamshire,,Big Bens Fast Food,Takeaway/sandwich shop,7844,5,,718839,10,,51.52583600000000,13/00033/TKAWAY,024,envhealth@southbucks.gov.uk,South Buckinghamshire,http://www.southbucks.gov.uk,-0.66706100000000,SL1 7NY,2014-09-09,fhrs_4_en-GB,4,,FHRS,5
255085,Biggles Restaurant And Country Club,Tilehouse Lane,Denham,Buckinghamshire,Biggles,Other catering premises,7841,5,,69474,5,,51.59186100000000,15620/2028/2/000,024,envhealth@southbucks.gov.uk,South Buckinghamshire,http://www.southbucks.gov.uk,-0.50979600000000,UB9 5DF,2014-10-28,fhrs_4_en-GB,4,,FHRS,10
255086,,,,,Biscuit Bling,Mobile caterer,7846,5,,696349,5,,,14/00034/MARK_F,024,envhealth@southbucks.gov.uk,South Buckinghamshire,http://www.southbucks.gov.uk,,,2014-08-07,fhrs_5_en-GB,5,,FHRS,5
255087,95 Slough Road,Iver Heath,Buckinghamshire,,Black Horse,Other catering premises,7841,10,,62230,10,,51.53733800000000,13730/0095/2/000,024,envhealth@southbucks.gov.uk,South Buckinghamshire,http://www.southbucks.gov.uk,-0.51652300000000,SL0 0DH,2014-08-20,fhrs_3_en-GB,3,,FHRS,10
255088,Urenco Ltd,Villiers Court Building C,Sefton Park,Bells Hill,Blue Apple Contract Catering,Restaurant/Cafe/Canteen,1,0,,502586,0,,51.54796600000000,12/00011/CATR,024,envhealth@southbucks.gov.uk,South Buckinghamshire,http://www.southbucks.gov.uk,-0.58272200000000,SL2 4JS,2014-03-27,fhrs_5_en-GB,5,,FHRS,0
255089,Boots,7 - 9 Station Road,Beaconsfield,Buckinghamshire,Boots Co Plc,Retailers - other,4613,0,,64592,5,,51.61099600000000,14380/0079/0/000,024,envhealth@southbucks.gov.uk,South Buckinghamshire,http://www.southbucks.gov.uk,-0.64556200000000,HP9 1NL,2012-02-23,fhrs_5_en-GB,5,,FHRS,5
255090,Boots Chemists Ltd,67 - 69 Packhorse Road,Gerrards Cross,Buckinghamshire,Boots Co Plc,Retailers - other,4613,5,,51707,0,,51.58918400000000,11600/0069/0/000,024,envhealth@southbucks.gov.uk,South Buckinghamshire,http://www.southbucks.gov.uk,-0.55239600000000,SL9 8PQ,2013-03-05,fhrs_5_en-GB,5,,FHRS,5
255091,16 Station Parade,Denham Green,Buckinghamshire,,Boots The Chemists,Retailers - other,4613,5,,64561,5,,51.57977300000000,14370/0016/0/000,024,envhealth@southbucks.gov.uk,South Buckinghamshire,http://www.southbucks.gov.uk,-0.49965500000000,UB9 5ET,2014-02-17,fhrs_5_en-GB,5,,FHRS,5
255092,41 London End,Beaconsfield,Buckinghamshire,,Brasserie Blanc,Other catering premises,7841,5,,704723,5,,51.60236200000000,14/00052/REST,024,envhealth@southbucks.gov.uk,South Buckinghamshire,http://www.southbucks.gov.uk,-0.63382000000000,HP9 2HW,2014-09-04,fhrs_4_en-GB,4,,FHRS,10
255093,15 Eastfield Road,Burnham,Buckinghamshire,,Bread N Things,Retailers - other,4613,10,,13984,10,,51.52646500000000,04570/0015/0/000,024,envhealth@southbucks.gov.uk,South Buckinghamshire,http://www.southbucks.gov.uk,-0.66857000000000,SL1 7EH,2014-06-24,fhrs_3_en-GB,3,,FHRS,10
255094,Bath Road,Taplow,Buckinghamshire,,Bridge Cottage Guest House,Other catering premises,7841,5,,2532,10,,51.52368700000000,00980/2037/2/000,024,envhealth@southbucks.gov.uk,South Buckinghamshire,http://www.southbucks.gov.uk,-0.69910900000000,SL6 0AR,2014-06-20,fhrs_4_en-GB,4,,FHRS,5
255095,Brindley House,4 Burkes Road,Beaconsfield,Buckinghamshire,Brindles,Restaurant/Cafe/Canteen,1,5,,22267,5,,51.60875600000000,07/00160/REST,024,envhealth@southbucks.gov.uk,South Buckinghamshire,http://www.southbucks.gov.uk,-0.64703000000000,HP9 1PB,2014-08-13,fhrs_5_en-GB,5,,FHRS,5
255096,Brindley House,4 Burkes Road,Beaconsfield,Buckinghamshire,Brindley House Childcare Centre,School/college/university,7845,0,,45944,5,,51.60875600000000,11/00037/NURSER,024,envhealth@southbucks.gov.uk,South Buckinghamshire,http://www.southbucks.gov.uk,-0.64703000000000,HP9 1PB,2014-08-13,fhrs_5_en-GB,5,,FHRS,5
255097,High March School,23-25 Ledborough Lane,Beaconsfield,Buckinghamshire,Brookwood Partnership Ltd,Other catering premises,7841,5,,28073,5,,51.61450100000000,08550/0023/2/000,024,envhealth@southbucks.gov.uk,South Buckinghamshire,http://www.southbucks.gov.uk,-0.64618000000000,HP9 2PZ,2013-09-04,fhrs_5_en-GB,5,,FHRS,5
255098,Lake End Road,Burnham,Buckinghamshire,,Burnham Abbey,Other catering premises,7841,5,,27871,5,,51.51565500000000,08260/2001/2/000,024,envhealth@southbucks.gov.uk,South Buckinghamshire,http://www.southbucks.gov.uk,-0.66054100000000,SL6 0PW,2013-03-04,fhrs_5_en-GB,5,,FHRS,5
255099,Green Lane,Burnham,Buckinghamshire,,Burnham Beeches Golf Club,Other catering premises,7841,10,,20514,15,,51.54515600000000,06100/2012/2/000,024,envhealth@southbucks.gov.uk,South Buckinghamshire,http://www.southbucks.gov.uk,-0.65253600000000,SL1 8EG,2014-07-30,fhrs_2_en-GB,2,,FHRS,10
255100,Grove Road,Burnham,Buckinghamshire,,Burnham Beeches Hotel,Other catering premises,7841,5,,20659,0,,51.54136100000000,06260/2002/2/000,024,envhealth@southbucks.gov.uk,South Buckinghamshire,http://www.southbucks.gov.uk,-0.64776000000000,SL1 8DP,2013-11-26,fhrs_5_en-GB,5,,FHRS,5
255101,Stomp Road,Burnham,Buckinghamshire,,Burnham Bowls Club,Other catering premises,7841,10,,65372,10,,51.52739500000000,14680/2006/2/000,024,envhealth@southbucks.gov.uk,South Buckinghamshire,http://www.southbucks.gov.uk,-0.66257500000000,SL1 7NA,2014-09-15,fhrs_3_en-GB,3,,FHRS,10
255102,Taplow Common Road,Burnham,Buckinghamshire,,Burnham Cricket Club,Other catering premises,7841,5,,66229,10,,51.54104800000000,14900/2023/2/000,024,envhealth@southbucks.gov.uk,South Buckinghamshire,http://www.southbucks.gov.uk,-0.67079800000000,SL1 8LP,2013-07-23,fhrs_4_en-GB,4,,FHRS,5
255103,85 High Street,Burnham,Buckinghamshire,,Burnham Delight Cafe,Other catering premises,7841,5,,23844,5,,51.53509600000000,07050/0085/0/000,024,envhealth@southbucks.gov.uk,South Buckinghamshire,http://www.southbucks.gov.uk,-0.65897500000000,SL1 7JZ,2014-12-08,fhrs_5_en-GB,5,,FHRS,5
255104,Wymers Wood Road,Burnham,Buckinghamshire,,Burnham Football Club,Other catering premises,7841,5,,77131,5,,51.53825400000000,18050/2010/2/000,024,envhealth@southbucks.gov.uk,South Buckinghamshire,http://www.southbucks.gov.uk,-0.66700100000000,SL1 8JG,2013-09-04,fhrs_5_en-GB,5,,FHRS,5
255105,Burnham Garage,71-73 Stomp Road,Burnham,Buckinghamshire,Burnham Garage Ltd,Retailers - other,4613,10,,65376,10,,51.52763800000000,14680/7173/0/000,024,envhealth@southbucks.gov.uk,South Buckinghamshire,http://www.southbucks.gov.uk,-0.66105400000000,SL1 7LP,2013-11-04,fhrs_3_en-GB,3,,FHRS,5
255106,Dropmore Village Hall,6 Littleworth Road,Burnham,Buckinghamshire,Burnham Montessori School,Other catering premises,7841,5,,21593,5,,51.56916600000000,07/00040/NURSER,024,envhealth@southbucks.gov.uk,South Buckinghamshire,http://www.southbucks.gov.uk,-0.65426500000000,SL1 8PF,2015-01-05,fhrs_5_en-GB,5,,FHRS,5
255107,Burnham Day Centre,Minniecroft Road,Burnham,Buckinghamshire,Burnham Resource Centre,Other catering premises,7841,5,,40401,10,,51.53435100000000,10120/2000/2/000,024,envhealth@southbucks.gov.uk,South Buckinghamshire,http://www.southbucks.gov.uk,-0.66224100000000,SL1 7DE,2014-09-25,fhrs_4_en-GB,4,,FHRS,5
255108,38 High Street,Burnham,Buckinghamshire,,Burnham Village Bakery,Retailers - other,4613,10,,136271,10,,51.53392100000000,7050/0038/0/000,024,envhealth@southbucks.gov.uk,South Buckinghamshire,http://www.southbucks.gov.uk,-0.65844800000000,SL1 7JP,2013-12-05,fhrs_3_en-GB,3,,FHRS,10
255109,Hallmark Foods,74 High Street,Burnham,Buckinghamshire,Burnham Village Store,Retailers - other,4613,5,,23842,10,,51.53521800000000,07050/0074/0/000,024,envhealth@southbucks.gov.uk,South Buckinghamshire,http://www.southbucks.gov.uk,-0.65864000000000,SL1 7JT,2014-02-03,fhrs_3_en-GB,3,,FHRS,10
255110,The Precincts,Burnham,Buckinghamshire,,Burnham Working Mens Club,Other catering premises,7841,10,,68664,10,,51.53241600000000,15360/2000/2/000,024,envhealth@southbucks.gov.uk,South Buckinghamshire,http://www.southbucks.gov.uk,-0.66130300000000,SL1 7HU,2014-06-10,fhrs_3_en-GB,3,,FHRS,10
255111,Minniecroft Road,Burnham,Buckinghamshire,,Burnham Youth Centre,Other catering premises,7841,10,,40403,10,,51.53435100000000,10120/2006/2/000,024,envhealth@southbucks.gov.uk,South Buckinghamshire,http://www.southbucks.gov.uk,-0.66224100000000,SL1 7DE,2013-03-25,fhrs_3_en-GB,3,,FHRS,10
255112,Harvey Memorial Hall,George Green Road,George Green,Wexham,Butterfly Pre School Ltd,Hospitals/Childcare/Caring Premises,5,5,,33493,5,,51.52006800000000,10/00047/NURSER,024,envhealth@southbucks.gov.uk,South Buckinghamshire,http://www.southbucks.gov.uk,-0.55650500000000,SL3 6BJ,2014-08-15,fhrs_4_en-GB,4,,FHRS,10
255113,W E Wingrove And Sons,Farm Shop,Shredding Green Farm,Langley Park Road,Byron Butchers,Retailers - other,4613,5,,33196,5,,51.51900500000000,10/00030/FARMSH,024,envhealth@southbucks.gov.uk,South Buckinghamshire,http://www.southbucks.gov.uk,-0.52096700000000,SL0 9QS,2015-02-02,fhrs_5_en-GB,5,,FHRS,5
255114,Archways,River Road,Taplow,Buckinghamshire,Cafe 2 U Reg: ND 12 WML,Mobile caterer,7846,5,,511216,5,,51.51918000000000,12/00037/MOBILE,024,envhealth@southbucks.gov.uk,South Buckinghamshire,http://www.southbucks.gov.uk,-0.70054900000000,SL6 0BG,2014-07-23,fhrs_5_en-GB,5,,FHRS,5
255115,1 Laundry Cottages,Cliveden Road,Taplow,Buckinghamshire,Cafe 2 U Slough,Mobile caterer,7846,5,,588676,5,,51.55195000000000,13/00031/MOBILE,024,envhealth@southbucks.gov.uk,South Buckinghamshire,http://www.southbucks.gov.uk,-0.68142800000000,SL6 0HL,2013-09-13,fhrs_5_en-GB,5,,FHRS,5
255116,32 Bathurst Walk,Iver,Buckinghamshire,,Cafe O,Other catering premises,7841,0,,2935,0,,51.50762200000000,01000/0032/0/000,024,envhealth@southbucks.gov.uk,South Buckinghamshire,http://www.southbucks.gov.uk,-0.50610400000000,SL0 9AZ,2012-12-15,fhrs_5_en-GB,5,,FHRS,0
255117,Puccino Coffee Bar,Kiosk,Gerrards Cross Railway Station,Station Approach,Cafe Pucccino,Other catering premises,7841,10,,64511,20,,51.58878500000000,14350/2002/2/000,024,envhealth@southbucks.gov.uk,South Buckinghamshire,http://www.southbucks.gov.uk,-0.55353400000000,SL9 8PP,2014-03-26,fhrs_1_en-GB,1,,FHRS,15
255118,25 - 27 Station Road,Gerrards Cross,Buckinghamshire,,Cafe Rouge,Other catering premises,7841,5,,64656,5,,51.58811300000000,14410/1025/2/000,024,envhealth@southbucks.gov.uk,South Buckinghamshire,http://www.southbucks.gov.uk,-0.55084200000000,SL9 8ES,2014-03-12,fhrs_5_en-GB,5,,FHRS,5
255119,Good Life,53 Packhorse Road,Gerrards Cross,Buckinghamshire,Caffe Nero,Other catering premises,7841,5,,205796,5,,51.58776800000000,11/00052/REST,024,envhealth@southbucks.gov.uk,South Buckinghamshire,http://www.southbucks.gov.uk,-0.55417300000000,SL9 8PE,2014-04-24,fhrs_5_en-GB,5,,FHRS,5
255120,,,,,Cakin' Faerie,Other catering premises,7841,5,,480056,5,,,12/00024/PRIVAT,024,envhealth@southbucks.gov.uk,South Buckinghamshire,http://www.southbucks.gov.uk,,,2014-05-07,fhrs_5_en-GB,5,,FHRS,5
255121,Caldicott Boys Preparatory School,Crown Lane,Farnham Royal,Buckinghamshire,Caldicott Trust Ltd,Other catering premises,7841,0,,9223,5,,51.55031900000000,03830/2000/2/000,024,envhealth@southbucks.gov.uk,South Buckinghamshire,http://www.southbucks.gov.uk,-0.62095600000000,SL2 3SL,2013-11-29,fhrs_5_en-GB,5,,FHRS,5
255122,Burnham Parish Council,Burnham Park Hall,Windsor Lane,Burnham,Capelos Cafe At Burnham Park,Restaurant/Cafe/Canteen,1,5,,33425,5,,51.53153200000000,10/00043/VHALLC,024,envhealth@southbucks.gov.uk,South Buckinghamshire,http://www.southbucks.gov.uk,-0.65792700000000,SL1 7HR,2015-01-23,fhrs_5_en-GB,5,,FHRS,5
255123,20 Packhorse Road,Gerrards Cross,Buckinghamshire,,Cardella,Retailers - other,4613,0,,18002,5,,51.58745700000000,06/00057/CONFEC,024,envhealth@southbucks.gov.uk,South Buckinghamshire,http://www.southbucks.gov.uk,-0.55376400000000,SL9 7DA,2013-03-13,fhrs_5_en-GB,5,,FHRS,5
255124,Castlemans Farm,Green Common Lane,Wooburn Common,Beaconsfield,Castlemans Farm Shop And Meat Cutting Room,Farmers/growers,7838,5,,75485,10,,51.58156300000000,17640/2002/2/000,024,envhealth@southbucks.gov.uk,South Buckinghamshire,http://www.southbucks.gov.uk,-0.66655700000000,HP10 0LH,2014-11-18,fhrs_3_en-GB,3,,FHRS,10
255125,Duffield House,Grays Park Road,Stoke Poges,Buckinghamshire,Catering By Churchill,Restaurant/Cafe/Canteen,1,0,,45329,0,,51.53408500000000,11/00001/CATR,024,envhealth@southbucks.gov.uk,South Buckinghamshire,http://www.southbucks.gov.uk,-0.58364300000000,SL2 4HX,2014-11-04,fhrs_5_en-GB,5,,FHRS,5
255126,Hicknaham Farm,Littleworth Road,Burnham,Buckinghamshire,Catering Facilities At Hicknaham Farm,Other catering premises,7841,10,,535941,10,,51.57500400000000,11/00069/CATR,024,envhealth@southbucks.gov.uk,South Buckinghamshire,http://www.southbucks.gov.uk,-0.65051400000000,SL1 8PG,2014-09-03,fhrs_3_en-GB,3,,FHRS,10
255127,Beaconsfield High School,Wattleton Road,Beaconsfield,Buckinghamshire,Central Catering Facilities,Other catering premises,7841,5,,72594,5,,51.60393400000000,16540/2000/2/000,024,envhealth@southbucks.gov.uk,South Buckinghamshire,http://www.southbucks.gov.uk,-0.64378000000000,HP9 1RR,2014-01-14,fhrs_5_en-GB,5,,FHRS,5
255128,Farnham Common Junior School,Sherbourne Walk,Farnham Common,Buckinghamshire,Central Catering Facilities Beaconsfield High School,Other catering premises,7841,5,,61706,5,,51.56172300000000,13580/0000/2/000,024,envhealth@southbucks.gov.uk,South Buckinghamshire,http://www.southbucks.gov.uk,-0.61116200000000,SL2 3TZ,2014-10-20,fhrs_5_en-GB,5,,FHRS,5
255129,Chambeli Restaurant,1 - 2 Broadway East,North Orbital Road,Denham Green,Chambeli,Other catering premises,7841,20,,44435,15,,51.58141200000000,10780/0012/0/000,024,envhealth@southbucks.gov.uk,South Buckinghamshire,http://www.southbucks.gov.uk,-0.49916900000000,UB9 5HB,2013-11-26,fhrs_1_en-GB,1,,FHRS,10
255130,Chandos Lodge,Blackpond Lane,Farnham Royal,Buckinghamshire,Chandos Lodge Nursing Home,Other catering premises,7841,5,,5124,0,,51.54644100000000,01570/2000/2/000,024,envhealth@southbucks.gov.uk,South Buckinghamshire,http://www.southbucks.gov.uk,-0.61769900000000,SL2 3ED,2014-03-05,fhrs_5_en-GB,5,,FHRS,5
255131,Street Record,High Street,Burnham,Buckinghamshire,Cherry Tree Chilterns,Mobile caterer,7846,10,,28868,10,,51.53456200000000,09/00032/MARK_F,024,envhealth@southbucks.gov.uk,South Buckinghamshire,http://www.southbucks.gov.uk,-0.65866200000000,,2013-02-20,fhrs_3_en-GB,3,,FHRS,10
255132,4 Market Place,Aylesbury End,Beaconsfield,Buckinghamshire,Chez Pain,Retailers - other,4613,,,32367,,,51.60207200000000,09520/0004/0/000,024,envhealth@southbucks.gov.uk,South Buckinghamshire,http://www.southbucks.gov.uk,-0.63673100000000,HP9 2DS,2014-08-14,fhrs_4_en-GB,4,,FHRS,
255133,Tilford,43 Warwick Road,Beaconsfield,Buckinghamshire,Childcare 4 U,Other catering premises,7841,,,17569,,,51.61279700000000,06/00009/NURSER,024,envhealth@southbucks.gov.uk,South Buckinghamshire,http://www.southbucks.gov.uk,-0.64587000000000,HP9 2PE,2014-05-12,fhrs_5_en-GB,5,,FHRS,
255134,Argyll Developments,Highway House,17 London End,Beaconsfield,Chilli And Grill,Takeaway/sandwich shop,7844,20,,681011,20,,51.60217800000000,14/00015/MOBILE,024,envhealth@southbucks.gov.uk,South Buckinghamshire,http://www.southbucks.gov.uk,-0.63573100000000,HP9 2HN,2014-06-05,fhrs_1_en-GB,1,,FHRS,10
255135,1 Holtspur Parade,Heath Road,Beaconsfield,Buckinghamshire,China China,Other catering premises,7841,20,,21127,25,,51.60065400000000,06850/0001/0/000,024,envhealth@southbucks.gov.uk,South Buckinghamshire,http://www.southbucks.gov.uk,-0.66989600000000,HP9 1DA,2014-11-10,fhrs_0_en-GB,0,,FHRS,25
255136,China Diner Restaurant,7 The Highway,Station Road,Beaconsfield,China Diner,Other catering premises,7841,5,,68392,5,,51.61055200000000,15290/0007/0/000,024,envhealth@southbucks.gov.uk,South Buckinghamshire,http://www.southbucks.gov.uk,-0.64531500000000,HP9 1QD,2014-03-21,fhrs_5_en-GB,5,,FHRS,5
255137,86 High Street,Burnham,Buckinghamshire,,China Garden,Other catering premises,7841,5,,14472,10,,51.53521800000000,05/00006/REST,024,envhealth@southbucks.gov.uk,South Buckinghamshire,http://www.southbucks.gov.uk,-0.65864000000000,SL1 7JT,2013-06-24,fhrs_4_en-GB,4,,FHRS,5
255138,Kiosk 3,Beaconsfield Services,Windsor Road,Beaconsfield,Chozen Noodle,Takeaway/sandwich shop,7844,5,,502592,5,,51.58743800000000,13/00004/TKAWAY,024,envhealth@southbucks.gov.uk,South Buckinghamshire,http://www.southbucks.gov.uk,-0.62787300000000,HP9 2SE,2014-06-16,fhrs_5_en-GB,5,,FHRS,5
255139,18 Penn Drive,Denham Green,Buckinghamshire,,Clarkes Newsagents,Retailers - other,4613,10,,52524,10,,51.58172600000000,11870/0018/0/000,024,envhealth@southbucks.gov.uk,South Buckinghamshire,http://www.southbucks.gov.uk,-0.50330000000000,UB9 5JP,2015-01-07,fhrs_3_en-GB,3,,FHRS,10
255140,Cliveden Hotel,Cliveden Estate,Cliveden Road,Taplow,Cliveden Country House Hotel,Other catering premises,7841,20,,8728,15,,51.55819500000000,03210/2000/2/000,024,envhealth@southbucks.gov.uk,South Buckinghamshire,http://www.southbucks.gov.uk,-0.68831600000000,SL6 0JF,2014-05-22,fhrs_1_en-GB,1,,FHRS,15
255141,Co-operative Retail,1-3 Thornbridge Road,Iver Heath,Buckinghamshire,Co Op,Retailers - other,4613,10,,69207,10,,51.54301800000000,15540/0013/0/000,024,envhealth@southbucks.gov.uk,South Buckinghamshire,http://www.southbucks.gov.uk,-0.52128400000000,SL0 0PU,2014-05-19,fhrs_3_en-GB,3,,FHRS,10
255142,Sert Precision Tools,3 The Centre,Beaconsfield Road,Farnham Common,"Coffee, Eats And Treats",Other catering premises,7841,20,,21664,15,,51.55498000000000,07/00050/CAFE,024,envhealth@southbucks.gov.uk,South Buckinghamshire,http://www.southbucks.gov.uk,-0.61507400000000,SL2 3PP,2014-06-17,fhrs_1_en-GB,1,,FHRS,10
255143,Denham Country Park,Denham Court Drive,Denham,Buckinghamshire,Colne Valley Food,Distributors/Transporters,7,5,,45955,5,,51.56724100000000,11/00038/FDIST,024,envhealth@southbucks.gov.uk,South Buckinghamshire,http://www.southbucks.gov.uk,-0.49008300000000,UB9 5PG,2011-06-30,fhrs_5_en-GB,5,,FHRS,5
255144,Dair House School,Beaconsfield Road,Farnham Royal,Buckinghamshire,Connect Catering Ltd (Dair House School),Other catering premises,7841,5,,4442,5,,51.54541000000000,01110/2031/2/000,024,envhealth@southbucks.gov.uk,South Buckinghamshire,http://www.southbucks.gov.uk,-0.61636000000000,SL2 3BY,2014-10-16,fhrs_5_en-GB,5,,FHRS,5
255145,National Trust Office,Cliveden Estate,Cliveden Road,Taplow,Conservatory  Restaurant & Dovecote Coffee Shop,Other catering premises,7841,5,,8730,5,,51.55986700000000,03210/2002/2/000,024,envhealth@southbucks.gov.uk,South Buckinghamshire,http://www.southbucks.gov.uk,-0.68665200000000,SL6 0JA,2014-08-21,fhrs_5_en-GB,5,,FHRS,5
255146,The Courtyard,1 Station Parade,Penn Road,Beaconsfield,Cook,Retailers - other,4613,5,,199622,5,,,12/00002/GROCER,024,envhealth@southbucks.gov.uk,South Buckinghamshire,http://www.southbucks.gov.uk,,,2014-01-23,fhrs_5_en-GB,5,,FHRS,5
255147,Bells Hill Shopping Centre,Bells Hill,Stoke Poges,Buckinghamshire,Cooperative Food,Retailers - supermarkets/hypermarkets,7840,10,,643554,10,,,12/00041/SUPER,024,envhealth@southbucks.gov.uk,South Buckinghamshire,http://www.southbucks.gov.uk,,,2014-02-21,fhrs_3_en-GB,3,,FHRS,10
255148,7 Wellesley Avenue,Iver,Buckinghamshire,,Cornerstone,Restaurant/Cafe/Canteen,1,0,,33377,5,,51.50812400000000,10/00041/CAFE,024,envhealth@southbucks.gov.uk,South Buckinghamshire,http://www.southbucks.gov.uk,-0.50742800000000,SL0 9AU,2011-12-13,fhrs_4_en-GB,4,,FHRS,10
255149,Linton House,St Leonards Walk,Iver,Buckinghamshire,Corporate Catering Ltd,Other catering premises,7841,0,,616339,5,,51.50245800000000,13/00036/CATR,024,envhealth@southbucks.gov.uk,South Buckinghamshire,http://www.southbucks.gov.uk,-0.50664800000000,SL0 9DD,2013-11-22,fhrs_5_en-GB,5,,FHRS,5
255150,82 - 84 High Street,Burnham,Buckinghamshire,,Costa,Restaurant/Cafe/Canteen,1,5,,23855,5,,51.53521800000000,07050/8284/0/000,024,envhealth@southbucks.gov.uk,South Buckinghamshire,http://www.southbucks.gov.uk,-0.65864000000000,SL1 7JT,2014-10-27,fhrs_5_en-GB,5,,FHRS,5
255151,1 Cardain House,Burkes Road,Beaconsfield,Buckinghamshire,Costa Coffee,Other catering premises,7841,10,,14485,10,,51.61035100000000,05/00009/CAFE,024,envhealth@southbucks.gov.uk,South Buckinghamshire,http://www.southbucks.gov.uk,-0.64584100000000,HP9 1HG,2012-12-01,fhrs_3_en-GB,3,,FHRS,5
255152,73 Packhorse Road,Gerrards Cross,Buckinghamshire,,Costa Coffee,Other catering premises,7841,5,,17724,5,,51.58918400000000,06/00025/CAFE,024,envhealth@southbucks.gov.uk,South Buckinghamshire,http://www.southbucks.gov.uk,-0.55239600000000,SL9 8PQ,2014-06-19,fhrs_4_en-GB,4,,FHRS,10
255153,The Broadway,Beaconsfield Road,Farnham Common,Buckinghamshire,Costa Coffee,Restaurant/Cafe/Canteen,1,5,,33565,5,,51.55376400000000,10/00052/CAFE,024,envhealth@southbucks.gov.uk,South Buckinghamshire,http://www.southbucks.gov.uk,-0.61495300000000,SL2 3NE,2014-05-12,fhrs_5_en-GB,5,,FHRS,5
255154,Unit 10,The Bishop Centre,Bath Road,Taplow,Costa Ltd,Restaurant/Cafe/Canteen,1,0,,735054,0,,51.52262900000000,14/00050/REST,024,envhealth@southbucks.gov.uk,South Buckinghamshire,http://www.southbucks.gov.uk,-0.67684000000000,SL6 0NX,2015-02-05,fhrs_5_en-GB,5,,FHRS,5
255155,30 Bathurst Walk,Iver,Buckinghamshire,,Costcutters,Retailers - other,4613,5,,2930,5,,51.50762200000000,01000/0030/0/000,024,envhealth@southbucks.gov.uk,South Buckinghamshire,http://www.southbucks.gov.uk,-0.50610400000000,SL0 9AZ,2013-08-13,fhrs_4_en-GB,4,,FHRS,10
255156,Country Thai Restaurant,6 Broadway East,North Orbital Road,Denham Green,Country Thai,Other catering premises,7841,10,,44433,10,,51.58141200000000,10780/0006/0/000,024,envhealth@southbucks.gov.uk,South Buckinghamshire,http://www.southbucks.gov.uk,-0.49916900000000,UB9 5HB,2013-10-17,fhrs_3_en-GB,3,,FHRS,10
255157,Pinewood Studios,Pinewood Road,Iver Heath,Buckinghamshire,Couture At Pinewood Studios,Other catering premises,7841,5,,53528,5,,51.54750200000000,12060/2012/3/001,024,envhealth@southbucks.gov.uk,South Buckinghamshire,http://www.southbucks.gov.uk,-0.53466700000000,SL0 0NH,2015-01-16,fhrs_5_en-GB,5,,FHRS,5
255158,Crazy Bear Hotel,73 Wycombe End,Beaconsfield,Buckinghamshire,Crazy Bear Hotel English Restaurant And Bar,Other catering premises,7841,5,,76340,10,,51.60178500000000,17980/0073/2/000,024,envhealth@southbucks.gov.uk,South Buckinghamshire,http://www.southbucks.gov.uk,-0.63828400000000,HP9 1LX,2014-09-17,fhrs_4_en-GB,4,,FHRS,5
255159,57 Wycombe End,Beaconsfield,Buckinghamshire,,Crazy Bear Hotel Thai Restaurant,Other catering premises,7841,5,,76334,10,,51.60178500000000,17980/0057/0/000,024,envhealth@southbucks.gov.uk,South Buckinghamshire,http://www.southbucks.gov.uk,-0.63828400000000,HP9 1LX,2014-09-17,fhrs_4_en-GB,4,,FHRS,5
255160,34 Thorney Lane South,Iver,Buckinghamshire,,Curry Paradise,Other catering premises,7841,5,,69305,5,,51.50526300000000,15570/0034/0/000,024,envhealth@southbucks.gov.uk,South Buckinghamshire,http://www.southbucks.gov.uk,-0.50239200000000,SL0 9AE,2013-08-22,fhrs_5_en-GB,5,,FHRS,5
255161,3 Denham Parade,Oxford Road,Denham,Buckinghamshire,D And P Superstore,Retailers - other,4613,10,,51395,10,,51.56681900000000,11510/0003/0/000,024,envhealth@southbucks.gov.uk,South Buckinghamshire,http://www.southbucks.gov.uk,-0.50133700000000,UB9 4DZ,2014-09-17,fhrs_3_en-GB,3,,FHRS,10
255162,Da Remo,Village Road,Denham,Buckinghamshire,Da Remo Restaurant,Other catering premises,7841,10,,71413,15,,51.57270100000000,16200/2023/2/000,024,envhealth@southbucks.gov.uk,South Buckinghamshire,http://www.southbucks.gov.uk,-0.49864700000000,UB9 5BE,2014-06-26,fhrs_2_en-GB,2,,FHRS,10
255163,2 Taplow Road,Burnham,Buckinghamshire,,Dallas Convenience Store,Retailers - other,4613,10,,66382,5,,51.52246400000000,14930/0002/0/000,024,envhealth@southbucks.gov.uk,South Buckinghamshire,http://www.southbucks.gov.uk,-0.66860000000000,SL6 0JL,2012-12-15,fhrs_3_en-GB,3,,FHRS,10
255164,6 Marina Way,Iver,Buckinghamshire,,DDs Catering,Mobile caterer,7846,5,,33049,10,,51.51707600000000,10/00021/MOBILE,024,envhealth@southbucks.gov.uk,South Buckinghamshire,http://www.southbucks.gov.uk,-0.50213400000000,SL0 9JR,2014-07-21,fhrs_4_en-GB,4,,FHRS,5
255165,Land To The North Of Woodbine Cotta,Gerrards Cross Road,Stoke Poges,Buckinghamshire,Delta Force (Gerrards Cross),Mobile caterer,7846,5,,511215,5,,,11/00049/HELA,024,envhealth@southbucks.gov.uk,South Buckinghamshire,http://www.southbucks.gov.uk,,,2015-01-21,fhrs_5_en-GB,5,,FHRS,5
255166,Denham Way,Denham,Buckinghamshire,,Denham Bowls Club,Other catering premises,7841,5,,13482,10,,51.56702200000000,04140/2001/2/000,024,envhealth@southbucks.gov.uk,South Buckinghamshire,http://www.southbucks.gov.uk,-0.49822800000000,UB9 5AX,2013-03-25,fhrs_3_en-GB,3,,FHRS,10
255167,20-22 Station Parade,Denham Green,Buckinghamshire,,Denham Food And Wine,Retailers - other,4613,10,,64562,5,,51.57977300000000,14370/0020/0/000,024,envhealth@southbucks.gov.uk,South Buckinghamshire,http://www.southbucks.gov.uk,-0.49965500000000,UB9 5ET,2015-01-08,fhrs_3_en-GB,3,,FHRS,10
255168,Tilehouse Lane,Denham,Buckinghamshire,,Denham Golf Club,Other catering premises,7841,10,,69473,10,,51.58625700000000,15620/2026/2/000,024,envhealth@southbucks.gov.uk,South Buckinghamshire,http://www.southbucks.gov.uk,-0.51101800000000,UB9 5DE,2014-04-30,fhrs_3_en-GB,3,,FHRS,5
255169,Tilehouse Combined School,Nightingale Way,Denham Green,Buckinghamshire,Denham Green E-Act Primary Academy,Restaurant/Cafe/Canteen,1,10,,681008,15,,51.58357400000000,10610/0000/2/000,024,envhealth@southbucks.gov.uk,South Buckinghamshire,http://www.southbucks.gov.uk,-0.50440900000000,UB9 5JL,2014-05-14,fhrs_2_en-GB,2,,FHRS,5
255170,Halings Lane,Denham Green,Buckinghamshire,,Denham Manor Nursing Home,Other catering premises,7841,5,,20722,10,,51.59293000000000,06360/2002/2/000,024,envhealth@southbucks.gov.uk,South Buckinghamshire,http://www.southbucks.gov.uk,-0.51251800000000,UB9 5DQ,2014-02-24,fhrs_3_en-GB,3,,FHRS,10
255171,Denham Green Garage,North Orbital Road,Denham Green,Buckinghamshire,Denham Petrol Filing Station,Retailers - other,4613,10,,44478,10,,51.58184900000000,10790/2010/2/000,024,envhealth@southbucks.gov.uk,South Buckinghamshire,http://www.southbucks.gov.uk,-0.50029400000000,UB9 5EY,2014-09-15,fhrs_3_en-GB,3,,FHRS,10
255172,Esso Service Station,Oxford Road,Denham,Buckinghamshire,Denham Service Station,Retailers - other,4613,5,,51438,5,,51.56431600000000,11520/2019/2/000,024,envhealth@southbucks.gov.uk,South Buckinghamshire,http://www.southbucks.gov.uk,-0.49970300000000,UB9 4DF,2013-03-22,fhrs_5_en-GB,5,,FHRS,0
255173,North Orbital Road,Denham Green,Buckinghamshire,,Denham Waterski Club,Restaurant/Cafe/Canteen,1,5,,28991,10,,51.59478500000000,09/00043/LEIS_C,024,envhealth@southbucks.gov.uk,South Buckinghamshire,http://www.southbucks.gov.uk,-0.50279900000000,UB9 5HE,2013-05-10,fhrs_3_en-GB,3,,FHRS,10
255174,Tilehouse Combined School,Nightingale Way,Denham Green,Buckinghamshire,Denham Woodlands Nursery School,School/college/university,7845,5,,18250,5,,51.58357400000000,06/00092/NURSER,024,envhealth@southbucks.gov.uk,South Buckinghamshire,http://www.southbucks.gov.uk,-0.50440900000000,UB9 5JL,2013-03-01,fhrs_4_en-GB,4,,FHRS,10
255175,Denham Yacht Station,Hundred Acres,Oxford Road,New Denham,Denham Yacht Club,Other catering premises,7841,10,,24701,10,,51.55181700000000,08/00005/CLUB_C,024,envhealth@southbucks.gov.uk,South Buckinghamshire,http://www.southbucks.gov.uk,-0.48293500000000,UB8 1NB,2014-03-28,fhrs_3_en-GB,3,,FHRS,10
255176,22 - 24 Oak End Way,Gerrards Cross,Buckinghamshire,,Di Paolo,Other catering premises,7841,5,,44992,5,,51.58873400000000,10910/0022/A/000,024,envhealth@southbucks.gov.uk,South Buckinghamshire,http://www.southbucks.gov.uk,-0.55088000000000,SL9 8BR,2015-01-14,fhrs_5_en-GB,5,,FHRS,5
255177,Kiosk 1,Beaconsfield Services,Windsor Road,Beaconsfield,Dominos,Takeaway/sandwich shop,7844,10,,588675,10,,51.58743800000000,13/00028/TKAWAY,024,envhealth@southbucks.gov.uk,South Buckinghamshire,http://www.southbucks.gov.uk,-0.62787300000000,HP9 2SE,2013-09-02,fhrs_3_en-GB,3,,FHRS,5
255178,Dorney Court,Court Lane,Dorney,Buckinghamshire,Dorney Court Kitchen Garden,Other catering premises,7841,5,,9097,10,,51.50229900000000,03650/2000/2/000,024,envhealth@southbucks.gov.uk,South Buckinghamshire,http://www.southbucks.gov.uk,-0.66578800000000,SL4 6QP,2014-06-27,fhrs_3_en-GB,3,,FHRS,10
255179,,,,,Duka La Keki,Other catering premises,7841,0,,29392,5,,,09/00077/PRIVAT,024,envhealth@southbucks.gov.uk,South Buckinghamshire,http://www.southbucks.gov.uk,,,2014-01-16,fhrs_5_en-GB,5,,FHRS,5
255180,Farnham Road,Farnham Royal,Buckinghamshire,,Dukes Head,Other catering premises,7841,10,,16579,10,,51.53694400000000,05110/2013/2/000,024,envhealth@southbucks.gov.uk,South Buckinghamshire,http://www.southbucks.gov.uk,-0.61752500000000,SL2 3AJ,2014-11-27,fhrs_3_en-GB,3,,FHRS,10
255181,El Mexicana,Kiosk 4,Beaconsfield Services,Windsor Road,EL Mexicana,Takeaway/sandwich shop,7844,10,,502588,15,,51.58743800000000,12/00046/REST,024,envhealth@southbucks.gov.uk,South Buckinghamshire,http://www.southbucks.gov.uk,-0.62787300000000,HP9 2SE,2014-06-16,fhrs_2_en-GB,2,,FHRS,5
255182,Southern Fried Chicken,Marsham Way,Gerrards Cross,Buckinghamshire,Ellatte Ltd T/A @ Home Pizza,Takeaway/sandwich shop,7844,5,,552265,10,,51.58701300000000,13/00019/TKAWAY,024,envhealth@southbucks.gov.uk,South Buckinghamshire,http://www.southbucks.gov.uk,-0.55273900000000,SL9 8AB,2013-05-16,fhrs_4_en-GB,4,,FHRS,5
255183,The Emperor Of India,Blackpond Lane,Farnham Royal,Buckinghamshire,Emperor,Other catering premises,7841,10,,5129,15,,51.54855300000000,01570/2022/2/000,024,envhealth@southbucks.gov.uk,South Buckinghamshire,http://www.southbucks.gov.uk,-0.61832700000000,SL2 3EG,2014-01-29,fhrs_1_en-GB,1,,FHRS,20
255184,,,,,Espressoh,Mobile caterer,7846,5,,710374,5,,,14/00041/MOBILE,024,envhealth@southbucks.gov.uk,South Buckinghamshire,http://www.southbucks.gov.uk,,,2014-10-23,fhrs_5_en-GB,5,,FHRS,5
255185,Holtspur Service Station,Oxford Road,Beaconsfield,Buckinghamshire,Esso Holtspur,Retailers - other,4613,0,,51305,0,,51.60002600000000,11480/2005/2/000,024,envhealth@southbucks.gov.uk,South Buckinghamshire,http://www.southbucks.gov.uk,-0.66841300000000,HP9 1UB,2014-08-14,fhrs_5_en-GB,5,,FHRS,5
255186,Lake End Road,Dorney,Buckinghamshire,,Eton Dorney Centre,Other catering premises,7841,5,,27859,5,,51.50859800000000,08250/2016/2/000,024,envhealth@southbucks.gov.uk,South Buckinghamshire,http://www.southbucks.gov.uk,-0.66303900000000,SL4 6QS,2013-08-15,fhrs_4_en-GB,4,,FHRS,10
255187,Eton College Rowing Centre,Dorney Lake,Court Lane,Dorney,Eton Dorney Rowing Club,Other catering premises,7841,5,,13647,5,,51.50229900000000,04275/0001/2/000,024,envhealth@southbucks.gov.uk,South Buckinghamshire,http://www.southbucks.gov.uk,-0.66578800000000,SL4 6QP,2014-09-17,fhrs_5_en-GB,5,,FHRS,5
255188,Tesco,The Bishop Centre,Bath Road,Taplow,Eurest Food Services,Restaurant/Cafe/Canteen,1,5,,735055,5,,51.52262900000000,14/00056/CATR,024,envhealth@southbucks.gov.uk,South Buckinghamshire,http://www.southbucks.gov.uk,-0.67684000000000,SL6 0NX,2015-02-10,fhrs_5_en-GB,5,,FHRS,5
255189,One Pin Lane,Farnham Common,Buckinghamshire,,Farnham Common Sports Club,Other catering premises,7841,5,,50318,5,,51.56414900000000,11200/2057/2/000,024,envhealth@southbucks.gov.uk,South Buckinghamshire,http://www.southbucks.gov.uk,-0.61253100000000,SL2 3QY,2014-01-20,fhrs_4_en-GB,4,,FHRS,10
255190,The Farnham Pump Londis,Farnham Road,Farnham Royal,Buckinghamshire,Farnham Pump Londis,Retailers - other,4613,5,,199626,10,,51.53746800000000,12/00007/GROCER,024,envhealth@southbucks.gov.uk,South Buckinghamshire,http://www.southbucks.gov.uk,-0.61696100000000,SL2 3AS,2013-07-15,fhrs_4_en-GB,4,,FHRS,5
255191,Farnham Royal Village Hall,Farnham Lane,Farnham Royal,Buckinghamshire,Farnham Royal Montessori School,Other catering premises,7841,5,,21359,5,,51.53753300000000,07/00012/NURSER,024,envhealth@southbucks.gov.uk,South Buckinghamshire,http://www.southbucks.gov.uk,-0.61941000000000,SL2 3AX,2014-12-19,fhrs_5_en-GB,5,,FHRS,5
255192,Farnham Park Playing Fields,Beaconsfield Road,Farnham Royal,Buckinghamshire,Farnham Royal Rugby Club,Other catering premises,7841,10,,4443,10,,51.53978000000000,01110/2039/2/000,024,envhealth@southbucks.gov.uk,South Buckinghamshire,http://www.southbucks.gov.uk,-0.61634300000000,SL2 3BP,2012-12-11,fhrs_3_en-GB,3,,FHRS,10
255193,Farnham Royal Village Hall,Farnham Lane,Farnham Royal,Buckinghamshire,Farnham Royal Working Mens Club,Other catering premises,7841,10,,21360,10,,51.53753300000000,07/00013/CLUB_C,024,envhealth@southbucks.gov.uk,South Buckinghamshire,http://www.southbucks.gov.uk,-0.61941000000000,SL2 3AX,2013-11-15,fhrs_3_en-GB,3,,FHRS,10
255194,The Feathers,Taplow Common Road,Burnham,Buckinghamshire,Feathers Inn,Other catering premises,7841,20,,66228,15,,51.55717200000000,14900/2014/2/000,024,envhealth@southbucks.gov.uk,South Buckinghamshire,http://www.southbucks.gov.uk,-0.68129100000000,SL1 8NS,2015-01-21,fhrs_1_en-GB,1,,FHRS,15
255195,Fego Caffe,12G Packhorse Road,Gerrards Cross,Buckinghamshire,Fego Gerrards Cross Limited,Other catering premises,7841,5,,25312,5,,51.58681000000000,08/00068/CAFE,024,envhealth@southbucks.gov.uk,South Buckinghamshire,http://www.southbucks.gov.uk,-0.55452100000000,SL9 7QE,2014-03-03,fhrs_4_en-GB,4,,FHRS,10
255196,12 Station Parade,Denham Green,Buckinghamshire,,Fine Food Stores,Retailers - other,4613,10,,64560,5,,51.57977300000000,14370/0012/0/000,024,envhealth@southbucks.gov.uk,South Buckinghamshire,http://www.southbucks.gov.uk,-0.49965500000000,UB9 5ET,2015-01-08,fhrs_4_en-GB,4,,FHRS,5
255197,Pinewood Studios,Pinewood Road,Iver Heath,Buckinghamshire,First Unit Caterers Ltd,Other catering premises,7841,0,,14511,5,,51.54750200000000,05/00013/CATR,024,envhealth@southbucks.gov.uk,South Buckinghamshire,http://www.southbucks.gov.uk,-0.53466700000000,SL0 0NH,2013-07-17,fhrs_5_en-GB,5,,FHRS,5
255198,21 - 23 Packhorse Road,Gerrards Cross,Buckinghamshire,,Fisher Butcher Ltd,Retailers - other,4613,10,,51702,15,,51.58697900000000,11600/0021/0/000,024,envhealth@southbucks.gov.uk,South Buckinghamshire,http://www.southbucks.gov.uk,-0.55509300000000,SL9 7QA,2014-12-08,fhrs_2_en-GB,2,,FHRS,10
255199,Scout Hut,Institute Road,Taplow,Buckinghamshire,Flying Kites Pre School,Other catering premises,7841,5,,21793,5,,51.52439100000000,07/00068/NURSER,024,envhealth@southbucks.gov.uk,South Buckinghamshire,http://www.southbucks.gov.uk,-0.67758200000000,SL6 0NS,2014-08-11,fhrs_5_en-GB,5,,FHRS,5
255200,Flying Red Horse Service Station,Oxford Road,Denham,Buckinghamshire,Flying Red Horse Connect,Retailers - other,4613,0,,51440,5,,51.56622900000000,11520/2029/2/000,024,envhealth@southbucks.gov.uk,South Buckinghamshire,http://www.southbucks.gov.uk,-0.50230900000000,UB9 4DG,2013-03-19,fhrs_5_en-GB,5,,FHRS,5
255201,The South Buckinghamshire,Park Road,Stoke Poges,Buckinghamshire,Food For Thought Educational Catering Ltd,Other catering premises,7841,10,,52176,5,,51.54131600000000,11750/2033/2/000,024,envhealth@southbucks.gov.uk,South Buckinghamshire,http://www.southbucks.gov.uk,-0.60330400000000,SL2 4PJ,2012-12-07,fhrs_4_en-GB,4,,FHRS,5
255202,Unit 9 The Bishop Centre,Bath Road,Taplow,Buckinghamshire,Frankie And Benny's,Restaurant/Cafe/Canteen,1,0,,735052,5,,51.52262900000000,14/00037/REST,024,envhealth@southbucks.gov.uk,South Buckinghamshire,http://www.southbucks.gov.uk,-0.67684000000000,SL6 0NX,2015-02-05,fhrs_5_en-GB,5,,FHRS,5
255203,,,,,Frantastic Cakes & Parties Ltd,Other catering premises,7841,5,,480060,5,,,12/00052/PRIVAT,024,envhealth@southbucks.gov.uk,South Buckinghamshire,http://www.southbucks.gov.uk,,,2012-11-30,fhrs_4_en-GB,4,,FHRS,10
255204,Bangors Park Farm,Bangors Road South,Iver,Buckinghamshire,Fresh Tastes At Unit 17A,Other catering premises,7841,5,,25364,5,,51.53101300000000,08/00075/CATR,024,envhealth@southbucks.gov.uk,South Buckinghamshire,http://www.southbucks.gov.uk,-0.51414800000000,SL0 0AZ,2013-07-05,fhrs_4_en-GB,4,,FHRS,10
255205,20 Oxford Road,New Denham,Denham,Buckinghamshire,Galaxy Kebab Burger,Other catering premises,7841,20,,51430,20,,51.55178800000000,11520/0020/0/000,024,envhealth@southbucks.gov.uk,South Buckinghamshire,http://www.southbucks.gov.uk,-0.48626800000000,UB9 4DQ,2014-12-09,fhrs_0_en-GB,0,,FHRS,15
255206,The George Inn,12 Post Office Lane,George Green,Buckinghamshire,George Inn,Other catering premises,7841,10,,54173,5,,51.52147300000000,12210/0012/2/000,024,envhealth@southbucks.gov.uk,South Buckinghamshire,http://www.southbucks.gov.uk,-0.56255800000000,SL3 6AX,2015-01-23,fhrs_4_en-GB,4,,FHRS,5
255207,The Memorial Centre,8 East Common,Gerrards Cross,Buckinghamshire,Gerrards Cross Community Association,Other catering premises,7841,5,,13931,5,,51.58292900000000,04530/2010/2/000,024,envhealth@southbucks.gov.uk,South Buckinghamshire,http://www.southbucks.gov.uk,-0.55190200000000,SL9 7AD,2014-03-13,fhrs_5_en-GB,5,,FHRS,5
255208,Gerrards Cross Methodist Church,70 Oak End Way,Gerrards Cross,Buckinghamshire,Gerrards Cross Montessori School,Other catering premises,7841,0,,21842,5,,51.58770600000000,07/00075/NURSER,024,envhealth@southbucks.gov.uk,South Buckinghamshire,http://www.southbucks.gov.uk,-0.54847300000000,SL9 8BZ,2013-03-05,fhrs_4_en-GB,4,,FHRS,10
255209,Gerrards Cross Sports Centre,7 Dukes Lane,Gerrards Cross,Buckinghamshire,Gerrards Cross Tennis Club,Other catering premises,7841,5,,13845,5,,51.57794600000000,04460/2004/2/000,024,envhealth@southbucks.gov.uk,South Buckinghamshire,http://www.southbucks.gov.uk,-0.55760200000000,SL9 7JZ,2013-03-27,fhrs_5_en-GB,5,,FHRS,0
255210,The Memorial Centre,8 East Common,Gerrards Cross,Buckinghamshire,Gerrards Cross Youth Centre,Other catering premises,7841,5,,13932,10,,51.58292900000000,04530/2010/3/001,024,envhealth@southbucks.gov.uk,South Buckinghamshire,http://www.southbucks.gov.uk,-0.55190200000000,SL9 7AD,2014-03-13,fhrs_4_en-GB,4,,FHRS,5
255211,99 High Street,Burnham,Buckinghamshire,,Go Wah,Other catering premises,7841,10,,23846,20,,51.53509600000000,07050/0099/0/001,024,envhealth@southbucks.gov.uk,South Buckinghamshire,http://www.southbucks.gov.uk,-0.65897500000000,SL1 7JZ,2014-07-23,fhrs_1_en-GB,1,,FHRS,15
255212,The Plough Inn,Wexham Street,Stoke Poges,Buckinghamshire,Golden Sands,Other catering premises,7841,10,,73379,10,,51.54235300000000,16850/2021/2/000,024,envhealth@southbucks.gov.uk,South Buckinghamshire,http://www.southbucks.gov.uk,-0.57363800000000,SL3 6NJ,2013-11-27,fhrs_3_en-GB,3,,FHRS,10
255213,26 Station Parade,Denham Green,Buckinghamshire,,Green Cafe,Other catering premises,7841,10,,21255,15,,51.57977300000000,07/00003/CAFE,024,envhealth@southbucks.gov.uk,South Buckinghamshire,http://www.southbucks.gov.uk,-0.49965500000000,UB9 5ET,2014-07-03,fhrs_2_en-GB,2,,FHRS,10
255214,Unit 5,Beaconsfield Services,Windsor Road,Beaconsfield,Greggs,Takeaway/sandwich shop,7844,0,,542750,5,,51.58743800000000,13/00015/BAKER,024,envhealth@southbucks.gov.uk,South Buckinghamshire,http://www.southbucks.gov.uk,-0.62787300000000,HP9 2SE,2014-10-09,fhrs_5_en-GB,5,,FHRS,5
255215,Colne Valley Park Centre,Denham Court Drive,Denham,Buckinghamshire,Groundwork South,Other catering premises,7841,5,,13430,5,,51.56724100000000,04080/2003/2/000,024,envhealth@southbucks.gov.uk,South Buckinghamshire,http://www.southbucks.gov.uk,-0.49008300000000,UB9 5PG,2015-01-23,fhrs_4_en-GB,4,,FHRS,10
255216,Grovefield Hotel,Taplow Common Road,Burnham,Buckinghamshire,Grovefield House Hotel,Other catering premises,7841,10,,66225,10,,51.54084100000000,14900/2000/2/000,024,envhealth@southbucks.gov.uk,South Buckinghamshire,http://www.southbucks.gov.uk,-0.67231800000000,SL1 8LR,2014-08-12,fhrs_3_en-GB,3,,FHRS,10
255217,One Stop Shop,Oxford Road,Gerrards Cross,Buckinghamshire,GX Food,Retailers - other,4613,5,,51506,5,,51.57933600000000,11540/2074/2/000,024,envhealth@southbucks.gov.uk,South Buckinghamshire,http://www.southbucks.gov.uk,-0.55369000000000,SL9 7DP,2014-09-18,fhrs_4_en-GB,4,,FHRS,10
255218,H A Price And Sons,6 Holtspur Parade,Heath Road,Beaconsfield,H A Price,Retailers - other,4613,10,,21128,10,,51.60065400000000,06850/0007/0/000,024,envhealth@southbucks.gov.uk,South Buckinghamshire,http://www.southbucks.gov.uk,-0.66989600000000,HP9 1DA,2014-07-17,fhrs_3_en-GB,3,,FHRS,10
255219,Jungs Ltd,6 The Broadway,Penn Road,Beaconsfield,H P Jung Beaconsfield Ltd,Retailers - other,4613,5,,52706,5,,51.61292100000000,11930/0006/0/000,024,envhealth@southbucks.gov.uk,South Buckinghamshire,http://www.southbucks.gov.uk,-0.64719500000000,HP9 2PD,2013-10-15,fhrs_5_en-GB,5,,FHRS,5
255220,Jungs,7 - 9 Packhorse Road,Gerrards Cross,Buckinghamshire,H P Jung Gerrards Cross Ltd,Retailers - other,4613,5,,51701,5,,51.58697900000000,11600/0009/0/000,024,envhealth@southbucks.gov.uk,South Buckinghamshire,http://www.southbucks.gov.uk,-0.55509300000000,SL9 7QA,2013-10-15,fhrs_5_en-GB,5,,FHRS,5
255221,Snowball Farm,Dorney Wood Road,Burnham,Buckinghamshire,Happy Kitchen Catering,Mobile caterer,7846,5,,605652,5,,51.54551500000000,13/00029/CATR,024,envhealth@southbucks.gov.uk,South Buckinghamshire,http://www.southbucks.gov.uk,-0.65715500000000,SL1 8EH,2013-10-14,fhrs_5_en-GB,5,,FHRS,5
255222,Harrias House,Hedgerley Lane,Beaconsfield,Buckinghamshire,Harrias House Residential Home,Other catering premises,7841,5,,21159,5,,51.59609900000000,06890/2003/2/000,024,envhealth@southbucks.gov.uk,South Buckinghamshire,http://www.southbucks.gov.uk,-0.62873800000000,HP9 2SD,2014-08-27,fhrs_5_en-GB,5,,FHRS,5
255223,Dumb Bell,Bath Road,Taplow,Buckinghamshire,Harvester,Other catering premises,7841,5,,2530,5,,51.52315500000000,00980/2028/2/000,024,envhealth@southbucks.gov.uk,South Buckinghamshire,http://www.southbucks.gov.uk,-0.69085000000000,SL6 0AJ,2015-01-13,fhrs_5_en-GB,5,,FHRS,5
255224,Adams Bakery,6 The Ridgeway,Iver,Buckinghamshire,Heathrow Bakery,Manufacturers/packers,7839,,,68807,,,51.51384700000000,15400/0006/0/000,024,envhealth@southbucks.gov.uk,South Buckinghamshire,http://www.southbucks.gov.uk,-0.50558400000000,SL0 9HX,2013-08-13,fhrs_exempt_en-GB,Exempt,,FHRS,
255225,Hedsor Golf Course,Broad Lane,Beaconsfield,Buckinghamshire,Hedsor Golf Club,Other catering premises,7841,5,,636692,5,,51.57719600000000,12/00016/LEIS_C,024,envhealth@southbucks.gov.uk,South Buckinghamshire,http://www.southbucks.gov.uk,-0.66681400000000,HP10 0JS,2014-03-04,fhrs_4_en-GB,4,,FHRS,10
255226,,,,,Helen Slaney Designs,Mobile caterer,7846,5,,629523,5,,,13/00014/MOBILE,024,envhealth@southbucks.gov.uk,South Buckinghamshire,http://www.southbucks.gov.uk,,,2014-01-08,fhrs_5_en-GB,5,,FHRS,5
255227,,,,,Hibiscus Event Catering Limited,Restaurant/Cafe/Canteen,1,0,,542746,0,,,11/00061/CATR,024,envhealth@southbucks.gov.uk,South Buckinghamshire,http://www.southbucks.gov.uk,,,2014-11-12,fhrs_5_en-GB,5,,FHRS,0
255228,The Boatyard,Mansion Lane,Iver,Buckinghamshire,High Line Yachting,Mobile caterer,7846,10,,718840,15,,51.51034100000000,14/00059/MARK_F,024,envhealth@southbucks.gov.uk,South Buckinghamshire,http://www.southbucks.gov.uk,-0.52913000000000,SL0 9RG,2014-11-10,fhrs_2_en-GB,2,,FHRS,10
255229,Higher Denham Community Hall,Lower Road,Higher Denham,Denham,Higher Denham Community Association Hall,Pub/bar/nightclub,7843,5,,45854,10,,51.57880700000000,11/00031/VHALLC,024,envhealth@southbucks.gov.uk,South Buckinghamshire,http://www.southbucks.gov.uk,-0.51631300000000,UB9 5EA,2013-03-22,fhrs_3_en-GB,3,,FHRS,10
255230,Hillmotts Farm Cottage,Hedgerley Lane,Hedgerley,Buckinghamshire,Hillmotts Retreat,Pub/bar/nightclub,7843,5,,511213,5,,51.58972900000000,10/00049/PRIVAT,024,envhealth@southbucks.gov.uk,South Buckinghamshire,http://www.southbucks.gov.uk,-0.61768500000000,HP9 2SB,2015-01-12,fhrs_4_en-GB,4,,FHRS,10
255231,2 Hitcham House Farm Cottage,Lent Rise Road,Burnham,Buckinghamshire,Hitcham Dairy Ice Cream,Manufacturers/packers,7839,0,,17991,0,,51.53414500000000,06/00056/CATR,024,envhealth@southbucks.gov.uk,South Buckinghamshire,http://www.southbucks.gov.uk,-0.66702000000000,SL1 7AE,2013-07-04,fhrs_5_en-GB,5,,FHRS,5
255232,Holland & Barrett,2D Station Road,Gerrards Cross,Buckinghamshire,Holland And Barrett,Retailers - other,4613,5,,14477,5,,51.58821400000000,05/00007/FOOD,024,envhealth@southbucks.gov.uk,South Buckinghamshire,http://www.southbucks.gov.uk,-0.55176300000000,SL9 8EL,2014-03-07,fhrs_5_en-GB,5,,FHRS,5
255233,Holtspur Playgroup,Cherry Tree Road,Beaconsfield,Buckinghamshire,Holtspur Pre-school,Other catering premises,7841,5,,7208,5,,51.60501100000000,02820/2001/2/000,024,envhealth@southbucks.gov.uk,South Buckinghamshire,http://www.southbucks.gov.uk,-0.66555200000000,HP9 1BH,2014-08-11,fhrs_5_en-GB,5,,FHRS,5
255234,,,,,Home Farm Supplies,Other catering premises,7841,5,,24199,5,,,07510/0105/0/000,024,envhealth@southbucks.gov.uk,South Buckinghamshire,http://www.southbucks.gov.uk,,,2014-01-17,fhrs_5_en-GB,5,,FHRS,5
255235,The Huntercombe Hospital,Huntercombe Manor,Huntercombe Lane South,Burnham,Huntercombe Manor Hospital,Other catering premises,7841,5,,24444,5,,51.51880400000000,07750/2000/2/000,024,envhealth@southbucks.gov.uk,South Buckinghamshire,http://www.southbucks.gov.uk,-0.65912200000000,SL6 0PQ,2014-06-25,fhrs_2_en-GB,2,,FHRS,15
255236,Taplow Common Road,Burnham,Buckinghamshire,,Huntswood Golf Club,Other catering premises,7841,5,,66227,10,,51.54486200000000,14900/2011/2/000,024,envhealth@southbucks.gov.uk,South Buckinghamshire,http://www.southbucks.gov.uk,-0.67488300000000,SL1 8LS,2014-12-03,fhrs_4_en-GB,4,,FHRS,5
255237,Burnham Lodge,Parliament Lane,Taplow,Buckinghamshire,In The Spirit Events Ltd - Routemaster Reg: JJD 5680,Mobile caterer,7846,10,,542747,5,,51.54868900000000,12/00031/MOBILE,024,envhealth@southbucks.gov.uk,South Buckinghamshire,http://www.southbucks.gov.uk,-0.67692100000000,SL1 8NU,2013-02-07,fhrs_4_en-GB,4,,FHRS,5
255238,Prince Of Wales,75 Slough Road,Iver Heath,Buckinghamshire,Indian Nights,Other catering premises,7841,10,,62229,10,,51.53693800000000,13730/0075/2/000,024,envhealth@southbucks.gov.uk,South Buckinghamshire,http://www.southbucks.gov.uk,-0.51970800000000,SL0 0DW,2014-07-17,fhrs_3_en-GB,3,,FHRS,10
255239,Oxford Road,Denham,Buckinghamshire,,Indigo Bar And Grill,Other catering premises,7841,5,,51504,5,,51.57448300000000,11540/2006/2/000,024,envhealth@southbucks.gov.uk,South Buckinghamshire,http://www.southbucks.gov.uk,-0.53356900000000,SL9 7AL,2012-05-03,fhrs_5_en-GB,5,,FHRS,5
255240,Iver Village Hall,West Square,Iver,Buckinghamshire,Iver Community Childcare,Other catering premises,7841,5,,21832,5,,51.52044700000000,07/00074/NURSER,024,envhealth@southbucks.gov.uk,South Buckinghamshire,http://www.southbucks.gov.uk,-0.50842300000000,SL0 9NW,2013-03-20,fhrs_4_en-GB,4,,FHRS,10
255241,Iver Curry And Indian Centre,26 High Street,Iver,Buckinghamshire,Iver Curry And Tandoori Centre,Other catering premises,7841,5,,23898,5,,51.52036400000000,07080/0026/2/000,024,envhealth@southbucks.gov.uk,South Buckinghamshire,http://www.southbucks.gov.uk,-0.50539900000000,SL0 9NG,2013-09-10,fhrs_5_en-GB,5,,FHRS,5
255242,Iver Nature Study Centre,Slough Road,Iver Heath,Buckinghamshire,Iver Environment Centre,Other catering premises,7841,5,,62231,10,,51.54047600000000,13730/7174/2/000,024,envhealth@southbucks.gov.uk,South Buckinghamshire,http://www.southbucks.gov.uk,-0.49885700000000,SL0 0EB,2013-08-22,fhrs_4_en-GB,4,,FHRS,5
255243,19 Langley Park Road,Iver,Buckinghamshire,,Iver Fish & Chips,Takeaway/sandwich shop,7844,5,,32960,5,,51.52024100000000,10/00015/TKAWAY,024,envhealth@southbucks.gov.uk,South Buckinghamshire,http://www.southbucks.gov.uk,-0.51697700000000,SL0 9QL,2014-04-29,fhrs_5_en-GB,5,,FHRS,5
255244,Iver Flowerland,Norwood Lane,Iver Heath,Buckinghamshire,Iver Flowerland Restaurant,Other catering premises,7841,10,,44776,15,,51.52970700000000,10850/2022/2/000,024,envhealth@southbucks.gov.uk,South Buckinghamshire,http://www.southbucks.gov.uk,-0.51896200000000,SL0 0EW,2014-03-27,fhrs_2_en-GB,2,,FHRS,15
255245,Iver Food & Wine,80 High Street,Iver,Buckinghamshire,Iver Food And Wine,Retailers - other,4613,10,,23904,10,,51.52086600000000,07080/0080/0/000,024,envhealth@southbucks.gov.uk,South Buckinghamshire,http://www.southbucks.gov.uk,-0.50882800000000,SL0 9PJ,2014-06-19,fhrs_3_en-GB,3,,FHRS,10
255246,Hollow Hill Lane,Iver,Buckinghamshire,,Iver Golf And Leisure Centre,Other catering premises,7841,10,,24113,10,,51.51427800000000,07380/2003/2/000,024,envhealth@southbucks.gov.uk,South Buckinghamshire,http://www.southbucks.gov.uk,-0.53406200000000,SL0 0JJ,2013-09-24,fhrs_2_en-GB,2,,FHRS,15
255247,Iver Heath Bowls Club,Iver Heath Recreation Ground,Church Road,Iver Heath,Iver Health Bowls Club,Other catering premises,7841,5,,8598,10,,51.53961100000000,03070/2047/2/000,024,envhealth@southbucks.gov.uk,South Buckinghamshire,http://www.southbucks.gov.uk,-0.52420700000000,SL0 0RD,2013-03-25,fhrs_3_en-GB,3,,FHRS,10
255248,35 High Street,Iver,Buckinghamshire,,Iver Village Bakery,Restaurant/Cafe/Canteen,1,10,,46267,20,,51.52003300000000,11/00056/BAKER,024,envhealth@southbucks.gov.uk,South Buckinghamshire,http://www.southbucks.gov.uk,-0.50555400000000,SL0 9ND,2014-06-12,fhrs_1_en-GB,1,,FHRS,15
255249,West Square,Iver,Buckinghamshire,,Iver Village Hall,Other catering premises,7841,5,,73155,5,,51.52044700000000,16760/2002/2/000,024,envhealth@southbucks.gov.uk,South Buckinghamshire,http://www.southbucks.gov.uk,-0.50842300000000,SL0 9NW,2012-08-20,fhrs_4_en-GB,4,,FHRS,10
255250,Free Methodist Church,Shepherds Lane,Beaconsfield,Buckinghamshire,Jack And Jill Pre School,Other catering premises,7841,5,,21521,5,,51.60344500000000,07/00032/NURSER,024,envhealth@southbucks.gov.uk,South Buckinghamshire,http://www.southbucks.gov.uk,-0.63565000000000,HP9 2DU,2014-11-26,fhrs_5_en-GB,5,,FHRS,5
255251,,,,,Jacky Williams Catering,Other catering premises,7841,5,,13783,5,,,04400/0058/0/000,024,envhealth@southbucks.gov.uk,South Buckinghamshire,http://www.southbucks.gov.uk,,,2014-01-17,fhrs_4_en-GB,4,,FHRS,10
255252,,,,,Jamilia's Kitchen,Mobile caterer,7846,5,,629524,5,,,13/00056/CATR,024,envhealth@southbucks.gov.uk,South Buckinghamshire,http://www.southbucks.gov.uk,,,2014-01-09,fhrs_4_en-GB,4,,FHRS,10
255253,Jasmine Restaurant,15A Penn Road,Beaconsfield,Buckinghamshire,Jasmine Chinese Restaurant,Other catering premises,7841,5,,52613,5,,51.61303900000000,11900/0015/A/000,024,envhealth@southbucks.gov.uk,South Buckinghamshire,http://www.southbucks.gov.uk,-0.64810100000000,HP9 2PN,2014-12-03,fhrs_5_en-GB,5,,FHRS,5
255254,Street Record,Amersham Road,Gerrards Cross,Buckinghamshire,Jolantas Refreshments,Takeaway/sandwich shop,7844,5,,45984,5,,51.58361100000000,11/00039/MOBILE,024,envhealth@southbucks.gov.uk,South Buckinghamshire,http://www.southbucks.gov.uk,-0.53998600000000,,2014-09-26,fhrs_5_en-GB,5,,FHRS,0
255255,Guru Kirpa,Oxford Road,Gerrards Cross,Buckinghamshire,JS Wines,Retailers - other,4613,10,,51508,10,,51.57933600000000,11540/2083/2/000,024,envhealth@southbucks.gov.uk,South Buckinghamshire,http://www.southbucks.gov.uk,-0.55369000000000,SL9 7DP,2013-03-05,fhrs_3_en-GB,3,,FHRS,10
255256,,,,,Just Because Cakes,Other catering premises,7841,5,,681012,5,,,14/00019/CATR,024,envhealth@southbucks.gov.uk,South Buckinghamshire,http://www.southbucks.gov.uk,,,2014-05-07,fhrs_5_en-GB,5,,FHRS,5
255257,Iver Village Post Office,11A-15 Langley Park Road,Iver,Buckinghamshire,K C News,Retailers - other,4613,10,,27926,10,,51.52024100000000,08340/0015/0/000,024,envhealth@southbucks.gov.uk,South Buckinghamshire,http://www.southbucks.gov.uk,-0.51697700000000,SL0 9QL,2014-09-25,fhrs_3_en-GB,3,,FHRS,10
255258,Buckinghamshire Golf Club,Denham Court Drive,Denham,Buckinghamshire,Kajima UK Ltd,Other catering premises,7841,5,,13429,0,,51.56724100000000,04080/2001/2/000,024,envhealth@southbucks.gov.uk,South Buckinghamshire,http://www.southbucks.gov.uk,-0.49008300000000,UB9 5PG,2013-03-13,fhrs_5_en-GB,5,,FHRS,0
255259,Street Record,High Street,Burnham,Buckinghamshire,Karen Miller Ward Ltd,Mobile caterer,7846,10,,28884,10,,51.53456200000000,09/00033/MARK_F,024,envhealth@southbucks.gov.uk,South Buckinghamshire,http://www.southbucks.gov.uk,-0.65866200000000,,2013-02-20,fhrs_3_en-GB,3,,FHRS,10
255260,,,,,Kelly Rose Cakes,Other catering premises,7841,5,,656910,5,,,14/00029/PRIVAT,024,envhealth@southbucks.gov.uk,South Buckinghamshire,http://www.southbucks.gov.uk,,,2014-02-03,fhrs_4_en-GB,4,,FHRS,10
255261,Unit 6,Beaconsfield Services,Windsor Road,Beaconsfield,KFC,Takeaway/sandwich shop,7844,5,,32857,5,,51.58743800000000,10/00009/REST,024,envhealth@southbucks.gov.uk,South Buckinghamshire,http://www.southbucks.gov.uk,-0.62787300000000,HP9 2SE,2014-03-26,fhrs_5_en-GB,5,,FHRS,5
255262,Pioneer House,Hollybush Hill,Stoke Poges,Buckinghamshire,Khalsa Secondary Academy,School/college/university,7845,10,,616340,15,,51.54715500000000,13/00037/EDUCAT,024,envhealth@southbucks.gov.uk,South Buckinghamshire,http://www.southbucks.gov.uk,-0.57804500000000,SL2 4QP,2013-11-27,fhrs_2_en-GB,2,,FHRS,5
255263,Fulmer Sports And Social Club,The Pavillion And Club House,King Georges Field,Fulmer Common Road,King Georges Field,Other catering premises,7841,10,,17067,10,,51.55492100000000,05520/2015/2/000,024,envhealth@southbucks.gov.uk,South Buckinghamshire,http://www.southbucks.gov.uk,-0.56011900000000,SL3 6JN,2011-02-24,fhrs_3_en-GB,3,,FHRS,10
255264,Oxford Road,Beaconsfield,Buckinghamshire,,Kings Head Harvester,Other catering premises,7841,5,,51304,5,,51.59994500000000,11480/2004/2/000,024,envhealth@southbucks.gov.uk,South Buckinghamshire,http://www.southbucks.gov.uk,-0.67157700000000,HP9 1UD,2014-12-18,fhrs_5_en-GB,5,,FHRS,5
255265,34 Gregories Road,Beaconsfield,Buckinghamshire,,Kun Sing,Other catering premises,7841,5,,17611,5,,51.61071200000000,06/00013/TKAWAY,024,envhealth@southbucks.gov.uk,South Buckinghamshire,http://www.southbucks.gov.uk,-0.64822800000000,HP9 1HQ,2014-08-28,fhrs_5_en-GB,5,,FHRS,5
255266,Carnigie House,The Broadway,Beaconsfield Road,Farnham Common,La Cantina Del Vino,Other catering premises,7841,5,,25419,10,,51.55515800000000,08/00081/REST,024,envhealth@southbucks.gov.uk,South Buckinghamshire,http://www.southbucks.gov.uk,-0.61570400000000,SL2 3PQ,2014-06-27,fhrs_4_en-GB,4,,FHRS,5
255267,Carnigie House,The Broadway,Beaconsfield Road,Farnham Common,La Cantinetta Pizzeria And Take Away Cafe,Restaurant/Cafe/Canteen,1,5,,32858,5,,51.55515800000000,10/00010/CAFE,024,envhealth@southbucks.gov.uk,South Buckinghamshire,http://www.southbucks.gov.uk,-0.61570400000000,SL2 3PQ,2014-03-05,fhrs_5_en-GB,5,,FHRS,5
255268,,,,,La Cucina Caldesi Limited,School/college/university,7845,0,,33164,0,,,10/00028/PRIVAT,024,envhealth@southbucks.gov.uk,South Buckinghamshire,http://www.southbucks.gov.uk,,,2013-11-12,fhrs_5_en-GB,5,,FHRS,0
255269,The Lambourne Club,Dropmore Road,Burnham,Buckinghamshire,Lambourne Golf Club,Other catering premises,7841,5,,13786,5,,51.56197300000000,04400/2043/2/000,024,envhealth@southbucks.gov.uk,South Buckinghamshire,http://www.southbucks.gov.uk,-0.65817100000000,SL1 8NF,2013-05-20,fhrs_4_en-GB,4,,FHRS,10
255270,Archie's Wine Bar,57 High Street,Burnham,Buckinghamshire,Legends Bar And Restaurant Ltd,Other catering premises,7841,5,,23853,5,,51.53402300000000,07050/5761/0/000,024,envhealth@southbucks.gov.uk,South Buckinghamshire,http://www.southbucks.gov.uk,-0.65874700000000,SL1 7JX,2012-05-03,fhrs_5_en-GB,5,,FHRS,5
255271,Prospect House,The Centre,Beaconsfield Road,Farnham Common,Legends Wine Bar,Restaurant/Cafe/Canteen,1,5,,542748,5,,51.55498000000000,12/00047/CLUB_C,024,envhealth@southbucks.gov.uk,South Buckinghamshire,http://www.southbucks.gov.uk,-0.61507400000000,SL2 3PP,2013-03-18,fhrs_5_en-GB,5,,FHRS,5
255272,28 Station Parade,Denham Green,Buckinghamshire,,Legion Foods,Retailers - other,4613,5,,64563,5,,51.57977300000000,14370/0028/0/000,024,envhealth@southbucks.gov.uk,South Buckinghamshire,http://www.southbucks.gov.uk,-0.49965500000000,UB9 5ET,2015-01-08,fhrs_5_en-GB,5,,FHRS,5
255273,Leigh House Restaurant,53 Wycombe End,Beaconsfield,Buckinghamshire,Leigh House Peking Restaurant,Other catering premises,7841,10,,76331,15,,51.60178500000000,17980/0053/2/000,024,envhealth@southbucks.gov.uk,South Buckinghamshire,http://www.southbucks.gov.uk,-0.63828400000000,HP9 1LX,2014-08-07,fhrs_2_en-GB,2,,FHRS,15
255274,Coulson Way,Burnham,Buckinghamshire,,Lent Rise House,Other catering premises,7841,0,,9081,0,,51.52542500000000,03610/2000/2/000,024,envhealth@southbucks.gov.uk,South Buckinghamshire,http://www.southbucks.gov.uk,-0.66642400000000,SL1 7NL,2010-11-17,fhrs_5_en-GB,5,,FHRS,0
255275,Lent Rise Post Office,3 Eastfield Road,Burnham,Buckinghamshire,Lent Rise Newsagents,Retailers - other,4613,10,,13983,10,,51.52646500000000,04570/0003/0/000,024,envhealth@southbucks.gov.uk,South Buckinghamshire,http://www.southbucks.gov.uk,-0.66857000000000,SL1 7EH,2013-02-28,fhrs_3_en-GB,3,,FHRS,10
255276,Bristol-Myers Squibb,Unit 2,Uxbridge Business Park,Oxford Road,Lexington Catering Limited,Other catering premises,7841,0,,605659,0,,51.55594600000000,13/00049/OFF_C,024,envhealth@southbucks.gov.uk,South Buckinghamshire,http://www.southbucks.gov.uk,-0.48027300000000,UB8 1DH,2013-10-23,fhrs_5_en-GB,5,,FHRS,5
255277,,,,,Lilybean Bakery,Manufacturers/packers,7839,5,,28937,5,,,09/00038/PRIVAT,024,envhealth@southbucks.gov.uk,South Buckinghamshire,http://www.southbucks.gov.uk,,,2012-05-31,fhrs_5_en-GB,5,,FHRS,5
255278,Church Of St John The Evangelist,Victoria Road,Farnham Common,Buckinghamshire,Little Beeches Montessori School,Hospitals/Childcare/Caring Premises,5,5,,21663,5,,51.55385500000000,07/00049/NURSER,024,envhealth@southbucks.gov.uk,South Buckinghamshire,http://www.southbucks.gov.uk,-0.61346400000000,SL2 3NJ,2013-06-25,fhrs_5_en-GB,5,,FHRS,5
255279,Burnham Football Club,Wymers Wood Road,Burnham,Buckinghamshire,Little Blues Nursery School,Hospitals/Childcare/Caring Premises,5,5,,324380,5,,51.53825400000000,12/00010/NURSER,024,envhealth@southbucks.gov.uk,South Buckinghamshire,http://www.southbucks.gov.uk,-0.66700100000000,SL1 8JG,2013-09-04,fhrs_5_en-GB,5,,FHRS,5
255280,Little Roos Nursery,Bath Road,Burnham,Buckinghamshire,Little Roo's Day Nursery,Other catering premises,7841,5,,2521,5,,51.52107400000000,00980/0739/2/000,024,envhealth@southbucks.gov.uk,South Buckinghamshire,http://www.southbucks.gov.uk,-0.67289300000000,SL6 0PR,2014-05-01,fhrs_5_en-GB,5,,FHRS,5
255281,70 London End,Beaconsfield,Buckinghamshire,,Loch Fyne Restaurant,Other catering premises,7841,10,,28321,15,,51.60205500000000,08840/2006/2/000,024,envhealth@southbucks.gov.uk,South Buckinghamshire,http://www.southbucks.gov.uk,-0.63289100000000,HP9 2JD,2014-11-03,fhrs_2_en-GB,2,,FHRS,5
255282,Hedgerley Post Office,2 Hedgerley Hill,Hedgerley,Buckinghamshire,Londis,Retailers - other,4613,10,,14435,10,,51.57078600000000,05/00001/SUPER,024,envhealth@southbucks.gov.uk,South Buckinghamshire,http://www.southbucks.gov.uk,-0.60352700000000,SL2 3RP,2014-06-11,fhrs_3_en-GB,3,,FHRS,10
255283,Londis Store,1-2 Fulmer Corner,Oxford Road,Denham,Londis,Retailers - other,4613,10,,51470,5,,51.57377000000000,11530/0001/0/000,024,envhealth@southbucks.gov.uk,South Buckinghamshire,http://www.southbucks.gov.uk,-0.53194700000000,SL9 7AX,2013-03-27,fhrs_4_en-GB,4,,FHRS,5
255284,Mayflower Newsmarket,27 - 29 Mayflower Way,Beaconsfield,Buckinghamshire,Londis,Retailers - other,4613,10,,32521,10,,51.60110200000000,09690/2729/0/000,024,envhealth@southbucks.gov.uk,South Buckinghamshire,http://www.southbucks.gov.uk,-0.66572500000000,HP9 1UG,2013-06-27,fhrs_3_en-GB,3,,FHRS,10
255285,20 - 22 Thorney Lane South,Iver,Buckinghamshire,,Londis Store,Retailers - other,4613,5,,22191,10,,51.50526300000000,07/00140/SUPER,024,envhealth@southbucks.gov.uk,South Buckinghamshire,http://www.southbucks.gov.uk,-0.50239200000000,SL0 9AE,2013-07-03,fhrs_4_en-GB,4,,FHRS,5
255286,La Bettola,5B The Ridgeway,Iver,Buckinghamshire,Lucianos,Other catering premises,7841,5,,68806,5,,51.51381300000000,15400/0005/0/000,024,envhealth@southbucks.gov.uk,South Buckinghamshire,http://www.southbucks.gov.uk,-0.50574300000000,SL0 9HW,2013-08-13,fhrs_4_en-GB,4,,FHRS,10
255287,Lumbini,12 Oxford Road,New Denham,Denham,Lumbini Nepalese,Restaurant/Cafe/Canteen,1,10,,451451,20,,51.55178800000000,12/00040/CATR,024,envhealth@southbucks.gov.uk,South Buckinghamshire,http://www.southbucks.gov.uk,-0.48626800000000,UB9 4DQ,2014-03-05,fhrs_1_en-GB,1,,FHRS,10
255288,24 Packhorse Road,Gerrards Cross,Buckinghamshire,,Luna Rossa,Other catering premises,7841,,,51703,,,51.58745700000000,11600/0024/0/000,024,envhealth@southbucks.gov.uk,South Buckinghamshire,http://www.southbucks.gov.uk,-0.55376400000000,SL9 7DA,2015-01-19,fhrs_4_en-GB,4,,FHRS,
255289,71 Slough Road,Iver Heath,Buckinghamshire,,M K Food Stores Ltd,Retailers - other,4613,0,,62227,0,,51.53693800000000,13730/0071/0/000,024,envhealth@southbucks.gov.uk,South Buckinghamshire,http://www.southbucks.gov.uk,-0.51970800000000,SL0 0DW,2015-01-07,fhrs_5_en-GB,5,,FHRS,0
255290,The Food & Wine Hut,39 High Street,Iver,Buckinghamshire,Mace Express,Retailers - other,4613,5,,576574,10,,51.52003300000000,13/00026/RETAIL,024,envhealth@southbucks.gov.uk,South Buckinghamshire,http://www.southbucks.gov.uk,-0.50555400000000,SL0 9ND,2013-07-31,fhrs_3_en-GB,3,,FHRS,10
255291,1 - 2 Denham Parade,Oxford Road,Denham,Buckinghamshire,Mace Superstore,Retailers - other,4613,10,,51396,15,,51.56681900000000,11510/0012/0/000,024,envhealth@southbucks.gov.uk,South Buckinghamshire,http://www.southbucks.gov.uk,-0.50133700000000,UB9 4DZ,2013-03-27,fhrs_2_en-GB,2,,FHRS,10
255292,Dragon Inn Restaurant,4 The Parade,Beaconsfield Road,Farnham Common,Mahi Lounge,Restaurant/Cafe/Canteen,1,10,,733874,10,,51.55567200000000,14/00040/REST,024,envhealth@southbucks.gov.uk,South Buckinghamshire,http://www.southbucks.gov.uk,-0.61505300000000,SL2 3QJ,2015-01-09,fhrs_3_en-GB,3,,FHRS,10
255293,Maidenhead Rowing Club,Bridge Boat House,River Road,Taplow,Maidenhead Rowing Club Bridge Boat House,Other catering premises,7841,5,,56426,5,,51.52336400000000,12760/2024/2/000,024,envhealth@southbucks.gov.uk,South Buckinghamshire,http://www.southbucks.gov.uk,-0.70077600000000,SL6 0AT,2015-01-21,fhrs_5_en-GB,5,,FHRS,5
255294,Unit,11 The Bishop Centre,Bath Road,Taplow,Majestic Wine Warehouse Ltd,Retailers - other,4613,5,,735058,5,,51.52262900000000,15/00004/OFFLI,024,envhealth@southbucks.gov.uk,South Buckinghamshire,http://www.southbucks.gov.uk,-0.67684000000000,SL6 0NX,2015-02-05,fhrs_5_en-GB,5,,FHRS,0
255295,7 Marsham Way,Gerrards Cross,Buckinghamshire,,Maliks Express Kitchen,Takeaway/sandwich shop,7844,5,,616343,5,,51.58701300000000,13/00052/TKAWAY,024,envhealth@southbucks.gov.uk,South Buckinghamshire,http://www.southbucks.gov.uk,-0.55273900000000,SL9 8AB,2013-11-28,fhrs_5_en-GB,5,,FHRS,5
255296,14 Oak End Way,Gerrards Cross,Buckinghamshire,,Maliks Tandoori,Other catering premises,7841,5,,17766,5,,51.58863200000000,06/00029/REST,024,envhealth@southbucks.gov.uk,South Buckinghamshire,http://www.southbucks.gov.uk,-0.55062300000000,SL9 8BR,2013-07-08,fhrs_4_en-GB,4,,FHRS,10
255297,M And S Simply Foods,Units 7 And 8,Beaconsfield Services,Windsor Road,Marks And Spencer Simply Food,Retailers - supermarkets/hypermarkets,7840,0,,29160,5,,51.58743800000000,09/00057/GROCER,024,envhealth@southbucks.gov.uk,South Buckinghamshire,http://www.southbucks.gov.uk,-0.62787300000000,HP9 2SE,2014-07-14,fhrs_5_en-GB,5,,FHRS,5
255298,Marks & Spencer Simply Food,10 Packhorse Road,Gerrards Cross,Buckinghamshire,Marks And Spencer Simply Food,Retailers - other,4613,5,,17977,5,,51.58681000000000,06/00054/GROCER,024,envhealth@southbucks.gov.uk,South Buckinghamshire,http://www.southbucks.gov.uk,-0.55452100000000,SL9 7QE,2014-08-11,fhrs_5_en-GB,5,,FHRS,5
255299,Marks & Spencer Simply Food,9 - 10 Grove Court,Station Road,Beaconsfield,Marks And Spencer Simply Food,Retailers - other,4613,5,,20638,5,,51.60947100000000,06240/0910/0/000,024,envhealth@southbucks.gov.uk,South Buckinghamshire,http://www.southbucks.gov.uk,-0.64516000000000,HP9 1QW,2014-01-23,fhrs_5_en-GB,5,,FHRS,5
255300,61 Lower Road,Higher Denham,Denham,Buckinghamshire,Martin Baker Aircraft Co Ltd,Other catering premises,7841,5,,32043,5,,51.57920800000000,09160/2000/2/000,024,envhealth@southbucks.gov.uk,South Buckinghamshire,http://www.southbucks.gov.uk,-0.52534900000000,UB9 5AJ,2014-11-17,fhrs_4_en-GB,4,,FHRS,10
255301,19A Penn Road,Beaconsfield,Buckinghamshire,,Martins,Retailers - other,4613,0,,52614,5,,51.61303900000000,11900/0017/0/000,024,envhealth@southbucks.gov.uk,South Buckinghamshire,http://www.southbucks.gov.uk,-0.64810100000000,HP9 2PN,2013-03-27,fhrs_5_en-GB,5,,FHRS,5
255302,Martins The Newsagents,73 Slough Road,Iver Heath,Buckinghamshire,Martins Newsagent,Retailers - other,4613,5,,62228,5,,51.53693800000000,13730/0073/2/000,024,envhealth@southbucks.gov.uk,South Buckinghamshire,http://www.southbucks.gov.uk,-0.51970800000000,SL0 0DW,2014-03-04,fhrs_4_en-GB,4,,FHRS,10
255303,Maybank House,43 Slough Road,Iver Heath,Buckinghamshire,Maybank Care Home,Other catering premises,7841,5,,62226,10,,51.53693800000000,13730/0043/0/000,024,envhealth@southbucks.gov.uk,South Buckinghamshire,http://www.southbucks.gov.uk,-0.51970800000000,SL0 0DW,2013-11-06,fhrs_3_en-GB,3,,FHRS,10
255304,33 Mayflower Way,Beaconsfield,Buckinghamshire,,Mayflower Wine,Retailers - other,4613,10,,32515,10,,51.60110200000000,09690/0033/0/000,024,envhealth@southbucks.gov.uk,South Buckinghamshire,http://www.southbucks.gov.uk,-0.66572500000000,HP9 1UG,2013-03-04,fhrs_3_en-GB,3,,FHRS,10
255305,Mcdonalds Restaurant,37 Oxford Road,New Denham,Denham,McDonalds,Other catering premises,7841,0,,51432,0,,51.55214600000000,11520/0038/2/000,024,envhealth@southbucks.gov.uk,South Buckinghamshire,http://www.southbucks.gov.uk,-0.48751100000000,UB9 4DA,2015-01-07,fhrs_5_en-GB,5,,FHRS,5
255306,Unit 4,Beaconsfield Services,Windsor Road,Beaconsfield,McDonalds,Takeaway/sandwich shop,7844,0,,28512,5,,51.58743800000000,09/00004/REST,024,envhealth@southbucks.gov.uk,South Buckinghamshire,http://www.southbucks.gov.uk,-0.62787300000000,HP9 2SE,2014-10-09,fhrs_5_en-GB,5,,FHRS,5
255307,Twin Trees Farm,Rowley Lane,Wexham,Buckinghamshire,MD Ices,Mobile caterer,7846,5,,408175,5,,51.54508600000000,13080/2001/2/000,024,envhealth@southbucks.gov.uk,South Buckinghamshire,http://www.southbucks.gov.uk,-0.56843300000000,SL3 6PB,2012-05-09,fhrs_5_en-GB,5,,FHRS,5
255308,Ashley House,6 The Broadway,Beaconsfield Road,Farnham Common,Memories Of India,Other catering premises,7841,5,,67485,5,,51.55510400000000,15060/2046/2/000,024,envhealth@southbucks.gov.uk,South Buckinghamshire,http://www.southbucks.gov.uk,-0.61570500000000,SL2 3PQ,2014-01-20,fhrs_4_en-GB,4,,FHRS,10
255309,Street Record,Slough Road,Beaconsfield,Buckinghamshire,Mikes Refreshments,Mobile caterer,7846,10,,605655,15,,51.50800000000000,13/00041/MOBILE,024,envhealth@southbucks.gov.uk,South Buckinghamshire,http://www.southbucks.gov.uk,-0.59634000000000,,2013-10-02,fhrs_2_en-GB,2,,FHRS,5
255310,Millwood,Collinswood Road,Farnham Common,Buckinghamshire,Millwood House Private Day Nursery Ltd,School/college/university,7845,5,,187488,5,,51.56568500000000,03330/2006/2/000,024,envhealth@southbucks.gov.uk,South Buckinghamshire,http://www.southbucks.gov.uk,-0.61776500000000,SL2 3LH,2014-01-16,fhrs_5_en-GB,5,,FHRS,5
255311,1 Amersham Road,Beaconsfield,Buckinghamshire,,Monique's Bed And Breakfast,Other catering premises,7841,0,,1546,5,,51.60673000000000,00280/0001/0/000,024,envhealth@southbucks.gov.uk,South Buckinghamshire,http://www.southbucks.gov.uk,-0.63361700000000,HP9 2HA,2014-08-20,fhrs_5_en-GB,5,,FHRS,5
255312,Texaco Garage,66 Oxford Road,New Denham,Denham,MRH Retail Services,Retailers - other,4613,5,,51433,5,,51.55424900000000,11520/0066/0/000,024,envhealth@southbucks.gov.uk,South Buckinghamshire,http://www.southbucks.gov.uk,-0.48881200000000,UB9 4DN,2013-03-28,fhrs_5_en-GB,5,,FHRS,5
255313,94 High Street,Burnham,Buckinghamshire,,Mulberry Bites,Other catering premises,7841,10,,23845,15,,51.53521800000000,07050/0094/0/000,024,envhealth@southbucks.gov.uk,South Buckinghamshire,http://www.southbucks.gov.uk,-0.65864000000000,SL1 7JT,2014-03-25,fhrs_2_en-GB,2,,FHRS,10
255314,Old Mulberry House,22 London End,Beaconsfield,Buckinghamshire,Mulberrys Of Beaconsfield Ltd,Other catering premises,7841,5,,28316,5,,51.60187000000000,08840/0022/0/000,024,envhealth@southbucks.gov.uk,South Buckinghamshire,http://www.southbucks.gov.uk,-0.63475900000000,HP9 2JH,2014-12-11,fhrs_5_en-GB,5,,FHRS,5
255315,Thames Executive Charters,Taplow Boatyard,Mill Lane,Taplow,"MV The Southern Comfort, MV The Georgian, MV The Pink Champa",Other catering premises,7841,5,,9364,5,,51.52561400000000,04/00002/MOBILE,024,envhealth@southbucks.gov.uk,South Buckinghamshire,http://www.southbucks.gov.uk,-0.70098600000000,SL6 0AA,2013-11-11,fhrs_5_en-GB,5,,FHRS,5
255316,Dorney Cottage,Village Road,Dorney,Buckinghamshire,Natural Addiction Ltd,Mobile caterer,7846,5,,511218,5,,51.50345900000000,13/00007/MOBILE,024,envhealth@southbucks.gov.uk,South Buckinghamshire,http://www.southbucks.gov.uk,-0.66183500000000,SL4 6QW,2014-08-13,fhrs_5_en-GB,5,,FHRS,5
255317,35A High Street,Iver,Buckinghamshire,,Naylors Deli,Takeaway/sandwich shop,7844,10,,45422,15,,51.52003300000000,11/00006/TKAWAY,024,envhealth@southbucks.gov.uk,South Buckinghamshire,http://www.southbucks.gov.uk,-0.50555400000000,SL0 9ND,2014-05-07,fhrs_2_en-GB,2,,FHRS,15
255318,6 The Broadway,Beaconsfield Road,Farnham Common,Buckinghamshire,Nazma Tandoori,Other catering premises,7841,20,,67488,20,,51.55510400000000,15060/2053/2/000,024,envhealth@southbucks.gov.uk,South Buckinghamshire,http://www.southbucks.gov.uk,-0.61570500000000,SL2 3PQ,2014-07-08,fhrs_0_en-GB,0,,FHRS,20
255319,147 Lent Rise Road,Burnham,Buckinghamshire,,Nicholas House,Hospitals/Childcare/Caring Premises,5,10,,28127,10,,51.52781500000000,08610/0147/0/000,024,envhealth@southbucks.gov.uk,South Buckinghamshire,http://www.southbucks.gov.uk,-0.66711800000000,SL1 7BN,2013-12-12,fhrs_3_en-GB,3,,FHRS,5
255320,,,,,NJ Event Catering,Hospitals/Childcare/Caring Premises,5,5,,580840,5,,,13/00027/CATR,024,envhealth@southbucks.gov.uk,South Buckinghamshire,http://www.southbucks.gov.uk,,,2013-08-12,fhrs_5_en-GB,5,,FHRS,5
255321,Bath Road,Taplow,Buckinghamshire,,Norfolk House Hotel,Other catering premises,7841,5,,2533,5,,51.52304100000000,00980/2051/2/000,024,envhealth@southbucks.gov.uk,South Buckinghamshire,http://www.southbucks.gov.uk,-0.69516300000000,SL6 0AP,2013-07-18,fhrs_4_en-GB,4,,FHRS,10
255322,The North Star,63 - 67 Thorney Mill Road,Iver,Buckinghamshire,North Star,Other catering premises,7841,5,,69327,5,,51.50415300000000,15580/0067/2/000,024,envhealth@southbucks.gov.uk,South Buckinghamshire,http://www.southbucks.gov.uk,-0.49155000000000,SL0 9AH,2013-11-18,fhrs_4_en-GB,4,,FHRS,10
255323,64 Station Road,Beaconsfield,Buckinghamshire,,Northgate House Childcare Centre,Hospitals/Childcare/Caring Premises,5,0,,46036,0,,51.60478000000000,11/00042/NURSER,024,envhealth@southbucks.gov.uk,South Buckinghamshire,http://www.southbucks.gov.uk,-0.63836800000000,HP9 1LG,2015-01-30,fhrs_5_en-GB,5,,FHRS,5
255324,Nuffield Health And Fitness,Wexham Street,Stoke Poges,Buckinghamshire,Nuffield Health Day Nursery,Other catering premises,7841,5,,73382,5,,51.53932200000000,16850/2038/2/000,024,envhealth@southbucks.gov.uk,South Buckinghamshire,http://www.southbucks.gov.uk,-0.57579500000000,SL3 6NB,2013-02-27,fhrs_5_en-GB,5,,FHRS,5
255325,Nuffield Health And Fitness,Wexham Street,Stoke Poges,Buckinghamshire,Nuffield Health Fitness And Wellbeing Centre,Other catering premises,7841,5,,73381,5,,51.53932200000000,16850/2037/2/000,024,envhealth@southbucks.gov.uk,South Buckinghamshire,http://www.southbucks.gov.uk,-0.57579500000000,SL3 6NB,2015-02-13,fhrs_5_en-GB,5,,FHRS,5
255326,120 Nursery Road,Burnham,Buckinghamshire,,Nursery News,Retailers - other,4613,5,,44853,10,,51.52312900000000,10870/0120/0/000,024,envhealth@southbucks.gov.uk,South Buckinghamshire,http://www.southbucks.gov.uk,-0.66696700000000,SL6 0JU,2013-02-28,fhrs_3_en-GB,3,,FHRS,10
255327,Oak And Saw,Rectory Road,Taplow,Buckinghamshire,Oak And Saw Village Inn,Other catering premises,7841,5,,55824,5,,51.53131400000000,12600/2018/2/000,024,envhealth@southbucks.gov.uk,South Buckinghamshire,http://www.southbucks.gov.uk,-0.68869900000000,SL6 0ET,2013-05-28,fhrs_5_en-GB,5,,FHRS,5
255328,Oakridge,Windmill Road,Fulmer,Buckinghamshire,Oak Ridge Bed And Breakfast,Hotel/bed & breakfast/guest house,7842,10,,33459,5,,51.56077200000000,10/00045/HOTEL,024,envhealth@southbucks.gov.uk,South Buckinghamshire,http://www.southbucks.gov.uk,-0.56137700000000,SL3 6HD,2013-03-17,fhrs_4_en-GB,4,,FHRS,0
255329,The Beaconsfield School,Wattleton Road,Beaconsfield,Buckinghamshire,Oakwood Nursery School,Other catering premises,7841,5,,64591,5,,51.60292500000000,14380/0032/0/000,024,envhealth@southbucks.gov.uk,South Buckinghamshire,http://www.southbucks.gov.uk,-0.64051700000000,HP9 1SJ,2014-01-13,fhrs_5_en-GB,5,,FHRS,5
255330,Odds Farm,Wooburn Common Road,Taplow,Buckinghamshire,Odds Farm Tea Rooms,Other catering premises,7841,5,,17842,10,,51.57964600000000,06/00038/FOOD,024,envhealth@southbucks.gov.uk,South Buckinghamshire,http://www.southbucks.gov.uk,-0.66561700000000,HP10 0LA,2014-01-28,fhrs_3_en-GB,3,,FHRS,10
255331,Odeon Cinema,Ethorpe Crescent,Gerrards Cross,Buckinghamshire,Odeon,Retailers - other,4613,0,,14238,0,,51.58886000000000,04850/2002/2/000,024,envhealth@southbucks.gov.uk,South Buckinghamshire,http://www.southbucks.gov.uk,-0.55309900000000,SL9 8PN,2013-03-26,fhrs_5_en-GB,5,,FHRS,0
255332,Stanley Jones Field,Berry Hill,Taplow,Buckinghamshire,Old Paludians,Other catering premises,7841,10,,4913,10,,51.52813300000000,01430/2007/2/000,024,envhealth@southbucks.gov.uk,South Buckinghamshire,http://www.southbucks.gov.uk,-0.69217800000000,SL6 0DA,2014-05-23,fhrs_3_en-GB,3,,FHRS,10
255333,One Stop Community Stores Ltd,8 Aylesbury End,Beaconsfield,Buckinghamshire,One Stop,Retailers - other,4613,0,,2105,5,,51.60291200000000,00640/0008/2/000,024,envhealth@southbucks.gov.uk,South Buckinghamshire,http://www.southbucks.gov.uk,-0.63777400000000,HP9 1LW,2013-03-28,fhrs_5_en-GB,5,,FHRS,0
255334,52 St Davids Close,Iver Heath,Buckinghamshire,,Palm Suite Restaurant,Other catering premises,7841,5,,63579,5,,51.54196300000000,14030/0052/0/000,024,envhealth@southbucks.gov.uk,South Buckinghamshire,http://www.southbucks.gov.uk,-0.52101600000000,SL0 0RT,2014-03-18,fhrs_5_en-GB,5,,FHRS,5
255335,Beaconsfield Post Office,Cardain House,Burkes Road,Beaconsfield,Paperport,Retailers - other,4613,10,,9526,10,,51.61011900000000,04/00024/FOOD,024,envhealth@southbucks.gov.uk,South Buckinghamshire,http://www.southbucks.gov.uk,-0.64596400000000,HP9 1PA,2014-08-08,fhrs_3_en-GB,3,,FHRS,10
255336,Unit 2,Beaconsfield Services,Windsor Road,Beaconsfield,Patisserie Valerie,Restaurant/Cafe/Canteen,1,5,,696348,5,,51.58743800000000,14/00018/CAFE,024,envhealth@southbucks.gov.uk,South Buckinghamshire,http://www.southbucks.gov.uk,-0.62787300000000,HP9 2SE,2014-08-08,fhrs_5_en-GB,5,,FHRS,5
255337,Penn Cottage,49 Woodside Avenue,Beaconsfield,Buckinghamshire,Penn Cottage Nursery School,Restaurant/Cafe/Canteen,1,5,,33099,5,,51.61396600000000,10/00024/NURSER,024,envhealth@southbucks.gov.uk,South Buckinghamshire,http://www.southbucks.gov.uk,-0.65603200000000,HP9 1JH,2014-08-11,fhrs_5_en-GB,5,,FHRS,5
255338,Peppers Indian Cuisine,69 High Street,Burnham,Buckinghamshire,Peppers,Other catering premises,7841,5,,23841,5,,51.53402300000000,07050/0069/0/000,024,envhealth@southbucks.gov.uk,South Buckinghamshire,http://www.southbucks.gov.uk,-0.65874700000000,SL1 7JX,2015-01-23,fhrs_4_en-GB,4,,FHRS,10
255339,Gore Lodge,Gore Road,Burnham,Buckinghamshire,Perkier Foods Limited,Manufacturers/packers,7839,5,,552262,5,,51.53594000000000,12/00018/FMANU,024,envhealth@southbucks.gov.uk,South Buckinghamshire,http://www.southbucks.gov.uk,-0.66592900000000,SL1 7DF,2012-03-15,fhrs_5_en-GB,5,,FHRS,5
255340,Phoenix RFU,The Phoenix And Claires Court Sport,Sports Ground,Institute Road,Phoenix RFC,Other catering premises,7841,10,,24517,10,,51.52439100000000,07850/0001/2/000,024,envhealth@southbucks.gov.uk,South Buckinghamshire,http://www.southbucks.gov.uk,-0.67758200000000,SL6 0NS,2014-09-15,fhrs_3_en-GB,3,,FHRS,10
255341,17 Oak Stubbs Lane,Dorney Reach,Buckinghamshire,,Pick And Mix Buffet,Manufacturers/packers,7839,0,,502589,5,,51.50748400000000,12/00051/CSERV,024,envhealth@southbucks.gov.uk,South Buckinghamshire,http://www.southbucks.gov.uk,-0.67821600000000,SL6 0DW,2013-01-24,fhrs_5_en-GB,5,,FHRS,5
255342,Pinewood Nurseries,Wexham Street,Stoke Poges,Buckinghamshire,Pinewood Nurseries Farm Shop,Retailers - other,4613,5,,22175,10,,51.53932200000000,07/00137/FARMSH,024,envhealth@southbucks.gov.uk,South Buckinghamshire,http://www.southbucks.gov.uk,-0.57579500000000,SL3 6NB,2013-07-03,fhrs_3_en-GB,3,,FHRS,10
255343,One Pin Lane,Farnham Common,Buckinghamshire,,Pinfield Hotel,Other catering premises,7841,5,,158657,0,,51.56549100000000,J11200/2024/2/000,024,envhealth@southbucks.gov.uk,South Buckinghamshire,http://www.southbucks.gov.uk,-0.60667500000000,SL2 3RD,2010-11-16,fhrs_5_en-GB,5,,FHRS,0
255344,14 London End,Beaconsfield,Buckinghamshire,,Pizza Express,Other catering premises,7841,5,,28312,5,,51.60187000000000,08840/0014/0/000,024,envhealth@southbucks.gov.uk,South Buckinghamshire,http://www.southbucks.gov.uk,-0.63475900000000,HP9 2JH,2012-04-30,fhrs_5_en-GB,5,,FHRS,5
255345,45 - 47 Packhorse Road,Gerrards Cross,Buckinghamshire,,Pizza Express,Restaurant/Cafe/Canteen,1,5,,605660,5,,51.58776800000000,13/00051/REST,024,envhealth@southbucks.gov.uk,South Buckinghamshire,http://www.southbucks.gov.uk,-0.55417300000000,SL9 8PE,2013-10-28,fhrs_5_en-GB,5,,FHRS,0
255346,The Plough Inn,Wexham Street,Stoke Poges,Buckinghamshire,Plough Inn,Other catering premises,7841,10,,733873,10,,51.54235300000000,016850/2028/2/000,024,envhealth@southbucks.gov.uk,South Buckinghamshire,http://www.southbucks.gov.uk,-0.57363800000000,SL3 6NJ,2014-06-12,fhrs_3_en-GB,3,,FHRS,10
255347,Poppies Beaconsfield,Harrias Barn,Hedgerley Lane,Beaconsfield,Poppies Day Nursery (Beaconsfield),Other catering premises,7841,5,,21161,5,,51.59609900000000,06890/2007/2/000,024,envhealth@southbucks.gov.uk,South Buckinghamshire,http://www.southbucks.gov.uk,-0.62873800000000,HP9 2SD,2014-08-08,fhrs_5_en-GB,5,,FHRS,5
255348,,,,,Posh Pud,Other catering premises,7841,5,,704721,5,,,14/00043/PRIVAT,024,envhealth@southbucks.gov.uk,South Buckinghamshire,http://www.southbucks.gov.uk,,,2014-10-01,fhrs_5_en-GB,5,,FHRS,5
255349,Methodist Church,62 High Street,Iver,Buckinghamshire,Premier Nursery,Other catering premises,7841,10,,187564,10,,51.52036400000000,08/00019/NURSER,024,envhealth@southbucks.gov.uk,South Buckinghamshire,http://www.southbucks.gov.uk,-0.50539900000000,SL0 9NG,2014-02-21,fhrs_3_en-GB,3,,FHRS,10
255350,12 - 14 Station Road,Beaconsfield,Buckinghamshire,,Prezzo,Restaurant/Cafe/Canteen,1,5,,451450,5,,51.60992500000000,12/00036/CAFE,024,envhealth@southbucks.gov.uk,South Buckinghamshire,http://www.southbucks.gov.uk,-0.64553600000000,HP9 1QR,2014-10-03,fhrs_5_en-GB,5,,FHRS,5
255351,Berkshire Garden Centre,Sutton Lane,Slough,Buckinghamshire,Quality Prepared Rolls,Mobile caterer,7846,10,,46142,10,,51.49446600000000,11/00048/MOBILE,024,envhealth@southbucks.gov.uk,South Buckinghamshire,http://www.southbucks.gov.uk,-0.53028900000000,SL3 8AH,2014-07-25,fhrs_3_en-GB,3,,FHRS,10
255352,Walter Davies Scouting Activity Cen,Duffield Lane,Stoke Poges,Buckinghamshire,Rainbow Pre School,Other catering premises,7841,5,,13806,5,,51.55756300000000,04420/2003/2/000,024,envhealth@southbucks.gov.uk,South Buckinghamshire,http://www.southbucks.gov.uk,-0.59181400000000,SL2 4AL,2014-08-11,fhrs_5_en-GB,5,,FHRS,5
255353,,,,,Rambler Kitchen,Other catering premises,7841,5,,18281,10,,,06/00098/CATR,024,envhealth@southbucks.gov.uk,South Buckinghamshire,http://www.southbucks.gov.uk,,,2013-03-18,fhrs_3_en-GB,3,,FHRS,10
255354,,,,,Raplea,Other catering premises,7841,5,,16625,10,,,05130/2033/2/000,024,envhealth@southbucks.gov.uk,South Buckinghamshire,http://www.southbucks.gov.uk,,,2013-07-11,fhrs_3_en-GB,3,,FHRS,10
255355,101 High Street,Burnham,Buckinghamshire,,Red Lion,Other catering premises,7841,10,,23847,10,,51.53509600000000,07050/0101/2/000,024,envhealth@southbucks.gov.uk,South Buckinghamshire,http://www.southbucks.gov.uk,-0.65897500000000,SL1 7JZ,2014-10-28,fhrs_3_en-GB,3,,FHRS,10
255356,12 The Highway,Station Road,Beaconsfield,Buckinghamshire,Revital Health And Beauty,Retailers - other,4613,5,,68393,10,,51.60992700000000,15290/0012/0/000,024,envhealth@southbucks.gov.uk,South Buckinghamshire,http://www.southbucks.gov.uk,-0.64490100000000,HP9 1QQ,2014-09-24,fhrs_4_en-GB,4,,FHRS,5
255357,Revolution,Maxwell Road,Beaconsfield,Buckinghamshire,Revolution Beaconsfield,Other catering premises,7841,10,,32459,10,,51.61063500000000,09650/2001/2/000,024,envhealth@southbucks.gov.uk,South Buckinghamshire,http://www.southbucks.gov.uk,-0.64236700000000,HP9 1QX,2014-02-21,fhrs_3_en-GB,3,,FHRS,5
255358,North Park,Iver,Buckinghamshire,,Richings Park Golf And Country Club,Other catering premises,7841,0,,44680,5,,51.49811300000000,10830/2004/2/000,024,envhealth@southbucks.gov.uk,South Buckinghamshire,http://www.southbucks.gov.uk,-0.52000100000000,SL0 9DL,2012-12-09,fhrs_5_en-GB,5,,FHRS,0
255359,St Leonards Church Hall,St Leonards Walk,Iver,Buckinghamshire,Richings Park Pre School,Other catering premises,7841,5,,21376,5,,51.50245800000000,07/00014/NURSER,024,envhealth@southbucks.gov.uk,South Buckinghamshire,http://www.southbucks.gov.uk,-0.50664800000000,SL0 9DD,2014-08-11,fhrs_5_en-GB,5,,FHRS,5
255360,34A Wellesley Avenue,Iver,Buckinghamshire,,Richings Park Sports Club,Other catering premises,7841,10,,72755,10,,51.50480500000000,16590/0034/A/000,024,envhealth@southbucks.gov.uk,South Buckinghamshire,http://www.southbucks.gov.uk,-0.50808400000000,SL0 9BN,2014-03-28,fhrs_2_en-GB,2,,FHRS,15
255361,71 Wycombe End,Beaconsfield,Buckinghamshire,,Rickys Newsagents,Retailers - other,4613,5,,76339,10,,51.60178500000000,17980/0071/0/000,024,envhealth@southbucks.gov.uk,South Buckinghamshire,http://www.southbucks.gov.uk,-0.63828400000000,HP9 1LX,2013-03-19,fhrs_3_en-GB,3,,FHRS,10
255362,,,,,Roll And Roll Sushi,Other catering premises,7841,0,,704719,0,,,14/00028/PRIVAT,024,envhealth@southbucks.gov.uk,South Buckinghamshire,http://www.southbucks.gov.uk,,,2014-09-01,fhrs_5_en-GB,5,,FHRS,5
255363,The Rose And Crown,Hollybush Hill,Stoke Poges,Buckinghamshire,Rose And Crown,Other catering premises,7841,10,,24121,10,,51.54968500000000,07390/2050/2/000,024,envhealth@southbucks.gov.uk,South Buckinghamshire,http://www.southbucks.gov.uk,-0.58351900000000,SL2 4PW,2013-11-25,fhrs_3_en-GB,3,,FHRS,10
255364,The Royal British Legion,55 Candlemas Lane,Beaconsfield,Buckinghamshire,Royal British Legion Club Ltd,Other catering premises,7841,10,,6799,10,,51.60549400000000,02520/0055/0/000,024,envhealth@southbucks.gov.uk,South Buckinghamshire,http://www.southbucks.gov.uk,-0.63563200000000,HP9 1AF,2013-03-26,fhrs_3_en-GB,3,,FHRS,10
255365,The Royal Oak,Beaconsfield Road,Farnham Common,Buckinghamshire,Royal Oak,Other catering premises,7841,10,,4417,10,,51.56043500000000,01100/2009/2/000,024,envhealth@southbucks.gov.uk,South Buckinghamshire,http://www.southbucks.gov.uk,-0.61558700000000,SL2 3HS,2015-01-12,fhrs_3_en-GB,3,,FHRS,10
255366,The Royal Saracens Head,London End,Beaconsfield,Buckinghamshire,Royal Saracens Head Hotel,Other catering premises,7841,5,,28323,5,,51.60187000000000,08840/2008/2/000,024,envhealth@southbucks.gov.uk,South Buckinghamshire,http://www.southbucks.gov.uk,-0.63475900000000,HP9 2JH,2014-03-24,fhrs_5_en-GB,5,,FHRS,5
255367,The Royal Standard,Wooburn Common Road,Taplow,Buckinghamshire,Royal Standard,Other catering premises,7841,5,,75450,5,,51.57719600000000,17620/2012/2/000,024,envhealth@southbucks.gov.uk,South Buckinghamshire,http://www.southbucks.gov.uk,-0.66681400000000,HP10 0JS,2013-01-05,fhrs_4_en-GB,4,,FHRS,10
255368,3 Wellesley Avenue,Iver,Buckinghamshire,,Ruchi,Takeaway/sandwich shop,7844,5,,605653,5,,51.50812400000000,13/00038/TKAWAY,024,envhealth@southbucks.gov.uk,South Buckinghamshire,http://www.southbucks.gov.uk,-0.50742800000000,SL0 9AU,2013-10-29,fhrs_4_en-GB,4,,FHRS,10
255369,Denham Lodge,Oxford Road,New Denham,Denham,Rucola Restaurant,Other catering premises,7841,5,,51370,5,,51.55133500000000,11500/0054/2/000,024,envhealth@southbucks.gov.uk,South Buckinghamshire,http://www.southbucks.gov.uk,-0.48524500000000,UB9 4AA,2013-10-14,fhrs_5_en-GB,5,,FHRS,5
255370,,,,,Russian Revels,Hospitals/Childcare/Caring Premises,5,5,,616341,5,,,13/00045/CATR,024,envhealth@southbucks.gov.uk,South Buckinghamshire,http://www.southbucks.gov.uk,,,2013-11-13,fhrs_5_en-GB,5,,FHRS,5
255371,51 Vine Road,Stoke Poges,Buckinghamshire,,S And J Wain,Distributors/Transporters,7,,,71561,,,51.55338700000000,16240/0051/0/000,024,envhealth@southbucks.gov.uk,South Buckinghamshire,http://www.southbucks.gov.uk,-0.58783300000000,SL2 4DW,2010-01-28,fhrs_exempt_en-GB,Exempt,,FHRS,
255372,SGI-UK National Centre,Taplow Court,Cliveden Road,Taplow,S G I UK International,Retailers - other,4613,5,,8751,5,,51.53140300000000,03240/2026/2/000,024,envhealth@southbucks.gov.uk,South Buckinghamshire,http://www.southbucks.gov.uk,-0.69431900000000,SL6 0ER,2014-10-21,fhrs_4_en-GB,4,,FHRS,10
255373,Italy House,1 - 3 Bakery Court,London End,Beaconsfield,Sacla UK Ltd,Importers/Exporters,14,,,28314,,,51.61274400000000,08840/0021/0/000,024,envhealth@southbucks.gov.uk,South Buckinghamshire,http://www.southbucks.gov.uk,-0.64903400000000,HP9 2FN,2013-03-27,fhrs_exempt_en-GB,Exempt,,FHRS,
255374,Premium House,3 The Broadway,Beaconsfield Road,Farnham Common,Sainsburys Local,Retailers - other,4613,5,,22250,5,,51.55515800000000,07/00157/SUPER,024,envhealth@southbucks.gov.uk,South Buckinghamshire,http://www.southbucks.gov.uk,-0.61570400000000,SL2 3PQ,2014-01-21,fhrs_5_en-GB,5,,FHRS,5
255375,Sainsburys Local Ltd,21 - 25 Packhorse Road,Gerrards Cross,Buckinghamshire,Sainsbury's Local,Retailers - supermarkets/hypermarkets,7840,0,,492509,5,,51.58697900000000,12/00053/SUPER,024,envhealth@southbucks.gov.uk,South Buckinghamshire,http://www.southbucks.gov.uk,-0.55509300000000,SL9 7QA,2012-12-10,fhrs_5_en-GB,5,,FHRS,0
255376,Sainsburys,Lake End Road,Burnham,Buckinghamshire,Sainsburys Supermarket,Retailers - other,4613,5,,27872,5,,51.52049100000000,08260/2007/2/000,024,envhealth@southbucks.gov.uk,South Buckinghamshire,http://www.southbucks.gov.uk,-0.66906100000000,SL6 0QH,2013-07-30,fhrs_5_en-GB,5,,FHRS,5
255377,Sainsburys,Maxwell Road,Beaconsfield,Buckinghamshire,Sainsburys Supermarkets Ltd,Retailers - other,4613,5,,32462,5,,51.60958300000000,09650/2003/2/000,024,envhealth@southbucks.gov.uk,South Buckinghamshire,http://www.southbucks.gov.uk,-0.64317800000000,HP9 1QH,2014-01-17,fhrs_5_en-GB,5,,FHRS,5
255378,Mumbai Spice,3 Burkes Court,Station Road,Beaconsfield,Sajna,Takeaway/sandwich shop,7844,5,,621425,5,,51.60992500000000,13/00039/REST,024,envhealth@southbucks.gov.uk,South Buckinghamshire,http://www.southbucks.gov.uk,-0.64553600000000,HP9 1QR,2013-12-11,fhrs_5_en-GB,5,,FHRS,5
255379,Centenary Lodge,Black Park Country Park,Black Park Road,Wexham,San Remo Cafe,Other catering premises,7841,0,,5105,5,,51.53569500000000,01550/4012/3/CEN,024,envhealth@southbucks.gov.uk,South Buckinghamshire,http://www.southbucks.gov.uk,-0.55273800000000,SL3 6DR,2015-01-09,fhrs_5_en-GB,5,,FHRS,5
255380,7 Sawmill Cottages,Black Park Road,Wexham,Buckinghamshire,San Remo Catering (Outdoors) Ltd,Restaurant/Cafe/Canteen,1,5,,33821,5,,51.53618500000000,10/00068/MOBILE,024,envhealth@southbucks.gov.uk,South Buckinghamshire,http://www.southbucks.gov.uk,-0.55087700000000,SL3 6DS,2015-01-09,fhrs_5_en-GB,5,,FHRS,5
255381,Public Car Park,Black Park Country Park,Black Park Road,Wexham,San Remo Catering At Black Park,Other catering premises,7841,5,,32762,5,,,10/00004/CAFE,024,envhealth@southbucks.gov.uk,South Buckinghamshire,http://www.southbucks.gov.uk,,,2015-01-09,fhrs_5_en-GB,5,,FHRS,5
255382,Langley Park Visitors Resource Buil,Billet Lane,Iver,Buckinghamshire,San Remo Catering At Langley Park Ltd,Other catering premises,7841,5,,33851,5,,51.53287000000000,10/00070/REST,024,envhealth@southbucks.gov.uk,South Buckinghamshire,http://www.southbucks.gov.uk,-0.53735700000000,SL0 0LS,2015-01-09,fhrs_5_en-GB,5,,FHRS,0
255383,7 Sawmill Cottages,Black Park Road,Wexham,Buckinghamshire,"San Remo Catering, KY07XGE,KN09QVE,KLF954,KN05XPH,DK13BSV,KL",Mobile caterer,7846,5,,408173,5,,51.53618500000000,12/00030/CATR,024,envhealth@southbucks.gov.uk,South Buckinghamshire,http://www.southbucks.gov.uk,-0.55087700000000,SL3 6DS,2014-11-03,fhrs_5_en-GB,5,,FHRS,5
255384,Hillmotts Farm House,Hedgerley Lane,Hedgerley,Buckinghamshire,Sanctum Beaconsfield Ltd,Restaurant/Cafe/Canteen,1,5,,616338,5,,51.58972900000000,13/00030/REST,024,envhealth@southbucks.gov.uk,South Buckinghamshire,http://www.southbucks.gov.uk,-0.61768500000000,HP9 2SB,2013-11-08,fhrs_5_en-GB,5,,FHRS,5
255385,George Green Post Office,Uxbridge Road,George Green,Wexham,Sanghas Stores,Retailers - other,4613,10,,70408,10,,51.52167400000000,15990/2020/2/000,024,envhealth@southbucks.gov.uk,South Buckinghamshire,http://www.southbucks.gov.uk,-0.56204700000000,SL3 6AT,2014-01-20,fhrs_3_en-GB,3,,FHRS,10
255386,Walpole House,22 West Common,Gerrards Cross,Buckinghamshire,Sant Alberto,Importers/Exporters,14,,,25156,,,51.58805400000000,08/00049/FMANU,024,envhealth@southbucks.gov.uk,South Buckinghamshire,http://www.southbucks.gov.uk,-0.56066000000000,SL9 7QS,2012-03-23,fhrs_exempt_en-GB,Exempt,,FHRS,
255387,,,,,Sarah Meats,Other catering premises,7841,5,,23939,10,,,07130/0003/0/000,024,envhealth@southbucks.gov.uk,South Buckinghamshire,http://www.southbucks.gov.uk,,,2014-07-15,fhrs_4_en-GB,4,,FHRS,5
255388,,,,,Sarah's Cordials,Manufacturers/packers,7839,5,,681010,5,,,14/00014/FMANU,024,envhealth@southbucks.gov.uk,South Buckinghamshire,http://www.southbucks.gov.uk,,,2014-06-20,fhrs_5_en-GB,5,,FHRS,5
255389,Teikyo School,Fulmer Grange,Framewood Road,Wexham,School Catering Facilities,Other catering premises,7841,0,,16991,5,,51.55084300000000,05440/2011/2/000,024,envhealth@southbucks.gov.uk,South Buckinghamshire,http://www.southbucks.gov.uk,-0.56709900000000,SL2 4QS,2014-04-16,fhrs_5_en-GB,5,,FHRS,0
255390,Burnham Grammar School,Hogfair Lane,Burnham,Buckinghamshire,Scolarest,Other catering premises,7841,10,,24095,15,,51.53240100000000,07360/2000/2/000,024,envhealth@southbucks.gov.uk,South Buckinghamshire,http://www.southbucks.gov.uk,-0.65214900000000,SL1 7HG,2014-06-09,fhrs_2_en-GB,2,,FHRS,15
255391,22 High Street,Burnham,Buckinghamshire,,Seaworld Fish Restaurant,Other catering premises,7841,5,,23836,5,,51.53298200000000,07050/0022/0/000,024,envhealth@southbucks.gov.uk,South Buckinghamshire,http://www.southbucks.gov.uk,-0.65808600000000,SL1 7JH,2014-07-23,fhrs_5_en-GB,5,,FHRS,5
255392,,,,,Send A Cook Catering,Other catering premises,7841,10,,704722,10,,,14/00045/PRIVAT,024,envhealth@southbucks.gov.uk,South Buckinghamshire,http://www.southbucks.gov.uk,,,2014-09-03,fhrs_3_en-GB,3,,FHRS,10
255393,Wycombe End,Beaconsfield,Buckinghamshire,,Sergeant Mead Service Station,Retailers - other,4613,5,,51307,5,,51.59980300000000,11480/2006/2/000,024,envhealth@southbucks.gov.uk,South Buckinghamshire,http://www.southbucks.gov.uk,-0.64497100000000,HP9 1XA,2014-09-01,fhrs_5_en-GB,5,,FHRS,5
255394,Robert Bosch Ltd,Broadwater Park,North Orbital Road,Denham Green,Servest Catering Shared Services,Other catering premises,7841,10,,44397,10,,51.58309600000000,10770/2003/3/001,024,envhealth@southbucks.gov.uk,South Buckinghamshire,http://www.southbucks.gov.uk,-0.49654400000000,UB9 5HJ,2014-09-17,fhrs_2_en-GB,2,,FHRS,15
255395,Sheesh Mahal Restaurant,18 High Street,Iver,Buckinghamshire,Sheesh Mahal,Other catering premises,7841,10,,23897,10,,51.52036400000000,07080/0018/0/000,024,envhealth@southbucks.gov.uk,South Buckinghamshire,http://www.southbucks.gov.uk,-0.50539900000000,SL0 9NG,2013-09-09,fhrs_3_en-GB,3,,FHRS,10
255396,Shell Petrol Station,Beaconsfield Services,Windsor Road,Beaconsfield,Shell,Takeaway/sandwich shop,7844,5,,29285,5,,51.58743800000000,09/00068/PETROL,024,envhealth@southbucks.gov.uk,South Buckinghamshire,http://www.southbucks.gov.uk,-0.62787300000000,HP9 2SE,2014-10-09,fhrs_5_en-GB,5,,FHRS,5
255397,Shell UK,Bath Road,Taplow,Buckinghamshire,Shell UK Ltd,Retailers - other,4613,0,,2534,5,,51.52304100000000,00980/2053/2/000,024,envhealth@southbucks.gov.uk,South Buckinghamshire,http://www.southbucks.gov.uk,-0.69516300000000,SL6 0AP,2013-03-27,fhrs_5_en-GB,5,,FHRS,0
255398,Siemens Financial Services Ltd,Building D,Sefton Park,Bells Hill,Siemens Financial Systems,Restaurant/Cafe/Canteen,1,0,,643553,0,,51.54796600000000,01290/2003/2/000,024,envhealth@southbucks.gov.uk,South Buckinghamshire,http://www.southbucks.gov.uk,-0.58272200000000,SL2 4JS,2014-03-18,fhrs_4_en-GB,4,,FHRS,10
255399,Silchester Manor Day Nursery,Bath Road,Taplow,Buckinghamshire,Silchester Manor Day Nursery Ltd,Other catering premises,7841,10,,2531,10,,51.52304100000000,00980/2036/2/000,024,envhealth@southbucks.gov.uk,South Buckinghamshire,http://www.southbucks.gov.uk,-0.69516300000000,SL6 0AP,2014-04-15,fhrs_3_en-GB,3,,FHRS,5
255400,Stoke Green,Stoke Poges,Buckinghamshire,,Sistine Manor,Other catering premises,7841,5,,65090,0,,51.53167500000000,14580/2004/2/000,024,envhealth@southbucks.gov.uk,South Buckinghamshire,http://www.southbucks.gov.uk,-0.58291100000000,SL2 4HN,2014-06-06,fhrs_5_en-GB,5,,FHRS,0
255401,Gryf,Polish Club,Church Lane,Stoke Poges,Slough Polish Association,Other catering premises,7841,10,,8552,5,,51.53383900000000,03020/2022/2/000,024,envhealth@southbucks.gov.uk,South Buckinghamshire,http://www.southbucks.gov.uk,-0.59158100000000,SL2 4NZ,2012-12-13,fhrs_4_en-GB,4,,FHRS,0
255402,Slough And District Post Office Clu,Beaconsfield Road,Farnham Royal,Buckinghamshire,Slough Town Youth Football Club,Other catering premises,7841,10,,4444,5,,51.54545300000000,01110/2041/2/000,024,envhealth@southbucks.gov.uk,South Buckinghamshire,http://www.southbucks.gov.uk,-0.61546500000000,SL2 3BU,2014-07-14,fhrs_4_en-GB,4,,FHRS,5
255403,13 The Broadway,Penn Road,Beaconsfield,Buckinghamshire,Smart School Of Cookery,Other catering premises,7841,5,,552263,5,,51.61306400000000,13/00010/CATR,024,envhealth@southbucks.gov.uk,South Buckinghamshire,http://www.southbucks.gov.uk,-0.64713300000000,HP9 2PD,2013-05-23,fhrs_5_en-GB,5,,FHRS,0
255404,4 The Broadway,Penn Road,Beaconsfield,Buckinghamshire,Smiles Fish And Chips Ltd,Other catering premises,7841,5,,52705,5,,51.61306400000000,11930/0004/0/000,024,envhealth@southbucks.gov.uk,South Buckinghamshire,http://www.southbucks.gov.uk,-0.64713300000000,HP9 2PD,2015-02-11,fhrs_5_en-GB,5,,FHRS,5
255405,The Spice Merchants,33 London End,Beaconsfield,Buckinghamshire,Spice Merchant,Other catering premises,7841,5,,28317,5,,51.60236200000000,08840/0033/0/000,024,envhealth@southbucks.gov.uk,South Buckinghamshire,http://www.southbucks.gov.uk,-0.63382000000000,HP9 2HW,2015-02-02,fhrs_5_en-GB,5,,FHRS,5
255406,Spire Thames Valley,Wexham Street,Wexham,Buckinghamshire,SPIRE Thames Valley Hospital Ltd,Other catering premises,7841,5,,73399,10,,51.54278800000000,16860/2000/2/000,024,envhealth@southbucks.gov.uk,South Buckinghamshire,http://www.southbucks.gov.uk,-0.57242800000000,SL3 6NH,2014-08-11,fhrs_4_en-GB,4,,FHRS,0
255407,Squirrels Health Food Shop,65 High Street,Burnham,Buckinghamshire,Squirrels Of Burnham Ltd,Retailers - other,4613,5,,23840,10,,51.53402300000000,07050/0065/0/000,024,envhealth@southbucks.gov.uk,South Buckinghamshire,http://www.southbucks.gov.uk,-0.65874700000000,SL1 7JX,2013-02-28,fhrs_3_en-GB,3,,FHRS,10
255408,Rogers Lane,Stoke Poges,Buckinghamshire,,St Andrews Church Centre,Other catering premises,7841,10,,57182,10,,51.54781100000000,12900/2001/2/000,024,envhealth@southbucks.gov.uk,South Buckinghamshire,http://www.southbucks.gov.uk,-0.58698100000000,SL2 4LN,2013-07-19,fhrs_3_en-GB,3,,FHRS,10
255409,St Andrews Church Centre,Rogers Lane,Stoke Poges,Buckinghamshire,St Andrews Coffee Shop,Other catering premises,7841,0,,21566,5,,51.54781100000000,07/00037/VHALLC,024,envhealth@southbucks.gov.uk,South Buckinghamshire,http://www.southbucks.gov.uk,-0.58698100000000,SL2 4LN,2012-01-19,fhrs_5_en-GB,5,,FHRS,0
255410,St James Church,Oxford Road,Gerrards Cross,Buckinghamshire,St James Centre Kitchen,Other catering premises,7841,10,,17521,10,,51.58203800000000,06/00006/CATR,024,envhealth@southbucks.gov.uk,South Buckinghamshire,http://www.southbucks.gov.uk,-0.55773200000000,SL9 7DJ,2014-08-07,fhrs_3_en-GB,3,,FHRS,5
255411,St Marks Church Hall,Green Tiles Lane,Denham Green,Denham,St Marks Church Hall Management Committee,Other catering premises,7841,0,,29014,0,,51.58279600000000,09/00045/HELA,024,envhealth@southbucks.gov.uk,South Buckinghamshire,http://www.southbucks.gov.uk,-0.50120100000000,UB9 5HT,2011-05-27,fhrs_5_en-GB,5,,FHRS,0
255412,Taplow Village Centre,High Street,Taplow,Buckinghamshire,St Nicholas Playgroup,School/college/university,7845,5,,24732,5,,51.53242000000000,08/00007/NURSER,024,envhealth@southbucks.gov.uk,South Buckinghamshire,http://www.southbucks.gov.uk,-0.68712400000000,SL6 0EX,2014-08-11,fhrs_5_en-GB,5,,FHRS,5
255413,St Marys School,94 Packhorse Road,Gerrards Cross,Buckinghamshire,St. Marys School,Other catering premises,7841,5,,51714,15,,51.59334600000000,11600/2000/2/000,024,envhealth@southbucks.gov.uk,South Buckinghamshire,http://www.southbucks.gov.uk,-0.55227800000000,SL9 8JQ,2014-06-13,fhrs_2_en-GB,2,,FHRS,15
255414,St Thomas Church,Mayflower Way,Beaconsfield,Buckinghamshire,St. Thomas Hall,Other catering premises,7841,5,,32517,5,,51.60101800000000,09690/2000/2/000,024,envhealth@southbucks.gov.uk,South Buckinghamshire,http://www.southbucks.gov.uk,-0.66783500000000,HP9 1UF,2013-03-21,fhrs_5_en-GB,5,,FHRS,5
255415,Sainsburys,Lake End Road,Burnham,Buckinghamshire,Starbucks,Other catering premises,7841,5,,27873,5,,51.52049100000000,08260/2007/3/001,024,envhealth@southbucks.gov.uk,South Buckinghamshire,http://www.southbucks.gov.uk,-0.66906100000000,SL6 0QH,2014-02-12,fhrs_4_en-GB,4,,FHRS,10
255416,Sainsburys,Maxwell Road,Beaconsfield,Buckinghamshire,Starbucks,Other catering premises,7841,5,,32464,5,,51.60958300000000,09650/2003/3/001,024,envhealth@southbucks.gov.uk,South Buckinghamshire,http://www.southbucks.gov.uk,-0.64317800000000,HP9 1QH,2014-07-11,fhrs_4_en-GB,4,,FHRS,10
255417,Unit 1,Beaconsfield Services,Windsor Road,Beaconsfield,Starbucks,Takeaway/sandwich shop,7844,5,,28690,5,,51.58743800000000,09/00019/CAFE,024,envhealth@southbucks.gov.uk,South Buckinghamshire,http://www.southbucks.gov.uk,-0.62787300000000,HP9 2SE,2013-06-25,fhrs_5_en-GB,5,,FHRS,5
255418,3 Warwick Road,Beaconsfield,Buckinghamshire,,Stix Bar,Other catering premises,7841,10,,72094,10,,51.61279700000000,16400/0003/2/000,024,envhealth@southbucks.gov.uk,South Buckinghamshire,http://www.southbucks.gov.uk,-0.64587000000000,HP9 2PE,2014-01-03,fhrs_3_en-GB,3,,FHRS,10
255419,10 Station Parade,Denham Green,Buckinghamshire,,Stobys Fish And Grill,Takeaway/sandwich shop,7844,20,,451449,20,,51.57977300000000,12/00033/REST,024,envhealth@southbucks.gov.uk,South Buckinghamshire,http://www.southbucks.gov.uk,-0.49965500000000,UB9 5ET,2014-01-09,fhrs_1_en-GB,1,,FHRS,10
255420,37 High Street,Iver,Buckinghamshire,,Stobys Of Iver,Other catering premises,7841,10,,23903,10,,51.52003300000000,07080/0037/0/000,024,envhealth@southbucks.gov.uk,South Buckinghamshire,http://www.southbucks.gov.uk,-0.50555400000000,SL0 9ND,2014-12-04,fhrs_3_en-GB,3,,FHRS,10
255421,The Cricket Club,Stoke Green,Stoke Poges,Buckinghamshire,Stoke Green Cricket Club,Other catering premises,7841,5,,65091,5,,51.84089660644531,14580/2009/2/000,024,envhealth@southbucks.gov.uk,South Buckinghamshire,http://www.southbucks.gov.uk,-0.80866497755051,SL2 4HT,2012-08-17,fhrs_5_en-GB,5,,FHRS,5
255422,Stoke Park Golf Club,Park Road,Stoke Poges,Buckinghamshire,Stoke Park Limited,Other catering premises,7841,5,,52178,5,,51.53831400000000,11750/2075/2/000,024,envhealth@southbucks.gov.uk,South Buckinghamshire,http://www.southbucks.gov.uk,-0.59582600000000,SL2 4PG,2015-02-04,fhrs_5_en-GB,5,,FHRS,5
255423,225 - 227 Northern Road,Slough,Buckinghamshire,,Stoke Park Trust Disabled Sports Association,Other catering premises,7841,10,,44245,10,,51.52810800000000,10740/2252/0/000,024,envhealth@southbucks.gov.uk,South Buckinghamshire,http://www.southbucks.gov.uk,-0.59964300000000,SL2 1LU,2013-03-20,fhrs_3_en-GB,3,,FHRS,10
255424,Stoke Green,Stoke Poges,Buckinghamshire,,Stoke Place,Other catering premises,7841,5,,65092,5,,51.53065200000000,14580/2012/2/000,024,envhealth@southbucks.gov.uk,South Buckinghamshire,http://www.southbucks.gov.uk,-0.58085200000000,SL2 4HT,2013-12-09,fhrs_4_en-GB,4,,FHRS,10
255425,Unit 1,Giles House,Bells Hill Green,Stoke Poges,Stoke Poges Post Office,Retailers - other,4613,10,,46243,10,,51.54932500000000,11/00054/CONFEC,024,envhealth@southbucks.gov.uk,South Buckinghamshire,http://www.southbucks.gov.uk,-0.58575200000000,SL2 4EW,2013-10-30,fhrs_3_en-GB,3,,FHRS,10
255426,Stoke Poges Village Centre,129 Rogers Lane,Stoke Poges,Buckinghamshire,Stoke Poges Village Hall Charitable Trust,Other catering premises,7841,5,,57181,10,,51.54860000000000,12900/0129/2/000,024,envhealth@southbucks.gov.uk,South Buckinghamshire,http://www.southbucks.gov.uk,-0.58754800000000,SL2 4LP,2013-11-28,fhrs_3_en-GB,3,,FHRS,10
255427,Mrs Crustys,2A Station Road,Gerrards Cross,Buckinghamshire,Stratton Bakery,Takeaway/sandwich shop,7844,10,,502593,15,,51.58821400000000,13/00005/BAKER,024,envhealth@southbucks.gov.uk,South Buckinghamshire,http://www.southbucks.gov.uk,-0.55176200000000,SL9 8EL,2014-06-16,fhrs_2_en-GB,2,,FHRS,5
255428,192 Maxwell Road,Beaconsfield,Buckinghamshire,,Subway,Other catering premises,7841,5,,25378,10,,51.61036600000000,08/00077/CAFE,024,envhealth@southbucks.gov.uk,South Buckinghamshire,http://www.southbucks.gov.uk,-0.64481500000000,HP9 1QU,2014-03-04,fhrs_4_en-GB,4,,FHRS,5
255429,38B Packhorse Road,Gerrards Cross,Buckinghamshire,,Subway,Other catering premises,7841,5,,25342,10,,51.58852300000000,08/00071/TKAWAY,024,envhealth@southbucks.gov.uk,South Buckinghamshire,http://www.southbucks.gov.uk,-0.55269100000000,SL9 8EB,2014-06-19,fhrs_3_en-GB,3,,FHRS,10
255430,30 Station Parade,Denham Green,Buckinghamshire,,Sukanya Thai Cuisine,Other catering premises,7841,5,,64564,10,,51.57977300000000,14370/0030/0/000,024,envhealth@southbucks.gov.uk,South Buckinghamshire,http://www.southbucks.gov.uk,-0.49965500000000,UB9 5ET,2014-03-19,fhrs_3_en-GB,3,,FHRS,10
255431,140 High Street,Iver,Buckinghamshire,,Sunnyside Nursing Home,Other catering premises,7841,0,,23906,5,,51.52109900000000,07080/0140/2/000,024,envhealth@southbucks.gov.uk,South Buckinghamshire,http://www.southbucks.gov.uk,-0.51373500000000,SL0 9QA,2014-05-01,fhrs_5_en-GB,5,,FHRS,0
255432,Iver Village Infant School,Grange Way,Iver,Buckinghamshire,Sunrise And Sunset Club,School/college/university,7845,10,,511217,10,,51.51848300000000,12/00058/EDUCAT,024,envhealth@southbucks.gov.uk,South Buckinghamshire,http://www.southbucks.gov.uk,-0.50886200000000,SL0 9NT,2014-07-23,fhrs_3_en-GB,3,,FHRS,10
255433,Sunrise Care Home,30 - 34 Station Road,Beaconsfield,Buckinghamshire,Sunrise Senior Living,Hospitals/Childcare/Caring Premises,5,5,,25523,5,,51.60708900000000,08/00094/RESIDN,024,envhealth@southbucks.gov.uk,South Buckinghamshire,http://www.southbucks.gov.uk,-0.64206800000000,HP9 1AB,2014-03-05,fhrs_5_en-GB,5,,FHRS,5
255434,Stoke Poges Village Centre,129 Rogers Lane,Stoke Poges,Buckinghamshire,Sunshire Corner Pre School,Other catering premises,7841,5,,18230,5,,51.54860000000000,06/00090/NURSER,024,envhealth@southbucks.gov.uk,South Buckinghamshire,http://www.southbucks.gov.uk,-0.58754800000000,SL2 4LP,2013-08-07,fhrs_4_en-GB,4,,FHRS,10
255435,,,,,Suzannahs Cakes,Manufacturers/packers,7839,10,,45512,10,,,11/00011/PRIVAT,024,envhealth@southbucks.gov.uk,South Buckinghamshire,http://www.southbucks.gov.uk,,,2012-08-28,fhrs_2_en-GB,2,,FHRS,15
255436,Swarthmore Residential Home,31 Marsham Lane,Gerrards Cross,Buckinghamshire,Swarthmore Housing Society Ltd,Other catering premises,7841,5,,32386,5,,51.58864700000000,09540/2025/2/000,024,envhealth@southbucks.gov.uk,South Buckinghamshire,http://www.southbucks.gov.uk,-0.54749000000000,SL9 8HB,2015-01-14,fhrs_5_en-GB,5,,FHRS,5
255437,,,,,Sweet Jane,Other catering premises,7841,5,,605658,5,,,13/00044/PRIVAT,024,envhealth@southbucks.gov.uk,South Buckinghamshire,http://www.southbucks.gov.uk,,,2013-10-17,fhrs_4_en-GB,4,,FHRS,10
255438,TK Maxx,Unit,2 The Bishop Centre,Bath Road,T K Maxx,Retailers - other,4613,5,,735057,5,,51.52262900000000,14/00064/RETAIL,024,envhealth@southbucks.gov.uk,South Buckinghamshire,http://www.southbucks.gov.uk,-0.67684000000000,SL6 0NX,2015-02-05,fhrs_5_en-GB,5,,FHRS,0
255439,Servier Laboratories Ltd,Rowley Building,Wexham Springs,Framewood Road,Talkington Bates,Restaurant/Cafe/Canteen,1,10,,462955,10,,51.54791500000000,06/00008/REST,024,envhealth@southbucks.gov.uk,South Buckinghamshire,http://www.southbucks.gov.uk,-0.56665700000000,SL3 6PJ,2014-03-12,fhrs_3_en-GB,3,,FHRS,10
255440,Cliveden Road,Taplow,Buckinghamshire,,Taplow Cricket Club,Other catering premises,7841,5,,8755,5,,51.53126800000000,03240/4112/3/BUN,024,envhealth@southbucks.gov.uk,South Buckinghamshire,http://www.southbucks.gov.uk,-0.69266500000000,SL6 0EP,2013-10-22,fhrs_5_en-GB,5,,FHRS,5
255441,Berry Hill,Taplow,Buckinghamshire,,Taplow House Hotel,Other catering premises,7841,5,,18152,5,,51.52813300000000,06/00078/HOTEL,024,envhealth@southbucks.gov.uk,South Buckinghamshire,http://www.southbucks.gov.uk,-0.69217800000000,SL6 0DA,2014-10-08,fhrs_5_en-GB,5,,FHRS,5
255442,High Street,Taplow,Buckinghamshire,,Taplow Village Centre,Other catering premises,7841,5,,23942,5,,51.53242000000000,07130/2014/2/000,024,envhealth@southbucks.gov.uk,South Buckinghamshire,http://www.southbucks.gov.uk,-0.68712400000000,SL6 0EX,2013-03-07,fhrs_5_en-GB,5,,FHRS,5
255443,1 Eastfield Road,Burnham,Buckinghamshire,,Tawanas Supermarket,Retailers - other,4613,5,,13982,10,,51.52646500000000,04570/0001/0/000,024,envhealth@southbucks.gov.uk,South Buckinghamshire,http://www.southbucks.gov.uk,-0.66857000000000,SL1 7EH,2014-04-09,fhrs_4_en-GB,4,,FHRS,5
255444,Service Station,102 Lent Rise Road,Burnham,Buckinghamshire,TCS Lent Rise,Retailers - other,4613,5,,28126,10,,51.52808700000000,08610/0102/2/000,024,envhealth@southbucks.gov.uk,South Buckinghamshire,http://www.southbucks.gov.uk,-0.66653300000000,SL1 7BH,2013-11-11,fhrs_4_en-GB,4,,FHRS,5
255445,,,,,Tea By Two (Stoke Poges),Other catering premises,7841,5,,681009,10,,,13/00047/PRIVAT,024,envhealth@southbucks.gov.uk,South Buckinghamshire,http://www.southbucks.gov.uk,,,2013-10-09,fhrs_3_en-GB,3,,FHRS,10
255446,The George,20 High Street,Burnham,Buckinghamshire,Temptations,Mobile caterer,7846,5,,696350,5,,51.53298200000000,14/00038/MOBILE,024,envhealth@southbucks.gov.uk,South Buckinghamshire,http://www.southbucks.gov.uk,-0.65808600000000,SL1 7JH,2014-08-11,fhrs_5_en-GB,5,,FHRS,5
255447,18 Southlands Road,Denham,Buckinghamshire,,Tendercare Nurseries Ltd,Restaurant/Cafe/Canteen,1,0,,535944,5,,51.56407300000000,13830/0043/0/000,024,envhealth@southbucks.gov.uk,South Buckinghamshire,http://www.southbucks.gov.uk,-0.50321600000000,UB9 4HD,2013-03-26,fhrs_5_en-GB,5,,FHRS,5
255448,60 - 62 High Street,Burnham,Buckinghamshire,,Tesco Express,Retailers - other,4613,0,,23854,0,,51.53392100000000,07050/6062/0/000,024,envhealth@southbucks.gov.uk,South Buckinghamshire,http://www.southbucks.gov.uk,-0.65844800000000,SL1 7JP,2012-08-14,fhrs_5_en-GB,5,,FHRS,5
255449,Tesco,Packhorse Road,Gerrards Cross,Buckinghamshire,Tesco Stores Limited,Retailers - supermarkets/hypermarkets,7840,5,,33802,10,,51.58728200000000,10/00067/SUPER,024,envhealth@southbucks.gov.uk,South Buckinghamshire,http://www.southbucks.gov.uk,-0.54977100000000,SL9 8ER,2013-03-27,fhrs_4_en-GB,4,,FHRS,5
255450,Tesco,The Bishop Centre,Bath Road,Taplow,Tesco Stores Limited,Retailers - supermarkets/hypermarkets,7840,5,,735053,5,,51.52262900000000,14/00044/SUPER,024,envhealth@southbucks.gov.uk,South Buckinghamshire,http://www.southbucks.gov.uk,-0.67684000000000,SL6 0NX,2015-02-10,fhrs_5_en-GB,5,,FHRS,5
255451,Tesco Store Ltd,Capital House,The Broadway,Beaconsfield Road,Tesco Stores Limited,Retailers - other,4613,5,,21760,5,,51.55515800000000,07/00063/SUPER,024,envhealth@southbucks.gov.uk,South Buckinghamshire,http://www.southbucks.gov.uk,-0.61570400000000,SL2 3PQ,2014-01-21,fhrs_5_en-GB,5,,FHRS,5
255452,Esso Teso Express Garage,4 - 6 Uxbridge Road,Iver Heath,Buckinghamshire,Tescos Express,Retailers - other,4613,5,,70818,5,,51.53466700000000,16000/2013/2/000,024,envhealth@southbucks.gov.uk,South Buckinghamshire,http://www.southbucks.gov.uk,-0.53226800000000,SL0 0LR,2013-03-21,fhrs_5_en-GB,5,,FHRS,5
255453,18 Oak End Way,Gerrards Cross,Buckinghamshire,,Thai Rack,Other catering premises,7841,5,,44991,5,,51.58863200000000,10910/0018/0/000,024,envhealth@southbucks.gov.uk,South Buckinghamshire,http://www.southbucks.gov.uk,-0.55062300000000,SL9 8BR,2013-07-04,fhrs_4_en-GB,4,,FHRS,10
255454,Memories Of India,Ashley House,6 The Broadway,Beaconsfield Road,Thai Restaurant,Restaurant/Cafe/Canteen,1,,,33887,,,51.55515800000000,10/00072/REST,024,envhealth@southbucks.gov.uk,South Buckinghamshire,http://www.southbucks.gov.uk,-0.61570400000000,SL2 3PQ,2014-01-20,fhrs_4_en-GB,4,,FHRS,
255455,Bath Road,Taplow,Buckinghamshire,,Thames Valley Adventure Playground,Other catering premises,7841,0,,2535,5,,51.52146500000000,00980/2054/2/000,024,envhealth@southbucks.gov.uk,South Buckinghamshire,http://www.southbucks.gov.uk,-0.69007700000000,SL6 0EF,2015-01-30,fhrs_5_en-GB,5,,FHRS,5
255456,Oxford Road,Gerrards Cross,Buckinghamshire,,The Apple Tree,Other catering premises,7841,5,,51505,5,,51.57920500000000,11540/2072/2/000,024,envhealth@southbucks.gov.uk,South Buckinghamshire,http://www.southbucks.gov.uk,-0.55251100000000,SL9 7AH,2014-01-07,fhrs_5_en-GB,5,,FHRS,5
255457,Anchor Trust Bar,Denham Garden Village,Denham Green Lane,Denham,The Bar And Restaurant,Other catering premises,7841,10,,13437,10,,51.58518900000000,04090/0100/3/001,024,envhealth@southbucks.gov.uk,South Buckinghamshire,http://www.southbucks.gov.uk,-0.50268200000000,UB9 5LB,2014-09-19,fhrs_3_en-GB,3,,FHRS,10
255458,Wattleton Road,Beaconsfield,Buckinghamshire,,The Beaconsfield School,Other catering premises,7841,10,,72595,5,,51.60292500000000,16540/2001/2/000,024,envhealth@southbucks.gov.uk,South Buckinghamshire,http://www.southbucks.gov.uk,-0.64051700000000,HP9 1SJ,2014-01-13,fhrs_4_en-GB,4,,FHRS,5
255459,1 Britwell Road,Burnham,Buckinghamshire,,The Bee,Other catering premises,7841,10,,5640,10,,51.53584700000000,01990/0001/0/000,024,envhealth@southbucks.gov.uk,South Buckinghamshire,http://www.southbucks.gov.uk,-0.65784300000000,SL1 8AF,2014-07-21,fhrs_3_en-GB,3,,FHRS,10
255460,17 Penn Road,Beaconsfield,Buckinghamshire,,The Beech House,Restaurant/Cafe/Canteen,1,10,,552264,10,,51.61303900000000,13/00017/REST,024,envhealth@southbucks.gov.uk,South Buckinghamshire,http://www.southbucks.gov.uk,-0.64810100000000,HP9 2PN,2014-10-21,fhrs_3_en-GB,3,,FHRS,5
255461,New Kiosk At,Lord Mayors Drive,Burnham Beeches,Burnham,The Beeches Cafe,Other catering premises,7841,10,,22179,15,,51.55215200000000,07/00138/CAFE,024,envhealth@southbucks.gov.uk,South Buckinghamshire,http://www.southbucks.gov.uk,-0.63480700000000,,2014-08-15,fhrs_2_en-GB,2,,FHRS,15
255462,Fulmer Village Hall,Windmill Road,Fulmer,Buckinghamshire,The Beehive And Honeycomb Nursery,Other catering premises,7841,5,,18256,5,,51.56224900000000,06/00093/NURSER,024,envhealth@southbucks.gov.uk,South Buckinghamshire,http://www.southbucks.gov.uk,-0.55719000000000,SL3 6HN,2011-06-27,fhrs_5_en-GB,5,,FHRS,5
255463,Windmill Road,Fulmer,Buckinghamshire,,The Black Horse,Other catering premises,7841,,,74938,,,51.56077200000000,17390/2003/2/000,024,envhealth@southbucks.gov.uk,South Buckinghamshire,http://www.southbucks.gov.uk,-0.56137700000000,SL3 6HD,2015-01-26,fhrs_4_en-GB,4,,FHRS,
255464,Blackwood Arms,Common Lane,Littleworth Common,Burnham,The Blackwood Arms,Other catering premises,7841,10,,8894,5,,51.56597600000000,03410/2012/2/000,024,envhealth@southbucks.gov.uk,South Buckinghamshire,http://www.southbucks.gov.uk,-0.65049300000000,SL1 8PP,2013-01-11,fhrs_4_en-GB,4,,FHRS,5
255465,170 Lent Rise Road,Burnham,Buckinghamshire,,The Brickmakers Arms,Other catering premises,7841,20,,28128,20,,51.53032700000000,08610/0170/0/000,024,envhealth@southbucks.gov.uk,South Buckinghamshire,http://www.southbucks.gov.uk,-0.66655500000000,SL1 7BB,2014-07-08,fhrs_0_en-GB,0,,FHRS,15
255466,Fulmer Common Road,Fulmer,Buckinghamshire,,The Bridgettine Convent,Other catering premises,7841,0,,17071,0,,51.55266100000000,05530/2000/2/000,024,envhealth@southbucks.gov.uk,South Buckinghamshire,http://www.southbucks.gov.uk,-0.54242000000000,SL0 0NR,2013-03-02,fhrs_5_en-GB,5,,FHRS,0
255467,Oxford Road,Gerrards Cross,Buckinghamshire,,The Bull Hotel,Other catering premises,7841,5,,51510,5,,51.58701400000000,11540/2085/2/000,024,envhealth@southbucks.gov.uk,South Buckinghamshire,http://www.southbucks.gov.uk,-0.56381000000000,SL9 7PA,2014-04-16,fhrs_5_en-GB,5,,FHRS,5
255468,7 High Street,Iver,Buckinghamshire,,The Bull Inn,Other catering premises,7841,10,,23896,10,,51.52003300000000,07080/0007/2/000,024,envhealth@southbucks.gov.uk,South Buckinghamshire,http://www.southbucks.gov.uk,-0.50555400000000,SL0 9ND,2014-03-14,fhrs_3_en-GB,3,,FHRS,10
255469,Farlows Lake,Ford Lane,Iver,Buckinghamshire,The Cafe,Other catering premises,7841,5,,681013,5,,51.51811900000000,14/00027/CATR,024,envhealth@southbucks.gov.uk,South Buckinghamshire,http://www.southbucks.gov.uk,-0.49511000000000,SL0 9LL,2014-03-13,fhrs_5_en-GB,5,,FHRS,5
255470,31 High Street,Burnham,Buckinghamshire,,The Cake Collection,Retailers - other,4613,5,,23838,5,,51.53277000000000,07050/0031/0/000,024,envhealth@southbucks.gov.uk,South Buckinghamshire,http://www.southbucks.gov.uk,-0.65842400000000,SL1 7JD,2012-05-02,fhrs_5_en-GB,5,,FHRS,5
255471,,,,,The Cakery,Other catering premises,7841,5,,605654,5,,,13/00040/PRIVAT,024,envhealth@southbucks.gov.uk,South Buckinghamshire,http://www.southbucks.gov.uk,,,2013-10-11,fhrs_4_en-GB,4,,FHRS,10
255472,6 Burkes Parade,Station Road,Beaconsfield,Buckinghamshire,The Cape Grand Cafe,Other catering premises,7841,,,22229,,,51.61079600000000,07/00151/CAFE,024,envhealth@southbucks.gov.uk,South Buckinghamshire,http://www.southbucks.gov.uk,-0.64623200000000,HP9 1NN,2014-11-11,fhrs_2_en-GB,2,,FHRS,
255473,Kiosk 2,Beaconsfield Services,Windsor Road,Beaconsfield,The Carvery Express,Other catering premises,7841,10,,502594,10,,51.58743800000000,13/00006/TKAWAY,024,envhealth@southbucks.gov.uk,South Buckinghamshire,http://www.southbucks.gov.uk,-0.62787300000000,HP9 2SE,2014-06-16,fhrs_3_en-GB,3,,FHRS,5
255474,Woodbine Cottages,Gerrards Cross Road,Stoke Poges,Buckinghamshire,The Chocolate Libertine,Manufacturers/packers,7839,5,,28655,5,,51.55211000000000,09/00016/FMANU,024,envhealth@southbucks.gov.uk,South Buckinghamshire,http://www.southbucks.gov.uk,-0.58406400000000,SL2 4EL,2013-02-08,fhrs_4_en-GB,4,,FHRS,10
255475,Denham Aerodrome,Tilehouse Lane,Denham,Buckinghamshire,The Crew Room,Restaurant/Cafe/Canteen,1,5,,324381,5,,51.58625700000000,12/00015/CAFE,024,envhealth@southbucks.gov.uk,South Buckinghamshire,http://www.southbucks.gov.uk,-0.51101800000000,UB9 5DE,2013-07-26,fhrs_5_en-GB,5,,FHRS,5
255476,Uxbridge Road,Iver Heath,Buckinghamshire,,The Crooked Billet,Other catering premises,7841,,,70817,,,51.53479000000000,16000/2000/2/000,024,envhealth@southbucks.gov.uk,South Buckinghamshire,http://www.southbucks.gov.uk,-0.53054800000000,SL0 0LP,2014-08-04,fhrs_1_en-GB,1,,FHRS,
255477,Farnham Road,Farnham Royal,Buckinghamshire,,The Crown,Other catering premises,7841,10,,16578,10,,51.53746800000000,05110/2001/2/000,024,envhealth@southbucks.gov.uk,South Buckinghamshire,http://www.southbucks.gov.uk,-0.61696100000000,SL2 3AS,2014-03-05,fhrs_3_en-GB,3,,FHRS,10
255478,Crown Lane,Farnham Royal,Buckinghamshire,,The Crown Inn,Other catering premises,7841,,,9225,,,51.54820500000000,03830/2025/2/000,024,envhealth@southbucks.gov.uk,South Buckinghamshire,http://www.southbucks.gov.uk,-0.62316900000000,SL2 3SQ,2014-08-14,fhrs_5_en-GB,5,,FHRS,
255479,43 Maxwell Road,Beaconsfield,Buckinghamshire,,The Curzon Centre,Other catering premises,7841,5,,32458,5,,51.61063400000000,09650/2000/2/000,024,envhealth@southbucks.gov.uk,South Buckinghamshire,http://www.southbucks.gov.uk,-0.63456800000000,HP9 1RG,2013-11-11,fhrs_5_en-GB,5,,FHRS,5
255480,Dorneywood,Dorneywood Estate,Dorney Wood Road,Burnham,The Dorneywood Trust,Restaurant/Cafe/Canteen,1,5,,704720,5,,51.55501400000000,14/00036/PRIVAT,024,envhealth@southbucks.gov.uk,South Buckinghamshire,http://www.southbucks.gov.uk,-0.64729800000000,SL1 8PY,2014-09-25,fhrs_5_en-GB,5,,FHRS,5
255481,Ethorpe Hotel,85 Packhorse Road,Gerrards Cross,Buckinghamshire,The Ethorpe Hotel,Other catering premises,7841,5,,51717,5,,51.58961600000000,11600/2036/2/000,024,envhealth@southbucks.gov.uk,South Buckinghamshire,http://www.southbucks.gov.uk,-0.55239600000000,SL9 8HX,2013-10-28,fhrs_5_en-GB,5,,FHRS,5
255482,The Falcon,Village Road,Denham,Buckinghamshire,The Falcon Inn,Other catering premises,7841,5,,71417,5,,51.57270100000000,16200/2029/2/000,024,envhealth@southbucks.gov.uk,South Buckinghamshire,http://www.southbucks.gov.uk,-0.49864700000000,UB9 5BE,2014-09-24,fhrs_4_en-GB,4,,FHRS,10
255483,Cheapside Lane,Denham,Buckinghamshire,,The Fat Cow,Other catering premises,7841,20,,7174,5,,51.56857100000000,02740/2041/3/001,024,envhealth@southbucks.gov.uk,South Buckinghamshire,http://www.southbucks.gov.uk,-0.50123600000000,UB9 5AE,2015-01-08,fhrs_1_en-GB,1,,FHRS,15
255484,The Fitzwilliams Centre,Windsor End,Beaconsfield,Buckinghamshire,The Fitzwilliam Centre,Other catering premises,7841,5,,75006,5,,51.60024400000000,17410/2014/2/000,024,envhealth@southbucks.gov.uk,South Buckinghamshire,http://www.southbucks.gov.uk,-0.63646800000000,HP9 2JW,2014-08-27,fhrs_5_en-GB,5,,FHRS,5
255485,Foresters Arms,Beaconsfield Road,Farnham Common,Buckinghamshire,The Foresters,Other catering premises,7841,5,,67481,5,,51.55517800000000,15060/2022/2/000,024,envhealth@southbucks.gov.uk,South Buckinghamshire,http://www.southbucks.gov.uk,-0.61509700000000,SL2 3QQ,2013-08-01,fhrs_5_en-GB,5,,FHRS,5
255486,The Fox And Pheasant,Gerrards Cross Road,Stoke Poges,Buckinghamshire,The Fox & Pheasant,Other catering premises,7841,5,,17255,5,,51.56170600000000,05770/2005/2/000,024,envhealth@southbucks.gov.uk,South Buckinghamshire,http://www.southbucks.gov.uk,-0.58417000000000,SL2 4EZ,2014-05-14,fhrs_5_en-GB,5,,FHRS,5
255487,Farnham Common House,Beaconsfield Road,Farnham Common,Buckinghamshire,The Fremantle Trust,Hospitals/Childcare/Caring Premises,5,0,,18058,5,,51.56090200000000,06/00063/NURSH,024,envhealth@southbucks.gov.uk,South Buckinghamshire,http://www.southbucks.gov.uk,-0.61480800000000,SL2 3HU,2014-05-16,fhrs_5_en-GB,5,,FHRS,0
255488,The Gables,49 Moreland Drive,Gerrards Cross,Buckinghamshire,The Fremantle Trust,Other catering premises,7841,5,,41578,5,,51.58029800000000,10300/0049/2/000,024,envhealth@southbucks.gov.uk,South Buckinghamshire,http://www.southbucks.gov.uk,-0.54933000000000,SL9 8BD,2014-06-06,fhrs_5_en-GB,5,,FHRS,5
255489,2A Taplow Road,Burnham,Buckinghamshire,,The Full Monty,Other catering premises,7841,10,,66383,15,,51.52246400000000,14930/0002/3/00A,024,envhealth@southbucks.gov.uk,South Buckinghamshire,http://www.southbucks.gov.uk,-0.66860000000000,SL6 0JL,2014-07-09,fhrs_2_en-GB,2,,FHRS,15
255490,11-17 High Street,Burnham,Buckinghamshire,,The Garibaldi,Other catering premises,7841,5,,23850,5,,51.53208700000000,07050/1117/2/000,024,envhealth@southbucks.gov.uk,South Buckinghamshire,http://www.southbucks.gov.uk,-0.65848700000000,SL1 7JB,2014-12-04,fhrs_4_en-GB,4,,FHRS,10
255491,20 High Street,Burnham,Buckinghamshire,,The George,Other catering premises,7841,5,,23834,5,,51.53298200000000,07050/0018/0/000,024,envhealth@southbucks.gov.uk,South Buckinghamshire,http://www.southbucks.gov.uk,-0.65808600000000,SL1 7JH,2009-02-02,fhrs_5_en-GB,5,,FHRS,5
255492,Village Road,Denham,Buckinghamshire,,The Green Man,Other catering premises,7841,5,,71416,10,,51.57311400000000,16200/2028/2/000,024,envhealth@southbucks.gov.uk,South Buckinghamshire,http://www.southbucks.gov.uk,-0.49861900000000,UB9 5BH,2014-05-22,fhrs_4_en-GB,4,,FHRS,5
255493,Red Barn Farm,Amersham Road,Beaconsfield,Buckinghamshire,The Hatchery Farm Shop,Retailers - other,4613,5,,633183,5,,51.63415200000000,14/00005/FARMSH,024,envhealth@southbucks.gov.uk,South Buckinghamshire,http://www.southbucks.gov.uk,-0.62025100000000,HP7 0JY,2014-02-04,fhrs_4_en-GB,4,,FHRS,10
255494,Hughes Saab,Beaconsfield Road,Farnham Common,Buckinghamshire,The Hughes Group,Retailers - other,4613,5,,4415,5,,51.56024700000000,01100/2001/2/000,024,envhealth@southbucks.gov.uk,South Buckinghamshire,http://www.southbucks.gov.uk,-0.61488600000000,SL2 3HX,2014-03-04,fhrs_5_en-GB,5,,FHRS,5
255495,Iver Village Junior School,High Street,Iver,Buckinghamshire,The Iver Diner,School/college/university,7845,5,,324379,5,,51.52109900000000,07080/2003/2/000,024,envhealth@southbucks.gov.uk,South Buckinghamshire,http://www.southbucks.gov.uk,-0.51373500000000,SL0 9QA,2013-09-24,fhrs_5_en-GB,5,,FHRS,5
255496,Iver Inn,28 High Street,Iver,Buckinghamshire,The Iver Inn,Other catering premises,7841,20,,23900,15,,51.52036400000000,07080/0028/0/000,024,envhealth@southbucks.gov.uk,South Buckinghamshire,http://www.southbucks.gov.uk,-0.50539900000000,SL0 9NG,2014-03-31,fhrs_1_en-GB,1,,FHRS,15
255497,Jolly Woodman,Littleworth Road,Burnham,Buckinghamshire,The Jolly Woodman,Other catering premises,7841,5,,28254,10,,51.56916600000000,08780/2004/2/000,024,envhealth@southbucks.gov.uk,South Buckinghamshire,http://www.southbucks.gov.uk,-0.65426500000000,SL1 8PF,2014-09-29,fhrs_4_en-GB,4,,FHRS,5
255498,St Marys And All Saints Church Of E,Maxwell Road,Beaconsfield,Buckinghamshire,The Kiddies Academy,Hospitals/Childcare/Caring Premises,5,5,,492511,5,,51.61063400000000,12/00055/NURSER,024,envhealth@southbucks.gov.uk,South Buckinghamshire,http://www.southbucks.gov.uk,-0.63456800000000,HP9 1RG,2014-06-25,fhrs_5_en-GB,5,,FHRS,5
255499,The Kiddies Academy,Wilton Park,Gorell Road,Beaconsfield,The Kiddies Academy-Babies,Hospitals/Childcare/Caring Premises,5,10,,480057,15,,51.60305200000000,12/00025/NURSER,024,envhealth@southbucks.gov.uk,South Buckinghamshire,http://www.southbucks.gov.uk,-0.63131600000000,HP9 2WH,2014-04-23,fhrs_2_en-GB,2,,FHRS,15
255500,,,,,The Kitchen Mixer,Restaurant/Cafe/Canteen,1,5,,492510,5,,,12/00054/PRIVAT,024,envhealth@southbucks.gov.uk,South Buckinghamshire,http://www.southbucks.gov.uk,,,2014-06-12,fhrs_5_en-GB,5,,FHRS,5
255501,15 Wycombe End,Beaconsfield,Buckinghamshire,,The Old Bengal,Other catering premises,7841,5,,14597,5,,51.60135200000000,05/00025/REST,024,envhealth@southbucks.gov.uk,South Buckinghamshire,http://www.southbucks.gov.uk,-0.63974100000000,HP9 1LZ,2013-06-27,fhrs_4_en-GB,4,,FHRS,10
255502,14 Church Street,Burnham,Buckinghamshire,,The Old Five Bells,Other catering premises,7841,,,8619,,,51.53337300000000,03100/0014/0/000,024,envhealth@southbucks.gov.uk,South Buckinghamshire,http://www.southbucks.gov.uk,-0.65928600000000,SL1 7HZ,2014-04-22,fhrs_3_en-GB,3,,FHRS,
255503,7 Windsor End,Beaconsfield,Buckinghamshire,,The Old Tea House,Other catering premises,7841,5,,75003,0,,51.60093300000000,17410/0007/0/000,024,envhealth@southbucks.gov.uk,South Buckinghamshire,http://www.southbucks.gov.uk,-0.63537900000000,HP9 2JJ,2014-11-18,fhrs_5_en-GB,5,,FHRS,0
255504,The Old Town Fryer,7 London End,Beaconsfield,Buckinghamshire,The Old Town Friar,Other catering premises,7841,0,,28311,5,,51.60212800000000,08840/0007/0/000,024,envhealth@southbucks.gov.uk,South Buckinghamshire,http://www.southbucks.gov.uk,-0.63610800000000,HP9 2HN,2012-04-30,fhrs_5_en-GB,5,,FHRS,5
255505,London End,Beaconsfield,Buckinghamshire,,The Old White Swan,Other catering premises,7841,5,,28320,5,,51.60205500000000,08840/2005/2/000,024,envhealth@southbucks.gov.uk,South Buckinghamshire,http://www.southbucks.gov.uk,-0.63289100000000,HP9 2JD,2014-04-16,fhrs_4_en-GB,4,,FHRS,10
255506,Lake End Road,Dorney,Buckinghamshire,,The Pineapple,Other catering premises,7841,,,27857,,,51.50859800000000,08250/2008/2/000,024,envhealth@southbucks.gov.uk,South Buckinghamshire,http://www.southbucks.gov.uk,-0.66303900000000,SL4 6QS,2014-10-23,fhrs_4_en-GB,4,,FHRS,
255507,60 Wymers Wood Road,Burnham,Buckinghamshire,,The Pines Hotel,Other catering premises,7841,5,,77130,10,,51.54429900000000,18050/0060/0/000,024,envhealth@southbucks.gov.uk,South Buckinghamshire,http://www.southbucks.gov.uk,-0.67041500000000,SL1 8LJ,2014-10-09,fhrs_4_en-GB,4,,FHRS,5
255508,Pinewood Hotel,Uxbridge Road,George Green,Wexham,The Pinewood Hotel,Other catering premises,7841,5,,187464,5,,51.52672400000000,07/00142/HOTEL,024,envhealth@southbucks.gov.uk,South Buckinghamshire,http://www.southbucks.gov.uk,-0.55666900000000,SL3 6AP,2015-01-07,fhrs_4_en-GB,4,,FHRS,10
255509,Prince Of India,Oxford Road,Gerrards Cross,Buckinghamshire,The Prince Of India,Other catering premises,7841,20,,51507,15,,51.57933600000000,11540/2074/3/001,024,envhealth@southbucks.gov.uk,South Buckinghamshire,http://www.southbucks.gov.uk,-0.55369000000000,SL9 7DP,2014-03-24,fhrs_0_en-GB,0,,FHRS,20
255510,,,,,The Purple Kitchen,School/college/university,7845,,,588674,,,,13/00021/CATR,024,envhealth@southbucks.gov.uk,South Buckinghamshire,http://www.southbucks.gov.uk,,,2013-09-12,fhrs_exempt_en-GB,Exempt,,FHRS,
255511,Langley Park Road,Iver,Buckinghamshire,,The Red Lion,Other catering premises,7841,5,,27931,5,,51.51892700000000,08340/2004/2/001,024,envhealth@southbucks.gov.uk,South Buckinghamshire,http://www.southbucks.gov.uk,-0.52693600000000,SL0 0JZ,2014-03-18,fhrs_5_en-GB,5,,FHRS,5
255512,Stoke Green,Stoke Poges,Buckinghamshire,,The Red Lion,Other catering premises,7841,5,,65093,5,,51.53167500000000,14580/2025/2/000,024,envhealth@southbucks.gov.uk,South Buckinghamshire,http://www.southbucks.gov.uk,-0.58291100000000,SL2 4HN,2014-12-01,fhrs_5_en-GB,5,,FHRS,5
255513,9 Gore Road,Burnham,Buckinghamshire,,The Royal British Legion,Other catering premises,7841,5,,17433,10,,51.53587400000000,05950/0009/0/000,024,envhealth@southbucks.gov.uk,South Buckinghamshire,http://www.southbucks.gov.uk,-0.66017800000000,SL1 8AA,2014-09-08,fhrs_4_en-GB,4,,FHRS,5
255514,Church Road,Iver Heath,Buckinghamshire,,The Royal British Legion,Other catering premises,7841,5,,8597,5,,51.53961100000000,03070/2044/2/000,024,envhealth@southbucks.gov.uk,South Buckinghamshire,http://www.southbucks.gov.uk,-0.52420700000000,SL0 0RD,2014-03-07,fhrs_4_en-GB,4,,FHRS,10
255515,Beaconsfield Road,Farnham Common,Buckinghamshire,,The Stag And Hounds,Other catering premises,7841,20,,67482,20,,51.55517800000000,15060/2023/2/000,024,envhealth@southbucks.gov.uk,South Buckinghamshire,http://www.southbucks.gov.uk,-0.61509700000000,SL2 3QQ,2014-06-17,fhrs_1_en-GB,1,,FHRS,10
255516,Church Road,Iver Heath,Buckinghamshire,,The Stag And Hounds,Other catering premises,7841,10,,8596,15,,51.54132900000000,03070/2038/2/000,024,envhealth@southbucks.gov.uk,South Buckinghamshire,http://www.southbucks.gov.uk,-0.52208900000000,SL0 0RW,2014-05-19,fhrs_2_en-GB,2,,FHRS,15
255517,The Stag,Wexham Street,Stoke Poges,Buckinghamshire,The Stag Country Pub,Pub/bar/nightclub,7843,10,,25404,15,,51.54502600000000,08/00079/REST,024,envhealth@southbucks.gov.uk,South Buckinghamshire,http://www.southbucks.gov.uk,-0.57155000000000,SL3 6PA,2014-07-16,fhrs_2_en-GB,2,,FHRS,10
255518,2 High Street,Iver,Buckinghamshire,,The Swan,Other catering premises,7841,5,,23895,5,,51.52036400000000,07080/0002/0/000,024,envhealth@southbucks.gov.uk,South Buckinghamshire,http://www.southbucks.gov.uk,-0.50539900000000,SL0 9NG,2014-09-08,fhrs_5_en-GB,5,,FHRS,5
255519,Village Road,Denham,Buckinghamshire,,The Swan Inn,Other catering premises,7841,5,,71414,5,,51.57311400000000,16200/2026/2/000,024,envhealth@southbucks.gov.uk,South Buckinghamshire,http://www.southbucks.gov.uk,-0.49861900000000,UB9 5BH,2014-05-22,fhrs_4_en-GB,4,,FHRS,10
255520,The Treehouse,35 Aylesbury End,Beaconsfield,Buckinghamshire,The Tree House,Other catering premises,7841,5,,2106,5,,51.60265500000000,00640/0035/2/000,024,envhealth@southbucks.gov.uk,South Buckinghamshire,http://www.southbucks.gov.uk,-0.63810000000000,HP9 1LU,2015-02-10,fhrs_5_en-GB,5,,FHRS,5
255521,113-115 High Street,Burnham,Buckinghamshire,,The Tuck Shop,Retailers - other,4613,5,,23851,10,,51.53509600000000,07050/1131/0/000,024,envhealth@southbucks.gov.uk,South Buckinghamshire,http://www.southbucks.gov.uk,-0.65897500000000,SL1 7JZ,2014-01-08,fhrs_3_en-GB,3,,FHRS,10
255522,Britwell Road,Burnham,Buckinghamshire,,The Tudor Barn,Other catering premises,7841,5,,5643,5,,51.53565900000000,01990/2014/2/000,024,envhealth@southbucks.gov.uk,South Buckinghamshire,http://www.southbucks.gov.uk,-0.64844800000000,SL1 8DF,2013-08-05,fhrs_5_en-GB,5,,FHRS,5
255523,Victoria Road,Farnham Common,Buckinghamshire,,The Victoria,Other catering premises,7841,10,,71294,5,,51.55453700000000,16160/2005/2/000,024,envhealth@southbucks.gov.uk,South Buckinghamshire,http://www.southbucks.gov.uk,-0.61257800000000,SL2 3NL,2012-12-13,fhrs_4_en-GB,4,,FHRS,5
255524,Anchor Trust Shop,Denham Garden Village,Denham Green Lane,Denham,The Village Shop,Retailers - other,4613,10,,13439,10,,51.58518900000000,04090/0100/3/003,024,envhealth@southbucks.gov.uk,South Buckinghamshire,http://www.southbucks.gov.uk,-0.50268200000000,UB9 5LB,2013-03-09,fhrs_3_en-GB,3,,FHRS,5
255525,135 Swallow Street,Iver,Buckinghamshire,,The Whip And Collar,Other catering premises,7841,5,,65807,5,,51.52648300000000,14820/0135/0/000,024,envhealth@southbucks.gov.uk,South Buckinghamshire,http://www.southbucks.gov.uk,-0.51924000000000,SL0 0HU,2014-09-04,fhrs_5_en-GB,5,,FHRS,5
255526,Collinswood Road,Farnham Common,Buckinghamshire,,The Yew Tree,Other catering premises,7841,10,,33898,10,,51.57525400000000,10/00073/REST,024,envhealth@southbucks.gov.uk,South Buckinghamshire,http://www.southbucks.gov.uk,-0.61712800000000,SL2 3LQ,2014-08-29,fhrs_3_en-GB,3,,FHRS,10
255527,Davenies School,Station Road,Beaconsfield,Buckinghamshire,Thomas Franks Ltd,Other catering premises,7841,5,,64593,5,,51.60773100000000,14380/2004/2/000,024,envhealth@southbucks.gov.uk,South Buckinghamshire,http://www.southbucks.gov.uk,-0.64158700000000,HP9 1AA,2012-12-04,fhrs_5_en-GB,5,,FHRS,5
255528,Thorney Park Golf Course,Thorney Mill Road,Iver,Buckinghamshire,Thorney Park Golf Club,Other catering premises,7841,20,,69331,20,,51.50501200000000,15580/2009/2/000,024,envhealth@southbucks.gov.uk,South Buckinghamshire,http://www.southbucks.gov.uk,-0.49541200000000,SL0 9AL,2014-03-24,fhrs_0_en-GB,0,,FHRS,15
255529,Tithe Farm Rest Home,Park Road,Stoke Poges,Buckinghamshire,Tithe Farm Nursing Home,Other catering premises,7841,10,,52177,10,,51.54131600000000,11750/2068/2/000,024,envhealth@southbucks.gov.uk,South Buckinghamshire,http://www.southbucks.gov.uk,-0.60330400000000,SL2 4PJ,2015-01-12,fhrs_3_en-GB,3,,FHRS,10
255530,The Toby Carvery,Oxford Road,Denham,Buckinghamshire,Toby's Carvery,Other catering premises,7841,5,,51442,5,,51.57307200000000,11520/2031/2/000,024,envhealth@southbucks.gov.uk,South Buckinghamshire,http://www.southbucks.gov.uk,-0.52792900000000,UB9 4LJ,2013-10-16,fhrs_5_en-GB,5,,FHRS,5
255531,Tower Arms Hotel,Thorney Lane South,Iver,Buckinghamshire,Tower Arms,Other catering premises,7841,10,,69304,15,,51.50520900000000,15570/0002/2/000,024,envhealth@southbucks.gov.uk,South Buckinghamshire,http://www.southbucks.gov.uk,-0.50236500000000,SL0 9AE,2014-07-25,fhrs_2_en-GB,2,,FHRS,15
255532,The Stores,1 Tubwell Road,Stoke Poges,Buckinghamshire,Tubwell Stores,Retailers - other,4613,10,,70151,10,,51.54314800000000,15880/0001/0/000,024,envhealth@southbucks.gov.uk,South Buckinghamshire,http://www.southbucks.gov.uk,-0.57469500000000,SL2 4JT,2014-09-26,fhrs_3_en-GB,3,,FHRS,10
255533,National Film and Television School,Station Road,Beaconsfield,Buckinghamshire,Unique Catering,Other catering premises,7841,5,,64594,5,,51.60478000000000,14380/2005/2/000,024,envhealth@southbucks.gov.uk,South Buckinghamshire,http://www.southbucks.gov.uk,-0.63836800000000,HP9 1LG,2013-10-25,fhrs_5_en-GB,5,,FHRS,5
255534,109 High Street,Burnham,Buckinghamshire,,Unique Spice,Other catering premises,7841,10,,23848,15,,51.53509600000000,07050/0109/0/000,024,envhealth@southbucks.gov.uk,South Buckinghamshire,http://www.southbucks.gov.uk,-0.65897500000000,SL1 7JZ,2014-10-27,fhrs_2_en-GB,2,,FHRS,10
255535,Denham Railway Station,Station Yard,North Orbital Road,Denham Green,Up N Ate Em,Other catering premises,7841,10,,9487,10,,51.57879000000000,04/00020/CAFE,024,envhealth@southbucks.gov.uk,South Buckinghamshire,http://www.southbucks.gov.uk,-0.49736400000000,UB9 5ES,2014-04-08,fhrs_3_en-GB,3,,FHRS,10
255536,28 - 30 Gregories Road,Beaconsfield,Buckinghamshire,,Va Pensiero,Other catering premises,7841,5,,20587,5,,51.61071200000000,06180/2830/0/000,024,envhealth@southbucks.gov.uk,South Buckinghamshire,http://www.southbucks.gov.uk,-0.64822800000000,HP9 1HQ,2012-02-23,fhrs_5_en-GB,5,,FHRS,5
255537,De Vere Venues,Denham Grove,Tilehouse Lane,Denham,Verve Venues Ltd,Other catering premises,7841,5,,69470,5,,51.58484200000000,15620/2000/2/000,024,envhealth@southbucks.gov.uk,South Buckinghamshire,http://www.southbucks.gov.uk,-0.48722700000000,UB9 5DU,2014-09-09,fhrs_4_en-GB,4,,FHRS,10
255538,13 The Broadway,Penn Road,Beaconsfield,Buckinghamshire,Vom Fass,Retailers - other,4613,5,,52707,0,,51.61306400000000,11930/0013/0/000,024,envhealth@southbucks.gov.uk,South Buckinghamshire,http://www.southbucks.gov.uk,-0.64713300000000,HP9 2PD,2013-05-23,fhrs_5_en-GB,5,,FHRS,5
255539,WH Smith,Unit 10,Beaconsfield Services,Windsor Road,W H Smith,Retailers - other,4613,5,,29147,5,,51.58743800000000,09/00056/MANRET,024,envhealth@southbucks.gov.uk,South Buckinghamshire,http://www.southbucks.gov.uk,-0.62787300000000,HP9 2SE,2013-05-23,fhrs_5_en-GB,5,,FHRS,5
255540,,,,,Wabi Sabi,Other catering premises,7841,5,,656908,5,,,13/00032/CATR,024,envhealth@southbucks.gov.uk,South Buckinghamshire,http://www.southbucks.gov.uk,,,2014-03-25,fhrs_5_en-GB,5,,FHRS,5
255541,Penn Road,Beaconsfield,Buckinghamshire,,Waitrose Ltd,Retailers - other,4613,5,,52618,10,,51.61253200000000,11900/2023/2/000,024,envhealth@southbucks.gov.uk,South Buckinghamshire,http://www.southbucks.gov.uk,-0.64777000000000,HP9 2PW,2012-12-09,fhrs_4_en-GB,4,,FHRS,5
255542,Waitrose,31 - 33 Station Road,Gerrards Cross,Buckinghamshire,Waitrose Ltd,Retailers - supermarkets/hypermarkets,7840,5,,408172,5,,51.58811300000000,12/00020/SUPER,024,envhealth@southbucks.gov.uk,South Buckinghamshire,http://www.southbucks.gov.uk,-0.55084200000000,SL9 8ES,2014-07-21,fhrs_5_en-GB,5,,FHRS,5
255543,83 High Street,Burnham,Buckinghamshire,,Warners,Retailers - other,4613,10,,23843,15,,51.53402300000000,07050/0083/0/000,024,envhealth@southbucks.gov.uk,South Buckinghamshire,http://www.southbucks.gov.uk,-0.65874700000000,SL1 7JX,2014-09-01,fhrs_2_en-GB,2,,FHRS,10
255544,Bulstrode,Oxford Road,Gerrards Cross,Buckinghamshire,WEC International,Other catering premises,7841,5,,51511,5,,51.58585100000000,11540/2115/2/000,024,envhealth@southbucks.gov.uk,South Buckinghamshire,http://www.southbucks.gov.uk,-0.57766100000000,SL9 8SZ,2013-08-14,fhrs_5_en-GB,5,,FHRS,5
255545,Wexham Park Golf Course,Wexham Street,Wexham,Buckinghamshire,Wexham Park Golf Club,Other catering premises,7841,5,,73400,10,,51.54003600000000,16860/2021/2/000,024,envhealth@southbucks.gov.uk,South Buckinghamshire,http://www.southbucks.gov.uk,-0.57385500000000,SL3 6ND,2013-10-01,fhrs_4_en-GB,4,,FHRS,5
255546,W H Smith,11 The Highway,Station Road,Beaconsfield,WH Smith,Retailers - other,4613,5,,656907,5,,51.61055200000000,07/00109/RETAIL,024,envhealth@southbucks.gov.uk,South Buckinghamshire,http://www.southbucks.gov.uk,-0.64531500000000,HP9 1QD,2014-04-29,fhrs_5_en-GB,5,,FHRS,5
255547,Travelodge Beaconsfield Central,Aylesbury End,Beaconsfield,Buckinghamshire,White Hart Hotel,Other catering premises,7841,5,,2110,5,,51.60291200000000,00640/2006/2/000,024,envhealth@southbucks.gov.uk,South Buckinghamshire,http://www.southbucks.gov.uk,-0.63777400000000,HP9 1LW,2015-01-14,fhrs_5_en-GB,5,,FHRS,5
255548,The White Horse,Village Lane,Hedgerley,Buckinghamshire,White Horse,Other catering premises,7841,5,,71345,5,,51.57638900000000,16180/2016/2/000,024,envhealth@southbucks.gov.uk,South Buckinghamshire,http://www.southbucks.gov.uk,-0.60290800000000,SL2 3UY,2013-08-08,fhrs_5_en-GB,5,,FHRS,5
255549,White Plains Nursing Home,Tilehouse Lane,Denham,Buckinghamshire,White Plains Residential Home,Other catering premises,7841,5,,69472,5,,51.58625700000000,15620/2023/2/000,024,envhealth@southbucks.gov.uk,South Buckinghamshire,http://www.southbucks.gov.uk,-0.51101800000000,UB9 5DE,2014-10-21,fhrs_5_en-GB,5,,FHRS,0
255550,1 West Common,Gerrards Cross,Buckinghamshire,,Wildwood,Other catering premises,7841,5,,72911,5,,51.58697900000000,16650/2012/2/000,024,envhealth@southbucks.gov.uk,South Buckinghamshire,http://www.southbucks.gov.uk,-0.55803800000000,SL9 7QN,2014-11-10,fhrs_4_en-GB,4,,FHRS,10
255551,Willowbank Esso Service Station,Oxford Road,New Denham,Denham,Willowbank Service Station,Retailers - other,4613,5,,17912,10,,51.55214600000000,06/00045/PETROL,024,envhealth@southbucks.gov.uk,South Buckinghamshire,http://www.southbucks.gov.uk,-0.48751100000000,UB9 4DA,2013-02-23,fhrs_4_en-GB,4,,FHRS,5
255552,Windsor Road,Gerrards Cross,Buckinghamshire,,Windsor Lodge Care Home,Other catering premises,7841,5,,75174,5,,51.56878600000000,17490/2079/2/000,024,envhealth@southbucks.gov.uk,South Buckinghamshire,http://www.southbucks.gov.uk,-0.58223300000000,SL9 8SS,2014-06-11,fhrs_5_en-GB,5,,FHRS,0
255553,Shredding Green Farm,Langley Park Road,Iver,Buckinghamshire,Wingrove Farm Enterprises,Retailers - other,4613,5,,27932,5,,51.51900500000000,08340/2008/2/000,024,envhealth@southbucks.gov.uk,South Buckinghamshire,http://www.southbucks.gov.uk,-0.52096700000000,SL0 9QS,2015-02-02,fhrs_5_en-GB,5,,FHRS,5
255554,Aston House,46-48A High Street,Burnham,Buckinghamshire,Woodstock's Cafe Experience,Other catering premises,7841,10,,18267,10,,51.53337900000000,06/00094/REST,024,envhealth@southbucks.gov.uk,South Buckinghamshire,http://www.southbucks.gov.uk,-0.65827600000000,SL1 7JL,2014-07-14,fhrs_3_en-GB,3,,FHRS,10
255555,Wyatts Covert,Tilehouse Lane,Denham,Buckinghamshire,Wyatts Covert Caravan Club Site,Retailers - other,4613,0,,45583,5,,51.59340700000000,11/00015/CVAN,024,envhealth@southbucks.gov.uk,South Buckinghamshire,http://www.southbucks.gov.uk,-0.50827300000000,UB9 5DH,2013-04-11,fhrs_5_en-GB,5,,FHRS,5
255556,The Royal Elephant,8 Warwick Road,Beaconsfield,Buckinghamshire,Yanang Thai Restaurant And Take Away,Other catering premises,7841,5,,9448,10,,51.61279700000000,04/00014/CATR,024,envhealth@southbucks.gov.uk,South Buckinghamshire,http://www.southbucks.gov.uk,-0.64587000000000,HP9 2PE,2013-09-03,fhrs_3_en-GB,3,,FHRS,10
255557,The Swan,High Street,Burnham,Buckinghamshire,Ye Olde Swan,Other catering premises,7841,10,,194442,10,,51.53392100000000,07050/0034/0/000,024,envhealth@southbucks.gov.uk,South Buckinghamshire,http://www.southbucks.gov.uk,-0.65844800000000,SL1 7JP,2014-06-10,fhrs_3_en-GB,3,,FHRS,10
255558,41 Aylesbury End,Beaconsfield,Buckinghamshire,,Zizzi,Other catering premises,7841,10,,2107,15,,51.60265500000000,00640/0041/2/000,024,envhealth@southbucks.gov.uk,South Buckinghamshire,http://www.southbucks.gov.uk,-0.63810000000000,HP9 1LU,2014-06-16,fhrs_2_en-GB,2,,FHRS,10
