,addressline1,addressline2,addressline3,addressline4,businessname,businesstype,businesstypeid,confidenceinmanagement,extractdate,fhrsid,hygiene,itemcount,latitude,localauthoritybusinessid,localauthoritycode,localauthorityemailaddress,localauthorityname,localauthoritywebsite,longitude,postcode,ratingdate,ratingkey,ratingvalue,returncode,schemetype,structural
13866,Ely,Cambridgeshire,,,29 Waterside,Hotel/bed & breakfast/guest house,7842,5,,336184,5,,52.39668300000000,07/00163/FOOD,028,customerservices@eastcambs.gov.uk,East Cambridgeshire,http://www.eastcambs.gov.uk,0.27029800000000,CB7 4AU,2010-09-29,fhrs_5_en-GB,5,,FHRS,5
13867,3 Three Cups Walk,Ely,Cambridgeshire,,3At3 Licensed Cafe,Restaurant/Cafe/Canteen,1,0,,336376,0,,52.39873800000000,11/00019/MIXED,028,customerservices@eastcambs.gov.uk,East Cambridgeshire,http://www.eastcambs.gov.uk,0.26634600000000,CB7 4AN,2014-12-02,fhrs_5_en-GB,5,,FHRS,0
13868,Medrena House,72 Wisbech Road,Littleport,Ely,72 B & B,Hotel/bed & breakfast/guest house,7842,5,,336186,5,,52.46134200000000,07/00166/FOOD,028,customerservices@eastcambs.gov.uk,East Cambridgeshire,http://www.eastcambs.gov.uk,0.29368800000000,CB6 1JJ,2010-09-29,fhrs_5_en-GB,5,,FHRS,5
13869,24 High Street,Soham,Ely,Cambridgeshire,A Tasca,Restaurant/Cafe/Canteen,1,20,,336258,10,,52.33261700000000,09/00015/MIXED,028,customerservices@eastcambs.gov.uk,East Cambridgeshire,http://www.eastcambs.gov.uk,0.33843800000000,CB7 5HE,2014-07-24,fhrs_1_en-GB,1,,FHRS,10
13870,,,,,A10 Chip Van,Mobile caterer,7846,0,,336710,0,,,SR100/0010/1/002,028,customerservices@eastcambs.gov.uk,East Cambridgeshire,http://www.eastcambs.gov.uk,,,2013-12-19,fhrs_5_en-GB,5,,FHRS,5
13871,Acremont House,30 Egremont Street,Ely,Cambridgeshire,Acremont House School,School/college/university,7845,0,,336514,0,,52.40190300000000,E0265/0030/1/001,028,customerservices@eastcambs.gov.uk,East Cambridgeshire,http://www.eastcambs.gov.uk,0.26161300000000,CB6 1AE,2014-06-26,fhrs_5_en-GB,5,,FHRS,0
13872,Alderton House,5 Wellington Street,Littleport,Ely,AITCH Care Homes (London) Ltd,Hospitals/Childcare/Caring Premises,5,10,,558745,10,,52.45774800000000,11/00085/MIXED,028,customerservices@eastcambs.gov.uk,East Cambridgeshire,http://www.eastcambs.gov.uk,0.30651300000000,CB6 1PN,2013-08-16,fhrs_3_en-GB,3,,FHRS,5
13873,14A Station Road,Littleport,Ely,Cambridgeshire,AJ Caterers,Restaurant/Cafe/Canteen,1,5,,336255,10,,52.45747900000000,09/00009/MIXED,028,customerservices@eastcambs.gov.uk,East Cambridgeshire,http://www.eastcambs.gov.uk,0.30919300000000,CB6 1QE,2014-10-14,fhrs_4_en-GB,4,,FHRS,0
13874,21 Broad Street,Ely,Cambridgeshire,,Alans,Takeaway/sandwich shop,7844,0,,620006,0,,52.39534200000000,13/00143/MIXED,028,customerservices@eastcambs.gov.uk,East Cambridgeshire,http://www.eastcambs.gov.uk,0.26664200000000,CB7 4BD,2013-12-16,fhrs_5_en-GB,5,,FHRS,5
13875,41 Lisle Lane,Ely,Cambridgeshire,,Aldi Stores Ltd,Retailers - supermarkets/hypermarkets,7840,0,,531067,5,,52.39809800000000,13/00028/MIXED,028,customerservices@eastcambs.gov.uk,East Cambridgeshire,http://www.eastcambs.gov.uk,0.26969400000000,CB7 4AS,2013-04-03,fhrs_5_en-GB,5,,FHRS,0
13876,High Street,Aldreth,Cambridgeshire,,Aldreth Village Centre,Other catering premises,7841,,,336247,,,,08/00131/MIXED,028,customerservices@eastcambs.gov.uk,East Cambridgeshire,http://www.eastcambs.gov.uk,,,2010-12-15,fhrs_exempt_en-GB,Exempt,,FHRS,
13877,18 Churchgate Street,Soham,Ely,Cambridgeshire,Ali Taj,Restaurant/Cafe/Canteen,1,10,,336125,5,,52.33493300000000,04/00070/MIXED,028,customerservices@eastcambs.gov.uk,East Cambridgeshire,http://www.eastcambs.gov.uk,0.33682900000000,CB7 5DS,2013-06-24,fhrs_4_en-GB,4,,FHRS,5
13878,12 Main Street,Littleport,Ely,Cambridgeshire,Alis Kebab House,Takeaway/sandwich shop,7844,0,,336296,0,,52.45680200000000,09/00170/MIXED,028,customerservices@eastcambs.gov.uk,East Cambridgeshire,http://www.eastcambs.gov.uk,0.30612500000000,CB6 1PJ,2013-06-10,fhrs_5_en-GB,5,,FHRS,0
13879,Downham Feoffes School,Main Street,Little Downham,Ely,All4sports,Hospitals/Childcare/Caring Premises,5,5,,589454,5,,52.43278800000000,12/00069/FOOD,028,customerservices@eastcambs.gov.uk,East Cambridgeshire,http://www.eastcambs.gov.uk,0.24096500000000,CB6 2ST,2013-09-30,fhrs_5_en-GB,5,,FHRS,0
13880,Littleport Community Primary School,Parsons Lane,Littleport,Ely,All4sports,Hospitals/Childcare/Caring Premises,5,5,,589455,0,,52.45789700000000,12/00071/FOOD,028,customerservices@eastcambs.gov.uk,East Cambridgeshire,http://www.eastcambs.gov.uk,0.29052100000000,CB6 1JT,2013-10-03,fhrs_5_en-GB,5,,FHRS,0
13881,St Marys Junior School,High Barns,Ely,Cambridgeshire,All4sports,Hospitals/Childcare/Caring Premises,5,0,,481389,0,,52.40809400000000,12/00070/FOOD,028,customerservices@eastcambs.gov.uk,East Cambridgeshire,http://www.eastcambs.gov.uk,0.27733800000000,CB7 4RB,2012-12-04,fhrs_5_en-GB,5,,FHRS,0
13882,9 Market Place,Ely,Cambridgeshire,,Allgoods Of Ely,Retailers - other,4613,5,,643633,10,,52.39901700000000,14/00015/MIXED,028,customerservices@eastcambs.gov.uk,East Cambridgeshire,http://www.eastcambs.gov.uk,0.26680100000000,CB7 4NP,2014-04-14,fhrs_4_en-GB,4,,FHRS,5
13883,15 Peterhouse Drive,Newmarket,Suffolk,,Amberleigh House,Hotel/bed & breakfast/guest house,7842,10,,336318,5,,52.23607300000000,10/00070/FOOD,028,customerservices@eastcambs.gov.uk,East Cambridgeshire,http://www.eastcambs.gov.uk,0.40711900000000,CB8 8AT,2010-07-05,fhrs_4_en-GB,4,,FHRS,5
13884,,,,,Amber's Cakey Creations,Other catering premises,7841,5,,669905,10,,,14/00032/FOOD,028,customerservices@eastcambs.gov.uk,East Cambridgeshire,http://www.eastcambs.gov.uk,,,2014-05-20,fhrs_4_en-GB,4,,FHRS,5
13885,Stretham Station Road,Wilburton,Ely,Cambridgeshire,Amberside,Hospitals/Childcare/Caring Premises,5,5,,336750,5,,52.36411800000000,WL100/9999/1/006,028,customerservices@eastcambs.gov.uk,East Cambridgeshire,http://www.eastcambs.gov.uk,0.22381300000000,CB6 3QD,2008-05-08,fhrs_5_en-GB,5,,FHRS,5
13886,63 North Street,Burwell,Cambridge,,Anchor Inn,Restaurant/Cafe/Canteen,1,5,,336312,5,,52.28250300000000,10/00048/MIXED,028,customerservices@eastcambs.gov.uk,East Cambridgeshire,http://www.eastcambs.gov.uk,0.32483200000000,CB25 0BA,2013-06-26,fhrs_5_en-GB,5,,FHRS,5
13887,,,,,Angela Cakes,Other catering premises,7841,5,,336340,5,,,10/00128/FOOD,028,customerservices@eastcambs.gov.uk,East Cambridgeshire,http://www.eastcambs.gov.uk,,,2014-03-19,fhrs_5_en-GB,5,,FHRS,5
13888,19 Church Street,Fordham,Ely,Cambridgeshire,Angelina Cottage,Hotel/bed & breakfast/guest house,7842,10,,502334,10,,52.31113500000000,12/00168/MIXED,028,customerservices@eastcambs.gov.uk,East Cambridgeshire,http://www.eastcambs.gov.uk,0.39276300000000,CB7 5NJ,2013-01-21,fhrs_4_en-GB,4,,FHRS,0
13889,,,,,Angies Cake Creations,Other catering premises,7841,5,,583845,5,,,13/00089/FOOD,028,customerservices@eastcambs.gov.uk,East Cambridgeshire,http://www.eastcambs.gov.uk,,,2013-09-10,fhrs_5_en-GB,5,,FHRS,0
13890,Quy Road,Lode,Cambridge,,Anglesey Abbey Restaurant,Restaurant/Cafe/Canteen,1,5,,336660,5,,52.23725100000000,LO060/9999/1/006,028,customerservices@eastcambs.gov.uk,East Cambridgeshire,http://www.eastcambs.gov.uk,0.23949300000000,CB25 9EJ,2014-11-26,fhrs_5_en-GB,5,,FHRS,5
13891,Quy Road,Lode,Cambridge,,Anglesey Abbey Visitors Centre Shop,Retailers - other,4613,,,336305,,,52.23725100000000,10/00020/MIXED,028,customerservices@eastcambs.gov.uk,East Cambridgeshire,http://www.eastcambs.gov.uk,0.23949300000000,CB25 9EJ,2010-02-01,fhrs_exempt_en-GB,Exempt,,FHRS,
13892,,,,,Appertize Catering,Mobile caterer,7846,5,,336366,5,,,11/00001/MIXED,028,customerservices@eastcambs.gov.uk,East Cambridgeshire,http://www.eastcambs.gov.uk,,,2012-12-10,fhrs_5_en-GB,5,,FHRS,0
13893,7 High Street,Ely,Cambridgeshire,,Argos Store,Retailers - other,4613,,,336523,,,52.39964200000000,E0375/0007/1/001,028,customerservices@eastcambs.gov.uk,East Cambridgeshire,http://www.eastcambs.gov.uk,0.26327600000000,CB7 4LJ,2012-05-30,fhrs_exempt_en-GB,Exempt,,FHRS,
13894,7 Station Road,Haddenham,Ely,Cambridgeshire,Arkenstall Village Centre,Other catering premises,7841,,,336608,,,52.36131100000000,HA215/0007/1/002,028,customerservices@eastcambs.gov.uk,East Cambridgeshire,http://www.eastcambs.gov.uk,0.14954500000000,CB6 3XD,2009-02-06,fhrs_exempt_en-GB,Exempt,,FHRS,
13895,,,,,Aroy D Thai Food,Retailers - other,4613,10,,592024,10,,,13/00065/MIXED,028,customerservices@eastcambs.gov.uk,East Cambridgeshire,http://www.eastcambs.gov.uk,,,2013-10-12,fhrs_3_en-GB,3,,FHRS,5
13896,2A Clay Street,Soham,Ely,Cambridgeshire,Asda Stores Ltd,Retailers - supermarkets/hypermarkets,7840,5,,710398,5,,52.33244200000000,14/00058/MIXED,028,customerservices@eastcambs.gov.uk,East Cambridgeshire,http://www.eastcambs.gov.uk,0.33505300000000,CB7 5HH,2014-10-21,fhrs_5_en-GB,5,,FHRS,0
13897,8 - 10 High Street,Ashley,Newmarket,Cambridgeshire,Ashley Stores,Retailers - other,4613,20,,336444,5,,52.22464500000000,AS025/0012/1/001,028,customerservices@eastcambs.gov.uk,East Cambridgeshire,http://www.eastcambs.gov.uk,0.48382900000000,CB8 9DX,2014-07-22,fhrs_1_en-GB,1,,FHRS,15
13898,48 High Street,Ashley,Newmarket,Suffolk,Ashley Village Hall,Other catering premises,7841,,,336446,,,52.22464500000000,AS025/0048/1/001,028,customerservices@eastcambs.gov.uk,East Cambridgeshire,http://www.eastcambs.gov.uk,0.48382900000000,CB8 9DX,2011-01-07,fhrs_exempt_en-GB,Exempt,,FHRS,
13899,,,,,Askay's,Other catering premises,7841,0,,336745,0,,,WL050/0002/1/001,028,customerservices@eastcambs.gov.uk,East Cambridgeshire,http://www.eastcambs.gov.uk,,,2013-03-05,fhrs_5_en-GB,5,,FHRS,0
13900,,,,,Audrey's Pantry,Other catering premises,7841,5,,558698,5,,,07/00209/FOOD,028,customerservices@eastcambs.gov.uk,East Cambridgeshire,http://www.eastcambs.gov.uk,,,2011-10-27,fhrs_5_en-GB,5,,FHRS,5
13901,23 High Street,Soham,Cambridgeshire,,Babs Fish Bar,Takeaway/sandwich shop,7844,10,,583846,10,,52.33244200000000,13/00094/MIXED,028,customerservices@eastcambs.gov.uk,East Cambridgeshire,http://www.eastcambs.gov.uk,0.33819400000000,CB7 5HA,2013-09-12,fhrs_3_en-GB,3,,FHRS,5
13902,Lumley Close,Ely,Cambridgeshire,,Baird Lodge,Other catering premises,7841,0,,336533,5,,52.41413400000000,E0478/9999/1/001,028,customerservices@eastcambs.gov.uk,East Cambridgeshire,http://www.eastcambs.gov.uk,0.27466400000000,CB7 4FF,2014-03-19,fhrs_5_en-GB,5,,FHRS,0
13903,4 Church Street,Isleham,Ely,Cambridgeshire,Bamboo Garden,Takeaway/sandwich shop,7844,30,,686852,20,,52.34247500000000,14/00094/MIXED,028,customerservices@eastcambs.gov.uk,East Cambridgeshire,http://www.eastcambs.gov.uk,0.41076600000000,CB7 5RX,2014-07-02,fhrs_0_en-GB,0,,FHRS,10
13904,62 Newnham Street,Ely,Cambridgeshire,,Bar 62,Hotel/bed & breakfast/guest house,7842,10,,632958,10,,52.40099500000000,13/00123/MIXED,028,customerservices@eastcambs.gov.uk,East Cambridgeshire,http://www.eastcambs.gov.uk,0.26631500000000,CB7 4PE,2014-02-08,fhrs_3_en-GB,3,,FHRS,5
13905,,,,,Barbs Cakes,Other catering premises,7841,0,,463347,5,,,12/00024/FOOD,028,customerservices@eastcambs.gov.uk,East Cambridgeshire,http://www.eastcambs.gov.uk,,,2012-11-07,fhrs_5_en-GB,5,,FHRS,0
13906,27 High Street,Ely,Cambridgeshire,,Barkers Bakery,Retailers - other,4613,5,,336367,10,,52.39949800000000,11/00003/MIXED,028,customerservices@eastcambs.gov.uk,East Cambridgeshire,http://www.eastcambs.gov.uk,0.26422400000000,CB7 4LQ,2014-10-14,fhrs_4_en-GB,4,,FHRS,5
13907,78 Broad Street,Ely,Cambridgeshire,,Basmati Indian Cuisine,Restaurant/Cafe/Canteen,1,20,,408466,10,,52.39510600000000,11/00096/MIXED,028,customerservices@eastcambs.gov.uk,East Cambridgeshire,http://www.eastcambs.gov.uk,0.26580700000000,CB7 4BE,2014-07-30,fhrs_1_en-GB,1,,FHRS,15
13908,Bedford House,28 St Marys Street,Ely,Cambridgeshire,Bedford House Day Centre,Other catering premises,7841,0,,336565,0,,52.40004400000000,E0720/9999/1/033,028,customerservices@eastcambs.gov.uk,East Cambridgeshire,http://www.eastcambs.gov.uk,0.26104700000000,CB7 4ES,2014-07-04,fhrs_5_en-GB,5,,FHRS,0
13909,2 North Street,Burwell,Cambridge,,Bengal Fox,Restaurant/Cafe/Canteen,1,10,,716545,5,,52.28250300000000,14/00135/MIXED,028,customerservices@eastcambs.gov.uk,East Cambridgeshire,http://www.eastcambs.gov.uk,0.32483200000000,CB25 0BA,2014-11-12,fhrs_4_en-GB,4,,FHRS,5
13910,24 Market Place,Ely,Cambridgeshire,,Bent & Cornwell Quality Meats Ltd,Retailers - other,4613,5,,336538,0,,52.39926500000000,E0495/0024/1/001,028,customerservices@eastcambs.gov.uk,East Cambridgeshire,http://www.eastcambs.gov.uk,0.26602000000000,CB7 4NT,2014-06-24,fhrs_5_en-GB,5,,FHRS,5
13911,Berrycroft,Soham,Ely,Cambridgeshire,Berrycroft Over 60S Luncheon Club,Other catering premises,7841,5,,610356,0,,52.33748800000000,13/00135/MIXED,028,customerservices@eastcambs.gov.uk,East Cambridgeshire,http://www.eastcambs.gov.uk,0.33402700000000,CB7 5BL,2014-04-16,fhrs_5_en-GB,5,,FHRS,5
13912,18 High Street,Soham,Ely,Cambridgeshire,Best One,Retailers - other,4613,10,,336334,10,,52.33261700000000,10/00113/MIXED,028,customerservices@eastcambs.gov.uk,East Cambridgeshire,http://www.eastcambs.gov.uk,0.33843800000000,CB7 5HE,2013-12-05,fhrs_2_en-GB,2,,FHRS,15
13913,,,,,Bev's Bakes,Other catering premises,7841,5,,706448,0,,,14/00103/FOOD,028,customerservices@eastcambs.gov.uk,East Cambridgeshire,http://www.eastcambs.gov.uk,,,2014-10-06,fhrs_5_en-GB,5,,FHRS,0
13914,,,,,Bibi's Indian Cookery Courses,Restaurant/Cafe/Canteen,1,10,,715468,0,,,14/00115/FOOD,028,customerservices@eastcambs.gov.uk,East Cambridgeshire,http://www.eastcambs.gov.uk,,,2014-11-11,fhrs_4_en-GB,4,,FHRS,0
13915,Barton Road,Ely,Cambridgeshire,,Bishop Woodford House,Other catering premises,7841,10,,579696,5,,52.39547200000000,E0065/9999/1/002,028,customerservices@eastcambs.gov.uk,East Cambridgeshire,http://www.eastcambs.gov.uk,0.25984300000000,CB7 4DX,2013-08-16,fhrs_4_en-GB,4,,FHRS,5
13916,8 St Marys Street,Ely,Cambridgeshire,,BKK Thai Restaurant,Restaurant/Cafe/Canteen,1,10,,336563,15,,52.40004400000000,E0720/0008/1/001,028,customerservices@eastcambs.gov.uk,East Cambridgeshire,http://www.eastcambs.gov.uk,0.26104700000000,CB7 4ES,2013-08-22,fhrs_2_en-GB,2,,FHRS,10
13917,Community Centre,Black Horse Drove,Littleport,Cambridgeshire,Black Horse Drove Community Centre,Other catering premises,7841,,,336414,,,52.49808900000000,11/00128/MIXED,028,customerservices@eastcambs.gov.uk,East Cambridgeshire,http://www.eastcambs.gov.uk,0.35244100000000,CB6 1EG,2011-10-04,fhrs_exempt_en-GB,Exempt,,FHRS,
13918,Mill Road,Ashley,Ely,Suffolk,Bloodstock Barn,Hotel/bed & breakfast/guest house,7842,0,,718708,0,,52.22933600000000,14/00033/FOOD,028,customerservices@eastcambs.gov.uk,East Cambridgeshire,http://www.eastcambs.gov.uk,0.48268500000000,CB8 9EE,2014-11-18,fhrs_5_en-GB,5,,FHRS,0
13919,6 Market Street,Ely,Cambridgeshire,,Boots,Retailers - other,4613,,,336540,,,52.39957300000000,E0505/0006/1/001,028,customerservices@eastcambs.gov.uk,East Cambridgeshire,http://www.eastcambs.gov.uk,0.26543300000000,CB7 4PB,2008-11-17,fhrs_exempt_en-GB,Exempt,,FHRS,
13920,23 Main Street,Littleport,Ely,Cambridgeshire,Boswell & Son,Retailers - other,4613,10,,336218,10,,52.45648200000000,08/00045/MIXED,028,customerservices@eastcambs.gov.uk,East Cambridgeshire,http://www.eastcambs.gov.uk,0.30593200000000,CB6 1PH,2014-06-04,fhrs_3_en-GB,3,,FHRS,10
13921,5 High Street Passage,Ely,Cambridgeshire,,Boswell & Son,Retailers - other,4613,0,,336137,5,,52.39957400000000,05/00101/MIXED,028,customerservices@eastcambs.gov.uk,East Cambridgeshire,http://www.eastcambs.gov.uk,0.26493300000000,CB7 4NB,2013-09-24,fhrs_5_en-GB,5,,FHRS,5
13922,Bottisham Primary School,Beechwood Avenue,Bottisham,Cambridge,Bottisham Nursery School,Hospitals/Childcare/Caring Premises,5,0,,589456,0,,52.22094600000000,12/00148/FOOD,028,customerservices@eastcambs.gov.uk,East Cambridgeshire,http://www.eastcambs.gov.uk,0.26552400000000,CB25 9BE,2013-09-27,fhrs_5_en-GB,5,,FHRS,0
13923,Beechwood Avenue,Bottisham,Cambridge,,Bottisham Primary School,School/college/university,7845,5,,336451,5,,52.22094600000000,BO010/9999/1/001,028,customerservices@eastcambs.gov.uk,East Cambridgeshire,http://www.eastcambs.gov.uk,0.26552400000000,CB25 9BE,2015-01-29,fhrs_5_en-GB,5,,FHRS,5
13924,31 Downing Close,Bottisham,Cambridge,,Bottisham Royal British Legion,Other catering premises,7841,5,,336453,5,,52.21867200000000,BO040/0031/1/001,028,customerservices@eastcambs.gov.uk,East Cambridgeshire,http://www.eastcambs.gov.uk,0.15924700000000,CB5 9DD,2012-01-19,fhrs_5_en-GB,5,,FHRS,5
13925,12 High Street,Bottisham,Cambridge,,Bottisham Village Stores,Retailers - other,4613,0,,336454,10,,52.22263400000000,BO050/0012/1/001,028,customerservices@eastcambs.gov.uk,East Cambridgeshire,http://www.eastcambs.gov.uk,0.25858200000000,CB25 9DA,2013-01-14,fhrs_4_en-GB,4,,FHRS,0
13926,Downfields Garage,Fordham Road,Soham,Ely,BP Spar,Retailers - other,4613,5,,336684,10,,52.32148900000000,SO145/9999/1/007,028,customerservices@eastcambs.gov.uk,East Cambridgeshire,http://www.eastcambs.gov.uk,0.35681100000000,CB7 5AJ,2013-09-02,fhrs_4_en-GB,4,,FHRS,5
13927,143 Lynn Road,Ely,Cambridgeshire,,Brain Injury Rehabilitation Trust,Hospitals/Childcare/Caring Premises,5,0,,336127,0,,52.41417000000000,05/00008/MIXED,028,customerservices@eastcambs.gov.uk,East Cambridgeshire,http://www.eastcambs.gov.uk,0.27197100000000,,2013-03-27,fhrs_5_en-GB,5,,FHRS,0
13928,Isleham C Of E Primary School,3 Malting Lane,Isleham,Ely,Breakfast Club,Hospitals/Childcare/Caring Premises,5,0,,587028,0,,52.34040100000000,12/00164/FOOD,028,customerservices@eastcambs.gov.uk,East Cambridgeshire,http://www.eastcambs.gov.uk,0.41370700000000,CB7 5RZ,2013-09-26,fhrs_5_en-GB,5,,FHRS,0
13929,Kennett Primary School,98 Station Road,Kennett,Newmarket,Breakfast Club,Hospitals/Childcare/Caring Premises,5,0,,555419,10,,52.28482800000000,12/00150/MIXED,028,customerservices@eastcambs.gov.uk,East Cambridgeshire,http://www.eastcambs.gov.uk,0.48694500000000,CB8 7QQ,2013-06-12,fhrs_4_en-GB,4,,FHRS,0
13930,High Street,Brinkley,Newmarket,Suffolk,Brinkley Memorial Hall,Other catering premises,7841,,,336457,,,52.24275800000000,BR050/9999/1/043,028,customerservices@eastcambs.gov.uk,East Cambridgeshire,http://www.eastcambs.gov.uk,0.40309800000000,,2012-04-25,fhrs_exempt_en-GB,Exempt,,FHRS,
13931,11 Newmarket Road,Newmarket,Suffolk,,British Racing School,Restaurant/Cafe/Canteen,1,0,,336103,0,,52.26788800000000,03/00042/MIXED,028,customerservices@eastcambs.gov.uk,East Cambridgeshire,http://www.eastcambs.gov.uk,0.41190500000000,CB8 7NU,2014-01-14,fhrs_5_en-GB,5,,FHRS,0
13932,49 Brook Street,Soham,Ely,Cambridgeshire,Brook Entertainment,Restaurant/Cafe/Canteen,1,20,,336369,10,,52.33017500000000,11/00009/MIXED,028,customerservices@eastcambs.gov.uk,East Cambridgeshire,http://www.eastcambs.gov.uk,0.34598600000000,CB7 5AD,2014-09-24,fhrs_1_en-GB,1,,FHRS,15
13933,,,,,Bulgarian Delights,Retailers - other,4613,10,,706447,5,,,14/00088/MIXED,028,customerservices@eastcambs.gov.uk,East Cambridgeshire,http://www.eastcambs.gov.uk,,,2014-10-07,fhrs_4_en-GB,4,,FHRS,5
13934,,,,,Bumbles Bakery,Other catering premises,7841,10,,583844,5,,,13/00087/FOOD,028,customerservices@eastcambs.gov.uk,East Cambridgeshire,http://www.eastcambs.gov.uk,,,2013-09-12,fhrs_4_en-GB,4,,FHRS,0
13935,,,,,Bunting's Cakes,Other catering premises,7841,10,,592025,5,,,13/00125/FOOD,028,customerservices@eastcambs.gov.uk,East Cambridgeshire,http://www.eastcambs.gov.uk,,,2013-10-16,fhrs_4_en-GB,4,,FHRS,0
13936,56B Witchford Road,Ely,Cambridgeshire,,Burger King,Takeaway/sandwich shop,7844,0,,492876,0,,52.39041700000000,12/00105/MIXED,028,customerservices@eastcambs.gov.uk,East Cambridgeshire,http://www.eastcambs.gov.uk,0.23867100000000,CB6 3NN,2014-09-18,fhrs_4_en-GB,4,,FHRS,10
13937,,,,,Burger Palace,Mobile caterer,7846,5,,336257,5,,,09/00014/MIXED,028,customerservices@eastcambs.gov.uk,East Cambridgeshire,http://www.eastcambs.gov.uk,,,2014-02-10,fhrs_5_en-GB,5,,FHRS,5
13938,Burrough Green C Of E Primary Schoo,Bradley Road,Burrough Green,Newmarket,Burrough Green Playgroup,Hospitals/Childcare/Caring Premises,5,5,,336198,5,,52.17428600000000,07/00213/MIXED,028,customerservices@eastcambs.gov.uk,East Cambridgeshire,http://www.eastcambs.gov.uk,0.39298700000000,CB8 9NH,2011-01-05,fhrs_5_en-GB,5,,FHRS,5
13939,Bradley Road,Burrough Green,Newmarket,Suffolk,Burrough Green Primary School,School/college/university,7845,0,,336368,0,,52.17428600000000,11/00006/FOOD,028,customerservices@eastcambs.gov.uk,East Cambridgeshire,http://www.eastcambs.gov.uk,0.39298700000000,CB8 9NH,2014-03-24,fhrs_5_en-GB,5,,FHRS,0
13940,Reading Room,Bradley Road,Burrough Green,Newmarket,Burrough Green Village Hall,Other catering premises,7841,,,336449,,,52.17428600000000,BG010/9999/1/023,028,customerservices@eastcambs.gov.uk,East Cambridgeshire,http://www.eastcambs.gov.uk,0.39298700000000,CB8 9NH,2012-04-25,fhrs_exempt_en-GB,Exempt,,FHRS,
13941,1A High Street,Ely,Cambridgeshire,,Burrows,Retailers - other,4613,,,336521,,,52.39964200000000,E0375/0001/1/003,028,customerservices@eastcambs.gov.uk,East Cambridgeshire,http://www.eastcambs.gov.uk,0.26327600000000,CB7 4LJ,2012-07-18,fhrs_exempt_en-GB,Exempt,,FHRS,
13942,Ash Grove,Burwell,Cambridge,,Burwell & District Day Centre,Other catering premises,7841,5,,336470,5,,52.27662800000000,BU235/9999/1/001,028,customerservices@eastcambs.gov.uk,East Cambridgeshire,http://www.eastcambs.gov.uk,0.32453900000000,CB25 0DR,2013-08-14,fhrs_5_en-GB,5,,FHRS,0
13943,Burwell Sports Centre,Buntings Path,Burwell,Cambridge,Burwell Community Sports Centre Association,Other catering premises,7841,,,336460,,,52.27996200000000,BU040/9999/1/001,028,customerservices@eastcambs.gov.uk,East Cambridgeshire,http://www.eastcambs.gov.uk,0.32966900000000,CB25 0DD,2011-07-11,fhrs_exempt_en-GB,Exempt,,FHRS,
13944,21 The Causeway,Burwell,Cambridge,,Burwell Ex-Servicemens Club,Other catering premises,7841,,,336472,,,52.27789900000000,BU315/0021/1/001,028,customerservices@eastcambs.gov.uk,East Cambridgeshire,http://www.eastcambs.gov.uk,0.32623200000000,CB25 0DU,2009-10-06,fhrs_exempt_en-GB,Exempt,,FHRS,
13945,46 North Street,Burwell,Cambridge,,Burwell House,Hospitals/Childcare/Caring Premises,5,5,,336469,5,,52.21867200000000,BU210/0046/1/001,028,customerservices@eastcambs.gov.uk,East Cambridgeshire,http://www.eastcambs.gov.uk,0.15924700000000,CB5 0BA,2013-08-14,fhrs_5_en-GB,5,,FHRS,5
13946,,,,,Burwell Kebab,Mobile caterer,7846,20,,632959,20,,,13/00131/MIXED,028,customerservices@eastcambs.gov.uk,East Cambridgeshire,http://www.eastcambs.gov.uk,,,2014-02-11,fhrs_1_en-GB,1,,FHRS,10
13947,11 The Causeway,Burwell,Cambridge,,Burwell Post Office,Retailers - other,4613,5,,336471,5,,52.27789900000000,BU315/0011/1/001,028,customerservices@eastcambs.gov.uk,East Cambridgeshire,http://www.eastcambs.gov.uk,0.32623200000000,CB25 0DU,2011-03-22,fhrs_5_en-GB,5,,FHRS,5
13948,The Causeway,Burwell,Cambridge,,Burwell Primary School,School/college/university,7845,5,,336476,0,,52.25316700000000,BU315/9999/1/014,028,customerservices@eastcambs.gov.uk,East Cambridgeshire,http://www.eastcambs.gov.uk,0.30117300000000,CB25 0DX,2013-10-07,fhrs_5_en-GB,5,,FHRS,5
13949,Central House,4 North Street,Burwell,Cambridge,Burwell Stores,Retailers - other,4613,5,,336467,5,,52.28250300000000,BU210/0004/1/001,028,customerservices@eastcambs.gov.uk,East Cambridgeshire,http://www.eastcambs.gov.uk,0.32483200000000,CB25 0BA,2012-05-31,fhrs_5_en-GB,5,,FHRS,5
13950,Bury House,11 Main Street,Little Downham,Ely,Bury House B & B,Hotel/bed & breakfast/guest house,7842,5,,336235,5,,52.43278800000000,08/00106/FOOD,028,customerservices@eastcambs.gov.uk,East Cambridgeshire,http://www.eastcambs.gov.uk,0.24096500000000,CB6 2ST,2012-02-20,fhrs_5_en-GB,5,,FHRS,5
13951,Millfield County Primary School,Grange Lane,Littleport,Ely,Busy Bees Playgroup,Hospitals/Childcare/Caring Premises,5,0,,585499,5,,52.44945400000000,12/00147/FOOD,028,customerservices@eastcambs.gov.uk,East Cambridgeshire,http://www.eastcambs.gov.uk,0.29604300000000,CB6 1HW,2013-09-18,fhrs_5_en-GB,5,,FHRS,0
13952,Primary School,Main Street,Little Downham,Ely,Busy Fingers Pre-School,Hospitals/Childcare/Caring Premises,5,0,,336629,0,,52.43169700000000,LD170/9999/1/014,028,customerservices@eastcambs.gov.uk,East Cambridgeshire,http://www.eastcambs.gov.uk,0.23635000000000,CB6 2SX,2013-10-07,fhrs_5_en-GB,5,,FHRS,0
13953,,,,,Butchers BBQ,Mobile caterer,7846,5,,336403,5,,,11/00104/MIXED,028,customerservices@eastcambs.gov.uk,East Cambridgeshire,http://www.eastcambs.gov.uk,,,2013-08-29,fhrs_5_en-GB,5,,FHRS,5
13954,Spring Meadow Infants School,High Barns,Ely,Cambridgeshire,Butterfly Breakfast Club & Stay And Play,Hospitals/Childcare/Caring Premises,5,0,,479221,0,,,12/00087/FOOD,028,customerservices@eastcambs.gov.uk,East Cambridgeshire,http://www.eastcambs.gov.uk,,,2012-11-22,fhrs_5_en-GB,5,,FHRS,0
13955,62 High Street,Sutton,Ely,Cambridgeshire,Butterfly Pre-school & Dragonfly Den,School/college/university,7845,10,,336265,10,,52.38820500000000,09/00034/MIXED,028,customerservices@eastcambs.gov.uk,East Cambridgeshire,http://www.eastcambs.gov.uk,0.12168000000000,CB6 2RA,2014-10-22,fhrs_3_en-GB,3,,FHRS,5
13956,Spa Ely,35 Forehill,Ely,Cambridgeshire,Cafe Ely,Restaurant/Cafe/Canteen,1,0,,710399,0,,52.39837900000000,14/00085/MIXED,028,customerservices@eastcambs.gov.uk,East Cambridgeshire,http://www.eastcambs.gov.uk,0.26770900000000,CB7 4AA,2014-10-20,fhrs_5_en-GB,5,,FHRS,0
13957,11A High Street,Ely,Cambridgeshire,,Caffe Nero,Restaurant/Cafe/Canteen,1,0,,336385,0,,52.39964200000000,11/00062/MIXED,028,customerservices@eastcambs.gov.uk,East Cambridgeshire,http://www.eastcambs.gov.uk,0.26327600000000,CB7 4LJ,2014-12-30,fhrs_5_en-GB,5,,FHRS,5
13958,,,,,Cake Ritual,Other catering premises,7841,5,,676394,5,,,14/00038/FOOD,028,customerservices@eastcambs.gov.uk,East Cambridgeshire,http://www.eastcambs.gov.uk,,,2014-06-26,fhrs_5_en-GB,5,,FHRS,0
13959,,,,,Cakes For All Occasions,Other catering premises,7841,0,,463346,5,,,09/00144/FOOD,028,customerservices@eastcambs.gov.uk,East Cambridgeshire,http://www.eastcambs.gov.uk,,,2012-11-05,fhrs_5_en-GB,5,,FHRS,0
13960,,,,,Cambridge Confections,Other catering premises,7841,5,,669909,5,,,14/00066/FOOD,028,customerservices@eastcambs.gov.uk,East Cambridgeshire,http://www.eastcambs.gov.uk,,,2014-06-12,fhrs_5_en-GB,5,,FHRS,0
13961,,,,,Camilla Watson Catering,Other catering premises,7841,5,,528726,0,,,13/00040/FOOD,028,customerservices@eastcambs.gov.uk,East Cambridgeshire,http://www.eastcambs.gov.uk,,,2013-03-13,fhrs_5_en-GB,5,,FHRS,0
13962,125 Carter Street,Fordham,Ely,Cambridgeshire,Carter Street Butchers,Retailers - other,4613,5,,336585,5,,52.31391500000000,FO005/0125/1/001,028,customerservices@eastcambs.gov.uk,East Cambridgeshire,http://www.eastcambs.gov.uk,0.38199700000000,CB7 5JU,2013-09-24,fhrs_4_en-GB,4,,FHRS,10
13963,50 New Barns Road,Ely,Cambridgeshire,,Castle Hotel,Hotel/bed & breakfast/guest house,7842,5,,336428,5,,52.40352000000000,11/00167/MIXED,028,customerservices@eastcambs.gov.uk,East Cambridgeshire,http://www.eastcambs.gov.uk,0.27061900000000,CB7 4PW,2013-11-08,fhrs_5_en-GB,5,,FHRS,0
13964,17 St Marys Street,Ely,Cambridgeshire,,Cathedral House,Hotel/bed & breakfast/guest house,7842,5,,336187,5,,52.39959300000000,07/00172/FOOD,028,customerservices@eastcambs.gov.uk,East Cambridgeshire,http://www.eastcambs.gov.uk,0.26111200000000,CB7 4ER,2010-11-10,fhrs_5_en-GB,5,,FHRS,5
13965,19 Wellington Street,Littleport,Ely,Cambridgeshire,Catherine Fish Bar,Takeaway/sandwich shop,7844,20,,657226,15,,52.45774800000000,14/00052/MIXED,028,customerservices@eastcambs.gov.uk,East Cambridgeshire,http://www.eastcambs.gov.uk,0.30651300000000,CB6 1PN,2014-04-24,fhrs_0_en-GB,0,,FHRS,20
13966,40 Wisbech Road,Littleport,Ely,Cambridgeshire,Central England Co-operative,Retailers - supermarkets/hypermarkets,7840,0,,336353,0,,52.45969000000000,10/00161/MIXED,028,customerservices@eastcambs.gov.uk,East Cambridgeshire,http://www.eastcambs.gov.uk,0.30187500000000,CB6 1JH,2014-01-22,fhrs_5_en-GB,5,,FHRS,0
13967,Bottisham Village College,Lode Road,Bottisham,Cambridge,Chartwells,School/college/university,7845,5,,706449,5,,52.22500300000000,14/00104/MIXED,028,customerservices@eastcambs.gov.uk,East Cambridgeshire,http://www.eastcambs.gov.uk,0.25508600000000,CB25 9DL,2014-09-25,fhrs_5_en-GB,5,,FHRS,5
13968,28A High Street,Ely,Cambridgeshire,,Cherry Hill Chocolates,Retailers - other,4613,0,,336528,0,,52.39922400000000,E0375/0030/1/001,028,customerservices@eastcambs.gov.uk,East Cambridgeshire,http://www.eastcambs.gov.uk,0.26441600000000,CB7 4JU,2013-09-02,fhrs_5_en-GB,5,,FHRS,0
13969,,,,,Chestnut Cottage Cakes,Other catering premises,7841,10,,336443,0,,,12/00044/FOOD,028,customerservices@eastcambs.gov.uk,East Cambridgeshire,http://www.eastcambs.gov.uk,,,2012-04-18,fhrs_4_en-GB,4,,FHRS,0
13970,14A High Street,Burwell,Cambridge,,Chestnut House B & B,Hotel/bed & breakfast/guest house,7842,0,,720012,10,,52.26905500000000,14/00034/FOOD,028,customerservices@eastcambs.gov.uk,East Cambridgeshire,http://www.eastcambs.gov.uk,0.32919900000000,CB25 0HB,2014-11-25,fhrs_4_en-GB,4,,FHRS,0
13971,Cheveley CE Primary School,1 Park Road,Cheveley,Newmarket,Cheveley Acorns Pre-School,Hospitals/Childcare/Caring Premises,5,5,,336432,5,,52.22152000000000,12/00008/FOOD,028,customerservices@eastcambs.gov.uk,East Cambridgeshire,http://www.eastcambs.gov.uk,0.46002300000000,CB8 9DF,2012-02-08,fhrs_5_en-GB,5,,FHRS,5
13972,202 High Street,Cheveley,Newmarket,Suffolk,Cheveley British Legion Club,Pub/bar/nightclub,7843,5,,336477,5,,52.21938300000000,CH045/0202/1/001,028,customerservices@eastcambs.gov.uk,East Cambridgeshire,http://www.eastcambs.gov.uk,0.46418000000000,CB8 9DG,2009-02-05,fhrs_5_en-GB,5,,FHRS,5
13973,1 Park Road,Cheveley,Newmarket,Suffolk,Cheveley C Of E Primary School,School/college/university,7845,0,,336479,0,,52.22152000000000,CH095/0001/1/001,028,customerservices@eastcambs.gov.uk,East Cambridgeshire,http://www.eastcambs.gov.uk,0.46002300000000,CB8 9DF,2013-09-06,fhrs_5_en-GB,5,,FHRS,0
13974,68 Market Street,Ely,Cambridgeshire,,China Inn Chinese Restaurant,Restaurant/Cafe/Canteen,1,0,,336135,0,,52.40036600000000,05/00092/MIXED,028,customerservices@eastcambs.gov.uk,East Cambridgeshire,http://www.eastcambs.gov.uk,0.26441500000000,CB7 4LS,2013-06-12,fhrs_5_en-GB,5,,FHRS,0
13975,Chippenham Park,Chippenham,Ely,Cambridgeshire,Chippenham Bowls Club,Other catering premises,7841,0,,336481,0,,52.29769600000000,CHI10/9999/1/015,028,customerservices@eastcambs.gov.uk,East Cambridgeshire,http://www.eastcambs.gov.uk,0.43958800000000,CB7 5PT,2013-05-16,fhrs_5_en-GB,5,,FHRS,5
13976,High Street,Chippenham,Cambridgeshire,,Chippenham Village Hall,Other catering premises,7841,,,336483,,,52.30124800000000,CHI20/9999/1/021,028,customerservices@eastcambs.gov.uk,East Cambridgeshire,http://www.eastcambs.gov.uk,0.43731700000000,,2012-01-09,fhrs_exempt_en-GB,Exempt,,FHRS,
13977,,,,,Chrissie's Chocolate Favours,Other catering premises,7841,20,,468260,0,,,12/00083/FOOD,028,customerservices@eastcambs.gov.uk,East Cambridgeshire,http://www.eastcambs.gov.uk,,,2012-11-21,fhrs_1_en-GB,1,,FHRS,0
13978,Nutholt Lane,Ely,Cambridgeshire,,City Of Ely Bowls Club,Other catering premises,7841,5,,336553,5,,52.40128100000000,E0565/9999/1/001,028,customerservices@eastcambs.gov.uk,East Cambridgeshire,http://www.eastcambs.gov.uk,0.26502100000000,CB7 4PL,2013-07-10,fhrs_5_en-GB,5,,FHRS,0
13979,,,,,ClairyCake,Other catering premises,7841,5,,336442,5,,,12/00031/FOOD,028,customerservices@eastcambs.gov.uk,East Cambridgeshire,http://www.eastcambs.gov.uk,,,2012-03-08,fhrs_5_en-GB,5,,FHRS,5
13980,4 High Street,Bottisham,Cambridge,,Classic Spice,Restaurant/Cafe/Canteen,1,10,,452640,10,,52.22263400000000,11/00070/MIXED,028,customerservices@eastcambs.gov.uk,East Cambridgeshire,http://www.eastcambs.gov.uk,0.25858200000000,CB25 9DA,2013-12-02,fhrs_3_en-GB,3,,FHRS,10
13981,,,,,Coffee Express,Mobile caterer,7846,10,,681368,5,,,14/00020/MIXED,028,customerservices@eastcambs.gov.uk,East Cambridgeshire,http://www.eastcambs.gov.uk,,,2014-06-30,fhrs_4_en-GB,4,,FHRS,0
13982,,,,,Come Dine With Me,Mobile caterer,7846,5,,336221,5,,,08/00069/MIXED,028,customerservices@eastcambs.gov.uk,East Cambridgeshire,http://www.eastcambs.gov.uk,,,2013-11-21,fhrs_5_en-GB,5,,FHRS,0
13983,,,,,Completely Cakes By Mary Jane,Other catering premises,7841,10,,371104,0,,,12/00038/FOOD,028,customerservices@eastcambs.gov.uk,East Cambridgeshire,http://www.eastcambs.gov.uk,,,2012-05-16,fhrs_4_en-GB,4,,FHRS,0
13984,,,,,Completely Chilli,Other catering premises,7841,5,,558720,5,,,10/00061/FOOD,028,customerservices@eastcambs.gov.uk,East Cambridgeshire,http://www.eastcambs.gov.uk,,,2013-10-03,fhrs_5_en-GB,5,,FHRS,5
13985,July Race Course,Cambridge Road,Newmarket,Suffolk,Concessions At The July Racecourse,Mobile caterer,7846,5,,336398,5,,52.21570900000000,11/00094/MIXED,028,customerservices@eastcambs.gov.uk,East Cambridgeshire,http://www.eastcambs.gov.uk,0.31801800000000,CB8 0TN,2013-10-13,fhrs_5_en-GB,5,,FHRS,5
13986,30 Main Street,Littleport,Ely,Cambridgeshire,Co-operative Group,Retailers - supermarkets/hypermarkets,7840,0,,336649,0,,52.45680200000000,LI235/0030/1/001,028,customerservices@eastcambs.gov.uk,East Cambridgeshire,http://www.eastcambs.gov.uk,0.30612500000000,CB6 1PJ,2012-11-06,fhrs_5_en-GB,5,,FHRS,5
13987,5 North Street,Burwell,Cambridge,,Co-operative Group,Retailers - supermarkets/hypermarkets,7840,0,,336468,0,,52.28250300000000,BU210/0005/1/001,028,customerservices@eastcambs.gov.uk,East Cambridgeshire,http://www.eastcambs.gov.uk,0.32483200000000,CB25 0BA,2014-02-14,fhrs_5_en-GB,5,,FHRS,5
13988,43 High Street,Soham,Ely,Cambridgeshire,Co-operative Group (CWS),Retailers - supermarkets/hypermarkets,7840,5,,336691,5,,52.33244200000000,SO205/0043/1/002,028,customerservices@eastcambs.gov.uk,East Cambridgeshire,http://www.eastcambs.gov.uk,0.33819400000000,CB7 5HA,2014-02-11,fhrs_4_en-GB,4,,FHRS,10
13989,10 Market Street,Ely,Cambridgeshire,,Costa Coffee,Restaurant/Cafe/Canteen,1,10,,336157,10,,52.39957300000000,06/00084/MIXED,028,customerservices@eastcambs.gov.uk,East Cambridgeshire,http://www.eastcambs.gov.uk,0.26543300000000,CB7 4PB,2014-11-24,fhrs_3_en-GB,3,,FHRS,10
13990,Tesco Stores Ltd,13 Angel Drove,Ely,Cambridgeshire,Costa Coffee,Restaurant/Cafe/Canteen,1,10,,336233,10,,52.39121900000000,08/00094/MIXED,028,customerservices@eastcambs.gov.uk,East Cambridgeshire,http://www.eastcambs.gov.uk,0.26502000000000,CB7 4DJ,2013-12-04,fhrs_3_en-GB,3,,FHRS,10
13991,School Lane,Coveney,Ely,Cambridgeshire,Coveney Village Hall,Other catering premises,7841,,,336487,,,52.41584900000000,CO030/9999/1/002,028,customerservices@eastcambs.gov.uk,East Cambridgeshire,http://www.eastcambs.gov.uk,0.18956300000000,CB6 2DB,2012-01-09,fhrs_exempt_en-GB,Exempt,,FHRS,
13992,17 Broad Street,Ely,Cambridgeshire,,CrackPots,Restaurant/Cafe/Canteen,1,,,509987,,,52.39657400000000,12/00130/MIXED,028,customerservices@eastcambs.gov.uk,East Cambridgeshire,http://www.eastcambs.gov.uk,0.26754300000000,CB7 4AJ,2013-02-14,fhrs_exempt_en-GB,Exempt,,FHRS,
13993,,,,,Crafty Chefs East Cambridgeshire,Other catering premises,7841,10,,558746,5,,,11/00092/FOOD,028,customerservices@eastcambs.gov.uk,East Cambridgeshire,http://www.eastcambs.gov.uk,,,2013-09-20,fhrs_4_en-GB,4,,FHRS,5
13994,,,,,Cupcake Creations,Other catering premises,7841,0,,494195,0,,,13/00016/FOOD,028,customerservices@eastcambs.gov.uk,East Cambridgeshire,http://www.eastcambs.gov.uk,,,2013-01-10,fhrs_5_en-GB,5,,FHRS,0
13995,,,,,Cupcakes For You,Other catering premises,7841,0,,558711,10,,,09/00090/FOOD,028,customerservices@eastcambs.gov.uk,East Cambridgeshire,http://www.eastcambs.gov.uk,,,2011-03-29,fhrs_4_en-GB,4,,FHRS,0
13996,,,,,Cuppa Cakes,Other catering premises,7841,5,,558726,10,,,10/00165/FOOD,028,customerservices@eastcambs.gov.uk,East Cambridgeshire,http://www.eastcambs.gov.uk,,,2010-11-19,fhrs_4_en-GB,4,,FHRS,0
13997,,,,,D & B Doughnuts,Mobile caterer,7846,5,,448220,5,,,12/00023/MIXED,028,customerservices@eastcambs.gov.uk,East Cambridgeshire,http://www.eastcambs.gov.uk,,,2013-05-09,fhrs_5_en-GB,5,,FHRS,5
13998,49 Fieldside,Ely,Cambridgeshire,,Daisy Cottage B & B,Hotel/bed & breakfast/guest house,7842,0,,715467,0,,52.40013600000000,14/00073/MIXED,028,customerservices@eastcambs.gov.uk,East Cambridgeshire,http://www.eastcambs.gov.uk,0.25057100000000,CB6 3AT,2014-11-12,fhrs_5_en-GB,5,,FHRS,0
13999,Communal Rooms And Kitchen,Holme Close,Little Downham,Cambridgeshire,Day Centre (Monday),Other catering premises,7841,0,,336237,0,,52.43193800000000,08/00109/MIXED,028,customerservices@eastcambs.gov.uk,East Cambridgeshire,http://www.eastcambs.gov.uk,0.24026900000000,,2009-09-07,fhrs_5_en-GB,5,,FHRS,0
14000,14 Forehill,Ely,Cambridgeshire,,Daybreaks,Restaurant/Cafe/Canteen,1,5,,336518,5,,52.39832300000000,E0305/0014/1/001,028,customerservices@eastcambs.gov.uk,East Cambridgeshire,http://www.eastcambs.gov.uk,0.26731000000000,CB7 4AF,2014-05-15,fhrs_4_en-GB,4,,FHRS,10
14001,,,,,Debbie's Burger Bar,Mobile caterer,7846,10,,336429,10,,,11/00172/MIXED,028,customerservices@eastcambs.gov.uk,East Cambridgeshire,http://www.eastcambs.gov.uk,,,2013-08-21,fhrs_3_en-GB,3,,FHRS,5
14002,133A North Street,Burwell,Cambridge,,Deer View,Hotel/bed & breakfast/guest house,7842,0,,479220,0,,52.28730400000000,11/00143/FOOD,028,customerservices@eastcambs.gov.uk,East Cambridgeshire,http://www.eastcambs.gov.uk,0.32716500000000,CB25 0BB,2012-11-23,fhrs_5_en-GB,5,,FHRS,0
14003,65 High Street,Sutton,Ely,Cambridgeshire,Deli @ 65,Retailers - other,4613,20,,669899,15,,52.38826000000000,13/00038/MIXED,028,customerservices@eastcambs.gov.uk,East Cambridgeshire,http://www.eastcambs.gov.uk,0.12012500000000,CB6 2NL,2014-05-21,fhrs_1_en-GB,1,,FHRS,10
14004,,,,,Delightfully Gifted,Retailers - other,4613,10,,722766,10,,,14/00150/MIXED,028,customerservices@eastcambs.gov.uk,East Cambridgeshire,http://www.eastcambs.gov.uk,,,2014-12-11,fhrs_4_en-GB,4,,FHRS,0
14005,44 Main Street,Wentworth,Ely,Cambridgeshire,Desiderata,Hotel/bed & breakfast/guest house,7842,5,,336182,5,,52.38536000000000,07/00149/FOOD,028,customerservices@eastcambs.gov.uk,East Cambridgeshire,http://www.eastcambs.gov.uk,0.16896500000000,CB6 3QG,2013-07-11,fhrs_5_en-GB,5,,FHRS,5
14006,Turners (Soham) Ltd,Fordham Road,Newmarket,Suffolk,Desire Catering LLP,Restaurant/Cafe/Canteen,1,20,,710401,10,,52.29173900000000,14/00137/MIXED,028,customerservices@eastcambs.gov.uk,East Cambridgeshire,http://www.eastcambs.gov.uk,0.38963500000000,CB8 7NR,2014-10-30,fhrs_1_en-GB,1,,FHRS,20
14007,,,,,Di's Vennie Burgers,Mobile caterer,7846,10,,688363,5,,,14/00045/MIXED,028,customerservices@eastcambs.gov.uk,East Cambridgeshire,http://www.eastcambs.gov.uk,,,2014-07-29,fhrs_4_en-GB,4,,FHRS,5
14008,St Johns Avenue,Newmarket,Suffolk,,Ditton Lodge Community Nursery,Hospitals/Childcare/Caring Premises,5,5,,336241,5,,52.23736400000000,08/00117/FOOD,028,customerservices@eastcambs.gov.uk,East Cambridgeshire,http://www.eastcambs.gov.uk,0.40948800000000,CB8 8BL,2011-12-09,fhrs_5_en-GB,5,,FHRS,0
14009,St Johns Avenue,Newmarket,Suffolk,,Ditton Lodge First School,School/college/university,7845,0,,336754,0,,52.23736400000000,WO115/9999/1/002,028,customerservices@eastcambs.gov.uk,East Cambridgeshire,http://www.eastcambs.gov.uk,0.40948800000000,CB8 8BL,2014-09-25,fhrs_5_en-GB,5,,FHRS,0
14010,52 - 54 St Marys Street,Ely,Cambridgeshire,,Dominos Pizza,Takeaway/sandwich shop,7844,0,,336349,0,,52.39892000000000,10/00146/MIXED,028,customerservices@eastcambs.gov.uk,East Cambridgeshire,http://www.eastcambs.gov.uk,0.25868200000000,CB7 4EY,2014-01-23,fhrs_5_en-GB,5,,FHRS,0
14011,,,,,Donna Makes Cakes,Other catering premises,7841,0,,522316,0,,,13/00023/FOOD,028,customerservices@eastcambs.gov.uk,East Cambridgeshire,http://www.eastcambs.gov.uk,,,2013-03-19,fhrs_5_en-GB,5,,FHRS,0
14012,,,,,Donut Heaven,Mobile caterer,7846,0,,550740,0,,,12/00067/MIXED,028,customerservices@eastcambs.gov.uk,East Cambridgeshire,http://www.eastcambs.gov.uk,,,2014-12-12,fhrs_5_en-GB,5,,FHRS,0
14013,Main Street,Little Downham,Ely,Cambridgeshire,Downham Feoffees Primary School,School/college/university,7845,5,,336151,5,,52.43278800000000,06/00059/FOOD,028,customerservices@eastcambs.gov.uk,East Cambridgeshire,http://www.eastcambs.gov.uk,0.24096500000000,CB6 2ST,2015-01-15,fhrs_5_en-GB,5,,FHRS,5
14014,,,,,Dr Annie Gray,Other catering premises,7841,0,,724280,5,,,14/00155/FOOD,028,customerservices@eastcambs.gov.uk,East Cambridgeshire,http://www.eastcambs.gov.uk,,,2013-08-09,fhrs_5_en-GB,5,,FHRS,0
14015,Ely Road,Queen Adelaide,Ely,Cambridgeshire,DS Smith,Restaurant/Cafe/Canteen,1,5,,336515,5,,52.40864500000000,E0271/9999/1/014,028,customerservices@eastcambs.gov.uk,East Cambridgeshire,http://www.eastcambs.gov.uk,0.29484900000000,CB7 4TZ,2014-05-16,fhrs_5_en-GB,5,,FHRS,5
14016,High Street,Bottisham,Cambs,,Eden View,Hospitals/Childcare/Caring Premises,5,5,,336246,5,,52.21864800000000,08/00127/FOOD,028,customerservices@eastcambs.gov.uk,East Cambridgeshire,http://www.eastcambs.gov.uk,0.27092700000000,CB25 9BX,2014-03-28,fhrs_5_en-GB,5,,FHRS,5
14017,4 Minster Place,Ely,Cambridgeshire,,Edinburgh Woollen Mill Limited,Retailers - other,4613,,,336545,,,52.39949000000000,E0506/0004/1/001,028,customerservices@eastcambs.gov.uk,East Cambridgeshire,http://www.eastcambs.gov.uk,0.26226800000000,CB7 4EL,2012-06-06,fhrs_exempt_en-GB,Exempt,,FHRS,
14018,24 High Street,Ely,Cambridgeshire,,Edis Of Ely Limited,Retailers - other,4613,5,,336526,0,,52.39922400000000,E0375/0024/1/002,028,customerservices@eastcambs.gov.uk,East Cambridgeshire,http://www.eastcambs.gov.uk,0.26441600000000,CB7 4JU,2014-02-13,fhrs_5_en-GB,5,,FHRS,5
14019,6 High Street,Bottisham,Cambridge,,Elite Kebab & Fish & Chips,Takeaway/sandwich shop,7844,5,,632960,10,,52.22263400000000,14/00016/MIXED,028,customerservices@eastcambs.gov.uk,East Cambridgeshire,http://www.eastcambs.gov.uk,0.25858200000000,CB25 9DA,2015-01-08,fhrs_4_en-GB,4,,FHRS,5
14020,Ley Road,Stetchworth,Newmarket,Suffolk,Ellesmere Centre Community Shop,Retailers - other,4613,5,,336717,5,,52.19857900000000,ST030/9999/1/005,028,customerservices@eastcambs.gov.uk,East Cambridgeshire,http://www.eastcambs.gov.uk,0.40118400000000,CB8 9TS,2010-04-23,fhrs_5_en-GB,5,,FHRS,5
14021,,,,,Elli's Crafty Cakes,Other catering premises,7841,0,,583842,5,,,13/00066/FOOD,028,customerservices@eastcambs.gov.uk,East Cambridgeshire,http://www.eastcambs.gov.uk,,,2013-09-09,fhrs_5_en-GB,5,,FHRS,5
14022,25 Lynn Road,Ely,Cambridgeshire,,Ely B & B,Hotel/bed & breakfast/guest house,7842,10,,712704,0,,52.40107000000000,14/00107/MIXED,028,customerservices@eastcambs.gov.uk,East Cambridgeshire,http://www.eastcambs.gov.uk,0.26286400000000,CB6 1AA,2014-11-03,fhrs_4_en-GB,4,,FHRS,0
14023,83 Lynn Road,Ely,Cambridgeshire,,Ely Beet Sports & Social Club,Other catering premises,7841,10,,336535,5,,52.40331500000000,E0480/0083/1/002,028,customerservices@eastcambs.gov.uk,East Cambridgeshire,http://www.eastcambs.gov.uk,0.26443400000000,CB6 1DD,2013-07-29,fhrs_4_en-GB,4,,FHRS,5
14024,,,,,Ely Cakes And Confectionary,Other catering premises,7841,10,,608507,0,,,13/00111/FOOD,028,customerservices@eastcambs.gov.uk,East Cambridgeshire,http://www.eastcambs.gov.uk,,,2013-11-13,fhrs_4_en-GB,4,,FHRS,0
14025,Spring Meadow Infants School,High Barns,Ely,Cambridgeshire,Ely Childrens Centre,Other catering premises,7841,,,336345,,,52.37379837036130,10/00140/MIXED,028,customerservices@eastcambs.gov.uk,East Cambridgeshire,http://www.eastcambs.gov.uk,0.00712000019848,CB7 4RB,2011-06-07,fhrs_exempt_en-GB,Exempt,,FHRS,
14026,Downham Road,Ely,Cambridgeshire,,Ely City Football Club,Pub/bar/nightclub,7843,5,,336510,5,,52.41066600000000,E0255/9999/1/012,028,customerservices@eastcambs.gov.uk,East Cambridgeshire,http://www.eastcambs.gov.uk,0.24910700000000,CB6 2SH,2013-08-13,fhrs_5_en-GB,5,,FHRS,5
14027,107 Cambridge Road,Ely,Cambridgeshire,,Ely City Golf Course Ltd,Restaurant/Cafe/Canteen,1,5,,336501,5,,52.39396800000000,E0155/9999/1/007,028,customerservices@eastcambs.gov.uk,East Cambridgeshire,http://www.eastcambs.gov.uk,0.25337300000000,CB7 4HX,2014-02-12,fhrs_4_en-GB,4,,FHRS,10
14028,Downham Road,Ely,Cambridgeshire,,Ely College,School/college/university,7845,5,,336508,5,,52.41066600000000,E0255/9999/1/010,028,customerservices@eastcambs.gov.uk,East Cambridgeshire,http://www.eastcambs.gov.uk,0.24910700000000,CB6 2SH,2013-12-04,fhrs_5_en-GB,5,,FHRS,5
14029,Downham Road,Ely,Cambridgeshire,,Ely College - Sixth Form,School/college/university,7845,5,,336199,5,,52.40433500000000,07/00221/FOOD,028,customerservices@eastcambs.gov.uk,East Cambridgeshire,http://www.eastcambs.gov.uk,0.25954700000000,CB6 1BD,2013-12-04,fhrs_5_en-GB,5,,FHRS,5
14030,The Forum,24 Barton Road,Ely,Cambridgeshire,Ely Foodbank,Retailers - other,4613,5,,460484,0,,,12/00126/MIXED,028,customerservices@eastcambs.gov.uk,East Cambridgeshire,http://www.eastcambs.gov.uk,,,2012-10-24,fhrs_5_en-GB,5,,FHRS,5
14031,33 Market Street,Ely,Cambridgeshire,,Ely Kebab House,Takeaway/sandwich shop,7844,5,,336542,5,,52.40004500000000,E0505/0033/1/001,028,customerservices@eastcambs.gov.uk,East Cambridgeshire,http://www.eastcambs.gov.uk,0.26426700000000,CB7 4LZ,2013-08-01,fhrs_5_en-GB,5,,FHRS,5
14032,27 Silver Street,Ely,Cambridgeshire,,Ely Masonic Hall,Other catering premises,7841,,,336558,,,52.39723600000000,E0670/0027/1/001,028,customerservices@eastcambs.gov.uk,East Cambridgeshire,http://www.eastcambs.gov.uk,0.26022700000000,CB7 4JF,2014-11-19,fhrs_exempt_en-GB,Exempt,,FHRS,
14033,The Old Gaol,Market Street,Ely,Cambridgeshire,Ely Museum,Restaurant/Cafe/Canteen,1,,,509985,,,52.40036600000000,12/00082/FOOD,028,customerservices@eastcambs.gov.uk,East Cambridgeshire,http://www.eastcambs.gov.uk,0.26441500000000,CB7 4LS,2013-02-13,fhrs_exempt_en-GB,Exempt,,FHRS,
14034,Downham Road,Ely,Cambridgeshire,,Ely Outdoor Sports Association,Other catering premises,7841,5,,336509,5,,52.41066600000000,E0255/9999/1/011,028,customerservices@eastcambs.gov.uk,East Cambridgeshire,http://www.eastcambs.gov.uk,0.24910700000000,CB6 2SH,2013-11-08,fhrs_4_en-GB,4,,FHRS,10
14035,Roswell Pits,Prickwillow Road,Ely,Cambridgeshire,Ely Sailing Club,Other catering premises,7841,,,336554,,,52.40170700000000,E0605/9999/1/007,028,customerservices@eastcambs.gov.uk,East Cambridgeshire,http://www.eastcambs.gov.uk,0.27137900000000,CB7 4QT,2011-09-29,fhrs_exempt_en-GB,Exempt,,FHRS,
14036,Witchford Road,Ely,Cambridgeshire,,Ely SF Connect,Retailers - other,4613,0,,517114,0,,52.39041700000000,12/00170/MIXED,028,customerservices@eastcambs.gov.uk,East Cambridgeshire,http://www.eastcambs.gov.uk,0.23867100000000,CB6 3NN,2013-03-06,fhrs_5_en-GB,5,,FHRS,0
14037,High Barns,Ely,Cambridgeshire,,Ely St Mary's Junior School,School/college/university,7845,5,,336520,5,,52.40809400000000,E0365/9999/1/007,028,customerservices@eastcambs.gov.uk,East Cambridgeshire,http://www.eastcambs.gov.uk,0.27733800000000,CB7 4RB,2013-05-15,fhrs_5_en-GB,5,,FHRS,5
14038,28 Market Street,Ely,Cambridgeshire,,Ely Tandoori,Takeaway/sandwich shop,7844,10,,610357,10,,52.40036600000000,13/00139/MIXED,028,customerservices@eastcambs.gov.uk,East Cambridgeshire,http://www.eastcambs.gov.uk,0.26441500000000,CB7 4LS,2014-11-19,fhrs_2_en-GB,2,,FHRS,15
14039,111 Fordham Road,Snailwell,Newmarket,Suffolk,EMR Ltd (Works Canteen),Restaurant/Cafe/Canteen,1,5,,336588,5,,52.28587200000000,FO050/0111/1/001,028,customerservices@eastcambs.gov.uk,East Cambridgeshire,http://www.eastcambs.gov.uk,0.39603500000000,CB8 7ND,2013-09-11,fhrs_5_en-GB,5,,FHRS,5
14040,,,,,Erichs Kitchen,Other catering premises,7841,10,,558715,10,,,09/00130/FOOD,028,customerservices@eastcambs.gov.uk,East Cambridgeshire,http://www.eastcambs.gov.uk,,,2009-09-08,fhrs_4_en-GB,4,,FHRS,0
14041,26 High Street,Soham,Ely,Cambridgeshire,European Food,Retailers - other,4613,5,,669911,5,,52.33261700000000,14/00070/MIXED,028,customerservices@eastcambs.gov.uk,East Cambridgeshire,http://www.eastcambs.gov.uk,0.33843800000000,CB7 5HE,2014-11-17,fhrs_5_en-GB,5,,FHRS,0
14042,20 High Street,Burwell,Cambridge,,F P Lanes & Sons Bakery,Retailers - other,4613,10,,336462,10,,52.21867200000000,BU120/0020/1/001,028,customerservices@eastcambs.gov.uk,East Cambridgeshire,http://www.eastcambs.gov.uk,0.15924700000000,CB5 0HB,2013-10-23,fhrs_2_en-GB,2,,FHRS,15
14043,102 Station Road,Soham,Ely,Cambridgeshire,Fairhaven Residential Home,Hospitals/Childcare/Caring Premises,5,0,,336703,5,,52.33410200000000,SO370/0102/1/001,028,customerservices@eastcambs.gov.uk,East Cambridgeshire,http://www.eastcambs.gov.uk,0.33158800000000,CB7 5DZ,2014-11-24,fhrs_5_en-GB,5,,FHRS,0
14044,,,,,Fairways Catering,Other catering premises,7841,0,,558765,0,,,LI270/0023/0/000,028,customerservices@eastcambs.gov.uk,East Cambridgeshire,http://www.eastcambs.gov.uk,,,2014-02-13,fhrs_5_en-GB,5,,FHRS,0
14045,,,,,Fairy Bake,Other catering premises,7841,5,,487007,0,,,10/00125/FOOD,028,customerservices@eastcambs.gov.uk,East Cambridgeshire,http://www.eastcambs.gov.uk,,,2012-12-05,fhrs_5_en-GB,5,,FHRS,0
14046,,,,,Fareli Cakes,Other catering premises,7841,10,,583847,10,,,13/00105/FOOD,028,customerservices@eastcambs.gov.uk,East Cambridgeshire,http://www.eastcambs.gov.uk,,,2013-09-11,fhrs_4_en-GB,4,,FHRS,0
14047,,,,,Fat Bear Foods,Other catering premises,7841,0,,558742,10,,,11/00051/FOOD,028,customerservices@eastcambs.gov.uk,East Cambridgeshire,http://www.eastcambs.gov.uk,,,2011-04-14,fhrs_4_en-GB,4,,FHRS,5
14048,,,,,Fenland Mobile Catering,Mobile caterer,7846,5,,722765,5,,,14/00146/MIXED,028,customerservices@eastcambs.gov.uk,East Cambridgeshire,http://www.eastcambs.gov.uk,,,2014-12-11,fhrs_5_en-GB,5,,FHRS,5
14049,Fenning Farm Dressage Centre,Fenning Farm,1 Chapel Lane,Soham,Fenning Farm Cafe,Restaurant/Cafe/Canteen,1,5,,336386,5,,52.38609500000000,11/00064/MIXED,028,customerservices@eastcambs.gov.uk,East Cambridgeshire,http://www.eastcambs.gov.uk,0.33881000000000,CB7 5UL,2013-06-14,fhrs_5_en-GB,5,,FHRS,5
14050,,,,,Fiona McDuff Patissiere,Other catering premises,7841,5,,585504,5,,,13/00113/FOOD,028,customerservices@eastcambs.gov.uk,East Cambridgeshire,http://www.eastcambs.gov.uk,,,2013-09-09,fhrs_5_en-GB,5,,FHRS,5
14051,114 Main Street,Witchford,Ely,Cambridgeshire,First Class Ani-Mail & Witchford Post Office,Retailers - other,4613,5,,336145,5,,52.38685600000000,06/00009/MIXED,028,customerservices@eastcambs.gov.uk,East Cambridgeshire,http://www.eastcambs.gov.uk,0.19891500000000,CB6 2HP,2010-11-01,fhrs_5_en-GB,5,,FHRS,5
14052,,,,,Fish,Mobile caterer,7846,10,,336329,0,,,10/00091/MIXED,028,customerservices@eastcambs.gov.uk,East Cambridgeshire,http://www.eastcambs.gov.uk,,,2012-10-23,fhrs_4_en-GB,4,,FHRS,0
14053,2 New Barns Road,Ely,Cambridgeshire,,Fishnets,Takeaway/sandwich shop,7844,10,,336547,5,,52.40188100000000,E0545/0002/1/001,028,customerservices@eastcambs.gov.uk,East Cambridgeshire,http://www.eastcambs.gov.uk,0.26887400000000,CB7 4PN,2012-07-11,fhrs_4_en-GB,4,,FHRS,5
14054,97 The Causeway,Burwell,Cambridge,Cambridgeshire,Foon Lok House,Takeaway/sandwich shop,7844,10,,336475,10,,52.27789900000000,BU315/0095/1/002,028,customerservices@eastcambs.gov.uk,East Cambridgeshire,http://www.eastcambs.gov.uk,0.32623200000000,CB25 0DU,2014-10-22,fhrs_3_en-GB,3,,FHRS,10
14055,Recreation Ground,Church Street,Fordham,Ely,Fordham Bowls Club,Other catering premises,7841,0,,336586,0,,52.31113500000000,FO015/0000/1/002,028,customerservices@eastcambs.gov.uk,East Cambridgeshire,http://www.eastcambs.gov.uk,0.39276300000000,CB7 5NJ,2013-08-09,fhrs_5_en-GB,5,,FHRS,0
14056,Isleham Road,Fordham,Ely,Cambridgeshire,Fordham Pre School,Hospitals/Childcare/Caring Premises,5,0,,336227,0,,52.31204200000000,08/00077/MIXED,028,customerservices@eastcambs.gov.uk,East Cambridgeshire,http://www.eastcambs.gov.uk,0.39593700000000,CB7 5NL,2013-09-19,fhrs_5_en-GB,5,,FHRS,0
14057,Isleham Road,Fordham,Ely,Cambridgeshire,Fordham Primary School,School/college/university,7845,0,,336589,5,,52.31204200000000,FO085/9999/1/003,028,customerservices@eastcambs.gov.uk,East Cambridgeshire,http://www.eastcambs.gov.uk,0.39593700000000,CB7 5NL,2014-06-13,fhrs_5_en-GB,5,,FHRS,5
14058,44 Church Street,Fordham,Ely,Cambridgeshire,Fordham Royal British Legion Club,Other catering premises,7841,10,,336587,5,,52.31113500000000,FO015/0044/1/001,028,customerservices@eastcambs.gov.uk,East Cambridgeshire,http://www.eastcambs.gov.uk,0.39276300000000,CB7 5NJ,2013-08-08,fhrs_4_en-GB,4,,FHRS,5
14059,31 Carter Street,Fordham,Ely,Cambridgeshire,Fordham Service Station,Retailers - other,4613,5,,336581,10,,52.31183900000000,FO005/0031/1/001,028,customerservices@eastcambs.gov.uk,East Cambridgeshire,http://www.eastcambs.gov.uk,0.38776800000000,CB7 5NG,2014-05-19,fhrs_4_en-GB,4,,FHRS,5
14060,Victoria Hall,2 Carter Street,Fordham,Ely,Fordham Village Hall,Other catering premises,7841,,,336397,,,52.31183900000000,11/00093/MIXED,028,customerservices@eastcambs.gov.uk,East Cambridgeshire,http://www.eastcambs.gov.uk,0.38776800000000,CB7 5NG,2011-11-09,fhrs_exempt_en-GB,Exempt,,FHRS,
14061,Bungalow Farm,Hillrow Causeway,Haddenham,Ely,Forest School Camps,Other catering premises,7841,,,336606,,,52.36315800000000,HA125/9999/1/034,028,customerservices@eastcambs.gov.uk,East Cambridgeshire,http://www.eastcambs.gov.uk,0.08918000000000,CB6 3PA,2012-06-07,fhrs_exempt_en-GB,Exempt,,FHRS,
14062,38 Broad Street,Ely,Cambridgeshire,,Fortune Garden,Takeaway/sandwich shop,7844,10,,336498,15,,52.39680200000000,E0135/0038/1/001,028,customerservices@eastcambs.gov.uk,East Cambridgeshire,http://www.eastcambs.gov.uk,0.26737900000000,CB7 4AH,2013-03-26,fhrs_2_en-GB,2,,FHRS,10
14063,,,,,Frogs Abbey,Retailers - other,4613,,,693114,,,,10/00145/FOOD,028,customerservices@eastcambs.gov.uk,East Cambridgeshire,http://www.eastcambs.gov.uk,,,2014-08-15,fhrs_exempt_en-GB,Exempt,,FHRS,
14064,,,,,FrostArt Jams And Jellies,Other catering premises,7841,5,,724279,5,,,14/00151/FOOD,028,customerservices@eastcambs.gov.uk,East Cambridgeshire,http://www.eastcambs.gov.uk,,,2014-12-16,fhrs_5_en-GB,5,,FHRS,0
14065,6 Churchgate Street,Soham,Ely,Cambridgeshire,Fullers Bakers,Retailers - other,4613,5,,336677,5,,52.33441500000000,SO085/0006/1/001,028,customerservices@eastcambs.gov.uk,East Cambridgeshire,http://www.eastcambs.gov.uk,0.33713900000000,CB7 5DR,2014-03-10,fhrs_4_en-GB,4,,FHRS,10
14066,28 West End,Ely,Cambridgeshire,,Fur & Feather Limited,Retailers - other,4613,,,336574,,,52.39928600000000,E0825/0028/1/001,028,customerservices@eastcambs.gov.uk,East Cambridgeshire,http://www.eastcambs.gov.uk,0.25365800000000,CB6 3AY,2012-07-13,fhrs_exempt_en-GB,Exempt,,FHRS,
14067,,,,,G T Catering,Other catering premises,7841,5,,336102,5,,,03/00034/MIXED,028,customerservices@eastcambs.gov.uk,East Cambridgeshire,http://www.eastcambs.gov.uk,,,2013-11-11,fhrs_5_en-GB,5,,FHRS,0
14068,11 Vicarage Lane,Woodditton,Newmarket,Suffolk,Garden Lodge B & B,Hotel/bed & breakfast/guest house,7842,5,,494194,0,,52.19878500000000,12/00167/MIXED,028,customerservices@eastcambs.gov.uk,East Cambridgeshire,http://www.eastcambs.gov.uk,0.42845900000000,CB8 9SG,2013-01-16,fhrs_5_en-GB,5,,FHRS,0
14069,31 The Street,Snailwell,Newmarket,Suffolk,George & Dragon,Pub/bar/nightclub,7843,5,,643631,10,,52.28250000000000,14/00003/MIXED,028,customerservices@eastcambs.gov.uk,East Cambridgeshire,http://www.eastcambs.gov.uk,0.40799200000000,CB8 7LX,2014-03-18,fhrs_3_en-GB,3,,FHRS,10
14070,,,,,Georgina King,Other catering premises,7841,0,,336381,0,,,11/00048/FOOD,028,customerservices@eastcambs.gov.uk,East Cambridgeshire,http://www.eastcambs.gov.uk,,,2013-03-20,fhrs_5_en-GB,5,,FHRS,0
14071,,,,,Gerry's Cakes,Other catering premises,7841,5,,434527,10,,,10/00065/FOOD,028,customerservices@eastcambs.gov.uk,East Cambridgeshire,http://www.eastcambs.gov.uk,,,2012-08-10,fhrs_4_en-GB,4,,FHRS,0
14072,,,,,Go Go Sugar,Other catering premises,7841,0,,580717,0,,,13/00061/FOOD,028,customerservices@eastcambs.gov.uk,East Cambridgeshire,http://www.eastcambs.gov.uk,,,2014-03-21,fhrs_5_en-GB,5,,FHRS,0
14073,2A Brook Dam Lane,Soham,Ely,Cambridgeshire,Good Luck Takeaway,Takeaway/sandwich shop,7844,20,,336674,15,,52.33187700000000,SO050/0002/1/001,028,customerservices@eastcambs.gov.uk,East Cambridgeshire,http://www.eastcambs.gov.uk,0.33950000000000,CB7 5HZ,2014-08-12,fhrs_1_en-GB,1,,FHRS,15
14074,,,,,Gourmet Brownie Limited,Other catering premises,7841,5,,336302,5,,,10/00001/FOOD,028,customerservices@eastcambs.gov.uk,East Cambridgeshire,http://www.eastcambs.gov.uk,,,2012-03-27,fhrs_5_en-GB,5,,FHRS,0
14075,5  Annesdale,Ely,Cambridgeshire,,Grand Central Ely,Restaurant/Cafe/Canteen,1,5,,669901,5,,52.39392000000000,13/00122/MIXED,028,customerservices@eastcambs.gov.uk,East Cambridgeshire,http://www.eastcambs.gov.uk,0.26718700000000,CB7 4BN,2014-05-12,fhrs_5_en-GB,5,,FHRS,0
14076,15 Market Street,Ely,Cambridgeshire,,Grape Tree,Retailers - other,4613,5,,590845,5,,52.39996800000000,13/00116/MIXED,028,customerservices@eastcambs.gov.uk,East Cambridgeshire,http://www.eastcambs.gov.uk,0.26452700000000,CB7 4LZ,2013-10-02,fhrs_5_en-GB,5,,FHRS,5
14077,25 Bury Lane,Sutton,Ely,Cambridgeshire,Grove Barn,Hotel/bed & breakfast/guest house,7842,0,,336332,0,,52.39592100000000,10/00111/MIXED,028,customerservices@eastcambs.gov.uk,East Cambridgeshire,http://www.eastcambs.gov.uk,0.09945800000000,CB6 2BD,2014-12-22,fhrs_5_en-GB,5,,FHRS,0
14078,Community Rooms,Sutton Primary School,The Brook,Sutton,Growing Places C C,Other catering premises,7841,,,336344,,,,10/00137/MIXED,028,customerservices@eastcambs.gov.uk,East Cambridgeshire,http://www.eastcambs.gov.uk,,,2010-09-27,fhrs_exempt_en-GB,Exempt,,FHRS,
14079,G's Marketing Ltd,Hainey Farm,Barway,Ely,Gs Staff Shop,Retailers - other,4613,5,,336172,5,,52.35443800000000,07/00035/MIXED,028,customerservices@eastcambs.gov.uk,East Cambridgeshire,http://www.eastcambs.gov.uk,0.28390400000000,CB7 5TZ,2014-11-12,fhrs_5_en-GB,5,,FHRS,5
14080,42 The Causeway,Burwell,Cambridge,,Guyatt House,Hospitals/Childcare/Caring Premises,5,5,,336474,10,,52.27789900000000,BU315/0042/1/001,028,customerservices@eastcambs.gov.uk,East Cambridgeshire,http://www.eastcambs.gov.uk,0.32623200000000,CB25 0DU,2013-03-18,fhrs_4_en-GB,4,,FHRS,0
14081,,,,,H.A.S. Scrummy Bakes,Other catering premises,7841,10,,605136,10,,,13/00128/FOOD,028,customerservices@eastcambs.gov.uk,East Cambridgeshire,http://www.eastcambs.gov.uk,,,2013-10-28,fhrs_4_en-GB,4,,FHRS,0
14082,Arkenstall Centre,7 Station Road,Haddenham,Ely,Haddenham (Cambs) Day Centre,Other catering premises,7841,0,,336609,0,,,HA215/0007/1/004,028,customerservices@eastcambs.gov.uk,East Cambridgeshire,http://www.eastcambs.gov.uk,,,2014-12-16,fhrs_5_en-GB,5,,FHRS,0
14083,Bowls Club,6 Church Lane,Haddenham,Ely,Haddenham Bowls Club,Other catering premises,7841,0,,336596,5,,52.35921100000000,HA065/0006/1/001,028,customerservices@eastcambs.gov.uk,East Cambridgeshire,http://www.eastcambs.gov.uk,0.14685800000000,CB6 3TB,2013-05-29,fhrs_5_en-GB,5,,FHRS,0
14084,Haddenham Galleries,20 High Street,Haddenham,Ely,Haddenham Galleries Tea Shop,Restaurant/Cafe/Canteen,1,5,,336197,5,,52.35698600000000,07/00210/MIXED,028,customerservices@eastcambs.gov.uk,East Cambridgeshire,http://www.eastcambs.gov.uk,0.14808700000000,CB6 3XA,2010-12-01,fhrs_5_en-GB,5,,FHRS,5
14085,1 Station Road,Haddenham,Ely,Cambridgeshire,Haddenham Pharmacy,Retailers - other,4613,,,336313,,,52.36131100000000,10/00050/MIXED,028,customerservices@eastcambs.gov.uk,East Cambridgeshire,http://www.eastcambs.gov.uk,0.14954500000000,CB6 3XD,2010-09-29,fhrs_exempt_en-GB,Exempt,,FHRS,
14086,Post Office,21 High Street,Haddenham,Ely,Haddenham Post Office And Sorting Office,Retailers - other,4613,0,,336602,0,,52.35698600000000,HA115/0021/1/001,028,customerservices@eastcambs.gov.uk,East Cambridgeshire,http://www.eastcambs.gov.uk,0.14808700000000,CB6 3XA,2009-11-30,fhrs_5_en-GB,5,,FHRS,0
14087,Chewells Lane,Haddenham,Ely,Cambridgeshire,Haddenham Pre School,Hospitals/Childcare/Caring Premises,5,5,,336240,5,,52.35770200000000,08/00116/MIXED,028,customerservices@eastcambs.gov.uk,East Cambridgeshire,http://www.eastcambs.gov.uk,0.15169000000000,CB6 3SS,2011-10-27,fhrs_5_en-GB,5,,FHRS,5
14088,Haddenham Social Club,Chewells Lane,Haddenham,Ely,Haddenham Social And Sports Club,Other catering premises,7841,10,,336595,5,,52.35770200000000,HA060/9999/1/005,028,customerservices@eastcambs.gov.uk,East Cambridgeshire,http://www.eastcambs.gov.uk,0.15169000000000,CB6 3SS,2014-03-05,fhrs_3_en-GB,3,,FHRS,10
14089,38 Market Street,Ely,Cambridgeshire,,Hand Crafted Cupcakes,Restaurant/Cafe/Canteen,1,0,,689925,5,,52.40036600000000,14/00082/MIXED,028,customerservices@eastcambs.gov.uk,East Cambridgeshire,http://www.eastcambs.gov.uk,0.26441500000000,CB7 4LS,2014-08-07,fhrs_5_en-GB,5,,FHRS,0
14090,,,,,Handy Plaice Mobile Trading,Mobile caterer,7846,5,,555421,5,,,13/00080/MIXED,028,customerservices@eastcambs.gov.uk,East Cambridgeshire,http://www.eastcambs.gov.uk,,,2013-06-07,fhrs_5_en-GB,5,,FHRS,5
14091,Stowbridge Farm,Green End,Stretham,Ely,Hannam's Wake Grub,Restaurant/Cafe/Canteen,1,10,,550742,20,,52.33381500000000,13/00041/MIXED,028,customerservices@eastcambs.gov.uk,East Cambridgeshire,http://www.eastcambs.gov.uk,0.22332000000000,CB6 3LF,2013-05-13,fhrs_1_en-GB,1,,FHRS,5
14092,2A Main Street,Littleport,Ely,Cambridgeshire,Happy House,Takeaway/sandwich shop,7844,0,,336264,0,,52.45680200000000,09/00032/MIXED,028,customerservices@eastcambs.gov.uk,East Cambridgeshire,http://www.eastcambs.gov.uk,0.30612500000000,CB6 1PJ,2014-09-29,fhrs_4_en-GB,4,,FHRS,10
14093,The Harbour School,Station Road,Wilburton,Ely,Harbour House,School/college/university,7845,5,,587030,5,,52.35530400000000,13/00060/FOOD,028,customerservices@eastcambs.gov.uk,East Cambridgeshire,http://www.eastcambs.gov.uk,0.18195800000000,CB6 3RR,2013-09-25,fhrs_5_en-GB,5,,FHRS,5
14094,14 High Street,Haddenham,Ely,Cambridgeshire,Harnwell And Son Limited,Retailers - other,4613,5,,336600,5,,52.35698600000000,HA115/0014/1/002,028,customerservices@eastcambs.gov.uk,East Cambridgeshire,http://www.eastcambs.gov.uk,0.14808700000000,CB6 3XA,2014-05-07,fhrs_5_en-GB,5,,FHRS,5
14095,,,,,Harris Amusements,Mobile caterer,7846,10,,585502,10,,,13/00109/MIXED,028,customerservices@eastcambs.gov.uk,East Cambridgeshire,http://www.eastcambs.gov.uk,,,2013-09-07,fhrs_4_en-GB,4,,FHRS,0
14096,,,,,Harris Amusements,Mobile caterer,7846,5,,336223,0,,,08/00071/MIXED,028,customerservices@eastcambs.gov.uk,East Cambridgeshire,http://www.eastcambs.gov.uk,,,2014-11-17,fhrs_5_en-GB,5,,FHRS,0
14097,122B St Johns Road,Ely,Cambridgeshire,,Harvest House B & B,Hotel/bed & breakfast/guest house,7842,10,,336180,5,,52.39627300000000,07/00144/FOOD,028,customerservices@eastcambs.gov.uk,East Cambridgeshire,http://www.eastcambs.gov.uk,0.24471500000000,CB6 3BW,2010-11-01,fhrs_4_en-GB,4,,FHRS,5
14098,,,,,Hawkins Drove,Retailers - other,4613,5,,669898,0,,,12/00107/FOOD,028,customerservices@eastcambs.gov.uk,East Cambridgeshire,http://www.eastcambs.gov.uk,,,2014-05-27,fhrs_5_en-GB,5,,FHRS,0
14099,Putney Hill Road,Prickwillow,Ely,Cambridgeshire,Hiams Sports & Social Club,Other catering premises,7841,,,336580,,,52.41202300000000,E0910/9999/1/002,028,customerservices@eastcambs.gov.uk,East Cambridgeshire,http://www.eastcambs.gov.uk,0.34449000000000,CB7 4UU,2010-02-25,fhrs_exempt_en-GB,Exempt,,FHRS,
14100,Downham Road,Ely,Cambridgeshire,,Highfield School,School/college/university,7845,0,,336131,0,,52.40433500000000,05/00030/FOOD,028,customerservices@eastcambs.gov.uk,East Cambridgeshire,http://www.eastcambs.gov.uk,0.25954700000000,CB6 1BD,2013-09-23,fhrs_5_en-GB,5,,FHRS,5
14101,35 Hill Row,Haddenham,Ely,Cambridgeshire,Hillrow Day Nursery,Hospitals/Childcare/Caring Premises,5,5,,336605,5,,52.35869500000000,HA120/0035/0/000,028,customerservices@eastcambs.gov.uk,East Cambridgeshire,http://www.eastcambs.gov.uk,0.13167700000000,CB6 3TQ,2014-08-06,fhrs_5_en-GB,5,,FHRS,5
14102,High Street,Bottisham,Cambridge,,Hilton Park Care Centre,Hospitals/Childcare/Caring Premises,5,10,,528727,15,,52.21864800000000,BO050/9999/1/002,028,customerservices@eastcambs.gov.uk,East Cambridgeshire,http://www.eastcambs.gov.uk,0.27092700000000,CB25 9BX,2014-10-07,fhrs_2_en-GB,2,,FHRS,15
14103,10 The Cloisters,Ely,Cambridgeshire,,Holland & Barrett,Retailers - other,4613,,,336441,,,52.39977300000000,12/00029/MIXED,028,customerservices@eastcambs.gov.uk,East Cambridgeshire,http://www.eastcambs.gov.uk,0.26672200000000,CB7 4ZH,2012-02-22,fhrs_exempt_en-GB,Exempt,,FHRS,
14104,,,,,Hollies Gourmet Burger Bar,Mobile caterer,7846,10,,686850,5,,,14/00086/MIXED,028,customerservices@eastcambs.gov.uk,East Cambridgeshire,http://www.eastcambs.gov.uk,,,2014-06-30,fhrs_4_en-GB,4,,FHRS,5
14105,1 Egremont Street,Ely,Cambridgeshire,,Holly Cottage,Hospitals/Childcare/Caring Premises,5,5,,558764,5,,52.40168900000000,E0265/0001/1/001,028,customerservices@eastcambs.gov.uk,East Cambridgeshire,http://www.eastcambs.gov.uk,0.26155800000000,CB6 1AE,2011-09-05,fhrs_5_en-GB,5,,FHRS,5
14106,Idesons Garage,37 Cambridge Road,Stretham,Ely,HRM Motors (Ideson Motors),Retailers - other,4613,,,336709,,,52.34656200000000,SR040/0037/1/001,028,customerservices@eastcambs.gov.uk,East Cambridgeshire,http://www.eastcambs.gov.uk,0.21299200000000,CB6 3LP,2009-10-06,fhrs_exempt_en-GB,Exempt,,FHRS,
14107,,,,,Hudsons Bayke,Other catering premises,7841,10,,700032,10,,,14/00114/FOOD,028,customerservices@eastcambs.gov.uk,East Cambridgeshire,http://www.eastcambs.gov.uk,,,2014-09-08,fhrs_3_en-GB,3,,FHRS,5
14108,Wilburton Primary School,Carpond Lane,Wilburton,Ely,Humpty's Pre-School,Hospitals/Childcare/Caring Premises,5,5,,336261,5,,52.35307700000000,09/00020/FOOD,028,customerservices@eastcambs.gov.uk,East Cambridgeshire,http://www.eastcambs.gov.uk,0.17591600000000,CB6 3RJ,2010-02-08,fhrs_5_en-GB,5,,FHRS,0
14109,9 The Cloisters,Ely,Cambridgeshire,,Iceland Frozen Foods plc,Retailers - supermarkets/hypermarkets,7840,5,,336571,5,,52.39977300000000,E0742/0009/0/000,028,customerservices@eastcambs.gov.uk,East Cambridgeshire,http://www.eastcambs.gov.uk,0.26672200000000,CB7 4ZH,2008-06-18,fhrs_5_en-GB,5,,FHRS,5
14110,85 High Street,Bottisham,Cambridge,,IL Piccolo Mondo,Restaurant/Cafe/Canteen,1,0,,528723,0,,52.22028900000000,12/00160/MIXED,028,customerservices@eastcambs.gov.uk,East Cambridgeshire,http://www.eastcambs.gov.uk,0.26130300000000,CB25 9BA,2013-03-26,fhrs_5_en-GB,5,,FHRS,0
14111,Indian Garden,13 Victoria Street,Littleport,Ely,Indian Garden (Littleport) Ltd,Restaurant/Cafe/Canteen,1,5,,669910,10,,52.45640200000000,14/00069/MIXED,028,customerservices@eastcambs.gov.uk,East Cambridgeshire,http://www.eastcambs.gov.uk,0.30912200000000,CB6 1LU,2014-06-19,fhrs_4_en-GB,4,,FHRS,5
14112,,,,,Indulgent Creations,Other catering premises,7841,10,,583843,5,,,13/00071/FOOD,028,customerservices@eastcambs.gov.uk,East Cambridgeshire,http://www.eastcambs.gov.uk,,,2013-09-11,fhrs_4_en-GB,4,,FHRS,0
14113,Jubilee Close,Isleham,Ely,Cambridgeshire,Isleham Bowls Club,Other catering premises,7841,0,,336611,0,,52.34189800000000,IS085/9999/1/001,028,customerservices@eastcambs.gov.uk,East Cambridgeshire,http://www.eastcambs.gov.uk,0.41305400000000,CB7 5RW,2014-01-29,fhrs_5_en-GB,5,,FHRS,0
14114,3 Malting Lane,Isleham,Cambridgeshire,,Isleham Pre School,Hospitals/Childcare/Caring Premises,5,0,,336251,5,,52.34040100000000,08/00146/FOOD,028,customerservices@eastcambs.gov.uk,East Cambridgeshire,http://www.eastcambs.gov.uk,0.41370700000000,CB7 5RZ,2014-01-15,fhrs_5_en-GB,5,,FHRS,5
14115,Malting Lane,Isleham,Ely,Cambridgeshire,Isleham Primary School,School/college/university,7845,0,,336613,0,,52.34040100000000,IS105/9999/1/005,028,customerservices@eastcambs.gov.uk,East Cambridgeshire,http://www.eastcambs.gov.uk,0.41370700000000,CB7 5RZ,2013-12-03,fhrs_5_en-GB,5,,FHRS,0
14116,,,,,It's A Sweet Thing,Retailers - other,4613,0,,336113,0,,,04/00005/MIXED,028,customerservices@eastcambs.gov.uk,East Cambridgeshire,http://www.eastcambs.gov.uk,,,2013-02-11,fhrs_5_en-GB,5,,FHRS,0
14117,Mepal Outdoor Centre,Chatteris Road,Mepal,Ely,J S Caterers,Restaurant/Cafe/Canteen,1,0,,336239,5,,52.42049500000000,08/00112/FOOD,028,customerservices@eastcambs.gov.uk,East Cambridgeshire,http://www.eastcambs.gov.uk,0.09697800000000,CB6 2AZ,2013-06-27,fhrs_5_en-GB,5,,FHRS,5
14118,,,,,J S Caterers (Sunflower),Mobile caterer,7846,5,,622815,5,,,13/00090/MIXED,028,customerservices@eastcambs.gov.uk,East Cambridgeshire,http://www.eastcambs.gov.uk,,,2014-01-06,fhrs_5_en-GB,5,,FHRS,0
14119,26 High Street,Burwell,Cambridge,,Jack Hurrell,Retailers - other,4613,5,,336463,5,,52.21867200000000,BU120/0026/1/001,028,customerservices@eastcambs.gov.uk,East Cambridgeshire,http://www.eastcambs.gov.uk,0.15924700000000,CB5 0HB,2014-01-23,fhrs_4_en-GB,4,,FHRS,10
14120,2 High Street,Bottisham,Cambridge,,Jasmine,Takeaway/sandwich shop,7844,10,,336139,10,,52.22348700000000,05/00116/MIXED,028,customerservices@eastcambs.gov.uk,East Cambridgeshire,http://www.eastcambs.gov.uk,0.25774700000000,CB25 9DQ,2013-08-15,fhrs_2_en-GB,2,,FHRS,15
14121,,,,,Jazzy Pops,Other catering premises,7841,5,,371107,0,,,12/00056/FOOD,028,customerservices@eastcambs.gov.uk,East Cambridgeshire,http://www.eastcambs.gov.uk,,,2012-05-11,fhrs_5_en-GB,5,,FHRS,0
14122,1 Fen Bank,Isleham,Ely,Cambridgeshire,JM & MA Thompson & Sons,Retailers - other,4613,0,,336128,5,,52.35452000000000,05/00014/FOOD,028,customerservices@eastcambs.gov.uk,East Cambridgeshire,http://www.eastcambs.gov.uk,0.42157000000000,CB7 5SL,2013-01-22,fhrs_5_en-GB,5,,FHRS,5
14123,July Race Course,Cambridge Road,Newmarket,Suffolk,Jockey Club Catering,Other catering premises,7841,0,,336713,5,,52.21570900000000,ST005/9999/1/018,028,customerservices@eastcambs.gov.uk,East Cambridgeshire,http://www.eastcambs.gov.uk,0.31801800000000,CB8 0TN,2013-07-11,fhrs_5_en-GB,5,,FHRS,5
14124,,,,,Jo's Pantry,Other catering premises,7841,10,,558756,10,,,11/00151/FOOD,028,customerservices@eastcambs.gov.uk,East Cambridgeshire,http://www.eastcambs.gov.uk,,,2013-08-09,fhrs_2_en-GB,2,,FHRS,15
14125,36 Market Street,Ely,Cambridgeshire,,Joyce Family Butchers,Retailers - other,4613,0,,528722,5,,52.40036600000000,12/00158/MIXED,028,customerservices@eastcambs.gov.uk,East Cambridgeshire,http://www.eastcambs.gov.uk,0.26441500000000,CB7 4LS,2014-10-14,fhrs_5_en-GB,5,,FHRS,5
14126,25 High Street,Soham,Ely,Cambridgeshire,Joyce Family Butchers Soham,Retailers - other,4613,10,,643635,5,,52.33244200000000,14/00040/MIXED,028,customerservices@eastcambs.gov.uk,East Cambridgeshire,http://www.eastcambs.gov.uk,0.33819400000000,CB7 5HA,2014-04-04,fhrs_4_en-GB,4,,FHRS,5
14127,57 Lynn Road,Ely,Cambridgeshire,,Judith Smith,Hotel/bed & breakfast/guest house,7842,5,,336188,5,,52.40331500000000,07/00175/FOOD,028,customerservices@eastcambs.gov.uk,East Cambridgeshire,http://www.eastcambs.gov.uk,0.26443400000000,CB6 1DD,2010-12-01,fhrs_5_en-GB,5,,FHRS,5
14128,16 - 18 High Street,Ely,Cambridgeshire,,Julia's Tea Rooms Ltd,Restaurant/Cafe/Canteen,1,5,,336330,5,,52.39922400000000,10/00098/MIXED,028,customerservices@eastcambs.gov.uk,East Cambridgeshire,http://www.eastcambs.gov.uk,0.26441600000000,CB7 4JU,2013-11-11,fhrs_5_en-GB,5,,FHRS,5
14129,9 Church Lane,Cheveley,Newmarket,Suffolk,Juniper,Hotel/bed & breakfast/guest house,7842,10,,715466,0,,52.22009300000000,14/00050/FOOD,028,customerservices@eastcambs.gov.uk,East Cambridgeshire,http://www.eastcambs.gov.uk,0.46591700000000,CB8 9DJ,2014-11-04,fhrs_4_en-GB,4,,FHRS,0
14130,,,,,Karma Farm,Retailers - other,4613,,,336610,,,,IS060/0008/1/001,028,customerservices@eastcambs.gov.uk,East Cambridgeshire,http://www.eastcambs.gov.uk,,,2009-10-06,fhrs_exempt_en-GB,Exempt,,FHRS,
14131,,,,,Katies Thai Kitchen,Mobile caterer,7846,10,,336110,10,,,03/00091/MIXED,028,customerservices@eastcambs.gov.uk,East Cambridgeshire,http://www.eastcambs.gov.uk,,,2014-10-30,fhrs_3_en-GB,3,,FHRS,5
14132,,,,,Kayleigh's Cakes,Other catering premises,7841,10,,587029,5,,,13/00059/FOOD,028,customerservices@eastcambs.gov.uk,East Cambridgeshire,http://www.eastcambs.gov.uk,,,2013-09-20,fhrs_4_en-GB,4,,FHRS,0
14133,,,,,Keith's Kitchen,Other catering premises,7841,5,,558761,0,,,12/00006/FOOD,028,customerservices@eastcambs.gov.uk,East Cambridgeshire,http://www.eastcambs.gov.uk,,,2014-01-16,fhrs_5_en-GB,5,,FHRS,5
14134,,,,,Kelly's Cakery,Other catering premises,7841,5,,336336,5,,,10/00117/FOOD,028,customerservices@eastcambs.gov.uk,East Cambridgeshire,http://www.eastcambs.gov.uk,,,2012-05-17,fhrs_5_en-GB,5,,FHRS,0
14135,,,,,Kel's Catering,Other catering premises,7841,10,,410230,5,,,12/00011/FOOD,028,customerservices@eastcambs.gov.uk,East Cambridgeshire,http://www.eastcambs.gov.uk,,,2012-05-23,fhrs_4_en-GB,4,,FHRS,0
14136,98 Station Road,Kennett,Newmarket,Suffolk,Kennett Primary School,School/college/university,7845,0,,336622,0,,52.28482800000000,KE020/0098/1/001,028,customerservices@eastcambs.gov.uk,East Cambridgeshire,http://www.eastcambs.gov.uk,0.48694500000000,CB8 7QQ,2013-06-12,fhrs_5_en-GB,5,,FHRS,5
14137,Stetchworth Road,Dullingham,Newmarket,Suffolk,Kettlefields Primary School,School/college/university,7845,5,,336488,5,,52.19536500000000,DU080/9999/1/008,028,customerservices@eastcambs.gov.uk,East Cambridgeshire,http://www.eastcambs.gov.uk,0.39426500000000,CB8 9UH,2014-12-09,fhrs_5_en-GB,5,,FHRS,0
14138,The Plough,106 Main Street,Little Downham,Ely,Khaen Khoon Thai,Mobile caterer,7846,5,,686851,5,,52.43169700000000,14/00091/MIXED,028,customerservices@eastcambs.gov.uk,East Cambridgeshire,http://www.eastcambs.gov.uk,0.23635000000000,CB6 2SX,2014-07-15,fhrs_5_en-GB,5,,FHRS,5
14139,,,,,Kidd's Kitchen,Other catering premises,7841,5,,536656,5,,,12/00094/FOOD,028,customerservices@eastcambs.gov.uk,East Cambridgeshire,http://www.eastcambs.gov.uk,,,2015-01-19,fhrs_4_en-GB,4,,FHRS,10
14140,,,,,Kiddy Cook Cambridge & Ely,Other catering premises,7841,5,,371101,5,,,11/00154/FOOD,028,customerservices@eastcambs.gov.uk,East Cambridgeshire,http://www.eastcambs.gov.uk,,,2012-05-01,fhrs_5_en-GB,5,,FHRS,5
14141,Community Room,St Johns Primary School,St Johns Road,Ely,Kids Club Ely & Breakfast Buddies,Hospitals/Childcare/Caring Premises,5,5,,336148,5,,52.39627300000000,06/00031/MIXED,028,customerservices@eastcambs.gov.uk,East Cambridgeshire,http://www.eastcambs.gov.uk,0.24471500000000,CB6 3BW,2010-12-01,fhrs_5_en-GB,5,,FHRS,5
14142,5 St Thomas Place,Ely,Cambridgeshire,,Kidsunlimited Ely,Hospitals/Childcare/Caring Premises,5,0,,336118,0,,52.38743800000000,04/00023/MIXED,028,customerservices@eastcambs.gov.uk,East Cambridgeshire,http://www.eastcambs.gov.uk,0.26056500000000,CB7 4EX,2013-09-25,fhrs_5_en-GB,5,,FHRS,0
14143,The Kings School,The Old Palace,Palace Green,Ely,King's Ely Sixth Form,School/college/university,7845,0,,466378,0,,52.39934300000000,12/00156/FOOD,028,customerservices@eastcambs.gov.uk,East Cambridgeshire,http://www.eastcambs.gov.uk,0.26196700000000,CB7 4EW,2014-12-09,fhrs_5_en-GB,5,,FHRS,5
14144,,,,,Kings Ice Cream (Market Square),Retailers - other,4613,0,,715470,0,,,14/00140/MIXED,028,customerservices@eastcambs.gov.uk,East Cambridgeshire,http://www.eastcambs.gov.uk,,,2013-07-22,fhrs_5_en-GB,5,,FHRS,0
14145,,,,,Kings Ice Cream (Waterside),Retailers - other,4613,5,,336633,0,,,LD260/0005/1/002,028,customerservices@eastcambs.gov.uk,East Cambridgeshire,http://www.eastcambs.gov.uk,,,2013-07-29,fhrs_5_en-GB,5,,FHRS,0
14146,Kings School Kitchen & Dining Hall,The Kings School Monastic Barn,The College,Ely,King's School,School/college/university,7845,0,,336572,0,,,E0745/9999/1/004,028,customerservices@eastcambs.gov.uk,East Cambridgeshire,http://www.eastcambs.gov.uk,,,2014-12-09,fhrs_5_en-GB,5,,FHRS,5
14147,39 The Street,Kirtling,Newmarket,Suffolk,Kirtling Village Hall,Other catering premises,7841,,,336623,,,52.18388200000000,KI035/0039/1/001,028,customerservices@eastcambs.gov.uk,East Cambridgeshire,http://www.eastcambs.gov.uk,0.46970600000000,CB8 9PB,2011-08-12,fhrs_exempt_en-GB,Exempt,,FHRS,
14148,Platform 1,Ely Railway Station,Station Road,Ely,L A Golden Bean,Restaurant/Cafe/Canteen,1,5,,336568,5,,52.39312200000000,E0730/9999/1/012,028,customerservices@eastcambs.gov.uk,East Cambridgeshire,http://www.eastcambs.gov.uk,0.26519100000000,CB7 4BS,2012-01-25,fhrs_5_en-GB,5,,FHRS,5
14149,La Hogue Farm,La Hogue Road,Chippenham,Ely,La Hogue Cafe,Restaurant/Cafe/Canteen,1,5,,336339,0,,52.28440400000000,10/00122/MIXED,028,customerservices@eastcambs.gov.uk,East Cambridgeshire,http://www.eastcambs.gov.uk,0.46000100000000,CB7 5PZ,2014-03-26,fhrs_5_en-GB,5,,FHRS,0
14150,La Hogue Farm,La Hogue Road,Chippenham,Ely,La Hogue Farm Foods Shop,Retailers - other,4613,5,,336484,5,,52.28440400000000,CHI20/9999/1/025,028,customerservices@eastcambs.gov.uk,East Cambridgeshire,http://www.eastcambs.gov.uk,0.46000100000000,CB7 5PZ,2014-03-26,fhrs_4_en-GB,4,,FHRS,10
14151,2A Newnham Street,Ely,Cambridgeshire,,Labas,Retailers - other,4613,5,,336244,5,,52.40099500000000,08/00122/MIXED,028,customerservices@eastcambs.gov.uk,East Cambridgeshire,http://www.eastcambs.gov.uk,0.26631500000000,CB7 4PE,2013-09-16,fhrs_5_en-GB,5,,FHRS,5
14152,2 Victoria Street,Littleport,Ely,Cambridgeshire,Laburnham Lodge Residential Home,Hospitals/Childcare/Caring Premises,5,20,,336651,10,,52.45608200000000,LI385/0002/1/001,028,customerservices@eastcambs.gov.uk,East Cambridgeshire,http://www.eastcambs.gov.uk,0.30937000000000,CB6 1LX,2014-09-18,fhrs_1_en-GB,1,,FHRS,15
14153,Lancaster Lodge,Lancaster Way Business Park,Ely,Cambridgeshire,Lancaster Lodge Childcare Ltd,Hospitals/Childcare/Caring Premises,5,5,,542672,10,,52.38677000000000,13/00015/MIXED,028,customerservices@eastcambs.gov.uk,East Cambridgeshire,http://www.eastcambs.gov.uk,0.22800800000000,CB6 3NX,2014-05-06,fhrs_4_en-GB,4,,FHRS,0
14154,The Lantern Community Primary Schoo,Nene Road,Ely,Cambridgeshire,Lantern Cake Club,Restaurant/Cafe/Canteen,1,5,,460485,5,,52.40834300000000,12/00146/FOOD,028,customerservices@eastcambs.gov.uk,East Cambridgeshire,http://www.eastcambs.gov.uk,0.25919300000000,CB6 2WL,2012-09-10,fhrs_5_en-GB,5,,FHRS,0
14155,,,,,Lazy Lisa's Burger Bar,Mobile caterer,7846,0,,336636,0,,,LI065/0086/1/001,028,customerservices@eastcambs.gov.uk,East Cambridgeshire,http://www.eastcambs.gov.uk,,,2013-02-07,fhrs_5_en-GB,5,,FHRS,0
14156,Cambridge Road,Stretham,Ely,Cambridgeshire,Lazy Otter,Restaurant/Cafe/Canteen,1,10,,336298,10,,52.33403800000000,09/00172/MIXED,028,customerservices@eastcambs.gov.uk,East Cambridgeshire,http://www.eastcambs.gov.uk,0.20132800000000,CB6 3LU,2014-12-02,fhrs_3_en-GB,3,,FHRS,10
14157,26 Forehill,Ely,Cambridgeshire,,Le Spice,Restaurant/Cafe/Canteen,1,20,,336364,15,,52.39832300000000,10/00180/MIXED,028,customerservices@eastcambs.gov.uk,East Cambridgeshire,http://www.eastcambs.gov.uk,0.26731000000000,CB7 4AF,2014-03-17,fhrs_1_en-GB,1,,FHRS,10
14158,,,,,Lekky Thai Food,Retailers - other,4613,5,,691285,5,,,14/00101/MIXED,028,customerservices@eastcambs.gov.uk,East Cambridgeshire,http://www.eastcambs.gov.uk,,,2014-08-06,fhrs_5_en-GB,5,,FHRS,5
14159,2 Pratt Street,Soham,Ely,Cambridgeshire,Ley Stores,Retailers - other,4613,0,,336698,5,,52.33661000000000,SO305/0002/1/005,028,customerservices@eastcambs.gov.uk,East Cambridgeshire,http://www.eastcambs.gov.uk,0.33618300000000,CB7 5BH,2014-09-26,fhrs_5_en-GB,5,,FHRS,5
14160,29A Forehill,Ely,Cambridgeshire,,Liberty Belle,Pub/bar/nightclub,7843,10,,590843,5,,52.39837900000000,13/00047/MIXED,028,customerservices@eastcambs.gov.uk,East Cambridgeshire,http://www.eastcambs.gov.uk,0.26770900000000,CB7 4AA,2013-10-01,fhrs_2_en-GB,2,,FHRS,15
14161,The Lighthouse Church,13 Lynn Road,Ely,Cambridgeshire,Lighthouse Church,Other catering premises,7841,0,,336388,10,,52.40016900000000,11/00067/MIXED,028,customerservices@eastcambs.gov.uk,East Cambridgeshire,http://www.eastcambs.gov.uk,0.26250900000000,CB7 4EG,2014-06-23,fhrs_4_en-GB,4,,FHRS,5
14162,141 Lynn Road,Ely,Cambridgeshire,,Lily House,Hospitals/Childcare/Caring Premises,5,10,,536658,15,,52.40522400000000,E0480/9999/1/009,028,customerservices@eastcambs.gov.uk,East Cambridgeshire,http://www.eastcambs.gov.uk,0.26710500000000,CB6 1DE,2014-10-08,fhrs_2_en-GB,2,,FHRS,15
14163,48A Carter Street,Fordham,Ely,Cambridgeshire,Linhs Chinese Restaurant,Restaurant/Cafe/Canteen,1,5,,336582,10,,52.31183900000000,FO005/0048/1/001,028,customerservices@eastcambs.gov.uk,East Cambridgeshire,http://www.eastcambs.gov.uk,0.38776800000000,CB7 5NG,2014-08-29,fhrs_4_en-GB,4,,FHRS,5
14164,The Links,Cambridge Road,Newmarket,Suffolk,Links Golf Club (Bar),Pub/bar/nightclub,7843,0,,492878,0,,52.23086800000000,12/00153/MIXED,028,customerservices@eastcambs.gov.uk,East Cambridgeshire,http://www.eastcambs.gov.uk,0.38221900000000,CB8 0TG,2013-01-09,fhrs_5_en-GB,5,,FHRS,0
14165,The Links,Cambridge Road,Newmarket,Suffolk,Links Hostel,Restaurant/Cafe/Canteen,1,10,,336740,10,,52.23086800000000,W0132/0000/1/001,028,customerservices@eastcambs.gov.uk,East Cambridgeshire,http://www.eastcambs.gov.uk,0.38221900000000,CB8 0TG,2014-05-29,fhrs_4_en-GB,4,,FHRS,0
14166,56B Witchford Road,Ely,Cambridgeshire,,Little Chef,Restaurant/Cafe/Canteen,1,0,,336577,5,,52.39041700000000,E0840/9999/1/006,028,customerservices@eastcambs.gov.uk,East Cambridgeshire,http://www.eastcambs.gov.uk,0.23867100000000,CB6 3NN,2013-12-09,fhrs_4_en-GB,4,,FHRS,10
14167,25 Main Street,Little Downham,Ely,Cambridgeshire,Little Downham Anchor,Restaurant/Cafe/Canteen,1,5,,517108,5,,52.43278800000000,12/00060/MIXED,028,customerservices@eastcambs.gov.uk,East Cambridgeshire,http://www.eastcambs.gov.uk,0.24096500000000,CB6 2ST,2013-02-26,fhrs_5_en-GB,5,,FHRS,5
14168,Main Street,Little Downham,Ely,Cambridgeshire,Little Downham Village Centre,Other catering premises,7841,,,336628,,,52.43417400000000,LD170/9999/1/010,028,customerservices@eastcambs.gov.uk,East Cambridgeshire,http://www.eastcambs.gov.uk,0.24134500000000,CB6 2SY,2009-10-06,fhrs_exempt_en-GB,Exempt,,FHRS,
14169,The Sports Pavillon,Station Road,Kennett,Suffolk,Little Learners,School/college/university,7845,0,,336286,0,,52.28482800000000,09/00127/MIXED,028,customerservices@eastcambs.gov.uk,East Cambridgeshire,http://www.eastcambs.gov.uk,0.48694500000000,CB8 7QQ,2014-02-26,fhrs_4_en-GB,4,,FHRS,10
14170,Fassage Hall,Station Road,Lode,,Little Legs Of Lode,Hospitals/Childcare/Caring Premises,5,0,,505773,0,,52.24325200000000,12/00163/FOOD,028,customerservices@eastcambs.gov.uk,East Cambridgeshire,http://www.eastcambs.gov.uk,0.24260800000000,CB25 9HB,2013-01-25,fhrs_5_en-GB,5,,FHRS,0
14171,Chewells Lane,Haddenham,Ely,Cambridgeshire,Little Teds Day Nursery,Hospitals/Childcare/Caring Premises,5,0,,336126,5,,52.35770200000000,04/00071/MIXED,028,customerservices@eastcambs.gov.uk,East Cambridgeshire,http://www.eastcambs.gov.uk,0.15169000000000,CB6 3SS,2015-02-04,fhrs_5_en-GB,5,,FHRS,0
14172,Oak Fields,The Wyches,Little Thetford,Cambridgeshire,Little Thetford Acorns Pre-School & Childrens Club,Hospitals/Childcare/Caring Premises,5,5,,336309,5,,52.36534500000000,10/00038/MIXED,028,customerservices@eastcambs.gov.uk,East Cambridgeshire,http://www.eastcambs.gov.uk,0.24498200000000,CB6 3HG,2013-05-09,fhrs_5_en-GB,5,,FHRS,5
14173,Green Hill,Little Thetford,Ely,Cambridgeshire,Little Thetford CP School,School/college/university,7845,5,,336661,0,,52.36269800000000,LT020/9999/1/001,028,customerservices@eastcambs.gov.uk,East Cambridgeshire,http://www.eastcambs.gov.uk,0.24799200000000,CB6 3HD,2013-09-26,fhrs_5_en-GB,5,,FHRS,5
14174,The Pavillion,The Wyches,Little Thetford,Cambridgeshire,Little Thetford Social Club,Other catering premises,7841,,,336280,,,52.36592800000000,09/00085/MIXED,028,customerservices@eastcambs.gov.uk,East Cambridgeshire,http://www.eastcambs.gov.uk,0.24308500000000,,2012-07-05,fhrs_exempt_en-GB,Exempt,,FHRS,
14175,The Wyches,Little Thetford,Ely,Cambridgeshire,Little Thetford Village Hall,Other catering premises,7841,,,336662,,,52.36534500000000,LT045/9999/1/002,028,customerservices@eastcambs.gov.uk,East Cambridgeshire,http://www.eastcambs.gov.uk,0.24498200000000,CB6 3HG,2011-09-05,fhrs_exempt_en-GB,Exempt,,FHRS,
14176,Reach Village Centre,13 Fair Green,Reach,Cambridge,Little Windmills Playgroup,School/college/university,7845,,,336162,,,52.27128200000000,06/00141/MIXED,028,customerservices@eastcambs.gov.uk,East Cambridgeshire,http://www.eastcambs.gov.uk,0.29447400000000,CB25 0JD,2009-10-06,fhrs_exempt_en-GB,Exempt,,FHRS,
14177,Scout/Guide Hut,Recreation Ground,Fountain Lane,Soham,Little Wombatz,Hospitals/Childcare/Caring Premises,5,0,,517112,0,,52.33276800000000,12/00113/MIXED,028,customerservices@eastcambs.gov.uk,East Cambridgeshire,http://www.eastcambs.gov.uk,0.34127900000000,CB7 5PL,2013-03-06,fhrs_5_en-GB,5,,FHRS,0
14178,Hempfield Place,Littleport,Ely,Cambridgeshire,Littleport Bowls Club,Other catering premises,7841,10,,336643,10,,52.45466800000000,LI180/9999/1/005,028,customerservices@eastcambs.gov.uk,East Cambridgeshire,http://www.eastcambs.gov.uk,0.30445400000000,CB6 1NP,2014-07-28,fhrs_4_en-GB,4,,FHRS,0
14179,Littleport Community Primary School,Parsons Lane,Littleport,Ely,Littleport Childrens Centre,Other catering premises,7841,,,336346,,,52.45789700000000,10/00141/MIXED,028,customerservices@eastcambs.gov.uk,East Cambridgeshire,http://www.eastcambs.gov.uk,0.29052100000000,CB6 1JT,2011-01-10,fhrs_exempt_en-GB,Exempt,,FHRS,
14180,Parsons Lane,Littleport,Cambridgeshire,,Littleport Community Pre School,Hospitals/Childcare/Caring Premises,5,5,,336224,5,,52.45789700000000,08/00072/MIXED,028,customerservices@eastcambs.gov.uk,East Cambridgeshire,http://www.eastcambs.gov.uk,0.29052100000000,CB6 1JT,2013-10-07,fhrs_5_en-GB,5,,FHRS,5
14181,Parsons Lane,Littleport,Ely,Cambridgeshire,Littleport Community Primary School,School/college/university,7845,0,,336276,0,,52.45789700000000,09/00074/FOOD,028,customerservices@eastcambs.gov.uk,East Cambridgeshire,http://www.eastcambs.gov.uk,0.29052100000000,CB6 1JT,2013-03-20,fhrs_5_en-GB,5,,FHRS,0
14182,Ponts Hill,Littleport,Ely,Cambridgeshire,Littleport Ex-Servicemens Club,Pub/bar/nightclub,7843,5,,336650,5,,52.45896300000000,LI305/9999/1/002,028,customerservices@eastcambs.gov.uk,East Cambridgeshire,http://www.eastcambs.gov.uk,0.30548800000000,CB6 1PZ,2012-06-20,fhrs_5_en-GB,5,,FHRS,5
14183,1 Grange Lane,Littleport,Ely,Cambridgeshire,Littleport Grange,Hospitals/Childcare/Caring Premises,5,0,,336640,5,,52.44945400000000,LI155/0001/1/001,028,customerservices@eastcambs.gov.uk,East Cambridgeshire,http://www.eastcambs.gov.uk,0.29604300000000,CB6 1HW,2014-08-13,fhrs_5_en-GB,5,,FHRS,5
14184,Camel Road,Littleport,Ely,Cambridgeshire,Littleport Leisure Centre,Restaurant/Cafe/Canteen,1,0,,336637,5,,52.46528700000000,LI065/9999/1/006,028,customerservices@eastcambs.gov.uk,East Cambridgeshire,http://www.eastcambs.gov.uk,0.30212300000000,CB6 1EW,2014-01-22,fhrs_5_en-GB,5,,FHRS,5
14185,61 Ely Road,Littleport,Ely,Cambridgeshire,Littleport Steakhouse,Restaurant/Cafe/Canteen,1,10,,410231,10,,52.44685600000000,12/00033/MIXED,028,customerservices@eastcambs.gov.uk,East Cambridgeshire,http://www.eastcambs.gov.uk,0.29879200000000,CB6 1HJ,2014-05-29,fhrs_2_en-GB,2,,FHRS,15
14186,12 Victoria Street,Littleport,Ely,Cambridgeshire,Littleport Village Hall,Other catering premises,7841,,,336652,,,52.45608200000000,LI385/0012/1/001,028,customerservices@eastcambs.gov.uk,East Cambridgeshire,http://www.eastcambs.gov.uk,0.30937000000000,CB6 1LX,2012-01-09,fhrs_exempt_en-GB,Exempt,,FHRS,
14187,31 High Street,Soham,Ely,Cambridgeshire,Lloyds Pharmacy,Retailers - other,4613,,,336254,,,52.33244200000000,08/00153/MIXED,028,customerservices@eastcambs.gov.uk,East Cambridgeshire,http://www.eastcambs.gov.uk,0.33819400000000,CB7 5HA,2011-07-11,fhrs_exempt_en-GB,Exempt,,FHRS,
14188,Platform 1 Ely Railway Station,Station Road,Ely,Cambridgeshire,Locoespresso,Retailers - other,4613,0,,336099,0,,52.39137200000000,03/00005/MIXED,028,customerservices@eastcambs.gov.uk,East Cambridgeshire,http://www.eastcambs.gov.uk,0.26758900000000,,2014-02-27,fhrs_5_en-GB,5,,FHRS,5
14189,Platform 2,Ely Railway Station,Station Road,Ely,Locoespresso,Restaurant/Cafe/Canteen,1,0,,336567,0,,52.39312200000000,E0730/9999/1/009,028,customerservices@eastcambs.gov.uk,East Cambridgeshire,http://www.eastcambs.gov.uk,0.26519100000000,CB7 4BS,2013-09-24,fhrs_5_en-GB,5,,FHRS,5
14190,24 High Street,Lode,Cambridge,Cambridgeshire,Lode Post Office And Shop,Retailers - other,4613,10,,336658,10,,52.21867200000000,LO025/0024/0/000,028,customerservices@eastcambs.gov.uk,East Cambridgeshire,http://www.eastcambs.gov.uk,0.15924700000000,CB5 9EW,2014-09-29,fhrs_3_en-GB,3,,FHRS,10
14191,The Moat,16 College Close,Soham,Ely,Lucy Sawyer Catering,Restaurant/Cafe/Canteen,1,5,,574357,5,,52.33031500000000,13/00056/FOOD,028,customerservices@eastcambs.gov.uk,East Cambridgeshire,http://www.eastcambs.gov.uk,0.33526400000000,CB7 5HP,2015-02-03,fhrs_5_en-GB,5,,FHRS,5
14192,1 Market Street,Ely,Cambridgeshire,,Lunch Box,Restaurant/Cafe/Canteen,1,10,,336539,10,,52.39957300000000,E0505/0005/1/001,028,customerservices@eastcambs.gov.uk,East Cambridgeshire,http://www.eastcambs.gov.uk,0.26543300000000,CB7 4PB,2013-07-29,fhrs_2_en-GB,2,,FHRS,15
14193,Swaffham Bulbeck C Of E Primary Sch,84 High Street,Swaffham Bulbeck,Cambridge,Lunchtime UK,School/college/university,7845,5,,585501,10,,52.23647300000000,13/00097/FOOD,028,customerservices@eastcambs.gov.uk,East Cambridgeshire,http://www.eastcambs.gov.uk,0.27686000000000,CB25 0LX,2013-09-17,fhrs_4_en-GB,4,,FHRS,5
14194,Swaffham Prior C Of E Community Pri,Station Road,Swaffham Prior,Cambridge,Lunchtime UK,School/college/university,7845,5,,681369,10,,52.25621700000000,14/00067/FOOD,028,customerservices@eastcambs.gov.uk,East Cambridgeshire,http://www.eastcambs.gov.uk,0.28812800000000,CB25 0LG,2014-07-10,fhrs_4_en-GB,4,,FHRS,5
14195,186 Main Street,Witchford,Ely,Cambridgeshire,Luveis Catering,Restaurant/Cafe/Canteen,1,5,,595170,10,,52.38716600000000,13/00110/MIXED,028,customerservices@eastcambs.gov.uk,East Cambridgeshire,http://www.eastcambs.gov.uk,0.19339000000000,CB6 2HT,2013-10-24,fhrs_4_en-GB,4,,FHRS,5
14196,,,,,M J Spence,Retailers - other,4613,5,,336285,5,,,09/00120/MIXED,028,customerservices@eastcambs.gov.uk,East Cambridgeshire,http://www.eastcambs.gov.uk,,,2013-05-10,fhrs_5_en-GB,5,,FHRS,5
14197,Cambridge Machinery Sales Ground,Elean Business Park,Sutton,Ely,Machinery Sales Catering Services,Restaurant/Cafe/Canteen,1,5,,336727,5,,52.39522200000000,SU100/9999/1/003,028,customerservices@eastcambs.gov.uk,East Cambridgeshire,http://www.eastcambs.gov.uk,0.12799900000000,CB6 2QT,2013-12-09,fhrs_4_en-GB,4,,FHRS,10
14198,Cambridge Machinery Sales Ground,Elean Business Park,Sutton,Ely,Machinery Sales Catering Services (Mobiles),Mobile caterer,7846,5,,336380,5,,52.39522200000000,11/00039/MIXED,028,customerservices@eastcambs.gov.uk,East Cambridgeshire,http://www.eastcambs.gov.uk,0.12799900000000,CB6 2QT,2014-04-07,fhrs_5_en-GB,5,,FHRS,5
14199,,,,,Main St Bakery,Other catering premises,7841,0,,635109,0,,,14/00005/FOOD,028,customerservices@eastcambs.gov.uk,East Cambridgeshire,http://www.eastcambs.gov.uk,,,2014-02-17,fhrs_5_en-GB,5,,FHRS,0
14200,1 Ness Road,Burwell,Cambridge,,Manchetts,Retailers - other,4613,5,,336465,10,,52.27814300000000,BU190/0001/1/001,028,customerservices@eastcambs.gov.uk,East Cambridgeshire,http://www.eastcambs.gov.uk,0.32935300000000,CB25 0AA,2014-11-25,fhrs_4_en-GB,4,,FHRS,0
14201,Tan House Lane,Burwell,,,Mandeville Hall,Other catering premises,7841,,,336427,,,52.26853300000000,11/00164/MIXED,028,customerservices@eastcambs.gov.uk,East Cambridgeshire,http://www.eastcambs.gov.uk,0.32739800000000,CB25 0AR,2011-11-21,fhrs_exempt_en-GB,Exempt,,FHRS,
14202,Cambridge Road,Stretham,Ely,Cambridgeshire,Mango Valley,Restaurant/Cafe/Canteen,1,10,,676395,10,,52.33403800000000,14/00064/MIXED,028,customerservices@eastcambs.gov.uk,East Cambridgeshire,http://www.eastcambs.gov.uk,0.20132800000000,CB6 3LU,2014-06-20,fhrs_3_en-GB,3,,FHRS,10
14203,,,,,Mario,Retailers - other,4613,5,,643630,10,,,13/00084/FOOD,028,customerservices@eastcambs.gov.uk,East Cambridgeshire,http://www.eastcambs.gov.uk,,,2014-03-31,fhrs_4_en-GB,4,,FHRS,5
14204,94 High Street,Stetchworth,Newmarket,Suffolk,Marquis Of Granby,Restaurant/Cafe/Canteen,1,5,,336421,5,,52.20122100000000,11/00155/MIXED,028,customerservices@eastcambs.gov.uk,East Cambridgeshire,http://www.eastcambs.gov.uk,0.39905800000000,CB8 9TJ,2014-01-14,fhrs_5_en-GB,5,,FHRS,5
14205,Methodist Church,High Street,Haddenham,Ely,Martha's Kitchen,Restaurant/Cafe/Canteen,1,10,,643632,5,,52.35506400000000,14/00013/MIXED,028,customerservices@eastcambs.gov.uk,East Cambridgeshire,http://www.eastcambs.gov.uk,0.14646700000000,CB6 3XB,2014-03-28,fhrs_4_en-GB,4,,FHRS,0
14206,,,,,Mazey's Munch,Mobile caterer,7846,0,,336365,0,,,10/00181/MIXED,028,customerservices@eastcambs.gov.uk,East Cambridgeshire,http://www.eastcambs.gov.uk,,,2013-03-13,fhrs_5_en-GB,5,,FHRS,0
14207,24 Main Street,Littleport,Ely,Cambridgeshire,McColls,Retailers - other,4613,20,,494196,5,,52.45680200000000,13/00020/FOOD,028,customerservices@eastcambs.gov.uk,East Cambridgeshire,http://www.eastcambs.gov.uk,0.30612500000000,CB6 1PJ,2013-01-11,fhrs_1_en-GB,1,,FHRS,10
14208,Brangehill Lane,Mepal,Ely,Cambridgeshire,Mepal & Witcham Pre-School,Hospitals/Childcare/Caring Premises,5,5,,336209,10,,52.40666800000000,08/00020/FOOD,028,customerservices@eastcambs.gov.uk,East Cambridgeshire,http://www.eastcambs.gov.uk,0.11549400000000,CB6 2AL,2014-10-13,fhrs_4_en-GB,4,,FHRS,5
14209,Brangehill Lane,Mepal,Ely,Cambridgeshire,Mepal And Witcham Primary School,School/college/university,7845,5,,336663,5,,52.40666800000000,ME005/9999/1/001,028,customerservices@eastcambs.gov.uk,East Cambridgeshire,http://www.eastcambs.gov.uk,0.11549400000000,CB6 2AL,2015-02-05,fhrs_5_en-GB,5,,FHRS,0
14210,7A High Street,Mepal,Ely,Cambridgeshire,Mepal Post Office & Stores,Retailers - other,4613,20,,505775,5,,52.40661400000000,12/00172/MIXED,028,customerservices@eastcambs.gov.uk,East Cambridgeshire,http://www.eastcambs.gov.uk,0.12000500000000,CB6 2AW,2013-01-30,fhrs_1_en-GB,1,,FHRS,10
14211,School Lane,Mepal,Cambridgeshire,,Mepal Village Hall,Other catering premises,7841,,,336307,,,52.40768900000000,10/00027/MIXED,028,customerservices@eastcambs.gov.uk,East Cambridgeshire,http://www.eastcambs.gov.uk,0.11821900000000,,2012-01-09,fhrs_exempt_en-GB,Exempt,,FHRS,
14212,16 Hawthorn Way,Burwell,Cambridge,,Metropolitan,Hospitals/Childcare/Caring Premises,5,0,,479225,10,,52.28200700000000,BU110/0016/1/001,028,customerservices@eastcambs.gov.uk,East Cambridgeshire,http://www.eastcambs.gov.uk,0.33175500000000,CB25 0DQ,2014-12-16,fhrs_4_en-GB,4,,FHRS,0
14213,,,,,Michael Grey,Farmers/growers,7838,0,,468258,0,,,11/00142/FOOD,028,customerservices@eastcambs.gov.uk,East Cambridgeshire,http://www.eastcambs.gov.uk,,,2012-11-21,fhrs_5_en-GB,5,,FHRS,0
14214,50 Lode Close,Soham,Ely,Cambridgeshire,Millbrook House,Other catering premises,7841,5,,336356,0,,52.33152700000000,10/00166/MIXED,028,customerservices@eastcambs.gov.uk,East Cambridgeshire,http://www.eastcambs.gov.uk,0.33353700000000,CB7 5WN,2013-08-01,fhrs_5_en-GB,5,,FHRS,0
14215,16 Chequer Lane,Ely,Cambridgeshire,,Millennium Pizza,Takeaway/sandwich shop,7844,5,,336506,0,,52.39977600000000,E0191/0016/1/001,028,customerservices@eastcambs.gov.uk,East Cambridgeshire,http://www.eastcambs.gov.uk,0.26378200000000,CB7 4LN,2014-12-18,fhrs_5_en-GB,5,,FHRS,5
14216,Grange Lane,Littleport,Ely,Cambridgeshire,Millfield Primary School,School/college/university,7845,0,,336641,5,,52.44945400000000,LI155/9999/1/003,028,customerservices@eastcambs.gov.uk,East Cambridgeshire,http://www.eastcambs.gov.uk,0.29604300000000,CB6 1HW,2013-09-18,fhrs_5_en-GB,5,,FHRS,5
14217,,,,,Mister Softy,Retailers - other,4613,0,,336316,0,,,10/00066/MIXED,028,customerservices@eastcambs.gov.uk,East Cambridgeshire,http://www.eastcambs.gov.uk,,,2014-03-03,fhrs_5_en-GB,5,,FHRS,0
14218,56 High Street,Soham,Ely,Cambridgeshire,Monopolowy,Retailers - other,4613,0,,336256,0,,52.33261700000000,09/00012/MIXED,028,customerservices@eastcambs.gov.uk,East Cambridgeshire,http://www.eastcambs.gov.uk,0.33843800000000,CB7 5HE,2014-12-30,fhrs_5_en-GB,5,,FHRS,0
14219,39 - 41 Market Street,Ely,Cambridgeshire,,Montaz Indian Restaurant,Restaurant/Cafe/Canteen,1,10,,336158,10,,52.40004500000000,06/00090/MIXED,028,customerservices@eastcambs.gov.uk,East Cambridgeshire,http://www.eastcambs.gov.uk,0.26426700000000,CB7 4LZ,2014-02-05,fhrs_3_en-GB,3,,FHRS,10
14220,5 Coronation Parade,High Street,Ely,Cambridgeshire,Mr Simms Olde Sweet Shoppe,Retailers - other,4613,10,,579694,10,,52.39941300000000,13/00102/MIXED,028,customerservices@eastcambs.gov.uk,East Cambridgeshire,http://www.eastcambs.gov.uk,0.26301400000000,CB7 4LB,2013-08-20,fhrs_2_en-GB,2,,FHRS,15
14221,Witcham Toll Service Station,Ely Road,Witcham Toll,Ely,MRH Jet Witcham Toll,Retailers - other,4613,20,,336720,10,,52.39015200000000,SU060/9999/1/024,028,customerservices@eastcambs.gov.uk,East Cambridgeshire,http://www.eastcambs.gov.uk,0.15129900000000,CB6 2AA,2014-04-01,fhrs_1_en-GB,1,,FHRS,10
14222,,,,,Mrs E Murfet,Retailers - other,4613,5,,336672,5,,,SO020/0001/1/002,028,customerservices@eastcambs.gov.uk,East Cambridgeshire,http://www.eastcambs.gov.uk,,,2010-11-01,fhrs_5_en-GB,5,,FHRS,5
14223,,,,,Nannas Cottage Cakes,Other catering premises,7841,5,,688365,10,,,14/00079/FOOD,028,customerservices@eastcambs.gov.uk,East Cambridgeshire,http://www.eastcambs.gov.uk,,,2014-07-28,fhrs_4_en-GB,4,,FHRS,0
14224,Scott Court,Sutton,Cambridgeshire,,Nellies Community Cafe,Restaurant/Cafe/Canteen,1,10,,605137,0,,52.39001400000000,13/00129/MIXED,028,customerservices@eastcambs.gov.uk,East Cambridgeshire,http://www.eastcambs.gov.uk,0.12112000000000,CB6 2PS,2013-10-25,fhrs_4_en-GB,4,,FHRS,0
14225,Burwell,Cambridge,CB25 0AB,,Ness Court,Other catering premises,7841,5,,336458,5,,,BU020/9999/1/001,028,customerservices@eastcambs.gov.uk,East Cambridgeshire,http://www.eastcambs.gov.uk,,,2014-09-03,fhrs_4_en-GB,4,,FHRS,10
14226,52 New Barns Road,Ely,Cambridgeshire,,New Barns Road Stores,Retailers - other,4613,5,,336548,5,,52.40352000000000,E0545/0052/1/001,028,customerservices@eastcambs.gov.uk,East Cambridgeshire,http://www.eastcambs.gov.uk,0.27061900000000,CB7 4PW,2011-04-11,fhrs_5_en-GB,5,,FHRS,5
14227,1A Downham Road,Ely,Cambridgeshire,,New Dragon Inn,Takeaway/sandwich shop,7844,5,,636447,0,,52.39961100000000,14/00022/MIXED,028,customerservices@eastcambs.gov.uk,East Cambridgeshire,http://www.eastcambs.gov.uk,0.25921700000000,CB6 1AG,2014-02-24,fhrs_4_en-GB,4,,FHRS,10
14228,44 Newnham Street,Ely,Cambridgeshire,,New Johns Brother,Takeaway/sandwich shop,7844,5,,336550,5,,52.40099500000000,E0550/0044/1/001,028,customerservices@eastcambs.gov.uk,East Cambridgeshire,http://www.eastcambs.gov.uk,0.26631500000000,CB7 4PE,2013-04-08,fhrs_5_en-GB,5,,FHRS,5
14229,33 High Street,Ely,Cambridgeshire,,New Look plc,Retailers - other,4613,,,371109,,,52.39932500000000,E0375/0033/1/001,028,customerservices@eastcambs.gov.uk,East Cambridgeshire,http://www.eastcambs.gov.uk,0.26525900000000,CB7 4LF,2012-05-02,fhrs_exempt_en-GB,Exempt,,FHRS,
14230,Newmarket Town Football Club,Cricket Field Road,Newmarket,Suffolk,Newmarket Football Club,Other catering premises,7841,5,,336753,5,,52.24014200000000,WO017/9999/1/001,028,customerservices@eastcambs.gov.uk,East Cambridgeshire,http://www.eastcambs.gov.uk,0.41173300000000,CB8 8BT,2013-10-10,fhrs_4_en-GB,4,,FHRS,10
14231,91 Main Street,Little Downham,Ely,Cambridgeshire,Nisa Local,Retailers - other,4613,10,,336626,10,,52.43169700000000,LD170/0091/1/001,028,customerservices@eastcambs.gov.uk,East Cambridgeshire,http://www.eastcambs.gov.uk,0.23635000000000,CB6 2SX,2013-08-22,fhrs_3_en-GB,3,,FHRS,5
14232,Hilton Park Care Centre,High Street,Bottisham,Cambridge,Oaklands Care Home,Hospitals/Childcare/Caring Premises,5,5,,456782,10,,52.21864800000000,09/00021/FOOD,028,customerservices@eastcambs.gov.uk,East Cambridgeshire,http://www.eastcambs.gov.uk,0.27092700000000,CB25 9BX,2014-06-17,fhrs_4_en-GB,4,,FHRS,5
14233,29 St Marys Street,Ely,Cambridgeshire,,Oliver Cromwells House,Retailers - other,4613,,,336566,,,52.39829600000000,E0720/9999/1/039,028,customerservices@eastcambs.gov.uk,East Cambridgeshire,http://www.eastcambs.gov.uk,0.25793000000000,CB7 4HF,2010-07-30,fhrs_exempt_en-GB,Exempt,,FHRS,
14234,1 - 3 Wisbech Road,Littleport,Ely,Cambridgeshire,One Stop,Retailers - other,4613,5,,336656,5,,52.45863800000000,LI415/0001/1/001,028,customerservices@eastcambs.gov.uk,East Cambridgeshire,http://www.eastcambs.gov.uk,0.30417500000000,CB6 1PR,2012-01-11,fhrs_5_en-GB,5,,FHRS,5
14235,2 St Johns Road,Ely,Cambridgeshire,,One Stop,Retailers - other,4613,10,,336561,10,,52.37379837036130,E0705/0002/1/001,028,customerservices@eastcambs.gov.uk,East Cambridgeshire,http://www.eastcambs.gov.uk,0.00712000019848,CB6 3BD,2014-12-22,fhrs_2_en-GB,2,,FHRS,15
14236,20 High Street,Sutton,Ely,Cambridgeshire,One Stop,Retailers - other,4613,5,,336721,5,,52.38901200000000,SU080/0020/1/001,028,customerservices@eastcambs.gov.uk,East Cambridgeshire,http://www.eastcambs.gov.uk,0.12427500000000,CB6 2RB,2013-07-31,fhrs_5_en-GB,5,,FHRS,5
14237,17 Red Lion Square,Soham,Ely,Cambridgeshire,Oporto Cafe,Restaurant/Cafe/Canteen,1,10,,336293,15,,52.33153600000000,09/00156/MIXED,028,customerservices@eastcambs.gov.uk,East Cambridgeshire,http://www.eastcambs.gov.uk,0.33808800000000,CB7 5HQ,2014-12-31,fhrs_2_en-GB,2,,FHRS,10
14238,,,,,Our House Of Spice,Other catering premises,7841,10,,487008,10,,,12/00111/FOOD,028,customerservices@eastcambs.gov.uk,East Cambridgeshire,http://www.eastcambs.gov.uk,,,2014-12-29,fhrs_4_en-GB,4,,FHRS,0
14239,31 High Street,Ely,Cambridgeshire,,Oxfam,Retailers - other,4613,,,336529,,,52.39949800000000,E0375/0031/1/001,028,customerservices@eastcambs.gov.uk,East Cambridgeshire,http://www.eastcambs.gov.uk,0.26422400000000,CB7 4LQ,2011-09-05,fhrs_exempt_en-GB,Exempt,,FHRS,
14240,London Road,Six Mile Bottom,Newmarket,Suffolk,Paddocks House,Hotel/bed & breakfast/guest house,7842,10,,628530,10,,52.19226700000000,13/00132/MIXED,028,customerservices@eastcambs.gov.uk,East Cambridgeshire,http://www.eastcambs.gov.uk,0.31017000000000,CB8 0UE,2014-08-20,fhrs_3_en-GB,3,,FHRS,5
14241,Sutton Primary School,The Brook,Sutton,Ely,Paintbox Pre-School,Hospitals/Childcare/Caring Premises,5,0,,336165,0,,,06/00167/FOOD,028,customerservices@eastcambs.gov.uk,East Cambridgeshire,http://www.eastcambs.gov.uk,,,2013-09-30,fhrs_5_en-GB,5,,FHRS,0
14242,8 Columbine Road,Ely,Cambridgeshire,,Palm B & B,Hotel/bed & breakfast/guest house,7842,5,,536657,5,,52.40542900000000,13/00042/FOOD,028,customerservices@eastcambs.gov.uk,East Cambridgeshire,http://www.eastcambs.gov.uk,0.24981100000000,CB6 3WN,2013-04-17,fhrs_5_en-GB,5,,FHRS,5
14243,,,,,Partycake Partycake,Other catering premises,7841,0,,479223,0,,,12/00128/FOOD,028,customerservices@eastcambs.gov.uk,East Cambridgeshire,http://www.eastcambs.gov.uk,,,2012-11-26,fhrs_5_en-GB,5,,FHRS,0
14244,,,,,Pat-a-bakes,Other catering premises,7841,5,,707455,5,,,14/00093/FOOD,028,customerservices@eastcambs.gov.uk,East Cambridgeshire,http://www.eastcambs.gov.uk,,,2014-10-13,fhrs_5_en-GB,5,,FHRS,5
14245,133 Station Road,Dullingham,Newmarket,Suffolk,Pavilion House B & B,Hotel/bed & breakfast/guest house,7842,10,,720013,0,,52.20235700000000,14/00134/FOOD,028,customerservices@eastcambs.gov.uk,East Cambridgeshire,http://www.eastcambs.gov.uk,0.36235600000000,CB8 9UT,2014-11-25,fhrs_4_en-GB,4,,FHRS,0
14246,65 Waterside,Ely,Cambridgeshire,,Peacocks Tearoom,Restaurant/Cafe/Canteen,1,5,,336117,10,,52.39668300000000,04/00017/MIXED,028,customerservices@eastcambs.gov.uk,East Cambridgeshire,http://www.eastcambs.gov.uk,0.27029800000000,CB7 4AU,2013-09-04,fhrs_4_en-GB,4,,FHRS,5
14247,Ely Service Station,Downham Road,Ely,Cambridgeshire,Petrogas,Retailers - other,4613,0,,703410,0,,52.42253600000000,14/00098/MIXED,028,customerservices@eastcambs.gov.uk,East Cambridgeshire,http://www.eastcambs.gov.uk,0.26746300000000,CB6 1SG,2014-09-19,fhrs_5_en-GB,5,,FHRS,0
14248,On Par Golf Driving Range,Downham Road,Ely,Cambridgeshire,Phoenix Restaurant,Restaurant/Cafe/Canteen,1,5,,336511,5,,52.41066600000000,E0255/9999/1/013,028,customerservices@eastcambs.gov.uk,East Cambridgeshire,http://www.eastcambs.gov.uk,0.24910700000000,CB6 2SH,2013-06-05,fhrs_5_en-GB,5,,FHRS,0
14249,,,,,Pit Stop,Mobile caterer,7846,10,,693115,10,,,14/00092/MIXED,028,customerservices@eastcambs.gov.uk,East Cambridgeshire,http://www.eastcambs.gov.uk,,,2014-08-21,fhrs_3_en-GB,3,,FHRS,10
14250,43 High Street,Ely,Cambridgeshire,,Pizza Express,Restaurant/Cafe/Canteen,1,5,,336164,5,,52.39932500000000,06/00150/MIXED,028,customerservices@eastcambs.gov.uk,East Cambridgeshire,http://www.eastcambs.gov.uk,0.26525900000000,CB7 4LF,2013-01-23,fhrs_5_en-GB,5,,FHRS,5
14251,2 Granby Street,Littleport,Ely,Cambridgeshire,Pizza Town,Takeaway/sandwich shop,7844,10,,336410,10,,52.45702700000000,11/00118/MIXED,028,customerservices@eastcambs.gov.uk,East Cambridgeshire,http://www.eastcambs.gov.uk,0.30750600000000,CB6 1NE,2013-08-27,fhrs_3_en-GB,3,,FHRS,10
14252,40 - 44 St Marys Street,Ely,Cambridgeshire,,Poets House,Hotel/bed & breakfast/guest house,7842,0,,551566,5,,52.39892000000000,13/00046/MIXED,028,customerservices@eastcambs.gov.uk,East Cambridgeshire,http://www.eastcambs.gov.uk,0.25868200000000,CB7 4EY,2013-05-29,fhrs_5_en-GB,5,,FHRS,5
14253,,,,,Poli's Produce,Other catering premises,7841,10,,576687,0,,,13/00100/FOOD,028,customerservices@eastcambs.gov.uk,East Cambridgeshire,http://www.eastcambs.gov.uk,,,2013-07-31,fhrs_4_en-GB,4,,FHRS,0
14254,,,,,Polish Pantry,Mobile caterer,7846,0,,620005,0,,,13/00140/MIXED,028,customerservices@eastcambs.gov.uk,East Cambridgeshire,http://www.eastcambs.gov.uk,,,2014-02-08,fhrs_5_en-GB,5,,FHRS,0
14255,4 Churchgate Street,Soham,Ely,Cambridgeshire,Poppies Fish Bar,Takeaway/sandwich shop,7844,10,,336317,10,,52.33441500000000,10/00068/MIXED,028,customerservices@eastcambs.gov.uk,East Cambridgeshire,http://www.eastcambs.gov.uk,0.33713900000000,CB7 5DR,2013-09-05,fhrs_3_en-GB,3,,FHRS,10
14256,213 High Street,Cheveley,Newmarket,Suffolk,Post Office & Stores,Retailers - other,4613,20,,336478,10,,52.21560400000000,CH045/0213/1/001,028,customerservices@eastcambs.gov.uk,East Cambridgeshire,http://www.eastcambs.gov.uk,0.46385300000000,CB8 9RH,2013-12-31,fhrs_1_en-GB,1,,FHRS,10
14257,29 High Street,Ely,Cambridgeshire,,Premier,Retailers - other,4613,10,,336527,0,,52.39949800000000,E0375/0029/1/001,028,customerservices@eastcambs.gov.uk,East Cambridgeshire,http://www.eastcambs.gov.uk,0.26422400000000,CB7 4LQ,2013-03-27,fhrs_4_en-GB,4,,FHRS,10
14258,12 - 14 High Street,Ely,Cambridgeshire,,Prezzo,Restaurant/Cafe/Canteen,1,0,,336163,0,,52.37379837036133,06/00143/MIXED,028,customerservices@eastcambs.gov.uk,East Cambridgeshire,http://www.eastcambs.gov.uk,0.00712000019848,CB7 4JZ,2014-01-23,fhrs_5_en-GB,5,,FHRS,0
14259,21 Main Street,Prickwillow,Ely,Cambridgeshire,Prickwillow Village Hall,Other catering premises,7841,,,336579,,,52.41660600000000,E0885/0021/1/001,028,customerservices@eastcambs.gov.uk,East Cambridgeshire,http://www.eastcambs.gov.uk,0.34418900000000,CB7 4UN,2011-12-02,fhrs_exempt_en-GB,Exempt,,FHRS,
14260,Lynn Road,Ely,Cambridgeshire,,Princess Of Wales Hospital,Hospitals/Childcare/Caring Premises,5,5,,336536,5,,52.41329200000000,E0480/9999/1/014,028,customerservices@eastcambs.gov.uk,East Cambridgeshire,http://www.eastcambs.gov.uk,0.27495900000000,CB6 1DN,2015-01-06,fhrs_5_en-GB,5,,FHRS,5
14261,Cricket & Social Club,19 Pymoor Lane,Pymoor,Ely,Pymoor Cricket & Social Club,Other catering premises,7841,10,,336631,5,,52.45497500000000,LD230/9999/1/015,028,customerservices@eastcambs.gov.uk,East Cambridgeshire,http://www.eastcambs.gov.uk,0.21255100000000,CB6 2EF,2012-04-02,fhrs_4_en-GB,4,,FHRS,0
14262,Methodist Church,Main Street,Pymoor,Ely,Pymoor Methodist Church,Other catering premises,7841,,,336630,,,52.45124700000000,LD175/9999/1/001,028,customerservices@eastcambs.gov.uk,East Cambridgeshire,http://www.eastcambs.gov.uk,0.20273900000000,CB6 2DY,2011-07-13,fhrs_exempt_en-GB,Exempt,,FHRS,
14263,25 Ely Road,Queen Adelaide,Ely,Cambridgeshire,Queen Adelaide Village Hall,Other catering premises,7841,,,336555,,,52.40864500000000,E0606/9999/1/035,028,customerservices@eastcambs.gov.uk,East Cambridgeshire,http://www.eastcambs.gov.uk,0.29484900000000,CB7 4TZ,2012-01-09,fhrs_exempt_en-GB,Exempt,,FHRS,
14264,2 Downing Close,Bottisham,Cambridge,,Queens Court,Hospitals/Childcare/Caring Premises,5,0,,336452,0,,52.22172700000000,BO040/0002/1/001,028,customerservices@eastcambs.gov.uk,East Cambridgeshire,http://www.eastcambs.gov.uk,0.26183000000000,CB25 9DD,2014-10-07,fhrs_5_en-GB,5,,FHRS,0
14265,196 Carter Street,Fordham,Ely,Cambridgeshire,Queensberry,Hotel/bed & breakfast/guest house,7842,5,,336183,5,,52.31391500000000,07/00150/FOOD,028,customerservices@eastcambs.gov.uk,East Cambridgeshire,http://www.eastcambs.gov.uk,0.38199700000000,CB7 5JU,2010-07-30,fhrs_5_en-GB,5,,FHRS,5
14266,Main Street,Witchford,Ely,Cambridgeshire,Rackham C Of E Primary School,School/college/university,7845,0,,336737,5,,52.38691200000000,W0065/9999/1/009,028,customerservices@eastcambs.gov.uk,East Cambridgeshire,http://www.eastcambs.gov.uk,0.20556000000000,CB6 2HQ,2013-09-12,fhrs_5_en-GB,5,,FHRS,5
14267,Adjacent To 22,Downham Road,Ely,Cambridgeshire,Rainbow Pre-school,Hospitals/Childcare/Caring Premises,5,0,,336512,0,,52.40094300000000,E0255/9999/1/016,028,customerservices@eastcambs.gov.uk,East Cambridgeshire,http://www.eastcambs.gov.uk,0.25915300000000,CB6 1AF,2013-09-20,fhrs_5_en-GB,5,,FHRS,0
14268,St Marys Junior School,High Barns,Ely,Cambridgeshire,Re:treat,Restaurant/Cafe/Canteen,1,5,,592023,5,,52.40809400000000,13/00057/FOOD,028,customerservices@eastcambs.gov.uk,East Cambridgeshire,http://www.eastcambs.gov.uk,0.27733800000000,CB7 4RB,2013-10-11,fhrs_5_en-GB,5,,FHRS,0
14269,13 Fair Green,Reach,Cambs,,Reach Village Hall,Other catering premises,7841,,,336667,,,52.27180123000000,RE020/0013/1/001,028,customerservices@eastcambs.gov.uk,East Cambridgeshire,http://www.eastcambs.gov.uk,0.29467218000000,,2012-04-20,fhrs_exempt_en-GB,Exempt,,FHRS,
14270,Bottisham Village College,Lode Road,Bottisham,Cambridge,Red 2 Green,Retailers - other,4613,10,,531065,5,,52.22500300000000,12/00119/MIXED,028,customerservices@eastcambs.gov.uk,East Cambridgeshire,http://www.eastcambs.gov.uk,0.25508600000000,CB25 9DL,2013-03-27,fhrs_4_en-GB,4,,FHRS,5
14271,,,,,Regency Cakes,Other catering premises,7841,5,,550739,5,,,07/00069/MIXED,028,customerservices@eastcambs.gov.uk,East Cambridgeshire,http://www.eastcambs.gov.uk,,,2013-05-16,fhrs_5_en-GB,5,,FHRS,5
14272,4 Limestone Close,Isleham,Ely,Cambridgeshire,Retirement Living Scheme Monthly Lunch,Other catering premises,7841,5,,732680,5,,52.34150600000000,15/00002/MIXED,028,customerservices@eastcambs.gov.uk,East Cambridgeshire,http://www.eastcambs.gov.uk,0.41199100000000,CB7 5RP,2015-01-22,fhrs_5_en-GB,5,,FHRS,0
14273,,,,,Rima Mobile Shop,Mobile caterer,7846,10,,707456,10,,,14/00128/MIXED,028,customerservices@eastcambs.gov.uk,East Cambridgeshire,http://www.eastcambs.gov.uk,,,2014-10-06,fhrs_4_en-GB,4,,FHRS,0
14274,20 Main Street,Littleport,Ely,Cambridgeshire,Rima's Shop,Retailers - other,4613,0,,494193,10,,52.45680200000000,12/00152/MIXED,028,customerservices@eastcambs.gov.uk,East Cambridgeshire,http://www.eastcambs.gov.uk,0.30612500000000,CB6 1PJ,2014-09-29,fhrs_4_en-GB,4,,FHRS,0
14275,Annesdale Lodge,8 Annesdale,Ely,Cambridgeshire,Riverside Inn,Hotel/bed & breakfast/guest house,7842,0,,336231,0,,52.39392000000000,08/00085/MIXED,028,customerservices@eastcambs.gov.uk,East Cambridgeshire,http://www.eastcambs.gov.uk,0.26718700000000,CB7 4BN,2013-02-04,fhrs_5_en-GB,5,,FHRS,0
14276,Camping Close,Haddenham,Ely,Cambridgeshire,Robert Arkenstall Primary School,School/college/university,7845,10,,336604,10,,52.35545300000000,HA115/9999/1/008,028,customerservices@eastcambs.gov.uk,East Cambridgeshire,http://www.eastcambs.gov.uk,0.14929000000000,CB6 3UA,2014-11-21,fhrs_3_en-GB,3,,FHRS,5
14277,24C Fordham Road,Soham,Ely,Cambridgeshire,Robinson House,Hospitals/Childcare/Caring Premises,5,0,,336682,0,,52.32823800000000,SO145/0024/1/001,028,customerservices@eastcambs.gov.uk,East Cambridgeshire,http://www.eastcambs.gov.uk,0.34387300000000,CB7 5AQ,2014-10-27,fhrs_5_en-GB,5,,FHRS,0
14278,31 Market Place,Ely,Cambridgeshire,,Rolys Fudge Pantry,Retailers - other,4613,5,,579693,5,,52.39926500000000,13/00091/MIXED,028,customerservices@eastcambs.gov.uk,East Cambridgeshire,http://www.eastcambs.gov.uk,0.26602000000000,CB7 4NT,2013-08-20,fhrs_5_en-GB,5,,FHRS,5
14279,College Close,Soham,Ely,Cambridgeshire,Ross Peers Sports Centre,Restaurant/Cafe/Canteen,1,5,,336680,5,,52.33031500000000,SO095/9999/1/003,028,customerservices@eastcambs.gov.uk,East Cambridgeshire,http://www.eastcambs.gov.uk,0.33526400000000,CB7 5HP,2011-03-07,fhrs_5_en-GB,5,,FHRS,5
14280,33 Main Street,Littleport,Ely,Cambridgeshire,Rumbles,Takeaway/sandwich shop,7844,10,,336216,10,,52.45648200000000,08/00040/MIXED,028,customerservices@eastcambs.gov.uk,East Cambridgeshire,http://www.eastcambs.gov.uk,0.30593200000000,CB6 1PH,2014-11-11,fhrs_3_en-GB,3,,FHRS,5
14281,19 Market Street,Ely,Cambridgeshire,,Rumbles Fish Bar,Takeaway/sandwich shop,7844,10,,336420,5,,52.40004500000000,11/00149/MIXED,028,customerservices@eastcambs.gov.uk,East Cambridgeshire,http://www.eastcambs.gov.uk,0.26426700000000,CB7 4LZ,2013-10-22,fhrs_4_en-GB,4,,FHRS,5
14282,32 Broad Street,Ely,Cambridgeshire,,Saffron Indian Takeaway,Other catering premises,7841,5,,336168,0,,52.39680200000000,07/00029/MIXED,028,customerservices@eastcambs.gov.uk,East Cambridgeshire,http://www.eastcambs.gov.uk,0.26737900000000,CB7 4AH,2014-02-24,fhrs_4_en-GB,4,,FHRS,10
14283,Sainsburys,Lisle Lane,Ely,Cambridgeshire,Sainsburys Customer Cafe,Other catering premises,7841,0,,408472,10,,52.39809800000000,12/00085/MIXED,028,customerservices@eastcambs.gov.uk,East Cambridgeshire,http://www.eastcambs.gov.uk,0.26969400000000,CB7 4AS,2014-01-07,fhrs_4_en-GB,4,,FHRS,0
14284,Lisle Lane,Ely,Cambridgeshire,,Sainsburys Supermarkets Ltd,Retailers - supermarkets/hypermarkets,7840,0,,408467,0,,52.39809800000000,11/00181/MIXED,028,customerservices@eastcambs.gov.uk,East Cambridgeshire,http://www.eastcambs.gov.uk,0.26969400000000,CB7 4AS,2013-12-02,fhrs_5_en-GB,5,,FHRS,0
14285,The Salvation Army Hall,City Road,Littleport,Cambridgeshire,Salvation Army,Other catering premises,7841,10,,336393,5,,52.45642200000000,11/00082/HELA,028,customerservices@eastcambs.gov.uk,East Cambridgeshire,http://www.eastcambs.gov.uk,0.31178700000000,CB6 1NG,2014-07-04,fhrs_3_en-GB,3,,FHRS,10
14286,23 Forehill,Ely,Cambridgeshire,,Samovar Tea House,Restaurant/Cafe/Canteen,1,5,,509988,10,,52.39837900000000,12/00133/MIXED,028,customerservices@eastcambs.gov.uk,East Cambridgeshire,http://www.eastcambs.gov.uk,0.26770900000000,CB7 4AA,2013-02-15,fhrs_4_en-GB,4,,FHRS,0
14287,2 Cheveley Road,Saxon Street,Newmarket,Suffolk,Saxon Street Methodist Church,Other catering premises,7841,5,,336437,0,,52.20628400000000,12/00019/MIXED,028,customerservices@eastcambs.gov.uk,East Cambridgeshire,http://www.eastcambs.gov.uk,0.45929800000000,CB8 9RN,2014-02-12,fhrs_5_en-GB,5,,FHRS,5
14288,Northfield Road,Soham,Ely,Cambridgeshire,Scampers:  The Animal Care Centre,Retailers - other,4613,,,336697,,,52.36547300000000,SO290/9999/1/002,028,customerservices@eastcambs.gov.uk,East Cambridgeshire,http://www.eastcambs.gov.uk,0.33716200000000,CB7 5UF,2010-05-21,fhrs_exempt_en-GB,Exempt,,FHRS,
14289,Village Hall,36 High Street,Swaffham Prior,,School's Out,Hospitals/Childcare/Caring Premises,5,5,,589458,5,,,12/00175/MIXED,028,customerservices@eastcambs.gov.uk,East Cambridgeshire,http://www.eastcambs.gov.uk,,,2013-10-02,fhrs_5_en-GB,5,,FHRS,0
14290,Sutton Road,Witchford,Cambridgeshire,,Scotts Farm Shop,Retailers - other,4613,20,,336208,10,,52.38683200000000,08/00018/MIXED,028,customerservices@eastcambs.gov.uk,East Cambridgeshire,http://www.eastcambs.gov.uk,0.18811200000000,CB6 2HX,2013-10-21,fhrs_1_en-GB,1,,FHRS,15
14291,,,,,Selecta UK Ltd,Mobile caterer,7846,5,,336201,5,,,07/00224/FOOD,028,customerservices@eastcambs.gov.uk,East Cambridgeshire,http://www.eastcambs.gov.uk,,,2011-01-05,fhrs_5_en-GB,5,,FHRS,5
14292,Sharmans Garden Centre,92 Camel Road,Littleport,Ely,Sharmans Coffee Shop,Restaurant/Cafe/Canteen,1,10,,669908,10,,52.46528700000000,14/00049/MIXED,028,customerservices@eastcambs.gov.uk,East Cambridgeshire,http://www.eastcambs.gov.uk,0.30212300000000,CB6 1EW,2014-05-28,fhrs_3_en-GB,3,,FHRS,5
14293,Ely Methodist Church,15 Chapel Street,Ely,Cambridgeshire,Shoppers Lunch,Other catering premises,7841,0,,336502,0,,52.40086900000000,E0185/0015/0/000,028,customerservices@eastcambs.gov.uk,East Cambridgeshire,http://www.eastcambs.gov.uk,0.26070700000000,CB6 1AD,2013-12-19,fhrs_5_en-GB,5,,FHRS,0
14294,,,,,Showtime Cafe,Mobile caterer,7846,0,,555420,5,,,13/00030/MIXED,028,customerservices@eastcambs.gov.uk,East Cambridgeshire,http://www.eastcambs.gov.uk,,,2013-06-13,fhrs_5_en-GB,5,,FHRS,5
14295,,,,,Simple Simon,Other catering premises,7841,5,,336687,5,,,SO195/0004/0/000,028,customerservices@eastcambs.gov.uk,East Cambridgeshire,http://www.eastcambs.gov.uk,,,2013-05-21,fhrs_5_en-GB,5,,FHRS,0
14296,,,,,Simply The Best Bakes,Other catering premises,7841,20,,657225,15,,,14/00031/FOOD,028,customerservices@eastcambs.gov.uk,East Cambridgeshire,http://www.eastcambs.gov.uk,,,2014-04-17,fhrs_1_en-GB,1,,FHRS,10
14297,42 Station Road,Fordham,Ely,Cambridgeshire,Simpsons Coffee Shop,Restaurant/Cafe/Canteen,1,10,,336304,15,,52.30547000000000,10/00016/MIXED,028,customerservices@eastcambs.gov.uk,East Cambridgeshire,http://www.eastcambs.gov.uk,0.37943100000000,CB7 5LW,2013-12-02,fhrs_2_en-GB,2,,FHRS,10
14298,Fountain Lane,Soham,Ely,Cambridgeshire,Soham Bowls Club,Other catering premises,7841,10,,336685,5,,52.33443800000000,SO150/9999/1/001,028,customerservices@eastcambs.gov.uk,East Cambridgeshire,http://www.eastcambs.gov.uk,0.33457100000000,CB7 5ED,2013-01-21,fhrs_4_en-GB,4,,FHRS,0
14299,The Weatheralls County Primary Scho,Pratt Street,Soham,Ely,Soham Childrens Centre,Other catering premises,7841,,,336322,,,52.33661000000000,10/00076/MIXED,028,customerservices@eastcambs.gov.uk,East Cambridgeshire,http://www.eastcambs.gov.uk,0.33618300000000,CB7 5BH,2010-06-11,fhrs_exempt_en-GB,Exempt,,FHRS,
14300,3 Market Street,Soham,Ely,Cambridgeshire,Soham Comrades Club,Pub/bar/nightclub,7843,5,,336694,5,,52.33443900000000,SO240/0003/1/001,028,customerservices@eastcambs.gov.uk,East Cambridgeshire,http://www.eastcambs.gov.uk,0.33769800000000,CB7 5JG,2012-03-09,fhrs_4_en-GB,4,,FHRS,10
14301,15 High Street,Soham,Ely,Cambridgeshire,Soham Kebab & Pizza House,Takeaway/sandwich shop,7844,10,,336130,10,,52.33132000000000,05/00028/MIXED,028,customerservices@eastcambs.gov.uk,East Cambridgeshire,http://www.eastcambs.gov.uk,0.33856100000000,CB7 5HB,2013-09-13,fhrs_3_en-GB,3,,FHRS,10
14302,Qua Fen Common,Soham,Ely,Cambridgeshire,Soham Lodge Nursing Home,Hospitals/Childcare/Caring Premises,5,0,,466374,5,,52.34500500000000,12/00075/FOOD,028,customerservices@eastcambs.gov.uk,East Cambridgeshire,http://www.eastcambs.gov.uk,0.33813800000000,CB7 5DF,2014-12-08,fhrs_5_en-GB,5,,FHRS,0
14303,Sure Start Childrens Centre,The Weatheralls County Primary Scho,Pratt Street,Soham,Soham Playgroup,Hospitals/Childcare/Caring Premises,5,5,,336311,0,,52.33661000000000,10/00046/FOOD,028,customerservices@eastcambs.gov.uk,East Cambridgeshire,http://www.eastcambs.gov.uk,0.33618300000000,CB7 5BH,2010-06-11,fhrs_5_en-GB,5,,FHRS,0
14304,72 Hall Street,Soham,Ely,Cambridgeshire,Soham Shopper,Retailers - other,4613,10,,336354,0,,52.34036800000000,10/00162/MIXED,028,customerservices@eastcambs.gov.uk,East Cambridgeshire,http://www.eastcambs.gov.uk,0.33482500000000,CB7 5BW,2013-02-06,fhrs_4_en-GB,4,,FHRS,10
14305,Julius Martin Lane,Soham,Ely,Cambridgeshire,Soham Town Rangers Football & Social Club,Other catering premises,7841,5,,336692,5,,52.34004100000000,SO220/9999/1/002,028,customerservices@eastcambs.gov.uk,East Cambridgeshire,http://www.eastcambs.gov.uk,0.33137200000000,CB7 5EQ,2012-01-12,fhrs_5_en-GB,5,,FHRS,5
14306,Sand Street,Soham,Ely,Cambridgeshire,Soham Village College,School/college/university,7845,5,,336702,5,,52.33003500000000,SO345/9999/1/009,028,customerservices@eastcambs.gov.uk,East Cambridgeshire,http://www.eastcambs.gov.uk,0.34031300000000,CB7 5AA,2013-04-18,fhrs_5_en-GB,5,,FHRS,5
14307,St Andrews C Of E Junior School,Sand Street,Soham,Ely,Soham Windmills Under 5,Hospitals/Childcare/Caring Premises,5,5,,336310,0,,52.33003500000000,10/00045/FOOD,028,customerservices@eastcambs.gov.uk,East Cambridgeshire,http://www.eastcambs.gov.uk,0.34031300000000,CB7 5AA,2012-03-05,fhrs_5_en-GB,5,,FHRS,5
14308,,,,,Sophie's,Other catering premises,7841,5,,686849,5,,,14/00055/FOOD,028,customerservices@eastcambs.gov.uk,East Cambridgeshire,http://www.eastcambs.gov.uk,,,2014-07-17,fhrs_4_en-GB,4,,FHRS,10
14309,152 Wisbech Road,Littleport,Ely,Cambridgeshire,Spar,Retailers - other,4613,5,,336355,15,,52.46134200000000,10/00164/MIXED,028,customerservices@eastcambs.gov.uk,East Cambridgeshire,http://www.eastcambs.gov.uk,0.29368800000000,CB6 1JJ,2013-07-23,fhrs_2_en-GB,2,,FHRS,5
14310,3 High Street,Haddenham,Ely,Cambridgeshire,Spar,Retailers - other,4613,10,,336599,10,,52.35698600000000,HA115/0003/1/004,028,customerservices@eastcambs.gov.uk,East Cambridgeshire,http://www.eastcambs.gov.uk,0.14808700000000,CB6 3XA,2014-03-27,fhrs_3_en-GB,3,,FHRS,10
14311,19 High Street,Ely,Cambridgeshire,,Spar Subway,Retailers - other,4613,0,,669906,0,,52.39949800000000,14/00047/MIXED,028,customerservices@eastcambs.gov.uk,East Cambridgeshire,http://www.eastcambs.gov.uk,0.26422400000000,CB7 4LQ,2014-05-13,fhrs_5_en-GB,5,,FHRS,5
14312,14 Churchgate Street,Soham,Ely,Cambridgeshire,Special Thoughts,Retailers - other,4613,,,336678,,,52.33441500000000,SO085/0014/1/001,028,customerservices@eastcambs.gov.uk,East Cambridgeshire,http://www.eastcambs.gov.uk,0.33713900000000,CB7 5DR,2012-01-30,fhrs_exempt_en-GB,Exempt,,FHRS,
14313,19 Granby Street,Littleport,Ely,Cambridgeshire,Spice Lounge,Restaurant/Cafe/Canteen,1,5,,336250,5,,52.45702700000000,08/00145/MIXED,028,customerservices@eastcambs.gov.uk,East Cambridgeshire,http://www.eastcambs.gov.uk,0.30750600000000,CB6 1NE,2013-09-26,fhrs_5_en-GB,5,,FHRS,5
14314,Spinney Abbey,33 Stretham Road,Wicken,Ely,Spinney Abbey Farm,Retailers - other,4613,0,,336167,0,,52.32270900000000,07/00011/FOOD,028,customerservices@eastcambs.gov.uk,East Cambridgeshire,http://www.eastcambs.gov.uk,0.28046400000000,CB7 5XQ,2014-01-16,fhrs_5_en-GB,5,,FHRS,0
14315,The Guildhall,High Street,Burwell,Cambridge,Spring Close Montessori School,School/college/university,7845,5,,336140,5,,52.27269700000000,05/00126/FOOD,028,customerservices@eastcambs.gov.uk,East Cambridgeshire,http://www.eastcambs.gov.uk,0.32735300000000,CB25 0HD,2012-01-11,fhrs_5_en-GB,5,,FHRS,5
14316,High Barns,Ely,Cambridgeshire,,Spring Meadow Infant & Nursery School,School/college/university,7845,5,,336213,0,,52.40809400000000,08/00032/FOOD,028,customerservices@eastcambs.gov.uk,East Cambridgeshire,http://www.eastcambs.gov.uk,0.27733800000000,CB7 4RB,2014-06-17,fhrs_5_en-GB,5,,FHRS,5
14317,Springfields,Ely Road,Little Thetford,Ely,Springfields B & B,Hotel/bed & breakfast/guest house,7842,10,,336175,5,,52.37133500000000,07/00072/FOOD,028,customerservices@eastcambs.gov.uk,East Cambridgeshire,http://www.eastcambs.gov.uk,0.24346500000000,CB6 3HJ,2010-06-28,fhrs_4_en-GB,4,,FHRS,5
14318,Sand Street,Soham,Ely,Cambridgeshire,St Andrews C Of E Junior School,School/college/university,7845,0,,336701,0,,52.33003500000000,SO345/9999/1/001,028,customerservices@eastcambs.gov.uk,East Cambridgeshire,http://www.eastcambs.gov.uk,0.34031300000000,CB7 5AA,2013-09-05,fhrs_5_en-GB,5,,FHRS,0
14319,Main Street,Witchford,Cambs,,St Andrews Church Hall,Other catering premises,7841,,,336228,,,52.38699700000000,08/00080/MIXED,028,customerservices@eastcambs.gov.uk,East Cambridgeshire,http://www.eastcambs.gov.uk,0.20319900000000,,2009-03-11,fhrs_exempt_en-GB,Exempt,,FHRS,
14320,St Johns Road,Ely,Cambridgeshire,,St Johns Primary School,School/college/university,7845,5,,336562,5,,52.39627300000000,E0705/9999/1/005,028,customerservices@eastcambs.gov.uk,East Cambridgeshire,http://www.eastcambs.gov.uk,0.24471500000000,CB6 3BW,2015-01-15,fhrs_5_en-GB,5,,FHRS,5
14321,St Marys Church,St Marys Street,Ely,Cambridgeshire,St Marys Church Hall,Other catering premises,7841,5,,608504,5,,,13/00068/FOOD,028,customerservices@eastcambs.gov.uk,East Cambridgeshire,http://www.eastcambs.gov.uk,,,2013-11-04,fhrs_5_en-GB,5,,FHRS,5
14322,1A Lynn Road,Ely,Cambridgeshire,,St Mary's Sweet Shop,Retailers - other,4613,,,728101,,,52.40016900000000,15/00004/MIXED,028,customerservices@eastcambs.gov.uk,East Cambridgeshire,http://www.eastcambs.gov.uk,0.26250900000000,CB7 4EG,2014-12-31,fhrs_exempt_en-GB,Exempt,,FHRS,
14323,59 Broad Street,Ely,Cambridgeshire,,St Peters Church Trustees,Other catering premises,7841,,,336178,,,52.39459800000000,07/00134/MIXED,028,customerservices@eastcambs.gov.uk,East Cambridgeshire,http://www.eastcambs.gov.uk,0.26556100000000,CB7 4BQ,2012-04-04,fhrs_exempt_en-GB,Exempt,,FHRS,
14324,Leisure Sport For Littleport,Littleport Sports And Leisure Centr,Camel Road,Littleport,Stepping Stones Pre School,Hospitals/Childcare/Caring Premises,5,0,,494197,0,,52.46528700000000,13/00022/MIXED,028,customerservices@eastcambs.gov.uk,East Cambridgeshire,http://www.eastcambs.gov.uk,0.30212300000000,CB6 1EW,2013-01-11,fhrs_5_en-GB,5,,FHRS,0
14325,,,,,Steven Mansfield,Other catering premises,7841,5,,558718,5,,,10/00018/FOOD,028,customerservices@eastcambs.gov.uk,East Cambridgeshire,http://www.eastcambs.gov.uk,,,2014-01-21,fhrs_5_en-GB,5,,FHRS,0
14326,,,,,Stevens,Other catering premises,7841,5,,585500,5,,,13/00067/FOOD,028,customerservices@eastcambs.gov.uk,East Cambridgeshire,http://www.eastcambs.gov.uk,,,2013-09-17,fhrs_5_en-GB,5,,FHRS,0
14327,4 Coronation Parade,Ely,Cambridgeshire,,Street Cafe,Restaurant/Cafe/Canteen,1,0,,336531,5,,52.39941300000000,E0375/9999/1/006,028,customerservices@eastcambs.gov.uk,East Cambridgeshire,http://www.eastcambs.gov.uk,0.26301400000000,CB7 4LB,2013-01-07,fhrs_5_en-GB,5,,FHRS,5
14328,The Bowls Club,Short Road,Stretham,Ely,Stretham Bowls Club,Other catering premises,7841,5,,336711,5,,52.34542300000000,SR105/9999/1/002,028,customerservices@eastcambs.gov.uk,East Cambridgeshire,http://www.eastcambs.gov.uk,0.21524000000000,CB6 3LS,2012-07-29,fhrs_5_en-GB,5,,FHRS,5
14329,Wood Lane,Stretham,Ely,Cambridgeshire,Stretham Primary School,School/college/university,7845,0,,336712,5,,52.35065200000000,SR145/9999/1/002,028,customerservices@eastcambs.gov.uk,East Cambridgeshire,http://www.eastcambs.gov.uk,0.22262300000000,CB6 3JN,2013-07-04,fhrs_5_en-GB,5,,FHRS,5
14330,45 High Street,Stretham,Ely,Cambridgeshire,Stretham Stores,Retailers - other,4613,20,,336277,0,,52.34995000000000,09/00078/MIXED,028,customerservices@eastcambs.gov.uk,East Cambridgeshire,http://www.eastcambs.gov.uk,0.21887300000000,CB6 3JQ,2013-03-26,fhrs_1_en-GB,1,,FHRS,0
14331,The Dock,Ely,Cambridgeshire,,Strikes Bowl And Planet Zoom,Restaurant/Cafe/Canteen,1,0,,336490,0,,52.38833300000000,E0011/9999/1/012,028,customerservices@eastcambs.gov.uk,East Cambridgeshire,http://www.eastcambs.gov.uk,0.26309400000000,CB7 4GS,2014-05-21,fhrs_5_en-GB,5,,FHRS,0
14332,Soham Road,Stuntney,Ely,Cambridgeshire,Stuntney Social Club,Other catering premises,7841,,,336560,,,52.38008500000000,E0676/9999/1/016,028,customerservices@eastcambs.gov.uk,East Cambridgeshire,http://www.eastcambs.gov.uk,0.28428700000000,CB7 5TL,2011-01-05,fhrs_exempt_en-GB,Exempt,,FHRS,
14333,4 The Cloisters,Ely,Cambridgeshire,,Sue Ryder,Retailers - other,4613,,,456783,,,52.39976000000000,11/00159/HELA,028,customerservices@eastcambs.gov.uk,East Cambridgeshire,http://www.eastcambs.gov.uk,0.26645700000000,CB7 4ZH,2012-10-16,fhrs_exempt_en-GB,Exempt,,FHRS,
14334,,,,,Sugar Design,Other catering premises,7841,5,,558696,10,,,07/00075/FOOD,028,customerservices@eastcambs.gov.uk,East Cambridgeshire,http://www.eastcambs.gov.uk,,,2010-08-27,fhrs_4_en-GB,4,,FHRS,5
14335,74 High Street,Sutton,Ely,Cambridgeshire,Sun Rise Takeaway,Takeaway/sandwich shop,7844,5,,336723,5,,52.38826000000000,SU080/0074/1/001,028,customerservices@eastcambs.gov.uk,East Cambridgeshire,http://www.eastcambs.gov.uk,0.12012500000000,CB6 2NL,2014-12-04,fhrs_5_en-GB,5,,FHRS,5
14336,Unit 7,Century Park,Lynn Road,Chettisham,Sunflowers Catering/Newmarket Hampers,Other catering premises,7841,5,,718710,0,,52.42240100000000,14/00149/MIXED,028,customerservices@eastcambs.gov.uk,East Cambridgeshire,http://www.eastcambs.gov.uk,0.27400200000000,CB6 1SA,2014-11-20,fhrs_5_en-GB,5,,FHRS,5
14337,2 Market Street,Ely,Cambridgeshire,,Superdrug Stores Plc,Retailers - other,4613,,,336537,,,52.39958400000000,E0495/0002/1/001,028,customerservices@eastcambs.gov.uk,East Cambridgeshire,http://www.eastcambs.gov.uk,0.26625700000000,CB7 4NU,2011-01-05,fhrs_exempt_en-GB,Exempt,,FHRS,
14338,82 High Street,Sutton,Ely,Cambridgeshire,Sutton & District Conservative Club,Pub/bar/nightclub,7843,5,,336724,5,,52.38783700000000,SU080/0082/1/001,028,customerservices@eastcambs.gov.uk,East Cambridgeshire,http://www.eastcambs.gov.uk,0.11563700000000,CB6 2NW,2009-08-28,fhrs_5_en-GB,5,,FHRS,5
14339,The Brooklands Centre,The Brook,Sutton,Ely,Sutton & District Royal British Legion,Pub/bar/nightclub,7843,5,,336729,5,,51.02706909179690,SU195/9999/1/001,028,customerservices@eastcambs.gov.uk,East Cambridgeshire,http://www.eastcambs.gov.uk,-2.75308990478516,CB6 2QQ,2013-12-09,fhrs_5_en-GB,5,,FHRS,5
14340,The Brook,Sutton,Ely,Cambridgeshire,Sutton Primary School,School/college/university,7845,0,,336730,0,,52.39011900000000,SU195/9999/1/003,028,customerservices@eastcambs.gov.uk,East Cambridgeshire,http://www.eastcambs.gov.uk,0.11925900000000,CB6 2QQ,2013-12-10,fhrs_5_en-GB,5,,FHRS,0
14341,36 High Street,Swaffham Prior,Cambridge,,Swaffham Prior Village Hall,Other catering premises,7841,,,336706,,,52.21867200000000,SP030/9999/1/010,028,customerservices@eastcambs.gov.uk,East Cambridgeshire,http://www.eastcambs.gov.uk,0.15924700000000,CB5 0LD,2011-12-02,fhrs_exempt_en-GB,Exempt,,FHRS,
14342,,,,,Swallowtails,Other catering premises,7841,5,,434528,5,,,11/00153/FOOD,028,customerservices@eastcambs.gov.uk,East Cambridgeshire,http://www.eastcambs.gov.uk,,,2012-08-15,fhrs_5_en-GB,5,,FHRS,5
14343,Wicken Village Hall,The Mission Hall,High Street,Wicken,Swallowtails,Other catering premises,7841,5,,608508,0,,52.31180800000000,13/00138/MIXED,028,customerservices@eastcambs.gov.uk,East Cambridgeshire,http://www.eastcambs.gov.uk,0.30147000000000,CB7 5XR,2013-11-13,fhrs_5_en-GB,5,,FHRS,0
14344,1 Sandhill,Littleport,Ely,Cambridgeshire,Swan On The River,Pub/bar/nightclub,7843,5,,658905,10,,52.45233200000000,14/00039/MIXED,028,customerservices@eastcambs.gov.uk,East Cambridgeshire,http://www.eastcambs.gov.uk,0.31769600000000,CB6 1NT,2014-05-02,fhrs_3_en-GB,3,,FHRS,10
14345,,,,,Sweet Ally Scoops,Retailers - other,4613,5,,715465,10,,,14/00046/MIXED,028,customerservices@eastcambs.gov.uk,East Cambridgeshire,http://www.eastcambs.gov.uk,,,2014-11-07,fhrs_4_en-GB,4,,FHRS,5
14346,,,,,Sweet Boutique,Retailers - other,4613,0,,444498,0,,,12/00016/MIXED,028,customerservices@eastcambs.gov.uk,East Cambridgeshire,http://www.eastcambs.gov.uk,,,2012-08-31,fhrs_5_en-GB,5,,FHRS,0
14347,35 - 37 Market Street,Ely,Cambridgeshire,,Sylhet Tandoori Restaurant  And Takeaway,Restaurant/Cafe/Canteen,1,5,,336543,5,,52.40004500000000,E0505/0037/1/001,028,customerservices@eastcambs.gov.uk,East Cambridgeshire,http://www.eastcambs.gov.uk,0.26426700000000,CB7 4LZ,2014-03-13,fhrs_5_en-GB,5,,FHRS,5
14348,David S Smith Corrugated Limited,Fordham Road,Newmarket,Suffolk,T (N) S Catering Management,Restaurant/Cafe/Canteen,1,0,,423539,10,,52.28869800000000,11/00145/MIXED,028,customerservices@eastcambs.gov.uk,East Cambridgeshire,http://www.eastcambs.gov.uk,0.39060000000000,CB8 7TX,2013-12-18,fhrs_4_en-GB,4,,FHRS,10
14349,The Maltings,Ship Lane,Ely,Cambridgeshire,Ta Bouche,Restaurant/Cafe/Canteen,1,5,,669900,5,,52.39573300000000,13/00099/MIXED,028,customerservices@eastcambs.gov.uk,East Cambridgeshire,http://www.eastcambs.gov.uk,0.26829400000000,CB7 4BB,2014-06-03,fhrs_5_en-GB,5,,FHRS,5
14350,,,,,Taste The Difference,Mobile caterer,7846,10,,681370,5,,,14/00083/MIXED,028,customerservices@eastcambs.gov.uk,East Cambridgeshire,http://www.eastcambs.gov.uk,,,2014-06-30,fhrs_4_en-GB,4,,FHRS,5
14351,,,,,Tasty Treats,Retailers - other,4613,5,,538412,0,,,13/00050/MIXED,028,customerservices@eastcambs.gov.uk,East Cambridgeshire,http://www.eastcambs.gov.uk,,,2014-01-30,fhrs_5_en-GB,5,,FHRS,0
14352,4 Buttermarket,Ely,Cambridgeshire,,Tea For Two,Restaurant/Cafe/Canteen,1,0,,576686,0,,52.39922300000000,13/00077/MIXED,028,customerservices@eastcambs.gov.uk,East Cambridgeshire,http://www.eastcambs.gov.uk,0.26587100000000,CB7 4NY,2014-02-05,fhrs_5_en-GB,5,,FHRS,0
14353,Tesco Stores Ltd,13 Angel Drove,Ely,Cambridgeshire,Tesco (Petrol Station),Retailers - other,4613,,,336491,,,52.39121900000000,E0011/9999/1/018,028,customerservices@eastcambs.gov.uk,East Cambridgeshire,http://www.eastcambs.gov.uk,0.26502000000000,CB7 4DJ,2013-09-24,fhrs_exempt_en-GB,Exempt,,FHRS,
14354,Tesco Stores Ltd,13 Angel Drove,Ely,Cambridgeshire,Tesco (Staff Canteen),Restaurant/Cafe/Canteen,1,0,,336492,0,,52.39121900000000,E0011/9999/1/020,028,customerservices@eastcambs.gov.uk,East Cambridgeshire,http://www.eastcambs.gov.uk,0.26502000000000,CB7 4DJ,2014-08-20,fhrs_5_en-GB,5,,FHRS,5
14355,13 Angel Drove,Ely,Cambridgeshire,,Tesco Store Ltd,Retailers - supermarkets/hypermarkets,7840,0,,336489,0,,52.39121900000000,E0011/9999/1/002,028,customerservices@eastcambs.gov.uk,East Cambridgeshire,http://www.eastcambs.gov.uk,0.26502000000000,CB7 4DJ,2014-08-20,fhrs_5_en-GB,5,,FHRS,5
14356,High Street,Ely,Cambridgeshire,,The Almonry Restaurant,Restaurant/Cafe/Canteen,1,10,,336530,5,,52.39922400000000,E0375/0034/1/001,028,customerservices@eastcambs.gov.uk,East Cambridgeshire,http://www.eastcambs.gov.uk,0.26441600000000,CB7 4JU,2014-08-04,fhrs_3_en-GB,3,,FHRS,10
14357,Bury Lane,Sutton,Ely,Cambridgeshire,The Anchor Inn,Restaurant/Cafe/Canteen,1,5,,505774,5,,52.39592100000000,12/00166/MIXED,028,customerservices@eastcambs.gov.uk,East Cambridgeshire,http://www.eastcambs.gov.uk,0.09945800000000,CB6 2BD,2013-01-30,fhrs_5_en-GB,5,,FHRS,5
14358,39 Newnham Street,Ely,Cambridgeshire,,The Atrium,Restaurant/Cafe/Canteen,1,5,,624376,0,,52.40125500000000,14/00002/MIXED,028,customerservices@eastcambs.gov.uk,East Cambridgeshire,http://www.eastcambs.gov.uk,0.26681300000000,CB7 4PQ,2011-01-26,fhrs_4_en-GB,4,,FHRS,10
14359,32 Mill Street,Isleham,Cambridgeshire,,The Beeches,Other catering premises,7841,10,,626285,10,,,13/00141/MIXED,028,customerservices@eastcambs.gov.uk,East Cambridgeshire,http://www.eastcambs.gov.uk,,,2014-01-15,fhrs_3_en-GB,3,,FHRS,5
14360,Newmarket Road,Kennett,Newmarket,Suffolk,The Bell Inn,Restaurant/Cafe/Canteen,1,0,,336384,0,,52.27203500000000,11/00061/MIXED,028,customerservices@eastcambs.gov.uk,East Cambridgeshire,http://www.eastcambs.gov.uk,0.49361700000000,CB8 7PP,2013-06-12,fhrs_5_en-GB,5,,FHRS,0
14361,16 High Street,Bottisham,Cambridge,,The Bell P.H.,Pub/bar/nightclub,7843,5,,336455,5,,52.21867200000000,BO050/0016/1/001,028,customerservices@eastcambs.gov.uk,East Cambridgeshire,http://www.eastcambs.gov.uk,0.15924700000000,CB5 9DA,2013-09-27,fhrs_5_en-GB,5,,FHRS,0
14362,40 The Causeway,Burwell,Cambridge,,The Best Plaice,Takeaway/sandwich shop,7844,10,,336275,10,,52.27789900000000,09/00073/MIXED,028,customerservices@eastcambs.gov.uk,East Cambridgeshire,http://www.eastcambs.gov.uk,0.32623200000000,CB25 0DU,2013-12-18,fhrs_3_en-GB,3,,FHRS,10
14363,E-Space North,181 Wisbech Road,Littleport,Cambridgeshire,The Blonde Bakers,Restaurant/Cafe/Canteen,1,0,,716543,0,,,14/00131/MIXED,028,customerservices@eastcambs.gov.uk,East Cambridgeshire,http://www.eastcambs.gov.uk,,,2014-11-11,fhrs_5_en-GB,5,,FHRS,0
14364,,,,,The Blonde Bakers,Other catering premises,7841,0,,716544,0,,,14/00132/FOOD,028,customerservices@eastcambs.gov.uk,East Cambridgeshire,http://www.eastcambs.gov.uk,,,2014-11-17,fhrs_5_en-GB,5,,FHRS,0
14365,,,,,The Bonkers Baker,Other catering premises,7841,0,,522317,0,,,13/00037/FOOD,028,customerservices@eastcambs.gov.uk,East Cambridgeshire,http://www.eastcambs.gov.uk,,,2013-02-28,fhrs_5_en-GB,5,,FHRS,0
14366,18 Brinkley Road,Dullingham,Newmarket,Suffolk,The Boot Public House,Pub/bar/nightclub,7843,10,,336303,0,,52.19153800000000,10/00014/MIXED,028,customerservices@eastcambs.gov.uk,East Cambridgeshire,http://www.eastcambs.gov.uk,0.38432900000000,CB8 9UW,2013-07-03,fhrs_4_en-GB,4,,FHRS,5
14367,High Street,Brinkley,Newmarket,Suffolk,The Brinkley Lion,Pub/bar/nightclub,7843,30,,688367,20,,52.16819600000000,14/00102/MIXED,028,customerservices@eastcambs.gov.uk,East Cambridgeshire,http://www.eastcambs.gov.uk,0.37617800000000,CB8 0RA,2014-07-22,fhrs_0_en-GB,0,,FHRS,20
14368,Bradley Road,Burrough Green,Newmarket,Suffolk,The Bull Public House,Pub/bar/nightclub,7843,10,,336448,10,,52.17428600000000,BG010/9999/1/012,028,customerservices@eastcambs.gov.uk,East Cambridgeshire,http://www.eastcambs.gov.uk,0.39298700000000,CB8 9NH,2013-09-17,fhrs_3_en-GB,3,,FHRS,10
14369,,,,,The Bun Run,Other catering premises,7841,20,,700031,5,,,14/00087/FOOD,028,customerservices@eastcambs.gov.uk,East Cambridgeshire,http://www.eastcambs.gov.uk,,,2014-09-09,fhrs_1_en-GB,1,,FHRS,10
14370,,,,,The Burger Station,Mobile caterer,7846,10,,336152,15,,,06/00066/MIXED,028,customerservices@eastcambs.gov.uk,East Cambridgeshire,http://www.eastcambs.gov.uk,,,2013-08-22,fhrs_2_en-GB,2,,FHRS,0
14371,76 Brook Street,Soham,Ely,Cambridgeshire,The Carpenters Arms,Pub/bar/nightclub,7843,0,,628532,10,,52.32816200000000,13/00150/MIXED,028,customerservices@eastcambs.gov.uk,East Cambridgeshire,http://www.eastcambs.gov.uk,0.34954900000000,CB7 5AE,2014-01-23,fhrs_4_en-GB,4,,FHRS,0
14372,Causeway Community Centre,The Causeway,Soham,Ely,The Causeway Day Centre,Other catering premises,7841,0,,336104,0,,,03/00052/MIXED,028,customerservices@eastcambs.gov.uk,East Cambridgeshire,http://www.eastcambs.gov.uk,,,2013-10-07,fhrs_5_en-GB,5,,FHRS,0
14373,58 Carter Street,Fordham,Ely,Cambridgeshire,The Chequers,Pub/bar/nightclub,7843,10,,336584,0,,52.31183900000000,FO005/0058/1/001,028,customerservices@eastcambs.gov.uk,East Cambridgeshire,http://www.eastcambs.gov.uk,0.38776800000000,CB7 5NG,2014-01-16,fhrs_4_en-GB,4,,FHRS,10
14374,128 High Street,Sutton,Ely,Cambridgeshire,The Chequers P H,Pub/bar/nightclub,7843,0,,336725,0,,52.38783700000000,SU080/0128/1/001,028,customerservices@eastcambs.gov.uk,East Cambridgeshire,http://www.eastcambs.gov.uk,0.11563700000000,CB6 2NW,2013-01-09,fhrs_5_en-GB,5,,FHRS,0
14375,66 Fordham Road,Soham,Ely,Cambridgeshire,The Cherry Tree,Pub/bar/nightclub,7843,10,,698740,10,,52.32607800000000,14/00072/MIXED,028,customerservices@eastcambs.gov.uk,East Cambridgeshire,http://www.eastcambs.gov.uk,0.34716300000000,CB7 5AH,2014-09-01,fhrs_2_en-GB,2,,FHRS,15
14376,8 Duck Lane,Haddenham,Ely,Cambridgeshire,The Cherry Tree,Pub/bar/nightclub,7843,5,,715469,5,,52.35373000000000,14/00125/MIXED,028,customerservices@eastcambs.gov.uk,East Cambridgeshire,http://www.eastcambs.gov.uk,0.14958800000000,CB6 3UE,2014-11-11,fhrs_4_en-GB,4,,FHRS,10
14377,Barns Community Rooms,175 High Barns,Ely,Cambridgeshire,The Clarence House Barns,Hospitals/Childcare/Caring Premises,5,0,,574356,5,,52.40624400000000,12/00117/MIXED,028,customerservices@eastcambs.gov.uk,East Cambridgeshire,http://www.eastcambs.gov.uk,0.27114100000000,CB7 4RJ,2014-07-17,fhrs_5_en-GB,5,,FHRS,5
14378,Co-op Retails Services Ltd,55 Carter Street,Fordham,Ely,The Co-operative Group,Retailers - supermarkets/hypermarkets,7840,0,,336583,0,,52.31183900000000,FO005/0055/1/001,028,customerservices@eastcambs.gov.uk,East Cambridgeshire,http://www.eastcambs.gov.uk,0.38776800000000,CB7 5NG,2013-04-08,fhrs_5_en-GB,5,,FHRS,0
14379,2 West Street,Isleham,Ely,Cambridgeshire,The Co-operative Group Limited,Retailers - supermarkets/hypermarkets,7840,5,,336619,5,,52.34133600000000,IS175/0002/1/001,028,customerservices@eastcambs.gov.uk,East Cambridgeshire,http://www.eastcambs.gov.uk,0.40712200000000,CB7 5SB,2012-06-26,fhrs_5_en-GB,5,,FHRS,5
14380,10 Chapel Street,Ely,Cambridgeshire,,The Countess Of Huntingdon Connection Church,Other catering premises,7841,5,,336503,10,,52.40086900000000,E0185/9999/1/001,028,customerservices@eastcambs.gov.uk,East Cambridgeshire,http://www.eastcambs.gov.uk,0.26070700000000,CB6 1AD,2014-12-17,fhrs_4_en-GB,4,,FHRS,5
14381,31 High Street,Swaffham Bulbeck,Cambridge,,The Country Store & P.O.,Retailers - other,4613,5,,336670,10,,52.23911000000000,SB045/0031/1/001,028,customerservices@eastcambs.gov.uk,East Cambridgeshire,http://www.eastcambs.gov.uk,0.27810800000000,CB25 0HP,2013-05-23,fhrs_3_en-GB,3,,FHRS,10
14382,24 Newmarket Road,Ashley,Newmarket,Suffolk,The Crown Inn,Pub/bar/nightclub,7843,10,,724281,10,,52.22632700000000,14/00160/MIXED,028,customerservices@eastcambs.gov.uk,East Cambridgeshire,http://www.eastcambs.gov.uk,0.48250200000000,CB8 9DR,2014-12-16,fhrs_3_en-GB,3,,FHRS,10
14383,34 Main Street,Littleport,Ely,Cambridgeshire,The Crown Inn,Pub/bar/nightclub,7843,5,,336324,10,,52.45680200000000,10/00079/MIXED,028,customerservices@eastcambs.gov.uk,East Cambridgeshire,http://www.eastcambs.gov.uk,0.30612500000000,CB6 1PJ,2012-06-28,fhrs_4_en-GB,4,,FHRS,5
14384,42 Annesdale,Ely,Cambridgeshire,,The Cutter Inn,Restaurant/Cafe/Canteen,1,5,,336150,5,,52.39392000000000,06/00044/MIXED,028,customerservices@eastcambs.gov.uk,East Cambridgeshire,http://www.eastcambs.gov.uk,0.26718700000000,CB7 4BN,2014-01-15,fhrs_5_en-GB,5,,FHRS,5
14385,Princess Of Wales Hospital,Lynn Road,Ely,Cambridgeshire,The Docky Box,Restaurant/Cafe/Canteen,1,0,,336149,5,,52.41329200000000,06/00037/FOOD,028,customerservices@eastcambs.gov.uk,East Cambridgeshire,http://www.eastcambs.gov.uk,0.27495900000000,CB6 1DN,2011-12-07,fhrs_5_en-GB,5,,FHRS,0
14386,Unit 4A2,Saxon Business Park,Littleport,Cambridgeshire,The Dukes Of Lunch,Mobile caterer,7846,5,,722764,5,,,14/00141/MIXED,028,customerservices@eastcambs.gov.uk,East Cambridgeshire,http://www.eastcambs.gov.uk,,,2014-12-05,fhrs_4_en-GB,4,,FHRS,10
14387,8 Fair Green,Reach,Cambridge,,The Dykes End Inn,Pub/bar/nightclub,7843,10,,336666,10,,52.27128200000000,RE020/0008/1/001,028,customerservices@eastcambs.gov.uk,East Cambridgeshire,http://www.eastcambs.gov.uk,0.29447400000000,CB25 0JD,2013-10-09,fhrs_3_en-GB,3,,FHRS,10
14388,,,,,The Fabulous Cupcake Company,Other catering premises,7841,0,,336347,0,,,10/00143/FOOD,028,customerservices@eastcambs.gov.uk,East Cambridgeshire,http://www.eastcambs.gov.uk,,,2012-04-19,fhrs_5_en-GB,5,,FHRS,0
14389,2 Lynn Road,Littleport,Ely,Cambridgeshire,The Fen House Restaurant,Restaurant/Cafe/Canteen,1,5,,336644,5,,52.46318800000000,LI230/0002/1/001,028,customerservices@eastcambs.gov.uk,East Cambridgeshire,http://www.eastcambs.gov.uk,0.31845700000000,CB6 1QG,2013-09-10,fhrs_5_en-GB,5,,FHRS,5
14390,Tower Road,Little Downham,Ely,Cambridgeshire,The Firs Residential Care Home,Hospitals/Childcare/Caring Premises,5,20,,336372,10,,52.43277400000000,11/00013/FOOD,028,customerservices@eastcambs.gov.uk,East Cambridgeshire,http://www.eastcambs.gov.uk,0.23312300000000,CB6 2TD,2014-09-19,fhrs_1_en-GB,1,,FHRS,20
14391,5 Market Place,Ely,Cambridgeshire,,The Fish House Ely,Takeaway/sandwich shop,7844,0,,336215,0,,52.39958400000000,08/00035/MIXED,028,customerservices@eastcambs.gov.uk,East Cambridgeshire,http://www.eastcambs.gov.uk,0.26625700000000,CB7 4NU,2014-01-28,fhrs_4_en-GB,4,,FHRS,10
14392,44 High Street,Burwell,Cambridge,,The Five Bells,Pub/bar/nightclub,7843,5,,336203,0,,52.27269700000000,08/00006/MIXED,028,customerservices@eastcambs.gov.uk,East Cambridgeshire,http://www.eastcambs.gov.uk,0.32735300000000,CB25 0HD,2014-12-04,fhrs_5_en-GB,5,,FHRS,5
14393,Old School Lane,Upware,Ely,Cambridgeshire,The Five Miles From Anywhere No Hurry Inn,Restaurant/Cafe/Canteen,1,5,,336156,5,,52.30795500000000,06/00081/MIXED,028,customerservices@eastcambs.gov.uk,East Cambridgeshire,http://www.eastcambs.gov.uk,0.25319700000000,CB7 5ZR,2013-06-03,fhrs_5_en-GB,5,,FHRS,5
14394,Barton Road,Ely,Cambridgeshire,,The Forum,Other catering premises,7841,,,336494,,,52.39576000000000,E0065/9999/1/032,028,customerservices@eastcambs.gov.uk,East Cambridgeshire,http://www.eastcambs.gov.uk,0.25605100000000,CB7 4HZ,2012-01-20,fhrs_exempt_en-GB,Exempt,,FHRS,
14395,1 Churchgate Street,Soham,Ely,Cambridgeshire,The Fountain Inn,Pub/bar/nightclub,7843,5,,336159,0,,52.33493300000000,06/00091/MIXED,028,customerservices@eastcambs.gov.uk,East Cambridgeshire,http://www.eastcambs.gov.uk,0.33682900000000,CB7 5DS,2014-02-12,fhrs_4_en-GB,4,,FHRS,10
14396,1 Silver Street,Ely,Cambridgeshire,,The Fountain P H,Pub/bar/nightclub,7843,5,,336557,5,,52.39723600000000,E0670/0001/1/001,028,customerservices@eastcambs.gov.uk,East Cambridgeshire,http://www.eastcambs.gov.uk,0.26022700000000,CB7 4JF,2012-01-20,fhrs_5_en-GB,5,,FHRS,5
14397,2 North Street,Burwell,Cambridge,,The Fox PH,Pub/bar/nightclub,7843,0,,336466,5,,52.28250300000000,BU210/0002/1/001,028,customerservices@eastcambs.gov.uk,East Cambridgeshire,http://www.eastcambs.gov.uk,0.32483200000000,CB25 0BA,2014-02-14,fhrs_5_en-GB,5,,FHRS,5
14398,93 Ely Road,Littleport,Ely,Cambridgeshire,The Gables,Hospitals/Childcare/Caring Premises,5,10,,336639,10,,52.44685600000000,LI105/0093/1/001,028,customerservices@eastcambs.gov.uk,East Cambridgeshire,http://www.eastcambs.gov.uk,0.29879200000000,CB6 1HJ,2015-01-06,fhrs_3_en-GB,3,,FHRS,10
14399,2B Lynn Road,Littleport,Ely,Cambridgeshire,The Gate House,Hotel/bed & breakfast/guest house,7842,0,,522315,0,,52.46318800000000,12/00138/MIXED,028,customerservices@eastcambs.gov.uk,East Cambridgeshire,http://www.eastcambs.gov.uk,0.31845700000000,CB6 1QG,2013-03-12,fhrs_5_en-GB,5,,FHRS,0
14400,28 Hall Street,Soham,Ely,Cambridgeshire,The Golden Dragon,Takeaway/sandwich shop,7844,10,,336688,5,,52.33885200000000,SO195/0028/1/001,028,customerservices@eastcambs.gov.uk,East Cambridgeshire,http://www.eastcambs.gov.uk,0.33602200000000,CB7 5BS,2014-01-28,fhrs_4_en-GB,4,,FHRS,5
14401,45 Lode Road,Lode,Cambridge,,The Golf Lounge,Pub/bar/nightclub,7843,,,589460,,,52.23869600000000,13/00096/MIXED,028,customerservices@eastcambs.gov.uk,East Cambridgeshire,http://www.eastcambs.gov.uk,0.24768000000000,CB25 9ET,2013-09-27,fhrs_exempt_en-GB,Exempt,,FHRS,
14402,11 Church Street,Isleham,Ely,Cambridgeshire,The Griffin,Pub/bar/nightclub,7843,20,,336319,15,,52.34247500000000,10/00072/MIXED,028,customerservices@eastcambs.gov.uk,East Cambridgeshire,http://www.eastcambs.gov.uk,0.41076600000000,CB7 5RX,2014-09-23,fhrs_1_en-GB,1,,FHRS,15
14403,2 Market Street,Soham,Ely,Cambridgeshire,The Handy Plaice,Takeaway/sandwich shop,7844,5,,505776,0,,52.33443900000000,13/00024/MIXED,028,customerservices@eastcambs.gov.uk,East Cambridgeshire,http://www.eastcambs.gov.uk,0.33769800000000,CB7 5JG,2013-07-24,fhrs_4_en-GB,4,,FHRS,10
14404,Station Road,Wilburton,Ely,Cambridgeshire,The Harbour School,School/college/university,7845,0,,336749,0,,52.35530400000000,WL090/9999/1/016,028,customerservices@eastcambs.gov.uk,East Cambridgeshire,http://www.eastcambs.gov.uk,0.18195800000000,CB6 3RR,2014-09-22,fhrs_4_en-GB,4,,FHRS,10
14405,45 Market Street,Ely,Cambridgeshire,,The Hereward,Pub/bar/nightclub,7843,5,,336132,0,,52.40004500000000,05/00033/MIXED,028,customerservices@eastcambs.gov.uk,East Cambridgeshire,http://www.eastcambs.gov.uk,0.26426700000000,CB7 4LZ,2013-07-05,fhrs_5_en-GB,5,,FHRS,5
14406,69 Newnham Street,Ely,Cambridgeshire,,The High Flyer,Pub/bar/nightclub,7843,10,,686853,10,,52.40125500000000,14/00099/MIXED,028,customerservices@eastcambs.gov.uk,East Cambridgeshire,http://www.eastcambs.gov.uk,0.26681300000000,CB7 4PQ,2015-01-12,fhrs_3_en-GB,3,,FHRS,10
14407,The Lighthouse Church,13 Lynn Road,Ely,Cambridgeshire,The Hub,Restaurant/Cafe/Canteen,1,5,,336387,5,,52.40119171142578,11/00066/MIXED,028,customerservices@eastcambs.gov.uk,East Cambridgeshire,http://www.eastcambs.gov.uk,0.26475000381470,,2013-01-09,fhrs_5_en-GB,5,,FHRS,5
14408,12 St Marys Street,Ely,Cambridgeshire,,The Kings Arms,Hotel/bed & breakfast/guest house,7842,10,,336301,10,,52.40004400000000,09/00175/MIXED,028,customerservices@eastcambs.gov.uk,East Cambridgeshire,http://www.eastcambs.gov.uk,0.26104700000000,CB7 4ES,2014-11-26,fhrs_2_en-GB,2,,FHRS,15
14409,1 Stetchworth Road,Dullingham,Newmarket,Suffolk,The Kings Head,Pub/bar/nightclub,7843,5,,589459,10,,52.19483300000000,13/00093/MIXED,028,customerservices@eastcambs.gov.uk,East Cambridgeshire,http://www.eastcambs.gov.uk,0.38769600000000,CB8 9UJ,2013-10-02,fhrs_4_en-GB,4,,FHRS,5
14410,45 High Street,Wilburton,Ely,Cambridgeshire,The Kings Head,Pub/bar/nightclub,7843,5,,336748,5,,52.35258100000000,WL055/0045/1/001,028,customerservices@eastcambs.gov.uk,East Cambridgeshire,http://www.eastcambs.gov.uk,0.17454000000000,CB6 3RA,2012-02-16,fhrs_5_en-GB,5,,FHRS,5
14411,2 Lynn Road,Ely,Cambridgeshire,,The Lamb Hotel,Hotel/bed & breakfast/guest house,7842,0,,336534,0,,52.39976000000000,E0480/0002/1/001,028,customerservices@eastcambs.gov.uk,East Cambridgeshire,http://www.eastcambs.gov.uk,0.26272300000000,CB7 4EJ,2013-08-09,fhrs_5_en-GB,5,,FHRS,5
14412,Nene Road,Ely,Cambridgeshire,,The Lantern Community Primary School,School/college/university,7845,5,,336123,5,,52.40834300000000,04/00061/FOOD,028,customerservices@eastcambs.gov.uk,East Cambridgeshire,http://www.eastcambs.gov.uk,0.25919300000000,CB6 2WL,2014-02-25,fhrs_5_en-GB,5,,FHRS,5
14413,The Limes,5 Church Lane,Littleport,Ely,The Limes Care Home,Hospitals/Childcare/Caring Premises,5,5,,448226,5,,52.45743500000000,LI075/0005/0/000,028,customerservices@eastcambs.gov.uk,East Cambridgeshire,http://www.eastcambs.gov.uk,0.30409800000000,CB6 1PS,2014-02-03,fhrs_4_en-GB,4,,FHRS,10
14414,The Links Cambridge Road,Newmarket,Suffolk,,The Links Golf Club,Restaurant/Cafe/Canteen,1,0,,336741,0,,52.23086800000000,W0132/9999/1/001,028,customerservices@eastcambs.gov.uk,East Cambridgeshire,http://www.eastcambs.gov.uk,0.38221900000000,CB8 0TG,2013-01-09,fhrs_5_en-GB,5,,FHRS,0
14415,12 High Street,Wicken,Ely,Cambridgeshire,The Maids Head,Restaurant/Cafe/Canteen,1,5,,466376,0,,52.31180800000000,12/00108/MIXED,028,customerservices@eastcambs.gov.uk,East Cambridgeshire,http://www.eastcambs.gov.uk,0.30147000000000,CB7 5XR,2014-12-19,fhrs_4_en-GB,4,,FHRS,10
14416,Ship Lane,Ely,Cambridgeshire,,The Maltings Day Nursery,Hospitals/Childcare/Caring Premises,5,0,,336556,5,,52.39573300000000,E0665/9999/1/001,028,customerservices@eastcambs.gov.uk,East Cambridgeshire,http://www.eastcambs.gov.uk,0.26829400000000,CB7 4BB,2014-12-05,fhrs_5_en-GB,5,,FHRS,5
14417,Meadow House,2A High Street,Burwell,Cambridge,The Meadow House B & B,Hotel/bed & breakfast/guest house,7842,5,,336461,5,,52.26905500000000,BU120/0002/1/001,028,customerservices@eastcambs.gov.uk,East Cambridgeshire,http://www.eastcambs.gov.uk,0.32919900000000,CB25 0HB,2012-07-18,fhrs_5_en-GB,5,,FHRS,5
14418,30 West Street,Isleham,Ely,Cambridgeshire,The Merry Monk,Restaurant/Cafe/Canteen,1,5,,336620,5,,52.34133600000000,IS175/0030/1/001,028,customerservices@eastcambs.gov.uk,East Cambridgeshire,http://www.eastcambs.gov.uk,0.40712200000000,CB7 5SB,2014-08-14,fhrs_4_en-GB,4,,FHRS,10
14419,1 Minster Place,Ely,Cambridgeshire,,The Minster Tavern,Pub/bar/nightclub,7843,0,,336390,0,,52.39949000000000,11/00074/FOOD,028,customerservices@eastcambs.gov.uk,East Cambridgeshire,http://www.eastcambs.gov.uk,0.26226800000000,CB7 4EL,2013-01-15,fhrs_4_en-GB,4,,FHRS,10
14420,7 Barton Road,Ely,Cambridgeshire,,The Nyton,Hotel/bed & breakfast/guest house,7842,10,,336493,5,,52.39576000000000,E0065/0007/1/001,028,customerservices@eastcambs.gov.uk,East Cambridgeshire,http://www.eastcambs.gov.uk,0.25605100000000,CB7 4HZ,2014-01-28,fhrs_3_en-GB,3,,FHRS,10
14421,,,,,The Odd Job Ladies,Other catering premises,7841,0,,517117,0,,,13/00034/FOOD,028,customerservices@eastcambs.gov.uk,East Cambridgeshire,http://www.eastcambs.gov.uk,,,2013-03-06,fhrs_5_en-GB,5,,FHRS,0
14422,165 High Street,Cheveley,Newmarket,Suffolk,The Old Farmhouse,Hotel/bed & breakfast/guest house,7842,0,,715464,0,,52.21938300000000,14/00042/FOOD,028,customerservices@eastcambs.gov.uk,East Cambridgeshire,http://www.eastcambs.gov.uk,0.46418000000000,CB8 9DG,2014-11-04,fhrs_5_en-GB,5,,FHRS,0
14423,25 St Marys Street,Ely,Cambridgeshire,,The Old Fire Engine House,Restaurant/Cafe/Canteen,1,0,,336564,0,,52.39959300000000,E0720/0025/1/001,028,customerservices@eastcambs.gov.uk,East Cambridgeshire,http://www.eastcambs.gov.uk,0.26111200000000,CB7 4ER,2013-03-12,fhrs_5_en-GB,5,,FHRS,0
14424,Soham Road,Stuntney,Ely,Cambridgeshire,The Old Hall,Hotel/bed & breakfast/guest house,7842,5,,336300,5,,52.38008500000000,09/00174/MIXED,028,customerservices@eastcambs.gov.uk,East Cambridgeshire,http://www.eastcambs.gov.uk,0.28428700000000,CB7 5TL,2014-04-30,fhrs_5_en-GB,5,,FHRS,5
14425,Soham Road,Stuntney,Ely,Cambridgeshire,The Old Hall Commercial Kitchen,Restaurant/Cafe/Canteen,1,5,,658906,5,,52.38008500000000,14/00053/MIXED,028,customerservices@eastcambs.gov.uk,East Cambridgeshire,http://www.eastcambs.gov.uk,0.28428700000000,CB7 5TL,2014-04-30,fhrs_5_en-GB,5,,FHRS,5
14426,45 Mill Lane,Stetchworth,Newmarket,Suffolk,The Old Mill,Hotel/bed & breakfast/guest house,7842,0,,718709,0,,52.19880300000000,14/00043/FOOD,028,customerservices@eastcambs.gov.uk,East Cambridgeshire,http://www.eastcambs.gov.uk,0.39544500000000,CB8 9TR,2014-11-18,fhrs_5_en-GB,5,,FHRS,0
14427,26 High Street,Ashley,Newmarket,Suffolk,The Old Plough,Restaurant/Cafe/Canteen,1,5,,336445,0,,52.22464500000000,AS025/0026/1/001,028,customerservices@eastcambs.gov.uk,East Cambridgeshire,http://www.eastcambs.gov.uk,0.48382900000000,CB8 9DX,2014-11-06,fhrs_5_en-GB,5,,FHRS,5
14428,The Old School,School Lane,Coveney,Ely,The Old School B & B,Hotel/bed & breakfast/guest house,7842,5,,336193,5,,52.41584900000000,07/00200/FOOD,028,customerservices@eastcambs.gov.uk,East Cambridgeshire,http://www.eastcambs.gov.uk,0.18956300000000,CB6 2DB,2010-12-01,fhrs_5_en-GB,5,,FHRS,5
14429,The Old School House,69 High Street,Stetchworth,Newmarket,The Old School House Day Nursery,Hospitals/Childcare/Caring Premises,5,5,,336714,5,,52.20122100000000,ST020/9999/1/004,028,customerservices@eastcambs.gov.uk,East Cambridgeshire,http://www.eastcambs.gov.uk,0.39905800000000,CB8 9TJ,2014-01-23,fhrs_5_en-GB,5,,FHRS,5
14430,7 Church Street,Isleham,Ely,Cambridgeshire,The Old Vicarage,Hotel/bed & breakfast/guest house,7842,10,,336331,15,,52.34247500000000,10/00110/MIXED,028,customerservices@eastcambs.gov.uk,East Cambridgeshire,http://www.eastcambs.gov.uk,0.41076600000000,CB7 5RX,2012-12-04,fhrs_2_en-GB,2,,FHRS,0
14431,Church Lane,Littleport,Ely,Cambridgeshire,The Old Vicarage Residential Care Home,Hospitals/Childcare/Caring Premises,5,10,,336638,10,,52.45743500000000,LI075/0032/1/001,028,customerservices@eastcambs.gov.uk,East Cambridgeshire,http://www.eastcambs.gov.uk,0.30409800000000,CB6 1PS,2013-06-18,fhrs_4_en-GB,4,,FHRS,0
14432,15A Silver Street,Ely,Cambridgeshire,,The Olive Tree Fellowship,Restaurant/Cafe/Canteen,1,5,,336243,5,,52.39723600000000,08/00121/MIXED,028,customerservices@eastcambs.gov.uk,East Cambridgeshire,http://www.eastcambs.gov.uk,0.26022700000000,CB7 4JF,2011-11-28,fhrs_5_en-GB,5,,FHRS,5
14433,,,,,The Place To Eat,Mobile caterer,7846,5,,336238,5,,,08/00111/MIXED,028,customerservices@eastcambs.gov.uk,East Cambridgeshire,http://www.eastcambs.gov.uk,,,2014-10-16,fhrs_5_en-GB,5,,FHRS,5
14434,106 Main Street,Little Downham,Ely,Cambridgeshire,The Plough,Pub/bar/nightclub,7843,5,,336627,5,,52.43169700000000,LD170/0106/1/001,028,customerservices@eastcambs.gov.uk,East Cambridgeshire,http://www.eastcambs.gov.uk,0.23635000000000,CB6 2SX,2013-06-04,fhrs_5_en-GB,5,,FHRS,5
14435,62 Silver Street,Ely,Cambridgeshire,,The Prince Albert,Pub/bar/nightclub,7843,20,,517113,10,,52.39723600000000,12/00165/MIXED,028,customerservices@eastcambs.gov.uk,East Cambridgeshire,http://www.eastcambs.gov.uk,0.26022700000000,CB7 4JF,2014-03-31,fhrs_1_en-GB,1,,FHRS,20
14436,90 High Street,Burwell,Cambridge,,The Red House Day Nursery,Hospitals/Childcare/Caring Premises,5,10,,336464,5,,52.27269700000000,BU120/0090/1/001,028,customerservices@eastcambs.gov.uk,East Cambridgeshire,http://www.eastcambs.gov.uk,0.32735300000000,CB25 0HD,2014-08-06,fhrs_4_en-GB,4,,FHRS,5
14437,218 High Street,Cheveley,Newmarket,Suffolk,The Red Lion,Pub/bar/nightclub,7843,5,,336288,0,,52.21560400000000,09/00141/MIXED,028,customerservices@eastcambs.gov.uk,East Cambridgeshire,http://www.eastcambs.gov.uk,0.46385300000000,CB8 9RH,2014-01-23,fhrs_5_en-GB,5,,FHRS,5
14438,43 High Street,Swaffham Prior,Cambridge,,The Red Lion,Pub/bar/nightclub,7843,10,,669907,5,,52.25183300000000,14/00048/MIXED,028,customerservices@eastcambs.gov.uk,East Cambridgeshire,http://www.eastcambs.gov.uk,0.29533100000000,CB25 0LD,2014-05-14,fhrs_4_en-GB,4,,FHRS,5
14439,47 High Street,Stretham,Ely,Cambridgeshire,The Red Lion,Pub/bar/nightclub,7843,20,,336297,15,,52.34840400000000,09/00171/MIXED,028,customerservices@eastcambs.gov.uk,East Cambridgeshire,http://www.eastcambs.gov.uk,0.21882500000000,CB6 3LD,2014-11-04,fhrs_0_en-GB,0,,FHRS,20
14440,Ely Cathedral,The College,Ely,Cambridgeshire,The Refectory,Restaurant/Cafe/Canteen,1,0,,336569,5,,52.39791200000000,E0741/9999/1/018,028,customerservices@eastcambs.gov.uk,East Cambridgeshire,http://www.eastcambs.gov.uk,0.26392200000000,CB7 4DL,2013-02-13,fhrs_5_en-GB,5,,FHRS,0
14441,The Littleport Community Trust,Hempfield Road,Littleport,Ely,The Regal Community Centre,Other catering premises,7841,,,336433,,,52.45537000000000,12/00010/MIXED,028,customerservices@eastcambs.gov.uk,East Cambridgeshire,http://www.eastcambs.gov.uk,0.30669800000000,CB6 1NW,2012-02-14,fhrs_exempt_en-GB,Exempt,,FHRS,
14442,11 Sun Street,Isleham,Ely,Cambridgeshire,The Rising Sun PH,Pub/bar/nightclub,7843,0,,336616,0,,52.34354300000000,IS150/0011/1/001,028,customerservices@eastcambs.gov.uk,East Cambridgeshire,http://www.eastcambs.gov.uk,0.41264500000000,CB7 5RT,2013-09-26,fhrs_5_en-GB,5,,FHRS,5
14443,,,,,The Roof Garden,Mobile caterer,7846,5,,712703,5,,,14/00057/MIXED,028,customerservices@eastcambs.gov.uk,East Cambridgeshire,http://www.eastcambs.gov.uk,,,2014-10-29,fhrs_5_en-GB,5,,FHRS,5
14444,24 Forehill,Ely,Cambridgeshire,,The Royal Standard,Pub/bar/nightclub,7843,5,,587031,10,,52.39832300000000,13/00114/MIXED,028,customerservices@eastcambs.gov.uk,East Cambridgeshire,http://www.eastcambs.gov.uk,0.26731000000000,CB7 4AF,2013-09-24,fhrs_4_en-GB,4,,FHRS,5
14445,Salvation Army Hall,Bushel Lane,Soham,Ely,The Salvation Army,Other catering premises,7841,5,,336351,5,,52.34066300000000,10/00158/MIXED,028,customerservices@eastcambs.gov.uk,East Cambridgeshire,http://www.eastcambs.gov.uk,0.33763000000000,CB7 5BY,2013-01-31,fhrs_5_en-GB,5,,FHRS,0
14446,The Shade,Soham,Ely,Cambridgeshire,The Shade Primary School,School/college/university,7845,0,,628531,0,,52.35048800000000,13/00144/HELA,028,customerservices@eastcambs.gov.uk,East Cambridgeshire,http://www.eastcambs.gov.uk,0.32506500000000,CB7 5DE,2014-01-23,fhrs_5_en-GB,5,,FHRS,0
14447,Westmoor House,Wisbech Road,Littleport,Ely,The Shed Farm Shop,Retailers - other,4613,5,,727165,0,,52.48200100000000,14/00157/MIXED,028,customerservices@eastcambs.gov.uk,East Cambridgeshire,http://www.eastcambs.gov.uk,0.25932800000000,CB6 1RQ,2014-12-18,fhrs_5_en-GB,5,,FHRS,5
14448,2 High Street,Soham,Ely,Cambridgeshire,The Ship,Pub/bar/nightclub,7843,10,,643636,10,,52.33163000000000,14/00044/MIXED,028,customerservices@eastcambs.gov.uk,East Cambridgeshire,http://www.eastcambs.gov.uk,0.33878300000000,CB7 5HD,2014-04-04,fhrs_2_en-GB,2,,FHRS,15
14449,Brandon Creek,Downham Market,Norfolk,,The Ship,Restaurant/Cafe/Canteen,1,0,,448224,5,,52.50052200000000,12/00120/MIXED,028,customerservices@eastcambs.gov.uk,East Cambridgeshire,http://www.eastcambs.gov.uk,0.36612700000000,PE38 0PP,2014-02-24,fhrs_5_en-GB,5,,FHRS,5
14450,,,,,The Suffolk Pudding Company,Other catering premises,7841,0,,528725,0,,,13/00025/MIXED,028,customerservices@eastcambs.gov.uk,East Cambridgeshire,http://www.eastcambs.gov.uk,,,2013-03-22,fhrs_5_en-GB,5,,FHRS,0
14451,Fordham Garden Centre,41 Market Street,Fordham,Ely,The Sunflower Cafe,Restaurant/Cafe/Canteen,1,5,,550741,5,,52.30855800000000,12/00140/FOOD,028,customerservices@eastcambs.gov.uk,East Cambridgeshire,http://www.eastcambs.gov.uk,0.38235500000000,CB7 5LH,2013-05-13,fhrs_5_en-GB,5,,FHRS,0
14452,6 Station Road,Haddenham,Ely,Cambridgeshire,The Three Kings,Pub/bar/nightclub,7843,20,,336607,15,,52.36131100000000,HA215/0006/1/001,028,customerservices@eastcambs.gov.uk,East Cambridgeshire,http://www.eastcambs.gov.uk,0.14954500000000,CB6 3XD,2014-06-25,fhrs_1_en-GB,1,,FHRS,15
14453,19 Bridge Road,Mepal,Ely,Cambridgeshire,The Three Pickerels PH,Pub/bar/nightclub,7843,10,,336664,15,,52.40938200000000,ME015/9999/1/002,028,customerservices@eastcambs.gov.uk,East Cambridgeshire,http://www.eastcambs.gov.uk,0.11907900000000,CB6 2AR,2013-09-13,fhrs_2_en-GB,2,,FHRS,10
14454,,,,,The Tin Kitchen,Mobile caterer,7846,5,,582347,5,,,12/00178/FOOD,028,customerservices@eastcambs.gov.uk,East Cambridgeshire,http://www.eastcambs.gov.uk,,,2013-08-30,fhrs_5_en-GB,5,,FHRS,0
14455,60 - 64 Market Street,Ely,Cambridgeshire,,The Town House,Pub/bar/nightclub,7843,5,,336544,0,,52.40036600000000,E0505/0060/0/000,028,customerservices@eastcambs.gov.uk,East Cambridgeshire,http://www.eastcambs.gov.uk,0.26441500000000,CB7 4LS,2013-09-30,fhrs_5_en-GB,5,,FHRS,5
14456,The Pavilion,The Brook,Sutton,Cambridgeshire,The Triangle Day Care Club,Other catering premises,7841,5,,371099,5,,52.37379837036133,11/00095/MIXED,028,customerservices@eastcambs.gov.uk,East Cambridgeshire,http://www.eastcambs.gov.uk,0.00712000019848,,2014-09-30,fhrs_5_en-GB,5,,FHRS,5
14457,,,,,The Truly Scrumptious Sandwich Co,Mobile caterer,7846,5,,336358,5,,,10/00169/MIXED,028,customerservices@eastcambs.gov.uk,East Cambridgeshire,http://www.eastcambs.gov.uk,,,2014-10-28,fhrs_5_en-GB,5,,FHRS,0
14458,80 Main Street,Witchford,Ely,Cambridgeshire,The Village Inn,Pub/bar/nightclub,7843,10,,336734,10,,52.38691200000000,W0065/0080/1/001,028,customerservices@eastcambs.gov.uk,East Cambridgeshire,http://www.eastcambs.gov.uk,0.20556000000000,CB6 2HQ,2014-01-30,fhrs_3_en-GB,3,,FHRS,10
14459,Pratt Street,Soham,Ely,Cambridgeshire,The Weatheralls CP School,School/college/university,7845,0,,336699,0,,52.33661000000000,SO305/9999/1/002,028,customerservices@eastcambs.gov.uk,East Cambridgeshire,http://www.eastcambs.gov.uk,0.33618300000000,CB7 5BH,2014-03-18,fhrs_5_en-GB,5,,FHRS,5
14460,9A St Marys Street,Ely,Cambridgeshire,,The White & Red Shop,Retailers - other,4613,0,,336292,0,,52.39959300000000,09/00154/MIXED,028,customerservices@eastcambs.gov.uk,East Cambridgeshire,http://www.eastcambs.gov.uk,0.26111200000000,CB7 4ER,2013-06-03,fhrs_5_en-GB,5,,FHRS,0
14461,7 Silver Street,Witcham,Ely,Cambridgeshire,The White Horse,Restaurant/Cafe/Canteen,1,10,,531066,10,,52.39794800000000,12/00135/MIXED,028,customerservices@eastcambs.gov.uk,East Cambridgeshire,http://www.eastcambs.gov.uk,0.14681300000000,CB6 2LF,2014-03-13,fhrs_3_en-GB,3,,FHRS,10
14462,21 Market Street,Fordham,Ely,Cambridgeshire,The White Pheasant,Restaurant/Cafe/Canteen,1,5,,580718,5,,52.30757100000000,13/00101/MIXED,028,customerservices@eastcambs.gov.uk,East Cambridgeshire,http://www.eastcambs.gov.uk,0.38357800000000,CB7 5LQ,2014-11-20,fhrs_5_en-GB,5,,FHRS,5
14463,Burwell Primary School,The Causeway,Burwell,Cambridge,The Willows Before And After School Club At Burwell School,Hospitals/Childcare/Caring Premises,5,0,,336328,0,,52.27789900000000,10/00085/FOOD,028,customerservices@eastcambs.gov.uk,East Cambridgeshire,http://www.eastcambs.gov.uk,0.32623200000000,CB25 0DU,2014-10-20,fhrs_5_en-GB,5,,FHRS,0
14464,St Andrews C Of E Junior School,Sand Street,Soham,Ely,The Willows Before And After School Club At St Andrew's,Hospitals/Childcare/Caring Premises,5,0,,336326,0,,52.33003500000000,10/00083/FOOD,028,customerservices@eastcambs.gov.uk,East Cambridgeshire,http://www.eastcambs.gov.uk,0.34031300000000,CB7 5AA,2014-10-13,fhrs_5_en-GB,5,,FHRS,0
14465,The Weatheralls County Primary Scho,Pratt Street,Soham,Ely,The Willows Before And After School Club At Weatheralls,Hospitals/Childcare/Caring Premises,5,5,,336327,0,,52.33661000000000,10/00084/FOOD,028,customerservices@eastcambs.gov.uk,East Cambridgeshire,http://www.eastcambs.gov.uk,0.33618300000000,CB7 5BH,2014-11-24,fhrs_5_en-GB,5,,FHRS,5
14466,11 Mereside,Soham,Ely,Cambridgeshire,The Willows Day Care Nursery,Hospitals/Childcare/Caring Premises,5,0,,336695,0,,52.33665500000000,SO255/0011/1/001,028,customerservices@eastcambs.gov.uk,East Cambridgeshire,http://www.eastcambs.gov.uk,0.32980000000000,CB7 5EE,2013-10-04,fhrs_5_en-GB,5,,FHRS,0
14467,Grunty Fen Road,Witchford,Ely,Cambridgeshire,The Woodlands,Hotel/bed & breakfast/guest house,7842,5,,336733,5,,52.38124100000000,W0060/9999/1/014,028,customerservices@eastcambs.gov.uk,East Cambridgeshire,http://www.eastcambs.gov.uk,0.20639400000000,CB6 2JE,2011-07-11,fhrs_5_en-GB,5,,FHRS,5
14468,Stretham Primary School,Wood Lane,Stretham,Cambridgeshire,Tiddlywinks Pre School,Hospitals/Childcare/Caring Premises,5,5,,336314,5,,52.34706878662109,10/00058/FOOD,028,customerservices@eastcambs.gov.uk,East Cambridgeshire,http://www.eastcambs.gov.uk,0.21654999256134,,2013-07-04,fhrs_5_en-GB,5,,FHRS,0
14469,10 Churchgate Street,Soham,Ely,Cambridgeshire,Time2Vape,Retailers - other,4613,,,669904,,,52.33441500000000,14/00018/MIXED,028,customerservices@eastcambs.gov.uk,East Cambridgeshire,http://www.eastcambs.gov.uk,0.33713900000000,CB7 5DR,2014-05-29,fhrs_exempt_en-GB,Exempt,,FHRS,
14470,,,,,Timys Hungarian Langallo,Retailers - other,4613,0,,479222,0,,,12/00092/FOOD,028,customerservices@eastcambs.gov.uk,East Cambridgeshire,http://www.eastcambs.gov.uk,,,2012-11-26,fhrs_5_en-GB,5,,FHRS,0
14471,,,,,TLC Candy Cart Hire,Retailers - other,4613,10,,705028,0,,,14/00060/FOOD,028,customerservices@eastcambs.gov.uk,East Cambridgeshire,http://www.eastcambs.gov.uk,,,2014-09-26,fhrs_4_en-GB,4,,FHRS,0
14472,25 Market Street,Ely,Cambridgeshire,,TMB (Thingmebobs),Retailers - other,4613,,,336541,,,52.40004500000000,E0505/0025/1/001,028,customerservices@eastcambs.gov.uk,East Cambridgeshire,http://www.eastcambs.gov.uk,0.26426700000000,CB7 4LZ,2012-02-10,fhrs_exempt_en-GB,Exempt,,FHRS,
14473,,,,,Towns End House,Pub/bar/nightclub,7843,5,,724278,10,,,14/00113/MIXED,028,customerservices@eastcambs.gov.uk,East Cambridgeshire,http://www.eastcambs.gov.uk,,,2014-12-09,fhrs_4_en-GB,4,,FHRS,5
14474,56C Witchford Road,Ely,Cambridgeshire,,Travelodge,Hotel/bed & breakfast/guest house,7842,0,,336576,0,,52.39041700000000,E0840/0056/1/001,028,customerservices@eastcambs.gov.uk,East Cambridgeshire,http://www.eastcambs.gov.uk,0.23867100000000,CB6 3NN,2012-03-28,fhrs_5_en-GB,5,,FHRS,0
14475,Unit 12,Lancaster Way Business Park,Ely,Cambridgeshire,Treetops Soft Play,Restaurant/Cafe/Canteen,1,5,,460483,5,,52.38383100000000,12/00102/MIXED,028,customerservices@eastcambs.gov.uk,East Cambridgeshire,http://www.eastcambs.gov.uk,0.22317300000000,CB6 3NW,2014-09-18,fhrs_5_en-GB,5,,FHRS,5
14476,Triangle Farm,Angle Common,Soham,Ely,Triangle Farm Shop,Retailers - other,4613,0,,590844,0,,52.33044900000000,13/00048/MIXED,028,customerservices@eastcambs.gov.uk,East Cambridgeshire,http://www.eastcambs.gov.uk,0.32940000000000,CB7 5HX,2013-10-03,fhrs_5_en-GB,5,,FHRS,0
14477,Trinity Hall,19 Collins Hill,Fordham,Ely,Trinity Hall B & B,Hotel/bed & breakfast/guest house,7842,10,,636738,10,,52.30697900000000,14/00030/FOOD,028,customerservices@eastcambs.gov.uk,East Cambridgeshire,http://www.eastcambs.gov.uk,0.39327200000000,CB7 5PE,2014-03-18,fhrs_4_en-GB,4,,FHRS,0
14478,1A  Lynx Business Park,Fordham Road,Snailwell,Suffolk,Tristel,Restaurant/Cafe/Canteen,1,0,,735490,5,,52.28733600000000,15/00021/MIXED,028,customerservices@eastcambs.gov.uk,East Cambridgeshire,http://www.eastcambs.gov.uk,0.39831300000000,CB8 7NY,2015-02-10,fhrs_5_en-GB,5,,FHRS,5
14479,Twentypence Garden Centre,Twentypence Road,Wilburton,Ely,Twenty Pence 2000 Ltd,Restaurant/Cafe/Canteen,1,5,,336751,5,,52.34812100000000,WL105/9999/1/012,028,customerservices@eastcambs.gov.uk,East Cambridgeshire,http://www.eastcambs.gov.uk,0.17457100000000,CB6 3RN,2014-08-20,fhrs_5_en-GB,5,,FHRS,5
14480,,,,,Uniquely Italian,Retailers - other,4613,10,,479224,0,,,12/00154/FOOD,028,customerservices@eastcambs.gov.uk,East Cambridgeshire,http://www.eastcambs.gov.uk,,,2012-11-23,fhrs_4_en-GB,4,,FHRS,0
14481,44 High Street,Soham,Ely,Cambridgeshire,USA Chicken And Pizza,Takeaway/sandwich shop,7844,10,,336120,10,,52.33261700000000,04/00028/MIXED,028,customerservices@eastcambs.gov.uk,East Cambridgeshire,http://www.eastcambs.gov.uk,0.33843800000000,CB7 5HE,2013-07-29,fhrs_3_en-GB,3,,FHRS,5
14482,,,,,Velvet Bakehouse,Other catering premises,7841,5,,608506,5,,,13/00083/FOOD,028,customerservices@eastcambs.gov.uk,East Cambridgeshire,http://www.eastcambs.gov.uk,,,2013-11-11,fhrs_5_en-GB,5,,FHRS,0
14483,Chapel Street,Ely,Cambridgeshire,,Vera James House,Hospitals/Childcare/Caring Premises,5,10,,336504,5,,52.40011700000000,E0185/9999/1/002,028,customerservices@eastcambs.gov.uk,East Cambridgeshire,http://www.eastcambs.gov.uk,0.26006600000000,CB6 1TA,2015-01-14,fhrs_4_en-GB,4,,FHRS,5
14484,The Day Centre,40 Withers Place,Fordham,Ely,Voluntary Club (Wednesday Lunch),Other catering premises,7841,5,,336106,5,,52.31052900000000,03/00072/MIXED,028,customerservices@eastcambs.gov.uk,East Cambridgeshire,http://www.eastcambs.gov.uk,0.38403000000000,CB7 5LG,2012-06-01,fhrs_5_en-GB,5,,FHRS,5
14485,3 Main Street,Littleport,Ely,Cambridgeshire,W H Cox,Retailers - other,4613,10,,336647,10,,52.45648200000000,LI235/0003/1/001,028,customerservices@eastcambs.gov.uk,East Cambridgeshire,http://www.eastcambs.gov.uk,0.30593200000000,CB6 1PH,2014-08-01,fhrs_3_en-GB,3,,FHRS,10
14486,5 Market Street,Ely,Cambridgeshire,,W H Smith,Retailers - other,4613,,,371096,,,52.39957300000000,04/00010/HELA,028,customerservices@eastcambs.gov.uk,East Cambridgeshire,http://www.eastcambs.gov.uk,0.26543300000000,CB7 4PB,2012-05-02,fhrs_exempt_en-GB,Exempt,,FHRS,
14487,Brays Lane,Ely,Cambridgeshire,,Waitrose,Retailers - supermarkets/hypermarkets,7840,0,,336496,0,,52.40091300000000,E0125/9999/1/007,028,customerservices@eastcambs.gov.uk,East Cambridgeshire,http://www.eastcambs.gov.uk,0.26872100000000,CB7 4QJ,2014-09-30,fhrs_5_en-GB,5,,FHRS,0
14488,The National Stud,Cambridge Road,Newmarket,Suffolk,Wavertrees,Restaurant/Cafe/Canteen,1,5,,336222,10,,52.22841000000000,08/00070/MIXED,028,customerservices@eastcambs.gov.uk,East Cambridgeshire,http://www.eastcambs.gov.uk,0.34556600000000,CB8 0XE,2014-01-09,fhrs_4_en-GB,4,,FHRS,5
14489,16 Fordham Road,Soham,Ely,Cambridgeshire,Webb Stores,Retailers - other,4613,20,,336681,5,,52.32823800000000,SO145/0016/1/001,028,customerservices@eastcambs.gov.uk,East Cambridgeshire,http://www.eastcambs.gov.uk,0.34387300000000,CB7 5AQ,2014-08-12,fhrs_1_en-GB,1,,FHRS,15
14490,16 West End,Ely,Cambridgeshire,,West End Public House,Pub/bar/nightclub,7843,0,,336573,0,,52.39928600000000,E0825/0016/1/001,028,customerservices@eastcambs.gov.uk,East Cambridgeshire,http://www.eastcambs.gov.uk,0.25365800000000,CB6 3AY,2012-03-19,fhrs_5_en-GB,5,,FHRS,0
14491,The National Stud,Cambridge Road,Newmarket,Suffolk,Westbrook House,Restaurant/Cafe/Canteen,1,5,,669903,5,,52.22841000000000,14/00012/MIXED,028,customerservices@eastcambs.gov.uk,East Cambridgeshire,http://www.eastcambs.gov.uk,0.34556600000000,CB8 0XD,2014-06-10,fhrs_5_en-GB,5,,FHRS,5
14492,Westley Waterless,Newmarket,Suffolk,,Westley Waterless Village Hall,Other catering premises,7841,,,336450,,,52.17787170410160,BG040/9999/1/009,028,customerservices@eastcambs.gov.uk,East Cambridgeshire,http://www.eastcambs.gov.uk,0.37802526354790,CB8 0RG,2012-01-09,fhrs_exempt_en-GB,Exempt,,FHRS,
14493,,,,,Whyatts Amusement,Mobile caterer,7846,0,,517110,0,,,12/00093/MIXED,028,customerservices@eastcambs.gov.uk,East Cambridgeshire,http://www.eastcambs.gov.uk,,,2013-03-08,fhrs_5_en-GB,5,,FHRS,0
14494,Wicken Fen National Nature Reserve,Lode Lane,Wicken,Ely,Wicken Fen Cafe,Restaurant/Cafe/Canteen,1,0,,336101,0,,52.31198900000000,03/00021/MIXED,028,customerservices@eastcambs.gov.uk,East Cambridgeshire,http://www.eastcambs.gov.uk,0.29445200000000,CB7 5XP,2014-01-29,fhrs_4_en-GB,4,,FHRS,10
14495,The Mission Hall,High Street,Wicken,Ely,Wicken Village Hall,Other catering premises,7841,,,336742,,,52.31180800000000,WIC35/9999/1/001,028,customerservices@eastcambs.gov.uk,East Cambridgeshire,http://www.eastcambs.gov.uk,0.30147000000000,CB7 5XR,2012-10-17,fhrs_exempt_en-GB,Exempt,,FHRS,
14496,Wilburton Primary School,Carpond Lane,Wilburton,Ely,Wilburton OSC,Hospitals/Childcare/Caring Premises,5,5,,589457,10,,52.35307700000000,12/00162/FOOD,028,customerservices@eastcambs.gov.uk,East Cambridgeshire,http://www.eastcambs.gov.uk,0.17591600000000,CB6 3RJ,2013-09-30,fhrs_4_en-GB,4,,FHRS,5
14497,34 High Street,Wilburton,Ely,Cambridgeshire,Wilburton Post Office And Stores,Retailers - other,4613,20,,336746,10,,52.35258100000000,WL055/0034/1/002,028,customerservices@eastcambs.gov.uk,East Cambridgeshire,http://www.eastcambs.gov.uk,0.17454000000000,CB6 3RA,2013-09-02,fhrs_1_en-GB,1,,FHRS,10
14498,Carpond Lane,Wilburton,Ely,Cambridgeshire,Wilburton Primary School,School/college/university,7845,0,,336744,0,,52.35307700000000,WL025/9999/1/001,028,customerservices@eastcambs.gov.uk,East Cambridgeshire,http://www.eastcambs.gov.uk,0.17591600000000,CB6 3RJ,2013-12-11,fhrs_5_en-GB,5,,FHRS,0
14499,St Peters Hall,39 High Street,Wilburton,Cambridgeshire,Wilburton Social Club,Other catering premises,7841,,,336747,,,,WL055/0039/1/001,028,customerservices@eastcambs.gov.uk,East Cambridgeshire,http://www.eastcambs.gov.uk,,,2009-08-04,fhrs_exempt_en-GB,Exempt,,FHRS,
14500,,,,,Wild Game Meat Ltd,Retailers - other,4613,10,,643634,10,,,14/00025/FOOD,028,customerservices@eastcambs.gov.uk,East Cambridgeshire,http://www.eastcambs.gov.uk,,,2014-03-27,fhrs_4_en-GB,4,,FHRS,0
14501,Wildtracks,Offroad Activity Park,Plantation Farm,Chippenham Road,Wildsnacks Cafe,Restaurant/Cafe/Canteen,1,0,,336621,0,,52.29074800000000,KE002/9999/1/003,028,customerservices@eastcambs.gov.uk,East Cambridgeshire,http://www.eastcambs.gov.uk,0.46712800000000,CB8 7QJ,2013-09-02,fhrs_5_en-GB,5,,FHRS,5
14502,15 High Street,Ely,Cambridgeshire,,Wildwood,Restaurant/Cafe/Canteen,1,5,,408468,5,,52.39949800000000,12/00001/MIXED,028,customerservices@eastcambs.gov.uk,East Cambridgeshire,http://www.eastcambs.gov.uk,0.26422400000000,CB7 4LQ,2014-03-05,fhrs_5_en-GB,5,,FHRS,5
14503,7 The Cloisters,Ely,Cambridgeshire,,Wilkinsons,Retailers - other,4613,,,336570,,,52.39977300000000,E0742/0007/0/000,028,customerservices@eastcambs.gov.uk,East Cambridgeshire,http://www.eastcambs.gov.uk,0.26672200000000,CB7 4ZH,2009-02-02,fhrs_exempt_en-GB,Exempt,,FHRS,
14504,6A Newmarket Road,Stretham,Ely,Cambridgeshire,Will Wok,Takeaway/sandwich shop,7844,10,,631861,10,,52.34673500000000,13/00153/MIXED,028,customerservices@eastcambs.gov.uk,East Cambridgeshire,http://www.eastcambs.gov.uk,0.21910800000000,CB6 3JZ,2013-09-25,fhrs_2_en-GB,2,,FHRS,15
14505,Martins Lane,Witcham,Ely,Cambridgeshire,Witcham Village Hall,Other catering premises,7841,,,336743,,,52.39987600000000,WIT40/9999/1/001,028,customerservices@eastcambs.gov.uk,East Cambridgeshire,http://www.eastcambs.gov.uk,0.14859700000000,CB6 2LB,2012-02-15,fhrs_exempt_en-GB,Exempt,,FHRS,
14506,The Pavilion  Playing Fields Associ,Bedwell Hey Lane,Witchford,Ely,Witchford Playing Fields Association,Other catering premises,7841,,,336731,,,52.38484200000000,W0010/9999/1/001,028,customerservices@eastcambs.gov.uk,East Cambridgeshire,http://www.eastcambs.gov.uk,0.21386300000000,CB6 2JN,2010-02-10,fhrs_exempt_en-GB,Exempt,,FHRS,
14507,Witchford Rackhams Playgroup,83 Main Street,Witchford,Ely,Witchford Rackham Pre-School,Hospitals/Childcare/Caring Premises,5,5,,336735,5,,52.38691200000000,W0065/0083/1/001,028,customerservices@eastcambs.gov.uk,East Cambridgeshire,http://www.eastcambs.gov.uk,0.20556000000000,CB6 2HQ,2011-09-07,fhrs_5_en-GB,5,,FHRS,5
14508,Witchford Recreation Ground,Bedwell Hey Lane,Witchford,Cambridgeshire,Witchford Sports & Social Club,Pub/bar/nightclub,7843,0,,336732,0,,52.38378100000000,W0010/9999/1/002,028,customerservices@eastcambs.gov.uk,East Cambridgeshire,http://www.eastcambs.gov.uk,0.21509900000000,,2011-02-03,fhrs_5_en-GB,5,,FHRS,0
14509,114A Main Street,Witchford,Cambridgeshire,,Witchford Take-Away,Takeaway/sandwich shop,7844,10,,727164,10,,52.38685600000000,14/00144/MIXED,028,customerservices@eastcambs.gov.uk,East Cambridgeshire,http://www.eastcambs.gov.uk,0.19891500000000,CB6 2HP,2014-12-19,fhrs_3_en-GB,3,,FHRS,10
14510,Manor Road,Witchford,Ely,Cambridgeshire,Witchford Village College,School/college/university,7845,5,,336739,5,,52.38987500000000,W0085/9999/1/004,028,customerservices@eastcambs.gov.uk,East Cambridgeshire,http://www.eastcambs.gov.uk,0.21063100000000,CB6 2JA,2013-10-10,fhrs_5_en-GB,5,,FHRS,5
14511,1 High Street,Littleport,Ely,Cambridgeshire,Wok This Way,Takeaway/sandwich shop,7844,5,,336422,5,,52.45568800000000,11/00156/MIXED,028,customerservices@eastcambs.gov.uk,East Cambridgeshire,http://www.eastcambs.gov.uk,0.30328500000000,CB6 1HE,2013-08-29,fhrs_5_en-GB,5,,FHRS,5
14512,6 Black Bank Road,Little Downham,Ely,Cambridgeshire,Wood Fen Lodge,Hotel/bed & breakfast/guest house,7842,5,,336204,5,,52.45817200000000,08/00011/MIXED,028,customerservices@eastcambs.gov.uk,East Cambridgeshire,http://www.eastcambs.gov.uk,0.27624200000000,CB6 2UA,2014-10-23,fhrs_4_en-GB,4,,FHRS,10
14513,,,,,Yellow Butterfly Cake Design,Other catering premises,7841,5,,558700,5,,,08/00024/FOOD,028,customerservices@eastcambs.gov.uk,East Cambridgeshire,http://www.eastcambs.gov.uk,,,2011-02-03,fhrs_5_en-GB,5,,FHRS,5
14514,Unit A,Granby Business Centre,Granby Street,Littleport,YPL,Other catering premises,7841,5,,336211,5,,52.45702700000000,08/00030/MIXED,028,customerservices@eastcambs.gov.uk,East Cambridgeshire,http://www.eastcambs.gov.uk,0.30750600000000,CB6 1NE,2013-09-02,fhrs_5_en-GB,5,,FHRS,5
14515,YPL Arena,Paragon Business Centre,Henry Crabb Road,Littleport,YPL Refreshments,Restaurant/Cafe/Canteen,1,5,,698741,5,,,14/00108/MIXED,028,customerservices@eastcambs.gov.uk,East Cambridgeshire,http://www.eastcambs.gov.uk,,,2014-09-01,fhrs_5_en-GB,5,,FHRS,5
14516,,,,,Yumbly Crumbly Cakes,Other catering premises,7841,0,,481388,0,,,11/00049/FOOD,028,customerservices@eastcambs.gov.uk,East Cambridgeshire,http://www.eastcambs.gov.uk,,,2012-11-29,fhrs_5_en-GB,5,,FHRS,0
