,addressline1,addressline2,addressline3,addressline4,businessname,businesstype,businesstypeid,confidenceinmanagement,extractdate,fhrsid,hygiene,itemcount,latitude,localauthoritybusinessid,localauthoritycode,localauthorityemailaddress,localauthorityname,localauthoritywebsite,longitude,postcode,ratingdate,ratingkey,ratingvalue,returncode,schemetype,structural
159647,,20 Tudor Square,Dalton-In-Furness,Cumbria,20,Pub/bar/nightclub,7843,0,,226166,0,,54.15713400000000,40772,056,commercial@barrowbc.gov.uk,Barrow-in-Furness,http://www.barrowbc.gov.uk,-3.17753900000000,LA15 8RH,2012-02-29,fhrs_5_en-GB,5,,FHRS,0
159648,,251 Rawlinson Street,Barrow-In-Furness,Cumbria,3J Confectionary,Retailers - other,4613,10,,504197,5,,54.11527500000000,40810,056,commercial@barrowbc.gov.uk,Barrow-in-Furness,http://www.barrowbc.gov.uk,-3.22359400000000,LA14 1DH,2015-01-08,fhrs_3_en-GB,3,,FHRS,10
159649,,38 Harrogate Street,Barrow-In-Furness,Cumbria,A W Shepherd,Retailers - other,4613,5,,225845,5,,54.12393400000000,19635,056,commercial@barrowbc.gov.uk,Barrow-in-Furness,http://www.barrowbc.gov.uk,-3.22244100000000,LA14 5LY,2014-02-12,fhrs_5_en-GB,5,,FHRS,5
159650,,48 Abbey Road,Barrow-In-Furness,Cumbria,A.E. Trades Club & Institute,Pub/bar/nightclub,7843,5,,226133,5,,54.11434300000000,9438,056,commercial@barrowbc.gov.uk,Barrow-in-Furness,http://www.barrowbc.gov.uk,-3.23043600000000,LA14 1LG,2009-10-19,fhrs_5_en-GB,5,,FHRS,5
159651,,,,,A590 Catering (Eastbound),Mobile caterer,7846,5,,717364,0,,,39402,056,commercial@barrowbc.gov.uk,Barrow-in-Furness,http://www.barrowbc.gov.uk,,,2014-11-12,fhrs_5_en-GB,5,,FHRS,5
159652,Abbey House Hotel,Abbey Road,Barrow-In-Furness,Cumbria,Abbey House Hotel,Hotel/bed & breakfast/guest house,7842,0,,225862,5,,54.13650200000000,27030,056,commercial@barrowbc.gov.uk,Barrow-in-Furness,http://www.barrowbc.gov.uk,-3.20075500000000,LA13 0PA,2014-03-26,fhrs_5_en-GB,5,,FHRS,5
159653,Custodians Cottage,Manor Road,Barrow-In-Furness,Cumbria,Abbey Mill Coffee Shop,Restaurant/Cafe/Canteen,1,5,,226135,5,,54.13751200000000,34572,056,commercial@barrowbc.gov.uk,Barrow-in-Furness,http://www.barrowbc.gov.uk,-3.19858000000000,LA13 0PJ,2014-02-19,fhrs_4_en-GB,4,,FHRS,10
159654,Abbey Road Baptist Church,Abbey Road,Barrow-In-Furness,Cumbria,Abbey Road Baptist Church,Other catering premises,7841,10,,226088,0,,54.12077800000000,35376,056,commercial@barrowbc.gov.uk,Barrow-in-Furness,http://www.barrowbc.gov.uk,-3.22074200000000,LA14 5EY,2008-05-08,fhrs_4_en-GB,4,,FHRS,0
159655,Millenium House,Dalton Road,Barrow-In-Furness,Cumbria,Abbeyfield Society,Hospitals/Childcare/Caring Premises,5,0,,225986,0,,54.11536200000000,34621,056,commercial@barrowbc.gov.uk,Barrow-in-Furness,http://www.barrowbc.gov.uk,-3.22742100000000,LA14 1PQ,2013-01-25,fhrs_5_en-GB,5,,FHRS,0
159656,,373 Abbey Road,Barrow-In-Furness,Cumbria,Abbotsfield Residential Care Home,Hospitals/Childcare/Caring Premises,5,0,,225913,0,,54.13268900000000,26966,056,commercial@barrowbc.gov.uk,Barrow-in-Furness,http://www.barrowbc.gov.uk,-3.20987400000000,LA13 9JS,2014-02-04,fhrs_5_en-GB,5,,FHRS,0
159657,Abbotsmead Community Centre,Abbots Vale,Barrow-In-Furness,Cumbria,Abbotsvale Community Centre,Other catering premises,7841,,,693544,,,54.11543700000000,34576,056,commercial@barrowbc.gov.uk,Barrow-in-Furness,http://www.barrowbc.gov.uk,-3.20672400000000,LA13 9PB,2008-08-08,fhrs_exempt_en-GB,Exempt,,FHRS,
159658,Sure Start Community Centre,Greengate Street,Barrow-In-Furness,Cumbria,Action For Children,Restaurant/Cafe/Canteen,1,5,,717367,0,,54.11296700000000,41575,056,commercial@barrowbc.gov.uk,Barrow-in-Furness,http://www.barrowbc.gov.uk,-3.21896700000000,LA14 1BG,2014-11-12,fhrs_5_en-GB,5,,FHRS,5
159659,"Age Concern, Lakeland Pennine Building",Abbey Road,Barrow-In-Furness,Cumbria,Age UK,Other catering premises,7841,5,,504202,0,,54.11355500000000,8304,056,commercial@barrowbc.gov.uk,Barrow-in-Furness,http://www.barrowbc.gov.uk,-3.23279900000000,LA14 1XL,2013-01-31,fhrs_5_en-GB,5,,FHRS,0
159660,,47 Ainslie Street,Barrow-In-Furness,Cumbria,Ainslie Street News,Retailers - other,4613,20,,702318,10,,54.12083400000000,18777,056,commercial@barrowbc.gov.uk,Barrow-in-Furness,http://www.barrowbc.gov.uk,-3.22404900000000,LA14 5AY,2014-09-02,fhrs_1_en-GB,1,,FHRS,5
159661,Albion Hotel,Dalton Road,Barrow-In-Furness,Cumbria,Albion Hotel,Pub/bar/nightclub,7843,5,,226155,5,,54.11047500000000,8227,056,commercial@barrowbc.gov.uk,Barrow-in-Furness,http://www.barrowbc.gov.uk,-3.22629800000000,LA14 2EX,2014-12-02,fhrs_5_en-GB,5,,FHRS,5
159662,,148 Risedale Road,Barrow-In-Furness,Cumbria,Aldi,Retailers - supermarkets/hypermarkets,7840,0,,513908,5,,54.11408500000000,40750,056,commercial@barrowbc.gov.uk,Barrow-in-Furness,http://www.barrowbc.gov.uk,-3.20973000000000,LA13 9RA,2015-01-13,fhrs_5_en-GB,5,,FHRS,0
159663,"Aldi Foodstore Ltd, Hindpool R",Hindpool Road,Barrow-In-Furness,Cumbria,Aldi Food Stores Limited,Retailers - supermarkets/hypermarkets,7840,0,,225696,0,,54.11411600000000,9773,056,commercial@barrowbc.gov.uk,Barrow-in-Furness,http://www.barrowbc.gov.uk,-3.23504900000000,LA14 2PD,2013-08-19,fhrs_5_en-GB,5,,FHRS,0
159664,,9 Dalton Road,Barrow-In-Furness,Cumbria,Ali Jee,Restaurant/Cafe/Canteen,1,20,,447597,5,,54.11147300000000,40057,056,commercial@barrowbc.gov.uk,Barrow-in-Furness,http://www.barrowbc.gov.uk,-3.22628100000000,LA14 1HL,2014-03-05,fhrs_1_en-GB,1,,FHRS,10
159665,Ambrose Hotel,Duke Street,Barrow-In-Furness,Cumbria,Ambrose Hotel,Pub/bar/nightclub,7843,5,,585515,5,,54.11577400000000,41459,056,commercial@barrowbc.gov.uk,Barrow-in-Furness,http://www.barrowbc.gov.uk,-3.23460900000000,LA14 1XT,2013-08-02,fhrs_4_en-GB,4,,FHRS,10
159666,,11 Anchor Road,Barrow-In-Furness,Cumbria,Anchor Fish Bar and Chinese Take Away,Takeaway/sandwich shop,7844,0,,226136,5,,54.10231000000000,8224,056,commercial@barrowbc.gov.uk,Barrow-in-Furness,http://www.barrowbc.gov.uk,-3.22936000000000,LA14 2QW,2014-02-25,fhrs_5_en-GB,5,,FHRS,5
159667,,1 Hastings Street,Barrow-In-Furness,Cumbria,Andy's Chip Shop,Takeaway/sandwich shop,7844,0,,225695,5,,54.10578900000000,5636,056,commercial@barrowbc.gov.uk,Barrow-in-Furness,http://www.barrowbc.gov.uk,-3.25275800000000,LA14 3LF,2013-03-08,fhrs_5_en-GB,5,,FHRS,0
159668,,,,,Angela's Couture Cakes,Retailers - other,4613,5,,643686,0,,,1654,056,commercial@barrowbc.gov.uk,Barrow-in-Furness,http://www.barrowbc.gov.uk,,,2014-03-26,fhrs_5_en-GB,5,,FHRS,5
159669,,81 Duke Street,Barrow-In-Furness,Cumbria,Antalyia,Takeaway/sandwich shop,7844,10,,225945,5,,54.11315800000000,9338,056,commercial@barrowbc.gov.uk,Barrow-in-Furness,http://www.barrowbc.gov.uk,-3.23026300000000,LA14 1RH,2014-02-12,fhrs_3_en-GB,3,,FHRS,10
159670,,19 Ruskin Avenue,Dalton-In-Furness,Cumbria,Antycross News,Retailers - other,4613,,,693537,,,54.15036800000000,30910,056,commercial@barrowbc.gov.uk,Barrow-in-Furness,http://www.barrowbc.gov.uk,-3.18282900000000,LA15 8LU,2011-03-31,fhrs_exempt_en-GB,Exempt,,FHRS,
159671,"Unit A, Hollywood Park",Hindpool Road,Barrow-In-Furness,Cumbria,Apollo Bingo,Pub/bar/nightclub,7843,5,,225912,5,,54.11479900000000,34577,056,commercial@barrowbc.gov.uk,Barrow-in-Furness,http://www.barrowbc.gov.uk,-3.23854200000000,LA14 2NA,2015-01-13,fhrs_5_en-GB,5,,FHRS,5
159672,Unit 1-2,121-135 Dalton Road,Barrow-In-Furness,Cumbria,Argos,Retailers - supermarkets/hypermarkets,7840,,,693590,,,54.11251200000000,9467,056,commercial@barrowbc.gov.uk,Barrow-in-Furness,http://www.barrowbc.gov.uk,-3.22573100000000,LA14 1HZ,2011-01-19,fhrs_exempt_en-GB,Exempt,,FHRS,
159673,Argos Extra,Walney Road,Barrow-In-Furness,Cumbria,Argos Ltd,Retailers - other,4613,,,693562,,,54.12095600000000,40188,056,commercial@barrowbc.gov.uk,Barrow-in-Furness,http://www.barrowbc.gov.uk,-3.23506900000000,LA14 5UN,2013-08-02,fhrs_exempt_en-GB,Exempt,,FHRS,
159674,Asda Stores Ltd,Walney Road,Barrow-In-Furness,Cumbria,Asda Cafe,Restaurant/Cafe/Canteen,1,5,,225877,10,,54.12222200000000,38477,056,commercial@barrowbc.gov.uk,Barrow-in-Furness,http://www.barrowbc.gov.uk,-3.23776900000000,LA14 5UG,2014-05-07,fhrs_4_en-GB,4,,FHRS,5
159675,Asda Stores Ltd,Walney Road,Barrow-In-Furness,Cumbria,Asda Staff Canteen,Restaurant/Cafe/Canteen,1,10,,226050,5,,54.12222200000000,38478,056,commercial@barrowbc.gov.uk,Barrow-in-Furness,http://www.barrowbc.gov.uk,-3.23776900000000,LA14 5UG,2013-02-28,fhrs_4_en-GB,4,,FHRS,5
159676,Asda Stores Ltd,Walney Road,Barrow-In-Furness,Cumbria,Asda Walmart Superstore,Retailers - supermarkets/hypermarkets,7840,0,,226108,5,,54.12222200000000,10941,056,commercial@barrowbc.gov.uk,Barrow-in-Furness,http://www.barrowbc.gov.uk,-3.23776900000000,LA14 5UG,2014-05-09,fhrs_5_en-GB,5,,FHRS,0
159677,Askam And Ireleth Community Ce,Duke Street,Askam-In-Furness,Cumbria,Askam Community Centre,Other catering premises,7841,,,693546,,,,35807,056,commercial@barrowbc.gov.uk,Barrow-in-Furness,http://www.barrowbc.gov.uk,,,2011-01-25,fhrs_exempt_en-GB,Exempt,,FHRS,
159678,,75 Duke Street,Askam-In-Furness,Cumbria,Askam Newsagents Ltd,Retailers - other,4613,,,693534,,,54.18653200000000,28454,056,commercial@barrowbc.gov.uk,Barrow-in-Furness,http://www.barrowbc.gov.uk,-3.20589800000000,LA16 7AD,2012-06-25,fhrs_exempt_en-GB,Exempt,,FHRS,
159679,Askam Rugby League Club,Sandy Lane,Askam-In-Furness,Cumbria,Askam Rugby League Club,Pub/bar/nightclub,7843,5,,226015,5,,54.18836000000000,28442,056,commercial@barrowbc.gov.uk,Barrow-in-Furness,http://www.barrowbc.gov.uk,-3.20725400000000,LA16 7BD,2014-11-25,fhrs_5_en-GB,5,,FHRS,5
159680,Askam Village School,Lots Road,Askam-In-Furness,Cumbria,Askam Village School,School/college/university,7845,0,,226077,0,,54.18467800000000,39895,056,commercial@barrowbc.gov.uk,Barrow-in-Furness,http://www.barrowbc.gov.uk,-3.20609000000000,LA16 7DA,2014-06-06,fhrs_5_en-GB,5,,FHRS,5
159681,,63-75 Dalton Road,Barrow-In-Furness,Cumbria,B & M Bargains Ltd,Retailers - supermarkets/hypermarkets,7840,0,,226110,0,,54.11251200000000,39778,056,commercial@barrowbc.gov.uk,Barrow-in-Furness,http://www.barrowbc.gov.uk,-3.22573100000000,LA14 1HZ,2013-08-09,fhrs_5_en-GB,5,,FHRS,0
159682,"Unit F, Hollywood Park",Hindpool Road,Barrow-In-Furness,Cumbria,B & M Retail Ltd,Retailers - other,4613,0,,225704,0,,54.11479900000000,40348,056,commercial@barrowbc.gov.uk,Barrow-in-Furness,http://www.barrowbc.gov.uk,-3.23854200000000,LA14 2NA,2013-01-28,fhrs_5_en-GB,5,,FHRS,0
159683,,231 Dalton Road,Barrow-In-Furness,Cumbria,Baan Siam Barrow Limited,Restaurant/Cafe/Canteen,1,10,,615473,5,,54.11536200000000,40740,056,commercial@barrowbc.gov.uk,Barrow-in-Furness,http://www.barrowbc.gov.uk,-3.22742100000000,LA14 1PQ,2015-01-09,fhrs_4_en-GB,4,,FHRS,5
159684,Bae Systems,Bridge Road,Barrow-In-Furness,Cumbria,BAe Systems DDH Canteen T4  Level 2,Restaurant/Cafe/Canteen,1,0,,225971,0,,54.11379600000000,34916,056,commercial@barrowbc.gov.uk,Barrow-in-Furness,http://www.barrowbc.gov.uk,-3.22592200000000,LA14 1AF,2014-11-03,fhrs_5_en-GB,5,,FHRS,0
159685,Bae Systems,Bridge Road,Barrow-In-Furness,Cumbria,BAe Systems Main Kitchen (Management Mess),Restaurant/Cafe/Canteen,1,0,,226090,0,,54.11379600000000,38310,056,commercial@barrowbc.gov.uk,Barrow-in-Furness,http://www.barrowbc.gov.uk,-3.22592200000000,LA14 1AF,2013-06-21,fhrs_5_en-GB,5,,FHRS,0
159686,Bae Systems,Bridge Road,Barrow-In-Furness,Cumbria,BAe Systems The Quadrangle Canteen,Restaurant/Cafe/Canteen,1,0,,225682,0,,54.11379600000000,39202,056,commercial@barrowbc.gov.uk,Barrow-in-Furness,http://www.barrowbc.gov.uk,-3.22592200000000,LA14 1AF,2014-11-03,fhrs_5_en-GB,5,,FHRS,5
159687,Bae Systems,Bridge Road,Barrow-In-Furness,Cumbria,BAe Systems The Shop,Restaurant/Cafe/Canteen,1,0,,226137,0,,54.11379600000000,38474,056,commercial@barrowbc.gov.uk,Barrow-in-Furness,http://www.barrowbc.gov.uk,-3.22592200000000,LA14 1AF,2013-06-21,fhrs_5_en-GB,5,,FHRS,0
159688,,80 Schneider Road,Barrow-In-Furness,Cumbria,Baguette Me Not,Takeaway/sandwich shop,7844,0,,225731,5,,54.12775500000000,11610,056,commercial@barrowbc.gov.uk,Barrow-in-Furness,http://www.barrowbc.gov.uk,-3.23115400000000,LA14 5DP,2013-12-04,fhrs_5_en-GB,5,,FHRS,0
159689,,9 Risedale Road,Barrow-In-Furness,Cumbria,Baguette Me Not 2 Ltd,Restaurant/Cafe/Canteen,1,0,,226040,5,,54.11147100000000,40236,056,commercial@barrowbc.gov.uk,Barrow-in-Furness,http://www.barrowbc.gov.uk,-3.20870500000000,LA13 9QX,2013-07-23,fhrs_5_en-GB,5,,FHRS,0
159690,Unit 3,78-80 Dalton Road,Barrow-In-Furness,Cumbria,Baileys,Restaurant/Cafe/Canteen,1,5,,225794,5,,54.11288000000000,40036,056,commercial@barrowbc.gov.uk,Barrow-in-Furness,http://www.barrowbc.gov.uk,-3.22496100000000,LA14 1JH,2014-01-13,fhrs_5_en-GB,5,,FHRS,0
159691,Lords Tavern,Abbey Road,Barrow-In-Furness,Cumbria,Bar Continental,Pub/bar/nightclub,7843,10,,225891,5,,54.12383900000000,34652,056,commercial@barrowbc.gov.uk,Barrow-in-Furness,http://www.barrowbc.gov.uk,-3.21686400000000,,2014-11-14,fhrs_3_en-GB,3,,FHRS,10
159692,,5-15 Dalkeith Street,Barrow-In-Furness,Cumbria,Bar Five & The Nines,Pub/bar/nightclub,7843,5,,226048,5,,54.11442200000000,9415,056,commercial@barrowbc.gov.uk,Barrow-in-Furness,http://www.barrowbc.gov.uk,-3.22886200000000,LA14 1SP,2012-04-20,fhrs_5_en-GB,5,,FHRS,5
159693,,1a Amphitrite Street,Barrow-In-Furness,Cumbria,Bargain Booze,Retailers - other,4613,,,693573,,,54.10313900000000,5632,056,commercial@barrowbc.gov.uk,Barrow-in-Furness,http://www.barrowbc.gov.uk,-3.25004700000000,LA14 3BZ,2014-12-16,fhrs_exempt_en-GB,Exempt,,FHRS,
159694,,5 Risedale Road,Barrow-In-Furness,Cumbria,Bargain Booze,Retailers - other,4613,,,693530,,,54.11147100000000,24630,056,commercial@barrowbc.gov.uk,Barrow-in-Furness,http://www.barrowbc.gov.uk,-3.20870500000000,LA13 9QX,2011-02-14,fhrs_exempt_en-GB,Exempt,,FHRS,
159695,,18 Settle Street,Barrow-In-Furness,Cumbria,Bargain Booze,Retailers - other,4613,,,693527,,,54.12163700000000,20716,056,commercial@barrowbc.gov.uk,Barrow-in-Furness,http://www.barrowbc.gov.uk,-3.22294000000000,LA14 5HR,2011-03-31,fhrs_exempt_en-GB,Exempt,,FHRS,
159696,,26-28 Cavendish Street,Barrow-In-Furness,Cumbria,Barrow Arms Hotel,Pub/bar/nightclub,7843,5,,226062,0,,54.11310600000000,9496,056,commercial@barrowbc.gov.uk,Barrow-in-Furness,http://www.barrowbc.gov.uk,-3.22828800000000,LA14 1SB,2014-11-26,fhrs_5_en-GB,5,,FHRS,0
159697,Holker Street Ground,Wilkie Road,Barrow-In-Furness,Cumbria,"Barrow Burger Company Ltd, Away Van",Mobile caterer,7846,5,,504201,0,,54.12327300000000,40850,056,commercial@barrowbc.gov.uk,Barrow-in-Furness,http://www.barrowbc.gov.uk,-3.23605600000000,LA14 5UW,2014-05-13,fhrs_5_en-GB,5,,FHRS,5
159698,Holker Street Ground,Wilkie Road,Barrow-In-Furness,Cumbria,"Barrow Burger Company Ltd, North Van",Mobile caterer,7846,5,,226046,0,,54.12327300000000,39862,056,commercial@barrowbc.gov.uk,Barrow-in-Furness,http://www.barrowbc.gov.uk,-3.23605600000000,LA14 5UW,2014-05-13,fhrs_5_en-GB,5,,FHRS,5
159699,Holker Street Ground,Wilkie Road,Barrow-In-Furness,Cumbria,"Barrow Burger Company Ltd, South Van",Mobile caterer,7846,5,,504200,0,,54.12327300000000,40849,056,commercial@barrowbc.gov.uk,Barrow-in-Furness,http://www.barrowbc.gov.uk,-3.23605600000000,LA14 5UW,2014-05-13,fhrs_5_en-GB,5,,FHRS,5
159700,Barrow Cricket Club,Abbey Road,Barrow-In-Furness,Cumbria,Barrow Cricket Club,Pub/bar/nightclub,7843,5,,225703,0,,54.13268900000000,26958,056,commercial@barrowbc.gov.uk,Barrow-in-Furness,http://www.barrowbc.gov.uk,-3.20987400000000,LA13 9JS,2013-03-13,fhrs_5_en-GB,5,,FHRS,5
159701,The Soccer Bar,Wilkie Road,Barrow-In-Furness,Cumbria,Barrow Football Supporters Club,Pub/bar/nightclub,7843,5,,226106,0,,54.12326700000000,39567,056,commercial@barrowbc.gov.uk,Barrow-in-Furness,http://www.barrowbc.gov.uk,-3.23754000000000,LA14 5UQ,2013-02-01,fhrs_5_en-GB,5,,FHRS,0
159702,Barrow Golf Club,Rakesmoor Lane,Barrow-In-Furness,Cumbria,Barrow Golf Club,Pub/bar/nightclub,7843,0,,226152,0,,54.14119100000000,22564,056,commercial@barrowbc.gov.uk,Barrow-in-Furness,http://www.barrowbc.gov.uk,-3.21981200000000,LA14 4QB,2011-11-09,fhrs_5_en-GB,5,,FHRS,0
159703,Barrow Island Community Primar,Trinity Street,Barrow-In-Furness,Cumbria,Barrow Island Primary School Kitchen,School/college/university,7845,5,,225793,5,,54.10434500000000,7842,056,commercial@barrowbc.gov.uk,Barrow-in-Furness,http://www.barrowbc.gov.uk,-3.22986400000000,LA14 2SJ,2015-01-09,fhrs_5_en-GB,5,,FHRS,5
159704,Barrow Island Rugby Club,Ostley Bank,Barrow-In-Furness,Cumbria,Barrow Island Rugby Club,Pub/bar/nightclub,7843,10,,226113,0,,54.60365676879883,35647,056,commercial@barrowbc.gov.uk,Barrow-in-Furness,http://www.barrowbc.gov.uk,-2.93555045127869,LA13 9LR,2014-03-06,fhrs_4_en-GB,4,,FHRS,10
159705,,91-97 Cavendish Street,Barrow-In-Furness,Cumbria,Barrow Labour Club & Institute,Pub/bar/nightclub,7843,5,,225840,5,,54.11454300000000,16986,056,commercial@barrowbc.gov.uk,Barrow-in-Furness,http://www.barrowbc.gov.uk,-3.22493400000000,LA14 1DL,2012-06-25,fhrs_5_en-GB,5,,FHRS,5
159706,Barrow Nautical Club,Promenade,Barrow-In-Furness,Cumbria,Barrow Nautical Club,Pub/bar/nightclub,7843,5,,225691,5,,54.11155100000000,6092,056,commercial@barrowbc.gov.uk,Barrow-in-Furness,http://www.barrowbc.gov.uk,-3.24754700000000,LA14 3QF,2005-10-19,fhrs_5_en-GB,5,,FHRS,5
159707,"Park Offices, Barrow Public Pa",Abbey Road,Barrow-In-Furness,Cumbria,Barrow Park Cafe,Restaurant/Cafe/Canteen,1,5,,226073,0,,54.11844300000000,39848,056,commercial@barrowbc.gov.uk,Barrow-in-Furness,http://www.barrowbc.gov.uk,-3.21793500000000,LA13 9BD,2012-07-03,fhrs_5_en-GB,5,,FHRS,0
159708,Craven Park,Calcutta Street,Barrow-In-Furness,Cumbria,Barrow Rugby League Football Club,Pub/bar/nightclub,7843,5,,226143,5,,54.11564400000000,9302,056,commercial@barrowbc.gov.uk,Barrow-in-Furness,http://www.barrowbc.gov.uk,-3.23503300000000,LA14 1XP,2009-10-12,fhrs_5_en-GB,5,,FHRS,5
159709,,1 Dundee Street,Barrow-In-Furness,Cumbria,Barrow Sea Cadet Headquarters,Other catering premises,7841,,,693576,,,54.10481600000000,8205,056,commercial@barrowbc.gov.uk,Barrow-in-Furness,http://www.barrowbc.gov.uk,-3.22683400000000,LA14 2RP,2012-06-28,fhrs_exempt_en-GB,Exempt,,FHRS,
159710,Sir John Fisher Sailing Centre,St Andrews Street,Barrow-In-Furness,Cumbria,Barrow Sea Cadets,Restaurant/Cafe/Canteen,1,10,,225976,0,,54.09702400000000,39655,056,commercial@barrowbc.gov.uk,Barrow-in-Furness,http://www.barrowbc.gov.uk,-3.22594700000000,LA14 2TB,2012-03-19,fhrs_4_en-GB,4,,FHRS,0
159711,Barrow In Furness Sixth Form C,Rating Lane,Barrow-In-Furness,Cumbria,Barrow Sixth Form College,School/college/university,7845,0,,225893,5,,54.12961300000000,26954,056,commercial@barrowbc.gov.uk,Barrow-in-Furness,http://www.barrowbc.gov.uk,-3.20021900000000,LA13 9LE,2014-05-15,fhrs_5_en-GB,5,,FHRS,5
159712,,115 Cavendish Street,Barrow-In-Furness,Cumbria,Barrow Spice,Takeaway/sandwich shop,7844,5,,717366,5,,54.11480300000000,41546,056,commercial@barrowbc.gov.uk,Barrow-in-Furness,http://www.barrowbc.gov.uk,-3.22407000000000,LA14 1DJ,2014-10-22,fhrs_4_en-GB,4,,FHRS,10
159713,,18 Bath Street,Barrow-In-Furness,Cumbria,Barrow Takeaway,Takeaway/sandwich shop,7844,5,,225772,5,,54.11583100000000,9440,056,commercial@barrowbc.gov.uk,Barrow-in-Furness,http://www.barrowbc.gov.uk,-3.23083100000000,LA14 1LZ,2014-05-13,fhrs_5_en-GB,5,,FHRS,5
159714,Barrow Wanderers Football Club,Lesh Lane,Barrow-In-Furness,Cumbria,Barrow Wanderers FC,Pub/bar/nightclub,7843,10,,225907,0,,54.12336000000000,26681,056,commercial@barrowbc.gov.uk,Barrow-in-Furness,http://www.barrowbc.gov.uk,-3.20899000000000,LA13 9DY,2014-03-12,fhrs_4_en-GB,4,,FHRS,5
159715,,8 Bath Street,Barrow-In-Furness,Cumbria,Bath Street Fish & Chips,Takeaway/sandwich shop,7844,0,,225740,0,,54.11583100000000,39847,056,commercial@barrowbc.gov.uk,Barrow-in-Furness,http://www.barrowbc.gov.uk,-3.23083100000000,LA14 1LZ,2014-05-13,fhrs_5_en-GB,5,,FHRS,0
159716,,10-12 Bath Street,Barrow-In-Furness,Cumbria,Bath Street News,Retailers - other,4613,5,,226021,0,,54.11583100000000,9464,056,commercial@barrowbc.gov.uk,Barrow-in-Furness,http://www.barrowbc.gov.uk,-3.23083100000000,LA14 1LZ,2014-12-02,fhrs_5_en-GB,5,,FHRS,5
159717,,41 Brighton Street,Barrow-In-Furness,Cumbria,Battys Convenience Store,Retailers - other,4613,5,,225806,5,,54.12292100000000,20678,056,commercial@barrowbc.gov.uk,Barrow-in-Furness,http://www.barrowbc.gov.uk,-3.22127900000000,LA14 5HG,2012-09-20,fhrs_5_en-GB,5,,FHRS,5
159718,,72 Crellin Street,Barrow-In-Furness,Cumbria,Battys Off Licence,Retailers - other,4613,,,693557,,,54.11444800000000,39056,056,commercial@barrowbc.gov.uk,Barrow-in-Furness,http://www.barrowbc.gov.uk,-3.22187200000000,LA14 1AS,2011-06-13,fhrs_exempt_en-GB,Exempt,,FHRS,
159719,,136 Hawcoat Lane,Barrow-In-Furness,Cumbria,Bay Horse,Pub/bar/nightclub,7843,5,,225746,5,,54.13592800000000,21754,056,commercial@barrowbc.gov.uk,Barrow-in-Furness,http://www.barrowbc.gov.uk,-3.21932000000000,LA14 4HS,2014-11-24,fhrs_5_en-GB,5,,FHRS,5
159720,,15 Amphitrite Street,Barrow-In-Furness,Cumbria,Baycliffe Farm Shop,Retailers - other,4613,5,,225894,5,,54.10422000000000,4036,056,commercial@barrowbc.gov.uk,Barrow-in-Furness,http://www.barrowbc.gov.uk,-3.25156300000000,LA14 3AR,2014-02-18,fhrs_5_en-GB,5,,FHRS,5
159721,,2 Highlands Avenue,Barrow-In-Furness,Cumbria,Beacon Hill Post Office,Retailers - other,4613,,,693532,,,54.12424500000000,25829,056,commercial@barrowbc.gov.uk,Barrow-in-Furness,http://www.barrowbc.gov.uk,-3.20043100000000,LA13 0AU,2011-01-11,fhrs_exempt_en-GB,Exempt,,FHRS,
159722,,77-79 Dalton Road,Barrow-In-Furness,Cumbria,Bean Around The World,Restaurant/Cafe/Canteen,1,5,,717370,0,,54.11251200000000,41583,056,commercial@barrowbc.gov.uk,Barrow-in-Furness,http://www.barrowbc.gov.uk,-3.22573100000000,LA14 1HZ,2014-10-30,fhrs_5_en-GB,5,,FHRS,5
159723,,56-58 Market Street,Dalton-In-Furness,Cumbria,Beddalls,Retailers - other,4613,,,225787,,,54.15614400000000,30947,056,commercial@barrowbc.gov.uk,Barrow-in-Furness,http://www.barrowbc.gov.uk,-3.18320800000000,LA15 8AA,2014-01-24,fhrs_exempt_en-GB,Exempt,,FHRS,
159724,,180 Roose Road,Barrow-In-Furness,Cumbria,Betty Booze,Retailers - other,4613,10,,683602,10,,54.11168800000000,41560,056,commercial@barrowbc.gov.uk,Barrow-in-Furness,http://www.barrowbc.gov.uk,-3.20138400000000,LA13 0EE,2014-07-09,fhrs_3_en-GB,3,,FHRS,10
159725,Bevan House,Stackwood Avenue,Barrow-In-Furness,Cumbria,Bevan House,Hospitals/Childcare/Caring Premises,5,0,,226008,5,,54.12085900000000,26534,056,commercial@barrowbc.gov.uk,Barrow-in-Furness,http://www.barrowbc.gov.uk,-3.20291900000000,LA13 9HQ,2014-01-07,fhrs_5_en-GB,5,,FHRS,0
159726,,14 Tudor Square,Dalton-In-Furness,Cumbria,Black Bull,Pub/bar/nightclub,7843,10,,226030,5,,54.15760400000000,33305,056,commercial@barrowbc.gov.uk,Barrow-in-Furness,http://www.barrowbc.gov.uk,-3.17727700000000,LA15 8RJ,2008-10-07,fhrs_4_en-GB,4,,FHRS,5
159727,Black Dog Inn,Broughton Road,Dalton-In-Furness,Cumbria,Black Dog Inn,Pub/bar/nightclub,7843,5,,643689,0,,54.17504000000000,41486,056,commercial@barrowbc.gov.uk,Barrow-in-Furness,http://www.barrowbc.gov.uk,-3.17734300000000,LA15 8JP,2014-03-12,fhrs_4_en-GB,4,,FHRS,10
159728,,48 Middlefield,Barrow-In-Furness,Cumbria,Bliss Garden,Takeaway/sandwich shop,7844,5,,226054,5,,54.13793900000000,13271,056,commercial@barrowbc.gov.uk,Barrow-in-Furness,http://www.barrowbc.gov.uk,-3.23105900000000,LA14 4BX,2014-06-05,fhrs_5_en-GB,5,,FHRS,5
159729,"Unit 51, Trinity Enterprise Ce",Ironworks Road,Barrow-In-Furness,Cumbria,Bob In,Restaurant/Cafe/Canteen,1,0,,225684,0,,54.11818200000000,38523,056,commercial@barrowbc.gov.uk,Barrow-in-Furness,http://www.barrowbc.gov.uk,-3.24168700000000,LA14 2PN,2014-06-05,fhrs_5_en-GB,5,,FHRS,0
159730,,8 Station Road,Dalton-In-Furness,Cumbria,Bodrum Continental,Takeaway/sandwich shop,7844,5,,225969,5,,54.15592700000000,37987,056,commercial@barrowbc.gov.uk,Barrow-in-Furness,http://www.barrowbc.gov.uk,-3.18055200000000,LA15 8DW,2013-08-01,fhrs_5_en-GB,5,,FHRS,5
159731,,34 Portland Walk,Barrow-In-Furness,Cumbria,Body Shop,Retailers - other,4613,,,693558,,,54.11293000000000,39282,056,commercial@barrowbc.gov.uk,Barrow-in-Furness,http://www.barrowbc.gov.uk,-3.22623300000000,LA14 1DB,2012-07-24,fhrs_exempt_en-GB,Exempt,,FHRS,
159732,Booker,Bouthwood Road,Barrow-In-Furness,Cumbria,Booker Ltd,Distributors/Transporters,7,5,,225687,5,,54.15124000000000,22571,056,commercial@barrowbc.gov.uk,Barrow-in-Furness,http://www.barrowbc.gov.uk,-3.22595600000000,LA14 4RB,2015-01-06,fhrs_5_en-GB,5,,FHRS,5
159733,,15-17 Portland Walk,Barrow-In-Furness,Cumbria,Boots the Chemist Ltd,Retailers - supermarkets/hypermarkets,7840,0,,225831,0,,54.11293000000000,8255,056,commercial@barrowbc.gov.uk,Barrow-in-Furness,http://www.barrowbc.gov.uk,-3.22623300000000,LA14 1DB,2012-09-25,fhrs_5_en-GB,5,,FHRS,0
159734,,37-39 Earle Street,Barrow-In-Furness,Cumbria,Braklon Ltd,Manufacturers/packers,7839,5,,226006,5,,54.10794400000000,35626,056,commercial@barrowbc.gov.uk,Barrow-in-Furness,http://www.barrowbc.gov.uk,-3.23740400000000,LA14 2PZ,2014-06-19,fhrs_5_en-GB,5,,FHRS,5
159735,Bram Longstaffe Nursery School,Island Road,Barrow-In-Furness,Cumbria,Bram Longstaffe Nursery School & Neighbourhood Nursery School Kitchen,Hospitals/Childcare/Caring Premises,5,5,,225914,0,,54.10385500000000,8060,056,commercial@barrowbc.gov.uk,Barrow-in-Furness,http://www.barrowbc.gov.uk,-3.22677500000000,LA14 2RX,2014-05-23,fhrs_5_en-GB,5,,FHRS,5
159736,Brewers Fayre,North Road,Barrow-In-Furness,Cumbria,Brewers Fayre,Pub/bar/nightclub,7843,5,,643690,5,,54.11199500000000,41518,056,commercial@barrowbc.gov.uk,Barrow-in-Furness,http://www.barrowbc.gov.uk,-3.24026300000000,LA14 2PW,2014-03-19,fhrs_5_en-GB,5,,FHRS,5
159737,Bridge Inn,Broughton Road,Dalton-In-Furness,Cumbria,Bridge Inn,Pub/bar/nightclub,7843,5,,226086,0,,54.16083400000000,34069,056,commercial@barrowbc.gov.uk,Barrow-in-Furness,http://www.barrowbc.gov.uk,-3.17504100000000,LA15 8HY,2013-01-01,fhrs_5_en-GB,5,,FHRS,0
159738,Brisbane Park Infants School,Blake Street,Barrow-In-Furness,Cumbria,Brisbane Park Infants School,School/college/university,7845,0,,226125,0,,54.11798700000000,38401,056,commercial@barrowbc.gov.uk,Barrow-in-Furness,http://www.barrowbc.gov.uk,-3.23530200000000,LA14 1NY,2014-01-21,fhrs_5_en-GB,5,,FHRS,0
159739,,97-99 Church Street,Barrow-In-Furness,Cumbria,Britannia Inn,Pub/bar/nightclub,7843,5,,225770,5,,54.11075900000000,17932,056,commercial@barrowbc.gov.uk,Barrow-in-Furness,http://www.barrowbc.gov.uk,-3.22486800000000,LA14 2HW,2014-12-16,fhrs_5_en-GB,5,,FHRS,5
159740,,52a Market Street,Dalton-In-Furness,Cumbria,Brizzolaris,Restaurant/Cafe/Canteen,1,,,225917,,,54.15614400000000,30946,056,commercial@barrowbc.gov.uk,Barrow-in-Furness,http://www.barrowbc.gov.uk,-3.18320800000000,LA15 8AA,2014-01-24,fhrs_exempt_en-GB,Exempt,,FHRS,
159741,,79a Market Street,Dalton-In-Furness,Cumbria,Brocklebanks,Retailers - supermarkets/hypermarkets,7840,20,,226130,10,,54.15643700000000,31432,056,commercial@barrowbc.gov.uk,Barrow-in-Furness,http://www.barrowbc.gov.uk,-3.18082700000000,LA15 8DL,2014-03-06,fhrs_1_en-GB,1,,FHRS,15
159742,,1 Empress Drive,Barrow-In-Furness,Cumbria,Brow Head Hotel,Hotel/bed & breakfast/guest house,7842,5,,225798,5,,54.10287500000000,5641,056,commercial@barrowbc.gov.uk,Barrow-in-Furness,http://www.barrowbc.gov.uk,-3.24603200000000,LA14 3DZ,2012-06-27,fhrs_5_en-GB,5,,FHRS,5
159743,,10 Goose Green,Dalton-In-Furness,Cumbria,Brown Cow Inn,Pub/bar/nightclub,7843,0,,225861,5,,54.15411300000000,30920,056,commercial@barrowbc.gov.uk,Barrow-in-Furness,http://www.barrowbc.gov.uk,-3.18674800000000,LA15 8LQ,2014-03-12,fhrs_5_en-GB,5,,FHRS,5
159744,,52 Cavendish Street,Barrow-In-Furness,Cumbria,Bruce 'n' Annie's,Restaurant/Cafe/Canteen,1,10,,693568,5,,54.11365400000000,41552,056,commercial@barrowbc.gov.uk,Barrow-in-Furness,http://www.barrowbc.gov.uk,-3.22662100000000,LA14 1PZ,2014-06-25,fhrs_4_en-GB,4,,FHRS,5
159745,,3b Slater Street,Barrow-In-Furness,Cumbria,Buttylicious,Retailers - other,4613,0,,225951,0,,54.11373800000000,9266,056,commercial@barrowbc.gov.uk,Barrow-in-Furness,http://www.barrowbc.gov.uk,-3.22982100000000,LA14 1SJ,2014-09-02,fhrs_5_en-GB,5,,FHRS,0
159746,Barrow Railway Station,Station Approach,Barrow-In-Furness,Cumbria,Cafe Express Shop,Restaurant/Cafe/Canteen,1,0,,225804,0,,54.11878300000000,40660,056,commercial@barrowbc.gov.uk,Barrow-in-Furness,http://www.barrowbc.gov.uk,-3.22602300000000,LA14 5QZ,2013-07-03,fhrs_5_en-GB,5,,FHRS,0
159747,,58-64 Dalton Road,Barrow-In-Furness,Cumbria,Cafe Life @ Diggles,Restaurant/Cafe/Canteen,1,5,,225953,5,,54.11155500000000,9304,056,commercial@barrowbc.gov.uk,Barrow-in-Furness,http://www.barrowbc.gov.uk,-3.22530500000000,LA14 1JB,2014-02-25,fhrs_4_en-GB,4,,FHRS,10
159748,,,,,Cake Events,Retailers - other,4613,0,,568490,5,,,34541,056,commercial@barrowbc.gov.uk,Barrow-in-Furness,http://www.barrowbc.gov.uk,,,2013-06-17,fhrs_5_en-GB,5,,FHRS,0
159749,Cambridge Primary School,Cambridge Street,Barrow-In-Furness,Cumbria,Cambridge Primary School,School/college/university,7845,0,,226101,5,,54.11201500000000,23671,056,commercial@barrowbc.gov.uk,Barrow-in-Furness,http://www.barrowbc.gov.uk,-3.20471300000000,LA13 9RP,2014-09-08,fhrs_5_en-GB,5,,FHRS,5
159750,,48 Cavendish Street,Barrow-In-Furness,Cumbria,Canoodles,Takeaway/sandwich shop,7844,5,,504195,5,,54.11362600000000,40315,056,commercial@barrowbc.gov.uk,Barrow-in-Furness,http://www.barrowbc.gov.uk,-3.22671200000000,LA14 1PZ,2014-06-25,fhrs_5_en-GB,5,,FHRS,5
159751,,185 Abbey Road,Barrow-In-Furness,Cumbria,Casc Barrow Limited,Hospitals/Childcare/Caring Premises,5,5,,643688,0,,54.12247100000000,41460,056,commercial@barrowbc.gov.uk,Barrow-in-Furness,http://www.barrowbc.gov.uk,-3.21871100000000,LA14 5JP,2014-03-26,fhrs_5_en-GB,5,,FHRS,5
159752,Castle House Hotel,Biggar Bank Road,Barrow-In-Furness,Cumbria,Castle House Hotel,Pub/bar/nightclub,7843,10,,226049,10,,54.09498200000000,1405,056,commercial@barrowbc.gov.uk,Barrow-in-Furness,http://www.barrowbc.gov.uk,-3.25573500000000,LA14 3YF,2014-11-17,fhrs_3_en-GB,3,,FHRS,10
159753,Furness General Hospital,Dalton Lane,Barrow-In-Furness,Cumbria,Catering Department,Restaurant/Cafe/Canteen,1,5,,225803,0,,54.13640300000000,37925,056,commercial@barrowbc.gov.uk,Barrow-in-Furness,http://www.barrowbc.gov.uk,-3.20790000000000,LA14 4LF,2014-10-28,fhrs_5_en-GB,5,,FHRS,0
159754,Cemetery Cottages Club,Schneider Road,Barrow-In-Furness,Cumbria,Cemetery Cottage Club,Pub/bar/nightclub,7843,10,,225759,10,,54.12555400000000,12311,056,commercial@barrowbc.gov.uk,Barrow-in-Furness,http://www.barrowbc.gov.uk,-3.23098200000000,LA14 5DN,2014-12-18,fhrs_3_en-GB,3,,FHRS,10
159755,Centenary Hall,Abbey Road,Barrow-In-Furness,Cumbria,Centenary Day Centre,Hospitals/Childcare/Caring Premises,5,0,,225813,0,,54.11434300000000,9297,056,commercial@barrowbc.gov.uk,Barrow-in-Furness,http://www.barrowbc.gov.uk,-3.23043600000000,LA14 1LG,2014-06-25,fhrs_5_en-GB,5,,FHRS,0
159756,,75 Preston Street,Barrow-In-Furness,Cumbria,Central Workingmens Club,Pub/bar/nightclub,7843,5,,226141,5,,54.11365900000000,9457,056,commercial@barrowbc.gov.uk,Barrow-in-Furness,http://www.barrowbc.gov.uk,-3.22614700000000,LA14 1JZ,2011-01-19,fhrs_5_en-GB,5,,FHRS,5
159757,,2 Ramsden Dock Road,Barrow-In-Furness,Cumbria,Chandlers,Pub/bar/nightclub,7843,0,,225705,10,,54.10186800000000,7749,056,commercial@barrowbc.gov.uk,Barrow-in-Furness,http://www.barrowbc.gov.uk,-3.23034100000000,LA14 2TN,2014-11-27,fhrs_4_en-GB,4,,FHRS,0
159758,Chandlers Cafe,London Road,Lindal-In-Furness,Cumbria,Chandlers Country Fayre Ltd,Restaurant/Cafe/Canteen,1,0,,226037,0,,54.16932900000000,34470,056,commercial@barrowbc.gov.uk,Barrow-in-Furness,http://www.barrowbc.gov.uk,-3.14795400000000,LA12 0LD,2014-06-12,fhrs_5_en-GB,5,,FHRS,0
159759,Chapel Street Infant School,Chapel Street,Dalton-In-Furness,Cumbria,Chapel Street Infants & Nursery School,School/college/university,7845,0,,225955,0,,54.15913800000000,34004,056,commercial@barrowbc.gov.uk,Barrow-in-Furness,http://www.barrowbc.gov.uk,-3.17941900000000,LA15 8RX,2014-01-22,fhrs_5_en-GB,5,,FHRS,0
159760,Cheeky Monkeys Childcare,Brook Street,Barrow-In-Furness,Cumbria,Cheeky Monkeys Childcare,Hospitals/Childcare/Caring Premises,5,5,,225679,5,,54.11436400000000,40322,056,commercial@barrowbc.gov.uk,Barrow-in-Furness,http://www.barrowbc.gov.uk,-3.20527100000000,LA13 9PA,2014-05-30,fhrs_5_en-GB,5,,FHRS,5
159761,Chequers,Abbey Road,Dalton-In-Furness,"Barrow-In-Furness, Cumbria",Chequers Hotel & Restaurant,Hotel/bed & breakfast/guest house,7842,0,,226052,5,,54.15470900000000,30916,056,commercial@barrowbc.gov.uk,Barrow-in-Furness,http://www.barrowbc.gov.uk,-3.18560200000000,LA15 8LF,2014-05-16,fhrs_5_en-GB,5,,FHRS,5
159762,Chetwynde Hotel,Abbey Road,Barrow-In-Furness,Cumbria,Chetwynde Hotel,Hotel/bed & breakfast/guest house,7842,0,,226029,0,,54.13268900000000,26962,056,commercial@barrowbc.gov.uk,Barrow-in-Furness,http://www.barrowbc.gov.uk,-3.20987400000000,LA13 9JS,2014-06-20,fhrs_5_en-GB,5,,FHRS,5
159763,Our Ladys Chetwynde School,Rating Lane,Barrow-In-Furness,Cumbria,Chetwynde School,School/college/university,7845,0,,225988,0,,54.13121200000000,26729,056,commercial@barrowbc.gov.uk,Barrow-in-Furness,http://www.barrowbc.gov.uk,-3.20657100000000,LA13 0NY,2014-05-22,fhrs_5_en-GB,5,,FHRS,0
159764,"Stall 45, Barrow Market Hall",Duke Street,Barrow-In-Furness,Cumbria,Chewys Confectionary,Retailers - other,4613,0,,226019,0,,,38201,056,commercial@barrowbc.gov.uk,Barrow-in-Furness,http://www.barrowbc.gov.uk,,,2012-06-25,fhrs_5_en-GB,5,,FHRS,0
159765,,229 Dalton Road,Barrow-In-Furness,Cumbria,China Tang,Takeaway/sandwich shop,7844,0,,225958,0,,54.11536200000000,40190,056,commercial@barrowbc.gov.uk,Barrow-in-Furness,http://www.barrowbc.gov.uk,-3.22742100000000,LA14 1PQ,2014-05-13,fhrs_5_en-GB,5,,FHRS,5
159766,,113 Ramsden Street,Barrow-In-Furness,Cumbria,Christophers Corner Limited,Retailers - other,4613,,,693522,,,54.11150100000000,17382,056,commercial@barrowbc.gov.uk,Barrow-in-Furness,http://www.barrowbc.gov.uk,-3.21915400000000,LA14 2BW,2012-09-24,fhrs_exempt_en-GB,Exempt,,FHRS,
159767,"Clarence House, Mount Pleasant",Skelgate,Dalton-In-Furness,Cumbria,Clarence House Country Hotel and Restaurant,Hotel/bed & breakfast/guest house,7842,0,,226154,0,,54.15716800000000,31520,056,commercial@barrowbc.gov.uk,Barrow-in-Furness,http://www.barrowbc.gov.uk,-3.18781600000000,LA15 8BQ,2013-03-11,fhrs_5_en-GB,5,,FHRS,5
159768,Clarkes Arms,Rampside,Barrow-In-Furness,Cumbria,Clarkes Hotel & Restaurant,Hotel/bed & breakfast/guest house,7842,5,,225776,5,,54.08736900000000,34155,056,commercial@barrowbc.gov.uk,Barrow-in-Furness,http://www.barrowbc.gov.uk,-3.16088600000000,LA13 0PX,2014-06-26,fhrs_5_en-GB,5,,FHRS,5
159769,,5a Peter Green Way,Barrow-In-Furness,Cumbria,Classic Drinks,Distributors/Transporters,7,,,693592,,,54.11867900000000,9787,056,commercial@barrowbc.gov.uk,Barrow-in-Furness,http://www.barrowbc.gov.uk,-3.23969800000000,LA14 2PE,2011-03-31,fhrs_exempt_en-GB,Exempt,,FHRS,
159770,,2 Cornwallis Street,Barrow-In-Furness,Cumbria,Club M,Pub/bar/nightclub,7843,5,,226156,5,,54.11103600000000,39626,056,commercial@barrowbc.gov.uk,Barrow-in-Furness,http://www.barrowbc.gov.uk,-3.23030700000000,LA14 2LJ,2014-12-08,fhrs_5_en-GB,5,,FHRS,5
159771,,224 Dalton Road,Barrow-In-Furness,Cumbria,Coffee Bean,Restaurant/Cafe/Canteen,1,5,,479235,5,,54.11540400000000,40837,056,commercial@barrowbc.gov.uk,Barrow-in-Furness,http://www.barrowbc.gov.uk,-3.22684100000000,LA14 1PN,2014-05-21,fhrs_5_en-GB,5,,FHRS,5
159772,College House Day Nursery,Howard Street,Barrow-In-Furness,Cumbria,College House Day Nursery,School/college/university,7845,0,,226064,0,,54.11629900000000,38937,056,commercial@barrowbc.gov.uk,Barrow-in-Furness,http://www.barrowbc.gov.uk,-3.23338500000000,LA14 1NB,2014-01-14,fhrs_5_en-GB,5,,FHRS,0
159773,Combe House,Central Drive,Barrow-In-Furness,Cumbria,Combe House,Hospitals/Childcare/Caring Premises,5,5,,226161,0,,54.10716000000000,5637,056,commercial@barrowbc.gov.uk,Barrow-in-Furness,http://www.barrowbc.gov.uk,-3.25492500000000,LA14 3HY,2014-03-18,fhrs_5_en-GB,5,,FHRS,5
159774,,221 Dalton Road,Barrow-In-Furness,Cumbria,Community Cafe,Restaurant/Cafe/Canteen,1,20,,615475,15,,54.11493400000000,41508,056,commercial@barrowbc.gov.uk,Barrow-in-Furness,http://www.barrowbc.gov.uk,-3.22714900000000,LA14 1PH,2014-09-23,fhrs_1_en-GB,1,,FHRS,15
159775,Concle Inn,Rampside,Barrow-In-Furness,Cumbria,Concle Inn,Pub/bar/nightclub,7843,0,,225860,0,,54.08408700000000,31763,056,commercial@barrowbc.gov.uk,Barrow-in-Furness,http://www.barrowbc.gov.uk,-3.17209100000000,LA13 0PU,2014-01-14,fhrs_5_en-GB,5,,FHRS,5
159776,,54 Portland Walk,Barrow-In-Furness,Cumbria,Cool Trader,Retailers - supermarkets/hypermarkets,7840,5,,225742,5,,54.11293000000000,8248,056,commercial@barrowbc.gov.uk,Barrow-in-Furness,http://www.barrowbc.gov.uk,-3.22623300000000,LA14 1DB,2013-07-08,fhrs_5_en-GB,5,,FHRS,5
159777,,38-40 Ainslie Street,Barrow-In-Furness,Cumbria,Co-op,Retailers - supermarkets/hypermarkets,7840,0,,226163,0,,54.12095700000000,18830,056,commercial@barrowbc.gov.uk,Barrow-in-Furness,http://www.barrowbc.gov.uk,-3.22344000000000,LA14 5BJ,2012-03-20,fhrs_5_en-GB,5,,FHRS,0
159778,,3-9 Duke Street,Askam-In-Furness,Cumbria,CO-OP,Retailers - supermarkets/hypermarkets,7840,5,,225784,0,,54.18825500000000,38501,056,commercial@barrowbc.gov.uk,Barrow-in-Furness,http://www.barrowbc.gov.uk,-3.20519800000000,LA16 7AA,2014-11-12,fhrs_5_en-GB,5,,FHRS,5
159779,,81-83 Roose Road,Barrow-In-Furness,Cumbria,Co-op,Retailers - supermarkets/hypermarkets,7840,0,,225930,0,,54.11128200000000,25201,056,commercial@barrowbc.gov.uk,Barrow-in-Furness,http://www.barrowbc.gov.uk,-3.20609900000000,LA13 9RJ,2014-12-15,fhrs_5_en-GB,5,,FHRS,5
159780,,4 Island Road,Barrow-In-Furness,Cumbria,Co-op,Retailers - supermarkets/hypermarkets,7840,0,,225785,5,,54.11197400000000,7020,056,commercial@barrowbc.gov.uk,Barrow-in-Furness,http://www.barrowbc.gov.uk,-3.23787100000000,LA14 2RL,2013-08-14,fhrs_5_en-GB,5,,FHRS,5
159781,Bcs Social Club,Dane Avenue,Barrow-In-Furness,Cumbria,Co-Op Social Club,Pub/bar/nightclub,7843,5,,225824,5,,54.13229600000000,21746,056,commercial@barrowbc.gov.uk,Barrow-in-Furness,http://www.barrowbc.gov.uk,-3.21232600000000,LA14 4JS,2006-07-26,fhrs_5_en-GB,5,,FHRS,5
159782,,25 Coronation Drive,Dalton-In-Furness,Cumbria,Coronation House,Hospitals/Childcare/Caring Premises,5,5,,226005,0,,54.15035100000000,32618,056,commercial@barrowbc.gov.uk,Barrow-in-Furness,http://www.barrowbc.gov.uk,-3.17727000000000,LA15 8QJ,2013-03-11,fhrs_5_en-GB,5,,FHRS,0
159783,,,,,Corrs Cakes,Other catering premises,7841,0,,636777,0,,,41523,056,commercial@barrowbc.gov.uk,Barrow-in-Furness,http://www.barrowbc.gov.uk,,,2014-02-12,fhrs_5_en-GB,5,,FHRS,5
159784,,160-162 Dalton Road,Barrow-In-Furness,Cumbria,Costa Coffee,Other catering premises,7841,0,,225855,0,,54.11382900000000,40446,056,commercial@barrowbc.gov.uk,Barrow-in-Furness,http://www.barrowbc.gov.uk,-3.22532600000000,LA14 1PU,2013-08-09,fhrs_5_en-GB,5,,FHRS,0
159785,,21-23 Ramsden Street,Barrow-In-Furness,Cumbria,Costello's Bar,Pub/bar/nightclub,7843,0,,225730,0,,54.11017000000000,14622,056,commercial@barrowbc.gov.uk,Barrow-in-Furness,http://www.barrowbc.gov.uk,-3.22275500000000,LA14 2HH,2008-08-29,fhrs_5_en-GB,5,,FHRS,0
159786,,52 Hartington Street,Barrow-In-Furness,Cumbria,Cowards Chemist,Retailers - other,4613,,,693512,,,54.11788500000000,10854,056,commercial@barrowbc.gov.uk,Barrow-in-Furness,http://www.barrowbc.gov.uk,-3.23035700000000,LA14 5SR,2011-02-07,fhrs_exempt_en-GB,Exempt,,FHRS,
159787,The Crofters,Holbeck Park Avenue,Barrow-In-Furness,Cumbria,Crofters,Pub/bar/nightclub,7843,5,,225921,0,,54.12178000000000,30103,056,commercial@barrowbc.gov.uk,Barrow-in-Furness,http://www.barrowbc.gov.uk,-3.18527300000000,LA13 0RE,2014-12-17,fhrs_4_en-GB,4,,FHRS,10
159788,Crooklands Garden Centre,Ulverston Road,Dalton-In-Furness,Cumbria,Crooklands Garden Centre & Cafe,Restaurant/Cafe/Canteen,1,0,,226011,5,,54.16090200000000,39717,056,commercial@barrowbc.gov.uk,Barrow-in-Furness,http://www.barrowbc.gov.uk,-3.16813600000000,LA15 8JH,2013-09-17,fhrs_5_en-GB,5,,FHRS,5
159789,,4-6 William Street,Barrow-In-Furness,Cumbria,Cross Keys Hotel,Pub/bar/nightclub,7843,0,,226060,0,,54.11365900000000,9481,056,commercial@barrowbc.gov.uk,Barrow-in-Furness,http://www.barrowbc.gov.uk,-3.22614700000000,LA14 1JZ,2014-11-27,fhrs_5_en-GB,5,,FHRS,0
159790,Crow Nest Hotel,Ferry Road,Barrow-In-Furness,Cumbria,Crows Nest Hotel,Pub/bar/nightclub,7843,10,,225952,5,,54.10881700000000,8228,056,commercial@barrowbc.gov.uk,Barrow-in-Furness,http://www.barrowbc.gov.uk,-3.23897500000000,LA14 2PR,2014-05-12,fhrs_4_en-GB,4,,FHRS,5
159791,Crystal Palace,Dalkeith Street,Barrow-In-Furness,Cumbria,Crystal Palace,Pub/bar/nightclub,7843,5,,225833,5,,54.11411600000000,9492,056,commercial@barrowbc.gov.uk,Barrow-in-Furness,http://www.barrowbc.gov.uk,-3.22804200000000,LA14 1ST,2011-01-21,fhrs_5_en-GB,5,,FHRS,5
159792,9 James Freel Court,James Freel Close,Barrow-In-Furness,Cumbria,Cumbria Karting Ltd with Cumbria Bowling,Restaurant/Cafe/Canteen,1,0,,577449,5,,,39918,056,commercial@barrowbc.gov.uk,Barrow-in-Furness,http://www.barrowbc.gov.uk,,,2013-07-25,fhrs_5_en-GB,5,,FHRS,0
159793,,13 Bath Street,Barrow-In-Furness,Cumbria,Cunningham's,Pub/bar/nightclub,7843,5,,226020,0,,54.11612200000000,9499,056,commercial@barrowbc.gov.uk,Barrow-in-Furness,http://www.barrowbc.gov.uk,-3.23134500000000,LA14 1NE,2014-12-02,fhrs_5_en-GB,5,,FHRS,5
159794,"Stalls 31 To 34, Barrow Market",Duke Street,Barrow-In-Furness,Cumbria,Daddy's Cafe,Restaurant/Cafe/Canteen,1,5,,225683,5,,,39894,056,commercial@barrowbc.gov.uk,Barrow-in-Furness,http://www.barrowbc.gov.uk,,,2015-01-19,fhrs_4_en-GB,4,,FHRS,10
159795,"Stall 3 Fish Hall, Barrow Market Hall",Duke Street,Barrow-In-Furness,Cumbria,Daddy's Preparation Kitchen,Retailers - other,4613,10,,504199,10,,,40848,056,commercial@barrowbc.gov.uk,Barrow-in-Furness,http://www.barrowbc.gov.uk,,,2014-08-27,fhrs_2_en-GB,2,,FHRS,15
159796,,,,,Daisy's Delights,Other catering premises,7841,5,,702319,5,,,34625,056,commercial@barrowbc.gov.uk,Barrow-in-Furness,http://www.barrowbc.gov.uk,,,2014-09-19,fhrs_5_en-GB,5,,FHRS,5
159797,Dalemount Filling Station,Ireleth Road,Ireleth,"Askam-In-Furness, Cumbria",Dalemount Filling Station,Retailers - other,4613,5,,225821,5,,54.18886300000000,28483,056,commercial@barrowbc.gov.uk,Barrow-in-Furness,http://www.barrowbc.gov.uk,-3.19828800000000,LA16 7JD,2014-05-19,fhrs_5_en-GB,5,,FHRS,5
159798,Dalton-In-Furness Cricket Club,Ulverston Road,Dalton-In-Furness,Cumbria,Dalton Cricket Club,Pub/bar/nightclub,7843,20,,225851,5,,54.15779900000000,33951,056,commercial@barrowbc.gov.uk,Barrow-in-Furness,http://www.barrowbc.gov.uk,-3.17389800000000,LA15 8EY,2014-02-03,fhrs_1_en-GB,1,,FHRS,5
159799,Dalton Old Peoples Welfare Centre,Chapel Street,Dalton-In-Furness,Cumbria,Dalton Old Peoples Welfare Centre,Other catering premises,7841,0,,225983,0,,54.15798900000000,37859,056,commercial@barrowbc.gov.uk,Barrow-in-Furness,http://www.barrowbc.gov.uk,-3.18197400000000,LA15 8DA,2014-06-06,fhrs_5_en-GB,5,,FHRS,5
159800,,99 Market Street,Dalton-In-Furness,Cumbria,Dalton Spice,Takeaway/sandwich shop,7844,10,,225959,5,,54.15643700000000,39782,056,commercial@barrowbc.gov.uk,Barrow-in-Furness,http://www.barrowbc.gov.uk,-3.18082700000000,LA15 8DL,2013-07-25,fhrs_4_en-GB,4,,FHRS,5
159801,Dalton St Marys Church Of England School,Coronation Drive,Dalton-In-Furness,Cumbria,Dalton St. Mary's C.E. School Kitchen,School/college/university,7845,0,,225879,5,,54.15084900000000,32612,056,commercial@barrowbc.gov.uk,Barrow-in-Furness,http://www.barrowbc.gov.uk,-3.18056100000000,LA15 8QR,2013-07-11,fhrs_5_en-GB,5,,FHRS,0
159802,Dane Ghyll Primary School,Skelwith Drive,Barrow-In-Furness,Cumbria,Dane Ghyll Primary School,School/college/university,7845,5,,225710,0,,54.13908600000000,22562,056,commercial@barrowbc.gov.uk,Barrow-in-Furness,http://www.barrowbc.gov.uk,-3.21102500000000,LA14 4PG,2013-06-19,fhrs_5_en-GB,5,,FHRS,5
159803,,2 Worcester Street,Barrow-In-Furness,Cumbria,De Coral Chinese Take Away,Takeaway/sandwich shop,7844,5,,225797,5,,54.11190000000000,24870,056,commercial@barrowbc.gov.uk,Barrow-in-Furness,http://www.barrowbc.gov.uk,-3.20714200000000,LA13 9RU,2014-09-22,fhrs_4_en-GB,4,,FHRS,10
159804,,30-32 Portland Walk,Barrow-In-Furness,Cumbria,Debenhams Food Services,Restaurant/Cafe/Canteen,1,0,,225926,0,,54.11293000000000,37949,056,commercial@barrowbc.gov.uk,Barrow-in-Furness,http://www.barrowbc.gov.uk,-3.22623300000000,LA14 1DB,2013-02-28,fhrs_5_en-GB,5,,FHRS,0
159805,,12 Crellin Street,Barrow-In-Furness,Cumbria,deli.sh,Takeaway/sandwich shop,7844,,,512281,,,54.11359700000000,40814,056,commercial@barrowbc.gov.uk,Barrow-in-Furness,http://www.barrowbc.gov.uk,-3.22427900000000,LA14 1DU,2014-09-30,fhrs_5_en-GB,5,,FHRS,
159806,"Stall 85, Barrow Market Hall",Duke Street,Barrow-In-Furness,Cumbria,Delicious Decadent Desserts,Retailers - other,4613,5,,615491,10,,54.11167700000000,41484,056,commercial@barrowbc.gov.uk,Barrow-in-Furness,http://www.barrowbc.gov.uk,-3.22651700000000,LA14 1HU,2013-08-07,fhrs_4_en-GB,4,,FHRS,5
159807,,153-155 Rawlinson Street,Barrow-In-Furness,Cumbria,Del's Lunchbox,Restaurant/Cafe/Canteen,1,10,,636774,5,,54.11320200000000,41500,056,commercial@barrowbc.gov.uk,Barrow-in-Furness,http://www.barrowbc.gov.uk,-3.22156000000000,LA14 1ES,2014-02-11,fhrs_3_en-GB,3,,FHRS,10
159808,,195 Rawlinson Street,Barrow-In-Furness,Cumbria,Devs Plaice,Takeaway/sandwich shop,7844,5,,226138,5,,54.11388800000000,17042,056,commercial@barrowbc.gov.uk,Barrow-in-Furness,http://www.barrowbc.gov.uk,-3.22219200000000,LA14 1ED,2014-12-11,fhrs_5_en-GB,5,,FHRS,5
159809,,250 Dalton Road,Barrow-In-Furness,Cumbria,Diamond Restaurant,Restaurant/Cafe/Canteen,1,10,,226035,5,,54.11540400000000,8784,056,commercial@barrowbc.gov.uk,Barrow-in-Furness,http://www.barrowbc.gov.uk,-3.22684100000000,LA14 1PN,2014-09-12,fhrs_4_en-GB,4,,FHRS,5
159810,,181 Dalton Road,Barrow-In-Furness,Cumbria,Diggles,Takeaway/sandwich shop,7844,5,,225956,10,,54.11407200000000,9393,056,commercial@barrowbc.gov.uk,Barrow-in-Furness,http://www.barrowbc.gov.uk,-3.22609800000000,LA14 1PT,2014-09-02,fhrs_4_en-GB,4,,FHRS,5
159811,,71 Raglan Street,Barrow-In-Furness,Cumbria,Dirty Duck,Pub/bar/nightclub,7843,0,,225932,0,,54.11016400000000,14619,056,commercial@barrowbc.gov.uk,Barrow-in-Furness,http://www.barrowbc.gov.uk,-3.21174200000000,LA14 2AP,2007-08-24,fhrs_5_en-GB,5,,FHRS,0
159812,,,,,Dixons Ices,Mobile caterer,7846,5,,225825,0,,,39906,056,commercial@barrowbc.gov.uk,Barrow-in-Furness,http://www.barrowbc.gov.uk,,,2011-12-13,fhrs_5_en-GB,5,,FHRS,0
159813,,,,,Do Us A Favour,Retailers - other,4613,0,,717361,0,,,25487,056,commercial@barrowbc.gov.uk,Barrow-in-Furness,http://www.barrowbc.gov.uk,,,2014-11-19,fhrs_5_en-GB,5,,FHRS,0
159814,Dock Museum,North Road,Barrow-In-Furness,Cumbria,Dock Museum,Restaurant/Cafe/Canteen,1,5,,225982,5,,54.11114300000000,39708,056,commercial@barrowbc.gov.uk,Barrow-in-Furness,http://www.barrowbc.gov.uk,-3.24176800000000,LA14 2PW,2014-08-20,fhrs_5_en-GB,5,,FHRS,5
159815,"Dominos Pizza, Cocken Villa",Walney Road,Barrow-In-Furness,Cumbria,Domino's Pizza,Takeaway/sandwich shop,7844,0,,226013,0,,54.12222200000000,39010,056,commercial@barrowbc.gov.uk,Barrow-in-Furness,http://www.barrowbc.gov.uk,-3.23776900000000,LA14 5UG,2013-07-31,fhrs_5_en-GB,5,,FHRS,0
159816,,,,,Dorothy's Cake Crafts,Retailers - other,4613,5,,226012,5,,,5529,056,commercial@barrowbc.gov.uk,Barrow-in-Furness,http://www.barrowbc.gov.uk,,,2006-10-09,fhrs_5_en-GB,5,,FHRS,5
159817,,24 Douglas Street,Barrow-In-Furness,Cumbria,Douglas Street Stores,Retailers - other,4613,5,,225911,5,,54.11136300000000,5861,056,commercial@barrowbc.gov.uk,Barrow-in-Furness,http://www.barrowbc.gov.uk,-3.24916300000000,LA14 3QQ,2014-12-16,fhrs_5_en-GB,5,,FHRS,5
159818,Dowdales Secondary School,Nelson Street,Dalton-In-Furness,Cumbria,Dowdales School,School/college/university,7845,5,,225905,0,,54.15917900000000,39864,056,commercial@barrowbc.gov.uk,Barrow-in-Furness,http://www.barrowbc.gov.uk,-3.18435100000000,LA15 8AH,2014-05-08,fhrs_5_en-GB,5,,FHRS,5
159819,,148 Market Street,Dalton-In-Furness,Cumbria,Dragon Chinese,Takeaway/sandwich shop,7844,5,,225856,5,,54.15697700000000,33365,056,commercial@barrowbc.gov.uk,Barrow-in-Furness,http://www.barrowbc.gov.uk,-3.17796400000000,LA15 8RQ,2013-01-31,fhrs_5_en-GB,5,,FHRS,0
159820,,34-36 Cornwallis Street,Barrow-In-Furness,Cumbria,Drop Zone Youth Projects,Restaurant/Cafe/Canteen,1,5,,226140,5,,54.11179500000000,34768,056,commercial@barrowbc.gov.uk,Barrow-in-Furness,http://www.barrowbc.gov.uk,-3.22907500000000,LA14 2LG,2012-06-26,fhrs_5_en-GB,5,,FHRS,5
159821,Duddon Sports And Social Club,James Street,Askam-In-Furness,Cumbria,Duddon Sports and Social Club,Pub/bar/nightclub,7843,10,,226068,5,,54.19083600000000,27552,056,commercial@barrowbc.gov.uk,Barrow-in-Furness,http://www.barrowbc.gov.uk,-3.20774000000000,LA16 7AH,2012-07-09,fhrs_4_en-GB,4,,FHRS,5
159822,Duke Of Edinburgh Hotel,Abbey Road,Barrow-In-Furness,Cumbria,Duke of Edinburgh Hotel,Hotel/bed & breakfast/guest house,7842,5,,225714,5,,54.11663300000000,10844,056,commercial@barrowbc.gov.uk,Barrow-in-Furness,http://www.barrowbc.gov.uk,-3.22622000000000,LA14 5QR,2014-07-07,fhrs_4_en-GB,4,,FHRS,10
159823,"Unit B, Hollywood Park",Hindpool Road,Barrow-In-Furness,Cumbria,Dunelm Mill,Restaurant/Cafe/Canteen,1,0,,225981,0,,54.11479900000000,40201,056,commercial@barrowbc.gov.uk,Barrow-in-Furness,http://www.barrowbc.gov.uk,-3.23854200000000,LA14 2NA,2013-06-14,fhrs_5_en-GB,5,,FHRS,0
159824,Dunnerholme Golf Club,Duddon Road,Askam-In-Furness,Cumbria,Dunnerholm Golf Club,Pub/bar/nightclub,7843,5,,226028,0,,54.19484400000000,28521,056,commercial@barrowbc.gov.uk,Barrow-in-Furness,http://www.barrowbc.gov.uk,-3.21141300000000,LA16 7AW,2015-01-14,fhrs_5_en-GB,5,,FHRS,0
159825,,74-78 Schneider Road,Barrow-In-Furness,Cumbria,Duttons,Retailers - other,4613,5,,225689,0,,54.12775500000000,12318,056,commercial@barrowbc.gov.uk,Barrow-in-Furness,http://www.barrowbc.gov.uk,-3.23115400000000,LA14 5DP,2014-02-18,fhrs_5_en-GB,5,,FHRS,0
159826,"Unit 1, Cornmill Park",Cornmill Crossing,Barrow-In-Furness,Cumbria,DW Fitness Centre,Other catering premises,7841,0,,226067,0,,54.11103000000000,39871,056,commercial@barrowbc.gov.uk,Barrow-in-Furness,http://www.barrowbc.gov.uk,-3.23267800000000,LA14 2GN,2013-06-25,fhrs_5_en-GB,5,,FHRS,0
159827,,2 Liverpool Street,Barrow-In-Furness,Cumbria,Early News,Retailers - other,4613,5,,577450,10,,54.10459000000000,41469,056,commercial@barrowbc.gov.uk,Barrow-in-Furness,http://www.barrowbc.gov.uk,-3.25050400000000,LA14 3BA,2013-07-17,fhrs_4_en-GB,4,,FHRS,5
159828,"Stalls 30 35 And 36, Barrow Ma",Duke Street,Barrow-In-Furness,Cumbria,Earnies Sweets & Ices,Retailers - other,4613,,,693555,,,,38743,056,commercial@barrowbc.gov.uk,Barrow-in-Furness,http://www.barrowbc.gov.uk,,,2012-02-28,fhrs_exempt_en-GB,Exempt,,FHRS,
159829,East Mount House,East Mount,Barrow-In-Furness,Cumbria,East Mount Guest House,Hotel/bed & breakfast/guest house,7842,5,,225762,0,,54.12560400000000,36679,056,commercial@barrowbc.gov.uk,Barrow-in-Furness,http://www.barrowbc.gov.uk,-3.21464100000000,LA13 9AD,2011-05-12,fhrs_5_en-GB,5,,FHRS,0
159830,,Promenade,Barrow-In-Furness,Cumbria,Eddie's Pizzaria,Takeaway/sandwich shop,7844,5,,667894,5,,54.10676200000000,40709,056,commercial@barrowbc.gov.uk,Barrow-in-Furness,http://www.barrowbc.gov.uk,-3.24654700000000,LA14 3AA,2014-05-14,fhrs_5_en-GB,5,,FHRS,5
159831,,39 Cavendish Street,Barrow-In-Furness,Cumbria,EFE's Continental,Takeaway/sandwich shop,7844,0,,513909,0,,54.11335700000000,40823,056,commercial@barrowbc.gov.uk,Barrow-in-Furness,http://www.barrowbc.gov.uk,-3.22840200000000,LA14 1SF,2013-01-10,fhrs_5_en-GB,5,,FHRS,0
159832,Units 2 & 3,Station Yard,Askam-In-Furness,Cumbria,Estuary Fine Foods,Distributors/Transporters,7,5,,225909,0,,54.18910900000000,28512,056,commercial@barrowbc.gov.uk,Barrow-in-Furness,http://www.barrowbc.gov.uk,-3.20517600000000,LA16 7AL,2015-01-14,fhrs_5_en-GB,5,,FHRS,5
159833,Fairways Hotel,Hawthwaite Lane,Barrow-In-Furness,Cumbria,Fairway Hotel,Hotel/bed & breakfast/guest house,7842,5,,225809,5,,54.16041800000000,38232,056,commercial@barrowbc.gov.uk,Barrow-in-Furness,http://www.barrowbc.gov.uk,-3.20267300000000,LA14 4QH,2013-08-07,fhrs_5_en-GB,5,,FHRS,5
159834,,42 Cheltenham Street,Barrow-In-Furness,Cumbria,Family Bakery,Retailers - other,4613,,,225681,,,54.12250400000000,37973,056,commercial@barrowbc.gov.uk,Barrow-in-Furness,http://www.barrowbc.gov.uk,-3.22247600000000,LA14 5HW,2014-10-03,fhrs_5_en-GB,5,,FHRS,
159835,Farmers Arms,Newton Cross Road,Newton-In-Furness,"Barrow-In-Furness, Cumbria",Farmers Arms,Pub/bar/nightclub,7843,5,,225943,0,,54.13562100000000,31911,056,commercial@barrowbc.gov.uk,Barrow-in-Furness,http://www.barrowbc.gov.uk,-3.17888800000000,LA13 0NB,2014-03-05,fhrs_5_en-GB,5,,FHRS,0
159836,"Farmers Arms, Newbarns Village",Hollow Lane,Barrow-In-Furness,Cumbria,Farmers Arms,Pub/bar/nightclub,7843,5,,225711,5,,54.12495000000000,18602,056,commercial@barrowbc.gov.uk,Barrow-in-Furness,http://www.barrowbc.gov.uk,-3.20987800000000,LA13 9NG,2015-01-12,fhrs_5_en-GB,5,,FHRS,5
159837,,36 Ainslie Street,Barrow-In-Furness,Cumbria,Fax-A-Snack,Takeaway/sandwich shop,7844,0,,226146,0,,54.12095700000000,40049,056,commercial@barrowbc.gov.uk,Barrow-in-Furness,http://www.barrowbc.gov.uk,-3.22344000000000,LA14 5BJ,2013-07-23,fhrs_5_en-GB,5,,FHRS,0
159838,Ferry Hotel,Promenade,Barrow-In-Furness,Cumbria,Ferry Hotel,Pub/bar/nightclub,7843,0,,225954,5,,54.10833100000000,5597,056,commercial@barrowbc.gov.uk,Barrow-in-Furness,http://www.barrowbc.gov.uk,-3.24772600000000,LA14 3PE,2013-11-28,fhrs_5_en-GB,5,,FHRS,5
159839,,1 Fife Street,Barrow-In-Furness,Cumbria,Fife Street Mini Market,Retailers - other,4613,10,,225975,5,,54.11508500000000,14870,056,commercial@barrowbc.gov.uk,Barrow-in-Furness,http://www.barrowbc.gov.uk,-3.21667400000000,LA13 9BU,2013-03-07,fhrs_3_en-GB,3,,FHRS,10
159840,,70 Cavendish Street,Barrow-In-Furness,Cumbria,Fitzsimmons Newsagents,Retailers - other,4613,,,693583,,,54.11365400000000,8800,056,commercial@barrowbc.gov.uk,Barrow-in-Furness,http://www.barrowbc.gov.uk,-3.22662100000000,LA14 1PZ,2012-06-26,fhrs_exempt_en-GB,Exempt,,FHRS,
159841,,190 Dalton Road,Barrow-In-Furness,Cumbria,Food (Kendal),Takeaway/sandwich shop,7844,5,,225677,5,,54.11444300000000,8787,056,commercial@barrowbc.gov.uk,Barrow-in-Furness,http://www.barrowbc.gov.uk,-3.22592500000000,LA14 1PR,2014-11-04,fhrs_5_en-GB,5,,FHRS,5
159842,,143-145 Market Street,Dalton-In-Furness,Cumbria,Forget Me Not Tearooms,Restaurant/Cafe/Canteen,1,0,,225822,5,,54.15697700000000,38775,056,commercial@barrowbc.gov.uk,Barrow-in-Furness,http://www.barrowbc.gov.uk,-3.17796400000000,LA15 8RQ,2014-10-30,fhrs_5_en-GB,5,,FHRS,5
159843,Four Groves Community Centre,48 Suffolk Street,Barrow-In-Furness,Cumbria,Four Groves Community Centre,Retailers - other,4613,5,,693566,5,,54.11346100000000,41252,056,commercial@barrowbc.gov.uk,Barrow-in-Furness,http://www.barrowbc.gov.uk,-3.21193000000000,LA13 9QH,2014-06-26,fhrs_5_en-GB,5,,FHRS,5
159844,Hotel Majestic,Duke Street,Barrow-In-Furness,Cumbria,Francescas,Restaurant/Cafe/Canteen,1,5,,225826,5,,54.11083600000000,39867,056,commercial@barrowbc.gov.uk,Barrow-in-Furness,http://www.barrowbc.gov.uk,-3.22701200000000,LA14 1HP,2014-11-10,fhrs_4_en-GB,4,,FHRS,10
159845,,Unit 5 Hindpool Retail Park,Hindpool Road,"Barrow-In-Furness, Cumbria",Frankie & Benny's,Restaurant/Cafe/Canteen,1,0,,568492,0,,54.11411600000000,41453,056,commercial@barrowbc.gov.uk,Barrow-in-Furness,http://www.barrowbc.gov.uk,-3.23504900000000,LA14 2PD,2013-07-05,fhrs_5_en-GB,5,,FHRS,0
159846,,,,,Fun Sweets,Mobile caterer,7846,0,,717362,5,,,30216,056,commercial@barrowbc.gov.uk,Barrow-in-Furness,http://www.barrowbc.gov.uk,,,2014-11-20,fhrs_5_en-GB,5,,FHRS,5
159847,"English Heritage, Furness Abbey",Abbey Approach,Barrow-In-Furness,Cumbria,Furness Abbey Shop,Other catering premises,7841,,,693545,,,54.13783000000000,35636,056,commercial@barrowbc.gov.uk,Barrow-in-Furness,http://www.barrowbc.gov.uk,-3.19730400000000,LA13 0PJ,2012-06-26,fhrs_exempt_en-GB,Exempt,,FHRS,
159848,Furness Academy,Park Drive,Barrow-In-Furness,Cumbria,Furness Academy Ltd (Kitchen),Restaurant/Cafe/Canteen,1,0,,615474,0,,54.11896700000000,41487,056,commercial@barrowbc.gov.uk,Barrow-in-Furness,http://www.barrowbc.gov.uk,-3.21671100000000,LA13 9BB,2013-11-27,fhrs_5_en-GB,5,,FHRS,0
159849,Furness Childcare,Carlisle Street,Barrow-In-Furness,Cumbria,Furness Childcare,Hospitals/Childcare/Caring Premises,5,5,,225902,5,,54.11644700000000,38432,056,commercial@barrowbc.gov.uk,Barrow-in-Furness,http://www.barrowbc.gov.uk,-3.22592300000000,LA14 1QY,2014-06-02,fhrs_4_en-GB,4,,FHRS,10
159850,Furness Cricket Club,Oxford Street,Barrow-In-Furness,Cumbria,Furness Cricket Club,Pub/bar/nightclub,7843,10,,225997,5,,54.12798200000000,20650,056,commercial@barrowbc.gov.uk,Barrow-in-Furness,http://www.barrowbc.gov.uk,-3.21676100000000,LA14 5PR,2013-03-06,fhrs_4_en-GB,4,,FHRS,0
159851,Furness Golf Club,Central Drive,Barrow-In-Furness,Cumbria,Furness Golf Club,Pub/bar/nightclub,7843,5,,225692,5,,54.10655800000000,1878,056,commercial@barrowbc.gov.uk,Barrow-in-Furness,http://www.barrowbc.gov.uk,-3.25750700000000,LA14 3LN,2013-02-01,fhrs_5_en-GB,5,,FHRS,5
159852,,76-80 Abbey Road,Barrow-In-Furness,Cumbria,Furness Railway,Pub/bar/nightclub,7843,0,,226031,0,,54.11572600000000,35094,056,commercial@barrowbc.gov.uk,Barrow-in-Furness,http://www.barrowbc.gov.uk,-3.22786000000000,LA14 5UB,2013-09-18,fhrs_5_en-GB,5,,FHRS,0
159853,"Furness Rugby Union Club, The",Croslands Park,Barrow-In-Furness,Cumbria,Furness Rugby Union Club,Pub/bar/nightclub,7843,0,,225702,0,,54.12950600000000,26959,056,commercial@barrowbc.gov.uk,Barrow-in-Furness,http://www.barrowbc.gov.uk,-3.20820500000000,LA13 9NH,2008-09-24,fhrs_5_en-GB,5,,FHRS,0
159854,Barrow Onshore Terminals,Rampside Road,Barrow-In-Furness,Cumbria,Gas Terminal (South),Restaurant/Cafe/Canteen,1,0,,225769,5,,54.09816500000000,37998,056,commercial@barrowbc.gov.uk,Barrow-in-Furness,http://www.barrowbc.gov.uk,-3.18380400000000,LA13 0QU,2014-09-08,fhrs_5_en-GB,5,,FHRS,0
159855,George Hastwell School,Moor Tarn Lane,Barrow-In-Furness,Cumbria,George Hastwell School,School/college/university,7845,5,,225904,0,,54.10673600000000,1880,056,commercial@barrowbc.gov.uk,Barrow-in-Furness,http://www.barrowbc.gov.uk,-3.25763500000000,LA14 3LW,2014-05-12,fhrs_5_en-GB,5,,FHRS,0
159856,,359 Abbey Road,Barrow-In-Furness,Cumbria,Glen Garth House,Hospitals/Childcare/Caring Premises,5,5,,657227,5,,54.13045900000000,41553,056,commercial@barrowbc.gov.uk,Barrow-in-Furness,http://www.barrowbc.gov.uk,-3.21173700000000,LA13 9JY,2014-04-28,fhrs_5_en-GB,5,,FHRS,5
159857,,15 Tudor Square,Dalton-In-Furness,Cumbria,Golden Ball Inn,Pub/bar/nightclub,7843,10,,225782,0,,54.15760400000000,34071,056,commercial@barrowbc.gov.uk,Barrow-in-Furness,http://www.barrowbc.gov.uk,-3.17727700000000,LA15 8RJ,2012-09-13,fhrs_4_en-GB,4,,FHRS,0
159858,Victoria Hall,Rawlinson Street,Barrow-In-Furness,Cumbria,Grandma's Kitchen,Restaurant/Cafe/Canteen,1,5,,585518,5,,54.11646300000000,41478,056,commercial@barrowbc.gov.uk,Barrow-in-Furness,http://www.barrowbc.gov.uk,-3.22528100000000,LA14 1BX,2013-08-20,fhrs_5_en-GB,5,,FHRS,5
159859,,83 Market Street,Dalton-In-Furness,Cumbria,Grange Bakery,Retailers - other,4613,5,,225859,5,,54.15643700000000,31510,056,commercial@barrowbc.gov.uk,Barrow-in-Furness,http://www.barrowbc.gov.uk,-3.18082700000000,LA15 8DL,2014-01-09,fhrs_5_en-GB,5,,FHRS,5
159860,2 Lakes Parade,Ennerdale Drive,Barrow-In-Furness,Cumbria,Grange Bakery,Retailers - other,4613,5,,512299,5,,54.13748200000000,40839,056,commercial@barrowbc.gov.uk,Barrow-in-Furness,http://www.barrowbc.gov.uk,-3.21232500000000,LA14 4PR,2014-06-17,fhrs_4_en-GB,4,,FHRS,10
159861,,4 Bowness Road,Barrow-In-Furness,Cumbria,Grasmere Stores,Retailers - other,4613,10,,225942,0,,54.12806300000000,20679,056,commercial@barrowbc.gov.uk,Barrow-in-Furness,http://www.barrowbc.gov.uk,-3.21497300000000,LA14 5PW,2014-02-26,fhrs_4_en-GB,4,,FHRS,0
159862,,170 Roose Road,Barrow-In-Furness,Cumbria,Great Wall,Takeaway/sandwich shop,7844,10,,225701,5,,54.11168800000000,23330,056,commercial@barrowbc.gov.uk,Barrow-in-Furness,http://www.barrowbc.gov.uk,-3.20138400000000,LA13 0EE,2014-03-04,fhrs_4_en-GB,4,,FHRS,5
159863,,1 Anchor Road,Barrow-In-Furness,Cumbria,Green Jade Take Away,Takeaway/sandwich shop,7844,5,,225991,5,,54.10231000000000,7000,056,commercial@barrowbc.gov.uk,Barrow-in-Furness,http://www.barrowbc.gov.uk,-3.22936000000000,LA14 2QW,2014-12-08,fhrs_5_en-GB,5,,FHRS,5
159864,Greengate Infants School,Greengate Street,Barrow-In-Furness,Cumbria,Greengate County Infants School,School/college/university,7845,0,,225674,0,,54.11488900000000,15640,056,commercial@barrowbc.gov.uk,Barrow-in-Furness,http://www.barrowbc.gov.uk,-3.21206300000000,LA13 9BY,2013-06-12,fhrs_5_en-GB,5,,FHRS,5
159865,Greengate Junior School,Greengate Street,Barrow-In-Furness,Cumbria,Greengate County Junior School,School/college/university,7845,0,,225727,5,,54.11296700000000,16934,056,commercial@barrowbc.gov.uk,Barrow-in-Furness,http://www.barrowbc.gov.uk,-3.21896700000000,LA14 1BG,2014-04-25,fhrs_5_en-GB,5,,FHRS,5
159866,,83 Greengate Street,Barrow-In-Furness,Cumbria,Greengate Street News,Retailers - other,4613,,,693520,,,54.11206500000000,17028,056,commercial@barrowbc.gov.uk,Barrow-in-Furness,http://www.barrowbc.gov.uk,-3.22197000000000,LA14 1EZ,2014-11-24,fhrs_exempt_en-GB,Exempt,,FHRS,
159867,,23 Greengate Street,Barrow-In-Furness,Cumbria,Greengate Working Mens Club,Pub/bar/nightclub,7843,5,,226080,5,,54.11123100000000,16987,056,commercial@barrowbc.gov.uk,Barrow-in-Furness,http://www.barrowbc.gov.uk,-3.22445400000000,LA14 1HB,2014-11-26,fhrs_5_en-GB,5,,FHRS,5
159868,,24 Jarrow Street,Barrow-In-Furness,Cumbria,Greens Bakery,Retailers - other,4613,5,,225987,5,,54.11240400000000,15642,056,commercial@barrowbc.gov.uk,Barrow-in-Furness,http://www.barrowbc.gov.uk,-3.21241900000000,LA13 9SZ,2014-02-12,fhrs_5_en-GB,5,,FHRS,5
159869,St Anthonys Church,Crossley Street,Askam-In-Furness,Cumbria,Greenscoe Gems,Hospitals/Childcare/Caring Premises,5,5,,226117,0,,,40577,056,commercial@barrowbc.gov.uk,Barrow-in-Furness,http://www.barrowbc.gov.uk,,,2014-04-07,fhrs_5_en-GB,5,,FHRS,5
159870,,136 Dalton Road,Barrow-In-Furness,Cumbria,Greggs,Retailers - other,4613,0,,225676,0,,54.11288000000000,16967,056,commercial@barrowbc.gov.uk,Barrow-in-Furness,http://www.barrowbc.gov.uk,-3.22496100000000,LA14 1JH,2013-06-28,fhrs_5_en-GB,5,,FHRS,0
159871,,171 Dalton Road,Barrow-In-Furness,Cumbria,Greggs,Retailers - other,4613,0,,226075,0,,54.11374400000000,9380,056,commercial@barrowbc.gov.uk,Barrow-in-Furness,http://www.barrowbc.gov.uk,-3.22570600000000,LA14 1PX,2013-03-04,fhrs_5_en-GB,5,,FHRS,0
159872,,79 Market Street,Dalton-In-Furness,Cumbria,Greggs,Retailers - other,4613,0,,226103,0,,54.15643700000000,31335,056,commercial@barrowbc.gov.uk,Barrow-in-Furness,http://www.barrowbc.gov.uk,-3.18082700000000,LA15 8DL,2013-03-14,fhrs_5_en-GB,5,,FHRS,0
159873,,65 Harrison Street,Barrow-In-Furness,Cumbria,Guest House,Hotel/bed & breakfast/guest house,7842,5,,226010,5,,54.11245400000000,16587,056,commercial@barrowbc.gov.uk,Barrow-in-Furness,http://www.barrowbc.gov.uk,-3.22257800000000,LA14 1ER,2007-08-24,fhrs_5_en-GB,5,,FHRS,5
159874,,112 Church Street,Barrow-In-Furness,Cumbria,H.K.Diner,Takeaway/sandwich shop,7844,10,,225763,10,,54.11122400000000,40425,056,commercial@barrowbc.gov.uk,Barrow-in-Furness,http://www.barrowbc.gov.uk,-3.22509600000000,LA14 1HA,2013-07-19,fhrs_3_en-GB,3,,FHRS,10
159875,"Halfords, Corner House Park",Hindpool Road,Barrow-In-Furness,Cumbria,Halfords,Retailers - other,4613,,,693591,,,54.11227400000000,9765,056,commercial@barrowbc.gov.uk,Barrow-in-Furness,http://www.barrowbc.gov.uk,-3.23499400000000,LA14 2NE,2014-02-17,fhrs_exempt_en-GB,Exempt,,FHRS,
159876,,,,,Halo Catering,Retailers - other,4613,0,,643695,0,,,6280,056,commercial@barrowbc.gov.uk,Barrow-in-Furness,http://www.barrowbc.gov.uk,,,2014-03-18,fhrs_5_en-GB,5,,FHRS,5
159877,,81 Duke Street,Askam-In-Furness,Cumbria,Happy Garden Chinese Takeaway,Takeaway/sandwich shop,7844,5,,226004,5,,54.18653200000000,27597,056,commercial@barrowbc.gov.uk,Barrow-in-Furness,http://www.barrowbc.gov.uk,-3.20589800000000,LA16 7AD,2014-11-18,fhrs_5_en-GB,5,,FHRS,5
159878,Arndene,Abbey Road,Barrow-In-Furness,Cumbria,Happy Tots Day Nursery Ltd,Hospitals/Childcare/Caring Premises,5,5,,636775,0,,54.13045900000000,41509,056,commercial@barrowbc.gov.uk,Barrow-in-Furness,http://www.barrowbc.gov.uk,-3.21173700000000,LA13 9JY,2014-02-19,fhrs_5_en-GB,5,,FHRS,5
159879,,51 Market Street,Dalton-In-Furness,Cumbria,Hartleys,Restaurant/Cafe/Canteen,1,5,,225961,0,,54.15631000000000,31047,056,commercial@barrowbc.gov.uk,Barrow-in-Furness,http://www.barrowbc.gov.uk,-3.18361100000000,LA15 8AP,2013-03-11,fhrs_5_en-GB,5,,FHRS,0
159880,Hawcoat Community Centre,Skelwith Drive,Barrow-In-Furness,Cumbria,Hawcoat Community Centre,Other catering premises,7841,5,,225811,0,,54.13948600000000,22563,056,commercial@barrowbc.gov.uk,Barrow-in-Furness,http://www.barrowbc.gov.uk,-3.21151100000000,LA14 4SA,2011-01-19,fhrs_5_en-GB,5,,FHRS,0
159881,Hawcoat Park Sports And Social Club,Hawcoat Lane,Barrow-In-Furness,Cumbria,Hawcoat Park Sports & Social Club,Pub/bar/nightclub,7843,5,,226018,5,,54.13175700000000,21734,056,commercial@barrowbc.gov.uk,Barrow-in-Furness,http://www.barrowbc.gov.uk,-3.21589200000000,LA14 4HF,2014-11-20,fhrs_5_en-GB,5,,FHRS,5
159882,Healeys,Hindpool Road,Barrow-In-Furness,Cumbria,Healeys,Pub/bar/nightclub,7843,5,,225933,5,,54.11218000000000,9764,056,commercial@barrowbc.gov.uk,Barrow-in-Furness,http://www.barrowbc.gov.uk,-3.23182500000000,LA14 2ND,2013-07-26,fhrs_5_en-GB,5,,FHRS,5
159883,Dalton Leisure Centre,Chapel Street,Dalton-In-Furness,Cumbria,High Tide Coffee Bar,Restaurant/Cafe/Canteen,1,0,,225754,5,,54.15798900000000,31511,056,commercial@barrowbc.gov.uk,Barrow-in-Furness,http://www.barrowbc.gov.uk,-3.18197400000000,LA15 8DA,2013-03-11,fhrs_5_en-GB,5,,FHRS,0
159884,"Stall 71, Barrow Market Hall",Duke Street,Barrow-In-Furness,Cumbria,Hilda's Egg Stall,Retailers - other,4613,5,,226085,0,,,38758,056,commercial@barrowbc.gov.uk,Barrow-in-Furness,http://www.barrowbc.gov.uk,,,2014-11-19,fhrs_5_en-GB,5,,FHRS,0
159885,Holker Old Boys Club,Rakesmoor Lane,Barrow-In-Furness,Cumbria,Holker Old Boys,Pub/bar/nightclub,7843,5,,225979,5,,54.14119100000000,22565,056,commercial@barrowbc.gov.uk,Barrow-in-Furness,http://www.barrowbc.gov.uk,-3.21981200000000,LA14 4QB,2011-01-13,fhrs_5_en-GB,5,,FHRS,5
159886,,206-208 Dalton Road,Barrow-In-Furness,Cumbria,Holland & Barrett,Retailers - other,4613,0,,226058,0,,54.11444300000000,9478,056,commercial@barrowbc.gov.uk,Barrow-in-Furness,http://www.barrowbc.gov.uk,-3.22592500000000,LA14 1PR,2015-01-19,fhrs_5_en-GB,5,,FHRS,5
159887,,1 Prospect Road,Barrow-In-Furness,Cumbria,Hollingarth Day Nursery,Hospitals/Childcare/Caring Premises,5,5,,225783,0,,54.12468900000000,18080,056,commercial@barrowbc.gov.uk,Barrow-in-Furness,http://www.barrowbc.gov.uk,-3.21534800000000,LA13 9AA,2014-02-05,fhrs_5_en-GB,5,,FHRS,0
159888,,45-53 Cavendish Street,Barrow-In-Furness,Cumbria,Hollywood Rock Cafe,Restaurant/Cafe/Canteen,1,10,,683601,10,,54.11388600000000,41543,056,commercial@barrowbc.gov.uk,Barrow-in-Furness,http://www.barrowbc.gov.uk,-3.22679600000000,LA14 1QD,2014-07-15,fhrs_3_en-GB,3,,FHRS,10
159889,Holy Family Rc School,Ostley Bank,Barrow-In-Furness,Cumbria,Holy Family RC Primary School,School/college/university,7845,,,708228,,,54.12467800000000,26694,056,commercial@barrowbc.gov.uk,Barrow-in-Furness,http://www.barrowbc.gov.uk,-3.20743700000000,LA13 9LR,,fhrs_awaitinginspection_en-GB,AwaitingInspection,,FHRS,
159890,,233-235 Dalton Road,Barrow-In-Furness,Cumbria,Home & Finance IFA Ltd,Restaurant/Cafe/Canteen,1,,,615476,,,,41510,056,commercial@barrowbc.gov.uk,Barrow-in-Furness,http://www.barrowbc.gov.uk,,LA14 1RS,2014-05-21,fhrs_4_en-GB,4,,FHRS,
159891,,127 Rawlinson Street,Barrow-In-Furness,Cumbria,Home Bakery,Retailers - other,4613,5,,225756,5,,54.11147500000000,17885,056,commercial@barrowbc.gov.uk,Barrow-in-Furness,http://www.barrowbc.gov.uk,-3.21990300000000,LA14 2DN,2014-02-11,fhrs_4_en-GB,4,,FHRS,10
159892,,110-116 Dalton Road,Barrow-In-Furness,Cumbria,Home Bargains,Retailers - supermarkets/hypermarkets,7840,0,,225871,0,,54.11288000000000,17066,056,commercial@barrowbc.gov.uk,Barrow-in-Furness,http://www.barrowbc.gov.uk,-3.22496100000000,LA14 1JH,2012-06-26,fhrs_5_en-GB,5,,FHRS,0
159893,Home Bargins,Walney Road,Barrow-In-Furness,Cumbria,Home Bargains,Retailers - supermarkets/hypermarkets,7840,0,,225948,0,,54.12095600000000,40452,056,commercial@barrowbc.gov.uk,Barrow-in-Furness,http://www.barrowbc.gov.uk,-3.23506900000000,LA14 5UN,2013-01-14,fhrs_5_en-GB,5,,FHRS,0
159894,,,,,Home Caterer,Retailers - other,4613,0,,225723,0,,,28306,056,commercial@barrowbc.gov.uk,Barrow-in-Furness,http://www.barrowbc.gov.uk,,,2011-09-19,fhrs_5_en-GB,5,,FHRS,0
159895,,,,,Home Caterer,Other catering premises,7841,0,,225923,0,,,28307,056,commercial@barrowbc.gov.uk,Barrow-in-Furness,http://www.barrowbc.gov.uk,,,2011-09-19,fhrs_5_en-GB,5,,FHRS,0
159896,,,,,Hornets Cornets,Mobile caterer,7846,5,,225744,0,,,14791,056,commercial@barrowbc.gov.uk,Barrow-in-Furness,http://www.barrowbc.gov.uk,,,2012-06-01,fhrs_5_en-GB,5,,FHRS,0
159897,,14 Ulverston Road,Dalton-In-Furness,Cumbria,Horse and Jockey,Pub/bar/nightclub,7843,5,,226079,5,,54.15725800000000,38030,056,commercial@barrowbc.gov.uk,Barrow-in-Furness,http://www.barrowbc.gov.uk,-3.17682300000000,LA15 8EA,2013-07-25,fhrs_4_en-GB,4,,FHRS,10
159898,Kids Unlimited Nursery,Abbey Road,Barrow-In-Furness,Cumbria,Hospitots,Hospitals/Childcare/Caring Premises,5,0,,225863,0,,54.13640300000000,39725,056,commercial@barrowbc.gov.uk,Barrow-in-Furness,http://www.barrowbc.gov.uk,-3.20790000000000,LA14 4LF,2014-02-17,fhrs_5_en-GB,5,,FHRS,0
159899,,,,,Hot n Saucy Catering,Mobile caterer,7846,0,,513907,0,,,16662,056,commercial@barrowbc.gov.uk,Barrow-in-Furness,http://www.barrowbc.gov.uk,,,2013-02-04,fhrs_5_en-GB,5,,FHRS,0
159900,"Iceland Frozen Foods, Corner H",Hindpool Road,Barrow-In-Furness,Cumbria,Iceland Frozen Foods,Retailers - supermarkets/hypermarkets,7840,5,,225693,5,,54.11227400000000,8308,056,commercial@barrowbc.gov.uk,Barrow-in-Furness,http://www.barrowbc.gov.uk,-3.23499400000000,LA14 2NE,2014-12-16,fhrs_5_en-GB,5,,FHRS,5
159901,,181 Rawlinson Street,Barrow-In-Furness,Cumbria,Ieshas Indian Takeaway,Takeaway/sandwich shop,7844,5,,226129,5,,54.11388800000000,16975,056,commercial@barrowbc.gov.uk,Barrow-in-Furness,http://www.barrowbc.gov.uk,-3.22219200000000,LA14 1ED,2014-08-20,fhrs_4_en-GB,4,,FHRS,10
159902,King Alfred Hotel,Ocean Road,Barrow-In-Furness,Cumbria,Indian Kitchen,Other catering premises,7841,5,,692408,10,,54.11197400000000,41573,056,commercial@barrowbc.gov.uk,Barrow-in-Furness,http://www.barrowbc.gov.uk,-3.23787100000000,LA14 3DU,2014-08-13,fhrs_3_en-GB,3,,FHRS,10
159903,Associated British Ports,Ramsden Dock Road,Barrow-In-Furness,Cumbria,"INS Marine Terminal, Cavendish Dock Rd",Restaurant/Cafe/Canteen,1,0,,225849,0,,54.10084700000000,6431,056,commercial@barrowbc.gov.uk,Barrow-in-Furness,http://www.barrowbc.gov.uk,-3.22997500000000,LA14 2TW,2012-07-03,fhrs_5_en-GB,5,,FHRS,0
159904,St Peters C Of E School,Moor Road,Ireleth,"Askam-In-Furness, Cumbria",Ireleth St.Peter's CE Primary School,School/college/university,7845,0,,225872,5,,54.18924700000000,31687,056,commercial@barrowbc.gov.uk,Barrow-in-Furness,http://www.barrowbc.gov.uk,-3.19226100000000,LA16 7EY,2014-05-02,fhrs_5_en-GB,5,,FHRS,5
159905,,168-170 Dalton Road,Barrow-In-Furness,Cumbria,J N Murray,Retailers - other,4613,,,693588,,,54.11382900000000,9419,056,commercial@barrowbc.gov.uk,Barrow-in-Furness,http://www.barrowbc.gov.uk,-3.22532600000000,LA14 1PU,2012-07-02,fhrs_exempt_en-GB,Exempt,,FHRS,
159906,,32 Warwick Street,Barrow-In-Furness,Cumbria,J N Murray Ltd,Retailers - other,4613,,,693525,,,54.11960600000000,18754,056,commercial@barrowbc.gov.uk,Barrow-in-Furness,http://www.barrowbc.gov.uk,-3.22289500000000,LA14 5AX,2008-08-29,fhrs_exempt_en-GB,Exempt,,FHRS,
159907,,44 Middlefield,Barrow-In-Furness,Cumbria,J.N. Murray Limited,Retailers - other,4613,,,693564,,,54.13793900000000,40631,056,commercial@barrowbc.gov.uk,Barrow-in-Furness,http://www.barrowbc.gov.uk,-3.23105900000000,LA14 4BX,2012-03-13,fhrs_exempt_en-GB,Exempt,,FHRS,
159908,,11-19 Cavendish Street,Barrow-In-Furness,Cumbria,Jade Fountain,Restaurant/Cafe/Canteen,1,5,,225795,0,,54.11335700000000,38452,056,commercial@barrowbc.gov.uk,Barrow-in-Furness,http://www.barrowbc.gov.uk,-3.22840200000000,LA14 1SF,2013-12-09,fhrs_5_en-GB,5,,FHRS,0
159909,,32 Ulverston Road,Dalton-In-Furness,Cumbria,Jade Palace,Takeaway/sandwich shop,7844,10,,225957,15,,54.15728300000000,34059,056,commercial@barrowbc.gov.uk,Barrow-in-Furness,http://www.barrowbc.gov.uk,-3.17607300000000,LA15 8ED,2013-10-10,fhrs_2_en-GB,2,,FHRS,10
159910,,60-64 Duke Street,Barrow-In-Furness,Cumbria,Jeffersons,Pub/bar/nightclub,7843,0,,225931,5,,54.11268800000000,9466,056,commercial@barrowbc.gov.uk,Barrow-in-Furness,http://www.barrowbc.gov.uk,-3.22873400000000,LA14 1RX,2013-03-26,fhrs_5_en-GB,5,,FHRS,0
159911,,,,,Jimmy Chew,Retailers - other,4613,5,,636773,0,,,41488,056,commercial@barrowbc.gov.uk,Barrow-in-Furness,http://www.barrowbc.gov.uk,,,2014-02-12,fhrs_5_en-GB,5,,FHRS,0
159912,Jubilee House,Abbey Road,Barrow-In-Furness,Cumbria,Jubilee House Day Centre,Hospitals/Childcare/Caring Premises,5,5,,225848,5,,54.11611500000000,38055,056,commercial@barrowbc.gov.uk,Barrow-in-Furness,http://www.barrowbc.gov.uk,-3.22853000000000,LA14 5UD,2013-06-14,fhrs_5_en-GB,5,,FHRS,5
159913,Mission Hall,Michaelson Road,Barrow-In-Furness,Cumbria,Just 2 Tasty,Takeaway/sandwich shop,7844,5,,693548,5,,,37484,056,commercial@barrowbc.gov.uk,Barrow-in-Furness,http://www.barrowbc.gov.uk,,,2014-06-05,fhrs_5_en-GB,5,,FHRS,5
159914,Moorfield St Kitchen,Moorfield Street,Barrow-In-Furness,Cumbria,Just Jules Catering,Other catering premises,7841,5,,732302,5,,54.11298900000000,41579,056,commercial@barrowbc.gov.uk,Barrow-in-Furness,http://www.barrowbc.gov.uk,-3.20694400000000,LA13 9RS,2015-01-16,fhrs_5_en-GB,5,,FHRS,5
159915,,49 Ferry Road,Barrow-In-Furness,Cumbria,Just Tasty,Retailers - other,4613,5,,225998,5,,54.10723000000000,6791,056,commercial@barrowbc.gov.uk,Barrow-in-Furness,http://www.barrowbc.gov.uk,-3.23779600000000,LA14 2QF,2014-05-12,fhrs_4_en-GB,4,,FHRS,10
159916,,,,,K and E Catering Piel View,Other catering premises,7841,5,,226043,5,,,6416,056,commercial@barrowbc.gov.uk,Barrow-in-Furness,http://www.barrowbc.gov.uk,,,2014-03-18,fhrs_5_en-GB,5,,FHRS,5
159917,,18-24 Cornwallis Street,Barrow-In-Furness,Cumbria,Kavannas,Pub/bar/nightclub,7843,5,,225816,5,,54.11179500000000,9800,056,commercial@barrowbc.gov.uk,Barrow-in-Furness,http://www.barrowbc.gov.uk,-3.22907500000000,LA14 2LG,2012-07-10,fhrs_5_en-GB,5,,FHRS,5
159918,,120a Mill Lane,Barrow-In-Furness,Cumbria,Kens Chippie & Kitchen,Takeaway/sandwich shop,7844,5,,225881,5,,54.11112800000000,3135,056,commercial@barrowbc.gov.uk,Barrow-in-Furness,http://www.barrowbc.gov.uk,-3.26050600000000,LA14 3NT,2014-11-04,fhrs_5_en-GB,5,,FHRS,5
159919,,75 Kent Street,Barrow-In-Furness,Cumbria,Kent Street Chippie,Takeaway/sandwich shop,7844,20,,225839,10,,54.11256100000000,25361,056,commercial@barrowbc.gov.uk,Barrow-in-Furness,http://www.barrowbc.gov.uk,-3.21026600000000,LA13 9QP,2014-03-18,fhrs_1_en-GB,1,,FHRS,10
159920,,227 Dalton Road,Barrow-In-Furness,Cumbria,Kerb Retail Ltd,Retailers - other,4613,5,,643691,0,,54.11536200000000,41520,056,commercial@barrowbc.gov.uk,Barrow-in-Furness,http://www.barrowbc.gov.uk,-3.22742100000000,LA14 1PQ,2014-03-19,fhrs_5_en-GB,5,,FHRS,5
159921,"Unit K, Hollywood Park",Hindpool Road,Barrow-In-Furness,Cumbria,KFC,Takeaway/sandwich shop,7844,0,,225755,0,,54.11479900000000,34585,056,commercial@barrowbc.gov.uk,Barrow-in-Furness,http://www.barrowbc.gov.uk,-3.23854200000000,LA14 2NA,2013-08-05,fhrs_5_en-GB,5,,FHRS,0
159922,,193-197 Duke Street,Barrow-In-Furness,Cumbria,KillOne,Pub/bar/nightclub,7843,5,,636776,5,,54.11471300000000,41515,056,commercial@barrowbc.gov.uk,Barrow-in-Furness,http://www.barrowbc.gov.uk,-3.23287900000000,LA14 1XS,2014-02-25,fhrs_5_en-GB,5,,FHRS,5
159923,Kimberley Clark,Park Road,Barrow-In-Furness,Cumbria,Kimberley Clark Staff Canteen,Restaurant/Cafe/Canteen,1,0,,225767,0,,54.11197400000000,38222,056,commercial@barrowbc.gov.uk,Barrow-in-Furness,http://www.barrowbc.gov.uk,-3.23787100000000,LA14 4QX,2014-04-30,fhrs_5_en-GB,5,,FHRS,5
159924,Kings Arms,Quarry Brow,Barrow-In-Furness,Cumbria,Kings Arms,Pub/bar/nightclub,7843,5,,225837,5,,54.13640900000000,21755,056,commercial@barrowbc.gov.uk,Barrow-in-Furness,http://www.barrowbc.gov.uk,-3.22248700000000,LA14 4HY,2011-01-12,fhrs_5_en-GB,5,,FHRS,5
159925,Kings Arms Hotel,Dalton Road,Barrow-In-Furness,Cumbria,Kings Arms Hotel,Pub/bar/nightclub,7843,5,,225694,0,,54.11103900000000,9500,056,commercial@barrowbc.gov.uk,Barrow-in-Furness,http://www.barrowbc.gov.uk,-3.22561100000000,LA14 1HY,2015-01-13,fhrs_5_en-GB,5,,FHRS,0
159926,,252 Abbey Road,Barrow-In-Furness,Cumbria,Kingsfield Care Home,Hospitals/Childcare/Caring Premises,5,5,,226159,0,,54.12951400000000,20810,056,commercial@barrowbc.gov.uk,Barrow-in-Furness,http://www.barrowbc.gov.uk,-3.21099000000000,LA13 9JJ,2014-02-05,fhrs_5_en-GB,5,,FHRS,0
159927,,19 Tudor Square,Dalton-In-Furness,Cumbria,Kitchen Wizard,Takeaway/sandwich shop,7844,,,226164,,,54.15713400000000,33300,056,commercial@barrowbc.gov.uk,Barrow-in-Furness,http://www.barrowbc.gov.uk,-3.17753900000000,LA15 8RH,2013-11-22,fhrs_5_en-GB,5,,FHRS,
159928,,42 Bath Street,Barrow-In-Furness,Cumbria,KLM Stores,Retailers - other,4613,5,,226107,5,,54.11765700000000,8676,056,commercial@barrowbc.gov.uk,Barrow-in-Furness,http://www.barrowbc.gov.uk,-3.23417500000000,LA14 1NT,2013-02-14,fhrs_5_en-GB,5,,FHRS,5
159929,,,,,Kooks Catering,Retailers - other,4613,5,,225890,5,,,32572,056,commercial@barrowbc.gov.uk,Barrow-in-Furness,http://www.barrowbc.gov.uk,,,2014-03-26,fhrs_5_en-GB,5,,FHRS,5
159930,,116 Lesh Lane,Barrow-In-Furness,Cumbria,La Pizzeria,Takeaway/sandwich shop,7844,5,,512282,5,,54.11765500000000,41462,056,commercial@barrowbc.gov.uk,Barrow-in-Furness,http://www.barrowbc.gov.uk,-3.20778300000000,LA13 9EQ,2013-02-06,fhrs_5_en-GB,5,,FHRS,5
159931,,41 Anchor Road,Barrow-In-Furness,Cumbria,Laings,Retailers - other,4613,5,,225778,5,,54.10290000000000,8218,056,commercial@barrowbc.gov.uk,Barrow-in-Furness,http://www.barrowbc.gov.uk,-3.22878100000000,LA14 2QP,2014-12-11,fhrs_5_en-GB,5,,FHRS,5
159932,Christies Garage,Schneider Road,Barrow-In-Furness,Cumbria,Lakeland Fudge Ltd,Manufacturers/packers,7839,0,,623576,0,,54.13098700000000,41513,056,commercial@barrowbc.gov.uk,Barrow-in-Furness,http://www.barrowbc.gov.uk,-3.23324000000000,LA14 5ER,2013-12-05,fhrs_5_en-GB,5,,FHRS,0
159933,,219 Dalton Road,Barrow-In-Furness,Cumbria,Lakes Bakery,Restaurant/Cafe/Canteen,1,0,,225989,5,,54.11493400000000,39802,056,commercial@barrowbc.gov.uk,Barrow-in-Furness,http://www.barrowbc.gov.uk,-3.22714900000000,LA14 1PH,2014-01-14,fhrs_5_en-GB,5,,FHRS,5
159934,1 Lakes Parade,Ennerdale Drive,Barrow-In-Furness,Cumbria,Lakes Parade Stores Ltd,Retailers - other,4613,5,,225720,5,,54.13748200000000,21730,056,commercial@barrowbc.gov.uk,Barrow-in-Furness,http://www.barrowbc.gov.uk,-3.21232500000000,LA14 4PR,2012-07-09,fhrs_5_en-GB,5,,FHRS,5
159935,,8 Hawcoat Lane,Barrow-In-Furness,Cumbria,Langdale House,Hotel/bed & breakfast/guest house,7842,0,,225898,0,,54.12936700000000,21111,056,commercial@barrowbc.gov.uk,Barrow-in-Furness,http://www.barrowbc.gov.uk,-3.21579100000000,LA14 4HE,2008-01-18,fhrs_5_en-GB,5,,FHRS,0
159936,,140 Rawlinson Street,Barrow-In-Furness,Cumbria,Last Orders Inn,Pub/bar/nightclub,7843,5,,226098,5,,54.11204800000000,17935,056,commercial@barrowbc.gov.uk,Barrow-in-Furness,http://www.barrowbc.gov.uk,-3.22097500000000,LA14 2DG,2015-01-13,fhrs_5_en-GB,5,,FHRS,5
159937,,2 Marsh Street,Barrow-In-Furness,Cumbria,Late Nite 11,Retailers - other,4613,10,,633513,5,,54.10988900000000,41533,056,commercial@barrowbc.gov.uk,Barrow-in-Furness,http://www.barrowbc.gov.uk,-3.21581800000000,LA14 2AE,2014-01-14,fhrs_4_en-GB,4,,FHRS,5
159938,,104-106 Buccleuch Street,Barrow-In-Furness,Cumbria,LBH Ghuman Ltd Newsagents,Retailers - other,4613,,,693582,,,54.11500500000000,8358,056,commercial@barrowbc.gov.uk,Barrow-in-Furness,http://www.barrowbc.gov.uk,-3.22548300000000,LA14 1DA,2012-10-04,fhrs_exempt_en-GB,Exempt,,FHRS,
159939,,45 Ainslie Street,Barrow-In-Furness,Cumbria,Lees Chinese Take Away,Takeaway/sandwich shop,7844,10,,225836,5,,54.12083400000000,18775,056,commercial@barrowbc.gov.uk,Barrow-in-Furness,http://www.barrowbc.gov.uk,-3.22404900000000,LA14 5AY,2014-10-13,fhrs_4_en-GB,4,,FHRS,5
159940,,108-112 Lesh Lane,Barrow-In-Furness,Cumbria,Lesh Lane Stores,Retailers - other,4613,5,,643687,5,,54.11765500000000,40735,056,commercial@barrowbc.gov.uk,Barrow-in-Furness,http://www.barrowbc.gov.uk,-3.20778300000000,LA13 9EQ,2014-01-10,fhrs_5_en-GB,5,,FHRS,5
159941,Lindal And Marton Primary Scho,Pit Lane,Lindal-In-Furness,"Ulverston, Cumbria",Lindal & Marton County Primary,School/college/university,7845,0,,225852,0,,54.17704100000000,34294,056,commercial@barrowbc.gov.uk,Barrow-in-Furness,http://www.barrowbc.gov.uk,-3.15256400000000,LA12 0NB,2014-01-21,fhrs_5_en-GB,5,,FHRS,0
159942,Unit 2,331 Rawlinson Street,Barrow-In-Furness,Cumbria,Little Subs,Restaurant/Cafe/Canteen,1,,,615477,,,54.11617400000000,41511,056,commercial@barrowbc.gov.uk,Barrow-in-Furness,http://www.barrowbc.gov.uk,-3.22446200000000,LA14 1BS,2014-05-22,fhrs_5_en-GB,5,,FHRS,
159943,,75-77 Market Street,Dalton-In-Furness,Cumbria,Lloyds Pharmacy,Retailers - other,4613,,,693538,,,54.15643700000000,31497,056,commercial@barrowbc.gov.uk,Barrow-in-Furness,http://www.barrowbc.gov.uk,-3.18082700000000,LA15 8DL,2012-07-03,fhrs_exempt_en-GB,Exempt,,FHRS,
159944,,90 Duddon Road,Askam-In-Furness,Cumbria,London House,Pub/bar/nightclub,7843,10,,225758,5,,54.19073800000000,28514,056,commercial@barrowbc.gov.uk,Barrow-in-Furness,http://www.barrowbc.gov.uk,-3.20592900000000,LA16 7AN,2012-06-25,fhrs_4_en-GB,4,,FHRS,0
159945,22 Newbarns Village,Hollow Lane,Barrow-In-Furness,Cumbria,Lynwood Ashtree,Hospitals/Childcare/Caring Premises,5,5,,226014,0,,54.12495000000000,26699,056,commercial@barrowbc.gov.uk,Barrow-in-Furness,http://www.barrowbc.gov.uk,-3.20987800000000,LA13 9NG,2014-02-12,fhrs_5_en-GB,5,,FHRS,0
159946,,,,,M & B Sandwiches,Mobile caterer,7846,0,,226069,0,,,31131,056,commercial@barrowbc.gov.uk,Barrow-in-Furness,http://www.barrowbc.gov.uk,,,2014-06-06,fhrs_5_en-GB,5,,FHRS,0
159947,,,,,Ma' Sharp's,Retailers - other,4613,5,,643694,0,,,5568,056,commercial@barrowbc.gov.uk,Barrow-in-Furness,http://www.barrowbc.gov.uk,,,2014-03-26,fhrs_5_en-GB,5,,FHRS,5
159948,,79 Duke Street,Askam-In-Furness,Cumbria,Mabels Bakery,Retailers - other,4613,5,,226002,5,,54.18653200000000,27596,056,commercial@barrowbc.gov.uk,Barrow-in-Furness,http://www.barrowbc.gov.uk,-3.20589800000000,LA16 7AD,2014-02-19,fhrs_5_en-GB,5,,FHRS,5
159949,,20 Anchor Road,Barrow-In-Furness,Cumbria,Mace Convenience,Retailers - other,4613,10,,226097,5,,54.10290000000000,8213,056,commercial@barrowbc.gov.uk,Barrow-in-Furness,http://www.barrowbc.gov.uk,-3.22878100000000,LA14 2QP,2014-12-01,fhrs_3_en-GB,3,,FHRS,10
159950,,9-11 Amphitrite Street,Barrow-In-Furness,Cumbria,Macs Grocers,Retailers - other,4613,10,,225774,5,,54.10422000000000,5583,056,commercial@barrowbc.gov.uk,Barrow-in-Furness,http://www.barrowbc.gov.uk,-3.25156300000000,LA14 3AR,2014-05-12,fhrs_4_en-GB,4,,FHRS,5
159951,,75 Abbey Road,Barrow-In-Furness,Cumbria,Maindee Guest House,Hotel/bed & breakfast/guest house,7842,0,,225828,0,,54.11920900000000,18050,056,commercial@barrowbc.gov.uk,Barrow-in-Furness,http://www.barrowbc.gov.uk,-3.22299100000000,LA14 5ES,2012-06-25,fhrs_5_en-GB,5,,FHRS,0
159952,,45-53 Cavendish Street,Barrow-In-Furness,Cumbria,Manhattans,Pub/bar/nightclub,7843,5,,226051,5,,54.11388600000000,40782,056,commercial@barrowbc.gov.uk,Barrow-in-Furness,http://www.barrowbc.gov.uk,-3.22679600000000,LA14 1QD,2014-02-25,fhrs_5_en-GB,5,,FHRS,5
159953,,193-199 Dalton Road,Barrow-In-Furness,Cumbria,Marks & Spencer Plc,Retailers - supermarkets/hypermarkets,7840,0,,226149,0,,54.11458900000000,9341,056,commercial@barrowbc.gov.uk,Barrow-in-Furness,http://www.barrowbc.gov.uk,-3.22652600000000,LA14 1PP,2012-06-26,fhrs_5_en-GB,5,,FHRS,0
159954,,72 Duke Street,Barrow-In-Furness,Cumbria,Marmaris Grill,Takeaway/sandwich shop,7844,10,,225846,5,,54.11268800000000,8944,056,commercial@barrowbc.gov.uk,Barrow-in-Furness,http://www.barrowbc.gov.uk,-3.22873400000000,LA14 1RX,2014-02-11,fhrs_3_en-GB,3,,FHRS,10
159955,,168 Ramsden Street,Barrow-In-Furness,Cumbria,Marsh Street Stores,Retailers - other,4613,5,,225866,5,,54.11163000000000,17107,056,commercial@barrowbc.gov.uk,Barrow-in-Furness,http://www.barrowbc.gov.uk,-3.21787300000000,LA14 2BU,2014-11-12,fhrs_5_en-GB,5,,FHRS,5
159956,,,,,Marsha Dreams Collections,Retailers - other,4613,10,,577446,10,,,16870,056,commercial@barrowbc.gov.uk,Barrow-in-Furness,http://www.barrowbc.gov.uk,,,2013-07-03,fhrs_3_en-GB,3,,FHRS,5
159957,,43 Brighton Street,Barrow-In-Furness,Cumbria,Martin & Smith,Retailers - other,4613,5,,226123,5,,54.12292100000000,20674,056,commercial@barrowbc.gov.uk,Barrow-in-Furness,http://www.barrowbc.gov.uk,-3.22127900000000,LA14 5HG,2014-03-04,fhrs_5_en-GB,5,,FHRS,5
159958,,7-11 Ruskin Avenue,Dalton-In-Furness,Cumbria,Martin McColl Ltd,Retailers - supermarkets/hypermarkets,7840,0,,225733,5,,54.15036800000000,30866,056,commercial@barrowbc.gov.uk,Barrow-in-Furness,http://www.barrowbc.gov.uk,-3.18282900000000,LA15 8LU,2014-01-24,fhrs_5_en-GB,5,,FHRS,5
159959,Masonic Hall,Fairfield Lane,Barrow-In-Furness,Cumbria,Masonic Hall,Pub/bar/nightclub,7843,10,,225880,0,,54.12318400000000,18595,056,commercial@barrowbc.gov.uk,Barrow-in-Furness,http://www.barrowbc.gov.uk,-3.21568700000000,LA13 9AH,2010-03-18,fhrs_4_en-GB,4,,FHRS,0
159960,The Baldwin Masonic Hall Co Lt,Hall Street,Dalton-In-Furness,Cumbria,Masonic Hall,Other catering premises,7841,5,,225937,5,,54.15704200000000,34032,056,commercial@barrowbc.gov.uk,Barrow-in-Furness,http://www.barrowbc.gov.uk,-3.17958900000000,LA15 8RS,2011-07-19,fhrs_5_en-GB,5,,FHRS,5
159961,,159-161 Rawlinson Street,Barrow-In-Furness,Cumbria,Mason's Family Butchers,Retailers - other,4613,20,,226167,10,,54.11320200000000,16605,056,commercial@barrowbc.gov.uk,Barrow-in-Furness,http://www.barrowbc.gov.uk,-3.22156000000000,LA14 1ES,2014-09-09,fhrs_1_en-GB,1,,FHRS,10
159962,,186 Ainslie Street,Barrow-In-Furness,Cumbria,Matties,Takeaway/sandwich shop,7844,5,,225870,5,,54.12407900000000,12323,056,commercial@barrowbc.gov.uk,Barrow-in-Furness,http://www.barrowbc.gov.uk,-3.22847500000000,LA14 5BG,2014-11-05,fhrs_5_en-GB,5,,FHRS,5
159963,,148-152 Dalton Road,Barrow-In-Furness,Cumbria,McDonalds,Restaurant/Cafe/Canteen,1,0,,225910,0,,54.11382900000000,16979,056,commercial@barrowbc.gov.uk,Barrow-in-Furness,http://www.barrowbc.gov.uk,-3.22532600000000,LA14 1PU,2014-05-01,fhrs_5_en-GB,5,,FHRS,5
159964,"Unit M, Hollywood Park",Hindpool Road,Barrow-In-Furness,Cumbria,McDonalds,Takeaway/sandwich shop,7844,0,,226001,5,,54.11479900000000,34587,056,commercial@barrowbc.gov.uk,Barrow-in-Furness,http://www.barrowbc.gov.uk,-3.23854200000000,LA14 2NA,2014-06-03,fhrs_5_en-GB,5,,FHRS,5
159965,,,,,McDougalls Catering - Catering Van (Cream),Mobile caterer,7846,5,,226158,5,,,40713,056,commercial@barrowbc.gov.uk,Barrow-in-Furness,http://www.barrowbc.gov.uk,,,2013-03-29,fhrs_5_en-GB,5,,FHRS,5
159966,,,,,McDougalls Catering - Catering Van (Yellow & White),Mobile caterer,7846,5,,554727,5,,,41471,056,commercial@barrowbc.gov.uk,Barrow-in-Furness,http://www.barrowbc.gov.uk,,,2013-03-29,fhrs_5_en-GB,5,,FHRS,5
159967,,,,,McDougalls Catering (Minnie Donuts),Mobile caterer,7846,5,,554726,5,,,40836,056,commercial@barrowbc.gov.uk,Barrow-in-Furness,http://www.barrowbc.gov.uk,,,2013-03-29,fhrs_5_en-GB,5,,FHRS,5
159968,,30 Rawlinson Street,Barrow-In-Furness,Cumbria,McDougalls Newsagents,Retailers - other,4613,0,,225799,0,,54.11007800000000,13912,056,commercial@barrowbc.gov.uk,Barrow-in-Furness,http://www.barrowbc.gov.uk,-3.21937200000000,LA14 2DS,2010-03-08,fhrs_5_en-GB,5,,FHRS,0
159969,,19 Bath Street,Barrow-In-Furness,Cumbria,Mcleys Bakery,Retailers - other,4613,5,,226093,10,,54.11679100000000,9404,056,commercial@barrowbc.gov.uk,Barrow-in-Furness,http://www.barrowbc.gov.uk,-3.23274200000000,LA14 1NL,2014-02-18,fhrs_4_en-GB,4,,FHRS,0
159970,,56 Howe Street,Barrow-In-Furness,Cumbria,Meng House,Takeaway/sandwich shop,7844,10,,643693,5,,54.11787700000000,41542,056,commercial@barrowbc.gov.uk,Barrow-in-Furness,http://www.barrowbc.gov.uk,-3.23286600000000,LA14 5TL,2014-03-04,fhrs_4_en-GB,4,,FHRS,5
159971,,45-47 Fairfield Lane,Barrow-In-Furness,Cumbria,Michaelson House Hotel,Hotel/bed & breakfast/guest house,7842,5,,225686,5,,54.12461800000000,18601,056,commercial@barrowbc.gov.uk,Barrow-in-Furness,http://www.barrowbc.gov.uk,-3.21251500000000,LA13 9AN,2014-11-11,fhrs_5_en-GB,5,,FHRS,5
159972,Mill Lane Day Centre,Mill Lane,Barrow-In-Furness,Cumbria,Mill Lane Day Centre,Other catering premises,7841,0,,225823,0,,54.11382300000000,5648,056,commercial@barrowbc.gov.uk,Barrow-in-Furness,http://www.barrowbc.gov.uk,-3.25376500000000,LA14 3XX,2014-02-18,fhrs_5_en-GB,5,,FHRS,5
159973,,64 School Street,Barrow-In-Furness,Cumbria,Mind in Furness,Other catering premises,7841,20,,225970,5,,54.11201700000000,35093,056,commercial@barrowbc.gov.uk,Barrow-in-Furness,http://www.barrowbc.gov.uk,-3.22320700000000,LA14 1EW,2014-01-21,fhrs_1_en-GB,1,,FHRS,5
159974,,252-254 Dalton Road,Barrow-In-Furness,Cumbria,Mithali Indian Restaurant,Restaurant/Cafe/Canteen,1,5,,225790,5,,54.11540400000000,9305,056,commercial@barrowbc.gov.uk,Barrow-in-Furness,http://www.barrowbc.gov.uk,-3.22684100000000,LA14 1PN,2014-03-26,fhrs_4_en-GB,4,,FHRS,10
159975,Wm Morrison Supermarkets Plc,The Strand,Barrow-In-Furness,Cumbria,Morrisons Filling Station,Retailers - other,4613,,,693554,,,54.10830800000000,38490,056,commercial@barrowbc.gov.uk,Barrow-in-Furness,http://www.barrowbc.gov.uk,-3.22464300000000,LA14 2HF,2011-03-31,fhrs_exempt_en-GB,Exempt,,FHRS,
159976,Street Record,Harley Street,Barrow-In-Furness,Cumbria,Mr Pickwicks,Mobile caterer,7846,5,,226047,5,,,38533,056,commercial@barrowbc.gov.uk,Barrow-in-Furness,http://www.barrowbc.gov.uk,,,2014-06-19,fhrs_5_en-GB,5,,FHRS,5
159977,,80 Scott Street,Barrow-In-Furness,Cumbria,Mr Sun's,Takeaway/sandwich shop,7844,5,,636779,5,,54.11397200000000,41541,056,commercial@barrowbc.gov.uk,Barrow-in-Furness,http://www.barrowbc.gov.uk,-3.22713500000000,LA14 1QE,2014-02-18,fhrs_5_en-GB,5,,FHRS,5
159978,,24 Crellin Street,Barrow-In-Furness,Cumbria,Mr Tilleys,Restaurant/Cafe/Canteen,1,10,,226092,10,,54.11359700000000,16368,056,commercial@barrowbc.gov.uk,Barrow-in-Furness,http://www.barrowbc.gov.uk,-3.22427900000000,LA14 1DU,2014-09-01,fhrs_3_en-GB,3,,FHRS,10
159979,,,,,M's Sweet and Tasty,Retailers - other,4613,5,,636770,5,,,17579,056,commercial@barrowbc.gov.uk,Barrow-in-Furness,http://www.barrowbc.gov.uk,,,2014-02-17,fhrs_5_en-GB,5,,FHRS,5
159980,Ms Hall,Schneider Road,Barrow-In-Furness,Cumbria,Multiple Sclerosis Centre,Other catering premises,7841,5,,226074,0,,54.13023000000000,38494,056,commercial@barrowbc.gov.uk,Barrow-in-Furness,http://www.barrowbc.gov.uk,-3.23257800000000,,2014-02-24,fhrs_5_en-GB,5,,FHRS,5
159981,,108-110 Duke Street,Barrow-In-Furness,Cumbria,Murray Pharmacies,Retailers - other,4613,,,693581,,,54.11373200000000,8344,056,commercial@barrowbc.gov.uk,Barrow-in-Furness,http://www.barrowbc.gov.uk,-3.23037200000000,LA14 1LS,2013-08-15,fhrs_exempt_en-GB,Exempt,,FHRS,
159982,,3 Anchor Road,Barrow-In-Furness,Cumbria,Murrays,Retailers - other,4613,,,693575,,,54.10232800000000,7011,056,commercial@barrowbc.gov.uk,Barrow-in-Furness,http://www.barrowbc.gov.uk,-3.22934600000000,LA14 2QW,2014-12-15,fhrs_exempt_en-GB,Exempt,,FHRS,
159983,,62 Rawlinson Street,Barrow-In-Furness,Cumbria,Murrays,Retailers - other,4613,,,693523,,,54.11147500000000,17887,056,commercial@barrowbc.gov.uk,Barrow-in-Furness,http://www.barrowbc.gov.uk,-3.21990300000000,LA14 2DN,2015-01-05,fhrs_exempt_en-GB,Exempt,,FHRS,
159984,,66-68 Dalton Road,Barrow-In-Furness,Cumbria,Murrays Pharmacy,Retailers - other,4613,,,693549,,,54.11155500000000,38110,056,commercial@barrowbc.gov.uk,Barrow-in-Furness,http://www.barrowbc.gov.uk,-3.22530500000000,LA14 1JB,2012-06-22,fhrs_exempt_en-GB,Exempt,,FHRS,
159985,,77 Duke Street,Askam-In-Furness,Cumbria,N Garnett,Retailers - other,4613,,,225827,,,54.18653200000000,27594,056,commercial@barrowbc.gov.uk,Barrow-in-Furness,http://www.barrowbc.gov.uk,-3.20589800000000,LA16 7AD,2014-01-24,fhrs_exempt_en-GB,Exempt,,FHRS,
159986,Burlington House,Michaelson Road,Barrow-In-Furness,Cumbria,Nacro Furness,Restaurant/Cafe/Canteen,1,,,693565,,,54.10519500000000,40714,056,commercial@barrowbc.gov.uk,Barrow-in-Furness,http://www.barrowbc.gov.uk,-3.23021000000000,LA14 2RJ,2012-09-03,fhrs_exempt_en-GB,Exempt,,FHRS,
159987,,201 Dalton Road,Barrow-In-Furness,Cumbria,NC Meats,Retailers - other,4613,5,,225815,5,,54.11458900000000,9357,056,commercial@barrowbc.gov.uk,Barrow-in-Furness,http://www.barrowbc.gov.uk,-3.22652600000000,LA14 1PP,2014-07-03,fhrs_4_en-GB,4,,FHRS,10
159988,Nelson Street Centre,Nelson Street,Barrow-In-Furness,Cumbria,Nelson Street Centre,Other catering premises,7841,,,693587,,,54.11600600000000,9342,056,commercial@barrowbc.gov.uk,Barrow-in-Furness,http://www.barrowbc.gov.uk,-3.23218300000000,LA14 1NF,2009-11-13,fhrs_exempt_en-GB,Exempt,,FHRS,
159989,,116 Marsh Street,Barrow-In-Furness,Cumbria,New Century,Takeaway/sandwich shop,7844,5,,226078,5,,54.11124200000000,17930,056,commercial@barrowbc.gov.uk,Barrow-in-Furness,http://www.barrowbc.gov.uk,-3.21625500000000,LA14 2AA,2014-03-26,fhrs_5_en-GB,5,,FHRS,5
159990,,18-22 Portland Walk,Barrow-In-Furness,Cumbria,New Look,Retailers - other,4613,,,693559,,,54.11293000000000,39424,056,commercial@barrowbc.gov.uk,Barrow-in-Furness,http://www.barrowbc.gov.uk,-3.22623300000000,LA14 1DB,2012-02-27,fhrs_exempt_en-GB,Exempt,,FHRS,
159991,Newbarns Primary School,Rising Side,Barrow-In-Furness,Cumbria,Newbarns Primary School Kitchen,School/college/university,7845,0,,225972,5,,54.12196800000000,26670,056,commercial@barrowbc.gov.uk,Barrow-in-Furness,http://www.barrowbc.gov.uk,-3.20437400000000,LA13 9ET,2014-05-01,fhrs_5_en-GB,5,,FHRS,0
159992,,55 Salthouse Road,Barrow-In-Furness,Cumbria,Newsagents,Retailers - other,4613,,,693561,,,54.10956800000000,40055,056,commercial@barrowbc.gov.uk,Barrow-in-Furness,http://www.barrowbc.gov.uk,-3.21380500000000,LA14 2AL,2011-11-07,fhrs_exempt_en-GB,Exempt,,FHRS,
159993,,118 Church Street,Barrow-In-Furness,Cumbria,Newspoint,Retailers - other,4613,10,,577445,5,,54.11122400000000,16647,056,commercial@barrowbc.gov.uk,Barrow-in-Furness,http://www.barrowbc.gov.uk,-3.22509600000000,LA14 1HA,2014-11-12,fhrs_3_en-GB,3,,FHRS,10
159994,Newton School,Newton Road,Newton-In-Furness,"Barrow-In-Furness, Cumbria",Newton County Primary School,School/college/university,7845,0,,225897,0,,54.13384300000000,31906,056,commercial@barrowbc.gov.uk,Barrow-in-Furness,http://www.barrowbc.gov.uk,-3.17967900000000,LA13 0LT,2014-01-24,fhrs_5_en-GB,5,,FHRS,0
159995,Village Hall,Newton Cross Road,Newton-In-Furness,"Barrow-In-Furness, Cumbria",Newton Village Hall,Other catering premises,7841,,,693550,,,,38118,056,commercial@barrowbc.gov.uk,Barrow-in-Furness,http://www.barrowbc.gov.uk,,,2009-11-26,fhrs_exempt_en-GB,Exempt,,FHRS,
159996,,1a Forge Close,Barrow-In-Furness,Cumbria,Niceandspicy.co.uk,Takeaway/sandwich shop,7844,5,,693563,5,,,40517,056,commercial@barrowbc.gov.uk,Barrow-in-Furness,http://www.barrowbc.gov.uk,,,2014-07-07,fhrs_5_en-GB,5,,FHRS,5
159997,North Walney Primary School,Duddon Drive,Barrow-In-Furness,Cumbria,North Walney Primary School,School/college/university,7845,0,,226033,0,,54.11222400000000,3112,056,commercial@barrowbc.gov.uk,Barrow-in-Furness,http://www.barrowbc.gov.uk,-3.26228300000000,LA14 3TN,2013-06-11,fhrs_5_en-GB,5,,FHRS,0
159998,,3 Hawcoat Lane,Barrow-In-Furness,Cumbria,November House Guest House,Hotel/bed & breakfast/guest house,7842,5,,225788,5,,54.12936700000000,18605,056,commercial@barrowbc.gov.uk,Barrow-in-Furness,http://www.barrowbc.gov.uk,-3.21579100000000,LA14 4HE,2011-03-14,fhrs_5_en-GB,5,,FHRS,5
159999,"Unit C, Hollywood Park",Hindpool Road,Barrow-In-Furness,Cumbria,Nuffield Health Fitness & Wellbeing Centre,Restaurant/Cafe/Canteen,1,5,,225786,0,,54.11479900000000,34579,056,commercial@barrowbc.gov.uk,Barrow-in-Furness,http://www.barrowbc.gov.uk,-3.23854200000000,LA14 2NA,2013-04-08,fhrs_5_en-GB,5,,FHRS,5
160000,,1 Ruskin Avenue,Dalton-In-Furness,Cumbria,Ocean Breeze,Takeaway/sandwich shop,7844,10,,225896,0,,54.15036800000000,30377,056,commercial@barrowbc.gov.uk,Barrow-in-Furness,http://www.barrowbc.gov.uk,-3.18282900000000,LA15 8LU,2014-08-26,fhrs_4_en-GB,4,,FHRS,5
160001,,118 Lesh Lane,Barrow-In-Furness,Cumbria,Ocean Fish and Chips and The Pizza Corner,Takeaway/sandwich shop,7844,5,,225685,0,,54.11765500000000,22978,056,commercial@barrowbc.gov.uk,Barrow-in-Furness,http://www.barrowbc.gov.uk,-3.20778300000000,LA13 9EQ,2014-02-11,fhrs_5_en-GB,5,,FHRS,5
160002,"Stall 1 Meat Hall, Barrow Mark",Duke Street,Barrow-In-Furness,Cumbria,Oldfield Butchers,Retailers - other,4613,5,,225867,5,,54.11299300000000,38128,056,commercial@barrowbc.gov.uk,Barrow-in-Furness,http://www.barrowbc.gov.uk,-3.22964200000000,,2014-11-19,fhrs_5_en-GB,5,,FHRS,5
160003,,87-89 Buccleuch Street,Barrow-In-Furness,Cumbria,Olympic Take Away,Takeaway/sandwich shop,7844,5,,226122,5,,54.11510900000000,9319,056,commercial@barrowbc.gov.uk,Barrow-in-Furness,http://www.barrowbc.gov.uk,-3.22577700000000,LA14 1QP,2014-01-17,fhrs_5_en-GB,5,,FHRS,5
160004,,26 Middlefield,Barrow-In-Furness,Cumbria,Ormsgill Chippie,Takeaway/sandwich shop,7844,5,,226095,0,,54.13657300000000,13030,056,commercial@barrowbc.gov.uk,Barrow-in-Furness,http://www.barrowbc.gov.uk,-3.23106400000000,LA14 4AU,2014-03-04,fhrs_5_en-GB,5,,FHRS,5
160005,,34 Middlefield,Barrow-In-Furness,Cumbria,Ormsgill Convenience Store and Off-Licence,Retailers - other,4613,10,,225728,5,,54.13793900000000,13557,056,commercial@barrowbc.gov.uk,Barrow-in-Furness,http://www.barrowbc.gov.uk,-3.23105900000000,LA14 4BX,2011-01-17,fhrs_4_en-GB,4,,FHRS,0
160006,Ormsgill Hotel,Park Road,Barrow-In-Furness,Cumbria,Ormsgill Hotel,Pub/bar/nightclub,7843,5,,226153,5,,54.13656400000000,12328,056,commercial@barrowbc.gov.uk,Barrow-in-Furness,http://www.barrowbc.gov.uk,-3.23369600000000,LA14 4BG,2014-03-04,fhrs_5_en-GB,5,,FHRS,5
160007,Ormsgill Primary School,Mill Bank,Barrow-In-Furness,Cumbria,Ormsgill Primary School,School/college/university,7845,0,,225766,10,,54.60365676879883,13007,056,commercial@barrowbc.gov.uk,Barrow-in-Furness,http://www.barrowbc.gov.uk,-2.93555045127869,LA14 4AR,2014-04-24,fhrs_4_en-GB,4,,FHRS,5
160008,Ostley House,Abbey Road,Barrow-In-Furness,Cumbria,Ostley House,Hospitals/Childcare/Caring Premises,5,5,,226147,0,,54.13045900000000,20811,056,commercial@barrowbc.gov.uk,Barrow-in-Furness,http://www.barrowbc.gov.uk,-3.21173700000000,LA13 9JY,2014-01-14,fhrs_5_en-GB,5,,FHRS,0
160009,Hotel Imperial,Cornwallis Street,Barrow-In-Furness,Cumbria,O'Sullivans,Pub/bar/nightclub,7843,5,,225747,5,,54.11179500000000,9801,056,commercial@barrowbc.gov.uk,Barrow-in-Furness,http://www.barrowbc.gov.uk,-3.22907500000000,LA14 2LG,2012-07-10,fhrs_5_en-GB,5,,FHRS,5
160010,Our Lady Of The Rosary Roman Catholic School,Ulverston Road,Dalton-In-Furness,Cumbria,Our Lady of the Rosery Catholic Primary School,School/college/university,7845,5,,225941,5,,54.16090200000000,34007,056,commercial@barrowbc.gov.uk,Barrow-in-Furness,http://www.barrowbc.gov.uk,-3.16813600000000,LA15 8JH,2014-11-14,fhrs_5_en-GB,5,,FHRS,5
160011,,64-70 Scott Street,Barrow-In-Furness,Cumbria,Pastures New,Retailers - other,4613,5,,226023,0,,54.11397200000000,8302,056,commercial@barrowbc.gov.uk,Barrow-in-Furness,http://www.barrowbc.gov.uk,-3.22713500000000,LA14 1QE,2014-12-18,fhrs_5_en-GB,5,,FHRS,0
160012,,145-147 Cavendish Street,Barrow-In-Furness,Cumbria,Peacock Inn,Pub/bar/nightclub,7843,0,,225800,0,,54.11480300000000,17048,056,commercial@barrowbc.gov.uk,Barrow-in-Furness,http://www.barrowbc.gov.uk,-3.22407000000000,LA14 1DJ,2010-04-30,fhrs_5_en-GB,5,,FHRS,5
160013,,76 Ramsden Street,Barrow-In-Furness,Cumbria,Perrys,Retailers - other,4613,,,693515,,,54.11047200000000,14589,056,commercial@barrowbc.gov.uk,Barrow-in-Furness,http://www.barrowbc.gov.uk,-3.22126500000000,LA14 2DP,2012-02-27,fhrs_exempt_en-GB,Exempt,,FHRS,
160014,,36 Cavendish Street,Barrow-In-Furness,Cumbria,Pizza 4 U,Takeaway/sandwich shop,7844,20,,717369,10,,54.11365400000000,41582,056,commercial@barrowbc.gov.uk,Barrow-in-Furness,http://www.barrowbc.gov.uk,-3.22662100000000,LA14 1PZ,2014-10-30,fhrs_1_en-GB,1,,FHRS,15
160015,"Unit L, Hollywood Park",Hindpool Road,Barrow-In-Furness,Cumbria,Pizza Hut,Restaurant/Cafe/Canteen,1,0,,225973,0,,54.11479900000000,38145,056,commercial@barrowbc.gov.uk,Barrow-in-Furness,http://www.barrowbc.gov.uk,-3.23854200000000,LA14 2NA,2013-08-05,fhrs_5_en-GB,5,,FHRS,0
160016,,85 Duke Street,Askam-In-Furness,Cumbria,Polly's Plaice,Takeaway/sandwich shop,7844,0,,225697,0,,54.18653200000000,28511,056,commercial@barrowbc.gov.uk,Barrow-in-Furness,http://www.barrowbc.gov.uk,-3.20589800000000,LA16 7AD,2015-01-14,fhrs_5_en-GB,5,,FHRS,5
160017,,21 Ramsden Dock Road,Barrow-In-Furness,Cumbria,Post Office,Retailers - other,4613,,,693577,,,54.10138800000000,8208,056,commercial@barrowbc.gov.uk,Barrow-in-Furness,http://www.barrowbc.gov.uk,-3.22892000000000,LA14 2TR,2014-11-27,fhrs_exempt_en-GB,Exempt,,FHRS,
160018,,44 North Row,Barrow-In-Furness,Cumbria,Post Office,Retailers - other,4613,,,693551,,,54.11335400000000,38180,056,commercial@barrowbc.gov.uk,Barrow-in-Furness,http://www.barrowbc.gov.uk,-3.19020400000000,LA13 0HE,2014-12-17,fhrs_exempt_en-GB,Exempt,,FHRS,
160019,,124 Lesh Lane,Barrow-In-Furness,Cumbria,Post Office,Retailers - other,4613,5,,226017,5,,54.11765500000000,25349,056,commercial@barrowbc.gov.uk,Barrow-in-Furness,http://www.barrowbc.gov.uk,-3.20778300000000,LA13 9EQ,2014-12-08,fhrs_5_en-GB,5,,FHRS,0
160020,,76 Market Street,Dalton-In-Furness,Cumbria,Post Office,Retailers - other,4613,,,693539,,,54.15614400000000,31498,056,commercial@barrowbc.gov.uk,Barrow-in-Furness,http://www.barrowbc.gov.uk,-3.18320800000000,LA15 8AA,2014-11-14,fhrs_exempt_en-GB,Exempt,,FHRS,
160021,,8 Mikasa Street,Barrow-In-Furness,Cumbria,Post Office,Retailers - other,4613,,,693572,,,54.10340700000000,5618,056,commercial@barrowbc.gov.uk,Barrow-in-Furness,http://www.barrowbc.gov.uk,-3.24844900000000,LA14 3DP,2011-03-31,fhrs_exempt_en-GB,Exempt,,FHRS,
160022,,38-40 Middlefield,Barrow-In-Furness,Cumbria,Post Office,Retailers - other,4613,5,,225901,5,,54.13793900000000,37186,056,commercial@barrowbc.gov.uk,Barrow-in-Furness,http://www.barrowbc.gov.uk,-3.23105900000000,LA14 4BX,2014-04-24,fhrs_5_en-GB,5,,FHRS,5
160023,"Unit 1, Hindpool Retail Park",Hindpool Road,Barrow-In-Furness,Cumbria,Poundland,Retailers - supermarkets/hypermarkets,7840,0,,702320,0,,54.11411600000000,41551,056,commercial@barrowbc.gov.uk,Barrow-in-Furness,http://www.barrowbc.gov.uk,-3.23504900000000,LA14 2PD,2014-09-02,fhrs_5_en-GB,5,,FHRS,0
160024,,157-163 Dalton Road,Barrow-In-Furness,Cumbria,Poundland Ltd,Retailers - supermarkets/hypermarkets,7840,0,,225726,0,,54.11197400000000,40058,056,commercial@barrowbc.gov.uk,Barrow-in-Furness,http://www.barrowbc.gov.uk,-3.23787100000000,LA14 1PY,2013-07-08,fhrs_5_en-GB,5,,FHRS,0
160025,Poundstretcher,Walney Road,Barrow-In-Furness,Cumbria,Poundstretcher Ltd,Retailers - other,4613,0,,226145,0,,54.12095600000000,40212,056,commercial@barrowbc.gov.uk,Barrow-in-Furness,http://www.barrowbc.gov.uk,-3.23506900000000,LA14 5UN,2013-01-14,fhrs_5_en-GB,5,,FHRS,0
160026,,36 Ulverston Road,Dalton-In-Furness,Cumbria,Premier Off Licence,Retailers - other,4613,10,,225847,10,,54.15759500000000,34061,056,commercial@barrowbc.gov.uk,Barrow-in-Furness,http://www.barrowbc.gov.uk,-3.17540800000000,LA15 8EF,2013-07-25,fhrs_3_en-GB,3,,FHRS,5
160027,,1 Friars Lane,Barrow-In-Furness,Cumbria,Provincial Street Stores,Retailers - other,4613,10,,226099,10,,54.11327800000000,25186,056,commercial@barrowbc.gov.uk,Barrow-in-Furness,http://www.barrowbc.gov.uk,-3.20326600000000,LA13 9NP,2013-08-15,fhrs_3_en-GB,3,,FHRS,5
160028,Ormsgill Primary School,Mill Bank,Barrow-In-Furness,Cumbria,Quarry Brow Nursery,School/college/university,7845,0,,226116,5,,54.60365676879883,40277,056,commercial@barrowbc.gov.uk,Barrow-in-Furness,http://www.barrowbc.gov.uk,-2.93555045127869,LA14 4AR,2014-05-23,fhrs_5_en-GB,5,,FHRS,0
160029,Queens Arms,Biggar Village,Barrow-In-Furness,Cumbria,Queens Arms,Pub/bar/nightclub,7843,0,,226082,5,,54.08537900000000,40327,056,commercial@barrowbc.gov.uk,Barrow-in-Furness,http://www.barrowbc.gov.uk,-3.23699300000000,LA14 3YG,2013-03-07,fhrs_5_en-GB,5,,FHRS,0
160030,,15 Bath Street,Barrow-In-Furness,Cumbria,R and J Filipino Store,Retailers - other,4613,5,,225780,5,,54.11634800000000,8580,056,commercial@barrowbc.gov.uk,Barrow-in-Furness,http://www.barrowbc.gov.uk,-3.23208600000000,LA14 1NJ,2012-02-06,fhrs_5_en-GB,5,,FHRS,5
160031,,24 Ireleth Road,Ireleth,"Askam-In-Furness, Cumbria",Railway Inn,Pub/bar/nightclub,7843,5,,225854,5,,54.18874200000000,28515,056,commercial@barrowbc.gov.uk,Barrow-in-Furness,http://www.barrowbc.gov.uk,-3.20234600000000,LA16 7DJ,2014-11-24,fhrs_5_en-GB,5,,FHRS,5
160032,,6 London Road,Lindal-In-Furness,"Ulverston, Cumbria",Railway Inn,Pub/bar/nightclub,7843,5,,226115,5,,54.17067800000000,34462,056,commercial@barrowbc.gov.uk,Barrow-in-Furness,http://www.barrowbc.gov.uk,-3.14972200000000,LA12 0LL,2014-07-09,fhrs_5_en-GB,5,,FHRS,5
160033,Rampside Village Hall,Rampside,Barrow-In-Furness,Cumbria,Rampside Village Hall,Other catering premises,7841,10,,225924,5,,54.60365676879880,37700,056,commercial@barrowbc.gov.uk,Barrow-in-Furness,http://www.barrowbc.gov.uk,-2.93555045127869,LA13 0PY,2012-07-02,fhrs_4_en-GB,4,,FHRS,5
160034,,110 Rawlinson Street,Barrow-In-Furness,Cumbria,Rams Head Hotel,Pub/bar/nightclub,7843,0,,225717,0,,54.11204800000000,40473,056,commercial@barrowbc.gov.uk,Barrow-in-Furness,http://www.barrowbc.gov.uk,-3.22097500000000,LA14 2DG,2012-02-29,fhrs_5_en-GB,5,,FHRS,0
160035,Ramsden Infant School,Thwaite Street,Barrow-In-Furness,Cumbria,Ramsden Infants School,School/college/university,7845,0,,225940,5,,54.11537600000000,16935,056,commercial@barrowbc.gov.uk,Barrow-in-Furness,http://www.barrowbc.gov.uk,-3.22338300000000,LA14 1AN,2014-04-25,fhrs_5_en-GB,5,,FHRS,5
160036,Ramsey Park,Ramsey Park,Barrow-In-Furness,Cumbria,Ramsey Park Kitchen,Hospitals/Childcare/Caring Premises,5,10,,693547,10,,,37002,056,commercial@barrowbc.gov.uk,Barrow-in-Furness,http://www.barrowbc.gov.uk,,,2014-06-13,fhrs_3_en-GB,3,,FHRS,5
160037,,5 Market Street,Dalton-In-Furness,Cumbria,Red Lion Hotel,Pub/bar/nightclub,7843,0,,225922,10,,54.15592900000000,30917,056,commercial@barrowbc.gov.uk,Barrow-in-Furness,http://www.barrowbc.gov.uk,-3.18496300000000,LA15 8AE,2013-07-10,fhrs_4_en-GB,4,,FHRS,10
160038,Red River Club,Flass Lane,Barrow-In-Furness,Cumbria,Red River Club,Pub/bar/nightclub,7843,0,,225838,0,,54.11792800000000,23661,056,commercial@barrowbc.gov.uk,Barrow-in-Furness,http://www.barrowbc.gov.uk,-3.19755600000000,LA13 0BJ,2014-06-18,fhrs_5_en-GB,5,,FHRS,0
160039,Furness College,Channelside,Barrow-In-Furness,Cumbria,Refectory,School/college/university,7845,0,,226036,0,,54.11649100000000,34999,056,commercial@barrowbc.gov.uk,Barrow-in-Furness,http://www.barrowbc.gov.uk,-3.24177500000000,LA14 2PJ,2013-03-11,fhrs_5_en-GB,5,,FHRS,0
160040,"Stalls 7 And  8 Meat Hall, Bar",Duke Street,Barrow-In-Furness,Cumbria,Rhodes Butchers,Retailers - other,4613,5,,225729,0,,,37935,056,commercial@barrowbc.gov.uk,Barrow-in-Furness,http://www.barrowbc.gov.uk,,,2014-03-05,fhrs_5_en-GB,5,,FHRS,5
160041,Abbey Meadow Nursing Home,Duchy Court,Barrow-In-Furness,Cumbria,Risedale at Abbey Meadow,Hospitals/Childcare/Caring Premises,5,5,,225749,5,,54.12097000000000,39811,056,commercial@barrowbc.gov.uk,Barrow-in-Furness,http://www.barrowbc.gov.uk,-3.19897500000000,LA13 0BF,2015-01-12,fhrs_5_en-GB,5,,FHRS,5
160042,Risedale At Lonsdale,Albert Street,Barrow-In-Furness,Cumbria,Risedale at Lonsdale Nursing Home/ Risedale at St Georges Nursing Home,Hospitals/Childcare/Caring Premises,5,5,,225707,0,,54.10928900000000,13590,056,commercial@barrowbc.gov.uk,Barrow-in-Furness,http://www.barrowbc.gov.uk,-3.22187300000000,LA14 2JB,2014-11-24,fhrs_5_en-GB,5,,FHRS,0
160043,Risedale Gospel Hall,Risedale Road,Barrow-In-Furness,Cumbria,Risedale Gospel Hall,Other catering premises,7841,,,693517,,,54.11390100000000,15637,056,commercial@barrowbc.gov.uk,Barrow-in-Furness,http://www.barrowbc.gov.uk,-3.21021400000000,LA13 9QZ,2012-06-27,fhrs_exempt_en-GB,Exempt,,FHRS,
160044,Risedale Retirement Home,Abbey Road,Barrow-In-Furness,Cumbria,Risedale Retirement Home,Hospitals/Childcare/Caring Premises,5,0,,226070,0,,54.12379600000000,18618,056,commercial@barrowbc.gov.uk,Barrow-in-Furness,http://www.barrowbc.gov.uk,-3.21567400000000,LA14 5LE,2014-05-27,fhrs_5_en-GB,5,,FHRS,5
160045,Royal National Lifeboat Instit,Piel Street,Roa Island,"Barrow-In-Furness, Cumbria",RNLI Souvenirs,Retailers - other,4613,,,693560,,,54.07371700000000,39489,056,commercial@barrowbc.gov.uk,Barrow-in-Furness,http://www.barrowbc.gov.uk,-3.17461100000000,LA13 0QQ,,fhrs_exempt_en-GB,Exempt,,FHRS,
160046,Roa Island Boating Club Ltd,Roa Island,Barrow-In-Furness,Cumbria,Roa Island Boating Club Ltd,Pub/bar/nightclub,7843,5,,225934,0,,54.07460300000000,31751,056,commercial@barrowbc.gov.uk,Barrow-in-Furness,http://www.barrowbc.gov.uk,-3.17500300000000,LA13 0QL,2014-12-12,fhrs_5_en-GB,5,,FHRS,0
160047,Robert Mcbride Ltd West Side,Park Road,Barrow-In-Furness,Cumbria,Robert McBride Ltd,Restaurant/Cafe/Canteen,1,0,,585516,0,,54.13671200000000,41466,056,commercial@barrowbc.gov.uk,Barrow-in-Furness,http://www.barrowbc.gov.uk,-3.23503200000000,LA14 4BN,2013-08-09,fhrs_5_en-GB,5,,FHRS,5
160048,,3 Island Road,Barrow-In-Furness,Cumbria,Roberts Newsagents,Retailers - other,4613,5,,226056,5,,54.10338400000000,6821,056,commercial@barrowbc.gov.uk,Barrow-in-Furness,http://www.barrowbc.gov.uk,-3.22890300000000,LA14 2QN,2015-01-13,fhrs_5_en-GB,5,,FHRS,5
160049,,4-6 Crellin Street,Barrow-In-Furness,Cumbria,Robin Hood Inn,Pub/bar/nightclub,7843,5,,225886,5,,54.11359700000000,17053,056,commercial@barrowbc.gov.uk,Barrow-in-Furness,http://www.barrowbc.gov.uk,-3.22427900000000,LA14 1DU,2012-06-25,fhrs_5_en-GB,5,,FHRS,5
160050,Rock Lea Home,Abbey Road,Barrow-In-Furness,Cumbria,Rock Lea Care Home,Hospitals/Childcare/Caring Premises,5,5,,225814,0,,54.13268900000000,26898,056,commercial@barrowbc.gov.uk,Barrow-in-Furness,http://www.barrowbc.gov.uk,-3.20987400000000,LA13 9JS,2014-06-12,fhrs_5_en-GB,5,,FHRS,5
160051,Roose School,North Row,Barrow-In-Furness,Cumbria,Roose Community Primary School,School/college/university,7845,0,,226044,0,,54.11374900000000,29562,056,commercial@barrowbc.gov.uk,Barrow-in-Furness,http://www.barrowbc.gov.uk,-3.18850100000000,LA13 0HF,2013-07-10,fhrs_5_en-GB,5,,FHRS,0
160052,Roose Conservative Club,Leece Lane,Barrow-In-Furness,Cumbria,Roose Conservative Club,Pub/bar/nightclub,7843,5,,225974,5,,54.11425800000000,34915,056,commercial@barrowbc.gov.uk,Barrow-in-Furness,http://www.barrowbc.gov.uk,-3.18967900000000,LA13 0EB,2008-05-07,fhrs_5_en-GB,5,,FHRS,5
160053,Roosegate Community Centre,Longway,Barrow-In-Furness,Cumbria,Roosegate Community Centre,Retailers - other,4613,5,,667893,0,,,38181,056,commercial@barrowbc.gov.uk,Barrow-in-Furness,http://www.barrowbc.gov.uk,,,2014-02-19,fhrs_5_en-GB,5,,FHRS,0
160054,,12-14 Anchor Road,Barrow-In-Furness,Cumbria,Royal Hotel,Hotel/bed & breakfast/guest house,7842,10,,585517,10,,54.10231000000000,41467,056,commercial@barrowbc.gov.uk,Barrow-in-Furness,http://www.barrowbc.gov.uk,-3.22936000000000,LA14 2QW,2013-09-02,fhrs_3_en-GB,3,,FHRS,10
160055,,49 Crellin Street,Barrow-In-Furness,Cumbria,Royal Istanbul,Takeaway/sandwich shop,7844,10,,225999,5,,54.11419000000000,39898,056,commercial@barrowbc.gov.uk,Barrow-in-Furness,http://www.barrowbc.gov.uk,-3.22340900000000,LA14 1DS,2014-02-18,fhrs_3_en-GB,3,,FHRS,10
160056,,72 Dalton Road,Barrow-In-Furness,Cumbria,Ruby,Takeaway/sandwich shop,7844,10,,225775,0,,54.11155500000000,40800,056,commercial@barrowbc.gov.uk,Barrow-in-Furness,http://www.barrowbc.gov.uk,-3.22530500000000,LA14 1JB,2014-02-11,fhrs_4_en-GB,4,,FHRS,0
160057,,,,,Ruths Rolls,Retailers - other,4613,0,,577447,5,,,1937,056,commercial@barrowbc.gov.uk,Barrow-in-Furness,http://www.barrowbc.gov.uk,,,2013-07-17,fhrs_5_en-GB,5,,FHRS,0
160058,Sacred Heart Roman Catholic Primary School,Foundry Street,Barrow-In-Furness,Cumbria,Sacred Heart Primary School Kitchen,School/college/university,7845,5,,225962,0,,54.11008100000000,38189,056,commercial@barrowbc.gov.uk,Barrow-in-Furness,http://www.barrowbc.gov.uk,-3.21463000000000,LA14 2BA,2014-03-12,fhrs_5_en-GB,5,,FHRS,0
160059,,79-81 Cavendish Street,Barrow-In-Furness,Cumbria,Salvana's,Restaurant/Cafe/Canteen,1,5,,225920,10,,54.11388600000000,9309,056,commercial@barrowbc.gov.uk,Barrow-in-Furness,http://www.barrowbc.gov.uk,-3.22679600000000,LA14 1QD,2014-07-28,fhrs_4_en-GB,4,,FHRS,5
160060,Citadel,Abbey Road,Barrow-In-Furness,Cumbria,Salvation Army,Other catering premises,7841,0,,225678,5,,54.11611500000000,38191,056,commercial@barrowbc.gov.uk,Barrow-in-Furness,http://www.barrowbc.gov.uk,-3.22853000000000,LA14 5UD,2013-06-25,fhrs_5_en-GB,5,,FHRS,5
160061,Conservative Association,Abbey Road,Barrow-In-Furness,Cumbria,Sanctuary,Pub/bar/nightclub,7843,5,,225968,0,,54.11434300000000,40681,056,commercial@barrowbc.gov.uk,Barrow-in-Furness,http://www.barrowbc.gov.uk,-3.23043600000000,LA14 1LG,2013-01-22,fhrs_5_en-GB,5,,FHRS,0
160062,,38-40 Middlefield,Barrow-In-Furness,Cumbria,Satty's-faction,Takeaway/sandwich shop,7844,0,,375496,5,,54.13793900000000,40811,056,commercial@barrowbc.gov.uk,Barrow-in-Furness,http://www.barrowbc.gov.uk,-3.23105900000000,LA14 4BX,2014-04-24,fhrs_5_en-GB,5,,FHRS,0
160063,,103-105 Dalton Road,Barrow-In-Furness,Cumbria,Savers Health and Beauty,Retailers - other,4613,,,693586,,,54.11251200000000,9328,056,commercial@barrowbc.gov.uk,Barrow-in-Furness,http://www.barrowbc.gov.uk,-3.22573100000000,LA14 1HZ,2012-06-26,fhrs_exempt_en-GB,Exempt,,FHRS,
160064,,12 Station Road,Dalton-In-Furness,Cumbria,Sea Breeze Fish Bar,Takeaway/sandwich shop,7844,5,,225739,5,,54.15592700000000,34060,056,commercial@barrowbc.gov.uk,Barrow-in-Furness,http://www.barrowbc.gov.uk,-3.18055200000000,LA15 8DW,2013-08-01,fhrs_5_en-GB,5,,FHRS,5
160065,,120 Church Street,Barrow-In-Furness,Cumbria,Sea Breeze Fish Cafe,Takeaway/sandwich shop,7844,5,,225857,0,,54.11122400000000,8376,056,commercial@barrowbc.gov.uk,Barrow-in-Furness,http://www.barrowbc.gov.uk,-3.22509600000000,LA14 1HA,2014-11-20,fhrs_5_en-GB,5,,FHRS,5
160066,Seymour Court,Elizabethan Way,Barrow-In-Furness,Cumbria,Seymour Court Luncheon Club,Other catering premises,7841,10,,226144,5,,54.11970500000000,38209,056,commercial@barrowbc.gov.uk,Barrow-in-Furness,http://www.barrowbc.gov.uk,-3.22890600000000,,2014-07-29,fhrs_4_en-GB,4,,FHRS,0
160067,Shell Lakeland Garage,Abbey Road,Barrow-In-Furness,Cumbria,Shell Lakeland,Retailers - other,4613,0,,225752,0,,54.12728400000000,18077,056,commercial@barrowbc.gov.uk,Barrow-in-Furness,http://www.barrowbc.gov.uk,-3.21465900000000,LA14 5LF,2013-07-10,fhrs_5_en-GB,5,,FHRS,0
160068,,39 Ainslie Street,Barrow-In-Furness,Cumbria,Shengs Chinese Take Away,Takeaway/sandwich shop,7844,5,,225712,5,,54.12083400000000,20680,056,commercial@barrowbc.gov.uk,Barrow-in-Furness,http://www.barrowbc.gov.uk,-3.22404900000000,LA14 5AY,2013-08-19,fhrs_5_en-GB,5,,FHRS,5
160069,,4 West Mount,Barrow-In-Furness,Cumbria,Shepherds Lodge,Hospitals/Childcare/Caring Premises,5,5,,226131,5,,54.12596000000000,40228,056,commercial@barrowbc.gov.uk,Barrow-in-Furness,http://www.barrowbc.gov.uk,-3.21582900000000,LA14 5LQ,2013-06-26,fhrs_5_en-GB,5,,FHRS,5
160070,Ship Inn,Piel Island,Barrow-In-Furness,Cumbria,Ship Inn,Pub/bar/nightclub,7843,5,,226139,5,,54.06519700000000,31708,056,commercial@barrowbc.gov.uk,Barrow-in-Furness,http://www.barrowbc.gov.uk,-3.17452300000000,LA13 0QN,2013-07-24,fhrs_5_en-GB,5,,FHRS,5
160071,"Stalls 115 And 116, Barrow Mar",Duke Street,Barrow-In-Furness,Cumbria,Sillfield Farm Products,Retailers - other,4613,0,,225734,0,,54.11108016967773,38132,056,commercial@barrowbc.gov.uk,Barrow-in-Furness,http://www.barrowbc.gov.uk,-3.22584009170532,,2014-03-05,fhrs_5_en-GB,5,,FHRS,5
160072,,283 Rawlinson Street,Barrow-In-Furness,Cumbria,Singapore George,Takeaway/sandwich shop,7844,5,,225925,10,,54.11527500000000,38437,056,commercial@barrowbc.gov.uk,Barrow-in-Furness,http://www.barrowbc.gov.uk,-3.22359400000000,LA14 1DH,2014-08-27,fhrs_3_en-GB,3,,FHRS,10
160073,,50 Cavendish Street,Barrow-In-Furness,Cumbria,Sizzle Inn,Takeaway/sandwich shop,7844,0,,226120,5,,54.11362600000000,8795,056,commercial@barrowbc.gov.uk,Barrow-in-Furness,http://www.barrowbc.gov.uk,-3.22671200000000,LA14 1PZ,2014-02-11,fhrs_5_en-GB,5,,FHRS,5
160074,,146 Market Street,Dalton-In-Furness,Cumbria,Sizzle Inn,Takeaway/sandwich shop,7844,10,,225864,5,,54.15697700000000,33364,056,commercial@barrowbc.gov.uk,Barrow-in-Furness,http://www.barrowbc.gov.uk,-3.17796400000000,LA15 8RQ,2014-03-06,fhrs_4_en-GB,4,,FHRS,5
160075,,52 Suffolk Street,Barrow-In-Furness,Cumbria,SJ Watts,Retailers - other,4613,,,693556,,,54.11346100000000,38934,056,commercial@barrowbc.gov.uk,Barrow-in-Furness,http://www.barrowbc.gov.uk,-3.21193000000000,LA13 9QH,2011-01-17,fhrs_exempt_en-GB,Exempt,,FHRS,
160076,Scorpio,Lawson Street,Barrow-In-Furness,Cumbria,SKINT,Pub/bar/nightclub,7843,5,,225869,5,,54.11127700000000,8271,056,commercial@barrowbc.gov.uk,Barrow-in-Furness,http://www.barrowbc.gov.uk,-3.23051300000000,LA14 2NU,2012-07-10,fhrs_5_en-GB,5,,FHRS,5
160077,,3 Slater Street,Barrow-In-Furness,Cumbria,Slater Street News,Retailers - other,4613,,,693584,,,54.11373800000000,8996,056,commercial@barrowbc.gov.uk,Barrow-in-Furness,http://www.barrowbc.gov.uk,-3.22982100000000,LA14 1SJ,2012-06-22,fhrs_exempt_en-GB,Exempt,,FHRS,
160078,,36 Dalton Road,Barrow-In-Furness,Cumbria,Sophias,Pub/bar/nightclub,7843,0,,225700,0,,54.11103900000000,40064,056,commercial@barrowbc.gov.uk,Barrow-in-Furness,http://www.barrowbc.gov.uk,-3.22561100000000,LA14 1HY,2012-02-27,fhrs_5_en-GB,5,,FHRS,0
160079,South End Caravan Park,South End Walney,Barrow-In-Furness,Cumbria,South End Holiday Caravan Site,Pub/bar/nightclub,7843,0,,225773,5,,54.04851100000000,13578,056,commercial@barrowbc.gov.uk,Barrow-in-Furness,http://www.barrowbc.gov.uk,-3.19951400000000,LA14 3YQ,2013-07-17,fhrs_5_en-GB,5,,FHRS,0
160080,South Lakes Wild Animal Park,Broughton Road,Dalton-In-Furness,Cumbria,South Lakes Wild Animal Park Cafe,Restaurant/Cafe/Canteen,1,10,,226055,5,,54.16834900000000,34089,056,commercial@barrowbc.gov.uk,Barrow-in-Furness,http://www.barrowbc.gov.uk,-3.17317100000000,LA15 8JR,2014-12-18,fhrs_4_en-GB,4,,FHRS,0
160081,South Walney Junior School,Amphitrite Street South,Barrow-In-Furness,Cumbria,South Walney Junior School,School/college/university,7845,0,,225992,0,,54.10265200000000,5614,056,commercial@barrowbc.gov.uk,Barrow-in-Furness,http://www.barrowbc.gov.uk,-3.24761600000000,LA14 3EG,2013-06-11,fhrs_5_en-GB,5,,FHRS,0
160082,,110 Mill Lane,Barrow-In-Furness,Cumbria,Spar Store,Retailers - other,4613,5,,226162,5,,54.11112800000000,3133,056,commercial@barrowbc.gov.uk,Barrow-in-Furness,http://www.barrowbc.gov.uk,-3.26050600000000,LA14 3NT,2011-01-18,fhrs_5_en-GB,5,,FHRS,0
160083,St Bernards Roman Catholic School,Rating Lane,Barrow-In-Furness,Cumbria,St Bernards Catholic High School,School/college/university,7845,0,,225807,5,,54.12961300000000,26936,056,commercial@barrowbc.gov.uk,Barrow-in-Furness,http://www.barrowbc.gov.uk,-3.20021900000000,LA13 9LE,2014-05-15,fhrs_5_en-GB,5,,FHRS,5
160084,St Columbas Rc School,Church Lane,Barrow-In-Furness,Cumbria,St Columbas RC School Kitchen,School/college/university,7845,0,,225928,0,,54.10564400000000,5610,056,commercial@barrowbc.gov.uk,Barrow-in-Furness,http://www.barrowbc.gov.uk,-3.24946500000000,LA14 3AD,2015-01-15,fhrs_5_en-GB,5,,FHRS,0
160085,St Georges Church Of England Primary School And   nursery,School Street,Barrow-In-Furness,Cumbria,St Georges C of E School,School/college/university,7845,0,,226034,5,,54.10897600000000,38216,056,commercial@barrowbc.gov.uk,Barrow-in-Furness,http://www.barrowbc.gov.uk,-3.21901900000000,LA14 2DX,2014-05-07,fhrs_5_en-GB,5,,FHRS,0
160086,,53 St Lukes Street,Barrow-In-Furness,Cumbria,St Lukes St Newsagents,Retailers - other,4613,,,693531,,,54.11217200000000,25359,056,commercial@barrowbc.gov.uk,Barrow-in-Furness,http://www.barrowbc.gov.uk,-3.20600200000000,LA13 9RR,2013-01-30,fhrs_exempt_en-GB,Exempt,,FHRS,
160087,,52 St Lukes Street,Barrow-In-Furness,Cumbria,St Lukes Street Chippy Ltd,Takeaway/sandwich shop,7844,5,,226066,5,,54.11217200000000,25251,056,commercial@barrowbc.gov.uk,Barrow-in-Furness,http://www.barrowbc.gov.uk,-3.20600200000000,LA13 9RR,2014-02-18,fhrs_5_en-GB,5,,FHRS,5
160088,St Marks Church,Buccleuch Street,Barrow-In-Furness,Cumbria,St Marks Church,Restaurant/Cafe/Canteen,1,0,,225688,0,,54.11431900000000,37616,056,commercial@barrowbc.gov.uk,Barrow-in-Furness,http://www.barrowbc.gov.uk,-3.22799600000000,,2014-07-22,fhrs_5_en-GB,5,,FHRS,0
160089,St Pius X Rc School,Schneider Road,Barrow-In-Furness,Cumbria,St Pius X Rc School,School/college/university,7845,0,,226025,0,,54.13235000000000,13006,056,commercial@barrowbc.gov.uk,Barrow-in-Furness,http://www.barrowbc.gov.uk,-3.23355600000000,LA14 4AA,2013-06-25,fhrs_5_en-GB,5,,FHRS,5
160090,St James's Junior Ce School,Blake Street,Barrow-In-Furness,Cumbria,St. James C of E Junior School,School/college/university,7845,5,,226148,0,,54.11798700000000,36140,056,commercial@barrowbc.gov.uk,Barrow-in-Furness,http://www.barrowbc.gov.uk,-3.23530200000000,LA14 1NY,2014-12-02,fhrs_5_en-GB,5,,FHRS,0
160091,St Marys Centre,Church Lane,Barrow-In-Furness,Cumbria,St. Marys Centre,Other catering premises,7841,5,,226150,0,,54.10600800000000,38218,056,commercial@barrowbc.gov.uk,Barrow-in-Furness,http://www.barrowbc.gov.uk,-3.24867200000000,,2014-08-20,fhrs_5_en-GB,5,,FHRS,0
160092,St Matthews Church Hall,Highfield Road,Barrow-In-Furness,Cumbria,St. Matthews Community Halls,Other catering premises,7841,5,,226071,0,,54.12447700000000,35803,056,commercial@barrowbc.gov.uk,Barrow-in-Furness,http://www.barrowbc.gov.uk,-3.22438000000000,,2014-07-07,fhrs_5_en-GB,5,,FHRS,5
160093,St Patricks Catholic Club,Farm Street,Barrow-In-Furness,Cumbria,St. Patricks Catholic Club,Pub/bar/nightclub,7843,5,,225900,5,,54.10511900000000,8206,056,commercial@barrowbc.gov.uk,Barrow-in-Furness,http://www.barrowbc.gov.uk,-3.22978000000000,LA14 2RU,2005-11-24,fhrs_5_en-GB,5,,FHRS,5
160094,,80 Greystone Lane,Dalton-In-Furness,"Barrow-In-Furness, Cumbria",Staveley House,Hospitals/Childcare/Caring Premises,5,0,,225768,5,,54.15111500000000,32628,056,commercial@barrowbc.gov.uk,Barrow-in-Furness,http://www.barrowbc.gov.uk,-3.17534700000000,LA15 8QQ,2014-06-04,fhrs_5_en-GB,5,,FHRS,5
160095,Stollers Furniture World,Walney Road,Barrow-In-Furness,Cumbria,Stollers Furniture World,Restaurant/Cafe/Canteen,1,0,,225964,5,,54.12095600000000,12309,056,commercial@barrowbc.gov.uk,Barrow-in-Furness,http://www.barrowbc.gov.uk,-3.23506900000000,LA14 5UN,2014-05-30,fhrs_5_en-GB,5,,FHRS,5
160096,,228 Abbey Road,Barrow-In-Furness,Cumbria,Strawberry Hotel,Pub/bar/nightclub,7843,5,,225963,0,,54.12695100000000,20758,056,commercial@barrowbc.gov.uk,Barrow-in-Furness,http://www.barrowbc.gov.uk,-3.21380800000000,LA14 5LD,2013-11-29,fhrs_5_en-GB,5,,FHRS,0
160097,,207 Dalton Road,Barrow-In-Furness,Cumbria,Subway,Takeaway/sandwich shop,7844,0,,226007,5,,54.11493400000000,39188,056,commercial@barrowbc.gov.uk,Barrow-in-Furness,http://www.barrowbc.gov.uk,-3.22714900000000,LA14 1PH,2013-08-02,fhrs_5_en-GB,5,,FHRS,0
160098,,,,,Sugar-Pie,Other catering premises,7841,0,,225709,0,,,21868,056,commercial@barrowbc.gov.uk,Barrow-in-Furness,http://www.barrowbc.gov.uk,,,2015-01-14,fhrs_5_en-GB,5,,FHRS,0
160099,,153-155 Dalton Road,Barrow-In-Furness,Cumbria,Superdrug,Retailers - supermarkets/hypermarkets,7840,,,693585,,,54.11374400000000,9325,056,commercial@barrowbc.gov.uk,Barrow-in-Furness,http://www.barrowbc.gov.uk,-3.22570600000000,LA14 1PX,2013-06-28,fhrs_exempt_en-GB,Exempt,,FHRS,
160100,,,,,Surarak Green,Other catering premises,7841,5,,577448,10,,,2343,056,commercial@barrowbc.gov.uk,Barrow-in-Furness,http://www.barrowbc.gov.uk,,,2013-07-31,fhrs_4_en-GB,4,,FHRS,5
160101,,90 Roose Road,Barrow-In-Furness,Cumbria,Tagi's Buns Ltd,Retailers - other,4613,0,,680240,5,,54.11061000000000,41536,056,commercial@barrowbc.gov.uk,Barrow-in-Furness,http://www.barrowbc.gov.uk,-3.20670700000000,LA13 9RH,2014-06-23,fhrs_5_en-GB,5,,FHRS,5
160102,Tally Ho,Schneider Road,Barrow-In-Furness,Cumbria,Tally Ho,Pub/bar/nightclub,7843,5,,683600,10,,54.12517900000000,41539,056,commercial@barrowbc.gov.uk,Barrow-in-Furness,http://www.barrowbc.gov.uk,-3.23080300000000,LA14 5DN,2014-07-01,fhrs_4_en-GB,4,,FHRS,5
160103,Tarn House Hostel,Mill Lane,Barrow-In-Furness,Cumbria,Tarn House Hostel,Hospitals/Childcare/Caring Premises,5,5,,226061,0,,54.11382300000000,5649,056,commercial@barrowbc.gov.uk,Barrow-in-Furness,http://www.barrowbc.gov.uk,-3.25376500000000,LA14 3XX,2015-01-20,fhrs_5_en-GB,5,,FHRS,0
160104,The Vulcan,Duke Street,Askam-In-Furness,Cumbria,Taste of India,Restaurant/Cafe/Canteen,1,10,,482778,0,,54.18653200000000,40670,056,commercial@barrowbc.gov.uk,Barrow-in-Furness,http://www.barrowbc.gov.uk,-3.20589800000000,LA16 7AD,2013-03-18,fhrs_4_en-GB,4,,FHRS,5
160105,"Tesco Stores, Corner House Par",Hindpool Road,Barrow-In-Furness,Cumbria,Tesco Cafe,Restaurant/Cafe/Canteen,1,5,,226024,5,,54.11227400000000,38480,056,commercial@barrowbc.gov.uk,Barrow-in-Furness,http://www.barrowbc.gov.uk,-3.23499400000000,LA14 2NE,2013-07-10,fhrs_5_en-GB,5,,FHRS,5
160106,,331 Rawlinson Street,Barrow-In-Furness,Cumbria,TESCO Express,Retailers - supermarkets/hypermarkets,7840,0,,513910,0,,54.11617400000000,40829,056,commercial@barrowbc.gov.uk,Barrow-in-Furness,http://www.barrowbc.gov.uk,-3.22446200000000,LA14 1BS,2013-01-28,fhrs_5_en-GB,5,,FHRS,0
160107,"Tesco Stores, Corner House Par",Hindpool Road,Barrow-In-Furness,Cumbria,Tesco EXTRA Filling Station (3936),Retailers - other,4613,,,693553,,,54.11227400000000,38481,056,commercial@barrowbc.gov.uk,Barrow-in-Furness,http://www.barrowbc.gov.uk,-3.23499400000000,LA14 2NE,2011-01-17,fhrs_exempt_en-GB,Exempt,,FHRS,
160108,"Tesco Stores, Corner House Par",Hindpool Road,Barrow-In-Furness,Cumbria,Tesco EXTRA Superstore,Retailers - supermarkets/hypermarkets,7840,0,,226009,5,,54.11227400000000,9768,056,commercial@barrowbc.gov.uk,Barrow-in-Furness,http://www.barrowbc.gov.uk,-3.23499400000000,LA14 2NE,2014-09-10,fhrs_5_en-GB,5,,FHRS,5
160109,Tesco,Flass Lane,Barrow-In-Furness,Cumbria,Tesco Metro,Retailers - supermarkets/hypermarkets,7840,0,,225929,0,,54.11111700000000,39777,056,commercial@barrowbc.gov.uk,Barrow-in-Furness,http://www.barrowbc.gov.uk,-3.20103100000000,LA13 0DZ,2014-11-11,fhrs_5_en-GB,5,,FHRS,5
160110,,37-39 Ocean Road,Barrow-In-Furness,Cumbria,Tesco Stores Ltd,Retailers - supermarkets/hypermarkets,7840,0,,530205,0,,54.10138800000000,40847,056,commercial@barrowbc.gov.uk,Barrow-in-Furness,http://www.barrowbc.gov.uk,-3.24990300000000,LA14 3DD,2013-03-07,fhrs_5_en-GB,5,,FHRS,0
160111,,90 Sutherland Street,Barrow-In-Furness,Cumbria,The Bakery,Retailers - other,4613,5,,225732,5,,54.11227500000000,17886,056,commercial@barrowbc.gov.uk,Barrow-in-Furness,http://www.barrowbc.gov.uk,-3.21900800000000,LA14 2BJ,2014-01-14,fhrs_5_en-GB,5,,FHRS,5
160112,,48 Dartmouth Street,Barrow-In-Furness,Cumbria,The Bakery,Retailers - other,4613,5,,226084,10,,54.10504200000000,5639,056,commercial@barrowbc.gov.uk,Barrow-in-Furness,http://www.barrowbc.gov.uk,-3.25117500000000,LA14 3AS,2015-01-15,fhrs_4_en-GB,4,,FHRS,5
160113,,46 Middlefield,Barrow-In-Furness,Cumbria,The Best Kebab House,Takeaway/sandwich shop,7844,5,,225708,5,,54.13793900000000,13270,056,commercial@barrowbc.gov.uk,Barrow-in-Furness,http://www.barrowbc.gov.uk,-3.23105900000000,LA14 4BX,2014-02-18,fhrs_4_en-GB,4,,FHRS,10
160114,Station View,Holker Street,Barrow-In-Furness,Cumbria,The Bistro,Restaurant/Cafe/Canteen,1,0,,226089,0,,54.12136100000000,40661,056,commercial@barrowbc.gov.uk,Barrow-in-Furness,http://www.barrowbc.gov.uk,-3.23231500000000,,2014-06-17,fhrs_5_en-GB,5,,FHRS,5
160115,,57 Crellin Street,Barrow-In-Furness,Cumbria,The Blue Lamp,Pub/bar/nightclub,7843,,,226032,,,54.11419000000000,17054,056,commercial@barrowbc.gov.uk,Barrow-in-Furness,http://www.barrowbc.gov.uk,-3.22340900000000,LA14 1DS,2013-11-15,fhrs_3_en-GB,3,,FHRS,
160116,The Bosuns Locker,Piel Street,Roa Island,"Barrow-In-Furness, Cumbria",The Bosuns Locker,Restaurant/Cafe/Canteen,1,5,,226063,5,,54.07460300000000,31753,056,commercial@barrowbc.gov.uk,Barrow-in-Furness,http://www.barrowbc.gov.uk,-3.17500300000000,LA13 0QL,2013-07-24,fhrs_5_en-GB,5,,FHRS,5
160117,,109-111 Cavendish Street,Barrow-In-Furness,Cumbria,The Brewery Inn,Pub/bar/nightclub,7843,10,,225944,5,,54.11454300000000,17045,056,commercial@barrowbc.gov.uk,Barrow-in-Furness,http://www.barrowbc.gov.uk,-3.22493400000000,LA14 1DL,2012-06-26,fhrs_4_en-GB,4,,FHRS,5
160118,,59-61 Duke Street,Barrow-In-Furness,Cumbria,The Buddha Lounge Bar,Restaurant/Cafe/Canteen,1,5,,717365,10,,54.11242300000000,41544,056,commercial@barrowbc.gov.uk,Barrow-in-Furness,http://www.barrowbc.gov.uk,-3.22923100000000,LA14 1RW,2014-10-27,fhrs_4_en-GB,4,,FHRS,5
160119,,,,,The Cake District,Retailers - other,4613,5,,568491,5,,,36300,056,commercial@barrowbc.gov.uk,Barrow-in-Furness,http://www.barrowbc.gov.uk,,,2013-06-19,fhrs_5_en-GB,5,,FHRS,5
160120,,,,,The Cake Fairy,Retailers - other,4613,0,,615492,5,,,4409,056,commercial@barrowbc.gov.uk,Barrow-in-Furness,http://www.barrowbc.gov.uk,,,2013-08-14,fhrs_5_en-GB,5,,FHRS,0
160121,,9-10 Market Place,Dalton-In-Furness,Cumbria,The Castle Chinese Takeaway,Takeaway/sandwich shop,7844,0,,225764,0,,54.15565800000000,30275,056,commercial@barrowbc.gov.uk,Barrow-in-Furness,http://www.barrowbc.gov.uk,-3.18690000000000,LA15 8BB,2014-10-30,fhrs_5_en-GB,5,,FHRS,0
160122,,97 Rawlinson Street,Barrow-In-Furness,Cumbria,The Catch Fish & Chip Shop,Takeaway/sandwich shop,7844,0,,226118,0,,54.11053800000000,17929,056,commercial@barrowbc.gov.uk,Barrow-in-Furness,http://www.barrowbc.gov.uk,-3.21926300000000,LA14 2DT,2014-11-26,fhrs_5_en-GB,5,,FHRS,0
160123,,,,,The Chuck Wagon,Mobile caterer,7846,0,,226076,0,,,31849,056,commercial@barrowbc.gov.uk,Barrow-in-Furness,http://www.barrowbc.gov.uk,,,2013-03-05,fhrs_5_en-GB,5,,FHRS,0
160124,,41 Amphitrite Street,Barrow-In-Furness,Cumbria,The Co-operative Food,Retailers - supermarkets/hypermarkets,7840,0,,226102,0,,54.10422000000000,4049,056,commercial@barrowbc.gov.uk,Barrow-in-Furness,http://www.barrowbc.gov.uk,-3.25156300000000,LA14 3AR,2011-10-06,fhrs_5_en-GB,5,,FHRS,0
160125,,97-101 Oxford Street,Barrow-In-Furness,Cumbria,The Co-operative Food,Retailers - supermarkets/hypermarkets,7840,0,,225810,0,,54.12378400000000,20552,056,commercial@barrowbc.gov.uk,Barrow-in-Furness,http://www.barrowbc.gov.uk,-3.22217700000000,LA14 5QJ,2014-12-04,fhrs_4_en-GB,4,,FHRS,10
160126,Cumbrian Cooperative Society,Harrel Lane,Barrow-In-Furness,Cumbria,The Co-operative Food,Retailers - supermarkets/hypermarkets,7840,5,,225939,5,,54.12422100000000,26688,056,commercial@barrowbc.gov.uk,Barrow-in-Furness,http://www.barrowbc.gov.uk,-3.20734700000000,LA13 9LP,2010-10-07,fhrs_5_en-GB,5,,FHRS,0
160127,The Co-Operative Food,Market Street,Dalton-In-Furness,Cumbria,The Co-operative Group,Retailers - supermarkets/hypermarkets,7840,0,,226134,0,,54.15620100000000,31471,056,commercial@barrowbc.gov.uk,Barrow-in-Furness,http://www.barrowbc.gov.uk,-3.18106600000000,LA15 8DJ,2013-06-17,fhrs_5_en-GB,5,,FHRS,0
160128,,2 Hawcoat Lane,Barrow-In-Furness,Cumbria,The Croft Care Trust,Hospitals/Childcare/Caring Premises,5,0,,226041,0,,54.12936700000000,21750,056,commercial@barrowbc.gov.uk,Barrow-in-Furness,http://www.barrowbc.gov.uk,-3.21579100000000,LA14 4HE,2014-05-28,fhrs_5_en-GB,5,,FHRS,5
160129,Barrow Associated Football Sup,Wilkie Road,Barrow-In-Furness,Cumbria,The Cross Bar,Pub/bar/nightclub,7843,0,,225673,0,,54.12326700000000,12291,056,commercial@barrowbc.gov.uk,Barrow-in-Furness,http://www.barrowbc.gov.uk,-3.23754000000000,LA14 5UQ,2012-06-25,fhrs_5_en-GB,5,,FHRS,0
160130,Crown Hotel,North Scale,Barrow-In-Furness,Cumbria,The Crown Hotel,Pub/bar/nightclub,7843,10,,225967,5,,54.11894500000000,6100,056,commercial@barrowbc.gov.uk,Barrow-in-Furness,http://www.barrowbc.gov.uk,-3.25395000000000,LA14 3RP,2014-03-19,fhrs_4_en-GB,4,,FHRS,5
160131,Custom House,Abbey Road,Barrow-In-Furness,Cumbria,The Custom House,Pub/bar/nightclub,7843,10,,225916,10,,54.11288500000000,34681,056,commercial@barrowbc.gov.uk,Barrow-in-Furness,http://www.barrowbc.gov.uk,-3.23323800000000,LA14 5UF,2013-07-30,fhrs_3_en-GB,3,,FHRS,5
160132,Devonshire Hotel,Ramsden Dock Road,Barrow-In-Furness,Cumbria,The Devonshire Hotel,Pub/bar/nightclub,7843,5,,225993,5,,54.10307400000000,8229,056,commercial@barrowbc.gov.uk,Barrow-in-Furness,http://www.barrowbc.gov.uk,-3.23192200000000,LA14 2TH,2014-12-02,fhrs_5_en-GB,5,,FHRS,5
160133,,121-123 Duke Street,Barrow-In-Furness,Cumbria,The Drawing Room,Pub/bar/nightclub,7843,5,,504198,0,,,40821,056,commercial@barrowbc.gov.uk,Barrow-in-Furness,http://www.barrowbc.gov.uk,,,2013-01-10,fhrs_5_en-GB,5,,FHRS,0
160134,,100 Scott Street,Barrow-In-Furness,Cumbria,The Fig Tree,Restaurant/Cafe/Canteen,1,0,,226128,10,,54.11397200000000,8809,056,commercial@barrowbc.gov.uk,Barrow-in-Furness,http://www.barrowbc.gov.uk,-3.22713500000000,LA14 1QE,2013-03-18,fhrs_4_en-GB,4,,FHRS,5
160135,The Forum,Duke Street,Barrow-In-Furness,Cumbria,The Forum,Other catering premises,7841,0,,225805,0,,54.11167700000000,37982,056,commercial@barrowbc.gov.uk,Barrow-in-Furness,http://www.barrowbc.gov.uk,-3.22651700000000,LA14 1HH,2014-04-28,fhrs_5_en-GB,5,,FHRS,0
160136,,197 Abbey Road,Barrow-In-Furness,Cumbria,The Gables,Hotel/bed & breakfast/guest house,7842,10,,225882,5,,54.12247100000000,20754,056,commercial@barrowbc.gov.uk,Barrow-in-Furness,http://www.barrowbc.gov.uk,-3.21871100000000,LA14 5JP,2012-11-06,fhrs_4_en-GB,4,,FHRS,5
160137,Harbour Hotel,The Strand,Barrow-In-Furness,Cumbria,The Harbour,Pub/bar/nightclub,7843,0,,717368,0,,54.10887700000000,41581,056,commercial@barrowbc.gov.uk,Barrow-in-Furness,http://www.barrowbc.gov.uk,-3.22352800000000,LA14 2HG,2014-11-13,fhrs_5_en-GB,5,,FHRS,0
160138,,10 William Street,Barrow-In-Furness,Cumbria,The Hot Potato,Takeaway/sandwich shop,7844,10,,226081,5,,54.11321100000000,8392,056,commercial@barrowbc.gov.uk,Barrow-in-Furness,http://www.barrowbc.gov.uk,-3.22771000000000,LA14 1LD,2013-03-27,fhrs_4_en-GB,4,,FHRS,5
160139,,2-4 Dalkeith Street,Barrow-In-Furness,Cumbria,The Knights,Pub/bar/nightclub,7843,10,,226109,5,,54.11442200000000,9414,056,commercial@barrowbc.gov.uk,Barrow-in-Furness,http://www.barrowbc.gov.uk,-3.22886200000000,LA14 1SP,2009-10-13,fhrs_4_en-GB,4,,FHRS,5
160140,,141-143 Cavendish Street,Barrow-In-Furness,Cumbria,The Last Resort,Restaurant/Cafe/Canteen,1,0,,226083,0,,54.11480300000000,17008,056,commercial@barrowbc.gov.uk,Barrow-in-Furness,http://www.barrowbc.gov.uk,-3.22407000000000,LA14 1DJ,2013-03-28,fhrs_5_en-GB,5,,FHRS,0
160141,,57 Sharp Street,Askam-In-Furness,Cumbria,The Lile Superstore,Retailers - other,4613,5,,225888,0,,54.18592600000000,27858,056,commercial@barrowbc.gov.uk,Barrow-in-Furness,http://www.barrowbc.gov.uk,-3.20894600000000,LA16 7BN,2014-11-18,fhrs_5_en-GB,5,,FHRS,0
160142,,307-309 Abbey Road,Barrow-In-Furness,Cumbria,The Lisdoonie Hotel,Hotel/bed & breakfast/guest house,7842,0,,226039,5,,54.12728400000000,20736,056,commercial@barrowbc.gov.uk,Barrow-in-Furness,http://www.barrowbc.gov.uk,-3.21465900000000,LA14 5LF,2014-02-05,fhrs_5_en-GB,5,,FHRS,5
160143,,3 Risedale Road,Barrow-In-Furness,Cumbria,The Lunch Box,Retailers - other,4613,10,,225765,5,,54.11147100000000,25350,056,commercial@barrowbc.gov.uk,Barrow-in-Furness,http://www.barrowbc.gov.uk,-3.20870500000000,LA13 9QX,2014-05-28,fhrs_4_en-GB,4,,FHRS,5
160144,,101 Market Street,Dalton-In-Furness,Cumbria,The Masons Arms,Pub/bar/nightclub,7843,5,,226065,5,,54.15646100000000,34070,056,commercial@barrowbc.gov.uk,Barrow-in-Furness,http://www.barrowbc.gov.uk,-3.17929700000000,LA15 8RE,2014-01-21,fhrs_5_en-GB,5,,FHRS,5
160145,Royal Naval Association Club,Ramsden Dock Road,Barrow-In-Furness,Cumbria,The Navy Club,Pub/bar/nightclub,7843,0,,226104,0,,54.10186800000000,8052,056,commercial@barrowbc.gov.uk,Barrow-in-Furness,http://www.barrowbc.gov.uk,-3.23034100000000,LA14 2TN,2014-11-27,fhrs_5_en-GB,5,,FHRS,0
160146,,2-4 Newton Road,Dalton-In-Furness,"Barrow-In-Furness, Cumbria",The Newton,Pub/bar/nightclub,7843,5,,225980,10,,54.14975000000000,30869,056,commercial@barrowbc.gov.uk,Barrow-in-Furness,http://www.barrowbc.gov.uk,-3.18444900000000,LA15 8LS,2013-08-14,fhrs_4_en-GB,4,,FHRS,5
160147,,,,,The Occasional Cupcake,Retailers - other,4613,5,,225994,5,,,20829,056,commercial@barrowbc.gov.uk,Barrow-in-Furness,http://www.barrowbc.gov.uk,,,2011-06-21,fhrs_5_en-GB,5,,FHRS,5
160148,,107-109 Duke Street,Barrow-In-Furness,Cumbria,The Old Bank,Pub/bar/nightclub,7843,5,,504196,0,,54.11315800000000,40787,056,commercial@barrowbc.gov.uk,Barrow-in-Furness,http://www.barrowbc.gov.uk,-3.23026300000000,LA14 1RH,2013-01-22,fhrs_5_en-GB,5,,FHRS,0
160149,Smithy Chippy,Leece Lane,Barrow-In-Furness,Cumbria,The Old Smithy,Takeaway/sandwich shop,7844,5,,225713,5,,54.11558800000000,34821,056,commercial@barrowbc.gov.uk,Barrow-in-Furness,http://www.barrowbc.gov.uk,-3.19066500000000,LA13 0JG,2014-05-22,fhrs_5_en-GB,5,,FHRS,5
160150,The Old Vicarage,Ireleth Road,Ireleth,"Askam-In-Furness, Cumbria",The Old Vicarage,Hospitals/Childcare/Caring Premises,5,5,,226000,5,,54.18886300000000,27555,056,commercial@barrowbc.gov.uk,Barrow-in-Furness,http://www.barrowbc.gov.uk,-3.19828800000000,LA16 7JD,2014-05-19,fhrs_5_en-GB,5,,FHRS,5
160151,The Owl And The Pussycat,Walney Road,Barrow-In-Furness,Cumbria,The Owl And The Pussycat,Pub/bar/nightclub,7843,0,,732303,0,,54.11479900000000,41580,056,commercial@barrowbc.gov.uk,Barrow-in-Furness,http://www.barrowbc.gov.uk,-3.23854200000000,LA14 2NA,2015-01-13,fhrs_5_en-GB,5,,FHRS,5
160152,,88 Duke Street,Barrow-In-Furness,Cumbria,The Panda Garden,Restaurant/Cafe/Canteen,1,,,226165,,,54.11333400000000,9471,056,commercial@barrowbc.gov.uk,Barrow-in-Furness,http://www.barrowbc.gov.uk,-3.22980900000000,LA14 1RD,2014-06-02,fhrs_4_en-GB,4,,FHRS,
160153,Park Leisure Centre,Greengate Street,Barrow-In-Furness,Cumbria,The Park Leisure Centre,Restaurant/Cafe/Canteen,1,5,,225936,0,,54.11636100000000,15639,056,commercial@barrowbc.gov.uk,Barrow-in-Furness,http://www.barrowbc.gov.uk,-3.21221300000000,LA13 9DT,2015-01-13,fhrs_5_en-GB,5,,FHRS,0
160154,The Canteen,Michaelson Road,Barrow-In-Furness,Cumbria,The Porthole Community Events Venue,Pub/bar/nightclub,7843,10,,693567,10,,54.10462400000000,41535,056,commercial@barrowbc.gov.uk,Barrow-in-Furness,http://www.barrowbc.gov.uk,-3.23161600000000,LA14 1AD,2014-07-09,fhrs_3_en-GB,3,,FHRS,10
160155,Round House,Biggar Bank Road,Barrow-In-Furness,Cumbria,The Roundhouse,Restaurant/Cafe/Canteen,1,5,,225812,0,,54.09724800000000,1295,056,commercial@barrowbc.gov.uk,Barrow-in-Furness,http://www.barrowbc.gov.uk,-3.25736300000000,LA14 3YE,2013-03-19,fhrs_5_en-GB,5,,FHRS,0
160156,The Royal British Legion,Holker Street,Barrow-In-Furness,Cumbria,The Royal British Legion Club,Pub/bar/nightclub,7843,5,,225966,5,,54.11880100000000,10849,056,commercial@barrowbc.gov.uk,Barrow-in-Furness,http://www.barrowbc.gov.uk,-3.22865500000000,LA14 5RQ,2011-01-19,fhrs_5_en-GB,5,,FHRS,5
160157,Ship Inn,Yarlside Road,Barrow-In-Furness,Cumbria,The Ship Inn,Pub/bar/nightclub,7843,5,,643692,5,,54.11780500000000,41532,056,commercial@barrowbc.gov.uk,Barrow-in-Furness,http://www.barrowbc.gov.uk,-3.19189200000000,LA13 0EU,2014-03-04,fhrs_5_en-GB,5,,FHRS,5
160158,,292 Rawlinson Street,Barrow-In-Furness,Cumbria,The Steak Out,Takeaway/sandwich shop,7844,5,,226111,5,,54.11646300000000,40185,056,commercial@barrowbc.gov.uk,Barrow-in-Furness,http://www.barrowbc.gov.uk,-3.22528100000000,LA14 1BX,2014-11-21,fhrs_4_en-GB,4,,FHRS,10
160159,,3-7 Buccleuch Street,Barrow-In-Furness,Cumbria,The Steelworks,Pub/bar/nightclub,7843,10,,226121,5,,54.11410700000000,9483,056,commercial@barrowbc.gov.uk,Barrow-in-Furness,http://www.barrowbc.gov.uk,-3.22888300000000,LA14 1SS,2011-01-13,fhrs_4_en-GB,4,,FHRS,5
160160,,84 Duke Street,Barrow-In-Furness,Cumbria,The Sunlight,Takeaway/sandwich shop,7844,10,,225965,5,,54.11333400000000,9470,056,commercial@barrowbc.gov.uk,Barrow-in-Furness,http://www.barrowbc.gov.uk,-3.22980900000000,LA14 1RD,2014-03-05,fhrs_4_en-GB,4,,FHRS,5
160161,,151 Market Street,Dalton-In-Furness,Cumbria,The Tudor Cafe,Restaurant/Cafe/Canteen,1,10,,226112,10,,54.15697700000000,34065,056,commercial@barrowbc.gov.uk,Barrow-in-Furness,http://www.barrowbc.gov.uk,-3.17796400000000,LA15 8RQ,2014-11-11,fhrs_2_en-GB,2,,FHRS,15
160162,,19 Central Drive,Barrow-In-Furness,Cumbria,The Vickerstown,Pub/bar/nightclub,7843,20,,226059,0,,54.10716000000000,40768,056,commercial@barrowbc.gov.uk,Barrow-in-Furness,http://www.barrowbc.gov.uk,-3.24717000000000,LA14 3HU,2013-01-11,fhrs_1_en-GB,1,,FHRS,0
160163,,43 Cavendish Street,Barrow-In-Furness,Cumbria,The Water Lily,Takeaway/sandwich shop,7844,5,,225706,10,,54.11335700000000,8951,056,commercial@barrowbc.gov.uk,Barrow-in-Furness,http://www.barrowbc.gov.uk,-3.22840200000000,LA14 1SF,2014-10-29,fhrs_4_en-GB,4,,FHRS,5
160164,,,,,The Waysider,Mobile caterer,7846,5,,225858,5,,,28242,056,commercial@barrowbc.gov.uk,Barrow-in-Furness,http://www.barrowbc.gov.uk,,,2014-02-25,fhrs_5_en-GB,5,,FHRS,5
160165,,50-52 Portland Walk,Barrow-In-Furness,Cumbria,The X Catalogue Store,Retailers - other,4613,,,693579,,,54.11265200000000,8247,056,commercial@barrowbc.gov.uk,Barrow-in-Furness,http://www.barrowbc.gov.uk,-3.21820900000000,LA14 2DB,2012-09-11,fhrs_exempt_en-GB,Exempt,,FHRS,
160166,Theatre Hotel,Cavendish Street,Barrow-In-Furness,Cumbria,Theatre Bar,Pub/bar/nightclub,7843,10,,225850,5,,54.11388600000000,9495,056,commercial@barrowbc.gov.uk,Barrow-in-Furness,http://www.barrowbc.gov.uk,-3.22679600000000,LA14 1QD,2012-06-25,fhrs_4_en-GB,4,,FHRS,5
160167,,,,,Themixingbowlcakery,Other catering premises,7841,0,,568489,5,,,23883,056,commercial@barrowbc.gov.uk,Barrow-in-Furness,http://www.barrowbc.gov.uk,,,2013-06-20,fhrs_5_en-GB,5,,FHRS,0
160168,,142 Market Street,Dalton-In-Furness,Cumbria,Thomas Hird,Retailers - other,4613,10,,225725,10,,54.15697700000000,33363,056,commercial@barrowbc.gov.uk,Barrow-in-Furness,http://www.barrowbc.gov.uk,-3.17796400000000,LA15 8RQ,2014-12-04,fhrs_3_en-GB,3,,FHRS,10
160169,,72 Cavendish Street,Barrow-In-Furness,Cumbria,Thomas's Bakery,Retailers - other,4613,0,,226105,5,,54.11197400000000,8348,056,commercial@barrowbc.gov.uk,Barrow-in-Furness,http://www.barrowbc.gov.uk,-3.23787100000000,LA14 1QA,2013-01-16,fhrs_5_en-GB,5,,FHRS,5
160170,Thomas's Bakery,Broughton Road,Dalton-In-Furness,Cumbria,Thomas's Bakery,Manufacturers/packers,7839,5,,225719,0,,54.15848300000000,33782,056,commercial@barrowbc.gov.uk,Barrow-in-Furness,http://www.barrowbc.gov.uk,-3.17745500000000,LA15 8RN,2014-03-06,fhrs_5_en-GB,5,,FHRS,5
160171,,2-4 Portland Walk,Barrow-In-Furness,Cumbria,Thorntons,Restaurant/Cafe/Canteen,1,5,,225771,5,,54.11293000000000,8240,056,commercial@barrowbc.gov.uk,Barrow-in-Furness,http://www.barrowbc.gov.uk,-3.22623300000000,LA14 1DB,2014-12-02,fhrs_4_en-GB,4,,FHRS,10
160172,,,,,Tina's Custom Cakes,Other catering premises,7841,5,,717363,5,,,3136,056,commercial@barrowbc.gov.uk,Barrow-in-Furness,http://www.barrowbc.gov.uk,,,2014-10-22,fhrs_5_en-GB,5,,FHRS,5
160173,,8 William Street,Barrow-In-Furness,Cumbria,Tommos,Takeaway/sandwich shop,7844,5,,225843,5,,54.11321100000000,38332,056,commercial@barrowbc.gov.uk,Barrow-in-Furness,http://www.barrowbc.gov.uk,-3.22771000000000,LA14 1LD,2014-06-18,fhrs_5_en-GB,5,,FHRS,5
160174,Town Hall,Duke Street,Barrow-In-Furness,Cumbria,Town Hall Kitchen,Restaurant/Cafe/Canteen,1,,,693552,,,54.11153000000000,38259,056,commercial@barrowbc.gov.uk,Barrow-in-Furness,http://www.barrowbc.gov.uk,-3.22770600000000,LA14 2LD,2013-08-15,fhrs_exempt_en-GB,Exempt,,FHRS,
160175,Trinity Church Centre,Warwick Street,Barrow-In-Furness,Cumbria,Trinity Church Centre,Other catering premises,7841,,,693524,,,54.12080900000000,18066,056,commercial@barrowbc.gov.uk,Barrow-in-Furness,http://www.barrowbc.gov.uk,-3.22124800000000,LA14 5HT,2009-08-27,fhrs_exempt_en-GB,Exempt,,FHRS,
160176,,155 Market Street,Dalton-In-Furness,Cumbria,Tudor Chippy,Takeaway/sandwich shop,7844,10,,460166,5,,54.15697700000000,40830,056,commercial@barrowbc.gov.uk,Barrow-in-Furness,http://www.barrowbc.gov.uk,-3.17796400000000,LA15 8RQ,2014-03-06,fhrs_4_en-GB,4,,FHRS,5
160177,,149 Market Street,Dalton-In-Furness,Cumbria,Tudor News,Retailers - other,4613,,,693542,,,54.15697700000000,33366,056,commercial@barrowbc.gov.uk,Barrow-in-Furness,http://www.barrowbc.gov.uk,-3.17796400000000,LA15 8RQ,2013-07-10,fhrs_exempt_en-GB,Exempt,,FHRS,
160178,"Stall 26, Barrow Market Hall",Duke Street,Barrow-In-Furness,Cumbria,Tuk Thai Foods,Retailers - other,4613,5,,225927,5,,,38736,056,commercial@barrowbc.gov.uk,Barrow-in-Furness,http://www.barrowbc.gov.uk,,,2014-05-14,fhrs_5_en-GB,5,,FHRS,0
160179,United Refromed Church,Ramsden Street,Barrow-In-Furness,Cumbria,United Reformed Church,Other catering premises,7841,,,693516,,,54.11163000000000,14602,056,commercial@barrowbc.gov.uk,Barrow-in-Furness,http://www.barrowbc.gov.uk,-3.21787300000000,LA14 2BU,2005-11-25,fhrs_exempt_en-GB,Exempt,,FHRS,
160180,Urban Extreme Slate Park,James Freel Close,Barrow-In-Furness,Cumbria,Urban Extreme Skate Park,Other catering premises,7841,10,,702321,5,,54.11951800000000,41559,056,commercial@barrowbc.gov.uk,Barrow-in-Furness,http://www.barrowbc.gov.uk,-3.24113100000000,LA14 2NW,2014-09-02,fhrs_4_en-GB,4,,FHRS,5
160181,Vickerstown Cricket Club,Mill Lane,Barrow-In-Furness,Cumbria,Vickerstown Cricket Club,Pub/bar/nightclub,7843,5,,225820,5,,54.10966600000000,1874,056,commercial@barrowbc.gov.uk,Barrow-in-Furness,http://www.barrowbc.gov.uk,-3.26110400000000,LA14 3ND,2006-02-07,fhrs_5_en-GB,5,,FHRS,5
160182,Vickerstown School,Mill Lane,Barrow-In-Furness,Cumbria,Vickerstown Primary School,School/college/university,7845,5,,225884,0,,54.11365500000000,40789,056,commercial@barrowbc.gov.uk,Barrow-in-Furness,http://www.barrowbc.gov.uk,-3.25288000000000,,2014-05-12,fhrs_5_en-GB,5,,FHRS,0
160183,,15 Anchor Road,Barrow-In-Furness,Cumbria,Vicky's Sandwich Bar,Retailers - other,4613,5,,225876,5,,54.10231000000000,40742,056,commercial@barrowbc.gov.uk,Barrow-in-Furness,http://www.barrowbc.gov.uk,-3.22936000000000,LA14 2QW,2014-05-07,fhrs_5_en-GB,5,,FHRS,5
160184,Victoria Junior School,Devonshire Road,Barrow-In-Furness,Cumbria,Victoria County Junior School,School/college/university,7845,0,,225698,5,,54.12685300000000,20658,056,commercial@barrowbc.gov.uk,Barrow-in-Furness,http://www.barrowbc.gov.uk,-3.22257300000000,LA14 5NE,2014-04-29,fhrs_5_en-GB,5,,FHRS,0
160185,,82-84 Church Street,Barrow-In-Furness,Cumbria,Victoria Hotel,Pub/bar/nightclub,7843,5,,225875,5,,54.11039100000000,14526,056,commercial@barrowbc.gov.uk,Barrow-in-Furness,http://www.barrowbc.gov.uk,-3.22392400000000,LA14 2HJ,2010-06-16,fhrs_5_en-GB,5,,FHRS,5
160186,Victoria Infant And Nursery Sc,Oxford Street,Barrow-In-Furness,Cumbria,Victoria Infant and Nursery School,School/college/university,7845,5,,225781,0,,54.12644000000000,20656,056,commercial@barrowbc.gov.uk,Barrow-in-Furness,http://www.barrowbc.gov.uk,-3.21899600000000,LA14 5QN,2014-09-30,fhrs_5_en-GB,5,,FHRS,0
160187,Victoria Park Hotel,Victoria Road,Barrow-In-Furness,Cumbria,Victoria Park Hotel,Hotel/bed & breakfast/guest house,7842,5,,226151,5,,54.12339900000000,20756,056,commercial@barrowbc.gov.uk,Barrow-in-Furness,http://www.barrowbc.gov.uk,-3.21936500000000,LA14 5JS,2014-03-04,fhrs_4_en-GB,4,,FHRS,10
160188,Victoria Tavern,Oxford Street,Barrow-In-Furness,Cumbria,Victoria Tavern,Pub/bar/nightclub,7843,0,,226022,5,,54.12344500000000,20738,056,commercial@barrowbc.gov.uk,Barrow-in-Furness,http://www.barrowbc.gov.uk,-3.22189200000000,LA14 5QL,2014-02-25,fhrs_5_en-GB,5,,FHRS,5
160189,,7 Newton Cross Road,Newton-In-Furness,"Barrow-In-Furness, Cumbria",Village Inn,Pub/bar/nightclub,7843,5,,225737,5,,54.13556800000000,30154,056,commercial@barrowbc.gov.uk,Barrow-in-Furness,http://www.barrowbc.gov.uk,-3.18155000000000,LA13 0LZ,2014-03-11,fhrs_5_en-GB,5,,FHRS,5
160190,"Unit D, Hollywood Park",Hindpool Road,Barrow-In-Furness,Cumbria,Vue Entertainment Limited,Other catering premises,7841,5,,225741,5,,54.11479900000000,34580,056,commercial@barrowbc.gov.uk,Barrow-in-Furness,http://www.barrowbc.gov.uk,-3.23854200000000,LA14 2NA,2015-01-13,fhrs_5_en-GB,5,,FHRS,5
160191,,78 Church Street,Barrow-In-Furness,Cumbria,Wai Ming,Takeaway/sandwich shop,7844,10,,225946,10,,54.11039100000000,14227,056,commercial@barrowbc.gov.uk,Barrow-in-Furness,http://www.barrowbc.gov.uk,-3.22392400000000,LA14 2HJ,2013-08-19,fhrs_3_en-GB,3,,FHRS,10
160192,Walney Central Arlfc,Central Drive,Barrow-In-Furness,Cumbria,Walney Central Rugby Club House,Pub/bar/nightclub,7843,10,,225985,5,,54.10751100000000,34792,056,commercial@barrowbc.gov.uk,Barrow-in-Furness,http://www.barrowbc.gov.uk,-3.25003400000000,,2008-12-08,fhrs_4_en-GB,4,,FHRS,5
160193,Walney Marine Club,Promenade,Barrow-In-Furness,Cumbria,Walney Marine Club,Pub/bar/nightclub,7843,5,,225873,0,,54.10833100000000,5596,056,commercial@barrowbc.gov.uk,Barrow-in-Furness,http://www.barrowbc.gov.uk,-3.24772600000000,LA14 3PE,2012-06-27,fhrs_5_en-GB,5,,FHRS,0
160194,Walney School,Sandy Gap Lane,Barrow-In-Furness,Cumbria,Walney School,School/college/university,7845,0,,225832,0,,54.10460200000000,34726,056,commercial@barrowbc.gov.uk,Barrow-in-Furness,http://www.barrowbc.gov.uk,-3.25718800000000,LA14 3JL,2014-05-16,fhrs_5_en-GB,5,,FHRS,0
160195,Washington Hotel,Roose Road,Barrow-In-Furness,Cumbria,Washington Hotel,Pub/bar/nightclub,7843,0,,226157,0,,54.11033900000000,22958,056,commercial@barrowbc.gov.uk,Barrow-in-Furness,http://www.barrowbc.gov.uk,-3.20955900000000,LA13 9RG,2011-11-01,fhrs_5_en-GB,5,,FHRS,0
160196,,25 Portland Walk,Barrow-In-Furness,Cumbria,Waterstones,Retailers - other,4613,,,693578,,,54.11293000000000,8238,056,commercial@barrowbc.gov.uk,Barrow-in-Furness,http://www.barrowbc.gov.uk,-3.22623300000000,LA14 1DB,2012-02-27,fhrs_exempt_en-GB,Exempt,,FHRS,
160197,,81 Dalton Road,Barrow-In-Furness,Cumbria,Weigh 2 Save,Retailers - other,4613,10,,447558,5,,54.11251200000000,40824,056,commercial@barrowbc.gov.uk,Barrow-in-Furness,http://www.barrowbc.gov.uk,-3.22573100000000,LA14 1HZ,2013-01-22,fhrs_4_en-GB,4,,FHRS,5
160198,,63 Market Street,Dalton-In-Furness,Cumbria,Wellington Hotel,Pub/bar/nightclub,7843,5,,225834,5,,54.15651200000000,31519,056,commercial@barrowbc.gov.uk,Barrow-in-Furness,http://www.barrowbc.gov.uk,-3.18233000000000,LA15 8AW,2014-11-14,fhrs_5_en-GB,5,,FHRS,5
160199,,32 Biggar Bank Road,Barrow-In-Furness,Cumbria,West Shore Bowling Club,Pub/bar/nightclub,7843,5,,225990,10,,54.09498200000000,3715,056,commercial@barrowbc.gov.uk,Barrow-in-Furness,http://www.barrowbc.gov.uk,-3.25573500000000,LA14 3YF,2014-07-14,fhrs_4_en-GB,4,,FHRS,0
160200,,38-42 Portland Walk,Barrow-In-Furness,Cumbria,WH Smith,Retailers - supermarkets/hypermarkets,7840,,,693580,,,54.11293000000000,8257,056,commercial@barrowbc.gov.uk,Barrow-in-Furness,http://www.barrowbc.gov.uk,-3.22623300000000,LA14 1DB,2013-06-28,fhrs_exempt_en-GB,Exempt,,FHRS,
160201,Wheatsheaf Hotel,Anson Street,Barrow-In-Furness,Cumbria,Wheatsheaf Hotel,Pub/bar/nightclub,7843,5,,225830,5,,54.11515000000000,9489,056,commercial@barrowbc.gov.uk,Barrow-in-Furness,http://www.barrowbc.gov.uk,-3.23676200000000,LA14 1YB,2014-11-27,fhrs_5_en-GB,5,,FHRS,5
160202,,6 Market Street,Dalton-In-Furness,Cumbria,White Horse Inn,Pub/bar/nightclub,7843,5,,225760,5,,54.15565600000000,30918,056,commercial@barrowbc.gov.uk,Barrow-in-Furness,http://www.barrowbc.gov.uk,-3.18521500000000,LA15 8AT,2014-03-10,fhrs_5_en-GB,5,,FHRS,5
160203,White Lion Hotel,Mount Pleasant,Barrow-In-Furness,Cumbria,White Lion Hotel,Pub/bar/nightclub,7843,5,,225745,0,,54.11132200000000,17931,056,commercial@barrowbc.gov.uk,Barrow-in-Furness,http://www.barrowbc.gov.uk,-3.22347800000000,LA14 2HP,2008-01-30,fhrs_5_en-GB,5,,FHRS,0
160204,,50-52 Duke Street,Barrow-In-Furness,Cumbria,Wilkinson Hardware Stores Ltd,Retailers - supermarkets/hypermarkets,7840,0,,225938,0,,54.11229000000000,38373,056,commercial@barrowbc.gov.uk,Barrow-in-Furness,http://www.barrowbc.gov.uk,-3.22814100000000,LA14 1RU,2011-03-31,fhrs_5_en-GB,5,,FHRS,0
160205,,12 William Street,Barrow-In-Furness,Cumbria,William Street News,Retailers - other,4613,,,693589,,,54.11321100000000,9459,056,commercial@barrowbc.gov.uk,Barrow-in-Furness,http://www.barrowbc.gov.uk,-3.22771000000000,LA14 1LD,2014-11-26,fhrs_exempt_en-GB,Exempt,,FHRS,
160206,Wm Morrison Supermarkets Plc,The Strand,Barrow-In-Furness,Cumbria,Wm Morrisons Supermarket,Retailers - supermarkets/hypermarkets,7840,0,,225977,0,,54.10830800000000,36023,056,commercial@barrowbc.gov.uk,Barrow-in-Furness,http://www.barrowbc.gov.uk,-3.22464300000000,LA14 2HF,2013-10-14,fhrs_5_en-GB,5,,FHRS,0
160207,,59 Cavendish Street,Barrow-In-Furness,Cumbria,Wrapport,Other catering premises,7841,20,,729273,15,,54.11388600000000,8803,056,commercial@barrowbc.gov.uk,Barrow-in-Furness,http://www.barrowbc.gov.uk,-3.22679600000000,LA14 1QD,2015-01-09,fhrs_1_en-GB,1,,FHRS,15
160208,Furness General Hospital,Dalton Lane,Barrow-In-Furness,Cumbria,WRVS Tea Bar,Restaurant/Cafe/Canteen,1,0,,636772,0,,54.13640300000000,41483,056,commercial@barrowbc.gov.uk,Barrow-in-Furness,http://www.barrowbc.gov.uk,-3.20790000000000,LA14 4LF,2014-02-17,fhrs_5_en-GB,5,,FHRS,0
160209,Yarlside School,Redoak Avenue,Barrow-In-Furness,Cumbria,Yarlside County Primary School,School/college/university,7845,0,,225899,5,,54.12174100000000,30093,056,commercial@barrowbc.gov.uk,Barrow-in-Furness,http://www.barrowbc.gov.uk,-3.18834800000000,LA13 0LH,2014-05-08,fhrs_5_en-GB,5,,FHRS,0
160210,Yarlside Stores,Yarlside Road,Barrow-In-Furness,Cumbria,Yarlside Stores,Retailers - other,4613,0,,636778,0,,54.11669100000000,41537,056,commercial@barrowbc.gov.uk,Barrow-in-Furness,http://www.barrowbc.gov.uk,-3.19273200000000,LA13 0ES,2014-02-24,fhrs_5_en-GB,5,,FHRS,0
160211,,36 York Street,Barrow-In-Furness,Cumbria,York Street Chippie,Takeaway/sandwich shop,7844,0,,226124,0,,54.12177800000000,19228,056,commercial@barrowbc.gov.uk,Barrow-in-Furness,http://www.barrowbc.gov.uk,-3.22320400000000,LA14 5HY,2014-12-18,fhrs_5_en-GB,5,,FHRS,5
160212,,2-4 Cavendish Street,Barrow-In-Furness,Cumbria,Yungnien House,Takeaway/sandwich shop,7844,10,,225715,10,,54.11310600000000,8946,056,commercial@barrowbc.gov.uk,Barrow-in-Furness,http://www.barrowbc.gov.uk,-3.22828800000000,LA14 1SB,2014-11-12,fhrs_3_en-GB,3,,FHRS,10
160213,,102 Lesh Lane,Barrow-In-Furness,Cumbria,Yungs,Takeaway/sandwich shop,7844,5,,225892,5,,54.11765500000000,25351,056,commercial@barrowbc.gov.uk,Barrow-in-Furness,http://www.barrowbc.gov.uk,-3.20778300000000,LA13 9EQ,2014-03-06,fhrs_5_en-GB,5,,FHRS,5
