,addressline1,addressline2,addressline3,addressline4,businessname,businesstype,businesstypeid,confidenceinmanagement,extractdate,fhrsid,hygiene,itemcount,latitude,localauthoritybusinessid,localauthoritycode,localauthorityemailaddress,localauthorityname,localauthoritywebsite,longitude,postcode,ratingdate,ratingkey,ratingvalue,returncode,schemetype,structural
173171,Moresby Stores,Moresby Parks,Whitehaven,Cumbria,A & K News,Retailers - other,4613,5,,229956,5,,54.55825600000000,PI/000013439,058,envhealth@copeland.gov.uk,Copeland,http://www.copeland.gov.uk,-3.55121300000000,CA28 8XG,2012-07-12,fhrs_5_en-GB,5,,FHRS,0
173172,Abc Nursery,Catherine Street,Whitehaven,Cumbria,A B C Day Nursery,Hospitals/Childcare/Caring Premises,5,5,,229710,0,,54.54764600000000,PI/000006231,058,envhealth@copeland.gov.uk,Copeland,http://www.copeland.gov.uk,-3.58347900000000,CA28 7PG,2014-05-19,fhrs_5_en-GB,5,,FHRS,0
173173,6 South Parade,Seascale,Cumbria,,A Williams,Manufacturers/packers,7839,10,,229889,5,,54.39504000000000,PI/000015491,058,envhealth@copeland.gov.uk,Copeland,http://www.copeland.gov.uk,-3.48420500000000,CA20 1PZ,2014-03-25,fhrs_3_en-GB,3,,FHRS,10
173174,12 Church Street,Moor Row,Cumbria,,A1 Catering Services,Retailers - other,4613,5,,555538,5,,54.51338500000000,PI/000019144,058,envhealth@copeland.gov.uk,Copeland,http://www.copeland.gov.uk,-3.53882200000000,CA24 3JF,2013-04-30,fhrs_5_en-GB,5,,FHRS,5
173175,Abbey Farmhouse,Abbey Road,St Bees,Cumbria,Abbey Farm,Hotel/bed & breakfast/guest house,7842,5,,229747,0,,54.49470800000000,PI/000000336,058,envhealth@copeland.gov.uk,Copeland,http://www.copeland.gov.uk,-3.59427800000000,CA27 0DY,2014-07-16,fhrs_5_en-GB,5,,FHRS,5
173176,Alexander House,Chapel Lane,Bootle,,Abbeyfield Society,Hospitals/Childcare/Caring Premises,5,0,,229690,0,,54.28150900000000,PI/000030175,058,envhealth@copeland.gov.uk,Copeland,http://www.copeland.gov.uk,-3.37454700000000,LA19 5UE,2014-03-04,fhrs_4_en-GB,4,,FHRS,10
173177,The Nursery,St Bridgets Lane,Egremont,Cumbria,ABC Nursery,School/college/university,7845,5,,230229,5,,54.48259300000000,PI/000018081,058,envhealth@copeland.gov.uk,Copeland,http://www.copeland.gov.uk,-3.53308100000000,CA22 2BD,2013-03-05,fhrs_5_en-GB,5,,FHRS,5
173178,St Marys Centre,St Bridgets Lane,Egremont,Cumbria,Age Concern,Restaurant/Cafe/Canteen,1,5,,229900,0,,54.48259300000000,PI/000033073,058,envhealth@copeland.gov.uk,Copeland,http://www.copeland.gov.uk,-3.53308100000000,CA22 2BD,2011-08-30,fhrs_5_en-GB,5,,FHRS,0
173179,The Jubilee Centre,Devonshire Road,Millom,Cumbria,Age Concern Millom And District,Restaurant/Cafe/Canteen,1,5,,230285,5,,,PI/000029323,058,envhealth@copeland.gov.uk,Copeland,http://www.copeland.gov.uk,,LA18 4JR,2011-09-23,fhrs_5_en-GB,5,,FHRS,5
173180,3 Tangier Street,Whitehaven,Cumbria,,Akash/La'al Indian,Restaurant/Cafe/Canteen,1,10,,230085,10,,54.55035200000000,PI/000006321,058,envhealth@copeland.gov.uk,Copeland,http://www.copeland.gov.uk,-3.58748000000000,CA28 7UZ,2013-03-14,fhrs_3_en-GB,3,,FHRS,10
173181,1 Finkle Street,St Bees,Cumbria,,Albert Hotel,Hotel/bed & breakfast/guest house,7842,5,,230005,5,,54.49206900000000,PI/000002310,058,envhealth@copeland.gov.uk,Copeland,http://www.copeland.gov.uk,-3.58925000000000,CA27 0BN,2011-11-21,fhrs_5_en-GB,5,,FHRS,5
173182,Aldi Foodstore Ltd,Preston Street,Whitehaven,Cumbria,Aldi Stores Ltd,Retailers - supermarkets/hypermarkets,7840,0,,229818,0,,54.54357800000000,PI/000004691,058,envhealth@copeland.gov.uk,Copeland,http://www.copeland.gov.uk,-3.59072600000000,CA28 9DL,2014-06-03,fhrs_5_en-GB,5,,FHRS,0
173183,34-35 Tangier Street,Whitehaven,Cumbria,,Ali Taj,Restaurant/Cafe/Canteen,1,10,,230211,15,,54.54995500000000,PI/000006011,058,envhealth@copeland.gov.uk,Copeland,http://www.copeland.gov.uk,-3.58833000000000,CA28 7UX,2014-02-25,fhrs_2_en-GB,2,,FHRS,10
173184,,,,,All Things 4U Mobile,Mobile caterer,7846,0,,482454,0,,,PI/000035050,058,envhealth@copeland.gov.uk,Copeland,http://www.copeland.gov.uk,,,2014-05-23,fhrs_5_en-GB,5,,FHRS,0
173185,45 Rutland Avenue,Whitehaven,Cumbria,,Amie's Little Monkeys,Other catering premises,7841,5,,636783,0,,54.52641700000000,PI/000007517,058,envhealth@copeland.gov.uk,Copeland,http://www.copeland.gov.uk,-3.56337200000000,CA28 8LF,2014-02-26,fhrs_5_en-GB,5,,FHRS,0
173186,25 Market Place,Whitehaven,Cumbria,,Anchor Vaults,Pub/bar/nightclub,7843,0,,230191,5,,54.54688200000000,PI/000004285,058,envhealth@copeland.gov.uk,Copeland,http://www.copeland.gov.uk,-3.59094700000000,CA28 7JB,2011-08-11,fhrs_5_en-GB,5,,FHRS,5
173187,Unit 2,Millennium Promenade,Whitehaven,Cumbria,Anna's Cafe & Alba's Gifts,Restaurant/Cafe/Canteen,1,0,,229963,0,,54.55011100000000,PI/000034601,058,envhealth@copeland.gov.uk,Copeland,http://www.copeland.gov.uk,-3.58873800000000,CA28 7HR,2014-02-03,fhrs_5_en-GB,5,,FHRS,5
173188,78 Main Street,Distington,Cumbria,,Anthonys Chippy,Takeaway/sandwich shop,7844,20,,230071,15,,54.59601000000000,PI/000026316,058,envhealth@copeland.gov.uk,Copeland,http://www.copeland.gov.uk,-3.53959900000000,CA14 5UJ,2013-09-20,fhrs_1_en-GB,1,,FHRS,15
173189,51-52 Arlecdon Road,Arlecdon,Cumbria,,Arlecdon Post Office and Stores,Retailers - other,4613,10,,229871,0,,54.55593000000000,PI/000025380,058,envhealth@copeland.gov.uk,Copeland,http://www.copeland.gov.uk,-3.47045100000000,CA26 3XA,2014-09-11,fhrs_4_en-GB,4,,FHRS,0
173190,Arlecdon Road,Arlecdon,Cumbria,,Arlecdon School,School/college/university,7845,0,,229917,5,,54.55593000000000,PI/000025701,058,envhealth@copeland.gov.uk,Copeland,http://www.copeland.gov.uk,-3.47045100000000,CA26 3XA,2014-02-28,fhrs_4_en-GB,4,,FHRS,10
173191,67 Market Place,Whitehaven,Cumbria,,Arrighis,Takeaway/sandwich shop,7844,5,,229673,10,,54.54752400000000,PI/000005469,058,envhealth@copeland.gov.uk,Copeland,http://www.copeland.gov.uk,-3.59139000000000,CA28 7JG,2013-12-04,fhrs_4_en-GB,4,,FHRS,5
173192,Preston Street,Whitehaven,Cumbria,,Asda,Retailers - supermarkets/hypermarkets,7840,0,,230267,0,,54.54357800000000,PI/000004649,058,envhealth@copeland.gov.uk,Copeland,http://www.copeland.gov.uk,-3.59072600000000,CA28 9DL,2014-02-07,fhrs_5_en-GB,5,,FHRS,0
173193,78 High Street,Cleator Moor,Cumbria,,Aspava,Takeaway/sandwich shop,7844,0,,229928,5,,54.52207400000000,PI/000022460,058,envhealth@copeland.gov.uk,Copeland,http://www.copeland.gov.uk,-3.51770300000000,CA25 5BL,2013-11-25,fhrs_5_en-GB,5,,FHRS,0
173194,B And M Retail Ltd,Swingpump Lane,Whitehaven,Cumbria,B & M Retail Ltd,Retailers - supermarkets/hypermarkets,7840,10,,229764,10,,54.54689700000000,PI/000006372,058,envhealth@copeland.gov.uk,Copeland,http://www.copeland.gov.uk,-3.59192200000000,CA28 7LZ,2014-11-26,fhrs_4_en-GB,4,,FHRS,0
173195,9 Market Place,Whitehaven,Cumbria,,B Kinsella & Sons,Retailers - other,4613,5,,229987,0,,54.54730000000000,PI/000005466,058,envhealth@copeland.gov.uk,Copeland,http://www.copeland.gov.uk,-3.59067000000000,CA28 7JD,2014-02-03,fhrs_4_en-GB,4,,FHRS,10
173196,17 King Street,Whitehaven,Cumbria,,Baguette Express,Takeaway/sandwich shop,7844,10,,451485,10,,54.54898200000000,PI/000005485,058,envhealth@copeland.gov.uk,Copeland,http://www.copeland.gov.uk,-3.58849300000000,CA28 7LA,2012-09-17,fhrs_3_en-GB,3,,FHRS,5
173197,Drigg Road,Seascale,Cumbria,,Bailey Ground Hotel,Hotel/bed & breakfast/guest house,7842,5,,229769,0,,54.39397100000000,PI/000015556,058,envhealth@copeland.gov.uk,Copeland,http://www.copeland.gov.uk,-3.48350400000000,CA20 1NP,2014-01-16,fhrs_4_en-GB,4,,FHRS,10
173198,"Units 3A, 3B & 3E",Sneckyeat Road Industrial Estate,Whitehaven,Cumbria,Banks Wilson Catering (Pies & More),Other catering premises,7841,5,,230217,5,,54.53155800000000,PI/000012750,058,envhealth@copeland.gov.uk,Copeland,http://www.copeland.gov.uk,-3.56131200000000,CA28 8PF,2013-07-09,fhrs_4_en-GB,4,,FHRS,10
173199,286 High Road,Whitehaven,Cumbria,,Bargain Booze,Retailers - other,4613,20,,230234,5,,54.53554700000000,PI/000000581,058,envhealth@copeland.gov.uk,Copeland,http://www.copeland.gov.uk,-3.59653400000000,CA28 9BA,2013-01-02,fhrs_1_en-GB,1,,FHRS,10
173200,29 Wellington Street,Millom,Cumbria,,Bargain Booze,Retailers - other,4613,0,,230239,0,,54.20974800000000,PI/000031792,058,envhealth@copeland.gov.uk,Copeland,http://www.copeland.gov.uk,-3.26712700000000,LA18 4DF,2014-11-12,fhrs_5_en-GB,5,,FHRS,0
173201,23 James Street,Whitehaven,Cumbria,,Barrajacks,Pub/bar/nightclub,7843,5,,229931,10,,54.54619800000000,PI/000004284,058,envhealth@copeland.gov.uk,Copeland,http://www.copeland.gov.uk,-3.59104400000000,CA28 7HZ,2013-02-15,fhrs_4_en-GB,4,,FHRS,5
173202,173 High Road,Whitehaven,Cumbria,,Barwise Chippy,Takeaway/sandwich shop,7844,0,,229971,0,,54.53737100000000,PI/000000625,058,envhealth@copeland.gov.uk,Copeland,http://www.copeland.gov.uk,-3.59657400000000,CA28 9HA,2014-04-14,fhrs_5_en-GB,5,,FHRS,5
173203,Main Street,Ravenglass,Cumbria,,Bay Horse,Hotel/bed & breakfast/guest house,7842,5,,335041,5,,54.35392600000000,PI/000028056,058,envhealth@copeland.gov.uk,Copeland,http://www.copeland.gov.uk,-3.41027700000000,CA18 1SD,2012-04-05,fhrs_5_en-GB,5,,FHRS,5
173204,The Beach Cafe,Bank End,Haverigg,Cumbria,Beach Shop and Cafe,Restaurant/Cafe/Canteen,1,10,,230122,5,,54.19589600000000,PI/000033429,058,envhealth@copeland.gov.uk,Copeland,http://www.copeland.gov.uk,-3.28842300000000,LA18 4ES,2013-02-26,fhrs_4_en-GB,4,,FHRS,5
173205,10-11 South Parade,Seascale,Cumbria,,Beach Stores,Retailers - other,4613,10,,230045,0,,54.39504000000000,PI/000015554,058,envhealth@copeland.gov.uk,Copeland,http://www.copeland.gov.uk,-3.48420500000000,CA20 1PZ,2014-01-16,fhrs_4_en-GB,4,,FHRS,5
173206,32 Churchill Drive,Moresby Parks,Cumbria,,Bean On The Scene,Mobile caterer,7846,5,,230295,5,,54.56126200000000,PI/000013114,058,envhealth@copeland.gov.uk,Copeland,http://www.copeland.gov.uk,-3.55513200000000,CA28 8UZ,2011-08-15,fhrs_5_en-GB,5,,FHRS,0
173207,20 Weavers Avenue,Frizington,Cumbria,,Beckas Cakes,Other catering premises,7841,5,,462913,5,,54.53936600000000,PI/000035040,058,envhealth@copeland.gov.uk,Copeland,http://www.copeland.gov.uk,-3.49387500000000,CA26 3AT,2012-10-16,fhrs_5_en-GB,5,,FHRS,5
173208,Mill Lane,Beckermet,Cumbria,,Beckermet C Of E School,School/college/university,7845,5,,229916,0,,54.44744900000000,PI/000014883,058,envhealth@copeland.gov.uk,Copeland,http://www.copeland.gov.uk,-3.51538800000000,CA21 2YD,2014-03-14,fhrs_5_en-GB,5,,FHRS,0
173209,Mill Lane,Beckermet,Cumbria,,Beckermet Nursery,Hospitals/Childcare/Caring Premises,5,10,,229937,10,,54.44744900000000,PI/000034718,058,envhealth@copeland.gov.uk,Copeland,http://www.copeland.gov.uk,-3.51538800000000,CA21 2YD,2013-10-30,fhrs_4_en-GB,4,,FHRS,0
173210,Upper Beckstones Mill,The Green,Cumbria,,Beckstones Brewery,Other catering premises,7841,5,,230307,0,,54.25211400000000,PI/000032466,058,envhealth@copeland.gov.uk,Copeland,http://www.copeland.gov.uk,-3.26234700000000,LA18 5HL,2012-11-28,fhrs_5_en-GB,5,,FHRS,5
173211,27 Wasdale Park,Seascale,Cumbria,,Becky Bakes,Retailers - other,4613,5,,229943,5,,54.39310000000000,PI/000015455,058,envhealth@copeland.gov.uk,Copeland,http://www.copeland.gov.uk,-3.48043800000000,CA20 1PB,2011-08-19,fhrs_5_en-GB,5,,FHRS,5
173212,2 Meadow View,Tarnside,Braystones,Cumbria,Belly Fillers,Mobile caterer,7846,10,,349609,10,,54.44142800000000,PI/000034967,058,envhealth@copeland.gov.uk,Copeland,http://www.copeland.gov.uk,-3.53803400000000,CA21 2YW,2013-10-31,fhrs_3_en-GB,3,,FHRS,5
173213,Bethany House,20 Corkickle,Whitehaven,Cumbria,Bethany House Residential Home,Hospitals/Childcare/Caring Premises,5,5,,229914,5,,54.54289600000000,PI/000004517,058,envhealth@copeland.gov.uk,Copeland,http://www.copeland.gov.uk,-3.58032700000000,CA28 8AA,2014-01-30,fhrs_5_en-GB,5,,FHRS,5
173214,Yewbarrow Close,Whitehaven,Cumbria,,Bethshan Nursing Home,Hospitals/Childcare/Caring Premises,5,0,,229948,0,,54.52491900000000,PI/000007696,058,envhealth@copeland.gov.uk,Copeland,http://www.copeland.gov.uk,-3.56663700000000,CA28 8HB,2013-04-24,fhrs_5_en-GB,5,,FHRS,0
173215,High Marshside,The Hill,Cumbria,,Betty's,Hotel/bed & breakfast/guest house,7842,5,,429220,5,,54.23182700000000,PI/000032477,058,envhealth@copeland.gov.uk,Copeland,http://www.copeland.gov.uk,-3.25378100000000,LA18 5HA,2012-06-27,fhrs_5_en-GB,5,,FHRS,5
173216,18 Main Street,Hensingham,Cumbria,,Bewshers Wines and Spirits,Retailers - other,4613,5,,229998,5,,54.53661900000000,PI/000009277,058,envhealth@copeland.gov.uk,Copeland,http://www.copeland.gov.uk,-3.56884700000000,CA28 8PY,2012-03-19,fhrs_5_en-GB,5,,FHRS,5
173217,18 Bank Head,Haverigg,Cumbria,,Big Baps Snack Bar,Mobile caterer,7846,10,,230240,10,,54.20063200000000,PI/000028223,058,envhealth@copeland.gov.uk,Copeland,http://www.copeland.gov.uk,-3.30685900000000,LA18 4LZ,2013-01-30,fhrs_3_en-GB,3,,FHRS,10
173218,Chappels Farm,Whicham,Cumbria,,Big Horse Gift & Gear,Restaurant/Cafe/Canteen,1,0,,230124,0,,54.25473200000000,PI/000034504,058,envhealth@copeland.gov.uk,Copeland,http://www.copeland.gov.uk,-3.28164600000000,LA18 5LY,2014-01-22,fhrs_5_en-GB,5,,FHRS,5
173219,Unit B1,Haig Enterprise Park,High Road,Whitehaven,Billy Bears,Restaurant/Cafe/Canteen,1,,,229714,,,54.54253900000000,PI/000001270,058,envhealth@copeland.gov.uk,Copeland,http://www.copeland.gov.uk,-3.59790500000000,CA28 9AN,2011-07-12,fhrs_exempt_en-GB,Exempt,,FHRS,
173220,The Strand,37 Lowther Street,Whitehaven,Cumbria,Billy McGrady's,Pub/bar/nightclub,7843,5,,229695,5,,54.54898000000000,PI/000034874,058,envhealth@copeland.gov.uk,Copeland,http://www.copeland.gov.uk,-3.58999300000000,CA28 7JU,2011-07-06,fhrs_5_en-GB,5,,FHRS,5
173221,Lamplugh,Cumbria,,,Bird Dyke Farm,Hotel/bed & breakfast/guest house,7842,5,,462908,5,,54.57751700000000,PI/000027365,058,envhealth@copeland.gov.uk,Copeland,http://www.copeland.gov.uk,-3.41023900000000,CA14 4TY,2012-10-24,fhrs_5_en-GB,5,,FHRS,5
173222,28 Market Place,Egremont,Cumbria,,Black Bull,Pub/bar/nightclub,7843,20,,590194,10,,54.48139300000000,PI/000035108,058,envhealth@copeland.gov.uk,Copeland,http://www.copeland.gov.uk,-3.52919200000000,CA22 2AG,2013-08-08,fhrs_1_en-GB,1,,FHRS,10
173223,Black Combe House,Kirksanton,Cumbria,,Black Combe House B & B,Hotel/bed & breakfast/guest house,7842,5,,229707,5,,54.21518900000000,PI/000033683,058,envhealth@copeland.gov.uk,Copeland,http://www.copeland.gov.uk,-3.32366700000000,LA18 4NW,2011-10-20,fhrs_5_en-GB,5,,FHRS,0
173224,Moor Road,Millom,Cumbria,,Black Combe Junior School,School/college/university,7845,0,,230011,5,,54.20893900000000,PI/000028984,058,envhealth@copeland.gov.uk,Copeland,http://www.copeland.gov.uk,-3.27731400000000,LA18 5DT,2013-11-20,fhrs_5_en-GB,5,,FHRS,5
173225,Black Sail Hut,Ennerdale,Cumbria,,Black Sail Youth Hostel,Other catering premises,7841,0,,229790,5,,,PI/000033246,058,envhealth@copeland.gov.uk,Copeland,http://www.copeland.gov.uk,,CA23 3AY,2014-07-01,fhrs_5_en-GB,5,,FHRS,5
173226,Blackbeck,Egremont,Cumbria,,Blackbeck Inn,Hotel/bed & breakfast/guest house,7842,10,,230299,5,,54.44897079467773,PI/000015408,058,envhealth@copeland.gov.uk,Copeland,http://www.copeland.gov.uk,-3.49924969673157,CA22 2NY,2013-02-21,fhrs_3_en-GB,3,,FHRS,10
173227,16 Bookwell,Egremont,Cumbria,,Bookwell Garth Guest House,Hotel/bed & breakfast/guest house,7842,5,,230147,5,,54.48037300000000,PI/000018065,058,envhealth@copeland.gov.uk,Copeland,http://www.copeland.gov.uk,-3.53163900000000,CA22 2LS,2012-11-02,fhrs_5_en-GB,5,,FHRS,5
173228,Bookwell,Egremont,Cumbria,,Bookwell School,School/college/university,7845,0,,230228,0,,54.60365676879883,PI/000018298,058,envhealth@copeland.gov.uk,Copeland,http://www.copeland.gov.uk,-2.93555045127869,CA22 2LT,2014-03-03,fhrs_5_en-GB,5,,FHRS,5
173229,Bootle Post Office,4 Main Street,Bootle,Cumbria,Bootle Stores Ltd,Retailers - other,4613,0,,229756,0,,54.28244600000000,PI/000030172,058,envhealth@copeland.gov.uk,Copeland,http://www.copeland.gov.uk,-3.37193600000000,LA19 5TF,2014-11-24,fhrs_5_en-GB,5,,FHRS,5
173230,Fosters Chemist,6-8 Main Street,Frizington,Cumbria,Boots,Retailers - other,4613,,,435268,,,54.54153700000000,PI/000024713,058,envhealth@copeland.gov.uk,Copeland,http://www.copeland.gov.uk,-3.49424900000000,CA26 3SA,2012-07-24,fhrs_exempt_en-GB,Exempt,,FHRS,
173231,Cross House,Main Street,Silecroft,Cumbria,Boots and Boards,Hotel/bed & breakfast/guest house,7842,5,,229723,0,,54.22541000000000,PI/000033676,058,envhealth@copeland.gov.uk,Copeland,http://www.copeland.gov.uk,-3.33497700000000,LA18 4NR,2014-05-30,fhrs_5_en-GB,5,,FHRS,0
173232,Moss Pharmacy,67-68 Main Street,Egremont,Cumbria,Boots Local Pharmacy,Retailers - other,4613,,,229930,,,54.48309800000000,PI/000020447,058,envhealth@copeland.gov.uk,Copeland,http://www.copeland.gov.uk,-3.52870000000000,CA22 2DB,2011-07-20,fhrs_exempt_en-GB,Exempt,,FHRS,
173233,48-52 Wellington Street,Millom,Cumbria,,Boots the Chemist,Retailers - other,4613,,,229968,,,54.20932300000000,PI/000031788,058,envhealth@copeland.gov.uk,Copeland,http://www.copeland.gov.uk,-3.26648500000000,LA18 4DE,2012-02-02,fhrs_exempt_en-GB,Exempt,,FHRS,
173234,Irton,Cumbria,,,Bower House Inn,Hotel/bed & breakfast/guest house,7842,5,,229888,5,,54.39112800000000,PI/000027503,058,envhealth@copeland.gov.uk,Copeland,http://www.copeland.gov.uk,-3.34965500000000,CA19 1TD,2014-08-26,fhrs_4_en-GB,4,,FHRS,10
173235,Bridge End Garage,Bridge End,Egremont,Cumbria,BP Garage,Retailers - other,4613,0,,230129,0,,54.47777000000000,PI/000020377,058,envhealth@copeland.gov.uk,Copeland,http://www.copeland.gov.uk,-3.52501300000000,CA22 2RQ,2014-10-24,fhrs_5_en-GB,5,,FHRS,0
173236,Senhouse Street,Whitehaven,Cumbria,,Brackenthwaite,Hospitals/Childcare/Caring Premises,5,0,,229682,0,,54.54976700000000,PI/000005809,058,envhealth@copeland.gov.uk,Copeland,http://www.copeland.gov.uk,-3.58758100000000,CA28 7ES,2013-03-26,fhrs_5_en-GB,5,,FHRS,5
173237,The Bradbury Centre,St Georges Road,Millom,Cumbria,Bradbury Centre,Other catering premises,7841,0,,229924,0,,54.20920600000000,PI/000034529,058,envhealth@copeland.gov.uk,Copeland,http://www.copeland.gov.uk,-3.26913400000000,LA18 4DD,2014-11-10,fhrs_5_en-GB,5,,FHRS,0
173238,Wasdale Road,Gosforth,Cumbria,,Bradbury House,Hospitals/Childcare/Caring Premises,5,5,,230142,5,,54.41908700000000,PI/000017064,058,envhealth@copeland.gov.uk,Copeland,http://www.copeland.gov.uk,-3.43330500000000,CA20 1AU,2014-01-31,fhrs_5_en-GB,5,,FHRS,0
173239,The Bransty Arch,Bransty Row,Whitehaven,Cumbria,Bransty Arch,Pub/bar/nightclub,7843,0,,229754,0,,54.55117000000000,PI/000033061,058,envhealth@copeland.gov.uk,Copeland,http://www.copeland.gov.uk,-3.58680000000000,CA28 7XE,2013-09-03,fhrs_5_en-GB,5,,FHRS,5
173240,Bransty School,Haig Avenue,Whitehaven,Cumbria,Bransty Primary School,School/college/university,7845,5,,229730,5,,54.55901600000000,PI/000006903,058,envhealth@copeland.gov.uk,Copeland,http://www.copeland.gov.uk,-3.58135200000000,CA28 6EG,2013-03-19,fhrs_5_en-GB,5,,FHRS,5
173241,1 St Georges Road,Millom,Cumbria,,Bridge Cafe,Restaurant/Cafe/Canteen,1,0,,229996,0,,54.20920300000000,PI/000032277,058,envhealth@copeland.gov.uk,Copeland,http://www.copeland.gov.uk,-3.27022300000000,LA18 4JA,2014-12-08,fhrs_4_en-GB,4,,FHRS,10
173242,Santon Bridge,Cumbria,,,Bridge Inn,Hotel/bed & breakfast/guest house,7842,5,,229862,0,,54.40236700000000,PI/000027420,058,envhealth@copeland.gov.uk,Copeland,http://www.copeland.gov.uk,-3.37245500000000,CA19 1UX,2014-04-17,fhrs_5_en-GB,5,,FHRS,5
173243,Broadgate,Thwaites,Cumbria,,Broadgate House,Hotel/bed & breakfast/guest house,7842,5,,447470,5,,,PI/000032590,058,envhealth@copeland.gov.uk,Copeland,http://www.copeland.gov.uk,,LA18 5JY,2012-09-14,fhrs_4_en-GB,4,,FHRS,10
173244,Thwaites,Cumbria,,,Brockwood Hall,Hotel/bed & breakfast/guest house,7842,10,,229743,10,,54.27032000000000,PI/000033308,058,envhealth@copeland.gov.uk,Copeland,http://www.copeland.gov.uk,-3.25577800000000,LA18 5JX,2013-12-18,fhrs_3_en-GB,3,,FHRS,5
173245,Brook House Inn,Boot,Cumbria,,Brook House,Hotel/bed & breakfast/guest house,7842,0,,229990,5,,54.39807800000000,PI/000027566,058,envhealth@copeland.gov.uk,Copeland,http://www.copeland.gov.uk,-3.26993800000000,CA19 1TG,2013-09-16,fhrs_5_en-GB,5,,FHRS,5
173246,Waberthwaite,Cumbria,,,Brown Cow Inn,Pub/bar/nightclub,7843,5,,229760,5,,54.32828900000000,PI/000032716,058,envhealth@copeland.gov.uk,Copeland,http://www.copeland.gov.uk,-3.37713700000000,LA19 5YJ,2013-04-17,fhrs_4_en-GB,4,,FHRS,10
173247,57 Sneckyeat Grove,Whitehaven,Cumbria,,Burger Express,Mobile caterer,7846,5,,229848,5,,54.53326900000000,PI/000012234,058,envhealth@copeland.gov.uk,Copeland,http://www.copeland.gov.uk,-3.56239700000000,CA28 8PQ,2013-08-01,fhrs_5_en-GB,5,,FHRS,5
173248,Burnthwaite,Wasdale Head,Seascale,Cumbria,Burnthwaite Farm,Hotel/bed & breakfast/guest house,7842,5,,229697,5,,54.45697800000000,PI/000027621,058,envhealth@copeland.gov.uk,Copeland,http://www.copeland.gov.uk,-3.26102500000000,CA20 1EX,2012-04-26,fhrs_5_en-GB,5,,FHRS,5
173249,Rosehill,Moresby,Cumbria,,Busy Bees Day Nursery,Hospitals/Childcare/Caring Premises,5,0,,230083,0,,54.56658000000000,PI/000033305,058,envhealth@copeland.gov.uk,Copeland,http://www.copeland.gov.uk,-3.56507900000000,CA28 6SF,2014-11-28,fhrs_5_en-GB,5,,FHRS,0
173250,5 Market Square,Millom,Cumbria,,C K's,Takeaway/sandwich shop,7844,0,,229899,0,,54.20990700000000,PI/000031748,058,envhealth@copeland.gov.uk,Copeland,http://www.copeland.gov.uk,-3.26998400000000,LA18 4HZ,2014-11-12,fhrs_5_en-GB,5,,FHRS,0
173251,56 King Street,Whitehaven,Cumbria,,Cafe West,Restaurant/Cafe/Canteen,1,5,,229669,5,,54.54819700000000,PI/000005474,058,envhealth@copeland.gov.uk,Copeland,http://www.copeland.gov.uk,-3.59011700000000,CA28 7JH,2013-11-28,fhrs_5_en-GB,5,,FHRS,0
173252,22 Brayton Road,Whitehaven,Cumbria,,Cakealicious,Retailers - other,4613,5,,229658,5,,54.56027700000000,PI/000006576,058,envhealth@copeland.gov.uk,Copeland,http://www.copeland.gov.uk,-3.58045800000000,CA28 6EF,2012-01-26,fhrs_5_en-GB,5,,FHRS,5
173253,The Banks,Seascale,Cumbria,,Calder House Hotel,Hotel/bed & breakfast/guest house,7842,5,,229947,5,,54.39759000000000,PI/000015723,058,envhealth@copeland.gov.uk,Copeland,http://www.copeland.gov.uk,-3.48592900000000,CA20 1QP,2014-01-31,fhrs_5_en-GB,5,,FHRS,5
173254,The Banks,Seascale,Cumbria,,Calderthwaite,Hospitals/Childcare/Caring Premises,5,0,,230216,0,,54.39759000000000,PI/000015616,058,envhealth@copeland.gov.uk,Copeland,http://www.copeland.gov.uk,-3.48592900000000,CA20 1QP,2014-12-15,fhrs_5_en-GB,5,,FHRS,0
173255,Cambridge House,1 Cambridge Street,Millom,Cumbria,Cambridge House Hotel,Hotel/bed & breakfast/guest house,7842,0,,229870,5,,54.21159000000000,PI/000032165,058,envhealth@copeland.gov.uk,Copeland,http://www.copeland.gov.uk,-3.27235100000000,LA18 5BD,2014-03-31,fhrs_5_en-GB,5,,FHRS,0
173256,2 Dyke Nook,Frizington,Cumbria,,Cameron's Catering,Other catering premises,7841,5,,230133,5,,54.54039700000000,PI/000025069,058,envhealth@copeland.gov.uk,Copeland,http://www.copeland.gov.uk,-3.48825600000000,CA26 3QL,2012-04-26,fhrs_5_en-GB,5,,FHRS,5
173257,9 Ennerdale Road,Cleator Moor,Cumbria,,Canton Chef,Restaurant/Cafe/Canteen,1,20,,229793,10,,54.52049900000000,PI/000024013,058,envhealth@copeland.gov.uk,Copeland,http://www.copeland.gov.uk,-3.51279300000000,CA25 5LD,2013-07-09,fhrs_1_en-GB,1,,FHRS,15
173258,2 Senhouse Street,Whitehaven,Cumbria,,Captain Sennys,Pub/bar/nightclub,7843,0,,230309,0,,54.54976700000000,PI/000006291,058,envhealth@copeland.gov.uk,Copeland,http://www.copeland.gov.uk,-3.58758100000000,CA28 7ES,2014-04-16,fhrs_5_en-GB,5,,FHRS,0
173259,Carleton,Cumbria,,,Carleton Green,Hotel/bed & breakfast/guest house,7842,5,,462909,0,,54.37222400000000,PI/000028115,058,envhealth@copeland.gov.uk,Copeland,http://www.copeland.gov.uk,-3.41423000000000,CA19 1YX,2012-10-29,fhrs_5_en-GB,5,,FHRS,0
173260,40 Elizabeth Crescent,Whitehaven,Cumbria,,Carol's Cakery,Other catering premises,7841,5,,229897,5,,54.55825900000000,PI/000011457,058,envhealth@copeland.gov.uk,Copeland,http://www.copeland.gov.uk,-3.56841000000000,CA28 6JQ,2012-02-17,fhrs_5_en-GB,5,,FHRS,5
173261,Casa Romano,132 Queen Street,Whitehaven,Cumbria,Casa Romana,Restaurant/Cafe/Canteen,1,5,,230108,5,,54.54822500000000,PI/000006301,058,envhealth@copeland.gov.uk,Copeland,http://www.copeland.gov.uk,-3.58662400000000,CA28 7QF,2013-07-31,fhrs_4_en-GB,4,,FHRS,10
173262,2 Wellington Street,Millom,Cumbria,,Caspian,Takeaway/sandwich shop,7844,10,,229887,0,,54.20930600000000,PI/000031685,058,envhealth@copeland.gov.uk,Copeland,http://www.copeland.gov.uk,-3.26639200000000,LA18 4DE,2014-11-12,fhrs_4_en-GB,4,,FHRS,10
173263,66 Lowther Street,Whitehaven,Cumbria,,Caspian Classic,Restaurant/Cafe/Canteen,1,10,,230187,10,,,PI/000034820,058,envhealth@copeland.gov.uk,Copeland,http://www.copeland.gov.uk,,CA28 7AE,2013-09-04,fhrs_3_en-GB,3,,FHRS,5
173264,79 High Street,Cleator Moor,Cumbria,,Caspian Pizza,Takeaway/sandwich shop,7844,5,,374195,5,,54.52207400000000,PI/000022433,058,envhealth@copeland.gov.uk,Copeland,http://www.copeland.gov.uk,-3.51770300000000,CA25 5BL,2014-03-12,fhrs_5_en-GB,5,,FHRS,5
173265,Whitehaven Castle,Flatt Walks,Whitehaven,Cumbria,Castle Knights,Pub/bar/nightclub,7843,10,,586536,5,,54.54552400000000,PI/000004286,058,envhealth@copeland.gov.uk,Copeland,http://www.copeland.gov.uk,-3.58282400000000,CA28 7RA,2013-12-06,fhrs_4_en-GB,4,,FHRS,0
173266,Bookwell,Egremont,Cumbria,,Castle Mount,Hospitals/Childcare/Caring Premises,5,0,,230061,5,,54.60365676879883,PI/000018085,058,envhealth@copeland.gov.uk,Copeland,http://www.copeland.gov.uk,-2.93555045127869,CA22 2JP,2014-11-18,fhrs_5_en-GB,5,,FHRS,5
173267,St Marys Catholic Mens Club,High Road,Whitehaven,Cumbria,Catholic Mens Club,Pub/bar/nightclub,7843,5,,230302,5,,54.53383200000000,PI/000001137,058,envhealth@copeland.gov.uk,Copeland,http://www.copeland.gov.uk,-3.59778100000000,CA28 9PG,2011-02-04,fhrs_5_en-GB,5,,FHRS,0
173268,,,,,Cath's Sweet Creations,Other catering premises,7841,5,,542770,0,,,PI/000018793,058,envhealth@copeland.gov.uk,Copeland,http://www.copeland.gov.uk,,,2013-03-26,fhrs_5_en-GB,5,,FHRS,0
173269,The Chase Hotel,Corkickle,Whitehaven,Cumbria,Chase Hotel,Hotel/bed & breakfast/guest house,7842,10,,230208,5,,54.54289600000000,PI/000004515,058,envhealth@copeland.gov.uk,Copeland,http://www.copeland.gov.uk,-3.58032700000000,CA28 8AA,2013-04-24,fhrs_4_en-GB,4,,FHRS,5
173270,27 Main Street,Egremont,Cumbria,,Chattanooga,Takeaway/sandwich shop,7844,10,,229712,10,,54.48304300000000,PI/000019963,058,envhealth@copeland.gov.uk,Copeland,http://www.copeland.gov.uk,-3.52806500000000,CA22 2DR,2013-12-12,fhrs_3_en-GB,3,,FHRS,5
173271,84 High Street,Cleator Moor,Cumbria,,Chattanooga,Takeaway/sandwich shop,7844,10,,230049,5,,54.52207400000000,PI/000021649,058,envhealth@copeland.gov.uk,Copeland,http://www.copeland.gov.uk,-3.51770300000000,CA25 5BL,2013-07-09,fhrs_3_en-GB,3,,FHRS,10
173272,Chatanooga,237 Frizington Road,Frizington,Cumbria,Chattanooga,Takeaway/sandwich shop,7844,0,,229866,5,,54.54002200000000,PI/000024924,058,envhealth@copeland.gov.uk,Copeland,http://www.copeland.gov.uk,-3.49536800000000,CA26 3SN,2014-03-27,fhrs_4_en-GB,4,,FHRS,10
173273,5 Duke Street,Whitehaven,Cumbria,,Chattanooga Flame Grill Take Away,Takeaway/sandwich shop,7844,10,,230192,0,,54.54984300000000,PI/000006184,058,envhealth@copeland.gov.uk,Copeland,http://www.copeland.gov.uk,-3.58863500000000,CA28 7EW,2014-01-16,fhrs_4_en-GB,4,,FHRS,10
173274,Low Moresby,Cumbria,,,Chestnuts,Hotel/bed & breakfast/guest house,7842,10,,229896,5,,54.57437700000000,PI/000014396,058,envhealth@copeland.gov.uk,Copeland,http://www.copeland.gov.uk,-3.55569300000000,CA28 6RX,2011-08-02,fhrs_4_en-GB,4,,FHRS,5
173275,17 Duke Street,Whitehaven,Cumbria,,Chicken Hut,Takeaway/sandwich shop,7844,5,,542769,5,,54.54937000000000,PI/000005315,058,envhealth@copeland.gov.uk,Copeland,http://www.copeland.gov.uk,-3.58702400000000,CA28 7ET,2013-10-22,fhrs_5_en-GB,5,,FHRS,5
173276,St Gregorys And St Patricks Rc Infants School,Esk Avenue,Whitehaven,Cumbria,Chill Out Zone,Hospitals/Childcare/Caring Premises,5,5,,230120,10,,54.53740000000000,PI/000034819,058,envhealth@copeland.gov.uk,Copeland,http://www.copeland.gov.uk,-3.57795000000000,CA28 8AJ,2013-04-18,fhrs_4_en-GB,4,,FHRS,5
173277,80 Whinlatter Road,Whitehaven,Cumbria,,Choccylicious,Other catering premises,7841,5,,606769,0,,54.53058200000000,PI/000008209,058,envhealth@copeland.gov.uk,Copeland,http://www.copeland.gov.uk,-3.57558500000000,CA28 8DQ,2013-10-28,fhrs_5_en-GB,5,,FHRS,0
173278,Church Street,Cleator,Cumbria,,Cleator Cricket Club,Pub/bar/nightclub,7843,10,,229805,5,,54.50825000000000,PI/000033394,058,envhealth@copeland.gov.uk,Copeland,http://www.copeland.gov.uk,-3.52624100000000,CA23 3DD,2014-04-30,fhrs_3_en-GB,3,,FHRS,10
173279,Cleator Moor Town Council,Copeland Borough Council,Market Square,Cleator Moor,Cleator Moor Council Centre,Restaurant/Cafe/Canteen,1,5,,229851,0,,54.51923400000000,PI/000033070,058,envhealth@copeland.gov.uk,Copeland,http://www.copeland.gov.uk,-3.51552700000000,CA25 5PA,2011-11-16,fhrs_5_en-GB,5,,FHRS,0
173280,Ennerdale Road,Cleator Moor,Cumbria,,Cleator Moor Nursery School,School/college/university,7845,5,,667311,0,,54.51766900000000,PI/000035217,058,envhealth@copeland.gov.uk,Copeland,http://www.copeland.gov.uk,-3.50840900000000,CA25 5LW,2014-03-10,fhrs_5_en-GB,5,,FHRS,0
173281,Cleator Moor Youth And Community Centre,Birks Road,Cleator Moor,Cumbria,Cleator Moor Youth & Community Ctr,Retailers - other,4613,5,,230048,0,,54.52212800000000,PI/000022331,058,envhealth@copeland.gov.uk,Copeland,http://www.copeland.gov.uk,-3.51694800000000,CA25 5HP,2011-08-26,fhrs_5_en-GB,5,,FHRS,0
173282,50 Main Street,Cleator,Cumbria,,Cleator Stores,Retailers - other,4613,5,,229685,5,,54.50726000000000,PI/000021089,058,envhealth@copeland.gov.uk,Copeland,http://www.copeland.gov.uk,-3.52214200000000,CA23 3BX,2014-11-19,fhrs_5_en-GB,5,,FHRS,0
173283,7A Coleridge Drive,Egremont,Cumbria,,Coleridge Stores,Retailers - other,4613,10,,229680,5,,54.48287500000000,PI/000018291,058,envhealth@copeland.gov.uk,Copeland,http://www.copeland.gov.uk,-3.53781500000000,CA22 2EX,2013-05-13,fhrs_3_en-GB,3,,FHRS,10
173284,Market Street,Cleator Moor,Cumbria,,Columba Club,Pub/bar/nightclub,7843,5,,229763,0,,54.52045400000000,PI/000034950,058,envhealth@copeland.gov.uk,Copeland,http://www.copeland.gov.uk,-3.51568000000000,CA25 5AX,2014-11-25,fhrs_5_en-GB,5,,FHRS,0
173285,Workshop And Premises Rear Of,1 Market Place,Egremont,Cumbria,Company Catering,Manufacturers/packers,7839,10,,230067,10,,,PI/000020411,058,envhealth@copeland.gov.uk,Copeland,http://www.copeland.gov.uk,,,2014-03-31,fhrs_3_en-GB,3,,FHRS,10
173286,53-55 Main Street,Distington,Cumbria,,Co-op,Retailers - supermarkets/hypermarkets,7840,5,,229800,5,,54.59732400000000,PI/000026162,058,envhealth@copeland.gov.uk,Copeland,http://www.copeland.gov.uk,-3.53875100000000,CA14 5SZ,2012-10-18,fhrs_5_en-GB,5,,FHRS,5
173287,Alldays Store Ltd,Lakeland Avenue,Whitehaven,Cumbria,Co-op,Retailers - supermarkets/hypermarkets,7840,5,,229838,5,,54.53443200000000,PI/000001139,058,envhealth@copeland.gov.uk,Copeland,http://www.copeland.gov.uk,-3.59384800000000,CA28 9PR,2013-02-22,fhrs_5_en-GB,5,,FHRS,5
173288,Co-Operative Retail Services Ltd,33-35 Lapstone Road,Millom,Cumbria,Co-op,Retailers - supermarkets/hypermarkets,7840,5,,230032,5,,54.20999300000000,PI/000031840,058,envhealth@copeland.gov.uk,Copeland,http://www.copeland.gov.uk,-3.26948000000000,LA18 4BT,2012-12-11,fhrs_5_en-GB,5,,FHRS,5
173289,Cumbrian Co Op Supermarket,Leconfield Street,Cleator Moor,Cumbria,Co-op Supermarket,Retailers - supermarkets/hypermarkets,7840,0,,229936,5,,54.52421600000000,PI/000022342,058,envhealth@copeland.gov.uk,Copeland,http://www.copeland.gov.uk,-3.52387000000000,CA25 5QA,2013-11-11,fhrs_4_en-GB,4,,FHRS,10
173290,Overend Sports Stadium,Overend Road,Whitehaven,Cumbria,Copeland Stadium,Restaurant/Cafe/Canteen,1,5,,229859,5,,54.53485200000000,PI/000033545,058,envhealth@copeland.gov.uk,Copeland,http://www.copeland.gov.uk,-3.56098900000000,CA28 8SS,2011-06-28,fhrs_5_en-GB,5,,FHRS,5
173291,West Cumberland Hospital,Homewood Road,Whitehaven,Cumbria,Copeland Unit,Hospitals/Childcare/Caring Premises,5,0,,230128,0,,54.53020300000000,PI/000033463,058,envhealth@copeland.gov.uk,Copeland,http://www.copeland.gov.uk,-3.56319200000000,CA28 8JG,2013-03-01,fhrs_5_en-GB,5,,FHRS,5
173292,Cockickle Service Station,Back Corkickle,Whitehaven,Cumbria,Corkickle Service Station,Retailers - other,4613,10,,230270,5,,54.54260200000000,PI/000004289,058,envhealth@copeland.gov.uk,Copeland,http://www.copeland.gov.uk,-3.57875400000000,CA28 7TS,2014-07-14,fhrs_4_en-GB,4,,FHRS,5
173293,62 King Street,Whitehaven,Cumbria,,Costa Coffee,Restaurant/Cafe/Canteen,1,5,,230015,5,,54.54819700000000,PI/000004833,058,envhealth@copeland.gov.uk,Copeland,http://www.copeland.gov.uk,-3.59011700000000,CA28 7JH,2014-09-12,fhrs_4_en-GB,4,,FHRS,10
173294,Jubilee Garage,North Road,Egremont,Cumbria,Costcutter,Retailers - other,4613,5,,229694,10,,54.48620700000000,PI/000018766,058,envhealth@copeland.gov.uk,Copeland,http://www.copeland.gov.uk,-3.52948000000000,CA22 2PR,2014-07-04,fhrs_4_en-GB,4,,FHRS,0
173295,29 Main Street,Hensingham,Cumbria,,Cottage Chippy,Takeaway/sandwich shop,7844,0,,230303,5,,54.53657400000000,PI/000009275,058,envhealth@copeland.gov.uk,Copeland,http://www.copeland.gov.uk,-3.56816500000000,CA28 8RG,2014-01-06,fhrs_5_en-GB,5,,FHRS,5
173296,Croft Hill,Quality Corner,Moresby,Cumbria,Croft Hill Guest House,Hotel/bed & breakfast/guest house,7842,5,,405950,5,,54.56289700000000,PI/000011888,058,envhealth@copeland.gov.uk,Copeland,http://www.copeland.gov.uk,-3.56696400000000,CA28 8UP,2012-06-07,fhrs_5_en-GB,5,,FHRS,5
173297,Dove Cottage,Nethertown,Cumbria,,Croft Kitchen,Other catering premises,7841,0,,230075,0,,54.45559100000000,PI/000034848,058,envhealth@copeland.gov.uk,Copeland,http://www.copeland.gov.uk,-3.55923600000000,CA22 2UH,2014-03-06,fhrs_5_en-GB,5,,FHRS,0
173298,32 Tangier Street,Whitehaven,Cumbria,,Crosbys Fish & Chips,Takeaway/sandwich shop,7844,5,,230141,0,,54.55035200000000,PI/000006043,058,envhealth@copeland.gov.uk,Copeland,http://www.copeland.gov.uk,-3.58748000000000,CA28 7UZ,2013-12-10,fhrs_5_en-GB,5,,FHRS,5
173299,Senhouse Street,Whitehaven,Cumbria,,Cross Keys Day Centre,Restaurant/Cafe/Canteen,1,5,,230082,5,,54.54976700000000,PI/000006473,058,envhealth@copeland.gov.uk,Copeland,http://www.copeland.gov.uk,-3.58758100000000,CA28 7ES,2011-06-23,fhrs_5_en-GB,5,,FHRS,0
173300,59 Roper Street,Whitehaven,Cumbria,,Cross's Cafe,Restaurant/Cafe/Canteen,1,5,,230311,0,,54.54716500000000,PI/000005246,058,envhealth@copeland.gov.uk,Copeland,http://www.copeland.gov.uk,-3.58995300000000,CA28 7AU,2013-11-21,fhrs_5_en-GB,5,,FHRS,0
173301,Kart Track And Premises,Kelton Head Quarry,Lamplugh,Cumbria,Cumbria Kart Racing Club,Restaurant/Cafe/Canteen,1,10,,230014,5,,54.55724900000000,PI/000025788,058,envhealth@copeland.gov.uk,Copeland,http://www.copeland.gov.uk,-3.44532300000000,CA14 4SG,2013-04-22,fhrs_3_en-GB,3,,FHRS,10
173302,40 Main Street,Egremont,Cumbria,,Cumbrian Co-op (Main Store),Retailers - supermarkets/hypermarkets,7840,0,,230195,0,,54.48168300000000,PI/000020359,058,envhealth@copeland.gov.uk,Copeland,http://www.copeland.gov.uk,-3.52832300000000,CA22 2AD,2014-02-10,fhrs_4_en-GB,4,,FHRS,10
173303,Cumbrian Lodge Hotel,Gosforth Road,Seascale,Cumbria,Cumbrian Lodge,Hotel/bed & breakfast/guest house,7842,5,,229786,0,,54.39856300000000,PI/000016315,058,envhealth@copeland.gov.uk,Copeland,http://www.copeland.gov.uk,-3.47621400000000,CA20 1JG,2013-07-05,fhrs_5_en-GB,5,,FHRS,5
173304,63 Rheda Close,Frizington,Cumbria,,Cupcake Couture,Retailers - other,4613,5,,405953,5,,54.53674500000000,PI/000034962,058,envhealth@copeland.gov.uk,Copeland,http://www.copeland.gov.uk,-3.50161600000000,CA26 3TB,2012-05-15,fhrs_5_en-GB,5,,FHRS,5
173305,Curry Spice,Market Square,Millom,Cumbria,Curry Spice Take Away Restaurant,Takeaway/sandwich shop,7844,10,,229744,10,,54.20990700000000,PI/000034811,058,envhealth@copeland.gov.uk,Copeland,http://www.copeland.gov.uk,-3.26998400000000,LA18 4HZ,2014-06-26,fhrs_3_en-GB,3,,FHRS,10
173306,20 The Crofts,St Bees,Cumbria,,Curvaceous Cupcakes,Other catering premises,7841,5,,590191,5,,54.49067900000000,PI/000002129,058,envhealth@copeland.gov.uk,Copeland,http://www.copeland.gov.uk,-3.58765200000000,CA27 0BH,2013-08-01,fhrs_5_en-GB,5,,FHRS,5
173307,Ristorante Da Vinci,West County Hotel,Market Square,Millom,Davinci Italia,Restaurant/Cafe/Canteen,1,5,,623494,5,,54.20990700000000,PI/000031868,058,envhealth@copeland.gov.uk,Copeland,http://www.copeland.gov.uk,-3.26998400000000,LA18 4HZ,2013-03-26,fhrs_5_en-GB,5,,FHRS,5
173308,Dentholme,Cragg Road,Cleator Moor,Cumbria,Dentholme Residential Home,Hospitals/Childcare/Caring Premises,5,5,,229797,5,,54.51863300000000,PI/000023734,058,envhealth@copeland.gov.uk,Copeland,http://www.copeland.gov.uk,-3.51328000000000,CA25 5PR,2013-03-22,fhrs_5_en-GB,5,,FHRS,0
173309,Distington Arlfc,West View Road,Distington,Cumbria,Distington Community and Amateur Spo,Pub/bar/nightclub,7843,10,,229867,5,,54.59503000000000,PI/000026742,058,envhealth@copeland.gov.uk,Copeland,http://www.copeland.gov.uk,-3.54521200000000,CA14 5XG,2014-07-23,fhrs_4_en-GB,4,,FHRS,5
173310,Distington Infants School,Church Road,Distington,Cumbria,Distington Community School,School/college/university,7845,0,,230064,0,,54.59751400000000,PI/000026728,058,envhealth@copeland.gov.uk,Copeland,http://www.copeland.gov.uk,-3.54075500000000,CA14 5TE,2014-01-13,fhrs_5_en-GB,5,,FHRS,5
173311,Dockwray Meadow Caravan Park And Premises,Lamplugh,Cumbria,,Dockray Meadow Caravan Park,Retailers - other,4613,5,,590193,5,,54.57751700000000,PI/000025982,058,envhealth@copeland.gov.uk,Copeland,http://www.copeland.gov.uk,-3.41023900000000,CA14 4TY,2013-09-05,fhrs_5_en-GB,5,,FHRS,5
173312,The Dog And Partridge,Sandwith,Cumbria,,Dog & Partridge Inn,Pub/bar/nightclub,7843,10,,229657,5,,54.51762000000000,PI/000000434,058,envhealth@copeland.gov.uk,Copeland,http://www.copeland.gov.uk,-3.60099500000000,CA28 9UG,2013-10-10,fhrs_4_en-GB,4,,FHRS,5
173313,R Donnan Ltd,Fish Handling Hall,North Shore,Whitehaven,Donnan's Quayside Fisheries,Retailers - other,4613,10,,230151,5,,54.55220200000000,PI/000004834,058,envhealth@copeland.gov.uk,Copeland,http://www.copeland.gov.uk,-3.59038100000000,CA28 7XY,2012-03-05,fhrs_3_en-GB,3,,FHRS,10
173314,Duddon Bridge,Cumbria,,,Dower House,Hotel/bed & breakfast/guest house,7842,5,,230246,5,,54.28367900000000,PI/000032659,058,envhealth@copeland.gov.uk,Copeland,http://www.copeland.gov.uk,-3.23550900000000,LA20 6ET,2014-02-24,fhrs_5_en-GB,5,,FHRS,5
173315,45 Main Street,Egremont,Cumbria,,Dragon Palace,Takeaway/sandwich shop,7844,5,,229938,5,,54.48184500000000,PI/000019842,058,envhealth@copeland.gov.uk,Copeland,http://www.copeland.gov.uk,-3.52900800000000,CA22 2AB,2014-02-13,fhrs_4_en-GB,4,,FHRS,10
173316,East Road Garage Ltd,East Road,Egremont,Cumbria,East Road Service Station,Retailers - other,4613,5,,229960,0,,54.48556000000000,PI/000020822,058,envhealth@copeland.gov.uk,Copeland,http://www.copeland.gov.uk,-3.52732500000000,CA22 2EB,2014-06-26,fhrs_5_en-GB,5,,FHRS,0
173317,Egremont And District Conservative Club,Ehen Court Road,Egremont,Cumbria,Egremont & District Conservative Clu,Pub/bar/nightclub,7843,5,,229876,5,,54.48230400000000,PI/000020284,058,envhealth@copeland.gov.uk,Copeland,http://www.copeland.gov.uk,-3.52610800000000,CA22 2DX,2012-11-15,fhrs_5_en-GB,5,,FHRS,5
173318,Gillfoot Park,Gillfoot,Egremont,Cumbria,Egremont Cricket Club,Pub/bar/nightclub,7843,10,,229905,0,,54.48763000000000,PI/000033381,058,envhealth@copeland.gov.uk,Copeland,http://www.copeland.gov.uk,-3.53986100000000,CA22 2QH,2014-03-13,fhrs_4_en-GB,4,,FHRS,0
173319,Market Hall,Market Street,Egremont,Cumbria,Egremont Market Hall,Other catering premises,7841,5,,229951,5,,54.48360200000000,PI/000033153,058,envhealth@copeland.gov.uk,Copeland,http://www.copeland.gov.uk,-3.52864200000000,CA22 2DF,2012-03-07,fhrs_5_en-GB,5,,FHRS,5
173320,St Marys And St Michaels Church Hall,South Street,Egremont,Cumbria,Egremont Parish Church Hall,Other catering premises,7841,0,,229819,0,,54.48027600000000,PI/000033062,058,envhealth@copeland.gov.uk,Copeland,http://www.copeland.gov.uk,-3.52800800000000,CA22 2AY,2014-02-18,fhrs_5_en-GB,5,,FHRS,0
173321,Egremont Rugby Club,North Road,Egremont,Cumbria,Egremont Rangers Rugby League Footba,Pub/bar/nightclub,7843,10,,429217,5,,54.48620700000000,PI/000018765,058,envhealth@copeland.gov.uk,Copeland,http://www.copeland.gov.uk,-3.52948000000000,CA22 2PR,2012-07-18,fhrs_4_en-GB,4,,FHRS,5
173322,Egremont Ru Football Club,Bridge End,Egremont,Cumbria,Egremont Rugby Union Football Club,Pub/bar/nightclub,7843,5,,229946,5,,54.47777000000000,PI/000018218,058,envhealth@copeland.gov.uk,Copeland,http://www.copeland.gov.uk,-3.52501300000000,CA22 2RQ,2012-10-03,fhrs_5_en-GB,5,,FHRS,5
173323,5 Ellerbeck Barns,Egremont,Cumbria,,Ellerbeck Manor,Hotel/bed & breakfast/guest house,7842,0,,418883,0,,54.47482900000000,PI/000034968,058,envhealth@copeland.gov.uk,Copeland,http://www.copeland.gov.uk,-3.56384200000000,CA22 2UA,2014-07-09,fhrs_5_en-GB,5,,FHRS,0
173324,Walkmill Close,Moresby Parks,Cumbria,,Emmaus House,Hospitals/Childcare/Caring Premises,5,0,,229810,0,,54.55686500000000,PI/000013474,058,envhealth@copeland.gov.uk,Copeland,http://www.copeland.gov.uk,-3.55037100000000,CA28 8XR,2013-03-18,fhrs_5_en-GB,5,,FHRS,5
173325,Cleator,Cumbria,,,Ennerdale Country House Hotel,Hotel/bed & breakfast/guest house,7842,0,,230148,0,,54.50942611694336,PI/000021090,058,envhealth@copeland.gov.uk,Copeland,http://www.copeland.gov.uk,-3.51792860031128,CA23 3DT,2014-11-28,fhrs_5_en-GB,5,,FHRS,5
173326,Cat Crag Youth Hostel Association,Ennerdale,Cumbria,,Ennerdale Youth Hostel,Other catering premises,7841,0,,230123,0,,54.51482100000000,PI/000027629,058,envhealth@copeland.gov.uk,Copeland,http://www.copeland.gov.uk,-3.32668200000000,CA23 3AX,2013-01-14,fhrs_5_en-GB,5,,FHRS,5
173327,Eskdale Stores,Eskdale,Cumbria,,Eskdale Stores & Post Office,Retailers - other,4613,5,,230093,0,,54.38975800000000,PI/000027549,058,envhealth@copeland.gov.uk,Copeland,http://www.copeland.gov.uk,-3.32407600000000,CA19 1TX,2014-01-24,fhrs_5_en-GB,5,,FHRS,0
173328,Boot,Cumbria,,,Eskdale Youth Hostel,Other catering premises,7841,0,,229911,0,,54.39800800000000,PI/000027618,058,envhealth@copeland.gov.uk,Copeland,http://www.copeland.gov.uk,-3.24823200000000,CA19 1TH,2014-08-27,fhrs_5_en-GB,5,,FHRS,0
173329,22 Market Place,Whitehaven,Cumbria,,Espresso Cafe,Restaurant/Cafe/Canteen,1,0,,462906,0,,54.54688200000000,PI/000006237,058,envhealth@copeland.gov.uk,Copeland,http://www.copeland.gov.uk,-3.59094700000000,CA28 7JB,2014-07-04,fhrs_5_en-GB,5,,FHRS,5
173330,Sir Christopher Harding House,North Shore,Whitehaven,Cumbria,Europa,Restaurant/Cafe/Canteen,1,5,,586542,5,,54.55220200000000,PI/000035190,058,envhealth@copeland.gov.uk,Copeland,http://www.copeland.gov.uk,-3.59038100000000,CA28 7XY,2013-07-23,fhrs_5_en-GB,5,,FHRS,5
173331,Beckside,Silecroft,Cumbria,,Exclusively Cumbrian,Retailers - other,4613,5,,447469,5,,54.25015300000000,PI/000030430,058,envhealth@copeland.gov.uk,Copeland,http://www.copeland.gov.uk,-3.30630700000000,LA18 5LU,2012-08-23,fhrs_5_en-GB,5,,FHRS,5
173332,West Cumberland Hospital,Homewood Road,Whitehaven,Cumbria,Fairfield Ward Kitchen,Hospitals/Childcare/Caring Premises,5,0,,230247,0,,54.53020300000000,PI/000033466,058,envhealth@copeland.gov.uk,Copeland,http://www.copeland.gov.uk,-3.56319200000000,CA28 8JG,2013-03-01,fhrs_5_en-GB,5,,FHRS,5
173333,Fairladies Barn,Main Street,St Bees,Cumbria,Fairladies Barn Guest House,Hotel/bed & breakfast/guest house,7842,5,,230168,0,,54.48823200000000,PI/000002305,058,envhealth@copeland.gov.uk,Copeland,http://www.copeland.gov.uk,-3.58985700000000,CA27 0AD,2014-03-17,fhrs_5_en-GB,5,,FHRS,0
173334,Dalegarth Cafe,Dalegarth Station,Boot,Cumbria,Fellbites Cafe,Restaurant/Cafe/Canteen,1,0,,229809,0,,54.39218900000000,PI/000027571,058,envhealth@copeland.gov.uk,Copeland,http://www.copeland.gov.uk,-3.28283200000000,CA19 1TF,2014-02-17,fhrs_5_en-GB,5,,FHRS,0
173335,Tesco Stores Ltd,Bransty Row,Whitehaven,Cumbria,Filling Station,Retailers - other,4613,5,,229816,5,,54.55117000000000,PI/000034836,058,envhealth@copeland.gov.uk,Copeland,http://www.copeland.gov.uk,-3.58680000000000,CA28 7XE,2013-07-19,fhrs_5_en-GB,5,,FHRS,5
173336,High House Road,St Bees,Cumbria,,Fleatham House,Hotel/bed & breakfast/guest house,7842,5,,229647,0,,54.49126300000000,PI/000002236,058,envhealth@copeland.gov.uk,Copeland,http://www.copeland.gov.uk,-3.58494200000000,CA27 0BX,2011-08-30,fhrs_5_en-GB,5,,FHRS,0
173337,Forest How,Eskdale,Cumbria,,Forest How Guest House,Hotel/bed & breakfast/guest house,7842,0,,230196,0,,54.38604700000000,PI/000032832,058,envhealth@copeland.gov.uk,Copeland,http://www.copeland.gov.uk,-3.33053200000000,CA19 1TR,2014-06-25,fhrs_5_en-GB,5,,FHRS,0
173338,Four Seasons,Leconfield Street,Cleator Moor,Cumbria,Four Seasons (Nisa Store),Retailers - supermarkets/hypermarkets,7840,0,,230275,0,,54.52554700000000,PI/000033413,058,envhealth@copeland.gov.uk,Copeland,http://www.copeland.gov.uk,-3.52733500000000,CA25 5QQ,2014-12-11,fhrs_5_en-GB,5,,FHRS,0
173339,27-28 High Street,Cleator Moor,Cumbria,,Four Seasons Express,Retailers - other,4613,10,,229958,15,,54.52180400000000,PI/000034652,058,envhealth@copeland.gov.uk,Copeland,http://www.copeland.gov.uk,-3.51767700000000,CA25 5BJ,2013-08-30,fhrs_2_en-GB,2,,FHRS,10
173340,Fox And Hounds Inn,Ennerdale,Cumbria,,Fox & Hounds Inn,Pub/bar/nightclub,7843,10,,229927,0,,54.52895300000000,PI/000025763,058,envhealth@copeland.gov.uk,Copeland,http://www.copeland.gov.uk,-3.43874400000000,CA23 3AR,2014-06-03,fhrs_2_en-GB,2,,FHRS,15
173341,Tarn Head,Haverigg,Cumbria,,Foxcroft,Hotel/bed & breakfast/guest house,7842,5,,230252,5,,54.20402100000000,PI/000028643,058,envhealth@copeland.gov.uk,Copeland,http://www.copeland.gov.uk,-3.29264700000000,LA18 4NF,2011-09-22,fhrs_5_en-GB,5,,FHRS,5
173342,26 Nelson Square,Egremont,Cumbria,,Foxy's Bake House,Other catering premises,7841,5,,335040,5,,54.48161600000000,PI/000017197,058,envhealth@copeland.gov.uk,Copeland,http://www.copeland.gov.uk,-3.53216400000000,CA22 2BE,2012-04-11,fhrs_5_en-GB,5,,FHRS,5
173343,33 Main Street,Egremont,Cumbria,,Frasers Fish & Chips,Takeaway/sandwich shop,7844,5,,230037,10,,54.48304300000000,PI/000019836,058,envhealth@copeland.gov.uk,Copeland,http://www.copeland.gov.uk,-3.52806500000000,CA22 2DR,2014-12-02,fhrs_3_en-GB,3,,FHRS,10
173344,135 Main Street,Frizington,Cumbria,,Frizington Chippy,Takeaway/sandwich shop,7844,0,,229860,0,,54.54134400000000,PI/000024715,058,envhealth@copeland.gov.uk,Copeland,http://www.copeland.gov.uk,-3.49388600000000,CA26 3SB,2014-10-21,fhrs_5_en-GB,5,,FHRS,5
173345,Frizington County School,Main Street,Frizington,Cumbria,Frizington Community School,School/college/university,7845,0,,229879,5,,54.54451500000000,PI/000025184,058,envhealth@copeland.gov.uk,Copeland,http://www.copeland.gov.uk,-3.49035300000000,CA26 3PF,2012-06-26,fhrs_5_en-GB,5,,FHRS,0
173346,Main Street,Frizington,Cumbria,,Frizington Nursery School,School/college/university,7845,0,,229872,0,,54.54451500000000,PI/000025185,058,envhealth@copeland.gov.uk,Copeland,http://www.copeland.gov.uk,-3.49035300000000,CA26 3PF,2013-03-25,fhrs_5_en-GB,5,,FHRS,0
173347,Main Street,Frizington,Cumbria,,Frizington Shop Ltd,Retailers - supermarkets/hypermarkets,7840,20,,230152,5,,54.54153700000000,PI/000033075,058,envhealth@copeland.gov.uk,Copeland,http://www.copeland.gov.uk,-3.49424900000000,CA26 3SA,2013-10-30,fhrs_1_en-GB,1,,FHRS,10
173348,21 Main Street,Frizington,Cumbria,,Frizington White Star Football Club,Pub/bar/nightclub,7843,10,,667297,5,,54.54153700000000,PI/000025143,058,envhealth@copeland.gov.uk,Copeland,http://www.copeland.gov.uk,-3.49424900000000,CA26 3SA,2013-04-30,fhrs_3_en-GB,3,,FHRS,10
173349,West Cumberland Hospital,Homewood Road,Whitehaven,Cumbria,Gable/Coronary Care Ward Kitchen,Hospitals/Childcare/Caring Premises,5,0,,230251,5,,54.53020300000000,PI/000033457,058,envhealth@copeland.gov.uk,Copeland,http://www.copeland.gov.uk,-3.56319200000000,CA28 8JG,2012-03-08,fhrs_5_en-GB,5,,FHRS,0
173350,44 Market Place,Whitehaven,Cumbria,,Georges,Takeaway/sandwich shop,7844,5,,229668,5,,54.54688200000000,PI/000003922,058,envhealth@copeland.gov.uk,Copeland,http://www.copeland.gov.uk,-3.59094700000000,CA28 7JB,2013-04-24,fhrs_4_en-GB,4,,FHRS,10
173351,Ghyll Farm,Kirkland,Cumbria,,Ghyll Farm Bed and Breakfast,Hotel/bed & breakfast/guest house,7842,5,,586539,0,,54.54305000000000,PI/000025964,058,envhealth@copeland.gov.uk,Copeland,http://www.copeland.gov.uk,-3.42395100000000,CA26 3YA,2013-08-02,fhrs_5_en-GB,5,,FHRS,0
173352,Gift Shop And Tourist Information,The Ravenglass And Eskdale Railway Co Ltd,Ravenglass,Cumbria,Gift Shop andTourist Information Cen,Retailers - other,4613,5,,230220,5,,,PI/000028087,058,envhealth@copeland.gov.uk,Copeland,http://www.copeland.gov.uk,,,2012-07-31,fhrs_5_en-GB,5,,FHRS,5
173353,Glen Ard,Inkerman Terrace,Whitehaven,Cumbria,Glenard,Hotel/bed & breakfast/guest house,7842,5,,229688,5,,54.54020700000000,PI/000010522,058,envhealth@copeland.gov.uk,Copeland,http://www.copeland.gov.uk,-3.57563200000000,CA28 7TY,2014-01-27,fhrs_5_en-GB,5,,FHRS,5
173354,Back Corkickle,Whitehaven,Cumbria,,Glenfield,Hotel/bed & breakfast/guest house,7842,0,,230009,0,,54.54260200000000,PI/000004106,058,envhealth@copeland.gov.uk,Copeland,http://www.copeland.gov.uk,-3.57875400000000,CA28 7TS,2014-03-07,fhrs_5_en-GB,5,,FHRS,5
173355,Market Place,Whitehaven,Cumbria,,Golden Lion Cafe,Restaurant/Cafe/Canteen,1,5,,230026,5,,54.54730000000000,PI/000033523,058,envhealth@copeland.gov.uk,Copeland,http://www.copeland.gov.uk,-3.59067000000000,CA28 7JD,2014-01-30,fhrs_5_en-GB,5,,FHRS,5
173356,Sea View Nurseries,Nethertown,Cumbria,,Good Companions,Restaurant/Cafe/Canteen,1,5,,229646,0,,54.45667600000000,PI/000034454,058,envhealth@copeland.gov.uk,Copeland,http://www.copeland.gov.uk,-3.56637300000000,CA22 2UQ,2014-02-10,fhrs_4_en-GB,4,,FHRS,10
173357,Meadow View,Gosforth,Cumbria,,Gosforth Bakery,Other catering premises,7841,5,,229752,10,,54.41860100000000,PI/000033081,058,envhealth@copeland.gov.uk,Copeland,http://www.copeland.gov.uk,-3.43715600000000,CA20 1AS,2014-03-25,fhrs_4_en-GB,4,,FHRS,5
173358,Gosforth,Cumbria,,,Gosforth C of E School,School/college/university,7845,0,,229825,5,,54.41913600000000,PI/000017061,058,envhealth@copeland.gov.uk,Copeland,http://www.copeland.gov.uk,-3.42994700000000,CA20 1AZ,2014-03-31,fhrs_5_en-GB,5,,FHRS,5
173359,Gosforth Hall Hotel,Gosforth,Cumbria,,Gosforth Hall Inn,Hotel/bed & breakfast/guest house,7842,5,,229840,0,,54.41913600000000,PI/000017062,058,envhealth@copeland.gov.uk,Copeland,http://www.copeland.gov.uk,-3.42994700000000,CA20 1AZ,2014-02-07,fhrs_4_en-GB,4,,FHRS,10
173360,Gosforth C Of E School,Gosforth,Cumbria,,Gosforth Nursery,Hospitals/Childcare/Caring Premises,5,0,,229878,5,,54.41913600000000,PI/000033739,058,envhealth@copeland.gov.uk,Copeland,http://www.copeland.gov.uk,-3.42994700000000,CA20 1AZ,2014-11-18,fhrs_5_en-GB,5,,FHRS,0
173361,31 Scotch Street,Whitehaven,Cumbria,,Granny Wongs,Takeaway/sandwich shop,7844,5,,229735,0,,54.54863000000000,PI/000006227,058,envhealth@copeland.gov.uk,Copeland,http://www.copeland.gov.uk,-3.58450600000000,CA28 7NS,2014-03-13,fhrs_5_en-GB,5,,FHRS,5
173362,2G Bridge End Industrial Estate,Egremont,Cumbria,,Great Gable Brewing Company Ltd,Other catering premises,7841,5,,229902,5,,54.47727400000000,PI/000034786,058,envhealth@copeland.gov.uk,Copeland,http://www.copeland.gov.uk,-3.52510300000000,CA22 2RD,2012-01-11,fhrs_5_en-GB,5,,FHRS,5
173363,Gameriggs Road,Whitehaven,Cumbria,,Greenbank Community Centre,Other catering premises,7841,5,,229653,5,,54.52673500000000,PI/000033072,058,envhealth@copeland.gov.uk,Copeland,http://www.copeland.gov.uk,-3.58453900000000,CA28 9RA,2013-09-10,fhrs_5_en-GB,5,,FHRS,5
173364,Greenbank P And M Club,Greenbank Avenue,Whitehaven,Cumbria,Greenbank P & M Club,Pub/bar/nightclub,7843,5,,229952,5,,54.52644300000000,PI/000003026,058,envhealth@copeland.gov.uk,Copeland,http://www.copeland.gov.uk,-3.58417200000000,CA28 9QT,2012-04-13,fhrs_4_en-GB,4,,FHRS,10
173365,42 Main Street,Egremont,Cumbria,,Greggs,Retailers - other,4613,0,,230135,5,,54.48168300000000,PI/000020394,058,envhealth@copeland.gov.uk,Copeland,http://www.copeland.gov.uk,-3.52832300000000,CA22 2AD,2014-02-10,fhrs_5_en-GB,5,,FHRS,5
173366,61 King Street,Whitehaven,Cumbria,,Greggs,Retailers - other,4613,0,,229837,0,,54.54819700000000,PI/000006138,058,envhealth@copeland.gov.uk,Copeland,http://www.copeland.gov.uk,-3.59011700000000,CA28 7JH,2014-12-04,fhrs_5_en-GB,5,,FHRS,5
173367,Cumbrian Co Op Supermarket,Leconfield Street,Cleator Moor,Cumbria,Greggs,Retailers - other,4613,5,,230089,10,,54.52421600000000,PI/000033046,058,envhealth@copeland.gov.uk,Copeland,http://www.copeland.gov.uk,-3.52387000000000,CA25 5QA,2013-08-07,fhrs_4_en-GB,4,,FHRS,5
173368,2 High Street,Cleator Moor,Cumbria,,Greggs Plc,Retailers - other,4613,5,,229740,0,,54.52175200000000,PI/000033044,058,envhealth@copeland.gov.uk,Copeland,http://www.copeland.gov.uk,-3.51679500000000,CA25 5AB,2013-01-03,fhrs_5_en-GB,5,,FHRS,0
173369,52 Market Place,Whitehaven,Cumbria,,Greggs Plc,Retailers - other,4613,0,,229895,5,,54.54688200000000,PI/000006139,058,envhealth@copeland.gov.uk,Copeland,http://www.copeland.gov.uk,-3.59094700000000,CA28 7JB,2013-06-19,fhrs_5_en-GB,5,,FHRS,0
173370,Cleator,Cumbria,,,Grove Court Hotel,Hotel/bed & breakfast/guest house,7842,5,,229767,5,,54.50942611694336,PI/000021126,058,envhealth@copeland.gov.uk,Copeland,http://www.copeland.gov.uk,-3.51792860031128,CA23 3DT,2014-02-28,fhrs_4_en-GB,4,,FHRS,10
173371,Sandwith,Cumbria,,,Grovewood House,Hotel/bed & breakfast/guest house,7842,5,,229846,5,,54.51762000000000,PI/000000363,058,envhealth@copeland.gov.uk,Copeland,http://www.copeland.gov.uk,-3.60099500000000,CA28 9UG,2011-11-21,fhrs_5_en-GB,5,,FHRS,5
173372,54 King Street,Whitehaven,Cumbria,,Haighs,Manufacturers/packers,7839,5,,229864,0,,54.54819700000000,PI/000005473,058,envhealth@copeland.gov.uk,Copeland,http://www.copeland.gov.uk,-3.59011700000000,CA28 7JH,2013-10-24,fhrs_5_en-GB,5,,FHRS,0
173373,,,,,Haile Mill Better Bread,Retailers - other,4613,0,,479183,0,,,PI/000015841,058,envhealth@copeland.gov.uk,Copeland,http://www.copeland.gov.uk,,,2013-12-11,fhrs_5_en-GB,5,,FHRS,0
173374,172 Main Street,Frizington,Cumbria,,Happy Family,Takeaway/sandwich shop,7844,10,,230233,10,,54.54134400000000,PI/000024746,058,envhealth@copeland.gov.uk,Copeland,http://www.copeland.gov.uk,-3.49388600000000,CA26 3SB,2013-08-28,fhrs_3_en-GB,3,,FHRS,10
173375,105 Duke Street,Whitehaven,Cumbria,,Happy Haven,Takeaway/sandwich shop,7844,5,,229932,10,,54.54936600000000,PI/000005307,058,envhealth@copeland.gov.uk,Copeland,http://www.copeland.gov.uk,-3.58798300000000,CA28 7EL,2014-12-04,fhrs_3_en-GB,3,,FHRS,10
173376,Woodlands,Low Moresby,Cumbria,,Happy Hours Day Nursery,Hospitals/Childcare/Caring Premises,5,5,,230146,5,,54.57296000000000,PI/000014306,058,envhealth@copeland.gov.uk,Copeland,http://www.copeland.gov.uk,-3.56240000000000,CA28 6RS,2013-12-04,fhrs_5_en-GB,5,,FHRS,5
173377,Main Street,Haverigg,Cumbria,,Harbour Hotel,Pub/bar/nightclub,7843,5,,229777,5,,54.19722600000000,PI/000028817,058,envhealth@copeland.gov.uk,Copeland,http://www.copeland.gov.uk,-3.28930800000000,LA18 4EX,2013-03-27,fhrs_4_en-GB,4,,FHRS,10
173378,14A Bransty Road,Whitehaven,Cumbria,,Harbour View Lodge,Hospitals/Childcare/Caring Premises,5,0,,230100,0,,54.55528700000000,PI/000006327,058,envhealth@copeland.gov.uk,Copeland,http://www.copeland.gov.uk,-3.58542900000000,CA28 6HA,2014-06-02,fhrs_5_en-GB,5,,FHRS,5
173379,The Lonsdale Centre,Swingpump Lane,Whitehaven,Cumbria,Harbour Youth Project Cafe,Restaurant/Cafe/Canteen,1,5,,615775,0,,54.54689700000000,PI/000033181,058,envhealth@copeland.gov.uk,Copeland,http://www.copeland.gov.uk,-3.59192200000000,CA28 7LZ,2013-11-04,fhrs_5_en-GB,5,,FHRS,0
173380,Unit 10c,Devonshire Road Industrial Estate,Millom,Cumbria,Hardknott Brewery,Other catering premises,7841,5,,230017,5,,54.20644000000000,PI/000029989,058,envhealth@copeland.gov.uk,Copeland,http://www.copeland.gov.uk,-3.25425400000000,LA18 4JS,2011-02-21,fhrs_5_en-GB,5,,FHRS,5
173381,Millom Station,Station Road,Millom,Cumbria,Hardknott on Track,Pub/bar/nightclub,7843,5,,708426,0,,54.21103900000000,PI/000035267,058,envhealth@copeland.gov.uk,Copeland,http://www.copeland.gov.uk,-3.27087700000000,LA18 5AA,2014-09-25,fhrs_5_en-GB,5,,FHRS,0
173382,Care Centre,Main Street,Distington,Cumbria,Harriets,Hospitals/Childcare/Caring Premises,5,5,,230258,5,,54.59601000000000,PI/000026741,058,envhealth@copeland.gov.uk,Copeland,http://www.copeland.gov.uk,-3.53959900000000,CA14 5UJ,2014-08-29,fhrs_5_en-GB,5,,FHRS,0
173383,24 Church Street,Egremont,Cumbria,,Hartleys,Other catering premises,7841,10,,230249,5,,54.48030800000000,PI/000020340,058,envhealth@copeland.gov.uk,Copeland,http://www.copeland.gov.uk,-3.52689800000000,CA22 2AW,2012-11-22,fhrs_3_en-GB,3,,FHRS,10
173384,24 Church Street,Egremont,Cumbria,,Hartleys Mobiles,Retailers - other,4613,10,,230241,10,,54.48030800000000,PI/000033509,058,envhealth@copeland.gov.uk,Copeland,http://www.copeland.gov.uk,-3.52689800000000,CA22 2AW,2012-11-22,fhrs_3_en-GB,3,,FHRS,5
173385,24 Church Street,Egremont,Cumbria,,Hartleys Mobiles,Retailers - other,4613,10,,230059,10,,54.48030800000000,PI/000033520,058,envhealth@copeland.gov.uk,Copeland,http://www.copeland.gov.uk,-3.52689800000000,CA22 2AW,2012-11-22,fhrs_3_en-GB,3,,FHRS,5
173386,24 Church Street,Egremont,Cumbria,,Hartleys Mobiles,Retailers - other,4613,10,,230103,10,,54.48030800000000,PI/000033522,058,envhealth@copeland.gov.uk,Copeland,http://www.copeland.gov.uk,-3.52689800000000,CA22 2AW,2012-11-22,fhrs_3_en-GB,3,,FHRS,5
173387,Hartleys,24 Church Street,Egremont,Cumbria,Hartleys Mobiles,Retailers - other,4613,10,,229692,10,,54.48030800000000,PI/000033521,058,envhealth@copeland.gov.uk,Copeland,http://www.copeland.gov.uk,-3.52689800000000,CA22 2AW,2012-11-22,fhrs_3_en-GB,3,,FHRS,5
173388,Hartleys,24 Church Street,Egremont,Cumbria,Hartleys Mobiles,Retailers - other,4613,10,,229834,10,,54.48030800000000,PI/000034502,058,envhealth@copeland.gov.uk,Copeland,http://www.copeland.gov.uk,-3.52689800000000,CA22 2AW,2012-11-22,fhrs_3_en-GB,3,,FHRS,5
173389,15 Holborn Hill,Millom,Cumbria,,Harvest Bakery,Manufacturers/packers,7839,0,,229910,0,,54.21196000000000,PI/000032235,058,envhealth@copeland.gov.uk,Copeland,http://www.copeland.gov.uk,-3.27130400000000,LA18 5BE,2014-11-17,fhrs_5_en-GB,5,,FHRS,0
173390,34a Lakeland Avenue,Whitehaven,Cumbria,,Harvey's Convenience Store,Retailers - other,4613,10,,590196,10,,54.53329900000000,PI/000035207,058,envhealth@copeland.gov.uk,Copeland,http://www.copeland.gov.uk,-3.59456100000000,CA28 9PZ,2013-09-10,fhrs_3_en-GB,3,,FHRS,5
173391,Bethel House,St Bees Road,Whitehaven,Cumbria,Haven Care Centre Ltd,Hospitals/Childcare/Caring Premises,5,5,,229865,0,,54.52326300000000,PI/000003027,058,envhealth@copeland.gov.uk,Copeland,http://www.copeland.gov.uk,-3.58264300000000,CA28 9UB,2014-04-30,fhrs_5_en-GB,5,,FHRS,0
173392,Hensingham Amateur Rugby League Club,Cleator Moor Road,Whitehaven,Cumbria,Haven Club,Pub/bar/nightclub,7843,5,,229781,5,,54.54001200000000,PI/000013026,058,envhealth@copeland.gov.uk,Copeland,http://www.copeland.gov.uk,-3.55945500000000,CA28 8TX,2014-08-15,fhrs_5_en-GB,5,,FHRS,5
173393,Haverigg Gift Shop,3 Main Street,Haverigg,Cumbria,Haverigg Convenience Store and Gift,Retailers - other,4613,0,,229758,5,,54.19722600000000,PI/000028795,058,envhealth@copeland.gov.uk,Copeland,http://www.copeland.gov.uk,-3.28930800000000,LA18 4EX,2014-12-03,fhrs_4_en-GB,4,,FHRS,10
173394,Haverigg Fish & Chip Shop,11 Main Street,Haverigg,Cumbria,Haverigg Fish & Chips,Takeaway/sandwich shop,7844,0,,230029,0,,54.19722600000000,PI/000028570,058,envhealth@copeland.gov.uk,Copeland,http://www.copeland.gov.uk,-3.28930800000000,LA18 4EX,2014-12-03,fhrs_5_en-GB,5,,FHRS,5
173395,The Lighthouse Centre,Atkinson Street,Haverigg,Cumbria,Haverigg Nursery & Clubbers,School/college/university,7845,0,,230205,0,,54.19760800000000,PI/000034953,058,envhealth@copeland.gov.uk,Copeland,http://www.copeland.gov.uk,-3.28974900000000,LA18 4HA,2013-10-16,fhrs_5_en-GB,5,,FHRS,0
173396,41 Main Street,Haverigg,Cumbria,,Haverigg Working Mens Club,Pub/bar/nightclub,7843,5,,229966,5,,54.19765000000000,PI/000028562,058,envhealth@copeland.gov.uk,Copeland,http://www.copeland.gov.uk,-3.29169700000000,LA18 4EY,2011-08-03,fhrs_5_en-GB,5,,FHRS,5
173397,Ulpha,Cumbria,,,Hazel Head Farm,Hotel/bed & breakfast/guest house,7842,5,,704154,5,,54.34387600000000,PI/000032932,058,envhealth@copeland.gov.uk,Copeland,http://www.copeland.gov.uk,-3.24719000000000,LA20 6DY,2014-08-06,fhrs_4_en-GB,4,,FHRS,10
173398,11 Snowdon Avenue,Cleator Moor,Cumbria,,Heavenly Cupcakes,Other catering premises,7841,5,,229940,0,,54.52746000000000,PI/000021797,058,envhealth@copeland.gov.uk,Copeland,http://www.copeland.gov.uk,-3.52822500000000,CA25 5JN,2011-08-25,fhrs_5_en-GB,5,,FHRS,0
173399,,,,,Helens Herbs,Retailers - other,4613,5,,229746,0,,,PI/000024224,058,envhealth@copeland.gov.uk,Copeland,http://www.copeland.gov.uk,,,2011-10-25,fhrs_5_en-GB,5,,FHRS,0
173400,Cleator Moor Road,Whitehaven,Cumbria,,Hensingham Amateur Rugby League Club,Pub/bar/nightclub,7843,5,,230204,5,,54.54001200000000,PI/000013025,058,envhealth@copeland.gov.uk,Copeland,http://www.copeland.gov.uk,-3.55945500000000,CA28 8TX,2014-08-18,fhrs_4_en-GB,4,,FHRS,10
173401,Moresby Road,Whitehaven,Cumbria,,Hensingham Centre,Restaurant/Cafe/Canteen,1,0,,229709,0,,54.55825600000000,PI/000013039,058,envhealth@copeland.gov.uk,Copeland,http://www.copeland.gov.uk,-3.55121300000000,CA28 8XG,2014-12-12,fhrs_5_en-GB,5,,FHRS,0
173402,Main Street,Hensingham,Cumbria,,Hensingham Primary School,School/college/university,7845,5,,230144,0,,54.53767800000000,PI/000009286,058,envhealth@copeland.gov.uk,Copeland,http://www.copeland.gov.uk,-3.56480700000000,CA28 8QZ,2014-01-27,fhrs_5_en-GB,5,,FHRS,0
173403,Gosforth,Cumbria,,,Hermons Hill,Hotel/bed & breakfast/guest house,7842,5,,229992,5,,54.42383400000000,PI/000027402,058,envhealth@copeland.gov.uk,Copeland,http://www.copeland.gov.uk,-3.38940300000000,CA20 1ER,2014-02-28,fhrs_5_en-GB,5,,FHRS,5
173404,20-21 King Street,Whitehaven,Cumbria,,Heron  Frozen Foods,Retailers - other,4613,5,,229991,10,,54.54898200000000,PI/000006229,058,envhealth@copeland.gov.uk,Copeland,http://www.copeland.gov.uk,-3.58849300000000,CA28 7LA,2012-10-15,fhrs_4_en-GB,4,,FHRS,5
173405,Unit 1,35 Main Street,Egremont,Cumbria,Heron Frozen Foods,Retailers - supermarkets/hypermarkets,7840,5,,704155,5,,54.48304300000000,PI/000039792,058,envhealth@copeland.gov.uk,Copeland,http://www.copeland.gov.uk,-3.52806500000000,CA22 2DR,2014-08-21,fhrs_4_en-GB,4,,FHRS,10
173406,Waberthwaite,Cumbria,,,High Mill Gate,Hotel/bed & breakfast/guest house,7842,5,,229755,5,,54.33330000000000,PI/000032783,058,envhealth@copeland.gov.uk,Copeland,http://www.copeland.gov.uk,-3.36876900000000,LA19 5YN,2011-08-19,fhrs_5_en-GB,5,,FHRS,0
173407,Longholme,Holmrook,Cumbria,,Holme Baked,Other catering premises,7841,5,,229918,5,,54.60365676879883,PI/000034925,058,envhealth@copeland.gov.uk,Copeland,http://www.copeland.gov.uk,-2.93555045127869,CA19 1UG,2012-03-08,fhrs_5_en-GB,5,,FHRS,5
173408,Holmrook,Cumbria,,,Holmrook Service Station,Retailers - other,4613,5,,230117,5,,54.38133100000000,PI/000028134,058,envhealth@copeland.gov.uk,Copeland,http://www.copeland.gov.uk,-3.41482000000000,CA19 1YG,2013-02-26,fhrs_5_en-GB,5,,FHRS,5
173409,30 Lapstone Road,Millom,Cumbria,,Home and Finance & Coffee 2,Restaurant/Cafe/Canteen,1,5,,230291,0,,54.21007000000000,PI/000031820,058,envhealth@copeland.gov.uk,Copeland,http://www.copeland.gov.uk,-3.26896100000000,LA18 4BU,2013-10-29,fhrs_5_en-GB,5,,FHRS,0
173410,1 Woodlea Grove,Cleator Moor,Cumbria,,Home Baking,Retailers - other,4613,5,,230028,5,,54.52684600000000,PI/000019491,058,envhealth@copeland.gov.uk,Copeland,http://www.copeland.gov.uk,-3.54401000000000,CA25 5PZ,2011-11-16,fhrs_5_en-GB,5,,FHRS,5
173411,3 Forest Houses,Ennerdale,Cumbria,,Home Baking,Other catering premises,7841,5,,230186,5,,54.52890800000000,PI/000025720,058,envhealth@copeland.gov.uk,Copeland,http://www.copeland.gov.uk,-3.44254400000000,CA23 3AJ,2012-02-22,fhrs_5_en-GB,5,,FHRS,5
173412,Tarn How,Woodend,Egremont,Cumbria,Home Baking,Other catering premises,7841,0,,230180,0,,54.50090100000000,PI/000020844,058,envhealth@copeland.gov.uk,Copeland,http://www.copeland.gov.uk,-3.52958100000000,CA22 2TB,2011-08-15,fhrs_5_en-GB,5,,FHRS,0
173413,Preston Street,Whitehaven,Cumbria,,Home Bargains,Retailers - other,4613,5,,455579,5,,54.54357800000000,PI/000034926,058,envhealth@copeland.gov.uk,Copeland,http://www.copeland.gov.uk,-3.59072600000000,CA28 9DL,2012-10-05,fhrs_5_en-GB,5,,FHRS,5
173414,West Cumberland Hospital,Homewood Road,Whitehaven,Cumbria,Honister Ward Kitchen,Hospitals/Childcare/Caring Premises,5,0,,229691,0,,54.53020300000000,PI/000033458,058,envhealth@copeland.gov.uk,Copeland,http://www.copeland.gov.uk,-3.56319200000000,CA28 8JG,2013-03-01,fhrs_5_en-GB,5,,FHRS,5
173415,Horse And Groom,Gosforth,Cumbria,,Horse & Groom,Pub/bar/nightclub,7843,5,,230001,10,,54.41743400000000,PI/000017063,058,envhealth@copeland.gov.uk,Copeland,http://www.copeland.gov.uk,-3.42948700000000,CA20 1JA,2013-06-11,fhrs_4_en-GB,4,,FHRS,5
173416,Brewers Fayre,Howgate,Cumbria,,Howgate Hotel,Hotel/bed & breakfast/guest house,7842,5,,229829,0,,54.57653800000000,PI/000014386,058,envhealth@copeland.gov.uk,Copeland,http://www.copeland.gov.uk,-3.56304700000000,CA28 6PL,2014-01-23,fhrs_4_en-GB,4,,FHRS,10
173417,Howgil Family Centre,Birks Road,Cleator Moor,Cumbria,Howgill Family Centre,Hospitals/Childcare/Caring Premises,5,0,,229993,0,,54.52255500000000,PI/000033348,058,envhealth@copeland.gov.uk,Copeland,http://www.copeland.gov.uk,-3.51586600000000,CA25 5HR,2011-07-19,fhrs_5_en-GB,5,,FHRS,0
173418,Howgill Centre,14-15 Howgill Street,Whitehaven,Cumbria,Howgill Family Centre,Hospitals/Childcare/Caring Premises,5,5,,230143,5,,54.54551800000000,PI/000003967,058,envhealth@copeland.gov.uk,Copeland,http://www.copeland.gov.uk,-3.59016800000000,CA28 7QW,2011-08-19,fhrs_5_en-GB,5,,FHRS,5
173419,3 Market Place,Whitehaven,Cumbria,,Humbugs,Retailers - other,4613,10,,229894,10,,54.54770300000000,PI/000034677,058,envhealth@copeland.gov.uk,Copeland,http://www.copeland.gov.uk,-3.59073200000000,CA28 7JE,2013-02-14,fhrs_3_en-GB,3,,FHRS,5
173420,Hunter Howe,Kirkland,Cumbria,,Hunter How House,Other catering premises,7841,0,,230161,0,,54.54305000000000,PI/000025851,058,envhealth@copeland.gov.uk,Copeland,http://www.copeland.gov.uk,-3.42395100000000,CA26 3YA,2014-04-22,fhrs_5_en-GB,5,,FHRS,0
173421,38 Laurel Bank,Whitehaven,Cumbria,,I Love CupCakes,Restaurant/Cafe/Canteen,1,5,,230200,5,,54.54868800000000,PI/000034841,058,envhealth@copeland.gov.uk,Copeland,http://www.copeland.gov.uk,-3.57319100000000,CA28 6SW,2011-05-12,fhrs_5_en-GB,5,,FHRS,0
173422,Unit A17,Haig Enterprise Park,High Road,Whitehaven,I.T. Bytes,Retailers - other,4613,10,,444674,10,,,PI/000001266,058,envhealth@copeland.gov.uk,Copeland,http://www.copeland.gov.uk,,,2012-08-22,fhrs_3_en-GB,3,,FHRS,5
173423,Bailey Ground Hotel,Drigg Road,Seascale,Cumbria,Ice Cream Parlour & Cafe,Restaurant/Cafe/Canteen,1,10,,429222,5,,54.39397100000000,PI/000035011,058,envhealth@copeland.gov.uk,Copeland,http://www.copeland.gov.uk,-3.48350400000000,CA20 1NP,2014-06-06,fhrs_4_en-GB,4,,FHRS,5
173424,Iceland Frozen Foods Plc,Preston Street,Whitehaven,Cumbria,Iceland Foods Plc,Retailers - supermarkets/hypermarkets,7840,5,,229732,10,,54.54357800000000,PI/000004692,058,envhealth@copeland.gov.uk,Copeland,http://www.copeland.gov.uk,-3.59072600000000,CA28 9DL,2013-01-08,fhrs_4_en-GB,4,,FHRS,5
173425,15 Duke Street,Whitehaven,Cumbria,,Indian Spice,Takeaway/sandwich shop,7844,5,,229780,10,,54.54956800000000,PI/000006424,058,envhealth@copeland.gov.uk,Copeland,http://www.copeland.gov.uk,-3.58769700000000,CA28 7ER,2013-03-19,fhrs_3_en-GB,3,,FHRS,10
173426,Lamplugh,Cumbria,,,Inglenook Caravan Park Shop,Retailers - other,4613,10,,462911,5,,54.56831000000000,PI/000033386,058,envhealth@copeland.gov.uk,Copeland,http://www.copeland.gov.uk,-3.42583700000000,CA14 4SQ,2012-10-18,fhrs_4_en-GB,4,,FHRS,5
173427,Holly House,Main Street,Ravenglass,Cumbria,Inn at Ravenglass,Hotel/bed & breakfast/guest house,7842,0,,230125,5,,54.35555900000000,PI/000028092,058,envhealth@copeland.gov.uk,Copeland,http://www.copeland.gov.uk,-3.41054900000000,CA18 1SQ,2014-06-27,fhrs_5_en-GB,5,,FHRS,5
173428,High House,Holmrook,Cumbria,,Irt Valley View B & B,Hotel/bed & breakfast/guest house,7842,5,,681217,0,,54.40058700000000,PI/000016764,058,envhealth@copeland.gov.uk,Copeland,http://www.copeland.gov.uk,-3.42138300000000,CA19 1YD,2014-05-27,fhrs_5_en-GB,5,,FHRS,0
173429,Irton,Cumbria,,,Irton Hall,Hotel/bed & breakfast/guest house,7842,10,,230245,5,,54.39285700000000,PI/000034879,058,envhealth@copeland.gov.uk,Copeland,http://www.copeland.gov.uk,-3.37956100000000,CA19 1TA,2013-05-30,fhrs_4_en-GB,4,,FHRS,5
173430,17-18 Main Street,Egremont,Cumbria,,Istanbul Pizza & Kebab House,Takeaway/sandwich shop,7844,5,,667312,0,,54.48387100000000,PI/000035222,058,envhealth@copeland.gov.uk,Copeland,http://www.copeland.gov.uk,-3.52797300000000,CA22 2DW,2014-04-03,fhrs_5_en-GB,5,,FHRS,5
173431,7B Coleridge Drive,Egremont,Cumbria,,J & B Pearson,Retailers - other,4613,10,,230264,10,,54.48287500000000,PI/000018289,058,envhealth@copeland.gov.uk,Copeland,http://www.copeland.gov.uk,-3.53781500000000,CA22 2EX,2012-10-08,fhrs_3_en-GB,3,,FHRS,5
173432,Shop And Premises,164-165 Main Street,Frizington,Cumbria,J A Thompson Bakers,Other catering premises,7841,5,,229725,0,,54.54134400000000,PI/000025160,058,envhealth@copeland.gov.uk,Copeland,http://www.copeland.gov.uk,-3.49388600000000,CA26 3SB,2014-03-10,fhrs_4_en-GB,4,,FHRS,10
173433,9-16 Lowther Street,Whitehaven,Cumbria,,J Dixon & Son Ltd,Restaurant/Cafe/Canteen,1,10,,229985,5,,54.54710800000000,PI/000006127,058,envhealth@copeland.gov.uk,Copeland,http://www.copeland.gov.uk,-3.58678200000000,CA28 7AL,2014-10-09,fhrs_4_en-GB,4,,FHRS,5
173434,37-39 Wellington Street,Millom,Cumbria,,J Green & Sons,Retailers - other,4613,0,,230073,5,,54.20953900000000,PI/000031796,058,envhealth@copeland.gov.uk,Copeland,http://www.copeland.gov.uk,-3.26566400000000,LA18 4DG,2014-04-23,fhrs_5_en-GB,5,,FHRS,5
173435,22 High Street,Cleator Moor,Cumbria,,J N Murray,Retailers - other,4613,,,229923,,,54.52126600000000,PI/000024005,058,envhealth@copeland.gov.uk,Copeland,http://www.copeland.gov.uk,-3.51473700000000,CA25 5LB,2013-04-17,fhrs_exempt_en-GB,Exempt,,FHRS,
173436,31 Market Place,Egremont,Cumbria,,J N Murray,Retailers - other,4613,,,229822,,,54.48139300000000,PI/000020347,058,envhealth@copeland.gov.uk,Copeland,http://www.copeland.gov.uk,-3.52919200000000,CA22 2AG,2014-08-28,fhrs_exempt_en-GB,Exempt,,FHRS,
173437,13 Willowside Park,Haverigg,Cumbria,,Jan's Cakes,Retailers - other,4613,5,,229759,0,,54.19999200000000,PI/000028703,058,envhealth@copeland.gov.uk,Copeland,http://www.copeland.gov.uk,-3.28789100000000,LA18 4PT,2014-02-20,fhrs_5_en-GB,5,,FHRS,0
173438,Jasmin House,Moor Row,Cumbria,,Jasmine House,Hotel/bed & breakfast/guest house,7842,5,,230002,5,,54.51405200000000,PI/000019479,058,envhealth@copeland.gov.uk,Copeland,http://www.copeland.gov.uk,-3.53724000000000,CA24 3JB,2012-03-22,fhrs_5_en-GB,5,,FHRS,5
173439,Duke Street,Whitehaven,Cumbria,,Jasmine Palace,Restaurant/Cafe/Canteen,1,5,,229803,10,,54.54949400000000,PI/000006373,058,envhealth@copeland.gov.uk,Copeland,http://www.copeland.gov.uk,-3.58848200000000,CA28 7EN,2014-02-04,fhrs_4_en-GB,4,,FHRS,5
173440,West Cumberland Hospital,Homewood Road,Whitehaven,Cumbria,Jenkin Ward Kitchen,Hospitals/Childcare/Caring Premises,5,0,,229785,0,,54.53020300000000,PI/000033459,058,envhealth@copeland.gov.uk,Copeland,http://www.copeland.gov.uk,-3.56319200000000,CA28 8JG,2013-03-01,fhrs_5_en-GB,5,,FHRS,5
173441,26 Market Place,Egremont,Cumbria,,Jenkinsons,Retailers - other,4613,5,,229726,5,,54.48139300000000,PI/000020409,058,envhealth@copeland.gov.uk,Copeland,http://www.copeland.gov.uk,-3.52919200000000,CA22 2AG,2014-06-18,fhrs_4_en-GB,4,,FHRS,10
173442,Windsor Court,Whitehaven,Cumbria,,Jericho School,School/college/university,7845,5,,229681,5,,54.54188200000000,PI/000010354,058,envhealth@copeland.gov.uk,Copeland,http://www.copeland.gov.uk,-3.56779700000000,CA28 6UX,2014-04-04,fhrs_4_en-GB,4,,FHRS,10
173443,48 Main Street,Egremont,Cumbria,,Joe's Kitchen,Takeaway/sandwich shop,7844,10,,495890,0,,54.48184500000000,PI/000035012,058,envhealth@copeland.gov.uk,Copeland,http://www.copeland.gov.uk,-3.52900800000000,CA22 2AB,2014-12-11,fhrs_4_en-GB,4,,FHRS,5
173444,Paul Jones Tavern,Duke Street,Whitehaven,Cumbria,John Paul Jones Tavern,Pub/bar/nightclub,7843,10,,229677,5,,54.54949400000000,PI/000006290,058,envhealth@copeland.gov.uk,Copeland,http://www.copeland.gov.uk,-3.58848200000000,CA28 7EN,2011-08-26,fhrs_3_en-GB,3,,FHRS,10
173445,Hillcrest Avenue,Whitehaven,Cumbria,,Johnson House,Hospitals/Childcare/Caring Premises,5,5,,230099,5,,54.54535200000000,PI/000010353,058,envhealth@copeland.gov.uk,Copeland,http://www.copeland.gov.uk,-3.57258300000000,CA28 6SU,2013-12-19,fhrs_5_en-GB,5,,FHRS,0
173446,33 Keekle Terrace,Cleator Moor,Cumbria,,Keekle Inn,Pub/bar/nightclub,7843,5,,230281,5,,54.53246100000000,PI/000019819,058,envhealth@copeland.gov.uk,Copeland,http://www.copeland.gov.uk,-3.54205900000000,CA25 5RQ,2013-06-12,fhrs_4_en-GB,4,,FHRS,10
173447,High Road,Whitehaven,Cumbria,,Kells Infant School,School/college/university,7845,0,,229973,0,,54.53500800000000,PI/000001213,058,envhealth@copeland.gov.uk,Copeland,http://www.copeland.gov.uk,-3.59648200000000,CA28 9PQ,2014-06-02,fhrs_5_en-GB,5,,FHRS,0
173448,Kells Arlfc,Old Arrowthwaite,Whitehaven,Cumbria,Kells Rugby Club,Pub/bar/nightclub,7843,5,,230056,5,,54.54126400000000,PI/000001824,058,envhealth@copeland.gov.uk,Copeland,http://www.copeland.gov.uk,-3.59372800000000,CA28 9EJ,2013-06-14,fhrs_4_en-GB,4,,FHRS,10
173449,127 Queen Street,Whitehaven,Cumbria,,Kershaws Health Foods,Retailers - other,4613,0,,230018,0,,54.54822500000000,PI/000005805,058,envhealth@copeland.gov.uk,Copeland,http://www.copeland.gov.uk,-3.58662400000000,CA28 7QF,2014-12-04,fhrs_5_en-GB,5,,FHRS,0
173450,King George Iv Inn,Eskdale,Cumbria,,King George IV,Pub/bar/nightclub,7843,5,,229828,10,,54.38667700000000,PI/000034783,058,envhealth@copeland.gov.uk,Copeland,http://www.copeland.gov.uk,-3.31239600000000,CA19 1TS,2013-05-28,fhrs_4_en-GB,4,,FHRS,5
173451,King William Iv,Kirksanton,Cumbria,,King William IV Hotel,Pub/bar/nightclub,7843,5,,230260,10,,54.21570000000000,PI/000030320,058,envhealth@copeland.gov.uk,Copeland,http://www.copeland.gov.uk,-3.32055500000000,LA18 4NN,2012-11-13,fhrs_3_en-GB,3,,FHRS,10
173452,41 Main Street,Egremont,Cumbria,,Kings Arms,Pub/bar/nightclub,7843,10,,229925,10,,54.48168300000000,PI/000020370,058,envhealth@copeland.gov.uk,Copeland,http://www.copeland.gov.uk,-3.52832300000000,CA22 2AD,2014-03-07,fhrs_2_en-GB,2,,FHRS,15
173453,Kings Arms Hotel,25 Main Street,Hensingham,Cumbria,Kings Arms,Pub/bar/nightclub,7843,5,,555537,5,,54.53661900000000,PI/000009281,058,envhealth@copeland.gov.uk,Copeland,http://www.copeland.gov.uk,-3.56884700000000,CA28 8PY,2014-01-16,fhrs_5_en-GB,5,,FHRS,0
173454,Kirksanton,Cumbria,,,Kirksanton Care Centre,Hospitals/Childcare/Caring Premises,5,0,,230292,0,,54.21570000000000,PI/000030321,058,envhealth@copeland.gov.uk,Copeland,http://www.copeland.gov.uk,-3.32055500000000,LA18 4NN,2014-11-17,fhrs_5_en-GB,5,,FHRS,5
173455,West Cumberland Hospital,Homewood Road,Whitehaven,Cumbria,Kirkstone Ward Kitchen,Hospitals/Childcare/Caring Premises,5,0,,229827,0,,54.53020300000000,PI/000033460,058,envhealth@copeland.gov.uk,Copeland,http://www.copeland.gov.uk,-3.56319200000000,CA28 8JG,2013-03-01,fhrs_5_en-GB,5,,FHRS,5
173456,3-5 Queen Street,Millom,Cumbria,,Knights Of St. Columb Club,Pub/bar/nightclub,7843,0,,229705,0,,54.21088200000000,PI/000031850,058,envhealth@copeland.gov.uk,Copeland,http://www.copeland.gov.uk,-3.26444700000000,LA18 4BG,2014-04-23,fhrs_4_en-GB,4,,FHRS,10
173457,25 Lowther Street,Whitehaven,Cumbria,,La Venue,Restaurant/Cafe/Canteen,1,5,,230214,5,,54.54785400000000,PI/000006081,058,envhealth@copeland.gov.uk,Copeland,http://www.copeland.gov.uk,-3.58810900000000,CA28 7DG,2014-01-27,fhrs_5_en-GB,5,,FHRS,5
173458,48 King Street,Whitehaven,Cumbria,,La Venue To Go,Takeaway/sandwich shop,7844,5,,230178,5,,54.54819700000000,PI/000005472,058,envhealth@copeland.gov.uk,Copeland,http://www.copeland.gov.uk,-3.59011700000000,CA28 7JH,2013-10-11,fhrs_5_en-GB,5,,FHRS,5
173459,103 Duke Street,Whitehaven,Cumbria,,Laal Tattie Bar,Takeaway/sandwich shop,7844,0,,229770,5,,54.54921000000000,PI/000005305,058,envhealth@copeland.gov.uk,Copeland,http://www.copeland.gov.uk,-3.58755900000000,CA28 7EH,2014-01-30,fhrs_5_en-GB,5,,FHRS,0
173460,2B Main Street,Egremont,Cumbria,,Lakeland Food To Go,Retailers - other,4613,10,,229934,15,,,PI/000020824,058,envhealth@copeland.gov.uk,Copeland,http://www.copeland.gov.uk,,CA22 2DH,2013-06-17,fhrs_2_en-GB,2,,FHRS,15
173461,The Commodore Club,Port Haverigg Holiday Village,Haverigg,Cumbria,Lakeside Cafe Bar,Pub/bar/nightclub,7843,0,,229970,0,,54.19885500000000,PI/000033536,058,envhealth@copeland.gov.uk,Copeland,http://www.copeland.gov.uk,-3.27392100000000,LA18 4LG,2013-09-17,fhrs_5_en-GB,5,,FHRS,5
173462,Kirkland,Cumbria,,,Lamplugh School,School/college/university,7845,5,,229811,5,,54.54905800000000,PI/000025809,058,envhealth@copeland.gov.uk,Copeland,http://www.copeland.gov.uk,-3.44633200000000,CA26 3XU,2013-03-12,fhrs_5_en-GB,5,,FHRS,5
173463,West Cumberland Hospital,Homewood Road,Whitehaven,Cumbria,Langdale Ward Kitchen,Hospitals/Childcare/Caring Premises,5,0,,229886,0,,54.53020300000000,PI/000033461,058,envhealth@copeland.gov.uk,Copeland,http://www.copeland.gov.uk,-3.56319200000000,CA28 8JG,2013-03-01,fhrs_5_en-GB,5,,FHRS,5
173464,Lapstone Road,Millom,Cumbria,,Lapstone House,Hospitals/Childcare/Caring Premises,5,0,,230157,0,,54.20894800000000,PI/000029946,058,envhealth@copeland.gov.uk,Copeland,http://www.copeland.gov.uk,-3.26802200000000,LA18 4BY,2014-11-10,fhrs_5_en-GB,5,,FHRS,0
173465,St Bridgets Church,Moresby,Cumbria,,Lets Play Pre School Nursery,Hospitals/Childcare/Caring Premises,5,10,,229962,5,,54.57362900000000,PI/000034394,058,envhealth@copeland.gov.uk,Copeland,http://www.copeland.gov.uk,-3.57316200000000,CA28 6PJ,2011-09-21,fhrs_4_en-GB,4,,FHRS,0
173466,67 Pica Cottages,Pica,Cumbria,,Linda's Tastylicious Cupcaakes,Other catering premises,7841,5,,486771,5,,54.58368800000000,PI/000026933,058,envhealth@copeland.gov.uk,Copeland,http://www.copeland.gov.uk,-3.51748600000000,CA14 4QA,2012-11-23,fhrs_5_en-GB,5,,FHRS,5
173467,Griffin Close,Frizington,Cumbria,,Lindisfarne,Hospitals/Childcare/Caring Premises,5,10,,229741,0,,54.54165000000000,PI/000025196,058,envhealth@copeland.gov.uk,Copeland,http://www.copeland.gov.uk,-3.49524200000000,CA26 3SH,2011-09-27,fhrs_4_en-GB,4,,FHRS,5
173468,Wasdale Head,Seascale,Cumbria,,Lingmell House,Hotel/bed & breakfast/guest house,7842,5,,229850,5,,54.45697784423828,PI/000027611,058,envhealth@copeland.gov.uk,Copeland,http://www.copeland.gov.uk,-3.26102447509766,CA20 1EX,2014-02-27,fhrs_5_en-GB,5,,FHRS,5
173469,The Square,Gosforth,Cumbria,,Lion & Lamb,Pub/bar/nightclub,7843,5,,230024,0,,54.41871300000000,PI/000016699,058,envhealth@copeland.gov.uk,Copeland,http://www.copeland.gov.uk,-3.43904000000000,CA20 1AL,2014-02-13,fhrs_4_en-GB,4,,FHRS,10
173470,28 Wellington Row,Whitehaven,Cumbria,,Lismore Guest House,Hotel/bed & breakfast/guest house,7842,5,,230013,5,,54.55139000000000,PI/000006293,058,envhealth@copeland.gov.uk,Copeland,http://www.copeland.gov.uk,-3.58510800000000,CA28 7HE,2014-03-27,fhrs_5_en-GB,5,,FHRS,0
173471,Littlebeck Warren,3 Hayescastle Road,Distington,Cumbria,Little Beck Warren,Hotel/bed & breakfast/guest house,7842,5,,482452,5,,54.58763800000000,PI/000026114,058,envhealth@copeland.gov.uk,Copeland,http://www.copeland.gov.uk,-3.54552000000000,CA14 5YB,2012-12-03,fhrs_5_en-GB,5,,FHRS,5
173472,49 Market Place,Whitehaven,Cumbria,,Little Hong Kong,Takeaway/sandwich shop,7844,10,,230225,15,,54.54688200000000,PI/000005462,058,envhealth@copeland.gov.uk,Copeland,http://www.copeland.gov.uk,-3.59094700000000,CA28 7JB,2014-03-11,fhrs_2_en-GB,2,,FHRS,15
173473,Little Arms,83 Trumpet Road,Cleator,Cumbria,Littles Arms,Pub/bar/nightclub,7843,0,,230137,0,,54.51635600000000,PI/000022715,058,envhealth@copeland.gov.uk,Copeland,http://www.copeland.gov.uk,-3.50414300000000,CA23 3EH,2014-11-21,fhrs_5_en-GB,5,,FHRS,0
173474,28 Lapstone Road,Millom,Cumbria,,Lotus Fast Food,Takeaway/sandwich shop,7844,5,,230276,5,,54.20999300000000,PI/000031660,058,envhealth@copeland.gov.uk,Copeland,http://www.copeland.gov.uk,-3.26948000000000,LA18 4BT,2013-08-08,fhrs_5_en-GB,5,,FHRS,5
173475,Low Cock How,Kinniside,Cumbria,,Low Cockhow,Hotel/bed & breakfast/guest house,7842,5,,230300,0,,54.51527100000000,PI/000025512,058,envhealth@copeland.gov.uk,Copeland,http://www.copeland.gov.uk,-3.45846900000000,CA23 3AQ,2014-07-31,fhrs_5_en-GB,5,,FHRS,5
173476,Wasdale,Cumbria,,,Low Wood Hall Hotel,Hotel/bed & breakfast/guest house,7842,5,,230066,5,,54.42457300000000,PI/000027459,058,envhealth@copeland.gov.uk,Copeland,http://www.copeland.gov.uk,-3.34955200000000,CA20 1ET,2014-01-24,fhrs_5_en-GB,5,,FHRS,5
173477,Lowca School,Lowca,Cumbria,,Lowca Community School,School/college/university,7845,0,,229807,0,,54.58463400000000,PI/000014242,058,envhealth@copeland.gov.uk,Copeland,http://www.copeland.gov.uk,-3.56942300000000,CA28 6QS,2014-01-27,fhrs_5_en-GB,5,,FHRS,5
173478,Lowca A R L F C,Lowca,Cumbria,,Lowca Rugby League Football Club,Pub/bar/nightclub,7843,10,,229762,10,,,PI/000014181,058,envhealth@copeland.gov.uk,Copeland,http://www.copeland.gov.uk,,CA28 6QL,2014-07-28,fhrs_3_en-GB,3,,FHRS,10
173479,Stamford Hill,Lowca,Cumbria,,Lowca Social Club,Pub/bar/nightclub,7843,5,,230068,10,,54.57987700000000,PI/000033166,058,envhealth@copeland.gov.uk,Copeland,http://www.copeland.gov.uk,-3.57105100000000,CA28 6PT,2013-05-01,fhrs_3_en-GB,3,,FHRS,10
173480,Lowca Post Office,East Road,Lowca,Cumbria,Lowca Stores,Retailers - other,4613,5,,229663,5,,54.58045600000000,PI/000014213,058,envhealth@copeland.gov.uk,Copeland,http://www.copeland.gov.uk,-3.57415200000000,CA28 6QA,2011-07-13,fhrs_5_en-GB,5,,FHRS,5
173481,37 Main Street,Parton,Cumbria,,Lowther Arms,Pub/bar/nightclub,7843,0,,230289,5,,54.56931700000000,PI/000013618,058,envhealth@copeland.gov.uk,Copeland,http://www.copeland.gov.uk,-3.58133300000000,CA28 6NY,2011-12-08,fhrs_5_en-GB,5,,FHRS,5
173482,Ribton Moor Side,Whitehaven,Cumbria,,Lowther Arms,Pub/bar/nightclub,7843,5,,444676,5,,54.53755100000000,PI/000009280,058,envhealth@copeland.gov.uk,Copeland,http://www.copeland.gov.uk,-3.56979500000000,CA28 8PU,2014-08-28,fhrs_4_en-GB,4,,FHRS,10
173483,134 Main Street,St Bees,Cumbria,,LuLu's,Restaurant/Cafe/Canteen,1,5,,230126,5,,54.49159900000000,PI/000002322,058,envhealth@copeland.gov.uk,Copeland,http://www.copeland.gov.uk,-3.59011100000000,CA27 0DE,2013-03-19,fhrs_5_en-GB,5,,FHRS,5
173484,Holmrook,Cumbria,,,Lutwidge Arms Hotel,Hotel/bed & breakfast/guest house,7842,0,,229861,0,,54.38515472412109,PI/000027878,058,envhealth@copeland.gov.uk,Copeland,http://www.copeland.gov.uk,-3.42074155807495,CA19 1UH,2014-11-28,fhrs_5_en-GB,5,,FHRS,0
173485,Lynnwood,Egremont,Cumbria,,Lynwood,Other catering premises,7841,5,,230145,5,,54.48261800000000,PI/000022540,058,envhealth@copeland.gov.uk,Copeland,http://www.copeland.gov.uk,-3.51187200000000,CA22 2NP,2011-05-05,fhrs_5_en-GB,5,,FHRS,0
173486,Mirehouse Post Office,57 Meadow Road,Whitehaven,Cumbria,M & J McDowell,Retailers - other,4613,5,,230290,0,,54.52589900000000,PI/000007690,058,envhealth@copeland.gov.uk,Copeland,http://www.copeland.gov.uk,-3.57140300000000,CA28 8ER,2014-06-18,fhrs_5_en-GB,5,,FHRS,0
173487,14 Salthouse Road,Millom,Cumbria,,Mandys Ices,Mobile caterer,7846,10,,229751,5,,54.21274400000000,PI/000033178,058,envhealth@copeland.gov.uk,Copeland,http://www.copeland.gov.uk,-3.27028500000000,LA18 5AD,2013-06-25,fhrs_4_en-GB,4,,FHRS,5
173488,20-21 Tangier Street,Whitehaven,Cumbria,,Manhattan's Bar,Pub/bar/nightclub,7843,5,,482451,0,,54.54995500000000,PI/000006107,058,envhealth@copeland.gov.uk,Copeland,http://www.copeland.gov.uk,-3.58833000000000,CA28 7UX,2014-03-28,fhrs_5_en-GB,5,,FHRS,5
173489,Manor House Inn,11-12 Main Street,St Bees,Cumbria,Manor House Hotel,Hotel/bed & breakfast/guest house,7842,5,,230012,10,,54.49159900000000,PI/000002312,058,envhealth@copeland.gov.uk,Copeland,http://www.copeland.gov.uk,-3.59011100000000,CA27 0DE,2013-06-06,fhrs_4_en-GB,4,,FHRS,5
173490,The Mansion,Woodhouse Road,Whitehaven,Cumbria,Mansion House,Hotel/bed & breakfast/guest house,7842,10,,230226,5,,54.53047600000000,PI/000003708,058,envhealth@copeland.gov.uk,Copeland,http://www.copeland.gov.uk,-3.58850100000000,CA28 9LN,2013-09-19,fhrs_4_en-GB,4,,FHRS,5
173491,Marchon Sports And Social Club,Coach Road,Whitehaven,Cumbria,Marchon Sports & Social Club,Pub/bar/nightclub,7843,5,,229656,5,,54.54308700000000,PI/000004098,058,envhealth@copeland.gov.uk,Copeland,http://www.copeland.gov.uk,-3.58361100000000,CA28 7TE,2011-07-06,fhrs_5_en-GB,5,,FHRS,5
173492,35 James Street,Whitehaven,Cumbria,,Market Cafe,Restaurant/Cafe/Canteen,1,0,,229969,5,,54.54619800000000,PI/000004745,058,envhealth@copeland.gov.uk,Copeland,http://www.copeland.gov.uk,-3.59104400000000,CA28 7HZ,2013-03-19,fhrs_5_en-GB,5,,FHRS,5
173493,6A Tangier Street,Whitehaven,Cumbria,,Marmaris,Takeaway/sandwich shop,7844,5,,230007,10,,54.54995500000000,PI/000005807,058,envhealth@copeland.gov.uk,Copeland,http://www.copeland.gov.uk,-3.58833000000000,CA28 7UX,2013-07-31,fhrs_4_en-GB,4,,FHRS,5
173494,Masonic Hall,Bookwell,Egremont,Cumbria,Masonic Club,Pub/bar/nightclub,7843,10,,230175,0,,54.48067500000000,PI/000018299,058,envhealth@copeland.gov.uk,Copeland,http://www.copeland.gov.uk,-3.53052400000000,CA22 2JW,2011-08-30,fhrs_4_en-GB,4,,FHRS,0
173495,Duke Street,Whitehaven,Cumbria,,Masonic Hall,Pub/bar/nightclub,7843,0,,230079,0,,54.54781200000000,PI/000006311,058,envhealth@copeland.gov.uk,Copeland,http://www.copeland.gov.uk,-3.58377900000000,CA28 7NZ,2014-03-25,fhrs_5_en-GB,5,,FHRS,5
173496,Frizington Road,Frizington,Cumbria,,Masonic Hall,Pub/bar/nightclub,7843,,,229983,,,54.53750100000000,PI/000033410,058,envhealth@copeland.gov.uk,Copeland,http://www.copeland.gov.uk,-3.49427100000000,CA26 3QU,2014-03-28,fhrs_exempt_en-GB,Exempt,,FHRS,
173497,Moresby Road,Whitehaven,Cumbria,,Mayfield School,School/college/university,7845,10,,229842,10,,54.55825600000000,PI/000013040,058,envhealth@copeland.gov.uk,Copeland,http://www.copeland.gov.uk,-3.55121300000000,CA28 8XG,2014-01-15,fhrs_3_en-GB,3,,FHRS,5
173498,14 Wellington Street,Millom,Cumbria,,Mc Meekins Greengrocer,Retailers - other,4613,0,,229772,0,,54.20930600000000,PI/000033559,058,envhealth@copeland.gov.uk,Copeland,http://www.copeland.gov.uk,-3.26639200000000,LA18 4DE,2013-11-21,fhrs_5_en-GB,5,,FHRS,0
173499,195A Meadow Road,Whitehaven,Cumbria,,McColls,Retailers - other,4613,5,,229783,5,,54.52606000000000,PI/000033616,058,envhealth@copeland.gov.uk,Copeland,http://www.copeland.gov.uk,-3.57980000000000,CA28 9JH,2013-02-05,fhrs_5_en-GB,5,,FHRS,5
173500,50 Main Street,Egremont,Cumbria,,McColls,Retailers - other,4613,,,229745,,,54.48184500000000,PI/000019844,058,envhealth@copeland.gov.uk,Copeland,http://www.copeland.gov.uk,-3.52900800000000,CA22 2AB,2012-03-19,fhrs_exempt_en-GB,Exempt,,FHRS,
173501,Mcdonalds Restaurant Ltd,Bridges Retail Park,Flatt Walks,Whitehaven,Mcdonalds Restaurants Ltd,Restaurant/Cafe/Canteen,1,5,,229989,5,,54.54451400000000,PI/000004762,058,envhealth@copeland.gov.uk,Copeland,http://www.copeland.gov.uk,-3.58516600000000,CA28 7RQ,2013-10-09,fhrs_5_en-GB,5,,FHRS,5
173502,West Lakes Academy,Main Street,Egremont,Cumbria,Mellors Catering Services Ltd,School/college/university,7845,0,,229978,5,,54.48436600000000,PI/000019840,058,envhealth@copeland.gov.uk,Copeland,http://www.copeland.gov.uk,-3.52934900000000,CA22 2DQ,2014-10-03,fhrs_5_en-GB,5,,FHRS,0
173503,Globe House,Duke Street,Whitehaven,,Milano,Takeaway/sandwich shop,7844,10,,229795,10,,54.54949400000000,PI/000006071,058,envhealth@copeland.gov.uk,Copeland,http://www.copeland.gov.uk,-3.58848200000000,CA28 7EN,2013-03-29,fhrs_3_en-GB,3,,FHRS,5
173504,Palladium Theatre,St Georges Road,Millom,Cumbria,Millom Amateur Operatic Society,Retailers - other,4613,5,,229720,5,,54.21046400000000,PI/000032238,058,envhealth@copeland.gov.uk,Copeland,http://www.copeland.gov.uk,-3.27337400000000,LA18 5DW,2012-10-29,fhrs_5_en-GB,5,,FHRS,5
173505,37-39 Lapstone Road,Millom,Cumbria,,Millom Conservative Club,Pub/bar/nightclub,7843,5,,230052,5,,54.20999300000000,PI/000031828,058,envhealth@copeland.gov.uk,Copeland,http://www.copeland.gov.uk,-3.26948000000000,LA18 4BT,2011-08-03,fhrs_5_en-GB,5,,FHRS,5
173506,St Georges Road,Millom,Cumbria,,Millom Cricket Club,Restaurant/Cafe/Canteen,1,5,,229919,5,,54.21046400000000,PI/000032239,058,envhealth@copeland.gov.uk,Copeland,http://www.copeland.gov.uk,-3.27337400000000,LA18 5DW,2013-08-06,fhrs_5_en-GB,5,,FHRS,5
173507,Lapstone Road,Millom,Cumbria,,Millom Hospital,Hospitals/Childcare/Caring Premises,5,10,,229731,5,,54.20894800000000,PI/000029945,058,envhealth@copeland.gov.uk,Copeland,http://www.copeland.gov.uk,-3.26802200000000,LA18 4BY,2012-11-23,fhrs_4_en-GB,4,,FHRS,0
173508,Millom Infants School,Lapstone Road,Millom,Cumbria,Millom Infant School,School/college/university,7845,0,,230021,5,,54.20797700000000,PI/000029899,058,envhealth@copeland.gov.uk,Copeland,http://www.copeland.gov.uk,-3.26719500000000,LA18 4LP,2013-09-17,fhrs_5_en-GB,5,,FHRS,0
173509,Masonic Hall,Cambridge Street,Millom,Cumbria,Millom Masonic,Retailers - other,4613,5,,692296,0,,54.21159000000000,PI/000032234,058,envhealth@copeland.gov.uk,Copeland,http://www.copeland.gov.uk,-3.27235100000000,LA18 5BD,2014-07-29,fhrs_5_en-GB,5,,FHRS,0
173510,Salthouse Road,Millom,Cumbria,,Millom Network Centre,Restaurant/Cafe/Canteen,1,0,,230173,5,,54.21313900000000,PI/000034407,058,envhealth@copeland.gov.uk,Copeland,http://www.copeland.gov.uk,-3.26950000000000,LA18 5AB,2013-12-18,fhrs_5_en-GB,5,,FHRS,0
173511,Millom Rufc Wilson Park,St Lukes Road,Haverigg,Cumbria,Millom RUFC,Pub/bar/nightclub,7843,5,,230297,5,,54.19646000000000,PI/000033170,058,envhealth@copeland.gov.uk,Copeland,http://www.copeland.gov.uk,-3.29204300000000,LA18 4HB,2012-04-18,fhrs_5_en-GB,5,,FHRS,5
173512,Devonshire Road,Millom,Cumbria,,Millom Rugby League Club,Pub/bar/nightclub,7843,10,,229782,5,,54.20657800000000,PI/000029895,058,envhealth@copeland.gov.uk,Copeland,http://www.copeland.gov.uk,-3.25997700000000,LA18 4PG,2013-09-05,fhrs_3_en-GB,3,,FHRS,10
173513,Salthouse Road,Millom,Cumbria,,Millom School,School/college/university,7845,0,,230080,5,,54.21313900000000,PI/000031870,058,envhealth@copeland.gov.uk,Copeland,http://www.copeland.gov.uk,-3.26950000000000,LA18 5AB,2013-10-21,fhrs_5_en-GB,5,,FHRS,0
173514,St Georges Road,Millom,Cumbria,,Millom Stepping Stones,Hospitals/Childcare/Caring Premises,5,5,,229666,5,,54.20925300000000,PI/000032232,058,envhealth@copeland.gov.uk,Copeland,http://www.copeland.gov.uk,-3.27227900000000,LA18 4JE,2013-07-03,fhrs_5_en-GB,5,,FHRS,5
173515,Millstream House,Stonebridge Close,Millom,Cumbria,Millstream House B & B,Hotel/bed & breakfast/guest house,7842,5,,429221,5,,54.25361100000000,PI/000034969,058,envhealth@copeland.gov.uk,Copeland,http://www.copeland.gov.uk,-3.26098100000000,LA18 5GY,2012-06-29,fhrs_5_en-GB,5,,FHRS,5
173516,Main Street,Silecroft,Cumbria,,Miners Arms,Pub/bar/nightclub,7843,0,,229748,0,,54.22647000000000,PI/000030360,058,envhealth@copeland.gov.uk,Copeland,http://www.copeland.gov.uk,-3.33338500000000,LA18 5LP,2013-11-29,fhrs_5_en-GB,5,,FHRS,0
173517,Whitehaven Miners Club,Coach Road,Whitehaven,Cumbria,Miners Club,Pub/bar/nightclub,7843,5,,229915,5,,54.54012800000000,PI/000004815,058,envhealth@copeland.gov.uk,Copeland,http://www.copeland.gov.uk,-3.58649500000000,CA28 9DD,2014-08-14,fhrs_4_en-GB,4,,FHRS,10
173518,Seathwaite Avenue,Whitehaven,Cumbria,,Mirehouse Community Centre,Pub/bar/nightclub,7843,10,,229986,0,,54.52782800000000,PI/000033271,058,envhealth@copeland.gov.uk,Copeland,http://www.copeland.gov.uk,-3.57793600000000,CA28 9SW,2011-07-27,fhrs_4_en-GB,4,,FHRS,0
173519,Honister Road,Whitehaven,Cumbria,,Mirehouse Labour Social Club,Pub/bar/nightclub,7843,5,,229753,5,,54.52512100000000,PI/000007626,058,envhealth@copeland.gov.uk,Copeland,http://www.copeland.gov.uk,-3.56971900000000,CA28 8HP,2013-08-01,fhrs_5_en-GB,5,,FHRS,5
173520,59 Meadow Road,Whitehaven,Cumbria,,Mirehouse Pharmacy,Retailers - other,4613,,,229699,,,54.52589900000000,PI/000007692,058,envhealth@copeland.gov.uk,Copeland,http://www.copeland.gov.uk,-3.57140300000000,CA28 8ER,2011-07-06,fhrs_exempt_en-GB,Exempt,,FHRS,
173521,63 Meadow Road,Whitehaven,Cumbria,,Mirehouse Shop,Retailers - other,4613,10,,230198,10,,54.52589900000000,PI/000007687,058,envhealth@copeland.gov.uk,Copeland,http://www.copeland.gov.uk,-3.57140300000000,CA28 8ER,2014-02-03,fhrs_3_en-GB,3,,FHRS,5
173522,Herdus House,Ingwell Drive,Moor Row,Cumbria,Mitie Catering Services,Restaurant/Cafe/Canteen,1,5,,229942,0,,54.51947100000000,PI/000033654,058,envhealth@copeland.gov.uk,Copeland,http://www.copeland.gov.uk,-3.55278600000000,CA24 3JZ,2012-02-10,fhrs_5_en-GB,5,,FHRS,0
173523,Pelham House,Pelham Drive,Calderbridge,Cumbria,Mitie Catering Services,Restaurant/Cafe/Canteen,1,0,,229933,5,,54.43801900000000,PI/000015773,058,envhealth@copeland.gov.uk,Copeland,http://www.copeland.gov.uk,-3.48221200000000,CA20 1DB,2013-06-12,fhrs_5_en-GB,5,,FHRS,0
173524,Birks Road,Cleator Moor,Cumbria,,Moffats,Pub/bar/nightclub,7843,10,,229652,10,,54.52212800000000,PI/000022332,058,envhealth@copeland.gov.uk,Copeland,http://www.copeland.gov.uk,-3.51694800000000,CA25 5HP,2012-04-13,fhrs_3_en-GB,3,,FHRS,10
173525,Monkwray Road,Whitehaven,Cumbria,,Monkwray Court,Hospitals/Childcare/Caring Premises,5,5,,229824,5,,54.53768600000000,PI/000033143,058,envhealth@copeland.gov.uk,Copeland,http://www.copeland.gov.uk,-3.59446900000000,CA28 9HD,2013-03-28,fhrs_5_en-GB,5,,FHRS,0
173526,Monkwray Brow,Whitehaven,Cumbria,,Monkwray School,School/college/university,7845,0,,230181,0,,54.53860400000000,PI/000004700,058,envhealth@copeland.gov.uk,Copeland,http://www.copeland.gov.uk,-3.59096500000000,CA28 9DT,2014-05-16,fhrs_5_en-GB,5,,FHRS,5
173527,Montreal C Of E Junior And Infants School,Ennerdale Road,Cleator Moor,Cumbria,Montreal  School,School/college/university,7845,5,,230202,5,,54.51766900000000,PI/000023737,058,envhealth@copeland.gov.uk,Copeland,http://www.copeland.gov.uk,-3.50840900000000,CA25 5LW,2013-03-27,fhrs_5_en-GB,5,,FHRS,5
173528,Moor Row,Cumbria,,,Moor Row School,School/college/university,7845,5,,230065,5,,54.51413345336914,PI/000019476,058,envhealth@copeland.gov.uk,Copeland,http://www.copeland.gov.uk,-3.54142975807190,CA24 3JW,2013-03-27,fhrs_5_en-GB,5,,FHRS,5
173529,Scalegill Road,Moor Row,Cumbria,,Moor Row Working Mens Club,Pub/bar/nightclub,7843,10,,230069,5,,54.51374600000000,PI/000019464,058,envhealth@copeland.gov.uk,Copeland,http://www.copeland.gov.uk,-3.54153900000000,CA24 3JN,2012-05-18,fhrs_4_en-GB,4,,FHRS,5
173530,Moresby,Cumbria,,,Moresby Hall,Restaurant/Cafe/Canteen,1,0,,229661,5,,54.57362900000000,PI/000013921,058,envhealth@copeland.gov.uk,Copeland,http://www.copeland.gov.uk,-3.57316200000000,CA28 6PJ,2014-02-20,fhrs_5_en-GB,5,,FHRS,0
173531,Moresby Parks Rugby Club,Moresby Parks,Whitehaven,Cumbria,Moresby RUFC Club,Pub/bar/nightclub,7843,5,,230138,10,,54.55974800000000,PI/000013438,058,envhealth@copeland.gov.uk,Copeland,http://www.copeland.gov.uk,-3.54908900000000,CA28 8XW,2012-03-20,fhrs_4_en-GB,4,,FHRS,5
173532,School Brow,Moresby Parks,Cumbria,,Moresby School,School/college/university,7845,0,,229671,0,,54.56212900000000,PI/000013437,058,envhealth@copeland.gov.uk,Copeland,http://www.copeland.gov.uk,-3.55409700000000,CA28 8UX,2014-12-04,fhrs_5_en-GB,5,,FHRS,5
173533,Moresby Miners Welfare & Social Club,School Brow,Moresby Parks,Cumbria,Moresby Social Club,Pub/bar/nightclub,7843,5,,230030,5,,54.56212900000000,PI/000013436,058,envhealth@copeland.gov.uk,Copeland,http://www.copeland.gov.uk,-3.55409700000000,CA28 8UX,2011-11-11,fhrs_5_en-GB,5,,FHRS,5
173534,Morrisons Supermarket,Flatt Walks,Whitehaven,Cumbria,Morrisons,Retailers - supermarkets/hypermarkets,7840,5,,230158,5,,54.54408900000000,PI/000004735,058,envhealth@copeland.gov.uk,Copeland,http://www.copeland.gov.uk,-3.58327900000000,CA28 7RW,2013-10-08,fhrs_5_en-GB,5,,FHRS,0
173535,Petrol Filling Station,Morrisons Supermarket,Flatt Walks,Whitehaven,Morrisons Filling Station,Retailers - other,4613,5,,409328,0,,54.54408900000000,PI/000033710,058,envhealth@copeland.gov.uk,Copeland,http://www.copeland.gov.uk,-3.58327900000000,CA28 7RW,2012-06-12,fhrs_5_en-GB,5,,FHRS,0
173536,23 Vale View,Lowca,Cumbria,,Mother Trucker Catering Co,Mobile caterer,7846,5,,590192,5,,54.58120600000000,PI/000013975,058,envhealth@copeland.gov.uk,Copeland,http://www.copeland.gov.uk,-3.56975500000000,CA28 6QD,2013-09-12,fhrs_5_en-GB,5,,FHRS,0
173537,14 Duke Street,Whitehaven,Cumbria,,Mr Pizza/Southern Fried Chicken,Takeaway/sandwich shop,7844,10,,230283,10,,54.54956800000000,PI/000006318,058,envhealth@copeland.gov.uk,Copeland,http://www.copeland.gov.uk,-3.58769700000000,CA28 7ER,2014-01-16,fhrs_3_en-GB,3,,FHRS,10
173538,46 Salthouse Road,Millom,Cumbria,,Mr T's Ices,Mobile caterer,7846,5,,229654,0,,54.21559800000000,PI/000034825,058,envhealth@copeland.gov.uk,Copeland,http://www.copeland.gov.uk,-3.26897700000000,LA18 5AF,2014-01-22,fhrs_5_en-GB,5,,FHRS,0
173539,50 Lapstone Road,Millom,Cumbria,,Mr Wok's Thai Orchid,Takeaway/sandwich shop,7844,5,,230114,5,,54.21007000000000,PI/000031668,058,envhealth@copeland.gov.uk,Copeland,http://www.copeland.gov.uk,-3.26896100000000,LA18 4BU,2013-08-28,fhrs_5_en-GB,5,,FHRS,5
173540,11 Bankend View,Bigrigg,Cumbria,,Mrs Bees Cakes & Cupcakes,Other catering premises,7841,5,,360928,5,,54.50206200000000,PI/000018794,058,envhealth@copeland.gov.uk,Copeland,http://www.copeland.gov.uk,-3.54428000000000,CA22 2TH,2012-04-30,fhrs_5_en-GB,5,,FHRS,5
173541,Muncaster,Ravenglass,Cumbria,,Muncaster Castle,Restaurant/Cafe/Canteen,1,5,,229787,0,,54.35461807250977,PI/000033190,058,envhealth@copeland.gov.uk,Copeland,http://www.copeland.gov.uk,-3.38086414337158,CA18 1RQ,2014-03-27,fhrs_5_en-GB,5,,FHRS,5
173542,Ravenglass,Cumbria,,,Muncaster Country Guest House,Hotel/bed & breakfast/guest house,7842,5,,230127,5,,54.35795500000000,PI/000028191,058,envhealth@copeland.gov.uk,Copeland,http://www.copeland.gov.uk,-3.38757800000000,CA18 1RD,2013-08-07,fhrs_5_en-GB,5,,FHRS,5
173543,14 St Bridgets Lane,Egremont,Cumbria,,Napiers Butchers,Manufacturers/packers,7839,5,,229722,5,,54.48144700000000,PI/000018242,058,envhealth@copeland.gov.uk,Copeland,http://www.copeland.gov.uk,-3.52992000000000,CA22 2BB,2013-07-09,fhrs_5_en-GB,5,,FHRS,5
173544,Wasdale Head Camp Site,Wasdale Head,Seascale,Cumbria,National Trust Camp Site,Retailers - other,4613,5,,229703,10,,54.45697800000000,PI/000027608,058,envhealth@copeland.gov.uk,Copeland,http://www.copeland.gov.uk,-3.26102500000000,CA20 1EX,2013-07-22,fhrs_4_en-GB,4,,FHRS,5
173545,11-13 Croasdale Avenue,Whitehaven,Cumbria,,New Rainbow Pre-School,Hospitals/Childcare/Caring Premises,5,0,,512329,0,,54.52760500000000,PI/000007707,058,envhealth@copeland.gov.uk,Copeland,http://www.copeland.gov.uk,-3.57707800000000,CA28 9SN,2014-11-28,fhrs_5_en-GB,5,,FHRS,0
173546,14 St Georges Terrace,Millom,Cumbria,,Nicholson House Cafe,Restaurant/Cafe/Canteen,1,5,,230040,10,,54.20965500000000,PI/000031866,058,envhealth@copeland.gov.uk,Copeland,http://www.copeland.gov.uk,-3.26917800000000,LA18 4DB,2013-02-28,fhrs_3_en-GB,3,,FHRS,10
173547,11 Tangier Street,Whitehaven,Cumbria,,Nico's,Takeaway/sandwich shop,7844,10,,634322,5,,54.54995500000000,PI/000035256,058,envhealth@copeland.gov.uk,Copeland,http://www.copeland.gov.uk,-3.58833000000000,CA28 7UX,2014-02-07,fhrs_4_en-GB,4,,FHRS,0
173548,Whinlatter Road,Whitehaven,Cumbria,,Nisa Local,Retailers - other,4613,10,,606771,0,,54.53365400000000,PI/000035056,058,envhealth@copeland.gov.uk,Copeland,http://www.copeland.gov.uk,-3.57503900000000,CA28 8DJ,2013-10-14,fhrs_4_en-GB,4,,FHRS,0
173549,44 King Street,Whitehaven,Cumbria,,Nobles Amusements,Restaurant/Cafe/Canteen,1,0,,230171,0,,54.54898200000000,PI/000005470,058,envhealth@copeland.gov.uk,Copeland,http://www.copeland.gov.uk,-3.58849300000000,CA28 7LA,2014-01-09,fhrs_5_en-GB,5,,FHRS,0
173550,25 Duke Street,Whitehaven,Cumbria,,North,Pub/bar/nightclub,7843,5,,230280,5,,54.54906500000000,PI/000006292,058,envhealth@copeland.gov.uk,Copeland,http://www.copeland.gov.uk,-3.58625500000000,CA28 7EU,2011-11-25,fhrs_4_en-GB,4,,FHRS,10
173551,Oakbank Cottage,Ulpha,Cumbria,,Oakbank Guest House,Hotel/bed & breakfast/guest house,7842,5,,230140,5,,54.33888200000000,PI/000032981,058,envhealth@copeland.gov.uk,Copeland,http://www.copeland.gov.uk,-3.22316700000000,LA20 6DZ,2011-05-06,fhrs_5_en-GB,5,,FHRS,5
173552,61 Meadow Road,Whitehaven,Cumbria,,Ocean Treasures,Takeaway/sandwich shop,7844,10,,230268,10,,54.52589900000000,PI/000007686,058,envhealth@copeland.gov.uk,Copeland,http://www.copeland.gov.uk,-3.57140300000000,CA28 8ER,2013-03-05,fhrs_3_en-GB,3,,FHRS,10
173553,92 Main Street,St Bees,Cumbria,,Oddfellows Arms,Pub/bar/nightclub,7843,10,,230203,10,,54.48823200000000,PI/000002307,058,envhealth@copeland.gov.uk,Copeland,http://www.copeland.gov.uk,-3.58985700000000,CA27 0AD,2013-04-19,fhrs_3_en-GB,3,,FHRS,5
173554,The Old Captains House,1 Springfield Road,Bigrigg,Cumbria,Old Captains House,Pub/bar/nightclub,7843,10,,230010,5,,54.50530700000000,PI/000012122,058,envhealth@copeland.gov.uk,Copeland,http://www.copeland.gov.uk,-3.54565400000000,CA22 2TN,2014-03-28,fhrs_3_en-GB,3,,FHRS,10
173555,Irton,Cumbria,,,Old School,Hotel/bed & breakfast/guest house,7842,0,,615772,0,,54.39285700000000,PI/000017152,058,envhealth@copeland.gov.uk,Copeland,http://www.copeland.gov.uk,-3.37956100000000,CA19 1TA,2013-11-21,fhrs_5_en-GB,5,,FHRS,0
173556,The Opengate Centre,Southey Avenue,Egremont,Cumbria,Open Gates Family Centre,Other catering premises,7841,,,229776,,,54.48235300000000,PI/000018276,058,envhealth@copeland.gov.uk,Copeland,http://www.copeland.gov.uk,-3.53926100000000,CA22 2HH,2011-09-21,fhrs_exempt_en-GB,Exempt,,FHRS,
173557,Meadow Road,Whitehaven,Cumbria,,Orchard Court,Hospitals/Childcare/Caring Premises,5,5,,229984,5,,54.52929200000000,PI/000033156,058,envhealth@copeland.gov.uk,Copeland,http://www.copeland.gov.uk,-3.56970900000000,CA28 8EQ,2011-09-19,fhrs_5_en-GB,5,,FHRS,5
173558,Orgill Junior School,Southey Avenue,Egremont,Cumbria,Orgill Primary School,School/college/university,7845,0,,229904,0,,54.48235300000000,PI/000018277,058,envhealth@copeland.gov.uk,Copeland,http://www.copeland.gov.uk,-3.53926100000000,CA22 2HH,2014-03-03,fhrs_5_en-GB,5,,FHRS,0
173559,18 Duke Street,Whitehaven,Cumbria,,Oriental House,Takeaway/sandwich shop,7844,0,,229913,0,,54.54937000000000,PI/000005316,058,envhealth@copeland.gov.uk,Copeland,http://www.copeland.gov.uk,-3.58702400000000,CA28 7ET,2014-12-11,fhrs_4_en-GB,4,,FHRS,10
173560,1 Outrigg,St Bees,Cumbria,,Outrigg House,Hotel/bed & breakfast/guest house,7842,10,,230298,5,,54.48886900000000,PI/000002309,058,envhealth@copeland.gov.uk,Copeland,http://www.copeland.gov.uk,-3.58722700000000,CA27 0AN,2011-07-19,fhrs_4_en-GB,4,,FHRS,5
173561,Gatehouse,Eskdale,Cumbria,,Outward Bound Trust,Restaurant/Cafe/Canteen,1,0,,229858,0,,54.38952600000000,PI/000033404,058,envhealth@copeland.gov.uk,Copeland,http://www.copeland.gov.uk,-3.32145000000000,CA19 1TZ,2014-06-23,fhrs_5_en-GB,5,,FHRS,5
173562,West Cumberland Hospital,Homewood Road,Whitehaven,Cumbria,Overwater Ward Kitchen,Hospitals/Childcare/Caring Premises,5,0,,230212,0,,54.53020300000000,PI/000033469,058,envhealth@copeland.gov.uk,Copeland,http://www.copeland.gov.uk,-3.56319200000000,CA28 8JG,2014-12-11,fhrs_5_en-GB,5,,FHRS,0
173563,36 James Street,Whitehaven,Cumbria,,Palmers Newsagents,Retailers - other,4613,,,230266,,,54.54619800000000,PI/000003915,058,envhealth@copeland.gov.uk,Copeland,http://www.copeland.gov.uk,-3.59104400000000,CA28 7HZ,2012-03-16,fhrs_exempt_en-GB,Exempt,,FHRS,
173564,3 Bowthorn Road,Cleator Moor,Cumbria,,Panda House,Takeaway/sandwich shop,7844,10,,229849,10,,54.52617000000000,PI/000021894,058,envhealth@copeland.gov.uk,Copeland,http://www.copeland.gov.uk,-3.52853200000000,CA25 5JU,2013-07-09,fhrs_3_en-GB,3,,FHRS,10
173565,Egremont,Cumbria,,,Park Head Inn,Pub/bar/nightclub,7843,20,,230237,10,,54.47189712524414,PI/000015305,058,envhealth@copeland.gov.uk,Copeland,http://www.copeland.gov.uk,-3.52180075645447,CA22 2RP,2014-03-06,fhrs_1_en-GB,1,,FHRS,10
173566,St Georges Road,Millom,Cumbria,,Park View Nursery School,Hospitals/Childcare/Caring Premises,5,0,,229920,0,,54.20925300000000,PI/000029947,058,envhealth@copeland.gov.uk,Copeland,http://www.copeland.gov.uk,-3.27227900000000,LA18 4JE,2014-11-12,fhrs_5_en-GB,5,,FHRS,0
173567,Parkside Road,Cleator Moor,Cumbria,,Parkside Hotel,Hotel/bed & breakfast/guest house,7842,0,,230278,0,,54.52498000000000,PI/000024237,058,envhealth@copeland.gov.uk,Copeland,http://www.copeland.gov.uk,-3.49433900000000,CA25 5HF,2014-07-11,fhrs_5_en-GB,5,,FHRS,0
173568,,,,,Parties and Cakes,Other catering premises,7841,10,,586538,5,,,PI/000024040,058,envhealth@copeland.gov.uk,Copeland,http://www.copeland.gov.uk,,,2013-06-06,fhrs_4_en-GB,4,,FHRS,5
173569,28 Wellington Street,Millom,Cumbria,,Pattons Family Butchers,Manufacturers/packers,7839,5,,230238,5,,54.20930600000000,PI/000031785,058,envhealth@copeland.gov.uk,Copeland,http://www.copeland.gov.uk,-3.26639200000000,LA18 4DE,2013-10-01,fhrs_5_en-GB,5,,FHRS,5
173570,36 Duke Street,Millom,Cumbria,,Pavilion Hotel,Hotel/bed & breakfast/guest house,7842,0,,230209,0,,54.21136800000000,PI/000032246,058,envhealth@copeland.gov.uk,Copeland,http://www.copeland.gov.uk,-3.27291100000000,LA18 5BB,2011-07-19,fhrs_5_en-GB,5,,FHRS,5
173571,42 - 42A,Sneckyeat Road,Whitehaven,Cumbria,Peking House,Takeaway/sandwich shop,7844,10,,230115,10,,54.53211600000000,PI/000033445,058,envhealth@copeland.gov.uk,Copeland,http://www.copeland.gov.uk,-3.56329600000000,CA28 8PD,2013-03-26,fhrs_2_en-GB,2,,FHRS,15
173572,Pelican Garage,Loop Road North,Whitehaven,Cumbria,Pelican Service Station,Retailers - other,4613,5,,335039,5,,54.55959000000000,PI/000011882,058,envhealth@copeland.gov.uk,Copeland,http://www.copeland.gov.uk,-3.57803400000000,CA28 6EA,2013-09-04,fhrs_5_en-GB,5,,FHRS,0
173573,Pennington Arms Hotel,Main Street,Ravenglass,Cumbria,Pennington Hotel,Hotel/bed & breakfast/guest house,7842,5,,229678,5,,54.35392600000000,PI/000034395,058,envhealth@copeland.gov.uk,Copeland,http://www.copeland.gov.uk,-3.41027700000000,CA18 1SD,2014-06-16,fhrs_4_en-GB,4,,FHRS,10
173574,18 Whitecroft,Gosforth,Cumbria,,Perfectly Planted,Retailers - other,4613,5,,590195,5,,54.41854000000000,PI/000035191,058,envhealth@copeland.gov.uk,Copeland,http://www.copeland.gov.uk,-3.43396400000000,CA20 1AY,2013-09-13,fhrs_5_en-GB,5,,FHRS,0
173575,12 Roper Street,Whitehaven,Cumbria,,Pie Pantry,Restaurant/Cafe/Canteen,1,5,,606772,10,,54.54716500000000,PI/000035203,058,envhealth@copeland.gov.uk,Copeland,http://www.copeland.gov.uk,-3.58995300000000,CA28 7AU,2013-10-22,fhrs_4_en-GB,4,,FHRS,5
173576,West Cumberland Hospital,Homewood Road,Whitehaven,Cumbria,Pillar/Patterdale Ward Kitchens,Hospitals/Childcare/Caring Premises,5,0,,229778,0,,54.53020300000000,PI/000033470,058,envhealth@copeland.gov.uk,Copeland,http://www.copeland.gov.uk,-3.56319200000000,CA28 8JG,2013-03-01,fhrs_5_en-GB,5,,FHRS,5
173577,4 Market Place,Whitehaven,Cumbria,,Pixies Pasties,Takeaway/sandwich shop,7844,10,,229954,5,,54.54770300000000,PI/000005468,058,envhealth@copeland.gov.uk,Copeland,http://www.copeland.gov.uk,-3.59073200000000,CA28 7JE,2013-04-19,fhrs_3_en-GB,3,,FHRS,10
173578,Seascale Primary School,Croft Head Road,Seascale,Cumbria,PJs Breakfast Club,School/college/university,7845,0,,229749,0,,54.40100400000000,PI/000034847,058,envhealth@copeland.gov.uk,Copeland,http://www.copeland.gov.uk,-3.47721000000000,CA20 1LZ,2013-11-22,fhrs_5_en-GB,5,,FHRS,0
173579,96 Gosforth Road,Seascale,Cumbria,,PJs Nursery,Hospitals/Childcare/Caring Premises,5,0,,230253,0,,54.40133000000000,PI/000016149,058,envhealth@copeland.gov.uk,Copeland,http://www.copeland.gov.uk,-3.47481900000000,CA20 1ND,2014-06-09,fhrs_5_en-GB,5,,FHRS,5
173580,Unit 6a,Sneckyeat Road Industrial Estate,Whitehaven,Cumbria,Playroom Day Nursery,Hospitals/Childcare/Caring Premises,5,5,,230041,5,,54.53155800000000,PI/000009303,058,envhealth@copeland.gov.uk,Copeland,http://www.copeland.gov.uk,-3.56131200000000,CA28 8PF,2014-01-27,fhrs_5_en-GB,5,,FHRS,5
173581,41 Holborn Hill,Millom,Cumbria,,Plough Inn,Pub/bar/nightclub,7843,0,,462910,0,,54.21183000000000,PI/000031101,058,envhealth@copeland.gov.uk,Copeland,http://www.copeland.gov.uk,-3.27424400000000,LA18 5BH,2014-12-08,fhrs_5_en-GB,5,,FHRS,0
173582,13B Gosforth Road,Seascale,Cumbria,,Pop's Food Chain,Takeaway/sandwich shop,7844,5,,230105,5,,54.39638100000000,PI/000033299,058,envhealth@copeland.gov.uk,Copeland,http://www.copeland.gov.uk,-3.48043300000000,CA20 1PR,2014-10-02,fhrs_4_en-GB,4,,FHRS,10
173583,1A Main Street,Frizington,Cumbria,,Post Office,Retailers - other,4613,,,462907,,,54.54153700000000,PI/000025161,058,envhealth@copeland.gov.uk,Copeland,http://www.copeland.gov.uk,-3.49424900000000,CA26 3SA,2012-09-06,fhrs_exempt_en-GB,Exempt,,FHRS,
173584,49 Gosforth Road,Seascale,Cumbria,,Post Office,Retailers - other,4613,,,230213,,,54.39791100000000,PI/000016354,058,envhealth@copeland.gov.uk,Copeland,http://www.copeland.gov.uk,-3.47805400000000,CA20 1PQ,2014-03-28,fhrs_exempt_en-GB,Exempt,,FHRS,
173585,9 St Georges Road,Millom,Cumbria,,Post Office,Retailers - other,4613,,,230197,,,54.20928200000000,PI/000031830,058,envhealth@copeland.gov.uk,Copeland,http://www.copeland.gov.uk,-3.27044000000000,LA18 4JA,2012-03-15,fhrs_exempt_en-GB,Exempt,,FHRS,
173586,96 Main Street,Haverigg,Cumbria,,Post Office,Retailers - other,4613,,,230107,,,54.19765000000000,PI/000028563,058,envhealth@copeland.gov.uk,Copeland,http://www.copeland.gov.uk,-3.29169700000000,LA18 4EY,2012-03-14,fhrs_exempt_en-GB,Exempt,,FHRS,
173587,Boot,Cumbria,,,Post Office,Retailers - other,4613,5,,229729,0,,54.39807800000000,PI/000027594,058,envhealth@copeland.gov.uk,Copeland,http://www.copeland.gov.uk,-3.26993800000000,CA19 1TG,2014-02-17,fhrs_5_en-GB,5,,FHRS,0
173588,Market Place Post Office,10 Market Place,Whitehaven,Cumbria,Post Office,Retailers - other,4613,,,229662,,,54.54730000000000,PI/000006112,058,envhealth@copeland.gov.uk,Copeland,http://www.copeland.gov.uk,-3.59067000000000,CA28 7JD,2014-03-10,fhrs_exempt_en-GB,Exempt,,FHRS,
173589,St Bees Post Office,122 Main Street,St Bees,Cumbria,Post Office,Retailers - other,4613,0,,229994,5,,54.49015400000000,PI/000002276,058,envhealth@copeland.gov.uk,Copeland,http://www.copeland.gov.uk,-3.58926800000000,CA27 0AA,2014-02-20,fhrs_5_en-GB,5,,FHRS,0
173590,The Crescent,Thornhill,Cumbria,,Post Office,Retailers - other,4613,10,,230177,10,,54.46598800000000,PI/000015215,058,envhealth@copeland.gov.uk,Copeland,http://www.copeland.gov.uk,-3.52702800000000,CA22 2SP,2014-09-24,fhrs_3_en-GB,3,,FHRS,10
173591,The Post Office,Ulpha,Cumbria,,Post Office,Retailers - other,4613,10,,230097,0,,54.33043600000000,PI/000032927,058,envhealth@copeland.gov.uk,Copeland,http://www.copeland.gov.uk,-3.23443500000000,LA20 6DX,2014-02-26,fhrs_4_en-GB,4,,FHRS,10
173592,Whitburn House,Main Street,Ravenglass,Cumbria,Post Office,Retailers - other,4613,20,,586540,10,,54.35407900000000,PI/000028086,058,envhealth@copeland.gov.uk,Copeland,http://www.copeland.gov.uk,-3.41105200000000,CA18 1SG,2013-08-02,fhrs_1_en-GB,1,,FHRS,15
173593,35-37 King Street,Whitehaven,Cumbria,,Poundland,Retailers - other,4613,10,,230098,0,,54.54790600000000,PI/000005234,058,envhealth@copeland.gov.uk,Copeland,http://www.copeland.gov.uk,-3.58965800000000,CA28 7JN,2014-01-08,fhrs_4_en-GB,4,,FHRS,0
173594,Meadow Road,Whitehaven,Cumbria,,Pow Beck House,Hospitals/Childcare/Caring Premises,5,0,,229659,0,,54.52453700000000,PI/000007685,058,envhealth@copeland.gov.uk,Copeland,http://www.copeland.gov.uk,-3.57250900000000,CA28 8HL,2014-12-12,fhrs_5_en-GB,5,,FHRS,5
173595,5 South Parade,Seascale,Cumbria,,Pudding Lane,Restaurant/Cafe/Canteen,1,10,,230170,10,,54.39504000000000,PI/000034875,058,envhealth@copeland.gov.uk,Copeland,http://www.copeland.gov.uk,-3.48420500000000,CA20 1PZ,2014-02-18,fhrs_3_en-GB,3,,FHRS,10
173596,Punch Bowl Inn,The Green,Cumbria,,Punch Bowl Hotel,Pub/bar/nightclub,7843,0,,229813,0,,54.25097000000000,PI/000032464,058,envhealth@copeland.gov.uk,Copeland,http://www.copeland.gov.uk,-3.26171400000000,LA18 5HJ,2014-08-28,fhrs_5_en-GB,5,,FHRS,0
173597,Chapel Street,Whitehaven,Cumbria,,Puncheon Inn,Pub/bar/nightclub,7843,5,,230279,5,,54.54796400000000,PI/000006283,058,envhealth@copeland.gov.uk,Copeland,http://www.copeland.gov.uk,-3.58935100000000,CA28 7AX,2011-07-19,fhrs_5_en-GB,5,,FHRS,5
173598,7 Strand Street,Whitehaven,Cumbria,,Quality Pizza,Takeaway/sandwich shop,7844,10,,229689,10,,54.54930100000000,PI/000006430,058,envhealth@copeland.gov.uk,Copeland,http://www.copeland.gov.uk,-3.58880000000000,CA28 7LF,2014-01-06,fhrs_3_en-GB,3,,FHRS,5
173599,131 Main Street,St Bees,Cumbria,,Queens Hotel,Pub/bar/nightclub,7843,5,,230160,5,,54.49159900000000,PI/000033344,058,envhealth@copeland.gov.uk,Copeland,http://www.copeland.gov.uk,-3.59011100000000,CA27 0DE,2013-03-01,fhrs_5_en-GB,5,,FHRS,5
173600,32 Dent View,Egremont,Cumbria,,Rainbow Nursery,Hospitals/Childcare/Caring Premises,5,5,,229885,5,,54.49025400000000,PI/000020686,058,envhealth@copeland.gov.uk,Copeland,http://www.copeland.gov.uk,-3.52716100000000,CA22 2ET,2011-08-16,fhrs_5_en-GB,5,,FHRS,5
173601,Gosforth,Cumbria,,,Rainors Farm,Hotel/bed & breakfast/guest house,7842,5,,230087,0,,54.42383400000000,PI/000017167,058,envhealth@copeland.gov.uk,Copeland,http://www.copeland.gov.uk,-3.38940300000000,CA20 1ER,2014-03-31,fhrs_5_en-GB,5,,FHRS,0
173602,West Cumberland Hospital,Homewood Road,Whitehaven,Cumbria,Rannerdale (Labour) Ward,Hospitals/Childcare/Caring Premises,5,0,,229821,5,,54.53020300000000,PI/000034427,058,envhealth@copeland.gov.uk,Copeland,http://www.copeland.gov.uk,-3.56319200000000,CA28 8JG,2012-03-08,fhrs_5_en-GB,5,,FHRS,0
173603,West Cumberland Hospital,Homewood Road,Whitehaven,Cumbria,Rannerdale (Maternity) Ward,Hospitals/Childcare/Caring Premises,5,0,,229836,0,,54.53020300000000,PI/000034423,058,envhealth@copeland.gov.uk,Copeland,http://www.copeland.gov.uk,-3.56319200000000,CA28 8JG,2014-12-11,fhrs_5_en-GB,5,,FHRS,5
173604,Rascals Nursery,Red Lonning Community Centre,Caldbeck Road,Whitehaven,Rascals Pre-School Nursery,Hospitals/Childcare/Caring Premises,5,5,,230155,0,,54.54423800000000,PI/000034421,058,envhealth@copeland.gov.uk,Copeland,http://www.copeland.gov.uk,-3.56352800000000,CA28 6XQ,2014-01-07,fhrs_5_en-GB,5,,FHRS,0
173605,Main Street,Ravenglass,Cumbria,,Ratty Arms,Pub/bar/nightclub,7843,5,,229953,0,,54.35568200000000,PI/000028091,058,envhealth@copeland.gov.uk,Copeland,http://www.copeland.gov.uk,-3.40921400000000,CA18 1SN,2014-03-14,fhrs_4_en-GB,4,,FHRS,10
173606,5 Cross Street,Whitehaven,Cumbria,,Read Guest House,Hotel/bed & breakfast/guest house,7842,5,,229906,5,,54.54637300000000,PI/000004283,058,envhealth@copeland.gov.uk,Copeland,http://www.copeland.gov.uk,-3.59001500000000,CA28 7BX,2011-07-06,fhrs_5_en-GB,5,,FHRS,5
173607,25 Valley Park,Whitehaven,Cumbria,,Reality Drinks,Retailers - other,4613,10,,615771,5,,54.53788800000000,PI/000015941,058,envhealth@copeland.gov.uk,Copeland,http://www.copeland.gov.uk,-3.57495500000000,CA28 8BA,2013-11-05,fhrs_3_en-GB,3,,FHRS,10
173608,The Red Admiral,Gosforth,Cumbria,,Red Admiral,Pub/bar/nightclub,7843,10,,229909,5,,54.42440200000000,PI/000016518,058,envhealth@copeland.gov.uk,Copeland,http://www.copeland.gov.uk,-3.45110800000000,CA20 1BP,2013-03-07,fhrs_2_en-GB,2,,FHRS,15
173609,Shop And Premises,26A Lowther Street,Whitehaven,Cumbria,Richardsons,Retailers - other,4613,0,,229955,0,,54.54785400000000,PI/000005271,058,envhealth@copeland.gov.uk,Copeland,http://www.copeland.gov.uk,-3.58810900000000,CA28 7DG,2011-07-06,fhrs_5_en-GB,5,,FHRS,0
173610,The Rising Sun,38 Main Street,Haverigg,Cumbria,Rising Sun,Pub/bar/nightclub,7843,0,,229698,0,,54.19722600000000,PI/000028573,058,envhealth@copeland.gov.uk,Copeland,http://www.copeland.gov.uk,-3.28930800000000,LA18 4EX,2014-12-03,fhrs_5_en-GB,5,,FHRS,0
173611,128 Bowthorn Road,Cleator Moor,Cumbria,,Robin Hood,Pub/bar/nightclub,7843,5,,229935,5,,54.52753100000000,PI/000022437,058,envhealth@copeland.gov.uk,Copeland,http://www.copeland.gov.uk,-3.52400900000000,CA25 5JG,2014-04-03,fhrs_4_en-GB,4,,FHRS,10
173612,40 Brisco Mount,Egremont,Cumbria,,Rob's Ices,Mobile caterer,7846,10,,405956,5,,54.48954700000000,PI/000035007,058,envhealth@copeland.gov.uk,Copeland,http://www.copeland.gov.uk,-3.52548300000000,CA22 2EG,2014-01-14,fhrs_3_en-GB,3,,FHRS,10
173613,Units 1 And 2,Tangier Buildings,Tangier Street,Whitehaven,Roc Bar,Pub/bar/nightclub,7843,5,,462912,5,,54.55035200000000,PI/000034822,058,envhealth@copeland.gov.uk,Copeland,http://www.copeland.gov.uk,-3.58748000000000,CA28 7UZ,2012-10-25,fhrs_5_en-GB,5,,FHRS,5
173614,65 Meadow Road,Whitehaven,Cumbria,,Ropers,Takeaway/sandwich shop,7844,10,,229676,10,,54.52589900000000,PI/000007691,058,envhealth@copeland.gov.uk,Copeland,http://www.copeland.gov.uk,-3.57140300000000,CA28 8ER,2013-03-07,fhrs_3_en-GB,3,,FHRS,10
173615,Rosegarth,Main Street,Ravenglass,Cumbria,Rosegarth Guest House and Tea Rooms,Hotel/bed & breakfast/guest house,7842,0,,229881,0,,54.35555900000000,PI/000028093,058,envhealth@copeland.gov.uk,Copeland,http://www.copeland.gov.uk,-3.41054900000000,CA18 1SQ,2014-02-24,fhrs_5_en-GB,5,,FHRS,0
173616,Moresby,Cumbria,,,Rosehill Bistro,Restaurant/Cafe/Canteen,1,0,,229801,0,,54.56688400000000,PI/000033110,058,envhealth@copeland.gov.uk,Copeland,http://www.copeland.gov.uk,-3.56239900000000,CA28 6SE,2014-05-01,fhrs_5_en-GB,5,,FHRS,0
173617,Moresby,Cumbria,,,Rosehill House,Hospitals/Childcare/Caring Premises,5,0,,229742,0,,54.56658000000000,PI/000014303,058,envhealth@copeland.gov.uk,Copeland,http://www.copeland.gov.uk,-3.56507900000000,CA28 6SF,2013-03-20,fhrs_5_en-GB,5,,FHRS,5
173618,43 Wellington Street,Millom,Cumbria,,Rowlands,Retailers - other,4613,,,230031,,,54.20953900000000,PI/000031798,058,envhealth@copeland.gov.uk,Copeland,http://www.copeland.gov.uk,-3.26566400000000,LA18 4DG,2012-03-21,fhrs_exempt_en-GB,Exempt,,FHRS,
173619,King Street,Whitehaven,Cumbria,,Royal Oak,Pub/bar/nightclub,7843,5,,229736,5,,54.54898200000000,PI/000006297,058,envhealth@copeland.gov.uk,Copeland,http://www.copeland.gov.uk,-3.58849300000000,CA28 7LA,2011-07-12,fhrs_5_en-GB,5,,FHRS,5
173620,Royal Oak,Beckermet,Cumbria,,Royal Oak Hotel,Pub/bar/nightclub,7843,5,,230053,0,,54.44607000000000,PI/000015401,058,envhealth@copeland.gov.uk,Copeland,http://www.copeland.gov.uk,-3.50923000000000,CA21 2XB,2014-07-31,fhrs_5_en-GB,5,,FHRS,5
173621,Falcon Club,Croadalla Avenue,Egremont,Cumbria,Sasra Falcon Complex,Pub/bar/nightclub,7843,0,,230110,5,,54.48500700000000,PI/000018756,058,envhealth@copeland.gov.uk,Copeland,http://www.copeland.gov.uk,-3.53483800000000,CA22 2QN,2014-03-25,fhrs_4_en-GB,4,,FHRS,10
173622,63 High Street,Cleator Moor,Cumbria,,Scoffs,Restaurant/Cafe/Canteen,1,5,,229981,0,,54.52180400000000,PI/000021652,058,envhealth@copeland.gov.uk,Copeland,http://www.copeland.gov.uk,-3.51767700000000,CA25 5BJ,2014-01-09,fhrs_4_en-GB,4,,FHRS,10
173623,71-73 Wellington Street,Millom,Cumbria,,Scoop Value,Retailers - other,4613,5,,230088,5,,54.20953900000000,PI/000031802,058,envhealth@copeland.gov.uk,Copeland,http://www.copeland.gov.uk,-3.26566400000000,LA18 4DG,2012-03-21,fhrs_5_en-GB,5,,FHRS,5
173624,The Screes Hotel,Wasdale,Cumbria,,Screes Inn,Hotel/bed & breakfast/guest house,7842,10,,229645,10,,54.42457300000000,PI/000027461,058,envhealth@copeland.gov.uk,Copeland,http://www.copeland.gov.uk,-3.34955200000000,CA20 1ET,2013-08-29,fhrs_3_en-GB,3,,FHRS,10
173625,High Road,Whitehaven,Cumbria,,Seacliffe Pharmacy,Retailers - other,4613,,,230004,,,54.53383200000000,PI/000034939,058,envhealth@copeland.gov.uk,Copeland,http://www.copeland.gov.uk,-3.59778100000000,CA28 9PG,2012-01-17,fhrs_exempt_en-GB,Exempt,,FHRS,
173626,Beach Road,St Bees,Cumbria,,Seacote Hotel,Hotel/bed & breakfast/guest house,7842,10,,229869,10,,54.48996200000000,PI/000000240,058,envhealth@copeland.gov.uk,Copeland,http://www.copeland.gov.uk,-3.60317100000000,CA27 0ES,2013-03-21,fhrs_3_en-GB,3,,FHRS,10
173627,Gosforth Road,Seascale,Cumbria,,Seascale Bowling Club,Pub/bar/nightclub,7843,0,,230111,0,,54.39660600000000,PI/000033209,058,envhealth@copeland.gov.uk,Copeland,http://www.copeland.gov.uk,-3.48184300000000,CA20 1PU,2014-03-21,fhrs_5_en-GB,5,,FHRS,0
173628,Seascale Primary School,Croft Head Road,Seascale,Cumbria,Seascale C P School,School/college/university,7845,5,,230042,0,,54.40100400000000,PI/000016382,058,envhealth@copeland.gov.uk,Copeland,http://www.copeland.gov.uk,-3.47721000000000,CA20 1LZ,2013-11-22,fhrs_5_en-GB,5,,FHRS,5
173629,Seascale Golf Course,The Banks,Seascale,Cumbria,Seascale Golf Club,Restaurant/Cafe/Canteen,1,5,,229999,5,,54.39925800000000,PI/000015596,058,envhealth@copeland.gov.uk,Copeland,http://www.copeland.gov.uk,-3.48692900000000,CA20 1QL,2014-01-23,fhrs_4_en-GB,4,,FHRS,10
173630,Gosforth Road,Seascale,Cumbria,,Seascale Pharmacy,Retailers - other,4613,0,,229664,0,,54.39610000000000,PI/000015749,058,envhealth@copeland.gov.uk,Copeland,http://www.copeland.gov.uk,-3.48065400000000,CA20 1PR,2014-01-16,fhrs_4_en-GB,4,,FHRS,10
173631,Sella Park House,Calderbridge,Cumbria,,Sella Park Hotel,Hotel/bed & breakfast/guest house,7842,5,,230176,0,,54.43669600000000,PI/000015774,058,envhealth@copeland.gov.uk,Copeland,http://www.copeland.gov.uk,-3.49038300000000,CA20 1DW,2014-04-28,fhrs_5_en-GB,5,,FHRS,5
173632,1A South Parade,Seascale,Cumbria,,Shackles Off,Restaurant/Cafe/Canteen,1,0,,230193,0,,54.39504000000000,PI/000015525,058,envhealth@copeland.gov.uk,Copeland,http://www.copeland.gov.uk,-3.48420500000000,CA20 1PZ,2011-08-25,fhrs_5_en-GB,5,,FHRS,0
173633,21 Duke Street,Whitehaven,Cumbria,,Shakers Cafe Bar,Pub/bar/nightclub,7843,5,,230227,5,,54.54937000000000,PI/000006238,058,envhealth@copeland.gov.uk,Copeland,http://www.copeland.gov.uk,-3.58702400000000,CA28 7ET,2012-03-30,fhrs_5_en-GB,5,,FHRS,5
173634,Shepherds Arms,Ennerdale,Cumbria,,Shepherds Arms Hotel,Hotel/bed & breakfast/guest house,7842,0,,229855,5,,54.52895300000000,PI/000025762,058,envhealth@copeland.gov.uk,Copeland,http://www.copeland.gov.uk,-3.43874400000000,CA23 3AR,2014-02-28,fhrs_5_en-GB,5,,FHRS,5
173635,Ship Launch Inn,68 North Road,Egremont,Cumbria,Ship Launch,Pub/bar/nightclub,7843,5,,229892,5,,54.48620700000000,PI/000020821,058,envhealth@copeland.gov.uk,Copeland,http://www.copeland.gov.uk,-3.52948000000000,CA22 2PR,2011-08-19,fhrs_4_en-GB,4,,FHRS,10
173636,4 Bransty Row,Whitehaven,Cumbria,,Shipwrights Arms,Pub/bar/nightclub,7843,5,,230095,5,,54.55117000000000,PI/000006305,058,envhealth@copeland.gov.uk,Copeland,http://www.copeland.gov.uk,-3.58680000000000,CA28 7XE,2014-02-28,fhrs_5_en-GB,5,,FHRS,5
173637,Silecroft Caravan Site,Silecroft,Cumbria,,Silecroft caravan park,Retailers - other,4613,5,,229988,5,,54.21874600000000,PI/000030282,058,envhealth@copeland.gov.uk,Copeland,http://www.copeland.gov.uk,-3.34657200000000,LA18 4NX,2012-03-08,fhrs_5_en-GB,5,,FHRS,5
173638,Silecroft,Cumbria,,,Silecroft Golf Club,Restaurant/Cafe/Canteen,1,10,,230090,0,,54.22283600000000,PI/000030247,058,envhealth@copeland.gov.uk,Copeland,http://www.copeland.gov.uk,-3.33767000000000,LA18 4NU,2014-02-19,fhrs_4_en-GB,4,,FHRS,0
173639,3 Barngill Place,Distington,Cumbria,,Simon's Sweet Shop,Retailers - other,4613,5,,230218,5,,54.59313300000000,PI/000026467,058,envhealth@copeland.gov.uk,Copeland,http://www.copeland.gov.uk,-3.54455200000000,CA14 5UY,2012-02-27,fhrs_5_en-GB,5,,FHRS,5
173640,25 Market Place,Egremont,Cumbria,,Simply Drinks,Retailers - other,4613,,,229823,,,54.48139300000000,PI/000020358,058,envhealth@copeland.gov.uk,Copeland,http://www.copeland.gov.uk,-3.52919200000000,CA22 2AG,2014-07-08,fhrs_exempt_en-GB,Exempt,,FHRS,
173641,19A Lowther Street,Whitehaven,Cumbria,,Simply Food & Drink,Retailers - other,4613,10,,229684,10,,54.54710800000000,PI/000006330,058,envhealth@copeland.gov.uk,Copeland,http://www.copeland.gov.uk,-3.58678200000000,CA28 7AL,2014-09-12,fhrs_3_en-GB,3,,FHRS,10
173642,,,,,Sizzling Simons,Mobile caterer,7846,0,,451487,0,,,PI/000027098,058,envhealth@copeland.gov.uk,Copeland,http://www.copeland.gov.uk,,,2014-03-11,fhrs_5_en-GB,5,,FHRS,0
173643,Corney,Cumbria,,,Skellerah Farm,Retailers - other,4613,5,,492437,5,,54.30881700000000,PI/000032758,058,envhealth@copeland.gov.uk,Copeland,http://www.copeland.gov.uk,-3.36002500000000,LA19 5TW,2012-11-07,fhrs_5_en-GB,5,,FHRS,5
173644,West Cumberland Hospital,Homewood Road,Whitehaven,Cumbria,Skiddaw Ward Kitchen,Hospitals/Childcare/Caring Premises,5,0,,293206,0,,54.53020300000000,PI/000033472,058,envhealth@copeland.gov.uk,Copeland,http://www.copeland.gov.uk,-3.56319200000000,CA28 8JG,2012-03-08,fhrs_5_en-GB,5,,FHRS,5
173645,The Sneck Lifter,Duke Street,Whitehaven,Cumbria,Snecklifter,Pub/bar/nightclub,7843,5,,615778,0,,54.54936600000000,PI/000035212,058,envhealth@copeland.gov.uk,Copeland,http://www.copeland.gov.uk,-3.58798300000000,CA28 7EL,2013-11-07,fhrs_4_en-GB,4,,FHRS,10
173646,Park House Service Station,Springfield Road,Bigrigg,Cumbria,Spar,Retailers - other,4613,5,,230166,5,,54.50304700000000,PI/000012125,058,envhealth@copeland.gov.uk,Copeland,http://www.copeland.gov.uk,-3.54881100000000,CA22 2TL,2012-04-04,fhrs_5_en-GB,5,,FHRS,0
173647,Richmond Hill Road,Whitehaven,Cumbria,,Spar Superstore,Retailers - supermarkets/hypermarkets,7840,0,,230055,5,,54.53699800000000,PI/000012751,058,envhealth@copeland.gov.uk,Copeland,http://www.copeland.gov.uk,-3.56250900000000,CA28 8SU,2013-12-11,fhrs_5_en-GB,5,,FHRS,0
173648,81 High Street,Cleator Moor,Cumbria,,Spice House,Takeaway/sandwich shop,7844,10,,230304,10,,54.52207400000000,PI/000034606,058,envhealth@copeland.gov.uk,Copeland,http://www.copeland.gov.uk,-3.51770300000000,CA25 5BL,2014-08-28,fhrs_3_en-GB,3,,FHRS,10
173649,8A Main Street,Egremont,Cumbria,,Spice Land,Restaurant/Cafe/Canteen,1,10,,229737,10,,54.48463500000000,PI/000020330,058,envhealth@copeland.gov.uk,Copeland,http://www.copeland.gov.uk,-3.52871100000000,CA22 2DJ,2013-10-04,fhrs_3_en-GB,3,,FHRS,10
173650,Station Cottage,Drigg,Cumbria,,Spindle Crafts,Restaurant/Cafe/Canteen,1,5,,229784,5,,54.37730400000000,PI/000033558,058,envhealth@copeland.gov.uk,Copeland,http://www.copeland.gov.uk,-3.44148600000000,CA19 1XQ,2011-08-23,fhrs_5_en-GB,5,,FHRS,5
173651,Sproatys Fish Shop,Ennerdale Road,Cleator Moor,Cumbria,Sproat's Fish Shop,Takeaway/sandwich shop,7844,5,,230062,0,,54.51944300000000,PI/000023749,058,envhealth@copeland.gov.uk,Copeland,http://www.copeland.gov.uk,-3.51100800000000,CA25 5LH,2014-03-13,fhrs_5_en-GB,5,,FHRS,5
173652,Sproatys Newsagents,Ennerdale Road,Cleator Moor,Cumbria,Sproats Newsagents,Retailers - other,4613,5,,229774,5,,54.51879400000000,PI/000023626,058,envhealth@copeland.gov.uk,Copeland,http://www.copeland.gov.uk,-3.50971700000000,CA25 5LL,2014-07-09,fhrs_5_en-GB,5,,FHRS,5
173653,Mirehouse Community Centre,Seathwaite Avenue,Whitehaven,Cumbria,St Andrews At Seathwaite,Pub/bar/nightclub,7843,,,634321,,,54.52782800000000,PI/000034824,058,envhealth@copeland.gov.uk,Copeland,http://www.copeland.gov.uk,-3.57793600000000,CA28 9SW,2014-01-16,fhrs_exempt_en-GB,Exempt,,FHRS,
173654,The Clubhouse,St Bees Golf Course,Peck Mill Lane,St Bees,St Bees Golf Club,Restaurant/Cafe/Canteen,1,5,,229799,5,,54.49069800000000,PI/000000244,058,envhealth@copeland.gov.uk,Copeland,http://www.copeland.gov.uk,-3.59844500000000,CA27 0EJ,2014-08-14,fhrs_5_en-GB,5,,FHRS,5
173655,Main Street,St Bees,Cumbria,,St Bees Pre-School,Hospitals/Childcare/Caring Premises,5,5,,230254,5,,54.49006400000000,PI/000034831,058,envhealth@copeland.gov.uk,Copeland,http://www.copeland.gov.uk,-3.58926400000000,CA27 0AA,2013-05-01,fhrs_5_en-GB,5,,FHRS,5
173656,St Bees,Cumbria,,,St Bees School,School/college/university,7845,0,,230019,5,,,PI/000000249,058,envhealth@copeland.gov.uk,Copeland,http://www.copeland.gov.uk,,CA27 0DT,2013-11-14,fhrs_5_en-GB,5,,FHRS,5
173657,Main Street,St Bees,Cumbria,,St Bees Village School,School/college/university,7845,0,,230023,0,,54.49006400000000,PI/000002316,058,envhealth@copeland.gov.uk,Copeland,http://www.copeland.gov.uk,-3.58926400000000,CA27 0AA,2014-06-02,fhrs_5_en-GB,5,,FHRS,5
173658,St Beghs R C Junior School,Coach Road,Whitehaven,Cumbria,St Beghs RC Junior School,School/college/university,7845,0,,229791,0,,54.54308800000000,PI/000003840,058,envhealth@copeland.gov.uk,Copeland,http://www.copeland.gov.uk,-3.58562100000000,CA28 7TD,2014-01-27,fhrs_5_en-GB,5,,FHRS,5
173659,St Beghs Social Club,Coach Road,Whitehaven,Cumbria,St Beghs Social Centre,Pub/bar/nightclub,7843,10,,229798,5,,54.54308700000000,PI/000004739,058,envhealth@copeland.gov.uk,Copeland,http://www.copeland.gov.uk,-3.58361100000000,CA28 7TE,2011-11-16,fhrs_4_en-GB,4,,FHRS,5
173660,Red Lonning,Whitehaven,Cumbria,,St Benedicts RC High School,School/college/university,7845,0,,230150,5,,54.54350700000000,PI/000012968,058,envhealth@copeland.gov.uk,Copeland,http://www.copeland.gov.uk,-3.56101100000000,CA28 8UG,2014-12-11,fhrs_5_en-GB,5,,FHRS,5
173661,Newlands Avenue,Whitehaven,Cumbria,,St Benedicts RUFC,Pub/bar/nightclub,7843,5,,229903,5,,54.52782800000000,PI/000033126,058,envhealth@copeland.gov.uk,Copeland,http://www.copeland.gov.uk,-3.57793600000000,CA28 9SW,2011-09-02,fhrs_5_en-GB,5,,FHRS,0
173662,Main Street,Parton,Cumbria,,St Bridgets C of E School,School/college/university,7845,0,,229921,0,,54.56931700000000,PI/000013620,058,envhealth@copeland.gov.uk,Copeland,http://www.copeland.gov.uk,-3.58133300000000,CA28 6NY,2014-01-13,fhrs_5_en-GB,5,,FHRS,0
173663,St Bridgets Lane,Egremont,Cumbria,,St Bridgets R C School,School/college/university,7845,0,,230003,0,,54.48259300000000,PI/000018083,058,envhealth@copeland.gov.uk,Copeland,http://www.copeland.gov.uk,-3.53308100000000,CA22 2BD,2014-03-03,fhrs_4_en-GB,4,,FHRS,10
173664,St Georges Road,Millom,Cumbria,,St Georges Residential Home,Hospitals/Childcare/Caring Premises,5,0,,230230,0,,54.20965500000000,PI/000033101,058,envhealth@copeland.gov.uk,Copeland,http://www.copeland.gov.uk,-3.26917800000000,LA18 4DB,2014-11-10,fhrs_5_en-GB,5,,FHRS,5
173665,St Gregorys And St Patricks Rc Infants School,Esk Avenue,Whitehaven,Cumbria,St Gregorys & St Patricks RC Infant,School/college/university,7845,5,,230092,5,,54.53740000000000,PI/000009285,058,envhealth@copeland.gov.uk,Copeland,http://www.copeland.gov.uk,-3.57795000000000,CA28 8AJ,2013-02-21,fhrs_5_en-GB,5,,FHRS,5
173666,High Street,Whitehaven,Cumbria,,St James C of E Infant School,School/college/university,7845,0,,229686,0,,54.55094700000000,PI/000006309,058,envhealth@copeland.gov.uk,Copeland,http://www.copeland.gov.uk,-3.58391600000000,CA28 7PZ,2014-05-16,fhrs_5_en-GB,5,,FHRS,0
173667,Wellington Row,Whitehaven,Cumbria,,St James C of E Junior School,School/college/university,7845,0,,230047,0,,54.55136500000000,PI/000006308,058,envhealth@copeland.gov.uk,Copeland,http://www.copeland.gov.uk,-3.58292700000000,CA28 7HG,2014-05-16,fhrs_5_en-GB,5,,FHRS,0
173668,St James Rc School,Lonsdale Road,Millom,Cumbria,St James RC Primary School,School/college/university,7845,0,,229975,0,,54.21114600000000,PI/000031778,058,envhealth@copeland.gov.uk,Copeland,http://www.copeland.gov.uk,-3.26327500000000,LA18 4AS,2013-10-16,fhrs_5_en-GB,5,,FHRS,0
173669,Yeathouse Road,Frizington,Cumbria,,St Josephs Parish Hall,Restaurant/Cafe/Canteen,1,,,229979,,,54.54194600000000,PI/000033670,058,envhealth@copeland.gov.uk,Copeland,http://www.copeland.gov.uk,-3.49243900000000,CA26 3PX,2012-11-16,fhrs_exempt_en-GB,Exempt,,FHRS,
173670,Yeathouse Road,Frizington,Cumbria,,St Josephs RC School,School/college/university,7845,5,,230222,5,,54.54194600000000,PI/000025183,058,envhealth@copeland.gov.uk,Copeland,http://www.copeland.gov.uk,-3.49243900000000,CA26 3PX,2013-03-25,fhrs_5_en-GB,5,,FHRS,5
173671,High Road,Whitehaven,Cumbria,,St Marys RC Primary School,School/college/university,7845,5,,230188,0,,54.53383200000000,PI/000001138,058,envhealth@copeland.gov.uk,Copeland,http://www.copeland.gov.uk,-3.59778100000000,CA28 9PG,2013-03-18,fhrs_5_en-GB,5,,FHRS,5
173672,St Nicholas Tower,Lowther Street,Whitehaven,Cumbria,St Nicholas Centre,Restaurant/Cafe/Canteen,1,5,,229719,0,,54.54785400000000,PI/000033085,058,envhealth@copeland.gov.uk,Copeland,http://www.copeland.gov.uk,-3.58810900000000,CA28 7DG,2014-03-10,fhrs_5_en-GB,5,,FHRS,0
173673,St Patricks R C Junior School,Todholes Road,Cleator Moor,Cumbria,St Patricks RC Primary School,School/college/university,7845,0,,229883,0,,54.51674800000000,PI/000023735,058,envhealth@copeland.gov.uk,Copeland,http://www.copeland.gov.uk,-3.51237600000000,CA25 5DG,2014-11-28,fhrs_5_en-GB,5,,FHRS,5
173674,Lakeland Avenue,Whitehaven,Cumbria,,St Peters Parish Hall,Restaurant/Cafe/Canteen,1,5,,229765,5,,54.53329900000000,PI/000001180,058,envhealth@copeland.gov.uk,Copeland,http://www.copeland.gov.uk,-3.59456100000000,CA28 9PZ,2013-07-30,fhrs_5_en-GB,5,,FHRS,5
173675,The Stanley Arms Hotel,Calderbridge,Cumbria,,Stanley Arms Hotel,Pub/bar/nightclub,7843,5,,230236,5,,54.44077000000000,PI/000016449,058,envhealth@copeland.gov.uk,Copeland,http://www.copeland.gov.uk,-3.47992100000000,CA20 1DN,2014-01-31,fhrs_5_en-GB,5,,FHRS,5
173676,Stanley Ghyll House,Boot,Cumbria,,Stanley House,Hotel/bed & breakfast/guest house,7842,5,,230256,0,,54.39800800000000,PI/000027564,058,envhealth@copeland.gov.uk,Copeland,http://www.copeland.gov.uk,-3.24823200000000,CA19 1TH,2014-02-06,fhrs_5_en-GB,5,,FHRS,0
173677,44 Main Street,Egremont,Cumbria,,Star Takeaway,Takeaway/sandwich shop,7844,20,,229667,15,,54.48168300000000,PI/000034571,058,envhealth@copeland.gov.uk,Copeland,http://www.copeland.gov.uk,-3.52832300000000,CA22 2AD,2014-06-12,fhrs_1_en-GB,1,,FHRS,10
173678,Salthouse Road,Millom,Cumbria,,Station Hotel,Pub/bar/nightclub,7843,10,,229898,10,,54.21274400000000,PI/000032245,058,envhealth@copeland.gov.uk,Copeland,http://www.copeland.gov.uk,-3.27028500000000,LA18 5AD,2012-08-22,fhrs_3_en-GB,3,,FHRS,10
173679,Orchard Brow Barn,Haile,Cumbria,,Stirring It Up North,Other catering premises,7841,5,,451486,0,,54.46323200000000,PI/000015832,058,envhealth@copeland.gov.uk,Copeland,http://www.copeland.gov.uk,-3.49228800000000,CA22 2PD,2014-02-14,fhrs_5_en-GB,5,,FHRS,0
173680,Stone House Farm,Main Street,St Bees,Cumbria,Stonehouse Farm,Hotel/bed & breakfast/guest house,7842,5,,230035,5,,54.49159900000000,PI/000002268,058,envhealth@copeland.gov.uk,Copeland,http://www.copeland.gov.uk,-3.59011100000000,CA27 0DE,2012-04-19,fhrs_5_en-GB,5,,FHRS,5
173681,Rowrah Road,Rowrah,Cumbria,,Stork Hotel,Pub/bar/nightclub,7843,5,,230282,0,,54.55331700000000,PI/000025700,058,envhealth@copeland.gov.uk,Copeland,http://www.copeland.gov.uk,-3.45990400000000,CA26 3XJ,2014-02-12,fhrs_5_en-GB,5,,FHRS,0
173682,Wasdale,Cumbria,,,Strands Hotel,Hotel/bed & breakfast/guest house,7842,0,,230106,5,,54.42457300000000,PI/000027460,058,envhealth@copeland.gov.uk,Copeland,http://www.copeland.gov.uk,-3.34955200000000,CA20 1ET,2013-10-08,fhrs_5_en-GB,5,,FHRS,5
173683,26 Scalegill Road,Moor Row,Cumbria,,Su Ellens Bakers Shop,Retailers - other,4613,5,,229959,5,,54.51399700000000,PI/000034862,058,envhealth@copeland.gov.uk,Copeland,http://www.copeland.gov.uk,-3.54017300000000,CA24 3JL,2013-04-26,fhrs_5_en-GB,5,,FHRS,5
173684,53-54 Lowther Street,Whitehaven,Cumbria,,Subway,Retailers - other,4613,5,,230057,0,,54.54852600000000,PI/000005274,058,envhealth@copeland.gov.uk,Copeland,http://www.copeland.gov.uk,-3.58898600000000,CA28 7DP,2013-10-07,fhrs_5_en-GB,5,,FHRS,0
173685,15 Brayton Road,Whitehaven,Cumbria,,Sugar and Spice,Other catering premises,7841,5,,229839,5,,54.56027700000000,PI/000006568,058,envhealth@copeland.gov.uk,Copeland,http://www.copeland.gov.uk,-3.58045800000000,CA28 6EF,2012-03-08,fhrs_5_en-GB,5,,FHRS,5
173686,7 Roper Street,Whitehaven,Cumbria,,Sugar Tongue Cafe,Restaurant/Cafe/Canteen,1,10,,229804,5,,54.54716500000000,PI/000006386,058,envhealth@copeland.gov.uk,Copeland,http://www.copeland.gov.uk,-3.58995300000000,CA28 7AU,2011-08-26,fhrs_3_en-GB,3,,FHRS,10
173687,Main Street,Hensingham,Cumbria,,Sun Inn,Pub/bar/nightclub,7843,5,,230257,5,,54.53598100000000,PI/000009282,058,envhealth@copeland.gov.uk,Copeland,http://www.copeland.gov.uk,-3.56820400000000,CA28 8QD,2014-08-28,fhrs_5_en-GB,5,,FHRS,0
173688,The Sunnyhill,Victoria Road,Whitehaven,Cumbria,Sunnyhill,Pub/bar/nightclub,7843,10,,229854,10,,54.55455900000000,PI/000005224,058,envhealth@copeland.gov.uk,Copeland,http://www.copeland.gov.uk,-3.57920000000000,CA28 6AB,2013-02-04,fhrs_3_en-GB,3,,FHRS,10
173689,1A Gosforth Road,Seascale,Cumbria,,Sunrise,Takeaway/sandwich shop,7844,5,,229757,10,,54.39660600000000,PI/000015562,058,envhealth@copeland.gov.uk,Copeland,http://www.copeland.gov.uk,-3.48184300000000,CA20 1PU,2014-10-02,fhrs_3_en-GB,3,,FHRS,10
173690,50-51 King Street,Whitehaven,Cumbria,,Superdrug Stores Plc,Retailers - other,4613,,,230273,,,54.54819700000000,PI/000006079,058,envhealth@copeland.gov.uk,Copeland,http://www.copeland.gov.uk,-3.59011700000000,CA28 7JH,2014-12-04,fhrs_exempt_en-GB,Exempt,,FHRS,
173691,Howgill Family Centre,Catherine Street,Whitehaven,Cumbria,Sure Start Childrens Centre,Hospitals/Childcare/Caring Premises,5,5,,230054,5,,54.54497800000000,PI/000033051,058,envhealth@copeland.gov.uk,Copeland,http://www.copeland.gov.uk,-3.58810600000000,CA28 7QT,2012-04-19,fhrs_5_en-GB,5,,FHRS,5
173692,33 Copeland Avenue,Whitehaven,Cumbria,,Sweet Disposition,Retailers - other,4613,5,,615770,0,,54.52983900000000,PI/000003149,058,envhealth@copeland.gov.uk,Copeland,http://www.copeland.gov.uk,-3.58224800000000,CA28 9HZ,2013-11-01,fhrs_5_en-GB,5,,FHRS,0
173693,28-29 New Street,Whitehaven,Cumbria,,Sydneys,Pub/bar/nightclub,7843,10,,229718,5,,54.54875200000000,PI/000006287,058,envhealth@copeland.gov.uk,Copeland,http://www.copeland.gov.uk,-3.58822200000000,CA28 7DY,2012-02-08,fhrs_4_en-GB,4,,FHRS,5
173694,Unit 26,Meadow Road,Whitehaven,Cumbria,Tamalder Childcare,Hospitals/Childcare/Caring Premises,5,10,,615776,5,,54.53401200000000,PI/000033442,058,envhealth@copeland.gov.uk,Copeland,http://www.copeland.gov.uk,-3.58202300000000,CA28 9HX,2010-11-17,fhrs_3_en-GB,3,,FHRS,10
173695,Tarnside,Beckermet,Cumbria,,Tarnside Caravan Park,Restaurant/Cafe/Canteen,1,5,,229733,0,,,PI/000014464,058,envhealth@copeland.gov.uk,Copeland,http://www.copeland.gov.uk,,,2013-04-24,fhrs_5_en-GB,5,,FHRS,0
173696,31 James Street,Whitehaven,Cumbria,,Taste Cafe,Restaurant/Cafe/Canteen,1,5,,444675,0,,54.54619800000000,PI/000003914,058,envhealth@copeland.gov.uk,Copeland,http://www.copeland.gov.uk,-3.59104400000000,CA28 7HZ,2013-04-19,fhrs_5_en-GB,5,,FHRS,5
173697,Tesco Stores Ltd,Bransty Row,Whitehaven,Cumbria,Tesco Family Dining Ltd,Restaurant/Cafe/Canteen,1,0,,230134,5,,54.55117000000000,PI/000034858,058,envhealth@copeland.gov.uk,Copeland,http://www.copeland.gov.uk,-3.58680000000000,CA28 7XE,2012-12-04,fhrs_5_en-GB,5,,FHRS,0
173698,Tesco Stores Ltd,Bransty Row,Whitehaven,Cumbria,Tesco Stores,Retailers - supermarkets/hypermarkets,7840,5,,229708,5,,54.55117000000000,PI/000033449,058,envhealth@copeland.gov.uk,Copeland,http://www.copeland.gov.uk,-3.58680000000000,CA28 7XE,2014-02-06,fhrs_5_en-GB,5,,FHRS,0
173699,Tesco Stores,Lancashire Road,Millom,Cumbria,Tesco Stores Limited,Retailers - supermarkets/hypermarkets,7840,0,,230271,0,,54.21050500000000,PI/000034651,058,envhealth@copeland.gov.uk,Copeland,http://www.copeland.gov.uk,-3.26951100000000,LA18 4BX,2013-10-01,fhrs_5_en-GB,5,,FHRS,5
173700,113 Main Street,Distington,Cumbria,,The Bait Cabin,Takeaway/sandwich shop,7844,0,,230086,0,,54.59601000000000,PI/000034779,058,envhealth@copeland.gov.uk,Copeland,http://www.copeland.gov.uk,-3.53959900000000,CA14 5UJ,2014-06-27,fhrs_5_en-GB,5,,FHRS,5
173701,13A Gosforth Road,Seascale,Cumbria,,The Bake House,Retailers - other,4613,5,,230104,5,,54.39638100000000,PI/000033131,058,envhealth@copeland.gov.uk,Copeland,http://www.copeland.gov.uk,-3.48043300000000,CA20 1PR,2014-01-16,fhrs_5_en-GB,5,,FHRS,5
173702,18 St Georges Terrace,Millom,Cumbria,,The Bake House,Manufacturers/packers,7839,5,,230244,5,,54.20965500000000,PI/000031766,058,envhealth@copeland.gov.uk,Copeland,http://www.copeland.gov.uk,-3.26917800000000,LA18 4DB,2013-07-03,fhrs_5_en-GB,5,,FHRS,5
173703,The Barn Door Showroom And Shop,Wasdale Head,Seascale,Cumbria,The Barn Door Shop,Retailers - other,4613,,,230046,,,54.45697800000000,PI/000027609,058,envhealth@copeland.gov.uk,Copeland,http://www.copeland.gov.uk,-3.26102500000000,CA20 1EX,2014-09-09,fhrs_exempt_en-GB,Exempt,,FHRS,
173704,2 Crown Street,Millom,Cumbria,,The BBQ,Takeaway/sandwich shop,7844,10,,451488,10,,54.21014700000000,PI/000031863,058,envhealth@copeland.gov.uk,Copeland,http://www.copeland.gov.uk,-3.26769100000000,LA18 4AG,2013-08-02,fhrs_2_en-GB,2,,FHRS,15
173705,"The Bear In The Square, Working Mens Club",2-6 St Georges Terrace,Millom,Cumbria,"The Bear on the Square, Working Mens",Pub/bar/nightclub,7843,5,,586541,10,,54.20965500000000,PI/000035124,058,envhealth@copeland.gov.uk,Copeland,http://www.copeland.gov.uk,-3.26917800000000,LA18 4DB,2013-06-20,fhrs_4_en-GB,4,,FHRS,5
173706,Boot,Cumbria,,,The Boot Inn,Pub/bar/nightclub,7843,5,,230149,5,,54.39807800000000,PI/000027596,058,envhealth@copeland.gov.uk,Copeland,http://www.copeland.gov.uk,-3.26993800000000,CA19 1TG,2013-03-13,fhrs_5_en-GB,5,,FHRS,5
173707,93 Trumpet Terrace,Cleator,Cumbria,,The Brook,Pub/bar/nightclub,7843,5,,230096,5,,54.51264600000000,PI/000022590,058,envhealth@copeland.gov.uk,Copeland,http://www.copeland.gov.uk,-3.51330600000000,CA23 3DX,2011-03-31,fhrs_5_en-GB,5,,FHRS,5
173708,Millstone Barn,Bootle,Cumbria,,The Byre Tearooms,Restaurant/Cafe/Canteen,1,5,,229941,0,,54.28387700000000,PI/000033688,058,envhealth@copeland.gov.uk,Copeland,http://www.copeland.gov.uk,-3.37332000000000,LA19 5TH,2013-10-29,fhrs_5_en-GB,5,,FHRS,0
173709,Copeland Bowls Centre,Wyndham Street,Cleator Moor,Cumbria,The Cafe,Restaurant/Cafe/Canteen,1,5,,230231,0,,54.52177300000000,PI/000033169,058,envhealth@copeland.gov.uk,Copeland,http://www.copeland.gov.uk,-3.51515800000000,CA25 5AN,2014-02-14,fhrs_4_en-GB,4,,FHRS,10
173710,22 Tangier Street,Whitehaven,Cumbria,,The Candlestick,Pub/bar/nightclub,7843,10,,230232,0,,54.54995500000000,PI/000006304,058,envhealth@copeland.gov.uk,Copeland,http://www.copeland.gov.uk,-3.58833000000000,CA28 7UX,2014-03-28,fhrs_4_en-GB,4,,FHRS,0
173711,Captain Shaws School,Main Street,Bootle,Cumbria,The Captain's Table,School/college/university,7845,0,,229806,0,,54.28226900000000,PI/000030168,058,envhealth@copeland.gov.uk,Copeland,http://www.copeland.gov.uk,-3.37252900000000,LA19 5TG,2011-11-17,fhrs_5_en-GB,5,,FHRS,5
173712,22 Jacktrees Road,Cleator Moor,Cumbria,,The Card Shop,Retailers - other,4613,10,,229713,10,,54.52112500000000,PI/000022369,058,envhealth@copeland.gov.uk,Copeland,http://www.copeland.gov.uk,-3.51735800000000,CA25 5BD,2012-06-14,fhrs_3_en-GB,3,,FHRS,5
173713,Central Hotel,70 Main Street,Egremont,Cumbria,The Central,Pub/bar/nightclub,7843,10,,229890,10,,54.48309800000000,PI/000020365,058,envhealth@copeland.gov.uk,Copeland,http://www.copeland.gov.uk,-3.52870000000000,CA22 2DB,2013-05-15,fhrs_3_en-GB,3,,FHRS,10
173714,42 Market Place,Whitehaven,Cumbria,,The Chicken Shop,Retailers - other,4613,5,,229674,0,,54.54688200000000,PI/000003920,058,envhealth@copeland.gov.uk,Copeland,http://www.copeland.gov.uk,-3.59094700000000,CA28 7JB,2014-06-03,fhrs_5_en-GB,5,,FHRS,5
173715,1 Laurel Bank,Foxhouses Road,Whitehaven,Cumbria,The Corner House,Hotel/bed & breakfast/guest house,7842,5,,230091,5,,54.54159500000000,PI/000004512,058,envhealth@copeland.gov.uk,Copeland,http://www.copeland.gov.uk,-3.57882300000000,CA28 8AD,2011-09-19,fhrs_5_en-GB,5,,FHRS,5
173716,Sneckyeat Road,Whitehaven,Cumbria,,The Cross Georgian Guest House,Hotel/bed & breakfast/guest house,7842,5,,229649,5,,54.52962100000000,PI/000012745,058,envhealth@copeland.gov.uk,Copeland,http://www.copeland.gov.uk,-3.55680300000000,CA28 8JQ,2011-03-09,fhrs_5_en-GB,5,,FHRS,0
173717,Bowthorn Road,Cleator Moor,Cumbria,,The Crown,Pub/bar/nightclub,7843,10,,230185,5,,54.52617000000000,PI/000022438,058,envhealth@copeland.gov.uk,Copeland,http://www.copeland.gov.uk,-3.52853200000000,CA25 5JU,2011-07-19,fhrs_3_en-GB,3,,FHRS,10
173718,Devonshire Hotel,Devonshire Road,Millom,Cumbria,The Devonshire,Pub/bar/nightclub,7843,5,,229696,5,,54.20763000000000,PI/000029875,058,envhealth@copeland.gov.uk,Copeland,http://www.copeland.gov.uk,-3.25911900000000,LA18 4JP,2012-03-23,fhrs_5_en-GB,5,,FHRS,5
173719,Moresby Parks,Whitehaven,Cumbria,,The Eyrie,Hospitals/Childcare/Caring Premises,5,10,,229939,5,,54.55825600000000,PI/000013484,058,envhealth@copeland.gov.uk,Copeland,http://www.copeland.gov.uk,-3.55121300000000,CA28 8XG,2014-01-06,fhrs_4_en-GB,4,,FHRS,0
173720,99 Valley Park,Whitehaven,Cumbria,,The Floury Apron,Other catering premises,7841,10,,230118,5,,54.53788800000000,PI/000008024,058,envhealth@copeland.gov.uk,Copeland,http://www.copeland.gov.uk,-3.57495500000000,CA28 8BA,2011-12-08,fhrs_4_en-GB,4,,FHRS,5
173721,British Legion Club,Lindow Street,Frizington,Cumbria,The Frizington Veterans Club,Pub/bar/nightclub,7843,5,,230207,5,,54.54249500000000,PI/000025144,058,envhealth@copeland.gov.uk,Copeland,http://www.copeland.gov.uk,-3.49238200000000,CA26 3PU,2014-03-28,fhrs_4_en-GB,4,,FHRS,10
173722,Unit 1a,Red Lonning Industrial Estate,Whitehaven,Cumbria,The Funhouse,Restaurant/Cafe/Canteen,1,5,,621054,0,,54.54813200000000,PI/000011224,058,envhealth@copeland.gov.uk,Copeland,http://www.copeland.gov.uk,-3.56403200000000,CA28 6SJ,2013-07-01,fhrs_5_en-GB,5,,FHRS,0
173723,Georgian House Hotel,9-11 Church Street,Whitehaven,Cumbria,The Georgian House,Restaurant/Cafe/Canteen,1,5,,229893,5,,54.54762700000000,PI/000006073,058,envhealth@copeland.gov.uk,Copeland,http://www.copeland.gov.uk,-3.58899700000000,CA28 7AY,2014-04-25,fhrs_5_en-GB,5,,FHRS,0
173724,95 Main Street,Hensingham,Cumbria,,The Globe,Pub/bar/nightclub,7843,5,,230027,0,,54.53669300000000,PI/000008893,058,envhealth@copeland.gov.uk,Copeland,http://www.copeland.gov.uk,-3.56733500000000,CA28 8QX,2014-04-30,fhrs_5_en-GB,5,,FHRS,5
173725,The Square,Gosforth,Cumbria,,The Globe,Pub/bar/nightclub,7843,10,,229964,5,,54.41871300000000,PI/000016739,058,envhealth@copeland.gov.uk,Copeland,http://www.copeland.gov.uk,-3.43904000000000,CA20 1AL,2013-03-26,fhrs_3_en-GB,3,,FHRS,10
173726,The Griffin Hotel,Mill Street,Frizington,Cumbria,The Griffin,Pub/bar/nightclub,7843,5,,229687,10,,54.54082000000000,PI/000025181,058,envhealth@copeland.gov.uk,Copeland,http://www.copeland.gov.uk,-3.49621600000000,CA26 3SQ,2012-04-27,fhrs_4_en-GB,4,,FHRS,5
173727,57 Lowther Street,Whitehaven,Cumbria,,The Haven Cafe,Restaurant/Cafe/Canteen,1,5,,230033,5,,54.54852600000000,PI/000006236,058,envhealth@copeland.gov.uk,Copeland,http://www.copeland.gov.uk,-3.58898600000000,CA28 7DP,2014-01-30,fhrs_5_en-GB,5,,FHRS,5
173728,Arlecdon,Cumbria,,,The Hound Inn,Pub/bar/nightclub,7843,5,,229711,5,,54.55377800000000,PI/000025368,058,envhealth@copeland.gov.uk,Copeland,http://www.copeland.gov.uk,-3.47153300000000,CA26 3XE,2013-08-30,fhrs_4_en-GB,4,,FHRS,10
173729,The Square,Gosforth,Cumbria,,The Hungry Parrot Eatery,Restaurant/Cafe/Canteen,1,10,,230077,10,,54.41878800000000,PI/000033094,058,envhealth@copeland.gov.uk,Copeland,http://www.copeland.gov.uk,-3.43577600000000,CA20 1EJ,2013-12-12,fhrs_3_en-GB,3,,FHRS,10
173730,Egremont Catholic Mens Club,St Bridgets Lane,Egremont,Cumbria,The La'al Club,Pub/bar/nightclub,7843,5,,230070,5,,54.48259300000000,PI/000018082,058,envhealth@copeland.gov.uk,Copeland,http://www.copeland.gov.uk,-3.53308100000000,CA22 2BD,2012-04-26,fhrs_5_en-GB,5,,FHRS,5
173731,Haverigg Primary School,Atkinson Street,Haverigg,Cumbria,The Lighthouse Centre,Restaurant/Cafe/Canteen,1,0,,230167,0,,54.19760800000000,PI/000034919,058,envhealth@copeland.gov.uk,Copeland,http://www.copeland.gov.uk,-3.28974900000000,LA18 4HA,2013-11-12,fhrs_5_en-GB,5,,FHRS,5
173732,The Lion Hotel,Woodhouse Road,Whitehaven,Cumbria,The Lion,Pub/bar/nightclub,7843,0,,230296,0,,54.53070000000000,PI/000003714,058,envhealth@copeland.gov.uk,Copeland,http://www.copeland.gov.uk,-3.58988500000000,CA28 9LL,2014-11-21,fhrs_5_en-GB,5,,FHRS,0
173733,61B Meadow Road,Whitehaven,Cumbria,,The Little Indian,Takeaway/sandwich shop,7844,5,,230242,5,,54.52589900000000,PI/000007683,058,envhealth@copeland.gov.uk,Copeland,http://www.copeland.gov.uk,-3.57140300000000,CA28 8ER,2014-01-23,fhrs_4_en-GB,4,,FHRS,10
173734,Raceside Barn,Kirksanton,Cumbria,,The Little Muffin,Retailers - other,4613,10,,555540,5,,54.21518900000000,PI/000035013,058,envhealth@copeland.gov.uk,Copeland,http://www.copeland.gov.uk,-3.32366700000000,LA18 4NW,2013-04-29,fhrs_4_en-GB,4,,FHRS,5
173735,114 Holborn Hill,Millom,Cumbria,,The Lobster Pot,Retailers - other,4613,0,,606770,0,,54.21186700000000,PI/000030498,058,envhealth@copeland.gov.uk,Copeland,http://www.copeland.gov.uk,-3.27752700000000,LA18 5BL,2013-09-05,fhrs_5_en-GB,5,,FHRS,0
173736,43 Market Place,Whitehaven,Cumbria,,The Market Deli,Takeaway/sandwich shop,7844,5,,229815,5,,54.54688200000000,PI/000003921,058,envhealth@copeland.gov.uk,Copeland,http://www.copeland.gov.uk,-3.59094700000000,CA28 7JB,2013-06-04,fhrs_5_en-GB,5,,FHRS,5
173737,Egremont Methodist Church,Main Street,Egremont,Cumbria,The Meeting Place,Restaurant/Cafe/Canteen,1,10,,615773,5,,54.48304300000000,PI/000020315,058,envhealth@copeland.gov.uk,Copeland,http://www.copeland.gov.uk,-3.52806500000000,CA22 2DR,2013-11-26,fhrs_4_en-GB,4,,FHRS,0
173738,Unit 5a,Frizington Industrial Estate,Frizington Road,Frizington,The Muffin Top Boutique Bakery,Manufacturers/packers,7839,5,,690970,5,,54.53365800000000,PI/000042375,058,envhealth@copeland.gov.uk,Copeland,http://www.copeland.gov.uk,-3.49323400000000,CA26 3QY,2012-11-07,fhrs_5_en-GB,5,,FHRS,5
173739,28 Lowther Street,Whitehaven,Cumbria,,The Pack Horse,Pub/bar/nightclub,7843,5,,230063,5,,54.54803500000000,PI/000005272,058,envhealth@copeland.gov.uk,Copeland,http://www.copeland.gov.uk,-3.58873500000000,CA28 7DJ,2011-07-12,fhrs_4_en-GB,4,,FHRS,10
173740,27 Wellington Street,Millom,Cumbria,,The Papershop (Millom) Ltd,Retailers - other,4613,5,,229853,5,,54.20974800000000,PI/000031791,058,envhealth@copeland.gov.uk,Copeland,http://www.copeland.gov.uk,-3.26712700000000,LA18 4DF,2013-06-20,fhrs_5_en-GB,5,,FHRS,5
173741,Peel Hotel,Bedford Street,Millom,Cumbria,The Peel Hotel,Pub/bar/nightclub,7843,10,,408249,0,,54.20822600000000,PI/000029459,058,envhealth@copeland.gov.uk,Copeland,http://www.copeland.gov.uk,-3.26057900000000,LA18 4JN,2013-11-29,fhrs_4_en-GB,4,,FHRS,5
173742,Hill Top Road,Whitehaven,Cumbria,,The Royal British Legion,Pub/bar/nightclub,7843,10,,230016,10,,54.53863400000000,PI/000001140,058,envhealth@copeland.gov.uk,Copeland,http://www.copeland.gov.uk,-3.59351700000000,CA28 9ED,2014-08-15,fhrs_3_en-GB,3,,FHRS,10
173743,King Street,Cleator,Cumbria,,The Royal British Legion,Pub/bar/nightclub,7843,5,,230165,0,,54.51667000000000,PI/000022799,058,envhealth@copeland.gov.uk,Copeland,http://www.copeland.gov.uk,-3.50488100000000,CA23 3EJ,2014-07-02,fhrs_4_en-GB,4,,FHRS,10
173744,Royal British Legion,Main Street,Egremont,Cumbria,The Royal British Legion,Pub/bar/nightclub,7843,5,,230163,5,,54.48309800000000,PI/000020338,058,envhealth@copeland.gov.uk,Copeland,http://www.copeland.gov.uk,-3.52870000000000,CA22 2DB,2014-01-31,fhrs_4_en-GB,4,,FHRS,10
173745,27 Lowther Street,Whitehaven,Cumbria,,The Rum Story,Restaurant/Cafe/Canteen,1,0,,230274,0,,54.54792400000000,PI/000006422,058,envhealth@copeland.gov.uk,Copeland,http://www.copeland.gov.uk,-3.58900900000000,CA28 7DN,2012-05-10,fhrs_5_en-GB,5,,FHRS,5
173746,1 Nelson Street,Millom,Cumbria,,The Salvation Army,Restaurant/Cafe/Canteen,1,5,,230101,5,,54.20892900000000,PI/000033505,058,envhealth@copeland.gov.uk,Copeland,http://www.copeland.gov.uk,-3.26553800000000,LA18 4DW,2013-06-25,fhrs_5_en-GB,5,,FHRS,5
173747,Catherine Street,Whitehaven,Cumbria,,The Salvation Army,Restaurant/Cafe/Canteen,1,5,,230305,5,,54.54687000000000,PI/000006421,058,envhealth@copeland.gov.uk,Copeland,http://www.copeland.gov.uk,-3.58502600000000,CA28 7PD,2013-03-07,fhrs_4_en-GB,4,,FHRS,10
173748,50 High Road,Whitehaven,Cumbria,,The Stump,Pub/bar/nightclub,7843,0,,230174,0,,54.54501800000000,PI/000001830,058,envhealth@copeland.gov.uk,Copeland,http://www.copeland.gov.uk,-3.59532700000000,CA28 9AG,2014-04-17,fhrs_5_en-GB,5,,FHRS,0
173749,Taylors Tavern,18 Tangier Street,Whitehaven,Cumbria,The Tavern,Pub/bar/nightclub,7843,5,,229672,5,,54.54995500000000,PI/000006302,058,envhealth@copeland.gov.uk,Copeland,http://www.copeland.gov.uk,-3.58833000000000,CA28 7UX,2013-07-26,fhrs_5_en-GB,5,,FHRS,5
173750,Three Tuns,Scotch Street,Whitehaven,Cumbria,The Three Tuns,Pub/bar/nightclub,7843,5,,230081,5,,54.54821200000000,PI/000033160,058,envhealth@copeland.gov.uk,Copeland,http://www.copeland.gov.uk,-3.58413400000000,CA28 7NU,2012-03-22,fhrs_5_en-GB,5,,FHRS,5
173751,The Ravenglass And Eskdale Railway Co Ltd,Ravenglass,Cumbria,,The Turntable Cafe,Restaurant/Cafe/Canteen,1,0,,229660,5,,54.35680500000000,PI/000034877,058,envhealth@copeland.gov.uk,Copeland,http://www.copeland.gov.uk,-3.40929900000000,CA18 1SW,2014-03-18,fhrs_5_en-GB,5,,FHRS,0
173752,West Strand,Whitehaven,Cumbria,,The Waterfront,Pub/bar/nightclub,7843,5,,229826,5,,54.54977600000000,PI/000006298,058,envhealth@copeland.gov.uk,Copeland,http://www.copeland.gov.uk,-3.59641000000000,CA28 7LY,2013-03-14,fhrs_5_en-GB,5,,FHRS,5
173753,Market Place,Whitehaven,Cumbria,,The Wellington,Pub/bar/nightclub,7843,5,,230286,5,,54.54688200000000,PI/000006294,058,envhealth@copeland.gov.uk,Copeland,http://www.copeland.gov.uk,-3.59094700000000,CA28 7JB,2012-03-12,fhrs_5_en-GB,5,,FHRS,5
173754,Croft Foot,Gosforth,Cumbria,,The Wild Olive,Restaurant/Cafe/Canteen,1,10,,435269,10,,54.41907900000000,PI/000034885,058,envhealth@copeland.gov.uk,Copeland,http://www.copeland.gov.uk,-3.44000900000000,CA20 1AH,2014-02-27,fhrs_3_en-GB,3,,FHRS,10
173755,Ehen Road,Thornhill,Cumbria,,Thornhill School,School/college/university,7845,5,,230301,5,,54.46473100000000,PI/000015219,058,envhealth@copeland.gov.uk,Copeland,http://www.copeland.gov.uk,-3.52761400000000,CA22 2SJ,2013-09-20,fhrs_5_en-GB,5,,FHRS,5
173756,The Crescent,Thornhill,Cumbria,,Thornhill Social Club,Pub/bar/nightclub,7843,5,,230272,5,,,PI/000033210,058,envhealth@copeland.gov.uk,Copeland,http://www.copeland.gov.uk,,CA22 2ST,2012-05-21,fhrs_4_en-GB,4,,FHRS,10
173757,156 Queen Street,Whitehaven,Cumbria,,Tivoli Guest House,Hotel/bed & breakfast/guest house,7842,5,,230263,5,,54.54657400000000,PI/000004279,058,envhealth@copeland.gov.uk,Copeland,http://www.copeland.gov.uk,-3.58908000000000,CA28 7BA,2012-05-10,fhrs_5_en-GB,5,,FHRS,5
173758,1 Tomlin House,Beach Road,St Bees,Cumbria,Tomlin Guest House,Hotel/bed & breakfast/guest house,7842,5,,229873,5,,54.49142400000000,PI/000000242,058,envhealth@copeland.gov.uk,Copeland,http://www.copeland.gov.uk,-3.60203900000000,CA27 0EN,2014-07-28,fhrs_5_en-GB,5,,FHRS,5
173759,Longlands View,Kiln Brow,Cleator,Cumbria,Tout Sweet,Retailers - other,4613,0,,230183,0,,54.50714000000000,PI/000021027,058,envhealth@copeland.gov.uk,Copeland,http://www.copeland.gov.uk,-3.52096400000000,CA23 3DF,2014-02-27,fhrs_5_en-GB,5,,FHRS,0
173760,Whitbeck,Cumbria,,,Town End Hall Farm,Manufacturers/packers,7839,10,,667298,5,,54.24686500000000,PI/000030222,058,envhealth@copeland.gov.uk,Copeland,http://www.copeland.gov.uk,-3.35419400000000,LA19 5UR,2014-01-24,fhrs_4_en-GB,4,,FHRS,5
173761,Coates Lane Care Home,10A Coates Lane,Whitehaven,Cumbria,Turning Point,Hospitals/Childcare/Caring Premises,5,5,,230076,5,,54.54691000000000,PI/000006395,058,envhealth@copeland.gov.uk,Copeland,http://www.copeland.gov.uk,-3.58951100000000,CA28 7BZ,2011-08-16,fhrs_5_en-GB,5,,FHRS,5
173762,Holmrook,Cumbria,,,Tynedale Farm Services,Retailers - other,4613,,,229907,,,54.38515472412109,PI/000033361,058,envhealth@copeland.gov.uk,Copeland,http://www.copeland.gov.uk,-3.42074155807495,CA19 1UH,2014-11-24,fhrs_exempt_en-GB,Exempt,,FHRS,
173763,Underwood,The Hill,Cumbria,,Underwood House,Hotel/bed & breakfast/guest house,7842,20,,230219,10,,54.23196900000000,PI/000032312,058,envhealth@copeland.gov.uk,Copeland,http://www.copeland.gov.uk,-3.27196500000000,LA18 5EZ,2014-09-25,fhrs_1_en-GB,1,,FHRS,15
173764,16 Duke Street,Whitehaven,Cumbria,,Upper Crust,Takeaway/sandwich shop,7844,5,,229761,5,,54.54937000000000,PI/000004832,058,envhealth@copeland.gov.uk,Copeland,http://www.copeland.gov.uk,-3.58702400000000,CA28 7ET,2013-01-31,fhrs_5_en-GB,5,,FHRS,5
173765,The Vagabond,1 Marlborough Street,Whitehaven,Cumbria,Vagabond,Restaurant/Cafe/Canteen,1,10,,229789,10,,54.54850800000000,PI/000006440,058,envhealth@copeland.gov.uk,Copeland,http://www.copeland.gov.uk,-3.59101100000000,CA28 7LL,2011-09-13,fhrs_3_en-GB,3,,FHRS,10
173766,Valley Infants And Junior School,Whinlatter Road,Whitehaven,Cumbria,Valley Primary School,School/college/university,7845,5,,229738,0,,,PI/000006930,058,envhealth@copeland.gov.uk,Copeland,http://www.copeland.gov.uk,,CA28 8DD,2014-02-27,fhrs_5_en-GB,5,,FHRS,5
173767,78 Lowther Street,Whitehaven,Cumbria,,Veuve Wine Bar,Pub/bar/nightclub,7843,10,,667310,0,,54.54693600000000,PI/000035202,058,envhealth@copeland.gov.uk,Copeland,http://www.copeland.gov.uk,-3.58550700000000,CA28 7RB,2014-03-26,fhrs_4_en-GB,4,,FHRS,10
173768,Station Road,Drigg,Cumbria,,Victoria Hotel,Hotel/bed & breakfast/guest house,7842,0,,230243,5,,54.37730400000000,PI/000033486,058,envhealth@copeland.gov.uk,Copeland,http://www.copeland.gov.uk,-3.44148600000000,CA19 1XQ,2013-10-10,fhrs_5_en-GB,5,,FHRS,5
173769,The Hill,Cumbria,,,Village Hall,Retailers - other,4613,,,429219,,,54.24112400000000,PI/000032394,058,envhealth@copeland.gov.uk,Copeland,http://www.copeland.gov.uk,-3.26126000000000,LA18 5HG,2012-06-27,fhrs_exempt_en-GB,Exempt,,FHRS,
173770,Market Place,Whitehaven,Cumbria,,Vine Hotel,Pub/bar/nightclub,7843,10,,229868,5,,54.54752400000000,PI/000006295,058,envhealth@copeland.gov.uk,Copeland,http://www.copeland.gov.uk,-3.59139000000000,CA28 7JG,2013-10-24,fhrs_4_en-GB,4,,FHRS,5
173771,72-73 Market Place,Whitehaven,Cumbria,,W Fare Chemist,Retailers - other,4613,,,230306,,,54.54752400000000,PI/000006186,058,envhealth@copeland.gov.uk,Copeland,http://www.copeland.gov.uk,-3.59139000000000,CA28 7JG,2011-07-05,fhrs_exempt_en-GB,Exempt,,FHRS,
173772,W H Smith,West Cumberland Hospital,Homewood Road,Whitehaven,W H Smith (Shop),Retailers - other,4613,5,,230139,5,,54.53020300000000,PI/000033677,058,envhealth@copeland.gov.uk,Copeland,http://www.copeland.gov.uk,-3.56319200000000,CA28 8JG,2013-01-07,fhrs_5_en-GB,5,,FHRS,5
173773,Beach Shop And Cafe,Beach Road,St Bees,Cumbria,"W Hartley, Beach Shop",Restaurant/Cafe/Canteen,1,0,,230182,0,,54.48996200000000,PI/000000238,058,envhealth@copeland.gov.uk,Copeland,http://www.copeland.gov.uk,-3.60317100000000,CA27 0ES,2013-11-13,fhrs_5_en-GB,5,,FHRS,5
173774,Waberthwaite,Cumbria,,,Waberthwaite C Of E School,School/college/university,7845,0,,230210,0,,54.32828900000000,PI/000032712,058,envhealth@copeland.gov.uk,Copeland,http://www.copeland.gov.uk,-3.37713700000000,LA19 5YJ,2014-01-30,fhrs_5_en-GB,5,,FHRS,0
173775,Walsingham Holmes,19 Beech Avenue,Egremont,Cumbria,Walsingham Community Homes,Hospitals/Childcare/Caring Premises,5,10,,230308,5,,54.48754300000000,PI/000018781,058,envhealth@copeland.gov.uk,Copeland,http://www.copeland.gov.uk,-3.53396000000000,CA22 2QA,2011-07-27,fhrs_4_en-GB,4,,FHRS,0
173776,Wasdale Head,Seascale,Cumbria,,Wasdale Head Inn,Hotel/bed & breakfast/guest house,7842,5,,229693,5,,54.45697784423828,PI/000027610,058,envhealth@copeland.gov.uk,Copeland,http://www.copeland.gov.uk,-3.26102447509766,CA20 1EX,2014-08-19,fhrs_4_en-GB,4,,FHRS,10
173777,1 Princes Street,Cleator,Cumbria,,Wath Brow Fish and Chips,Takeaway/sandwich shop,7844,0,,230201,0,,54.51698000000000,PI/000022756,058,envhealth@copeland.gov.uk,Copeland,http://www.copeland.gov.uk,-3.50455200000000,CA23 3EN,2013-11-28,fhrs_5_en-GB,5,,FHRS,0
173778,Cleator,Cumbria,,,Wath Brow Hornets R L F C,Pub/bar/nightclub,7843,5,,230038,5,,54.51647100000000,PI/000022802,058,envhealth@copeland.gov.uk,Copeland,http://www.copeland.gov.uk,-3.49997600000000,CA23 3AE,2012-03-20,fhrs_5_en-GB,5,,FHRS,5
173779,13-14 Tangier Street,Whitehaven,Cumbria,,Waverley Hotel,Hotel/bed & breakfast/guest house,7842,0,,229773,0,,54.54995500000000,PI/000006303,058,envhealth@copeland.gov.uk,Copeland,http://www.copeland.gov.uk,-3.58833000000000,CA28 7UX,2013-10-07,fhrs_4_en-GB,4,,FHRS,10
173780,The Bistro,Beacon Heritage Centre,West Strand,Whitehaven,Wellington Bistro,Restaurant/Cafe/Canteen,1,5,,230235,0,,54.54877900000000,PI/000034559,058,envhealth@copeland.gov.uk,Copeland,http://www.copeland.gov.uk,-3.58547100000000,CA28 7NP,2014-02-20,fhrs_5_en-GB,5,,FHRS,5
173781,6 Richmond Crescent,St Bees,Cumbria,,West Coast B&B,Hotel/bed & breakfast/guest house,7842,5,,230000,5,,54.49090100000000,PI/000000153,058,envhealth@copeland.gov.uk,Copeland,http://www.copeland.gov.uk,-3.60350100000000,CA27 0EP,2013-05-15,fhrs_5_en-GB,5,,FHRS,5
173782,West Cumberland Hospital,Homewood Road,Whitehaven,Cumbria,West Cumberland Hospital Main Kitche,Hospitals/Childcare/Caring Premises,5,0,,229750,0,,54.53020300000000,PI/000007988,058,envhealth@copeland.gov.uk,Copeland,http://www.copeland.gov.uk,-3.56319200000000,CA28 8JG,2014-03-28,fhrs_5_en-GB,5,,FHRS,5
173783,25 Roper Street,Whitehaven,Cumbria,,West House,Hospitals/Childcare/Caring Premises,5,5,,230224,5,,54.54666100000000,PI/000003870,058,envhealth@copeland.gov.uk,Copeland,http://www.copeland.gov.uk,-3.58798600000000,CA28 7BS,2011-07-13,fhrs_5_en-GB,5,,FHRS,0
173784,3 Glebe Lane,Distington,Cumbria,,West House,Hospitals/Childcare/Caring Premises,5,0,,230044,0,,54.59883900000000,PI/000026706,058,envhealth@copeland.gov.uk,Copeland,http://www.copeland.gov.uk,-3.53692000000000,CA14 5SQ,2014-03-13,fhrs_5_en-GB,5,,FHRS,0
173785,42 Queen Street,Whitehaven,Cumbria,,West House,Hospitals/Childcare/Caring Premises,5,5,,230255,5,,54.54915100000000,PI/000005801,058,envhealth@copeland.gov.uk,Copeland,http://www.copeland.gov.uk,-3.58590200000000,CA28 7QD,2014-03-14,fhrs_5_en-GB,5,,FHRS,5
173786,Wayside,Whitbeck,Cumbria,,WEST LAKES,Hotel/bed & breakfast/guest house,7842,0,,230058,0,,54.25019900000000,PI/000030214,058,envhealth@copeland.gov.uk,Copeland,http://www.copeland.gov.uk,-3.35746500000000,LA19 5UP,2013-03-06,fhrs_5_en-GB,5,,FHRS,0
173787,Drigg Road,Seascale,Cumbria,,Westcliff Hotel,Pub/bar/nightclub,7843,0,,230072,0,,54.39265100000000,PI/000015557,058,envhealth@copeland.gov.uk,Copeland,http://www.copeland.gov.uk,-3.48264000000000,CA20 1NS,2014-09-08,fhrs_5_en-GB,5,,FHRS,0
173788,Floshfield Bungalow,Cleator,Cumbria,,Westhouse,Hospitals/Childcare/Caring Premises,5,0,,229847,0,,54.50942500000000,PI/000021059,058,envhealth@copeland.gov.uk,Copeland,http://www.copeland.gov.uk,-3.51792900000000,CA23 3DT,2014-03-07,fhrs_5_en-GB,5,,FHRS,5
173789,Gosforth,Cumbria,,,Westlakes Hotel,Hotel/bed & breakfast/guest house,7842,5,,229831,5,,54.41304700000000,PI/000016740,058,envhealth@copeland.gov.uk,Copeland,http://www.copeland.gov.uk,-3.44611500000000,CA20 1HP,2013-02-27,fhrs_4_en-GB,4,,FHRS,10
173790,65 Lowther Street,Whitehaven,Cumbria,,Westminster Cafe Bar,Restaurant/Cafe/Canteen,1,5,,229812,0,,54.54754100000000,PI/000005239,058,envhealth@copeland.gov.uk,Copeland,http://www.copeland.gov.uk,-3.58665900000000,CA28 7AH,2014-11-20,fhrs_5_en-GB,5,,FHRS,0
173791,Wha House Cottage,Boot,Cumbria,,Wha House,Hotel/bed & breakfast/guest house,7842,5,,229875,5,,54.39800800000000,PI/000027632,058,envhealth@copeland.gov.uk,Copeland,http://www.copeland.gov.uk,-3.24823200000000,CA19 1TH,2012-09-19,fhrs_5_en-GB,5,,FHRS,5
173792,1 Duke Street,Millom,Cumbria,,Whartons Garage Ltd,Retailers - other,4613,0,,230051,0,,54.21136800000000,PI/000032216,058,envhealth@copeland.gov.uk,Copeland,http://www.copeland.gov.uk,-3.27291100000000,LA18 5BB,2014-01-30,fhrs_5_en-GB,5,,FHRS,0
173793,Wheatsheaf Hotel,24 Market Place,Egremont,Cumbria,Wheatsheaf Inn,Pub/bar/nightclub,7843,5,,429218,5,,54.48139300000000,PI/000019848,058,envhealth@copeland.gov.uk,Copeland,http://www.copeland.gov.uk,-3.52919200000000,CA22 2AG,2012-09-07,fhrs_4_en-GB,4,,FHRS,10
173794,Barn 2,Rottington,Cumbria,,Whistling Jacks Guest House,Hotel/bed & breakfast/guest house,7842,5,,229833,5,,54.50253600000000,PI/000034525,058,envhealth@copeland.gov.uk,Copeland,http://www.copeland.gov.uk,-3.60455900000000,CA28 9UR,2014-12-01,fhrs_5_en-GB,5,,FHRS,0
173795,The White Mare,Beckermet,Cumbria,,White Mare,Pub/bar/nightclub,7843,,,229788,,,54.44634400000000,PI/000014881,058,envhealth@copeland.gov.uk,Copeland,http://www.copeland.gov.uk,-3.51317200000000,CA21 2XS,2013-09-06,fhrs_awaitinginspection_en-GB,AwaitingInspection,,FHRS,
173796,82 Lowther Street,Whitehaven,Cumbria,,Whitehaven Conservative Club,Pub/bar/nightclub,7843,5,,230084,5,,54.54657900000000,PI/000004232,058,envhealth@copeland.gov.uk,Copeland,http://www.copeland.gov.uk,-3.58461200000000,CA28 7RF,2012-03-12,fhrs_5_en-GB,5,,FHRS,5
173797,2 College Street,Whitehaven,Cumbria,,Whitehaven Country Market,Restaurant/Cafe/Canteen,1,5,,229884,0,,54.54885600000000,PI/000033326,058,envhealth@copeland.gov.uk,Copeland,http://www.copeland.gov.uk,-3.58779300000000,CA28 7EG,2011-06-23,fhrs_5_en-GB,5,,FHRS,5
173798,United Reformed Church,James Street,Whitehaven,Cumbria,Whitehaven Country Markets,Retailers - other,4613,5,,542768,5,,54.54619800000000,PI/000004803,058,envhealth@copeland.gov.uk,Copeland,http://www.copeland.gov.uk,-3.59104400000000,CA28 7HZ,2013-04-25,fhrs_5_en-GB,5,,FHRS,5
173799,Red Lonning,Whitehaven,Cumbria,,Whitehaven Golf Club,Restaurant/Cafe/Canteen,1,5,,229835,5,,54.54818100000000,PI/000012775,058,envhealth@copeland.gov.uk,Copeland,http://www.copeland.gov.uk,-3.56027700000000,CA28 8UD,2013-10-25,fhrs_5_en-GB,5,,FHRS,0
173800,Recreation Ground,Coach Road,Whitehaven,Cumbria,Whitehaven RLFC,Pub/bar/nightclub,7843,5,,229715,10,,54.54012800000000,PI/000004701,058,envhealth@copeland.gov.uk,Copeland,http://www.copeland.gov.uk,-3.58649500000000,CA28 9DD,2013-04-19,fhrs_3_en-GB,3,,FHRS,10
173801,Richmond Terrace,Whitehaven,Cumbria,,Whitehaven RUFC,Pub/bar/nightclub,7843,5,,229651,5,,54.54486300000000,PI/000033079,058,envhealth@copeland.gov.uk,Copeland,http://www.copeland.gov.uk,-3.58940000000000,CA28 7QR,2011-07-22,fhrs_5_en-GB,5,,FHRS,5
173802,80 Lowther Street,Whitehaven,Cumbria,,Whitehaven Rugby League Supporters C,Pub/bar/nightclub,7843,5,,229724,5,,54.54693600000000,PI/000003969,058,envhealth@copeland.gov.uk,Copeland,http://www.copeland.gov.uk,-3.58550700000000,CA28 7RB,2011-07-21,fhrs_5_en-GB,5,,FHRS,5
173803,Cleator Moor Road,Whitehaven,Cumbria,,Whitehaven School,School/college/university,7845,5,,230284,5,,54.53918000000000,PI/000012967,058,envhealth@copeland.gov.uk,Copeland,http://www.copeland.gov.uk,-3.55846500000000,CA28 8TY,2013-02-26,fhrs_5_en-GB,5,,FHRS,5
173804,Market Hall,Market Place,Whitehaven,,Whitehaven Youth Trust,Restaurant/Cafe/Canteen,1,5,,230223,5,,54.54752400000000,PI/000006469,058,envhealth@copeland.gov.uk,Copeland,http://www.copeland.gov.uk,-3.59139000000000,CA28 7JG,2013-03-13,fhrs_5_en-GB,5,,FHRS,0
173805,Waberthwaite,Cumbria,,,Whitrow Farm,Hotel/bed & breakfast/guest house,7842,0,,229863,0,,54.33330000000000,PI/000032796,058,envhealth@copeland.gov.uk,Copeland,http://www.copeland.gov.uk,-3.36876900000000,LA19 5YN,2014-11-24,fhrs_5_en-GB,5,,FHRS,0
173806,The Whittington Cat,21 Lowther Street,Whitehaven,Cumbria,Whittington Cat,Pub/bar/nightclub,7843,5,,621055,5,,54.54785400000000,PI/000035236,058,envhealth@copeland.gov.uk,Copeland,http://www.copeland.gov.uk,-3.58810900000000,CA28 7DG,2014-03-25,fhrs_4_en-GB,4,,FHRS,10
173807,23 Market Place,Whitehaven,Cumbria,,Wils Hambling,Manufacturers/packers,7839,5,,230172,5,,54.54688200000000,PI/000003918,058,envhealth@copeland.gov.uk,Copeland,http://www.copeland.gov.uk,-3.59094700000000,CA28 7JB,2014-02-07,fhrs_5_en-GB,5,,FHRS,0
173808,80 High Street,Cleator Moor,Cumbria,,Wilson Willis Ltd,Manufacturers/packers,7839,10,,229727,10,,54.52207400000000,PI/000021645,058,envhealth@copeland.gov.uk,Copeland,http://www.copeland.gov.uk,-3.51770300000000,CA25 5BL,2013-08-29,fhrs_3_en-GB,3,,FHRS,10
173809,29 Main Street,Egremont,Cumbria,,Wilsons Butchers,Manufacturers/packers,7839,5,,230153,5,,54.48304300000000,PI/000019965,058,envhealth@copeland.gov.uk,Copeland,http://www.copeland.gov.uk,-3.52806500000000,CA22 2DR,2014-09-08,fhrs_5_en-GB,5,,FHRS,5
173810,Gosforth Road,Seascale,Cumbria,,Windscale Club,Pub/bar/nightclub,7843,5,,230184,5,,54.39778700000000,PI/000016348,058,envhealth@copeland.gov.uk,Copeland,http://www.copeland.gov.uk,-3.47718700000000,CA20 1PJ,2012-10-30,fhrs_5_en-GB,5,,FHRS,5
173811,65 Main Street,Egremont,Cumbria,,Wonder Kitchen,Takeaway/sandwich shop,7844,10,,229845,5,,54.48309800000000,PI/000019943,058,envhealth@copeland.gov.uk,Copeland,http://www.copeland.gov.uk,-3.52870000000000,CA22 2DB,2013-09-30,fhrs_3_en-GB,3,,FHRS,10
173812,Woodend House,Woodend,Egremont,Cumbria,Woodend Cookery,Other catering premises,7841,5,,229650,5,,54.50141600000000,PI/000018915,058,envhealth@copeland.gov.uk,Copeland,http://www.copeland.gov.uk,-3.53146900000000,CA22 2TA,2014-07-24,fhrs_5_en-GB,5,,FHRS,5
173813,92-93 Scotch Street,Whitehaven,Cumbria,,Woodend Stores,Retailers - other,4613,5,,230020,5,,54.54863000000000,PI/000005539,058,envhealth@copeland.gov.uk,Copeland,http://www.copeland.gov.uk,-3.58450600000000,CA28 7NS,2014-07-07,fhrs_5_en-GB,5,,FHRS,0
173814,News Agent,Woodhouse Road,Whitehaven,Cumbria,Woodhouse Premier Store,Retailers - other,4613,10,,229820,10,,54.53118800000000,PI/000033627,058,envhealth@copeland.gov.uk,Copeland,http://www.copeland.gov.uk,-3.59103200000000,CA28 9LJ,2013-02-22,fhrs_3_en-GB,3,,FHRS,10
173815,The Wasdale Craft Shop,Santon Bridge,Cumbria,,Woodlands Tea Rooms,Restaurant/Cafe/Canteen,1,5,,230008,0,,54.40227200000000,PI/000033145,058,envhealth@copeland.gov.uk,Copeland,http://www.copeland.gov.uk,-3.36970900000000,CA19 1UY,2014-01-08,fhrs_5_en-GB,5,,FHRS,0
173816,The Woolpack Inn,Boot,Cumbria,,Woolpack Inn,Hotel/bed & breakfast/guest house,7842,5,,229856,5,,54.39800800000000,PI/000027617,058,envhealth@copeland.gov.uk,Copeland,http://www.copeland.gov.uk,-3.24823200000000,CA19 1TH,2013-01-16,fhrs_4_en-GB,4,,FHRS,10
173817,Working Mens Club,2-6 St Georges Terrace,Millom,Cumbria,Workies and Reflections,Pub/bar/nightclub,7843,5,,229949,10,,54.20965500000000,PI/000033055,058,envhealth@copeland.gov.uk,Copeland,http://www.copeland.gov.uk,-3.26917800000000,LA18 4DB,2012-09-06,fhrs_3_en-GB,3,,FHRS,10
173818,Ennerdale Road,Cleator Moor,Cumbria,,Wright Start Nursery,Hospitals/Childcare/Caring Premises,5,0,,229901,0,,54.52002500000000,PI/000023736,058,envhealth@copeland.gov.uk,Copeland,http://www.copeland.gov.uk,-3.51259000000000,CA25 5LG,2014-11-28,fhrs_5_en-GB,5,,FHRS,0
173819,Wyndham Manor Residential Care Home,Wyndham Street,Cleator Moor,Cumbria,Wyndham Manor Care Home,Hospitals/Childcare/Caring Premises,5,0,,293207,0,,54.52177300000000,PI/000034720,058,envhealth@copeland.gov.uk,Copeland,http://www.copeland.gov.uk,-3.51515800000000,CA25 5AN,2014-02-14,fhrs_5_en-GB,5,,FHRS,0
173820,Wastwater Youth Hostel,Wasdale Hall,Wasdale,Cumbria,Youth Hostels Association,Other catering premises,7841,0,,230190,0,,54.42457300000000,PI/000027555,058,envhealth@copeland.gov.uk,Copeland,http://www.copeland.gov.uk,-3.34955200000000,CA20 1ET,2014-02-06,fhrs_5_en-GB,5,,FHRS,0
173821,Zest Restaurant,Low Road,Whitehaven,Cumbria,Zest,Restaurant/Cafe/Canteen,1,0,,230043,0,,54.53813400000000,PI/000003619,058,envhealth@copeland.gov.uk,Copeland,http://www.copeland.gov.uk,-3.58705200000000,CA28 9HS,2014-01-30,fhrs_5_en-GB,5,,FHRS,5
173822,8 West Strand,Whitehaven,Cumbria,,Zest Harbourside,Restaurant/Cafe/Canteen,1,0,,230294,5,,54.54793800000000,PI/000033511,058,envhealth@copeland.gov.uk,Copeland,http://www.copeland.gov.uk,-3.59197800000000,CA28 7LR,2014-01-30,fhrs_5_en-GB,5,,FHRS,5
