,addressline1,addressline2,addressline3,addressline4,businessname,businesstype,businesstypeid,confidenceinmanagement,extractdate,fhrsid,hygiene,itemcount,latitude,localauthoritybusinessid,localauthoritycode,localauthorityemailaddress,localauthorityname,localauthoritywebsite,longitude,postcode,ratingdate,ratingkey,ratingvalue,returncode,schemetype,structural
46021,,,,,1st Class Catering,Mobile caterer,7846,,,33888,,,,10/00073/COMM,063,enquiries@bolsover.gov.uk,Bolsover,http://www.bolsover.gov.uk/,,,2013-03-06,fhrs_exempt_en-GB,Exempt,,FHRS,
46022,3 Church Street,South Normanton,Alfreton,,A E Bacon And Son,Manufacturers/packers,7839,5,,8580,5,,53.10799500000000,03060/0003/0/000,063,enquiries@bolsover.gov.uk,Bolsover,http://www.bolsover.gov.uk/,-1.33906700000000,DE55 2BT,2014-08-20,fhrs_4_en-GB,4,,FHRS,10
46023,,,,,A Piece Of Cake,Other catering premises,7841,0,,340051,0,,,12/00015/COMM,063,enquiries@bolsover.gov.uk,Bolsover,http://www.bolsover.gov.uk/,,,2012-02-14,fhrs_5_en-GB,5,,FHRS,0
46024,4 Station Road,Clowne,Chesterfield,,AC And HC Steel Milk And Dairy Produce,Distributors/Transporters,7,0,,46532,0,,53.27608600000000,11/00071/COMM,063,enquiries@bolsover.gov.uk,Bolsover,http://www.bolsover.gov.uk/,-1.26178100000000,S43 4RW,2013-02-07,fhrs_5_en-GB,5,,FHRS,0
46025,Mansfield Road,Hillstown,Chesterfield,Derbyshire,Ace Of Clubs And Bolsover Grill,Pub/bar/nightclub,7843,0,,18007,0,,53.22200700000000,06/00058/COMM,063,enquiries@bolsover.gov.uk,Bolsover,http://www.bolsover.gov.uk/,-1.28373900000000,S44 6LE,2013-06-26,fhrs_5_en-GB,5,,FHRS,0
46026,,,,,AFamilyAFayre,Other catering premises,7841,0,,544929,0,,,13/00011/COMM,063,enquiries@bolsover.gov.uk,Bolsover,http://www.bolsover.gov.uk/,,,2013-04-15,fhrs_5_en-GB,5,,FHRS,0
46027,Agars Soft Drinks,Woodthorpe Road,Shuttlewood,Chesterfield,Agars Soft Drinks Ltd,Distributors/Transporters,7,,,62269,,,53.25150300000000,13740/0010/2/000,063,enquiries@bolsover.gov.uk,Bolsover,http://www.bolsover.gov.uk/,-1.30081300000000,S44 6FG,2009-04-15,fhrs_exempt_en-GB,Exempt,,FHRS,
46028,Mobile AJA Litebites 2C Greenhill L,,,,AJA Litebites,Mobile caterer,7846,5,,732298,5,,,15/00003/MOBILE,063,enquiries@bolsover.gov.uk,Bolsover,http://www.bolsover.gov.uk/,,,2015-01-27,fhrs_5_en-GB,5,,FHRS,5
46029,Recreation Road,Shirebrook,Mansfield,,Alder House,Other catering premises,7841,0,,44909,0,,53.20919100000000,10890/4002/2/000,063,enquiries@bolsover.gov.uk,Bolsover,http://www.bolsover.gov.uk/,-1.22507800000000,NG20 8QB,2009-04-09,fhrs_5_en-GB,5,,FHRS,5
46030,8 Mill Green Way,Clowne,Chesterfield,,Aldi,Retailers - supermarkets/hypermarkets,7840,0,,25432,0,,53.27557000000000,08/00084/COMM,063,enquiries@bolsover.gov.uk,Bolsover,http://www.bolsover.gov.uk/,-1.26406900000000,S43 4LJ,2011-12-14,fhrs_5_en-GB,5,,FHRS,0
46031,Aldi Stores Ltd,Carter Lane,Shirebrook,Mansfield,Aldi,Retailers - supermarkets/hypermarkets,7840,0,,6443,0,,53.20387700000000,02200/2002/2/000,063,enquiries@bolsover.gov.uk,Bolsover,http://www.bolsover.gov.uk/,-1.21670000000000,NG20 8PE,2011-12-14,fhrs_5_en-GB,5,,FHRS,0
46032,1 High View Road,South Normanton,Alfreton,,Alliance Healthcare,Restaurant/Cafe/Canteen,1,5,,29264,5,,53.11028300000000,09/00067/COMM,063,enquiries@bolsover.gov.uk,Bolsover,http://www.bolsover.gov.uk/,-1.32389900000000,DE55 2DT,2013-06-20,fhrs_5_en-GB,5,,FHRS,5
46033,Amberleigh Manor,Primrose Hill,Blackwell,Alfreton,Amberleigh Care Home Ltd,Hospitals/Childcare/Caring Premises,5,10,,32581,5,,53.11968500000000,09810/2009/2/000,063,enquiries@bolsover.gov.uk,Bolsover,http://www.bolsover.gov.uk/,-1.34972100000000,DE55 5JF,2015-01-14,fhrs_4_en-GB,4,,FHRS,5
46034,41 Market Street,South Normanton,Alfreton,,Anchor Fish And Kebab Shop,Takeaway/sandwich shop,7844,0,,24319,0,,53.10188200000000,07600/0041/0/000,063,enquiries@bolsover.gov.uk,Bolsover,http://www.bolsover.gov.uk/,-1.34395500000000,DE55 2AB,2013-06-20,fhrs_5_en-GB,5,,FHRS,0
46035,Market Place,Bolsover,Chesterfield,Derbyshire,Anchor Inn,Pub/bar/nightclub,7843,10,,24280,10,,53.22929300000000,07560/2002/2/000,063,enquiries@bolsover.gov.uk,Bolsover,http://www.bolsover.gov.uk/,-1.29209600000000,S44 6PN,2011-05-24,fhrs_4_en-GB,4,,FHRS,0
46036,Mill Street,Clowne,Chesterfield,Derbyshire,Anchor Inn,Pub/bar/nightclub,7843,5,,34920,5,,53.27441700000000,10/00169/COMM,063,enquiries@bolsover.gov.uk,Bolsover,http://www.bolsover.gov.uk/,-1.26365400000000,S43 4JN,2012-03-26,fhrs_5_en-GB,5,,FHRS,5
46037,Mansfield Road,Pinxton,Nottingham,,Andrea Mattia Concessions - Hotdog And Doughnuts,Mobile caterer,7846,10,,21300,0,,53.10676900000000,07/00007/COMM,063,enquiries@bolsover.gov.uk,Bolsover,http://www.bolsover.gov.uk/,-1.31000300000000,DE55 2JW,2014-03-24,fhrs_4_en-GB,4,,FHRS,5
46038,Andrea Mattia Concessions Panini An,Mansfield Road,Pinxton,Nottingham,Andrea Mattia Concessions Panini/Baguettes,Mobile caterer,7846,10,,21267,5,,53.10676900000000,07/00004/COMM,063,enquiries@bolsover.gov.uk,Bolsover,http://www.bolsover.gov.uk/,-1.31000300000000,DE55 2JW,2014-03-25,fhrs_3_en-GB,3,,FHRS,10
46039,Mansfield Road,Clowne,Chesterfield,,Angel Inn,Pub/bar/nightclub,7843,5,,34286,0,,53.27256900000000,10/00105/COMM,063,enquiries@bolsover.gov.uk,Bolsover,http://www.bolsover.gov.uk/,-1.26872400000000,S43 4JX,2013-06-20,fhrs_5_en-GB,5,,FHRS,5
46040,,,,,Angelpie Cupcakery,Other catering premises,7841,5,,46091,0,,,11/00046/COMM,063,enquiries@bolsover.gov.uk,Bolsover,http://www.bolsover.gov.uk/,,,2014-05-22,fhrs_5_en-GB,5,,FHRS,0
46041,223 Station Road,Shirebrook,Mansfield,,Angel's Heavenly Celebrations,Other catering premises,7841,5,,21785,5,,53.20404300000000,07/00068/COMM,063,enquiries@bolsover.gov.uk,Bolsover,http://www.bolsover.gov.uk/,-1.21186100000000,NG20 8AF,2009-03-05,fhrs_5_en-GB,5,,FHRS,5
46042,Rotherham Road,Pleasley,Mansfield,,Anthony Bek Community Primary School,School/college/university,7845,0,,42121,0,,53.17761500000000,10400/2015/2/000,063,enquiries@bolsover.gov.uk,Bolsover,http://www.bolsover.gov.uk/,-1.25373100000000,NG19 7PG,2014-03-10,fhrs_5_en-GB,5,,FHRS,0
46043,High Street,Barlborough,Chesterfield,,Apollo Inn,Pub/bar/nightclub,7843,0,,577026,0,,53.29014000000000,13/00064/COMM,063,enquiries@bolsover.gov.uk,Bolsover,http://www.bolsover.gov.uk/,-1.28909600000000,S43 4EY,2013-06-19,fhrs_5_en-GB,5,,FHRS,0
46044,Chesterfield Road,New Houghton,Mansfield,,Appleby Guest House,Hotel/bed & breakfast/guest house,7842,10,,7161,5,,53.17977700000000,02720/2000/2/000,063,enquiries@bolsover.gov.uk,Bolsover,http://www.bolsover.gov.uk/,-1.25740400000000,NG19 7PF,2009-07-21,fhrs_4_en-GB,4,,FHRS,5
46045,Ashlea Green,Clowne,Chesterfield,,Ashlea Green Post Office And General Store,Retailers - other,4613,10,,1748,5,,53.27871000000000,00390/2000/2/000,063,enquiries@bolsover.gov.uk,Bolsover,http://www.bolsover.gov.uk/,-1.24871800000000,S43 4NS,2011-03-22,fhrs_4_en-GB,4,,FHRS,0
46046,Ashlea Green,Clowne,Chesterfield,,Ashlea Social Club,Pub/bar/nightclub,7843,5,,1750,5,,53.27871000000000,00390/2003/2/000,063,enquiries@bolsover.gov.uk,Bolsover,http://www.bolsover.gov.uk/,-1.24871800000000,S43 4NS,2010-07-30,fhrs_5_en-GB,5,,FHRS,5
46047,53 Main Street,Shirebrook,Mansfield,,Ashleys,Manufacturers/packers,7839,5,,24049,5,,53.20236400000000,07270/0053/0/000,063,enquiries@bolsover.gov.uk,Bolsover,http://www.bolsover.gov.uk/,-1.21487100000000,NG20 8AN,2014-09-26,fhrs_5_en-GB,5,,FHRS,5
46048,7 Welbeck Street,Whitwell,Worksop,,Ashleys,Manufacturers/packers,7839,5,,58530,5,,53.28437400000000,13000/0007/0/000,063,enquiries@bolsover.gov.uk,Bolsover,http://www.bolsover.gov.uk/,-1.20309500000000,S80 4TE,2014-02-20,fhrs_4_en-GB,4,,FHRS,10
46049,The Herb Garden,Chesterfield Road,Hardstoft,Chesterfield,Auntie Jackie's Tea Rooms,Restaurant/Cafe/Canteen,1,0,,340046,0,,53.16223700000000,11/00089/COMM,063,enquiries@bolsover.gov.uk,Bolsover,http://www.bolsover.gov.uk/,-1.34433700000000,S45 8AE,2012-03-21,fhrs_5_en-GB,5,,FHRS,0
46050,Autumns Grange Care Home,Linden Road,Creswell,Worksop,Autumn Grange Care Home,Hospitals/Childcare/Caring Premises,5,10,,45636,0,,53.26819500000000,11/00018/COMM,063,enquiries@bolsover.gov.uk,Bolsover,http://www.bolsover.gov.uk/,-1.21955900000000,S80 4JT,2014-01-17,fhrs_4_en-GB,4,,FHRS,10
46051,,,,,Babycakes,Other catering premises,7841,5,,46060,5,,,11/00044/COMM,063,enquiries@bolsover.gov.uk,Bolsover,http://www.bolsover.gov.uk/,,,2011-06-01,fhrs_5_en-GB,5,,FHRS,5
46052,8 Main Street,Shirebrook,Mansfield,,Balti Nights,Takeaway/sandwich shop,7844,10,,24041,15,,53.20255200000000,07270/0008/0/000,063,enquiries@bolsover.gov.uk,Bolsover,http://www.bolsover.gov.uk/,-1.21479300000000,NG20 8AW,2014-08-13,fhrs_2_en-GB,2,,FHRS,15
46053,10 Market Place,Shirebrook,Mansfield,,Bargain Booze And Cheapest Cigs,Retailers - other,4613,,,10069,,,53.20306700000000,04/00117/COMM,063,enquiries@bolsover.gov.uk,Bolsover,http://www.bolsover.gov.uk/,-1.21244800000000,NG20 8AA,2011-01-27,fhrs_exempt_en-GB,Exempt,,FHRS,
46054,Church Street,Barlborough,Chesterfield,,Barlborough Church Institute,Other catering premises,7841,,,7341,,,53.28915300000000,02980/2007/2/000,063,enquiries@bolsover.gov.uk,Bolsover,http://www.bolsover.gov.uk/,-1.28633700000000,S43 4EP,2012-03-15,fhrs_exempt_en-GB,Exempt,,FHRS,
46055,Ward Lane,Barlborough,Chesterfield,,Barlborough Hall School,School/college/university,7845,5,,2134,0,,53.30162200000000,00670/2001/2/000,063,enquiries@bolsover.gov.uk,Bolsover,http://www.bolsover.gov.uk/,-1.28218300000000,S43 4TJ,2013-09-12,fhrs_5_en-GB,5,,FHRS,0
46056,New Road,Barlborough,Chesterfield,Derbyshire,Barlborough Methodist Church,Other catering premises,7841,5,,27946,5,,53.28918000000000,08360/2000/2/000,063,enquiries@bolsover.gov.uk,Bolsover,http://www.bolsover.gov.uk/,-1.28794200000000,S43 4HY,2010-02-17,fhrs_5_en-GB,5,,FHRS,5
46057,California Lane,Barlborough,Chesterfield,Derbyshire,Barlborough Miners Welfare,Pub/bar/nightclub,7843,5,,6280,5,,53.29049200000000,02080/0000/2/000,063,enquiries@bolsover.gov.uk,Bolsover,http://www.bolsover.gov.uk/,-1.29087600000000,S43 4EZ,2010-08-16,fhrs_5_en-GB,5,,FHRS,5
46058,2 Lindrick Way,Barlborough,Chesterfield,Derbyshire,Barlborough NHS Treatment Centre,Hospitals/Childcare/Caring Premises,5,0,,197608,0,,53.28151400000000,11/00092/COMM,063,enquiries@bolsover.gov.uk,Bolsover,http://www.bolsover.gov.uk/,-1.28222000000000,S43 4XE,2014-10-28,fhrs_5_en-GB,5,,FHRS,0
46059,15 High Street,Barlborough,Chesterfield,,Barlborough Post Office,Retailers - other,4613,5,,17317,5,,53.29013900000000,05840/0015/2/000,063,enquiries@bolsover.gov.uk,Bolsover,http://www.bolsover.gov.uk/,-1.28909600000000,S43 4EY,2011-08-03,fhrs_5_en-GB,5,,FHRS,5
46060,High Street,Barlborough,Chesterfield,,Barlborough Primary School,School/college/university,7845,0,,17323,0,,53.29058400000000,05840/2003/2/000,063,enquiries@bolsover.gov.uk,Bolsover,http://www.bolsover.gov.uk/,-1.28815900000000,S43 4ET,2013-03-01,fhrs_5_en-GB,5,,FHRS,0
46061,4 Station Road,Bolsover,Chesterfield,,Beans Coffee Shop Gallery,Restaurant/Cafe/Canteen,1,0,,35155,0,,53.23064000000000,10/00197/COMM,063,enquiries@bolsover.gov.uk,Bolsover,http://www.bolsover.gov.uk/,-1.29328800000000,S44 6BE,2013-02-14,fhrs_5_en-GB,5,,FHRS,0
46062,7 - 7A High Street,Clowne,Chesterfield,,Becky Candy Salons,Retailers - other,4613,0,,455762,0,,53.27331900000000,12/00053/COMM,063,enquiries@bolsover.gov.uk,Bolsover,http://www.bolsover.gov.uk/,-1.26488700000000,S43 4JT,2012-08-14,fhrs_5_en-GB,5,,FHRS,0
46063,31 Market Place,Bolsover,Chesterfield,,Bella Blu,Restaurant/Cafe/Canteen,1,0,,14473,5,,53.22929300000000,05/00007/COMM,063,enquiries@bolsover.gov.uk,Bolsover,http://www.bolsover.gov.uk/,-1.29209600000000,S44 6PN,2013-12-18,fhrs_5_en-GB,5,,FHRS,0
46064,Prince Of Wales,Sheffield Road,Barlborough,Chesterfield,Bella Donna Restaurant,Restaurant/Cafe/Canteen,1,5,,46001,5,,53.29333800000000,11/00041/COMM,063,enquiries@bolsover.gov.uk,Bolsover,http://www.bolsover.gov.uk/,-1.31487800000000,S21 3UA,2014-10-16,fhrs_5_en-GB,5,,FHRS,5
46065,,,,,Belly Busters,Mobile caterer,7846,0,,34803,0,,,10/00156/COMM,063,enquiries@bolsover.gov.uk,Bolsover,http://www.bolsover.gov.uk/,,,2013-09-04,fhrs_5_en-GB,5,,FHRS,0
46066,18 Main Street,Carr Vale,Bolsover,Chesterfield,Bengal Regency,Takeaway/sandwich shop,7844,5,,17846,0,,53.22483500000000,06/00039/COMM,063,enquiries@bolsover.gov.uk,Bolsover,http://www.bolsover.gov.uk/,-1.30271500000000,S44 6JF,2014-03-27,fhrs_5_en-GB,5,,FHRS,5
46067,255 Alfreton Road,Blackwell,Alfreton,,Best One,Retailers - other,4613,5,,25413,0,,53.11984000000000,08/00081/COMM,063,enquiries@bolsover.gov.uk,Bolsover,http://www.bolsover.gov.uk/,-1.35671200000000,DE55 5JN,2010-08-20,fhrs_5_en-GB,5,,FHRS,0
46068,Sheffield Road,Barlborough,Chesterfield,Derbyshire,Blacksmiths Arms,Pub/bar/nightclub,7843,5,,23989,5,,53.29333800000000,07200/2002/2/000,063,enquiries@bolsover.gov.uk,Bolsover,http://www.bolsover.gov.uk/,-1.31487800000000,S21 3UA,2011-12-05,fhrs_4_en-GB,4,,FHRS,10
46069,Gloves Lane,Blackwell,Alfreton,,Blackwell Care Home,Hospitals/Childcare/Caring Premises,5,0,,25734,0,,53.12119500000000,08/00124/COMM,063,enquiries@bolsover.gov.uk,Bolsover,http://www.bolsover.gov.uk/,-1.35616800000000,DE55 5JJ,2014-05-08,fhrs_5_en-GB,5,,FHRS,0
46070,Primrose Hill,Blackwell,Alfreton,,Blackwell Miners Welfare Institute,Pub/bar/nightclub,7843,5,,32579,0,,53.11968500000000,09810/2003/2/000,063,enquiries@bolsover.gov.uk,Bolsover,http://www.bolsover.gov.uk/,-1.34972100000000,DE55 5JF,2012-03-02,fhrs_5_en-GB,5,,FHRS,5
46071,Primrose Hill,Blackwell,Alfreton,,Blackwell Primary School,School/college/university,7845,5,,32580,5,,53.12081100000000,09810/2005/2/000,063,enquiries@bolsover.gov.uk,Bolsover,http://www.bolsover.gov.uk/,-1.35169100000000,DE55 5JG,2014-11-04,fhrs_5_en-GB,5,,FHRS,5
46072,Blackwell Community Centre,Woburn Close,Blackwell,Alfreton,Blackwell Residents Action Group (Blackwell Com Centre),Other catering premises,7841,5,,35047,0,,53.11964000000000,10/00181/COMM,063,enquiries@bolsover.gov.uk,Bolsover,http://www.bolsover.gov.uk/,-1.35291900000000,DE55 5HH,2014-11-04,fhrs_5_en-GB,5,,FHRS,5
46073,Blackwell Community Centre,Woburn Close,Blackwell,Alfreton,Blackwell Toddlers Group,Hospitals/Childcare/Caring Premises,5,5,,35004,0,,53.11964000000000,10/00177/COMM,063,enquiries@bolsover.gov.uk,Bolsover,http://www.bolsover.gov.uk/,-1.35291900000000,DE55 5HH,2010-09-15,fhrs_5_en-GB,5,,FHRS,0
46074,2 Church Street,Clowne,Chesterfield,,Blooming Lovely,Retailers - other,4613,5,,14456,0,,53.27351100000000,05/00004/COMM,063,enquiries@bolsover.gov.uk,Bolsover,http://www.bolsover.gov.uk/,-1.26251500000000,S43 4JS,2009-03-24,fhrs_5_en-GB,5,,FHRS,5
46075,High Street,Bolsover,Chesterfield,,Bolsover Adult Community Education Centre,Other catering premises,7841,5,,17331,5,,53.22821100000000,05850/2010/2/000,063,enquiries@bolsover.gov.uk,Bolsover,http://www.bolsover.gov.uk/,-1.29305800000000,S44 6HF,2008-10-29,fhrs_5_en-GB,5,,FHRS,5
46076,Castle Street,Bolsover,Chesterfield,,Bolsover Castle,Restaurant/Cafe/Canteen,1,10,,6508,10,,53.22981200000000,02250/2006/2/000,063,enquiries@bolsover.gov.uk,Bolsover,http://www.bolsover.gov.uk/,-1.29463400000000,S44 6PR,2013-10-28,fhrs_3_en-GB,3,,FHRS,10
46077,Horsehead Lane,Bolsover,Chesterfield,Derbyshire,Bolsover Church Of England Junior School,School/college/university,7845,10,,17640,5,,53.23035600000000,06/00017/COMM,063,enquiries@bolsover.gov.uk,Bolsover,http://www.bolsover.gov.uk/,-1.28034900000000,S44 6XH,2011-09-12,fhrs_4_en-GB,4,,FHRS,5
46078,10 Market Place,Bolsover,Chesterfield,,Bolsover Express,Restaurant/Cafe/Canteen,1,,,340056,,,53.22961400000000,12/00029/COMM,063,enquiries@bolsover.gov.uk,Bolsover,http://www.bolsover.gov.uk/,-1.29161200000000,S44 6PH,2014-11-25,fhrs_3_en-GB,3,,FHRS,
46079,10 Town End,Bolsover,Chesterfield,,Bolsover Fisheries,Takeaway/sandwich shop,7844,5,,21439,5,,53.22919100000000,07/00023/COMM,063,enquiries@bolsover.gov.uk,Bolsover,http://www.bolsover.gov.uk/,-1.28998600000000,S44 6DT,2014-03-28,fhrs_5_en-GB,5,,FHRS,5
46080,3 Town End,Bolsover,Chesterfield,Derbyshire,Bolsover Fruit And Veg,Retailers - other,4613,5,,29924,5,,53.22919100000000,09/00126/COMM,063,enquiries@bolsover.gov.uk,Bolsover,http://www.bolsover.gov.uk/,-1.28998600000000,S44 6DT,2009-09-09,fhrs_5_en-GB,5,,FHRS,5
46081,Welbeck Road,Bolsover,Chesterfield,Derbyshire,Bolsover Infant And Nursery School,School/college/university,7845,0,,57878,0,,53.23031600000000,12960/2010/2/000,063,enquiries@bolsover.gov.uk,Bolsover,http://www.bolsover.gov.uk/,-1.28873900000000,S44 6DE,2014-09-10,fhrs_5_en-GB,5,,FHRS,5
46082,Welbeck Road,Bolsover,Chesterfield,,Bolsover Local Hospital,Hospitals/Childcare/Caring Premises,5,0,,57879,0,,53.23153700000000,12960/2016/2/000,063,enquiries@bolsover.gov.uk,Bolsover,http://www.bolsover.gov.uk/,-1.28253100000000,S44 6DH,2014-07-30,fhrs_5_en-GB,5,,FHRS,0
46083,Hill Top,Bolsover,Chesterfield,,Bolsover Methodist Church,Other catering premises,7841,,,20494,,,53.23562600000000,06050/2004/2/000,063,enquiries@bolsover.gov.uk,Bolsover,http://www.bolsover.gov.uk/,-1.29428400000000,S44 6NN,2008-07-24,fhrs_exempt_en-GB,Exempt,,FHRS,
46084,High Street Garage Services,High Street,Bolsover,Derbyshire,Bolsover Service Station,Retailers - other,4613,,,17330,,,53.22821100000000,05850/2000/2/000,063,enquiries@bolsover.gov.uk,Bolsover,http://www.bolsover.gov.uk/,-1.29305800000000,S44 6HF,2011-12-05,fhrs_exempt_en-GB,Exempt,,FHRS,
46085,Moor Lane,Bolsover,Chesterfield,,Bolsover Town Sports And Social Club,Pub/bar/nightclub,7843,10,,27714,5,,53.22814400000000,08170/2016/2/000,063,enquiries@bolsover.gov.uk,Bolsover,http://www.bolsover.gov.uk/,-1.28630300000000,S44 6EB,2010-06-25,fhrs_4_en-GB,4,,FHRS,5
46086,124 The Common,South Normanton,Alfreton,,Bombay,Takeaway/sandwich shop,7844,5,,726275,5,,53.10050500000000,14/00086/COMM,063,enquiries@bolsover.gov.uk,Bolsover,http://www.bolsover.gov.uk/,-1.33715100000000,DE55 2EP,2014-11-12,fhrs_5_en-GB,5,,FHRS,5
46087,Bondhay Lane,Whitwell Common,Worksop,,Bondhay Golf And Country Club,Pub/bar/nightclub,7843,5,,62762,5,,53.29158300000000,13886/2001/2/000,063,enquiries@bolsover.gov.uk,Bolsover,http://www.bolsover.gov.uk/,-1.23463000000000,S80 3EH,2014-08-26,fhrs_5_en-GB,5,,FHRS,5
46088,4 High Street,Whitwell,Worksop,,Boot And Shoe,Pub/bar/nightclub,7843,20,,711705,15,,53.28493500000000,14/00176/COMM,063,enquiries@bolsover.gov.uk,Bolsover,http://www.bolsover.gov.uk/,-1.20767400000000,S80 4QU,2014-05-21,fhrs_1_en-GB,1,,FHRS,15
46089,Alliance Pharmacy,Main Road,Langwith,Mansfield,Boots Pharmacy,Retailers - other,4613,,,28481,,,53.22764500000000,09/00003/COMM,063,enquiries@bolsover.gov.uk,Bolsover,http://www.bolsover.gov.uk/,-1.20859700000000,NG20 9BH,2009-01-20,fhrs_exempt_en-GB,Exempt,,FHRS,
46090,4 Mansfield Road,Bramley Vale,Chesterfield,,Bramley Vale Fish Bar,Takeaway/sandwich shop,7844,10,,619177,10,,53.19065200000000,13/00081/COMM,063,enquiries@bolsover.gov.uk,Bolsover,http://www.bolsover.gov.uk/,-1.30476600000000,S44 5PN,2013-12-06,fhrs_3_en-GB,3,,FHRS,10
46091,York Crescent,Bramley Vale,Chesterfield,,Bramley Vale Nursery,Hospitals/Childcare/Caring Premises,5,0,,25051,5,,53.18978600000000,08/00040/COMM,063,enquiries@bolsover.gov.uk,Bolsover,http://www.bolsover.gov.uk/,-1.30726400000000,S44 5PF,2009-01-04,fhrs_4_en-GB,4,,FHRS,10
46092,York Crescent,Bramley Vale,Chesterfield,Derbyshire,Bramley Vale Primary School,School/college/university,7845,0,,62608,0,,53.18978600000000,13830/0000/2/000,063,enquiries@bolsover.gov.uk,Bolsover,http://www.bolsover.gov.uk/,-1.30726400000000,S44 5PF,2014-11-27,fhrs_5_en-GB,5,,FHRS,0
46093,,,,,Bridge Snack Bar,Mobile caterer,7846,0,,24807,0,,,08/00015/MOBILE,063,enquiries@bolsover.gov.uk,Bolsover,http://www.bolsover.gov.uk/,,,2013-08-30,fhrs_5_en-GB,5,,FHRS,5
46094,Bridgehouse Stores,Sheffield Road,Barlborough,Chesterfield,Bridgehouse Garage,Retailers - other,4613,5,,25283,5,,53.29507800000000,08/00064/COMM,063,enquiries@bolsover.gov.uk,Bolsover,http://www.bolsover.gov.uk/,-1.30802300000000,S21 3WA,2014-11-05,fhrs_5_en-GB,5,,FHRS,5
46095,South Street,South Normanton,Alfreton,,Brigg Infant School,School/college/university,7845,5,,50314,5,,53.10555300000000,11200/0000/2/000,063,enquiries@bolsover.gov.uk,Bolsover,http://www.bolsover.gov.uk/,-1.33496700000000,DE55 2DA,2010-10-19,fhrs_5_en-GB,5,,FHRS,0
46096,Clowne Road,Shuttlewood,Chesterfield,Derbyshire,Brockley Primary And Nursery School,School/college/university,7845,0,,8763,0,,53.25338300000000,03260/0000/2/000,063,enquiries@bolsover.gov.uk,Bolsover,http://www.bolsover.gov.uk/,-1.29808400000000,S44 6AF,2014-09-17,fhrs_5_en-GB,5,,FHRS,0
46097,Burlington Avenue,Langwith Junction,Mansfield,Derbyshire,Brookfield Family Centre,Hospitals/Childcare/Caring Premises,5,5,,197610,0,,53.21229300000000,02000/2001/3/001,063,enquiries@bolsover.gov.uk,Bolsover,http://www.bolsover.gov.uk/,-1.21422600000000,NG20 9AD,2014-11-18,fhrs_5_en-GB,5,,FHRS,5
46098,Brookfield Junior School,Burlington Avenue,Langwith Junction,Mansfield,Brookfield Primary School,School/college/university,7845,0,,6155,5,,53.21229300000000,02000/2001/2/000,063,enquiries@bolsover.gov.uk,Bolsover,http://www.bolsover.gov.uk/,-1.21422600000000,NG20 9AD,2014-02-06,fhrs_5_en-GB,5,,FHRS,5
46099,Brookhill Road,Pinxton,Nottingham,,Brookhill Cafe,Restaurant/Cafe/Canteen,1,5,,5505,5,,53.08979200000000,01910/2036F/2/000,063,enquiries@bolsover.gov.uk,Bolsover,http://www.bolsover.gov.uk/,-1.31373800000000,NG16 6NT,2013-11-25,fhrs_5_en-GB,5,,FHRS,5
46100,,,,,Burger Grill,Mobile caterer,7846,0,,28511,5,,,09/00004/MOBILE,063,enquiries@bolsover.gov.uk,Bolsover,http://www.bolsover.gov.uk/,,,2014-11-19,fhrs_5_en-GB,5,,FHRS,0
46101,Kiosk 2,The Food Court,Mansfield Road,Pinxton,Burger King,Restaurant/Cafe/Canteen,1,0,,17738,0,,53.10676900000000,06/00026/COMM,063,enquiries@bolsover.gov.uk,Bolsover,http://www.bolsover.gov.uk/,-1.31000300000000,DE55 2JW,2014-03-25,fhrs_5_en-GB,5,,FHRS,0
46102,Station Road,Shirebrook,Mansfield,,Burrows Meat Farm Shop,Manufacturers/packers,7839,5,,569826,5,,,13/00059/COMM,063,enquiries@bolsover.gov.uk,Bolsover,http://www.bolsover.gov.uk/,,NG20 8FP,2014-04-24,fhrs_5_en-GB,5,,FHRS,0
46103,23 Hilcote Street,South Normanton,Alfreton,,Busy Bee Day Nursery,Hospitals/Childcare/Caring Premises,5,0,,17438,0,,53.10827100000000,05960/0023/0/000,063,enquiries@bolsover.gov.uk,Bolsover,http://www.bolsover.gov.uk/,-1.34350000000000,DE55 2BQ,2014-03-21,fhrs_5_en-GB,5,,FHRS,5
46104,74 - 76 Recreation Road,Shirebrook,Mansfield,,C And D Supplies,Retailers - other,4613,5,,39932,5,,53.20946900000000,10050/0074/0/000,063,enquiries@bolsover.gov.uk,Bolsover,http://www.bolsover.gov.uk/,-1.22230300000000,NG20 8JY,2013-08-21,fhrs_5_en-GB,5,,FHRS,0
46105,Unit 60,East Midlands Designer Outlet,Mansfield Road,Pinxton,Cadbury Factory Outlet,Retailers - other,4613,5,,9490,5,,53.10676900000000,04/00020/COMM,063,enquiries@bolsover.gov.uk,Bolsover,http://www.bolsover.gov.uk/,-1.31000300000000,DE55 2JW,2009-10-28,fhrs_5_en-GB,5,,FHRS,0
46106,Unit 12,East Midlands Designer Outlet,Mansfield Road,Pinxton,Cafe Thorntons,Restaurant/Cafe/Canteen,1,5,,24185,5,,53.10676900000000,07485/0012/0/000,063,enquiries@bolsover.gov.uk,Bolsover,http://www.bolsover.gov.uk/,-1.31000300000000,DE55 2JW,2013-09-04,fhrs_5_en-GB,5,,FHRS,0
46107,,,,,Cake De Licious,Other catering premises,7841,0,,197607,5,,,11/00085/COMM,063,enquiries@bolsover.gov.uk,Bolsover,http://www.bolsover.gov.uk/,,,2012-01-13,fhrs_5_en-GB,5,,FHRS,5
46108,,,,,Cake My Day,Other catering premises,7841,0,,557736,0,,,13/00034/COMM,063,enquiries@bolsover.gov.uk,Bolsover,http://www.bolsover.gov.uk/,,,2013-06-03,fhrs_5_en-GB,5,,FHRS,0
46109,,,,,Cake The Biscuit,Other catering premises,7841,0,,35224,0,,,10/00207/COMM,063,enquiries@bolsover.gov.uk,Bolsover,http://www.bolsover.gov.uk/,,,2012-11-06,fhrs_5_en-GB,5,,FHRS,5
46110,Lees Lane,South Normanton,Alfreton,Derbyshire,Carnfield Club,Pub/bar/nightclub,7843,5,,21117,0,,53.10477800000000,06840/2001/2/000,063,enquiries@bolsover.gov.uk,Bolsover,http://www.bolsover.gov.uk/,-1.34416500000000,DE55 2AD,2010-12-15,fhrs_5_en-GB,5,,FHRS,0
46111,Former Teddys Restaurant,Carnfield Hall,Carnfield Hill,South Normanton,Carnfield Hall Tea Rooms,Restaurant/Cafe/Canteen,1,0,,516755,0,,53.09983400000000,13/00002/COMM,063,enquiries@bolsover.gov.uk,Bolsover,http://www.bolsover.gov.uk/,-1.36573200000000,DE55 2BE,2013-02-28,fhrs_5_en-GB,5,,FHRS,0
46112,Day Nursery Carter Lane Community C,Carter Lane,Shirebrook,Mansfield,Carter Lane Day Nursery,Hospitals/Childcare/Caring Premises,5,5,,6445,5,,53.20387700000000,02200/2004/3/002,063,enquiries@bolsover.gov.uk,Bolsover,http://www.bolsover.gov.uk/,-1.21670000000000,NG20 8PE,2014-01-23,fhrs_4_en-GB,4,,FHRS,10
46113,Carter Lane,Shirebrook,Mansfield,,Carter Lane Motor Services,Restaurant/Cafe/Canteen,1,5,,6442,5,,53.20413200000000,02200/2001/2/000,063,enquiries@bolsover.gov.uk,Bolsover,http://www.bolsover.gov.uk/,-1.21307200000000,NG20 8AH,2008-05-28,fhrs_5_en-GB,5,,FHRS,5
46114,Carter Lane,Shirebrook,Mansfield,,Carter Lane Working Mens Club,Pub/bar/nightclub,7843,10,,6444,5,,53.20378000000000,02200/2003/2/000,063,enquiries@bolsover.gov.uk,Bolsover,http://www.bolsover.gov.uk/,-1.21554900000000,NG20 8PF,2009-03-11,fhrs_4_en-GB,4,,FHRS,5
46115,Carter Lane Community Centre,Carter Lane,Shirebrook,Mansfield,Carters Cafe,Restaurant/Cafe/Canteen,1,5,,28604,0,,53.20387700000000,09/00012/COMM,063,enquiries@bolsover.gov.uk,Bolsover,http://www.bolsover.gov.uk/,-1.21670000000000,NG20 8PE,2014-03-13,fhrs_5_en-GB,5,,FHRS,0
46116,21 Market Place,Bolsover,Chesterfield,,Castle Cards,Retailers - other,4613,,,24273,,,53.22929300000000,07560/0021/0/000,063,enquiries@bolsover.gov.uk,Bolsover,http://www.bolsover.gov.uk/,-1.29209600000000,S44 6PN,2009-03-02,fhrs_exempt_en-GB,Exempt,,FHRS,
46117,55 Houfton Road,Bolsover,Chesterfield,,Castle Stores (Premier),Retailers - other,4613,5,,20593,0,,53.23461800000000,06200/0055/0/000,063,enquiries@bolsover.gov.uk,Bolsover,http://www.bolsover.gov.uk/,-1.29720700000000,S44 6RP,2011-05-25,fhrs_4_en-GB,4,,FHRS,10
46118,2 Castle Street,Bolsover,Chesterfield,,Castleway Cafe,Restaurant/Cafe/Canteen,1,0,,643728,0,,53.22940200000000,13/00093/COMM,063,enquiries@bolsover.gov.uk,Bolsover,http://www.bolsover.gov.uk/,-1.29366800000000,S44 6PP,2014-03-21,fhrs_5_en-GB,5,,FHRS,0
46119,,,,,CC's Cakes,Other catering premises,7841,0,,586658,0,,,13/00039/COMM,063,enquiries@bolsover.gov.uk,Bolsover,http://www.bolsover.gov.uk/,,,2013-07-17,fhrs_5_en-GB,5,,FHRS,0
46120,47 Wharf Road,Pinxton,Nottingham,Derbyshire,Chari Tea Shop,Restaurant/Cafe/Canteen,1,5,,45537,0,,53.08876600000000,11/00013/COMM,063,enquiries@bolsover.gov.uk,Bolsover,http://www.bolsover.gov.uk/,-1.31810000000000,NG16 6LH,2011-01-31,fhrs_5_en-GB,5,,FHRS,0
46121,The Bolsover School,Mooracre Lane,Bolsover,Chesterfield,Chartwells,School/college/university,7845,5,,35137,0,,53.22644300000000,10/00194/COMM,063,enquiries@bolsover.gov.uk,Bolsover,http://www.bolsover.gov.uk/,-1.27100800000000,S44 6XA,2011-12-05,fhrs_5_en-GB,5,,FHRS,0
46122,16 Church Drive,Shirebrook,Mansfield,,Chef Peking,Takeaway/sandwich shop,7844,5,,7258,5,,53.20106300000000,02870/0016/0/000,063,enquiries@bolsover.gov.uk,Bolsover,http://www.bolsover.gov.uk/,-1.21661700000000,NG20 8DE,2014-07-30,fhrs_5_en-GB,5,,FHRS,5
46123,96 Moor Lane,Bolsover,Chesterfield,Derbyshire,Cherry's Quality Ices,Retailers - other,4613,10,,27712,5,,53.22691800000000,08170/0096/0/000,063,enquiries@bolsover.gov.uk,Bolsover,http://www.bolsover.gov.uk/,-1.27971800000000,S44 6EP,2008-07-07,fhrs_4_en-GB,4,,FHRS,5
46124,Children First At Breedon House Che,High Street,Clowne,Chesterfield,Children 1st @ Breedon House,Hospitals/Childcare/Caring Premises,5,5,,10109,5,,53.27155700000000,04/00126/COMM,063,enquiries@bolsover.gov.uk,Bolsover,http://www.bolsover.gov.uk/,-1.26925100000000,S43 4JY,2014-01-16,fhrs_5_en-GB,5,,FHRS,5
46125,17 Market Place,South Normanton,Alfreton,,Chillies,Takeaway/sandwich shop,7844,0,,569825,0,,53.10631500000000,13/00058/COMM,063,enquiries@bolsover.gov.uk,Bolsover,http://www.bolsover.gov.uk/,-1.34258800000000,DE55 2BN,2013-06-27,fhrs_5_en-GB,5,,FHRS,0
46126,79 High Street,South Normanton,Alfreton,,China House,Takeaway/sandwich shop,7844,10,,17372,10,,53.10720200000000,05890/0079/0/000,063,enquiries@bolsover.gov.uk,Bolsover,http://www.bolsover.gov.uk/,-1.34199200000000,DE55 2BP,2013-11-21,fhrs_3_en-GB,3,,FHRS,10
46127,26 Hangar Hill,Whitwell,Worksop,,Chip Inn Fish And Chips,Takeaway/sandwich shop,7844,5,,16709,5,,53.28538100000000,05230/0026/0/000,063,enquiries@bolsover.gov.uk,Bolsover,http://www.bolsover.gov.uk/,-1.20451600000000,S80 4SD,2013-10-31,fhrs_5_en-GB,5,,FHRS,5
46128,Kiosk 5,The Food Court,Mansfield Road,Pinxton,Chopstix,Takeaway/sandwich shop,7844,5,,624841,5,,53.10676900000000,13/00057/COMM,063,enquiries@bolsover.gov.uk,Bolsover,http://www.bolsover.gov.uk/,-1.31000300000000,DE55 2JW,2014-01-15,fhrs_5_en-GB,5,,FHRS,0
46129,21A Wilson Street,Pinxton,Nottingham,,Chris's Cards And Newsagent,Retailers - other,4613,5,,61364,0,,53.09115200000000,13470/0021/A/000,063,enquiries@bolsover.gov.uk,Bolsover,http://www.bolsover.gov.uk/,-1.31722600000000,NG16 6LS,2011-02-22,fhrs_5_en-GB,5,,FHRS,0
46130,3 Bramble Way,Clover Nook Industrial Estate,South Normanton,Alfreton,Chromalloy Uk Ltd,Retailers - other,4613,,,4656,,,53.09274000000000,01260/0003/0/000,063,enquiries@bolsover.gov.uk,Bolsover,http://www.bolsover.gov.uk/,-1.34887300000000,DE55 4RH,2009-07-30,fhrs_exempt_en-GB,Exempt,,FHRS,
46131,14 Ash Close,Barlborough,Chesterfield,,Chunky Bites,Takeaway/sandwich shop,7844,5,,619176,5,,53.28324000000000,13/00051/COMM,063,enquiries@bolsover.gov.uk,Bolsover,http://www.bolsover.gov.uk/,-1.28523600000000,S43 4XL,2013-11-29,fhrs_5_en-GB,5,,FHRS,5
46132,Gipsyhill Lane,Whitwell,Derbyshire,,Cinders Farm,Farmers/growers,7838,,,62764,,,53.29158300000000,13888/2001/2/000,063,enquiries@bolsover.gov.uk,Bolsover,http://www.bolsover.gov.uk/,-1.23463000000000,S80 3EH,2009-05-19,fhrs_exempt_en-GB,Exempt,,FHRS,
46133,Unit 46,East Midlands Designer Outlet,Mansfield Road,Pinxton,Claire's Accessories,Retailers - other,4613,,,24188,,,53.10676900000000,07485/0046/0/000,063,enquiries@bolsover.gov.uk,Bolsover,http://www.bolsover.gov.uk/,-1.31000300000000,DE55 2JW,2008-12-03,fhrs_exempt_en-GB,Exempt,,FHRS,
46134,,,,,Clairs Custom Cakes,Other catering premises,7841,0,,536696,0,,,13/00014/COMM,063,enquiries@bolsover.gov.uk,Bolsover,http://www.bolsover.gov.uk/,,,2013-03-27,fhrs_5_en-GB,5,,FHRS,0
46135,Cliff House Nursing And Residential,Cliff Hill,Clowne,Chesterfield,Cliff House Care Home,Hospitals/Childcare/Caring Premises,5,,,8678,,,53.27295700000000,03160/2001/2/000,063,enquiries@bolsover.gov.uk,Bolsover,http://www.bolsover.gov.uk/,-1.27191100000000,S43 4LE,2014-05-21,fhrs_5_en-GB,5,,FHRS,
46136,Clowne Junior School,King Street,Clowne,Chesterfield,Clowne After Schools Club,Hospitals/Childcare/Caring Premises,5,0,,20830,0,,53.27137600000000,06480/2000/3/001,063,enquiries@bolsover.gov.uk,Bolsover,http://www.bolsover.gov.uk/,-1.26042200000000,S43 4BS,2011-03-22,fhrs_5_en-GB,5,,FHRS,5
46137,North Road,Clowne,Chesterfield,Derbyshire,Clowne And District Liberal Club,Pub/bar/nightclub,7843,0,,28094,0,,53.27571300000000,08560/2012/2/000,063,enquiries@bolsover.gov.uk,Bolsover,http://www.bolsover.gov.uk/,-1.26246200000000,S43 4QB,2011-05-31,fhrs_5_en-GB,5,,FHRS,5
46138,36 - 38 Mill Street,Clowne,Chesterfield,,Clowne Charcoal Grill,Takeaway/sandwich shop,7844,10,,24642,10,,53.27441700000000,07990/0036/0/000,063,enquiries@bolsover.gov.uk,Bolsover,http://www.bolsover.gov.uk/,-1.26365400000000,S43 4JN,2014-08-19,fhrs_2_en-GB,2,,FHRS,15
46139,Ringer Lane,Clowne,Chesterfield,Derbyshire,Clowne Childrens Centre,Hospitals/Childcare/Caring Premises,5,10,,25642,5,,53.27229300000000,08/00112/COMM,063,enquiries@bolsover.gov.uk,Bolsover,http://www.bolsover.gov.uk/,-1.26328500000000,S43 4DB,2011-12-14,fhrs_4_en-GB,4,,FHRS,0
46140,6A Mill Street,Clowne,Chesterfield,,Clowne Fish Bar,Takeaway/sandwich shop,7844,5,,24638,5,,53.27441700000000,07990/0006/A/000,063,enquiries@bolsover.gov.uk,Bolsover,http://www.bolsover.gov.uk/,-1.26365400000000,S43 4JN,2014-04-25,fhrs_5_en-GB,5,,FHRS,5
46141,Ringer Lane,Clowne,Chesterfield,,Clowne Infant And Nursery School,School/college/university,7845,0,,41098,0,,53.27229300000000,10210/2002/2/000,063,enquiries@bolsover.gov.uk,Bolsover,http://www.bolsover.gov.uk/,-1.26328500000000,S43 4DB,2013-09-11,fhrs_5_en-GB,5,,FHRS,5
46142,King Street,Clowne,Chesterfield,,Clowne Junior School,School/college/university,7845,0,,20829,0,,53.27137600000000,06480/2000/2/000,063,enquiries@bolsover.gov.uk,Bolsover,http://www.bolsover.gov.uk/,-1.26042200000000,S43 4BS,2011-09-14,fhrs_5_en-GB,5,,FHRS,0
46143,North Road,Clowne,Chesterfield,Derbyshire,Clowne Methodist Church,Other catering premises,7841,,,28092,,,53.27808200000000,08560/2000/2/000,063,enquiries@bolsover.gov.uk,Bolsover,http://www.bolsover.gov.uk/,-1.26336600000000,S43 4PF,2010-04-09,fhrs_exempt_en-GB,Exempt,,FHRS,
46144,Mansfield Road,Clowne,Chesterfield,,Clowne Town Cricket Club,Restaurant/Cafe/Canteen,1,5,,24143,5,,53.27074100000000,07420/2017/2/000,063,enquiries@bolsover.gov.uk,Bolsover,http://www.bolsover.gov.uk/,-1.26677600000000,S43 4DH,2008-07-16,fhrs_5_en-GB,5,,FHRS,5
46145,3 Lea Bank,Broadmeadows,South Normanton,Alfreton,Coco Sun Chinese Takeaway,Takeaway/sandwich shop,7844,0,,5148,5,,53.09845900000000,01590/0003/0/000,063,enquiries@bolsover.gov.uk,Bolsover,http://www.bolsover.gov.uk/,-1.33934800000000,DE55 3LH,2014-10-17,fhrs_5_en-GB,5,,FHRS,0
46146,Park View,Barlborough,,,Community Room,Other catering premises,7841,0,,32015,0,,,09130/2000/2/000,063,enquiries@bolsover.gov.uk,Bolsover,http://www.bolsover.gov.uk/,,,2011-02-08,fhrs_5_en-GB,5,,FHRS,0
46147,Queens Court,Creswell,Worksop,,Community Room,Other catering premises,7841,5,,32624,5,,53.26507800000000,09890/2000/2/000,063,enquiries@bolsover.gov.uk,Bolsover,http://www.bolsover.gov.uk/,-1.21447300000000,S80 4HL,2009-04-16,fhrs_5_en-GB,5,,FHRS,0
46148,108 Market Street,Shirebrook,Mansfield,,Company Foods,Retailers - other,4613,5,,24312,5,,53.20316200000000,07590/0108/0/000,063,enquiries@bolsover.gov.uk,Bolsover,http://www.bolsover.gov.uk/,-1.21175800000000,NG20 8AD,2012-11-08,fhrs_5_en-GB,5,,FHRS,0
46149,80 - 82 Elmton Road,Creswell,Worksop,,Co-op (Sheffield),Retailers - supermarkets/hypermarkets,7840,0,,14584,0,,53.26208400000000,05/00024/COMM,063,enquiries@bolsover.gov.uk,Bolsover,http://www.bolsover.gov.uk/,-1.21853100000000,S80 4DD,2010-10-20,fhrs_5_en-GB,5,,FHRS,5
46150,4C Tallys End,Barlborough,Chesterfield,,Costa Coffee,Restaurant/Cafe/Canteen,1,5,,35142,0,,53.28369400000000,10/00195/COMM,063,enquiries@bolsover.gov.uk,Bolsover,http://www.bolsover.gov.uk/,-1.29206800000000,S43 4WP,2014-12-03,fhrs_5_en-GB,5,,FHRS,5
46151,Tibshelf Services M1 Northbound,Newtonwood Lane,Tibshelf,Alfreton,Costa Coffee,Restaurant/Cafe/Canteen,1,5,,28018,5,,53.13039200000000,08480/2000/4/0N7,063,enquiries@bolsover.gov.uk,Bolsover,http://www.bolsover.gov.uk/,-1.34009900000000,DE55 5TX,2012-05-01,fhrs_5_en-GB,5,,FHRS,5
46152,Tibshelf Services M1 Southbound,Newtonwood Lane,Tibshelf,Alfreton,Costa Coffee,Restaurant/Cafe/Canteen,1,5,,28022,5,,53.13039200000000,08480/2000/4/0S6,063,enquiries@bolsover.gov.uk,Bolsover,http://www.bolsover.gov.uk/,-1.34009900000000,DE55 5TX,2012-05-01,fhrs_5_en-GB,5,,FHRS,5
46153,Unit 31,East Midlands Designer Outlet,Mansfield Road,Pinxton,Costa Coffee,Restaurant/Cafe/Canteen,1,0,,197611,0,,53.10676900000000,12/00010/COMM,063,enquiries@bolsover.gov.uk,Bolsover,http://www.bolsover.gov.uk/,-1.31000300000000,DE55 2JW,2013-08-20,fhrs_5_en-GB,5,,FHRS,0
46154,36 Littlemoor Lane,Newton,Alfreton,,Costcutter,Retailers - other,4613,10,,23839,5,,53.13130700000000,07050/0036/0/000,063,enquiries@bolsover.gov.uk,Bolsover,http://www.bolsover.gov.uk/,-1.33485400000000,DE55 5TY,2014-11-17,fhrs_4_en-GB,4,,FHRS,5
46155,,,,,Courtyard Catering,Mobile caterer,7846,,,197609,,,,11/00078/COMM,063,enquiries@bolsover.gov.uk,Bolsover,http://www.bolsover.gov.uk/,,,2011-11-25,fhrs_exempt_en-GB,Exempt,,FHRS,
46156,10 Cavendish Walk,Bolsover,Chesterfield,,Courtyard Kitchen,Restaurant/Cafe/Canteen,1,5,,340048,0,,53.22947200000000,12/00003/COMM,063,enquiries@bolsover.gov.uk,Bolsover,http://www.bolsover.gov.uk/,-1.29032600000000,S44 6DB,2013-09-30,fhrs_5_en-GB,5,,FHRS,5
46157,2A North Road,Clowne,Chesterfield,,Cozy Corner Cafe,Restaurant/Cafe/Canteen,1,5,,9970,5,,53.27808200000000,04/00097/COMM,063,enquiries@bolsover.gov.uk,Bolsover,http://www.bolsover.gov.uk/,-1.26336600000000,S43 4PF,2014-05-01,fhrs_5_en-GB,5,,FHRS,5
46158,,,,,CRC Leisure (Mobile),Mobile caterer,7846,5,,8767,5,,,03270/0012/2/000,063,enquiries@bolsover.gov.uk,Bolsover,http://www.bolsover.gov.uk/,,,2009-10-19,fhrs_5_en-GB,5,,FHRS,0
46159,Gypsy Lane,Creswell,Worksop,,Creswell C Of E Infants School,School/college/university,7845,0,,62838,0,,53.26412800000000,13907/0002/2/000,063,enquiries@bolsover.gov.uk,Bolsover,http://www.bolsover.gov.uk/,-1.21756400000000,S80 4HY,2013-11-21,fhrs_5_en-GB,5,,FHRS,5
46160,Surestart Centre,Gypsy Lane,Creswell,Worksop,Creswell Children Centre,Hospitals/Childcare/Caring Premises,5,10,,28529,5,,53.26412800000000,09/00006/COMM,063,enquiries@bolsover.gov.uk,Bolsover,http://www.bolsover.gov.uk/,-1.21756400000000,S80 4HY,2008-10-09,fhrs_4_en-GB,4,,FHRS,5
46161,Creswell Crags Visitors Centre,Crags Road,Whitwell,Worksop,Creswell Crags Museum,Restaurant/Cafe/Canteen,1,0,,9110,0,,53.26099300000000,03665/2001/2/000,063,enquiries@bolsover.gov.uk,Bolsover,http://www.bolsover.gov.uk/,-1.20574800000000,S80 4AG,2011-02-28,fhrs_5_en-GB,5,,FHRS,5
46162,70 Elmton Road,Creswell,Worksop,,Creswell Fish Bar,Takeaway/sandwich shop,7844,5,,13760,5,,53.26208400000000,04370/0070/0/000,063,enquiries@bolsover.gov.uk,Bolsover,http://www.bolsover.gov.uk/,-1.21853100000000,S80 4DD,2014-05-07,fhrs_5_en-GB,5,,FHRS,0
46163,Elmton Road,Creswell,Worksop,,Creswell Junior School,School/college/university,7845,5,,13769,5,,53.26300900000000,04370/2011/2/000,063,enquiries@bolsover.gov.uk,Bolsover,http://www.bolsover.gov.uk/,-1.21689500000000,S80 4JD,2014-11-19,fhrs_4_en-GB,4,,FHRS,10
46164,58 Elmton Road,Creswell,Worksop,,Creswell Pharmacy,Retailers - other,4613,,,13758,,,53.26242100000000,04370/0058/0/000,063,enquiries@bolsover.gov.uk,Bolsover,http://www.bolsover.gov.uk/,-1.21774500000000,S80 4JE,2009-03-13,fhrs_exempt_en-GB,Exempt,,FHRS,
46165,Elmton Road,Creswell,Worksop,,Creswell Social Centre,Other catering premises,7841,5,,13767,0,,53.26074300000000,04370/2003/2/000,063,enquiries@bolsover.gov.uk,Bolsover,http://www.bolsover.gov.uk/,-1.22102900000000,S80 4BH,2014-10-21,fhrs_5_en-GB,5,,FHRS,0
46166,32 Langwith Road,Bolsover,Chesterfield,,Crossways Stores,Retailers - other,4613,5,,21008,5,,53.22400100000000,06700/0032/0/000,063,enquiries@bolsover.gov.uk,Bolsover,http://www.bolsover.gov.uk/,-1.28634200000000,S44 6HQ,2009-06-29,fhrs_5_en-GB,5,,FHRS,5
46167,,,,,Crumbs And Dreams,Other catering premises,7841,5,,586662,0,,,13/00075/COMM,063,enquiries@bolsover.gov.uk,Bolsover,http://www.bolsover.gov.uk/,,,2013-08-13,fhrs_5_en-GB,5,,FHRS,0
46168,62 Elmton Road,Creswell,Worksop,,Crusty Pantry,Retailers - other,4613,5,,35071,5,,53.26242100000000,10/00184/COMM,063,enquiries@bolsover.gov.uk,Bolsover,http://www.bolsover.gov.uk/,-1.21774500000000,S80 4JE,2013-11-14,fhrs_5_en-GB,5,,FHRS,5
46169,131 High Street,Tibshelf,Alfreton,Derbyshire,Crystal House,Takeaway/sandwich shop,7844,0,,17393,0,,53.14457600000000,05910/0131/0/000,063,enquiries@bolsover.gov.uk,Bolsover,http://www.bolsover.gov.uk/,-1.33994100000000,DE55 5PP,2013-03-27,fhrs_5_en-GB,5,,FHRS,0
46170,,,,,Cupcake Magic,Other catering premises,7841,0,,732292,0,,,14/00154/COMM,063,enquiries@bolsover.gov.uk,Bolsover,http://www.bolsover.gov.uk/,,,2015-01-15,fhrs_5_en-GB,5,,FHRS,5
46171,Tesco Retail Store,Mill Green Way,Clowne,Chesterfield,Customer Cafe,Restaurant/Cafe/Canteen,1,0,,340057,0,,53.27557000000000,12/00031/COMM,063,enquiries@bolsover.gov.uk,Bolsover,http://www.bolsover.gov.uk/,-1.26406900000000,S43 4LJ,2014-11-26,fhrs_5_en-GB,5,,FHRS,0
46172,,,,,D Deacon - Shirebrook Market Wednesdays,Retailers - other,4613,5,,62988,5,,,13943/8020/2/MOB,063,enquiries@bolsover.gov.uk,Bolsover,http://www.bolsover.gov.uk/,,,2009-06-10,fhrs_5_en-GB,5,,FHRS,5
46173,21 Bramlyn Court,Clowne,Chesterfield,,Dad's Bees,Manufacturers/packers,7839,0,,438551,0,,53.27984100000000,12/00061/COMM,063,enquiries@bolsover.gov.uk,Bolsover,http://www.bolsover.gov.uk/,-1.26875000000000,S43 4QA,2014-04-09,fhrs_5_en-GB,5,,FHRS,0
46174,Mansfield Road,Clowne,Chesterfield,Derbyshire,Dambrook Farm,Retailers - other,4613,,,28394,,,53.25761500000000,08930/2000/2/000,063,enquiries@bolsover.gov.uk,Bolsover,http://www.bolsover.gov.uk/,-1.26779500000000,S80 4LY,2009-03-24,fhrs_exempt_en-GB,Exempt,,FHRS,
46175,,,,,Dave's Spuds,Retailers - other,4613,0,,34100,0,,,10/00089/COMM,063,enquiries@bolsover.gov.uk,Bolsover,http://www.bolsover.gov.uk/,,,2010-03-30,fhrs_5_en-GB,5,,FHRS,0
46176,11 Market Street,Shirebrook,Mansfield,,David Straw Butchers,Manufacturers/packers,7839,5,,24281,5,,53.20316200000000,07570/0002/3/REA,063,enquiries@bolsover.gov.uk,Bolsover,http://www.bolsover.gov.uk/,-1.21175800000000,NG20 8AD,2013-12-16,fhrs_5_en-GB,5,,FHRS,5
46177,32 - 34 Victoria Street,Shirebrook,Mansfield,,Dawns Discounts,Retailers - other,4613,5,,29087,0,,53.20319100000000,09/00052/COMM,063,enquiries@bolsover.gov.uk,Bolsover,http://www.bolsover.gov.uk/,-1.21341900000000,NG20 8AQ,2012-08-07,fhrs_5_en-GB,5,,FHRS,5
46178,Church Street,Barlborough,Chesterfield,,De Rodes Arms,Pub/bar/nightclub,7843,5,,17932,0,,53.28960500000000,06/00048/COMM,063,enquiries@bolsover.gov.uk,Bolsover,http://www.bolsover.gov.uk/,-1.28537000000000,S43 4ER,2013-11-08,fhrs_5_en-GB,5,,FHRS,5
46179,53 High Street,Tibshelf,Alfreton,,Deakins Family Butchers,Manufacturers/packers,7839,5,,34708,10,,53.14336800000000,10/00145/COMM,063,enquiries@bolsover.gov.uk,Bolsover,http://www.bolsover.gov.uk/,-1.34245600000000,DE55 5NU,2013-08-19,fhrs_4_en-GB,4,,FHRS,0
46180,92 Market Street,Shirebrook,Mansfield,,Deep Pan Kid,Takeaway/sandwich shop,7844,10,,24310,10,,53.20316200000000,07590/0092/0/000,063,enquiries@bolsover.gov.uk,Bolsover,http://www.bolsover.gov.uk/,-1.21175800000000,NG20 8AD,2013-10-24,fhrs_3_en-GB,3,,FHRS,10
46181,Derbyshire County Council Pre-Appre,Carter Lane Community Centre,Carter Lane,Shirebrook,Derbyshire County Council Pre-Apprenticship Course,Restaurant/Cafe/Canteen,1,5,,664060,0,,53.20387700000000,13/00044/COMM,063,enquiries@bolsover.gov.uk,Bolsover,http://www.bolsover.gov.uk/,-1.21670000000000,NG20 8PE,2014-04-28,fhrs_5_en-GB,5,,FHRS,0
46182,,,,,Di Mond's Dream,Mobile caterer,7846,10,,14441,5,,,05/00002/MOBILE,063,enquiries@bolsover.gov.uk,Bolsover,http://www.bolsover.gov.uk/,,,2009-05-05,fhrs_4_en-GB,4,,FHRS,0
46183,,,,,Diddy Mac's (Mobile),Mobile caterer,7846,0,,34818,0,,,10/00158/COMM,063,enquiries@bolsover.gov.uk,Bolsover,http://www.bolsover.gov.uk/,,,2012-03-09,fhrs_5_en-GB,5,,FHRS,5
46184,,,,,Dinky Solutions,Mobile caterer,7846,5,,695988,5,,,14/00016/MOBILE,063,enquiries@bolsover.gov.uk,Bolsover,http://www.bolsover.gov.uk/,,,2014-07-19,fhrs_5_en-GB,5,,FHRS,0
46185,Dobbies Garden Centre,High Wood Way,Barlborough,Chesterfield,Dobbies Garden Centre Plc,Restaurant/Cafe/Canteen,1,5,,22058,5,,53.27974100000000,07/00112/COMM,063,enquiries@bolsover.gov.uk,Bolsover,http://www.bolsover.gov.uk/,-1.28184500000000,S43 4XN,2013-09-30,fhrs_5_en-GB,5,,FHRS,5
46186,East Street,Doe Lea,Chesterfield,Derbyshire,Doe Lea Miners Welfare Social Club,Pub/bar/nightclub,7843,10,,13625,5,,53.19219300000000,04250/2001/2/000,063,enquiries@bolsover.gov.uk,Bolsover,http://www.bolsover.gov.uk/,-1.31472400000000,S44 5NR,2008-07-24,fhrs_4_en-GB,4,,FHRS,5
46187,Mansfield Road,Doe Lea,Chesterfield,,Doe Lea Resource Centre,Other catering premises,7841,5,,62748,5,,53.18205600000000,13880/2000/2/000,063,enquiries@bolsover.gov.uk,Bolsover,http://www.bolsover.gov.uk/,-1.30285400000000,S44 5QH,2014-12-17,fhrs_5_en-GB,5,,FHRS,5
46188,10 Boughton Lane,Clowne,Chesterfield,,Dolphin Fish Bar,Takeaway/sandwich shop,7844,0,,25068,0,,53.27373800000000,08/00042/COMM,063,enquiries@bolsover.gov.uk,Bolsover,http://www.bolsover.gov.uk/,-1.26877900000000,S43 4JZ,2013-03-25,fhrs_5_en-GB,5,,FHRS,0
46189,12 - 14 Elmton Road,Creswell,Worksop,,Dolphins,Takeaway/sandwich shop,7844,10,,14488,10,,53.26390800000000,05/00009/COMM,063,enquiries@bolsover.gov.uk,Bolsover,http://www.bolsover.gov.uk/,-1.21287500000000,S80 4HE,2014-09-17,fhrs_3_en-GB,3,,FHRS,10
46190,5 North Road,Clowne,Chesterfield,,Domino's Pizza,Takeaway/sandwich shop,7844,5,,643729,5,,,14/00026/COMM,063,enquiries@bolsover.gov.uk,Bolsover,http://www.bolsover.gov.uk/,,S43 4LL,2014-03-06,fhrs_5_en-GB,5,,FHRS,0
46191,,,,,Don's Place,Mobile caterer,7846,,,569823,,,,13/00015/MOBILE,063,enquiries@bolsover.gov.uk,Bolsover,http://www.bolsover.gov.uk/,,,2013-06-17,fhrs_exempt_en-GB,Exempt,,FHRS,
46192,2A Charlesworth Street,Carr Vale,Bolsover,Chesterfield,Dotti Deli,Retailers - other,4613,10,,17993,5,,53.22410100000000,06/00056/COMM,063,enquiries@bolsover.gov.uk,Bolsover,http://www.bolsover.gov.uk/,-1.30485400000000,S44 6JH,2012-08-03,fhrs_4_en-GB,4,,FHRS,0
46193,74 Market Street,Shirebrook,Mansfield,,Dragon City,Takeaway/sandwich shop,7844,10,,46911,15,,53.20316200000000,11/00093/COMM,063,enquiries@bolsover.gov.uk,Bolsover,http://www.bolsover.gov.uk/,-1.21175800000000,NG20 8AD,2014-01-03,fhrs_2_en-GB,2,,FHRS,15
46194,Sheffield Road,Barlborough,Chesterfield,,Dusty Miller Inn,Pub/bar/nightclub,7843,5,,44477,10,,53.29152300000000,10790/2001/2/000,063,enquiries@bolsover.gov.uk,Bolsover,http://www.bolsover.gov.uk/,-1.29962000000000,S43 4TW,2014-08-26,fhrs_4_en-GB,4,,FHRS,5
46195,Creswell C Of E Infants School,Gypsy Lane,Creswell,Worksop,Earlybirds Day Nursery,Hospitals/Childcare/Caring Premises,5,0,,17893,0,,53.26412800000000,06/00044/COMM,063,enquiries@bolsover.gov.uk,Bolsover,http://www.bolsover.gov.uk/,-1.21756400000000,S80 4HY,2012-02-29,fhrs_5_en-GB,5,,FHRS,5
46196,68A Bakestone Moor,Whitwell,Worksop,,East Clune Day Service,Hospitals/Childcare/Caring Premises,5,0,,35202,5,,53.28094100000000,10/00203/COMM,063,enquiries@bolsover.gov.uk,Bolsover,http://www.bolsover.gov.uk/,-1.21413700000000,S80 4QD,2010-10-20,fhrs_5_en-GB,5,,FHRS,0
46197,West Street,Clowne,Chesterfield,,East Clune Nursing Home,Hospitals/Childcare/Caring Premises,5,5,,60145,0,,53.27895800000000,13150/0000/2/000,063,enquiries@bolsover.gov.uk,Bolsover,http://www.bolsover.gov.uk/,-1.24950800000000,S43 4NW,2014-08-13,fhrs_4_en-GB,4,,FHRS,10
46198,,,,,Edwardian Confectionery,Retailers - other,4613,5,,62983,5,,,13943/8002/2/MOB,063,enquiries@bolsover.gov.uk,Bolsover,http://www.bolsover.gov.uk/,,,2009-04-03,fhrs_5_en-GB,5,,FHRS,5
46199,First Floor,32 - 34 Market Place,Bolsover,Chesterfield,Elese Fitness Centre,Retailers - other,4613,,,664059,,,53.22929300000000,13/00038/COMM,063,enquiries@bolsover.gov.uk,Bolsover,http://www.bolsover.gov.uk/,-1.29209600000000,S44 6PN,2013-04-29,fhrs_exempt_en-GB,Exempt,,FHRS,
46200,40 Market Place,Bolsover,Chesterfield,,Elliott Meats,Retailers - other,4613,10,,24277,10,,53.22929300000000,07560/0040/0/000,063,enquiries@bolsover.gov.uk,Bolsover,http://www.bolsover.gov.uk/,-1.29209600000000,S44 6PN,2014-03-31,fhrs_3_en-GB,3,,FHRS,5
46201,7 Elm Close,Bolsover,Chesterfield,,Elm House Residential Home,Hospitals/Childcare/Caring Premises,5,5,,13738,0,,53.22827100000000,04320/0007/0/000,063,enquiries@bolsover.gov.uk,Bolsover,http://www.bolsover.gov.uk/,-1.27902100000000,S44 6EA,2009-07-01,fhrs_5_en-GB,5,,FHRS,5
46202,Station Road,Scarcliffe,Chesterfield,,Elm Tree Inn,Pub/bar/nightclub,7843,10,,51800,5,,53.21286300000000,11630/2007/2/000,063,enquiries@bolsover.gov.uk,Bolsover,http://www.bolsover.gov.uk/,-1.25681800000000,S44 6TG,2013-02-08,fhrs_3_en-GB,3,,FHRS,10
46203,Queen Street,Creswell,Worksop,,Elmton Road Social And Working Mens Club,Pub/bar/nightclub,7843,10,,13768,5,,53.26356000000000,04370/2009/2/000,063,enquiries@bolsover.gov.uk,Bolsover,http://www.bolsover.gov.uk/,-1.21457600000000,S80 4EY,2008-09-04,fhrs_4_en-GB,4,,FHRS,5
46204,Hardwick Old Hall,Hardwick Hall Drive,Hardwick Hall Park,Chesterfield,English Heritage,Retailers - other,4613,,,21669,,,53.16657400000000,07/00050/COMM,063,enquiries@bolsover.gov.uk,Bolsover,http://www.bolsover.gov.uk/,-1.30998700000000,S44 5QJ,2010-06-24,fhrs_exempt_en-GB,Exempt,,FHRS,
46205,Fairbrook House,Clover Nook Road,Pinxton,Nottingham,Eurocell Plc,Retailers - other,4613,,,8743,,,53.09038400000000,03230/2000/2/000,063,enquiries@bolsover.gov.uk,Bolsover,http://www.bolsover.gov.uk/,-1.35862900000000,DE55 4RF,2009-03-18,fhrs_exempt_en-GB,Exempt,,FHRS,
46206,36 Chesterfield Road,Barlborough,Chesterfield,,Fairytales Day Nursery,Hospitals/Childcare/Caring Premises,5,5,,6878,5,,53.28392500000000,02600/0036/0/000,063,enquiries@bolsover.gov.uk,Bolsover,http://www.bolsover.gov.uk/,-1.29308400000000,S43 4TT,2014-02-27,fhrs_5_en-GB,5,,FHRS,5
46207,,,,,Famished,Mobile caterer,7846,0,,62986,0,,,13943/8017/2/MOB,063,enquiries@bolsover.gov.uk,Bolsover,http://www.bolsover.gov.uk/,,,2013-08-27,fhrs_5_en-GB,5,,FHRS,0
46208,30 Market Place,Bolsover,Chesterfield,Derbyshire,Farmfoods,Retailers - supermarkets/hypermarkets,7840,0,,24274,0,,53.22929300000000,07560/0030/0/000,063,enquiries@bolsover.gov.uk,Bolsover,http://www.bolsover.gov.uk/,-1.29209600000000,S44 6PN,2011-03-02,fhrs_5_en-GB,5,,FHRS,0
46209,3 Ashlea Green,Clowne,Chesterfield,,Fishers Plaice,Takeaway/sandwich shop,7844,0,,340058,0,,53.27871000000000,12/00032/COMM,063,enquiries@bolsover.gov.uk,Bolsover,http://www.bolsover.gov.uk/,-1.24871800000000,S43 4NS,2014-09-26,fhrs_4_en-GB,4,,FHRS,10
46210,,,,,Flame,Mobile caterer,7846,10,,28602,5,,,09/00011/MOBILE,063,enquiries@bolsover.gov.uk,Bolsover,http://www.bolsover.gov.uk/,,,2013-11-07,fhrs_4_en-GB,4,,FHRS,5
46211,,,,,Food For Thought,Other catering premises,7841,0,,2148,0,,,00680/0081/0/000,063,enquiries@bolsover.gov.uk,Bolsover,http://www.bolsover.gov.uk/,,,2013-07-09,fhrs_5_en-GB,5,,FHRS,0
46212,,,,,Food Fore-thought,Other catering premises,7841,0,,569820,0,,,13/00003/COMM,063,enquiries@bolsover.gov.uk,Bolsover,http://www.bolsover.gov.uk/,,,2013-06-20,fhrs_5_en-GB,5,,FHRS,0
46213,,,,,Food U Like,Mobile caterer,7846,0,,479938,0,,,12/00007/MOBILE,063,enquiries@bolsover.gov.uk,Bolsover,http://www.bolsover.gov.uk/,,,2013-07-13,fhrs_5_en-GB,5,,FHRS,0
46214,,,,,Food U Like (trading At Bakewell Market),Mobile caterer,7846,0,,28477,5,,,09/00002/MOBILE,063,enquiries@bolsover.gov.uk,Bolsover,http://www.bolsover.gov.uk/,,,2012-02-13,fhrs_5_en-GB,5,,FHRS,5
46215,Mansfield Road,South Normanton,Alfreton,Derbyshire,Frederick Gent School,School/college/university,7845,5,,24182,5,,53.10064100000000,07480/2001/2/000,063,enquiries@bolsover.gov.uk,Bolsover,http://www.bolsover.gov.uk/,-1.33254900000000,DE55 2ER,2011-09-21,fhrs_5_en-GB,5,,FHRS,0
46216,2 North Road,Clowne,Chesterfield,,Fresh,Takeaway/sandwich shop,7844,5,,21934,5,,53.27808200000000,07/00093/COMM,063,enquiries@bolsover.gov.uk,Bolsover,http://www.bolsover.gov.uk/,-1.26336600000000,S43 4PF,2013-10-31,fhrs_4_en-GB,4,,FHRS,10
46217,,,,,Fresh And Tasty,Mobile caterer,7846,0,,62940,0,,,13932/0015/0/000,063,enquiries@bolsover.gov.uk,Bolsover,http://www.bolsover.gov.uk/,,,2012-09-27,fhrs_5_en-GB,5,,FHRS,0
46218,Town End,Bolsover,Chesterfield,,Fulton Foods,Retailers - supermarkets/hypermarkets,7840,0,,35185,0,,53.22919100000000,10/00201/COMM,063,enquiries@bolsover.gov.uk,Bolsover,http://www.bolsover.gov.uk/,-1.28998600000000,S44 6DT,2010-11-19,fhrs_5_en-GB,5,,FHRS,0
46219,Arrow Farm Shop,Worksop Road,Steetley,Worksop,G A Blagg And Son,Retailers - other,4613,5,,14505,0,,53.30210800000000,05/00012/COMM,063,enquiries@bolsover.gov.uk,Bolsover,http://www.bolsover.gov.uk/,-1.18700900000000,S80 3DZ,2012-09-20,fhrs_5_en-GB,5,,FHRS,0
46220,Bassett Farm,Keepers Corner Road,Stony Houghton,Derbyshire,G B Key And Son,Farmers/growers,7838,,,52277,,,53.19093900000000,11790/2008/2/000,063,enquiries@bolsover.gov.uk,Bolsover,http://www.bolsover.gov.uk/,-1.26423100000000,NG19 8TR,2009-03-13,fhrs_exempt_en-GB,Exempt,,FHRS,
46221,Unit 62,East Midlands Designer Outlet,Mansfield Road,Pinxton,Game,Retailers - other,4613,,,536695,,,53.10676900000000,12/00011/COMM,063,enquiries@bolsover.gov.uk,Bolsover,http://www.bolsover.gov.uk/,-1.31000300000000,DE55 2JW,2013-04-05,fhrs_exempt_en-GB,Exempt,,FHRS,
46222,,,,,Gem Cakes,Other catering premises,7841,0,,508234,0,,,12/00090/COMM,063,enquiries@bolsover.gov.uk,Bolsover,http://www.bolsover.gov.uk/,,,2012-11-08,fhrs_5_en-GB,5,,FHRS,0
46223,,,,,Gemma Dring,Retailers - other,4613,,,46392,,,,11/00063/COMM,063,enquiries@bolsover.gov.uk,Bolsover,http://www.bolsover.gov.uk/,,,2011-08-25,fhrs_exempt_en-GB,Exempt,,FHRS,
46224,2 Colliers Trek,Barlborough,Chesterfield,Derbyshire,George's Speciality Chutney's,Other catering premises,7841,0,,34850,0,,53.28317200000000,10/00162/COMM,063,enquiries@bolsover.gov.uk,Bolsover,http://www.bolsover.gov.uk/,-1.28127700000000,S43 4WE,2010-08-12,fhrs_5_en-GB,5,,FHRS,0
46225,The Pharmacy,The Square,Whitwell,Worksop,Gilbert And Armstrong,Retailers - other,4613,,,54911,,,53.28425200000000,12380/2003/2/000,063,enquiries@bolsover.gov.uk,Bolsover,http://www.bolsover.gov.uk/,-1.20644200000000,S80 4QR,2008-10-31,fhrs_exempt_en-GB,Exempt,,FHRS,
46226,16 Main Street,Carr Vale,Chesterfield,Derbyshire,Gino's Italian Take Away,Takeaway/sandwich shop,7844,5,,45350,5,,53.22483500000000,11/00002/COMM,063,enquiries@bolsover.gov.uk,Bolsover,http://www.bolsover.gov.uk/,-1.30271500000000,S44 6JF,2013-03-20,fhrs_5_en-GB,5,,FHRS,0
46227,Park Avenue,Glapwell,Chesterfield,,Glapwell Cricket Club,Restaurant/Cafe/Canteen,1,10,,31885,5,,53.19009300000000,09020/2002/2/000,063,enquiries@bolsover.gov.uk,Bolsover,http://www.bolsover.gov.uk/,-1.28171200000000,S44 5PZ,2009-12-09,fhrs_4_en-GB,4,,FHRS,0
46228,Park Avenue,Glapwell,Chesterfield,,Glapwell Football Club,Pub/bar/nightclub,7843,10,,31884,10,,53.19009300000000,09020/2001/2/000,063,enquiries@bolsover.gov.uk,Bolsover,http://www.bolsover.gov.uk/,-1.28171200000000,S44 5PZ,2014-03-28,fhrs_3_en-GB,3,,FHRS,5
46229,Glapwell Lane,Glapwell,Chesterfield,Derbyshire,Glapwell Nurseries,Retailers - other,4613,,,14375,,,53.19216300000000,04940/2001/2/000,063,enquiries@bolsover.gov.uk,Bolsover,http://www.bolsover.gov.uk/,-1.28365300000000,S44 5PY,2009-04-28,fhrs_exempt_en-GB,Exempt,,FHRS,
46230,9 Rowthorne Lane,Glapwell,Chesterfield,Derbyshire,Glapwell Post Office And Stores,Retailers - other,4613,5,,42413,5,,53.18766500000000,10460/0009/2/000,063,enquiries@bolsover.gov.uk,Bolsover,http://www.bolsover.gov.uk/,-1.28300900000000,S44 5QF,2009-05-27,fhrs_5_en-GB,5,,FHRS,0
46231,Hamlet Lane,South Normanton,Alfreton,,Glebe Junior School,School/college/university,7845,0,,16703,0,,53.10352200000000,05220/2002/2/000,063,enquiries@bolsover.gov.uk,Bolsover,http://www.bolsover.gov.uk/,-1.34145100000000,DE55 2JB,2014-02-13,fhrs_5_en-GB,5,,FHRS,5
46232,58 Welbeck Street,Whitwell,Worksop,,Go Ming,Takeaway/sandwich shop,7844,5,,46609,5,,53.28403900000000,11/00075/COMM,063,enquiries@bolsover.gov.uk,Bolsover,http://www.bolsover.gov.uk/,-1.20280100000000,S80 4TW,2014-03-28,fhrs_5_en-GB,5,,FHRS,5
46233,8 Town End,Bolsover,Chesterfield,Derbyshire,Goddard And White News,Retailers - other,4613,,,55715,,,53.22919100000000,12580/0008/0/000,063,enquiries@bolsover.gov.uk,Bolsover,http://www.bolsover.gov.uk/,-1.28998600000000,S44 6DT,2009-03-31,fhrs_exempt_en-GB,Exempt,,FHRS,
46234,11 Mill Street,Clowne,Chesterfield,,Golden City Chinese Take Away,Takeaway/sandwich shop,7844,5,,24639,10,,53.27441700000000,07990/0011/0/000,063,enquiries@bolsover.gov.uk,Bolsover,http://www.bolsover.gov.uk/,-1.26365400000000,S43 4JN,2014-03-20,fhrs_4_en-GB,4,,FHRS,5
46235,9 - 13 Market Place,Bolsover,Chesterfield,,Golden Grill II,Takeaway/sandwich shop,7844,5,,45331,5,,53.22929300000000,11/00001/COMM,063,enquiries@bolsover.gov.uk,Bolsover,http://www.bolsover.gov.uk/,-1.29209600000000,S44 6PN,2013-08-08,fhrs_5_en-GB,5,,FHRS,5
46236,95 Wharf Road,Pinxton,Nottingham,Derbyshire,Good Taste,Takeaway/sandwich shop,7844,5,,45859,5,,53.08876600000000,11/00032/COMM,063,enquiries@bolsover.gov.uk,Bolsover,http://www.bolsover.gov.uk/,-1.31810000000000,NG16 6LH,2014-12-04,fhrs_5_en-GB,5,,FHRS,5
46237,,,,,Graingers Cakes,Other catering premises,7841,0,,46461,0,,,11/00067/COMM,063,enquiries@bolsover.gov.uk,Bolsover,http://www.bolsover.gov.uk/,,,2011-11-01,fhrs_5_en-GB,5,,FHRS,0
46238,12 Ash Close,Barlborough,Chesterfield,,GT News Trading As Spar,Retailers - supermarkets/hypermarkets,7840,5,,9815,0,,53.28324000000000,04/00069/COMM,063,enquiries@bolsover.gov.uk,Bolsover,http://www.bolsover.gov.uk/,-1.28523600000000,S43 4XL,2013-11-07,fhrs_5_en-GB,5,,FHRS,5
46239,32 - 34 High Street,Clowne,Chesterfield,,Haddon House Care Home,Hospitals/Childcare/Caring Premises,5,5,,34135,5,,53.27313600000000,10/00092/COMM,063,enquiries@bolsover.gov.uk,Bolsover,http://www.bolsover.gov.uk/,-1.26732000000000,S43 4JU,2014-10-20,fhrs_5_en-GB,5,,FHRS,5
46240,Worksop Road,Whitwell,Worksop,,Half Moon Inn,Pub/bar/nightclub,7843,0,,7182,0,,53.28726900000000,02760/2001/2/000,063,enquiries@bolsover.gov.uk,Bolsover,http://www.bolsover.gov.uk/,-1.20586100000000,S80 4ST,2013-06-28,fhrs_5_en-GB,5,,FHRS,0
46241,,,,,Halls Catering,Mobile caterer,7846,,,62938,,,,13932/0004/0/000,063,enquiries@bolsover.gov.uk,Bolsover,http://www.bolsover.gov.uk/,,,2013-02-11,fhrs_exempt_en-GB,Exempt,,FHRS,
46242,Hardwick Hall Drive,Hardwick Hall Park,Chesterfield,,Hardwick Hall,Restaurant/Cafe/Canteen,1,0,,16838,5,,53.16657400000000,05330/2010/2/000,063,enquiries@bolsover.gov.uk,Bolsover,http://www.bolsover.gov.uk/,-1.30998700000000,S44 5QJ,2014-10-07,fhrs_5_en-GB,5,,FHRS,5
46243,Hardwick Hall Drive,Hardwick Hall Park,Chesterfield,,Hardwick Inn,Pub/bar/nightclub,7843,5,,16836,5,,53.16657400000000,05330/2000/2/000,063,enquiries@bolsover.gov.uk,Bolsover,http://www.bolsover.gov.uk/,-1.30998700000000,S44 5QJ,2014-03-05,fhrs_5_en-GB,5,,FHRS,5
46244,Kiosk 4,The Food Court,Mansfield Road,Pinxton,Harry Ramsdens,Restaurant/Cafe/Canteen,1,0,,34758,5,,53.10676900000000,10/00151/COMM,063,enquiries@bolsover.gov.uk,Bolsover,http://www.bolsover.gov.uk/,-1.31000300000000,DE55 2JW,2013-08-29,fhrs_5_en-GB,5,,FHRS,0
46245,Clowne Infant And Nursery School,Ringer Lane,Clowne,Chesterfield,Healthy Lifestyle Breakfast Club,Hospitals/Childcare/Caring Premises,5,5,,21946,0,,53.27229300000000,07/00095/COMM,063,enquiries@bolsover.gov.uk,Bolsover,http://www.bolsover.gov.uk/,-1.26328500000000,S43 4DB,2011-03-22,fhrs_5_en-GB,5,,FHRS,0
46246,163 - 165 High Street,Tibshelf,Alfreton,,Heathfields Residential Home,Hospitals/Childcare/Caring Premises,5,5,,17161,5,,53.14684500000000,05620/0000/2/000,063,enquiries@bolsover.gov.uk,Bolsover,http://www.bolsover.gov.uk/,-1.33723000000000,DE55 5NE,2014-05-08,fhrs_5_en-GB,5,,FHRS,5
46247,,,,,Hedgerow Pickles + Preserves,Other catering premises,7841,5,,718646,5,,,14/00095/COMM,063,enquiries@bolsover.gov.uk,Bolsover,http://www.bolsover.gov.uk/,,,2014-09-09,fhrs_5_en-GB,5,,FHRS,0
46248,133 High Street,Tibshelf,Alfreton,,Hel's Kitchen,Restaurant/Cafe/Canteen,1,5,,30840,5,,53.14457600000000,09/00291/COMM,063,enquiries@bolsover.gov.uk,Bolsover,http://www.bolsover.gov.uk/,-1.33994100000000,DE55 5PP,2014-05-07,fhrs_5_en-GB,5,,FHRS,5
46249,Whaley Community Centre,Whaley Common,Whaley,Chesterfield,Henton Memorial Hall,Other catering premises,7841,,,29347,,,53.24238000000000,09/00074/COMM,063,enquiries@bolsover.gov.uk,Bolsover,http://www.bolsover.gov.uk/,-1.22549700000000,NG20 9HY,2009-08-28,fhrs_exempt_en-GB,Exempt,,FHRS,
46250,Heritage Community School Kitchen 1,Boughton Lane,Clowne,,Heritage High,School/college/university,7845,0,,4540,5,,,01180/0000/3/KI1,063,enquiries@bolsover.gov.uk,Bolsover,http://www.bolsover.gov.uk/,,,2014-03-31,fhrs_5_en-GB,5,,FHRS,0
46251,108 High Street,Tibshelf,Alfreton,,High Street Garage,Retailers - other,4613,5,,690653,5,,53.14336800000000,14/00028/COMM,063,enquiries@bolsover.gov.uk,Bolsover,http://www.bolsover.gov.uk/,-1.34245600000000,DE55 5NU,2014-04-16,fhrs_5_en-GB,5,,FHRS,5
46252,New Lane,Hilcote,Alfreton,,Hilcote Arms,Pub/bar/nightclub,7843,10,,448487,5,,53.11865100000000,12/00038/COMM,063,enquiries@bolsover.gov.uk,Bolsover,http://www.bolsover.gov.uk/,-1.32689100000000,DE55 5HT,2014-03-07,fhrs_4_en-GB,4,,FHRS,5
46253,The Hilcote Country Club,Hilcote Lane,Hilcote,Alfreton,Hilcote Country Club,Restaurant/Cafe/Canteen,1,5,,46023,5,,53.11796000000000,11/00042/COMM,063,enquiries@bolsover.gov.uk,Bolsover,http://www.bolsover.gov.uk/,-1.33513400000000,DE55 5HR,2013-03-28,fhrs_4_en-GB,4,,FHRS,10
46254,544 New Street,Hilcote,Alfreton,,Hilcote Miners Welfare And Community Centre,Pub/bar/nightclub,7843,5,,17524,5,,53.11695800000000,06/00006/COMM,063,enquiries@bolsover.gov.uk,Bolsover,http://www.bolsover.gov.uk/,-1.32475100000000,DE55 5HU,2009-12-08,fhrs_5_en-GB,5,,FHRS,0
46255,53 - 55 New Lane,Hilcote,Alfreton,Derbyshire,Hilcote Post Office And General Stores,Retailers - other,4613,0,,27929,5,,53.11865100000000,08340/0053/2/000,063,enquiries@bolsover.gov.uk,Bolsover,http://www.bolsover.gov.uk/,-1.32689100000000,DE55 5HT,2010-10-19,fhrs_5_en-GB,5,,FHRS,5
46256,1-3 Hillside,Whitwell,Worksop,,Hillside Stores,Retailers - other,4613,0,,20456,0,,53.28224200000000,06010/0001/0/000,063,enquiries@bolsover.gov.uk,Bolsover,http://www.bolsover.gov.uk/,-1.21366400000000,S80 4PF,2014-10-16,fhrs_5_en-GB,5,,FHRS,5
46257,Bowls Pavilion And Green,Nesbit Street,Hillstown,Chesterfield,Hillstown Bowls Pavilion And Green,Other catering premises,7841,10,,14540,5,,53.22226100000000,05/00017/COMM,063,enquiries@bolsover.gov.uk,Bolsover,http://www.bolsover.gov.uk/,-1.28252200000000,S44 6LW,2009-05-19,fhrs_4_en-GB,4,,FHRS,0
46258,Quarry Road,Bolsover,Chesterfield,,Hilltop Working Mens Club And Institute,Pub/bar/nightclub,7843,5,,32618,10,,53.23534200000000,09870/2007/2/000,063,enquiries@bolsover.gov.uk,Bolsover,http://www.bolsover.gov.uk/,-1.29192200000000,S44 6NT,2014-12-16,fhrs_3_en-GB,3,,FHRS,10
46259,Queens Road,Hodthorpe,Worksop,,Hodthorpe Primary School,School/college/university,7845,0,,32633,0,,53.28265400000000,09900/2006/2/000,063,enquiries@bolsover.gov.uk,Bolsover,http://www.bolsover.gov.uk/,-1.19063300000000,S80 4UT,2014-10-22,fhrs_5_en-GB,5,,FHRS,0
46260,147 Queens Road,Hodthorpe,Worksop,,Hodthorpe Working Men's Club,Pub/bar/nightclub,7843,5,,29414,0,,53.28291300000000,09/00080/COMM,063,enquiries@bolsover.gov.uk,Bolsover,http://www.bolsover.gov.uk/,-1.18780800000000,S80 4UP,2010-09-28,fhrs_5_en-GB,5,,FHRS,5
46261,Unit 3,Dobbies Garden Centre,High Wood Way,Barlborough,Holland And Barrett,Retailers - other,4613,0,,22046,0,,53.27974100000000,07/00110/COMM,063,enquiries@bolsover.gov.uk,Bolsover,http://www.bolsover.gov.uk/,-1.28184500000000,S43 4XN,2011-07-11,fhrs_5_en-GB,5,,FHRS,0
46262,30 - 32 Skinner Street,Creswell,Worksop,,Hollybank Nursing Home Ltd,Hospitals/Childcare/Caring Premises,5,0,,45096,5,,53.26394200000000,10940/0032/2/000,063,enquiries@bolsover.gov.uk,Bolsover,http://www.bolsover.gov.uk/,-1.21948600000000,S80 4JH,2014-02-21,fhrs_5_en-GB,5,,FHRS,5
46263,Holmlea,Waverley Street,Tibshelf,Alfreton,Holmlea Home For Older People,Hospitals/Childcare/Caring Premises,5,5,,57643,0,,53.14624200000000,12940/2001/2/000,063,enquiries@bolsover.gov.uk,Bolsover,http://www.bolsover.gov.uk/,-1.33882400000000,DE55 5PS,2014-08-28,fhrs_5_en-GB,5,,FHRS,5
46264,Mansfield Road,Scarcliffe,Chesterfield,Derbyshire,Horse And Groom,Pub/bar/nightclub,7843,5,,24162,5,,53.21172400000000,07470/2000/2/000,063,enquiries@bolsover.gov.uk,Bolsover,http://www.bolsover.gov.uk/,-1.26754400000000,S44 6SU,2009-11-11,fhrs_5_en-GB,5,,FHRS,5
46265,,,,,Hot And Cold Snacks,Mobile caterer,7846,20,,479939,15,,,12/00009/MOBILE,063,enquiries@bolsover.gov.uk,Bolsover,http://www.bolsover.gov.uk/,,,2014-12-18,fhrs_1_en-GB,1,,FHRS,15
46266,46 High Street,Clowne,Chesterfield,,Hot Oven,Retailers - other,4613,10,,17340,5,,53.27313600000000,05870/0046/0/000,063,enquiries@bolsover.gov.uk,Bolsover,http://www.bolsover.gov.uk/,-1.26732000000000,S43 4JU,2013-12-04,fhrs_4_en-GB,4,,FHRS,5
46267,Worksop Road,Clowne,Chesterfield,,Hotel Van Dyk,Hotel/bed & breakfast/guest house,7842,5,,30404,5,,53.28785500000000,09/00190/COMM,063,enquiries@bolsover.gov.uk,Bolsover,http://www.bolsover.gov.uk/,-1.25496300000000,S43 4TD,2013-12-12,fhrs_5_en-GB,5,,FHRS,5
46268,,,,,Huss Lakin,Retailers - other,4613,0,,34655,0,,,10/00139/COMM,063,enquiries@bolsover.gov.uk,Bolsover,http://www.bolsover.gov.uk/,,,2013-06-28,fhrs_5_en-GB,5,,FHRS,0
46269,3 Tallys End,Barlborough,Chesterfield,Derbyshire,Ibis Hotel,Hotel/bed & breakfast/guest house,7842,5,,63000,0,,53.28369400000000,13946/0003/2/000,063,enquiries@bolsover.gov.uk,Bolsover,http://www.bolsover.gov.uk/,-1.29206800000000,S43 4WP,2013-06-19,fhrs_5_en-GB,5,,FHRS,5
46270,45 - 47 Main Street,Shirebrook,Mansfield,,Indigos Restaurant And Take Away,Takeaway/sandwich shop,7844,0,,21643,0,,53.20223500000000,07/00047/COMM,063,enquiries@bolsover.gov.uk,Bolsover,http://www.bolsover.gov.uk/,-1.21438000000000,NG20 8AX,2013-06-27,fhrs_5_en-GB,5,,FHRS,5
46271,,,,,J & C Fast Foods,Mobile caterer,7846,0,,9392,0,,,04/00006/MOBILE,063,enquiries@bolsover.gov.uk,Bolsover,http://www.bolsover.gov.uk/,,,2012-07-14,fhrs_5_en-GB,5,,FHRS,0
46272,184 Elmton Road,Creswell,Worksop,,J And G Stubbins,Retailers - other,4613,5,,13764,5,,53.26015000000000,04370/0184/0/000,063,enquiries@bolsover.gov.uk,Bolsover,http://www.bolsover.gov.uk/,-1.22373800000000,S80 4DY,2011-06-21,fhrs_5_en-GB,5,,FHRS,0
46273,Whaley Farm,Whaley Road,Whaley,Derbyshire,J E Longden,Farmers/growers,7838,,,60728,,,53.23909500000000,13270/2006/2/000,063,enquiries@bolsover.gov.uk,Bolsover,http://www.bolsover.gov.uk/,-1.23027700000000,NG20 9HU,2009-05-07,fhrs_exempt_en-GB,Exempt,,FHRS,
46274,2 Hawthorne Avenue,Shirebrook,Mansfield,,Jacaranda Stores,Retailers - other,4613,5,,21701,5,,53.20346500000000,07/00055/COMM,063,enquiries@bolsover.gov.uk,Bolsover,http://www.bolsover.gov.uk/,-1.22923900000000,NG20 8NT,2014-03-26,fhrs_5_en-GB,5,,FHRS,5
46275,10 Elmton Road,Creswell,Worksop,,Jamie's,Restaurant/Cafe/Canteen,1,5,,479936,5,,53.26390800000000,11/00084/COMM,063,enquiries@bolsover.gov.uk,Bolsover,http://www.bolsover.gov.uk/,-1.21287500000000,S80 4HE,2014-05-01,fhrs_5_en-GB,5,,FHRS,5
46276,Jaquest Block R,Bolsover Business Park,Woodhouse Lane,Bolsover,Jaquest Foods,Manufacturers/packers,7839,5,,557739,0,,53.23225800000000,13/00048/COMM,063,enquiries@bolsover.gov.uk,Bolsover,http://www.bolsover.gov.uk/,-1.30710400000000,S44 6BN,2013-06-13,fhrs_5_en-GB,5,,FHRS,0
46277,53 Main Street,Shirebrook,Mansfield,,Jayne's Catering,Other catering premises,7841,5,,24050,5,,53.20236400000000,07270/0053/3/000,063,enquiries@bolsover.gov.uk,Bolsover,http://www.bolsover.gov.uk/,-1.21487100000000,NG20 8AN,2014-04-04,fhrs_5_en-GB,5,,FHRS,5
46278,,,,,Jenny And Cathy's Catch Of The Day,Retailers - other,4613,0,,28363,0,,,08910/0011/0/000,063,enquiries@bolsover.gov.uk,Bolsover,http://www.bolsover.gov.uk/,,,2013-09-05,fhrs_5_en-GB,5,,FHRS,0
46279,Church Street West,Pinxton,Nottingham,,John King Infant School,School/college/university,7845,5,,8592,5,,53.09306000000000,03070/2005/2/000,063,enquiries@bolsover.gov.uk,Bolsover,http://www.bolsover.gov.uk/,-1.31931600000000,NG16 6NB,2014-12-17,fhrs_5_en-GB,5,,FHRS,5
46280,Joy Mining Machinery Limited Toll B,Kirkby Lane,Pinxton,Nottingham,Joy Mining Machinery Staff Canteen,Restaurant/Cafe/Canteen,1,5,,5508,5,,53.09182200000000,01918/2000/2/000,063,enquiries@bolsover.gov.uk,Bolsover,http://www.bolsover.gov.uk/,-1.30877800000000,NG16 6HX,2014-03-14,fhrs_5_en-GB,5,,FHRS,5
46281,Jubilee Court,Kirkstead Road,Pinxton,Nottingham,Jubilee Court Community Room,Other catering premises,7841,5,,20719,0,,53.09242300000000,06360/0000/0/000,063,enquiries@bolsover.gov.uk,Bolsover,http://www.bolsover.gov.uk/,-1.31940100000000,NG16 6NU,2010-02-10,fhrs_5_en-GB,5,,FHRS,0
46282,Unit 13,East Midlands Designer Outlet,Mansfield Road,Pinxton,Julian Graves,Retailers - other,4613,0,,24186,0,,53.10676900000000,07485/0013/0/000,063,enquiries@bolsover.gov.uk,Bolsover,http://www.bolsover.gov.uk/,-1.31000300000000,DE55 2JW,2009-03-02,fhrs_5_en-GB,5,,FHRS,0
46283,42A Market Place,Bolsover,Chesterfield,,Julies Sandwich Shop,Retailers - other,4613,5,,35038,5,,53.22929300000000,10/00180/COMM,063,enquiries@bolsover.gov.uk,Bolsover,http://www.bolsover.gov.uk/,-1.29209600000000,S44 6PN,2013-09-30,fhrs_4_en-GB,4,,FHRS,10
46284,5 Cotton Street,Bolsover,Chesterfield,Derbyshire,Just Expressions,Retailers - other,4613,,,29008,,,53.22872400000000,09/00045/COMM,063,enquiries@bolsover.gov.uk,Bolsover,http://www.bolsover.gov.uk/,-1.29150700000000,S44 6HA,2009-03-31,fhrs_exempt_en-GB,Exempt,,FHRS,
46285,122 The Common,South Normanton,Alfreton,,Just Pizza,Takeaway/sandwich shop,7844,5,,732293,5,,53.10050500000000,14/00183/COMM,063,enquiries@bolsover.gov.uk,Bolsover,http://www.bolsover.gov.uk/,-1.33715000000000,DE55 2EP,2014-12-04,fhrs_5_en-GB,5,,FHRS,5
46286,,,,,Kandy Corner,Retailers - other,4613,0,,606032,0,,,13/00049/COMM,063,enquiries@bolsover.gov.uk,Bolsover,http://www.bolsover.gov.uk/,,,2013-10-16,fhrs_5_en-GB,5,,FHRS,0
46287,4 Tallys End,Barlborough,Chesterfield,,KFC,Restaurant/Cafe/Canteen,1,0,,35055,5,,53.28369400000000,10/00182/COMM,063,enquiries@bolsover.gov.uk,Bolsover,http://www.bolsover.gov.uk/,-1.29206800000000,S43 4WP,2014-03-20,fhrs_5_en-GB,5,,FHRS,5
46288,121 High Street,Tibshelf,Alfreton,,King Edward VII Hotel,Pub/bar/nightclub,7843,5,,34934,10,,53.14457600000000,10/00170/COMM,063,enquiries@bolsover.gov.uk,Bolsover,http://www.bolsover.gov.uk/,-1.33994100000000,DE55 5PP,2012-01-27,fhrs_3_en-GB,3,,FHRS,10
46289,36 Patchwork Row,Shirebrook,Mansfield,,Kings Garden,Takeaway/sandwich shop,7844,5,,62902,5,,53.20299600000000,13921/0036/0/000,063,enquiries@bolsover.gov.uk,Bolsover,http://www.bolsover.gov.uk/,-1.21394700000000,NG20 8AL,2013-06-27,fhrs_5_en-GB,5,,FHRS,5
46290,50 - 52 Chesterfield Road,Shuttlewood,Chesterfield,Derbyshire,Kings Newsagents,Retailers - other,4613,5,,7169,5,,53.25048900000000,02730/0050/0/000,063,enquiries@bolsover.gov.uk,Bolsover,http://www.bolsover.gov.uk/,-1.30108400000000,S44 6QT,2010-06-10,fhrs_5_en-GB,5,,FHRS,5
46291,Kirkstead Road,Pinxton,Nottingham,,Kirkstead Junior School,School/college/university,7845,0,,20894,0,,53.09147800000000,06560/2002/2/000,063,enquiries@bolsover.gov.uk,Bolsover,http://www.bolsover.gov.uk/,-1.31922100000000,NG16 6NA,2014-03-14,fhrs_5_en-GB,5,,FHRS,0
46292,Unit 1,Hazel Court,Midland Way,Barlborough,Klasse Spa Limited,Restaurant/Cafe/Canteen,1,5,,711704,5,,53.28102600000000,10/00074/COMM,063,enquiries@bolsover.gov.uk,Bolsover,http://www.bolsover.gov.uk/,-1.28776300000000,S43 4FD,2014-10-07,fhrs_5_en-GB,5,,FHRS,0
46293,33 The Green,Glapwell,Chesterfield,,Kwick Stop,Retailers - other,4613,10,,53946,10,,53.18694500000000,12150/0033/0/000,063,enquiries@bolsover.gov.uk,Bolsover,http://www.bolsover.gov.uk/,-1.28586500000000,S44 5LW,2014-08-15,fhrs_3_en-GB,3,,FHRS,5
46294,112 Market Street,South Normanton,Alfreton,,Ladbrokes,Retailers - other,4613,,,18092,,,53.10476800000000,06/00069/COMM,063,enquiries@bolsover.gov.uk,Bolsover,http://www.bolsover.gov.uk/,-1.34240300000000,DE55 2EJ,2014-10-22,fhrs_exempt_en-GB,Exempt,,FHRS,
46295,44 Mill Street,Clowne,Chesterfield,,Ladbrokes,Retailers - other,4613,,,21682,,,53.27441700000000,07/00052/COMM,063,enquiries@bolsover.gov.uk,Bolsover,http://www.bolsover.gov.uk/,-1.26365400000000,S43 4JN,2009-05-19,fhrs_exempt_en-GB,Exempt,,FHRS,
46296,16 Town End,Bolsover,Chesterfield,,Ladbrokes Racing,Retailers - other,4613,,,55716,,,53.22919100000000,12580/0016/0/000,063,enquiries@bolsover.gov.uk,Bolsover,http://www.bolsover.gov.uk/,-1.28998600000000,S44 6DT,2010-06-29,fhrs_exempt_en-GB,Exempt,,FHRS,
46297,,,,,L'amour Cupcakerie,Other catering premises,7841,5,,586660,0,,,13/00073/COMM,063,enquiries@bolsover.gov.uk,Bolsover,http://www.bolsover.gov.uk/,,,2013-08-28,fhrs_5_en-GB,5,,FHRS,0
46298,Bassett Hill,Upper Langwith,Mansfield,,Langwith Bassett Community Primary School,School/college/university,7845,0,,2190,0,,53.21742000000000,00720/2002/2/000,063,enquiries@bolsover.gov.uk,Bolsover,http://www.bolsover.gov.uk/,-1.21883400000000,NG20 9RD,2013-02-08,fhrs_5_en-GB,5,,FHRS,0
46299,Recreation Road,Langwith Junction,Mansfield,,Langwith Junction Bowling Club,Pub/bar/nightclub,7843,5,,39814,5,,,10030/2000/3/001,063,enquiries@bolsover.gov.uk,Bolsover,http://www.bolsover.gov.uk/,,,2008-07-09,fhrs_5_en-GB,5,,FHRS,5
46300,81 Langwith Road,Langwith Junction,Mansfield,,Langwith Junction Social Club,Pub/bar/nightclub,7843,5,,21016,5,,53.21067400000000,06710/0081/0/000,063,enquiries@bolsover.gov.uk,Bolsover,http://www.bolsover.gov.uk/,-1.21138000000000,NG20 9RN,2011-03-16,fhrs_5_en-GB,5,,FHRS,5
46301,8 East View,Langwith Junction,Mansfield,,Langwith Junction Stores,Retailers - other,4613,0,,28954,0,,53.21212900000000,09/00040/COMM,063,enquiries@bolsover.gov.uk,Bolsover,http://www.bolsover.gov.uk/,-1.21262600000000,NG20 9AA,2011-01-27,fhrs_5_en-GB,5,,FHRS,0
46302,Main Road,Langwith,Mansfield,,Langwith Premier Stores,Retailers - other,4613,0,,23968,0,,53.22764500000000,07180/2004/2/000,063,enquiries@bolsover.gov.uk,Bolsover,http://www.bolsover.gov.uk/,-1.20859700000000,NG20 9BH,2013-05-16,fhrs_5_en-GB,5,,FHRS,5
46303,,,,,Liberties,Mobile caterer,7846,5,,24947,5,,,08/00029/COMM,063,enquiries@bolsover.gov.uk,Bolsover,http://www.bolsover.gov.uk/,,,2010-05-24,fhrs_5_en-GB,5,,FHRS,5
46304,50 - 54 Elmton Road,Creswell,Worksop,,"Limestone House, Elmton And Creswell Village Company",Other catering premises,7841,5,,9925,5,,53.26242100000000,04/00088/COMM,063,enquiries@bolsover.gov.uk,Bolsover,http://www.bolsover.gov.uk/,-1.21774500000000,S80 4JE,2014-08-06,fhrs_5_en-GB,5,,FHRS,0
46305,225 Station Road,Shirebrook,Mansfield,,Lindas Cafe,Restaurant/Cafe/Canteen,1,0,,51843,5,,53.20404300000000,11650/0225/0/000,063,enquiries@bolsover.gov.uk,Bolsover,http://www.bolsover.gov.uk/,-1.21186100000000,NG20 8AF,2014-11-04,fhrs_5_en-GB,5,,FHRS,5
46306,108 Town Street,Pinxton,Nottingham,,Linda's Pantry,Takeaway/sandwich shop,7844,5,,732296,5,,53.09574200000000,14/00222/COMM,063,enquiries@bolsover.gov.uk,Bolsover,http://www.bolsover.gov.uk/,-1.31672000000000,NG16 6JP,2015-01-14,fhrs_5_en-GB,5,,FHRS,5
46307,,,,,Little C Design,Other catering premises,7841,0,,479935,0,,,11/00062/COMM,063,enquiries@bolsover.gov.uk,Bolsover,http://www.bolsover.gov.uk/,,,2011-08-24,fhrs_5_en-GB,5,,FHRS,0
46308,1 North Road,Clowne,Chesterfield,,Lloyds Pharmacy,Retailers - other,4613,,,606033,,,,13/00068/COMM,063,enquiries@bolsover.gov.uk,Bolsover,http://www.bolsover.gov.uk/,,S43 4LL,2013-07-22,fhrs_exempt_en-GB,Exempt,,FHRS,
46309,Main Street,Whaley Thorns,Mansfield,,London Stores,Retailers - other,4613,20,,23995,15,,53.23220900000000,07220/2004/2/000,063,enquiries@bolsover.gov.uk,Bolsover,http://www.bolsover.gov.uk/,-1.20419800000000,NG20 9HD,2014-11-11,fhrs_1_en-GB,1,,FHRS,15
46310,Main Street,Whaley Thorns,Mansfield,,Longwillow Sports And Social Club,Pub/bar/nightclub,7843,0,,23996,0,,53.23220900000000,07220/2005/2/000,063,enquiries@bolsover.gov.uk,Bolsover,http://www.bolsover.gov.uk/,-1.20419800000000,NG20 9HD,2013-03-25,fhrs_5_en-GB,5,,FHRS,0
46311,Wharf Road,Pinxton,Nottingham,,Longwood Community Infant School,School/college/university,7845,5,,60887,0,,53.08667800000000,13320/2004/2/000,063,enquiries@bolsover.gov.uk,Bolsover,http://www.bolsover.gov.uk/,-1.32246200000000,NG16 6PA,2012-02-22,fhrs_5_en-GB,5,,FHRS,0
46312,11 Mansfield Road,Hillstown,Bolsover,Chesterfield,Lotty's Kitchen,Restaurant/Cafe/Canteen,1,5,,684000,0,,53.22200700000000,14/00098/COMM,063,enquiries@bolsover.gov.uk,Bolsover,http://www.bolsover.gov.uk/,-1.28373900000000,S44 6LE,2014-06-02,fhrs_5_en-GB,5,,FHRS,5
46313,Luncheon Club,Ashbourne Court,Ashbourne Street,Shirebrook,Luncheon Club Ashbourne Court,Other catering premises,7841,5,,1670,5,,53.20354000000000,00350/2000/2/000,063,enquiries@bolsover.gov.uk,Bolsover,http://www.bolsover.gov.uk/,-1.21064200000000,NG20 8UA,2014-07-30,fhrs_5_en-GB,5,,FHRS,5
46314,88 Alfreton Road,South Normanton,Alfreton,,Lyn Croft,Hospitals/Childcare/Caring Premises,5,5,,25627,5,,53.10050300000000,08/00110/COMM,063,enquiries@bolsover.gov.uk,Bolsover,http://www.bolsover.gov.uk/,-1.35147400000000,DE55 2AS,2014-03-28,fhrs_5_en-GB,5,,FHRS,5
46315,142C Chesterfield Road,Shuttlewood,Chesterfield,Derbyshire,Lyndene,Retailers - other,4613,5,,7171,5,,53.24869400000000,02730/2005/2/000,063,enquiries@bolsover.gov.uk,Bolsover,http://www.bolsover.gov.uk/,-1.30322600000000,S44 6QN,2009-05-27,fhrs_5_en-GB,5,,FHRS,5
46316,,,,,M And L Catering,Mobile caterer,7846,0,,9534,0,,,04/00025/COMM,063,enquiries@bolsover.gov.uk,Bolsover,http://www.bolsover.gov.uk/,,,2013-05-08,fhrs_5_en-GB,5,,FHRS,0
46317,Mobile M And N Meats 19A Beauchamp,,,,M And N Meats,Retailers - other,4613,5,,62982,5,,,13943/8000/2/MOB,063,enquiries@bolsover.gov.uk,Bolsover,http://www.bolsover.gov.uk/,,,2009-04-17,fhrs_5_en-GB,5,,FHRS,5
46318,71 Langwith Road,Langwith Junction,Mansfield,,M And S News,Retailers - other,4613,5,,21015,5,,53.20869100000000,06710/0071/0/000,063,enquiries@bolsover.gov.uk,Bolsover,http://www.bolsover.gov.uk/,-1.21051800000000,NG20 9RP,2013-06-10,fhrs_5_en-GB,5,,FHRS,5
46319,,,,,Maddison 1,Mobile caterer,7846,0,,28550,0,,,09/00007/MOBILE,063,enquiries@bolsover.gov.uk,Bolsover,http://www.bolsover.gov.uk/,,,2012-03-15,fhrs_5_en-GB,5,,FHRS,0
46320,,,,,Maddison 2,Mobile caterer,7846,0,,28565,0,,,09/00008/MOBILE,063,enquiries@bolsover.gov.uk,Bolsover,http://www.bolsover.gov.uk/,,,2012-03-15,fhrs_5_en-GB,5,,FHRS,0
46321,,,,,Made To Take Away,Mobile caterer,7846,,,24970,,,,08/00031/COMM,063,enquiries@bolsover.gov.uk,Bolsover,http://www.bolsover.gov.uk/,,,2013-11-18,fhrs_exempt_en-GB,Exempt,,FHRS,
46322,5 Main Street,Carr Vale,Bolsover,Chesterfield,Mandarin House,Takeaway/sandwich shop,7844,5,,577028,5,,53.22483500000000,13/00071/COMM,063,enquiries@bolsover.gov.uk,Bolsover,http://www.bolsover.gov.uk/,-1.30271500000000,S44 6JF,2013-08-05,fhrs_5_en-GB,5,,FHRS,5
46323,The Range,Batley Lane,Pleasley,Mansfield,Mansfield And District Rifle And Pistol Club,Pub/bar/nightclub,7843,5,,2207,5,,53.16591300000000,00740/0001/2/000,063,enquiries@bolsover.gov.uk,Bolsover,http://www.bolsover.gov.uk/,-1.26124900000000,NG19 7QL,2009-03-12,fhrs_5_en-GB,5,,FHRS,5
46324,56 - 58 Victoria Street,Shirebrook,Mansfield,,Market Pharmacy,Retailers - other,4613,,,56667,,,53.20319100000000,12820/0058/2/000,063,enquiries@bolsover.gov.uk,Bolsover,http://www.bolsover.gov.uk/,-1.21341900000000,NG20 8AQ,2009-02-24,fhrs_exempt_en-GB,Exempt,,FHRS,
46325,229 Station Road,Shirebrook,Mansfield,,Market Place News,Retailers - other,4613,10,,51844,0,,53.20404300000000,11650/0229/0/000,063,enquiries@bolsover.gov.uk,Bolsover,http://www.bolsover.gov.uk/,-1.21186100000000,NG20 8AF,2011-02-15,fhrs_4_en-GB,4,,FHRS,0
46326,Units 40 - 42,East Midlands Designer Outlet,Mansfield Road,Pinxton,Marks And Spencer,Retailers - other,4613,,,24187,,,53.10676900000000,07485/0041/0/000,063,enquiries@bolsover.gov.uk,Bolsover,http://www.bolsover.gov.uk/,-1.31000300000000,DE55 2JW,2011-06-03,fhrs_exempt_en-GB,Exempt,,FHRS,
46327,,,,,MC Catering,Mobile caterer,7846,5,,28589,5,,,09/00010/MOBILE,063,enquiries@bolsover.gov.uk,Bolsover,http://www.bolsover.gov.uk/,,,2014-09-04,fhrs_5_en-GB,5,,FHRS,5
46328,McDonalds Restaurant Ltd,Berristow Lane,Berristow Lane Industrial Estate,South Normanton,McDonalds,Restaurant/Cafe/Canteen,1,0,,479943,0,,,12/00074/COMM,063,enquiries@bolsover.gov.uk,Bolsover,http://www.bolsover.gov.uk/,,DE55 2EG,2014-05-09,fhrs_5_en-GB,5,,FHRS,0
46329,Tibshelf Services M1 Southbound,Newtonwood Lane,Tibshelf,Alfreton,McDonalds,Restaurant/Cafe/Canteen,1,0,,395966,0,,53.13039200000000,12/00043/COMM,063,enquiries@bolsover.gov.uk,Bolsover,http://www.bolsover.gov.uk/,-1.34009900000000,DE55 5TX,2013-12-16,fhrs_5_en-GB,5,,FHRS,0
46330,2 Tallys End,Barlborough,Chesterfield,,McDonalds Restaurant Ltd,Restaurant/Cafe/Canteen,1,0,,62999,0,,53.28369400000000,13946/0002/2/000,063,enquiries@bolsover.gov.uk,Bolsover,http://www.bolsover.gov.uk/,-1.29206800000000,S43 4WP,2014-03-28,fhrs_5_en-GB,5,,FHRS,0
46331,Pebley Inn,Rotherham Road,Barlborough,Chesterfield,MDB Catering (Within The Pebley Inn),Restaurant/Cafe/Canteen,1,5,,45767,5,,53.30846700000000,11/00026/COMM,063,enquiries@bolsover.gov.uk,Bolsover,http://www.bolsover.gov.uk/,-1.28134800000000,S43 4TH,2014-10-17,fhrs_5_en-GB,5,,FHRS,5
46332,4 High Wood Way,Barlborough,Chesterfield,Derbyshire,Meadowfresh Of Chesterfield,Retailers - other,4613,5,,28707,5,,53.27974100000000,09/00020/COMM,063,enquiries@bolsover.gov.uk,Bolsover,http://www.bolsover.gov.uk/,-1.28184500000000,S43 4XN,2014-06-01,fhrs_5_en-GB,5,,FHRS,5
46333,Arrow Farm Shop,Worksop Road,Steetley,Worksop,Meadowfresh Of Chesterfield,Retailers - other,4613,5,,479945,5,,53.30210800000000,12/00080/COMM,063,enquiries@bolsover.gov.uk,Bolsover,http://www.bolsover.gov.uk/,-1.18700900000000,S80 3DZ,2014-06-26,fhrs_5_en-GB,5,,FHRS,5
46334,2 - 4 Alfreton Road,South Normanton,Alfreton,,Meteor Service Station,Retailers - other,4613,0,,1468,0,,53.10050300000000,00220/0002/0/000,063,enquiries@bolsover.gov.uk,Bolsover,http://www.bolsover.gov.uk/,-1.35147400000000,DE55 2AS,2011-08-10,fhrs_5_en-GB,5,,FHRS,0
46335,Cedar Park Drive,Bolsover,Chesterfield,,Millfield Care Home,Hospitals/Childcare/Caring Premises,5,5,,340054,5,,53.23078600000000,12/00023/COMM,063,enquiries@bolsover.gov.uk,Bolsover,http://www.bolsover.gov.uk/,-1.28007200000000,S44 6XP,2014-08-06,fhrs_5_en-GB,5,,FHRS,0
46336,96 - 98 Welbeck Street,Whitwell,Worksop,,Mini Market,Retailers - other,4613,5,,58532,5,,53.28344800000000,13000/0098/0/000,063,enquiries@bolsover.gov.uk,Bolsover,http://www.bolsover.gov.uk/,-1.20041200000000,S80 4TP,2014-10-21,fhrs_5_en-GB,5,,FHRS,5
46337,29 Gander Lane,Barlborough,Chesterfield,,MITIE Catering Services Ltd,Restaurant/Cafe/Canteen,1,5,,340050,5,,53.28148600000000,12/00014/COMM,063,enquiries@bolsover.gov.uk,Bolsover,http://www.bolsover.gov.uk/,-1.28655500000000,S43 4PZ,2013-11-04,fhrs_5_en-GB,5,,FHRS,5
46338,Unit B,Farmwell Lane,South Normanton,Alfreton,MITIE Catering Services Ltd,Restaurant/Cafe/Canteen,1,5,,550728,5,,53.10301200000000,12/00086/COMM,063,enquiries@bolsover.gov.uk,Bolsover,http://www.bolsover.gov.uk/,-1.31791900000000,DE55 2JX,2013-05-15,fhrs_5_en-GB,5,,FHRS,5
46339,,,,,Mobile C Clarke,Mobile caterer,7846,5,,62939,0,,,13932/0014/3/003,063,enquiries@bolsover.gov.uk,Bolsover,http://www.bolsover.gov.uk/,,,2010-10-07,fhrs_5_en-GB,5,,FHRS,5
46340,,,,,Mobile Collins Mobile Shop,Retailers - other,4613,5,,58214,5,,,12990/0022/0/000,063,enquiries@bolsover.gov.uk,Bolsover,http://www.bolsover.gov.uk/,,,2009-12-10,fhrs_5_en-GB,5,,FHRS,5
46341,,,,,Mobile KB Fruits,Retailers - other,4613,5,,62984,5,,,13943/8008/2/MOB,063,enquiries@bolsover.gov.uk,Bolsover,http://www.bolsover.gov.uk/,,,2009-03-13,fhrs_5_en-GB,5,,FHRS,5
46342,,,,,Mobile Kens Ice Cream Van,Retailers - other,4613,5,,14452,5,,,05/00003/MOBILE,063,enquiries@bolsover.gov.uk,Bolsover,http://www.bolsover.gov.uk/,,,2014-03-27,fhrs_5_en-GB,5,,FHRS,5
46343,,,,,Mobile Mark Byetheway Fruit And Veg,Retailers - other,4613,5,,9542,5,,,04/00026/COMM,063,enquiries@bolsover.gov.uk,Bolsover,http://www.bolsover.gov.uk/,,,2008-07-30,fhrs_5_en-GB,5,,FHRS,5
46344,,,,,Mobile Millenium Diner,Mobile caterer,7846,0,,62941,0,,,13932/0023/0/000,063,enquiries@bolsover.gov.uk,Bolsover,http://www.bolsover.gov.uk/,,,2012-10-04,fhrs_5_en-GB,5,,FHRS,0
46345,,,,,Mobile Richard Paling Fresh Fish,Retailers - other,4613,5,,9856,5,,,04/00075/COMM,063,enquiries@bolsover.gov.uk,Bolsover,http://www.bolsover.gov.uk/,,,2008-08-08,fhrs_5_en-GB,5,,FHRS,0
46346,,,,,Mobile Wynning Foods,Mobile caterer,7846,,,21275,,,,07/00004/MOBILE,063,enquiries@bolsover.gov.uk,Bolsover,http://www.bolsover.gov.uk/,,,2012-06-25,fhrs_exempt_en-GB,Exempt,,FHRS,
46347,4 The Colonade,Shirebrook,Mansfield,,Model Chippy,Takeaway/sandwich shop,7844,5,,340049,5,,53.19677700000000,12/00013/COMM,063,enquiries@bolsover.gov.uk,Bolsover,http://www.bolsover.gov.uk/,-1.21680000000000,NG20 8BL,2013-09-06,fhrs_5_en-GB,5,,FHRS,5
46348,5 The Colonade,Shirebrook,Mansfield,,Model Village Newsagent,Retailers - other,4613,5,,8857,0,,53.19677700000000,03380/0005/2/000,063,enquiries@bolsover.gov.uk,Bolsover,http://www.bolsover.gov.uk/,-1.21680000000000,NG20 8BL,2011-01-27,fhrs_5_en-GB,5,,FHRS,0
46349,Central Drive,Shirebrook,Mansfield,,Model Village Primary School,School/college/university,7845,0,,6684,5,,53.19851700000000,02390/2004/2/000,063,enquiries@bolsover.gov.uk,Bolsover,http://www.bolsover.gov.uk/,-1.21760600000000,NG20 8BQ,2014-02-07,fhrs_5_en-GB,5,,FHRS,5
46350,7B Rotherham Road,New Houghton,Mansfield,,Modis Newsagents,Retailers - other,4613,0,,42122,0,,53.18041000000000,10400/2017/2/000,063,enquiries@bolsover.gov.uk,Bolsover,http://www.bolsover.gov.uk/,-1.25513400000000,NG19 8TA,2013-11-20,fhrs_5_en-GB,5,,FHRS,0
46351,54 Moor Lane,Bolsover,Chesterfield,,Moor Lane Stores,Retailers - other,4613,0,,726274,0,,53.22751100000000,13/00032/COMM,063,enquiries@bolsover.gov.uk,Bolsover,http://www.bolsover.gov.uk/,-1.28255400000000,S44 6EW,2014-12-16,fhrs_5_en-GB,5,,FHRS,0
46352,82 - 84 Moorfield Avenue,Bolsover,Chesterfield,Derbyshire,Moorfield Stores,Retailers - other,4613,10,,27629,5,,53.22619000000000,08120/0082/0/000,063,enquiries@bolsover.gov.uk,Bolsover,http://www.bolsover.gov.uk/,-1.28118300000000,S44 6EL,2011-07-27,fhrs_4_en-GB,4,,FHRS,0
46353,92 - 94 Elmton Road,Creswell,Worksop,,Mr Lalas,Takeaway/sandwich shop,7844,5,,619178,5,,53.26167000000000,13/00097/COMM,063,enquiries@bolsover.gov.uk,Bolsover,http://www.bolsover.gov.uk/,-1.21970800000000,S80 4DE,2013-11-14,fhrs_5_en-GB,5,,FHRS,5
46354,,,,,Mrs Cooper Cakes,Other catering premises,7841,5,,46074,5,,,11/00045/COMM,063,enquiries@bolsover.gov.uk,Bolsover,http://www.bolsover.gov.uk/,,,2011-06-07,fhrs_5_en-GB,5,,FHRS,5
46355,,,,,Muffin Man,Other catering premises,7841,5,,726273,5,,,13/00026/COMM,063,enquiries@bolsover.gov.uk,Bolsover,http://www.bolsover.gov.uk/,,,2014-12-02,fhrs_5_en-GB,5,,FHRS,0
46356,41 Mill Street,Clowne,Chesterfield,Derbyshire,Mughal Kashmir,Takeaway/sandwich shop,7844,5,,24643,0,,53.27441700000000,07990/0041/0/000,063,enquiries@bolsover.gov.uk,Bolsover,http://www.bolsover.gov.uk/,-1.26365400000000,S43 4JN,2013-03-25,fhrs_5_en-GB,5,,FHRS,0
46357,Multi Sports Arena Pavilion,Model Village,Creswell,Derbyshire,Multi Sports Arena Pavillion,Restaurant/Cafe/Canteen,1,,,340045,,,,11/00055/COMM,063,enquiries@bolsover.gov.uk,Bolsover,http://www.bolsover.gov.uk/,,,2011-06-15,fhrs_exempt_en-GB,Exempt,,FHRS,
46358,Chesterfield Road,Pleasley,Mansfield,,Nags Head Hotel,Pub/bar/nightclub,7843,0,,7163,0,,53.17241900000000,02720/2032/2/000,063,enquiries@bolsover.gov.uk,Bolsover,http://www.bolsover.gov.uk/,-1.24650600000000,NG19 7PA,2011-03-21,fhrs_5_en-GB,5,,FHRS,0
46359,North Road,Clowne,Chesterfield,,Nags Head Hotel,Pub/bar/nightclub,7843,5,,25565,5,,53.27571300000000,08/00101/COMM,063,enquiries@bolsover.gov.uk,Bolsover,http://www.bolsover.gov.uk/,-1.26246200000000,S43 4JH,2010-07-26,fhrs_5_en-GB,5,,FHRS,0
46360,Park Avenue,Shirebrook,Mansfield,,New Bassett House,Hospitals/Childcare/Caring Premises,5,0,,31895,5,,53.20434900000000,09030/2000/2/000,063,enquiries@bolsover.gov.uk,Bolsover,http://www.bolsover.gov.uk/,-1.22009000000000,NG20 8JW,2014-07-23,fhrs_5_en-GB,5,,FHRS,5
46361,New Station Road,Bolsover,Chesterfield,Derbyshire,New Bolsover Primary School,School/college/university,7845,0,,27953,0,,53.22744600000000,08380/2004/2/000,063,enquiries@bolsover.gov.uk,Bolsover,http://www.bolsover.gov.uk/,-1.30199800000000,S44 6PY,2010-10-06,fhrs_5_en-GB,5,,FHRS,0
46362,27 Carr Vale Road,Carr Vale,Bolsover,Chesterfield,New Bolsover Social Club,Pub/bar/nightclub,7843,5,,6412,0,,53.22591400000000,02170/2002/2/000,063,enquiries@bolsover.gov.uk,Bolsover,http://www.bolsover.gov.uk/,-1.30277200000000,S44 6JD,2011-02-17,fhrs_5_en-GB,5,,FHRS,5
46363,Ringer Villa Farm,Ringer Lane,Clowne,Chesterfield,New Direction Inclusive Education,School/college/university,7845,5,,41097,5,,53.26958300000000,10210/2000/2/000,063,enquiries@bolsover.gov.uk,Bolsover,http://www.bolsover.gov.uk/,-1.26259700000000,S43 4BX,2009-02-11,fhrs_5_en-GB,5,,FHRS,5
46364,Rotherham Road,New Houghton,Mansfield,,New Houghton Working Mens Club,Pub/bar/nightclub,7843,5,,42120,10,,53.18287500000000,10400/2014/2/000,063,enquiries@bolsover.gov.uk,Bolsover,http://www.bolsover.gov.uk/,-1.25543600000000,NG19 8TD,2011-07-04,fhrs_4_en-GB,4,,FHRS,5
46365,57 Main Street,Newton,Alfreton,Derbyshire,Newton Alfreton Post Office,Retailers - other,4613,5,,24010,0,,53.13113100000000,07240/0057/2/000,063,enquiries@bolsover.gov.uk,Bolsover,http://www.bolsover.gov.uk/,-1.34038600000000,DE55 5TE,2010-11-16,fhrs_5_en-GB,5,,FHRS,5
46366,Main Street,Newton,Alfreton,,Newton Community Centre,Other catering premises,7841,5,,24012,5,,53.13113100000000,07240/2000/2/000,063,enquiries@bolsover.gov.uk,Bolsover,http://www.bolsover.gov.uk/,-1.34038600000000,DE55 5TE,2009-03-26,fhrs_5_en-GB,5,,FHRS,5
46367,Main Street,Newton,Alfreton,Derbyshire,Newton Methodist Church,Other catering premises,7841,5,,24015,5,,53.13113100000000,07240/2002/2/000,063,enquiries@bolsover.gov.uk,Bolsover,http://www.bolsover.gov.uk/,-1.34038600000000,DE55 5TE,2011-07-15,fhrs_5_en-GB,5,,FHRS,0
46368,Hall Lane,Newton,Alfreton,,Newton Nursery,Hospitals/Childcare/Caring Premises,5,0,,25788,0,,53.12924100000000,08/00134/COMM,063,enquiries@bolsover.gov.uk,Bolsover,http://www.bolsover.gov.uk/,-1.33838300000000,DE55 5TL,2013-12-09,fhrs_5_en-GB,5,,FHRS,0
46369,Hall Lane,Newton,Alfreton,Derbyshire,Newton Primary School,School/college/university,7845,5,,16697,5,,53.12924100000000,05210/2000/2/000,063,enquiries@bolsover.gov.uk,Bolsover,http://www.bolsover.gov.uk/,-1.33838300000000,DE55 5TL,2014-12-01,fhrs_5_en-GB,5,,FHRS,0
46370,115 Langwith Road,Langwith Junction,Mansfield,,Next Generation Day Nursery,Hospitals/Childcare/Caring Premises,5,10,,14708,10,,53.21067400000000,05/00042/COMM,063,enquiries@bolsover.gov.uk,Bolsover,http://www.bolsover.gov.uk/,-1.21138000000000,NG20 9RN,2014-06-17,fhrs_3_en-GB,3,,FHRS,10
46371,,,,,Nice Buns Great Baps,Mobile caterer,7846,,,550729,,,,13/00009/COMM,063,enquiries@bolsover.gov.uk,Bolsover,http://www.bolsover.gov.uk/,,,2013-05-15,fhrs_exempt_en-GB,Exempt,,FHRS,
46372,23 High View Road,South Normanton,Alfreton,,Norbert Dentressangle,Restaurant/Cafe/Canteen,1,5,,46360,5,,53.11028300000000,11/00061/COMM,063,enquiries@bolsover.gov.uk,Bolsover,http://www.bolsover.gov.uk/,-1.32389900000000,DE55 2DT,2014-03-27,fhrs_5_en-GB,5,,FHRS,5
46373,75 Mansfield Road,South Normanton,Alfreton,,Normanton Lodge Residential Home,Hospitals/Childcare/Caring Premises,5,5,,24181,0,,53.10998200000000,07480/0075/2/000,063,enquiries@bolsover.gov.uk,Bolsover,http://www.bolsover.gov.uk/,-1.31522500000000,DE55 2EF,2014-10-29,fhrs_5_en-GB,5,,FHRS,0
46374,32 Welbeck Road,Bolsover,Chesterfield,Derbyshire,North Star Club,Pub/bar/nightclub,7843,5,,57876,5,,53.23031600000000,12960/0032/0/000,063,enquiries@bolsover.gov.uk,Bolsover,http://www.bolsover.gov.uk/,-1.28873900000000,S44 6DE,2010-03-12,fhrs_4_en-GB,4,,FHRS,10
46375,Oaklands Care Centre,North Street,Whaley Thorns,Mansfield,Oaklands Care Home - HC-One,Hospitals/Childcare/Caring Premises,5,0,,28107,5,,53.23435500000000,08590/2000/2/000,063,enquiries@bolsover.gov.uk,Bolsover,http://www.bolsover.gov.uk/,-1.20657100000000,NG20 9BN,2014-02-28,fhrs_5_en-GB,5,,FHRS,5
46376,Dover Street,Creswell,Worksop,,Old Comrades Social Club,Pub/bar/nightclub,7843,5,,13425,0,,53.26415600000000,04080/0000/2/000,063,enquiries@bolsover.gov.uk,Bolsover,http://www.bolsover.gov.uk/,-1.21504500000000,S80 4EZ,2009-05-06,fhrs_5_en-GB,5,,FHRS,0
46377,9 Main Street,Carr Vale,Bolsover,Chesterfield,One Stop Shop,Retailers - supermarkets/hypermarkets,7840,0,,25381,0,,53.22483500000000,08/00077/COMM,063,enquiries@bolsover.gov.uk,Bolsover,http://www.bolsover.gov.uk/,-1.30271500000000,S44 6JF,2011-05-25,fhrs_5_en-GB,5,,FHRS,0
46378,,,,,Only Foods And Sauces,Mobile caterer,7846,0,,486704,0,,,12/00010/MOBILE,063,enquiries@bolsover.gov.uk,Bolsover,http://www.bolsover.gov.uk/,,,2012-10-04,fhrs_5_en-GB,5,,FHRS,0
46379,,,,,Ooh La La Cupcakes,Other catering premises,7841,5,,695987,5,,,13/00082/COMM,063,enquiries@bolsover.gov.uk,Bolsover,http://www.bolsover.gov.uk/,,,2014-08-18,fhrs_5_en-GB,5,,FHRS,5
46380,14 Market Place,Bolsover,Chesterfield,,Oven Door,Manufacturers/packers,7839,5,,24271,0,,53.22961400000000,07560/0014/0/000,063,enquiries@bolsover.gov.uk,Bolsover,http://www.bolsover.gov.uk/,-1.29161200000000,S44 6PH,2014-04-30,fhrs_5_en-GB,5,,FHRS,5
46381,30 Mill Street,Clowne,Chesterfield,Derbyshire,Oven Door,Retailers - other,4613,5,,24641,5,,53.27441700000000,07990/0030/0/000,063,enquiries@bolsover.gov.uk,Bolsover,http://www.bolsover.gov.uk/,-1.26365400000000,S43 4JN,2014-03-06,fhrs_5_en-GB,5,,FHRS,5
46382,Clowne Road,Stanfree,Chesterfield,,Oxcroft Miners Welfare,Pub/bar/nightclub,7843,10,,8770,10,,53.25936500000000,03270/2003/2/000,063,enquiries@bolsover.gov.uk,Bolsover,http://www.bolsover.gov.uk/,-1.29272400000000,S44 6AG,2014-12-17,fhrs_3_en-GB,3,,FHRS,10
46383,129 Market Street,South Normanton,Alfreton,Derbyshire,P And M News,Retailers - other,4613,5,,24324,5,,53.10447500000000,07600/0129/0/000,063,enquiries@bolsover.gov.uk,Bolsover,http://www.bolsover.gov.uk/,-1.34310900000000,DE55 2AA,2014-11-22,fhrs_5_en-GB,5,,FHRS,5
46384,,,,,P Hessey (S/Brook Friday),Retailers - other,4613,5,,62987,0,,,13943/8018/2/MOB,063,enquiries@bolsover.gov.uk,Bolsover,http://www.bolsover.gov.uk/,,,2009-04-17,fhrs_5_en-GB,5,,FHRS,0
46385,1 The Colonade,Shirebrook,Mansfield,,Padda Retail,Retailers - other,4613,5,,24895,5,,53.19677700000000,08/00024/COMM,063,enquiries@bolsover.gov.uk,Bolsover,http://www.bolsover.gov.uk/,-1.21680000000000,NG20 8BL,2013-10-31,fhrs_5_en-GB,5,,FHRS,5
46386,Back Lane,Palterton,Chesterfield,,Palterton Miners Welfare,Pub/bar/nightclub,7843,0,,1982,0,,53.21087000000000,00530/2000/2/000,063,enquiries@bolsover.gov.uk,Bolsover,http://www.bolsover.gov.uk/,-1.28967500000000,S44 6UN,2011-03-10,fhrs_5_en-GB,5,,FHRS,0
46387,Back Lane,Palterton,Chesterfield,,Palterton Primary School,School/college/university,7845,0,,1983,0,,53.21087000000000,00530/2007/2/000,063,enquiries@bolsover.gov.uk,Bolsover,http://www.bolsover.gov.uk/,-1.28967500000000,S44 6UN,2012-07-10,fhrs_5_en-GB,5,,FHRS,0
46388,Park Infant And Nursery School,Orchard Close,Shirebrook,Mansfield,"Park Infant, Nursery And Junior School",School/college/university,7845,0,,28341,0,,53.20783700000000,08870/2000/2/000,063,enquiries@bolsover.gov.uk,Bolsover,http://www.bolsover.gov.uk/,-1.22013200000000,NG20 8JX,2013-09-11,fhrs_5_en-GB,5,,FHRS,5
46389,,,,,Patty Cakes,Other catering premises,7841,0,,732297,0,,,15/00001/COMM,063,enquiries@bolsover.gov.uk,Bolsover,http://www.bolsover.gov.uk/,,,2015-01-14,fhrs_5_en-GB,5,,FHRS,0
46390,Pebley Inn,Rotherham Road,Barlborough,Chesterfield,Pebley Inn (Public House Only),Pub/bar/nightclub,7843,5,,2127,0,,53.30846700000000,00660/2002/2/000,063,enquiries@bolsover.gov.uk,Bolsover,http://www.bolsover.gov.uk/,-1.28134800000000,S43 4TH,2011-03-23,fhrs_5_en-GB,5,,FHRS,0
46391,1 Pennygreen Cottages,Millash Lane,Whitwell,Worksop,Pennygreen Tea Garden,Restaurant/Cafe/Canteen,1,5,,45557,5,,53.27483400000000,11/00014/COMM,063,enquiries@bolsover.gov.uk,Bolsover,http://www.bolsover.gov.uk/,-1.18811100000000,S80 4XW,2011-05-25,fhrs_4_en-GB,4,,FHRS,10
46392,29 Church Street,South Normanton,Alfreton,,Peppers Take Away,Takeaway/sandwich shop,7844,20,,46430,15,,53.10799400000000,11/00065/COMM,063,enquiries@bolsover.gov.uk,Bolsover,http://www.bolsover.gov.uk/,-1.33906700000000,DE55 2BT,2014-09-16,fhrs_1_en-GB,1,,FHRS,15
46393,42 Brookhill Industrial Estate,Brookhill Road,Pinxton,Nottingham,Perfect Pastries Ltd,Manufacturers/packers,7839,5,,695989,5,,53.08979200000000,14/00073/COMM,063,enquiries@bolsover.gov.uk,Bolsover,http://www.bolsover.gov.uk/,-1.31373800000000,NG16 6NT,2014-08-12,fhrs_5_en-GB,5,,FHRS,5
46394,Tibshelf Services M1 Northbound,Newtonwood Lane,Tibshelf,Alfreton,Petroshell Ltd,Retailers - other,4613,0,,448491,0,,53.13039200000000,12/00064/COMM,063,enquiries@bolsover.gov.uk,Bolsover,http://www.bolsover.gov.uk/,-1.34009900000000,DE55 5TX,2014-03-17,fhrs_5_en-GB,5,,FHRS,0
46395,Tibshelf Services M1 Southbound,Newtonwood Lane,Tibshelf,Alfreton,Petroshell Ltd,Retailers - other,4613,0,,448492,0,,53.13039200000000,12/00065/COMM,063,enquiries@bolsover.gov.uk,Bolsover,http://www.bolsover.gov.uk/,-1.34009900000000,DE55 5TX,2014-03-17,fhrs_5_en-GB,5,,FHRS,0
46396,15 Castle Street,Bolsover,Chesterfield,,Pillar Of Rock,Pub/bar/nightclub,7843,5,,586657,5,,53.22940200000000,13/00036/COMM,063,enquiries@bolsover.gov.uk,Bolsover,http://www.bolsover.gov.uk/,-1.29366800000000,S44 6PP,2013-08-07,fhrs_5_en-GB,5,,FHRS,5
46397,,,,,Pink Pomegranate Cakes,Other catering premises,7841,0,,557738,0,,,13/00041/COMM,063,enquiries@bolsover.gov.uk,Bolsover,http://www.bolsover.gov.uk/,,,2013-05-24,fhrs_5_en-GB,5,,FHRS,0
46398,,,,,Pinky's,Mobile caterer,7846,0,,569824,0,,,13/00017/MOBILE,063,enquiries@bolsover.gov.uk,Bolsover,http://www.bolsover.gov.uk/,,,2013-06-06,fhrs_5_en-GB,5,,FHRS,0
46399,64A Town Street,Pinxton,Nottingham,,Pinxton Convenience Stores,Retailers - other,4613,5,,448488,5,,53.09454100000000,12/00048/COMM,063,enquiries@bolsover.gov.uk,Bolsover,http://www.bolsover.gov.uk/,-1.31415500000000,NG16 6HN,2014-10-17,fhrs_5_en-GB,5,,FHRS,5
46400,Church Street West,Pinxton,Nottingham,,Pinxton Manor Nursing Home,Hospitals/Childcare/Caring Premises,5,5,,8594,5,,,03070/2007/2/000,063,enquiries@bolsover.gov.uk,Bolsover,http://www.bolsover.gov.uk/,,NG16 6NV,2014-11-19,fhrs_5_en-GB,5,,FHRS,5
46401,Kirkstead Road,Pinxton,Nottingham,,Pinxton Nursery School,School/college/university,7845,0,,20895,0,,53.09147800000000,06560/2003/2/000,063,enquiries@bolsover.gov.uk,Bolsover,http://www.bolsover.gov.uk/,-1.31922100000000,NG16 6NA,2013-03-09,fhrs_5_en-GB,5,,FHRS,0
46402,78 Victoria Road,Pinxton,Nottingham,,Pinxton Pharmacy,Retailers - other,4613,,,56544,,,53.09222100000000,12790/0078/0/000,063,enquiries@bolsover.gov.uk,Bolsover,http://www.bolsover.gov.uk/,-1.31714900000000,NG16 6NE,2009-02-19,fhrs_exempt_en-GB,Exempt,,FHRS,
46403,3 Kirkstead Road,Pinxton,Nottingham,,Pinxton Village Hall,Other catering premises,7841,,,20884,,,53.09147800000000,06560/0003/0/000,063,enquiries@bolsover.gov.uk,Bolsover,http://www.bolsover.gov.uk/,-1.31922100000000,NG16 6NA,2009-03-18,fhrs_exempt_en-GB,Exempt,,FHRS,
46404,40 Church Street West,Pinxton,Nottingham,,Pinxton Village Stores,Retailers - other,4613,5,,718647,5,,53.09306000000000,14/00151/COMM,063,enquiries@bolsover.gov.uk,Bolsover,http://www.bolsover.gov.uk/,-1.31931600000000,NG16 6NB,2014-11-25,fhrs_5_en-GB,5,,FHRS,5
46405,Wharf Road,Pinxton,Nottingham,,Pinxton Welfare Social Club,Pub/bar/nightclub,7843,5,,60886,5,,53.08809500000000,13320/2003/2/000,063,enquiries@bolsover.gov.uk,Bolsover,http://www.bolsover.gov.uk/,-1.32032000000000,NG16 6LG,2014-06-17,fhrs_5_en-GB,5,,FHRS,5
46406,Carter Lane East,South Normanton,Alfreton,,Pit Stop Cafe,Restaurant/Cafe/Canteen,1,5,,6435,5,,53.10521300000000,02191/0151/3/006,063,enquiries@bolsover.gov.uk,Bolsover,http://www.bolsover.gov.uk/,-1.32239500000000,DE55 2DY,2013-09-03,fhrs_4_en-GB,4,,FHRS,10
46407,28 Mill Street,Clowne,Chesterfield,,Pizza Club,Takeaway/sandwich shop,7844,10,,340055,0,,53.27441700000000,12/00028/COMM,063,enquiries@bolsover.gov.uk,Bolsover,http://www.bolsover.gov.uk/,-1.26365400000000,S43 4JN,2013-03-25,fhrs_4_en-GB,4,,FHRS,0
46408,38 Market Place,Bolsover,Chesterfield,,Pizza Hot,Takeaway/sandwich shop,7844,20,,24276,15,,53.22929300000000,07560/0038/0/001,063,enquiries@bolsover.gov.uk,Bolsover,http://www.bolsover.gov.uk/,-1.29209600000000,S44 6PN,2014-03-27,fhrs_1_en-GB,1,,FHRS,10
46409,3 Station Road,Whitwell,Worksop,,Pizza Time,Takeaway/sandwich shop,7844,10,,30212,10,,53.28356200000000,09/00162/COMM,063,enquiries@bolsover.gov.uk,Bolsover,http://www.bolsover.gov.uk/,-1.20530000000000,S80 4RT,2013-09-24,fhrs_3_en-GB,3,,FHRS,10
46410,41B Mill Street,Clowne,Chesterfield,,Pizza Top,Takeaway/sandwich shop,7844,10,,33877,5,,53.27441700000000,10/00072/COMM,063,enquiries@bolsover.gov.uk,Bolsover,http://www.bolsover.gov.uk/,-1.26365400000000,S43 4JN,2013-09-23,fhrs_3_en-GB,3,,FHRS,10
46411,Chesterfield Road,Pleasley,Mansfield,Nottinghamshire,Pleasley Miners Institute,Pub/bar/nightclub,7843,5,,7162,5,,53.17447800000000,02720/2010/2/000,063,enquiries@bolsover.gov.uk,Bolsover,http://www.bolsover.gov.uk/,-1.25091300000000,NG19 7PD,2008-08-14,fhrs_5_en-GB,5,,FHRS,5
46412,Pit Lane,Pleasley,,,Pleasley Pit Trust,Restaurant/Cafe/Canteen,1,0,,479941,5,,,12/00071/COMM,063,enquiries@bolsover.gov.uk,Bolsover,http://www.bolsover.gov.uk/,,,2014-03-21,fhrs_5_en-GB,5,,FHRS,5
46413,74 Victoria Street,Shirebrook,Mansfield,,Polish Butchery,Retailers - other,4613,5,,624839,10,,53.20319100000000,13/00001/COMM,063,enquiries@bolsover.gov.uk,Bolsover,http://www.bolsover.gov.uk/,-1.21341900000000,NG20 8AQ,2013-10-10,fhrs_4_en-GB,4,,FHRS,5
46414,South Normanton Community Centre,Market Street,South Normanton,Alfreton,Post Mill Centre,Restaurant/Cafe/Canteen,1,5,,24326,5,,53.10476800000000,07600/2005/2/000,063,enquiries@bolsover.gov.uk,Bolsover,http://www.bolsover.gov.uk/,-1.34240300000000,DE55 2EJ,2012-08-13,fhrs_5_en-GB,5,,FHRS,0
46415,,,,,Princesses Buffets And Catering,Other catering premises,7841,5,,586661,0,,,13/00074/COMM,063,enquiries@bolsover.gov.uk,Bolsover,http://www.bolsover.gov.uk/,,,2013-08-28,fhrs_5_en-GB,5,,FHRS,0
46416,,,,,Purple Berry Cup Cakes,Other catering premises,7841,0,,448490,0,,,12/00057/COMM,063,enquiries@bolsover.gov.uk,Bolsover,http://www.bolsover.gov.uk/,,,2012-08-09,fhrs_5_en-GB,5,,FHRS,0
46417,21 Berristow Lane,Berristow Lane Industrial Estate,South Normanton,Alfreton,Radius Systems Canteen,Other catering premises,7841,5,,2416,5,,,00895/0021/0/000,063,enquiries@bolsover.gov.uk,Bolsover,http://www.bolsover.gov.uk/,,DE55 5JD,2014-09-24,fhrs_5_en-GB,5,,FHRS,5
46418,,,,,Ready Steady Cook,Mobile caterer,7846,0,,62990,0,,,13943/8032/2/MOB,063,enquiries@bolsover.gov.uk,Bolsover,http://www.bolsover.gov.uk/,,,2012-10-04,fhrs_5_en-GB,5,,FHRS,0
46419,,,,,Redhot And Saucy,Mobile caterer,7846,,,21286,,,,07/00005/MOBILE,063,enquiries@bolsover.gov.uk,Bolsover,http://www.bolsover.gov.uk/,,,2011-02-28,fhrs_exempt_en-GB,Exempt,,FHRS,
46420,5 Elmton Road,Creswell,Worksop,,Regors Bingo And Social Club,Pub/bar/nightclub,7843,5,,13755,5,,53.26309100000000,04370/0005/0/000,063,enquiries@bolsover.gov.uk,Bolsover,http://www.bolsover.gov.uk/,-1.21445000000000,S80 4HD,2008-07-16,fhrs_5_en-GB,5,,FHRS,5
46421,Richmond Care Home,Recreation Road,Shirebrook,Mansfield,Richmond Residential Care Home,Hospitals/Childcare/Caring Premises,5,0,,39933,0,,53.20904500000000,10050/2000/2/000,063,enquiries@bolsover.gov.uk,Bolsover,http://www.bolsover.gov.uk/,-1.22609900000000,NG20 8QE,2013-08-13,fhrs_5_en-GB,5,,FHRS,5
46422,RoadChef,Tibshelf Services M1 Northbound,Newtonwood Lane,Tibshelf,Roadchef (M1 Northbound),Restaurant/Cafe/Canteen,1,0,,28015,0,,53.13039200000000,08480/2000/4/0N2,063,enquiries@bolsover.gov.uk,Bolsover,http://www.bolsover.gov.uk/,-1.34009900000000,DE55 5TX,2013-12-16,fhrs_5_en-GB,5,,FHRS,5
46423,RoadChef,Tibshelf Services M1 Southbound,Newtonwood Lane,Tibshelf,Roadchef (M1 Southbound),Restaurant/Cafe/Canteen,1,0,,28019,5,,53.13039200000000,08480/2000/4/0S2,063,enquiries@bolsover.gov.uk,Bolsover,http://www.bolsover.gov.uk/,-1.34009900000000,DE55 5TX,2013-12-16,fhrs_5_en-GB,5,,FHRS,0
46424,62 Victoria Street,Shirebrook,Mansfield,,Robert Bowring,Retailers - other,4613,5,,56669,0,,53.20319100000000,12820/0062/0/000,063,enquiries@bolsover.gov.uk,Bolsover,http://www.bolsover.gov.uk/,-1.21341900000000,NG20 8AQ,2013-03-27,fhrs_4_en-GB,4,,FHRS,10
46425,34 Market Place,Bolsover,Chesterfield,,Robert Bowrings Butchers,Retailers - other,4613,5,,24275,5,,53.22929300000000,07560/0034/0/000,063,enquiries@bolsover.gov.uk,Bolsover,http://www.bolsover.gov.uk/,-1.29209600000000,S44 6PN,2014-03-27,fhrs_4_en-GB,4,,FHRS,10
46426,,,,,Roper's Honey,Retailers - other,4613,5,,25748,5,,,08/00127/COMM,063,enquiries@bolsover.gov.uk,Bolsover,http://www.bolsover.gov.uk/,,,2012-11-07,fhrs_5_en-GB,5,,FHRS,0
46427,High Street,Barlborough,Chesterfield,,Rose And Crown,Pub/bar/nightclub,7843,0,,427658,0,,53.29058400000000,12/00056/COMM,063,enquiries@bolsover.gov.uk,Bolsover,http://www.bolsover.gov.uk/,-1.28815900000000,S43 4ET,2012-06-20,fhrs_5_en-GB,5,,FHRS,0
46428,203 Warren Terrace,Main Street,Shirebrook,Mansfield,Roses Main Stop,Retailers - other,4613,5,,410374,5,,53.20027300000000,12/00047/COMM,063,enquiries@bolsover.gov.uk,Bolsover,http://www.bolsover.gov.uk/,-1.22917600000000,NG20 8DT,2012-06-07,fhrs_5_en-GB,5,,FHRS,0
46429,2 Town End,Bolsover,Chesterfield,Derbyshire,Rowlands Pharmacy,Retailers - other,4613,,,55714,,,53.22919100000000,12580/0002/0/000,063,enquiries@bolsover.gov.uk,Bolsover,http://www.bolsover.gov.uk/,-1.28998600000000,S44 6DT,2008-12-04,fhrs_exempt_en-GB,Exempt,,FHRS,
46430,9 - 11 Patchwork Row,Shirebrook,Mansfield,,Rowlands Pharmacy,Retailers - other,4613,,,14629,,,53.20299600000000,05/00030/COMM,063,enquiries@bolsover.gov.uk,Bolsover,http://www.bolsover.gov.uk/,-1.21394700000000,NG20 8AL,2009-11-25,fhrs_exempt_en-GB,Exempt,,FHRS,
46431,20 High Street,Tibshelf,Alfreton,,Royal Oak,Pub/bar/nightclub,7843,0,,45969,0,,53.13910100000000,11/00039/COMM,063,enquiries@bolsover.gov.uk,Bolsover,http://www.bolsover.gov.uk/,-1.34784300000000,DE55 5NY,2013-03-27,fhrs_5_en-GB,5,,FHRS,0
46432,71 Bakestone Moor,Whitwell,Worksop,,Royal Oak,Pub/bar/nightclub,7843,0,,2025,0,,53.28059900000000,00580/0071/2/000,063,enquiries@bolsover.gov.uk,Bolsover,http://www.bolsover.gov.uk/,-1.21543300000000,S80 4QB,2011-08-01,fhrs_5_en-GB,5,,FHRS,5
46433,Royal Oak Inn,High Street,Barlborough,Chesterfield,Royal Oak,Pub/bar/nightclub,7843,5,,732291,5,,53.29013700000000,14/00144/COMM,063,enquiries@bolsover.gov.uk,Bolsover,http://www.bolsover.gov.uk/,-1.29014600000000,S43 4EU,2015-01-13,fhrs_5_en-GB,5,,FHRS,5
46434,68 - 70 Recreation Road,Shirebrook,Mansfield,,S And G Inflatables,Mobile caterer,7846,,,695990,,,53.20946900000000,14/00142/COMM,063,enquiries@bolsover.gov.uk,Bolsover,http://www.bolsover.gov.uk/,-1.22230300000000,NG20 8JY,2014-07-16,fhrs_exempt_en-GB,Exempt,,FHRS,
46435,Post Mill Centre,Market Street,South Normanton,Alfreton,S B Catering Within Post Mill Centre,Restaurant/Cafe/Canteen,1,10,,34810,0,,53.10476800000000,10/00157/COMM,063,enquiries@bolsover.gov.uk,Bolsover,http://www.bolsover.gov.uk/,-1.34240300000000,DE55 2EJ,2012-03-09,fhrs_4_en-GB,4,,FHRS,5
46436,75 Hill Top,Bolsover,Chesterfield,Derbyshire,Saint Elkas,Other catering premises,7841,0,,486703,0,,53.23400500000000,09/00233/COMM,063,enquiries@bolsover.gov.uk,Bolsover,http://www.bolsover.gov.uk/,-1.29533000000000,S44 6NJ,2009-12-02,fhrs_5_en-GB,5,,FHRS,0
46437,8 Market Place,South Normanton,Alfreton,,Salvation Army Care And Share Centre,Retailers - other,4613,,,24287,,,53.10631500000000,07580/0008/0/000,063,enquiries@bolsover.gov.uk,Bolsover,http://www.bolsover.gov.uk/,-1.34258800000000,DE55 2BN,2010-10-19,fhrs_exempt_en-GB,Exempt,,FHRS,
46438,124A Market Street,South Normanton,Alfreton,,Salvation Army Community Outreach Centre,Restaurant/Cafe/Canteen,1,0,,643726,5,,53.10476800000000,13/00010/COMM,063,enquiries@bolsover.gov.uk,Bolsover,http://www.bolsover.gov.uk/,-1.34240300000000,DE55 2EJ,2014-03-20,fhrs_5_en-GB,5,,FHRS,0
46439,24 Elmton Road,Creswell,Worksop,,Sandra's,Retailers - other,4613,,,340052,,,53.26370500000000,12/00018/COMM,063,enquiries@bolsover.gov.uk,Bolsover,http://www.bolsover.gov.uk/,-1.21349400000000,S80 4ES,2012-02-22,fhrs_exempt_en-GB,Exempt,,FHRS,
46440,41A Mill Street,Clowne,Chesterfield,,Sandros,Restaurant/Cafe/Canteen,1,5,,24884,5,,53.27441700000000,08/00023/COMM,063,enquiries@bolsover.gov.uk,Bolsover,http://www.bolsover.gov.uk/,-1.26365400000000,S43 4JN,2014-03-25,fhrs_4_en-GB,4,,FHRS,10
46441,1 Saw Pit Industrial Estate,Tibshelf,Alfreton,,SAPA Limited,Retailers - other,4613,,,43646,,,53.14477700000000,10610/2003/2/000,063,enquiries@bolsover.gov.uk,Bolsover,http://www.bolsover.gov.uk/,-1.32449400000000,DE55 5NQ,2009-09-24,fhrs_exempt_en-GB,Exempt,,FHRS,
46442,,,,,Sarah Louise Eggleston,Other catering premises,7841,0,,664063,0,,,14/00012/COMM,063,enquiries@bolsover.gov.uk,Bolsover,http://www.bolsover.gov.uk/,,,2014-03-14,fhrs_5_en-GB,5,,FHRS,0
46443,44 Market Place,Bolsover,Chesterfield,Derbyshire,Scarcliffe Nurseries,Retailers - other,4613,5,,24278,5,,53.22929300000000,07560/0044/0/000,063,enquiries@bolsover.gov.uk,Bolsover,http://www.bolsover.gov.uk/,-1.29209600000000,S44 6PN,2009-04-07,fhrs_5_en-GB,5,,FHRS,5
46444,Fox Hill,Scarcliffe,Chesterfield,,Scarcliffe Primary School,School/college/university,7845,5,,21031,5,,53.21450600000000,06720/2011/2/000,063,enquiries@bolsover.gov.uk,Bolsover,http://www.bolsover.gov.uk/,-1.25798700000000,S44 6TH,2014-11-12,fhrs_5_en-GB,5,,FHRS,5
46445,71 Sporton Lane,South Normanton,Alfreton,,Sherwood Motor Holdings,Retailers - other,4613,,,50640,,,,11291/2001/2/000,063,enquiries@bolsover.gov.uk,Bolsover,http://www.bolsover.gov.uk/,,DE55 2HZ,2009-06-01,fhrs_exempt_en-GB,Exempt,,FHRS,
46446,2 Park Road,Shirebrook,Mansfield,,Shirebrook Children's Centre,Hospitals/Childcare/Caring Premises,5,0,,28930,0,,53.20537000000000,09/00038/COMM,063,enquiries@bolsover.gov.uk,Bolsover,http://www.bolsover.gov.uk/,-1.21671800000000,NG20 8JQ,2013-05-16,fhrs_5_en-GB,5,,FHRS,0
46447,20 Main Street,Shirebrook,Mansfield,,Shirebrook Christian Centre,Restaurant/Cafe/Canteen,1,0,,24047,0,,53.20242700000000,07270/0016/2/000,063,enquiries@bolsover.gov.uk,Bolsover,http://www.bolsover.gov.uk/,-1.21624700000000,NG20 8DG,2013-06-21,fhrs_5_en-GB,5,,FHRS,0
46448,Church Drive,Shirebrook,Mansfield,,Shirebrook Church Hall,Other catering premises,7841,,,7260,,,53.20106300000000,02870/2002/2/000,063,enquiries@bolsover.gov.uk,Bolsover,http://www.bolsover.gov.uk/,-1.21661700000000,NG20 8DE,2010-03-24,fhrs_exempt_en-GB,Exempt,,FHRS,
46449,Carter Lane,Shirebrook,Mansfield,,Shirebrook Ex Servicemens Club,Pub/bar/nightclub,7843,5,,6446,0,,53.20387700000000,02200/2007/2/000,063,enquiries@bolsover.gov.uk,Bolsover,http://www.bolsover.gov.uk/,-1.21670000000000,NG20 8PE,2011-02-15,fhrs_5_en-GB,5,,FHRS,5
46450,72 Market Street,Shirebrook,Mansfield,,Shirebrook Express,Takeaway/sandwich shop,7844,10,,624843,5,,53.20316200000000,13/00091/COMM,063,enquiries@bolsover.gov.uk,Bolsover,http://www.bolsover.gov.uk/,-1.21175800000000,NG20 8AD,2013-12-13,fhrs_4_en-GB,4,,FHRS,5
46451,20 Market Place,Shirebrook,Mansfield,,Shirebrook Fruit + Veg,Retailers - other,4613,5,,410372,5,,53.20306700000000,12/00040/COMM,063,enquiries@bolsover.gov.uk,Bolsover,http://www.bolsover.gov.uk/,-1.21244800000000,NG20 8AA,2012-06-12,fhrs_5_en-GB,5,,FHRS,0
46452,22 Market Place,Shirebrook,Mansfield,,Shirebrook Homebake,Manufacturers/packers,7839,5,,24282,5,,53.20306700000000,07570/0022/0/000,063,enquiries@bolsover.gov.uk,Bolsover,http://www.bolsover.gov.uk/,-1.21244800000000,NG20 8AA,2013-09-02,fhrs_5_en-GB,5,,FHRS,5
46453,Park Road,Shirebrook,Mansfield,,Shirebrook Leisure Centre,Restaurant/Cafe/Canteen,1,0,,438550,0,,53.20537000000000,12/00058/COMM,063,enquiries@bolsover.gov.uk,Bolsover,http://www.bolsover.gov.uk/,-1.21671800000000,NG20 8JQ,2012-07-30,fhrs_5_en-GB,5,,FHRS,0
46454,Shirebrook Miners Welfare Institute,Central Drive,Shirebrook,Mansfield,Shirebrook Miners Welfare Institute,Pub/bar/nightclub,7843,0,,6683,0,,53.20151600000000,02390/2002/2/000,063,enquiries@bolsover.gov.uk,Bolsover,http://www.bolsover.gov.uk/,-1.21857000000000,NG20 8BA,2011-02-21,fhrs_5_en-GB,5,,FHRS,5
46455,Shirebrook Academy School,Common Lane,Shirebrook,Mansfield,Shirebrook School,School/college/university,7845,5,,8892,0,,53.20989400000000,03410/2001/2/000,063,enquiries@bolsover.gov.uk,Bolsover,http://www.bolsover.gov.uk/,-1.22813500000000,NG20 8QF,2012-02-09,fhrs_4_en-GB,4,,FHRS,10
46456,Langwith Road,Shirebrook,Mansfield,,Shirebrook Staff Sports And Social Club,Pub/bar/nightclub,7843,5,,21039,5,,53.20502800000000,06730/2001/2/000,063,enquiries@bolsover.gov.uk,Bolsover,http://www.bolsover.gov.uk/,-1.20589900000000,NG20 8TF,2009-03-11,fhrs_5_en-GB,5,,FHRS,5
46457,Village Hall,Park Road,Shirebrook,Mansfield,Shirebrook Village Hall,Other catering premises,7841,5,,31995,0,,53.20679100000000,09110/2002/2/000,063,enquiries@bolsover.gov.uk,Bolsover,http://www.bolsover.gov.uk/,-1.21832400000000,NG20 8JP,2010-03-30,fhrs_5_en-GB,5,,FHRS,0
46458,18 Main Street,Shirebrook,Mansfield,,Shires Pharmacy,Retailers - other,4613,,,24045,,,53.20242700000000,07270/0014/3/018,063,enquiries@bolsover.gov.uk,Bolsover,http://www.bolsover.gov.uk/,-1.21624700000000,NG20 8DG,2008-12-04,fhrs_exempt_en-GB,Exempt,,FHRS,
46459,Rockley Way,Shirebrook,Mansfield,,Shirevale Day Resource Centre,Hospitals/Childcare/Caring Premises,5,5,,41365,5,,53.20275200000000,10260/0000/2/000,063,enquiries@bolsover.gov.uk,Bolsover,http://www.bolsover.gov.uk/,-1.21776900000000,NG20 8PD,2013-09-27,fhrs_5_en-GB,5,,FHRS,0
46460,3 - 4 Market Place,South Normanton,Alfreton,,SHRI Supermarket/Premier Store,Retailers - other,4613,5,,732294,5,,53.10631500000000,14/00193/COMM,063,enquiries@bolsover.gov.uk,Bolsover,http://www.bolsover.gov.uk/,-1.34258800000000,DE55 2BN,2014-10-22,fhrs_5_en-GB,5,,FHRS,5
46461,8 Hawthorne Avenue,Shirebrook,Mansfield,,Simons Fish And Chips,Takeaway/sandwich shop,7844,5,,45700,5,,53.20346500000000,11/00022/COMM,063,enquiries@bolsover.gov.uk,Bolsover,http://www.bolsover.gov.uk/,-1.22923900000000,NG20 8NT,2014-03-20,fhrs_4_en-GB,4,,FHRS,10
46462,,,,,Simply The Best,Mobile caterer,7846,0,,28577,0,,,09/00009/MOBILE,063,enquiries@bolsover.gov.uk,Bolsover,http://www.bolsover.gov.uk/,,,2012-10-04,fhrs_5_en-GB,5,,FHRS,0
46463,15 Elmton Road,Creswell,Worksop,,Sip N Save,Retailers - other,4613,10,,25660,5,,53.26074300000000,08/00115/COMM,063,enquiries@bolsover.gov.uk,Bolsover,http://www.bolsover.gov.uk/,-1.22102900000000,S80 4BH,2011-01-27,fhrs_4_en-GB,4,,FHRS,0
46464,91 Victoria Road,Pinxton,Nottingham,,Slade Lane Post Office,Retailers - other,4613,5,,56545,5,,53.09436900000000,12790/0091/2/000,063,enquiries@bolsover.gov.uk,Bolsover,http://www.bolsover.gov.uk/,-1.31863800000000,NG16 6NH,2009-10-23,fhrs_5_en-GB,5,,FHRS,5
46465,Clover Nook Road,Clover Nook Industrial Estate,Pinxton,Nottingham,Slimming World,Restaurant/Cafe/Canteen,1,0,,8745,0,,53.09038400000000,03230/2006/2/000,063,enquiries@bolsover.gov.uk,Bolsover,http://www.bolsover.gov.uk/,-1.35862900000000,DE55 4RF,2011-02-02,fhrs_5_en-GB,5,,FHRS,5
46466,120 The Common,South Normanton,Alfreton,Derbyshire,Snack Attack,Takeaway/sandwich shop,7844,0,,25490,5,,53.10050500000000,08/00091/COMM,063,enquiries@bolsover.gov.uk,Bolsover,http://www.bolsover.gov.uk/,-1.33715100000000,DE55 2EP,2014-10-29,fhrs_5_en-GB,5,,FHRS,0
46467,207B Main Street,Whaley Thorns,Mansfield,,Snapbox Cafe,Restaurant/Cafe/Canteen,1,,,34310,,,53.23220900000000,10/00107/COMM,063,enquiries@bolsover.gov.uk,Bolsover,http://www.bolsover.gov.uk/,-1.20419800000000,NG20 9HD,2014-10-14,fhrs_5_en-GB,5,,FHRS,
46468,Lees Lane,South Normanton,Alfreton,,South Normanton Athletic Football Club,Other catering premises,7841,5,,28909,5,,53.10477800000000,09/00036/COMM,063,enquiries@bolsover.gov.uk,Bolsover,http://www.bolsover.gov.uk/,-1.34416500000000,DE55 2AD,2009-04-17,fhrs_5_en-GB,5,,FHRS,5
46469,15 Market Place,South Normanton,Alfreton,,South Normanton Fish Bar,Takeaway/sandwich shop,7844,10,,25091,0,,53.10631500000000,08/00044/COMM,063,enquiries@bolsover.gov.uk,Bolsover,http://www.bolsover.gov.uk/,-1.34258800000000,DE55 2BN,2012-12-14,fhrs_4_en-GB,4,,FHRS,5
46470,Hamlet Lane,South Normanton,Alfreton,,South Normanton Nursery School,School/college/university,7845,0,,16701,0,,53.10352200000000,05220/2000/2/000,063,enquiries@bolsover.gov.uk,Bolsover,http://www.bolsover.gov.uk/,-1.34145100000000,DE55 2JB,2011-01-17,fhrs_5_en-GB,5,,FHRS,0
46471,3 Elmton Road,Creswell,Worksop,,Spar (Blakemore Retail),Retailers - supermarkets/hypermarkets,7840,5,,13754,5,,53.26309100000000,04370/0003/0/000,063,enquiries@bolsover.gov.uk,Bolsover,http://www.bolsover.gov.uk/,-1.21445000000000,S80 4HD,2014-06-03,fhrs_5_en-GB,5,,FHRS,5
46472,Nisa Local,High Street,South Normanton,Alfreton,Spend N Save Nisa Local,Retailers - supermarkets/hypermarkets,7840,5,,17373,5,,53.10720200000000,05890/2000/2/000,063,enquiries@bolsover.gov.uk,Bolsover,http://www.bolsover.gov.uk/,-1.34199200000000,DE55 2BP,2013-12-05,fhrs_4_en-GB,4,,FHRS,10
46473,6 Market Place,South Normanton,Alfreton,,Spice Village,Restaurant/Cafe/Canteen,1,0,,21910,0,,53.10631500000000,07/00087/COMM,063,enquiries@bolsover.gov.uk,Bolsover,http://www.bolsover.gov.uk/,-1.34258800000000,DE55 2BN,2012-12-17,fhrs_5_en-GB,5,,FHRS,5
46474,72 - 74 Park Lane,Pinxton,Nottingham,,Spion Kop Care Home,Hospitals/Childcare/Caring Premises,5,0,,21586,0,,53.09094500000000,07/00040/COMM,063,enquiries@bolsover.gov.uk,Bolsover,http://www.bolsover.gov.uk/,-1.32514300000000,NG16 6PS,2012-11-13,fhrs_5_en-GB,5,,FHRS,0
46475,Clowne Medical Centre,Recreation Close,Clowne,Chesterfield,Springs Pharmacy,Retailers - other,4613,,,17923,,,53.27783600000000,06/00047/COMM,063,enquiries@bolsover.gov.uk,Bolsover,http://www.bolsover.gov.uk/,-1.26560500000000,S43 4PL,2009-11-11,fhrs_exempt_en-GB,Exempt,,FHRS,
46476,Kiosk 1,The Food Court,Mansfield Road,Pinxton,Spud U Like,Restaurant/Cafe/Canteen,1,0,,24189,0,,53.10676900000000,07485/2000/3/001,063,enquiries@bolsover.gov.uk,Bolsover,http://www.bolsover.gov.uk/,-1.31000300000000,DE55 2JW,2014-07-29,fhrs_5_en-GB,5,,FHRS,5
46477,Langwith Road,Shirebrook,Mansfield,,St Josephs Roman Catholic Primary School,School/college/university,7845,0,,21018,5,,53.20869100000000,06710/2005/2/000,063,enquiries@bolsover.gov.uk,Bolsover,http://www.bolsover.gov.uk/,-1.21051800000000,NG20 9RP,2014-03-07,fhrs_5_en-GB,5,,FHRS,5
46478,Unit 67B,East Midlands Designer Outlet,Mansfield Road,Pinxton,Starbucks Coffee Co.,Restaurant/Cafe/Canteen,1,0,,14681,0,,53.10676900000000,05/00037/COMM,063,enquiries@bolsover.gov.uk,Bolsover,http://www.bolsover.gov.uk/,-1.31000300000000,DE55 2JW,2014-05-09,fhrs_5_en-GB,5,,FHRS,0
46479,Station Road,Shirebrook,Mansfield,,Station Hotel,Pub/bar/nightclub,7843,5,,25558,0,,53.20416000000000,08/00100/COMM,063,enquiries@bolsover.gov.uk,Bolsover,http://www.bolsover.gov.uk/,-1.20777200000000,NG20 8UE,2010-07-28,fhrs_5_en-GB,5,,FHRS,0
46480,1A Welbeck Road,Bolsover,Chesterfield,,Stepping Stones Day Nursery,Hospitals/Childcare/Caring Premises,5,0,,35278,0,,,10/00214/COMM,063,enquiries@bolsover.gov.uk,Bolsover,http://www.bolsover.gov.uk/,,S44 6DD,2012-06-27,fhrs_5_en-GB,5,,FHRS,0
46481,42 Mill Street,Clowne,Chesterfield,Derbyshire,Sticky And Sweet,Retailers - other,4613,,,35283,,,53.27441700000000,10/00215/COMM,063,enquiries@bolsover.gov.uk,Bolsover,http://www.bolsover.gov.uk/,-1.26365400000000,S43 4JN,2010-11-11,fhrs_exempt_en-GB,Exempt,,FHRS,
46482,15 Church Street,Barlborough,Chesterfield,Derbyshire,Stone Croft,Hotel/bed & breakfast/guest house,7842,0,,7336,0,,53.28960500000000,02980/0015/0/000,063,enquiries@bolsover.gov.uk,Bolsover,http://www.bolsover.gov.uk/,-1.28537000000000,S43 4ER,2010-06-30,fhrs_5_en-GB,5,,FHRS,0
46483,55 Market Street,South Normanton,Alfreton,,Stop N Shop,Retailers - other,4613,5,,24321,5,,53.10188200000000,07600/0055/0/000,063,enquiries@bolsover.gov.uk,Bolsover,http://www.bolsover.gov.uk/,-1.34395500000000,DE55 2AB,2014-12-11,fhrs_4_en-GB,4,,FHRS,10
46484,Storth Lane,South Normanton,Alfreton,Derbyshire,Storthfield House Care Home,Hospitals/Childcare/Caring Premises,5,5,,17706,0,,53.09758600000000,06/00023/COMM,063,enquiries@bolsover.gov.uk,Bolsover,http://www.bolsover.gov.uk/,-1.33276000000000,DE55 3AA,2014-02-13,fhrs_5_en-GB,5,,FHRS,5
46485,Burlington Avenue,Langwith Junction,Mansfield,,Stubbin Wood Special School And Nursery,School/college/university,7845,5,,21019,5,,53.21229300000000,06710/2008/2/000,063,enquiries@bolsover.gov.uk,Bolsover,http://www.bolsover.gov.uk/,-1.21422600000000,NG20 9AD,2014-02-14,fhrs_5_en-GB,5,,FHRS,5
46486,Kiosk 3,The Food Court,Mansfield Road,Pinxton,Subway,Restaurant/Cafe/Canteen,1,0,,25187,0,,53.10676900000000,08/00054/COMM,063,enquiries@bolsover.gov.uk,Bolsover,http://www.bolsover.gov.uk/,-1.31000300000000,DE55 2JW,2014-02-19,fhrs_5_en-GB,5,,FHRS,0
46487,3 High View Road,South Normanton,Alfreton,Derbyshire,Sun Chemicals Ltd,Retailers - other,4613,,,17418,,,53.11028300000000,05930/2002/2/000,063,enquiries@bolsover.gov.uk,Bolsover,http://www.bolsover.gov.uk/,-1.32389900000000,DE55 2DT,2009-06-01,fhrs_exempt_en-GB,Exempt,,FHRS,
46488,87 North Road,Clowne,Chesterfield,,Sunrise Takeaway,Takeaway/sandwich shop,7844,10,,28091,5,,53.27833700000000,08560/0087/0/000,063,enquiries@bolsover.gov.uk,Bolsover,http://www.bolsover.gov.uk/,-1.26384100000000,S43 4PQ,2013-08-15,fhrs_4_en-GB,4,,FHRS,5
46489,14 - 16 Main Street,Shirebrook,Mansfield,,Super Saver,Retailers - other,4613,5,,479940,0,,53.20255200000000,12/00070/COMM,063,enquiries@bolsover.gov.uk,Bolsover,http://www.bolsover.gov.uk/,-1.21479300000000,NG20 8AW,2012-07-30,fhrs_5_en-GB,5,,FHRS,0
46490,51 Market Street,South Normanton,Alfreton,,Suprema Pizzeria,Takeaway/sandwich shop,7844,0,,24320,0,,53.10188200000000,07600/0051/0/000,063,enquiries@bolsover.gov.uk,Bolsover,http://www.bolsover.gov.uk/,-1.34395500000000,DE55 2AB,2013-07-03,fhrs_5_en-GB,5,,FHRS,5
46491,Shirebrook Miners Welfare Institute,Central Drive,Shirebrook,Mansfield,Susies Selection,Other catering premises,7841,5,,45987,5,,53.20151600000000,11/00040/COMM,063,enquiries@bolsover.gov.uk,Bolsover,http://www.bolsover.gov.uk/,-1.21857000000000,NG20 8BA,2014-05-07,fhrs_5_en-GB,5,,FHRS,5
46492,53 Market Street,South Normanton,Alfreton,,T J Pizza,Takeaway/sandwich shop,7844,5,,448486,5,,53.10188200000000,12/00035/COMM,063,enquiries@bolsover.gov.uk,Bolsover,http://www.bolsover.gov.uk/,-1.34395500000000,DE55 2AB,2014-02-18,fhrs_5_en-GB,5,,FHRS,5
46493,Whitwell Wood Lay By,Clinthill Lane,Whitwell,,T J's Woodside Diner,Mobile caterer,7846,0,,62993,0,,,13944/2001/2/000,063,enquiries@bolsover.gov.uk,Bolsover,http://www.bolsover.gov.uk/,,,2010-07-20,fhrs_5_en-GB,5,,FHRS,0
46494,17 - 21 Rectory Road,Clowne,Chesterfield,,Take A Break,Restaurant/Cafe/Canteen,1,5,,643727,5,,53.27506200000000,13/00066/COMM,063,enquiries@bolsover.gov.uk,Bolsover,http://www.bolsover.gov.uk/,-1.26190300000000,S43 4BH,2014-03-21,fhrs_4_en-GB,4,,FHRS,10
46495,88 Market Street,Shirebrook,Mansfield,,Taste Buds Cafe,Restaurant/Cafe/Canteen,1,5,,24309,5,,53.20316200000000,07590/0088/0/000,063,enquiries@bolsover.gov.uk,Bolsover,http://www.bolsover.gov.uk/,-1.21175800000000,NG20 8AD,2014-04-24,fhrs_5_en-GB,5,,FHRS,5
46496,107 - 109 High Street,Tibshelf,Alfreton,,TCRSG Exercise 4 All,Restaurant/Cafe/Canteen,1,0,,9553,0,,53.14457600000000,04/00027/COMM,063,enquiries@bolsover.gov.uk,Bolsover,http://www.bolsover.gov.uk/,-1.33994100000000,DE55 5PP,2011-06-03,fhrs_5_en-GB,5,,FHRS,0
46497,Tesco Retail Store,Mill Green Way,Clowne,Chesterfield,Tesco Supermarket And Filling Station,Retailers - supermarkets/hypermarkets,7840,0,,6191,0,,53.27557000000000,0204/00035/COMM,063,enquiries@bolsover.gov.uk,Bolsover,http://www.bolsover.gov.uk/,-1.26406900000000,S43 4LJ,2013-09-30,fhrs_5_en-GB,5,,FHRS,0
46498,16 Market Place,South Normanton,Alfreton,Derbyshire,The Bakehouse,Manufacturers/packers,7839,5,,24290,5,,53.10631500000000,07580/0016/0/000,063,enquiries@bolsover.gov.uk,Bolsover,http://www.bolsover.gov.uk/,-1.34258800000000,DE55 2BN,2014-08-22,fhrs_5_en-GB,5,,FHRS,5
46499,172 Elmton Road,Creswell,Worksop,,The Black Diamond,Pub/bar/nightclub,7843,0,,17571,0,,53.26015000000000,06/00010/COMM,063,enquiries@bolsover.gov.uk,Bolsover,http://www.bolsover.gov.uk/,-1.22373800000000,S80 4DY,2011-12-08,fhrs_5_en-GB,5,,FHRS,5
46500,5 Leamington Drive,South Normanton,Alfreton,,The Blue Bell,Pub/bar/nightclub,7843,5,,209090,5,,53.10228000000000,11/00095/COMM,063,enquiries@bolsover.gov.uk,Bolsover,http://www.bolsover.gov.uk/,-1.33309100000000,DE55 2HX,2014-10-15,fhrs_5_en-GB,5,,FHRS,5
46501,Blue Bell Inn,57 High Street,Bolsover,Chesterfield,The Blue Bell,Pub/bar/nightclub,7843,20,,690654,10,,53.22821100000000,14/00102/COMM,063,enquiries@bolsover.gov.uk,Bolsover,http://www.bolsover.gov.uk/,-1.29305800000000,S44 6HF,2014-06-11,fhrs_1_en-GB,1,,FHRS,10
46502,The Boundary Public House,Lea Bank,Broadmeadows,South Normanton,The Boundary Public House And Meridian Suite,Pub/bar/nightclub,7843,5,,5150,5,,53.09845900000000,01590/2000/2/000,063,enquiries@bolsover.gov.uk,Bolsover,http://www.bolsover.gov.uk/,-1.33934800000000,DE55 3LH,2014-11-27,fhrs_5_en-GB,5,,FHRS,5
46503,Tibshelf Services M1 Northbound,Newtonwood Lane,Tibshelf,Alfreton,The Burger Company,Restaurant/Cafe/Canteen,1,5,,28016,5,,53.13039200000000,08480/2000/4/0N3,063,enquiries@bolsover.gov.uk,Bolsover,http://www.bolsover.gov.uk/,-1.34009900000000,DE55 5TX,2012-05-01,fhrs_5_en-GB,5,,FHRS,5
46504,8 Cotton Street,Bolsover,Chesterfield,,The Castle Oven,Retailers - other,4613,5,,9057,0,,53.22872400000000,03580/2003/2/000,063,enquiries@bolsover.gov.uk,Bolsover,http://www.bolsover.gov.uk/,-1.29150700000000,S44 6HA,2013-09-30,fhrs_5_en-GB,5,,FHRS,5
46505,Carter Lane East,South Normanton,Alfreton,Derbyshire,The Castlewood Public House,Pub/bar/nightclub,7843,0,,6430,0,,53.11053200000000,02190/2005/2/000,063,enquiries@bolsover.gov.uk,Bolsover,http://www.bolsover.gov.uk/,-1.33294800000000,DE55 2EY,2013-06-27,fhrs_5_en-GB,5,,FHRS,0
46506,107 Market Street,South Normanton,Alfreton,,The Clock,Pub/bar/nightclub,7843,0,,24323,0,,53.10447500000000,07600/0107/2/000,063,enquiries@bolsover.gov.uk,Bolsover,http://www.bolsover.gov.uk/,-1.34310900000000,DE55 2AA,2011-03-22,fhrs_5_en-GB,5,,FHRS,0
46507,127 - 129 High Street,Tibshelf,Alfreton,,The Co Operative Food,Retailers - supermarkets/hypermarkets,7840,0,,17392,0,,53.14457600000000,05910/0127/2/000,063,enquiries@bolsover.gov.uk,Bolsover,http://www.bolsover.gov.uk/,-1.33994100000000,DE55 5PP,2013-03-18,fhrs_5_en-GB,5,,FHRS,0
46508,146 Wharf Road,Pinxton,Nottingham,,The Co Operative Food,Retailers - supermarkets/hypermarkets,7840,0,,60884,0,,53.08986800000000,13320/0146/0/000,063,enquiries@bolsover.gov.uk,Bolsover,http://www.bolsover.gov.uk/,-1.31611100000000,NG16 6LQ,2010-10-19,fhrs_5_en-GB,5,,FHRS,5
46509,Co Op,Town End,Bolsover,Chesterfield,The Co Operative Food,Retailers - supermarkets/hypermarkets,7840,5,,33654,5,,53.22919100000000,10/00057/COMM,063,enquiries@bolsover.gov.uk,Bolsover,http://www.bolsover.gov.uk/,-1.28998600000000,S44 6DT,2014-11-11,fhrs_5_en-GB,5,,FHRS,5
46510,Co Op,Victoria Street,Shirebrook,Mansfield,The Co Operative Food,Retailers - supermarkets/hypermarkets,7840,5,,56664,5,,53.20319100000000,12820/0002/0/000,063,enquiries@bolsover.gov.uk,Bolsover,http://www.bolsover.gov.uk/,-1.21341900000000,NG20 8AQ,2014-11-18,fhrs_4_en-GB,4,,FHRS,10
46511,Pioneer Cooperative,Market Place,South Normanton,Alfreton,The Co Operative Food,Retailers - supermarkets/hypermarkets,7840,5,,24295,5,,53.10631500000000,07580/2003/2/000,063,enquiries@bolsover.gov.uk,Bolsover,http://www.bolsover.gov.uk/,-1.34258800000000,DE55 2BN,2014-10-28,fhrs_5_en-GB,5,,FHRS,0
46512,128 The Common,South Normanton,Alfreton,,The Common Stores,Retailers - other,4613,5,,395964,0,,53.10050500000000,12/00026/COMM,063,enquiries@bolsover.gov.uk,Bolsover,http://www.bolsover.gov.uk/,-1.33715100000000,DE55 2EP,2012-05-29,fhrs_5_en-GB,5,,FHRS,0
46513,The Co-op,Spring Street,Whitwell,Worksop,The Co-operative Group,Retailers - supermarkets/hypermarkets,7840,5,,732295,5,,53.28356100000000,14/00197/COMM,063,enquiries@bolsover.gov.uk,Bolsover,http://www.bolsover.gov.uk/,-1.20529900000000,S80 4RT,2015-01-13,fhrs_5_en-GB,5,,FHRS,0
46514,1 Waverley Street,Tibshelf,Alfreton,Derbyshire,The Co-Operative Pharmacy,Retailers - other,4613,,,25783,,,53.14624200000000,08/00133/COMM,063,enquiries@bolsover.gov.uk,Bolsover,http://www.bolsover.gov.uk/,-1.33882400000000,DE55 5PS,2008-11-26,fhrs_exempt_en-GB,Exempt,,FHRS,
46515,9 Market Place,South Normanton,Alfreton,,The Co-Operative Pharmacy,Retailers - other,4613,,,25764,,,53.10631500000000,08/00130/COMM,063,enquiries@bolsover.gov.uk,Bolsover,http://www.bolsover.gov.uk/,-1.34258800000000,DE55 2BN,2014-10-28,fhrs_exempt_en-GB,Exempt,,FHRS,
46516,65A Welbeck Street,Whitwell,Worksop,,The Corner House,Hospitals/Childcare/Caring Premises,5,0,,34793,0,,53.28351900000000,10/00155/COMM,063,enquiries@bolsover.gov.uk,Bolsover,http://www.bolsover.gov.uk/,-1.19886600000000,S80 4TN,2012-09-21,fhrs_5_en-GB,5,,FHRS,0
46517,,,,,The Corner Shop,Mobile caterer,7846,0,,438547,0,,,12/00005/MOBILE,063,enquiries@bolsover.gov.uk,Bolsover,http://www.bolsover.gov.uk/,,,2012-07-11,fhrs_5_en-GB,5,,FHRS,0
46518,,,,,The Cowboy Kitchen,Mobile caterer,7846,5,,703415,5,,,14/00026/MOBILE,063,enquiries@bolsover.gov.uk,Bolsover,http://www.bolsover.gov.uk/,,,2014-09-16,fhrs_5_en-GB,5,,FHRS,5
46519,16 High Street,Tibshelf,Alfreton,,The Crown Hotel,Pub/bar/nightclub,7843,5,,46728,5,,53.13910100000000,11/00082/COMM,063,enquiries@bolsover.gov.uk,Bolsover,http://www.bolsover.gov.uk/,-1.34784300000000,DE55 5NY,2013-06-03,fhrs_5_en-GB,5,,FHRS,5
46520,Carter Lane East,South Normanton,Alfreton,,The Derbyshire Hotel,Hotel/bed & breakfast/guest house,7842,0,,24923,0,,53.10342400000000,08/00027/COMM,063,enquiries@bolsover.gov.uk,Bolsover,http://www.bolsover.gov.uk/,-1.32381300000000,DE55 2EH,2014-02-20,fhrs_5_en-GB,5,,FHRS,5
46521,137 Market Street,South Normanton,Alfreton,,The Devonshire Arms,Pub/bar/nightclub,7843,5,,14689,10,,53.10447500000000,05/00038/COMM,063,enquiries@bolsover.gov.uk,Bolsover,http://www.bolsover.gov.uk/,-1.34310900000000,DE55 2AA,2014-08-22,fhrs_3_en-GB,3,,FHRS,10
46522,Elmtree Inn And Norfolk Restaurant,Main Road,Elmton,Chesterfield,The Elm Tree Inn And Norfolk Restaurant,Pub/bar/nightclub,7843,0,,21527,5,,53.25426100000000,07/00034/COMM,063,enquiries@bolsover.gov.uk,Bolsover,http://www.bolsover.gov.uk/,-1.24592300000000,S80 4LS,2013-12-04,fhrs_5_en-GB,5,,FHRS,5
46523,16 Market Place,Bolsover,Chesterfield,,The Factory Shop,Retailers - other,4613,,,34241,,,53.22961400000000,10/00101/COMM,063,enquiries@bolsover.gov.uk,Bolsover,http://www.bolsover.gov.uk/,-1.29161200000000,S44 6PH,2010-09-07,fhrs_exempt_en-GB,Exempt,,FHRS,
46524,Deep Lane,Hardstoft,Chesterfield,,The Famous Shoulder,Pub/bar/nightclub,7843,10,,33171,5,,53.16223700000000,10/00029/COMM,063,enquiries@bolsover.gov.uk,Bolsover,http://www.bolsover.gov.uk/,-1.34433700000000,S45 8AE,2014-01-24,fhrs_3_en-GB,3,,FHRS,10
46525,89 Wharf Road,Pinxton,Nottingham,,The Farm Gate,Manufacturers/packers,7839,5,,25104,5,,53.08876600000000,08/00045/COMM,063,enquiries@bolsover.gov.uk,Bolsover,http://www.bolsover.gov.uk/,-1.31810000000000,NG16 6LH,2014-09-19,fhrs_5_en-GB,5,,FHRS,5
46526,Craggs Road,Bolsover,Chesterfield,,The Fidlers Rest,Pub/bar/nightclub,7843,0,,21557,0,,53.23251100000000,07/00037/COMM,063,enquiries@bolsover.gov.uk,Bolsover,http://www.bolsover.gov.uk/,-1.29501000000000,S44 6BQ,2013-06-26,fhrs_5_en-GB,5,,FHRS,0
46527,130 The Common,South Normanton,Alfreton,Derbyshire,The Frying Squad,Takeaway/sandwich shop,7844,5,,53669,5,,53.10050500000000,12080/0130/0/000,063,enquiries@bolsover.gov.uk,Bolsover,http://www.bolsover.gov.uk/,-1.33715100000000,DE55 2EP,2014-10-07,fhrs_5_en-GB,5,,FHRS,5
46528,Main Road,Langwith,Mansfield,,The Gate Hotel,Pub/bar/nightclub,7843,5,,23972,10,,53.22674900000000,07180/2008/2/000,063,enquiries@bolsover.gov.uk,Bolsover,http://www.bolsover.gov.uk/,-1.20907800000000,NG20 9DN,2014-10-29,fhrs_4_en-GB,4,,FHRS,5
46529,King Edward Street,Shirebrook,Mansfield,,The Gate Inn,Pub/bar/nightclub,7843,5,,35253,5,,53.20248100000000,10/00211/COMM,063,enquiries@bolsover.gov.uk,Bolsover,http://www.bolsover.gov.uk/,-1.21344700000000,NG20 8AU,2011-01-27,fhrs_5_en-GB,5,,FHRS,5
46530,The Green,Glapwell,Chesterfield,Derbyshire,The Glapwell Centre,Other catering premises,7841,5,,53947,5,,53.18694500000000,12150/2000/2/000,063,enquiries@bolsover.gov.uk,Bolsover,http://www.bolsover.gov.uk/,-1.28586500000000,S44 5LW,2011-03-16,fhrs_5_en-GB,5,,FHRS,5
46531,Field Drive,Shirebrook,Mansfield,,The Grange Care Centre,Hospitals/Childcare/Caring Premises,5,5,,14052,0,,53.19704100000000,04620/2000/2/000,063,enquiries@bolsover.gov.uk,Bolsover,http://www.bolsover.gov.uk/,-1.21603100000000,NG20 8RL,2014-07-24,fhrs_5_en-GB,5,,FHRS,5
46532,62 Town Street,Pinxton,Nottingham,,The Great Wall,Takeaway/sandwich shop,7844,10,,55756,10,,53.09454100000000,12590/0062/0/000,063,enquiries@bolsover.gov.uk,Bolsover,http://www.bolsover.gov.uk/,-1.31415500000000,NG16 6HN,2013-08-15,fhrs_3_en-GB,3,,FHRS,10
46533,New Street,South Normanton,Alfreton,,The Green Infant School,School/college/university,7845,5,,27983,0,,53.10863300000000,08430/2001/2/000,063,enquiries@bolsover.gov.uk,Bolsover,http://www.bolsover.gov.uk/,-1.34247800000000,DE55 2BS,2014-12-11,fhrs_5_en-GB,5,,FHRS,5
46534,Alfreton Road,South Normanton,Alfreton,,The Hawthorns,Pub/bar/nightclub,7843,10,,34730,10,,53.10050300000000,10/00148/COMM,063,enquiries@bolsover.gov.uk,Bolsover,http://www.bolsover.gov.uk/,-1.35147400000000,DE55 2AS,2013-12-05,fhrs_3_en-GB,3,,FHRS,10
46535,Glebe Close,South Normanton,Alfreton,,The Hollies Care Centre,Hospitals/Childcare/Caring Premises,5,5,,14390,5,,53.10153400000000,04970/2001/2/000,063,enquiries@bolsover.gov.uk,Bolsover,http://www.bolsover.gov.uk/,-1.33946500000000,DE55 2JN,2014-11-07,fhrs_5_en-GB,5,,FHRS,5
46536,Holmefield Arms,Station Road,Whitwell,Worksop,The Holmefield Arms,Pub/bar/nightclub,7843,5,,18038,5,,53.28356200000000,06/00061/COMM,063,enquiries@bolsover.gov.uk,Bolsover,http://www.bolsover.gov.uk/,-1.20530000000000,S80 4RT,2014-09-30,fhrs_4_en-GB,4,,FHRS,10
46537,South Normanton Joint Services Cent,Shiners Way,South Normanton,Alfreton,The Hub Bistro,Restaurant/Cafe/Canteen,1,5,,45576,0,,53.10607100000000,11/00015/COMM,063,enquiries@bolsover.gov.uk,Bolsover,http://www.bolsover.gov.uk/,-1.34389200000000,DE55 2FY,2013-09-19,fhrs_5_en-GB,5,,FHRS,0
46538,2 Cotton Street,Bolsover,Chesterfield,Derbyshire,The Jade Palace,Takeaway/sandwich shop,7844,10,,9048,10,,53.22907300000000,03580/0002/0/000,063,enquiries@bolsover.gov.uk,Bolsover,http://www.bolsover.gov.uk/,-1.29123100000000,S44 6PL,2013-08-08,fhrs_3_en-GB,3,,FHRS,10
46539,Kingfisher House,Main Road,Langwith,Mansfield,The Lemon Tree At Langwith,Restaurant/Cafe/Canteen,1,0,,664062,0,,53.22764500000000,13/00094/COMM,063,enquiries@bolsover.gov.uk,Bolsover,http://www.bolsover.gov.uk/,-1.20859700000000,NG20 9BH,2014-04-25,fhrs_5_en-GB,5,,FHRS,0
46540,The Limes Care Centre,Main Street,Whaley Thorns,Mansfield,The Limes Independent Hospital,Hospitals/Childcare/Caring Premises,5,0,,23997,0,,53.23220900000000,07220/2007/2/000,063,enquiries@bolsover.gov.uk,Bolsover,http://www.bolsover.gov.uk/,-1.20419800000000,NG20 9HD,2014-10-29,fhrs_5_en-GB,5,,FHRS,0
46541,6 Town End,Bolsover,Chesterfield,,The Little Cafe,Restaurant/Cafe/Canteen,1,10,,21515,10,,53.22919100000000,07/00032/COMM,063,enquiries@bolsover.gov.uk,Bolsover,http://www.bolsover.gov.uk/,-1.28998600000000,S44 6DT,2013-11-28,fhrs_3_en-GB,3,,FHRS,10
46542,,,,,The Little French Kitchen,Mobile caterer,7846,5,,569821,5,,,13/00012/MOBILE,063,enquiries@bolsover.gov.uk,Bolsover,http://www.bolsover.gov.uk/,,,2013-06-21,fhrs_5_en-GB,5,,FHRS,5
46543,,,,,The Little Kitchen Cake Company,Other catering premises,7841,10,,30376,5,,,09/00186/COMM,063,enquiries@bolsover.gov.uk,Bolsover,http://www.bolsover.gov.uk/,,,2009-09-08,fhrs_4_en-GB,4,,FHRS,5
46544,High Street,Barlborough,Chesterfield,,The Little School,Other catering premises,7841,0,,17800,0,,53.29058400000000,06/00034/COMM,063,enquiries@bolsover.gov.uk,Bolsover,http://www.bolsover.gov.uk/,-1.28815900000000,S43 4ET,2013-11-06,fhrs_5_en-GB,5,,FHRS,0
46545,Long Lane,Shirebrook,Mansfield,,The Manor,Hospitals/Childcare/Caring Premises,5,0,,45800,5,,53.20151600000000,11/00028/COMM,063,enquiries@bolsover.gov.uk,Bolsover,http://www.bolsover.gov.uk/,-1.21857000000000,NG20 8BA,2014-02-14,fhrs_5_en-GB,5,,FHRS,5
46546,Welbeck Street,Whitwell,Worksop,,The New Middle Club,Pub/bar/nightclub,7843,0,,58533,0,,53.28383700000000,13000/2004/2/000,063,enquiries@bolsover.gov.uk,Bolsover,http://www.bolsover.gov.uk/,-1.20076500000000,S80 4TQ,2011-12-14,fhrs_5_en-GB,5,,FHRS,0
46547,The Victoria Hotel,Acreage Lane,Shirebrook,Mansfield,The New Victoria Inn,Pub/bar/nightclub,7843,5,,25702,5,,53.19704100000000,08/00121/COMM,063,enquiries@bolsover.gov.uk,Bolsover,http://www.bolsover.gov.uk/,-1.21603100000000,NG20 8RL,2013-11-19,fhrs_5_en-GB,5,,FHRS,5
46548,The Hill,Glapwell,Chesterfield,,The Plug And Feathers,Pub/bar/nightclub,7843,10,,35220,10,,53.19007500000000,10/00206/COMM,063,enquiries@bolsover.gov.uk,Bolsover,http://www.bolsover.gov.uk/,-1.29838500000000,S44 5LY,2014-06-25,fhrs_3_en-GB,3,,FHRS,10
46549,Church Street,Clowne,Chesterfield,,The Salvation Army,Other catering premises,7841,5,,21388,5,,53.27351100000000,07/00016/COMM,063,enquiries@bolsover.gov.uk,Bolsover,http://www.bolsover.gov.uk/,-1.26251500000000,S43 4JS,2014-10-22,fhrs_5_en-GB,5,,FHRS,0
46550,The Little School,High Street,Barlborough,Chesterfield,The School Club,Hospitals/Childcare/Caring Premises,5,0,,46343,0,,53.29058400000000,11/00060/COMM,063,enquiries@bolsover.gov.uk,Bolsover,http://www.bolsover.gov.uk/,-1.28815900000000,S43 4ET,2013-11-06,fhrs_5_en-GB,5,,FHRS,0
46551,The White Hart,Church Street,South Normanton,Alfreton,The School House Restaurant,Pub/bar/nightclub,7843,5,,14804,5,,53.10799500000000,05/00055/COMM,063,enquiries@bolsover.gov.uk,Bolsover,http://www.bolsover.gov.uk/,-1.33906700000000,DE55 2BT,2012-03-02,fhrs_5_en-GB,5,,FHRS,5
46552,,,,,The Simple Things Catering Company,Other catering premises,7841,5,,577025,5,,,13/00045/COMM,063,enquiries@bolsover.gov.uk,Bolsover,http://www.bolsover.gov.uk/,,,2013-08-07,fhrs_5_en-GB,5,,FHRS,5
46553,3 Alfreton Road,Westhouses,Alfreton,,The Station Hotel,Pub/bar/nightclub,7843,10,,727,5,,53.11556400000000,000240/2005/2/000,063,enquiries@bolsover.gov.uk,Bolsover,http://www.bolsover.gov.uk/,-1.37064000000000,DE55 5AH,2011-03-30,fhrs_4_en-GB,4,,FHRS,5
46554,78 Town Street,Pinxton,Nottingham,,The Three Horseshoes Inn,Pub/bar/nightclub,7843,5,,55757,0,,53.09454100000000,12590/0078/2/000,063,enquiries@bolsover.gov.uk,Bolsover,http://www.bolsover.gov.uk/,-1.31415500000000,NG16 6HN,2010-03-16,fhrs_5_en-GB,5,,FHRS,0
46555,Fordbridge Lane,South Normanton,Alfreton,Derbyshire,The Unity Club,Pub/bar/nightclub,7843,5,,14108,5,,53.10980200000000,04680/2004/2/000,063,enquiries@bolsover.gov.uk,Bolsover,http://www.bolsover.gov.uk/,-1.34235600000000,DE55 2BR,2009-03-18,fhrs_5_en-GB,5,,FHRS,5
46556,Castle Lane,Bolsover,Chesterfield,,The Vale Care Centre,Hospitals/Childcare/Caring Premises,5,5,,340053,5,,53.22855200000000,12/00022/COMM,063,enquiries@bolsover.gov.uk,Bolsover,http://www.bolsover.gov.uk/,-1.29738200000000,S44 6PS,2014-09-03,fhrs_4_en-GB,4,,FHRS,10
46557,The Old School,Mill Street,Clowne,Chesterfield,The Village Inn,Pub/bar/nightclub,7843,5,,30847,5,,53.27441700000000,09/00293/COMM,063,enquiries@bolsover.gov.uk,Bolsover,http://www.bolsover.gov.uk/,-1.26365400000000,S43 4JN,2012-03-01,fhrs_5_en-GB,5,,FHRS,5
46558,,,,,The Village Shop,Retailers - other,4613,10,,62989,0,,,13943/8021/2/MOB,063,enquiries@bolsover.gov.uk,Bolsover,http://www.bolsover.gov.uk/,,,2009-05-05,fhrs_4_en-GB,4,,FHRS,0
46559,Main Street,South Normanton,Alfreton,,The Villager,Pub/bar/nightclub,7843,10,,24055,10,,53.10780700000000,07280/0000/2/000,063,enquiries@bolsover.gov.uk,Bolsover,http://www.bolsover.gov.uk/,-1.33605300000000,DE55 2DH,2013-10-18,fhrs_3_en-GB,3,,FHRS,10
46560,High Street,Clowne,Chesterfield,,The White Hart,Pub/bar/nightclub,7843,10,,34230,5,,53.27313600000000,10/00100/COMM,063,enquiries@bolsover.gov.uk,Bolsover,http://www.bolsover.gov.uk/,-1.26732000000000,S43 4JU,2010-04-29,fhrs_4_en-GB,4,,FHRS,5
46561,90 Carter Lane East,South Normanton,Alfreton,,The White Swan,Pub/bar/nightclub,7843,5,,6427,5,,53.10521300000000,02190/0096/2/000,063,enquiries@bolsover.gov.uk,Bolsover,http://www.bolsover.gov.uk/,-1.32239500000000,DE55 2DY,2013-03-19,fhrs_5_en-GB,5,,FHRS,5
46562,Market Place,Bolsover,Chesterfield,,The White Swan,Pub/bar/nightclub,7843,0,,24279,0,,53.22961400000000,07560/2001/2/000,063,enquiries@bolsover.gov.uk,Bolsover,http://www.bolsover.gov.uk/,-1.29161200000000,S44 6PH,2012-01-12,fhrs_5_en-GB,5,,FHRS,0
46563,Pattison Street,Shuttlewood,Chesterfield,Derbyshire,The Woodman Public House,Pub/bar/nightclub,7843,5,,32054,5,,53.24983600000000,09180/2000/2/000,063,enquiries@bolsover.gov.uk,Bolsover,http://www.bolsover.gov.uk/,-1.30018000000000,S44 6QZ,2008-10-29,fhrs_5_en-GB,5,,FHRS,5
46564,Oxcroft Lane,Bolsover,Chesterfield,,Thomas College House,Hospitals/Childcare/Caring Premises,5,5,,28380,0,,53.23093100000000,08920/2004/2/000,063,enquiries@bolsover.gov.uk,Bolsover,http://www.bolsover.gov.uk/,-1.28935800000000,S44 6DJ,2014-03-14,fhrs_5_en-GB,5,,FHRS,5
46565,Whitwell Community Centre,Portland Street,Whitwell,Worksop,Thursday Luncheon Club,Other catering premises,7841,5,,718648,0,,53.28425200000000,14/00202/COMM,063,enquiries@bolsover.gov.uk,Bolsover,http://www.bolsover.gov.uk/,-1.20644200000000,S80 4QR,2014-10-16,fhrs_5_en-GB,5,,FHRS,0
46566,Doe Hill Lane,Tibshelf,Alfreton,,Tibshelf Community School,School/college/university,7845,5,,624842,5,,53.14021900000000,13/00087/COMM,063,enquiries@bolsover.gov.uk,Bolsover,http://www.bolsover.gov.uk/,-1.35021800000000,DE55 5LX,2013-12-09,fhrs_5_en-GB,5,,FHRS,5
46567,143 High Street,Tibshelf,Alfreton,,Tibshelf Curry House,Takeaway/sandwich shop,7844,10,,726276,10,,53.14457600000000,14/00165/COMM,063,enquiries@bolsover.gov.uk,Bolsover,http://www.bolsover.gov.uk/,-1.33994100000000,DE55 5PP,2014-11-12,fhrs_3_en-GB,3,,FHRS,10
46568,141 High Street,Tibshelf,Alfreton,,Tibshelf Fish Bar,Takeaway/sandwich shop,7844,5,,17394,5,,53.14457600000000,05910/0141/0/000,063,enquiries@bolsover.gov.uk,Bolsover,http://www.bolsover.gov.uk/,-1.33994100000000,DE55 5PP,2014-02-28,fhrs_5_en-GB,5,,FHRS,5
46569,High Street,Tibshelf,Alfreton,,Tibshelf Infant And Nursery School,School/college/university,7845,0,,17398,0,,53.14457600000000,05910/2015/2/000,063,enquiries@bolsover.gov.uk,Bolsover,http://www.bolsover.gov.uk/,-1.33994100000000,DE55 5PP,2014-12-08,fhrs_5_en-GB,5,,FHRS,0
46570,123 - 125 High Street,Tibshelf,Alfreton,,Tibshelf Pizzeria Kebab House,Takeaway/sandwich shop,7844,5,,410371,5,,53.14457600000000,12/00027/COMM,063,enquiries@bolsover.gov.uk,Bolsover,http://www.bolsover.gov.uk/,-1.33994100000000,DE55 5PP,2013-12-19,fhrs_5_en-GB,5,,FHRS,5
46571,110 High Street,Tibshelf,Alfreton,,Tibshelf Playgroup,Hospitals/Childcare/Caring Premises,5,5,,45730,0,,53.14336800000000,11/00024/COMM,063,enquiries@bolsover.gov.uk,Bolsover,http://www.bolsover.gov.uk/,-1.34245600000000,DE55 5NU,2011-05-27,fhrs_5_en-GB,5,,FHRS,0
46572,115 High Street,Tibshelf,Alfreton,,Tibshelf Post Office And Convenience Store,Retailers - other,4613,5,,35014,0,,53.14457600000000,10/00178/COMM,063,enquiries@bolsover.gov.uk,Bolsover,http://www.bolsover.gov.uk/,-1.33994100000000,DE55 5PP,2010-11-29,fhrs_5_en-GB,5,,FHRS,0
46573,110 High Street,Tibshelf,Alfreton,,Tibshelf Village Hall,Other catering premises,7841,,,17391,,,53.14336800000000,05910/0110/0/000,063,enquiries@bolsover.gov.uk,Bolsover,http://www.bolsover.gov.uk/,-1.34245600000000,DE55 5NU,2009-04-17,fhrs_exempt_en-GB,Exempt,,FHRS,
46574,,,,,Time To Dine,Mobile caterer,7846,5,,28495,5,,,09/00003/MOBILE,063,enquiries@bolsover.gov.uk,Bolsover,http://www.bolsover.gov.uk/,,,2014-06-16,fhrs_5_en-GB,5,,FHRS,0
46575,Pleasley Park Farm,Wood Lane,Pleasley,Mansfield,Timys,Mobile caterer,7846,5,,395961,0,,53.18902900000000,12/00002/MOBILE,063,enquiries@bolsover.gov.uk,Bolsover,http://www.bolsover.gov.uk/,-1.23213100000000,NG19 8RY,2014-05-29,fhrs_5_en-GB,5,,FHRS,0
46576,Gloves Lane,Blackwell,Alfreton,,Tiny Tots Day Nursery,Hospitals/Childcare/Caring Premises,5,0,,16352,5,,53.12119500000000,05000/2000/3/001,063,enquiries@bolsover.gov.uk,Bolsover,http://www.bolsover.gov.uk/,-1.35616800000000,DE55 5JJ,2012-01-25,fhrs_5_en-GB,5,,FHRS,5
46577,,,,,TJs Catering,Mobile caterer,7846,0,,528086,0,,,13/00011/MOBILE,063,enquiries@bolsover.gov.uk,Bolsover,http://www.bolsover.gov.uk/,,,2013-02-28,fhrs_5_en-GB,5,,FHRS,0
46578,5 Mansfield Road,Bramley Vale,Chesterfield,Derbyshire,Toms News And Post Office,Retailers - other,4613,5,,24148,5,,53.19065200000000,07440/0005/2/000,063,enquiries@bolsover.gov.uk,Bolsover,http://www.bolsover.gov.uk/,-1.30476600000000,S44 5PN,2010-05-24,fhrs_5_en-GB,5,,FHRS,0
46579,68 Elmton Road,Creswell,Worksop,,Top 50 Video And Caribbean Sun Lounge,Retailers - other,4613,,,13759,,,53.26208400000000,04370/0068/0/000,063,enquiries@bolsover.gov.uk,Bolsover,http://www.bolsover.gov.uk/,-1.21853100000000,S80 4DD,2009-03-16,fhrs_exempt_en-GB,Exempt,,FHRS,
46580,1 Bolsover Road,Shuttlewood,Chesterfield,,Top Nosh,Takeaway/sandwich shop,7844,10,,46160,5,,53.25064100000000,11/00050/COMM,063,enquiries@bolsover.gov.uk,Bolsover,http://www.bolsover.gov.uk/,-1.29947800000000,S44 6QX,2014-11-11,fhrs_3_en-GB,3,,FHRS,10
46581,Carter Lane East,South Normanton,Alfreton,,Touchbase The Castlewood,Restaurant/Cafe/Canteen,1,0,,14726,0,,53.10342400000000,05/00045/COMM,063,enquiries@bolsover.gov.uk,Bolsover,http://www.bolsover.gov.uk/,-1.32381300000000,DE55 2EH,2008-07-02,fhrs_5_en-GB,5,,FHRS,0
46582,Alfreton Road,Tibshelf,Alfreton,,Town End Junior School,School/college/university,7845,0,,1477,0,,53.13729800000000,00230/2006/2/000,063,enquiries@bolsover.gov.uk,Bolsover,http://www.bolsover.gov.uk/,-1.35027700000000,DE55 5PB,2014-12-17,fhrs_5_en-GB,5,,FHRS,0
46583,38 Town End,Bolsover,Chesterfield,Derbyshire,Town End Pharmacy,Retailers - other,4613,,,55719,,,53.22919100000000,12580/0038/0/000,063,enquiries@bolsover.gov.uk,Bolsover,http://www.bolsover.gov.uk/,-1.28998600000000,S44 6DT,2009-01-14,fhrs_exempt_en-GB,Exempt,,FHRS,
46584,3 Town Street,Pinxton,Nottingham,,Town Street Stores,Retailers - other,4613,5,,55753,0,,53.09267900000000,12590/0003/0/000,063,enquiries@bolsover.gov.uk,Bolsover,http://www.bolsover.gov.uk/,-1.31079500000000,NG16 6HH,2013-11-25,fhrs_5_en-GB,5,,FHRS,0
46585,,,,,Tracey's Meals On Wheels,Mobile caterer,7846,5,,683998,5,,,14/00004/MOBILE,063,enquiries@bolsover.gov.uk,Bolsover,http://www.bolsover.gov.uk/,,,2014-07-21,fhrs_5_en-GB,5,,FHRS,5
46586,52 Creswell Road,Clowne,Chesterfield,,Travellers Rest,Pub/bar/nightclub,7843,5,,9141,5,,53.27758200000000,03690/0052/2/000,063,enquiries@bolsover.gov.uk,Bolsover,http://www.bolsover.gov.uk/,-1.25371600000000,S43 4LT,2014-10-21,fhrs_5_en-GB,5,,FHRS,5
46587,22 Elmton Road,Creswell,Worksop,,Trawlers Catch,Takeaway/sandwich shop,7844,0,,528087,0,,53.26370500000000,13/00012/COMM,063,enquiries@bolsover.gov.uk,Bolsover,http://www.bolsover.gov.uk/,-1.21349400000000,S80 4ES,2013-03-19,fhrs_5_en-GB,5,,FHRS,0
46588,,,,,Treat Dayz,Other catering premises,7841,0,,455763,0,,,12/00059/COMM,063,enquiries@bolsover.gov.uk,Bolsover,http://www.bolsover.gov.uk/,,,2012-07-06,fhrs_5_en-GB,5,,FHRS,0
46589,1 Tallys End,Barlborough,Chesterfield,,Treble Bob Public House,Pub/bar/nightclub,7843,5,,62998,5,,53.28369400000000,13946/0001/2/000,063,enquiries@bolsover.gov.uk,Bolsover,http://www.bolsover.gov.uk/,-1.29206800000000,S43 4WP,2013-06-19,fhrs_5_en-GB,5,,FHRS,0
46590,11 Ash Close,Barlborough,Chesterfield,,Tree Tops Day Nursery,Hospitals/Childcare/Caring Premises,5,0,,9779,0,,53.28324000000000,04/00062/COMM,063,enquiries@bolsover.gov.uk,Bolsover,http://www.bolsover.gov.uk/,-1.28523600000000,S43 4XL,2014-08-27,fhrs_5_en-GB,5,,FHRS,0
46591,,,,,Truly Scrumptious Gelato,Mobile caterer,7846,0,,410370,0,,,12/00003/MOBILE,063,enquiries@bolsover.gov.uk,Bolsover,http://www.bolsover.gov.uk/,,,2012-05-11,fhrs_5_en-GB,5,,FHRS,0
46592,100 - 102 Elmton Road,Creswell,Worksop,Derbyshire,Turner's,Retailers - other,4613,,,45826,,,53.26167000000000,11/00030/COMM,063,enquiries@bolsover.gov.uk,Bolsover,http://www.bolsover.gov.uk/,-1.21970800000000,S80 4DE,2011-05-25,fhrs_exempt_en-GB,Exempt,,FHRS,
46593,Normanton Brook Road,South Normanton,Alfreton,Derbyshire,UDG Canteen,Restaurant/Cafe/Canteen,1,5,,45842,5,,53.11317200000000,11/00031/COMM,063,enquiries@bolsover.gov.uk,Bolsover,http://www.bolsover.gov.uk/,-1.31828100000000,DE55 2FW,2014-06-10,fhrs_5_en-GB,5,,FHRS,5
46594,UDG Canteen,Normanton Brook Road,South Normanton,Alfreton,UDG Canteen AP2,Restaurant/Cafe/Canteen,1,5,,45936,5,,53.11317200000000,11/00037/COMM,063,enquiries@bolsover.gov.uk,Bolsover,http://www.bolsover.gov.uk/,-1.31828100000000,DE55 2FW,2014-06-10,fhrs_5_en-GB,5,,FHRS,5
46595,Unit A,Brook Park East Road,Shirebrook,Mansfield,Unique Catering Ltd,Restaurant/Cafe/Canteen,1,5,,395965,5,,53.19626200000000,12/00036/COMM,063,enquiries@bolsover.gov.uk,Bolsover,http://www.bolsover.gov.uk/,-1.20426500000000,NG20 8RY,2013-12-17,fhrs_5_en-GB,5,,FHRS,5
46596,Mill 1 Yard,Pleasley Vale Business Park,Outgang Lane,Pleasley,Vale Catering,Mobile caterer,7846,5,,46271,5,,53.17887200000000,11/00056/COMM,063,enquiries@bolsover.gov.uk,Bolsover,http://www.bolsover.gov.uk/,-1.22665700000000,NG19 8RL,2014-09-25,fhrs_5_en-GB,5,,FHRS,5
46597,3 Mansfield Road,Bramley Vale,Chesterfield,,Vale Stores,Retailers - other,4613,5,,683999,5,,53.19065200000000,14/00090/COMM,063,enquiries@bolsover.gov.uk,Bolsover,http://www.bolsover.gov.uk/,-1.30476600000000,S44 5PN,2014-06-18,fhrs_5_en-GB,5,,FHRS,5
46598,DCC Kitchen,Valley View,Pleasant Avenue,Hillstown,Valley View Day Centre,Hospitals/Childcare/Caring Premises,5,5,,32381,0,,53.21995400000000,09540/0000/0/000,063,enquiries@bolsover.gov.uk,Bolsover,http://www.bolsover.gov.uk/,-1.28760700000000,S44 6NB,2014-08-13,fhrs_5_en-GB,5,,FHRS,5
46599,3 King Edward Street,Shirebrook,Mansfield,,Variety Island,Takeaway/sandwich shop,7844,20,,21447,15,,53.20248100000000,07/00024/COMM,063,enquiries@bolsover.gov.uk,Bolsover,http://www.bolsover.gov.uk/,-1.21344700000000,NG20 8AU,2014-03-21,fhrs_1_en-GB,1,,FHRS,10
46600,9 - 11 Wharf Road,Pinxton,Nottingham,,Vee Bee Superstore/Costcutter,Retailers - other,4613,5,,60878,10,,53.08713200000000,13320/0009/0/000,063,enquiries@bolsover.gov.uk,Bolsover,http://www.bolsover.gov.uk/,-1.32173900000000,NG16 6NZ,2014-03-10,fhrs_4_en-GB,4,,FHRS,5
46601,93 Wharf Road,Pinxton,Nottingham,,Venezia Pizza,Takeaway/sandwich shop,7844,20,,35305,10,,53.08876600000000,10/00219/COMM,063,enquiries@bolsover.gov.uk,Bolsover,http://www.bolsover.gov.uk/,-1.31810000000000,NG16 6LH,2014-06-11,fhrs_1_en-GB,1,,FHRS,15
46602,Titchfield Street,Creswell,Worksop,,Victoria House,Other catering premises,7841,0,,28498,0,,53.26141800000000,09/00004/COMM,063,enquiries@bolsover.gov.uk,Bolsover,http://www.bolsover.gov.uk/,-1.21290600000000,S80 4AU,2013-05-16,fhrs_5_en-GB,5,,FHRS,0
46603,The Village Hall,High Street,Barlborough,Chesterfield,Village Hall,Other catering premises,7841,0,,17325,0,,53.29058400000000,05840/2005/2/000,063,enquiries@bolsover.gov.uk,Bolsover,http://www.bolsover.gov.uk/,-1.28815900000000,S43 4ET,2010-04-08,fhrs_5_en-GB,5,,FHRS,0
46604,124 Elmton Road,Creswell,Worksop,,Vin Lee,Takeaway/sandwich shop,7844,5,,14834,5,,53.26093400000000,05/00059/COMM,063,enquiries@bolsover.gov.uk,Bolsover,http://www.bolsover.gov.uk/,-1.22126500000000,S80 4BJ,2013-11-14,fhrs_5_en-GB,5,,FHRS,5
46605,32 Elmton Road,Creswell,Worksop,,Virk Stores,Retailers - other,4613,10,,21795,5,,53.26370500000000,07/00069/COMM,063,enquiries@bolsover.gov.uk,Bolsover,http://www.bolsover.gov.uk/,-1.21349400000000,S80 4ES,2010-04-19,fhrs_4_en-GB,4,,FHRS,0
46606,2 Elmton Road,Creswell,Worksop,,Viva La Mama (Monroes),Pub/bar/nightclub,7843,5,,25256,0,,53.26390800000000,08/00061/COMM,063,enquiries@bolsover.gov.uk,Bolsover,http://www.bolsover.gov.uk/,-1.21287500000000,S80 4HE,2011-02-15,fhrs_5_en-GB,5,,FHRS,0
46607,80 Moorfield Avenue,Bolsover,Chesterfield,,Voyage,Hospitals/Childcare/Caring Premises,5,5,,18019,0,,53.22619000000000,06/00059/COMM,063,enquiries@bolsover.gov.uk,Bolsover,http://www.bolsover.gov.uk/,-1.28118300000000,S44 6EL,2014-07-30,fhrs_5_en-GB,5,,FHRS,5
46608,,,,,W Oliver And Son (Mobile),Retailers - other,4613,0,,13763,0,,,04370/0142/0/000,063,enquiries@bolsover.gov.uk,Bolsover,http://www.bolsover.gov.uk/,,,2013-09-05,fhrs_5_en-GB,5,,FHRS,0
46609,217 Station Road,Shirebrook,Mansfield,,Wains Fruits,Retailers - other,4613,0,,51842,0,,53.20404300000000,11650/0217/0/000,063,enquiries@bolsover.gov.uk,Bolsover,http://www.bolsover.gov.uk/,-1.21186100000000,NG20 8AF,2010-10-06,fhrs_5_en-GB,5,,FHRS,5
46610,6 - 8 King Edward Street,Shirebrook,Mansfield,,Welcome Fish Bar,Takeaway/sandwich shop,7844,5,,10114,5,,53.20248100000000,04/00127/COMM,063,enquiries@bolsover.gov.uk,Bolsover,http://www.bolsover.gov.uk/,-1.21344700000000,NG20 8AU,2014-09-17,fhrs_5_en-GB,5,,FHRS,5
46611,Chesterfield Road,Pleasley,Mansfield,,West View,Hospitals/Childcare/Caring Premises,5,5,,7164,5,,53.17574500000000,02720/2038/2/000,063,enquiries@bolsover.gov.uk,Bolsover,http://www.bolsover.gov.uk/,-1.25078600000000,NG19 7PE,2012-02-17,fhrs_5_en-GB,5,,FHRS,0
46612,13 Derwent Drive,Tibshelf,Alfreton,Derbyshire,West View Store,Retailers - other,4613,5,,9303,0,,53.14271900000000,03970/0013/0/000,063,enquiries@bolsover.gov.uk,Bolsover,http://www.bolsover.gov.uk/,-1.34871500000000,DE55 5LS,2011-01-31,fhrs_5_en-GB,5,,FHRS,0
46613,Bolden Terrace,Westhouses,Alfreton,,Westhouses Primary School,School/college/university,7845,5,,4353,5,,53.11705800000000,01080/0000/2/000,063,enquiries@bolsover.gov.uk,Bolsover,http://www.bolsover.gov.uk/,-1.36928900000000,DE55 5AA,2014-12-02,fhrs_5_en-GB,5,,FHRS,5
46614,2 Alfreton Road,Westhouses,Alfreton,,Westhouses Social Club,Pub/bar/nightclub,7843,5,,1480,0,,53.11556400000000,00240/2000/2/000,063,enquiries@bolsover.gov.uk,Bolsover,http://www.bolsover.gov.uk/,-1.37064000000000,DE55 5AH,2012-02-21,fhrs_5_en-GB,5,,FHRS,0
46615,WH Smiths,Tibshelf Services M1 Southbound,Newtonwood Lane,Tibshelf,WH Smith,Retailers - other,4613,5,,28021,5,,53.13039200000000,08480/2000/4/0S5,063,enquiries@bolsover.gov.uk,Bolsover,http://www.bolsover.gov.uk/,-1.34009900000000,DE55 5TX,2012-05-01,fhrs_5_en-GB,5,,FHRS,5
46616,WH Smiths,Tibshelf Services M1 Northbound,Newtonwood Lane,Tibshelf,WH Smith,Retailers - other,4613,5,,28017,5,,53.13039200000000,08480/2000/4/0N6,063,enquiries@bolsover.gov.uk,Bolsover,http://www.bolsover.gov.uk/,-1.34009900000000,DE55 5TX,2012-05-01,fhrs_5_en-GB,5,,FHRS,5
46617,Whaley Thorns Children Centre DCC,Portland Road,Whaley Thorns,Mansfield,Whaley Thorns Children's Centre,Hospitals/Childcare/Caring Premises,5,5,,28938,5,,53.23772000000000,09/00039/COMM,063,enquiries@bolsover.gov.uk,Bolsover,http://www.bolsover.gov.uk/,-1.20168400000000,NG20 9JB,2009-03-12,fhrs_5_en-GB,5,,FHRS,5
46618,Portland Road,Whaley Thorns,Mansfield,,Whaley Thorns Community Centre,Other catering premises,7841,,,62752,,,53.23141400000000,13882/2000/2/000,063,enquiries@bolsover.gov.uk,Bolsover,http://www.bolsover.gov.uk/,-1.20359900000000,NG20 9EY,2011-03-08,fhrs_exempt_en-GB,Exempt,,FHRS,
46619,Portland Road,Whaley Thorns,Mansfield,,Whaley Thorns Primary School,School/college/university,7845,5,,32534,0,,53.23454800000000,09710/2003/2/000,063,enquiries@bolsover.gov.uk,Bolsover,http://www.bolsover.gov.uk/,-1.20318100000000,NG20 9HB,2013-05-21,fhrs_5_en-GB,5,,FHRS,5
46620,65 - 67 Wharf Road,Pinxton,Nottingham,,Wharf Aquatics Ltd,Retailers - other,4613,,,60883,,,53.08876600000000,13320/0065/0/000,063,enquiries@bolsover.gov.uk,Bolsover,http://www.bolsover.gov.uk/,-1.31810000000000,NG16 6LH,2010-11-11,fhrs_exempt_en-GB,Exempt,,FHRS,
46621,White Hart Inn,Mansfield Road,Tibshelf,Alfreton,Whitehart Tibshelf Ltd,Pub/bar/nightclub,7843,0,,46181,0,,53.14733300000000,11/00051/COMM,063,enquiries@bolsover.gov.uk,Bolsover,http://www.bolsover.gov.uk/,-1.33296100000000,DE55 5NF,2012-12-14,fhrs_5_en-GB,5,,FHRS,0
46622,Chesterfield Road,Hardstoft,Chesterfield,,Whitton Lodge,Hotel/bed & breakfast/guest house,7842,0,,21596,0,,53.16223700000000,07/00041/COMM,063,enquiries@bolsover.gov.uk,Bolsover,http://www.bolsover.gov.uk/,-1.34433700000000,S45 8AE,2010-11-25,fhrs_5_en-GB,5,,FHRS,0
46623,Portland Street,Whitwell,Worksop,,Whitwell Community Centre,Other catering premises,7841,0,,54912,0,,53.28425200000000,12380/2004/2/000,063,enquiries@bolsover.gov.uk,Bolsover,http://www.bolsover.gov.uk/,-1.20644200000000,S80 4QR,2014-10-16,fhrs_5_en-GB,5,,FHRS,0
46624,Portland Street,Whitwell,Worksop,,Whitwell Methodist Church,Other catering premises,7841,,,32552,,,53.28400600000000,09750/2009/2/000,063,enquiries@bolsover.gov.uk,Bolsover,http://www.bolsover.gov.uk/,-1.20997100000000,S80 4RJ,2010-03-11,fhrs_exempt_en-GB,Exempt,,FHRS,
46625,3 Welbeck Street,Whitwell,Worksop,,Whitwell Newsagents,Retailers - other,4613,,,58529,,,53.28437400000000,13000/0003/0/000,063,enquiries@bolsover.gov.uk,Bolsover,http://www.bolsover.gov.uk/,-1.20309500000000,S80 4TE,2011-03-22,fhrs_exempt_en-GB,Exempt,,FHRS,
46626,130 Welbeck Street,Whitwell,Worksop,,Whitwell Park Nursing Home,Hospitals/Childcare/Caring Premises,5,5,,58534,5,,53.28344800000000,13000/2005/2/000,063,enquiries@bolsover.gov.uk,Bolsover,http://www.bolsover.gov.uk/,-1.20041200000000,S80 4TP,2014-08-19,fhrs_5_en-GB,5,,FHRS,5
46627,Southfield Lane,Whitwell,Worksop,,Whitwell Primary School,School/college/university,7845,0,,49992,0,,53.28273700000000,11110/2000/2/000,063,enquiries@bolsover.gov.uk,Bolsover,http://www.bolsover.gov.uk/,-1.20839000000000,S80 4NW,2012-02-29,fhrs_5_en-GB,5,,FHRS,5
46628,38 Butt Hill,Whitwell,Worksop,,Whitwell Social Club,Pub/bar/nightclub,7843,5,,6193,0,,53.28342200000000,02040/0038/0/000,063,enquiries@bolsover.gov.uk,Bolsover,http://www.bolsover.gov.uk/,-1.20723700000000,S80 4RP,2010-07-01,fhrs_5_en-GB,5,,FHRS,0
46629,7 Mill Green Way,Clowne,Chesterfield,,Wilkinson Retail Store,Retailers - other,4613,5,,17670,5,,53.27557000000000,06/00019/COMM,063,enquiries@bolsover.gov.uk,Bolsover,http://www.bolsover.gov.uk/,-1.26406900000000,S43 4LJ,2009-04-08,fhrs_5_en-GB,5,,FHRS,0
46630,28 - 30 Elmton Road,Creswell,Worksop,Derbyshire,William Hill Bookmakers,Retailers - other,4613,,,13765,,,53.26370500000000,04370/2001/2/000,063,enquiries@bolsover.gov.uk,Bolsover,http://www.bolsover.gov.uk/,-1.21349400000000,S80 4ES,2009-03-13,fhrs_exempt_en-GB,Exempt,,FHRS,
46631,40 Victoria Street,Shirebrook,Mansfield,,William Hill Bookmakers,Retailers - other,4613,,,56665,,,53.20319100000000,12820/0040/0/000,063,enquiries@bolsover.gov.uk,Bolsover,http://www.bolsover.gov.uk/,-1.21341900000000,NG20 8AQ,2011-01-27,fhrs_exempt_en-GB,Exempt,,FHRS,
46632,Shirebrook Community Education Cent,Langwith Road,Shirebrook,Mansfield,Willow Tree Family Farm,Restaurant/Cafe/Canteen,1,10,,21038,15,,53.20599300000000,06730/2000/2/000,063,enquiries@bolsover.gov.uk,Bolsover,http://www.bolsover.gov.uk/,-1.20628600000000,NG20 8TE,2014-12-11,fhrs_2_en-GB,2,,FHRS,0
46633,Woburn House,Woburn Close,Blackwell,Alfreton,Woburn House Community Room,Other catering premises,7841,5,,61565,5,,53.11980300000000,13530/0000/2/000,063,enquiries@bolsover.gov.uk,Bolsover,http://www.bolsover.gov.uk/,-1.35323100000000,DE55 5HE,2009-11-19,fhrs_5_en-GB,5,,FHRS,5
46634,13 Market Street,South Normanton,Alfreton,,Wok Aroma,Takeaway/sandwich shop,7844,10,,24318,10,,53.10188200000000,07600/0013/0/000,063,enquiries@bolsover.gov.uk,Bolsover,http://www.bolsover.gov.uk/,-1.34395500000000,DE55 2AB,2013-11-15,fhrs_3_en-GB,3,,FHRS,10
46635,Stubbin Wood Special School And Nur,Burlington Avenue,Langwith Junction,Mansfield,Woodhoots,Hospitals/Childcare/Caring Premises,5,5,,29599,5,,53.21229300000000,09/00094/COMM,063,enquiries@bolsover.gov.uk,Bolsover,http://www.bolsover.gov.uk/,-1.21422600000000,NG20 9AD,2014-11-05,fhrs_5_en-GB,5,,FHRS,5
46636,The Hill,Glapwell,Chesterfield,,Young Vanish Inn,Pub/bar/nightclub,7843,0,,35113,5,,53.18984700000000,10/00191/COMM,063,enquiries@bolsover.gov.uk,Bolsover,http://www.bolsover.gov.uk/,-1.28569700000000,S44 5NB,2014-05-07,fhrs_5_en-GB,5,,FHRS,5
46637,80 Recreation Road,Shirebrook,Mansfield,,Yummy Takeaway,Takeaway/sandwich shop,7844,5,,32710,5,,53.20946900000000,10/00001/COMM,063,enquiries@bolsover.gov.uk,Bolsover,http://www.bolsover.gov.uk/,-1.22230300000000,NG20 8JY,2014-03-20,fhrs_5_en-GB,5,,FHRS,5
46638,202 Elmton Road,Creswell,Worksop,,Yummy Yummy,Takeaway/sandwich shop,7844,5,,30398,5,,53.26015000000000,09/00189/COMM,063,enquiries@bolsover.gov.uk,Bolsover,http://www.bolsover.gov.uk/,-1.22373800000000,S80 4DY,2014-03-26,fhrs_5_en-GB,5,,FHRS,5
46639,,,,,Ze Crepes,Other catering premises,7841,0,,569822,0,,,13/00014/MOBILE,063,enquiries@bolsover.gov.uk,Bolsover,http://www.bolsover.gov.uk/,,,2013-06-10,fhrs_5_en-GB,5,,FHRS,0
