,addressline1,addressline2,addressline3,addressline4,businessname,businesstype,businesstypeid,confidenceinmanagement,extractdate,fhrsid,hygiene,itemcount,latitude,localauthoritybusinessid,localauthoritycode,localauthorityemailaddress,localauthorityname,localauthoritywebsite,longitude,postcode,ratingdate,ratingkey,ratingvalue,returncode,schemetype,structural
66191,Gosforth Fields Sports Association,Bubnell Road,Dronfield Woodhouse,Dronfield,1220 Catering,Restaurant/Cafe/Canteen,1,0,,594021,10,,53.30402100000000,PI/000131178,068,envhealth@ne-derbyshire.gov.uk,North East Derbyshire,http://www.ne-derbyshire.gov.uk/,-1.48981400000000,S18 8NP,2014-03-22,fhrs_4_en-GB,4,,FHRS,10
66192,Bt Local Business Stadium,Sheffield Road,Dronfield,,3,Other catering premises,7841,10,,593948,10,,53.30255500000000,PI/000102219,068,envhealth@ne-derbyshire.gov.uk,North East Derbyshire,http://www.ne-derbyshire.gov.uk/,-1.47106000000000,S18 2DH,2010-11-12,fhrs_3_en-GB,3,,FHRS,10
66193,28 Hallfieldgate Lane,Shirland,Alfreton,Derbyshire,A B M News,Retailers - other,4613,10,,351491,10,,53.12101000000000,PI/000107483,068,envhealth@ne-derbyshire.gov.uk,North East Derbyshire,http://www.ne-derbyshire.gov.uk/,-1.40906700000000,DE55 6AA,2013-05-13,fhrs_3_en-GB,3,,FHRS,10
66194,Tibshelf Road,Holmewood,Chesterfield,,Abundant Life Christian Centre,Other catering premises,7841,5,,510482,5,,53.18511000000000,PI/000070488,068,envhealth@ne-derbyshire.gov.uk,North East Derbyshire,http://www.ne-derbyshire.gov.uk/,-1.36176600000000,S42 5TA,2012-07-18,fhrs_5_en-GB,5,,FHRS,5
66195,Chesterfield Road,Shirland,Alfreton,,Adastra Service Station,Retailers - other,4613,10,,351075,5,,53.11404400000000,PI/000015656,068,envhealth@ne-derbyshire.gov.uk,North East Derbyshire,http://www.ne-derbyshire.gov.uk/,-1.39649400000000,DE55 6AW,2013-05-30,fhrs_4_en-GB,4,,FHRS,5
66196,193B Sheffield Road,Killamarsh,Sheffield,,Akhtars,Restaurant/Cafe/Canteen,1,5,,351535,5,,53.32496000000000,PI/000115092,068,envhealth@ne-derbyshire.gov.uk,North East Derbyshire,http://www.ne-derbyshire.gov.uk/,-1.32111200000000,S21 1DX,2014-06-17,fhrs_5_en-GB,5,,FHRS,5
66197,7 Parkside Shopping Centre,Killamarsh,Sheffield,,Aldi,Retailers - supermarkets/hypermarkets,7840,5,,510490,0,,53.32452200000000,PI/000124095,068,envhealth@ne-derbyshire.gov.uk,North East Derbyshire,http://www.ne-derbyshire.gov.uk/,-1.31675000000000,S21 1FY,2013-07-03,fhrs_5_en-GB,5,,FHRS,0
66198,Aldi Foodstore Ltd,Sheffield Road,Dronfield,,Aldi,Retailers - supermarkets/hypermarkets,7840,5,,664193,0,,53.30594600000000,14/00055/COMM,068,envhealth@ne-derbyshire.gov.uk,North East Derbyshire,http://www.ne-derbyshire.gov.uk/,-1.47570000000000,S18 2GG,2013-04-09,fhrs_5_en-GB,5,,FHRS,5
66199,2 Alma Road,North Wingfield,Chesterfield,,Alma Convenience Store,Retailers - other,4613,,,454676,,,53.18487000000000,PI/000100014,068,envhealth@ne-derbyshire.gov.uk,North East Derbyshire,http://www.ne-derbyshire.gov.uk/,-1.38281000000000,S42 5QG,2003-02-04,fhrs_exempt_en-GB,Exempt,,FHRS,
66200,Amber Green,Furnace,Alfreton,,Amber Hotel,Pub/bar/nightclub,7843,5,,351375,5,,53.10802900000000,PI/000101464,068,envhealth@ne-derbyshire.gov.uk,North East Derbyshire,http://www.ne-derbyshire.gov.uk/,-1.42360000000000,DE55 7LL,2014-03-04,fhrs_5_en-GB,5,,FHRS,5
66201,House 1,Amberley House,Cedar Close,Eckington,Amberley Core Unit,Hospitals/Childcare/Caring Premises,5,5,,351257,5,,53.30373500000000,PI/000100258,068,envhealth@ne-derbyshire.gov.uk,North East Derbyshire,http://www.ne-derbyshire.gov.uk/,-1.37149500000000,S21 4BA,2011-09-23,fhrs_5_en-GB,5,,FHRS,5
66202,Amberley Nursing Home,Cedar Close,Eckington,Sheffield,Amberley House Nursing Home,Hospitals/Childcare/Caring Premises,5,0,,593983,0,,53.30373500000000,PI/000124815,068,envhealth@ne-derbyshire.gov.uk,North East Derbyshire,http://www.ne-derbyshire.gov.uk/,-1.37149500000000,S21 4BA,2013-07-19,fhrs_5_en-GB,5,,FHRS,5
66203,Meadow View Residential Nursing Hom,Church Lane,Calow,Chesterfield,Amberley Nursing Home,Hospitals/Childcare/Caring Premises,5,5,,732304,5,,53.23458300000000,14/00153/COMM,068,envhealth@ne-derbyshire.gov.uk,North East Derbyshire,http://www.ne-derbyshire.gov.uk/,-1.38873200000000,S44 5AG,2015-01-07,fhrs_5_en-GB,5,,FHRS,5
66204,Bt Local Business Stadium,Sheffield Road,Dronfield,,AMC Catering,Restaurant/Cafe/Canteen,1,5,,622768,5,,53.30255500000000,PI/000131743,068,envhealth@ne-derbyshire.gov.uk,North East Derbyshire,http://www.ne-derbyshire.gov.uk/,-1.47106000000000,S18 2DH,2013-11-25,fhrs_5_en-GB,5,,FHRS,5
66205,,,,,Amy's Cupcakes And Cakes,Other catering premises,7841,5,,510530,5,,,PI/000131348,068,envhealth@ne-derbyshire.gov.uk,North East Derbyshire,http://www.ne-derbyshire.gov.uk/,,,2013-02-18,fhrs_5_en-GB,5,,FHRS,5
66206,42 Heath Road,Holmewood,Chesterfield,,Anaarkali,Restaurant/Cafe/Canteen,1,,,351637,,,53.18847600000000,PI/000129901,068,envhealth@ne-derbyshire.gov.uk,North East Derbyshire,http://www.ne-derbyshire.gov.uk/,-1.35418900000000,S42 5RA,2014-11-27,fhrs_5_en-GB,5,,FHRS,
66207,,,,,Ananda Foods,Other catering premises,7841,5,,510499,5,,,PI/000130956,068,envhealth@ne-derbyshire.gov.uk,North East Derbyshire,http://www.ne-derbyshire.gov.uk/,,,2013-04-19,fhrs_5_en-GB,5,,FHRS,5
66208,Greenbank,Hockley Lane,Ashover,Chesterfield,Andrassy Fine Wines Ltd,Retailers - other,4613,,,351462,,,53.16070300000000,PI/000102922,068,envhealth@ne-derbyshire.gov.uk,North East Derbyshire,http://www.ne-derbyshire.gov.uk/,-1.47777000000000,S45 0ER,2013-03-01,fhrs_exempt_en-GB,Exempt,,FHRS,
66209,,,,,Ankerbold Farm,Retailers - other,4613,10,,351048,5,,,PI/000001252,068,envhealth@ne-derbyshire.gov.uk,North East Derbyshire,http://www.ne-derbyshire.gov.uk/,,,2013-03-01,fhrs_3_en-GB,3,,FHRS,10
66210,West Street,Eckington,Sheffield,,April Park Nursing Home,Hospitals/Childcare/Caring Premises,5,5,,351227,10,,53.30581500000000,PI/000073858,068,envhealth@ne-derbyshire.gov.uk,North East Derbyshire,http://www.ne-derbyshire.gov.uk/,-1.36870300000000,S21 4GA,2014-09-30,fhrs_4_en-GB,4,,FHRS,5
66211,Chesterfield Road,Duckmanton,Chesterfield,,Arkwright Arms,Pub/bar/nightclub,7843,5,,351070,5,,53.23727700000000,PI/000015316,068,envhealth@ne-derbyshire.gov.uk,North East Derbyshire,http://www.ne-derbyshire.gov.uk/,-1.34256200000000,S44 5JG,2014-02-07,fhrs_5_en-GB,5,,FHRS,5
66212,School Lane,Arkwright Town,Chesterfield,,Arkwright Primary School,School/college/university,7845,5,,351184,5,,53.23579900000000,PI/000060880,068,envhealth@ne-derbyshire.gov.uk,North East Derbyshire,http://www.ne-derbyshire.gov.uk/,-1.36180700000000,S44 5BZ,2014-06-10,fhrs_5_en-GB,5,,FHRS,0
66213,Hardwick Drive,Arkwright Town,Chesterfield,,Arkwright Town Miners Welfare,Pub/bar/nightclub,7843,10,,351513,10,,53.23447500000000,PI/000112704,068,envhealth@ne-derbyshire.gov.uk,North East Derbyshire,http://www.ne-derbyshire.gov.uk/,-1.36121300000000,S44 5BS,2013-07-09,fhrs_3_en-GB,3,,FHRS,10
66214,Post Office,38 Hardwick Drive,Arkwright Town,Chesterfield,Arkwright Town Post Office & Store,Retailers - other,4613,10,,351298,10,,53.23447500000000,PI/000100659,068,envhealth@ne-derbyshire.gov.uk,North East Derbyshire,http://www.ne-derbyshire.gov.uk/,-1.36121300000000,S44 5BS,2014-06-10,fhrs_4_en-GB,4,,FHRS,0
66215,Ashgate Road,Ashgate,Chesterfield,,Ash Green Specialist Learning Disability Services,Hospitals/Childcare/Caring Premises,5,5,,351049,5,,53.23930600000000,PI/000002187,068,envhealth@ne-derbyshire.gov.uk,North East Derbyshire,http://www.ne-derbyshire.gov.uk/,-1.48065000000000,S42 7JE,2014-09-10,fhrs_5_en-GB,5,,FHRS,5
66216,Ashgate House Nursing Home,Ashgate Road,Ashgate,Chesterfield,Ashgate Care Limited,Hospitals/Childcare/Caring Premises,5,5,,351238,5,,53.23930600000000,PI/000100025,068,envhealth@ne-derbyshire.gov.uk,North East Derbyshire,http://www.ne-derbyshire.gov.uk/,-1.48065000000000,S42 7JE,2014-03-06,fhrs_5_en-GB,5,,FHRS,5
66217,Ashgate Road,Ashgate,Chesterfield,,Ashgate Hospice,Hospitals/Childcare/Caring Premises,5,5,,351050,5,,53.24027400000000,PI/000002215,068,envhealth@ne-derbyshire.gov.uk,North East Derbyshire,http://www.ne-derbyshire.gov.uk/,-1.47996400000000,S42 7JD,2014-03-12,fhrs_5_en-GB,5,,FHRS,5
66218,,,,,Ashley Catering,Mobile caterer,7846,5,,351451,5,,,PI/000102768,068,envhealth@ne-derbyshire.gov.uk,North East Derbyshire,http://www.ne-derbyshire.gov.uk/,,,2013-03-06,fhrs_5_en-GB,5,,FHRS,5
66219,,,,,Ashmore House,Retailers - other,4613,5,,351121,5,,,PI/000035318,068,envhealth@ne-derbyshire.gov.uk,North East Derbyshire,http://www.ne-derbyshire.gov.uk/,,,2013-02-07,fhrs_5_en-GB,5,,FHRS,5
66220,Sports Pavilion,Milken Lane,Far Hill,Ashover,Ashover Cricket Club,Pub/bar/nightclub,7843,0,,351364,0,,53.16611600000000,PI/000101344,068,envhealth@ne-derbyshire.gov.uk,North East Derbyshire,http://www.ne-derbyshire.gov.uk/,-1.47155600000000,,1996-10-23,fhrs_5_en-GB,5,,FHRS,0
66221,Moor Road,Ashover,Chesterfield,Derbyshire,Ashover Post Office,Retailers - other,4613,,,351156,,,53.16585200000000,PI/000048102,068,envhealth@ne-derbyshire.gov.uk,North East Derbyshire,http://www.ne-derbyshire.gov.uk/,-1.47930800000000,S45 0BN,2013-03-07,fhrs_exempt_en-GB,Exempt,,FHRS,
66222,Narrowleys Lane,Ashover,Chesterfield,,Ashover Primary School,School/college/university,7845,10,,351158,5,,53.16606300000000,PI/000048659,068,envhealth@ne-derbyshire.gov.uk,North East Derbyshire,http://www.ne-derbyshire.gov.uk/,-1.48238600000000,S45 0AU,2014-03-13,fhrs_3_en-GB,3,,FHRS,10
66223,40 - 42 Chesterfield Road,Dronfield,,,Ayesha's Restaurant,Restaurant/Cafe/Canteen,1,10,,351265,10,,53.30109700000000,PI/000100317,068,envhealth@ne-derbyshire.gov.uk,North East Derbyshire,http://www.ne-derbyshire.gov.uk/,-1.46674100000000,S18 2XB,2013-10-16,fhrs_3_en-GB,3,,FHRS,10
66224,29 Church Lane,Temple Normanton,Chesterfield,,B And B Church Villa,Hotel/bed & breakfast/guest house,7842,5,,594020,5,,53.20251200000000,PI/000131164,068,envhealth@ne-derbyshire.gov.uk,North East Derbyshire,http://www.ne-derbyshire.gov.uk/,-1.37514600000000,S42 5DB,2014-09-19,fhrs_5_en-GB,5,,FHRS,5
66225,,,,,Bakey Wakey Woo,Other catering premises,7841,5,,664209,5,,,14/00083/COMM,068,envhealth@ne-derbyshire.gov.uk,North East Derbyshire,http://www.ne-derbyshire.gov.uk/,,,2014-04-30,fhrs_5_en-GB,5,,FHRS,5
66226,,,,,Bam's Cupcakes And Bakes,Other catering premises,7841,0,,664171,0,,,14/00015/COMM,068,envhealth@ne-derbyshire.gov.uk,North East Derbyshire,http://www.ne-derbyshire.gov.uk/,,,2014-02-25,fhrs_5_en-GB,5,,FHRS,0
66227,Renishaw Service Station,Station Road,Renishaw,Sheffield,Bargain Booze,Retailers - other,4613,5,,351201,5,,53.29997900000000,PI/000066451,068,envhealth@ne-derbyshire.gov.uk,North East Derbyshire,http://www.ne-derbyshire.gov.uk/,-1.33691900000000,S21 3WF,2013-02-01,fhrs_5_en-GB,5,,FHRS,5
66228,Langer Lane,Wingerworth,Chesterfield,,Barley Mow Inn,Pub/bar/nightclub,7843,5,,351127,5,,53.20392100000000,PI/000038458,068,envhealth@ne-derbyshire.gov.uk,North East Derbyshire,http://www.ne-derbyshire.gov.uk/,-1.44370900000000,S42 6TX,2014-05-15,fhrs_4_en-GB,4,,FHRS,10
66229,Units 5-6,The Shippen Rural Business Centre,Hackney Lane,Barlow,Barlow Brewery,Retailers - other,4613,5,,351641,5,,53.26899000000000,PI/000129939,068,envhealth@ne-derbyshire.gov.uk,North East Derbyshire,http://www.ne-derbyshire.gov.uk/,-1.48537300000000,S18 7TR,2013-05-21,fhrs_4_en-GB,4,,FHRS,10
66230,Millcross Lane,Barlow,Dronfield,,Barlow Church Of England School,School/college/university,7845,0,,351151,5,,53.27202600000000,PI/000047371,068,envhealth@ne-derbyshire.gov.uk,North East Derbyshire,http://www.ne-derbyshire.gov.uk/,-1.48908600000000,S18 7TA,2009-05-21,fhrs_5_en-GB,5,,FHRS,5
66231,Barlow Village Hall,Millcross Lane,Barlow,Dronfield,Barlow Pre School,Hospitals/Childcare/Caring Premises,5,0,,351623,5,,53.27202600000000,PI/000129648,068,envhealth@ne-derbyshire.gov.uk,North East Derbyshire,http://www.ne-derbyshire.gov.uk/,-1.48908600000000,S18 7TA,2013-11-11,fhrs_5_en-GB,5,,FHRS,0
66232,Mill Lane,Old Tupton,Chesterfield,,Batemans Mill Hotel,Pub/bar/nightclub,7843,5,,351153,5,,53.17308400000000,PI/000047548,068,envhealth@ne-derbyshire.gov.uk,North East Derbyshire,http://www.ne-derbyshire.gov.uk/,-1.43688200000000,S42 6AE,2014-05-27,fhrs_5_en-GB,5,,FHRS,5
66233,23 High Street,Clay Cross,Chesterfield,,"Beaumanor Care Ltd, The Willow",Hospitals/Childcare/Caring Premises,5,5,,622769,5,,53.16916700000000,PI/000131744,068,envhealth@ne-derbyshire.gov.uk,North East Derbyshire,http://www.ne-derbyshire.gov.uk/,-1.41673800000000,S45 9DX,2014-06-23,fhrs_5_en-GB,5,,FHRS,5
66234,2 Callywhite Lane,Dronfield,,,Beer Shop At Dronfield,Retailers - other,4613,5,,732306,5,,53.29958600000000,14/00211/COMM,068,envhealth@ne-derbyshire.gov.uk,North East Derbyshire,http://www.ne-derbyshire.gov.uk/,-1.45855200000000,S18 2XP,2015-01-23,fhrs_5_en-GB,5,,FHRS,5
66235,,,,,Bee's,Other catering premises,7841,10,,593964,10,,,PI/000114871,068,envhealth@ne-derbyshire.gov.uk,North East Derbyshire,http://www.ne-derbyshire.gov.uk/,,,2013-10-03,fhrs_3_en-GB,3,,FHRS,5
66236,Windmill Lane,Hundall,Apperknowle,,Berry Bank Farm,Hotel/bed & breakfast/guest house,7842,10,,664186,10,,,14/00048/COMM,068,envhealth@ne-derbyshire.gov.uk,North East Derbyshire,http://www.ne-derbyshire.gov.uk/,,,2013-02-07,fhrs_3_en-GB,3,,FHRS,10
66237,2 The Green,North Wingfield,Chesterfield,,Best One,Retailers - other,4613,10,,492712,10,,53.18183300000000,PI/000130710,068,envhealth@ne-derbyshire.gov.uk,North East Derbyshire,http://www.ne-derbyshire.gov.uk/,-1.38813600000000,S42 5LQ,2013-11-21,fhrs_3_en-GB,3,,FHRS,10
66238,62 - 64 Thanet Street,Clay Cross,Chesterfield,,Bestwood Working Mens Club,Pub/bar/nightclub,7843,5,,351489,5,,53.16400600000000,PI/000107105,068,envhealth@ne-derbyshire.gov.uk,North East Derbyshire,http://www.ne-derbyshire.gov.uk/,-1.40921000000000,S45 9JU,2014-12-23,fhrs_5_en-GB,5,,FHRS,5
66239,49 Market Street,Eckington,Sheffield,,Bilal's Balti House,Restaurant/Cafe/Canteen,1,10,,351548,10,,53.31025600000000,PI/000116652,068,envhealth@ne-derbyshire.gov.uk,North East Derbyshire,http://www.ne-derbyshire.gov.uk/,-1.35546000000000,S21 4EG,2014-06-30,fhrs_3_en-GB,3,,FHRS,10
66240,Chestnut Avenue,Eckington,Sheffield,,Birk Hill Infant School,School/college/university,7845,0,,351077,0,,53.30328700000000,PI/000015763,068,envhealth@ne-derbyshire.gov.uk,North East Derbyshire,http://www.ne-derbyshire.gov.uk/,-1.37343700000000,S21 4BE,2013-01-11,fhrs_5_en-GB,5,,FHRS,5
66241,41 Blacksmith Lane,Calow,Chesterfield,,Blacksmith Arms,Pub/bar/nightclub,7843,10,,351056,5,,53.23876200000000,PI/000007708,068,envhealth@ne-derbyshire.gov.uk,North East Derbyshire,http://www.ne-derbyshire.gov.uk/,-1.38510700000000,S44 5TT,2013-03-01,fhrs_4_en-GB,4,,FHRS,5
66242,North Wingfield Road,Grassmoor,Chesterfield,,Boot And Shoe Inn,Pub/bar/nightclub,7843,10,,351515,15,,53.19449800000000,PI/000112952,068,envhealth@ne-derbyshire.gov.uk,North East Derbyshire,http://www.ne-derbyshire.gov.uk/,-1.39162300000000,S42 5EU,2014-03-12,fhrs_2_en-GB,2,,FHRS,10
66243,3 Sheffield Road,Dronfield,,,Bridge Inn,Pub/bar/nightclub,7843,10,,351188,10,,53.30255500000000,PI/000061914,068,envhealth@ne-derbyshire.gov.uk,North East Derbyshire,http://www.ne-derbyshire.gov.uk/,-1.47106000000000,S18 2DH,2012-10-24,fhrs_3_en-GB,3,,FHRS,10
66244,39 Bridge Street,Killamarsh,Sheffield,,Bridge Street Cafe,Other catering premises,7841,0,,703551,5,,53.32430400000000,14/00122/COMM,068,envhealth@ne-derbyshire.gov.uk,North East Derbyshire,http://www.ne-derbyshire.gov.uk/,-1.31788000000000,S21 1AH,2014-08-15,fhrs_5_en-GB,5,,FHRS,5
66245,Bridge Street,Pilsley,,,Bridge Street Methodist Church,Other catering premises,7841,,,664177,,,,14/00038/COMM,068,envhealth@ne-derbyshire.gov.uk,North East Derbyshire,http://www.ne-derbyshire.gov.uk/,,,2011-08-10,fhrs_exempt_en-GB,Exempt,,FHRS,
66246,20B Bridge Street,Killamarsh,Sheffield,,Bridies Pantry,Restaurant/Cafe/Canteen,1,10,,351608,10,,53.32430400000000,PI/000129049,068,envhealth@ne-derbyshire.gov.uk,North East Derbyshire,http://www.ne-derbyshire.gov.uk/,-1.31788000000000,S21 1AH,2014-02-19,fhrs_3_en-GB,3,,FHRS,10
66247,Ward Street,New Tupton,Chesterfield,,Britannia Inn,Pub/bar/nightclub,7843,5,,351223,5,,53.18992200000000,PI/000072644,068,envhealth@ne-derbyshire.gov.uk,North East Derbyshire,http://www.ne-derbyshire.gov.uk/,-1.40584600000000,S42 6XP,2013-03-01,fhrs_4_en-GB,4,,FHRS,10
66248,Stretton Service Station,Main Road,Stretton,Alfreton,Brobot Petroleum Ltd,Retailers - other,4613,5,,351342,5,,53.14965400000000,PI/000101091,068,envhealth@ne-derbyshire.gov.uk,North East Derbyshire,http://www.ne-derbyshire.gov.uk/,-1.41360900000000,DE55 6EW,2013-03-22,fhrs_4_en-GB,4,,FHRS,10
66249,Holmley Lane,Dronfield,,,Brookview Nursing Home,Hospitals/Childcare/Caring Premises,5,5,,351124,10,,53.30978000000000,PI/000035529,068,envhealth@ne-derbyshire.gov.uk,North East Derbyshire,http://www.ne-derbyshire.gov.uk/,-1.47074500000000,S18 2HQ,2014-03-28,fhrs_3_en-GB,3,,FHRS,10
66250,159 Birkinstyle Lane,Stonebroom,Alfreton,,Broom Cottage,Hospitals/Childcare/Caring Premises,5,10,,664176,0,,53.12961300000000,14/00037/COMM,068,envhealth@ne-derbyshire.gov.uk,North East Derbyshire,http://www.ne-derbyshire.gov.uk/,-1.39289800000000,DE55 6LD,2012-11-02,fhrs_4_en-GB,4,,FHRS,5
66251,Dronfield Civic Centre Car Park,Dronfield Civic Centre,Dronfield,,"Brown's Fish, Dronfield Market",Retailers - other,4613,,,593951,,,,PI/000102747,068,envhealth@ne-derbyshire.gov.uk,North East Derbyshire,http://www.ne-derbyshire.gov.uk/,,,2012-09-27,fhrs_exempt_en-GB,Exempt,,FHRS,
66252,New Road,Holymoorside,Chesterfield,,Bulls Head,Pub/bar/nightclub,7843,5,,351579,5,,53.21809300000000,PI/000118299,068,envhealth@ne-derbyshire.gov.uk,North East Derbyshire,http://www.ne-derbyshire.gov.uk/,-1.49546300000000,S42 7EW,2014-03-27,fhrs_5_en-GB,5,,FHRS,5
66253,Main Road,Marsh Lane,Sheffield,,Butchers Arms,Pub/bar/nightclub,7843,10,,351134,5,,53.30791000000000,PI/000043458,068,envhealth@ne-derbyshire.gov.uk,North East Derbyshire,http://www.ne-derbyshire.gov.uk/,-1.39139300000000,S21 5RH,2013-08-22,fhrs_4_en-GB,4,,FHRS,5
66254,52 Hartington Road,Dronfield,,,Butler's Bakery,Retailers - other,4613,5,,454680,5,,53.30516400000000,PI/000104231,068,envhealth@ne-derbyshire.gov.uk,North East Derbyshire,http://www.ne-derbyshire.gov.uk/,-1.46756100000000,S18 2LF,2014-02-19,fhrs_5_en-GB,5,,FHRS,5
66255,35 Pentland Road,Dronfield Woodhouse,Dronfield,,Butler's The Family Bakers,Manufacturers/packers,7839,5,,454679,5,,53.30166900000000,PI/000101522,068,envhealth@ne-derbyshire.gov.uk,North East Derbyshire,http://www.ne-derbyshire.gov.uk/,-1.49476400000000,S18 8ZQ,2013-08-20,fhrs_4_en-GB,4,,FHRS,10
66256,Renishaw Park Golf Club,Mill Lane,Renishaw,,C E M Catering,Restaurant/Cafe/Canteen,1,10,,594054,5,,,PI/000131678,068,envhealth@ne-derbyshire.gov.uk,North East Derbyshire,http://www.ne-derbyshire.gov.uk/,,,2013-09-24,fhrs_4_en-GB,4,,FHRS,5
66257,Yew Tree Farm,Far Lane,Barlow,Dronfield,C G Haslam And Co,Retailers - other,4613,5,,351290,5,,53.27077000000000,PI/000100578,068,envhealth@ne-derbyshire.gov.uk,North East Derbyshire,http://www.ne-derbyshire.gov.uk/,-1.52435300000000,S18 7SE,2013-06-21,fhrs_5_en-GB,5,,FHRS,5
66258,Jacksons The Bakers,Pilsley Road,Danesmoor,Chesterfield,Cafe,Restaurant/Cafe/Canteen,1,5,,351630,0,,53.16432100000000,PI/000129733,068,envhealth@ne-derbyshire.gov.uk,North East Derbyshire,http://www.ne-derbyshire.gov.uk/,-1.39685100000000,S45 9BU,2012-10-25,fhrs_5_en-GB,5,,FHRS,0
66259,2 Stubley Hollow,Dronfield,,,Cafe @ Climax,Restaurant/Cafe/Canteen,1,,,351688,,,53.30814000000000,PI/000130546,068,envhealth@ne-derbyshire.gov.uk,North East Derbyshire,http://www.ne-derbyshire.gov.uk/,-1.48208100000000,S18 1PP,2013-09-04,fhrs_5_en-GB,5,,FHRS,
66260,,,,,Cakes And All Things Nice,Other catering premises,7841,5,,351645,0,,,PI/000130027,068,envhealth@ne-derbyshire.gov.uk,North East Derbyshire,http://www.ne-derbyshire.gov.uk/,,,2012-07-31,fhrs_5_en-GB,5,,FHRS,5
66261,,,,,Cakes By Laura Davis,Other catering premises,7841,5,,351647,5,,,PI/000130034,068,envhealth@ne-derbyshire.gov.uk,North East Derbyshire,http://www.ne-derbyshire.gov.uk/,,,2013-03-27,fhrs_5_en-GB,5,,FHRS,0
66262,,,,,Cakes From My Kitchen,Other catering premises,7841,0,,351672,0,,,PI/000130347,068,envhealth@ne-derbyshire.gov.uk,North East Derbyshire,http://www.ne-derbyshire.gov.uk/,,,2014-05-14,fhrs_5_en-GB,5,,FHRS,5
66263,Unit 2,Hunter Park,Callywhite Lane,Dronfield,Callywhite Cafe,Restaurant/Cafe/Canteen,1,5,,454683,5,,53.29971400000000,PI/000117858,068,envhealth@ne-derbyshire.gov.uk,North East Derbyshire,http://www.ne-derbyshire.gov.uk/,-1.45304400000000,S18 2XR,2013-09-18,fhrs_5_en-GB,5,,FHRS,5
66264,North Road,Calow,Chesterfield,,Calow C Of E (v.c) Primary School,School/college/university,7845,0,,427526,5,,53.23640100000000,PI/000110170,068,envhealth@ne-derbyshire.gov.uk,North East Derbyshire,http://www.ne-derbyshire.gov.uk/,-1.38920100000000,S44 5BD,2012-07-03,fhrs_5_en-GB,5,,FHRS,0
66265,28 Church Lane,Calow,Chesterfield,,Calow Pharmacy,Retailers - other,4613,,,351270,,,53.23624500000000,PI/000100380,068,envhealth@ne-derbyshire.gov.uk,North East Derbyshire,http://www.ne-derbyshire.gov.uk/,-1.38686600000000,S44 5AH,2013-03-01,fhrs_exempt_en-GB,Exempt,,FHRS,
66266,54 Top Road,Calow,Chesterfield,Derbyshire,Calow Post Office,Retailers - other,4613,,,351215,,,53.23385700000000,PI/000070896,068,envhealth@ne-derbyshire.gov.uk,North East Derbyshire,http://www.ne-derbyshire.gov.uk/,-1.38553700000000,S44 5SY,2013-02-22,fhrs_exempt_en-GB,Exempt,,FHRS,
66267,Camms Close,Eckington,Sheffield,,Camms Endowed Church Of England Primary School,School/college/university,7845,5,,351501,5,,53.31212100000000,PI/000109647,068,envhealth@ne-derbyshire.gov.uk,North East Derbyshire,http://www.ne-derbyshire.gov.uk/,-1.35792300000000,S21 4AU,2013-06-26,fhrs_5_en-GB,5,,FHRS,5
66268,Sunnybank Nursery,Chesterfield Road,Calow,Chesterfield,Cannon Health & Safety Ltd,Hospitals/Childcare/Caring Premises,5,0,,351423,5,,53.23321000000000,PI/000101877,068,envhealth@ne-derbyshire.gov.uk,North East Derbyshire,http://www.ne-derbyshire.gov.uk/,-1.37366600000000,S44 5UN,2014-06-27,fhrs_5_en-GB,5,,FHRS,0
66269,Cordwell Lane,Millthorpe,Holmesfield,Dronfield,Carpenter House,Hotel/bed & breakfast/guest house,7842,5,,593891,10,,53.28431800000000,PI/000017770,068,envhealth@ne-derbyshire.gov.uk,North East Derbyshire,http://www.ne-derbyshire.gov.uk/,-1.52948200000000,S18 7WH,2013-03-15,fhrs_4_en-GB,4,,FHRS,5
66270,4 Church Street,Pilsley,Chesterfield,,Caspian Fish Bar,Takeaway/sandwich shop,7844,20,,351711,10,,53.15546600000000,PI/000130775,068,envhealth@ne-derbyshire.gov.uk,North East Derbyshire,http://www.ne-derbyshire.gov.uk/,-1.36720100000000,S45 8EX,2014-06-30,fhrs_1_en-GB,1,,FHRS,15
66271,Stonelow Road,Dronfield,,,Catholic Church Of The Holy Spirit,Other catering premises,7841,,,594009,,,53.30477600000000,PI/000130516,068,envhealth@ne-derbyshire.gov.uk,North East Derbyshire,http://www.ne-derbyshire.gov.uk/,-1.45734600000000,S18 2EP,2013-07-25,fhrs_exempt_en-GB,Exempt,,FHRS,
66272,5 Stubley Lane,Dronfield,,,CBS Dronfield Ltd The Victoria Inn,Pub/bar/nightclub,7843,10,,593944,10,,53.30334400000000,PI/000101800,068,envhealth@ne-derbyshire.gov.uk,North East Derbyshire,http://www.ne-derbyshire.gov.uk/,-1.47891300000000,S18 1PE,2013-01-15,fhrs_3_en-GB,3,,FHRS,10
66273,21 Williamthorpe Road,North Wingfield,Chesterfield,,Central England Co-operative Ltd,Retailers - supermarkets/hypermarkets,7840,10,,351430,5,,53.18312200000000,PI/000101955,068,envhealth@ne-derbyshire.gov.uk,North East Derbyshire,http://www.ne-derbyshire.gov.uk/,-1.38198200000000,S42 5PD,2013-03-01,fhrs_4_en-GB,4,,FHRS,5
66274,22 Dronfield Civic Centre,Dronfield,,,Central England Co-operative Society,Retailers - other,4613,5,,593998,5,,53.30136700000000,PI/000130022,068,envhealth@ne-derbyshire.gov.uk,North East Derbyshire,http://www.ne-derbyshire.gov.uk/,-1.47491600000000,S18 1PD,2011-07-20,fhrs_5_en-GB,5,,FHRS,5
66275,43 Pentland Road,Dronfield Woodhouse,Dronfield,,Central England Co-operative Society,Retailers - supermarkets/hypermarkets,7840,5,,351380,5,,53.30166900000000,PI/000101525,068,envhealth@ne-derbyshire.gov.uk,North East Derbyshire,http://www.ne-derbyshire.gov.uk/,-1.49476400000000,S18 8ZQ,2013-04-29,fhrs_5_en-GB,5,,FHRS,5
66276,4 Thanet Street,Clay Cross,Chesterfield,,Charlie's Bar And Restaurant,Pub/bar/nightclub,7843,5,,351638,5,,53.16367500000000,PI/000129902,068,envhealth@ne-derbyshire.gov.uk,North East Derbyshire,http://www.ne-derbyshire.gov.uk/,-1.41320800000000,S45 9JR,2014-07-30,fhrs_4_en-GB,4,,FHRS,10
66277,Ash House,Tower Business Park,High Street,Clay Cross,Chatterbox Children's Day Nursery,Hospitals/Childcare/Caring Premises,5,5,,454684,5,,53.16916700000000,PI/000130016,068,envhealth@ne-derbyshire.gov.uk,North East Derbyshire,http://www.ne-derbyshire.gov.uk/,-1.41673800000000,S45 9DX,2014-08-01,fhrs_5_en-GB,5,,FHRS,5
66278,New Road Nursery And Wingerworth Af,Parish Rooms,New Road,Wingerworth,Chesterfield Child Care Ltd,Hospitals/Childcare/Caring Premises,5,0,,351718,10,,53.20201100000000,PI/000130824,068,envhealth@ne-derbyshire.gov.uk,North East Derbyshire,http://www.ne-derbyshire.gov.uk/,-1.44283600000000,S42 6TB,2013-05-24,fhrs_4_en-GB,4,,FHRS,5
66279,High Street,Clay Cross,Chesterfield,,Chesterfield Motorcycle Centre,Restaurant/Cafe/Canteen,1,5,,594003,5,,53.17135300000000,PI/000130329,068,envhealth@ne-derbyshire.gov.uk,North East Derbyshire,http://www.ne-derbyshire.gov.uk/,-1.41534800000000,S45 9DP,2013-08-23,fhrs_5_en-GB,5,,FHRS,5
66280,6 Parkside Shopping Centre,Killamarsh,Sheffield,,Chicago Pizza Takeaway,Takeaway/sandwich shop,7844,5,,492700,5,,53.32452200000000,PI/000054234,068,envhealth@ne-derbyshire.gov.uk,North East Derbyshire,http://www.ne-derbyshire.gov.uk/,-1.31675000000000,S21 1FY,2013-03-28,fhrs_5_en-GB,5,,FHRS,5
66281,226 North Wingfield Road,Grassmoor,Chesterfield,,China Rose,Restaurant/Cafe/Canteen,1,10,,351620,15,,53.19885200000000,PI/000129503,068,envhealth@ne-derbyshire.gov.uk,North East Derbyshire,http://www.ne-derbyshire.gov.uk/,-1.39587300000000,S42 5EW,2013-12-19,fhrs_2_en-GB,2,,FHRS,10
66282,44 Cherry Tree Drive,Killamarsh,Sheffield,,Chinese Dragon,Takeaway/sandwich shop,7844,20,,351260,10,,53.31827000000000,PI/000100277,068,envhealth@ne-derbyshire.gov.uk,North East Derbyshire,http://www.ne-derbyshire.gov.uk/,-1.31755600000000,S21 1AR,2014-12-02,fhrs_1_en-GB,1,,FHRS,15
66283,,,,,Choco House,Retailers - other,4613,5,,351704,10,,,PI/000130680,068,envhealth@ne-derbyshire.gov.uk,North East Derbyshire,http://www.ne-derbyshire.gov.uk/,,,2014-02-13,fhrs_3_en-GB,3,,FHRS,10
66284,,,,,Chocolate Combine Crafts,Restaurant/Cafe/Canteen,1,0,,510525,5,,,PI/000131299,068,envhealth@ne-derbyshire.gov.uk,North East Derbyshire,http://www.ne-derbyshire.gov.uk/,,,2013-04-23,fhrs_5_en-GB,5,,FHRS,0
66285,18 Highwood Place,Eckington,Sheffield,,Choice Fruit & Veg,Retailers - other,4613,10,,351327,10,,53.30902300000000,PI/000100890,068,envhealth@ne-derbyshire.gov.uk,North East Derbyshire,http://www.ne-derbyshire.gov.uk/,-1.36852000000000,S21 4GP,2013-01-31,fhrs_3_en-GB,3,,FHRS,10
66286,4A Eyre Street,Clay Cross,Chesterfield,,Chubby Pizza And Kebab House,Takeaway/sandwich shop,7844,10,,351289,15,,53.16714500000000,PI/000100559,068,envhealth@ne-derbyshire.gov.uk,North East Derbyshire,http://www.ne-derbyshire.gov.uk/,-1.41516500000000,S45 9NS,2014-03-27,fhrs_2_en-GB,2,,FHRS,10
66287,Bridge Street,Clay Cross,Chesterfield,,Chuckles Play Centre,Retailers - other,4613,5,,351057,5,,53.16979800000000,PI/000009567,068,envhealth@ne-derbyshire.gov.uk,North East Derbyshire,http://www.ne-derbyshire.gov.uk/,-1.41159900000000,S45 9PD,2013-07-31,fhrs_4_en-GB,4,,FHRS,10
66288,Corner Play House,High Street,Eckington,Sheffield,City Players,Retailers - other,4613,,,594004,,,53.30875900000000,PI/000130338,068,envhealth@ne-derbyshire.gov.uk,North East Derbyshire,http://www.ne-derbyshire.gov.uk/,-1.35947500000000,S21 4DN,2013-05-31,fhrs_exempt_en-GB,Exempt,,FHRS,
66289,Market Street,Clay Cross,Chesterfield,,Clay Cross Adult Community Education Centre,School/college/university,7845,5,,351357,5,,53.16660300000000,PI/000101229,068,envhealth@ne-derbyshire.gov.uk,North East Derbyshire,http://www.ne-derbyshire.gov.uk/,-1.41454400000000,S45 9JE,2014-09-24,fhrs_5_en-GB,5,,FHRS,5
66290,16 Broadleys,Clay Cross,Chesterfield,,Clay Cross Brotherhood,Other catering premises,7841,,,351253,,,53.16637300000000,PI/000100192,068,envhealth@ne-derbyshire.gov.uk,North East Derbyshire,http://www.ne-derbyshire.gov.uk/,-1.41173500000000,S45 9JL,2013-02-07,fhrs_exempt_en-GB,Exempt,,FHRS,
66291,38 High Street,Clay Cross,Chesterfield,,Clay Cross Charcoal Grill,Takeaway/sandwich shop,7844,10,,492709,10,,53.16678000000000,PI/000130029,068,envhealth@ne-derbyshire.gov.uk,North East Derbyshire,http://www.ne-derbyshire.gov.uk/,-1.41573900000000,S45 9DW,2013-11-21,fhrs_3_en-GB,3,,FHRS,10
66292,1 Stollard Street,Clay Cross,Chesterfield,,Clay Cross Coronation Club,Pub/bar/nightclub,7843,5,,351203,5,,53.16936000000000,PI/000066614,068,envhealth@ne-derbyshire.gov.uk,North East Derbyshire,http://www.ne-derbyshire.gov.uk/,-1.40494800000000,S45 9LZ,2013-01-31,fhrs_5_en-GB,5,,FHRS,5
66293,49 High Street,Clay Cross,Chesterfield,,Clay Cross Fish Bar,Takeaway/sandwich shop,7844,5,,351311,5,,53.16916700000000,PI/000100762,068,envhealth@ne-derbyshire.gov.uk,North East Derbyshire,http://www.ne-derbyshire.gov.uk/,-1.41673800000000,S45 9DX,2013-07-31,fhrs_4_en-GB,4,,FHRS,10
66294,Unit A3,Stainsby Close,Holmewood,Chesterfield,Clay Cross Foodbank,Distributors/Transporters,7,10,,594018,5,,53.18952800000000,PI/000131110,068,envhealth@ne-derbyshire.gov.uk,North East Derbyshire,http://www.ne-derbyshire.gov.uk/,-1.34589700000000,S42 5UG,2012-06-26,fhrs_3_en-GB,3,,FHRS,10
66295,4 Eyre Street,Clay Cross,Chesterfield,,Clay Cross Kebab And Curry House,Takeaway/sandwich shop,7844,10,,351288,10,,53.16714500000000,PI/000100556,068,envhealth@ne-derbyshire.gov.uk,North East Derbyshire,http://www.ne-derbyshire.gov.uk/,-1.41516500000000,S45 9NS,2013-11-20,fhrs_3_en-GB,3,,FHRS,10
66296,Clay Cross Social Centre,Market Street,Clay Cross,Chesterfield,Clay Cross Parish Council,Other catering premises,7841,5,,351359,5,,53.16660300000000,PI/000101246,068,envhealth@ne-derbyshire.gov.uk,North East Derbyshire,http://www.ne-derbyshire.gov.uk/,-1.41454400000000,S45 9JE,2014-09-09,fhrs_5_en-GB,5,,FHRS,5
66297,11 Market Street,Clay Cross,Chesterfield,,Clay Cross Post Office,Retailers - other,4613,5,,594008,5,,53.16660300000000,PI/000130505,068,envhealth@ne-derbyshire.gov.uk,North East Derbyshire,http://www.ne-derbyshire.gov.uk/,-1.41454400000000,S45 9JE,2011-08-10,fhrs_5_en-GB,5,,FHRS,5
66298,Clay Cross Hall,Market Street,Clay Cross,Derbyshire,Clay Cross Resource Centre,Restaurant/Cafe/Canteen,1,5,,593936,10,,53.16908000000000,PI/000101241,068,envhealth@ne-derbyshire.gov.uk,North East Derbyshire,http://www.ne-derbyshire.gov.uk/,-1.40637300000000,S45 9LX,2013-03-07,fhrs_3_en-GB,3,,FHRS,10
66299,St Bartholomews Church,High Street,Clay Cross,,Clay Cross Sunflowers Pre-School,Hospitals/Childcare/Caring Premises,5,5,,593932,5,,,PI/000100811,068,envhealth@ne-derbyshire.gov.uk,North East Derbyshire,http://www.ne-derbyshire.gov.uk/,,,2006-12-07,fhrs_4_en-GB,4,,FHRS,10
66300,14 High Street,Clay Cross,Chesterfield,,Clay Spice,Takeaway/sandwich shop,7844,10,,351696,10,,53.16770600000000,PI/000130602,068,envhealth@ne-derbyshire.gov.uk,North East Derbyshire,http://www.ne-derbyshire.gov.uk/,-1.41584600000000,S45 9DY,2013-11-28,fhrs_3_en-GB,3,,FHRS,10
66301,Crich Place,North Wingfield,Chesterfield,,Claydon Lodge,Hospitals/Childcare/Caring Premises,5,5,,351482,5,,53.18007400000000,PI/000106424,068,envhealth@ne-derbyshire.gov.uk,North East Derbyshire,http://www.ne-derbyshire.gov.uk/,-1.39057000000000,S42 5LY,2014-05-15,fhrs_5_en-GB,5,,FHRS,5
66302,Alices View,North Wingfield,Derbyshire,,Clowns,Hospitals/Childcare/Caring Premises,5,5,,351455,5,,53.18511000000000,PI/000102822,068,envhealth@ne-derbyshire.gov.uk,North East Derbyshire,http://www.ne-derbyshire.gov.uk/,-1.38577000000000,S42 5XA,2014-11-12,fhrs_5_en-GB,5,,FHRS,5
66303,Stretton Road,Clay Cross,Chesterfield,,Clowns Nursery,Hospitals/Childcare/Caring Premises,5,5,,351466,5,,53.15891200000000,PI/000102944,068,envhealth@ne-derbyshire.gov.uk,North East Derbyshire,http://www.ne-derbyshire.gov.uk/,-1.41536700000000,S45 9AQ,2014-06-10,fhrs_5_en-GB,5,,FHRS,5
66304,36 Chesterfield Road,North Wingfield,Chesterfield,,Club Sandwich,Restaurant/Cafe/Canteen,1,5,,684017,5,,53.18355900000000,14/00074/COMM,068,envhealth@ne-derbyshire.gov.uk,North East Derbyshire,http://www.ne-derbyshire.gov.uk/,-1.38821600000000,S42 5LG,2014-06-04,fhrs_5_en-GB,5,,FHRS,5
66305,Sheffield Road,Dronfield,,,Coach And Horses Inn,Pub/bar/nightclub,7843,10,,351189,10,,53.31057100000000,PI/000061926,068,envhealth@ne-derbyshire.gov.uk,North East Derbyshire,http://www.ne-derbyshire.gov.uk/,-1.47670900000000,S18 2GD,2014-03-28,fhrs_2_en-GB,2,,FHRS,15
66306,Eckington Road,Coal Aston,Dronfield,,Coal Aston Village Hall,Other catering premises,7841,,,351285,,,53.31130200000000,PI/000100537,068,envhealth@ne-derbyshire.gov.uk,North East Derbyshire,http://www.ne-derbyshire.gov.uk/,-1.45324100000000,S18 3AX,2008-01-22,fhrs_exempt_en-GB,Exempt,,FHRS,
66307,Unit 4,Devonshire Terrace,Holmewood,Chesterfield,Cob Shop Catering,Manufacturers/packers,7839,5,,718660,5,,53.19017600000000,14/00150/COMM,068,envhealth@ne-derbyshire.gov.uk,North East Derbyshire,http://www.ne-derbyshire.gov.uk/,-1.35097500000000,S42 5RF,2014-11-11,fhrs_5_en-GB,5,,FHRS,5
66308,2 Eyre Street,Clay Cross,Chesterfield,,Cobs R Us,Takeaway/sandwich shop,7844,10,,351437,10,,53.16714500000000,PI/000102407,068,envhealth@ne-derbyshire.gov.uk,North East Derbyshire,http://www.ne-derbyshire.gov.uk/,-1.41516500000000,S45 9NS,2014-03-24,fhrs_3_en-GB,3,,FHRS,5
66309,6 High Street,Dronfield,,,Coffee Central,Restaurant/Cafe/Canteen,1,0,,664188,5,,53.30195200000000,14/00050/COMM,068,envhealth@ne-derbyshire.gov.uk,North East Derbyshire,http://www.ne-derbyshire.gov.uk/,-1.47505900000000,S18 1PY,2014-07-23,fhrs_5_en-GB,5,,FHRS,5
66310,Unit B2,Lower Mantle Close,Clay Cross,Chesterfield,Coffee Rush,Retailers - other,4613,5,,351606,5,,53.16999900000000,PI/000125943,068,envhealth@ne-derbyshire.gov.uk,North East Derbyshire,http://www.ne-derbyshire.gov.uk/,-1.41047400000000,S45 9NU,2011-01-14,fhrs_5_en-GB,5,,FHRS,5
66311,Bridge Street,Pilsley,Chesterfield,,Commercial Inn,Pub/bar/nightclub,7843,10,,351494,10,,53.15714400000000,PI/000108231,068,envhealth@ne-derbyshire.gov.uk,North East Derbyshire,http://www.ne-derbyshire.gov.uk/,-1.36826800000000,S45 8HE,2013-06-06,fhrs_3_en-GB,3,,FHRS,10
66312,Gunstones Bakery,Stubley Lane,Dronfield,,Company Shop,Retailers - other,4613,5,,351416,5,,53.30417700000000,PI/000101812,068,envhealth@ne-derbyshire.gov.uk,North East Derbyshire,http://www.ne-derbyshire.gov.uk/,-1.48217400000000,S18 1PF,2013-06-13,fhrs_5_en-GB,5,,FHRS,5
66313,Snape Hill Lane,Dronfield,,,Contact Club,Pub/bar/nightclub,7843,0,,351194,5,,53.30332900000000,PI/000063392,068,envhealth@ne-derbyshire.gov.uk,North East Derbyshire,http://www.ne-derbyshire.gov.uk/,-1.47124500000000,S18 2GJ,2013-05-17,fhrs_4_en-GB,4,,FHRS,10
66314,84 Hartington Road,Dronfield,,,Co-Op Late Shop,Retailers - supermarkets/hypermarkets,7840,5,,351598,5,,53.30516400000000,PI/000123034,068,envhealth@ne-derbyshire.gov.uk,North East Derbyshire,http://www.ne-derbyshire.gov.uk/,-1.46756100000000,S18 2LF,2012-10-11,fhrs_5_en-GB,5,,FHRS,5
66315,9 Greendale Shopping Centre,Green Lane,Dronfield,,Co-Op Late Shop,Retailers - supermarkets/hypermarkets,7840,5,,351447,5,,53.30467400000000,PI/000102641,068,envhealth@ne-derbyshire.gov.uk,North East Derbyshire,http://www.ne-derbyshire.gov.uk/,-1.46456600000000,S18 2LJ,2013-06-27,fhrs_4_en-GB,4,,FHRS,10
66316,Chesterfield Road,Duckmanton,Chesterfield,,Co-operative Service Station,Retailers - other,4613,5,,351071,5,,53.23625000000000,PI/000015322,068,envhealth@ne-derbyshire.gov.uk,North East Derbyshire,http://www.ne-derbyshire.gov.uk/,-1.33399300000000,S44 5HT,2013-06-13,fhrs_4_en-GB,4,,FHRS,10
66317,7 Dronfield Civic Centre,Dronfield,,,Cooplands,Retailers - other,4613,5,,351274,5,,53.30136700000000,PI/000100428,068,envhealth@ne-derbyshire.gov.uk,North East Derbyshire,http://www.ne-derbyshire.gov.uk/,-1.47491600000000,S18 1PD,2014-10-22,fhrs_5_en-GB,5,,FHRS,5
66318,11 Church Street,Pilsley,Chesterfield,,Corner Cuts,Retailers - other,4613,10,,351272,10,,53.15546600000000,PI/000100416,068,envhealth@ne-derbyshire.gov.uk,North East Derbyshire,http://www.ne-derbyshire.gov.uk/,-1.36720100000000,S45 8EX,2014-06-11,fhrs_3_en-GB,3,,FHRS,10
66319,Ox Close,Market Street,Clay Cross,,Corner View,Hospitals/Childcare/Caring Premises,5,5,,351602,10,,,PI/000123844,068,envhealth@ne-derbyshire.gov.uk,North East Derbyshire,http://www.ne-derbyshire.gov.uk/,,,2011-11-03,fhrs_4_en-GB,4,,FHRS,5
66320,34 - 40 Heath Road,Holmewood,Chesterfield,,Costcutter,Retailers - other,4613,5,,664194,5,,53.18847600000000,14/00056/COMM,068,envhealth@ne-derbyshire.gov.uk,North East Derbyshire,http://www.ne-derbyshire.gov.uk/,-1.35418900000000,S42 5RA,2013-06-06,fhrs_4_en-GB,4,,FHRS,10
66321,Stonelow Court,Stonelow Road,Dronfield,,Cream Catering Ltd,Restaurant/Cafe/Canteen,1,10,,351663,5,,,PI/000130235,068,envhealth@ne-derbyshire.gov.uk,North East Derbyshire,http://www.ne-derbyshire.gov.uk/,,S18 2FT,2013-03-13,fhrs_4_en-GB,4,,FHRS,5
66322,,,,,Crich Lane Farm Bed And Breakfast,Hotel/bed & breakfast/guest house,7842,5,,351157,0,,,PI/000048224,068,envhealth@ne-derbyshire.gov.uk,North East Derbyshire,http://www.ne-derbyshire.gov.uk/,,,2013-03-01,fhrs_4_en-GB,4,,FHRS,10
66323,33 Market Street,Clay Cross,Chesterfield,,Croft Farm Meats Ltd,Retailers - other,4613,5,,351532,5,,53.16660300000000,PI/000115030,068,envhealth@ne-derbyshire.gov.uk,North East Derbyshire,http://www.ne-derbyshire.gov.uk/,-1.41454400000000,S45 9JE,2013-04-25,fhrs_5_en-GB,5,,FHRS,5
66324,Brown Lane,Coal Aston,Dronfield,,Cross Daggers,Pub/bar/nightclub,7843,5,,351060,5,,53.31100700000000,PI/000010745,068,envhealth@ne-derbyshire.gov.uk,North East Derbyshire,http://www.ne-derbyshire.gov.uk/,-1.45963900000000,S18 3AJ,2013-03-07,fhrs_5_en-GB,5,,FHRS,5
66325,Main Road,Higham,Alfreton,,Crown Inn,Pub/bar/nightclub,7843,0,,351478,0,,53.12688000000000,PI/000105621,068,envhealth@ne-derbyshire.gov.uk,North East Derbyshire,http://www.ne-derbyshire.gov.uk/,-1.41823700000000,DE55 6EH,2013-03-05,fhrs_5_en-GB,5,,FHRS,5
66326,,,,,Cupcakes And Catering,Retailers - other,4613,5,,594038,5,,,PI/000131465,068,envhealth@ne-derbyshire.gov.uk,North East Derbyshire,http://www.ne-derbyshire.gov.uk/,,,2014-08-07,fhrs_5_en-GB,5,,FHRS,5
66327,,,,,Cupcakes By Lindsey Jane,Other catering premises,7841,10,,351661,5,,,PI/000130226,068,envhealth@ne-derbyshire.gov.uk,North East Derbyshire,http://www.ne-derbyshire.gov.uk/,,,2011-01-07,fhrs_4_en-GB,4,,FHRS,5
66328,School Hill,Cutthorpe,Chesterfield,,Cutthorpe Primary School,School/college/university,7845,5,,351182,5,,53.25571400000000,PI/000060855,068,envhealth@ne-derbyshire.gov.uk,North East Derbyshire,http://www.ne-derbyshire.gov.uk/,-1.49374700000000,S42 7AS,2013-11-12,fhrs_5_en-GB,5,,FHRS,0
66329,192 Heath Road,Holmewood,Chesterfield,,D And T Newsagents,Retailers - other,4613,10,,593961,5,,53.18826500000000,PI/000110020,068,envhealth@ne-derbyshire.gov.uk,North East Derbyshire,http://www.ne-derbyshire.gov.uk/,-1.35341400000000,S42 5RB,2013-07-26,fhrs_3_en-GB,3,,FHRS,10
66330,45 Barnard Avenue,Coal Aston,Dronfield,,D S McCall Butchers,Retailers - other,4613,5,,351241,5,,53.31055800000000,PI/000100048,068,envhealth@ne-derbyshire.gov.uk,North East Derbyshire,http://www.ne-derbyshire.gov.uk/,-1.44988900000000,S18 3BP,2014-09-03,fhrs_5_en-GB,5,,FHRS,5
66331,5 Pilsley Road,Danesmoor,Chesterfield,,Danesmoor Costcutter,Retailers - other,4613,10,,351383,10,,53.16419200000000,PI/000101532,068,envhealth@ne-derbyshire.gov.uk,North East Derbyshire,http://www.ne-derbyshire.gov.uk/,-1.40321000000000,S45 9BN,2014-02-27,fhrs_3_en-GB,3,,FHRS,5
66332,101 Pilsley Road,Danesmoor,Chesterfield,,Danesmoor Post Office,Retailers - other,4613,20,,351384,15,,53.16432100000000,PI/000101535,068,envhealth@ne-derbyshire.gov.uk,North East Derbyshire,http://www.ne-derbyshire.gov.uk/,-1.39685100000000,S45 9BU,2013-09-24,fhrs_1_en-GB,1,,FHRS,5
66333,47 Barnard Avenue,Coal Aston,Dronfield,,David J Fruits,Retailers - other,4613,5,,351242,0,,53.31055800000000,PI/000100049,068,envhealth@ne-derbyshire.gov.uk,North East Derbyshire,http://www.ne-derbyshire.gov.uk/,-1.44988900000000,S18 3BP,2013-02-07,fhrs_5_en-GB,5,,FHRS,0
66334,New Road,Wingerworth,Chesterfield,,Deer Park Primary School,School/college/university,7845,5,,351162,5,,53.19998500000000,PI/000049770,068,envhealth@ne-derbyshire.gov.uk,North East Derbyshire,http://www.ne-derbyshire.gov.uk/,-1.44188900000000,S42 6TD,2014-03-10,fhrs_5_en-GB,5,,FHRS,5
66335,20 Market Street,Eckington,Sheffield,,Delicious,Restaurant/Cafe/Canteen,1,0,,401564,5,,53.30996200000000,PI/000130949,068,envhealth@ne-derbyshire.gov.uk,North East Derbyshire,http://www.ne-derbyshire.gov.uk/,-1.35593000000000,S21 4EH,2013-11-06,fhrs_5_en-GB,5,,FHRS,5
66336,7 Greendale Shopping Centre,Green Lane,Dronfield,,Deli-Licious Bakery And Catering Service Ltd,Retailers - other,4613,5,,351445,10,,53.30467400000000,PI/000102637,068,envhealth@ne-derbyshire.gov.uk,North East Derbyshire,http://www.ne-derbyshire.gov.uk/,-1.46456600000000,S18 2LJ,2014-09-23,fhrs_4_en-GB,4,,FHRS,5
66337,,,,,Delizia Market Deli,Retailers - other,4613,0,,664173,0,,,14/00018/COMM,068,envhealth@ne-derbyshire.gov.uk,North East Derbyshire,http://www.ne-derbyshire.gov.uk/,,,2014-03-27,fhrs_5_en-GB,5,,FHRS,0
66338,Clay Cross Community Hospital,Market Street,Clay Cross,Chesterfield,Derbyshire Community Health Service,Hospitals/Childcare/Caring Premises,5,0,,351147,0,,53.16794200000000,PI/000044944,068,envhealth@ne-derbyshire.gov.uk,North East Derbyshire,http://www.ne-derbyshire.gov.uk/,-1.40724100000000,S45 9NZ,2014-08-28,fhrs_5_en-GB,5,,FHRS,0
66339,Westfield Lane,Middle Handley,Sheffield,,Devonshire Arms,Pub/bar/nightclub,7843,5,,351099,5,,53.29598300000000,PI/000024265,068,envhealth@ne-derbyshire.gov.uk,North East Derbyshire,http://www.ne-derbyshire.gov.uk/,-1.39520900000000,S21 5RY,2014-06-27,fhrs_5_en-GB,5,,FHRS,5
66340,Unit 2,Bridge Street,Clay Cross,Chesterfield,Discount UK,Retailers - other,4613,5,,351685,5,,53.16879900000000,PI/000130481,068,envhealth@ne-derbyshire.gov.uk,North East Derbyshire,http://www.ne-derbyshire.gov.uk/,-1.40951800000000,S45 9NG,2012-03-05,fhrs_5_en-GB,5,,FHRS,5
66341,Unit 1,152B High Street,Eckington,Sheffield,Dolly's Fruit And Veg,Retailers - other,4613,5,,593986,5,,53.30780700000000,PI/000125436,068,envhealth@ne-derbyshire.gov.uk,North East Derbyshire,http://www.ne-derbyshire.gov.uk/,-1.36474100000000,S21 4DR,2012-03-09,fhrs_5_en-GB,5,,FHRS,5
66342,78 Ravencar Road,Eckington,Sheffield,,Dong Fang Garden,Takeaway/sandwich shop,7844,10,,703552,10,,53.30870200000000,14/00147/COMM,068,envhealth@ne-derbyshire.gov.uk,North East Derbyshire,http://www.ne-derbyshire.gov.uk/,-1.37245700000000,S21 4JN,2014-09-03,fhrs_3_en-GB,3,,FHRS,10
66343,52 Market Street,Eckington,Sheffield,,Dragon Inn,Takeaway/sandwich shop,7844,10,,351622,10,,53.30937300000000,PI/000129509,068,envhealth@ne-derbyshire.gov.uk,North East Derbyshire,http://www.ne-derbyshire.gov.uk/,-1.35662900000000,S21 4JH,2014-03-25,fhrs_3_en-GB,3,,FHRS,5
66344,Stubley Lane,Dronfield,,,Dronfield Baptist Church,Other catering premises,7841,5,,593996,5,,,PI/000129948,068,envhealth@ne-derbyshire.gov.uk,North East Derbyshire,http://www.ne-derbyshire.gov.uk/,,,2014-11-05,fhrs_5_en-GB,5,,FHRS,5
66345,23 Church Street,Dronfield,Derbyshire,,Dronfield Baptist Church Office,Other catering premises,7841,,,593929,,,,PI/000100403,068,envhealth@ne-derbyshire.gov.uk,North East Derbyshire,http://www.ne-derbyshire.gov.uk/,,,2013-03-01,fhrs_exempt_en-GB,Exempt,,FHRS,
66346,Unit 2,Birch House Way,Dronfield,,Dronfield Cooked Meats Ltd,Distributors/Transporters,7,5,,534142,5,,53.30083300000000,PI/000131046,068,envhealth@ne-derbyshire.gov.uk,North East Derbyshire,http://www.ne-derbyshire.gov.uk/,-1.45592600000000,S18 2XR,2014-12-04,fhrs_5_en-GB,5,,FHRS,5
66347,School Lane,Dronfield,,,Dronfield County Infants School,School/college/university,7845,5,,351186,5,,53.29921600000000,PI/000060972,068,envhealth@ne-derbyshire.gov.uk,North East Derbyshire,http://www.ne-derbyshire.gov.uk/,-1.47015600000000,S18 1RY,2013-10-09,fhrs_5_en-GB,5,,FHRS,5
66348,School Lane,Dronfield,,,Dronfield County Junior School,School/college/university,7845,0,,351185,0,,53.29921600000000,PI/000060971,068,envhealth@ne-derbyshire.gov.uk,North East Derbyshire,http://www.ne-derbyshire.gov.uk/,-1.47015600000000,S18 1RY,2013-09-13,fhrs_5_en-GB,5,,FHRS,5
66349,4 - 6 Chesterfield Road,Dronfield,,,Dronfield Delicatessan,Takeaway/sandwich shop,7844,5,,351261,5,,53.30109700000000,PI/000100291,068,envhealth@ne-derbyshire.gov.uk,North East Derbyshire,http://www.ne-derbyshire.gov.uk/,-1.46674100000000,S18 2XB,2014-09-03,fhrs_5_en-GB,5,,FHRS,5
66350,8 Greendale Shopping Centre,Green Lane,Dronfield,,Dronfield Masala,Takeaway/sandwich shop,7844,10,,351446,10,,53.30467400000000,PI/000102640,068,envhealth@ne-derbyshire.gov.uk,North East Derbyshire,http://www.ne-derbyshire.gov.uk/,-1.46456600000000,S18 2LJ,2014-01-15,fhrs_3_en-GB,3,,FHRS,10
66351,274 Chesterfield Road,Dronfield,,,Dronfield Nursery Limited,Hospitals/Childcare/Caring Premises,5,0,,351269,5,,53.29636200000000,PI/000100342,068,envhealth@ne-derbyshire.gov.uk,North East Derbyshire,http://www.ne-derbyshire.gov.uk/,-1.45710800000000,S18 1XJ,2014-09-15,fhrs_5_en-GB,5,,FHRS,5
66352,Stonelow Road,Dronfield,,,Dronfield Pioneer Social Club Ltd,Pub/bar/nightclub,7843,5,,351205,10,,53.30477600000000,PI/000067101,068,envhealth@ne-derbyshire.gov.uk,North East Derbyshire,http://www.ne-derbyshire.gov.uk/,-1.45734600000000,S18 2EP,2013-02-01,fhrs_3_en-GB,3,,FHRS,10
66353,Dronfield Civic Centre,Dronfield,,,Dronfield Sports Centre,Retailers - other,4613,,,351091,,,53.30136700000000,PI/000020925,068,envhealth@ne-derbyshire.gov.uk,North East Derbyshire,http://www.ne-derbyshire.gov.uk/,-1.47491600000000,S18 1PD,2013-06-05,fhrs_exempt_en-GB,Exempt,,FHRS,
66354,114 Carr Lane,Dronfield Woodhouse,Dronfield,,Dronfield Woodhouse Sports And Social,Retailers - other,4613,20,,593926,10,,53.30294900000000,PI/000100239,068,envhealth@ne-derbyshire.gov.uk,North East Derbyshire,http://www.ne-derbyshire.gov.uk/,-1.50210200000000,S18 8XD,2014-11-28,fhrs_1_en-GB,1,,FHRS,15
66355,Milken Lane,Far Hill,Ashover,Chesterfield,Eastwood Grange,School/college/university,7845,5,,351098,0,,53.16651700000000,PI/000024035,068,envhealth@ne-derbyshire.gov.uk,North East Derbyshire,http://www.ne-derbyshire.gov.uk/,-1.47110300000000,S45 0BA,2013-06-04,fhrs_5_en-GB,5,,FHRS,5
66356,Stanley Street,Killamarsh,Sheffield,Derbyshire,Ebenezer Gospel Hall,Other catering premises,7841,5,,593942,5,,53.32431500000000,PI/000101743,068,envhealth@ne-derbyshire.gov.uk,North East Derbyshire,http://www.ne-derbyshire.gov.uk/,-1.31505700000000,S21 1EL,2013-04-24,fhrs_5_en-GB,5,,FHRS,0
66357,13 Southgate,Eckington,Sheffield,,Eckington Charcoal Grill,Takeaway/sandwich shop,7844,10,,351406,10,,53.30864400000000,PI/000101715,068,envhealth@ne-derbyshire.gov.uk,North East Derbyshire,http://www.ne-derbyshire.gov.uk/,-1.35485400000000,S21 4FS,2013-12-18,fhrs_3_en-GB,3,,FHRS,10
66358,The Grange,88 Southgate,Eckington,Sheffield,Eckington Children's Centre,Hospitals/Childcare/Caring Premises,5,10,,351577,5,,53.30846600000000,PI/000117902,068,envhealth@ne-derbyshire.gov.uk,North East Derbyshire,http://www.ne-derbyshire.gov.uk/,-1.35526200000000,S21 4FT,2014-04-16,fhrs_4_en-GB,4,,FHRS,5
66359,7 Penny Engine Lane,Eckington,Sheffield,,Eckington Court Nursing Home,Hospitals/Childcare/Caring Premises,5,5,,351378,5,,53.31157900000000,PI/000101516,068,envhealth@ne-derbyshire.gov.uk,North East Derbyshire,http://www.ne-derbyshire.gov.uk/,-1.35233300000000,S21 4BF,2014-10-28,fhrs_5_en-GB,5,,FHRS,5
66360,School Street,Eckington,Sheffield,,Eckington Junior School,School/college/university,7845,0,,351187,0,,53.30897600000000,PI/000061077,068,envhealth@ne-derbyshire.gov.uk,North East Derbyshire,http://www.ne-derbyshire.gov.uk/,-1.36302800000000,S21 4FL,2014-10-23,fhrs_5_en-GB,5,,FHRS,0
66361,Pipeyard Lane,Eckington,Sheffield,,Eckington Miners Welfare Social Club Limited,Pub/bar/nightclub,7843,10,,351176,10,,53.30591200000000,PI/000055536,068,envhealth@ne-derbyshire.gov.uk,North East Derbyshire,http://www.ne-derbyshire.gov.uk/,-1.36504000000000,S21 4FA,2013-02-07,fhrs_3_en-GB,3,,FHRS,10
66362,7 Station Road,Eckington,Sheffield,Derbyshire,Eckington News,Retailers - other,4613,20,,351413,10,,53.30903100000000,PI/000101749,068,envhealth@ne-derbyshire.gov.uk,North East Derbyshire,http://www.ne-derbyshire.gov.uk/,-1.35330200000000,S21 4FW,2013-06-05,fhrs_1_en-GB,1,,FHRS,5
66363,Eckington Civic Centre,Market Street,Eckington,Sheffield,Eckington Parish Council,Other catering premises,7841,5,,593937,5,,53.30921900000000,PI/000101303,068,envhealth@ne-derbyshire.gov.uk,North East Derbyshire,http://www.ne-derbyshire.gov.uk/,-1.35640600000000,S21 4JG,2014-06-12,fhrs_4_en-GB,4,,FHRS,10
66364,Gosber Street,Eckington,Sheffield,,Eckington Swimming Pool,Retailers - other,4613,,,351474,,,53.30786400000000,PI/000104503,068,envhealth@ne-derbyshire.gov.uk,North East Derbyshire,http://www.ne-derbyshire.gov.uk/,-1.35687700000000,S21 4DA,2011-06-22,fhrs_exempt_en-GB,Exempt,,FHRS,
66365,Tupton Hall School,Station New Road,Old Tupton,Chesterfield,Eden Food Service,School/college/university,7845,5,,351412,5,,53.18227300000000,PI/000101745,068,envhealth@ne-derbyshire.gov.uk,North East Derbyshire,http://www.ne-derbyshire.gov.uk/,-1.40952800000000,S42 6LG,2014-03-25,fhrs_5_en-GB,5,,FHRS,5
66366,89 St Lawrence Road,North Wingfield,Chesterfield,,Elgin House,Hospitals/Childcare/Caring Premises,5,5,,351410,5,,53.17758900000000,PI/000101732,068,envhealth@ne-derbyshire.gov.uk,North East Derbyshire,http://www.ne-derbyshire.gov.uk/,-1.39144300000000,S42 5LJ,2014-01-30,fhrs_5_en-GB,5,,FHRS,5
66367,Mansfield Road,Heath,Chesterfield,,Elm Tree Inn,Pub/bar/nightclub,7843,5,,351486,5,,53.19953500000000,PI/000106965,068,envhealth@ne-derbyshire.gov.uk,North East Derbyshire,http://www.ne-derbyshire.gov.uk/,-1.33495100000000,S44 5SE,2014-09-10,fhrs_5_en-GB,5,,FHRS,5
66368,,,,,Emma's Cupcakes,Other catering premises,7841,10,,594040,5,,,PI/000131495,068,envhealth@ne-derbyshire.gov.uk,North East Derbyshire,http://www.ne-derbyshire.gov.uk/,,,2013-06-17,fhrs_4_en-GB,4,,FHRS,5
66369,2 Hardwick Close,Holmewood,Chesterfield,,Enable Care And Home Support Ltd,Hospitals/Childcare/Caring Premises,5,5,,593991,5,,53.18933100000000,PI/000129594,068,envhealth@ne-derbyshire.gov.uk,North East Derbyshire,http://www.ne-derbyshire.gov.uk/,-1.35426600000000,S42 5RL,2012-11-30,fhrs_5_en-GB,5,,FHRS,5
66370,4 Hardwick Close,Holmewood,Chesterfield,,Enable Care And Support Ltd,Hospitals/Childcare/Caring Premises,5,5,,664197,5,,53.18933100000000,14/00061/COMM,068,envhealth@ne-derbyshire.gov.uk,North East Derbyshire,http://www.ne-derbyshire.gov.uk/,-1.35426600000000,S42 5RL,2012-11-30,fhrs_5_en-GB,5,,FHRS,5
66371,Cherry Tree House,Cedar Close,Eckington,Sheffield,Enable Care Home Support,Hospitals/Childcare/Caring Premises,5,5,,664191,5,,53.30373500000000,14/00053/COMM,068,envhealth@ne-derbyshire.gov.uk,North East Derbyshire,http://www.ne-derbyshire.gov.uk/,-1.37149500000000,S21 4BA,2013-06-06,fhrs_5_en-GB,5,,FHRS,5
66372,1 Larch Road,Eckington,Sheffield,,Enable Care Ltd,Hospitals/Childcare/Caring Premises,5,5,,664196,0,,53.30191200000000,14/00060/COMM,068,envhealth@ne-derbyshire.gov.uk,North East Derbyshire,http://www.ne-derbyshire.gov.uk/,-1.37354700000000,S21 4ED,2012-10-25,fhrs_5_en-GB,5,,FHRS,5
66373,3 Larch Road,Eckington,Sheffield,,Enable Care Ltd,Hospitals/Childcare/Caring Premises,5,5,,664198,5,,53.30191200000000,14/00062/COMM,068,envhealth@ne-derbyshire.gov.uk,North East Derbyshire,http://www.ne-derbyshire.gov.uk/,-1.37354700000000,S21 4ED,2012-10-05,fhrs_5_en-GB,5,,FHRS,5
66374,10 - 12 Bridge Street,Killamarsh,Sheffield,,Everest Tandoori,Other catering premises,7841,20,,609613,20,,53.32430400000000,PI/000131696,068,envhealth@ne-derbyshire.gov.uk,North East Derbyshire,http://www.ne-derbyshire.gov.uk/,-1.31788000000000,S21 1AH,2014-09-23,fhrs_1_en-GB,1,,FHRS,10
66375,4 Bridge Street,Killamarsh,Sheffield,,Express Pizza,Takeaway/sandwich shop,7844,10,,684014,5,,53.32430400000000,14/00021/COMM,068,envhealth@ne-derbyshire.gov.uk,North East Derbyshire,http://www.ne-derbyshire.gov.uk/,-1.31788000000000,S21 1AH,2014-06-11,fhrs_4_en-GB,4,,FHRS,5
66376,,,,,Fab Foods,Other catering premises,7841,5,,732305,5,,,14/00204/COMM,068,envhealth@ne-derbyshire.gov.uk,North East Derbyshire,http://www.ne-derbyshire.gov.uk/,,,2015-01-20,fhrs_5_en-GB,5,,FHRS,5
66377,Border View Farm,Rod Moor Road,Dronfield Woodhouse,Dronfield,Farm Shop,Retailers - other,4613,10,,351180,10,,53.31150700000000,PI/000059014,068,envhealth@ne-derbyshire.gov.uk,North East Derbyshire,http://www.ne-derbyshire.gov.uk/,-1.51099300000000,S18 8XL,2013-09-17,fhrs_3_en-GB,3,,FHRS,10
66378,Scotland Nurseries,Stretton Road,Tansley,Matlock,Farm Shop,Retailers - other,4613,5,,594017,5,,53.13474100000000,PI/000131057,068,envhealth@ne-derbyshire.gov.uk,North East Derbyshire,http://www.ne-derbyshire.gov.uk/,-1.49403300000000,DE4 5GF,2012-06-28,fhrs_5_en-GB,5,,FHRS,5
66379,36-38 Chesterfield Road,Dronfield,Derbyshire,,Fat Sam's,Takeaway/sandwich shop,7844,5,,351264,10,,53.30109700000000,PI/000100313,068,envhealth@ne-derbyshire.gov.uk,North East Derbyshire,http://www.ne-derbyshire.gov.uk/,-1.46674100000000,S18 2XB,2014-06-30,fhrs_2_en-GB,2,,FHRS,15
66380,Unit 15,The Forge,Church Street,Dronfield,Ferndale @ The Forge,Restaurant/Cafe/Canteen,1,5,,351593,10,,53.30148600000000,PI/000118815,068,envhealth@ne-derbyshire.gov.uk,North East Derbyshire,http://www.ne-derbyshire.gov.uk/,-1.47119300000000,S18 1QX,2013-11-26,fhrs_4_en-GB,4,,FHRS,5
66381,Dyche Lane,Coal Aston,Dronfield,,Ferndale Garden Centre,Restaurant/Cafe/Canteen,1,5,,351092,5,,53.31318100000000,PI/000021575,068,envhealth@ne-derbyshire.gov.uk,North East Derbyshire,http://www.ne-derbyshire.gov.uk/,-1.45928100000000,S18 3AB,2013-10-09,fhrs_5_en-GB,5,,FHRS,5
66382,5A High Street,Dronfield,,,Fishers And Sons,Retailers - other,4613,5,,492704,5,,53.30227300000000,PI/000113698,068,envhealth@ne-derbyshire.gov.uk,North East Derbyshire,http://www.ne-derbyshire.gov.uk/,-1.47435000000000,S18 1PX,2013-03-28,fhrs_4_en-GB,4,,FHRS,10
66383,Main Road,Unstone,Dronfield,,Fleur De Lys Hotel,Pub/bar/nightclub,7843,10,,351142,10,,53.29154400000000,PI/000043992,068,envhealth@ne-derbyshire.gov.uk,North East Derbyshire,http://www.ne-derbyshire.gov.uk/,-1.44344200000000,S18 4AB,2014-06-17,fhrs_3_en-GB,3,,FHRS,10
66384,34 High Street,Clay Cross,Chesterfield,,Food For Thought,Restaurant/Cafe/Canteen,1,10,,664178,10,,53.16770600000000,14/00040/COMM,068,envhealth@ne-derbyshire.gov.uk,North East Derbyshire,http://www.ne-derbyshire.gov.uk/,-1.41584600000000,S45 9DY,2013-06-13,fhrs_4_en-GB,4,,FHRS,0
66385,Main Road,Wigley,Chesterfield,,Fox And Goose Inn,Pub/bar/nightclub,7843,10,,351230,10,,53.24308200000000,PI/000074995,068,envhealth@ne-derbyshire.gov.uk,North East Derbyshire,http://www.ne-derbyshire.gov.uk/,-1.52834600000000,S42 7JJ,2014-12-03,fhrs_3_en-GB,3,,FHRS,10
66386,53 Coupe Lane,Clay Cross,Chesterfield,,Fox's Family Milk Round Ltd,Retailers - other,4613,5,,593955,10,,53.17377200000000,PI/000104190,068,envhealth@ne-derbyshire.gov.uk,North East Derbyshire,http://www.ne-derbyshire.gov.uk/,-1.42858500000000,S45 9QL,2013-06-13,fhrs_3_en-GB,3,,FHRS,10
66387,11 West Street,Eckington,Sheffield,,French & Siddall,Retailers - other,4613,20,,351428,5,,53.30581500000000,PI/000101924,068,envhealth@ne-derbyshire.gov.uk,North East Derbyshire,http://www.ne-derbyshire.gov.uk/,-1.36870300000000,S21 4GA,2014-05-07,fhrs_1_en-GB,1,,FHRS,5
66388,Clay Cross Community Hospital,Market Street,Clay Cross,Chesterfield,Friends Of Clay Cross Hospital,Restaurant/Cafe/Canteen,1,5,,351355,5,,53.16794200000000,PI/000101224,068,envhealth@ne-derbyshire.gov.uk,North East Derbyshire,http://www.ne-derbyshire.gov.uk/,-1.40724100000000,S45 9NZ,2012-11-08,fhrs_5_en-GB,5,,FHRS,0
66389,2 Edinburgh Court,Wingerworth,Chesterfield,,Frutura,Retailers - other,4613,10,,351604,10,,53.20649700000000,PI/000124219,068,envhealth@ne-derbyshire.gov.uk,North East Derbyshire,http://www.ne-derbyshire.gov.uk/,-1.44476900000000,S42 6SH,2013-02-22,fhrs_3_en-GB,3,,FHRS,5
66390,Units 7 To 9,The Parade,Bridge Street,Clay Cross,Fulton Foods,Retailers - supermarkets/hypermarkets,7840,5,,510510,5,,53.16936100000000,PI/000131133,068,envhealth@ne-derbyshire.gov.uk,North East Derbyshire,http://www.ne-derbyshire.gov.uk/,-1.41060300000000,S45 9NG,2013-01-17,fhrs_5_en-GB,5,,FHRS,0
66391,1 - 3 Parkside Shopping Centre,Killamarsh,Sheffield,,Fulton's Foods,Retailers - other,4613,5,,510513,5,,53.32452200000000,PI/000131186,068,envhealth@ne-derbyshire.gov.uk,North East Derbyshire,http://www.ne-derbyshire.gov.uk/,-1.31675000000000,S21 1FY,2013-02-15,fhrs_5_en-GB,5,,FHRS,5
66392,20 - 22 Heath Road,Holmewood,Chesterfield,,G And E Wallage Ltd - Convenience Store,Retailers - other,4613,5,,351301,5,,53.18847600000000,PI/000100690,068,envhealth@ne-derbyshire.gov.uk,North East Derbyshire,http://www.ne-derbyshire.gov.uk/,-1.35418900000000,S42 5RA,2014-09-17,fhrs_5_en-GB,5,,FHRS,5
66393,12 Market Street,Clay Cross,Chesterfield,,Gardeners Inn Limited,Pub/bar/nightclub,7843,10,,351347,10,,53.16660300000000,PI/000101170,068,envhealth@ne-derbyshire.gov.uk,North East Derbyshire,http://www.ne-derbyshire.gov.uk/,-1.41454400000000,S45 9JE,2013-06-21,fhrs_3_en-GB,3,,FHRS,10
66394,Main Road,Troway,Marsh Lane,Sheffield,Gate Inn,Pub/bar/nightclub,7843,5,,351218,10,,53.31107800000000,PI/000071174,068,envhealth@ne-derbyshire.gov.uk,North East Derbyshire,http://www.ne-derbyshire.gov.uk/,-1.41369600000000,S21 5RU,2013-03-01,fhrs_4_en-GB,4,,FHRS,5
66395,Eckington Market,Market Street,Eckington,Derbyshire,Gaunt's Mobile Snack Bar,Mobile caterer,7846,5,,351282,5,,53.30780700000000,PI/000100527,068,envhealth@ne-derbyshire.gov.uk,North East Derbyshire,http://www.ne-derbyshire.gov.uk/,-1.36474100000000,S21 4DR,2011-05-04,fhrs_5_en-GB,5,,FHRS,5
66396,175 High Street,Clay Cross,Chesterfield,,George & Dragon,Pub/bar/nightclub,7843,5,,351321,5,,53.16586400000000,PI/000100809,068,envhealth@ne-derbyshire.gov.uk,North East Derbyshire,http://www.ne-derbyshire.gov.uk/,-1.41600500000000,S45 9DZ,2014-11-27,fhrs_5_en-GB,5,,FHRS,5
66397,2 Main Road,Holmesfield,Dronfield,,George And Dragon,Pub/bar/nightclub,7843,5,,351523,5,,53.29544100000000,PI/000114457,068,envhealth@ne-derbyshire.gov.uk,North East Derbyshire,http://www.ne-derbyshire.gov.uk/,-1.51465700000000,S18 7WT,2013-07-04,fhrs_4_en-GB,4,,FHRS,10
66398,,,,,Gerry's Outside Caterering,Other catering premises,7841,5,,351530,5,,,PI/000114990,068,envhealth@ne-derbyshire.gov.uk,North East Derbyshire,http://www.ne-derbyshire.gov.uk/,,,2014-09-30,fhrs_4_en-GB,4,,FHRS,10
66399,Gildage Farm,Heath Road,Heath,Chesterfield,Gildage Farm Shop,Retailers - other,4613,5,,664195,5,,53.19308100000000,14/00057/COMM,068,envhealth@ne-derbyshire.gov.uk,North East Derbyshire,http://www.ne-derbyshire.gov.uk/,-1.33499100000000,S44 5RZ,2014-06-04,fhrs_5_en-GB,5,,FHRS,5
66400,Morton Road,Pilsley,Chesterfield,,Gladstone Arms,Pub/bar/nightclub,7843,10,,351367,10,,53.15332700000000,PI/000101387,068,envhealth@ne-derbyshire.gov.uk,North East Derbyshire,http://www.ne-derbyshire.gov.uk/,-1.36899700000000,S45 8EE,2013-02-22,fhrs_3_en-GB,3,,FHRS,10
66401,85 Market Street,Clay Cross,Chesterfield,,Golden Days Social Club C/O N D C F,Pub/bar/nightclub,7843,5,,351710,5,,53.16705700000000,PI/000130774,068,envhealth@ne-derbyshire.gov.uk,North East Derbyshire,http://www.ne-derbyshire.gov.uk/,-1.41002100000000,S45 9LS,2014-06-25,fhrs_5_en-GB,5,,FHRS,5
66402,217 Birkinstyle Lane,Stonebroom,Alfreton,,Golden Inn,Takeaway/sandwich shop,7844,10,,351246,10,,53.12961300000000,PI/000100097,068,envhealth@ne-derbyshire.gov.uk,North East Derbyshire,http://www.ne-derbyshire.gov.uk/,-1.39289800000000,DE55 6LD,2013-11-28,fhrs_3_en-GB,3,,FHRS,10
66403,Balmoral Crescent,Dronfield Woodhouse,Dronfield,,Gorseybrigg Primary School And Nursery,School/college/university,7845,0,,510487,0,,53.30219400000000,PI/000112665,068,envhealth@ne-derbyshire.gov.uk,North East Derbyshire,http://www.ne-derbyshire.gov.uk/,-1.49346800000000,S18 8ZY,2014-11-19,fhrs_5_en-GB,5,,FHRS,0
66404,Gosforth Fields Sports Association,Bubnell Road,Dronfield Woodhouse,Dronfield,Gosforth Fields Bar,Pub/bar/nightclub,7843,0,,664200,5,,53.30402100000000,14/00065/COMM,068,envhealth@ne-derbyshire.gov.uk,North East Derbyshire,http://www.ne-derbyshire.gov.uk/,-1.48981400000000,S18 8NP,2014-03-22,fhrs_5_en-GB,5,,FHRS,5
66405,Callywhite Lane,Dronfield,,,Gosforth Lodge,Other catering premises,7841,5,,351254,10,,53.29958600000000,PI/000100223,068,envhealth@ne-derbyshire.gov.uk,North East Derbyshire,http://www.ne-derbyshire.gov.uk/,-1.45855300000000,S18 2XP,2013-03-01,fhrs_4_en-GB,4,,FHRS,5
66406,Gosforth Pre School,Gosforth Youth And Community Centre,Stubley Lane,Dronfield Woodhouse,Gosforth Pre-School,Other catering premises,7841,5,,606340,5,,,PI/000129975,068,envhealth@ne-derbyshire.gov.uk,North East Derbyshire,http://www.ne-derbyshire.gov.uk/,,,2013-06-13,fhrs_5_en-GB,5,,FHRS,5
66407,New Street,Grassmoor,Chesterfield,,Grassmoor Community Centre,Other catering premises,7841,5,,351067,5,,53.20078800000000,PI/000013751,068,envhealth@ne-derbyshire.gov.uk,North East Derbyshire,http://www.ne-derbyshire.gov.uk/,-1.39470800000000,S42 5EE,2014-09-18,fhrs_5_en-GB,5,,FHRS,5
66408,North Wingfield Road,Grassmoor,Chesterfield,Derbyshire,Grassmoor Golf Centre,Other catering premises,7841,5,,351166,5,,53.20590900000000,PI/000051185,068,envhealth@ne-derbyshire.gov.uk,North East Derbyshire,http://www.ne-derbyshire.gov.uk/,-1.40496600000000,S42 5EA,2014-03-14,fhrs_5_en-GB,5,,FHRS,5
66409,North Wingfield Road,Grassmoor,Chesterfield,,Grassmoor Methodist Church,Other catering premises,7841,5,,593913,5,,53.19974400000000,PI/000051186,068,envhealth@ne-derbyshire.gov.uk,North East Derbyshire,http://www.ne-derbyshire.gov.uk/,-1.39627900000000,S42 5EJ,2013-07-09,fhrs_5_en-GB,5,,FHRS,5
66410,North Wingfield Road,Grassmoor,Chesterfield,,Grassmoor Primary School,School/college/university,7845,5,,351167,5,,53.19641300000000,PI/000051187,068,envhealth@ne-derbyshire.gov.uk,North East Derbyshire,http://www.ne-derbyshire.gov.uk/,-1.39349700000000,S42 5EP,2014-01-21,fhrs_5_en-GB,5,,FHRS,5
66411,2 New Street,Grassmoor,Chesterfield,Derbyshire,Grassmoor Supermarket,Retailers - other,4613,10,,351369,5,,53.20078800000000,PI/000101407,068,envhealth@ne-derbyshire.gov.uk,North East Derbyshire,http://www.ne-derbyshire.gov.uk/,-1.39470800000000,S42 5EE,2013-03-07,fhrs_3_en-GB,3,,FHRS,10
66412,Mill Lane,Grassmoor,Chesterfield,,Grassmoor Working Mens Club,Pub/bar/nightclub,7843,5,,351152,5,,53.19843300000000,PI/000047526,068,envhealth@ne-derbyshire.gov.uk,North East Derbyshire,http://www.ne-derbyshire.gov.uk/,-1.39831800000000,S42 5AB,2013-03-01,fhrs_5_en-GB,5,,FHRS,5
66413,,,,,Greek Cuisine,Mobile caterer,7846,5,,401563,5,,,PI/000130773,068,envhealth@ne-derbyshire.gov.uk,North East Derbyshire,http://www.ne-derbyshire.gov.uk/,,,2013-09-11,fhrs_5_en-GB,5,,FHRS,5
66414,3 Greendale Shopping Centre,Green Lane,Dronfield,,Greendale News,Retailers - other,4613,5,,351442,10,,53.30467400000000,PI/000102632,068,envhealth@ne-derbyshire.gov.uk,North East Derbyshire,http://www.ne-derbyshire.gov.uk/,-1.46456600000000,S18 2LJ,2011-07-06,fhrs_4_en-GB,4,,FHRS,5
66415,12 Heath Road,Holmewood,Chesterfield,,Greenland,Takeaway/sandwich shop,7844,5,,351300,5,,53.18847600000000,PI/000100685,068,envhealth@ne-derbyshire.gov.uk,North East Derbyshire,http://www.ne-derbyshire.gov.uk/,-1.35418900000000,S42 5RA,2013-08-28,fhrs_5_en-GB,5,,FHRS,5
66416,Hackney Lane,Barlow,Dronfield,,Hackney House Cafe And Gifts,Restaurant/Cafe/Canteen,1,5,,351559,5,,53.26702900000000,PI/000117128,068,envhealth@ne-derbyshire.gov.uk,North East Derbyshire,http://www.ne-derbyshire.gov.uk/,-1.48290800000000,S18 7TD,2013-08-01,fhrs_4_en-GB,4,,FHRS,10
66417,Hallowes Lane,Dronfield,,,Hallowes Golf Club Ltd,Restaurant/Cafe/Canteen,1,10,,351104,15,,53.29297500000000,PI/000029687,068,envhealth@ne-derbyshire.gov.uk,North East Derbyshire,http://www.ne-derbyshire.gov.uk/,-1.46159200000000,S18 1UR,2014-11-04,fhrs_2_en-GB,2,,FHRS,5
66418,Temperance Hill,Woolley Moor,Alfreton,,Handley Fields Farm,Retailers - other,4613,5,,351212,5,,53.14643700000000,PI/000069068,068,envhealth@ne-derbyshire.gov.uk,North East Derbyshire,http://www.ne-derbyshire.gov.uk/,-1.44585700000000,DE55 6FJ,2009-01-19,fhrs_5_en-GB,5,,FHRS,5
66419,Unit 1,Allendale Road,Wingerworth,Chesterfield,Happy Wok,Takeaway/sandwich shop,7844,5,,351237,5,,53.20095900000000,PI/000100008,068,envhealth@ne-derbyshire.gov.uk,North East Derbyshire,http://www.ne-derbyshire.gov.uk/,-1.43704100000000,S42 6PX,2014-03-26,fhrs_5_en-GB,5,,FHRS,5
66420,32 Commonside Road,Barlow,Dronfield,,Hare And Hounds Inn,Pub/bar/nightclub,7843,5,,351278,5,,53.27199400000000,PI/000100454,068,envhealth@ne-derbyshire.gov.uk,North East Derbyshire,http://www.ne-derbyshire.gov.uk/,-1.49631400000000,S18 7SJ,2013-06-21,fhrs_5_en-GB,5,,FHRS,5
66421,99 Rupert Street,Lower Pilsley,Chesterfield,,Hatters,Other catering premises,7841,5,,726372,5,,53.16485400000000,14/00195/COMM,068,envhealth@ne-derbyshire.gov.uk,North East Derbyshire,http://www.ne-derbyshire.gov.uk/,-1.37463100000000,S45 8DB,2014-12-12,fhrs_5_en-GB,5,,FHRS,5
66422,,,,,Hayley's Cupcakes And Novelty Cakes,Other catering premises,7841,5,,510527,0,,,PI/000131322,068,envhealth@ne-derbyshire.gov.uk,North East Derbyshire,http://www.ne-derbyshire.gov.uk/,,,2013-02-28,fhrs_5_en-GB,5,,FHRS,0
66423,21 High Street,Clay Cross,Chesterfield,,Hazeldene House Residential Home,Hospitals/Childcare/Caring Premises,5,10,,351308,10,,53.16916700000000,PI/000100745,068,envhealth@ne-derbyshire.gov.uk,North East Derbyshire,http://www.ne-derbyshire.gov.uk/,-1.41673800000000,S45 9DX,2014-03-19,fhrs_3_en-GB,3,,FHRS,10
66424,Heath Primary School,Slack Lane,Heath,Chesterfield,Heath Childcare,Hospitals/Childcare/Caring Premises,5,10,,427527,10,,53.19293400000000,PI/000129660,068,envhealth@ne-derbyshire.gov.uk,North East Derbyshire,http://www.ne-derbyshire.gov.uk/,-1.34424300000000,S44 5RH,2014-11-19,fhrs_3_en-GB,3,,FHRS,10
66425,38 Heather Avenue,Heath,Chesterfield,,Heath Mini Market,Retailers - other,4613,5,,684020,5,,53.19376000000000,14/00119/COMM,068,envhealth@ne-derbyshire.gov.uk,North East Derbyshire,http://www.ne-derbyshire.gov.uk/,-1.34560800000000,S44 5RF,2014-05-19,fhrs_5_en-GB,5,,FHRS,5
66426,Slack Lane,Heath,Chesterfield,,Heath Primary School,School/college/university,7845,5,,351107,5,,53.19293400000000,PI/000032540,068,envhealth@ne-derbyshire.gov.uk,North East Derbyshire,http://www.ne-derbyshire.gov.uk/,-1.34424300000000,S44 5RH,2014-06-04,fhrs_4_en-GB,4,,FHRS,10
66427,24 Heath Road,Holmewood,Chesterfield,,Henstocks,Retailers - other,4613,5,,351302,5,,53.18847600000000,PI/000100691,068,envhealth@ne-derbyshire.gov.uk,North East Derbyshire,http://www.ne-derbyshire.gov.uk/,-1.35418900000000,S42 5RA,2014-05-08,fhrs_5_en-GB,5,,FHRS,5
66428,85 High Street,Clay Cross,Chesterfield,,Henstocks,Retailers - other,4613,,,351315,,,53.16586400000000,PI/000100776,068,envhealth@ne-derbyshire.gov.uk,North East Derbyshire,http://www.ne-derbyshire.gov.uk/,-1.41600500000000,S45 9DZ,2014-03-26,fhrs_4_en-GB,4,,FHRS,
66429,Hepthorne Lane Post Office,88 Station Road,Hepthorne Lane,North Wingfield,Hepthorne Lane News,Retailers - other,4613,5,,351414,10,,53.18073200000000,PI/000101756,068,envhealth@ne-derbyshire.gov.uk,North East Derbyshire,http://www.ne-derbyshire.gov.uk/,-1.39787800000000,S42 5JE,2013-11-04,fhrs_4_en-GB,4,,FHRS,5
66430,49 - 51 Chesterfield Road,Shirland,Alfreton,,Higham Food And Wine,Retailers - other,4613,5,,732307,5,,53.12662800000000,14/00224/COMM,068,envhealth@ne-derbyshire.gov.uk,North East Derbyshire,http://www.ne-derbyshire.gov.uk/,-1.41067900000000,DE55 6BN,2015-01-13,fhrs_5_en-GB,5,,FHRS,5
66431,Highfield House Farm,Darley Road,Stonedge,Ashover,Highfield House Farm Shop,Retailers - other,4613,5,,351204,5,,53.19988100000000,PI/000066681,068,envhealth@ne-derbyshire.gov.uk,North East Derbyshire,http://www.ne-derbyshire.gov.uk/,-1.49958400000000,S45 0LW,2013-09-23,fhrs_4_en-GB,4,,FHRS,10
66432,121 High Street,Clay Cross,Chesterfield,,Hill House Care Home,Hospitals/Childcare/Caring Premises,5,5,,351319,5,,53.16586400000000,PI/000100797,068,envhealth@ne-derbyshire.gov.uk,North East Derbyshire,http://www.ne-derbyshire.gov.uk/,-1.41600500000000,S45 9DZ,2014-09-05,fhrs_5_en-GB,5,,FHRS,5
66433,Longacre Road,Dronfield,,,Hilltop Sports And Social Club,Pub/bar/nightclub,7843,10,,351697,10,,53.29199500000000,PI/000130617,068,envhealth@ne-derbyshire.gov.uk,North East Derbyshire,http://www.ne-derbyshire.gov.uk/,-1.47144500000000,S18 1UQ,2014-12-16,fhrs_3_en-GB,3,,FHRS,10
66434,Flat,51 Highfields Road,Dronfield,Derbyshire,Hilltop Tots,Hospitals/Childcare/Caring Premises,5,5,,351326,5,,53.29402400000000,PI/000100883,068,envhealth@ne-derbyshire.gov.uk,North East Derbyshire,http://www.ne-derbyshire.gov.uk/,-1.46902000000000,S18 1UW,2014-10-27,fhrs_5_en-GB,5,,FHRS,5
66435,69 - 71 Holmesdale Road,Dronfield,,,Holmesdale Convenience Store,Retailers - other,4613,10,,726371,10,,53.30735100000000,14/00177/COMM,068,envhealth@ne-derbyshire.gov.uk,North East Derbyshire,http://www.ne-derbyshire.gov.uk/,-1.46021000000000,S18 2FA,2014-12-03,fhrs_3_en-GB,3,,FHRS,10
66436,27 The Avenue,Dronfield,,,Holmesdale Infants School,School/college/university,7845,5,,351540,0,,53.30575800000000,PI/000115569,068,envhealth@ne-derbyshire.gov.uk,North East Derbyshire,http://www.ne-derbyshire.gov.uk/,-1.46180600000000,S18 2LR,2013-02-06,fhrs_5_en-GB,5,,FHRS,5
66437,Holmewood Fish Bar And Kebab House,1A Searston Avenue,Holmewood,Chesterfield,Holmewood Fish Bar  And Kebab House,Takeaway/sandwich shop,7844,10,,351393,15,,53.18825000000000,PI/000101623,068,envhealth@ne-derbyshire.gov.uk,North East Derbyshire,http://www.ne-derbyshire.gov.uk/,-1.36064200000000,S42 5QZ,2014-06-25,fhrs_2_en-GB,2,,FHRS,15
66438,Barnfield Close,Holmewood,Chesterfield,,Holmewood Manor,Hospitals/Childcare/Caring Premises,5,5,,401561,5,,53.18716100000000,PI/000129825,068,envhealth@ne-derbyshire.gov.uk,North East Derbyshire,http://www.ne-derbyshire.gov.uk/,-1.35530100000000,S42 5RH,2014-05-08,fhrs_5_en-GB,5,,FHRS,5
66439,27 Heath Road,Holmewood,Chesterfield,Derbyshire,Holmewood Miners Welfare Social Club,Pub/bar/nightclub,7843,10,,351303,5,,53.18826500000000,PI/000100693,068,envhealth@ne-derbyshire.gov.uk,North East Derbyshire,http://www.ne-derbyshire.gov.uk/,-1.35341400000000,S42 5RB,2013-03-07,fhrs_4_en-GB,4,,FHRS,5
66440,Valley Road,Clay Cross,Chesterfield,,Holmgate Community Centre,Other catering premises,7841,10,,351221,5,,53.17087100000000,PI/000071956,068,envhealth@ne-derbyshire.gov.uk,North East Derbyshire,http://www.ne-derbyshire.gov.uk/,-1.43077800000000,S45 9QF,2011-09-05,fhrs_4_en-GB,4,,FHRS,5
66441,Valley Road,Clay Cross,,,Holmgate Evangelical Church,Other catering premises,7841,5,,351425,5,,,PI/000101903,068,envhealth@ne-derbyshire.gov.uk,North East Derbyshire,http://www.ne-derbyshire.gov.uk/,,,2009-03-30,fhrs_5_en-GB,5,,FHRS,5
66442,Holmgate Road,Clay Cross,Chesterfield,,Holmgate Primary School And Nursery,School/college/university,7845,5,,351122,5,,53.16889000000000,PI/000035325,068,envhealth@ne-derbyshire.gov.uk,North East Derbyshire,http://www.ne-derbyshire.gov.uk/,-1.42636100000000,S45 9QD,2014-03-31,fhrs_5_en-GB,5,,FHRS,5
66443,3 New Road,Holymoorside,Chesterfield,,Holymoorside Country Store,Retailers - other,4613,5,,351597,5,,53.21809300000000,PI/000120068,068,envhealth@ne-derbyshire.gov.uk,North East Derbyshire,http://www.ne-derbyshire.gov.uk/,-1.49546300000000,S42 7EW,2013-11-14,fhrs_5_en-GB,5,,FHRS,5
66444,34 Thanet Street,Clay Cross,Chesterfield,,Honda,Takeaway/sandwich shop,7844,20,,351483,15,,53.16367500000000,PI/000106774,068,envhealth@ne-derbyshire.gov.uk,North East Derbyshire,http://www.ne-derbyshire.gov.uk/,-1.41320800000000,S45 9JR,2014-03-10,fhrs_1_en-GB,1,,FHRS,15
66445,Brackenfield Lane,Wessington,Alfreton,,Horse And Jockey,Pub/bar/nightclub,7843,5,,401553,5,,53.11731900000000,PI/000008891,068,envhealth@ne-derbyshire.gov.uk,North East Derbyshire,http://www.ne-derbyshire.gov.uk/,-1.44922000000000,DE55 6DW,2013-12-04,fhrs_5_en-GB,5,,FHRS,5
66446,Horsleygate Lane,Holmesfield,Dronfield,,Horsleygate Hall,Hotel/bed & breakfast/guest house,7842,5,,593902,5,,53.28940900000000,PI/000035806,068,envhealth@ne-derbyshire.gov.uk,North East Derbyshire,http://www.ne-derbyshire.gov.uk/,-1.53239600000000,S18 7WD,2013-02-22,fhrs_5_en-GB,5,,FHRS,5
66447,,,,,Hot Jacks,Mobile caterer,7846,0,,626202,5,,,PI/000131850,068,envhealth@ne-derbyshire.gov.uk,North East Derbyshire,http://www.ne-derbyshire.gov.uk/,,,2014-03-06,fhrs_5_en-GB,5,,FHRS,5
66448,55 Market Street,Clay Cross,Chesterfield,,Huang Ying,Takeaway/sandwich shop,7844,5,,664181,5,,53.16673200000000,14/00043/COMM,068,envhealth@ne-derbyshire.gov.uk,North East Derbyshire,http://www.ne-derbyshire.gov.uk/,-1.41144600000000,S45 9JQ,2014-03-11,fhrs_4_en-GB,4,,FHRS,10
66449,Lodge Drive,Wingerworth,Chesterfield,,Hunloke Park Primary School,School/college/university,7845,5,,351130,10,,53.20386100000000,PI/000040563,068,envhealth@ne-derbyshire.gov.uk,North East Derbyshire,http://www.ne-derbyshire.gov.uk/,-1.42728700000000,S42 6PT,2014-03-12,fhrs_4_en-GB,4,,FHRS,5
66450,2 Hilltop Road,Dronfield,,,Hyde Park Inn,Pub/bar/nightclub,7843,10,,351119,10,,53.29380200000000,PI/000034267,068,envhealth@ne-derbyshire.gov.uk,North East Derbyshire,http://www.ne-derbyshire.gov.uk/,-1.47358300000000,S18 1UH,2013-09-27,fhrs_3_en-GB,3,,FHRS,5
66451,51 Sheffield Road,Dronfield,,,Hyderabad Nawabs,Restaurant/Cafe/Canteen,1,5,,552454,5,,53.30541800000000,PI/000131063,068,envhealth@ne-derbyshire.gov.uk,North East Derbyshire,http://www.ne-derbyshire.gov.uk/,-1.47423600000000,S18 2GF,2013-09-24,fhrs_5_en-GB,5,,FHRS,5
66452,Market Street,Clay Cross,Chesterfield,,Iceland Foods Ltd,Retailers - supermarkets/hypermarkets,7840,0,,664212,0,,53.16660300000000,PI/000131793,068,envhealth@ne-derbyshire.gov.uk,North East Derbyshire,http://www.ne-derbyshire.gov.uk/,-1.41454400000000,S45 9JE,2014-02-18,fhrs_5_en-GB,5,,FHRS,0
66453,College Road,Spinkhill,Sheffield,,Immaculate Conception Catholic Primary School,School/college/university,7845,0,,351086,0,,53.30206600000000,PI/000017142,068,envhealth@ne-derbyshire.gov.uk,North East Derbyshire,http://www.ne-derbyshire.gov.uk/,-1.31800900000000,S21 3YB,2014-02-27,fhrs_5_en-GB,5,,FHRS,0
66454,Stubley Service Station,Stubley Lane,Dronfield Woodhouse,Dronfield,Intake 9,Retailers - other,4613,5,,594024,5,,53.30533200000000,PI/000131233,068,envhealth@ne-derbyshire.gov.uk,North East Derbyshire,http://www.ne-derbyshire.gov.uk/,-1.49173500000000,S18 8YN,2012-12-14,fhrs_5_en-GB,5,,FHRS,5
66455,Span Carr Farm,Highashes Lane,Ashover,Chesterfield,J & J Hollingworth & Sons,Farmers/growers,7838,0,,351111,0,,53.19545500000000,PI/000032992,068,envhealth@ne-derbyshire.gov.uk,North East Derbyshire,http://www.ne-derbyshire.gov.uk/,-1.48811000000000,S45 0LH,2013-03-01,fhrs_5_en-GB,5,,FHRS,0
66456,75 High Street,Clay Cross,Chesterfield,,J A Orwin,Retailers - other,4613,5,,351313,5,,53.16586400000000,PI/000100772,068,envhealth@ne-derbyshire.gov.uk,North East Derbyshire,http://www.ne-derbyshire.gov.uk/,-1.41600500000000,S45 9DZ,2014-03-24,fhrs_4_en-GB,4,,FHRS,10
66457,Scotland Nurseries,Stretton Road,Tansley,Matlock,J S Scotland Nurseries Ltd,Restaurant/Cafe/Canteen,1,0,,351209,5,,53.13474100000000,PI/000067791,068,envhealth@ne-derbyshire.gov.uk,North East Derbyshire,http://www.ne-derbyshire.gov.uk/,-1.49403300000000,DE4 5GF,2013-11-12,fhrs_5_en-GB,5,,FHRS,5
66458,Staff Canteen,J Sainsbury Plc,Wreakes Lane,Dronfield,J Sainsbury Plc,Retailers - other,4613,,,351584,,,,PI/000118587,068,envhealth@ne-derbyshire.gov.uk,North East Derbyshire,http://www.ne-derbyshire.gov.uk/,,,2013-09-04,fhrs_exempt_en-GB,Exempt,,FHRS,
66459,1 Fenton Street,Eckington,Sheffield,,Jade Garden (Eckington) Ltd,Takeaway/sandwich shop,7844,,,351291,,,53.30487200000000,PI/000100581,068,envhealth@ne-derbyshire.gov.uk,North East Derbyshire,http://www.ne-derbyshire.gov.uk/,-1.37566500000000,S21 4BX,2014-03-25,fhrs_4_en-GB,4,,FHRS,
66460,,,,,Jadey Cakes,Other catering premises,7841,5,,552455,5,,,PI/000131372,068,envhealth@ne-derbyshire.gov.uk,North East Derbyshire,http://www.ne-derbyshire.gov.uk/,,,2013-04-30,fhrs_5_en-GB,5,,FHRS,5
66461,10A High Street,Dronfield,,,JD's Music Bar,Pub/bar/nightclub,7843,0,,703553,0,,53.30334400000000,PI/000131671,068,envhealth@ne-derbyshire.gov.uk,North East Derbyshire,http://www.ne-derbyshire.gov.uk/,-1.47891300000000,S18 1PE,2014-08-15,fhrs_5_en-GB,5,,FHRS,5
66462,,,,,Jean Hudson,Other catering premises,7841,10,,593993,5,,,PI/000129623,068,envhealth@ne-derbyshire.gov.uk,North East Derbyshire,http://www.ne-derbyshire.gov.uk/,,,2010-01-22,fhrs_4_en-GB,4,,FHRS,5
66463,69 High Street,Eckington,Sheffield,,Job Lot Trading Company Limited,Retailers - other,4613,5,,351324,0,,53.30812200000000,PI/000100855,068,envhealth@ne-derbyshire.gov.uk,North East Derbyshire,http://www.ne-derbyshire.gov.uk/,-1.36140500000000,S21 4DJ,2014-08-07,fhrs_5_en-GB,5,,FHRS,0
66464,Hardwick View Road,Holmewood,Chesterfield,,Junction 29 Truck Stop Ltd,Restaurant/Cafe/Canteen,1,5,,351106,5,,53.18681100000000,PI/000030439,068,envhealth@ne-derbyshire.gov.uk,North East Derbyshire,http://www.ne-derbyshire.gov.uk/,-1.35051700000000,S42 5SA,2014-01-07,fhrs_5_en-GB,5,,FHRS,5
66465,,,,,Just A Mish Mash,Other catering premises,7841,0,,622767,0,,,PI/000131727,068,envhealth@ne-derbyshire.gov.uk,North East Derbyshire,http://www.ne-derbyshire.gov.uk/,,,2014-02-10,fhrs_5_en-GB,5,,FHRS,0
66466,William Levick Primary School,Smithy Croft,Dronfield Woodhouse,Dronfield,Just William Levick Kids Club Ltd,School/college/university,7845,5,,351403,10,,53.30533600000000,PI/000101688,068,envhealth@ne-derbyshire.gov.uk,North East Derbyshire,http://www.ne-derbyshire.gov.uk/,-1.49893800000000,S18 8YB,2013-06-06,fhrs_3_en-GB,3,,FHRS,10
66467,31 Pentland Road,Dronfield Woodhouse,Dronfield,,Kam's Garden,Takeaway/sandwich shop,7844,5,,351472,10,,53.30166900000000,PI/000104191,068,envhealth@ne-derbyshire.gov.uk,North East Derbyshire,http://www.ne-derbyshire.gov.uk/,-1.49476400000000,S18 8ZQ,2013-12-19,fhrs_4_en-GB,4,,FHRS,5
66468,Lay By,Chesterfield Road,Calow,,Karen's Kabin,Mobile caterer,7846,10,,454686,5,,,PI/000130607,068,envhealth@ne-derbyshire.gov.uk,North East Derbyshire,http://www.ne-derbyshire.gov.uk/,,,2013-09-19,fhrs_4_en-GB,4,,FHRS,5
66469,183 High Street,Clay Cross,Chesterfield,,Kathmandu Gurkha Restaurant Limited,Restaurant/Cafe/Canteen,1,5,,351649,5,,53.16295900000000,PI/000130038,068,envhealth@ne-derbyshire.gov.uk,North East Derbyshire,http://www.ne-derbyshire.gov.uk/,-1.41559600000000,S45 9EL,2014-06-27,fhrs_5_en-GB,5,,FHRS,5
66470,Matlock Road,Kelstedge,Ashover,Chesterfield,Kelstedge Inn,Pub/bar/nightclub,7843,10,,351068,10,,53.17166200000000,PI/000014583,068,envhealth@ne-derbyshire.gov.uk,North East Derbyshire,http://www.ne-derbyshire.gov.uk/,-1.49250700000000,S45 0DX,2013-09-12,fhrs_3_en-GB,3,,FHRS,10
66471,9 Southgate,Eckington,Sheffield,,Kemp's Bakers,Retailers - other,4613,10,,351405,10,,53.30864400000000,PI/000101708,068,envhealth@ne-derbyshire.gov.uk,North East Derbyshire,http://www.ne-derbyshire.gov.uk/,-1.35485400000000,S21 4FS,2014-01-31,fhrs_3_en-GB,3,,FHRS,10
66472,Clay Cross Market,Market Street,Clay Cross,Derbyshire,Kernow Fresh Fish Ltd,Retailers - other,4613,5,,351459,10,,53.16716300000000,PI/000102887,068,envhealth@ne-derbyshire.gov.uk,North East Derbyshire,http://www.ne-derbyshire.gov.uk/,-1.41035700000000,,2007-01-27,fhrs_3_en-GB,3,,FHRS,10
66473,7 Rotherham Road,Killamarsh,Sheffield,,Khela's Convenience Stores,Retailers - other,4613,,,351648,,,53.32801800000000,PI/000130036,068,envhealth@ne-derbyshire.gov.uk,North East Derbyshire,http://www.ne-derbyshire.gov.uk/,-1.30261100000000,S21 2DR,2014-01-24,fhrs_4_en-GB,4,,FHRS,
66474,284 Sheffield Road,Killamarsh,Sheffield,,Killa. Junrs. Athletic Club & Instit,Pub/bar/nightclub,7843,5,,351402,10,,53.32529400000000,PI/000101670,068,envhealth@ne-derbyshire.gov.uk,North East Derbyshire,http://www.ne-derbyshire.gov.uk/,-1.32122700000000,S21 1ED,2011-09-23,fhrs_4_en-GB,4,,FHRS,5
66475,43 Sheffield Road,Killamarsh,Sheffield,,Killamarsh Infants School,School/college/university,7845,0,,351191,0,,53.32634900000000,PI/000062125,068,envhealth@ne-derbyshire.gov.uk,North East Derbyshire,http://www.ne-derbyshire.gov.uk/,-1.30615100000000,S21 2DX,2014-02-26,fhrs_5_en-GB,5,,FHRS,0
66476,38 Sheffield Road,Killamarsh,Sheffield,,Killamarsh Junior School,School/college/university,7845,0,,351600,0,,53.32677200000000,PI/000123707,068,envhealth@ne-derbyshire.gov.uk,North East Derbyshire,http://www.ne-derbyshire.gov.uk/,-1.30637000000000,S21 2EA,2014-02-26,fhrs_5_en-GB,5,,FHRS,0
66477,205 - 207 Sheffield Road,Killamarsh,Sheffield,,Killamarsh News,Retailers - other,4613,10,,351401,5,,53.32496000000000,PI/000101667,068,envhealth@ne-derbyshire.gov.uk,North East Derbyshire,http://www.ne-derbyshire.gov.uk/,-1.32111200000000,S21 1DX,2013-03-07,fhrs_4_en-GB,4,,FHRS,5
66478,Killamarsh Community Campus,Stanley Street,Killamarsh,Sheffield,Killamarsh Parish Council Killamarsh Sports Centre,Restaurant/Cafe/Canteen,1,5,,351617,5,,53.32431500000000,PI/000129442,068,envhealth@ne-derbyshire.gov.uk,North East Derbyshire,http://www.ne-derbyshire.gov.uk/,-1.31505700000000,S21 1EL,2013-06-12,fhrs_5_en-GB,5,,FHRS,5
66479,Killamarsh Village Day Nursery And,St Giles Church Of England School,Sheepcote Road,Killamarsh,Killamarsh Village Day Nursery And Pre-School,Hospitals/Childcare/Caring Premises,5,0,,593987,0,,53.32099800000000,PI/000128796,068,envhealth@ne-derbyshire.gov.uk,North East Derbyshire,http://www.ne-derbyshire.gov.uk/,-1.31821800000000,S21 1DU,2014-09-24,fhrs_5_en-GB,5,,FHRS,0
66480,22 Chesterfield Road,Dronfield,,,Kilner's Cakes,Retailers - other,4613,,,552459,,,53.30109700000000,PI/000131443,068,envhealth@ne-derbyshire.gov.uk,North East Derbyshire,http://www.ne-derbyshire.gov.uk/,-1.46674100000000,S18 2XB,2013-05-20,fhrs_5_en-GB,5,,FHRS,
66481,26 Chesterfield Road,Dronfield,,,Kismet Tandoori,Takeaway/sandwich shop,7844,5,,351263,5,,53.30109700000000,PI/000100302,068,envhealth@ne-derbyshire.gov.uk,North East Derbyshire,http://www.ne-derbyshire.gov.uk/,-1.46674100000000,S18 2XB,2013-02-21,fhrs_5_en-GB,5,,FHRS,5
66482,Eckington School,Dronfield Road,Eckington,Sheffield,Kitchen 1,School/college/university,7845,5,,593931,10,,53.30778700000000,PI/000100513,068,envhealth@ne-derbyshire.gov.uk,North East Derbyshire,http://www.ne-derbyshire.gov.uk/,-1.37799300000000,S21 4GN,2013-09-25,fhrs_4_en-GB,4,,FHRS,5
66483,Eckington School,Dronfield Road,Eckington,Sheffield,Kitchen 2,School/college/university,7845,5,,593930,5,,53.30778700000000,PI/000100512,068,envhealth@ne-derbyshire.gov.uk,North East Derbyshire,http://www.ne-derbyshire.gov.uk/,-1.37799300000000,S21 4GN,2013-06-12,fhrs_5_en-GB,5,,FHRS,5
66484,6 - 8 Broadleys,Clay Cross,Chesterfield,,Kittys Cafe And Cob Shop,Restaurant/Cafe/Canteen,1,5,,712228,5,,53.16637300000000,14/00089/COMM,068,envhealth@ne-derbyshire.gov.uk,North East Derbyshire,http://www.ne-derbyshire.gov.uk/,-1.41173500000000,S45 9JL,2014-09-08,fhrs_5_en-GB,5,,FHRS,5
66485,Unit 6,The Forge,Church Street,Dronfield,Kuchene,Retailers - other,4613,20,,510484,15,,53.30148600000000,PI/000102795,068,envhealth@ne-derbyshire.gov.uk,North East Derbyshire,http://www.ne-derbyshire.gov.uk/,-1.47119300000000,S18 1QX,2014-07-23,fhrs_1_en-GB,1,,FHRS,10
66486,Baslow Road,Holymoorside,Chesterfield,,Ladywood Filling Station,Retailers - other,4613,10,,351512,10,,53.23064400000000,PI/000112067,068,envhealth@ne-derbyshire.gov.uk,North East Derbyshire,http://www.ne-derbyshire.gov.uk/,-1.50027400000000,S42 7BN,2014-01-08,fhrs_3_en-GB,3,,FHRS,10
66487,16 Loads Road,Holymoorside,Chesterfield,Derbyshire,Lamb Inn,Pub/bar/nightclub,7843,0,,351236,0,,53.22054400000000,PI/000078334,068,envhealth@ne-derbyshire.gov.uk,North East Derbyshire,http://www.ne-derbyshire.gov.uk/,-1.49887900000000,S42 7EU,2013-03-01,fhrs_5_en-GB,5,,FHRS,5
66488,25 Market Street,Clay Cross,Chesterfield,,Last Orders,Pub/bar/nightclub,7843,10,,351356,10,,53.16660300000000,PI/000101228,068,envhealth@ne-derbyshire.gov.uk,North East Derbyshire,http://www.ne-derbyshire.gov.uk/,-1.41454400000000,S45 9JE,2013-06-07,fhrs_3_en-GB,3,,FHRS,5
66489,Cornerways Filling Station,Matlock Road,Wessington,Derbyshire,Le Pain Baguette,Mobile caterer,7846,10,,351363,10,,53.12459000000000,PI/000101337,068,envhealth@ne-derbyshire.gov.uk,North East Derbyshire,http://www.ne-derbyshire.gov.uk/,-1.46075300000000,DE55 6DD,2013-10-30,fhrs_3_en-GB,3,,FHRS,10
66490,Lenthall Infants School,Marsh Avenue,Dronfield,,Lenthall Children's Club,School/college/university,7845,5,,351362,5,,53.30826700000000,PI/000101306,068,envhealth@ne-derbyshire.gov.uk,North East Derbyshire,http://www.ne-derbyshire.gov.uk/,-1.46786800000000,S18 2HB,2013-06-06,fhrs_4_en-GB,4,,FHRS,10
66491,Marsh Avenue,Dronfield,,,Lenthall Infants School,School/college/university,7845,0,,351148,0,,53.30826700000000,PI/000045224,068,envhealth@ne-derbyshire.gov.uk,North East Derbyshire,http://www.ne-derbyshire.gov.uk/,-1.46786800000000,S18 2HB,2014-09-15,fhrs_5_en-GB,5,,FHRS,0
66492,53 Market Street,Clay Cross,Chesterfield,,Leon's Fish Bar,Takeaway/sandwich shop,7844,,,351352,,,53.16673200000000,PI/000101197,068,envhealth@ne-derbyshire.gov.uk,North East Derbyshire,http://www.ne-derbyshire.gov.uk/,-1.41144600000000,S45 9JQ,2013-12-10,fhrs_5_en-GB,5,,FHRS,
66493,Walton Holymoorside Primary School,Holymoor Road,Holymoorside,Chesterfield,Leprechauns Out Of School Club Ltd,School/college/university,7845,10,,351441,10,,53.22479700000000,PI/000102616,068,envhealth@ne-derbyshire.gov.uk,North East Derbyshire,http://www.ne-derbyshire.gov.uk/,-1.48874900000000,S42 7DU,2013-03-01,fhrs_3_en-GB,3,,FHRS,5
66494,96 Top Road,Calow,Chesterfield,Derbyshire,Life Style Express,Retailers - other,4613,10,,351569,10,,53.23385700000000,PI/000117402,068,envhealth@ne-derbyshire.gov.uk,North East Derbyshire,http://www.ne-derbyshire.gov.uk/,-1.38553700000000,S44 5SY,2014-05-22,fhrs_3_en-GB,3,,FHRS,10
66495,Hallam Business Centre,Stubley Lane,Dronfield,,Little Acorns Nursery School,Hospitals/Childcare/Caring Premises,5,0,,351470,5,,53.30437300000000,PI/000103006,068,envhealth@ne-derbyshire.gov.uk,North East Derbyshire,http://www.ne-derbyshire.gov.uk/,-1.47968100000000,S18 1LS,2014-09-23,fhrs_5_en-GB,5,,FHRS,0
66496,Callywhite Lane,Dronfield,,,Little Feet Nursery,Hospitals/Childcare/Caring Premises,5,0,,664201,0,,53.30083300000000,14/00066/COMM,068,envhealth@ne-derbyshire.gov.uk,North East Derbyshire,http://www.ne-derbyshire.gov.uk/,-1.45592600000000,S18 2XR,2014-10-21,fhrs_5_en-GB,5,,FHRS,5
66497,61A Sheffield Road,Dronfield,,,Little Italy,Restaurant/Cafe/Canteen,1,10,,351396,5,,53.30541800000000,PI/000101638,068,envhealth@ne-derbyshire.gov.uk,North East Derbyshire,http://www.ne-derbyshire.gov.uk/,-1.47423600000000,S18 2GF,2013-12-11,fhrs_4_en-GB,4,,FHRS,5
66498,49 Little Morton Road,North Wingfield,Chesterfield,,Little Morton Farm,Retailers - other,4613,5,,351128,5,,53.17652500000000,PI/000040066,068,envhealth@ne-derbyshire.gov.uk,North East Derbyshire,http://www.ne-derbyshire.gov.uk/,-1.38735900000000,S42 5HL,2014-06-30,fhrs_5_en-GB,5,,FHRS,5
66499,,,,,Little Town Pantry,Other catering premises,7841,5,,510521,5,,,PI/000131256,068,envhealth@ne-derbyshire.gov.uk,North East Derbyshire,http://www.ne-derbyshire.gov.uk/,,,2013-02-12,fhrs_5_en-GB,5,,FHRS,5
66500,High Street,Dronfield,,,Lloyds Pharmacy,Retailers - other,4613,,,664199,,,53.30195200000000,14/00064/COMM,068,envhealth@ne-derbyshire.gov.uk,North East Derbyshire,http://www.ne-derbyshire.gov.uk/,-1.47505900000000,S18 1PY,2012-11-01,fhrs_exempt_en-GB,Exempt,,FHRS,
66501,Incomol Limited,Incomol Building,Derby Road,Clay Cross,Loose Leaves Tea Ltd,Distributors/Transporters,7,0,,510495,0,,53.16088500000000,PI/000130111,068,envhealth@ne-derbyshire.gov.uk,North East Derbyshire,http://www.ne-derbyshire.gov.uk/,-1.41432300000000,S45 9AJ,2013-03-21,fhrs_5_en-GB,5,,FHRS,5
66502,61 Market Street,Clay Cross,Chesterfield,,Lou's Place,Takeaway/sandwich shop,7844,5,,351353,5,,53.16673200000000,PI/000101202,068,envhealth@ne-derbyshire.gov.uk,North East Derbyshire,http://www.ne-derbyshire.gov.uk/,-1.41144600000000,S45 9JQ,2013-11-22,fhrs_4_en-GB,4,,FHRS,10
66503,Eckington Friendship Club,Berry Avenue,Eckington,Sheffield,Luncheon Club,Pub/bar/nightclub,7843,0,,593886,5,,53.30854600000000,PI/000006098,068,envhealth@ne-derbyshire.gov.uk,North East Derbyshire,http://www.ne-derbyshire.gov.uk/,-1.36684700000000,S21 4AR,2013-07-23,fhrs_5_en-GB,5,,FHRS,0
66504,Hallowes Golf Club Ltd,Hallowes Lane,Dronfield,,M Evans,Pub/bar/nightclub,7843,10,,594014,5,,53.29297500000000,PI/000130821,068,envhealth@ne-derbyshire.gov.uk,North East Derbyshire,http://www.ne-derbyshire.gov.uk/,-1.46159200000000,S18 1UR,2013-08-07,fhrs_4_en-GB,4,,FHRS,5
66505,,,,,Mac Snax,Mobile caterer,7846,20,,726368,5,,,14/00036/MOBILE,068,envhealth@ne-derbyshire.gov.uk,North East Derbyshire,http://www.ne-derbyshire.gov.uk/,,,2014-11-25,fhrs_1_en-GB,1,,FHRS,5
66506,Holmewood Community Centre,Heath Road,Holmewood,Chesterfield,Macintyre,Other catering premises,7841,5,,351109,5,,53.18826500000000,PI/000032647,068,envhealth@ne-derbyshire.gov.uk,North East Derbyshire,http://www.ne-derbyshire.gov.uk/,-1.35341400000000,S42 5RB,2014-08-22,fhrs_5_en-GB,5,,FHRS,5
66507,69 Main Road,Renishaw,Sheffield,,Main Road Chippy,Takeaway/sandwich shop,7844,5,,427529,5,,53.29569400000000,PI/000130465,068,envhealth@ne-derbyshire.gov.uk,North East Derbyshire,http://www.ne-derbyshire.gov.uk/,-1.32609200000000,S21 3UX,2013-12-06,fhrs_5_en-GB,5,,FHRS,5
66508,Manor Farm,Main Road,Shirland,Alfreton,Manor Farm Shop,Retailers - other,4613,5,,351341,10,,53.11923600000000,PI/000101087,068,envhealth@ne-derbyshire.gov.uk,North East Derbyshire,http://www.ne-derbyshire.gov.uk/,-1.40121700000000,DE55 6BA,2014-09-30,fhrs_4_en-GB,4,,FHRS,5
66509,,,,,Manor View,Farmers/growers,7838,5,,351224,5,,,PI/000073318,068,envhealth@ne-derbyshire.gov.uk,North East Derbyshire,http://www.ne-derbyshire.gov.uk/,,,2013-03-01,fhrs_5_en-GB,5,,FHRS,5
66510,Matlock Road,Kelstedge,Ashover,Chesterfield,Marsh Green Farm Shop Ltd,Retailers - other,4613,5,,427531,5,,53.17166200000000,PI/000130978,068,envhealth@ne-derbyshire.gov.uk,North East Derbyshire,http://www.ne-derbyshire.gov.uk/,-1.49250700000000,S45 0DX,2014-08-06,fhrs_5_en-GB,5,,FHRS,5
66511,8 Warren Walk,Marsh Lane,Sheffield,,Marsh Lane Old People's Welfare Asso,Other catering premises,7841,0,,351427,0,,53.30590000000000,PI/000101917,068,envhealth@ne-derbyshire.gov.uk,North East Derbyshire,http://www.ne-derbyshire.gov.uk/,-1.39557900000000,S21 5RX,2014-09-25,fhrs_5_en-GB,5,,FHRS,0
66512,School Lane,Marsh Lane,Sheffield,,Marsh Lane Primary School,School/college/university,7845,5,,351544,5,,53.30747400000000,PI/000115863,068,envhealth@ne-derbyshire.gov.uk,North East Derbyshire,http://www.ne-derbyshire.gov.uk/,-1.39570700000000,S21 5RS,2014-12-02,fhrs_5_en-GB,5,,FHRS,5
66513,Community Centre,Main Road,Marsh Lane,Sheffield,Marsh Lane Under Fives Playschool,School/college/university,7845,10,,351471,5,,53.30783100000000,PI/000104011,068,envhealth@ne-derbyshire.gov.uk,North East Derbyshire,http://www.ne-derbyshire.gov.uk/,-1.39175500000000,S21 5RH,2013-09-18,fhrs_4_en-GB,4,,FHRS,5
66514,37 Pentland Road,Dronfield Woodhouse,Dronfield,,Martins The Newsagent Ltd,Retailers - other,4613,,,351379,,,53.30166900000000,PI/000101523,068,envhealth@ne-derbyshire.gov.uk,North East Derbyshire,http://www.ne-derbyshire.gov.uk/,-1.49476400000000,S18 8ZQ,2013-07-17,fhrs_exempt_en-GB,Exempt,,FHRS,
66515,7 Emmett Carr Lane,Renishaw,Sheffield,,Masons Arms,Pub/bar/nightclub,7843,5,,351096,5,,53.29302300000000,PI/000023126,068,envhealth@ne-derbyshire.gov.uk,North East Derbyshire,http://www.ne-derbyshire.gov.uk/,-1.32434900000000,S21 3UL,2013-01-31,fhrs_5_en-GB,5,,FHRS,5
66516,Matlock Farm Park,Jaggers Lane,Darley Moor,Matlock,Matlock Farm Park Ltd,Retailers - other,4613,,,351681,,,53.17449200000000,PI/000130459,068,envhealth@ne-derbyshire.gov.uk,North East Derbyshire,http://www.ne-derbyshire.gov.uk/,-1.53627900000000,DE4 5LH,2014-06-17,fhrs_4_en-GB,4,,FHRS,
66517,1 Nethermoor Road,New Tupton,Chesterfield,,McColls,Retailers - other,4613,5,,351659,10,,53.18878100000000,PI/000130200,068,envhealth@ne-derbyshire.gov.uk,North East Derbyshire,http://www.ne-derbyshire.gov.uk/,-1.40948300000000,S42 6EF,2012-08-16,fhrs_4_en-GB,4,,FHRS,5
66518,Mccolls Service Station,Dyche Lane,Coal Aston,Dronfield,McColl's,Retailers - other,4613,5,,351631,10,,53.31471800000000,PI/000129771,068,envhealth@ne-derbyshire.gov.uk,North East Derbyshire,http://www.ne-derbyshire.gov.uk/,-1.46121300000000,S18 3AA,2014-01-30,fhrs_4_en-GB,4,,FHRS,5
66519,Holmesfield Road,Dronfield Woodhouse,Dronfield,,Meadow Grange Care Home,Hospitals/Childcare/Caring Premises,5,5,,351120,5,,53.30274900000000,PI/000035213,068,envhealth@ne-derbyshire.gov.uk,North East Derbyshire,http://www.ne-derbyshire.gov.uk/,-1.50812200000000,S18 8WS,2014-06-25,fhrs_5_en-GB,5,,FHRS,5
66520,Bronte Street,Stretton,Alfreton,,Mickley Convenience Store,Retailers - other,4613,10,,510494,5,,53.13686100000000,PI/000129853,068,envhealth@ne-derbyshire.gov.uk,North East Derbyshire,http://www.ne-derbyshire.gov.uk/,-1.41690700000000,DE55 6FY,2014-05-07,fhrs_4_en-GB,4,,FHRS,5
66521,Milton Avenue,Stretton,Alfreton,,Mickley County Infant School,School/college/university,7845,0,,351155,5,,53.13413400000000,PI/000047681,068,envhealth@ne-derbyshire.gov.uk,North East Derbyshire,http://www.ne-derbyshire.gov.uk/,-1.41636100000000,DE55 6GG,2014-03-20,fhrs_5_en-GB,5,,FHRS,0
66522,Central England Co-operative Societ,Pinfold Street,Eckington,Chesterfield,Midland Co-Op Society Ltd,Retailers - supermarkets/hypermarkets,7840,5,,351387,5,,53.31029500000000,PI/000101543,068,envhealth@ne-derbyshire.gov.uk,North East Derbyshire,http://www.ne-derbyshire.gov.uk/,-1.35759100000000,S21 4EX,2014-11-03,fhrs_5_en-GB,5,,FHRS,5
66523,The Midland,269 Sheffield Road,Killamarsh,Sheffield,Midland Live Limited,Pub/bar/nightclub,7843,5,,351190,5,,53.32501600000000,PI/000062090,068,envhealth@ne-derbyshire.gov.uk,North East Derbyshire,http://www.ne-derbyshire.gov.uk/,-1.32138200000000,S21 1DX,2013-03-07,fhrs_5_en-GB,5,,FHRS,5
66524,Market Street,Clay Cross,Chesterfield,,Miners And Diners,Pub/bar/nightclub,7843,10,,583309,15,,53.16908000000000,PI/000101232,068,envhealth@ne-derbyshire.gov.uk,North East Derbyshire,http://www.ne-derbyshire.gov.uk/,-1.40637300000000,S45 9LX,2013-02-19,fhrs_2_en-GB,2,,FHRS,15
66525,Hundall Lane,Hundall,Apperknowle,Dronfield,Miners Arms,Pub/bar/nightclub,7843,5,,351510,0,,53.29087000000000,PI/000111483,068,envhealth@ne-derbyshire.gov.uk,North East Derbyshire,http://www.ne-derbyshire.gov.uk/,-1.42652900000000,S18 4BP,2014-03-21,fhrs_5_en-GB,5,,FHRS,0
66526,Oakstedge Lane,Milltown,Ashover,Chesterfield,Miners Arms Inn,Pub/bar/nightclub,7843,5,,351484,5,,53.14907200000000,PI/000106811,068,envhealth@ne-derbyshire.gov.uk,North East Derbyshire,http://www.ne-derbyshire.gov.uk/,-1.46965700000000,S45 0HA,2014-03-13,fhrs_5_en-GB,5,,FHRS,5
66527,42 Green Lane,Dronfield,,,Mint Leaf,Restaurant/Cafe/Canteen,1,10,,492708,10,,53.30467400000000,PI/000129675,068,envhealth@ne-derbyshire.gov.uk,North East Derbyshire,http://www.ne-derbyshire.gov.uk/,-1.46456600000000,S18 2LJ,2014-03-20,fhrs_3_en-GB,3,,FHRS,10
66528,Linden Lea,Birkin Lane,Wingerworth,Chesterfield,Mobile Shop,Retailers - other,4613,5,,351055,0,,53.19786600000000,PI/000007215,068,envhealth@ne-derbyshire.gov.uk,North East Derbyshire,http://www.ne-derbyshire.gov.uk/,-1.44628700000000,S42 6RD,2013-02-22,fhrs_5_en-GB,5,,FHRS,5
66529,136 High Street,Clay Cross,Chesterfield,,Moonlight Tandoori,Takeaway/sandwich shop,7844,20,,351320,15,,53.16417000000000,PI/000100802,068,envhealth@ne-derbyshire.gov.uk,North East Derbyshire,http://www.ne-derbyshire.gov.uk/,-1.41525100000000,S45 9EG,2014-03-18,fhrs_1_en-GB,1,,FHRS,10
66530,The Moorlands Crown Carvery,Baslow Road,Owler Bar,Sheffield,Moorlands Crown Carvery,Pub/bar/nightclub,7843,5,,351168,5,,53.29827300000000,PI/000053495,068,envhealth@ne-derbyshire.gov.uk,North East Derbyshire,http://www.ne-derbyshire.gov.uk/,-1.56125800000000,S17 3BQ,2014-03-28,fhrs_4_en-GB,4,,FHRS,10
66531,Back Lane,Morton,Alfreton,,Morton Colliery Cricket Club,Pub/bar/nightclub,7843,5,,351052,5,,53.13744600000000,PI/000003503,068,envhealth@ne-derbyshire.gov.uk,North East Derbyshire,http://www.ne-derbyshire.gov.uk/,-1.39006700000000,DE55 6GT,2013-05-23,fhrs_5_en-GB,5,,FHRS,5
66532,Stretton Road,Morton,Alfreton,,Morton Grange Nursing Home,Hospitals/Childcare/Caring Premises,5,5,,351208,5,,53.14179400000000,PI/000067785,068,envhealth@ne-derbyshire.gov.uk,North East Derbyshire,http://www.ne-derbyshire.gov.uk/,-1.40207000000000,DE55 6HD,2014-08-14,fhrs_5_en-GB,5,,FHRS,5
66533,Main Road,Morton,Alfreton,,Morton Primary School,School/college/university,7845,5,,351135,5,,53.13658300000000,PI/000043607,068,envhealth@ne-derbyshire.gov.uk,North East Derbyshire,http://www.ne-derbyshire.gov.uk/,-1.38656700000000,DE55 6HH,2013-05-10,fhrs_5_en-GB,5,,FHRS,5
66534,Post Office,92 Main Road,Morton,Alfreton,Morton Stores And Post Office,Retailers - other,4613,10,,351493,5,,53.13658300000000,PI/000108083,068,envhealth@ne-derbyshire.gov.uk,North East Derbyshire,http://www.ne-derbyshire.gov.uk/,-1.38656700000000,DE55 6HH,2014-11-26,fhrs_3_en-GB,3,,FHRS,10
66535,Main Road,Morton,Alfreton,Derbyshire,Morton Village Hall,Other catering premises,7841,,,351337,,,53.13565600000000,PI/000101049,068,envhealth@ne-derbyshire.gov.uk,North East Derbyshire,http://www.ne-derbyshire.gov.uk/,-1.39176600000000,DE55 6GU,2013-03-01,fhrs_exempt_en-GB,Exempt,,FHRS,
66536,Povey Farm,Lightwood Lane,Sheffield,,Moss Valley Fine Meats,Farmers/growers,7838,0,,351330,5,,53.33319700000000,PI/000100971,068,envhealth@ne-derbyshire.gov.uk,North East Derbyshire,http://www.ne-derbyshire.gov.uk/,-1.43554300000000,S8 8BG,2014-12-02,fhrs_5_en-GB,5,,FHRS,0
66537,Mount St Marys College,College Road,Spinkhill,Sheffield,Mount St Mary's Limited,School/college/university,7845,10,,351277,0,,53.30210200000000,PI/000100447,068,envhealth@ne-derbyshire.gov.uk,North East Derbyshire,http://www.ne-derbyshire.gov.uk/,-1.31955400000000,S21 3YL,2013-09-25,fhrs_4_en-GB,4,,FHRS,5
66538,A61 Layby,Derby Road,Wingerworth,Derbyshire,Mr B's Kitchen,Mobile caterer,7846,5,,351657,5,,53.22438231340657,PI/000130179,068,envhealth@ne-derbyshire.gov.uk,North East Derbyshire,http://www.ne-derbyshire.gov.uk/,-1.42662818155791,,2014-06-25,fhrs_5_en-GB,5,,FHRS,5
66539,,,,,Mr Spud,Mobile caterer,7846,5,,492707,5,,,PI/000129465,068,envhealth@ne-derbyshire.gov.uk,North East Derbyshire,http://www.ne-derbyshire.gov.uk/,,,2013-07-03,fhrs_5_en-GB,5,,FHRS,5
66540,,,,,Mr Tuffy's Pick 'N' Mix,Retailers - other,4613,5,,351616,5,,,PI/000129348,068,envhealth@ne-derbyshire.gov.uk,North East Derbyshire,http://www.ne-derbyshire.gov.uk/,,,2012-09-20,fhrs_5_en-GB,5,,FHRS,5
66541,,,,,Mr Watson And Mrs D Watson,Retailers - other,4613,5,,351078,5,,,PI/000015889,068,envhealth@ne-derbyshire.gov.uk,North East Derbyshire,http://www.ne-derbyshire.gov.uk/,,,2013-03-01,fhrs_5_en-GB,5,,FHRS,5
66542,,,,,My Fitness Chef,Other catering premises,7841,5,,594058,5,,,PI/000131699,068,envhealth@ne-derbyshire.gov.uk,North East Derbyshire,http://www.ne-derbyshire.gov.uk/,,,2013-11-27,fhrs_5_en-GB,5,,FHRS,5
66543,Hackney Lane,Nesfield,Barlow,Dronfield,Nesfield Cottages,Hotel/bed & breakfast/guest house,7842,10,,593968,5,,53.26391200000000,PI/000117204,068,envhealth@ne-derbyshire.gov.uk,North East Derbyshire,http://www.ne-derbyshire.gov.uk/,-1.47936200000000,S18 7TB,2013-07-04,fhrs_4_en-GB,4,,FHRS,5
66544,90 Sheffield Road,Killamarsh,Sheffield,,Nethergreen Working Men's Club,Pub/bar/nightclub,7843,10,,351398,15,,53.32558900000000,PI/000101653,068,envhealth@ne-derbyshire.gov.uk,North East Derbyshire,http://www.ne-derbyshire.gov.uk/,-1.31623800000000,S21 1EB,2013-06-18,fhrs_2_en-GB,2,,FHRS,15
66545,50 - 52 Bridge Street,Killamarsh,Sheffield,,Nethermoor Care Home,Hospitals/Childcare/Caring Premises,5,10,,351250,5,,53.32430400000000,PI/000100173,068,envhealth@ne-derbyshire.gov.uk,North East Derbyshire,http://www.ne-derbyshire.gov.uk/,-1.31788000000000,S21 1AH,2014-03-14,fhrs_4_en-GB,4,,FHRS,5
66546,The Nettle Inn,Hockley Lane,Milltown,Ashover,Nettle Inn Ltd,Pub/bar/nightclub,7843,10,,351240,10,,53.15518500000000,PI/000100037,068,envhealth@ne-derbyshire.gov.uk,North East Derbyshire,http://www.ne-derbyshire.gov.uk/,-1.46587300000000,S45 0ES,2014-08-19,fhrs_3_en-GB,3,,FHRS,10
66547,Happy Garden,Coop Building,Delves Road,Killamarsh,New Happy Garden,Takeaway/sandwich shop,7844,20,,351652,15,,53.31997400000000,PI/000130087,068,envhealth@ne-derbyshire.gov.uk,North East Derbyshire,http://www.ne-derbyshire.gov.uk/,-1.31830900000000,S21 1AW,2014-03-19,fhrs_1_en-GB,1,,FHRS,15
66548,Queen Victoria Road,New Tupton,,,New Tupton Christian Centre,Restaurant/Cafe/Canteen,1,,,593916,,,,PI/000056986,068,envhealth@ne-derbyshire.gov.uk,North East Derbyshire,http://www.ne-derbyshire.gov.uk/,,,2014-12-09,fhrs_exempt_en-GB,Exempt,,FHRS,
66549,1 Wingfield Road,New Tupton,Chesterfield,,New Tupton Fish Bar,Takeaway/sandwich shop,7844,5,,351432,5,,53.18814000000000,PI/000101969,068,envhealth@ne-derbyshire.gov.uk,North East Derbyshire,http://www.ne-derbyshire.gov.uk/,-1.40896800000000,S42 6XU,2014-03-27,fhrs_5_en-GB,5,,FHRS,0
66550,Queen Victoria Road,New Tupton,Chesterfield,,New Tupton Miners Welfare Social Club Ltd,Pub/bar/nightclub,7843,5,,351601,5,,53.19108400000000,PI/000123803,068,envhealth@ne-derbyshire.gov.uk,North East Derbyshire,http://www.ne-derbyshire.gov.uk/,-1.40982600000000,S42 6ED,2011-01-31,fhrs_5_en-GB,5,,FHRS,5
66551,18 - 20 Chesterfield Road,Dronfield,,,Newburys Golocal Extra,Retailers - other,4613,5,,593972,5,,53.30109700000000,PI/000117313,068,envhealth@ne-derbyshire.gov.uk,North East Derbyshire,http://www.ne-derbyshire.gov.uk/,-1.46674100000000,S18 2XB,2014-01-30,fhrs_5_en-GB,5,,FHRS,5
66552,Hustlers Snooker Centre,Peveril Road,Eckington,,Newfields,Restaurant/Cafe/Canteen,1,5,,351693,5,,,PI/000130587,068,envhealth@ne-derbyshire.gov.uk,North East Derbyshire,http://www.ne-derbyshire.gov.uk/,,,2013-04-26,fhrs_5_en-GB,5,,FHRS,5
66553,41 - 43 Market Street,Clay Cross,Chesterfield,,News Plus Group,Retailers - other,4613,10,,351351,10,,53.16660300000000,PI/000101193,068,envhealth@ne-derbyshire.gov.uk,North East Derbyshire,http://www.ne-derbyshire.gov.uk/,-1.41454400000000,S45 9JE,2014-11-11,fhrs_3_en-GB,3,,FHRS,10
66554,51 Barnard Avenue,Coal Aston,Dronfield,,Niche Catering Ltd,Restaurant/Cafe/Canteen,1,5,,594012,5,,53.31055800000000,PI/000130701,068,envhealth@ne-derbyshire.gov.uk,North East Derbyshire,http://www.ne-derbyshire.gov.uk/,-1.44988900000000,S18 3BP,2014-11-05,fhrs_5_en-GB,5,,FHRS,5
66555,29 Valley Road,Clay Cross,Chesterfield,Derbyshire,Nisa,Retailers - supermarkets/hypermarkets,7840,5,,351424,5,,53.17002400000000,PI/000101901,068,envhealth@ne-derbyshire.gov.uk,North East Derbyshire,http://www.ne-derbyshire.gov.uk/,-1.42857500000000,S45 9QG,2013-02-15,fhrs_4_en-GB,4,,FHRS,10
66556,Holmgate Post Office,55 - 57 Harewood Crescent,Old Tupton,Chesterfield,Nisa Harewood,Retailers - other,4613,5,,351299,10,,53.17582500000000,PI/000100670,068,envhealth@ne-derbyshire.gov.uk,North East Derbyshire,http://www.ne-derbyshire.gov.uk/,-1.42546100000000,S42 6HS,2013-03-15,fhrs_3_en-GB,3,,FHRS,10
66557,218 North Wingfield Road,Grassmoor,Chesterfield,,Nisa Local,Retailers - other,4613,10,,351372,10,,53.20101200000000,PI/000101431,068,envhealth@ne-derbyshire.gov.uk,North East Derbyshire,http://www.ne-derbyshire.gov.uk/,-1.39808800000000,S42 5ED,2013-06-13,fhrs_3_en-GB,3,,FHRS,5
66558,42 - 46 High Street,Clay Cross,Chesterfield,,Nisa Metro,Retailers - supermarkets/hypermarkets,7840,5,,351310,5,,53.16678000000000,PI/000100759,068,envhealth@ne-derbyshire.gov.uk,North East Derbyshire,http://www.ne-derbyshire.gov.uk/,-1.41573900000000,S45 9DW,2012-07-18,fhrs_5_en-GB,5,,FHRS,5
66559,Derby Road,Clay Cross,Chesterfield,,North East Derbyshire Snooker Centre,Pub/bar/nightclub,7843,5,,351089,5,,53.17211200000000,PI/000020319,068,envhealth@ne-derbyshire.gov.uk,North East Derbyshire,http://www.ne-derbyshire.gov.uk/,-1.41795500000000,S45 9AG,2014-05-15,fhrs_5_en-GB,5,,FHRS,5
66560,North Wingfield County Primary Scho,Chesterfield Road,North Wingfield,Chesterfield,North Wingfield County Junior School,School/college/university,7845,5,,351074,5,,53.18355900000000,PI/000015630,068,envhealth@ne-derbyshire.gov.uk,North East Derbyshire,http://www.ne-derbyshire.gov.uk/,-1.38821600000000,S42 5LG,2014-06-09,fhrs_5_en-GB,5,,FHRS,5
66561,29 Chesterfield Road,North Wingfield,Chesterfield,,North Wingfield Fish Bar,Takeaway/sandwich shop,7844,5,,454677,5,,53.18704300000000,PI/000100367,068,envhealth@ne-derbyshire.gov.uk,North East Derbyshire,http://www.ne-derbyshire.gov.uk/,-1.38741800000000,S42 5LF,2014-03-05,fhrs_5_en-GB,5,,FHRS,5
66562,1 Williamthorpe Road,North Wingfield,Chesterfield,,North Wingfield Miners Welfare Club,Pub/bar/nightclub,7843,5,,351232,5,,53.18312200000000,PI/000075488,068,envhealth@ne-derbyshire.gov.uk,North East Derbyshire,http://www.ne-derbyshire.gov.uk/,-1.38198200000000,S42 5PD,2014-08-28,fhrs_5_en-GB,5,,FHRS,5
66563,23 Williamthorpe Road,North Wingfield,Chesterfield,,North Wingfield Serv' Sta',Retailers - other,4613,5,,351431,5,,53.18284000000000,PI/000101956,068,envhealth@ne-derbyshire.gov.uk,North East Derbyshire,http://www.ne-derbyshire.gov.uk/,-1.38134300000000,S42 5PB,2013-03-01,fhrs_5_en-GB,5,,FHRS,5
66564,36 Chesterfield Road,North Wingfield,Chesterfield,,North Wingfield Working Men's Club,Other catering premises,7841,5,,351639,5,,53.18355900000000,PI/000129918,068,envhealth@ne-derbyshire.gov.uk,North East Derbyshire,http://www.ne-derbyshire.gov.uk/,-1.38821600000000,S42 5LG,2014-10-30,fhrs_5_en-GB,5,,FHRS,5
66565,Falcon Road,Dronfield,,,Northfield Junior School,School/college/university,7845,0,,351097,0,,53.30874000000000,PI/000023807,068,envhealth@ne-derbyshire.gov.uk,North East Derbyshire,http://www.ne-derbyshire.gov.uk/,-1.45534500000000,S18 2ED,2014-09-17,fhrs_5_en-GB,5,,FHRS,5
66566,Northfield Junior School,Falcon Road,Dronfield,,Northfield Nursery,Hospitals/Childcare/Caring Premises,5,0,,664211,5,,53.30874000000000,PI/000100568,068,envhealth@ne-derbyshire.gov.uk,North East Derbyshire,http://www.ne-derbyshire.gov.uk/,-1.45534500000000,S18 2ED,2004-04-28,fhrs_5_en-GB,5,,FHRS,5
66567,Marsh Lane Filling Station,Dronfield Road,Eckington,Sheffield,NPRT Limited,Retailers - other,4613,5,,351281,5,,53.30546500000000,PI/000100515,068,envhealth@ne-derbyshire.gov.uk,North East Derbyshire,http://www.ne-derbyshire.gov.uk/,-1.37577600000000,S21 4BQ,2013-06-06,fhrs_5_en-GB,5,,FHRS,5
66568,Nursery Rhymes Day Nursery,Main Road,Shirland,Alfreton,Nursery Rhymes Day Nursery Ltd,Hospitals/Childcare/Caring Premises,5,5,,351517,5,,53.12322200000000,PI/000113488,068,envhealth@ne-derbyshire.gov.uk,North East Derbyshire,http://www.ne-derbyshire.gov.uk/,-1.40546600000000,DE55 6BB,2013-11-15,fhrs_5_en-GB,5,,FHRS,5
66569,2 - 4 Lea Road,Dronfield,,,Oaks Community Church,Other catering premises,7841,5,,351329,5,,53.30076400000000,PI/000100965,068,envhealth@ne-derbyshire.gov.uk,North East Derbyshire,http://www.ne-derbyshire.gov.uk/,-1.47061700000000,S18 1SB,2007-01-16,fhrs_5_en-GB,5,,FHRS,5
66570,,,,,Oasis Diner,Mobile caterer,7846,10,,351558,5,,,PI/000117127,068,envhealth@ne-derbyshire.gov.uk,North East Derbyshire,http://www.ne-derbyshire.gov.uk/,,,2012-08-01,fhrs_3_en-GB,3,,FHRS,10
66571,144 High Street,Clay Cross,Chesterfield,,Ocean City,Takeaway/sandwich shop,7844,10,,351113,10,,53.16417000000000,PI/000033441,068,envhealth@ne-derbyshire.gov.uk,North East Derbyshire,http://www.ne-derbyshire.gov.uk/,-1.41525100000000,S45 9EG,2014-03-28,fhrs_3_en-GB,3,,FHRS,10
66572,Gunstones Bakery,Stubley Lane,Dronfield,,OCS Catering Services,Restaurant/Cafe/Canteen,1,5,,684018,5,,53.30417700000000,14/00096/COMM,068,envhealth@ne-derbyshire.gov.uk,North East Derbyshire,http://www.ne-derbyshire.gov.uk/,-1.48217400000000,S18 1PF,2014-06-04,fhrs_4_en-GB,4,,FHRS,10
66573,Quarry Lane,Woolley Moor,Alfreton,Derbyshire,Ogston Sailing Club,Other catering premises,7841,10,,351376,0,,53.13946400000000,PI/000101467,068,envhealth@ne-derbyshire.gov.uk,North East Derbyshire,http://www.ne-derbyshire.gov.uk/,-1.44638100000000,DE55 6FN,2013-05-31,fhrs_4_en-GB,4,,FHRS,0
66574,71 West Street,Eckington,Sheffield,,One Stop,Retailers - supermarkets/hypermarkets,7840,10,,664174,5,,53.30581500000000,14/00022/COMM,068,envhealth@ne-derbyshire.gov.uk,North East Derbyshire,http://www.ne-derbyshire.gov.uk/,-1.36870300000000,S21 4GA,2014-05-06,fhrs_4_en-GB,4,,FHRS,5
66575,Rupert Street,Lower Pilsley,Chesterfield,,Park House Primary School,School/college/university,7845,5,,427523,0,,53.16485400000000,PI/000060130,068,envhealth@ne-derbyshire.gov.uk,North East Derbyshire,http://www.ne-derbyshire.gov.uk/,-1.37463100000000,S45 8DB,2013-04-25,fhrs_5_en-GB,5,,FHRS,5
66576,,,,,Paul Boden Dairyman,Retailers - other,4613,5,,351065,10,,,PI/000012687,068,envhealth@ne-derbyshire.gov.uk,North East Derbyshire,http://www.ne-derbyshire.gov.uk/,,,2013-06-06,fhrs_3_en-GB,3,,FHRS,10
66577,220 North Wingfield Road,Grassmoor,Chesterfield,,Paul's Meats,Retailers - other,4613,5,,351373,5,,53.19885200000000,PI/000101432,068,envhealth@ne-derbyshire.gov.uk,North East Derbyshire,http://www.ne-derbyshire.gov.uk/,-1.39587300000000,S42 5EW,2013-09-17,fhrs_5_en-GB,5,,FHRS,0
66578,Nether Rodknowle Farm,Rod Knowle Lane,Eastmoor,Chesterfield,Peak Buffalo,Retailers - other,4613,5,,594035,5,,53.22807600000000,PI/000131446,068,envhealth@ne-derbyshire.gov.uk,North East Derbyshire,http://www.ne-derbyshire.gov.uk/,-1.54602200000000,S42 7DB,2014-07-15,fhrs_5_en-GB,5,,FHRS,0
66579,190 North Wingfield Road,Grassmoor,Chesterfield,,Peak Pharmacy,Retailers - other,4613,,,664203,,,53.20101200000000,14/00068/COMM,068,envhealth@ne-derbyshire.gov.uk,North East Derbyshire,http://www.ne-derbyshire.gov.uk/,-1.39808800000000,S42 5ED,2013-12-22,fhrs_exempt_en-GB,Exempt,,FHRS,
66580,2A Bridge Street,Killamarsh,Sheffield,,Peak Pharmacy,Retailers - other,4613,,,351568,,,53.32430400000000,PI/000117321,068,envhealth@ne-derbyshire.gov.uk,North East Derbyshire,http://www.ne-derbyshire.gov.uk/,-1.31788000000000,S21 1AH,2013-03-15,fhrs_exempt_en-GB,Exempt,,FHRS,
66581,4 - 5 Greendale Shopping Centre,Green Lane,Dronfield,,Peak Pharmacy,Retailers - other,4613,,,351443,,,53.30467400000000,PI/000102634,068,envhealth@ne-derbyshire.gov.uk,North East Derbyshire,http://www.ne-derbyshire.gov.uk/,-1.46456600000000,S18 2LJ,2011-07-06,fhrs_exempt_en-GB,Exempt,,FHRS,
66582,40 Market Street,Eckington,Sheffield,,Peak Pharmacy,Retailers - other,4613,,,351567,,,53.30937300000000,PI/000117320,068,envhealth@ne-derbyshire.gov.uk,North East Derbyshire,http://www.ne-derbyshire.gov.uk/,-1.35662900000000,S21 4JH,2013-03-15,fhrs_exempt_en-GB,Exempt,,FHRS,
66583,5 Edinburgh Court,Wingerworth,Chesterfield,,Peak Pharmacy,Retailers - other,4613,,,351286,,,53.20649700000000,PI/000100543,068,envhealth@ne-derbyshire.gov.uk,North East Derbyshire,http://www.ne-derbyshire.gov.uk/,-1.44476900000000,S42 6SH,2013-03-01,fhrs_exempt_en-GB,Exempt,,FHRS,
66584,7 - 9 Market Street,Clay Cross,Chesterfield,,Peak Pharmacy,Retailers - other,4613,,,351346,,,53.16660300000000,PI/000101166,068,envhealth@ne-derbyshire.gov.uk,North East Derbyshire,http://www.ne-derbyshire.gov.uk/,-1.41454400000000,S45 9JE,2011-08-08,fhrs_exempt_en-GB,Exempt,,FHRS,
66585,Eckington Health Centre,Gosber Road,Eckington,Sheffield,Peak Pharmacy,Retailers - other,4613,,,351555,,,53.30764800000000,PI/000117011,068,envhealth@ne-derbyshire.gov.uk,North East Derbyshire,http://www.ne-derbyshire.gov.uk/,-1.35512400000000,S21 4BZ,2013-01-31,fhrs_exempt_en-GB,Exempt,,FHRS,
66586,The Pharmacy,Bridge Street,Clay Cross,Chesterfield,Peak Pharmacy,Retailers - other,4613,,,510511,,,,PI/000131136,068,envhealth@ne-derbyshire.gov.uk,North East Derbyshire,http://www.ne-derbyshire.gov.uk/,,S45 6NG,2014-04-24,fhrs_exempt_en-GB,Exempt,,FHRS,
66587,1B Fenton Street,Eckington,Sheffield,,Penelope's Pitstop,Takeaway/sandwich shop,7844,5,,352782,5,,53.30487200000000,PI/000100583,068,envhealth@ne-derbyshire.gov.uk,North East Derbyshire,http://www.ne-derbyshire.gov.uk/,-1.37566500000000,S21 4BX,2013-05-03,fhrs_5_en-GB,5,,FHRS,0
66588,The Common,Holmesfield,Dronfield,,Penny Acres Primary School,School/college/university,7845,0,,351335,0,,53.29464400000000,PI/000101038,068,envhealth@ne-derbyshire.gov.uk,North East Derbyshire,http://www.ne-derbyshire.gov.uk/,-1.52422300000000,S18 7WP,2007-11-22,fhrs_5_en-GB,5,,FHRS,0
66589,Horse And Jockey,273 Sheffield Road,Unstone,Dronfield,PGT Leisure Ltd,Pub/bar/nightclub,7843,0,,351520,5,,53.28434900000000,PI/000114048,068,envhealth@ne-derbyshire.gov.uk,North East Derbyshire,http://www.ne-derbyshire.gov.uk/,-1.44071600000000,S18 4DA,2014-02-27,fhrs_4_en-GB,4,,FHRS,10
66590,2 High Lane,Ridgeway,Sheffield,,Phoenix Inn,Pub/bar/nightclub,7843,0,,351112,5,,53.33376000000000,PI/000033307,068,envhealth@ne-derbyshire.gov.uk,North East Derbyshire,http://www.ne-derbyshire.gov.uk/,-1.39270800000000,S12 3XF,2013-09-27,fhrs_5_en-GB,5,,FHRS,5
66591,2 Church Street,Pilsley,Chesterfield,Derbyshire,Pilsley Food And Wine,Retailers - other,4613,10,,351595,5,,53.15546600000000,PI/000119175,068,envhealth@ne-derbyshire.gov.uk,North East Derbyshire,http://www.ne-derbyshire.gov.uk/,-1.36720100000000,S45 8EX,2014-10-20,fhrs_4_en-GB,4,,FHRS,5
66592,7 - 11 Bridge Street,Pilsley,Chesterfield,,Pilsley News And Post Office,Retailers - other,4613,10,,351252,15,,53.15714400000000,PI/000100181,068,envhealth@ne-derbyshire.gov.uk,North East Derbyshire,http://www.ne-derbyshire.gov.uk/,-1.36826800000000,S45 8HE,2013-11-08,fhrs_2_en-GB,2,,FHRS,5
66593,Station Road,Pilsley,Chesterfield,,Pilsley Primary School,School/college/university,7845,5,,351200,5,,53.15486600000000,PI/000066432,068,envhealth@ne-derbyshire.gov.uk,North East Derbyshire,http://www.ne-derbyshire.gov.uk/,-1.36581900000000,S45 8EU,2014-10-16,fhrs_5_en-GB,5,,FHRS,5
66594,67 High Street,Clay Cross,Chesterfield,,Pirate Pizza,Takeaway/sandwich shop,7844,10,,351312,10,,53.16916700000000,PI/000100770,068,envhealth@ne-derbyshire.gov.uk,North East Derbyshire,http://www.ne-derbyshire.gov.uk/,-1.41673800000000,S45 9DX,2014-09-30,fhrs_3_en-GB,3,,FHRS,10
66595,61 Pentland Road,Dronfield Woodhouse,Dronfield,,Pizza Experts,Takeaway/sandwich shop,7844,10,,664187,10,,53.30166900000000,14/00049/COMM,068,envhealth@ne-derbyshire.gov.uk,North East Derbyshire,http://www.ne-derbyshire.gov.uk/,-1.49476400000000,S18 8ZQ,2014-06-17,fhrs_3_en-GB,3,,FHRS,10
66596,109 High Street,Clay Cross,Chesterfield,,Pizza Palace,Restaurant/Cafe/Canteen,1,20,,351714,15,,53.16586400000000,PI/000130806,068,envhealth@ne-derbyshire.gov.uk,North East Derbyshire,http://www.ne-derbyshire.gov.uk/,-1.41600500000000,S45 9DZ,2014-03-27,fhrs_1_en-GB,1,,FHRS,10
66597,17 Springvale Close,Danesmoor,Chesterfield,,Pizza Uno,Takeaway/sandwich shop,7844,5,,664179,5,,53.15979700000000,14/00041/COMM,068,envhealth@ne-derbyshire.gov.uk,North East Derbyshire,http://www.ne-derbyshire.gov.uk/,-1.40339000000000,S45 9SA,2014-03-25,fhrs_5_en-GB,5,,FHRS,5
66598,28 - 30 Heath Road,Holmewood,Chesterfield,,Pizza-Rella,Takeaway/sandwich shop,7844,20,,351612,5,,53.18847600000000,PI/000129313,068,envhealth@ne-derbyshire.gov.uk,North East Derbyshire,http://www.ne-derbyshire.gov.uk/,-1.35418900000000,S42 5RA,2014-03-05,fhrs_1_en-GB,1,,FHRS,15
66599,59 Pentland Road,Dronfield Woodhouse,Dronfield,,Polash Balti House,Takeaway/sandwich shop,7844,10,,351381,10,,53.30166900000000,PI/000101526,068,envhealth@ne-derbyshire.gov.uk,North East Derbyshire,http://www.ne-derbyshire.gov.uk/,-1.49476400000000,S18 8ZQ,2014-06-30,fhrs_3_en-GB,3,,FHRS,10
66600,44 Market Street,Eckington,Sheffield,,Popeye's,Takeaway/sandwich shop,7844,10,,351361,15,,53.30937300000000,PI/000101285,068,envhealth@ne-derbyshire.gov.uk,North East Derbyshire,http://www.ne-derbyshire.gov.uk/,-1.35662900000000,S21 4JH,2014-12-03,fhrs_2_en-GB,2,,FHRS,10
66601,29 Market Street,Clay Cross,Chesterfield,,Posh Inc Coffee Shop,Other catering premises,7841,5,,351678,5,,53.16660300000000,PI/000130444,068,envhealth@ne-derbyshire.gov.uk,North East Derbyshire,http://www.ne-derbyshire.gov.uk/,-1.41454400000000,S45 9JE,2014-01-13,fhrs_4_en-GB,4,,FHRS,10
66602,172 High Street,Stonebroom,Alfreton,Derbyshire,Post Office,Retailers - other,4613,5,,593958,5,,53.13328500000000,PI/000108236,068,envhealth@ne-derbyshire.gov.uk,North East Derbyshire,http://www.ne-derbyshire.gov.uk/,-1.37988700000000,DE55 6JT,2014-08-27,fhrs_4_en-GB,4,,FHRS,10
66603,99A Main Road,Shirland,Alfreton,,Potters Pantry,Restaurant/Cafe/Canteen,1,5,,351627,5,,53.11923600000000,PI/000129721,068,envhealth@ne-derbyshire.gov.uk,North East Derbyshire,http://www.ne-derbyshire.gov.uk/,-1.40121700000000,DE55 6BA,2014-10-22,fhrs_5_en-GB,5,,FHRS,5
66604,6A - 8 Fir Road,Eckington,Sheffield,,Premier Store,Retailers - other,4613,10,,351691,15,,53.30246500000000,PI/000130564,068,envhealth@ne-derbyshire.gov.uk,North East Derbyshire,http://www.ne-derbyshire.gov.uk/,-1.37101800000000,S21 4BY,2014-03-21,fhrs_2_en-GB,2,,FHRS,10
66605,184A Queen Victoria Road,New Tupton,Chesterfield,,Queenies,Takeaway/sandwich shop,7844,5,,712229,5,,53.19146400000000,14/00164/COMM,068,envhealth@ne-derbyshire.gov.uk,North East Derbyshire,http://www.ne-derbyshire.gov.uk/,-1.41390700000000,S42 6DU,2014-10-21,fhrs_5_en-GB,5,,FHRS,5
66606,12 Main Road,Ridgeway,Sheffield,,Queen's Head,Pub/bar/nightclub,7843,5,,351340,5,,53.32999500000000,PI/000101070,068,envhealth@ne-derbyshire.gov.uk,North East Derbyshire,http://www.ne-derbyshire.gov.uk/,-1.39665000000000,S12 3XR,2013-08-08,fhrs_5_en-GB,5,,FHRS,5
66607,Elliotts Butchers Farm Shop,Stud Farm,Chesterfield Road,Calow,R B Elliott And Son,Retailers - other,4613,0,,401559,0,,53.23321000000000,PI/000104161,068,envhealth@ne-derbyshire.gov.uk,North East Derbyshire,http://www.ne-derbyshire.gov.uk/,-1.37366600000000,S44 5UN,2013-11-07,fhrs_5_en-GB,5,,FHRS,0
66608,Top Farm,Quarry Lane,Woolley Moor,Alfreton,R Prue & Son,Retailers - other,4613,5,,351388,5,,53.13946400000000,PI/000101558,068,envhealth@ne-derbyshire.gov.uk,North East Derbyshire,http://www.ne-derbyshire.gov.uk/,-1.44638100000000,DE55 6FN,2013-03-01,fhrs_4_en-GB,4,,FHRS,10
66609,,,,,R.V's,Mobile caterer,7846,5,,552457,5,,,PI/000131416,068,envhealth@ne-derbyshire.gov.uk,North East Derbyshire,http://www.ne-derbyshire.gov.uk/,,,2013-06-12,fhrs_5_en-GB,5,,FHRS,5
66610,Delves Road,Killamarsh,Sheffield,,Rai Convenience Store,Retailers - other,4613,10,,351280,10,,53.31997400000000,PI/000100487,068,envhealth@ne-derbyshire.gov.uk,North East Derbyshire,http://www.ne-derbyshire.gov.uk/,-1.31830900000000,S21 1AW,2013-09-30,fhrs_3_en-GB,3,,FHRS,10
66611,The Grange,88 Southgate,Eckington,Sheffield,Rainbows Playgroup,Hospitals/Childcare/Caring Premises,5,5,,593952,5,,53.30846600000000,PI/000102990,068,envhealth@ne-derbyshire.gov.uk,North East Derbyshire,http://www.ne-derbyshire.gov.uk/,-1.35526200000000,S21 4FT,2013-06-06,fhrs_5_en-GB,5,,FHRS,5
66612,Ravencar Farm,Main Road,Marsh Lane,Sheffield,Ravencar Farm Bed And Breakfast,Hotel/bed & breakfast/guest house,7842,5,,664180,5,,53.30791000000000,14/00042/COMM,068,envhealth@ne-derbyshire.gov.uk,North East Derbyshire,http://www.ne-derbyshire.gov.uk/,-1.39139300000000,S21 5RH,2013-08-08,fhrs_4_en-GB,4,,FHRS,10
66613,,,,,Rebecca Joy Taylor,Other catering premises,7841,10,,664206,5,,,14/00071/COMM,068,envhealth@ne-derbyshire.gov.uk,North East Derbyshire,http://www.ne-derbyshire.gov.uk/,,,2014-04-10,fhrs_4_en-GB,4,,FHRS,5
66614,Heath Road,Heath,Chesterfield,,Red House Service Station,Retailers - other,4613,5,,351504,10,,53.19302500000000,PI/000110359,068,envhealth@ne-derbyshire.gov.uk,North East Derbyshire,http://www.ne-derbyshire.gov.uk/,-1.34268500000000,S44 5QS,2013-02-22,fhrs_4_en-GB,4,,FHRS,5
66615,77 High Street,Clay Cross,Chesterfield,,Red Lion,Pub/bar/nightclub,7843,5,,351314,5,,53.16586400000000,PI/000100773,068,envhealth@ne-derbyshire.gov.uk,North East Derbyshire,http://www.ne-derbyshire.gov.uk/,-1.41600500000000,S45 9DZ,2014-12-15,fhrs_4_en-GB,4,,FHRS,10
66616,138 Main Road,Renishaw,Sheffield,,Renishaw Miner's Welfare Social Club,Pub/bar/nightclub,7843,20,,351138,5,,53.29531100000000,PI/000043716,068,envhealth@ne-derbyshire.gov.uk,North East Derbyshire,http://www.ne-derbyshire.gov.uk/,-1.32675900000000,S21 3UW,2013-09-19,fhrs_1_en-GB,1,,FHRS,5
66617,37 Circular Drive,Renishaw,Sheffield,,Renishaw P/O,Retailers - other,4613,10,,351499,10,,53.29472900000000,PI/000109621,068,envhealth@ne-derbyshire.gov.uk,North East Derbyshire,http://www.ne-derbyshire.gov.uk/,-1.33027800000000,S21 3UG,2014-05-12,fhrs_3_en-GB,3,,FHRS,10
66618,Club House,Renishaw Park Golf Club,Mill Lane,Renishaw,Renishaw Park Golf Club (CEM Catering),Pub/bar/nightclub,7843,10,,351500,15,,53.30382700000000,PI/000109627,068,envhealth@ne-derbyshire.gov.uk,North East Derbyshire,http://www.ne-derbyshire.gov.uk/,-1.33694900000000,S21 3UZ,2014-07-09,fhrs_2_en-GB,2,,FHRS,10
66619,5A Emmett Carr Lane,Renishaw,Sheffield,,Renishaw Pharmacy,Retailers - other,4613,,,510496,,,53.29302300000000,PI/000130390,068,envhealth@ne-derbyshire.gov.uk,North East Derbyshire,http://www.ne-derbyshire.gov.uk/,-1.32434900000000,S21 3UL,2013-03-15,fhrs_exempt_en-GB,Exempt,,FHRS,
66620,Hague Lane,Renishaw,Sheffield,,Renishaw Primary School,School/college/university,7845,10,,351103,5,,53.29609800000000,PI/000029086,068,envhealth@ne-derbyshire.gov.uk,North East Derbyshire,http://www.ne-derbyshire.gov.uk/,-1.33403800000000,S21 3UR,2014-11-19,fhrs_4_en-GB,4,,FHRS,5
66621,Riber View,Lickpenny Lane,Ashover,Chesterfield,Riber View Farm Shop And Cafe,Retailers - other,4613,10,,351537,5,,53.13972600000000,PI/000115105,068,envhealth@ne-derbyshire.gov.uk,North East Derbyshire,http://www.ne-derbyshire.gov.uk/,-1.49306200000000,S45 0JQ,2014-02-12,fhrs_4_en-GB,4,,FHRS,5
66622,Main Road,Ridgeway,Sheffield,,Ridgeway Primary School,School/college/university,7845,0,,351139,5,,53.32999500000000,PI/000043780,068,envhealth@ne-derbyshire.gov.uk,North East Derbyshire,http://www.ne-derbyshire.gov.uk/,-1.39665000000000,S12 3XR,2008-02-06,fhrs_5_en-GB,5,,FHRS,5
66623,Main Road,Ridgeway,Sheffield,,Ridgeway Village Hall And Sports Centre,Other catering premises,7841,5,,593905,5,,53.32999500000000,PI/000043781,068,envhealth@ne-derbyshire.gov.uk,North East Derbyshire,http://www.ne-derbyshire.gov.uk/,-1.39665000000000,S12 3XR,2006-07-04,fhrs_5_en-GB,5,,FHRS,5
66624,Rear Of 39,Bridge Street,Killamarsh,Sheffield,Rivington,Retailers - other,4613,10,,351248,5,,53.32427700000000,PI/000100161,068,envhealth@ne-derbyshire.gov.uk,North East Derbyshire,http://www.ne-derbyshire.gov.uk/,-1.31785000000000,S21 1AH,2013-11-08,fhrs_4_en-GB,4,,FHRS,5
66625,The Hay,Ashover Hay,Ashover,Chesterfield,Rockfield House,Hotel/bed & breakfast/guest house,7842,5,,664185,5,,53.14731400000000,14/00047/COMM,068,envhealth@ne-derbyshire.gov.uk,North East Derbyshire,http://www.ne-derbyshire.gov.uk/,-1.46849800000000,S45 0HB,2012-11-23,fhrs_5_en-GB,5,,FHRS,5
66626,Cordwell Lane,Millthorpe,Holmesfield,Dronfield,Royal Oak,Pub/bar/nightclub,7843,10,,351154,10,,53.28389300000000,PI/000047617,068,envhealth@ne-derbyshire.gov.uk,North East Derbyshire,http://www.ne-derbyshire.gov.uk/,-1.52644200000000,S18 7WJ,2005-12-20,fhrs_3_en-GB,3,,FHRS,5
66627,101 Eckington Road,Coal Aston,Dronfield,,Royal Oak Inn,Pub/bar/nightclub,7843,10,,351093,10,,53.31182000000000,PI/000022016,068,envhealth@ne-derbyshire.gov.uk,North East Derbyshire,http://www.ne-derbyshire.gov.uk/,-1.45647700000000,S18 3AU,2004-08-31,fhrs_3_en-GB,3,,FHRS,10
66628,Derby Road,Old Tupton,Chesterfield,,Royal Oak Inn,Pub/bar/nightclub,7843,5,,351090,5,,53.18211400000000,PI/000020367,068,envhealth@ne-derbyshire.gov.uk,North East Derbyshire,http://www.ne-derbyshire.gov.uk/,-1.41921200000000,S42 6LA,2013-07-18,fhrs_4_en-GB,4,,FHRS,10
66629,42 - 44 Hardwick Drive,Arkwright Town,Chesterfield,,Ruby,Takeaway/sandwich shop,7844,5,,593950,10,,53.23447500000000,PI/000102379,068,envhealth@ne-derbyshire.gov.uk,North East Derbyshire,http://www.ne-derbyshire.gov.uk/,-1.36121300000000,S44 5BS,2014-06-25,fhrs_3_en-GB,3,,FHRS,10
66630,96 Main Road,Holmesfield,Dronfield,,Rutland Arms Catering,Other catering premises,7841,5,,594033,5,,53.29544100000000,PI/000131425,068,envhealth@ne-derbyshire.gov.uk,North East Derbyshire,http://www.ne-derbyshire.gov.uk/,-1.51465700000000,S18 7WT,2013-04-12,fhrs_5_en-GB,5,,FHRS,5
66631,4 John Street,Clay Cross,Chesterfield,,Rykneld Turnpyke,Other catering premises,7841,5,,510524,5,,53.17063200000000,PI/000131279,068,envhealth@ne-derbyshire.gov.uk,North East Derbyshire,http://www.ne-derbyshire.gov.uk/,-1.40593200000000,S45 9NQ,2015-01-16,fhrs_5_en-GB,5,,FHRS,5
66632,Dronfield County Infants School,School Lane,Dronfield,,S L K C,School/college/university,7845,5,,351392,5,,53.29921600000000,PI/000101617,068,envhealth@ne-derbyshire.gov.uk,North East Derbyshire,http://www.ne-derbyshire.gov.uk/,-1.47015600000000,S18 1RY,2013-10-02,fhrs_4_en-GB,4,,FHRS,10
66633,Wreakes Lane,Dronfield,,,Sainsbury's,Retailers - supermarkets/hypermarkets,7840,0,,351448,5,,53.30380100000000,PI/000102677,068,envhealth@ne-derbyshire.gov.uk,North East Derbyshire,http://www.ne-derbyshire.gov.uk/,-1.47640200000000,S18 1NW,2009-01-08,fhrs_5_en-GB,5,,FHRS,5
66634,Sheffield Road,Dronfield,,,Sainsbury's Petrol,Retailers - other,4613,5,,510480,5,,,PI/000061927,068,envhealth@ne-derbyshire.gov.uk,North East Derbyshire,http://www.ne-derbyshire.gov.uk/,,S18 2JA,2013-06-13,fhrs_5_en-GB,5,,FHRS,5
66635,18 - 20 Sales Avenue,New Tupton,Chesterfield,,Sales Avenue Convenience Store,Retailers - other,4613,10,,351668,10,,53.18576400000000,PI/000130301,068,envhealth@ne-derbyshire.gov.uk,North East Derbyshire,http://www.ne-derbyshire.gov.uk/,-1.41208400000000,S42 6YG,2014-07-31,fhrs_2_en-GB,2,,FHRS,15
66636,13 High Street,Dronfield,,,Samad Cottage Limited,Restaurant/Cafe/Canteen,1,20,,351322,15,,53.30227300000000,PI/000100838,068,envhealth@ne-derbyshire.gov.uk,North East Derbyshire,http://www.ne-derbyshire.gov.uk/,-1.47435000000000,S18 1PX,2014-06-25,fhrs_1_en-GB,1,,FHRS,10
66637,St Barnabas Community Centre,Pilsley Road,Danesmoor,Chesterfield,Sanctum Cafe,Restaurant/Cafe/Canteen,1,5,,351658,5,,53.16432100000000,PI/000130180,068,envhealth@ne-derbyshire.gov.uk,North East Derbyshire,http://www.ne-derbyshire.gov.uk/,-1.39685100000000,S45 9BU,2012-11-20,fhrs_5_en-GB,5,,FHRS,0
66638,18 - 20 Station Road,Pilsley,Chesterfield,,Sang Sang House,Takeaway/sandwich shop,7844,10,,351415,10,,53.15538600000000,PI/000101762,068,envhealth@ne-derbyshire.gov.uk,North East Derbyshire,http://www.ne-derbyshire.gov.uk/,-1.36403200000000,S45 8BA,2013-12-19,fhrs_3_en-GB,3,,FHRS,10
66639,Santos Higham Farm Hotel,Main Road,Higham,Alfreton,Santo's Higham Farm Ltd,Hotel/bed & breakfast/guest house,7842,5,,351332,5,,53.12688000000000,PI/000101019,068,envhealth@ne-derbyshire.gov.uk,North East Derbyshire,http://www.ne-derbyshire.gov.uk/,-1.41823700000000,DE55 6EH,2014-03-11,fhrs_5_en-GB,5,,FHRS,5
66640,14 Main Road,Renishaw,Sheffield,,Select And Save,Retailers - other,4613,10,,351339,5,,53.29645300000000,PI/000101063,068,envhealth@ne-derbyshire.gov.uk,North East Derbyshire,http://www.ne-derbyshire.gov.uk/,-1.33155700000000,S21 3UT,2014-03-26,fhrs_4_en-GB,4,,FHRS,5
66641,Pilsley Road,Danesmoor,Chesterfield,,Sharley Park Community Primary School,School/college/university,7845,0,,351611,0,,53.16419200000000,PI/000129209,068,envhealth@ne-derbyshire.gov.uk,North East Derbyshire,http://www.ne-derbyshire.gov.uk/,-1.40321000000000,S45 9BN,2013-09-06,fhrs_5_en-GB,5,,FHRS,0
66642,15 Bridge Street,Killamarsh,Sheffield,,Shaw's Fish And Chips,Takeaway/sandwich shop,7844,0,,594029,5,,53.32430400000000,PI/000131374,068,envhealth@ne-derbyshire.gov.uk,North East Derbyshire,http://www.ne-derbyshire.gov.uk/,-1.31788000000000,S21 1AH,2014-11-21,fhrs_5_en-GB,5,,FHRS,5
66643,Shirland Golf Club,Pit Lane,Shirland,Alfreton,Shirland Golf Club Members,Pub/bar/nightclub,7843,5,,593915,5,,53.11307500000000,PI/000055559,068,envhealth@ne-derbyshire.gov.uk,North East Derbyshire,http://www.ne-derbyshire.gov.uk/,-1.40769700000000,DE55 6AU,2014-03-04,fhrs_5_en-GB,5,,FHRS,5
66644,121-123 Main Road,Shirland,Alfreton,Derbyshire,Shirland Miners Welfare,Pub/bar/nightclub,7843,5,,351522,5,,53.11923600000000,PI/000114355,068,envhealth@ne-derbyshire.gov.uk,North East Derbyshire,http://www.ne-derbyshire.gov.uk/,-1.40121700000000,DE55 6BA,2013-07-09,fhrs_5_en-GB,5,,FHRS,0
66645,111 Main Road,Shirland,Alfreton,Derbyshire,Shirland Post Office,Retailers - other,4613,5,,351546,5,,53.11923600000000,PI/000116576,068,envhealth@ne-derbyshire.gov.uk,North East Derbyshire,http://www.ne-derbyshire.gov.uk/,-1.40121700000000,DE55 6BA,2013-03-01,fhrs_5_en-GB,5,,FHRS,5
66646,Park Lane,Shirland,Alfreton,,Shirland Primary School,School/college/university,7845,5,,351686,0,,53.12002800000000,PI/000130498,068,envhealth@ne-derbyshire.gov.uk,North East Derbyshire,http://www.ne-derbyshire.gov.uk/,-1.40126600000000,DE55 6BH,2014-05-07,fhrs_5_en-GB,5,,FHRS,5
66647,82 Heath Road,Holmewood,Chesterfield,,Silly Moos Sandwich Bar,Takeaway/sandwich shop,7844,10,,351536,5,,53.18723600000000,PI/000115096,068,envhealth@ne-derbyshire.gov.uk,North East Derbyshire,http://www.ne-derbyshire.gov.uk/,-1.35923600000000,S42 5SH,2012-07-17,fhrs_4_en-GB,4,,FHRS,5
66648,7 Chesterfield Road,Dronfield,,,Simply Chinese @ The Rock,Restaurant/Cafe/Canteen,1,5,,351262,5,,53.30179300000000,PI/000100294,068,envhealth@ne-derbyshire.gov.uk,North East Derbyshire,http://www.ne-derbyshire.gov.uk/,-1.46941900000000,S18 2XA,2013-06-27,fhrs_5_en-GB,5,,FHRS,5
66649,24 Chesterfield Road,Dronfield,,,Simply Sweet Delights,Retailers - other,4613,5,,726370,5,,53.30109700000000,14/00170/COMM,068,envhealth@ne-derbyshire.gov.uk,North East Derbyshire,http://www.ne-derbyshire.gov.uk/,-1.46674100000000,S18 2XB,2014-12-03,fhrs_5_en-GB,5,,FHRS,5
66650,113 High Street,Clay Cross,Chesterfield,,Smiths Creamland Ices Shop,Retailers - other,4613,5,,351722,5,,53.16586400000000,PI/000130951,068,envhealth@ne-derbyshire.gov.uk,North East Derbyshire,http://www.ne-derbyshire.gov.uk/,-1.41600500000000,S45 9DZ,2014-03-18,fhrs_5_en-GB,5,,FHRS,5
66651,,,,,Smith's Ices,Mobile caterer,7846,5,,664182,5,,,14/00044/COMM,068,envhealth@ne-derbyshire.gov.uk,North East Derbyshire,http://www.ne-derbyshire.gov.uk/,,,2014-03-19,fhrs_5_en-GB,5,,FHRS,5
66652,Snack Cabin,Mill Farm,Crow Hole,Barlow,"Snack Cabin, Barlow Fishery",Restaurant/Cafe/Canteen,1,10,,593984,10,,53.27686900000000,PI/000125046,068,envhealth@ne-derbyshire.gov.uk,North East Derbyshire,http://www.ne-derbyshire.gov.uk/,-1.49709600000000,S18 7TJ,2014-03-06,fhrs_3_en-GB,3,,FHRS,5
66653,15 Snape Hill Crescent,Dronfield,,,Snape Stores,Retailers - other,4613,10,,351404,10,,53.30700000000000,PI/000101691,068,envhealth@ne-derbyshire.gov.uk,North East Derbyshire,http://www.ne-derbyshire.gov.uk/,-1.46999900000000,S18 2GQ,2013-01-09,fhrs_3_en-GB,3,,FHRS,10
66654,,,,,Snappy Snax,Mobile caterer,7846,10,,594056,5,,,PI/000131694,068,envhealth@ne-derbyshire.gov.uk,North East Derbyshire,http://www.ne-derbyshire.gov.uk/,,,2014-09-17,fhrs_4_en-GB,4,,FHRS,5
66655,Snowdon Lane,Troway,Marsh Lane,Sheffield,Snowdon Farm Riding School,Restaurant/Cafe/Canteen,1,5,,664184,5,,53.30853200000000,14/00046/COMM,068,envhealth@ne-derbyshire.gov.uk,North East Derbyshire,http://www.ne-derbyshire.gov.uk/,-1.42069500000000,S21 5RT,2012-01-18,fhrs_5_en-GB,5,,FHRS,0
66656,Top Road,Calow,Chesterfield,Derbyshire,Somerset House,Pub/bar/nightclub,7843,5,,351216,5,,53.23429500000000,PI/000070910,068,envhealth@ne-derbyshire.gov.uk,North East Derbyshire,http://www.ne-derbyshire.gov.uk/,-1.39222800000000,S44 5AF,2014-07-23,fhrs_4_en-GB,4,,FHRS,10
66657,,,,,Soup's Up,Mobile caterer,7846,0,,664169,0,,,14/00003/MOBILE,068,envhealth@ne-derbyshire.gov.uk,North East Derbyshire,http://www.ne-derbyshire.gov.uk/,,,2014-05-14,fhrs_5_en-GB,5,,FHRS,0
66658,Blakemore Retail Ltd,Chesterfield Road,Holmewood,Chesterfield,Spar,Retailers - other,4613,5,,690659,5,,53.18852500000000,14/00099/COMM,068,envhealth@ne-derbyshire.gov.uk,North East Derbyshire,http://www.ne-derbyshire.gov.uk/,-1.36331700000000,S42 5TE,2014-07-24,fhrs_5_en-GB,5,,FHRS,5
66659,Unit 3,Allendale Road,Wingerworth,Chesterfield,Spar,Retailers - supermarkets/hypermarkets,7840,5,,351654,5,,53.20095900000000,PI/000130124,068,envhealth@ne-derbyshire.gov.uk,North East Derbyshire,http://www.ne-derbyshire.gov.uk/,-1.43704100000000,S42 6PX,2012-10-18,fhrs_5_en-GB,5,,FHRS,5
66660,11B Callywhite Lane,Dronfield,Derbyshire,,Spencer's Catering,Other catering premises,7841,5,,427524,5,,53.29957600000000,PI/000100214,068,envhealth@ne-derbyshire.gov.uk,North East Derbyshire,http://www.ne-derbyshire.gov.uk/,-1.46029300000000,S18 2XP,2013-09-12,fhrs_5_en-GB,5,,FHRS,5
66661,Baslow Road,Eastmoor,Derbyshire,,Spire View Cafe (Mobile Trader),Mobile caterer,7846,5,,594028,10,,,PI/000131351,068,envhealth@ne-derbyshire.gov.uk,North East Derbyshire,http://www.ne-derbyshire.gov.uk/,,,2014-07-28,fhrs_4_en-GB,4,,FHRS,5
66662,207 North Wingfield Road,Grassmoor,Chesterfield,,Sportsman Inn,Pub/bar/nightclub,7843,10,,593912,5,,53.19974400000000,PI/000051079,068,envhealth@ne-derbyshire.gov.uk,North East Derbyshire,http://www.ne-derbyshire.gov.uk/,-1.39627900000000,S42 5EJ,2014-10-22,fhrs_4_en-GB,4,,FHRS,5
66663,,,,,Springwell Wines And Spirits,Distributors/Transporters,7,5,,593994,5,,,PI/000129822,068,envhealth@ne-derbyshire.gov.uk,North East Derbyshire,http://www.ne-derbyshire.gov.uk/,,,2011-09-19,fhrs_5_en-GB,5,,FHRS,5
66664,Heath Road,Holmewood,Chesterfield,,St Albans Parish Centre,Other catering premises,7841,0,,351110,5,,53.19479900000000,PI/000032655,068,envhealth@ne-derbyshire.gov.uk,North East Derbyshire,http://www.ne-derbyshire.gov.uk/,-1.34490300000000,S44 5RA,2014-03-18,fhrs_5_en-GB,5,,FHRS,0
66665,Pentland Road,Dronfield Woodhouse,Dronfield,,St Andrew's Primary School,School/college/university,7845,5,,351172,5,,53.30166900000000,PI/000055190,068,envhealth@ne-derbyshire.gov.uk,North East Derbyshire,http://www.ne-derbyshire.gov.uk/,-1.49476400000000,S18 8ZQ,2013-10-23,fhrs_5_en-GB,5,,FHRS,5
66666,St Barnabas Community Centre,Pilsley Road,Danesmoor,Chesterfield,St Barnabas Pre-School,Hospitals/Childcare/Caring Premises,5,0,,351385,5,,53.16432100000000,PI/000101540,068,envhealth@ne-derbyshire.gov.uk,North East Derbyshire,http://www.ne-derbyshire.gov.uk/,-1.39685100000000,S45 9BU,2014-06-19,fhrs_5_en-GB,5,,FHRS,0
66667,Sheepcote Road,Killamarsh,Sheffield,,St Giles Church Of England School,School/college/university,7845,0,,351394,5,,53.32099800000000,PI/000101627,068,envhealth@ne-derbyshire.gov.uk,North East Derbyshire,http://www.ne-derbyshire.gov.uk/,-1.31821800000000,S21 1DU,2014-12-15,fhrs_5_en-GB,5,,FHRS,0
66668,St Giles Church Hall,Sheepcote Road,Killamarsh,,St Giles Parachoil Church Council,Other catering premises,7841,10,,593956,5,,,PI/000104971,068,envhealth@ne-derbyshire.gov.uk,North East Derbyshire,http://www.ne-derbyshire.gov.uk/,,,2011-08-12,fhrs_4_en-GB,4,,FHRS,0
66669,85 Green Lane,Dronfield,,,St Paul's Methodist Church,Other catering premises,7841,,,351294,,,53.30609100000000,PI/000100617,068,envhealth@ne-derbyshire.gov.uk,North East Derbyshire,http://www.ne-derbyshire.gov.uk/,-1.46571900000000,S18 2LP,2013-02-07,fhrs_exempt_en-GB,Exempt,,FHRS,
66670,Falcon Road,Dronfield,,,St Philips Church,Other catering premises,7841,5,,593896,5,,53.30874000000000,PI/000023808,068,envhealth@ne-derbyshire.gov.uk,North East Derbyshire,http://www.ne-derbyshire.gov.uk/,-1.45534500000000,S18 2ED,2013-03-07,fhrs_5_en-GB,5,,FHRS,5
66671,Institute,St Marys Church,Church Street,Pilsley,St. Mary's Church Centre,Other catering premises,7841,5,,593890,5,,,PI/000016471,068,envhealth@ne-derbyshire.gov.uk,North East Derbyshire,http://www.ne-derbyshire.gov.uk/,,,2013-03-15,fhrs_5_en-GB,5,,FHRS,5
66672,Darley Road,Stonedge,Ashover,Chesterfield,Stanedge Golf Club,Pub/bar/nightclub,7843,5,,593920,10,,53.19988100000000,PI/000066690,068,envhealth@ne-derbyshire.gov.uk,North East Derbyshire,http://www.ne-derbyshire.gov.uk/,-1.49958400000000,S45 0LW,2013-09-23,fhrs_4_en-GB,4,,FHRS,5
66673,Quarry Lane,Stonebroom,Derbyshire,,Stonebroom Community Centre,Other catering premises,7841,,,351177,,,53.13129300000000,PI/000056492,068,envhealth@ne-derbyshire.gov.uk,North East Derbyshire,http://www.ne-derbyshire.gov.uk/,-1.38936000000000,,2013-03-07,fhrs_exempt_en-GB,Exempt,,FHRS,
66674,High Street,Stonebroom,Alfreton,,Stonebroom Primary School,School/college/university,7845,5,,351059,5,,53.13160700000000,PI/000010484,068,envhealth@ne-derbyshire.gov.uk,North East Derbyshire,http://www.ne-derbyshire.gov.uk/,-1.38569600000000,DE55 6JY,2014-11-24,fhrs_5_en-GB,5,,FHRS,5
66675,Stonelow Road,Dronfield,,,Stonelow Junior School,School/college/university,7845,5,,351206,5,,53.30477600000000,PI/000067104,068,envhealth@ne-derbyshire.gov.uk,North East Derbyshire,http://www.ne-derbyshire.gov.uk/,-1.45734600000000,S18 2EP,2013-09-11,fhrs_5_en-GB,5,,FHRS,5
66676,44 Cherry Tree Drive,Killamarsh,Sheffield,,Stop `N Shop,Retailers - other,4613,10,,593959,0,,53.31827000000000,PI/000109232,068,envhealth@ne-derbyshire.gov.uk,North East Derbyshire,http://www.ne-derbyshire.gov.uk/,-1.31755600000000,S21 1AR,2013-01-11,fhrs_4_en-GB,4,,FHRS,5
66677,13 - 15 Market Street,Clay Cross,Chesterfield,,Strawberry Basket,Retailers - other,4613,10,,351481,10,,53.16657800000000,PI/000105767,068,envhealth@ne-derbyshire.gov.uk,North East Derbyshire,http://www.ne-derbyshire.gov.uk/,-1.41487400000000,S45 9JD,2013-01-31,fhrs_3_en-GB,3,,FHRS,5
66678,Newmarket Lane,Clay Cross,Chesterfield,,Stretton Hall Farm,Retailers - other,4613,0,,351161,5,,53.16312700000000,PI/000049634,068,envhealth@ne-derbyshire.gov.uk,North East Derbyshire,http://www.ne-derbyshire.gov.uk/,-1.42989300000000,S45 9AP,2012-01-10,fhrs_5_en-GB,5,,FHRS,5
66679,Beresford Lane,Woolley Moor,Alfreton,,Stretton Handley Church Of England Primary School,School/college/university,7845,0,,351475,0,,53.14850500000000,PI/000105036,068,envhealth@ne-derbyshire.gov.uk,North East Derbyshire,http://www.ne-derbyshire.gov.uk/,-1.44980800000000,DE55 6FH,2014-12-04,fhrs_5_en-GB,5,,FHRS,5
66680,,,,,Sugar Love,Other catering premises,7841,10,,593990,5,,,PI/000129464,068,envhealth@ne-derbyshire.gov.uk,North East Derbyshire,http://www.ne-derbyshire.gov.uk/,,,2009-10-20,fhrs_4_en-GB,4,,FHRS,5
66681,,,,,Sugar Rush Cakes,Other catering premises,7841,5,,684016,5,,,14/00033/COMM,068,envhealth@ne-derbyshire.gov.uk,North East Derbyshire,http://www.ne-derbyshire.gov.uk/,,,2014-06-05,fhrs_5_en-GB,5,,FHRS,5
66682,203 Sheffield Road,Killamarsh,Sheffield,,Summer Palace,Takeaway/sandwich shop,7844,5,,351400,5,,53.32496000000000,PI/000101666,068,envhealth@ne-derbyshire.gov.uk,North East Derbyshire,http://www.ne-derbyshire.gov.uk/,-1.32111200000000,S21 1DX,2013-11-06,fhrs_4_en-GB,4,,FHRS,10
66683,The Arkwright Centre,Hardwick Drive,Arkwright Town,Chesterfield,Sutton-Cum-Duckmanton Community Trust,Other catering premises,7841,5,,351105,5,,53.23447500000000,PI/000030377,068,envhealth@ne-derbyshire.gov.uk,North East Derbyshire,http://www.ne-derbyshire.gov.uk/,-1.36121300000000,S44 5BS,2014-07-16,fhrs_5_en-GB,5,,FHRS,5
66684,16 Main Road,Ridgeway,Sheffield,,Swan Inn,Pub/bar/nightclub,7843,5,,351140,10,,53.32999500000000,PI/000043783,068,envhealth@ne-derbyshire.gov.uk,North East Derbyshire,http://www.ne-derbyshire.gov.uk/,-1.39665000000000,S12 3XR,2014-11-25,fhrs_3_en-GB,3,,FHRS,10
66685,Ashover Road,Littlemoor,Ashover,Chesterfield,Sycamore Farm,Farmers/growers,7838,,,664210,,,53.16453200000000,PI/000002461,068,envhealth@ne-derbyshire.gov.uk,North East Derbyshire,http://www.ne-derbyshire.gov.uk/,-1.45759000000000,S45 0BG,1996-03-19,fhrs_exempt_en-GB,Exempt,,FHRS,
66686,7A Market Street,Eckington,Sheffield,,Syddall Butchers Ltd,Retailers - other,4613,10,,351360,5,,53.31025600000000,PI/000101257,068,envhealth@ne-derbyshire.gov.uk,North East Derbyshire,http://www.ne-derbyshire.gov.uk/,-1.35546000000000,S21 4EG,2013-05-17,fhrs_4_en-GB,4,,FHRS,5
66687,,,,,T And R Catering,Mobile caterer,7846,10,,351456,10,,,PI/000102826,068,envhealth@ne-derbyshire.gov.uk,North East Derbyshire,http://www.ne-derbyshire.gov.uk/,,,2014-10-15,fhrs_3_en-GB,3,,FHRS,10
66688,28 Market Street,Eckington,Sheffield,,T J Cafe And Sandwich Bar,Restaurant/Cafe/Canteen,1,5,,351533,5,,53.30996200000000,PI/000115079,068,envhealth@ne-derbyshire.gov.uk,North East Derbyshire,http://www.ne-derbyshire.gov.uk/,-1.35593000000000,S21 4EH,2014-11-21,fhrs_5_en-GB,5,,FHRS,5
66689,Talbot Arms,Stubley Lane,Dronfield Woodhouse,Dronfield,Tandem Leisure Limited,Pub/bar/nightclub,7843,10,,351211,15,,53.30596000000000,PI/000068020,068,envhealth@ne-derbyshire.gov.uk,North East Derbyshire,http://www.ne-derbyshire.gov.uk/,-1.49142700000000,S18 8YR,2014-06-30,fhrs_2_en-GB,2,,FHRS,10
66690,Renishaw Hall Stables,Renishaw Park,Renishaw,,"Taste ""T""",Restaurant/Cafe/Canteen,1,5,,594047,5,,,PI/000131549,068,envhealth@ne-derbyshire.gov.uk,North East Derbyshire,http://www.ne-derbyshire.gov.uk/,,,2013-08-09,fhrs_5_en-GB,5,,FHRS,5
66691,30 Egstow Street,Clay Cross,Chesterfield,,Tasty Bites Ltd,Mobile caterer,7846,10,,510515,5,,53.17003300000000,PI/000131212,068,envhealth@ne-derbyshire.gov.uk,North East Derbyshire,http://www.ne-derbyshire.gov.uk/,-1.40832000000000,S45 9NJ,2014-09-03,fhrs_4_en-GB,4,,FHRS,5
66692,,,,,Tasty Tucker Ltd,Mobile caterer,7846,0,,510488,5,,,PI/000117797,068,envhealth@ne-derbyshire.gov.uk,North East Derbyshire,http://www.ne-derbyshire.gov.uk/,,,2014-12-09,fhrs_5_en-GB,5,,FHRS,0
66693,Temperance House Farm,Bradshaw Lane,Wadshelf,Chesterfield,Temperance House Farm Bed And Breakfast,Hotel/bed & breakfast/guest house,7842,5,,351234,5,,53.23414300000000,PI/000077425,068,envhealth@ne-derbyshire.gov.uk,North East Derbyshire,http://www.ne-derbyshire.gov.uk/,-1.52950800000000,S42 7BT,2013-02-22,fhrs_5_en-GB,5,,FHRS,5
66694,Elm Street,Temple Normanton,Chesterfield,,Temple Normanton Primary School,School/college/university,7845,0,,351095,0,,53.20475900000000,PI/000022661,068,envhealth@ne-derbyshire.gov.uk,North East Derbyshire,http://www.ne-derbyshire.gov.uk/,-1.37334700000000,S42 5DW,2014-10-23,fhrs_5_en-GB,5,,FHRS,0
66695,,,,,Tempted By Chocolate,Other catering premises,7841,10,,609616,0,,,PI/000131715,068,envhealth@ne-derbyshire.gov.uk,North East Derbyshire,http://www.ne-derbyshire.gov.uk/,,,2013-11-04,fhrs_4_en-GB,4,,FHRS,0
66696,Tesco Stores Ltd,Bridge Street,Clay Cross,Chesterfield,Tesco,Retailers - supermarkets/hypermarkets,7840,0,,351642,0,,53.16805600000000,PI/000129962,068,envhealth@ne-derbyshire.gov.uk,North East Derbyshire,http://www.ne-derbyshire.gov.uk/,-1.41214600000000,S45 9NG,2014-03-31,fhrs_5_en-GB,5,,FHRS,5
66697,The Family Cafe,Tesco Extra,Bridge Street,Clay Cross,Tesco Clay Cross Customer Cafe  Family Dining,Restaurant/Cafe/Canteen,1,5,,351660,5,,53.16999900000000,PI/000130219,068,envhealth@ne-derbyshire.gov.uk,North East Derbyshire,http://www.ne-derbyshire.gov.uk/,-1.41047400000000,S45 9NU,2014-05-14,fhrs_5_en-GB,5,,FHRS,5
66698,Harris Way,Clay Cross,Chesterfield,,Tesco Petrol Filling Station,Retailers - other,4613,,,594000,,,53.16770600000000,PI/000130123,068,envhealth@ne-derbyshire.gov.uk,North East Derbyshire,http://www.ne-derbyshire.gov.uk/,-1.41584600000000,S45 9DY,2012-01-17,fhrs_exempt_en-GB,Exempt,,FHRS,
66699,20 Main Road,Holmesfield,Dronfield,,Thai At The Travellers,Restaurant/Cafe/Canteen,1,10,,351521,10,,53.29544100000000,PI/000114076,068,envhealth@ne-derbyshire.gov.uk,North East Derbyshire,http://www.ne-derbyshire.gov.uk/,-1.51465700000000,S18 7WT,2013-09-18,fhrs_3_en-GB,3,,FHRS,10
66700,195 Sheffield Road,Killamarsh,Sheffield,,The Admiral,Takeaway/sandwich shop,7844,5,,351399,5,,53.32496000000000,PI/000101663,068,envhealth@ne-derbyshire.gov.uk,North East Derbyshire,http://www.ne-derbyshire.gov.uk/,-1.32111200000000,S21 1DX,2013-04-11,fhrs_5_en-GB,5,,FHRS,0
66701,Callywhite Lane,Dronfield,,,The Akademy Ltd,Other catering premises,7841,0,,351062,5,,53.30083300000000,PI/000011517,068,envhealth@ne-derbyshire.gov.uk,North East Derbyshire,http://www.ne-derbyshire.gov.uk/,-1.45592600000000,S18 2XR,2013-06-06,fhrs_5_en-GB,5,,FHRS,5
66702,Main Road,Holmesfield,Dronfield,,The Angel Inn,Pub/bar/nightclub,7843,5,,351516,5,,53.29544100000000,PI/000113369,068,envhealth@ne-derbyshire.gov.uk,North East Derbyshire,http://www.ne-derbyshire.gov.uk/,-1.51465700000000,S18 7WT,2013-09-17,fhrs_4_en-GB,4,,FHRS,10
66703,,,,,The Bakewell Brownie Co Ltd,Other catering premises,7841,5,,664207,0,,,14/00072/COMM,068,envhealth@ne-derbyshire.gov.uk,North East Derbyshire,http://www.ne-derbyshire.gov.uk/,,,2014-04-23,fhrs_5_en-GB,5,,FHRS,0
66704,Barrack Road,Apperknowle,Dronfield,,The Barrack Hotel,Pub/bar/nightclub,7843,10,,351053,10,,53.29942600000000,PI/000004446,068,envhealth@ne-derbyshire.gov.uk,North East Derbyshire,http://www.ne-derbyshire.gov.uk/,-1.42986600000000,S18 4AU,2014-03-25,fhrs_3_en-GB,3,,FHRS,10
66705,Church Street,Ashover,Chesterfield,,The Black Swan,Pub/bar/nightclub,7843,5,,684015,5,,53.16369500000000,14/00024/COMM,068,envhealth@ne-derbyshire.gov.uk,North East Derbyshire,http://www.ne-derbyshire.gov.uk/,-1.47952800000000,S45 0AB,2014-05-29,fhrs_5_en-GB,5,,FHRS,5
66706,3 - 5 The Ford,Ridgeway,Sheffield,,The Bridge Inn,Pub/bar/nightclub,7843,5,,351333,5,,53.31951600000000,PI/000101028,068,envhealth@ne-derbyshire.gov.uk,North East Derbyshire,http://www.ne-derbyshire.gov.uk/,-1.39876400000000,S12 3YD,2013-09-24,fhrs_5_en-GB,5,,FHRS,5
66707,Moor Road,Ashover,Chesterfield,,The Butchers Shop,Retailers - other,4613,5,,351366,5,,53.16637600000000,PI/000101376,068,envhealth@ne-derbyshire.gov.uk,North East Derbyshire,http://www.ne-derbyshire.gov.uk/,-1.47991500000000,S45 0AE,2014-05-29,fhrs_4_en-GB,4,,FHRS,10
66708,85 High Street,Eckington,Sheffield,,The Cake Booth,Manufacturers/packers,7839,5,,454682,5,,53.30812200000000,PI/000116826,068,envhealth@ne-derbyshire.gov.uk,North East Derbyshire,http://www.ne-derbyshire.gov.uk/,-1.36140500000000,S21 4DJ,2013-05-17,fhrs_5_en-GB,5,,FHRS,0
66709,29 Belfit Drive,Wingerworth,Chesterfield,,The Chef's Table,Other catering premises,7841,5,,664205,5,,53.19572700000000,14/00070/COMM,068,envhealth@ne-derbyshire.gov.uk,North East Derbyshire,http://www.ne-derbyshire.gov.uk/,-1.43314300000000,S42 6UP,2014-04-08,fhrs_5_en-GB,5,,FHRS,5
66710,17 Eckington Road,Coal Aston,Dronfield,,The Chequers,Pub/bar/nightclub,7843,5,,351283,5,,53.31147600000000,PI/000100530,068,envhealth@ne-derbyshire.gov.uk,North East Derbyshire,http://www.ne-derbyshire.gov.uk/,-1.45996300000000,S18 3AT,2014-08-26,fhrs_4_en-GB,4,,FHRS,10
66711,2 The Mall,Market Street,Clay Cross,Chesterfield,The Cooking Pot,Restaurant/Cafe/Canteen,1,5,,510518,5,,53.16660300000000,PI/000131222,068,envhealth@ne-derbyshire.gov.uk,North East Derbyshire,http://www.ne-derbyshire.gov.uk/,-1.41454400000000,S45 9JE,2014-06-03,fhrs_5_en-GB,5,,FHRS,5
66712,189 Birkinstyle Lane,Stonebroom,Alfreton,,The Co-Operative Pharmacy,Retailers - other,4613,,,351245,,,53.12961300000000,PI/000100096,068,envhealth@ne-derbyshire.gov.uk,North East Derbyshire,http://www.ne-derbyshire.gov.uk/,-1.39289800000000,DE55 6LD,2013-03-01,fhrs_exempt_en-GB,Exempt,,FHRS,
66713,United Co-Op Pharmacy,Bridge Street,Pilsley,Chesterfield,The Co-operative Pharmacy,Retailers - other,4613,,,351539,,,53.15860500000000,PI/000115242,068,envhealth@ne-derbyshire.gov.uk,North East Derbyshire,http://www.ne-derbyshire.gov.uk/,-1.36918900000000,S45 8HQ,2012-10-11,fhrs_exempt_en-GB,Exempt,,FHRS,
66714,1 Green Lane,New Tupton,Chesterfield,,The Cornerstone Coffee House,Restaurant/Cafe/Canteen,1,5,,664172,5,,53.19051200000000,14/00016/COMM,068,envhealth@ne-derbyshire.gov.uk,North East Derbyshire,http://www.ne-derbyshire.gov.uk/,-1.40863600000000,S42 6BH,2014-01-23,fhrs_5_en-GB,5,,FHRS,5
66715,,,,,The Country Kitchen,Other catering premises,7841,0,,718658,5,,,14/00135/COMM,068,envhealth@ne-derbyshire.gov.uk,North East Derbyshire,http://www.ne-derbyshire.gov.uk/,,,2014-08-27,fhrs_5_en-GB,5,,FHRS,0
66716,82 Heath Road,Holmewood,Chesterfield,,The Creative  Chef,Restaurant/Cafe/Canteen,1,0,,351304,5,,53.18723600000000,PI/000100708,068,envhealth@ne-derbyshire.gov.uk,North East Derbyshire,http://www.ne-derbyshire.gov.uk/,-1.35923600000000,S42 5SH,2014-03-25,fhrs_5_en-GB,5,,FHRS,5
66717,Church Street,Ashover,Chesterfield,,The Crispin Inn,Pub/bar/nightclub,7843,5,,454675,5,,53.16369500000000,PI/000016317,068,envhealth@ne-derbyshire.gov.uk,North East Derbyshire,http://www.ne-derbyshire.gov.uk/,-1.47952800000000,S45 0AB,2013-09-18,fhrs_5_en-GB,5,,FHRS,5
66718,1 Ashley Lane,Killamarsh,Sheffield,,The Crown,Pub/bar/nightclub,7843,5,,351051,5,,53.32129900000000,PI/000002280,068,envhealth@ne-derbyshire.gov.uk,North East Derbyshire,http://www.ne-derbyshire.gov.uk/,-1.31117200000000,S21 1AB,2009-01-29,fhrs_5_en-GB,5,,FHRS,5
66719,,,,,The Cupcake Makers,Other catering premises,7841,0,,351682,5,,,PI/000130469,068,envhealth@ne-derbyshire.gov.uk,North East Derbyshire,http://www.ne-derbyshire.gov.uk/,,,2011-07-19,fhrs_5_en-GB,5,,FHRS,5
66720,194 North Wingfield Road,Grassmoor,Chesterfield,,The Curry House,Takeaway/sandwich shop,7844,5,,351473,5,,53.20101200000000,PI/000104259,068,envhealth@ne-derbyshire.gov.uk,North East Derbyshire,http://www.ne-derbyshire.gov.uk/,-1.39808800000000,S42 5ED,2014-09-15,fhrs_4_en-GB,4,,FHRS,10
66721,91 Chesterfield Road,Dronfield,,,The Dronfield Arms,Pub/bar/nightclub,7843,5,,351679,5,,53.29960100000000,PI/000130456,068,envhealth@ne-derbyshire.gov.uk,North East Derbyshire,http://www.ne-derbyshire.gov.uk/,-1.46569500000000,S18 2XE,2012-10-12,fhrs_5_en-GB,5,,FHRS,5
66722,Green Lane,Dronfield,,,The Dronfield Henry Fanshaw School,Restaurant/Cafe/Canteen,1,5,,401554,5,,53.30148200000000,PI/000027875,068,envhealth@ne-derbyshire.gov.uk,North East Derbyshire,http://www.ne-derbyshire.gov.uk/,-1.46639100000000,S18 2FZ,2013-12-19,fhrs_5_en-GB,5,,FHRS,5
66723,37 Market Street,Eckington,Sheffield,,The Duke Of York,Pub/bar/nightclub,7843,10,,351511,5,,53.31025600000000,PI/000111501,068,envhealth@ne-derbyshire.gov.uk,North East Derbyshire,http://www.ne-derbyshire.gov.uk/,-1.35546000000000,S21 4EG,2013-09-23,fhrs_3_en-GB,3,,FHRS,10
66724,Fox And Hounds,37 Main Road,Marsh Lane,Sheffield,The Fox And Hounds,Pub/bar/nightclub,7843,10,,712230,10,,53.30791000000000,14/00187/COMM,068,envhealth@ne-derbyshire.gov.uk,North East Derbyshire,http://www.ne-derbyshire.gov.uk/,-1.39139300000000,S21 5RH,2014-10-09,fhrs_3_en-GB,3,,FHRS,5
66725,Gables Close,Holmewood,Chesterfield,,The Gables Retirement Home,Hospitals/Childcare/Caring Premises,5,5,,351101,5,,53.18685100000000,PI/000025809,068,envhealth@ne-derbyshire.gov.uk,North East Derbyshire,http://www.ne-derbyshire.gov.uk/,-1.35948100000000,S42 5SJ,2014-01-10,fhrs_5_en-GB,5,,FHRS,5
66726,Renishaw Hall Stables,Renishaw Park,Renishaw,,The Gallery Caterers,Restaurant/Cafe/Canteen,1,5,,351435,5,,,PI/000102337,068,envhealth@ne-derbyshire.gov.uk,North East Derbyshire,http://www.ne-derbyshire.gov.uk/,,,2013-06-28,fhrs_5_en-GB,5,,FHRS,5
66727,The Gate Inn,49 St Lawrence Road,North Wingfield,Chesterfield,The Gate Inn (Chesterfield) Ltd,Pub/bar/nightclub,7843,5,,351197,5,,53.17758900000000,PI/000065121,068,envhealth@ne-derbyshire.gov.uk,North East Derbyshire,http://www.ne-derbyshire.gov.uk/,-1.39144300000000,S42 5LJ,2014-03-11,fhrs_5_en-GB,5,,FHRS,5
66728,The Gate Inn,Unnamed Section Of B6050,Overgreen,Cutthorpe,The Gate Inn Ltd,Pub/bar/nightclub,7843,5,,401555,5,,53.25646500000000,PI/000053428,068,envhealth@ne-derbyshire.gov.uk,North East Derbyshire,http://www.ne-derbyshire.gov.uk/,-1.51461800000000,S42 7BA,2013-12-04,fhrs_5_en-GB,5,,FHRS,5
66729,52 Southgate,Eckington,Sheffield,,The George,Pub/bar/nightclub,7843,20,,351407,10,,53.30846600000000,PI/000101718,068,envhealth@ne-derbyshire.gov.uk,North East Derbyshire,http://www.ne-derbyshire.gov.uk/,-1.35526200000000,S21 4FT,2013-12-06,fhrs_1_en-GB,1,,FHRS,10
66730,The Grange,88 Southgate,Eckington,Sheffield,The Grange Home For Elderly People,Hospitals/Childcare/Caring Premises,5,0,,593941,0,,53.30846600000000,PI/000101720,068,envhealth@ne-derbyshire.gov.uk,North East Derbyshire,http://www.ne-derbyshire.gov.uk/,-1.35526200000000,S21 4FT,2013-01-11,fhrs_5_en-GB,5,,FHRS,0
66731,Green Dragon,Church Street,Dronfield,,The Green Dragon,Pub/bar/nightclub,7843,10,,351081,10,,53.30158000000000,PI/000016383,068,envhealth@ne-derbyshire.gov.uk,North East Derbyshire,http://www.ne-derbyshire.gov.uk/,-1.47212200000000,S18 1QB,2014-12-16,fhrs_2_en-GB,2,,FHRS,15
66732,2 Green Lane,Dronfield,,,The Green Nursing Home,Hospitals/Childcare/Caring Premises,5,5,,351293,5,,53.30297700000000,PI/000100613,068,envhealth@ne-derbyshire.gov.uk,North East Derbyshire,http://www.ne-derbyshire.gov.uk/,-1.46491700000000,S18 2LZ,2014-07-01,fhrs_5_en-GB,5,,FHRS,5
66733,Main Road,Higham,Alfreton,,The Greyhound,Pub/bar/nightclub,7843,5,,351132,5,,53.12977400000000,PI/000043322,068,envhealth@ne-derbyshire.gov.uk,North East Derbyshire,http://www.ne-derbyshire.gov.uk/,-1.41809400000000,DE55 6EF,2013-09-11,fhrs_5_en-GB,5,,FHRS,5
66734,8 Southgate,Eckington,Sheffield,,The Griddle Cafe,Restaurant/Cafe/Canteen,1,10,,594041,10,,53.30846600000000,PI/000131516,068,envhealth@ne-derbyshire.gov.uk,North East Derbyshire,http://www.ne-derbyshire.gov.uk/,-1.35526200000000,S21 4FT,2013-09-11,fhrs_3_en-GB,3,,FHRS,5
66735,135 Main Road,Shirland,Alfreton,,The Hay Inn,Pub/bar/nightclub,7843,5,,351487,5,,53.11923600000000,PI/000107072,068,envhealth@ne-derbyshire.gov.uk,North East Derbyshire,http://www.ne-derbyshire.gov.uk/,-1.40121700000000,DE55 6BA,2014-12-15,fhrs_5_en-GB,5,,FHRS,5
66736,Westwood Heights,Ankerbold Road,Old Tupton,Chesterfield,The Heights Care Centre,Hospitals/Childcare/Caring Premises,5,5,,351700,5,,53.18452900000000,PI/000130657,068,envhealth@ne-derbyshire.gov.uk,North East Derbyshire,http://www.ne-derbyshire.gov.uk/,-1.40232900000000,S42 6BX,2013-01-31,fhrs_5_en-GB,5,,FHRS,5
66737,Baslow Road,Eastmoor,Chesterfield,,The Highwayman,Pub/bar/nightclub,7843,5,,351054,5,,53.23784000000000,PI/000004571,068,envhealth@ne-derbyshire.gov.uk,North East Derbyshire,http://www.ne-derbyshire.gov.uk/,-1.54188800000000,S42 7DA,2014-03-14,fhrs_5_en-GB,5,,FHRS,5
66738,99 Chesterfield Road,Dronfield,,,The Hub Cafe,Other catering premises,7841,5,,593999,5,,53.29960100000000,PI/000130108,068,envhealth@ne-derbyshire.gov.uk,North East Derbyshire,http://www.ne-derbyshire.gov.uk/,-1.46569500000000,S18 2XE,2013-10-16,fhrs_5_en-GB,5,,FHRS,5
66739,Snowdon Lane,Troway,Marsh Lane,Sheffield,The Inn At Troway,Pub/bar/nightclub,7843,10,,593971,10,,53.31107800000000,PI/000117311,068,envhealth@ne-derbyshire.gov.uk,North East Derbyshire,http://www.ne-derbyshire.gov.uk/,-1.41369600000000,S21 5RU,2014-08-26,fhrs_3_en-GB,3,,FHRS,10
66740,Pentland Road,Dronfield Woodhouse,Dronfield,,The Jolly Farmer,Pub/bar/nightclub,7843,5,,351173,5,,53.30166900000000,PI/000055192,068,envhealth@ne-derbyshire.gov.uk,North East Derbyshire,http://www.ne-derbyshire.gov.uk/,-1.49476400000000,S18 8ZQ,2013-10-16,fhrs_5_en-GB,5,,FHRS,5
66741,1 Egerton Road,Dronfield,,,The Jolly Frier,Takeaway/sandwich shop,7844,10,,351287,15,,53.30446800000000,PI/000100544,068,envhealth@ne-derbyshire.gov.uk,North East Derbyshire,http://www.ne-derbyshire.gov.uk/,-1.46859000000000,S18 2LG,2013-12-04,fhrs_2_en-GB,2,,FHRS,15
66742,Bridge Street,Killamarsh,Sheffield,,The Lodge Care Centre,Hospitals/Childcare/Caring Premises,5,5,,351058,5,,53.32362000000000,PI/000009683,068,envhealth@ne-derbyshire.gov.uk,North East Derbyshire,http://www.ne-derbyshire.gov.uk/,-1.31620900000000,S21 1AL,2014-02-19,fhrs_5_en-GB,5,,FHRS,5
66743,The Manor House Hotel And Restauran,High Street,Dronfield,,The Manor House Hotel,Hotel/bed & breakfast/guest house,7842,20,,427525,15,,53.30195200000000,PI/000100837,068,envhealth@ne-derbyshire.gov.uk,North East Derbyshire,http://www.ne-derbyshire.gov.uk/,-1.47505900000000,S18 1PY,2014-02-18,fhrs_1_en-GB,1,,FHRS,15
66744,Bradley Lomas Electrolok Ltd,Church Street,Eckington,Sheffield,The Manor House Nursery,Hospitals/Childcare/Caring Premises,5,5,,351271,5,,53.31212300000000,PI/000100410,068,envhealth@ne-derbyshire.gov.uk,North East Derbyshire,http://www.ne-derbyshire.gov.uk/,-1.35333100000000,S21 4BH,2014-02-08,fhrs_5_en-GB,5,,FHRS,5
66745,115 Carr Lane,Dronfield Woodhouse,Dronfield,,The Miners Arms,Pub/bar/nightclub,7843,10,,351064,10,,53.30257200000000,PI/000012002,068,envhealth@ne-derbyshire.gov.uk,North East Derbyshire,http://www.ne-derbyshire.gov.uk/,-1.50222600000000,S18 8XF,2014-09-23,fhrs_2_en-GB,2,,FHRS,15
66746,Sheffield Road,Eckington,Sheffield,,The Mossbrook,Pub/bar/nightclub,7843,5,,351543,5,,53.31507200000000,PI/000115846,068,envhealth@ne-derbyshire.gov.uk,North East Derbyshire,http://www.ne-derbyshire.gov.uk/,-1.35011900000000,S21 4FP,2015-01-07,fhrs_5_en-GB,5,,FHRS,5
66747,Main Road,Renishaw,Sheffield,,The Mulan Chinese Restaurant,Restaurant/Cafe/Canteen,1,5,,351136,10,,53.29531100000000,PI/000043713,068,envhealth@ne-derbyshire.gov.uk,North East Derbyshire,http://www.ne-derbyshire.gov.uk/,-1.32675900000000,S21 3UW,2014-09-30,fhrs_4_en-GB,4,,FHRS,5
66748,Westthorpe Road,Killamarsh,Sheffield,,The Nags Head,Pub/bar/nightclub,7843,10,,351228,10,,53.31640500000000,PI/000073990,068,envhealth@ne-derbyshire.gov.uk,North East Derbyshire,http://www.ne-derbyshire.gov.uk/,-1.31665500000000,S21 1EU,2013-06-06,fhrs_3_en-GB,3,,FHRS,10
66749,160 Queen Victoria Road,New Tupton,Chesterfield,,The New Inn,Pub/bar/nightclub,7843,5,,492702,5,,53.19146400000000,PI/000101561,068,envhealth@ne-derbyshire.gov.uk,North East Derbyshire,http://www.ne-derbyshire.gov.uk/,-1.41390700000000,S42 6DU,2014-07-31,fhrs_5_en-GB,5,,FHRS,5
66750,21 - 23 Wesley Road,Stonebroom,Alfreton,,The New Shop (Costcutter),Retailers - other,4613,10,,351465,10,,53.12923400000000,PI/000102940,068,envhealth@ne-derbyshire.gov.uk,North East Derbyshire,http://www.ne-derbyshire.gov.uk/,-1.39105000000000,DE55 6JA,2013-03-01,fhrs_3_en-GB,3,,FHRS,5
66751,Chesterfield Golf Club,Matlock Road,Walton,Chesterfield,The Nineteenth,Pub/bar/nightclub,7843,10,,351610,10,,53.21823500000000,PI/000129206,068,envhealth@ne-derbyshire.gov.uk,North East Derbyshire,http://www.ne-derbyshire.gov.uk/,-1.44840600000000,S42 7LA,2013-12-23,fhrs_3_en-GB,3,,FHRS,5
66752,Butts Road,Ashover,Chesterfield,,The Old Poets Corner,Pub/bar/nightclub,7843,10,,351506,5,,53.16274500000000,PI/000110682,068,envhealth@ne-derbyshire.gov.uk,North East Derbyshire,http://www.ne-derbyshire.gov.uk/,-1.48013800000000,S45 0EW,2014-03-27,fhrs_4_en-GB,4,,FHRS,5
66753,Hackney Lane,Barlow,Dronfield,,The Old Pump,Pub/bar/nightclub,7843,5,,351102,5,,53.26702900000000,PI/000028873,068,envhealth@ne-derbyshire.gov.uk,North East Derbyshire,http://www.ne-derbyshire.gov.uk/,-1.48290800000000,S18 7TD,2014-09-30,fhrs_4_en-GB,4,,FHRS,10
66754,,,,,The Old School Farm,Hotel/bed & breakfast/guest house,7842,10,,351219,10,,,PI/000071810,068,envhealth@ne-derbyshire.gov.uk,North East Derbyshire,http://www.ne-derbyshire.gov.uk/,,,2013-03-01,fhrs_3_en-GB,3,,FHRS,5
66755,The Old Vicarage,Ridgeway Moor,Ridgeway,Sheffield,The Old Vicarage (Ridgeway) Ltd,Restaurant/Cafe/Canteen,1,5,,351179,5,,53.32482700000000,PI/000058617,068,envhealth@ne-derbyshire.gov.uk,North East Derbyshire,http://www.ne-derbyshire.gov.uk/,-1.39841900000000,S12 3XW,2014-09-24,fhrs_5_en-GB,5,,FHRS,0
66756,Stretton Road,Clay Cross,Chesterfield,,The Old Vicarage Nursing Home,Hospitals/Childcare/Caring Premises,5,5,,351207,5,,53.15891200000000,PI/000067695,068,envhealth@ne-derbyshire.gov.uk,North East Derbyshire,http://www.ne-derbyshire.gov.uk/,-1.41536700000000,S45 9AQ,2014-10-22,fhrs_5_en-GB,5,,FHRS,5
66757,26 Market Street,Clay Cross,Chesterfield,,The Olde English Inn,Pub/bar/nightclub,7843,10,,351349,5,,53.16660300000000,PI/000101183,068,envhealth@ne-derbyshire.gov.uk,North East Derbyshire,http://www.ne-derbyshire.gov.uk/,-1.41454400000000,S45 9JE,2013-01-24,fhrs_4_en-GB,4,,FHRS,5
66758,113 Thanet Street,Clay Cross,Chesterfield,,The Oriental Pearl,Restaurant/Cafe/Canteen,1,5,,351419,5,,53.16347800000000,PI/000101849,068,envhealth@ne-derbyshire.gov.uk,North East Derbyshire,http://www.ne-derbyshire.gov.uk/,-1.41342000000000,S45 9JS,2013-11-20,fhrs_4_en-GB,4,,FHRS,10
66759,2 High Street,Dronfield,,,The Painted Teapot,Restaurant/Cafe/Canteen,1,10,,351702,10,,53.30195200000000,PI/000130673,068,envhealth@ne-derbyshire.gov.uk,North East Derbyshire,http://www.ne-derbyshire.gov.uk/,-1.47505900000000,S18 1PY,2014-03-31,fhrs_3_en-GB,3,,FHRS,10
66760,St John's Church,Walton Back Lane,Walton,,The Parochial Council Of St John's Church,Other catering premises,7841,0,,351426,0,,,PI/000101914,068,envhealth@ne-derbyshire.gov.uk,North East Derbyshire,http://www.ne-derbyshire.gov.uk/,,,2014-11-25,fhrs_5_en-GB,5,,FHRS,5
66761,Mount St Marys College,College Road,Spinkhill,Sheffield,The Pavilion,School/college/university,7845,5,,351538,5,,53.30210200000000,PI/000115117,068,envhealth@ne-derbyshire.gov.uk,North East Derbyshire,http://www.ne-derbyshire.gov.uk/,-1.31955400000000,S21 3YL,2007-03-20,fhrs_5_en-GB,5,,FHRS,0
66762,Peacock Hotel,Owler Bar,Owler Bar,Sheffield,The Peacock,Pub/bar/nightclub,7843,5,,351169,5,,53.29827300000000,PI/000053496,068,envhealth@ne-derbyshire.gov.uk,North East Derbyshire,http://www.ne-derbyshire.gov.uk/,-1.56125800000000,S17 3BQ,2013-11-12,fhrs_5_en-GB,5,,FHRS,5
66763,School Hill,Cutthorpe,Chesterfield,,The Peacock Inn,Pub/bar/nightclub,7843,10,,351183,10,,53.25571400000000,PI/000060856,068,envhealth@ne-derbyshire.gov.uk,North East Derbyshire,http://www.ne-derbyshire.gov.uk/,-1.49374700000000,S42 7AS,2014-11-20,fhrs_2_en-GB,2,,FHRS,15
66764,Matlock Road,Brackenfield,Alfreton,,The Plough Inn,Pub/bar/nightclub,7843,5,,351149,5,,53.12459000000000,PI/000045500,068,envhealth@ne-derbyshire.gov.uk,North East Derbyshire,http://www.ne-derbyshire.gov.uk/,-1.46075300000000,DE55 6DD,2012-12-12,fhrs_4_en-GB,4,,FHRS,10
66765,,,,,The Private Chef Company,Other catering premises,7841,5,,351703,0,,,PI/000130676,068,envhealth@ne-derbyshire.gov.uk,North East Derbyshire,http://www.ne-derbyshire.gov.uk/,,,2014-03-31,fhrs_5_en-GB,5,,FHRS,0
66766,Main Road,Shirland,Alfreton,,The Red Lion Inn,Pub/bar/nightclub,7843,5,,351488,5,,53.12322200000000,PI/000107097,068,envhealth@ne-derbyshire.gov.uk,North East Derbyshire,http://www.ne-derbyshire.gov.uk/,-1.40546600000000,DE55 6BB,2013-03-01,fhrs_5_en-GB,5,,FHRS,5
66767,Darley Road,Stonedge,Ashover,Chesterfield,The Red Lion Pub And Bistro,Pub/bar/nightclub,7843,,,351485,,,53.19988100000000,PI/000106849,068,envhealth@ne-derbyshire.gov.uk,North East Derbyshire,http://www.ne-derbyshire.gov.uk/,-1.49958400000000,S45 0LW,2014-07-21,fhrs_4_en-GB,4,,FHRS,
66768,166 High Street,Eckington,Sheffield,,The Rose & Crown,Pub/bar/nightclub,7843,5,,351325,5,,53.30780700000000,PI/000100865,068,envhealth@ne-derbyshire.gov.uk,North East Derbyshire,http://www.ne-derbyshire.gov.uk/,-1.36474100000000,S21 4DR,2014-01-21,fhrs_4_en-GB,4,,FHRS,10
66769,Hollins,Old Brampton,Chesterfield,,The Royal Oak,Pub/bar/nightclub,7843,10,,351338,5,,53.24219400000000,PI/000101061,068,envhealth@ne-derbyshire.gov.uk,North East Derbyshire,http://www.ne-derbyshire.gov.uk/,-1.51743200000000,S42 7JH,2013-11-19,fhrs_4_en-GB,4,,FHRS,5
66770,96 Main Road,Holmesfield,Dronfield,Derbyshire,The Rutland Arms,Pub/bar/nightclub,7843,5,,351334,5,,53.29534500000000,PI/000101033,068,envhealth@ne-derbyshire.gov.uk,North East Derbyshire,http://www.ne-derbyshire.gov.uk/,-1.51519800000000,S18 7WT,2013-04-12,fhrs_5_en-GB,5,,FHRS,5
66771,Unit 2,Birch House Way,Dronfield,,The Sandwich Bar At Dronfield Cooked,Restaurant/Cafe/Canteen,1,10,,594026,5,,53.30083300000000,PI/000131283,068,envhealth@ne-derbyshire.gov.uk,North East Derbyshire,http://www.ne-derbyshire.gov.uk/,-1.45592600000000,S18 2XR,2014-06-04,fhrs_4_en-GB,4,,FHRS,5
66772,1 - 3 Sheffield Road,Killamarsh,Sheffield,,The Sandwich Junction,Restaurant/Cafe/Canteen,1,5,,401562,5,,53.32634900000000,PI/000129864,068,envhealth@ne-derbyshire.gov.uk,North East Derbyshire,http://www.ne-derbyshire.gov.uk/,-1.30615100000000,S21 2DX,2013-11-06,fhrs_5_en-GB,5,,FHRS,5
66773,99 Station Road,Hepthorne Lane,North Wingfield,Chesterfield,The Shinnon,Pub/bar/nightclub,7843,5,,593943,5,,53.17954700000000,PI/000101757,068,envhealth@ne-derbyshire.gov.uk,North East Derbyshire,http://www.ne-derbyshire.gov.uk/,-1.39642800000000,S42 5JJ,2010-04-26,fhrs_5_en-GB,5,,FHRS,5
66774,Belper Road,Shirland,Alfreton,,The Shoulder Of Mutton,Pub/bar/nightclub,7843,5,,351525,5,,53.12079100000000,PI/000114691,068,envhealth@ne-derbyshire.gov.uk,North East Derbyshire,http://www.ne-derbyshire.gov.uk/,-1.41564500000000,DE55 6AG,2013-03-01,fhrs_5_en-GB,5,,FHRS,5
66775,Main Road,Morton,Alfreton,Derbyshire,The Sitwell Arms,Pub/bar/nightclub,7843,10,,351497,5,,53.13659700000000,PI/000109092,068,envhealth@ne-derbyshire.gov.uk,North East Derbyshire,http://www.ne-derbyshire.gov.uk/,-1.38943600000000,DE55 6GS,2012-07-24,fhrs_4_en-GB,4,,FHRS,5
66776,Nethermoor Road,Wingerworth,Chesterfield,,The Smithy Pond,Pub/bar/nightclub,7843,5,,351159,5,,53.19513800000000,PI/000049330,068,envhealth@ne-derbyshire.gov.uk,North East Derbyshire,http://www.ne-derbyshire.gov.uk/,-1.43392900000000,S42 6LN,2013-09-05,fhrs_5_en-GB,5,,FHRS,5
66777,The Snug,Gosforth Valley Medical Centre,Gorsey Brigg,Dronfield Woodhouse,The Snug Coffee And Cake House Limited,Restaurant/Cafe/Canteen,1,5,,552458,0,,53.29988100000000,PI/000131421,068,envhealth@ne-derbyshire.gov.uk,North East Derbyshire,http://www.ne-derbyshire.gov.uk/,-1.49496500000000,S18 8UE,2013-05-15,fhrs_5_en-GB,5,,FHRS,0
66778,36 Market Street,Clay Cross,Chesterfield,,The Soapbox,Retailers - other,4613,10,,351350,10,,53.16660300000000,PI/000101188,068,envhealth@ne-derbyshire.gov.uk,North East Derbyshire,http://www.ne-derbyshire.gov.uk/,-1.41454400000000,S45 9JE,2013-01-31,fhrs_3_en-GB,3,,FHRS,10
66779,143 High Street,Stonebroom,Alfreton,,The Star Inn,Pub/bar/nightclub,7843,5,,351117,5,,53.13328500000000,PI/000033876,068,envhealth@ne-derbyshire.gov.uk,North East Derbyshire,http://www.ne-derbyshire.gov.uk/,-1.37988700000000,DE55 6JT,2013-03-07,fhrs_5_en-GB,5,,FHRS,0
66780,51 Rupert Street,Lower Pilsley,Chesterfield,,The Star Inn,Pub/bar/nightclub,7843,5,,351391,5,,53.16485400000000,PI/000101608,068,envhealth@ne-derbyshire.gov.uk,North East Derbyshire,http://www.ne-derbyshire.gov.uk/,-1.37463100000000,S45 8DB,2013-03-07,fhrs_4_en-GB,4,,FHRS,10
66781,Netherthorpe Lane,Killamarsh,Sheffield,,The Steelmelters,Pub/bar/nightclub,7843,5,,351160,5,,53.32405900000000,PI/000049347,068,envhealth@ne-derbyshire.gov.uk,North East Derbyshire,http://www.ne-derbyshire.gov.uk/,-1.32543600000000,S21 1DA,2011-01-10,fhrs_5_en-GB,5,,FHRS,5
66782,Gosforth Lodge,Callywhite Lane,Dronfield,,The Tearoom,Restaurant/Cafe/Canteen,1,5,,684021,10,,53.29958600000000,14/00120/COMM,068,envhealth@ne-derbyshire.gov.uk,North East Derbyshire,http://www.ne-derbyshire.gov.uk/,-1.45855300000000,S18 2XP,2014-06-26,fhrs_4_en-GB,4,,FHRS,5
66783,Mansfield Road,Hasland,Chesterfield,,The Telmere Lodge,Pub/bar/nightclub,7843,5,,351344,5,,53.21391500000000,PI/000101138,068,envhealth@ne-derbyshire.gov.uk,North East Derbyshire,http://www.ne-derbyshire.gov.uk/,-1.39530100000000,S41 0JH,2014-01-23,fhrs_4_en-GB,4,,FHRS,10
66784,229 Mansfield Road,Hasland,Chesterfield,,The Three Cottages,Pub/bar/nightclub,7843,5,,664170,5,,53.21485300000000,14/00007/COMM,068,envhealth@ne-derbyshire.gov.uk,North East Derbyshire,http://www.ne-derbyshire.gov.uk/,-1.39594700000000,S41 0JJ,2014-03-26,fhrs_5_en-GB,5,,FHRS,5
66785,49 Market Street,Clay Cross,Chesterfield,,The Three Horseshoes,Pub/bar/nightclub,7843,10,,664190,5,,53.16660300000000,14/00052/COMM,068,envhealth@ne-derbyshire.gov.uk,North East Derbyshire,http://www.ne-derbyshire.gov.uk/,-1.41454400000000,S45 9JE,2014-04-24,fhrs_4_en-GB,4,,FHRS,5
66786,135 Cemetery Road,Dronfield,,,The Three Tuns Dronfield Limited,Pub/bar/nightclub,7843,10,,351680,10,,53.29726600000000,PI/000130457,068,envhealth@ne-derbyshire.gov.uk,North East Derbyshire,http://www.ne-derbyshire.gov.uk/,-1.46224300000000,S18 1XX,2014-07-25,fhrs_2_en-GB,2,,FHRS,15
66787,Church Street,Ashover,Chesterfield,Derbyshire,The Tuckshop,Retailers - other,4613,5,,351545,5,,53.16369500000000,PI/000115918,068,envhealth@ne-derbyshire.gov.uk,North East Derbyshire,http://www.ne-derbyshire.gov.uk/,-1.47952800000000,S45 0AB,2014-08-20,fhrs_5_en-GB,5,,FHRS,5
66788,Back Lane,Wessington,Alfreton,,The Village Chippy,Takeaway/sandwich shop,7844,5,,351239,5,,53.11575300000000,PI/000100034,068,envhealth@ne-derbyshire.gov.uk,North East Derbyshire,http://www.ne-derbyshire.gov.uk/,-1.44674500000000,DE55 6DQ,2014-03-20,fhrs_5_en-GB,5,,FHRS,5
66789,3 Edinburgh Court,Wingerworth,Chesterfield,,The Village Deli,Retailers - other,4613,5,,351719,5,,53.20649700000000,PI/000130839,068,envhealth@ne-derbyshire.gov.uk,North East Derbyshire,http://www.ne-derbyshire.gov.uk/,-1.44476900000000,S42 6SH,2013-11-12,fhrs_5_en-GB,5,,FHRS,5
66790,117 High Street,Clay Cross,Chesterfield,,The Vintage Community,Restaurant/Cafe/Canteen,1,0,,594048,0,,53.16586400000000,PI/000131561,068,envhealth@ne-derbyshire.gov.uk,North East Derbyshire,http://www.ne-derbyshire.gov.uk/,-1.41600500000000,S45 9DZ,2013-11-01,fhrs_5_en-GB,5,,FHRS,0
66791,,,,,The White Cake Company,Other catering premises,7841,20,,594039,5,,,PI/000131490,068,envhealth@ne-derbyshire.gov.uk,North East Derbyshire,http://www.ne-derbyshire.gov.uk/,,,2013-09-10,fhrs_1_en-GB,1,,FHRS,0
66792,White Hart Inn,Top Road,Calow,Chesterfield,The White Hart,Pub/bar/nightclub,7843,10,,684019,15,,53.23401000000000,14/00103/COMM,068,envhealth@ne-derbyshire.gov.uk,North East Derbyshire,http://www.ne-derbyshire.gov.uk/,-1.37871800000000,S44 5TE,2014-06-06,fhrs_2_en-GB,2,,FHRS,15
66793,Badger Lane,Woolley Moor,Alfreton,,The White Horse,Pub/bar/nightclub,7843,5,,454681,5,,53.14889400000000,PI/000115180,068,envhealth@ne-derbyshire.gov.uk,North East Derbyshire,http://www.ne-derbyshire.gov.uk/,-1.45216500000000,DE55 6FG,2014-02-13,fhrs_5_en-GB,5,,FHRS,5
66794,78 Chesterfield Road,Dronfield,Derbyshire,,The White Swan Dronfield Ltd,Pub/bar/nightclub,7843,5,,351267,5,,53.29980900000000,PI/000100327,068,envhealth@ne-derbyshire.gov.uk,North East Derbyshire,http://www.ne-derbyshire.gov.uk/,-1.46596200000000,S18 2XF,2014-07-29,fhrs_4_en-GB,4,,FHRS,10
66795,The Wingerworth,Derby Road,Wingerworth,Chesterfield,The Wingerworth Pub And Kitchen,Other catering premises,7841,5,,594057,5,,53.20295900000000,PI/000131697,068,envhealth@ne-derbyshire.gov.uk,North East Derbyshire,http://www.ne-derbyshire.gov.uk/,-1.41912500000000,S42 6NB,2014-01-09,fhrs_5_en-GB,5,,FHRS,5
66796,Coupe Lane,Old Tupton,Chesterfield,,The Woodthorpe Inn,Pub/bar/nightclub,7843,10,,351087,5,,53.17674800000000,PI/000017985,068,envhealth@ne-derbyshire.gov.uk,North East Derbyshire,http://www.ne-derbyshire.gov.uk/,-1.42675000000000,S42 6HA,2013-08-22,fhrs_4_en-GB,4,,FHRS,5
66797,45-47 Davenport Road,New Tupton,Derbyshire,,Thera,Hospitals/Childcare/Caring Premises,5,5,,593966,5,,,PI/000115065,068,envhealth@ne-derbyshire.gov.uk,North East Derbyshire,http://www.ne-derbyshire.gov.uk/,,,2012-07-24,fhrs_4_en-GB,4,,FHRS,10
66798,Main Road,Cutthorpe,Chesterfield,,Three Merry Lads,Pub/bar/nightclub,7843,5,,351131,5,,53.25661500000000,PI/000043216,068,envhealth@ne-derbyshire.gov.uk,North East Derbyshire,http://www.ne-derbyshire.gov.uk/,-1.48799500000000,S42 7AJ,2013-08-22,fhrs_5_en-GB,5,,FHRS,5
66799,33 - 35 Valley Road,Barlow,Dronfield,,Tickled Trout,Pub/bar/nightclub,7843,5,,718659,5,,53.27458200000000,14/00137/COMM,068,envhealth@ne-derbyshire.gov.uk,North East Derbyshire,http://www.ne-derbyshire.gov.uk/,-1.49602800000000,S18 7SL,2014-11-25,fhrs_5_en-GB,5,,FHRS,5
66800,Main Road,Stretton,Alfreton,,Tiddlers Day Nursery,Hospitals/Childcare/Caring Premises,5,5,,351141,5,,53.14583100000000,PI/000043945,068,envhealth@ne-derbyshire.gov.uk,North East Derbyshire,http://www.ne-derbyshire.gov.uk/,-1.41497600000000,DE55 6ET,2014-02-06,fhrs_5_en-GB,5,,FHRS,5
66801,Unit 1,Stubley Drive,Dronfield Woodhouse,Dronfield,Tims And Parker Pharmacy,Retailers - other,4613,,,664175,,,53.30552600000000,14/00034/COMM,068,envhealth@ne-derbyshire.gov.uk,North East Derbyshire,http://www.ne-derbyshire.gov.uk/,-1.48861100000000,S18 8YL,2014-04-16,fhrs_exempt_en-GB,Exempt,,FHRS,
66802,,,,,Tippee Toes,Other catering premises,7841,0,,606341,10,,,PI/000131674,068,envhealth@ne-derbyshire.gov.uk,North East Derbyshire,http://www.ne-derbyshire.gov.uk/,,,2013-10-07,fhrs_4_en-GB,4,,FHRS,5
66803,Main Road,Unstone,Derbyshire,,TK's Takeaway (Mobile Trader),Mobile caterer,7846,10,,351561,10,,53.28875100000000,PI/000117164,068,envhealth@ne-derbyshire.gov.uk,North East Derbyshire,http://www.ne-derbyshire.gov.uk/,-1.44006800000000,,2014-09-29,fhrs_3_en-GB,3,,FHRS,10
66804,Sheffield Road,Dronfield,,,Toby Carvery,Pub/bar/nightclub,7843,5,,351397,5,,53.31560900000000,PI/000101649,068,envhealth@ne-derbyshire.gov.uk,North East Derbyshire,http://www.ne-derbyshire.gov.uk/,-1.47558200000000,S18 2GA,2013-10-16,fhrs_5_en-GB,5,,FHRS,5
66805,,,,,Toddle Inn,Hospitals/Childcare/Caring Premises,5,0,,732308,0,,,15/00003/COMM,068,envhealth@ne-derbyshire.gov.uk,North East Derbyshire,http://www.ne-derbyshire.gov.uk/,,,2015-01-15,fhrs_5_en-GB,5,,FHRS,0
66806,5 Heath Road,Heath,Chesterfield,,Tom's Tucker,Restaurant/Cafe/Canteen,1,5,,351524,5,,53.19236600000000,PI/000114657,068,envhealth@ne-derbyshire.gov.uk,North East Derbyshire,http://www.ne-derbyshire.gov.uk/,-1.34712600000000,S44 5RP,2014-02-27,fhrs_4_en-GB,4,,FHRS,10
66807,The Log Cabin,Baslow Road,Holymoorside,,Tony And Sue Takeaway,Other catering premises,7841,5,,606342,5,,,PI/000131708,068,envhealth@ne-derbyshire.gov.uk,North East Derbyshire,http://www.ne-derbyshire.gov.uk/,,,2013-10-23,fhrs_5_en-GB,5,,FHRS,5
66808,30 Top Road,Calow,Chesterfield,,Top News,Retailers - other,4613,5,,351422,5,,53.23359600000000,PI/000101873,068,envhealth@ne-derbyshire.gov.uk,North East Derbyshire,http://www.ne-derbyshire.gov.uk/,-1.38915100000000,S44 5AA,2013-04-12,fhrs_5_en-GB,5,,FHRS,5
66809,2 Top Road,Calow,Chesterfield,,Top Shop,Retailers - other,4613,5,,351503,5,,53.23359600000000,PI/000110163,068,envhealth@ne-derbyshire.gov.uk,North East Derbyshire,http://www.ne-derbyshire.gov.uk/,-1.38915100000000,S44 5AA,2014-03-05,fhrs_4_en-GB,4,,FHRS,10
66810,Stubley Service Station,Stubley Lane,Dronfield Woodhouse,Dronfield,Total Convenience Store,Retailers - other,4613,5,,351417,5,,53.30533200000000,PI/000101815,068,envhealth@ne-derbyshire.gov.uk,North East Derbyshire,http://www.ne-derbyshire.gov.uk/,-1.49173500000000,S18 8YN,2012-03-21,fhrs_5_en-GB,5,,FHRS,5
66811,82A Heath Road,Holmewood,Chesterfield,,Traditional Butchers,Retailers - other,4613,5,,351594,5,,53.18723600000000,PI/000118844,068,envhealth@ne-derbyshire.gov.uk,North East Derbyshire,http://www.ne-derbyshire.gov.uk/,-1.35923600000000,S42 5SH,2014-08-07,fhrs_5_en-GB,5,,FHRS,5
66812,High Street,Apperknowle,Dronfield,,Travellers Rest,Pub/bar/nightclub,7843,5,,351306,10,,53.30055600000000,PI/000100733,068,envhealth@ne-derbyshire.gov.uk,North East Derbyshire,http://www.ne-derbyshire.gov.uk/,-1.42746500000000,S18 4BD,2013-02-22,fhrs_4_en-GB,4,,FHRS,5
66813,Mansfield Road,Killamarsh,Sheffield,,Travellers Rest,Pub/bar/nightclub,7843,5,,351144,5,,53.31789300000000,PI/000044664,068,envhealth@ne-derbyshire.gov.uk,North East Derbyshire,http://www.ne-derbyshire.gov.uk/,-1.29749200000000,S21 2BW,2014-09-22,fhrs_5_en-GB,5,,FHRS,5
66814,Unit 5,The Parade,Bridge Street,Clay Cross,Tri County Pizza Ltd TA Domino's Pizza,Takeaway/sandwich shop,7844,5,,510500,0,,53.16879900000000,PI/000130968,068,envhealth@ne-derbyshire.gov.uk,North East Derbyshire,http://www.ne-derbyshire.gov.uk/,-1.40951800000000,S45 9NG,2013-01-17,fhrs_5_en-GB,5,,FHRS,0
66815,Troway Hall Farm,Main Road,Troway,Marsh Lane,Troway Farm Shop,Retailers - other,4613,0,,510492,0,,53.31107800000000,PI/000124989,068,envhealth@ne-derbyshire.gov.uk,North East Derbyshire,http://www.ne-derbyshire.gov.uk/,-1.41369600000000,S21 5RU,2014-08-07,fhrs_5_en-GB,5,,FHRS,0
66816,53 Chesterfield Road,Dronfield,,,Tung Sing Chinese Takeaway,Takeaway/sandwich shop,7844,5,,351266,5,,53.30179300000000,PI/000100322,068,envhealth@ne-derbyshire.gov.uk,North East Derbyshire,http://www.ne-derbyshire.gov.uk/,-1.46941900000000,S18 2XA,2014-06-04,fhrs_4_en-GB,4,,FHRS,10
66817,Unit 2,Green Lane,New Tupton,Chesterfield,Tupton Pharmacy,Retailers - other,4613,,,351574,,,53.19051200000000,PI/000117738,068,envhealth@ne-derbyshire.gov.uk,North East Derbyshire,http://www.ne-derbyshire.gov.uk/,-1.40863600000000,S42 6BH,2012-11-16,fhrs_exempt_en-GB,Exempt,,FHRS,
66818,Queen Victoria Road,New Tupton,Chesterfield,,Tupton Primary School,School/college/university,7845,10,,351178,5,,53.19076000000000,PI/000056992,068,envhealth@ne-derbyshire.gov.uk,North East Derbyshire,http://www.ne-derbyshire.gov.uk/,-1.41170100000000,S42 6DY,2012-07-16,fhrs_4_en-GB,4,,FHRS,5
66819,2A Netherthorpe Lane,Killamarsh,Sheffield,Derbyshire,Turner's Ices,Mobile caterer,7846,5,,351368,5,,53.32451500000000,PI/000101399,068,envhealth@ne-derbyshire.gov.uk,North East Derbyshire,http://www.ne-derbyshire.gov.uk/,-1.32493300000000,S21 1DA,2013-02-22,fhrs_5_en-GB,5,,FHRS,5
66820,Church Lane,Heath,Chesterfield,,Twin Oaks Hotel,Hotel/bed & breakfast/guest house,7842,5,,401556,5,,53.19951100000000,PI/000057361,068,envhealth@ne-derbyshire.gov.uk,North East Derbyshire,http://www.ne-derbyshire.gov.uk/,-1.31806600000000,S44 6UZ,2013-09-11,fhrs_5_en-GB,5,,FHRS,5
66821,82 Ravencar Road,Eckington,Sheffield,,UK Pizza,Takeaway/sandwich shop,7844,5,,351582,5,,53.30870200000000,PI/000118543,068,envhealth@ne-derbyshire.gov.uk,North East Derbyshire,http://www.ne-derbyshire.gov.uk/,-1.37245700000000,S21 4JN,2014-09-03,fhrs_4_en-GB,4,,FHRS,10
66822,1 Barnes Lane,Dronfield Woodhouse,Dronfield,,Underwood Meat Butchers Shop,Retailers - other,4613,5,,454688,5,,53.30646600000000,PI/000131051,068,envhealth@ne-derbyshire.gov.uk,North East Derbyshire,http://www.ne-derbyshire.gov.uk/,-1.49418200000000,S18 8YE,2014-02-14,fhrs_5_en-GB,5,,FHRS,0
66823,152 High Street,Eckington,Sheffield,,Underwood Meat Eckington,Retailers - other,4613,0,,718661,0,,53.30780700000000,14/00181/COMM,068,envhealth@ne-derbyshire.gov.uk,North East Derbyshire,http://www.ne-derbyshire.gov.uk/,-1.36474100000000,S21 4DR,2014-10-23,fhrs_5_en-GB,5,,FHRS,0
66824,53 Bridge Street,Killamarsh,Sheffield,,United Co-Operatives Limited,Retailers - other,4613,5,,351251,5,,53.32362000000000,PI/000100174,068,envhealth@ne-derbyshire.gov.uk,North East Derbyshire,http://www.ne-derbyshire.gov.uk/,-1.31620900000000,S21 1AL,2014-06-18,fhrs_4_en-GB,4,,FHRS,10
66825,Chesterfield Road,Unstone,Dronfield,,Unstone Hill Farm Shop,Retailers - other,4613,0,,492710,0,,53.29333900000000,PI/000130106,068,envhealth@ne-derbyshire.gov.uk,North East Derbyshire,http://www.ne-derbyshire.gov.uk/,-1.44862500000000,S18 4AF,2014-08-07,fhrs_5_en-GB,5,,FHRS,0
66826,Main Road,Unstone,Dronfield,,Unstone Junior School,School/college/university,7845,0,,351143,5,,53.29154400000000,PI/000044013,068,envhealth@ne-derbyshire.gov.uk,North East Derbyshire,http://www.ne-derbyshire.gov.uk/,-1.44344200000000,S18 4AB,2013-07-03,fhrs_5_en-GB,5,,FHRS,5
66827,Crow Lane,Unstone,Dronfield,,Unstone St Marys School,School/college/university,7845,0,,351088,0,,53.29244600000000,PI/000018484,068,envhealth@ne-derbyshire.gov.uk,North East Derbyshire,http://www.ne-derbyshire.gov.uk/,-1.43654500000000,S18 4AL,2008-02-28,fhrs_5_en-GB,5,,FHRS,0
66828,Cullumbell Lane,Uppertown,Ashover,Chesterfield,Uppertown Social Centre,Pub/bar/nightclub,7843,0,,351220,0,,53.18217200000000,PI/000071815,068,envhealth@ne-derbyshire.gov.uk,North East Derbyshire,http://www.ne-derbyshire.gov.uk/,-1.51910800000000,S45 0JF,2014-12-22,fhrs_5_en-GB,5,,FHRS,0
66829,6 The Green,North Wingfield,Chesterfield,,Va Kei,Takeaway/sandwich shop,7844,5,,401558,5,,53.18197600000000,PI/000101861,068,envhealth@ne-derbyshire.gov.uk,North East Derbyshire,http://www.ne-derbyshire.gov.uk/,-1.38629300000000,S42 5NF,2014-09-18,fhrs_5_en-GB,5,,FHRS,5
66830,3 Station Road,Eckington,Sheffield,,Venice Pizza,Takeaway/sandwich shop,7844,10,,351560,10,,53.29997900000000,PI/000117162,068,envhealth@ne-derbyshire.gov.uk,North East Derbyshire,http://www.ne-derbyshire.gov.uk/,-1.33691900000000,S21 3WF,2014-03-25,fhrs_3_en-GB,3,,FHRS,10
66831,49 Chesterfield Road,Dronfield,,,Village Fisheries,Takeaway/sandwich shop,7844,5,,492701,5,,53.30179300000000,PI/000100318,068,envhealth@ne-derbyshire.gov.uk,North East Derbyshire,http://www.ne-derbyshire.gov.uk/,-1.46941900000000,S18 2XA,2014-06-05,fhrs_5_en-GB,5,,FHRS,5
66832,Holymoor Road,Holymoorside,Chesterfield,,Village Hall,Other catering premises,7841,,,593901,,,53.22240100000000,PI/000035668,068,envhealth@ne-derbyshire.gov.uk,North East Derbyshire,http://www.ne-derbyshire.gov.uk/,-1.49163800000000,S42 7DX,2013-03-07,fhrs_exempt_en-GB,Exempt,,FHRS,
66833,3 Chesterfield Road,Dronfield,,,Vintage Coffee Company,Restaurant/Cafe/Canteen,1,5,,594019,10,,53.30179300000000,PI/000131124,068,envhealth@ne-derbyshire.gov.uk,North East Derbyshire,http://www.ne-derbyshire.gov.uk/,-1.46941900000000,S18 2XA,2012-09-17,fhrs_4_en-GB,4,,FHRS,5
66834,48 Heath Road,Holmewood,Chesterfield,,Voyage Care,Hospitals/Childcare/Caring Premises,5,0,,492713,5,,53.18778900000000,PI/000130946,068,envhealth@ne-derbyshire.gov.uk,North East Derbyshire,http://www.ne-derbyshire.gov.uk/,-1.35675800000000,S42 5SW,2014-06-12,fhrs_5_en-GB,5,,FHRS,5
66835,,,,,Voyage Care,Hospitals/Childcare/Caring Premises,5,0,,593963,0,,,PI/000113887,068,envhealth@ne-derbyshire.gov.uk,North East Derbyshire,http://www.ne-derbyshire.gov.uk/,,,2013-05-31,fhrs_5_en-GB,5,,FHRS,0
66836,91 Chesterfield Road,Dronfield,,,Vrons,Restaurant/Cafe/Canteen,1,5,,594043,5,,53.29960100000000,PI/000131522,068,envhealth@ne-derbyshire.gov.uk,North East Derbyshire,http://www.ne-derbyshire.gov.uk/,-1.46569500000000,S18 2XE,2013-06-20,fhrs_5_en-GB,5,,FHRS,5
66837,Span Carr Farm (lomas),Matlock Road,Span Carr,Ashover,W & E E Lomas & Sons,Retailers - other,4613,5,,351689,10,,53.19010400000000,PI/000130549,068,envhealth@ne-derbyshire.gov.uk,North East Derbyshire,http://www.ne-derbyshire.gov.uk/,-1.48974500000000,S45 0LJ,2011-09-19,fhrs_3_en-GB,3,,FHRS,10
66838,Holymoor Road,Holymoorside,Chesterfield,,Walton Holymoorside Primary School,School/college/university,7845,5,,351125,5,,53.22479700000000,PI/000035663,068,envhealth@ne-derbyshire.gov.uk,North East Derbyshire,http://www.ne-derbyshire.gov.uk/,-1.48874900000000,S42 7DU,2013-05-21,fhrs_5_en-GB,5,,FHRS,5
66839,Eckington Road,Coal Aston,Dronfield,,Wards Nursery And Garden Centre Ltd,Retailers - other,4613,5,,351094,5,,53.31003600000000,PI/000022135,068,envhealth@ne-derbyshire.gov.uk,North East Derbyshire,http://www.ne-derbyshire.gov.uk/,-1.43247100000000,S18 3BA,2013-07-17,fhrs_5_en-GB,5,,FHRS,5
66840,The Green,Wessington,Alfreton,,Wessington Primary School,School/college/university,7845,5,,510481,5,,53.11575300000000,PI/000069836,068,envhealth@ne-derbyshire.gov.uk,North East Derbyshire,http://www.ne-derbyshire.gov.uk/,-1.44674500000000,DE55 6DQ,2014-02-13,fhrs_5_en-GB,5,,FHRS,5
66841,Westthorpe Road,Killamarsh,Sheffield,Derbyshire,West End Hotel,Pub/bar/nightclub,7843,5,,351229,5,,53.31640500000000,PI/000073991,068,envhealth@ne-derbyshire.gov.uk,North East Derbyshire,http://www.ne-derbyshire.gov.uk/,-1.31665500000000,S21 1EU,2013-03-15,fhrs_5_en-GB,5,,FHRS,5
66842,,,,,What's The Occasion,Other catering premises,7841,5,,351629,5,,,PI/000129727,068,envhealth@ne-derbyshire.gov.uk,North East Derbyshire,http://www.ne-derbyshire.gov.uk/,,,2014-06-25,fhrs_5_en-GB,5,,FHRS,5
66843,Main Road,Stretton,Alfreton,,White Bear Inn,Pub/bar/nightclub,7843,5,,351479,5,,53.14583100000000,PI/000105671,068,envhealth@ne-derbyshire.gov.uk,North East Derbyshire,http://www.ne-derbyshire.gov.uk/,-1.41497600000000,DE55 6ET,2014-03-21,fhrs_5_en-GB,5,,FHRS,5
66844,22 St Lawrence Road,North Wingfield,Chesterfield,,White Hart,Pub/bar/nightclub,7843,10,,351196,10,,53.18029300000000,PI/000065103,068,envhealth@ne-derbyshire.gov.uk,North East Derbyshire,http://www.ne-derbyshire.gov.uk/,-1.38761900000000,S42 5LH,2013-06-13,fhrs_3_en-GB,3,,FHRS,10
66845,Main Road,Wigley,Chesterfield,Derbyshire,Wigley Primary School,School/college/university,7845,5,,351231,5,,53.24308200000000,PI/000075007,068,envhealth@ne-derbyshire.gov.uk,North East Derbyshire,http://www.ne-derbyshire.gov.uk/,-1.52834600000000,S42 7JJ,2013-11-13,fhrs_5_en-GB,5,,FHRS,5
66846,Sitwell Arms Hotel,39 Station Road,Renishaw,Sheffield,Wild Boar Inns Ltd,Hotel/bed & breakfast/guest house,7842,0,,351202,5,,53.29997900000000,PI/000066452,068,envhealth@ne-derbyshire.gov.uk,North East Derbyshire,http://www.ne-derbyshire.gov.uk/,-1.33691900000000,S21 3WF,2013-08-06,fhrs_4_en-GB,4,,FHRS,10
66847,Smithy Croft,Dronfield Woodhouse,Dronfield,,William Levick Primary School,School/college/university,7845,0,,351193,5,,53.30533600000000,PI/000063119,068,envhealth@ne-derbyshire.gov.uk,North East Derbyshire,http://www.ne-derbyshire.gov.uk/,-1.49893800000000,S18 8YB,2013-10-23,fhrs_5_en-GB,5,,FHRS,5
66848,Tibshelf Road,Holmewood,Chesterfield,Derbyshire,Windy Ridge,Farmers/growers,7838,,,593922,,,53.18511000000000,PI/000070516,068,envhealth@ne-derbyshire.gov.uk,North East Derbyshire,http://www.ne-derbyshire.gov.uk/,-1.36176600000000,S42 5TA,2013-03-07,fhrs_exempt_en-GB,Exempt,,FHRS,
66849,All Saints Parish Church Hall,Longedge Lane,Wingerworth,Chesterfield,Wingerworth Church Centre,Other catering premises,7841,5,,351129,5,,53.20329300000000,PI/000040560,068,envhealth@ne-derbyshire.gov.uk,North East Derbyshire,http://www.ne-derbyshire.gov.uk/,-1.42684500000000,S42 6PF,2014-09-03,fhrs_5_en-GB,5,,FHRS,5
66850,4 Edinburgh Court,Wingerworth,Chesterfield,,Wingerworth Fish Bar,Takeaway/sandwich shop,7844,5,,351605,5,,53.20649700000000,PI/000124223,068,envhealth@ne-derbyshire.gov.uk,North East Derbyshire,http://www.ne-derbyshire.gov.uk/,-1.44476900000000,S42 6SH,2014-08-07,fhrs_4_en-GB,4,,FHRS,10
66851,77 Station Road,Hepthorne Lane,North Wingfield,Chesterfield,Wingfield Store,Retailers - other,4613,10,,351670,5,,53.17954700000000,PI/000130307,068,envhealth@ne-derbyshire.gov.uk,North East Derbyshire,http://www.ne-derbyshire.gov.uk/,-1.39642800000000,S42 5JJ,2013-01-30,fhrs_3_en-GB,3,,FHRS,10
66852,17-19 Wesley Road,Stonebroom,Derbyshire,,Wizard,Retailers - other,4613,5,,351449,5,,53.12923500000000,PI/000102742,068,envhealth@ne-derbyshire.gov.uk,North East Derbyshire,http://www.ne-derbyshire.gov.uk/,-1.39105000000000,DE55 6JA,2014-10-16,fhrs_5_en-GB,5,,FHRS,5
66853,6 Greendale Shopping Centre,Green Lane,Dronfield,,Wok Wonder,Takeaway/sandwich shop,7844,5,,351444,5,,53.30467400000000,PI/000102635,068,envhealth@ne-derbyshire.gov.uk,North East Derbyshire,http://www.ne-derbyshire.gov.uk/,-1.46456600000000,S18 2LJ,2014-09-17,fhrs_5_en-GB,5,,FHRS,5
66854,65 Holmesdale Road,Dronfield,,,Wonderful Chinese,Takeaway/sandwich shop,7844,5,,351552,5,,53.30735100000000,PI/000116948,068,envhealth@ne-derbyshire.gov.uk,North East Derbyshire,http://www.ne-derbyshire.gov.uk/,-1.46021000000000,S18 2FA,2013-09-11,fhrs_4_en-GB,4,,FHRS,10
66855,16 High Street,Clay Cross,Chesterfield,,Wong's Kitchen (Clay Cross) Ltd,Takeaway/sandwich shop,7844,5,,351307,5,,53.16770600000000,PI/000100740,068,envhealth@ne-derbyshire.gov.uk,North East Derbyshire,http://www.ne-derbyshire.gov.uk/,-1.41584600000000,S45 9DY,2013-08-28,fhrs_5_en-GB,5,,FHRS,5
66856,Tupton Way,Holmewood,Chesterfield,,Yearsley Group,Distributors/Transporters,7,,,351571,,,53.19273000000000,PI/000117465,068,envhealth@ne-derbyshire.gov.uk,North East Derbyshire,http://www.ne-derbyshire.gov.uk/,-1.36115900000000,S42 5BX,2013-04-23,fhrs_exempt_en-GB,Exempt,,FHRS,
66857,234 Holmley Lane,Coal Aston,Dronfield,,Yew Tree Inn,Pub/bar/nightclub,7843,5,,351123,10,,53.31098800000000,PI/000035420,068,envhealth@ne-derbyshire.gov.uk,North East Derbyshire,http://www.ne-derbyshire.gov.uk/,-1.46337600000000,S18 3DB,2009-01-20,fhrs_4_en-GB,4,,FHRS,5
66858,93 Chesterfield Road,Dronfield,,,Yit Hing,Takeaway/sandwich shop,7844,10,,351268,10,,53.29960100000000,PI/000100332,068,envhealth@ne-derbyshire.gov.uk,North East Derbyshire,http://www.ne-derbyshire.gov.uk/,-1.46569500000000,S18 2XE,2014-06-17,fhrs_3_en-GB,3,,FHRS,10
66859,80 Ravencar Road,Eckington,Sheffield,,Your Local Convenience Store,Retailers - other,4613,10,,726369,10,,53.30870200000000,14/00092/COMM,068,envhealth@ne-derbyshire.gov.uk,North East Derbyshire,http://www.ne-derbyshire.gov.uk/,-1.37245700000000,S21 4JN,2014-12-01,fhrs_3_en-GB,3,,FHRS,10
66860,192 North Wingfield Road,Grassmoor,Chesterfield,,Yummies,Restaurant/Cafe/Canteen,1,10,,664208,5,,53.20101200000000,14/00078/COMM,068,envhealth@ne-derbyshire.gov.uk,North East Derbyshire,http://www.ne-derbyshire.gov.uk/,-1.39808800000000,S42 5ED,2014-04-24,fhrs_4_en-GB,4,,FHRS,5
66861,,,,,Yummy Yummy,Mobile caterer,7846,10,,594032,5,,,PI/000131424,068,envhealth@ne-derbyshire.gov.uk,North East Derbyshire,http://www.ne-derbyshire.gov.uk/,,,2013-06-28,fhrs_4_en-GB,4,,FHRS,5
