,addressline1,addressline2,addressline3,addressline4,businessname,businesstype,businesstypeid,confidenceinmanagement,extractdate,fhrsid,hygiene,itemcount,latitude,localauthoritybusinessid,localauthoritycode,localauthorityemailaddress,localauthorityname,localauthoritywebsite,longitude,postcode,ratingdate,ratingkey,ratingvalue,returncode,schemetype,structural
73855,Twyford Road,Willington,Derbyshire,,1st Willington Scout Group,Other catering premises,7841,,,727430,,,,C04150TWYF/1,069,environmental.health@south-derbys.gov.uk,South Derbyshire,http://www.south-derbys.gov.uk,,DE65 6DF,2013-10-02,fhrs_exempt_en-GB,Exempt,,FHRS,
73856,Woodville Scout Centre,Rose Hill,"Woodville, Swadlincote, Derbys",,1st Woodville (St. Stephens) Scout Group,Other catering premises,7841,,,727426,,,52.77059700000000,C04*51WOOD/1,069,environmental.health@south-derbys.gov.uk,South Derbyshire,http://www.south-derbys.gov.uk,-1.53943800000000,DE11 7JQ,2013-03-01,fhrs_exempt_en-GB,Exempt,,FHRS,
73857,John Street,Church Gresley,"Swadlincote, Derbyshire",,50's American Diner,Restaurant/Cafe/Canteen,1,0,,152206,5,,52.76440100000000,C03143JOHN/1,069,environmental.health@south-derbys.gov.uk,South Derbyshire,http://www.south-derbys.gov.uk,-1.55272300000000,DE11 8EJ,2014-02-08,fhrs_5_en-GB,5,,FHRS,5
73858,,,,,A & S Mobile Catering,Mobile caterer,7846,0,,727449,0,,,C0914314DR/1,069,environmental.health@south-derbys.gov.uk,South Derbyshire,http://www.south-derbys.gov.uk,,,2013-03-28,fhrs_5_en-GB,5,,FHRS,0
73859,45 Linton Road,Castle Gresley,"Swadlincote, Derbyshire",,A&B Stores,Retailers - other,4613,20,,627034,10,,52.75396100000000,1AB10945LI/1,069,environmental.health@south-derbys.gov.uk,South Derbyshire,http://www.south-derbys.gov.uk,-1.58409200000000,DE11 9HS,2014-01-08,fhrs_1_en-GB,1,,FHRS,15
73860,23b High Street,Newhall,"Swadlincote, Derbyshire",,Albany Cakes,Retailers - other,4613,10,,157645,5,,52.78514400000000,F0214323BH/1,069,environmental.health@south-derbys.gov.uk,South Derbyshire,http://www.south-derbys.gov.uk,-1.57608500000000,DE11 0HX,2014-02-04,fhrs_3_en-GB,3,,FHRS,10
73861,Coppice Side,Swadlincote,Derbyshire,,Aldi Stores Limited,Retailers - supermarkets/hypermarkets,7840,0,,611347,0,,52.77075100000000,1AB543COPP/1,069,environmental.health@south-derbys.gov.uk,South Derbyshire,http://www.south-derbys.gov.uk,-1.55376900000000,DE11 9AA,2013-09-16,fhrs_5_en-GB,5,,FHRS,0
73862,Huntspill Road,Hilton,Derby,,Aldi Stores Ltd,Retailers - supermarkets/hypermarkets,7840,5,,643770,5,,52.87158600000000,1AB125HUNT/1,069,environmental.health@south-derbys.gov.uk,South Derbyshire,http://www.south-derbys.gov.uk,-1.62949900000000,DE65 5JR,2014-04-23,fhrs_5_en-GB,5,,FHRS,5
73863,59 Derby Road,Melbourne,"Derby, Derbyshire",,Alma Inn,Pub/bar/nightclub,7843,5,,211010,5,,52.82468600000000,1AB53159DE/1,069,environmental.health@south-derbys.gov.uk,South Derbyshire,http://www.south-derbys.gov.uk,-1.42922500000000,DE73 8FE,2013-03-19,fhrs_5_en-GB,5,,FHRS,5
73864,50 Derby Road,Melbourne,"Derby, Derbyshire",,Amalfi White Bar and Restaurant,Restaurant/Cafe/Canteen,1,10,,621045,10,,52.82468600000000,1AB53150DE/1,069,environmental.health@south-derbys.gov.uk,South Derbyshire,http://www.south-derbys.gov.uk,-1.42922500000000,DE73 8FE,2013-12-11,fhrs_3_en-GB,3,,FHRS,10
73865,53 Market Street,Church Gresley,"Swadlincote, Derbyshire",,Andy's Fish Bar,Takeaway/sandwich shop,7844,5,,153040,5,,52.76420000000000,C1214353MA/1,069,environmental.health@south-derbys.gov.uk,South Derbyshire,http://www.south-derbys.gov.uk,-1.55932000000000,DE11 9PR,2014-11-05,fhrs_5_en-GB,5,,FHRS,5
73866,Church Street,Swadlincote,Derbyshire,,Angel Inn,Pub/bar/nightclub,7843,10,,230324,5,,52.77477200000000,1AB143CHUR/1,069,environmental.health@south-derbys.gov.uk,South Derbyshire,http://www.south-derbys.gov.uk,-1.55217200000000,DE11 8LF,2013-08-08,fhrs_4_en-GB,4,,FHRS,5
73867,Derby Road,Egginton,"Derby, Derbyshire",,Anoki,Restaurant/Cafe/Canteen,1,5,,230328,5,,52.84819400000000,1AB117DERB/1,069,environmental.health@south-derbys.gov.uk,South Derbyshire,http://www.south-derbys.gov.uk,-1.59070600000000,DE65 6GZ,2014-03-27,fhrs_5_en-GB,5,,FHRS,5
73868,Ash Lane,Etwall,"Derby, Derbyshire",,Ashe Fields Rest Home,Hospitals/Childcare/Caring Premises,5,,,151799,,,52.89635400000000,BLB*01ASHL/1,069,environmental.health@south-derbys.gov.uk,South Derbyshire,http://www.south-derbys.gov.uk,-1.61894200000000,DE65 6HT,2014-07-30,fhrs_5_en-GB,5,,FHRS,
73869,1 Derby Road,Aston On Trent,"Derby, Derbyshire",,Aston on Trent Post Office,Retailers - other,4613,5,,595307,0,,52.86477600000000,1AB5021DER/1,069,environmental.health@south-derbys.gov.uk,South Derbyshire,http://www.south-derbys.gov.uk,-1.38538400000000,DE72 2AE,2013-10-15,fhrs_5_en-GB,5,,FHRS,0
73870,Long Croft,Aston On Trent,"Derby, Derbyshire",,Aston On Trent Primary School,School/college/university,7845,5,,159738,5,,52.86282800000000,P01X02LONG/1,069,environmental.health@south-derbys.gov.uk,South Derbyshire,http://www.south-derbys.gov.uk,-1.38600600000000,DE72 2UH,2015-01-28,fhrs_5_en-GB,5,,FHRS,5
73871,194 Station Road,Hatton,"Derby, Derbyshire",,Atwal Stores,Retailers - other,4613,0,,230327,0,,52.86931400000000,1AB124194S/1,069,environmental.health@south-derbys.gov.uk,South Derbyshire,http://www.south-derbys.gov.uk,-1.67980500000000,DE65 5EH,2013-01-28,fhrs_5_en-GB,5,,FHRS,5
73872,39 Linton Road,Castle Gresley,"Swadlincote, Derbyshire",,B J Wilson Retail Pharmacy,Retailers - other,4613,,,727513,,,52.75396100000000,F0810939LI/1,069,environmental.health@south-derbys.gov.uk,South Derbyshire,http://www.south-derbys.gov.uk,-1.58409200000000,DE11 9HS,2012-07-16,fhrs_exempt_en-GB,Exempt,,FHRS,
73873,43 High Street,Swadlincote,Derbyshire,,B&M Stores,Retailers - other,4613,10,,543312,10,,52.77351900000000,1AB54343HI/1,069,environmental.health@south-derbys.gov.uk,South Derbyshire,http://www.south-derbys.gov.uk,-1.55583100000000,DE11 8JE,2013-04-23,fhrs_3_en-GB,3,,FHRS,10
73874,Drakelow Road,Walton On Trent,"Swadlincote, Derbyshire",,Badger's Rest Guest House B&B,Hotel/bed & breakfast/guest house,7842,5,,578439,5,,52.76736200000000,BTBX48DRAK/1,069,environmental.health@south-derbys.gov.uk,South Derbyshire,http://www.south-derbys.gov.uk,-1.65640900000000,DE15 9TY,2013-08-16,fhrs_5_en-GB,5,,FHRS,0
73875,128 Wilmot Road,Swadlincote,Derbyshire,,Bargain Booze Select Convenience,Retailers - other,4613,10,,283254,5,,52.76957300000000,1AB143128W/1,069,environmental.health@south-derbys.gov.uk,South Derbyshire,http://www.south-derbys.gov.uk,-1.56085100000000,DE11 9BJ,2014-01-23,fhrs_4_en-GB,4,,FHRS,5
73876,Brookfield,Barrow On Trent,Derby,,Barrow On Trent Social Club,Pub/bar/nightclub,7843,5,,230325,5,,51.08562850952148,1AB103BROO/1,069,environmental.health@south-derbys.gov.uk,South Derbyshire,http://www.south-derbys.gov.uk,-3.10440993309021,DE73 7HG,2012-08-16,fhrs_5_en-GB,5,,FHRS,5
73877,Twyford Road,Barrow On Trent,"Derby, Derbyshire",,Barrow on Trent Village Hall,Other catering premises,7841,,,727413,,,52.85350500000000,1AB103TWYF/1,069,environmental.health@south-derbys.gov.uk,South Derbyshire,http://www.south-derbys.gov.uk,-1.48204100000000,DE73 7HA,2013-06-13,fhrs_exempt_en-GB,Exempt,,FHRS,
73878,Heage Lane,Etwall,Derby,,Bay Tree Day Nursery,Hospitals/Childcare/Caring Premises,5,5,,669021,0,,52.89722600000000,C07519HEAG/1,069,environmental.health@south-derbys.gov.uk,South Derbyshire,http://www.south-derbys.gov.uk,-1.59448100000000,DE65 6LS,2014-06-02,fhrs_5_en-GB,5,,FHRS,0
73879,Heage Lane,Etwall,Derby,,Bearwardcote Hall,Hospitals/Childcare/Caring Premises,5,5,,151801,10,,52.89722600000000,BLB119HEAG/1,069,environmental.health@south-derbys.gov.uk,South Derbyshire,http://www.south-derbys.gov.uk,-1.59448100000000,DE65 6LS,2013-11-28,fhrs_4_en-GB,4,,FHRS,5
73880,Belmont Street,Swadlincote,Derbyshire,,Belmont Primary School,School/college/university,7845,5,,159736,5,,52.77561100000000,P01I43BELM/1,069,environmental.health@south-derbys.gov.uk,South Derbyshire,http://www.south-derbys.gov.uk,-1.55296400000000,DE11 8JZ,2014-01-23,fhrs_5_en-GB,5,,FHRS,5
73881,Belmont Street,Swadlincote,Derbyshire,,Belmont Services Club Ltd,Pub/bar/nightclub,7843,5,,230318,5,,52.77475600000000,1AB143BELM/1,069,environmental.health@south-derbys.gov.uk,South Derbyshire,http://www.south-derbys.gov.uk,-1.55509200000000,DE11 8JU,2013-03-05,fhrs_5_en-GB,5,,FHRS,5
73882,The Castle Way,Willington,"Derby, Derbyshire",,Betty's Farm,Retailers - other,4613,0,,688630,0,,52.85252000000000,1AB150THEC/1,069,environmental.health@south-derbys.gov.uk,South Derbyshire,http://www.south-derbys.gov.uk,-1.58096900000000,DE65 6BW,2014-02-11,fhrs_5_en-GB,5,,FHRS,0
73883,16 High Street,Swadlincote,Derbyshire,,Birds (Derby) Ltd,Retailers - other,4613,5,,157644,5,,52.77327700000000,F0214316HI/1,069,environmental.health@south-derbys.gov.uk,South Derbyshire,http://www.south-derbys.gov.uk,-1.55617400000000,DE11 8HY,2014-03-26,fhrs_5_en-GB,5,,FHRS,5
73884,32 Market Place,Melbourne,Derby,,Birds (Derby) Ltd,Retailers - other,4613,5,,157643,5,,52.82298400000000,F0213132MA/1,069,environmental.health@south-derbys.gov.uk,South Derbyshire,http://www.south-derbys.gov.uk,-1.42868300000000,DE73 8DS,2013-06-18,fhrs_5_en-GB,5,,FHRS,5
73885,39 Victoria Street,Melbourne,"Derby, Derbyshire",,Bittersweet Chocolates,Manufacturers/packers,7839,,,727530,,,52.82556400000000,IFZX3139VI/1,069,environmental.health@south-derbys.gov.uk,South Derbyshire,http://www.south-derbys.gov.uk,-1.43249300000000,DE73 8FR,2012-06-28,fhrs_exempt_en-GB,Exempt,,FHRS,
73886,17 Burton Road,Coton In The Elms,"Swadlincote, Derbyshire",,Black Horse Inn,Pub/bar/nightclub,7843,5,,230323,5,,52.73459600000000,1AB11317BU/1,069,environmental.health@south-derbys.gov.uk,South Derbyshire,http://www.south-derbys.gov.uk,-1.63569600000000,DE12 8HJ,2012-02-02,fhrs_5_en-GB,5,,FHRS,5
73887,Newton Road,Newton Solney,"Burton On Trent, Derbyshire",,Bladon House School,School/college/university,7845,0,,595308,0,,52.81957900000000,L25X33NEWT/1,069,environmental.health@south-derbys.gov.uk,South Derbyshire,http://www.south-derbys.gov.uk,-1.60357300000000,DE15 0TA,2014-05-22,fhrs_5_en-GB,5,,FHRS,0
73888,Newhall Centre,Meadow Lane,"Newhall, Swadlincote",,Blooming Marvels,Retailers - other,4613,0,,185364,0,,52.77909800000000,R20243NEWH/1,069,environmental.health@south-derbys.gov.uk,South Derbyshire,http://www.south-derbys.gov.uk,-1.57200800000000,DE11 0UW,2014-01-28,fhrs_5_en-GB,5,,FHRS,0
73889,53 Church Street,Melbourne,"Derby, Derbyshire",,Blue Bell Inn,Pub/bar/nightclub,7843,,,230333,,,52.82207200000000,1AB13153CH/1,069,environmental.health@south-derbys.gov.uk,South Derbyshire,http://www.south-derbys.gov.uk,-1.42599500000000,DE73 8EJ,2014-11-27,fhrs_4_en-GB,4,,FHRS,
73890,,,,,Bluebelle Bakery,Other catering premises,7841,0,,636840,0,,,C0955193BU/1,069,environmental.health@south-derbys.gov.uk,South Derbyshire,http://www.south-derbys.gov.uk,,,2014-03-04,fhrs_5_en-GB,5,,FHRS,0
73891,36 High Street,Woodville,"Swadlincote, Derbyshire",,Bombay Spice,Restaurant/Cafe/Canteen,1,5,,230321,0,,52.76724000000000,1AB15136HI/1,069,environmental.health@south-derbys.gov.uk,South Derbyshire,http://www.south-derbys.gov.uk,-1.53144000000000,DE11 7EA,2013-07-16,fhrs_5_en-GB,5,,FHRS,5
73892,Etwall Road,Mickleover,"Derby, Derbyshire",,Bonehills Farm,Hotel/bed & breakfast/guest house,7842,10,,151838,5,,52.89898700000000,BTBX07ETWA/1,069,environmental.health@south-derbys.gov.uk,South Derbyshire,http://www.south-derbys.gov.uk,-1.57112600000000,DE3 0DN,2013-09-11,fhrs_4_en-GB,4,,FHRS,5
73893,Birch Avenue,Newhall,"Swadlincote, Derbyshire",,Boomerangs Day Nursery,Hospitals/Childcare/Caring Premises,5,0,,152644,0,,52.78539300000000,C07143BIRC/1,069,environmental.health@south-derbys.gov.uk,South Derbyshire,http://www.south-derbys.gov.uk,-1.57015200000000,DE11 0NQ,2013-10-31,fhrs_5_en-GB,5,,FHRS,0
73894,15-17 High Street,Swadlincote,Derbyshire,,Boots the Chemist,Retailers - other,4613,,,727515,,,52.77351900000000,F0814315-1/1,069,environmental.health@south-derbys.gov.uk,South Derbyshire,http://www.south-derbys.gov.uk,-1.55583100000000,DE11 8JE,2011-11-28,fhrs_exempt_en-GB,Exempt,,FHRS,
73895,1a Lime Tree Avenue,Midway,"Swadlincote, Derbyshire",,Booze Buster,Retailers - other,4613,10,,230329,10,,52.78661800000000,1AB1431ALI/1,069,environmental.health@south-derbys.gov.uk,South Derbyshire,http://www.south-derbys.gov.uk,-1.55863400000000,DE11 0HD,2013-07-31,fhrs_3_en-GB,3,,FHRS,10
73896,,,,,Brassica's,Other catering premises,7841,5,,727466,0,,,C09531MELB/1,069,environmental.health@south-derbys.gov.uk,South Derbyshire,http://www.south-derbys.gov.uk,,,2014-04-08,fhrs_5_en-GB,5,,FHRS,0
73897,Etwall Road,Willington,"Derby, Derbyshire",,Break-Feast King,Takeaway/sandwich shop,7844,0,,283319,0,,52.86423300000000,C09150ETWA/1,069,environmental.health@south-derbys.gov.uk,South Derbyshire,http://www.south-derbys.gov.uk,-1.56836400000000,DE65 6HE,2014-02-10,fhrs_5_en-GB,5,,FHRS,0
73898,Derby Road,Swarkestone,"Derby, Derbyshire",,Bridge Barn Executive Suites,Hotel/bed & breakfast/guest house,7842,5,,151837,0,,52.85497100000000,BTB144DERB/1,069,environmental.health@south-derbys.gov.uk,South Derbyshire,http://www.south-derbys.gov.uk,-1.45019800000000,DE73 7JB,2014-06-24,fhrs_5_en-GB,5,,FHRS,5
73899,Derby Road,Egginton,"Derby, Derbyshire",,Brobot Petroleum Ltd Northbound,Retailers - other,4613,5,,446403,5,,52.85435800000000,1AB*17DERB/1,069,environmental.health@south-derbys.gov.uk,South Derbyshire,http://www.south-derbys.gov.uk,-1.58222800000000,DE65 6GY,2014-02-26,fhrs_5_en-GB,5,,FHRS,5
73900,Derby Road,Egginton,"Derby, Derbyshire",,Brobot Petroleum Southbound,Retailers - other,4613,0,,446404,0,,52.85435800000000,1AB*17DERB/2,069,environmental.health@south-derbys.gov.uk,South Derbyshire,http://www.south-derbys.gov.uk,-1.58222800000000,DE65 6GY,2014-02-18,fhrs_5_en-GB,5,,FHRS,0
73901,,,,,Brook House Bakery,Mobile caterer,7846,0,,730965,0,,,C09*42BROO/1,069,environmental.health@south-derbys.gov.uk,South Derbyshire,http://www.south-derbys.gov.uk,,,2012-05-02,fhrs_5_en-GB,5,,FHRS,0
73902,21 Station Road,Hatton,Derby,,Brookfields Day Nursery,Hospitals/Childcare/Caring Premises,5,10,,669022,15,,52.86589300000000,C0752421ST/1,069,environmental.health@south-derbys.gov.uk,South Derbyshire,http://www.south-derbys.gov.uk,-1.68146400000000,DE65 5EL,2014-06-05,fhrs_2_en-GB,2,,FHRS,10
73903,38a Station Road,Hatton,"Derby, Derbyshire",,Brooks Butchers,Retailers - other,4613,5,,157636,0,,52.86441100000000,F0112438AS/1,069,environmental.health@south-derbys.gov.uk,South Derbyshire,http://www.south-derbys.gov.uk,-1.68190600000000,DE65 5DW,2013-07-08,fhrs_5_en-GB,5,,FHRS,5
73904,Bent Lane,Church Broughton,"Derby, Derbyshire",,Broughton Heath Golf Club,Pub/bar/nightclub,7843,5,,230319,5,,52.88699500000000,1AB112BENT/1,069,environmental.health@south-derbys.gov.uk,South Derbyshire,http://www.south-derbys.gov.uk,-1.68281100000000,DE65 5BA,2014-01-28,fhrs_5_en-GB,5,,FHRS,5
73905,Stenson Road,Stenson,"Derby, Derbyshire",,Bubble Inn,Pub/bar/nightclub,7843,5,,230326,5,,52.86700800000000,1AB515STEN/1,069,environmental.health@south-derbys.gov.uk,South Derbyshire,http://www.south-derbys.gov.uk,-1.51625500000000,DE73 7HL,2014-07-24,fhrs_5_en-GB,5,,FHRS,5
73906,Twyford Road,Willington,"Derby, Derbyshire",,Buddy's Convenience Store,Retailers - other,4613,10,,588888,0,,52.85396200000000,F06550TWYF/1,069,environmental.health@south-derbys.gov.uk,South Derbyshire,http://www.south-derbys.gov.uk,-1.54761500000000,DE65 6PP,2013-09-18,fhrs_4_en-GB,4,,FHRS,0
73907,,,,,Buffalo Brownies Ltd,Other catering premises,7841,0,,727464,0,,,C0952542BR/1,069,environmental.health@south-derbys.gov.uk,South Derbyshire,http://www.south-derbys.gov.uk,,,2014-03-07,fhrs_5_en-GB,5,,FHRS,0
73908,William Nadin Way,Swadlincote,Derbyshire,,Burton & South Derbyshire College,Restaurant/Cafe/Canteen,1,0,,511397,5,,52.77067700000000,C03543WILL/1,069,environmental.health@south-derbys.gov.uk,South Derbyshire,http://www.south-derbys.gov.uk,-1.58276200000000,DE11 0BB,2015-01-07,fhrs_5_en-GB,5,,FHRS,0
73909,Ashby Road East,Bretby,"Burton On Trent, Derbyshire",,Burton on Trent Golf Club,Pub/bar/nightclub,7843,5,,230322,0,,52.79854900000000,1AB106ASHB/1,069,environmental.health@south-derbys.gov.uk,South Derbyshire,http://www.south-derbys.gov.uk,-1.58408300000000,DE15 0PS,2014-03-13,fhrs_5_en-GB,5,,FHRS,0
73910,Ticknall Road,Milton,Derby,,Burton Sailing Club,Pub/bar/nightclub,7843,10,,669013,5,,52.82224500000000,1AB121TICK/1,069,environmental.health@south-derbys.gov.uk,South Derbyshire,http://www.south-derbys.gov.uk,-1.51304200000000,DE65 6EG,2013-06-25,fhrs_4_en-GB,4,,FHRS,5
73911,Waterside Road,Stapenhill,Burton on Trent,,Burton Watersport Club,Pub/bar/nightclub,7843,,,727421,,,52.78705400000000,1AB416WATE/1,069,environmental.health@south-derbys.gov.uk,South Derbyshire,http://www.south-derbys.gov.uk,-1.63694900000000,DE15 9JL,2014-03-10,fhrs_exempt_en-GB,Exempt,,FHRS,
73912,Market Street,Swadlincote,Derbyshire,,Bus Park Cafe,Restaurant/Cafe/Canteen,1,5,,595309,0,,52.77384400000000,L25X43MARK/1,069,environmental.health@south-derbys.gov.uk,South Derbyshire,http://www.south-derbys.gov.uk,-1.55860000000000,DE11 9DA,2013-08-21,fhrs_5_en-GB,5,,FHRS,5
73913,Staunton Harold Reservoir,Ashby Road,"Melbourne, Derbyshire",,Cafe,Restaurant/Cafe/Canteen,1,5,,454742,5,,52.83306600000000,C03431STAU/1,069,environmental.health@south-derbys.gov.uk,South Derbyshire,http://www.south-derbys.gov.uk,-1.44804500000000,DE73 1ES,2014-04-15,fhrs_5_en-GB,5,,FHRS,5
73914,34-36 High Street,Swadlincote,Derbyshire,,Cafe Espresso,Restaurant/Cafe/Canteen,1,0,,189866,0,,52.77327700000000,C0254334-3/1,069,environmental.health@south-derbys.gov.uk,South Derbyshire,http://www.south-derbys.gov.uk,-1.55617400000000,DE11 8HY,2013-07-10,fhrs_5_en-GB,5,,FHRS,0
73915,West Street,Swadlincote,Derbyshire,,Cafe Espresso @ Sharps,Restaurant/Cafe/Canteen,1,10,,370891,5,,52.77330200000000,C03443WEST/1,069,environmental.health@south-derbys.gov.uk,South Derbyshire,http://www.south-derbys.gov.uk,-1.55787900000000,DE11 9DG,2014-04-02,fhrs_4_en-GB,4,,FHRS,5
73916,Ashby Road East,Bretby,Burton On Trent,,Cafe in the Park,Restaurant/Cafe/Canteen,1,10,,710102,0,,52.79226000000000,C03506ASHB/1,069,environmental.health@south-derbys.gov.uk,South Derbyshire,http://www.south-derbys.gov.uk,-1.57238300000000,DE15 0YZ,2014-10-22,fhrs_4_en-GB,4,,FHRS,5
73917,,,,,Cake House,Other catering premises,7841,5,,727461,5,,,C095092CED/1,069,environmental.health@south-derbys.gov.uk,South Derbyshire,http://www.south-derbys.gov.uk,,,2013-08-27,fhrs_5_en-GB,5,,FHRS,0
73918,,,,,Cake Queen,Other catering premises,7841,0,,727444,0,,,C0911931OL/1,069,environmental.health@south-derbys.gov.uk,South Derbyshire,http://www.south-derbys.gov.uk,,,2013-11-08,fhrs_5_en-GB,5,,FHRS,0
73919,,,,,Cake-e-licious,Other catering premises,7841,0,,735987,0,,,C0952520WE/1,069,environmental.health@south-derbys.gov.uk,South Derbyshire,http://www.south-derbys.gov.uk,,,2013-05-03,fhrs_5_en-GB,5,,FHRS,0
73920,Main Street,Ticknall,"Derby, Derbyshire",,Calke Abbey Restaurant,Restaurant/Cafe/Canteen,1,0,,152208,0,,52.80487900000000,C03145MAIN/1,069,environmental.health@south-derbys.gov.uk,South Derbyshire,http://www.south-derbys.gov.uk,-1.47143400000000,DE73 7LE,2013-09-17,fhrs_5_en-GB,5,,FHRS,0
73921,Main Street,Ticknall,"Derby, Derbyshire",,Calke Abbey Shop,Retailers - other,4613,0,,157785,0,,52.80487900000000,F99145MAIN/1,069,environmental.health@south-derbys.gov.uk,South Derbyshire,http://www.south-derbys.gov.uk,-1.47143400000000,DE73 7LE,2014-02-28,fhrs_5_en-GB,5,,FHRS,0
73922,1 Kennel Cottages,Broadstone Lane,"Ticknall, Derby, Derbyshire",,Calke Pork,Manufacturers/packers,7839,,,727529,,,52.80808600000000,IFG5451KEN/1,069,environmental.health@south-derbys.gov.uk,South Derbyshire,http://www.south-derbys.gov.uk,-1.45893400000000,DE73 7LD,2013-06-05,fhrs_exempt_en-GB,Exempt,,FHRS,
73923,26 High Street,Swadlincote,Derbyshire,,Cashino,Restaurant/Cafe/Canteen,1,0,,510360,0,,52.77327700000000,L0714326HI/1,069,environmental.health@south-derbys.gov.uk,South Derbyshire,http://www.south-derbys.gov.uk,-1.55617400000000,DE11 8HY,2014-01-22,fhrs_5_en-GB,5,,FHRS,0
73924,Arthur Street,Castle Gresley,Swadlincote,,Castle Court Residential Home,Hospitals/Childcare/Caring Premises,5,0,,669016,5,,52.75294900000000,BLB109ARTH/1,069,environmental.health@south-derbys.gov.uk,South Derbyshire,http://www.south-derbys.gov.uk,-1.58519800000000,DE11 9HP,2015-01-23,fhrs_5_en-GB,5,,FHRS,5
73925,Mount Pleasant Road,Castle Gresley,"Swadlincote, Derbyshire",,Castle Gresley Children's Centre,Hospitals/Childcare/Caring Premises,5,,,727431,,,52.75404800000000,C04209MOUN/1,069,environmental.health@south-derbys.gov.uk,South Derbyshire,http://www.south-derbys.gov.uk,-1.58090600000000,DE11 9JF,2014-01-30,fhrs_exempt_en-GB,Exempt,,FHRS,
73926,44 Linton Road,Castle Gresley,"Swadlincote, Derbyshire",,Castle Gresley Post Office,Retailers - other,4613,10,,584597,5,,52.75396100000000,1AB10944LI/1,069,environmental.health@south-derbys.gov.uk,South Derbyshire,http://www.south-derbys.gov.uk,-1.58409200000000,DE11 9HS,2010-11-08,fhrs_3_en-GB,3,,FHRS,10
73927,Hearthcote Road,Swadlincote,Derbyshire,,Catchems Inn,Pub/bar/nightclub,7843,5,,234123,0,,52.77016000000000,1AB143HEAR/1,069,environmental.health@south-derbys.gov.uk,South Derbyshire,http://www.south-derbys.gov.uk,-1.57139900000000,DE11 9DU,2014-10-21,fhrs_5_en-GB,5,,FHRS,5
73928,Catton,Swadlincote,Derbyshire,,Catton Estates,Hotel/bed & breakfast/guest house,7842,5,,151832,5,,52.73529434204100,BTB110CATT/1,069,environmental.health@south-derbys.gov.uk,South Derbyshire,http://www.south-derbys.gov.uk,-1.69541907310486,DE12 8LN,2014-02-14,fhrs_5_en-GB,5,,FHRS,5
73929,Marston Lane,Marston On Dove,"Derby, Derbyshire",,CCS - Construction Catering Services,Takeaway/sandwich shop,7844,10,,707471,10,,52.86421100000000,C99530MARS/1,069,environmental.health@south-derbys.gov.uk,South Derbyshire,http://www.south-derbys.gov.uk,-1.65208100000000,DE65 5GB,2014-09-18,fhrs_2_en-GB,2,,FHRS,15
73930,Bretby,Burton On Trent,Derbyshire,,Cedar Court Nursing Home,Hospitals/Childcare/Caring Premises,5,5,,151793,5,,52.79987335205078,BLAX06BRET/1,069,environmental.health@south-derbys.gov.uk,South Derbyshire,http://www.south-derbys.gov.uk,-1.55741679668427,DE15 0QX,2014-08-05,fhrs_5_en-GB,5,,FHRS,5
73931,Station Road,Hatton,"Derby, Derbyshire",,Central England Co-operative Limited,Retailers - supermarkets/hypermarkets,7840,5,,241268,5,,52.86578600000000,1AB124STAT/2,069,environmental.health@south-derbys.gov.uk,South Derbyshire,http://www.south-derbys.gov.uk,-1.68155400000000,DE65 5EL,2013-02-15,fhrs_5_en-GB,5,,FHRS,0
73932,67 Burton Road,Overseal,"Swadlincote, Derbyshire",,Central England Co-operative Society,Retailers - supermarkets/hypermarkets,7840,5,,241294,5,,52.73835000000000,1AB13567BU/1,069,environmental.health@south-derbys.gov.uk,South Derbyshire,http://www.south-derbys.gov.uk,-1.56772600000000,DE12 6JJ,2009-10-09,fhrs_5_en-GB,5,,FHRS,5
73933,Kings Newton Lane,Melbourne,"Derby, Derbyshire",,Chantry Farm Shop,Retailers - other,4613,0,,157638,5,,52.83357100000000,F01131KING/1,069,environmental.health@south-derbys.gov.uk,South Derbyshire,http://www.south-derbys.gov.uk,-1.43195900000000,DE73 8DD,2014-11-12,fhrs_5_en-GB,5,,FHRS,0
73934,1 Cherry Garth,Hilton,"Derby, Derbyshire",,Cherry Tree Day Nursery,Hospitals/Childcare/Caring Premises,5,5,,152630,0,,52.87380700000000,C07*251CHE/1,069,environmental.health@south-derbys.gov.uk,South Derbyshire,http://www.south-derbys.gov.uk,-1.63554200000000,DE65 5FT,2012-03-05,fhrs_5_en-GB,5,,FHRS,0
73935,Etwall Road,Willington,"Derby, Derbyshire",,Cherry Tree Farm,Pub/bar/nightclub,7843,0,,234178,0,,52.86396600000000,1AB550ETWA/1,069,environmental.health@south-derbys.gov.uk,South Derbyshire,http://www.south-derbys.gov.uk,-1.56411800000000,DE65 6DX,2014-04-29,fhrs_5_en-GB,5,,FHRS,5
73936,,,,,Cherubs Cakes,Other catering premises,7841,0,,727440,0,,,C09*515LIN/1,069,environmental.health@south-derbys.gov.uk,South Derbyshire,http://www.south-derbys.gov.uk,,,2014-09-29,fhrs_5_en-GB,5,,FHRS,0
73937,Ashby Road East,Bretby,"Burton On Trent, Derbyshire",,Chesterfield Arms,Pub/bar/nightclub,7843,5,,234161,10,,52.79124500000000,1AB106ASHB/2,069,environmental.health@south-derbys.gov.uk,South Derbyshire,http://www.south-derbys.gov.uk,-1.56778100000000,DE15 0QA,2015-01-27,fhrs_4_en-GB,4,,FHRS,5
73938,20 Bells End Road,Walton On Trent,"Swadlincote, Derbyshire",,China Rice,Takeaway/sandwich shop,7844,0,,234132,0,,52.76108200000000,1AB14820BE/1,069,environmental.health@south-derbys.gov.uk,South Derbyshire,http://www.south-derbys.gov.uk,-1.67708600000000,DE12 8ND,2013-03-18,fhrs_5_en-GB,5,,FHRS,0
73939,3a West Street,Swadlincote,Derbyshire,,Chinese Herb Centre,Retailers - other,4613,,,727510,,,52.77330200000000,F071433AWE/1,069,environmental.health@south-derbys.gov.uk,South Derbyshire,http://www.south-derbys.gov.uk,-1.55787900000000,DE11 9DG,2014-05-19,fhrs_exempt_en-GB,Exempt,,FHRS,
73940,,,,,Chocolate Heaven,Manufacturers/packers,7839,0,,611311,0,,,C09X4346TA/1,069,environmental.health@south-derbys.gov.uk,South Derbyshire,http://www.south-derbys.gov.uk,,,2013-11-27,fhrs_5_en-GB,5,,FHRS,0
73941,,,,,Christine Ann Stokes,Other catering premises,7841,0,,727462,0,,,C09519121S/1,069,environmental.health@south-derbys.gov.uk,South Derbyshire,http://www.south-derbys.gov.uk,,,2012-07-12,fhrs_5_en-GB,5,,FHRS,0
73942,Church Square,Melbourne,"Derby, Derbyshire",,Christy Cakes and Sugarcraft,Retailers - other,4613,0,,700945,0,,52.82158300000000,F02531CHUR/1,069,environmental.health@south-derbys.gov.uk,South Derbyshire,http://www.south-derbys.gov.uk,-1.42334500000000,DE73 8EN,2013-06-18,fhrs_5_en-GB,5,,FHRS,0
73943,35 Vicarage Road,Swadlincote,Derbyshire,,Chuckle Bunnies Day Nursery,Hospitals/Childcare/Caring Premises,5,0,,152642,0,,52.77295500000000,C0714335VI/1,069,environmental.health@south-derbys.gov.uk,South Derbyshire,http://www.south-derbys.gov.uk,-1.55187900000000,DE11 8LG,2014-11-03,fhrs_5_en-GB,5,,FHRS,0
73944,Main Street,Church Broughton,"Derby, Derbyshire",,Church Broughton Primary School,School/college/university,7845,5,,339977,5,,52.89952700000000,1ABX12MAIN/1,069,environmental.health@south-derbys.gov.uk,South Derbyshire,http://www.south-derbys.gov.uk,-1.69355600000000,DE65 5AS,2014-07-21,fhrs_5_en-GB,5,,FHRS,5
73945,Unit 2 Glamorgan Way,Church Gresley,Swadlincote,,Church Gresley Fish Bar,Takeaway/sandwich shop,7844,10,,153060,10,,52.76048100000000,C12543UNIT/1,069,environmental.health@south-derbys.gov.uk,South Derbyshire,http://www.south-derbys.gov.uk,-1.57973300000000,DE11 9GB,2014-06-05,fhrs_3_en-GB,3,,FHRS,10
73946,Pennine Way,Swadlincote,Derbyshire,,Church Gresley Infant And Nursery School,School/college/university,7845,0,,611312,0,,,P01X43PENN/2,069,environmental.health@south-derbys.gov.uk,South Derbyshire,http://www.south-derbys.gov.uk,,,2013-11-26,fhrs_5_en-GB,5,,FHRS,0
73947,York Road,Church Gresley,"Swadlincote, Derbyshire",,Church Gresley Methodist Church,Restaurant/Cafe/Canteen,1,5,,158691,5,,52.76513400000000,L01143YORK/1,069,environmental.health@south-derbys.gov.uk,South Derbyshire,http://www.south-derbys.gov.uk,-1.56389000000000,DE11 9QQ,2013-05-22,fhrs_5_en-GB,5,,FHRS,0
73948,Scouts Hut,Park Road,"Church Gresley, Swadlincote, D",,Church Gresley Pre-School,Hospitals/Childcare/Caring Premises,5,0,,152648,0,,52.76730800000000,C07143SCOU/1,069,environmental.health@south-derbys.gov.uk,South Derbyshire,http://www.south-derbys.gov.uk,-1.55613100000000,DE11 9QE,2013-11-06,fhrs_5_en-GB,5,,FHRS,0
73949,Castle Lane Industrial Estate,Castle Street,"Melbourne, Derby, Derbyshire",,CJ's Snack Bar,Mobile caterer,7846,5,,499213,5,,52.82436700000000,C03131CAST/1,069,environmental.health@south-derbys.gov.uk,South Derbyshire,http://www.south-derbys.gov.uk,-1.42274400000000,DE73 8JB,2014-10-15,fhrs_5_en-GB,5,,FHRS,5
73950,,,,,Clarks Cakes,Other catering premises,7841,0,,715150,0,,,C0912517TI/1,069,environmental.health@south-derbys.gov.uk,South Derbyshire,http://www.south-derbys.gov.uk,,,2014-09-03,fhrs_5_en-GB,5,,FHRS,0
73951,83 London Road,Shardlow,"Derby, Derbyshire",,Clock Warehouse,Pub/bar/nightclub,7843,0,,234139,5,,52.86905400000000,1AB13983LO/1,069,environmental.health@south-derbys.gov.uk,South Derbyshire,http://www.south-derbys.gov.uk,-1.35308700000000,DE72 2GP,2013-03-12,fhrs_5_en-GB,5,,FHRS,5
73952,Main Street,Lullington,"Swadlincote, Derbyshire",,Colvile Arms,Pub/bar/nightclub,7843,5,,636832,0,,52.71431900000000,1AB129MAIN/1,069,environmental.health@south-derbys.gov.uk,South Derbyshire,http://www.south-derbys.gov.uk,-1.63105400000000,DE12 8EG,2013-03-26,fhrs_5_en-GB,5,,FHRS,0
73953,Fisher Close,Repton,"Derby, Derbyshire",,Community Room Kitchen,Hospitals/Childcare/Caring Premises,5,0,,504832,0,,52.83800000000000,C04137FISH/1,069,environmental.health@south-derbys.gov.uk,South Derbyshire,http://www.south-derbys.gov.uk,-1.54628200000000,DE65 6GS,2014-09-12,fhrs_5_en-GB,5,,FHRS,0
73954,,,,,CookEd,Other catering premises,7841,5,,727463,0,,,C0952541HA/1,069,environmental.health@south-derbys.gov.uk,South Derbyshire,http://www.south-derbys.gov.uk,,,2012-09-20,fhrs_5_en-GB,5,,FHRS,0
73955,Unit 13 Hepworth Retail Park,Coppice Side,"Swadlincote, Derbyshire",,Costa,Restaurant/Cafe/Canteen,1,0,,401552,0,,52.77075100000000,C03543UNIT/1,069,environmental.health@south-derbys.gov.uk,South Derbyshire,http://www.south-derbys.gov.uk,-1.55376900000000,DE11 9AA,2014-06-12,fhrs_5_en-GB,5,,FHRS,0
73956,Etwall Road,Mickleover,"Derby, Derbyshire",,Costcutter (BP),Retailers - other,4613,10,,584596,10,,52.89898700000000,1AB*07ETWA/1,069,environmental.health@south-derbys.gov.uk,South Derbyshire,http://www.south-derbys.gov.uk,-1.57112600000000,DE3 0DN,2014-08-21,fhrs_3_en-GB,3,,FHRS,10
73957,Elms Road,Coton In The Elms,"Swadlincote, Derbyshire",,Coton in the Elms Community Centre,Other catering premises,7841,,,727424,,,52.73590900000000,C04*13ELMS/1,069,environmental.health@south-derbys.gov.uk,South Derbyshire,http://www.south-derbys.gov.uk,-1.63604100000000,DE12 8HL,2010-11-08,fhrs_exempt_en-GB,Exempt,,FHRS,
73958,Coton In The Elms Community Centre,Elms Road,Coton In The Elms Swadlincote,,Coton in the Elms Pre School,Hospitals/Childcare/Caring Premises,5,0,,636837,0,,52.73590900000000,C07*13COTO/1,069,environmental.health@south-derbys.gov.uk,South Derbyshire,http://www.south-derbys.gov.uk,-1.63604100000000,DE12 8HL,2014-02-05,fhrs_5_en-GB,5,,FHRS,0
73959,Elmslea Avenue,Coton In The Elms,"Swadlincote, Derbyshire",,Coton-In-The-Elms Primary School,School/college/university,7845,0,,159742,0,,52.73521400000000,P01X13ELMS/1,069,environmental.health@south-derbys.gov.uk,South Derbyshire,http://www.south-derbys.gov.uk,-1.63794200000000,DE12 8HE,2014-02-05,fhrs_5_en-GB,5,,FHRS,5
73960,Derby Road,Swarkestone,"Derby, Derbyshire",,Cottage Service Station,Retailers - other,4613,5,,552203,5,,52.85497100000000,1AB144DERB/1,069,environmental.health@south-derbys.gov.uk,South Derbyshire,http://www.south-derbys.gov.uk,-1.45019800000000,DE73 7JB,2014-10-28,fhrs_5_en-GB,5,,FHRS,0
73961,Jeffreys Haulage Co Ltd,Swadlincote Road,"Woodville, Swadlincote",,Country Kitchen,Mobile caterer,7846,5,,152858,5,,52.76908700000000,C09X51JEFF/1,069,environmental.health@south-derbys.gov.uk,South Derbyshire,http://www.south-derbys.gov.uk,-1.54182500000000,DE11 8DB,2015-01-07,fhrs_5_en-GB,5,,FHRS,5
73962,Heath Fields Primary School,Field Avenue,Hatton,,Creative Days Nursery,Hospitals/Childcare/Caring Premises,5,5,,152637,5,,,C07124HEAT/1,069,environmental.health@south-derbys.gov.uk,South Derbyshire,http://www.south-derbys.gov.uk,,DE6 5ER,2014-02-27,fhrs_5_en-GB,5,,FHRS,5
73963,Woodshop Lane,Swarkestone,"Derby, Derbyshire",,Crewe and Harpur,Pub/bar/nightclub,7843,5,,234173,5,,52.85383600000000,1AB144WOOD/1,069,environmental.health@south-derbys.gov.uk,South Derbyshire,http://www.south-derbys.gov.uk,-1.45545500000000,DE73 7JA,2013-03-12,fhrs_5_en-GB,5,,FHRS,5
73964,Burton Road,Acresford,"Swadlincote, Derbyshire",,Cricketts Inn,Pub/bar/nightclub,7843,20,,234168,15,,52.71741600000000,1AB532BURT/1,069,environmental.health@south-derbys.gov.uk,South Derbyshire,http://www.south-derbys.gov.uk,-1.56110800000000,DE12 8AP,2014-01-13,fhrs_1_en-GB,1,,FHRS,15
73965,Burton Road,Repton,Derby,,Cross House,School/college/university,7845,0,,669028,0,,52.83898300000000,P01X37BURT/2,069,environmental.health@south-derbys.gov.uk,South Derbyshire,http://www.south-derbys.gov.uk,-1.55173500000000,DE65 6FL,2014-11-14,fhrs_5_en-GB,5,,FHRS,5
73966,145 Oversetts Road,Newhall,"Swadlincote, Derbyshire",,Crown Inn,Pub/bar/nightclub,7843,10,,234124,10,,52.78063500000000,1AB143145O/1,069,environmental.health@south-derbys.gov.uk,South Derbyshire,http://www.south-derbys.gov.uk,-1.57971700000000,DE11 0SN,2014-05-16,fhrs_3_en-GB,3,,FHRS,10
73967,11 Main Street,Hilton,"Derby, Derbyshire",,Darcy Bunnie Creative Arts Nursery,Hospitals/Childcare/Caring Premises,5,10,,521377,10,,52.87315500000000,C0712511MA/1,069,environmental.health@south-derbys.gov.uk,South Derbyshire,http://www.south-derbys.gov.uk,-1.63687000000000,DE65 5FF,2014-10-10,fhrs_3_en-GB,3,,FHRS,10
73968,23 High Street,Newhall,"Swadlincote, Derbyshire",,Dean & Smedley,Retailers - other,4613,,,727512,,,52.78513700000000,F08*4323HI/1,069,environmental.health@south-derbys.gov.uk,South Derbyshire,http://www.south-derbys.gov.uk,-1.57398000000000,DE11 0HU,2013-05-03,fhrs_exempt_en-GB,Exempt,,FHRS,
73969,42 High Street,Woodville,"Swadlincote, Derbyshire",,Dean & Smedley,Retailers - other,4613,,,727541,,,52.76724000000000,R22*5142HI/1,069,environmental.health@south-derbys.gov.uk,South Derbyshire,http://www.south-derbys.gov.uk,-1.53144000000000,DE11 7EA,2015-01-20,fhrs_exempt_en-GB,Exempt,,FHRS,
73970,1 West Street,Swadlincote,Derbyshire,,Dean & Smedley Ltd.,Retailers - other,4613,,,727511,,,52.77330200000000,F08*431WES/1,069,environmental.health@south-derbys.gov.uk,South Derbyshire,http://www.south-derbys.gov.uk,-1.55787900000000,DE11 9DG,2013-04-30,fhrs_exempt_en-GB,Exempt,,FHRS,
73971,,,,,Debs Kitchen,Other catering premises,7841,0,,727471,0,,,C0953923TH/1,069,environmental.health@south-derbys.gov.uk,South Derbyshire,http://www.south-derbys.gov.uk,,,2012-06-26,fhrs_5_en-GB,5,,FHRS,0
73972,2 The Delph Centre,Market Street,"Swadlincote, Derbyshire",,Delicious Dishes,Retailers - other,4613,0,,157646,0,,52.77384400000000,F021432THE/1,069,environmental.health@south-derbys.gov.uk,South Derbyshire,http://www.south-derbys.gov.uk,-1.55860000000000,DE11 9DA,2015-01-20,fhrs_5_en-GB,5,,FHRS,0
73973,124 Main Street,Ticknall,"Derby, Derbyshire",,Derby House B&B,Hotel/bed & breakfast/guest house,7842,0,,292112,0,,52.81201000000000,BTB145124M/1,069,environmental.health@south-derbys.gov.uk,South Derbyshire,http://www.south-derbys.gov.uk,-1.47395900000000,DE73 7JZ,2014-02-28,fhrs_5_en-GB,5,,FHRS,0
73974,1 The Delph Centre,Market Street,"Swadlincote, Derbyshire",,Dia La Pizzeria,Takeaway/sandwich shop,7844,5,,283258,5,,52.77384400000000,1AB1431THE/1,069,environmental.health@south-derbys.gov.uk,South Derbyshire,http://www.south-derbys.gov.uk,-1.55860000000000,DE11 9DA,2013-09-20,fhrs_5_en-GB,5,,FHRS,5
73975,81 Bernard Street,Woodville,Swadlincote,,Dina's Delights,Other catering premises,7841,0,,636843,0,,52.77009500000000,F1055181BE/1,069,environmental.health@south-derbys.gov.uk,South Derbyshire,http://www.south-derbys.gov.uk,-1.54208200000000,DE11 8BY,2014-03-10,fhrs_5_en-GB,5,,FHRS,0
73976,115 High Street,Newhall,"Swadlincote, Derbyshire",,Discount Food Bargains,Retailers - other,4613,10,,543311,0,,52.78439000000000,1AB*43115H/1,069,environmental.health@south-derbys.gov.uk,South Derbyshire,http://www.south-derbys.gov.uk,-1.57130300000000,DE11 0HT,2013-05-03,fhrs_4_en-GB,4,,FHRS,10
73977,Unit 2 Belmont Street,Swadlincote,Derbyshire,,Dominos Pizza,Takeaway/sandwich shop,7844,10,,575939,5,,52.77351900000000,C12543UNIT/2,069,environmental.health@south-derbys.gov.uk,South Derbyshire,http://www.south-derbys.gov.uk,-1.55583100000000,DE11 8JE,2015-01-26,fhrs_3_en-GB,3,,FHRS,10
73978,,,,,Dottie's Cake Design,Other catering premises,7841,0,,727460,0,,,C095078BRA/1,069,environmental.health@south-derbys.gov.uk,South Derbyshire,http://www.south-derbys.gov.uk,,,2013-09-11,fhrs_5_en-GB,5,,FHRS,0
73979,68 High Street,Melbourne,"Derby, Derbyshire",,Doves Garages Ltd,Retailers - other,4613,5,,700942,0,,52.82234600000000,1ABX3168HI/1,069,environmental.health@south-derbys.gov.uk,South Derbyshire,http://www.south-derbys.gov.uk,-1.43068000000000,DE73 8GJ,2013-10-22,fhrs_5_en-GB,5,,FHRS,0
73980,Jinny Close,Hatton,"Derby, Derbyshire.",,Doveside Social Club,Pub/bar/nightclub,7843,5,,234128,5,,52.86499700000000,1AB124JINN/1,069,environmental.health@south-derbys.gov.uk,South Derbyshire,http://www.south-derbys.gov.uk,-1.68227300000000,DE65 5EZ,2012-02-16,fhrs_5_en-GB,5,,FHRS,5
73981,20 Station Road,Hatton,"Derby, Derbyshire",,Dovevale,Hotel/bed & breakfast/guest house,7842,0,,151830,0,,52.86578600000000,BTB*2420ST/1,069,environmental.health@south-derbys.gov.uk,South Derbyshire,http://www.south-derbys.gov.uk,-1.68155400000000,DE65 5EL,2014-05-19,fhrs_5_en-GB,5,,FHRS,0
73982,38 High Street,Repton,"Derby, Derbyshire",,Dragon Court,Takeaway/sandwich shop,7844,0,,234162,5,,52.83827100000000,1AB13738HI/1,069,environmental.health@south-derbys.gov.uk,South Derbyshire,http://www.south-derbys.gov.uk,-1.54878800000000,DE65 6GD,2014-03-21,fhrs_5_en-GB,5,,FHRS,5
73983,Castle Road,Castle Gresley,"Swadlincote, Derbyshire.",,Drum and Monkey,Pub/bar/nightclub,7843,10,,504829,10,,52.75823900000000,1AB109CAST/1,069,environmental.health@south-derbys.gov.uk,South Derbyshire,http://www.south-derbys.gov.uk,-1.57630200000000,DE11 9LH,2013-05-10,fhrs_3_en-GB,3,,FHRS,5
73984,Welcome Break,Services On A50 Westbound,Derbyshire,,Eat In,Restaurant/Cafe/Canteen,1,5,,152199,0,,52.86929500000000,C03139WELC/1,069,environmental.health@south-derbys.gov.uk,South Derbyshire,http://www.south-derbys.gov.uk,-1.34121400000000,DE72 2HA,2013-06-21,fhrs_5_en-GB,5,,FHRS,5
73985,Church Road,Egginton,"Derby, Derbyshire",,Egginton Primary School,School/college/university,7845,0,,159744,0,,52.84936400000000,P01X17CHUR/1,069,environmental.health@south-derbys.gov.uk,South Derbyshire,http://www.south-derbys.gov.uk,-1.60443000000000,DE65 6HP,2014-02-20,fhrs_5_en-GB,5,,FHRS,0
73986,Queens Drive,Swadlincote,Derbyshire,,Elmsleigh Infant School,School/college/university,7845,0,,159767,0,,52.78189300000000,P01X43QUEE/2,069,environmental.health@south-derbys.gov.uk,South Derbyshire,http://www.south-derbys.gov.uk,-1.56197300000000,DE11 0EG,2014-01-23,fhrs_5_en-GB,5,,FHRS,0
73987,Elmsleigh Drive,Midway,"Swadlincote, Derbyshire",,Elmsleigh Stores,Retailers - other,4613,5,,234141,5,,52.78469300000000,1AB143ELMS/1,069,environmental.health@south-derbys.gov.uk,South Derbyshire,http://www.south-derbys.gov.uk,-1.56078800000000,DE11 0ER,2012-09-11,fhrs_5_en-GB,5,,FHRS,5
73988,Borrowash Road,Elvaston,Derby,,Elvaston Cricket Club,Other catering premises,7841,5,,643769,5,,52.89314400000000,1AB118BORR/2,069,environmental.health@south-derbys.gov.uk,South Derbyshire,http://www.south-derbys.gov.uk,-1.39723100000000,DE72 3EP,2013-05-03,fhrs_5_en-GB,5,,FHRS,5
73989,Main Road,Elvaston,"Derby, Derbyshire",,Elvaston Village Hall,Other catering premises,7841,,,727538,,,52.88728500000000,P15418MAIN/1,069,environmental.health@south-derbys.gov.uk,South Derbyshire,http://www.south-derbys.gov.uk,-1.39231900000000,DE72 3TQ,2013-10-01,fhrs_exempt_en-GB,Exempt,,FHRS,
73990,,,,,Emma Santino,Mobile caterer,7846,0,,727477,0,,,C09X19HEAG/1,069,environmental.health@south-derbys.gov.uk,South Derbyshire,http://www.south-derbys.gov.uk,,,2014-02-25,fhrs_5_en-GB,5,,FHRS,0
73991,135a Springfield Road,Etwall,"Derby, Derbyshire",,Etwall Balti,Takeaway/sandwich shop,7844,10,,234175,5,,52.87760800000000,1AB119135A/1,069,environmental.health@south-derbys.gov.uk,South Derbyshire,http://www.south-derbys.gov.uk,-1.60141000000000,DE65 6LA,2014-03-19,fhrs_4_en-GB,4,,FHRS,5
73992,Church Hill,Etwall,"Derby, Derbyshire",,Etwall Cricket Club,Pub/bar/nightclub,7843,,,727414,,,52.88571500000000,1AB119CHUR/1,069,environmental.health@south-derbys.gov.uk,South Derbyshire,http://www.south-derbys.gov.uk,-1.60100900000000,DE65 6LT,2013-08-20,fhrs_exempt_en-GB,Exempt,,FHRS,
73993,2 Chestnut Grove,Etwall,"Derby, Derbyshire",,Etwall Food and Wines,Retailers - other,4613,5,,234125,0,,52.87964000000000,1AB1192CHE/1,069,environmental.health@south-derbys.gov.uk,South Derbyshire,http://www.south-derbys.gov.uk,-1.60412500000000,DE65 6NG,2012-02-10,fhrs_5_en-GB,5,,FHRS,0
73994,4-6 Chestnut Grove,Etwall,"Derby, Derbyshire",,Etwall Pharmacy,Retailers - other,4613,,,727540,,,52.87964000000000,R22*194-6C/1,069,environmental.health@south-derbys.gov.uk,South Derbyshire,http://www.south-derbys.gov.uk,-1.60412500000000,DE65 6NG,2014-02-21,fhrs_exempt_en-GB,Exempt,,FHRS,
73995,1a Willington Road,Etwall,"Derby, Derbyshire",,Etwall Post Office & Stores,Retailers - other,4613,0,,157653,0,,52.88402300000000,F061191AWI/1,069,environmental.health@south-derbys.gov.uk,South Derbyshire,http://www.south-derbys.gov.uk,-1.60034100000000,DE65 6JG,2014-02-21,fhrs_5_en-GB,5,,FHRS,0
73996,Egginton Road,Etwall,"Derby, Derbyshire",,Etwall Primary School,School/college/university,7845,5,,159745,5,,52.88136000000000,P01X19EGGI/1,069,environmental.health@south-derbys.gov.uk,South Derbyshire,http://www.south-derbys.gov.uk,-1.60250500000000,DE65 6NB,2014-07-04,fhrs_5_en-GB,5,,FHRS,5
73997,John Street,Swadlincote,Derbyshire,,Eureka Park Bowls Club,Other catering premises,7841,,,727420,,,,1AB143JOHN/1,069,environmental.health@south-derbys.gov.uk,South Derbyshire,http://www.south-derbys.gov.uk,,,2013-09-25,fhrs_exempt_en-GB,Exempt,,FHRS,
73998,Dunsmore Way,Midway,"Swadlincote, Derbyshire",,Eureka Primary School,School/college/university,7845,0,,159763,5,,52.78037900000000,P01X43DUNS/1,069,environmental.health@south-derbys.gov.uk,South Derbyshire,http://www.south-derbys.gov.uk,-1.54209200000000,DE11 7LA,2015-01-13,fhrs_5_en-GB,5,,FHRS,0
73999,61-63 Eureka Road,Midway,"Swadlincote, Derbyshire",,Eureka Stores,Retailers - other,4613,5,,234154,5,,52.77938700000000,1AB14361-6/1,069,environmental.health@south-derbys.gov.uk,South Derbyshire,http://www.south-derbys.gov.uk,-1.54576400000000,DE11 7NW,2013-07-24,fhrs_5_en-GB,5,,FHRS,5
74000,Park Avenue,Foston,Derby,,Eurest - JCB Power Systems,Restaurant/Cafe/Canteen,1,5,,636836,5,,52.88531400000000,C03522PARK/1,069,environmental.health@south-derbys.gov.uk,South Derbyshire,http://www.south-derbys.gov.uk,-1.70374700000000,DE65 5BX,2014-01-28,fhrs_5_en-GB,5,,FHRS,5
74001,Fairfield Crescent,Newhall,"Swadlincote, Derbyshire",,Fairmeadows Foundation Primary School,School/college/university,7845,0,,159764,0,,52.77888100000000,P01X43FAIR/1,069,environmental.health@south-derbys.gov.uk,South Derbyshire,http://www.south-derbys.gov.uk,-1.57939300000000,DE11 0SW,2014-02-04,fhrs_5_en-GB,5,,FHRS,0
74002,Appleby Glade Industrial Estat,Ryder Close,"Castle Gresley, Swadlincote",,Fields Catering,Mobile caterer,7846,,,152843,,,52.76619200000000,C09109APPL/1,069,environmental.health@south-derbys.gov.uk,South Derbyshire,http://www.south-derbys.gov.uk,-1.58834800000000,DE11 9EU,2014-08-28,fhrs_3_en-GB,3,,FHRS,
74003,Burton Road,Findern,Derby,,Findern Garden Centre,Restaurant/Cafe/Canteen,1,,,234169,,,52.88154900000000,1AB120BURT/1,069,environmental.health@south-derbys.gov.uk,South Derbyshire,http://www.south-derbys.gov.uk,-1.54718000000000,DE65 6BE,2014-07-09,fhrs_5_en-GB,5,,FHRS,
74004,Heath Lane,Findern,"Derby, Derbyshire",,Findern Primary School,School/college/university,7845,0,,159747,0,,52.86498800000000,P01X20HEAT/1,069,environmental.health@south-derbys.gov.uk,South Derbyshire,http://www.south-derbys.gov.uk,-1.54196000000000,DE65 6AR,2014-03-07,fhrs_5_en-GB,5,,FHRS,0
74005,Castle Hill,Findern,"Derby, Derbyshire",,Findern Village Hall,Other catering premises,7841,,,727409,,,52.87082700000000,1AB*20CAST/1,069,environmental.health@south-derbys.gov.uk,South Derbyshire,http://www.south-derbys.gov.uk,-1.54555300000000,DE65 6AL,2013-11-26,fhrs_exempt_en-GB,Exempt,,FHRS,
74006,4 The Green,Findern,"Derby, Derbyshire",,Findern Village Stores Ltd,Retailers - other,4613,5,,283223,5,,52.87099800000000,1AB1204THE/1,069,environmental.health@south-derbys.gov.uk,South Derbyshire,http://www.south-derbys.gov.uk,-1.54326400000000,DE65 6AA,2013-11-20,fhrs_5_en-GB,5,,FHRS,5
74007,,,,,Food For a Do,Other catering premises,7841,5,,727473,0,,,C0954339SU/1,069,environmental.health@south-derbys.gov.uk,South Derbyshire,http://www.south-derbys.gov.uk,,,2014-03-11,fhrs_5_en-GB,5,,FHRS,0
74008,Coppice Side,Swadlincote,Derbyshire,,Food Stop,Takeaway/sandwich shop,7844,0,,636834,0,,52.76839000000000,1AB143COPP/2,069,environmental.health@south-derbys.gov.uk,South Derbyshire,http://www.south-derbys.gov.uk,-1.55472700000000,DE11 9AE,2014-02-05,fhrs_5_en-GB,5,,FHRS,0
74009,The Fishing Lodge,Milton,Derby,,Foremark Trout Fisheries,Retailers - other,4613,,,727539,,,52.82224500000000,R18421THEF/1,069,environmental.health@south-derbys.gov.uk,South Derbyshire,http://www.south-derbys.gov.uk,-1.51304200000000,DE65 6EG,2012-05-11,fhrs_exempt_en-GB,Exempt,,FHRS,
74010,Chestnut Drive,Foremark,Derby,,Foremarke Hall Repton Preparatory School,School/college/university,7845,5,,159748,5,,52.83571300000000,P01X21CHES/1,069,environmental.health@south-derbys.gov.uk,South Derbyshire,http://www.south-derbys.gov.uk,-1.50475700000000,DE65 6EJ,2013-04-26,fhrs_5_en-GB,5,,FHRS,0
74011,67 High Street,Swadlincote,Derbyshire,,Foresters Arms,Pub/bar/nightclub,7843,10,,401550,15,,52.77301800000000,1AB14367HI/1,069,environmental.health@south-derbys.gov.uk,South Derbyshire,http://www.south-derbys.gov.uk,-1.55404300000000,DE11 8JA,2013-09-25,fhrs_2_en-GB,2,,FHRS,10
74012,Main Street,Scropton,"Derby, Derbyshire",,Foresters Tea Rooms,Restaurant/Cafe/Canteen,1,5,,611359,5,,52.86874100000000,R13122MAIN/1,069,environmental.health@south-derbys.gov.uk,South Derbyshire,http://www.south-derbys.gov.uk,-1.71252100000000,DE65 5PQ,2013-11-15,fhrs_5_en-GB,5,,FHRS,5
74013,2 Market Place,Melbourne,"Derby, Derbyshire",,Forteys,Restaurant/Cafe/Canteen,1,10,,499214,5,,52.82298400000000,C035312MAR/1,069,environmental.health@south-derbys.gov.uk,South Derbyshire,http://www.south-derbys.gov.uk,-1.42868300000000,DE73 8DS,2014-09-24,fhrs_4_en-GB,4,,FHRS,5
74014,73-75 High Street,Swadlincote,Derbyshire,,Fortune Garden,Takeaway/sandwich shop,7844,0,,575937,5,,52.77301800000000,C12*4373-7/1,069,environmental.health@south-derbys.gov.uk,South Derbyshire,http://www.south-derbys.gov.uk,-1.55404300000000,DE11 8JA,2013-03-06,fhrs_5_en-GB,5,,FHRS,5
74015,10 Main Street,Linton,"Swadlincote, Derbyshire",,Fortune House,Takeaway/sandwich shop,7844,10,,153029,5,,52.74674600000000,C1212810MA/1,069,environmental.health@south-derbys.gov.uk,South Derbyshire,http://www.south-derbys.gov.uk,-1.59285700000000,DE12 6PZ,2013-11-20,fhrs_2_en-GB,2,,FHRS,15
74016,Portland Street,Etwall,Derby,,Frank Wickham Hall,Hospitals/Childcare/Caring Premises,5,5,,234134,5,,52.88346700000000,1AB119PORT/1,069,environmental.health@south-derbys.gov.uk,South Derbyshire,http://www.south-derbys.gov.uk,-1.60092500000000,DE65 6JF,2014-06-25,fhrs_5_en-GB,5,,FHRS,0
74017,Hearthcote Road,Swadlincote,Derbyshire,,Frydays Fish & Chip Shop,Takeaway/sandwich shop,7844,5,,153046,5,,52.77016000000000,C12143HEAR/1,069,environmental.health@south-derbys.gov.uk,South Derbyshire,http://www.south-derbys.gov.uk,-1.57139900000000,DE11 9DU,2014-03-25,fhrs_5_en-GB,5,,FHRS,5
74018,30a Main Street,Etwall,"Derby, Derbyshire",,Full House,Takeaway/sandwich shop,7844,10,,283219,10,,52.88464300000000,1AB11930AM/1,069,environmental.health@south-derbys.gov.uk,South Derbyshire,http://www.south-derbys.gov.uk,-1.60040900000000,DE65 6LP,2013-08-23,fhrs_3_en-GB,3,,FHRS,10
74019,High Street,Swadlincote,Derbyshire,,Get Stuffed,Takeaway/sandwich shop,7844,10,,211007,5,,52.77351900000000,C12543HIGH/1,069,environmental.health@south-derbys.gov.uk,South Derbyshire,http://www.south-derbys.gov.uk,-1.55583100000000,DE11 8JE,2013-03-21,fhrs_4_en-GB,4,,FHRS,0
74020,50 Alexandra Road,Swadlincote,Derbyshire,,Golden Dragon,Takeaway/sandwich shop,7844,5,,153038,5,,52.77143600000000,C1214350AL/1,069,environmental.health@south-derbys.gov.uk,South Derbyshire,http://www.south-derbys.gov.uk,-1.55909800000000,DE11 9AZ,2013-07-25,fhrs_5_en-GB,5,,FHRS,5
74021,2a Goseley Avenue,Hartshorne,"Swadlincote, Derbyshire",,Golden Spice Takeaway,Takeaway/sandwich shop,7844,5,,283225,5,,52.77505100000000,1AB1232AGO/1,069,environmental.health@south-derbys.gov.uk,South Derbyshire,http://www.south-derbys.gov.uk,-1.52437500000000,DE11 7EZ,2013-06-24,fhrs_5_en-GB,5,,FHRS,0
74022,77 High Street,Repton,"Derby, Derbyshire",,GoodBuy Mr. Chips,Takeaway/sandwich shop,7844,5,,153055,5,,52.83640300000000,C1253777HI/1,069,environmental.health@south-derbys.gov.uk,South Derbyshire,http://www.south-derbys.gov.uk,-1.54699600000000,DE65 6GF,2014-11-14,fhrs_5_en-GB,5,,FHRS,5
74023,Grangewood,Swadlincote,Derbyshire,,Grangewood Lodge,Hospitals/Childcare/Caring Premises,5,5,,151805,5,,52.72339248657227,BLB132GRAN/1,069,environmental.health@south-derbys.gov.uk,South Derbyshire,http://www.south-derbys.gov.uk,-1.60927176475525,DE12 8BH,2014-09-09,fhrs_5_en-GB,5,,FHRS,0
74024,Burton Road,Woodville,"Swadlincote, Derbyshire",,Granville Community School,School/college/university,7845,5,,159777,0,,52.77558200000000,P01X51BURT/1,069,environmental.health@south-derbys.gov.uk,South Derbyshire,http://www.south-derbys.gov.uk,-1.53814000000000,DE11 7JR,2013-05-17,fhrs_5_en-GB,5,,FHRS,5
74025,77a Swadlincote Road,Woodville,"Swadlincote, Derbyshire",,Granville Stores,Retailers - other,4613,10,,234151,5,,52.76947200000000,1AB15177AS/1,069,environmental.health@south-derbys.gov.uk,South Derbyshire,http://www.south-derbys.gov.uk,-1.53899000000000,DE11 8DE,2014-06-11,fhrs_4_en-GB,4,,FHRS,0
74026,Civic Way,Swadlincote,Derbyshire,,Greenbank Leisure Centre,Restaurant/Cafe/Canteen,1,0,,158704,5,,52.77432800000000,L02X43CIVI/1,069,environmental.health@south-derbys.gov.uk,South Derbyshire,http://www.south-derbys.gov.uk,-1.55829800000000,DE11 0AD,2013-03-25,fhrs_5_en-GB,5,,FHRS,5
74027,6 High Street,Swadlincote,Derbyshire,,Greggs,Retailers - other,4613,0,,157647,5,,52.77327700000000,F021436HIG/1,069,environmental.health@south-derbys.gov.uk,South Derbyshire,http://www.south-derbys.gov.uk,-1.55617400000000,DE11 8HY,2014-01-27,fhrs_5_en-GB,5,,FHRS,5
74028,Moat Street,Church Gresley,"Swadlincote, Derbyshire",,Gresley Football Club,Other catering premises,7841,20,,234136,10,,52.76237000000000,1AB143MOAT/1,069,environmental.health@south-derbys.gov.uk,South Derbyshire,http://www.south-derbys.gov.uk,-1.56270200000000,DE11 9RE,2013-12-12,fhrs_1_en-GB,1,,FHRS,10
74029,Market Street,Church Gresley,"Swadlincote, Derbyshire",,Gresley House Care Home Ltd.,Hospitals/Childcare/Caring Premises,5,0,,151814,0,,52.76244300000000,BLB143MARK/1,069,environmental.health@south-derbys.gov.uk,South Derbyshire,http://www.south-derbys.gov.uk,-1.56053800000000,DE11 9PN,2014-12-03,fhrs_5_en-GB,5,,FHRS,0
74030,George Street,Church Gresley,"Swadlincote, Derbyshire",,Gresley Indoor Bowling Centre,Restaurant/Cafe/Canteen,1,5,,158709,10,,52.76409700000000,L12143GEOR/1,069,environmental.health@south-derbys.gov.uk,South Derbyshire,http://www.south-derbys.gov.uk,-1.57274700000000,DE11 9QW,2013-11-06,fhrs_4_en-GB,4,,FHRS,5
74031,Gresley Wood Road,Church Gresley,"Swadlincote, Derbyshire",,Gresley Old Hall Community Welfare Centre,Pub/bar/nightclub,7843,20,,215503,5,,52.76409700000000,1AB143GRES/1,069,environmental.health@south-derbys.gov.uk,South Derbyshire,http://www.south-derbys.gov.uk,-1.57274700000000,DE11 9QW,2015-02-03,fhrs_1_en-GB,1,,FHRS,5
74032,Hall Croft Farm,Uttoxeter Road,"Hilton, Derby, Derbyshire",,Hall Croft Farm B&B,Hotel/bed & breakfast/guest house,7842,0,,636841,0,,52.87283400000000,C99125HALL/1,069,environmental.health@south-derbys.gov.uk,South Derbyshire,http://www.south-derbys.gov.uk,-1.64673700000000,DE65 5FZ,2014-03-10,fhrs_5_en-GB,5,,FHRS,5
74033,45 High Street,Swadlincote,Derbyshire,,Hallmark/Thorntons,Retailers - other,4613,10,,157784,5,,52.77351900000000,F9914345HI/1,069,environmental.health@south-derbys.gov.uk,South Derbyshire,http://www.south-derbys.gov.uk,-1.55583100000000,DE11 8JE,2014-08-18,fhrs_4_en-GB,4,,FHRS,5
74034,Heage Lane,Etwall,"Derby, Derbyshire",,Hansons Auctioneers Showrooms Refreshments,Restaurant/Cafe/Canteen,1,0,,511399,0,,52.89722600000000,S18*19HEAG/1,069,environmental.health@south-derbys.gov.uk,South Derbyshire,http://www.south-derbys.gov.uk,-1.59448100000000,DE65 6LS,2014-02-21,fhrs_5_en-GB,5,,FHRS,0
74035,34 Main Street,Kings Newton,"Derby, Derbyshire",,Hardinge Arms,Pub/bar/nightclub,7843,5,,234133,5,,52.83195400000000,1AB13134MA/1,069,environmental.health@south-derbys.gov.uk,South Derbyshire,http://www.south-derbys.gov.uk,-1.42469200000000,DE73 8BX,2013-09-12,fhrs_5_en-GB,5,,FHRS,5
74036,Don Amott Caravans Limited,Egginton Road,"Hilton, Derby, Derbyshire",,Hargate Tea Rooms,Restaurant/Cafe/Canteen,1,5,,152190,0,,52.86829400000000,C03125DONA/1,069,environmental.health@south-derbys.gov.uk,South Derbyshire,http://www.south-derbys.gov.uk,-1.62045100000000,DE65 5FJ,2013-07-08,fhrs_5_en-GB,5,,FHRS,5
74037,2 Derby Road,Melbourne,"Derby, Derbyshire",,Harpur's of Melbourne,Restaurant/Cafe/Canteen,1,5,,234138,5,,52.82468600000000,1AB5312DER/1,069,environmental.health@south-derbys.gov.uk,South Derbyshire,http://www.south-derbys.gov.uk,-1.42922500000000,DE73 8FE,2015-01-07,fhrs_4_en-GB,4,,FHRS,10
74038,Elvaston Castle & Country Park,Borrowash Road,"Elvaston, Derby, Derbyshire",,Harrington Tea Rooms,Restaurant/Cafe/Canteen,1,5,,152282,0,,52.89314400000000,C03X18ELVA/1,069,environmental.health@south-derbys.gov.uk,South Derbyshire,http://www.south-derbys.gov.uk,-1.39723100000000,DE72 3EP,2013-07-11,fhrs_5_en-GB,5,,FHRS,5
74039,Main Street,Hartshorne,"Swadlincote, Derbyshire",,Hartshorne Church of England Primary School,School/college/university,7845,5,,159749,5,,52.78477800000000,P01X23MAIN/1,069,environmental.health@south-derbys.gov.uk,South Derbyshire,http://www.south-derbys.gov.uk,-1.51784900000000,DE11 7ES,2012-02-06,fhrs_5_en-GB,5,,FHRS,5
74040,Pilgrims Way,Stenson Fields,"Derby, Derbyshire",,Harvest Kitchen,Takeaway/sandwich shop,7844,10,,283294,10,,52.87578000000000,1AB147PILG/3,069,environmental.health@south-derbys.gov.uk,South Derbyshire,http://www.south-derbys.gov.uk,-1.50507300000000,DE24 3JG,2013-06-27,fhrs_3_en-GB,3,,FHRS,10
74041,12 Station Road,Hatton,"Derby, Derbyshire",,Hatton Fish Bar,Takeaway/sandwich shop,7844,5,,153027,5,,52.86441100000000,C1212412ST/1,069,environmental.health@south-derbys.gov.uk,South Derbyshire,http://www.south-derbys.gov.uk,-1.68190600000000,DE65 5DW,2015-01-21,fhrs_5_en-GB,5,,FHRS,5
74042,80 Station Road,Hatton,"Derby, Derbyshire",,Hatton Sandwich Bar and Post Office,Retailers - other,4613,5,,370897,0,,52.86578600000000,R2912480ST/1,069,environmental.health@south-derbys.gov.uk,South Derbyshire,http://www.south-derbys.gov.uk,-1.68155400000000,DE65 5EL,2013-07-18,fhrs_5_en-GB,5,,FHRS,0
74043,Uttoxeter Road,Hatton,"Derby, Derbyshire.",,Hatton Service Station,Retailers - other,4613,0,,185194,5,,52.87541300000000,R03122UTTO/1,069,environmental.health@south-derbys.gov.uk,South Derbyshire,http://www.south-derbys.gov.uk,-1.67818500000000,DE65 5PT,2012-04-11,fhrs_5_en-GB,5,,FHRS,5
74044,Scropton Road,Hatton,"Derby, Derbyshire",,Hatton Sports and Social Club,Pub/bar/nightclub,7843,5,,234167,5,,52.86625200000000,1AB*24SCRO/1,069,environmental.health@south-derbys.gov.uk,South Derbyshire,http://www.south-derbys.gov.uk,-1.68455100000000,DE65 5ER,2013-02-11,fhrs_5_en-GB,5,,FHRS,5
74045,46 Main Street,Etwall,Derby,,Hawk and Buckle,Pub/bar/nightclub,7843,0,,669012,5,,52.88464300000000,1AB11946MA/1,069,environmental.health@south-derbys.gov.uk,South Derbyshire,http://www.south-derbys.gov.uk,-1.60040900000000,DE65 6LP,2014-10-30,fhrs_5_en-GB,5,,FHRS,5
74046,Field Avenue,Hatton,"Derby, Derbyshire",,Heath Fields Primary School,School/college/university,7845,0,,159750,5,,52.86731900000000,P01X24FIEL/1,069,environmental.health@south-derbys.gov.uk,South Derbyshire,http://www.south-derbys.gov.uk,-1.68348900000000,DE65 5EQ,2015-01-20,fhrs_5_en-GB,5,,FHRS,0
74047,Woodhouse Farm,Robinsons Hill,"Melbourne, Derby, Derbyshire",,Heath's Farm Shop and Nursery,Retailers - other,4613,5,,370895,5,,52.81425900000000,F03X31WOOD/1,069,environmental.health@south-derbys.gov.uk,South Derbyshire,http://www.south-derbys.gov.uk,-1.43130500000000,DE73 8DN,2013-01-11,fhrs_5_en-GB,5,,FHRS,5
74048,,,,,Heaven's Bakery,Other catering premises,7841,0,,735988,0,,,C09X2542TH/1,069,environmental.health@south-derbys.gov.uk,South Derbyshire,http://www.south-derbys.gov.uk,,,2014-03-07,fhrs_5_en-GB,5,,FHRS,0
74049,Church Street,Church Gresley,"Swadlincote, Derbyshire",,Hel's kitchen,Takeaway/sandwich shop,7844,10,,669017,10,,52.76000800000000,C03*43CHUR/1,069,environmental.health@south-derbys.gov.uk,South Derbyshire,http://www.south-derbys.gov.uk,-1.56564500000000,DE11 9NR,2014-06-05,fhrs_3_en-GB,3,,FHRS,5
74050,Hospital Lane,Mickleover,Derby,,High Grange School,School/college/university,7845,5,,730969,5,,52.89708800000000,V01*07HOSP/1,069,environmental.health@south-derbys.gov.uk,South Derbyshire,http://www.south-derbys.gov.uk,-1.55825600000000,DE3 0DR,2014-12-15,fhrs_5_en-GB,5,,FHRS,5
74051,64 High Street,Melbourne,"Derby, Derbyshire",,High Hill Chinese,Takeaway/sandwich shop,7844,0,,499208,0,,52.82256900000000,1AB13164HI/1,069,environmental.health@south-derbys.gov.uk,South Derbyshire,http://www.south-derbys.gov.uk,-1.43032100000000,DE73 8GJ,2013-07-19,fhrs_5_en-GB,5,,FHRS,0
74052,Highfield Road,Swadlincote,Derbyshire,,Highfields Care Home,Hospitals/Childcare/Caring Premises,5,0,,151813,0,,52.76956700000000,BLB143HIGH/2,069,environmental.health@south-derbys.gov.uk,South Derbyshire,http://www.south-derbys.gov.uk,-1.55674600000000,DE11 9AR,2013-05-09,fhrs_5_en-GB,5,,FHRS,0
74053,Heage Lane,Etwall,"Derby, Derbyshire",,Highfields Happy Hens,Restaurant/Cafe/Canteen,1,,,151566,,,52.89722600000000,ANDX19HEAG/1,069,environmental.health@south-derbys.gov.uk,South Derbyshire,http://www.south-derbys.gov.uk,-1.59448100000000,DE65 6LS,2014-08-13,fhrs_5_en-GB,5,,FHRS,
74054,Hill Street,Swadlincote,Derbyshire,,Hill Street Baptist Church,Restaurant/Cafe/Canteen,1,5,,158690,5,,52.77195100000000,L01143HILL/1,069,environmental.health@south-derbys.gov.uk,South Derbyshire,http://www.south-derbys.gov.uk,-1.55251200000000,DE11 8HL,2013-07-02,fhrs_5_en-GB,5,,FHRS,5
74055,1 Lime Tree Avenue,Midway,"Swadlincote, Derbyshire",,Hillcrest Fish Bar,Takeaway/sandwich shop,7844,10,,153033,15,,52.78661800000000,C121431LIM/1,069,environmental.health@south-derbys.gov.uk,South Derbyshire,http://www.south-derbys.gov.uk,-1.55863400000000,DE11 0HD,2013-07-31,fhrs_2_en-GB,2,,FHRS,10
74056,Witham Close,Hilton,"Derby, Derbyshire",,Hilton Brook,Pub/bar/nightclub,7843,5,,234156,5,,52.87158600000000,1AB*25WITH/1,069,environmental.health@south-derbys.gov.uk,South Derbyshire,http://www.south-derbys.gov.uk,-1.62949900000000,DE65 5JR,2013-11-13,fhrs_5_en-GB,5,,FHRS,5
74057,Bloomfield Close,Hilton,Derby,,Hilton Church Pre School,Hospitals/Childcare/Caring Premises,5,0,,636838,0,,52.87109900000000,C07*25BLOO/1,069,environmental.health@south-derbys.gov.uk,South Derbyshire,http://www.south-derbys.gov.uk,-1.63486600000000,DE65 5WA,2013-02-06,fhrs_5_en-GB,5,,FHRS,0
74058,The Gate House,Sutton Lane,"Hilton, Derby, Derbyshire",,Hilton Dial a Pizza,Takeaway/sandwich shop,7844,10,,234149,10,,52.87927500000000,1AB*25THEG/1,069,environmental.health@south-derbys.gov.uk,South Derbyshire,http://www.south-derbys.gov.uk,-1.63922600000000,DE65 5FE,2014-03-20,fhrs_3_en-GB,3,,FHRS,5
74059,4 Witham Close,Hilton,"Derby, Derbyshire",,Hilton Fish Bar,Takeaway/sandwich shop,7844,0,,153028,0,,52.87158600000000,C121254WIT/1,069,environmental.health@south-derbys.gov.uk,South Derbyshire,http://www.south-derbys.gov.uk,-1.62949900000000,DE65 5JR,2012-11-14,fhrs_5_en-GB,5,,FHRS,5
74060,The Mease,Hilton,"Derby, Derbyshire",,Hilton Harriers Football Club,Other catering premises,7841,,,688627,,,,1AB*25THEM/1,069,environmental.health@south-derbys.gov.uk,South Derbyshire,http://www.south-derbys.gov.uk,,,2014-07-14,fhrs_5_en-GB,5,,FHRS,
74061,Mill Lane,Hilton,"Derby, Derbyshire",,Hilton House Hotel,Hotel/bed & breakfast/guest house,7842,5,,234145,0,,52.87157400000000,1AB125MILL/1,069,environmental.health@south-derbys.gov.uk,South Derbyshire,http://www.south-derbys.gov.uk,-1.64037400000000,DE65 5GP,2013-10-09,fhrs_5_en-GB,5,,FHRS,5
74062,23-25 Main Street,Hilton,"Derby, Derbyshire",,Hilton Post Office & Store,Retailers - other,4613,10,,283229,10,,52.87278700000000,1AB12523-2/1,069,environmental.health@south-derbys.gov.uk,South Derbyshire,http://www.south-derbys.gov.uk,-1.63999300000000,DE65 5GG,2013-04-18,fhrs_3_en-GB,3,,FHRS,10
74063,Peacroft Lane,Hilton,"Derby, Derbyshire",,Hilton Primary School,School/college/university,7845,10,,621049,5,,52.87178500000000,L25X25PEAC/1,069,environmental.health@south-derbys.gov.uk,South Derbyshire,http://www.south-derbys.gov.uk,-1.63273600000000,DE65 5WB,2014-12-12,fhrs_4_en-GB,4,,FHRS,5
74064,1 Canal Bank,Shardlow,"Derby, Derbyshire",,Holden House,Hotel/bed & breakfast/guest house,7842,5,,151836,0,,52.86817600000000,BTB1391CAN/1,069,environmental.health@south-derbys.gov.uk,South Derbyshire,http://www.south-derbys.gov.uk,-1.34537500000000,DE72 2GL,2013-09-30,fhrs_5_en-GB,5,,FHRS,0
74065,Main Street,Church Broughton,"Derby, Derbyshire",,Holly Bush Inn,Pub/bar/nightclub,7843,5,,234170,5,,52.89952700000000,1AB112MAIN/1,069,environmental.health@south-derbys.gov.uk,South Derbyshire,http://www.south-derbys.gov.uk,-1.69355600000000,DE65 5AS,2013-03-20,fhrs_5_en-GB,5,,FHRS,5
74066,Hepworth Retail Park,Coppice Side,Swadlincote,,Home Bargains,Retailers - other,4613,0,,611348,0,,52.77075100000000,1AB543HEPW/1,069,environmental.health@south-derbys.gov.uk,South Derbyshire,http://www.south-derbys.gov.uk,-1.55376900000000,DE11 9AA,2013-09-23,fhrs_5_en-GB,5,,FHRS,0
74067,,,,,Home Caterer,Mobile caterer,7846,0,,152851,0,,,C09145BROA/1,069,environmental.health@south-derbys.gov.uk,South Derbyshire,http://www.south-derbys.gov.uk,,,2013-06-05,fhrs_5_en-GB,5,,FHRS,0
74068,,,,,Home Caterer,Other catering premises,7841,5,,730966,0,,,C0943139BL/1,069,environmental.health@south-derbys.gov.uk,South Derbyshire,http://www.south-derbys.gov.uk,,,2014-01-17,fhrs_5_en-GB,5,,FHRS,0
74069,,,,,Home Caterer,Other catering premises,7841,5,,727484,5,,,C09X3145BL/1,069,environmental.health@south-derbys.gov.uk,South Derbyshire,http://www.south-derbys.gov.uk,,,2014-05-02,fhrs_5_en-GB,5,,FHRS,5
74070,,,,,I Love Candy Cart,Retailers - other,4613,0,,727446,0,,,C0912568WA/1,069,environmental.health@south-derbys.gov.uk,South Derbyshire,http://www.south-derbys.gov.uk,,,2014-08-22,fhrs_5_en-GB,5,,FHRS,0
74071,B5008 Etwall Road,Willington,"Derby, Derbyshire",,Ibis Budget Hotel,Hotel/bed & breakfast/guest house,7842,0,,234157,0,,52.86396600000000,1AB150B500/1,069,environmental.health@south-derbys.gov.uk,South Derbyshire,http://www.south-derbys.gov.uk,-1.56411800000000,DE65 6DX,2014-09-09,fhrs_5_en-GB,5,,FHRS,0
74072,Unit 7 Hepworth Retail Park,Swadlincote,Derbyshire,,Iceland Foods Ltd,Retailers - supermarkets/hypermarkets,7840,5,,511395,0,,52.77075100000000,1AB543UNIT/1,069,environmental.health@south-derbys.gov.uk,South Derbyshire,http://www.south-derbys.gov.uk,-1.55376900000000,DE11 9AA,2012-09-06,fhrs_5_en-GB,5,,FHRS,0
74073,2 Witham Close,Hilton,"Derby, Derbyshire",,Incredible Kids (Hilton) Limited,Hospitals/Childcare/Caring Premises,5,10,,152638,5,,52.87158600000000,C071252WIT/1,069,environmental.health@south-derbys.gov.uk,South Derbyshire,http://www.south-derbys.gov.uk,-1.62949900000000,DE65 5JR,2014-01-29,fhrs_4_en-GB,4,,FHRS,5
74074,,,,,Indulge UK,Mobile caterer,7846,5,,727454,5,,,C091514SHA/1,069,environmental.health@south-derbys.gov.uk,South Derbyshire,http://www.south-derbys.gov.uk,,,2013-05-01,fhrs_4_en-GB,4,,FHRS,10
74075,Ticknall Road,Hartshorne,"Swadlincote, Derbyshire",,J Evans,Retailers - other,4613,0,,700944,0,,,C99523TICK/1,069,environmental.health@south-derbys.gov.uk,South Derbyshire,http://www.south-derbys.gov.uk,,,2014-02-28,fhrs_5_en-GB,5,,FHRS,0
74076,14 Derby Road,Melbourne,"Derby, Derbyshire",,Jack's of Melbourne,Restaurant/Cafe/Canteen,1,5,,509056,5,,52.82468600000000,1AB53114DE/1,069,environmental.health@south-derbys.gov.uk,South Derbyshire,http://www.south-derbys.gov.uk,-1.42922500000000,DE73 8FE,2014-03-06,fhrs_5_en-GB,5,,FHRS,5
74077,,,,,Jacqueline's Homemade Chocolate and Sweet Treats,Other catering premises,7841,0,,727470,0,,,C0953813LI/1,069,environmental.health@south-derbys.gov.uk,South Derbyshire,http://www.south-derbys.gov.uk,,,2013-08-29,fhrs_5_en-GB,5,,FHRS,0
74078,42 High Street,Repton,"Derby, Derbyshire",,Jaipur Restaurant,Restaurant/Cafe/Canteen,1,5,,234150,5,,52.83827100000000,1AB13742HI/1,069,environmental.health@south-derbys.gov.uk,South Derbyshire,http://www.south-derbys.gov.uk,-1.54878800000000,DE65 6GD,2013-03-28,fhrs_4_en-GB,4,,FHRS,10
74079,1a Hilton Business Park,Harrison Court,"Hilton, Derby, Derbyshire",,Jangala Softplay Ltd,Restaurant/Cafe/Canteen,1,10,,543313,10,,52.86829400000000,C025251AHI/1,069,environmental.health@south-derbys.gov.uk,South Derbyshire,http://www.south-derbys.gov.uk,-1.62045100000000,DE65 5FJ,2014-01-29,fhrs_3_en-GB,3,,FHRS,5
74080,Wilmot Road,Swadlincote,Derbyshire,,Jason Hylton Court,Hospitals/Childcare/Caring Premises,5,10,,188028,10,,52.76957300000000,BLAX43WILM/1,069,environmental.health@south-derbys.gov.uk,South Derbyshire,http://www.south-derbys.gov.uk,-1.56085100000000,DE11 9BJ,2015-01-29,fhrs_3_en-GB,3,,FHRS,10
74081,133 High Street,Woodville,"Swadlincote, Derbyshire",,Jasper News,Retailers - other,4613,0,,234146,0,,52.76556600000000,1AB151133H/1,069,environmental.health@south-derbys.gov.uk,South Derbyshire,http://www.south-derbys.gov.uk,-1.52876100000000,DE11 7DU,2012-02-02,fhrs_5_en-GB,5,,FHRS,0
74082,High Street,Swadlincote,Derbyshire,,Jaymart Foods Ltd,Retailers - other,4613,,,727517,,,,F10243HIGH/2,069,environmental.health@south-derbys.gov.uk,South Derbyshire,http://www.south-derbys.gov.uk,,,2013-07-19,fhrs_exempt_en-GB,Exempt,,FHRS,
74083,Bison Concrete,William Nadin Way,"Swadlincote, Derbyshire",,Jigsaw Catering Ltd,Restaurant/Cafe/Canteen,1,5,,152141,0,,52.77067700000000,C02543BISO/1,069,environmental.health@south-derbys.gov.uk,South Derbyshire,http://www.south-derbys.gov.uk,-1.58276200000000,DE11 0BB,2014-02-07,fhrs_5_en-GB,5,,FHRS,5
74084,Main Street,Etwall,"Derby, Derbyshire",,John Port School,School/college/university,7845,5,,234171,10,,52.88460800000000,1ABX19MAIN/1,069,environmental.health@south-derbys.gov.uk,South Derbyshire,http://www.south-derbys.gov.uk,-1.60344100000000,DE65 6LU,2015-01-21,fhrs_4_en-GB,4,,FHRS,5
74085,Ingleby,Derby,Derbyshire,,John Thompson Inn,Pub/bar/nightclub,7843,5,,234142,0,,52.83921051025391,1AB127INGL/1,069,environmental.health@south-derbys.gov.uk,South Derbyshire,http://www.south-derbys.gov.uk,-1.48209238052368,DE73 7HW,2013-07-16,fhrs_5_en-GB,5,,FHRS,0
74086,117 High Street,Woodville,"Swadlincote, Derbyshire",,Joiners Arms,Pub/bar/nightclub,7843,5,,234143,5,,52.76724000000000,1AB551117H/1,069,environmental.health@south-derbys.gov.uk,South Derbyshire,http://www.south-derbys.gov.uk,-1.53144000000000,DE11 7EA,2012-02-02,fhrs_5_en-GB,5,,FHRS,5
74087,2 Rose Valley,Newhall,"Swadlincote, Derbyshire",,Jolly Colliers,Pub/bar/nightclub,7843,0,,234164,0,,52.78114100000000,1AB*432ROS/1,069,environmental.health@south-derbys.gov.uk,South Derbyshire,http://www.south-derbys.gov.uk,-1.56786600000000,DE11 0QN,2014-02-28,fhrs_5_en-GB,5,,FHRS,0
74088,,,,,Jo's Sweet Dreams,Retailers - other,4613,5,,727456,5,,,C0944323CL/1,069,environmental.health@south-derbys.gov.uk,South Derbyshire,http://www.south-derbys.gov.uk,,,2014-06-19,fhrs_5_en-GB,5,,FHRS,0
74089,Etwall Leisure Centre,Main Street,"Etwall, Derby, Derbyshire",,Jrhivee Catering Ltd - Etwall Cafe,Restaurant/Cafe/Canteen,1,5,,611349,10,,52.88446200000000,C03219ETWA/1,069,environmental.health@south-derbys.gov.uk,South Derbyshire,http://www.south-derbys.gov.uk,-1.60267000000000,DE65 6LU,2013-08-07,fhrs_4_en-GB,4,,FHRS,5
74090,Willington Road,Repton,"Derby, Derbyshire",,Junior Common Room Repton School,School/college/university,7845,5,,636833,5,,,1AB137WILL/1,069,environmental.health@south-derbys.gov.uk,South Derbyshire,http://www.south-derbys.gov.uk,,,2014-02-06,fhrs_5_en-GB,5,,FHRS,0
74091,57 Orchard Street,Newhall,"Swadlincote, Derbyshire",,Kang Stores,Retailers - other,4613,20,,234163,5,,52.78374300000000,1AB14357OR/1,069,environmental.health@south-derbys.gov.uk,South Derbyshire,http://www.south-derbys.gov.uk,-1.57381500000000,DE11 0JS,2014-06-27,fhrs_1_en-GB,1,,FHRS,5
74092,High Street,Swadlincote,Derbyshire,,Katy's Kitchen (Jacket Potato Stall),Mobile caterer,7846,0,,152848,0,,52.77351900000000,C09143HIGH/1,069,environmental.health@south-derbys.gov.uk,South Derbyshire,http://www.south-derbys.gov.uk,-1.55583100000000,DE11 8JE,2014-06-09,fhrs_5_en-GB,5,,FHRS,0
74093,5 The Green,Willington,"Derby, Derbyshire",,Kay's Tea Room & Take Out,Retailers - other,4613,5,,611352,0,,52.85382700000000,C035505THE/1,069,environmental.health@south-derbys.gov.uk,South Derbyshire,http://www.south-derbys.gov.uk,-1.56436800000000,DE65 6BP,2014-10-09,fhrs_5_en-GB,5,,FHRS,5
74094,70 High Street,Swadlincote,Derbyshire,,KC Fish Bar & Cafeteria,Restaurant/Cafe/Canteen,1,0,,152203,0,,52.77274000000000,C0314370HI/1,069,environmental.health@south-derbys.gov.uk,South Derbyshire,http://www.south-derbys.gov.uk,-1.55435700000000,DE11 8HS,2013-03-20,fhrs_5_en-GB,5,,FHRS,0
74095,Bretby Park,Bretby,"Burton On Trent, Derbyshire",,Keepers Cottage Lodge,Restaurant/Cafe/Canteen,1,0,,234137,0,,52.79216500000000,1AB106BRET/1,069,environmental.health@south-derbys.gov.uk,South Derbyshire,http://www.south-derbys.gov.uk,-1.56869100000000,DE15 0QG,2013-07-18,fhrs_5_en-GB,5,,FHRS,5
74096,Etwall Road,Willington,Derby,,KFC GB Limited,Restaurant/Cafe/Canteen,1,5,,153061,5,,52.86396600000000,C12550ETWA/1,069,environmental.health@south-derbys.gov.uk,South Derbyshire,http://www.south-derbys.gov.uk,-1.56411800000000,DE65 6DX,2014-09-09,fhrs_4_en-GB,4,,FHRS,10
74097,51-53 High Street,Woodville,"Swadlincote, Derbyshire",,Kim's Kitchen,Takeaway/sandwich shop,7844,5,,234152,5,,52.76724000000000,1AB15151-5/1,069,environmental.health@south-derbys.gov.uk,South Derbyshire,http://www.south-derbys.gov.uk,-1.53144000000000,DE11 7EA,2013-07-18,fhrs_4_en-GB,4,,FHRS,10
74098,60 Main Street,Hilton,"Derby, Derbyshire",,Kings Head,Pub/bar/nightclub,7843,10,,234144,10,,52.87278700000000,1AB12560MA/1,069,environmental.health@south-derbys.gov.uk,South Derbyshire,http://www.south-derbys.gov.uk,-1.63999300000000,DE65 5GG,2013-11-13,fhrs_3_en-GB,3,,FHRS,5
74099,Pack Horse Road,Melbourne,"Derby, Derbyshire",,Kings Newton Bowls Club,Pub/bar/nightclub,7843,5,,234126,5,,52.83024300000000,1AB131PACK/1,069,environmental.health@south-derbys.gov.uk,South Derbyshire,http://www.south-derbys.gov.uk,-1.42778700000000,DE73 8BZ,2012-05-08,fhrs_5_en-GB,5,,FHRS,5
74100,51 Bretby Road,Newhall,"Swadlincote, Derbyshire",,Kwik Save,Retailers - other,4613,5,,570177,5,,52.78714600000000,1AB14351BR/1,069,environmental.health@south-derbys.gov.uk,South Derbyshire,http://www.south-derbys.gov.uk,-1.57519100000000,DE11 0LL,2013-07-08,fhrs_5_en-GB,5,,FHRS,5
74101,,,,,Lake's Cakes,Other catering premises,7841,0,,727485,0,,,C09X3145SP/1,069,environmental.health@south-derbys.gov.uk,South Derbyshire,http://www.south-derbys.gov.uk,,,2014-07-02,fhrs_5_en-GB,5,,FHRS,0
74102,2000 Dove Valley Park,Park Avenue,"Foston, Derby, Derbyshire",,"Lakeside Cafe, Truma (UK) Limited",Restaurant/Cafe/Canteen,1,0,,152346,0,,52.88398400000000,C051222000/1,069,environmental.health@south-derbys.gov.uk,South Derbyshire,http://www.south-derbys.gov.uk,-1.70027900000000,DE65 5BG,2013-02-05,fhrs_5_en-GB,5,,FHRS,5
74103,20 High Street,Melbourne,"Derby, Derbyshire",,Lamb Inn,Pub/bar/nightclub,7843,10,,499207,10,,52.82256900000000,1AB13120HI/1,069,environmental.health@south-derbys.gov.uk,South Derbyshire,http://www.south-derbys.gov.uk,-1.43032100000000,DE73 8GJ,2013-10-11,fhrs_3_en-GB,3,,FHRS,10
74104,Repton School,"Tanners Lane, Repton","Derby, Derbyshire",,Latham House,School/college/university,7845,0,,570179,0,,52.83912500000000,P01X37REPT/10,069,environmental.health@south-derbys.gov.uk,South Derbyshire,http://www.south-derbys.gov.uk,-1.55600900000000,DE65 6FP,2014-11-21,fhrs_5_en-GB,5,,FHRS,0
74105,Willington Services,Etwall Road,"Willington, Derby, Derbyshire",,Le Petit Four,Restaurant/Cafe/Canteen,1,5,,152212,5,,52.86396600000000,C03550WILL/1,069,environmental.health@south-derbys.gov.uk,South Derbyshire,http://www.south-derbys.gov.uk,-1.56411800000000,DE65 6DX,2014-02-11,fhrs_5_en-GB,5,,FHRS,5
74106,Annwell Lane,Smisby,Ashby De La Zouch,,Leatherbritches Brewery,Manufacturers/packers,7839,,,727527,,,52.76626700000000,IFF*40ANNW/1,069,environmental.health@south-derbys.gov.uk,South Derbyshire,http://www.south-derbys.gov.uk,-1.49170200000000,LE65 2TA,2013-11-13,fhrs_exempt_en-GB,Exempt,,FHRS,
74107,,,,,Lemon Balloon Cake Company,Other catering premises,7841,10,,727488,0,,,C09X4320BR/1,069,environmental.health@south-derbys.gov.uk,South Derbyshire,http://www.south-derbys.gov.uk,,,2012-04-17,fhrs_4_en-GB,4,,FHRS,0
74108,37 Derby Road,Melbourne,"Derby, Derbyshire",,Lest Deli,Retailers - other,4613,5,,696706,0,,52.82468600000000,1AB53137DE/1,069,environmental.health@south-derbys.gov.uk,South Derbyshire,http://www.south-derbys.gov.uk,-1.42922500000000,DE73 8FE,2014-04-08,fhrs_5_en-GB,5,,FHRS,0
74109,Belmont Street,Swadlincote,Derbyshire,,Lidl Uk Gmbh,Retailers - supermarkets/hypermarkets,7840,5,,234127,5,,52.77475600000000,1AB143BELM/2,069,environmental.health@south-derbys.gov.uk,South Derbyshire,http://www.south-derbys.gov.uk,-1.55509200000000,DE11 8JU,2012-06-13,fhrs_5_en-GB,5,,FHRS,5
74110,14-16 Wellwood Road,Newhall,"Swadlincote, Derbyshire",,"Lifestyle Express, Wellwood Stores",Retailers - other,4613,0,,241277,0,,52.78384800000000,1AB14314-1/1,069,environmental.health@south-derbys.gov.uk,South Derbyshire,http://www.south-derbys.gov.uk,-1.56818000000000,DE11 0JA,2014-02-06,fhrs_5_en-GB,5,,FHRS,0
74111,54 Main Street,Linton,"Swadlincote, Derbyshire",,Linton Post Office,Retailers - other,4613,0,,370887,0,,52.74674600000000,1AB12854MA/1,069,environmental.health@south-derbys.gov.uk,South Derbyshire,http://www.south-derbys.gov.uk,-1.59285700000000,DE12 6PZ,2012-04-03,fhrs_5_en-GB,5,,FHRS,5
74112,Main Street,Linton,"Swadlincote, Derbyshire",,Linton Primary School,School/college/university,7845,0,,159735,0,,52.74482500000000,P01I28MAIN/1,069,environmental.health@south-derbys.gov.uk,South Derbyshire,http://www.south-derbys.gov.uk,-1.58872700000000,DE12 6QA,2015-01-23,fhrs_5_en-GB,5,,FHRS,5
74113,Winchester Drive,Linton,"Swadlincote, Derbyshire",,Linton Village Hall,Other catering premises,7841,,,727416,,,52.74554900000000,1AB128WINC/1,069,environmental.health@south-derbys.gov.uk,South Derbyshire,http://www.south-derbys.gov.uk,-1.59246800000000,DE12 6PW,2013-01-29,fhrs_exempt_en-GB,Exempt,,FHRS,
74114,,,,,Lisa Ann Oakley (Cakes),Other catering premises,7841,5,,727501,0,,,C09X502-4B/1,069,environmental.health@south-derbys.gov.uk,South Derbyshire,http://www.south-derbys.gov.uk,,,2012-03-29,fhrs_5_en-GB,5,,FHRS,0
74115,Common Road,Church Gresley,"Swadlincote, Derbyshire",,Little Bangla,Takeaway/sandwich shop,7844,0,,241282,0,,52.76313700000000,1AB143COMM/1,069,environmental.health@south-derbys.gov.uk,South Derbyshire,http://www.south-derbys.gov.uk,-1.55870800000000,DE11 9NW,2013-08-20,fhrs_5_en-GB,5,,FHRS,5
74116,,,,,Little Birdie Bakery,Other catering premises,7841,0,,727439,0,,,C09*4849BE/1,069,environmental.health@south-derbys.gov.uk,South Derbyshire,http://www.south-derbys.gov.uk,,,2012-08-17,fhrs_5_en-GB,5,,FHRS,0
74117,Woodville Methodist Church,High Street,"Woodville, Swadlincote, Derbys",,Little Butterflies Pre-School,Hospitals/Childcare/Caring Premises,5,0,,211006,0,,52.76724000000000,C07551WOOD/1,069,environmental.health@south-derbys.gov.uk,South Derbyshire,http://www.south-derbys.gov.uk,-1.53144000000000,DE11 7EA,2014-02-07,fhrs_5_en-GB,5,,FHRS,0
74118,Blakeley Lane,Etwall,Derby,,Little Jack Horner Day Nursery,Hospitals/Childcare/Caring Premises,5,5,,152628,5,,52.87040300000000,C07*19BLAK/1,069,environmental.health@south-derbys.gov.uk,South Derbyshire,http://www.south-derbys.gov.uk,-1.60267900000000,DE65 6NQ,2014-01-31,fhrs_5_en-GB,5,,FHRS,0
74119,15 Derby Road,Hilton,"Derby, Derbyshire",,Little Stars Nursery Limited,Hospitals/Childcare/Caring Premises,5,5,,152629,5,,52.87502200000000,C07*2515DE/1,069,environmental.health@south-derbys.gov.uk,South Derbyshire,http://www.south-derbys.gov.uk,-1.63018300000000,DE65 5FP,2015-02-09,fhrs_5_en-GB,5,,FHRS,5
74120,Willowpit Lane,Hilton,"Derby, Derbyshire",,Little Stars Nursery Ltd (Willowpit),Hospitals/Childcare/Caring Premises,5,5,,611354,5,,52.88660400000000,C07125WILL/1,069,environmental.health@south-derbys.gov.uk,South Derbyshire,http://www.south-derbys.gov.uk,-1.62839000000000,DE65 5FN,2014-12-12,fhrs_5_en-GB,5,,FHRS,5
74121,Station Road,Hatton,"Derby, Derbyshire",,Little Tykkes Play Group,Hospitals/Childcare/Caring Premises,5,0,,370892,0,,52.86370800000000,C07*24STAT/1,069,environmental.health@south-derbys.gov.uk,South Derbyshire,http://www.south-derbys.gov.uk,-1.68106400000000,DE65 5DY,2013-02-11,fhrs_5_en-GB,5,,FHRS,0
74122,222 Rykneld Road,Findern,"Derby, Derbyshire",,Littleover Lodge Hotel,Restaurant/Cafe/Canteen,1,,,241257,,,52.89023400000000,1AB120222R/1,069,environmental.health@south-derbys.gov.uk,South Derbyshire,http://www.south-derbys.gov.uk,-1.53591300000000,DE23 4AN,2014-08-29,fhrs_5_en-GB,5,,FHRS,
74123,Long Lane,Thurvaston,"Ashbourne, Derbyshire",,Long Lane C of E Primary School,School/college/university,7845,5,,159743,10,,52.93969400000000,P01X14LONG/1,069,environmental.health@south-derbys.gov.uk,South Derbyshire,http://www.south-derbys.gov.uk,-1.62820400000000,DE6 5BJ,2014-10-09,fhrs_3_en-GB,3,,FHRS,10
74124,2 Goseley Avenue,Hartshorne,"Swadlincote, Derbyshire",,Longdays Derby Ltd,Retailers - other,4613,0,,234129,0,,52.77505100000000,1AB1232GOS/1,069,environmental.health@south-derbys.gov.uk,South Derbyshire,http://www.south-derbys.gov.uk,-1.52437500000000,DE11 7EZ,2012-04-10,fhrs_5_en-GB,5,,FHRS,0
74125,44 School Street,Church Gresley,"Swadlincote, Derbyshire",,Lorraines Rest Home,Hospitals/Childcare/Caring Premises,5,10,,151810,10,,52.76329400000000,BLB14344SC/1,069,environmental.health@south-derbys.gov.uk,South Derbyshire,http://www.south-derbys.gov.uk,-1.56215900000000,DE11 9QZ,2014-05-21,fhrs_3_en-GB,3,,FHRS,5
74126,George Holmes Way,Swadlincote,Derbyshire,,Lou Lou's,Takeaway/sandwich shop,7844,5,,499217,5,,52.77160500000000,C09143GEOR/1,069,environmental.health@south-derbys.gov.uk,South Derbyshire,http://www.south-derbys.gov.uk,-1.56821200000000,DE11 9DF,2012-10-31,fhrs_5_en-GB,5,,FHRS,5
74127,Unit 5n Boardman Industrial Estate,Boardman Road,"Swadlincote, Derbyshire",,Lou's Shack,Mobile caterer,7846,5,,152207,0,,52.76813100000000,C03143UNIT/1,069,environmental.health@south-derbys.gov.uk,South Derbyshire,http://www.south-derbys.gov.uk,-1.57962900000000,DE11 9DL,2013-04-24,fhrs_5_en-GB,5,,FHRS,5
74128,Lullington Park,Off Edingale Lane,"Lullington, Swadlincote, Derby",,Lullington Park Cricket Club,Restaurant/Cafe/Canteen,1,5,,241259,5,,52.70659000000000,1AB129LULL/1,069,environmental.health@south-derbys.gov.uk,South Derbyshire,http://www.south-derbys.gov.uk,-1.67986000000000,,2014-02-28,fhrs_5_en-GB,5,,FHRS,5
74129,The Green,Aston On Trent,"Derby, Derbyshire",,Malt Shovel Inn,Pub/bar/nightclub,7843,5,,241279,5,,52.86159900000000,1AB102THEG/1,069,environmental.health@south-derbys.gov.uk,South Derbyshire,http://www.south-derbys.gov.uk,-1.38467200000000,DE72 2AA,2013-07-11,fhrs_5_en-GB,5,,FHRS,5
74130,Egginton Road,Hilton,"Derby, Derbyshire",,Mandarin Chinese Restaurant & Bar,Pub/bar/nightclub,7843,0,,241274,0,,52.86829400000000,1AB525EGGI/1,069,environmental.health@south-derbys.gov.uk,South Derbyshire,http://www.south-derbys.gov.uk,-1.62045100000000,DE65 5FJ,2014-03-20,fhrs_5_en-GB,5,,FHRS,0
74131,Lullington Road,Coton In The Elms,"Swadlincote, Derbyshire",,Manor Farm Bed & Breakfast,Hotel/bed & breakfast/guest house,7842,5,,151833,5,,52.73213900000000,BTB113LULL/1,069,environmental.health@south-derbys.gov.uk,South Derbyshire,http://www.south-derbys.gov.uk,-1.63787900000000,DE12 8EP,2015-01-21,fhrs_5_en-GB,5,,FHRS,5
74132,44 Main Street,Netherseal,"Swadlincote, Derbyshire",,Marions,Retailers - other,4613,10,,241296,5,,52.71466600000000,1AB13244MA/1,069,environmental.health@south-derbys.gov.uk,South Derbyshire,http://www.south-derbys.gov.uk,-1.57608700000000,DE12 8DA,2013-10-18,fhrs_4_en-GB,4,,FHRS,5
74133,7 West Street,Swadlincote,Derbyshire,,Mario's Cafe,Restaurant/Cafe/Canteen,1,5,,241287,10,,52.77330200000000,1AB1437WES/1,069,environmental.health@south-derbys.gov.uk,South Derbyshire,http://www.south-derbys.gov.uk,-1.55787900000000,DE11 9DG,2015-01-07,fhrs_4_en-GB,4,,FHRS,5
74134,Belmont Street,Swadlincote,Derbyshire,,McDonalds Restaurant,Restaurant/Cafe/Canteen,1,0,,152205,0,,52.77475600000000,C03143BELM/1,069,environmental.health@south-derbys.gov.uk,South Derbyshire,http://www.south-derbys.gov.uk,-1.55509200000000,DE11 8JU,2013-08-30,fhrs_5_en-GB,5,,FHRS,5
74135,29 Market Place,Melbourne,"Derby, Derbyshire",,Melbourne Fish & Chip Shop,Takeaway/sandwich shop,7844,0,,339972,0,,52.82298400000000,1AB13129MA/1,069,environmental.health@south-derbys.gov.uk,South Derbyshire,http://www.south-derbys.gov.uk,-1.42868300000000,DE73 8DS,2013-11-19,fhrs_5_en-GB,5,,FHRS,0
74136,Church Square,Melbourne,Derbyshire,,Melbourne Hall Tea Rooms,Restaurant/Cafe/Canteen,1,0,,152193,0,,52.83306600000000,C03131CHUR/1,069,environmental.health@south-derbys.gov.uk,South Derbyshire,http://www.south-derbys.gov.uk,-1.44804500000000,DE73 1EN,2013-09-12,fhrs_5_en-GB,5,,FHRS,0
74137,Pack Horse Road,Melbourne,"Derby, Derbyshire",,Melbourne Infant School,School/college/university,7845,5,,464404,5,,52.82763900000000,1ABX31PACK/1,069,environmental.health@south-derbys.gov.uk,South Derbyshire,http://www.south-derbys.gov.uk,-1.42647000000000,DE73 8JE,2012-11-08,fhrs_5_en-GB,5,,FHRS,5
74138,Pack Horse Road,Melbourne,"Derby, Derbyshire",,Melbourne Junior School,School/college/university,7845,0,,494336,0,,52.82763900000000,1ABX31PACK/2,069,environmental.health@south-derbys.gov.uk,South Derbyshire,http://www.south-derbys.gov.uk,-1.42647000000000,DE73 8JE,2015-01-07,fhrs_5_en-GB,5,,FHRS,5
74139,Castle Street,Melbourne,Derby,,Melbourne Kitchen,Takeaway/sandwich shop,7844,,,153018,,,52.82436700000000,C12*31CAST/1,069,environmental.health@south-derbys.gov.uk,South Derbyshire,http://www.south-derbys.gov.uk,-1.42274400000000,DE73 8JB,2014-10-13,fhrs_5_en-GB,5,,FHRS,
74140,35-36 Market Place,Melbourne,"Derby, Derbyshire",,Melbourne News,Retailers - other,4613,0,,157674,5,,52.82298400000000,F1113135-3/1,069,environmental.health@south-derbys.gov.uk,South Derbyshire,http://www.south-derbys.gov.uk,-1.42868300000000,DE73 8DS,2014-10-15,fhrs_5_en-GB,5,,FHRS,0
74141,Station Road,Melbourne,Derby,,Melbourne View Hotel,Hotel/bed & breakfast/guest house,7842,0,,241263,0,,52.82899400000000,1AB131STAT/1,069,environmental.health@south-derbys.gov.uk,South Derbyshire,http://www.south-derbys.gov.uk,-1.40058300000000,DE73 8BR,2013-12-11,fhrs_5_en-GB,5,,FHRS,5
74142,Etwall Road,Mickleover,"Derby, Derbyshire",,Menzies Hotel,Hotel/bed & breakfast/guest house,7842,0,,241272,0,,52.90177800000000,1AB107ETWA/1,069,environmental.health@south-derbys.gov.uk,South Derbyshire,http://www.south-derbys.gov.uk,-1.55028500000000,DE3 0XX,2014-02-12,fhrs_5_en-GB,5,,FHRS,5
74143,Newton Road,Newton Solney,"Burton On Trent, Derbyshire",,Mercure Burton On Trent Newton Park Hotel,Hotel/bed & breakfast/guest house,7842,5,,241256,5,,52.82223400000000,1AB133NEWT/1,069,environmental.health@south-derbys.gov.uk,South Derbyshire,http://www.south-derbys.gov.uk,-1.59369500000000,DE15 0TD,2013-05-08,fhrs_5_en-GB,5,,FHRS,5
74144,Portland Street,Etwall,"Derby, Derbyshire",,MHA Etwall - Live at Home Scheme,Hospitals/Childcare/Caring Premises,5,5,,558352,0,,52.88136000000000,C99519PORT/1,069,environmental.health@south-derbys.gov.uk,South Derbyshire,http://www.south-derbys.gov.uk,-1.60250500000000,DE65 6NB,2013-06-18,fhrs_5_en-GB,5,,FHRS,0
74145,105-107 High Street,Woodville,"Swadlincote, Derbyshire",,Michael Lee Royalty Restaurant,Restaurant/Cafe/Canteen,1,5,,241295,10,,52.76724000000000,1AB151105-/1,069,environmental.health@south-derbys.gov.uk,South Derbyshire,http://www.south-derbys.gov.uk,-1.53144000000000,DE11 7EA,2013-03-05,fhrs_3_en-GB,3,,FHRS,10
74146,off Merlin Way,Mickleover,"Derby, Derbyshire",,Mickleover Country Park and Social Club,Pub/bar/nightclub,7843,5,,521375,5,,52.89593500000000,1AB107OFFM/1,069,environmental.health@south-derbys.gov.uk,South Derbyshire,http://www.south-derbys.gov.uk,-1.56012600000000,DE3 0UJ,2012-10-24,fhrs_5_en-GB,5,,FHRS,5
74147,James Street,Midway,"Swadlincote, Derbyshire",,Midway Preschool,Hospitals/Childcare/Caring Premises,5,5,,152632,0,,52.78042700000000,C07*43JAME/1,069,environmental.health@south-derbys.gov.uk,South Derbyshire,http://www.south-derbys.gov.uk,-1.54750300000000,DE11 7NE,2012-09-12,fhrs_5_en-GB,5,,FHRS,5
74148,356 Burton Road,Midway,"Swadlincote, Derbyshire",,Midway Service Station,Retailers - other,4613,5,,241261,0,,52.78134400000000,1AB*43356B/1,069,environmental.health@south-derbys.gov.uk,South Derbyshire,http://www.south-derbys.gov.uk,-1.54500300000000,DE11 7ND,2014-02-06,fhrs_5_en-GB,5,,FHRS,5
74149,2 Blanch Croft,Melbourne,"Derby, Derbyshire",,Mileburne Restaurant,Restaurant/Cafe/Canteen,1,5,,241290,0,,52.82376200000000,1AB1312BLA/1,069,environmental.health@south-derbys.gov.uk,South Derbyshire,http://www.south-derbys.gov.uk,-1.42978600000000,DE73 8GG,2013-10-25,fhrs_5_en-GB,5,,FHRS,0
74150,25 Church Street,Church Gresley,"Swadlincote, Derbyshire",,Millennium Fish Bar,Takeaway/sandwich shop,7844,5,,153037,5,,52.76138900000000,C1214325CH/1,069,environmental.health@south-derbys.gov.uk,South Derbyshire,http://www.south-derbys.gov.uk,-1.56244500000000,DE11 9NP,2014-09-22,fhrs_5_en-GB,5,,FHRS,5
74151,Queens Drive,Swadlincote,Derbyshire,,Mobile Catering UK Ltd,Mobile caterer,7846,5,,643773,5,,52.78189300000000,C09443QUEE/1,069,environmental.health@south-derbys.gov.uk,South Derbyshire,http://www.south-derbys.gov.uk,-1.56197300000000,DE11 0EG,2014-04-16,fhrs_5_en-GB,5,,FHRS,5
74152,A516 Etwall By Pass,,,,Mobile Takeaway,Mobile caterer,7846,0,,543315,0,,52.89591500000000,C12502A516/1,069,environmental.health@south-derbys.gov.uk,South Derbyshire,http://www.south-derbys.gov.uk,-1.66395700000000,DE65 5DH,2013-04-08,fhrs_5_en-GB,5,,FHRS,0
74153,,,,,Mojos,Manufacturers/packers,7839,0,,611355,0,,,C09551249W/1,069,environmental.health@south-derbys.gov.uk,South Derbyshire,http://www.south-derbys.gov.uk,,,2013-09-24,fhrs_5_en-GB,5,,FHRS,0
74154,Beehive Farm,Rosliston,Swadlincote,,Mojos Jams & Chutneys,Retailers - other,4613,,,727524,,,52.74218800000000,F99538BEEH/1,069,environmental.health@south-derbys.gov.uk,South Derbyshire,http://www.south-derbys.gov.uk,-1.63135200000000,DE12 8HZ,2014-05-22,fhrs_exempt_en-GB,Exempt,,FHRS,
74155,5 Midland Road,Swadlincote,Derbyshire,,Montanaro's,Restaurant/Cafe/Canteen,1,0,,339975,0,,52.77408100000000,1AB2435MID/1,069,environmental.health@south-derbys.gov.uk,South Derbyshire,http://www.south-derbys.gov.uk,-1.55718900000000,DE11 0AG,2013-10-18,fhrs_5_en-GB,5,,FHRS,5
74156,Hollow Lane,Burton On Trent,Derbyshire,,Mount Pleasant Care Home,Hospitals/Childcare/Caring Premises,5,5,,151807,5,,52.81167000000000,BLB133HOLL/1,069,environmental.health@south-derbys.gov.uk,South Derbyshire,http://www.south-derbys.gov.uk,-1.59874900000000,DE15 0DR,2014-10-06,fhrs_5_en-GB,5,,FHRS,5
74157,Mount Pleasant Road,Repton,"Derby, Derbyshire",,Mount Pleasant Inn,Pub/bar/nightclub,7843,0,,241285,0,,52.83443200000000,1AB*37MOUN/1,069,environmental.health@south-derbys.gov.uk,South Derbyshire,http://www.south-derbys.gov.uk,-1.53937200000000,DE65 6GQ,2014-03-26,fhrs_5_en-GB,5,,FHRS,5
74158,Belmont Street,Swadlincote,Derbyshire,,Moza HQ,Restaurant/Cafe/Canteen,1,0,,370888,0,,52.77475600000000,1AB143BELM/3,069,environmental.health@south-derbys.gov.uk,South Derbyshire,http://www.south-derbys.gov.uk,-1.55509200000000,DE11 8JU,2014-06-19,fhrs_5_en-GB,5,,FHRS,5
74159,,,,,Ms Diane Coles,Other catering premises,7841,0,,727475,0,,,C0955043ME/1,069,environmental.health@south-derbys.gov.uk,South Derbyshire,http://www.south-derbys.gov.uk,,,2013-10-08,fhrs_5_en-GB,5,,FHRS,5
74160,99 Woodland Road,Stanton,"Swadlincote, Derbyshire",,Mumbai Rouge,Restaurant/Cafe/Canteen,1,5,,283275,5,,52.75949700000000,1AB14399WO/1,069,environmental.health@south-derbys.gov.uk,South Derbyshire,http://www.south-derbys.gov.uk,-1.57612700000000,DE11 9TJ,2014-06-04,fhrs_4_en-GB,4,,FHRS,10
74161,,,,,My Home Bakery,Retailers - other,4613,5,,727467,5,,,C095335HOL/1,069,environmental.health@south-derbys.gov.uk,South Derbyshire,http://www.south-derbys.gov.uk,,,2014-04-07,fhrs_5_en-GB,5,,FHRS,0
74162,130 Heath Lane,Findern,"Derby, Derbyshire",,Nadee,Restaurant/Cafe/Canteen,1,5,,283221,5,,52.86498800000000,1AB120130H/1,069,environmental.health@south-derbys.gov.uk,South Derbyshire,http://www.south-derbys.gov.uk,-1.54196000000000,DE65 6AR,2013-07-31,fhrs_5_en-GB,5,,FHRS,5
74163,London Road,Shardlow,"Derby, Derbyshire",,Navigation Inn,Pub/bar/nightclub,7843,0,,241271,0,,52.86776600000000,1AB139LOND/2,069,environmental.health@south-derbys.gov.uk,South Derbyshire,http://www.south-derbys.gov.uk,-1.34105900000000,DE72 2HJ,2014-01-29,fhrs_5_en-GB,5,,FHRS,5
74164,Marston Lane,Hatton,"Derby, Derbyshire",,Nestle Staff Canteen - Elior UK,Restaurant/Cafe/Canteen,1,5,,152453,5,,52.86395500000000,C05X24MARS/1,069,environmental.health@south-derbys.gov.uk,South Derbyshire,http://www.south-derbys.gov.uk,-1.67947300000000,DE13 9LY,2014-03-31,fhrs_5_en-GB,5,,FHRS,5
74165,Marston Lane,Hatton,"Derby, Derbyshire",,Nestle Staff Shop,Retailers - other,4613,5,,157781,5,,52.86395500000000,F99*24MARS/1,069,environmental.health@south-derbys.gov.uk,South Derbyshire,http://www.south-derbys.gov.uk,-1.67947300000000,DE13 9LY,2013-02-04,fhrs_5_en-GB,5,,FHRS,5
74166,Netherhall Road,Hartshorne,"Swadlincote, Derbyshire",,Netherhall Nursing Home,Hospitals/Childcare/Caring Premises,5,0,,151796,5,,52.79057600000000,BLAX23NETH/1,069,environmental.health@south-derbys.gov.uk,South Derbyshire,http://www.south-derbys.gov.uk,-1.53807000000000,DE11 7AA,2013-10-16,fhrs_5_en-GB,5,,FHRS,5
74167,Clifton Road,Netherseal,"Swadlincote, Derbyshire",,Netherseal Baptist Church,Other catering premises,7841,,,727427,,,52.71470500000000,C04132CLIF/1,069,environmental.health@south-derbys.gov.uk,South Derbyshire,http://www.south-derbys.gov.uk,-1.57944700000000,DE12 8BP,2012-03-05,fhrs_exempt_en-GB,Exempt,,FHRS,
74168,Main Street,Netherseal,"Swadlincote, Derbyshire",,Netherseal Lawn Tennis Club,Other catering premises,7841,,,727411,,,52.71271100000000,1AB*32MAIN/1,069,environmental.health@south-derbys.gov.uk,South Derbyshire,http://www.south-derbys.gov.uk,-1.57745300000000,DE12 8BZ,2014-06-25,fhrs_exempt_en-GB,Exempt,,FHRS,
74169,Main Street,Netherseal,"Swadlincote, Derbyshire",,Netherseal St Peters Sports & Social Club,Pub/bar/nightclub,7843,10,,241260,5,,52.71271100000000,1AB132MAIN/1,069,environmental.health@south-derbys.gov.uk,South Derbyshire,http://www.south-derbys.gov.uk,-1.57745300000000,DE12 8BZ,2013-11-22,fhrs_4_en-GB,4,,FHRS,5
74170,Main Street,Netherseal,"Swadlincote, Derbyshire",,Netherseal St. Peters Primary School,School/college/university,7845,0,,292130,0,,52.71271100000000,P01X32MAIN/1,069,environmental.health@south-derbys.gov.uk,South Derbyshire,http://www.south-derbys.gov.uk,-1.57745300000000,DE12 8BZ,2013-03-08,fhrs_5_en-GB,5,,FHRS,0
74171,51 Market Street,Church Gresley,"Swadlincote, Derbyshire",,New Canton Wok,Takeaway/sandwich shop,7844,5,,153039,5,,52.76420000000000,C1214351MA/1,069,environmental.health@south-derbys.gov.uk,South Derbyshire,http://www.south-derbys.gov.uk,-1.55932000000000,DE11 9PR,2013-03-27,fhrs_5_en-GB,5,,FHRS,5
74172,111 High Street,Newhall,"Swadlincote, Derbyshire",,New China Town,Takeaway/sandwich shop,7844,0,,153032,0,,52.78439000000000,C12143111H/1,069,environmental.health@south-derbys.gov.uk,South Derbyshire,http://www.south-derbys.gov.uk,-1.57130300000000,DE11 0HT,2013-01-12,fhrs_5_en-GB,5,,FHRS,0
74173,21 Salisbury Drive,Midway,"Swadlincote, Derbyshire",,New Hong Kong House,Takeaway/sandwich shop,7844,5,,241265,5,,52.77982100000000,1AB14321SA/1,069,environmental.health@south-derbys.gov.uk,South Derbyshire,http://www.south-derbys.gov.uk,-1.53957800000000,DE11 7LD,2013-03-27,fhrs_4_en-GB,4,,FHRS,10
74174,Burton Road,Repton,Derby,,New House,School/college/university,7845,0,,669027,5,,52.83898300000000,P01X37BURT/1,069,environmental.health@south-derbys.gov.uk,South Derbyshire,http://www.south-derbys.gov.uk,-1.55173500000000,DE65 6FL,2015-01-21,fhrs_5_en-GB,5,,FHRS,0
74175,2 High Street,Woodville,"Swadlincote, Derbyshire",,New Inn,Pub/bar/nightclub,7843,10,,241293,10,,52.76894700000000,1AB1512HIG/1,069,environmental.health@south-derbys.gov.uk,South Derbyshire,http://www.south-derbys.gov.uk,-1.53351200000000,DE11 7EH,2014-03-31,fhrs_3_en-GB,3,,FHRS,10
74176,11 Princess Street,Church Gresley,"Swadlincote, Derbyshire",,New King Wah Chinese Takeaway,Takeaway/sandwich shop,7844,5,,241267,5,,52.75835200000000,1AB10911PR/1,069,environmental.health@south-derbys.gov.uk,South Derbyshire,http://www.south-derbys.gov.uk,-1.57256700000000,DE11 9JZ,2013-01-08,fhrs_5_en-GB,5,,FHRS,5
74177,86 George Street,Church Gresley,"Swadlincote, Derbyshire",,New Rainbow House,Takeaway/sandwich shop,7844,5,,283272,5,,52.76483200000000,1AB14386GE/1,069,environmental.health@south-derbys.gov.uk,South Derbyshire,http://www.south-derbys.gov.uk,-1.56974700000000,DE11 9NZ,2013-09-19,fhrs_5_en-GB,5,,FHRS,0
74178,4 The Delph Centre,Market Street,"Swadlincote, Derbyshire",,New Swad Bangladeshi Cuisine,Restaurant/Cafe/Canteen,1,0,,494334,5,,52.77384400000000,1AB1434THE/1,069,environmental.health@south-derbys.gov.uk,South Derbyshire,http://www.south-derbys.gov.uk,-1.55860000000000,DE11 9DA,2013-07-23,fhrs_5_en-GB,5,,FHRS,5
74179,51 Main Street,Newhall,"Swadlincote, Derbyshire",,New World,Takeaway/sandwich shop,7844,0,,153059,5,,52.78460800000000,C1254351MA/1,069,environmental.health@south-derbys.gov.uk,South Derbyshire,http://www.south-derbys.gov.uk,-1.57951500000000,DE11 0TW,2012-08-15,fhrs_5_en-GB,5,,FHRS,0
74180,121 High Street,Newhall,"Swadlincote, Derbyshire",,Newhall Balti,Takeaway/sandwich shop,7844,0,,153057,0,,52.78343000000000,C12543121H/1,069,environmental.health@south-derbys.gov.uk,South Derbyshire,http://www.south-derbys.gov.uk,-1.56937100000000,DE11 0HR,2014-03-18,fhrs_5_en-GB,5,,FHRS,5
74181,Meadow Lane,Newhall,"Swadlincote, Derbyshire",,Newhall Centre,Hospitals/Childcare/Caring Premises,5,0,,160131,0,,52.77909800000000,P03X43MEAD/1,069,environmental.health@south-derbys.gov.uk,South Derbyshire,http://www.south-derbys.gov.uk,-1.57200800000000,DE11 0UW,2014-01-31,fhrs_5_en-GB,5,,FHRS,0
74182,70-72 Elmsleigh Drive,Midway,"Swadlincote, Derbyshire",,Newhall Childrens' Centre,Hospitals/Childcare/Caring Premises,5,,,727534,,,52.78469300000000,P0314370-7/1,069,environmental.health@south-derbys.gov.uk,South Derbyshire,http://www.south-derbys.gov.uk,-1.56078800000000,DE11 0ER,2013-11-06,fhrs_exempt_en-GB,Exempt,,FHRS,
74183,Chesterfield Avenue,Newhall,"Swadlincote, Derbyshire",,Newhall Community Junior School,School/college/university,7845,0,,577538,0,,52.78475900000000,L25X43CHES/1,069,environmental.health@south-derbys.gov.uk,South Derbyshire,http://www.south-derbys.gov.uk,-1.58153000000000,DE11 0TR,2014-04-30,fhrs_5_en-GB,5,,FHRS,5
74184,Sunnyside,Newhall,"Swadlincote, Derbyshire",,Newhall Infant & Nursery School,School/college/university,7845,5,,159769,5,,52.78725433349609,P01X43SUNN/1,069,environmental.health@south-derbys.gov.uk,South Derbyshire,http://www.south-derbys.gov.uk,-1.57824432849884,DE11 0TJ,2014-05-21,fhrs_5_en-GB,5,,FHRS,5
74185,154 High Street,Newhall,"Swadlincote, Derbyshire",,Newhall Labour Club,Pub/bar/nightclub,7843,20,,241258,10,,52.78326200000000,1AB143154H/1,069,environmental.health@south-derbys.gov.uk,South Derbyshire,http://www.south-derbys.gov.uk,-1.56766700000000,DE11 0HP,2014-11-18,fhrs_1_en-GB,1,,FHRS,10
74186,Chapel Street,Newhall,"Swadlincote, Derbyshire",,Newhall Methodist Church,Other catering premises,7841,,,727429,,,52.78398200000000,C04143CHAP/1,069,environmental.health@south-derbys.gov.uk,South Derbyshire,http://www.south-derbys.gov.uk,-1.57282000000000,DE11 0JU,2013-08-06,fhrs_exempt_en-GB,Exempt,,FHRS,
74187,Newhall Scout Group Headquarte,Higgins Road,"Newhall, Swadlincote",,Newhall Pre-School,Hospitals/Childcare/Caring Premises,5,5,,152647,5,,52.78456200000000,C07143NEWH/1,069,environmental.health@south-derbys.gov.uk,South Derbyshire,http://www.south-derbys.gov.uk,-1.57655000000000,DE11 0JY,2013-11-14,fhrs_5_en-GB,5,,FHRS,5
74188,St John's Drive,Newhall,"Swadlincote, Derbyshire",,Newhall United Football Club,Retailers - other,4613,20,,669014,10,,52.78194500000000,1AB143STJO/1,069,environmental.health@south-derbys.gov.uk,South Derbyshire,http://www.south-derbys.gov.uk,-1.58140900000000,DE11 0SR,2013-05-23,fhrs_1_en-GB,1,,FHRS,10
74189,Main Street,Netherseal,"Swadlincote, Derbyshire",,Newlands House,Hospitals/Childcare/Caring Premises,5,5,,151806,0,,52.71466600000000,BLB132MAIN/1,069,environmental.health@south-derbys.gov.uk,South Derbyshire,http://www.south-derbys.gov.uk,-1.57608700000000,DE12 8DA,2013-12-19,fhrs_5_en-GB,5,,FHRS,5
74190,34 Main Street,Etwall,"Derby, Derbyshire",,News r us,Retailers - other,4613,5,,241278,0,,52.88464300000000,1AB11934MA/1,069,environmental.health@south-derbys.gov.uk,South Derbyshire,http://www.south-derbys.gov.uk,-1.60040900000000,DE65 6LP,2014-02-21,fhrs_5_en-GB,5,,FHRS,0
74191,111 Oversetts Road,Newhall,"Swadlincote, Derbyshire",,Newsmarket,Retailers - other,4613,5,,241269,0,,52.78063500000000,1AB143111O/1,069,environmental.health@south-derbys.gov.uk,South Derbyshire,http://www.south-derbys.gov.uk,-1.57971700000000,DE11 0SN,2012-01-17,fhrs_5_en-GB,5,,FHRS,0
74192,Trent Lane,Newton Solney,"Burton On Trent, Derbyshire",,Newton Solney Infants School,School/college/university,7845,0,,159755,0,,52.82769500000000,P01X33TREN/1,069,environmental.health@south-derbys.gov.uk,South Derbyshire,http://www.south-derbys.gov.uk,-1.58460600000000,DE15 0SF,2013-03-13,fhrs_5_en-GB,5,,FHRS,5
74193,53-55 Station Road,Hatton,"Derby, Derbyshire",,Nisa Local Hatton,Retailers - supermarkets/hypermarkets,7840,10,,610718,10,,52.86589300000000,1AB12453-5/1,069,environmental.health@south-derbys.gov.uk,South Derbyshire,http://www.south-derbys.gov.uk,-1.68146400000000,DE65 5EL,2013-10-29,fhrs_3_en-GB,3,,FHRS,5
74194,Hall Farm Road,Swadlincote,Derbyshire,,Oakland Stores,Retailers - other,4613,5,,508316,0,,52.77487200000000,C05543HALL/1,069,environmental.health@south-derbys.gov.uk,South Derbyshire,http://www.south-derbys.gov.uk,-1.54996200000000,DE11 8LH,2013-02-13,fhrs_5_en-GB,5,,FHRS,5
74195,Hall Farm Road,Swadlincote,Derbyshire,,Oakland Village,Hospitals/Childcare/Caring Premises,5,5,,521376,5,,52.77487200000000,1AB143HALL/1,069,environmental.health@south-derbys.gov.uk,South Derbyshire,http://www.south-derbys.gov.uk,-1.54996200000000,DE11 8LH,2014-06-25,fhrs_5_en-GB,5,,FHRS,5
74196,Coppice Side,Swadlincote,Derbyshire,,Odeon Cinema,Restaurant/Cafe/Canteen,1,0,,611342,0,,52.77098600000000,1AB*43COPP/1,069,environmental.health@south-derbys.gov.uk,South Derbyshire,http://www.south-derbys.gov.uk,-1.55642000000000,DE11 9FQ,2013-09-23,fhrs_5_en-GB,5,,FHRS,0
74197,Derby Road,Egginton,Derby,,OK Diners Ltd,Restaurant/Cafe/Canteen,1,0,,339970,0,,,1AB117DERB/2,069,environmental.health@south-derbys.gov.uk,South Derbyshire,http://www.south-derbys.gov.uk,,DE65 8GY,2014-02-18,fhrs_5_en-GB,5,,FHRS,0
74198,Hearthcote Road,Swadlincote,Derbyshire,,Olive Catering Services,Restaurant/Cafe/Canteen,1,5,,158652,5,,52.77016000000000,I17X43HEAR/2,069,environmental.health@south-derbys.gov.uk,South Derbyshire,http://www.south-derbys.gov.uk,-1.57139900000000,DE11 9DU,2014-06-18,fhrs_5_en-GB,5,,FHRS,5
74199,7 Witham Close,Hilton,"Derby, Derbyshire",,Oriental Garden,Takeaway/sandwich shop,7844,10,,153054,10,,52.87158600000000,C125257WIT/1,069,environmental.health@south-derbys.gov.uk,South Derbyshire,http://www.south-derbys.gov.uk,-1.62949900000000,DE65 5JR,2015-01-21,fhrs_3_en-GB,3,,FHRS,10
74200,York Road,Church Gresley,Swadlincote,,Our Monkey Club CIC,Hospitals/Childcare/Caring Premises,5,5,,692409,5,,52.76513400000000,C07543YORK/1,069,environmental.health@south-derbys.gov.uk,South Derbyshire,http://www.south-derbys.gov.uk,-1.56389000000000,DE11 9QQ,2014-08-14,fhrs_5_en-GB,5,,FHRS,5
74201,Woodville Road,Overseal,Swadlincote,,Overseal Care Home,Hospitals/Childcare/Caring Premises,5,5,,151808,5,,52.73813200000000,BLB135WOOD/1,069,environmental.health@south-derbys.gov.uk,South Derbyshire,http://www.south-derbys.gov.uk,-1.55970100000000,DE12 6LU,2014-09-19,fhrs_5_en-GB,5,,FHRS,0
74202,Woodville Road,Overseal,"Swadlincote, Derbyshire",,Overseal Memorial Bowls Club,Pub/bar/nightclub,7843,10,,689173,5,,52.73631100000000,1AB135WOOD/2,069,environmental.health@south-derbys.gov.uk,South Derbyshire,http://www.south-derbys.gov.uk,-1.56306600000000,DE12 6JG,2014-07-22,fhrs_4_en-GB,4,,FHRS,0
74203,Woodville Road,Overseal,"Swadlincote, Derbyshire",,Overseal Primary School,School/college/university,7845,5,,159756,5,,52.73813200000000,P01X35WOOD/1,069,environmental.health@south-derbys.gov.uk,South Derbyshire,http://www.south-derbys.gov.uk,-1.55970100000000,DE12 6LU,2015-01-26,fhrs_5_en-GB,5,,FHRS,0
74204,High Street,Swadlincote,Derbyshire,,P. J. Bradbury and Sons,Retailers - other,4613,5,,543316,5,,,F01*43HIGH/1,069,environmental.health@south-derbys.gov.uk,South Derbyshire,http://www.south-derbys.gov.uk,,,2013-04-19,fhrs_5_en-GB,5,,FHRS,5
74205,57 High Street,Woodville,"Swadlincote, Derbyshire",,Papa's Pizza,Takeaway/sandwich shop,7844,5,,241276,5,,52.76724000000000,1AB15157HI/1,069,environmental.health@south-derbys.gov.uk,South Derbyshire,http://www.south-derbys.gov.uk,-1.53144000000000,DE11 7EA,2013-07-30,fhrs_5_en-GB,5,,FHRS,0
74206,High Street,Newhall,Swadlincote,,Park Side Cafe,Restaurant/Cafe/Canteen,1,0,,159849,5,,52.78514400000000,P03143HIGH/1,069,environmental.health@south-derbys.gov.uk,South Derbyshire,http://www.south-derbys.gov.uk,-1.57608500000000,DE11 0HX,2014-01-31,fhrs_5_en-GB,5,,FHRS,5
74207,Burton Road,Midway,"Swadlincote, Derbyshire",,Parkgate Service Station,Retailers - other,4613,5,,185595,5,,52.79019800000000,S21543BURT/1,069,environmental.health@south-derbys.gov.uk,South Derbyshire,http://www.south-derbys.gov.uk,-1.56411400000000,DE11 0DN,2014-01-28,fhrs_4_en-GB,4,,FHRS,10
74208,Main Street,Caldwell,"Swadlincote, Derbyshire",,Pegasus School,School/college/university,7845,5,,159740,5,,52.75159300000000,P01X11MAIN/1,069,environmental.health@south-derbys.gov.uk,South Derbyshire,http://www.south-derbys.gov.uk,-1.62343500000000,DE12 6RS,2013-07-25,fhrs_5_en-GB,5,,FHRS,0
74209,Pennine Way,Swadlincote,Derbyshire,,Pennine Way Academy,School/college/university,7845,5,,159766,5,,52.76767400000000,P01X43PENN/1,069,environmental.health@south-derbys.gov.uk,South Derbyshire,http://www.south-derbys.gov.uk,-1.56519800000000,DE11 9EY,2013-07-23,fhrs_5_en-GB,5,,FHRS,5
74210,Uttoxeter Road,Hilton,"Derby, Derbyshire",,Perfect Pies,Manufacturers/packers,7839,,,727528,,,52.87283400000000,IFG125UTTO/1,069,environmental.health@south-derbys.gov.uk,South Derbyshire,http://www.south-derbys.gov.uk,-1.64673700000000,DE65 5FZ,2014-01-22,fhrs_exempt_en-GB,Exempt,,FHRS,
74211,121 Twyford Road,Willington,"Derby, Derbyshire",,Phil Brammal & Partners,Distributors/Transporters,7,,,727518,,,52.85350200000000,F14*50121T/1,069,environmental.health@south-derbys.gov.uk,South Derbyshire,http://www.south-derbys.gov.uk,-1.55194200000000,DE65 6DG,2013-06-20,fhrs_exempt_en-GB,Exempt,,FHRS,
74212,Pine Lake,Stenson,Barrow on Trent,,Pine Lake,Restaurant/Cafe/Canteen,1,10,,696892,0,,52.86593300000000,C04*03PINE/1,069,environmental.health@south-derbys.gov.uk,South Derbyshire,http://www.south-derbys.gov.uk,-1.52173300000000,DE73 7GB,2014-09-02,fhrs_4_en-GB,4,,FHRS,5
74213,Coronation Street,Swadlincote,Derbyshire,,Pingle School,School/college/university,7845,5,,283316,5,,52.77808600000000,1ABI43CORO/1,069,environmental.health@south-derbys.gov.uk,South Derbyshire,http://www.south-derbys.gov.uk,-1.56571700000000,DE11 0QA,2014-06-23,fhrs_5_en-GB,5,,FHRS,0
74214,Bretby Lane,Bretby,"Burton On Trent, Derbyshire",,Planters @ Bretby Tea Rooms,Restaurant/Cafe/Canteen,1,5,,152182,5,,52.81017100000000,C03106BRET/1,069,environmental.health@south-derbys.gov.uk,South Derbyshire,http://www.south-derbys.gov.uk,-1.57363100000000,DE15 0QS,2013-08-09,fhrs_5_en-GB,5,,FHRS,5
74215,Pool Road,Melbourne,"Derby, Derbyshire",,Pool Cottage Residential Home,Hospitals/Childcare/Caring Premises,5,0,,151803,0,,52.81938000000000,BLB131POOL/1,069,environmental.health@south-derbys.gov.uk,South Derbyshire,http://www.south-derbys.gov.uk,-1.42148900000000,DE73 8AA,2014-10-15,fhrs_5_en-GB,5,,FHRS,5
74216,117 High Street,Newhall,Swadlincote,,Popeye's Cafe,Restaurant/Cafe/Canteen,1,5,,370890,5,,52.78341200000000,C03*43117H/1,069,environmental.health@south-derbys.gov.uk,South Derbyshire,http://www.south-derbys.gov.uk,-1.56943000000000,DE11 0HR,2015-01-16,fhrs_5_en-GB,5,,FHRS,0
74217,47 High Street,Swadlincote,Derbyshire,,Poundstretcher,Retailers - other,4613,5,,185365,5,,52.77301800000000,R2314347HI/1,069,environmental.health@south-derbys.gov.uk,South Derbyshire,http://www.south-derbys.gov.uk,-1.55404300000000,DE11 8JA,2013-03-01,fhrs_5_en-GB,5,,FHRS,5
74218,Hepworth Retail Park,Coppice Side,Swadlincote,,Poundworld,Retailers - other,4613,0,,611357,0,,52.77075100000000,F99*43HEPW/1,069,environmental.health@south-derbys.gov.uk,South Derbyshire,http://www.south-derbys.gov.uk,-1.55376900000000,DE11 9AA,2013-09-23,fhrs_5_en-GB,5,,FHRS,0
74219,,,,,Pretty Fancy Cakes,Other catering premises,7841,0,,727455,0,,,C0942534KY/1,069,environmental.health@south-derbys.gov.uk,South Derbyshire,http://www.south-derbys.gov.uk,,,2013-04-26,fhrs_5_en-GB,5,,FHRS,0
74220,The Pipeworks,Coppice Side,Swadlincote,,Prezzo Plc,Restaurant/Cafe/Canteen,1,0,,499212,5,,52.76183400000000,1AB543THEP/1,069,environmental.health@south-derbys.gov.uk,South Derbyshire,http://www.south-derbys.gov.uk,-1.55635000000000,DE11 9FQ,2014-07-21,fhrs_5_en-GB,5,,FHRS,5
74221,168 Oxford Street,Church Gresley,"Swadlincote, Derbyshire",,Primrose Hill General Store,Retailers - other,4613,5,,283256,5,,52.76147000000000,1AB143168O/1,069,environmental.health@south-derbys.gov.uk,South Derbyshire,http://www.south-derbys.gov.uk,-1.56734900000000,DE11 9NA,2013-03-06,fhrs_5_en-GB,5,,FHRS,5
74222,Scout And Guide Headquarters,Pack Horse Road,"Melbourne, Derby, Derbyshire",,Puddle Ducks Pre-School,Hospitals/Childcare/Caring Premises,5,0,,152655,0,,52.83024300000000,C07531SCOU/1,069,environmental.health@south-derbys.gov.uk,South Derbyshire,http://www.south-derbys.gov.uk,-1.42778700000000,DE73 8BZ,2013-05-13,fhrs_5_en-GB,5,,FHRS,5
74223,413 Ashby Road,Boundary,Swadlincote,,Pumpkin's Candy Buffet,Retailers - other,4613,,,727523,,,52.76388100000000,F995**413A/1,069,environmental.health@south-derbys.gov.uk,South Derbyshire,http://www.south-derbys.gov.uk,-1.49693100000000,DE11 7BB,2013-12-17,fhrs_exempt_en-GB,Exempt,,FHRS,
74224,5 Ticknall Road,Hartshorne,"Swadlincote, Derbyshire",,R & J White,Retailers - other,4613,,,727422,,,52.78853100000000,AFZX235TIC/1,069,environmental.health@south-derbys.gov.uk,South Derbyshire,http://www.south-derbys.gov.uk,-1.51875600000000,DE11 7AS,2013-05-24,fhrs_exempt_en-GB,Exempt,,FHRS,
74225,127-133 Swadlincote Road,Woodville,Swadlincote,,R Massey & Son Ltd,Restaurant/Cafe/Canteen,1,5,,669019,0,,52.75484300000000,C03551127-/1,069,environmental.health@south-derbys.gov.uk,South Derbyshire,http://www.south-derbys.gov.uk,-1.51794200000000,DE11 8BD,2014-05-07,fhrs_5_en-GB,5,,FHRS,5
74226,Station Road,Hatton,"Derby, Derbyshire",,Railway Inn,Pub/bar/nightclub,7843,10,,283227,0,,52.86441100000000,1AB124STAT/3,069,environmental.health@south-derbys.gov.uk,South Derbyshire,http://www.south-derbys.gov.uk,-1.68190600000000,DE65 5DW,2014-02-24,fhrs_4_en-GB,4,,FHRS,0
74227,Station Road,Hatton,"Derby, Derbyshire",,Railway Tavern,Pub/bar/nightclub,7843,10,,471131,5,,52.86931400000000,1AB124STAT/4,069,environmental.health@south-derbys.gov.uk,South Derbyshire,http://www.south-derbys.gov.uk,-1.67980500000000,DE65 5EH,2015-01-20,fhrs_4_en-GB,4,,FHRS,5
74228,19 West Street,Swadlincote,Derbyshire,,Rainbow Pizza's & Kebabs,Takeaway/sandwich shop,7844,0,,499209,5,,52.77317600000000,1AB14319WE/1,069,environmental.health@south-derbys.gov.uk,South Derbyshire,http://www.south-derbys.gov.uk,-1.55805800000000,DE11 9DG,2014-09-03,fhrs_5_en-GB,5,,FHRS,5
74229,Lodge Farm,Hall Leys Lane,"Kings Newton, Derby, Derbyshir",,Ramsley Farm Produce,Manufacturers/packers,7839,0,,158654,0,,52.83465100000000,IFG131LODG/1,069,environmental.health@south-derbys.gov.uk,South Derbyshire,http://www.south-derbys.gov.uk,-1.41552700000000,DE73 8HL,2014-12-09,fhrs_5_en-GB,5,,FHRS,0
74230,3 Burton Road,Repton,"Derby, Derbyshire",,Red Lion,Pub/bar/nightclub,7843,0,,283240,5,,52.83898300000000,1AB1373BUR/1,069,environmental.health@south-derbys.gov.uk,South Derbyshire,http://www.south-derbys.gov.uk,-1.55173500000000,DE65 6FL,2014-01-13,fhrs_5_en-GB,5,,FHRS,5
74231,5-7 Burton Road,Repton,"Derby, Derbyshire",,Redshaw Family Butchers,Retailers - other,4613,10,,157642,5,,52.83898300000000,F015375-7B/1,069,environmental.health@south-derbys.gov.uk,South Derbyshire,http://www.south-derbys.gov.uk,-1.55173500000000,DE65 6FL,2014-05-19,fhrs_3_en-GB,3,,FHRS,10
74232,The Den,Mitre Drive,"Repton, Derbyshire",,Repton Pre-school,Hospitals/Childcare/Caring Premises,5,0,,289800,0,,52.83786800000000,C07*37THED/1,069,environmental.health@south-derbys.gov.uk,South Derbyshire,http://www.south-derbys.gov.uk,-1.55173100000000,DE65 6FJ,2013-05-13,fhrs_5_en-GB,5,,FHRS,0
74233,Springfield Road,Repton,"Derby, Derbyshire",,Repton Primary School,School/college/university,7845,0,,159758,0,,52.83739100000000,P01X37SPRI/1,069,environmental.health@south-derbys.gov.uk,South Derbyshire,http://www.south-derbys.gov.uk,-1.54208700000000,DE65 6GN,2014-01-24,fhrs_5_en-GB,5,,FHRS,0
74234,The Parade Ground,Willington Road,"Repton, Derby, Derbyshire",,Repton Squash Club,Other catering premises,7841,,,727412,,,52.84045800000000,1AB*37THEP/1,069,environmental.health@south-derbys.gov.uk,South Derbyshire,http://www.south-derbys.gov.uk,-1.55191300000000,DE65 6FH,2014-03-12,fhrs_exempt_en-GB,Exempt,,FHRS,
74235,3 Brook End,Repton,"Derby, Derbyshire",,Repton Tea Rooms,Restaurant/Cafe/Canteen,1,5,,152196,5,,52.84046200000000,C031373BRO/1,069,environmental.health@south-derbys.gov.uk,South Derbyshire,http://www.south-derbys.gov.uk,-1.54811200000000,DE65 6FW,2013-03-20,fhrs_5_en-GB,5,,FHRS,5
74236,Sun Street,Woodville,"Swadlincote, Derbyshire",,Rising Sun,Pub/bar/nightclub,7843,10,,283303,5,,52.76513200000000,1AB151SUNS/1,069,environmental.health@south-derbys.gov.uk,South Derbyshire,http://www.south-derbys.gov.uk,-1.53024800000000,DE11 7DP,2013-11-08,fhrs_3_en-GB,3,,FHRS,10
74237,1 Burton Road,Overseal,"Swadlincote, Derbyshire",,Robin Hood Inn,Pub/bar/nightclub,7843,10,,611344,10,,52.73646600000000,1AB1351BUR/1,069,environmental.health@south-derbys.gov.uk,South Derbyshire,http://www.south-derbys.gov.uk,-1.56624900000000,DE12 6LQ,2014-12-09,fhrs_3_en-GB,3,,FHRS,10
74238,Main Street,Rosliston,"Swadlincote, Derbyshire",,Rosliston Church Of England Primary School,School/college/university,7845,5,,159760,5,,52.74739900000000,P01X38MAIN/1,069,environmental.health@south-derbys.gov.uk,South Derbyshire,http://www.south-derbys.gov.uk,-1.63917400000000,DE12 8JW,2015-01-14,fhrs_5_en-GB,5,,FHRS,5
74239,Main Street,Rosliston,"Swadlincote, Derbyshire",,Rosliston Fish Bar,Takeaway/sandwich shop,7844,0,,575938,0,,52.74739900000000,C12138MAIN/1,069,environmental.health@south-derbys.gov.uk,South Derbyshire,http://www.south-derbys.gov.uk,-1.63917400000000,DE12 8JW,2014-02-06,fhrs_5_en-GB,5,,FHRS,0
74240,James Street,Midway,"Swadlincote, Derbyshire",,Rowland Memorial Church and Hall,Other catering premises,7841,,,727531,,,52.78042700000000,L01143JAME/2,069,environmental.health@south-derbys.gov.uk,South Derbyshire,http://www.south-derbys.gov.uk,-1.54750300000000,DE11 7NE,2014-02-12,fhrs_exempt_en-GB,Exempt,,FHRS,
74241,87 Derby Road,Melbourne,"Derby, Derbyshire",,Royal British Legion,Pub/bar/nightclub,7843,,,727410,,,52.82468600000000,1AB*3187DE/1,069,environmental.health@south-derbys.gov.uk,South Derbyshire,http://www.south-derbys.gov.uk,-1.42922500000000,DE73 8FE,2014-03-11,fhrs_exempt_en-GB,Exempt,,FHRS,
74242,43 High Street,Repton,"Derby, Derbyshire",,Royal British Legion Club,Pub/bar/nightclub,7843,5,,283241,5,,52.83827100000000,1AB13743HI/1,069,environmental.health@south-derbys.gov.uk,South Derbyshire,http://www.south-derbys.gov.uk,-1.54878800000000,DE65 6GD,2013-02-01,fhrs_5_en-GB,5,,FHRS,0
74243,163-167 High Street,Newhall,"Swadlincote, Derbyshire",,Royal Oak,Pub/bar/nightclub,7843,5,,283255,0,,52.78326200000000,1AB143163-/1,069,environmental.health@south-derbys.gov.uk,South Derbyshire,http://www.south-derbys.gov.uk,-1.56766700000000,DE11 0HP,2012-12-13,fhrs_5_en-GB,5,,FHRS,5
74244,,,,,S & L Caterers,Mobile caterer,7846,5,,727450,5,,,C0914335JO/1,069,environmental.health@south-derbys.gov.uk,South Derbyshire,http://www.south-derbys.gov.uk,,,2013-09-30,fhrs_5_en-GB,5,,FHRS,5
74245,,,,,S & L Caterers,Mobile caterer,7846,5,,727492,5,,,C09X4335JO/1,069,environmental.health@south-derbys.gov.uk,South Derbyshire,http://www.south-derbys.gov.uk,,,2013-09-30,fhrs_5_en-GB,5,,FHRS,5
74246,57 High Street,Swadlincote,Derbyshire,,S Collier Butchers,Retailers - other,4613,0,,157640,0,,52.77301800000000,F0114357HI/1,069,environmental.health@south-derbys.gov.uk,South Derbyshire,http://www.south-derbys.gov.uk,-1.55404300000000,DE11 8JA,2014-11-26,fhrs_5_en-GB,5,,FHRS,0
74247,Derby Road,Melbourne,Derby,,Sainsbury's,Retailers - supermarkets/hypermarkets,7840,0,,730963,0,,52.82468500000000,1AB*31DERB/1,069,environmental.health@south-derbys.gov.uk,South Derbyshire,http://www.south-derbys.gov.uk,-1.42922500000000,DE73 8FE,2015-01-13,fhrs_5_en-GB,5,,FHRS,0
74248,Unit 1 Glamorgan Way,Church Gresley,"Swadlincote, Derbyshire",,Sainsbury's,Retailers - supermarkets/hypermarkets,7840,0,,459782,0,,52.76018600000000,1AB509UNIT/1,069,environmental.health@south-derbys.gov.uk,South Derbyshire,http://www.south-derbys.gov.uk,-1.57766100000000,DE11 9JT,2012-10-09,fhrs_5_en-GB,5,,FHRS,0
74249,Civic Way,Swadlincote,Derbyshire,,Sainsbury's Petrol Station,Retailers - other,4613,0,,185195,0,,52.77293800000000,R03143CIVI/1,069,environmental.health@south-derbys.gov.uk,South Derbyshire,http://www.south-derbys.gov.uk,-1.56178100000000,DE11 0AB,2014-01-27,fhrs_5_en-GB,5,,FHRS,0
74250,Civic Way,Swadlincote,Derbyshire,,Sainsbury's Staff Restaurant,Restaurant/Cafe/Canteen,1,0,,611356,0,,52.77321700000000,F13*43CIVI/1,069,environmental.health@south-derbys.gov.uk,South Derbyshire,http://www.south-derbys.gov.uk,-1.56656600000000,DE11 9DH,2013-03-21,fhrs_5_en-GB,5,,FHRS,5
74251,High Street,Newhall,"Swadlincote, Derbyshire",,Sainsbury's Supermarkets Ltd,Retailers - supermarkets/hypermarkets,7840,0,,283281,0,,52.78513700000000,1AB143HIGH/2,069,environmental.health@south-derbys.gov.uk,South Derbyshire,http://www.south-derbys.gov.uk,-1.57398000000000,DE11 0HU,2014-02-06,fhrs_5_en-GB,5,,FHRS,0
74252,Civic Way,Swadlincote,Derbyshire,,Sainsbury's Supermarkets Ltd.,Retailers - supermarkets/hypermarkets,7840,0,,283276,0,,52.77321700000000,1AB143CIVI/1,069,environmental.health@south-derbys.gov.uk,South Derbyshire,http://www.south-derbys.gov.uk,-1.56656600000000,DE11 9DH,2014-03-04,fhrs_5_en-GB,5,,FHRS,5
74253,Twyford Road,Barrow On Trent,"Derby, Derbyshire",,Sale and Davy's CE (Controlled) Primary School,School/college/university,7845,0,,159739,0,,52.85350500000000,P01X03TWYF/1,069,environmental.health@south-derbys.gov.uk,South Derbyshire,http://www.south-derbys.gov.uk,-1.48204100000000,DE73 7HA,2013-12-12,fhrs_5_en-GB,5,,FHRS,0
74254,Twyford Road,Twyford,"Derby, Derbyshire",,Sale and Davys Playgroup,Hospitals/Childcare/Caring Premises,5,0,,621046,5,,,C07547TWYF/1,069,environmental.health@south-derbys.gov.uk,South Derbyshire,http://www.south-derbys.gov.uk,,,2013-12-12,fhrs_5_en-GB,5,,FHRS,0
74255,37 Market Street,Church Gresley,"Swadlincote, Derbyshire",,Sally Armys Tea Rooms,Restaurant/Cafe/Canteen,1,5,,152202,5,,52.76420000000000,C0314337MA/1,069,environmental.health@south-derbys.gov.uk,South Derbyshire,http://www.south-derbys.gov.uk,-1.55932000000000,DE11 9PR,2014-11-05,fhrs_5_en-GB,5,,FHRS,5
74256,Derby Road,Foston,"Derby, Derbyshire",,Salt Box Cafe,Restaurant/Cafe/Canteen,1,10,,283224,10,,52.87541300000000,1AB122DERB/1,069,environmental.health@south-derbys.gov.uk,South Derbyshire,http://www.south-derbys.gov.uk,-1.67818500000000,DE65 5PT,2014-09-11,fhrs_3_en-GB,3,,FHRS,10
74257,46 Pilgrims Way,Stenson Fields,"Derby, Derbyshire",,Santis Cafe,Restaurant/Cafe/Canteen,1,5,,611341,5,,52.87578000000000,1AB*1546PI/1,069,environmental.health@south-derbys.gov.uk,South Derbyshire,http://www.south-derbys.gov.uk,-1.50507300000000,DE24 3JG,2013-09-18,fhrs_5_en-GB,5,,FHRS,0
74258,Scaddows Lane,Ticknall,Derby,,Scaddows Farm Shop & Cafe,Restaurant/Cafe/Canteen,1,0,,283290,0,,52.80142500000000,1AB145SCAD/1,069,environmental.health@south-derbys.gov.uk,South Derbyshire,http://www.south-derbys.gov.uk,-1.49795200000000,DE73 7JP,2013-10-22,fhrs_5_en-GB,5,,FHRS,5
74259,Castle Lane,Melbourne,"Derby, Derbyshire",,Scallywags Private Day Nursery,Hospitals/Childcare/Caring Premises,5,5,,152639,5,,52.82436700000000,C07131CAST/1,069,environmental.health@south-derbys.gov.uk,South Derbyshire,http://www.south-derbys.gov.uk,-1.42274400000000,DE73 8JB,2014-11-20,fhrs_5_en-GB,5,,FHRS,5
74260,Repton School,"Willington Road, Repton","Derby, Derbyshire",,School House,School/college/university,7845,0,,570181,0,,52.84045800000000,P01X37REPT/2,069,environmental.health@south-derbys.gov.uk,South Derbyshire,http://www.south-derbys.gov.uk,-1.55191300000000,DE65 6FH,2015-01-22,fhrs_5_en-GB,5,,FHRS,5
74261,67-73 Burton Road,Overseal,"Swadlincote, Derbyshire",,Seagull Fishbar,Takeaway/sandwich shop,7844,5,,153019,5,,52.73835000000000,C12*3567-7/1,069,environmental.health@south-derbys.gov.uk,South Derbyshire,http://www.south-derbys.gov.uk,-1.56772600000000,DE12 6JJ,2014-01-13,fhrs_5_en-GB,5,,FHRS,5
74262,8 Darklands Road,Swadlincote,Derbyshire,,Seaking Fish Bar,Takeaway/sandwich shop,7844,5,,153044,5,,52.77817200000000,C121438DAR/1,069,environmental.health@south-derbys.gov.uk,South Derbyshire,http://www.south-derbys.gov.uk,-1.56208400000000,DE11 0PG,2014-05-28,fhrs_5_en-GB,5,,FHRS,5
74263,Burton Road,Acresford,"Swadlincote, Derbyshire",,Seale Pastures House,Hospitals/Childcare/Caring Premises,5,0,,151804,0,,52.71741600000000,BLB132BURT/1,069,environmental.health@south-derbys.gov.uk,South Derbyshire,http://www.south-derbys.gov.uk,-1.56110800000000,DE12 8AP,2013-07-08,fhrs_5_en-GB,5,,FHRS,0
74264,Seal Wood Lane,Linton,"Swadlincote, Derbyshire",,Sealwood Cottage,Manufacturers/packers,7839,,,727415,,,52.73863300000000,1AB128SEAL/1,069,environmental.health@south-derbys.gov.uk,South Derbyshire,http://www.south-derbys.gov.uk,-1.58641500000000,DE12 6PA,2014-06-25,fhrs_exempt_en-GB,Exempt,,FHRS,
74265,,Catton,Swadlincote,,Seasoned Cookery School,Restaurant/Cafe/Canteen,1,5,,636842,5,,52.73529500000000,C99548CATT/1,069,environmental.health@south-derbys.gov.uk,South Derbyshire,http://www.south-derbys.gov.uk,-1.69541900000000,DE12 8LN,2014-02-14,fhrs_5_en-GB,5,,FHRS,0
74266,117 London Road,Shardlow,"Derby, Derbyshire",,Shakespeare Inn,Pub/bar/nightclub,7843,10,,611345,5,,52.86905400000000,1AB139117L/1,069,environmental.health@south-derbys.gov.uk,South Derbyshire,http://www.south-derbys.gov.uk,-1.35308700000000,DE72 2GP,2014-06-19,fhrs_4_en-GB,4,,FHRS,0
74267,London Road,Shardlow,"Derby, Derbyshire",,Shardlow County Primary School,School/college/university,7845,0,,159732,0,,52.87126100000000,P01139LOND/1,069,environmental.health@south-derbys.gov.uk,South Derbyshire,http://www.south-derbys.gov.uk,-1.36051200000000,DE72 2GR,2014-03-11,fhrs_5_en-GB,5,,FHRS,0
74268,125 London Road,Shardlow,"Derby, Derbyshire",,Shardlow Hall Private Day Nursery,Hospitals/Childcare/Caring Premises,5,10,,734915,5,,52.86915200000000,C07539125L/1,069,environmental.health@south-derbys.gov.uk,South Derbyshire,http://www.south-derbys.gov.uk,-1.35289200000000,DE72 2GP,2015-01-23,fhrs_4_en-GB,4,,FHRS,5
74269,22 The Wharf,Shardlow,Derby,,Shardlow Honey,Manufacturers/packers,7839,,,727522,,,52.86908500000000,F9940722TH/1,069,environmental.health@south-derbys.gov.uk,South Derbyshire,http://www.south-derbys.gov.uk,-1.34398000000000,DE72 2GH,2014-06-20,fhrs_exempt_en-GB,Exempt,,FHRS,
74270,111 London Road,Shardlow,"Derby, Derbyshire",,Shardlow Manor Care Home,Hospitals/Childcare/Caring Premises,5,5,,151809,5,,52.86905400000000,BLB139111L/1,069,environmental.health@south-derbys.gov.uk,South Derbyshire,http://www.south-derbys.gov.uk,-1.35308700000000,DE72 2GP,2014-04-14,fhrs_5_en-GB,5,,FHRS,5
74271,33a London Road,Shardlow,"Derby, Derbyshire",,Shardlow Post Office & Stores,Retailers - other,4613,0,,283248,0,,52.87126100000000,1AB13933AL/1,069,environmental.health@south-derbys.gov.uk,South Derbyshire,http://www.south-derbys.gov.uk,-1.36051200000000,DE72 2GR,2014-03-11,fhrs_5_en-GB,5,,FHRS,0
74272,Market Street,Swadlincote,Derbyshire,,Sir Nigel Gresley,Pub/bar/nightclub,7843,5,,339974,5,,52.77384400000000,1AB143MARK/1,069,environmental.health@south-derbys.gov.uk,South Derbyshire,http://www.south-derbys.gov.uk,-1.55860000000000,DE11 9DA,2013-08-21,fhrs_5_en-GB,5,,FHRS,5
74273,Stenson Road,Stenson,"Derby, Derbyshire",,Sizz Liz,Mobile caterer,7846,0,,588886,5,,52.87793900000000,C09115STEN/1,069,environmental.health@south-derbys.gov.uk,South Derbyshire,http://www.south-derbys.gov.uk,-1.50528600000000,DE23 1LG,2013-09-18,fhrs_5_en-GB,5,,FHRS,0
74274,Main Street,Smisby,Ashby De La Zouch,,Smisby Day Nursery Ltd,Hospitals/Childcare/Caring Premises,5,0,,669020,0,,52.76817200000000,C07140MAIN/1,069,environmental.health@south-derbys.gov.uk,South Derbyshire,http://www.south-derbys.gov.uk,-1.48312800000000,LE65 2TY,2014-03-25,fhrs_5_en-GB,5,,FHRS,0
74275,London Road,Shardlow,"Derby, Derbyshire",,Smithy's Marina Bar,Pub/bar/nightclub,7843,,,339976,,,52.86817600000000,1AB539LOND/1,069,environmental.health@south-derbys.gov.uk,South Derbyshire,http://www.south-derbys.gov.uk,-1.34537500000000,DE72 2GL,2014-03-20,fhrs_4_en-GB,4,,FHRS,
74276,,,,,Snack Attack,Mobile caterer,7846,0,,727447,0,,,C09128103S/1,069,environmental.health@south-derbys.gov.uk,South Derbyshire,http://www.south-derbys.gov.uk,,,2013-10-30,fhrs_5_en-GB,5,,FHRS,5
74277,,,,,Snack Shack,Takeaway/sandwich shop,7844,5,,735986,5,,,C09510UNNA/1,069,environmental.health@south-derbys.gov.uk,South Derbyshire,http://www.south-derbys.gov.uk,,,2013-03-18,fhrs_5_en-GB,5,,FHRS,5
74278,12-14 West Street,Swadlincote,Derbyshire,,South Derbyshire Methodist Church (Oasis Drop In),Restaurant/Cafe/Canteen,1,5,,152211,0,,52.77344000000000,C0354312-1/1,069,environmental.health@south-derbys.gov.uk,South Derbyshire,http://www.south-derbys.gov.uk,-1.55878200000000,DE11 9DE,2014-09-03,fhrs_5_en-GB,5,,FHRS,5
74279,42-44 Grove Street,Swadlincote,Derbyshire,,South Derbyshire Snooker Centre,Restaurant/Cafe/Canteen,1,5,,283263,5,,52.77344600000000,1AB14342-4/1,069,environmental.health@south-derbys.gov.uk,South Derbyshire,http://www.south-derbys.gov.uk,-1.56059000000000,DE11 9DD,2013-03-19,fhrs_5_en-GB,5,,FHRS,5
74280,4-6 Derby Road,Melbourne,"Derby, Derbyshire",,Spar Shop,Retailers - other,4613,10,,283234,10,,52.82468600000000,1AB1314-6D/1,069,environmental.health@south-derbys.gov.uk,South Derbyshire,http://www.south-derbys.gov.uk,-1.42922500000000,DE73 8FE,2014-06-20,fhrs_3_en-GB,3,,FHRS,5
74281,5 High Street,Repton,"Derby, Derbyshire",,Spar Shop,Retailers - other,4613,10,,283243,5,,52.83827100000000,1AB1375HIG/1,069,environmental.health@south-derbys.gov.uk,South Derbyshire,http://www.south-derbys.gov.uk,-1.54878800000000,DE65 6GD,2013-07-10,fhrs_3_en-GB,3,,FHRS,10
74282,Glamorgan Way,Church Gresley,Swadlincote,,Spice Touch,Restaurant/Cafe/Canteen,1,0,,688628,0,,52.76048100000000,1AB*43GLAM/1,069,environmental.health@south-derbys.gov.uk,South Derbyshire,http://www.south-derbys.gov.uk,-1.57973300000000,DE11 9GB,2014-03-18,fhrs_5_en-GB,5,,FHRS,0
74283,Springfield Road,Swadlincote,Derbyshire,,Springfield Junior School,School/college/university,7845,0,,159768,0,,52.78050100000000,P01X43SPRI/1,069,environmental.health@south-derbys.gov.uk,South Derbyshire,http://www.south-derbys.gov.uk,-1.55749500000000,DE11 0BU,2013-12-03,fhrs_5_en-GB,5,,FHRS,5
74284,34 Springfield Road,Midway,"Swadlincote, Derbyshire",,Springfield News,Retailers - other,4613,5,,283262,0,,52.78518100000000,1AB14334SP/1,069,environmental.health@south-derbys.gov.uk,South Derbyshire,http://www.south-derbys.gov.uk,-1.55652800000000,DE11 0BZ,2013-05-03,fhrs_5_en-GB,5,,FHRS,0
74285,135 Springfield Road,Etwall,Derby,,Springfield Stores,Retailers - other,4613,10,,611343,5,,52.87760800000000,1AB119135S/1,069,environmental.health@south-derbys.gov.uk,South Derbyshire,http://www.south-derbys.gov.uk,-1.60141000000000,DE65 6LA,2013-10-30,fhrs_3_en-GB,3,,FHRS,10
74286,Ashby Road,Melbourne,"Derby, Derbyshire",,Springwood Fisheries,Other catering premises,7841,10,,688635,5,,52.80227000000000,L23131ASHB/1,069,environmental.health@south-derbys.gov.uk,South Derbyshire,http://www.south-derbys.gov.uk,-1.43012700000000,DE73 8BJ,2013-08-22,fhrs_4_en-GB,4,,FHRS,5
74287,Newhall Road,Swadlincote,Derbyshire,,St Edwards RC Primary School,School/college/university,7845,5,,159765,5,,52.77976900000000,P01X43NEWH/2,069,environmental.health@south-derbys.gov.uk,South Derbyshire,http://www.south-derbys.gov.uk,-1.55904400000000,DE11 0BD,2014-07-16,fhrs_5_en-GB,5,,FHRS,5
74288,Church Street,Church Gresley,"Swadlincote, Derbyshire",,St George and Mary's,Other catering premises,7841,10,,643772,0,,52.76000800000000,C04143CHUR/1,069,environmental.health@south-derbys.gov.uk,South Derbyshire,http://www.south-derbys.gov.uk,-1.56564500000000,DE11 9NR,2014-03-19,fhrs_4_en-GB,4,,FHRS,0
74289,Church Street,Newhall,"Swadlincote, Derbyshire",,St John's The Evangelist Church,Restaurant/Cafe/Canteen,1,,,727425,,,52.78250800000000,C04*43CHUR/1,069,environmental.health@south-derbys.gov.uk,South Derbyshire,http://www.south-derbys.gov.uk,-1.56798600000000,DE11 0HY,2014-02-14,fhrs_exempt_en-GB,Exempt,,FHRS,
74290,Willington Road,Repton,"Derby, Derbyshire",,St Wystans Church,Restaurant/Cafe/Canteen,1,5,,292126,0,,52.84045800000000,L01137WILL/1,069,environmental.health@south-derbys.gov.uk,South Derbyshire,http://www.south-derbys.gov.uk,-1.55191300000000,DE65 6FH,2014-04-09,fhrs_5_en-GB,5,,FHRS,5
74291,Church Street,Church Gresley,"Swadlincote, Derbyshire",,St. Georges C Of E Primary Sch,School/college/university,7845,0,,159762,0,,52.76138900000000,P01X43CHUR/1,069,environmental.health@south-derbys.gov.uk,South Derbyshire,http://www.south-derbys.gov.uk,-1.56244500000000,DE11 9NP,2013-09-20,fhrs_5_en-GB,5,,FHRS,0
74292,High Street,Repton,"Derby, Derbyshire",,St. Wystan's School,School/college/university,7845,0,,159757,0,,52.83926100000000,P01X37HIGH/1,069,environmental.health@south-derbys.gov.uk,South Derbyshire,http://www.south-derbys.gov.uk,-1.54928200000000,DE65 6GE,2014-01-24,fhrs_5_en-GB,5,,FHRS,0
74293,Box Lane,Ticknall,Derby,,Standleys Barn Farm Butchery,Retailers - other,4613,10,,669026,0,,52.79571200000000,IFE545BOXL/1,069,environmental.health@south-derbys.gov.uk,South Derbyshire,http://www.south-derbys.gov.uk,-1.48004300000000,DE73 7GZ,2012-06-28,fhrs_4_en-GB,4,,FHRS,0
74294,Ashby Road East,Bretby,"Burton On Trent, Derbyshire",,Stanhope Arms Hotel,Pub/bar/nightclub,7843,10,,283216,0,,52.79649200000000,1AB106ASHB/3,069,environmental.health@south-derbys.gov.uk,South Derbyshire,http://www.south-derbys.gov.uk,-1.58198100000000,DE15 0PT,2014-07-18,fhrs_4_en-GB,4,,FHRS,5
74295,Ingleby Road,Stanton By Bridge,"Derby, Derbyshire",,Stanton by Bridge Village Hall,Other catering premises,7841,,,727419,,,52.84031800000000,1AB141INGL/1,069,environmental.health@south-derbys.gov.uk,South Derbyshire,http://www.south-derbys.gov.uk,-1.45592100000000,DE73 7GJ,2014-03-12,fhrs_exempt_en-GB,Exempt,,FHRS,
74296,Woodland Road,Stanton,Swadlincote,,Stanton Fine Meats,Retailers - other,4613,10,,688633,5,,52.77026100000000,F01543WOOD/1,069,environmental.health@south-derbys.gov.uk,South Derbyshire,http://www.south-derbys.gov.uk,-1.60031500000000,DE15 9TN,2014-07-23,fhrs_3_en-GB,3,,FHRS,10
74297,Piddocks Road,Stanton,"Burton on Trent, Derbyshire",,Stanton Manor,Hospitals/Childcare/Caring Premises,5,,,151815,,,52.78060900000000,BLB143PIDD/1,069,environmental.health@south-derbys.gov.uk,South Derbyshire,http://www.south-derbys.gov.uk,-1.60615100000000,DE15 9TG,2015-01-27,fhrs_5_en-GB,5,,FHRS,
74298,Woodland Road,Stanton,"Swadlincote, Derbyshire",,Stanton Primary School,School/college/university,7845,0,,159771,5,,52.77733400000000,P01X43WOOD/1,069,environmental.health@south-derbys.gov.uk,South Derbyshire,http://www.south-derbys.gov.uk,-1.60515700000000,DE15 9TJ,2014-07-22,fhrs_5_en-GB,5,,FHRS,0
74299,Rosliston Road South,Drakelow,Swadlincote,,Stapenhill Football Club Ltd.,Other catering premises,7841,10,,688629,5,,52.78041500000000,1AB143ROSL/1,069,environmental.health@south-derbys.gov.uk,South Derbyshire,http://www.south-derbys.gov.uk,-1.62686300000000,DE15 9NN,2012-11-16,fhrs_4_en-GB,4,,FHRS,5
74300,,,,,Staz's Ices,Mobile caterer,7846,10,,727448,5,,,C0913515WO/1,069,environmental.health@south-derbys.gov.uk,South Derbyshire,http://www.south-derbys.gov.uk,,,2014-05-28,fhrs_4_en-GB,4,,FHRS,5
74301,Heather Close,Stenson Fields,"Derby, Derbyshire",,Stenson Fields Primary Community School,School/college/university,7845,5,,159773,5,,52.87386300000000,P01X47HEAT/1,069,environmental.health@south-derbys.gov.uk,South Derbyshire,http://www.south-derbys.gov.uk,-1.50237600000000,DE24 3BW,2013-04-15,fhrs_5_en-GB,5,,FHRS,5
74302,Pilgrims Way,Stenson Fields,"Derby, Derbyshire",,Stenson Fields Public House,Pub/bar/nightclub,7843,0,,283292,5,,52.87578000000000,1AB147PILG/1,069,environmental.health@south-derbys.gov.uk,South Derbyshire,http://www.south-derbys.gov.uk,-1.50507300000000,DE24 3JG,2014-04-16,fhrs_5_en-GB,5,,FHRS,5
74303,Stenson Road,Stenson,Derby,,Stenson Lock Coffee Shop,Restaurant/Cafe/Canteen,1,0,,669011,0,,52.86700800000000,1AB115STEN/1,069,environmental.health@south-derbys.gov.uk,South Derbyshire,http://www.south-derbys.gov.uk,-1.51625500000000,DE73 7HL,2013-07-17,fhrs_5_en-GB,5,,FHRS,5
74304,46 Pilgrims Way,Stenson Fields,"Derby, Derbyshire",,Stenson Stores,Retailers - other,4613,5,,283291,0,,52.87578000000000,1AB14746PI/1,069,environmental.health@south-derbys.gov.uk,South Derbyshire,http://www.south-derbys.gov.uk,-1.50507300000000,DE24 3JG,2014-03-07,fhrs_5_en-GB,5,,FHRS,0
74305,30 Main Street,Etwall,"Derby, Derbyshire",,Steve's Fish Bar,Takeaway/sandwich shop,7844,5,,153025,5,,52.88464300000000,C1211930MA/1,069,environmental.health@south-derbys.gov.uk,South Derbyshire,http://www.south-derbys.gov.uk,-1.60040900000000,DE65 6LP,2014-06-11,fhrs_5_en-GB,5,,FHRS,5
74306,,,,,Steve's Ices,Mobile caterer,7846,0,,727441,0,,,C09*5164HI/1,069,environmental.health@south-derbys.gov.uk,South Derbyshire,http://www.south-derbys.gov.uk,,,2014-02-19,fhrs_5_en-GB,5,,FHRS,0
74307,,,,,Sticky Fingers Cookery Parties,Other catering premises,7841,0,,734917,0,,,F991379MAI/1,069,environmental.health@south-derbys.gov.uk,South Derbyshire,http://www.south-derbys.gov.uk,,,2014-02-19,fhrs_5_en-GB,5,,FHRS,0
74308,2 Hanger Bank,Aston On Trent,Derby,,Sticky Mix Ltd,Manufacturers/packers,7839,5,,669025,0,,52.86545000000000,F991022HAN/1,069,environmental.health@south-derbys.gov.uk,South Derbyshire,http://www.south-derbys.gov.uk,-1.38359200000000,DE72 2AT,2014-02-27,fhrs_5_en-GB,5,,FHRS,0
74309,Findern Lane,Willington,"Derby, Derbyshire",,Still Waters Convienience & Gift Shop,Retailers - other,4613,5,,504830,0,,52.85594100000000,1AB550FIND/1,069,environmental.health@south-derbys.gov.uk,South Derbyshire,http://www.south-derbys.gov.uk,-1.55992100000000,DE65 6DW,2012-09-17,fhrs_5_en-GB,5,,FHRS,0
74310,Coppice Side,Swadlincote,Derbyshire,,Subway,Takeaway/sandwich shop,7844,5,,611351,5,,52.77075100000000,C03543COPP/1,069,environmental.health@south-derbys.gov.uk,South Derbyshire,http://www.south-derbys.gov.uk,-1.55376900000000,DE11 9AA,2013-08-28,fhrs_5_en-GB,5,,FHRS,0
74311,,,,,Sugar Design Cake Maker & Decorator,Other catering premises,7841,0,,727487,0,,,C09X3817LI/1,069,environmental.health@south-derbys.gov.uk,South Derbyshire,http://www.south-derbys.gov.uk,,,2012-06-28,fhrs_5_en-GB,5,,FHRS,0
74312,29 Twyford Road,Willington,"Derby, Derbyshire",,Sun Hall,Takeaway/sandwich shop,7844,5,,283299,5,,52.85350200000000,1AB15029TW/1,069,environmental.health@south-derbys.gov.uk,South Derbyshire,http://www.south-derbys.gov.uk,-1.55194200000000,DE65 6DG,2013-07-29,fhrs_5_en-GB,5,,FHRS,5
74313,Uttoxeter Road,Hatton,"Derby, Derbyshire.",,Sunar Gow Bar & Restaurant,Pub/bar/nightclub,7843,5,,283305,0,,52.87541300000000,1AB522UTTO/1,069,environmental.health@south-derbys.gov.uk,South Derbyshire,http://www.south-derbys.gov.uk,-1.67818500000000,DE65 5PT,2013-09-18,fhrs_5_en-GB,5,,FHRS,5
74314,43b High Street,Swadlincote,Derbyshire,,Superdrug,Retailers - other,4613,,,727516,,,52.77351900000000,F0814343BH/1,069,environmental.health@south-derbys.gov.uk,South Derbyshire,http://www.south-derbys.gov.uk,-1.55583100000000,DE11 8JE,2013-02-04,fhrs_exempt_en-GB,Exempt,,FHRS,
74315,141 Coppice Side,Swadlincote,Derbyshire,,Susieflooz,Manufacturers/packers,7839,0,,611358,0,,52.76804700000000,IFZ*43141C/1,069,environmental.health@south-derbys.gov.uk,South Derbyshire,http://www.south-derbys.gov.uk,-1.55650900000000,DE11 9AF,2013-11-18,fhrs_5_en-GB,5,,FHRS,0
74316,Marlpit Lane,Sutton On The Hill,Derbyshire,,Sutton On The Hill Pre School,Hospitals/Childcare/Caring Premises,5,0,,158723,0,,52.89985600000000,L25*42MARL/1,069,environmental.health@south-derbys.gov.uk,South Derbyshire,http://www.south-derbys.gov.uk,-1.65270200000000,DE6 5JA,2013-03-05,fhrs_5_en-GB,5,,FHRS,0
74317,Sudale,Uttoxeter Road,"Hilton, Derby, Derbyshire",,Suzie's Farm Shop,Retailers - other,4613,5,,157649,5,,52.87283400000000,F03125SUDA/1,069,environmental.health@south-derbys.gov.uk,South Derbyshire,http://www.south-derbys.gov.uk,-1.64673700000000,DE65 5FZ,2014-01-22,fhrs_5_en-GB,5,,FHRS,5
74318,Darklands Road,Swadlincote,Derbyshire,,Swadlincote Catholic Social Club,Pub/bar/nightclub,7843,5,,283278,0,,52.78003100000000,1AB143DARK/1,069,environmental.health@south-derbys.gov.uk,South Derbyshire,http://www.south-derbys.gov.uk,-1.56160600000000,DE11 0PF,2012-03-27,fhrs_5_en-GB,5,,FHRS,5
74319,Midland Road,Swadlincote,Derbyshire,,Swadlincote Constitutional Club,Pub/bar/nightclub,7843,0,,283283,0,,52.77408100000000,1AB143MIDL/1,069,environmental.health@south-derbys.gov.uk,South Derbyshire,http://www.south-derbys.gov.uk,-1.55718900000000,DE11 0AG,2014-01-29,fhrs_5_en-GB,5,,FHRS,0
74320,Market Street,Swadlincote,Derbyshire,,Swadlincote Post Office & Stores,Retailers - supermarkets/hypermarkets,7840,5,,511394,0,,52.77384400000000,1AB143MARK/2,069,environmental.health@south-derbys.gov.uk,South Derbyshire,http://www.south-derbys.gov.uk,-1.55860000000000,DE11 9DA,2012-09-12,fhrs_5_en-GB,5,,FHRS,0
74321,West Street,Swadlincote,Derbyshire,,Swadlincote Pre-school,Hospitals/Childcare/Caring Premises,5,5,,499216,0,,52.77330200000000,C07543WEST/1,069,environmental.health@south-derbys.gov.uk,South Derbyshire,http://www.south-derbys.gov.uk,-1.55787900000000,DE11 9DG,2014-01-10,fhrs_5_en-GB,5,,FHRS,0
74322,Sir Herbert Wragg Way,Swadlincote,Derbyshire,,Swadlincote Ski Centre,Restaurant/Cafe/Canteen,1,0,,283317,5,,52.77007500000000,1ABX43SIRH/1,069,environmental.health@south-derbys.gov.uk,South Derbyshire,http://www.south-derbys.gov.uk,-1.55091600000000,DE11 8LP,2014-03-04,fhrs_5_en-GB,5,,FHRS,5
74323,49 Main Street,Milton,"Derby, Derbyshire",,Swan Inn,Pub/bar/nightclub,7843,5,,283242,5,,52.83393600000000,1AB13749MA/1,069,environmental.health@south-derbys.gov.uk,South Derbyshire,http://www.south-derbys.gov.uk,-1.52527600000000,DE65 6EF,2013-03-27,fhrs_5_en-GB,5,,FHRS,5
74324,47-49 Midland Road,Swadlincote,Derbyshire,,Swan Stores,Retailers - other,4613,0,,283264,0,,52.77695200000000,1AB14347-4/1,069,environmental.health@south-derbys.gov.uk,South Derbyshire,http://www.south-derbys.gov.uk,-1.55807900000000,DE11 0AN,2012-09-11,fhrs_5_en-GB,5,,FHRS,5
74325,Barrow Lane,Swarkestone,"Derby, Derbyshire",,Swarkestone Cricket Club,Other catering premises,7841,5,,283286,5,,52.85497100000000,1AB144BARR/1,069,environmental.health@south-derbys.gov.uk,South Derbyshire,http://www.south-derbys.gov.uk,-1.45019800000000,DE73 7JB,2013-09-30,fhrs_5_en-GB,5,,FHRS,5
74326,Ingleby Road,Stanton By Bridge,Derbyshire,,Swarkestone Sailing Club,Other catering premises,7841,5,,283253,0,,52.83306600000000,1AB141INGL/2,069,environmental.health@south-derbys.gov.uk,South Derbyshire,http://www.south-derbys.gov.uk,-1.44804500000000,DE73 1HU,2013-03-28,fhrs_5_en-GB,5,,FHRS,5
74327,,,,,Sweet Sensations by Sue,Mobile caterer,7846,5,,727500,5,,,C09X4832ST/1,069,environmental.health@south-derbys.gov.uk,South Derbyshire,http://www.south-derbys.gov.uk,,,2011-11-25,fhrs_5_en-GB,5,,FHRS,5
74328,Moray Close,Church Gresley,"Swadlincote, Derbyshire",,Sweetylicious Treats,Retailers - other,4613,5,,459783,0,,52.76036600000000,F99143MORA/1,069,environmental.health@south-derbys.gov.uk,South Derbyshire,http://www.south-derbys.gov.uk,-1.57511000000000,DE11 9HL,2012-10-09,fhrs_5_en-GB,5,,FHRS,0
74329,,,,,T & G Home Interiors,Mobile caterer,7846,5,,669024,5,,,C091352WOO/1,069,environmental.health@south-derbys.gov.uk,South Derbyshire,http://www.south-derbys.gov.uk,,,2014-06-06,fhrs_4_en-GB,4,,FHRS,10
74330,Hill Farm,Knights Lane,"Bretby, Derby, Derbyshire",,T.G Falder,Farmers/growers,7838,,,727526,,,52.81587700000000,IFE106HILL/1,069,environmental.health@south-derbys.gov.uk,South Derbyshire,http://www.south-derbys.gov.uk,-1.55329300000000,DE15 0RT,2014-12-12,fhrs_exempt_en-GB,Exempt,,FHRS,
74331,Coppice Side,Swadlincote,Derbyshire,,Tall Chimney,Pub/bar/nightclub,7843,5,,401551,5,,52.77075100000000,1AB143COPP/3,069,environmental.health@south-derbys.gov.uk,South Derbyshire,http://www.south-derbys.gov.uk,-1.55376900000000,DE11 9AA,2014-01-23,fhrs_5_en-GB,5,,FHRS,5
74332,Main Street,Rosliston,"Swadlincote, Derbyshire",,Tamworth Co-operative Society,Retailers - supermarkets/hypermarkets,7840,5,,283245,0,,52.74739900000000,1AB138MAIN/2,069,environmental.health@south-derbys.gov.uk,South Derbyshire,http://www.south-derbys.gov.uk,-1.63917400000000,DE12 8JW,2014-02-06,fhrs_5_en-GB,5,,FHRS,0
74333,134 London Road,Shardlow,"Derby, Derbyshire",,Tandoori Nights,Restaurant/Cafe/Canteen,1,0,,283247,5,,52.86905400000000,1AB139134L/1,069,environmental.health@south-derbys.gov.uk,South Derbyshire,http://www.south-derbys.gov.uk,-1.35308700000000,DE72 2GP,2014-03-25,fhrs_5_en-GB,5,,FHRS,5
74334,Repton School,Willington Road,"Repton, Derbyshire",,Tanyard Sports Centre,School/college/university,7845,0,,494337,5,,52.84045800000000,P01X37REPT/1,069,environmental.health@south-derbys.gov.uk,South Derbyshire,http://www.south-derbys.gov.uk,-1.55191300000000,DE65 6FH,2014-11-07,fhrs_5_en-GB,5,,FHRS,5
74335,Annwell Lane,Smisby,"Ashby De La Zouch, Derbyshire",,Tap House Bar & Restaurant,Pub/bar/nightclub,7843,20,,283251,10,,52.76626700000000,1AB140ANNW/1,069,environmental.health@south-derbys.gov.uk,South Derbyshire,http://www.south-derbys.gov.uk,-1.49170200000000,LE65 2TA,2014-10-08,fhrs_1_en-GB,1,,FHRS,10
74336,Ash Lane,Etwall,"Derby, Derbyshire",,Tara Kadampa Meditation Centre,Restaurant/Cafe/Canteen,1,0,,158689,0,,52.89635400000000,L01101ASHL/1,069,environmental.health@south-derbys.gov.uk,South Derbyshire,http://www.south-derbys.gov.uk,-1.61894200000000,DE65 6HT,2013-03-05,fhrs_5_en-GB,5,,FHRS,5
74337,,,,,Tea and Cake,Restaurant/Cafe/Canteen,1,5,,727476,0,,,C09X1810CA/1,069,environmental.health@south-derbys.gov.uk,South Derbyshire,http://www.south-derbys.gov.uk,,,2014-07-07,fhrs_5_en-GB,5,,FHRS,0
74338,35-39 High Street,Swadlincote,Derbyshire,,Telegraph News Shop,Retailers - other,4613,5,,157676,10,,52.77351900000000,F1114335-3/1,069,environmental.health@south-derbys.gov.uk,South Derbyshire,http://www.south-derbys.gov.uk,-1.55583100000000,DE11 8JE,2014-02-07,fhrs_4_en-GB,4,,FHRS,5
74339,10 Witham Close,Hilton,"Derby, Derbyshire",,Tesco Express,Retailers - supermarkets/hypermarkets,7840,0,,283228,0,,52.87158600000000,1AB12510WI/1,069,environmental.health@south-derbys.gov.uk,South Derbyshire,http://www.south-derbys.gov.uk,-1.62949900000000,DE65 5JR,2014-02-24,fhrs_5_en-GB,5,,FHRS,0
74340,42 High Street,Woodville,"Swadlincote, Derbyshire",,Tesco Express,Retailers - supermarkets/hypermarkets,7840,0,,283212,0,,52.76724000000000,1AB*5142HI/1,069,environmental.health@south-derbys.gov.uk,South Derbyshire,http://www.south-derbys.gov.uk,-1.53144000000000,DE11 7EA,2013-09-25,fhrs_5_en-GB,5,,FHRS,0
74341,Common Road,Church Gresley,"Swadlincote, Derbyshire",,Tesco Express,Retailers - supermarkets/hypermarkets,7840,0,,283277,0,,52.76313700000000,1AB143COMM/2,069,environmental.health@south-derbys.gov.uk,South Derbyshire,http://www.south-derbys.gov.uk,-1.55870800000000,DE11 9NW,2013-09-25,fhrs_5_en-GB,5,,FHRS,0
74342,Hearthcote Road,Swadlincote,Derbyshire,,Tesco Express,Retailers - supermarkets/hypermarkets,7840,0,,283279,0,,52.77016000000000,1AB143HEAR/2,069,environmental.health@south-derbys.gov.uk,South Derbyshire,http://www.south-derbys.gov.uk,-1.57139900000000,DE11 9DU,2014-02-06,fhrs_5_en-GB,5,,FHRS,5
74343,Repton School,"Burton Road, Repton","Derby, Derbyshire",,The Abbey,School/college/university,7845,0,,570184,5,,52.83898300000000,P01X37REPT/5,069,environmental.health@south-derbys.gov.uk,South Derbyshire,http://www.south-derbys.gov.uk,-1.55173500000000,DE65 6FL,2014-11-07,fhrs_5_en-GB,5,,FHRS,5
74344,"The Old School, Castleway",Willington,"Derby, Derbyshire",,The Activity Club,Hospitals/Childcare/Caring Premises,5,0,,152650,0,,52.85316200000000,C07150THEO/1,069,environmental.health@south-derbys.gov.uk,South Derbyshire,http://www.south-derbys.gov.uk,-1.56697400000000,DE65 6BT,2013-03-21,fhrs_5_en-GB,5,,FHRS,5
74345,7 Main Street,Overseal,"Swadlincote, Derbyshire",,The Admiral Fish Bar,Takeaway/sandwich shop,7844,0,,153030,0,,52.73404700000000,C121357MAI/1,069,environmental.health@south-derbys.gov.uk,South Derbyshire,http://www.south-derbys.gov.uk,-1.56347400000000,DE12 6LG,2014-02-27,fhrs_5_en-GB,5,,FHRS,5
74346,65 Main Street,Hartshorne,"Swadlincote, Derbyshire",,The Admiral Rodney Inn,Pub/bar/nightclub,7843,5,,211008,5,,52.78477800000000,1AB12365MA/1,069,environmental.health@south-derbys.gov.uk,South Derbyshire,http://www.south-derbys.gov.uk,-1.51784900000000,DE11 7ES,2013-02-26,fhrs_5_en-GB,5,,FHRS,5
74347,Unit 8 Midland Road Industrial Estate,Midland Road,"Swadlincote, Derbyshire",,The Aquatic & Pet Warehouse,Retailers - other,4613,10,,734914,0,,52.77723700000000,ANH543UNIT/1,069,environmental.health@south-derbys.gov.uk,South Derbyshire,http://www.south-derbys.gov.uk,-1.55752700000000,DE11 0AN,2014-01-29,fhrs_4_en-GB,4,,FHRS,0
74348,4 Potter Street,Melbourne,Derby,,The Bay Tree (Melbourne) Ltd,Restaurant/Cafe/Canteen,1,0,,230335,0,,52.82355600000000,1AB1314POT/1,069,environmental.health@south-derbys.gov.uk,South Derbyshire,http://www.south-derbys.gov.uk,-1.42797800000000,DE73 8HW,2014-02-05,fhrs_5_en-GB,5,,FHRS,0
74349,17 West Street,Swadlincote,Derbyshire,,The Bear Inn,Pub/bar/nightclub,7843,10,,611346,5,,52.77330200000000,1AB14317WE/1,069,environmental.health@south-derbys.gov.uk,South Derbyshire,http://www.south-derbys.gov.uk,-1.55787900000000,DE11 9DG,2013-06-10,fhrs_3_en-GB,3,,FHRS,10
74350,17 Union Road,Swadlincote,Derbyshire,,The Big Fish Takeaway,Takeaway/sandwich shop,7844,5,,153058,5,,52.78046500000000,C1254317UN/1,069,environmental.health@south-derbys.gov.uk,South Derbyshire,http://www.south-derbys.gov.uk,-1.56235800000000,DE11 0QF,2015-01-06,fhrs_5_en-GB,5,,FHRS,5
74351,Long Lane,Dalbury Lees,"Ashbourne, Derbyshire",,The Black Cow,Pub/bar/nightclub,7843,10,,230334,10,,52.93351600000000,1AB114LONG/1,069,environmental.health@south-derbys.gov.uk,South Derbyshire,http://www.south-derbys.gov.uk,-1.60780000000000,DE6 5BE,2014-11-06,fhrs_3_en-GB,3,,FHRS,10
74352,56 Main Street,Etwall,"Derby, Derbyshire",,The Blenheim House Hotel,Restaurant/Cafe/Canteen,1,5,,230336,10,,52.88464300000000,1AB11956MA/1,069,environmental.health@south-derbys.gov.uk,South Derbyshire,http://www.south-derbys.gov.uk,-1.60040900000000,DE65 6LP,2014-02-13,fhrs_4_en-GB,4,,FHRS,5
74353,Findern Lane,Willington,"Derby, Derbyshire",,The Board Walk,Pub/bar/nightclub,7843,5,,707470,5,,52.85594100000000,1AB550FIND/2,069,environmental.health@south-derbys.gov.uk,South Derbyshire,http://www.south-derbys.gov.uk,-1.55992100000000,DE65 6DW,2014-10-09,fhrs_5_en-GB,5,,FHRS,5
74354,12 Boot Hill,Repton,"Derby, Derbyshire",,The Boot Inn,Pub/bar/nightclub,7843,5,,230315,5,,52.83965700000000,1AB13712BO/1,069,environmental.health@south-derbys.gov.uk,South Derbyshire,http://www.south-derbys.gov.uk,-1.54918900000000,DE65 6FT,2013-07-30,fhrs_4_en-GB,4,,FHRS,10
74355,1 Woodville Road,Hartshorne,"Swadlincote, Derbyshire",,The Bulls Head,Pub/bar/nightclub,7843,5,,230314,5,,52.78224100000000,1AB1231WOO/1,069,environmental.health@south-derbys.gov.uk,South Derbyshire,http://www.south-derbys.gov.uk,-1.51949300000000,DE11 7ET,2014-05-21,fhrs_4_en-GB,4,,FHRS,10
74356,19 Burton Road,Rosliston,"Swadlincote, Derbyshire",,The Bulls Head,Pub/bar/nightclub,7843,5,,230313,0,,52.74867400000000,1AB13819BU/1,069,environmental.health@south-derbys.gov.uk,South Derbyshire,http://www.south-derbys.gov.uk,-1.64186000000000,DE12 8JU,2013-03-06,fhrs_5_en-GB,5,,FHRS,0
74357,84 High Street,Repton,"Derby, Derbyshire",,The Bulls Head,Pub/bar/nightclub,7843,5,,230331,5,,52.83640300000000,1AB13784HI/1,069,environmental.health@south-derbys.gov.uk,South Derbyshire,http://www.south-derbys.gov.uk,-1.54699600000000,DE65 6GF,2013-05-20,fhrs_5_en-GB,5,,FHRS,0
74358,Meadow Lane,Newhall,"Swadlincote, Derbyshire",,The Bungalow,Hospitals/Childcare/Caring Premises,5,0,,636835,0,,52.77909800000000,C03*43MEAD/1,069,environmental.health@south-derbys.gov.uk,South Derbyshire,http://www.south-derbys.gov.uk,-1.57200800000000,DE11 0UW,2014-04-16,fhrs_5_en-GB,5,,FHRS,0
74359,William Nadin Way,Swadlincote,Derbyshire,,The Burger Bar,Mobile caterer,7846,5,,734916,5,,52.77067700000000,C09143WILL/1,069,environmental.health@south-derbys.gov.uk,South Derbyshire,http://www.south-derbys.gov.uk,-1.58276200000000,DE11 0BB,2015-01-27,fhrs_5_en-GB,5,,FHRS,5
74360,Findern Lane,Willington,Derby,,"The Butcher, Baker.. Farm Shop & Coffee House",Restaurant/Cafe/Canteen,1,10,,707472,0,,,F06550FIND/1,069,environmental.health@south-derbys.gov.uk,South Derbyshire,http://www.south-derbys.gov.uk,,,2014-10-09,fhrs_4_en-GB,4,,FHRS,0
74361,Woodyard Lane,Foston,"Derby, Derbyshire",,The Buttery,Restaurant/Cafe/Canteen,1,5,,570178,5,,52.88284100000000,C03122WOOD/1,069,environmental.health@south-derbys.gov.uk,South Derbyshire,http://www.south-derbys.gov.uk,-1.70695900000000,DE65 5BU,2013-07-03,fhrs_5_en-GB,5,,FHRS,5
74362,Station Road,Hatton,"Derby, Derbyshire",,The Castle Hotel,Pub/bar/nightclub,7843,0,,234160,0,,52.86441100000000,1AB124STAT/1,069,environmental.health@south-derbys.gov.uk,South Derbyshire,http://www.south-derbys.gov.uk,-1.68190600000000,DE65 5DW,2014-02-24,fhrs_5_en-GB,5,,FHRS,5
74363,27 High Street,Ticknall,"Derby, Derbyshire",,The Chequers Inn,Pub/bar/nightclub,7843,0,,234158,0,,52.80950100000000,1AB14527HI/1,069,environmental.health@south-derbys.gov.uk,South Derbyshire,http://www.south-derbys.gov.uk,-1.48188200000000,DE73 7JH,2014-02-28,fhrs_5_en-GB,5,,FHRS,0
74364,8-10 High Street,Melbourne,Derby,,The Chip & Pin,Pub/bar/nightclub,7843,0,,726503,0,,52.82275100000000,1AB5318-10/1,069,environmental.health@south-derbys.gov.uk,South Derbyshire,http://www.south-derbys.gov.uk,-1.42892400000000,DE73 8GN,2014-10-07,fhrs_5_en-GB,5,,FHRS,0
74365,69 Derby Road,Melbourne,"Derby, Derbyshire",,The Coach House,Hotel/bed & breakfast/guest house,7842,0,,151834,5,,52.82468600000000,BTB13169DE/1,069,environmental.health@south-derbys.gov.uk,South Derbyshire,http://www.south-derbys.gov.uk,-1.42922500000000,DE73 8FE,2014-03-06,fhrs_5_en-GB,5,,FHRS,5
74366,1 Potter Street,Melbourne,"Derby, Derbyshire",,The Co-op Pharmacy,Retailers - other,4613,,,727514,,,52.82355600000000,F081311POT/1,069,environmental.health@south-derbys.gov.uk,South Derbyshire,http://www.south-derbys.gov.uk,-1.42797800000000,DE73 8HW,2014-10-28,fhrs_exempt_en-GB,Exempt,,FHRS,
74367,Weston Hall Drive,Weston On Trent,Derby,,The Coopers Arms,Pub/bar/nightclub,7843,0,,234166,0,,52.85068600000000,1AB149WEST/1,069,environmental.health@south-derbys.gov.uk,South Derbyshire,http://www.south-derbys.gov.uk,-1.40053700000000,DE72 2BJ,2013-10-15,fhrs_5_en-GB,5,,FHRS,5
74368,Mitre Drive,Repton,"Derby, Derbyshire",,The Den Scout Hut,Other catering premises,7841,,,727428,,,52.83786800000000,C04137MITR/1,069,environmental.health@south-derbys.gov.uk,South Derbyshire,http://www.south-derbys.gov.uk,-1.55173100000000,DE65 6FJ,2013-05-14,fhrs_exempt_en-GB,Exempt,,FHRS,
74369,2 Aston Lane,Shardlow,Derby,,The Dog and Duck,Pub/bar/nightclub,7843,5,,643771,5,,52.87124600000000,1AB1392AST/1,069,environmental.health@south-derbys.gov.uk,South Derbyshire,http://www.south-derbys.gov.uk,-1.36109200000000,DE72 2GR,2015-01-28,fhrs_4_en-GB,4,,FHRS,10
74370,11 The Green,Willington,"Derby, Derbyshire",,The Dragon,Restaurant/Cafe/Canteen,1,5,,215502,5,,52.85382700000000,1AB15011TH/1,069,environmental.health@south-derbys.gov.uk,South Derbyshire,http://www.south-derbys.gov.uk,-1.56436800000000,DE65 6BP,2015-01-20,fhrs_5_en-GB,5,,FHRS,5
74371,West Street,Swadlincote,Derbyshire,,The Empire,Pub/bar/nightclub,7843,10,,283285,5,,52.77330200000000,1AB143WEST/1,069,environmental.health@south-derbys.gov.uk,South Derbyshire,http://www.south-derbys.gov.uk,-1.55787900000000,DE11 9DG,2014-03-03,fhrs_4_en-GB,4,,FHRS,5
74372,28 Market Place,Melbourne,"Derby, Derbyshire",,The Fair Trading Place,Retailers - other,4613,5,,292125,5,,52.82298400000000,F0653128MA/1,069,environmental.health@south-derbys.gov.uk,South Derbyshire,http://www.south-derbys.gov.uk,-1.42868300000000,DE73 8DS,2013-05-16,fhrs_5_en-GB,5,,FHRS,5
74373,Repton School,"Tanners Lane, Repton","Derby, Derbyshire",,The Garden,School/college/university,7845,0,,570187,0,,52.83912500000000,P01X37REPT/9,069,environmental.health@south-derbys.gov.uk,South Derbyshire,http://www.south-derbys.gov.uk,-1.55600900000000,DE65 6FP,2014-11-21,fhrs_5_en-GB,5,,FHRS,5
74374,Lowes Lane,Swarkestone,"Derby, Derbyshire",,The Garden Restaurant,Restaurant/Cafe/Canteen,1,0,,511396,0,,52.86016800000000,C02144LOWE/1,069,environmental.health@south-derbys.gov.uk,South Derbyshire,http://www.south-derbys.gov.uk,-1.46020300000000,DE73 7GQ,2014-06-06,fhrs_5_en-GB,5,,FHRS,5
74375,49 Woodland Road,Stanton,"Swadlincote, Derbyshire",,The Gate Inn,Pub/bar/nightclub,7843,0,,499210,0,,52.77193800000000,1AB14349WO/1,069,environmental.health@south-derbys.gov.uk,South Derbyshire,http://www.south-derbys.gov.uk,-1.59641600000000,DE15 9TH,2014-04-23,fhrs_5_en-GB,5,,FHRS,5
74376,7-9 High Street,Newhall,Swadlincote,,The Golden Fish,Takeaway/sandwich shop,7844,0,,153042,0,,52.78514400000000,C121437-9H/1,069,environmental.health@south-derbys.gov.uk,South Derbyshire,http://www.south-derbys.gov.uk,-1.57608500000000,DE11 0HX,2014-02-04,fhrs_5_en-GB,5,,FHRS,5
74377,1 Canal Bridge,Willington,"Derby, Derbyshire",,The Green Man,Pub/bar/nightclub,7843,10,,234147,5,,52.85421800000000,1AB1501CAN/1,069,environmental.health@south-derbys.gov.uk,South Derbyshire,http://www.south-derbys.gov.uk,-1.56556700000000,DE65 6BQ,2014-07-29,fhrs_3_en-GB,3,,FHRS,10
74378,149 Ashby Road,Woodville,"Swadlincote, Derbyshire",,The Greyhound Inn,Restaurant/Cafe/Canteen,1,0,,234177,0,,52.76756200000000,1AB151149A/1,069,environmental.health@south-derbys.gov.uk,South Derbyshire,http://www.south-derbys.gov.uk,-1.50877600000000,DE11 7BU,2014-01-28,fhrs_5_en-GB,5,,FHRS,5
74379,1 High Street,Repton,"Derby, Derbyshire",,The Grubber,Retailers - other,4613,,,727521,,,52.83827100000000,F991371HIG/1,069,environmental.health@south-derbys.gov.uk,South Derbyshire,http://www.south-derbys.gov.uk,-1.54878800000000,DE65 6GD,2012-11-20,fhrs_exempt_en-GB,Exempt,,FHRS,
74380,4 Grove Close,Thulston,"Derby, Derbyshire",,The Harrington Arms,Pub/bar/nightclub,7843,0,,234155,0,,52.88300500000000,1AB1184GRO/1,069,environmental.health@south-derbys.gov.uk,South Derbyshire,http://www.south-derbys.gov.uk,-1.39561800000000,DE72 3EY,2014-02-18,fhrs_5_en-GB,5,,FHRS,0
74381,Beehive Farm,Rosliston,"Swadlincote, Derbyshire",,The Honey Pot,Restaurant/Cafe/Canteen,1,5,,152197,10,,52.74218800000000,C03138BEEH/1,069,environmental.health@south-derbys.gov.uk,South Derbyshire,http://www.south-derbys.gov.uk,-1.63135200000000,DE12 8HZ,2014-05-22,fhrs_4_en-GB,4,,FHRS,5
74382,55 Newhall Road,Swadlincote,Derbyshire,,The Honey Pots Day Nursery,Hospitals/Childcare/Caring Premises,5,5,,152643,5,,52.77976900000000,C0714355NE/1,069,environmental.health@south-derbys.gov.uk,South Derbyshire,http://www.south-derbys.gov.uk,-1.55904400000000,DE11 0BD,2014-02-06,fhrs_5_en-GB,5,,FHRS,0
74383,Burton Road,Rosliston,"Swadlincote, Derbyshire",,The Hub Cafe,Restaurant/Cafe/Canteen,1,5,,234172,5,,52.75472300000000,1ABX38BURT/1,069,environmental.health@south-derbys.gov.uk,South Derbyshire,http://www.south-derbys.gov.uk,-1.64144000000000,DE12 8JX,2013-10-01,fhrs_5_en-GB,5,,FHRS,5
74384,Broomhills Lane,Repton,"Derby, Derbyshire",,The Iris Bentley Pavillion,Other catering premises,7841,,,727533,,,52.83126000000000,L15237BROO/1,069,environmental.health@south-derbys.gov.uk,South Derbyshire,http://www.south-derbys.gov.uk,-1.54436300000000,DE65 6NZ,2013-05-01,fhrs_exempt_en-GB,Exempt,,FHRS,
74385,87 Market Street,Church Gresley,"Swadlincote, Derbyshire",,The Kilns ltd,Takeaway/sandwich shop,7844,0,,157670,0,,52.76244300000000,F0914387MA/1,069,environmental.health@south-derbys.gov.uk,South Derbyshire,http://www.south-derbys.gov.uk,-1.56053800000000,DE11 9PN,2014-12-03,fhrs_5_en-GB,5,,FHRS,5
74386,Foremark Reservoir,Foremark,Derby,,The Kiosk,Restaurant/Cafe/Canteen,1,10,,152188,5,,52.82224500000000,C03121FORE/1,069,environmental.health@south-derbys.gov.uk,South Derbyshire,http://www.south-derbys.gov.uk,-1.51304200000000,DE65 6EG,2013-10-30,fhrs_4_en-GB,4,,FHRS,5
74387,49 Main Street,Newhall,"Swadlincote, Derbyshire",,The Lamb Inn,Pub/bar/nightclub,7843,5,,234176,0,,52.78460800000000,1AB14349MA/1,069,environmental.health@south-derbys.gov.uk,South Derbyshire,http://www.south-derbys.gov.uk,-1.57951500000000,DE11 0TW,2014-02-17,fhrs_5_en-GB,5,,FHRS,0
74388,The Limes,Mount Pleasant Road,"Castle Gresley, Swadlincote",,The Linnet Independent Learning Centre,Hospitals/Childcare/Caring Premises,5,0,,151817,0,,52.75173300000000,BLBI09THEL/1,069,environmental.health@south-derbys.gov.uk,South Derbyshire,http://www.south-derbys.gov.uk,-1.57688300000000,DE11 9JG,2013-03-27,fhrs_5_en-GB,5,,FHRS,0
74389,49 The Wharf,Shardlow,"Derby, Derbyshire",,The Malt Shovel Inn / Big On Taste Ltd,Pub/bar/nightclub,7843,5,,241292,0,,52.87017600000000,1AB53949TH/1,069,environmental.health@south-derbys.gov.uk,South Derbyshire,http://www.south-derbys.gov.uk,-1.34120000000000,DE72 2HG,2014-03-06,fhrs_5_en-GB,5,,FHRS,5
74390,,,,,The Melbourne Cake Company,Other catering premises,7841,5,,727483,0,,,C09X3119ME/1,069,environmental.health@south-derbys.gov.uk,South Derbyshire,http://www.south-derbys.gov.uk,,,2013-11-26,fhrs_5_en-GB,5,,FHRS,0
74391,,,,,The Melbourne Cakery,Other catering premises,7841,0,,621047,0,,,C09531113D/1,069,environmental.health@south-derbys.gov.uk,South Derbyshire,http://www.south-derbys.gov.uk,,,2013-12-16,fhrs_5_en-GB,5,,FHRS,0
74392,364 Burton Road,Overseal,Swadlincote,,The Midway Inn,Pub/bar/nightclub,7843,10,,494335,10,,52.74597400000000,1AB543364B/1,069,environmental.health@south-derbys.gov.uk,South Derbyshire,http://www.south-derbys.gov.uk,-1.57288000000000,DE12 6JW,2014-12-11,fhrs_3_en-GB,3,,FHRS,10
74393,Ticknall Road,Hartshorne,"Swadlincote, Derbyshire",,The Mill Wheel,Pub/bar/nightclub,7843,5,,241262,10,,52.78853100000000,1AB123TICK/1,069,environmental.health@south-derbys.gov.uk,South Derbyshire,http://www.south-derbys.gov.uk,-1.51875600000000,DE11 7AS,2015-02-02,fhrs_4_en-GB,4,,FHRS,5
74394,George Street,Church Gresley,"Swadlincote, Derbyshire",,The Miners Arms,Pub/bar/nightclub,7843,5,,241289,0,,52.76064400000000,1AB143GEOR/1,069,environmental.health@south-derbys.gov.uk,South Derbyshire,http://www.south-derbys.gov.uk,-1.56768400000000,DE11 9NT,2014-11-03,fhrs_5_en-GB,5,,FHRS,0
74395,Repton School,"Mitre Drive, Repton","Derby, Derbyshire",,The Mitre,School/college/university,7845,5,,570180,5,,52.83786800000000,P01X37REPT/11,069,environmental.health@south-derbys.gov.uk,South Derbyshire,http://www.south-derbys.gov.uk,-1.55173100000000,DE65 6FJ,2015-01-21,fhrs_5_en-GB,5,,FHRS,5
74396,Cockshut Lane,Melbourne,"Derby, Derbyshire",,The National Forest Vending Co. Ltd.,Distributors/Transporters,7,,,727520,,,52.82465700000000,F17131COCK/1,069,environmental.health@south-derbys.gov.uk,South Derbyshire,http://www.south-derbys.gov.uk,-1.44403600000000,DE73 8DG,2013-10-30,fhrs_exempt_en-GB,Exempt,,FHRS,
74397,26 High Street,Woodville,"Swadlincote, Derbyshire",,The Nelson Inn,Pub/bar/nightclub,7843,0,,241286,0,,52.76894700000000,1AB15126HI/1,069,environmental.health@south-derbys.gov.uk,South Derbyshire,http://www.south-derbys.gov.uk,-1.53351200000000,DE11 7EH,2014-02-19,fhrs_5_en-GB,5,,FHRS,0
74398,The Wharf,Shardlow,"Derby, Derbyshire",,The New Inn,Pub/bar/nightclub,7843,5,,241275,5,,52.87017600000000,1AB139THEW/1,069,environmental.health@south-derbys.gov.uk,South Derbyshire,http://www.south-derbys.gov.uk,-1.34120000000000,DE72 2HG,2013-05-20,fhrs_5_en-GB,5,,FHRS,5
74399,43 Uttoxeter Road,Hatton,"Derby, Derbyshire.",,"The Nose Bag Cafe, Oak Lodge",Restaurant/Cafe/Canteen,1,0,,543314,5,,52.87572100000000,C0312243UT/1,069,environmental.health@south-derbys.gov.uk,South Derbyshire,http://www.south-derbys.gov.uk,-1.69243100000000,DE65 5PX,2014-04-29,fhrs_5_en-GB,5,,FHRS,5
74400,Chapel Street,Coton In The Elms,Swadlincote,,The Old Band Room,Hotel/bed & breakfast/guest house,7842,0,,610719,0,,52.73474700000000,BTB513CHAP/1,069,environmental.health@south-derbys.gov.uk,South Derbyshire,http://www.south-derbys.gov.uk,-1.63505800000000,DE12 8EY,2013-11-07,fhrs_5_en-GB,5,,FHRS,0
74401,8 The Green,Findern,"Derby, Derbyshire",,The Old Forge Day Nursery Ltd,Hospitals/Childcare/Caring Premises,5,5,,152636,0,,52.87099800000000,C071208THE/1,069,environmental.health@south-derbys.gov.uk,South Derbyshire,http://www.south-derbys.gov.uk,-1.54326400000000,DE65 6AA,2014-01-31,fhrs_5_en-GB,5,,FHRS,5
74402,Sandypits Lane,Etwall,"Derby, Derbyshire",,The Old Lodge Nursing Home,Hospitals/Childcare/Caring Premises,5,0,,151795,5,,52.88390000000000,BLAX19SAND/1,069,environmental.health@south-derbys.gov.uk,South Derbyshire,http://www.south-derbys.gov.uk,-1.59325300000000,DE65 6JA,2014-02-13,fhrs_5_en-GB,5,,FHRS,0
74403,Main Street,Hilton,"Derby, Derbyshire",,The Old Talbot Inn,Pub/bar/nightclub,7843,0,,241284,0,,52.87315500000000,1AB125MAIN/1,069,environmental.health@south-derbys.gov.uk,South Derbyshire,http://www.south-derbys.gov.uk,-1.63687000000000,DE65 5FF,2012-02-02,fhrs_5_en-GB,5,,FHRS,5
74404,Staker Lane,Mickleover,"Derby, Derbyshire",,The Orange Tree Day Nursery,Hospitals/Childcare/Caring Premises,5,5,,152633,5,,52.89330800000000,C07107STAK/1,069,environmental.health@south-derbys.gov.uk,South Derbyshire,http://www.south-derbys.gov.uk,-1.54515500000000,DE3 0DJ,2014-03-06,fhrs_5_en-GB,5,,FHRS,5
74405,Repton School,"Willington Road, Repton","Derby, Derbyshire",,The Orchard,School/college/university,7845,0,,570183,0,,52.84045800000000,P01X37REPT/4,069,environmental.health@south-derbys.gov.uk,South Derbyshire,http://www.south-derbys.gov.uk,-1.55191300000000,DE65 6FH,2015-01-22,fhrs_5_en-GB,5,,FHRS,5
74406,1 High Street,Repton,"Derby, Derbyshire",,The Pavillion,Other catering premises,7841,5,,158718,5,,52.83827100000000,L15X371HIG/1,069,environmental.health@south-derbys.gov.uk,South Derbyshire,http://www.south-derbys.gov.uk,-1.54878800000000,DE65 6GD,2014-02-06,fhrs_5_en-GB,5,,FHRS,0
74407,68 Main Street,Rosliston,"Swadlincote, Derbyshire",,The Plough Inn,Pub/bar/nightclub,7843,5,,283244,5,,52.74559400000000,1AB13868MA/1,069,environmental.health@south-derbys.gov.uk,South Derbyshire,http://www.south-derbys.gov.uk,-1.63677500000000,DE12 8JL,2013-03-20,fhrs_5_en-GB,5,,FHRS,5
74408,Repton School,1 High Street,"Repton, Derbyshire",,The Priory,School/college/university,7845,0,,570186,0,,52.83827100000000,P01X37REPT/8,069,environmental.health@south-derbys.gov.uk,South Derbyshire,http://www.south-derbys.gov.uk,-1.54878800000000,DE65 6GD,2014-11-14,fhrs_5_en-GB,5,,FHRS,5
74409,Deep Dale Lane,Barrow On Trent,"Derby, Derbyshire",,The Ragley Boat Stop,Pub/bar/nightclub,7843,0,,283215,5,,52.86145100000000,1AB103DEEP/1,069,environmental.health@south-derbys.gov.uk,South Derbyshire,http://www.south-derbys.gov.uk,-1.48794700000000,DE73 7FY,2015-02-05,fhrs_5_en-GB,5,,FHRS,5
74410,28 Main Street,Linton,"Swadlincote, Derbyshire",,The Red Lion,Pub/bar/nightclub,7843,10,,283232,0,,52.74674600000000,1AB12828MA/1,069,environmental.health@south-derbys.gov.uk,South Derbyshire,http://www.south-derbys.gov.uk,-1.59285700000000,DE12 6PZ,2012-01-23,fhrs_4_en-GB,4,,FHRS,5
74411,1 The Green,Willington,"Derby, Derbyshire",,The Rising Sun,Pub/bar/nightclub,7843,0,,499211,0,,52.85382700000000,1AB1501THE/1,069,environmental.health@south-derbys.gov.uk,South Derbyshire,http://www.south-derbys.gov.uk,-1.56436800000000,DE65 6BP,2014-02-26,fhrs_5_en-GB,5,,FHRS,0
74412,77 Church Street,Church Gresley,"Swadlincote, Derbyshire",,The Rising Sun,Pub/bar/nightclub,7843,0,,283269,0,,52.76000800000000,1AB14377CH/1,069,environmental.health@south-derbys.gov.uk,South Derbyshire,http://www.south-derbys.gov.uk,-1.56564500000000,DE11 9NR,2014-02-06,fhrs_5_en-GB,5,,FHRS,5
74413,87 Regent Street,Church Gresley,"Swadlincote, Derbyshire",,The Royal Oak,Pub/bar/nightclub,7843,0,,283273,0,,52.76365700000000,1AB14387RE/1,069,environmental.health@south-derbys.gov.uk,South Derbyshire,http://www.south-derbys.gov.uk,-1.56306000000000,DE11 9PJ,2014-02-07,fhrs_5_en-GB,5,,FHRS,0
74414,43 Main Street,Netherseal,"Swadlincote, Derbyshire",,The Seal Inn,Pub/bar/nightclub,7843,10,,283237,10,,52.71642100000000,1AB13243MA/1,069,environmental.health@south-derbys.gov.uk,South Derbyshire,http://www.south-derbys.gov.uk,-1.57682500000000,DE12 8DB,2013-07-30,fhrs_2_en-GB,2,,FHRS,15
74415,Heage Lane,Etwall,"Derby, Derbyshire",,The Seven Wells,Pub/bar/nightclub,7843,10,,283208,5,,52.89722600000000,1AB*19HEAG/1,069,environmental.health@south-derbys.gov.uk,South Derbyshire,http://www.south-derbys.gov.uk,-1.59448100000000,DE65 6LS,2014-12-15,fhrs_3_en-GB,3,,FHRS,10
74416,Main Street,Smisby,"Ashby De La Zouch, Derbyshire",,The Smisby Arms,Pub/bar/nightclub,7843,10,,283252,5,,52.76859600000000,1AB140MAIN/1,069,environmental.health@south-derbys.gov.uk,South Derbyshire,http://www.south-derbys.gov.uk,-1.48349300000000,LE65 2UA,2013-07-03,fhrs_4_en-GB,4,,FHRS,5
74417,Cockshut Lane,Melbourne,"Derby, Derbyshire",,The Sports Pavilion,Other catering premises,7841,,,727532,,,52.82421100000000,L15231COCK/1,069,environmental.health@south-derbys.gov.uk,South Derbyshire,http://www.south-derbys.gov.uk,-1.43706700000000,DE73 8FX,2015-01-20,fhrs_exempt_en-GB,Exempt,,FHRS,
74418,28 Main Street,Etwall,"Derby, Derbyshire",,The Spread Eagle,Pub/bar/nightclub,7843,5,,283207,0,,52.88464300000000,1AB*1928MA/1,069,environmental.health@south-derbys.gov.uk,South Derbyshire,http://www.south-derbys.gov.uk,-1.60040900000000,DE65 6LP,2014-05-14,fhrs_5_en-GB,5,,FHRS,0
74419,25 North Street,Swadlincote,Derbyshire,,The Springfield,Pub/bar/nightclub,7843,0,,627035,0,,52.77864200000000,1AB14325NO/1,069,environmental.health@south-derbys.gov.uk,South Derbyshire,http://www.south-derbys.gov.uk,-1.55798800000000,DE11 0AX,2013-12-06,fhrs_5_en-GB,5,,FHRS,0
74420,7 High Street,Ticknall,"Derby, Derbyshire",,The Staff of Life,Pub/bar/nightclub,7843,0,,283288,5,,52.80950100000000,1AB1457HIG/1,069,environmental.health@south-derbys.gov.uk,South Derbyshire,http://www.south-derbys.gov.uk,-1.48188200000000,DE73 7JH,2014-02-12,fhrs_5_en-GB,5,,FHRS,0
74421,Long Lane,Dalbury Lees,Derby,,The Three Horseshoes,Pub/bar/nightclub,7843,10,,283218,5,,52.93969400000000,1AB114LONG/2,069,environmental.health@south-derbys.gov.uk,South Derbyshire,http://www.south-derbys.gov.uk,-1.62820400000000,DE6 5BJ,2013-07-10,fhrs_4_en-GB,4,,FHRS,5
74422,2 New Street,Church Gresley,"Swadlincote, Derbyshire",,The Travellers Rest,Pub/bar/nightclub,7843,20,,283261,10,,52.76678100000000,1AB1432NEW/1,069,environmental.health@south-derbys.gov.uk,South Derbyshire,http://www.south-derbys.gov.uk,-1.55942700000000,DE11 9PS,2014-12-08,fhrs_1_en-GB,1,,FHRS,10
74423,Repton Road,Newton Solney,"Burton On Trent, Derbyshire",,The Unicorn Inn,Pub/bar/nightclub,7843,,,234135,,,52.82905200000000,1AB133REPT/1,069,environmental.health@south-derbys.gov.uk,South Derbyshire,http://www.south-derbys.gov.uk,-1.57956200000000,DE15 0SG,2014-07-18,fhrs_4_en-GB,4,,FHRS,
74424,19a Weston Road,Aston On Trent,"Derby, Derbyshire",,The Village Shop,Retailers - other,4613,5,,283214,0,,52.86134000000000,1AB10219AW/1,069,environmental.health@south-derbys.gov.uk,South Derbyshire,http://www.south-derbys.gov.uk,-1.38682900000000,DE72 2AS,2014-09-24,fhrs_5_en-GB,5,,FHRS,5
74425,Rear of 9-11 Main Street,Newton Solney,Burton on Trent,,The Village Store,Retailers - other,4613,5,,442211,5,,52.82905700000000,F19533REAR/1,069,environmental.health@south-derbys.gov.uk,South Derbyshire,http://www.south-derbys.gov.uk,-1.58353900000000,DE15 0SD,2012-08-22,fhrs_5_en-GB,5,,FHRS,5
74426,7-9 Derby Road,Melbourne,"Derby, Derbyshire",,The Welcome Cafe,Restaurant/Cafe/Canteen,1,5,,152192,5,,52.82468600000000,C031317-9D/1,069,environmental.health@south-derbys.gov.uk,South Derbyshire,http://www.south-derbys.gov.uk,-1.42922500000000,DE73 8FE,2013-06-17,fhrs_4_en-GB,4,,FHRS,10
74427,597 Burton Road,Midway,"Swadlincote, Derbyshire",,The Wheel Inn,Pub/bar/nightclub,7843,5,,283267,5,,52.78583500000000,1AB143597B/1,069,environmental.health@south-derbys.gov.uk,South Derbyshire,http://www.south-derbys.gov.uk,-1.55589900000000,DE11 0DH,2013-10-31,fhrs_5_en-GB,5,,FHRS,5
74428,Main Street,Ticknall,"Derby, Derbyshire",,The Wheel Inn,Pub/bar/nightclub,7843,5,,283289,5,,52.81201000000000,1AB145MAIN/2,069,environmental.health@south-derbys.gov.uk,South Derbyshire,http://www.south-derbys.gov.uk,-1.47395900000000,DE73 7JZ,2013-03-21,fhrs_5_en-GB,5,,FHRS,5
74429,41 Castle Street,Melbourne,"Derby, Derbyshire",,The White Swan,Pub/bar/nightclub,7843,20,,283233,10,,52.82376700000000,1AB13141CA/1,069,environmental.health@south-derbys.gov.uk,South Derbyshire,http://www.south-derbys.gov.uk,-1.42511100000000,DE73 8DY,2013-03-26,fhrs_1_en-GB,1,,FHRS,15
74430,Station Road,Hatton,"Derby, Derbyshire",,The Yummy Hut,Takeaway/sandwich shop,7844,5,,201115,5,,52.86457900000000,C09124STAT/1,069,environmental.health@south-derbys.gov.uk,South Derbyshire,http://www.south-derbys.gov.uk,-1.68428100000000,DE65 5DU,2013-10-29,fhrs_5_en-GB,5,,FHRS,0
74431,59 Bretby Road,Newhall,"Swadlincote, Derbyshire",,Thorntree Inn,Pub/bar/nightclub,7843,0,,283268,0,,52.78717200000000,1AB14359BR/1,069,environmental.health@south-derbys.gov.uk,South Derbyshire,http://www.south-derbys.gov.uk,-1.57510200000000,DE11 0LL,2014-02-28,fhrs_5_en-GB,5,,FHRS,5
74432,Repton Road,Ticknall,Derby,,Ticknall Cricket Club,Pub/bar/nightclub,7843,20,,555069,5,,52.81145200000000,1AB145REPT/1,069,environmental.health@south-derbys.gov.uk,South Derbyshire,http://www.south-derbys.gov.uk,-1.48187300000000,DE73 7JG,2014-07-11,fhrs_1_en-GB,1,,FHRS,5
74433,Ingleby Lane,Ticknall,"Derby, Derbyshire",,Ticknall Village Hall,Other catering premises,7841,0,,451495,0,,52.81311300000000,1AB145INGL/1,069,environmental.health@south-derbys.gov.uk,South Derbyshire,http://www.south-derbys.gov.uk,-1.47728400000000,DE73 7JX,2014-03-18,fhrs_5_en-GB,5,,FHRS,0
74434,32 Main Street,Ticknall,"Derby, Derbyshire",,Ticknall Village Store,Retailers - other,4613,10,,283287,5,,52.81201000000000,1AB14532MA/1,069,environmental.health@south-derbys.gov.uk,South Derbyshire,http://www.south-derbys.gov.uk,-1.47395900000000,DE73 7JZ,2014-07-01,fhrs_4_en-GB,4,,FHRS,5
74435,Burton Road,Castle Gresley,"Swadlincote, Derbyshire",,Toons Coffee Shop,Restaurant/Cafe/Canteen,1,0,,152183,0,,52.75792400000000,C03109BURT/1,069,environmental.health@south-derbys.gov.uk,South Derbyshire,http://www.south-derbys.gov.uk,-1.58362500000000,DE11 9HQ,2014-01-30,fhrs_5_en-GB,5,,FHRS,0
74436,Burton Road,Rosliston,"Swadlincote, Derbyshire",,"Topiary Tearoom, Chapmans Nursery",Restaurant/Cafe/Canteen,1,5,,230332,5,,52.75472300000000,C02X38BURT/2,069,environmental.health@south-derbys.gov.uk,South Derbyshire,http://www.south-derbys.gov.uk,-1.64144000000000,DE12 8JX,2012-03-05,fhrs_5_en-GB,5,,FHRS,5
74437,Church Square,Melbourne,Derby,,Tori and Ben's Farm / Melbourne Butchery,Retailers - other,4613,0,,730967,0,,52.82158200000000,F01531CHUR/1,069,environmental.health@south-derbys.gov.uk,South Derbyshire,http://www.south-derbys.gov.uk,-1.42334400000000,DE73 8EN,2015-01-13,fhrs_5_en-GB,5,,FHRS,5
74438,Toyota Motor Company Ltd,Burnaston,"Derby, Derbyshire",,Toyota Bumpers Day Nursery,Hospitals/Childcare/Caring Premises,5,5,,152634,5,,52.87220000000000,C07107TOYO/1,069,environmental.health@south-derbys.gov.uk,South Derbyshire,http://www.south-derbys.gov.uk,-1.56394600000000,DE1 9TA,2014-02-12,fhrs_5_en-GB,5,,FHRS,0
74439,Toyota UK Ltd,Burnaston,"Derby, Derbyshire",,Toyota Restaurant One,Restaurant/Cafe/Canteen,1,0,,152364,0,,52.87220000000000,C05507TOYO/1,069,environmental.health@south-derbys.gov.uk,South Derbyshire,http://www.south-derbys.gov.uk,-1.56394600000000,DE1 9TA,2012-09-21,fhrs_5_en-GB,5,,FHRS,5
74440,Toyota UK Ltd,Burnaston,"Derby, Derbyshire",,Toyota Restaurant Three,Restaurant/Cafe/Canteen,1,0,,152344,0,,52.87220000000000,C05107TOYO/1,069,environmental.health@south-derbys.gov.uk,South Derbyshire,http://www.south-derbys.gov.uk,-1.56394600000000,DE1 9TA,2012-09-21,fhrs_5_en-GB,5,,FHRS,0
74441,Toyota UK Ltd,Burnaston,"Derby, Derbyshire",,Toyota Restaurant Two,Restaurant/Cafe/Canteen,1,0,,152345,0,,52.87220000000000,C05107TOYO/2,069,environmental.health@south-derbys.gov.uk,South Derbyshire,http://www.south-derbys.gov.uk,-1.56394600000000,DE1 9TA,2014-02-26,fhrs_5_en-GB,5,,FHRS,5
74442,Toyota Motors UK Ltd,Burnaston,"Derby, Derbyshire",,Toyota Vending Machines,Takeaway/sandwich shop,7844,,,727519,,,52.87220000000000,F17*07TOYO/1,069,environmental.health@south-derbys.gov.uk,South Derbyshire,http://www.south-derbys.gov.uk,-1.56394600000000,DE1 9TA,2014-02-26,fhrs_exempt_en-GB,Exempt,,FHRS,
74443,,,,,Tracie's Candymania,Manufacturers/packers,7839,10,,669023,5,,,C09*243THE/1,069,environmental.health@south-derbys.gov.uk,South Derbyshire,http://www.south-derbys.gov.uk,,,2014-06-05,fhrs_3_en-GB,3,,FHRS,10
74444,35 Market Street,Church Gresley,"Swadlincote, Derbyshire",,Treats 'n' Sweets,Retailers - other,4613,10,,157786,10,,52.76420000000000,F9954335MA/1,069,environmental.health@south-derbys.gov.uk,South Derbyshire,http://www.south-derbys.gov.uk,-1.55932000000000,DE11 9PR,2015-01-26,fhrs_3_en-GB,3,,FHRS,10
74445,Egginton Road,Etwall,"Derby, Derbyshire",,Tynefield Care,Hospitals/Childcare/Caring Premises,5,5,,151794,5,,52.87040300000000,BLAX19EGGI/1,069,environmental.health@south-derbys.gov.uk,South Derbyshire,http://www.south-derbys.gov.uk,-1.60267900000000,DE65 6NQ,2013-11-28,fhrs_5_en-GB,5,,FHRS,5
74446,Bridge Lane,Weston On Trent,"Derby, Derbyshire",,Ukrainian Youth Centre,Restaurant/Cafe/Canteen,1,5,,575936,0,,52.84521900000000,***149BRID/1,069,environmental.health@south-derbys.gov.uk,South Derbyshire,http://www.south-derbys.gov.uk,-1.42016600000000,DE72 2BU,2014-05-15,fhrs_5_en-GB,5,,FHRS,5
74447,High Street,Melbourne,"Derby, Derbyshire",,United Reformed Church,Other catering premises,7841,5,,674850,0,,52.82234600000000,L01131HIGH/1,069,environmental.health@south-derbys.gov.uk,South Derbyshire,http://www.south-derbys.gov.uk,-1.43068000000000,DE73 8GJ,2014-06-20,fhrs_5_en-GB,5,,FHRS,5
74448,42 High Street,Woodville,"Swadlincote, Derbyshire",,UPO's,Takeaway/sandwich shop,7844,5,,588887,5,,52.76724000000000,C1255142HI/1,069,environmental.health@south-derbys.gov.uk,South Derbyshire,http://www.south-derbys.gov.uk,-1.53144000000000,DE11 7EA,2014-09-26,fhrs_4_en-GB,4,,FHRS,10
74449,77 High Street,Swadlincote,Derbyshire,,USA Fried Chicken,Takeaway/sandwich shop,7844,10,,283270,10,,52.77301800000000,1AB14377HI/1,069,environmental.health@south-derbys.gov.uk,South Derbyshire,http://www.south-derbys.gov.uk,-1.55404300000000,DE11 8JA,2015-01-27,fhrs_3_en-GB,3,,FHRS,10
74450,Highfield Street,Swadlincote,Derbyshire,,Valley View Residential Home,Hospitals/Childcare/Caring Premises,5,5,,151812,5,,52.76978800000000,BLB143HIGH/1,069,environmental.health@south-derbys.gov.uk,South Derbyshire,http://www.south-derbys.gov.uk,-1.55818100000000,DE11 9AS,2014-04-30,fhrs_5_en-GB,5,,FHRS,5
74451,5 Lullington Road,Overseal,"Swadlincote, Derbyshire",,Village Stores & Post Office,Retailers - other,4613,5,,283238,5,,52.73485700000000,1AB1355LUL/1,069,environmental.health@south-derbys.gov.uk,South Derbyshire,http://www.south-derbys.gov.uk,-1.56630900000000,DE12 6NF,2014-07-22,fhrs_5_en-GB,5,,FHRS,5
74452,,,,,Virtuous Cakes,Other catering premises,7841,5,,727459,0,,,C095**41MO/1,069,environmental.health@south-derbys.gov.uk,South Derbyshire,http://www.south-derbys.gov.uk,,,2012-10-02,fhrs_5_en-GB,5,,FHRS,5
74453,87 Doles Lane,Findern,"Derby, Derbyshire",,Wallfield House,Hospitals/Childcare/Caring Premises,5,20,,151802,5,,52.87674900000000,BLB12087DO/1,069,environmental.health@south-derbys.gov.uk,South Derbyshire,http://www.south-derbys.gov.uk,-1.54501600000000,DE65 6BA,2015-01-21,fhrs_1_en-GB,1,,FHRS,5
74454,Station Lane,Walton On Trent,"Swadlincote, Derbyshire",,Walton On Trent Cricket Club,Other catering premises,7841,10,,283296,0,,52.76104300000000,1AB148STAT/1,069,environmental.health@south-derbys.gov.uk,South Derbyshire,http://www.south-derbys.gov.uk,-1.68257000000000,DE12 8NA,2014-04-09,fhrs_4_en-GB,4,,FHRS,0
74455,Coton Road,Walton On Trent,"Swadlincote, Derbyshire",,Walton On Trent Primary School,School/college/university,7845,5,,159774,5,,52.75836100000000,P01X48COTO/1,069,environmental.health@south-derbys.gov.uk,South Derbyshire,http://www.south-derbys.gov.uk,-1.67809900000000,DE12 8NL,2014-09-19,fhrs_5_en-GB,5,,FHRS,0
74456,Main Street,Walton On Trent,"Swadlincote, Derbyshire",,Walton on Trent Village Hall,Other catering premises,7841,,,727537,,,52.75986500000000,P15148MAIN/1,069,environmental.health@south-derbys.gov.uk,South Derbyshire,http://www.south-derbys.gov.uk,-1.68238600000000,DE12 8LZ,2013-01-29,fhrs_exempt_en-GB,Exempt,,FHRS,
74457,38 Market Place,Melbourne,Derby,,Wayne Spiers Butchers,Retailers - other,4613,10,,157641,10,,52.82298400000000,F0153138MA/1,069,environmental.health@south-derbys.gov.uk,South Derbyshire,http://www.south-derbys.gov.uk,-1.42868300000000,DE73 8DS,2014-07-24,fhrs_3_en-GB,3,,FHRS,10
74458,Derby Services,A50 Aston On Trent,"Derby, Derbyshire",,Welcome Break (Eastbound),Retailers - other,4613,10,,283249,10,,52.86793400000000,1AB139DERB/1,069,environmental.health@south-derbys.gov.uk,South Derbyshire,http://www.south-derbys.gov.uk,-1.36711200000000,DE72 2WA,2014-04-30,fhrs_3_en-GB,3,,FHRS,10
74459,Derby Services,A50 Westbound,"Aston On Trent, Derby, Derbysh",,Welcome Break (Westbound) & Days Inn Lodge,Retailers - other,4613,5,,283250,5,,52.86793400000000,1AB139DERB/2,069,environmental.health@south-derbys.gov.uk,South Derbyshire,http://www.south-derbys.gov.uk,-1.36711200000000,DE72 2WA,2013-06-21,fhrs_5_en-GB,5,,FHRS,0
74460,A50 Westbound,Derby Services,Derbyshire,,Welcome Break Days Inn,Hotel/bed & breakfast/guest house,7842,0,,151827,5,,52.86929500000000,BTA139A50W/1,069,environmental.health@south-derbys.gov.uk,South Derbyshire,http://www.south-derbys.gov.uk,-1.34121400000000,DE72 2HA,2011-12-13,fhrs_5_en-GB,5,,FHRS,0
74461,Melbourne Methodist Church,Potter Street,"Melbourne, Derby, Derbyshire",,Wesley Hall (Church Hall),Other catering premises,7841,,,727535,,,52.82355600000000,P07X31MELB/1,069,environmental.health@south-derbys.gov.uk,South Derbyshire,http://www.south-derbys.gov.uk,-1.42797800000000,DE73 8HW,2014-03-11,fhrs_exempt_en-GB,Exempt,,FHRS,
74462,Forrester Avenue,Weston On Trent,"Derby, Derbyshire",,Weston On Trent Primary School,School/college/university,7845,0,,159775,0,,52.84853100000000,P01X49FORR/1,069,environmental.health@south-derbys.gov.uk,South Derbyshire,http://www.south-derbys.gov.uk,-1.39931900000000,DE72 2HX,2014-04-11,fhrs_5_en-GB,5,,FHRS,0
74463,47 Main Street,Weston On Trent,"Derby, Derbyshire",,Weston Under 5's Pre-school,Hospitals/Childcare/Caring Premises,5,0,,152657,0,,52.84843800000000,C0754947MA/1,069,environmental.health@south-derbys.gov.uk,South Derbyshire,http://www.south-derbys.gov.uk,-1.40230500000000,DE72 2BL,2014-01-29,fhrs_5_en-GB,5,,FHRS,0
74464,21 Derby Road,Aston On Trent,"Derby, Derbyshire",,White Hart,Pub/bar/nightclub,7843,,,283304,,,52.86502400000000,1AB50221DE/1,069,environmental.health@south-derbys.gov.uk,South Derbyshire,http://www.south-derbys.gov.uk,-1.38477200000000,DE72 2AF,2014-06-20,fhrs_5_en-GB,5,,FHRS,
74465,,,,,White Orchid bakery,Other catering premises,7841,0,,727474,0,,,C0954348NE/1,069,environmental.health@south-derbys.gov.uk,South Derbyshire,http://www.south-derbys.gov.uk,,,2013-09-23,fhrs_5_en-GB,5,,FHRS,0
74466,Sunnyside,Newhall,"Swadlincote, Derbyshire",,William Allitt School,School/college/university,7845,5,,283318,5,,52.78646850585940,1ABX43SUNN/1,069,environmental.health@south-derbys.gov.uk,South Derbyshire,http://www.south-derbys.gov.uk,-1.57942330837250,DE11 0TL,2015-01-16,fhrs_5_en-GB,5,,FHRS,5
74467,39 Beech Avenue,Willington,"Derby, Derbyshire",,Willington General Stores,Retailers - other,4613,10,,283300,0,,52.85188500000000,1AB15039BE/1,069,environmental.health@south-derbys.gov.uk,South Derbyshire,http://www.south-derbys.gov.uk,-1.56189300000000,DE65 6DB,2014-02-10,fhrs_4_en-GB,4,,FHRS,0
74468,1 Repton Road,Willington,"Derby, Derbyshire",,Willington Pharmacy,Retailers - other,4613,,,727542,,,52.85194800000000,R22X501REP/1,069,environmental.health@south-derbys.gov.uk,South Derbyshire,http://www.south-derbys.gov.uk,-1.56429800000000,DE65 6BX,2013-05-08,fhrs_exempt_en-GB,Exempt,,FHRS,
74469,1 The Castle Way,Willington,"Derby, Derbyshire",,Willington Post Office,Retailers - other,4613,10,,157667,0,,52.85316200000000,F061501THE/1,069,environmental.health@south-derbys.gov.uk,South Derbyshire,http://www.south-derbys.gov.uk,-1.56697400000000,DE65 6BT,2012-04-11,fhrs_4_en-GB,4,,FHRS,0
74470,42 The Castle Way,Willington,"Derby, Derbyshire",,Willington Pre-School,Hospitals/Childcare/Caring Premises,5,0,,152649,0,,52.85316200000000,C0715042TH/2,069,environmental.health@south-derbys.gov.uk,South Derbyshire,http://www.south-derbys.gov.uk,-1.56697400000000,DE65 6BT,2013-10-23,fhrs_5_en-GB,5,,FHRS,0
74471,Trent Avenue,Willington,"Derby, Derbyshire",,Willington Primary School,School/college/university,7845,0,,159776,0,,52.85250300000000,P01X50TREN/1,069,environmental.health@south-derbys.gov.uk,South Derbyshire,http://www.south-derbys.gov.uk,-1.55406100000000,DE65 6DN,2014-02-09,fhrs_5_en-GB,5,,FHRS,5
74472,Twyford Road,Willington,"Derby, Derbyshire",,Willington Sports Bar,Pub/bar/nightclub,7843,10,,339969,0,,52.85396200000000,1AB*50TWYF/1,069,environmental.health@south-derbys.gov.uk,South Derbyshire,http://www.south-derbys.gov.uk,-1.54761500000000,DE65 6PP,2013-09-18,fhrs_4_en-GB,4,,FHRS,10
74473,Mercia Marina,Findern Lane,"Willington, Derby, Derbyshire",,Willow Tree Tea Rooms,Restaurant/Cafe/Canteen,1,10,,669018,10,,52.85594100000000,C03150MERC/1,069,environmental.health@south-derbys.gov.uk,South Derbyshire,http://www.south-derbys.gov.uk,-1.55992100000000,DE65 6DW,2014-03-11,fhrs_3_en-GB,3,,FHRS,10
74474,Coppice Side,Swadlincote,Derbyshire,,Wm Morrison Supermarkets Plc,Retailers - supermarkets/hypermarkets,7840,0,,241281,0,,52.77075100000000,1AB143COPP/1,069,environmental.health@south-derbys.gov.uk,South Derbyshire,http://www.south-derbys.gov.uk,-1.55376900000000,DE11 9AA,2013-09-16,fhrs_5_en-GB,5,,FHRS,0
74475,136 Main Street,Repton,"Derby, Derbyshire",,Woodend Day Nursery Ltd,Hospitals/Childcare/Caring Premises,5,0,,152640,0,,52.82894500000000,C07137136M/1,069,environmental.health@south-derbys.gov.uk,South Derbyshire,http://www.south-derbys.gov.uk,-1.54078100000000,DE65 6FB,2013-06-20,fhrs_5_en-GB,5,,FHRS,5
74476,Burton Road,Woodville,"Swadlincote, Derbyshire",,Woodville Burton Road PFS,Retailers - other,4613,5,,283302,5,,52.77066700000000,1AB151BURT/1,069,environmental.health@south-derbys.gov.uk,South Derbyshire,http://www.south-derbys.gov.uk,-1.53653200000000,DE11 7JE,2014-01-28,fhrs_5_en-GB,5,,FHRS,5
74477,Moira Road,Woodville,"Swadlincote, Derbyshire",,Woodville Community Pre School,Hospitals/Childcare/Caring Premises,5,0,,152651,0,,52.76835800000000,C07151MOIR/1,069,environmental.health@south-derbys.gov.uk,South Derbyshire,http://www.south-derbys.gov.uk,-1.53463000000000,DE11 8DG,2014-02-07,fhrs_5_en-GB,5,,FHRS,0
74478,Blacksmiths Lane,Woodville,"Swadlincote, Derbyshire",,Woodville Day Nursery,Hospitals/Childcare/Caring Premises,5,0,,152645,5,,52.76872500000000,C07143BLAC/1,069,environmental.health@south-derbys.gov.uk,South Derbyshire,http://www.south-derbys.gov.uk,-1.53182500000000,DE11 7EF,2014-12-05,fhrs_5_en-GB,5,,FHRS,5
74479,11 High Street,Woodville,"Swadlincote, Derbyshire",,Woodville Grill,Takeaway/sandwich shop,7844,5,,283315,5,,52.76894700000000,1AB55111HI/1,069,environmental.health@south-derbys.gov.uk,South Derbyshire,http://www.south-derbys.gov.uk,-1.53351200000000,DE11 7EH,2013-07-16,fhrs_5_en-GB,5,,FHRS,0
74480,High Street,Woodville,"Swadlincote, Derbyshire",,Woodville Infant & Junior School,School/college/university,7845,0,,730968,0,,52.76724000000000,L25X51HIGH/1,069,environmental.health@south-derbys.gov.uk,South Derbyshire,http://www.south-derbys.gov.uk,-1.53144000000000,DE11 7EA,2013-03-07,fhrs_5_en-GB,5,,FHRS,0
74481,145 Burton Road,Woodville,"Swadlincote, Derbyshire",,Woodville Residential Home,Hospitals/Childcare/Caring Premises,5,0,,151816,0,,52.77266900000000,BLB151145B/1,069,environmental.health@south-derbys.gov.uk,South Derbyshire,http://www.south-derbys.gov.uk,-1.53811200000000,DE11 7JW,2014-09-26,fhrs_5_en-GB,5,,FHRS,0
74482,Blacksmiths Lane,Woodville,"Swadlincote, Derbyshire",,Woodville Sure Start Children's Centre,Restaurant/Cafe/Canteen,1,0,,152327,0,,52.76872500000000,C04X51BLAC/1,069,environmental.health@south-derbys.gov.uk,South Derbyshire,http://www.south-derbys.gov.uk,-1.53182500000000,DE11 7EF,2014-02-07,fhrs_5_en-GB,5,,FHRS,0
74483,42 Pilgrims Way,Stenson Fields,Derby,,World of Flavours,Takeaway/sandwich shop,7844,10,,669015,10,,52.87578000000000,1AB14742PI/1,069,environmental.health@south-derbys.gov.uk,South Derbyshire,http://www.south-derbys.gov.uk,-1.50507300000000,DE24 3JG,2015-01-21,fhrs_3_en-GB,3,,FHRS,10
74484,71 Meadow Lane,Newhall,"Swadlincote, Derbyshire",,Wright Homecare,Hospitals/Childcare/Caring Premises,5,,,727423,,,52.77909800000000,BLB14371ME/1,069,environmental.health@south-derbys.gov.uk,South Derbyshire,http://www.south-derbys.gov.uk,-1.57200800000000,DE11 0UW,2014-02-06,fhrs_exempt_en-GB,Exempt,,FHRS,
74485,17-19 Alexandra Road,Swadlincote,Derbyshire,,Yates Cafe,Restaurant/Cafe/Canteen,1,10,,152200,10,,52.77237400000000,C0314317-1/1,069,environmental.health@south-derbys.gov.uk,South Derbyshire,http://www.south-derbys.gov.uk,-1.55975600000000,DE11 9SP,2014-10-07,fhrs_3_en-GB,3,,FHRS,10
74486,High Street,Woodville,Swadlincote,,Yolo,Other catering premises,7841,5,,705972,0,,52.76894700000000,C02543HIGH/1,069,environmental.health@south-derbys.gov.uk,South Derbyshire,http://www.south-derbys.gov.uk,-1.53351200000000,DE11 7EH,2014-09-24,fhrs_5_en-GB,5,,FHRS,0
74487,61 Derby Road,Melbourne,"Derby, Derbyshire",,Zeerah,Restaurant/Cafe/Canteen,1,5,,734913,5,,52.82468600000000,1AB13161DE/1,069,environmental.health@south-derbys.gov.uk,South Derbyshire,http://www.south-derbys.gov.uk,-1.42922500000000,DE73 8FE,2013-08-30,fhrs_5_en-GB,5,,FHRS,5
