,addressline1,addressline2,addressline3,addressline4,businessname,businesstype,businesstypeid,confidenceinmanagement,extractdate,fhrsid,hygiene,itemcount,latitude,localauthoritybusinessid,localauthoritycode,localauthorityemailaddress,localauthorityname,localauthoritywebsite,longitude,postcode,ratingdate,ratingkey,ratingvalue,returncode,schemetype,structural
313439,Torrington,Devon,,,7 Stibb Cross,Hotel/bed & breakfast/guest house,7842,0,,530756,0,,50.91238500000000,12/00145/MX,080,foodandsafety@torridge.gov.uk,Torridge,http://www.torridge.gov.uk/food,-4.23573200000000,EX38 8LH,2013-03-28,fhrs_5_en-GB,5,,FHRS,0
313440,Unit 2,1 North Road,Holsworthy,Devon,8Ds,Other catering premises,7841,0,,581592,0,,50.81068100000000,13/00112/FH,080,foodandsafety@torridge.gov.uk,Torridge,http://www.torridge.gov.uk/food,-4.35242600000000,EX22 6EJ,2013-09-02,fhrs_5_en-GB,5,,FHRS,5
313441,The Square,Bradworthy,Holsworthy,Devon,A F Balsdon And Sons,Retailers - other,4613,5,,233661,5,,50.90169300000000,08/00028/MX,080,foodandsafety@torridge.gov.uk,Torridge,http://www.torridge.gov.uk/food,-4.38554400000000,EX22 7SY,2013-08-21,fhrs_5_en-GB,5,,FHRS,5
313442,Densham Court,Croft Road,Holsworthy,Devon,Abbeyfield Holsworthy Society Ltd,Hospitals/Childcare/Caring Premises,5,5,,233735,5,,50.80928300000000,08/00009/MX,080,foodandsafety@torridge.gov.uk,Torridge,http://www.torridge.gov.uk/food,-4.35528000000000,EX22 6BW,2013-08-14,fhrs_5_en-GB,5,,FHRS,5
313443,Glen Tor,Villa Road,Great Torrington,Devon,Abbeyfield Society,Hospitals/Childcare/Caring Premises,5,,,233626,,,50.95171500000000,08/00577/MX,080,foodandsafety@torridge.gov.uk,Torridge,http://www.torridge.gov.uk/food,-4.14712200000000,EX38 8DZ,2014-03-10,fhrs_exempt_en-GB,Exempt,,FHRS,
313444,Abbotsham,Devon,,,Abbotsham Baptist Church,Other catering premises,7841,,,234022,,,51.01568984985350,08/00013/MX,080,foodandsafety@torridge.gov.uk,Torridge,http://www.torridge.gov.uk/food,-4.24822759628296,EX39 5AP,2013-12-05,fhrs_exempt_en-GB,Exempt,,FHRS,
313445,Post Office,Abbotsham,Devon,,Abbotsham Post Office,Retailers - other,4613,,,233844,,,51.01569000000000,08/00012/MX,080,foodandsafety@torridge.gov.uk,Torridge,http://www.torridge.gov.uk/food,-4.24822800000000,EX39 5AP,2013-02-18,fhrs_exempt_en-GB,Exempt,,FHRS,
313446,Abbotsham,Bideford,Devon,,Abbotsham Village Hall,Restaurant/Cafe/Canteen,1,,,446054,,,51.01568984985350,08/00742/MX,080,foodandsafety@torridge.gov.uk,Torridge,http://www.torridge.gov.uk/food,-4.24822759628296,EX39 5AP,2007-08-15,fhrs_exempt_en-GB,Exempt,,FHRS,
313447,Woodville,Heywood Road,Bideford,Devon,Acorn Manor,Hospitals/Childcare/Caring Premises,5,0,,233856,0,,51.02865900000000,09/00024/MX,080,foodandsafety@torridge.gov.uk,Torridge,http://www.torridge.gov.uk/food,-4.21431300000000,EX39 3PG,2013-09-12,fhrs_5_en-GB,5,,FHRS,0
313448,Merton Garage,Merton,Devon,,Agrimotors Merton Garage Post Office And Shop,Retailers - other,4613,10,,233985,5,,50.89089500000000,08/00017/FH,080,foodandsafety@torridge.gov.uk,Torridge,http://www.torridge.gov.uk/food,-4.09343200000000,EX20 3DZ,2013-01-23,fhrs_4_en-GB,4,,FHRS,5
313449,3 Bridgeland Street,Bideford,Devon,,Ali's Kebab House,Takeaway/sandwich shop,7844,5,,233365,5,,51.01973700000000,08/00025/MX,080,foodandsafety@torridge.gov.uk,Torridge,http://www.torridge.gov.uk/food,-4.20481900000000,EX39 2PS,2014-01-31,fhrs_5_en-GB,5,,FHRS,0
313450,,,,,All Occasions And Top Meals,Other catering premises,7841,5,,536301,5,,,13/00039/FH,080,foodandsafety@torridge.gov.uk,Torridge,http://www.torridge.gov.uk/food,,,2013-04-03,fhrs_5_en-GB,5,,FHRS,5
313451,,,,,Alpaca Park,Restaurant/Cafe/Canteen,1,,,233442,,,,08/00137/FH,080,foodandsafety@torridge.gov.uk,Torridge,http://www.torridge.gov.uk/food,,,2013-03-13,fhrs_exempt_en-GB,Exempt,,FHRS,
313452,,,,,Amanda's Homebaking,Other catering premises,7841,5,,233758,0,,,08/00016/FH,080,foodandsafety@torridge.gov.uk,Torridge,http://www.torridge.gov.uk/food,,,2014-01-24,fhrs_5_en-GB,5,,FHRS,5
313453,11 Honestone Street,Bideford,Devon,,Anchor,Pub/bar/nightclub,7843,10,,233613,5,,51.01650700000000,08/00008/MX,080,foodandsafety@torridge.gov.uk,Torridge,http://www.torridge.gov.uk/food,-4.20825900000000,EX39 2DJ,2014-03-27,fhrs_4_en-GB,4,,FHRS,5
313454,Fore Street,Hartland,Devon,,Anchor Inn,Pub/bar/nightclub,7843,5,,234041,5,,50.99208300000000,09/00077/MX,080,foodandsafety@torridge.gov.uk,Torridge,http://www.torridge.gov.uk/food,-4.48001600000000,EX39 6BD,2014-02-03,fhrs_4_en-GB,4,,FHRS,10
313455,,,,,Andys Griddle And Grill,Mobile caterer,7846,5,,233982,5,,,08/00011/MX,080,foodandsafety@torridge.gov.uk,Torridge,http://www.torridge.gov.uk/food,,,2014-02-12,fhrs_5_en-GB,5,,FHRS,5
313456,,,,,Angela's Kitchen,Other catering premises,7841,,,233453,,,,11/00127/FH,080,foodandsafety@torridge.gov.uk,Torridge,http://www.torridge.gov.uk/food,,,2014-09-18,fhrs_exempt_en-GB,Exempt,,FHRS,
313457,The Gables,Winsford Lane,Halwill Junction,Devon,Anglers Paradise,Pub/bar/nightclub,7843,5,,233876,5,,50.78872000000000,08/00020/MX,080,foodandsafety@torridge.gov.uk,Torridge,http://www.torridge.gov.uk/food,-4.20073800000000,EX21 5XT,2013-06-10,fhrs_5_en-GB,5,,FHRS,5
313458,Unit 2A,Alverdiscott Road Industrial Estate,East The Water,Bideford,Anglo Indian Chef Ltd,Manufacturers/packers,7839,0,,709131,0,,51.01266400000000,14/00151/MX,080,foodandsafety@torridge.gov.uk,Torridge,http://www.torridge.gov.uk/food,-4.18495200000000,EX39 4LQ,2014-10-22,fhrs_5_en-GB,5,,FHRS,0
313459,,,,,Anne Bacon Catering,Restaurant/Cafe/Canteen,1,0,,233771,0,,,08/00005/FH,080,foodandsafety@torridge.gov.uk,Torridge,http://www.torridge.gov.uk/food,,,2015-02-12,fhrs_5_en-GB,5,,FHRS,0
313460,Meeting Street,Appledore,Bideford,Devon,Appledore Baptist Church Luncheon Club,Other catering premises,7841,5,,233418,5,,51.05393800000000,08/00594/MX,080,foodandsafety@torridge.gov.uk,Torridge,http://www.torridge.gov.uk/food,-4.19251700000000,EX39 1RJ,2014-03-26,fhrs_5_en-GB,5,,FHRS,5
313461,,,,,Appledore Bees,Other catering premises,7841,,,565963,,,,13/00088/FH,080,foodandsafety@torridge.gov.uk,Torridge,http://www.torridge.gov.uk/food,,,2013-07-08,fhrs_exempt_en-GB,Exempt,,FHRS,
313462,2 Meeting Street,Appledore,Devon,,Appledore Chocolate Shop,Retailers - other,4613,,,233407,,,51.05420700000000,09/00188/MX,080,foodandsafety@torridge.gov.uk,Torridge,http://www.torridge.gov.uk/food,-4.19111700000000,EX39 1RH,2013-02-15,fhrs_exempt_en-GB,Exempt,,FHRS,
313463,Kingsley Avenue,Appledore,Bideford,Devon,Appledore County Primary School And Nursery,School/college/university,7845,5,,485878,0,,51.05077800000000,12/00065/FH,080,foodandsafety@torridge.gov.uk,Torridge,http://www.torridge.gov.uk/food,-4.19791800000000,EX39 1PF,2014-11-07,fhrs_5_en-GB,5,,FHRS,5
313464,Marshford,Churchill Way,Northam,Bideford,Appledore Football Club,Pub/bar/nightclub,7843,,,233969,,,51.05035000000000,08/00878/MX,080,foodandsafety@torridge.gov.uk,Torridge,http://www.torridge.gov.uk/food,-4.20059500000000,EX39 1PA,2012-11-08,fhrs_exempt_en-GB,Exempt,,FHRS,
313465,1 New Quay Street,Appledore,Devon,,Appledore Hall,Pub/bar/nightclub,7843,,,233393,,,51.05081700000000,09/00117/MX,080,foodandsafety@torridge.gov.uk,Torridge,http://www.torridge.gov.uk/food,-4.19202700000000,EX39 1LU,2012-02-08,fhrs_exempt_en-GB,Exempt,,FHRS,
313466,,,,,Appledore House Guest House,Hotel/bed & breakfast/guest house,7842,5,,233609,0,,,10/00489/MX,080,foodandsafety@torridge.gov.uk,Torridge,http://www.torridge.gov.uk/food,,,2012-11-08,fhrs_5_en-GB,5,,FHRS,0
313467,18 Chingswell Street,Bideford,Devon,,Appledore Inn,Pub/bar/nightclub,7843,5,,587296,0,,51.02022100000000,13/00042/MX,080,foodandsafety@torridge.gov.uk,Torridge,http://www.torridge.gov.uk/food,-4.20732300000000,EX39 2NF,2013-09-26,fhrs_5_en-GB,5,,FHRS,0
313468,6 Market Street,Appledore,Devon,,Appledore Newsagency,Retailers - other,4613,5,,233438,5,,51.05307900000000,11/00031/MX,080,foodandsafety@torridge.gov.uk,Torridge,http://www.torridge.gov.uk/food,-4.19133500000000,EX39 1PW,2014-05-02,fhrs_5_en-GB,5,,FHRS,5
313469,New Quay Street,Appledore,Bideford,Devon,Appledore Social Club,Other catering premises,7841,,,233380,,,51.05081700000000,09/00191/MX,080,foodandsafety@torridge.gov.uk,Torridge,http://www.torridge.gov.uk/food,-4.19202700000000,EX39 1LU,2013-01-21,fhrs_exempt_en-GB,Exempt,,FHRS,
313470,,,,,April Cottage Lops,Retailers - other,4613,0,,717919,0,,,14/00135/FH,080,foodandsafety@torridge.gov.uk,Torridge,http://www.torridge.gov.uk/food,,,2014-11-20,fhrs_5_en-GB,5,,FHRS,0
313471,Acorn House,2 Eastbourne Terrace,Westward Ho!,Devon,Ark Care Homes Ltd,Hospitals/Childcare/Caring Premises,5,,,234076,,,51.04329500000000,08/00022/MX,080,foodandsafety@torridge.gov.uk,Torridge,http://www.torridge.gov.uk/food,-4.23023300000000,EX39 1HG,2012-08-02,fhrs_exempt_en-GB,Exempt,,FHRS,
313472,Holsworthy,Devon,,,Arliemoor Care Home,Hospitals/Childcare/Caring Premises,5,5,,233498,5,,50.82404327392580,08/00019/MX,080,foodandsafety@torridge.gov.uk,Torridge,http://www.torridge.gov.uk/food,-4.31661939620972,EX22 6NX,2014-01-23,fhrs_4_en-GB,4,,FHRS,10
313473,21 Nelson Road,Westward Ho!,Bideford,Devon,Arnolds Pharmacy,Retailers - other,4613,,,444397,,,51.04001800000000,08/00027/MX,080,foodandsafety@torridge.gov.uk,Torridge,http://www.torridge.gov.uk/food,-4.23836400000000,EX39 1LF,2006-04-01,fhrs_exempt_en-GB,Exempt,,FHRS,
313474,Chapmans Well,Launceston,,,Arscott Arms,Pub/bar/nightclub,7843,0,,233413,0,,50.71369500000000,08/00002/MX,080,foodandsafety@torridge.gov.uk,Torridge,http://www.torridge.gov.uk/food,-4.33060800000000,PL15 9SG,2014-11-24,fhrs_5_en-GB,5,,FHRS,5
313475,Asda Stores Ltd,Clovelly Road,Bideford,Devon,Asda Coffee Shop,Restaurant/Cafe/Canteen,1,0,,233560,0,,51.00790700000000,09/00176/MX,080,foodandsafety@torridge.gov.uk,Torridge,http://www.torridge.gov.uk/food,-4.23624700000000,EX39 3QU,2014-09-22,fhrs_5_en-GB,5,,FHRS,0
313476,Asda Stores Ltd,Clovelly Road,Bideford,Devon,Asda Walmart Ltd,Retailers - supermarkets/hypermarkets,7840,0,,234116,0,,51.00790700000000,08/00003/MX,080,foodandsafety@torridge.gov.uk,Torridge,http://www.torridge.gov.uk/food,-4.23624700000000,EX39 3QU,2014-09-22,fhrs_5_en-GB,5,,FHRS,0
313477,Ashreigney,Devon,,,Ashreigney Village Hall,Other catering premises,7841,,,444412,,,50.90892028808590,08/00552/MX,080,foodandsafety@torridge.gov.uk,Torridge,http://www.torridge.gov.uk/food,-3.94655990600586,,2006-04-01,fhrs_exempt_en-GB,Exempt,,FHRS,
313478,Ashwater,Devon,,,Ashwater Parish Hall,Other catering premises,7841,,,444421,,,50.73620986938480,08/00898/MX,080,foodandsafety@torridge.gov.uk,Torridge,http://www.torridge.gov.uk/food,-4.28958988189697,EX21 5EJ,2006-04-01,fhrs_exempt_en-GB,Exempt,,FHRS,
313479,Ashwater,Devon,,,Ashwater Primary School,School/college/university,7845,0,,233714,0,,50.74211120605470,08/00032/FH,080,foodandsafety@torridge.gov.uk,Torridge,http://www.torridge.gov.uk/food,-4.28220939636230,EX21 5EW,2013-10-16,fhrs_5_en-GB,5,,FHRS,0
313480,Ashwater,Beaworthy,Devon,,Ashwater Village Shop,Retailers - other,4613,5,,233860,5,,50.73450469970700,10/00475/MX,080,foodandsafety@torridge.gov.uk,Torridge,http://www.torridge.gov.uk/food,-4.28627538681030,EX21 5EZ,2013-02-27,fhrs_5_en-GB,5,,FHRS,0
313481,,,,,Atlantic View,Hotel/bed & breakfast/guest house,7842,5,,233719,0,,,10/00452/MX,080,foodandsafety@torridge.gov.uk,Torridge,http://www.torridge.gov.uk/food,,,2012-08-15,fhrs_5_en-GB,5,,FHRS,0
313482,Unit 42,Atlantic Village,Bideford,Devon,Atlantis Bowl,Takeaway/sandwich shop,7844,5,,233962,5,,51.00742800000000,08/01128/MX,080,foodandsafety@torridge.gov.uk,Torridge,http://www.torridge.gov.uk/food,-4.23776300000000,EX39 3DU,2014-11-07,fhrs_5_en-GB,5,,FHRS,5
313483,,,,,B And B S Fearon,Hotel/bed & breakfast/guest house,7842,5,,233877,5,,,10/00520/FH,080,foodandsafety@torridge.gov.uk,Torridge,http://www.torridge.gov.uk/food,,,2012-10-24,fhrs_5_en-GB,5,,FHRS,5
313484,,,,,B And N Foods,Retailers - other,4613,10,,233437,10,,,08/00232/FH,080,foodandsafety@torridge.gov.uk,Torridge,http://www.torridge.gov.uk/food,,,2014-12-10,fhrs_3_en-GB,3,,FHRS,10
313485,Londis,Fore Street,Winkleigh,Devon,Bakery Stores,Retailers - other,4613,5,,233391,5,,50.85611400000000,08/00226/MX,080,foodandsafety@torridge.gov.uk,Torridge,http://www.torridge.gov.uk/food,-3.94502700000000,EX19 8HQ,2014-02-12,fhrs_4_en-GB,4,,FHRS,10
313486,,,,,Baking 4 U,Other catering premises,7841,,,233852,,,,08/00656/FH,080,foodandsafety@torridge.gov.uk,Torridge,http://www.torridge.gov.uk/food,,,2012-01-11,fhrs_exempt_en-GB,Exempt,,FHRS,
313487,,,,,Balloon Creations,Other catering premises,7841,5,,617503,5,,,13/00073/FH,080,foodandsafety@torridge.gov.uk,Torridge,http://www.torridge.gov.uk/food,,,2013-12-10,fhrs_4_en-GB,4,,FHRS,10
313488,11 Cooper Street,Bideford,Devon,,Bamboo,Restaurant/Cafe/Canteen,1,5,,234084,5,,51.01869900000000,08/00198/MX,080,foodandsafety@torridge.gov.uk,Torridge,http://www.torridge.gov.uk/food,-4.20551100000000,EX39 2DA,2014-09-22,fhrs_5_en-GB,5,,FHRS,5
313489,New Road,Great Torrington,Devon,,Barley Grove Service Station,Retailers - other,4613,5,,233362,0,,50.95306700000000,08/00218/MX,080,foodandsafety@torridge.gov.uk,Torridge,http://www.torridge.gov.uk/food,-4.14057800000000,EX38 8EJ,2014-11-13,fhrs_5_en-GB,5,,FHRS,0
313490,Halwill,Devon,,,Barn Park Residential Home,Hospitals/Childcare/Caring Premises,5,5,,234066,5,,50.77576065063480,08/00194/MX,080,foodandsafety@torridge.gov.uk,Torridge,http://www.torridge.gov.uk/food,-4.22960567474365,EX21 5UQ,2014-03-06,fhrs_5_en-GB,5,,FHRS,5
313491,,,,,Barton Farm,Distributors/Transporters,7,,,444433,,,,10/00444/FH,080,foodandsafety@torridge.gov.uk,Torridge,http://www.torridge.gov.uk/food,,,2013-11-12,fhrs_exempt_en-GB,Exempt,,FHRS,
313492,Merry Harriers Nursery,Woolsery,Bideford,Devon,Barton Farm Shop,Retailers - other,4613,5,,233751,5,,50.97295400000000,11/00143/MX,080,foodandsafety@torridge.gov.uk,Torridge,http://www.torridge.gov.uk/food,-4.35131800000000,EX39 5QH,2014-03-31,fhrs_5_en-GB,5,,FHRS,5
313493,76 - 77 Barton Tors,East The Water,Devon,,Barton Tors Stores,Retailers - other,4613,5,,233961,5,,51.01228000000000,08/00220/MX,080,foodandsafety@torridge.gov.uk,Torridge,http://www.torridge.gov.uk/food,-4.19347400000000,EX39 4HA,2015-01-28,fhrs_5_en-GB,5,,FHRS,5
313494,,,,,Bason Farm Holidays,Hotel/bed & breakfast/guest house,7842,,,233562,,,,08/00180/FH,080,foodandsafety@torridge.gov.uk,Torridge,http://www.torridge.gov.uk/food,,,2014-02-07,fhrs_exempt_en-GB,Exempt,,FHRS,
313495,Unit 2,Fry Street,Holsworthy,Devon,Bay Of Bengal,Restaurant/Cafe/Canteen,1,5,,233595,5,,50.80930700000000,08/00192/MX,080,foodandsafety@torridge.gov.uk,Torridge,http://www.torridge.gov.uk/food,-4.35231400000000,EX22 6DY,2015-02-05,fhrs_5_en-GB,5,,FHRS,5
313496,The Big Sheep,Abbotsham,Devon,,Bay Trees Catering,Restaurant/Cafe/Canteen,1,5,,233717,0,,51.01569000000000,08/00717/MX,080,foodandsafety@torridge.gov.uk,Torridge,http://www.torridge.gov.uk/food,-4.24822800000000,EX39 5AP,2014-05-02,fhrs_5_en-GB,5,,FHRS,5
313497,27-28 The Square,Holsworthy,Devon,,Bazaar,Retailers - other,4613,5,,233646,5,,50.80981400000000,08/00195/MX,080,foodandsafety@torridge.gov.uk,Torridge,http://www.torridge.gov.uk/food,-4.35347500000000,EX22 6AN,2014-05-21,fhrs_4_en-GB,4,,FHRS,10
313498,6 Westbourne Terrace,Westward Ho!,Devon,,Beach Cafe,Restaurant/Cafe/Canteen,1,5,,233559,0,,51.04221200000000,11/00006/MX,080,foodandsafety@torridge.gov.uk,Torridge,http://www.torridge.gov.uk/food,-4.23651600000000,EX39 1LL,2014-08-28,fhrs_5_en-GB,5,,FHRS,5
313499,5 Westbourne Terrace,Westward Ho!,Devon,,Beach Shop,Retailers - other,4613,,,233625,,,51.04221200000000,08/00548/MX,080,foodandsafety@torridge.gov.uk,Torridge,http://www.torridge.gov.uk/food,-4.23651600000000,EX39 1LL,2011-09-29,fhrs_exempt_en-GB,Exempt,,FHRS,
313500,42 Nelson Road,Westward Ho!,Devon,,Beachfield,Hospitals/Childcare/Caring Premises,5,5,,233667,0,,51.04029700000000,08/00773/MX,080,foodandsafety@torridge.gov.uk,Torridge,http://www.torridge.gov.uk/food,-4.23650900000000,EX39 1LQ,2013-12-05,fhrs_5_en-GB,5,,FHRS,5
313501,Dolton,Devon,,,Beacon Garage,Retailers - other,4613,5,,233460,0,,50.90450286865230,08/00553/MX,080,foodandsafety@torridge.gov.uk,Torridge,http://www.torridge.gov.uk/food,-4.00646877288818,EX19 8PS,2014-09-10,fhrs_5_en-GB,5,,FHRS,5
313502,Beaford,Winkleigh,Devon,,Beaford Primary School,School/college/university,7845,0,,485879,0,,50.91539400000000,12/00067/FH,080,foodandsafety@torridge.gov.uk,Torridge,http://www.torridge.gov.uk/food,-4.05703000000000,EX19 8LJ,2014-11-19,fhrs_5_en-GB,5,,FHRS,0
313503,Beaford,Winkleigh,Devon,,Beaford Village Hall,Other catering premises,7841,5,,583789,0,,50.91640300000000,13/00114/MX,080,foodandsafety@torridge.gov.uk,Torridge,http://www.torridge.gov.uk/food,-4.06198300000000,EX19 8LU,2013-09-05,fhrs_5_en-GB,5,,FHRS,0
313504,85 Irsha Street,Appledore,Devon,,Beaver Inn,Pub/bar/nightclub,7843,5,,234051,5,,51.05646500000000,08/00035/MX,080,foodandsafety@torridge.gov.uk,Torridge,http://www.torridge.gov.uk/food,-4.19444900000000,EX39 1RY,2014-05-01,fhrs_4_en-GB,4,,FHRS,10
313505,,,,,Beer Hill House,Retailers - other,4613,,,233653,,,,11/00085/FH,080,foodandsafety@torridge.gov.uk,Torridge,http://www.torridge.gov.uk/food,,,2012-03-29,fhrs_exempt_en-GB,Exempt,,FHRS,
313506,Monkleigh,Bideford,Devon,,Bell Inn,Pub/bar/nightclub,7843,5,,233339,0,,50.96517181396480,10/00481/MX,080,foodandsafety@torridge.gov.uk,Torridge,http://www.torridge.gov.uk/food,-4.20241880416870,EX39 5JS,2015-01-15,fhrs_5_en-GB,5,,FHRS,5
313507,Parkham,Devon,,,Bell Inn,Pub/bar/nightclub,7843,5,,233383,0,,50.96767044067380,08/00206/MX,080,foodandsafety@torridge.gov.uk,Torridge,http://www.torridge.gov.uk/food,-4.29676961898804,EX39 5PL,2013-08-21,fhrs_5_en-GB,5,,FHRS,5
313508,,,,,Bellissimo Cakes,Other catering premises,7841,0,,455674,5,,,12/00113/FH,080,foodandsafety@torridge.gov.uk,Torridge,http://www.torridge.gov.uk/food,,,2012-10-09,fhrs_5_en-GB,5,,FHRS,0
313509,20 The Quay,Appledore,Devon,,Bensons,Restaurant/Cafe/Canteen,1,5,,233971,0,,51.05311900000000,08/00193/MX,080,foodandsafety@torridge.gov.uk,Torridge,http://www.torridge.gov.uk/food,-4.19109400000000,EX39 1QS,2013-12-05,fhrs_5_en-GB,5,,FHRS,5
313510,,,,,Berry House Cakes,Hotel/bed & breakfast/guest house,7842,0,,468141,5,,,12/00112/FH,080,foodandsafety@torridge.gov.uk,Torridge,http://www.torridge.gov.uk/food,,,2012-11-21,fhrs_5_en-GB,5,,FHRS,0
313511,Berry Park,Welcombe,Devon,,Berry Park Holidays,Hotel/bed & breakfast/guest house,7842,,,233977,,,50.93041400000000,08/00187/MX,080,foodandsafety@torridge.gov.uk,Torridge,http://www.torridge.gov.uk/food,-4.52930700000000,EX39 6HH,2014-11-28,fhrs_exempt_en-GB,Exempt,,FHRS,
313512,,,,,Betham,Manufacturers/packers,7839,,,233614,,,,08/00241/FH,080,foodandsafety@torridge.gov.uk,Torridge,http://www.torridge.gov.uk/food,,,2013-11-21,fhrs_exempt_en-GB,Exempt,,FHRS,
313513,12 Torrington Street,Bideford,Devon,,Bethel Free Church,Restaurant/Cafe/Canteen,1,,,444422,,,51.01538000000000,08/01057/MX,080,foodandsafety@torridge.gov.uk,Torridge,http://www.torridge.gov.uk/food,-4.20171800000000,EX39 4DP,2008-11-10,fhrs_exempt_en-GB,Exempt,,FHRS,
313514,Brandis Corner,Holsworthy,Devon,,Bickford Arms,Pub/bar/nightclub,7843,5,,233422,5,,50.81322300000000,10/00432/MX,080,foodandsafety@torridge.gov.uk,Torridge,http://www.torridge.gov.uk/food,-4.25751000000000,EX22 7XY,2013-09-19,fhrs_5_en-GB,5,,FHRS,0
313515,23 South Street,Great Torrington,Devon,,Bickford Centre,Other catering premises,7841,,,234098,,,50.95138900000000,08/00190/MX,080,foodandsafety@torridge.gov.uk,Torridge,http://www.torridge.gov.uk/food,-4.14379000000000,EX38 8AA,2013-05-01,fhrs_exempt_en-GB,Exempt,,FHRS,
313516,Robins Nest Clubhouse,The Sportsground,Kingsley Road,Bideford,Bideford AFC,Pub/bar/nightclub,7843,5,,233737,5,,51.02078700000000,11/00145/MX,080,foodandsafety@torridge.gov.uk,Torridge,http://www.torridge.gov.uk/food,-4.20780700000000,EX39 2NG,2013-12-13,fhrs_5_en-GB,5,,FHRS,5
313517,The Pill,Kingsley Road,Bideford,Devon,Bideford Amateur Athletic Club,Pub/bar/nightclub,7843,,,233813,,,51.02073800000000,09/00061/MX,080,foodandsafety@torridge.gov.uk,Torridge,http://www.torridge.gov.uk/food,-4.20615000000000,EX39 2PF,2013-03-21,fhrs_exempt_en-GB,Exempt,,FHRS,
313518,The Quay,Bideford,Devon,,Bideford Amateur Rowing Club,Pub/bar/nightclub,7843,,,233907,,,51.02042200000000,08/00586/MX,080,foodandsafety@torridge.gov.uk,Torridge,http://www.torridge.gov.uk/food,-4.20428100000000,EX39 2EY,2010-11-08,fhrs_exempt_en-GB,Exempt,,FHRS,
313519,62 Honestone Street,Bideford,Devon,,Bideford And District Angling Club,Pub/bar/nightclub,7843,10,,233763,5,,51.01703200000000,08/00587/MX,080,foodandsafety@torridge.gov.uk,Torridge,http://www.torridge.gov.uk/food,-4.20949600000000,EX39 2DH,2014-08-27,fhrs_4_en-GB,4,,FHRS,5
313520,Sea Cadets Building,Park Lane,Bideford,Devon,Bideford And District Sea Cadets,Other catering premises,7841,,,444420,,,51.02330000000000,08/00889/FH,080,foodandsafety@torridge.gov.uk,Torridge,http://www.torridge.gov.uk/food,-4.20618600000000,EX39 2QL,2008-08-08,fhrs_exempt_en-GB,Exempt,,FHRS,
313521,Bideford,Devon,,,Bideford Bay Childrens Centre,Hospitals/Childcare/Caring Premises,5,0,,233537,0,,51.02130900000000,08/00753/MX,080,foodandsafety@torridge.gov.uk,Torridge,http://www.torridge.gov.uk/food,-4.20398100000000,EX39 2QQ,2015-01-13,fhrs_5_en-GB,5,,FHRS,0
313522,Bideford Bay Holiday Village,Bucks Cross,Bideford,Devon,Bideford Bay Holiday Park,Hotel/bed & breakfast/guest house,7842,5,,234020,0,,50.73246002197270,08/00033/MX,080,foodandsafety@torridge.gov.uk,Torridge,http://www.torridge.gov.uk/food,-3.79749202728271,EX39 5DU,2013-01-24,fhrs_5_en-GB,5,,FHRS,0
313523,Torrington Street,Bideford,Devon,,Bideford Bicyle Hire,Retailers - other,4613,,,234108,,,51.01332700000000,11/00116/MX,080,foodandsafety@torridge.gov.uk,Torridge,http://www.torridge.gov.uk/food,-4.20281900000000,EX39 4DR,2011-07-08,fhrs_exempt_en-GB,Exempt,,FHRS,
313524,Sandymere Sports Centre,Sandymere Road,Northam,Bideford,Bideford Blues Kitchen,Other catering premises,7841,0,,624129,0,,51.04513600000000,13/00096/MX,080,foodandsafety@torridge.gov.uk,Torridge,http://www.torridge.gov.uk/food,-4.21996400000000,EX39 1XX,2014-01-09,fhrs_5_en-GB,5,,FHRS,0
313525,Kingsley Road,Bideford,Devon,,Bideford Bowling Club,Pub/bar/nightclub,7843,,,234025,,,51.02078700000000,09/00027/MX,080,foodandsafety@torridge.gov.uk,Torridge,http://www.torridge.gov.uk/food,-4.20780700000000,EX39 2NG,2012-02-08,fhrs_exempt_en-GB,Exempt,,FHRS,
313526,39 Mill Street,Bideford,Devon,,Bideford Cafe,Restaurant/Cafe/Canteen,1,5,,233403,5,,51.01934500000000,09/00078/MX,080,foodandsafety@torridge.gov.uk,Torridge,http://www.torridge.gov.uk/food,-4.20656900000000,EX39 2JW,2013-12-05,fhrs_4_en-GB,4,,FHRS,10
313527,Abbotsham Road,Bideford,Devon,,Bideford College,School/college/university,7845,0,,233798,0,,51.01590000000000,08/00707/FH,080,foodandsafety@torridge.gov.uk,Torridge,http://www.torridge.gov.uk/food,-4.22033500000000,EX39 3AR,2013-09-19,fhrs_5_en-GB,5,,FHRS,0
313528,23 Bridgeland Street,Bideford,Devon,,Bideford Conservative Club,Pub/bar/nightclub,7843,,,233702,,,51.01964500000000,08/00188/MX,080,foodandsafety@torridge.gov.uk,Torridge,http://www.torridge.gov.uk/food,-4.20592700000000,EX39 2QA,2014-07-25,fhrs_5_en-GB,5,,FHRS,
313529,Abbotsham Road,Bideford,Devon,,Bideford Hospital,Hospitals/Childcare/Caring Premises,5,0,,233786,0,,51.01794600000000,08/00199/FH,080,foodandsafety@torridge.gov.uk,Torridge,http://www.torridge.gov.uk/food,-4.21250500000000,EX39 3AG,2014-01-24,fhrs_5_en-GB,5,,FHRS,5
313530,24 High Street,Bideford,Devon,,Bideford Liberal Club,Pub/bar/nightclub,7843,,,233500,,,51.01778200000000,08/00204/MX,080,foodandsafety@torridge.gov.uk,Torridge,http://www.torridge.gov.uk/food,-4.20834800000000,EX39 2AN,2013-11-21,fhrs_exempt_en-GB,Exempt,,FHRS,
313531,The Quay,Bideford,Devon,,Bideford News/Radfords,Retailers - other,4613,,,233513,,,51.01832300000000,11/00009/MX,080,foodandsafety@torridge.gov.uk,Torridge,http://www.torridge.gov.uk/food,-4.20493800000000,EX39 2HJ,2013-11-06,fhrs_exempt_en-GB,Exempt,,FHRS,
313532,King George V Playing Fields,Chanters Road,Bideford,Devon,Bideford Rugby Football Club,Pub/bar/nightclub,7843,5,,233690,0,,51.01924896240230,08/00223/MX,080,foodandsafety@torridge.gov.uk,Torridge,http://www.torridge.gov.uk/food,-4.20425987243652,,2014-11-07,fhrs_5_en-GB,5,,FHRS,0
313533,Kingsley Road,Bideford,Devon,,Bideford Service Station,Retailers - other,4613,5,,593843,5,,51.02063400000000,13/00143/MX,080,foodandsafety@torridge.gov.uk,Torridge,http://www.torridge.gov.uk/food,-4.20594600000000,EX39 2PF,2013-10-17,fhrs_5_en-GB,5,,FHRS,5
313534,Bideford AFC,The Sportsground,Kingsley Road,Bideford,Bideford Supporters' Club Burger Van,Takeaway/sandwich shop,7844,5,,234107,5,,51.02078700000000,08/00718/MX,080,foodandsafety@torridge.gov.uk,Torridge,http://www.torridge.gov.uk/food,-4.20780700000000,EX39 2NG,2014-03-07,fhrs_5_en-GB,5,,FHRS,5
313535,The Pavilion,Pebbleridge Road,Westward Ho!,Bideford,"Bideford, Littleham And Westward Ho Cricket Club",Restaurant/Cafe/Canteen,1,10,,233471,5,,51.04138700000000,08/00875/MX,080,foodandsafety@torridge.gov.uk,Torridge,http://www.torridge.gov.uk/food,-4.23641900000000,EX39 1LH,2012-08-07,fhrs_4_en-GB,4,,FHRS,5
313536,Bidna House,Bidna Lane,Northam,Devon,Bidna House Residential Care Home,Hospitals/Childcare/Caring Premises,5,5,,233895,5,,51.04422500000000,08/00205/MX,080,foodandsafety@torridge.gov.uk,Torridge,http://www.torridge.gov.uk/food,-4.19730800000000,EX39 1NU,2014-02-03,fhrs_5_en-GB,5,,FHRS,5
313537,,,,,Big Als,Mobile caterer,7846,5,,233592,5,,,10/00472/MX,080,foodandsafety@torridge.gov.uk,Torridge,http://www.torridge.gov.uk/food,,,2014-07-04,fhrs_4_en-GB,4,,FHRS,10
313538,Abbotsham,Devon,,,Big Sheep (Ewetopia),Restaurant/Cafe/Canteen,1,5,,233624,5,,51.01568984985350,11/00097/MX,080,foodandsafety@torridge.gov.uk,Torridge,http://www.torridge.gov.uk/food,-4.24822759628296,EX39 5AP,2013-10-09,fhrs_4_en-GB,4,,FHRS,10
313539,Travis Perkins Trading Co Ltd,Stibb Cross,Torrington,Devon,Birchwood Price Tools,Retailers - other,4613,,,709130,,,50.91304300000000,14/00128/MX,080,foodandsafety@torridge.gov.uk,Torridge,http://www.torridge.gov.uk/food,-4.23145300000000,EX38 8LJ,2014-09-02,fhrs_exempt_en-GB,Exempt,,FHRS,
313540,High Street,Great Torrington,Devon,,Black Horse Inn,Pub/bar/nightclub,7843,5,,233496,0,,50.95189100000000,08/00219/MX,080,foodandsafety@torridge.gov.uk,Torridge,http://www.torridge.gov.uk/food,-4.14342900000000,EX38 8HN,2013-08-14,fhrs_5_en-GB,5,,FHRS,0
313541,Black Torrington,Devon,,,Black Torrington C Of E School,School/college/university,7845,,,233421,,,50.83013916015630,08/00709/FH,080,foodandsafety@torridge.gov.uk,Torridge,http://www.torridge.gov.uk/food,-4.18189620971680,EX21 5PU,2012-10-31,fhrs_exempt_en-GB,Exempt,,FHRS,
313542,Black Torrington,Devon,,,Black Torrington Village Hall,Other catering premises,7841,,,444414,,,50.82806015014650,08/00632/MX,080,foodandsafety@torridge.gov.uk,Torridge,http://www.torridge.gov.uk/food,-4.17990016937256,,2007-06-05,fhrs_exempt_en-GB,Exempt,,FHRS,
313543,23 Torrington Street,Bideford,Devon,,Blacksmith Arms,Pub/bar/nightclub,7843,5,,233386,0,,51.01538000000000,08/00230/MX,080,foodandsafety@torridge.gov.uk,Torridge,http://www.torridge.gov.uk/food,-4.20171800000000,EX39 4DP,2014-06-25,fhrs_5_en-GB,5,,FHRS,0
313544,7 Meddon Street,Bideford,Devon,,Blackwells Pasties Ltd,Retailers - other,4613,10,,233499,15,,51.01555900000000,08/00037/MX,080,foodandsafety@torridge.gov.uk,Torridge,http://www.torridge.gov.uk/food,-4.20748700000000,EX39 2EF,2014-12-02,fhrs_2_en-GB,2,,FHRS,10
313545,Blagdon Farm,Ashwater,Beaworthy,Devon,Blagdon Farm Holidays,Restaurant/Cafe/Canteen,1,5,,624130,5,,50.74946900000000,13/00138/MX,080,foodandsafety@torridge.gov.uk,Torridge,http://www.torridge.gov.uk/food,-4.31279300000000,EX21 5DF,2013-12-19,fhrs_5_en-GB,5,,FHRS,5
313546,Ashwater,Devon,,,Blagdon Manor Country Hotel,Restaurant/Cafe/Canteen,1,5,,233722,0,,50.74946975708010,09/00046/MX,080,foodandsafety@torridge.gov.uk,Torridge,http://www.torridge.gov.uk/food,-4.31279230117798,EX21 5DF,2014-07-18,fhrs_5_en-GB,5,,FHRS,0
313547,,,,,Blegberry Bed And Breakfast,Hotel/bed & breakfast/guest house,7842,10,,636968,5,,,13/00170/MX,080,foodandsafety@torridge.gov.uk,Torridge,http://www.torridge.gov.uk/food,,,2014-03-20,fhrs_4_en-GB,4,,FHRS,0
313548,Unit 1,Latitude 51,Bath Hotel Road,Westward Ho!,Blue And Green,Restaurant/Cafe/Canteen,1,5,,668583,5,,51.04403500000000,14/00065/MX,080,foodandsafety@torridge.gov.uk,Torridge,http://www.torridge.gov.uk/food,-4.20784200000000,EX39 1GW,2014-05-16,fhrs_5_en-GB,5,,FHRS,5
313549,North Road,Holsworthy,Devon,,Bodmeyrick Residential Home,Hospitals/Childcare/Caring Premises,5,0,,233675,5,,50.81197800000000,08/00214/MX,080,foodandsafety@torridge.gov.uk,Torridge,http://www.torridge.gov.uk/food,-4.35186700000000,EX22 6HB,2014-05-01,fhrs_5_en-GB,5,,FHRS,5
313550,The Old Library,Bay View Road,Northam,Devon,Boots Chemist,Retailers - other,4613,,,444430,,,51.03806100000000,09/00058/MX,080,foodandsafety@torridge.gov.uk,Torridge,http://www.torridge.gov.uk/food,-4.21553200000000,EX39 1AZ,2006-04-01,fhrs_exempt_en-GB,Exempt,,FHRS,
313551,5 Marine Parade,Appledore,Bideford,Devon,Bradbourne House,Hotel/bed & breakfast/guest house,7842,0,,551302,5,,51.05208200000000,13/00031/MX,080,foodandsafety@torridge.gov.uk,Torridge,http://www.torridge.gov.uk/food,-4.19171600000000,EX39 1PJ,2013-05-14,fhrs_5_en-GB,5,,FHRS,0
313552,Holemoor,Devon,,,Bradford And Cookbury Village Hall,Other catering premises,7841,,,233557,,,50.82812881469730,08/00864/HS,080,foodandsafety@torridge.gov.uk,Torridge,http://www.torridge.gov.uk/food,-4.24174976348877,,2012-03-12,fhrs_exempt_en-GB,Exempt,,FHRS,
313553,Holemoor,Bradford,Holsworthy,Devon,Bradford Primary,School/college/university,7845,0,,233510,0,,50.82849502563480,11/00168/FH,080,foodandsafety@torridge.gov.uk,Torridge,http://www.torridge.gov.uk/food,-4.24262666702271,EX22 7AB,2013-12-04,fhrs_5_en-GB,5,,FHRS,0
313554,The Square,Bradworthy,Holsworthy,Devon,Bradworthy Inn,Pub/bar/nightclub,7843,0,,234018,0,,50.90083100000000,10/00470/MX,080,foodandsafety@torridge.gov.uk,Torridge,http://www.torridge.gov.uk/food,-4.38457500000000,EX22 7TD,2013-07-25,fhrs_5_en-GB,5,,FHRS,5
313555,Bradworthy,Devon,,,Bradworthy Post Office And Stores,Retailers - other,4613,5,,233518,5,,50.90139389038090,08/00191/MX,080,foodandsafety@torridge.gov.uk,Torridge,http://www.torridge.gov.uk/food,-4.38433408737183,EX22 7SS,2014-01-23,fhrs_5_en-GB,5,,FHRS,5
313556,Mill Road,Bradworthy,Devon,,Bradworthy Primary Academy,School/college/university,7845,0,,234086,0,,50.90169900000000,08/00705/FH,080,foodandsafety@torridge.gov.uk,Torridge,http://www.torridge.gov.uk/food,-4.38743600000000,EX22 7RT,2015-02-11,fhrs_5_en-GB,5,,FHRS,0
313557,Memorial Hall,The Square,Bradworthy,Devon,Bradworthy Social Club,Other catering premises,7841,,,234104,,,50.90083100000000,08/00236/MX,080,foodandsafety@torridge.gov.uk,Torridge,http://www.torridge.gov.uk/food,-4.38457500000000,EX22 7TD,2015-01-16,fhrs_exempt_en-GB,Exempt,,FHRS,
313558,,,,,Brandymarsh Produce,Retailers - other,4613,,,233337,,,,10/00448/FH,080,foodandsafety@torridge.gov.uk,Torridge,http://www.torridge.gov.uk/food,,,2012-08-29,fhrs_exempt_en-GB,Exempt,,FHRS,
313559,27 Dudley Way,Westward Ho!,Bideford,Devon,Breakers,Hotel/bed & breakfast/guest house,7842,0,,446061,0,,51.03724900000000,12/00090/FH,080,foodandsafety@torridge.gov.uk,Torridge,http://www.torridge.gov.uk/food,-4.24303800000000,EX39 1XD,2012-08-30,fhrs_5_en-GB,5,,FHRS,0
313560,Monkleigh Primary School,Monkleigh,Bideford,Devon,Breakfast And Tea Club,Hospitals/Childcare/Caring Premises,5,5,,624128,5,,50.96607600000000,12/00134/MX,080,foodandsafety@torridge.gov.uk,Torridge,http://www.torridge.gov.uk/food,-4.19940000000000,EX39 5JY,2013-12-10,fhrs_5_en-GB,5,,FHRS,0
313561,,,,,Brexworthy Farm,Retailers - other,4613,,,233967,,,,09/00126/MX,080,foodandsafety@torridge.gov.uk,Torridge,http://www.torridge.gov.uk/food,,,2012-10-09,fhrs_exempt_en-GB,Exempt,,FHRS,
313562,Bridgerule,Devon,,,Bridge Inn,Pub/bar/nightclub,7843,20,,233429,5,,50.79947662353520,08/00207/MX,080,foodandsafety@torridge.gov.uk,Torridge,http://www.torridge.gov.uk/food,-4.45092439651489,EX22 7EJ,2014-03-19,fhrs_1_en-GB,1,,FHRS,5
313563,Bridgerule,Holsworthy,Devon,,Bridgerule Primary School,School/college/university,7845,,,233381,,,50.79969406127930,11/00165/FH,080,foodandsafety@torridge.gov.uk,Torridge,http://www.torridge.gov.uk/food,-4.44745874404907,EX22 7EN,2014-12-09,fhrs_exempt_en-GB,Exempt,,FHRS,
313564,,,,,Bridgewater,Retailers - other,4613,5,,233485,5,,,11/00136/FH,080,foodandsafety@torridge.gov.uk,Torridge,http://www.torridge.gov.uk/food,,,2014-03-07,fhrs_5_en-GB,5,,FHRS,5
313565,,,,,Brilliant Fish CIC,Other catering premises,7841,10,,619795,5,,,12/00047/MX,080,foodandsafety@torridge.gov.uk,Torridge,http://www.torridge.gov.uk/food,,,2013-12-13,fhrs_4_en-GB,4,,FHRS,5
313566,,,,,Broad Park House,Hotel/bed & breakfast/guest house,7842,,,234079,,,,10/00415/FH,080,foodandsafety@torridge.gov.uk,Torridge,http://www.torridge.gov.uk/food,,,2013-10-02,fhrs_exempt_en-GB,Exempt,,FHRS,
313567,,,,,Broad Park Poultry,Farmers/growers,7838,,,643857,,,,14/00037/MX,080,foodandsafety@torridge.gov.uk,Torridge,http://www.torridge.gov.uk/food,,,2014-04-23,fhrs_exempt_en-GB,Exempt,,FHRS,
313568,,,,,Broadpark Breaks,Hotel/bed & breakfast/guest house,7842,,,233487,,,,11/00019/MX,080,foodandsafety@torridge.gov.uk,Torridge,http://www.torridge.gov.uk/food,,,2014-01-24,fhrs_exempt_en-GB,Exempt,,FHRS,
313569,,,,,Brockenhurst,Hotel/bed & breakfast/guest house,7842,,,234113,,,,08/00178/MX,080,foodandsafety@torridge.gov.uk,Torridge,http://www.torridge.gov.uk/food,,,2012-10-10,fhrs_exempt_en-GB,Exempt,,FHRS,
313570,,,,,Brooks'ys Farmhouse Devon Dry Cider,Farmers/growers,7838,,,728100,,,,14/00027/FH,080,foodandsafety@torridge.gov.uk,Torridge,http://www.torridge.gov.uk/food,,,2015-01-08,fhrs_exempt_en-GB,Exempt,,FHRS,
313571,37 South Street,Great Torrington,Devon,,Browns,Restaurant/Cafe/Canteen,1,5,,233809,0,,50.95135600000000,08/00196/MX,080,foodandsafety@torridge.gov.uk,Torridge,http://www.torridge.gov.uk/food,-4.14511300000000,EX38 8AB,2014-05-22,fhrs_5_en-GB,5,,FHRS,5
313572,Buckland Brewer,Bideford,Devon,,Buckland Brewer Community Shop,Retailers - other,4613,5,,517336,0,,50.96472800000000,12/00128/MX,080,foodandsafety@torridge.gov.uk,Torridge,http://www.torridge.gov.uk/food,-4.25355600000000,EX39 5LW,2013-03-06,fhrs_5_en-GB,5,,FHRS,5
313573,Buckland Brewer Cp School,Buckland Brewer,Bideford,Devon,Buckland Brewer School,School/college/university,7845,5,,233580,0,,50.96276200000000,11/00158/FH,080,foodandsafety@torridge.gov.uk,Torridge,http://www.torridge.gov.uk/food,-4.24918800000000,EX39 5LX,2011-12-07,fhrs_5_en-GB,5,,FHRS,5
313574,Buckland Brewer,Devon,,,Buckland Brewer Village Hall,Other catering premises,7841,,,444418,,,50.96429061889650,08/00788/MX,080,foodandsafety@torridge.gov.uk,Torridge,http://www.torridge.gov.uk/food,-4.25139999389648,,2007-06-20,fhrs_exempt_en-GB,Exempt,,FHRS,
313575,Bucks Cross,Bideford,Devon,,Bucks Cross Post Office And Stores,Retailers - other,4613,5,,233740,0,,50.98168945312500,08/00591/MX,080,foodandsafety@torridge.gov.uk,Torridge,http://www.torridge.gov.uk/food,-4.35388231277466,EX39 5DP,2014-05-27,fhrs_5_en-GB,5,,FHRS,5
313576,Bucks Cross,Bideford,Devon,,Bucks Cross Village Hall,Restaurant/Cafe/Canteen,1,,,444400,,,50.98168945312500,08/00215/MX,080,foodandsafety@torridge.gov.uk,Torridge,http://www.torridge.gov.uk/food,-4.35388231277466,EX39 5DP,2006-04-01,fhrs_exempt_en-GB,Exempt,,FHRS,
313577,,,,,Bucks Ice,Retailers - other,4613,,,371690,,,,12/00053/FH,080,foodandsafety@torridge.gov.uk,Torridge,http://www.torridge.gov.uk/food,,,2012-05-18,fhrs_exempt_en-GB,Exempt,,FHRS,
313578,Bude Road,Holsworthy,Devon,,Bude Road Garage,Retailers - other,4613,5,,233871,0,,50.81340900000000,08/00179/MX,080,foodandsafety@torridge.gov.uk,Torridge,http://www.torridge.gov.uk/food,-4.35804300000000,EX22 6HZ,2013-10-09,fhrs_5_en-GB,5,,FHRS,0
313579,Churchill Way,Northam,Devon,,Burrough Farm,Hospitals/Childcare/Caring Premises,5,5,,233711,0,,51.03830900000000,08/00181/MX,080,foodandsafety@torridge.gov.uk,Torridge,http://www.torridge.gov.uk/food,-4.21052300000000,EX39 1SU,2014-03-06,fhrs_5_en-GB,5,,FHRS,5
313580,78 High Street,Bideford,Devon,,By The Ford Butchers And Deli,Retailers - other,4613,0,,723830,0,,51.01793600000000,14/00158/MX,080,foodandsafety@torridge.gov.uk,Torridge,http://www.torridge.gov.uk/food,-4.20641600000000,EX39 2AA,2014-12-09,fhrs_5_en-GB,5,,FHRS,0
313581,Unit 13,Atlantic Village,Bideford,Devon,Cadbury Factory Shop,Retailers - other,4613,,,233965,,,51.00742800000000,10/00304/MX,080,foodandsafety@torridge.gov.uk,Torridge,http://www.torridge.gov.uk/food,-4.23776400000000,EX39 3DU,2012-01-12,fhrs_exempt_en-GB,Exempt,,FHRS,
313582,Torrington 1646 Visitor Attraction,Castle Hill,South Street,Great Torrington,Cafe At 1646,Restaurant/Cafe/Canteen,1,5,,233824,0,,50.95138900000000,08/00126/MX,080,foodandsafety@torridge.gov.uk,Torridge,http://www.torridge.gov.uk/food,-4.14379000000000,EX38 8AA,2013-09-19,fhrs_5_en-GB,5,,FHRS,5
313583,9 Grenville Street,Bideford,Devon,,Cafe Collective,Restaurant/Cafe/Canteen,1,5,,617155,5,,51.01763100000000,13/00130/MX,080,foodandsafety@torridge.gov.uk,Torridge,http://www.torridge.gov.uk/food,-4.20728600000000,EX39 2EA,2013-12-05,fhrs_5_en-GB,5,,FHRS,5
313584,Kingsley Road,Bideford,Devon,,Cafe Du Parc,Restaurant/Cafe/Canteen,1,5,,233694,0,,51.02130900000000,08/00092/MX,080,foodandsafety@torridge.gov.uk,Torridge,http://www.torridge.gov.uk/food,-4.20398100000000,EX39 2QQ,2015-01-13,fhrs_5_en-GB,5,,FHRS,5
313585,Golf Links Road,Westward Ho!,Bideford,Devon,Cafe Italia,Restaurant/Cafe/Canteen,1,10,,695780,5,,51.04138700000000,14/00124/MX,080,foodandsafety@torridge.gov.uk,Torridge,http://www.torridge.gov.uk/food,-4.23641900000000,EX39 1LH,2014-08-21,fhrs_4_en-GB,4,,FHRS,5
313586,Riverbank Car Park,Bideford,Devon,,Cafe Onboard,Restaurant/Cafe/Canteen,1,5,,666961,5,,50.73246002197270,14/00078/MX,080,foodandsafety@torridge.gov.uk,Torridge,http://www.torridge.gov.uk/food,-3.79749202728271,,2014-05-01,fhrs_5_en-GB,5,,FHRS,5
313587,,,,,Cake Hole,Other catering premises,7841,,,233633,,,,08/00739/FH,080,foodandsafety@torridge.gov.uk,Torridge,http://www.torridge.gov.uk/food,,,2011-08-08,fhrs_exempt_en-GB,Exempt,,FHRS,
313588,,,,,Cake Lady,Other catering premises,7841,,,359629,,,,12/00056/FH,080,foodandsafety@torridge.gov.uk,Torridge,http://www.torridge.gov.uk/food,,,2012-04-30,fhrs_exempt_en-GB,Exempt,,FHRS,
313589,,,,,Cakesworth,Other catering premises,7841,,,583788,,,,13/00111/FH,080,foodandsafety@torridge.gov.uk,Torridge,http://www.torridge.gov.uk/food,,,2013-09-12,fhrs_exempt_en-GB,Exempt,,FHRS,
313590,Carousel Amusements,Westbourne Terrace,Westward Ho!,Bideford,Capitans Kabin,Other catering premises,7841,0,,698987,0,,,14/00130/MX,080,foodandsafety@torridge.gov.uk,Torridge,http://www.torridge.gov.uk/food,,,2014-09-03,fhrs_5_en-GB,5,,FHRS,0
313591,,,,,Caprine Capers,Retailers - other,4613,,,233574,,,,10/00479/FH,080,foodandsafety@torridge.gov.uk,Torridge,http://www.torridge.gov.uk/food,,,2014-09-02,fhrs_exempt_en-GB,Exempt,,FHRS,
313592,13B Avon Road,Bideford,Devon,,Captain Cod,Takeaway/sandwich shop,7844,5,,666954,0,,51.01387300000000,14/00053/MX,080,foodandsafety@torridge.gov.uk,Torridge,http://www.torridge.gov.uk/food,-4.19577300000000,EX39 4BL,2014-05-12,fhrs_5_en-GB,5,,FHRS,5
313593,Castle Street,Great Torrington,Devon,,Castle House Nursing Home,Restaurant/Cafe/Canteen,1,0,,233579,0,,50.95140500000000,08/00038/FH,080,foodandsafety@torridge.gov.uk,Torridge,http://www.torridge.gov.uk/food,-4.14195400000000,EX38 8EZ,2014-03-06,fhrs_5_en-GB,5,,FHRS,5
313594,,,,,Cauldron Catering Company,Other catering premises,7841,0,,564404,5,,,13/00024/MX,080,foodandsafety@torridge.gov.uk,Torridge,http://www.torridge.gov.uk/food,,,2013-05-31,fhrs_5_en-GB,5,,FHRS,0
313595,Well Street,Great Torrington,Devon,,Cavalier Inn,Pub/bar/nightclub,7843,5,,233668,5,,50.95254000000000,08/00054/MX,080,foodandsafety@torridge.gov.uk,Torridge,http://www.torridge.gov.uk/food,-4.14138000000000,EX38 8EP,2013-09-19,fhrs_4_en-GB,4,,FHRS,10
313596,Mill Street,Bideford,Devon,,C-Bideford Baptist Pre School,Hospitals/Childcare/Caring Premises,5,0,,233435,0,,51.01876800000000,08/00725/MX,080,foodandsafety@torridge.gov.uk,Torridge,http://www.torridge.gov.uk/food,-4.20616900000000,,2015-01-28,fhrs_5_en-GB,5,,FHRS,0
313597,,,,,Ceridwen Herbs/Holsworthy Organics,Farmers/growers,7838,,,233803,,,,08/00163/FH,080,foodandsafety@torridge.gov.uk,Torridge,http://www.torridge.gov.uk/food,,,2013-09-10,fhrs_exempt_en-GB,Exempt,,FHRS,
313598,5 Meeting Street,Appledore,Bideford,Devon,Champ,Pub/bar/nightclub,7843,5,,438663,5,,51.05393800000000,12/00074/MX,080,foodandsafety@torridge.gov.uk,Torridge,http://www.torridge.gov.uk/food,-4.19251700000000,EX39 1RJ,2012-08-14,fhrs_5_en-GB,5,,FHRS,5
313599,Chapmans Well,Launceston,Cornwall,,Chapmanswell Caravan Park,Retailers - other,4613,5,,234048,5,,50.71369552612300,08/00098/MX,080,foodandsafety@torridge.gov.uk,Torridge,http://www.torridge.gov.uk/food,-4.33060789108276,PL15 9SG,2014-03-19,fhrs_5_en-GB,5,,FHRS,5
313600,Hartland County Primary School,North Road,Hartland,Devon,C-Hartland Pre School,School/college/university,7845,5,,233699,5,,50.99389500000000,08/00687/FH,080,foodandsafety@torridge.gov.uk,Torridge,http://www.torridge.gov.uk/food,-4.48108200000000,EX39 6BP,2012-09-27,fhrs_5_en-GB,5,,FHRS,5
313601,Unit 2,39 - 41 Well Street,Torrington,Devon,Chef Lin,Restaurant/Cafe/Canteen,1,5,,371688,0,,50.95254000000000,12/00046/MX,080,foodandsafety@torridge.gov.uk,Torridge,http://www.torridge.gov.uk/food,-4.14138000000000,EX38 8EP,2013-11-08,fhrs_5_en-GB,5,,FHRS,5
313602,Higher Cheristow,Cheristow Farm,Hartland,Devon,Cheristow Lavender,Farmers/growers,7838,5,,408515,5,,51.00168200000000,08/00780/MX,080,foodandsafety@torridge.gov.uk,Torridge,http://www.torridge.gov.uk/food,-4.50266500000000,EX39 6DA,2014-07-24,fhrs_5_en-GB,5,,FHRS,0
313603,Limers Lane,Northam,Devon,,Cheverells Residential Home,Hospitals/Childcare/Caring Premises,5,5,,233952,0,,51.03142900000000,08/00071/MX,080,foodandsafety@torridge.gov.uk,Torridge,http://www.torridge.gov.uk/food,-4.20769900000000,EX39 2RG,2014-07-04,fhrs_5_en-GB,5,,FHRS,0
313604,11 Bodmin Street,Holsworthy,Devon,,China Kitchen,Takeaway/sandwich shop,7844,5,,233727,10,,50.80905600000000,08/00082/MX,080,foodandsafety@torridge.gov.uk,Torridge,http://www.torridge.gov.uk/food,-4.35360800000000,EX22 6BB,2014-03-07,fhrs_3_en-GB,3,,FHRS,10
313605,60 Mill Street,Bideford,Devon,,Chocolate Box,Retailers - other,4613,5,,415853,5,,51.01839500000000,12/00086/MX,080,foodandsafety@torridge.gov.uk,Torridge,http://www.torridge.gov.uk/food,-4.20589600000000,EX39 2JT,2012-07-03,fhrs_5_en-GB,5,,FHRS,5
313606,,,,,Church Park Produce,Retailers - other,4613,,,234029,,,,09/00189/FH,080,foodandsafety@torridge.gov.uk,Torridge,http://www.torridge.gov.uk/food,,,2011-08-09,fhrs_exempt_en-GB,Exempt,,FHRS,
313607,Church Street,Dolton,Devon,,Church Street Stores,Retailers - other,4613,0,,234049,0,,50.89029100000000,08/00058/MX,080,foodandsafety@torridge.gov.uk,Torridge,http://www.torridge.gov.uk/food,-4.03401200000000,EX19 8QE,2013-03-20,fhrs_5_en-GB,5,,FHRS,0
313608,,,,,Claire's Little Robins,Hospitals/Childcare/Caring Premises,5,5,,233369,5,,,11/00153/MX,080,foodandsafety@torridge.gov.uk,Torridge,http://www.torridge.gov.uk/food,,,2014-03-31,fhrs_5_en-GB,5,,FHRS,5
313609,Clawton,Devon,,,Clawford Vineyard,Hotel/bed & breakfast/guest house,7842,20,,234054,10,,50.77834320068360,08/00567/MX,080,foodandsafety@torridge.gov.uk,Torridge,http://www.torridge.gov.uk/food,-4.31075620651245,EX22 6PN,2014-06-03,fhrs_1_en-GB,1,,FHRS,5
313610,Clawton,Devon,,,Clawton Primary School,School/college/university,7845,10,,233901,5,,50.76039505004880,08/00701/FH,080,foodandsafety@torridge.gov.uk,Torridge,http://www.torridge.gov.uk/food,-4.33315515518188,EX22 6QN,2014-11-13,fhrs_4_en-GB,4,,FHRS,5
313611,Clawton,Devon,,,Clawton Village Hall,Restaurant/Cafe/Canteen,1,10,,636971,0,,,14/00012/MX,080,foodandsafety@torridge.gov.uk,Torridge,http://www.torridge.gov.uk/food,,,2014-03-06,fhrs_4_en-GB,4,,FHRS,5
313612,18 Mill Street,Bideford,Devon,,Cleverdons,Restaurant/Cafe/Canteen,1,5,,233526,5,,51.01902000000000,08/00863/MX,080,foodandsafety@torridge.gov.uk,Torridge,http://www.torridge.gov.uk/food,-4.20614000000000,EX39 2JR,2013-09-12,fhrs_4_en-GB,4,,FHRS,10
313613,Frithelstockstone,Devon,,,Clinton Arms,Pub/bar/nightclub,7843,5,,233528,0,,50.95424652099610,08/00066/MX,080,foodandsafety@torridge.gov.uk,Torridge,http://www.torridge.gov.uk/food,-4.18764877319336,EX38 8JH,2015-02-02,fhrs_5_en-GB,5,,FHRS,5
313614,Clinton Village Hall,New Road,Merton,Devon,Clinton Hall,Other catering premises,7841,,,233618,,,50.88777700000000,08/00073/MX,080,foodandsafety@torridge.gov.uk,Torridge,http://www.torridge.gov.uk/food,-4.09529700000000,EX20 3EQ,2014-03-12,fhrs_exempt_en-GB,Exempt,,FHRS,
313615,Clovelly Visitors Centre,Clovelly,Bideford,Devon,Clovelly Cafe And Bar,Restaurant/Cafe/Canteen,1,5,,589392,0,,51.00092200000000,13/00137/MX,080,foodandsafety@torridge.gov.uk,Torridge,http://www.torridge.gov.uk/food,-4.40966100000000,EX39 5TA,2015-02-11,fhrs_5_en-GB,5,,FHRS,5
313616,Appledore Fish Dock,Hubbastone Road,Appledore,Devon,Clovelly Fish - Dan The Fishman,Retailers - other,4613,5,,233443,5,,51.04671700000000,11/00042/MX,080,foodandsafety@torridge.gov.uk,Torridge,http://www.torridge.gov.uk/food,-4.19149100000000,EX39 1LZ,2012-04-23,fhrs_4_en-GB,4,,FHRS,10
313617,Unit 4,Clovelly,Bideford,Devon,Clovelly Home And Holiday,Retailers - other,4613,,,233478,,,51.00092200000000,10/00286/MX,080,foodandsafety@torridge.gov.uk,Torridge,http://www.torridge.gov.uk/food,-4.40966100000000,EX39 5TA,2013-08-22,fhrs_exempt_en-GB,Exempt,,FHRS,
313618,,,,,Clovelly Ice Cream,Mobile caterer,7846,,,233447,,,,08/00070/MX,080,foodandsafety@torridge.gov.uk,Torridge,http://www.torridge.gov.uk/food,,,2012-01-19,fhrs_exempt_en-GB,Exempt,,FHRS,
313619,Clovelly Village Hall,Wrinkleberry Lane,Clovelly,Devon,Clovelly Social Club,Other catering premises,7841,5,,233976,5,,50.99542300000000,08/00069/MX,080,foodandsafety@torridge.gov.uk,Torridge,http://www.torridge.gov.uk/food,-4.40417400000000,EX39 5SU,2015-01-14,fhrs_5_en-GB,5,,FHRS,0
313620,Clovelly,Devon,,,Clovelly Visitors Centre,Retailers - other,4613,5,,233593,0,,51.00092315673830,08/00964/MX,080,foodandsafety@torridge.gov.uk,Torridge,http://www.torridge.gov.uk/food,-4.40966129302979,EX39 5TA,2013-02-20,fhrs_5_en-GB,5,,FHRS,0
313621,,,,,CN Holistics - Cherubim Chocolates,Manufacturers/packers,7839,,,553149,,,,13/00058/MX,080,foodandsafety@torridge.gov.uk,Torridge,http://www.torridge.gov.uk/food,,,2013-06-05,fhrs_exempt_en-GB,Exempt,,FHRS,
313622,5 Market Street,Appledore,Bideford,Devon,Coach And Horses,Pub/bar/nightclub,7843,5,,234064,5,,51.05307900000000,08/00568/MX,080,foodandsafety@torridge.gov.uk,Torridge,http://www.torridge.gov.uk/food,-4.19133500000000,EX39 1PW,2013-12-05,fhrs_4_en-GB,4,,FHRS,10
313623,Horns Cross,Bideford,Devon,,Coach And Horses,Pub/bar/nightclub,7843,5,,438661,0,,50.98493957519530,12/00072/MX,080,foodandsafety@torridge.gov.uk,Torridge,http://www.torridge.gov.uk/food,-4.30269479751587,EX39 5DH,2014-03-27,fhrs_5_en-GB,5,,FHRS,5
313624,Buckland Brewer,Devon,,,Coach And Horses Inn,Pub/bar/nightclub,7843,5,,233998,5,,50.96358108520510,08/00061/MX,080,foodandsafety@torridge.gov.uk,Torridge,http://www.torridge.gov.uk/food,-4.25046682357788,EX39 5LU,2013-07-26,fhrs_5_en-GB,5,,FHRS,5
313625,,,,,Coach House Farm,Retailers - other,4613,,,617156,,,,13/00146/MX,080,foodandsafety@torridge.gov.uk,Torridge,http://www.torridge.gov.uk/food,,,2013-11-29,fhrs_exempt_en-GB,Exempt,,FHRS,
313626,,,,,Cockington Cakes,Other catering premises,7841,0,,607786,5,,,13/00150/FH,080,foodandsafety@torridge.gov.uk,Torridge,http://www.torridge.gov.uk/food,,,2014-03-18,fhrs_5_en-GB,5,,FHRS,0
313627,Carousel Amusements,Westbourne Terrace,Westward Ho!,Bideford,Coffee Container,Takeaway/sandwich shop,7844,0,,666956,0,,51.04221200000000,14/00055/MX,080,foodandsafety@torridge.gov.uk,Torridge,http://www.torridge.gov.uk/food,-4.23651600000000,EX39 1LL,2014-04-10,fhrs_5_en-GB,5,,FHRS,5
313628,1 Coldstream Place,Clovelly Road,Bideford,Devon,Coldstream Stores,Retailers - other,4613,10,,233848,10,,51.01572700000000,08/00646/MX,080,foodandsafety@torridge.gov.uk,Torridge,http://www.torridge.gov.uk/food,-4.21285600000000,EX39 3BP,2014-12-09,fhrs_3_en-GB,3,,FHRS,10
313629,,,,,Comfort Cakes,Retailers - other,4613,5,,551303,5,,,13/00050/MX,080,foodandsafety@torridge.gov.uk,Torridge,http://www.torridge.gov.uk/food,,,2013-05-23,fhrs_5_en-GB,5,,FHRS,5
313630,22 South Street,Torrington,Devon,,Co-operative (Food),Retailers - supermarkets/hypermarkets,7840,0,,233958,0,,50.95138900000000,11/00044/MX,080,foodandsafety@torridge.gov.uk,Torridge,http://www.torridge.gov.uk/food,-4.14379000000000,EX38 8AA,2013-04-19,fhrs_5_en-GB,5,,FHRS,0
313631,5 - 6 Stanhope Square,Holsworthy,Devon,,Co-operative (Food),Retailers - supermarkets/hypermarkets,7840,0,,233885,0,,50.80948900000000,09/00110/MX,080,foodandsafety@torridge.gov.uk,Torridge,http://www.torridge.gov.uk/food,-4.35309000000000,EX22 6AP,2013-09-11,fhrs_5_en-GB,5,,FHRS,5
313632,62 Mill Street,Bideford,Devon,,Co-operative (Food),Retailers - supermarkets/hypermarkets,7840,0,,233810,0,,51.01839500000000,11/00043/MX,080,foodandsafety@torridge.gov.uk,Torridge,http://www.torridge.gov.uk/food,-4.20589600000000,EX39 2JT,2013-07-26,fhrs_5_en-GB,5,,FHRS,5
313633,Golf Links Road,Westward Ho!,Bideford,Devon,Co-operative (Food),Retailers - supermarkets/hypermarkets,7840,0,,233841,5,,51.04138700000000,08/00113/MX,080,foodandsafety@torridge.gov.uk,Torridge,http://www.torridge.gov.uk/food,-4.23641900000000,EX39 1LH,2014-01-29,fhrs_5_en-GB,5,,FHRS,5
313634,9 High Street,Bideford,Devon,,Cooperative Pharmacy,Retailers - other,4613,,,444427,,,51.01793600000000,09/00032/MX,080,foodandsafety@torridge.gov.uk,Torridge,http://www.torridge.gov.uk/food,-4.20641600000000,EX39 2AA,2006-04-01,fhrs_exempt_en-GB,Exempt,,FHRS,
313635,,,,,Copperhill Chocolates,Other catering premises,7841,5,,606380,5,,,13/00123/MX,080,foodandsafety@torridge.gov.uk,Torridge,http://www.torridge.gov.uk/food,,,2013-10-29,fhrs_5_en-GB,5,,FHRS,5
313636,,,,,Copps Castle Bed And Breakfast,Hotel/bed & breakfast/guest house,7842,,,233372,,,,11/00059/MX,080,foodandsafety@torridge.gov.uk,Torridge,http://www.torridge.gov.uk/food,,,2014-07-30,fhrs_exempt_en-GB,Exempt,,FHRS,
313637,Unit 2,Cherrywood Park Business Centre,Langtree,Torrington,Copps Shop,Retailers - other,4613,5,,617159,5,,50.92078700000000,13/00155/MX,080,foodandsafety@torridge.gov.uk,Torridge,http://www.torridge.gov.uk/food,-4.23097000000000,EX38 8LQ,2013-12-03,fhrs_5_en-GB,5,,FHRS,5
313638,,,,,Corner House,Hotel/bed & breakfast/guest house,7842,,,233484,,,,08/00094/MX,080,foodandsafety@torridge.gov.uk,Torridge,http://www.torridge.gov.uk/food,,,2014-01-22,fhrs_exempt_en-GB,Exempt,,FHRS,
313639,Bideford,Devon,,,Cornwall Farmers Ltd,Retailers - other,4613,,,233755,,,51.01704788208010,09/00121/MX,080,foodandsafety@torridge.gov.uk,Torridge,http://www.torridge.gov.uk/food,-4.20048570632935,EX39 4AE,2014-03-03,fhrs_exempt_en-GB,Exempt,,FHRS,
313640,Underlane,Holsworthy,Devon,,Cornwall Farmers Ltd Holsworthy,Retailers - supermarkets/hypermarkets,7840,,,233546,,,50.73246002197270,09/00054/MX,080,foodandsafety@torridge.gov.uk,Torridge,http://www.torridge.gov.uk/food,-3.79749202728271,EX22 6EE,2012-10-10,fhrs_exempt_en-GB,Exempt,,FHRS,
313641,Cornation Hall,St Giles On The Heath,Cornwall,,Coronation Hall Committee,Other catering premises,7841,5,,233778,5,,50.68793000000000,08/00089/MX,080,foodandsafety@torridge.gov.uk,Torridge,http://www.torridge.gov.uk/food,-4.32181000000000,,2013-10-16,fhrs_5_en-GB,5,,FHRS,0
313642,Unit 41B,Atlantic Village,Bideford,Devon,Costa Coffee,Restaurant/Cafe/Canteen,1,0,,233434,0,,51.00742800000000,10/00295/MX,080,foodandsafety@torridge.gov.uk,Torridge,http://www.torridge.gov.uk/food,-4.23776400000000,EX39 3DU,2014-05-01,fhrs_5_en-GB,5,,FHRS,0
313643,4-6 The Square,Northam,Bideford,Devon,Costcutter,Retailers - supermarkets/hypermarkets,7840,5,,233531,5,,51.04048300000000,08/00759/MX,080,foodandsafety@torridge.gov.uk,Torridge,http://www.torridge.gov.uk/food,-4.21303700000000,EX39 1AR,2015-01-28,fhrs_5_en-GB,5,,FHRS,5
313644,,,,,Cottage Cakes,Other catering premises,7841,,,233373,,,,08/00074/FH,080,foodandsafety@torridge.gov.uk,Torridge,http://www.torridge.gov.uk/food,,,2014-03-10,fhrs_exempt_en-GB,Exempt,,FHRS,
313645,74 High Street,Clovelly,Devon,,Cottage Tea Rooms,Restaurant/Cafe/Canteen,1,5,,233596,0,,50.99807300000000,08/00059/MX,080,foodandsafety@torridge.gov.uk,Torridge,http://www.torridge.gov.uk/food,-4.39910900000000,EX39 5TQ,2013-02-20,fhrs_5_en-GB,5,,FHRS,0
313646,22 Mill Street,Bideford,Devon,,Country Cottage Bakery,Retailers - other,4613,5,,233448,0,,51.01934500000000,08/00076/MX,080,foodandsafety@torridge.gov.uk,Torridge,http://www.torridge.gov.uk/food,-4.20656900000000,EX39 2JW,2014-08-22,fhrs_5_en-GB,5,,FHRS,5
313647,2 Kingsley House,The Quay,Bideford,Devon,Country Cottage Bakery (Billys),Retailers - other,4613,5,,233728,5,,51.01832300000000,08/00077/MX,080,foodandsafety@torridge.gov.uk,Torridge,http://www.torridge.gov.uk/food,-4.20493800000000,EX39 2HJ,2013-07-26,fhrs_5_en-GB,5,,FHRS,5
313648,27 Nelson Road,Westward Ho!,Devon,,Country Cottage Bakery Ltd,Retailers - other,4613,0,,233488,0,,51.04029700000000,08/00055/MX,080,foodandsafety@torridge.gov.uk,Torridge,http://www.torridge.gov.uk/food,-4.23650900000000,EX39 1LQ,2015-01-14,fhrs_5_en-GB,5,,FHRS,5
313649,2-4 Westbourne Terrace,Westward Ho!,Bideford,Devon,Country Cousins,Restaurant/Cafe/Canteen,1,0,,233970,0,,51.04221200000000,11/00068/MX,080,foodandsafety@torridge.gov.uk,Torridge,http://www.torridge.gov.uk/food,-4.23651600000000,EX39 1LL,2013-08-15,fhrs_5_en-GB,5,,FHRS,0
313650,9 Bodmin Street,Holsworthy,Devon,,Country Dairy And Kitchen,Takeaway/sandwich shop,7844,5,,233521,5,,50.80905600000000,09/00041/MX,080,foodandsafety@torridge.gov.uk,Torridge,http://www.torridge.gov.uk/food,-4.35360800000000,EX22 6BB,2013-08-21,fhrs_5_en-GB,5,,FHRS,5
313651,,,,,Countrymaid Cakes,Other catering premises,7841,0,,683428,0,,,12/00111/MX,080,foodandsafety@torridge.gov.uk,Torridge,http://www.torridge.gov.uk/food,,,2012-10-01,fhrs_5_en-GB,5,,FHRS,0
313652,Clawton,Devon,,,Court Barn Country House Hotel,Hotel/bed & breakfast/guest house,7842,0,,233445,0,,50.76960372924800,08/00118/MX,080,foodandsafety@torridge.gov.uk,Torridge,http://www.torridge.gov.uk/food,-4.34765481948853,EX22 6PS,2014-03-06,fhrs_5_en-GB,5,,FHRS,0
313653,4 Stanhope Square,Holsworthy,Devon,,Cousins Corner Cafe,Restaurant/Cafe/Canteen,1,5,,233767,5,,50.80948900000000,08/00062/MX,080,foodandsafety@torridge.gov.uk,Torridge,http://www.torridge.gov.uk/food,-4.35309000000000,EX22 6AP,2013-07-25,fhrs_5_en-GB,5,,FHRS,5
313654,2 Cooper Street,Bideford,Devon,,Crabby Dicks And Next Door,Pub/bar/nightclub,7843,,,233939,,,51.01869900000000,08/00057/MX,080,foodandsafety@torridge.gov.uk,Torridge,http://www.torridge.gov.uk/food,-4.20551100000000,EX39 2DA,2014-10-13,fhrs_exempt_en-GB,Exempt,,FHRS,
313655,St Giles In The Wood,Torrington,Devon,,Cranford Inn,Pub/bar/nightclub,7843,0,,617153,0,,50.96992874145510,13/00099/MX,080,foodandsafety@torridge.gov.uk,Torridge,http://www.torridge.gov.uk/food,-4.07295608520508,EX38 7LA,2013-12-03,fhrs_5_en-GB,5,,FHRS,0
313656,Littleham,Devon,,,Crealock Arms,Pub/bar/nightclub,7843,5,,233924,5,,50.98741912841800,08/00065/MX,080,foodandsafety@torridge.gov.uk,Torridge,http://www.torridge.gov.uk/food,-4.23006105422974,EX39 5HN,2013-08-14,fhrs_5_en-GB,5,,FHRS,5
313657,,,,,Cream Ho,Mobile caterer,7846,5,,572209,5,,,13/00025/FH,080,foodandsafety@torridge.gov.uk,Torridge,http://www.torridge.gov.uk/food,,,2013-07-24,fhrs_5_en-GB,5,,FHRS,0
313658,,,,,Creative Cakes,Other catering premises,7841,0,,668588,0,,,14/00103/FH,080,foodandsafety@torridge.gov.uk,Torridge,http://www.torridge.gov.uk/food,,,2014-06-16,fhrs_5_en-GB,5,,FHRS,0
313659,,,,,Creative Craft Retreats,Restaurant/Cafe/Canteen,1,,,234103,,,,12/00004/MX,080,foodandsafety@torridge.gov.uk,Torridge,http://www.torridge.gov.uk/food,,,2012-02-06,fhrs_exempt_en-GB,Exempt,,FHRS,
313660,,,,,Credence House,Hospitals/Childcare/Caring Premises,5,,,233743,,,,08/00123/MX,080,foodandsafety@torridge.gov.uk,Torridge,http://www.torridge.gov.uk/food,,,2014-03-10,fhrs_exempt_en-GB,Exempt,,FHRS,
313661,2 Fore Street,Holsworthy,Devon,,Crisp And Dry,Takeaway/sandwich shop,7844,0,,233465,0,,50.81012200000000,08/00064/MX,080,foodandsafety@torridge.gov.uk,Torridge,http://www.torridge.gov.uk/food,-4.35290900000000,EX22 6EB,2014-01-24,fhrs_5_en-GB,5,,FHRS,0
313662,Castle Street,Great Torrington,Devon,,Cromwell House,Hospitals/Childcare/Caring Premises,5,,,233475,,,50.95140500000000,08/00102/MX,080,foodandsafety@torridge.gov.uk,Torridge,http://www.torridge.gov.uk/food,-4.14195400000000,EX38 8EZ,2014-06-24,fhrs_exempt_en-GB,Exempt,,FHRS,
313663,Woodford Bridge Hotel And Country C,Milton Damerel,Holsworthy,Devon,Cromwells Bar And Bistro,Restaurant/Cafe/Canteen,1,5,,657359,5,,50.88741800000000,14/00046/MX,080,foodandsafety@torridge.gov.uk,Torridge,http://www.torridge.gov.uk/food,-4.27854300000000,EX22 7LL,2014-04-24,fhrs_5_en-GB,5,,FHRS,5
313664,Fore Street,Holsworthy,Devon,,Crown And Sceptre,Pub/bar/nightclub,7843,5,,234117,5,,50.81012200000000,08/00569/MX,080,foodandsafety@torridge.gov.uk,Torridge,http://www.torridge.gov.uk/food,-4.35290900000000,EX22 6EB,2014-05-22,fhrs_4_en-GB,4,,FHRS,10
313665,Fosketh Hill,Westward Ho!,Bideford,Devon,Culloden House,Hotel/bed & breakfast/guest house,7842,0,,338645,0,,51.03822000000000,12/00016/MX,080,foodandsafety@torridge.gov.uk,Torridge,http://www.torridge.gov.uk/food,-4.23739300000000,EX39 1UL,2014-04-24,fhrs_5_en-GB,5,,FHRS,0
313666,Weare Giffard,Bideford,Devon,,Cyder Presse,Pub/bar/nightclub,7843,5,,233468,0,,50.97747421264650,08/00573/MX,080,foodandsafety@torridge.gov.uk,Torridge,http://www.torridge.gov.uk/food,-4.17415332794189,EX39 4QR,2013-07-17,fhrs_5_en-GB,5,,FHRS,0
313667,Winkleigh,Devon,,,D And S Supplies,Restaurant/Cafe/Canteen,1,5,,233652,5,,50.86597824096680,08/00085/MX,080,foodandsafety@torridge.gov.uk,Torridge,http://www.torridge.gov.uk/food,-3.97550940513611,EX19 8EZ,2014-03-21,fhrs_5_en-GB,5,,FHRS,5
313668,,,,,Dairy Cottage Cake Design,Other catering premises,7841,,,340937,,,,12/00024/FH,080,foodandsafety@torridge.gov.uk,Torridge,http://www.torridge.gov.uk/food,,,2012-04-26,fhrs_exempt_en-GB,Exempt,,FHRS,
313669,Bude Road,Holsworthy,Devon,,Deer Park Nursing Home,Hospitals/Childcare/Caring Premises,5,0,,233718,0,,50.81340900000000,08/00080/FH,080,foodandsafety@torridge.gov.uk,Torridge,http://www.torridge.gov.uk/food,-4.35804300000000,EX22 6HZ,2014-01-24,fhrs_5_en-GB,5,,FHRS,0
313670,,,,,Delicadevon,Other catering premises,7841,,,509034,,,,12/00124/FH,080,foodandsafety@torridge.gov.uk,Torridge,http://www.torridge.gov.uk/food,,,2013-02-13,fhrs_exempt_en-GB,Exempt,,FHRS,
313671,32 Nelson Road,Westward Ho!,Bideford,Devon,Delicadevon Ltd,Retailers - other,4613,0,,468140,0,,51.04029700000000,12/00107/MX,080,foodandsafety@torridge.gov.uk,Torridge,http://www.torridge.gov.uk/food,-4.23650900000000,EX39 1LQ,2014-11-19,fhrs_5_en-GB,5,,FHRS,5
313672,,,,,Deliciously Devon,Other catering premises,7841,5,,636007,0,,,14/00014/FH,080,foodandsafety@torridge.gov.uk,Torridge,http://www.torridge.gov.uk/food,,,2014-02-13,fhrs_5_en-GB,5,,FHRS,0
313673,The Square,Shebbear,Devon,,Devils Stone Inn,Pub/bar/nightclub,7843,5,,233651,5,,50.86186300000000,08/00043/MX,080,foodandsafety@torridge.gov.uk,Torridge,http://www.torridge.gov.uk/food,-4.21901800000000,EX21 5RU,2013-10-09,fhrs_4_en-GB,4,,FHRS,10
313674,,,,,Devon Cake Boutique,Other catering premises,7841,0,,457509,5,,,12/00106/FH,080,foodandsafety@torridge.gov.uk,Torridge,http://www.torridge.gov.uk/food,,,2012-10-16,fhrs_5_en-GB,5,,FHRS,0
313675,,,,,Devon Country Market,Retailers - other,4613,,,233427,,,,11/00055/FH,080,foodandsafety@torridge.gov.uk,Torridge,http://www.torridge.gov.uk/food,,,2014-08-13,fhrs_exempt_en-GB,Exempt,,FHRS,
313676,,,,,Devon Food Company,Other catering premises,7841,5,,233335,0,,,08/00335/FH,080,foodandsafety@torridge.gov.uk,Torridge,http://www.torridge.gov.uk/food,,,2014-03-12,fhrs_5_en-GB,5,,FHRS,5
313677,Appledore Fish Dock,Hubbastone Road,Appledore,Bideford,Devon Scallops UK Ltd,Retailers - other,4613,,,643853,,,51.04671700000000,13/00145/MX,080,foodandsafety@torridge.gov.uk,Torridge,http://www.torridge.gov.uk/food,-4.19149100000000,EX39 1LZ,2014-04-01,fhrs_exempt_en-GB,Exempt,,FHRS,
313678,,,,,Devon Venison,Manufacturers/packers,7839,,,682377,,,,12/00097/FH,080,foodandsafety@torridge.gov.uk,Torridge,http://www.torridge.gov.uk/food,,,2014-06-18,fhrs_exempt_en-GB,Exempt,,FHRS,
313679,,,,,DKA Pest Control,Manufacturers/packers,7839,,,233682,,,,12/00001/FH,080,foodandsafety@torridge.gov.uk,Torridge,http://www.torridge.gov.uk/food,,,2012-02-08,fhrs_exempt_en-GB,Exempt,,FHRS,
313680,Lymebridge,Milford,Hartland,Devon,Docton Mill Gardens,Restaurant/Cafe/Canteen,1,5,,233634,5,,50.73246002197270,08/00045/MX,080,foodandsafety@torridge.gov.uk,Torridge,http://www.torridge.gov.uk/food,-3.79749202728271,EX39 6EA,2014-03-20,fhrs_5_en-GB,5,,FHRS,5
313681,The Square,Dolton,Devon,,Dolton C Of E School,School/college/university,7845,5,,233536,5,,50.89050900000000,08/00699/FH,080,foodandsafety@torridge.gov.uk,Torridge,http://www.torridge.gov.uk/food,-4.03493100000000,EX19 8QF,2013-10-17,fhrs_5_en-GB,5,,FHRS,5
313682,42 Atlantic Way,Westward Ho!,Devon,,Donness Nursing Home,Hospitals/Childcare/Caring Premises,5,5,,233395,5,,51.03977300000000,08/00079/FH,080,foodandsafety@torridge.gov.uk,Torridge,http://www.torridge.gov.uk/food,-4.23097700000000,EX39 1JD,2014-07-10,fhrs_5_en-GB,5,,FHRS,5
313683,47 Atlantic Way,Westward Ho!,Bideford,Devon,Donnington House,Hospitals/Childcare/Caring Premises,5,10,,233881,5,,51.03977300000000,08/00802/MX,080,foodandsafety@torridge.gov.uk,Torridge,http://www.torridge.gov.uk/food,-4.23097700000000,EX39 1JD,2014-10-08,fhrs_4_en-GB,4,,FHRS,5
313684,,,,,Droppa And Droppa Ltd,Manufacturers/packers,7839,5,,233525,0,,,08/01083/FH,080,foodandsafety@torridge.gov.uk,Torridge,http://www.torridge.gov.uk/food,,,2015-01-28,fhrs_5_en-GB,5,,FHRS,5
313685,Heywood Road,Northam,Bideford,Devon,Durrant House Hotel,Hotel/bed & breakfast/guest house,7842,5,,233999,5,,51.03306500000000,08/00800/MX,080,foodandsafety@torridge.gov.uk,Torridge,http://www.torridge.gov.uk/food,-4.21199900000000,EX39 3QB,2014-03-24,fhrs_5_en-GB,5,,FHRS,5
313686,,,,,E M Heard,Hotel/bed & breakfast/guest house,7842,,,233849,,,,08/00490/FH,080,foodandsafety@torridge.gov.uk,Torridge,http://www.torridge.gov.uk/food,,,2013-09-25,fhrs_exempt_en-GB,Exempt,,FHRS,
313687,,,,,East Dyke Farmhouse Bed And Breakfast,Hotel/bed & breakfast/guest house,7842,,,233377,,,,08/00090/FH,080,foodandsafety@torridge.gov.uk,Torridge,http://www.torridge.gov.uk/food,,,2012-09-14,fhrs_exempt_en-GB,Exempt,,FHRS,
313688,Barnstaple Street,Bideford,Devon,,East Of The Water West Of The Orient,Restaurant/Cafe/Canteen,1,5,,233910,5,,51.01704900000000,08/00838/MX,080,foodandsafety@torridge.gov.uk,Torridge,http://www.torridge.gov.uk/food,-4.20048600000000,EX39 4AE,2014-03-20,fhrs_5_en-GB,5,,FHRS,5
313689,Mines Road,East The Water,Bideford,Devon,East The Water Primary School,School/college/university,7845,5,,233887,0,,51.01553900000000,08/00698/FH,080,foodandsafety@torridge.gov.uk,Torridge,http://www.torridge.gov.uk/food,-4.19136000000000,EX39 4BZ,2014-01-24,fhrs_5_en-GB,5,,FHRS,5
313690,,,,,Eastmond House,Hotel/bed & breakfast/guest house,7842,,,234088,,,,08/00097/MX,080,foodandsafety@torridge.gov.uk,Torridge,http://www.torridge.gov.uk/food,,,2014-01-17,fhrs_exempt_en-GB,Exempt,,FHRS,
313691,Units 22-23,Atlantic Village,Access To Atlantic Village,Bideford,Edinburgh Woollen Mill,Retailers - other,4613,,,444403,,,51.00742800000000,08/00314/MX,080,foodandsafety@torridge.gov.uk,Torridge,http://www.torridge.gov.uk/food,-4.23776400000000,EX39 3DU,2006-04-01,fhrs_exempt_en-GB,Exempt,,FHRS,
313692,,,,,Elmscott,Retailers - other,4613,,,234056,,,,08/00628/FH,080,foodandsafety@torridge.gov.uk,Torridge,http://www.torridge.gov.uk/food,,,2013-03-21,fhrs_exempt_en-GB,Exempt,,FHRS,
313693,,,,,Elmscott Farm,Hotel/bed & breakfast/guest house,7842,,,233807,,,,08/00095/FH,080,foodandsafety@torridge.gov.uk,Torridge,http://www.torridge.gov.uk/food,,,2012-03-13,fhrs_exempt_en-GB,Exempt,,FHRS,
313694,,,,,Emma's Cupcakery,Other catering premises,7841,5,,375670,5,,,12/00062/FH,080,foodandsafety@torridge.gov.uk,Torridge,http://www.torridge.gov.uk/food,,,2012-05-29,fhrs_5_en-GB,5,,FHRS,0
313695,Great Potheridge House,Merton,Okehampton,Devon,Encompass Training,Hotel/bed & breakfast/guest house,7842,5,,233780,0,,50.90979900000000,11/00106/MX,080,foodandsafety@torridge.gov.uk,Torridge,http://www.torridge.gov.uk/food,-4.12384000000000,EX20 3DN,2013-01-23,fhrs_5_en-GB,5,,FHRS,5
313696,Little Acorns,Winkleigh,Devon,,Enigma Care Ltd,Hospitals/Childcare/Caring Premises,5,10,,233660,10,,50.86315700000000,08/00086/MX,080,foodandsafety@torridge.gov.uk,Torridge,http://www.torridge.gov.uk/food,-3.95192800000000,EX19 8EY,2015-01-06,fhrs_3_en-GB,3,,FHRS,5
313697,,,,,Epic Entertainment,Other catering premises,7841,5,,606381,5,,,13/00139/FH,080,foodandsafety@torridge.gov.uk,Torridge,http://www.torridge.gov.uk/food,,,2013-10-29,fhrs_5_en-GB,5,,FHRS,0
313698,,,,,Escape,Mobile caterer,7846,5,,234110,5,,,10/00427/MX,080,foodandsafety@torridge.gov.uk,Torridge,http://www.torridge.gov.uk/food,,,2013-07-25,fhrs_5_en-GB,5,,FHRS,5
313699,Beckett,Ashwater,Beaworthy,Devon,Evergreen Farm,Retailers - other,4613,5,,234045,5,,50.73246002197270,08/00312/FH,080,foodandsafety@torridge.gov.uk,Torridge,http://www.torridge.gov.uk/food,-3.79749202728271,EX21 5HE,2013-10-16,fhrs_5_en-GB,5,,FHRS,5
313700,33 Nelson Road,Westward Ho!,Bideford,Devon,F Heard Quality Meats,Retailers - other,4613,5,,233545,0,,51.04029700000000,11/00109/MX,080,foodandsafety@torridge.gov.uk,Torridge,http://www.torridge.gov.uk/food,-4.23650900000000,EX39 1LQ,2014-03-19,fhrs_5_en-GB,5,,FHRS,0
313701,Golf Links Road,Westward Ho!,Bideford,Devon,Fairway Buoy,Pub/bar/nightclub,7843,,,233459,,,51.04185700000000,08/00580/MX,080,foodandsafety@torridge.gov.uk,Torridge,http://www.torridge.gov.uk/food,-4.23674100000000,EX39 1LJ,2014-10-13,fhrs_exempt_en-GB,Exempt,,FHRS,
313702,Great Torrington Golf Club,Weare Trees,Great Torrington,Devon,Fairways Catering,Restaurant/Cafe/Canteen,1,5,,233784,5,,50.96432600000000,08/00112/MX,080,foodandsafety@torridge.gov.uk,Torridge,http://www.torridge.gov.uk/food,-4.16112000000000,EX38 7EZ,2013-08-01,fhrs_5_en-GB,5,,FHRS,5
313703,,,,,Fancy A Cake,Other catering premises,7841,,,371691,,,,12/00061/FH,080,foodandsafety@torridge.gov.uk,Torridge,http://www.torridge.gov.uk/food,,,2012-05-24,fhrs_exempt_en-GB,Exempt,,FHRS,
313704,,,,,Fancy Something Sweet,Manufacturers/packers,7839,,,359625,,,,12/00008/FH,080,foodandsafety@torridge.gov.uk,Torridge,http://www.torridge.gov.uk/food,,,2012-05-02,fhrs_exempt_en-GB,Exempt,,FHRS,
313705,,,,,Filleighmoor Gate  Bed And Breakfast,Hotel/bed & breakfast/guest house,7842,5,,636973,5,,,14/00022/MX,080,foodandsafety@torridge.gov.uk,Torridge,http://www.torridge.gov.uk/food,,,2014-02-25,fhrs_5_en-GB,5,,FHRS,0
313706,1 Fore Street,Holsworthy,Devon,,Filter Through,Restaurant/Cafe/Canteen,1,5,,233473,0,,50.81012200000000,09/00156/MX,080,foodandsafety@torridge.gov.uk,Torridge,http://www.torridge.gov.uk/food,-4.35290900000000,EX22 6EB,2015-02-05,fhrs_5_en-GB,5,,FHRS,0
313707,Higher Punchardon,Winkleigh,Devon,,Fionas Farm Fayre,Retailers - other,4613,5,,234009,5,,50.73246002197270,08/00103/FH,080,foodandsafety@torridge.gov.uk,Torridge,http://www.torridge.gov.uk/food,-3.79749202728271,EX19 8DJ,2015-01-06,fhrs_5_en-GB,5,,FHRS,5
313708,27 - 28 Clovelly Road,Bideford,Devon,,First In Last Out,Pub/bar/nightclub,7843,5,,233991,5,,51.01434400000000,08/00584/MX,080,foodandsafety@torridge.gov.uk,Torridge,http://www.torridge.gov.uk/food,-4.21373100000000,EX39 3BY,2013-08-22,fhrs_5_en-GB,5,,FHRS,5
313709,2 High Street,Holsworthy,Devon,,Food On The Go,Takeaway/sandwich shop,7844,5,,438667,0,,50.81055200000000,12/00093/MX,080,foodandsafety@torridge.gov.uk,Torridge,http://www.torridge.gov.uk/food,-4.35301600000000,EX22 6EL,2014-01-29,fhrs_5_en-GB,5,,FHRS,5
313710,5 Victoria Square,Holsworthy,Devon,,Ford,Retailers - other,4613,10,,233959,10,,50.81049200000000,08/00107/MX,080,foodandsafety@torridge.gov.uk,Torridge,http://www.torridge.gov.uk/food,-4.35375100000000,EX22 6AA,2014-05-14,fhrs_3_en-GB,3,,FHRS,10
313711,,,,,Ford Mill Farm,Retailers - other,4613,,,233818,,,,10/00006/FH,080,foodandsafety@torridge.gov.uk,Torridge,http://www.torridge.gov.uk/food,,,2013-07-31,fhrs_exempt_en-GB,Exempt,,FHRS,
313712,,,,,Frankaborough Farm Holiday Cottages,Hotel/bed & breakfast/guest house,7842,5,,233477,5,,,11/00162/MX,080,foodandsafety@torridge.gov.uk,Torridge,http://www.torridge.gov.uk/food,,,2014-03-12,fhrs_5_en-GB,5,,FHRS,5
313713,Monkleigh Village Hall,Monkleigh,Devon,,Friends Together,Other catering premises,7841,10,,631961,5,,50.96537300000000,13/00162/MX,080,foodandsafety@torridge.gov.uk,Torridge,http://www.torridge.gov.uk/food,-4.20090500000000,EX39 5JT,2014-02-03,fhrs_4_en-GB,4,,FHRS,5
313714,,,,,Frosty's,Mobile caterer,7846,5,,607787,0,,,13/00151/MX,080,foodandsafety@torridge.gov.uk,Torridge,http://www.torridge.gov.uk/food,,,2013-11-08,fhrs_5_en-GB,5,,FHRS,5
313715,Milky Way,Higher Clovelly,Devon,,Galactic Cafe,Restaurant/Cafe/Canteen,1,5,,233843,0,,50.97876200000000,08/00296/MX,080,foodandsafety@torridge.gov.uk,Torridge,http://www.torridge.gov.uk/food,-4.38554700000000,EX39 5RY,2014-05-13,fhrs_5_en-GB,5,,FHRS,0
313716,Coombe View Farm,Alverdiscott,Barnstaple,Devon,Garden Restaurant,Other catering premises,7841,5,,657360,5,,50.98143400000000,14/00056/FH,080,foodandsafety@torridge.gov.uk,Torridge,http://www.torridge.gov.uk/food,-4.09489600000000,EX31 3NB,2014-04-22,fhrs_5_en-GB,5,,FHRS,5
313717,Oliver House,Parkham,Devon,,GE Honey And Son,Retailers - other,4613,0,,233949,0,,50.97087200000000,08/00169/MX,080,foodandsafety@torridge.gov.uk,Torridge,http://www.torridge.gov.uk/food,-4.29593100000000,EX39 5PG,2013-02-26,fhrs_5_en-GB,5,,FHRS,5
313718,54 Mill Street,Bideford,Devon,,Gertie's,Restaurant/Cafe/Canteen,1,5,,233417,5,,51.01902000000000,10/00453/MX,080,foodandsafety@torridge.gov.uk,Torridge,http://www.torridge.gov.uk/food,-4.20614000000000,EX39 2JR,2014-06-25,fhrs_5_en-GB,5,,FHRS,5
313719,,,,,Gibbings Down,Retailers - other,4613,,,233683,,,,08/00882/FH,080,foodandsafety@torridge.gov.uk,Torridge,http://www.torridge.gov.uk/food,,,2013-11-21,fhrs_exempt_en-GB,Exempt,,FHRS,
313720,,,,,Glebe House Cottages Ltd,Restaurant/Cafe/Canteen,1,,,233900,,,,08/00250/MX,080,foodandsafety@torridge.gov.uk,Torridge,http://www.torridge.gov.uk/food,,,2014-03-10,fhrs_exempt_en-GB,Exempt,,FHRS,
313721,,,,,Glorious Oyster,Mobile caterer,7846,0,,581157,0,,,13/00098/MX,080,foodandsafety@torridge.gov.uk,Torridge,http://www.torridge.gov.uk/food,,,2013-08-28,fhrs_5_en-GB,5,,FHRS,5
313722,The Gnome Reserve,West Putford,Devon,,Gnome Kitchen,Retailers - other,4613,5,,233367,0,,50.91582100000000,08/00248/MX,080,foodandsafety@torridge.gov.uk,Torridge,http://www.torridge.gov.uk/food,-4.34388300000000,EX22 7XE,2013-03-18,fhrs_5_en-GB,5,,FHRS,0
313723,Bodmin Street,Holsworthy,Devon,,Golden Fleece,Pub/bar/nightclub,7843,0,,234089,0,,50.80905600000000,08/00132/MX,080,foodandsafety@torridge.gov.uk,Torridge,http://www.torridge.gov.uk/food,-4.35360800000000,EX22 6BB,2015-02-11,fhrs_5_en-GB,5,,FHRS,0
313724,Golf Links Road,Westward Ho!,Devon,,Golden Fry,Takeaway/sandwich shop,7844,0,,233975,0,,51.04138700000000,08/00128/MX,080,foodandsafety@torridge.gov.uk,Torridge,http://www.torridge.gov.uk/food,-4.23641900000000,EX39 1LH,2015-01-14,fhrs_5_en-GB,5,,FHRS,0
313725,North Road,High Bickington,Umberleigh,Devon,Golden Lion Inn,Pub/bar/nightclub,7843,10,,643856,5,,50.96771300000000,14/00028/MX,080,foodandsafety@torridge.gov.uk,Torridge,http://www.torridge.gov.uk/food,-3.99512000000000,EX37 9BB,2014-03-28,fhrs_4_en-GB,4,,FHRS,5
313726,10 Nelson Road,Westward Ho!,Bideford,Devon,Golden Sands Residential Home,Hospitals/Childcare/Caring Premises,5,5,,233606,0,,51.04001800000000,08/00768/MX,080,foodandsafety@torridge.gov.uk,Torridge,http://www.torridge.gov.uk/food,-4.23836400000000,EX39 1LF,2014-02-03,fhrs_5_en-GB,5,,FHRS,0
313727,Unit 35,Atlantic Village,Bideford,Devon,Grape Tree,Retailers - other,4613,10,,666953,10,,51.00742800000000,14/00038/MX,080,foodandsafety@torridge.gov.uk,Torridge,http://www.torridge.gov.uk/food,-4.23776400000000,EX39 3DU,2014-05-06,fhrs_3_en-GB,3,,FHRS,10
313728,Borough Road,Torrington,Devon,,Great Torrington Bluecoat Primary School,School/college/university,7845,0,,453724,0,,50.95199100000000,12/00075/FH,080,foodandsafety@torridge.gov.uk,Torridge,http://www.torridge.gov.uk/food,-4.13649900000000,EX38 7NU,2014-09-10,fhrs_5_en-GB,5,,FHRS,0
313729,Castle Green Bowling Green Pavilion,Castle Street,Great Torrington,Devon,Great Torrington Bowling Club,Other catering premises,7841,,,233492,,,50.95140500000000,08/00845/MX,080,foodandsafety@torridge.gov.uk,Torridge,http://www.torridge.gov.uk/food,-4.14195400000000,EX38 8EZ,2013-11-15,fhrs_exempt_en-GB,Exempt,,FHRS,
313730,Calvesford Road,Great Torrington,Devon,,Great Torrington Community College,School/college/university,7845,5,,233553,0,,50.95535700000000,08/00697/FH,080,foodandsafety@torridge.gov.uk,Torridge,http://www.torridge.gov.uk/food,-4.13389100000000,EX38 7DJ,2013-09-12,fhrs_5_en-GB,5,,FHRS,5
313731,,,,,Greedys Snack Bar,Mobile caterer,7846,5,,233543,10,,,09/00081/MX,080,foodandsafety@torridge.gov.uk,Torridge,http://www.torridge.gov.uk/food,,,2013-12-03,fhrs_4_en-GB,4,,FHRS,5
313732,,,,,Green Brownie,Mobile caterer,7846,0,,636974,0,,,14/00023/MX,080,foodandsafety@torridge.gov.uk,Torridge,http://www.torridge.gov.uk/food,,,2014-06-18,fhrs_5_en-GB,5,,FHRS,0
313733,Green Dragon,Fore Street,Langtree,Torrington,Green Dragon Catering,Pub/bar/nightclub,7843,5,,233582,5,,50.90609400000000,08/00129/MX,080,foodandsafety@torridge.gov.uk,Torridge,http://www.torridge.gov.uk/food,-4.20334100000000,EX38 8NN,2014-03-12,fhrs_5_en-GB,5,,FHRS,5
313734,25 - 26 Mill Street,Bideford,Devon,,Green Goose,Restaurant/Cafe/Canteen,1,0,,551304,5,,51.01934500000000,13/00057/MX,080,foodandsafety@torridge.gov.uk,Torridge,http://www.torridge.gov.uk/food,-4.20656900000000,EX39 2JW,2013-05-15,fhrs_5_en-GB,5,,FHRS,5
313735,4 - 6 High Street,Great Torrington,Devon,,Green Lantern Bakery,Retailers - other,4613,5,,233454,5,,50.95189100000000,08/00186/MX,080,foodandsafety@torridge.gov.uk,Torridge,http://www.torridge.gov.uk/food,-4.14342900000000,EX38 8HN,2014-08-21,fhrs_4_en-GB,4,,FHRS,10
313736,Baxworthy,Bideford,Devon,,Greenfields,Hotel/bed & breakfast/guest house,7842,0,,551301,0,,50.96332600000000,12/00144/MX,080,foodandsafety@torridge.gov.uk,Torridge,http://www.torridge.gov.uk/food,-4.45333200000000,EX39 5SF,2013-05-14,fhrs_5_en-GB,5,,FHRS,0
313737,The Square,Sheepwash,Devon,,Half Moon Inn,Pub/bar/nightclub,7843,10,,233920,0,,50.83664300000000,08/00831/MX,080,foodandsafety@torridge.gov.uk,Torridge,http://www.torridge.gov.uk/food,-4.15039900000000,EX21 5NE,2014-11-13,fhrs_4_en-GB,4,,FHRS,10
313738,Hallsannery Field Centre,Hallsannery,Bideford,Devon,Hallsannery House,Other catering premises,7841,,,564409,,,50.99870300000000,13/00093/MX,080,foodandsafety@torridge.gov.uk,Torridge,http://www.torridge.gov.uk/food,-4.20185500000000,EX39 5HE,2013-06-25,fhrs_exempt_en-GB,Exempt,,FHRS,
313739,Halwill Junction,Beaworthy,Devon,,Halwill County Primary School,School/college/university,7845,,,233428,,,50.78135900000000,08/00897/FH,080,foodandsafety@torridge.gov.uk,Torridge,http://www.torridge.gov.uk/food,-4.19904500000000,EX21 5XU,2013-06-24,fhrs_exempt_en-GB,Exempt,,FHRS,
313740,Halwill Manor,Halwill,Devon,,Halwill Manor Nursing Home,Hospitals/Childcare/Caring Premises,5,5,,234060,0,,50.77340600000000,08/00541/FH,080,foodandsafety@torridge.gov.uk,Torridge,http://www.torridge.gov.uk/food,-4.23138000000000,EX21 5UH,2014-04-11,fhrs_5_en-GB,5,,FHRS,5
313741,,,,,Hamsa Nuts,Retailers - other,4613,,,234077,,,,11/00156/FH,080,foodandsafety@torridge.gov.uk,Torridge,http://www.torridge.gov.uk/food,,,2015-01-16,fhrs_exempt_en-GB,Exempt,,FHRS,
313742,,,,,Handmade By Lottie & Co,Other catering premises,7841,5,,676493,5,,,14/00100/MX,080,foodandsafety@torridge.gov.uk,Torridge,http://www.torridge.gov.uk/food,,,2014-07-15,fhrs_5_en-GB,5,,FHRS,0
313743,,,,,Happy Cakes,Other catering premises,7841,0,,706441,0,,,14/00105/MX,080,foodandsafety@torridge.gov.uk,Torridge,http://www.torridge.gov.uk/food,,,2014-09-30,fhrs_5_en-GB,5,,FHRS,0
313744,94 Calf Street,Great Torrington,Devon,,Happydays,Retailers - other,4613,5,,233629,5,,50.95424100000000,08/01131/MX,080,foodandsafety@torridge.gov.uk,Torridge,http://www.torridge.gov.uk/food,-4.13838200000000,EX38 7BH,2014-06-25,fhrs_4_en-GB,4,,FHRS,10
313745,7 Queen Street,Bideford,Devon,,Harbour Bideford,Other catering premises,7841,5,,233540,5,,51.01909900000000,10/00283/MX,080,foodandsafety@torridge.gov.uk,Torridge,http://www.torridge.gov.uk/food,-4.20480300000000,EX39 2JG,2014-02-03,fhrs_5_en-GB,5,,FHRS,5
313746,,,,,Harris Outside Catering,Other catering premises,7841,0,,233350,0,,,08/00153/FH,080,foodandsafety@torridge.gov.uk,Torridge,http://www.torridge.gov.uk/food,,,2013-09-18,fhrs_5_en-GB,5,,FHRS,0
313747,The Square,Hartland,Devon,,Hart Inn,Pub/bar/nightclub,7843,5,,233480,0,,50.99273000000000,08/00150/MX,080,foodandsafety@torridge.gov.uk,Torridge,http://www.torridge.gov.uk/food,-4.48255900000000,EX39 6BL,2015-01-13,fhrs_5_en-GB,5,,FHRS,5
313748,10 Goaman Park,Hartland,Bideford,Devon,Hartland Artisan Ice Cream,Manufacturers/packers,7839,0,,585475,0,,50.99044200000000,13/00061/MX,080,foodandsafety@torridge.gov.uk,Torridge,http://www.torridge.gov.uk/food,-4.47043800000000,EX39 6DF,2013-09-12,fhrs_5_en-GB,5,,FHRS,5
313749,The Square,Hartland,Devon,,Hartland Parish Hall,Other catering premises,7841,,,444399,,,50.99273000000000,08/00154/MX,080,foodandsafety@torridge.gov.uk,Torridge,http://www.torridge.gov.uk/food,-4.48255900000000,EX39 6BL,2009-12-16,fhrs_exempt_en-GB,Exempt,,FHRS,
313750,Blagdon Farm,Hartland,Bideford,Devon,Hartland Point Kiosk,Takeaway/sandwich shop,7844,0,,515885,0,,51.01637400000000,12/00129/MX,080,foodandsafety@torridge.gov.uk,Torridge,http://www.torridge.gov.uk/food,-4.50829000000000,EX39 6AU,2013-02-22,fhrs_5_en-GB,5,,FHRS,0
313751,18 Fore Street,Hartland,Devon,,Hartland Post Office And Stores,Retailers - other,4613,,,233612,,,50.99208300000000,08/00157/MX,080,foodandsafety@torridge.gov.uk,Torridge,http://www.torridge.gov.uk/food,-4.48001600000000,EX39 6BD,2013-10-02,fhrs_exempt_en-GB,Exempt,,FHRS,
313752,North Road,Hartland,Bideford,Devon,Hartland Primary School,School/college/university,7845,0,,233449,0,,50.99389500000000,11/00161/FH,080,foodandsafety@torridge.gov.uk,Torridge,http://www.torridge.gov.uk/food,-4.48108200000000,EX39 6BP,2014-03-07,fhrs_5_en-GB,5,,FHRS,0
313753,Stoke,Devon,,,Hartland Quay Hotel,Hotel/bed & breakfast/guest house,7842,5,,233990,5,,50.99434661865230,08/00160/MX,080,foodandsafety@torridge.gov.uk,Torridge,http://www.torridge.gov.uk/food,-4.51538228988647,EX39 6DU,2013-07-31,fhrs_5_en-GB,5,,FHRS,5
313754,13 Allhalland Street,Bideford,Devon,,Harts,Takeaway/sandwich shop,7844,0,,234059,5,,51.01736500000000,11/00138/MX,080,foodandsafety@torridge.gov.uk,Torridge,http://www.torridge.gov.uk/food,-4.20519100000000,EX39 2JD,2013-10-17,fhrs_5_en-GB,5,,FHRS,5
313755,Great Torrington,Devon,,,Hatchmoor Nursing Home,Hospitals/Childcare/Caring Premises,5,5,,233847,0,,50.95653152465820,09/00192/MX,080,foodandsafety@torridge.gov.uk,Torridge,http://www.torridge.gov.uk/food,-4.12325143814087,EX38 7AT,2013-10-08,fhrs_5_en-GB,5,,FHRS,0
313756,Ashwater,Beaworthy,Devon,,Hay Meadow Farm,Hotel/bed & breakfast/guest house,7842,10,,668584,5,,50.77281800000000,14/00089/MX,080,foodandsafety@torridge.gov.uk,Torridge,http://www.torridge.gov.uk/food,-4.27664100000000,EX21 5DJ,2014-06-17,fhrs_4_en-GB,4,,FHRS,0
313757,,,,,Heaven Sent Cupcakes And Cookies,Other catering premises,7841,0,,375671,0,,,12/00063/FH,080,foodandsafety@torridge.gov.uk,Torridge,http://www.torridge.gov.uk/food,,,2014-05-02,fhrs_5_en-GB,5,,FHRS,0
313758,Mill Street,Bideford,Devon,,Heavitree Arms,Pub/bar/nightclub,7843,5,,233398,5,,51.01902000000000,08/00165/MX,080,foodandsafety@torridge.gov.uk,Torridge,http://www.torridge.gov.uk/food,-4.20614000000000,EX39 2JR,2014-03-06,fhrs_5_en-GB,5,,FHRS,5
313759,Tackbear Road,Bridgerule,Devon,,Hedley Wood Caravan Park,Other catering premises,7841,5,,233934,0,,50.78443700000000,08/00136/MX,080,foodandsafety@torridge.gov.uk,Torridge,http://www.torridge.gov.uk/food,-4.46382900000000,EX22 7ED,2013-01-08,fhrs_5_en-GB,5,,FHRS,5
313760,Westward Ho,Devon,,,Herons Lea Residential Home,Hospitals/Childcare/Caring Premises,5,0,,234030,0,,51.02971649169920,08/00159/MX,080,foodandsafety@torridge.gov.uk,Torridge,http://www.torridge.gov.uk/food,-4.23490095138550,EX39 3PT,2014-03-03,fhrs_5_en-GB,5,,FHRS,0
313761,,,,,Hey Jules,Retailers - other,4613,5,,482766,5,,,12/00131/FH,080,foodandsafety@torridge.gov.uk,Torridge,http://www.torridge.gov.uk/food,,,2012-11-28,fhrs_5_en-GB,5,,FHRS,0
313762,High Street,High Bickington,Devon,,High Bickington Church Hall,Pub/bar/nightclub,7843,,,444424,,,50.96710700000000,09/00008/MX,080,foodandsafety@torridge.gov.uk,Torridge,http://www.torridge.gov.uk/food,-3.99478100000000,EX37 9AX,2007-02-01,fhrs_exempt_en-GB,Exempt,,FHRS,
313763,Little Bickington Lane,High Bickington,Umberleigh,Devon,High Bickington Community Centre,Pub/bar/nightclub,7843,0,,643851,0,,50.96440100000000,12/00084/MX,080,foodandsafety@torridge.gov.uk,Torridge,http://www.torridge.gov.uk/food,-3.99422400000000,EX37 9HG,2014-04-24,fhrs_5_en-GB,5,,FHRS,0
313764,High Street,High Bickington,Umberleigh,Devon,High Bickington Post Office,Retailers - other,4613,,,233919,,,50.96710700000000,10/00143/MX,080,foodandsafety@torridge.gov.uk,Torridge,http://www.torridge.gov.uk/food,-3.99478100000000,EX37 9AX,2012-02-29,fhrs_exempt_en-GB,Exempt,,FHRS,
313765,High Street,High Bickington,Umberleigh,Devon,High Bickington Primary School,School/college/university,7845,5,,502531,5,,50.96652500000000,12/00122/FH,080,foodandsafety@torridge.gov.uk,Torridge,http://www.torridge.gov.uk/food,-3.99467100000000,EX37 9AY,2015-01-14,fhrs_5_en-GB,5,,FHRS,5
313766,First Floor,18 High Street,Bideford,Devon,High Street Social Club,Pub/bar/nightclub,7843,,,233870,,,51.01793600000000,08/00155/MX,080,foodandsafety@torridge.gov.uk,Torridge,http://www.torridge.gov.uk/food,-4.20641600000000,EX39 2AA,2011-10-04,fhrs_exempt_en-GB,Exempt,,FHRS,
313767,,,,,Higher Culleigh,Farmers/growers,7838,,,234005,,,,08/00724/FH,080,foodandsafety@torridge.gov.uk,Torridge,http://www.torridge.gov.uk/food,,,2012-10-31,fhrs_exempt_en-GB,Exempt,,FHRS,
313768,Higher Horslett,Clawton,Holsworthy,Devon,Higher Horslett Farmhouse,Hotel/bed & breakfast/guest house,7842,5,,691715,5,,50.75518400000000,14/00118/MX,080,foodandsafety@torridge.gov.uk,Torridge,http://www.torridge.gov.uk/food,-4.37608400000000,EX22 6PZ,2014-08-04,fhrs_5_en-GB,5,,FHRS,5
313769,10 Mill Street,Bideford,Devon,,Hiron And Sons,Retailers - other,4613,5,,515884,5,,51.01839500000000,12/00100/MX,080,foodandsafety@torridge.gov.uk,Torridge,http://www.torridge.gov.uk/food,-4.20589600000000,EX39 2JT,2015-01-15,fhrs_5_en-GB,5,,FHRS,5
313770,30 North Road,Bideford,Devon,,Ho Sam Chinese Takeaway,Takeaway/sandwich shop,7844,5,,233862,5,,51.02019700000000,08/00158/MX,080,foodandsafety@torridge.gov.uk,Torridge,http://www.torridge.gov.uk/food,-4.20860500000000,EX39 2NW,2013-09-12,fhrs_5_en-GB,5,,FHRS,5
313771,The Factory,Kingsley Avenue,Appledore,Bideford,Hockings Ice Cream,Manufacturers/packers,7839,5,,233832,5,,51.05096400000000,08/00764/MX,080,foodandsafety@torridge.gov.uk,Torridge,http://www.torridge.gov.uk/food,-4.19762700000000,EX39 1PF,2013-09-02,fhrs_5_en-GB,5,,FHRS,0
313772,,,,,Hodgetts And Clarke,Manufacturers/packers,7839,,,233517,,,,09/00065/FH,080,foodandsafety@torridge.gov.uk,Torridge,http://www.torridge.gov.uk/food,,,2013-10-29,fhrs_exempt_en-GB,Exempt,,FHRS,
313773,Unit 4,Atlantic Village,Bideford,Devon,Holland And Barrett,Retailers - other,4613,,,628081,,,51.00742800000000,13/00158/MX,080,foodandsafety@torridge.gov.uk,Torridge,http://www.torridge.gov.uk/food,-4.23776400000000,EX39 3DU,2014-01-24,fhrs_exempt_en-GB,Exempt,,FHRS,
313774,Holsworthy Football Club,North Road,Holsworthy,Devon,Holsworthy AFC Canteen,Pub/bar/nightclub,7843,5,,233973,5,,50.81379500000000,08/00851/MX,080,foodandsafety@torridge.gov.uk,Torridge,http://www.torridge.gov.uk/food,-4.35139000000000,EX22 6HF,2013-07-18,fhrs_5_en-GB,5,,FHRS,5
313775,Sanders Lane,Holsworthy,Devon,,Holsworthy C Of E Primary School,School/college/university,7845,,,371689,,,50.81380200000000,12/00049/FH,080,foodandsafety@torridge.gov.uk,Torridge,http://www.torridge.gov.uk/food,-4.35374700000000,EX22 6HD,2012-05-01,fhrs_exempt_en-GB,Exempt,,FHRS,
313776,Victoria Hill,Holsworthy,Devon,,Holsworthy Community College,School/college/university,7845,5,,233684,0,,50.81228600000000,08/00853/FH,080,foodandsafety@torridge.gov.uk,Torridge,http://www.torridge.gov.uk/food,-4.35534600000000,EX22 6JD,2013-06-24,fhrs_5_en-GB,5,,FHRS,5
313777,Holsworthy Hospital,Dobles Lane,Holsworthy,Devon,Holsworthy Day Centre,Hospitals/Childcare/Caring Premises,5,0,,233709,0,,50.81843800000000,11/00071/MX,080,foodandsafety@torridge.gov.uk,Torridge,http://www.torridge.gov.uk/food,-4.34999100000000,EX22 6JQ,2014-11-19,fhrs_5_en-GB,5,,FHRS,5
313778,Killatree,Pyworthy,Holsworthy,Devon,Holsworthy Golf Club,Restaurant/Cafe/Canteen,1,10,,643860,5,,50.80826300000000,14/00049/MX,080,foodandsafety@torridge.gov.uk,Torridge,http://www.torridge.gov.uk/food,-4.38510900000000,EX22 6LP,2014-04-11,fhrs_4_en-GB,4,,FHRS,0
313779,Dobles Lane,Holsworthy,Devon,,Holsworthy Hospital,Hospitals/Childcare/Caring Premises,5,0,,233356,0,,50.81843800000000,08/00635/MX,080,foodandsafety@torridge.gov.uk,Torridge,http://www.torridge.gov.uk/food,-4.34999100000000,EX22 6JQ,2014-05-21,fhrs_5_en-GB,5,,FHRS,0
313780,Holsworthy Memorial Hall,North Road,Holsworthy,Devon,Holsworthy Luncheon Club,Other catering premises,7841,10,,668581,5,,50.81066100000000,13/00034/MX,080,foodandsafety@torridge.gov.uk,Torridge,http://www.torridge.gov.uk/food,-4.35339000000000,EX22 6DJ,2014-06-16,fhrs_3_en-GB,3,,FHRS,10
313781,Station Road,Holsworthy,Devon,,Holsworthy Social Club,Other catering premises,7841,,,233514,,,50.80860400000000,08/00135/MX,080,foodandsafety@torridge.gov.uk,Torridge,http://www.torridge.gov.uk/food,-4.35283300000000,EX22 6AZ,2013-09-11,fhrs_exempt_en-GB,Exempt,,FHRS,
313782,Holsworthy Amateur Theatrical Socie,Hats Theatre,Bodmin Street,Holsworthy,Holsworthy Theatre,Retailers - other,4613,5,,244594,5,,50.80836900000000,08/00171/MX,080,foodandsafety@torridge.gov.uk,Torridge,http://www.torridge.gov.uk/food,-4.35556000000000,EX22 6BH,2012-03-16,fhrs_5_en-GB,5,,FHRS,5
313783,34 Nelson Road,Westward Ho!,Bideford,Devon,Hong Kong Diner,Takeaway/sandwich shop,7844,5,,643861,5,,51.04029700000000,14/00052/MX,080,foodandsafety@torridge.gov.uk,Torridge,http://www.torridge.gov.uk/food,-4.23650900000000,EX39 1LQ,2014-03-27,fhrs_5_en-GB,5,,FHRS,5
313784,Horns Cross,Bideford,Devon,,Hoops Inn,Pub/bar/nightclub,7843,5,,587298,5,,50.98453100000000,13/00121/MX,080,foodandsafety@torridge.gov.uk,Torridge,http://www.torridge.gov.uk/food,-4.31655300000000,EX39 5DL,2013-09-23,fhrs_5_en-GB,5,,FHRS,5
313785,,,,,Hudnotts Liqueurs,Manufacturers/packers,7839,,,704966,,,,13/00153/MX,080,foodandsafety@torridge.gov.uk,Torridge,http://www.torridge.gov.uk/food,,,2014-10-13,fhrs_5_en-GB,5,,FHRS,
313786,Huntshaw,Devon,,,Huntshaw Village Hall,Other catering premises,7841,,,446056,,,50.98597717285160,09/00013/MX,080,foodandsafety@torridge.gov.uk,Torridge,http://www.torridge.gov.uk/food,-4.12966728210449,EX38 7HH,2009-05-12,fhrs_exempt_en-GB,Exempt,,FHRS,
313787,23 The Cattle Market,Underlane,Holsworthy,Devon,J And J Market Cafe,Restaurant/Cafe/Canteen,1,5,,233918,5,,50.80721800000000,11/00022/MX,080,foodandsafety@torridge.gov.uk,Torridge,http://www.torridge.gov.uk/food,-4.35377100000000,EX22 6BL,2014-01-29,fhrs_5_en-GB,5,,FHRS,5
313788,The Supermarket,Bideford Bay Holiday Village,Bucks Cross,Devon,J J Wilson (Shops) Ltd,Retailers - other,4613,,,234071,,,50.98676700000000,08/00807/MX,080,foodandsafety@torridge.gov.uk,Torridge,http://www.torridge.gov.uk/food,-4.35673300000000,EX39 5DU,2014-09-05,fhrs_exempt_en-GB,Exempt,,FHRS,
313789,,,,,J L Ward And Son,Retailers - other,4613,,,233770,,,,10/00445/FH,080,foodandsafety@torridge.gov.uk,Torridge,http://www.torridge.gov.uk/food,,,2013-09-25,fhrs_exempt_en-GB,Exempt,,FHRS,
313790,,,,,Jacks,Mobile caterer,7846,5,,593842,5,,,13/00113/MX,080,foodandsafety@torridge.gov.uk,Torridge,http://www.torridge.gov.uk/food,,,2013-08-30,fhrs_5_en-GB,5,,FHRS,5
313791,,,,,Jackys Cakes,Manufacturers/packers,7839,,,233812,,,,08/00321/FH,080,foodandsafety@torridge.gov.uk,Torridge,http://www.torridge.gov.uk/food,,,2012-07-02,fhrs_exempt_en-GB,Exempt,,FHRS,
313792,Golf Links Road,Westward Ho!,Devon,,Janes Gift Shop,Retailers - other,4613,,,233753,,,51.04138700000000,09/00014/MX,080,foodandsafety@torridge.gov.uk,Torridge,http://www.torridge.gov.uk/food,-4.23641900000000,EX39 1LH,2012-12-21,fhrs_exempt_en-GB,Exempt,,FHRS,
313793,,,,,Janey's,Retailers - other,4613,5,,553148,5,,,13/00037/MX,080,foodandsafety@torridge.gov.uk,Torridge,http://www.torridge.gov.uk/food,,,2013-06-05,fhrs_5_en-GB,5,,FHRS,0
313794,,,,,Jax's Cakes N Bakes,Other catering premises,7841,0,,636967,0,,,13/00165/FH,080,foodandsafety@torridge.gov.uk,Torridge,http://www.torridge.gov.uk/food,,,2014-03-14,fhrs_5_en-GB,5,,FHRS,0
313795,,,,,Jersey Pocket,Manufacturers/packers,7839,0,,736114,0,,,14/00045/FH,080,foodandsafety@torridge.gov.uk,Torridge,http://www.torridge.gov.uk/food,,,2015-02-12,fhrs_5_en-GB,5,,FHRS,0
313796,Bridgerule,Devon,,,Jewells Cross Service Station,Retailers - other,4613,5,,233348,5,,50.80139160156250,08/00850/MX,080,foodandsafety@torridge.gov.uk,Torridge,http://www.torridge.gov.uk/food,-4.46297502517700,EX22 7EY,2015-01-05,fhrs_5_en-GB,5,,FHRS,5
313797,15 Fore Street,Great Torrington,Devon,,John Patts Ltd,Retailers - other,4613,5,,233828,0,,50.95247700000000,09/00096/MX,080,foodandsafety@torridge.gov.uk,Torridge,http://www.torridge.gov.uk/food,-4.14284300000000,EX38 8HQ,2013-01-10,fhrs_5_en-GB,5,,FHRS,5
313798,Appledore Post Office And Deli,The Quay,Appledore,Devon,Johns Of Appledore,Retailers - other,4613,5,,233342,0,,51.05311900000000,08/00015/MX,080,foodandsafety@torridge.gov.uk,Torridge,http://www.torridge.gov.uk/food,-4.19109400000000,EX39 1QS,2015-01-28,fhrs_5_en-GB,5,,FHRS,0
313799,8 Market Place,Bideford,Devon,,Joiners Arms,Pub/bar/nightclub,7843,,,233858,,,51.01711100000000,08/00556/MX,080,foodandsafety@torridge.gov.uk,Torridge,http://www.torridge.gov.uk/food,-4.20723300000000,EX39 2DR,2013-06-25,fhrs_exempt_en-GB,Exempt,,FHRS,
313800,,,,,Jolinox Unlimited,Manufacturers/packers,7839,,,233455,,,,08/00789/FH,080,foodandsafety@torridge.gov.uk,Torridge,http://www.torridge.gov.uk/food,,,2014-12-22,fhrs_exempt_en-GB,Exempt,,FHRS,
313801,,,,,Jues Kitchen,Other catering premises,7841,,,233497,,,,11/00027/FH,080,foodandsafety@torridge.gov.uk,Torridge,http://www.torridge.gov.uk/food,,,2013-03-18,fhrs_exempt_en-GB,Exempt,,FHRS,
313802,Carousel Amusements,Westbourne Terrace,Westward Ho!,Bideford,Julies Ice Cream Parlour,Retailers - other,4613,0,,572217,5,,51.04221200000000,13/00104/MX,080,foodandsafety@torridge.gov.uk,Torridge,http://www.torridge.gov.uk/food,-4.23651600000000,EX39 1LL,2013-07-23,fhrs_5_en-GB,5,,FHRS,0
313803,1 Stationfields,Halwill Junction,Devon,,Junction Corner News,Retailers - other,4613,20,,233790,10,,50.77847200000000,08/00315/MX,080,foodandsafety@torridge.gov.uk,Torridge,http://www.torridge.gov.uk/food,-4.20905200000000,EX21 5XX,2015-01-13,fhrs_1_en-GB,1,,FHRS,15
313804,Halwill Junction,Devon,,,Junction Inn (Halwill) Ltd,Pub/bar/nightclub,7843,5,,234043,5,,50.77893800000000,08/00257/MX,080,foodandsafety@torridge.gov.uk,Torridge,http://www.torridge.gov.uk/food,-4.20771200000000,EX21 5XR,2015-02-05,fhrs_5_en-GB,5,,FHRS,5
313805,,,,,Just The Cake,Other catering premises,7841,,,233983,,,,11/00089/FH,080,foodandsafety@torridge.gov.uk,Torridge,http://www.torridge.gov.uk/food,,,2011-10-06,fhrs_exempt_en-GB,Exempt,,FHRS,
313806,16 The Square,Holsworthy,Devon,,K J's,Takeaway/sandwich shop,7844,5,,233506,5,,50.80981400000000,11/00146/MX,080,foodandsafety@torridge.gov.uk,Torridge,http://www.torridge.gov.uk/food,-4.35347500000000,EX22 6AN,2015-01-13,fhrs_5_en-GB,5,,FHRS,5
313807,4 Hubbastone Road,Appledore,Bideford,Devon,Kalm Days,School/college/university,7845,5,,516950,0,,51.04671700000000,12/00125/MX,080,foodandsafety@torridge.gov.uk,Torridge,http://www.torridge.gov.uk/food,-4.19149100000000,EX39 1LZ,2013-03-04,fhrs_5_en-GB,5,,FHRS,0
313808,5 Stationfields,Halwill Junction,Beaworthy,Devon,Karen's Kitchen,Takeaway/sandwich shop,7844,5,,579111,5,,50.77847200000000,13/00116/MX,080,foodandsafety@torridge.gov.uk,Torridge,http://www.torridge.gov.uk/food,-4.20905200000000,EX21 5XX,2013-08-01,fhrs_5_en-GB,5,,FHRS,5
313809,6 Cooper Street,Bideford,Devon,,Karma Internet Cafe And Chillout Bar,Pub/bar/nightclub,7843,,,234052,,,51.01869900000000,12/00020/MX,080,foodandsafety@torridge.gov.uk,Torridge,http://www.torridge.gov.uk/food,-4.20551100000000,EX39 2DA,2014-05-27,fhrs_1_en-GB,1,,FHRS,
313810,,,,,Kats Cakes,Other catering premises,7841,0,,704130,0,,,14/00121/FH,080,foodandsafety@torridge.gov.uk,Torridge,http://www.torridge.gov.uk/food,,,2014-09-30,fhrs_5_en-GB,5,,FHRS,0
313811,,,,,Kayleigh's Cakes,Retailers - other,4613,,,459669,,,,12/00082/FH,080,foodandsafety@torridge.gov.uk,Torridge,http://www.torridge.gov.uk/food,,,2012-10-24,fhrs_exempt_en-GB,Exempt,,FHRS,
313812,9 Mill Street,Bideford,Devon,,Kelland Fruit,Retailers - other,4613,,,233411,,,51.01839500000000,08/00798/MX,080,foodandsafety@torridge.gov.uk,Torridge,http://www.torridge.gov.uk/food,-4.20589600000000,EX39 2JT,2011-09-27,fhrs_exempt_en-GB,Exempt,,FHRS,
313813,Clawton,Devon,,,Kempthorne,Retailers - other,4613,5,,234119,5,,50.75538253784180,09/00094/FH,080,foodandsafety@torridge.gov.uk,Torridge,http://www.torridge.gov.uk/food,-4.34230661392212,EX22 6QW,2013-12-05,fhrs_5_en-GB,5,,FHRS,5
313814,Abbotsham,Bideford,Devon,,Kenwith Castle Residential And Nursing Care,Hospitals/Childcare/Caring Premises,5,5,,234093,0,,51.02597427368160,11/00167/FH,080,foodandsafety@torridge.gov.uk,Torridge,http://www.torridge.gov.uk/food,-4.23713111877441,EX39 5BE,2014-12-12,fhrs_5_en-GB,5,,FHRS,0
313815,The Square,Bradworthy,Holsworthy,Devon,Kerry's Traditional Family Butchers,Retailers - other,4613,5,,438668,5,,50.90061000000000,12/00101/MX,080,foodandsafety@torridge.gov.uk,Torridge,http://www.torridge.gov.uk/food,-4.38528900000000,EX22 7TB,2014-07-18,fhrs_5_en-GB,5,,FHRS,5
313816,33 Well Street,Great Torrington,Devon,,Kia-Ora,Takeaway/sandwich shop,7844,5,,233394,0,,50.95254000000000,08/00269/MX,080,foodandsafety@torridge.gov.uk,Torridge,http://www.torridge.gov.uk/food,-4.14138000000000,EX38 8EP,2014-11-13,fhrs_5_en-GB,5,,FHRS,5
313817,7 The Quay,Bideford,Devon,,Kings Arms,Pub/bar/nightclub,7843,5,,233720,0,,51.01737700000000,08/00273/MX,080,foodandsafety@torridge.gov.uk,Torridge,http://www.torridge.gov.uk/food,-4.20502100000000,EX39 2HW,2013-10-16,fhrs_5_en-GB,5,,FHRS,5
313818,Fore Street,Holsworthy,Devon,,Kings Arms,Pub/bar/nightclub,7843,5,,556166,5,,50.81012200000000,13/00082/MX,080,foodandsafety@torridge.gov.uk,Torridge,http://www.torridge.gov.uk/food,-4.35290900000000,EX22 6EB,2013-06-10,fhrs_5_en-GB,5,,FHRS,5
313819,Fore Street,Winkleigh,Devon,,Kings Arms,Pub/bar/nightclub,7843,10,,636976,5,,50.85611400000000,14/00051/MX,080,foodandsafety@torridge.gov.uk,Torridge,http://www.torridge.gov.uk/food,-3.94502700000000,EX19 8HQ,2014-03-21,fhrs_3_en-GB,3,,FHRS,10
313820,The Square,Hartland,Bideford,Devon,Kings Arms,Pub/bar/nightclub,7843,5,,502535,5,,50.99273000000000,13/00019/MX,080,foodandsafety@torridge.gov.uk,Torridge,http://www.torridge.gov.uk/food,-4.48255900000000,EX39 6BL,2014-07-24,fhrs_5_en-GB,5,,FHRS,5
313821,3 The Square,Northam,Bideford,Devon,Kingsburg,Takeaway/sandwich shop,7844,5,,233390,5,,51.04048300000000,12/00007/MX,080,foodandsafety@torridge.gov.uk,Torridge,http://www.torridge.gov.uk/food,-4.21303700000000,EX39 1AR,2013-08-21,fhrs_5_en-GB,5,,FHRS,5
313822,17 Atlantic Way,Westward Ho!,Devon,,Kingsley Hall,Other catering premises,7841,,,444401,,,51.03934700000000,08/00263/MX,080,foodandsafety@torridge.gov.uk,Torridge,http://www.torridge.gov.uk/food,-4.23585000000000,EX39 1HX,2009-08-11,fhrs_exempt_en-GB,Exempt,,FHRS,
313823,11 Fore Street,Northam,Bideford,Devon,Kingsley Inn,Pub/bar/nightclub,7843,,,580288,,,51.03934600000000,12/00126/MX,080,foodandsafety@torridge.gov.uk,Torridge,http://www.torridge.gov.uk/food,-4.21326800000000,EX39 1AW,2015-01-06,fhrs_exempt_en-GB,Exempt,,FHRS,
313824,Northdown Road,Bideford,Devon,,Kingsley School,School/college/university,7845,5,,244595,0,,51.02073500000000,12/00026/FH,080,foodandsafety@torridge.gov.uk,Torridge,http://www.torridge.gov.uk/food,-4.21864100000000,EX39 3LY,2014-09-10,fhrs_5_en-GB,5,,FHRS,0
313825,Churchill Way,Northam,Bideford,Devon,Knapp House,Hotel/bed & breakfast/guest house,7842,5,,233408,5,,51.04369200000000,08/00839/MX,080,foodandsafety@torridge.gov.uk,Torridge,http://www.torridge.gov.uk/food,-4.20027900000000,EX39 1NT,2013-08-15,fhrs_5_en-GB,5,,FHRS,5
313826,36 Mill Street,Bideford,Devon,,Laceys Ale And Cider House,Pub/bar/nightclub,7843,,,580289,,,51.01969300000000,12/00148/MX,080,foodandsafety@torridge.gov.uk,Torridge,http://www.torridge.gov.uk/food,-4.20718400000000,EX39 2JJ,2013-08-01,fhrs_exempt_en-GB,Exempt,,FHRS,
313827,Lake Farm,Sheepwash,Beaworthy,Devon,Lake Farmhouse Bed And Breakfast,Hotel/bed & breakfast/guest house,7842,,,233927,,,50.85349900000000,11/00053/MX,080,foodandsafety@torridge.gov.uk,Torridge,http://www.torridge.gov.uk/food,-4.16052400000000,EX21 5PE,2014-11-28,fhrs_exempt_en-GB,Exempt,,FHRS,
313828,Lakenham Hill,Northam,Devon,,Lakenham Residential Care Home,Hospitals/Childcare/Caring Premises,5,0,,233708,0,,51.04119800000000,08/01142/MX,080,foodandsafety@torridge.gov.uk,Torridge,http://www.torridge.gov.uk/food,-4.21897700000000,EX39 1JJ,2014-02-27,fhrs_5_en-GB,5,,FHRS,0
313829,Broadwoodwidger,Devon,,,Lakeside Roadford Lake,Restaurant/Cafe/Canteen,1,0,,233748,0,,50.68492507934570,08/00626/MX,080,foodandsafety@torridge.gov.uk,Torridge,http://www.torridge.gov.uk/food,-4.21616363525391,EX20 4QS,2014-03-12,fhrs_5_en-GB,5,,FHRS,0
313830,,,,,Lane Barton Farm,Other catering premises,7841,5,,233972,0,,,08/00610/FH,080,foodandsafety@torridge.gov.uk,Torridge,http://www.torridge.gov.uk/food,,,2014-01-31,fhrs_5_en-GB,5,,FHRS,0
313831,,,,,Langs Traditional Meats,Retailers - other,4613,0,,233940,0,,,08/00034/FH,080,foodandsafety@torridge.gov.uk,Torridge,http://www.torridge.gov.uk/food,,,2013-05-23,fhrs_5_en-GB,5,,FHRS,0
313832,Fore Street,Langtree,Devon,,Langtree Primary School,School/college/university,7845,0,,233777,0,,50.91859500000000,08/00690/FH,080,foodandsafety@torridge.gov.uk,Torridge,http://www.torridge.gov.uk/food,-4.20337700000000,EX38 8NF,2013-12-04,fhrs_5_en-GB,5,,FHRS,5
313833,Southlands Drive,Langtree,Devon,,Langtree Village Hall,Other catering premises,7841,5,,717918,0,,50.92003000000000,09/00034/MX,080,foodandsafety@torridge.gov.uk,Torridge,http://www.torridge.gov.uk/food,-4.20408500000000,EX38 8RH,2014-11-21,fhrs_5_en-GB,5,,FHRS,0
313834,,,,,Larkworthy Farm,Retailers - other,4613,,,446059,,,,12/00032/FH,080,foodandsafety@torridge.gov.uk,Torridge,http://www.torridge.gov.uk/food,,,2012-09-05,fhrs_exempt_en-GB,Exempt,,FHRS,
313835,Laurels,Petrockstow,Devon,,Laurels Inn,Pub/bar/nightclub,7843,5,,233433,0,,50.73246002197270,08/00563/MX,080,foodandsafety@torridge.gov.uk,Torridge,http://www.torridge.gov.uk/food,-3.79749202728271,EX20 3HJ,2013-02-27,fhrs_5_en-GB,5,,FHRS,0
313836,Lavington United Reform Church,Bridgeland Street,Bideford,Devon,Lavington Luncheon Club,Other catering premises,7841,5,,234007,5,,51.01981600000000,08/00278/MX,080,foodandsafety@torridge.gov.uk,Torridge,http://www.torridge.gov.uk/food,-4.20551800000000,,2013-11-19,fhrs_5_en-GB,5,,FHRS,5
313837,16 High Street,Bideford,Devon,,L'Eau De Vie,Restaurant/Cafe/Canteen,1,5,,657361,5,,51.01793600000000,14/00062/MX,080,foodandsafety@torridge.gov.uk,Torridge,http://www.torridge.gov.uk/food,-4.20641600000000,EX39 2AA,2014-05-01,fhrs_5_en-GB,5,,FHRS,5
313838,The Square,Northam,Devon,,Leisure Centre,Restaurant/Cafe/Canteen,1,,,233493,,,51.04048300000000,08/01138/MX,080,foodandsafety@torridge.gov.uk,Torridge,http://www.torridge.gov.uk/food,-4.21303700000000,EX39 1AR,2010-02-18,fhrs_exempt_en-GB,Exempt,,FHRS,
313839,,,,,Let Them Eat Cake,Retailers - other,4613,,,233846,,,,11/00067/MX,080,foodandsafety@torridge.gov.uk,Torridge,http://www.torridge.gov.uk/food,,,2011-11-08,fhrs_exempt_en-GB,Exempt,,FHRS,
313840,,,,,Leworthy Farmhouse Bed And Breakfast,Hotel/bed & breakfast/guest house,7842,0,,233352,0,,,11/00150/MX,080,foodandsafety@torridge.gov.uk,Torridge,http://www.torridge.gov.uk/food,,,2013-07-25,fhrs_5_en-GB,5,,FHRS,0
313841,,,,,Ley Park,Retailers - other,4613,,,233529,,,,09/00040/FH,080,foodandsafety@torridge.gov.uk,Torridge,http://www.torridge.gov.uk/food,,,2011-02-25,fhrs_exempt_en-GB,Exempt,,FHRS,
313842,Fairways Drive,High Bickington,Devon,,Libbaton Golf Club,Restaurant/Cafe/Canteen,1,5,,233538,5,,50.95638200000000,08/00618/MX,080,foodandsafety@torridge.gov.uk,Torridge,http://www.torridge.gov.uk/food,-3.99509100000000,EX37 9BS,2014-08-28,fhrs_5_en-GB,5,,FHRS,5
313843,New Street,Great Torrington,Devon,,Lidl,Retailers - supermarkets/hypermarkets,7840,0,,233931,5,,50.95280300000000,11/00035/MX,080,foodandsafety@torridge.gov.uk,Torridge,http://www.torridge.gov.uk/food,-4.15053300000000,EX38 8BX,2014-09-02,fhrs_5_en-GB,5,,FHRS,0
313844,,,,,Linda Tremain,Retailers - other,4613,5,,636975,0,,,14/00025/MX,080,foodandsafety@torridge.gov.uk,Torridge,http://www.torridge.gov.uk/food,,,2014-02-27,fhrs_5_en-GB,5,,FHRS,0
313845,,,,,Lindas Bed And Breakfast,Hotel/bed & breakfast/guest house,7842,,,359627,,,,12/00037/MX,080,foodandsafety@torridge.gov.uk,Torridge,http://www.torridge.gov.uk/food,,,2014-05-21,fhrs_exempt_en-GB,Exempt,,FHRS,
313846,66 Mill Street,Bideford,Devon,,Lindseys Cake And Dessert Shop,Restaurant/Cafe/Canteen,1,5,,234027,0,,51.01839500000000,09/00147/MX,080,foodandsafety@torridge.gov.uk,Torridge,http://www.torridge.gov.uk/food,-4.20589600000000,EX39 2JT,2014-05-02,fhrs_5_en-GB,5,,FHRS,0
313847,,,,,Little Pantry,Retailers - other,4613,0,,233672,0,,,09/00170/MX,080,foodandsafety@torridge.gov.uk,Torridge,http://www.torridge.gov.uk/food,,,2014-07-24,fhrs_5_en-GB,5,,FHRS,0
313848,,,,,Little Silver,Retailers - other,4613,,,233364,,,,09/00085/FH,080,foodandsafety@torridge.gov.uk,Torridge,http://www.torridge.gov.uk/food,,,2013-02-18,fhrs_exempt_en-GB,Exempt,,FHRS,
313849,Little Torrington,Devon,,,Little Torrington Victory Hall,Other catering premises,7841,,,444402,,,50.93082427978520,08/00282/MX,080,foodandsafety@torridge.gov.uk,Torridge,http://www.torridge.gov.uk/food,-4.14843702316284,EX38 8PS,2007-06-08,fhrs_exempt_en-GB,Exempt,,FHRS,
313850,Scratchface Lane,Littleham,Bideford,Devon,Littleham Village Hall,Other catering premises,7841,,,444406,,,50.99199700000000,08/00366/MX,080,foodandsafety@torridge.gov.uk,Torridge,http://www.torridge.gov.uk/food,-4.21880900000000,EX39 5HR,2007-06-12,fhrs_exempt_en-GB,Exempt,,FHRS,
313851,,,,,Live Naturally,Retailers - other,4613,,,552442,,,,13/00027/FH,080,foodandsafety@torridge.gov.uk,Torridge,http://www.torridge.gov.uk/food,,,2013-05-30,fhrs_exempt_en-GB,Exempt,,FHRS,
313852,Blackberry Farm,Milton Damerel,Devon,,Lizzys Larder,Retailers - other,4613,5,,233345,5,,50.87654100000000,08/00279/FH,080,foodandsafety@torridge.gov.uk,Torridge,http://www.torridge.gov.uk/food,-4.30799300000000,EX22 7NP,2014-07-18,fhrs_5_en-GB,5,,FHRS,5
313853,1 High Street,Great Torrington,Devon,,Lloyds Pharmacy,Retailers - other,4613,,,444404,,,50.95225900000000,08/00318/MX,080,foodandsafety@torridge.gov.uk,Torridge,http://www.torridge.gov.uk/food,-4.14347400000000,EX38 8HR,2014-11-17,fhrs_exempt_en-GB,Exempt,,FHRS,
313854,Freemasons Hall,Bodmin Street,Holsworthy,Devon,Lodge Of Freemasons,Other catering premises,7841,,,233351,,,50.80836900000000,08/00117/MX,080,foodandsafety@torridge.gov.uk,Torridge,http://www.torridge.gov.uk/food,-4.35556000000000,EX22 6BH,2012-10-31,fhrs_exempt_en-GB,Exempt,,FHRS,
313855,46 South Street,Great Torrington,Devon,,Londis,Retailers - other,4613,,,233558,,,50.95135600000000,08/00275/MX,080,foodandsafety@torridge.gov.uk,Torridge,http://www.torridge.gov.uk/food,-4.14511300000000,EX38 8AB,2014-09-16,fhrs_exempt_en-GB,Exempt,,FHRS,
313856,,,,,Long Furlong Holiday Cottages,Hotel/bed & breakfast/guest house,7842,,,233764,,,,10/00447/MX,080,foodandsafety@torridge.gov.uk,Torridge,http://www.torridge.gov.uk/food,,,2014-09-22,fhrs_exempt_en-GB,Exempt,,FHRS,
313857,,,,,Lower Twitchen Farm,Retailers - other,4613,5,,444435,5,,,11/00119/MX,080,foodandsafety@torridge.gov.uk,Torridge,http://www.torridge.gov.uk/food,,,2014-05-22,fhrs_5_en-GB,5,,FHRS,5
313858,,,,,Lower Wembsworthy Farm,Hotel/bed & breakfast/guest house,7842,,,234090,,,,08/00284/FH,080,foodandsafety@torridge.gov.uk,Torridge,http://www.torridge.gov.uk/food,,,2014-06-19,fhrs_exempt_en-GB,Exempt,,FHRS,
313859,Lundy Island,Bristol Channel,Devon,,Lundy Shop,Retailers - other,4613,0,,233527,0,,50.73246002197270,08/00643/MX,080,foodandsafety@torridge.gov.uk,Torridge,http://www.torridge.gov.uk/food,-3.79749202728271,,2013-10-03,fhrs_5_en-GB,5,,FHRS,0
313860,,,,,Lydshaw Bed And Breakfast,Hotel/bed & breakfast/guest house,7842,,,233412,,,,11/00003/MX,080,foodandsafety@torridge.gov.uk,Torridge,http://www.torridge.gov.uk/food,,,2014-07-24,fhrs_exempt_en-GB,Exempt,,FHRS,
313861,,,,,M J Caterers,Hospitals/Childcare/Caring Premises,5,0,,736116,0,,,14/00143/MX,080,foodandsafety@torridge.gov.uk,Torridge,http://www.torridge.gov.uk/food,,,2015-02-11,fhrs_5_en-GB,5,,FHRS,5
313862,Merry Harriers Nursery,Woolsery,Bideford,Devon,Mad Hatters Restaurant,Restaurant/Cafe/Canteen,1,0,,335449,0,,50.97295400000000,12/00019/MX,080,foodandsafety@torridge.gov.uk,Torridge,http://www.torridge.gov.uk/food,-4.35131800000000,EX39 5QH,2013-10-09,fhrs_5_en-GB,5,,FHRS,5
313863,,,,,Mag Catering,Mobile caterer,7846,5,,233829,5,,,10/00392/MX,080,foodandsafety@torridge.gov.uk,Torridge,http://www.torridge.gov.uk/food,,,2014-01-20,fhrs_5_en-GB,5,,FHRS,5
313864,North Road,Holsworthy,Devon,,Magpie Royal British Legion,Pub/bar/nightclub,7843,,,233639,,,50.81379500000000,08/00372/MX,080,foodandsafety@torridge.gov.uk,Torridge,http://www.torridge.gov.uk/food,-4.35139000000000,EX22 6HF,2013-07-18,fhrs_exempt_en-GB,Exempt,,FHRS,
313865,Merton,Okehampton,Devon,,Malt Scoop Inn,Pub/bar/nightclub,7843,5,,446063,0,,50.89070892333980,12/00103/MX,080,foodandsafety@torridge.gov.uk,Torridge,http://www.torridge.gov.uk/food,-4.09341001510620,EX20 3EA,2014-08-21,fhrs_5_en-GB,5,,FHRS,5
313866,4 Cooper Street,Bideford,Devon,,Mariners,Restaurant/Cafe/Canteen,1,0,,233696,0,,51.01869900000000,08/00277/MX,080,foodandsafety@torridge.gov.uk,Torridge,http://www.torridge.gov.uk/food,-4.20551100000000,EX39 2DA,2014-03-27,fhrs_5_en-GB,5,,FHRS,5
313867,Lundy Island,Bristol Channel,Devon,,Marisco Tavern,Pub/bar/nightclub,7843,0,,233375,5,,50.73246002197270,08/00683/MX,080,foodandsafety@torridge.gov.uk,Torridge,http://www.torridge.gov.uk/food,-3.79749202728271,EX39 2LY,2013-10-03,fhrs_5_en-GB,5,,FHRS,0
313868,Unit 4,Market Arcade,The Square,Holsworthy,Market Cheeses,Retailers - other,4613,,,233950,,,50.81018500000000,08/00302/MX,080,foodandsafety@torridge.gov.uk,Torridge,http://www.torridge.gov.uk/food,-4.35294000000000,EX22 6DL,2014-11-26,fhrs_exempt_en-GB,Exempt,,FHRS,
313869,Peters Marland,Devon,,,Marland School,School/college/university,7845,5,,233792,5,,50.90079498291020,08/00693/FH,080,foodandsafety@torridge.gov.uk,Torridge,http://www.torridge.gov.uk/food,-4.16454744338989,EX38 8QQ,2013-06-25,fhrs_5_en-GB,5,,FHRS,5
313870,Marshford Nurseries,Churchill Way,Northam,Devon,Marshford Organic Foods,Retailers - other,4613,5,,234015,0,,51.04409200000000,08/00303/FH,080,foodandsafety@torridge.gov.uk,Torridge,http://www.torridge.gov.uk/food,-4.20576200000000,EX39 1NS,2013-02-19,fhrs_5_en-GB,5,,FHRS,5
313871,6-7 Victoria Square,Holsworthy,Devon,,Martins,Retailers - other,4613,,,233917,,,50.81049200000000,08/00886/MX,080,foodandsafety@torridge.gov.uk,Torridge,http://www.torridge.gov.uk/food,-4.35375100000000,EX22 6AA,2013-02-19,fhrs_exempt_en-GB,Exempt,,FHRS,
313872,,,,,Mary Rose Designs,Retailers - other,4613,10,,459668,5,,,12/00080/FH,080,foodandsafety@torridge.gov.uk,Torridge,http://www.torridge.gov.uk/food,,,2012-10-24,fhrs_4_en-GB,4,,FHRS,5
313873,12 Bridgeland Street,Bideford,Devon,,Masonic Lodge,Other catering premises,7841,5,,233680,0,,51.01968000000000,08/00308/FH,080,foodandsafety@torridge.gov.uk,Torridge,http://www.torridge.gov.uk/food,-4.20642800000000,EX39 2QE,2013-08-22,fhrs_5_en-GB,5,,FHRS,5
313874,29 South Street,Great Torrington,Devon,,Maya,Restaurant/Cafe/Canteen,1,5,,233346,0,,50.95138900000000,08/00826/MX,080,foodandsafety@torridge.gov.uk,Torridge,http://www.torridge.gov.uk/food,-4.14379000000000,EX38 8AA,2015-02-03,fhrs_5_en-GB,5,,FHRS,5
313875,13 The Quay,Bideford,Devon,,McColls,Retailers - other,4613,5,,233570,5,,51.01953700000000,08/00310/MX,080,foodandsafety@torridge.gov.uk,Torridge,http://www.torridge.gov.uk/food,-4.20445300000000,EX39 2EZ,2013-09-19,fhrs_2_en-GB,2,,FHRS,15
313876,New Road,Great Torrington,Devon,,McColls,Retailers - supermarkets/hypermarkets,7840,5,,233669,5,,50.95306700000000,08/00291/MX,080,foodandsafety@torridge.gov.uk,Torridge,http://www.torridge.gov.uk/food,-4.14057800000000,EX38 8EJ,2013-11-08,fhrs_5_en-GB,5,,FHRS,5
313877,,,,,McVending,Retailers - other,4613,,,233598,,,,08/00299/FH,080,foodandsafety@torridge.gov.uk,Torridge,http://www.torridge.gov.uk/food,,,2013-05-28,fhrs_exempt_en-GB,Exempt,,FHRS,
313878,,,,,Meadow Farm Park,Manufacturers/packers,7839,,,233697,,,,08/00603/FH,080,foodandsafety@torridge.gov.uk,Torridge,http://www.torridge.gov.uk/food,,,2014-11-27,fhrs_exempt_en-GB,Exempt,,FHRS,
313879,8 Fore Street,Northam,Devon,,Memories Restaurant,Restaurant/Cafe/Canteen,1,0,,233908,0,,51.03919200000000,08/00292/MX,080,foodandsafety@torridge.gov.uk,Torridge,http://www.torridge.gov.uk/food,-4.21330400000000,EX39 1AW,2014-08-21,fhrs_5_en-GB,5,,FHRS,0
313880,Bucks Mills,Bideford,Devon,,Merry Harriers Nursery,Retailers - other,4613,,,233578,,,50.97295400000000,08/00304/MX,080,foodandsafety@torridge.gov.uk,Torridge,http://www.torridge.gov.uk/food,-4.35131800000000,EX39 5QH,2014-03-19,fhrs_exempt_en-GB,Exempt,,FHRS,
313881,New Road,Merton,Devon,,Merton Clinton School,School/college/university,7845,0,,233670,0,,50.88777700000000,08/00689/FH,080,foodandsafety@torridge.gov.uk,Torridge,http://www.torridge.gov.uk/food,-4.09529700000000,EX20 3EQ,2013-12-04,fhrs_5_en-GB,5,,FHRS,0
313882,,,,,Messy Nest Craft Workshops,Other catering premises,7841,0,,666952,0,,,14/00034/FH,080,foodandsafety@torridge.gov.uk,Torridge,http://www.torridge.gov.uk/food,,,2014-05-08,fhrs_5_en-GB,5,,FHRS,0
313883,1 Mews Cottages,High Street,High Bickington,Umberleigh,Mews Cottage Bed And Breakfast,Hotel/bed & breakfast/guest house,7842,5,,733958,0,,50.96710700000000,15/00008/MX,080,foodandsafety@torridge.gov.uk,Torridge,http://www.torridge.gov.uk/food,-3.99478100000000,EX37 9AX,2015-01-29,fhrs_5_en-GB,5,,FHRS,0
313884,6 Mill Street,Bideford,Devon,,Mill Street Butchers,Retailers - other,4613,5,,234016,0,,51.01839500000000,08/00298/MX,080,foodandsafety@torridge.gov.uk,Torridge,http://www.torridge.gov.uk/food,-4.20589600000000,EX39 2JT,2013-12-05,fhrs_5_en-GB,5,,FHRS,0
313885,27 The Square,Holsworthy,Devon,,Millmans,Retailers - other,4613,10,,233461,10,,50.80981400000000,08/00288/MX,080,foodandsafety@torridge.gov.uk,Torridge,http://www.torridge.gov.uk/food,-4.35347500000000,EX22 6AN,2013-09-02,fhrs_3_en-GB,3,,FHRS,5
313886,14 The Quay,Bideford,Devon,,Mister Ho,Takeaway/sandwich shop,7844,5,,509035,5,,51.01953700000000,12/00142/MX,080,foodandsafety@torridge.gov.uk,Torridge,http://www.torridge.gov.uk/food,-4.20445300000000,EX39 2EZ,2015-02-05,fhrs_5_en-GB,5,,FHRS,5
313887,Underlane,Holsworthy,Devon,,Mole Valley Farmers Ltd,Retailers - supermarkets/hypermarkets,7840,0,,233766,0,,50.73246002197270,08/01139/MX,080,foodandsafety@torridge.gov.uk,Torridge,http://www.torridge.gov.uk/food,-3.79749202728271,EX22 6BL,2008-08-07,fhrs_5_en-GB,5,,FHRS,0
313888,Monkleigh,Bideford,Devon,,Monkleigh Primary School,School/college/university,7845,,,233597,,,50.96607589721680,08/00666/FH,080,foodandsafety@torridge.gov.uk,Torridge,http://www.torridge.gov.uk/food,-4.19939947128296,EX39 5JY,2012-10-16,fhrs_exempt_en-GB,Exempt,,FHRS,
313889,,,,,Moorhead Country Holidays,Restaurant/Cafe/Canteen,1,5,,233864,5,,,08/00305/MX,080,foodandsafety@torridge.gov.uk,Torridge,http://www.torridge.gov.uk/food,,,2013-03-18,fhrs_5_en-GB,5,,FHRS,5
313890,Golf Links Road,Westward Ho!,Bideford,Devon,Moran's Restaurant And Bar,Restaurant/Cafe/Canteen,1,5,,530754,0,,51.04138700000000,12/00039/MX,080,foodandsafety@torridge.gov.uk,Torridge,http://www.torridge.gov.uk/food,-4.23641900000000,EX39 1LH,2015-02-04,fhrs_5_en-GB,5,,FHRS,0
313891,83 Moreton Park Road,Bideford,Devon,,Moreton Park Stores,Retailers - other,4613,5,,233926,0,,51.01289400000000,08/00611/MX,080,foodandsafety@torridge.gov.uk,Torridge,http://www.torridge.gov.uk/food,-4.22515300000000,EX39 3BB,2014-11-13,fhrs_5_en-GB,5,,FHRS,5
313892,Kingsley Road,Bideford,Devon,,Morrisons Stores,Retailers - supermarkets/hypermarkets,7840,0,,233615,0,,51.02268200000000,08/00311/MX,080,foodandsafety@torridge.gov.uk,Torridge,http://www.torridge.gov.uk/food,-4.20655600000000,EX39 2LG,2015-01-07,fhrs_5_en-GB,5,,FHRS,5
313893,,,,,Morwenna Home Produce,Retailers - other,4613,0,,702485,0,,,14/00126/MX,080,foodandsafety@torridge.gov.uk,Torridge,http://www.torridge.gov.uk/food,,,2014-11-12,fhrs_5_en-GB,5,,FHRS,0
313894,,,,,Mount Severn,Mobile caterer,7846,0,,666958,0,,,14/00066/MX,080,foodandsafety@torridge.gov.uk,Torridge,http://www.torridge.gov.uk/food,,,2014-05-14,fhrs_5_en-GB,5,,FHRS,0
313895,6 The Quay,Bideford,Devon,,Mr Chips,Restaurant/Cafe/Canteen,1,5,,233571,0,,51.01737700000000,08/00817/MX,080,foodandsafety@torridge.gov.uk,Torridge,http://www.torridge.gov.uk/food,-4.20502100000000,EX39 2HW,2013-12-04,fhrs_5_en-GB,5,,FHRS,5
313896,,,,,Mr J McCourt,Retailers - other,4613,,,233981,,,,08/00727/FH,080,foodandsafety@torridge.gov.uk,Torridge,http://www.torridge.gov.uk/food,,,2013-02-18,fhrs_exempt_en-GB,Exempt,,FHRS,
313897,Golf Links Road,Westward Ho!,Bideford,Devon,Mrs B's Ice Cream Parlour And Takeaway,Takeaway/sandwich shop,7844,5,,572218,10,,51.04138700000000,13/00107/MX,080,foodandsafety@torridge.gov.uk,Torridge,http://www.torridge.gov.uk/food,-4.23641900000000,EX39 1LH,2013-07-23,fhrs_4_en-GB,4,,FHRS,5
313898,,,,,Mrs J Robson,Manufacturers/packers,7839,,,234039,,,,08/00397/FH,080,foodandsafety@torridge.gov.uk,Torridge,http://www.torridge.gov.uk/food,,,2013-04-25,fhrs_exempt_en-GB,Exempt,,FHRS,
313899,,,,,Mrs M Lawrence,Other catering premises,7841,,,502533,,,,12/00147/FH,080,foodandsafety@torridge.gov.uk,Torridge,http://www.torridge.gov.uk/food,,,2013-01-24,fhrs_exempt_en-GB,Exempt,,FHRS,
313900,,,,,Mrs Patricia Dowson,Other catering premises,7841,5,,233548,5,,,08/00890/FH,080,foodandsafety@torridge.gov.uk,Torridge,http://www.torridge.gov.uk/food,,,2015-01-16,fhrs_5_en-GB,5,,FHRS,0
313901,,,,,Ms H Ellis,Other catering premises,7841,,,233822,,,,11/00120/FH,080,foodandsafety@torridge.gov.uk,Torridge,http://www.torridge.gov.uk/food,,,2011-08-24,fhrs_exempt_en-GB,Exempt,,FHRS,
313902,Bideford Quay Facility,The Quay,Bideford,Devon,MS Oldenburg,Takeaway/sandwich shop,7844,0,,233452,0,,51.01680900000000,08/00684/FH,080,foodandsafety@torridge.gov.uk,Torridge,http://www.torridge.gov.uk/food,-4.20488300000000,,2013-10-03,fhrs_5_en-GB,5,,FHRS,0
313903,,,,,Mummy Pig Sausages,Retailers - other,4613,,,565962,,,,13/00064/FH,080,foodandsafety@torridge.gov.uk,Torridge,http://www.torridge.gov.uk/food,,,2013-07-11,fhrs_exempt_en-GB,Exempt,,FHRS,
313904,,,,,Naoko's,Other catering premises,7841,5,,421828,5,,,12/00069/FH,080,foodandsafety@torridge.gov.uk,Torridge,http://www.torridge.gov.uk/food,,,2012-07-16,fhrs_5_en-GB,5,,FHRS,0
313905,45 Mill Street,Bideford,Devon,,Natures Nutrition,Retailers - other,4613,5,,704967,0,,51.01934500000000,14/00147/MX,080,foodandsafety@torridge.gov.uk,Torridge,http://www.torridge.gov.uk/food,-4.20656900000000,EX39 2JW,2014-09-30,fhrs_5_en-GB,5,,FHRS,5
313906,10 The Square,Holsworthy,Devon,,Natures Way,Retailers - other,4613,,,233507,,,50.81018500000000,11/00023/MX,080,foodandsafety@torridge.gov.uk,Torridge,http://www.torridge.gov.uk/food,-4.35294000000000,EX22 6DL,2014-03-03,fhrs_exempt_en-GB,Exempt,,FHRS,
313907,South Street,Dolton,Devon,,Neals Butchers,Retailers - other,4613,5,,233802,5,,50.89061900000000,08/00837/MX,080,foodandsafety@torridge.gov.uk,Torridge,http://www.torridge.gov.uk/food,-4.03277500000000,EX19 8QS,2014-01-30,fhrs_4_en-GB,4,,FHRS,10
313908,Roborough,Winkleigh,Devon,,New Inn,Pub/bar/nightclub,7843,,,585476,,,50.93561553955080,13/00131/MX,080,foodandsafety@torridge.gov.uk,Torridge,http://www.torridge.gov.uk/food,-4.02800464630127,EX19 8SY,2013-10-09,fhrs_5_en-GB,5,,FHRS,
313909,High Street,Clovelly,Devon,,New Inn Hotel,Pub/bar/nightclub,7843,5,,233882,10,,50.99807300000000,08/00967/MX,080,foodandsafety@torridge.gov.uk,Torridge,http://www.torridge.gov.uk/food,-4.39910900000000,EX39 5TQ,2014-08-28,fhrs_4_en-GB,4,,FHRS,5
313910,,,,,New Loatmead Organic Ltd,Farmers/growers,7838,,,233779,,,,11/00049/FH,080,foodandsafety@torridge.gov.uk,Torridge,http://www.torridge.gov.uk/food,,,2011-08-09,fhrs_exempt_en-GB,Exempt,,FHRS,
313911,49 Newton Road,Bideford,Devon,,Newton Road (Sheltered),Other catering premises,7841,,,444408,,,51.02413700000000,08/00391/MX,080,foodandsafety@torridge.gov.uk,Torridge,http://www.torridge.gov.uk/food,-4.20806600000000,EX39 2LL,2009-02-16,fhrs_exempt_en-GB,Exempt,,FHRS,
313912,,,,,Nicky's Cakes,Other catering premises,7841,,,234023,,,,08/00332/FH,080,foodandsafety@torridge.gov.uk,Torridge,http://www.torridge.gov.uk/food,,,2015-01-13,fhrs_exempt_en-GB,Exempt,,FHRS,
313913,23 - 25 Nelson Road,Westward Ho!,Bideford,Devon,Nisa,Retailers - other,4613,5,,666957,0,,51.04029700000000,14/00063/MX,080,foodandsafety@torridge.gov.uk,Torridge,http://www.torridge.gov.uk/food,-4.23650900000000,EX39 1LQ,2014-05-08,fhrs_5_en-GB,5,,FHRS,0
313914,89 Abbotsham Road,Bideford,Devon,,No. 89 Vegetarian Bed And Breakfast,Hotel/bed & breakfast/guest house,7842,5,,572210,0,,51.01688300000000,13/00070/MX,080,foodandsafety@torridge.gov.uk,Torridge,http://www.torridge.gov.uk/food,-4.21450800000000,EX39 3AQ,2013-07-18,fhrs_5_en-GB,5,,FHRS,0
313915,Milky Way Adventure Park,Downland Farm,Higher Clovelly,Bideford,North Devon Wake Park,Takeaway/sandwich shop,7844,5,,695779,0,,50.97876200000000,14/00095/MX,080,foodandsafety@torridge.gov.uk,Torridge,http://www.torridge.gov.uk/food,-4.38554700000000,EX39 5RY,2014-08-20,fhrs_5_en-GB,5,,FHRS,5
313916,17 Cross Street,Northam,Bideford,Devon,Northam Fish Bar,Takeaway/sandwich shop,7844,5,,666959,5,,51.03985000000000,14/00073/MX,080,foodandsafety@torridge.gov.uk,Torridge,http://www.torridge.gov.uk/food,-4.21226500000000,EX39 1BS,2014-05-14,fhrs_5_en-GB,5,,FHRS,5
313917,Heywood Road,Northam,Bideford,Devon,Northam Lodge,Hospitals/Childcare/Caring Premises,5,0,,233338,0,,51.03306500000000,08/00355/MX,080,foodandsafety@torridge.gov.uk,Torridge,http://www.torridge.gov.uk/food,-4.21199900000000,EX39 3QB,2014-05-21,fhrs_5_en-GB,5,,FHRS,0
313918,Northam Methodist Church,Cross Street,Northam,Devon,Northam Methodist Luncheon Club,Other catering premises,7841,10,,530755,0,,,12/00108/MX,080,foodandsafety@torridge.gov.uk,Torridge,http://www.torridge.gov.uk/food,,,2013-03-20,fhrs_4_en-GB,4,,FHRS,0
313919,8 The Square,Northam,Devon,,Northam News,Retailers - other,4613,,,233838,,,51.04048300000000,09/00113/MX,080,foodandsafety@torridge.gov.uk,Torridge,http://www.torridge.gov.uk/food,-4.21303700000000,EX39 1AR,2013-02-19,fhrs_exempt_en-GB,Exempt,,FHRS,
313920,Unit 2,Supreme House,Pitt Lane,Bideford,Northern Devon Foodbank,Distributors/Transporters,7,0,,668586,0,,51.01851900000000,14/00091/MX,080,foodandsafety@torridge.gov.uk,Torridge,http://www.torridge.gov.uk/food,-4.20931000000000,EX39 3JA,2014-06-11,fhrs_5_en-GB,5,,FHRS,0
313921,Northway House,Horns Cross,Devon,,Northway Holiday Cottages,Hotel/bed & breakfast/guest house,7842,,,444405,,,50.98758400000000,08/00325/MX,080,foodandsafety@torridge.gov.uk,Torridge,http://www.torridge.gov.uk/food,-4.30866800000000,EX39 5EA,2007-04-16,fhrs_exempt_en-GB,Exempt,,FHRS,
313922,,,,,Oak,Other catering premises,7841,,,233406,,,,08/00287/FH,080,foodandsafety@torridge.gov.uk,Torridge,http://www.torridge.gov.uk/food,,,2012-10-10,fhrs_exempt_en-GB,Exempt,,FHRS,
313923,Seckington,Winkleigh,Devon,,Oak Tree Cafe,Restaurant/Cafe/Canteen,1,5,,233968,5,,50.92874908447270,08/00579/MX,080,foodandsafety@torridge.gov.uk,Torridge,http://www.torridge.gov.uk/food,-2.85366010665894,EX19 8EY,2014-09-10,fhrs_4_en-GB,4,,FHRS,10
313924,,,,,Oak Tree Farm,Hotel/bed & breakfast/guest house,7842,,,233584,,,,08/00339/FH,080,foodandsafety@torridge.gov.uk,Torridge,http://www.torridge.gov.uk/food,,,2012-09-14,fhrs_exempt_en-GB,Exempt,,FHRS,
313925,Virginstow,Devon,,,Oakcroft,Manufacturers/packers,7839,5,,233993,5,,50.70264816284180,08/00330/FH,080,foodandsafety@torridge.gov.uk,Torridge,http://www.torridge.gov.uk/food,-4.29633855819702,EX21 5EA,2014-03-06,fhrs_5_en-GB,5,,FHRS,5
313926,Westward Ho! Baptist Church Hall,Nelson Drive,Westward Ho!,Bideford,Oasis Lunch,Other catering premises,7841,5,,234035,0,,51.04056500000000,08/00630/MX,080,foodandsafety@torridge.gov.uk,Torridge,http://www.torridge.gov.uk/food,-4.23610400000000,,2014-03-20,fhrs_5_en-GB,5,,FHRS,0
313927,Duckhaven Stud,Cornborough Road,Westward Ho!,Bideford,Ocean Kave,Other catering premises,7841,5,,682379,5,,51.03574400000000,13/00152/MX,080,foodandsafety@torridge.gov.uk,Torridge,http://www.torridge.gov.uk/food,-4.24132500000000,EX39 1AA,2014-07-04,fhrs_5_en-GB,5,,FHRS,5
313928,,,,,Off The Beaten Track,Retailers - other,4613,,,234033,,,,10/00237/FH,080,foodandsafety@torridge.gov.uk,Torridge,http://www.torridge.gov.uk/food,,,2013-02-26,fhrs_exempt_en-GB,Exempt,,FHRS,
313929,,,,,Old Farmhouse,Other catering premises,7841,,,233821,,,,08/00338/FH,080,foodandsafety@torridge.gov.uk,Torridge,http://www.torridge.gov.uk/food,,,2014-06-12,fhrs_exempt_en-GB,Exempt,,FHRS,
313930,67 - 68 High Street,Bideford,Devon,,Old Galleries,Hospitals/Childcare/Caring Premises,5,,,234028,,,51.01778200000000,08/00721/MX,080,foodandsafety@torridge.gov.uk,Torridge,http://www.torridge.gov.uk/food,-4.20834800000000,EX39 2AN,2014-11-28,fhrs_exempt_en-GB,Exempt,,FHRS,
313931,High Bickington,Devon,,,Old George Inn,Pub/bar/nightclub,7843,5,,233772,5,,50.96652603149410,08/00331/MX,080,foodandsafety@torridge.gov.uk,Torridge,http://www.torridge.gov.uk/food,-3.99467062950134,EX37 9AY,2013-03-21,fhrs_5_en-GB,5,,FHRS,5
313932,,,,,Old Keepers Cottage,Hotel/bed & breakfast/guest house,7842,,,233563,,,,11/00118/MX,080,foodandsafety@torridge.gov.uk,Torridge,http://www.torridge.gov.uk/food,,,2014-01-22,fhrs_exempt_en-GB,Exempt,,FHRS,
313933,Hartland Abbey,Hartland,Bideford,Devon,Old Kitchen Tea Rooms,Restaurant/Cafe/Canteen,1,5,,577527,5,,50.99657800000000,12/00133/MX,080,foodandsafety@torridge.gov.uk,Torridge,http://www.torridge.gov.uk/food,-4.50873300000000,EX39 6DT,2013-07-31,fhrs_5_en-GB,5,,FHRS,5
313934,Chapel Street,Holsworthy,Devon,,Olde Market Inn,Pub/bar/nightclub,7843,5,,233773,0,,50.80840000000000,08/00337/MX,080,foodandsafety@torridge.gov.uk,Torridge,http://www.torridge.gov.uk/food,-4.35269500000000,EX22 6AY,2013-07-25,fhrs_5_en-GB,5,,FHRS,0
313935,20A Mill Street,Bideford,Devon,,Orange Tree Cafe,Restaurant/Cafe/Canteen,1,5,,617504,5,,51.01902000000000,13/00133/MX,080,foodandsafety@torridge.gov.uk,Torridge,http://www.torridge.gov.uk/food,-4.20614000000000,EX39 2JR,2013-12-10,fhrs_4_en-GB,4,,FHRS,10
313936,75 High Street,Bideford,Devon,,Original Factory Shop,Retailers - other,4613,,,233657,,,50.73246002197270,09/00213/MX,080,foodandsafety@torridge.gov.uk,Torridge,http://www.torridge.gov.uk/food,-3.79749202728271,EX39 2AJ,2013-11-06,fhrs_exempt_en-GB,Exempt,,FHRS,
313937,Over Priestacott,Ashwater,Beaworthy,Devon,Over Priestacott Farm,Retailers - other,4613,5,,233963,5,,50.74211200000000,11/00065/MX,080,foodandsafety@torridge.gov.uk,Torridge,http://www.torridge.gov.uk/food,-4.28221000000000,EX21 5EW,2014-10-03,fhrs_5_en-GB,5,,FHRS,5
313938,1 King Street,Bideford,Devon,,Palace Nightclub,Pub/bar/nightclub,7843,,,233845,,,51.01828300000000,08/01149/MX,080,foodandsafety@torridge.gov.uk,Torridge,http://www.torridge.gov.uk/food,-4.20513500000000,EX39 2JF,2012-02-07,fhrs_exempt_en-GB,Exempt,,FHRS,
313939,Lower Gunstone,Bideford,Devon,,Palladium Club,Pub/bar/nightclub,7843,,,233890,,,51.01851300000000,08/00427/MX,080,foodandsafety@torridge.gov.uk,Torridge,http://www.torridge.gov.uk/food,-4.20727100000000,EX39 2DE,2013-12-10,fhrs_exempt_en-GB,Exempt,,FHRS,
313940,Bideford Pannier Market,Market Place,Bideford,Devon,Pannier Galley Cafe,Restaurant/Cafe/Canteen,1,5,,234078,5,,51.01711100000000,08/00446/MX,080,foodandsafety@torridge.gov.uk,Torridge,http://www.torridge.gov.uk/food,-4.20723300000000,EX39 2DR,2014-01-24,fhrs_5_en-GB,5,,FHRS,5
313941,8 - 11 Butchers Row,Bideford,Devon,,Pannier Pantry,Retailers - other,4613,5,,233476,5,,51.01689600000000,08/00234/MX,080,foodandsafety@torridge.gov.uk,Torridge,http://www.torridge.gov.uk/food,-4.20718000000000,EX39 2DX,2013-06-25,fhrs_5_en-GB,5,,FHRS,5
313942,,,,,Pantry Bites,Other catering premises,7841,0,,517337,5,,,13/00023/FH,080,foodandsafety@torridge.gov.uk,Torridge,http://www.torridge.gov.uk/food,,,2013-03-13,fhrs_5_en-GB,5,,FHRS,0
313943,Royal North Devon Golf Club,Westward Ho!,Bideford,Devon,Par Dining,Restaurant/Cafe/Canteen,1,,,340939,,,51.04338400000000,12/00033/MX,080,foodandsafety@torridge.gov.uk,Torridge,http://www.torridge.gov.uk/food,-4.22555800000000,EX39 1HD,2014-09-24,fhrs_1_en-GB,1,,FHRS,
313944,22 Bridgeland Street,Bideford,Devon,,Paramount Chinese Restaurant,Restaurant/Cafe/Canteen,1,10,,233836,5,,51.01968000000000,12/00035/MX,080,foodandsafety@torridge.gov.uk,Torridge,http://www.torridge.gov.uk/food,-4.20642800000000,EX39 2QE,2014-03-27,fhrs_3_en-GB,3,,FHRS,10
313945,Parkham,Bideford,Devon,,Parkham County Primary School,School/college/university,7845,,,421827,,,50.96767044067380,11/00166/FH,080,foodandsafety@torridge.gov.uk,Torridge,http://www.torridge.gov.uk/food,-4.29676961898804,EX39 5PL,2011-12-07,fhrs_exempt_en-GB,Exempt,,FHRS,
313946,Unit 40,Atlantic Village,Bideford,Devon,Pasty Presto,Restaurant/Cafe/Canteen,1,5,,233944,5,,51.00742800000000,08/00814/MX,080,foodandsafety@torridge.gov.uk,Torridge,http://www.torridge.gov.uk/food,-4.23776400000000,EX39 3DU,2013-06-24,fhrs_5_en-GB,5,,FHRS,5
313947,14 Mill Street,Bideford,Devon,,Pasty Shop,Retailers - other,4613,5,,564406,5,,51.01839500000000,13/00043/MX,080,foodandsafety@torridge.gov.uk,Torridge,http://www.torridge.gov.uk/food,-4.20589600000000,EX39 2JT,2013-06-11,fhrs_5_en-GB,5,,FHRS,5
313948,5 Cooper Street,Bideford,Devon,,Patch & Parrot,Pub/bar/nightclub,7843,,,233886,,,51.01869900000000,08/00813/MX,080,foodandsafety@torridge.gov.uk,Torridge,http://www.torridge.gov.uk/food,-4.20551100000000,EX39 2DA,2011-01-31,fhrs_exempt_en-GB,Exempt,,FHRS,
313949,16A Mill Street,Bideford,Devon,,Patts Stores,Retailers - other,4613,,,233796,,,51.01902000000000,08/00374/MX,080,foodandsafety@torridge.gov.uk,Torridge,http://www.torridge.gov.uk/food,-4.20614000000000,EX39 2JR,2012-09-26,fhrs_exempt_en-GB,Exempt,,FHRS,
313950,Dartington Glass Ltd,Town Park,Great Torrington,Devon,Pavillions Restaurant,Restaurant/Cafe/Canteen,1,5,,233379,0,,50.95507800000000,08/00609/MX,080,foodandsafety@torridge.gov.uk,Torridge,http://www.torridge.gov.uk/food,-4.14766200000000,EX38 7AN,2013-09-11,fhrs_5_en-GB,5,,FHRS,0
313951,1 Pebbleridge Road,Westward Ho!,Bideford,Devon,Pebbleridge Cafe,Restaurant/Cafe/Canteen,1,5,,335451,0,,51.04360300000000,12/00043/MX,080,foodandsafety@torridge.gov.uk,Torridge,http://www.torridge.gov.uk/food,-4.23434300000000,EX39 1HN,2013-10-10,fhrs_5_en-GB,5,,FHRS,0
313952,,,,,Pennygrew,Manufacturers/packers,7839,,,233698,,,,09/00128/FH,080,foodandsafety@torridge.gov.uk,Torridge,http://www.torridge.gov.uk/food,,,2014-12-18,fhrs_exempt_en-GB,Exempt,,FHRS,
313953,Coombeshead Park Farm,Virginstow,Devon,,Percys Country Hotel,Hotel/bed & breakfast/guest house,7842,5,,233519,5,,50.70264700000000,08/00358/MX,080,foodandsafety@torridge.gov.uk,Torridge,http://www.torridge.gov.uk/food,-4.29633900000000,EX21 5EA,2015-01-05,fhrs_5_en-GB,5,,FHRS,0
313954,,,,,Peter Howard Confectionery,Retailers - other,4613,,,593840,,,,13/00091/MX,080,foodandsafety@torridge.gov.uk,Torridge,http://www.torridge.gov.uk/food,,,2013-10-11,fhrs_exempt_en-GB,Exempt,,FHRS,
313955,Anchorage,Harton Cross,Hartland,Bideford,Pete's Kitchen Ltd,Retailers - other,4613,5,,695777,0,,50.99101600000000,14/00067/MX,080,foodandsafety@torridge.gov.uk,Torridge,http://www.torridge.gov.uk/food,-4.47009800000000,EX39 6AE,2014-08-19,fhrs_5_en-GB,5,,FHRS,0
313956,Beam House Childrens Adventure Cent,Great Torrington,Devon,,PGL Travel Ltd,Hotel/bed & breakfast/guest house,7842,0,,233883,0,,50.96209700000000,08/00562/MX,080,foodandsafety@torridge.gov.uk,Torridge,http://www.torridge.gov.uk/food,-4.17800600000000,EX38 8JF,2013-08-01,fhrs_5_en-GB,5,,FHRS,0
313957,,,,,Phansits Kitchen,Mobile caterer,7846,5,,631960,5,,,13/00129/MX,080,foodandsafety@torridge.gov.uk,Torridge,http://www.torridge.gov.uk/food,,,2014-01-30,fhrs_5_en-GB,5,,FHRS,0
313958,,,,,Phansit's Kitchen,Other catering premises,7841,5,,233693,0,,,11/00057/MX,080,foodandsafety@torridge.gov.uk,Torridge,http://www.torridge.gov.uk/food,,,2015-01-06,fhrs_5_en-GB,5,,FHRS,5
313959,Westward Ho!,Bideford,Devon,,Pig On The Hill,Pub/bar/nightclub,7843,5,,552443,5,,51.03159300000000,13/00048/MX,080,foodandsafety@torridge.gov.uk,Torridge,http://www.torridge.gov.uk/food,-4.24481800000000,EX39 5AH,2013-06-03,fhrs_5_en-GB,5,,FHRS,0
313960,27 Mill Street,Bideford,Devon,,Pizza Pronto,Takeaway/sandwich shop,7844,5,,580293,5,,51.01969300000000,13/00120/MX,080,foodandsafety@torridge.gov.uk,Torridge,http://www.torridge.gov.uk/food,-4.20718400000000,EX39 2JJ,2013-08-21,fhrs_5_en-GB,5,,FHRS,5
313961,Castle Street,Winkleigh,Devon,,Plaice To Place,Retailers - other,4613,10,,233554,5,,50.85537000000000,08/01109/MX,080,foodandsafety@torridge.gov.uk,Torridge,http://www.torridge.gov.uk/food,-3.94644500000000,EX19 8HU,2013-11-08,fhrs_3_en-GB,3,,FHRS,10
313962,The Plough Arts Centre,Fore Street,Great Torrington,Devon,Plough Cafe,Restaurant/Cafe/Canteen,1,5,,233523,0,,50.95247700000000,11/00108/MX,080,foodandsafety@torridge.gov.uk,Torridge,http://www.torridge.gov.uk/food,-4.14284300000000,EX38 8HQ,2014-11-13,fhrs_5_en-GB,5,,FHRS,5
313963,Pollyfield Community Centre,Avon Road,Bideford,Devon,Pollyfield Community Association,Pub/bar/nightclub,7843,5,,233823,5,,51.01387300000000,08/00812/MX,080,foodandsafety@torridge.gov.uk,Torridge,http://www.torridge.gov.uk/food,-4.19577300000000,EX39 4BL,2015-02-05,fhrs_5_en-GB,5,,FHRS,5
313964,Victoria Park,Kingsley Road,Bideford,Devon,Poolside Kiosk,Restaurant/Cafe/Canteen,1,5,,438665,5,,51.02130900000000,12/00079/MX,080,foodandsafety@torridge.gov.uk,Torridge,http://www.torridge.gov.uk/food,-4.20398100000000,EX39 2QQ,2014-07-24,fhrs_5_en-GB,5,,FHRS,5
313965,19 South Street,Torrington,Devon,,Pop In,Takeaway/sandwich shop,7844,5,,494260,5,,50.95138900000000,13/00004/MX,080,foodandsafety@torridge.gov.uk,Torridge,http://www.torridge.gov.uk/food,-4.14379000000000,EX38 8AA,2015-02-04,fhrs_5_en-GB,5,,FHRS,5
313966,36 Fore Street,Hartland,Devon,,Pop In,Retailers - other,4613,5,,234002,5,,50.99255000000000,08/00431/MX,080,foodandsafety@torridge.gov.uk,Torridge,http://www.torridge.gov.uk/food,-4.48133800000000,EX39 6BE,2014-03-20,fhrs_5_en-GB,5,,FHRS,5
313967,Cockington Shoot Lodge,Abbotsham,Devon,,Portledge Shoot Ltd,Other catering premises,7841,5,,723829,0,,51.01028500000000,14/00134/MX,080,foodandsafety@torridge.gov.uk,Torridge,http://www.torridge.gov.uk/food,-4.27421200000000,EX39 5BN,2014-12-11,fhrs_5_en-GB,5,,FHRS,0
313968,37 Silver Street,Bideford,Devon,,Portobello Inn,Pub/bar/nightclub,7843,,,727948,,,51.01597100000000,15/00002/MX,080,foodandsafety@torridge.gov.uk,Torridge,http://www.torridge.gov.uk/food,-4.20712100000000,EX39 2DY,2015-01-05,fhrs_exempt_en-GB,Exempt,,FHRS,
313969,Unit 39,Atlantic Village,Bideford,Devon,Poundland,Retailers - other,4613,0,,643858,0,,51.00742800000000,14/00047/MX,080,foodandsafety@torridge.gov.uk,Torridge,http://www.torridge.gov.uk/food,-4.23776400000000,EX39 3DU,2014-04-15,fhrs_5_en-GB,5,,FHRS,0
313970,18 High Street,Bideford,Devon,,Poundstretcher Ltd,Retailers - other,4613,,,234053,,,51.01793600000000,08/00810/MX,080,foodandsafety@torridge.gov.uk,Torridge,http://www.torridge.gov.uk/food,-4.20641600000000,EX39 2AA,2013-01-03,fhrs_exempt_en-GB,Exempt,,FHRS,
313971,19 Bridgeland Street,Bideford,Devon,,Prince Of India,Takeaway/sandwich shop,7844,5,,494259,5,,51.01968000000000,13/00003/MX,080,foodandsafety@torridge.gov.uk,Torridge,http://www.torridge.gov.uk/food,-4.20642800000000,EX39 2QE,2014-05-21,fhrs_4_en-GB,4,,FHRS,10
313972,,,,,Priors Fryers,Takeaway/sandwich shop,7844,5,,666955,5,,,14/00054/MX,080,foodandsafety@torridge.gov.uk,Torridge,http://www.torridge.gov.uk/food,,,2014-05-14,fhrs_5_en-GB,5,,FHRS,0
313973,Providence Farm,Holsworthy,Devon,,Providence Farm Organic Meats,Manufacturers/packers,7839,5,,233746,0,,50.81328400000000,08/00435/FH,080,foodandsafety@torridge.gov.uk,Torridge,http://www.torridge.gov.uk/food,-4.32758600000000,EX22 6JW,2014-01-23,fhrs_5_en-GB,5,,FHRS,0
313974,Cookbury Court,Cookbury,Holsworthy,Devon,Puddleduck Valley LLP,Hotel/bed & breakfast/guest house,7842,5,,682381,0,,50.83132600000000,14/00108/MX,080,foodandsafety@torridge.gov.uk,Torridge,http://www.torridge.gov.uk/food,-4.26265900000000,EX22 7YG,2014-06-30,fhrs_5_en-GB,5,,FHRS,0
313975,Coronation Road,Bideford,Devon,,Pynes County Infant School,School/college/university,7845,0,,233547,0,,51.01315600000000,10/00023/FH,080,foodandsafety@torridge.gov.uk,Torridge,http://www.torridge.gov.uk/food,-4.21281900000000,EX39 3DD,2015-02-03,fhrs_5_en-GB,5,,FHRS,0
313976,,,,,Quance Wines,Farmers/growers,7838,,,719539,,,,14/00072/MX,080,foodandsafety@torridge.gov.uk,Torridge,http://www.torridge.gov.uk/food,,,2015-01-08,fhrs_exempt_en-GB,Exempt,,FHRS,
313977,22 The Quay,Bideford,Devon,,Quayside Cafe,Restaurant/Cafe/Canteen,1,0,,233853,0,,51.01953700000000,11/00021/MX,080,foodandsafety@torridge.gov.uk,Torridge,http://www.torridge.gov.uk/food,-4.20445300000000,EX39 2EZ,2015-02-02,fhrs_5_en-GB,5,,FHRS,5
313978,15 Chingswell Street,Bideford,Devon,,Quenchers Bottle Shop,Retailers - other,4613,,,234036,,,51.02022100000000,08/00606/MX,080,foodandsafety@torridge.gov.uk,Torridge,http://www.torridge.gov.uk/food,-4.20732300000000,EX39 2NF,2013-11-29,fhrs_exempt_en-GB,Exempt,,FHRS,
313979,Dobles Lane,Holsworthy,Devon,,Quick Snacks,Mobile caterer,7846,0,,668587,5,,,14/00102/MX,080,foodandsafety@torridge.gov.uk,Torridge,http://www.torridge.gov.uk/food,,,2014-06-16,fhrs_5_en-GB,5,,FHRS,0
313980,15 - 17 South Street,Great Torrington,Devon,,R And S Ware,Retailers - other,4613,5,,233994,5,,50.95138900000000,08/00518/MX,080,foodandsafety@torridge.gov.uk,Torridge,http://www.torridge.gov.uk/food,-4.14379000000000,EX38 8AA,2013-12-04,fhrs_5_en-GB,5,,FHRS,5
313981,17 The Square,Holsworthy,Devon,,R Perkin,Retailers - other,4613,0,,233863,0,,50.80981400000000,08/00432/MX,080,foodandsafety@torridge.gov.uk,Torridge,http://www.torridge.gov.uk/food,-4.35347500000000,EX22 6AN,2014-06-16,fhrs_5_en-GB,5,,FHRS,0
313982,,,,,Rachel Bewes,Restaurant/Cafe/Canteen,1,5,,233405,5,,,08/00869/FH,080,foodandsafety@torridge.gov.uk,Torridge,http://www.torridge.gov.uk/food,,,2014-01-23,fhrs_5_en-GB,5,,FHRS,5
313983,South Street,Dolton,Devon,,Rams Head Inn,Pub/bar/nightclub,7843,5,,233358,5,,50.89061900000000,08/00380/MX,080,foodandsafety@torridge.gov.uk,Torridge,http://www.torridge.gov.uk/food,-4.03277500000000,EX19 8QS,2013-08-01,fhrs_4_en-GB,4,,FHRS,10
313984,,,,,Ratherton House Bed And Breakfast,Hotel/bed & breakfast/guest house,7842,5,,628082,5,,,13/00160/MX,080,foodandsafety@torridge.gov.uk,Torridge,http://www.torridge.gov.uk/food,,,2014-01-27,fhrs_5_en-GB,5,,FHRS,0
313985,24 Butchers Row,Bideford,Devon,,Reality Creations,Retailers - other,4613,,,577528,,,51.01689600000000,13/00060/MX,080,foodandsafety@torridge.gov.uk,Torridge,http://www.torridge.gov.uk/food,-4.20718000000000,EX39 2DX,2013-07-25,fhrs_exempt_en-GB,Exempt,,FHRS,
313986,,,,,Rebeccas Cupcakes,Other catering premises,7841,5,,624919,0,,,13/00141/FH,080,foodandsafety@torridge.gov.uk,Torridge,http://www.torridge.gov.uk/food,,,2014-01-20,fhrs_5_en-GB,5,,FHRS,0
313987,,,,,Rectory Cottage Cakes,Other catering premises,7841,,,556165,,,,13/00068/MX,080,foodandsafety@torridge.gov.uk,Torridge,http://www.torridge.gov.uk/food,,,2013-06-10,fhrs_exempt_en-GB,Exempt,,FHRS,
313988,The Quay,Clovelly,Bideford,Devon,Red Lion Hotel,Hotel/bed & breakfast/guest house,7842,5,,234024,5,,50.99847000000000,08/00376/MX,080,foodandsafety@torridge.gov.uk,Torridge,http://www.torridge.gov.uk/food,-4.39773300000000,EX39 5TF,2013-04-24,fhrs_5_en-GB,5,,FHRS,0
313989,,,,,Retreats For You,Hotel/bed & breakfast/guest house,7842,0,,631963,0,,,14/00004/MX,080,foodandsafety@torridge.gov.uk,Torridge,http://www.torridge.gov.uk/food,,,2015-02-12,fhrs_5_en-GB,5,,FHRS,5
313990,17 High Street,Bideford,Devon,,Rileys Bar,Pub/bar/nightclub,7843,10,,233457,10,,51.01793600000000,11/00002/MX,080,foodandsafety@torridge.gov.uk,Torridge,http://www.torridge.gov.uk/food,-4.20641600000000,EX39 2AA,2013-01-09,fhrs_3_en-GB,3,,FHRS,10
313991,Bideford,Devon,,,Riverside Cottage,Hotel/bed & breakfast/guest house,7842,0,,718555,0,,51.00653600000000,14/00159/MX,080,foodandsafety@torridge.gov.uk,Torridge,http://www.torridge.gov.uk/food,-4.20665900000000,EX39 5HB,2014-11-25,fhrs_5_en-GB,5,,FHRS,0
313992,West Road,Roborough,Devon,,Roborough Village Hall,Other catering premises,7841,,,444407,,,50.93616400000000,08/00381/MX,080,foodandsafety@torridge.gov.uk,Torridge,http://www.torridge.gov.uk/food,-4.02543800000000,EX19 8TB,2008-08-08,fhrs_exempt_en-GB,Exempt,,FHRS,
313993,12 Grenville Street,Bideford,Devon,,Rock Church Cafe,Restaurant/Cafe/Canteen,1,0,,643855,0,,51.01763100000000,14/00017/MX,080,foodandsafety@torridge.gov.uk,Torridge,http://www.torridge.gov.uk/food,-4.20728600000000,EX39 2EA,2014-03-28,fhrs_5_en-GB,5,,FHRS,0
313994,2 Golf Links Road,Westward Ho!,Bideford,Devon,Rock Pool Cafe,Restaurant/Cafe/Canteen,1,10,,340938,5,,51.04138700000000,12/00027/MX,080,foodandsafety@torridge.gov.uk,Torridge,http://www.torridge.gov.uk/food,-4.23641900000000,EX39 1LH,2013-10-10,fhrs_3_en-GB,3,,FHRS,10
313995,,,,,Rogers Fruit And Veg,Retailers - other,4613,,,233733,,,,08/00398/FH,080,foodandsafety@torridge.gov.uk,Torridge,http://www.torridge.gov.uk/food,,,2014-02-12,fhrs_exempt_en-GB,Exempt,,FHRS,
313996,Rose Cottage,Stibb Cross,Torrington,Devon,Rose Cottage B&B,Hotel/bed & breakfast/guest house,7842,0,,564407,5,,50.91238500000000,13/00045/MX,080,foodandsafety@torridge.gov.uk,Torridge,http://www.torridge.gov.uk/food,-4.23573200000000,EX38 8LH,2013-06-19,fhrs_5_en-GB,5,,FHRS,0
313997,9 - 10 Bridgeland Street,Bideford,Devon,,Rose Salterne,Pub/bar/nightclub,7843,0,,572216,0,,51.01996600000000,13/00102/MX,080,foodandsafety@torridge.gov.uk,Torridge,http://www.torridge.gov.uk/food,-4.20555700000000,EX39 2PZ,2013-07-25,fhrs_5_en-GB,5,,FHRS,0
313998,Robins Hill,Bideford,Devon,,Rosehill Rest Home,Hospitals/Childcare/Caring Premises,5,5,,234095,0,,51.02674300000000,08/00387/MX,080,foodandsafety@torridge.gov.uk,Torridge,http://www.torridge.gov.uk/food,-4.22190900000000,EX39 3PA,2014-02-12,fhrs_5_en-GB,5,,FHRS,5
313999,Royal Horticultural Society,Great Torrington,Devon,,Rosemoor Garden Restaurant,Restaurant/Cafe/Canteen,1,0,,233382,0,,50.94302500000000,08/00644/MX,080,foodandsafety@torridge.gov.uk,Torridge,http://www.torridge.gov.uk/food,-4.13741200000000,EX38 8PH,2013-06-24,fhrs_5_en-GB,5,,FHRS,0
314000,Horns Cross,Bideford,Devon,,Round House,Hotel/bed & breakfast/guest house,7842,5,,624920,0,,50.98207700000000,14/00003/MX,080,foodandsafety@torridge.gov.uk,Torridge,http://www.torridge.gov.uk/food,-4.32556300000000,EX39 5DN,2014-01-16,fhrs_5_en-GB,5,,FHRS,0
314001,West Street,Hartland,Devon,,Royal British Legion Club,Pub/bar/nightclub,7843,,,233880,,,50.99292200000000,08/00787/MX,080,foodandsafety@torridge.gov.uk,Torridge,http://www.torridge.gov.uk/food,-4.48368100000000,EX39 6BQ,2012-07-12,fhrs_exempt_en-GB,Exempt,,FHRS,
314002,86 New Street,Torrington,Devon,,Royal Exchange,Pub/bar/nightclub,7843,,,636970,,,50.95265300000000,14/00005/MX,080,foodandsafety@torridge.gov.uk,Torridge,http://www.torridge.gov.uk/food,-4.14793500000000,EX38 8BT,2014-07-08,fhrs_5_en-GB,5,,FHRS,
314003,Irsha Street,Appledore,Bideford,Devon,Royal George,Pub/bar/nightclub,7843,10,,233757,5,,51.05646500000000,10/00468/MX,080,foodandsafety@torridge.gov.uk,Torridge,http://www.torridge.gov.uk/food,-4.19444900000000,EX39 1RY,2014-08-21,fhrs_4_en-GB,4,,FHRS,5
314004,Barnstaple Street,Bideford,Devon,,Royal Hotel,Hotel/bed & breakfast/guest house,7842,5,,233589,0,,51.01704900000000,08/00766/MX,080,foodandsafety@torridge.gov.uk,Torridge,http://www.torridge.gov.uk/food,-4.20048600000000,EX39 4AE,2013-09-13,fhrs_5_en-GB,5,,FHRS,5
314005,Bude Street,Appledore,Devon,,Royal Hotel,Pub/bar/nightclub,7843,,,233617,,,51.05287300000000,08/01148/MX,080,foodandsafety@torridge.gov.uk,Torridge,http://www.torridge.gov.uk/food,-4.19272300000000,EX39 1PS,2013-10-24,fhrs_exempt_en-GB,Exempt,,FHRS,
314006,Westward Ho!,Bideford,Devon,,Royal North Devon Golf Club,Pub/bar/nightclub,7843,,,233904,,,51.04338455200200,08/00382/MX,080,foodandsafety@torridge.gov.uk,Torridge,http://www.torridge.gov.uk/food,-4.22555828094482,EX39 1HD,2014-03-10,fhrs_exempt_en-GB,Exempt,,FHRS,
314007,The Square,Dolton,Winkleigh,Devon,Royal Oak,Pub/bar/nightclub,7843,5,,502534,5,,50.89050900000000,13/00018/MX,080,foodandsafety@torridge.gov.uk,Torridge,http://www.torridge.gov.uk/food,-4.03493100000000,EX19 8QF,2014-08-22,fhrs_4_en-GB,4,,FHRS,10
314008,The Kiosk,Westbourne Terrace,Westward Ho!,Devon,Rumblin Tums,Restaurant/Cafe/Canteen,1,20,,233644,10,,51.04221200000000,08/01135/MX,080,foodandsafety@torridge.gov.uk,Torridge,http://www.torridge.gov.uk/food,-4.23651600000000,EX39 1LL,2014-09-25,fhrs_1_en-GB,1,,FHRS,15
314009,Holsworthy,Devon,,,Rydon Inn,Pub/bar/nightclub,7843,5,,438664,0,,50.81277084350590,12/00077/MX,080,foodandsafety@torridge.gov.uk,Torridge,http://www.torridge.gov.uk/food,-4.36461210250854,EX22 7HU,2014-02-12,fhrs_5_en-GB,5,,FHRS,0
314010,22 Chingswell Street,Bideford,Devon,,Sagor Tandoori Restaurant,Restaurant/Cafe/Canteen,1,5,,233997,5,,51.02022100000000,08/00785/MX,080,foodandsafety@torridge.gov.uk,Torridge,http://www.torridge.gov.uk/food,-4.20732300000000,EX39 2NF,2013-10-17,fhrs_4_en-GB,4,,FHRS,10
314011,6 Potacre Street,Torrington,Devon,,Sandfords Bakery,Manufacturers/packers,7839,5,,234031,5,,50.95268900000000,08/00411/MX,080,foodandsafety@torridge.gov.uk,Torridge,http://www.torridge.gov.uk/food,-4.14256800000000,EX38 8BH,2013-07-18,fhrs_5_en-GB,5,,FHRS,5
314012,49 - 51 Abbotsham Road,Bideford,Devon,,Sandhurst Residential Care Home,Hospitals/Childcare/Caring Premises,5,0,,233472,0,,51.01688100000000,08/00781/MX,080,foodandsafety@torridge.gov.uk,Torridge,http://www.torridge.gov.uk/food,-4.21459300000000,EX39 3AQ,2014-07-08,fhrs_5_en-GB,5,,FHRS,5
314013,The Quay,Appledore,Bideford,Devon,Seagate Hotel,Hotel/bed & breakfast/guest house,7842,5,,552441,0,,51.05311900000000,12/00138/MX,080,foodandsafety@torridge.gov.uk,Torridge,http://www.torridge.gov.uk/food,-4.19109400000000,EX39 1QS,2014-11-07,fhrs_5_en-GB,5,,FHRS,5
314014,,,,,Seasonal Samosa,Mobile caterer,7846,5,,404178,5,,,12/00014/MX,080,foodandsafety@torridge.gov.uk,Torridge,http://www.torridge.gov.uk/food,,,2014-03-28,fhrs_5_en-GB,5,,FHRS,5
314015,The Square,Northam,Bideford,Devon,Secret Garden,Takeaway/sandwich shop,7844,,,516951,,,51.04042900000000,13/00002/MX,080,foodandsafety@torridge.gov.uk,Torridge,http://www.torridge.gov.uk/food,-4.21306300000000,EX39 1AR,2013-03-04,fhrs_exempt_en-GB,Exempt,,FHRS,
314016,45A Mill Street,Bideford,Devon,,Secret Garden Cafe,Restaurant/Cafe/Canteen,1,10,,606383,5,,51.01934500000000,13/00147/MX,080,foodandsafety@torridge.gov.uk,Torridge,http://www.torridge.gov.uk/food,-4.20656900000000,EX39 2JW,2013-11-01,fhrs_4_en-GB,4,,FHRS,5
314017,16 Fore Street,Hartland,Bideford,Devon,Secret Garden Tearooms,Restaurant/Cafe/Canteen,1,5,,572214,0,,50.99208300000000,13/00095/MX,080,foodandsafety@torridge.gov.uk,Torridge,http://www.torridge.gov.uk/food,-4.48001600000000,EX39 6BD,2013-07-19,fhrs_5_en-GB,5,,FHRS,0
314018,Avon Lane,Westward Ho!,Devon,,Seize The Moment - Happy Cafe,Restaurant/Cafe/Canteen,1,5,,306318,0,,51.04050200000000,10/00021/MX,080,foodandsafety@torridge.gov.uk,Torridge,http://www.torridge.gov.uk/food,-4.23283800000000,EX39 1LR,2014-08-22,fhrs_5_en-GB,5,,FHRS,5
314019,78 Barton Tors,East The Water,Devon,,Sentry Corner Post Office,Retailers - other,4613,,,233703,,,51.01228000000000,09/00064/MX,080,foodandsafety@torridge.gov.uk,Torridge,http://www.torridge.gov.uk/food,-4.19347400000000,EX39 4HA,2012-01-26,fhrs_exempt_en-GB,Exempt,,FHRS,
314020,High Street,Winkleigh,Devon,,Seven Stars,Restaurant/Cafe/Canteen,1,5,,233811,5,,50.85680700000000,10/00238/MX,080,foodandsafety@torridge.gov.uk,Torridge,http://www.torridge.gov.uk/food,-3.94440200000000,EX19 8HX,2013-03-20,fhrs_4_en-GB,4,,FHRS,10
314021,41 Fore Street,Hartland,Devon,,Shamrock,Retailers - other,4613,,,233344,,,50.99255000000000,08/00418/MX,080,foodandsafety@torridge.gov.uk,Torridge,http://www.torridge.gov.uk/food,-4.48133800000000,EX39 6BE,2013-07-19,fhrs_exempt_en-GB,Exempt,,FHRS,
314022,,,,,Shebbear Cheese Company,Manufacturers/packers,7839,5,,234067,0,,,08/00147/FH,080,foodandsafety@torridge.gov.uk,Torridge,http://www.torridge.gov.uk/food,,,2014-01-31,fhrs_5_en-GB,5,,FHRS,5
314023,Shebbear,Devon,,,Shebbear Community School,School/college/university,7845,0,,233915,0,,50.86236953735350,08/00678/FH,080,foodandsafety@torridge.gov.uk,Torridge,http://www.torridge.gov.uk/food,-4.21405410766602,EX21 5SG,2013-03-19,fhrs_5_en-GB,5,,FHRS,5
314024,Shebbear,Devon,,,Shebbear Village Hall,Other catering premises,7841,,,444409,,,50.86236953735350,08/00405/MX,080,foodandsafety@torridge.gov.uk,Torridge,http://www.torridge.gov.uk/food,-4.21405410766602,EX21 5SG,2006-05-31,fhrs_exempt_en-GB,Exempt,,FHRS,
314025,9 Pannier Market,South Street,Great Torrington,Devon,Sheenas Sweetshop,Retailers - other,4613,,,233591,,,50.95132200000000,09/00089/MX,080,foodandsafety@torridge.gov.uk,Torridge,http://www.torridge.gov.uk/food,-4.14303200000000,EX38 8HD,2015-01-16,fhrs_exempt_en-GB,Exempt,,FHRS,
314026,Mermaid House,The Square,Sheepwash,Devon,Sheepwash Community Post Office And Stores,Retailers - other,4613,,,233707,,,50.83664300000000,08/00408/MX,080,foodandsafety@torridge.gov.uk,Torridge,http://www.torridge.gov.uk/food,-4.15039900000000,EX21 5NE,2014-06-17,fhrs_exempt_en-GB,Exempt,,FHRS,
314027,The Quay,Clovelly,Bideford,Devon,Shell Fish Shop,Retailers - other,4613,5,,233650,0,,50.99847000000000,08/00449/MX,080,foodandsafety@torridge.gov.uk,Torridge,http://www.torridge.gov.uk/food,-4.39773300000000,EX39 5TF,2014-03-27,fhrs_5_en-GB,5,,FHRS,5
314028,21 Barnstaple Street,Bideford,Devon,,Silver Bridge House,Takeaway/sandwich shop,7844,5,,233368,10,,51.01704900000000,08/00421/MX,080,foodandsafety@torridge.gov.uk,Torridge,http://www.torridge.gov.uk/food,-4.20048600000000,EX39 4AE,2014-09-10,fhrs_4_en-GB,4,,FHRS,5
314029,,,,,SK Mobile Catering Services,Other catering premises,7841,5,,233495,0,,,11/00163/FH,080,foodandsafety@torridge.gov.uk,Torridge,http://www.torridge.gov.uk/food,,,2013-08-22,fhrs_5_en-GB,5,,FHRS,0
314030,Appledore,Bideford,Devon,,Skern Lodge,Hotel/bed & breakfast/guest house,7842,5,,233494,0,,51.05382919311520,08/00401/MX,080,foodandsafety@torridge.gov.uk,Torridge,http://www.torridge.gov.uk/food,-4.20491218566895,EX39 1NG,2014-04-30,fhrs_5_en-GB,5,,FHRS,5
314031,10 High Street,Great Torrington,Devon,,Slice Of Life,Restaurant/Cafe/Canteen,1,5,,233392,5,,50.95189100000000,10/00521/MX,080,foodandsafety@torridge.gov.uk,Torridge,http://www.torridge.gov.uk/food,-4.14342900000000,EX38 8HN,2014-09-10,fhrs_5_en-GB,5,,FHRS,5
314032,Woodacott Holiday Park,Woodacott Cross,Devon,,Slim Gyms,Other catering premises,7841,,,233677,,,50.84649700000000,08/00410/MX,080,foodandsafety@torridge.gov.uk,Torridge,http://www.torridge.gov.uk/food,-4.29635100000000,EX22 7BT,2011-05-31,fhrs_exempt_en-GB,Exempt,,FHRS,
314033,Carousel Amusements,Westbourne Terrace,Westward Ho!,Bideford,Slipway Takeaway,Takeaway/sandwich shop,7844,5,,233396,0,,51.04221200000000,11/00114/MX,080,foodandsafety@torridge.gov.uk,Torridge,http://www.torridge.gov.uk/food,-4.23651600000000,EX39 1LL,2013-02-21,fhrs_5_en-GB,5,,FHRS,5
314034,Fore Street,Hartland,Devon,,Small School,School/college/university,7845,5,,234026,5,,50.99203200000000,08/00849/MX,080,foodandsafety@torridge.gov.uk,Torridge,http://www.torridge.gov.uk/food,-4.47819000000000,EX39 6AB,2014-03-07,fhrs_5_en-GB,5,,FHRS,5
314035,Little Torrington,Devon,,,Smytham Manor,Pub/bar/nightclub,7843,,,233662,,,50.92520523071290,08/00413/MX,080,foodandsafety@torridge.gov.uk,Torridge,http://www.torridge.gov.uk/food,-4.15761232376099,EX38 8PU,2013-01-03,fhrs_exempt_en-GB,Exempt,,FHRS,
314036,Jackets Lane,Northam,Bideford,Devon,Snapdragons Pre-School,School/college/university,7845,0,,233674,0,,51.04326500000000,11/00102/FH,080,foodandsafety@torridge.gov.uk,Torridge,http://www.torridge.gov.uk/food,-4.21618000000000,EX39 1HT,2015-02-12,fhrs_5_en-GB,5,,FHRS,0
314037,Unit 3A,Latitude 51,Bath Hotel Road,Westward Ho!,So Sweet,Retailers - other,4613,10,,682380,10,,51.04041900000000,14/00094/MX,080,foodandsafety@torridge.gov.uk,Torridge,http://www.torridge.gov.uk/food,-4.23904000000000,EX39 1GW,2014-06-30,fhrs_3_en-GB,3,,FHRS,5
314038,Shebbear College,College Road,Shebbear,Devon,Sodexo Ltd,School/college/university,7845,0,,233555,0,,50.86443800000000,08/00672/FH,080,foodandsafety@torridge.gov.uk,Torridge,http://www.torridge.gov.uk/food,-4.20413300000000,EX21 5HJ,2013-06-10,fhrs_5_en-GB,5,,FHRS,5
314039,5 Butchers Row,Bideford,Devon,,Souperman,Other catering premises,7841,5,,607788,5,,51.01689600000000,13/00157/MX,080,foodandsafety@torridge.gov.uk,Torridge,http://www.torridge.gov.uk/food,-4.20718000000000,EX39 2DX,2013-11-06,fhrs_5_en-GB,5,,FHRS,5
314040,,,,,South Hill Farm,Retailers - other,4613,,,233857,,,,08/00403/FH,080,foodandsafety@torridge.gov.uk,Torridge,http://www.torridge.gov.uk/food,,,2012-01-26,fhrs_exempt_en-GB,Exempt,,FHRS,
314041,2 South View,Shebbear,Devon,,South View Stores,Retailers - other,4613,5,,233957,0,,50.86186300000000,08/00832/MX,080,foodandsafety@torridge.gov.uk,Torridge,http://www.torridge.gov.uk/food,-4.21901800000000,EX21 5RU,2013-07-17,fhrs_5_en-GB,5,,FHRS,0
314042,South Yeo,Yeo Vale,Bideford,Devon,South Yeo Bed And Breakfast,Hotel/bed & breakfast/guest house,7842,0,,610036,5,,50.97961800000000,13/00122/MX,080,foodandsafety@torridge.gov.uk,Torridge,http://www.torridge.gov.uk/food,-4.26999100000000,EX39 5ES,2013-11-18,fhrs_5_en-GB,5,,FHRS,0
314043,18 Fore Street,Holsworthy,Devon,,Southbourne Catering,Retailers - other,4613,,,234061,,,50.81012200000000,08/00600/MX,080,foodandsafety@torridge.gov.uk,Torridge,http://www.torridge.gov.uk/food,-4.35290900000000,EX22 6EB,2011-12-05,fhrs_exempt_en-GB,Exempt,,FHRS,
314044,Clawton,Devon,,,Southcott Garage,Retailers - other,4613,,,234082,,,50.79668426513670,09/00099/MX,080,foodandsafety@torridge.gov.uk,Torridge,http://www.torridge.gov.uk/food,-4.34086656570435,EX22 6NQ,2013-01-03,fhrs_exempt_en-GB,Exempt,,FHRS,
314045,Bridgerule,Devon,,,Southlands Court Residential Home,Hospitals/Childcare/Caring Premises,5,5,,233936,0,,50.79854202270510,08/01136/MX,080,foodandsafety@torridge.gov.uk,Torridge,http://www.torridge.gov.uk/food,-4.44184970855713,EX22 7EW,2014-07-04,fhrs_5_en-GB,5,,FHRS,5
314046,13 High Street,Great Torrington,Devon,,Spar,Retailers - other,4613,0,,234099,0,,50.95189100000000,10/00007/MX,080,foodandsafety@torridge.gov.uk,Torridge,http://www.torridge.gov.uk/food,-4.14342900000000,EX38 8HN,2013-10-10,fhrs_5_en-GB,5,,FHRS,5
314047,Blights Motors Ltd,Clovelly Road,Bideford,Devon,Spar,Retailers - other,4613,5,,233715,5,,51.01082500000000,08/00761/MX,080,foodandsafety@torridge.gov.uk,Torridge,http://www.torridge.gov.uk/food,-4.22377100000000,EX39 3ET,2015-01-15,fhrs_5_en-GB,5,,FHRS,5
314048,,,,,Speedy Spuds,Mobile caterer,7846,,,234011,,,,11/00052/MX,080,foodandsafety@torridge.gov.uk,Torridge,http://www.torridge.gov.uk/food,,,2012-02-08,fhrs_exempt_en-GB,Exempt,,FHRS,
314049,The Quay,Bideford,Devon,,Spice,Restaurant/Cafe/Canteen,1,10,,233355,10,,51.01832300000000,08/00601/MX,080,foodandsafety@torridge.gov.uk,Torridge,http://www.torridge.gov.uk/food,-4.20493800000000,EX39 2HJ,2013-09-11,fhrs_3_en-GB,3,,FHRS,5
314050,Chanters Road,Bideford,Devon,,Springfield Day Centre,Hospitals/Childcare/Caring Premises,5,0,,233946,0,,51.02530200000000,09/00137/MX,080,foodandsafety@torridge.gov.uk,Torridge,http://www.torridge.gov.uk/food,-4.20635300000000,EX39 2QN,2013-08-15,fhrs_5_en-GB,5,,FHRS,0
314051,Jackets Lane,Northam,Bideford,Devon,St George's C Of E Infants School,School/college/university,7845,10,,701569,10,,51.04326500000000,12/00068/FH,080,foodandsafety@torridge.gov.uk,Torridge,http://www.torridge.gov.uk/food,-4.21618000000000,EX39 1HT,2014-09-16,fhrs_4_en-GB,4,,FHRS,0
314052,St Giles In The Wood,Devon,,,St Giles In The Wood Sports Club,Pub/bar/nightclub,7843,,,233341,,,50.95159912109380,08/00819/MX,080,foodandsafety@torridge.gov.uk,Torridge,http://www.torridge.gov.uk/food,-4.09054946899414,EX38 7JG,2014-01-24,fhrs_exempt_en-GB,Exempt,,FHRS,
314053,St Giles On The Heath,Launceston,Cornwall,,St Giles On The Heath Community School,School/college/university,7845,0,,233785,5,,50.69002151489260,08/00674/FH,080,foodandsafety@torridge.gov.uk,Torridge,http://www.torridge.gov.uk/food,-4.32123613357544,PL15 9SD,2013-06-10,fhrs_4_en-GB,4,,FHRS,10
314054,Station Road,St Giles On The Heath,Devon,,St Giles On The Heath Post Office And Stores,Retailers - other,4613,10,,234080,5,,50.68689000000000,09/00003/MX,080,foodandsafety@torridge.gov.uk,Torridge,http://www.torridge.gov.uk/food,-4.32262500000000,PL15 9SA,2013-07-25,fhrs_4_en-GB,4,,FHRS,5
314055,St Giles In The Wood,Devon,,,St Giles Parish Hall,Other catering premises,7841,,,446057,,,50.95159912109380,09/00037/MX,080,foodandsafety@torridge.gov.uk,Torridge,http://www.torridge.gov.uk/food,-4.09054946899414,EX38 7JG,2009-09-09,fhrs_exempt_en-GB,Exempt,,FHRS,
314056,Abbotsham,Bideford,Devon,,St Helens Church Of England Primary School,School/college/university,7845,0,,706442,0,,51.01568984985350,14/00144/FH,080,foodandsafety@torridge.gov.uk,Torridge,http://www.torridge.gov.uk/food,-4.24822759628296,EX39 5AP,2014-10-09,fhrs_5_en-GB,5,,FHRS,0
314057,Abbotsham,Bideford,Devon,,St Helens Church Of England Primary School Breakfast Club,School/college/university,7845,5,,682378,5,,51.01568984985350,12/00117/FH,080,foodandsafety@torridge.gov.uk,Torridge,http://www.torridge.gov.uk/food,-4.24822759628296,EX39 5AP,2014-07-11,fhrs_5_en-GB,5,,FHRS,0
314058,Tower Street,Northam,Devon,,St Margarets Church,Other catering premises,7841,,,624131,,,,13/00167/MX,080,foodandsafety@torridge.gov.uk,Torridge,http://www.torridge.gov.uk/food,,,2013-11-27,fhrs_exempt_en-GB,Exempt,,FHRS,
314059,Sea View Road,Northam,Bideford,Devon,St Margarets Junior School Kitchen,School/college/university,7845,0,,338646,0,,51.04207300000000,12/00044/FH,080,foodandsafety@torridge.gov.uk,Torridge,http://www.torridge.gov.uk/food,-4.21458200000000,EX39 1EL,2013-10-10,fhrs_5_en-GB,5,,FHRS,5
314060,Chanters Road,Bideford,Devon,,St Mary's Catering,School/college/university,7845,0,,517335,0,,51.02530200000000,12/00066/FH,080,foodandsafety@torridge.gov.uk,Torridge,http://www.torridge.gov.uk/food,-4.20635300000000,EX39 2QN,2015-02-05,fhrs_5_en-GB,5,,FHRS,0
314061,Church Walk,Bideford,Devon,,St Marys Diner,Other catering premises,7841,5,,233787,5,,51.01660600000000,08/00406/MX,080,foodandsafety@torridge.gov.uk,Torridge,http://www.torridge.gov.uk/food,-4.20584000000000,EX39 2BP,2013-09-13,fhrs_5_en-GB,5,,FHRS,5
314062,Nethergrove House,High Bickington,Umberleigh,Devon,Stables Cottage Bed And Breakfast,Hotel/bed & breakfast/guest house,7842,5,,713550,5,,50.96674100000000,14/00156/MX,080,foodandsafety@torridge.gov.uk,Torridge,http://www.torridge.gov.uk/food,-3.97669200000000,EX37 9BQ,2014-11-04,fhrs_5_en-GB,5,,FHRS,0
314063,,,,,Staddon Road Dairy,Distributors/Transporters,7,,,233941,,,,08/00415/FH,080,foodandsafety@torridge.gov.uk,Torridge,http://www.torridge.gov.uk/food,,,2014-02-05,fhrs_exempt_en-GB,Exempt,,FHRS,
314064,Milky Way Adventure Park,Downland Farm,Higher Clovelly,Bideford,Starlight Restaurant And Cosmic Cafe,Restaurant/Cafe/Canteen,1,5,,666960,0,,50.97876200000000,14/00077/MX,080,foodandsafety@torridge.gov.uk,Torridge,http://www.torridge.gov.uk/food,-4.38554700000000,EX39 5RY,2014-05-13,fhrs_5_en-GB,5,,FHRS,0
314065,4 Fore Street,Great Torrington,Devon,,Steve Gladwin Family Butchers,Retailers - other,4613,5,,233467,5,,50.95247700000000,10/00495/MX,080,foodandsafety@torridge.gov.uk,Torridge,http://www.torridge.gov.uk/food,-4.14284300000000,EX38 8HQ,2014-05-22,fhrs_5_en-GB,5,,FHRS,5
314066,Stoke Barton Farm,Stoke,Devon,,Stoke Barton Tea Rooms,Restaurant/Cafe/Canteen,1,,,233420,,,50.73246002197270,08/00447/MX,080,foodandsafety@torridge.gov.uk,Torridge,http://www.torridge.gov.uk/food,-3.79749202728271,EX39 6DU,2014-06-30,fhrs_exempt_en-GB,Exempt,,FHRS,
314067,,,,,Strawbridge Alpacas,Retailers - other,4613,,,636964,,,,13/00109/FH,080,foodandsafety@torridge.gov.uk,Torridge,http://www.torridge.gov.uk/food,,,2014-03-21,fhrs_exempt_en-GB,Exempt,,FHRS,
314068,56 Mill Street,Bideford,Devon,,Subway,Restaurant/Cafe/Canteen,1,0,,233827,0,,51.01839500000000,08/00598/MX,080,foodandsafety@torridge.gov.uk,Torridge,http://www.torridge.gov.uk/food,-4.20589600000000,EX39 2JT,2014-05-02,fhrs_5_en-GB,5,,FHRS,0
314069,70 High Street,Bideford,Devon,,Sue Ryder,Retailers - other,4613,,,233577,,,51.01793600000000,11/00034/MX,080,foodandsafety@torridge.gov.uk,Torridge,http://www.torridge.gov.uk/food,-4.20641600000000,EX39 2AA,2014-09-05,fhrs_exempt_en-GB,Exempt,,FHRS,
314070,,,,,Sugar And Ice,Retailers - other,4613,5,,631964,5,,,14/00010/MX,080,foodandsafety@torridge.gov.uk,Torridge,http://www.torridge.gov.uk/food,,,2014-01-30,fhrs_5_en-GB,5,,FHRS,0
314071,Torrington AFC,Vicarage Field,School Lane,Torrington,Super Greens Bar,Pub/bar/nightclub,7843,5,,579110,5,,50.95424200000000,13/00090/MX,080,foodandsafety@torridge.gov.uk,Torridge,http://www.torridge.gov.uk/food,-4.14466200000000,EX38 7AJ,2013-08-14,fhrs_5_en-GB,5,,FHRS,5
314072,4 High Street,Bideford,Devon,,Superdrug Stores,Retailers - other,4613,,,444413,,,51.01793600000000,08/00599/MX,080,foodandsafety@torridge.gov.uk,Torridge,http://www.torridge.gov.uk/food,-4.20641600000000,EX39 2AA,2006-04-01,fhrs_exempt_en-GB,Exempt,,FHRS,
314073,25 Market Street,Appledore,Bideford,Devon,Susie's Tea Rooms,Restaurant/Cafe/Canteen,1,5,,234072,5,,51.05379200000000,11/00157/MX,080,foodandsafety@torridge.gov.uk,Torridge,http://www.torridge.gov.uk/food,-4.19118300000000,EX39 1PP,2014-11-07,fhrs_5_en-GB,5,,FHRS,5
314074,Sutcombe,Holsworthy,Devon,,Sutcombe County Primary School,School/college/university,7845,5,,233893,0,,50.87980651855470,11/00164/FH,080,foodandsafety@torridge.gov.uk,Torridge,http://www.torridge.gov.uk/food,-4.35164213180542,EX22 7PW,2014-01-29,fhrs_5_en-GB,5,,FHRS,5
314075,,,,,Sweet Window,Retailers - other,4613,,,572208,,,,12/00115/FH,080,foodandsafety@torridge.gov.uk,Torridge,http://www.torridge.gov.uk/food,,,2013-07-24,fhrs_exempt_en-GB,Exempt,,FHRS,
314076,3 Meeting Street,Appledore,Devon,,Sylvesters Fish And Chip Shop,Takeaway/sandwich shop,7844,5,,233820,5,,51.05393800000000,08/00767/MX,080,foodandsafety@torridge.gov.uk,Torridge,http://www.torridge.gov.uk/food,-4.19251700000000,EX39 1RJ,2015-02-04,fhrs_5_en-GB,5,,FHRS,5
314077,Taddiport,Devon,,,Taddiport Village Hall,Other catering premises,7841,,,444428,,,50.94758987426760,09/00035/MX,080,foodandsafety@torridge.gov.uk,Torridge,http://www.torridge.gov.uk/food,-4.15389013290405,,2007-05-31,fhrs_exempt_en-GB,Exempt,,FHRS,
314078,16 South Street,Great Torrington,Devon,,Taffs Fish And Chips,Takeaway/sandwich shop,7844,5,,234070,0,,50.95138900000000,08/00300/MX,080,foodandsafety@torridge.gov.uk,Torridge,http://www.torridge.gov.uk/food,-4.14379000000000,EX38 8AA,2013-03-20,fhrs_5_en-GB,5,,FHRS,0
314079,4 Allhalland Street,Bideford,Devon,,Taj Mahal Indian Takeaway,Takeaway/sandwich shop,7844,5,,233636,5,,51.01736500000000,08/00491/MX,080,foodandsafety@torridge.gov.uk,Torridge,http://www.torridge.gov.uk/food,-4.20519100000000,EX39 2JD,2013-07-26,fhrs_5_en-GB,5,,FHRS,5
314080,,,,,Taste Of Thailand,Other catering premises,7841,5,,619119,5,,,13/00149/MX,080,foodandsafety@torridge.gov.uk,Torridge,http://www.torridge.gov.uk/food,,,2013-12-13,fhrs_5_en-GB,5,,FHRS,5
314081,10 Potacre Street,Torrington,Devon,,Tea N Tots Play Cafe,Restaurant/Cafe/Canteen,1,0,,697193,0,,50.95268900000000,14/00119/MX,080,foodandsafety@torridge.gov.uk,Torridge,http://www.torridge.gov.uk/food,-4.14256800000000,EX38 8BH,2014-09-02,fhrs_5_en-GB,5,,FHRS,5
314082,Golf Links Road,Westward Ho!,Bideford,Devon,Tea On The Green,Restaurant/Cafe/Canteen,1,5,,233996,0,,51.04138700000000,08/00472/MX,080,foodandsafety@torridge.gov.uk,Torridge,http://www.torridge.gov.uk/food,-4.23641900000000,EX39 1LH,2015-01-15,fhrs_5_en-GB,5,,FHRS,0
314083,Golf Links Road,Westward Ho!,Bideford,Devon,Tesco Stores Limited,Retailers - supermarkets/hypermarkets,7840,0,,719540,0,,51.04138700000000,14/00115/MX,080,foodandsafety@torridge.gov.uk,Torridge,http://www.torridge.gov.uk/food,-4.23641900000000,EX39 1LH,2014-12-01,fhrs_5_en-GB,5,,FHRS,0
314084,Manteo Way,East The Water,Devon,,Tesco Stores Limited,Retailers - supermarkets/hypermarkets,7840,0,,234014,5,,51.01813300000000,10/00490/MX,080,foodandsafety@torridge.gov.uk,Torridge,http://www.torridge.gov.uk/food,-4.18873100000000,EX39 4FW,2015-01-14,fhrs_5_en-GB,5,,FHRS,0
314085,,,,,Tetcott Hunt Supporters Club,Mobile caterer,7846,5,,668582,5,,,13/00140/MX,080,foodandsafety@torridge.gov.uk,Torridge,http://www.torridge.gov.uk/food,,,2014-06-09,fhrs_5_en-GB,5,,FHRS,0
314086,Pump Lane,Abbotsham,Bideford,Devon,Thatched Inn,Pub/bar/nightclub,7843,5,,233761,0,,51.01742800000000,08/00475/MX,080,foodandsafety@torridge.gov.uk,Torridge,http://www.torridge.gov.uk/food,-4.24672900000000,EX39 5BA,2014-01-29,fhrs_5_en-GB,5,,FHRS,5
314087,22 The Quay,Appledore,Bideford,Devon,The Coffee Cabin,Restaurant/Cafe/Canteen,1,5,,636972,5,,51.05311900000000,14/00013/MX,080,foodandsafety@torridge.gov.uk,Torridge,http://www.torridge.gov.uk/food,-4.19109400000000,EX39 1QS,2014-03-19,fhrs_5_en-GB,5,,FHRS,0
314088,The Square,Winkleigh,Devon,,The Mad Butcher,Retailers - other,4613,10,,234091,5,,50.85630300000000,09/00047/MX,080,foodandsafety@torridge.gov.uk,Torridge,http://www.torridge.gov.uk/food,-3.94445200000000,EX19 8HJ,2014-03-21,fhrs_3_en-GB,3,,FHRS,10
314089,13 Pannier Market,South Street,Great Torrington,Devon,The Market Cafe,Restaurant/Cafe/Canteen,1,5,,233539,0,,50.95132200000000,10/00002/MX,080,foodandsafety@torridge.gov.uk,Torridge,http://www.torridge.gov.uk/food,-4.14303200000000,EX38 8HD,2015-02-04,fhrs_5_en-GB,5,,FHRS,5
314090,Welcombe,Bideford,Devon,,The Old Smithy Inn,Pub/bar/nightclub,7843,5,,233826,5,,50.93373489379880,11/00140/MX,080,foodandsafety@torridge.gov.uk,Torridge,http://www.torridge.gov.uk/food,-4.51915407180786,EX39 6HG,2014-02-03,fhrs_5_en-GB,5,,FHRS,0
314091,Merley Road,Westward Ho!,Devon,,The Pier House,Other catering premises,7841,5,,233541,0,,51.03890100000000,09/00109/MX,080,foodandsafety@torridge.gov.uk,Torridge,http://www.torridge.gov.uk/food,-4.24647000000000,EX39 1JS,2014-09-22,fhrs_5_en-GB,5,,FHRS,5
314092,St Giles On The Heath,Launceston,Devon,,The Pint And Post,Restaurant/Cafe/Canteen,1,5,,446062,5,,50.68791961669920,12/00099/MX,080,foodandsafety@torridge.gov.uk,Torridge,http://www.torridge.gov.uk/food,-4.32177019119263,PL15 9SA,2014-03-12,fhrs_5_en-GB,5,,FHRS,5
314093,,,,,The Point,Other catering premises,7841,,,577529,,,,13/00089/FH,080,foodandsafety@torridge.gov.uk,Torridge,http://www.torridge.gov.uk/food,,,2013-07-31,fhrs_exempt_en-GB,Exempt,,FHRS,
314094,Blagdon Farm,Hartland,Bideford,Devon,The Point @ Hartland,Restaurant/Cafe/Canteen,1,5,,530758,5,,51.01637400000000,13/00046/MX,080,foodandsafety@torridge.gov.uk,Torridge,http://www.torridge.gov.uk/food,-4.50829000000000,EX39 6AU,2013-04-02,fhrs_5_en-GB,5,,FHRS,5
314095,9 The Quay,Appledore,Bideford,Devon,The Quay Gallery Bistro,Restaurant/Cafe/Canteen,1,5,,234010,10,,51.05311900000000,11/00160/MX,080,foodandsafety@torridge.gov.uk,Torridge,http://www.torridge.gov.uk/food,-4.19109400000000,EX39 1QS,2013-07-26,fhrs_3_en-GB,3,,FHRS,10
314096,Bideford Station,Station Hill,Bideford,Devon,The Railway Carriage,Restaurant/Cafe/Canteen,1,5,,233608,5,,51.01508300000000,09/00067/MX,080,foodandsafety@torridge.gov.uk,Torridge,http://www.torridge.gov.uk/food,-4.20079200000000,EX39 4BB,2014-06-25,fhrs_5_en-GB,5,,FHRS,5
314097,8 Market Street,Appledore,Bideford,Devon,The Royal Plaice,Other catering premises,7841,5,,233749,5,,51.05307900000000,10/00512/MX,080,foodandsafety@torridge.gov.uk,Torridge,http://www.torridge.gov.uk/food,-4.19133500000000,EX39 1PW,2015-01-05,fhrs_5_en-GB,5,,FHRS,0
314098,,,,,The Spit Roast Specialist,Mobile caterer,7846,5,,233762,0,,,10/00291/MX,080,foodandsafety@torridge.gov.uk,Torridge,http://www.torridge.gov.uk/food,,,2014-05-02,fhrs_5_en-GB,5,,FHRS,5
314099,78 The Square,Hartland,Devon,,The Square Chip,Takeaway/sandwich shop,7844,5,,233774,5,,50.99273000000000,10/00418/MX,080,foodandsafety@torridge.gov.uk,Torridge,http://www.torridge.gov.uk/food,-4.48255900000000,EX39 6BL,2014-08-28,fhrs_4_en-GB,4,,FHRS,10
314100,,,,,The Victorian Kitchen,Retailers - other,4613,,,233410,,,,08/01143/FH,080,foodandsafety@torridge.gov.uk,Torridge,http://www.torridge.gov.uk/food,,,2011-06-15,fhrs_exempt_en-GB,Exempt,,FHRS,
314101,,,,,The Wonky Kitchen,Retailers - other,4613,,,233937,,,,11/00135/MX,080,foodandsafety@torridge.gov.uk,Torridge,http://www.torridge.gov.uk/food,,,2011-11-09,fhrs_exempt_en-GB,Exempt,,FHRS,
314102,2 Briidgeland Street,Bideford,Devon,,Tin Tin Chinese Restaurant,Restaurant/Cafe/Canteen,1,5,,572213,5,,51.01998200000000,13/00094/MX,080,foodandsafety@torridge.gov.uk,Torridge,http://www.torridge.gov.uk/food,-4.20470300000000,EX39 2PS,2013-07-24,fhrs_5_en-GB,5,,FHRS,5
314103,25 Market Place,Bideford,Devon,,TinyTea Room,Restaurant/Cafe/Canteen,1,5,,494258,5,,51.01711100000000,12/00143/MX,080,foodandsafety@torridge.gov.uk,Torridge,http://www.torridge.gov.uk/food,-4.20723300000000,EX39 2DR,2013-01-09,fhrs_4_en-GB,4,,FHRS,10
314104,136 Mill Street,Torrington,Devon,,Torridge Inn,Pub/bar/nightclub,7843,10,,628080,5,,50.94942200000000,13/00105/MX,080,foodandsafety@torridge.gov.uk,Torridge,http://www.torridge.gov.uk/food,-4.15296800000000,EX38 8AW,2014-01-23,fhrs_4_en-GB,4,,FHRS,5
314105,Broad Street,Black Torrington,Devon,,Torridge Inn,Pub/bar/nightclub,7843,5,,233397,5,,50.82896600000000,08/00830/MX,080,foodandsafety@torridge.gov.uk,Torridge,http://www.torridge.gov.uk/food,-4.18022300000000,EX21 5PT,2013-08-22,fhrs_5_en-GB,5,,FHRS,5
314106,41 South Street,Great Torrington,Devon,,Torridge Vale Social Club Ltd,Pub/bar/nightclub,7843,,,233793,,,50.95135600000000,08/00494/MX,080,foodandsafety@torridge.gov.uk,Torridge,http://www.torridge.gov.uk/food,-4.14511300000000,EX38 8AB,2014-12-09,fhrs_exempt_en-GB,Exempt,,FHRS,
314107,170 New Street,Torrington,Devon,,Torrington Arms,Pub/bar/nightclub,7843,5,,233666,5,,50.95280300000000,08/00477/MX,080,foodandsafety@torridge.gov.uk,Torridge,http://www.torridge.gov.uk/food,-4.15053300000000,EX38 8BX,2013-11-08,fhrs_5_en-GB,5,,FHRS,5
314108,Baptist Chapel,New Street,Torrington,Devon,Torrington Community Food Bank,Other catering premises,7841,,,517338,,,,13/00035/MX,080,foodandsafety@torridge.gov.uk,Torridge,http://www.torridge.gov.uk/food,,,2013-03-12,fhrs_exempt_en-GB,Exempt,,FHRS,
314109,38 South Street,Great Torrington,Devon,,Torrington Conservative Club,Pub/bar/nightclub,7843,,,233376,,,50.95135600000000,08/00464/MX,080,foodandsafety@torridge.gov.uk,Torridge,http://www.torridge.gov.uk/food,-4.14511300000000,EX38 8AB,2014-09-15,fhrs_exempt_en-GB,Exempt,,FHRS,
314110,Calf Street,Great Torrington,Devon,,Torrington Cottage Hospital,Hospitals/Childcare/Caring Premises,5,0,,233710,0,,50.95484200000000,08/00746/FH,080,foodandsafety@torridge.gov.uk,Torridge,http://www.torridge.gov.uk/food,-4.13698600000000,EX38 7BJ,2013-07-18,fhrs_5_en-GB,5,,FHRS,0
314111,Unit 1,Station Yard,Station Yard Service Road,Great Torrington,Torrington Cycle Hire,Takeaway/sandwich shop,7844,,,233814,,,50.95800900000000,09/00186/MX,080,foodandsafety@torridge.gov.uk,Torridge,http://www.torridge.gov.uk/food,-4.16568300000000,EX38 8JD,2013-09-30,fhrs_exempt_en-GB,Exempt,,FHRS,
314112,7 High Street,Great Torrington,Devon,,Torrington Post Office,Retailers - other,4613,,,233884,,,50.95189100000000,08/00474/MX,080,foodandsafety@torridge.gov.uk,Torridge,http://www.torridge.gov.uk/food,-4.14342900000000,EX38 8HN,2014-01-22,fhrs_exempt_en-GB,Exempt,,FHRS,
314113,Torrington RUFC Clubhouse,Donnacroft Fields,Hatchmoor Road,Torrington,Torrington Rugby Club,Other catering premises,7841,5,,564408,5,,,13/00084/MX,080,foodandsafety@torridge.gov.uk,Torridge,http://www.torridge.gov.uk/food,,,2014-11-19,fhrs_5_en-GB,5,,FHRS,5
314114,Scout Hut,Gas Lane,Great Torrington,Devon,Torrington Scouts,Other catering premises,7841,,,444411,,,50.95406100000000,08/00497/MX,080,foodandsafety@torridge.gov.uk,Torridge,http://www.torridge.gov.uk/food,-4.14179100000000,EX38 7BE,2006-10-04,fhrs_exempt_en-GB,Exempt,,FHRS,
314115,18 South Street,Torrington,Devon,,Torrington Tandoori,Restaurant/Cafe/Canteen,1,5,,636966,5,,50.95138900000000,13/00154/MX,080,foodandsafety@torridge.gov.uk,Torridge,http://www.torridge.gov.uk/food,-4.14379000000000,EX38 8AA,2014-02-25,fhrs_5_en-GB,5,,FHRS,5
314116,24 Old Town,Bideford,Devon,,Trafalgar Place Post Office And Stores,Retailers - other,4613,,,234074,,,51.01650700000000,08/00488/MX,080,foodandsafety@torridge.gov.uk,Torridge,http://www.torridge.gov.uk/food,-4.21158100000000,EX39 3BH,2013-11-29,fhrs_exempt_en-GB,Exempt,,FHRS,
314117,,,,,Travelling Cat,Mobile caterer,7846,5,,593841,0,,,13/00110/MX,080,foodandsafety@torridge.gov.uk,Torridge,http://www.torridge.gov.uk/food,,,2013-10-10,fhrs_5_en-GB,5,,FHRS,0
314118,38 Mill Street,Bideford,Devon,,Trawlers,Restaurant/Cafe/Canteen,1,5,,359626,5,,51.01969300000000,12/00017/MX,080,foodandsafety@torridge.gov.uk,Torridge,http://www.torridge.gov.uk/food,-4.20718400000000,EX39 2JJ,2013-10-16,fhrs_5_en-GB,5,,FHRS,5
314119,,,,,Trevennen,Retailers - other,4613,0,,666962,0,,,14/00096/MX,080,foodandsafety@torridge.gov.uk,Torridge,http://www.torridge.gov.uk/food,,,2014-06-09,fhrs_5_en-GB,5,,FHRS,0
314120,,,,,Tried And Tasted,Retailers - other,4613,,,233401,,,,08/00499/FH,080,foodandsafety@torridge.gov.uk,Torridge,http://www.torridge.gov.uk/food,,,2014-03-05,fhrs_exempt_en-GB,Exempt,,FHRS,
314121,,,,,Truly Scrumptious,Other catering premises,7841,,,587297,,,,13/00087/FH,080,foodandsafety@torridge.gov.uk,Torridge,http://www.torridge.gov.uk/food,,,2013-09-26,fhrs_exempt_en-GB,Exempt,,FHRS,
314122,The Ultimate Adventure Centre,Abbotsham,Bideford,Devon,Ultimate Adventure Centre And SK Mobile Catering,Restaurant/Cafe/Canteen,1,0,,695778,5,,51.01569000000000,14/00080/MX,080,foodandsafety@torridge.gov.uk,Torridge,http://www.torridge.gov.uk/food,-4.24822800000000,EX39 5AP,2014-08-22,fhrs_5_en-GB,5,,FHRS,5
314123,Stibb Cross,Torrington,Devon,,Union Inn,Pub/bar/nightclub,7843,5,,515887,0,,50.91238403320310,13/00029/MX,080,foodandsafety@torridge.gov.uk,Torridge,http://www.torridge.gov.uk/food,-4.23573255538940,EX38 8LH,2015-01-15,fhrs_5_en-GB,5,,FHRS,5
314124,48A Morwenna Park Road,Northam,Devon,,United Community Centre,Other catering premises,7841,,,444432,,,51.04280100000000,10/00422/MX,080,foodandsafety@torridge.gov.uk,Torridge,http://www.torridge.gov.uk/food,-4.21314700000000,EX39 1EQ,2013-08-22,fhrs_exempt_en-GB,Exempt,,FHRS,
314125,,,,,Upton Road,Other catering premises,7841,,,233966,,,,11/00024/MX,080,foodandsafety@torridge.gov.uk,Torridge,http://www.torridge.gov.uk/food,,,2014-03-17,fhrs_exempt_en-GB,Exempt,,FHRS,
314126,Clovelly Road Industrial Estate,Bideford,Devon,,Value House Stores,Retailers - other,4613,5,,233630,5,,51.01005700000000,10/00315/MX,080,foodandsafety@torridge.gov.uk,Torridge,http://www.torridge.gov.uk/food,-4.23384200000000,EX39 3HN,2013-07-18,fhrs_5_en-GB,5,,FHRS,5
314127,12 Cooper Street,Bideford,Devon,,Velvet And Vanilla,Restaurant/Cafe/Canteen,1,5,,494256,5,,51.01869900000000,12/00116/MX,080,foodandsafety@torridge.gov.uk,Torridge,http://www.torridge.gov.uk/food,-4.20551100000000,EX39 2DA,2014-06-25,fhrs_5_en-GB,5,,FHRS,5
314128,35-37 Nelson Road,Westward Ho!,Bideford,Devon,Venners Bakery,Manufacturers/packers,7839,5,,233888,5,,51.04029700000000,08/00496/MX,080,foodandsafety@torridge.gov.uk,Torridge,http://www.torridge.gov.uk/food,-4.23650900000000,EX39 1LQ,2015-01-14,fhrs_5_en-GB,5,,FHRS,5
314129,Park Lane,Bideford,Devon,,Victoria Park Bowling Club,Pub/bar/nightclub,7843,,,234046,,,51.02330000000000,08/01140/MX,080,foodandsafety@torridge.gov.uk,Torridge,http://www.torridge.gov.uk/food,-4.20618600000000,EX39 2QL,2014-03-20,fhrs_exempt_en-GB,Exempt,,FHRS,
314130,Ashwater,Devon,,,Village Inn,Pub/bar/nightclub,7843,5,,234102,5,,50.73397827148440,08/00530/MX,080,foodandsafety@torridge.gov.uk,Torridge,http://www.torridge.gov.uk/food,-4.28830480575562,EX21 5EY,2015-02-02,fhrs_5_en-GB,5,,FHRS,5
314131,Youngaton Road,Westward Ho!,Bideford,Devon,Village Inn,Pub/bar/nightclub,7843,5,,233775,5,,51.03959200000000,08/00533/MX,080,foodandsafety@torridge.gov.uk,Torridge,http://www.torridge.gov.uk/food,-4.23764500000000,EX39 1HU,2014-07-24,fhrs_4_en-GB,4,,FHRS,10
314132,,,,,Village Van,Retailers - other,4613,,,233458,,,,08/00534/FH,080,foodandsafety@torridge.gov.uk,Torridge,http://www.torridge.gov.uk/food,,,2012-08-30,fhrs_exempt_en-GB,Exempt,,FHRS,
314133,,,,,Vintage Party Company,Other catering premises,7841,5,,530757,5,,,13/00040/FH,080,foodandsafety@torridge.gov.uk,Torridge,http://www.torridge.gov.uk/food,,,2013-03-18,fhrs_5_en-GB,5,,FHRS,0
314134,Unit 3,39 - 41 Well Street,Great Torrington,Devon,Vision-On,Retailers - other,4613,,,444431,,,50.95254000000000,09/00130/MX,080,foodandsafety@torridge.gov.uk,Torridge,http://www.torridge.gov.uk/food,-4.14138000000000,EX38 8EP,2006-04-01,fhrs_exempt_en-GB,Exempt,,FHRS,
314135,,,,,Volkscafe,Mobile caterer,7846,5,,234114,0,,,11/00039/MX,080,foodandsafety@torridge.gov.uk,Torridge,http://www.torridge.gov.uk/food,,,2011-07-28,fhrs_5_en-GB,5,,FHRS,5
314136,Horrelsford Garage,Milton Damerel,Devon,,W Sanders And Sons,Retailers - other,4613,,,233835,,,50.88151200000000,08/00858/MX,080,foodandsafety@torridge.gov.uk,Torridge,http://www.torridge.gov.uk/food,-4.29584100000000,EX22 7NU,2015-01-21,fhrs_exempt_en-GB,Exempt,,FHRS,
314137,Station Yard,Holsworthy,Devon,,Waitrose Limited,Retailers - supermarkets/hypermarkets,7840,0,,234109,0,,50.80703900000000,10/00454/MX,080,foodandsafety@torridge.gov.uk,Torridge,http://www.torridge.gov.uk/food,-4.35503900000000,EX22 6BN,2014-09-22,fhrs_5_en-GB,5,,FHRS,0
314138,Cluden Road,Northam,Bideford,Devon,Warren Care Home,Hospitals/Childcare/Caring Premises,5,5,,233724,0,,51.03699700000000,08/00524/MX,080,foodandsafety@torridge.gov.uk,Torridge,http://www.torridge.gov.uk/food,-4.21665100000000,EX39 3QF,2014-07-18,fhrs_5_en-GB,5,,FHRS,5
314139,Golf Links Road,Westward Ho!,Bideford,Devon,Waterfront Inn,Pub/bar/nightclub,7843,10,,233470,0,,51.04138700000000,08/00525/MX,080,foodandsafety@torridge.gov.uk,Torridge,http://www.torridge.gov.uk/food,-4.23641900000000,EX39 1LH,2015-01-14,fhrs_4_en-GB,4,,FHRS,5
314140,,,,,Way2Go4 Walking Holidays Ltd,Hotel/bed & breakfast/guest house,7842,,,233964,,,,08/00512/FH,080,foodandsafety@torridge.gov.uk,Torridge,http://www.torridge.gov.uk/food,,,2013-03-18,fhrs_exempt_en-GB,Exempt,,FHRS,
314141,Weare Giffard,Devon,,,Weare Giffard Hall,Other catering premises,7841,,,444426,,,50.97974395751950,09/00022/MX,080,foodandsafety@torridge.gov.uk,Torridge,http://www.torridge.gov.uk/food,-4.18324851989746,EX39 4QP,2006-05-31,fhrs_exempt_en-GB,Exempt,,FHRS,
314142,Weirmarsh Farm,High Bickington,Devon,,Weirmarsh Farm Restaurant Ltd,Restaurant/Cafe/Canteen,1,5,,233868,5,,50.97879200000000,08/00508/MX,080,foodandsafety@torridge.gov.uk,Torridge,http://www.torridge.gov.uk/food,-3.97612100000000,EX37 9BE,2013-10-17,fhrs_5_en-GB,5,,FHRS,5
314143,Hollacombe Farm,Welcombe,Bideford,Devon,Welcombe Community Shop,Retailers - other,4613,,,233642,,,50.93598600000000,08/00527/MX,080,foodandsafety@torridge.gov.uk,Torridge,http://www.torridge.gov.uk/food,-4.49440900000000,EX39 6HE,2014-03-10,fhrs_exempt_en-GB,Exempt,,FHRS,
314144,,,,,Welcombe Farm,Retailers - other,4613,0,,676491,0,,,08/00879/MX,080,foodandsafety@torridge.gov.uk,Torridge,http://www.torridge.gov.uk/food,,,2013-10-09,fhrs_5_en-GB,5,,FHRS,0
314145,Unit 1e,Enterprise Centre,Langdon Road,Bradworthy,Wessex Pantry Ltd,Manufacturers/packers,7839,5,,233466,5,,50.90307800000000,08/01095/MX,080,foodandsafety@torridge.gov.uk,Torridge,http://www.torridge.gov.uk/food,-4.38424900000000,EX22 7SF,2013-12-10,fhrs_5_en-GB,5,,FHRS,5
314146,,,,,West Country Caterers,Other catering premises,7841,5,,234075,5,,,08/00500/FH,080,foodandsafety@torridge.gov.uk,Torridge,http://www.torridge.gov.uk/food,,,2014-06-25,fhrs_5_en-GB,5,,FHRS,5
314147,Bursdon Moor,Hartland,Bideford,Devon,West Country Inn,Pub/bar/nightclub,7843,5,,233414,5,,50.94755600000000,08/00571/MX,080,foodandsafety@torridge.gov.uk,Torridge,http://www.torridge.gov.uk/food,-4.46377700000000,EX39 6HB,2013-07-31,fhrs_5_en-GB,5,,FHRS,5
314148,69 Irsha Street,Appledore,Bideford,Devon,West Farm,Hotel/bed & breakfast/guest house,7842,5,,453723,5,,51.05646500000000,08/00503/MX,080,foodandsafety@torridge.gov.uk,Torridge,http://www.torridge.gov.uk/food,-4.19444900000000,EX39 1RY,2013-06-21,fhrs_5_en-GB,5,,FHRS,5
314149,West Heanton Retirement Home,Buckland Filleigh,Devon,,West Heanton Ltd,Hospitals/Childcare/Caring Premises,5,5,,233905,5,,50.86896200000000,08/00507/MX,080,foodandsafety@torridge.gov.uk,Torridge,http://www.torridge.gov.uk/food,-4.15940500000000,EX21 5PJ,2014-03-26,fhrs_5_en-GB,5,,FHRS,5
314150,,,,,West Staddon Farm,Other catering premises,7841,5,,233869,5,,,09/00042/FH,080,foodandsafety@torridge.gov.uk,Torridge,http://www.torridge.gov.uk/food,,,2013-03-18,fhrs_5_en-GB,5,,FHRS,5
314151,Hartland,Bideford,Devon,,West Titchberry Farm,Hotel/bed & breakfast/guest house,7842,,,233641,,,51.01637268066410,10/00412/FH,080,foodandsafety@torridge.gov.uk,Torridge,http://www.torridge.gov.uk/food,-4.50829029083252,EX39 6AU,2014-12-09,fhrs_exempt_en-GB,Exempt,,FHRS,
314152,Westbourne Terrace,Westward Ho!,Bideford,Devon,Westbourne Galleries,Retailers - other,4613,,,446055,,,51.04221200000000,08/00786/MX,080,foodandsafety@torridge.gov.uk,Torridge,http://www.torridge.gov.uk/food,-4.23651600000000,EX39 1LL,2014-09-15,fhrs_exempt_en-GB,Exempt,,FHRS,
314153,Coronation Road,Bideford,Devon,,Westcroft County Junior School,School/college/university,7845,0,,233482,0,,51.01266100000000,08/00515/FH,080,foodandsafety@torridge.gov.uk,Torridge,http://www.torridge.gov.uk/food,-4.21232500000000,EX39 3DE,2015-02-03,fhrs_5_en-GB,5,,FHRS,0
314154,31 Nelson Road,Westward Ho!,Devon,,Westward Ho Post Office And Stores,Retailers - other,4613,,,233896,,,51.04029700000000,08/00511/MX,080,foodandsafety@torridge.gov.uk,Torridge,http://www.torridge.gov.uk/food,-4.23650900000000,EX39 1LQ,2013-11-06,fhrs_exempt_en-GB,Exempt,,FHRS,
314155,Avon Lane,Westward Ho!,Bideford,Devon,Westward Ho! Tennis Club,Other catering premises,7841,,,233689,,,51.04050200000000,08/00520/MX,080,foodandsafety@torridge.gov.uk,Torridge,http://www.torridge.gov.uk/food,-4.23283800000000,EX39 1LR,2013-09-20,fhrs_exempt_en-GB,Exempt,,FHRS,
314156,,,,,Wheelwright Kitchen,Retailers - other,4613,0,,676492,0,,,13/00028/MX,080,foodandsafety@torridge.gov.uk,Torridge,http://www.torridge.gov.uk/food,,,2014-06-24,fhrs_5_en-GB,5,,FHRS,0
314157,Fore Street,Holsworthy,Devon,,White Hart Hotel,Pub/bar/nightclub,7843,10,,233945,5,,50.81012200000000,08/00856/MX,080,foodandsafety@torridge.gov.uk,Torridge,http://www.torridge.gov.uk/food,-4.35290900000000,EX22 6EB,2014-03-18,fhrs_4_en-GB,4,,FHRS,5
314158,The Wings Hall,Lower Meddon Street,Bideford,Devon,Wings,Restaurant/Cafe/Canteen,1,5,,234063,5,,51.01566200000000,08/00578/MX,080,foodandsafety@torridge.gov.uk,Torridge,http://www.torridge.gov.uk/food,-4.20583800000000,EX39 2BJ,2014-03-20,fhrs_4_en-GB,4,,FHRS,10
314159,Castle Street,Winkleigh,Devon,,Winkleigh Jubilee Hall,Restaurant/Cafe/Canteen,1,,,444419,,,50.85537000000000,08/00877/MX,080,foodandsafety@torridge.gov.uk,Torridge,http://www.torridge.gov.uk/food,-3.94644500000000,EX19 8HU,2006-04-01,fhrs_exempt_en-GB,Exempt,,FHRS,
314160,Castle Street,Winkleigh,Devon,,Winkleigh Methodist Church,Other catering premises,7841,5,,233804,5,,50.85560700000000,10/00001/MX,080,foodandsafety@torridge.gov.uk,Torridge,http://www.torridge.gov.uk/food,-3.94644700000000,,2014-11-19,fhrs_5_en-GB,5,,FHRS,5
314161,Farmer Franks Lane,Winkleigh,Devon,,Winkleigh Primary And Pre-School,School/college/university,7845,0,,234050,0,,50.85361900000000,08/00669/FH,080,foodandsafety@torridge.gov.uk,Torridge,http://www.torridge.gov.uk/food,-3.94574700000000,EX19 8JQ,2013-07-18,fhrs_5_en-GB,5,,FHRS,0
314162,,,,,Winsford Walled Garden,Other catering premises,7841,,,636965,,,,13/00119/FH,080,foodandsafety@torridge.gov.uk,Torridge,http://www.torridge.gov.uk/food,,,2014-03-21,fhrs_exempt_en-GB,Exempt,,FHRS,
314163,,,,,WJ And TJ Law,Retailers - other,4613,,,233654,,,,11/00036/MX,080,foodandsafety@torridge.gov.uk,Torridge,http://www.torridge.gov.uk/food,,,2013-01-08,fhrs_exempt_en-GB,Exempt,,FHRS,
314164,,,,,Wood Smoked,Mobile caterer,7846,5,,643854,0,,,13/00156/MX,080,foodandsafety@torridge.gov.uk,Torridge,http://www.torridge.gov.uk/food,,,2014-03-28,fhrs_5_en-GB,5,,FHRS,5
314165,Milton Damerel,Holsworthy,Devon,,Woodford Bridge Country Club,Hotel/bed & breakfast/guest house,7842,10,,610037,5,,50.88741800000000,13/00128/MX,080,foodandsafety@torridge.gov.uk,Torridge,http://www.torridge.gov.uk/food,-4.27854300000000,EX22 7LL,2013-10-30,fhrs_3_en-GB,3,,FHRS,10
314166,New Street,Great Torrington,Devon,,Woodland Vale CCSC,Hospitals/Childcare/Caring Premises,5,5,,233955,5,,50.95222600000000,08/00824/MX,080,foodandsafety@torridge.gov.uk,Torridge,http://www.torridge.gov.uk/food,-4.15645800000000,EX38 8DN,2015-02-04,fhrs_5_en-GB,5,,FHRS,5
314167,East The Water,Bideford,Devon,,Woodtown House,Hospitals/Childcare/Caring Premises,5,0,,233889,0,,51.01300048828130,08/00510/MX,080,foodandsafety@torridge.gov.uk,Torridge,http://www.torridge.gov.uk/food,-4.15283250808716,EX39 4PP,2014-05-01,fhrs_5_en-GB,5,,FHRS,5
314168,,,,,Woodville Gardens,Retailers - other,4613,5,,233897,5,,,08/00501/FH,080,foodandsafety@torridge.gov.uk,Torridge,http://www.torridge.gov.uk/food,,,2015-01-13,fhrs_5_en-GB,5,,FHRS,5
314169,Nuttaberry,Bideford,Devon,,Woodys Donuts,Mobile caterer,7846,5,,643859,5,,51.00934700000000,14/00048/MX,080,foodandsafety@torridge.gov.uk,Torridge,http://www.torridge.gov.uk/food,-4.20208800000000,EX39 4DT,2014-04-07,fhrs_5_en-GB,5,,FHRS,0
314170,Woolfardisworthy,Bideford,Devon,,Woolsery CP School,School/college/university,7845,0,,335450,0,,50.96395874023440,12/00042/FH,080,foodandsafety@torridge.gov.uk,Torridge,http://www.torridge.gov.uk/food,-4.37718296051025,EX39 5QS,2014-09-22,fhrs_5_en-GB,5,,FHRS,0
314171,Corner Cottage,Chapel Street,Woolfardisworthy,Devon,Woolsery Fish And Chip Shop,Takeaway/sandwich shop,7844,0,,233855,0,,50.96395800000000,08/00519/MX,080,foodandsafety@torridge.gov.uk,Torridge,http://www.torridge.gov.uk/food,-4.37718300000000,EX39 5QS,2014-03-27,fhrs_5_en-GB,5,,FHRS,5
314172,Chapel Street,Woolfardisworthy,Bideford,Devon,Woolsery Post Office And Stores,Retailers - other,4613,5,,323797,5,,50.96395800000000,12/00040/MX,080,foodandsafety@torridge.gov.uk,Torridge,http://www.torridge.gov.uk/food,-4.37718300000000,EX39 5QS,2013-10-09,fhrs_4_en-GB,4,,FHRS,10
314173,Woolfardisworthy,Devon,,,Woolsery Sports & Community Hall,Other catering premises,7841,,,234115,,,50.96484375000000,09/00021/MX,080,foodandsafety@torridge.gov.uk,Torridge,http://www.torridge.gov.uk/food,-4.37557601928711,EX39 5QT,2011-02-25,fhrs_exempt_en-GB,Exempt,,FHRS,
314174,Keston House,South Street,Winkleigh,Devon,Wright And Proper Coffee Shop,Restaurant/Cafe/Canteen,1,5,,607785,0,,50.85552600000000,13/00148/MX,080,foodandsafety@torridge.gov.uk,Torridge,http://www.torridge.gov.uk/food,-3.94520200000000,EX19 8HL,2013-11-08,fhrs_5_en-GB,5,,FHRS,5
314175,24 South Street,Great Torrington,Devon,,Xanadu,Retailers - other,4613,,,233909,,,50.95138900000000,08/00539/MX,080,foodandsafety@torridge.gov.uk,Torridge,http://www.torridge.gov.uk/food,-4.14379000000000,EX38 8AA,2012-08-15,fhrs_exempt_en-GB,Exempt,,FHRS,
314176,Peters Marland,Torrington,Devon,,Yarde Orchard,Restaurant/Cafe/Canteen,1,0,,687699,0,,50.90971100000000,14/00122/MX,080,foodandsafety@torridge.gov.uk,Torridge,http://www.torridge.gov.uk/food,-4.14831800000000,EX38 8QA,2014-07-22,fhrs_5_en-GB,5,,FHRS,0
314177,2A Well Street,Great Torrington,Devon,,Yau's House,Takeaway/sandwich shop,7844,5,,233947,5,,50.95254000000000,08/00531/MX,080,foodandsafety@torridge.gov.uk,Torridge,http://www.torridge.gov.uk/food,-4.14138000000000,EX38 8EP,2014-01-29,fhrs_5_en-GB,5,,FHRS,5
314178,Durrant Lane,Northam,Bideford,Devon,Yeoldon House Hotel,Hotel/bed & breakfast/guest house,7842,10,,682382,5,,51.03380100000000,14/00120/MX,080,foodandsafety@torridge.gov.uk,Torridge,http://www.torridge.gov.uk/food,-4.20778300000000,EX39 2RL,2014-07-04,fhrs_4_en-GB,4,,FHRS,5
314179,Merton,Devon,,,Yeory Farm,Restaurant/Cafe/Canteen,1,5,,577526,0,,50.90332412719730,08/00535/MX,080,foodandsafety@torridge.gov.uk,Torridge,http://www.torridge.gov.uk/food,-4.09000730514526,EX20 3DX,2013-08-01,fhrs_5_en-GB,5,,FHRS,5
314180,,,,,Youldon Moor Cottage,Farmers/growers,7838,,,233943,,,,08/00537/FH,080,foodandsafety@torridge.gov.uk,Torridge,http://www.torridge.gov.uk/food,,,2010-02-11,fhrs_exempt_en-GB,Exempt,,FHRS,
314181,21 High Street,Bideford,Devon,,Young Devon,Restaurant/Cafe/Canteen,1,,,233791,,,51.01793600000000,10/00455/MX,080,foodandsafety@torridge.gov.uk,Torridge,http://www.torridge.gov.uk/food,-4.20641600000000,EX39 2AA,2012-10-24,fhrs_exempt_en-GB,Exempt,,FHRS,
