,addressline1,addressline2,addressline3,addressline4,businessname,businesstype,businesstypeid,confidenceinmanagement,extractdate,fhrsid,hygiene,itemcount,latitude,localauthoritybusinessid,localauthoritycode,localauthorityemailaddress,localauthorityname,localauthoritywebsite,longitude,postcode,ratingdate,ratingkey,ratingvalue,returncode,schemetype,structural
314182,Tavistock,Devon,,,19 Campion Rise,Hospitals/Childcare/Caring Premises,5,0,,520818,0,,50.55095900000000,PI/000009705,081,eh@westdevon.gov.uk,West Devon,http://www.westdevon.gov.uk,-4.13472900000000,PL19 9PU,2013-03-13,fhrs_5_en-GB,5,,FHRS,0
314183,Chagford,Devon,,,19 Lower Street,Other catering premises,7841,0,,162236,10,,50.67490768432620,PI/000002609,081,eh@westdevon.gov.uk,West Devon,http://www.westdevon.gov.uk,-3.83942580223084,TQ13 8AZ,2011-10-19,fhrs_4_en-GB,4,,FHRS,0
314184,16 Fore Street,Okehampton,Devon,,2 Rivers Restaurant,Restaurant/Cafe/Canteen,1,5,,666535,0,,50.73955900000000,PI/000041915,081,eh@westdevon.gov.uk,West Devon,http://www.westdevon.gov.uk,-4.00227100000000,EX20 1AN,2014-05-30,fhrs_5_en-GB,5,,FHRS,5
314185,,,,,5 Hunters Gate,Hospitals/Childcare/Caring Premises,5,0,,636203,0,,,PI/000001698,081,eh@westdevon.gov.uk,West Devon,http://www.westdevon.gov.uk,,,2013-12-18,fhrs_5_en-GB,5,,FHRS,5
314186,Tavistock,Devon,,,8 West Street,Retailers - other,4613,,,643895,,,50.54966900000000,PI/000022255,081,eh@westdevon.gov.uk,West Devon,http://www.westdevon.gov.uk,-4.14620400000000,PL19 8AD,2014-03-11,fhrs_exempt_en-GB,Exempt,,FHRS,
314187,9 Barons Road,Dousland,Devon,,A Cupful of Cakes,Other catering premises,7841,0,,168015,0,,50.50070900000000,PI/000012436,081,eh@westdevon.gov.uk,West Devon,http://www.westdevon.gov.uk,-4.06550700000000,PL20 6NG,2014-06-25,fhrs_5_en-GB,5,,FHRS,0
314188,6 Market Street,North Tawton,Devon,,A L Martin & Son,Retailers - other,4613,5,,163079,10,,50.80006300000000,PI/000004171,081,eh@westdevon.gov.uk,West Devon,http://www.westdevon.gov.uk,-3.89712900000000,EX20 2ET,2011-10-13,fhrs_4_en-GB,4,,FHRS,5
314189,7 The Square,Chagford,Devon,,A L Martin & Son Ltd,Manufacturers/packers,7839,5,,235380,5,,50.67326100000000,PI/000002806,081,eh@westdevon.gov.uk,West Devon,http://www.westdevon.gov.uk,-3.84004100000000,TQ13 8AA,2015-01-23,fhrs_5_en-GB,5,,FHRS,5
314190,A L Martin & Son,School Way,Okehampton,Devon,A L Martin & Son Ltd,Retailers - other,4613,10,,447694,0,,50.74048700000000,PI/000035719,081,eh@westdevon.gov.uk,West Devon,http://www.westdevon.gov.uk,-4.00266500000000,EX20 1EU,2012-11-30,fhrs_4_en-GB,4,,FHRS,0
314191,Bedford Square,Tavistock,Devon,,Abbey Chapel,Other catering premises,7841,,,197807,,,50.54903300000000,PI/000009260,081,eh@westdevon.gov.uk,West Devon,http://www.westdevon.gov.uk,-4.14460800000000,PL19 0AD,2012-02-01,fhrs_exempt_en-GB,Exempt,,FHRS,
314192,Pilchers Field,The Crescent,Crapstone,Devon,Abbeyfield (Buck Mon) Society Ltd/HM,Hospitals/Childcare/Caring Premises,5,,,710083,,,50.49242500000000,PI/000017436,081,eh@westdevon.gov.uk,West Devon,http://www.westdevon.gov.uk,-4.11208200000000,PL20 7PS,2014-10-09,fhrs_exempt_en-GB,Exempt,,FHRS,
314193,Drake Lodge,60 Plymouth Road,Tavistock,Devon,Abbeyfield (Tavistock) Society,Hotel/bed & breakfast/guest house,7842,0,,375657,0,,50.54692100000000,PI/000011193,081,eh@westdevon.gov.uk,West Devon,http://www.westdevon.gov.uk,-4.15039900000000,PL19 8BU,2014-02-17,fhrs_5_en-GB,5,,FHRS,0
314194,Orchard Close,Tavistock,Devon,,Abbotsfield Hall Nursing Home,Hospitals/Childcare/Caring Premises,5,0,,464851,0,,50.54292000000000,PI/000013717,081,eh@westdevon.gov.uk,West Devon,http://www.westdevon.gov.uk,-4.16197400000000,PL19 8EZ,2014-06-19,fhrs_5_en-GB,5,,FHRS,0
314195,Okehampton Youth Hostel,Klondyke Road,Okehampton,Devon,Adventure Okehampton,Hotel/bed & breakfast/guest house,7842,0,,235379,5,,50.73220800000000,PI/000015359,081,eh@westdevon.gov.uk,West Devon,http://www.westdevon.gov.uk,-3.99616200000000,EX20 1EW,2014-09-19,fhrs_5_en-GB,5,,FHRS,5
314196,,,,,AJ & SM Barker,Other catering premises,7841,0,,485264,0,,,PI/000041290,081,eh@westdevon.gov.uk,West Devon,http://www.westdevon.gov.uk,,,2012-12-05,fhrs_5_en-GB,5,,FHRS,0
314197,44 Plymouth Road,Tavistock,Devon,,Apple Tree B&B,Hotel/bed & breakfast/guest house,7842,10,,173085,5,,50.54692100000000,PI/000024871,081,eh@westdevon.gov.uk,West Devon,http://www.westdevon.gov.uk,-4.15039900000000,PL19 8BU,2014-09-17,fhrs_4_en-GB,4,,FHRS,5
314198,Taw Valley Creamery,Road From Culm Cross To Taw Bridge Cross,North Tawton,Devon,Arla Foods Uk Ltd,Manufacturers/packers,7839,5,,636210,0,,50.79677500000000,PI/000041934,081,eh@westdevon.gov.uk,West Devon,http://www.westdevon.gov.uk,-3.91232200000000,EX20 2DA,2012-10-23,fhrs_5_en-GB,5,,FHRS,0
314199,Totleigh Barton,Road From Sheepwash Bridge To Higher Lewer Farm,Sheepwash,Devon,Arvon Foundation Ltd,Other catering premises,7841,5,,441399,0,,50.83734800000000,PI/000014297,081,eh@westdevon.gov.uk,West Devon,http://www.westdevon.gov.uk,-4.12320400000000,EX21 5NS,2012-08-20,fhrs_5_en-GB,5,,FHRS,0
314200,Ashbury Hotel & Golf Club,Higher Maddaford,Road From Glenover To Southcott Cross,Southcott,Ashbury Golf Hotel,Hotel/bed & breakfast/guest house,7842,5,,168302,0,,50.73698300000000,PI/000012918,081,eh@westdevon.gov.uk,West Devon,http://www.westdevon.gov.uk,-4.05922000000000,EX20 4NL,2014-03-24,fhrs_4_en-GB,4,,FHRS,10
314201,Pixies Holt,Road From Dartmeet Bridge To Hexworthy Cross,Princetown,Devon,Babcock Learning & Dev Partnership,Other catering premises,7841,0,,485263,0,,50.54504100000000,PI/000041272,081,eh@westdevon.gov.uk,West Devon,http://www.westdevon.gov.uk,-3.87696400000000,PL20 6SG,2014-03-21,fhrs_5_en-GB,5,,FHRS,5
314202,First Floor Flat,69 West Street,Tavistock,Devon,Bake Believe,Other catering premises,7841,0,,583373,0,,50.54953400000000,PI/000041149,081,eh@westdevon.gov.uk,West Devon,http://www.westdevon.gov.uk,-4.14770800000000,PL19 8AJ,2013-08-16,fhrs_5_en-GB,5,,FHRS,5
314203,54 Plymouth Road,Tavistock,Devon,,Bambinos at Sunningdale Day Nursery,Hospitals/Childcare/Caring Premises,5,0,,464843,0,,50.54692100000000,PI/000011187,081,eh@westdevon.gov.uk,West Devon,http://www.westdevon.gov.uk,-4.15039900000000,PL19 8BU,2014-06-17,fhrs_5_en-GB,5,,FHRS,0
314204,Road From Pigs Leg Cross To Keasts House,Sourton,Devon,,Bearslake Inn,Restaurant/Cafe/Canteen,1,0,,576984,0,,50.67983200000000,PI/000012962,081,eh@westdevon.gov.uk,West Devon,http://www.westdevon.gov.uk,-4.08524000000000,EX20 4HQ,2013-06-13,fhrs_5_en-GB,5,,FHRS,0
314205,Briony,Road From Voulsdon Cross To Bratton Clovelly,Bratton Clovelly,Devon,Bed & Breakfast @ Briony,Hotel/bed & breakfast/guest house,7842,0,,235414,0,,50.70629000000000,PI/000002046,081,eh@westdevon.gov.uk,West Devon,http://www.westdevon.gov.uk,-4.17638000000000,EX20 4JX,2014-09-22,fhrs_5_en-GB,5,,FHRS,0
314206,The Bedford Hotel,1 Plymouth Road,Tavistock,Devon,Bedford Hotel,Hotel/bed & breakfast/guest house,7842,5,,410477,0,,50.54929500000000,PI/000011134,081,eh@westdevon.gov.uk,West Devon,http://www.westdevon.gov.uk,-4.14457800000000,PL19 8BB,2013-11-07,fhrs_4_en-GB,4,,FHRS,10
314207,Beechwood,Road From Clapper Bridge To The Pump House,Postbridge,Devon,Beechwood B&B,Hotel/bed & breakfast/guest house,7842,0,,197804,0,,50.59807700000000,PI/000014439,081,eh@westdevon.gov.uk,West Devon,http://www.westdevon.gov.uk,-3.90414200000000,PL20 6SY,2014-09-22,fhrs_5_en-GB,5,,FHRS,0
314208,Road From Highfield To Tavistock Cross,Bere Alston,Devon,,Bere Alston Bowling Club,Restaurant/Cafe/Canteen,1,5,,430626,0,,50.48151200000000,PI/000025315,081,eh@westdevon.gov.uk,West Devon,http://www.westdevon.gov.uk,-4.18051100000000,PL20 7DZ,2012-07-05,fhrs_5_en-GB,5,,FHRS,0
314209,Station Road,Bere Alston,Devon,,Bere Alston Primary School,School/college/university,7845,0,,235384,0,,50.48182800000000,PI/000013021,081,eh@westdevon.gov.uk,West Devon,http://www.westdevon.gov.uk,-4.19479100000000,PL20 7AU,2014-07-03,fhrs_5_en-GB,5,,FHRS,0
314210,The Parish Hall,Station Road,Bere Alston,Devon,Beregen,Other catering premises,7841,0,,636208,0,,50.48051700000000,PI/000041869,081,eh@westdevon.gov.uk,West Devon,http://www.westdevon.gov.uk,-4.19133300000000,PL20 7EJ,2014-01-13,fhrs_5_en-GB,5,,FHRS,0
314211,Tavistock Road,Okehampton,Devon,,Betty Cottles Inn,Pub/bar/nightclub,7843,10,,235410,0,,50.72316100000000,PI/000012913,081,eh@westdevon.gov.uk,West Devon,http://www.westdevon.gov.uk,-4.03455600000000,EX20 4LR,2013-10-04,fhrs_4_en-GB,4,,FHRS,10
314212,4 Barley Market Street,Tavistock,Devon,,Bird's Nest Chinese Restaurant,Restaurant/Cafe/Canteen,1,0,,235396,0,,50.55092400000000,PI/000009425,081,eh@westdevon.gov.uk,West Devon,http://www.westdevon.gov.uk,-4.14499000000000,PL19 0JF,2014-06-19,fhrs_5_en-GB,5,,FHRS,5
314213,Road From Cholwell Farm To Walford House,Mary Tavy,Devon,,Blackdown Nursing Home,Hospitals/Childcare/Caring Premises,5,5,,481566,5,,50.60060500000000,PI/000008588,081,eh@westdevon.gov.uk,West Devon,http://www.westdevon.gov.uk,-4.11662600000000,PL19 9QB,2013-11-07,fhrs_4_en-GB,4,,FHRS,10
314214,28 The Square,Chagford,Devon,,Blacks Delicatessen,Retailers - other,4613,5,,162348,5,,50.67306600000000,PI/000002781,081,eh@westdevon.gov.uk,West Devon,http://www.westdevon.gov.uk,-3.83983500000000,TQ13 8AB,2013-06-07,fhrs_5_en-GB,5,,FHRS,5
314215,Road From Blacksmiths Arms To Venn House,Lamerton,Devon,,Blacksmiths Arms,Pub/bar/nightclub,7843,5,,540066,5,,50.56982900000000,PI/000007672,081,eh@westdevon.gov.uk,West Devon,http://www.westdevon.gov.uk,-4.19614000000000,PL19 8QR,2014-09-03,fhrs_5_en-GB,5,,FHRS,5
314216,Pannier Market,The Market,Tavistock,,Bob's Cafe,Restaurant/Cafe/Canteen,1,0,,430605,0,,50.55011600000000,PI/000010960,081,eh@westdevon.gov.uk,West Devon,http://www.westdevon.gov.uk,-4.14347200000000,PL19 0AL,2014-03-25,fhrs_5_en-GB,5,,FHRS,0
314217,South Brentor Farm,Road Past South Brentor Farm,Brentor,Devon,Boo to a Goose,Restaurant/Cafe/Canteen,1,20,,666539,0,,50.60106400000000,PI/000041954,081,eh@westdevon.gov.uk,West Devon,http://www.westdevon.gov.uk,-4.15338900000000,PL19 0NW,2014-04-29,fhrs_1_en-GB,1,,FHRS,10
314218,Bowling Green Lane,Hatherleigh,Devon,,Bowling Green Pavillion,Other catering premises,7841,,,197772,,,50.81926900000000,PI/000012791,081,eh@westdevon.gov.uk,West Devon,http://www.westdevon.gov.uk,-4.07485000000000,EX20 3HB,2014-10-13,fhrs_exempt_en-GB,Exempt,,FHRS,
314219,11 Brandize Park,Okehampton,Devon,,Bracken Tor House,Hospitals/Childcare/Caring Premises,5,5,,711762,5,,50.73277200000000,PI/000041997,081,eh@westdevon.gov.uk,West Devon,http://www.westdevon.gov.uk,-4.00050800000000,EX20 1EQ,2014-06-30,fhrs_5_en-GB,5,,FHRS,5
314220,Road To Lowertown,Sprytown,Devon,,Brambles,Hotel/bed & breakfast/guest house,7842,5,,666523,5,,50.64624100000000,PI/000008046,081,eh@westdevon.gov.uk,West Devon,http://www.westdevon.gov.uk,-4.24673600000000,PL16 0AY,2014-03-31,fhrs_5_en-GB,5,,FHRS,5
314221,Brickyard Farm,Holsworthy Road,Hatherleigh,Devon,Brickyard Farm Shop,Manufacturers/packers,7839,0,,683304,0,,50.81269600000000,PI/000003419,081,eh@westdevon.gov.uk,West Devon,http://www.westdevon.gov.uk,-4.09338200000000,EX20 3LE,2014-07-02,fhrs_5_en-GB,5,,FHRS,5
314222,Station Road,Bridestowe,Devon,,Bridestowe Methodist Church,Other catering premises,7841,5,,235422,0,,50.68368200000000,PI/000033990,081,eh@westdevon.gov.uk,West Devon,http://www.westdevon.gov.uk,-4.10523000000000,EX20 4EJ,2015-02-02,fhrs_5_en-GB,5,,FHRS,0
314223,Fore Street,Bridestowe,Devon,,Bridestowe Primary School,School/college/university,7845,0,,464847,5,,50.68487000000000,PI/000012653,081,eh@westdevon.gov.uk,West Devon,http://www.westdevon.gov.uk,-4.10518400000000,EX20 4EL,2014-06-18,fhrs_4_en-GB,4,,FHRS,10
314224,Road From Dartmeet Bridge To Hexworthy Cross,Princetown,Devon,,Brimpts Farm,Restaurant/Cafe/Canteen,1,0,,430594,0,,50.54504100000000,PI/000008204,081,eh@westdevon.gov.uk,West Devon,http://www.westdevon.gov.uk,-3.87696400000000,PL20 6SG,2014-06-17,fhrs_5_en-GB,5,,FHRS,0
314225,Village Hall,Road To Village Hall,Broadwoodkelly,Devon,Broadwoodkelly Parish Hall,Other catering premises,7841,5,,622350,0,,50.83567700000000,PI/000002295,081,eh@westdevon.gov.uk,West Devon,http://www.westdevon.gov.uk,-3.96505400000000,EX19 8ED,2013-11-12,fhrs_5_en-GB,5,,FHRS,0
314226,79-80 West Street,Tavistock,Devon,,Browns Hotel And Wine Bar,Pub/bar/nightclub,7843,0,,430607,0,,50.54988800000000,PI/000011794,081,eh@westdevon.gov.uk,West Devon,http://www.westdevon.gov.uk,-4.14653900000000,PL19 8AQ,2013-03-27,fhrs_5_en-GB,5,,FHRS,0
314227,The Bull & Dragon,Road From Friars Hele Cross To Bourna Farm,Meeth,Devon,Bull & Dragon,Pub/bar/nightclub,7843,0,,197813,0,,50.85644900000000,PI/000003736,081,eh@westdevon.gov.uk,West Devon,http://www.westdevon.gov.uk,-4.06418100000000,EX20 3EP,2014-03-26,fhrs_5_en-GB,5,,FHRS,5
314228,Castle Cafe,Castle Ham Lodge,Castle Road,Okehampton,Cafe @Castle Ham,Restaurant/Cafe/Canteen,1,10,,699230,10,,50.73386300000000,PI/000042734,081,eh@westdevon.gov.uk,West Devon,http://www.westdevon.gov.uk,-4.00504700000000,EX20 1FA,2014-08-29,fhrs_3_en-GB,3,,FHRS,10
314229,1 Market Street,Hatherleigh,Devon,,Cafe de Ville with Cornucopia Deli,Restaurant/Cafe/Canteen,1,0,,520821,5,,50.82177600000000,PI/000041383,081,eh@westdevon.gov.uk,West Devon,http://www.westdevon.gov.uk,-4.07242000000000,EX20 3JN,2013-10-22,fhrs_5_en-GB,5,,FHRS,5
314230,3 Church Lane,Tavistock,Devon,,Cafe Liaison,Restaurant/Cafe/Canteen,1,5,,464857,0,,50.54967200000000,PI/000019609,081,eh@westdevon.gov.uk,West Devon,http://www.westdevon.gov.uk,-4.14556900000000,PL19 8AA,2012-10-09,fhrs_5_en-GB,5,,FHRS,0
314231,Legion House,2 King Street,Tavistock,Devon,Cakes Bakes 'N' Shakes,Takeaway/sandwich shop,7844,0,,177115,5,,50.55024300000000,PI/000040826,081,eh@westdevon.gov.uk,West Devon,http://www.westdevon.gov.uk,-4.14730300000000,PL19 0DS,2013-08-09,fhrs_5_en-GB,5,,FHRS,5
314232,,,,,Cakes by Hannah,Other catering premises,7841,0,,622356,5,,,PI/000038379,081,eh@westdevon.gov.uk,West Devon,http://www.westdevon.gov.uk,,,2013-12-02,fhrs_5_en-GB,5,,FHRS,0
314233,Road From Tuell Down Cross To Blacksmiths Arms,Lamerton,Devon,,Camplehaye Residential Home,Hospitals/Childcare/Caring Premises,5,0,,165224,0,,50.57095000000000,PI/000007671,081,eh@westdevon.gov.uk,West Devon,http://www.westdevon.gov.uk,-4.19873400000000,PL19 8QD,2014-03-04,fhrs_5_en-GB,5,,FHRS,5
314234,The Parish Hall,Station Road,Bere Alston,Devon,Carnival Caterering,Restaurant/Cafe/Canteen,1,5,,177144,0,,50.48051700000000,PI/000040872,081,eh@westdevon.gov.uk,West Devon,http://www.westdevon.gov.uk,-4.19133300000000,PL20 7EJ,2014-01-13,fhrs_5_en-GB,5,,FHRS,0
314235,Carrs Garage,Road From Tuell Down Cross To Blacksmiths Arms,Lamerton,Devon,Carr's Garage,Retailers - other,4613,0,,169065,0,,50.57376500000000,PI/000014381,081,eh@westdevon.gov.uk,West Devon,http://www.westdevon.gov.uk,-4.20917500000000,PL19 8SD,2013-04-29,fhrs_5_en-GB,5,,FHRS,0
314236,Castle Drogo,Road From Coombe To Trennaway Cross,Drewsteignton,Devon,Castle Drogo Restaurant,Restaurant/Cafe/Canteen,1,5,,235376,5,,50.69591000000000,PI/000002902,081,eh@westdevon.gov.uk,West Devon,http://www.westdevon.gov.uk,-3.81110700000000,EX6 6PB,2013-08-29,fhrs_5_en-GB,5,,FHRS,5
314237,Road From The Old Chapel To Was Tor Cross,Lydford,Devon,,Castle Inn,Pub/bar/nightclub,7843,0,,464880,0,,50.64320200000000,PI/000041297,081,eh@westdevon.gov.uk,West Devon,http://www.westdevon.gov.uk,-4.10810100000000,EX20 4BH,2014-03-25,fhrs_5_en-GB,5,,FHRS,5
314238,Gibbons Meadow,Road From Waye Cross To Parely Hill,Chagford,Devon,Catering Queen,Other catering premises,7841,5,,197819,5,,50.67046200000000,PI/000034284,081,eh@westdevon.gov.uk,West Devon,http://www.westdevon.gov.uk,-3.84982400000000,TQ13 8DS,2012-01-16,fhrs_5_en-GB,5,,FHRS,0
314239,Cannon House,5 The Square,Chagford,Devon,Chagford Pharmacy,Retailers - other,4613,5,,711760,5,,50.67326100000000,PI/000041989,081,eh@westdevon.gov.uk,West Devon,http://www.westdevon.gov.uk,-3.84004100000000,TQ13 8AA,2014-06-16,fhrs_5_en-GB,5,,FHRS,0
314240,Chagford Church Of England Primary School,Road From Lower Street To Crossways Cross,Chagford,Devon,Chagford Pre-School,School/college/university,7845,5,,171713,0,,50.67668100000000,PI/000021134,081,eh@westdevon.gov.uk,West Devon,http://www.westdevon.gov.uk,-3.83642400000000,TQ13 8BZ,2014-06-11,fhrs_5_en-GB,5,,FHRS,5
314241,Chagford Church Of England Primary School,Road From Lower Street To Crossways Cross,Chagford,Devon,Chagford Primary School,School/college/university,7845,5,,162120,5,,50.67668100000000,PI/000002402,081,eh@westdevon.gov.uk,West Devon,http://www.westdevon.gov.uk,-3.83642400000000,TQ13 8BZ,2013-06-14,fhrs_5_en-GB,5,,FHRS,5
314242,Swimming Pool,Road From Sandy Park Cross To Crossways Cross,Chagford,Devon,Chagford Swimming Pool,Retailers - other,4613,0,,711759,0,,50.67848400000000,PI/000041988,081,eh@westdevon.gov.uk,West Devon,http://www.westdevon.gov.uk,-3.83445600000000,TQ13 8DA,2014-06-12,fhrs_5_en-GB,5,,FHRS,5
314243,Kilworthy House,Kilworthy Road,Tavistock,Devon,Chelfham Senior School,School/college/university,7845,0,,520820,0,,50.57274200000000,PI/000014293,081,eh@westdevon.gov.uk,West Devon,http://www.westdevon.gov.uk,-4.14560000000000,PL19 0JN,2014-09-11,fhrs_5_en-GB,5,,FHRS,5
314244,Road To North Ward Farm,Bere Alston,Devon,,Chelfham Senior School,School/college/university,7845,0,,540069,0,,50.48717500000000,PI/000013022,081,eh@westdevon.gov.uk,West Devon,http://www.westdevon.gov.uk,-4.21214000000000,PL20 7EX,2013-03-18,fhrs_5_en-GB,5,,FHRS,0
314245,Bonnaford,Road Past Hammer Park,Brentor,Devon,Chicks,Hospitals/Childcare/Caring Premises,5,5,,197783,5,,,PI/000020655,081,eh@westdevon.gov.uk,West Devon,http://www.westdevon.gov.uk,,,2014-09-03,fhrs_5_en-GB,5,,FHRS,5
314246,61 Whitchurch Road,Tavistock,Devon,,Chollacott Nursing Home,Hospitals/Childcare/Caring Premises,5,0,,235388,0,,50.54203400000000,PI/000012016,081,eh@westdevon.gov.uk,West Devon,http://www.westdevon.gov.uk,-4.14224400000000,PL19 9BD,2014-07-03,fhrs_5_en-GB,5,,FHRS,5
314247,,,,,Chrissy's Kitchen,Other catering premises,7841,5,,464878,0,,,PI/000041288,081,eh@westdevon.gov.uk,West Devon,http://www.westdevon.gov.uk,,,2012-11-05,fhrs_5_en-GB,5,,FHRS,0
314248,24 West Street,Tavistock,Devon,,Chung Ying Chinese Take Away,Takeaway/sandwich shop,7844,10,,197786,5,,50.54921600000000,PI/000011707,081,eh@westdevon.gov.uk,West Devon,http://www.westdevon.gov.uk,-4.14786300000000,PL19 8AN,2013-06-05,fhrs_4_en-GB,4,,FHRS,5
314249,Peartree,1 Moorland Close,Yelverton,Devon,Claire's Snacks,Mobile caterer,7846,0,,410481,0,,50.47036600000000,PI/000018795,081,eh@westdevon.gov.uk,West Devon,http://www.westdevon.gov.uk,-4.10691200000000,PL20 6DD,2012-06-11,fhrs_5_en-GB,5,,FHRS,0
314250,Road From Voulsdon Cross To Bratton Clovelly,Bratton Clovelly,Devon,,Clovelly Inn,Pub/bar/nightclub,7843,10,,197815,10,,50.70700600000000,PI/000002009,081,eh@westdevon.gov.uk,West Devon,http://www.westdevon.gov.uk,-4.17703700000000,EX20 4JZ,2015-01-09,fhrs_3_en-GB,3,,FHRS,10
314251,10-12 Market Street,Tavistock,Devon,,Co Operative Group Ltd,Retailers - other,4613,5,,167011,0,,50.55075000000000,PI/000010614,081,eh@westdevon.gov.uk,West Devon,http://www.westdevon.gov.uk,-4.14663400000000,PL19 0DB,2014-05-29,fhrs_5_en-GB,5,,FHRS,5
314252,1B Brook Street,Tavistock,Devon,,Coffee & Cream (SW) Ltd,Restaurant/Cafe/Canteen,1,5,,481573,0,,50.55139400000000,PI/000041301,081,eh@westdevon.gov.uk,West Devon,http://www.westdevon.gov.uk,-4.14290800000000,PL19 0HD,2012-11-15,fhrs_5_en-GB,5,,FHRS,0
314253,4-6 Red Lion Yard,Okehampton,Devon,,Coffee at Grants,Restaurant/Cafe/Canteen,1,10,,643904,5,,50.73980700000000,PI/000041906,081,eh@westdevon.gov.uk,West Devon,http://www.westdevon.gov.uk,-4.00350100000000,EX20 1AW,2014-04-03,fhrs_4_en-GB,4,,FHRS,5
314254,Road From Pigs Leg Cross To The Highwayman Inn,Sourton,Devon,,Collaven Manor Hotel,Hotel/bed & breakfast/guest house,7842,10,,163519,5,,50.68564200000000,PI/000004855,081,eh@westdevon.gov.uk,West Devon,http://www.westdevon.gov.uk,-4.07921200000000,EX20 4HH,2014-06-26,fhrs_4_en-GB,4,,FHRS,5
314255,20 Brook Street,Tavistock,Devon,,Cooperative,Retailers - supermarkets/hypermarkets,7840,5,,166402,5,,50.55087800000000,PI/000009513,081,eh@westdevon.gov.uk,West Devon,http://www.westdevon.gov.uk,-4.14309700000000,PL19 0BJ,2013-06-05,fhrs_5_en-GB,5,,FHRS,5
314256,24 Bridge Street,Hatherleigh,Devon,,Cooperative Group (CWS) Ltd,Retailers - other,4613,0,,410471,0,,50.82048500000000,PI/000003204,081,eh@westdevon.gov.uk,West Devon,http://www.westdevon.gov.uk,-4.07220600000000,EX20 3HY,2014-10-13,fhrs_5_en-GB,5,,FHRS,5
314257,The Copper Penny Inn,Road From Woodovis Farm To Chipshop,Lamerton,Devon,Copper Penny Chipshop,Pub/bar/nightclub,7843,5,,464885,10,,50.55487200000000,PI/000041327,081,eh@westdevon.gov.uk,West Devon,http://www.westdevon.gov.uk,-4.20803800000000,PL19 8NT,2014-09-23,fhrs_3_en-GB,3,,FHRS,10
314258,The Copper Penny Inn,Road From Woodovis Farm To Chipshop,Lamerton,Devon,Copper Penny Farm Shop,Retailers - other,4613,10,,701931,10,,50.55487200000000,PI/000042599,081,eh@westdevon.gov.uk,West Devon,http://www.westdevon.gov.uk,-4.20803800000000,PL19 8NT,2014-09-11,fhrs_3_en-GB,3,,FHRS,10
314259,44 Brook Street,Tavistock,Devon,,Costa Coffee,Restaurant/Cafe/Canteen,1,5,,464862,5,,50.55152400000000,PI/000023190,081,eh@westdevon.gov.uk,West Devon,http://www.westdevon.gov.uk,-4.14219400000000,PL19 0HE,2014-08-25,fhrs_5_en-GB,5,,FHRS,5
314260,Stannary Court,57 Exeter Road,Okehampton,Devon,Costcutter - Okehampton,Retailers - other,4613,,,693140,,,,PI/000022397,081,eh@westdevon.gov.uk,West Devon,http://www.westdevon.gov.uk,,,2014-07-29,fhrs_exempt_en-GB,Exempt,,FHRS,
314261,Market Road,Tavistock,Devon,,Country Cheeses-Natural Life,Retailers - other,4613,0,,430604,0,,50.55101200000000,PI/000010618,081,eh@westdevon.gov.uk,West Devon,http://www.westdevon.gov.uk,-4.14263700000000,PL19 0BW,2014-06-17,fhrs_5_en-GB,5,,FHRS,0
314262,Felldownhead,Road From Angars Ball To Felldownhead Cross,Bradstone,Devon,Countryman Cider,Manufacturers/packers,7839,0,,168372,0,,50.59829000000000,PI/000013048,081,eh@westdevon.gov.uk,West Devon,http://www.westdevon.gov.uk,-4.29573300000000,PL19 0QR,2014-06-04,fhrs_5_en-GB,5,,FHRS,5
314263,Southill Bungalow,Road From Southill Cross To Yeo Cross,Chagford,Devon,Crafty Cooks,Other catering premises,7841,5,,433839,5,,50.66786400000000,PI/000041274,081,eh@westdevon.gov.uk,West Devon,http://www.westdevon.gov.uk,-3.87390600000000,TQ13 8ES,2012-08-02,fhrs_5_en-GB,5,,FHRS,5
314264,2A Lisbon Villas,Road From Knighton To The Angle,Crapstone,Devon,Crapstone Post Office & Stores,Retailers - other,4613,5,,464827,0,,50.49106400000000,PI/000006715,081,eh@westdevon.gov.uk,West Devon,http://www.westdevon.gov.uk,-4.11278200000000,PL20 7PH,2012-10-01,fhrs_5_en-GB,5,,FHRS,0
314265,Crelake House Residential Care Home,4 Whitchurch Road,Tavistock,Devon,Crelake Care Ltd,Hospitals/Childcare/Caring Premises,5,5,,464882,0,,50.54465300000000,PI/000041320,081,eh@westdevon.gov.uk,West Devon,http://www.westdevon.gov.uk,-4.14463500000000,PL19 9BB,2013-06-28,fhrs_5_en-GB,5,,FHRS,5
314266,1 Sterlings Way,Okehampton,Devon,,Crumbs,Other catering premises,7841,5,,557492,0,,50.74464400000000,PI/000035610,081,eh@westdevon.gov.uk,West Devon,http://www.westdevon.gov.uk,-3.98730700000000,EX20 1FP,2013-05-23,fhrs_5_en-GB,5,,FHRS,0
314267,2 Buckland Terrace,Yelverton,Devon,,Curry Express,Takeaway/sandwich shop,7844,5,,164468,5,,50.49271100000000,PI/000006360,081,eh@westdevon.gov.uk,West Devon,http://www.westdevon.gov.uk,-4.09180500000000,PL20 6AD,2014-06-05,fhrs_5_en-GB,5,,FHRS,5
314268,20 West Street,Tavistock,Devon,,Curry Nights,Takeaway/sandwich shop,7844,0,,636207,0,,50.54921600000000,PI/000041416,081,eh@westdevon.gov.uk,West Devon,http://www.westdevon.gov.uk,-4.14786300000000,PL19 8AN,2014-01-13,fhrs_5_en-GB,5,,FHRS,5
314269,Bracken Tor,Tors Road,Okehampton,Devon,Dartmoor Active Leisure,Hotel/bed & breakfast/guest house,7842,0,,464860,0,,50.72721800000000,PI/000021232,081,eh@westdevon.gov.uk,West Devon,http://www.westdevon.gov.uk,-4.00127700000000,EX20 1QW,2013-05-23,fhrs_5_en-GB,5,,FHRS,5
314270,Road From Town Living Farm To Eagle House,Belstone,Devon,,Dartmoor House,Hotel/bed & breakfast/guest house,7842,5,,643866,0,,50.72539200000000,PI/000001942,081,eh@westdevon.gov.uk,West Devon,http://www.westdevon.gov.uk,-3.95683600000000,EX20 1RA,2014-01-20,fhrs_5_en-GB,5,,FHRS,0
314271,Plume Of Feathers Inn,Plymouth Hill,Princetown,Devon,Dartmoor Pub Co Ltd,Manufacturers/packers,7839,0,,375659,0,,,PI/000013364,081,eh@westdevon.gov.uk,West Devon,http://www.westdevon.gov.uk,,PL20 6QQ,2012-05-23,fhrs_5_en-GB,5,,FHRS,0
314272,Visitors Centre,Okehampton Railway Station,Station Road,Okehampton,Dartmoor Railway,Retailers - other,4613,5,,464815,0,,50.73250200000000,PI/000001342,081,eh@westdevon.gov.uk,West Devon,http://www.westdevon.gov.uk,-3.99630200000000,EX20 1EJ,2012-10-12,fhrs_5_en-GB,5,,FHRS,0
314273,4 The Arcade,Okehampton,Devon,,Dartmoor Tea Room,Restaurant/Cafe/Canteen,1,0,,375662,0,,50.73868200000000,PI/000017639,081,eh@westdevon.gov.uk,West Devon,http://www.westdevon.gov.uk,-4.00248900000000,EX20 1EX,2014-07-02,fhrs_5_en-GB,5,,FHRS,0
314274,,,,,Dave Wills Catering,Mobile caterer,7846,5,,706360,5,,,PI/000042737,081,eh@westdevon.gov.uk,West Devon,http://www.westdevon.gov.uk,,,2014-09-26,fhrs_5_en-GB,5,,FHRS,5
314275,Refreshment Hut,The Meadows,Footpaths From Fitzford Gateway To Abbey Bridge,Tavistock,Dawns Diner,Takeaway/sandwich shop,7844,5,,168777,0,,50.54834100000000,PI/000013825,081,eh@westdevon.gov.uk,West Devon,http://www.westdevon.gov.uk,-4.14605900000000,PL19 8AU,2013-06-05,fhrs_5_en-GB,5,,FHRS,5
314276,25 Phoenix Close,Horrabridge,Devon,,Dee.....licious !!,Other catering premises,7841,0,,666529,0,,50.50649400000000,PI/000017323,081,eh@westdevon.gov.uk,West Devon,http://www.westdevon.gov.uk,-4.09857800000000,PL20 7SY,2014-05-27,fhrs_5_en-GB,5,,FHRS,0
314277,Road Past Devon Tors Hotel,Yelverton,Devon,,Devon Tors Hotel,Pub/bar/nightclub,7843,0,,666534,0,,50.49257300000000,PI/000041879,081,eh@westdevon.gov.uk,West Devon,http://www.westdevon.gov.uk,-4.08697700000000,PL20 6DW,2015-01-16,fhrs_5_en-GB,5,,FHRS,0
314278,Leg O Mutton Corner,Yelverton,Devon,,Devonia House Nursing Home,Hospitals/Childcare/Caring Premises,5,0,,168391,0,,50.49269900000000,PI/000013087,081,eh@westdevon.gov.uk,West Devon,http://www.westdevon.gov.uk,-4.09094500000000,PL20 6DJ,2014-07-03,fhrs_5_en-GB,5,,FHRS,5
314279,36 The Square,Chagford,Devon,,Devonshire Dairy,Retailers - other,4613,5,,177117,10,,50.67306600000000,PI/000040829,081,eh@westdevon.gov.uk,West Devon,http://www.westdevon.gov.uk,-3.83983500000000,TQ13 8AB,2013-06-07,fhrs_4_en-GB,4,,FHRS,0
314280,Access To North Road Industrial Estate,Okehampton,Devon,,Devonshire Desserts Ltd,Manufacturers/packers,7839,,,197764,,,50.74487900000000,PI/000000894,081,eh@westdevon.gov.uk,West Devon,http://www.westdevon.gov.uk,-3.99723900000000,EX20 1BQ,2011-12-07,fhrs_exempt_en-GB,Exempt,,FHRS,
314281,Road Past Taw River Inn,Sticklepath,Devon,,Devonshire Inn,Pub/bar/nightclub,7843,5,,481562,5,,50.73046900000000,PI/000004810,081,eh@westdevon.gov.uk,West Devon,http://www.westdevon.gov.uk,-3.92631200000000,EX20 2NW,2012-11-28,fhrs_5_en-GB,5,,FHRS,5
314282,Dillans Kebab House,9A West Street,Okehampton,Devon,Dillan Kebab,Takeaway/sandwich shop,7844,0,,464817,0,,50.73868700000000,PI/000001642,081,eh@westdevon.gov.uk,West Devon,http://www.westdevon.gov.uk,-4.00382100000000,EX20 1HQ,2014-04-03,fhrs_4_en-GB,4,,FHRS,10
314283,Dingles Heritage Fairground,Milford Farm,Road To Milford Farm,Lifton,Dingles Fairground Heritage Centre,Restaurant/Cafe/Canteen,1,5,,165414,0,,50.66190600000000,PI/000007978,081,eh@westdevon.gov.uk,West Devon,http://www.westdevon.gov.uk,-4.24594100000000,PL16 0AT,2013-03-14,fhrs_5_en-GB,5,,FHRS,0
314284,5 Paddons Row,Tavistock,Devon,,Donnellas Coffee House,Restaurant/Cafe/Canteen,1,0,,430618,0,,50.55141300000000,PI/000015056,081,eh@westdevon.gov.uk,West Devon,http://www.westdevon.gov.uk,-4.14334700000000,PL19 0HF,2014-10-03,fhrs_5_en-GB,5,,FHRS,0
314285,,,,,Dot - Teas,Other catering premises,7841,0,,441401,0,,,PI/000023805,081,eh@westdevon.gov.uk,West Devon,http://www.westdevon.gov.uk,,,2012-08-15,fhrs_5_en-GB,5,,FHRS,0
314286,The Village,Buckland Monachorum,Devon,,Drake Manor Inn,Pub/bar/nightclub,7843,0,,464828,0,,50.49490000000000,PI/000006933,081,eh@westdevon.gov.uk,West Devon,http://www.westdevon.gov.uk,-4.13026800000000,PL20 7NA,2014-07-02,fhrs_5_en-GB,5,,FHRS,5
314287,Road Past Netherton House,Drewsteignton,Devon,,Drewsteignton Post Office,Retailers - other,4613,0,,485253,0,,50.70334500000000,PI/000012694,081,eh@westdevon.gov.uk,West Devon,http://www.westdevon.gov.uk,-3.79155200000000,EX6 6QN,2012-12-06,fhrs_5_en-GB,5,,FHRS,0
314288,Road Past Duke Of York Inn,Iddesleigh,Devon,,Duke Of York,Hotel/bed & breakfast/guest house,7842,10,,612509,10,,50.85589400000000,PI/000041904,081,eh@westdevon.gov.uk,West Devon,http://www.westdevon.gov.uk,-4.03333800000000,EX19 8BG,2013-10-22,fhrs_3_en-GB,3,,FHRS,10
314289,6 The Market,Tavistock,Devon,,Dukes 2 Go,Restaurant/Cafe/Canteen,1,5,,464875,0,,50.55011600000000,PI/000041283,081,eh@westdevon.gov.uk,West Devon,http://www.westdevon.gov.uk,-4.14347200000000,PL19 0AL,2012-10-09,fhrs_5_en-GB,5,,FHRS,0
314290,8-11 The Market,Tavistock,Devon,,Dukes Coffee House,Restaurant/Cafe/Canteen,1,5,,464876,0,,50.55011600000000,PI/000041284,081,eh@westdevon.gov.uk,West Devon,http://www.westdevon.gov.uk,-4.14347200000000,PL19 0AL,2012-10-09,fhrs_5_en-GB,5,,FHRS,0
314291,Road From Clapper Bridge To The Pump House,Postbridge,Devon,,East Dart Hotel,Pub/bar/nightclub,7843,0,,410475,0,,50.59509200000000,PI/000008306,081,eh@westdevon.gov.uk,West Devon,http://www.westdevon.gov.uk,-3.90132200000000,PL20 6TJ,2014-03-21,fhrs_5_en-GB,5,,FHRS,5
314292,Road Past Middle Raddon,Lewdown,Devon,,East Raddon,Hotel/bed & breakfast/guest house,7842,0,,576979,0,,50.64891400000000,PI/000007813,081,eh@westdevon.gov.uk,West Devon,http://www.westdevon.gov.uk,-4.19329100000000,EX20 4PW,2013-07-02,fhrs_5_en-GB,5,,FHRS,0
314293,Easterbrook Farm,Road From Beare Farm To Farthingland Cross,Exbourne,Devon,Easterbrook Farm Ltd,Hospitals/Childcare/Caring Premises,5,0,,410469,0,,50.82110100000000,PI/000003014,081,eh@westdevon.gov.uk,West Devon,http://www.westdevon.gov.uk,-4.00716400000000,EX20 3QY,2014-12-12,fhrs_5_en-GB,5,,FHRS,5
314294,,,,,Eat like a Greek,Mobile caterer,7846,0,,622355,0,,,PI/000025802,081,eh@westdevon.gov.uk,West Devon,http://www.westdevon.gov.uk,,,2013-11-25,fhrs_5_en-GB,5,,FHRS,5
314295,Trimal House,Access To Yelverton Business Park,Crapstone,Devon,Edgemoor Nursery School,Hospitals/Childcare/Caring Premises,5,10,,430629,5,,,PI/000041221,081,eh@westdevon.gov.uk,West Devon,http://www.westdevon.gov.uk,,,2012-07-04,fhrs_4_en-GB,4,,FHRS,0
314296,,,,,El Gaucho,Mobile caterer,7846,0,,464883,0,,,PI/000041323,081,eh@westdevon.gov.uk,West Devon,http://www.westdevon.gov.uk,,,2014-03-13,fhrs_5_en-GB,5,,FHRS,0
314297,The Elephants Nest Inn,Road From Dowerland Farm To Dingles Farm,Mary Tavy,Devon,Elephants Nest Inn,Pub/bar/nightclub,7843,5,,612498,5,,50.60143400000000,PI/000008569,081,eh@westdevon.gov.uk,West Devon,http://www.westdevon.gov.uk,-4.09263900000000,PL19 9NQ,2013-11-07,fhrs_4_en-GB,4,,FHRS,10
314298,19 West Street,Tavistock,Devon,,Ellis's Bakery,Retailers - other,4613,5,,576982,5,,50.54921600000000,PI/000011698,081,eh@westdevon.gov.uk,West Devon,http://www.westdevon.gov.uk,-4.14786300000000,PL19 8AN,2013-06-04,fhrs_5_en-GB,5,,FHRS,5
314299,Okehampton Castle,Castle Lane,Okehampton,Devon,English Heritage,Retailers - other,4613,,,666537,,,50.73318900000000,PI/000041946,081,eh@westdevon.gov.uk,West Devon,http://www.westdevon.gov.uk,-4.00602400000000,EX20 1JA,2014-05-08,fhrs_exempt_en-GB,Exempt,,FHRS,
314300,Road From Farthingland Cross To Red Lion,Exbourne,Devon,,Exbourne Church Of England Primary School,Restaurant/Cafe/Canteen,1,5,,162478,0,,50.79950400000000,PI/000003002,081,eh@westdevon.gov.uk,West Devon,http://www.westdevon.gov.uk,-3.98478100000000,EX20 3SQ,2013-09-23,fhrs_4_en-GB,4,,FHRS,10
314301,Exbourne Methodist Chapel,Fore Street,Exbourne,Devon,Exbourne Pre-school,Hospitals/Childcare/Caring Premises,5,0,,464820,0,,50.80155300000000,PI/000003059,081,eh@westdevon.gov.uk,West Devon,http://www.westdevon.gov.uk,-3.98432800000000,EX20 3RU,2012-10-22,fhrs_5_en-GB,5,,FHRS,0
314302,North Alfordon Farm,Road From Glendon Cross To Crossways Cross,Okehampton,Devon,Farmer Luxtons,Retailers - other,4613,10,,492731,15,,50.74905000000000,PI/000024792,081,eh@westdevon.gov.uk,West Devon,http://www.westdevon.gov.uk,-3.96672600000000,EX20 1RX,2012-12-13,fhrs_2_en-GB,2,,FHRS,5
314303,Wadland Barton,Road From Venndown Gates To Kennel Bridge Cross,Northlew,Devon,Farmhouse Fare,Mobile caterer,7846,0,,161696,0,,50.75101200000000,PI/000001783,081,eh@westdevon.gov.uk,West Devon,http://www.westdevon.gov.uk,-4.12098100000000,EX20 3PF,2013-02-20,fhrs_5_en-GB,5,,FHRS,0
314304,Nethercott House,Road From Week Moor Cross To River Torridge,Iddesleigh,Devon,Farms For City Children,Hotel/bed & breakfast/guest house,7842,5,,464823,5,,50.84228500000000,PI/000003567,081,eh@westdevon.gov.uk,West Devon,http://www.westdevon.gov.uk,-4.04368400000000,EX19 8SN,2012-10-12,fhrs_5_en-GB,5,,FHRS,5
314305,,,,,Fern Cottage,Other catering premises,7841,0,,583368,0,,,PI/000003541,081,eh@westdevon.gov.uk,West Devon,http://www.westdevon.gov.uk,,,2013-08-29,fhrs_5_en-GB,5,,FHRS,0
314306,14B Market Street,Tavistock,Devon,,Filipino Cuisine,Takeaway/sandwich shop,7844,10,,643905,0,,50.55075000000000,PI/000041918,081,eh@westdevon.gov.uk,West Devon,http://www.westdevon.gov.uk,-4.14663400000000,PL19 0DB,2014-01-16,fhrs_4_en-GB,4,,FHRS,5
314307,Road From Couples Corner To Fingle Bridge Inn,Drewsteignton,Devon,,Fingle Bridge Inn,Pub/bar/nightclub,7843,0,,162439,5,,50.69563600000000,PI/000002913,081,eh@westdevon.gov.uk,West Devon,http://www.westdevon.gov.uk,-3.78046900000000,EX6 6PW,2013-08-29,fhrs_4_en-GB,4,,FHRS,10
314308,Fox And Hounds Hotel,Road From Keasts House To Fox And Hounds Hotel,Bridestowe,Devon,Fox & Hounds Hotel,Hotel/bed & breakfast/guest house,7842,0,,520812,0,,50.66428900000000,PI/000002124,081,eh@westdevon.gov.uk,West Devon,http://www.westdevon.gov.uk,-4.08637600000000,EX20 4HF,2013-03-27,fhrs_5_en-GB,5,,FHRS,0
314309,Two Bridges Road,Princetown,Devon,,Fox Tor Cafe,Restaurant/Cafe/Canteen,1,0,,235419,0,,50.54482700000000,PI/000008428,081,eh@westdevon.gov.uk,West Devon,http://www.westdevon.gov.uk,-3.98946400000000,PL20 6QS,2014-02-13,fhrs_5_en-GB,5,,FHRS,5
314310,,,,,Frankly Delicious,Other catering premises,7841,5,,612502,0,,,PI/000030832,081,eh@westdevon.gov.uk,West Devon,http://www.westdevon.gov.uk,,,2013-10-22,fhrs_5_en-GB,5,,FHRS,0
314311,Road From Friars Hele Cross To Bourna Farm,Meeth,Devon,,Friars Hele,Hotel/bed & breakfast/guest house,7842,5,,162840,0,,50.84814000000000,PI/000003750,081,eh@westdevon.gov.uk,West Devon,http://www.westdevon.gov.uk,-4.06922700000000,EX20 3QB,2011-04-11,fhrs_5_en-GB,5,,FHRS,5
314312,Unit 2,Pannier Market,The Market,Tavistock,Fudge-Tastic,Retailers - other,4613,0,,481574,0,,50.55002100000000,PI/000041328,081,eh@westdevon.gov.uk,West Devon,http://www.westdevon.gov.uk,-4.14421500000000,PL19 0AE,2012-11-14,fhrs_5_en-GB,5,,FHRS,0
314313,2 Town Barton,Road Heading Northwest From Slewhill Cross,South Tawton,Devon,Garden on a Plate,Other catering premises,7841,0,,485258,0,,50.73475400000000,PI/000023476,081,eh@westdevon.gov.uk,West Devon,http://www.westdevon.gov.uk,-3.91078600000000,EX20 2LP,2012-12-10,fhrs_5_en-GB,5,,FHRS,0
314314,5 Reddicliffe Mews,Lewdown,Devon,,Gems Homemade Cakes & Bakes,Takeaway/sandwich shop,7844,0,,235400,5,,50.65780800000000,PI/000023671,081,eh@westdevon.gov.uk,West Devon,http://www.westdevon.gov.uk,-4.20049700000000,EX20 4BQ,2012-03-07,fhrs_5_en-GB,5,,FHRS,0
314315,Road From Gidleigh Lodge To Factory Cross,Chagford,Devon,,Gidleigh Park Hotel,Hotel/bed & breakfast/guest house,7842,5,,171706,5,,50.67460400000000,PI/000021112,081,eh@westdevon.gov.uk,West Devon,http://www.westdevon.gov.uk,-3.86866900000000,TQ13 8HH,2013-06-14,fhrs_5_en-GB,5,,FHRS,5
314316,Gooseford Farm,Road Past Gooseford Farm,Whiddon Down,Devon,Gooseford Farm B&B,Hotel/bed & breakfast/guest house,7842,0,,344798,0,,50.71004000000000,PI/000005347,081,eh@westdevon.gov.uk,West Devon,http://www.westdevon.gov.uk,-3.87757100000000,EX20 2QQ,2012-03-28,fhrs_5_en-GB,5,,FHRS,0
314317,Grange Farm,Road Heading Southeast From East Down Cross,Inwardleigh,Devon,Grange Equestrian Centre & Cafe,Pub/bar/nightclub,7843,5,,612501,0,,50.75040800000000,PI/000019936,081,eh@westdevon.gov.uk,West Devon,http://www.westdevon.gov.uk,-4.05377000000000,EX20 3DA,2013-05-23,fhrs_5_en-GB,5,,FHRS,5
314318,Flat B,8 High Street,North Tawton,Devon,Graylings Fish & Chips,Restaurant/Cafe/Canteen,1,0,,495855,0,,50.79891200000000,PI/000004163,081,eh@westdevon.gov.uk,West Devon,http://www.westdevon.gov.uk,-3.89716800000000,EX20 2HF,2015-01-08,fhrs_5_en-GB,5,,FHRS,5
314319,North Park,Fore Street,North Tawton,Devon,Gregory Distribution Ltd (milk only),Distributors/Transporters,7,5,,171804,0,,50.79973300000000,PI/000021383,081,eh@westdevon.gov.uk,West Devon,http://www.westdevon.gov.uk,-3.90358700000000,EX20 2EB,2014-06-10,fhrs_5_en-GB,5,,FHRS,0
314320,20 Friars Walk,Tavistock,Devon,,Grub Up Catering,Mobile caterer,7846,10,,464837,0,,50.53502600000000,PI/000010339,081,eh@westdevon.gov.uk,West Devon,http://www.westdevon.gov.uk,-4.13060800000000,PL19 9PT,2014-08-18,fhrs_4_en-GB,4,,FHRS,10
314321,Road From Gulworthy Cross To Rock Cross,Gulworthy,Devon,,Gulworthy Primary School,School/college/university,7845,0,,167823,0,,50.53422200000000,PI/000012154,081,eh@westdevon.gov.uk,West Devon,http://www.westdevon.gov.uk,-4.19228400000000,PL19 8JA,2014-06-03,fhrs_5_en-GB,5,,FHRS,5
314322,The Halfway House,Road From Anderton Lane To Grenofen Cross,Grenofen,Devon,Halfway House Inn,Pub/bar/nightclub,7843,5,,464853,0,,50.52472200000000,PI/000014055,081,eh@westdevon.gov.uk,West Devon,http://www.westdevon.gov.uk,-4.12695600000000,PL19 9ER,2014-06-19,fhrs_4_en-GB,4,,FHRS,10
314323,The Form,Long Ash,Road Past Coppicetown Lodge,Buckland Monachorum,Hare Fare,Other catering premises,7841,0,,168411,5,,50.50289900000000,PI/000013147,081,eh@westdevon.gov.uk,West Devon,http://www.westdevon.gov.uk,-4.12268900000000,PL20 7LL,2014-05-20,fhrs_5_en-GB,5,,FHRS,5
314324,66 Plymouth Road,Tavistock,Devon,,Harewood House,Hospitals/Childcare/Caring Premises,5,5,,167319,0,,50.54692100000000,PI/000011196,081,eh@westdevon.gov.uk,West Devon,http://www.westdevon.gov.uk,-4.15039900000000,PL19 8BU,2012-10-16,fhrs_5_en-GB,5,,FHRS,0
314325,Harford Bridge Holiday Park,Road From Halfbridge Cross To Harford Bridge,Peter Tavy,Devon,Harford Bridge Park,Other catering premises,7841,0,,666538,0,,50.57115600000000,PI/000041951,081,eh@westdevon.gov.uk,West Devon,http://www.westdevon.gov.uk,-4.11427400000000,PL19 9LS,2014-05-27,fhrs_5_en-GB,5,,FHRS,5
314326,The Harris Arms,Portgate,Road From Harris Arms To South View,Lewdown,Harris Arms,Pub/bar/nightclub,7843,5,,576988,0,,50.65182500000000,PI/000013672,081,eh@westdevon.gov.uk,West Devon,http://www.westdevon.gov.uk,-4.23462300000000,EX20 4PZ,2013-06-19,fhrs_5_en-GB,5,,FHRS,5
314327,Hart Care Nursing And Residential Home,Crapstone Road,Yelverton,Devon,Hartcare at Ravenscroft,Hospitals/Childcare/Caring Premises,5,5,,701932,0,,50.48808500000000,PI/000042740,081,eh@westdevon.gov.uk,West Devon,http://www.westdevon.gov.uk,-4.09693000000000,PL20 6BT,2014-09-09,fhrs_5_en-GB,5,,FHRS,5
314328,Road From Harvest Home To Rock Cottage,Gulworthy,Devon,,Harvest Home,Pub/bar/nightclub,7843,0,,167827,0,,50.53409000000000,PI/000012157,081,eh@westdevon.gov.uk,West Devon,http://www.westdevon.gov.uk,-4.18160900000000,PL19 8HY,2013-06-05,fhrs_5_en-GB,5,,FHRS,0
314329,The Cafe,9 Bridge Street,Hatherleigh,Devon,Hatherleigh Fish Bar,Takeaway/sandwich shop,7844,0,,643902,0,,50.82098400000000,PI/000024538,081,eh@westdevon.gov.uk,West Devon,http://www.westdevon.gov.uk,-4.07247000000000,EX20 3HU,2014-03-04,fhrs_5_en-GB,5,,FHRS,0
314330,Road To Abbattoir,Hatherleigh,Devon,,Hatherleigh Market,Retailers - other,4613,,,548516,,,50.82294800000000,PI/000012737,081,eh@westdevon.gov.uk,West Devon,http://www.westdevon.gov.uk,-4.07630500000000,EX20 3HT,2012-06-12,fhrs_exempt_en-GB,Exempt,,FHRS,
314331,Hatherleigh Care Village Hawthorn Park,Hatherleigh,Devon,,Hatherleigh Nursing Home,Hospitals/Childcare/Caring Premises,5,0,,485257,0,,50.81440300000000,PI/000023431,081,eh@westdevon.gov.uk,West Devon,http://www.westdevon.gov.uk,-4.08042600000000,EX20 3GZ,2014-02-12,fhrs_5_en-GB,5,,FHRS,0
314332,South Street,Hatherleigh,Devon,,Hatherleigh Primary School,School/college/university,7845,5,,168216,0,,50.81991200000000,PI/000012740,081,eh@westdevon.gov.uk,West Devon,http://www.westdevon.gov.uk,-4.07157000000000,EX20 3JB,2014-02-12,fhrs_5_en-GB,5,,FHRS,0
314333,Heatherside House Care Home,Princetown Road,Dousland,Devon,Heatherside House,Hospitals/Childcare/Caring Premises,5,0,,464846,0,,50.50167900000000,PI/000012443,081,eh@westdevon.gov.uk,West Devon,http://www.westdevon.gov.uk,-4.06660700000000,PL20 6NN,2014-03-31,fhrs_5_en-GB,5,,FHRS,0
314334,Unit 3A,Fatherford Farm,Road Past Fatherford Farm,Stockley,Herbs & Spices Ltd,Other catering premises,7841,10,,557495,0,,50.74148000000000,PI/000041413,081,eh@westdevon.gov.uk,West Devon,http://www.westdevon.gov.uk,-3.97770500000000,EX20 1QQ,2014-05-13,fhrs_4_en-GB,4,,FHRS,5
314335,The Coach House,Road From Factory Cross To Waye Cross,Chagford,Devon,Hey Mambo,Restaurant/Cafe/Canteen,1,5,,666536,0,,50.67375100000000,PI/000041925,081,eh@westdevon.gov.uk,West Devon,http://www.westdevon.gov.uk,-3.84996700000000,TQ13 8HF,2014-05-14,fhrs_5_en-GB,5,,FHRS,0
314336,Robleigh,8 Drake Villas,Tavistock,Devon,Hi - T's Fudge,Other catering premises,7841,,,197812,,,50.54530200000000,PI/000024747,081,eh@westdevon.gov.uk,West Devon,http://www.westdevon.gov.uk,-4.15333100000000,PL19 8DA,2015-02-11,fhrs_exempt_en-GB,Exempt,,FHRS,
314337,Village Hall,Road From Church Road To Holsworthy Bridge,Highampton,Devon,Highampton Pre-School,Hospitals/Childcare/Caring Premises,5,5,,197817,0,,50.82066300000000,PI/000021188,081,eh@westdevon.gov.uk,West Devon,http://www.westdevon.gov.uk,-4.14789000000000,EX21 5LE,2014-10-13,fhrs_5_en-GB,5,,FHRS,0
314338,Jubilee House,Road From Highampton Cross To Venton Cross,Highampton,Devon,Highampton Stores,Retailers - other,4613,5,,235377,0,,50.81772700000000,PI/000003526,081,eh@westdevon.gov.uk,West Devon,http://www.westdevon.gov.uk,-4.15442800000000,EX21 5LP,2014-09-12,fhrs_5_en-GB,5,,FHRS,0
314339,Road From Tongue End Cross To Bude Farm,Tongue End,Devon,,Higher Coombehead House,Hotel/bed & breakfast/guest house,7842,0,,163497,5,,50.73744900000000,PI/000004816,081,eh@westdevon.gov.uk,West Devon,http://www.westdevon.gov.uk,-3.95057900000000,EX20 1QL,2011-06-30,fhrs_5_en-GB,5,,FHRS,0
314340,Horsebridge House,Road From Horsebridge To Sydenham Cross,Horsebridge,Devon,Hobbs House Preserve Co,Other catering premises,7841,5,,622354,0,,50.55190100000000,PI/000017941,081,eh@westdevon.gov.uk,West Devon,http://www.westdevon.gov.uk,-4.25879200000000,PL19 8PJ,2013-10-30,fhrs_5_en-GB,5,,FHRS,0
314341,,,,,Hoity Toity,Other catering premises,7841,5,,485255,5,,,PI/000017098,081,eh@westdevon.gov.uk,West Devon,http://www.westdevon.gov.uk,,,2012-07-09,fhrs_5_en-GB,5,,FHRS,0
314342,Homer,Road Past The Old Rectory,Mary Tavy,Devon,Homer Maid,Other catering premises,7841,5,,165853,5,,50.59068900000000,PI/000008608,081,eh@westdevon.gov.uk,West Devon,http://www.westdevon.gov.uk,-4.11192800000000,PL19 9PP,2014-06-11,fhrs_5_en-GB,5,,FHRS,0
314343,16 Station Road,Horrabridge,Devon,,Honeys Bakery,Retailers - other,4613,5,,447688,5,,50.50927600000000,PI/000007455,081,eh@westdevon.gov.uk,West Devon,http://www.westdevon.gov.uk,-4.09942100000000,PL20 7SS,2014-05-21,fhrs_4_en-GB,4,,FHRS,10
314344,Walkhampton Road,Horrabridge,Devon,,Horrabridge Primary School,School/college/university,7845,0,,464829,0,,50.50767800000000,PI/000007300,081,eh@westdevon.gov.uk,West Devon,http://www.westdevon.gov.uk,-4.09724800000000,PL20 7SZ,2014-02-13,fhrs_5_en-GB,5,,FHRS,0
314345,Commercial Road,Horrabridge,Devon,,Horrabridge Stores,Retailers - supermarkets/hypermarkets,7840,0,,235381,0,,50.51036400000000,PI/000007205,081,eh@westdevon.gov.uk,West Devon,http://www.westdevon.gov.uk,-4.09745200000000,PL20 7QB,2014-02-13,fhrs_5_en-GB,5,,FHRS,5
314346,Road From Milton Green To Leigh Cross,Milton Abbot,Devon,,Hotel Endsleigh,Hotel/bed & breakfast/guest house,7842,0,,344806,5,,50.58078900000000,PI/000018195,081,eh@westdevon.gov.uk,West Devon,http://www.westdevon.gov.uk,-4.26719500000000,PL19 0PQ,2014-03-25,fhrs_5_en-GB,5,,FHRS,5
314347,Howells Butcher,28 The Market,Tavistock,Devon,Howell's Country Specials,Manufacturers/packers,7839,0,,167002,0,,50.55011600000000,PI/000010606,081,eh@westdevon.gov.uk,West Devon,http://www.westdevon.gov.uk,-4.14347200000000,PL19 0AL,2014-06-17,fhrs_5_en-GB,5,,FHRS,5
314348,Butcher Park Hill,Tavistock,Devon,,Hurdwick Golf Club,Restaurant/Cafe/Canteen,1,0,,430617,0,,50.56340000000000,PI/000013867,081,eh@westdevon.gov.uk,West Devon,http://www.westdevon.gov.uk,-4.15757400000000,PL19 0LL,2014-10-03,fhrs_5_en-GB,5,,FHRS,5
314349,8 Market Street,Tavistock,Devon,,I Love Candy/I Love Ice Cream,Retailers - other,4613,5,,173385,5,,50.55030900000000,PI/000025587,081,eh@westdevon.gov.uk,West Devon,http://www.westdevon.gov.uk,-4.14564000000000,PL19 0DA,2011-07-18,fhrs_5_en-GB,5,,FHRS,0
314350,18 Fore Street,Bere Alston,Devon,,J & S Downing,Retailers - other,4613,10,,693135,0,,50.47982200000000,PI/000018364,081,eh@westdevon.gov.uk,West Devon,http://www.westdevon.gov.uk,-4.18907400000000,PL20 7AD,2014-08-14,fhrs_4_en-GB,4,,FHRS,5
314351,7 Pepper Street,Tavistock,Devon,,J & S Downing,Retailers - other,4613,0,,707018,0,,50.55067000000000,PI/000023313,081,eh@westdevon.gov.uk,West Devon,http://www.westdevon.gov.uk,-4.14464000000000,PL19 0BD,2014-10-03,fhrs_5_en-GB,5,,FHRS,0
314352,2 Tuell Cottages,Road From Tuell Cottages Past Tuell Farm,Milton Abbot,Devon,J Lawrence,Other catering premises,7841,,,468194,,,50.57795200000000,PI/000028495,081,eh@westdevon.gov.uk,West Devon,http://www.westdevon.gov.uk,-4.23951400000000,PL19 8PY,2012-11-12,fhrs_exempt_en-GB,Exempt,,FHRS,
314353,14 St James Street,Okehampton,Devon,,'J' Street Diner,Restaurant/Cafe/Canteen,1,5,,235378,5,,50.73836100000000,PI/000001320,081,eh@westdevon.gov.uk,West Devon,http://www.westdevon.gov.uk,-4.00237600000000,EX20 1DH,2013-06-11,fhrs_4_en-GB,4,,FHRS,10
314354,17 West Street,Tavistock,Devon,,Jack Chams,Pub/bar/nightclub,7843,0,,430619,0,,50.54921600000000,PI/000016224,081,eh@westdevon.gov.uk,West Devon,http://www.westdevon.gov.uk,-4.14786300000000,PL19 8AN,2014-05-20,fhrs_5_en-GB,5,,FHRS,0
314355,Unit 3,Pannier Market,The Market,Tavistock,Janes Cakes,Retailers - other,4613,10,,172655,10,,50.55002100000000,PI/000023687,081,eh@westdevon.gov.uk,West Devon,http://www.westdevon.gov.uk,-4.14421500000000,PL19 0AE,2013-06-04,fhrs_4_en-GB,4,,FHRS,0
314356,3 Buckland Terrace,Yelverton,Devon,,Jasmine Restaurant,Restaurant/Cafe/Canteen,1,5,,683305,5,,50.49271100000000,PI/000017182,081,eh@westdevon.gov.uk,West Devon,http://www.westdevon.gov.uk,-4.09180500000000,PL20 6AD,2014-06-05,fhrs_5_en-GB,5,,FHRS,5
314357,,,,,Jean's Kitchen,Other catering premises,7841,0,,430620,0,,,PI/000016532,081,eh@westdevon.gov.uk,West Devon,http://www.westdevon.gov.uk,,,2012-07-26,fhrs_5_en-GB,5,,FHRS,0
314358,North Wyke House,North Wyke,Road From Greenslade Bridge To Wyke Moor Cross,Sampford Courtenay,Kan Kater,Restaurant/Cafe/Canteen,1,5,,163723,5,,50.76950700000000,PI/000005189,081,eh@westdevon.gov.uk,West Devon,http://www.westdevon.gov.uk,-3.90129600000000,EX20 2SB,2014-04-03,fhrs_5_en-GB,5,,FHRS,0
314359,42 Brook Street,Tavistock,Devon,,Karen's,Restaurant/Cafe/Canteen,1,0,,520822,5,,50.55152400000000,PI/000041389,081,eh@westdevon.gov.uk,West Devon,http://www.westdevon.gov.uk,-4.14219400000000,PL19 0HE,2014-08-15,fhrs_5_en-GB,5,,FHRS,5
314360,Kelly College Preparatory School,Parkwood Road,Tavistock,Devon,Kelly College Junior School,School/college/university,7845,5,,167216,0,,50.56155600000000,PI/000010968,081,eh@westdevon.gov.uk,West Devon,http://www.westdevon.gov.uk,-4.12879800000000,PL19 0JS,2012-10-18,fhrs_5_en-GB,5,,FHRS,0
314361,Kelly House,Road From Jay House To Timberpiece,Kelly,Devon,Kelly House Enterprises,Restaurant/Cafe/Canteen,1,5,,344813,5,,50.61023000000000,PI/000024803,081,eh@westdevon.gov.uk,West Devon,http://www.westdevon.gov.uk,-4.27075900000000,PL16 0HH,2012-04-04,fhrs_4_en-GB,4,,FHRS,10
314362,Village Hall,Road From Kelly Cross To Borough Cross,Kelly,Devon,Kelly Village Hall,Other catering premises,7841,0,,576978,0,,50.61276700000000,PI/000007601,081,eh@westdevon.gov.uk,West Devon,http://www.westdevon.gov.uk,-4.25356500000000,PL16 0HJ,2013-12-03,fhrs_5_en-GB,5,,FHRS,0
314363,1 Kempley Road,Okehampton,Devon,,Kempleys Catch,Takeaway/sandwich shop,7844,0,,160772,0,,50.73793700000000,PI/000000599,081,eh@westdevon.gov.uk,West Devon,http://www.westdevon.gov.uk,-4.00139400000000,EX20 1DS,2014-03-04,fhrs_5_en-GB,5,,FHRS,0
314364,Kent House Care Home,George Street,Okehampton,Devon,Kent House Residential Home,Hospitals/Childcare/Caring Premises,5,0,,235393,5,,50.73797800000000,PI/000000484,081,eh@westdevon.gov.uk,West Devon,http://www.westdevon.gov.uk,-4.00319600000000,EX20 1HR,2014-09-01,fhrs_5_en-GB,5,,FHRS,5
314365,Kilworthy Road,Tavistock,Devon,,Kilworthy Farm,Hotel/bed & breakfast/guest house,7842,5,,168806,5,,50.57274200000000,PI/000013898,081,eh@westdevon.gov.uk,West Devon,http://www.westdevon.gov.uk,-4.14560000000000,PL19 0JN,2013-03-11,fhrs_4_en-GB,4,,FHRS,10
314366,St James Street,Okehampton,Devon,,Kings Arms,Pub/bar/nightclub,7843,0,,464814,0,,50.73927500000000,PI/000001288,081,eh@westdevon.gov.uk,West Devon,http://www.westdevon.gov.uk,-4.00152200000000,EX20 1DW,2014-05-30,fhrs_5_en-GB,5,,FHRS,0
314367,Kings Arms,Road From Shilhayes To Zeal Head Cross,South Zeal,Devon,Kings Arms Inn,Pub/bar/nightclub,7843,20,,481564,5,,50.72698000000000,PI/000005047,081,eh@westdevon.gov.uk,West Devon,http://www.westdevon.gov.uk,-3.91535800000000,EX20 2JP,2014-06-18,fhrs_1_en-GB,1,,FHRS,10
314368,6 King Street,Tavistock,Devon,,Kings Kebab & Pizza House,Takeaway/sandwich shop,7844,5,,235394,10,,50.55024300000000,PI/000041171,081,eh@westdevon.gov.uk,West Devon,http://www.westdevon.gov.uk,-4.14730300000000,PL19 0DS,2013-06-03,fhrs_4_en-GB,4,,FHRS,5
314369,,,,,Kirsty's Kitchen,Other catering premises,7841,5,,622351,0,,,PI/000004333,081,eh@westdevon.gov.uk,West Devon,http://www.westdevon.gov.uk,,,2013-11-12,fhrs_5_en-GB,5,,FHRS,0
314370,Crapstone Road,Yelverton,Devon,,Knightstone,Hotel/bed & breakfast/guest house,7842,0,,576990,0,,50.48808500000000,PI/000024354,081,eh@westdevon.gov.uk,West Devon,http://www.westdevon.gov.uk,-4.09693000000000,PL20 6BT,2013-07-23,fhrs_4_en-GB,4,,FHRS,10
314371,Lower Maddaford,Road From Glenover To Southcott Cross,Southcott,Devon,Lakeside Residential Home,Hospitals/Childcare/Caring Premises,5,5,,235390,0,,50.73698300000000,PI/000025334,081,eh@westdevon.gov.uk,West Devon,http://www.westdevon.gov.uk,-4.05922000000000,EX20 4NL,2013-10-15,fhrs_5_en-GB,5,,FHRS,5
314372,Lakesland,Road From Splatts Cross To Park Farm,Broadwoodkelly,Devon,Lakesland Farm (B&B),Hotel/bed & breakfast/guest house,7842,0,,375665,0,,50.83016100000000,PI/000041156,081,eh@westdevon.gov.uk,West Devon,http://www.westdevon.gov.uk,-3.98439100000000,EX19 8EQ,2014-10-17,fhrs_5_en-GB,5,,FHRS,0
314373,Langstone Manor,Road From Warrens Cross To Oakley Cottage,Moortown,Devon,Langstone Manor Park,Restaurant/Cafe/Canteen,1,5,,540068,0,,,PI/000012605,081,eh@westdevon.gov.uk,West Devon,http://www.westdevon.gov.uk,,,2013-03-27,fhrs_5_en-GB,5,,FHRS,0
314374,Parklands Leisure Centre,Simmons Park,Okehampton,Devon,Leisure in the Community Harpers,Restaurant/Cafe/Canteen,1,0,,622362,0,,50.73408200000000,PI/000041911,081,eh@westdevon.gov.uk,West Devon,http://www.westdevon.gov.uk,-3.99962800000000,EX20 1EP,2013-11-28,fhrs_5_en-GB,5,,FHRS,5
314375,Road From Huddispitt Cross To Cross Roads,Lewdown,Devon,,Lewtrenchard Church Of England Primary School,School/college/university,7845,5,,576987,0,,50.65997800000000,PI/000013337,081,eh@westdevon.gov.uk,West Devon,http://www.westdevon.gov.uk,-4.18560000000000,EX20 4DP,2013-07-02,fhrs_5_en-GB,5,,FHRS,5
314376,Lewtrenchard Church Of England Primary School,Road From Huddispitt Cross To Cross Roads,Lewdown,Devon,Lewtrenchard Pre-School Group,School/college/university,7845,0,,464865,0,,50.65997800000000,PI/000024731,081,eh@westdevon.gov.uk,West Devon,http://www.westdevon.gov.uk,-4.18560000000000,EX20 4DP,2012-10-15,fhrs_5_en-GB,5,,FHRS,0
314377,142-152 Plymouth Road,Tavistock,Devon,,Lidl,Retailers - supermarkets/hypermarkets,7840,0,,710085,0,,50.53728500000000,PI/000023500,081,eh@westdevon.gov.uk,West Devon,http://www.westdevon.gov.uk,-4.14567000000000,PL19 9DS,2014-09-23,fhrs_5_en-GB,5,,FHRS,0
314378,Lifton Hall Hotel,New Road,Lifton,Devon,Lifton Hall at Home,Takeaway/sandwich shop,7844,0,,177119,0,,50.64336200000000,PI/000040831,081,eh@westdevon.gov.uk,West Devon,http://www.westdevon.gov.uk,-4.28194600000000,PL16 0DR,2011-05-18,fhrs_5_en-GB,5,,FHRS,0
314379,New Road,Lifton,Devon,,Lifton Hall Hotel,Hotel/bed & breakfast/guest house,7842,0,,165398,0,,50.64336200000000,PI/000007952,081,eh@westdevon.gov.uk,West Devon,http://www.westdevon.gov.uk,-4.28194600000000,PL16 0DR,2013-06-12,fhrs_5_en-GB,5,,FHRS,0
314380,North Road,Lifton,Devon,,Lifton Primary School,School/college/university,7845,0,,165469,0,,50.64509200000000,PI/000008073,081,eh@westdevon.gov.uk,West Devon,http://www.westdevon.gov.uk,-4.27903100000000,PL16 0EH,2013-06-12,fhrs_5_en-GB,5,,FHRS,0
314381,Lifton Strawberry Fields,Road Past Lifton Park,Lifton,Devon,Lifton Strawberry Fields Shop,Retailers - other,4613,5,,165443,5,,50.63837500000000,PI/000008031,081,eh@westdevon.gov.uk,West Devon,http://www.westdevon.gov.uk,-4.29085500000000,PL16 0DE,2014-03-28,fhrs_4_en-GB,4,,FHRS,10
314382,Post Office,Fore Street,Lifton,Devon,Lifton Supply Stores & Post Office,Retailers - other,4613,0,,165422,0,,50.64324100000000,PI/000007997,081,eh@westdevon.gov.uk,West Devon,http://www.westdevon.gov.uk,-4.28303000000000,PL16 0AA,2013-06-12,fhrs_5_en-GB,5,,FHRS,0
314383,Road From Belstone Cross To Skaigh Lodge,Belstone,Devon,,Little Gables,Other catering premises,7841,,,643903,,,50.72769600000000,PI/000026919,081,eh@westdevon.gov.uk,West Devon,http://www.westdevon.gov.uk,-3.94811900000000,EX20 1RD,2014-03-24,fhrs_exempt_en-GB,Exempt,,FHRS,
314384,35 Fore Street,Okehampton,Devon,,Little Red Rooster Cafe,Restaurant/Cafe/Canteen,1,10,,235417,5,,50.73907000000000,PI/000018999,081,eh@westdevon.gov.uk,West Devon,http://www.westdevon.gov.uk,-4.00244900000000,EX20 1HB,2013-06-11,fhrs_4_en-GB,4,,FHRS,5
314385,Little Widefield,Road Heading Southeast From East Down Cross,Inwardleigh,Devon,Little Widefield Farm,Hotel/bed & breakfast/guest house,7842,0,,485259,0,,50.75040800000000,PI/000024881,081,eh@westdevon.gov.uk,West Devon,http://www.westdevon.gov.uk,-4.05377000000000,EX20 3DA,2012-12-05,fhrs_5_en-GB,5,,FHRS,5
314386,Bridge Garage,Bridge Street,Hatherleigh,Devon,Londis Convenience Stores,Retailers - other,4613,0,,410470,5,,50.81885200000000,PI/000003193,081,eh@westdevon.gov.uk,West Devon,http://www.westdevon.gov.uk,-4.07251700000000,EX20 3JA,2012-06-08,fhrs_4_en-GB,4,,FHRS,10
314387,Lords Of Princetown,Tavistock Road,Princetown,Devon,Lords Cafe,Restaurant/Cafe/Canteen,1,5,,576989,0,,50.54469900000000,PI/000023892,081,eh@westdevon.gov.uk,West Devon,http://www.westdevon.gov.uk,-3.99173100000000,PL20 6QE,2013-06-26,fhrs_5_en-GB,5,,FHRS,5
314388,The Mumbles,57 Broad Park Road,Bere Alston,Devon,Lotties Cakes,Other catering premises,7841,0,,176641,5,,50.48282200000000,PI/000038206,081,eh@westdevon.gov.uk,West Devon,http://www.westdevon.gov.uk,-4.18929700000000,PL20 7DT,2014-06-10,fhrs_5_en-GB,5,,FHRS,0
314389,Lovaton Farm,Lane To Lovaton Farm,South Tawton,Devon,Lovaton Farm Partnership,Hotel/bed & breakfast/guest house,7842,5,,163621,0,,50.73398100000000,PI/000005013,081,eh@westdevon.gov.uk,West Devon,http://www.westdevon.gov.uk,-3.87646000000000,EX20 2RA,2011-07-07,fhrs_5_en-GB,5,,FHRS,0
314390,Lydford Caravan And Camping Park,Road From Battishill Farm To Hawthorn Park,Lydford,Devon,Lydford Caravan & Camping Park,Retailers - other,4613,5,,168580,0,,50.65098800000000,PI/000013446,081,eh@westdevon.gov.uk,West Devon,http://www.westdevon.gov.uk,-4.10679500000000,EX20 4BE,2014-06-17,fhrs_5_en-GB,5,,FHRS,0
314391,Road From Lydford School To Dartmoor Inn,Lydford,Devon,,Lydford Country House,Hotel/bed & breakfast/guest house,7842,10,,170727,0,,50.64856600000000,PI/000018432,081,eh@westdevon.gov.uk,West Devon,http://www.westdevon.gov.uk,-4.09843900000000,EX20 4AU,2013-06-13,fhrs_4_en-GB,4,,FHRS,10
314392,School Road,Lydford,Devon,,Lydford Primary School,School/college/university,7845,0,,576980,5,,50.64856600000000,PI/000008454,081,eh@westdevon.gov.uk,West Devon,http://www.westdevon.gov.uk,-4.09843900000000,EX20 4AU,2013-06-13,fhrs_5_en-GB,5,,FHRS,0
314393,Lane To Southern Railway Cottages,Lydford,Devon,,Lydford Station Stables,Restaurant/Cafe/Canteen,1,0,,344809,0,,50.62865500000000,PI/000019976,081,eh@westdevon.gov.uk,West Devon,http://www.westdevon.gov.uk,-4.11873400000000,EX20 4BL,2012-04-23,fhrs_5_en-GB,5,,FHRS,0
314394,Road To Lydgate House,Postbridge,Devon,,Lydgate House Hotel,Hotel/bed & breakfast/guest house,7842,0,,169108,0,,50.59319700000000,PI/000014442,081,eh@westdevon.gov.uk,West Devon,http://www.westdevon.gov.uk,-3.90555500000000,PL20 6TJ,2014-07-02,fhrs_5_en-GB,5,,FHRS,0
314395,31 Plymouth Road,Tavistock,Devon,,Lyndale Residential Home,Hospitals/Childcare/Caring Premises,5,5,,464841,0,,50.54735800000000,PI/000011174,081,eh@westdevon.gov.uk,West Devon,http://www.westdevon.gov.uk,-4.14813200000000,PL19 8BS,2012-10-12,fhrs_5_en-GB,5,,FHRS,0
314396,,,,,Made in Tavi,Other catering premises,7841,0,,430608,5,,,PI/000011830,081,eh@westdevon.gov.uk,West Devon,http://www.westdevon.gov.uk,,,2012-07-05,fhrs_5_en-GB,5,,FHRS,0
314397,West Fishleigh,Road Past Hele Bridge,Hatherleigh,Devon,Made-Well,Restaurant/Cafe/Canteen,1,10,,344815,10,,50.83195300000000,PI/000041172,081,eh@westdevon.gov.uk,West Devon,http://www.westdevon.gov.uk,-4.07521400000000,EX20 3QA,2014-12-12,fhrs_3_en-GB,3,,FHRS,5
314398,37 Fore Street,Okehampton,Devon,,Mai ' da - The Feast,Takeaway/sandwich shop,7844,5,,683313,5,,50.73907000000000,PI/000041978,081,eh@westdevon.gov.uk,West Devon,http://www.westdevon.gov.uk,-4.00244900000000,EX20 1HB,2014-06-23,fhrs_5_en-GB,5,,FHRS,5
314399,Whitelady House,Manor Farm,Road From The Old Chapel To Was Tor Cross,Lydford,Manor Farm Kitchen,Other catering premises,7841,0,,410478,0,,50.62865500000000,PI/000013480,081,eh@westdevon.gov.uk,West Devon,http://www.westdevon.gov.uk,-4.11873400000000,EX20 4BL,2014-10-21,fhrs_5_en-GB,5,,FHRS,0
314400,Road From Bowerland Cross To Fowley Cross,Okehampton,Devon,,Manor House Hotel,Hotel/bed & breakfast/guest house,7842,0,,163330,0,,50.73067800000000,PI/000004512,081,eh@westdevon.gov.uk,West Devon,http://www.westdevon.gov.uk,-4.04341200000000,EX20 4NA,2014-03-21,fhrs_5_en-GB,5,,FHRS,5
314401,4 Church Court,St James Street,Okehampton,Devon,Marions,Restaurant/Cafe/Canteen,1,10,,172252,0,,50.73893900000000,PI/000022644,081,eh@westdevon.gov.uk,West Devon,http://www.westdevon.gov.uk,-4.00167800000000,EX20 1DJ,2013-09-30,fhrs_4_en-GB,4,,FHRS,10
314402,2 Whitchurch Road,Tavistock,Devon,,Market Inn,Pub/bar/nightclub,7843,20,,693143,10,,50.54465300000000,PI/000042594,081,eh@westdevon.gov.uk,West Devon,http://www.westdevon.gov.uk,-4.14463500000000,PL19 9BB,2014-08-18,fhrs_1_en-GB,1,,FHRS,10
314403,Mary Tavy And Brentor Primary School,Road From Dowerland Farm To Kent House,Mary Tavy,Devon,Mary Tavy & Brentor C P School,School/college/university,7845,5,,165841,10,,50.59081100000000,PI/000008586,081,eh@westdevon.gov.uk,West Devon,http://www.westdevon.gov.uk,-4.10917900000000,PL19 9PR,2014-09-11,fhrs_3_en-GB,3,,FHRS,10
314404,Post Office Stores,Road From Walford House To Mary Tavy Inn,Mary Tavy,Devon,Mary Tavy Post Office & Stores,Retailers - other,4613,10,,643907,5,,50.59512300000000,PI/000041939,081,eh@westdevon.gov.uk,West Devon,http://www.westdevon.gov.uk,-4.11739700000000,PL19 9PA,2014-05-27,fhrs_3_en-GB,3,,FHRS,10
314405,35 Plymouth Road,Tavistock,Devon,,Meadowside Residential Home,Hospitals/Childcare/Caring Premises,5,5,,235407,5,,50.54735800000000,PI/000011177,081,eh@westdevon.gov.uk,West Devon,http://www.westdevon.gov.uk,-4.14813200000000,PL19 8BS,2014-02-17,fhrs_5_en-GB,5,,FHRS,5
314406,Road From Dogmarsh Bridge To Easton Cross,Chagford,Devon,,Mill End Hotel,Hotel/bed & breakfast/guest house,7842,5,,520813,5,,50.68870800000000,PI/000002729,081,eh@westdevon.gov.uk,West Devon,http://www.westdevon.gov.uk,-3.82367000000000,TQ13 8JN,2014-09-19,fhrs_5_en-GB,5,,FHRS,5
314407,Milton Abbot Primary School,Road Past Milton Abbot Primary School,Milton Abbot,Devon,Milton Abbot School,School/college/university,7845,0,,168631,0,,50.58821700000000,PI/000013543,081,eh@westdevon.gov.uk,West Devon,http://www.westdevon.gov.uk,-4.24730600000000,PL19 0PS,2013-06-12,fhrs_5_en-GB,5,,FHRS,0
314408,Long Ash Garden Centre,Road Past Coppicetown Lodge,Buckland Monachorum,Devon,Moor T @ Long Ash,Restaurant/Cafe/Canteen,1,5,,168415,0,,50.50289900000000,PI/000013156,081,eh@westdevon.gov.uk,West Devon,http://www.westdevon.gov.uk,-4.12268900000000,PL20 7LL,2013-10-25,fhrs_5_en-GB,5,,FHRS,0
314409,Road From Bedford House To Magpie Park,Magpie,Devon,,Moorgate Residential Home,Hospitals/Childcare/Caring Premises,5,0,,481570,0,,50.51278100000000,PI/000013292,081,eh@westdevon.gov.uk,West Devon,http://www.westdevon.gov.uk,-4.11098700000000,PL20 7RZ,2014-05-21,fhrs_5_en-GB,5,,FHRS,0
314410,26 Buddle Close,Tavistock,Devon,,Moorland Coffee,Other catering premises,7841,0,,172360,0,,50.55485000000000,PI/000022955,081,eh@westdevon.gov.uk,West Devon,http://www.westdevon.gov.uk,-4.14813400000000,PL19 0EG,2014-06-06,fhrs_5_en-GB,5,,FHRS,0
314411,26 Buddle Close,Tavistock,Devon,,Moorland Coffee (Coffee Cart),Mobile caterer,7846,5,,576996,0,,50.55485000000000,PI/000041404,081,eh@westdevon.gov.uk,West Devon,http://www.westdevon.gov.uk,-4.14813400000000,PL19 0EG,2013-07-17,fhrs_5_en-GB,5,,FHRS,5
314412,Lane To Moorland Links Hotel,Yelverton,Devon,,Moorland Garden Hotel,Hotel/bed & breakfast/guest house,7842,5,,164843,5,,50.47073000000000,PI/000006984,081,eh@westdevon.gov.uk,West Devon,http://www.westdevon.gov.uk,-4.10271500000000,PL20 6DA,2013-06-06,fhrs_4_en-GB,4,,FHRS,10
314413,Brentor Road,Mary Tavy,Devon,,Moorland Hall,Other catering premises,7841,0,,441397,0,,50.59770600000000,PI/000013499,081,eh@westdevon.gov.uk,West Devon,http://www.westdevon.gov.uk,-4.12125800000000,PL19 9PY,2014-03-24,fhrs_5_en-GB,5,,FHRS,0
314414,Road From Northcombe Plantation To Castle Cross,Broadbury,Devon,,Moorside,Retailers - other,4613,10,,693139,0,,50.74400500000000,PI/000021855,081,eh@westdevon.gov.uk,West Devon,http://www.westdevon.gov.uk,-4.15778800000000,EX20 4LL,2014-06-19,fhrs_4_en-GB,4,,FHRS,0
314415,Road From Rock Cottage To Morwellham,Morwellham,Devon,,Morwellham Quay,Restaurant/Cafe/Canteen,1,5,,441398,0,,50.50667800000000,PI/000014030,081,eh@westdevon.gov.uk,West Devon,http://www.westdevon.gov.uk,-4.19440600000000,PL19 8JL,2014-06-03,fhrs_5_en-GB,5,,FHRS,5
314416,,,,,Mount Tavy Cottage B&B,Hotel/bed & breakfast/guest house,7842,0,,464852,0,,,PI/000013919,081,eh@westdevon.gov.uk,West Devon,http://www.westdevon.gov.uk,,,2012-09-26,fhrs_5_en-GB,5,,FHRS,0
314417,Taw Valley Creamery,Road From Culm Cross To Taw Bridge Cross,North Tawton,Devon,MVI Limited,Manufacturers/packers,7839,10,,540073,0,,50.79677500000000,PI/000041123,081,eh@westdevon.gov.uk,West Devon,http://www.westdevon.gov.uk,-3.91232200000000,EX20 2DA,2012-10-25,fhrs_4_en-GB,4,,FHRS,5
314418,13 Market Street,Tavistock,Devon,,New Cantonese Kitchen,Takeaway/sandwich shop,7844,0,,235397,0,,50.55075000000000,PI/000041116,081,eh@westdevon.gov.uk,West Devon,http://www.westdevon.gov.uk,-4.14663400000000,PL19 0DB,2014-02-18,fhrs_5_en-GB,5,,FHRS,5
314419,28 West Street,Okehampton,Devon,,New Hot Food,Takeaway/sandwich shop,7844,5,,643913,5,,50.73872400000000,PI/000041956,081,eh@westdevon.gov.uk,West Devon,http://www.westdevon.gov.uk,-4.00475800000000,EX20 1HH,2014-08-29,fhrs_5_en-GB,5,,FHRS,0
314420,Ground Floor,Pearl Assurance House,Elbow Lane,Tavistock,New Look,Retailers - other,4613,,,464884,,,,PI/000041324,081,eh@westdevon.gov.uk,West Devon,http://www.westdevon.gov.uk,,PL19 0BE,2012-11-07,fhrs_exempt_en-GB,Exempt,,FHRS,
314421,Okehampton Golf Club,Tors Road,Okehampton,Devon,Newval Quisine,Pub/bar/nightclub,7843,10,,163350,10,,50.73221800000000,PI/000004551,081,eh@westdevon.gov.uk,West Devon,http://www.westdevon.gov.uk,-4.00292200000000,EX20 1EF,2014-09-18,fhrs_3_en-GB,3,,FHRS,10
314422,Road From The Old Chapel To Was Tor Cross,Lydford,Devon,,Nicholls Hall,Other catering premises,7841,5,,197756,5,,50.64320200000000,PI/000008458,081,eh@westdevon.gov.uk,West Devon,http://www.westdevon.gov.uk,-4.10810100000000,EX20 4BH,2014-09-23,fhrs_5_en-GB,5,,FHRS,5
314423,West Nymph House,Road From Spitlar Cross To Youlden Lane,South Tawton,Devon,Nicola Mansells Cakes & Puddings,Other catering premises,7841,0,,163610,0,,50.74631300000000,PI/000004990,081,eh@westdevon.gov.uk,West Devon,http://www.westdevon.gov.uk,-3.88968200000000,EX20 2RJ,2014-06-12,fhrs_5_en-GB,5,,FHRS,0
314424,North Tawton Primary School,Exeter Street,North Tawton,Devon,North Tawton Community P School,School/college/university,7845,5,,162961,0,,50.79903600000000,PI/000004001,081,eh@westdevon.gov.uk,West Devon,http://www.westdevon.gov.uk,-3.89613700000000,EX20 2HB,2013-11-12,fhrs_5_en-GB,5,,FHRS,5
314425,North Tawton Primary School,Exeter Street,North Tawton,Devon,North Tawton Pre-School & Busy Bees,School/college/university,7845,5,,173094,0,,50.79903600000000,PI/000024904,081,eh@westdevon.gov.uk,West Devon,http://www.westdevon.gov.uk,-3.89613700000000,EX20 2HB,2013-11-12,fhrs_5_en-GB,5,,FHRS,0
314426,Northlake,Road Past Fatherford Farm,Stockley,Devon,Northlake Bed & Breakfast,Hotel/bed & breakfast/guest house,7842,0,,557494,0,,50.74166300000000,PI/000041382,081,eh@westdevon.gov.uk,West Devon,http://www.westdevon.gov.uk,-3.97115000000000,EX20 1QH,2013-05-23,fhrs_5_en-GB,5,,FHRS,0
314427,Northlew Village Stores,Station Road,Northlew,Devon,Northlew Village Stores Com Int Co,Retailers - other,4613,5,,433838,0,,50.77191800000000,PI/000041218,081,eh@westdevon.gov.uk,West Devon,http://www.westdevon.gov.uk,-4.12422400000000,EX20 3NP,2015-01-09,fhrs_5_en-GB,5,,FHRS,0
314428,Road From Barrow Way Cross To Wonson Manor,Throwleigh,Devon,,Northmore Arms,Hotel/bed & breakfast/guest house,7842,0,,168353,0,,50.69147500000000,PI/000013016,081,eh@westdevon.gov.uk,West Devon,http://www.westdevon.gov.uk,-3.87878400000000,EX20 2JA,2014-08-25,fhrs_5_en-GB,5,,FHRS,5
314429,Unit 2,Down Farm,Road From Tuell Down Cross To Blacksmiths Arms,Lamerton,NPV Diagnostics,Other catering premises,7841,5,,636206,0,,50.57268600000000,PI/000040938,081,eh@westdevon.gov.uk,West Devon,http://www.westdevon.gov.uk,-4.20583400000000,PL19 8QA,2014-01-13,fhrs_5_en-GB,5,,FHRS,0
314430,59 Station Road,Okehampton,Devon,,Number 59 Bed & Breakfast,Hotel/bed & breakfast/guest house,7842,5,,197757,5,,50.73576100000000,PI/000033930,081,eh@westdevon.gov.uk,West Devon,http://www.westdevon.gov.uk,-4.00186800000000,EX20 1EA,2011-12-30,fhrs_5_en-GB,5,,FHRS,0
314431,Unit 5B,Cranmere Road,Okehampton,Devon,Oaktree Occasions Ltd,Other catering premises,7841,5,,548520,0,,50.74272200000000,PI/000041378,081,eh@westdevon.gov.uk,West Devon,http://www.westdevon.gov.uk,-3.98243500000000,EX20 1UE,2013-05-05,fhrs_5_en-GB,5,,FHRS,5
314432,Ockment Centre,North Street,Okehampton,Devon,Ockment Centre (Main Kitchen),Restaurant/Cafe/Canteen,1,0,,710086,0,,50.74074400000000,PI/000042753,081,eh@westdevon.gov.uk,West Devon,http://www.westdevon.gov.uk,-4.00182600000000,EX20 1AR,2014-09-18,fhrs_5_en-GB,5,,FHRS,5
314433,3 Brook Street,Tavistock,Devon,,Oggy Oggy Pasty Co Tavistock,Restaurant/Cafe/Canteen,1,10,,548521,5,,50.55139400000000,PI/000041394,081,eh@westdevon.gov.uk,West Devon,http://www.westdevon.gov.uk,-4.14290800000000,PL19 0HD,2013-04-30,fhrs_3_en-GB,3,,FHRS,10
314434,Okehampton Primary School,Glendale Road,Okehampton,Devon,Okehampton  Primary School Kitchen,School/college/university,7845,5,,464818,0,,50.74192000000000,PI/000001774,081,eh@westdevon.gov.uk,West Devon,http://www.westdevon.gov.uk,-4.00617100000000,EX20 1JB,2012-10-10,fhrs_5_en-GB,5,,FHRS,0
314435,Okehampton Camp,Road From Moor Gate To Park Farm,Okehampton,Devon,Okehampton Camp (inc Wilsworthy),Restaurant/Cafe/Canteen,1,0,,447687,0,,50.72913000000000,PI/000004559,081,eh@westdevon.gov.uk,West Devon,http://www.westdevon.gov.uk,-4.00677000000000,,2014-06-18,fhrs_5_en-GB,5,,FHRS,5
314436,Mill Road,Okehampton,Devon,,Okehampton Community College,School/college/university,7845,5,,375646,0,,50.73659600000000,PI/000000725,081,eh@westdevon.gov.uk,West Devon,http://www.westdevon.gov.uk,-3.99987700000000,EX20 1PW,2013-04-30,fhrs_5_en-GB,5,,FHRS,5
314437,Okehampton Community Hospital,Cavell Way,Okehampton,Devon,Okehampton Hospital,Hospitals/Childcare/Caring Premises,5,0,,173067,0,,50.74191800000000,PI/000024827,081,eh@westdevon.gov.uk,West Devon,http://www.westdevon.gov.uk,-3.99735400000000,EX20 1PN,2013-10-11,fhrs_5_en-GB,5,,FHRS,0
314438,20 West Street,Okehampton,Devon,,Okehampton Newsagents,Retailers - other,4613,5,,540065,0,,50.73872400000000,PI/000001615,081,eh@westdevon.gov.uk,West Devon,http://www.westdevon.gov.uk,-4.00475800000000,EX20 1HH,2013-03-25,fhrs_5_en-GB,5,,FHRS,0
314439,Unit 1D-1E,Cranmere Road,Okehampton,Devon,Okemoor Quality Foods,Manufacturers/packers,7839,,,163319,,,50.74272200000000,PI/000004493,081,eh@westdevon.gov.uk,West Devon,http://www.westdevon.gov.uk,-3.98243500000000,EX20 1UE,2014-03-27,fhrs_exempt_en-GB,Exempt,,FHRS,
314440,Tavistock Road,Princetown,Devon,,Old Police Station Cafe,Restaurant/Cafe/Canteen,1,0,,430614,0,,50.54469800000000,PI/000013386,081,eh@westdevon.gov.uk,West Devon,http://www.westdevon.gov.uk,-3.99226700000000,PL20 6QF,2014-02-13,fhrs_5_en-GB,5,,FHRS,5
314441,Old Plough Inn,Fore Street,Bere Ferrers,Devon,Olde Plough Inn,Pub/bar/nightclub,7843,5,,520815,0,,50.45104100000000,PI/000005596,081,eh@westdevon.gov.uk,West Devon,http://www.westdevon.gov.uk,-4.17177000000000,PL20 7JL,2015-01-16,fhrs_5_en-GB,5,,FHRS,0
314442,11 Fore Street,Okehampton,Devon,,Oxfam,Retailers - other,4613,0,,612495,0,,50.73955900000000,PI/000000407,081,eh@westdevon.gov.uk,West Devon,http://www.westdevon.gov.uk,-4.00227100000000,EX20 1AN,2013-09-30,fhrs_5_en-GB,5,,FHRS,0
314443,83-84 West Street,Tavistock,Devon,,Oxfam,Retailers - other,4613,0,,173282,0,,50.54988800000000,PI/000025336,081,eh@westdevon.gov.uk,West Devon,http://www.westdevon.gov.uk,-4.14653900000000,PL19 8AQ,2014-06-12,fhrs_5_en-GB,5,,FHRS,0
314444,Buckland Abbey,Road From Fairfield To South Lodge,Buckland Monachorum,Devon,Ox-Yard Restaurant,Restaurant/Cafe/Canteen,1,0,,643911,0,,50.48158900000000,PI/000041953,081,eh@westdevon.gov.uk,West Devon,http://www.westdevon.gov.uk,-4.13170000000000,PL20 6EY,2014-03-03,fhrs_5_en-GB,5,,FHRS,0
314445,Palmers Butchers,50 Brook Street,Tavistock,Devon,Palmers of Tavistock Limited,Manufacturers/packers,7839,5,,166463,0,,50.55087800000000,PI/000009617,081,eh@westdevon.gov.uk,West Devon,http://www.westdevon.gov.uk,-4.14309700000000,PL19 0BJ,2014-01-23,fhrs_5_en-GB,5,,FHRS,5
314446,Road From Week Moor Cross To River Torridge,Iddesleigh,Devon,,Parsonage Farm,Hotel/bed & breakfast/guest house,7842,0,,162763,0,,50.84228500000000,PI/000003583,081,eh@westdevon.gov.uk,West Devon,http://www.westdevon.gov.uk,-4.04368400000000,EX19 8SN,2013-02-20,fhrs_5_en-GB,5,,FHRS,0
314447,,,,,Partake of Cake,Other catering premises,7841,10,,622361,0,,,PI/000041907,081,eh@westdevon.gov.uk,West Devon,http://www.westdevon.gov.uk,,,2013-11-25,fhrs_4_en-GB,4,,FHRS,0
314448,,,,,Party Petite,Other catering premises,7841,5,,464872,0,,,PI/000036059,081,eh@westdevon.gov.uk,West Devon,http://www.westdevon.gov.uk,,,2013-06-26,fhrs_5_en-GB,5,,FHRS,0
314449,Memorial Hall,Meavy Lane,Yelverton,Devon,Penmoor Nursery School,School/college/university,7845,5,,430623,0,,50.48918100000000,PI/000023077,081,eh@westdevon.gov.uk,West Devon,http://www.westdevon.gov.uk,-4.08297900000000,PL20 6AL,2014-02-13,fhrs_5_en-GB,5,,FHRS,0
314450,13 Cornwall Street,Bere Alston,Devon,,Pepper Street Bakery,Manufacturers/packers,7839,0,,430627,0,,50.47946500000000,PI/000027595,081,eh@westdevon.gov.uk,West Devon,http://www.westdevon.gov.uk,-4.19039600000000,PL20 7BE,2012-07-06,fhrs_5_en-GB,5,,FHRS,0
314451,,,,,Perry Waters,Retailers - other,4613,10,,485260,0,,,PI/000028842,081,eh@westdevon.gov.uk,West Devon,http://www.westdevon.gov.uk,,,2012-12-11,fhrs_4_en-GB,4,,FHRS,0
314452,Lane Past Peter Tavy Inn,Peter Tavy,Devon,,Peter Tavy Inn,Pub/bar/nightclub,7843,0,,430596,0,,50.57969500000000,PI/000009001,081,eh@westdevon.gov.uk,West Devon,http://www.westdevon.gov.uk,-4.10115300000000,PL19 9NN,2014-03-24,fhrs_5_en-GB,5,,FHRS,0
314453,19 East Street,Okehampton,Devon,,Pizza Plus,Takeaway/sandwich shop,7844,0,,235383,0,,50.73972200000000,PI/000041128,081,eh@westdevon.gov.uk,West Devon,http://www.westdevon.gov.uk,-3.99958500000000,EX20 1AT,2014-05-30,fhrs_5_en-GB,5,,FHRS,0
314454,2 Pixon Court,Access To Crelake Industrial Estate,Tavistock,Devon,Play Planet,School/college/university,7845,5,,576995,5,,50.54501300000000,PI/000041399,081,eh@westdevon.gov.uk,West Devon,http://www.westdevon.gov.uk,-4.14751700000000,PL19 9AZ,2013-06-03,fhrs_5_en-GB,5,,FHRS,5
314455,26 West Street,Okehampton,Devon,,Plymouth Inn,Pub/bar/nightclub,7843,10,,375648,0,,50.73872400000000,PI/000001624,081,eh@westdevon.gov.uk,West Devon,http://www.westdevon.gov.uk,-4.00475800000000,EX20 1HH,2013-11-28,fhrs_4_en-GB,4,,FHRS,10
314456,Road From Higher Cherrybrook Bridge To Clapper Bridge,Postbridge,Devon,,Post Office Stores,Retailers - other,4613,5,,165645,0,,50.59356400000000,PI/000008304,081,eh@westdevon.gov.uk,West Devon,http://www.westdevon.gov.uk,-3.91389200000000,PL20 6TH,2014-06-27,fhrs_5_en-GB,5,,FHRS,5
314457,22 North Street,Okehampton,Devon,,Pretoria Vaults Wine Bar,Pub/bar/nightclub,7843,0,,197766,0,,50.74074400000000,PI/000000979,081,eh@westdevon.gov.uk,West Devon,http://www.westdevon.gov.uk,-4.00182600000000,EX20 1AR,2014-10-13,fhrs_5_en-GB,5,,FHRS,5
314458,Road To Bottleneck Inn,Sourton Down,Devon,,Prewley Moor Arms,Pub/bar/nightclub,7843,10,,168324,5,,50.70640200000000,PI/000012965,081,eh@westdevon.gov.uk,West Devon,http://www.westdevon.gov.uk,-4.05989100000000,EX20 4HT,2013-06-13,fhrs_2_en-GB,2,,FHRS,15
314459,Road To Prince Hall Hotel,Princetown,Devon,,Prince Hall Hotel,Hotel/bed & breakfast/guest house,7842,5,,168553,5,,50.55222500000000,PI/000013390,081,eh@westdevon.gov.uk,West Devon,http://www.westdevon.gov.uk,-3.91790600000000,PL20 6SA,2013-07-29,fhrs_5_en-GB,5,,FHRS,5
314460,Princetown Primary School,Tavistock Road,Princetown,Devon,Princetown C P School,School/college/university,7845,0,,464850,0,,50.54469900000000,PI/000013404,081,eh@westdevon.gov.uk,West Devon,http://www.westdevon.gov.uk,-3.99173100000000,PL20 6QE,2014-07-03,fhrs_5_en-GB,5,,FHRS,0
314461,The Village Centre,Tavistock Road,Princetown,Devon,Princetown Village Centre,Restaurant/Cafe/Canteen,1,,,172739,,,50.54469900000000,PI/000023872,081,eh@westdevon.gov.uk,West Devon,http://www.westdevon.gov.uk,-3.99173100000000,PL20 6QE,2014-06-05,fhrs_exempt_en-GB,Exempt,,FHRS,
314462,Unit F,Access To Tinhay Mill Industrial Estate,Tinhay,Devon,Pyman Pates,Manufacturers/packers,7839,,,177145,,,50.64272300000000,PI/000040873,081,eh@westdevon.gov.uk,West Devon,http://www.westdevon.gov.uk,-4.27365500000000,PL16 0AH,2014-03-26,fhrs_exempt_en-GB,Exempt,,FHRS,
314463,The Cottage,Higher Farm,Road From Trehill Cottage To Cherrybrook House,Heathfield,R J Catering,Mobile caterer,7846,5,,464871,0,,50.59161700000000,PI/000034810,081,eh@westdevon.gov.uk,West Devon,http://www.westdevon.gov.uk,-4.15503500000000,PL19 0LB,2014-04-22,fhrs_5_en-GB,5,,FHRS,5
314464,Bridge House,25 Fore Street,Okehampton,Devon,Rajpoot,Restaurant/Cafe/Canteen,1,0,,235423,5,,50.73947400000000,PI/000025532,081,eh@westdevon.gov.uk,West Devon,http://www.westdevon.gov.uk,-4.00146000000000,EX20 1DL,2013-06-11,fhrs_5_en-GB,5,,FHRS,5
314465,New Life Church,2 New Road,Okehampton,Devon,Refresh Cafe & Ice Cream Parlour,Restaurant/Cafe/Canteen,1,5,,173400,0,,50.73792000000000,PI/000025625,081,eh@westdevon.gov.uk,West Devon,http://www.westdevon.gov.uk,-4.00448300000000,EX20 1ET,2013-05-23,fhrs_5_en-GB,5,,FHRS,0
314466,,,,,Reilly's Kitchen,Mobile caterer,7846,10,,344814,0,,,PI/000040887,081,eh@westdevon.gov.uk,West Devon,http://www.westdevon.gov.uk,,,2014-09-18,fhrs_4_en-GB,4,,FHRS,10
314467,Ring O'Bells,44 The Square,Chagford,Devon,Ring Of Bells,Hotel/bed & breakfast/guest house,7842,0,,235369,5,,50.67282000000000,PI/000002795,081,eh@westdevon.gov.uk,West Devon,http://www.westdevon.gov.uk,-3.84060400000000,TQ13 8AH,2013-06-14,fhrs_5_en-GB,5,,FHRS,5
314468,Riverside Stores,Lane To Grange Cottage,Bridestowe,Devon,Riverside Stores & Post Office,Retailers - other,4613,0,,576998,0,,50.68445700000000,PI/000041873,081,eh@westdevon.gov.uk,West Devon,http://www.westdevon.gov.uk,-4.10617000000000,EX20 4EG,2013-07-29,fhrs_5_en-GB,5,,FHRS,5
314469,8 Pepper Street,Tavistock,Devon,,Robertson's Humble Pie,Restaurant/Cafe/Canteen,1,0,,430622,0,,50.55067000000000,PI/000020269,081,eh@westdevon.gov.uk,West Devon,http://www.westdevon.gov.uk,-4.14464000000000,PL19 0BD,2012-11-28,fhrs_5_en-GB,5,,FHRS,5
314470,Drake Road,Tavistock,Devon,,Rockmount,Hotel/bed & breakfast/guest house,7842,0,,464867,0,,50.55087700000000,PI/000025071,081,eh@westdevon.gov.uk,West Devon,http://www.westdevon.gov.uk,-4.14608900000000,PL19 0AX,2012-10-04,fhrs_5_en-GB,5,,FHRS,0
314471,12 West Street,Tavistock,Devon,,Roots & Vines,Retailers - other,4613,0,,375669,5,,50.54966900000000,PI/000041215,081,eh@westdevon.gov.uk,West Devon,http://www.westdevon.gov.uk,-4.14620400000000,PL19 8AD,2014-10-03,fhrs_5_en-GB,5,,FHRS,5
314472,Royal Oak House,24 Fore Street,Bridestowe,Devon,Royal Oak Guest House,Hotel/bed & breakfast/guest house,7842,5,,464864,0,,50.68567300000000,PI/000024065,081,eh@westdevon.gov.uk,West Devon,http://www.westdevon.gov.uk,-4.10452600000000,EX20 4EN,2012-10-18,fhrs_5_en-GB,5,,FHRS,0
314473,Road From Cholwell Farm To Walford House,Mary Tavy,Devon,,Royal Standard,Restaurant/Cafe/Canteen,1,0,,344816,5,,50.60060500000000,PI/000041200,081,eh@westdevon.gov.uk,West Devon,http://www.westdevon.gov.uk,-4.11662600000000,PL19 9QB,2013-11-25,fhrs_4_en-GB,4,,FHRS,10
314474,Exeter Street,North Tawton,Devon,,Rugby Club,Other catering premises,7841,5,,447686,0,,50.79903600000000,PI/000004051,081,eh@westdevon.gov.uk,West Devon,http://www.westdevon.gov.uk,-3.89613700000000,EX20 2HB,2012-08-29,fhrs_5_en-GB,5,,FHRS,0
314475,Road From Lower Rumleigh To Graton House,Bere Alston,Devon,,Rumleigh Farm,Hotel/bed & breakfast/guest house,7842,0,,235386,5,,50.49203000000000,PI/000005975,081,eh@westdevon.gov.uk,West Devon,http://www.westdevon.gov.uk,-4.19134400000000,PL20 7HN,2014-10-15,fhrs_5_en-GB,5,,FHRS,0
314476,9 The Square,Chagford,Devon,,Sally's Newsagents,Retailers - other,4613,10,,711761,0,,50.67326100000000,PI/000041993,081,eh@westdevon.gov.uk,West Devon,http://www.westdevon.gov.uk,-3.84004100000000,TQ13 8AA,2014-06-19,fhrs_4_en-GB,4,,FHRS,5
314477,Kilworthy Road,Tavistock,Devon,,Sandy Park,Other catering premises,7841,5,,447693,0,,50.55582100000000,PI/000013844,081,eh@westdevon.gov.uk,West Devon,http://www.westdevon.gov.uk,-4.14429500000000,PL19 0JL,2012-08-29,fhrs_5_en-GB,5,,FHRS,0
314478,Road To Furlong,Chagford,Devon,,Sandy Park Inn,Pub/bar/nightclub,7843,5,,410468,5,,50.69181200000000,PI/000002918,081,eh@westdevon.gov.uk,West Devon,http://www.westdevon.gov.uk,-3.82761300000000,TQ13 8JW,2013-11-29,fhrs_4_en-GB,4,,FHRS,10
314479,,,,,Say it with Cake,Other catering premises,7841,,,464870,,,,PI/000027897,081,eh@westdevon.gov.uk,West Devon,http://www.westdevon.gov.uk,,,2012-10-24,fhrs_exempt_en-GB,Exempt,,FHRS,
314480,Road Past Skylark Inn,Clearbrook,Devon,,Skylark Inn,Pub/bar/nightclub,7843,10,,164481,0,,50.47093500000000,PI/000006383,081,eh@westdevon.gov.uk,West Devon,http://www.westdevon.gov.uk,-4.08534800000000,PL20 6JD,2013-08-06,fhrs_2_en-GB,2,,FHRS,15
314481,19 The Arcade,Okehampton,Devon,,Slinky Bee,Retailers - other,4613,,,464877,,,50.73868200000000,PI/000041287,081,eh@westdevon.gov.uk,West Devon,http://www.westdevon.gov.uk,-4.00248900000000,EX20 1EX,2012-10-19,fhrs_exempt_en-GB,Exempt,,FHRS,
314482,Tawton Lane,South Zeal,Devon,,South Tawton Primary School,School/college/university,7845,0,,481563,0,,50.72644500000000,PI/000005046,081,eh@westdevon.gov.uk,West Devon,http://www.westdevon.gov.uk,-3.91237500000000,EX20 2LG,2014-06-18,fhrs_5_en-GB,5,,FHRS,0
314483,11 Fore Street,Bere Alston,Devon,,Spar,Retailers - other,4613,5,,485252,0,,50.48005600000000,PI/000005796,081,eh@westdevon.gov.uk,West Devon,http://www.westdevon.gov.uk,-4.18955000000000,PL20 7AA,2014-07-03,fhrs_5_en-GB,5,,FHRS,0
314484,6 High Street,North Tawton,Devon,,Spar,Retailers - supermarkets/hypermarkets,7840,0,,612497,0,,50.79891200000000,PI/000004152,081,eh@westdevon.gov.uk,West Devon,http://www.westdevon.gov.uk,-3.89716800000000,EX20 2HF,2013-10-10,fhrs_5_en-GB,5,,FHRS,0
314485,60 The Square,Chagford,Devon,,Spar,Retailers - other,4613,0,,481568,0,,50.67343700000000,PI/000012682,081,eh@westdevon.gov.uk,West Devon,http://www.westdevon.gov.uk,-3.84028800000000,TQ13 8AE,2014-05-30,fhrs_5_en-GB,5,,FHRS,0
314486,14 Ford Street,Tavistock,Devon,,Spar  Stores,Retailers - other,4613,5,,430603,0,,50.54647200000000,PI/000010313,081,eh@westdevon.gov.uk,West Devon,http://www.westdevon.gov.uk,-4.15279200000000,PL19 8DZ,2014-05-30,fhrs_5_en-GB,5,,FHRS,5
314487,Mole Avon,Road Past Fatherford Farm,Stockley,Devon,Spar Okehampton,Retailers - other,4613,0,,375645,0,,50.74148000000000,PI/000000308,081,eh@westdevon.gov.uk,West Devon,http://www.westdevon.gov.uk,-3.97770500000000,EX20 1QQ,2014-06-18,fhrs_5_en-GB,5,,FHRS,5
314488,Post Office And Spar,4 Abbey Place,Tavistock,Devon,Spar Tavistock Post Office,Retailers - other,4613,0,,171418,0,,50.54916100000000,PI/000020355,081,eh@westdevon.gov.uk,West Devon,http://www.westdevon.gov.uk,-4.14403500000000,PL19 0AA,2013-06-04,fhrs_5_en-GB,5,,FHRS,0
314489,Road From Cullaford Cross To Spreyton Cross,Spreyton,Devon,,Spreyton Primary School,School/college/university,7845,0,,576974,0,,50.75566500000000,PI/000005246,081,eh@westdevon.gov.uk,West Devon,http://www.westdevon.gov.uk,-3.84371100000000,EX17 5AJ,2013-07-18,fhrs_4_en-GB,4,,FHRS,10
314490,Spreyton Village Shop,Road From Heath Cross To St Cherries,Spreyton,Devon,Spreyton Village Shop Ass Ltd,Retailers - other,4613,0,,235412,0,,50.75396000000000,PI/000024963,081,eh@westdevon.gov.uk,West Devon,http://www.westdevon.gov.uk,-3.84234000000000,EX17 5DP,2012-02-09,fhrs_5_en-GB,5,,FHRS,0
314491,Spring House Residential Care Home,Road From Cudlipptown Cross To Langsford Road,Peter Tavy,Devon,Spring House Res. Home,Hospitals/Childcare/Caring Premises,5,0,,481567,0,,50.57776500000000,PI/000009002,081,eh@westdevon.gov.uk,West Devon,http://www.westdevon.gov.uk,-4.10094000000000,PL19 9NP,2014-02-18,fhrs_5_en-GB,5,,FHRS,0
314492,Springfields Residential Home,Road From The Square To Pigs Leg Cross,Bridestowe,Devon,Springfield Residential Home,Hospitals/Childcare/Caring Premises,5,0,,168166,5,,50.68461700000000,PI/000012658,081,eh@westdevon.gov.uk,West Devon,http://www.westdevon.gov.uk,-4.10026000000000,EX20 4ER,2013-08-23,fhrs_5_en-GB,5,,FHRS,5
314493,School Close,Tavistock,Devon,,St Peters Church Of England Junior School,School/college/university,7845,0,,430616,0,,50.54872000000000,PI/000013830,081,eh@westdevon.gov.uk,West Devon,http://www.westdevon.gov.uk,-4.13767700000000,PL19 9HW,2014-10-03,fhrs_5_en-GB,5,,FHRS,5
314494,Dolvin Road,Tavistock,Devon,,St Rumons Church Of England Infant School,School/college/university,7845,0,,576981,5,,50.55065800000000,PI/000010074,081,eh@westdevon.gov.uk,West Devon,http://www.westdevon.gov.uk,-4.14183000000000,PL19 9EA,2013-06-06,fhrs_5_en-GB,5,,FHRS,5
314495,83 North Street,Okehampton,Devon,,Stepping Stones Day Nursery,School/college/university,7845,0,,235375,0,,50.74230700000000,PI/000001013,081,eh@westdevon.gov.uk,West Devon,http://www.westdevon.gov.uk,-4.00141100000000,EX20 1BD,2013-06-11,fhrs_5_en-GB,5,,FHRS,0
314496,,,,,Stockhay,Retailers - other,4613,,,464824,,,,PI/000005205,081,eh@westdevon.gov.uk,West Devon,http://www.westdevon.gov.uk,,,2012-09-26,fhrs_exempt_en-GB,Exempt,,FHRS,
314497,Stone Farm,Lane To Stone Farm,Bridestowe,Devon,Stone Farm And Study Centre,Hotel/bed & breakfast/guest house,7842,5,,197799,5,,50.67906200000000,PI/000002125,081,eh@westdevon.gov.uk,West Devon,http://www.westdevon.gov.uk,-4.12294300000000,EX20 4NR,2014-09-12,fhrs_5_en-GB,5,,FHRS,0
314498,,,,,Sues's Celebration Cakes & Catering,Other catering premises,7841,10,,464825,5,,,PI/000005689,081,eh@westdevon.gov.uk,West Devon,http://www.westdevon.gov.uk,,,2012-10-26,fhrs_4_en-GB,4,,FHRS,5
314499,74 Plym Crescent,Tavistock,Devon,,Sugar Sweet Cakes,Other catering premises,7841,5,,172025,5,,50.54896200000000,PI/000022039,081,eh@westdevon.gov.uk,West Devon,http://www.westdevon.gov.uk,-4.13476600000000,PL19 9HX,2014-05-20,fhrs_5_en-GB,5,,FHRS,0
314500,2 Estate House,West Street,Okehampton,Devon,Sweet Success,Retailers - other,4613,0,,161569,0,,50.73898100000000,PI/000001598,081,eh@westdevon.gov.uk,West Devon,http://www.westdevon.gov.uk,-4.00396200000000,EX20 1JZ,2013-06-13,fhrs_5_en-GB,5,,FHRS,0
314501,36 Brook Street,Tavistock,Devon,,T J's Fish & Chips,Takeaway/sandwich shop,7844,5,,464832,5,,50.55152400000000,PI/000009587,081,eh@westdevon.gov.uk,West Devon,http://www.westdevon.gov.uk,-4.14219400000000,PL19 0HE,2014-08-15,fhrs_5_en-GB,5,,FHRS,5
314502,Tavistock Woodlands,Road From Newbridge Hill To Gulworthy Cross,Gulworthy,Devon,Tamar Adventures,Restaurant/Cafe/Canteen,1,0,,430624,0,,50.53258400000000,PI/000024334,081,eh@westdevon.gov.uk,West Devon,http://www.westdevon.gov.uk,-4.20469600000000,PL19 8JE,2012-07-17,fhrs_5_en-GB,5,,FHRS,0
314503,Bere Ferrers Station,Drummond Way,Bere Ferrers,Devon,Tamar Belle Ltd,Other catering premises,7841,5,,576976,0,,,PI/000005663,081,eh@westdevon.gov.uk,West Devon,http://www.westdevon.gov.uk,,,2013-07-30,fhrs_5_en-GB,5,,FHRS,5
314504,Parsonage Farm,Road From Hole Cross To St Aubyn,Bere Ferrers,Devon,Tamar Valley Preserves,Other catering premises,7841,0,,481565,0,,50.45917900000000,PI/000005648,081,eh@westdevon.gov.uk,West Devon,http://www.westdevon.gov.uk,-4.18003300000000,PL20 7JF,2012-11-21,fhrs_5_en-GB,5,,FHRS,0
314505,Abbey Rise,Tavistock,Devon,,Tavistock Area Childrens Centre,Other catering premises,7841,,,235403,,,50.54580700000000,PI/000041155,081,eh@westdevon.gov.uk,West Devon,http://www.westdevon.gov.uk,-4.14591600000000,PL19 9FD,2013-06-03,fhrs_exempt_en-GB,Exempt,,FHRS,
314506,The Anchorage Centre,Chapel Street,Tavistock,Devon,Tavistock Area Support Services,Other catering premises,7841,0,,430599,0,,50.54858400000000,PI/000009730,081,eh@westdevon.gov.uk,West Devon,http://www.westdevon.gov.uk,-4.14753800000000,PL19 8AG,2014-10-03,fhrs_5_en-GB,5,,FHRS,0
314507,Crowndale Road,Tavistock,Devon,,Tavistock College,School/college/university,7845,0,,464836,0,,50.54167600000000,PI/000010015,081,eh@westdevon.gov.uk,West Devon,http://www.westdevon.gov.uk,-4.15435200000000,PL19 8DD,2012-10-19,fhrs_5_en-GB,5,,FHRS,5
314508,Drake Road,Tavistock,Devon,,Tavistock Conservative Club,Pub/bar/nightclub,7843,0,,166786,0,,50.55039900000000,PI/000010184,081,eh@westdevon.gov.uk,West Devon,http://www.westdevon.gov.uk,-4.14516400000000,PL19 0AU,2014-06-20,fhrs_5_en-GB,5,,FHRS,0
314509,Down Road,Tavistock,Devon,,Tavistock Cricket Ground,Pub/bar/nightclub,7843,5,,643888,5,,50.53958400000000,PI/000014028,081,eh@westdevon.gov.uk,West Devon,http://www.westdevon.gov.uk,-4.13756000000000,PL19 9DD,2014-03-31,fhrs_5_en-GB,5,,FHRS,5
314510,Tavistock United Reformed Church,Russell Street,Tavistock,Devon,Tavistock Food Bank,Retailers - other,4613,,,441402,,,50.54878900000000,PI/000041202,081,eh@westdevon.gov.uk,West Devon,http://www.westdevon.gov.uk,-4.14665800000000,PL19 8BD,2012-08-17,fhrs_exempt_en-GB,Exempt,,FHRS,
314511,Tavistock Hospital,Spring Hill,Tavistock,Devon,Tavistock General Hospital,Hospitals/Childcare/Caring Premises,5,0,,235408,0,,50.54718600000000,PI/000011366,081,eh@westdevon.gov.uk,West Devon,http://www.westdevon.gov.uk,-4.15358700000000,PL19 8LD,2014-02-21,fhrs_5_en-GB,5,,FHRS,0
314512,Down Road,Tavistock,Devon,,Tavistock Golf Club,Pub/bar/nightclub,7843,10,,430601,10,,50.54375600000000,PI/000010108,081,eh@westdevon.gov.uk,West Devon,http://www.westdevon.gov.uk,-4.13076200000000,PL19 9AQ,2014-08-28,fhrs_3_en-GB,3,,FHRS,5
314513,19 Brook Street,Tavistock,Devon,,Tavistock Inn,Pub/bar/nightclub,7843,0,,643912,0,,50.55139400000000,PI/000041955,081,eh@westdevon.gov.uk,West Devon,http://www.westdevon.gov.uk,-4.14290800000000,PL19 0HD,2014-03-25,fhrs_5_en-GB,5,,FHRS,0
314514,33 The Market,Tavistock,Devon,,Tavistock Market Wholefoods,Retailers - other,4613,5,,464868,0,,50.55011600000000,PI/000025137,081,eh@westdevon.gov.uk,West Devon,http://www.westdevon.gov.uk,-4.14347200000000,PL19 0AL,2012-10-09,fhrs_5_en-GB,5,,FHRS,0
314515,Methodist Church,Chapel Street,Tavistock,Devon,Tavistock Methodist Church,Restaurant/Cafe/Canteen,1,5,,168708,0,,50.54752600000000,PI/000013686,081,eh@westdevon.gov.uk,West Devon,http://www.westdevon.gov.uk,-4.15025700000000,PL19 8DX,2013-09-13,fhrs_5_en-GB,5,,FHRS,5
314516,Tavistock Primary School,Plymouth Road,Tavistock,Devon,Tavistock Primary & Nursery School,School/college/university,7845,0,,643909,0,,50.73246002197270,PI/000041944,081,eh@westdevon.gov.uk,West Devon,http://www.westdevon.gov.uk,-3.79749202728271,PL19 8BX,2014-03-03,fhrs_5_en-GB,5,,FHRS,5
314517,Tavistock Service Station,75 Plymouth Road,Tavistock,Devon,Tavistock Service Station (Texaco),Retailers - other,4613,5,,447691,0,,50.54187400000000,PI/000011200,081,eh@westdevon.gov.uk,West Devon,http://www.westdevon.gov.uk,-4.15047900000000,PL19 8BZ,2014-02-17,fhrs_5_en-GB,5,,FHRS,5
314518,Tavistock Trout Fishery,Parkwood Road,Tavistock,Devon,Tavistock Trout Farm,Retailers - other,4613,,,447689,,,50.55860400000000,PI/000010987,081,eh@westdevon.gov.uk,West Devon,http://www.westdevon.gov.uk,-4.12543100000000,PL19 9JW,2012-08-30,fhrs_exempt_en-GB,Exempt,,FHRS,
314519,Road Past Taw River Inn,Sticklepath,Devon,,Taw River Inn,Pub/bar/nightclub,7843,10,,163490,0,,50.73046900000000,PI/000004811,081,eh@westdevon.gov.uk,West Devon,http://www.westdevon.gov.uk,-3.92631200000000,EX20 2NW,2014-11-25,fhrs_4_en-GB,4,,FHRS,10
314520,Taw Valley Creamery,Road From Culm Cross To Taw Bridge Cross,North Tawton,Devon,Taw Valley Creamery - Canteen,Restaurant/Cafe/Canteen,1,0,,172440,0,,50.79677500000000,PI/000023126,081,eh@westdevon.gov.uk,West Devon,http://www.westdevon.gov.uk,-3.91232200000000,EX20 2DA,2013-10-10,fhrs_5_en-GB,5,,FHRS,0
314521,22 Market Street,Tavistock,Devon,,Taylors,Restaurant/Cafe/Canteen,1,5,,636209,5,,50.55010500000000,PI/000041932,081,eh@westdevon.gov.uk,West Devon,http://www.westdevon.gov.uk,-4.14598400000000,PL19 0DD,2013-06-03,fhrs_5_en-GB,5,,FHRS,5
314522,67 West Street,Tavistock,Devon,,Thariks Tandoori Indian Restaurant,Restaurant/Cafe/Canteen,1,0,,167603,0,,50.54953400000000,PI/000011772,081,eh@westdevon.gov.uk,West Devon,http://www.westdevon.gov.uk,-4.14770800000000,PL19 8AJ,2014-05-21,fhrs_5_en-GB,5,,FHRS,5
314523,The Arundell Arms Hotel,Fore Street,Lifton,Devon,The Arundell Arms Hotel Co Ltd,Hotel/bed & breakfast/guest house,7842,5,,433834,5,,50.64324100000000,PI/000007911,081,eh@westdevon.gov.uk,West Devon,http://www.westdevon.gov.uk,-4.28303000000000,PL16 0AA,2014-09-12,fhrs_5_en-GB,5,,FHRS,5
314524,13 Fore Street,Okehampton,Devon,,The Baguette Bar & Coffee Shop,Takeaway/sandwich shop,7844,10,,464855,10,,50.73955900000000,PI/000017886,081,eh@westdevon.gov.uk,West Devon,http://www.westdevon.gov.uk,-4.00227100000000,EX20 1AN,2014-09-01,fhrs_4_en-GB,4,,FHRS,0
314525,Tavistock Woodlands,Road From Newbridge Hill To Gulworthy Cross,Gulworthy,Devon,The Beech Cafe,Restaurant/Cafe/Canteen,1,0,,583374,0,,50.53258400000000,PI/000041397,081,eh@westdevon.gov.uk,West Devon,http://www.westdevon.gov.uk,-4.20469600000000,PL19 8JE,2013-08-09,fhrs_5_en-GB,5,,FHRS,5
314526,Warson Farm,Road From Coopers Cross To Hedge Cross,Coryton,Devon,The Beef Wagon,Mobile caterer,7846,5,,622352,0,,50.65106900000000,PI/000016535,081,eh@westdevon.gov.uk,West Devon,http://www.westdevon.gov.uk,-4.14324100000000,EX20 4PQ,2013-12-11,fhrs_5_en-GB,5,,FHRS,0
314527,11 The Square,Chagford,Devon,,The Bird Cage,Restaurant/Cafe/Canteen,1,0,,666542,0,,50.67326100000000,PI/000041985,081,eh@westdevon.gov.uk,West Devon,http://www.westdevon.gov.uk,-3.84004100000000,TQ13 8AA,2014-05-30,fhrs_5_en-GB,5,,FHRS,5
314528,Princetown Road,Dousland,Devon,,The Burrator Inn,Pub/bar/nightclub,7843,0,,430611,0,,50.50136900000000,PI/000012444,081,eh@westdevon.gov.uk,West Devon,http://www.westdevon.gov.uk,-4.06430800000000,PL20 6NP,2014-03-21,fhrs_5_en-GB,5,,FHRS,5
314529,Road From Farthingland Cross To Red Lion,Exbourne,Devon,,The Burrow,Retailers - other,4613,0,,430632,0,,50.79862000000000,PI/000041241,081,eh@westdevon.gov.uk,West Devon,http://www.westdevon.gov.uk,-3.98494200000000,EX20 3RY,2014-03-26,fhrs_5_en-GB,5,,FHRS,0
314530,Village Hall,Fore Street,Exbourne,Devon,The Burrow,Other catering premises,7841,5,,162533,5,,50.80157900000000,PI/000003073,081,eh@westdevon.gov.uk,West Devon,http://www.westdevon.gov.uk,-3.98594700000000,EX20 3RP,2014-06-10,fhrs_5_en-GB,5,,FHRS,5
314531,Tavistock Livestock Market,Pixon Lane,Tavistock,Devon,The Cattle Trough Cafe,Restaurant/Cafe/Canteen,1,10,,464873,10,,50.54465300000000,PI/000041249,081,eh@westdevon.gov.uk,West Devon,http://www.westdevon.gov.uk,-4.14463500000000,PL19 9BB,2012-10-11,fhrs_4_en-GB,4,,FHRS,0
314532,Hatherleigh Market,Road To Abbattoir,Hatherleigh,Devon,The Cheese Pantry,Retailers - other,4613,5,,433837,0,,50.82294800000000,PI/000024693,081,eh@westdevon.gov.uk,West Devon,http://www.westdevon.gov.uk,-4.07630500000000,EX20 3HT,2014-06-24,fhrs_5_en-GB,5,,FHRS,0
314533,Road From Two Bridges To Higher Cherrybrook Bridge,Princetown,Devon,,The Cherrybrook,Hotel/bed & breakfast/guest house,7842,0,,168554,5,,50.57582300000000,PI/000013391,081,eh@westdevon.gov.uk,West Devon,http://www.westdevon.gov.uk,-3.93918900000000,PL20 6SP,2013-07-16,fhrs_5_en-GB,5,,FHRS,5
314534,17 Station Road,Horrabridge,Devon,,The Chippie,Takeaway/sandwich shop,7844,0,,583369,0,,50.50908400000000,PI/000007458,081,eh@westdevon.gov.uk,West Devon,http://www.westdevon.gov.uk,-4.09910200000000,PL20 7ST,2013-08-09,fhrs_5_en-GB,5,,FHRS,5
314535,2 Market Street,Okehampton,Devon,,The Co Operative Food,Retailers - supermarkets/hypermarkets,7840,5,,520811,0,,50.73985400000000,PI/000000700,081,eh@westdevon.gov.uk,West Devon,http://www.westdevon.gov.uk,-4.00394200000000,EX20 1HN,2014-09-18,fhrs_5_en-GB,5,,FHRS,5
314536,3-4 Moorland Villas,Road Past St Pauls Church,Yelverton,Devon,The Co Operative Group,Retailers - supermarkets/hypermarkets,7840,0,,643910,0,,50.49156600000000,PI/000041945,081,eh@westdevon.gov.uk,West Devon,http://www.westdevon.gov.uk,-4.08542400000000,PL20 6DT,2014-03-03,fhrs_5_en-GB,5,,FHRS,5
314537,Road From Chipshop Inn To Millhill Quarry,Tavistock,Devon,,The Coach House Hotel,Restaurant/Cafe/Canteen,1,10,,576997,5,,50.55703700000000,PI/000041408,081,eh@westdevon.gov.uk,West Devon,http://www.westdevon.gov.uk,-4.19959700000000,PL19 8NS,2013-06-12,fhrs_4_en-GB,4,,FHRS,5
314538,Leg O Mutton Corner,Yelverton,Devon,,The Corner Shop,Retailers - other,4613,10,,430612,5,,50.49269900000000,PI/000013077,081,eh@westdevon.gov.uk,West Devon,http://www.westdevon.gov.uk,-4.09094500000000,PL20 6DJ,2014-06-05,fhrs_4_en-GB,4,,FHRS,0
314539,15-16 West Street,Tavistock,Devon,,The Cornish Arms,Pub/bar/nightclub,7843,5,,576994,5,,50.54921600000000,PI/000041395,081,eh@westdevon.gov.uk,West Devon,http://www.westdevon.gov.uk,-4.14786300000000,PL19 8AN,2013-11-25,fhrs_5_en-GB,5,,FHRS,5
314540,Road From Belstone Corner Cross To Beacon Cross,Sampford Courtenay,Devon,,The Countryman,Restaurant/Cafe/Canteen,1,0,,197814,0,,50.77777600000000,PI/000004647,081,eh@westdevon.gov.uk,West Devon,http://www.westdevon.gov.uk,-3.93387300000000,EX20 2SA,2014-07-02,fhrs_5_en-GB,5,,FHRS,0
314541,76 The Square,Chagford,Devon,,The Courtyard,Restaurant/Cafe/Canteen,1,5,,162365,0,,50.67335400000000,PI/000002810,081,eh@westdevon.gov.uk,West Devon,http://www.westdevon.gov.uk,-3.84041200000000,TQ13 8AE,2013-06-07,fhrs_5_en-GB,5,,FHRS,0
314542,Dartmoor Inn,Road From Dartmoor Inn To Cholwell Farm,Lydford,Devon,The Dartmoor Inn,Pub/bar/nightclub,7843,0,,433835,0,,50.64785700000000,PI/000008455,081,eh@westdevon.gov.uk,West Devon,http://www.westdevon.gov.uk,-4.09088200000000,EX20 4AY,2014-02-18,fhrs_5_en-GB,5,,FHRS,5
314543,Dartmoor Inn,Access To Dartmoor Inn,Princetown,Devon,The Dartmoor Inn,Pub/bar/nightclub,7843,5,,520819,5,,50.55733500000000,PI/000012575,081,eh@westdevon.gov.uk,West Devon,http://www.westdevon.gov.uk,-4.05232400000000,PL20 6ST,2013-03-07,fhrs_5_en-GB,5,,FHRS,5
314544,,,,,The Dartmoor Picnic Co,Retailers - other,4613,0,,622353,0,,,PI/000017789,081,eh@westdevon.gov.uk,West Devon,http://www.westdevon.gov.uk,,,2013-11-11,fhrs_5_en-GB,5,,FHRS,5
314545,38 Red Lion Yard,Okehampton,Devon,,The Dovecote,Restaurant/Cafe/Canteen,1,5,,464813,0,,50.73980700000000,PI/000001216,081,eh@westdevon.gov.uk,West Devon,http://www.westdevon.gov.uk,-4.00350100000000,EX20 1AW,2012-10-10,fhrs_5_en-GB,5,,FHRS,0
314546,3 Market Road,Tavistock,Devon,,The Eastgate Brasserie,Restaurant/Cafe/Canteen,1,0,,464839,0,,50.55101200000000,PI/000010613,081,eh@westdevon.gov.uk,West Devon,http://www.westdevon.gov.uk,-4.14263700000000,PL19 0BW,2012-10-15,fhrs_5_en-GB,5,,FHRS,5
314547,Brook Cottage,Road Past Brook Cottage,South Zeal,Devon,The Floating Millstone,Mobile caterer,7846,5,,666521,0,,50.71160300000000,PI/000005140,081,eh@westdevon.gov.uk,West Devon,http://www.westdevon.gov.uk,-3.89488600000000,EX20 2QB,2014-05-14,fhrs_5_en-GB,5,,FHRS,5
314548,9 West Street,Tavistock,Devon,,The Ganges,Restaurant/Cafe/Canteen,1,0,,235382,5,,50.54966900000000,PI/000011807,081,eh@westdevon.gov.uk,West Devon,http://www.westdevon.gov.uk,-4.14620400000000,PL19 8AD,2014-05-21,fhrs_4_en-GB,4,,FHRS,10
314549,Road From Kestrel To Knighton,Buckland Monachorum,Devon,,The Garden House,Restaurant/Cafe/Canteen,1,5,,576986,0,,50.49339200000000,PI/000013187,081,eh@westdevon.gov.uk,West Devon,http://www.westdevon.gov.uk,-4.12470200000000,PL20 7LQ,2013-06-06,fhrs_5_en-GB,5,,FHRS,0
314550,5 Market Street,Hatherleigh,Devon,,The George,Hotel/bed & breakfast/guest house,7842,5,,464822,5,,50.82177600000000,PI/000003288,081,eh@westdevon.gov.uk,West Devon,http://www.westdevon.gov.uk,-4.07242000000000,EX20 3JN,2014-06-19,fhrs_5_en-GB,5,,FHRS,5
314551,The Globe Hotel,9 High Street,Chagford,Devon,The Globe Inn,Hotel/bed & breakfast/guest house,7842,5,,162198,10,,50.67245400000000,PI/000002557,081,eh@westdevon.gov.uk,West Devon,http://www.westdevon.gov.uk,-3.83985400000000,TQ13 8AJ,2013-06-07,fhrs_4_en-GB,4,,FHRS,5
314552,Burdon Lane,Highampton,Devon,,The Golden Inn,Pub/bar/nightclub,7843,5,,520814,5,,50.81684600000000,PI/000003527,081,eh@westdevon.gov.uk,West Devon,http://www.westdevon.gov.uk,-4.15443000000000,EX21 5LT,2013-03-06,fhrs_4_en-GB,4,,FHRS,10
314553,Green Dragon Inn,Road From The Old Manse To Rose Cottage,Northlew,Devon,The Green Dragon,Pub/bar/nightclub,7843,0,,197823,0,,50.77276100000000,PI/000003850,081,eh@westdevon.gov.uk,West Devon,http://www.westdevon.gov.uk,-4.12285800000000,EX20 3NN,2014-03-26,fhrs_5_en-GB,5,,FHRS,0
314554,Country Lanes Garden Centre,Road Past Fatherford Farm,Stockley,Devon,The Green Room,Restaurant/Cafe/Canteen,1,10,,557490,5,,50.74098700000000,PI/000012908,081,eh@westdevon.gov.uk,West Devon,http://www.westdevon.gov.uk,-3.97020000000000,EX20 1QH,2013-05-23,fhrs_4_en-GB,4,,FHRS,5
314555,Road From Pigs Leg Cross To The Highwayman Inn,Sourton,Devon,,The Highwayman Inn,Restaurant/Cafe/Canteen,1,5,,410473,0,,50.69427700000000,PI/000004858,081,eh@westdevon.gov.uk,West Devon,http://www.westdevon.gov.uk,-4.07618100000000,EX20 4HN,2014-02-17,fhrs_5_en-GB,5,,FHRS,5
314556,Road Past The Horn Of Plenty,Gulworthy,Devon,,The Horn Of Plenty,Restaurant/Cafe/Canteen,1,5,,612499,0,,50.53832500000000,PI/000012156,081,eh@westdevon.gov.uk,West Devon,http://www.westdevon.gov.uk,-4.20080100000000,PL19 8JD,2014-06-23,fhrs_5_en-GB,5,,FHRS,5
314557,Hatherleigh Market,Road To Abbattoir,Hatherleigh,Devon,The Kaffe,Restaurant/Cafe/Canteen,1,0,,168215,0,,50.82294800000000,PI/000012739,081,eh@westdevon.gov.uk,West Devon,http://www.westdevon.gov.uk,-4.07630500000000,EX20 3HT,2014-06-24,fhrs_5_en-GB,5,,FHRS,5
314558,New Carlton Cinema,Market Street,Okehampton,Devon,The Kiosk,Retailers - other,4613,0,,235413,5,,50.73985400000000,PI/000041161,081,eh@westdevon.gov.uk,West Devon,http://www.westdevon.gov.uk,-4.00394200000000,EX20 1HN,2012-02-13,fhrs_5_en-GB,5,,FHRS,0
314559,The Lawns Care Home,52 Plymouth Road,Tavistock,Devon,The Lawns Residential Home,Hospitals/Childcare/Caring Premises,5,0,,235416,0,,50.54692100000000,PI/000011186,081,eh@westdevon.gov.uk,West Devon,http://www.westdevon.gov.uk,-4.15039900000000,PL19 8BU,2014-03-03,fhrs_5_en-GB,5,,FHRS,0
314560,23 Station Road,Horrabridge,Devon,,The London Inn,Pub/bar/nightclub,7843,5,,168523,5,,50.50908400000000,PI/000013330,081,eh@westdevon.gov.uk,West Devon,http://www.westdevon.gov.uk,-4.09910200000000,PL20 7ST,2013-06-10,fhrs_4_en-GB,4,,FHRS,10
314561,London Inn,22 West Street,Okehampton,Devon,The London Inn,Pub/bar/nightclub,7843,0,,612496,0,,50.73872400000000,PI/000001616,081,eh@westdevon.gov.uk,West Devon,http://www.westdevon.gov.uk,-4.00475800000000,EX20 1HH,2013-11-28,fhrs_5_en-GB,5,,FHRS,0
314562,15 The Market,Tavistock,Devon,,The Market Plaice Fishmongers,Retailers - other,4613,10,,177149,10,,50.55011600000000,PI/000040879,081,eh@westdevon.gov.uk,West Devon,http://www.westdevon.gov.uk,-4.14347200000000,PL19 0AL,2013-06-04,fhrs_3_en-GB,3,,FHRS,5
314563,Road From Walford House To Mary Tavy Inn,Mary Tavy,Devon,,The Mary Tavy Inn,Pub/bar/nightclub,7843,5,,464831,0,,50.58906400000000,PI/000008582,081,eh@westdevon.gov.uk,West Devon,http://www.westdevon.gov.uk,-4.11326800000000,PL19 9PN,2012-10-12,fhrs_5_en-GB,5,,FHRS,0
314564,Finch Foundry,Road Past Taw River Inn,Sticklepath,Devon,The National Trust,Restaurant/Cafe/Canteen,1,0,,410480,0,,50.73046900000000,PI/000014589,081,eh@westdevon.gov.uk,West Devon,http://www.westdevon.gov.uk,-3.92631200000000,EX20 2NW,2014-06-18,fhrs_5_en-GB,5,,FHRS,0
314565,Lydford Gorge,Road From The Old Chapel To Was Tor Cross,Lydford,Devon,The National Trust,Restaurant/Cafe/Canteen,1,5,,375661,0,,50.64320200000000,PI/000014488,081,eh@westdevon.gov.uk,West Devon,http://www.westdevon.gov.uk,-4.10810100000000,EX20 4BH,2014-03-24,fhrs_5_en-GB,5,,FHRS,0
314566,Tea Room,Lydford Gorge Waterfall Entrance,Road From The Old Chapel To Was Tor Cross,Lydford,The National Trust Waterfall Tearoom,Restaurant/Cafe/Canteen,1,0,,375663,0,,,PI/000022832,081,eh@westdevon.gov.uk,West Devon,http://www.westdevon.gov.uk,,,2014-06-19,fhrs_5_en-GB,5,,FHRS,0
314567,6 The Square,Chagford,Devon,,The New Forge,Restaurant/Cafe/Canteen,1,5,,643914,0,,50.67306600000000,PI/000041957,081,eh@westdevon.gov.uk,West Devon,http://www.westdevon.gov.uk,-3.83983500000000,TQ13 8AB,2014-04-08,fhrs_5_en-GB,5,,FHRS,5
314568,Road From Sampford Cross To Greenhill Cross,Sampford Courtenay,Devon,,The New Inn,Pub/bar/nightclub,7843,5,,163419,0,,50.79168300000000,PI/000004685,081,eh@westdevon.gov.uk,West Devon,http://www.westdevon.gov.uk,-3.93966900000000,EX20 2TB,2013-07-22,fhrs_5_en-GB,5,,FHRS,5
314569,Northmore Arms,Road From Barrow Way Cross To Wonson Manor,Throwleigh,Devon,The Northmore Arms,Pub/bar/nightclub,7843,0,,710088,0,,50.69147500000000,PI/000042764,081,eh@westdevon.gov.uk,West Devon,http://www.westdevon.gov.uk,-3.87878400000000,EX20 2JA,2014-08-25,fhrs_5_en-GB,5,,FHRS,5
314570,Unit 2,Access To North Road Industrial Estate,Okehampton,Devon,The Okey Cokey,Restaurant/Cafe/Canteen,1,5,,177148,0,,50.74487900000000,PI/000040878,081,eh@westdevon.gov.uk,West Devon,http://www.westdevon.gov.uk,-3.99723900000000,EX20 1BQ,2014-02-18,fhrs_5_en-GB,5,,FHRS,0
314571,The Old Dairy,Road Past Devon Tors Hotel,Yelverton,Devon,The Old Dairy Bed & Breakfast,Hotel/bed & breakfast/guest house,7842,5,,622359,0,,50.49257300000000,PI/000041896,081,eh@westdevon.gov.uk,West Devon,http://www.westdevon.gov.uk,-4.08697700000000,PL20 6DW,2013-12-11,fhrs_5_en-GB,5,,FHRS,0
314572,The Old Inn,Road Past Netherton House,Drewsteignton,Devon,The Old Inn Restaurant,Hotel/bed & breakfast/guest house,7842,5,,235405,5,,50.70346500000000,PI/000002880,081,eh@westdevon.gov.uk,West Devon,http://www.westdevon.gov.uk,-3.79250600000000,EX6 6QR,2012-03-01,fhrs_5_en-GB,5,,FHRS,0
314573,Lane Past Lopwell House,Roborough,Devon,,The Old Pump House,Restaurant/Cafe/Canteen,1,5,,175333,0,,50.46134000000000,PI/000031923,081,eh@westdevon.gov.uk,West Devon,http://www.westdevon.gov.uk,-4.15090900000000,PL6 7BZ,2014-06-05,fhrs_5_en-GB,5,,FHRS,5
314574,Road From Gulworthy Cross To Rock Cross,Gulworthy,Devon,,The Old Rectory,Retailers - other,4613,5,,576983,0,,50.53422200000000,PI/000012163,081,eh@westdevon.gov.uk,West Devon,http://www.westdevon.gov.uk,-4.19228400000000,PL19 8JA,2013-06-10,fhrs_5_en-GB,5,,FHRS,0
314575,Church Hill,Whitchurch,Devon,,The Old School,Hospitals/Childcare/Caring Premises,5,5,,166574,0,,50.53404500000000,PI/000009804,081,eh@westdevon.gov.uk,West Devon,http://www.westdevon.gov.uk,-4.12868700000000,PL19 9ED,2013-06-05,fhrs_5_en-GB,5,,FHRS,5
314576,The Ordulph Arms,Pym Street,Tavistock,Devon,The Ordulph & Terrace Restaurant,Pub/bar/nightclub,7843,5,,166936,5,,50.55058400000000,PI/000010497,081,eh@westdevon.gov.uk,West Devon,http://www.westdevon.gov.uk,-4.14589300000000,PL19 0AW,2013-06-04,fhrs_5_en-GB,5,,FHRS,5
314577,Bedford House,West Street,Tavistock,Devon,The Original Pasty House,Restaurant/Cafe/Canteen,1,0,,464844,0,,50.54903300000000,PI/000011677,081,eh@westdevon.gov.uk,West Devon,http://www.westdevon.gov.uk,-4.14460800000000,PL19 0AD,2014-06-17,fhrs_5_en-GB,5,,FHRS,5
314578,Oxenham Arms,Road From Shilhayes To Zeal Head Cross,South Zeal,Devon,The Oxenham Arms,Pub/bar/nightclub,7843,10,,576992,5,,50.72611900000000,PI/000041219,081,eh@westdevon.gov.uk,West Devon,http://www.westdevon.gov.uk,-3.91251700000000,EX20 2JT,2013-06-18,fhrs_3_en-GB,3,,FHRS,10
314579,Paris Cafe,29 The Market,Tavistock,Devon,The Pannier Market Cafe,Restaurant/Cafe/Canteen,1,0,,464854,0,,50.55011600000000,PI/000016227,081,eh@westdevon.gov.uk,West Devon,http://www.westdevon.gov.uk,-4.14347200000000,PL19 0AL,2012-10-09,fhrs_5_en-GB,5,,FHRS,5
314580,Vicarage,5A Plymouth Road,Tavistock,Devon,The Parish Church Centre,Other catering premises,7841,5,,464842,0,,50.54834100000000,PI/000011185,081,eh@westdevon.gov.uk,West Devon,http://www.westdevon.gov.uk,-4.14605900000000,PL19 8AU,2012-10-15,fhrs_5_en-GB,5,,FHRS,5
314581,,,,,The Patchwork Cake Company,Other catering premises,7841,,,430631,,,,PI/000041237,081,eh@westdevon.gov.uk,West Devon,http://www.westdevon.gov.uk,,,2012-07-26,fhrs_exempt_en-GB,Exempt,,FHRS,
314582,Exeter Road,Whiddon Down,Devon,,The Post Inn,Pub/bar/nightclub,7843,10,,622360,5,,50.71952200000000,PI/000041897,081,eh@westdevon.gov.uk,West Devon,http://www.westdevon.gov.uk,-3.85206700000000,EX20 2QT,2013-11-29,fhrs_4_en-GB,4,,FHRS,5
314583,Prince Of Wales,Tavistock Road,Princetown,Devon,The Prince of Wales,Pub/bar/nightclub,7843,10,,540067,5,,50.54485400000000,PI/000008414,081,eh@westdevon.gov.uk,West Devon,http://www.westdevon.gov.uk,-3.99261300000000,PL20 6QF,2013-03-13,fhrs_2_en-GB,2,,FHRS,15
314584,Road To Station House,North Tawton,Devon,,The Railway Inn,Pub/bar/nightclub,7843,5,,163108,5,,50.78175000000000,PI/000004201,081,eh@westdevon.gov.uk,West Devon,http://www.westdevon.gov.uk,-3.89119600000000,EX20 2BE,2015-01-08,fhrs_5_en-GB,5,,FHRS,5
314585,Clonway,Yelverton,Devon,,The Red House Residential Home,Hospitals/Childcare/Caring Premises,5,5,,481569,5,,50.49490600000000,PI/000013095,081,eh@westdevon.gov.uk,West Devon,http://www.westdevon.gov.uk,-4.09277700000000,PL20 6EF,2014-08-12,fhrs_4_en-GB,4,,FHRS,10
314586,Road From Farthingland Cross To Red Lion,Exbourne,Devon,,The Red Lion Inn,Pub/bar/nightclub,7843,10,,492729,10,,50.79862000000000,PI/000003096,081,eh@westdevon.gov.uk,West Devon,http://www.westdevon.gov.uk,-3.98494200000000,EX20 3RY,2015-01-08,fhrs_3_en-GB,3,,FHRS,10
314587,41 Market Street,Hatherleigh,Devon,,The Redroom,Pub/bar/nightclub,7843,0,,410485,5,,50.82214000000000,PI/000041203,081,eh@westdevon.gov.uk,West Devon,http://www.westdevon.gov.uk,-4.07117200000000,EX20 3JP,2012-06-21,fhrs_5_en-GB,5,,FHRS,0
314588,Road From Dousland Road To Westella Road,Yelverton,Devon,,The Rock Inn,Pub/bar/nightclub,7843,0,,430591,0,,50.49178500000000,PI/000006985,081,eh@westdevon.gov.uk,West Devon,http://www.westdevon.gov.uk,-4.08423600000000,PL20 6DS,2014-03-03,fhrs_5_en-GB,5,,FHRS,0
314589,Wonwood Barton,Road From Tuell Down Cross To Blacksmiths Arms,Lamerton,Devon,The Roundhouse,Restaurant/Cafe/Canteen,1,5,,495856,0,,50.57912800000000,PI/000007716,081,eh@westdevon.gov.uk,West Devon,http://www.westdevon.gov.uk,-4.22274700000000,PL19 8SE,2013-01-09,fhrs_5_en-GB,5,,FHRS,0
314590,Road From Horsebridge To Sydenham Cross,Horsebridge,Devon,,The Royal Inn,Pub/bar/nightclub,7843,5,,166235,0,,50.55190100000000,PI/000009218,081,eh@westdevon.gov.uk,West Devon,http://www.westdevon.gov.uk,-4.25879200000000,PL19 8PJ,2013-10-30,fhrs_4_en-GB,4,,FHRS,10
314591,Road From St Peters Church To Pixeycombe,Meavy,Devon,,The Royal Oak,Pub/bar/nightclub,7843,5,,520817,0,,50.48656000000000,PI/000008777,081,eh@westdevon.gov.uk,West Devon,http://www.westdevon.gov.uk,-4.05741800000000,PL20 6PJ,2014-04-02,fhrs_4_en-GB,4,,FHRS,10
314592,78 West Street,Tavistock,Devon,,The Royal Spice,Manufacturers/packers,7839,0,,464861,0,,50.54988800000000,PI/000022923,081,eh@westdevon.gov.uk,West Devon,http://www.westdevon.gov.uk,-4.14653900000000,PL19 8AQ,2014-05-21,fhrs_5_en-GB,5,,FHRS,5
314593,Royal Standard,Road From Cholwell Farm To Walford House,Mary Tavy,Devon,The Royal Standard,Hotel/bed & breakfast/guest house,7842,0,,622363,5,,50.60060500000000,PI/000041914,081,eh@westdevon.gov.uk,West Devon,http://www.westdevon.gov.uk,-4.11662600000000,PL19 9QB,2013-11-25,fhrs_4_en-GB,4,,FHRS,10
314594,Oaklands Park,Okehampton,Devon,,The Showfield,Pub/bar/nightclub,7843,5,,161690,0,,50.74083328247070,PI/000001776,081,eh@westdevon.gov.uk,West Devon,http://www.westdevon.gov.uk,-4.00764083862305,EX20 1LN,2014-09-26,fhrs_5_en-GB,5,,FHRS,0
314595,Golden Lion House,Road Past Hooperton Cross,Crockernwell,Devon,The Stables,Hotel/bed & breakfast/guest house,7842,0,,583372,0,,50.71808100000000,PI/000026352,081,eh@westdevon.gov.uk,West Devon,http://www.westdevon.gov.uk,-3.76648700000000,EX6 6NE,2013-08-29,fhrs_5_en-GB,5,,FHRS,0
314596,Lakesland,Road From Splatts Cross To Park Farm,Broadwoodkelly,Devon,The Stoned Olive,Manufacturers/packers,7839,0,,173462,0,,50.83016100000000,PI/000025787,081,eh@westdevon.gov.uk,West Devon,http://www.westdevon.gov.uk,-3.98439100000000,EX19 8EQ,2014-01-14,fhrs_5_en-GB,5,,FHRS,0
314597,Road From Swallow Cottage To Blue Forge,Lewdown,Devon,,The Stores,Retailers - other,4613,5,,165301,0,,50.65823400000000,PI/000007793,081,eh@westdevon.gov.uk,West Devon,http://www.westdevon.gov.uk,-4.19751700000000,EX20 4DQ,2014-04-29,fhrs_5_en-GB,5,,FHRS,0
314598,The Stores,Road From Shilhayes To Zeal Head Cross,South Zeal,Devon,"The Stores, South Zeal",Retailers - other,4613,5,,163643,5,,50.72611900000000,PI/000005049,081,eh@westdevon.gov.uk,West Devon,http://www.westdevon.gov.uk,-3.91251700000000,EX20 2JT,2013-12-04,fhrs_5_en-GB,5,,FHRS,5
314599,Tally Ho Cottage,14 Market Street,Hatherleigh,Devon,The Tally Ho,Restaurant/Cafe/Canteen,1,5,,636211,10,,50.82177600000000,PI/000041936,081,eh@westdevon.gov.uk,West Devon,http://www.westdevon.gov.uk,-4.07242000000000,EX20 3JN,2014-02-12,fhrs_4_en-GB,4,,FHRS,5
314600,73 West Street,Tavistock,Devon,,The Tavi Friar,Restaurant/Cafe/Canteen,1,0,,464881,0,,50.54953400000000,PI/000041318,081,eh@westdevon.gov.uk,West Devon,http://www.westdevon.gov.uk,-4.14770800000000,PL19 8AJ,2014-02-12,fhrs_4_en-GB,4,,FHRS,10
314601,Legion House,2 King Street,Tavistock,Devon,The Tavy Club,Restaurant/Cafe/Canteen,1,0,,177126,0,,50.55024300000000,PI/000040843,081,eh@westdevon.gov.uk,West Devon,http://www.westdevon.gov.uk,-4.14730300000000,PL19 0DS,2014-10-03,fhrs_5_en-GB,5,,FHRS,0
314602,45 Station Road,Bere Alston,Devon,,The Tea Pot,Restaurant/Cafe/Canteen,1,5,,683309,0,,50.48085200000000,PI/000041898,081,eh@westdevon.gov.uk,West Devon,http://www.westdevon.gov.uk,-4.19267400000000,PL20 7AF,2014-06-20,fhrs_5_en-GB,5,,FHRS,5
314603,Road From Cullaford Cross To Spreyton Cross,Spreyton,Devon,,The Tom Cobley Tavern,Pub/bar/nightclub,7843,5,,576975,0,,50.75582100000000,PI/000005247,081,eh@westdevon.gov.uk,West Devon,http://www.westdevon.gov.uk,-3.84636800000000,EX17 5AL,2013-07-18,fhrs_5_en-GB,5,,FHRS,5
314604,Road From Town Living Farm To Resugga,Belstone,Devon,,The Tors,Pub/bar/nightclub,7843,5,,495854,5,,50.72163500000000,PI/000001883,081,eh@westdevon.gov.uk,West Devon,http://www.westdevon.gov.uk,-3.95719000000000,EX20 1QZ,2014-09-19,fhrs_5_en-GB,5,,FHRS,5
314605,Trout N Tipple,Parkwood Road,Tavistock,Devon,The Trout 'N' Tipple,Pub/bar/nightclub,7843,10,,683315,5,,50.56155600000000,PI/000041992,081,eh@westdevon.gov.uk,West Devon,http://www.westdevon.gov.uk,-4.12879800000000,PL19 0JS,2014-06-20,fhrs_4_en-GB,4,,FHRS,5
314606,Wharf Arts Centre,The Wharf,Tavistock,Devon,The Wharf Coffee Shop & Bar (Cam Tra,Restaurant/Cafe/Canteen,1,5,,464835,0,,50.54746000000000,PI/000009714,081,eh@westdevon.gov.uk,West Devon,http://www.westdevon.gov.uk,-4.14700700000000,PL19 8AT,2012-10-09,fhrs_5_en-GB,5,,FHRS,0
314607,White Hart,58 Fore Street,North Tawton,Devon,The White Hart,Pub/bar/nightclub,7843,10,,683312,0,,50.79999700000000,PI/000041960,081,eh@westdevon.gov.uk,West Devon,http://www.westdevon.gov.uk,-3.90010700000000,EX20 2DT,2014-06-16,fhrs_4_en-GB,4,,FHRS,5
314608,11 The Square,Chagford,Devon,,Thomas'of Bovey/chagford,Retailers - other,4613,10,,235418,15,,50.67326100000000,PI/000002770,081,eh@westdevon.gov.uk,West Devon,http://www.westdevon.gov.uk,-3.84004100000000,TQ13 8AA,2014-09-29,fhrs_2_en-GB,2,,FHRS,10
314609,,,,,Thorn Cottage,Hotel/bed & breakfast/guest house,7842,10,,464856,0,,,PI/000018242,081,eh@westdevon.gov.uk,West Devon,http://www.westdevon.gov.uk,,,2012-08-29,fhrs_4_en-GB,4,,FHRS,0
314610,High Street,Chagford,Devon,,Three Crowns,Hotel/bed & breakfast/guest house,7842,5,,481560,5,,50.67245400000000,PI/000002558,081,eh@westdevon.gov.uk,West Devon,http://www.westdevon.gov.uk,-3.83985400000000,TQ13 8AJ,2014-05-30,fhrs_5_en-GB,5,,FHRS,5
314611,Thrushelton Mill,Road To Lower Mills,Lewdown,Devon,Thrushelton Mill B & B,Hotel/bed & breakfast/guest house,7842,0,,235372,0,,50.66756100000000,PI/000041159,081,eh@westdevon.gov.uk,West Devon,http://www.westdevon.gov.uk,-4.20033100000000,EX20 4QY,2014-10-22,fhrs_5_en-GB,5,,FHRS,0
314612,Tinhay Mill Cottage,Road From Tinhay Mill Cottage To Station Cottages,Tinhay,Devon,Tinhay Mill Guest House,Hotel/bed & breakfast/guest house,7842,5,,701930,0,,50.64366800000000,PI/000042588,081,eh@westdevon.gov.uk,West Devon,http://www.westdevon.gov.uk,-4.27319100000000,PL16 0AJ,2014-09-12,fhrs_5_en-GB,5,,FHRS,0
314613,4 Market Street,Okehampton,Devon,,Toast,Restaurant/Cafe/Canteen,1,5,,177146,5,,50.73985400000000,PI/000040875,081,eh@westdevon.gov.uk,West Devon,http://www.westdevon.gov.uk,-4.00394200000000,EX20 1HN,2013-11-28,fhrs_5_en-GB,5,,FHRS,5
314614,Tor Royal,Road From Tor Royal To Bullpark,Princetown,Devon,Tor Royal Farm,Hotel/bed & breakfast/guest house,7842,0,,344802,0,,50.54081300000000,PI/000008331,081,eh@westdevon.gov.uk,West Devon,http://www.westdevon.gov.uk,-3.97856900000000,PL20 6SL,2012-04-25,fhrs_5_en-GB,5,,FHRS,0
314615,Treetops Preschool,Bridestowe Village Hall,Pool Hill,Bridestowe,Treetops Childcare,School/college/university,7845,5,,173014,0,,50.68675300000000,PI/000024685,081,eh@westdevon.gov.uk,West Devon,http://www.westdevon.gov.uk,-4.10402200000000,EX20 4EW,2014-06-23,fhrs_5_en-GB,5,,FHRS,0
314616,,,,,Treets,Other catering premises,7841,0,,430628,0,,,PI/000036391,081,eh@westdevon.gov.uk,West Devon,http://www.westdevon.gov.uk,,,2012-07-04,fhrs_5_en-GB,5,,FHRS,0
314617,Tregarland Care Home,51 Whitchurch Road,Tavistock,Devon,Tregarland,Hospitals/Childcare/Caring Premises,5,0,,167680,0,,50.54203400000000,PI/000011903,081,eh@westdevon.gov.uk,West Devon,http://www.westdevon.gov.uk,-4.14224400000000,PL19 9BD,2013-06-28,fhrs_5_en-GB,5,,FHRS,5
314618,Unit 5B,Fatherford Farm,Road Past Fatherford Farm,Stockley,Turner's Bakehouse,Manufacturers/packers,7839,5,,643908,0,,50.74148000000000,PI/000041941,081,eh@westdevon.gov.uk,West Devon,http://www.westdevon.gov.uk,-3.97770500000000,EX20 1QQ,2014-02-21,fhrs_5_en-GB,5,,FHRS,5
314619,Road From Rendlestone Cross To Two Bridges,Princetown,Devon,,Two Bridges Hotel,Hotel/bed & breakfast/guest house,7842,5,,168564,5,,50.56338100000000,PI/000013409,081,eh@westdevon.gov.uk,West Devon,http://www.westdevon.gov.uk,-3.95661100000000,PL20 6SW,2013-07-16,fhrs_2_en-GB,2,,FHRS,15
314620,The Union Inn,King Street,Tavistock,Devon,Union Inn,Pub/bar/nightclub,7843,10,,699229,5,,50.55024300000000,PI/000042733,081,eh@westdevon.gov.uk,West Devon,http://www.westdevon.gov.uk,-4.14730300000000,PL19 0DS,2014-08-28,fhrs_4_en-GB,4,,FHRS,5
314621,Venn House,Road To Orchard Cottages,Lamerton,Devon,Venn Care Ltd,Hospitals/Childcare/Caring Premises,5,0,,165225,5,,50.56404400000000,PI/000007675,081,eh@westdevon.gov.uk,West Devon,http://www.westdevon.gov.uk,-4.18811800000000,PL19 8RX,2014-03-04,fhrs_5_en-GB,5,,FHRS,0
314622,42 The Square,Chagford,Devon,,Victoria Sponge,Restaurant/Cafe/Canteen,1,10,,643906,0,,50.67282000000000,PI/000041923,081,eh@westdevon.gov.uk,West Devon,http://www.westdevon.gov.uk,-3.84060400000000,TQ13 8AH,2014-04-08,fhrs_4_en-GB,4,,FHRS,0
314623,3 West Street,Okehampton,Devon,,Victorian Pantry Tearooms,Restaurant/Cafe/Canteen,1,10,,464816,5,,50.73868700000000,PI/000001627,081,eh@westdevon.gov.uk,West Devon,http://www.westdevon.gov.uk,-4.00382100000000,EX20 1HQ,2014-08-29,fhrs_3_en-GB,3,,FHRS,10
314624,"Unit 2, Moorland House",5 Moorland Villas,Yelverton,Devon,Vieira's,Restaurant/Cafe/Canteen,1,10,,557493,10,,50.49156600000000,PI/000040511,081,eh@westdevon.gov.uk,West Devon,http://www.westdevon.gov.uk,-4.08542400000000,PL20 6DT,2013-06-06,fhrs_4_en-GB,4,,FHRS,0
314625,Road Past Gidleigh Castle,Chagford,Devon,,Village Hall,Other catering premises,7841,5,,711758,5,,50.67943100000000,PI/000003168,081,eh@westdevon.gov.uk,West Devon,http://www.westdevon.gov.uk,-3.88276100000000,TQ13 8HR,2014-10-14,fhrs_5_en-GB,5,,FHRS,0
314626,2 Moorland Villas,Road Past St Pauls Church,Yelverton,Devon,W A Bidder & Sons,Manufacturers/packers,7839,0,,344800,0,,50.49156600000000,PI/000006850,081,eh@westdevon.gov.uk,West Devon,http://www.westdevon.gov.uk,-4.08542400000000,PL20 6DT,2014-07-03,fhrs_4_en-GB,4,,FHRS,10
314627,21 East Street,Okehampton,Devon,,W T Endacott Ltd,Retailers - other,4613,5,,235370,5,,50.73972200000000,PI/000000240,081,eh@westdevon.gov.uk,West Devon,http://www.westdevon.gov.uk,-3.99958500000000,EX20 1AT,2014-09-01,fhrs_5_en-GB,5,,FHRS,0
314628,16 Red Lion Yard,Okehampton,Devon,,W T Endacotts Ltd,Retailers - other,4613,0,,235389,0,,50.73980700000000,PI/000001199,081,eh@westdevon.gov.uk,West Devon,http://www.westdevon.gov.uk,-4.00350100000000,EX20 1AW,2013-06-11,fhrs_5_en-GB,5,,FHRS,0
314629,The Walkhampton Inn,Road From Sewage Works To Walkhampton Post Office,Walkhampton,Devon,Walkhampton Inn,Pub/bar/nightclub,7843,0,,410486,0,,50.50939300000000,PI/000041229,081,eh@westdevon.gov.uk,West Devon,http://www.westdevon.gov.uk,-4.06571600000000,PL20 6JY,2014-05-20,fhrs_5_en-GB,5,,FHRS,5
314630,Lady Modifords Church Of England Primary School,Road From Sewage Works To Walkhampton Post Office,Walkhampton,Devon,Walkhampton Lady Modiford's C or E P,School/college/university,7845,0,,430610,0,,50.50882100000000,PI/000012368,081,eh@westdevon.gov.uk,West Devon,http://www.westdevon.gov.uk,-4.07010600000000,PL20 6JR,2014-03-24,fhrs_5_en-GB,5,,FHRS,0
314631,Simmons Way,Okehampton,Devon,,Wardhayes Residential Care Home,Hospitals/Childcare/Caring Premises,5,5,,492727,5,,50.73792800000000,PI/000001258,081,eh@westdevon.gov.uk,West Devon,http://www.westdevon.gov.uk,-3.99615000000000,EX20 1PY,2014-09-01,fhrs_5_en-GB,5,,FHRS,0
314632,Road Past Warren House Inn,Postbridge,Devon,,Warren House Inn,Pub/bar/nightclub,7843,10,,441395,5,,50.61304500000000,PI/000008302,081,eh@westdevon.gov.uk,West Devon,http://www.westdevon.gov.uk,-3.87516100000000,PL20 6TA,2014-03-26,fhrs_4_en-GB,4,,FHRS,5
314633,10 Duke Street,Tavistock,Devon,,Warrens Bakery,Retailers - other,4613,5,,430602,0,,50.55060700000000,PI/000010217,081,eh@westdevon.gov.uk,West Devon,http://www.westdevon.gov.uk,-4.14414300000000,PL19 0BA,2014-02-21,fhrs_2_en-GB,2,,FHRS,15
314634,Meadowlands Leisure Pool,The Wharf,Tavistock,Devon,Waterside Cafe Ltd,Restaurant/Cafe/Canteen,1,5,,622364,10,,50.54690200000000,PI/000041917,081,eh@westdevon.gov.uk,West Devon,http://www.westdevon.gov.uk,-4.14751800000000,PL19 8SP,2013-06-03,fhrs_4_en-GB,4,,FHRS,5
314635,Road From East Ash Cross To Way Down Cross,Chagford,Devon,,Waye Farm,Hotel/bed & breakfast/guest house,7842,5,,485251,0,,50.69425500000000,PI/000002434,081,eh@westdevon.gov.uk,West Devon,http://www.westdevon.gov.uk,-3.85744300000000,TQ13 8HN,2012-12-06,fhrs_5_en-GB,5,,FHRS,0
314636,Road From The Croft To West Blackdown Cottage,Brentor,Devon,,West Blackdown Cottage,Hotel/bed & breakfast/guest house,7842,0,,375664,0,,50.61405000000000,PI/000023673,081,eh@westdevon.gov.uk,West Devon,http://www.westdevon.gov.uk,-4.13444700000000,PL19 0NB,2014-09-24,fhrs_5_en-GB,5,,FHRS,0
314637,Plowden Park,Newton Down,Lifton,Devon,West Country Creative,Restaurant/Cafe/Canteen,1,0,,235401,0,,50.64981400000000,PI/000024858,081,eh@westdevon.gov.uk,West Devon,http://www.westdevon.gov.uk,-4.24427500000000,PL16 0AS,2014-10-17,fhrs_5_en-GB,5,,FHRS,0
314638,3 Abbey Place,Tavistock,Devon,,West Devon Club,Pub/bar/nightclub,7843,20,,430597,5,,,PI/000009264,081,eh@westdevon.gov.uk,West Devon,http://www.westdevon.gov.uk,,,2014-02-18,fhrs_1_en-GB,1,,FHRS,10
314639,Road From Spitlar Cross To Youlden Lane,South Tawton,Devon,,West Nymph Farm,Retailers - other,4613,0,,173396,0,,50.74631300000000,PI/000025622,081,eh@westdevon.gov.uk,West Devon,http://www.westdevon.gov.uk,-3.88968200000000,EX20 2RJ,2014-06-04,fhrs_5_en-GB,5,,FHRS,0
314640,72 Broad Park Road,Bere Alston,Devon,,West View Residential Home,Hospitals/Childcare/Caring Premises,5,0,,464826,0,,50.48241600000000,PI/000005700,081,eh@westdevon.gov.uk,West Devon,http://www.westdevon.gov.uk,-4.18982800000000,PL20 7DU,2014-07-03,fhrs_5_en-GB,5,,FHRS,5
314641,,,,,Westworthy,Hotel/bed & breakfast/guest house,7842,10,,464858,0,,,PI/000020215,081,eh@westdevon.gov.uk,West Devon,http://www.westdevon.gov.uk,,,2012-08-29,fhrs_4_en-GB,4,,FHRS,0
314642,Whitchurch Primary School,School Road,Whitchurch,Devon,Whitchurch Community Primary School,School/college/university,7845,5,,167405,0,,50.53637600000000,PI/000011358,081,eh@westdevon.gov.uk,West Devon,http://www.westdevon.gov.uk,-4.13692100000000,PL19 9SR,2013-06-05,fhrs_5_en-GB,5,,FHRS,5
314643,The Whitchurch Inn,Church Hill,Whitchurch,Devon,Whitchurch Inn Ltd,Pub/bar/nightclub,7843,0,,430600,0,,50.53404500000000,PI/000009802,081,eh@westdevon.gov.uk,West Devon,http://www.westdevon.gov.uk,-4.12868700000000,PL19 9ED,2014-02-18,fhrs_5_en-GB,5,,FHRS,5
314644,234 Whitchurch Road,Tavistock,Devon,,Whitchurch Post Office & Stores,Retailers - other,4613,5,,430609,5,,50.53479100000000,PI/000011988,081,eh@westdevon.gov.uk,West Devon,http://www.westdevon.gov.uk,-4.13165600000000,PL19 9DQ,2014-07-03,fhrs_5_en-GB,5,,FHRS,5
314645,Fore Street,Okehampton,Devon,,White Hart Hotel,Hotel/bed & breakfast/guest house,7842,5,,235404,5,,50.73875700000000,PI/000000379,081,eh@westdevon.gov.uk,West Devon,http://www.westdevon.gov.uk,-4.00341300000000,EX20 1HD,2013-06-11,fhrs_5_en-GB,5,,FHRS,5
314646,Fore Street,Bridestowe,Devon,,White Hart Inn,Pub/bar/nightclub,7843,5,,683308,0,,50.68487000000000,PI/000041867,081,eh@westdevon.gov.uk,West Devon,http://www.westdevon.gov.uk,-4.10518400000000,EX20 4EL,2014-05-08,fhrs_4_en-GB,4,,FHRS,10
314647,White House Service Station,Road Past The White House,Okehampton,Devon,Whitehouse Services (Budgen Shop),Retailers - other,4613,5,,464848,5,,50.73910800000000,PI/000012955,081,eh@westdevon.gov.uk,West Devon,http://www.westdevon.gov.uk,-3.95893900000000,EX20 1QJ,2014-05-08,fhrs_5_en-GB,5,,FHRS,5
314648,White House Service Station,Road Past The White House,Okehampton,Devon,Whitehouse Services Restaurant,Restaurant/Cafe/Canteen,1,0,,464849,0,,50.73910800000000,PI/000012956,081,eh@westdevon.gov.uk,West Devon,http://www.westdevon.gov.uk,-3.95893900000000,EX20 1QJ,2014-03-26,fhrs_5_en-GB,5,,FHRS,0
314649,,,,,White's Cake House,Other catering premises,7841,0,,683310,0,,,PI/000041920,081,eh@westdevon.gov.uk,West Devon,http://www.westdevon.gov.uk,,,2014-06-06,fhrs_5_en-GB,5,,FHRS,5
314650,The Who'd Have Thought It Inn,Road Past Blowiscombe Barton,Milton Combe,Devon,Who'd Have Thought It Inn,Pub/bar/nightclub,7843,30,,693142,20,,50.47401800000000,PI/000042593,081,eh@westdevon.gov.uk,West Devon,http://www.westdevon.gov.uk,-4.13110500000000,PL20 6HP,2014-08-12,fhrs_0_en-GB,0,,FHRS,10
314651,Rosemont Farm,Road From Corner Cottage To Moors View,Milton Abbot,Devon,Willy's Ice Cream Vans,Mobile caterer,7846,0,,177141,5,,50.58140900000000,PI/000040870,081,eh@westdevon.gov.uk,West Devon,http://www.westdevon.gov.uk,-4.22809500000000,PL19 0PU,2011-08-11,fhrs_5_en-GB,5,,FHRS,0
314652,Russell Street,Tavistock,Devon,,Windsors of Tavistock,Restaurant/Cafe/Canteen,1,5,,177193,5,,50.54878900000000,PI/000041117,081,eh@westdevon.gov.uk,West Devon,http://www.westdevon.gov.uk,-4.14665800000000,PL19 8BD,2013-08-09,fhrs_5_en-GB,5,,FHRS,5
314653,128-130 Plymouth Road,Tavistock,Devon,,Wm Morrison Supermarkets plc,Retailers - supermarkets/hypermarkets,7840,5,,375660,0,,50.53728500000000,PI/000014178,081,eh@westdevon.gov.uk,West Devon,http://www.westdevon.gov.uk,-4.14567000000000,PL19 9DS,2014-08-14,fhrs_5_en-GB,5,,FHRS,5
314654,31 East Street,Okehampton,Devon,,Wongs Fish Bar,Takeaway/sandwich shop,7844,10,,699231,10,,50.73972200000000,PI/000042736,081,eh@westdevon.gov.uk,West Devon,http://www.westdevon.gov.uk,-3.99958500000000,EX20 1AT,2014-09-01,fhrs_3_en-GB,3,,FHRS,5
314655,Road From Grindhill Cross To Chestermoor Cross,Broadbury,Devon,,Woodlands,Other catering premises,7841,,,643865,,,50.72984700000000,PI/000001833,081,eh@westdevon.gov.uk,West Devon,http://www.westdevon.gov.uk,-4.13246600000000,EX20 4NH,2014-03-31,fhrs_exempt_en-GB,Exempt,,FHRS,
314656,Sourton Down Picnic Site,Road From Bowerland Cross To Highwayman Inn,Sourton,Devon,Woodys Diner,Restaurant/Cafe/Canteen,1,20,,622357,0,,50.70777000000000,PI/000040960,081,eh@westdevon.gov.uk,West Devon,http://www.westdevon.gov.uk,-4.05979500000000,EX20 4LY,2013-11-29,fhrs_1_en-GB,1,,FHRS,10
314657,1 Moorland Villas,Road Past St Pauls Church,Yelverton,Devon,Yelverton Garage,Retailers - other,4613,10,,235387,0,,50.49156600000000,PI/000006849,081,eh@westdevon.gov.uk,West Devon,http://www.westdevon.gov.uk,-4.08542400000000,PL20 6DT,2014-10-24,fhrs_4_en-GB,4,,FHRS,0
314658,Golf Links Road,Yelverton,Devon,,Yelverton Golf Club,Pub/bar/nightclub,7843,0,,576977,0,,50.48110300000000,PI/000006573,081,eh@westdevon.gov.uk,West Devon,http://www.westdevon.gov.uk,-4.09608500000000,PL20 6BN,2013-07-30,fhrs_4_en-GB,4,,FHRS,10
314659,The Yelverton Nursing And Residential Home,2-4 Greenbank Terrace,Yelverton,Devon,Yelverton Nursing & Residential Home,Hospitals/Childcare/Caring Premises,5,5,,164613,5,,50.49287500000000,PI/000006628,081,eh@westdevon.gov.uk,West Devon,http://www.westdevon.gov.uk,-4.08565100000000,PL20 6DR,2014-08-05,fhrs_5_en-GB,5,,FHRS,5
314660,6 Moorland Villas,Road Past St Pauls Church,Yelverton,Devon,Yelverton Stores Partnership,Restaurant/Cafe/Canteen,1,10,,430589,10,,50.49156600000000,PI/000006845,081,eh@westdevon.gov.uk,West Devon,http://www.westdevon.gov.uk,-4.08542400000000,PL20 6DT,2013-10-25,fhrs_2_en-GB,2,,FHRS,15
314661,Bellever Youth Hostel,Road Past Forest Cottage,Postbridge,Devon,Youth Hostels Association,Hotel/bed & breakfast/guest house,7842,0,,464830,5,,50.58063400000000,PI/000008138,081,eh@westdevon.gov.uk,West Devon,http://www.westdevon.gov.uk,-3.90161600000000,PL20 6TU,2014-09-29,fhrs_5_en-GB,5,,FHRS,5
