,addressline1,addressline2,addressline3,addressline4,businessname,businesstype,businesstypeid,confidenceinmanagement,extractdate,fhrsid,hygiene,itemcount,latitude,localauthoritybusinessid,localauthoritycode,localauthorityemailaddress,localauthorityname,localauthoritywebsite,longitude,postcode,ratingdate,ratingkey,ratingvalue,returncode,schemetype,structural
284334,,,,,2nd Home Childcare,Hospitals/Childcare/Caring Premises,5,0,,706712,0,,,59762,084,environmental.services@christchurch.gov.uk,Christchurch,http://www.dorsetforyou.com,,,2014-10-03,fhrs_5_en-GB,5,,FHRS,5
284335,,47 High Street,Christchurch,Dorset,99p Stores Ltd,Retailers - other,4613,10,,658395,10,,,86342,084,environmental.services@christchurch.gov.uk,Christchurch,http://www.dorsetforyou.com,,BH23 1AN,2013-10-02,fhrs_3_en-GB,3,,FHRS,10
284336,,45 Saffron Drive,Christchurch,Dorset,ABC Childminding Services,Hospitals/Childcare/Caring Premises,5,5,,658348,10,,50.74210200000000,86295,084,environmental.services@christchurch.gov.uk,Christchurch,http://www.dorsetforyou.com,-1.73436900000000,BH23 4LR,2013-10-08,fhrs_3_en-GB,3,,FHRS,10
284337,Merritown Farm,Merritown Lane,Christchurch,Dorset,Adventure Wonderland,Restaurant/Cafe/Canteen,1,5,,658119,5,,50.77455800000000,86063,084,environmental.services@christchurch.gov.uk,Christchurch,http://www.dorsetforyou.com,-1.84503300000000,BH23 6BA,2014-06-12,fhrs_5_en-GB,5,,FHRS,5
284338,,186 Stanpit,Christchurch,Dorset,ALEXANDERS,Takeaway/sandwich shop,7844,5,,690123,5,,50.72934100000000,87046,084,environmental.services@christchurch.gov.uk,Christchurch,http://www.dorsetforyou.com,-1.75481500000000,BH23 3NE,2014-07-22,fhrs_5_en-GB,5,,FHRS,0
284339,,117 Bargates,Christchurch,Dorset,Ali Baba Christchurch,Takeaway/sandwich shop,7844,10,,658105,15,,50.73899100000000,86048,084,environmental.services@christchurch.gov.uk,Christchurch,http://www.dorsetforyou.com,-1.78224300000000,BH23 1QH,2014-07-12,fhrs_2_en-GB,2,,FHRS,15
284340,,71 High Street,Christchurch,Dorset,Arcado Lounge,Restaurant/Cafe/Canteen,1,5,,706716,5,,50.73391700000000,87113,084,environmental.services@christchurch.gov.uk,Christchurch,http://www.dorsetforyou.com,-1.77659900000000,BH23 1AS,2014-10-01,fhrs_5_en-GB,5,,FHRS,5
284341,Argos Ltd,21b Saxon Square,Christchurch,Dorset,Argos Store,Retailers - other,4613,,,658188,,,50.73557400000000,86133,084,environmental.services@christchurch.gov.uk,Christchurch,http://www.dorsetforyou.com,-1.77773900000000,BH23 1QA,2012-07-09,fhrs_exempt_en-GB,Exempt,,FHRS,
284342,Avon Causeway,Hurn,Christchurch,Dorset,Avon Causeway Hotel,Hotel/bed & breakfast/guest house,7842,10,,658397,5,,50.77729000000000,86344,084,environmental.services@christchurch.gov.uk,Christchurch,http://www.dorsetforyou.com,-1.80766600000000,BH23 6AS,2012-03-21,fhrs_4_en-GB,4,,FHRS,5
284343,Preston Lane,Burton,Christchurch,Dorset,Avon Lee Lodge,Hospitals/Childcare/Caring Premises,5,0,,658047,5,,50.75416400000000,85990,084,environmental.services@christchurch.gov.uk,Christchurch,http://www.dorsetforyou.com,-1.76504800000000,BH23 7JU,2014-06-18,fhrs_5_en-GB,5,,FHRS,5
284344,,1 Farm Lane,Mudeford,Christchurch,Avon Reach,Hospitals/Childcare/Caring Premises,5,5,,658064,5,,50.72921600000000,86007,084,environmental.services@christchurch.gov.uk,Christchurch,http://www.dorsetforyou.com,-1.74261700000000,BH23 4AH,2014-06-14,fhrs_5_en-GB,5,,FHRS,5
284345,,1-3 Avon View Parade,Burton,Christchurch,Avon Stores Ltd,Retailers - other,4613,10,,658116,10,,50.75543700000000,86060,084,environmental.services@christchurch.gov.uk,Christchurch,http://www.dorsetforyou.com,-1.77208800000000,BH23 7LH,2014-07-26,fhrs_3_en-GB,3,,FHRS,10
284346,Loring Road,Christchurch,Dorset,,Avon View,Hospitals/Childcare/Caring Premises,5,0,,658086,0,,50.74398300000000,86029,084,environmental.services@christchurch.gov.uk,Christchurch,http://www.dorsetforyou.com,-1.79273700000000,BH23 2GZ,2014-10-13,fhrs_5_en-GB,5,,FHRS,0
284347,,171 Stanpit,Christchurch,Dorset,Avondene,Hospitals/Childcare/Caring Premises,5,5,,658082,5,,50.72970100000000,86025,084,environmental.services@christchurch.gov.uk,Christchurch,http://www.dorsetforyou.com,-1.75477100000000,BH23 3LY,2012-09-10,fhrs_4_en-GB,4,,FHRS,10
284348,,98 Mudeford,Christchurch,Dorset,Avonmouth Bakery CafÃ©,Restaurant/Cafe/Canteen,1,5,,658041,5,,50.72836200000000,85984,084,environmental.services@christchurch.gov.uk,Christchurch,http://www.dorsetforyou.com,-1.74269200000000,BH23 4AS,2014-06-21,fhrs_4_en-GB,4,,FHRS,10
284349,,,,,B Betty's Bakes,Other catering premises,7841,0,,706714,5,,,87041,084,environmental.services@christchurch.gov.uk,Christchurch,http://www.dorsetforyou.com,,,2014-09-22,fhrs_5_en-GB,5,,FHRS,5
284350,Grange Road,Christchurch,Dorset,,BAE Systems,Restaurant/Cafe/Canteen,1,0,,658027,5,,50.74110400000000,85970,084,environmental.services@christchurch.gov.uk,Christchurch,http://www.dorsetforyou.com,-1.73465800000000,BH23 4JE,2013-10-08,fhrs_5_en-GB,5,,FHRS,0
284351,,43 High Street,Christchurch,Dorset,Baggies,Restaurant/Cafe/Canteen,1,5,,658164,5,,50.73391700000000,86109,084,environmental.services@christchurch.gov.uk,Christchurch,http://www.dorsetforyou.com,-1.77659900000000,BH23 1AS,2013-10-16,fhrs_5_en-GB,5,,FHRS,5
284352,,131 Barrack Road,Christchurch,Dorset,Baileys,Restaurant/Cafe/Canteen,1,10,,658207,10,,50.74035900000000,86152,084,environmental.services@christchurch.gov.uk,Christchurch,http://www.dorsetforyou.com,-1.79296500000000,BH23 2AW,2012-08-01,fhrs_3_en-GB,3,,FHRS,10
284353,,54 Fairmile Road,Christchurch,Dorset,Baked Well,Other catering premises,7841,5,,658365,5,,50.74171200000000,86312,084,environmental.services@christchurch.gov.uk,Christchurch,http://www.dorsetforyou.com,-1.78516400000000,BH23 2LL,2012-11-14,fhrs_5_en-GB,5,,FHRS,5
284354,Unit 10,7 Airfield Road,Christchurch,Dorset,Ballancourt Ltd,Importers/Exporters,14,5,,658313,5,,50.73671900000000,86259,084,environmental.services@christchurch.gov.uk,Christchurch,http://www.dorsetforyou.com,-1.74397900000000,BH23 3TQ,2014-11-25,fhrs_5_en-GB,5,,FHRS,5
284355,,314 Lymington Road,Highcliffe,Christchurch,Ballantine's Patisserie,Retailers - other,4613,10,,658017,5,,50.74124100000000,85960,084,environmental.services@christchurch.gov.uk,Christchurch,http://www.dorsetforyou.com,-1.70184900000000,BH23 5ET,2012-01-30,fhrs_3_en-GB,3,,FHRS,10
284356,,113 Bargates,Christchurch,Dorset,Bargates Fish & Chips,Takeaway/sandwich shop,7844,10,,658098,5,,50.73899100000000,86041,084,environmental.services@christchurch.gov.uk,Christchurch,http://www.dorsetforyou.com,-1.78224300000000,BH23 1QH,2014-05-31,fhrs_1_en-GB,1,,FHRS,20
284357,,109 Bargates,Christchurch,Dorset,Bargates News,Retailers - other,4613,10,,658091,10,,50.73899100000000,86034,084,environmental.services@christchurch.gov.uk,Christchurch,http://www.dorsetforyou.com,-1.78224300000000,BH23 1QH,2009-01-30,fhrs_3_en-GB,3,,FHRS,10
284358,,15 Southcliffe Road,Friars Cliffe,Christchurch,Beachside,Hotel/bed & breakfast/guest house,7842,10,,658331,5,,50.73558700000000,86277,084,environmental.services@christchurch.gov.uk,Christchurch,http://www.dorsetforyou.com,-1.73233700000000,BH23 4EN,2011-05-23,fhrs_4_en-GB,4,,FHRS,5
284359,,32 Bargates,Christchurch,Dorset,Blockbuster Video,Retailers - other,4613,,,658110,,,50.73701800000000,86053,084,environmental.services@christchurch.gov.uk,Christchurch,http://www.dorsetforyou.com,-1.78068000000000,BH23 1QL,2012-03-15,fhrs_exempt_en-GB,Exempt,,FHRS,
284360,,60 Walkford Road,Highcliffe,Christchurch,Blue Hen,Other catering premises,7841,10,,658317,5,,50.75173500000000,86263,084,environmental.services@christchurch.gov.uk,Christchurch,http://www.dorsetforyou.com,-1.68441700000000,BH23 5QG,2012-03-14,fhrs_4_en-GB,4,,FHRS,5
284361,,7 St Catherines Parade,Fairmile Road,Christchurch,Bonafide Wines,Retailers - other,4613,10,,658206,5,,50.74965000000000,86151,084,environmental.services@christchurch.gov.uk,Christchurch,http://www.dorsetforyou.com,-1.79401600000000,BH23 2LQ,2011-02-07,fhrs_4_en-GB,4,,FHRS,5
284362,,2a Twynham Avenue,Christchurch,Dorset,Boots Pharmacy,Retailers - other,4613,,,658291,,,50.73714800000000,86237,084,environmental.services@christchurch.gov.uk,Christchurch,http://www.dorsetforyou.com,-1.78247900000000,BH23 1QU,2012-03-14,fhrs_exempt_en-GB,Exempt,,FHRS,
284363,,23 Saxon Square,Christchurch,Dorset,Boots the Chemist,Retailers - other,4613,5,,658315,5,,50.73525800000000,86261,084,environmental.services@christchurch.gov.uk,Christchurch,http://www.dorsetforyou.com,-1.77694700000000,BH23 1QB,2012-03-14,fhrs_4_en-GB,4,,FHRS,10
284364,Building 198,East Business Park,Off Matchams Lane,Christchurch,Bournemouth Flying Club,Pub/bar/nightclub,7843,5,,658229,5,,50.78583400000000,86175,084,environmental.services@christchurch.gov.uk,Christchurch,http://www.dorsetforyou.com,-1.83178900000000,BH23 6NE,2013-03-25,fhrs_5_en-GB,5,,FHRS,5
284365,Chapel Gate,Hurn,Christchurch,Dorset,Bournemouth Sports Club,Pub/bar/nightclub,7843,10,,658046,10,,50.78236300000000,85989,084,environmental.services@christchurch.gov.uk,Christchurch,http://www.dorsetforyou.com,-1.85910700000000,BH23 6BL,2011-07-13,fhrs_3_en-GB,3,,FHRS,10
284366,,71-75 Somerford Road,Christchurch,Dorset,BP Christchurch Simply Food Connect,Retailers - other,4613,0,,658136,5,,,86080,084,environmental.services@christchurch.gov.uk,Christchurch,http://www.dorsetforyou.com,,BH23 3PN,2014-10-08,fhrs_5_en-GB,5,,FHRS,0
284367,,55 Stour Road,Christchurch,Dorset,Brantwood Guest House,Hotel/bed & breakfast/guest house,7842,5,,658089,5,,50.73546300000000,86032,084,environmental.services@christchurch.gov.uk,Christchurch,http://www.dorsetforyou.com,-1.78581600000000,BH23 1LN,2014-11-13,fhrs_5_en-GB,5,,FHRS,0
284368,,125 Purewell,Christchurch,Dorset,British Chippy,Takeaway/sandwich shop,7844,5,,658054,10,,50.73580300000000,85997,084,environmental.services@christchurch.gov.uk,Christchurch,http://www.dorsetforyou.com,-1.76148400000000,BH23 1EJ,2011-07-04,fhrs_3_en-GB,3,,FHRS,10
284369,,213 Barrack Road,Christchurch,Dorset,Brook House,Hospitals/Childcare/Caring Premises,5,5,,658175,5,,50.74214000000000,86120,084,environmental.services@christchurch.gov.uk,Christchurch,http://www.dorsetforyou.com,-1.79847000000000,BH23 2AX,2012-08-01,fhrs_4_en-GB,4,,FHRS,10
284370,,172a Somerford Road,Somerford,Christchurch,Browns Fish and Chips,Takeaway/sandwich shop,7844,5,,658069,5,,50.74131600000000,86012,084,environmental.services@christchurch.gov.uk,Christchurch,http://www.dorsetforyou.com,-1.74493200000000,BH23 3QG,2014-06-14,fhrs_4_en-GB,4,,FHRS,10
284371,,178 Somerford Rd,Somerford,Christchurch,Browns Sandwich Shop,Takeaway/sandwich shop,7844,10,,658212,5,,50.74131600000000,86157,084,environmental.services@christchurch.gov.uk,Christchurch,http://www.dorsetforyou.com,-1.74493200000000,BH23 3QG,2014-09-03,fhrs_3_en-GB,3,,FHRS,10
284372,,18 Bure Haven Drive,Mudeford,Christchurch,Bure Lodge,Hotel/bed & breakfast/guest house,7842,10,,658345,5,,50.73217400000000,86292,084,environmental.services@christchurch.gov.uk,Christchurch,http://www.dorsetforyou.com,-1.73832200000000,BH23 4BS,2011-10-11,fhrs_4_en-GB,4,,FHRS,5
284373,,103 Bure Lane,Mudeford,Christchurch,Bure Stores (Londis),Retailers - other,4613,10,,658068,10,,50.73444800000000,86011,084,environmental.services@christchurch.gov.uk,Christchurch,http://www.dorsetforyou.com,-1.73376000000000,BH23 4DN,2011-12-13,fhrs_3_en-GB,3,,FHRS,10
284374,,131 Salisbury Road,Burton,Christchurch,Burton Day Nursery Ltd,Hospitals/Childcare/Caring Premises,5,5,,658246,5,,50.75286000000000,86192,084,environmental.services@christchurch.gov.uk,Christchurch,http://www.dorsetforyou.com,-1.76487100000000,BH23 7JN,2014-07-22,fhrs_5_en-GB,5,,FHRS,5
284375,,138 Salisbury Road,Burton,Christchurch,Burton Day Nursery Ltd 2,Hospitals/Childcare/Caring Premises,5,5,,658323,5,,50.75397600000000,86269,084,environmental.services@christchurch.gov.uk,Christchurch,http://www.dorsetforyou.com,-1.76577200000000,BH23 7JP,2014-07-30,fhrs_5_en-GB,5,,FHRS,5
284376,,109-113 Salisbury Road,Burton,Christchurch,Burton Green News & Stores,Retailers - other,4613,10,,658061,15,,50.75286000000000,86004,084,environmental.services@christchurch.gov.uk,Christchurch,http://www.dorsetforyou.com,-1.76487100000000,BH23 7JN,2014-10-22,fhrs_2_en-GB,2,,FHRS,5
284377,,119 Salisbury Road,Burton,Christchurch,Burton Green United Reformed Church,Other catering premises,7841,5,,658368,10,,50.75286000000000,86315,084,environmental.services@christchurch.gov.uk,Christchurch,http://www.dorsetforyou.com,-1.76487100000000,BH23 7JN,2012-11-08,fhrs_4_en-GB,4,,FHRS,5
284378,,123 Salisbury Road,Burton,Christchurch,Burton Pharmacy,Retailers - other,4613,,,658130,,,50.75543700000000,86074,084,environmental.services@christchurch.gov.uk,Christchurch,http://www.dorsetforyou.com,-1.77208800000000,BH23 7LH,2011-02-07,fhrs_exempt_en-GB,Exempt,,FHRS,
284379,Brton Green Uinited Reformed Church,119 Salisbury Road,Burton,Christchurch,Burton Village Lunch Club,Other catering premises,7841,5,,658369,5,,50.75286000000000,86316,084,environmental.services@christchurch.gov.uk,Christchurch,http://www.dorsetforyou.com,-1.76487100000000,BH23 7JN,2012-11-08,fhrs_5_en-GB,5,,FHRS,5
284380,Sandy Plot,Burton,Christchurch,Dorset,Burton Youth Centre,Other catering premises,7841,10,,658062,10,,50.74540200000000,86005,084,environmental.services@christchurch.gov.uk,Christchurch,http://www.dorsetforyou.com,-1.76789900000000,BH23 7NH,2014-01-28,fhrs_3_en-GB,3,,FHRS,10
284381,,96 Mudeford,Christchurch,Dorset,Burys News Food and Wine,Retailers - other,4613,10,,658040,10,,50.72836200000000,85983,084,environmental.services@christchurch.gov.uk,Christchurch,http://www.dorsetforyou.com,-1.74269200000000,BH23 4AS,2013-10-14,fhrs_3_en-GB,3,,FHRS,5
284382,,1 a Saxon Square,Christchurch,Dorset,CafÃ© Nero,Restaurant/Cafe/Canteen,1,0,,658324,0,,50.73557400000000,86270,084,environmental.services@christchurch.gov.uk,Christchurch,http://www.dorsetforyou.com,-1.77773900000000,BH23 1QA,2013-07-09,fhrs_5_en-GB,5,,FHRS,5
284383,,95 Bargates,Christchurch,Dorset,Cake-Links Ltd,Retailers - other,4613,5,,658234,5,,50.73811700000000,86180,084,environmental.services@christchurch.gov.uk,Christchurch,http://www.dorsetforyou.com,-1.78128400000000,BH23 1QQ,2013-10-08,fhrs_5_en-GB,5,,FHRS,5
284384,,2 Utrecht Court,Christchurch,Dorset,Cakepop Corner,Other catering premises,7841,10,,658332,5,,50.73696200000000,86278,084,environmental.services@christchurch.gov.uk,Christchurch,http://www.dorsetforyou.com,-1.76541800000000,BH23 1HP,2011-06-13,fhrs_4_en-GB,4,,FHRS,5
284385,,71 Jumpers Road,Christchurch,Dorset,Cakes by Helen,Other catering premises,7841,5,,658307,5,,50.74311500000000,86253,084,environmental.services@christchurch.gov.uk,Christchurch,http://www.dorsetforyou.com,-1.79021800000000,BH23 2JS,2013-07-09,fhrs_5_en-GB,5,,FHRS,5
284386,,112 Stour Road,Christchurch,Dorset,Captain Cod,Takeaway/sandwich shop,7844,5,,658093,5,,50.73358500000000,86036,084,environmental.services@christchurch.gov.uk,Christchurch,http://www.dorsetforyou.com,-1.78647700000000,BH23 1JP,2014-09-23,fhrs_5_en-GB,5,,FHRS,5
284387,Wick Ferry,Wick Lane,Christchurch,Dorset,Captains Club hotel,Restaurant/Cafe/Canteen,1,10,,658266,5,,50.73132500000000,86212,084,environmental.services@christchurch.gov.uk,Christchurch,http://www.dorsetforyou.com,-1.78004000000000,BH23 1HU,2013-10-01,fhrs_4_en-GB,4,,FHRS,5
284388,Unit 5 Saxon Square,Christchurch,Dorset,Christchurch,Card Bar,Retailers - other,4613,5,,658198,5,,50.73557400000000,86143,084,environmental.services@christchurch.gov.uk,Christchurch,http://www.dorsetforyou.com,-1.77773900000000,BH23 1QA,2013-11-20,fhrs_4_en-GB,4,,FHRS,10
284389,,52 High Street,Christchurch,Dorset,Card Factory,Retailers - other,4613,5,,658354,5,,50.73421300000000,86301,084,environmental.services@christchurch.gov.uk,Christchurch,http://www.dorsetforyou.com,-1.77638500000000,BH23 1BN,2012-04-23,fhrs_5_en-GB,5,,FHRS,5
284390,Chapel Gate,Hurn,Christchurch,Dorset,Chapel Gate Day Nursery,Hospitals/Childcare/Caring Premises,5,5,,658372,5,,50.78236300000000,86319,084,environmental.services@christchurch.gov.uk,Christchurch,http://www.dorsetforyou.com,-1.85910700000000,BH23 6BL,2013-04-17,fhrs_4_en-GB,4,,FHRS,10
284391,,10 Church Street,Christchurch,Dorset,Cheese & Alfies,Restaurant/Cafe/Canteen,1,5,,658151,5,,50.73337500000000,86096,084,environmental.services@christchurch.gov.uk,Christchurch,http://www.dorsetforyou.com,-1.77542500000000,BH23 1BW,2014-06-20,fhrs_4_en-GB,4,,FHRS,10
284392,,,,,Chillicious,Mobile caterer,7846,5,,682484,5,,,87023,084,environmental.services@christchurch.gov.uk,Christchurch,http://www.dorsetforyou.com,,,2014-07-03,fhrs_5_en-GB,5,,FHRS,0
284393,,33 Saxon Square,Christchurch,Dorset,Chilly Wizard Ice Cream,Retailers - other,4613,5,,658241,5,,50.73525800000000,86187,084,environmental.services@christchurch.gov.uk,Christchurch,http://www.dorsetforyou.com,-1.77694700000000,BH23 1QB,2012-08-01,fhrs_5_en-GB,5,,FHRS,5
284394,,105 Bure Lane,Mudeford,Christchurch,China At Lees,Takeaway/sandwich shop,7844,10,,658112,10,,50.73444800000000,86056,084,environmental.services@christchurch.gov.uk,Christchurch,http://www.dorsetforyou.com,-1.73376000000000,BH23 4DN,2011-12-12,fhrs_3_en-GB,3,,FHRS,10
284395,,83 Bargates,Christchurch,Dorset,China Kitchen,Takeaway/sandwich shop,7844,5,,658135,10,,50.73811700000000,86079,084,environmental.services@christchurch.gov.uk,Christchurch,http://www.dorsetforyou.com,-1.78128400000000,BH23 1QQ,2009-12-01,fhrs_3_en-GB,3,,FHRS,10
284396,,249 Lymington Road,Highcliffe,Christchurch,Chinatown,Takeaway/sandwich shop,7844,5,,658009,5,,50.74096100000000,85952,084,environmental.services@christchurch.gov.uk,Christchurch,http://www.dorsetforyou.com,-1.70146800000000,BH23 5EB,2010-09-09,fhrs_5_en-GB,5,,FHRS,5
284397,,17 Peppercorn Close,Christchurch,Dorset,Chris Pearcey - Wild Game,Farmers/growers,7838,10,,658387,10,,50.74230100000000,86334,084,environmental.services@christchurch.gov.uk,Christchurch,http://www.dorsetforyou.com,-1.75989200000000,BH23 3BL,2013-11-19,fhrs_3_en-GB,3,,FHRS,10
284398,,358 Lymington Road,Highcliffe,Christchurch,CHRIS WATSON FAMILY BUTCHERS,Retailers - other,4613,0,,722816,0,,50.74165700000000,78066,084,environmental.services@christchurch.gov.uk,Christchurch,http://www.dorsetforyou.com,-1.69939400000000,BH23 5EY,2014-12-04,fhrs_5_en-GB,5,,FHRS,0
284399,Portfield Hall,Portfield Road,Fairmile,Christchurch,Christchurch (Dorset) Assoc for Disabled,Other catering premises,7841,20,,658170,10,,50.74064200000000,86115,084,environmental.services@christchurch.gov.uk,Christchurch,http://www.dorsetforyou.com,-1.78521200000000,BH23 2AQ,2011-11-14,fhrs_1_en-GB,1,,FHRS,5
284400,Civic Offices,Bridge Street,Christchurch,Dorset,Christchurch Borough Council,Other catering premises,7841,5,,658197,5,,50.73422800000000,86142,084,environmental.services@christchurch.gov.uk,Christchurch,http://www.dorsetforyou.com,-1.76976800000000,BH23 1AZ,2011-10-10,fhrs_4_en-GB,4,,FHRS,10
284401,Unit 11,7 Airfield Road,Christchurch,Dorset,Christchurch Caterering Co,Takeaway/sandwich shop,7844,0,,658278,5,,50.73671900000000,86224,084,environmental.services@christchurch.gov.uk,Christchurch,http://www.dorsetforyou.com,-1.74397900000000,BH23 3TQ,2013-11-12,fhrs_5_en-GB,5,,FHRS,5
284402,,Unit 11 7 Airfield Road,Christchurch,Dorset,Christchurch Caterers Ltd,Mobile caterer,7846,5,,722815,5,,50.73671900000000,52672,084,environmental.services@christchurch.gov.uk,Christchurch,http://www.dorsetforyou.com,-1.74397900000000,BH23 3TQ,2014-12-04,fhrs_5_en-GB,5,,FHRS,5
284403,,18 Bargates,Christchurch,Dorset,Christchurch Conservative Club,Pub/bar/nightclub,7843,5,,658016,5,,50.73701800000000,85959,084,environmental.services@christchurch.gov.uk,Christchurch,http://www.dorsetforyou.com,-1.78068000000000,BH23 1QL,2014-09-22,fhrs_4_en-GB,4,,FHRS,10
284404,,250 Lymington Road,Highcliffe,Christchurch,Christchurch Day Centre,Hospitals/Childcare/Caring Premises,5,0,,658010,5,,50.74124100000000,85953,084,environmental.services@christchurch.gov.uk,Christchurch,http://www.dorsetforyou.com,-1.70184900000000,BH23 5ET,2014-09-23,fhrs_5_en-GB,5,,FHRS,5
284405,,95 Mudeford,Christchurch,Dorset,Christchurch Harbour Hotel,Restaurant/Cafe/Canteen,1,10,,658039,10,,50.72834900000000,85982,084,environmental.services@christchurch.gov.uk,Christchurch,http://www.dorsetforyou.com,-1.74524300000000,BH23 3NT,2014-11-18,fhrs_3_en-GB,3,,FHRS,10
284406,Christchurch Hospital,Fairmile Road,Christchurch,Dorset,Christchurch Hospital Catering Dept,Restaurant/Cafe/Canteen,1,0,,658004,0,,50.74468900000000,85947,084,environmental.services@christchurch.gov.uk,Christchurch,http://www.dorsetforyou.com,-1.79026700000000,BH23 2JX,2011-03-02,fhrs_5_en-GB,5,,FHRS,0
284407,,Clarendon Road,Christchurch,Dorset,Christchurch Junior School,School/college/university,7845,5,,732492,5,,50.73918600000000,78995,084,environmental.services@christchurch.gov.uk,Christchurch,http://www.dorsetforyou.com,-1.78575700000000,BH23 2AA,2015-01-23,fhrs_5_en-GB,5,,FHRS,0
284408,Beauchamp Place,off Reid Street,Christchurch,Dorset,Christchurch Montessori Nursery - Beauchamp,Hospitals/Childcare/Caring Premises,5,5,,658103,5,,50.76756800000000,86046,084,environmental.services@christchurch.gov.uk,Christchurch,http://www.dorsetforyou.com,-1.77318400000000,BH23 2BS,2014-03-31,fhrs_5_en-GB,5,,FHRS,5
284409,,247 Fairmile Road,Christchurch,Dorset,Christchurch Montessori Nursery - Fairmile,Hospitals/Childcare/Caring Premises,5,5,,658299,5,,50.75132700000000,86245,084,environmental.services@christchurch.gov.uk,Christchurch,http://www.dorsetforyou.com,-1.79616300000000,BH23 2LH,2014-03-31,fhrs_5_en-GB,5,,FHRS,5
284410,,60 High Street,Christchurch,Dorset,Christchurch News,Retailers - other,4613,10,,658205,5,,50.73421300000000,86150,084,environmental.services@christchurch.gov.uk,Christchurch,http://www.dorsetforyou.com,-1.77638500000000,BH23 1BN,2013-10-08,fhrs_3_en-GB,3,,FHRS,10
284411,Riverbank,Wick Lane,Christchurch,Dorset,Christchurch Rowing Club,Pub/bar/nightclub,7843,10,,658226,10,,50.73132500000000,86172,084,environmental.services@christchurch.gov.uk,Christchurch,http://www.dorsetforyou.com,-1.78004000000000,BH23 1HU,2012-09-07,fhrs_3_en-GB,3,,FHRS,10
284412,Christchurch Quay,Christchurch,Dorset,,Christchurch Sailing Club,Pub/bar/nightclub,7843,5,,658143,5,,50.73054000000000,86088,084,environmental.services@christchurch.gov.uk,Christchurch,http://www.dorsetforyou.com,-1.77388000000000,BH23 1BY,2014-09-22,fhrs_5_en-GB,5,,FHRS,5
284413,Christchurch Scout Centre,Beauchamp Place,Off Reid Street,Christchurch,Christchurch Scouts Active Support Unit,Other catering premises,7841,5,,658370,5,,,86317,084,environmental.services@christchurch.gov.uk,Christchurch,http://www.dorsetforyou.com,,BH23 2BS,2013-02-13,fhrs_4_en-GB,4,,FHRS,10
284414,,196 B Barrack Road,Christchurch,Dorset,Christchurch Spiritualist Church,Other catering premises,7841,10,,658296,5,,50.74145500000000,86242,084,environmental.services@christchurch.gov.uk,Christchurch,http://www.dorsetforyou.com,-1.79741000000000,BH23 2BQ,2009-04-27,fhrs_4_en-GB,4,,FHRS,5
284415,,190 Somerford Road,Christchurch,Dorset,Chutney Corner,Restaurant/Cafe/Canteen,1,5,,658363,5,,50.74131600000000,86310,084,environmental.services@christchurch.gov.uk,Christchurch,http://www.dorsetforyou.com,-1.74493200000000,BH23 3QG,2012-10-03,fhrs_4_en-GB,4,,FHRS,10
284416,Waterford Road,Highcliffe,Christchurch,Dorset,Cliffhanger CafÃ©,Restaurant/Cafe/Canteen,1,10,,658268,5,,50.74164900000000,86214,084,environmental.services@christchurch.gov.uk,Christchurch,http://www.dorsetforyou.com,-1.69616300000000,BH23 5JA,2014-07-16,fhrs_3_en-GB,3,,FHRS,10
284417,Quay Road,Christchurch,Dorset,,Cloisters Cafe,Other catering premises,7841,,,658172,,,50.73189200000000,86117,084,environmental.services@christchurch.gov.uk,Christchurch,http://www.dorsetforyou.com,-1.77585800000000,BH23 1BU,2014-07-01,fhrs_5_en-GB,5,,FHRS,
284418,,25 - 27 Bargates,Christchurch,Dorset,Club Epic,Pub/bar/nightclub,7843,10,,658024,5,,50.73653000000000,85967,084,environmental.services@christchurch.gov.uk,Christchurch,http://www.dorsetforyou.com,-1.77935000000000,BH23 1QD,2011-11-01,fhrs_3_en-GB,3,,FHRS,10
284419,,74 High Street,Christchurch,Dorset,Coast,Restaurant/Cafe/Canteen,1,5,,658125,10,,50.73421300000000,86069,084,environmental.services@christchurch.gov.uk,Christchurch,http://www.dorsetforyou.com,-1.77638500000000,BH23 1BN,2014-09-25,fhrs_4_en-GB,4,,FHRS,5
284420,"Building 46, North East Sector",Bournemouth Int Airport,Hurn,Christchurch,Cobham Aviation Services - Staff Canteen,Restaurant/Cafe/Canteen,1,5,,658114,0,,50.78583400000000,86058,084,environmental.services@christchurch.gov.uk,Christchurch,http://www.dorsetforyou.com,-1.83178900000000,BH23 6NE,2013-06-26,fhrs_5_en-GB,5,,FHRS,5
284421,,Chewton Farm Road,Christchurch,Dorset,Coda Music Centre,School/college/university,7845,0,,658405,5,,50.74899300000000,86983,084,environmental.services@christchurch.gov.uk,Christchurch,http://www.dorsetforyou.com,-1.68500300000000,BH23 5QL,2014-03-10,fhrs_5_en-GB,5,,FHRS,5
284422,,52 The Grove,Christchurch,Dorset,Continental Larder,Retailers - other,4613,5,,658300,5,,50.74650000000000,86246,084,environmental.services@christchurch.gov.uk,Christchurch,http://www.dorsetforyou.com,-1.80261900000000,BH23 2HB,2013-10-14,fhrs_4_en-GB,4,,FHRS,10
284423,,21 Saxon Square,Christchurch,Dorset,Co-op,Retailers - supermarkets/hypermarkets,7840,0,,658216,5,,50.73557400000000,86161,084,environmental.services@christchurch.gov.uk,Christchurch,http://www.dorsetforyou.com,-1.77773900000000,BH23 1QA,2014-12-09,fhrs_5_en-GB,5,,FHRS,0
284424,,309-311 Lymington Road,Highcliffe,Christchurch,Co-op Highcliffe,Retailers - supermarkets/hypermarkets,7840,5,,658015,5,,50.74169000000000,85958,084,environmental.services@christchurch.gov.uk,Christchurch,http://www.dorsetforyou.com,-1.69820400000000,BH23 5EG,2013-10-14,fhrs_4_en-GB,4,,FHRS,10
284425,,28-29 Saxon Square,Christchurch,Dorset,Costa Coffee,Restaurant/Cafe/Canteen,1,10,,658247,10,,50.73525800000000,86193,084,environmental.services@christchurch.gov.uk,Christchurch,http://www.dorsetforyou.com,-1.77694700000000,BH23 1QB,2010-03-25,fhrs_3_en-GB,3,,FHRS,10
284426,,44 Albion Road,Christchurch,Dorset,Crazy 4 Cupcakes & Bournemouth Sweet Cart,Other catering premises,7841,5,,658319,5,,50.74582600000000,86265,084,environmental.services@christchurch.gov.uk,Christchurch,http://www.dorsetforyou.com,-1.79284200000000,BH23 2JH,2013-10-08,fhrs_5_en-GB,5,,FHRS,5
284427,Bournemouth International Airport,Red Zone,Hurn Road,Christchurch,Cribbys Snack Shack,Mobile caterer,7846,20,,658228,15,,50.77883600000000,86174,084,environmental.services@christchurch.gov.uk,Christchurch,http://www.dorsetforyou.com,-1.83026800000000,BH23 6SE,2012-07-18,fhrs_1_en-GB,1,,FHRS,15
284428,,3 Pound Lane,Christchurch,Dorset,CUCKOOS,Restaurant/Cafe/Canteen,1,5,,690121,5,,50.73554800000000,87032,084,environmental.services@christchurch.gov.uk,Christchurch,http://www.dorsetforyou.com,-1.77826300000000,BH23 1DF,2014-07-22,fhrs_4_en-GB,4,,FHRS,10
284429,,252 Fairmile Road,Christchurch,Dorset,Daisy Dolls,Hospitals/Childcare/Caring Premises,5,10,,658306,10,,50.75003000000000,86252,084,environmental.services@christchurch.gov.uk,Christchurch,http://www.dorsetforyou.com,-1.79527600000000,BH23 2LR,2013-10-08,fhrs_3_en-GB,3,,FHRS,10
284430,,331 Lymington Road,Highcliffe,Christchurch,Daniels Fish & Chips Ltd,Takeaway/sandwich shop,7844,10,,658168,10,,50.74169000000000,86113,084,environmental.services@christchurch.gov.uk,Christchurch,http://www.dorsetforyou.com,-1.69820400000000,BH23 5EG,2014-06-10,fhrs_3_en-GB,3,,FHRS,10
284431,,4 Highcliffe Corner,Lymington Road,Christchurch,Dave's Fruit & Veg,Retailers - other,4613,10,,658400,10,,50.74216200000000,86347,084,environmental.services@christchurch.gov.uk,Christchurch,http://www.dorsetforyou.com,-1.69634400000000,BH23 5EL,2013-07-29,fhrs_3_en-GB,3,,FHRS,10
284432,,149 Barrack Road,Christchurch,Dorset,Delicious,Takeaway/sandwich shop,7844,5,,658249,5,,50.74096400000000,86195,084,environmental.services@christchurch.gov.uk,Christchurch,http://www.dorsetforyou.com,-1.79462100000000,BH23 2AP,2014-02-12,fhrs_4_en-GB,4,,FHRS,10
284433,,,,,Delicious Ice Bike Company,Mobile caterer,7846,5,,669688,5,,,87040,084,environmental.services@christchurch.gov.uk,Christchurch,http://www.dorsetforyou.com,,,2014-06-17,fhrs_5_en-GB,5,,FHRS,5
284434,,76 Walkford Road,Christchurch,Dorset,Dell Cottage Nursery,Hospitals/Childcare/Caring Premises,5,5,,658243,5,,50.75173500000000,86189,084,environmental.services@christchurch.gov.uk,Christchurch,http://www.dorsetforyou.com,-1.68441700000000,BH23 5QG,2014-10-13,fhrs_5_en-GB,5,,FHRS,5
284435,Bulstrodes Auction House,13 Stour Road,Christchurch,Dorset,Di's Tea Bar,Restaurant/Cafe/Canteen,1,5,,706713,5,,50.73826500000000,85945,084,environmental.services@christchurch.gov.uk,Christchurch,http://www.dorsetforyou.com,-1.78369200000000,BH23 1PL,2014-02-10,fhrs_5_en-GB,5,,FHRS,5
284436,,113 Barrack Road,Christchurch,Dorset,Domino's Pizza,Takeaway/sandwich shop,7844,5,,658146,5,,50.74035900000000,86091,084,environmental.services@christchurch.gov.uk,Christchurch,http://www.dorsetforyou.com,-1.79296500000000,BH23 2AW,2014-09-11,fhrs_5_en-GB,5,,FHRS,5
284437,,77 Somerford Road,Somerford,Christchurch,Domino's Pizza,Takeaway/sandwich shop,7844,5,,658067,5,,50.73758900000000,86010,084,environmental.services@christchurch.gov.uk,Christchurch,http://www.dorsetforyou.com,-1.75137100000000,BH23 3PP,2013-04-22,fhrs_5_en-GB,5,,FHRS,0
284438,,111 Bargates,Christchurch,Dorset,Don Ninos,Takeaway/sandwich shop,7844,10,,682482,10,,50.73899100000000,86928,084,environmental.services@christchurch.gov.uk,Christchurch,http://www.dorsetforyou.com,-1.78224300000000,BH23 1QH,2014-06-21,fhrs_3_en-GB,3,,FHRS,10
284439,,,,,Dorset Cookies,Other catering premises,7841,5,,669686,5,,,87024,084,environmental.services@christchurch.gov.uk,Christchurch,http://www.dorsetforyou.com,,,2014-05-21,fhrs_5_en-GB,5,,FHRS,5
284440,,215 Barrack Road,Christchurch,Dorset,Dragon Palace,Restaurant/Cafe/Canteen,1,10,,658217,15,,50.74214000000000,86162,084,environmental.services@christchurch.gov.uk,Christchurch,http://www.dorsetforyou.com,-1.79847000000000,BH23 2AX,2013-11-19,fhrs_2_en-GB,2,,FHRS,10
284441,,8 High Street,Christchurch,Dorset,Dragon Palace 2,Takeaway/sandwich shop,7844,10,,658393,15,,50.73525000000000,86340,084,environmental.services@christchurch.gov.uk,Christchurch,http://www.dorsetforyou.com,-1.77786800000000,BH23 1AY,2013-11-05,fhrs_2_en-GB,2,,FHRS,10
284442,,13 a Ducking Stool Lane,Off Milhams Street,Christchurch,Ducking Stool Tea Rooms,Restaurant/Cafe/Canteen,1,,,658132,,,50.73458000000000,86076,084,environmental.services@christchurch.gov.uk,Christchurch,http://www.dorsetforyou.com,-1.77527800000000,BH23 1DS,2014-09-12,fhrs_4_en-GB,4,,FHRS,
284443,,25 Barrack Road,Christchurch,Dorset,Dukes Bar & Grill,Restaurant/Cafe/Canteen,1,20,,658123,5,,50.73605900000000,86067,084,environmental.services@christchurch.gov.uk,Christchurch,http://www.dorsetforyou.com,-1.78220000000000,BH23 1PA,2014-03-12,fhrs_1_en-GB,1,,FHRS,15
284444,Grange Road,Christchurch,Dorset,,East Christchurch Sports and Social Club,Pub/bar/nightclub,7843,10,,658050,5,,50.74110400000000,85993,084,environmental.services@christchurch.gov.uk,Christchurch,http://www.dorsetforyou.com,-1.73465800000000,BH23 4JE,2014-06-14,fhrs_4_en-GB,4,,FHRS,5
284445,,5 Wessex Close,Christchurch,Dorset,Elizabeth Sparks - Childminder,Hospitals/Childcare/Caring Premises,5,10,,658339,10,,50.73914500000000,86286,084,environmental.services@christchurch.gov.uk,Christchurch,http://www.dorsetforyou.com,-1.73094200000000,BH23 4SS,2013-10-14,fhrs_3_en-GB,3,,FHRS,10
284446,,60 Leyside,Mudeford,Christchurch,Elms Catering,Mobile caterer,7846,10,,658303,10,,50.73547100000000,86249,084,environmental.services@christchurch.gov.uk,Christchurch,http://www.dorsetforyou.com,-1.74898800000000,BH23 3RD,2009-09-22,fhrs_3_en-GB,3,,FHRS,10
284447,,11 Marlow Drive,Christchurch,Dorset,F A Lambe & Sons,Retailers - other,4613,10,,658075,5,,50.75639100000000,86018,084,environmental.services@christchurch.gov.uk,Christchurch,http://www.dorsetforyou.com,-1.80233600000000,BH23 2RR,2015-01-12,fhrs_3_en-GB,3,,FHRS,10
284448,,5-6 Fairmile Parade,Fairmile Road,Christchurch,Fairmile Convenience Store,Retailers - other,4613,20,,658352,10,,50.74816500000000,86299,084,environmental.services@christchurch.gov.uk,Christchurch,http://www.dorsetforyou.com,-1.79318600000000,BH23 2LP,2014-09-08,fhrs_1_en-GB,1,,FHRS,15
284449,,1 Fairmile Parade,Fairmile Road,Christchurch,Fairmile Fisheries,Takeaway/sandwich shop,7844,10,,658360,5,,50.74816500000000,86307,084,environmental.services@christchurch.gov.uk,Christchurch,http://www.dorsetforyou.com,-1.79318600000000,BH23 2LP,2014-07-12,fhrs_3_en-GB,3,,FHRS,10
284450,,204 Fairmile Road,Christchurch,Dorset,Fairmile Service Station (Texaco),Retailers - other,4613,5,,658391,5,,50.74816500000000,86338,084,environmental.services@christchurch.gov.uk,Christchurch,http://www.dorsetforyou.com,-1.79318600000000,BH23 2LP,2013-07-08,fhrs_4_en-GB,4,,FHRS,10
284451,,,,,Fat Chips & Funky Dips,Mobile caterer,7846,5,,658389,5,,,86336,084,environmental.services@christchurch.gov.uk,Christchurch,http://www.dorsetforyou.com,,,2014-02-03,fhrs_5_en-GB,5,,FHRS,5
284452,Salisbury Road,Winkton,Christchurch,Dorset,Fishermans Haunt,Restaurant/Cafe/Canteen,1,0,,658059,0,,50.76525900000000,86002,084,environmental.services@christchurch.gov.uk,Christchurch,http://www.dorsetforyou.com,-1.77303300000000,BH23 7AS,2013-01-23,fhrs_5_en-GB,5,,FHRS,5
284453,,41A High Street,Christchurch,Dorset,FLEUR DE LIS TEA ROOM,Restaurant/Cafe/Canteen,1,5,,717433,5,,50.73391700000000,77968,084,environmental.services@christchurch.gov.uk,Christchurch,http://www.dorsetforyou.com,-1.77659900000000,BH23 1AS,2014-11-14,fhrs_5_en-GB,5,,FHRS,0
284454,,355 Lymington Road,Highcliffe,Christchurch,Fry days,Takeaway/sandwich shop,7844,10,,658021,10,,50.74169000000000,85964,084,environmental.services@christchurch.gov.uk,Christchurch,http://www.dorsetforyou.com,-1.69820400000000,BH23 5EG,2010-10-05,fhrs_2_en-GB,2,,FHRS,15
284455,c/o Christchurch Infant School,Addiscombe Road,Christchurch,Dorset,Funtastic Club,Hospitals/Childcare/Caring Premises,5,5,,658208,5,,50.73995800000000,86153,084,environmental.services@christchurch.gov.uk,Christchurch,http://www.dorsetforyou.com,-1.78517200000000,BH23 2AE,2014-10-13,fhrs_5_en-GB,5,,FHRS,5
284456,,400 Lymington Road,Highcliffe,Christchurch,G & T's,Retailers - other,4613,5,,658314,5,,50.74254000000000,86260,084,environmental.services@christchurch.gov.uk,Christchurch,http://www.dorsetforyou.com,-1.69624200000000,BH23 5HE,2013-10-08,fhrs_5_en-GB,5,,FHRS,5
284457,Unit 6 Hughes Business Centre,Wilverley Road,Christchurch,Dorset,Greedy Cakes,Distributors/Transporters,7,0,,658351,5,,50.73908100000000,86298,084,environmental.services@christchurch.gov.uk,Christchurch,http://www.dorsetforyou.com,-1.74271900000000,BH23 3RU,2013-09-30,fhrs_5_en-GB,5,,FHRS,5
284458,,1b Saxon Square,Christchurch,Dorset,Greggs,Retailers - other,4613,0,,658325,0,,50.73557400000000,86271,084,environmental.services@christchurch.gov.uk,Christchurch,http://www.dorsetforyou.com,-1.77773900000000,BH23 1QA,2010-12-07,fhrs_5_en-GB,5,,FHRS,0
284459,Waterford Road,Highcliffe,Christchurch,Dorset,Greystones Hall,Other catering premises,7841,5,,658106,5,,50.74020800000000,86049,084,environmental.services@christchurch.gov.uk,Christchurch,http://www.dorsetforyou.com,-1.69529400000000,BH23 5JL,2014-06-10,fhrs_5_en-GB,5,,FHRS,0
284460,,50 The Grove,Christchurch,Dorset,Grove Mini Market,Retailers - other,4613,10,,658101,10,,50.74650000000000,86044,084,environmental.services@christchurch.gov.uk,Christchurch,http://www.dorsetforyou.com,-1.80261900000000,BH23 2HB,2012-03-15,fhrs_3_en-GB,3,,FHRS,5
284461,,32 The Grove,Christchurch,Dorset,Grove News,Retailers - other,4613,5,,658099,5,,50.74650000000000,86042,084,environmental.services@christchurch.gov.uk,Christchurch,http://www.dorsetforyou.com,-1.80261900000000,BH23 2HB,2011-11-07,fhrs_5_en-GB,5,,FHRS,5
284462,,4 Normandy Drive,Christchurch,Dorset,Grumpkins Cupcakes,Other catering premises,7841,5,,658371,5,,50.73779800000000,86318,084,environmental.services@christchurch.gov.uk,Christchurch,http://www.dorsetforyou.com,-1.76092100000000,BH23 3DT,2013-03-26,fhrs_5_en-GB,5,,FHRS,5
284463,,58 High Street,Christchurch,Dorset,Heartizans Deli,Restaurant/Cafe/Canteen,1,5,,658396,5,,50.73421300000000,86343,084,environmental.services@christchurch.gov.uk,Christchurch,http://www.dorsetforyou.com,-1.77638500000000,BH23 1BN,2011-12-06,fhrs_5_en-GB,5,,FHRS,5
284464,,,,,Heronshaw House,Hotel/bed & breakfast/guest house,7842,5,,682481,5,,,52719,084,environmental.services@christchurch.gov.uk,Christchurch,http://www.dorsetforyou.com,,,2014-06-26,fhrs_5_en-GB,5,,FHRS,5
284465,,5 Moonrakers Way,Highcliffe,Christchurch,Hewitts Home Dining,Other catering premises,7841,5,,658301,5,,50.74577900000000,86247,084,environmental.services@christchurch.gov.uk,Christchurch,http://www.dorsetforyou.com,-1.71504400000000,BH23 4RD,2013-05-09,fhrs_5_en-GB,5,,FHRS,5
284466,Amethyst Road,Somerford,Christchurch,Dorset,High Cross Church,Other catering premises,7841,10,,658340,10,,50.74083800000000,86287,084,environmental.services@christchurch.gov.uk,Christchurch,http://www.dorsetforyou.com,-1.74820800000000,BH23 3EB,2011-10-04,fhrs_4_en-GB,4,,FHRS,0
284467,Parkside,Highcliffe,Christchurch,Dorset,Highcliffe Academy,School/college/university,7845,10,,658120,10,,50.77915191650391,86064,084,environmental.services@christchurch.gov.uk,Christchurch,http://www.dorsetforyou.com,-2.32034993171692,BH23 4QB,2014-05-22,fhrs_3_en-GB,3,,FHRS,5
284468,Highcliffe Castle,Rothesay Drive,Christchurch,Dorset,Highcliffe Castle Tea Rooms,Restaurant/Cafe/Canteen,1,5,,658160,5,,50.73746000000000,86105,084,environmental.services@christchurch.gov.uk,Christchurch,http://www.dorsetforyou.com,-1.71112600000000,BH23 4LE,2014-05-13,fhrs_2_en-GB,2,,FHRS,15
284469,Rothesay Drive,Highcliffe,Christchurch,Dorset,Highcliffe Castle Visitor Centre,Retailers - other,4613,,,658195,,,50.73746000000000,86140,084,environmental.services@christchurch.gov.uk,Christchurch,http://www.dorsetforyou.com,-1.71112600000000,BH23 4LE,2013-10-14,fhrs_exempt_en-GB,Exempt,,FHRS,
284470,,5 Stuart Road,Highcliffe,Christchurch,Highcliffe Nursing Home,Hospitals/Childcare/Caring Premises,5,10,,658095,10,,50.74220100000000,86038,084,environmental.services@christchurch.gov.uk,Christchurch,http://www.dorsetforyou.com,-1.69411900000000,BH23 5JS,2014-06-09,fhrs_3_en-GB,3,,FHRS,10
284471,Mudeford Quay,Christchurch,Dorset,,Highcliffe Sailing Club,Pub/bar/nightclub,7843,5,,658044,10,,50.72442200000000,85987,084,environmental.services@christchurch.gov.uk,Christchurch,http://www.dorsetforyou.com,-1.74200600000000,BH23 4AB,2013-10-14,fhrs_3_en-GB,3,,FHRS,10
284472,,387 Lymington Road,Highcliffe,Christchurch,Highcliffe Sports & Social Club,Pub/bar/nightclub,7843,10,,658145,10,,50.74169000000000,86090,084,environmental.services@christchurch.gov.uk,Christchurch,http://www.dorsetforyou.com,-1.69820400000000,BH23 5EG,2014-09-01,fhrs_3_en-GB,3,,FHRS,10
284473,Greenways,Highcliffe,Christchurch,Dorset,Highcliffe St Mark Primary School,School/college/university,7845,5,,658275,5,,50.74541200000000,86221,084,environmental.services@christchurch.gov.uk,Christchurch,http://www.dorsetforyou.com,-1.70462900000000,BH23 5AZ,2011-11-15,fhrs_5_en-GB,5,,FHRS,5
284474,,46 Wortley Road,Highcliffe,Christchurch,Highview Court (Perverel Retirement Division),Hospitals/Childcare/Caring Premises,5,0,,658295,0,,50.73970500000000,86241,084,environmental.services@christchurch.gov.uk,Christchurch,http://www.dorsetforyou.com,-1.70255300000000,BH23 5GJ,2013-03-25,fhrs_5_en-GB,5,,FHRS,5
284475,Hoburne Lane,Christchurch,Dorset,,Hoburne Farm Caravan Park Ltd,Retailers - other,4613,5,,658402,5,,50.74269400000000,86349,084,environmental.services@christchurch.gov.uk,Christchurch,http://www.dorsetforyou.com,-1.72604600000000,BH23 4HU,2013-10-09,fhrs_4_en-GB,4,,FHRS,10
284476,,,,,Hog Roast 4U,Mobile caterer,7846,5,,658406,5,,,86987,084,environmental.services@christchurch.gov.uk,Christchurch,http://www.dorsetforyou.com,,,2014-03-27,fhrs_5_en-GB,5,,FHRS,5
284477,Unit 11 Saxon Square,Christchurch,Dorset,,Holland & Barrett,Retailers - other,4613,10,,658203,10,,50.73557400000000,86148,084,environmental.services@christchurch.gov.uk,Christchurch,http://www.dorsetforyou.com,-1.77773900000000,BH23 1QA,2013-05-09,fhrs_3_en-GB,3,,FHRS,5
284478,,Salisbury Road,,,Homefield Grange Care Home,Hospitals/Childcare/Caring Premises,5,5,,669689,5,,50.76211700000000,87042,084,environmental.services@christchurch.gov.uk,Christchurch,http://www.dorsetforyou.com,-1.77148800000000,BH23 7AR,2014-06-04,fhrs_5_en-GB,5,,FHRS,5
284479,Homelands,Kings Avenue,Christchurch,Dorset,Homelands Lunch Club,Hospitals/Childcare/Caring Premises,5,5,,658140,5,,50.73545400000000,86085,084,environmental.services@christchurch.gov.uk,Christchurch,http://www.dorsetforyou.com,-1.79053500000000,BH23 1NA,2014-09-11,fhrs_5_en-GB,5,,FHRS,5
284480,,360 Lymington Road,Highcliffe,Christchurch,Honeymoon Chinese Takeaway,Takeaway/sandwich shop,7844,20,,658118,15,,50.74165700000000,86062,084,environmental.services@christchurch.gov.uk,Christchurch,http://www.dorsetforyou.com,-1.69939400000000,BH23 5EY,2014-07-31,fhrs_1_en-GB,1,,FHRS,10
284481,Honeywell Aerospace,2 Aviation Business Park,Bournemouth Airport,Christchurch,Honeywell,Restaurant/Cafe/Canteen,1,5,,658115,5,,50.78169900000000,86059,084,environmental.services@christchurch.gov.uk,Christchurch,http://www.dorsetforyou.com,-1.85279700000000,BH23 6EW,2013-12-03,fhrs_4_en-GB,4,,FHRS,10
284482,,,,,Hop On Inn & Black Cab Bar,Mobile caterer,7846,5,,658388,5,,,86335,084,environmental.services@christchurch.gov.uk,Christchurch,http://www.dorsetforyou.com,,,2014-02-03,fhrs_5_en-GB,5,,FHRS,5
284483,Hurn Bridge,Avon Causeway,Hurn,Christchurch,Hurn Bridge Sports Club,Pub/bar/nightclub,7843,5,,658404,5,,50.77288300000000,86351,084,environmental.services@christchurch.gov.uk,Christchurch,http://www.dorsetforyou.com,-1.81890200000000,BH23 6DY,2010-03-30,fhrs_4_en-GB,4,,FHRS,10
284484,Matchams Lane,Hurn,Christchurch,Dorset,Hurn Post Office & Stores,Retailers - other,4613,10,,658113,10,,50.77250900000000,86057,084,environmental.services@christchurch.gov.uk,Christchurch,http://www.dorsetforyou.com,-1.82090300000000,BH23 6AH,2013-10-08,fhrs_3_en-GB,3,,FHRS,10
284485,Iford Golf Course,Riverside Avenue,Christchurch,Dorset,Iford Golf Club,Pub/bar/nightclub,7843,5,,658202,5,,,86147,084,environmental.services@christchurch.gov.uk,Christchurch,http://www.dorsetforyou.com,,BH07 7ES,2014-05-07,fhrs_5_en-GB,5,,FHRS,5
284486,,64 High Street,Christchurch,Dorset,Indulge Yourself,Restaurant/Cafe/Canteen,1,10,,658337,5,,50.73421300000000,86284,084,environmental.services@christchurch.gov.uk,Christchurch,http://www.dorsetforyou.com,-1.77638500000000,BH23 1BN,2011-08-01,fhrs_4_en-GB,4,,FHRS,5
284487,,1 St Catherines Parade,Fairmile Road,Christchurch,Jade Orchid,Takeaway/sandwich shop,7844,10,,658133,10,,50.74965000000000,86077,084,environmental.services@christchurch.gov.uk,Christchurch,http://www.dorsetforyou.com,-1.79401600000000,BH23 2LQ,2009-09-14,fhrs_3_en-GB,3,,FHRS,10
284488,,17 Church Street,Christchurch,Dorset,James & White,Restaurant/Cafe/Canteen,1,10,,658311,5,,50.73337500000000,86257,084,environmental.services@christchurch.gov.uk,Christchurch,http://www.dorsetforyou.com,-1.77542500000000,BH23 1BW,2013-10-16,fhrs_3_en-GB,3,,FHRS,10
284489,,,,,Josephine Stevens - Market Trader,Retailers - other,4613,,,658225,,,,86171,084,environmental.services@christchurch.gov.uk,Christchurch,http://www.dorsetforyou.com,,,2012-08-01,fhrs_exempt_en-GB,Exempt,,FHRS,
284490,,11 Stanpit,Christchurch,Dorset,Kashmir Restaurant,Restaurant/Cafe/Canteen,1,5,,658079,5,,50.73486200000000,86022,084,environmental.services@christchurch.gov.uk,Christchurch,http://www.dorsetforyou.com,-1.75900900000000,BH23 3LR,2013-10-23,fhrs_5_en-GB,5,,FHRS,5
284491,,7 Buckland Grove,Highcliffe,Christchurch,Katies Cupcakes,Other catering premises,7841,10,,658350,5,,50.75094400000000,86297,084,environmental.services@christchurch.gov.uk,Christchurch,http://www.dorsetforyou.com,-1.71611800000000,BH23 4RS,2012-02-21,fhrs_4_en-GB,4,,FHRS,5
284492,Unit 7 Hughes Business Park,Wilverely Road,Christchurch,Dorset,Keep It Sweet Ltd,Manufacturers/packers,7839,10,,658353,5,,50.73908100000000,86300,084,environmental.services@christchurch.gov.uk,Christchurch,http://www.dorsetforyou.com,-1.74271900000000,BH23 3RU,2012-04-23,fhrs_3_en-GB,3,,FHRS,10
284493,,55 High Street,Christchurch,Dorset,Kellys Kitchen,Restaurant/Cafe/Canteen,1,5,,658392,5,,50.73391700000000,86339,084,environmental.services@christchurch.gov.uk,Christchurch,http://www.dorsetforyou.com,-1.77659900000000,BH23 1AS,2014-05-14,fhrs_5_en-GB,5,,FHRS,5
284494,,182 Barrack Road,Christchurch,Dorset,KFC,Restaurant/Cafe/Canteen,1,5,,658167,0,,50.74145500000000,86112,084,environmental.services@christchurch.gov.uk,Christchurch,http://www.dorsetforyou.com,-1.79741000000000,BH23 2BQ,2014-05-14,fhrs_5_en-GB,5,,FHRS,5
284495,,2 Lyndhurst Road,Christchurch,Dorset,KFC - Lyndhurst Road,Takeaway/sandwich shop,7844,0,,727588,0,,50.74385700000000,52498,084,environmental.services@christchurch.gov.uk,Christchurch,http://www.dorsetforyou.com,-1.73892300000000,BH23 4SB,2014-12-22,fhrs_5_en-GB,5,,FHRS,5
284496,,8-10 Castle Street,Christchurch,,KOH THAI TAPAS,Restaurant/Cafe/Canteen,1,5,,712040,5,,50.73230900000000,87087,084,environmental.services@christchurch.gov.uk,Christchurch,http://www.dorsetforyou.com,-1.77758400000000,BH23 1DE,2014-10-30,fhrs_5_en-GB,5,,FHRS,5
284497,,51-53 Bridge Street,Christchurch,Dorset,La Mamma Restaurant,Restaurant/Cafe/Canteen,1,5,,658218,5,,50.73467100000000,86163,084,environmental.services@christchurch.gov.uk,Christchurch,http://www.dorsetforyou.com,-1.77139500000000,BH23 1DY,2013-03-27,fhrs_5_en-GB,5,,FHRS,5
284498,Christchurch Hospital,Fairmile Road,Christchurch,Dorset,League of Friends Tea Bar,Restaurant/Cafe/Canteen,1,10,,658399,10,,50.73290600000000,86346,084,environmental.services@christchurch.gov.uk,Christchurch,http://www.dorsetforyou.com,-1.78881800000000,BH23 1JX,2013-07-09,fhrs_3_en-GB,3,,FHRS,5
284499,,7 Priors Close,Christchurch,Dorset,Lemon Trees B&B,Hotel/bed & breakfast/guest house,7842,5,,658367,5,,50.73745300000000,86314,084,environmental.services@christchurch.gov.uk,Christchurch,http://www.dorsetforyou.com,-1.72682800000000,BH23 4EZ,2012-12-10,fhrs_5_en-GB,5,,FHRS,5
284500,Somerford Road,Christchurch,Dorset,,LIDL,Retailers - supermarkets/hypermarkets,7840,5,,658380,0,,50.73758900000000,86327,084,environmental.services@christchurch.gov.uk,Christchurch,http://www.dorsetforyou.com,-1.75137100000000,BH23 3PP,2013-10-08,fhrs_5_en-GB,5,,FHRS,5
284501,,6 Farwell Close,Burton,Christchurch,Linney's Little Feet,Hospitals/Childcare/Caring Premises,5,5,,658361,5,,50.75623500000000,86308,084,environmental.services@christchurch.gov.uk,Christchurch,http://www.dorsetforyou.com,-1.77095000000000,BH23 7LT,2012-07-09,fhrs_5_en-GB,5,,FHRS,5
284502,,9 Elm Avenue,Christchurch,Dorset,Little Ducklings Childminding Service,Hospitals/Childcare/Caring Premises,5,5,,658347,10,,50.74750300000000,86294,084,environmental.services@christchurch.gov.uk,Christchurch,http://www.dorsetforyou.com,-1.80019100000000,BH23 2HJ,2013-11-04,fhrs_3_en-GB,3,,FHRS,10
284503,Somerford Childrens Centre,Somerford Primary Community School,Draper Road,Christchurch,Little Explorers,Hospitals/Childcare/Caring Premises,5,0,,658227,5,,50.73863900000000,86173,084,environmental.services@christchurch.gov.uk,Christchurch,http://www.dorsetforyou.com,-1.75434200000000,BH23 3AS,2014-10-13,fhrs_5_en-GB,5,,FHRS,5
284504,,27 Miller Road,Christchurch,Dorset,Little Lambs,Hospitals/Childcare/Caring Premises,5,5,,658375,5,,50.73968200000000,86322,084,environmental.services@christchurch.gov.uk,Christchurch,http://www.dorsetforyou.com,-1.76333500000000,BH23 3SX,2013-06-24,fhrs_5_en-GB,5,,FHRS,5
284505,,22 Pipers Drive,Mudeford,Christchurch,Little Sprinkles Cake Company,Other catering premises,7841,5,,658383,5,,50.73804900000000,86330,084,environmental.services@christchurch.gov.uk,Christchurch,http://www.dorsetforyou.com,-1.73955000000000,BH23 4TR,2013-10-10,fhrs_5_en-GB,5,,FHRS,5
284506,,282 Lymington Road,Highcliffe,Christchurch,Lloyds Pharmacy,Retailers - other,4613,,,658013,,,50.74124100000000,85956,084,environmental.services@christchurch.gov.uk,Christchurch,http://www.dorsetforyou.com,-1.70184900000000,BH23 5ET,2009-02-27,fhrs_exempt_en-GB,Exempt,,FHRS,
284507,,24 Church Street,Christchurch,Dorset,Loch & Quay Bistro,Other catering premises,7841,5,,658320,5,,50.73337500000000,86266,084,environmental.services@christchurch.gov.uk,Christchurch,http://www.dorsetforyou.com,-1.77542500000000,BH23 1BW,2013-05-20,fhrs_5_en-GB,5,,FHRS,5
284508,,1 Marlow Drive,Christchurch,Dorset,Londis,Retailers - other,4613,5,,658033,5,,50.75639100000000,85976,084,environmental.services@christchurch.gov.uk,Christchurch,http://www.dorsetforyou.com,-1.80233600000000,BH23 2RR,2011-01-31,fhrs_4_en-GB,4,,FHRS,10
284509,,108-110 Stour Road,Christchurch,Dorset,Londis Stour Road,Retailers - other,4613,20,,658092,15,,,86035,084,environmental.services@christchurch.gov.uk,Christchurch,http://www.dorsetforyou.com,,BH23 1JR,2014-09-30,fhrs_1_en-GB,1,,FHRS,15
284510,,181 Lymington Road,Highcliffe,Christchurch,Lord Bute,Restaurant/Cafe/Canteen,1,10,,658007,10,,50.73951100000000,85950,084,environmental.services@christchurch.gov.uk,Christchurch,http://www.dorsetforyou.com,-1.71131200000000,BH23 4JS,2012-07-11,fhrs_3_en-GB,3,,FHRS,10
284511,,379 Lymington Road,Highcliffe,Christchurch,Ludlams of Highcliffe,Retailers - other,4613,10,,658025,5,,50.74169000000000,85968,084,environmental.services@christchurch.gov.uk,Christchurch,http://www.dorsetforyou.com,-1.69820400000000,BH23 5EG,2011-10-17,fhrs_4_en-GB,4,,FHRS,5
284512,,13 High Street,Christchurch,Dorset,M & S Simply Food,Retailers - supermarkets/hypermarkets,7840,5,,658394,5,,50.73484600000000,86341,084,environmental.services@christchurch.gov.uk,Christchurch,http://www.dorsetforyou.com,-1.77823800000000,BH23 1AB,2012-10-03,fhrs_5_en-GB,5,,FHRS,0
284513,,246 Barrack Road,Christchurch,Dorset,M Dewey,Retailers - other,4613,10,,658183,5,,50.74209700000000,86128,084,environmental.services@christchurch.gov.uk,Christchurch,http://www.dorsetforyou.com,-1.79939200000000,BH23 2BH,2012-07-31,fhrs_4_en-GB,4,,FHRS,5
284514,Meath Cottage,168 Stony Lane,Burton,Christchurch,Made in Dorset,Other catering premises,7841,5,,658338,5,,50.75288700000000,86285,084,environmental.services@christchurch.gov.uk,Christchurch,http://www.dorsetforyou.com,-1.77402800000000,BH23 7LD,2011-07-19,fhrs_5_en-GB,5,,FHRS,5
284515,,,,,Marlins Fish & Chips,Mobile caterer,7846,5,,658362,5,,,86309,084,environmental.services@christchurch.gov.uk,Christchurch,http://www.dorsetforyou.com,,,2012-07-11,fhrs_5_en-GB,5,,FHRS,5
284516,,24 Bridge Street,Christchurch,Dorset,Masala Bay,Restaurant/Cafe/Canteen,1,10,,658209,10,,50.73504700000000,86154,084,environmental.services@christchurch.gov.uk,Christchurch,http://www.dorsetforyou.com,-1.77055700000000,BH23 1EB,2012-11-19,fhrs_3_en-GB,3,,FHRS,10
284517,Masonic Hall,Warren Avenue,Mudeford,Christchurch,Masonic Hall,Pub/bar/nightclub,7843,5,,658250,5,,50.73006500000000,86196,084,environmental.services@christchurch.gov.uk,Christchurch,http://www.dorsetforyou.com,-1.74852100000000,BH23 3JY,2014-09-25,fhrs_5_en-GB,5,,FHRS,5
284518,,33 Somerford Road,Christchurch,Dorset,Mc Colls,Retailers - other,4613,5,,658066,10,,50.73653800000000,86009,084,environmental.services@christchurch.gov.uk,Christchurch,http://www.dorsetforyou.com,-1.75620900000000,BH23 3PL,2014-10-03,fhrs_3_en-GB,3,,FHRS,10
284519,,103 Somerford Road,Somerford,Christchurch,McDonalds,Restaurant/Cafe/Canteen,1,0,,658137,5,,50.73840400000000,86081,084,environmental.services@christchurch.gov.uk,Christchurch,http://www.dorsetforyou.com,-1.74976600000000,BH23 3PX,2013-02-04,fhrs_5_en-GB,5,,FHRS,5
284520,Meadowbank Holidays Ltd,Stour Way,Christchurch,Dorset,Meadowbank Stores,Retailers - other,4613,10,,658094,5,,50.75041100000000,86037,084,environmental.services@christchurch.gov.uk,Christchurch,http://www.dorsetforyou.com,-1.80793200000000,BH23 2PQ,2011-11-07,fhrs_4_en-GB,4,,FHRS,5
284521,"unit 5 & 6, 3-4 Fountain Way",Saxon Centre,Christchurch,Dorset,Mela,Restaurant/Cafe/Canteen,1,20,,658305,10,,50.73614200000000,86251,084,environmental.services@christchurch.gov.uk,Christchurch,http://www.dorsetforyou.com,-1.77861500000000,BH23 1QN,2014-02-12,fhrs_1_en-GB,1,,FHRS,10
284522,Parley Manor,Parley Green Lane,Hurn,Christchurch,Merlins Catering,Other catering premises,7841,5,,658261,5,,50.77491800000000,86207,084,environmental.services@christchurch.gov.uk,Christchurch,http://www.dorsetforyou.com,-1.85959700000000,BH23 6BB,2013-07-16,fhrs_5_en-GB,5,,FHRS,5
284523,,35 Links Drive,Christchurch,Dorset,Michelle's Little Cherubs,Hospitals/Childcare/Caring Premises,5,10,,658355,10,,50.74794100000000,86302,084,environmental.services@christchurch.gov.uk,Christchurch,http://www.dorsetforyou.com,-1.80954400000000,BH23 2RE,2012-04-25,fhrs_3_en-GB,3,,FHRS,10
284524,,27 Hinton Wood Road,Highcliffe,Christchurch,Moni's Biscotti,Other catering premises,7841,10,,658343,5,,50.74146900000000,86290,084,environmental.services@christchurch.gov.uk,Christchurch,http://www.dorsetforyou.com,-1.71012400000000,BH23 5AB,2011-10-11,fhrs_4_en-GB,4,,FHRS,5
284525,Matchams Lane,Christchurch,Dorset,,Mount Pleasant Touring Park,Retailers - other,4613,0,,658108,10,,50.79388100000000,86051,084,environmental.services@christchurch.gov.uk,Christchurch,http://www.dorsetforyou.com,-1.81860800000000,BH23 6AW,2012-09-07,fhrs_4_en-GB,4,,FHRS,5
284526,,9 High Street,Christchurch,Dorset,Mr Simms Olde Sweet Shoppe,Retailers - other,4613,5,,658327,5,,50.73484600000000,86273,084,environmental.services@christchurch.gov.uk,Christchurch,http://www.dorsetforyou.com,-1.77823800000000,BH23 1AB,2014-01-28,fhrs_4_en-GB,4,,FHRS,10
284527,Mudeford Lane,Christchurch,Dorset,,Mudeford Junior School,School/college/university,7845,10,,658308,5,,50.73379800000000,86254,084,environmental.services@christchurch.gov.uk,Christchurch,http://www.dorsetforyou.com,-1.75302100000000,BH23 3HP,2012-01-04,fhrs_4_en-GB,4,,FHRS,5
284528,,161 Stanpit,Christchurch,Dorset,Mudeford Mens Club,Pub/bar/nightclub,7843,10,,658081,5,,50.72970100000000,86024,084,environmental.services@christchurch.gov.uk,Christchurch,http://www.dorsetforyou.com,-1.75477100000000,BH23 3LY,2014-06-14,fhrs_3_en-GB,3,,FHRS,10
284529,,4 St Catherines Parade,Fairmile Road,Christchurch,Mum's CafÃ©,Restaurant/Cafe/Canteen,1,5,,658270,5,,50.74965000000000,86216,084,environmental.services@christchurch.gov.uk,Christchurch,http://www.dorsetforyou.com,-1.79401600000000,BH23 2LQ,2013-09-24,fhrs_5_en-GB,5,,FHRS,5
284530,,22 Bridge Street,Christchurch,Dorset,NADSS Club,Pub/bar/nightclub,7843,0,,658214,0,,50.73504700000000,86159,084,environmental.services@christchurch.gov.uk,Christchurch,http://www.dorsetforyou.com,-1.77055700000000,BH23 1EB,2014-10-30,fhrs_5_en-GB,5,,FHRS,5
284531,,364 Lymington Road,Highcliffe,Christchurch,Napoleons,Pub/bar/nightclub,7843,5,,669682,5,,50.74165700000000,52505,084,environmental.services@christchurch.gov.uk,Christchurch,http://www.dorsetforyou.com,-1.69939400000000,BH23 5EY,2014-05-24,fhrs_5_en-GB,5,,FHRS,5
284532,,8 Avenue Road,Christchurch,Dorset,Naseby Care Home,Hospitals/Childcare/Caring Premises,5,5,,658390,10,,50.74014700000000,86337,084,environmental.services@christchurch.gov.uk,Christchurch,http://www.dorsetforyou.com,-1.79024500000000,BH23 2BY,2014-02-06,fhrs_2_en-GB,2,,FHRS,15
284533,,28 Stroud Park Avenue,Christchurch,Dorset,Nature's Miracle,Other catering premises,7841,10,,658344,5,,50.73571900000000,86291,084,environmental.services@christchurch.gov.uk,Christchurch,http://www.dorsetforyou.com,-1.75561800000000,BH23 3HQ,2011-10-11,fhrs_4_en-GB,4,,FHRS,5
284534,,130 Purewell,Christchurch,Dorset,New Fanellis Pizza Ltd,Takeaway/sandwich shop,7844,5,,658230,5,,50.73607300000000,86176,084,environmental.services@christchurch.gov.uk,Christchurch,http://www.dorsetforyou.com,-1.76152500000000,BH23 1EU,2014-06-04,fhrs_5_en-GB,5,,FHRS,5
284535,,11 Castle Street,Christchurch,Dorset,New Forest Perfumery,Restaurant/Cafe/Canteen,1,5,,658180,5,,50.73371700000000,86125,084,environmental.services@christchurch.gov.uk,Christchurch,http://www.dorsetforyou.com,-1.77532500000000,BH23 1DP,2012-08-01,fhrs_5_en-GB,5,,FHRS,5
284536,,3 Saxon Square,Christchurch,Dorset,New Look,Retailers - other,4613,5,,658326,5,,50.73557400000000,86272,084,environmental.services@christchurch.gov.uk,Christchurch,http://www.dorsetforyou.com,-1.77773900000000,BH23 1QA,2013-10-14,fhrs_5_en-GB,5,,FHRS,5
284537,Newtown House,24 Waterford Road,Highcliffe,Christchurch,Newtown House Nursing Home,Hospitals/Childcare/Caring Premises,5,5,,669683,5,,50.74093000000000,52769,084,environmental.services@christchurch.gov.uk,Christchurch,http://www.dorsetforyou.com,-1.69628100000000,BH23 5JW,2014-05-31,fhrs_5_en-GB,5,,FHRS,5
284538,,5 Marlow Drive,St Catherines Hill,Christchurch,No1 South African Shop,Retailers - other,4613,5,,658032,5,,50.75639100000000,85975,084,environmental.services@christchurch.gov.uk,Christchurch,http://www.dorsetforyou.com,-1.80233600000000,BH23 2RR,2012-06-28,fhrs_5_en-GB,5,,FHRS,5
284539,,9 Hobourne Lane,Christchurch,Dorset,O'Hagan's Sausage BBQ & Spit Roast Co,Mobile caterer,7846,5,,658374,5,,50.74175400000000,86321,084,environmental.services@christchurch.gov.uk,Christchurch,http://www.dorsetforyou.com,-1.73143700000000,BH23 4HP,2013-04-29,fhrs_5_en-GB,5,,FHRS,5
284540,,4 Quay Road,The Quay,Christchurch,Old Mill Tea Rooms,Restaurant/Cafe/Canteen,1,5,,658055,10,,50.73054000000000,85998,084,environmental.services@christchurch.gov.uk,Christchurch,http://www.dorsetforyou.com,-1.77388000000000,BH23 1BY,2014-09-23,fhrs_4_en-GB,4,,FHRS,5
284541,,125 Barrack Road,Christchurch,Dorset,One Stop,Retailers - other,4613,5,,658150,5,,50.74035900000000,86095,084,environmental.services@christchurch.gov.uk,Christchurch,http://www.dorsetforyou.com,-1.79296500000000,BH23 2AW,2014-07-12,fhrs_5_en-GB,5,,FHRS,5
284542,,42-44 Hunt Road,Christchurch,Dorset,One Stop,Retailers - other,4613,5,,658403,5,,50.74230800000000,86350,084,environmental.services@christchurch.gov.uk,Christchurch,http://www.dorsetforyou.com,-1.75437900000000,BH23 3BN,2014-01-28,fhrs_2_en-GB,2,,FHRS,15
284543,,176-178 Barrack Road,Christchurch,Dorset,Papa Johns,Takeaway/sandwich shop,7844,5,,658357,5,,50.74102100000000,86304,084,environmental.services@christchurch.gov.uk,Christchurch,http://www.dorsetforyou.com,-1.79586700000000,BH23 2BE,2014-07-26,fhrs_5_en-GB,5,,FHRS,5
284544,Building 307,,Hurn,Christchurch,Park Cafe,Restaurant/Cafe/Canteen,1,5,,658002,0,,50.78510300000000,52773,084,environmental.services@christchurch.gov.uk,Christchurch,http://www.dorsetforyou.com,-1.84973600000000,BH23 6NW,2014-01-28,fhrs_5_en-GB,5,,FHRS,0
284545,Parley Green Lane,Hurn,Christchurch,Dorset,Parley Court Golf Centre,Restaurant/Cafe/Canteen,1,10,,658181,5,,50.77491800000000,86126,084,environmental.services@christchurch.gov.uk,Christchurch,http://www.dorsetforyou.com,-1.85959700000000,BH23 6BB,2014-03-06,fhrs_3_en-GB,3,,FHRS,10
284546,,4 Melbourne Road,Christchurch,Dorset,Patricia Blundell - Home Caterer,Other catering premises,7841,5,,658382,5,,50.74728900000000,86329,084,environmental.services@christchurch.gov.uk,Christchurch,http://www.dorsetforyou.com,-1.79643600000000,BH23 2HZ,2013-10-14,fhrs_5_en-GB,5,,FHRS,5
284547,,53 Southcliffe Road,Friars Cliff,Christchurch,Pinebeach Nursing Home,Hospitals/Childcare/Caring Premises,5,5,,658074,5,,50.73372100000000,86017,084,environmental.services@christchurch.gov.uk,Christchurch,http://www.dorsetforyou.com,-1.73061900000000,BH23 4EW,2014-08-19,fhrs_5_en-GB,5,,FHRS,5
284548,,5 Church Street,Christchurch,Dorset,Pinocchios Restaurant,Restaurant/Cafe/Canteen,1,5,,658280,10,,50.73337500000000,86226,084,environmental.services@christchurch.gov.uk,Christchurch,http://www.dorsetforyou.com,-1.77542500000000,BH23 1BW,2010-05-21,fhrs_3_en-GB,3,,FHRS,10
284549,,Unit 78 Basepoint,Hurn,Dorset,PIPPA JACKSON CAKES,Manufacturers/packers,7839,5,,712043,5,,50.78486600000000,87126,084,environmental.services@christchurch.gov.uk,Christchurch,http://www.dorsetforyou.com,-1.85417700000000,BH23 6NX,2014-10-16,fhrs_5_en-GB,5,,FHRS,5
284550,,73 High Street,Christchurch,Dorset,Pizza Express,Restaurant/Cafe/Canteen,1,0,,658359,0,,50.73421300000000,86306,084,environmental.services@christchurch.gov.uk,Christchurch,http://www.dorsetforyou.com,-1.77638500000000,BH23 1BN,2012-06-22,fhrs_5_en-GB,5,,FHRS,0
284551,Bailey Bridge Retail Park,26 Bailey Drive,Christchurch,Dorset,Pizza Hut,Restaurant/Cafe/Canteen,1,0,,658111,0,,50.74035900000000,86055,084,environmental.services@christchurch.gov.uk,Christchurch,http://www.dorsetforyou.com,-1.79296500000000,BH23 2AW,2014-07-12,fhrs_5_en-GB,5,,FHRS,0
284552,Portfield Hall,Portfield Road,Fairmile,Christchurch,Portfield Hall Catering,Pub/bar/nightclub,7843,5,,658349,5,,50.74064200000000,86296,084,environmental.services@christchurch.gov.uk,Christchurch,http://www.dorsetforyou.com,-1.78521200000000,BH23 2AQ,2011-11-14,fhrs_5_en-GB,5,,FHRS,5
284553,,4 Magdalen Lane,Christchurch,Dorset,Portfield School (Magdalen Lane Site),School/college/university,7845,5,,658177,5,,50.73492800000000,86122,084,environmental.services@christchurch.gov.uk,Christchurch,http://www.dorsetforyou.com,-1.78355200000000,BH23 1PH,2010-01-13,fhrs_5_en-GB,5,,FHRS,5
284554,Parley Lane,Christchurch,Dorset,,Portfield School (Parley Lane site),School/college/university,7845,5,,658220,5,,50.78051600000000,86165,084,environmental.services@christchurch.gov.uk,Christchurch,http://www.dorsetforyou.com,-1.86399200000000,BH23 6BP,2014-06-26,fhrs_5_en-GB,5,,FHRS,5
284555,Matchams Lane,Christchurch,Dorset,,Portview Caravan Park,Retailers - other,4613,10,,658161,10,,50.79388100000000,86106,084,environmental.services@christchurch.gov.uk,Christchurch,http://www.dorsetforyou.com,-1.81860800000000,BH23 6AW,2014-12-03,fhrs_3_en-GB,3,,FHRS,5
284556,,22-28 Jellicoe Drive,Christchurch,Dorset,Premier Convenience Store,Retailers - other,4613,10,,658003,15,,50.73429100000000,85946,084,environmental.services@christchurch.gov.uk,Christchurch,http://www.dorsetforyou.com,-1.74828500000000,BH23 3SL,2014-09-23,fhrs_2_en-GB,2,,FHRS,10
284557,,3-5 Bridge Street,Christchurch,Dorset,Prezzo,Restaurant/Cafe/Canteen,1,0,,658200,0,,50.73467100000000,86145,084,environmental.services@christchurch.gov.uk,Christchurch,http://www.dorsetforyou.com,-1.77139500000000,BH23 1DY,2013-10-14,fhrs_5_en-GB,5,,FHRS,5
284558,,63 High Street,Christchurch,Dorset,PRIORY PLAICE,Restaurant/Cafe/Canteen,1,5,,690122,5,,50.73391700000000,87045,084,environmental.services@christchurch.gov.uk,Christchurch,http://www.dorsetforyou.com,-1.77659900000000,BH23 1AS,2014-07-25,fhrs_5_en-GB,5,,FHRS,5
284559,,117 Purewell,Christchurch,Dorset,"Purewell News, Food and Wine",Retailers - other,4613,10,,658053,5,,50.73580300000000,85996,084,environmental.services@christchurch.gov.uk,Christchurch,http://www.dorsetforyou.com,-1.76148400000000,BH23 1EJ,2011-01-10,fhrs_4_en-GB,4,,FHRS,5
284560,,1 Bronte Avenue,Christchurch,Dorset,Queensmead,Hospitals/Childcare/Caring Premises,5,5,,658154,5,,50.74670700000000,86099,084,environmental.services@christchurch.gov.uk,Christchurch,http://www.dorsetforyou.com,-1.78752300000000,BH23 2LX,2014-02-12,fhrs_5_en-GB,5,,FHRS,5
284561,,67 Bargates,Christchurch,Dorset,Red Cherry Catering,Restaurant/Cafe/Canteen,1,5,,658058,5,,50.73735000000000,86001,084,environmental.services@christchurch.gov.uk,Christchurch,http://www.dorsetforyou.com,-1.78033800000000,BH23 1QE,2012-08-06,fhrs_5_en-GB,5,,FHRS,5
284562,Red House Museum And Gardens,Quay Road,Christchurch,Dorset,Red House Museum & Gardens,Restaurant/Cafe/Canteen,1,5,,712039,5,,50.73189200000000,52787,084,environmental.services@christchurch.gov.uk,Christchurch,http://www.dorsetforyou.com,-1.77585800000000,BH23 1BU,2014-10-30,fhrs_5_en-GB,5,,FHRS,5
284563,,14 Stour Road,Christchurch,Dorset,Reside Care Homes,Hospitals/Childcare/Caring Premises,5,10,,658252,10,,50.73759000000000,86198,084,environmental.services@christchurch.gov.uk,Christchurch,http://www.dorsetforyou.com,-1.78327000000000,BH23 1PS,2014-05-15,fhrs_3_en-GB,3,,FHRS,10
284564,,61 Stour Road,Christchurch,Dorset,Riversmead,Hotel/bed & breakfast/guest house,7842,10,,658321,10,,50.73546300000000,86267,084,environmental.services@christchurch.gov.uk,Christchurch,http://www.dorsetforyou.com,-1.78581600000000,BH23 1LN,2013-11-20,fhrs_3_en-GB,3,,FHRS,5
284565,,9 Castle Street,Christchurch,Dorset,Ronnys of Christchurch,Takeaway/sandwich shop,7844,5,,658263,5,,50.73371700000000,86209,084,environmental.services@christchurch.gov.uk,Christchurch,http://www.dorsetforyou.com,-1.77532500000000,BH23 1DP,2014-05-12,fhrs_4_en-GB,4,,FHRS,10
284566,,132 Purewell,Christchurch,Dorset,Rowlands Pharmacy,Retailers - other,4613,,,658128,,,50.73580300000000,86072,084,environmental.services@christchurch.gov.uk,Christchurch,http://www.dorsetforyou.com,-1.76148400000000,BH23 1EJ,2012-07-09,fhrs_exempt_en-GB,Exempt,,FHRS,
284567,,61 - 63 Bargates,Christchurch,Dorset,Royal British Legion Club Limited,Pub/bar/nightclub,7843,20,,658051,10,,50.73735000000000,85994,084,environmental.services@christchurch.gov.uk,Christchurch,http://www.dorsetforyou.com,-1.78033800000000,BH23 1QE,2014-02-12,fhrs_1_en-GB,1,,FHRS,15
284568,,1 Lyndhurst Road,Christchurch,Dorset,Sainsburys,Retailers - supermarkets/hypermarkets,7840,0,,658031,0,,50.74434000000000,85974,084,environmental.services@christchurch.gov.uk,Christchurch,http://www.dorsetforyou.com,-1.74178300000000,BH23 4RY,2012-03-22,fhrs_5_en-GB,5,,FHRS,5
284569,Mudeford,Christchurch,Dorset,,Sandhills Holiday Village,Other catering premises,7841,10,,658030,10,,50.72708500000000,85973,084,environmental.services@christchurch.gov.uk,Christchurch,http://www.dorsetforyou.com,-1.73850600000000,BH23 4AL,2013-11-20,fhrs_3_en-GB,3,,FHRS,10
284570,Sandhill Holiday Park,Mudeford,Christchurch,Dorset,Sandhills Holiday Village,Restaurant/Cafe/Canteen,1,5,,727589,5,,50.72708500000000,52566,084,environmental.services@christchurch.gov.uk,Christchurch,http://www.dorsetforyou.com,-1.73850600000000,BH23 4AL,2014-12-18,fhrs_5_en-GB,5,,FHRS,5
284571,,22 Marmion Green,Somerford,Christchurch,Sandra's Shining Stars Childminding,Other catering premises,7841,10,,658377,10,,50.73865400000000,86324,084,environmental.services@christchurch.gov.uk,Christchurch,http://www.dorsetforyou.com,-1.75298100000000,BH23 3DZ,2013-09-05,fhrs_3_en-GB,3,,FHRS,10
284572,,86 Bargates,Christchurch,Dorset,Sara Cafe,Restaurant/Cafe/Canteen,1,10,,701458,10,,50.73701800000000,87107,084,environmental.services@christchurch.gov.uk,Christchurch,http://www.dorsetforyou.com,-1.78068000000000,BH23 1QL,2014-09-11,fhrs_2_en-GB,2,,FHRS,15
284573,,,,,Sarah B's Cakery,Other catering premises,7841,5,,701457,5,,,86978,084,environmental.services@christchurch.gov.uk,Christchurch,http://www.dorsetforyou.com,,,2014-09-17,fhrs_5_en-GB,5,,FHRS,5
284574,,11 Saulfland Place,Christchurch,Dorset,Saulfland Stores,Retailers - other,4613,5,,658063,10,,50.74377800000000,86006,084,environmental.services@christchurch.gov.uk,Christchurch,http://www.dorsetforyou.com,-1.72424000000000,BH23 4QP,2012-09-07,fhrs_3_en-GB,3,,FHRS,10
284575,,252 Barrack Road,Christchurch,Dorset,Sheila's Sandwich Bar,Takeaway/sandwich shop,7844,5,,658204,5,,50.74209700000000,86149,084,environmental.services@christchurch.gov.uk,Christchurch,http://www.dorsetforyou.com,-1.79939200000000,BH23 2BH,2014-10-13,fhrs_5_en-GB,5,,FHRS,5
284576,,58 Barrack Road,Christchurch,Dorset,Shell filling station,Retailers - other,4613,5,,658129,5,,50.73679600000000,86073,084,environmental.services@christchurch.gov.uk,Christchurch,http://www.dorsetforyou.com,-1.78681700000000,BH23 1PQ,2014-01-28,fhrs_5_en-GB,5,,FHRS,5
284577,Shell Somerford,1 Lyndhurst Road,Christchurch,Dorset,Shell Somerford,Retailers - other,4613,5,,658029,5,,50.74542300000000,85972,084,environmental.services@christchurch.gov.uk,Christchurch,http://www.dorsetforyou.com,-1.73959400000000,BH23 4SA,2011-12-13,fhrs_5_en-GB,5,,FHRS,5
284578,,20 Church Street,Christchurch,Dorset,Siena's,Retailers - other,4613,5,,658224,5,,50.73337500000000,86170,084,environmental.services@christchurch.gov.uk,Christchurch,http://www.dorsetforyou.com,-1.77542500000000,BH23 1BW,2014-07-30,fhrs_5_en-GB,5,,FHRS,5
284579,,87 Bargates,Christchurch,Dorset,Silver Ripple,Takeaway/sandwich shop,7844,10,,658070,10,,50.73811700000000,86013,084,environmental.services@christchurch.gov.uk,Christchurch,http://www.dorsetforyou.com,-1.78128400000000,BH23 1QQ,2014-06-21,fhrs_2_en-GB,2,,FHRS,15
284580,Silver Way,Highcliffe,Christchurch,Dorset,Silverways Nursing Home,Hospitals/Childcare/Caring Premises,5,5,,658072,5,,50.74072800000000,86015,084,environmental.services@christchurch.gov.uk,Christchurch,http://www.dorsetforyou.com,-1.71231100000000,BH23 4LJ,2014-02-06,fhrs_5_en-GB,5,,FHRS,5
284581,,251 Lymington Road,Highcliffe,Christchurch,Similan Thai,Restaurant/Cafe/Canteen,1,5,,658011,5,,50.74096100000000,85954,084,environmental.services@christchurch.gov.uk,Christchurch,http://www.dorsetforyou.com,-1.70146800000000,BH23 5EB,2009-09-18,fhrs_5_en-GB,5,,FHRS,5
284582,Matchams Lane,Hurn,Christchurch,Dorset,Snowtrax,Restaurant/Cafe/Canteen,1,5,,658035,5,,50.79388100000000,85978,084,environmental.services@christchurch.gov.uk,Christchurch,http://www.dorsetforyou.com,-1.81860800000000,BH23 6AW,2012-07-17,fhrs_4_en-GB,4,,FHRS,10
284583,,7-9 Church Street,Christchurch,Dorset,Soho,Pub/bar/nightclub,7843,10,,658287,10,,50.73653000000000,86233,084,environmental.services@christchurch.gov.uk,Christchurch,http://www.dorsetforyou.com,-1.77935000000000,BH23 1QD,2014-05-07,fhrs_3_en-GB,3,,FHRS,10
284584,Somerford Road,Christchurch,Dorset,,Somerford Beefeater,Restaurant/Cafe/Canteen,1,5,,658065,0,,50.74131600000000,86008,084,environmental.services@christchurch.gov.uk,Christchurch,http://www.dorsetforyou.com,-1.74493200000000,BH23 3QG,2013-02-12,fhrs_5_en-GB,5,,FHRS,5
284585,,180-182 Somerford Road,Christchurch,Dorset,Somerford Off Licence & Convenience Store,Retailers - other,4613,10,,658071,5,,50.74131600000000,86014,084,environmental.services@christchurch.gov.uk,Christchurch,http://www.dorsetforyou.com,-1.74493200000000,BH23 3QG,2013-07-10,fhrs_3_en-GB,3,,FHRS,10
284586,Draper Road,Somerford,Christchurch,Dorset,Somerford Primary Community School & Nursery,School/college/university,7845,5,,658309,5,,50.73863900000000,86255,084,environmental.services@christchurch.gov.uk,Christchurch,http://www.dorsetforyou.com,-1.75434200000000,BH23 3AS,2014-02-11,fhrs_5_en-GB,5,,FHRS,5
284587,Bingham Road,Christchurch,Dorset,,Somerford Youth Centre,Other catering premises,7841,5,,658166,5,,50.73793100000000,86111,084,environmental.services@christchurch.gov.uk,Christchurch,http://www.dorsetforyou.com,-1.75593300000000,BH23 3AH,2014-10-24,fhrs_5_en-GB,5,,FHRS,5
284588,,337 Lymington Road,Highcliffe,Christchurch,Southern Wines,Retailers - other,4613,5,,658018,5,,50.74169000000000,85961,084,environmental.services@christchurch.gov.uk,Christchurch,http://www.dorsetforyou.com,-1.69820400000000,BH23 5EG,2014-07-26,fhrs_2_en-GB,2,,FHRS,15
284589,,127 Barrack Road,Christchurch,Dorset,Spice House,Takeaway/sandwich shop,7844,5,,658233,5,,50.74035900000000,86179,084,environmental.services@christchurch.gov.uk,Christchurch,http://www.dorsetforyou.com,-1.79296500000000,BH23 2AW,2011-02-16,fhrs_5_en-GB,5,,FHRS,5
284590,,11 / 12 Church Street,Christchurch,Dorset,Splinters Restaurant,Restaurant/Cafe/Canteen,1,5,,658297,5,,50.73337500000000,86243,084,environmental.services@christchurch.gov.uk,Christchurch,http://www.dorsetforyou.com,-1.77542500000000,BH23 1BW,2014-08-08,fhrs_4_en-GB,4,,FHRS,10
284591,St Josephs Catholic Primary School,Dorset Road,Somerford,Christchurch,St Josephs Primary School,School/college/university,7845,10,,658310,5,,50.74408800000000,86256,084,environmental.services@christchurch.gov.uk,Christchurch,http://www.dorsetforyou.com,-1.74571000000000,BH23 3DA,2014-12-10,fhrs_4_en-GB,4,,FHRS,5
284592,,105 Bargates,Christchurch,Dorset,Standard Bengal Restaurant,Restaurant/Cafe/Canteen,1,20,,658077,10,,50.73899100000000,86020,084,environmental.services@christchurch.gov.uk,Christchurch,http://www.dorsetforyou.com,-1.78224300000000,BH23 1QH,2014-12-10,fhrs_1_en-GB,1,,FHRS,15
284593,,6-8 Stanpit,Christchurch,Dorset,Stanpit Food Store (Londis),Retailers - other,4613,10,,658076,15,,50.73525100000000,86019,084,environmental.services@christchurch.gov.uk,Christchurch,http://www.dorsetforyou.com,-1.75997100000000,BH23 3LZ,2010-04-07,fhrs_2_en-GB,2,,FHRS,5
284594,,10 Stanpit,Christchurch,Dorset,Stanpit Wine Merchants,Retailers - other,4613,10,,658078,5,,50.73525100000000,86021,084,environmental.services@christchurch.gov.uk,Christchurch,http://www.dorsetforyou.com,-1.75997100000000,BH23 3LZ,2011-10-31,fhrs_4_en-GB,4,,FHRS,5
284595,,54 Bargates,Christchurch,Dorset,Starlight,Restaurant/Cafe/Canteen,1,20,,658037,10,,50.73701800000000,85980,084,environmental.services@christchurch.gov.uk,Christchurch,http://www.dorsetforyou.com,-1.78068000000000,BH23 1QL,2014-02-12,fhrs_1_en-GB,1,,FHRS,15
284596,Lyndhurst Road,Christchurch,Dorset,,Stewarts Gardenlands,Restaurant/Cafe/Canteen,1,5,,658107,5,,50.74542300000000,86050,084,environmental.services@christchurch.gov.uk,Christchurch,http://www.dorsetforyou.com,-1.73959400000000,BH23 4SA,2014-06-09,fhrs_5_en-GB,5,,FHRS,5
284597,Stourvale Inn,259 Barrack Road,Christchurch,Dorset,Stourvale Inn,Pub/bar/nightclub,7843,,,669685,,,50.74279100000000,86455,084,environmental.services@christchurch.gov.uk,Christchurch,http://www.dorsetforyou.com,-1.80033800000000,BH23 2AY,2014-10-24,fhrs_5_en-GB,5,,FHRS,
284598,,53 High Street,Christchurch,Dorset,Subway,Restaurant/Cafe/Canteen,1,0,,658288,0,,50.73391700000000,86234,084,environmental.services@christchurch.gov.uk,Christchurch,http://www.dorsetforyou.com,-1.77659900000000,BH23 1AS,2013-11-20,fhrs_5_en-GB,5,,FHRS,5
284599,,239-241 Lymington Road,Highcliffe,Christchurch,Sue Ryder,Retailers - other,4613,5,,658342,5,,50.76290600000000,86289,084,environmental.services@christchurch.gov.uk,Christchurch,http://www.dorsetforyou.com,-1.64461400000000,BH25 5EB,2011-10-01,fhrs_5_en-GB,5,,FHRS,5
284600,Unit 7,Sea Vixen Industrial Estate,Christchurch,Dorset,Suncatcher Foods Ltd,Distributors/Transporters,7,,,658335,,,50.73908100000000,86282,084,environmental.services@christchurch.gov.uk,Christchurch,http://www.dorsetforyou.com,-1.74271900000000,BH23 3RU,2011-06-23,fhrs_exempt_en-GB,Exempt,,FHRS,
284601,,5 Park Close,Burton,Christchurch,Sunshine House Childminder,Hospitals/Childcare/Caring Premises,5,10,,658328,10,,50.75702400000000,86274,084,environmental.services@christchurch.gov.uk,Christchurch,http://www.dorsetforyou.com,-1.76999600000000,BH23 7JX,2013-10-08,fhrs_3_en-GB,3,,FHRS,10
284602,,50 High Street,Christchurch,Dorset,Superdrug Stores PLC,Retailers - other,4613,5,,658141,5,,50.73421300000000,86086,084,environmental.services@christchurch.gov.uk,Christchurch,http://www.dorsetforyou.com,-1.77638500000000,BH23 1BN,2012-03-14,fhrs_5_en-GB,5,,FHRS,5
284603,,20 Le Patourel Close,Christchurch,Dorset,Sweet Peas Childminders,Hospitals/Childcare/Caring Premises,5,10,,658341,10,,50.73850200000000,86288,084,environmental.services@christchurch.gov.uk,Christchurch,http://www.dorsetforyou.com,-1.76213700000000,BH23 3EE,2013-10-08,fhrs_3_en-GB,3,,FHRS,10
284604,Barrack Road,Christchurch,Dorset,,Table Table Bailey Bridge,Pub/bar/nightclub,7843,0,,658036,0,,50.73778400000000,85979,084,environmental.services@christchurch.gov.uk,Christchurch,http://www.dorsetforyou.com,-1.79134700000000,BH23 2BN,2010-04-19,fhrs_5_en-GB,5,,FHRS,5
284605,,36 The Grove,Christchurch,Dorset,Taiwan (Chinese Take Away),Takeaway/sandwich shop,7844,5,,658097,5,,50.74650000000000,86040,084,environmental.services@christchurch.gov.uk,Christchurch,http://www.dorsetforyou.com,-1.80261900000000,BH23 2HB,2009-08-10,fhrs_5_en-GB,5,,FHRS,5
284606,,115 a Purewell,Christchurch,Dorset,taste,Takeaway/sandwich shop,7844,20,,658052,15,,50.73547600000000,85995,084,environmental.services@christchurch.gov.uk,Christchurch,http://www.dorsetforyou.com,-1.77812200000000,BH23 1BJ,2012-04-25,fhrs_1_en-GB,1,,FHRS,10
284607,,271 Barrack Road,Christchurch,Dorset,Tesco Express - Christchurch,Retailers - supermarkets/hypermarkets,7840,,,712038,,,50.74279100000000,52285,084,environmental.services@christchurch.gov.uk,Christchurch,http://www.dorsetforyou.com,-1.80033800000000,BH23 2AY,2014-08-28,fhrs_5_en-GB,5,,FHRS,
284608,Lymington Road,Highcliffe,Christchurch,Dorset,Tesco Express - Highcliffe,Retailers - supermarkets/hypermarkets,7840,10,,658264,5,,50.74247900000000,86210,084,environmental.services@christchurch.gov.uk,Christchurch,http://www.dorsetforyou.com,-1.69723500000000,BH23 5HD,2009-10-26,fhrs_4_en-GB,4,,FHRS,5
284609,,154 Ringwood Road,Walkford,Christchurch,The Amberwood,Pub/bar/nightclub,7843,10,,658186,5,,50.75147100000000,86131,084,environmental.services@christchurch.gov.uk,Christchurch,http://www.dorsetforyou.com,-1.70059300000000,BH23 5RQ,2014-06-13,fhrs_3_en-GB,3,,FHRS,10
284610,,10 Marlow Drive,Christchurch,Dorset,The Bakery,Retailers - other,4613,10,,658219,5,,50.75639100000000,86164,084,environmental.services@christchurch.gov.uk,Christchurch,http://www.dorsetforyou.com,-1.80233600000000,BH23 2RR,2014-10-13,fhrs_4_en-GB,4,,FHRS,5
284611,,24 Saxon Square,Christchurch,Dorset,The Bay Tree,Retailers - other,4613,5,,658185,5,,50.73525800000000,86130,084,environmental.services@christchurch.gov.uk,Christchurch,http://www.dorsetforyou.com,-1.77694700000000,BH23 1QB,2013-10-08,fhrs_5_en-GB,5,,FHRS,5
284612,The Promenade,Friars Cliff Beach,Christchurch,Dorset,The Beach Hut CafÃ©,Restaurant/Cafe/Canteen,1,5,,658147,5,,50.77915191650391,86092,084,environmental.services@christchurch.gov.uk,Christchurch,http://www.dorsetforyou.com,-2.32034993171692,,2014-08-21,fhrs_5_en-GB,5,,FHRS,5
284613,,9 Quay Road,Christchurch,Dorset,The Boathouse,Restaurant/Cafe/Canteen,1,5,,658190,5,,50.73189200000000,86135,084,environmental.services@christchurch.gov.uk,Christchurch,http://www.dorsetforyou.com,-1.77585800000000,BH23 1BU,2013-06-13,fhrs_5_en-GB,5,,FHRS,5
284614,,18 Mill Road,Christchurch,Dorset,The Chocolate Ear,Other catering premises,7841,10,,658356,5,,50.74276200000000,86303,084,environmental.services@christchurch.gov.uk,Christchurch,http://www.dorsetforyou.com,-1.78395500000000,BH23 2JY,2012-05-28,fhrs_4_en-GB,4,,FHRS,5
284615,Unit 1,20 Bargates,Christchurch,Dorset,The Coffee Pot,Restaurant/Cafe/Canteen,1,5,,658187,5,,50.73701800000000,86132,084,environmental.services@christchurch.gov.uk,Christchurch,http://www.dorsetforyou.com,-1.78068000000000,BH23 1QL,2014-09-22,fhrs_5_en-GB,5,,FHRS,5
284616,,202 Fairmile Road,Christchurch,Dorset,THE CO-OPERATIVE GROUP,Retailers - supermarkets/hypermarkets,7840,0,,717434,5,,50.74816500000000,87132,084,environmental.services@christchurch.gov.uk,Christchurch,http://www.dorsetforyou.com,-1.79318600000000,BH23 2LP,2014-11-12,fhrs_5_en-GB,5,,FHRS,5
284617,,2 The Grove,Christchurch,Dorset,The Crooked Beam,Restaurant/Cafe/Canteen,1,0,,658096,5,,50.74410700000000,86039,084,environmental.services@christchurch.gov.uk,Christchurch,http://www.dorsetforyou.com,-1.80243000000000,BH23 2HA,2012-01-06,fhrs_4_en-GB,4,,FHRS,10
284618,Hurn Court Farm,Hurn Court Lane,Hurn,Christchurch,The Dorset Smokery,Manufacturers/packers,7839,5,,658294,5,,50.77050500000000,86240,084,environmental.services@christchurch.gov.uk,Christchurch,http://www.dorsetforyou.com,-1.83421200000000,BH23 6AX,2014-11-11,fhrs_4_en-GB,4,,FHRS,10
284619,Stewarts Gardenlands,Lyndhurst Road,Somerford,Christchurch,The Edinburgh Woollen Mill,Retailers - other,4613,,,658211,,,50.74542300000000,86156,084,environmental.services@christchurch.gov.uk,Christchurch,http://www.dorsetforyou.com,-1.73959400000000,BH23 4SA,2014-01-28,fhrs_exempt_en-GB,Exempt,,FHRS,
284620,,416 Lymington Road,Highcliffe,Christchurch,The Elephant Walk,Restaurant/Cafe/Canteen,1,10,,658019,5,,50.74254000000000,85962,084,environmental.services@christchurch.gov.uk,Christchurch,http://www.dorsetforyou.com,-1.69624200000000,BH23 5HE,2012-10-17,fhrs_4_en-GB,4,,FHRS,5
284621,Mudeford Quay,Christchurch,Dorset,,The Fish Stall,Retailers - other,4613,5,,658042,5,,50.72442200000000,85985,084,environmental.services@christchurch.gov.uk,Christchurch,http://www.dorsetforyou.com,-1.74200600000000,BH23 4AB,2012-08-01,fhrs_5_en-GB,5,,FHRS,5
284622,,189 Lymington Road,Highcliffe,Christchurch,The Galleon,Pub/bar/nightclub,7843,10,,658142,5,,50.74007600000000,86087,084,environmental.services@christchurch.gov.uk,Christchurch,http://www.dorsetforyou.com,-1.70715600000000,BH23 5EA,2011-03-03,fhrs_4_en-GB,4,,FHRS,5
284623,,266 Lymington Road,Highcliffe,Christchurch,The Globe Inn,Pub/bar/nightclub,7843,5,,658012,5,,50.74124100000000,85955,084,environmental.services@christchurch.gov.uk,Christchurch,http://www.dorsetforyou.com,-1.70184900000000,BH23 5ET,2014-05-31,fhrs_5_en-GB,5,,FHRS,5
284624,Redvers Road,Christchurch,Dorset,,The Grange Comprehensive,School/college/university,7845,0,,658121,5,,50.74082700000000,86065,084,environmental.services@christchurch.gov.uk,Christchurch,http://www.dorsetforyou.com,-1.75600300000000,BH23 3AU,2014-05-20,fhrs_5_en-GB,5,,FHRS,5
284625,,48 The Grove,Christchurch,Dorset,The Grove Pharmacy,Retailers - other,4613,,,658100,,,50.74650000000000,86043,084,environmental.services@christchurch.gov.uk,Christchurch,http://www.dorsetforyou.com,-1.80261900000000,BH23 2HB,2012-07-09,fhrs_exempt_en-GB,Exempt,,FHRS,
284626,Mudeford Quay,Highcliffe,Christchurch,Dorset,The Haven House Inn,Pub/bar/nightclub,7843,0,,658043,5,,50.72442200000000,85986,084,environmental.services@christchurch.gov.uk,Christchurch,http://www.dorsetforyou.com,-1.74200600000000,BH23 4AB,2014-11-25,fhrs_5_en-GB,5,,FHRS,5
284627,Christchurch Harbour Hotel,95 Mudeford,Christchurch,Dorset,The Jetty,Restaurant/Cafe/Canteen,1,10,,658289,5,,50.72834900000000,86235,084,environmental.services@christchurch.gov.uk,Christchurch,http://www.dorsetforyou.com,-1.74524300000000,BH23 3NT,2012-09-19,fhrs_4_en-GB,4,,FHRS,5
284628,,18 Castle Street,Christchurch,Dorset,The Kings Arms,Restaurant/Cafe/Canteen,1,0,,658237,0,,50.73402200000000,86183,084,environmental.services@christchurch.gov.uk,Christchurch,http://www.dorsetforyou.com,-1.77494100000000,BH23 1DT,2014-12-04,fhrs_5_en-GB,5,,FHRS,5
284629,Burley Road,Winkton,Christchurch,Dorset,The Lamb,Restaurant/Cafe/Canteen,1,5,,658231,5,,50.76510700000000,86177,084,environmental.services@christchurch.gov.uk,Christchurch,http://www.dorsetforyou.com,-1.76899200000000,BH23 7AN,2014-08-21,fhrs_4_en-GB,4,,FHRS,10
284630,,195 Barrack Road,Christchurch,Dorset,The Laurels,Hospitals/Childcare/Caring Premises,5,10,,658169,10,,50.74165100000000,86114,084,environmental.services@christchurch.gov.uk,Christchurch,http://www.dorsetforyou.com,-1.79665800000000,BH23 2AR,2014-05-24,fhrs_3_en-GB,3,,FHRS,10
284631,,20 Barrack Road,Christchurch,Dorset,The Lighthouse Youth Club,Hospitals/Childcare/Caring Premises,5,5,,658283,10,,50.73534500000000,86229,084,environmental.services@christchurch.gov.uk,Christchurch,http://www.dorsetforyou.com,-1.78056000000000,BH23 1PE,2012-08-01,fhrs_3_en-GB,3,,FHRS,10
284632,,181 Lymington Road,Highcliffe,Christchurch,The Lord Bute,Restaurant/Cafe/Canteen,1,5,,690120,5,,50.73951100000000,52570,084,environmental.services@christchurch.gov.uk,Christchurch,http://www.dorsetforyou.com,-1.71131200000000,BH23 4JS,2014-07-16,fhrs_4_en-GB,4,,FHRS,10
284633,,15-17 Salisbury Road,Burton,Christchurch,The Manor,Pub/bar/nightclub,7843,10,,658060,10,,50.74492700000000,86003,084,environmental.services@christchurch.gov.uk,Christchurch,http://www.dorsetforyou.com,-1.75987900000000,BH23 7JG,2014-08-19,fhrs_3_en-GB,3,,FHRS,10
284634,,75 Mudeford,Christchurch,Dorset,The Nelson Tavern,Pub/bar/nightclub,7843,,,658038,,,50.72829600000000,85981,084,environmental.services@christchurch.gov.uk,Christchurch,http://www.dorsetforyou.com,-1.74571100000000,BH23 3NJ,2015-01-06,fhrs_3_en-GB,3,,FHRS,
284635,,Mudeford,Christchurch,Dorset,The Noisy Lobster,Restaurant/Cafe/Canteen,1,5,,682483,0,,50.72935900000000,87014,084,environmental.services@christchurch.gov.uk,Christchurch,http://www.dorsetforyou.com,-1.73431300000000,BH23 4AN,2014-06-25,fhrs_5_en-GB,5,,FHRS,5
284636,,57 Martins Hill Lane,Burton,Christchurch,The Oak Inn,Pub/bar/nightclub,7843,5,,658034,10,,50.74882900000000,85977,084,environmental.services@christchurch.gov.uk,Christchurch,http://www.dorsetforyou.com,-1.76391300000000,BH23 7NW,2012-01-17,fhrs_4_en-GB,4,,FHRS,5
284637,Sea Corner,397 Waterford Road,Highcliffe,Christchurch,The Paddle,Restaurant/Cafe/Canteen,1,10,,658174,5,,50.74202900000000,86119,084,environmental.services@christchurch.gov.uk,Christchurch,http://www.dorsetforyou.com,-1.69688300000000,BH23 5JN,2014-01-29,fhrs_4_en-GB,4,,FHRS,5
284638,Wick Lane,Christchurch,Dorset,,The Priory CE Primary School,School/college/university,7845,0,,658318,0,,50.73248100000000,86264,084,environmental.services@christchurch.gov.uk,Christchurch,http://www.dorsetforyou.com,-1.77788100000000,BH23 1HX,2013-10-08,fhrs_5_en-GB,5,,FHRS,5
284639,,2 Stour Road,Christchurch,Dorset,The Railway Inn,Pub/bar/nightclub,7843,5,,658085,5,,50.73759000000000,86028,084,environmental.services@christchurch.gov.uk,Christchurch,http://www.dorsetforyou.com,-1.78327000000000,BH23 1PS,2014-07-26,fhrs_5_en-GB,5,,FHRS,5
284640,,51 High Street,Christchurch,Dorset,The Regent Centre,Retailers - other,4613,10,,658194,5,,50.73391700000000,86139,084,environmental.services@christchurch.gov.uk,Christchurch,http://www.dorsetforyou.com,-1.77659900000000,BH23 1AS,2013-07-10,fhrs_4_en-GB,4,,FHRS,5
284641,Main Terminal Building,Bournemouth International Airport,Hurn,Christchurch,The Restaurant Group,Restaurant/Cafe/Canteen,1,0,,658144,5,,50.77883600000000,86089,084,environmental.services@christchurch.gov.uk,Christchurch,http://www.dorsetforyou.com,-1.83026800000000,BH23 6SE,2013-11-19,fhrs_5_en-GB,5,,FHRS,0
284642,,123 Purewell,Christchurch,Dorset,The Rising Sun (Christchurch) ltd,Restaurant/Cafe/Canteen,1,,,658090,,,50.73580300000000,86033,084,environmental.services@christchurch.gov.uk,Christchurch,http://www.dorsetforyou.com,-1.76148400000000,BH23 1EJ,2014-12-05,fhrs_5_en-GB,5,,FHRS,
284643,,97 Bure Lane,Mudeford,Christchurch,The Sandpiper,Pub/bar/nightclub,7843,0,,658222,5,,50.73444800000000,86168,084,environmental.services@christchurch.gov.uk,Christchurch,http://www.dorsetforyou.com,-1.73376000000000,BH23 4DN,2011-01-31,fhrs_5_en-GB,5,,FHRS,5
284644,,391-395 Lymington Road,Highcliffe,Christchurch,The Scullery Tea Rooms,Restaurant/Cafe/Canteen,1,10,,658267,5,,50.74169000000000,86213,084,environmental.services@christchurch.gov.uk,Christchurch,http://www.dorsetforyou.com,-1.69820400000000,BH23 5EG,2014-06-14,fhrs_4_en-GB,4,,FHRS,5
284645,,66 Stanpit,Christchurch,Dorset,The Ship In Distress,Restaurant/Cafe/Canteen,1,5,,658126,5,,50.73264900000000,86070,084,environmental.services@christchurch.gov.uk,Christchurch,http://www.dorsetforyou.com,-1.75855300000000,BH23 3NA,2014-10-03,fhrs_5_en-GB,5,,FHRS,5
284646,,48 High Street,Christchurch,Dorset,The Ship Inn,Pub/bar/nightclub,7843,5,,658138,5,,50.73421300000000,86082,084,environmental.services@christchurch.gov.uk,Christchurch,http://www.dorsetforyou.com,-1.77638500000000,BH23 1BN,2014-09-22,fhrs_4_en-GB,4,,FHRS,10
284647,Bournemouth International Airport,Enterpise Way,Western Business Park,Christchurch,The Traditional Pasty & Pie Co - Coffee & Panini,Mobile caterer,7846,0,,658232,0,,,86178,084,environmental.services@christchurch.gov.uk,Christchurch,http://www.dorsetforyou.com,,,2013-03-27,fhrs_5_en-GB,5,,FHRS,0
284648,,16 Walkford Road,Walkford,Christchurch,The Walkford,Pub/bar/nightclub,7843,5,,658102,5,,50.75143300000000,86045,084,environmental.services@christchurch.gov.uk,Christchurch,http://www.dorsetforyou.com,-1.68602100000000,BH23 5QF,2011-06-28,fhrs_4_en-GB,4,,FHRS,10
284649,,10 Wick Lane,Christchurch,Dorset,Thomas Tripp,Pub/bar/nightclub,7843,20,,658109,5,,50.73248100000000,86052,084,environmental.services@christchurch.gov.uk,Christchurch,http://www.dorsetforyou.com,-1.77788100000000,BH23 1HX,2014-05-20,fhrs_1_en-GB,1,,FHRS,10
284650,,22 Lyndhurst Road,Christchurch,Dorset,Toby Carvery Hinton,Restaurant/Cafe/Canteen,1,5,,658028,5,,50.74539000000000,85971,084,environmental.services@christchurch.gov.uk,Christchurch,http://www.dorsetforyou.com,-1.73683100000000,BH23 4SD,2013-03-13,fhrs_5_en-GB,5,,FHRS,5
284651,,128 Somerford Road,Christchurch,Dorset,Tom Thumbs Daycare,Hospitals/Childcare/Caring Premises,5,5,,658293,10,,50.73914400000000,86239,084,environmental.services@christchurch.gov.uk,Christchurch,http://www.dorsetforyou.com,-1.75099500000000,BH23 3QE,2014-01-28,fhrs_3_en-GB,3,,FHRS,10
284652,,3 Highcliffe Corner,Lymington Road,Christchurch,Top Chef,Takeaway/sandwich shop,7844,20,,658401,10,,50.74216200000000,86348,084,environmental.services@christchurch.gov.uk,Christchurch,http://www.dorsetforyou.com,-1.69634400000000,BH23 5EL,2014-07-31,fhrs_1_en-GB,1,,FHRS,10
284653,,141 Barrack Road,Christchurch,Dorset,Top Wok,Takeaway/sandwich shop,7844,10,,658152,10,,50.74035900000000,86097,084,environmental.services@christchurch.gov.uk,Christchurch,http://www.dorsetforyou.com,-1.79296500000000,BH23 2AW,2014-09-11,fhrs_3_en-GB,3,,FHRS,10
284654,,2 St Catherines Parade,Fairmile Road,Christchurch,Town Common News,Retailers - other,4613,10,,658153,5,,50.74965000000000,86098,084,environmental.services@christchurch.gov.uk,Christchurch,http://www.dorsetforyou.com,-1.79401600000000,BH23 2LQ,2014-09-08,fhrs_4_en-GB,4,,FHRS,5
284655,,20 Saxon Square,Christchurch,Dorset,Travelodge Christchurch,Hotel/bed & breakfast/guest house,7842,0,,693773,0,,50.73557400000000,87039,084,environmental.services@christchurch.gov.uk,Christchurch,http://www.dorsetforyou.com,-1.77773900000000,BH23 1QA,2014-08-13,fhrs_5_en-GB,5,,FHRS,0
284656,,330-332 Lymington Road,Highcliffe,Christchurch,TULIPS COFFEE SHOP,Restaurant/Cafe/Canteen,1,5,,712042,5,,50.74165700000000,87114,084,environmental.services@christchurch.gov.uk,Christchurch,http://www.dorsetforyou.com,-1.69939400000000,BH23 5EY,2014-11-11,fhrs_5_en-GB,5,,FHRS,5
284657,Stony Lane South,Christchurch,Dorset,,Two Riversmeet Leisure Centre,Restaurant/Cafe/Canteen,1,10,,658084,10,,50.73467200000000,86027,084,environmental.services@christchurch.gov.uk,Christchurch,http://www.dorsetforyou.com,-1.76713000000000,BH23 1HW,2013-08-13,fhrs_3_en-GB,3,,FHRS,10
284658,Sopers Lane,Christchurch,Dorset,,Twynham Comprehensive School,School/college/university,7845,5,,658122,5,,50.73302800000000,86066,084,environmental.services@christchurch.gov.uk,Christchurch,http://www.dorsetforyou.com,-1.78177500000000,BH23 1JF,2014-09-22,fhrs_5_en-GB,5,,FHRS,5
284659,,,,,Uk Bratwurst Co,Mobile caterer,7846,5,,658373,5,,,86320,084,environmental.services@christchurch.gov.uk,Christchurch,http://www.dorsetforyou.com,,,2013-04-23,fhrs_5_en-GB,5,,FHRS,5
284660,,,,,Vanillapink Cakes,Other catering premises,7841,5,,658407,5,,,86988,084,environmental.services@christchurch.gov.uk,Christchurch,http://www.dorsetforyou.com,,,2014-03-18,fhrs_5_en-GB,5,,FHRS,5
284661,,33 Bargates,Christchurch,Dorset,Waitrose,Retailers - supermarkets/hypermarkets,7840,0,,658117,0,,50.73653000000000,86061,084,environmental.services@christchurch.gov.uk,Christchurch,http://www.dorsetforyou.com,-1.77935000000000,BH23 1QD,2013-11-20,fhrs_5_en-GB,5,,FHRS,5
284662,,110 Ringwood Road,Walkford,Christchurch,Walkford Stores,Retailers - other,4613,10,,658057,5,,50.74984300000000,86000,084,environmental.services@christchurch.gov.uk,Christchurch,http://www.dorsetforyou.com,-1.69687600000000,BH23 5RF,2009-02-27,fhrs_4_en-GB,4,,FHRS,0
284663,,8 Bure Lane,Mudeford,Christchurch,Waters Edge B&B,Hotel/bed & breakfast/guest house,7842,10,,658346,5,,50.72918700000000,86293,084,environmental.services@christchurch.gov.uk,Christchurch,http://www.dorsetforyou.com,-1.73781400000000,BH23 4DW,2011-10-11,fhrs_4_en-GB,4,,FHRS,5
284664,,186 Somerford Road,Christchurch,Dorset,Wessex Pharmacies Ltd,Retailers - other,4613,,,658049,,,50.74131600000000,85992,084,environmental.services@christchurch.gov.uk,Christchurch,http://www.dorsetforyou.com,-1.74493200000000,BH23 3QG,2012-03-14,fhrs_exempt_en-GB,Exempt,,FHRS,
284665,Wh Smith Ltd,21 Saxon Square,Christchurch,Dorset,WH Smiths,Retailers - other,4613,10,,658262,5,,50.73525800000000,86208,084,environmental.services@christchurch.gov.uk,Christchurch,http://www.dorsetforyou.com,-1.77694700000000,BH23 1QB,2013-07-09,fhrs_4_en-GB,4,,FHRS,5
284666,Terminal Building,,Hurn,Christchurch,WH Smiths Travel Retail,Retailers - other,4613,10,,658277,5,,50.77883600000000,86223,084,environmental.services@christchurch.gov.uk,Christchurch,http://www.dorsetforyou.com,-1.83026800000000,BH23 6SE,2013-11-19,fhrs_4_en-GB,4,,FHRS,5
284667,,1 Bank Close,Christchurch,Dorset,Wishes CafÃ©,Restaurant/Cafe/Canteen,1,5,,658192,5,,50.73484600000000,86137,084,environmental.services@christchurch.gov.uk,Christchurch,http://www.dorsetforyou.com,-1.77823800000000,BH23 1AB,2014-08-08,fhrs_4_en-GB,4,,FHRS,10
284668,,173 Barrack Road,Christchurch,Dorset,Wok u Like,Takeaway/sandwich shop,7844,10,,658298,5,,50.74096400000000,86244,084,environmental.services@christchurch.gov.uk,Christchurch,http://www.dorsetforyou.com,-1.79462100000000,BH23 2AP,2013-11-04,fhrs_4_en-GB,4,,FHRS,5
284669,Bournemouth International Airport (Airside),Hurn,Christchurch,Dorset,World Duty Free,Retailers - other,4613,5,,658276,5,,50.77883600000000,86222,084,environmental.services@christchurch.gov.uk,Christchurch,http://www.dorsetforyou.com,-1.83026800000000,BH23 6SE,2013-11-19,fhrs_5_en-GB,5,,FHRS,5
284670,,16 Church Street,Christchurch,Dorset,Ye Olde Eight Bells Shoppe,Retailers - other,4613,5,,658304,5,,50.73337500000000,86250,084,environmental.services@christchurch.gov.uk,Christchurch,http://www.dorsetforyou.com,-1.77542500000000,BH23 1BW,2013-07-09,fhrs_4_en-GB,4,,FHRS,10
284671,,2 a Castle Street,Christchurch,Dorset,Ye Olde George Inn,Pub/bar/nightclub,7843,5,,658251,10,,50.73402200000000,86197,084,environmental.services@christchurch.gov.uk,Christchurch,http://www.dorsetforyou.com,-1.77494100000000,BH23 1DT,2014-10-22,fhrs_3_en-GB,3,,FHRS,10
284672,,7-9 Purewell,Christchurch,Dorset,Ye Olde Starre Inn,Pub/bar/nightclub,7843,20,,658048,20,,50.73551400000000,85991,084,environmental.services@christchurch.gov.uk,Christchurch,http://www.dorsetforyou.com,-1.76558100000000,BH23 1EH,2014-05-29,fhrs_0_en-GB,0,,FHRS,15
