,addressline1,addressline2,addressline3,addressline4,businessname,businesstype,businesstypeid,confidenceinmanagement,extractdate,fhrsid,hygiene,itemcount,latitude,localauthoritybusinessid,localauthoritycode,localauthorityemailaddress,localauthorityname,localauthoritywebsite,longitude,postcode,ratingdate,ratingkey,ratingvalue,returncode,schemetype,structural
290853,The Old Church House,5 Mill Lane,Wimborne Minster,Dorset,A TASTE OF RASA SAYANG,Other catering premises,7841,5,,732415,5,,50.80018900000000,87137,085,EnvironmentalHealth@christchurchandeastdorset.gov.uk,East Dorset,http://www.dorsetforyou.gov.uk,-1.98690400000000,BH21 1JQ,2015-01-28,fhrs_5_en-GB,5,,FHRS,5
290854,,7 Manor Road,Verwood,Dorset,A W ANDREWS - BUTCHER,Retailers - other,4613,5,,340321,5,,50.88065600000000,1493,085,EnvironmentalHealth@christchurchandeastdorset.gov.uk,East Dorset,http://www.dorsetforyou.gov.uk,-1.87940800000000,BH31 6DS,2014-11-05,fhrs_4_en-GB,4,,FHRS,10
290855,,,,,A WOODARD LTD,Retailers - other,4613,5,,340278,5,,,11554,085,EnvironmentalHealth@christchurchandeastdorset.gov.uk,East Dorset,http://www.dorsetforyou.gov.uk,,,2012-08-23,fhrs_4_en-GB,4,,FHRS,10
290856,"Acorn Lodge, Oakdene Nursing And Care Home",Ringwood Road,Three Legged Cross,Dorset,ACORN LODGE NURSING HOME,Hospitals/Childcare/Caring Premises,5,0,,484755,0,,50.84933200000000,52155,085,EnvironmentalHealth@christchurchandeastdorset.gov.uk,East Dorset,http://www.dorsetforyou.gov.uk,-1.88554000000000,BH21 6RB,2013-11-13,fhrs_5_en-GB,5,,FHRS,0
290857,,26 Mill Lane,Wimborne,Dorset,Agra Fine Indian Dining Ltd,Restaurant/Cafe/Canteen,1,,,693509,,,50.80018900000000,87080,085,EnvironmentalHealth@christchurchandeastdorset.gov.uk,East Dorset,http://www.dorsetforyou.gov.uk,-1.98690400000000,BH21 1JQ,2014-11-20,fhrs_3_en-GB,3,,FHRS,
290858,,60 Ringwood Road,Verwood,Dorset,AL TRULLO,Other catering premises,7841,,,668830,,,50.87949300000000,87012,085,EnvironmentalHealth@christchurchandeastdorset.gov.uk,East Dorset,http://www.dorsetforyou.gov.uk,-1.86850900000000,BH31 7AJ,2014-09-24,fhrs_4_en-GB,4,,FHRS,
290859,,,,,ALAN WOODARD LTD,Distributors/Transporters,7,5,,711622,5,,,87133,085,EnvironmentalHealth@christchurchandeastdorset.gov.uk,East Dorset,http://www.dorsetforyou.gov.uk,,,2014-10-23,fhrs_4_en-GB,4,,FHRS,10
290860,,Hillbury Road,Alderholt,,Alderholt Chapel,Restaurant/Cafe/Canteen,1,5,,340710,5,,50.91481200000000,51993,085,EnvironmentalHealth@christchurchandeastdorset.gov.uk,East Dorset,http://www.dorsetforyou.gov.uk,-1.82462600000000,SP6 3BQ,2013-03-21,fhrs_5_en-GB,5,,FHRS,5
290861,Alderholt Mill,Sandleheath Road,Alderholt,Dorset,ALDERHOLT MILL,Hotel/bed & breakfast/guest house,7842,5,,340577,5,,50.92801400000000,4254,085,EnvironmentalHealth@christchurchandeastdorset.gov.uk,East Dorset,http://www.dorsetforyou.gov.uk,-1.83184700000000,SP6 1PU,2014-04-04,fhrs_5_en-GB,5,,FHRS,5
290862,,,,,ALL ABOUT THE CAKE,Other catering premises,7841,5,,356627,5,,,43013,085,EnvironmentalHealth@christchurchandeastdorset.gov.uk,East Dorset,http://www.dorsetforyou.gov.uk,,,2012-04-24,fhrs_5_en-GB,5,,FHRS,5
290863,,Damerham Road,Cranborne,Wimborne,Ancient Technology Centre,School/college/university,7845,5,,340684,5,,50.91951200000000,51903,085,EnvironmentalHealth@christchurchandeastdorset.gov.uk,East Dorset,http://www.dorsetforyou.gov.uk,-1.92245600000000,BH21 5PR,2013-09-26,fhrs_4_en-GB,4,,FHRS,10
290864,6 Quarterjack Mews,10 East Street,Wimborne Minster,Dorset,Angels,Restaurant/Cafe/Canteen,1,0,,340640,5,,50.79860700000000,51354,085,EnvironmentalHealth@christchurchandeastdorset.gov.uk,East Dorset,http://www.dorsetforyou.gov.uk,-1.98623800000000,BH21 1DS,2013-11-21,fhrs_5_en-GB,5,,FHRS,5
290865,,,,,ANNIE'S HOME EATS,Restaurant/Cafe/Canteen,1,10,,700112,5,,,24110,085,EnvironmentalHealth@christchurchandeastdorset.gov.uk,East Dorset,http://www.dorsetforyou.gov.uk,,,2014-09-04,fhrs_4_en-GB,4,,FHRS,5
290866,Knowle Hill Farm,Bagmans Lane,Knowlton,"Horton, Dorset",ANTELL BROTHERS,Manufacturers/packers,7839,,,340503,,,50.87919900000000,25263,085,EnvironmentalHealth@christchurchandeastdorset.gov.uk,East Dorset,http://www.dorsetforyou.gov.uk,-1.95559800000000,BH21 7HL,2014-09-18,fhrs_exempt_en-GB,Exempt,,FHRS,
290867,,,,,APPLE SNACKS,Mobile caterer,7846,0,,572014,0,,,36370,085,EnvironmentalHealth@christchurchandeastdorset.gov.uk,East Dorset,http://www.dorsetforyou.gov.uk,,,2015-01-21,fhrs_5_en-GB,5,,FHRS,5
290868,Peartree Business Centre,Cobham Road,Ferndown,Dorset,ARAMARK LTD,Restaurant/Cafe/Canteen,1,5,,340625,5,,50.77915191650391,5085,085,EnvironmentalHealth@christchurchandeastdorset.gov.uk,East Dorset,http://www.dorsetforyou.gov.uk,-2.32034993171692,BH21 7PP,2013-04-29,fhrs_5_en-GB,5,,FHRS,5
290869,,34 Victoria Road,Ferndown,Dorset,ASHLEY'S,Takeaway/sandwich shop,7844,5,,718446,5,,50.80207200000000,87130,085,EnvironmentalHealth@christchurchandeastdorset.gov.uk,East Dorset,http://www.dorsetforyou.gov.uk,-1.89023800000000,BH22 9HZ,2014-11-20,fhrs_4_en-GB,4,,FHRS,10
290870,AVON FOREST CAFE,Brocks Pine,St Leonards,Dorset,Avon Heath Cafe Ltd,Restaurant/Cafe/Canteen,1,5,,340864,5,,50.82517300000000,7638,085,EnvironmentalHealth@christchurchandeastdorset.gov.uk,East Dorset,http://www.dorsetforyou.gov.uk,-1.82950400000000,BH24 2DH,2013-11-26,fhrs_5_en-GB,5,,FHRS,5
290871,,,,,BABY KAKES,Other catering premises,7841,5,,572008,5,,,11685,085,EnvironmentalHealth@christchurchandeastdorset.gov.uk,East Dorset,http://www.dorsetforyou.gov.uk,,,2013-07-01,fhrs_5_en-GB,5,,FHRS,5
290872,,12 The Square,Wimborne Minster,Dorset,Bakehouse Cafe,Restaurant/Cafe/Canteen,1,10,,408289,10,,50.80048600000000,52076,085,EnvironmentalHealth@christchurchandeastdorset.gov.uk,East Dorset,http://www.dorsetforyou.gov.uk,-1.98779800000000,BH21 1JA,2013-10-18,fhrs_3_en-GB,3,,FHRS,10
290873,David Phipp,Ringwood Road,Ferndown,Dorset,BALCONY CAFE,Restaurant/Cafe/Canteen,1,0,,340838,0,,50.81167900000000,7468,085,EnvironmentalHealth@christchurchandeastdorset.gov.uk,East Dorset,http://www.dorsetforyou.gov.uk,-1.87544100000000,BH22 9AL,2013-05-28,fhrs_5_en-GB,5,,FHRS,0
290874,,31A Glenmoor Road,Ferndown,Dorset,BAMBOO,Takeaway/sandwich shop,7844,5,,711620,5,,50.79308200000000,87104,085,EnvironmentalHealth@christchurchandeastdorset.gov.uk,East Dorset,http://www.dorsetforyou.gov.uk,-1.89258600000000,BH22 8QE,2014-10-20,fhrs_4_en-GB,4,,FHRS,10
290875,,Newtown Lane,Corfe Mullen,"Wimborne, Dorset",BAPTIST CHURCH HALL,Other catering premises,7841,,,340761,,,50.77723100000000,560,085,EnvironmentalHealth@christchurchandeastdorset.gov.uk,East Dorset,http://www.dorsetforyou.gov.uk,-2.01836900000000,BH21 3EY,2012-05-02,fhrs_exempt_en-GB,Exempt,,FHRS,
290876,Oakdene Forest Park,Oakdene Holiday Park,St.Leonards/St.Ives,Dorset,BAR AND COLOUR CAFE,Restaurant/Cafe/Canteen,1,10,,340386,5,,50.81157000000000,18965,085,EnvironmentalHealth@christchurchandeastdorset.gov.uk,East Dorset,http://www.dorsetforyou.gov.uk,-1.85838100000000,BH24 2RZ,2013-09-18,fhrs_4_en-GB,4,,FHRS,5
290877,Barford Farm,Barford - Access To Barford Fa,Shapwick,Dorset,BARFORD FARMHOUSE ICECREAM,Manufacturers/packers,7839,10,,340305,5,,50.80271400000000,14054,085,EnvironmentalHealth@christchurchandeastdorset.gov.uk,East Dorset,http://www.dorsetforyou.gov.uk,-2.05252100000000,BH21 4BY,2013-04-09,fhrs_4_en-GB,4,,FHRS,0
290878,,Wimborne Road,Colehill,"Wimborne, Dorset",BEAUCROFT SCHOOL - KITCHEN,School/college/university,7845,0,,340773,0,,50.80735400000000,6255,085,EnvironmentalHealth@christchurchandeastdorset.gov.uk,East Dorset,http://www.dorsetforyou.gov.uk,-1.97069500000000,BH21 2SS,2013-10-03,fhrs_5_en-GB,5,,FHRS,0
290879,,372 Ringwood Road,Ferndown,Dorset,BELASH INDIAN TAKEAWAY,Takeaway/sandwich shop,7844,20,,633253,15,,50.80002300000000,52193,085,EnvironmentalHealth@christchurchandeastdorset.gov.uk,East Dorset,http://www.dorsetforyou.gov.uk,-1.89162000000000,BH22 9AT,2014-01-28,fhrs_1_en-GB,1,,FHRS,15
290880,2 Restynge House,11 Ringwood Road,Verwood,Dorset,BELINDA'S,Restaurant/Cafe/Canteen,1,20,,340264,10,,50.88185000000000,10366,085,EnvironmentalHealth@christchurchandeastdorset.gov.uk,East Dorset,http://www.dorsetforyou.gov.uk,-1.87809700000000,BH31 7AA,2014-04-03,fhrs_1_en-GB,1,,FHRS,20
290881,,,,,Bella's Biscuits,Other catering premises,7841,5,,732409,5,,,35431,085,EnvironmentalHealth@christchurchandeastdorset.gov.uk,East Dorset,http://www.dorsetforyou.gov.uk,,,2015-01-13,fhrs_5_en-GB,5,,FHRS,5
290882,PREP ROOM AND STALL,Rear of 1 17,High Street,Wimborne,Bells Famous Fisheries,Retailers - other,4613,5,,340311,5,,50.79969500000000,14318,085,EnvironmentalHealth@christchurchandeastdorset.gov.uk,East Dorset,http://www.dorsetforyou.gov.uk,-1.98801100000000,BH21 1HU,2013-12-06,fhrs_4_en-GB,4,,FHRS,10
290883,,6 Leigh Road,Wimborne Minster,Dorset,Best Pizza and Kebab,Takeaway/sandwich shop,7844,10,,340462,5,,50.79786000000000,23002,085,EnvironmentalHealth@christchurchandeastdorset.gov.uk,East Dorset,http://www.dorsetforyou.gov.uk,-1.98301700000000,BH21 1AF,2014-04-16,fhrs_3_en-GB,3,,FHRS,10
290884,,Blandford Road,Sturminster Marshall,Dorset,Black Horse,Pub/bar/nightclub,7843,5,,340653,10,,50.80390000000000,51680,085,EnvironmentalHealth@christchurchandeastdorset.gov.uk,East Dorset,http://www.dorsetforyou.gov.uk,-2.03120800000000,BH21 4EQ,2014-01-24,fhrs_4_en-GB,4,,FHRS,5
290885,,,,,BLUSH BAKERY,Other catering premises,7841,5,,607203,10,,,15026,085,EnvironmentalHealth@christchurchandeastdorset.gov.uk,East Dorset,http://www.dorsetforyou.gov.uk,,,2013-10-25,fhrs_4_en-GB,4,,FHRS,5
290886,,Priest House Museum,Wimborne Minster,Dorset,BOATHOUSE TEA ROOM,Other catering premises,7841,10,,550465,5,,50.79947900000000,52127,085,EnvironmentalHealth@christchurchandeastdorset.gov.uk,East Dorset,http://www.dorsetforyou.gov.uk,-1.98748600000000,BH21 1HR,2012-07-09,fhrs_4_en-GB,4,,FHRS,0
290887,BOVERIDGE HOUSE,Cranborne,Wimborne,Dorset,BOVERIDGE HOUSE SCHOOL TRUST,School/college/university,7845,0,,340909,0,,50.93426000000000,7962,085,EnvironmentalHealth@christchurchandeastdorset.gov.uk,East Dorset,http://www.dorsetforyou.gov.uk,-1.91054900000000,BH21 5RU,2014-02-13,fhrs_5_en-GB,5,,FHRS,5
290888,,176 Ringwood Road,St Leonards,Ringwood,BP SERVICE STATION,Retailers - other,4613,5,,446095,5,,50.82936800000000,52139,085,EnvironmentalHealth@christchurchandeastdorset.gov.uk,East Dorset,http://www.dorsetforyou.gov.uk,-1.83871800000000,BH24 2NR,2014-04-07,fhrs_5_en-GB,5,,FHRS,5
290889,,176 Ringwood Road,St Leonards,Ringwood,BP SERVICE STATION,Retailers - other,4613,5,,446095,5,,50.82936800000000,52139,085,EnvironmentalHealth@christchurchandeastdorset.gov.uk,East Dorset,http://www.dorsetforyou.gov.uk,-1.83871800000000,BH24 2NR,2014-04-07,fhrs_5_en-GB,5,,FHRS,5
290890,,Braeside Road,St Leonards,Ringwood,BRAESIDE BOWLING CLUB,Restaurant/Cafe/Canteen,1,5,,668828,5,,50.82866100000000,85943,085,EnvironmentalHealth@christchurchandeastdorset.gov.uk,East Dorset,http://www.dorsetforyou.gov.uk,-1.84116300000000,BH24 2PQ,2014-04-24,fhrs_5_en-GB,5,,FHRS,0
290891,,,,,BRATWURST UK,Mobile caterer,7846,0,,680795,0,,,32840,085,EnvironmentalHealth@christchurchandeastdorset.gov.uk,East Dorset,http://www.dorsetforyou.gov.uk,,,2014-06-21,fhrs_5_en-GB,5,,FHRS,0
290892,,Riverside Road,West Moors,"Ferndown, Dorset",Brook View,Hospitals/Childcare/Caring Premises,5,0,,340575,0,,50.82563500000000,4233,085,EnvironmentalHealth@christchurchandeastdorset.gov.uk,East Dorset,http://www.dorsetforyou.gov.uk,-1.89268200000000,BH22 0LG,2013-12-13,fhrs_5_en-GB,5,,FHRS,5
290893,,12 High Street,Sixpenny Handley,Dorset,C & B Styles Newsagents,Retailers - other,4613,5,,340763,5,,50.95341200000000,5807,085,EnvironmentalHealth@christchurchandeastdorset.gov.uk,East Dorset,http://www.dorsetforyou.gov.uk,-2.00346200000000,SP5 5NR,2014-02-22,fhrs_4_en-GB,4,,FHRS,10
290894,,,,,CAKE BY SADIE SMITH,Other catering premises,7841,5,,340634,5,,,51313,085,EnvironmentalHealth@christchurchandeastdorset.gov.uk,East Dorset,http://www.dorsetforyou.gov.uk,,,2011-09-15,fhrs_5_en-GB,5,,FHRS,0
290895,,,,,CAKES BY NETTIE C,Other catering premises,7841,5,,536314,5,,,28804,085,EnvironmentalHealth@christchurchandeastdorset.gov.uk,East Dorset,http://www.dorsetforyou.gov.uk,,,2013-04-11,fhrs_5_en-GB,5,,FHRS,5
290896,Candys Farm,Candy's Lane,Corfe Mullen,Dorset,CANDY'S FARM,Farmers/growers,7838,5,,536311,5,,50.78820200000000,17803,085,EnvironmentalHealth@christchurchandeastdorset.gov.uk,East Dorset,http://www.dorsetforyou.gov.uk,-2.01264200000000,BH21 3EF,2013-03-22,fhrs_5_en-GB,5,,FHRS,5
290897,,17 Canford Bottom,Stapehill,Dorset,CANFORD CROSSING B&B,Hotel/bed & breakfast/guest house,7842,10,,643915,10,,50.80291800000000,17307,085,EnvironmentalHealth@christchurchandeastdorset.gov.uk,East Dorset,http://www.dorsetforyou.gov.uk,-1.94163500000000,BH21 2HA,2014-04-02,fhrs_3_en-GB,3,,FHRS,5
290898,St Leonards Hospital,Ringwood Road,St.Leonards/St.Ives,Dorset,CANFORD WARD KITCHEN,Hospitals/Childcare/Caring Premises,5,5,,340484,5,,50.81796100000000,23681,085,EnvironmentalHealth@christchurchandeastdorset.gov.uk,East Dorset,http://www.dorsetforyou.gov.uk,-1.85604700000000,BH24 2RR,2013-11-11,fhrs_5_en-GB,5,,FHRS,0
290899,,3 Church Street,Wimborne,Dorset,CANTINA,Restaurant/Cafe/Canteen,1,5,,536326,5,,50.79976700000000,52178,085,EnvironmentalHealth@christchurchandeastdorset.gov.uk,East Dorset,http://www.dorsetforyou.gov.uk,-1.98846500000000,BH21 1JH,2013-03-22,fhrs_5_en-GB,5,,FHRS,5
290900,,,,,CAROLYN'S HOMEMADE SOUP,Other catering premises,7841,10,,622315,5,,,22474,085,EnvironmentalHealth@christchurchandeastdorset.gov.uk,East Dorset,http://www.dorsetforyou.gov.uk,,,2013-11-12,fhrs_4_en-GB,4,,FHRS,5
290901,Cashmoor House,,Cashmoor,Dorset,CASHMOOR GUEST HOUSE,Hotel/bed & breakfast/guest house,7842,5,,340360,5,,50.92235500000000,17760,085,EnvironmentalHealth@christchurchandeastdorset.gov.uk,East Dorset,http://www.dorsetforyou.gov.uk,-2.03760500000000,DT11 8DN,2014-10-14,fhrs_5_en-GB,5,,FHRS,5
290902,,Cashmoor Inn,Blandford Forum,Dorset,CASHMOOR INN,Hotel/bed & breakfast/guest house,7842,5,,711619,5,,50.92235500000000,87102,085,EnvironmentalHealth@christchurchandeastdorset.gov.uk,East Dorset,http://www.dorsetforyou.gov.uk,-2.03760500000000,DT11 8DN,2014-10-27,fhrs_4_en-GB,4,,FHRS,10
290903,,Knoll Lane,Corfe Mullen,"Wimborne, Dorset",CASTLE COURT SCHOOL,School/college/university,7845,0,,340753,5,,50.77514100000000,528,085,EnvironmentalHealth@christchurchandeastdorset.gov.uk,East Dorset,http://www.dorsetforyou.gov.uk,-2.03473400000000,BH21 3RF,2013-09-30,fhrs_5_en-GB,5,,FHRS,0
290904,,95-97 Ringwood Road,Verwood,Dorset,CENTRAL STORES,Retailers - other,4613,10,,643918,5,,50.87940100000000,87008,085,EnvironmentalHealth@christchurchandeastdorset.gov.uk,East Dorset,http://www.dorsetforyou.gov.uk,-1.86666100000000,BH31 7AD,2014-04-08,fhrs_2_en-GB,2,,FHRS,15
290905,1 Bayard Place,Verwood Road,Three Legged Cross,Dorset,CENTRAL STORES,Retailers - other,4613,10,,536325,10,,50.85424900000000,52177,085,EnvironmentalHealth@christchurchandeastdorset.gov.uk,East Dorset,http://www.dorsetforyou.gov.uk,-1.88365300000000,BH21 6RJ,2014-08-28,fhrs_3_en-GB,3,,FHRS,10
290906,,9 Manor Road,Verwood,Dorset,CHAMPAGNE CHINESE TAKEAWAY,Takeaway/sandwich shop,7844,5,,340322,5,,50.88065600000000,1497,085,EnvironmentalHealth@christchurchandeastdorset.gov.uk,East Dorset,http://www.dorsetforyou.gov.uk,-1.87940800000000,BH31 6DS,2014-03-27,fhrs_4_en-GB,4,,FHRS,10
290907,,133A Victoria Road,Ferndown,Dorset,CHARCOAL GRILL,Takeaway/sandwich shop,7844,10,,446096,5,,50.80329600000000,52142,085,EnvironmentalHealth@christchurchandeastdorset.gov.uk,East Dorset,http://www.dorsetforyou.gov.uk,-1.89111500000000,BH22 9HU,2014-03-06,fhrs_2_en-GB,2,,FHRS,15
290908,VILLAGE HALL,Common Road,Sixpenny Handley,"Salisbury, Wilts",CHASE COMMUNITY OF FRIENDS,Other catering premises,7841,5,,340928,5,,50.95428400000000,9305,085,EnvironmentalHealth@christchurchandeastdorset.gov.uk,East Dorset,http://www.dorsetforyou.gov.uk,-2.00556900000000,SP5 5ND,2014-02-14,fhrs_5_en-GB,5,,FHRS,5
290909,Chaseborough House,,Three Legged Cross,Dorset,CHASEBOROUGH HOUSE,Hospitals/Childcare/Caring Premises,5,5,,705587,5,,50.85174500000000,87092,085,EnvironmentalHealth@christchurchandeastdorset.gov.uk,East Dorset,http://www.dorsetforyou.gov.uk,-1.88847400000000,BH21 6SG,2014-09-15,fhrs_5_en-GB,5,,FHRS,5
290910,,Hall 2 Wimborne Market,Wimborne Minster,Dorset,CHEESE TO PLEASE,Retailers - other,4613,5,,585176,5,,50.79911100000000,52621,085,EnvironmentalHealth@christchurchandeastdorset.gov.uk,East Dorset,http://www.dorsetforyou.gov.uk,-1.99473700000000,BH21 1EH,2013-08-23,fhrs_5_en-GB,5,,FHRS,5
290911,FERNDOWN FOREST GOLF CLUB,Forest Links Road,Ferndown,Dorset,CHEF DA CHINA,Restaurant/Cafe/Canteen,1,10,,340414,10,,50.81613700000000,20773,085,EnvironmentalHealth@christchurchandeastdorset.gov.uk,East Dorset,http://www.dorsetforyou.gov.uk,-1.90075200000000,BH22 9QE,2014-02-22,fhrs_3_en-GB,3,,FHRS,10
290912,,1 High Street,Ashley Heath,Dorset,CHERRY TREE MONTESSORI SCHOOL,Hospitals/Childcare/Caring Premises,5,5,,340524,5,,50.84088600000000,3224,085,EnvironmentalHealth@christchurchandeastdorset.gov.uk,East Dorset,http://www.dorsetforyou.gov.uk,-1.83795400000000,BH24 2HP,2014-02-20,fhrs_4_en-GB,4,,FHRS,10
290913,,43 Glenwood Road,West Moors,Dorset,CHESTNUT LODGE,Hospitals/Childcare/Caring Premises,5,0,,340516,0,,50.82503300000000,3009,085,EnvironmentalHealth@christchurchandeastdorset.gov.uk,East Dorset,http://www.dorsetforyou.gov.uk,-1.88373900000000,BH22 0EN,2013-10-04,fhrs_5_en-GB,5,,FHRS,5
290914,,378 Ringwood Road,Ferndown,Dorset,CHIANTI PIZZERIA RESTAURANT,Restaurant/Cafe/Canteen,1,5,,340563,5,,50.80070600000000,4072,085,EnvironmentalHealth@christchurchandeastdorset.gov.uk,East Dorset,http://www.dorsetforyou.gov.uk,-1.89062500000000,BH22 9AU,2013-10-30,fhrs_5_en-GB,5,,FHRS,5
290915,,Land Off Broadmoor Road,Corfe Mullen,Wimborne,CHICKEN WORLD,Manufacturers/packers,7839,,,628131,,,50.77703100000000,85914,085,EnvironmentalHealth@christchurchandeastdorset.gov.uk,East Dorset,http://www.dorsetforyou.gov.uk,-2.02591400000000,BH21 3RB,2013-03-22,fhrs_exempt_en-GB,Exempt,,FHRS,
290916,,,,,CHILFROME,Mobile caterer,7846,5,,340394,5,,,19456,085,EnvironmentalHealth@christchurchandeastdorset.gov.uk,East Dorset,http://www.dorsetforyou.gov.uk,,,2015-01-16,fhrs_4_en-GB,4,,FHRS,10
290917,,15 Leigh Road,Wimborne Minster,Dorset,China Garden Ltd,Takeaway/sandwich shop,7844,10,,340796,10,,50.79813000000000,6790,085,EnvironmentalHealth@christchurchandeastdorset.gov.uk,East Dorset,http://www.dorsetforyou.gov.uk,-1.98369800000000,BH21 1AB,2014-10-12,fhrs_2_en-GB,2,,FHRS,15
290918,,147 Wareham Road,Corfe Mullen,Dorset,CHINESE WHISPERS,Takeaway/sandwich shop,7844,10,,340343,10,,50.76546800000000,16145,085,EnvironmentalHealth@christchurchandeastdorset.gov.uk,East Dorset,http://www.dorsetforyou.gov.uk,-2.02104400000000,BH21 3LA,2014-01-30,fhrs_3_en-GB,3,,FHRS,10
290919,,18 East Street,Wimborne Minster,Dorset,Chococake Limited,Other catering premises,7841,5,,467954,5,,50.79824700000000,23928,085,EnvironmentalHealth@christchurchandeastdorset.gov.uk,East Dorset,http://www.dorsetforyou.gov.uk,-1.98484800000000,BH21 1DT,2014-10-16,fhrs_5_en-GB,5,,FHRS,5
290920,Knoll Farm,Broadmoor Road,Corfe Mullen,Dorset,Christian Mission,Hospitals/Childcare/Caring Premises,5,5,,340506,5,,50.77703100000000,257,085,EnvironmentalHealth@christchurchandeastdorset.gov.uk,East Dorset,http://www.dorsetforyou.gov.uk,-2.02591400000000,BH21 3RB,2014-04-02,fhrs_5_en-GB,5,,FHRS,5
290921,,45 High Street,Sturminster Marshall,Dorset,CHURCHILL ARMS,Pub/bar/nightclub,7843,5,,340824,10,,50.79600300000000,7234,085,EnvironmentalHealth@christchurchandeastdorset.gov.uk,East Dorset,http://www.dorsetforyou.gov.uk,-2.07402400000000,BH21 4AS,2014-05-23,fhrs_4_en-GB,4,,FHRS,5
290922,,52 Victoria Road,Ferndown,Dorset,CINNAMON,Restaurant/Cafe/Canteen,1,,,633256,,,50.80207200000000,85922,085,EnvironmentalHealth@christchurchandeastdorset.gov.uk,East Dorset,http://www.dorsetforyou.gov.uk,-1.89023800000000,BH22 9HZ,2014-05-06,fhrs_3_en-GB,3,,FHRS,
290923,Cinnamon Lounge,Verwood Road,Woodlands,Dorset,CINNAMON LOUNGE,Restaurant/Cafe/Canteen,1,,,680798,,,50.88122800000000,86999,085,EnvironmentalHealth@christchurchandeastdorset.gov.uk,East Dorset,http://www.dorsetforyou.gov.uk,-1.93076300000000,BH21 8LN,2014-10-10,fhrs_5_en-GB,5,,FHRS,
290924,,6 Dudsbury Crescent,Ferndown,Dorset,Clarence House Residential,Hospitals/Childcare/Caring Premises,5,0,,340337,0,,50.79647600000000,15871,085,EnvironmentalHealth@christchurchandeastdorset.gov.uk,East Dorset,http://www.dorsetforyou.gov.uk,-1.88677500000000,BH22 8JF,2013-12-06,fhrs_5_en-GB,5,,FHRS,0
290925,,40 East Street,Wimborne Minster,Dorset,Cloisters,Restaurant/Cafe/Canteen,1,0,,340745,0,,50.79835500000000,52102,085,EnvironmentalHealth@christchurchandeastdorset.gov.uk,East Dorset,http://www.dorsetforyou.gov.uk,-1.98629500000000,BH21 1DX,2013-10-24,fhrs_5_en-GB,5,,FHRS,5
290926,,1 Smugglers Lane,Colehill,Dorset,CO - OPERATIVE,Retailers - other,4613,,,340767,,,50.81865000000000,6129,085,EnvironmentalHealth@christchurchandeastdorset.gov.uk,East Dorset,http://www.dorsetforyou.gov.uk,-1.97740300000000,BH21 4HB,2014-09-18,fhrs_4_en-GB,4,,FHRS,
290927,,73 Poole Road,Wimborne Minster,Dorset,Coach and Horses,Pub/bar/nightclub,7843,10,,340668,10,,50.79582700000000,51803,085,EnvironmentalHealth@christchurchandeastdorset.gov.uk,East Dorset,http://www.dorsetforyou.gov.uk,-1.98196800000000,BH21 1QB,2013-11-12,fhrs_3_en-GB,3,,FHRS,10
290928,,Wimborne Market,Grenville Road,"Wimborne, Dorset",COCKLEMAN,Retailers - other,4613,0,,340731,0,,50.79911100000000,52051,085,EnvironmentalHealth@christchurchandeastdorset.gov.uk,East Dorset,http://www.dorsetforyou.gov.uk,-1.99473700000000,BH21 1EH,2011-05-13,fhrs_5_en-GB,5,,FHRS,0
290929,,44A East Street,Wimborne Minster,Dorset,Coffee Saloon,Restaurant/Cafe/Canteen,1,,,732407,,,50.79835400000000,11728,085,EnvironmentalHealth@christchurchandeastdorset.gov.uk,East Dorset,http://www.dorsetforyou.gov.uk,-1.98629400000000,BH21 1DX,2015-01-21,fhrs_5_en-GB,5,,FHRS,
290930,Colehill First School,Pilford Heath Road,Colehill,Dorset,COLEHILL COUNTY FIRST SCHOOL,School/college/university,7845,5,,727684,0,,50.80860600000000,8017,085,EnvironmentalHealth@christchurchandeastdorset.gov.uk,East Dorset,http://www.dorsetforyou.gov.uk,-1.95079700000000,BH21 2LZ,2014-12-03,fhrs_5_en-GB,5,,FHRS,0
290931,,Cannon Hill Road,Colehill,"Wimborne, Dorset",COLEHILL MEMORIAL HALL,Other catering premises,7841,,,340894,,,50.81025200000000,7847,085,EnvironmentalHealth@christchurchandeastdorset.gov.uk,East Dorset,http://www.dorsetforyou.gov.uk,-1.95096500000000,BH21 2LS,2009-08-21,fhrs_exempt_en-GB,Exempt,,FHRS,
290932,,108 Wimborne Road,Colehill,Dorset,COLEHILL SPORTS & SOCIAL CLUB,Pub/bar/nightclub,7843,5,,340774,5,,50.80566400000000,6257,085,EnvironmentalHealth@christchurchandeastdorset.gov.uk,East Dorset,http://www.dorsetforyou.gov.uk,-1.97535100000000,BH21 2QR,2012-07-02,fhrs_4_en-GB,4,,FHRS,10
290933,,Turbary Court,Lockyers Drive,"Ferndown, Dorset",Collins Catering Services (1),Other catering premises,7841,5,,340492,5,,50.80757700000000,23903,085,EnvironmentalHealth@christchurchandeastdorset.gov.uk,East Dorset,http://www.dorsetforyou.gov.uk,-1.87373400000000,BH22 8BL,2014-02-11,fhrs_5_en-GB,5,,FHRS,0
290934,AMBERWOOD HOUSE 418 - 424,Ringwood Road,Ferndown,Dorset,COLTEN CARE LTD,Hospitals/Childcare/Caring Premises,5,0,,340434,0,,50.80137900000000,21611,085,EnvironmentalHealth@christchurchandeastdorset.gov.uk,East Dorset,http://www.dorsetforyou.gov.uk,-1.88937400000000,BH22 9AX,2014-05-07,fhrs_5_en-GB,5,,FHRS,0
290935,,DE&S LS Station HQ,West Moors,Dorset,COMBINED MESSING FACILITY,Restaurant/Cafe/Canteen,1,5,,340644,0,,50.83744100000000,51360,085,EnvironmentalHealth@christchurchandeastdorset.gov.uk,East Dorset,http://www.dorsetforyou.gov.uk,-1.88274300000000,BH21 6QS,2014-11-17,fhrs_5_en-GB,5,,FHRS,5
290936,,145-147 Station Road,West Moors,Dorset,CO-OP,Retailers - other,4613,5,,340357,5,,50.82479500000000,17324,085,EnvironmentalHealth@christchurchandeastdorset.gov.uk,East Dorset,http://www.dorsetforyou.gov.uk,-1.88917700000000,BH22 0HT,2013-04-26,fhrs_5_en-GB,5,,FHRS,5
290937,,147 Wareham Road,Corfe Mullen,Dorset,CO-OP WELCOME,Retailers - supermarkets/hypermarkets,7840,5,,340845,5,,50.76546800000000,753,085,EnvironmentalHealth@christchurchandeastdorset.gov.uk,East Dorset,http://www.dorsetforyou.gov.uk,-2.02104400000000,BH21 3LA,2013-09-20,fhrs_4_en-GB,4,,FHRS,10
290938,,46 Wareham Road,Corfe Mullen,Dorset,CO-OPERATIVE,Retailers - other,4613,5,,340887,5,,50.77504600000000,778,085,EnvironmentalHealth@christchurchandeastdorset.gov.uk,East Dorset,http://www.dorsetforyou.gov.uk,-2.01665200000000,BH21 3LE,2013-09-30,fhrs_4_en-GB,4,,FHRS,10
290939,,46 Wareham Road,Corfe Mullen,Dorset,CO-OPERATIVE,Retailers - other,4613,5,,340887,5,,50.77504600000000,778,085,EnvironmentalHealth@christchurchandeastdorset.gov.uk,East Dorset,http://www.dorsetforyou.gov.uk,-2.01665200000000,BH21 3LE,2013-09-30,fhrs_4_en-GB,4,,FHRS,10
290940,,137 Wareham Road,Corfe Mullen,Dorset,Corfe Coffee,Restaurant/Cafe/Canteen,1,5,,340743,0,,50.76546800000000,52098,085,EnvironmentalHealth@christchurchandeastdorset.gov.uk,East Dorset,http://www.dorsetforyou.gov.uk,-2.02104400000000,BH21 3LA,2014-12-09,fhrs_4_en-GB,4,,FHRS,10
290941,,54 Wareham Road,Corfe Mullen,"Wimborne, Dorset",Corfe Mullen Children's Centre,Restaurant/Cafe/Canteen,1,0,,340706,0,,50.77504600000000,51971,085,EnvironmentalHealth@christchurchandeastdorset.gov.uk,East Dorset,http://www.dorsetforyou.gov.uk,-2.01665200000000,BH21 3LE,2014-01-23,fhrs_5_en-GB,5,,FHRS,5
290942,,1-3 Crown Court,East Borough,Wimborne,Costa Coffee,Restaurant/Cafe/Canteen,1,5,,340490,5,,50.80061200000000,23831,085,EnvironmentalHealth@christchurchandeastdorset.gov.uk,East Dorset,http://www.dorsetforyou.gov.uk,-1.98755700000000,BH21 1LP,2013-10-03,fhrs_5_en-GB,5,,FHRS,5
290943,,77-79 Victoria Road,Ferndown,Dorset,Costa Coffee,Restaurant/Cafe/Canteen,1,5,,688772,5,,50.80329600000000,87077,085,EnvironmentalHealth@christchurchandeastdorset.gov.uk,East Dorset,http://www.dorsetforyou.gov.uk,-1.89111500000000,BH22 9HU,2014-07-11,fhrs_5_en-GB,5,,FHRS,5
290944,1-2 The Old Pottery,Manor Way,Verwood,Dorset,Costa Coffee,Restaurant/Cafe/Canteen,1,5,,340733,5,,50.88123100000000,52059,085,EnvironmentalHealth@christchurchandeastdorset.gov.uk,East Dorset,http://www.dorsetforyou.gov.uk,-1.87861000000000,BH31 6HF,2013-09-25,fhrs_5_en-GB,5,,FHRS,5
290945,1-2 The Old Pottery,Manor Way,Verwood,Dorset,Costa Coffee,Restaurant/Cafe/Canteen,1,5,,340733,5,,50.88123100000000,52059,085,EnvironmentalHealth@christchurchandeastdorset.gov.uk,East Dorset,http://www.dorsetforyou.gov.uk,-1.87861000000000,BH31 6HF,2013-09-25,fhrs_5_en-GB,5,,FHRS,5
290946,,Pennys Lane,Cranborne,"Wimborne, Dorset",Cranborne Association of Sports Club,Pub/bar/nightclub,7843,,,340908,,,50.91978000000000,7959,085,EnvironmentalHealth@christchurchandeastdorset.gov.uk,East Dorset,http://www.dorsetforyou.gov.uk,-1.91919800000000,BH21 5QE,2013-03-18,fhrs_exempt_en-GB,Exempt,,FHRS,
290947,,,,,Cranborne Chase Cider,Manufacturers/packers,7839,5,,550469,5,,,5631,085,EnvironmentalHealth@christchurchandeastdorset.gov.uk,East Dorset,http://www.dorsetforyou.gov.uk,,,2013-10-24,fhrs_4_en-GB,4,,FHRS,10
290948,,Damerham Road,Cranborne,"Wimborne, Dorset",Cranborne Middle School,School/college/university,7845,0,,340438,0,,50.91951200000000,22220,085,EnvironmentalHealth@christchurchandeastdorset.gov.uk,East Dorset,http://www.dorsetforyou.gov.uk,-1.92245600000000,BH21 5PR,2012-07-09,fhrs_5_en-GB,5,,FHRS,5
290949,,1 The Square,Cranborne,Dorset,CRANBORNE STORES,Retailers - other,4613,10,,340373,5,,50.91951200000000,18510,085,EnvironmentalHealth@christchurchandeastdorset.gov.uk,East Dorset,http://www.dorsetforyou.gov.uk,-1.92245600000000,BH21 5PR,2013-12-12,fhrs_3_en-GB,3,,FHRS,10
290950,West Farm,B3081 From Romford Bridge To S,Romford,"Verwood, Dorset",CRANE VALLEY GOLF CLUB,Restaurant/Cafe/Canteen,1,5,,340903,5,,50.88338000000000,7906,085,EnvironmentalHealth@christchurchandeastdorset.gov.uk,East Dorset,http://www.dorsetforyou.gov.uk,-1.89817900000000,BH31 7LE,2014-03-11,fhrs_4_en-GB,4,,FHRS,10
290951,,4&5 Thorne Way,Three Legged Cross,Dorset,Culture Motorcycles Cafe,Restaurant/Cafe/Canteen,1,5,,700113,5,,50.84334000000000,56702,085,EnvironmentalHealth@christchurchandeastdorset.gov.uk,East Dorset,http://www.dorsetforyou.gov.uk,-1.86558500000000,BH21 6FB,2014-09-04,fhrs_4_en-GB,4,,FHRS,10
290952,,7 Victory Close,Woolsbridge Ind Estate,"Three Legged Cross, Dorset.",Custom Lunches Ltd,Other catering premises,7841,5,,340656,0,,50.84354500000000,51728,085,EnvironmentalHealth@christchurchandeastdorset.gov.uk,East Dorset,http://www.dorsetforyou.gov.uk,-1.86410700000000,BH21 6SX,2014-06-10,fhrs_5_en-GB,5,,FHRS,5
290953,,Verwood First School,Howe Lane,Verwood,CYGNET CATERING,Restaurant/Cafe/Canteen,1,5,,550468,5,,50.87263800000000,52196,085,EnvironmentalHealth@christchurchandeastdorset.gov.uk,East Dorset,http://www.dorsetforyou.gov.uk,-1.88259800000000,BH31 6JF,2013-05-17,fhrs_5_en-GB,5,,FHRS,5
290954,WIMBORNE MARKET,Grenville Road,Wimborne,Dorset,DARBYS,Retailers - other,4613,10,,340846,10,,50.79911100000000,7552,085,EnvironmentalHealth@christchurchandeastdorset.gov.uk,East Dorset,http://www.dorsetforyou.gov.uk,-1.99473700000000,BH21 1EH,2008-09-19,fhrs_4_en-GB,4,,FHRS,0
290955,,Deans Court Lane,Wimborne,Dorset,Deans Court,Restaurant/Cafe/Canteen,1,5,,340781,5,,50.79783300000000,6527,085,EnvironmentalHealth@christchurchandeastdorset.gov.uk,East Dorset,http://www.dorsetforyou.gov.uk,-1.98690500000000,BH21 1EE,2013-07-29,fhrs_5_en-GB,5,,FHRS,5
290956,,Deans Court Lane,Wimborne,Dorset,DEANS COURT CAFE,Restaurant/Cafe/Canteen,1,5,,700114,5,,50.79783300000000,85887,085,EnvironmentalHealth@christchurchandeastdorset.gov.uk,East Dorset,http://www.dorsetforyou.gov.uk,-1.98690500000000,BH21 1EE,2014-09-09,fhrs_5_en-GB,5,,FHRS,5
290957,,,,,DEBS BAKES CAKES,Other catering premises,7841,5,,458841,5,,,2202,085,EnvironmentalHealth@christchurchandeastdorset.gov.uk,East Dorset,http://www.dorsetforyou.gov.uk,,,2012-10-05,fhrs_5_en-GB,5,,FHRS,5
290958,,,,,Debs Snack Bar,Restaurant/Cafe/Canteen,1,5,,340379,10,,,18742,085,EnvironmentalHealth@christchurchandeastdorset.gov.uk,East Dorset,http://www.dorsetforyou.gov.uk,,,2013-11-27,fhrs_3_en-GB,3,,FHRS,10
290959,,,,,DE'S BREADMARKET,Retailers - other,4613,5,,711616,5,,,52861,085,EnvironmentalHealth@christchurchandeastdorset.gov.uk,East Dorset,http://www.dorsetforyou.gov.uk,,,2014-10-03,fhrs_5_en-GB,5,,FHRS,5
290960,Unit 2,120 Victoria Road,Ferndown,Dorset,DOMINOS PIZZA,Takeaway/sandwich shop,7844,0,,340365,0,,50.80390700000000,17902,085,EnvironmentalHealth@christchurchandeastdorset.gov.uk,East Dorset,http://www.dorsetforyou.gov.uk,-1.89047500000000,BH22 9JS,2014-02-26,fhrs_5_en-GB,5,,FHRS,5
290961,Unit 2,120 Victoria Road,Ferndown,Dorset,DOMINOS PIZZA,Takeaway/sandwich shop,7844,0,,340365,0,,50.80390700000000,17902,085,EnvironmentalHealth@christchurchandeastdorset.gov.uk,East Dorset,http://www.dorsetforyou.gov.uk,-1.89047500000000,BH22 9JS,2014-02-26,fhrs_5_en-GB,5,,FHRS,5
290962,,,,,DORSET DRAGONFLY CAKES,Other catering premises,7841,5,,607205,5,,,17808,085,EnvironmentalHealth@christchurchandeastdorset.gov.uk,East Dorset,http://www.dorsetforyou.gov.uk,,,2013-10-29,fhrs_5_en-GB,5,,FHRS,5
290963,"Butchers, Vines Close Farm",Dorchester Road,Sturminster Marshall,Dorset,DORSET FARM BUTCHERS,Retailers - other,4613,5,,536317,5,,50.78650200000000,52166,085,EnvironmentalHealth@christchurchandeastdorset.gov.uk,East Dorset,http://www.dorsetforyou.gov.uk,-2.06685900000000,BH21 3RW,2014-09-18,fhrs_5_en-GB,5,,FHRS,5
290964,CRAB FARM,,Shapwick,"Blandford, Dorset",DORSET GAME LARDER,Other catering premises,7841,5,,340834,5,,50.82298300000000,7419,085,EnvironmentalHealth@christchurchandeastdorset.gov.uk,East Dorset,http://www.dorsetforyou.gov.uk,-2.07013400000000,DT11 9JL,2013-06-21,fhrs_5_en-GB,5,,FHRS,5
290965,Dorset Heavy Horse And Animal,Oak Tree Farm To Mill Lane - L,Verwood,Dorset,DORSET HEAVY HORSE & ANIMAL CENTRE,Restaurant/Cafe/Canteen,1,5,,340374,5,,50.89409000000000,18611,085,EnvironmentalHealth@christchurchandeastdorset.gov.uk,East Dorset,http://www.dorsetforyou.gov.uk,-1.88827400000000,BH21 5RJ,2014-08-26,fhrs_5_en-GB,5,,FHRS,5
290966,,,,,DORSET SMOKEHOUSE LTD.,Farmers/growers,7838,,,536313,,,,25019,085,EnvironmentalHealth@christchurchandeastdorset.gov.uk,East Dorset,http://www.dorsetforyou.gov.uk,,,2013-09-10,fhrs_exempt_en-GB,Exempt,,FHRS,
290967,The Dorset Soldier,117 Wareham Road,Corfe Mullen,Dorset,DORSET SOLDIER,Pub/bar/nightclub,7843,5,,340839,5,,50.76714100000000,747,085,EnvironmentalHealth@christchurchandeastdorset.gov.uk,East Dorset,http://www.dorsetforyou.gov.uk,-2.01958400000000,BH21 3JZ,2013-12-11,fhrs_4_en-GB,4,,FHRS,10
290968,Drusillas Inn,Wigbeth,Horton,"Wimborne, Dorset",Drusilla's Inn,Restaurant/Cafe/Canteen,1,10,,340424,10,,50.86387800000000,21011,085,EnvironmentalHealth@christchurchandeastdorset.gov.uk,East Dorset,http://www.dorsetforyou.gov.uk,-1.93996800000000,BH21 7JH,2014-07-28,fhrs_3_en-GB,3,,FHRS,10
290969,,Christchurch Road,Ferndown,Dorset,Dudsbury Golf Club (Bentley's Restaurant),Restaurant/Cafe/Canteen,1,,,340498,,,50.78558200000000,2474,085,EnvironmentalHealth@christchurchandeastdorset.gov.uk,East Dorset,http://www.dorsetforyou.gov.uk,-1.90338400000000,BH22 8ST,2014-10-15,fhrs_5_en-GB,5,,FHRS,
290970,DEANS GROVE HOUSE,Deans Grove,Colehill,"Wimborne, Dorset",Dumpton School  - Kitchen,School/college/university,7845,0,,340758,0,,50.81311900000000,5576,085,EnvironmentalHealth@christchurchandeastdorset.gov.uk,East Dorset,http://www.dorsetforyou.gov.uk,-1.97539000000000,BH21 7AF,2013-09-10,fhrs_5_en-GB,5,,FHRS,0
290971,,Oakdene Farm,Forge Lane,"Verwood, Dorset",Eggs,Retailers - other,4613,,,340664,,,50.87304900000000,51764,085,EnvironmentalHealth@christchurchandeastdorset.gov.uk,East Dorset,http://www.dorsetforyou.gov.uk,-1.88970300000000,BH31 7JH,2013-05-29,fhrs_exempt_en-GB,Exempt,,FHRS,
290972,Elephant And Castle,126 Station Road,West Moors,Dorset,ELEPHANT & CASTLE,Pub/bar/nightclub,7843,5,,693510,5,,50.82419200000000,87083,085,EnvironmentalHealth@christchurchandeastdorset.gov.uk,East Dorset,http://www.dorsetforyou.gov.uk,-1.88808600000000,BH22 0JB,2014-08-26,fhrs_5_en-GB,5,,FHRS,5
290973,,147 New Road,West Parley,Dorset,Emily's Sandwich Shop,Takeaway/sandwich shop,7844,5,,340389,5,,50.78045500000000,19236,085,EnvironmentalHealth@christchurchandeastdorset.gov.uk,East Dorset,http://www.dorsetforyou.gov.uk,-1.88226100000000,BH22 8EB,2014-01-20,fhrs_5_en-GB,5,,FHRS,5
290974,,,,,Emma Honnywill,Other catering premises,7841,5,,732408,5,,,28780,085,EnvironmentalHealth@christchurchandeastdorset.gov.uk,East Dorset,http://www.dorsetforyou.gov.uk,,,2015-01-14,fhrs_5_en-GB,5,,FHRS,5
290975,,,,,EMMANUEL MIDDLE SCHOOL,School/college/university,7845,5,,727679,5,,,1360,085,EnvironmentalHealth@christchurchandeastdorset.gov.uk,East Dorset,http://www.dorsetforyou.gov.uk,,,2014-12-15,fhrs_5_en-GB,5,,FHRS,5
290976,,Cobham Mission Systems,Brook Road,"Wimborne, Dorset",Eurest Services,Restaurant/Cafe/Canteen,1,0,,340713,0,,50.79339700000000,52001,085,EnvironmentalHealth@christchurchandeastdorset.gov.uk,East Dorset,http://www.dorsetforyou.gov.uk,-1.97006500000000,BH21 2BJ,2014-04-07,fhrs_5_en-GB,5,,FHRS,0
290977,,,,,EVERYONE LOVES POPCORN,Mobile caterer,7846,0,,550464,0,,,48215,085,EnvironmentalHealth@christchurchandeastdorset.gov.uk,East Dorset,http://www.dorsetforyou.gov.uk,,,2013-04-26,fhrs_5_en-GB,5,,FHRS,0
290978,,20 St Marys Road,Ferndown,Dorset,FAIRLAWN,Hospitals/Childcare/Caring Premises,5,5,,340586,5,,50.80179700000000,4398,085,EnvironmentalHealth@christchurchandeastdorset.gov.uk,East Dorset,http://www.dorsetforyou.gov.uk,-1.89451000000000,BH22 9HB,2014-05-22,fhrs_5_en-GB,5,,FHRS,5
290979,,,,,FAT SAMS,Mobile caterer,7846,5,,340440,5,,,22268,085,EnvironmentalHealth@christchurchandeastdorset.gov.uk,East Dorset,http://www.dorsetforyou.gov.uk,,,2014-06-03,fhrs_4_en-GB,4,,FHRS,10
290980,,,,,FAVOURITE THINGS,Retailers - other,4613,5,,636977,5,,,47676,085,EnvironmentalHealth@christchurchandeastdorset.gov.uk,East Dorset,http://www.dorsetforyou.gov.uk,,,2014-02-14,fhrs_5_en-GB,5,,FHRS,5
290981,,Ferndown Centre,Ferndown,Dorset,FERNDOWN DAY CENTRE,Other catering premises,7841,0,,340872,0,,50.80181121826172,7684,085,EnvironmentalHealth@christchurchandeastdorset.gov.uk,East Dorset,http://www.dorsetforyou.gov.uk,-1.89141678810120,BH22 9TH,2015-01-09,fhrs_5_en-GB,5,,FHRS,0
290982,,66 Cobham Road,Ferndown,Dorset,Ferndown Diner,Restaurant/Cafe/Canteen,1,5,,340347,5,,50.81224400000000,16462,085,EnvironmentalHealth@christchurchandeastdorset.gov.uk,East Dorset,http://www.dorsetforyou.gov.uk,-1.91336400000000,BH21 7QJ,2014-07-23,fhrs_4_en-GB,4,,FHRS,10
290983,,465-467 Ringwood Road,Ferndown,Dorset,FERNDOWN DISTRICT GIRL GUIDES,Other catering premises,7841,,,340565,,,50.80029300000000,4094,085,EnvironmentalHealth@christchurchandeastdorset.gov.uk,East Dorset,http://www.dorsetforyou.gov.uk,-1.89215800000000,BH22 9AG,2008-03-07,fhrs_exempt_en-GB,Exempt,,FHRS,
290984,,Mountbatten Drive,Ferndown,Dorset,FERNDOWN FIRST SCHOOL,School/college/university,7845,5,,607206,0,,50.80160300000000,2515,085,EnvironmentalHealth@christchurchandeastdorset.gov.uk,East Dorset,http://www.dorsetforyou.gov.uk,-1.89849800000000,BH22 9FB,2013-10-02,fhrs_5_en-GB,5,,FHRS,0
290985,,505 Wimborne Road East,Ferndown,Dorset,FERNDOWN LUNCH @ FERNDOWN UNITED CHURCH,Other catering premises,7841,0,,340608,0,,50.80872100000000,4793,085,EnvironmentalHealth@christchurchandeastdorset.gov.uk,East Dorset,http://www.dorsetforyou.gov.uk,-1.89421100000000,BH22 9NF,2013-02-07,fhrs_5_en-GB,5,,FHRS,5
290986,,9 Dudsbury Crescent,Ferndown,Dorset,FERNDOWN NURSING HOME,Hospitals/Childcare/Caring Premises,5,5,,340452,5,,50.79613500000000,22612,085,EnvironmentalHealth@christchurchandeastdorset.gov.uk,East Dorset,http://www.dorsetforyou.gov.uk,-1.88755600000000,BH22 8JG,2014-04-23,fhrs_5_en-GB,5,,FHRS,5
290987,,508 Wimborne Road East,Ferndown,Dorset,FERNDOWN TANDOORI,Takeaway/sandwich shop,7844,20,,340610,15,,50.80786000000000,4795,085,EnvironmentalHealth@christchurchandeastdorset.gov.uk,East Dorset,http://www.dorsetforyou.gov.uk,-1.89614300000000,BH22 9NG,2014-05-19,fhrs_1_en-GB,1,,FHRS,15
290988,,505 Wimborne Road East,Ferndown,Dorset,FERNDOWN UNITED BAPTIST CHURCH,Other catering premises,7841,0,,700115,0,,50.80872100000000,87029,085,EnvironmentalHealth@christchurchandeastdorset.gov.uk,East Dorset,http://www.dorsetforyou.gov.uk,-1.89421100000000,BH22 9NF,2014-09-09,fhrs_5_en-GB,5,,FHRS,0
290989,,Cherry Grove,Ferndown,Dorset,FERNDOWN UPPER SCHOOL (Catering),School/college/university,7845,5,,727682,5,,50.80613900000000,7500,085,EnvironmentalHealth@christchurchandeastdorset.gov.uk,East Dorset,http://www.dorsetforyou.gov.uk,-1.90237700000000,BH22 9EY,2014-10-17,fhrs_5_en-GB,5,,FHRS,5
290990,,Off Forest Link Road,Ferndown,Dorset,Ferndown Wayfarers Cricket & Sports Club Ltd,Pub/bar/nightclub,7843,20,,340416,10,,50.81613700000000,2082,085,EnvironmentalHealth@christchurchandeastdorset.gov.uk,East Dorset,http://www.dorsetforyou.gov.uk,-1.90075200000000,BH22 9QE,2013-07-25,fhrs_1_en-GB,1,,FHRS,10
290991,,122 Ringwood Road,Ferndown,Dorset,Fernhill Care Home,Hospitals/Childcare/Caring Premises,5,0,,340699,0,,50.78327500000000,51950,085,EnvironmentalHealth@christchurchandeastdorset.gov.uk,East Dorset,http://www.dorsetforyou.gov.uk,-1.90770100000000,BH22 9AW,2013-10-01,fhrs_5_en-GB,5,,FHRS,0
290992,,,,,FERRETTS MINSTER SOFTEE,Mobile caterer,7846,5,,572016,5,,,52859,085,EnvironmentalHealth@christchurchandeastdorset.gov.uk,East Dorset,http://www.dorsetforyou.gov.uk,,,2013-07-22,fhrs_5_en-GB,5,,FHRS,5
290993,,Ferndown First School,Church Road,Ferndown,First Class Nursery School,Hospitals/Childcare/Caring Premises,5,5,,340648,5,,50.80484900000000,51387,085,EnvironmentalHealth@christchurchandeastdorset.gov.uk,East Dorset,http://www.dorsetforyou.gov.uk,-1.89833500000000,BH22 9ET,2014-06-17,fhrs_4_en-GB,4,,FHRS,10
290994,,268 Station Road,West Moors,Dorset,Five Gables Care Home,Hospitals/Childcare/Caring Premises,5,5,,340432,5,,50.83000200000000,21543,085,EnvironmentalHealth@christchurchandeastdorset.gov.uk,East Dorset,http://www.dorsetforyou.gov.uk,-1.88963400000000,BH22 0JF,2014-09-10,fhrs_5_en-GB,5,,FHRS,5
290995,,38 New Borough Road,Wimborne Minster,Dorset,Florence House,Hotel/bed & breakfast/guest house,7842,5,,340310,5,,50.79499900000000,14283,085,EnvironmentalHealth@christchurchandeastdorset.gov.uk,East Dorset,http://www.dorsetforyou.gov.uk,-1.97860600000000,BH21 1RB,2014-05-15,fhrs_5_en-GB,5,,FHRS,5
290996,,Verwood Methodist Church,Vicarage Road,,Food For The Body and Soul,Other catering premises,7841,5,,340711,0,,50.88020400000000,51994,085,EnvironmentalHealth@christchurchandeastdorset.gov.uk,East Dorset,http://www.dorsetforyou.gov.uk,-1.87716300000000,BH31 6DR,2014-06-06,fhrs_5_en-GB,5,,FHRS,5
290997,,Reading Room,119 Station Road,"Alderholt,",Forest Edge Coffee Shop,Other catering premises,7841,5,,607210,5,,50.91561800000000,51985,085,EnvironmentalHealth@christchurchandeastdorset.gov.uk,East Dorset,http://www.dorsetforyou.gov.uk,-1.82850600000000,SP6 3AZ,2014-03-11,fhrs_5_en-GB,5,,FHRS,5
290998,,Rushall Lane,Corfe Mullen,"Wimborne, Dorset",FOREST HILL HOUSE NURSING HOME,Hospitals/Childcare/Caring Premises,5,5,,340888,5,,50.76415700000000,7785,085,EnvironmentalHealth@christchurchandeastdorset.gov.uk,East Dorset,http://www.dorsetforyou.gov.uk,-2.04425400000000,BH21 3RT,2014-06-06,fhrs_5_en-GB,5,,FHRS,5
290999,,163 Station Road,West Moors,Dorset,FOREST KEBABS,Takeaway/sandwich shop,7844,10,,340728,5,,50.82479500000000,52043,085,EnvironmentalHealth@christchurchandeastdorset.gov.uk,East Dorset,http://www.dorsetforyou.gov.uk,-1.88917700000000,BH22 0HT,2014-02-10,fhrs_4_en-GB,4,,FHRS,5
291000,Fox And Hounds,Fox Lane,Canford Bottom,Dorset,FOX AND HOUNDS,Pub/bar/nightclub,7843,5,,340325,5,,50.79963400000000,15208,085,EnvironmentalHealth@christchurchandeastdorset.gov.uk,East Dorset,http://www.dorsetforyou.gov.uk,-1.93708400000000,BH21 2EQ,2013-12-04,fhrs_4_en-GB,4,,FHRS,10
291001,Foxes Moon,40 Ringwood Road,St Ives,Dorset,FOXES MOON RESIDENTIAL HOME,Hospitals/Childcare/Caring Premises,5,5,,340573,5,,50.83591800000000,4227,085,EnvironmentalHealth@christchurchandeastdorset.gov.uk,East Dorset,http://www.dorsetforyou.gov.uk,-1.82276300000000,BH24 2NY,2014-06-17,fhrs_5_en-GB,5,,FHRS,5
291002,,Smugglers Lane,Furzehill,,Furzehill Village Stores,Retailers - other,4613,5,,340701,5,,50.81865000000000,51961,085,EnvironmentalHealth@christchurchandeastdorset.gov.uk,East Dorset,http://www.dorsetforyou.gov.uk,-1.97740300000000,BH21 4HB,2014-03-21,fhrs_4_en-GB,4,,FHRS,10
291003,,Gaunts Common,Wimborne,Dorset,GAUNTS HOUSE,Hotel/bed & breakfast/guest house,7842,5,,340510,5,,50.83847700000000,2927,085,EnvironmentalHealth@christchurchandeastdorset.gov.uk,East Dorset,http://www.dorsetforyou.gov.uk,-1.97215300000000,BH21 4JQ,2014-05-15,fhrs_4_en-GB,4,,FHRS,10
291004,,,,,GEMMA CUTLER,Other catering premises,7841,5,,680794,10,,,30170,085,EnvironmentalHealth@christchurchandeastdorset.gov.uk,East Dorset,http://www.dorsetforyou.gov.uk,,,2014-07-04,fhrs_4_en-GB,4,,FHRS,5
291005,,,,,Go free foods Ltd,Other catering premises,7841,,,340551,,,,38716,085,EnvironmentalHealth@christchurchandeastdorset.gov.uk,East Dorset,http://www.dorsetforyou.gov.uk,,,2012-08-17,fhrs_exempt_en-GB,Exempt,,FHRS,
291006,Gold Oak Farm,Hare Lane,Cranborne,Dorset,GOLD OAK FARM,Retailers - other,4613,,,340420,,,50.91011300000000,20947,085,EnvironmentalHealth@christchurchandeastdorset.gov.uk,East Dorset,http://www.dorsetforyou.gov.uk,-1.87755400000000,BH21 5QT,2014-09-24,fhrs_4_en-GB,4,,FHRS,
291007,,133 Victoria Road,Ferndown,Dorset,GOLDEN HORSE,Restaurant/Cafe/Canteen,1,5,,340464,5,,50.80329600000000,23104,085,EnvironmentalHealth@christchurchandeastdorset.gov.uk,East Dorset,http://www.dorsetforyou.gov.uk,-1.89111500000000,BH22 9HU,2014-08-11,fhrs_4_en-GB,4,,FHRS,10
291008,,42 West Borough,Wimborne Minster,Dorset,GORDON HOUSE - BED & BREAKFAST,Hotel/bed & breakfast/guest house,7842,5,,340816,5,,50.80255500000000,7072,085,EnvironmentalHealth@christchurchandeastdorset.gov.uk,East Dorset,http://www.dorsetforyou.gov.uk,-1.98849300000000,BH21 1NQ,2014-04-23,fhrs_5_en-GB,5,,FHRS,0
291009,,,,,GOURMET PANINIS,Other catering premises,7841,10,,564574,5,,,46358,085,EnvironmentalHealth@christchurchandeastdorset.gov.uk,East Dorset,http://www.dorsetforyou.gov.uk,,,2013-06-20,fhrs_4_en-GB,4,,FHRS,5
291010,,Grange Hill House,Grange,Wimborne,Grange Produce Ltd,Manufacturers/packers,7839,,,536327,,,50.82324500000000,52182,085,EnvironmentalHealth@christchurchandeastdorset.gov.uk,East Dorset,http://www.dorsetforyou.gov.uk,-1.98005500000000,BH21 4HX,2014-11-17,fhrs_exempt_en-GB,Exempt,,FHRS,
291011,,11 Swallow Way,Colehill,Dorset,GROVE COTTAGE CAKES,Other catering premises,7841,5,,622314,5,,50.81293300000000,19802,085,EnvironmentalHealth@christchurchandeastdorset.gov.uk,East Dorset,http://www.dorsetforyou.gov.uk,-1.95532000000000,BH21 2NH,2013-11-19,fhrs_5_en-GB,5,,FHRS,5
291012,,,,,GUSSAGE ST MICHAEL CHURCH HALL (SPUD & SPOUT),Other catering premises,7841,,,340917,,,,8104,085,EnvironmentalHealth@christchurchandeastdorset.gov.uk,East Dorset,http://www.dorsetforyou.gov.uk,,,2014-02-13,fhrs_exempt_en-GB,Exempt,,FHRS,
291013,CHURCH FARM,Church Farm Caravan and Campin,High Street,"Sixpenny Handley, Salisbury, W",HANLEGA'S,Restaurant/Cafe/Canteen,1,5,,340399,10,,50.95428400000000,19945,085,EnvironmentalHealth@christchurchandeastdorset.gov.uk,East Dorset,http://www.dorsetforyou.gov.uk,-2.00556900000000,SP5 5ND,2013-07-05,fhrs_4_en-GB,4,,FHRS,5
291014,,159 Wareham Road,Corfe Mullen,Dorset,Harlees Fish & Chips Ltd,Takeaway/sandwich shop,7844,5,,340857,10,,50.76391200000000,761,085,EnvironmentalHealth@christchurchandeastdorset.gov.uk,East Dorset,http://www.dorsetforyou.gov.uk,-2.02210600000000,BH21 3LB,2013-12-10,fhrs_4_en-GB,4,,FHRS,5
291015,,94 Manor Road,Verwood,Dorset,Harlees Fish and Chips,Takeaway/sandwich shop,7844,5,,340323,5,,50.87401700000000,1501,085,EnvironmentalHealth@christchurchandeastdorset.gov.uk,East Dorset,http://www.dorsetforyou.gov.uk,-1.87700900000000,BH31 6EB,2014-01-08,fhrs_5_en-GB,5,,FHRS,5
291016,,528 Wimborne Road East,Ferndown,,Harlees Fish and Chips Ltd,Takeaway/sandwich shop,7844,5,,711615,5,,50.80786000000000,51886,085,EnvironmentalHealth@christchurchandeastdorset.gov.uk,East Dorset,http://www.dorsetforyou.gov.uk,-1.89614300000000,BH22 9NG,2014-10-07,fhrs_5_en-GB,5,,FHRS,5
291017,Harleston Villas,St Johns Hill,Wimborne Minster,Dorset,HARLESTON HOUSE,Hospitals/Childcare/Caring Premises,5,5,,340788,5,,50.79859600000000,6666,085,EnvironmentalHealth@christchurchandeastdorset.gov.uk,East Dorset,http://www.dorsetforyou.gov.uk,-1.97748300000000,BH21 1DB,2013-10-18,fhrs_5_en-GB,5,,FHRS,0
291018,HASKINS,Ham Lane,Ferndown,Dorset,Haskins Restaurant,Restaurant/Cafe/Canteen,1,5,,340858,0,,50.78572200000000,7611,085,EnvironmentalHealth@christchurchandeastdorset.gov.uk,East Dorset,http://www.dorsetforyou.gov.uk,-1.90912900000000,BH22 9DG,2014-01-13,fhrs_5_en-GB,5,,FHRS,5
291019,,485 Ringwood Road,Ferndown,Dorset,HEART OF INDIA,Restaurant/Cafe/Canteen,1,10,,433945,10,,50.80029300000000,52136,085,EnvironmentalHealth@christchurchandeastdorset.gov.uk,East Dorset,http://www.dorsetforyou.gov.uk,-1.89215800000000,BH22 9AG,2013-07-30,fhrs_3_en-GB,3,,FHRS,10
291020,,33 Highfield Road,Corfe Mullen,Dorset,Heatherdene House,Hotel/bed & breakfast/guest house,7842,5,,340564,5,,50.76556800000000,40844,085,EnvironmentalHealth@christchurchandeastdorset.gov.uk,East Dorset,http://www.dorsetforyou.gov.uk,-2.01494700000000,BH21 3PB,2013-05-17,fhrs_5_en-GB,5,,FHRS,5
291021,,Hillside Road,Corfe Mullen,"Wimborne, Dorset",HENBURY VIEW FIRST SCHOOL,School/college/university,7845,0,,732410,5,,50.77095200000000,471,085,EnvironmentalHealth@christchurchandeastdorset.gov.uk,East Dorset,http://www.dorsetforyou.gov.uk,-2.02374000000000,BH21 3TR,2015-01-28,fhrs_5_en-GB,5,,FHRS,0
291022,,167 New Road,West Parley,Dorset,Herbies Fish and Chips,Takeaway/sandwich shop,7844,5,,340652,5,,50.78045500000000,51632,085,EnvironmentalHealth@christchurchandeastdorset.gov.uk,East Dorset,http://www.dorsetforyou.gov.uk,-1.88226100000000,BH22 8EB,2014-02-05,fhrs_5_en-GB,5,,FHRS,5
291023,,High Lea Farm,Witchampton,Wimborne,HIGH LEA BUTCHERS,Retailers - other,4613,5,,340488,5,,50.85170800000000,23806,085,EnvironmentalHealth@christchurchandeastdorset.gov.uk,East Dorset,http://www.dorsetforyou.gov.uk,-1.99808400000000,BH21 5AA,2014-04-10,fhrs_5_en-GB,5,,FHRS,5
291024,,,,,HILLBURY BED & BREAKFAST,Hotel/bed & breakfast/guest house,7842,10,,340508,5,,,2815,085,EnvironmentalHealth@christchurchandeastdorset.gov.uk,East Dorset,http://www.dorsetforyou.gov.uk,,,2013-05-08,fhrs_4_en-GB,4,,FHRS,0
291025,,363 Ringwood Road,Ferndown,Dorset,HINTON WOOD CHILDREN'S HOME,Hospitals/Childcare/Caring Premises,5,10,,680797,5,,50.79445600000000,85905,085,EnvironmentalHealth@christchurchandeastdorset.gov.uk,East Dorset,http://www.dorsetforyou.gov.uk,-1.90086900000000,BH22 9AE,2014-06-26,fhrs_4_en-GB,4,,FHRS,5
291026,,39 Chine Walk,West Parley,Dorset,HOLMWOOD REST HOME,Hospitals/Childcare/Caring Premises,5,0,,340497,0,,50.78376800000000,2468,085,EnvironmentalHealth@christchurchandeastdorset.gov.uk,East Dorset,http://www.dorsetforyou.gov.uk,-1.88602600000000,BH22 8PR,2014-08-01,fhrs_5_en-GB,5,,FHRS,0
291027,,Holtwood,Wimborne,Dorset,HOLTWOOD METHODIST CHURCH,Other catering premises,7841,,,340526,,,50.85376739501953,3293,085,EnvironmentalHealth@christchurchandeastdorset.gov.uk,East Dorset,http://www.dorsetforyou.gov.uk,-1.95660233497620,BH21 7DT,2013-09-13,fhrs_exempt_en-GB,Exempt,,FHRS,
291028,,Cranborne Road,Stanbridge,Wimborne,HONEYBROOK FARM - Food Van,Mobile caterer,7846,5,,458843,5,,50.83409200000000,52120,085,EnvironmentalHealth@christchurchandeastdorset.gov.uk,East Dorset,http://www.dorsetforyou.gov.uk,-1.99523100000000,BH21 4JD,2012-10-22,fhrs_4_en-GB,4,,FHRS,10
291029,Higher Honeybrook Farm,Cranborne Road,Colehill,Dorset,HONEYBROOK RESTAURANT,Restaurant/Cafe/Canteen,1,,,340426,,,50.81646600000000,21090,085,EnvironmentalHealth@christchurchandeastdorset.gov.uk,East Dorset,http://www.dorsetforyou.gov.uk,-1.99039200000000,BH21 4HW,2013-09-11,fhrs_4_en-GB,4,,FHRS,
291030,,182 Christchurch Road,West Parley,Dorset,HORNS INN,Pub/bar/nightclub,7843,0,,732414,0,,50.78166700000000,85909,085,EnvironmentalHealth@christchurchandeastdorset.gov.uk,East Dorset,http://www.dorsetforyou.gov.uk,-1.88939200000000,BH22 8SS,2015-01-09,fhrs_5_en-GB,5,,FHRS,5
291031,,Burts Hill,Colehill,Wimborne,HORNS INN,Pub/bar/nightclub,7843,,,680799,,,50.81054700000000,87027,085,EnvironmentalHealth@christchurchandeastdorset.gov.uk,East Dorset,http://www.dorsetforyou.gov.uk,-1.97512100000000,BH21 7AA,2014-12-01,fhrs_4_en-GB,4,,FHRS,
291032,Horton Inn,Cranborne Road,Horton,Dorset,HORTON INN,Pub/bar/nightclub,7843,10,,643916,10,,50.87710100000000,85944,085,EnvironmentalHealth@christchurchandeastdorset.gov.uk,East Dorset,http://www.dorsetforyou.gov.uk,-1.97714700000000,BH21 5AD,2014-03-07,fhrs_3_en-GB,3,,FHRS,10
291033,,,,,HOT CHOCZ,Other catering premises,7841,5,,700116,5,,,87098,085,EnvironmentalHealth@christchurchandeastdorset.gov.uk,East Dorset,http://www.dorsetforyou.gov.uk,,,2014-09-09,fhrs_5_en-GB,5,,FHRS,5
291034,,613B Ringwood Road,West Moors,Dorset,HUNTERS BILTONG BOURNEMOUTH LTD,Retailers - other,4613,5,,340726,5,,50.81457800000000,52041,085,EnvironmentalHealth@christchurchandeastdorset.gov.uk,East Dorset,http://www.dorsetforyou.gov.uk,-1.87033700000000,BH22 0AD,2014-07-25,fhrs_5_en-GB,5,,FHRS,5
291035,,51 Victoria Road,Ferndown,Dorset,ICELAND,Retailers - supermarkets/hypermarkets,7840,5,,340600,5,,50.80329600000000,4675,085,EnvironmentalHealth@christchurchandeastdorset.gov.uk,East Dorset,http://www.dorsetforyou.gov.uk,-1.89111500000000,BH22 9HU,2010-03-18,fhrs_5_en-GB,5,,FHRS,5
291036,,6A Leigh Road,Wimborne Minster,Dorset,INDIAN NIGHTS,Takeaway/sandwich shop,7844,5,,340923,5,,50.79786000000000,8575,085,EnvironmentalHealth@christchurchandeastdorset.gov.uk,East Dorset,http://www.dorsetforyou.gov.uk,-1.98301700000000,BH21 1AF,2014-10-12,fhrs_4_en-GB,4,,FHRS,10
291037,,156 Pinehurst Road,West Moors,Dorset,Jade Peking,Takeaway/sandwich shop,7844,5,,340705,5,,50.81531600000000,51968,085,EnvironmentalHealth@christchurchandeastdorset.gov.uk,East Dorset,http://www.dorsetforyou.gov.uk,-1.87022200000000,BH22 0AT,2014-05-01,fhrs_4_en-GB,4,,FHRS,10
291038,,,,,JAKE'S,Mobile caterer,7846,0,,451719,0,,,52130,085,EnvironmentalHealth@christchurchandeastdorset.gov.uk,East Dorset,http://www.dorsetforyou.gov.uk,,,2013-07-12,fhrs_5_en-GB,5,,FHRS,0
291039,,120 Wimborne Road West,Canford Bottom,Dorset,JEWSON LTD (FOOD),Retailers - other,4613,5,,705586,5,,50.80011400000000,87038,085,EnvironmentalHealth@christchurchandeastdorset.gov.uk,East Dorset,http://www.dorsetforyou.gov.uk,-1.94405100000000,BH21 2DT,2014-09-23,fhrs_5_en-GB,5,,FHRS,5
291040,,,,,JJ Catering,Mobile caterer,7846,5,,340287,10,,,12484,085,EnvironmentalHealth@christchurchandeastdorset.gov.uk,East Dorset,http://www.dorsetforyou.gov.uk,,,2013-12-12,fhrs_4_en-GB,4,,FHRS,5
291041,,,,,JO'S LITTLE CAKERY,Other catering premises,7841,5,,718448,5,,,87139,085,EnvironmentalHealth@christchurchandeastdorset.gov.uk,East Dorset,http://www.dorsetforyou.gov.uk,,,2014-11-20,fhrs_4_en-GB,4,,FHRS,10
291042,,366 Ringwood Road,Ferndown,Dorset,JOY FERNDOWN,Restaurant/Cafe/Canteen,1,5,,340926,5,,50.80002300000000,8790,085,EnvironmentalHealth@christchurchandeastdorset.gov.uk,East Dorset,http://www.dorsetforyou.gov.uk,-1.89162000000000,BH22 9AT,2013-10-22,fhrs_5_en-GB,5,,FHRS,5
291043,,,,,Joyful Cakes,Other catering premises,7841,5,,718444,5,,,23721,085,EnvironmentalHealth@christchurchandeastdorset.gov.uk,East Dorset,http://www.dorsetforyou.gov.uk,,,2014-11-27,fhrs_5_en-GB,5,,FHRS,0
291044,,135 Springdale Road,Broadstone,"Poole, Dorset",JULIAS HOUSE,Hospitals/Childcare/Caring Premises,5,5,,340934,5,,50.76116200000000,9672,085,EnvironmentalHealth@christchurchandeastdorset.gov.uk,East Dorset,http://www.dorsetforyou.gov.uk,-2.01203900000000,BH18 9BP,2013-01-24,fhrs_5_en-GB,5,,FHRS,5
291045,,DFG,Station HQ,"West Moors, Wimborne, Dorset",Junior ranks mess( formerly Colours),Restaurant/Cafe/Canteen,1,0,,340645,0,,50.83744100000000,51361,085,EnvironmentalHealth@christchurchandeastdorset.gov.uk,East Dorset,http://www.dorsetforyou.gov.uk,-1.88274300000000,BH21 6QS,2014-04-09,fhrs_5_en-GB,5,,FHRS,0
291046,,3 Turbary Road,Ferndown,Dorset,KARSBERG'S FISH & CHIPS LTD,Takeaway/sandwich shop,7844,5,,340752,5,,50.80890400000000,52113,085,EnvironmentalHealth@christchurchandeastdorset.gov.uk,East Dorset,http://www.dorsetforyou.gov.uk,-1.87817300000000,BH22 8AW,2013-10-02,fhrs_5_en-GB,5,,FHRS,5
291047,,,,,KATE MEDHURST,Other catering premises,7841,0,,572010,10,,,20149,085,EnvironmentalHealth@christchurchandeastdorset.gov.uk,East Dorset,http://www.dorsetforyou.gov.uk,,,2013-07-19,fhrs_4_en-GB,4,,FHRS,10
291048,,2a Ringwood Road,Verwood,Dorset,KEBAB & PIZZA HOT,Takeaway/sandwich shop,7844,10,,727685,5,,50.88110300000000,87136,085,EnvironmentalHealth@christchurchandeastdorset.gov.uk,East Dorset,http://www.dorsetforyou.gov.uk,-1.87696200000000,BH31 7AQ,2014-12-11,fhrs_4_en-GB,4,,FHRS,0
291049,,38 Victoria Road,Ferndown,Dorset,Ken Allen Family Butchers,Retailers - other,4613,5,,340599,5,,50.80207200000000,4666,085,EnvironmentalHealth@christchurchandeastdorset.gov.uk,East Dorset,http://www.dorsetforyou.gov.uk,-1.89023800000000,BH22 9HZ,2014-02-22,fhrs_5_en-GB,5,,FHRS,5
291050,,90A Wareham Road,Corfe Mullen,Dorset,Kenways Bed and Breakfast,Hotel/bed & breakfast/guest house,7842,5,,340898,5,,50.77068400000000,789,085,EnvironmentalHealth@christchurchandeastdorset.gov.uk,East Dorset,http://www.dorsetforyou.gov.uk,-2.01818200000000,BH21 3LQ,2013-09-13,fhrs_5_en-GB,5,,FHRS,5
291051,,537 Ringwood Road,Ferndown,Dorset,KFC RESTAURANT,Takeaway/sandwich shop,7844,5,,467958,0,,50.80436100000000,52150,085,EnvironmentalHealth@christchurchandeastdorset.gov.uk,East Dorset,http://www.dorsetforyou.gov.uk,-1.88623100000000,BH22 9AH,2014-11-27,fhrs_5_en-GB,5,,FHRS,5
291052,THE OLD SCHOOL,Daggons Road,Alderholt,"Fordingbridge, Hants",KINGSWOOD DAY NURSERY,Hospitals/Childcare/Caring Premises,5,0,,340367,5,,50.91260000000000,18126,085,EnvironmentalHealth@christchurchandeastdorset.gov.uk,East Dorset,http://www.dorsetforyou.gov.uk,-1.85109100000000,SP6 3DN,2015-01-12,fhrs_5_en-GB,5,,FHRS,5
291053,,,,,KIRSTEN'S CAKES,Retailers - other,4613,5,,508773,5,,,51564,085,EnvironmentalHealth@christchurchandeastdorset.gov.uk,East Dorset,http://www.dorsetforyou.gov.uk,,,2013-01-28,fhrs_5_en-GB,5,,FHRS,0
291054,,,,,L F CAKE CO.,Other catering premises,7841,5,,607209,5,,,48357,085,EnvironmentalHealth@christchurchandeastdorset.gov.uk,East Dorset,http://www.dorsetforyou.gov.uk,,,2013-09-26,fhrs_5_en-GB,5,,FHRS,5
291055,London House,8-9 The Square,Cranborne,Dorset,La Fosse,Restaurant/Cafe/Canteen,1,,,340491,,,50.91951200000000,23853,085,EnvironmentalHealth@christchurchandeastdorset.gov.uk,East Dorset,http://www.dorsetforyou.gov.uk,-1.92245600000000,BH21 5PR,2014-10-22,fhrs_5_en-GB,5,,FHRS,
291056,,83 High Street,Wimborne,Dorset,LA VIE EN ROSE,Restaurant/Cafe/Canteen,1,5,,622320,5,,50.79901100000000,85877,085,EnvironmentalHealth@christchurchandeastdorset.gov.uk,East Dorset,http://www.dorsetforyou.gov.uk,-1.98697600000000,BH21 1HS,2013-11-13,fhrs_5_en-GB,5,,FHRS,5
291057,,Lambs Green Lane,Corfe Mullen,"Wimborne, Dorset",LAMBS GREEN INN,Pub/bar/nightclub,7843,0,,340362,0,,50.78730400000000,17806,085,EnvironmentalHealth@christchurchandeastdorset.gov.uk,East Dorset,http://www.dorsetforyou.gov.uk,-2.00604500000000,BH21 3DN,2013-10-31,fhrs_5_en-GB,5,,FHRS,5
291058,The Lantern Community,Folly Farm Lane,Ashley Heath,Dorset,Lantern Cafe,Restaurant/Cafe/Canteen,1,,,340328,,,50.84264200000000,15381,085,EnvironmentalHealth@christchurchandeastdorset.gov.uk,East Dorset,http://www.dorsetforyou.gov.uk,-1.80948600000000,BH24 2NN,2014-08-01,fhrs_5_en-GB,5,,FHRS,
291059,,,,,Lauren's Homemade Cakes,Other catering premises,7841,,,458842,,,,36249,085,EnvironmentalHealth@christchurchandeastdorset.gov.uk,East Dorset,http://www.dorsetforyou.gov.uk,,,2012-10-02,fhrs_exempt_en-GB,Exempt,,FHRS,
291060,,5 Gordon Road,Wimborne Minster,Dorset,Leigh Park Stores,Retailers - other,4613,10,,340390,10,,50.79677000000000,19282,085,EnvironmentalHealth@christchurchandeastdorset.gov.uk,East Dorset,http://www.dorsetforyou.gov.uk,-1.97178000000000,BH21 2AP,2014-02-21,fhrs_3_en-GB,3,,FHRS,10
291061,Lewis House,Higher Merley Lane,Corfe Mullen,Dorset,Lewis House,Hospitals/Childcare/Caring Premises,5,5,,340595,5,,50.78146700000000,448,085,EnvironmentalHealth@christchurchandeastdorset.gov.uk,East Dorset,http://www.dorsetforyou.gov.uk,-2.01193100000000,BH21 3EG,2014-02-12,fhrs_5_en-GB,5,,FHRS,5
291062,,Ringwood Road,Ferndown,Dorset,LIDL,Retailers - supermarkets/hypermarkets,7840,5,,340353,5,,50.81288000000000,16972,085,EnvironmentalHealth@christchurchandeastdorset.gov.uk,East Dorset,http://www.dorsetforyou.gov.uk,-1.87132100000000,BH22 0AE,2013-11-11,fhrs_5_en-GB,5,,FHRS,5
291063,,,,,Lilly Pops,Mobile caterer,7846,5,,340550,5,,,38,085,EnvironmentalHealth@christchurchandeastdorset.gov.uk,East Dorset,http://www.dorsetforyou.gov.uk,,,2012-04-30,fhrs_5_en-GB,5,,FHRS,5
291064,,,,,LIME COAST CATERING,Mobile caterer,7846,5,,711618,5,,,87097,085,EnvironmentalHealth@christchurchandeastdorset.gov.uk,East Dorset,http://www.dorsetforyou.gov.uk,,,2014-10-06,fhrs_5_en-GB,5,,FHRS,5
291065,,172 Ringwood Road,St Leonards,Dorset,Little Chef,Restaurant/Cafe/Canteen,1,10,,340417,5,,50.82936800000000,20854,085,EnvironmentalHealth@christchurchandeastdorset.gov.uk,East Dorset,http://www.dorsetforyou.gov.uk,-1.83871800000000,BH24 2NR,2014-01-21,fhrs_3_en-GB,3,,FHRS,10
291066,,218 Hurn Road,St.Leonards/St.Ives,Dorset,Little Paddock,Hotel/bed & breakfast/guest house,7842,0,,340776,5,,50.81364900000000,6309,085,EnvironmentalHealth@christchurchandeastdorset.gov.uk,East Dorset,http://www.dorsetforyou.gov.uk,-1.81484100000000,BH24 2BT,2013-09-06,fhrs_5_en-GB,5,,FHRS,5
291067,,,,,Liz Lamont Catering,Other catering premises,7841,5,,340477,0,,,23665,085,EnvironmentalHealth@christchurchandeastdorset.gov.uk,East Dorset,http://www.dorsetforyou.gov.uk,,,2014-08-05,fhrs_5_en-GB,5,,FHRS,5
291068,,137 Station Road,West Moors,Dorset,LOCAL EPICENTRE,Restaurant/Cafe/Canteen,1,5,,427180,5,,50.82479500000000,52133,085,EnvironmentalHealth@christchurchandeastdorset.gov.uk,East Dorset,http://www.dorsetforyou.gov.uk,-1.88917700000000,BH22 0HT,2014-03-18,fhrs_5_en-GB,5,,FHRS,5
291069,,,,,LOLLIPOP CUPCAKES,Other catering premises,7841,5,,680796,10,,,47715,085,EnvironmentalHealth@christchurchandeastdorset.gov.uk,East Dorset,http://www.dorsetforyou.gov.uk,,,2014-06-20,fhrs_4_en-GB,4,,FHRS,0
291070,,444 Ringwood Road,Three Legged Cross,Dorset,Londis Village Express Stores,Retailers - other,4613,10,,340454,10,,50.84933200000000,22663,085,EnvironmentalHealth@christchurchandeastdorset.gov.uk,East Dorset,http://www.dorsetforyou.gov.uk,-1.88554000000000,BH21 6RB,2014-01-21,fhrs_2_en-GB,2,,FHRS,15
291071,,Long Crichel,Wimborne,Dorset,Long Crichel Bakery,Manufacturers/packers,7839,10,,340267,5,,50.89359664916992,10906,085,EnvironmentalHealth@christchurchandeastdorset.gov.uk,East Dorset,http://www.dorsetforyou.gov.uk,-2.03823542594910,BH21 5JU,2014-04-30,fhrs_4_en-GB,4,,FHRS,5
291072,,Roadside Cafe,Dorchester Road,Corfe Mullen,LONG JOHN'S FISH & CHIPS,Restaurant/Cafe/Canteen,1,5,,536316,5,,50.78964100000000,52164,085,EnvironmentalHealth@christchurchandeastdorset.gov.uk,East Dorset,http://www.dorsetforyou.gov.uk,-2.01164900000000,BH21 3HA,2013-04-07,fhrs_5_en-GB,5,,FHRS,5
291073,,73A Leigh Road,Wimborne Minster,Dorset,LONG JOHNS FISH N CHIPS,Takeaway/sandwich shop,7844,5,,340800,0,,50.79803900000000,6820,085,EnvironmentalHealth@christchurchandeastdorset.gov.uk,East Dorset,http://www.dorsetforyou.gov.uk,-1.97690200000000,BH21 2AA,2013-10-09,fhrs_5_en-GB,5,,FHRS,5
291074,,434 Ringwood Road,Ferndown,Dorset,MARCHFIELD HOUSE,Hospitals/Childcare/Caring Premises,5,0,,340437,0,,50.80411800000000,22172,085,EnvironmentalHealth@christchurchandeastdorset.gov.uk,East Dorset,http://www.dorsetforyou.gov.uk,-1.88526700000000,BH22 9AY,2013-12-03,fhrs_5_en-GB,5,,FHRS,5
291075,,1 Turbary Road,Ferndown,Dorset,Martin McColl,Retailers - other,4613,5,,340266,10,,50.80890400000000,10513,085,EnvironmentalHealth@christchurchandeastdorset.gov.uk,East Dorset,http://www.dorsetforyou.gov.uk,-1.87817300000000,BH22 8AW,2013-07-01,fhrs_3_en-GB,3,,FHRS,10
291076,,142 Pinehurst Road,West Moors,Dorset,MARTIN'S NEWSAGENT,Retailers - other,4613,5,,340458,5,,50.81531600000000,22914,085,EnvironmentalHealth@christchurchandeastdorset.gov.uk,East Dorset,http://www.dorsetforyou.gov.uk,-1.87022200000000,BH22 0AT,2012-03-23,fhrs_5_en-GB,5,,FHRS,5
291077,Matchams Leisure Park,Hurn Road,St.Leonards/St.Ives,Dorset,MATCHAMS KARTING LTD - Snack Bar,Mobile caterer,7846,5,,340433,5,,50.81364900000000,21600,085,EnvironmentalHealth@christchurchandeastdorset.gov.uk,East Dorset,http://www.dorsetforyou.gov.uk,-1.81484100000000,BH24 2BT,2012-05-15,fhrs_5_en-GB,5,,FHRS,5
291078,,595 Ringwood Road,Ferndown,Dorset,MCDONALDS,Takeaway/sandwich shop,7844,5,,340327,5,,50.80598700000000,15279,085,EnvironmentalHealth@christchurchandeastdorset.gov.uk,East Dorset,http://www.dorsetforyou.gov.uk,-1.88394200000000,BH22 9AJ,2014-05-16,fhrs_5_en-GB,5,,FHRS,5
291079,Meadow Cottage,Horton Road,Woodlands,Dorset,MEADOW COTTAGE HOLIDAY HOMES,Hotel/bed & breakfast/guest house,7842,5,,340279,5,,50.87152300000000,11679,085,EnvironmentalHealth@christchurchandeastdorset.gov.uk,East Dorset,http://www.dorsetforyou.gov.uk,-1.94389500000000,BH21 8NB,2011-04-27,fhrs_5_en-GB,5,,FHRS,5
291080,,Meadow Court,Newtown Lane,"Verwood, Dorset",MEADOW COURT SOCIAL CLUB,Restaurant/Cafe/Canteen,1,5,,508774,5,,50.87098800000000,52056,085,EnvironmentalHealth@christchurchandeastdorset.gov.uk,East Dorset,http://www.dorsetforyou.gov.uk,-1.87008200000000,BH31 6LY,2014-03-11,fhrs_5_en-GB,5,,FHRS,5
291081,,The Royal British Legion,Church Road,"Ferndown, Dorset.",Mikes at the Royal British Legion,Other catering premises,7841,,,340639,,,50.80484900000000,51352,085,EnvironmentalHealth@christchurchandeastdorset.gov.uk,East Dorset,http://www.dorsetforyou.gov.uk,-1.89833500000000,BH22 9ET,2014-05-02,fhrs_3_en-GB,3,,FHRS,
291082,,,,,Mikeys Ices,Mobile caterer,7846,5,,340735,5,,,52068,085,EnvironmentalHealth@christchurchandeastdorset.gov.uk,East Dorset,http://www.dorsetforyou.gov.uk,,,2014-09-09,fhrs_5_en-GB,5,,FHRS,5
291083,Mile Oak Rest Home,2 The Acorns,Canford Bottom,Dorset,Mile Oak Rest Home,Hospitals/Childcare/Caring Premises,5,0,,340619,5,,50.79769000000000,4885,085,EnvironmentalHealth@christchurchandeastdorset.gov.uk,East Dorset,http://www.dorsetforyou.gov.uk,-1.95251100000000,BH21 2EU,2013-12-11,fhrs_5_en-GB,5,,FHRS,5
291084,,Walford Mill,Wimborne,Dorset,MILLSTREAM BISTRO,Restaurant/Cafe/Canteen,1,10,,633257,5,,50.80529700000000,85925,085,EnvironmentalHealth@christchurchandeastdorset.gov.uk,East Dorset,http://www.dorsetforyou.gov.uk,-1.98921600000000,BH21 1NL,2014-02-06,fhrs_3_en-GB,3,,FHRS,10
291085,,46 High Street,Wimborne Minster,Dorset,Minster Sandwich Shop,Restaurant/Cafe/Canteen,1,5,,732416,5,,50.79886800000000,87146,085,EnvironmentalHealth@christchurchandeastdorset.gov.uk,East Dorset,http://www.dorsetforyou.gov.uk,-1.98726000000000,BH21 1HT,2015-01-23,fhrs_5_en-GB,5,,FHRS,5
291086,,27c Bailey Gate Industiral Estate,Sturminster Marshall,DORSET,Minty's,Restaurant/Cafe/Canteen,1,5,,340629,5,,50.79502400000000,51285,085,EnvironmentalHealth@christchurchandeastdorset.gov.uk,East Dorset,http://www.dorsetforyou.gov.uk,-2.07224900000000,BH21 4DB,2014-01-17,fhrs_5_en-GB,5,,FHRS,0
291087,,,,,Miss Pink Cupcakes,Other catering premises,7841,5,,536315,5,,,315,085,EnvironmentalHealth@christchurchandeastdorset.gov.uk,East Dorset,http://www.dorsetforyou.gov.uk,,,2013-03-28,fhrs_5_en-GB,5,,FHRS,5
291088,RUSHCOMBE FIRST SCHOOL,Hanham Road,Corfe Mullen,"Wimborne, Dorset",MONTESSORI NURSERY,Hospitals/Childcare/Caring Premises,5,,,340566,,,50.76755500000000,410,085,EnvironmentalHealth@christchurchandeastdorset.gov.uk,East Dorset,http://www.dorsetforyou.gov.uk,-2.01755600000000,BH21 3PX,2013-10-30,fhrs_exempt_en-GB,Exempt,,FHRS,
291089,Moors Valley Country Park,Moors Valley Park,Ashley Heath,Dorset,Moors Valley Golf Club,Restaurant/Cafe/Canteen,1,10,,340859,10,,50.85055923461914,7616,085,EnvironmentalHealth@christchurchandeastdorset.gov.uk,East Dorset,http://www.dorsetforyou.gov.uk,-1.85032212734222,BH24 2ET,2013-11-27,fhrs_3_en-GB,3,,FHRS,10
291090,Moors Valley Country Park,Moors Valley Park - Access Roa,Ashley Heath,Dorset,Moors Valley Ice Cream Kiosk,Takeaway/sandwich shop,7844,0,,340319,0,,50.85056000000000,14756,085,EnvironmentalHealth@christchurchandeastdorset.gov.uk,East Dorset,http://www.dorsetforyou.gov.uk,-1.85032200000000,BH24 2ET,2014-09-18,fhrs_5_en-GB,5,,FHRS,0
291091,Moors Valley Country Park,Moors Valley Park,Ashley Heath,Dorset,Moors Valley Railway,Takeaway/sandwich shop,7844,5,,340860,5,,50.85055923461914,7627,085,EnvironmentalHealth@christchurchandeastdorset.gov.uk,East Dorset,http://www.dorsetforyou.gov.uk,-1.85032212734222,BH24 2ET,2014-04-29,fhrs_5_en-GB,5,,FHRS,5
291092,,48 Church Road,Ferndown,Dorset,MORETONS,Hospitals/Childcare/Caring Premises,5,0,,340502,5,,50.80171700000000,2525,085,EnvironmentalHealth@christchurchandeastdorset.gov.uk,East Dorset,http://www.dorsetforyou.gov.uk,-1.89543300000000,BH22 9EU,2014-06-11,fhrs_5_en-GB,5,,FHRS,5
291093,,,,,MR R GREENSLADE - FISH VAN,Retailers - other,4613,10,,340604,10,,,4704,085,EnvironmentalHealth@christchurchandeastdorset.gov.uk,East Dorset,http://www.dorsetforyou.gov.uk,,,2014-07-17,fhrs_3_en-GB,3,,FHRS,5
291094,,,,,Mr Russell,Other catering premises,7841,5,,340522,0,,,31815,085,EnvironmentalHealth@christchurchandeastdorset.gov.uk,East Dorset,http://www.dorsetforyou.gov.uk,,,2013-07-12,fhrs_5_en-GB,5,,FHRS,5
291095,,Layby A350,Sturminster Marshall,,Mr.Greedies,Mobile caterer,7846,10,,451721,5,,,52144,085,EnvironmentalHealth@christchurchandeastdorset.gov.uk,East Dorset,http://www.dorsetforyou.gov.uk,,BH21 4A*,2014-04-14,fhrs_4_en-GB,4,,FHRS,5
291096,,,,,Mrs Woolven - Cake maker,Other catering premises,7841,5,,340494,5,,,23969,085,EnvironmentalHealth@christchurchandeastdorset.gov.uk,East Dorset,http://www.dorsetforyou.gov.uk,,,2012-05-28,fhrs_5_en-GB,5,,FHRS,5
291097,Osborne Day Centre,Church Lane,West Parley,Dorset,Multiple Sclerosis Society Bournemouth & Dorset,Other catering premises,7841,5,,340877,5,,50.77894700000000,7713,085,EnvironmentalHealth@christchurchandeastdorset.gov.uk,East Dorset,http://www.dorsetforyou.gov.uk,-1.87636400000000,BH22 8TS,2014-02-13,fhrs_5_en-GB,5,,FHRS,5
291098,ST. MICHAELS SCHOOL,Colehill Lane,Colehill,"Wimborne, Dorset",MUNCHBOX,School/college/university,7845,0,,340341,5,,50.92203900000000,15987,085,EnvironmentalHealth@christchurchandeastdorset.gov.uk,East Dorset,http://www.dorsetforyou.gov.uk,-1.92137000000000,BH21 5RP,2014-01-15,fhrs_5_en-GB,5,,FHRS,0
291099,,Parish Centre,St Michael's Church,Manor Road,Networks Big Brunch at St Michael's Church,Other catering premises,7841,5,,628130,5,,50.87817400000000,85912,085,EnvironmentalHealth@christchurchandeastdorset.gov.uk,East Dorset,http://www.dorsetforyou.gov.uk,-1.87982700000000,BH31 6DZ,2014-01-13,fhrs_5_en-GB,5,,FHRS,5
291100,,7A Turbary Road,Tricketts Cross,Ferndown,NEW PANDA,Restaurant/Cafe/Canteen,1,5,,356630,10,,50.80890400000000,52115,085,EnvironmentalHealth@christchurchandeastdorset.gov.uk,East Dorset,http://www.dorsetforyou.gov.uk,-1.87817300000000,BH22 8AW,2014-10-02,fhrs_4_en-GB,4,,FHRS,5
291101,,,,,NICOLA CHRISTOPHER,Other catering premises,7841,,,499776,,,,18608,085,EnvironmentalHealth@christchurchandeastdorset.gov.uk,East Dorset,http://www.dorsetforyou.gov.uk,,,2013-01-24,fhrs_exempt_en-GB,Exempt,,FHRS,
291102,,66 High Street,Sturminster Marshall,Dorset,Nisa local,Retailers - other,4613,5,,705588,5,,50.79618300000000,87112,085,EnvironmentalHealth@christchurchandeastdorset.gov.uk,East Dorset,http://www.dorsetforyou.gov.uk,-2.07357000000000,BH21 4AY,2014-10-01,fhrs_5_en-GB,5,,FHRS,0
291103,Oakdene Forest Park,Oakdene Holiday Park,St.Leonards/St.Ives,Dorset,Nisa Local,Retailers - other,4613,5,,340385,5,,50.81157000000000,18964,085,EnvironmentalHealth@christchurchandeastdorset.gov.uk,East Dorset,http://www.dorsetforyou.gov.uk,-1.85838100000000,BH24 2RZ,2008-08-07,fhrs_5_en-GB,5,,FHRS,5
291104,,9 West Borough,Wimborne Minster,Dorset,NUMBER 9,Restaurant/Cafe/Canteen,1,10,,340725,0,,50.80146700000000,52036,085,EnvironmentalHealth@christchurchandeastdorset.gov.uk,East Dorset,http://www.dorsetforyou.gov.uk,-1.98894800000000,BH21 1LT,2013-02-15,fhrs_4_en-GB,4,,FHRS,5
291105,,Ringwood Road,Three Legged Cross,"Wimborne, Dorset",OAKDENE NURSING HOME,Hospitals/Childcare/Caring Premises,5,0,,340317,0,,50.84933200000000,14710,085,EnvironmentalHealth@christchurchandeastdorset.gov.uk,East Dorset,http://www.dorsetforyou.gov.uk,-1.88554000000000,BH21 6RB,2013-11-13,fhrs_5_en-GB,5,,FHRS,0
291106,Wilksworth Farm,Cranborne Road,Colehill,Dorset,Olde Cart Shed Coffee Shop,Restaurant/Cafe/Canteen,1,0,,340918,5,,50.81646600000000,8134,085,EnvironmentalHealth@christchurchandeastdorset.gov.uk,East Dorset,http://www.dorsetforyou.gov.uk,-1.99039200000000,BH21 4HW,2014-09-30,fhrs_5_en-GB,5,,FHRS,5
291107,The Olive Branch,6 East Borough,Wimborne Minster,Dorset,OLIVE BRANCH,Restaurant/Cafe/Canteen,1,0,,340782,5,,50.80048600000000,6545,085,EnvironmentalHealth@christchurchandeastdorset.gov.uk,East Dorset,http://www.dorsetforyou.gov.uk,-1.98707500000000,BH21 1PF,2014-07-28,fhrs_5_en-GB,5,,FHRS,0
291108,,,,,OLLIES FISH STALL,Mobile caterer,7846,10,,636982,10,,,85917,085,EnvironmentalHealth@christchurchandeastdorset.gov.uk,East Dorset,http://www.dorsetforyou.gov.uk,,,2014-03-08,fhrs_3_en-GB,3,,FHRS,10
291109,,,,,ON MATCHA,Mobile caterer,7846,5,,467952,5,,,15968,085,EnvironmentalHealth@christchurchandeastdorset.gov.uk,East Dorset,http://www.dorsetforyou.gov.uk,,,2012-11-15,fhrs_5_en-GB,5,,FHRS,0
291110,,7 Cook Row,Wimborne,Dorset,ON THE GREEN,Restaurant/Cafe/Canteen,1,5,,585175,5,,50.79951500000000,52198,085,EnvironmentalHealth@christchurchandeastdorset.gov.uk,East Dorset,http://www.dorsetforyou.gov.uk,-1.98812500000000,BH21 1LB,2013-09-16,fhrs_5_en-GB,5,,FHRS,5
291111,The Forge,Horton Road,Ashley Heath,Dorset,ONE STOP,Retailers - other,4613,5,,340263,5,,50.84126900000000,10350,085,EnvironmentalHealth@christchurchandeastdorset.gov.uk,East Dorset,http://www.dorsetforyou.gov.uk,-1.84200100000000,BH24 2EJ,2013-05-08,fhrs_5_en-GB,5,,FHRS,5
291112,,Coopers Lane,Verwood,Dorset,ORCHARD DAY NURSERY,Hospitals/Childcare/Caring Premises,5,5,,340463,5,,50.88551800000000,23028,085,EnvironmentalHealth@christchurchandeastdorset.gov.uk,East Dorset,http://www.dorsetforyou.gov.uk,-1.87722000000000,BH31 7PG,2013-08-27,fhrs_5_en-GB,5,,FHRS,0
291113,,,,,ORDER 66,Mobile caterer,7846,10,,607213,5,,,85863,085,EnvironmentalHealth@christchurchandeastdorset.gov.uk,East Dorset,http://www.dorsetforyou.gov.uk,,,2013-10-14,fhrs_4_en-GB,4,,FHRS,5
291114,,161 Station Road,West Moors,Dorset,ORIENTAL EXPRESS,Takeaway/sandwich shop,7844,5,,340294,5,,50.82479500000000,13581,085,EnvironmentalHealth@christchurchandeastdorset.gov.uk,East Dorset,http://www.dorsetforyou.gov.uk,-1.88917700000000,BH22 0HT,2014-11-07,fhrs_5_en-GB,5,,FHRS,5
291115,,39 East Street,Wimborne,Dorset.,P.K.Meats Ltd,Retailers - other,4613,,,340638,,,50.79835500000000,51347,085,EnvironmentalHealth@christchurchandeastdorset.gov.uk,East Dorset,http://www.dorsetforyou.gov.uk,-1.98629500000000,BH21 1DX,2014-09-25,fhrs_5_en-GB,5,,FHRS,
291116,PAMPHILL DAIRY COMPLEX,Pamphill,Wimborne,Dorset,PAMPHILL BUTCHERS,Retailers - other,4613,5,,340832,5,,50.80793200000000,7389,085,EnvironmentalHealth@christchurchandeastdorset.gov.uk,East Dorset,http://www.dorsetforyou.gov.uk,-2.01463400000000,BH21 4ED,2014-03-18,fhrs_5_en-GB,5,,FHRS,5
291117,PAMPHILL DAIRY COMPLEX,Pamphill,Wimborne,Dorset,PAMPHILL FARM SHOP,Retailers - other,4613,,,340913,,,50.80793200000000,8013,085,EnvironmentalHealth@christchurchandeastdorset.gov.uk,East Dorset,http://www.dorsetforyou.gov.uk,-2.01463400000000,BH21 4ED,2014-10-29,fhrs_5_en-GB,5,,FHRS,
291118,Pamphill Dairy,Abbott Street,Pamphill,Wimborne,Pamphill Parlour,Restaurant/Cafe/Canteen,1,,,340880,,,50.80793200000000,7727,085,EnvironmentalHealth@christchurchandeastdorset.gov.uk,East Dorset,http://www.dorsetforyou.gov.uk,-2.01463400000000,BH21 4ED,2014-10-31,fhrs_5_en-GB,5,,FHRS,
291119,,150 Pinehurst Road,West Moors,Dorset,Pandora's Bakery,Retailers - other,4613,10,,340554,5,,50.81531600000000,3926,085,EnvironmentalHealth@christchurchandeastdorset.gov.uk,East Dorset,http://www.dorsetforyou.gov.uk,-1.87022200000000,BH22 0AT,2014-10-06,fhrs_3_en-GB,3,,FHRS,10
291120,Wimborne Service Station,11 Wimborne Road West,Canford Bottom,Dorset,Park Garage Group,Retailers - other,4613,5,,550467,5,,50.79927100000000,52184,085,EnvironmentalHealth@christchurchandeastdorset.gov.uk,East Dorset,http://www.dorsetforyou.gov.uk,-1.94977000000000,BH21 2DG,2013-03-08,fhrs_5_en-GB,5,,FHRS,5
291121,,506 Wimborne Road East,Ferndown,Dorset,PEKING CHINESE TAKEAWAY,Takeaway/sandwich shop,7844,5,,340609,5,,50.80786000000000,4794,085,EnvironmentalHealth@christchurchandeastdorset.gov.uk,East Dorset,http://www.dorsetforyou.gov.uk,-1.89614300000000,BH22 9NG,2014-04-23,fhrs_5_en-GB,5,,FHRS,5
291122,,6 Penn Court,Station Road,West Moors,Penn Court Cafe Bistro,Restaurant/Cafe/Canteen,1,20,,340605,10,,50.82407500000000,47233,085,EnvironmentalHealth@christchurchandeastdorset.gov.uk,East Dorset,http://www.dorsetforyou.gov.uk,-1.88873900000000,BH22 0JJ,2014-06-03,fhrs_1_en-GB,1,,FHRS,15
291123,,Kings Court,Wimborne,Dorset,Piccolo Mondo Restaurant,Restaurant/Cafe/Canteen,1,5,,340820,5,,50.79901100000000,7139,085,EnvironmentalHealth@christchurchandeastdorset.gov.uk,East Dorset,http://www.dorsetforyou.gov.uk,-1.98697600000000,BH21 1HS,2013-10-14,fhrs_4_en-GB,4,,FHRS,10
291124,WIMBORNE MARKET,Grenville Road,Wimborne,Dorset,PIGGIES - INDOORS - 1,Restaurant/Cafe/Canteen,1,5,,340850,5,,50.79911100000000,7567,085,EnvironmentalHealth@christchurchandeastdorset.gov.uk,East Dorset,http://www.dorsetforyou.gov.uk,-1.99473700000000,BH21 1EH,2014-01-24,fhrs_5_en-GB,5,,FHRS,5
291125,WIMBORNE MARKET,Grenville Road,Wimborne,Dorset,PIGGIES - INDOORS - 2,Takeaway/sandwich shop,7844,,,340921,,,50.79911100000000,8160,085,EnvironmentalHealth@christchurchandeastdorset.gov.uk,East Dorset,http://www.dorsetforyou.gov.uk,-1.99473700000000,BH21 1EH,2014-07-18,fhrs_4_en-GB,4,,FHRS,
291126,,Pinehurst Road,West Moors,"Ferndown, Dorset",PINEHURST COMMUNITY CHURCH,Other catering premises,7841,5,,340552,5,,50.82064200000000,3912,085,EnvironmentalHealth@christchurchandeastdorset.gov.uk,East Dorset,http://www.dorsetforyou.gov.uk,-1.88135100000000,BH22 0AP,2014-04-16,fhrs_5_en-GB,5,,FHRS,0
291127,,7B Turbary Road,Ferndown,Dorset,Pizzarella,Takeaway/sandwich shop,7844,5,,340413,10,,50.80890400000000,20621,085,EnvironmentalHealth@christchurchandeastdorset.gov.uk,East Dorset,http://www.dorsetforyou.gov.uk,-1.87817300000000,BH22 8AW,2014-10-02,fhrs_4_en-GB,4,,FHRS,5
291128,,The Gables,Ringwood Road,Verwood,PLANE CUISINE LLP,Restaurant/Cafe/Canteen,1,0,,484753,0,,50.88110300000000,52153,085,EnvironmentalHealth@christchurchandeastdorset.gov.uk,East Dorset,http://www.dorsetforyou.gov.uk,-1.87696200000000,BH31 7AQ,2014-12-19,fhrs_5_en-GB,5,,FHRS,5
291129,,2b Farm Road,West Moors,"Ferndown, Dorset",Premier Express,Retailers - other,4613,10,,340708,10,,50.82448300000000,51973,085,EnvironmentalHealth@christchurchandeastdorset.gov.uk,East Dorset,http://www.dorsetforyou.gov.uk,-1.89163400000000,BH22 0JL,2013-09-13,fhrs_3_en-GB,3,,FHRS,5
291130,,5 West Borough,Wimborne Minster,Dorset,PREZZO RESTAURANT,Restaurant/Cafe/Canteen,1,5,,340397,0,,50.80146700000000,19686,085,EnvironmentalHealth@christchurchandeastdorset.gov.uk,East Dorset,http://www.dorsetforyou.gov.uk,-1.98894800000000,BH21 1LT,2014-02-17,fhrs_5_en-GB,5,,FHRS,5
291131,Cherrett Court,557 Ringwood Road,Ferndown,Dorset,Pride Catering Partnership Ltd,Other catering premises,7841,0,,340387,0,,50.80449600000000,19139,085,EnvironmentalHealth@christchurchandeastdorset.gov.uk,East Dorset,http://www.dorsetforyou.gov.uk,-1.88608900000000,BH22 9AH,2013-11-21,fhrs_5_en-GB,5,,FHRS,0
291132,,457 Wimborne Road East,Ferndown,Dorset,PURE DROP INN,Pub/bar/nightclub,7843,,,340607,,,50.80754200000000,4790,085,EnvironmentalHealth@christchurchandeastdorset.gov.uk,East Dorset,http://www.dorsetforyou.gov.uk,-1.90366600000000,BH22 9NA,2014-08-27,fhrs_5_en-GB,5,,FHRS,
291133,,2 Cook Row,Wimborne Minster,Dorset,Quarterjacks Sandwich Shop,Other catering premises,7841,,,711621,,,50.79951500000000,87118,085,EnvironmentalHealth@christchurchandeastdorset.gov.uk,East Dorset,http://www.dorsetforyou.gov.uk,-1.98812500000000,BH21 1LB,,fhrs_awaitinginspection_en-GB,AwaitingInspection,,FHRS,
291134,,34 Leigh Road,Wimborne Minster,Dorset,R A F ASSOCIATION CLUB,Pub/bar/nightclub,7843,,,340798,,,50.79786000000000,6808,085,EnvironmentalHealth@christchurchandeastdorset.gov.uk,East Dorset,http://www.dorsetforyou.gov.uk,-1.98301700000000,BH21 1AF,2012-08-09,fhrs_exempt_en-GB,Exempt,,FHRS,
291135,,Barrington Centre,Pennys Walk,"Ferndown, Dorset",Raffles,Restaurant/Cafe/Canteen,1,5,,340326,5,,50.80181200000000,15246,085,EnvironmentalHealth@christchurchandeastdorset.gov.uk,East Dorset,http://www.dorsetforyou.gov.uk,-1.89141700000000,BH22 9TH,2013-10-07,fhrs_5_en-GB,5,,FHRS,5
291136,,,,,RAINBOW ICES,Mobile caterer,7846,10,,572015,10,,,47321,085,EnvironmentalHealth@christchurchandeastdorset.gov.uk,East Dorset,http://www.dorsetforyou.gov.uk,,,2013-06-26,fhrs_3_en-GB,3,,FHRS,5
291137,Parley County First School,Glenmoor Road,Ferndown,Dorset,RAINBOW'S END MONTESSORI,Hospitals/Childcare/Caring Premises,5,,,340513,,,50.79308200000000,2997,085,EnvironmentalHealth@christchurchandeastdorset.gov.uk,East Dorset,http://www.dorsetforyou.gov.uk,-1.89258600000000,BH22 8QE,2011-07-04,fhrs_exempt_en-GB,Exempt,,FHRS,
291138,,9 Church Street,Wimborne Minster,Dorset,RED FORT,Restaurant/Cafe/Canteen,1,20,,340459,15,,50.79976700000000,22923,085,EnvironmentalHealth@christchurchandeastdorset.gov.uk,East Dorset,http://www.dorsetforyou.gov.uk,-1.98846500000000,BH21 1JH,2014-02-06,fhrs_0_en-GB,0,,FHRS,20
291139,Remedy Oak Golf Club,"Horton Road - Church Hill, Woo",Woodlands,Dorset,REMEDY OAK GOLF CLUB,Restaurant/Cafe/Canteen,1,5,,340430,5,,50.87248100000000,21481,085,EnvironmentalHealth@christchurchandeastdorset.gov.uk,East Dorset,http://www.dorsetforyou.gov.uk,-1.93580700000000,BH21 8ND,2013-10-10,fhrs_5_en-GB,5,,FHRS,5
291140,,9 Leigh Road,Wimborne,Dorset,RIMJHIM RESTAURANT,Restaurant/Cafe/Canteen,1,0,,484752,0,,50.79813000000000,52152,085,EnvironmentalHealth@christchurchandeastdorset.gov.uk,East Dorset,http://www.dorsetforyou.gov.uk,-1.98369800000000,BH21 1AB,2014-07-02,fhrs_5_en-GB,5,,FHRS,5
291141,,109 Ringwood Road,Verwood,Dorset,RINGWOOD ROAD STORES,Retailers - other,4613,10,,340349,10,,50.87940100000000,1667,085,EnvironmentalHealth@christchurchandeastdorset.gov.uk,East Dorset,http://www.dorsetforyou.gov.uk,-1.86666100000000,BH31 7AD,2014-04-08,fhrs_2_en-GB,2,,FHRS,15
291142,Ringwood Waldorf School,Folly Farm Lane,Ashley Heath,Dorset,RINGWOOD WALDORF SCHOOL,School/college/university,7845,5,,340272,5,,50.84264200000000,11260,085,EnvironmentalHealth@christchurchandeastdorset.gov.uk,East Dorset,http://www.dorsetforyou.gov.uk,-1.80948600000000,BH24 2NN,2014-11-17,fhrs_5_en-GB,5,,FHRS,5
291143,,,,,RIVENDELL CATERING,Other catering premises,7841,10,,340529,10,,,3320,085,EnvironmentalHealth@christchurchandeastdorset.gov.uk,East Dorset,http://www.dorsetforyou.gov.uk,,,2013-11-11,fhrs_3_en-GB,3,,FHRS,5
291144,,10A Mill Lane,Wimborne Minster,Dorset,RIVERSIDE CAFE,Restaurant/Cafe/Canteen,1,5,,340340,5,,50.80018900000000,15986,085,EnvironmentalHealth@christchurchandeastdorset.gov.uk,East Dorset,http://www.dorsetforyou.gov.uk,-1.98690400000000,BH21 1JQ,2014-11-17,fhrs_5_en-GB,5,,FHRS,5
291145,,150 Station Road,West Moors,Dorset,ROB SELBY BUTCHERS,Retailers - other,4613,5,,643917,5,,50.82419200000000,86977,085,EnvironmentalHealth@christchurchandeastdorset.gov.uk,East Dorset,http://www.dorsetforyou.gov.uk,-1.88808600000000,BH22 0JB,2014-10-28,fhrs_5_en-GB,5,,FHRS,5
291146,,102-104 Leigh Road,Wimborne,Dorset,RONTEC MINSTER,Retailers - other,4613,5,,536324,5,,50.80262700000000,52176,085,EnvironmentalHealth@christchurchandeastdorset.gov.uk,East Dorset,http://www.dorsetforyou.gov.uk,-1.93424200000000,BH21 2EA,2013-02-22,fhrs_5_en-GB,5,,FHRS,5
291147,,80 Blandford Road,Corfe Mullen,Dorset,ROYAL BRITISH LEGION,Pub/bar/nightclub,7843,10,,340468,10,,50.77739300000000,233,085,EnvironmentalHealth@christchurchandeastdorset.gov.uk,East Dorset,http://www.dorsetforyou.gov.uk,-2.01510700000000,BH21 3HQ,2014-02-19,fhrs_3_en-GB,3,,FHRS,10
291148,,Church Road,Ferndown,Dorset,Royal British Legion,Pub/bar/nightclub,7843,,,340901,,,50.80484900000000,7901,085,EnvironmentalHealth@christchurchandeastdorset.gov.uk,East Dorset,http://www.dorsetforyou.gov.uk,-1.89833500000000,BH22 9ET,2014-04-23,fhrs_exempt_en-GB,Exempt,,FHRS,
291149,,,,,RUTH GLADWELL,Retailers - other,4613,10,,499775,10,,,10106,085,EnvironmentalHealth@christchurchandeastdorset.gov.uk,East Dorset,http://www.dorsetforyou.gov.uk,,,2012-12-05,fhrs_3_en-GB,3,,FHRS,5
291150,,510 Wimborne Road East,Ferndown,Dorset,S A M NEWS,Retailers - other,4613,20,,340411,10,,50.80786000000000,20529,085,EnvironmentalHealth@christchurchandeastdorset.gov.uk,East Dorset,http://www.dorsetforyou.gov.uk,-1.89614300000000,BH22 9NG,2014-10-20,fhrs_1_en-GB,1,,FHRS,10
291151,,597 Ringwood Road,Ferndown,Dorset,Sainsbury's,Retailers - supermarkets/hypermarkets,7840,0,,340569,0,,50.81167900000000,4126,085,EnvironmentalHealth@christchurchandeastdorset.gov.uk,East Dorset,http://www.dorsetforyou.gov.uk,-1.87544100000000,BH22 9AL,2013-11-28,fhrs_4_en-GB,4,,FHRS,10
291152,,597 Ringwood Road,Ferndown,Dorset,Sainsbury's,Retailers - supermarkets/hypermarkets,7840,0,,340569,0,,50.81167900000000,4126,085,EnvironmentalHealth@christchurchandeastdorset.gov.uk,East Dorset,http://www.dorsetforyou.gov.uk,-1.87544100000000,BH22 9AL,2013-11-28,fhrs_4_en-GB,4,,FHRS,10
291153,,350 Ringwood Road,Ferndown,Dorset,Salt and Vinegar,Takeaway/sandwich shop,7844,5,,340704,5,,50.80002300000000,51966,085,EnvironmentalHealth@christchurchandeastdorset.gov.uk,East Dorset,http://www.dorsetforyou.gov.uk,-1.89162000000000,BH22 9AT,2014-05-15,fhrs_4_en-GB,4,,FHRS,10
291154,Salvation Army Hall,Cook Row,Wimborne,Dorset,SALVATION ARMY LUNCH CLUB,Other catering premises,7841,,,340779,,,50.79951500000000,6483,085,EnvironmentalHealth@christchurchandeastdorset.gov.uk,East Dorset,http://www.dorsetforyou.gov.uk,-1.98812500000000,BH21 1LB,2014-06-12,fhrs_4_en-GB,4,,FHRS,
291155,DENEWOOD HOUSE CARE HOME,12 - 14 Denewood Road,West Moors,"Ferndown, Dorset",SAMILY CARE LTD,Hospitals/Childcare/Caring Premises,5,5,,340507,5,,50.83171000000000,2637,085,EnvironmentalHealth@christchurchandeastdorset.gov.uk,East Dorset,http://www.dorsetforyou.gov.uk,-1.88886300000000,BH22 0LX,2014-09-26,fhrs_5_en-GB,5,,FHRS,5
291156,Highgrove Rest Home,Stapehill Road,Ferndown,Dorset,SAMILY CARE LTD,Hospitals/Childcare/Caring Premises,5,5,,340423,5,,50.80199700000000,20964,085,EnvironmentalHealth@christchurchandeastdorset.gov.uk,East Dorset,http://www.dorsetforyou.gov.uk,-1.91982600000000,BH21 7NF,2014-12-04,fhrs_5_en-GB,5,,FHRS,5
291157,,,,,SAM's CATERING,Mobile caterer,7846,10,,340405,10,,,20228,085,EnvironmentalHealth@christchurchandeastdorset.gov.uk,East Dorset,http://www.dorsetforyou.gov.uk,,,2013-09-09,fhrs_2_en-GB,2,,FHRS,15
291158,,3 Wheelwrights Close,Salisbury,Wiltshire,SAM'S EVENTS CATERING,Other catering premises,7841,5,,451720,10,,50.95479700000000,52132,085,EnvironmentalHealth@christchurchandeastdorset.gov.uk,East Dorset,http://www.dorsetforyou.gov.uk,-2.00834600000000,SP5 5SA,2013-07-05,fhrs_4_en-GB,4,,FHRS,5
291159,,138 Station Road,West Moors,Dorset,Seafoods Fish & Chips,Takeaway/sandwich shop,7844,5,,340592,5,,50.82419200000000,4461,085,EnvironmentalHealth@christchurchandeastdorset.gov.uk,East Dorset,http://www.dorsetforyou.gov.uk,-1.88808600000000,BH22 0JB,2014-01-22,fhrs_4_en-GB,4,,FHRS,10
291160,Moors Valley Country Park,Moors Valley Park,Ashley Heath,Dorset,SEASONS RESTAURANT,Restaurant/Cafe/Canteen,1,0,,340313,0,,50.85055923461914,14599,085,EnvironmentalHealth@christchurchandeastdorset.gov.uk,East Dorset,http://www.dorsetforyou.gov.uk,-1.85032212734222,BH24 2ET,2013-09-13,fhrs_5_en-GB,5,,FHRS,5
291161,,,,,SERENE CARE T/A ABBEY ROSE,Hospitals/Childcare/Caring Premises,5,0,,555088,0,,,52201,085,EnvironmentalHealth@christchurchandeastdorset.gov.uk,East Dorset,http://www.dorsetforyou.gov.uk,,,2014-10-13,fhrs_5_en-GB,5,,FHRS,0
291162,Shamba Holiday Park,230 Ringwood Road,St Leonards,Dorset,SHAMBA CLUB,Pub/bar/nightclub,7843,5,,340482,5,,50.82109800000000,23678,085,EnvironmentalHealth@christchurchandeastdorset.gov.uk,East Dorset,http://www.dorsetforyou.gov.uk,-1.85485900000000,BH24 2SB,2013-07-24,fhrs_5_en-GB,5,,FHRS,5
291163,Shamba Holiday Park,230 Ringwood Road,St Leonards,Ringwood,SHAMBA HOLIDAY PARK STORES,Retailers - other,4613,5,,340483,5,,50.82109800000000,23679,085,EnvironmentalHealth@christchurchandeastdorset.gov.uk,East Dorset,http://www.dorsetforyou.gov.uk,-1.85485900000000,BH24 2SB,2013-07-24,fhrs_5_en-GB,5,,FHRS,5
291164,,,,,SHARON'S ICES,Mobile caterer,7846,0,,340307,5,,,14183,085,EnvironmentalHealth@christchurchandeastdorset.gov.uk,East Dorset,http://www.dorsetforyou.gov.uk,,,2014-07-04,fhrs_5_en-GB,5,,FHRS,5
291165,,,,,SIMPLY VINTAGE,Other catering premises,7841,10,,572017,5,,,602,085,EnvironmentalHealth@christchurchandeastdorset.gov.uk,East Dorset,http://www.dorsetforyou.gov.uk,,,2013-06-19,fhrs_4_en-GB,4,,FHRS,5
291166,,,,,SIXPENNY HANDLEY FIRST SCHOOL,School/college/university,7845,10,,727683,5,,,7849,085,EnvironmentalHealth@christchurchandeastdorset.gov.uk,East Dorset,http://www.dorsetforyou.gov.uk,,,2014-12-09,fhrs_4_en-GB,4,,FHRS,5
291167,Sixpenny Handley Post Office,24 High Street,Sixpenny Handley,Salisbury,Sixpenny Handley Post Office Stores,Restaurant/Cafe/Canteen,1,5,,340489,5,,50.95428400000000,23811,085,EnvironmentalHealth@christchurchandeastdorset.gov.uk,East Dorset,http://www.dorsetforyou.gov.uk,-2.00556900000000,SP5 5ND,2013-12-11,fhrs_5_en-GB,5,,FHRS,5
291168,,577 Wimborne Road East,Ferndown,Dorset,SMUGGLERS COTTAGE,Hotel/bed & breakfast/guest house,7842,10,,340612,5,,50.81062300000000,4821,085,EnvironmentalHealth@christchurchandeastdorset.gov.uk,East Dorset,http://www.dorsetforyou.gov.uk,-1.87953100000000,BH22 9NW,2013-05-08,fhrs_4_en-GB,4,,FHRS,5
291169,,Ringwood Road,Ferndown,Dorset,SMUGGLERS HAUNT,Pub/bar/nightclub,7843,0,,340856,0,,50.81155100000000,7608,085,EnvironmentalHealth@christchurchandeastdorset.gov.uk,East Dorset,http://www.dorsetforyou.gov.uk,-1.87342600000000,BH22 9BB,2014-02-05,fhrs_5_en-GB,5,,FHRS,0
291170,Queen Elizabeth School,Blandford Road,Pamphill,Dorset,SODEXHO,School/college/university,7845,0,,340304,0,,50.80614300000000,14030,085,EnvironmentalHealth@christchurchandeastdorset.gov.uk,East Dorset,http://www.dorsetforyou.gov.uk,-2.00343600000000,BH21 4DT,2012-05-31,fhrs_5_en-GB,5,,FHRS,0
291171,,46 High Street,Wimborne Minster,Dorset,Sorrels,Restaurant/Cafe/Canteen,1,5,,340868,5,,50.79886800000000,7665,085,EnvironmentalHealth@christchurchandeastdorset.gov.uk,East Dorset,http://www.dorsetforyou.gov.uk,-1.98726000000000,BH21 1HT,2013-12-13,fhrs_5_en-GB,5,,FHRS,5
291172,,,,,SOUTHERN SOUL SHACK,Other catering premises,7841,10,,622317,10,,,542,085,EnvironmentalHealth@christchurchandeastdorset.gov.uk,East Dorset,http://www.dorsetforyou.gov.uk,,,2013-11-08,fhrs_3_en-GB,3,,FHRS,10
291173,,119 Golf Links Road,Ferndown,Dorset,SPF CATERERS AT FERNDOWN GOLF CLUB,Other catering premises,7841,0,,636979,0,,50.79856600000000,85889,085,EnvironmentalHealth@christchurchandeastdorset.gov.uk,East Dorset,http://www.dorsetforyou.gov.uk,-1.88161900000000,BH22 8BU,2014-02-19,fhrs_5_en-GB,5,,FHRS,0
291174,,77 Ringwood Road,Verwood,Dorset,Spice of India,Restaurant/Cafe/Canteen,1,10,,340686,10,,50.88062000000000,51914,085,EnvironmentalHealth@christchurchandeastdorset.gov.uk,East Dorset,http://www.dorsetforyou.gov.uk,-1.87126300000000,BH31 7AB,2014-02-01,fhrs_3_en-GB,3,,FHRS,10
291175,,7 West Street,Wimborne Minster,Dorset,SPILL THE BEANS,Retailers - other,4613,5,,340818,5,,50.79995600000000,7103,085,EnvironmentalHealth@christchurchandeastdorset.gov.uk,East Dorset,http://www.dorsetforyou.gov.uk,-1.98907600000000,BH21 1JN,2014-05-30,fhrs_4_en-GB,4,,FHRS,10
291176,,Candys Lane,Corfe Mullen,Dorset,SPRINGFIELD TOURING PARK,Retailers - other,4613,0,,340866,0,,50.78820200000000,7654,085,EnvironmentalHealth@christchurchandeastdorset.gov.uk,East Dorset,http://www.dorsetforyou.gov.uk,-2.01264200000000,BH21 3EF,2013-05-08,fhrs_5_en-GB,5,,FHRS,0
291177,,8 Pinehurst Road,West Moors,Dorset,ST ANTHONYS CHURCH HALL,Other catering premises,7841,,,340557,,,50.82064200000000,3938,085,EnvironmentalHealth@christchurchandeastdorset.gov.uk,East Dorset,http://www.dorsetforyou.gov.uk,-1.88135100000000,BH22 0AP,2014-06-11,fhrs_exempt_en-GB,Exempt,,FHRS,
291178,,Lewens Lane,Wimborne Minster,Dorset,ST CATHERINES CHURCH HALL,Other catering premises,7841,,,340801,,,50.79849800000000,6837,085,EnvironmentalHealth@christchurchandeastdorset.gov.uk,East Dorset,http://www.dorsetforyou.gov.uk,-1.98223700000000,BH21 1LE,2013-05-14,fhrs_exempt_en-GB,Exempt,,FHRS,
291179,,Cutlers Place,Colehill,"Wimborne, Dorset",ST CATHERINES SCHOOL,School/college/university,7845,0,,727680,0,,50.80550300000000,5494,085,EnvironmentalHealth@christchurchandeastdorset.gov.uk,East Dorset,http://www.dorsetforyou.gov.uk,-1.94983500000000,BH21 2HN,2014-12-02,fhrs_5_en-GB,5,,FHRS,0
291180,,Sandy Lane,St Ives,"Ringwood, Hants",ST IVES FIRST SCHOOL,School/college/university,7845,,,718445,,,50.83780600000000,7918,085,EnvironmentalHealth@christchurchandeastdorset.gov.uk,East Dorset,http://www.dorsetforyou.gov.uk,-1.82247100000000,BH24 2LE,,fhrs_awaitinginspection_en-GB,AwaitingInspection,,FHRS,
291181,St Ives House,St Ives Wood,Ashley Heath,Dorset,St Ives House,Hospitals/Childcare/Caring Premises,5,,,340532,,,50.83854500000000,3336,085,EnvironmentalHealth@christchurchandeastdorset.gov.uk,East Dorset,http://www.dorsetforyou.gov.uk,-1.81747000000000,BH24 2EA,2014-11-05,fhrs_5_en-GB,5,,FHRS,
291182,,Park Lane,Alderholt,"Fordingbridge, Hants",St James CE First School,School/college/university,7845,5,,340933,5,,50.91197900000000,9429,085,EnvironmentalHealth@christchurchandeastdorset.gov.uk,East Dorset,http://www.dorsetforyou.gov.uk,-1.83092300000000,SP6 3AJ,2013-05-23,fhrs_5_en-GB,5,,FHRS,5
291183,ST JAMES SCHOOL,Gaunts Common,Wimborne,Dorset,ST JAMES' COTTAGE NURSERY,Hospitals/Childcare/Caring Premises,5,,,340512,,,50.84549100000000,2948,085,EnvironmentalHealth@christchurchandeastdorset.gov.uk,East Dorset,http://www.dorsetforyou.gov.uk,-1.97028800000000,BH21 4JN,2014-01-17,fhrs_exempt_en-GB,Exempt,,FHRS,
291184,,,,,ST JOHNS SCHOOL,School/college/university,7845,0,,727681,0,,,6988,085,EnvironmentalHealth@christchurchandeastdorset.gov.uk,East Dorset,http://www.dorsetforyou.gov.uk,,,2014-12-03,fhrs_5_en-GB,5,,FHRS,0
291185,,12 School Lane,St Ives,"Ringwood, Hants",ST LEONARD & ST IVES EX SERVICES CLUB,Pub/bar/nightclub,7843,,,340580,,,50.83528800000000,4288,085,EnvironmentalHealth@christchurchandeastdorset.gov.uk,East Dorset,http://www.dorsetforyou.gov.uk,-1.82827500000000,BH24 2PF,2012-08-13,fhrs_exempt_en-GB,Exempt,,FHRS,
291186,,185 Ringwood Road,St.Leonards/St.Ives,Dorset,ST LEONARDS HOTEL,Hotel/bed & breakfast/guest house,7842,0,,340837,0,,50.82823100000000,7446,085,EnvironmentalHealth@christchurchandeastdorset.gov.uk,East Dorset,http://www.dorsetforyou.gov.uk,-1.83605300000000,BH24 2NP,2014-04-02,fhrs_5_en-GB,5,,FHRS,5
291187,,Station Road,West Moors,"Ferndown, Dorset",ST MARY THE VIRGIN CHURCH HALL,Other catering premises,7841,0,,711617,0,,50.82503300000000,7680,085,EnvironmentalHealth@christchurchandeastdorset.gov.uk,East Dorset,http://www.dorsetforyou.gov.uk,-1.88373900000000,BH22 0EN,2014-09-18,fhrs_5_en-GB,5,,FHRS,0
291188,,Church Road,Ferndown,Dorset,St Mary's Church Hall,Other catering premises,7841,5,,340906,5,,50.80171700000000,7925,085,EnvironmentalHealth@christchurchandeastdorset.gov.uk,East Dorset,http://www.dorsetforyou.gov.uk,-1.89543300000000,BH22 9EU,2014-10-23,fhrs_5_en-GB,5,,FHRS,0
291189,PARISH CENTRE,Manor Road,Verwood,Dorset,ST MICHAELS,Other catering premises,7841,5,,340286,0,,50.87817400000000,12409,085,EnvironmentalHealth@christchurchandeastdorset.gov.uk,East Dorset,http://www.dorsetforyou.gov.uk,-1.87982700000000,BH31 6DZ,2014-05-28,fhrs_5_en-GB,5,,FHRS,0
291190,,Colehill Lane,Colehill,"Wimborne, Dorset",ST MICHAELS CHURCH HALL,Other catering premises,7841,0,,340892,0,,50.81066200000000,7833,085,EnvironmentalHealth@christchurchandeastdorset.gov.uk,East Dorset,http://www.dorsetforyou.gov.uk,-1.96681800000000,BH21 2RY,2009-10-30,fhrs_5_en-GB,5,,FHRS,0
291191,,,,,ST NICHOLAS CHURCH CENTRE,Other catering premises,7841,,,340833,,,,741,085,EnvironmentalHealth@christchurchandeastdorset.gov.uk,East Dorset,http://www.dorsetforyou.gov.uk,,,2014-05-12,fhrs_exempt_en-GB,Exempt,,FHRS,
291192,,71 Leigh Road,Wimborne,Dorset,St. John's Church Hall,Other catering premises,7841,5,,340876,5,,50.79803000000000,7710,085,EnvironmentalHealth@christchurchandeastdorset.gov.uk,East Dorset,http://www.dorsetforyou.gov.uk,-1.98008000000000,BH21 1AE,2013-04-30,fhrs_5_en-GB,5,,FHRS,0
291193,Kingston Lacy House,Blandford Road,Pamphill,Dorset,Stables Restaurant and Coach House,Restaurant/Cafe/Canteen,1,5,,340826,5,,50.81095900000000,7262,085,EnvironmentalHealth@christchurchandeastdorset.gov.uk,East Dorset,http://www.dorsetforyou.gov.uk,-2.03180900000000,BH21 4EA,2014-06-12,fhrs_5_en-GB,5,,FHRS,5
291194,Stewarts Nurseries,God's Blessing Lane,Holt,Dorset,Stewarts Garden Centre & Coffee Shop,Other catering premises,7841,0,,340475,5,,50.82684500000000,23641,085,EnvironmentalHealth@christchurchandeastdorset.gov.uk,East Dorset,http://www.dorsetforyou.gov.uk,-1.95723800000000,BH21 7DF,2013-12-12,fhrs_5_en-GB,5,,FHRS,0
291195,WOLVERCROFT,Wolvercroft World of Plants,Fordingbridge Road,Alderholt,Sticky Bun Tearoom,Restaurant/Cafe/Canteen,1,5,,340842,5,,50.91825500000000,7481,085,EnvironmentalHealth@christchurchandeastdorset.gov.uk,East Dorset,http://www.dorsetforyou.gov.uk,-1.82385900000000,SP6 3BE,2013-12-10,fhrs_5_en-GB,5,,FHRS,0
291196,The Old Butchery,1 The Square,Cranborne,Dorset,STONE FAMILY FARM,Manufacturers/packers,7839,,,668824,,,50.91951200000000,52205,085,EnvironmentalHealth@christchurchandeastdorset.gov.uk,East Dorset,http://www.dorsetforyou.gov.uk,-1.92245600000000,BH21 5PR,2014-10-15,fhrs_exempt_en-GB,Exempt,,FHRS,
291197,,2 Rowlands Hill,Wimborne Minster,Dorset,STONELEIGH REST HOME,Hospitals/Childcare/Caring Premises,5,10,,340806,10,,50.80022500000000,6950,085,EnvironmentalHealth@christchurchandeastdorset.gov.uk,East Dorset,http://www.dorsetforyou.gov.uk,-1.98249100000000,BH21 1AN,2014-03-21,fhrs_3_en-GB,3,,FHRS,10
291198,,Shears Building,Stone Lane Industrial Estate,Stone Lane,STREETLIGHT CAFE,Restaurant/Cafe/Canteen,1,5,,732413,5,,50.80614200000000,85866,085,EnvironmentalHealth@christchurchandeastdorset.gov.uk,East Dorset,http://www.dorsetforyou.gov.uk,-1.99250800000000,BH21 1HB,2015-01-15,fhrs_5_en-GB,5,,FHRS,5
291199,,Hanham Road,Wimborne,Dorset,STREETS MEADOW,Hospitals/Childcare/Caring Premises,5,0,,340786,0,,50.80112400000000,6658,085,EnvironmentalHealth@christchurchandeastdorset.gov.uk,East Dorset,http://www.dorsetforyou.gov.uk,-1.98479000000000,BH21 1AS,2014-11-17,fhrs_5_en-GB,5,,FHRS,5
291200,,85 Hardy Crescent,Wimborne Minster,Dorset,Strictly Deli,Other catering premises,7841,5,,340562,5,,50.79579900000000,40483,085,EnvironmentalHealth@christchurchandeastdorset.gov.uk,East Dorset,http://www.dorsetforyou.gov.uk,-1.97413600000000,BH21 2AR,2013-07-05,fhrs_5_en-GB,5,,FHRS,5
291201,,Moor Lane,Sturminster Marshall,"Wimborne, Dorset",Sturminster Marshall Golf Club Catering,Restaurant/Cafe/Canteen,1,10,,340480,5,,50.79670500000000,23673,085,EnvironmentalHealth@christchurchandeastdorset.gov.uk,East Dorset,http://www.dorsetforyou.gov.uk,-2.07254900000000,BH21 4BD,2014-10-02,fhrs_3_en-GB,3,,FHRS,10
291202,,Three Cross Road,West Moors,Dorset,STURTS FARM - FOOD ROOM AT STURTS FARM COMM. TRUST,Hospitals/Childcare/Caring Premises,5,5,,633252,5,,50.83983100000000,52191,085,EnvironmentalHealth@christchurchandeastdorset.gov.uk,East Dorset,http://www.dorsetforyou.gov.uk,-1.88980900000000,BH22 0NF,2014-01-31,fhrs_4_en-GB,4,,FHRS,10
291203,Sturts Farm,West Moors Road,West Moors,Dorset,STURTS FARM DAIRY AT STURTS FARM COMM. TRUST,Manufacturers/packers,7839,5,,622318,5,,50.83983100000000,85868,085,EnvironmentalHealth@christchurchandeastdorset.gov.uk,East Dorset,http://www.dorsetforyou.gov.uk,-1.88980900000000,BH22 0NF,2013-11-05,fhrs_4_en-GB,4,,FHRS,10
291204,,46 Glenwood Road,West Moors,Dorset,SUMMER HILL RESIDENTIAL HOME,Hospitals/Childcare/Caring Premises,5,5,,340265,5,,50.82519200000000,10396,085,EnvironmentalHealth@christchurchandeastdorset.gov.uk,East Dorset,http://www.dorsetforyou.gov.uk,-1.88149600000000,BH22 0ER,2013-10-04,fhrs_5_en-GB,5,,FHRS,0
291205,ST JAMES FIRST SCHOOL,Park Lane,Alderholt,"Fordingbridge, Hants",SUNBEAMS PRE-SCHOOL,Hospitals/Childcare/Caring Premises,5,,,408285,,,50.91197900000000,10066,085,EnvironmentalHealth@christchurchandeastdorset.gov.uk,East Dorset,http://www.dorsetforyou.gov.uk,-1.83092300000000,SP63AJ,2014-11-18,fhrs_4_en-GB,4,,FHRS,
291206,,,,,SUSIE'S CAKES & BAKES,Other catering premises,7841,10,,688771,5,,,27047,085,EnvironmentalHealth@christchurchandeastdorset.gov.uk,East Dorset,http://www.dorsetforyou.gov.uk,,,2014-07-09,fhrs_4_en-GB,4,,FHRS,5
291207,,,,,Suzette's Fresh Pancakes,Mobile caterer,7846,5,,340760,5,,,5594,085,EnvironmentalHealth@christchurchandeastdorset.gov.uk,East Dorset,http://www.dorsetforyou.gov.uk,,,2010-07-07,fhrs_4_en-GB,4,,FHRS,10
291208,,,,,SWEET DEBONAIR,Other catering premises,7841,10,,572012,10,,,33934,085,EnvironmentalHealth@christchurchandeastdorset.gov.uk,East Dorset,http://www.dorsetforyou.gov.uk,,,2013-07-03,fhrs_3_en-GB,3,,FHRS,5
291209,,,,,SWEET DESIGNS,Other catering premises,7841,10,,572013,5,,,36153,085,EnvironmentalHealth@christchurchandeastdorset.gov.uk,East Dorset,http://www.dorsetforyou.gov.uk,,,2013-06-25,fhrs_4_en-GB,4,,FHRS,5
291210,,,,,SYLVIA ROBERTS,Other catering premises,7841,5,,636978,5,,,52181,085,EnvironmentalHealth@christchurchandeastdorset.gov.uk,East Dorset,http://www.dorsetforyou.gov.uk,,,2014-03-06,fhrs_5_en-GB,5,,FHRS,5
291211,,68 Leigh Road,Wimborne Minster,Dorset,T & S NEWSMARKET,Retailers - other,4613,5,,340799,5,,50.79771600000000,6815,085,EnvironmentalHealth@christchurchandeastdorset.gov.uk,East Dorset,http://www.dorsetforyou.gov.uk,-1.98083200000000,BH21 1AQ,2009-05-22,fhrs_5_en-GB,5,,FHRS,5
291212,,218 Wareham Road,Corfe Mullen,Dorset,Taj Restaurant Ltd,Restaurant/Cafe/Canteen,1,,,340298,,,50.76372300000000,13783,085,EnvironmentalHealth@christchurchandeastdorset.gov.uk,East Dorset,http://www.dorsetforyou.gov.uk,-2.02297100000000,BH21 3LN,2014-09-09,fhrs_3_en-GB,3,,FHRS,
291213,,195 Station Road,West Moors,Dorset,TAP AND RAILWAY,Pub/bar/nightclub,7843,5,,340596,5,,50.82619900000000,4485,085,EnvironmentalHealth@christchurchandeastdorset.gov.uk,East Dorset,http://www.dorsetforyou.gov.uk,-1.88969900000000,BH22 0HX,2014-03-08,fhrs_4_en-GB,4,,FHRS,10
291214,,35 Penny's Walk - Footway,Ferndown,Dorset,TESCO - GENERAL,Retailers - supermarkets/hypermarkets,7840,0,,340655,0,,50.80181200000000,5171,085,EnvironmentalHealth@christchurchandeastdorset.gov.uk,East Dorset,http://www.dorsetforyou.gov.uk,-1.89141700000000,BH22 9TH,2012-11-07,fhrs_5_en-GB,5,,FHRS,5
291215,,31-33 Glenmoor Road,Ferndown,Dorset,TESCO EXPRESS,Retailers - other,4613,5,,340388,5,,50.79308200000000,19150,085,EnvironmentalHealth@christchurchandeastdorset.gov.uk,East Dorset,http://www.dorsetforyou.gov.uk,-1.89258600000000,BH22 8QE,2010-02-02,fhrs_5_en-GB,5,,FHRS,5
291216,,126 Station Road,West Moors,Dorset,TESCO EXPRESS,Retailers - other,4613,0,,340376,5,,50.82419200000000,18727,085,EnvironmentalHealth@christchurchandeastdorset.gov.uk,East Dorset,http://www.dorsetforyou.gov.uk,-1.88808600000000,BH22 0JB,2011-11-15,fhrs_5_en-GB,5,,FHRS,5
291217,Thatch Cottage,Ringwood Road,Three Legged Cross,Dorset,Thatch Cottage Guest House,Hotel/bed & breakfast/guest house,7842,5,,340285,5,,50.84829000000000,12356,085,EnvironmentalHealth@christchurchandeastdorset.gov.uk,East Dorset,http://www.dorsetforyou.gov.uk,-1.87726100000000,BH21 6QY,2013-09-06,fhrs_5_en-GB,5,,FHRS,5
291218,The Albion Hotel,19 High Street,Wimborne Minster,Dorset,THE ALBION INN,Pub/bar/nightclub,7843,10,,705584,5,,50.79947900000000,85924,085,EnvironmentalHealth@christchurchandeastdorset.gov.uk,East Dorset,http://www.dorsetforyou.gov.uk,-1.98748600000000,BH21 1HR,2014-08-07,fhrs_4_en-GB,4,,FHRS,0
291219,The Albion Inn,Station Road,Verwood,Dorset,THE ALBION INN,Pub/bar/nightclub,7843,5,,340359,5,,50.88318500000000,1769,085,EnvironmentalHealth@christchurchandeastdorset.gov.uk,East Dorset,http://www.dorsetforyou.gov.uk,-1.89129900000000,BH31 7LB,2014-11-18,fhrs_4_en-GB,4,,FHRS,10
291220,,West Street,Shapwick,Dorset,THE ANCHOR,Pub/bar/nightclub,7843,5,,340750,10,,50.81578300000000,52107,085,EnvironmentalHealth@christchurchandeastdorset.gov.uk,East Dorset,http://www.dorsetforyou.gov.uk,-2.09111700000000,DT11 9LB,2013-09-20,fhrs_3_en-GB,3,,FHRS,10
291221,,188 Ringwood Road,Ferndown,Dorset,The Angel Inn,Restaurant/Cafe/Canteen,1,0,,340561,0,,50.79152700000000,4029,085,EnvironmentalHealth@christchurchandeastdorset.gov.uk,East Dorset,http://www.dorsetforyou.gov.uk,-1.90389700000000,BH22 9AP,2014-04-08,fhrs_5_en-GB,5,,FHRS,0
291222,The Barley Mow,Long Lane,Holt,Dorset,THE BARLEY MOW,Pub/bar/nightclub,7843,5,,607215,5,,50.82041500000000,85869,085,EnvironmentalHealth@christchurchandeastdorset.gov.uk,East Dorset,http://www.dorsetforyou.gov.uk,-1.95625000000000,BH21 7AH,2013-11-04,fhrs_5_en-GB,5,,FHRS,5
291223,,14 Keswick Way,Verwood,,The Big Enchilada Company,Mobile caterer,7846,0,,340749,0,,50.87440100000000,52106,085,EnvironmentalHealth@christchurchandeastdorset.gov.uk,East Dorset,http://www.dorsetforyou.gov.uk,-1.88292000000000,BH31 6HP,2013-10-21,fhrs_5_en-GB,5,,FHRS,5
291224,,Verwood Sports & Social Club,Blackhill Road,Verwood,THE BREAKFAST BUTLER,Takeaway/sandwich shop,7844,5,,668826,5,,,85938,085,EnvironmentalHealth@christchurchandeastdorset.gov.uk,East Dorset,http://www.dorsetforyou.gov.uk,,BH31 6AA,2014-04-26,fhrs_5_en-GB,5,,FHRS,5
291225,,2 Ringwood Road,Longham,"Ferndown, Dorset",The Bridge House - City lodge,Other catering premises,7841,10,,340647,10,,50.77764600000000,51380,085,EnvironmentalHealth@christchurchandeastdorset.gov.uk,East Dorset,http://www.dorsetforyou.gov.uk,-1.90802400000000,BH22 9AN,2013-12-13,fhrs_3_en-GB,3,,FHRS,5
291226,The Bull Inn,,Wimborne St Giles,Dorset,THE BULL INN,Hotel/bed & breakfast/guest house,7842,5,,550466,5,,50.90928000000000,52180,085,EnvironmentalHealth@christchurchandeastdorset.gov.uk,East Dorset,http://www.dorsetforyou.gov.uk,-1.96124500000000,BH21 5NF,2014-05-06,fhrs_4_en-GB,4,,FHRS,10
291227,Units 2&3,147b Wareham Road,Corfe Mullen,Dorset,The Cakery Shop,Retailers - other,4613,10,,607208,5,,50.76546800000000,44338,085,EnvironmentalHealth@christchurchandeastdorset.gov.uk,East Dorset,http://www.dorsetforyou.gov.uk,-2.02104400000000,BH21 3LA,2013-09-25,fhrs_3_en-GB,3,,FHRS,10
291228,Lake Gates,Dorchester Road,Corfe Mullen,Dorset,The Caravan Shop (Wimborne) Limited,Retailers - other,4613,5,,340289,5,,50.78964100000000,12627,085,EnvironmentalHealth@christchurchandeastdorset.gov.uk,East Dorset,http://www.dorsetforyou.gov.uk,-2.01164900000000,BH21 3HA,2013-09-16,fhrs_5_en-GB,5,,FHRS,5
291229,,Daggons Road,Alderholt,Fordingbridge,THE CHURCHILL ARMS,Pub/bar/nightclub,7843,5,,536318,5,,50.91169700000000,52167,085,EnvironmentalHealth@christchurchandeastdorset.gov.uk,East Dorset,http://www.dorsetforyou.gov.uk,-1.84102300000000,SP6 3AA,2013-02-18,fhrs_5_en-GB,5,,FHRS,5
291230,,1 Ringwood Road,Alderholt,Dorset,THE CO-OP,Retailers - other,4613,5,,340444,5,,50.90963600000000,22352,085,EnvironmentalHealth@christchurchandeastdorset.gov.uk,East Dorset,http://www.dorsetforyou.gov.uk,-1.83384800000000,SP6 3DF,2014-01-27,fhrs_4_en-GB,4,,FHRS,10
291231,,1 Crown Mead,Wimborne Minster,Dorset,THE CO-OPERATIVE,Retailers - supermarkets/hypermarkets,7840,5,,340714,5,,50.79904700000000,52007,085,EnvironmentalHealth@christchurchandeastdorset.gov.uk,East Dorset,http://www.dorsetforyou.gov.uk,-1.98565600000000,BH21 1ED,2014-02-20,fhrs_4_en-GB,4,,FHRS,10
291232,,1 Crown Mead,Wimborne Minster,Dorset,THE CO-OPERATIVE,Retailers - supermarkets/hypermarkets,7840,5,,340714,5,,50.79904700000000,52007,085,EnvironmentalHealth@christchurchandeastdorset.gov.uk,East Dorset,http://www.dorsetforyou.gov.uk,-1.98565600000000,BH21 1ED,2014-02-20,fhrs_4_en-GB,4,,FHRS,10
291233,,Mill Street,Corfe Mullen,Wimborne,THE COVENTRY ARMS,Pub/bar/nightclub,7843,10,,408293,10,,50.78640700000000,52119,085,EnvironmentalHealth@christchurchandeastdorset.gov.uk,East Dorset,http://www.dorsetforyou.gov.uk,-2.03722500000000,BH21 3RH,2014-01-22,fhrs_3_en-GB,3,,FHRS,10
291234,,12 Park Lane,Wimborne,Dorset,The Cricketers Arms,Pub/bar/nightclub,7843,10,,340685,10,,50.79859700000000,51905,085,EnvironmentalHealth@christchurchandeastdorset.gov.uk,East Dorset,http://www.dorsetforyou.gov.uk,-1.98412400000000,BH21 1LD,2014-05-12,fhrs_3_en-GB,3,,FHRS,10
291235,,Mannington,Holt Heath,"Wimborne, Dorset",The Cross Keys,Pub/bar/nightclub,7843,5,,340855,5,,50.84116363525391,7603,085,EnvironmentalHealth@christchurchandeastdorset.gov.uk,East Dorset,http://www.dorsetforyou.gov.uk,-1.91514313220978,BH21 7JZ,2013-12-09,fhrs_4_en-GB,4,,FHRS,10
291236,,287 Christchurch Road,West Parley,Dorset,THE CURLEW,Restaurant/Cafe/Canteen,1,0,,340290,0,,50.78172000000000,12858,085,EnvironmentalHealth@christchurchandeastdorset.gov.uk,East Dorset,http://www.dorsetforyou.gov.uk,-1.87892400000000,BH22 8SQ,2013-06-10,fhrs_4_en-GB,4,,FHRS,10
291237,The Drovers Inn,,Gussage All Saints,Dorset,THE DROVERS INN,Pub/bar/nightclub,7843,10,,636981,10,,50.89507900000000,85913,085,EnvironmentalHealth@christchurchandeastdorset.gov.uk,East Dorset,http://www.dorsetforyou.gov.uk,-1.99947600000000,BH21 5ET,2014-03-07,fhrs_3_en-GB,3,,FHRS,10
291238,,218 Christchurch Road,West Parley,"Ferndown, Dorset",The Dudsbury,Restaurant/Cafe/Canteen,1,5,,340661,5,,50.78166700000000,51760,085,EnvironmentalHealth@christchurchandeastdorset.gov.uk,East Dorset,http://www.dorsetforyou.gov.uk,-1.88939200000000,BH22 8SS,2013-07-10,fhrs_5_en-GB,5,,FHRS,5
291239,,Arena Business Centre,Ferndown Industrial Estate,Ferndown,THE FOOD HUB,Restaurant/Cafe/Canteen,1,0,,668829,0,,50.80717900000000,86990,085,EnvironmentalHealth@christchurchandeastdorset.gov.uk,East Dorset,http://www.dorsetforyou.gov.uk,-1.92336500000000,BH21 7WH,2014-05-02,fhrs_5_en-GB,5,,FHRS,0
291240,,Forest Links Road,Ferndown,Dorset,THE FOREST INN,Hotel/bed & breakfast/guest house,7842,10,,668827,15,,50.82095600000000,85939,085,EnvironmentalHealth@christchurchandeastdorset.gov.uk,East Dorset,http://www.dorsetforyou.gov.uk,-1.89974800000000,BH22 9PH,2014-05-27,fhrs_2_en-GB,2,,FHRS,10
291241,,7 West Moors Road,Ferndown,Dorset,THE GABLES,Hospitals/Childcare/Caring Premises,5,5,,340276,5,,50.81168400000000,11475,085,EnvironmentalHealth@christchurchandeastdorset.gov.uk,East Dorset,http://www.dorsetforyou.gov.uk,-1.88943500000000,BH22 9SA,2014-01-16,fhrs_5_en-GB,5,,FHRS,0
291242,,392 Christchurch Road,West Parley,Dorset,THE GALLERY RESTAURANT - PLOWMANS GARDEN CENTRE,Restaurant/Cafe/Canteen,1,5,,384889,5,,50.77979600000000,52112,085,EnvironmentalHealth@christchurchandeastdorset.gov.uk,East Dorset,http://www.dorsetforyou.gov.uk,-1.87148300000000,BH22 8SW,2013-12-09,fhrs_4_en-GB,4,,FHRS,10
291243,,Turbary Resource Centre,Corbin Avenue,Ferndown,THE GOOD FOOD COMMUNITY CAFE,Restaurant/Cafe/Canteen,1,5,,607212,0,,50.80837600000000,52202,085,EnvironmentalHealth@christchurchandeastdorset.gov.uk,East Dorset,http://www.dorsetforyou.gov.uk,-1.87231300000000,BH22 8AE,2013-11-01,fhrs_5_en-GB,5,,FHRS,0
291244,,1 Victoria Road,Wimborne Minster,Dorset,The Green Man,Pub/bar/nightclub,7843,5,,340814,5,,50.80135000000000,7036,085,EnvironmentalHealth@christchurchandeastdorset.gov.uk,East Dorset,http://www.dorsetforyou.gov.uk,-1.99348800000000,BH21 1EN,2013-12-04,fhrs_5_en-GB,5,,FHRS,5
291245,,17 Moorlands Road,Verwood,Dorset,The Hideaway,Restaurant/Cafe/Canteen,1,0,,499777,5,,50.88347600000000,52161,085,EnvironmentalHealth@christchurchandeastdorset.gov.uk,East Dorset,http://www.dorsetforyou.gov.uk,-1.87652900000000,BH31 7PD,2013-01-03,fhrs_5_en-GB,5,,FHRS,5
291246,THE VERWOOD HUB COMMUNITY CENT,Brock Way,Verwood,Dorset,THE HUB BISTRO,Restaurant/Cafe/Canteen,1,20,,340466,10,,50.88162994384766,23199,085,EnvironmentalHealth@christchurchandeastdorset.gov.uk,East Dorset,http://www.dorsetforyou.gov.uk,-1.87847995758057,BH31 7WW,2013-11-04,fhrs_1_en-GB,1,,FHRS,5
291247,,5 Wimborne Street,Cranborne,Dorset,THE INN AT CRANBORNE,Hotel/bed & breakfast/guest house,7842,5,,408292,5,,50.91865900000000,52117,085,EnvironmentalHealth@christchurchandeastdorset.gov.uk,East Dorset,http://www.dorsetforyou.gov.uk,-1.92309700000000,BH21 5PP,2013-12-12,fhrs_5_en-GB,5,,FHRS,5
291248,,77 Ringwood Road,Ferndown,Dorset,The Kings Arms,Pub/bar/nightclub,7843,5,,340649,5,,50.77876200000000,51570,085,EnvironmentalHealth@christchurchandeastdorset.gov.uk,East Dorset,http://www.dorsetforyou.gov.uk,-1.90921400000000,BH22 9AA,2013-08-06,fhrs_5_en-GB,5,,FHRS,5
291249,,The Square,Wimborne,Dorset,The Kings Head Hotel,Hotel/bed & breakfast/guest house,7842,0,,340810,0,,50.80020800000000,7015,085,EnvironmentalHealth@christchurchandeastdorset.gov.uk,East Dorset,http://www.dorsetforyou.gov.uk,-1.98870700000000,BH21 1JG,2014-07-24,fhrs_5_en-GB,5,,FHRS,0
291250,,,,,THE LITTLE WHITE HEART COMPANY,Retailers - other,4613,5,,550463,5,,,27794,085,EnvironmentalHealth@christchurchandeastdorset.gov.uk,East Dorset,http://www.dorsetforyou.gov.uk,,,2013-04-26,fhrs_5_en-GB,5,,FHRS,5
291251,,10 West Borough,Wimborne Minster,Dorset,The Man in the Wall,Pub/bar/nightclub,7843,5,,340742,5,,50.80109800000000,52087,085,EnvironmentalHealth@christchurchandeastdorset.gov.uk,East Dorset,http://www.dorsetforyou.gov.uk,-1.98830900000000,BH21 1NF,2013-10-23,fhrs_5_en-GB,5,,FHRS,5
291252,,10 West Borough,Wimborne Minster,Dorset,The Man in the Wall,Pub/bar/nightclub,7843,5,,340742,5,,50.80109800000000,52087,085,EnvironmentalHealth@christchurchandeastdorset.gov.uk,East Dorset,http://www.dorsetforyou.gov.uk,-1.98830900000000,BH21 1NF,2013-10-23,fhrs_5_en-GB,5,,FHRS,5
291253,,489 Ringwood Road,Ferndown,Dorset,The Merchant of Venice,Restaurant/Cafe/Canteen,1,5,,340400,5,,50.80029300000000,20082,085,EnvironmentalHealth@christchurchandeastdorset.gov.uk,East Dorset,http://www.dorsetforyou.gov.uk,-1.89215800000000,BH22 9AG,2014-01-17,fhrs_4_en-GB,4,,FHRS,10
291254,,23 West Street,Wimborne,Dorset,THE MINSTER ARMS,Restaurant/Cafe/Canteen,1,0,,693508,0,,50.79998300000000,87059,085,EnvironmentalHealth@christchurchandeastdorset.gov.uk,East Dorset,http://www.dorsetforyou.gov.uk,-1.99021100000000,BH21 1JS,2014-08-14,fhrs_5_en-GB,5,,FHRS,0
291255,,93 Manor Road,Verwood,Dorset,The Monmouth Ash,Pub/bar/nightclub,7843,0,,340355,0,,50.87596100000000,17137,085,EnvironmentalHealth@christchurchandeastdorset.gov.uk,East Dorset,http://www.dorsetforyou.gov.uk,-1.87899400000000,BH31 6DT,2014-02-01,fhrs_5_en-GB,5,,FHRS,5
291256,,92-94 Victoria Road,Ferndown,Dorset,The Night Jar,Pub/bar/nightclub,7843,5,,340936,5,,50.80339400000000,9824,085,EnvironmentalHealth@christchurchandeastdorset.gov.uk,East Dorset,http://www.dorsetforyou.gov.uk,-1.89034900000000,BH22 9JA,2013-09-16,fhrs_5_en-GB,5,,FHRS,5
291257,The Old Inn,Holt Lane,Holt,Dorset,THE OLD INN,Pub/bar/nightclub,7843,,,693511,,,50.83564000000000,87091,085,EnvironmentalHealth@christchurchandeastdorset.gov.uk,East Dorset,http://www.dorsetforyou.gov.uk,-1.95776900000000,BH21 7DJ,2014-12-08,fhrs_4_en-GB,4,,FHRS,
291258,The Manor House,Wimborne Street,Cranborne,Dorset,THE OLD POTTING SHED,Restaurant/Cafe/Canteen,1,10,,340299,5,,50.91865900000000,13831,085,EnvironmentalHealth@christchurchandeastdorset.gov.uk,East Dorset,http://www.dorsetforyou.gov.uk,-1.92309700000000,BH21 5PP,2013-10-11,fhrs_4_en-GB,4,,FHRS,5
291259,The Old School,West Street,Shapwick,Dorset,The Old School Nursery,Hospitals/Childcare/Caring Premises,5,5,,340303,10,,50.81578300000000,14025,085,EnvironmentalHealth@christchurchandeastdorset.gov.uk,East Dorset,http://www.dorsetforyou.gov.uk,-2.09111700000000,DT11 9LB,2014-05-19,fhrs_4_en-GB,4,,FHRS,5
291260,,285 Wimborne Road West,Ferndown,Dorset,THE OLD THATCH,Pub/bar/nightclub,7843,5,,668831,5,,50.80526300000000,87016,085,EnvironmentalHealth@christchurchandeastdorset.gov.uk,East Dorset,http://www.dorsetforyou.gov.uk,-1.92126800000000,BH21 7NW,2014-05-29,fhrs_4_en-GB,4,,FHRS,10
291261,,196 Christchurch Road,West Parley,Dorset,The Owls Nest,Pub/bar/nightclub,7843,5,,340500,5,,50.78166700000000,2491,085,EnvironmentalHealth@christchurchandeastdorset.gov.uk,East Dorset,http://www.dorsetforyou.gov.uk,-1.88939200000000,BH22 8SS,2013-08-22,fhrs_5_en-GB,5,,FHRS,5
291262,,174 Church Street,Sturminster Marshall,Dorset,The Red Lion,Pub/bar/nightclub,7843,5,,340823,5,,50.80268600000000,7174,085,EnvironmentalHealth@christchurchandeastdorset.gov.uk,East Dorset,http://www.dorsetforyou.gov.uk,-2.07071400000000,BH21 4BU,2013-04-30,fhrs_5_en-GB,5,,FHRS,5
291263,,Dorchester Road,Corfe Mullen,"Wimborne, Dorset",THE ROADSIDE CAFE,Restaurant/Cafe/Canteen,1,5,,340650,5,,50.78964100000000,51571,085,EnvironmentalHealth@christchurchandeastdorset.gov.uk,East Dorset,http://www.dorsetforyou.gov.uk,-2.01164900000000,BH21 3HA,2013-10-03,fhrs_5_en-GB,5,,FHRS,5
291264,,22 High Street,Sixpenny Handley,Dorset,THE ROEBUCK INN,Pub/bar/nightclub,7843,5,,340764,5,,50.95428400000000,5813,085,EnvironmentalHealth@christchurchandeastdorset.gov.uk,East Dorset,http://www.dorsetforyou.gov.uk,-2.00556900000000,SP5 5ND,2014-08-28,fhrs_4_en-GB,4,,FHRS,10
291265,Sheaf Of Arrows,4 The Square,Cranborne,Dorset,The Sheaf of Arrows,Pub/bar/nightclub,7843,10,,636980,10,,50.91951200000000,85911,085,EnvironmentalHealth@christchurchandeastdorset.gov.uk,East Dorset,http://www.dorsetforyou.gov.uk,-1.92245600000000,BH21 5PR,2014-02-07,fhrs_3_en-GB,3,,FHRS,10
291266,,,,,THE SHERIDAN CAKE COMPANY,Other catering premises,7841,5,,607204,5,,,17801,085,EnvironmentalHealth@christchurchandeastdorset.gov.uk,East Dorset,http://www.dorsetforyou.gov.uk,,,2013-09-30,fhrs_5_en-GB,5,,FHRS,5
291267,,7 Crown Court,The Square,"Wimborne, Dorset",The Square Chinese,Restaurant/Cafe/Canteen,1,10,,340679,5,,50.80061200000000,51882,085,EnvironmentalHealth@christchurchandeastdorset.gov.uk,East Dorset,http://www.dorsetforyou.gov.uk,-1.98755700000000,BH21 1LP,2014-04-29,fhrs_4_en-GB,4,,FHRS,5
291268,,Furzehill,Colehill,Dorset,The Stocks Inn,Pub/bar/nightclub,7843,5,,340330,5,,50.82169723510742,15442,085,EnvironmentalHealth@christchurchandeastdorset.gov.uk,East Dorset,http://www.dorsetforyou.gov.uk,-1.97646427154541,BH21 4HT,2013-10-24,fhrs_4_en-GB,4,,FHRS,10
291269,,10-12 Victoria Road,Ferndown,Dorset,THE STONE LOUNGE,Restaurant/Cafe/Canteen,1,5,,467957,5,,50.80207200000000,52131,085,EnvironmentalHealth@christchurchandeastdorset.gov.uk,East Dorset,http://www.dorsetforyou.gov.uk,-1.89023800000000,BH22 9HZ,2014-05-01,fhrs_5_en-GB,5,,FHRS,5
291270,,Wimborne Baptist Church,Grove Road,Wimborne,The Sunday Lunch Club,Restaurant/Cafe/Canteen,1,10,,467959,5,,50.79619600000000,52157,085,EnvironmentalHealth@christchurchandeastdorset.gov.uk,East Dorset,http://www.dorsetforyou.gov.uk,-1.97999600000000,BH21 1BW,2014-04-01,fhrs_4_en-GB,4,,FHRS,5
291271,The Swans,Pennine Way,Verwood,Dorset,THE SWANS,Pub/bar/nightclub,7843,5,,633255,5,,50.87611800000000,85910,085,EnvironmentalHealth@christchurchandeastdorset.gov.uk,East Dorset,http://www.dorsetforyou.gov.uk,-1.87384800000000,BH31 6UL,2014-02-10,fhrs_4_en-GB,4,,FHRS,10
291272,,11 West Borough,Wimborne Minster,Dorset,THE TAPHOUSE,Pub/bar/nightclub,7843,5,,628132,5,,50.80146700000000,85920,085,EnvironmentalHealth@christchurchandeastdorset.gov.uk,East Dorset,http://www.dorsetforyou.gov.uk,-1.98894800000000,BH21 1LT,2014-01-23,fhrs_5_en-GB,5,,FHRS,5
291273,The Three Legged Cross,Ringwood Road,Three Legged Cross,Dorset,The Three Legged Cross,Pub/bar/nightclub,7843,0,,340724,5,,50.84604400000000,52035,085,EnvironmentalHealth@christchurchandeastdorset.gov.uk,East Dorset,http://www.dorsetforyou.gov.uk,-1.87067600000000,BH21 6RE,2014-05-09,fhrs_5_en-GB,5,,FHRS,5
291274,The Three Legged Cross,Ringwood Road,Three Legged Cross,Dorset,The Three Legged Cross,Pub/bar/nightclub,7843,0,,340724,5,,50.84604400000000,52035,085,EnvironmentalHealth@christchurchandeastdorset.gov.uk,East Dorset,http://www.dorsetforyou.gov.uk,-1.87067600000000,BH21 6RE,2014-05-09,fhrs_5_en-GB,5,,FHRS,5
291275,,26 West Borough,Wimborne,Dorset,THE TICKLED PIG,Restaurant/Cafe/Canteen,1,10,,384888,10,,50.80109800000000,52109,085,EnvironmentalHealth@christchurchandeastdorset.gov.uk,East Dorset,http://www.dorsetforyou.gov.uk,-1.98830900000000,BH21 1NF,2013-12-11,fhrs_4_en-GB,4,,FHRS,0
291276,,541 Abbot Street,Pamphill,Wimborne,The Tickled Pig Events,Other catering premises,7841,5,,693507,5,,50.80265400000000,85921,085,EnvironmentalHealth@christchurchandeastdorset.gov.uk,East Dorset,http://www.dorsetforyou.gov.uk,-1.99722000000000,BH21 4EN,2014-08-08,fhrs_5_en-GB,5,,FHRS,5
291277,,6 West Borough,Wimborne,Dorset,THE TIFFIN BOX,Restaurant/Cafe/Canteen,1,10,,705585,10,,50.80109800000000,86995,085,EnvironmentalHealth@christchurchandeastdorset.gov.uk,East Dorset,http://www.dorsetforyou.gov.uk,-1.98830900000000,BH21 1NF,2014-09-29,fhrs_3_en-GB,3,,FHRS,10
291278,,Pamphill,Wimborne,Dorset,The Vine Inn,Pub/bar/nightclub,7843,5,,340827,5,,50.80271530151370,7265,085,EnvironmentalHealth@christchurchandeastdorset.gov.uk,East Dorset,http://www.dorsetforyou.gov.uk,-2.00960898399353,BH21 4EE,2014-02-11,fhrs_5_en-GB,5,,FHRS,5
291279,,52 High Street,Sixpenny Handley,Dorset,THE WALNUT TREE GALLERY,Retailers - other,4613,10,,467953,5,,50.95428400000000,19885,085,EnvironmentalHealth@christchurchandeastdorset.gov.uk,East Dorset,http://www.dorsetforyou.gov.uk,-2.00556900000000,SP5 5ND,2012-10-25,fhrs_4_en-GB,4,,FHRS,5
291280,,6 Corn Market,Wimborne Minster,Dorset,THE WHITE HART,Pub/bar/nightclub,7843,10,,688773,5,,50.79949700000000,87086,085,EnvironmentalHealth@christchurchandeastdorset.gov.uk,East Dorset,http://www.dorsetforyou.gov.uk,-1.98894800000000,BH21 1JL,2014-07-31,fhrs_4_en-GB,4,,FHRS,5
291281,,519 Ringwood Road,Ferndown,Dorset,THE WHITE HEATHER,Pub/bar/nightclub,7843,0,,622319,5,,50.80120900000000,85875,085,EnvironmentalHealth@christchurchandeastdorset.gov.uk,East Dorset,http://www.dorsetforyou.gov.uk,-1.89073700000000,BH22 9AQ,2013-12-04,fhrs_5_en-GB,5,,FHRS,5
291282,Karamoor,Verwood Road,Three Legged Cross,Dorset,The Who'd Have Thought It,Restaurant/Cafe/Canteen,1,5,,340584,5,,50.86177100000000,43629,085,EnvironmentalHealth@christchurchandeastdorset.gov.uk,East Dorset,http://www.dorsetforyou.gov.uk,-1.87042000000000,BH21 6RR,2014-10-16,fhrs_5_en-GB,5,,FHRS,5
291283,,246 Ringwood Road,St Leonards,Dorset,THE WOODMAN,Pub/bar/nightclub,7843,5,,607216,5,,50.82109800000000,85885,085,EnvironmentalHealth@christchurchandeastdorset.gov.uk,East Dorset,http://www.dorsetforyou.gov.uk,-1.85485900000000,BH24 2SB,2013-10-31,fhrs_4_en-GB,4,,FHRS,10
291284,,,,,THREE COUNTIES VINTAGE & CLASSIC CAR CLUB,Pub/bar/nightclub,7843,,,340617,,,,48701,085,EnvironmentalHealth@christchurchandeastdorset.gov.uk,East Dorset,http://www.dorsetforyou.gov.uk,,,2011-09-02,fhrs_exempt_en-GB,Exempt,,FHRS,
291285,,Church Road,Three Legged Cross,"Wimborne, Dorset",THREE LEGGED CROSS FIRST SCHOO,School/college/university,7845,0,,633254,0,,50.85400900000000,7748,085,EnvironmentalHealth@christchurchandeastdorset.gov.uk,East Dorset,http://www.dorsetforyou.gov.uk,-1.88605400000000,BH21 6RF,2014-02-12,fhrs_5_en-GB,5,,FHRS,0
291286,,354 Ringwood Road,Ferndown,Dorset,Top Wok Original Ferndown,Takeaway/sandwich shop,7844,10,,340332,5,,50.80002300000000,15586,085,EnvironmentalHealth@christchurchandeastdorset.gov.uk,East Dorset,http://www.dorsetforyou.gov.uk,-1.89162000000000,BH22 9AT,2014-05-08,fhrs_4_en-GB,4,,FHRS,5
291287,Mill Court,Mill Lane,Wimborne Minster,Dorset,Topogigio Restaurant,Restaurant/Cafe/Canteen,1,5,,340802,5,,50.80018900000000,6852,085,EnvironmentalHealth@christchurchandeastdorset.gov.uk,East Dorset,http://www.dorsetforyou.gov.uk,-1.98690400000000,BH21 1JQ,2014-11-17,fhrs_4_en-GB,4,,FHRS,10
291288,,,,,TOPS DAY NURSERIES,Restaurant/Cafe/Canteen,1,5,,628129,5,,,52179,085,EnvironmentalHealth@christchurchandeastdorset.gov.uk,East Dorset,http://www.dorsetforyou.gov.uk,,,2014-01-14,fhrs_5_en-GB,5,,FHRS,5
291289,,Leigh Road,Wimborne Minster,Dorset,Tops Day Nurseries Ltd,Hospitals/Childcare/Caring Premises,5,0,,340318,0,,50.79949200000000,14732,085,EnvironmentalHealth@christchurchandeastdorset.gov.uk,East Dorset,http://www.dorsetforyou.gov.uk,-1.96451300000000,BH21 2BX,2014-10-06,fhrs_5_en-GB,5,,FHRS,0
291290,,,,,Tordoff Wines & Hampers Ltd,Retailers - other,4613,5,,340715,5,,,52015,085,EnvironmentalHealth@christchurchandeastdorset.gov.uk,East Dorset,http://www.dorsetforyou.gov.uk,,,2013-09-10,fhrs_4_en-GB,4,,FHRS,10
291291,,,,,TOUCH OF CLASS,Mobile caterer,7846,5,,340829,5,,,7287,085,EnvironmentalHealth@christchurchandeastdorset.gov.uk,East Dorset,http://www.dorsetforyou.gov.uk,,,2014-09-26,fhrs_4_en-GB,4,,FHRS,10
291292,,30 Victoria Road,Ferndown,Dorset,TRACY'S PLACE,Restaurant/Cafe/Canteen,1,5,,564575,5,,50.80207200000000,52160,085,EnvironmentalHealth@christchurchandeastdorset.gov.uk,East Dorset,http://www.dorsetforyou.gov.uk,-1.89023800000000,BH22 9HZ,2013-06-10,fhrs_5_en-GB,5,,FHRS,5
291293,,35 Cobham Road,Ferndown Industrial Estate,"Wimborne, Dorset",TRAVIS PERKINS,Retailers - other,4613,,,700111,,,,12878,085,EnvironmentalHealth@christchurchandeastdorset.gov.uk,East Dorset,http://www.dorsetforyou.gov.uk,,BH21 7NR,2014-09-09,fhrs_exempt_en-GB,Exempt,,FHRS,
291294,Verwood Methodist Church,Vicarage Road,Verwood,Dorset,Tuesday Lunch Club,Restaurant/Cafe/Canteen,1,5,,356629,5,,50.88020400000000,51936,085,EnvironmentalHealth@christchurchandeastdorset.gov.uk,East Dorset,http://www.dorsetforyou.gov.uk,-1.87716300000000,BH31 6DR,2013-11-12,fhrs_5_en-GB,5,,FHRS,5
291295,,"Corbin Avenue, Heatherlands Estate",Ferndown,Dorset,TURBARY CHURCH HALL - (HOPE CHURCH),Other catering premises,7841,5,,340916,5,,50.80837600000000,8048,085,EnvironmentalHealth@christchurchandeastdorset.gov.uk,East Dorset,http://www.dorsetforyou.gov.uk,-1.87231300000000,BH22 8AE,2014-02-28,fhrs_5_en-GB,5,,FHRS,5
291296,,5 Turbary Road,Ferndown,Dorset,Turbary Wines,Retailers - other,4613,10,,340709,10,,50.80890400000000,51974,085,EnvironmentalHealth@christchurchandeastdorset.gov.uk,East Dorset,http://www.dorsetforyou.gov.uk,-1.87817300000000,BH22 8AW,2014-01-22,fhrs_3_en-GB,3,,FHRS,10
291297,THE GREEN,Moorlands Road,Verwood,Dorset,VERWOOD BOWLING CLUB,Restaurant/Cafe/Canteen,1,,,340331,,,50.88347600000000,1557,085,EnvironmentalHealth@christchurchandeastdorset.gov.uk,East Dorset,http://www.dorsetforyou.gov.uk,-1.87652900000000,BH31 7PD,2014-04-29,fhrs_exempt_en-GB,Exempt,,FHRS,
291298,,Potterne Way,Verwood,Dorset,VERWOOD DAY NURSERY,Hospitals/Childcare/Caring Premises,5,0,,340734,0,,50.86647800000000,52066,085,EnvironmentalHealth@christchurchandeastdorset.gov.uk,East Dorset,http://www.dorsetforyou.gov.uk,-1.86627200000000,BH21 6RS,2014-09-03,fhrs_5_en-GB,5,,FHRS,0
291299,Verwood Sports And Social Club,Black Hill,Verwood,Dorset,VERWOOD SPORTS & SOCIAL CLUB,Restaurant/Cafe/Canteen,1,5,,340277,10,,50.87747800000000,1152,085,EnvironmentalHealth@christchurchandeastdorset.gov.uk,East Dorset,http://www.dorsetforyou.gov.uk,-1.86754800000000,BH31 6HA,2013-05-15,fhrs_3_en-GB,3,,FHRS,10
291300,,,,,VERWOOD UNITED REFORMED CHURCH,Other catering premises,7841,,,340316,,,,1469,085,EnvironmentalHealth@christchurchandeastdorset.gov.uk,East Dorset,http://www.dorsetforyou.gov.uk,,,2014-05-07,fhrs_exempt_en-GB,Exempt,,FHRS,
291301,,23 Eastbrook Row,Wimborne,Dorset,Vibe Lounge,Restaurant/Cafe/Canteen,1,5,,340678,5,,50.79869600000000,51874,085,EnvironmentalHealth@christchurchandeastdorset.gov.uk,East Dorset,http://www.dorsetforyou.gov.uk,-1.98551400000000,BH21 1HN,2012-08-29,fhrs_5_en-GB,5,,FHRS,5
291302,,Victoria Road,Wimborne,Dorset,VICTORIA HOSPITAL,Hospitals/Childcare/Caring Premises,5,5,,340813,5,,50.80220413208010,7035,085,EnvironmentalHealth@christchurchandeastdorset.gov.uk,East Dorset,http://www.dorsetforyou.gov.uk,-1.99592912197113,BH21 1ER,2014-07-18,fhrs_5_en-GB,5,,FHRS,0
291303,Vine Close Farm,Vines Close Farm,Dorchester Road,Sturminster Marshall,Vines Country Kitchen,Restaurant/Cafe/Canteen,1,5,,340636,5,,50.78706400000000,51320,085,EnvironmentalHealth@christchurchandeastdorset.gov.uk,East Dorset,http://www.dorsetforyou.gov.uk,-2.05810700000000,BH21 3RN,2014-05-21,fhrs_4_en-GB,4,,FHRS,10
291304,,Chiltern Drive,Verwood,Dorset,W M Morrisons,Retailers - supermarkets/hypermarkets,7840,0,,340402,0,,50.87701000000000,20127,085,EnvironmentalHealth@christchurchandeastdorset.gov.uk,East Dorset,http://www.dorsetforyou.gov.uk,-1.87582100000000,BH31 6UQ,2014-11-13,fhrs_5_en-GB,5,,FHRS,0
291305,,55 High Street,Sixpenny Handley,Dorset,W S Clarke & Sons,Retailers - other,4613,5,,340765,5,,50.95428400000000,5823,085,EnvironmentalHealth@christchurchandeastdorset.gov.uk,East Dorset,http://www.dorsetforyou.gov.uk,-2.00556900000000,SP5 5ND,2014-05-13,fhrs_5_en-GB,5,,FHRS,5
291306,Waitrose Limited,Rowlands Hill,Wimborne Minster,Dorset,Waitrose,Retailers - supermarkets/hypermarkets,7840,0,,340694,0,,50.80022500000000,51934,085,EnvironmentalHealth@christchurchandeastdorset.gov.uk,East Dorset,http://www.dorsetforyou.gov.uk,-1.98249100000000,BH21 1AN,2012-08-10,fhrs_5_en-GB,5,,FHRS,0
291307,Waitrose Limited,Rowlands Hill,Wimborne Minster,Dorset,Waitrose,Retailers - supermarkets/hypermarkets,7840,0,,340694,0,,50.80022500000000,51934,085,EnvironmentalHealth@christchurchandeastdorset.gov.uk,East Dorset,http://www.dorsetforyou.gov.uk,-1.98249100000000,BH21 1AN,2012-08-10,fhrs_5_en-GB,5,,FHRS,0
291308,,Ringwood Road,Three Legged Cross,"Wimborne, Dorset",Waterloo Care Home,Hospitals/Childcare/Caring Premises,5,10,,340884,5,,50.84892400000000,7749,085,EnvironmentalHealth@christchurchandeastdorset.gov.uk,East Dorset,http://www.dorsetforyou.gov.uk,-1.88162000000000,BH21 6RD,2014-03-10,fhrs_4_en-GB,4,,FHRS,5
291309,Allendale Community Centre,Hanham Road,Wimborne Minster,Dorset,Waterside Restaurant,Restaurant/Cafe/Canteen,1,,,340787,,,50.80112400000000,6660,085,EnvironmentalHealth@christchurchandeastdorset.gov.uk,East Dorset,http://www.dorsetforyou.gov.uk,-1.98479000000000,BH21 1AS,2014-01-10,fhrs_5_en-GB,5,,FHRS,
291310,,42 Ringwood Road,Verwood,Dorset,Waypoints,Hospitals/Childcare/Caring Premises,5,5,,340545,0,,50.88066700000000,37215,085,EnvironmentalHealth@christchurchandeastdorset.gov.uk,East Dorset,http://www.dorsetforyou.gov.uk,-1.87316800000000,BH31 7AH,2014-04-08,fhrs_5_en-GB,5,,FHRS,5
291311,,165 Station Road,West Moors,Dorset,Webbs,Retailers - other,4613,0,,340692,0,,50.82479500000000,51927,085,EnvironmentalHealth@christchurchandeastdorset.gov.uk,East Dorset,http://www.dorsetforyou.gov.uk,-1.88917700000000,BH22 0HT,2013-09-18,fhrs_5_en-GB,5,,FHRS,5
291312,Clayford Farm,Uddens Drive,Colehill,Dorset,WESSEX SAUSAGE COMPANY LTD,Manufacturers/packers,7839,20,,340505,5,,50.82627500000000,2549,085,EnvironmentalHealth@christchurchandeastdorset.gov.uk,East Dorset,http://www.dorsetforyou.gov.uk,-1.91646200000000,BH21 7BJ,2014-12-30,fhrs_1_en-GB,1,,FHRS,10
291313,,,,,WEST COUNTRY CATERING,Mobile caterer,7846,5,,550461,5,,,16432,085,EnvironmentalHealth@christchurchandeastdorset.gov.uk,East Dorset,http://www.dorsetforyou.gov.uk,,,2014-09-10,fhrs_4_en-GB,4,,FHRS,10
291314,,,,,WEST COUNTRY PRESERVES,Retailers - other,4613,0,,607211,5,,,52197,085,EnvironmentalHealth@christchurchandeastdorset.gov.uk,East Dorset,http://www.dorsetforyou.gov.uk,,,2013-06-24,fhrs_5_en-GB,5,,FHRS,0
291315,,Station Road,West Moors,Dorset,West Moors Memorial Bowling Club,Other catering premises,7841,5,,340871,10,,50.83344700000000,7682,085,EnvironmentalHealth@christchurchandeastdorset.gov.uk,East Dorset,http://www.dorsetforyou.gov.uk,-1.89000900000000,BH22 0JG,2012-04-30,fhrs_4_en-GB,4,,FHRS,5
291316,West Moors Middle School,Heathfield Way,West Moors,Dorset,WEST MOORS SCHOOL CATERING,School/college/university,7845,0,,340523,5,,50.82055400000000,3213,085,EnvironmentalHealth@christchurchandeastdorset.gov.uk,East Dorset,http://www.dorsetforyou.gov.uk,-1.87428100000000,BH22 0DA,2013-12-12,fhrs_5_en-GB,5,,FHRS,0
291317,,Ringwood Road,West Moors,"Ferndown, Dorset",WEST MOORS SERVICE STATION,Retailers - other,4613,5,,340867,5,,50.80635100000000,7662,085,EnvironmentalHealth@christchurchandeastdorset.gov.uk,East Dorset,http://www.dorsetforyou.gov.uk,-1.88584100000000,BH22 0AB,2014-09-08,fhrs_4_en-GB,4,,FHRS,10
291318,,201 Ringwood Road,Longham,"Ferndown, Dorset",White Hart,Restaurant/Cafe/Canteen,1,5,,340339,5,,50.78308600000000,15931,085,EnvironmentalHealth@christchurchandeastdorset.gov.uk,East Dorset,http://www.dorsetforyou.gov.uk,-1.90812700000000,BH22 9AB,2014-01-22,fhrs_4_en-GB,4,,FHRS,10
291319,White Owls,Horton Way,Verwood,Dorset,White Owls B&B,Hotel/bed & breakfast/guest house,7842,5,,340542,5,,50.87156200000000,36337,085,EnvironmentalHealth@christchurchandeastdorset.gov.uk,East Dorset,http://www.dorsetforyou.gov.uk,-1.89560400000000,BH31 6JJ,2013-05-02,fhrs_5_en-GB,5,,FHRS,5
291320,,,,,Whites Bites,Mobile caterer,7846,10,,340398,5,,,19762,085,EnvironmentalHealth@christchurchandeastdorset.gov.uk,East Dorset,http://www.dorsetforyou.gov.uk,,,2013-07-31,fhrs_4_en-GB,4,,FHRS,5
291321,,32 Church Road,Ferndown,Dorset,WIDGERY,Hospitals/Childcare/Caring Premises,5,5,,340501,5,,50.80171700000000,2522,085,EnvironmentalHealth@christchurchandeastdorset.gov.uk,East Dorset,http://www.dorsetforyou.gov.uk,-1.89543300000000,BH22 9EU,2013-09-27,fhrs_5_en-GB,5,,FHRS,5
291322,,179-181 Wimborne Road West,Ferndown,Dorset,Wimborne Care Home,Hospitals/Childcare/Caring Premises,5,0,,340614,0,,50.80341800000000,4842,085,EnvironmentalHealth@christchurchandeastdorset.gov.uk,East Dorset,http://www.dorsetforyou.gov.uk,-1.93448200000000,BH21 2DJ,2014-02-03,fhrs_5_en-GB,5,,FHRS,5
291323,,Wimborne Masonic Hall,Corn Market,"Wimborne, Dorset",Wimborne Catering Services Limited,Other catering premises,7841,5,,340886,10,,50.79949700000000,7777,085,EnvironmentalHealth@christchurchandeastdorset.gov.uk,East Dorset,http://www.dorsetforyou.gov.uk,-1.98894800000000,BH21 1JL,2012-09-06,fhrs_4_en-GB,4,,FHRS,5
291324,,4 Redcotts,West Borough,Wimborne,WIMBORNE CATERING SERVICES LTD,Other catering premises,7841,5,,536320,10,,50.80087300000000,52172,085,EnvironmentalHealth@christchurchandeastdorset.gov.uk,East Dorset,http://www.dorsetforyou.gov.uk,-1.98947300000000,BH21 1JX,2014-11-17,fhrs_4_en-GB,4,,FHRS,5
291325,,229 Wimborne Road West,Stapehill,Wimborne,Wimborne Garden Centre,Restaurant/Cafe/Canteen,1,5,,340696,5,,50.80439600000000,51941,085,EnvironmentalHealth@christchurchandeastdorset.gov.uk,East Dorset,http://www.dorsetforyou.gov.uk,-1.93082000000000,BH21 2DN,2014-05-09,fhrs_2_en-GB,2,,FHRS,15
291326,,17 Eastbrook Row,Wimborne,Dorset,WIMBORNE KEBAB HOUSE,Takeaway/sandwich shop,7844,5,,340302,5,,50.79869600000000,13973,085,EnvironmentalHealth@christchurchandeastdorset.gov.uk,East Dorset,http://www.dorsetforyou.gov.uk,-1.98551400000000,BH21 1HN,2014-10-12,fhrs_4_en-GB,4,,FHRS,10
291327,,45 Leigh Road,Wimborne Minster,Dorset,WIMBORNE LODGE B&B,Hotel/bed & breakfast/guest house,7842,0,,340262,5,,50.79803000000000,10313,085,EnvironmentalHealth@christchurchandeastdorset.gov.uk,East Dorset,http://www.dorsetforyou.gov.uk,-1.98008000000000,BH21 1AE,2014-01-22,fhrs_5_en-GB,5,,FHRS,0
291328,,4A King Street,Wimborne Minster,Dorset,Wimborne Methodist Church Hall,Other catering premises,7841,10,,340793,5,,50.79836400000000,6745,085,EnvironmentalHealth@christchurchandeastdorset.gov.uk,East Dorset,http://www.dorsetforyou.gov.uk,-1.98897700000000,BH21 1DY,2013-07-23,fhrs_4_en-GB,4,,FHRS,0
291329,,16 King Street,Wimborne Minster,Dorset,WIMBORNE MODEL TOWN,Restaurant/Cafe/Canteen,1,5,,340792,5,,50.79836400000000,6741,085,EnvironmentalHealth@christchurchandeastdorset.gov.uk,East Dorset,http://www.dorsetforyou.gov.uk,-1.98897700000000,BH21 1DY,2013-06-06,fhrs_5_en-GB,5,,FHRS,5
291330,,Leigh Park,Gordon Road,"Wimborne, Dorset",Wimborne Rugby Football Club,Pub/bar/nightclub,7843,0,,340784,5,,50.79677000000000,6622,085,EnvironmentalHealth@christchurchandeastdorset.gov.uk,East Dorset,http://www.dorsetforyou.gov.uk,-1.97178000000000,BH21 2AP,2014-12-06,fhrs_5_en-GB,5,,FHRS,0
291331,Wimborne Service Station,,Corfe Mullen,Dorset,WIMBORNE SERVICE STATION,Retailers - other,4613,5,,340421,5,,50.78964100000000,20949,085,EnvironmentalHealth@christchurchandeastdorset.gov.uk,East Dorset,http://www.dorsetforyou.gov.uk,-2.01164900000000,BH21 3HA,2013-03-15,fhrs_5_en-GB,5,,FHRS,5
291332,,Wimborne St Giles,Wimborne,Dorset,Wimborne St Giles CE VA First - Kitchen,School/college/university,7845,5,,340690,5,,50.90924453735352,51925,085,EnvironmentalHealth@christchurchandeastdorset.gov.uk,East Dorset,http://www.dorsetforyou.gov.uk,-1.95784544944763,BH21 5LX,2013-07-09,fhrs_5_en-GB,5,,FHRS,5
291333,,2 Leigh Road,Wimborne Minster,Dorset,WIMBORNE TANDOORI RESTAURANT,Restaurant/Cafe/Canteen,1,5,,340797,10,,50.79786000000000,6799,085,EnvironmentalHealth@christchurchandeastdorset.gov.uk,East Dorset,http://www.dorsetforyou.gov.uk,-1.98301700000000,BH21 1AF,2014-10-20,fhrs_4_en-GB,4,,FHRS,5
291334,Wimborne Town Football Club,Cowgrove Road,Wimborne Minster,Dorset,WIMBORNE TOWN FOOTBALL CLUB LTD,Other catering premises,7841,,,408286,,,50.80000900000000,14526,085,EnvironmentalHealth@christchurchandeastdorset.gov.uk,East Dorset,http://www.dorsetforyou.gov.uk,-2.01451800000000,BH21 4EL,2014-06-16,fhrs_4_en-GB,4,,FHRS,
291335,Witchampton & Crichel Club,Crichel Park,Witchampton,Dorset,Witchampton and Crichel Sport Club,Pub/bar/nightclub,7843,,,340911,,,50.85814500000000,8002,085,EnvironmentalHealth@christchurchandeastdorset.gov.uk,East Dorset,http://www.dorsetforyou.gov.uk,-2.01720700000000,BH21 5AP,2013-09-09,fhrs_exempt_en-GB,Exempt,,FHRS,
291336,,Witchampton,Wimborne,Dorset,WITCHAMPTON C E FIRST SCHOOL,School/college/university,7845,5,,732411,5,,50.85814666748047,8001,085,EnvironmentalHealth@christchurchandeastdorset.gov.uk,East Dorset,http://www.dorsetforyou.gov.uk,-2.01720738410950,BH21 5AP,2015-01-14,fhrs_5_en-GB,5,,FHRS,5
291337,,Old Barn Farm Road,Woolsbridge Industrial Estate,Three Legged Cross,Woolsbridge Snack Bar,Mobile caterer,7846,10,,340703,5,,50.84302500000000,51963,085,EnvironmentalHealth@christchurchandeastdorset.gov.uk,East Dorset,http://www.dorsetforyou.gov.uk,-1.86531600000000,BH21 6SP,2014-11-04,fhrs_3_en-GB,3,,FHRS,10
291338,,Dorchester Road,Almer,"Blandford, Dorset",WORLDS END INN,Pub/bar/nightclub,7843,0,,340821,5,,50.78255300000000,7158,085,EnvironmentalHealth@christchurchandeastdorset.gov.uk,East Dorset,http://www.dorsetforyou.gov.uk,-2.13201700000000,DT11 9EW,2013-10-29,fhrs_4_en-GB,4,,FHRS,10
