,addressline1,addressline2,addressline3,addressline4,businessname,businesstype,businesstypeid,confidenceinmanagement,extractdate,fhrsid,hygiene,itemcount,latitude,localauthoritybusinessid,localauthoritycode,localauthorityemailaddress,localauthorityname,localauthoritywebsite,longitude,postcode,ratingdate,ratingkey,ratingvalue,returncode,schemetype,structural
296948,Royal School of Signals,Nelson Road,Blandford Camp,Blandford Forum,20/20,Pub/bar/nightclub,7843,5,,341758,5,,50.86830400000000,24514,086,envlicens@north-dorset.gov.uk,North Dorset,http://www.dorsetforyou.com,-2.12511200000000,DT11 8RH,2013-01-31,fhrs_5_en-GB,5,,FHRS,5
296949,,,,,3 Ivy Cross (Bed and Breakfast),Hotel/bed & breakfast/guest house,7842,,,643928,,,,37611,086,envlicens@north-dorset.gov.uk,North Dorset,http://www.dorsetforyou.com,,,2014-04-14,fhrs_exempt_en-GB,Exempt,,FHRS,
296950,,Station Road,Gillingham,Dorset,918,Restaurant/Cafe/Canteen,1,5,,331609,10,,51.03496700000000,36682,086,envlicens@north-dorset.gov.uk,North Dorset,http://www.dorsetforyou.com,-2.27304000000000,SP8 4QA,2014-02-26,fhrs_4_en-GB,4,,FHRS,5
296951,,,,,A Different Kettle of Fish,Retailers - other,4613,,,331593,,,,35956,086,envlicens@north-dorset.gov.uk,North Dorset,http://www.dorsetforyou.com,,,2014-02-28,fhrs_exempt_en-GB,Exempt,,FHRS,
296952,,,,,A J Catering,Mobile caterer,7846,5,,331800,5,,,37118,086,envlicens@north-dorset.gov.uk,North Dorset,http://www.dorsetforyou.com,,,2013-03-11,fhrs_5_en-GB,5,,FHRS,5
296953,,7a East Street,Blandford Forum,Dorset,A-55 Tearoom,Restaurant/Cafe/Canteen,1,5,,571751,5,,50.85638100000000,37530,086,envlicens@north-dorset.gov.uk,North Dorset,http://www.dorsetforyou.com,-2.16098100000000,DT11 7DU,2013-07-23,fhrs_5_en-GB,5,,FHRS,5
296954,,,,,Abbey Tuck Shop,Retailers - other,4613,,,331627,,,,36794,086,envlicens@north-dorset.gov.uk,North Dorset,http://www.dorsetforyou.com,,,2015-01-08,fhrs_exempt_en-GB,Exempt,,FHRS,
296955,,9 Bell Street,Shaftesbury,Dorset,Abbotts Greengrocers,Retailers - other,4613,,,331589,,,51.00662300000000,35714,086,envlicens@north-dorset.gov.uk,North Dorset,http://www.dorsetforyou.com,-2.19706300000000,SP7 8AR,2011-09-22,fhrs_exempt_en-GB,Exempt,,FHRS,
296956,,The Chalk,Iwerne Minster,Blandford Forum,Abingdon Hall,Other catering premises,7841,,,341674,,,50.92798800000000,15884,086,envlicens@north-dorset.gov.uk,North Dorset,http://www.dorsetforyou.com,-2.19058300000000,DT11 8NA,2013-12-12,fhrs_exempt_en-GB,Exempt,,FHRS,
296957,,,,,Absolute Catering/Billies Baguettes,Other catering premises,7841,0,,331759,5,,,37031,086,envlicens@north-dorset.gov.uk,North Dorset,http://www.dorsetforyou.com,,,2014-05-17,fhrs_5_en-GB,5,,FHRS,0
296958,,Burton Street,Marnhull,Sturminster Newton,Adrian Curtis Family Butcher,Manufacturers/packers,7839,10,,341844,15,,50.97378200000000,36628,086,envlicens@north-dorset.gov.uk,North Dorset,http://www.dorsetforyou.com,-2.32282900000000,DT10 1PH,2013-11-30,fhrs_2_en-GB,2,,FHRS,10
296959,The Exchange,Old Market Hill,Sturminster Newton,Dorset,Age Concern Luncheon Club,Other catering premises,7841,5,,341840,5,,50.92764700000000,36623,086,envlicens@north-dorset.gov.uk,North Dorset,http://www.dorsetforyou.com,-2.30436800000000,DT10 1FH,2013-10-17,fhrs_5_en-GB,5,,FHRS,0
296960,,,,,Ajar Of,Other catering premises,7841,10,,451599,5,,,37271,086,envlicens@north-dorset.gov.uk,North Dorset,http://www.dorsetforyou.com,,,2013-07-29,fhrs_4_en-GB,4,,FHRS,5
296961,,High Street,Gillingham,Dorset,American Pizza,Takeaway/sandwich shop,7844,5,,341830,5,,51.03790600000000,35747,086,envlicens@north-dorset.gov.uk,North Dorset,http://www.dorsetforyou.com,-2.27747900000000,SP8 4AW,2014-03-01,fhrs_5_en-GB,5,,FHRS,5
296962,,,,,Amisha's Spice Pot,Other catering premises,7841,5,,341909,5,,,37077,086,envlicens@north-dorset.gov.uk,North Dorset,http://www.dorsetforyou.com,,,2012-03-21,fhrs_5_en-GB,5,,FHRS,5
296963,,,,,Ampersand House Bed & Breakfast,Hotel/bed & breakfast/guest house,7842,,,451600,,,,37286,086,envlicens@north-dorset.gov.uk,North Dorset,http://www.dorsetforyou.com,,,2012-09-12,fhrs_exempt_en-GB,Exempt,,FHRS,
296964,,,,,Angel Cottage Organics,Other catering premises,7841,,,664224,,,,37640,086,envlicens@north-dorset.gov.uk,North Dorset,http://www.dorsetforyou.com,,,2014-05-09,fhrs_exempt_en-GB,Exempt,,FHRS,
296965,,,,,Angelarts,Other catering premises,7841,,,341922,,,,37160,086,envlicens@north-dorset.gov.uk,North Dorset,http://www.dorsetforyou.com,,,2011-11-21,fhrs_exempt_en-GB,Exempt,,FHRS,
296966,,,,,Anonymous in Dorset,Other catering premises,7841,,,331757,,,,37029,086,envlicens@north-dorset.gov.uk,North Dorset,http://www.dorsetforyou.com,,,2011-11-22,fhrs_exempt_en-GB,Exempt,,FHRS,
296967,,,,,Anonymous in Dorset,Other catering premises,7841,0,,331767,0,,,37042,086,envlicens@north-dorset.gov.uk,North Dorset,http://www.dorsetforyou.com,,,2011-11-22,fhrs_5_en-GB,5,,FHRS,5
296968,,,,,Ansty Rose Bed & Breakfast,Hotel/bed & breakfast/guest house,7842,,,331649,,,,36832,086,envlicens@north-dorset.gov.uk,North Dorset,http://www.dorsetforyou.com,,,2011-05-16,fhrs_exempt_en-GB,Exempt,,FHRS,
296969,,Hartfoot Lane,Ansty,Dorchester,Ansty Village Hall,Other catering premises,7841,,,331577,,,50.82772800000000,35545,086,envlicens@north-dorset.gov.uk,North Dorset,http://www.dorsetforyou.com,-2.33523700000000,DT2 7PN,2011-11-22,fhrs_exempt_en-GB,Exempt,,FHRS,
296970,Pidney,Hazelbury Bryan,Sturminster Newton,Dorset,Antelope Inn,Pub/bar/nightclub,7843,5,,341736,10,,50.87857700000000,21731,086,envlicens@north-dorset.gov.uk,North Dorset,http://www.dorsetforyou.com,-2.36071800000000,DT10 2EB,2013-08-10,fhrs_4_en-GB,4,,FHRS,5
296971,,Anvil Road,Pimperne,Blandford Forum,Anvil Hotel,Pub/bar/nightclub,7843,10,,341854,5,,50.88333700000000,36677,086,envlicens@north-dorset.gov.uk,North Dorset,http://www.dorsetforyou.com,-2.13520300000000,DT11 8UQ,2013-10-05,fhrs_3_en-GB,3,,FHRS,10
296972,,,,,Appletree Cottage B&B,Hotel/bed & breakfast/guest house,7842,,,389916,,,,37219,086,envlicens@north-dorset.gov.uk,North Dorset,http://www.dorsetforyou.com,,,2012-05-28,fhrs_exempt_en-GB,Exempt,,FHRS,
296973,,Black Lane,Blandford Forum,Dorset,Arch Bishop Wake Primary School,School/college/university,7845,5,,341705,5,,50.85755000000000,17293,086,envlicens@north-dorset.gov.uk,North Dorset,http://www.dorsetforyou.com,-2.15383900000000,DT11 8SW,2013-01-16,fhrs_5_en-GB,5,,FHRS,5
296974,Hyde Farm,Salisbury Road,Pimperne,Blandford Forum,Archway Nursery,Hospitals/Childcare/Caring Premises,5,0,,341738,5,,50.87963200000000,21904,086,envlicens@north-dorset.gov.uk,North Dorset,http://www.dorsetforyou.com,-2.13550500000000,DT11 8TX,2013-10-16,fhrs_5_en-GB,5,,FHRS,5
296975,,44-48 East Street,Blandford Forum,Dorset,Argos,Retailers - other,4613,,,331429,,,50.85682100000000,17186,086,envlicens@north-dorset.gov.uk,North Dorset,http://www.dorsetforyou.com,-2.16136600000000,DT11 7DR,2011-09-22,fhrs_exempt_en-GB,Exempt,,FHRS,
296976,,,,,Arnewood House Bed & Breakfast,Hotel/bed & breakfast/guest house,7842,,,331742,,,,37009,086,envlicens@north-dorset.gov.uk,North Dorset,http://www.dorsetforyou.com,,,2011-11-22,fhrs_exempt_en-GB,Exempt,,FHRS,
296977,,2 Bell Street,Shaftesbury,Dorset,Aroma Indian Cuisine,Restaurant/Cafe/Canteen,1,5,,341825,10,,51.00662300000000,35587,086,envlicens@north-dorset.gov.uk,North Dorset,http://www.dorsetforyou.com,-2.19706300000000,SP7 8AR,2013-08-27,fhrs_3_en-GB,3,,FHRS,10
296978,,Station Road,Gillingham,Dorset,Asda,Retailers - other,4613,5,,331594,5,,51.03496700000000,36307,086,envlicens@north-dorset.gov.uk,North Dorset,http://www.dorsetforyou.com,-2.27304000000000,SP8 4QA,2013-07-10,fhrs_5_en-GB,5,,FHRS,5
296979,,Wimborne Road,Blandford Forum,Dorset,Ashley Wood Golf Club,Pub/bar/nightclub,7843,0,,331543,0,,50.86049400000000,29640,086,envlicens@north-dorset.gov.uk,North Dorset,http://www.dorsetforyou.com,-2.12895600000000,DT11 9HN,2014-10-26,fhrs_4_en-GB,4,,FHRS,10
296980,4 The Centre,High Street,Gillingham,Dorset,Ashley's,Restaurant/Cafe/Canteen,1,5,,636993,5,,51.03706100000000,37659,086,envlicens@north-dorset.gov.uk,North Dorset,http://www.dorsetforyou.com,-2.27343700000000,SP8 4AB,2014-03-04,fhrs_5_en-GB,5,,FHRS,5
296981,Middlefield House,Marlott Road,Gillingham,Dorset,Baby Grows Day Nursery,Hospitals/Childcare/Caring Premises,5,5,,331600,0,,51.04774900000000,36630,086,envlicens@north-dorset.gov.uk,North Dorset,http://www.dorsetforyou.com,-2.28273000000000,SP8 4FA,2013-10-08,fhrs_5_en-GB,5,,FHRS,0
296982,,The Cross,Child Okeford,Blandford Forum,Bakers Arms,Pub/bar/nightclub,7843,5,,341704,5,,50.91379500000000,17286,086,envlicens@north-dorset.gov.uk,North Dorset,http://www.dorsetforyou.com,-2.23605700000000,DT11 8ED,2014-03-24,fhrs_4_en-GB,4,,FHRS,10
296983,,54c High Street,Shaftesbury,Dorset,Bargains,Retailers - other,4613,,,331406,,,51.00647400000000,16124,086,envlicens@north-dorset.gov.uk,North Dorset,http://www.dorsetforyou.com,-2.19491000000000,SP7 8AA,2013-12-12,fhrs_exempt_en-GB,Exempt,,FHRS,
296984,,Barton Hill,Shaftesbury,Dorset,Barton Hill House School,Other catering premises,7841,0,,331532,5,,51.00793400000000,28331,086,envlicens@north-dorset.gov.uk,North Dorset,http://www.dorsetforyou.com,-2.19331900000000,SP7 8DQ,2013-11-09,fhrs_5_en-GB,5,,FHRS,5
296985,,,,,Bassets Bed & Breakfast,Hotel/bed & breakfast/guest house,7842,,,455654,,,,37307,086,envlicens@north-dorset.gov.uk,North Dorset,http://www.dorsetforyou.com,,,2012-07-04,fhrs_exempt_en-GB,Exempt,,FHRS,
296986,,13-15 West Street,Blandford Forum,Dorset,Bay Leaf,Restaurant/Cafe/Canteen,1,20,,341819,5,,50.85521300000000,35409,086,envlicens@north-dorset.gov.uk,North Dorset,http://www.dorsetforyou.com,-2.16640400000000,DT11 7AW,2014-09-11,fhrs_1_en-GB,1,,FHRS,10
296987,Greyhound House,2 Market Place,Blandford Forum,Dorset,Beatons Tearooms Ltd,Restaurant/Cafe/Canteen,1,5,,724161,5,,50.85571000000000,40035,086,envlicens@north-dorset.gov.uk,North Dorset,http://www.dorsetforyou.com,-2.16494300000000,DT11 7EB,2014-12-09,fhrs_5_en-GB,5,,FHRS,0
296988,,,,,Beautiful Buffets,Other catering premises,7841,5,,341937,5,,,7372,086,envlicens@north-dorset.gov.uk,North Dorset,http://www.dorsetforyou.com,,,2014-06-03,fhrs_5_en-GB,5,,FHRS,0
296989,,,,,Beechcroft Bed & Breakfast,Hotel/bed & breakfast/guest house,7842,,,331763,,,,37036,086,envlicens@north-dorset.gov.uk,North Dorset,http://www.dorsetforyou.com,,,2011-11-22,fhrs_exempt_en-GB,Exempt,,FHRS,
296990,,79 Mill Lane,Durweston,Blandford Forum,Beggars Banquet (Mobile),Mobile caterer,7846,,,586698,,,50.87916100000000,37238,086,envlicens@north-dorset.gov.uk,North Dorset,http://www.dorsetforyou.com,-2.20540700000000,DT11 0QE,2013-11-06,fhrs_exempt_en-GB,Exempt,,FHRS,
296991,Mustons Mews,Mustons Lane,Shaftesbury,Dorset,Beggars' Banquet Music Cafe,Restaurant/Cafe/Canteen,1,5,,341686,5,,51.00677900000000,16169,086,envlicens@north-dorset.gov.uk,North Dorset,http://www.dorsetforyou.com,-2.19569500000000,SP7 8AD,2015-01-20,fhrs_5_en-GB,5,,FHRS,5
296992,,,,,Bere Marsh Farm,Retailers - other,4613,,,331668,,,,36872,086,envlicens@north-dorset.gov.uk,North Dorset,http://www.dorsetforyou.com,,,2011-11-02,fhrs_exempt_en-GB,Exempt,,FHRS,
296993,,,,,Bere Marsh House,Other catering premises,7841,,,341875,,,,36866,086,envlicens@north-dorset.gov.uk,North Dorset,http://www.dorsetforyou.com,,,2013-05-16,fhrs_exempt_en-GB,Exempt,,FHRS,
296994,,,,,Berry's Bakes,Other catering premises,7841,5,,627766,5,,,37573,086,envlicens@north-dorset.gov.uk,North Dorset,http://www.dorsetforyou.com,,,2014-01-10,fhrs_5_en-GB,5,,FHRS,5
296995,,63 East Street,Blandford Forum,Dorset,Best One,Retailers - other,4613,20,,608729,10,,50.85585600000000,15755,086,envlicens@north-dorset.gov.uk,North Dorset,http://www.dorsetforyou.com,-2.16339500000000,DT11 7DX,2013-10-23,fhrs_1_en-GB,1,,FHRS,15
296996,,,,,Bethellbridge Bakery,Other catering premises,7841,,,576565,,,,37460,086,envlicens@north-dorset.gov.uk,North Dorset,http://www.dorsetforyou.com,,,2013-05-03,fhrs_exempt_en-GB,Exempt,,FHRS,
296997,,,,,Bhatti Wraps,Retailers - other,4613,10,,341851,10,,,36645,086,envlicens@north-dorset.gov.uk,North Dorset,http://www.dorsetforyou.com,,,2013-05-29,fhrs_3_en-GB,3,,FHRS,10
296998,,,,,Blackmore Farm Cottage Bed & Breakfast,Hotel/bed & breakfast/guest house,7842,,,331741,,,,37008,086,envlicens@north-dorset.gov.uk,North Dorset,http://www.dorsetforyou.com,,,2011-09-22,fhrs_exempt_en-GB,Exempt,,FHRS,
296999,Coking Farm,Shaftesbury Road,West Stour,Gillingham,Blackmore Vale Butchery,Manufacturers/packers,7839,5,,341879,5,,50.99261400000000,36877,086,envlicens@north-dorset.gov.uk,North Dorset,http://www.dorsetforyou.com,-2.34108400000000,SP8 5SF,2014-03-31,fhrs_5_en-GB,5,,FHRS,5
297000,,Sherborne Causeway,Shaftesbury,Dorset,Blackmore Vale Filling Station,Retailers - other,4613,,,331457,,,51.00945000000000,18413,086,envlicens@north-dorset.gov.uk,North Dorset,http://www.dorsetforyou.com,-2.23856700000000,SP7 9PX,2011-08-06,fhrs_exempt_en-GB,Exempt,,FHRS,
297001,,Burton Street,Marnhull,Sturminster Newton,Blackmore Vale Inn,Pub/bar/nightclub,7843,5,,341656,5,,50.97429000000000,13579,086,envlicens@north-dorset.gov.uk,North Dorset,http://www.dorsetforyou.com,-2.32440000000000,DT10 1JJ,2014-03-20,fhrs_5_en-GB,5,,FHRS,5
297002,,Park Road,Blandford Forum,Dorset,Blandford Bowling Club,Pub/bar/nightclub,7843,,,331501,,,50.86001800000000,24077,086,envlicens@north-dorset.gov.uk,North Dorset,http://www.dorsetforyou.com,-2.16436100000000,DT11 7BX,2014-02-21,fhrs_exempt_en-GB,Exempt,,FHRS,
297003,,Black Lane,Blandford Forum,Dorset,Blandford Childrens Centre (Incorporating Oscars),Other catering premises,7841,5,,331708,0,,50.85755000000000,36952,086,envlicens@north-dorset.gov.uk,North Dorset,http://www.dorsetforyou.com,-2.15383900000000,DT11 8SW,2013-09-05,fhrs_5_en-GB,5,,FHRS,0
297004,,Milldown Road,Blandford Forum,Dorset,Blandford Community Hospital,Hospitals/Childcare/Caring Premises,5,5,,331817,5,,50.86332200000000,4018,086,envlicens@north-dorset.gov.uk,North Dorset,http://www.dorsetforyou.com,-2.16818100000000,DT11 7DD,2014-01-09,fhrs_5_en-GB,5,,FHRS,5
297005,Dale House,Salisbury Street,Blandford Forum,Dorset,Blandford Constitutional Club,Pub/bar/nightclub,7843,,,341672,,,50.85857000000000,15861,086,envlicens@north-dorset.gov.uk,North Dorset,http://www.dorsetforyou.com,-2.16428500000000,DT11 7PY,2014-11-28,fhrs_exempt_en-GB,Exempt,,FHRS,
297006,Sunnydale,Albert Street,Blandford Forum,Dorset,Blandford Evangelical Church,Other catering premises,7841,,,331669,,,50.85968300000000,36876,086,envlicens@north-dorset.gov.uk,North Dorset,http://www.dorsetforyou.com,-2.15945800000000,DT11 7HZ,2013-01-02,fhrs_exempt_en-GB,Exempt,,FHRS,
297007,,The Tabernacle,Blandford Forum,Dorset,Blandford Forum Parish Church Hall,Other catering premises,7841,5,,341836,5,,50.85663800000000,36496,086,envlicens@north-dorset.gov.uk,North Dorset,http://www.dorsetforyou.com,-2.16326900000000,DT11 7DW,2013-10-24,fhrs_5_en-GB,5,,FHRS,5
297008,,Milldown Road,Blandford Forum,Dorset,Blandford Grange Care Home,Hospitals/Childcare/Caring Premises,5,0,,331642,0,,50.86264600000000,36817,086,envlicens@north-dorset.gov.uk,North Dorset,http://www.dorsetforyou.com,-2.16932900000000,DT11 7DE,2013-12-19,fhrs_5_en-GB,5,,FHRS,0
297009,Blandford Hospital,Milldown Road,Blandford Forum,Dorset,Blandford Hospital Trolley,Retailers - other,4613,,,627764,,,50.86332200000000,37514,086,envlicens@north-dorset.gov.uk,North Dorset,http://www.dorsetforyou.com,-2.16818100000000,DT11 7DD,2014-01-09,fhrs_exempt_en-GB,Exempt,,FHRS,
297010,,West Street,Blandford Forum,Dorset,Blandford Masonic Hall,Pub/bar/nightclub,7843,5,,341809,0,,50.85521300000000,34542,086,envlicens@north-dorset.gov.uk,North Dorset,http://www.dorsetforyou.com,-2.16640400000000,DT11 7AW,2013-10-05,fhrs_5_en-GB,5,,FHRS,5
297011,,The Close,Blandford Forum,Dorset,Blandford Methodist Lunch Club,Other catering premises,7841,5,,331431,5,,50.85715200000000,17227,086,envlicens@north-dorset.gov.uk,North Dorset,http://www.dorsetforyou.com,-2.16220600000000,DT11 7HA,2014-03-25,fhrs_5_en-GB,5,,FHRS,5
297012,Williams Opportunity Hall,Whitecliff Gardens,Blandford Forum,Dorset,Blandford Opportunity Group,Other catering premises,7841,,,331732,,,50.85944200000000,36990,086,envlicens@north-dorset.gov.uk,North Dorset,http://www.dorsetforyou.com,-2.16491300000000,DT11 7BU,2011-09-22,fhrs_exempt_en-GB,Exempt,,FHRS,
297013,,53a East Street,Blandford Forum,Dorset,Blandford Rugby Football Club,Pub/bar/nightclub,7843,,,331386,,,50.85585600000000,15753,086,envlicens@north-dorset.gov.uk,North Dorset,http://www.dorsetforyou.com,-2.16339500000000,DT11 7DX,2011-07-22,fhrs_exempt_en-GB,Exempt,,FHRS,
297014,,10-14 Salisbury Street,Blandford Forum,Dorset,Boots,Retailers - other,4613,,,331393,,,50.85664500000000,15826,086,envlicens@north-dorset.gov.uk,North Dorset,http://www.dorsetforyou.com,-2.16507400000000,DT11 7AR,2011-11-22,fhrs_exempt_en-GB,Exempt,,FHRS,
297015,,1 Market Place,Sturminster Newton,Dorset,Boots,Retailers - other,4613,,,341689,,,50.92634100000000,16250,086,envlicens@north-dorset.gov.uk,North Dorset,http://www.dorsetforyou.com,-2.30534100000000,DT10 1AS,2011-11-22,fhrs_exempt_en-GB,Exempt,,FHRS,
297016,,33 High Street,Shaftesbury,Dorset,Boots,Retailers - other,4613,,,331404,,,51.00605900000000,16111,086,envlicens@north-dorset.gov.uk,North Dorset,http://www.dorsetforyou.com,-2.19580600000000,SP7 8JE,2011-07-20,fhrs_exempt_en-GB,Exempt,,FHRS,
297017,Alliance Pharmacy,3 Salisbury Street,Blandford Forum,Dorset,Boots,Retailers - other,4613,,,331392,,,50.85663500000000,15820,086,envlicens@north-dorset.gov.uk,North Dorset,http://www.dorsetforyou.com,-2.16562800000000,DT11 7AU,2012-01-02,fhrs_exempt_en-GB,Exempt,,FHRS,
297018,,,,,Boozy Bakes,Other catering premises,7841,5,,586699,5,,,37521,086,envlicens@north-dorset.gov.uk,North Dorset,http://www.dorsetforyou.com,,,2013-09-04,fhrs_5_en-GB,5,,FHRS,5
297019,,Dorchester Road,Winterborne Zelston,Blandford Forum,Botany Bay Inne,Pub/bar/nightclub,7843,5,,341727,5,,50.77426800000000,20453,086,envlicens@north-dorset.gov.uk,North Dorset,http://www.dorsetforyou.com,-2.14878600000000,DT11 9ET,2013-01-14,fhrs_5_en-GB,5,,FHRS,5
297020,,West Bourton Road,Bourton,Gillingham,Bourton and Zeals Pre-school,Hospitals/Childcare/Caring Premises,5,,,331637,,,51.07155900000000,36811,086,envlicens@north-dorset.gov.uk,North Dorset,http://www.dorsetforyou.com,-2.33091700000000,SP8 5FG,2014-02-05,fhrs_exempt_en-GB,Exempt,,FHRS,
297021,,New Road,Bourton,Gillingham,Bourton Village Hall,Other catering premises,7841,,,331476,,,51.07329300000000,21522,086,envlicens@north-dorset.gov.uk,North Dorset,http://www.dorsetforyou.com,-2.32838900000000,SP8 5BJ,2011-11-22,fhrs_exempt_en-GB,Exempt,,FHRS,
297022,Brewery Farm,Ansty,Dorchester,Dorset,Brewery Farm Shop,Retailers - other,4613,5,,341799,5,,50.82772800000000,31814,086,envlicens@north-dorset.gov.uk,North Dorset,http://www.dorsetforyou.com,-2.33523700000000,DT2 7PN,2014-03-07,fhrs_5_en-GB,5,,FHRS,5
297023,Hall & Woodhouse,Bournemouth Road,Blandford St Mary,Blandford Forum,Brewery Shop & Visitors Centre,Restaurant/Cafe/Canteen,1,0,,331663,5,,50.85247400000000,36861,086,envlicens@north-dorset.gov.uk,North Dorset,http://www.dorsetforyou.com,-2.16392300000000,DT11 9LS,2015-01-13,fhrs_5_en-GB,5,,FHRS,5
297024,,,,,Broadclose Meats,Manufacturers/packers,7839,,,331682,,,,36919,086,envlicens@north-dorset.gov.uk,North Dorset,http://www.dorsetforyou.com,,,2011-09-22,fhrs_exempt_en-GB,Exempt,,FHRS,
297025,,,,,Brook Farm Bed & Breakfast,Hotel/bed & breakfast/guest house,7842,,,331736,,,,36999,086,envlicens@north-dorset.gov.uk,North Dorset,http://www.dorsetforyou.com,,,2011-09-22,fhrs_exempt_en-GB,Exempt,,FHRS,
297026,,Bryanston,Blandford Forum,Dorset,Bryanston Estate Club,Pub/bar/nightclub,7843,5,,341796,5,,50.86138916015625,31534,086,envlicens@north-dorset.gov.uk,North Dorset,http://www.dorsetforyou.com,-2.18546557426453,DT11 0PR,2012-07-06,fhrs_5_en-GB,5,,FHRS,5
297027,Bryanston Court,Chettell Way,Blandford St Mary,Blandford Forum,Bryanston Lunch Club,Other catering premises,7841,10,,636985,10,,50.84975700000000,37517,086,envlicens@north-dorset.gov.uk,North Dorset,http://www.dorsetforyou.com,-2.16503500000000,DT11 9LY,2014-03-13,fhrs_3_en-GB,3,,FHRS,10
297028,,The Drive,Bryanston,Blandford Forum,Bryanston School,School/college/university,7845,0,,331540,5,,50.86569600000000,28930,086,envlicens@north-dorset.gov.uk,North Dorset,http://www.dorsetforyou.com,-2.18555400000000,DT11 0PX,2013-06-25,fhrs_5_en-GB,5,,FHRS,5
297029,,Templecombe Lane,Buckhorn Weston,Gillingham,Buckhorn Weston Village Hall,Other catering premises,7841,,,331581,,,51.01832000000000,35613,086,envlicens@north-dorset.gov.uk,North Dorset,http://www.dorsetforyou.com,-2.34817300000000,SP8 5HF,2011-11-22,fhrs_exempt_en-GB,Exempt,,FHRS,
297030,,Lydfords Lane,Gillingham,Dorset,Buffalo Inn,Pub/bar/nightclub,7843,5,,341709,5,,51.03734900000000,18121,086,envlicens@north-dorset.gov.uk,North Dorset,http://www.dorsetforyou.com,-2.29186600000000,SP8 4NJ,2013-04-17,fhrs_5_en-GB,5,,FHRS,5
297031,,,,,Bugley Court Farm,Hotel/bed & breakfast/guest house,7842,,,331472,,,,20983,086,envlicens@north-dorset.gov.uk,North Dorset,http://www.dorsetforyou.com,,,2014-02-05,fhrs_exempt_en-GB,Exempt,,FHRS,
297032,,Bridge,Sturminster Newton,Dorset,Bull Tavern,Pub/bar/nightclub,7843,10,,341740,5,,50.92091500000000,22182,086,envlicens@north-dorset.gov.uk,North Dorset,http://www.dorsetforyou.com,-2.30652900000000,DT10 2BS,2013-03-22,fhrs_4_en-GB,4,,FHRS,5
297033,,Bourton,Gillingham,Dorset,Bullpits Golf Club,Pub/bar/nightclub,7843,,,331496,,,51.07944107055664,23994,086,envlicens@north-dorset.gov.uk,North Dorset,http://www.dorsetforyou.com,-2.32252287864685,SP8 5AX,2013-08-28,fhrs_exempt_en-GB,Exempt,,FHRS,
297034,,,,,Buttermeup Cakes,Other catering premises,7841,,,331814,,,,37203,086,envlicens@north-dorset.gov.uk,North Dorset,http://www.dorsetforyou.com,,,2012-02-14,fhrs_exempt_en-GB,Exempt,,FHRS,
297035,,65 East Street,Blandford Forum,Dorset,Cafe 65,Restaurant/Cafe/Canteen,1,5,,341665,0,,50.85585600000000,15756,086,envlicens@north-dorset.gov.uk,North Dorset,http://www.dorsetforyou.com,-2.16339500000000,DT11 7DX,2014-09-11,fhrs_4_en-GB,4,,FHRS,10
297036,,4 Bell Street,Shaftesbury,Dorset,Cafe Rose,Restaurant/Cafe/Canteen,1,10,,331548,5,,51.00662300000000,30579,086,envlicens@north-dorset.gov.uk,North Dorset,http://www.dorsetforyou.com,-2.19706300000000,SP7 8AR,2014-02-01,fhrs_4_en-GB,4,,FHRS,5
297037,,8 West Street,Blandford Forum,Dorset,Cafe SoBa,Restaurant/Cafe/Canteen,1,,,576564,,,50.85595100000000,37432,086,envlicens@north-dorset.gov.uk,North Dorset,http://www.dorsetforyou.com,-2.16613700000000,DT11 7AJ,2013-11-21,fhrs_5_en-GB,5,,FHRS,
297038,Greyhound Inn,Market Place,Blandford Forum,Dorset,Cafe SoBa 2 U,Other catering premises,7841,5,,608734,5,,50.85571000000000,37595,086,envlicens@north-dorset.gov.uk,North Dorset,http://www.dorsetforyou.com,-2.16494300000000,DT11 7EB,2013-11-08,fhrs_5_en-GB,5,,FHRS,5
297039,,1 Bridge Street,Sturminster Newton,Dorset,Cafe Spice Restaurant & Takeaway,Restaurant/Cafe/Canteen,1,10,,341841,5,,50.92517100000000,36624,086,envlicens@north-dorset.gov.uk,North Dorset,http://www.dorsetforyou.com,-2.30549000000000,DT10 1AP,2014-03-26,fhrs_4_en-GB,4,,FHRS,5
297040,,3 Market Cross,Sturminster Newton,Dorset,Caffe Espresso,Restaurant/Cafe/Canteen,1,10,,341776,5,,50.92546000000000,28957,086,envlicens@north-dorset.gov.uk,North Dorset,http://www.dorsetforyou.com,-2.30516500000000,DT10 1AN,2013-12-19,fhrs_4_en-GB,4,,FHRS,5
297041,Butlers House,Higher Street,Iwerne Minster,Blandford Forum,Caiger & Co Catering,Other catering premises,7841,5,,407058,0,,50.93004500000000,37228,086,envlicens@north-dorset.gov.uk,North Dorset,http://www.dorsetforyou.com,-2.19187200000000,DT11 8LX,2014-01-31,fhrs_5_en-GB,5,,FHRS,5
297042,,,,,Cake and Crumbles,Other catering premises,7841,,,643926,,,,37575,086,envlicens@north-dorset.gov.uk,North Dorset,http://www.dorsetforyou.com,,,2014-02-26,fhrs_exempt_en-GB,Exempt,,FHRS,
297043,,,,,Cakealicious,Other catering premises,7841,,,407056,,,,37217,086,envlicens@north-dorset.gov.uk,North Dorset,http://www.dorsetforyou.com,,,2012-05-30,fhrs_exempt_en-GB,Exempt,,FHRS,
297044,,,,,Cakes 2 Order,Other catering premises,7841,,,605664,,,,37518,086,envlicens@north-dorset.gov.uk,North Dorset,http://www.dorsetforyou.com,,,2013-08-06,fhrs_exempt_en-GB,Exempt,,FHRS,
297045,,,,,Cakes by Bethany Rose,Other catering premises,7841,,,636987,,,,37589,086,envlicens@north-dorset.gov.uk,North Dorset,http://www.dorsetforyou.com,,,2014-02-03,fhrs_exempt_en-GB,Exempt,,FHRS,
297046,,,,,Cakes by Christine,Other catering premises,7841,0,,509348,5,,,37373,086,envlicens@north-dorset.gov.uk,North Dorset,http://www.dorsetforyou.com,,,2013-02-04,fhrs_5_en-GB,5,,FHRS,5
297047,,,,,Cakes on the CounterMarch,Other catering premises,7841,,,410739,,,,37231,086,envlicens@north-dorset.gov.uk,North Dorset,http://www.dorsetforyou.com,,,2012-05-30,fhrs_exempt_en-GB,Exempt,,FHRS,
297048,The Town Hall,High Street,Shaftesbury,Dorset,Camelot Craft Group,Other catering premises,7841,10,,341873,5,,51.00568800000000,36862,086,envlicens@north-dorset.gov.uk,North Dorset,http://www.dorsetforyou.com,-2.19704400000000,SP7 8LY,2013-04-19,fhrs_4_en-GB,4,,FHRS,5
297049,,27 High Street,Stalbridge,Sturminster Newton,Candys,Retailers - other,4613,10,,341658,5,,50.96002700000000,14367,086,envlicens@north-dorset.gov.uk,North Dorset,http://www.dorsetforyou.com,-2.37874900000000,DT10 2LH,2013-11-30,fhrs_4_en-GB,4,,FHRS,0
297050,,9 Market Place,Sturminster Newton,Dorset,Candys Newsagents,Retailers - other,4613,,,331417,,,50.92634100000000,16411,086,envlicens@north-dorset.gov.uk,North Dorset,http://www.dorsetforyou.com,-2.30534100000000,DT10 1AS,2011-09-22,fhrs_exempt_en-GB,Exempt,,FHRS,
297051,3 Wind Whistle Cottages,Lower Blandford Road,Cann,Shaftesbury,Cann Bloom Cheeses,Manufacturers/packers,7839,,,465423,,,50.99808500000000,37230,086,envlicens@north-dorset.gov.uk,North Dorset,http://www.dorsetforyou.com,-2.18363100000000,SP7 0BQ,2014-05-14,fhrs_exempt_en-GB,Exempt,,FHRS,
297052,,,,,Carlton Bed & Breakfast,Hotel/bed & breakfast/guest house,7842,,,331751,,,,37023,086,envlicens@north-dorset.gov.uk,North Dorset,http://www.dorsetforyou.com,,,2011-09-22,fhrs_exempt_en-GB,Exempt,,FHRS,
297053,,,,,Caroline Benham,Other catering premises,7841,,,331766,,,,37041,086,envlicens@north-dorset.gov.uk,North Dorset,http://www.dorsetforyou.com,,,2013-07-01,fhrs_exempt_en-GB,Exempt,,FHRS,
297054,,Bimport,Shaftesbury,Dorset,Castle Hill House Residential Home,Hospitals/Childcare/Caring Premises,5,5,,331533,5,,51.00577926635742,28514,086,envlicens@north-dorset.gov.uk,North Dorset,http://www.dorsetforyou.com,-2.20077896118164,SP7 8AX,2014-03-01,fhrs_5_en-GB,5,,FHRS,5
297055,,Chettle,Blandford Forum,Dorset,Castleman Hotel,Restaurant/Cafe/Canteen,1,5,,341780,5,,50.92121505737305,29666,086,envlicens@north-dorset.gov.uk,North Dorset,http://www.dorsetforyou.com,-2.07099390029907,DT11 8DB,2013-08-22,fhrs_5_en-GB,5,,FHRS,0
297056,,Fairfield Bungalows,Blandford Forum,Dorset,Castleman House,Hospitals/Childcare/Caring Premises,5,0,,331606,0,,50.86234200000000,36669,086,envlicens@north-dorset.gov.uk,North Dorset,http://www.dorsetforyou.com,-2.16144200000000,DT11 7HS,2015-02-05,fhrs_5_en-GB,5,,FHRS,5
297057,Sturminster Newton High School,Bath Road,Sturminster Newton,Dorset,Catering Academy Ltd,School/college/university,7845,5,,732328,5,,50.93427500000000,40053,086,envlicens@north-dorset.gov.uk,North Dorset,http://www.dorsetforyou.com,-2.30414000000000,DT10 1DT,2015-01-09,fhrs_4_en-GB,4,,FHRS,10
297058,Lime Tree House,The Plocks,Blandford Forum,Dorset,Cavalcade of Costume Ltd,Restaurant/Cafe/Canteen,1,,,341675,,,50.85727500000000,15903,086,envlicens@north-dorset.gov.uk,North Dorset,http://www.dorsetforyou.com,-2.16426600000000,DT11 7AA,2011-09-22,fhrs_exempt_en-GB,Exempt,,FHRS,
297059,,Angel Lane,Shaftesbury,Dorset,Cedars Nursing Home,Hospitals/Childcare/Caring Premises,5,0,,331443,0,,51.00706900000000,17885,086,envlicens@north-dorset.gov.uk,North Dorset,http://www.dorsetforyou.com,-2.19427100000000,SP7 8DF,2014-06-06,fhrs_5_en-GB,5,,FHRS,0
297060,,,,,Celebration Cakes by Kathy Shannon,Other catering premises,7841,,,331705,,,,36948,086,envlicens@north-dorset.gov.uk,North Dorset,http://www.dorsetforyou.com,,,2012-09-28,fhrs_exempt_en-GB,Exempt,,FHRS,
297061,,30 Heddington Drive,Blandford Forum,Dorset,Central Convenience Stores,Retailers - other,4613,10,,341668,10,,50.86413600000000,15770,086,envlicens@north-dorset.gov.uk,North Dorset,http://www.dorsetforyou.com,-2.16474500000000,DT11 7TP,2013-08-07,fhrs_3_en-GB,3,,FHRS,5
297062,,Ivy Cross,Shaftesbury,Dorset,Central Stores,Retailers - other,4613,0,,341790,0,,51.01054300000000,31286,086,envlicens@north-dorset.gov.uk,North Dorset,http://www.dorsetforyou.com,-2.19211900000000,SP7 8DS,2013-07-06,fhrs_5_en-GB,5,,FHRS,5
297063,,,,,Chalkhill Bed & Breakfast,Hotel/bed & breakfast/guest house,7842,,,331725,,,,36979,086,envlicens@north-dorset.gov.uk,North Dorset,http://www.dorsetforyou.com,,,2013-03-25,fhrs_exempt_en-GB,Exempt,,FHRS,
297064,,3 High Street,Gillingham,Dorset,Chan's Chinese Take-away,Takeaway/sandwich shop,7844,20,,341763,5,,51.03733700000000,27004,086,envlicens@north-dorset.gov.uk,North Dorset,http://www.dorsetforyou.com,-2.27470800000000,SP8 4AA,2014-06-06,fhrs_1_en-GB,1,,FHRS,10
297065,,Le Newborg Way,Chantry Fields,Gillingham,Chantry Fields Petrol Filling Station,Retailers - other,4613,,,331399,,,51.03583200000000,16006,086,envlicens@north-dorset.gov.uk,North Dorset,http://www.dorsetforyou.com,-2.27592600000000,SP8 4UA,2011-11-22,fhrs_exempt_en-GB,Exempt,,FHRS,
297066,Chantry House,21 Brickfields Industrial Estate,Gillingham,Dorset,Chantry House Day Nursery,Hospitals/Childcare/Caring Premises,5,,,331683,,,51.03311500000000,36920,086,envlicens@north-dorset.gov.uk,North Dorset,http://www.dorsetforyou.com,-2.27267200000000,SP8 4LT,2011-08-15,fhrs_exempt_en-GB,Exempt,,FHRS,
297067,,,,,Charlie's Diner,Mobile caterer,7846,5,,732327,10,,,37696,086,envlicens@north-dorset.gov.uk,North Dorset,http://www.dorsetforyou.com,,,2015-01-08,fhrs_4_en-GB,4,,FHRS,5
297068,,Bournemouth Road,Charlton Marshall,Blandford Forum,Charlton Inn,Pub/bar/nightclub,7843,5,,341662,5,,50.83427600000000,15717,086,envlicens@north-dorset.gov.uk,North Dorset,http://www.dorsetforyou.com,-2.14081200000000,DT11 9NH,2014-03-31,fhrs_4_en-GB,4,,FHRS,10
297069,Parish Rooms,The Close,Charlton Marshall,Blandford Forum,Charlton Marshall Lunch Club,Pub/bar/nightclub,7843,,,331605,,,50.83360900000000,36644,086,envlicens@north-dorset.gov.uk,North Dorset,http://www.dorsetforyou.com,-2.14213000000000,DT11 9PA,2011-09-30,fhrs_exempt_en-GB,Exempt,,FHRS,
297070,,The Close,Charlton Marshall,Blandford Forum,Charlton Marshall Parish Rooms,Other catering premises,7841,,,331782,,,50.83360900000000,37064,086,envlicens@north-dorset.gov.uk,North Dorset,http://www.dorsetforyou.com,-2.14213000000000,DT11 9PA,2011-07-06,fhrs_exempt_en-GB,Exempt,,FHRS,
297071,,Green Close,Charlton Marshall,Blandford Forum,Charlton Marshall Village Hall,Other catering premises,7841,,,331387,,,50.83251500000000,15768,086,envlicens@north-dorset.gov.uk,North Dorset,http://www.dorsetforyou.com,-2.13942900000000,DT11 9PF,2013-12-13,fhrs_exempt_en-GB,Exempt,,FHRS,
297072,,The Square,Gillingham,Dorset,Charly's,Pub/bar/nightclub,7843,,,331596,,,51.03750000000000,36590,086,envlicens@north-dorset.gov.uk,North Dorset,http://www.dorsetforyou.com,-2.27791800000000,SP8 4AY,2013-03-22,fhrs_exempt_en-GB,Exempt,,FHRS,
297073,,New Street,Marnhull,Sturminster Newton,Chartwells (St Gregorys C Of E Primary School),School/college/university,7845,5,,732330,5,,50.96693000000000,40061,086,envlicens@north-dorset.gov.uk,North Dorset,http://www.dorsetforyou.com,-2.31593200000000,DT10 1PZ,2015-01-07,fhrs_5_en-GB,5,,FHRS,5
297074,,Old Mill Lane,Marnhull,Sturminster Newton,Chartwells (St Marys Catholic Primary School),School/college/university,7845,5,,732326,5,,50.97914900000000,16502,086,envlicens@north-dorset.gov.uk,North Dorset,http://www.dorsetforyou.com,-2.30983200000000,DT10 1JX,2015-01-07,fhrs_5_en-GB,5,,FHRS,0
297075,"Units 7 To 8, The Sidings",Station Road,Stalbridge,Sturminster Newton,Chartwells (Stalbridge),Other catering premises,7841,0,,331791,0,,50.96136400000000,37084,086,envlicens@north-dorset.gov.uk,North Dorset,http://www.dorsetforyou.com,-2.37119900000000,DT10 2SS,2015-01-07,fhrs_5_en-GB,5,,FHRS,0
297076,,,,,Cheese Centre,Retailers - other,4613,5,,341835,5,,,36227,086,envlicens@north-dorset.gov.uk,North Dorset,http://www.dorsetforyou.com,,,2013-03-04,fhrs_4_en-GB,4,,FHRS,10
297077,,,,,Cheesy Feet Treats,Other catering premises,7841,,,623560,,,,37590,086,envlicens@north-dorset.gov.uk,North Dorset,http://www.dorsetforyou.com,,,2013-12-11,fhrs_exempt_en-GB,Exempt,,FHRS,
297078,,Chettle,Blandford Forum,Dorset,Chettle Shop & Post Office,Retailers - other,4613,,,331565,,,50.92121505737305,31846,086,envlicens@north-dorset.gov.uk,North Dorset,http://www.dorsetforyou.com,-2.07099390029907,DT11 8DB,2011-07-06,fhrs_exempt_en-GB,Exempt,,FHRS,
297079,Chettle House,Chettle,Blandford Forum,Dorset,Chettle Tea Room,Other catering premises,7841,,,331497,,,50.92121600000000,24011,086,envlicens@north-dorset.gov.uk,North Dorset,http://www.dorsetforyou.com,-2.07099400000000,DT11 8DB,2011-10-18,fhrs_exempt_en-GB,Exempt,,FHRS,
297080,The Hollow,Child Okeford,Blandford Forum,Dorset,Child Okeford Village Hall,Other catering premises,7841,,,331397,,,50.91626300000000,15900,086,envlicens@north-dorset.gov.uk,North Dorset,http://www.dorsetforyou.com,-2.23863000000000,DT11 8EX,2013-12-13,fhrs_exempt_en-GB,Exempt,,FHRS,
297081,Assembly Place,31 West Street,Blandford Forum,Dorset,China China,Restaurant/Cafe/Canteen,1,10,,341712,5,,50.85521300000000,18399,086,envlicens@north-dorset.gov.uk,North Dorset,http://www.dorsetforyou.com,-2.16640400000000,DT11 7AW,2013-04-23,fhrs_3_en-GB,3,,FHRS,10
297082,The Cottage,51 High Street,Shaftesbury,Dorset,China Cottage Restaurant,Restaurant/Cafe/Canteen,1,10,,341847,10,,51.00605900000000,36634,086,envlicens@north-dorset.gov.uk,North Dorset,http://www.dorsetforyou.com,-2.19580600000000,SP7 8JE,2014-02-01,fhrs_3_en-GB,3,,FHRS,10
297083,,,,,Chips Ahoy!,Takeaway/sandwich shop,7844,10,,341747,5,,,23904,086,envlicens@north-dorset.gov.uk,North Dorset,http://www.dorsetforyou.com,,,2013-03-05,fhrs_4_en-GB,4,,FHRS,5
297084,,,,,Christine Francis,Other catering premises,7841,,,484869,,,,37306,086,envlicens@north-dorset.gov.uk,North Dorset,http://www.dorsetforyou.com,,,2014-11-14,fhrs_exempt_en-GB,Exempt,,FHRS,
297085,"The Old Store, Gold Hill Organic Farm",Ridgeway Lane,Child Okeford,Blandford Forum,Christine's Puddings,Restaurant/Cafe/Canteen,1,5,,526088,5,,50.91955500000000,37423,086,envlicens@north-dorset.gov.uk,North Dorset,http://www.dorsetforyou.com,-2.24260200000000,DT11 8HB,2013-03-13,fhrs_5_en-GB,5,,FHRS,0
297086,,,,,Church House B&B,Hotel/bed & breakfast/guest house,7842,,,331551,,,,30957,086,envlicens@north-dorset.gov.uk,North Dorset,http://www.dorsetforyou.com,,,2013-03-28,fhrs_exempt_en-GB,Exempt,,FHRS,
297087,,28 Salisbury Street,Shaftesbury,Dorset,Chutneys,Takeaway/sandwich shop,7844,5,,341652,5,,51.00565900000000,12291,086,envlicens@north-dorset.gov.uk,North Dorset,http://www.dorsetforyou.com,-2.19313900000000,SP7 8EJ,2013-07-10,fhrs_5_en-GB,5,,FHRS,5
297088,,Blandford Road,Iwerne Minster,Blandford Forum,Clayesmore School,School/college/university,7845,0,,331520,0,,50.93216300000000,27476,086,envlicens@north-dorset.gov.uk,North Dorset,http://www.dorsetforyou.com,-2.19430000000000,DT11 8LJ,2013-11-21,fhrs_5_en-GB,5,,FHRS,5
297089,"Unit 5-6, Ambassador Business Park",West Stour,Gillingham,Dorset,Climb Aboard Indoor Play Centre,Restaurant/Cafe/Canteen,1,5,,341801,5,,50.99950500000000,31957,086,envlicens@north-dorset.gov.uk,North Dorset,http://www.dorsetforyou.com,-2.32420500000000,SP8 5SE,2013-03-02,fhrs_5_en-GB,5,,FHRS,5
297090,Clock House,Bridge Street,Sturminster Newton,Dorset,Clock House Pizza,Takeaway/sandwich shop,7844,10,,341764,10,,50.92508900000000,27322,086,envlicens@north-dorset.gov.uk,North Dorset,http://www.dorsetforyou.com,-2.30593100000000,DT10 1AW,2013-02-08,fhrs_3_en-GB,3,,FHRS,10
297091,Bryanston School,The Drive,Bryanston,Blandford Forum,Coade Hall Theatre,School/college/university,7845,,,341903,,,50.86532500000000,37063,086,envlicens@north-dorset.gov.uk,North Dorset,http://www.dorsetforyou.com,-2.18721500000000,DT11 0PU,2011-09-22,fhrs_exempt_en-GB,Exempt,,FHRS,
297092,,,,,Cole Street Farm,Hotel/bed & breakfast/guest house,7842,,,341834,,,,36046,086,envlicens@north-dorset.gov.uk,North Dorset,http://www.dorsetforyou.com,,,2011-03-07,fhrs_exempt_en-GB,Exempt,,FHRS,
297093,,,,,Colin's Community Club,Other catering premises,7841,,,331383,,,,1545,086,envlicens@north-dorset.gov.uk,North Dorset,http://www.dorsetforyou.com,,,2014-09-11,fhrs_exempt_en-GB,Exempt,,FHRS,
297094,,Nelson Road,Blandford Camp,Blandford Forum,Colours,Restaurant/Cafe/Canteen,1,0,,341759,0,,50.85889900000000,24517,086,envlicens@north-dorset.gov.uk,North Dorset,http://www.dorsetforyou.com,-2.19554200000000,DT11 8RP,2014-12-16,fhrs_5_en-GB,5,,FHRS,5
297095,Newstone House Care Home,Stourcastle,Sturminster Newton,Dorset,Colten Care Ltd,Hospitals/Childcare/Caring Premises,5,0,,331418,5,,50.92718000000000,16430,086,envlicens@north-dorset.gov.uk,North Dorset,http://www.dorsetforyou.com,-2.30089300000000,DT10 1FF,2013-07-02,fhrs_5_en-GB,5,,FHRS,0
297096,Quarterjack,Bridge Street,Sturminster Newton,Dorset,Comins Tea House,Restaurant/Cafe/Canteen,1,5,,565906,5,,50.92455800000000,37308,086,envlicens@north-dorset.gov.uk,North Dorset,http://www.dorsetforyou.com,-2.30626900000000,DT10 1BZ,2013-06-26,fhrs_5_en-GB,5,,FHRS,5
297097,Royal Signals Museum,Blandford Camp,Blandford Forum,Dorset,Communications Cafe,Restaurant/Cafe/Canteen,1,5,,331491,5,,50.86830400000000,23943,086,envlicens@north-dorset.gov.uk,North Dorset,http://www.dorsetforyou.com,-2.12511200000000,DT11 8RH,2013-07-11,fhrs_5_en-GB,5,,FHRS,5
297098,Compton Abbas Airfield,Ashmore,Salisbury,Wiltshire,Compton Abbas Airfield Restaurant,Restaurant/Cafe/Canteen,1,5,,341784,0,,50.96604800000000,30470,086,envlicens@north-dorset.gov.uk,North Dorset,http://www.dorsetforyou.com,-2.15718800000000,SP5 5AP,2014-02-01,fhrs_5_en-GB,5,,FHRS,5
297099,Spiders Farm,Rivers Corner,Sturminster Newton,Dorset,Cool Play,Restaurant/Cafe/Canteen,1,5,,331597,5,,50.91171200000000,36619,086,envlicens@north-dorset.gov.uk,North Dorset,http://www.dorsetforyou.com,-2.31796200000000,DT10 2AB,2013-03-19,fhrs_5_en-GB,5,,FHRS,5
297100,,Beaufoy Close,Shaftesbury,Dorset,Co-op,Retailers - supermarkets/hypermarkets,7840,5,,341812,0,,51.00744300000000,35043,086,envlicens@north-dorset.gov.uk,North Dorset,http://www.dorsetforyou.com,-2.18555000000000,SP7 8PT,2013-01-12,fhrs_5_en-GB,5,,FHRS,5
297101,Market Square House,Station Road,Sturminster Newton,Dorset,Co-op,Retailers - supermarkets/hypermarkets,7840,,,331542,,,50.92764700000000,29392,086,envlicens@north-dorset.gov.uk,North Dorset,http://www.dorsetforyou.com,-2.30436800000000,DT10 1FH,2011-11-02,fhrs_exempt_en-GB,Exempt,,FHRS,
297102,,4 Lodbourne Green,Gillingham,Dorset,Co-operative,Retailers - supermarkets/hypermarkets,7840,5,,341942,0,,51.04245900000000,8543,086,envlicens@north-dorset.gov.uk,North Dorset,http://www.dorsetforyou.com,-2.27606500000000,SP8 4EH,2013-06-22,fhrs_5_en-GB,5,,FHRS,5
297103,,Langton Road,Blandford Forum,Dorset,Co-operative,Retailers - supermarkets/hypermarkets,7840,0,,331507,5,,50.85597100000000,24118,086,envlicens@north-dorset.gov.uk,North Dorset,http://www.dorsetforyou.com,-2.15838000000000,DT11 7EN,2013-08-21,fhrs_5_en-GB,5,,FHRS,5
297104,,Bell Street,Shaftesbury,Dorset,Co-operative,Retailers - supermarkets/hypermarkets,7840,0,,331441,0,,51.00662300000000,17673,086,envlicens@north-dorset.gov.uk,North Dorset,http://www.dorsetforyou.com,-2.19706300000000,SP7 8AR,2013-11-09,fhrs_5_en-GB,5,,FHRS,0
297105,,Elm Hill,Motcombe,Shaftesbury,Coppleridge Inn,Pub/bar/nightclub,7843,0,,341746,0,,51.03902500000000,23721,086,envlicens@north-dorset.gov.uk,North Dorset,http://www.dorsetforyou.com,-2.22561200000000,SP7 9HW,2013-11-05,fhrs_5_en-GB,5,,FHRS,5
297106,Kine Bush Farm,New Barn Yard,Sandley,Gillingham,Copse House Cider Company,Manufacturers/packers,7839,5,,735184,5,,51.02627700000000,40057,086,envlicens@north-dorset.gov.uk,North Dorset,http://www.dorsetforyou.com,-2.32995200000000,SP8 5DZ,2015-02-03,fhrs_5_en-GB,5,,FHRS,5
297107,,10 East Street,Blandford Forum,Dorset,Coral Racing Ltd,Retailers - other,4613,,,331558,,,50.85682100000000,31752,086,envlicens@north-dorset.gov.uk,North Dorset,http://www.dorsetforyou.com,-2.16136600000000,DT11 7DR,2011-09-02,fhrs_exempt_en-GB,Exempt,,FHRS,
297108,,Market Place,Blandford Forum,Dorset,Corn Exchange,Restaurant/Cafe/Canteen,1,5,,341833,10,,50.85624000000000,35952,086,envlicens@north-dorset.gov.uk,North Dorset,http://www.dorsetforyou.com,-2.16508700000000,DT11 7AF,2014-03-27,fhrs_4_en-GB,4,,FHRS,5
297109,,Blandford Road,Shillingstone,Blandford Forum,Cornwall Service Station,Retailers - other,4613,,,331423,,,50.89840300000000,16922,086,envlicens@north-dorset.gov.uk,North Dorset,http://www.dorsetforyou.com,-2.24773900000000,DT11 0SF,2013-10-16,fhrs_exempt_en-GB,Exempt,,FHRS,
297110,,Buckingham Road,Gillingham,Dorset,Coronation Club,Pub/bar/nightclub,7843,,,341677,,,51.03625100000000,15947,086,envlicens@north-dorset.gov.uk,North Dorset,http://www.dorsetforyou.com,-2.27387500000000,SP8 4QF,2011-09-22,fhrs_exempt_en-GB,Exempt,,FHRS,
297111,,2 High Street,Gillingham,Dorset,Costa Coffee,Restaurant/Cafe/Canteen,1,0,,619654,0,,51.03710800000000,37582,086,envlicens@north-dorset.gov.uk,North Dorset,http://www.dorsetforyou.com,-2.27275300000000,SP8 4QT,2013-12-05,fhrs_5_en-GB,5,,FHRS,0
297112,,5 Salisbury Street,Blandford Forum,Dorset,Costa Coffee,Restaurant/Cafe/Canteen,1,5,,341864,5,,50.85663500000000,36807,086,envlicens@north-dorset.gov.uk,North Dorset,http://www.dorsetforyou.com,-2.16562800000000,DT11 7AU,2013-07-19,fhrs_5_en-GB,5,,FHRS,5
297113,"Unit 8, Gold Hill House",21 High Street,Shaftesbury,Dorset,Costa Coffee,Takeaway/sandwich shop,7844,5,,341685,10,,51.00605900000000,16103,086,envlicens@north-dorset.gov.uk,North Dorset,http://www.dorsetforyou.com,-2.19580600000000,SP7 8JE,2013-09-06,fhrs_3_en-GB,3,,FHRS,10
297114,,,,,Country Cheesecakes,Other catering premises,7841,,,331807,,,,37154,086,envlicens@north-dorset.gov.uk,North Dorset,http://www.dorsetforyou.com,,,2011-10-25,fhrs_exempt_en-GB,Exempt,,FHRS,
297115,,,,,Country Cookies & Crafts,Other catering premises,7841,,,358807,,,,37218,086,envlicens@north-dorset.gov.uk,North Dorset,http://www.dorsetforyou.com,,,2012-05-03,fhrs_exempt_en-GB,Exempt,,FHRS,
297116,,,,,Crawford House Bed & Breakfast,Hotel/bed & breakfast/guest house,7842,,,331704,,,,36947,086,envlicens@north-dorset.gov.uk,North Dorset,http://www.dorsetforyou.com,,,2011-09-22,fhrs_exempt_en-GB,Exempt,,FHRS,
297117,Unit 8,Sunrise Business Park,Blandford Forum,Dorset,Crazy Monsters,Restaurant/Cafe/Canteen,1,10,,341803,5,,50.87555900000000,32014,086,envlicens@north-dorset.gov.uk,North Dorset,http://www.dorsetforyou.com,-2.15658500000000,DT11 8ST,2015-01-13,fhrs_4_en-GB,4,,FHRS,5
297118,Wyke Hill House,Wyke Road,Gillingham,Dorset,Creative Catering,Other catering premises,7841,0,,451596,5,,51.03762500000000,37236,086,envlicens@north-dorset.gov.uk,North Dorset,http://www.dorsetforyou.com,-2.28201200000000,SP8 4NQ,2014-03-06,fhrs_5_en-GB,5,,FHRS,5
297119,,,,,Croft Farm Bed & Breakfast,Hotel/bed & breakfast/guest house,7842,,,331671,,,,36887,086,envlicens@north-dorset.gov.uk,North Dorset,http://www.dorsetforyou.com,,,2011-08-16,fhrs_exempt_en-GB,Exempt,,FHRS,
297120,Applins Farm,Farrington,Iwerne Minster,Blandford Forum,Crook & Churn Dairy,Manufacturers/packers,7839,,,331461,,,50.93785800000000,18491,086,envlicens@north-dorset.gov.uk,North Dorset,http://www.dorsetforyou.com,-2.22768300000000,DT11 8RA,2013-02-26,fhrs_exempt_en-GB,Exempt,,FHRS,
297121,,The Cross,Child Okeford,Blandford Forum,Cross Stores,Retailers - other,4613,10,,341856,10,,50.91379500000000,36687,086,envlicens@north-dorset.gov.uk,North Dorset,http://www.dorsetforyou.com,-2.23605700000000,DT11 8ED,2014-12-04,fhrs_3_en-GB,3,,FHRS,10
297122,,West Street,Blandford Forum,Dorset,Crown Hotel,Hotel/bed & breakfast/guest house,7842,0,,341791,0,,50.85595100000000,31289,086,envlicens@north-dorset.gov.uk,North Dorset,http://www.dorsetforyou.com,-2.16613700000000,DT11 7AJ,2013-07-19,fhrs_4_en-GB,4,,FHRS,10
297123,,Church Lane,Ibberton,Blandford Forum,Crown Inn,Pub/bar/nightclub,7843,5,,341725,0,,50.86892300000000,20144,086,envlicens@north-dorset.gov.uk,North Dorset,http://www.dorsetforyou.com,-2.30233700000000,DT11 0EN,2014-10-25,fhrs_4_en-GB,4,,FHRS,10
297124,,High Street,Stalbridge,Sturminster Newton,Crown Inn,Pub/bar/nightclub,7843,5,,341696,5,,50.96011800000000,16655,086,envlicens@north-dorset.gov.uk,North Dorset,http://www.dorsetforyou.com,-2.37837900000000,DT10 2LL,2014-08-29,fhrs_4_en-GB,4,,FHRS,10
297125,,,,,Cutting the Curd Cheesemaking Classes,Other catering premises,7841,,,358808,,,,37224,086,envlicens@north-dorset.gov.uk,North Dorset,http://www.dorsetforyou.com,,,2013-09-30,fhrs_exempt_en-GB,Exempt,,FHRS,
297126,,Wincombe Lane,Shaftesbury,Dorset,Cygnet Catering Shaftesbury Primary School,School/college/university,7845,5,,331580,5,,51.01138100000000,35607,086,envlicens@north-dorset.gov.uk,North Dorset,http://www.dorsetforyou.com,-2.18585000000000,SP7 8PZ,2013-06-13,fhrs_5_en-GB,5,,FHRS,5
297127,Downlands First School,College Road,Blandford Camp,Blandford Forum,Cygnets Downlands Pre School,Hospitals/Childcare/Caring Premises,5,,,331712,,,50.87428800000000,36958,086,envlicens@north-dorset.gov.uk,North Dorset,http://www.dorsetforyou.com,-2.11220900000000,DT11 8BG,2013-11-22,fhrs_exempt_en-GB,Exempt,,FHRS,
297128,,Heddington Drive,Blandford Forum,Dorset,Damory Diner,Restaurant/Cafe/Canteen,1,5,,331661,5,,50.86413600000000,36856,086,envlicens@north-dorset.gov.uk,North Dorset,http://www.dorsetforyou.com,-2.16474500000000,DT11 7TP,2012-07-03,fhrs_5_en-GB,5,,FHRS,5
297129,Damory Garage,Salisbury Road,Blandford Forum,Dorset,Damory Garage,Retailers - other,4613,5,,341702,0,,50.86434600000000,17106,086,envlicens@north-dorset.gov.uk,North Dorset,http://www.dorsetforyou.com,-2.15590800000000,DT11 7LP,2014-10-01,fhrs_5_en-GB,5,,FHRS,5
297130,,,,,Dead Good Coffee,Mobile caterer,7846,,,341926,,,,37197,086,envlicens@north-dorset.gov.uk,North Dorset,http://www.dorsetforyou.com,,,2012-02-03,fhrs_exempt_en-GB,Exempt,,FHRS,
297131,,,,,Delightful Baking,Other catering premises,7841,5,,509345,5,,,37273,086,envlicens@north-dorset.gov.uk,North Dorset,http://www.dorsetforyou.com,,,2013-02-01,fhrs_5_en-GB,5,,FHRS,5
297132,,Ring Street,Stalbridge,Sturminster Newton,Dike and Son Limited,Retailers - supermarkets/hypermarkets,7840,5,,331414,5,,50.95872300000000,16258,086,envlicens@north-dorset.gov.uk,North Dorset,http://www.dorsetforyou.com,-2.37870900000000,DT10 2NB,2014-08-29,fhrs_5_en-GB,5,,FHRS,5
297133,Greyhound Inn,Market Place,Blandford Forum,Dorset,Dine SoBa,Restaurant/Cafe/Canteen,1,5,,608733,5,,50.85571000000000,37594,086,envlicens@north-dorset.gov.uk,North Dorset,http://www.dorsetforyou.com,-2.16494300000000,DT11 7EB,2013-11-08,fhrs_5_en-GB,5,,FHRS,5
297134,,,,,Discover England Tours,Hotel/bed & breakfast/guest house,7842,,,331748,,,,37018,086,envlicens@north-dorset.gov.uk,North Dorset,http://www.dorsetforyou.com,,,2013-05-03,fhrs_exempt_en-GB,Exempt,,FHRS,
297135,,42 East Street,Blandford Forum,Dorset,Dolphin Ale House,Pub/bar/nightclub,7843,10,,341718,5,,50.85682100000000,1901,086,envlicens@north-dorset.gov.uk,North Dorset,http://www.dorsetforyou.com,-2.16136600000000,DT11 7DR,2014-11-25,fhrs_3_en-GB,3,,FHRS,10
297136,,,,,Dorset Gingerbread,Other catering premises,7841,,,531692,,,,37434,086,envlicens@north-dorset.gov.uk,North Dorset,http://www.dorsetforyou.com,,,2013-03-18,fhrs_exempt_en-GB,Exempt,,FHRS,
297137,,,,,Dorset Lamb,Mobile caterer,7846,5,,724158,5,,,21131,086,envlicens@north-dorset.gov.uk,North Dorset,http://www.dorsetforyou.com,,,2014-12-02,fhrs_5_en-GB,5,,FHRS,5
297138,,11 Market Place,Blandford Forum,Dorset,Dorset Larder Ltd,Manufacturers/packers,7839,5,,455651,5,,50.85624000000000,37265,086,envlicens@north-dorset.gov.uk,North Dorset,http://www.dorsetforyou.com,-2.16508700000000,DT11 7AF,2014-05-13,fhrs_5_en-GB,5,,FHRS,5
297139,,College Road,Blandford Camp,Blandford Forum,Downlands Primary School,School/college/university,7845,5,,331490,0,,50.87428800000000,23939,086,envlicens@north-dorset.gov.uk,North Dorset,http://www.dorsetforyou.com,-2.11220900000000,DT11 8BG,2013-11-22,fhrs_5_en-GB,5,,FHRS,0
297140,,High Street,Gillingham,Dorset,Dudley Taylor,Retailers - other,4613,,,331544,,,51.03745500000000,29903,086,envlicens@north-dorset.gov.uk,North Dorset,http://www.dorsetforyou.com,-2.27393900000000,SP8 4AG,2014-02-18,fhrs_exempt_en-GB,Exempt,,FHRS,
297141,,Church Road,Durweston,Blandford Forum,Durweston Ce Va Primary School,School/college/university,7845,0,,331535,0,,50.87654900000000,28820,086,envlicens@north-dorset.gov.uk,North Dorset,http://www.dorsetforyou.com,-2.20249600000000,DT11 0QA,2013-03-20,fhrs_5_en-GB,5,,FHRS,0
297142,,Main Road,Durweston,Blandford Forum,Durweston Village Hall,Other catering premises,7841,5,,331498,0,,50.87654900000000,24013,086,envlicens@north-dorset.gov.uk,North Dorset,http://www.dorsetforyou.com,-2.20249600000000,DT11 0QA,2013-03-07,fhrs_5_en-GB,5,,FHRS,0
297143,The Cricket Pavilion,,Hinton St Mary,Sturminster Newton,Early Explorers,Hospitals/Childcare/Caring Premises,5,,,331623,,,50.94457600000000,36788,086,envlicens@north-dorset.gov.uk,North Dorset,http://www.dorsetforyou.com,-2.30591600000000,DT10 1NA,2014-02-19,fhrs_exempt_en-GB,Exempt,,FHRS,
297144,East Farm,Lower Street,Winterborne Whitechurch,Blandford Forum,East Farm Shop,Retailers - other,4613,10,,410736,10,,50.79563800000000,36893,086,envlicens@north-dorset.gov.uk,North Dorset,http://www.dorsetforyou.com,-2.22506000000000,DT11 9AW,2014-08-04,fhrs_3_en-GB,3,,FHRS,10
297145,,Back Street,East Stour,Gillingham,East Stour Village Hall,Other catering premises,7841,,,331555,,,51.00983000000000,31378,086,envlicens@north-dorset.gov.uk,North Dorset,http://www.dorsetforyou.com,-2.28204300000000,SP8 5JY,2011-11-22,fhrs_exempt_en-GB,Exempt,,FHRS,
297146,,38 High Street,Shaftesbury,Dorset,Edinburgh Woollen Mill Ltd,Retailers - other,4613,,,331563,,,51.00609300000000,31793,086,envlicens@north-dorset.gov.uk,North Dorset,http://www.dorsetforyou.com,-2.19701800000000,SP7 8JG,2011-07-22,fhrs_exempt_en-GB,Exempt,,FHRS,
297147,,,,,Eggmania,Retailers - other,4613,,,331785,,,,37070,086,envlicens@north-dorset.gov.uk,North Dorset,http://www.dorsetforyou.com,,,2011-11-02,fhrs_exempt_en-GB,Exempt,,FHRS,
297148,,,,,Elaine's Catering,Mobile caterer,7846,5,,341874,5,,,36864,086,envlicens@north-dorset.gov.uk,North Dorset,http://www.dorsetforyou.com,,,2013-02-26,fhrs_5_en-GB,5,,FHRS,5
297149,,,,,Eleanor Wilson,Other catering premises,7841,,,331798,,,,37108,086,envlicens@north-dorset.gov.uk,North Dorset,http://www.dorsetforyou.com,,,2011-06-07,fhrs_exempt_en-GB,Exempt,,FHRS,
297150,,Shroton,Blandford Forum,Dorset,Elizabeth Freke Hall,Other catering premises,7841,,,331493,,,50.91265487670898,23975,086,envlicens@north-dorset.gov.uk,North Dorset,http://www.dorsetforyou.com,-2.20083236694336,DT11 8QB,2013-10-04,fhrs_exempt_en-GB,Exempt,,FHRS,
297151,Greystones,High Street,Stalbridge,Sturminster Newton,Else Butchers Ltd,Manufacturers/packers,7839,5,,341839,5,,50.96002700000000,36620,086,envlicens@north-dorset.gov.uk,North Dorset,http://www.dorsetforyou.com,-2.37874900000000,DT10 2LH,2014-03-26,fhrs_5_en-GB,5,,FHRS,5
297152,,,,,Emma Smith,Other catering premises,7841,,,331434,,,,17328,086,envlicens@north-dorset.gov.uk,North Dorset,http://www.dorsetforyou.com,,,2011-09-30,fhrs_exempt_en-GB,Exempt,,FHRS,
297153,,,,,Farnham Farm House B&B,Hotel/bed & breakfast/guest house,7842,,,331643,,,,36818,086,envlicens@north-dorset.gov.uk,North Dorset,http://www.dorsetforyou.com,,,2011-12-15,fhrs_exempt_en-GB,Exempt,,FHRS,
297154,,Salisbury Road,Pimperne,Blandford Forum,Farquharson Arms,Pub/bar/nightclub,7843,5,,341669,5,,50.87963200000000,15808,086,envlicens@north-dorset.gov.uk,North Dorset,http://www.dorsetforyou.com,-2.13550500000000,DT11 8TX,2013-02-19,fhrs_5_en-GB,5,,FHRS,5
297155,,Christys Lane,Shaftesbury,Dorset,Father's House Shaftesbury (including Little Acorns),Other catering premises,7841,0,,331442,0,,51.00844400000000,17879,086,envlicens@north-dorset.gov.uk,North Dorset,http://www.dorsetforyou.com,-2.18941600000000,SP7 8PH,2014-01-22,fhrs_5_en-GB,5,,FHRS,5
297156,,Fiddleford,Sturminster Newton,Dorset,Fiddleford Inn,Pub/bar/nightclub,7843,10,,341729,0,,50.91766738891602,20527,086,envlicens@north-dorset.gov.uk,North Dorset,http://www.dorsetforyou.com,-2.27895283699036,DT10 2BX,2013-08-10,fhrs_4_en-GB,4,,FHRS,10
297157,,,,,Fifi Celebration Cakes,Other catering premises,7841,,,331806,,,,37148,086,envlicens@north-dorset.gov.uk,North Dorset,http://www.dorsetforyou.com,,,2011-09-21,fhrs_exempt_en-GB,Exempt,,FHRS,
297158,,40 East Street,Blandford Forum,Dorset,Florabunda,Retailers - other,4613,,,331433,,,50.85682100000000,17255,086,envlicens@north-dorset.gov.uk,North Dorset,http://www.dorsetforyou.com,-2.16136600000000,DT11 7DR,2011-09-22,fhrs_exempt_en-GB,Exempt,,FHRS,
297159,,,,,Flora's Bakery,Other catering premises,7841,5,,593876,0,,,19618,086,envlicens@north-dorset.gov.uk,North Dorset,http://www.dorsetforyou.com,,,2013-10-07,fhrs_5_en-GB,5,,FHRS,0
297160,,,,,Florence Cottage,Manufacturers/packers,7839,,,531689,,,,37312,086,envlicens@north-dorset.gov.uk,North Dorset,http://www.dorsetforyou.com,,,2012-10-04,fhrs_exempt_en-GB,Exempt,,FHRS,
297161,,,,,Florries Tea Party,Other catering premises,7841,5,,509346,5,,,37303,086,envlicens@north-dorset.gov.uk,North Dorset,http://www.dorsetforyou.com,,,2013-01-30,fhrs_5_en-GB,5,,FHRS,5
297162,,35 Bell Street,Shaftesbury,Dorset,Flying Start Nursery,Hospitals/Childcare/Caring Premises,5,5,,331508,5,,51.00731800000000,24136,086,envlicens@north-dorset.gov.uk,North Dorset,http://www.dorsetforyou.com,-2.19554000000000,SP7 8AE,2014-03-18,fhrs_5_en-GB,5,,FHRS,5
297163,The Lodge,Cemetery Road,Gillingham,Dorset,Flying Start Nursery School,Hospitals/Childcare/Caring Premises,5,,,331718,,,51.03882000000000,36972,086,envlicens@north-dorset.gov.uk,North Dorset,http://www.dorsetforyou.com,-2.27875300000000,SP8 4AZ,2011-09-22,fhrs_exempt_en-GB,Exempt,,FHRS,
297164,Blandfords Farm,West Street,Fontmell Magna,Shaftesbury,Fontmell Magna Under Fives,Hospitals/Childcare/Caring Premises,5,,,331717,,,50.95131600000000,36970,086,envlicens@north-dorset.gov.uk,North Dorset,http://www.dorsetforyou.com,-2.19479200000000,SP7 0PF,2011-07-06,fhrs_exempt_en-GB,Exempt,,FHRS,
297165,,West Street,Fontmell Magna,Shaftesbury,Fontmell Magna Village Hall,Other catering premises,7841,,,331582,,,50.95155100000000,35620,086,envlicens@north-dorset.gov.uk,North Dorset,http://www.dorsetforyou.com,-2.19930600000000,SP7 0PS,2011-11-22,fhrs_exempt_en-GB,Exempt,,FHRS,
297166,,Church Street,Fontmell Magna,Shaftesbury,Fontmell Magna Village Shop,Retailers - other,4613,5,,331369,5,,50.95231800000000,10986,086,envlicens@north-dorset.gov.uk,North Dorset,http://www.dorsetforyou.com,-2.19202100000000,SP7 0NY,2013-03-20,fhrs_5_en-GB,5,,FHRS,5
297167,,Main Road,Bourton,Gillingham,Forge Garage,Retailers - other,4613,,,331714,,,51.07549600000000,36963,086,envlicens@north-dorset.gov.uk,North Dorset,http://www.dorsetforyou.com,-2.32176700000000,SP8 5BD,2011-11-22,fhrs_exempt_en-GB,Exempt,,FHRS,
297168,,Milton On Stour,Gillingham,Dorset,Forge Garage,Retailers - other,4613,,,331720,,,51.05641937255860,36974,086,envlicens@north-dorset.gov.uk,North Dorset,http://www.dorsetforyou.com,-2.28863286972046,SP8 5PZ,2011-11-22,fhrs_exempt_en-GB,Exempt,,FHRS,
297169,,Nelson Road,Blandford Camp,Blandford Forum,Forum Cinema,Retailers - other,4613,,,331626,,,50.86979400000000,36792,086,envlicens@north-dorset.gov.uk,North Dorset,http://www.dorsetforyou.com,-2.11906200000000,DT11 8BJ,2013-12-12,fhrs_exempt_en-GB,Exempt,,FHRS,
297170,,Salisbury Road,Blandford Forum,Dorset,Forum Frier,Takeaway/sandwich shop,7844,0,,331428,0,,50.85985800000000,17108,086,envlicens@north-dorset.gov.uk,North Dorset,http://www.dorsetforyou.com,-2.16271200000000,DT11 7QG,2014-03-18,fhrs_5_en-GB,5,,FHRS,5
297171,,Breach Lane,Shaftesbury,Dorset,Fountain Inn,Pub/bar/nightclub,7843,0,,331440,0,,51.00626700000000,17623,086,envlicens@north-dorset.gov.uk,North Dorset,http://www.dorsetforyou.com,-2.20535600000000,SP7 8LE,2014-01-10,fhrs_5_en-GB,5,,FHRS,0
297172,,Ansty,Dorchester,Dorset,Fox Inn,Pub/bar/nightclub,7843,5,,331572,5,,50.82552719116211,34599,086,envlicens@north-dorset.gov.uk,North Dorset,http://www.dorsetforyou.com,-2.33086299896240,DT2 7PX,2013-03-26,fhrs_5_en-GB,5,,FHRS,5
297173,,,,,Foxhangers Bed & Breakfast,Hotel/bed & breakfast/guest house,7842,,,331700,,,,36943,086,envlicens@north-dorset.gov.uk,North Dorset,http://www.dorsetforyou.com,,,2011-09-22,fhrs_exempt_en-GB,Exempt,,FHRS,
297174,,,,,Foxpath Bed and Breakfast,Hotel/bed & breakfast/guest house,7842,,,331521,,,,27568,086,envlicens@north-dorset.gov.uk,North Dorset,http://www.dorsetforyou.com,,,2014-02-19,fhrs_exempt_en-GB,Exempt,,FHRS,
297175,2 Luccombe Business Park,Milton Abbas,Blandford Forum,Dorset,From Dorset With Love,Manufacturers/packers,7839,5,,636992,5,,50.80995800000000,37648,086,envlicens@north-dorset.gov.uk,North Dorset,http://www.dorsetforyou.com,-2.26171900000000,DT11 0BD,2014-03-03,fhrs_5_en-GB,5,,FHRS,5
297176,,,,,Gable Cottage B&B,Hotel/bed & breakfast/guest house,7842,,,559649,,,,37291,086,envlicens@north-dorset.gov.uk,North Dorset,http://www.dorsetforyou.com,,,2013-06-10,fhrs_exempt_en-GB,Exempt,,FHRS,
297177,,,,,Garden Gate Foods,Manufacturers/packers,7839,,,331695,,,,36936,086,envlicens@north-dorset.gov.uk,North Dorset,http://www.dorsetforyou.com,,,2011-06-18,fhrs_exempt_en-GB,Exempt,,FHRS,
297178,7 Georgian Passage,East Street,Blandford Forum,Dorset,Georgian Tea Room,Restaurant/Cafe/Canteen,1,0,,341667,5,,50.85585600000000,15765,086,envlicens@north-dorset.gov.uk,North Dorset,http://www.dorsetforyou.com,-2.16339500000000,DT11 7DX,2013-09-05,fhrs_5_en-GB,5,,FHRS,5
297179,,School Lane,Gillingham,Dorset,Gillingham Bowling Club,Pub/bar/nightclub,7843,,,331719,,,51.03750400000000,36973,086,envlicens@north-dorset.gov.uk,North Dorset,http://www.dorsetforyou.com,-2.27239900000000,SP8 4QW,2011-09-22,fhrs_exempt_en-GB,Exempt,,FHRS,
297180,,High Street,Gillingham,Dorset,Gillingham Chinese Take-away,Takeaway/sandwich shop,7844,10,,341829,15,,51.03710800000000,35730,086,envlicens@north-dorset.gov.uk,North Dorset,http://www.dorsetforyou.com,-2.27275300000000,SP8 4QT,2013-08-03,fhrs_2_en-GB,2,,FHRS,15
297181,,Hardings Lane,Gillingham,Dorset,Gillingham Comprehensive School,School/college/university,7845,,,341679,,,51.03828600000000,15962,086,envlicens@north-dorset.gov.uk,North Dorset,http://www.dorsetforyou.com,-2.26859500000000,SP8 4QP,2013-03-21,fhrs_awaitinginspection_en-GB,AwaitingInspection,,FHRS,
297182,Methodist Church Hall,High Street,Gillingham,Dorset,Gillingham Country Market,Retailers - other,4613,,,331758,,,51.03745500000000,37030,086,envlicens@north-dorset.gov.uk,North Dorset,http://www.dorsetforyou.com,-2.27393900000000,SP8 4AG,2011-11-22,fhrs_exempt_en-GB,Exempt,,FHRS,
297183,Gillingham Youth and Community Centre,Cemetery Road,Gillingham,Dorset,Gillingham Day Club,Other catering premises,7841,10,,537030,5,,51.03882000000000,37366,086,envlicens@north-dorset.gov.uk,North Dorset,http://www.dorsetforyou.com,-2.27875300000000,SP8 4AZ,2013-04-17,fhrs_4_en-GB,4,,FHRS,5
297184,1 The Parade,Lodbourne Green,Gillingham,Dorset,Gillingham Fish Bar,Takeaway/sandwich shop,7844,,,341818,,,51.04163100000000,35347,086,envlicens@north-dorset.gov.uk,North Dorset,http://www.dorsetforyou.com,-2.27638800000000,SP8 4EG,2014-10-15,fhrs_3_en-GB,3,,FHRS,
297185,,,,,Gillingham Foodbank,Other catering premises,7841,,,331451,,,,18030,086,envlicens@north-dorset.gov.uk,North Dorset,http://www.dorsetforyou.com,,,2012-01-09,fhrs_exempt_en-GB,Exempt,,FHRS,
297186,,Fern Brook Lane,Gillingham,Dorset,Gillingham Grange Nursing Home,Hospitals/Childcare/Caring Premises,5,0,,331655,0,,51.03000200000000,36845,086,envlicens@north-dorset.gov.uk,North Dorset,http://www.dorsetforyou.com,-2.25778100000000,SP8 4QD,2015-01-27,fhrs_5_en-GB,5,,FHRS,5
297187,,School Road,Gillingham,Dorset,Gillingham Primary School,School/college/university,7845,5,,499696,0,,51.03764800000000,18239,086,envlicens@north-dorset.gov.uk,North Dorset,http://www.dorsetforyou.com,-2.27232800000000,SP8 4QR,2014-01-23,fhrs_5_en-GB,5,,FHRS,5
297188,,2 The Square,Gillingham,Dorset,Gillingham Tandoori,Restaurant/Cafe/Canteen,1,10,,341648,10,,51.03750000000000,10002,086,envlicens@north-dorset.gov.uk,North Dorset,http://www.dorsetforyou.com,-2.27791800000000,SP8 4AY,2013-09-04,fhrs_3_en-GB,3,,FHRS,10
297189,,Hardings Lane,Gillingham,Dorset,Gillingham Town Football & Supporters Club,Pub/bar/nightclub,7843,5,,341678,5,,51.03732400000000,15960,086,envlicens@north-dorset.gov.uk,North Dorset,http://www.dorsetforyou.com,-2.26870400000000,SP8 4HX,2013-11-25,fhrs_5_en-GB,5,,FHRS,5
297190,,Cemetery Road,Gillingham,Dorset,Gillingham Youth And Community Centre,Other catering premises,7841,,,331454,,,51.03882000000000,18237,086,envlicens@north-dorset.gov.uk,North Dorset,http://www.dorsetforyou.com,-2.27875300000000,SP8 4AZ,2011-07-06,fhrs_exempt_en-GB,Exempt,,FHRS,
297191,,Stock Hill Lane,Glanvilles Wootton,Sturminster Newton,Glanvilles Wootton Village Hall,Other catering premises,7841,,,331585,,,50.87440400000000,35655,086,envlicens@north-dorset.gov.uk,North Dorset,http://www.dorsetforyou.com,-2.45801300000000,DT9 5QF,2014-01-17,fhrs_exempt_en-GB,Exempt,,FHRS,
297192,,,,,Glebe Farm Eggs,Manufacturers/packers,7839,5,,341905,5,,,37068,086,envlicens@north-dorset.gov.uk,North Dorset,http://www.dorsetforyou.com,,,2013-03-27,fhrs_4_en-GB,4,,FHRS,10
297193,,,,,Global Natural Healthcare Trust,Other catering premises,7841,,,643927,,,,37579,086,envlicens@north-dorset.gov.uk,North Dorset,http://www.dorsetforyou.com,,,2013-12-05,fhrs_exempt_en-GB,Exempt,,FHRS,
297194,,Ridgeway Lane,Child Okeford,Blandford Forum,Gold Hill Organic Farm,Retailers - other,4613,5,,341821,5,,50.91955500000000,35464,086,envlicens@north-dorset.gov.uk,North Dorset,http://www.dorsetforyou.com,-2.24260200000000,DT11 8HB,2013-11-07,fhrs_5_en-GB,5,,FHRS,5
297195,,17 Coppice Street,Shaftesbury,Dorset,Golden Fish,Takeaway/sandwich shop,7844,10,,341684,5,,51.00636200000000,16090,086,envlicens@north-dorset.gov.uk,North Dorset,http://www.dorsetforyou.com,-2.19217300000000,SP7 8PD,2014-02-01,fhrs_3_en-GB,3,,FHRS,10
297196,Gorcombe Farm,Gorcombe Farm Road,Thornicombe,Blandford Forum,Gorcombe Park Ltd,Pub/bar/nightclub,7843,5,,341714,5,,50.82196700000000,18487,086,envlicens@north-dorset.gov.uk,North Dorset,http://www.dorsetforyou.com,-2.17328500000000,DT11 9AG,2013-09-03,fhrs_4_en-GB,4,,FHRS,10
297197,,,,,Gorse Farm House Bed & Breakfast,Hotel/bed & breakfast/guest house,7842,,,331747,,,,37017,086,envlicens@north-dorset.gov.uk,North Dorset,http://www.dorsetforyou.com,,,2012-08-29,fhrs_exempt_en-GB,Exempt,,FHRS,
297198,,Milton Road,Milborne St Andrew,Blandford Forum,Grays Stores,Retailers - other,4613,,,331819,,,50.78047200000000,4055,086,envlicens@north-dorset.gov.uk,North Dorset,http://www.dorsetforyou.com,-2.28102800000000,DT11 0JZ,2011-11-22,fhrs_exempt_en-GB,Exempt,,FHRS,
297199,,North Street,Winterborne Kingston,Blandford Forum,Greyhound Inn,Pub/bar/nightclub,7843,10,,341931,10,,50.78011300000000,4202,086,envlicens@north-dorset.gov.uk,North Dorset,http://www.dorsetforyou.com,-2.19761100000000,DT11 9AZ,2013-03-06,fhrs_3_en-GB,3,,FHRS,10
297200,,Market Place,Blandford Forum,Dorset,Greyhound Inn,Pub/bar/nightclub,7843,5,,331531,5,,50.85571000000000,28323,086,envlicens@north-dorset.gov.uk,North Dorset,http://www.dorsetforyou.com,-2.16494300000000,DT11 7EB,2015-02-03,fhrs_5_en-GB,5,,FHRS,0
297201,,54 High Street,Shaftesbury,Dorset,Gusto,Restaurant/Cafe/Canteen,1,5,,341651,5,,51.00647400000000,11388,086,envlicens@north-dorset.gov.uk,North Dorset,http://www.dorsetforyou.com,-2.19491000000000,SP7 8AA,2015-01-20,fhrs_5_en-GB,5,,FHRS,5
297202,,Guys Marsh,Shaftesbury,Dorset,H M Prison - Guys Marsh,Other catering premises,7841,0,,331468,0,,50.98470306396484,19617,086,envlicens@north-dorset.gov.uk,North Dorset,http://www.dorsetforyou.com,-2.22130179405212,SP7 0AH,2012-05-30,fhrs_5_en-GB,5,,FHRS,0
297203,,Salisbury Road,Shaftesbury,Dorset,Half Moon Inn,Pub/bar/nightclub,7843,0,,331613,0,,51.00199200000000,36688,086,envlicens@north-dorset.gov.uk,North Dorset,http://www.dorsetforyou.com,-2.18091000000000,SP7 8BS,2014-01-09,fhrs_5_en-GB,5,,FHRS,5
297204,Forest Lodge Farm,Motcombe,Shaftesbury,Dorset,Half Moon Stud,Restaurant/Cafe/Canteen,1,5,,341757,5,,51.02132600000000,24265,086,envlicens@north-dorset.gov.uk,North Dorset,http://www.dorsetforyou.com,-2.22676600000000,SP7 9PL,2013-05-29,fhrs_5_en-GB,5,,FHRS,5
297205,,Pulham,Dorchester,Dorset,Halsey Arms,Pub/bar/nightclub,7843,10,,341733,5,,50.87645721435547,21304,086,envlicens@north-dorset.gov.uk,North Dorset,http://www.dorsetforyou.com,-2.41880512237549,DT2 7DZ,2013-03-26,fhrs_3_en-GB,3,,FHRS,10
297206,Durweston Ce Va Primary School,Church Road,Durweston,Blandford Forum,Handy Paws Pre School,Hospitals/Childcare/Caring Premises,5,,,331707,,,50.87654900000000,36951,086,envlicens@north-dorset.gov.uk,North Dorset,http://www.dorsetforyou.com,-2.20249600000000,DT11 0QA,2011-07-22,fhrs_exempt_en-GB,Exempt,,FHRS,
297207,,Child Okeford,Blandford Forum,Dorset,Hanford School,School/college/university,7845,0,,341720,0,,50.89927300000000,19202,086,envlicens@north-dorset.gov.uk,North Dorset,http://www.dorsetforyou.com,-2.22207600000000,DT11 8HN,2014-03-10,fhrs_5_en-GB,5,,FHRS,5
297208,,,,,Hansel and Gretel's Sweet Shop,Retailers - other,4613,5,,664225,5,,,37647,086,envlicens@north-dorset.gov.uk,North Dorset,http://www.dorsetforyou.com,,,2014-05-16,fhrs_5_en-GB,5,,FHRS,5
297209,,Barrow Hill,Stalbridge,Sturminster Newton,Happy Garden Chinese Takeaway,Takeaway/sandwich shop,7844,0,,341852,0,,50.85889900000000,36667,086,envlicens@north-dorset.gov.uk,North Dorset,http://www.dorsetforyou.com,-2.19554200000000,DT11 2QX,2014-08-29,fhrs_5_en-GB,5,,FHRS,0
297210,,,,,Harveys,Other catering premises,7841,,,341915,,,,37112,086,envlicens@north-dorset.gov.uk,North Dorset,http://www.dorsetforyou.com,,,2014-10-01,fhrs_exempt_en-GB,Exempt,,FHRS,
297211,,33-34 High Street,Spetisbury,Blandford Forum,Hathaways Cottage B&B,Hotel/bed & breakfast/guest house,7842,,,341762,,,50.82309600000000,26850,086,envlicens@north-dorset.gov.uk,North Dorset,http://www.dorsetforyou.com,-2.12739000000000,DT11 9DJ,2011-11-22,fhrs_exempt_en-GB,Exempt,,FHRS,
297212,Hazelbury Bryan Primary School,Hazelbury Bryan,Sturminster Newton,Dorset,Hazelbury Bryan Foundation Base,School/college/university,7845,,,331773,,,50.77915191650391,37052,086,envlicens@north-dorset.gov.uk,North Dorset,http://www.dorsetforyou.com,-2.32034993171692,DT10 2ED,2011-07-22,fhrs_exempt_en-GB,Exempt,,FHRS,
297213,Hazelbury Bryan Primary School,Hazelbury Bryan,Sturminster Newton,Dorset,Hazelbury Bryan Mother and Toddler Group,Hospitals/Childcare/Caring Premises,5,,,331723,,,50.77915191650391,36977,086,envlicens@north-dorset.gov.uk,North Dorset,http://www.dorsetforyou.com,-2.32034993171692,DT10 2ED,2011-09-22,fhrs_exempt_en-GB,Exempt,,FHRS,
297214,,Partway,Hazelbury Bryan,Sturminster Newton,Hazelbury Bryan Village Hall,Other catering premises,7841,,,331499,,,50.87789100000000,24033,086,envlicens@north-dorset.gov.uk,North Dorset,http://www.dorsetforyou.com,-2.36440800000000,DT10 2DP,2011-09-22,fhrs_exempt_en-GB,Exempt,,FHRS,
297215,,,,,Hazeldean (Bed & Breakfast),Hotel/bed & breakfast/guest house,7842,,,331755,,,,37027,086,envlicens@north-dorset.gov.uk,North Dorset,http://www.dorsetforyou.com,,,2011-09-22,fhrs_exempt_en-GB,Exempt,,FHRS,
297216,,,,,Heathcote House B&B,Hotel/bed & breakfast/guest house,7842,,,331389,,,,1578,086,envlicens@north-dorset.gov.uk,North Dorset,http://www.dorsetforyou.com,,,2013-10-03,fhrs_exempt_en-GB,Exempt,,FHRS,
297217,,43 Bell Street,Shaftesbury,Dorset,Heritage Suite,Pub/bar/nightclub,7843,,,331401,,,51.00731800000000,16077,086,envlicens@north-dorset.gov.uk,North Dorset,http://www.dorsetforyou.com,-2.19554000000000,SP7 8AE,2014-02-13,fhrs_exempt_en-GB,Exempt,,FHRS,
297218,,,,,Hill House,Hotel/bed & breakfast/guest house,7842,,,331636,,,,36810,086,envlicens@north-dorset.gov.uk,North Dorset,http://www.dorsetforyou.com,,,2014-01-17,fhrs_exempt_en-GB,Exempt,,FHRS,
297219,,,,,Hill View House Bed & Breakfast,Hotel/bed & breakfast/guest house,7842,,,331743,,,,37013,086,envlicens@north-dorset.gov.uk,North Dorset,http://www.dorsetforyou.com,,,2011-09-22,fhrs_exempt_en-GB,Exempt,,FHRS,
297220,,,,,Hilltop Barn Bed & Breakfast,Hotel/bed & breakfast/guest house,7842,,,331768,,,,37044,086,envlicens@north-dorset.gov.uk,North Dorset,http://www.dorsetforyou.com,,,2013-02-14,fhrs_exempt_en-GB,Exempt,,FHRS,
297221,,Hinton St Mary,Sturminster Newton,Dorset,Hinton St Mary Village Hall,Other catering premises,7841,,,331570,,,50.94457600000000,33009,086,envlicens@north-dorset.gov.uk,North Dorset,http://www.dorsetforyou.com,-2.30591600000000,DT10 1NA,2011-09-22,fhrs_exempt_en-GB,Exempt,,FHRS,
297222,,,,,Holbrook Bed and Breakfast,Hotel/bed & breakfast/guest house,7842,,,331528,,,,28046,086,envlicens@north-dorset.gov.uk,North Dorset,http://www.dorsetforyou.com,,,2013-10-04,fhrs_exempt_en-GB,Exempt,,FHRS,
297223,,6 Market Place,Sturminster Newton,Dorset,Holebrook Fine Foods,Manufacturers/packers,7839,5,,331539,5,,50.92619800000000,28892,086,envlicens@north-dorset.gov.uk,North Dorset,http://www.dorsetforyou.com,-2.30478500000000,DT10 1AR,2013-10-17,fhrs_5_en-GB,5,,FHRS,5
297224,,14 Market Place,Blandford Forum,Dorset,Holland & Barrett,Retailers - other,4613,,,331390,,,50.85571000000000,15785,086,envlicens@north-dorset.gov.uk,North Dorset,http://www.dorsetforyou.com,-2.16494300000000,DT11 7EB,2011-11-22,fhrs_exempt_en-GB,Exempt,,FHRS,
297225,,11 High Street,Shaftesbury,Dorset,Holland and Barrett,Retailers - other,4613,,,331579,,,51.00569600000000,35597,086,envlicens@north-dorset.gov.uk,North Dorset,http://www.dorsetforyou.com,-2.19770000000000,SP7 8JS,2013-10-03,fhrs_exempt_en-GB,Exempt,,FHRS,
297226,,Blackwater Lane,Bourton,Gillingham,Hollyfields School,School/college/university,7845,,,331749,,,51.06232900000000,37019,086,envlicens@north-dorset.gov.uk,North Dorset,http://www.dorsetforyou.com,-2.33547500000000,SP8 5PF,2013-04-08,fhrs_exempt_en-GB,Exempt,,FHRS,
297227,Home Farm,Home Farm Lane,Tarrant Gunville,Blandford Forum,Home Farm Shop,Retailers - other,4613,5,,341732,5,,50.91485900000000,20936,086,envlicens@north-dorset.gov.uk,North Dorset,http://www.dorsetforyou.com,-2.12355900000000,DT11 8JW,2013-03-27,fhrs_5_en-GB,5,,FHRS,5
297228,,,,,HoodieGoodie Cakes,Other catering premises,7841,5,,664226,5,,,37651,086,envlicens@north-dorset.gov.uk,North Dorset,http://www.dorsetforyou.com,,,2014-04-16,fhrs_5_en-GB,5,,FHRS,5
297229,,Holebrook Lane,Lydlinch,Sturminster Newton,Hooper Hall,Other catering premises,7841,,,331779,,,50.91953800000000,37059,086,envlicens@north-dorset.gov.uk,North Dorset,http://www.dorsetforyou.com,-2.36631300000000,DT10 2JA,2011-07-06,fhrs_exempt_en-GB,Exempt,,FHRS,
297230,,4 Longmead Industrial Estate,Shaftesbury,Dorset,Hope2Bake,Retailers - other,4613,5,,341862,10,,51.00920800000000,36785,086,envlicens@north-dorset.gov.uk,North Dorset,http://www.dorsetforyou.com,-2.18934800000000,SP7 8PL,2014-03-05,fhrs_3_en-GB,3,,FHRS,10
297231,,,,,Host A Roast.com,Mobile caterer,7846,5,,341660,5,,,15289,086,envlicens@north-dorset.gov.uk,North Dorset,http://www.dorsetforyou.com,,,2014-03-26,fhrs_5_en-GB,5,,FHRS,5
297232,,,,,House of Cake,Other catering premises,7841,0,,636990,0,,,37601,086,envlicens@north-dorset.gov.uk,North Dorset,http://www.dorsetforyou.com,,,2014-01-30,fhrs_5_en-GB,5,,FHRS,0
297233,Units 1-2 Holland Business Park,Holland Way,Blandford Forum,Dorset,House of Sarunds Ltd,Manufacturers/packers,7839,,,331503,,,50.86690400000000,24086,086,envlicens@north-dorset.gov.uk,North Dorset,http://www.dorsetforyou.com,-2.15907100000000,DT11 7TA,2011-07-22,fhrs_exempt_en-GB,Exempt,,FHRS,
297234,,,,,Hunny Bears Bee Products,Retailers - other,4613,,,331786,,,,37071,086,envlicens@north-dorset.gov.uk,North Dorset,http://www.dorsetforyou.com,,,2011-05-23,fhrs_exempt_en-GB,Exempt,,FHRS,
297235,,,,,Hurren Consultants Ltd,Mobile caterer,7846,10,,643924,5,,,37510,086,envlicens@north-dorset.gov.uk,North Dorset,http://www.dorsetforyou.com,,,2014-04-02,fhrs_4_en-GB,4,,FHRS,5
297236,,Ibberton,Blandford Forum,Dorset,Ibberton & Belchalwell Village Hall,Other catering premises,7841,,,331568,,,50.87173461914063,32923,086,envlicens@north-dorset.gov.uk,North Dorset,http://www.dorsetforyou.com,-2.30370497703552,DT11 0EL,2014-02-17,fhrs_exempt_en-GB,Exempt,,FHRS,
297237,,26 Salisbury Street,Blandford Forum,Dorset,Iceland,Retailers - supermarkets/hypermarkets,7840,0,,331395,0,,50.85664500000000,15837,086,envlicens@north-dorset.gov.uk,North Dorset,http://www.dorsetforyou.com,-2.16507400000000,DT11 7AR,2013-02-13,fhrs_5_en-GB,5,,FHRS,0
297238,,58a High Street,Shaftesbury,Dorset,Indulge Bakery & Confections,Retailers - other,4613,5,,372155,5,,51.00647400000000,16128,086,envlicens@north-dorset.gov.uk,North Dorset,http://www.dorsetforyou.com,-2.19491000000000,SP7 8AA,2014-08-13,fhrs_5_en-GB,5,,FHRS,5
297239,The Inside Park,Down House Estate,Blandford St Mary,Blandford Forum,Inside Park Caravan Site Shop,Retailers - other,4613,,,341894,,,50.84081500000000,36996,086,envlicens@north-dorset.gov.uk,North Dorset,http://www.dorsetforyou.com,-2.19059600000000,DT11 9AD,2011-11-22,fhrs_exempt_en-GB,Exempt,,FHRS,
297240,,14 Downfield,Winterborne Stickland,Blandford Forum,Iveforgot Sweets,Retailers - other,4613,,,658411,,,50.84409000000000,37662,086,envlicens@north-dorset.gov.uk,North Dorset,http://www.dorsetforyou.com,-2.23824700000000,DT11 0NE,2014-05-01,fhrs_exempt_en-GB,Exempt,,FHRS,
297241,,Hains Lane,Marnhull,Sturminster Newton,Ivers,Hospitals/Childcare/Caring Premises,5,0,,331514,5,,50.97967800000000,26100,086,envlicens@north-dorset.gov.uk,North Dorset,http://www.dorsetforyou.com,-2.31754300000000,DT10 1JU,2014-01-11,fhrs_5_en-GB,5,,FHRS,0
297242,,,,,Ivy Cottage (Market Stall),Other catering premises,7841,,,331694,,,,36935,086,envlicens@north-dorset.gov.uk,North Dorset,http://www.dorsetforyou.com,,,2013-02-14,fhrs_exempt_en-GB,Exempt,,FHRS,
297243,,Ivy Cross,Shaftesbury,Dorset,Ivy Cross Service Station,Retailers - other,4613,0,,331534,5,,51.01054300000000,28614,086,envlicens@north-dorset.gov.uk,North Dorset,http://www.dorsetforyou.com,-2.19211900000000,SP7 8DS,2013-03-02,fhrs_5_en-GB,5,,FHRS,5
297244,,Post Office Road,Iwerne Minster,Blandford Forum,Iwerne Minster Village Stores,Retailers - other,4613,20,,341789,15,,50.92821000000000,31102,086,envlicens@north-dorset.gov.uk,North Dorset,http://www.dorsetforyou.com,-2.19185000000000,DT11 8LW,2013-01-29,fhrs_1_en-GB,1,,FHRS,10
297245,,,,,J & A Score,Manufacturers/packers,7839,,,331772,,,,37051,086,envlicens@north-dorset.gov.uk,North Dorset,http://www.dorsetforyou.com,,,2011-09-22,fhrs_exempt_en-GB,Exempt,,FHRS,
297246,,,,,J & J Snacks,Mobile caterer,7846,5,,432935,5,,,37220,086,envlicens@north-dorset.gov.uk,North Dorset,http://www.dorsetforyou.com,,,2014-01-28,fhrs_5_en-GB,5,,FHRS,5
297247,,Milldown Road,Blandford Forum,Dorset,J & J's Cafe,Restaurant/Cafe/Canteen,1,5,,586697,0,,50.86169200000000,15792,086,envlicens@north-dorset.gov.uk,North Dorset,http://www.dorsetforyou.com,-2.16983700000000,DT11 7SQ,2013-09-19,fhrs_5_en-GB,5,,FHRS,5
297248,,High Street,Shaftesbury,Dorset,J Howell Market Stall,Retailers - other,4613,10,,341805,10,,51.00605900000000,32277,086,envlicens@north-dorset.gov.uk,North Dorset,http://www.dorsetforyou.com,-2.19580600000000,SP7 8JE,2013-03-21,fhrs_3_en-GB,3,,FHRS,5
297249,,7 West Street,Blandford Forum,Dorset,J Mato and Son Ltd,Retailers - other,4613,5,,331824,5,,50.85521300000000,6618,086,envlicens@north-dorset.gov.uk,North Dorset,http://www.dorsetforyou.com,-2.16640400000000,DT11 7AW,2013-11-05,fhrs_5_en-GB,5,,FHRS,5
297250,,1 Blandford Heights,Blandford Forum,Dorset,J P Squash & Fitness Club,Pub/bar/nightclub,7843,,,331502,,,50.86915400000000,24078,086,envlicens@north-dorset.gov.uk,North Dorset,http://www.dorsetforyou.com,-2.15778500000000,DT11 7TE,2011-07-06,fhrs_exempt_en-GB,Exempt,,FHRS,
297251,,,,,Jaclyn Bed & Breakfast,Hotel/bed & breakfast/guest house,7842,,,331646,,,,36827,086,envlicens@north-dorset.gov.uk,North Dorset,http://www.dorsetforyou.com,,,2013-12-12,fhrs_exempt_en-GB,Exempt,,FHRS,
297252,,,,,Janet Mason,Other catering premises,7841,,,493421,,,,37376,086,envlicens@north-dorset.gov.uk,North Dorset,http://www.dorsetforyou.com,,,2012-11-28,fhrs_exempt_en-GB,Exempt,,FHRS,
297253,,,,,Jan's Manor Farm Cakes,Other catering premises,7841,,,331699,,,,36942,086,envlicens@north-dorset.gov.uk,North Dorset,http://www.dorsetforyou.com,,,2011-09-22,fhrs_exempt_en-GB,Exempt,,FHRS,
297254,,,,,Japanese Cuisine,Other catering premises,7841,,,331450,,,,18024,086,envlicens@north-dorset.gov.uk,North Dorset,http://www.dorsetforyou.com,,,2014-02-19,fhrs_exempt_en-GB,Exempt,,FHRS,
297255,,1 Bell Street,Shaftesbury,Dorset,Jeans Sweetshop,Retailers - other,4613,,,331447,,,51.00662300000000,17947,086,envlicens@north-dorset.gov.uk,North Dorset,http://www.dorsetforyou.com,-2.19706300000000,SP7 8AR,2014-02-01,fhrs_exempt_en-GB,Exempt,,FHRS,
297256,,10 West Street,Blandford Forum,Dorset,Jerrys,Takeaway/sandwich shop,7844,10,,341802,10,,50.85595100000000,31999,086,envlicens@north-dorset.gov.uk,North Dorset,http://www.dorsetforyou.com,-2.16613700000000,DT11 7AJ,2014-12-03,fhrs_3_en-GB,3,,FHRS,10
297257,,,,,Jillys,Other catering premises,7841,,,331698,,,,36940,086,envlicens@north-dorset.gov.uk,North Dorset,http://www.dorsetforyou.com,,,2011-07-22,fhrs_exempt_en-GB,Exempt,,FHRS,
297258,,52 High Street,Shaftesbury,Dorset,John Peel Cafe,Restaurant/Cafe/Canteen,1,5,,331592,5,,51.00647400000000,35781,086,envlicens@north-dorset.gov.uk,North Dorset,http://www.dorsetforyou.com,-2.19491000000000,SP7 8AA,2015-01-27,fhrs_5_en-GB,5,,FHRS,5
297259,Travis Perkins,Littledown,Shaftesbury,Dorset,Jonjos,Mobile caterer,7846,5,,616722,5,,51.01684300000000,37550,086,envlicens@north-dorset.gov.uk,North Dorset,http://www.dorsetforyou.com,-2.18886600000000,SP7 9HD,2013-11-07,fhrs_5_en-GB,5,,FHRS,5
297260,St Gregorys C Of E Primary School,New Street,Marnhull,Sturminster Newton,Jungle Hut Pre School,Hospitals/Childcare/Caring Premises,5,5,,341793,5,,50.96693100000000,31358,086,envlicens@north-dorset.gov.uk,North Dorset,http://www.dorsetforyou.com,-2.31593200000000,DT10 1PZ,2013-03-22,fhrs_5_en-GB,5,,FHRS,5
297261,,,,,Just A Little Cup Cake,Other catering premises,7841,,,616721,,,,37494,086,envlicens@north-dorset.gov.uk,North Dorset,http://www.dorsetforyou.com,,,2013-11-15,fhrs_exempt_en-GB,Exempt,,FHRS,
297262,,,,,Kate's Quail,Farmers/growers,7838,,,331684,,,,36921,086,envlicens@north-dorset.gov.uk,North Dorset,http://www.dorsetforyou.com,,,2011-09-22,fhrs_exempt_en-GB,Exempt,,FHRS,
297263,,,,,Katie's Sweet Treats,Other catering premises,7841,,,451602,,,,37297,086,envlicens@north-dorset.gov.uk,North Dorset,http://www.dorsetforyou.com,,,2012-08-29,fhrs_exempt_en-GB,Exempt,,FHRS,
297264,,Ivy Cross,Shaftesbury,Dorset,KFC,Restaurant/Cafe/Canteen,1,5,,331651,5,,51.01054300000000,36840,086,envlicens@north-dorset.gov.uk,North Dorset,http://www.dorsetforyou.com,-2.19211900000000,SP7 8DS,2014-02-19,fhrs_5_en-GB,5,,FHRS,5
297265,Milldown Ce Vc Primary School,Milldown Road,Blandford Forum,Dorset,Kidzone (Out of School Club),School/college/university,7845,,,331745,,,50.86432300000000,37015,086,envlicens@north-dorset.gov.uk,North Dorset,http://www.dorsetforyou.com,-2.17217700000000,DT11 7SN,2011-09-22,fhrs_exempt_en-GB,Exempt,,FHRS,
297266,,King Stag,Sturminster Newton,Dorset,King Stag Garage/Shop,Retailers - other,4613,,,331564,,,50.89581900000000,31837,086,envlicens@north-dorset.gov.uk,North Dorset,http://www.dorsetforyou.com,-2.39297200000000,DT10 2AZ,2011-11-22,fhrs_exempt_en-GB,Exempt,,FHRS,
297267,,Bleke Street,Shaftesbury,Dorset,Kings Arms,Pub/bar/nightclub,7843,0,,341708,0,,51.00716900000000,17888,086,envlicens@north-dorset.gov.uk,North Dorset,http://www.dorsetforyou.com,-2.19876100000000,SP7 8JZ,2013-08-29,fhrs_5_en-GB,5,,FHRS,5
297268,,Whitecliff Mill Street,Blandford Forum,Dorset,Kings Arms Hotel,Pub/bar/nightclub,7843,5,,341936,10,,50.85769600000000,6716,086,envlicens@north-dorset.gov.uk,North Dorset,http://www.dorsetforyou.com,-2.16533300000000,DT11 7BE,2013-11-14,fhrs_3_en-GB,3,,FHRS,10
297269,,Common Lane,East Stour,Gillingham,Kings Arms Inn,Pub/bar/nightclub,7843,,,331486,,,51.00918900000000,23278,086,envlicens@north-dorset.gov.uk,North Dorset,http://www.dorsetforyou.com,-2.26785700000000,SP8 5NB,2013-04-02,fhrs_5_en-GB,5,,FHRS,
297270,,,,,Kingsbere Kitchen,Retailers - other,4613,,,537028,,,,37097,086,envlicens@north-dorset.gov.uk,North Dorset,http://www.dorsetforyou.com,,,2014-01-22,fhrs_exempt_en-GB,Exempt,,FHRS,
297271,,Church Street,Kington Magna,Gillingham,Kington Magna Village Hall,Other catering premises,7841,,,331583,,,51.00581600000000,35644,086,envlicens@north-dorset.gov.uk,North Dorset,http://www.dorsetforyou.com,-2.33741900000000,SP8 5EW,2011-11-22,fhrs_exempt_en-GB,Exempt,,FHRS,
297272,,Durweston,Blandford Forum,Dorset,Knighton House School Ltd,School/college/university,7845,0,,331546,0,,50.87258529663086,30013,086,envlicens@north-dorset.gov.uk,North Dorset,http://www.dorsetforyou.com,-2.20158362388611,DT11 0PY,2013-11-20,fhrs_5_en-GB,5,,FHRS,0
297273,,Bleke Street,Shaftesbury,Dorset,La Fleur de Lys,Restaurant/Cafe/Canteen,1,0,,331529,0,,51.00791800000000,28282,086,envlicens@north-dorset.gov.uk,North Dorset,http://www.dorsetforyou.com,-2.19739600000000,SP7 8AW,2013-08-27,fhrs_5_en-GB,5,,FHRS,5
297274,Orchard Park Garden Centre,Shaftesbury Road,Gillingham,Dorset,Lagan Farm Shop,Manufacturers/packers,7839,5,,331674,5,,51.02807500000000,36901,086,envlicens@north-dorset.gov.uk,North Dorset,http://www.dorsetforyou.com,-2.25487600000000,SP8 5JG,2014-03-04,fhrs_5_en-GB,5,,FHRS,5
297275,,,,,Laneside Catering (Mobile),Mobile caterer,7846,,,331372,,,,12132,086,envlicens@north-dorset.gov.uk,North Dorset,http://www.dorsetforyou.com,,,2014-10-30,fhrs_5_en-GB,5,,FHRS,
297276,,Tarrant Monkton,Blandford Forum,Dorset,Langton Arms,Pub/bar/nightclub,7843,5,,331482,5,,50.87787628173828,22641,086,envlicens@north-dorset.gov.uk,North Dorset,http://www.dorsetforyou.com,-2.07939887046814,DT11 8RX,2014-03-05,fhrs_5_en-GB,5,,FHRS,5
297277,,Milldown Road,Blandford Forum,Dorset,Larks Leas Rest Home,Hospitals/Childcare/Caring Premises,5,10,,331818,10,,50.86264600000000,4025,086,envlicens@north-dorset.gov.uk,North Dorset,http://www.dorsetforyou.com,-2.16932900000000,DT11 7DE,2014-03-28,fhrs_3_en-GB,3,,FHRS,10
297278,The Pavilion,Larksmead,Blandford Forum,Dorset,Larksmead Pre School,Hospitals/Childcare/Caring Premises,5,,,341902,,,50.86598900000000,37061,086,envlicens@north-dorset.gov.uk,North Dorset,http://www.dorsetforyou.com,-2.15138000000000,DT11 7LQ,2011-09-22,fhrs_exempt_en-GB,Exempt,,FHRS,
297279,,,,,Launceston Farm Bed & Breakfast,Hotel/bed & breakfast/guest house,7842,,,331690,,,,36929,086,envlicens@north-dorset.gov.uk,North Dorset,http://www.dorsetforyou.com,,,2011-11-22,fhrs_exempt_en-GB,Exempt,,FHRS,
297280,,,,,Laurel Cottage Bed & Breakfast,Hotel/bed & breakfast/guest house,7842,,,331809,,,,37156,086,envlicens@north-dorset.gov.uk,North Dorset,http://www.dorsetforyou.com,,,2012-02-10,fhrs_exempt_en-GB,Exempt,,FHRS,
297281,,,,,Laurian Kerr,Other catering premises,7841,,,451597,,,,37237,086,envlicens@north-dorset.gov.uk,North Dorset,http://www.dorsetforyou.com,,,2012-08-13,fhrs_exempt_en-GB,Exempt,,FHRS,
297282,,,,,Lawn Cottage B & B,Hotel/bed & breakfast/guest house,7842,,,331654,,,,36844,086,envlicens@north-dorset.gov.uk,North Dorset,http://www.dorsetforyou.com,,,2014-02-21,fhrs_exempt_en-GB,Exempt,,FHRS,
297283,,10 Queen Street,Gillingham,Dorset,Lees Fish & Chip Shop,Takeaway/sandwich shop,7844,10,,341753,10,,51.04009200000000,24041,086,envlicens@north-dorset.gov.uk,North Dorset,http://www.dorsetforyou.com,-2.27700700000000,SP8 4DZ,2013-04-13,fhrs_2_en-GB,2,,FHRS,15
297284,Unit 22,Brickfields Business Park,Gillingham,Dorset,Legends Nightclub,Pub/bar/nightclub,7843,,,331523,,,51.03097300000000,27871,086,envlicens@north-dorset.gov.uk,North Dorset,http://www.dorsetforyou.com,-2.27348700000000,SP8 4PX,2013-03-22,fhrs_exempt_en-GB,Exempt,,FHRS,
297285,,School Lane,Gillingham,Dorset,Lidl UK GMBH,Retailers - supermarkets/hypermarkets,7840,5,,331590,5,,51.03750400000000,35726,086,envlicens@north-dorset.gov.uk,North Dorset,http://www.dorsetforyou.com,-2.27239900000000,SP8 4QW,2014-12-15,fhrs_5_en-GB,5,,FHRS,5
297286,,,,,Lisa Notley Wedding Cakes,Other catering premises,7841,,,331727,,,,36981,086,envlicens@north-dorset.gov.uk,North Dorset,http://www.dorsetforyou.com,,,2011-11-22,fhrs_exempt_en-GB,Exempt,,FHRS,
297287,,,,,Lisa's Cupcakes,Other catering premises,7841,,,493420,,,,37260,086,envlicens@north-dorset.gov.uk,North Dorset,http://www.dorsetforyou.com,,,2012-10-22,fhrs_exempt_en-GB,Exempt,,FHRS,
297288,,Christys Lane,Shaftesbury,Dorset,Little Acorns Pre-School,Hospitals/Childcare/Caring Premises,5,,,643922,,,51.00844400000000,35690,086,envlicens@north-dorset.gov.uk,North Dorset,http://www.dorsetforyou.com,-2.18941600000000,SP7 8PH,2014-01-22,fhrs_exempt_en-GB,Exempt,,FHRS,
297289,Blandford St Mary C Of E Va First School,Birch Avenue,Blandford St Mary,Blandford Forum,Little Birch Pre School,Hospitals/Childcare/Caring Premises,5,,,331679,,,50.84809300000000,36914,086,envlicens@north-dorset.gov.uk,North Dorset,http://www.dorsetforyou.com,-2.16502900000000,DT11 9QD,2011-07-06,fhrs_exempt_en-GB,Exempt,,FHRS,
297290,,Station Road,Gillingham,Dorset,Little Buddha,Retailers - other,4613,,,331488,,,51.03639700000000,23692,086,envlicens@north-dorset.gov.uk,North Dorset,http://www.dorsetforyou.com,-2.27303400000000,SP8 4PY,2011-07-06,fhrs_exempt_en-GB,Exempt,,FHRS,
297291,Red Post Services,Winterborne Zelston,Blandford Forum,Dorset,Little Chef,Restaurant/Cafe/Canteen,1,5,,341752,5,,50.77514300000000,24029,086,envlicens@north-dorset.gov.uk,North Dorset,http://www.dorsetforyou.com,-2.15335500000000,DT11 9EX,2013-12-12,fhrs_5_en-GB,5,,FHRS,5
297292,,,,,Little Corner B & B,Hotel/bed & breakfast/guest house,7842,,,331481,,,,22499,086,envlicens@north-dorset.gov.uk,North Dorset,http://www.dorsetforyou.com,,,2014-02-17,fhrs_exempt_en-GB,Exempt,,FHRS,
297293,,,,,Little Miss Muffin,Other catering premises,7841,10,,341724,5,,,20079,086,envlicens@north-dorset.gov.uk,North Dorset,http://www.dorsetforyou.com,,,2012-02-15,fhrs_3_en-GB,3,,FHRS,10
297294,1 Beaton House,High Street,Gillingham,Dorset,Little Poland,Retailers - other,4613,10,,643932,10,,51.03710800000000,37666,086,envlicens@north-dorset.gov.uk,North Dorset,http://www.dorsetforyou.com,-2.27275300000000,SP8 4QT,2014-03-04,fhrs_2_en-GB,2,,FHRS,15
297295,Abbeyview Medical Centre,Hawkesdene Lane,Shaftesbury,Dorset,Lloyds Pharmacy,Retailers - other,4613,,,331630,,,51.00284700000000,36799,086,envlicens@north-dorset.gov.uk,North Dorset,http://www.dorsetforyou.com,-2.19126000000000,SP7 8DH,2014-03-01,fhrs_exempt_en-GB,Exempt,,FHRS,
297296,Childrens Centre,Black Lane,Blandford Forum,Dorset,Local Food Links,Manufacturers/packers,7839,0,,331575,0,,50.85755000000000,35520,086,envlicens@north-dorset.gov.uk,North Dorset,http://www.dorsetforyou.com,-2.15383900000000,DT11 8SW,2013-09-05,fhrs_5_en-GB,5,,FHRS,0
297297,Shillingstone Ce Va Primary School,Augustan Avenue,Shillingstone,Blandford Forum,Local Food Links,School/college/university,7845,0,,702339,0,,50.89469800000000,36838,086,envlicens@north-dorset.gov.uk,North Dorset,http://www.dorsetforyou.com,-2.24353900000000,DT11 0TX,2014-09-02,fhrs_5_en-GB,5,,FHRS,0
297298,,Blandford Camp,Blandford Forum,Dorset,Londis,Retailers - other,4613,0,,341794,0,,50.86830400000000,31391,086,envlicens@north-dorset.gov.uk,North Dorset,http://www.dorsetforyou.com,-2.12511200000000,DT11 8RH,2013-01-31,fhrs_5_en-GB,5,,FHRS,5
297299,,54 East Street,Blandford Forum,Dorset,Long John's Fish & Chips,Takeaway/sandwich shop,7844,5,,341719,5,,50.85682100000000,1905,086,envlicens@north-dorset.gov.uk,North Dorset,http://www.dorsetforyou.com,-2.16136600000000,DT11 7DR,2015-02-03,fhrs_5_en-GB,5,,FHRS,5
297300,,,,,Looking Glass Cakes,Other catering premises,7841,0,,619656,0,,,37592,086,envlicens@north-dorset.gov.uk,North Dorset,http://www.dorsetforyou.com,,,2013-12-04,fhrs_5_en-GB,5,,FHRS,5
297301,,High Street,Gillingham,Dorset,Lotus Garden,Takeaway/sandwich shop,7844,0,,341831,5,,51.03790600000000,35748,086,envlicens@north-dorset.gov.uk,North Dorset,http://www.dorsetforyou.com,-2.27747900000000,SP8 4AW,2014-06-05,fhrs_5_en-GB,5,,FHRS,5
297302,,,,,Love Chutneys,Retailers - other,4613,,,565907,,,,37464,086,envlicens@north-dorset.gov.uk,North Dorset,http://www.dorsetforyou.com,,,2013-07-04,fhrs_exempt_en-GB,Exempt,,FHRS,
297303,,,,,Lower Bryanston Farm Bed & Breakfast,Hotel/bed & breakfast/guest house,7842,,,331469,,,,20514,086,envlicens@north-dorset.gov.uk,North Dorset,http://www.dorsetforyou.com,,,2011-07-22,fhrs_exempt_en-GB,Exempt,,FHRS,
297304,,43 Salisbury Street,Blandford Forum,Dorset,Lucky House,Takeaway/sandwich shop,7844,,,341671,,,50.85764300000000,15852,086,envlicens@north-dorset.gov.uk,North Dorset,http://www.dorsetforyou.com,-2.16497800000000,DT11 7PX,2014-07-31,fhrs_3_en-GB,3,,FHRS,
297305,,1 Catherines Well,Milton Abbas,Blandford Forum,Lunch Box,Mobile caterer,7846,,,548396,,,50.81909700000000,37438,086,envlicens@north-dorset.gov.uk,North Dorset,http://www.dorsetforyou.com,-2.27257300000000,DT11 0AT,2013-04-30,fhrs_exempt_en-GB,Exempt,,FHRS,
297306,Village Hall,The Street,Sutton Waldron,Blandford Forum,Lunch Club,Other catering premises,7841,0,,341907,0,,50.94238900000000,37073,086,envlicens@north-dorset.gov.uk,North Dorset,http://www.dorsetforyou.com,-2.19862600000000,DT11 8PA,2013-05-03,fhrs_5_en-GB,5,,FHRS,0
297307,,,,,Lyde Hill Farmhouse B&B,Hotel/bed & breakfast/guest house,7842,,,331811,,,,37162,086,envlicens@north-dorset.gov.uk,North Dorset,http://www.dorsetforyou.com,,,2012-02-17,fhrs_exempt_en-GB,Exempt,,FHRS,
297308,,,,,M & N Else Seafoods of Stalbridge,Retailers - other,4613,10,,331376,5,,,13496,086,envlicens@north-dorset.gov.uk,North Dorset,http://www.dorsetforyou.com,,,2013-01-30,fhrs_4_en-GB,4,,FHRS,5
297309,,39 East Street,Blandford Forum,Dorset,Maharaja,Restaurant/Cafe/Canteen,1,10,,341849,10,,50.85638100000000,36642,086,envlicens@north-dorset.gov.uk,North Dorset,http://www.dorsetforyou.com,-2.16098100000000,DT11 7DU,2013-04-27,fhrs_3_en-GB,3,,FHRS,10
297310,,,,,Manna,Mobile caterer,7846,10,,667468,10,,,37607,086,envlicens@north-dorset.gov.uk,North Dorset,http://www.dorsetforyou.com,,,2014-06-04,fhrs_3_en-GB,3,,FHRS,10
297311,,,,,Manston Guest House,Hotel/bed & breakfast/guest house,7842,,,331764,,,,37038,086,envlicens@north-dorset.gov.uk,North Dorset,http://www.dorsetforyou.com,,,2012-09-28,fhrs_exempt_en-GB,Exempt,,FHRS,
297312,,The Green,Mappowder,Sturminster Newton,Mappowder Village Hall,Other catering premises,7841,,,331644,,,50.85441000000000,36824,086,envlicens@north-dorset.gov.uk,North Dorset,http://www.dorsetforyou.com,-2.37623000000000,DT10 2EL,2013-12-13,fhrs_exempt_en-GB,Exempt,,FHRS,
297313,,,,,Marie-Clare's Cupcakes,Other catering premises,7841,5,,576568,0,,,37543,086,envlicens@north-dorset.gov.uk,North Dorset,http://www.dorsetforyou.com,,,2013-08-07,fhrs_5_en-GB,5,,FHRS,0
297314,,51 High Street,Shaftesbury,Dorset,Marmaris,Takeaway/sandwich shop,7844,10,,341783,10,,51.00605900000000,30049,086,envlicens@north-dorset.gov.uk,North Dorset,http://www.dorsetforyou.com,-2.19580600000000,SP7 8JE,2014-03-01,fhrs_3_en-GB,3,,FHRS,5
297315,,Church Hill,Marnhull,Sturminster Newton,Marnhull Pharmacy,Retailers - other,4613,,,331500,,,50.96927000000000,24063,086,envlicens@north-dorset.gov.uk,North Dorset,http://www.dorsetforyou.com,-2.31238800000000,DT10 1PU,2011-09-22,fhrs_exempt_en-GB,Exempt,,FHRS,
297316,,New Street,Marnhull,Sturminster Newton,Marnhull Stores,Retailers - other,4613,5,,341695,5,,50.96499400000000,16433,086,envlicens@north-dorset.gov.uk,North Dorset,http://www.dorsetforyou.com,-2.32061800000000,DT10 1PX,2013-05-10,fhrs_5_en-GB,5,,FHRS,5
297317,,Burton Street,Marnhull,Sturminster Newton,Marnhull Village Hall,Other catering premises,7841,,,331780,,,50.97600400000000,37060,086,envlicens@north-dorset.gov.uk,North Dorset,http://www.dorsetforyou.com,-2.31264600000000,DT10 1JZ,2011-09-22,fhrs_exempt_en-GB,Exempt,,FHRS,
297318,,,,,Meatfree Martha,Other catering premises,7841,5,,372159,5,,,37233,086,envlicens@north-dorset.gov.uk,North Dorset,http://www.dorsetforyou.com,,,2013-12-04,fhrs_5_en-GB,5,,FHRS,5
297319,Melbury Abbas Village Hall,West Lane,Melbury Abbas,Shaftesbury,Melbury Abbas and Cann Village Club,Other catering premises,7841,,,331569,,,50.98563400000000,32948,086,envlicens@north-dorset.gov.uk,North Dorset,http://www.dorsetforyou.com,-2.17520500000000,SP7 0DB,2011-09-22,fhrs_exempt_en-GB,Exempt,,FHRS,
297320,,,,,Mere Down Falconry,Other catering premises,7841,5,,341939,5,,,7886,086,envlicens@north-dorset.gov.uk,North Dorset,http://www.dorsetforyou.com,,,2012-05-22,fhrs_4_en-GB,4,,FHRS,10
297321,,High Street,Gillingham,Dorset,Methodist Church Hall,Other catering premises,7841,,,331733,,,51.03745500000000,36995,086,envlicens@north-dorset.gov.uk,North Dorset,http://www.dorsetforyou.com,-2.27393900000000,SP8 4AG,2011-11-22,fhrs_exempt_en-GB,Exempt,,FHRS,
297322,,,,,Middle Farm,Other catering premises,7841,,,331788,,,,37078,086,envlicens@north-dorset.gov.uk,North Dorset,http://www.dorsetforyou.com,,,2014-01-21,fhrs_exempt_en-GB,Exempt,,FHRS,
297323,The Village Hall,The Causeway,Milborne St Andrew,Blandford Forum,Milborne Ladybirds Playgroup,Hospitals/Childcare/Caring Premises,5,,,331710,,,50.77782100000000,36955,086,envlicens@north-dorset.gov.uk,North Dorset,http://www.dorsetforyou.com,-2.28007600000000,DT11 0JB,2011-09-22,fhrs_exempt_en-GB,Exempt,,FHRS,
297324,,The Causeway,Milborne St Andrew,Blandford Forum,Milborne St Andrew Village Hall,Other catering premises,7841,,,331709,,,50.77782100000000,36953,086,envlicens@north-dorset.gov.uk,North Dorset,http://www.dorsetforyou.com,-2.28007600000000,DT11 0JB,2011-11-22,fhrs_exempt_en-GB,Exempt,,FHRS,
297325,Millbrook House,The Hollow,Child Okeford,Blandford Forum,Millbrook House,Hospitals/Childcare/Caring Premises,5,5,,331614,5,,50.91748100000000,36689,086,envlicens@north-dorset.gov.uk,North Dorset,http://www.dorsetforyou.com,-2.24106900000000,DT11 8EY,2014-01-11,fhrs_5_en-GB,5,,FHRS,0
297326,,,,,Milldown Stud,Other catering premises,7841,,,331647,,,,36830,086,envlicens@north-dorset.gov.uk,North Dorset,http://www.dorsetforyou.com,,,2011-06-09,fhrs_exempt_en-GB,Exempt,,FHRS,
297327,,,,,Milly's Magic Moments,Other catering premises,7841,5,,548397,5,,,37443,086,envlicens@north-dorset.gov.uk,North Dorset,http://www.dorsetforyou.com,,,2013-05-07,fhrs_5_en-GB,5,,FHRS,5
297328,,Milton Abbas,Blandford Forum,Dorset,Milton Abbey School Ltd,School/college/university,7845,5,,331557,5,,50.82066400000000,31746,086,envlicens@north-dorset.gov.uk,North Dorset,http://www.dorsetforyou.com,-2.28676400000000,DT11 0BZ,2015-01-08,fhrs_4_en-GB,4,,FHRS,10
297329,,Dorchester Hill,Winterborne Whitechurch,Blandford Forum,Milton Arms,Pub/bar/nightclub,7843,,,341698,,,50.80038000000000,16708,086,envlicens@north-dorset.gov.uk,North Dorset,http://www.dorsetforyou.com,-2.23260400000000,DT11 0HW,2014-08-12,fhrs_4_en-GB,4,,FHRS,
297330,,Mapperton Hill,Milton On Stour,Gillingham,Milton Primary School,School/college/university,7845,0,,341748,0,,51.05757200000000,23917,086,envlicens@north-dorset.gov.uk,North Dorset,http://www.dorsetforyou.com,-2.28481600000000,SP8 5QD,2014-09-11,fhrs_5_en-GB,5,,FHRS,5
297331,,Peacemarsh,Gillingham,Dorset,Mohuna Indian Restaurant & Take-away,Restaurant/Cafe/Canteen,1,5,,341785,5,,51.04824829101563,30477,086,envlicens@north-dorset.gov.uk,North Dorset,http://www.dorsetforyou.com,-2.28100705146790,SP8 4EU,2013-08-30,fhrs_5_en-GB,5,,FHRS,0
297332,1 The Parade,Station Road,Sturminster Newton,Dorset,Mona Lisa Pizzeria,Takeaway/sandwich shop,7844,10,,341768,0,,50.92709800000000,27895,086,envlicens@north-dorset.gov.uk,North Dorset,http://www.dorsetforyou.com,-2.30470600000000,DT10 1BA,2014-10-25,fhrs_2_en-GB,2,,FHRS,15
297333,,,,,Moot Cottage Bed & Breakfast,Hotel/bed & breakfast/guest house,7842,,,331686,,,,36924,086,envlicens@north-dorset.gov.uk,North Dorset,http://www.dorsetforyou.com,,,2011-11-22,fhrs_exempt_en-GB,Exempt,,FHRS,
297334,,,,,Mosaic,Retailers - other,4613,,,331662,,,,36859,086,envlicens@north-dorset.gov.uk,North Dorset,http://www.dorsetforyou.com,,,2014-02-18,fhrs_exempt_en-GB,Exempt,,FHRS,
297335,,Motcombe Road,Motcombe,Shaftesbury,Motcombe C Of E Vc Primary School,School/college/university,7845,0,,331553,0,,51.02601300000000,31179,086,envlicens@north-dorset.gov.uk,North Dorset,http://www.dorsetforyou.com,-2.21623700000000,SP7 9NT,2013-09-05,fhrs_5_en-GB,5,,FHRS,0
297336,,The Street,Motcombe,Shaftesbury,Motcombe Community Shop,Retailers - other,4613,0,,341688,5,,51.03044300000000,16184,086,envlicens@north-dorset.gov.uk,North Dorset,http://www.dorsetforyou.com,-2.21789800000000,SP7 9PF,2014-01-30,fhrs_5_en-GB,5,,FHRS,0
297337,,The Street,Motcombe,Shaftesbury,Motcombe Grange,Hospitals/Childcare/Caring Premises,5,5,,331554,5,,51.03427800000000,31203,086,envlicens@north-dorset.gov.uk,North Dorset,http://www.dorsetforyou.com,-2.22045400000000,SP7 9HJ,2013-06-01,fhrs_5_en-GB,5,,FHRS,0
297338,,The Street,Motcombe,Shaftesbury,Motcombe Memorial Hall,Other catering premises,7841,,,331541,,,51.02789500000000,28982,086,envlicens@north-dorset.gov.uk,North Dorset,http://www.dorsetforyou.com,-2.21479200000000,SP7 9PE,2014-02-18,fhrs_exempt_en-GB,Exempt,,FHRS,
297339,Motcombe Memorial Hall,The Street,Motcombe,Shaftesbury,Motcombe Memorial Hall Pop-up Cafe,Restaurant/Cafe/Canteen,1,10,,658410,10,,51.02789500000000,37660,086,envlicens@north-dorset.gov.uk,North Dorset,http://www.dorsetforyou.com,-2.21479200000000,SP7 9PE,2014-04-28,fhrs_3_en-GB,3,,FHRS,5
297340,,,,,Mr Bean,Other catering premises,7841,5,,372158,5,,,37232,086,envlicens@north-dorset.gov.uk,North Dorset,http://www.dorsetforyou.com,,,2013-11-19,fhrs_5_en-GB,5,,FHRS,5
297341,,,,,Mr Softee,Mobile caterer,7846,5,,331620,5,,,36778,086,envlicens@north-dorset.gov.uk,North Dorset,http://www.dorsetforyou.com,,,2014-05-02,fhrs_5_en-GB,5,,FHRS,5
297342,,,,,Mrs E Smith (Bed & Breakfast),Hotel/bed & breakfast/guest house,7842,,,331689,,,,36928,086,envlicens@north-dorset.gov.uk,North Dorset,http://www.dorsetforyou.com,,,2011-07-20,fhrs_exempt_en-GB,Exempt,,FHRS,
297343,,,,,Mrs Jayne Schouten,Other catering premises,7841,,,341921,,,,37150,086,envlicens@north-dorset.gov.uk,North Dorset,http://www.dorsetforyou.com,,,2011-07-05,fhrs_exempt_en-GB,Exempt,,FHRS,
297344,,Common Mead Lane,Gillingham,Dorset,Mulberry Court,Hospitals/Childcare/Caring Premises,5,0,,341808,10,,51.03267300000000,34523,086,envlicens@north-dorset.gov.uk,North Dorset,http://www.dorsetforyou.com,-2.28820000000000,SP8 4RE,2014-01-11,fhrs_4_en-GB,4,,FHRS,5
297345,,11 East Street,Blandford Forum,Dorset,Namaste Gurkha,Restaurant/Cafe/Canteen,1,,,341865,,,50.85638100000000,36809,086,envlicens@north-dorset.gov.uk,North Dorset,http://www.dorsetforyou.com,-2.16098100000000,DT11 7DU,2013-09-06,fhrs_4_en-GB,4,,FHRS,
297346,,,,,Nana Rooney's Cakes,Other catering premises,7841,5,,441412,5,,,37263,086,envlicens@north-dorset.gov.uk,North Dorset,http://www.dorsetforyou.com,,,2012-08-07,fhrs_5_en-GB,5,,FHRS,5
297347,,Penny Street,Sturminster Newton,Dorset,Nazareth Lodge,Hospitals/Childcare/Caring Premises,5,5,,331382,0,,50.92566200000000,14871,086,envlicens@north-dorset.gov.uk,North Dorset,http://www.dorsetforyou.com,-2.30361500000000,DT10 1DE,2014-02-21,fhrs_5_en-GB,5,,FHRS,5
297348,,77 Salisbury Street,Blandford Forum,Dorset,Nelsons Ale House,Pub/bar/nightclub,7843,10,,341838,5,,50.85857000000000,36618,086,envlicens@north-dorset.gov.uk,North Dorset,http://www.dorsetforyou.com,-2.16428500000000,DT11 7PY,2014-05-15,fhrs_2_en-GB,2,,FHRS,15
297349,,School Lane,Gillingham,Dorset,Netplay,Restaurant/Cafe/Canteen,1,5,,341916,10,,51.03750400000000,37113,086,envlicens@north-dorset.gov.uk,North Dorset,http://www.dorsetforyou.com,-2.27239900000000,SP8 4QW,2013-03-27,fhrs_3_en-GB,3,,FHRS,10
297350,Lox Lane Farm,Lox Lane,Shaftesbury,Dorset,New Covenant Church,Other catering premises,7841,0,,331522,5,,51.01305800000000,27773,086,envlicens@north-dorset.gov.uk,North Dorset,http://www.dorsetforyou.com,-2.24625500000000,SP7 9PU,2013-11-07,fhrs_5_en-GB,5,,FHRS,5
297351,,,,,Newhouse Farm Dairy,Distributors/Transporters,7,,,331825,,,,7675,086,envlicens@north-dorset.gov.uk,North Dorset,http://www.dorsetforyou.com,,,2014-02-18,fhrs_exempt_en-GB,Exempt,,FHRS,
297352,,,,,Newton House Bed & Breakfast,Hotel/bed & breakfast/guest house,7842,,,331681,,,,36918,086,envlicens@north-dorset.gov.uk,North Dorset,http://www.dorsetforyou.com,,,2011-09-22,fhrs_exempt_en-GB,Exempt,,FHRS,
297353,,,,,Nicki Else Cakes,Other catering premises,7841,,,331796,,,,37103,086,envlicens@north-dorset.gov.uk,North Dorset,http://www.dorsetforyou.com,,,2011-05-13,fhrs_exempt_en-GB,Exempt,,FHRS,
297354,Shaftesbury Primary School,Wincombe Lane,Shaftesbury,Dorset,North Dorset Childrens Centre,School/college/university,7845,0,,341886,0,,51.01138100000000,36899,086,envlicens@north-dorset.gov.uk,North Dorset,http://www.dorsetforyou.com,-2.18585000000000,SP7 8PZ,2014-09-12,fhrs_5_en-GB,5,,FHRS,5
297355,Shillingstone Station,Station Road,Shillingstone,Blandford Forum,North Dorset Railway Trust,Other catering premises,7841,,,331687,,,50.90486900000000,36925,086,envlicens@north-dorset.gov.uk,North Dorset,http://www.dorsetforyou.com,-2.25175500000000,DT11 0SA,2011-07-06,fhrs_exempt_en-GB,Exempt,,FHRS,
297356,,Longbury Hill Lane,Gillingham,Dorset,North Dorset Rugby Football Club,Pub/bar/nightclub,7843,0,,331456,0,,51.04586000000000,18357,086,envlicens@north-dorset.gov.uk,North Dorset,http://www.dorsetforyou.com,-2.30431600000000,SP8 5SY,2013-12-16,fhrs_5_en-GB,5,,FHRS,0
297357,2 Clive House,High Street,Gillingham,Dorset,Nourish Sandwich Shop,Takeaway/sandwich shop,7844,0,,341846,5,,51.03710800000000,36633,086,envlicens@north-dorset.gov.uk,North Dorset,http://www.dorsetforyou.com,-2.27275300000000,SP8 4QT,2015-02-04,fhrs_5_en-GB,5,,FHRS,5
297358,,,,,Number 5,Hotel/bed & breakfast/guest house,7842,,,341930,,,,37216,086,envlicens@north-dorset.gov.uk,North Dorset,http://www.dorsetforyou.com,,,2012-04-03,fhrs_exempt_en-GB,Exempt,,FHRS,
297359,,,,,Oak Court & Ash Lodge,Hospitals/Childcare/Caring Premises,5,10,,531688,5,,,37259,086,envlicens@north-dorset.gov.uk,North Dorset,http://www.dorsetforyou.com,,,2013-01-22,fhrs_4_en-GB,4,,FHRS,5
297360,,,,,Oak Tree Farm B & B,Hotel/bed & breakfast/guest house,7842,,,559652,,,,37454,086,envlicens@north-dorset.gov.uk,North Dorset,http://www.dorsetforyou.com,,,2013-06-11,fhrs_exempt_en-GB,Exempt,,FHRS,
297361,,The Cross,Okeford Fitzpaine,Blandford Forum,Oak Tree Pre School,Hospitals/Childcare/Caring Premises,5,,,331645,,,50.89742000000000,36825,086,envlicens@north-dorset.gov.uk,North Dorset,http://www.dorsetforyou.com,-2.27681200000000,DT11 0RF,2014-02-18,fhrs_exempt_en-GB,Exempt,,FHRS,
297362,,,,,Oats & Bees,Other catering premises,7841,5,,465425,5,,,37300,086,envlicens@north-dorset.gov.uk,North Dorset,http://www.dorsetforyou.com,,,2012-10-23,fhrs_5_en-GB,5,,FHRS,5
297363,,33a East Street,Blandford Forum,Dorset,Ocean City,Takeaway/sandwich shop,7844,10,,341716,10,,50.85638100000000,1892,086,envlicens@north-dorset.gov.uk,North Dorset,http://www.dorsetforyou.com,-2.16098100000000,DT11 7DU,2014-01-09,fhrs_3_en-GB,3,,FHRS,10
297364,,38 Salisbury Street,Blandford Forum,Dorset,Offcamber,Retailers - other,4613,,,331396,,,50.85749100000000,15849,086,envlicens@north-dorset.gov.uk,North Dorset,http://www.dorsetforyou.com,-2.16450800000000,DT11 7PR,2014-02-05,fhrs_exempt_en-GB,Exempt,,FHRS,
297365,,Mudros Road,Blandford Camp,Blandford Forum,Officers Mess,Restaurant/Cafe/Canteen,1,0,,331665,5,,50.87272900000000,36869,086,envlicens@north-dorset.gov.uk,North Dorset,http://www.dorsetforyou.com,-2.12430000000000,DT11 8RJ,2013-01-31,fhrs_5_en-GB,5,,FHRS,5
297366,,,,,Oh So Sweet,Other catering premises,7841,,,407057,,,,37227,086,envlicens@north-dorset.gov.uk,North Dorset,http://www.dorsetforyou.com,,,2012-06-11,fhrs_exempt_en-GB,Exempt,,FHRS,
297367,,,,,Oh So Sweet Tree,Retailers - other,4613,,,616723,,,,37581,086,envlicens@north-dorset.gov.uk,North Dorset,http://www.dorsetforyou.com,,,2013-11-19,fhrs_exempt_en-GB,Exempt,,FHRS,
297368,,,,,Ohh Crumbs,Other catering premises,7841,0,,619653,0,,,37566,086,envlicens@north-dorset.gov.uk,North Dorset,http://www.dorsetforyou.com,,,2013-12-05,fhrs_5_en-GB,5,,FHRS,5
297369,,Greenhayes,Okeford Fitzpaine,Blandford Forum,Okeford Fitzpaine Village Hall,Other catering premises,7841,,,331426,,,50.89638800000000,16954,086,envlicens@north-dorset.gov.uk,North Dorset,http://www.dorsetforyou.com,-2.27616600000000,DT11 0RE,2011-11-22,fhrs_exempt_en-GB,Exempt,,FHRS,
297370,,,,,Old Bakery Bed & Breakfast,Hotel/bed & breakfast/guest house,7842,,,331762,,,,37035,086,envlicens@north-dorset.gov.uk,North Dorset,http://www.dorsetforyou.com,,,2011-09-22,fhrs_exempt_en-GB,Exempt,,FHRS,
297371,,14 Salisbury Street,Shaftesbury,Dorset,Old Bakery Restaurant,Restaurant/Cafe/Canteen,1,5,,331373,5,,51.00565900000000,12277,086,envlicens@north-dorset.gov.uk,North Dorset,http://www.dorsetforyou.com,-2.19313900000000,SP7 8EJ,2013-02-26,fhrs_5_en-GB,5,,FHRS,5
297372,,,,,Old Causeway Bakery Bed & Breakfast,Hotel/bed & breakfast/guest house,7842,,,331688,,,,36926,086,envlicens@north-dorset.gov.uk,North Dorset,http://www.dorsetforyou.com,,,2013-02-14,fhrs_exempt_en-GB,Exempt,,FHRS,
297373,,,,,Old Farriers B&B,Hotel/bed & breakfast/guest house,7842,,,636986,,,,37567,086,envlicens@north-dorset.gov.uk,North Dorset,http://www.dorsetforyou.com,,,2014-03-06,fhrs_exempt_en-GB,Exempt,,FHRS,
297374,,,,,Old Forge Bed & Breakfast,Hotel/bed & breakfast/guest house,7842,,,331716,,,,36967,086,envlicens@north-dorset.gov.uk,North Dorset,http://www.dorsetforyou.com,,,2011-09-22,fhrs_exempt_en-GB,Exempt,,FHRS,
297375,,,,,Old Malthouse B&B,Hotel/bed & breakfast/guest house,7842,,,331815,,,,37209,086,envlicens@north-dorset.gov.uk,North Dorset,http://www.dorsetforyou.com,,,2012-01-12,fhrs_exempt_en-GB,Exempt,,FHRS,
297376,,,,,Old Malthouse Bed & Breakfast,Hotel/bed & breakfast/guest house,7842,,,331722,,,,36976,086,envlicens@north-dorset.gov.uk,North Dorset,http://www.dorsetforyou.com,,,2011-09-22,fhrs_exempt_en-GB,Exempt,,FHRS,
297377,,Blandford Road,Shillingstone,Blandford Forum,Old Ox Inn,Pub/bar/nightclub,7843,0,,331821,5,,50.89840300000000,501,086,envlicens@north-dorset.gov.uk,North Dorset,http://www.dorsetforyou.com,-2.24773900000000,DT11 0SF,2014-06-29,fhrs_5_en-GB,5,,FHRS,0
297378,,,,,Old Post Office Bed & Breakfast,Hotel/bed & breakfast/guest house,7842,,,331724,,,,36978,086,envlicens@north-dorset.gov.uk,North Dorset,http://www.dorsetforyou.com,,,2012-09-28,fhrs_exempt_en-GB,Exempt,,FHRS,
297379,,High Street,Stalbridge,Sturminster Newton,Old Rectory Residential Home,Hospitals/Childcare/Caring Premises,5,0,,341842,5,,50.96011800000000,36626,086,envlicens@north-dorset.gov.uk,North Dorset,http://www.dorsetforyou.com,-2.37837900000000,DT10 2LL,2014-06-05,fhrs_5_en-GB,5,,FHRS,5
297380,,,,,Oli's Cakes,Other catering premises,7841,,,605663,,,,37505,086,envlicens@north-dorset.gov.uk,North Dorset,http://www.dorsetforyou.com,,,2013-10-30,fhrs_exempt_en-GB,Exempt,,FHRS,
297381,Unit 23,Brickfields Business Park,Gillingham,Dorset,Olive Bowl Ltd,Restaurant/Cafe/Canteen,1,0,,341767,0,,51.03097300000000,27872,086,envlicens@north-dorset.gov.uk,North Dorset,http://www.dorsetforyou.com,-2.27348700000000,SP8 4PX,2014-06-06,fhrs_5_en-GB,5,,FHRS,5
297382,"Unit 1, North Dorset Business Park",Rolls Mill Way,Sturminster Newton,Dorset,Olives Et Al Deli,Retailers - other,4613,5,,451603,5,,50.92056300000000,37302,086,envlicens@north-dorset.gov.uk,North Dorset,http://www.dorsetforyou.com,-2.32049700000000,DT10 2GA,2013-10-09,fhrs_5_en-GB,5,,FHRS,5
297383,Unit 1,North Dorset Business Park,Sturminster Newton,Dorset,Olives Et Al Ltd,Manufacturers/packers,7839,0,,331492,0,,50.92056300000000,23966,086,envlicens@north-dorset.gov.uk,North Dorset,http://www.dorsetforyou.com,-2.32049700000000,DT10 2GA,2014-05-15,fhrs_5_en-GB,5,,FHRS,5
297384,,Broad Robin,Gillingham,Dorset,One Stop,Retailers - other,4613,,,537029,,,51.03655800000000,37214,086,envlicens@north-dorset.gov.uk,North Dorset,http://www.dorsetforyou.com,-2.28448700000000,SP8 4PJ,2014-09-12,fhrs_exempt_en-GB,Exempt,,FHRS,
297385,,Station Road,Sturminster Newton,Dorset,One Stop Community Store,Retailers - other,4613,5,,341694,5,,50.92678300000000,16427,086,envlicens@north-dorset.gov.uk,North Dorset,http://www.dorsetforyou.com,-2.30453300000000,DT10 1BB,2013-03-06,fhrs_5_en-GB,5,,FHRS,5
297386,,Salisbury Road,Blandford Forum,Dorset,One Stop Store,Retailers - other,4613,,,331430,,,50.86434600000000,17218,086,envlicens@north-dorset.gov.uk,North Dorset,http://www.dorsetforyou.com,-2.15590800000000,DT11 7LP,2011-11-22,fhrs_exempt_en-GB,Exempt,,FHRS,
297387,"Unit 14, Milborne Business Centre",Blandford Hill,Milborne St Andrew,Blandford Forum,Ooh Nice Baps,Mobile caterer,7846,10,,616725,10,,50.77924500000000,37597,086,envlicens@north-dorset.gov.uk,North Dorset,http://www.dorsetforyou.com,-2.27496500000000,DT11 0HZ,2013-11-18,fhrs_3_en-GB,3,,FHRS,10
297388,,Shaftesbury Road,Gillingham,Dorset,Orchard Park Garden Centre,Manufacturers/packers,7839,5,,341811,5,,51.02807500000000,34998,086,envlicens@north-dorset.gov.uk,North Dorset,http://www.dorsetforyou.com,-2.25487600000000,SP8 5JG,2012-11-16,fhrs_5_en-GB,5,,FHRS,5
297389,Beaufoy House,Beaufoy Close,Shaftesbury,Dorset,Oriental Express,Takeaway/sandwich shop,7844,5,,341813,5,,51.00744300000000,35044,086,envlicens@north-dorset.gov.uk,North Dorset,http://www.dorsetforyou.com,-2.18555000000000,SP7 8PT,2013-08-22,fhrs_4_en-GB,4,,FHRS,10
297390,,65/67 East Street,Blandford Forum,Dorset,Ottoman Kebabs (Blandford) Limited,Takeaway/sandwich shop,7844,10,,341666,10,,50.85585600000000,15757,086,envlicens@north-dorset.gov.uk,North Dorset,http://www.dorsetforyou.com,-2.16339500000000,DT11 7DX,2014-09-11,fhrs_3_en-GB,3,,FHRS,10
297391,,30b Salisbury Street,Blandford Forum,Dorset,Oxfam,Retailers - other,4613,,,331432,,,50.85664500000000,17247,086,envlicens@north-dorset.gov.uk,North Dorset,http://www.dorsetforyou.com,-2.16507400000000,DT11 7AR,2013-12-13,fhrs_exempt_en-GB,Exempt,,FHRS,
297392,,19 High Street,Shaftesbury,Dorset,Oxfam,Retailers - other,4613,,,331485,,,51.00569600000000,23243,086,envlicens@north-dorset.gov.uk,North Dorset,http://www.dorsetforyou.com,-2.19770000000000,SP7 8JS,2011-11-22,fhrs_exempt_en-GB,Exempt,,FHRS,
297393,,,,,P J Parker,Retailers - other,4613,10,,331538,5,,,28870,086,envlicens@north-dorset.gov.uk,North Dorset,http://www.dorsetforyou.com,,,2014-01-15,fhrs_4_en-GB,4,,FHRS,5
297394,,West Street,Winterborne Stickland,Blandford Forum,Pamela Hambro Hall,Other catering premises,7841,,,331398,,,50.83925900000000,15917,086,envlicens@north-dorset.gov.uk,North Dorset,http://www.dorsetforyou.com,-2.23962800000000,DT11 0NT,2011-09-22,fhrs_exempt_en-GB,Exempt,,FHRS,
297395,,Blandford School,Milldown Road,Blandford Forum,Panda Pre School,Hospitals/Childcare/Caring Premises,5,0,,643925,0,,50.86169200000000,37513,086,envlicens@north-dorset.gov.uk,North Dorset,http://www.dorsetforyou.com,-2.16983700000000,DT11 7SQ,2014-03-31,fhrs_5_en-GB,5,,FHRS,0
297396,,,,,Park Lodge Bungalow Bed & Breakfast,Hotel/bed & breakfast/guest house,7842,,,341899,,,,37043,086,envlicens@north-dorset.gov.uk,North Dorset,http://www.dorsetforyou.com,,,2011-12-06,fhrs_exempt_en-GB,Exempt,,FHRS,
297397,,,,,Peaceful Poultry (Chicken Hut),Mobile caterer,7846,5,,331611,0,,,36685,086,envlicens@north-dorset.gov.uk,North Dorset,http://www.dorsetforyou.com,,,2013-09-14,fhrs_5_en-GB,5,,FHRS,0
297398,,,,,Penhills Farm Bed & Breakfast,Hotel/bed & breakfast/guest house,7842,,,331692,,,,36931,086,envlicens@north-dorset.gov.uk,North Dorset,http://www.dorsetforyou.com,,,2011-09-22,fhrs_exempt_en-GB,Exempt,,FHRS,
297399,,Bleke Street,Shaftesbury,Dorset,Pepperell House,Hospitals/Childcare/Caring Premises,5,5,,341649,5,,51.00716900000000,10800,086,envlicens@north-dorset.gov.uk,North Dorset,http://www.dorsetforyou.com,-2.19876100000000,SP7 8JZ,2013-02-20,fhrs_5_en-GB,5,,FHRS,5
297400,,,,,Pig On A Pole,Mobile caterer,7846,5,,341871,5,,,36833,086,envlicens@north-dorset.gov.uk,North Dorset,http://www.dorsetforyou.com,,,2014-03-18,fhrs_4_en-GB,4,,FHRS,10
297401,,School Lane,Pimperne,Blandford Forum,Pimperne C Of E Vc First School,School/college/university,7845,5,,331437,5,,50.88404700000000,17425,086,envlicens@north-dorset.gov.uk,North Dorset,http://www.dorsetforyou.com,-2.13526200000000,DT11 8UG,2013-05-22,fhrs_5_en-GB,5,,FHRS,5
297402,Sports Pavillion,Old Bakery Close,Pimperne,Blandford Forum,Pimperne Pre School Playgroup,Hospitals/Childcare/Caring Premises,5,,,331776,,,50.87883800000000,37055,086,envlicens@north-dorset.gov.uk,North Dorset,http://www.dorsetforyou.com,-2.13736400000000,DT11 8BS,2011-07-20,fhrs_exempt_en-GB,Exempt,,FHRS,
297403,,Anvil Road,Pimperne,Blandford Forum,Pimperne Shop,Retailers - other,4613,,,331375,,,50.88333700000000,131,086,envlicens@north-dorset.gov.uk,North Dorset,http://www.dorsetforyou.com,-2.13520300000000,DT11 8UQ,2011-09-22,fhrs_exempt_en-GB,Exempt,,FHRS,
297404,Village Hall,Newfield Road,Pimperne,Blandford Forum,Pimperne Village Hall,Other catering premises,7841,5,,341824,5,,50.88594200000000,35557,086,envlicens@north-dorset.gov.uk,North Dorset,http://www.dorsetforyou.com,-2.13782600000000,DT11 8UZ,2013-01-02,fhrs_5_en-GB,5,,FHRS,5
297405,,,,,Pippins (Home Catering),Other catering premises,7841,,,331774,,,,37053,086,envlicens@north-dorset.gov.uk,North Dorset,http://www.dorsetforyou.com,,,2013-02-14,fhrs_exempt_en-GB,Exempt,,FHRS,
297406,,34 East Street,Blandford Forum,Dorset,Pizza King,Takeaway/sandwich shop,7844,0,,341664,0,,50.85682100000000,15743,086,envlicens@north-dorset.gov.uk,North Dorset,http://www.dorsetforyou.com,-2.16136600000000,DT11 7DR,2014-01-02,fhrs_5_en-GB,5,,FHRS,5
297407,,Ivy Cross,Shaftesbury,Dorset,Pizza Palace,Takeaway/sandwich shop,7844,0,,341730,5,,51.01054300000000,20657,086,envlicens@north-dorset.gov.uk,North Dorset,http://www.dorsetforyou.com,-2.19211900000000,SP7 8DS,2014-09-12,fhrs_5_en-GB,5,,FHRS,5
297408,5 The Centre,High Street,Gillingham,Dorset,Planet Juice,Restaurant/Cafe/Canteen,1,5,,643921,5,,51.03706100000000,35627,086,envlicens@north-dorset.gov.uk,North Dorset,http://www.dorsetforyou.com,-2.27343700000000,SP8 4AB,2014-05-08,fhrs_5_en-GB,5,,FHRS,5
297409,"Unit 2 Station House, Station Yard",Station Road,Gillingham,Dorset,Platform One,Restaurant/Cafe/Canteen,1,5,,724162,5,,51.03436400000000,40042,086,envlicens@north-dorset.gov.uk,North Dorset,http://www.dorsetforyou.com,-2.27295100000000,SP8 4PZ,2014-12-02,fhrs_5_en-GB,5,,FHRS,5
297410,,Plumber,Sturminster Newton,Dorset,Plumber Manor,Restaurant/Cafe/Canteen,1,0,,341723,0,,50.90480422973633,19510,086,envlicens@north-dorset.gov.uk,North Dorset,http://www.dorsetforyou.com,-2.32469820976257,DT10 2AF,2013-08-23,fhrs_5_en-GB,5,,FHRS,5
297411,3 Innes Court,Station Road,Sturminster Newton,Dorset,Poets Corner Cafe,Restaurant/Cafe/Canteen,1,5,,341691,10,,50.92722800000000,16291,086,envlicens@north-dorset.gov.uk,North Dorset,http://www.dorsetforyou.com,-2.30288600000000,DT10 1BD,2013-08-23,fhrs_4_en-GB,4,,FHRS,5
297412,,6 Cherryfields,Gillingham,Dorset,Pompoms,Other catering premises,7841,,,509347,,,51.04763300000000,37305,086,envlicens@north-dorset.gov.uk,North Dorset,http://www.dorsetforyou.com,-2.27445500000000,SP8 4TJ,2013-02-06,fhrs_exempt_en-GB,Exempt,,FHRS,
297413,,,,,Popfloss,Other catering premises,7841,5,,593877,0,,,37542,086,envlicens@north-dorset.gov.uk,North Dorset,http://www.dorsetforyou.com,,,2013-08-13,fhrs_5_en-GB,5,,FHRS,0
297414,,,,,Poppy's Mobile Catering,Mobile caterer,7846,5,,341870,10,,,36828,086,envlicens@north-dorset.gov.uk,North Dorset,http://www.dorsetforyou.com,,,2012-08-15,fhrs_4_en-GB,4,,FHRS,5
297415,,Motcombe Park,Motcombe,Shaftesbury,Port Regis School Ltd,School/college/university,7845,5,,331664,5,,51.01974487304688,36865,086,envlicens@north-dorset.gov.uk,North Dorset,http://www.dorsetforyou.com,-2.21625089645386,SP7 9QA,2013-07-02,fhrs_5_en-GB,5,,FHRS,5
297416,Blandford Road,Shillingstone,Blandford Forum,Dorset,Portman Hall,Other catering premises,7841,,,331422,,,50.89840300000000,16731,086,envlicens@north-dorset.gov.uk,North Dorset,http://www.dorsetforyou.com,-2.24773900000000,DT11 0SF,2014-03-03,fhrs_exempt_en-GB,Exempt,,FHRS,
297417,,West Street,Winterborne Stickland,Blandford Forum,Post Office,Other catering premises,7841,,,331484,,,50.83925900000000,23163,086,envlicens@north-dorset.gov.uk,North Dorset,http://www.dorsetforyou.com,-2.23962800000000,DT11 0NT,2011-11-22,fhrs_exempt_en-GB,Exempt,,FHRS,
297418,The Square,Milborne St Andrew,Blandford Forum,Dorset,Post Office,Retailers - other,4613,,,331424,,,50.77789000000000,16933,086,envlicens@north-dorset.gov.uk,North Dorset,http://www.dorsetforyou.com,-2.28145200000000,DT11 0JF,2014-02-27,fhrs_exempt_en-GB,Exempt,,FHRS,
297419,,34-35 The Street,Milton Abbas,Blandford Forum,Post Office And Stores,Retailers - other,4613,,,331550,,,50.81517600000000,30860,086,envlicens@north-dorset.gov.uk,North Dorset,http://www.dorsetforyou.com,-2.27660900000000,DT11 0BP,2011-11-22,fhrs_exempt_en-GB,Exempt,,FHRS,
297420,,43 East Street,Blandford Forum,Dorset,Prezzo,Restaurant/Cafe/Canteen,1,0,,331561,5,,50.85585600000000,31791,086,envlicens@north-dorset.gov.uk,North Dorset,http://www.dorsetforyou.com,-2.16339500000000,DT11 7DX,2014-03-12,fhrs_5_en-GB,5,,FHRS,0
297421,,,,,Pride and Chime,Other catering premises,7841,10,,732329,10,,,40056,086,envlicens@north-dorset.gov.uk,North Dorset,http://www.dorsetforyou.com,,,2015-01-08,fhrs_3_en-GB,3,,FHRS,10
297422,,6a Salisbury Street,Shaftesbury,Dorset,Prime Cuts Traditional & Catering Butchers,Manufacturers/packers,7839,5,,341858,5,,51.00565900000000,36691,086,envlicens@north-dorset.gov.uk,North Dorset,http://www.dorsetforyou.com,-2.19313900000000,SP7 8EJ,2014-03-06,fhrs_5_en-GB,5,,FHRS,5
297423,,Duntish View,Pulham,Dorchester,Pulham Village Hall,Other catering premises,7841,,,331586,,,50.87645800000000,35659,086,envlicens@north-dorset.gov.uk,North Dorset,http://www.dorsetforyou.com,-2.41880500000000,DT2 7DZ,2011-11-22,fhrs_exempt_en-GB,Exempt,,FHRS,
297424,,Oakfield Street,Blandford Forum,Dorset,Railway Hotel,Pub/bar/nightclub,7843,10,,341701,10,,50.85826900000000,16998,086,envlicens@north-dorset.gov.uk,North Dorset,http://www.dorsetforyou.com,-2.16078900000000,DT11 7EX,2013-06-24,fhrs_3_en-GB,3,,FHRS,10
297425,,,,,RCSF Ltd,Distributors/Transporters,7,,,341929,,,,37215,086,envlicens@north-dorset.gov.uk,North Dorset,http://www.dorsetforyou.com,,,2012-05-30,fhrs_exempt_en-GB,Exempt,,FHRS,
297426,,,,,Red Barn Foods Ltd,Other catering premises,7841,,,331803,,,,37130,086,envlicens@north-dorset.gov.uk,North Dorset,http://www.dorsetforyou.com,,,2011-12-06,fhrs_exempt_en-GB,Exempt,,FHRS,
297427,,High Street,Gillingham,Dorset,Red Lion,Pub/bar/nightclub,7843,,,341941,,,51.03733700000000,8186,086,envlicens@north-dorset.gov.uk,North Dorset,http://www.dorsetforyou.com,-2.27470800000000,SP8 4AA,2012-02-15,fhrs_exempt_en-GB,Exempt,,FHRS,
297428,,Winterborne Zelston,Blandford Forum,Dorset,Redpost Service Station,Retailers - other,4613,,,341751,,,50.77514300000000,24028,086,envlicens@north-dorset.gov.uk,North Dorset,http://www.dorsetforyou.com,-2.15335500000000,DT11 9EX,2013-08-03,fhrs_exempt_en-GB,Exempt,,FHRS,
297429,,13 Market Place,Blandford Forum,Dorset,Reeve The Baker,Retailers - other,4613,0,,331560,0,,50.85624000000000,31757,086,envlicens@north-dorset.gov.uk,North Dorset,http://www.dorsetforyou.com,-2.16508700000000,DT11 7AF,2013-10-05,fhrs_5_en-GB,5,,FHRS,0
297430,,16b High Street,Shaftesbury,Dorset,Reeve The Baker Ltd,Retailers - other,4613,5,,341826,5,,51.00609300000000,35598,086,envlicens@north-dorset.gov.uk,North Dorset,http://www.dorsetforyou.com,-2.19701800000000,SP7 8JG,2015-01-20,fhrs_5_en-GB,5,,FHRS,5
297431,,Blandford Camp,Blandford Forum,Dorset,Rendez Vous,Restaurant/Cafe/Canteen,1,0,,331667,0,,50.86830400000000,36871,086,envlicens@north-dorset.gov.uk,North Dorset,http://www.dorsetforyou.com,-2.12511200000000,DT11 8RH,2013-07-11,fhrs_5_en-GB,5,,FHRS,0
297432,,,,,Retreat Guest House,Hotel/bed & breakfast/guest house,7842,,,331680,,,,36915,086,envlicens@north-dorset.gov.uk,North Dorset,http://www.dorsetforyou.com,,,2011-11-22,fhrs_exempt_en-GB,Exempt,,FHRS,
297433,,Thornhill Road,Stalbridge,Sturminster Newton,Ring Street Filling Station,Retailers - other,4613,,,331421,,,50.95644900000000,16584,086,envlicens@north-dorset.gov.uk,North Dorset,http://www.dorsetforyou.com,-2.37570100000000,DT10 2NQ,2011-09-22,fhrs_exempt_en-GB,Exempt,,FHRS,
297434,,1 Mustons Lane,Shaftesbury,Dorset,Ristorante Amore,Restaurant/Cafe/Canteen,1,10,,341837,10,,51.00677900000000,36549,086,envlicens@north-dorset.gov.uk,North Dorset,http://www.dorsetforyou.com,-2.19569500000000,SP7 8AD,2013-06-11,fhrs_3_en-GB,3,,FHRS,10
297435,,Stour Hill,West Stour,Gillingham,Riverside Cafe,Restaurant/Cafe/Canteen,1,10,,341867,10,,51.00306100000000,36821,086,envlicens@north-dorset.gov.uk,North Dorset,http://www.dorsetforyou.com,-2.30269500000000,SP8 5RJ,2013-12-17,fhrs_3_en-GB,3,,FHRS,10
297436,,Stour Hill,West Stour,Gillingham,Riverside Garage,Retailers - other,4613,,,341893,,,51.00306100000000,36992,086,envlicens@north-dorset.gov.uk,North Dorset,http://www.dorsetforyou.com,-2.30269500000000,SP8 5RJ,2011-07-06,fhrs_exempt_en-GB,Exempt,,FHRS,
297437,,,,,RJ Cakes - Gillingham,Other catering premises,7841,5,,636988,5,,,37591,086,envlicens@north-dorset.gov.uk,North Dorset,http://www.dorsetforyou.com,,,2014-03-11,fhrs_5_en-GB,5,,FHRS,5
297438,,Burton Street,Marnhull,Sturminster Newton,Robin Hill Stores,Retailers - other,4613,5,,331377,0,,50.97378200000000,13619,086,envlicens@north-dorset.gov.uk,North Dorset,http://www.dorsetforyou.com,-2.32282900000000,DT10 1PH,2014-01-11,fhrs_5_en-GB,5,,FHRS,5
297439,,3 Market House,Market Place,Sturminster Newton,Root and Vine,Retailers - other,4613,,,341782,,,50.92634100000000,29764,086,envlicens@north-dorset.gov.uk,North Dorset,http://www.dorsetforyou.com,-2.30534100000000,DT10 1AS,2011-11-22,fhrs_exempt_en-GB,Exempt,,FHRS,
297440,,,,,Rosemary House Bed & Breakfast,Hotel/bed & breakfast/guest house,7842,,,331721,,,,36975,086,envlicens@north-dorset.gov.uk,North Dorset,http://www.dorsetforyou.com,,,2011-09-22,fhrs_exempt_en-GB,Exempt,,FHRS,
297441,,Sodom Lane,Marnhull,Sturminster Newton,Royal British Legion,Other catering premises,7841,,,331547,,,50.97130300000000,30320,086,envlicens@north-dorset.gov.uk,North Dorset,http://www.dorsetforyou.com,-2.30520900000000,DT10 1HR,2011-09-22,fhrs_exempt_en-GB,Exempt,,FHRS,
297442,,Barrow Hill,Stalbridge,Sturminster Newton,Royal British Legion,Pub/bar/nightclub,7843,,,331412,,,50.95898100000000,16193,086,envlicens@north-dorset.gov.uk,North Dorset,http://www.dorsetforyou.com,-2.37963700000000,DT10 2QX,2012-10-05,fhrs_exempt_en-GB,Exempt,,FHRS,
297443,,School Lane,Gillingham,Dorset,Royal British Legion,Pub/bar/nightclub,7843,,,331453,,,51.03750400000000,18144,086,envlicens@north-dorset.gov.uk,North Dorset,http://www.dorsetforyou.com,-2.27239900000000,SP8 4QW,2011-11-22,fhrs_exempt_en-GB,Exempt,,FHRS,
297444,,Coppice Street,Shaftesbury,Dorset,Royal British Legion,Pub/bar/nightclub,7843,,,331445,,,51.00520000000000,17936,086,envlicens@north-dorset.gov.uk,North Dorset,http://www.dorsetforyou.com,-2.18806300000000,SP7 8PF,2014-02-12,fhrs_exempt_en-GB,Exempt,,FHRS,
297445,,Bath Road,Sturminster Newton,Dorset,Royal British Legion,Pub/bar/nightclub,7843,10,,341692,0,,50.92815900000000,16378,086,envlicens@north-dorset.gov.uk,North Dorset,http://www.dorsetforyou.com,-2.30469900000000,DT10 1DU,2013-11-30,fhrs_4_en-GB,4,,FHRS,10
297446,,Church Lane,Blandford Forum,Dorset,Royal British Legion,Pub/bar/nightclub,7843,10,,341823,10,,50.85635800000000,35521,086,envlicens@north-dorset.gov.uk,North Dorset,http://www.dorsetforyou.com,-2.16447600000000,DT11 7AD,2014-12-16,fhrs_3_en-GB,3,,FHRS,10
297447,,Salisbury Road,Shaftesbury,Dorset,Royal Chase Hotel,Hotel/bed & breakfast/guest house,7842,0,,331410,0,,51.00296600000000,16175,086,envlicens@north-dorset.gov.uk,North Dorset,http://www.dorsetforyou.com,-2.18456300000000,SP7 8DB,2013-08-22,fhrs_5_en-GB,5,,FHRS,0
297448,Sunnyside,The Chalk,Iwerne Minster,Blandford Forum,S Harvell Butchers,Retailers - other,4613,0,,331435,0,,50.92798800000000,17404,086,envlicens@north-dorset.gov.uk,North Dorset,http://www.dorsetforyou.com,-2.19058300000000,DT11 8NA,2013-11-07,fhrs_5_en-GB,5,,FHRS,0
297449,,26 High Street,Shaftesbury,Dorset,S K Fruits Limited,Retailers - other,4613,,,331370,,,51.00609300000000,11379,086,envlicens@north-dorset.gov.uk,North Dorset,http://www.dorsetforyou.com,-2.19701800000000,SP7 8JG,2014-02-18,fhrs_exempt_en-GB,Exempt,,FHRS,
297450,,,,,S W Hannam & Son (Village Market),Retailers - other,4613,,,608731,,,,37475,086,envlicens@north-dorset.gov.uk,North Dorset,http://www.dorsetforyou.com,,,2013-10-31,fhrs_exempt_en-GB,Exempt,,FHRS,
297451,2-4 Gold Hill Parade,Gold Hill,Shaftesbury,Dorset,Salt Cellar,Restaurant/Cafe/Canteen,1,0,,341850,0,,51.00568800000000,36643,086,envlicens@north-dorset.gov.uk,North Dorset,http://www.dorsetforyou.com,-2.19704400000000,SP7 8LY,2013-07-06,fhrs_4_en-GB,4,,FHRS,10
297452,,Lower Road,Stalbridge,Sturminster Newton,Sandhills Residential Home,Hospitals/Childcare/Caring Premises,5,0,,331515,0,,50.95601700000000,26432,086,envlicens@north-dorset.gov.uk,North Dorset,http://www.dorsetforyou.com,-2.37293600000000,DT10 2NJ,2014-03-24,fhrs_5_en-GB,5,,FHRS,0
297453,,Gold Hill,Child Okeford,Blandford Forum,Saxon Inn,Pub/bar/nightclub,7843,0,,341756,0,,50.91873500000000,2421,086,envlicens@north-dorset.gov.uk,North Dorset,http://www.dorsetforyou.com,-2.24343700000000,DT11 8HD,2013-09-02,fhrs_5_en-GB,5,,FHRS,5
297454,"Unit 3, Gold Hill House",21 High Street,Shaftesbury,Dorset,Saxons Photographic,Retailers - other,4613,,,331403,,,51.00605900000000,16099,086,envlicens@north-dorset.gov.uk,North Dorset,http://www.dorsetforyou.com,-2.19580600000000,SP7 8JE,2013-12-12,fhrs_exempt_en-GB,Exempt,,FHRS,
297455,Spetisbury Va Ce Primary School,High Street,Spetisbury,Blandford Forum,Scamps Pre School,Hospitals/Childcare/Caring Premises,5,,,331625,,,50.82550400000000,36790,086,envlicens@north-dorset.gov.uk,North Dorset,http://www.dorsetforyou.com,-2.12900100000000,DT11 9DF,2014-01-17,fhrs_exempt_en-GB,Exempt,,FHRS,
297456,,,,,Scarlett Watts Catering,Other catering premises,7841,5,,331527,5,,,28026,086,envlicens@north-dorset.gov.uk,North Dorset,http://www.dorsetforyou.com,,,2013-10-16,fhrs_5_en-GB,5,,FHRS,5
297457,,Market Place,Sturminster Newton,Dorset,Scribes,Retailers - other,4613,,,331711,,,50.92619800000000,36957,086,envlicens@north-dorset.gov.uk,North Dorset,http://www.dorsetforyou.com,-2.30478500000000,DT10 1AR,2011-07-06,fhrs_exempt_en-GB,Exempt,,FHRS,
297458,,,,,Scrumptious Secrets,Other catering premises,7841,5,,341731,5,,,20932,086,envlicens@north-dorset.gov.uk,North Dorset,http://www.dorsetforyou.com,,,2013-09-16,fhrs_5_en-GB,5,,FHRS,5
297459,,2a Barnack Walk,Blandford Forum,Dorset,Scruples,Restaurant/Cafe/Canteen,1,0,,341661,0,,50.85535700000000,15702,086,envlicens@north-dorset.gov.uk,North Dorset,http://www.dorsetforyou.com,-2.16612000000000,DT11 7AL,2014-06-06,fhrs_5_en-GB,5,,FHRS,5
297460,,1 Station Road,Gillingham,Dorset,Seafood Fish & Chips,Takeaway/sandwich shop,7844,5,,723765,5,,51.03639700000000,37703,086,envlicens@north-dorset.gov.uk,North Dorset,http://www.dorsetforyou.com,-2.27303400000000,SP8 4PY,2014-06-20,fhrs_5_en-GB,5,,FHRS,5
297461,,,,,Serena's Babies,Other catering premises,7841,,,451598,,,,37264,086,envlicens@north-dorset.gov.uk,North Dorset,http://www.dorsetforyou.com,,,2012-06-27,fhrs_exempt_en-GB,Exempt,,FHRS,
297462,,,,,Serious Produce,Other catering premises,7841,5,,636991,5,,,37639,086,envlicens@north-dorset.gov.uk,North Dorset,http://www.dorsetforyou.com,,,2014-02-26,fhrs_4_en-GB,4,,FHRS,10
297463,,,,,Shaftesbury & Gillingham Round Table,Mobile caterer,7846,5,,341880,10,,,36878,086,envlicens@north-dorset.gov.uk,North Dorset,http://www.dorsetforyou.com,,,2013-01-16,fhrs_3_en-GB,3,,FHRS,10
297464,,13 Bell Street,Shaftesbury,Dorset,Shaftesbury Arts Centre,Restaurant/Cafe/Canteen,1,,,331400,,,51.00662300000000,16071,086,envlicens@north-dorset.gov.uk,North Dorset,http://www.dorsetforyou.com,-2.19706300000000,SP7 8AR,2013-10-25,fhrs_exempt_en-GB,Exempt,,FHRS,
297465,,Bleke Street,Shaftesbury,Dorset,Shaftesbury Bowling Club,Other catering premises,7841,,,331735,,,51.00895600000000,36998,086,envlicens@north-dorset.gov.uk,North Dorset,http://www.dorsetforyou.com,-2.19487700000000,SP7 8QA,2011-11-22,fhrs_exempt_en-GB,Exempt,,FHRS,
297466,,Christys Lane,Shaftesbury,Dorset,Shaftesbury Cattle Market Cafe,Restaurant/Cafe/Canteen,1,5,,341683,5,,51.00336000000000,16085,086,envlicens@north-dorset.gov.uk,North Dorset,http://www.dorsetforyou.com,-2.18586100000000,SP7 8NQ,2013-02-21,fhrs_4_en-GB,4,,FHRS,10
297467,,,,,Shaftesbury Country Market,Retailers - other,4613,,,331739,,,,37002,086,envlicens@north-dorset.gov.uk,North Dorset,http://www.dorsetforyou.com,,,2011-11-22,fhrs_exempt_en-GB,Exempt,,FHRS,
297468,,Coppice Street,Shaftesbury,Dorset,Shaftesbury Football Club,Pub/bar/nightclub,7843,,,331448,,,51.00636200000000,17957,086,envlicens@north-dorset.gov.uk,North Dorset,http://www.dorsetforyou.com,-2.19217300000000,SP7 8PD,2011-11-22,fhrs_exempt_en-GB,Exempt,,FHRS,
297469,,High Street,Shaftesbury,Dorset,Shaftesbury Town Hall,Other catering premises,7841,5,,331409,5,,51.00605900000000,16132,086,envlicens@north-dorset.gov.uk,North Dorset,http://www.dorsetforyou.com,-2.19580600000000,SP7 8JE,2014-01-27,fhrs_5_en-GB,5,,FHRS,5
297470,,Salisbury Road,Shaftesbury,Dorset,Shaftesbury Upper School,School/college/university,7845,,,331446,,,51.00418000000000,17939,086,envlicens@north-dorset.gov.uk,North Dorset,http://www.dorsetforyou.com,-2.19045300000000,SP7 8ER,2013-11-12,fhrs_awaitinginspection_en-GB,AwaitingInspection,,FHRS,
297471,,57 High Street,Shaftesbury,Dorset,Shaftesbury Wines,Retailers - other,4613,,,331407,,,51.00605900000000,16127,086,envlicens@north-dorset.gov.uk,North Dorset,http://www.dorsetforyou.com,-2.19580600000000,SP7 8JE,2012-08-15,fhrs_exempt_en-GB,Exempt,,FHRS,
297472,,Coppice Street,Shaftesbury,Dorset,Shaftesbury Youth Club,Other catering premises,7841,,,331444,,,51.00520000000000,17892,086,envlicens@north-dorset.gov.uk,North Dorset,http://www.dorsetforyou.com,-2.18806300000000,SP7 8PF,2014-03-08,fhrs_exempt_en-GB,Exempt,,FHRS,
297473,,20 East Street,Blandford Forum,Dorset,Shanghai Chinese Take-away,Takeaway/sandwich shop,7844,10,,341715,10,,50.85682100000000,1880,086,envlicens@north-dorset.gov.uk,North Dorset,http://www.dorsetforyou.com,-2.16136600000000,DT11 7DR,2012-05-03,fhrs_3_en-GB,3,,FHRS,10
297474,,Bleke Street,Shaftesbury,Dorset,Shaston Social Club Ltd,Pub/bar/nightclub,7843,,,331402,,,51.00791800000000,16084,086,envlicens@north-dorset.gov.uk,North Dorset,http://www.dorsetforyou.com,-2.19739600000000,SP7 8AW,2011-07-06,fhrs_exempt_en-GB,Exempt,,FHRS,
297475,,Station Road,Shillingstone,"Blandford Forum, Dorset",Shillingstone Station,Other catering premises,7841,5,,410735,5,,50.90486900000000,36641,086,envlicens@north-dorset.gov.uk,North Dorset,http://www.dorsetforyou.com,-2.25175500000000,DT11 0SA,2012-06-27,fhrs_5_en-GB,5,,FHRS,5
297476,,Market Cross,Sturminster Newton,Dorset,Shine Cafe Bar,Restaurant/Cafe/Canteen,1,5,,341693,5,,50.92546000000000,16408,086,envlicens@north-dorset.gov.uk,North Dorset,http://www.dorsetforyou.com,-2.30516500000000,DT10 1AN,2013-07-04,fhrs_5_en-GB,5,,FHRS,5
297477,,Bleke Street,Shaftesbury,Dorset,Ship Inn,Pub/bar/nightclub,7843,5,,341707,5,,51.00716900000000,17751,086,envlicens@north-dorset.gov.uk,North Dorset,http://www.dorsetforyou.com,-2.19876100000000,SP7 8JZ,2012-10-09,fhrs_5_en-GB,5,,FHRS,5
297478,,,,,Shirley Cole (Home Caterer),Other catering premises,7841,,,331760,,,,37033,086,envlicens@north-dorset.gov.uk,North Dorset,http://www.dorsetforyou.com,,,2011-09-22,fhrs_exempt_en-GB,Exempt,,FHRS,
297479,,27 High Street,Stalbridge,Sturminster Newton,Shy Violet,Restaurant/Cafe/Canteen,1,,,331793,,,50.96002700000000,37091,086,envlicens@north-dorset.gov.uk,North Dorset,http://www.dorsetforyou.com,-2.37874900000000,DT10 2LH,2011-04-20,fhrs_exempt_en-GB,Exempt,,FHRS,
297480,Silton Village Hall,Church Road,Silton,Gillingham,Silton Lunch Club,Other catering premises,7841,5,,526087,5,,51.07153900000000,37378,086,envlicens@north-dorset.gov.uk,North Dorset,http://www.dorsetforyou.com,-2.31541700000000,SP8 5PW,2014-02-27,fhrs_5_en-GB,5,,FHRS,5
297481,,Church Road,Silton,Gillingham,Silton Village Hall,Other catering premises,7841,,,341868,,,51.07092000000000,36822,086,envlicens@north-dorset.gov.uk,North Dorset,http://www.dorsetforyou.com,-2.31499900000000,SP8 5PN,2014-02-20,fhrs_exempt_en-GB,Exempt,,FHRS,
297482,,12 West Street,Blandford Forum,Dorset,Simla,Restaurant/Cafe/Canteen,1,0,,341935,0,,50.85595100000000,6622,086,envlicens@north-dorset.gov.uk,North Dorset,http://www.dorsetforyou.com,-2.16613700000000,DT11 7AJ,2014-09-11,fhrs_5_en-GB,5,,FHRS,5
297483,"Unit 8, Spire Hill Business Park",Cooks Lane,Stalbridge,Sturminster Newton,Simply Cooking,Manufacturers/packers,7839,5,,341749,5,,50.93734200000000,23971,086,envlicens@north-dorset.gov.uk,North Dorset,http://www.dorsetforyou.com,-2.37796600000000,DT10 2SG,2014-02-20,fhrs_5_en-GB,5,,FHRS,5
297484,,,,,Simply Sweet,Retailers - other,4613,10,,555879,5,,,37476,086,envlicens@north-dorset.gov.uk,North Dorset,http://www.dorsetforyou.com,,,2013-04-29,fhrs_4_en-GB,4,,FHRS,5
297485,,24c Wincombe Business Park,Shaftesbury,Dorset,Skevy's Cafe,Restaurant/Cafe/Canteen,1,0,,341857,0,,51.01735000000000,36690,086,envlicens@north-dorset.gov.uk,North Dorset,http://www.dorsetforyou.com,-2.18682900000000,SP7 9QJ,2013-10-22,fhrs_5_en-GB,5,,FHRS,0
297486,,,,,Slait Farm Bed & Breakfast,Hotel/bed & breakfast/guest house,7842,,,331648,,,,36831,086,envlicens@north-dorset.gov.uk,North Dorset,http://www.dorsetforyou.com,,,2014-05-12,fhrs_exempt_en-GB,Exempt,,FHRS,
297487,,Milldown Road,Blandford Forum,Dorset,SLM Blandford Leisure Centre,Other catering premises,7841,,,331506,,,50.86146000000000,24114,086,envlicens@north-dorset.gov.uk,North Dorset,http://www.dorsetforyou.com,-2.16851500000000,DT11 7DB,2011-11-22,fhrs_exempt_en-GB,Exempt,,FHRS,
297488,,,,,Something Sporty,Manufacturers/packers,7839,,,331754,,,,37026,086,envlicens@north-dorset.gov.uk,North Dorset,http://www.dorsetforyou.com,,,2011-09-22,fhrs_exempt_en-GB,Exempt,,FHRS,
297489,,South Street,Gillingham,Dorset,South Street Kitchen,Restaurant/Cafe/Canteen,1,5,,693840,5,,51.03751000000000,37701,086,envlicens@north-dorset.gov.uk,North Dorset,http://www.dorsetforyou.com,-2.27751900000000,SP8 4AP,2014-08-06,fhrs_5_en-GB,5,,FHRS,5
297490,,,,,Southern Bed & Breakfast,Hotel/bed & breakfast/guest house,7842,,,331790,,,,37080,086,envlicens@north-dorset.gov.uk,North Dorset,http://www.dorsetforyou.com,,,2011-09-07,fhrs_exempt_en-GB,Exempt,,FHRS,
297491,,21 Market Place,Blandford Forum,Dorset,Spar,Retailers - other,4613,5,,341770,10,,50.85624000000000,27897,086,envlicens@north-dorset.gov.uk,North Dorset,http://www.dorsetforyou.com,-2.16508700000000,DT11 7AF,2013-03-01,fhrs_4_en-GB,4,,FHRS,5
297492,,Spetisbury,Blandford Forum,Dorset,Spetisbury Manor,Hospitals/Childcare/Caring Premises,5,0,,341721,0,,50.81607437133789,19398,086,envlicens@north-dorset.gov.uk,North Dorset,http://www.dorsetforyou.com,-2.11573147773743,DT11 9EB,2014-06-06,fhrs_5_en-GB,5,,FHRS,5
297493,,High Street,Spetisbury,Blandford Forum,Spetisbury Va Ce Primary School,School/college/university,7845,0,,331388,0,,50.82550400000000,15772,086,envlicens@north-dorset.gov.uk,North Dorset,http://www.dorsetforyou.com,-2.12900100000000,DT11 9DF,2012-07-10,fhrs_5_en-GB,5,,FHRS,0
297494,,High Street,Spetisbury,Blandford Forum,Spetisbury Village Hall,Other catering premises,7841,,,331628,,,50.82138000000000,36795,086,envlicens@north-dorset.gov.uk,North Dorset,http://www.dorsetforyou.com,-2.12636300000000,DT11 9DT,2014-02-17,fhrs_exempt_en-GB,Exempt,,FHRS,
297495,,29 Salisbury Street,Blandford Forum,Dorset,Spice India,Takeaway/sandwich shop,7844,0,,341933,5,,50.85663500000000,5509,086,envlicens@north-dorset.gov.uk,North Dorset,http://www.dorsetforyou.com,-2.16562800000000,DT11 7AU,2013-09-03,fhrs_5_en-GB,5,,FHRS,5
297496,Neals Yard Remedies Ltd,Peacemarsh Road,Gillingham,Dorset,Springfield Garden Kitchen,Retailers - other,4613,5,,331673,5,,51.04824700000000,36900,086,envlicens@north-dorset.gov.uk,North Dorset,http://www.dorsetforyou.com,-2.28100700000000,SP8 4EU,2013-03-16,fhrs_5_en-GB,5,,FHRS,5
297497,,Mill Street,Fontmell Magna,Shaftesbury,Springhead Trust,Other catering premises,7841,0,,331504,0,,50.95099700000000,24094,086,envlicens@north-dorset.gov.uk,North Dorset,http://www.dorsetforyou.com,-2.18606500000000,SP7 0NU,2014-03-25,fhrs_5_en-GB,5,,FHRS,5
297498,,Salisbury Road,Shaftesbury,Dorset,St Denis Lodge,Hospitals/Childcare/Caring Premises,5,5,,331374,5,,51.00199200000000,12314,086,envlicens@north-dorset.gov.uk,North Dorset,http://www.dorsetforyou.com,-2.18091000000000,SP7 8BS,2014-01-30,fhrs_5_en-GB,5,,FHRS,5
297499,,Church Track,Bourton,Gillingham,St Georges C of E Primary School,School/college/university,7845,0,,331489,0,,51.07223100000000,23932,086,envlicens@north-dorset.gov.uk,North Dorset,http://www.dorsetforyou.com,-2.33163600000000,SP8 5BN,2013-09-05,fhrs_5_en-GB,5,,FHRS,0
297500,,Foyle Hill,Shaftesbury,Dorset,St James Church,Other catering premises,7841,,,331571,,,51.00127000000000,33714,086,envlicens@north-dorset.gov.uk,North Dorset,http://www.dorsetforyou.com,-2.20400900000000,SP7 8HG,2011-11-22,fhrs_exempt_en-GB,Exempt,,FHRS,
297501,,,,,St Martins House Bed & Breakfast,Hotel/bed & breakfast/guest house,7842,,,331693,,,,36933,086,envlicens@north-dorset.gov.uk,North Dorset,http://www.dorsetforyou.com,,,2011-11-22,fhrs_exempt_en-GB,Exempt,,FHRS,
297502,,Queen Street,Gillingham,Dorset,St Martins Residential Home,Hospitals/Childcare/Caring Premises,5,5,,331604,0,,51.04009200000000,36638,086,envlicens@north-dorset.gov.uk,North Dorset,http://www.dorsetforyou.com,-2.27700700000000,SP8 4DZ,2013-07-06,fhrs_5_en-GB,5,,FHRS,5
297503,,Station Road,Child Okeford,Blandford Forum,St Nicholas C Of E Primary School,School/college/university,7845,0,,499697,0,,50.91101400000000,37301,086,envlicens@north-dorset.gov.uk,North Dorset,http://www.dorsetforyou.com,-2.23723800000000,DT11 8EL,2013-01-10,fhrs_5_en-GB,5,,FHRS,0
297504,,5 Gold Hill,Shaftesbury,Dorset,St Peters Church Hall,Other catering premises,7841,,,331731,,,51.00545500000000,36989,086,envlicens@north-dorset.gov.uk,North Dorset,http://www.dorsetforyou.com,-2.19694400000000,SP7 8JW,2011-11-22,fhrs_exempt_en-GB,Exempt,,FHRS,
297505,,,,,Staddle Stones B&B,Hotel/bed & breakfast/guest house,7842,,,331640,,,,36815,086,envlicens@north-dorset.gov.uk,North Dorset,http://www.dorsetforyou.com,,,2014-02-05,fhrs_exempt_en-GB,Exempt,,FHRS,
297506,,1 Ring Street,Stalbridge,Sturminster Newton,Stalbridge Fish Bar,Takeaway/sandwich shop,7844,5,,331420,5,,50.95868100000000,16583,086,envlicens@north-dorset.gov.uk,North Dorset,http://www.dorsetforyou.com,-2.37784100000000,DT10 2LZ,2013-01-09,fhrs_5_en-GB,5,,FHRS,5
297507,,Lower Road,Stalbridge,Sturminster Newton,Stalbridge Hall,Other catering premises,7841,,,331549,,,50.95847400000000,30842,086,envlicens@north-dorset.gov.uk,North Dorset,http://www.dorsetforyou.com,-2.37497700000000,DT10 2PA,2014-02-17,fhrs_exempt_en-GB,Exempt,,FHRS,
297508,"Unit 1 To 2, The Sidings",Station Road,Stalbridge,Sturminster Newton,Stalbridge Kebab & Pizza House,Takeaway/sandwich shop,7844,0,,341690,5,,50.96136400000000,16264,086,envlicens@north-dorset.gov.uk,North Dorset,http://www.dorsetforyou.com,-2.37119900000000,DT10 2SS,2013-02-18,fhrs_5_en-GB,5,,FHRS,5
297509,Stalbridge Hall,Lower Road,Stalbridge,Sturminster Newton,Stalbridge Lunch Club,Other catering premises,7841,5,,531690,5,,50.95847400000000,37365,086,envlicens@north-dorset.gov.uk,North Dorset,http://www.dorsetforyou.com,-2.37497700000000,DT10 2PA,2013-03-06,fhrs_5_en-GB,5,,FHRS,5
297510,Pleck Hill,Wonston,Hazelbury Bryan,Sturminster Newton,Star Farm,Retailers - other,4613,,,341912,,,50.87370200000000,37100,086,envlicens@north-dorset.gov.uk,North Dorset,http://www.dorsetforyou.com,-2.36952100000000,DT10 2EG,2012-02-13,fhrs_exempt_en-GB,Exempt,,FHRS,
297511,William Barnes Cp School,Bridge Street,Sturminster Newton,Dorset,Stepping Stones Playgroup,Hospitals/Childcare/Caring Premises,5,,,331729,,,50.92455800000000,36983,086,envlicens@north-dorset.gov.uk,North Dorset,http://www.dorsetforyou.com,-2.30626900000000,DT10 1BZ,2011-11-22,fhrs_exempt_en-GB,Exempt,,FHRS,
297512,,,,,Stickland Goats,Manufacturers/packers,7839,10,,341832,10,,,35921,086,envlicens@north-dorset.gov.uk,North Dorset,http://www.dorsetforyou.com,,,2014-02-11,fhrs_3_en-GB,3,,FHRS,10
297513,,Stockhill,Gillingham,Dorset,Stockhill House,Other catering premises,7841,5,,331465,5,,51.04139328002930,19183,086,envlicens@north-dorset.gov.uk,North Dorset,http://www.dorsetforyou.com,-2.30335903167725,SP8 5NR,2013-01-29,fhrs_5_en-GB,5,,FHRS,5
297514,"Unit 3, Greyhound Square",Market Place,Blandford Forum,Dorset,Stocks,Retailers - other,4613,,,331505,,,50.85571000000000,24097,086,envlicens@north-dorset.gov.uk,North Dorset,http://www.dorsetforyou.com,-2.16494300000000,DT11 7EB,2014-02-05,fhrs_exempt_en-GB,Exempt,,FHRS,
297515,,Stour View Close,Sturminster Newton,Dorset,Stour Castle Centre,Hospitals/Childcare/Caring Premises,5,0,,331419,5,,50.93286500000000,16475,086,envlicens@north-dorset.gov.uk,North Dorset,http://www.dorsetforyou.com,-2.30361900000000,DT10 1JF,2013-08-16,fhrs_5_en-GB,5,,FHRS,5
297516,,Dorchester Hill,Blandford St Mary,Blandford Forum,Stour Inn,Pub/bar/nightclub,7843,5,,341814,5,,50.85231800000000,35053,086,envlicens@north-dorset.gov.uk,North Dorset,http://www.dorsetforyou.com,-2.16629400000000,DT11 9LH,2013-06-01,fhrs_4_en-GB,4,,FHRS,10
297517,,The Street,Stour Provost,Gillingham,Stour Provost Village Hall,Other catering premises,7841,,,341681,,,50.99329600000000,16063,086,envlicens@north-dorset.gov.uk,North Dorset,http://www.dorsetforyou.com,-2.29560700000000,SP8 5RZ,2014-02-18,fhrs_exempt_en-GB,Exempt,,FHRS,
297518,,Stour Lane,Stour Provost,Gillingham,Stour Vale Pre School,Hospitals/Childcare/Caring Premises,5,,,331584,,,50.99385000000000,35648,086,envlicens@north-dorset.gov.uk,North Dorset,http://www.dorsetforyou.com,-2.27848400000000,SP8 5LX,2011-11-22,fhrs_exempt_en-GB,Exempt,,FHRS,
297519,,Havelins,Stourpaine,Blandford Forum,Stourpaine Social Club,Other catering premises,7841,,,331752,,,50.88525600000000,37024,086,envlicens@north-dorset.gov.uk,North Dorset,http://www.dorsetforyou.com,-2.20139700000000,DT11 8TH,2011-11-22,fhrs_exempt_en-GB,Exempt,,FHRS,
297520,,Shaston Road,Stourpaine,Blandford Forum,Stourpaine Village Stores at the White Horse Inn,Retailers - other,4613,5,,432938,5,,50.88252100000000,37281,086,envlicens@north-dorset.gov.uk,North Dorset,http://www.dorsetforyou.com,-2.19677900000000,DT11 8TA,2013-03-20,fhrs_5_en-GB,5,,FHRS,0
297521,,Drove Road,Stourton Caundle,Sturminster Newton,Stourton Caundle Village Hall,Other catering premises,7841,,,331587,,,50.93473300000000,35660,086,envlicens@north-dorset.gov.uk,North Dorset,http://www.dorsetforyou.com,-2.40746000000000,DT10 2JN,2011-09-22,fhrs_exempt_en-GB,Exempt,,FHRS,
297522,East View,Common Lane,East Stour,Gillingham,Stourvale Dairy,Retailers - other,4613,,,331602,,,51.00918900000000,36635,086,envlicens@north-dorset.gov.uk,North Dorset,http://www.dorsetforyou.com,-2.26785700000000,SP8 5NB,2013-03-11,fhrs_exempt_en-GB,Exempt,,FHRS,
297523,,Stour Lane,Stour Provost,Gillingham,Stower Provost Community School,School/college/university,7845,,,331574,,,50.99385000000000,34861,086,envlicens@north-dorset.gov.uk,North Dorset,http://www.dorsetforyou.com,-2.27848400000000,SP8 5LX,2011-11-22,fhrs_exempt_en-GB,Exempt,,FHRS,
297524,,49 Bridge Street,Sturminster Newton,Dorset,Sturminster Fish Bar,Takeaway/sandwich shop,7844,0,,341654,0,,50.92455800000000,13541,086,envlicens@north-dorset.gov.uk,North Dorset,http://www.dorsetforyou.com,-2.30626900000000,DT10 1BZ,2014-07-01,fhrs_5_en-GB,5,,FHRS,5
297525,Sturminster House,Market Place,Sturminster Newton,Dorset,Sturminster House Tearooms,Restaurant/Cafe/Canteen,1,5,,636995,5,,50.92634100000000,37669,086,envlicens@north-dorset.gov.uk,North Dorset,http://www.dorsetforyou.com,-2.30534100000000,DT10 1AS,2015-01-12,fhrs_5_en-GB,5,,FHRS,5
297526,,Bath Road,Sturminster Newton,Dorset,Sturminster Newton High School,School/college/university,7845,,,341653,,,50.93468800000000,13466,086,envlicens@north-dorset.gov.uk,North Dorset,http://www.dorsetforyou.com,-2.30428600000000,DT10 1DT,2012-09-25,fhrs_awaitinginspection_en-GB,AwaitingInspection,,FHRS,
297527,,Barnetts Field,Honeymead Lane,Sturminster Newton,Sturminster Newton United Football Club,Pub/bar/nightclub,7843,10,,341843,10,,50.93299700000000,36627,086,envlicens@north-dorset.gov.uk,North Dorset,http://www.dorsetforyou.com,-2.30121500000000,DT10 1EW,2015-01-09,fhrs_3_en-GB,3,,FHRS,10
297528,,Main Road,Winterborne Zelston,Blandford Forum,Subway,Restaurant/Cafe/Canteen,1,5,,724159,0,,50.77514300000000,37728,086,envlicens@north-dorset.gov.uk,North Dorset,http://www.dorsetforyou.com,-2.15335500000000,DT11 9EX,2014-12-02,fhrs_5_en-GB,5,,FHRS,0
297529,,16 Salisbury Street,Blandford Forum,Dorset,Subway,Retailers - other,4613,,,331394,,,50.85664500000000,15829,086,envlicens@north-dorset.gov.uk,North Dorset,http://www.dorsetforyou.com,-2.16507400000000,DT11 7AR,2014-03-03,fhrs_exempt_en-GB,Exempt,,FHRS,
297530,,Ivy Cross,Shaftesbury,Dorset,Subway,Takeaway/sandwich shop,7844,0,,693839,0,,51.01054300000000,37693,086,envlicens@north-dorset.gov.uk,North Dorset,http://www.dorsetforyou.com,-2.19211900000000,SP7 8DS,2014-08-11,fhrs_5_en-GB,5,,FHRS,0
297531,,37 East Street,Blandford Forum,Dorset,Sue Ryder,Retailers - other,4613,,,331463,,,50.85638100000000,1897,086,envlicens@north-dorset.gov.uk,North Dorset,http://www.dorsetforyou.com,-2.16098100000000,DT11 7DU,2014-02-05,fhrs_exempt_en-GB,Exempt,,FHRS,
297532,,High Street,Gillingham,Dorset,Sue Ryder Care,Retailers - other,4613,,,331591,,,51.03733700000000,35736,086,envlicens@north-dorset.gov.uk,North Dorset,http://www.dorsetforyou.com,-2.27470800000000,SP8 4AA,2011-06-10,fhrs_exempt_en-GB,Exempt,,FHRS,
297533,,36 High Street,Shaftesbury,Dorset,Superdrug Stores Plc,Retailers - other,4613,,,331562,,,51.00609300000000,31792,086,envlicens@north-dorset.gov.uk,North Dorset,http://www.dorsetforyou.com,-2.19701800000000,SP7 8JG,2011-07-20,fhrs_exempt_en-GB,Exempt,,FHRS,
297534,The Barn Surgery,Newbury,Gillingham,Dorset,Surgery Pharmacy,Retailers - other,4613,,,605665,,,51.03600700000000,37555,086,envlicens@north-dorset.gov.uk,North Dorset,http://www.dorsetforyou.com,-2.27027900000000,SP8 4XS,2013-10-28,fhrs_exempt_en-GB,Exempt,,FHRS,
297535,,,,,Suzy's Cakes,Other catering premises,7841,,,331737,,,,37000,086,envlicens@north-dorset.gov.uk,North Dorset,http://www.dorsetforyou.com,,,2011-11-22,fhrs_exempt_en-GB,Exempt,,FHRS,
297536,,High Street,Stalbridge,Sturminster Newton,Swan Inn,Pub/bar/nightclub,7843,,,331380,,,50.96011800000000,14388,086,envlicens@north-dorset.gov.uk,North Dorset,http://www.dorsetforyou.com,-2.37837900000000,DT10 2LL,2013-03-06,fhrs_exempt_en-GB,Exempt,,FHRS,
297537,"Flat 18, Swans Yard",High Street,Shaftesbury,Dorset,Swans Larder,Retailers - other,4613,10,,580069,10,,51.00647200000000,37522,086,envlicens@north-dorset.gov.uk,North Dorset,http://www.dorsetforyou.com,-2.19640600000000,SP7 8JQ,2013-08-08,fhrs_3_en-GB,3,,FHRS,10
297538,,,,,Sweet & Co,Retailers - other,4613,,,341898,,,,37012,086,envlicens@north-dorset.gov.uk,North Dorset,http://www.dorsetforyou.com,,,2011-11-22,fhrs_exempt_en-GB,Exempt,,FHRS,
297539,,,,,T Wilton,Retailers - other,4613,,,623559,,,,37577,086,envlicens@north-dorset.gov.uk,North Dorset,http://www.dorsetforyou.com,,,2013-12-06,fhrs_exempt_en-GB,Exempt,,FHRS,
297540,,Valley Road,Tarrant Gunville,Blandford Forum,Tarrant Gunville Village Hall,Other catering premises,7841,,,331777,,,50.91640300000000,37057,086,envlicens@north-dorset.gov.uk,North Dorset,http://www.dorsetforyou.com,-2.10820000000000,DT11 8JN,2011-11-22,fhrs_exempt_en-GB,Exempt,,FHRS,
297541,Village Hall,,Tarrant Hinton,Blandford Forum,Tarrant Hinton Community Lunch Group,Restaurant/Cafe/Canteen,1,5,,555878,5,,50.89929700000000,35578,086,envlicens@north-dorset.gov.uk,North Dorset,http://www.dorsetforyou.com,-2.09018600000000,DT11 8JA,2014-06-20,fhrs_5_en-GB,5,,FHRS,0
297542,,Valley Road,Tarrant Keyneston,Blandford Forum,Tarrant Keyneston Village Hall,Other catering premises,7841,,,331537,,,50.83913800000000,28827,086,envlicens@north-dorset.gov.uk,North Dorset,http://www.dorsetforyou.com,-2.10106100000000,DT11 9JE,2011-11-22,fhrs_exempt_en-GB,Exempt,,FHRS,
297543,Rawston Farm,,Tarrant Rawston,Blandford Forum,Tarrant Valley Meat Company,Manufacturers/packers,7839,5,,455652,5,,50.85920100000000,37288,086,envlicens@north-dorset.gov.uk,North Dorset,http://www.dorsetforyou.com,-2.08878700000000,DT11 8SF,2014-03-05,fhrs_5_en-GB,5,,FHRS,0
297544,,Stour Park,Blandford St Mary,Blandford Forum,Tesco,Retailers - supermarkets/hypermarkets,7840,0,,331438,0,,50.85079800000000,17453,086,envlicens@north-dorset.gov.uk,North Dorset,http://www.dorsetforyou.com,-2.15951300000000,DT11 9PU,2013-06-01,fhrs_5_en-GB,5,,FHRS,5
297545,,Christys Lane,Shaftesbury,Dorset,Tesco,Retailers - supermarkets/hypermarkets,7840,5,,331567,5,,51.00520000000000,32237,086,envlicens@north-dorset.gov.uk,North Dorset,http://www.dorsetforyou.com,-2.18806300000000,SP7 8PF,2014-06-06,fhrs_4_en-GB,4,,FHRS,10
297546,,,,,Tessa Tory,Other catering premises,7841,,,331706,,,,36949,086,envlicens@north-dorset.gov.uk,North Dorset,http://www.dorsetforyou.com,,,2011-07-06,fhrs_exempt_en-GB,Exempt,,FHRS,
297547,St Nicholas C Of E Primary School,Station Road,Child Okeford,Blandford Forum,The Ark,Hospitals/Childcare/Caring Premises,5,0,,331436,0,,50.91101400000000,17424,086,envlicens@north-dorset.gov.uk,North Dorset,http://www.dorsetforyou.com,-2.23723800000000,DT11 8EL,2013-12-13,fhrs_5_en-GB,5,,FHRS,0
297548,,6 Bell Street,Shaftesbury,Dorset,The Baguette Bar,Restaurant/Cafe/Canteen,1,10,,331639,0,,51.00662300000000,36814,086,envlicens@north-dorset.gov.uk,North Dorset,http://www.dorsetforyou.com,-2.19706300000000,SP7 8AR,2013-11-09,fhrs_4_en-GB,4,,FHRS,5
297549,,Milldown Road,Blandford Forum,Dorset,The Blandford School,School/college/university,7845,,,331427,,,50.86169200000000,16989,086,envlicens@north-dorset.gov.uk,North Dorset,http://www.dorsetforyou.com,-2.16983700000000,DT11 7SQ,2013-02-13,fhrs_awaitinginspection_en-GB,AwaitingInspection,,FHRS,
297550,,,,,The Blue Lunch Box,Mobile caterer,7846,10,,341761,10,,,25601,086,envlicens@north-dorset.gov.uk,North Dorset,http://www.dorsetforyou.com,,,2013-10-31,fhrs_3_en-GB,3,,FHRS,10
297551,,,,,The Cake Lady,Other catering premises,7841,,,331738,,,,37001,086,envlicens@north-dorset.gov.uk,North Dorset,http://www.dorsetforyou.com,,,2011-09-22,fhrs_exempt_en-GB,Exempt,,FHRS,
297552,,,,,The Chalet Bed and Breakfast,Hotel/bed & breakfast/guest house,7842,,,331660,,,,36852,086,envlicens@north-dorset.gov.uk,North Dorset,http://www.dorsetforyou.com,,,2014-02-05,fhrs_exempt_en-GB,Exempt,,FHRS,
297553,,Salisbury Road,Blandford Forum,Dorset,The Co-operative,Retailers - supermarkets/hypermarkets,7840,0,,331607,0,,50.85985800000000,36675,086,envlicens@north-dorset.gov.uk,North Dorset,http://www.dorsetforyou.com,-2.16271200000000,DT11 7QG,2014-03-18,fhrs_5_en-GB,5,,FHRS,0
297554,,,,,The Cottage B&B,Hotel/bed & breakfast/guest house,7842,,,499698,,,,37422,086,envlicens@north-dorset.gov.uk,North Dorset,http://www.dorsetforyou.com,,,2013-01-10,fhrs_exempt_en-GB,Exempt,,FHRS,
297555,,Main Street,Shroton,Blandford Forum,The Cricketers,Pub/bar/nightclub,7843,,,341734,,,50.91351900000000,21319,086,envlicens@north-dorset.gov.uk,North Dorset,http://www.dorsetforyou.com,-2.20107800000000,DT11 8QD,2014-02-18,fhrs_5_en-GB,5,,FHRS,
297556,,Crown Road,Marnhull,Sturminster Newton,The Crown,Pub/bar/nightclub,7843,0,,341657,0,,50.96808500000000,13793,086,envlicens@north-dorset.gov.uk,North Dorset,http://www.dorsetforyou.com,-2.30803600000000,DT10 1LN,2014-01-02,fhrs_5_en-GB,5,,FHRS,5
297557,,North Street,Winterborne Stickland,Blandford Forum,The Crown,Pub/bar/nightclub,7843,,,341750,,,50.84147800000000,23997,086,envlicens@north-dorset.gov.uk,North Dorset,http://www.dorsetforyou.com,-2.23590500000000,DT11 0NJ,2013-12-19,fhrs_5_en-GB,5,,FHRS,
297558,,Hunger Hill,East Stour,Gillingham,The Crown Inn,Pub/bar/nightclub,7843,5,,341744,5,,51.01158900000000,23300,086,envlicens@north-dorset.gov.uk,North Dorset,http://www.dorsetforyou.com,-2.27990100000000,SP8 5JS,2013-06-22,fhrs_5_en-GB,5,,FHRS,5
297559,,Peacemarsh Road,Gillingham,Dorset,The Dolphin Inn,Pub/bar/nightclub,7843,5,,341760,5,,51.04612800000000,24968,086,envlicens@north-dorset.gov.uk,North Dorset,http://www.dorsetforyou.com,-2.27973900000000,SP8 4HB,2013-12-17,fhrs_5_en-GB,5,,FHRS,5
297560,2 Richmar Trading Centre,Butts Pond Industrial Estate,Sturminster Newton,Dorset,The Dorset Foodies Limited,Retailers - other,4613,,,643920,,,50.92992500000000,16463,086,envlicens@north-dorset.gov.uk,North Dorset,http://www.dorsetforyou.com,-2.29981500000000,DT10 1AZ,2014-03-05,fhrs_exempt_en-GB,Exempt,,FHRS,
297561,"The Community Office, The Exchange",Old Market Hill,Sturminster Newton,Dorset,The Exchange,Other catering premises,7841,,,331573,,,50.92764700000000,34607,086,envlicens@north-dorset.gov.uk,North Dorset,http://www.dorsetforyou.com,-2.30436800000000,DT10 1FH,2012-09-26,fhrs_exempt_en-GB,Exempt,,FHRS,
297562,,Crown Hill,Fontmell Magna,Shaftesbury,The Fontmell,Pub/bar/nightclub,7843,10,,341726,5,,50.95125000000000,20381,086,envlicens@north-dorset.gov.uk,North Dorset,http://www.dorsetforyou.com,-2.19086300000000,SP7 0PA,2013-04-13,fhrs_4_en-GB,4,,FHRS,5
297563,,,,,The Food Stop,Mobile caterer,7846,5,,341918,5,,,37128,086,envlicens@north-dorset.gov.uk,North Dorset,http://www.dorsetforyou.com,,,2014-01-30,fhrs_4_en-GB,4,,FHRS,10
297564,,Shillingstone,Blandford Forum,Dorset,The Forum School,School/college/university,7845,0,,341810,0,,50.90226364135742,34626,086,envlicens@north-dorset.gov.uk,North Dorset,http://www.dorsetforyou.com,-2.25459957122803,DT11 0QS,2013-12-20,fhrs_5_en-GB,5,,FHRS,5
297565,,59 East Street,Blandford Forum,Dorset,The Gorge,Restaurant/Cafe/Canteen,1,5,,341703,5,,50.85585600000000,17136,086,envlicens@north-dorset.gov.uk,North Dorset,http://www.dorsetforyou.com,-2.16339500000000,DT11 7DX,2014-05-27,fhrs_2_en-GB,2,,FHRS,15
297566,,King Stag,Sturminster Newton,Dorset,The Green Man,Pub/bar/nightclub,7843,5,,341771,5,,50.89347800000000,27948,086,envlicens@north-dorset.gov.uk,North Dorset,http://www.dorsetforyou.com,-2.39376300000000,DT10 2AY,2013-08-28,fhrs_4_en-GB,4,,FHRS,10
297567,,High Street,Shaftesbury,Dorset,The Grosvenor Hotel,Hotel/bed & breakfast/guest house,7842,,,331545,,,51.00617200000000,29950,086,envlicens@north-dorset.gov.uk,North Dorset,http://www.dorsetforyou.com,-2.19825800000000,SP7 8JA,2014-10-06,fhrs_awaitinginspection_en-GB,AwaitingInspection,,FHRS,
297568,,Milton Abbas,Blandford Forum,Dorset,The Hambro Arms,Pub/bar/nightclub,7843,,,341737,,,50.81517600000000,21784,086,envlicens@north-dorset.gov.uk,North Dorset,http://www.dorsetforyou.com,-2.27660900000000,DT11 0BP,2014-01-29,fhrs_5_en-GB,5,,FHRS,
297569,,,,,The Lodge Bakery,Other catering premises,7841,10,,729508,5,,,37711,086,envlicens@north-dorset.gov.uk,North Dorset,http://www.dorsetforyou.com,,,2014-06-19,fhrs_4_en-GB,4,,FHRS,5
297570,,Bay Road,Gillingham,Dorset,The Malthouse Residential Home,Hospitals/Childcare/Caring Premises,5,0,,341845,0,,51.04243100000000,36631,086,envlicens@north-dorset.gov.uk,North Dorset,http://www.dorsetforyou.com,-2.26889000000000,SP8 4EW,2014-09-12,fhrs_5_en-GB,5,,FHRS,5
297571,,Common Mead Lane,Gillingham,Dorset,The Mellowes Care Home,Hospitals/Childcare/Caring Premises,5,5,,331599,5,,51.03267300000000,36625,086,envlicens@north-dorset.gov.uk,North Dorset,http://www.dorsetforyou.com,-2.28820000000000,SP8 4RE,2014-03-01,fhrs_5_en-GB,5,,FHRS,5
297572,,23 High Street,Shaftesbury,Dorset,The Mitre,Pub/bar/nightclub,7843,0,,341650,10,,51.00605900000000,11378,086,envlicens@north-dorset.gov.uk,North Dorset,http://www.dorsetforyou.com,-2.19580600000000,SP7 8JE,2013-01-12,fhrs_4_en-GB,4,,FHRS,10
297573,,Farnham,Blandford Forum,Dorset,The Museum Inn,Pub/bar/nightclub,7843,5,,341795,5,,50.93613815307620,31418,086,envlicens@north-dorset.gov.uk,North Dorset,http://www.dorsetforyou.com,-2.06069898605347,DT11 8DE,2013-02-07,fhrs_5_en-GB,5,,FHRS,5
297574,,,,,The Old Chapel B&B,Hotel/bed & breakfast/guest house,7842,,,410738,,,,37223,086,envlicens@north-dorset.gov.uk,North Dorset,http://www.dorsetforyou.com,,,2012-05-30,fhrs_exempt_en-GB,Exempt,,FHRS,
297575,,,,,The Old Dairy Bed & Breakfast,Hotel/bed & breakfast/guest house,7842,,,331701,,,,36944,086,envlicens@north-dorset.gov.uk,North Dorset,http://www.dorsetforyou.com,,,2011-09-22,fhrs_exempt_en-GB,Exempt,,FHRS,
297576,,1 Station Road,Gillingham,Dorset,The Original Factory Shop,Retailers - other,4613,,,331452,,,51.03639700000000,18039,086,envlicens@north-dorset.gov.uk,North Dorset,http://www.dorsetforyou.com,-2.27303400000000,SP8 4PY,2013-02-14,fhrs_exempt_en-GB,Exempt,,FHRS,
297577,,,,,The Paddocks B&B,Hotel/bed & breakfast/guest house,7842,,,559650,,,,37446,086,envlicens@north-dorset.gov.uk,North Dorset,http://www.dorsetforyou.com,,,2013-06-12,fhrs_exempt_en-GB,Exempt,,FHRS,
297578,,The Square,Gillingham,Dorset,The Phoenix,Pub/bar/nightclub,7843,5,,341745,5,,51.03750000000000,23695,086,envlicens@north-dorset.gov.uk,North Dorset,http://www.dorsetforyou.com,-2.27791800000000,SP8 4AY,2014-09-12,fhrs_4_en-GB,4,,FHRS,10
297579,,,,,The Pilgrim Fryer,Mobile caterer,7846,0,,331822,0,,,5635,086,envlicens@north-dorset.gov.uk,North Dorset,http://www.dorsetforyou.com,,,2014-03-27,fhrs_5_en-GB,5,,FHRS,0
297580,,Shaftesbury Road,Manston,Sturminster Newton,The Plough,Pub/bar/nightclub,7843,5,,341788,10,,50.94422200000000,30972,086,envlicens@north-dorset.gov.uk,North Dorset,http://www.dorsetforyou.com,-2.26687100000000,DT10 1HB,2013-08-27,fhrs_3_en-GB,3,,FHRS,10
297581,,24 Market Place,Blandford Forum,Dorset,The Polish Shop,Retailers - other,4613,5,,643919,10,,50.85571000000000,15787,086,envlicens@north-dorset.gov.uk,North Dorset,http://www.dorsetforyou.com,-2.16494300000000,DT11 7EB,2014-03-31,fhrs_3_en-GB,3,,FHRS,10
297582,,,,,The Really Tiny Coffee Company,Mobile caterer,7846,5,,735183,5,,,37729,086,envlicens@north-dorset.gov.uk,North Dorset,http://www.dorsetforyou.com,,,2015-01-22,fhrs_5_en-GB,5,,FHRS,5
297583,,The Causeway,Hazelbury Bryan,Sturminster Newton,The Red Barn Village Store,Retailers - other,4613,0,,526086,0,,50.88095700000000,37309,086,envlicens@north-dorset.gov.uk,North Dorset,http://www.dorsetforyou.com,-2.36464600000000,DT10 2BH,2014-08-29,fhrs_5_en-GB,5,,FHRS,0
297584,,Dorchester Hill,Milborne St Andrew,Blandford Forum,The Royal Oak,Pub/bar/nightclub,7843,,,341663,,,50.77779500000000,15730,086,envlicens@north-dorset.gov.uk,North Dorset,http://www.dorsetforyou.com,-2.28339500000000,DT11 0JG,2014-05-14,fhrs_4_en-GB,4,,FHRS,
297585,,Lower Street,Okeford Fitzpaine,Blandford Forum,The Royal Oak,Pub/bar/nightclub,7843,0,,341859,5,,50.89854200000000,3671,086,envlicens@north-dorset.gov.uk,North Dorset,http://www.dorsetforyou.com,-2.27805600000000,DT11 0RN,2014-03-26,fhrs_4_en-GB,4,,FHRS,10
297586,,,,,The Secret Chef,Other catering premises,7841,10,,341900,10,,,37047,086,envlicens@north-dorset.gov.uk,North Dorset,http://www.dorsetforyou.com,,,2013-10-16,fhrs_3_en-GB,3,,FHRS,5
297587,,West Stour,Gillingham,Dorset,The Ship Inn and Hotel,Pub/bar/nightclub,7843,10,,341739,10,,51.00155258178711,21959,086,envlicens@north-dorset.gov.uk,North Dorset,http://www.dorsetforyou.com,-2.30932664871216,SP8 5RP,2014-06-11,fhrs_3_en-GB,3,,FHRS,10
297588,The Old Post Office,Lady Bailey Residential Park,Winterborne Whitechurch,Blandford Forum,The Squeaky Joints Club,Pub/bar/nightclub,7843,,,341798,,,50.79814000000000,31786,086,envlicens@north-dorset.gov.uk,North Dorset,http://www.dorsetforyou.com,-2.23778600000000,DT11 0HS,2013-10-03,fhrs_exempt_en-GB,Exempt,,FHRS,
297589,,Ring Street,Stalbridge,Sturminster Newton,The Stalbridge Arms,Pub/bar/nightclub,7843,5,,341659,5,,50.95674600000000,15039,086,envlicens@north-dorset.gov.uk,North Dorset,http://www.dorsetforyou.com,-2.37547600000000,DT10 2NF,2013-08-19,fhrs_5_en-GB,5,,FHRS,5
297590,,Church Hill,Buckhorn Weston,Gillingham,The Stapleton Arms,Pub/bar/nightclub,7843,0,,331494,0,,51.02147000000000,23990,086,envlicens@north-dorset.gov.uk,North Dorset,http://www.dorsetforyou.com,-2.34718500000000,SP8 5HS,2013-08-30,fhrs_5_en-GB,5,,FHRS,5
297591,,,,,The Swallows,Other catering premises,7841,,,341772,,,,27981,086,envlicens@north-dorset.gov.uk,North Dorset,http://www.dorsetforyou.com,,,2011-11-22,fhrs_exempt_en-GB,Exempt,,FHRS,
297592,,Market Place,Sturminster Newton,Dorset,The Swan Hotel,Pub/bar/nightclub,7843,10,,331381,10,,50.92619800000000,14621,086,envlicens@north-dorset.gov.uk,North Dorset,http://www.dorsetforyou.com,-2.30478500000000,DT10 1AR,2013-12-17,fhrs_3_en-GB,3,,FHRS,10
297593,,59-61 High Street,Shaftesbury,Dorset,The Toy Box,Retailers - other,4613,,,331408,,,51.00605900000000,16130,086,envlicens@north-dorset.gov.uk,North Dorset,http://www.dorsetforyou.com,-2.19580600000000,SP7 8JE,2011-08-19,fhrs_exempt_en-GB,Exempt,,FHRS,
297594,,Front Street,East Stour,Gillingham,The Udder Farm Shop,Manufacturers/packers,7839,5,,341786,5,,51.00646600000000,30541,086,envlicens@north-dorset.gov.uk,North Dorset,http://www.dorsetforyou.com,-2.28252100000000,SP8 5LQ,2014-01-23,fhrs_5_en-GB,5,,FHRS,5
297595,"Unit 6, Swans Yard",High Street,Shaftesbury,Dorset,The Ugly Duckling,Restaurant/Cafe/Canteen,1,5,,627767,5,,51.00640900000000,37636,086,envlicens@north-dorset.gov.uk,North Dorset,http://www.dorsetforyou.com,-2.19627800000000,SP7 8JQ,2014-01-22,fhrs_5_en-GB,5,,FHRS,5
297596,,,,,The Uncommon Pig Co,Manufacturers/packers,7839,,,341928,,,,37211,086,envlicens@north-dorset.gov.uk,North Dorset,http://www.dorsetforyou.com,,,2013-07-15,fhrs_exempt_en-GB,Exempt,,FHRS,
297597,,Albert Street,Blandford Forum,Dorset,The Wheatsheaf Inn,Pub/bar/nightclub,7843,0,,341895,0,,50.86052700000000,37,086,envlicens@north-dorset.gov.uk,North Dorset,http://www.dorsetforyou.com,-2.16056900000000,DT11 7HY,2014-10-26,fhrs_5_en-GB,5,,FHRS,0
297598,,Queen Street,Gillingham,Dorset,The Wine Bar and Grill,Pub/bar/nightclub,7843,0,,341943,5,,51.04009200000000,9342,086,envlicens@north-dorset.gov.uk,North Dorset,http://www.dorsetforyou.com,-2.27700700000000,SP8 4DZ,2013-09-04,fhrs_5_en-GB,5,,FHRS,5
297599,,,,,The Wonky Cake Co,Other catering premises,7841,0,,619655,0,,,37586,086,envlicens@north-dorset.gov.uk,North Dorset,http://www.dorsetforyou.com,,,2013-12-05,fhrs_5_en-GB,5,,FHRS,5
297600,,,,,Thornhill Free Range Eggs,Manufacturers/packers,7839,10,,341742,5,,,23005,086,envlicens@north-dorset.gov.uk,North Dorset,http://www.dorsetforyou.com,,,2013-03-28,fhrs_4_en-GB,4,,FHRS,5
297601,Woodrow Dairy,The Common,Hazelbury Bryan,Sturminster Newton,Thyme After Time,Retailers - other,4613,5,,341774,5,,50.88661400000000,28174,086,envlicens@north-dorset.gov.uk,North Dorset,http://www.dorsetforyou.com,-2.36990700000000,DT10 2AH,2013-03-19,fhrs_5_en-GB,5,,FHRS,5
297602,,1 Bimport,Shaftesbury,Dorset,Toby's,Restaurant/Cafe/Canteen,1,,,331536,,,51.00674600000000,28823,086,envlicens@north-dorset.gov.uk,North Dorset,http://www.dorsetforyou.com,-2.19910100000000,SP7 8NA,2011-09-22,fhrs_exempt_en-GB,Exempt,,FHRS,
297603,,The Square,Gillingham,Dorset,Topsie Rabbit,Hospitals/Childcare/Caring Premises,5,,,331778,,,51.03750000000000,37058,086,envlicens@north-dorset.gov.uk,North Dorset,http://www.dorsetforyou.com,-2.27791800000000,SP8 4AY,2011-09-22,fhrs_exempt_en-GB,Exempt,,FHRS,
297604,,31 Church Street,Sturminster Newton,Dorset,Town House Dragon,Takeaway/sandwich shop,7844,5,,341855,5,,50.92523700000000,36679,086,envlicens@north-dorset.gov.uk,North Dorset,http://www.dorsetforyou.com,-2.30433800000000,DT10 1DB,2012-10-25,fhrs_5_en-GB,5,,FHRS,5
297605,Trailway Court,Park Road,Blandford Forum,Dorset,Trailway Court Lunch Club,Other catering premises,7841,5,,341927,5,,50.86304900000000,37207,086,envlicens@north-dorset.gov.uk,North Dorset,http://www.dorsetforyou.com,-2.17011200000000,DT11 7FR,2014-12-05,fhrs_5_en-GB,5,,FHRS,0
297606,,Bimport,Shaftesbury,Dorset,Trinity Day Centre,Hospitals/Childcare/Caring Premises,5,0,,341766,5,,51.00603485107422,27857,086,envlicens@north-dorset.gov.uk,North Dorset,http://www.dorsetforyou.com,-2.19881319999695,SP7 8BW,2013-10-24,fhrs_5_en-GB,5,,FHRS,0
297607,,Golden Hill,Stourton Caundle,Sturminster Newton,Trooper Inn,Pub/bar/nightclub,7843,0,,331470,0,,50.93300900000000,20593,086,envlicens@north-dorset.gov.uk,North Dorset,http://www.dorsetforyou.com,-2.40689000000000,DT10 2JW,2013-08-28,fhrs_5_en-GB,5,,FHRS,0
297608,,Wimborne Road,Tarrant Keyneston,Blandford Forum,True Lovers Knot,Pub/bar/nightclub,7843,5,,341741,15,,50.84294100000000,22829,086,envlicens@north-dorset.gov.uk,North Dorset,http://www.dorsetforyou.com,-2.10182200000000,DT11 9JG,2013-07-19,fhrs_2_en-GB,2,,FHRS,15
297609,,9 High Street,Shaftesbury,Dorset,Turnbulls,Restaurant/Cafe/Canteen,1,5,,341787,5,,51.00631500000000,30681,086,envlicens@north-dorset.gov.uk,North Dorset,http://www.dorsetforyou.com,-2.19837200000000,SP7 8HZ,2014-02-20,fhrs_4_en-GB,4,,FHRS,10
297610,,West Street,Blandford Forum,Dorset,T'z Bar,Pub/bar/nightclub,7843,,,341676,,,50.85521300000000,15927,086,envlicens@north-dorset.gov.uk,North Dorset,http://www.dorsetforyou.com,-2.16640400000000,DT11 7AW,2011-01-15,fhrs_exempt_en-GB,Exempt,,FHRS,
297611,,,,,U K Bike Park,Mobile caterer,7846,10,,331615,10,,,36693,086,envlicens@north-dorset.gov.uk,North Dorset,http://www.dorsetforyou.com,,,2013-03-23,fhrs_3_en-GB,3,,FHRS,10
297612,,,,,Under The Wood Sausage,Retailers - other,4613,,,583464,,,,37491,086,envlicens@north-dorset.gov.uk,North Dorset,http://www.dorsetforyou.com,,,2013-08-20,fhrs_exempt_en-GB,Exempt,,FHRS,
297613,,,,,Valley Dairy,Distributors/Transporters,7,,,331517,,,,26574,086,envlicens@north-dorset.gov.uk,North Dorset,http://www.dorsetforyou.com,,,2011-11-22,fhrs_exempt_en-GB,Exempt,,FHRS,
297614,8 & 9 Georgian Passage,East Street,Blandford Forum,Dorset,Vecchia Roma,Restaurant/Cafe/Canteen,1,,,341755,,,50.85585600000000,24181,086,envlicens@north-dorset.gov.uk,North Dorset,http://www.dorsetforyou.com,-2.16339500000000,DT11 7DX,2013-09-25,fhrs_5_en-GB,5,,FHRS,
297615,,,,,Victoria Jane Mills,Other catering premises,7841,,,537031,,,,37421,086,envlicens@north-dorset.gov.uk,North Dorset,http://www.dorsetforyou.com,,,2013-03-01,fhrs_exempt_en-GB,Exempt,,FHRS,
297616,,17 Bell Street,Shaftesbury,Dorset,Victorian Tea House/Artisans Bakery Limited,Restaurant/Cafe/Canteen,1,5,,341775,5,,51.00662300000000,28555,086,envlicens@north-dorset.gov.uk,North Dorset,http://www.dorsetforyou.com,-2.19706300000000,SP7 8AR,2014-01-27,fhrs_5_en-GB,5,,FHRS,5
297617,The Village Hall,The Causeway,Milborne St Andrew,Blandford Forum,Village Lunch Club,Other catering premises,7841,,,341889,,,50.77782100000000,36954,086,envlicens@north-dorset.gov.uk,North Dorset,http://www.dorsetforyou.com,-2.28007600000000,DT11 0JB,2011-11-22,fhrs_exempt_en-GB,Exempt,,FHRS,
297618,,42 High Street,Shaftesbury,Dorset,W H Smith,Retailers - other,4613,,,331405,,,51.00609300000000,16116,086,envlicens@north-dorset.gov.uk,North Dorset,http://www.dorsetforyou.com,-2.19701800000000,SP7 8JG,2011-07-06,fhrs_exempt_en-GB,Exempt,,FHRS,
297619,,West Street,Blandford Forum,Dorset,W M Morrison Supermarkets plc,Retailers - supermarkets/hypermarkets,7840,5,,331621,5,,50.85521300000000,36779,086,envlicens@north-dorset.gov.uk,North Dorset,http://www.dorsetforyou.com,-2.16640400000000,DT11 7AW,2015-01-22,fhrs_5_en-GB,5,,FHRS,5
297620,,Chantry Fields,Gillingham,Dorset,Waitrose Ltd,Retailers - supermarkets/hypermarkets,7840,0,,331601,0,,51.03583200000000,36632,086,envlicens@north-dorset.gov.uk,North Dorset,http://www.dorsetforyou.com,-2.27592600000000,SP8 4UA,2014-03-26,fhrs_5_en-GB,5,,FHRS,0
297621,,,,,Walled Garden,Hotel/bed & breakfast/guest house,7842,5,,559651,5,,,37448,086,envlicens@north-dorset.gov.uk,North Dorset,http://www.dorsetforyou.com,,,2013-06-05,fhrs_5_en-GB,5,,FHRS,5
297622,,,,,Wanling Tea House (Europe),Manufacturers/packers,7839,,,331703,,,,36946,086,envlicens@north-dorset.gov.uk,North Dorset,http://www.dorsetforyou.com,,,2011-07-20,fhrs_exempt_en-GB,Exempt,,FHRS,
297623,,Nelson Road,Blandford Camp,Blandford Forum,Warrant Officers & Sergeants' Mess,Restaurant/Cafe/Canteen,1,0,,331462,0,,50.86830400000000,18542,086,envlicens@north-dorset.gov.uk,North Dorset,http://www.dorsetforyou.com,-2.12511200000000,DT11 8RH,2014-12-16,fhrs_5_en-GB,5,,FHRS,5
297624,,,,,Westacres Bed & Breakfast,Hotel/bed & breakfast/guest house,7842,,,331765,,,,37039,086,envlicens@north-dorset.gov.uk,North Dorset,http://www.dorsetforyou.com,,,2011-09-22,fhrs_exempt_en-GB,Exempt,,FHRS,
297625,,Abbey Walk,Shaftesbury,Dorset,Westminster Memorial Hospital,Hospitals/Childcare/Caring Premises,5,5,,331368,0,,51.00473000000000,10423,086,envlicens@north-dorset.gov.uk,North Dorset,http://www.dorsetforyou.com,-2.20016100000000,SP7 8BD,2014-06-05,fhrs_5_en-GB,5,,FHRS,5
297626,,,,,Westwood Lodge Bed & Breakfast,Hotel/bed & breakfast/guest house,7842,,,331761,,,,37034,086,envlicens@north-dorset.gov.uk,North Dorset,http://www.dorsetforyou.com,,,2012-08-29,fhrs_exempt_en-GB,Exempt,,FHRS,
297627,,,,,What Diet?! Cakes,Other catering premises,7841,,,664227,,,,37673,086,envlicens@north-dorset.gov.uk,North Dorset,http://www.dorsetforyou.com,,,2014-04-15,fhrs_exempt_en-GB,Exempt,,FHRS,
297628,,,,,Whispering Chimneys B&B,Hotel/bed & breakfast/guest house,7842,,,410737,,,,37212,086,envlicens@north-dorset.gov.uk,North Dorset,http://www.dorsetforyou.com,,,2012-05-29,fhrs_exempt_en-GB,Exempt,,FHRS,
297629,,Market Cross,Sturminster Newton,Dorset,White Hart Hotel,Pub/bar/nightclub,7843,5,,331416,5,,50.92546000000000,16409,086,envlicens@north-dorset.gov.uk,North Dorset,http://www.dorsetforyou.com,-2.30516500000000,DT10 1AN,2014-02-26,fhrs_5_en-GB,5,,FHRS,5
297630,,Shaston Road,Stourpaine,Blandford Forum,White Horse,Pub/bar/nightclub,7843,0,,341673,5,,50.88252100000000,15880,086,envlicens@north-dorset.gov.uk,North Dorset,http://www.dorsetforyou.com,-2.19677900000000,DT11 8TA,2013-09-03,fhrs_4_en-GB,4,,FHRS,10
297631,,Hinton St Mary,Sturminster Newton,Dorset,White Horse Inn,Pub/bar/nightclub,7843,10,,331483,10,,50.94457600000000,22788,086,envlicens@north-dorset.gov.uk,North Dorset,http://www.dorsetforyou.com,-2.30591600000000,DT10 1NA,2014-03-07,fhrs_3_en-GB,3,,FHRS,10
297632,,High Street,Bourton,Gillingham,White Lion,Pub/bar/nightclub,7843,5,,341940,10,,51.07846000000000,8180,086,envlicens@north-dorset.gov.uk,North Dorset,http://www.dorsetforyou.com,-2.31649200000000,SP8 5AT,2013-09-02,fhrs_3_en-GB,3,,FHRS,10
297633,,,,,White Star Catering (The Country Griddle),Mobile caterer,7846,5,,331616,5,,,36694,086,envlicens@north-dorset.gov.uk,North Dorset,http://www.dorsetforyou.com,,,2014-05-05,fhrs_5_en-GB,5,,FHRS,5
297634,,Whitecliff Mill Street,Blandford Forum,Dorset,Whitecliff House Nursing Home,Hospitals/Childcare/Caring Premises,5,0,,331556,0,,50.85880200000000,31527,086,envlicens@north-dorset.gov.uk,North Dorset,http://www.dorsetforyou.com,-2.16562100000000,DT11 7BQ,2014-10-26,fhrs_5_en-GB,5,,FHRS,0
297635,,Bridge Street,Sturminster Newton,Dorset,William Barnes Primary School,School/college/university,7845,5,,455653,5,,50.92455800000000,37299,086,envlicens@north-dorset.gov.uk,North Dorset,http://www.dorsetforyou.com,-2.30626900000000,DT10 1BZ,2014-03-25,fhrs_5_en-GB,5,,FHRS,5
297636,,,,,Williamson's Fresh Fish,Retailers - other,4613,,,331750,,,,37020,086,envlicens@north-dorset.gov.uk,North Dorset,http://www.dorsetforyou.com,,,2011-09-22,fhrs_exempt_en-GB,Exempt,,FHRS,
297637,,5 Blandford Road,Shillingstone,Blandford Forum,Willows Restaurant and Tearooms,Restaurant/Cafe/Canteen,1,5,,341869,5,,50.89544700000000,36826,086,envlicens@north-dorset.gov.uk,North Dorset,http://www.dorsetforyou.com,-2.24240500000000,DT11 0SG,2013-03-22,fhrs_5_en-GB,5,,FHRS,5
297638,,,,,Windwhistle House,Hotel/bed & breakfast/guest house,7842,,,331656,,,,36846,086,envlicens@north-dorset.gov.uk,North Dorset,http://www.dorsetforyou.com,,,2011-06-07,fhrs_exempt_en-GB,Exempt,,FHRS,
297639,,36 East Street,Blandford Forum,Dorset,Wings Chinese Take-away,Takeaway/sandwich shop,7844,10,,341717,10,,50.85682100000000,1896,086,envlicens@north-dorset.gov.uk,North Dorset,http://www.dorsetforyou.com,-2.16136600000000,DT11 7DR,2013-04-27,fhrs_3_en-GB,3,,FHRS,10
297640,Winterborne Stickland Sports Club,,Winterborne Stickland,Blandford Forum,Winterborne Sports Club,Pub/bar/nightclub,7843,,,331713,,,50.84762800000000,36960,086,envlicens@north-dorset.gov.uk,North Dorset,http://www.dorsetforyou.com,-2.24543800000000,DT11 0NA,2011-11-22,fhrs_exempt_en-GB,Exempt,,FHRS,
297641,,Dolway Lane,Winterborne Whitechurch,Blandford Forum,Winterborne Whitechurch Village Hall,Other catering premises,7841,,,331608,,,50.80367100000000,36681,086,envlicens@north-dorset.gov.uk,North Dorset,http://www.dorsetforyou.com,-2.23730300000000,DT11 0AW,2011-09-22,fhrs_exempt_en-GB,Exempt,,FHRS,
297642,,Bushes Road,Winterborne Zelston,Blandford Forum,Winterborne Zelston Village Hall,Other catering premises,7841,,,331578,,,50.77752700000000,35585,086,envlicens@north-dorset.gov.uk,North Dorset,http://www.dorsetforyou.com,-2.14574700000000,DT11 9EU,2013-10-04,fhrs_exempt_en-GB,Exempt,,FHRS,
297643,Town Clerks Offices,Church Lane,Blandford Forum,Dorset,Woodhouse Gardens Pavilion,Other catering premises,7841,,,341887,,,50.85635800000000,36913,086,envlicens@north-dorset.gov.uk,North Dorset,http://www.dorsetforyou.com,-2.16447600000000,DT11 7AD,2011-09-22,fhrs_exempt_en-GB,Exempt,,FHRS,
297644,,,,,Woodland Views Bed & Breakfast,Hotel/bed & breakfast/guest house,7842,,,331789,,,,37079,086,envlicens@north-dorset.gov.uk,North Dorset,http://www.dorsetforyou.com,,,2011-08-16,fhrs_exempt_en-GB,Exempt,,FHRS,
297645,,High Street,Spetisbury,Blandford Forum,Woodpecker,Pub/bar/nightclub,7843,5,,331526,5,,50.82309600000000,2800,086,envlicens@north-dorset.gov.uk,North Dorset,http://www.dorsetforyou.com,-2.12739000000000,DT11 9DJ,2013-05-30,fhrs_5_en-GB,5,,FHRS,5
297646,,The Cross,Okeford Fitzpaine,Blandford Forum,Ye Olde Bell Stores,Retailers - other,4613,5,,341697,5,,50.89742000000000,16673,086,envlicens@north-dorset.gov.uk,North Dorset,http://www.dorsetforyou.com,-2.27681200000000,DT11 0RF,2013-08-10,fhrs_4_en-GB,4,,FHRS,10
297647,,24 St James Street,Shaftesbury,Dorset,Ye Olde Two Brewers,Pub/bar/nightclub,7843,10,,341687,10,,51.00344600000000,16182,086,envlicens@north-dorset.gov.uk,North Dorset,http://www.dorsetforyou.com,-2.19883100000000,SP7 8HE,2013-11-09,fhrs_3_en-GB,3,,FHRS,10
297648,,30a Salisbury Street,Blandford Forum,Dorset,Yellow Bicycle Cafe,Restaurant/Cafe/Canteen,1,0,,643930,0,,50.85664500000000,37663,086,envlicens@north-dorset.gov.uk,North Dorset,http://www.dorsetforyou.com,-2.16507400000000,DT11 7AR,2014-03-31,fhrs_5_en-GB,5,,FHRS,5
297649,,Honeymead Lane,Sturminster Newton,Dorset,Yewstock School,School/college/university,7845,0,,331610,0,,50.93299700000000,36683,086,envlicens@north-dorset.gov.uk,North Dorset,http://www.dorsetforyou.com,-2.30121500000000,DT10 1EW,2013-01-08,fhrs_5_en-GB,5,,FHRS,0
297650,,Bath Road,Sturminster Newton,Dorset,Youth Centre,Other catering premises,7841,,,331413,,,50.92815900000000,16200,086,envlicens@north-dorset.gov.uk,North Dorset,http://www.dorsetforyou.com,-2.30469900000000,DT10 1DU,2011-07-06,fhrs_exempt_en-GB,Exempt,,FHRS,
297651,,7 Bell Street,Shaftesbury,Dorset,Yuk Wah Chinese Take-away,Takeaway/sandwich shop,7844,5,,341682,10,,51.00662300000000,16068,086,envlicens@north-dorset.gov.uk,North Dorset,http://www.dorsetforyou.com,-2.19706300000000,SP7 8AR,2013-08-29,fhrs_4_en-GB,4,,FHRS,5
