,addressline1,addressline2,addressline3,addressline4,businessname,businesstype,businesstypeid,confidenceinmanagement,extractdate,fhrsid,hygiene,itemcount,latitude,localauthoritybusinessid,localauthoritycode,localauthorityemailaddress,localauthorityname,localauthoritywebsite,longitude,postcode,ratingdate,ratingkey,ratingvalue,returncode,schemetype,structural
300756,,164 Kings Road West,Swanage,Dorset,3 Quarters B&B,Hotel/bed & breakfast/guest house,7842,5,,693918,0,,50.61125000000000,20208,088,publichealth@purbeck-dc.gov.uk,Purbeck,http://www.dorsetforyou.com/purbeck,-1.97197500000000,BH19 1HT,2014-04-28,fhrs_5_en-GB,5,,FHRS,5
300757,,85 West Street,Bere Regis,Dorset,A C Moorse & Son Ltd,Retailers - other,4613,5,,335926,5,,50.75378000000000,68,088,publichealth@purbeck-dc.gov.uk,Purbeck,http://www.dorsetforyou.com/purbeck,-2.21914600000000,BH20 7HL,2014-05-16,fhrs_5_en-GB,5,,FHRS,5
300758,,,,,A Piece of Cake,Other catering premises,7841,0,,335663,0,,,236,088,publichealth@purbeck-dc.gov.uk,Purbeck,http://www.dorsetforyou.com/purbeck,,,2014-11-04,fhrs_5_en-GB,5,,FHRS,5
300759,Lee Cottage,Main Road,West Lulworth,Dorset,Abilee,Hotel/bed & breakfast/guest house,7842,5,,335560,0,,50.62615300000000,11944,088,publichealth@purbeck-dc.gov.uk,Purbeck,http://www.dorsetforyou.com/purbeck,-2.24710900000000,BH20 5RN,2014-10-15,fhrs_5_en-GB,5,,FHRS,5
300760,Purbeck Sports Centre,Worgret Road,Wareham,Dorset,All Stars Sports Bar,Restaurant/Cafe/Canteen,1,5,,335552,5,,50.68448500000000,1164,088,publichealth@purbeck-dc.gov.uk,Purbeck,http://www.dorsetforyou.com/purbeck,-2.11765700000000,BH20 4PH,2013-09-10,fhrs_5_en-GB,5,,FHRS,5
300761,"Officers Mess, Allenby Barrack",Bovington Camp,Bovington,Dorset,Allenby Officers Mess,Restaurant/Cafe/Canteen,1,5,,335867,5,,50.70167800000000,578,088,publichealth@purbeck-dc.gov.uk,Purbeck,http://www.dorsetforyou.com/purbeck,-2.24078100000000,BH20 6NE,2015-01-15,fhrs_4_en-GB,4,,FHRS,10
300762,,36 Victoria Avenue,Swanage,Dorset,Amberlea,Hotel/bed & breakfast/guest house,7842,10,,336052,5,,50.61239000000000,934,088,publichealth@purbeck-dc.gov.uk,Purbeck,http://www.dorsetforyou.com/purbeck,-1.96472400000000,BH19 1AP,2014-09-03,fhrs_2_en-GB,2,,FHRS,15
300763,,88 West Street,Corfe Castle,Dorset,Ammonite B&B,Hotel/bed & breakfast/guest house,7842,5,,409500,0,,50.63463800000000,18296,088,publichealth@purbeck-dc.gov.uk,Purbeck,http://www.dorsetforyou.com/purbeck,-2.05954400000000,BH20 5HE,2014-06-09,fhrs_5_en-GB,5,,FHRS,5
300764,,Bonnets Lane,Wareham,Dorset,Anglebury Court,Hospitals/Childcare/Caring Premises,5,0,,336059,5,,50.68747000000000,952,088,publichealth@purbeck-dc.gov.uk,Purbeck,http://www.dorsetforyou.com/purbeck,-2.10966700000000,BH20 4HA,2014-12-01,fhrs_5_en-GB,5,,FHRS,5
300765,,,,,Apple Catering Cakes,Other catering premises,7841,5,,335644,0,,,216,088,publichealth@purbeck-dc.gov.uk,Purbeck,http://www.dorsetforyou.com/purbeck,,,2013-09-16,fhrs_5_en-GB,5,,FHRS,5
300766,Applegrove,West Road,West Lulworth,Dorset,Applegrove B&B,Hotel/bed & breakfast/guest house,7842,10,,335817,5,,50.62672100000000,492,088,publichealth@purbeck-dc.gov.uk,Purbeck,http://www.dorsetforyou.com/purbeck,-2.25074600000000,BH20 5RY,2013-07-24,fhrs_4_en-GB,4,,FHRS,5
300767,Arbour House,19 Walrond Road,Swanage,Dorset,Arbour House,Other catering premises,7841,5,,336054,0,,50.61355800000000,942,088,publichealth@purbeck-dc.gov.uk,Purbeck,http://www.dorsetforyou.com/purbeck,-1.96090700000000,BH19 1PB,2014-09-24,fhrs_5_en-GB,5,,FHRS,5
300768,,139-141 High Street,Swanage,Dorset,Arkwrights Stores Ltd,Retailers - other,4613,10,,335934,5,,50.60776800000000,701,088,publichealth@purbeck-dc.gov.uk,Purbeck,http://www.dorsetforyou.com/purbeck,-1.96305900000000,BH19 2ND,2013-07-16,fhrs_4_en-GB,4,,FHRS,5
300769,Stanley Barracks,Bovington,Wool,Wareham,Army School of Recruiting Mess,Restaurant/Cafe/Canteen,1,0,,335869,5,,50.70167800000000,580,088,publichealth@purbeck-dc.gov.uk,Purbeck,http://www.dorsetforyou.com/purbeck,-2.24078100000000,BH20 6JB,2014-11-19,fhrs_5_en-GB,5,,FHRS,5
300770,,64 Furzebrook Road,Stoborough,Dorset,Ashcroft B&B,Hotel/bed & breakfast/guest house,7842,5,,335685,0,,50.66515600000000,27,088,publichealth@purbeck-dc.gov.uk,Purbeck,http://www.dorsetforyou.com/purbeck,-2.10282300000000,BH20 5AX,2014-11-05,fhrs_5_en-GB,5,,FHRS,5
300771,Allenby Barracks,Bovington Camp,Bovington,Dorset,ATDU Coffee Shop,Restaurant/Cafe/Canteen,1,5,,335862,5,,50.69983200000000,571,088,publichealth@purbeck-dc.gov.uk,Purbeck,http://www.dorsetforyou.com/purbeck,-2.23750500000000,,2014-05-19,fhrs_5_en-GB,5,,FHRS,5
300772,,23 Burlington Road,Swanage,Dorset,Avon House,Hotel/bed & breakfast/guest house,7842,5,,493317,0,,50.62107500000000,613,088,publichealth@purbeck-dc.gov.uk,Purbeck,http://www.dorsetforyou.com/purbeck,-1.95596700000000,BH19 1LT,2013-01-09,fhrs_5_en-GB,5,,FHRS,5
300773,,19 West Street,Wareham,Dorset,B. Curtis Ltd,Retailers - other,4613,5,,335545,5,,50.68565200000000,1155,088,publichealth@purbeck-dc.gov.uk,Purbeck,http://www.dorsetforyou.com/purbeck,-2.11066700000000,BH20 4JS,2014-03-11,fhrs_4_en-GB,4,,FHRS,10
300774,Post Office & Stores,10 Redcliff Road,Swanage,Dorset,Ballard Down Stores Ltd,Retailers - other,4613,10,,336009,5,,50.62268600000000,852,088,publichealth@purbeck-dc.gov.uk,Purbeck,http://www.dorsetforyou.com/purbeck,-1.95935800000000,BH19 1NE,2014-06-16,fhrs_4_en-GB,4,,FHRS,5
300775,,Manor Road,Studland,Dorset,Bankes Arms Hotel,Pub/bar/nightclub,7843,10,,335741,10,,50.64311300000000,351,088,publichealth@purbeck-dc.gov.uk,Purbeck,http://www.dorsetforyou.com/purbeck,-1.94846500000000,BH19 3AU,2014-07-02,fhrs_3_en-GB,3,,FHRS,10
300776,,Furzebrook Road,Stoborough,Dorset,Barbrook Blue Pool,Restaurant/Cafe/Canteen,1,5,,335996,5,,50.77915191650391,83,088,publichealth@purbeck-dc.gov.uk,Purbeck,http://www.dorsetforyou.com/purbeck,-2.32034993171692,BH20 5AT,2013-10-28,fhrs_5_en-GB,5,,FHRS,5
300777,,3 Springfield Road,Swanage,Dorset,Bay Lodge,Hotel/bed & breakfast/guest house,7842,5,,336022,5,,50.60888200000000,874,088,publichealth@purbeck-dc.gov.uk,Purbeck,http://www.dorsetforyou.com/purbeck,-1.96109400000000,BH19 1HD,2014-11-07,fhrs_5_en-GB,5,,FHRS,5
300778,Tennis Courts,Beach Gardens,Swanage,Dorset,Beach Gardens Pavilion Ice Cream Kiosk,Takeaway/sandwich shop,7844,10,,695998,0,,50.61732600000000,28282,088,publichealth@purbeck-dc.gov.uk,Purbeck,http://www.dorsetforyou.com/purbeck,-1.95967400000000,BH19 1NU,2014-08-12,fhrs_4_en-GB,4,,FHRS,5
300779,,19 Ulwell Road,Swanage,Dorset,Beachway Private Hotel,Hotel/bed & breakfast/guest house,7842,20,,336044,15,,50.61927700000000,920,088,publichealth@purbeck-dc.gov.uk,Purbeck,http://www.dorsetforyou.com/purbeck,-1.95879600000000,BH19 1LF,2014-06-24,fhrs_1_en-GB,1,,FHRS,15
300780,,14 Institute Road,Swanage,Dorset,Beavers Restaurant,Restaurant/Cafe/Canteen,1,5,,335976,10,,50.60880000000000,785,088,publichealth@purbeck-dc.gov.uk,Purbeck,http://www.dorsetforyou.com/purbeck,-1.95709500000000,BH19 1BX,2014-07-14,fhrs_4_en-GB,4,,FHRS,5
300781,Belhuish Farm House,Access Road To Belhuish Farm,Wool,Dorset,Belhuish Farmhouse B&B,Hotel/bed & breakfast/guest house,7842,5,,579923,5,,50.65657700000000,20745,088,publichealth@purbeck-dc.gov.uk,Purbeck,http://www.dorsetforyou.com/purbeck,-2.22398400000000,BH20 5PS,2013-08-21,fhrs_5_en-GB,5,,FHRS,5
300782,,,,,Benitas Biscuits,Retailers - other,4613,5,,693912,0,,,12397,088,publichealth@purbeck-dc.gov.uk,Purbeck,http://www.dorsetforyou.com/purbeck,,,2014-07-21,fhrs_5_en-GB,5,,FHRS,5
300783,Bere Regis County First School,Rye Hill,Bere Regis,Dorset,Bere Regis School,School/college/university,7845,0,,706808,5,,50.74471400000000,16323,088,publichealth@purbeck-dc.gov.uk,Purbeck,http://www.dorsetforyou.com/purbeck,-2.21972800000000,BH20 7LP,2014-10-08,fhrs_5_en-GB,5,,FHRS,5
300784,Bere Regis Sports Club,North Street,Bere Regis,Dorset,Bere Regis Sports Club,Other catering premises,7841,5,,335693,5,,50.75417600000000,27848,088,publichealth@purbeck-dc.gov.uk,Purbeck,http://www.dorsetforyou.com/purbeck,-2.21396000000000,BH20 7LA,2014-06-04,fhrs_4_en-GB,4,,FHRS,10
300785,Ower Farm Cottage,,Ower,Corfe Castle,Billy Kinghorn Hog Roasts,Mobile caterer,7846,10,,456985,5,,50.66967100000000,21458,088,publichealth@purbeck-dc.gov.uk,Purbeck,http://www.dorsetforyou.com/purbeck,-2.00366600000000,BH20 5JN,2014-06-27,fhrs_4_en-GB,4,,FHRS,5
300786,Bindon Bottom,Main Road,West Lulworth,Dorset,Bindon Bottom B&B,Hotel/bed & breakfast/guest house,7842,0,,335793,0,,50.62487900000000,462,088,publichealth@purbeck-dc.gov.uk,Purbeck,http://www.dorsetforyou.com/purbeck,-2.24974600000000,BH20 5RL,2013-08-21,fhrs_5_en-GB,5,,FHRS,5
300787,,Bere Road,Coldharbour,Dorset,Birchwood Touring Park,Retailers - other,4613,0,,335761,0,,50.71035500000000,384,088,publichealth@purbeck-dc.gov.uk,Purbeck,http://www.dorsetforyou.com/purbeck,-2.14341300000000,BH20 7PA,2013-08-28,fhrs_5_en-GB,5,,FHRS,5
300788,Station House,Railway Station Approach,Swanage,Dorset,Birds Nest Buffet,Restaurant/Cafe/Canteen,1,5,,335990,5,,50.60997000000000,817,088,publichealth@purbeck-dc.gov.uk,Purbeck,http://www.dorsetforyou.com/purbeck,-1.96003300000000,BH19 1HB,2014-07-09,fhrs_5_en-GB,5,,FHRS,5
300789,Bishops Cottage,Main Road,West Lulworth,Dorset,Bishops Cottage,Restaurant/Cafe/Canteen,1,5,,426956,10,,50.61964100000000,471,088,publichealth@purbeck-dc.gov.uk,Purbeck,http://www.dorsetforyou.com/purbeck,-2.25182500000000,BH20 5RQ,2014-05-01,fhrs_3_en-GB,3,,FHRS,10
300790,,14 South Street,Wareham,Dorset,Black Bear,Pub/bar/nightclub,7843,,,494322,,,50.68531100000000,28420,088,publichealth@purbeck-dc.gov.uk,Purbeck,http://www.dorsetforyou.com/purbeck,-2.10983100000000,BH20 4LT,2014-10-02,fhrs_5_en-GB,5,,FHRS,
300791,,Church Lane,Bloxworth,Wareham,Bloxworth Village Hall and Social Club,Pub/bar/nightclub,7843,10,,335960,5,,50.75147000000000,75,088,publichealth@purbeck-dc.gov.uk,Purbeck,http://www.dorsetforyou.com/purbeck,-2.17016000000000,BH20 7EG,2014-07-18,fhrs_4_en-GB,4,,FHRS,5
300792,Bona Vista,36 Sea View Road,Upton,Dorset,Bona Vista B&B,Hotel/bed & breakfast/guest house,7842,5,,591848,0,,50.73804500000000,4240,088,publichealth@purbeck-dc.gov.uk,Purbeck,http://www.dorsetforyou.com/purbeck,-2.03888700000000,BH16 5NG,2013-10-14,fhrs_5_en-GB,5,,FHRS,5
300793,The Pharmacy,Dorchester Road,Wool,Dorset,Boots Pharmacy,Retailers - other,4613,,,335835,,,50.68024000000000,523,088,publichealth@purbeck-dc.gov.uk,Purbeck,http://www.dorsetforyou.com/purbeck,-2.22699800000000,BH20 6EQ,2013-07-22,fhrs_exempt_en-GB,Exempt,,FHRS,
300794,,1-3 Station Road,Swanage,Dorset,Boots The Chemists Swanage,Retailers - other,4613,,,336024,,,50.60930400000000,877,088,publichealth@purbeck-dc.gov.uk,Purbeck,http://www.dorsetforyou.com/purbeck,-1.95791400000000,BH19 1AB,2013-06-12,fhrs_exempt_en-GB,Exempt,,FHRS,
300795,Botany Farmhouse,East Lulworth,East Lulworth,Dorset,Botony Farmhouse B&B,Hotel/bed & breakfast/guest house,7842,10,,335591,5,,50.63986300000000,156,088,publichealth@purbeck-dc.gov.uk,Purbeck,http://www.dorsetforyou.com/purbeck,-2.19758700000000,BH20 5QH,2013-07-24,fhrs_4_en-GB,4,,FHRS,5
300796,,12 King George V Road,Bovington,Dorset,Bovi Stores,Retailers - other,4613,5,,335852,5,,50.69974200000000,556,088,publichealth@purbeck-dc.gov.uk,Purbeck,http://www.dorsetforyou.com/purbeck,-2.24228600000000,BH20 6JQ,2014-07-21,fhrs_5_en-GB,5,,FHRS,5
300797,Bovington First School,Holt Road,Bovington,Dorset,Bovington Primary School,School/college/university,7845,5,,709558,5,,50.69862100000000,546,088,publichealth@purbeck-dc.gov.uk,Purbeck,http://www.dorsetforyou.com/purbeck,-2.24515400000000,BH20 6LE,2014-10-15,fhrs_5_en-GB,5,,FHRS,5
300798,,Bradle,Wareham,Dorset,Bradle Farmhouse,Hotel/bed & breakfast/guest house,7842,5,,336037,5,,50.62531280517578,90,088,publichealth@purbeck-dc.gov.uk,Purbeck,http://www.dorsetforyou.com/purbeck,-2.09739184379578,BH20 5NU,2014-12-05,fhrs_5_en-GB,5,,FHRS,5
300799,Brenscombe Farm,Studland Road,Corfe Castle,Dorset,Brenscombe Outdoor Centre,Hotel/bed & breakfast/guest house,7842,5,,335579,5,,50.64337600000000,138,088,publichealth@purbeck-dc.gov.uk,Purbeck,http://www.dorsetforyou.com/purbeck,-2.04450800000000,BH20 5JG,2014-04-29,fhrs_5_en-GB,5,,FHRS,5
300800,,15 The Parade,Swanage,Dorset,Brook Tea Rooms,Restaurant/Cafe/Canteen,1,5,,336001,5,,50.60880900000000,835,088,publichealth@purbeck-dc.gov.uk,Purbeck,http://www.dorsetforyou.com/purbeck,-1.95638800000000,BH19 1DA,2014-01-29,fhrs_4_en-GB,4,,FHRS,10
300801,,Brownsea Island,Studland,Dorset,Brownsea Castle Catering,Hotel/bed & breakfast/guest house,7842,0,,335743,0,,50.68890762329102,354,088,publichealth@purbeck-dc.gov.uk,Purbeck,http://www.dorsetforyou.com/purbeck,-1.95743298530579,BH13 7EE,2013-03-19,fhrs_5_en-GB,5,,FHRS,0
300802,,,,,Bryan Jones,Retailers - other,4613,10,,591846,0,,,13319,088,publichealth@purbeck-dc.gov.uk,Purbeck,http://www.dorsetforyou.com/purbeck,,,2013-10-16,fhrs_4_en-GB,4,,FHRS,5
300803,,75 Kings Road West,Swanage,Dorset,Buddies B&B,Hotel/bed & breakfast/guest house,7842,5,,335986,5,,50.60954000000000,805,088,publichealth@purbeck-dc.gov.uk,Purbeck,http://www.dorsetforyou.com/purbeck,-1.96667600000000,BH19 1HJ,2014-09-16,fhrs_5_en-GB,5,,FHRS,5
300804,,28-36 Station Road,Swanage,Dorset,Budgens,Retailers - supermarkets/hypermarkets,7840,5,,336038,5,,50.60987100000000,907,088,publichealth@purbeck-dc.gov.uk,Purbeck,http://www.dorsetforyou.com/purbeck,-1.95898800000000,BH19 1AF,2013-12-10,fhrs_5_en-GB,5,,FHRS,5
300805,,Bulbury Lane,Lytchett Minster,Dorset,Bulbury Woods Golf Club,Pub/bar/nightclub,7843,0,,335645,0,,50.74743700000000,217,088,publichealth@purbeck-dc.gov.uk,Purbeck,http://www.dorsetforyou.com/purbeck,-2.09475400000000,BH16 6EP,2014-08-11,fhrs_5_en-GB,5,,FHRS,5
300806,Units 1 To 7,2 Ulwell Road,Swanage,Dorset,Bull and Boat,Restaurant/Cafe/Canteen,1,0,,558615,5,,50.61719900000000,28462,088,publichealth@purbeck-dc.gov.uk,Purbeck,http://www.dorsetforyou.com/purbeck,-1.95759600000000,BH19 1LH,2014-12-12,fhrs_4_en-GB,4,,FHRS,10
300807,Burnbake Campsite,Rempstone,Corfe Castle,Wareham,Burnbake Campsite,Retailers - other,4613,10,,335564,5,,50.65887000000000,124,088,publichealth@purbeck-dc.gov.uk,Purbeck,http://www.dorsetforyou.com/purbeck,-2.00819200000000,BH20 5JJ,2014-08-19,fhrs_4_en-GB,4,,FHRS,5
300808,,43 Station Road,Swanage,Dorset,Butterfingers,Other catering premises,7841,5,,336030,5,,50.60959200000000,893,088,publichealth@purbeck-dc.gov.uk,Purbeck,http://www.dorsetforyou.com/purbeck,-1.95890300000000,BH19 1AD,2014-02-03,fhrs_5_en-GB,5,,FHRS,5
300809,,6 Victoria Avenue Industrial Est,Swanage,Dorset,Butterfingers Catering Ltd,Other catering premises,7841,0,,446127,5,,50.61277100000000,19343,088,publichealth@purbeck-dc.gov.uk,Purbeck,http://www.dorsetforyou.com/purbeck,-1.97419300000000,BH19 1AU,2014-03-13,fhrs_5_en-GB,5,,FHRS,5
300810,,25 North Street,Wareham,Dorset,C Hallett,Retailers - other,4613,5,,335501,10,,50.68771100000000,1010,088,publichealth@purbeck-dc.gov.uk,Purbeck,http://www.dorsetforyou.com/purbeck,-2.11108300000000,BH20 4AD,2014-04-22,fhrs_3_en-GB,3,,FHRS,10
300811,Cafe Villano,Brownsea Island,Brownsea Island,Dorset,Cafe Villano,Restaurant/Cafe/Canteen,1,0,,335739,5,,50.68890800000000,348,088,publichealth@purbeck-dc.gov.uk,Purbeck,http://www.dorsetforyou.com/purbeck,-1.95743300000000,BH13 7EE,2014-06-17,fhrs_5_en-GB,5,,FHRS,5
300812,,,,,Cake Alchemy,Retailers - other,4613,10,,693939,5,,,5942,088,publichealth@purbeck-dc.gov.uk,Purbeck,http://www.dorsetforyou.com/purbeck,,,2014-05-25,fhrs_4_en-GB,4,,FHRS,5
300813,,Carey Road,Wareham,Dorset,Carey Outdoor Education Centre,School/college/university,7845,0,,335757,5,,50.69751800000000,379,088,publichealth@purbeck-dc.gov.uk,Purbeck,http://www.dorsetforyou.com/purbeck,-2.13965000000000,BH20 7PB,2014-01-22,fhrs_5_en-GB,5,,FHRS,5
300814,Masonic Hall,Howards Lane,Wareham,Dorset,Casterbridge Catering,Other catering premises,7841,5,,336072,5,,50.68678600000000,981,088,publichealth@purbeck-dc.gov.uk,Purbeck,http://www.dorsetforyou.com/purbeck,-2.10966500000000,BH20 4HU,2014-10-15,fhrs_5_en-GB,5,,FHRS,5
300815,,Castle Farm Road,Lytchett Matravers,Dorset,Castle Farm Retirement Home,Hospitals/Childcare/Caring Premises,5,0,,335637,5,,50.76735100000000,206,088,publichealth@purbeck-dc.gov.uk,Purbeck,http://www.dorsetforyou.com/purbeck,-2.07699900000000,BH16 6BZ,2014-01-21,fhrs_5_en-GB,5,,FHRS,5
300816,,63 East Street,Corfe Castle,Dorset,Castle Inn,Pub/bar/nightclub,7843,10,,335517,10,,50.63644800000000,106,088,publichealth@purbeck-dc.gov.uk,Purbeck,http://www.dorsetforyou.com/purbeck,-2.05445600000000,BH20 5EE,2014-10-28,fhrs_3_en-GB,3,,FHRS,10
300817,,,,,Castle View,Hotel/bed & breakfast/guest house,7842,5,,335880,0,,,599,088,publichealth@purbeck-dc.gov.uk,Purbeck,http://www.dorsetforyou.com/purbeck,,,2015-01-20,fhrs_5_en-GB,5,,FHRS,5
300818,Castle View Information Centre,A351 St Edwards Bridge To Nord,Corfe Castle,Dorset,Castle View Visitor Centre,Restaurant/Cafe/Canteen,1,5,,558616,0,,50.64190400000000,5,088,publichealth@purbeck-dc.gov.uk,Purbeck,http://www.dorsetforyou.com/purbeck,-2.05895900000000,BH20 5DR,2013-06-12,fhrs_5_en-GB,5,,FHRS,0
300819,Castleton Hotel,1 Highcliffe Road,Swanage,Dorset,Castleton Hotel,Hotel/bed & breakfast/guest house,7842,5,,716847,0,,50.61810800000000,28892,088,publichealth@purbeck-dc.gov.uk,Purbeck,http://www.dorsetforyou.com/purbeck,-1.95742600000000,BH19 1LW,2014-11-07,fhrs_5_en-GB,5,,FHRS,5
300820,,5 High Street,Swanage,Dorset,Cauldron Bistro,Restaurant/Cafe/Canteen,1,5,,335918,5,,50.60772000000000,664,088,publichealth@purbeck-dc.gov.uk,Purbeck,http://www.dorsetforyou.com/purbeck,-1.95477800000000,BH19 2LN,2013-07-24,fhrs_5_en-GB,5,,FHRS,5
300821,Caythorpe Guesthouse,7 Rempstone Road,Swanage,Dorset,Caythorpe House,Hotel/bed & breakfast/guest house,7842,5,,693926,0,,50.61130100000000,28753,088,publichealth@purbeck-dc.gov.uk,Purbeck,http://www.dorsetforyou.com/purbeck,-1.95994700000000,BH19 1DN,2014-04-16,fhrs_4_en-GB,4,,FHRS,10
300822,2 The Parade,Dorchester Road,Wool,Dorset,Central Convenience Stores,Retailers - other,4613,5,,395970,5,,50.67840200000000,28221,088,publichealth@purbeck-dc.gov.uk,Purbeck,http://www.dorsetforyou.com/purbeck,-2.22890000000000,BH20 6EJ,2013-12-18,fhrs_4_en-GB,4,,FHRS,10
300823,Headquarters Royal Armoured Co,Bovington Camp,Bovington,Dorset,Centurion Club,Other catering premises,7841,5,,335698,5,,50.77915191650391,27882,088,publichealth@purbeck-dc.gov.uk,Purbeck,http://www.dorsetforyou.com/purbeck,-2.32034993171692,BH20 6JA,2014-05-19,fhrs_4_en-GB,4,,FHRS,10
300824,,32 Furzebrook Road,Stoborough,Dorset,Cherry Bank B & B,Hotel/bed & breakfast/guest house,7842,5,,693922,5,,50.66515600000000,26,088,publichealth@purbeck-dc.gov.uk,Purbeck,http://www.dorsetforyou.com/purbeck,-2.10282300000000,BH20 5AX,2014-05-30,fhrs_5_en-GB,5,,FHRS,5
300825,,,,,Cherry Catering,Other catering premises,7841,0,,554611,5,,,19450,088,publichealth@purbeck-dc.gov.uk,Purbeck,http://www.dorsetforyou.com/purbeck,,,2014-12-12,fhrs_5_en-GB,5,,FHRS,5
300826,"Unit 4, Tilly Mead",1 Commercial Road,Swanage,Dorset,Chilled Red,Restaurant/Cafe/Canteen,1,0,,335907,0,,50.60898900000000,643,088,publichealth@purbeck-dc.gov.uk,Purbeck,http://www.dorsetforyou.com/purbeck,-1.95792900000000,BH19 1DF,2014-11-11,fhrs_5_en-GB,5,,FHRS,5
300827,,1 Park Road,Swanage,Dorset,Clare House,Hotel/bed & breakfast/guest house,7842,5,,336002,0,,50.60620000000000,836,088,publichealth@purbeck-dc.gov.uk,Purbeck,http://www.dorsetforyou.com/purbeck,-1.95504800000000,BH19 2AA,2013-09-11,fhrs_5_en-GB,5,,FHRS,5
300828,,Kimmeridge,,Dorset,Clavell's Cafe and Farm Shop,Restaurant/Cafe/Canteen,1,5,,335613,0,,50.61667633056641,180,088,publichealth@purbeck-dc.gov.uk,Purbeck,http://www.dorsetforyou.com/purbeck,-2.12056875228882,BH20 5PE,2014-11-25,fhrs_4_en-GB,4,,FHRS,10
300829,,Organford Road,Holton Heath,Dorset,Clay Pipe Inn,Pub/bar/nightclub,7843,0,,335769,0,,50.72160800000000,406,088,publichealth@purbeck-dc.gov.uk,Purbeck,http://www.dorsetforyou.com/purbeck,-2.08570700000000,BH16 6JY,2015-01-21,fhrs_5_en-GB,5,,FHRS,5
300830,,8 Burlington Road,Swanage,Dorset,Clifftop Care Home,Hospitals/Childcare/Caring Premises,5,5,,335891,10,,50.61974400000000,615,088,publichealth@purbeck-dc.gov.uk,Purbeck,http://www.dorsetforyou.com/purbeck,-1.95633600000000,BH19 1LS,2014-04-29,fhrs_4_en-GB,4,,FHRS,5
300831,Allenby Barracks,Bovington Camp,Bovington,Dorset,Colours Restaurant,Restaurant/Cafe/Canteen,1,0,,335868,5,,50.69983200000000,579,088,publichealth@purbeck-dc.gov.uk,Purbeck,http://www.dorsetforyou.com/purbeck,-2.23750500000000,,2013-11-04,fhrs_5_en-GB,5,,FHRS,5
300832,Greyholme,Valley Road,Corfe Castle,Dorset,Come & Stay B&B,Hotel/bed & breakfast/guest house,7842,10,,693945,5,,50.62226800000000,8864,088,publichealth@purbeck-dc.gov.uk,Purbeck,http://www.dorsetforyou.com/purbeck,-2.02140300000000,BH19 3DZ,2014-04-02,fhrs_4_en-GB,4,,FHRS,5
300833,,,,,Condie & Poole Fine Food,Other catering premises,7841,5,,335936,5,,,7045,088,publichealth@purbeck-dc.gov.uk,Purbeck,http://www.dorsetforyou.com/purbeck,,,2013-08-14,fhrs_5_en-GB,5,,FHRS,5
300834,,,,,Condie & Poole Fine Food & Gretenham B&B,Other catering premises,7841,5,,336023,5,,,876,088,publichealth@purbeck-dc.gov.uk,Purbeck,http://www.dorsetforyou.com/purbeck,,,2013-08-14,fhrs_5_en-GB,5,,FHRS,5
300835,Leos Store,Kings Road West,Swanage,Dorset,Co-op,Retailers - supermarkets/hypermarkets,7840,5,,335987,5,,50.60939400000000,811,088,publichealth@purbeck-dc.gov.uk,Purbeck,http://www.dorsetforyou.com/purbeck,-1.95920000000000,BH19 1AA,2015-01-20,fhrs_5_en-GB,5,,FHRS,5
300836,,9 North Street,Wareham,Dorset,Co-Op Stores Ltd,Retailers - supermarkets/hypermarkets,7840,5,,336078,5,,50.68652500000000,994,088,publichealth@purbeck-dc.gov.uk,Purbeck,http://www.dorsetforyou.com/purbeck,-2.11031600000000,BH20 4AB,2014-12-01,fhrs_4_en-GB,4,,FHRS,10
300837,Upton Post Office,4 Poole Road,Upton,Dorset,Co-operative Group Ltd,Retailers - supermarkets/hypermarkets,7840,0,,335716,5,,50.73789500000000,302,088,publichealth@purbeck-dc.gov.uk,Purbeck,http://www.dorsetforyou.com/purbeck,-2.02732300000000,BH16 5JA,2014-12-01,fhrs_5_en-GB,5,,FHRS,5
300838,2 Seymour Place,South Street,Wareham,Dorset,Coppers Takeaway,Takeaway/sandwich shop,7844,5,,335533,5,,50.68524900000000,1122,088,publichealth@purbeck-dc.gov.uk,Purbeck,http://www.dorsetforyou.com/purbeck,-2.10933600000000,BH20 4LR,2014-03-11,fhrs_5_en-GB,5,,FHRS,5
300839,,44 East Street,Corfe Castle,Dorset,Corfe Castle Congregational Church,Other catering premises,7841,10,,335500,5,,50.63624900000000,101,088,publichealth@purbeck-dc.gov.uk,Purbeck,http://www.dorsetforyou.com/purbeck,-2.05521900000000,BH20 5EQ,2012-09-20,fhrs_4_en-GB,4,,FHRS,5
300840,,The Square,Corfe Castle,Dorset,Corfe Castle Model Village & Tearooms,Restaurant/Cafe/Canteen,1,0,,335581,5,,50.63463800000000,144,088,publichealth@purbeck-dc.gov.uk,Purbeck,http://www.dorsetforyou.com/purbeck,-2.05954400000000,BH20 5HE,2013-10-23,fhrs_5_en-GB,5,,FHRS,5
300841,Corfe Castle First School,East Street,Corfe Castle,Dorset,Corfe Castle Primary School,School/college/university,7845,5,,706807,5,,50.63644800000000,104,088,publichealth@purbeck-dc.gov.uk,Purbeck,http://www.dorsetforyou.com/purbeck,-2.05445600000000,BH20 5EE,2014-10-07,fhrs_5_en-GB,5,,FHRS,5
300842,,The Square,Corfe Castle,Dorset,Corfe Castle Village Bakery,Retailers - other,4613,5,,335575,5,,50.63838800000000,135,088,publichealth@purbeck-dc.gov.uk,Purbeck,http://www.dorsetforyou.com/purbeck,-2.05773900000000,BH20 5EZ,2014-12-01,fhrs_4_en-GB,4,,FHRS,10
300843,,25 East Street,Corfe Castle,Dorset,Corfe Castle Village Stores Ltd,Retailers - other,4613,0,,700956,5,,50.63644800000000,19828,088,publichealth@purbeck-dc.gov.uk,Purbeck,http://www.dorsetforyou.com/purbeck,-2.05445600000000,BH20 5EE,2014-09-16,fhrs_5_en-GB,5,,FHRS,5
300844,,1 Institute Road,Swanage,Dorset,Corner Restaurant,Restaurant/Cafe/Canteen,1,5,,568961,5,,50.60880000000000,28518,088,publichealth@purbeck-dc.gov.uk,Purbeck,http://www.dorsetforyou.com/purbeck,-1.95672700000000,BH19 1BT,2015-01-16,fhrs_5_en-GB,5,,FHRS,5
300845,Costa Coffee,Unit 1 1 Dorchester Road,Upton,Dorset,Costa Coffee,Restaurant/Cafe/Canteen,1,0,,730949,0,,50.73834300000000,28899,088,publichealth@purbeck-dc.gov.uk,Purbeck,http://www.dorsetforyou.com/purbeck,-2.03105000000000,BH16 5NJ,2015-01-08,fhrs_5_en-GB,5,,FHRS,0
300846,Herston Post Office,208 High Street,Swanage,Dorset,Costcutter,Retailers - other,4613,0,,335963,0,,50.61055900000000,754,088,publichealth@purbeck-dc.gov.uk,Purbeck,http://www.dorsetforyou.com/purbeck,-1.97495700000000,BH19 2PQ,2014-03-21,fhrs_5_en-GB,5,,FHRS,0
300847,,15 Station Road,Swanage,Dorset,Country Foods,Retailers - other,4613,10,,336026,5,,50.60930400000000,881,088,publichealth@purbeck-dc.gov.uk,Purbeck,http://www.dorsetforyou.com/purbeck,-1.95791400000000,BH19 1AB,2014-07-01,fhrs_4_en-GB,4,,FHRS,5
300848,,15a Commercial Road,Swanage,Dorset,Country Foods Catering,Mobile caterer,7846,5,,693925,10,,50.60898900000000,28722,088,publichealth@purbeck-dc.gov.uk,Purbeck,http://www.dorsetforyou.com/purbeck,-1.95792900000000,BH19 1DF,2014-07-29,fhrs_4_en-GB,4,,FHRS,5
300849,Unit 4,Main Road,West Lulworth,Dorset,Country Wines,Retailers - other,4613,5,,335797,0,,50.62685000000000,466,088,publichealth@purbeck-dc.gov.uk,Purbeck,http://www.dorsetforyou.com/purbeck,-2.24502100000000,BH20 5RW,2013-07-17,fhrs_5_en-GB,5,,FHRS,5
300850,,Blacknoll Lane,East Knighton,Winfrith,Countryman Inn Ltd,Pub/bar/nightclub,7843,5,,418887,5,,50.67053000000000,28273,088,publichealth@purbeck-dc.gov.uk,Purbeck,http://www.dorsetforyou.com/purbeck,-2.26835700000000,DT2 8LL,2014-01-20,fhrs_5_en-GB,5,,FHRS,5
300851,,1 Court Road,Swanage,Dorset,Court Hill Wines,Retailers - other,4613,10,,335908,5,,50.60876700000000,645,088,publichealth@purbeck-dc.gov.uk,Purbeck,http://www.dorsetforyou.com/purbeck,-1.96664800000000,BH19 1JB,2013-04-10,fhrs_4_en-GB,4,,FHRS,5
300852,"Courtyard Candies & Chocolate, The Courtyard Centre Cottage Farm",Huntick Road,Lytchett Matravers,Dorset,Courtyard Candies & Chocolate,Retailers - other,4613,5,,539784,0,,50.74365100000000,282,088,publichealth@purbeck-dc.gov.uk,Purbeck,http://www.dorsetforyou.com/purbeck,-2.05212900000000,BH16 6BA,2013-04-10,fhrs_5_en-GB,5,,FHRS,5
300853,,Main Road,West Lulworth,Dorset,Cove Fish,Retailers - other,4613,10,,335809,5,,50.62487900000000,482,088,publichealth@purbeck-dc.gov.uk,Purbeck,http://www.dorsetforyou.com/purbeck,-2.24974600000000,BH20 5RL,2013-05-01,fhrs_4_en-GB,4,,FHRS,5
300854,Cove House,Main Road,West Lulworth,Dorset,Cove House Bed and Breakfast,Hotel/bed & breakfast/guest house,7842,5,,571636,0,,50.62487900000000,28466,088,publichealth@purbeck-dc.gov.uk,Purbeck,http://www.dorsetforyou.com/purbeck,-2.24974600000000,BH20 5RL,2013-07-26,fhrs_5_en-GB,5,,FHRS,5
300855,Hole In The Wall Kiosk,Main Road,West Lulworth,Dorset,Cove Kiosk,Takeaway/sandwich shop,7844,0,,693927,5,,50.61964100000000,28755,088,publichealth@purbeck-dc.gov.uk,Purbeck,http://www.dorsetforyou.com/purbeck,-2.25182500000000,BH20 5RQ,2014-05-01,fhrs_5_en-GB,5,,FHRS,5
300856,,4 Fields Barn,Winfrith Newburgh,Dorset,Cow Parsley Kitchen,Other catering premises,7841,5,,716845,0,,50.65814400000000,16972,088,publichealth@purbeck-dc.gov.uk,Purbeck,http://www.dorsetforyou.com/purbeck,-2.27735400000000,DT2 8HB,2014-11-05,fhrs_5_en-GB,5,,FHRS,5
300857,Bartletts car park,Townsend Business Park,Bere Regis,Dorset,CTL Catering,Mobile caterer,7846,10,,700959,10,,50.75417600000000,28769,088,publichealth@purbeck-dc.gov.uk,Purbeck,http://www.dorsetforyou.com/purbeck,-2.21396000000000,BH20 7LA,2014-09-11,fhrs_3_en-GB,3,,FHRS,5
300858,Durdle Door Holiday Park,,West Lulworth,Dorset,CUBE Ice Cream Kiosk,Mobile caterer,7846,5,,693933,5,,50.77915191650391,28764,088,publichealth@purbeck-dc.gov.uk,Purbeck,http://www.dorsetforyou.com/purbeck,-2.32034993171692,BH20 5PU,2014-06-05,fhrs_5_en-GB,5,,FHRS,5
300859,,,,,Dapper Dan Deli,Mobile caterer,7846,5,,693944,5,,,8727,088,publichealth@purbeck-dc.gov.uk,Purbeck,http://www.dorsetforyou.com/purbeck,,,2014-06-12,fhrs_5_en-GB,5,,FHRS,5
300860,,2 Lytchett Lane,Bovington,Dorset,Deerleap,Hotel/bed & breakfast/guest house,7842,0,,335556,5,,50.69106300000000,11900,088,publichealth@purbeck-dc.gov.uk,Purbeck,http://www.dorsetforyou.com/purbeck,-2.22472900000000,BH20 6PA,2014-11-14,fhrs_5_en-GB,5,,FHRS,5
300861,Dinos,The Square,Swanage,Dorset,Dinos Swanage Ltd,Takeaway/sandwich shop,7844,5,,335949,5,,50.60791800000000,724,088,publichealth@purbeck-dc.gov.uk,Purbeck,http://www.dorsetforyou.com/purbeck,-1.95524400000000,BH19 2NT,2013-11-07,fhrs_5_en-GB,5,,FHRS,5
300862,Kingston Barn Farm,Langton Road,Kingston,Dorset,Discerning Taste at Kingston Country Courtyard,Restaurant/Cafe/Canteen,1,5,,335527,0,,50.61374100000000,111,088,publichealth@purbeck-dc.gov.uk,Purbeck,http://www.dorsetforyou.com/purbeck,-2.05499500000000,BH20 5LR,2014-05-22,fhrs_5_en-GB,5,,FHRS,5
300863,,7-9 Station Road,Swanage,Dorset,Dorothy Cafe - Williams of Wool Bakers,Restaurant/Cafe/Canteen,1,0,,335694,5,,50.60930400000000,27852,088,publichealth@purbeck-dc.gov.uk,Purbeck,http://www.dorsetforyou.com/purbeck,-1.95791400000000,BH19 1AB,2013-11-05,fhrs_4_en-GB,4,,FHRS,10
300864,Rogers Hill Farm,,Briantspuddle,Dorset,Dorset Artisan Cheeses,Retailers - other,4613,5,,693923,5,,50.75511100000000,28596,088,publichealth@purbeck-dc.gov.uk,Purbeck,http://www.dorsetforyou.com/purbeck,-2.25860500000000,DT2 7HJ,2014-06-09,fhrs_5_en-GB,5,,FHRS,5
300865,Bere Farm,Wareham Road,Lytchett Minster,Dorset,Dorset Charcuterie,Manufacturers/packers,7839,5,,335682,5,,50.74088100000000,263,088,publichealth@purbeck-dc.gov.uk,Purbeck,http://www.dorsetforyou.com/purbeck,-2.08316300000000,BH16 6ER,2014-11-26,fhrs_5_en-GB,5,,FHRS,5
300866,The Salt Pig,6 North Street,Wareham,Dorset,Dorset Charcuterie,Retailers - other,4613,5,,564768,5,,50.68648900000000,28524,088,publichealth@purbeck-dc.gov.uk,Purbeck,http://www.dorsetforyou.com/purbeck,-2.10980600000000,BH20 4AF,2014-09-28,fhrs_4_en-GB,4,,FHRS,10
300867,,Bere Heath Road,Hyde,Dorset,Dorset Golf & Country Club,Pub/bar/nightclub,7843,,,335833,,,50.71279800000000,52,088,publichealth@purbeck-dc.gov.uk,Purbeck,http://www.dorsetforyou.com/purbeck,-2.19535900000000,BH20 7NT,2014-06-30,fhrs_3_en-GB,3,,FHRS,
300868,"Unit B, Cornerways",King George V Road,Bovington,Dorset,Dorset Kebab,Takeaway/sandwich shop,7844,5,,335851,5,,50.69974200000000,555,088,publichealth@purbeck-dc.gov.uk,Purbeck,http://www.dorsetforyou.com/purbeck,-2.24228600000000,BH20 6JQ,2014-10-24,fhrs_5_en-GB,5,,FHRS,5
300869,,54 Poole Road,Upton,Dorset,Dorset Sandwhich,Mobile caterer,7846,5,,706813,5,,50.73728500000000,3948,088,publichealth@purbeck-dc.gov.uk,Purbeck,http://www.dorsetforyou.com/purbeck,-2.02130000000000,BH16 5JD,2014-10-01,fhrs_5_en-GB,5,,FHRS,5
300870,"Unit 15, Glenmore Business Park",Blackhill Road,Holton Heath Trading Park,Poole,Dorset Snails Ltd,Manufacturers/packers,7839,,,504453,,,50.71973600000000,25963,088,publichealth@purbeck-dc.gov.uk,Purbeck,http://www.dorsetforyou.com/purbeck,-2.07476700000000,BH16 6NL,2014-02-24,fhrs_exempt_en-GB,Exempt,,FHRS,
300871,Downalong,Main Road,West Lulworth,Dorset,Downalong,Hotel/bed & breakfast/guest house,7842,5,,335594,5,,50.62685000000000,16234,088,publichealth@purbeck-dc.gov.uk,Purbeck,http://www.dorsetforyou.com/purbeck,-2.24502100000000,BH20 5RW,2011-09-16,fhrs_5_en-GB,5,,FHRS,5
300872,Downshay Farm,Haycrafts Lane,Harmans Cross,Dorset,Downshay Farm B&B,Hotel/bed & breakfast/guest house,7842,10,,335873,5,,50.62083700000000,589,088,publichealth@purbeck-dc.gov.uk,Purbeck,http://www.dorsetforyou.com/purbeck,-2.02455500000000,BH19 3EB,2013-12-17,fhrs_4_en-GB,4,,FHRS,5
300873,,5-7 East Street,Wareham,Dorset,Duke of Wellington,Pub/bar/nightclub,7843,5,,336069,5,,50.68633700000000,974,088,publichealth@purbeck-dc.gov.uk,Purbeck,http://www.dorsetforyou.com/purbeck,-2.10873000000000,BH20 4NN,2014-07-03,fhrs_4_en-GB,4,,FHRS,10
300874,,Durdle Door Holiday Park,West Lulworth,Wareham,Durdle Door Stores,Retailers - other,4613,5,,335812,5,,50.62937164306641,487,088,publichealth@purbeck-dc.gov.uk,Purbeck,http://www.dorsetforyou.com/purbeck,-2.26839065551758,BH20 5PU,2014-10-08,fhrs_4_en-GB,4,,FHRS,10
300875,"Unit 12, The Courtyard Centre Cottage Farm",Huntick Road,Lytchett Matravers,Dorset,Dylans Restaurant & Function Room,Restaurant/Cafe/Canteen,1,0,,721906,0,,50.74365100000000,28888,088,publichealth@purbeck-dc.gov.uk,Purbeck,http://www.dorsetforyou.com/purbeck,-2.05212900000000,BH16 6BA,2014-11-24,fhrs_4_en-GB,4,,FHRS,10
300876,,36 High Street,Swanage,Dorset,Earthlights Cafe,Restaurant/Cafe/Canteen,1,5,,335954,5,,50.60846700000000,735,088,publichealth@purbeck-dc.gov.uk,Purbeck,http://www.dorsetforyou.com/purbeck,-1.95739200000000,BH19 2NU,2013-08-22,fhrs_4_en-GB,4,,FHRS,10
300877,,East Burton Road,Wool,Dorset,East Burton House,Hotel/bed & breakfast/guest house,7842,10,,356994,0,,50.68167300000000,10472,088,publichealth@purbeck-dc.gov.uk,Purbeck,http://www.dorsetforyou.com/purbeck,-2.23483200000000,BH20 6HE,2014-06-10,fhrs_4_en-GB,4,,FHRS,5
300878,Building 40,Allenby Barracks,Bovington,Wool,"Elior Services, Elior 1",Mobile caterer,7846,5,,700957,5,,50.70167800000000,28588,088,publichealth@purbeck-dc.gov.uk,Purbeck,http://www.dorsetforyou.com/purbeck,-2.24078100000000,BH20 6JA,2014-09-17,fhrs_4_en-GB,4,,FHRS,10
300879,Building 40,Allenby Barracks,Bovington,Wool,"Elior Services, Elior 2",Mobile caterer,7846,5,,700958,5,,50.70167800000000,28589,088,publichealth@purbeck-dc.gov.uk,Purbeck,http://www.dorsetforyou.com/purbeck,-2.24078100000000,BH20 6JA,2014-09-17,fhrs_4_en-GB,4,,FHRS,10
300880,,45 Station Road,Swanage,Dorset,Elizabeth's,Restaurant/Cafe/Canteen,1,5,,336031,0,,50.60959200000000,894,088,publichealth@purbeck-dc.gov.uk,Purbeck,http://www.dorsetforyou.com/purbeck,-1.95890300000000,BH19 1AD,2014-06-03,fhrs_5_en-GB,5,,FHRS,5
300881,,160 Victoria Avenue,Swanage,Dorset,Emmanuel Baptist Church,Other catering premises,7841,10,,693928,5,,50.61156600000000,28758,088,publichealth@purbeck-dc.gov.uk,Purbeck,http://www.dorsetforyou.com/purbeck,-1.97601700000000,BH19 1AZ,2014-04-02,fhrs_4_en-GB,4,,FHRS,5
300882,,33 North Street,Wareham,Dorset,Europa,Restaurant/Cafe/Canteen,1,5,,706811,5,,50.68771100000000,28772,088,publichealth@purbeck-dc.gov.uk,Purbeck,http://www.dorsetforyou.com/purbeck,-2.11108300000000,BH20 4AD,2014-09-24,fhrs_5_en-GB,5,,FHRS,5
300883,,Wareham Road,Organford,Dorset,Farmer Palmers Farm Park,Restaurant/Cafe/Canteen,1,,,335728,,,50.73287500000000,317,088,publichealth@purbeck-dc.gov.uk,Purbeck,http://www.dorsetforyou.com/purbeck,-2.08734200000000,BH16 6EU,2014-04-26,fhrs_5_en-GB,5,,FHRS,
300884,,8 North Street,Wareham,Dorset,Farwells,Retailers - other,4613,10,,336077,5,,50.68648900000000,993,088,publichealth@purbeck-dc.gov.uk,Purbeck,http://www.dorsetforyou.com/purbeck,-2.10980600000000,BH20 4AF,2014-09-09,fhrs_4_en-GB,4,,FHRS,5
300885,Fingle Bridge,Duck Street,Wool,Dorset,Fingle Bridge,Hotel/bed & breakfast/guest house,7842,5,,335842,5,,50.67733100000000,533,088,publichealth@purbeck-dc.gov.uk,Purbeck,http://www.dorsetforyou.com/purbeck,-2.22036100000000,BH20 6DE,2015-01-27,fhrs_5_en-GB,5,,FHRS,5
300886,Finleys Cafe,Main Road,West Lulworth,Dorset,Finley's,Restaurant/Cafe/Canteen,1,5,,335804,5,,50.61964100000000,477,088,publichealth@purbeck-dc.gov.uk,Purbeck,http://www.dorsetforyou.com/purbeck,-2.25182500000000,BH20 5RQ,2013-08-12,fhrs_5_en-GB,5,,FHRS,5
300887,,29 Kings Road West,Swanage,Dorset,Firswood Guest House Ltd,Hotel/bed & breakfast/guest house,7842,10,,335980,10,,50.60912500000000,798,088,publichealth@purbeck-dc.gov.uk,Purbeck,http://www.dorsetforyou.com/purbeck,-1.96068400000000,BH19 1HF,2013-06-24,fhrs_3_en-GB,3,,FHRS,10
300888,,14 West Street,Wareham,Dorset,Five & Dime,Restaurant/Cafe/Canteen,1,5,,335544,5,,50.68577700000000,1152,088,publichealth@purbeck-dc.gov.uk,Purbeck,http://www.dorsetforyou.com/purbeck,-2.11123400000000,BH20 4JX,2013-08-06,fhrs_5_en-GB,5,,FHRS,5
300889,,67 High Street,Swanage,Dorset,Floribunda Tea Lounge,Restaurant/Cafe/Canteen,1,5,,619612,5,,50.60789200000000,28599,088,publichealth@purbeck-dc.gov.uk,Purbeck,http://www.dorsetforyou.com/purbeck,-1.95906000000000,BH19 2LY,2013-12-10,fhrs_5_en-GB,5,,FHRS,5
300890,,155 Whitefield Road,West Morden,Dorset,Flossies Catering,Retailers - other,4613,0,,721902,5,,50.75245700000000,22060,088,publichealth@purbeck-dc.gov.uk,Purbeck,http://www.dorsetforyou.com/purbeck,-2.13788600000000,BH20 7DU,2014-12-08,fhrs_5_en-GB,5,,FHRS,5
300891,Focus Nursery School,Worgret Road,Wareham,Dorset,Focus Nursery School,School/college/university,7845,5,,335549,5,,50.68448500000000,1161,088,publichealth@purbeck-dc.gov.uk,Purbeck,http://www.dorsetforyou.com/purbeck,-2.11765700000000,BH20 4PH,2014-09-17,fhrs_5_en-GB,5,,FHRS,5
300892,,3 The Mowlem,Swanage,Dorset,Fortes Coffee Shop,Restaurant/Cafe/Canteen,1,5,,335967,5,,50.60939300000000,768,088,publichealth@purbeck-dc.gov.uk,Purbeck,http://www.dorsetforyou.com/purbeck,-1.95675500000000,BH19 1DD,2014-01-17,fhrs_5_en-GB,5,,FHRS,5
300893,,2 The Mowlem,Swanage,Dorset,Fortes Gelateria,Takeaway/sandwich shop,7844,5,,426957,5,,50.60939300000000,766,088,publichealth@purbeck-dc.gov.uk,Purbeck,http://www.dorsetforyou.com/purbeck,-1.95675500000000,BH19 1DD,2014-07-08,fhrs_5_en-GB,5,,FHRS,0
300894,,11c Shore Road,Swanage,Dorset,Fortes Ice Cream Parlour,Retailers - other,4613,5,,336014,5,,50.60976200000000,864,088,publichealth@purbeck-dc.gov.uk,Purbeck,http://www.dorsetforyou.com/purbeck,-1.95744700000000,BH19 1LA,2014-07-08,fhrs_5_en-GB,5,,FHRS,5
300895,,8 West Street,Corfe Castle,Dorset,Fox Inn,Pub/bar/nightclub,7843,10,,335582,10,,50.63746200000000,145,088,publichealth@purbeck-dc.gov.uk,Purbeck,http://www.dorsetforyou.com/purbeck,-2.05741200000000,BH20 5HD,2013-09-04,fhrs_3_en-GB,3,,FHRS,10
300896,,2-6 Station Road,Swanage,Dorset,Funworld Cafe,Restaurant/Cafe/Canteen,1,5,,336034,5,,50.60930400000000,898,088,publichealth@purbeck-dc.gov.uk,Purbeck,http://www.dorsetforyou.com/purbeck,-1.95791400000000,BH19 1AB,2014-01-17,fhrs_5_en-GB,5,,FHRS,5
300897,The Quay Kiosks,High Street,Swanage,Dorset,Gee Whites,Restaurant/Cafe/Canteen,1,5,,335945,5,,50.61017300000000,716,088,publichealth@purbeck-dc.gov.uk,Purbeck,http://www.dorsetforyou.com/purbeck,-1.97904200000000,BH19 2NP,2014-05-15,fhrs_5_en-GB,5,,FHRS,5
300898,,11-13 South Street,Wareham,Dorset,Gen Plus Retail Ltd,Other catering premises,7841,,,335525,,,50.68524900000000,1107,088,publichealth@purbeck-dc.gov.uk,Purbeck,http://www.dorsetforyou.com/purbeck,-2.10933600000000,BH20 4LR,2013-09-23,fhrs_exempt_en-GB,Exempt,,FHRS,
300899,,,,,Gills Cakes,Other catering premises,7841,5,,499529,5,,,606,088,publichealth@purbeck-dc.gov.uk,Purbeck,http://www.dorsetforyou.com/purbeck,,,2013-01-16,fhrs_5_en-GB,5,,FHRS,5
300900,"Unit 9, Sandford Farm",Sandford Lane,Wareham,Dorset,Gill's Catering,Mobile caterer,7846,20,,335518,15,,50.69503400000000,1063,088,publichealth@purbeck-dc.gov.uk,Purbeck,http://www.dorsetforyou.com/purbeck,-2.10818400000000,BH20 4DY,2014-04-24,fhrs_1_en-GB,1,,FHRS,10
300901,,343-345 High Street,Swanage,Dorset,Golden Bengal Tandoori,Restaurant/Cafe/Canteen,1,5,,335938,5,,50.61033400000000,708,088,publichealth@purbeck-dc.gov.uk,Purbeck,http://www.dorsetforyou.com/purbeck,-1.97730300000000,BH19 2NW,2013-11-26,fhrs_4_en-GB,4,,FHRS,10
300902,"Unit A, Cornerways",King George V Road,Bovington,Dorset,Golden Eagle Chinese Takeaway,Takeaway/sandwich shop,7844,5,,335850,5,,50.69974200000000,554,088,publichealth@purbeck-dc.gov.uk,Purbeck,http://www.dorsetforyou.com/purbeck,-2.24228600000000,BH20 6JQ,2014-02-11,fhrs_5_en-GB,5,,FHRS,5
300903,,,,,Good Hostess Catering,Other catering premises,7841,5,,335709,5,,,286,088,publichealth@purbeck-dc.gov.uk,Purbeck,http://www.dorsetforyou.com/purbeck,,,2014-09-19,fhrs_5_en-GB,5,,FHRS,5
300904,,2 Walrond Road,Swanage,Dorset,Goodwyns B&B,Hotel/bed & breakfast/guest house,7842,5,,336055,0,,50.61355800000000,943,088,publichealth@purbeck-dc.gov.uk,Purbeck,http://www.dorsetforyou.com/purbeck,-1.96090700000000,BH19 1PB,2013-07-01,fhrs_5_en-GB,5,,FHRS,5
300905,,12 Burlington Road,Swanage,Dorset,Grand Hotel (Swanage) Ltd,Hotel/bed & breakfast/guest house,7842,10,,335892,15,,50.61974400000000,616,088,publichealth@purbeck-dc.gov.uk,Purbeck,http://www.dorsetforyou.com/purbeck,-1.95633600000000,BH19 1LS,2014-05-07,fhrs_2_en-GB,2,,FHRS,15
300906,,14-16 Station Road,Swanage,Dorset,Greggs,Takeaway/sandwich shop,7844,0,,335994,5,,50.60957300000000,825,088,publichealth@purbeck-dc.gov.uk,Purbeck,http://www.dorsetforyou.com/purbeck,-1.95785700000000,BH19 1AE,2014-11-10,fhrs_5_en-GB,5,,FHRS,5
300907,Store Plus,Church Road,West Lulworth,Dorset,Hambury Stores,Retailers - other,4613,0,,335790,5,,50.62481100000000,459,088,publichealth@purbeck-dc.gov.uk,Purbeck,http://www.dorsetforyou.com/purbeck,-2.25199400000000,BH20 5SG,2014-06-09,fhrs_5_en-GB,5,,FHRS,5
300908,,355 High Street,Swanage,Dorset,Harlees Fish and Chips Ltd,Takeaway/sandwich shop,7844,5,,335939,5,,50.61017300000000,709,088,publichealth@purbeck-dc.gov.uk,Purbeck,http://www.dorsetforyou.com/purbeck,-1.97904200000000,BH19 2NP,2015-01-12,fhrs_4_en-GB,4,,FHRS,10
300909,Harrow House,Harrow Drive,Swanage,Dorset,Harrow House International College,School/college/university,7845,5,,336056,5,,50.77915191650391,944,088,publichealth@purbeck-dc.gov.uk,Purbeck,http://www.dorsetforyou.com/purbeck,-2.32034993171692,BH19 1PD,2015-01-28,fhrs_5_en-GB,5,,FHRS,5
300910,,20 South Street,Wareham,Dorset,Harry's Cafe Bar,Restaurant/Cafe/Canteen,1,5,,335531,5,,50.68531100000000,1118,088,publichealth@purbeck-dc.gov.uk,Purbeck,http://www.dorsetforyou.com/purbeck,-2.10983100000000,BH20 4LT,2014-12-22,fhrs_4_en-GB,4,,FHRS,10
300911,,15 Shore Close,Upton,Dorset,Harts The Good Food Company,Other catering premises,7841,5,,335722,5,,50.73259800000000,311,088,publichealth@purbeck-dc.gov.uk,Purbeck,http://www.dorsetforyou.com/purbeck,-2.02729200000000,BH16 5DZ,2014-10-15,fhrs_5_en-GB,5,,FHRS,5
300912,Haycrafts Farm Caravan And Cam,Haycrafts Lane,Harmans Cross,Dorset,Haycraft Caravan Club Site,Retailers - other,4613,5,,335876,0,,50.62083700000000,591,088,publichealth@purbeck-dc.gov.uk,Purbeck,http://www.dorsetforyou.com/purbeck,-2.02455500000000,BH19 3EB,2014-06-03,fhrs_5_en-GB,5,,FHRS,5
300913,Hedgerow,Haycrafts Lane,Harmans Cross,Dorset,Haycrafts Lane Campsite shop,Mobile caterer,7846,5,,426955,0,,50.62083700000000,28278,088,publichealth@purbeck-dc.gov.uk,Purbeck,http://www.dorsetforyou.com/purbeck,-2.02455500000000,BH19 3EB,2014-07-18,fhrs_5_en-GB,5,,FHRS,5
300914,,8 Institute Road,Swanage,Dorset,Haymans Bakery,Restaurant/Cafe/Canteen,1,5,,335975,5,,50.60880000000000,782,088,publichealth@purbeck-dc.gov.uk,Purbeck,http://www.dorsetforyou.com/purbeck,-1.95709500000000,BH19 1BX,2014-05-14,fhrs_5_en-GB,5,,FHRS,5
300915,,6 Cecil Road,Swanage,Dorset,Heathcote Residential Care Home,Hospitals/Childcare/Caring Premises,5,10,,335898,10,,50.60986500000000,624,088,publichealth@purbeck-dc.gov.uk,Purbeck,http://www.dorsetforyou.com/purbeck,-1.96926200000000,BH19 1JJ,2014-11-21,fhrs_3_en-GB,3,,FHRS,5
300916,,142 Sandy Lane,Upton,Dorset,Heatherdell,Other catering premises,7841,5,,335775,5,,50.73588700000000,4131,088,publichealth@purbeck-dc.gov.uk,Purbeck,http://www.dorsetforyou.com/purbeck,-2.03789300000000,BH16 5LY,2011-05-03,fhrs_4_en-GB,4,,FHRS,10
300917,,1 Manor Road,Swanage,Dorset,Hermitage Guest House,Hotel/bed & breakfast/guest house,7842,10,,335992,5,,50.60675900000000,821,088,publichealth@purbeck-dc.gov.uk,Purbeck,http://www.dorsetforyou.com/purbeck,-1.95780300000000,BH19 2BH,2013-07-02,fhrs_4_en-GB,4,,FHRS,5
300918,Hesrton Yard Campsite,Washpond Lane,Swanage,Dorset,Herston Campsite Restaurant and Takeaway,Takeaway/sandwich shop,7844,5,,336058,5,,50.60891500000000,947,088,publichealth@purbeck-dc.gov.uk,Purbeck,http://www.dorsetforyou.com/purbeck,-1.98858200000000,BH19 3DL,2014-07-04,fhrs_4_en-GB,4,,FHRS,10
300919,Hesrton Yard Campsite,Washpond Lane,Swanage,Dorset,Herston Yards Campsite Shop,Retailers - other,4613,5,,693946,5,,50.60891500000000,948,088,publichealth@purbeck-dc.gov.uk,Purbeck,http://www.dorsetforyou.com/purbeck,-1.98858200000000,BH19 3DL,2014-07-15,fhrs_5_en-GB,5,,FHRS,5
300920,,3 High Street,Swanage,Dorset,High Street Cafe,Restaurant/Cafe/Canteen,1,5,,335917,5,,50.60772000000000,663,088,publichealth@purbeck-dc.gov.uk,Purbeck,http://www.dorsetforyou.com/purbeck,-1.95477800000000,BH19 2LN,2013-12-17,fhrs_4_en-GB,4,,FHRS,10
300921,,West Holme Farm,West Holme,Dorset,Holme Farm Shop,Retailers - other,4613,10,,335606,5,,50.67226400000000,174,088,publichealth@purbeck-dc.gov.uk,Purbeck,http://www.dorsetforyou.com/purbeck,-2.16258500000000,BH20 6AQ,2013-12-11,fhrs_4_en-GB,4,,FHRS,5
300922,Unit 1,46 Holton Road,Holton Heath Trading Park,Dorset,Holton Heath Cafe,Restaurant/Cafe/Canteen,1,5,,568960,5,,50.71453900000000,28465,088,publichealth@purbeck-dc.gov.uk,Purbeck,http://www.dorsetforyou.com/purbeck,-2.07349800000000,BH16 6LT,2015-01-08,fhrs_4_en-GB,4,,FHRS,10
300923,3 The Parade,Dorchester Road,Wool,Dorset,Hong Kong Garden,Takeaway/sandwich shop,7844,5,,335837,10,,50.68024000000000,525,088,publichealth@purbeck-dc.gov.uk,Purbeck,http://www.dorsetforyou.com/purbeck,-2.22699800000000,BH20 6EQ,2013-12-18,fhrs_3_en-GB,3,,FHRS,10
300924,,St Johns Hill,Wareham,Dorset,Horse and Groom,Pub/bar/nightclub,7843,5,,335515,5,,50.68476300000000,1052,088,publichealth@purbeck-dc.gov.uk,Purbeck,http://www.dorsetforyou.com/purbeck,-2.10892400000000,BH20 4LZ,2014-07-16,fhrs_5_en-GB,5,,FHRS,5
300925,,27 North Street,Wareham,Dorset,Horseys Ltd,Retailers - other,4613,5,,335502,0,,50.68771100000000,1011,088,publichealth@purbeck-dc.gov.uk,Purbeck,http://www.dorsetforyou.com/purbeck,-2.11108300000000,BH20 4AD,2014-01-22,fhrs_4_en-GB,4,,FHRS,10
300926,Hunters Moon Caravan Site,Bere Road,Coldharbour,Dorset,Hunters Moon Caravan Site,Retailers - other,4613,5,,335759,0,,50.71035500000000,382,088,publichealth@purbeck-dc.gov.uk,Purbeck,http://www.dorsetforyou.com/purbeck,-2.14341300000000,BH20 7PA,2014-07-25,fhrs_5_en-GB,5,,FHRS,5
300927,Hyde Cottage,48 Furzebrook Road,Stoborough,Dorset,Hyde Cottage,Hotel/bed & breakfast/guest house,7842,10,,406931,5,,50.66515600000000,11101,088,publichealth@purbeck-dc.gov.uk,Purbeck,http://www.dorsetforyou.com/purbeck,-2.10282300000000,BH20 5AX,2014-07-07,fhrs_4_en-GB,4,,FHRS,5
300928,Durdle Door Holiday Park,Church Road To Winfrith Drove,West Lulworth,Dorset,"Ice Cream Kiosk, Weld Enterprises Ltd",Mobile caterer,7846,5,,335814,5,,50.62937000000000,489,088,publichealth@purbeck-dc.gov.uk,Purbeck,http://www.dorsetforyou.com/purbeck,-2.26839100000000,BH20 5PU,2014-06-05,fhrs_5_en-GB,5,,FHRS,5
300929,,,,,Iced Gems,Retailers - other,4613,5,,633260,5,,,6280,088,publichealth@purbeck-dc.gov.uk,Purbeck,http://www.dorsetforyou.com/purbeck,,,2014-02-12,fhrs_5_en-GB,5,,FHRS,5
300930,,Windsor Close,Bovington,Dorset,Indiana,Restaurant/Cafe/Canteen,1,10,,693914,15,,50.69956300000000,17493,088,publichealth@purbeck-dc.gov.uk,Purbeck,http://www.dorsetforyou.com/purbeck,-2.24156300000000,BH20 6HZ,2014-04-04,fhrs_2_en-GB,2,,FHRS,10
300931,,Corfe Road,Studland,Swanage,Isle of Purbeck Golf Club Ltd,Restaurant/Cafe/Canteen,1,5,,335751,5,,50.64050700000000,372,088,publichealth@purbeck-dc.gov.uk,Purbeck,http://www.dorsetforyou.com/purbeck,-1.95398300000000,BH19 3AE,2014-12-09,fhrs_5_en-GB,5,,FHRS,5
300932,,34 High Street,Swanage,Dorset,J J Moore (Swanage) Ltd,Retailers - other,4613,5,,335953,5,,50.60846700000000,734,088,publichealth@purbeck-dc.gov.uk,Purbeck,http://www.dorsetforyou.com/purbeck,-1.95739200000000,BH19 2NU,2015-02-03,fhrs_4_en-GB,4,,FHRS,10
300933,Rogers Hill Farm,Rogers Hill,Briantspuddle,Dorset,J.H.Hall & Sons (Farms) Ltd & Race Track,Mobile caterer,7846,10,,335496,5,,50.75511100000000,1,088,publichealth@purbeck-dc.gov.uk,Purbeck,http://www.dorsetforyou.com/purbeck,-2.25860500000000,DT2 7HJ,2013-07-18,fhrs_3_en-GB,3,,FHRS,10
300934,,37 Station Road,Swanage,Dorset,Jacks Bakery & Bistro Ltd,Restaurant/Cafe/Canteen,1,5,,721908,10,,50.60959200000000,28890,088,publichealth@purbeck-dc.gov.uk,Purbeck,http://www.dorsetforyou.com/purbeck,-1.95890300000000,BH19 1AD,2014-11-28,fhrs_3_en-GB,3,,FHRS,10
300935,,53 Ulwell Road,Swanage,Dorset,James Day Care Centre,Hospitals/Childcare/Caring Premises,5,5,,480095,0,,50.62167900000000,28322,088,publichealth@purbeck-dc.gov.uk,Purbeck,http://www.dorsetforyou.com/purbeck,-1.96107000000000,BH19 1LQ,2014-11-04,fhrs_4_en-GB,4,,FHRS,10
300936,,98 Priests Road,Swanage,Dorset,Jay Wilkinson,Other catering premises,7841,10,,595106,5,,50.60766300000000,7744,088,publichealth@purbeck-dc.gov.uk,Purbeck,http://www.dorsetforyou.com/purbeck,-1.97481700000000,BH19 2RR,2013-10-07,fhrs_4_en-GB,4,,FHRS,5
300937,,21 High Street,Swanage,Dorset,Jenkins,Retailers - other,4613,10,,335923,5,,50.60765700000000,672,088,publichealth@purbeck-dc.gov.uk,Purbeck,http://www.dorsetforyou.com/purbeck,-1.95540000000000,BH19 2LP,2014-08-06,fhrs_3_en-GB,3,,FHRS,10
300938,,3 West Street,Corfe Castle,Dorset,Joe's Cafe,Other catering premises,7841,5,,335816,5,,50.63686900000000,491,088,publichealth@purbeck-dc.gov.uk,Purbeck,http://www.dorsetforyou.com/purbeck,-2.05786400000000,BH20 5HA,2014-11-10,fhrs_5_en-GB,5,,FHRS,5
300939,Kiosk,South Beach,Studland,Swanage,Joe's Cafe,Restaurant/Cafe/Canteen,1,5,,335755,5,,50.64162700000000,375,088,publichealth@purbeck-dc.gov.uk,Purbeck,http://www.dorsetforyou.com/purbeck,-1.94459200000000,BH19 3AN,2014-11-10,fhrs_5_en-GB,5,,FHRS,5
300940,Lucayan Cottage,Studland Road,Corfe Castle,Dorset,Jonti's B&B,Hotel/bed & breakfast/guest house,7842,5,,695997,0,,50.64337600000000,18381,088,publichealth@purbeck-dc.gov.uk,Purbeck,http://www.dorsetforyou.com/purbeck,-2.04450800000000,BH20 5JG,2014-08-08,fhrs_5_en-GB,5,,FHRS,5
300941,The Chatsworth Centre,33-37 Ulwell Road,Swanage,Dorset,Joseph Allnatt Centres Ltd,School/college/university,7845,0,,336045,0,,50.62119300000000,922,088,publichealth@purbeck-dc.gov.uk,Purbeck,http://www.dorsetforyou.com/purbeck,-1.96033500000000,BH19 1LG,2014-02-05,fhrs_5_en-GB,5,,FHRS,5
300942,,,,,Judy's Kitchen,Other catering premises,7841,5,,516602,0,,,26540,088,publichealth@purbeck-dc.gov.uk,Purbeck,http://www.dorsetforyou.com/purbeck,,,2015-01-20,fhrs_5_en-GB,5,,FHRS,5
300943,,,,,Jurassic Cottage Foods,Retailers - other,4613,10,,693938,5,,,5027,088,publichealth@purbeck-dc.gov.uk,Purbeck,http://www.dorsetforyou.com/purbeck,,,2014-07-26,fhrs_3_en-GB,3,,FHRS,10
300944,,36 Elder Road,Bere Regis,Dorset,Just Crumbs,Retailers - other,4613,5,,555890,5,,50.75279400000000,10811,088,publichealth@purbeck-dc.gov.uk,Purbeck,http://www.dorsetforyou.com/purbeck,-2.22189200000000,BH20 7NA,2013-06-07,fhrs_5_en-GB,5,,FHRS,5
300945,The Old Barn,Church Road,Moreton,Dorset,Just Sheila (Sheila's Wagon),Mobile caterer,7846,5,,335736,5,,50.70261700000000,344,088,publichealth@purbeck-dc.gov.uk,Purbeck,http://www.dorsetforyou.com/purbeck,-2.28323800000000,DT2 8RG,2014-02-24,fhrs_5_en-GB,5,,FHRS,5
300946,,69 High Street,Swanage,Dorset,Kaffee und Kuchen @ Station Buffet Ltd,Restaurant/Cafe/Canteen,1,5,,371678,5,,50.60789200000000,690,088,publichealth@purbeck-dc.gov.uk,Purbeck,http://www.dorsetforyou.com/purbeck,-1.95906000000000,BH19 2LY,2013-11-05,fhrs_5_en-GB,5,,FHRS,5
300947,2 Greens Barn,South Street,Wareham,Dorset,Kaff's Coffee Pot,Restaurant/Cafe/Canteen,1,0,,335513,5,,50.68582400000000,1045,088,publichealth@purbeck-dc.gov.uk,Purbeck,http://www.dorsetforyou.com/purbeck,-2.10913900000000,BH20 4NX,2014-12-01,fhrs_5_en-GB,5,,FHRS,5
300948,Hedgerow,Haycrafts Lane,Harmans Cross,Dorset,Karen's Catering (Burger Van),Mobile caterer,7846,5,,335877,5,,50.62083700000000,593,088,publichealth@purbeck-dc.gov.uk,Purbeck,http://www.dorsetforyou.com/purbeck,-2.02455500000000,BH19 3EB,2014-07-18,fhrs_5_en-GB,5,,FHRS,5
300949,,,,,Kates Catering,Other catering premises,7841,10,,619609,5,,,208,088,publichealth@purbeck-dc.gov.uk,Purbeck,http://www.dorsetforyou.com/purbeck,,,2013-11-27,fhrs_4_en-GB,4,,FHRS,5
300950,,,,,Katie's Cakes of Purbeck,Retailers - other,4613,5,,619611,0,,,24793,088,publichealth@purbeck-dc.gov.uk,Purbeck,http://www.dorsetforyou.com/purbeck,,,2013-12-04,fhrs_5_en-GB,5,,FHRS,5
300951,,East Stoke,Wareham,Dorset,Kemps Country House Hotel,Hotel/bed & breakfast/guest house,7842,10,,335596,5,,50.68225097656250,165,088,publichealth@purbeck-dc.gov.uk,Purbeck,http://www.dorsetforyou.com/purbeck,-2.17269778251648,BH20 6AL,2014-05-20,fhrs_4_en-GB,4,,FHRS,5
300952,Kimmeridge Farm House,,Kimmeridge,Dorset,Kimmeridge Farmhouse B&B,Hotel/bed & breakfast/guest house,7842,5,,335614,0,,50.61667700000000,183,088,publichealth@purbeck-dc.gov.uk,Purbeck,http://www.dorsetforyou.com/purbeck,-2.12056900000000,BH20 5PE,2013-06-25,fhrs_5_en-GB,5,,FHRS,5
300953,,198 High Street,Swanage,Dorset,Knapp Stores,Retailers - other,4613,10,,335962,5,,50.61055900000000,753,088,publichealth@purbeck-dc.gov.uk,Purbeck,http://www.dorsetforyou.com/purbeck,-1.97495700000000,BH19 2PQ,2014-05-14,fhrs_4_en-GB,4,,FHRS,5
300954,Knoll Beach Visitor Centre,Knoll Beach,Studland,Dorset,"Knoll Beach Cafe, Seapod Mobile Food Unit & Ice cream Wagon",Restaurant/Cafe/Canteen,1,5,,335748,10,,50.64951000000000,367,088,publichealth@purbeck-dc.gov.uk,Purbeck,http://www.dorsetforyou.com/purbeck,-1.95762400000000,BH19 3AH,2014-06-10,fhrs_4_en-GB,4,,FHRS,5
300955,,Ferry Road,Studland,Dorset,Knoll House Hotel Ltd,Hotel/bed & breakfast/guest house,7842,10,,335746,15,,50.64951000000000,362,088,publichealth@purbeck-dc.gov.uk,Purbeck,http://www.dorsetforyou.com/purbeck,-1.95762400000000,BH19 3AH,2014-11-04,fhrs_2_en-GB,2,,FHRS,5
300956,,16b South Street,Wareham,Dorset,KW Chinese,Takeaway/sandwich shop,7844,5,,335529,5,,50.68531100000000,1111,088,publichealth@purbeck-dc.gov.uk,Purbeck,http://www.dorsetforyou.com/purbeck,-2.10983100000000,BH20 4LT,2013-09-24,fhrs_4_en-GB,4,,FHRS,10
300957,,86 Wareham Road,Lytchett Matravers,Dorset,L A Hannam & Sons,Retailers - other,4613,5,,335665,5,,50.75485900000000,238,088,publichealth@purbeck-dc.gov.uk,Purbeck,http://www.dorsetforyou.com/purbeck,-2.07828200000000,BH16 6DT,2014-02-13,fhrs_5_en-GB,5,,FHRS,5
300958,Lytchett Minster School,Post Green Road,Lytchett Minster,Dorset,L M Services Ltd @ Lytchett Minster School,School/college/university,7845,0,,564767,0,,50.74113900000000,28522,088,publichealth@purbeck-dc.gov.uk,Purbeck,http://www.dorsetforyou.com/purbeck,-2.05867400000000,BH16 6JD,2014-12-15,fhrs_5_en-GB,5,,FHRS,5
300959,,12 High Street,Swanage,Dorset,La Trattoria,Restaurant/Cafe/Canteen,1,5,,335948,5,,50.60791800000000,722,088,publichealth@purbeck-dc.gov.uk,Purbeck,http://www.dorsetforyou.com/purbeck,-1.95524400000000,BH19 2NT,2013-08-14,fhrs_5_en-GB,5,,FHRS,5
300960,,15 High Street,Swanage,Dorset,Lai Ho Chinese Restaurant,Restaurant/Cafe/Canteen,1,10,,335933,5,,50.60765700000000,698,088,publichealth@purbeck-dc.gov.uk,Purbeck,http://www.dorsetforyou.com/purbeck,-1.95540000000000,BH19 2LP,2014-12-17,fhrs_4_en-GB,4,,FHRS,5
300961,Village Hall,High Street,Langton Matravers,Dorset,Langton Matravers Village Hall,Other catering premises,7841,5,,335628,5,,50.60938300000000,192,088,publichealth@purbeck-dc.gov.uk,Purbeck,http://www.dorsetforyou.com/purbeck,-2.00364700000000,BH19 3HA,2013-06-05,fhrs_5_en-GB,5,,FHRS,5
300962,,31 High Street,Langton Matravers,Dorset,Langton Post Office & Store,Retailers - other,4613,5,,335627,5,,50.60938300000000,191,088,publichealth@purbeck-dc.gov.uk,Purbeck,http://www.dorsetforyou.com/purbeck,-2.00364700000000,BH19 3HA,2013-11-26,fhrs_4_en-GB,4,,FHRS,10
300963,,Leeson House,Langton Matravers,Nr Swanage,Leeson House Field Study Centre,School/college/university,7845,0,,335619,0,,50.61007600000000,188,088,publichealth@purbeck-dc.gov.uk,Purbeck,http://www.dorsetforyou.com/purbeck,-1.99731500000000,BH19 3EU,2013-03-16,fhrs_5_en-GB,5,,FHRS,5
300964,Village Hall,,Briantspuddle,Dorset,Lets Lunch & Community Coffee Shop,Other catering premises,7841,5,,629906,5,,50.73807200000000,28661,088,publichealth@purbeck-dc.gov.uk,Purbeck,http://www.dorsetforyou.com/purbeck,-2.26161500000000,DT2 7HY,2014-01-13,fhrs_5_en-GB,5,,FHRS,0
300965,,Main Road,West Lulworth,Dorset,Limestone at Lulworth Hotel,Hotel/bed & breakfast/guest house,7842,5,,612343,5,,50.62487900000000,28597,088,publichealth@purbeck-dc.gov.uk,Purbeck,http://www.dorsetforyou.com/purbeck,-2.24974600000000,BH20 5RL,2013-11-25,fhrs_5_en-GB,5,,FHRS,5
300966,,,,,Little Dove Bakery,Retailers - other,4613,5,,695996,0,,,18324,088,publichealth@purbeck-dc.gov.uk,Purbeck,http://www.dorsetforyou.com/purbeck,,,2014-08-27,fhrs_5_en-GB,5,,FHRS,5
300967,N A A F I 809,Gaza Road,Bovington,Dorset,Londis,Retailers - supermarkets/hypermarkets,7840,5,,335863,5,,50.70173500000000,573,088,publichealth@purbeck-dc.gov.uk,Purbeck,http://www.dorsetforyou.com/purbeck,-2.24375400000000,BH20 6LB,2015-01-15,fhrs_4_en-GB,4,,FHRS,10
300968,,21 West Street,Wareham,Dorset,Long Johns Fish and Chips,Takeaway/sandwich shop,7844,5,,335546,5,,50.68565200000000,1156,088,publichealth@purbeck-dc.gov.uk,Purbeck,http://www.dorsetforyou.com/purbeck,-2.11066700000000,BH20 4JS,2014-02-07,fhrs_5_en-GB,5,,FHRS,5
300969,,19 East Street,Wareham,Dorset,Lotus,Takeaway/sandwich shop,7844,0,,336070,5,,50.68633700000000,975,088,publichealth@purbeck-dc.gov.uk,Purbeck,http://www.dorsetforyou.com/purbeck,-2.10873000000000,BH20 4NN,2014-04-30,fhrs_5_en-GB,5,,FHRS,5
300970,4 Rempstone Barns,Chapel Lane,Rempstone,"Corfe Castle, Dorset",Love Cake,Other catering premises,7841,5,,564765,5,,50.64918400000000,19819,088,publichealth@purbeck-dc.gov.uk,Purbeck,http://www.dorsetforyou.com/purbeck,-2.01503600000000,BH20 5JH,2015-02-05,fhrs_5_en-GB,5,,FHRS,5
300971,,42 High Street,Swanage,Dorset,Love Cake Etc,Restaurant/Cafe/Canteen,1,5,,629905,5,,50.60850400000000,28659,088,publichealth@purbeck-dc.gov.uk,Purbeck,http://www.dorsetforyou.com/purbeck,-1.95843800000000,BH19 2NX,2014-01-07,fhrs_4_en-GB,4,,FHRS,10
300972,,West Holme,Wareham,Dorset,Luckford Lake Farm,Hotel/bed & breakfast/guest house,7842,10,,335607,10,,50.67226409912109,175,088,publichealth@purbeck-dc.gov.uk,Purbeck,http://www.dorsetforyou.com/purbeck,-2.16258525848389,BH20 6AQ,2012-10-02,fhrs_3_en-GB,3,,FHRS,5
300973,,Church Lane,East Stoke,Dorset,Luckford Wood House,Hotel/bed & breakfast/guest house,7842,5,,335608,5,,50.67856200000000,176,088,publichealth@purbeck-dc.gov.uk,Purbeck,http://www.dorsetforyou.com/purbeck,-2.18460100000000,BH20 6AW,2014-11-19,fhrs_4_en-GB,4,,FHRS,10
300974,Winfrith Newburgh C Of E Primary School,School Lane,Winfrith Newburgh,Dorset,Lulworth & Winfrith Primary School,School/college/university,7845,5,,706814,5,,50.66227400000000,511,088,publichealth@purbeck-dc.gov.uk,Purbeck,http://www.dorsetforyou.com/purbeck,-2.27273800000000,DT2 8JL,2014-10-06,fhrs_5_en-GB,5,,FHRS,5
300975,Lulworth Cove Inn,Main Road,West Lulworth,Dorset,Lulworth Cove Inn,Hotel/bed & breakfast/guest house,7842,5,,335796,5,,50.61964100000000,465,088,publichealth@purbeck-dc.gov.uk,Purbeck,http://www.dorsetforyou.com/purbeck,-2.25182500000000,BH20 5RQ,2014-01-23,fhrs_4_en-GB,4,,FHRS,10
300976,Lulworth House,7 Bindon Road,West Lulworth,Dorset,Lulworth House B&B,Hotel/bed & breakfast/guest house,7842,5,,629903,0,,50.62384600000000,17007,088,publichealth@purbeck-dc.gov.uk,Purbeck,http://www.dorsetforyou.com/purbeck,-2.24943000000000,BH20 5RU,2014-01-15,fhrs_5_en-GB,5,,FHRS,5
300977,,Main Road,West Lulworth,Dorset,Lulworth Mill House,Hotel/bed & breakfast/guest house,7842,5,,335799,5,,50.61964100000000,470,088,publichealth@purbeck-dc.gov.uk,Purbeck,http://www.dorsetforyou.com/purbeck,-2.25182500000000,BH20 5RQ,2013-11-25,fhrs_4_en-GB,4,,FHRS,10
300978,,,,,Lyd's Produce,Retailers - other,4613,10,,721903,5,,,22392,088,publichealth@purbeck-dc.gov.uk,Purbeck,http://www.dorsetforyou.com/purbeck,,,2014-11-19,fhrs_3_en-GB,3,,FHRS,10
300979,Greenacres,Toms Field Road,Langton Matravers,Dorset,Lynch Bakery,Other catering premises,7841,5,,335611,5,,50.60763800000000,17841,088,publichealth@purbeck-dc.gov.uk,Purbeck,http://www.dorsetforyou.com/purbeck,-2.00862100000000,BH19 3HN,2011-11-10,fhrs_5_en-GB,5,,FHRS,5
300980,Lytchett Minster United Reform,Dorchester Road,Lytchett Minster,Dorset,Lyt. Minster & Upton Age Concern,Restaurant/Cafe/Canteen,1,5,,335679,5,,50.73923200000000,256,088,publichealth@purbeck-dc.gov.uk,Purbeck,http://www.dorsetforyou.com/purbeck,-2.05083400000000,,2014-10-27,fhrs_5_en-GB,5,,FHRS,5
300981,,Wareham Road,Lytchett Matravers,Poole,Lytchett Matravers Primary School,School/college/university,7845,0,,335660,5,,50.75379700000000,232,088,publichealth@purbeck-dc.gov.uk,Purbeck,http://www.dorsetforyou.com/purbeck,-2.07957100000000,BH16 6DY,2014-01-21,fhrs_5_en-GB,5,,FHRS,0
300982,Lulworth Gunnery School,Lulworth Camp,West Lulworth,Dorset,Main Kitchen & 20/20 Club,Restaurant/Cafe/Canteen,1,10,,335819,5,,50.63265800000000,494,088,publichealth@purbeck-dc.gov.uk,Purbeck,http://www.dorsetforyou.com/purbeck,-2.23243900000000,BH20 5QF,2014-11-19,fhrs_3_en-GB,3,,FHRS,10
300983,Manor Farm House,Watery Lane,Studland,Dorset,Manor Farm Tea Rooms,Restaurant/Cafe/Canteen,1,5,,558614,5,,50.64190900000000,25896,088,publichealth@purbeck-dc.gov.uk,Purbeck,http://www.dorsetforyou.com/purbeck,-1.95003600000000,BH19 3AT,2013-06-21,fhrs_5_en-GB,5,,FHRS,5
300984,,Church Knowle,Nr Wareham,Dorset,Margaret Green Animal Rescue,Retailers - other,4613,5,,336025,5,,50.63541900000000,88,088,publichealth@purbeck-dc.gov.uk,Purbeck,http://www.dorsetforyou.com/purbeck,-2.08898500000000,BH20 5NQ,2014-12-05,fhrs_5_en-GB,5,,FHRS,5
300985,Marley House,East Chaldon Road,Winfrith Newburgh,Dorset,Marley House Nursing Home,Hospitals/Childcare/Caring Premises,5,0,,335825,5,,50.65843000000000,506,088,publichealth@purbeck-dc.gov.uk,Purbeck,http://www.dorsetforyou.com/purbeck,-2.27809200000000,DT2 8JR,2014-10-31,fhrs_5_en-GB,5,,FHRS,5
300986,,6 Institute Road,Swanage,Dorset,Martins,Retailers - other,4613,5,,335974,5,,50.60880000000000,781,088,publichealth@purbeck-dc.gov.uk,Purbeck,http://www.dorsetforyou.com/purbeck,-1.95709500000000,BH19 1BX,2014-02-03,fhrs_4_en-GB,4,,FHRS,10
300987,,9 High Street,Swanage,Dorset,Masala Indian Restaurant,Restaurant/Cafe/Canteen,1,5,,335920,5,,50.60772000000000,666,088,publichealth@purbeck-dc.gov.uk,Purbeck,http://www.dorsetforyou.com/purbeck,-1.95477800000000,BH19 2LN,2013-10-14,fhrs_4_en-GB,4,,FHRS,10
300988,,Marshall Row,Swanage,Dorset,Masonic Hall,Other catering premises,7841,5,,335993,5,,50.60727000000000,822,088,publichealth@purbeck-dc.gov.uk,Purbeck,http://www.dorsetforyou.com/purbeck,-1.95506100000000,BH19 2AF,2014-09-19,fhrs_5_en-GB,5,,FHRS,5
300989,Memorial Hall,King George V Road,Bovington,Dorset,Matildas,Restaurant/Cafe/Canteen,1,5,,636998,5,,50.69974200000000,28662,088,publichealth@purbeck-dc.gov.uk,Purbeck,http://www.dorsetforyou.com/purbeck,-2.24228600000000,BH20 6JQ,2014-03-07,fhrs_5_en-GB,5,,FHRS,5
300990,Maycroft,Old Malthouse Lane,Langton Matravers,Dorset,Maycroft Bed and Breakfast,Hotel/bed & breakfast/guest house,7842,5,,335592,5,,50.61076800000000,16080,088,publichealth@purbeck-dc.gov.uk,Purbeck,http://www.dorsetforyou.com/purbeck,-2.00630400000000,BH19 3JA,2015-01-20,fhrs_5_en-GB,5,,FHRS,5
300991,Sandford General Stores,Sandford Road,Sandford,Wareham,McColls,Retailers - other,4613,5,,335777,5,,50.70540800000000,419,088,publichealth@purbeck-dc.gov.uk,Purbeck,http://www.dorsetforyou.com/purbeck,-2.10214600000000,BH20 7AF,2014-07-22,fhrs_5_en-GB,5,,FHRS,5
300992,,Beach Road,Studland,Dorset,Middle Beach Cafe,Restaurant/Cafe/Canteen,1,10,,335749,5,,50.64388800000000,369,088,publichealth@purbeck-dc.gov.uk,Purbeck,http://www.dorsetforyou.com/purbeck,-1.95280600000000,BH19 3AP,2013-04-16,fhrs_3_en-GB,3,,FHRS,10
300993,,56 Kings Road West,Swanage,Dorset,Millbrook Guest House,Hotel/bed & breakfast/guest house,7842,5,,693924,0,,50.60946800000000,28663,088,publichealth@purbeck-dc.gov.uk,Purbeck,http://www.dorsetforyou.com/purbeck,-1.96418900000000,BH19 1HR,2014-04-02,fhrs_5_en-GB,5,,FHRS,5
300994,,,,,Millies,Other catering premises,7841,10,,335514,10,,,1049,088,publichealth@purbeck-dc.gov.uk,Purbeck,http://www.dorsetforyou.com/purbeck,,,2012-12-23,fhrs_3_en-GB,3,,FHRS,5
300995,,,,,Molly Bars,Other catering premises,7841,10,,589361,0,,,13394,088,publichealth@purbeck-dc.gov.uk,Purbeck,http://www.dorsetforyou.com/purbeck,,,2013-09-03,fhrs_4_en-GB,4,,FHRS,5
300996,Monkey World,Longthorns,Wool,Wareham,Monkeyworld Catering - Malagasy/ice cream kiosk,Restaurant/Cafe/Canteen,1,,,335603,,,50.69849800000000,171,088,publichealth@purbeck-dc.gov.uk,Purbeck,http://www.dorsetforyou.com/purbeck,-2.21617000000000,BH20 6HH,2014-06-03,fhrs_5_en-GB,5,,FHRS,
300997,Monkey World,Longthorns,Wool,Wareham,Monkeyworld Catering - Tree Tops Cafe,Restaurant/Cafe/Canteen,1,0,,335600,0,,50.69849800000000,169,088,publichealth@purbeck-dc.gov.uk,Purbeck,http://www.dorsetforyou.com/purbeck,-2.21617000000000,BH20 6HH,2013-10-16,fhrs_5_en-GB,5,,FHRS,5
300998,,Longthorns,East Stoke,Wool,Monkeyworld Catering - Watering Hole/Scoops Kiosk,Restaurant/Cafe/Canteen,1,0,,335602,0,,52.30250167846680,170,088,publichealth@purbeck-dc.gov.uk,Purbeck,http://www.dorsetforyou.com/purbeck,-2.06483006477356,BH20 6HH,2013-10-16,fhrs_5_en-GB,5,,FHRS,5
300999,The Railway Tavern,Northport,Wareham,Dorset,Monsoon,Restaurant/Cafe/Canteen,1,5,,335509,5,,50.69262700000000,1035,088,publichealth@purbeck-dc.gov.uk,Purbeck,http://www.dorsetforyou.com/purbeck,-2.11388300000000,BH20 4AT,2013-11-27,fhrs_5_en-GB,5,,FHRS,5
301000,,7 Moorland Parade,Upton,Dorset,Moorland News,Retailers - other,4613,20,,335711,10,,50.73880200000000,292,088,publichealth@purbeck-dc.gov.uk,Purbeck,http://www.dorsetforyou.com/purbeck,-2.03363000000000,BH16 5JS,2012-12-21,fhrs_1_en-GB,1,,FHRS,10
301001,Moreton Glade Caravan Park,Station Road,Moreton,Dorset,Moreton Camping & Caravanning Club Site,Retailers - other,4613,0,,539786,0,,50.70136200000000,343,088,publichealth@purbeck-dc.gov.uk,Purbeck,http://www.dorsetforyou.com/purbeck,-2.31342000000000,DT2 8BB,2013-04-16,fhrs_5_en-GB,5,,FHRS,5
301002,,The Street,Moreton,Dorset,Moreton Tea Rooms,Restaurant/Cafe/Canteen,1,20,,335737,15,,50.70169100000000,345,088,publichealth@purbeck-dc.gov.uk,Purbeck,http://www.dorsetforyou.com/purbeck,-2.27557200000000,DT2 8RH,2014-12-12,fhrs_1_en-GB,1,,FHRS,10
301003,,East Street,Corfe Castle,Wareham,Mortons House Hotel,Restaurant/Cafe/Canteen,1,5,,335506,5,,50.63644800000000,102,088,publichealth@purbeck-dc.gov.uk,Purbeck,http://www.dorsetforyou.com/purbeck,-2.05445600000000,BH20 5EE,2015-01-13,fhrs_4_en-GB,4,,FHRS,10
301004,,,,,Mr & Mrs Churchill - Home Catering,Other catering premises,7841,10,,606571,5,,,5441,088,publichealth@purbeck-dc.gov.uk,Purbeck,http://www.dorsetforyou.com/purbeck,,,2013-10-29,fhrs_4_en-GB,4,,FHRS,5
301005,Gatehouse Farm,Dorchester Road,Winfrith Newburgh,Dorset,Mrs Kim Hawkins,Retailers - other,4613,5,,439229,5,,50.67270100000000,28281,088,publichealth@purbeck-dc.gov.uk,Purbeck,http://www.dorsetforyou.com/purbeck,-2.24653300000000,DT2 8DD,2013-08-30,fhrs_5_en-GB,5,,FHRS,5
301006,,,,,Mrs Sheila Stockley,Retailers - other,4613,10,,693942,0,,,8423,088,publichealth@purbeck-dc.gov.uk,Purbeck,http://www.dorsetforyou.com/purbeck,,,2014-05-14,fhrs_4_en-GB,4,,FHRS,5
301007,,,,,Mrs Valerie Bull (B&B),Hotel/bed & breakfast/guest house,7842,5,,629904,0,,,20365,088,publichealth@purbeck-dc.gov.uk,Purbeck,http://www.dorsetforyou.com/purbeck,,,2014-01-13,fhrs_5_en-GB,5,,FHRS,5
301008,,9 Sandford Road,Wareham,Dorset,N0.9 Bed and Breakfast,Other catering premises,7841,5,,721901,5,,50.69546200000000,13334,088,publichealth@purbeck-dc.gov.uk,Purbeck,http://www.dorsetforyou.com/purbeck,-2.11155400000000,BH20 4DG,2014-11-26,fhrs_5_en-GB,5,,FHRS,5
301009,,17 South Street,Wareham,Dorset,Nellie Crumb,Restaurant/Cafe/Canteen,1,5,,335530,5,,50.68524900000000,1113,088,publichealth@purbeck-dc.gov.uk,Purbeck,http://www.dorsetforyou.com/purbeck,-2.10933600000000,BH20 4LR,2013-11-29,fhrs_4_en-GB,4,,FHRS,10
301010,,14-16 High Street,Swanage,Dorset,New Look,Retailers - other,4613,,,335950,,,50.60791800000000,725,088,publichealth@purbeck-dc.gov.uk,Purbeck,http://www.dorsetforyou.com/purbeck,-1.95524400000000,BH19 2NT,2014-11-18,fhrs_exempt_en-GB,Exempt,,FHRS,
301011,,,,,Nicola Ward,Retailers - other,4613,5,,499528,0,,,60,088,publichealth@purbeck-dc.gov.uk,Purbeck,http://www.dorsetforyou.com/purbeck,,,2012-01-16,fhrs_5_en-GB,5,,FHRS,5
301012,,12a North Street,Wareham,Dorset,Nomad,Other catering premises,7841,5,,335497,5,,50.68718100000000,1001,088,publichealth@purbeck-dc.gov.uk,Purbeck,http://www.dorsetforyou.com/purbeck,-2.11033100000000,BH20 4AG,2014-02-07,fhrs_5_en-GB,5,,FHRS,5
301013,Norden Farm,Norden,Corfe Castle,Wareham,Norden Farm Shop,Retailers - other,4613,20,,335540,5,,50.64560200000000,114,088,publichealth@purbeck-dc.gov.uk,Purbeck,http://www.dorsetforyou.com/purbeck,-2.07173500000000,BH20 5DS,2014-08-07,fhrs_1_en-GB,1,,FHRS,5
301014,,Norden,Corfe Castle,Wareham,Norden House,Hotel/bed & breakfast/guest house,7842,10,,335542,15,,50.64560317993164,115,088,publichealth@purbeck-dc.gov.uk,Purbeck,http://www.dorsetforyou.com/purbeck,-2.07173538208008,BH20 5DS,2013-08-28,fhrs_2_en-GB,2,,FHRS,10
301015,Norden Railway Station,,Norden,Dorset,Norden Nest Buffet,Restaurant/Cafe/Canteen,1,5,,335555,5,,50.64561462402340,119,088,publichealth@purbeck-dc.gov.uk,Purbeck,http://www.dorsetforyou.com/purbeck,-2.06264138221741,BH20 5DW,2014-07-09,fhrs_5_en-GB,5,,FHRS,5
301016,Trinity Church,South Street,Wareham,Dorset,Not Just Sundaes Ltd,Restaurant/Cafe/Canteen,1,0,,560544,5,,50.68466400000000,28464,088,publichealth@purbeck-dc.gov.uk,Purbeck,http://www.dorsetforyou.com/purbeck,-2.10974500000000,BH20 4LU,2014-12-16,fhrs_5_en-GB,5,,FHRS,0
301017,,Bere Road,Coldharbour,Dorset,Oaklands Plantation Farm Shop,Retailers - other,4613,5,,335760,5,,50.71035500000000,383,088,publichealth@purbeck-dc.gov.uk,Purbeck,http://www.dorsetforyou.com/purbeck,-2.14341300000000,BH20 7PA,2013-10-03,fhrs_4_en-GB,4,,FHRS,10
301018,,3 Park Road,Swanage,Dorset,Ocean Lodge,Hotel/bed & breakfast/guest house,7842,10,,336003,0,,50.60620000000000,837,088,publichealth@purbeck-dc.gov.uk,Purbeck,http://www.dorsetforyou.com/purbeck,-1.95504800000000,BH19 2AA,2013-09-11,fhrs_4_en-GB,4,,FHRS,5
301019,Lulworth Gunnery School,Lulworth Camp,West Lulworth,Dorset,Officers Mess,Restaurant/Cafe/Canteen,1,5,,335818,5,,50.63265800000000,493,088,publichealth@purbeck-dc.gov.uk,Purbeck,http://www.dorsetforyou.com/purbeck,-2.23243900000000,BH20 5QF,2013-11-04,fhrs_5_en-GB,5,,FHRS,5
301020,,5 West Street,Corfe Castle,Dorset,Olivers,Hotel/bed & breakfast/guest house,7842,10,,605246,5,,50.63686900000000,28455,088,publichealth@purbeck-dc.gov.uk,Purbeck,http://www.dorsetforyou.com/purbeck,-2.05786400000000,BH20 5HA,2013-10-23,fhrs_4_en-GB,4,,FHRS,5
301021,,9 West Street,Wareham,Dorset,Pandada,Restaurant/Cafe/Canteen,1,5,,335541,5,,50.68565200000000,1146,088,publichealth@purbeck-dc.gov.uk,Purbeck,http://www.dorsetforyou.com/purbeck,-2.11066700000000,BH20 4JS,2015-01-07,fhrs_4_en-GB,4,,FHRS,10
301022,,,,,Pantry by Post,Manufacturers/packers,7839,0,,633259,0,,,2300,088,publichealth@purbeck-dc.gov.uk,Purbeck,http://www.dorsetforyou.com/purbeck,,,2014-02-13,fhrs_5_en-GB,5,,FHRS,5
301023,Park Lodge,,East Lulworth,Dorset,Park Lodge Bed & Breakfast,Hotel/bed & breakfast/guest house,7842,5,,410673,0,,50.64862400000000,28224,088,publichealth@purbeck-dc.gov.uk,Purbeck,http://www.dorsetforyou.com/purbeck,-2.20674700000000,BH20 5QP,2014-06-17,fhrs_5_en-GB,5,,FHRS,5
301024,,1 The Triangle,Upton,Dorset,Parkes News & Toys,Retailers - other,4613,10,,728032,10,,50.73903600000000,28898,088,publichealth@purbeck-dc.gov.uk,Purbeck,http://www.dorsetforyou.com/purbeck,-2.03042700000000,BH16 5PG,2014-12-02,fhrs_3_en-GB,3,,FHRS,5
301025,,Old School,East Lulworth,Dorset,Past & Presents,Restaurant/Cafe/Canteen,1,10,,335590,5,,50.63823300000000,153,088,publichealth@purbeck-dc.gov.uk,Purbeck,http://www.dorsetforyou.com/purbeck,-2.19896600000000,BH20 5QN,2013-12-04,fhrs_4_en-GB,4,,FHRS,5
301026,Pear Tree Holiday Park,Organford Road,Holton Heath,Dorset,Pear Tree Holiday Park Reception,Retailers - other,4613,5,,335768,5,,50.72436800000000,404,088,publichealth@purbeck-dc.gov.uk,Purbeck,http://www.dorsetforyou.com/purbeck,-2.08651900000000,BH16 6LA,2014-04-16,fhrs_5_en-GB,5,,FHRS,5
301027,,,,,Penrose Residential Ltd,Hospitals/Childcare/Caring Premises,5,0,,335617,0,,,18456,088,publichealth@purbeck-dc.gov.uk,Purbeck,http://www.dorsetforyou.com/purbeck,,,2015-01-19,fhrs_5_en-GB,5,,FHRS,5
301028,"Poppies Tea Room, Putlake Adventure Farm",,Langton Matravers,Dorset,Poppy Tea Rooms,Restaurant/Cafe/Canteen,1,5,,610342,5,,50.61007600000000,28591,088,publichealth@purbeck-dc.gov.uk,Purbeck,http://www.dorsetforyou.com/purbeck,-1.99731500000000,BH19 3EU,2013-11-19,fhrs_5_en-GB,5,,FHRS,5
301029,Priory Farm,East Holme,East Holme,"Wareham, Dorset",Priory Farm B&B,Hotel/bed & breakfast/guest house,7842,10,,693913,5,,50.67337000000000,16736,088,publichealth@purbeck-dc.gov.uk,Purbeck,http://www.dorsetforyou.com/purbeck,-2.14889000000000,BH20 6AG,2014-04-23,fhrs_4_en-GB,4,,FHRS,5
301030,"Unit 13 To 14, Sunnyside Park",Wimborne Road,Lytchett Matravers,Dorset,Provisio,Other catering premises,7841,5,,335668,5,,50.76186300000000,242,088,publichealth@purbeck-dc.gov.uk,Purbeck,http://www.dorsetforyou.com/purbeck,-2.06615800000000,BH16 6HQ,2014-01-28,fhrs_5_en-GB,5,,FHRS,5
301031,,Sandford Lane,Wareham,Dorset,Purbeck Day Care Centre,Hospitals/Childcare/Caring Premises,5,0,,335521,5,,50.69503400000000,1088,088,publichealth@purbeck-dc.gov.uk,Purbeck,http://www.dorsetforyou.com/purbeck,-2.10818400000000,BH20 4DY,2014-10-01,fhrs_5_en-GB,5,,FHRS,5
301032,,14 Corfe Road,Stoborough,Dorset,Purbeck Ford,Retailers - other,4613,10,,335612,5,,50.67801800000000,18,088,publichealth@purbeck-dc.gov.uk,Purbeck,http://www.dorsetforyou.com/purbeck,-2.10987100000000,BH20 5AA,2013-06-12,fhrs_4_en-GB,4,,FHRS,5
301033,,91 High Street,Swanage,Dorset,Purbeck House Hotel,Hotel/bed & breakfast/guest house,7842,5,,335929,5,,50.60818900000000,693,088,publichealth@purbeck-dc.gov.uk,Purbeck,http://www.dorsetforyou.com/purbeck,-1.96013400000000,BH19 2LZ,2014-12-12,fhrs_4_en-GB,4,,FHRS,10
301034,Lower Scoles Farm,,Kingston,Dorset,Purbeck Ice Cream Events,Mobile caterer,7846,5,,706812,5,,50.62025900000000,28781,088,publichealth@purbeck-dc.gov.uk,Purbeck,http://www.dorsetforyou.com/purbeck,-2.05805600000000,BH20 5LG,2014-09-11,fhrs_5_en-GB,5,,FHRS,0
301035,Purbeck Daycare Centre,Sandford Lane,Wareham,Dorset,Purbeck Munchies,Restaurant/Cafe/Canteen,1,0,,706810,5,,50.69503400000000,28771,088,publichealth@purbeck-dc.gov.uk,Purbeck,http://www.dorsetforyou.com/purbeck,-2.10818400000000,BH20 4DY,2014-10-01,fhrs_5_en-GB,5,,FHRS,5
301036,,Puddletown Road,Wareham,Dorset,Purbeck Shooting School,Pub/bar/nightclub,7843,5,,335703,5,,50.68441600000000,27966,088,publichealth@purbeck-dc.gov.uk,Purbeck,http://www.dorsetforyou.com/purbeck,-2.14674500000000,BH20 6AE,2013-10-25,fhrs_5_en-GB,5,,FHRS,5
301037,,23 Northbrook Road,Swanage,Dorset,Purbeck View School,School/college/university,7845,5,,335999,5,,50.61442200000000,833,088,publichealth@purbeck-dc.gov.uk,Purbeck,http://www.dorsetforyou.com/purbeck,-1.96254600000000,BH19 1PR,2014-02-05,fhrs_5_en-GB,5,,FHRS,5
301038,,37 North Street,Wareham,Dorset,Purbeck Wholefoods,Retailers - other,4613,10,,335503,5,,50.68771100000000,1016,088,publichealth@purbeck-dc.gov.uk,Purbeck,http://www.dorsetforyou.com/purbeck,-2.11108300000000,BH20 4AD,2014-06-12,fhrs_4_en-GB,4,,FHRS,5
301039,,The Mowlem,Shore Road,Swanage,Quayside Restaurant/Seahorse Cafe,Restaurant/Cafe/Canteen,1,10,,513530,15,,50.60939300000000,28427,088,publichealth@purbeck-dc.gov.uk,Purbeck,http://www.dorsetforyou.com/purbeck,-1.95675500000000,BH19 1DD,2014-09-15,fhrs_2_en-GB,2,,FHRS,15
301040,Blakes Butchers,Dorchester Road,Wool,Dorset,R & J Blake Ltd,Retailers - other,4613,5,,335838,5,,50.67766700000000,528,088,publichealth@purbeck-dc.gov.uk,Purbeck,http://www.dorsetforyou.com/purbeck,-2.23229300000000,BH20 6EL,2014-02-21,fhrs_5_en-GB,5,,FHRS,5
301041,Ragamuffins Pre-School Playgro,Rye Hill,Bere Regis,Dorset,Ragamuffins Pre-School,Hospitals/Childcare/Caring Premises,5,10,,335860,5,,50.74471400000000,57,088,publichealth@purbeck-dc.gov.uk,Purbeck,http://www.dorsetforyou.com/purbeck,-2.21972800000000,BH20 7LP,2014-12-01,fhrs_4_en-GB,4,,FHRS,5
301042,,7 High Street,Swanage,Dorset,Rainbow Kebab,Takeaway/sandwich shop,7844,5,,335919,5,,50.60772000000000,665,088,publichealth@purbeck-dc.gov.uk,Purbeck,http://www.dorsetforyou.com/purbeck,-1.95477800000000,BH19 2LN,2014-05-29,fhrs_5_en-GB,5,,FHRS,5
301043,,39 North Street,Wareham,Dorset,Rajpoot Tandoori Restaurant,Restaurant/Cafe/Canteen,1,5,,335504,10,,50.68771100000000,1018,088,publichealth@purbeck-dc.gov.uk,Purbeck,http://www.dorsetforyou.com/purbeck,-2.11108300000000,BH20 4AD,2014-10-20,fhrs_3_en-GB,3,,FHRS,10
301044,Old Stables,Grange Road,Wareham,Dorset,Rebecca's Kitchen,Manufacturers/packers,7839,5,,539779,5,,50.66278800000000,11248,088,publichealth@purbeck-dc.gov.uk,Purbeck,http://www.dorsetforyou.com/purbeck,-2.11492900000000,BH20 5AL,2013-04-24,fhrs_5_en-GB,5,,FHRS,5
301045,,North Street,Wareham,Dorset,Red Lion Hotel,Pub/bar/nightclub,7843,5,,336074,10,,50.68652500000000,986,088,publichealth@purbeck-dc.gov.uk,Purbeck,http://www.dorsetforyou.com/purbeck,-2.11031600000000,BH20 4AB,2015-01-12,fhrs_3_en-GB,3,,FHRS,10
301046,Unit 3,7 North Street,Wareham,Dorset,Reloved,Restaurant/Cafe/Canteen,1,5,,579326,5,,50.68652500000000,26487,088,publichealth@purbeck-dc.gov.uk,Purbeck,http://www.dorsetforyou.com/purbeck,-2.11031600000000,BH20 4AB,2013-08-20,fhrs_4_en-GB,4,,FHRS,10
301047,,58 Kings Road West,Swanage,Dorset,Rivendell Guest House,Hotel/bed & breakfast/guest house,7842,20,,335989,5,,50.60946800000000,814,088,publichealth@purbeck-dc.gov.uk,Purbeck,http://www.dorsetforyou.com/purbeck,-1.96418900000000,BH19 1HR,2014-06-03,fhrs_1_en-GB,1,,FHRS,10
301048,"Suite J 1, Romany Centre Busin",Wareham Road,Holton Heath,Dorset,Riverford Organic Vegetables Ltd,Distributors/Transporters,7,5,,335785,5,,50.72795000000000,450,088,publichealth@purbeck-dc.gov.uk,Purbeck,http://www.dorsetforyou.com/purbeck,-2.06881600000000,BH16 6JL,2015-01-26,fhrs_5_en-GB,5,,FHRS,5
301049,,35 Kings Road West,Swanage,Dorset,Robertsbrook Guest House,Hotel/bed & breakfast/guest house,7842,5,,335984,0,,50.60912500000000,800,088,publichealth@purbeck-dc.gov.uk,Purbeck,http://www.dorsetforyou.com/purbeck,-1.96068400000000,BH19 1HF,2014-09-16,fhrs_5_en-GB,5,,FHRS,5
301050,,178 Wareham Road,Lytchett Matravers,Dorset,Rose and Crown,Pub/bar/nightclub,7843,,,335696,,,50.75485900000000,27878,088,publichealth@purbeck-dc.gov.uk,Purbeck,http://www.dorsetforyou.com/purbeck,-2.07828200000000,BH16 6DT,2014-07-22,fhrs_5_en-GB,5,,FHRS,
301051,,150 High Street,Swanage,Dorset,Royal British Legion,Restaurant/Cafe/Canteen,1,5,,335961,5,,50.60821800000000,750,088,publichealth@purbeck-dc.gov.uk,Purbeck,http://www.dorsetforyou.com/purbeck,-1.96540500000000,BH19 2PA,2014-07-01,fhrs_5_en-GB,5,,FHRS,5
301052,Rye Hill Farm,Rye Hill,Bere Regis,Dorset,Rye Hill Farm Shop,Retailers - other,4613,10,,335708,5,,50.74471400000000,28211,088,publichealth@purbeck-dc.gov.uk,Purbeck,http://www.dorsetforyou.com/purbeck,-2.21972800000000,BH20 7LP,2013-10-11,fhrs_4_en-GB,4,,FHRS,5
301053,,,,,S.O.S,Other catering premises,7841,10,,539781,5,,,13046,088,publichealth@purbeck-dc.gov.uk,Purbeck,http://www.dorsetforyou.com/purbeck,,,2013-04-16,fhrs_3_en-GB,3,,FHRS,10
301054,,South Street,Wareham,Dorset,Sainsbury's Supermarket,Retailers - supermarkets/hypermarkets,7840,0,,335512,0,,50.68582400000000,1042,088,publichealth@purbeck-dc.gov.uk,Purbeck,http://www.dorsetforyou.com/purbeck,-2.10913900000000,BH20 4NX,2013-06-17,fhrs_5_en-GB,5,,FHRS,5
301055,Bere Regis Scout Headquarters,Elder Road,Bere Regis,Dorset,Salt & Pepper Club,Pub/bar/nightclub,7843,10,,693917,5,,50.75279400000000,19808,088,publichealth@purbeck-dc.gov.uk,Purbeck,http://www.dorsetforyou.com/purbeck,-2.22189200000000,BH20 7NA,2014-05-28,fhrs_3_en-GB,3,,FHRS,10
301056,Sandford Holiday Park,Organford Road,Holton Heath,Dorset,Sandford Park Supermarket,Retailers - other,4613,10,,335773,10,,50.72005200000000,411,088,publichealth@purbeck-dc.gov.uk,Purbeck,http://www.dorsetforyou.com/purbeck,-2.08601500000000,BH16 6JZ,2013-09-02,fhrs_3_en-GB,3,,FHRS,10
301057,Sandford St Martin's Church Of,Sandford Road,Sandford,Dorset,Sandford St.Martins Primary School,School/college/university,7845,0,,716848,5,,50.70918900000000,420,088,publichealth@purbeck-dc.gov.uk,Purbeck,http://www.dorsetforyou.com/purbeck,-2.09756600000000,BH20 7AJ,2014-11-18,fhrs_5_en-GB,5,,FHRS,5
301058,Sandford Holiday Park,Organford Road,Holton Heath,Dorset,Sandford Takeaway & Ice Cream Kiosk,Mobile caterer,7846,5,,335770,5,,50.72005200000000,409,088,publichealth@purbeck-dc.gov.uk,Purbeck,http://www.dorsetforyou.com/purbeck,-2.08601500000000,BH16 6JZ,2014-05-20,fhrs_5_en-GB,5,,FHRS,5
301059,The Pavillion,Shore Road,Swanage,Dorset,Santa Fe Fun Park,Takeaway/sandwich shop,7844,5,,336015,5,,50.61485200000000,866,088,publichealth@purbeck-dc.gov.uk,Purbeck,http://www.dorsetforyou.com/purbeck,-1.95809300000000,BH19 1LD,2013-05-10,fhrs_4_en-GB,4,,FHRS,10
301060,,1 Sydenham Road,Swanage,Dorset,Scrummdiddlieumptious,Other catering premises,7841,5,,548252,5,,50.60779000000000,8580,088,publichealth@purbeck-dc.gov.uk,Purbeck,http://www.dorsetforyou.com/purbeck,-1.98408800000000,BH19 2JX,2014-12-03,fhrs_5_en-GB,5,,FHRS,5
301061,Sea Breeze,Shore Road,Swanage,Dorset,Sea Breeze Restaurant and Takeaway,Restaurant/Cafe/Canteen,1,5,,336017,5,,50.60976200000000,868,088,publichealth@purbeck-dc.gov.uk,Purbeck,http://www.dorsetforyou.com/purbeck,-1.95744700000000,BH19 1LA,2013-10-07,fhrs_4_en-GB,4,,FHRS,10
301062,,7 Cecil Road,Swanage,Dorset,Sea House B&B,Hotel/bed & breakfast/guest house,7842,,,335897,,,50.60986500000000,622,088,publichealth@purbeck-dc.gov.uk,Purbeck,http://www.dorsetforyou.com/purbeck,-1.96926200000000,BH19 1JJ,2014-10-22,fhrs_5_en-GB,5,,FHRS,
301063,,Lulworth Camp,West Lulworth,Dorset,Sergeants Mess,Restaurant/Cafe/Canteen,1,0,,335820,0,,50.63265800000000,495,088,publichealth@purbeck-dc.gov.uk,Purbeck,http://www.dorsetforyou.com/purbeck,-2.23243900000000,BH20 5QF,2014-09-17,fhrs_5_en-GB,5,,FHRS,0
301064,Allenby Barracks,Bovington Camp,Bovington,Dorset,Sergeants' Mess,Restaurant/Cafe/Canteen,1,0,,335866,5,,50.70167800000000,577,088,publichealth@purbeck-dc.gov.uk,Purbeck,http://www.dorsetforyou.com/purbeck,-2.24078100000000,BH20 6NZ,2014-02-13,fhrs_5_en-GB,5,,FHRS,0
301065,,Durlston Castle,Lighthouse Road,Swanage,Seventh Wave Restaurant & Kiosk,Restaurant/Cafe/Canteen,1,5,,335684,5,,50.59598500000000,26943,088,publichealth@purbeck-dc.gov.uk,Purbeck,http://www.dorsetforyou.com/purbeck,-1.95712100000000,BH19 2JL,2015-01-14,fhrs_4_en-GB,4,,FHRS,10
301066,The Old Barn,Church Road,Moreton,Dorset,Sheilas Wagon & Wally's Mobile Food,Mobile caterer,7846,5,,510264,5,,50.70261700000000,28425,088,publichealth@purbeck-dc.gov.uk,Purbeck,http://www.dorsetforyou.com/purbeck,-2.28323800000000,DT2 8RG,2014-09-18,fhrs_5_en-GB,5,,FHRS,5
301067,,Ferry Road,Studland,Dorset,Shell Bay Restaurant,Restaurant/Cafe/Canteen,1,5,,335747,5,,50.67764600000000,364,088,publichealth@purbeck-dc.gov.uk,Purbeck,http://www.dorsetforyou.com/purbeck,-1.95091900000000,BH19 3BA,2014-08-22,fhrs_4_en-GB,4,,FHRS,10
301068,Margram Service Station,Townsend Business Park Service,Bere Regis,Dorset,Shell Bere Regis,Retailers - other,4613,0,,335894,0,,50.75417600000000,62,088,publichealth@purbeck-dc.gov.uk,Purbeck,http://www.dorsetforyou.com/purbeck,-2.21396000000000,BH20 7LA,2013-02-19,fhrs_5_en-GB,5,,FHRS,0
301069,,,,,Shore Views,Hotel/bed & breakfast/guest house,7842,10,,590119,5,,,6396,088,publichealth@purbeck-dc.gov.uk,Purbeck,http://www.dorsetforyou.com/purbeck,,,2013-10-07,fhrs_4_en-GB,4,,FHRS,5
301070,2 Woolbridge Business Centre,East Burton Road,Wool,Dorset,Skippers Fish and Chips & Cafe Bijou,Restaurant/Cafe/Canteen,1,5,,335673,5,,50.68150400000000,24805,088,publichealth@purbeck-dc.gov.uk,Purbeck,http://www.dorsetforyou.com/purbeck,-2.22483900000000,BH20 6HG,2013-11-08,fhrs_5_en-GB,5,,FHRS,5
301071,"South House, Aldermoor",Huntick Road,Lytchett Matravers,Dorset,South House,Manufacturers/packers,7839,5,,335659,5,,50.75640300000000,229,088,publichealth@purbeck-dc.gov.uk,Purbeck,http://www.dorsetforyou.com/purbeck,-2.06800700000000,BH16 6BB,2014-05-16,fhrs_5_en-GB,5,,FHRS,5
301072,,5-6 The Triangle,Upton,Dorset,Spar,Retailers - other,4613,5,,335726,5,,50.73903600000000,315,088,publichealth@purbeck-dc.gov.uk,Purbeck,http://www.dorsetforyou.com/purbeck,-2.03042700000000,BH16 5PG,2014-12-02,fhrs_5_en-GB,5,,FHRS,5
301073,,21-25 Carey Road,Wareham,Dorset,Spar,Retailers - other,4613,5,,336063,5,,50.69307100000000,957,088,publichealth@purbeck-dc.gov.uk,Purbeck,http://www.dorsetforyou.com/purbeck,-2.11959000000000,BH20 4AY,2014-11-05,fhrs_4_en-GB,4,,FHRS,10
301074,Post Office & Stores,High Street,Wool,Dorset,Spar,Retailers - other,4613,5,,335847,10,,50.68000400000000,544,088,publichealth@purbeck-dc.gov.uk,Purbeck,http://www.dorsetforyou.com/purbeck,-2.21894400000000,BH20 6BP,2014-05-12,fhrs_3_en-GB,3,,FHRS,10
301075,Moonfleet Cars Ltd,Valley Road,Corfe Castle,Dorset,Spar at Moonfleet Cars Ltd,Retailers - other,4613,5,,335882,5,,50.62226800000000,600,088,publichealth@purbeck-dc.gov.uk,Purbeck,http://www.dorsetforyou.com/purbeck,-2.02140300000000,BH19 3DZ,2015-01-19,fhrs_5_en-GB,5,,FHRS,5
301076,,106 Victoria Avenue,Swanage,Dorset,Spar Triangle Garage,Retailers - other,4613,5,,336053,5,,50.61330100000000,935,088,publichealth@purbeck-dc.gov.uk,Purbeck,http://www.dorsetforyou.com/purbeck,-1.97204400000000,BH19 1AS,2013-02-15,fhrs_5_en-GB,5,,FHRS,5
301077,Springfield Country Hotel,Grange Road,Wareham,Dorset,Springfield Country Hotel & Leisure Club,Restaurant/Cafe/Canteen,1,,,335710,,,50.66278800000000,29,088,publichealth@purbeck-dc.gov.uk,Purbeck,http://www.dorsetforyou.com/purbeck,-2.11492900000000,BH20 5AL,2014-07-21,fhrs_2_en-GB,2,,FHRS,
301078,,10 Sandford Road,Wareham,Dorset,Spurwing Guest House,Hotel/bed & breakfast/guest house,7842,5,,335523,0,,50.69653200000000,1090,088,publichealth@purbeck-dc.gov.uk,Purbeck,http://www.dorsetforyou.com/purbeck,-2.11157100000000,BH20 4DH,2013-09-23,fhrs_5_en-GB,5,,FHRS,5
301079,,Worth Matravers,Swanage,Dorset,Square and Compass,Pub/bar/nightclub,7843,20,,335878,5,,50.59889984130859,594,088,publichealth@purbeck-dc.gov.uk,Purbeck,http://www.dorsetforyou.com/purbeck,-2.03543663024902,BH19 3LF,2014-04-15,fhrs_1_en-GB,1,,FHRS,5
301080,St Dunstans Hall,Poole Road,Upton,Dorset,St Dunstans Church,Other catering premises,7841,5,,335715,5,,50.73803100000000,301,088,publichealth@purbeck-dc.gov.uk,Purbeck,http://www.dorsetforyou.com/purbeck,-2.02365300000000,BH16 5HY,2014-09-08,fhrs_5_en-GB,5,,FHRS,5
301081,,76 High Street,Langton Matravers,Swanage,St Georges First School,School/college/university,7845,0,,335631,0,,50.60982400000000,195,088,publichealth@purbeck-dc.gov.uk,Purbeck,http://www.dorsetforyou.com/purbeck,-2.00343500000000,BH19 3HB,2014-06-26,fhrs_5_en-GB,5,,FHRS,5
301082,St Marys First School,Folly Lane,Wool,Dorset,St Marys & st Joseph's Catholic Primary School,School/college/university,7845,0,,716849,5,,50.67882100000000,537,088,publichealth@purbeck-dc.gov.uk,Purbeck,http://www.dorsetforyou.com/purbeck,-2.22641100000000,BH20 6DS,2014-11-14,fhrs_5_en-GB,5,,FHRS,5
301083,St Marys Roman Catholic School,Northbrook Road,Swanage,Dorset,St Mary's Roman Catholic School,School/college/university,7845,5,,721904,5,,50.62071800000000,28879,088,publichealth@purbeck-dc.gov.uk,Purbeck,http://www.dorsetforyou.com/purbeck,-1.96517000000000,BH19 1QE,2014-11-21,fhrs_5_en-GB,5,,FHRS,0
301084,,Valley Road,Harmans Cross,Swanage,St Michaels Garage,Retailers - other,4613,0,,335636,5,,50.62064200000000,203,088,publichealth@purbeck-dc.gov.uk,Purbeck,http://www.dorsetforyou.com/purbeck,-2.00945700000000,BH19 3DX,2014-06-24,fhrs_5_en-GB,5,,FHRS,5
301085,,31 Kings Road West,Swanage,Dorset,St Michael's Guest House,Hotel/bed & breakfast/guest house,7842,10,,335981,5,,50.60912500000000,799,088,publichealth@purbeck-dc.gov.uk,Purbeck,http://www.dorsetforyou.com/purbeck,-1.96068400000000,BH19 1HF,2013-06-24,fhrs_4_en-GB,4,,FHRS,5
301086,St Patricks,Main Road,West Lulworth,Dorset,St Patricks Bed & Breakfast,Hotel/bed & breakfast/guest house,7842,10,,433612,5,,50.62685000000000,11955,088,publichealth@purbeck-dc.gov.uk,Purbeck,http://www.dorsetforyou.com/purbeck,-2.24502100000000,BH20 5RW,2012-08-10,fhrs_4_en-GB,4,,FHRS,5
301087,St Marks First School,Bell Street,Swanage,Dorset,St. Marks C.E.(V.A.) Primary School,School/college/university,7845,5,,706815,5,,50.60973200000000,609,088,publichealth@purbeck-dc.gov.uk,Purbeck,http://www.dorsetforyou.com/purbeck,-1.97668200000000,BH19 2SA,2014-10-03,fhrs_5_en-GB,5,,FHRS,0
301088,,Dorchester Road,Lytchett Minster,Dorset,St. Peters Finger,Pub/bar/nightclub,7843,5,,335675,10,,50.73653600000000,254,088,publichealth@purbeck-dc.gov.uk,Purbeck,http://www.dorsetforyou.com/purbeck,-2.05655600000000,BH16 6JE,2014-10-20,fhrs_3_en-GB,3,,FHRS,10
301089,Sandford Service Station,Sandford Road,Sandford,Dorset,Star Sandford (TEXACO),Retailers - other,4613,5,,335782,5,,50.70646200000000,426,088,publichealth@purbeck-dc.gov.uk,Purbeck,http://www.dorsetforyou.com/purbeck,-2.09968500000000,BH20 7AQ,2014-06-02,fhrs_4_en-GB,4,,FHRS,10
301090,Station Garage,Wareham Road,Wool,Dorset,Station Garage (Wool),Retailers - other,4613,10,,335859,5,,50.68428800000000,568,088,publichealth@purbeck-dc.gov.uk,Purbeck,http://www.dorsetforyou.com/purbeck,-2.22213400000000,BH20 6HQ,2013-07-02,fhrs_4_en-GB,4,,FHRS,5
301091,,59 North Street,Wareham,Dorset,Steak A Saurus,Restaurant/Cafe/Canteen,1,5,,406936,5,,50.68771100000000,28220,088,publichealth@purbeck-dc.gov.uk,Purbeck,http://www.dorsetforyou.com/purbeck,-2.11108300000000,BH20 4AD,2014-01-24,fhrs_5_en-GB,5,,FHRS,5
301092,,Corfe Road,Stoborough,Dorset,Stoborough Primary School,School/college/university,7845,0,,335625,0,,50.67659800000000,19,088,publichealth@purbeck-dc.gov.uk,Purbeck,http://www.dorsetforyou.com/purbeck,-2.10917400000000,BH20 5AD,2014-12-11,fhrs_5_en-GB,5,,FHRS,0
301093,Burnbake Campsite,,Rempstone,Corfe Castle,Storm in a Tea Cup,Mobile caterer,7846,0,,401798,0,,50.65887000000000,28274,088,publichealth@purbeck-dc.gov.uk,Purbeck,http://www.dorsetforyou.com/purbeck,-2.00819200000000,BH20 5JJ,2014-04-17,fhrs_5_en-GB,5,,FHRS,0
301094,Studland Social Club Ltd,Heath Green Road,Studland,Dorset,Studland Social Club Ltd,Pub/bar/nightclub,7843,,,335754,,,50.64141600000000,374,088,publichealth@purbeck-dc.gov.uk,Purbeck,http://www.dorsetforyou.com/purbeck,-1.95514200000000,BH19 3BU,2014-09-08,fhrs_5_en-GB,5,,FHRS,
301095,,Ferry Road,Studland,Dorset,Studland Stores and Post Office,Retailers - other,4613,5,,335750,5,,50.64050700000000,371,088,publichealth@purbeck-dc.gov.uk,Purbeck,http://www.dorsetforyou.com/purbeck,-1.95398300000000,BH19 3AE,2014-10-27,fhrs_4_en-GB,4,,FHRS,10
301096,Studland Village Hall,Heath Green Road,Studland,Dorset,Studland Village Hall,Other catering premises,7841,5,,335752,5,,50.64151600000000,373,088,publichealth@purbeck-dc.gov.uk,Purbeck,http://www.dorsetforyou.com/purbeck,-1.95749000000000,BH19 3BX,2013-12-16,fhrs_5_en-GB,5,,FHRS,5
301097,,8 Station Road,Swanage,Dorset,Subway,Restaurant/Cafe/Canteen,1,5,,336035,5,,50.60957300000000,899,088,publichealth@purbeck-dc.gov.uk,Purbeck,http://www.dorsetforyou.com/purbeck,-1.95785700000000,BH19 1AE,2013-11-22,fhrs_4_en-GB,4,,FHRS,10
301098,,4 Moor Road,Swanage,Dorset,Sunburst,Hotel/bed & breakfast/guest house,7842,5,,335995,0,,50.62313600000000,826,088,publichealth@purbeck-dc.gov.uk,Purbeck,http://www.dorsetforyou.com/purbeck,-1.96046100000000,BH19 1RF,2014-11-18,fhrs_5_en-GB,5,,FHRS,5
301099,,17 Cluny Crescent,Swanage,Dorset,Sunny Bay House,Hotel/bed & breakfast/guest house,7842,5,,335901,5,,50.60611100000000,628,088,publichealth@purbeck-dc.gov.uk,Purbeck,http://www.dorsetforyou.com/purbeck,-1.95688500000000,BH19 2BP,2014-06-11,fhrs_4_en-GB,4,,FHRS,10
301100,Sunset House,Dorchester Road,Lytchett Minster,Dorset,Sunset House Bed & Breakfast,Hotel/bed & breakfast/guest house,7842,5,,693921,5,,50.73653600000000,25252,088,publichealth@purbeck-dc.gov.uk,Purbeck,http://www.dorsetforyou.com/purbeck,-2.05655600000000,BH16 6JE,2014-04-15,fhrs_5_en-GB,5,,FHRS,5
301101,Rugby Club,North Bestwall Road,Wareham,Dorset,Swanage and Wareham Rugby Club,Pub/bar/nightclub,7843,0,,336073,5,,50.68868000000000,985,088,publichealth@purbeck-dc.gov.uk,Purbeck,http://www.dorsetforyou.com/purbeck,-2.11337800000000,BH20 4QW,2013-09-04,fhrs_5_en-GB,5,,FHRS,5
301102,,48 High Street,Swanage,Dorset,Swanage Bay Fish,Retailers - other,4613,5,,335956,5,,50.60850400000000,739,088,publichealth@purbeck-dc.gov.uk,Purbeck,http://www.dorsetforyou.com/purbeck,-1.95843800000000,BH19 2NX,2013-11-26,fhrs_5_en-GB,5,,FHRS,5
301103,Swanage Bay View Holiday Park,Panorama Road,Swanage,Dorset,Swanage Bay View Caravan Park & Leisure Complex,Restaurant/Cafe/Canteen,1,5,,336016,10,,50.60627700000000,867,088,publichealth@purbeck-dc.gov.uk,Purbeck,http://www.dorsetforyou.com/purbeck,-1.97245800000000,BH19 2QS,2014-04-02,fhrs_3_en-GB,3,,FHRS,10
301104,Bowling Club,Beach Gardens,Swanage,Dorset,Swanage Bowls Club,Other catering premises,7841,10,,539782,5,,50.61488900000000,15798,088,publichealth@purbeck-dc.gov.uk,Purbeck,http://www.dorsetforyou.com/purbeck,-1.96048200000000,BH19 1PG,2013-04-10,fhrs_4_en-GB,4,,FHRS,0
301105,Youth Centre,Chapel Lane,Swanage,Dorset,Swanage Childrens Centre,School/college/university,7845,10,,335697,5,,50.60773100000000,27881,088,publichealth@purbeck-dc.gov.uk,Purbeck,http://www.dorsetforyou.com/purbeck,-1.96105300000000,BH19 2PW,2014-04-25,fhrs_4_en-GB,4,,FHRS,5
301106,,27 Kings Road West,Swanage,Dorset,Swanage Conservative Club,Pub/bar/nightclub,7843,5,,335979,5,,50.60937600000000,797,088,publichealth@purbeck-dc.gov.uk,Purbeck,http://www.dorsetforyou.com/purbeck,-1.95956800000000,BH19 1HE,2013-09-13,fhrs_5_en-GB,5,,FHRS,5
301107,,Queens Road,Swanage,Dorset,Swanage Cottage Hospital,Other catering premises,7841,5,,336007,5,,50.60551900000000,850,088,publichealth@purbeck-dc.gov.uk,Purbeck,http://www.dorsetforyou.com/purbeck,-1.96122400000000,BH19 2ES,2015-01-28,fhrs_5_en-GB,5,,FHRS,5
301108,,High Street,Swanage,Dorset,Swanage Day Centre,Hospitals/Childcare/Caring Premises,5,0,,335932,0,,50.60792000000000,697,088,publichealth@purbeck-dc.gov.uk,Purbeck,http://www.dorsetforyou.com/purbeck,-1.96249400000000,BH19 2NB,2014-01-10,fhrs_5_en-GB,5,,FHRS,0
301109,Ice Cream Kiosk 1,Shore Road,Swanage,Dorset,Swanage Ice Cream - Kiosk 1,Retailers - other,4613,10,,336018,0,,50.61419000000000,869,088,publichealth@purbeck-dc.gov.uk,Purbeck,http://www.dorsetforyou.com/purbeck,-1.95796900000000,,2013-09-03,fhrs_4_en-GB,4,,FHRS,5
301110,Ice Cream Kiosk 2,Shore Road,Swanage,Dorset,Swanage Ice Cream - Kiosk 2,Retailers - other,4613,10,,336020,0,,50.61419000000000,870,088,publichealth@purbeck-dc.gov.uk,Purbeck,http://www.dorsetforyou.com/purbeck,-1.95796900000000,,2013-09-03,fhrs_4_en-GB,4,,FHRS,10
301111,,47 Station Road,Swanage,Dorset,Swanage News,Retailers - other,4613,5,,336032,5,,50.60959200000000,895,088,publichealth@purbeck-dc.gov.uk,Purbeck,http://www.dorsetforyou.com/purbeck,-1.95890300000000,BH19 1AD,2014-02-03,fhrs_5_en-GB,5,,FHRS,0
301112,,27 Station Road,Swanage,Dorset,Swanage Pantry,Restaurant/Cafe/Canteen,1,5,,619614,5,,50.60959200000000,887,088,publichealth@purbeck-dc.gov.uk,Purbeck,http://www.dorsetforyou.com/purbeck,-1.95890300000000,BH19 1AD,2013-12-10,fhrs_5_en-GB,5,,FHRS,5
301113,The Pier,High Street,Swanage,Dorset,Swanage Pier Trust,Retailers - other,4613,10,,335946,5,,50.60772000000000,717,088,publichealth@purbeck-dc.gov.uk,Purbeck,http://www.dorsetforyou.com/purbeck,-1.95477800000000,BH19 2LN,2013-07-04,fhrs_4_en-GB,4,,FHRS,5
301114,,1-3 Mount Scar,Swanage,Dorset,Swanage Primary School,School/college/university,7845,5,,706816,5,,50.60584300000000,829,088,publichealth@purbeck-dc.gov.uk,Purbeck,http://www.dorsetforyou.com/purbeck,-1.96267900000000,BH19 2EY,2014-10-03,fhrs_5_en-GB,5,,FHRS,5
301115,,High Street,Swanage,Dorset,Swanage Sailing Club,Restaurant/Cafe/Canteen,1,5,,335944,5,,50.60770000000000,714,088,publichealth@purbeck-dc.gov.uk,Purbeck,http://www.dorsetforyou.com/purbeck,-1.95124500000000,BH19 2AW,2015-01-16,fhrs_5_en-GB,5,,FHRS,5
301116,Tennis Pavilion,Beach Gardens,Swanage,Dorset,Swanage Tennis Club,Other catering premises,7841,10,,335912,5,,50.61488900000000,655,088,publichealth@purbeck-dc.gov.uk,Purbeck,http://www.dorsetforyou.com/purbeck,-1.96048200000000,BH19 1PG,2013-01-29,fhrs_4_en-GB,4,,FHRS,0
301117,Swanage Town And Herston Footb,De Moulham Road,Swanage,Dorset,Swanage Town & Herston F.C,Other catering premises,7841,10,,335997,5,,50.61953900000000,831,088,publichealth@purbeck-dc.gov.uk,Purbeck,http://www.dorsetforyou.com/purbeck,-1.96122700000000,BH19 1NN,2014-09-25,fhrs_3_en-GB,3,,FHRS,10
301118,Youth Centre,Chapel Lane,Swanage,Dorset,Swanage Youth Centre,Other catering premises,7841,10,,335900,5,,50.60773100000000,626,088,publichealth@purbeck-dc.gov.uk,Purbeck,http://www.dorsetforyou.com/purbeck,-1.96105300000000,BH19 2PW,2014-11-25,fhrs_4_en-GB,4,,FHRS,5
301119,,20 Cluny Crescent,Swanage,Dorset,Swanage Youth Hostel,Other catering premises,7841,0,,335902,5,,50.60660600000000,629,088,publichealth@purbeck-dc.gov.uk,Purbeck,http://www.dorsetforyou.com/purbeck,-1.95829800000000,BH19 2BS,2014-11-25,fhrs_5_en-GB,5,,FHRS,5
301120,The Tank Museum,King George V Road,Bovington,Dorset,Tank Museum Trading,Restaurant/Cafe/Canteen,1,0,,335864,5,,50.70167800000000,574,088,publichealth@purbeck-dc.gov.uk,Purbeck,http://www.dorsetforyou.com/purbeck,-2.24078100000000,BH20 6JA,2013-10-10,fhrs_5_en-GB,5,,FHRS,5
301121,,4 Courtenay Close,Wareham,Dorset,Taste of Thailand,Other catering premises,7841,5,,543277,5,,50.69776000000000,10270,088,publichealth@purbeck-dc.gov.uk,Purbeck,http://www.dorsetforyou.com/purbeck,-2.10633500000000,BH20 4ED,2013-05-01,fhrs_5_en-GB,5,,FHRS,5
301122,"The Coach House, Lynden Hall",25 Ulwell Road,Swanage,Dorset,Tasty' of Purbeck,Other catering premises,7841,5,,470982,5,,50.62038300000000,921,088,publichealth@purbeck-dc.gov.uk,Purbeck,http://www.dorsetforyou.com/purbeck,-1.95736700000000,BH19 1LY,2014-05-21,fhrs_5_en-GB,5,,FHRS,5
301123,,52 High Street,Swanage,Dorset,Tawny's Wine Bar,Restaurant/Cafe/Canteen,1,5,,335957,5,,50.60850400000000,741,088,publichealth@purbeck-dc.gov.uk,Purbeck,http://www.dorsetforyou.com/purbeck,-1.95843800000000,BH19 2NX,2014-10-30,fhrs_4_en-GB,4,,FHRS,10
301124,The Purbeck School,Worgret Road,Wareham,Dorset,Taylor Shaw Services Limited,School/college/university,7845,5,,612341,5,,50.68270800000000,28530,088,publichealth@purbeck-dc.gov.uk,Purbeck,http://www.dorsetforyou.com/purbeck,-2.12317300000000,BH20 4PF,2013-11-27,fhrs_4_en-GB,4,,FHRS,10
301125,,,,,Teas Maid,Retailers - other,4613,5,,619615,5,,,8919,088,publichealth@purbeck-dc.gov.uk,Purbeck,http://www.dorsetforyou.com/purbeck,,,2013-11-28,fhrs_5_en-GB,5,,FHRS,5
301126,,,,,Terrifin,Retailers - other,4613,5,,693920,0,,,22581,088,publichealth@purbeck-dc.gov.uk,Purbeck,http://www.dorsetforyou.com/purbeck,,,2014-05-27,fhrs_5_en-GB,5,,FHRS,5
301127,Post Office,14 High Street,Lytchett Matravers,Dorset,Tesco Express Ltd,Retailers - supermarkets/hypermarkets,7840,0,,335653,0,,50.75822300000000,223,088,publichealth@purbeck-dc.gov.uk,Purbeck,http://www.dorsetforyou.com/purbeck,-2.07770700000000,BH16 6BQ,2013-06-18,fhrs_5_en-GB,5,,FHRS,5
301128,,28 Main Road,West Lulworth,Dorset,Tewkesbury Cottage,Hotel/bed & breakfast/guest house,7842,10,,335558,5,,50.62487900000000,11929,088,publichealth@purbeck-dc.gov.uk,Purbeck,http://www.dorsetforyou.com/purbeck,-2.24974600000000,BH20 5RL,2012-05-08,fhrs_4_en-GB,4,,FHRS,5
301129,The 29029,Sandford Road,Sandford,Dorset,The 29029 Restaurant,Restaurant/Cafe/Canteen,1,5,,721907,5,,50.70258300000000,28889,088,publichealth@purbeck-dc.gov.uk,Purbeck,http://www.dorsetforyou.com/purbeck,-2.10357000000000,BH20 7AD,2014-11-25,fhrs_4_en-GB,4,,FHRS,10
301130,The Anchor Inn,30-32 High Street,Swanage,Dorset,The Anchor Inn,Pub/bar/nightclub,7843,5,,605247,10,,50.60846700000000,28590,088,publichealth@purbeck-dc.gov.uk,Purbeck,http://www.dorsetforyou.com/purbeck,-1.95739200000000,BH19 2NU,2014-11-11,fhrs_3_en-GB,3,,FHRS,10
301131,Anglebury House,15-17 North Street,Wareham,Dorset,The Anglebury,Restaurant/Cafe/Canteen,1,10,,335498,10,,50.68652500000000,1002,088,publichealth@purbeck-dc.gov.uk,Purbeck,http://www.dorsetforyou.com/purbeck,-2.11031600000000,BH20 4AB,2014-01-03,fhrs_3_en-GB,3,,FHRS,10
301132,,13 West Street,Wareham,Dorset,The Antelope Inn,Pub/bar/nightclub,7843,5,,335543,5,,50.68565200000000,1151,088,publichealth@purbeck-dc.gov.uk,Purbeck,http://www.dorsetforyou.com/purbeck,-2.11066700000000,BH20 4JS,2013-04-18,fhrs_5_en-GB,5,,FHRS,5
301133,,Dorchester Road,Lytchett Minster,Dorset,The Bakers Arms,Pub/bar/nightclub,7843,5,,335677,5,,50.73486000000000,255,088,publichealth@purbeck-dc.gov.uk,Purbeck,http://www.dorsetforyou.com/purbeck,-2.06205200000000,BH16 6JF,2014-12-09,fhrs_4_en-GB,4,,FHRS,10
301134,Bere Farm,Wareham Road,Lytchett Minster,Dorset,The Barn Cafe,Restaurant/Cafe/Canteen,1,5,,693934,5,,50.74088100000000,28766,088,publichealth@purbeck-dc.gov.uk,Purbeck,http://www.dorsetforyou.com/purbeck,-2.08316300000000,BH16 6ER,2014-06-30,fhrs_5_en-GB,5,,FHRS,5
301135,,Burlington Chine,Swanage,Dorset,The Beach Cafe,Mobile caterer,7846,5,,371675,0,,50.77915191650391,28217,088,publichealth@purbeck-dc.gov.uk,Purbeck,http://www.dorsetforyou.com/purbeck,-2.32034993171692,,2014-04-14,fhrs_5_en-GB,5,,FHRS,0
301136,,11 Shore Road,Swanage,Dorset,The Beach Hut,Takeaway/sandwich shop,7844,5,,693943,5,,50.60976200000000,865,088,publichealth@purbeck-dc.gov.uk,Purbeck,http://www.dorsetforyou.com/purbeck,-1.95744700000000,BH19 1LA,2014-06-12,fhrs_4_en-GB,4,,FHRS,10
301137,,High Street,Wool,Dorset,The Black Bear,Pub/bar/nightclub,7843,5,,335844,5,,50.68000400000000,539,088,publichealth@purbeck-dc.gov.uk,Purbeck,http://www.dorsetforyou.com/purbeck,-2.21894400000000,BH20 6BP,2013-10-28,fhrs_5_en-GB,5,,FHRS,5
301138,,159 High Street,Swanage,Dorset,The Black Swan,Pub/bar/nightclub,7843,5,,335935,5,,50.61017300000000,702,088,publichealth@purbeck-dc.gov.uk,Purbeck,http://www.dorsetforyou.com/purbeck,-1.97904200000000,BH19 2NP,2015-01-05,fhrs_4_en-GB,4,,FHRS,10
301139,The Blue Crab,Durdle Door Caravan Site,West Lulworth,Wareham,The Blue Crab,Restaurant/Cafe/Canteen,1,5,,636999,5,,50.62937000000000,28757,088,publichealth@purbeck-dc.gov.uk,Purbeck,http://www.dorsetforyou.com/purbeck,-2.26839100000000,BH20 5PU,2014-03-14,fhrs_4_en-GB,4,,FHRS,10
301140,,Burlington Road,Beach Cafe,Swanage,The Cabin,Restaurant/Cafe/Canteen,1,5,,693930,5,,50.61940200000000,28761,088,publichealth@purbeck-dc.gov.uk,Purbeck,http://www.dorsetforyou.com/purbeck,-1.95616600000000,BH19 1LU,2014-05-02,fhrs_4_en-GB,4,,FHRS,10
301141,,10-12 Kings Road East,Swanage,Dorset,The Canteen,Restaurant/Cafe/Canteen,1,10,,579924,10,,50.60879100000000,28454,088,publichealth@purbeck-dc.gov.uk,Purbeck,http://www.dorsetforyou.com/purbeck,-1.95835300000000,BH19 1ES,2013-08-22,fhrs_3_en-GB,3,,FHRS,10
301142,,Main Road,West Lulworth,Wareham,The Castle Inn,Pub/bar/nightclub,7843,5,,335808,5,,50.62615300000000,481,088,publichealth@purbeck-dc.gov.uk,Purbeck,http://www.dorsetforyou.com/purbeck,-2.24710900000000,BH20 5RN,2014-12-23,fhrs_5_en-GB,5,,FHRS,5
301143,,75 High Street,Lytchett Matravers,Dorset,The Chequers Inn,Pub/bar/nightclub,7843,,,693929,,,50.76018700000000,28759,088,publichealth@purbeck-dc.gov.uk,Purbeck,http://www.dorsetforyou.com/purbeck,-2.08502600000000,BH16 6BJ,2014-07-16,fhrs_5_en-GB,5,,FHRS,
301144,,15 South Street,Wareham,Dorset,The Chipperies,Takeaway/sandwich shop,7844,0,,335528,5,,50.68524900000000,1110,088,publichealth@purbeck-dc.gov.uk,Purbeck,http://www.dorsetforyou.com/purbeck,-2.10933600000000,BH20 4LR,2014-01-03,fhrs_5_en-GB,5,,FHRS,5
301145,,East Morden,,Dorset,The Cock and Bottle,Pub/bar/nightclub,7843,10,,335732,5,,50.75283432006836,331,088,publichealth@purbeck-dc.gov.uk,Purbeck,http://www.dorsetforyou.com/purbeck,-2.12310218811035,BH20 7DL,2014-11-17,fhrs_3_en-GB,3,,FHRS,10
301146,Leos Store,Kings Road West,Swanage,Dorset,The Co-Op Pharmacy,Retailers - other,4613,,,716850,,,50.60939400000000,812,088,publichealth@purbeck-dc.gov.uk,Purbeck,http://www.dorsetforyou.com/purbeck,-1.95920000000000,BH19 1AA,2014-11-12,fhrs_exempt_en-GB,Exempt,,FHRS,
301147,The Copse,School Lane,West Lulworth,Dorset,The Copse B&B,Hotel/bed & breakfast/guest house,7842,10,,335690,5,,50.62538000000000,27800,088,publichealth@purbeck-dc.gov.uk,Purbeck,http://www.dorsetforyou.com/purbeck,-2.24246800000000,BH20 5SA,2013-07-17,fhrs_4_en-GB,4,,FHRS,5
301148,Worgret Manor Hotel Ltd,Worgret Road,Wareham,Dorset,The Courtyard Bed & Breakfast @ Worgret Manor Hotel Ltd,Hotel/bed & breakfast/guest house,7842,10,,335744,5,,50.68273400000000,36,088,publichealth@purbeck-dc.gov.uk,Purbeck,http://www.dorsetforyou.com/purbeck,-2.13165200000000,BH20 6AB,2012-08-22,fhrs_4_en-GB,4,,FHRS,5
301149,Sandford Holiday Park,Organford Road,Holton Heath,Dorset,The Courtyard Restaurant,Restaurant/Cafe/Canteen,1,5,,335772,5,,50.72005200000000,410,088,publichealth@purbeck-dc.gov.uk,Purbeck,http://www.dorsetforyou.com/purbeck,-2.08601500000000,BH16 6JZ,2014-05-20,fhrs_5_en-GB,5,,FHRS,5
301150,,Main Road,West Lulworth,Dorset,The Dolls House Sweet Shop,Retailers - other,4613,5,,335802,5,,50.61964100000000,475,088,publichealth@purbeck-dc.gov.uk,Purbeck,http://www.dorsetforyou.com/purbeck,-2.25182500000000,BH20 5RQ,2014-03-31,fhrs_5_en-GB,5,,FHRS,5
301151,,10a South Street,Wareham,Dorset,The Dorset Deli,Retailers - other,4613,5,,636997,5,,50.68531100000000,28660,088,publichealth@purbeck-dc.gov.uk,Purbeck,http://www.dorsetforyou.com/purbeck,-2.10983100000000,BH20 4LT,2014-03-07,fhrs_4_en-GB,4,,FHRS,10
301152,,West Street,Bere Regis,Dorset,The Drax Arms,Pub/bar/nightclub,7843,5,,591847,5,,50.75363900000000,28594,088,publichealth@purbeck-dc.gov.uk,Purbeck,http://www.dorsetforyou.com/purbeck,-2.21718900000000,BH20 7HH,2013-10-11,fhrs_4_en-GB,4,,FHRS,10
301153,,,,,The Firs,Hotel/bed & breakfast/guest house,7842,5,,734118,5,,,6075,088,publichealth@purbeck-dc.gov.uk,Purbeck,http://www.dorsetforyou.com/purbeck,,,2015-01-19,fhrs_5_en-GB,5,,FHRS,5
301154,,14 The Square,Swanage,Dorset,The Fish Plaice,Takeaway/sandwich shop,7844,5,,335951,5,,50.60835900000000,727,088,publichealth@purbeck-dc.gov.uk,Purbeck,http://www.dorsetforyou.com/purbeck,-1.95643100000000,BH19 2LJ,2014-06-02,fhrs_5_en-GB,5,,FHRS,5
301155,The Flat,208 High Street,Swanage,Dorset,The Food Shop,Retailers - other,4613,0,,446128,0,,50.61055900000000,28320,088,publichealth@purbeck-dc.gov.uk,Purbeck,http://www.dorsetforyou.com/purbeck,-1.97495700000000,BH19 2PQ,2014-03-21,fhrs_5_en-GB,5,,FHRS,0
301156,The Frampton Arms,Station Road,Moreton,Dorset,The Frampton Arms,Pub/bar/nightclub,7843,5,,335735,5,,50.70136100000000,341,088,publichealth@purbeck-dc.gov.uk,Purbeck,http://www.dorsetforyou.com/purbeck,-2.31342000000000,DT2 8BB,2014-12-08,fhrs_5_en-GB,5,,FHRS,5
301157,2-3 Albion Villas,Main Road,West Lulworth,Dorset,The Gift Shop/Jaynes,Restaurant/Cafe/Canteen,1,0,,335803,5,,50.61964100000000,476,088,publichealth@purbeck-dc.gov.uk,Purbeck,http://www.dorsetforyou.com/purbeck,-2.25182500000000,BH20 5RQ,2014-01-23,fhrs_5_en-GB,5,,FHRS,0
301158,,3 Bell Street,Swanage,Dorset,The Globe Inn,Pub/bar/nightclub,7843,10,,335887,5,,50.60880500000000,607,088,publichealth@purbeck-dc.gov.uk,Purbeck,http://www.dorsetforyou.com/purbeck,-1.97620200000000,BH19 2RY,2014-09-11,fhrs_4_en-GB,4,,FHRS,5
301159,,The Square,Corfe Castle,Dorset,The Greyhound Inn,Pub/bar/nightclub,7843,10,,335578,10,,50.63838800000000,136,088,publichealth@purbeck-dc.gov.uk,Purbeck,http://www.dorsetforyou.com/purbeck,-2.05773900000000,BH20 5EZ,2015-01-26,fhrs_2_en-GB,2,,FHRS,15
301160,The Grove Youth Club,Sea View Road,Upton,Dorset,The Grove Youth Club,Other catering premises,7841,5,,335721,5,,50.73819700000000,309,088,publichealth@purbeck-dc.gov.uk,Purbeck,http://www.dorsetforyou.com/purbeck,-2.03946800000000,BH16 5NF,2014-05-22,fhrs_5_en-GB,5,,FHRS,5
301161,Halfway Inn,,Wareham,Dorset,The Halfway Inn,Pub/bar/nightclub,7843,5,,693931,10,,50.65855200000000,28762,088,publichealth@purbeck-dc.gov.uk,Purbeck,http://www.dorsetforyou.com/purbeck,-2.08445900000000,BH20 5DU,2014-05-19,fhrs_3_en-GB,3,,FHRS,10
301162,The Haven,3 Victoria Road,Swanage,Dorset,The Haven & Swanage Day Spa,Hotel/bed & breakfast/guest house,7842,0,,447274,0,,50.62038300000000,941,088,publichealth@purbeck-dc.gov.uk,Purbeck,http://www.dorsetforyou.com/purbeck,-1.95736700000000,BH19 1LY,2012-09-13,fhrs_5_en-GB,5,,FHRS,5
301163,Heritage Centre,Main Road,West Lulworth,Dorset,The Heritage Centre,Retailers - other,4613,5,,335798,0,,50.61964100000000,468,088,publichealth@purbeck-dc.gov.uk,Purbeck,http://www.dorsetforyou.com/purbeck,-2.25182500000000,BH20 5RQ,2014-06-10,fhrs_5_en-GB,5,,FHRS,5
301164,,Old Wareham Road,Corfe Mullen,Dorset,The Holme Bush Inn,Pub/bar/nightclub,7843,5,,335714,5,,50.75647100000000,296,088,publichealth@purbeck-dc.gov.uk,Purbeck,http://www.dorsetforyou.com/purbeck,-2.03721500000000,BH21 3RZ,2013-11-25,fhrs_5_en-GB,5,,FHRS,5
301165,,,,,The Jammy Bodger,Manufacturers/packers,7839,5,,335702,0,,,27891,088,publichealth@purbeck-dc.gov.uk,Purbeck,http://www.dorsetforyou.com/purbeck,,,2014-07-02,fhrs_5_en-GB,5,,FHRS,5
301166,,41 North Street,Wareham,Dorset,The Kings Arms,Pub/bar/nightclub,7843,10,,335505,10,,50.68771100000000,1019,088,publichealth@purbeck-dc.gov.uk,Purbeck,http://www.dorsetforyou.com/purbeck,-2.11108300000000,BH20 4AD,2014-05-13,fhrs_3_en-GB,3,,FHRS,5
301167,,27 High Street,Langton Matravers,Dorset,The Kings Arms,Pub/bar/nightclub,7843,20,,335626,15,,50.60938300000000,190,088,publichealth@purbeck-dc.gov.uk,Purbeck,http://www.dorsetforyou.com/purbeck,-2.00364700000000,BH19 3HA,2014-07-14,fhrs_1_en-GB,1,,FHRS,15
301168,,3 Corfe Road,Stoborough,Wareham,The Kings Arms Stoborough,Pub/bar/nightclub,7843,5,,335601,10,,50.67659800000000,17,088,publichealth@purbeck-dc.gov.uk,Purbeck,http://www.dorsetforyou.com/purbeck,-2.10917400000000,BH20 5AD,2014-05-13,fhrs_4_en-GB,4,,FHRS,5
301169,Wareham Lady St Mary C Of E Fi,Streche Road,Wareham,Dorset,THE LADY ST.MARY 1ST,School/college/university,7845,5,,716844,5,,50.68701300000000,1129,088,publichealth@purbeck-dc.gov.uk,Purbeck,http://www.dorsetforyou.com/purbeck,-2.11671500000000,BH20 4PG,2014-11-10,fhrs_5_en-GB,5,,FHRS,5
301170,,Corfe Road,Stoborough,Wareham,The Lookout Stores,Retailers - other,4613,0,,335643,5,,50.67047900000000,21,088,publichealth@purbeck-dc.gov.uk,Purbeck,http://www.dorsetforyou.com/purbeck,-2.10301800000000,BH20 5AZ,2013-10-25,fhrs_5_en-GB,5,,FHRS,5
301171,,,,,The Mole Hut,Mobile caterer,7846,5,,693916,5,,,18521,088,publichealth@purbeck-dc.gov.uk,Purbeck,http://www.dorsetforyou.com/purbeck,,,2014-08-05,fhrs_5_en-GB,5,,FHRS,5
301172,National Trust Shop,The Square,Corfe Castle,Dorset,The National Trust   (Enterprises) LTD,Retailers - other,4613,,,335570,,,50.63838800000000,131,088,publichealth@purbeck-dc.gov.uk,Purbeck,http://www.dorsetforyou.com/purbeck,-2.05773900000000,BH20 5EZ,2013-06-12,fhrs_exempt_en-GB,Exempt,,FHRS,
301173,,The Square,Corfe Castle,Dorset,The National Trust Tea Rooms,Restaurant/Cafe/Canteen,1,5,,335573,0,,50.63838800000000,133,088,publichealth@purbeck-dc.gov.uk,Purbeck,http://www.dorsetforyou.com/purbeck,-2.05773900000000,BH20 5EZ,2014-04-08,fhrs_5_en-GB,5,,FHRS,5
301174,,Church Knowle,Wareham,Dorset,The New Inn,Pub/bar/nightclub,7843,5,,336019,5,,50.63541793823242,87,088,publichealth@purbeck-dc.gov.uk,Purbeck,http://www.dorsetforyou.com/purbeck,-2.08898520469666,BH20 5NQ,2015-01-09,fhrs_4_en-GB,4,,FHRS,10
301175,The Old Barn,Main Road,West Lulworth,Dorset,The Old Barn B&B,Hotel/bed & breakfast/guest house,7842,5,,335805,0,,50.62487900000000,478,088,publichealth@purbeck-dc.gov.uk,Purbeck,http://www.dorsetforyou.com/purbeck,-2.24974600000000,BH20 5RL,2013-08-06,fhrs_5_en-GB,5,,FHRS,5
301176,,The Quay,Wareham,Dorset,The Old Granary,Restaurant/Cafe/Canteen,1,5,,335511,5,,50.68431400000000,1041,088,publichealth@purbeck-dc.gov.uk,Purbeck,http://www.dorsetforyou.com/purbeck,-2.10900800000000,BH20 4LP,2014-10-23,fhrs_5_en-GB,5,,FHRS,5
301177,The Old Post Office,Wareham Road,Organford,Dorset,The Old Post Office B&B,Hotel/bed & breakfast/guest house,7842,10,,335729,5,,50.70173500000000,318,088,publichealth@purbeck-dc.gov.uk,Purbeck,http://www.dorsetforyou.com/purbeck,-2.24375400000000,BH20 6LB,2013-07-29,fhrs_4_en-GB,4,,FHRS,5
301178,,56 High Street,Langton Matravers,Dorset,The Old Rectory Rest Home,Hospitals/Childcare/Caring Premises,5,5,,335630,5,,50.60982400000000,194,088,publichealth@purbeck-dc.gov.uk,Purbeck,http://www.dorsetforyou.com/purbeck,-2.00343500000000,BH19 3HB,2014-06-23,fhrs_5_en-GB,5,,FHRS,5
301179,The Old Barn,Cats Eye Cottage,Norden,Corfe Castle,The Olive Tree Cookery School,Other catering premises,7841,0,,335554,0,,50.65054300000000,118,088,publichealth@purbeck-dc.gov.uk,Purbeck,http://www.dorsetforyou.com/purbeck,-2.07867400000000,BH20 5DT,2014-02-14,fhrs_5_en-GB,5,,FHRS,5
301180,"Holme Nurseries, West Holme Fa",West Holme To Holme Lane,West Holme,Dorset,The Orchard Tea Room @ Holme Nurseries,Restaurant/Cafe/Canteen,1,0,,335610,0,,50.67226400000000,177,088,publichealth@purbeck-dc.gov.uk,Purbeck,http://www.dorsetforyou.com/purbeck,-2.16258500000000,BH20 6AQ,2013-03-04,fhrs_5_en-GB,5,,FHRS,5
301181,,1 The Parade,Swanage,Dorset,The Parade Fish Restaurant,Restaurant/Cafe/Canteen,1,5,,336000,5,,50.60880900000000,834,088,publichealth@purbeck-dc.gov.uk,Purbeck,http://www.dorsetforyou.com/purbeck,-1.95638800000000,BH19 1DA,2015-01-12,fhrs_5_en-GB,5,,FHRS,5
301182,,Manor Road,Studland,Dorset,The Pig on the Beach,Hotel/bed & breakfast/guest house,7842,5,,693935,5,,50.64311300000000,28767,088,publichealth@purbeck-dc.gov.uk,Purbeck,http://www.dorsetforyou.com/purbeck,-1.94846500000000,BH19 3AU,2014-07-16,fhrs_5_en-GB,5,,FHRS,0
301183,,34-36 Burlington Road,Swanage,Dorset,The Pines Hotel,Hotel/bed & breakfast/guest house,7842,,,335893,,,50.62107500000000,619,088,publichealth@purbeck-dc.gov.uk,Purbeck,http://www.dorsetforyou.com/purbeck,-1.95596700000000,BH19 1LT,2014-09-12,fhrs_5_en-GB,5,,FHRS,
301184,,Church Green,Wareham,Dorset,The Priory Hotel,Hotel/bed & breakfast/guest house,7842,5,,336065,0,,50.68419700000000,960,088,publichealth@purbeck-dc.gov.uk,Purbeck,http://www.dorsetforyou.com/purbeck,-2.10852700000000,BH20 4ND,2014-05-15,fhrs_5_en-GB,5,,FHRS,5
301185,Lenctenbury Farm,Soldiers Road,Norden,Dorset,The Purbeck Blueberry Company,Retailers - other,4613,5,,335536,5,,50.65855200000000,113,088,publichealth@purbeck-dc.gov.uk,Purbeck,http://www.dorsetforyou.com/purbeck,-2.08445900000000,BH20 5DU,2013-08-19,fhrs_4_en-GB,4,,FHRS,10
301186,,26 Institute Road,Swanage,Dorset,The Purbeck Deli,Retailers - other,4613,5,,335978,0,,50.60880000000000,792,088,publichealth@purbeck-dc.gov.uk,Purbeck,http://www.dorsetforyou.com/purbeck,-1.95709500000000,BH19 1BX,2014-04-10,fhrs_5_en-GB,5,,FHRS,0
301187,,37 South Street,Wareham,Dorset,The Purbeck Pizza Company,Restaurant/Cafe/Canteen,1,5,,579327,5,,50.68524900000000,28456,088,publichealth@purbeck-dc.gov.uk,Purbeck,http://www.dorsetforyou.com/purbeck,-2.10933600000000,BH20 4LR,2013-08-20,fhrs_5_en-GB,5,,FHRS,5
301188,,The Quay,Wareham,Dorset,The Quay Inn,Pub/bar/nightclub,7843,0,,335510,5,,50.68431400000000,1039,088,publichealth@purbeck-dc.gov.uk,Purbeck,http://www.dorsetforyou.com/purbeck,-2.10900800000000,BH20 4LP,2013-09-24,fhrs_5_en-GB,5,,FHRS,5
301189,,63 High Street,Swanage,Dorset,The Red Lion,Pub/bar/nightclub,7843,5,,612342,5,,50.60789200000000,28595,088,publichealth@purbeck-dc.gov.uk,Purbeck,http://www.dorsetforyou.com/purbeck,-1.95906000000000,BH19 2LY,2013-11-26,fhrs_4_en-GB,4,,FHRS,10
301190,Red Lion Hotel,Dorchester Road,Winfrith Newburgh,Dorset,The Red Lion,Pub/bar/nightclub,7843,0,,728031,5,,50.66835500000000,28893,088,publichealth@purbeck-dc.gov.uk,Purbeck,http://www.dorsetforyou.com/purbeck,-2.27563100000000,DT2 8LE,2014-12-17,fhrs_5_en-GB,5,,FHRS,5
301191,,417 High Street,Swanage,Dorset,The Royal Oak,Pub/bar/nightclub,7843,5,,335941,5,,50.61017300000000,711,088,publichealth@purbeck-dc.gov.uk,Purbeck,http://www.dorsetforyou.com/purbeck,-1.97904200000000,BH19 2NP,2015-01-23,fhrs_5_en-GB,5,,FHRS,5
301192,The Royal Oak,West Street,Bere Regis,Dorset,The Royal Oak,Pub/bar/nightclub,7843,0,,612344,5,,50.75286600000000,28656,088,publichealth@purbeck-dc.gov.uk,Purbeck,http://www.dorsetforyou.com/purbeck,-2.21746900000000,BH20 7HQ,2013-11-20,fhrs_5_en-GB,5,,FHRS,5
301193,Headquarters Royal Armoured Co,Bovington Camp,Bovington,Dorset,The Royal Wessex Yeomanry,Restaurant/Cafe/Canteen,1,0,,335872,5,,50.77915191650391,584,088,publichealth@purbeck-dc.gov.uk,Purbeck,http://www.dorsetforyou.com/purbeck,-2.32034993171692,BH20 6JA,2015-01-15,fhrs_5_en-GB,5,,FHRS,0
301194,The Sailors Return,,East Chaldon,Dorset,The Sailors Return,Pub/bar/nightclub,7843,10,,693936,5,,50.64904800000000,28768,088,publichealth@purbeck-dc.gov.uk,Purbeck,http://www.dorsetforyou.com/purbeck,-2.29723000000000,DT2 8DN,2014-07-24,fhrs_4_en-GB,4,,FHRS,5
301195,,6 North Street,Wareham,Dorset,The Salt Pig,Restaurant/Cafe/Canteen,1,5,,335565,5,,50.68648900000000,12709,088,publichealth@purbeck-dc.gov.uk,Purbeck,http://www.dorsetforyou.com/purbeck,-2.10980600000000,BH20 4AF,2014-09-25,fhrs_4_en-GB,4,,FHRS,10
301196,The Sandford,Sandford Road,Sandford,Dorset,The Sandford Pub,Pub/bar/nightclub,7843,5,,721905,5,,50.70341900000000,28887,088,publichealth@purbeck-dc.gov.uk,Purbeck,http://www.dorsetforyou.com/purbeck,-2.10344500000000,BH20 7AE,2014-11-24,fhrs_4_en-GB,4,,FHRS,10
301197,The Scott Arms,West Street,Kingston,Dorset,The Scott Arms,Pub/bar/nightclub,7843,,,335584,,,50.61631700000000,147,088,publichealth@purbeck-dc.gov.uk,Purbeck,http://www.dorsetforyou.com/purbeck,-2.06297000000000,BH20 5LH,2015-01-30,fhrs_3_en-GB,3,,FHRS,
301198,,High Street,Swanage,Dorset,The Seagull Cafe,Restaurant/Cafe/Canteen,1,5,,335914,5,,50.61017300000000,659,088,publichealth@purbeck-dc.gov.uk,Purbeck,http://www.dorsetforyou.com/purbeck,-1.97904200000000,BH19 2NP,2014-10-27,fhrs_4_en-GB,4,,FHRS,10
301199,,East Burton Road,Wool,Dorset,The Seven Stars,Pub/bar/nightclub,7843,5,,335829,5,,50.68624000000000,515,088,publichealth@purbeck-dc.gov.uk,Purbeck,http://www.dorsetforyou.com/purbeck,-2.26074600000000,DT2 8RL,2014-02-11,fhrs_5_en-GB,5,,FHRS,0
301200,,Dorchester Road,Wool,Dorset,The Ship Inn,Pub/bar/nightclub,7843,5,,693932,5,,50.68024000000000,28763,088,publichealth@purbeck-dc.gov.uk,Purbeck,http://www.dorsetforyou.com/purbeck,-2.22699800000000,BH20 6EQ,2014-06-05,fhrs_4_en-GB,4,,FHRS,10
301201,,23 High Street,Swanage,Dorset,The Ship Inn & Old Brick Pizza Co.,Pub/bar/nightclub,7843,5,,335924,5,,50.60790000000000,673,088,publichealth@purbeck-dc.gov.uk,Purbeck,http://www.dorsetforyou.com/purbeck,-1.95599300000000,BH19 2LR,2014-01-29,fhrs_4_en-GB,4,,FHRS,10
301202,,Bere Road,Coldharbour,Wareham,The Silent Woman Inn,Pub/bar/nightclub,7843,5,,335758,5,,50.71035500000000,380,088,publichealth@purbeck-dc.gov.uk,Purbeck,http://www.dorsetforyou.com/purbeck,-2.14341300000000,BH20 7PA,2014-03-06,fhrs_5_en-GB,5,,FHRS,5
301203,The Sports Pavillion,High Street,Lytchett Matravers,Dorset,The Sports Pavillion,Other catering premises,7841,5,,335656,5,,50.76018700000000,226,088,publichealth@purbeck-dc.gov.uk,Purbeck,http://www.dorsetforyou.com/purbeck,-2.08502600000000,BH16 6BJ,2013-10-10,fhrs_4_en-GB,4,,FHRS,10
301204,,Dorchester Road,East Stoke,Dorset,The Stokeford Inn,Pub/bar/nightclub,7843,5,,335593,5,,50.68499000000000,162,088,publichealth@purbeck-dc.gov.uk,Purbeck,http://www.dorsetforyou.com/purbeck,-2.18567400000000,BH20 6AN,2014-02-20,fhrs_4_en-GB,4,,FHRS,10
301205,The Swanage School,High Street,Swanage,Dorset,The Swanage School,School/college/university,7845,5,,693941,5,,50.61095600000000,756,088,publichealth@purbeck-dc.gov.uk,Purbeck,http://www.dorsetforyou.com/purbeck,-1.98427100000000,BH19 2PH,2014-05-21,fhrs_5_en-GB,5,,FHRS,0
301206,Sweet Shop,The Square,Corfe Castle,Dorset,The Sweet Shop,Retailers - other,4613,,,335571,,,50.63838800000000,132,088,publichealth@purbeck-dc.gov.uk,Purbeck,http://www.dorsetforyou.com/purbeck,-2.05773900000000,BH20 5EZ,2014-12-16,fhrs_5_en-GB,5,,FHRS,
301207,,,,,The Sweetie Treat Cart,Retailers - other,4613,5,,706809,5,,,24760,088,publichealth@purbeck-dc.gov.uk,Purbeck,http://www.dorsetforyou.com/purbeck,,,2014-09-16,fhrs_5_en-GB,5,,FHRS,5
301208,,Ulwell Cottage Caravan Park,Ulwell,Swanage,The Village Inn,Pub/bar/nightclub,7843,5,,335910,5,,50.61333847045898,652,088,publichealth@purbeck-dc.gov.uk,Purbeck,http://www.dorsetforyou.com/purbeck,-1.96800005435944,BH19 3DG,2013-11-04,fhrs_4_en-GB,4,,FHRS,10
301209,,East Lulworth,Wareham,Dorset,The Weld Arms,Pub/bar/nightclub,7843,5,,371676,5,,50.63748931884766,28272,088,publichealth@purbeck-dc.gov.uk,Purbeck,http://www.dorsetforyou.com/purbeck,-2.20239877700806,BH20 5QQ,2015-01-28,fhrs_4_en-GB,4,,FHRS,10
301210,,11 High Street,Swanage,Dorset,The White Horse Inn,Pub/bar/nightclub,7843,10,,335921,10,,50.60765700000000,667,088,publichealth@purbeck-dc.gov.uk,Purbeck,http://www.dorsetforyou.com/purbeck,-1.95540000000000,BH19 2LP,2014-04-24,fhrs_3_en-GB,3,,FHRS,10
301211,,31 High Street,Swanage,Dorset,The White Swan,Pub/bar/nightclub,7843,20,,335925,10,,50.60803500000000,676,088,publichealth@purbeck-dc.gov.uk,Purbeck,http://www.dorsetforyou.com/purbeck,-1.95640300000000,BH19 2LS,2015-01-20,fhrs_1_en-GB,1,,FHRS,15
301212,,16 Colliers Lane,Wool,Dorset,The Withies,Hotel/bed & breakfast/guest house,7842,10,,335499,10,,50.67779300000000,10029,088,publichealth@purbeck-dc.gov.uk,Purbeck,http://www.dorsetforyou.com/purbeck,-2.22775100000000,BH20 6DL,2014-06-10,fhrs_3_en-GB,3,,FHRS,5
301213,,Holt Road,Bovington,Wool,Three Bears Pre-School,Hospitals/Childcare/Caring Premises,5,0,,335849,0,,50.69874600000000,547,088,publichealth@purbeck-dc.gov.uk,Purbeck,http://www.dorsetforyou.com/purbeck,-2.24567900000000,BH20 6LE,2013-09-05,fhrs_5_en-GB,5,,FHRS,0
301214,Tideway,Beach Road,Upton,Dorset,Tideway,Hotel/bed & breakfast/guest house,7842,5,,335621,5,,50.73540900000000,18813,088,publichealth@purbeck-dc.gov.uk,Purbeck,http://www.dorsetforyou.com/purbeck,-2.04054300000000,BH16 5NA,2015-01-28,fhrs_5_en-GB,5,,FHRS,5
301215,Toms Field Camping Site,Toms Field Road,Langton Matravers,Swanage,Tom's Field Breakfast Bar,Restaurant/Cafe/Canteen,1,10,,335705,5,,50.60763800000000,28126,088,publichealth@purbeck-dc.gov.uk,Purbeck,http://www.dorsetforyou.com/purbeck,-2.00862100000000,BH19 3HN,2013-06-27,fhrs_4_en-GB,4,,FHRS,5
301216,,Toms Field Road,Langton Matravers,Dorset,Toms Field Campsite & Shop,Retailers - other,4613,5,,335634,5,,50.60763800000000,200,088,publichealth@purbeck-dc.gov.uk,Purbeck,http://www.dorsetforyou.com/purbeck,-2.00862100000000,BH19 3HN,2014-07-04,fhrs_4_en-GB,4,,FHRS,10
301217,,1 Carey Road,Wareham,Dorset,Tops Day Nursery,Hospitals/Childcare/Caring Premises,5,0,,336062,0,,50.69327100000000,956,088,publichealth@purbeck-dc.gov.uk,Purbeck,http://www.dorsetforyou.com/purbeck,-2.11738200000000,BH20 4AX,2015-01-07,fhrs_5_en-GB,5,,FHRS,5
301218,,17 Ulwell Road,Swanage,Dorset,Tower Lodge Hotel,Hotel/bed & breakfast/guest house,7842,5,,336042,5,,50.61927700000000,919,088,publichealth@purbeck-dc.gov.uk,Purbeck,http://www.dorsetforyou.com/purbeck,-1.95879600000000,BH19 1LF,2013-09-16,fhrs_5_en-GB,5,,FHRS,5
301219,Coach House Lodge,Town Hall Lane,Swanage,Dorset,Town Hall Lodge,Restaurant/Cafe/Canteen,1,5,,335959,5,,50.60856500000000,746,088,publichealth@purbeck-dc.gov.uk,Purbeck,http://www.dorsetforyou.com/purbeck,-1.95902800000000,,2013-10-29,fhrs_5_en-GB,5,,FHRS,5
301220,,Cobblers Lane,Swanage,Dorset,Townsend Residential Study Centre,School/college/university,7845,0,,336039,0,,50.60609500000000,916,088,publichealth@purbeck-dc.gov.uk,Purbeck,http://www.dorsetforyou.com/purbeck,-1.96417700000000,BH19 2PX,2014-06-10,fhrs_5_en-GB,5,,FHRS,0
301221,,,,,TraMark Catering,Mobile caterer,7846,0,,335569,0,,,13076,088,publichealth@purbeck-dc.gov.uk,Purbeck,http://www.dorsetforyou.com/purbeck,,,2013-04-11,fhrs_5_en-GB,5,,FHRS,0
301222,Headquarters Royal Armoured Co,Bovington Camp,Bovington,Dorset,TRAX Junior Ranks Mess,Restaurant/Cafe/Canteen,1,5,,335861,5,,50.77915191650391,570,088,publichealth@purbeck-dc.gov.uk,Purbeck,http://www.dorsetforyou.com/purbeck,-2.32034993171692,BH20 6JA,2014-05-19,fhrs_4_en-GB,4,,FHRS,10
301223,Street Record,Newburgh Picnic Site,Winfrith Newburgh,Dorset,Trevz Mobile Catering Ltd,Mobile caterer,7846,5,,335658,5,,,22816,088,publichealth@purbeck-dc.gov.uk,Purbeck,http://www.dorsetforyou.com/purbeck,,,2014-01-08,fhrs_5_en-GB,5,,FHRS,5
301224,,Darkie Lane,Ulwell,Swanage,Ulwell Village Shop,Retailers - other,4613,5,,335911,5,,50.62653800000000,653,088,publichealth@purbeck-dc.gov.uk,Purbeck,http://www.dorsetforyou.com/purbeck,-1.96939300000000,BH19 3DG,2013-11-04,fhrs_5_en-GB,5,,FHRS,5
301225,,112 High Street,Swanage,Dorset,United Reformed Church,Other catering premises,7841,0,,335930,5,,50.60838700000000,695,088,publichealth@purbeck-dc.gov.uk,Purbeck,http://www.dorsetforyou.com/purbeck,-1.96096700000000,BH19 2NY,2014-02-19,fhrs_5_en-GB,5,,FHRS,5
301226,United Reformed Church,Church Street,Wareham,Dorset,United Reformed Church,Other catering premises,7841,10,,336066,0,,,964,088,publichealth@purbeck-dc.gov.uk,Purbeck,http://www.dorsetforyou.com/purbeck,,,2014-11-18,fhrs_4_en-GB,4,,FHRS,5
301227,Upton Working Mens Club,Poole Road,Upton,Dorset,Upton Cafe,Restaurant/Cafe/Canteen,1,5,,335717,5,,50.73803100000000,304,088,publichealth@purbeck-dc.gov.uk,Purbeck,http://www.dorsetforyou.com/purbeck,-2.02365300000000,BH16 5HY,2014-02-13,fhrs_5_en-GB,5,,FHRS,5
301228,,2 The Triangle,Upton,Dorset,Upton Central,Restaurant/Cafe/Canteen,1,0,,693937,0,,50.73903600000000,313,088,publichealth@purbeck-dc.gov.uk,Purbeck,http://www.dorsetforyou.com/purbeck,-2.03042700000000,BH16 5PG,2014-08-05,fhrs_5_en-GB,5,,FHRS,0
301229,,9 Moorland Parade,Upton,Dorset,Upton Fish & Chips,Takeaway/sandwich shop,7844,20,,335712,10,,50.73880200000000,294,088,publichealth@purbeck-dc.gov.uk,Purbeck,http://www.dorsetforyou.com/purbeck,-2.03363000000000,BH16 5JS,2014-05-06,fhrs_1_en-GB,1,,FHRS,15
301230,Upton Infants School,Guest Road,Upton,Dorset,Upton Infant School,School/college/university,7845,0,,711970,5,,50.73721900000000,14923,088,publichealth@purbeck-dc.gov.uk,Purbeck,http://www.dorsetforyou.com/purbeck,-2.03501800000000,BH16 5LQ,2014-11-03,fhrs_5_en-GB,5,,FHRS,5
301231,Upton Junior School,St Martins Road,Upton,Dorset,Upton Junior School,School/college/university,7845,0,,721909,5,,50.73758600000000,28894,088,publichealth@purbeck-dc.gov.uk,Purbeck,http://www.dorsetforyou.com/purbeck,-2.03776700000000,BH16 5NQ,2014-12-02,fhrs_5_en-GB,5,,FHRS,5
301232,,105 East Street,Corfe Castle,Dorset,Vergers Mead B&B,Hotel/bed & breakfast/guest house,7842,5,,696000,0,,50.63209600000000,28773,088,publichealth@purbeck-dc.gov.uk,Purbeck,http://www.dorsetforyou.com/purbeck,-2.05228800000000,BH20 5EG,2014-08-21,fhrs_5_en-GB,5,,FHRS,5
301233,Vernon Lodge,87 Kings Road West,Swanage,Dorset,Vernon Lodge B&B,Hotel/bed & breakfast/guest house,7842,10,,499527,0,,50.61005300000000,20232,088,publichealth@purbeck-dc.gov.uk,Purbeck,http://www.dorsetforyou.com/purbeck,-1.96852700000000,BH19 1HL,2013-01-16,fhrs_4_en-GB,4,,FHRS,5
301234,Village Hall,6 Church Road,West Lulworth,Dorset,Village Hall,Other catering premises,7841,5,,335806,5,,50.62481100000000,479,088,publichealth@purbeck-dc.gov.uk,Purbeck,http://www.dorsetforyou.com/purbeck,-2.25199400000000,BH20 5SG,2013-08-04,fhrs_4_en-GB,4,,FHRS,10
301235,"Vision Youth Centre, Memorial Hall",King George V Road,Bovington,Dorset,Vision Youth Centre,Other catering premises,7841,5,,335871,5,,50.69974200000000,583,088,publichealth@purbeck-dc.gov.uk,Purbeck,http://www.dorsetforyou.com/purbeck,-2.24228600000000,BH20 6JQ,2014-10-14,fhrs_5_en-GB,5,,FHRS,5
301236,,South Street,Wareham,Dorset,Wareham Conservative Club,Pub/bar/nightclub,7843,0,,335534,0,,50.68531100000000,1127,088,publichealth@purbeck-dc.gov.uk,Purbeck,http://www.dorsetforyou.com/purbeck,-2.10983100000000,BH20 4LT,2014-07-16,fhrs_5_en-GB,5,,FHRS,5
301237,,Sandford Road,Wareham,Dorset,Wareham Golf Club,Restaurant/Cafe/Canteen,1,5,,357009,5,,50.69653200000000,28213,088,publichealth@purbeck-dc.gov.uk,Purbeck,http://www.dorsetforyou.com/purbeck,-2.11157100000000,BH20 4DH,2013-10-25,fhrs_4_en-GB,4,,FHRS,10
301238,,Streche Road,Wareham,Dorset,Wareham Hospital,Hospitals/Childcare/Caring Premises,5,5,,335537,10,,50.68701300000000,1132,088,publichealth@purbeck-dc.gov.uk,Purbeck,http://www.dorsetforyou.com/purbeck,-2.11671500000000,BH20 4QQ,2014-09-04,fhrs_4_en-GB,4,,FHRS,5
301239,,Worgret Road,Wareham,Dorset,Wareham Youth Centre,Pub/bar/nightclub,7843,5,,335551,5,,50.68448500000000,1163,088,publichealth@purbeck-dc.gov.uk,Purbeck,http://www.dorsetforyou.com/purbeck,-2.11765700000000,BH20 4PH,2015-01-20,fhrs_5_en-GB,5,,FHRS,5
301240,Station House,Railway Station Approach,Swanage,Dorset,Wessex Belle Dining Car,Restaurant/Cafe/Canteen,1,10,,335991,5,,50.60997000000000,818,088,publichealth@purbeck-dc.gov.uk,Purbeck,http://www.dorsetforyou.com/purbeck,-1.96003300000000,BH19 1HB,2013-06-13,fhrs_4_en-GB,4,,FHRS,5
301241,West Farm,Coombe Keynes C48,Coombe Keynes,"Wareham, Dorset",West Coombe Farmhouse,Hotel/bed & breakfast/guest house,7842,10,,336043,10,,50.65657700000000,92,088,publichealth@purbeck-dc.gov.uk,Purbeck,http://www.dorsetforyou.com/purbeck,-2.22398400000000,BH20 5PS,2013-07-24,fhrs_3_en-GB,3,,FHRS,10
301242,,24 Institute Road,Swanage,Dorset,West Country Crafts,Retailers - other,4613,,,335977,,,50.60880000000000,791,088,publichealth@purbeck-dc.gov.uk,Purbeck,http://www.dorsetforyou.com/purbeck,-1.95709500000000,BH19 1BX,2014-11-18,fhrs_exempt_en-GB,Exempt,,FHRS,
301243,,Main Road,West Lulworth,Dorset,West Lulworth House,Hotel/bed & breakfast/guest house,7842,5,,578928,5,,50.62104100000000,27060,088,publichealth@purbeck-dc.gov.uk,Purbeck,http://www.dorsetforyou.com/purbeck,-2.25307600000000,BH20 5RJ,2013-08-12,fhrs_4_en-GB,4,,FHRS,10
301244,Bere Farm,Wareham Road,Lytchett Minster,Dorset,White Pepper School,Other catering premises,7841,5,,335691,5,,50.74088100000000,27838,088,publichealth@purbeck-dc.gov.uk,Purbeck,http://www.dorsetforyou.com/purbeck,-2.08316300000000,BH16 6ER,2013-11-08,fhrs_5_en-GB,5,,FHRS,5
301245,,Wilkswood Farm Road,Langton Matravers,Dorset,Wilkswood Farm Shop,Retailers - other,4613,5,,335635,5,,50.61560600000000,201,088,publichealth@purbeck-dc.gov.uk,Purbeck,http://www.dorsetforyou.com/purbeck,-2.00733600000000,BH19 3DU,2014-04-23,fhrs_5_en-GB,5,,FHRS,5
301246,"The Shop, The Bakery",The Cross,Wool,Dorset,Williams of Wool Shop,Retailers - other,4613,0,,335707,5,,50.67918600000000,28209,088,publichealth@purbeck-dc.gov.uk,Purbeck,http://www.dorsetforyou.com/purbeck,-2.21861400000000,BH20 6DA,2013-09-05,fhrs_5_en-GB,5,,FHRS,5
301247,,1 West Street,Wareham,Dorset,Williams the Baker,Retailers - other,4613,5,,335539,5,,50.68565200000000,1139,088,publichealth@purbeck-dc.gov.uk,Purbeck,http://www.dorsetforyou.com/purbeck,-2.11066700000000,BH20 4JS,2014-03-12,fhrs_5_en-GB,5,,FHRS,5
301248,,Dorchester Road,Lytchett Minster,Dorset,Willow Lodge Montessori School Ltd,Hospitals/Childcare/Caring Premises,5,5,,335713,5,,50.73653600000000,295,088,publichealth@purbeck-dc.gov.uk,Purbeck,http://www.dorsetforyou.com/purbeck,-2.05655600000000,BH16 6JE,2014-09-10,fhrs_5_en-GB,5,,FHRS,5
301249,,5 Institute Road,Swanage,Dorset,Wimpy,Restaurant/Cafe/Canteen,1,5,,335970,5,,50.60880000000000,771,088,publichealth@purbeck-dc.gov.uk,Purbeck,http://www.dorsetforyou.com/purbeck,-1.95672700000000,BH19 1BT,2015-01-05,fhrs_4_en-GB,4,,FHRS,10
301250,,High Street,Winfrith Newburgh,Dorset,Winfrith Village Stores,Retailers - other,4613,5,,577257,5,,50.66322200000000,28460,088,publichealth@purbeck-dc.gov.uk,Purbeck,http://www.dorsetforyou.com/purbeck,-2.27471000000000,DT2 8JN,2014-10-07,fhrs_5_en-GB,5,,FHRS,5
301251,,193 High Street,Swanage,Dorset,Wok Chef,Takeaway/sandwich shop,7844,5,,335937,5,,50.60801100000000,706,088,publichealth@purbeck-dc.gov.uk,Purbeck,http://www.dorsetforyou.com/purbeck,-1.96543300000000,BH19 2NF,2013-09-16,fhrs_4_en-GB,4,,FHRS,10
301252,Woodlands Residential Home,8 Cecil Road,Swanage,Dorset,Woodlands Sheltered Accommodation,Hospitals/Childcare/Caring Premises,5,5,,335899,5,,50.60986500000000,625,088,publichealth@purbeck-dc.gov.uk,Purbeck,http://www.dorsetforyou.com/purbeck,-1.96926200000000,BH19 1JJ,2014-11-21,fhrs_5_en-GB,5,,FHRS,5
301253,Woodyhyde Camp Site,Access Road To Woodyhyde,Afflington,"Corfe Castle, Dorset",Woody Hyde Camp Site,Retailers - other,4613,10,,589364,5,,50.62077900000000,598,088,publichealth@purbeck-dc.gov.uk,Purbeck,http://www.dorsetforyou.com/purbeck,-2.03924200000000,BH20 5HT,2013-09-04,fhrs_4_en-GB,4,,FHRS,5
301254,"Wool Community Cafe, Wool Cornerstone Church",Burton Road,Wool,Dorset,Wool Community Cafe,Restaurant/Cafe/Canteen,1,0,,395973,5,,50.68014200000000,535,088,publichealth@purbeck-dc.gov.uk,Purbeck,http://www.dorsetforyou.com/purbeck,-2.24011800000000,BH20 6EY,2014-01-02,fhrs_5_en-GB,5,,FHRS,5
301255,Kids Of Wool,Colliers Lane,Wool,Dorset,Wool Pre-School,Hospitals/Childcare/Caring Premises,5,5,,335832,0,,50.67845300000000,519,088,publichealth@purbeck-dc.gov.uk,Purbeck,http://www.dorsetforyou.com/purbeck,-2.22118700000000,BH20 6DJ,2013-07-17,fhrs_5_en-GB,5,,FHRS,5
301256,Wool C Of E First School,High Street,Wool,Dorset,Wool Primary School,School/college/university,7845,5,,709557,5,,50.67848400000000,542,088,publichealth@purbeck-dc.gov.uk,Purbeck,http://www.dorsetforyou.com/purbeck,-2.21926200000000,BH20 6BT,2014-10-24,fhrs_5_en-GB,5,,FHRS,5
301257,,Colliers Lane,Wool,Dorset,Wool Royal British Legion,Pub/bar/nightclub,7843,5,,703593,5,,50.67845300000000,28779,088,publichealth@purbeck-dc.gov.uk,Purbeck,http://www.dorsetforyou.com/purbeck,-2.22118700000000,BH20 6DJ,2014-09-22,fhrs_5_en-GB,5,,FHRS,5
301258,,2 Belle Vue Road,Swanage,Dorset,Wordsworth House Care Home,Hospitals/Childcare/Caring Premises,5,,,335888,,,50.60297100000000,611,088,publichealth@purbeck-dc.gov.uk,Purbeck,http://www.dorsetforyou.com/purbeck,-1.95351100000000,BH19 2HR,2015-01-08,fhrs_5_en-GB,5,,FHRS,
301259,,Worth Matravers,Swanage,,Worth Matravers Tea & Supper Room,Restaurant/Cafe/Canteen,1,5,,395974,5,,50.59668800000000,602,088,publichealth@purbeck-dc.gov.uk,Purbeck,http://www.dorsetforyou.com/purbeck,-2.03895300000000,BH19 3LQ,2013-11-20,fhrs_5_en-GB,5,,FHRS,5
301260,Post Office Cottage,,Worth Matravers,Dorset,Worth My Travels,Retailers - other,4613,5,,357006,5,,50.59668800000000,22291,088,publichealth@purbeck-dc.gov.uk,Purbeck,http://www.dorsetforyou.com/purbeck,-2.03895300000000,BH19 3LQ,2014-06-16,fhrs_5_en-GB,5,,FHRS,5
301261,,Winfrith Newburgh,Dorchester,Dorset,Wynards Farm,Hotel/bed & breakfast/guest house,7842,5,,335652,5,,50.66014480590820,22230,088,publichealth@purbeck-dc.gov.uk,Purbeck,http://www.dorsetforyou.com/purbeck,-2.28289771080017,DT2 8DQ,2013-10-18,fhrs_5_en-GB,5,,FHRS,5
301262,,Yarrells Drive,Upton,Poole,Yarrells Preparatory School,School/college/university,7845,5,,335730,5,,50.73750800000000,329,088,publichealth@purbeck-dc.gov.uk,Purbeck,http://www.dorsetforyou.com/purbeck,-2.03061100000000,BH16 5EU,2014-06-18,fhrs_5_en-GB,5,,FHRS,5
301263,,8-10 Cauldon Avenue,Swanage,Dorset,York House Retirement Home,Hospitals/Childcare/Caring Premises,5,5,,335896,5,,50.61608500000000,621,088,publichealth@purbeck-dc.gov.uk,Purbeck,http://www.dorsetforyou.com/purbeck,-1.96070700000000,BH19 1PQ,2015-01-08,fhrs_5_en-GB,5,,FHRS,5
301264,Youth Hostel,School Lane,West Lulworth,Dorset,Youth Hostel Association,Hotel/bed & breakfast/guest house,7842,5,,335811,5,,50.62538000000000,485,088,publichealth@purbeck-dc.gov.uk,Purbeck,http://www.dorsetforyou.com/purbeck,-2.24246800000000,BH20 5SA,2014-08-06,fhrs_5_en-GB,5,,FHRS,5
