,addressline1,addressline2,addressline3,addressline4,businessname,businesstype,businesstypeid,confidenceinmanagement,extractdate,fhrsid,hygiene,itemcount,latitude,localauthoritybusinessid,localauthoritycode,localauthorityemailaddress,localauthorityname,localauthoritywebsite,longitude,postcode,ratingdate,ratingkey,ratingvalue,returncode,schemetype,structural
316136,Lodmoor Country Park,Greenhill,,Weymouth,5J's Cafe,Restaurant/Cafe/Canteen,1,5,,306622,5,,50.62599300000000,39121,090,envhealth@weymouth.gov.uk,Weymouth and Portland,http://www.dorsetforyou.com,-2.44578200000000,DT4 7SX,2013-09-05,fhrs_5_en-GB,5,,FHRS,5
316137,,22 Westham Road,,Melcombe Regis,A & J'S Cafe + Pizza,Restaurant/Cafe/Canteen,1,10,,637029,10,,50.61191900000000,39483,090,envhealth@weymouth.gov.uk,Weymouth and Portland,http://www.dorsetforyou.com,-2.45511900000000,DT4 8NU,2014-02-13,fhrs_3_en-GB,3,,FHRS,10
316138,Abbotsbury Road Post Office,173 Abbotsbury Road,,Weymouth,Abbotsbury Road Post Office,Retailers - other,4613,5,,306618,5,,50.61093700000000,39099,090,envhealth@weymouth.gov.uk,Weymouth and Portland,http://www.dorsetforyou.com,-2.47147500000000,DT4 0LX,2014-05-29,fhrs_5_en-GB,5,,FHRS,5
316139,,5 Grosvenor Road,,Weymouth,Acorns Day Centre,Hospitals/Childcare/Caring Premises,5,0,,306541,0,,50.62292300000000,36715,090,envhealth@weymouth.gov.uk,Weymouth and Portland,http://www.dorsetforyou.com,-2.45611500000000,DT4 7QL,2015-01-28,fhrs_5_en-GB,5,,FHRS,0
316140,,131 The Esplanade,,Weymouth,AcQua Beach,Hotel/bed & breakfast/guest house,7842,5,,306438,5,,50.61640900000000,33279,090,envhealth@weymouth.gov.uk,Weymouth and Portland,http://www.dorsetforyou.com,-2.45218000000000,DT4 7EY,2014-02-07,fhrs_5_en-GB,5,,FHRS,5
316141,Admiral Hardy Hotel,Chickerell Road,,Weymouth,Admiral Hardy,Pub/bar/nightclub,7843,0,,306373,0,,50.60782200000000,18918,090,envhealth@weymouth.gov.uk,Weymouth and Portland,http://www.dorsetforyou.com,-2.47449600000000,DT4 0QU,2013-12-04,fhrs_5_en-GB,5,,FHRS,5
316142,Agincourt Residential Care Hom,116 Dorchester Road,,Weymouth,Agincourt Care Home,Hospitals/Childcare/Caring Premises,5,5,,306381,0,,50.62683500000000,20685,090,envhealth@weymouth.gov.uk,Weymouth and Portland,http://www.dorsetforyou.com,-2.45827400000000,DT4 7LG,2014-02-24,fhrs_5_en-GB,5,,FHRS,5
316143,Amusement Arcade And Premises,The Esplanade,,Weymouth,Alexandra Kiosk,Takeaway/sandwich shop,7844,5,,306593,5,,50.60849700000000,38985,090,envhealth@weymouth.gov.uk,Weymouth and Portland,http://www.dorsetforyou.com,-2.45168000000000,DT4 8DL,2013-05-16,fhrs_5_en-GB,5,,FHRS,5
316144,,2 Lynch Road,,Weymouth,Alf's,Takeaway/sandwich shop,7844,5,,306395,5,,50.60879300000000,26508,090,envhealth@weymouth.gov.uk,Weymouth and Portland,http://www.dorsetforyou.com,-2.48332500000000,DT4 0SJ,2013-07-08,fhrs_5_en-GB,5,,FHRS,5
316145,,2a St Mary Street,,Weymouth,Antonio's Cafe,Restaurant/Cafe/Canteen,1,5,,306405,5,,50.61067500000000,3063,090,envhealth@weymouth.gov.uk,Weymouth and Portland,http://www.dorsetforyou.com,-2.45373600000000,DT4 8PB,2013-11-19,fhrs_4_en-GB,4,,FHRS,10
316146,Asda Stores Ltd,Newstead Road,,Weymouth,Asda Stores Ltd,Retailers - supermarkets/hypermarkets,7840,5,,306547,5,,50.60740600000000,37138,090,envhealth@weymouth.gov.uk,Weymouth and Portland,http://www.dorsetforyou.com,-2.46163200000000,DT4 8JQ,2013-09-05,fhrs_5_en-GB,5,,FHRS,5
316147,Avon Lea Nursing Home,66 Dorchester Road,,Weymouth,Avonlea Nursing Home,Hospitals/Childcare/Caring Premises,5,5,,306380,0,,50.62364600000000,20610,090,envhealth@weymouth.gov.uk,Weymouth and Portland,http://www.dorsetforyou.com,-2.45511900000000,DT4 7JZ,2014-01-10,fhrs_5_en-GB,5,,FHRS,5
316148,,24 Commercial Road,,Weymouth,Balti House,Restaurant/Cafe/Canteen,1,10,,306375,5,,50.61404700000000,19385,090,envhealth@weymouth.gov.uk,Weymouth and Portland,http://www.dorsetforyou.com,-2.45601500000000,DT4 7DW,2014-01-10,fhrs_4_en-GB,4,,FHRS,5
316149,,191 Chiswell,,Portland,Balti Island,Takeaway/sandwich shop,7844,5,,306336,5,,50.56008800000000,10295,090,envhealth@weymouth.gov.uk,Weymouth and Portland,http://www.dorsetforyou.com,-2.44720700000000,DT5 1AP,2014-01-23,fhrs_5_en-GB,5,,FHRS,5
316150,,The Esplanade,,Weymouth,Beach Cafe - Opposite Gloucester Lodge,Restaurant/Cafe/Canteen,1,5,,306617,5,,,39096,090,envhealth@weymouth.gov.uk,Weymouth and Portland,http://www.dorsetforyou.com,,,2014-09-24,fhrs_5_en-GB,5,,FHRS,5
316151,,The Esplanade,,Weymouth,Beach Kiosk - Opposite 114 The Esplande - SC1,Restaurant/Cafe/Canteen,1,5,,306598,5,,,39021,090,envhealth@weymouth.gov.uk,Weymouth and Portland,http://www.dorsetforyou.com,,,2013-07-29,fhrs_5_en-GB,5,,FHRS,5
316152,The Beaufort Hotel,24 The Esplanade,,Weymouth,Beaufort Guest House,Hotel/bed & breakfast/guest house,7842,0,,306423,0,,50.60830600000000,33169,090,envhealth@weymouth.gov.uk,Weymouth and Portland,http://www.dorsetforyou.com,-2.45237000000000,DT4 8DN,2014-01-17,fhrs_5_en-GB,5,,FHRS,0
316153,Beechcroft Infant School,124 Corporation Road,,Weymouth,Beechcroft St Pauls Primary School,School/college/university,7845,0,,306613,0,,50.61515800000000,39081,090,envhealth@weymouth.gov.uk,Weymouth and Portland,http://www.dorsetforyou.com,-2.46832300000000,DT4 0LQ,2013-01-31,fhrs_5_en-GB,5,,FHRS,0
316154,,Mercery Road,,Weymouth,Beefeater,Restaurant/Cafe/Canteen,1,0,,611120,0,,,39184,090,envhealth@weymouth.gov.uk,Weymouth and Portland,http://www.dorsetforyou.com,,,2013-10-30,fhrs_5_en-GB,5,,FHRS,0
316155,,2 Westham Road,,Melcombe Regis,Belle's Cream Cakes Ltd,Retailers - other,4613,5,,306651,5,,50.61171100000000,39396,090,envhealth@weymouth.gov.uk,Weymouth and Portland,http://www.dorsetforyou.com,-2.45535700000000,DT4 8NP,2013-09-11,fhrs_4_en-GB,4,,FHRS,10
316156,,14 Trinity Road,,Weymouth,Bennetts on the Waterfront,Takeaway/sandwich shop,7844,5,,306447,5,,50.60678500000000,33600,090,envhealth@weymouth.gov.uk,Weymouth and Portland,http://www.dorsetforyou.com,-2.45501200000000,DT4 8TJ,2013-12-17,fhrs_5_en-GB,5,,FHRS,0
316157,,,,,Bennett's Seafood,Mobile caterer,7846,5,,449223,5,,,39455,090,envhealth@weymouth.gov.uk,Weymouth and Portland,http://www.dorsetforyou.com,,,2014-05-12,fhrs_5_en-GB,5,,FHRS,5
316158,The Berkeley Hotel,127-129 The Esplanade,,Weymouth,Berkeley Hotel,Hotel/bed & breakfast/guest house,7842,5,,306436,5,,50.61618400000000,33277,090,envhealth@weymouth.gov.uk,Weymouth and Portland,http://www.dorsetforyou.com,-2.45234700000000,DT4 7ET,2013-09-09,fhrs_4_en-GB,4,,FHRS,10
316159,,37 St Thomas Street,,Weymouth,Best Kebab,Takeaway/sandwich shop,7844,10,,631393,10,,50.60844000000000,52730,090,envhealth@weymouth.gov.uk,Weymouth and Portland,http://www.dorsetforyou.com,-2.45485900000000,DT4 8EH,2014-01-22,fhrs_3_en-GB,3,,FHRS,10
316160,,59 St Thomas Street,,Weymouth,Boho,Restaurant/Cafe/Canteen,1,10,,306512,10,,50.60834800000000,36018,090,envhealth@weymouth.gov.uk,Weymouth and Portland,http://www.dorsetforyou.com,-2.45535300000000,DT4 8EQ,2012-10-16,fhrs_3_en-GB,3,,FHRS,10
316161,,6 Southdown Avenue,,Weymouth,Bosworth Retirement Home,Restaurant/Cafe/Canteen,1,0,,306407,0,,50.63433300000000,31281,090,envhealth@weymouth.gov.uk,Weymouth and Portland,http://www.dorsetforyou.com,-2.44016300000000,DT3 6HR,2014-09-10,fhrs_5_en-GB,5,,FHRS,0
316162,Redlands Service Station,316-318 Dorchester Road,,Weymouth,BP,Retailers - other,4613,5,,306629,5,,50.63731000000000,39151,090,envhealth@weymouth.gov.uk,Weymouth and Portland,http://www.dorsetforyou.com,-2.46974500000000,DT3 5AS,2014-01-03,fhrs_5_en-GB,5,,FHRS,5
316163,Brewers Quay,Hope Square,,Weymouth,Brewer Tea,Restaurant/Cafe/Canteen,1,10,,697264,5,,50.60550000000000,52807,090,envhealth@weymouth.gov.uk,Weymouth and Portland,http://www.dorsetforyou.com,-2.45244200000000,DT4 8TR,2014-09-01,fhrs_4_en-GB,4,,FHRS,5
316164,,687 Dorchester Road,,Weymouth,Broadwey Fish & Chip Shop,Takeaway/sandwich shop,7844,5,,306529,10,,50.65358600000000,36232,090,envhealth@weymouth.gov.uk,Weymouth and Portland,http://www.dorsetforyou.com,-2.47026100000000,DT3 5LW,2014-02-27,fhrs_4_en-GB,4,,FHRS,5
316165,Brunches,27 Maiden Street,,Weymouth,Brunches Cafe & Takeaway,Restaurant/Cafe/Canteen,1,5,,565410,5,,50.60919100000000,4979,090,envhealth@weymouth.gov.uk,Weymouth and Portland,http://www.dorsetforyou.com,-2.45365100000000,DT4 8BB,2013-06-20,fhrs_5_en-GB,5,,FHRS,0
316166,,Greenhill,,Weymouth,Brunswick Kiosk - Opp 8,Restaurant/Cafe/Canteen,1,5,,306560,5,,,3750,090,envhealth@weymouth.gov.uk,Weymouth and Portland,http://www.dorsetforyou.com,,,2013-06-05,fhrs_4_en-GB,4,,FHRS,10
316167,,14b Hamm Beach Road,,Portland,Bubbles,Mobile caterer,7846,5,,617169,5,,50.56973900000000,50796,090,envhealth@weymouth.gov.uk,Weymouth and Portland,http://www.dorsetforyou.com,-2.45142200000000,DT5 1DX,2013-11-14,fhrs_5_en-GB,5,,FHRS,5
316168,Buxton House,423b Radipole Lane,,Weymouth,Buxton House,Hospitals/Childcare/Caring Premises,5,5,,306733,5,,50.61492300000000,9940,090,envhealth@weymouth.gov.uk,Weymouth and Portland,http://www.dorsetforyou.com,-2.47981200000000,DT4 0QE,2014-06-12,fhrs_5_en-GB,5,,FHRS,5
316169,,33-34 The Esplanade,,Weymouth,Cactus Tea Rooms & Bistro,Restaurant/Cafe/Canteen,1,0,,306442,0,,50.60905100000000,33286,090,envhealth@weymouth.gov.uk,Weymouth and Portland,http://www.dorsetforyou.com,-2.45261800000000,DT4 8DJ,2013-07-24,fhrs_5_en-GB,5,,FHRS,0
316170,Cafe Bay,86 The Esplanade,,Weymouth,Cafe Bay,Restaurant/Cafe/Canteen,1,5,,709586,5,,50.61392200000000,52832,090,envhealth@weymouth.gov.uk,Weymouth and Portland,http://www.dorsetforyou.com,-2.45337100000000,DT4 7AT,2014-10-03,fhrs_4_en-GB,4,,FHRS,10
316171,,60 The Esplanade,,Weymouth,Cafe Blue,Restaurant/Cafe/Canteen,1,10,,306518,5,,50.61144900000000,36057,090,envhealth@weymouth.gov.uk,Weymouth and Portland,http://www.dorsetforyou.com,-2.45355900000000,DT4 8DE,2013-07-24,fhrs_4_en-GB,4,,FHRS,5
316172,,11 Abbotsbury Road,,Weymouth,Cafe India,Restaurant/Cafe/Canteen,1,10,,306627,10,,50.61176600000000,39147,090,envhealth@weymouth.gov.uk,Weymouth and Portland,http://www.dorsetforyou.com,-2.46194300000000,DT4 0AD,2014-02-20,fhrs_3_en-GB,3,,FHRS,10
316173,Cafe Oasis,Bowleaze Coveway,,Weymouth,Cafe Oasis,Restaurant/Cafe/Canteen,1,5,,306669,5,,50.63509800000000,6012,090,envhealth@weymouth.gov.uk,Weymouth and Portland,http://www.dorsetforyou.com,-2.43042700000000,DT3 6PN,2014-01-13,fhrs_5_en-GB,5,,FHRS,5
316174,,20a Gloucester Street,,Weymouth,Cafe Weymouth,Restaurant/Cafe/Canteen,1,5,,465791,5,,50.61316800000000,39447,090,envhealth@weymouth.gov.uk,Weymouth and Portland,http://www.dorsetforyou.com,-2.45548400000000,DT4 7AW,2014-04-16,fhrs_5_en-GB,5,,FHRS,5
316175,,6 Frederick Place,,St Thomas Street,Captains Table,Takeaway/sandwich shop,7844,5,,306697,5,,50.61131000000000,805,090,envhealth@weymouth.gov.uk,Weymouth and Portland,http://www.dorsetforyou.com,-2.45454700000000,DT4 8HQ,2014-02-19,fhrs_5_en-GB,5,,FHRS,5
316176,Carlton Hotel,132-133 The Esplanade,,Weymouth,Carlton Hotel,Hotel/bed & breakfast/guest house,7842,5,,306663,5,,50.61658900000000,5362,090,envhealth@weymouth.gov.uk,Weymouth and Portland,http://www.dorsetforyou.com,-2.45215300000000,DT4 7NE,2013-11-28,fhrs_4_en-GB,4,,FHRS,10
316177,Carlton House,9 Carlton Road North,,Weymouth,Carlton House,Hospitals/Childcare/Caring Premises,5,10,,306370,5,,50.62174600000000,17883,090,envhealth@weymouth.gov.uk,Weymouth and Portland,http://www.dorsetforyou.com,-2.45562300000000,DT4 7PX,2013-09-30,fhrs_4_en-GB,4,,FHRS,5
316178,Castle Cove Sailing Club,Old Castle Road,,Weymouth,Castle Cove Sailing Club,Restaurant/Cafe/Canteen,1,0,,306491,0,,50.59614700000000,35798,090,envhealth@weymouth.gov.uk,Weymouth and Portland,http://www.dorsetforyou.com,-2.46172000000000,DT4 8QE,2013-05-09,fhrs_5_en-GB,5,,FHRS,5
316179,All Saints C Of E School,Sunnyside Road,,Weymouth,Catering Academy Ltd,School/college/university,7845,0,,306625,0,,50.59573900000000,39139,090,envhealth@weymouth.gov.uk,Weymouth and Portland,http://www.dorsetforyou.com,-2.47372500000000,DT4 9BJ,2014-09-22,fhrs_5_en-GB,5,,FHRS,5
316180,,121 Radipole Lane,,Weymouth,Caviar Plaice,Takeaway/sandwich shop,7844,5,,530027,5,,50.62452100000000,35857,090,envhealth@weymouth.gov.uk,Weymouth and Portland,http://www.dorsetforyou.com,-2.47688400000000,DT4 9SS,2014-09-29,fhrs_5_en-GB,5,,FHRS,5
316181,The Chatsworth Hotel,14 The Esplanade,,Weymouth,Chatsworth Hotel,Hotel/bed & breakfast/guest house,7842,10,,306422,0,,50.60828500000000,33160,090,envhealth@weymouth.gov.uk,Weymouth and Portland,http://www.dorsetforyou.com,-2.45078700000000,DT4 8EB,2014-06-03,fhrs_4_en-GB,4,,FHRS,5
316182,Cherries Childrens Home,19 Mount Pleasant Avenue South,,Weymouth,Cherries Childrens Home,Hospitals/Childcare/Caring Premises,5,0,,306723,0,,50.63240900000000,9214,090,envhealth@weymouth.gov.uk,Weymouth and Portland,http://www.dorsetforyou.com,-2.46780200000000,DT3 5JF,2014-02-24,fhrs_5_en-GB,5,,FHRS,0
316183,Chesil Vista Holiday Park,258-260 Portland Road,,Weymouth,Chesil Vista Holiday Park,Restaurant/Cafe/Canteen,1,,,306400,,,50.58651000000000,29170,090,envhealth@weymouth.gov.uk,Weymouth and Portland,http://www.dorsetforyou.com,-2.47424000000000,DT4 9AG,2014-04-07,fhrs_5_en-GB,5,,FHRS,
316184,,93b Wyke Road,,Weymouth,Chestnuts Residential Home,Hospitals/Childcare/Caring Premises,5,10,,306668,5,,50.59998800000000,5563,090,envhealth@weymouth.gov.uk,Weymouth and Portland,http://www.dorsetforyou.com,-2.47477100000000,DT4 9QS,2013-09-06,fhrs_4_en-GB,4,,FHRS,5
316185,,10 Queen Street,,Weymouth,Chilli's Indian Cuisine,Restaurant/Cafe/Canteen,1,5,,643961,5,,50.61551300000000,52745,090,envhealth@weymouth.gov.uk,Weymouth and Portland,http://www.dorsetforyou.com,-2.45368300000000,DT4 7HZ,2014-03-10,fhrs_4_en-GB,4,,FHRS,10
316186,,1 Straits,,Portland,Chinese 4 U,Restaurant/Cafe/Canteen,1,5,,643960,5,,50.54491900000000,52735,090,envhealth@weymouth.gov.uk,Weymouth and Portland,http://www.dorsetforyou.com,-2.43460100000000,DT5 1HG,2014-03-11,fhrs_5_en-GB,5,,FHRS,0
316187,,34 Buxton Road,,Weymouth,Chipmunks Day Nursery,Hospitals/Childcare/Caring Premises,5,0,,306562,5,,50.60060000000000,37532,090,envhealth@weymouth.gov.uk,Weymouth and Portland,http://www.dorsetforyou.com,-2.46360000000000,DT4 9PJ,2014-06-26,fhrs_5_en-GB,5,,FHRS,5
316188,,67 Great George Street,,Weymouth,Cobwebs Internet Cafe Ltd,Restaurant/Cafe/Canteen,1,5,,495922,5,,50.61138000000000,39492,090,envhealth@weymouth.gov.uk,Weymouth and Portland,http://www.dorsetforyou.com,-2.45514200000000,DT4 8NN,2013-01-03,fhrs_5_en-GB,5,,FHRS,5
316189,,,,,Cockleshell Deli,Mobile caterer,7846,5,,589052,5,,,52548,090,envhealth@weymouth.gov.uk,Weymouth and Portland,http://www.dorsetforyou.com,,,2013-09-09,fhrs_5_en-GB,5,,FHRS,5
316190,,35 St Mary Street,,Weymouth,Coffee 1 Ltd,Restaurant/Cafe/Canteen,1,0,,589049,0,,50.60929800000000,35927,090,envhealth@weymouth.gov.uk,Weymouth and Portland,http://www.dorsetforyou.com,-2.45394900000000,DT4 8PN,2013-09-13,fhrs_5_en-GB,5,,FHRS,5
316191,Weymouth Harbour Complex,The Quay,,Weymouth,Condor Ferries Casquets Bistro,Restaurant/Cafe/Canteen,1,5,,589051,15,,,52521,090,envhealth@weymouth.gov.uk,Weymouth and Portland,http://www.dorsetforyou.com,,DT4 8AP,2013-09-30,fhrs_2_en-GB,2,,FHRS,0
316192,Conifers Primary School,Radipole Lane,,Weymouth,Conifers Primary School,School/college/university,7845,0,,306702,0,,,8272,090,envhealth@weymouth.gov.uk,Weymouth and Portland,http://www.dorsetforyou.com,,,2013-02-28,fhrs_5_en-GB,5,,FHRS,0
316193,,26 St Mary Street,,Weymouth,Cornish Bakehouse Ltd,Takeaway/sandwich shop,7844,0,,306549,5,,,37143,090,envhealth@weymouth.gov.uk,Weymouth and Portland,http://www.dorsetforyou.com,,DT4 8PW,2013-09-18,fhrs_5_en-GB,5,,FHRS,5
316194,Cove House Inn,Chiswell,,Portland,Cove House Inn,Pub/bar/nightclub,7843,5,,306678,10,,50.56119000000000,6421,090,envhealth@weymouth.gov.uk,Weymouth and Portland,http://www.dorsetforyou.com,-2.44830500000000,DT5 1AW,2013-10-30,fhrs_4_en-GB,4,,FHRS,5
316195,Crab House Cafe,Ferrymans Way,,Weymouth,Crab House Cafe @ Fleet Oyster Farm,Restaurant/Cafe/Canteen,1,5,,306653,5,,50.58574300000000,4064,090,envhealth@weymouth.gov.uk,Weymouth and Portland,http://www.dorsetforyou.com,-2.47475500000000,DT4 9YU,2013-12-04,fhrs_5_en-GB,5,,FHRS,5
316196,,,,,Crabbits,Mobile caterer,7846,10,,508509,5,,,32517,090,envhealth@weymouth.gov.uk,Weymouth and Portland,http://www.dorsetforyou.com,,,2013-01-20,fhrs_4_en-GB,4,,FHRS,5
316197,,45 Spa Road,,Weymouth,Crecy Residential Home,Hospitals/Childcare/Caring Premises,5,0,,306410,0,,50.62974800000000,31631,090,envhealth@weymouth.gov.uk,Weymouth and Portland,http://www.dorsetforyou.com,-2.46743600000000,DT3 5EP,2013-11-13,fhrs_5_en-GB,5,,FHRS,5
316198,The Criterion Restaurant,63-64 The Esplanade,,Weymouth,Criterion Restaurant,Restaurant/Cafe/Canteen,1,5,,306556,5,,50.61144900000000,37414,090,envhealth@weymouth.gov.uk,Weymouth and Portland,http://www.dorsetforyou.com,-2.45355900000000,DT4 8DE,2014-04-24,fhrs_5_en-GB,5,,FHRS,5
316199,Crown Hotel,51-52 St Thomas Street,,Weymouth,Crown Hotel,Restaurant/Cafe/Canteen,1,5,,306515,5,,50.60834800000000,36035,090,envhealth@weymouth.gov.uk,Weymouth and Portland,http://www.dorsetforyou.com,-2.45535300000000,DT4 8EQ,2014-08-29,fhrs_5_en-GB,5,,FHRS,5
316200,Easton Post Office,7 Reforne,,Portland,Cycleccino,Restaurant/Cafe/Canteen,1,5,,680607,5,,50.54602300000000,9544,090,envhealth@weymouth.gov.uk,Weymouth and Portland,http://www.dorsetforyou.com,-2.43770200000000,DT5 2AL,2014-07-03,fhrs_5_en-GB,5,,FHRS,5
316201,Prince Regent Hotel,139 The Esplanade,,Weymouth,Daish's Regent Hotel,Restaurant/Cafe/Canteen,1,5,,306439,5,,50.61567000000000,33281,090,envhealth@weymouth.gov.uk,Weymouth and Portland,http://www.dorsetforyou.com,-2.45252600000000,DT4 7EH,2014-03-04,fhrs_5_en-GB,5,,FHRS,5
316202,,6c King Street,,Weymouth,DaniBerry,Restaurant/Cafe/Canteen,1,5,,306483,5,,50.61456800000000,35734,090,envhealth@weymouth.gov.uk,Weymouth and Portland,http://www.dorsetforyou.com,-2.45385800000000,DT4 7BH,2013-01-04,fhrs_5_en-GB,5,,FHRS,5
316203,,159 Abbotsbury Road,,Weymouth,Daniels,Takeaway/sandwich shop,7844,5,,306459,5,,50.61115000000000,35544,090,envhealth@weymouth.gov.uk,Weymouth and Portland,http://www.dorsetforyou.com,-2.46986600000000,DT4 0JX,2013-11-15,fhrs_5_en-GB,5,,FHRS,5
316204,,5 Littlemoor Shopping Centre,,Littlemoor Road,Daniels,Takeaway/sandwich shop,7844,0,,306485,0,,50.64817500000000,35755,090,envhealth@weymouth.gov.uk,Weymouth and Portland,http://www.dorsetforyou.com,-2.45375800000000,DT3 6NQ,2014-02-27,fhrs_5_en-GB,5,,FHRS,5
316205,,108 Portland Road,,Weymouth,Daniels Fish & Chips Ltd,Takeaway/sandwich shop,7844,5,,306493,5,,50.59166200000000,35821,090,envhealth@weymouth.gov.uk,Weymouth and Portland,http://www.dorsetforyou.com,-2.47434800000000,DT4 9AD,2014-09-17,fhrs_5_en-GB,5,,FHRS,5
316206,,86 Fortuneswell,,Portland,Daniels Fish and Chips Ltd,Takeaway/sandwich shop,7844,5,,306357,5,,50.56090900000000,14782,090,envhealth@weymouth.gov.uk,Weymouth and Portland,http://www.dorsetforyou.com,-2.44395400000000,DT5 1LR,2013-06-13,fhrs_5_en-GB,5,,FHRS,5
316207,Danmoor Lodge,12-14 Alexandra Road,,Weymouth,Danmor Lodge Residential Home,Hospitals/Childcare/Caring Premises,5,0,,551064,0,,50.62221300000000,8973,090,envhealth@weymouth.gov.uk,Weymouth and Portland,http://www.dorsetforyou.com,-2.45805900000000,DT4 7QQ,2014-12-12,fhrs_5_en-GB,5,,FHRS,5
316208,,88 Rodwell Avenue,,Weymouth,Darwin Care Ltd,Restaurant/Cafe/Canteen,1,5,,306673,5,,50.60375900000000,6253,090,envhealth@weymouth.gov.uk,Weymouth and Portland,http://www.dorsetforyou.com,-2.45837500000000,DT4 8SQ,2012-12-14,fhrs_5_en-GB,5,,FHRS,0
316209,,,,,Dave's Icecreams,Mobile caterer,7846,5,,454553,5,,,6137,090,envhealth@weymouth.gov.uk,Weymouth and Portland,http://www.dorsetforyou.com,,,2012-09-12,fhrs_5_en-GB,5,,FHRS,5
316210,,,,,Davis Catering,Mobile caterer,7846,0,,667469,5,,,23769,090,envhealth@weymouth.gov.uk,Weymouth and Portland,http://www.dorsetforyou.com,,,2014-05-09,fhrs_5_en-GB,5,,FHRS,0
316211,,10 New Bond Street,,Weymouth,Debenhams,Restaurant/Cafe/Canteen,1,0,,306711,5,,50.61024600000000,8645,090,envhealth@weymouth.gov.uk,Weymouth and Portland,http://www.dorsetforyou.com,-2.45513100000000,DT4 8LY,2014-09-16,fhrs_5_en-GB,5,,FHRS,5
316212,,62 St Thomas Street,,Weymouth,Dolce Vita,Restaurant/Cafe/Canteen,1,5,,306514,5,,50.60834800000000,36022,090,envhealth@weymouth.gov.uk,Weymouth and Portland,http://www.dorsetforyou.com,-2.45535300000000,DT4 8EQ,2014-08-28,fhrs_5_en-GB,5,,FHRS,5
316213,,5 King Street,,Weymouth,Domino's Pizza,Takeaway/sandwich shop,7844,10,,306482,15,,50.61456800000000,35730,090,envhealth@weymouth.gov.uk,Weymouth and Portland,http://www.dorsetforyou.com,-2.45385800000000,DT4 7BH,2014-01-16,fhrs_2_en-GB,2,,FHRS,0
316214,The Dorothy Inn,48-49 The Esplanade,,Weymouth,Dorothy Inn Weymouth,Pub/bar/nightclub,7843,10,,667471,10,,50.61006500000000,52734,090,envhealth@weymouth.gov.uk,Weymouth and Portland,http://www.dorsetforyou.com,-2.45319300000000,DT4 8DQ,2014-07-22,fhrs_3_en-GB,3,,FHRS,5
316215,,69 Portland Road,,Weymouth,Dorset Cake Co Ltd,Retailers - other,4613,5,,306492,5,,50.59462700000000,35816,090,envhealth@weymouth.gov.uk,Weymouth and Portland,http://www.dorsetforyou.com,-2.47504200000000,DT4 9BE,2014-08-13,fhrs_4_en-GB,4,,FHRS,10
316216,,1 Verne Road,,Weymouth,Dorset Residential Homes,Hospitals/Childcare/Caring Premises,5,5,,306450,0,,50.60174100000000,33811,090,envhealth@weymouth.gov.uk,Weymouth and Portland,http://www.dorsetforyou.com,-2.46140700000000,DT4 0RX,2015-01-09,fhrs_5_en-GB,5,,FHRS,5
316217,Unit 14 Maritime Business Centre,Mereside,,Portland,Dorset Shellfish,Manufacturers/packers,7839,0,,465790,5,,50.56651100000000,39254,090,envhealth@weymouth.gov.uk,Weymouth and Portland,http://www.dorsetforyou.com,-2.45129200000000,DT5 1FD,2013-07-30,fhrs_5_en-GB,5,,FHRS,0
316218,,1 St Edmund Street,,Weymouth,Duke of Cornwall,Pub/bar/nightclub,7843,10,,565409,0,,50.60783100000000,37401,090,envhealth@weymouth.gov.uk,Weymouth and Portland,http://www.dorsetforyou.com,-2.45425900000000,DT4 8AS,2012-09-10,fhrs_4_en-GB,4,,FHRS,10
316219,Eastney,15 Longfield Road,,Weymouth,Eastney Hotel,Hotel/bed & breakfast/guest house,7842,5,,306657,5,,50.60226000000000,4779,090,envhealth@weymouth.gov.uk,Weymouth and Portland,http://www.dorsetforyou.com,-2.45751200000000,DT4 8RQ,2013-08-02,fhrs_5_en-GB,5,,FHRS,5
316220,,40 Southwell,,Portland,Eight Kings,Restaurant/Cafe/Canteen,1,5,,555053,5,,50.52951300000000,37912,090,envhealth@weymouth.gov.uk,Weymouth and Portland,http://www.dorsetforyou.com,-2.44214900000000,DT5 2DP,2014-11-05,fhrs_5_en-GB,5,,FHRS,5
316221,,110 The Esplanade,,Weymouth,Enzo,Restaurant/Cafe/Canteen,1,5,,306432,5,,50.61508400000000,33244,090,envhealth@weymouth.gov.uk,Weymouth and Portland,http://www.dorsetforyou.com,-2.45287400000000,DT4 7EA,2013-09-18,fhrs_5_en-GB,5,,FHRS,5
316222,Fairfield Day Centre,East Street,,Portland,Fairfield Day Centre,Hospitals/Childcare/Caring Premises,5,0,,306566,0,,50.55930000000000,37696,090,envhealth@weymouth.gov.uk,Weymouth and Portland,http://www.dorsetforyou.com,-2.44144000000000,DT5 1NF,2013-05-17,fhrs_5_en-GB,5,,FHRS,0
316223,Fairhaven Hotel,37 The Esplanade,,Weymouth,Fairhaven Hotel,Hotel/bed & breakfast/guest house,7842,0,,306446,0,,50.60952500000000,33295,090,envhealth@weymouth.gov.uk,Weymouth and Portland,http://www.dorsetforyou.com,-2.45323000000000,DT4 8DH,2013-10-29,fhrs_5_en-GB,5,,FHRS,0
316224,,37 St Mary Street,,Weymouth,Fantastic Sausage Factory,Retailers - other,4613,,,306503,,,50.60809100000000,35928,090,envhealth@weymouth.gov.uk,Weymouth and Portland,http://www.dorsetforyou.com,-2.45427600000000,DT4 8PU,2014-03-24,fhrs_5_en-GB,5,,FHRS,
316225,Redlands Farm,Dorchester Road,,Weymouth,Farmer P,Restaurant/Cafe/Canteen,1,5,,306338,5,,,10337,090,envhealth@weymouth.gov.uk,Weymouth and Portland,http://www.dorsetforyou.com,,,2013-06-28,fhrs_5_en-GB,5,,FHRS,5
316226,Weymouth Working Mens Club,1 Mitchell Street,,Weymouth,Feed Me Caterers,Restaurant/Cafe/Canteen,1,5,,446401,5,,50.60785200000000,39432,090,envhealth@weymouth.gov.uk,Weymouth and Portland,http://www.dorsetforyou.com,-2.45338300000000,DT4 8BT,2014-02-06,fhrs_5_en-GB,5,,FHRS,5
316227,,9 Market Street,,Weymouth,Fish 'N' Fritz,Takeaway/sandwich shop,7844,0,,306550,5,,50.60839200000000,37171,090,envhealth@weymouth.gov.uk,Weymouth and Portland,http://www.dorsetforyou.com,-2.45333200000000,DT4 8DD,2014-01-31,fhrs_5_en-GB,5,,FHRS,5
316228,,60 St Thomas Street,,Weymouth,Flamin' Chooks,Restaurant/Cafe/Canteen,1,5,,565411,5,,50.60834800000000,52509,090,envhealth@weymouth.gov.uk,Weymouth and Portland,http://www.dorsetforyou.com,-2.45535300000000,DT4 8EQ,2013-06-11,fhrs_5_en-GB,5,,FHRS,5
316229,Moonfleet Indoor Bowling Centr,Knightsdale Road,,Weymouth,Fleetwey Limited - Moonfleet Bowls,Restaurant/Cafe/Canteen,1,0,,306574,0,,50.60873800000000,38763,090,envhealth@weymouth.gov.uk,Weymouth and Portland,http://www.dorsetforyou.com,-2.46823100000000,DT4 0HU,2014-11-13,fhrs_5_en-GB,5,,FHRS,0
316230,,19 Custom House Quay,,Weymouth,Floods Bistro,Restaurant/Cafe/Canteen,1,5,,306378,0,,50.60759600000000,20101,090,envhealth@weymouth.gov.uk,Weymouth and Portland,http://www.dorsetforyou.com,-2.45212300000000,DT4 8BG,2014-05-30,fhrs_5_en-GB,5,,FHRS,5
316231,Nothe Fort,Barrack Road,,Weymouth,Fort View,Restaurant/Cafe/Canteen,1,5,,667473,5,,50.60627200000000,52756,090,envhealth@weymouth.gov.uk,Weymouth and Portland,http://www.dorsetforyou.com,-2.44818200000000,DT4 8UF,2014-04-23,fhrs_5_en-GB,5,,FHRS,0
316232,,111a Portland Road,,Weymouth,Fresh Bites,Retailers - other,4613,5,,306495,5,,50.59283300000000,35824,090,envhealth@weymouth.gov.uk,Weymouth and Portland,http://www.dorsetforyou.com,-2.47402100000000,DT4 9BG,2013-10-04,fhrs_5_en-GB,5,,FHRS,5
316233,Friary House,26 Carlton Road North,,Weymouth,Friary House Residential Home,Hospitals/Childcare/Caring Premises,5,0,,306371,0,,50.62045400000000,17965,090,envhealth@weymouth.gov.uk,Weymouth and Portland,http://www.dorsetforyou.com,-2.45723700000000,DT4 7PY,2013-11-12,fhrs_5_en-GB,5,,FHRS,5
316234,Ymca,Reforne,,Portland,Friendly Food Club,Restaurant/Cafe/Canteen,1,5,,735990,5,,50.54663600000000,52877,090,envhealth@weymouth.gov.uk,Weymouth and Portland,http://www.dorsetforyou.com,-2.43948600000000,DT5 2AN,2015-02-02,fhrs_5_en-GB,5,,FHRS,5
316235,Easton Methodist Church And Halls,Easton Square,,Portland,Friendly Food Club Ltd,Restaurant/Cafe/Canteen,1,10,,728931,5,,50.54482200000000,52878,090,envhealth@weymouth.gov.uk,Weymouth and Portland,http://www.dorsetforyou.com,-2.43659100000000,DT5 1BX,2014-12-08,fhrs_4_en-GB,4,,FHRS,5
316236,Gala Bingo And Social Club,18 Crescent Street,,Weymouth,Gala Club,Pub/bar/nightclub,7843,0,,306681,5,,50.61554200000000,6734,090,envhealth@weymouth.gov.uk,Weymouth and Portland,http://www.dorsetforyou.com,-2.45324500000000,DT4 7BX,2015-01-09,fhrs_5_en-GB,5,,FHRS,5
316237,Goldcrest Residential Care,183 Dorchester Road,,Weymouth,Goldcrest Residential Home,Hospitals/Childcare/Caring Premises,5,0,,306384,0,,50.62635700000000,20769,090,envhealth@weymouth.gov.uk,Weymouth and Portland,http://www.dorsetforyou.com,-2.45872200000000,DT4 7LF,2014-06-12,fhrs_5_en-GB,5,,FHRS,5
316238,,2 Spa Road,,Weymouth,Golden Bridge Takeaway,Takeaway/sandwich shop,7844,5,,306409,5,,50.62957200000000,31588,090,envhealth@weymouth.gov.uk,Weymouth and Portland,http://www.dorsetforyou.com,-2.46193400000000,DT3 5EL,2013-10-09,fhrs_5_en-GB,5,,FHRS,5
316239,,205a Littlemoor Road,,Weymouth,Golden Flame,Takeaway/sandwich shop,7844,5,,306394,5,,50.64632900000000,26111,090,envhealth@weymouth.gov.uk,Weymouth and Portland,http://www.dorsetforyou.com,-2.44961000000000,DT3 6AF,2014-03-25,fhrs_5_en-GB,5,,FHRS,5
316240,,33 Straits,,Portland,Golden Island Chinese Takeaway,Takeaway/sandwich shop,7844,5,,306591,5,,50.54491900000000,38983,090,envhealth@weymouth.gov.uk,Weymouth and Portland,http://www.dorsetforyou.com,-2.43460100000000,DT5 1HG,2014-03-06,fhrs_5_en-GB,5,,FHRS,5
316241,,211 Abbotsbury Road,,Weymouth,Golden Kitchen,Takeaway/sandwich shop,7844,5,,306360,0,,50.61037200000000,15174,090,envhealth@weymouth.gov.uk,Weymouth and Portland,http://www.dorsetforyou.com,-2.47315100000000,DT4 0LY,2014-01-16,fhrs_5_en-GB,5,,FHRS,0
316242,Golden Lion,19 St Edmund Street,,Weymouth,Golden Lion & Lotties Kitchen,Restaurant/Cafe/Canteen,1,5,,530028,5,,50.60797200000000,39501,090,envhealth@weymouth.gov.uk,Weymouth and Portland,http://www.dorsetforyou.com,-2.45481200000000,DT4 8AR,2014-09-24,fhrs_5_en-GB,5,,FHRS,5
316243,Gresham Private Hotel,120 The Esplanade,,Weymouth,Gresham Hotel,Hotel/bed & breakfast/guest house,7842,5,,306433,10,,50.61573300000000,33265,090,envhealth@weymouth.gov.uk,Weymouth and Portland,http://www.dorsetforyou.com,-2.45251200000000,DT4 7EW,2014-07-10,fhrs_3_en-GB,3,,FHRS,10
316244,,Swannery Walk,,Weymouth,Gurkha Bar and Restaurant,Restaurant/Cafe/Canteen,1,,,306701,,,50.61375500000000,8230,090,envhealth@weymouth.gov.uk,Weymouth and Portland,http://www.dorsetforyou.com,-2.45701600000000,DT4 7TZ,2014-09-18,fhrs_5_en-GB,5,,FHRS,
316245,,5 Brunswick Terrace,,Weymouth,Hamilton's (Weymouth) Ltd,Restaurant/Cafe/Canteen,1,0,,306367,5,,50.61809700000000,17320,090,envhealth@weymouth.gov.uk,Weymouth and Portland,http://www.dorsetforyou.com,-2.45066900000000,DT4 7RW,2013-10-15,fhrs_5_en-GB,5,,FHRS,0
316246,,7 Hamm Beach Road,,Portland,Harbour Lights,Restaurant/Cafe/Canteen,1,5,,667470,5,,50.56973900000000,52727,090,envhealth@weymouth.gov.uk,Weymouth and Portland,http://www.dorsetforyou.com,-2.45142200000000,DT5 1DX,2014-04-04,fhrs_5_en-GB,5,,FHRS,5
316247,,10 Custom House Quay,,Weymouth,Harbourside Bistro,Restaurant/Cafe/Canteen,1,10,,631394,5,,50.60759600000000,52731,090,envhealth@weymouth.gov.uk,Weymouth and Portland,http://www.dorsetforyou.com,-2.45212300000000,DT4 8BG,2014-01-22,fhrs_4_en-GB,4,,FHRS,5
316248,Harlequin Grill,45 The Esplanade,,Weymouth,Harlequin Grill,Restaurant/Cafe/Canteen,1,20,,306424,10,,50.60952500000000,33174,090,envhealth@weymouth.gov.uk,Weymouth and Portland,http://www.dorsetforyou.com,-2.45323000000000,DT4 8DH,2014-05-15,fhrs_1_en-GB,1,,FHRS,15
316249,,155-157 Abbotsbury Road,,Weymouth,Hel's Kitchen,Takeaway/sandwich shop,7844,10,,637028,5,,50.61115000000000,35543,090,envhealth@weymouth.gov.uk,Weymouth and Portland,http://www.dorsetforyou.com,-2.46986600000000,DT4 0JX,2014-02-25,fhrs_4_en-GB,4,,FHRS,5
316250,,,,,Hennis Sweet Treats,Mobile caterer,7846,5,,433633,5,,,28060,090,envhealth@weymouth.gov.uk,Weymouth and Portland,http://www.dorsetforyou.com,,,2012-06-22,fhrs_5_en-GB,5,,FHRS,5
316251,,,,,Henrietta's Catering,Restaurant/Cafe/Canteen,1,5,,688237,5,,,12621,090,envhealth@weymouth.gov.uk,Weymouth and Portland,http://www.dorsetforyou.com,,,2014-06-20,fhrs_5_en-GB,5,,FHRS,5
316252,Highclere House Care Home,Cross Road,,Weymouth,Highclere House Care Home,Hospitals/Childcare/Caring Premises,5,0,,551063,0,,50.60219500000000,50768,090,envhealth@weymouth.gov.uk,Weymouth and Portland,http://www.dorsetforyou.com,-2.46485900000000,DT4 9QX,2014-10-29,fhrs_5_en-GB,5,,FHRS,0
316253,,71 Portland Road,,Weymouth,Hing's Kitchen,Takeaway/sandwich shop,7844,5,,558435,5,,50.59462700000000,52520,090,envhealth@weymouth.gov.uk,Weymouth and Portland,http://www.dorsetforyou.com,-2.47504200000000,DT4 9BE,2013-05-16,fhrs_5_en-GB,5,,FHRS,5
316254,H M Prison,The Verne,,Portland,HM Prison The Verne & Industrial Unit,Restaurant/Cafe/Canteen,1,0,,306623,0,,50.56153300000000,39122,090,envhealth@weymouth.gov.uk,Weymouth and Portland,http://www.dorsetforyou.com,-2.43589800000000,DT5 1EQ,2013-08-22,fhrs_5_en-GB,5,,FHRS,5
316255,Hm Yoi,The Grove,,Portland,HM Young Offenders Institution,Restaurant/Cafe/Canteen,1,0,,306688,0,,50.54839100000000,7305,090,envhealth@weymouth.gov.uk,Weymouth and Portland,http://www.dorsetforyou.com,-2.43460500000000,DT5 1DS,2013-08-14,fhrs_5_en-GB,5,,FHRS,0
316256,,Cross Road,,Weymouth,Holy Trinity Primary School,School/college/university,7845,0,,306677,0,,50.60219500000000,6415,090,envhealth@weymouth.gov.uk,Weymouth and Portland,http://www.dorsetforyou.com,-2.46485900000000,DT4 9QX,2014-01-23,fhrs_5_en-GB,5,,FHRS,5
316257,,167 Fortuneswell,,Portland,Hot Dog Man,Mobile caterer,7846,5,,688239,5,,50.56093300000000,52788,090,envhealth@weymouth.gov.uk,Weymouth and Portland,http://www.dorsetforyou.com,-2.44490000000000,DT5 1LU,2014-07-14,fhrs_5_en-GB,5,,FHRS,5
316258,,,,,Hot Dog Van,Mobile caterer,7846,5,,306571,5,,,38536,090,envhealth@weymouth.gov.uk,Weymouth and Portland,http://www.dorsetforyou.com,,,2013-08-02,fhrs_5_en-GB,5,,FHRS,5
316259,Hotel Central,15-19 Maiden Street,,Weymouth,Hotel Central,Restaurant/Cafe/Canteen,1,0,,306691,0,,50.60919100000000,7570,090,envhealth@weymouth.gov.uk,Weymouth and Portland,http://www.dorsetforyou.com,-2.45365100000000,DT4 8BB,2013-10-29,fhrs_5_en-GB,5,,FHRS,0
316260,Hotel Kinley,98 The Esplanade,,Weymouth,Hotel Kinley,Hotel/bed & breakfast/guest house,7842,5,,306430,5,,50.61392200000000,33231,090,envhealth@weymouth.gov.uk,Weymouth and Portland,http://www.dorsetforyou.com,-2.45337100000000,DT4 7AT,2012-03-07,fhrs_5_en-GB,5,,FHRS,5
316261,Hotel Norfolk,125-126 The Esplanade,,Weymouth,Hotel Norfolk,Hotel/bed & breakfast/guest house,7842,0,,306444,0,,50.61567000000000,33293,090,envhealth@weymouth.gov.uk,Weymouth and Portland,http://www.dorsetforyou.com,-2.45252600000000,DT4 7EH,2014-03-05,fhrs_5_en-GB,5,,FHRS,5
316262,Rembrandt Hotel,12-18 Dorchester Road,,Weymouth,Hotel Rembrandt,Hotel/bed & breakfast/guest house,7842,0,,306470,0,,50.62227600000000,35622,090,envhealth@weymouth.gov.uk,Weymouth and Portland,http://www.dorsetforyou.com,-2.45363500000000,DT4 7JU,2014-01-07,fhrs_5_en-GB,5,,FHRS,5
316263,,8 Reforne,,Portland,Ian Burden,Retailers - other,4613,5,,306456,5,,,35467,090,envhealth@weymouth.gov.uk,Weymouth and Portland,http://www.dorsetforyou.com,,,2014-07-22,fhrs_5_en-GB,5,,FHRS,5
316264,Brewers Quay,Hope Square,,Weymouth,IL Porto Restaurant,Restaurant/Cafe/Canteen,1,20,,579208,15,,50.60550000000000,8047,090,envhealth@weymouth.gov.uk,Weymouth and Portland,http://www.dorsetforyou.com,-2.45244200000000,DT4 8TR,2014-09-10,fhrs_1_en-GB,1,,FHRS,15
316265,Ingleside Retirement Home,648 Dorchester Road,,Weymouth,Ingleside Residential Home,Hospitals/Childcare/Caring Premises,5,5,,306385,10,,50.65560600000000,21103,090,envhealth@weymouth.gov.uk,Weymouth and Portland,http://www.dorsetforyou.com,-2.46888100000000,DT3 5LG,2013-10-11,fhrs_4_en-GB,4,,FHRS,5
316266,,2 Westwey Road,,Weymouth,Interserve,Restaurant/Cafe/Canteen,1,0,,306451,0,,50.60949700000000,34677,090,envhealth@weymouth.gov.uk,Weymouth and Portland,http://www.dorsetforyou.com,-2.46052200000000,DT4 8SU,2013-10-11,fhrs_5_en-GB,5,,FHRS,0
316267,Ipaca Osprey Quay Campus,Lerret Road,,Portland,Isle of Portland Aldridge Community Academy,Restaurant/Cafe/Canteen,1,5,,589050,0,,,51700,090,envhealth@weymouth.gov.uk,Weymouth and Portland,http://www.dorsetforyou.com,,DT5 1FN,2013-08-04,fhrs_5_en-GB,5,,FHRS,0
316268,,23a King Street,,Weymouth,Istanbul Kebab House,Takeaway/sandwich shop,7844,5,,631389,0,,50.61456800000000,52527,090,envhealth@weymouth.gov.uk,Weymouth and Portland,http://www.dorsetforyou.com,-2.45385800000000,DT4 7BH,2014-01-22,fhrs_4_en-GB,4,,FHRS,10
316269,,3 Great George Street,,Weymouth,Jacks Cafe,Restaurant/Cafe/Canteen,1,10,,722258,5,,50.61138000000000,52873,090,envhealth@weymouth.gov.uk,Weymouth and Portland,http://www.dorsetforyou.com,-2.45514200000000,DT4 8NN,2014-11-24,fhrs_4_en-GB,4,,FHRS,5
316270,,77 Fortuneswell,,Portland,Jackson Gallery,Restaurant/Cafe/Canteen,1,0,,404176,5,,50.56003900000000,37676,090,envhealth@weymouth.gov.uk,Weymouth and Portland,http://www.dorsetforyou.com,-2.44350800000000,DT5 1LY,2013-12-05,fhrs_5_en-GB,5,,FHRS,0
316271,,4a King Street,,Weymouth,Jade Garden,Takeaway/sandwich shop,7844,10,,306615,10,,50.61456800000000,39090,090,envhealth@weymouth.gov.uk,Weymouth and Portland,http://www.dorsetforyou.com,-2.45385800000000,DT4 7BH,2015-01-14,fhrs_3_en-GB,3,,FHRS,10
316272,H M Prison,The Verne,,Portland,Jailhouse Cafe,Restaurant/Cafe/Canteen,1,5,,465792,5,,50.56153300000000,39453,090,envhealth@weymouth.gov.uk,Weymouth and Portland,http://www.dorsetforyou.com,-2.43589800000000,DT5 1EQ,2014-09-15,fhrs_5_en-GB,5,,FHRS,5
316273,,121 Dorchester Road,,Weymouth,Jasmine,Takeaway/sandwich shop,7844,,,643962,,,50.62428800000000,52746,090,envhealth@weymouth.gov.uk,Weymouth and Portland,http://www.dorsetforyou.com,-2.45652500000000,DT4 7LA,2014-12-05,fhrs_5_en-GB,5,,FHRS,
316274,The Garden Centre,Littlemoor Road,,Weymouth,Java Cafe,Restaurant/Cafe/Canteen,1,0,,306601,0,,50.64572900000000,39035,090,envhealth@weymouth.gov.uk,Weymouth and Portland,http://www.dorsetforyou.com,-2.43963300000000,DT3 6AD,2013-11-12,fhrs_5_en-GB,5,,FHRS,5
316275,The John Gregory P H,113 Radipole Lane,,Weymouth,John Gregory,Pub/bar/nightclub,7843,5,,306559,5,,50.62452100000000,37469,090,envhealth@weymouth.gov.uk,Weymouth and Portland,http://www.dorsetforyou.com,-2.47688400000000,DT4 9SS,2014-11-04,fhrs_5_en-GB,5,,FHRS,5
316276,,,,,Jurassic Seafood,Mobile caterer,7846,10,,489723,5,,,31484,090,envhealth@weymouth.gov.uk,Weymouth and Portland,http://www.dorsetforyou.com,,,2014-07-17,fhrs_4_en-GB,4,,FHRS,5
316277,,2b Jubilee Close,,Weymouth,KFC,Restaurant/Cafe/Canteen,1,0,,306722,0,,50.61715300000000,9200,090,envhealth@weymouth.gov.uk,Weymouth and Portland,http://www.dorsetforyou.com,-2.45740200000000,DT4 7BG,2014-05-09,fhrs_5_en-GB,5,,FHRS,5
316278,,111 Portland Road,,Weymouth,Khazana,Restaurant/Cafe/Canteen,1,5,,306494,5,,50.59283300000000,35823,090,envhealth@weymouth.gov.uk,Weymouth and Portland,http://www.dorsetforyou.com,-2.47402100000000,DT4 9BG,2014-03-04,fhrs_5_en-GB,5,,FHRS,5
316279,Kimberley Guest House,16 Kirtleton Avenue,,Weymouth,Kimberley Guest House,Hotel/bed & breakfast/guest house,7842,0,,306393,5,,50.62073600000000,25153,090,envhealth@weymouth.gov.uk,Weymouth and Portland,http://www.dorsetforyou.com,-2.45420000000000,DT4 7PT,2014-01-22,fhrs_5_en-GB,5,,FHRS,0
316280,,54 Park Street,,Weymouth,King Balti,Takeaway/sandwich shop,7844,5,,306614,5,,50.61345800000000,39089,090,envhealth@weymouth.gov.uk,Weymouth and Portland,http://www.dorsetforyou.com,-2.45486500000000,DT4 7DF,2015-01-14,fhrs_4_en-GB,4,,FHRS,10
316281,Big Chef,100 The Esplanade,,Weymouth,King Edwards,Restaurant/Cafe/Canteen,1,5,,306718,5,,50.61392200000000,8957,090,envhealth@weymouth.gov.uk,Weymouth and Portland,http://www.dorsetforyou.com,-2.45337100000000,DT4 7AT,2013-07-17,fhrs_5_en-GB,5,,FHRS,0
316282,Kingsley Court Residential Hom,28 Dorchester Road,,Weymouth,Kingsley Court Residential Home,Hospitals/Childcare/Caring Premises,5,0,,306379,0,,50.62227600000000,20569,090,envhealth@weymouth.gov.uk,Weymouth and Portland,http://www.dorsetforyou.com,-2.45363500000000,DT4 7JU,2014-02-20,fhrs_5_en-GB,5,,FHRS,5
316283,,19 Trinity Road,,Weymouth,La Casa Espanola,Restaurant/Cafe/Canteen,1,10,,715130,5,,50.60678500000000,52818,090,envhealth@weymouth.gov.uk,Weymouth and Portland,http://www.dorsetforyou.com,-2.45501200000000,DT4 8TJ,2014-10-24,fhrs_4_en-GB,4,,FHRS,5
316284,Langham Hotel,130 The Esplanade,,Weymouth,Langham Hotel,Hotel/bed & breakfast/guest house,7842,5,,306437,5,,50.61635500000000,33278,090,envhealth@weymouth.gov.uk,Weymouth and Portland,http://www.dorsetforyou.com,-2.45223600000000,DT4 7EX,2012-10-10,fhrs_4_en-GB,4,,FHRS,10
316285,,19 St Alban Street,,Weymouth,Lazy Lunches,Restaurant/Cafe/Canteen,1,5,,722255,5,,50.60891300000000,52823,090,envhealth@weymouth.gov.uk,Weymouth and Portland,http://www.dorsetforyou.com,-2.45340800000000,DT4 8BZ,2014-11-13,fhrs_5_en-GB,5,,FHRS,0
316286,The Leam Hotel,102-103 The Esplanade,,Weymouth,Leam Hotel,Hotel/bed & breakfast/guest house,7842,5,,306694,5,,50.61392200000000,7762,090,envhealth@weymouth.gov.uk,Weymouth and Portland,http://www.dorsetforyou.com,-2.45337100000000,DT4 7AT,2013-10-25,fhrs_5_en-GB,5,,FHRS,5
316287,Osprey Leisure Centre,Castletown,,Portland,Legacy Cafe,Restaurant/Cafe/Canteen,1,5,,709587,5,,50.56809900000000,52834,090,envhealth@weymouth.gov.uk,Weymouth and Portland,http://www.dorsetforyou.com,-2.44282100000000,DT5 1BD,2014-09-30,fhrs_4_en-GB,4,,FHRS,10
316288,Legh House,117 Rylands Lane,,Weymouth,Legh House,Hospitals/Childcare/Caring Premises,5,5,,306406,5,,50.59762800000000,30821,090,envhealth@weymouth.gov.uk,Weymouth and Portland,http://www.dorsetforyou.com,-2.47139900000000,DT4 9QB,2014-06-19,fhrs_4_en-GB,4,,FHRS,10
316289,,3 Cranford Avenue,,Weymouth,Leonard Cheshire Residential Home,Hospitals/Childcare/Caring Premises,5,0,,306377,5,,50.62355600000000,19843,090,envhealth@weymouth.gov.uk,Weymouth and Portland,http://www.dorsetforyou.com,-2.45271500000000,DT4 7TN,2014-04-11,fhrs_5_en-GB,5,,FHRS,0
316290,Conifers Primary School,Radipole Lane,,Weymouth,Little Firs Nursery,Restaurant/Cafe/Canteen,1,5,,306588,0,,,38974,090,envhealth@weymouth.gov.uk,Weymouth and Portland,http://www.dorsetforyou.com,,,2014-01-08,fhrs_5_en-GB,5,,FHRS,5
316291,,93 Weston Road,,Portland,L'n'O's,Restaurant/Cafe/Canteen,1,5,,306354,5,,50.53914600000000,14417,090,envhealth@weymouth.gov.uk,Weymouth and Portland,http://www.dorsetforyou.com,-2.44414400000000,DT5 2DA,2014-02-05,fhrs_4_en-GB,4,,FHRS,10
316292,Lobster Pot Cafe,Portland Bill Road,,Portland,Lobster Pot,Restaurant/Cafe/Canteen,1,5,,306671,0,,50.51767500000000,6019,090,envhealth@weymouth.gov.uk,Weymouth and Portland,http://www.dorsetforyou.com,-2.45464800000000,DT5 2JT,2014-03-05,fhrs_5_en-GB,5,,FHRS,0
316293,Lookout Cafe,Bowleaze Coveway,,Weymouth,Lookout Cafe,Restaurant/Cafe/Canteen,1,5,,306531,5,,50.63698000000000,36365,090,envhealth@weymouth.gov.uk,Weymouth and Portland,http://www.dorsetforyou.com,-2.42712200000000,DT3 6PL,2013-10-01,fhrs_5_en-GB,5,,FHRS,5
316294,,2 School Street,,Weymouth,Loose Moose Deli Company,Restaurant/Cafe/Canteen,1,5,,306500,10,,50.61079600000000,35870,090,envhealth@weymouth.gov.uk,Weymouth and Portland,http://www.dorsetforyou.com,-2.45486700000000,DT4 8NH,2014-07-25,fhrs_3_en-GB,3,,FHRS,10
316295,,35 Westham Road,,Melcombe Regis,Lunch Box,Takeaway/sandwich shop,7844,10,,595940,10,,50.61191900000000,52570,090,envhealth@weymouth.gov.uk,Weymouth and Portland,http://www.dorsetforyou.com,-2.45511900000000,DT4 8NU,2013-10-02,fhrs_3_en-GB,3,,FHRS,5
316296,,208 Portland Road,,Weymouth,Lyndale Londis,Retailers - other,4613,5,,306399,5,,50.58731600000000,29130,090,envhealth@weymouth.gov.uk,Weymouth and Portland,http://www.dorsetforyou.com,-2.47282100000000,DT4 9AF,2014-02-07,fhrs_5_en-GB,5,,FHRS,5
316297,,,,,Mad Mitch Whippy,Mobile caterer,7846,5,,433632,5,,,12726,090,envhealth@weymouth.gov.uk,Weymouth and Portland,http://www.dorsetforyou.com,,,2014-04-22,fhrs_5_en-GB,5,,FHRS,5
316298,Mallams Restaurant,5 Trinity Road,,Weymouth,Mallams at the Quay,Restaurant/Cafe/Canteen,1,5,,306712,0,,50.60678500000000,8681,090,envhealth@weymouth.gov.uk,Weymouth and Portland,http://www.dorsetforyou.com,-2.45501200000000,DT4 8TJ,2013-12-09,fhrs_5_en-GB,5,,FHRS,0
316299,Ground Floor Restaurant,46 St Mary Street,,Weymouth,Manbo's,Restaurant/Cafe/Canteen,1,5,,306648,5,,50.60809100000000,39311,090,envhealth@weymouth.gov.uk,Weymouth and Portland,http://www.dorsetforyou.com,-2.45427600000000,DT4 8PU,2013-11-05,fhrs_5_en-GB,5,,FHRS,5
316300,Marden Guest House,8 Abbotsbury Road,,Weymouth,Marden House,Hotel/bed & breakfast/guest house,7842,5,,324393,0,,50.61203600000000,14947,090,envhealth@weymouth.gov.uk,Weymouth and Portland,http://www.dorsetforyou.com,-2.46200300000000,DT4 0AE,2013-11-28,fhrs_5_en-GB,5,,FHRS,0
316301,Marina Court Hotel,142 The Esplanade,,Weymouth,Marina Court Hotel,Hotel/bed & breakfast/guest house,7842,5,,306440,5,,50.61744500000000,33284,090,envhealth@weymouth.gov.uk,Weymouth and Portland,http://www.dorsetforyou.com,-2.45169500000000,DT4 7PB,2013-04-22,fhrs_5_en-GB,5,,FHRS,5
316302,,89 The Esplanade,,Weymouth,Mario's,Restaurant/Cafe/Canteen,1,5,,722256,5,,50.61392200000000,52857,090,envhealth@weymouth.gov.uk,Weymouth and Portland,http://www.dorsetforyou.com,-2.45337100000000,DT4 7AT,2014-11-18,fhrs_5_en-GB,5,,FHRS,5
316303,Marks And Spencer,4-8 St Mary Street,,Weymouth,Marks and Spencer Plc,Retailers - supermarkets/hypermarkets,7840,0,,306548,0,,50.61094400000000,37140,090,envhealth@weymouth.gov.uk,Weymouth and Portland,http://www.dorsetforyou.com,-2.45371000000000,DT4 8PF,2013-11-19,fhrs_5_en-GB,5,,FHRS,0
316304,,46 St Thomas Street,,Weymouth,Marlboro Restaurant,Restaurant/Cafe/Canteen,1,5,,306674,5,,50.60761000000000,6254,090,envhealth@weymouth.gov.uk,Weymouth and Portland,http://www.dorsetforyou.com,-2.45560000000000,DT4 8AW,2014-04-19,fhrs_4_en-GB,4,,FHRS,10
316305,,46 St Thomas Street,,Weymouth,Marlboro Restaurant - (mobile),Mobile caterer,7846,5,,584393,5,,50.60761000000000,52541,090,envhealth@weymouth.gov.uk,Weymouth and Portland,http://www.dorsetforyou.com,-2.45560000000000,DT4 8AW,2013-08-21,fhrs_5_en-GB,5,,FHRS,5
316306,4 Colwell Shopping Centre,School Street,,Weymouth,Marshal's Dippy Donuts,Restaurant/Cafe/Canteen,1,5,,688240,5,,50.61063300000000,52795,090,envhealth@weymouth.gov.uk,Weymouth and Portland,http://www.dorsetforyou.com,-2.45524700000000,DT4 8NJ,2014-07-14,fhrs_4_en-GB,4,,FHRS,10
316307,Masonic Hall,Victoria Square,,Portland,Masonic Hall (Portland),Restaurant/Cafe/Canteen,1,0,,306686,0,,,7018,090,envhealth@weymouth.gov.uk,Weymouth and Portland,http://www.dorsetforyou.com,,,2013-09-24,fhrs_5_en-GB,5,,FHRS,0
316308,Masonic Hall Complex,School Street,,Weymouth,Masonic Hall (Weymouth),Pub/bar/nightclub,7843,5,,306553,5,,50.61079600000000,37337,090,envhealth@weymouth.gov.uk,Weymouth and Portland,http://www.dorsetforyou.com,-2.45486700000000,DT4 8NH,2014-04-15,fhrs_4_en-GB,4,,FHRS,10
316309,,110 Portland Road,,Weymouth,Mayflower Takeaway,Takeaway/sandwich shop,7844,5,,306398,5,,50.59166200000000,29030,090,envhealth@weymouth.gov.uk,Weymouth and Portland,http://www.dorsetforyou.com,-2.47434800000000,DT4 9AD,2015-02-04,fhrs_5_en-GB,5,,FHRS,5
316310,,1 Jubilee Close,,Weymouth,McDonalds,Restaurant/Cafe/Canteen,1,0,,306695,0,,,7973,090,envhealth@weymouth.gov.uk,Weymouth and Portland,http://www.dorsetforyou.com,,,2014-05-01,fhrs_5_en-GB,5,,FHRS,0
316311,,72-73 St Mary Street,,Weymouth,McDonalds Restaurant Ltd,Restaurant/Cafe/Canteen,1,0,,306729,0,,50.60938600000000,9343,090,envhealth@weymouth.gov.uk,Weymouth and Portland,http://www.dorsetforyou.com,-2.45434500000000,DT4 8PJ,2013-11-15,fhrs_5_en-GB,5,,FHRS,5
316312,,1 St Mary Street,,Weymouth,Mejusa,Restaurant/Cafe/Canteen,1,5,,668011,5,,50.61067500000000,52757,090,envhealth@weymouth.gov.uk,Weymouth and Portland,http://www.dorsetforyou.com,-2.45373600000000,DT4 8PB,2014-06-11,fhrs_5_en-GB,5,,FHRS,5
316313,,195 Wakeham,,Portland,Mermaid House Tea Gardens,Restaurant/Cafe/Canteen,1,5,,306567,0,,50.54053800000000,37738,090,envhealth@weymouth.gov.uk,Weymouth and Portland,http://www.dorsetforyou.com,-2.43014400000000,DT5 1HS,2014-05-28,fhrs_5_en-GB,5,,FHRS,0
316314,Lakeside Superbowl,St Nicholas Street,,Weymouth,MFA Superbowl,Restaurant/Cafe/Canteen,1,5,,306545,5,,50.60794900000000,37061,090,envhealth@weymouth.gov.uk,Weymouth and Portland,http://www.dorsetforyou.com,-2.45631000000000,DT4 8AD,2014-06-12,fhrs_5_en-GB,5,,FHRS,5
316315,,86 St Thomas Street,,Weymouth,Ming Wah,Restaurant/Cafe/Canteen,1,5,,306417,5,,50.61056300000000,32332,090,envhealth@weymouth.gov.uk,Weymouth and Portland,http://www.dorsetforyou.com,-2.45478000000000,DT4 8EN,2013-10-11,fhrs_5_en-GB,5,,FHRS,5
316316,"Units C1 And C4, Easton Shopping Centre",Easton Square,,Portland,Miss Piggy's Pantry,Takeaway/sandwich shop,7844,5,,637032,5,,50.54538400000000,52706,090,envhealth@weymouth.gov.uk,Weymouth and Portland,http://www.dorsetforyou.com,-2.43549500000000,DT5 1EB,2014-02-13,fhrs_5_en-GB,5,,FHRS,5
316317,,15 Lennox Street,,Weymouth,Mister Chips,Takeaway/sandwich shop,7844,10,,611123,10,,50.61852100000000,52702,090,envhealth@weymouth.gov.uk,Weymouth and Portland,http://www.dorsetforyou.com,-2.45474400000000,DT4 7HE,2013-10-31,fhrs_3_en-GB,3,,FHRS,5
316318,,85 The Esplanade,,Weymouth,Moby Dicks,Pub/bar/nightclub,7843,5,,306428,5,,50.61392200000000,33215,090,envhealth@weymouth.gov.uk,Weymouth and Portland,http://www.dorsetforyou.com,-2.45337100000000,DT4 7AT,2014-05-29,fhrs_5_en-GB,5,,FHRS,5
316319,Mon Ami Hotel,143-145 The Esplanade,,Weymouth,Mon Ami Hotel,Hotel/bed & breakfast/guest house,7842,5,,306445,5,,50.61567000000000,33294,090,envhealth@weymouth.gov.uk,Weymouth and Portland,http://www.dorsetforyou.com,-2.45252600000000,DT4 7EH,2013-11-20,fhrs_5_en-GB,5,,FHRS,5
316320,,2 Hope Square,,Weymouth,Monkey's Fist,Restaurant/Cafe/Canteen,1,10,,733263,5,,50.60550000000000,52883,090,envhealth@weymouth.gov.uk,Weymouth and Portland,http://www.dorsetforyou.com,-2.45244200000000,DT4 8TR,2015-01-16,fhrs_4_en-GB,4,,FHRS,5
316321,Supermarket Site,244 Dorchester Road,,Weymouth,Morrisons,Retailers - supermarkets/hypermarkets,7840,0,,306339,0,,50.63529900000000,10342,090,envhealth@weymouth.gov.uk,Weymouth and Portland,http://www.dorsetforyou.com,-2.46681200000000,DT3 5AX,2013-03-27,fhrs_4_en-GB,4,,FHRS,10
316322,,13 St Thomas Street,,Weymouth,Mortimers,Retailers - other,4613,0,,306508,0,,50.61060100000000,35997,090,envhealth@weymouth.gov.uk,Weymouth and Portland,http://www.dorsetforyou.com,-2.45425800000000,DT4 8EW,2014-02-20,fhrs_5_en-GB,5,,FHRS,0
316323,,21 Mount Pleasant Avenue South,,Weymouth,Mount Pleasant Residential Home,Hospitals/Childcare/Caring Premises,5,5,,306583,5,,50.63240900000000,38951,090,envhealth@weymouth.gov.uk,Weymouth and Portland,http://www.dorsetforyou.com,-2.46780200000000,DT3 5JF,2014-05-20,fhrs_5_en-GB,5,,FHRS,0
316324,,17 Fortuneswell,,Portland,Mr Mushy's Diner,Mobile caterer,7846,5,,306565,5,,50.55884400000000,37667,090,envhealth@weymouth.gov.uk,Weymouth and Portland,http://www.dorsetforyou.com,-2.44071500000000,DT5 1LP,2013-11-07,fhrs_5_en-GB,5,,FHRS,5
316325,,1 St Alban Street,,Weymouth,Muffins,Restaurant/Cafe/Canteen,1,5,,306620,5,,50.60891300000000,39107,090,envhealth@weymouth.gov.uk,Weymouth and Portland,http://www.dorsetforyou.com,-2.45340800000000,DT4 8BZ,2014-09-02,fhrs_5_en-GB,5,,FHRS,5
316326,"Sc2 Opposite Gloucester Lodge Adjacent Steps, Weymouth Beach",The Esplanade,,Weymouth,Mullins Bay Limited,Takeaway/sandwich shop,7844,5,,667472,5,,,52747,090,envhealth@weymouth.gov.uk,Weymouth and Portland,http://www.dorsetforyou.com,,,2014-04-09,fhrs_5_en-GB,5,,FHRS,0
316327,New Look House,Mercery Road,,Weymouth,New Look,Restaurant/Cafe/Canteen,1,0,,306724,0,,50.63365000000000,9215,090,envhealth@weymouth.gov.uk,Weymouth and Portland,http://www.dorsetforyou.com,-2.46094200000000,DT3 5HJ,2014-01-14,fhrs_5_en-GB,5,,FHRS,0
316328,Spa Stores,176 Dorchester Road,,Weymouth,"Nice ""N"" Spicy",Takeaway/sandwich shop,7844,,,306383,,,50.62974600000000,20762,090,envhealth@weymouth.gov.uk,Weymouth and Portland,http://www.dorsetforyou.com,-2.46121500000000,DT3 5HU,2013-10-21,fhrs_5_en-GB,5,,FHRS,
316329,,Barrack Road,,Weymouth,Nothe Cafe,Restaurant/Cafe/Canteen,1,5,,306460,5,,50.60513800000000,35560,090,envhealth@weymouth.gov.uk,Weymouth and Portland,http://www.dorsetforyou.com,-2.45070100000000,DT4 8UB,2014-03-04,fhrs_5_en-GB,5,,FHRS,5
316330,,4 Trinity Road,,Weymouth,Oasis Bistro,Restaurant/Cafe/Canteen,1,10,,637030,5,,,39489,090,envhealth@weymouth.gov.uk,Weymouth and Portland,http://www.dorsetforyou.com,,DT4 7TJ,2014-02-13,fhrs_4_en-GB,4,,FHRS,5
316331,,37 Chiswell,,Portland,Ocean Bay,Takeaway/sandwich shop,7844,5,,579207,5,,50.56119000000000,5318,090,envhealth@weymouth.gov.uk,Weymouth and Portland,http://www.dorsetforyou.com,-2.44830500000000,DT5 1AW,2013-07-17,fhrs_4_en-GB,4,,FHRS,10
316332,,125 Radipole Lane,,Weymouth,Ocean City Chinese Takeaway,Takeaway/sandwich shop,7844,5,,306499,5,,50.62452100000000,35859,090,envhealth@weymouth.gov.uk,Weymouth and Portland,http://www.dorsetforyou.com,-2.47688400000000,DT4 9SS,2013-07-10,fhrs_5_en-GB,5,,FHRS,5
316333,,7 Gordon Row,,Weymouth,Ocean Hay,Takeaway/sandwich shop,7844,5,,306477,0,,50.60550900000000,35670,090,envhealth@weymouth.gov.uk,Weymouth and Portland,http://www.dorsetforyou.com,-2.45704900000000,DT4 8LL,2013-11-27,fhrs_5_en-GB,5,,FHRS,5
316334,Weymouth Community Fire Station,Radipole Lane,,Weymouth,Oh Crumbs,Restaurant/Cafe/Canteen,1,0,,306645,0,,50.61257100000000,39243,090,envhealth@weymouth.gov.uk,Weymouth and Portland,http://www.dorsetforyou.com,-2.48100300000000,DT4 0QF,2013-09-17,fhrs_5_en-GB,5,,FHRS,5
316335,Old Rooms Inn,Cove Row,,Weymouth,Old Rooms Inn,Restaurant/Cafe/Canteen,1,0,,722254,0,,50.60631800000000,52804,090,envhealth@weymouth.gov.uk,Weymouth and Portland,http://www.dorsetforyou.com,-2.45242200000000,DT4 8TT,2014-11-14,fhrs_5_en-GB,5,,FHRS,5
316336,"Unit 6, Colwell Shopping Centre",School Street,,Weymouth,Only Foods & Sauces,Restaurant/Cafe/Canteen,1,5,,722257,5,,50.61063300000000,52859,090,envhealth@weymouth.gov.uk,Weymouth and Portland,http://www.dorsetforyou.com,-2.45524700000000,DT4 8NJ,2014-11-26,fhrs_4_en-GB,4,,FHRS,10
316337,Ground Floor Shop,182 Dorchester Road,,Weymouth,P R Howell Ltd,Retailers - other,4613,,,306411,,,50.62974600000000,3168,090,envhealth@weymouth.gov.uk,Weymouth and Portland,http://www.dorsetforyou.com,-2.46121500000000,DT3 5HU,2014-05-01,fhrs_5_en-GB,5,,FHRS,
316338,Royal Manor Arts College,Weston Road,,Portland,Pabulum Catering,School/college/university,7845,5,,595941,5,,50.54162600000000,52697,090,envhealth@weymouth.gov.uk,Weymouth and Portland,http://www.dorsetforyou.com,-2.44461900000000,DT5 2DB,2013-10-11,fhrs_5_en-GB,5,,FHRS,5
316339,Panorama Restaurant,39 The Esplanade,,Weymouth,Panorama Restaurant,Restaurant/Cafe/Canteen,1,0,,306579,0,,50.60952500000000,38930,090,envhealth@weymouth.gov.uk,Weymouth and Portland,http://www.dorsetforyou.com,-2.45323000000000,DT4 8DH,2013-10-29,fhrs_5_en-GB,5,,FHRS,0
316340,Pebbles Cafe,Greenhill,,Weymouth,Pebbles Cafe,Restaurant/Cafe/Canteen,1,10,,306478,5,,,35695,090,envhealth@weymouth.gov.uk,Weymouth and Portland,http://www.dorsetforyou.com,,DT4 7ST,2014-04-24,fhrs_3_en-GB,3,,FHRS,10
316341,,61 The Esplanade,,Weymouth,Peking Town,Takeaway/sandwich shop,7844,10,,306427,5,,50.61144900000000,33182,090,envhealth@weymouth.gov.uk,Weymouth and Portland,http://www.dorsetforyou.com,-2.45355900000000,DT4 8DE,2014-06-12,fhrs_4_en-GB,4,,FHRS,5
316342,Berth 5,Custom House Quay,,Weymouth,Peli-Canteen,Restaurant/Cafe/Canteen,1,5,,715131,5,,,52849,090,envhealth@weymouth.gov.uk,Weymouth and Portland,http://www.dorsetforyou.com,,,2014-11-10,fhrs_5_en-GB,5,,FHRS,5
316343,,43 Maiden Street,,Weymouth,Piccola Italia,Restaurant/Cafe/Canteen,1,5,,306396,5,,50.60820200000000,26616,090,envhealth@weymouth.gov.uk,Weymouth and Portland,http://www.dorsetforyou.com,-2.45372600000000,DT4 8AZ,2014-04-14,fhrs_5_en-GB,5,,FHRS,0
316344,Picknics,31 Maiden Street,,Weymouth,Picknics Ltd,Takeaway/sandwich shop,7844,10,,306656,5,,50.60858900000000,4686,090,envhealth@weymouth.gov.uk,Weymouth and Portland,http://www.dorsetforyou.com,-2.45363100000000,DT4 8BA,2013-10-02,fhrs_4_en-GB,4,,FHRS,5
316345,,,,,Piggin Perfect,Mobile caterer,7846,5,,555052,5,,,31092,090,envhealth@weymouth.gov.uk,Weymouth and Portland,http://www.dorsetforyou.com,,,2013-05-17,fhrs_5_en-GB,5,,FHRS,5
316346,,1 Hope Street,,Weymouth,Pilgrim House Trust,Restaurant/Cafe/Canteen,1,5,,536024,5,,50.60624900000000,39529,090,envhealth@weymouth.gov.uk,Weymouth and Portland,http://www.dorsetforyou.com,-2.45177100000000,DT4 8TU,2013-03-22,fhrs_4_en-GB,4,,FHRS,10
316347,,113a Dorchester Road,,Weymouth,Plan-It,Restaurant/Cafe/Canteen,1,10,,306473,10,,50.62313200000000,35629,090,envhealth@weymouth.gov.uk,Weymouth and Portland,http://www.dorsetforyou.com,-2.45538200000000,DT4 7JY,2014-03-06,fhrs_3_en-GB,3,,FHRS,10
316348,,61-63 Park Street,,Weymouth,Po Sun,Takeaway/sandwich shop,7844,10,,667474,10,,50.61411600000000,52774,090,envhealth@weymouth.gov.uk,Weymouth and Portland,http://www.dorsetforyou.com,-2.45457400000000,DT4 7DE,2014-05-15,fhrs_3_en-GB,3,,FHRS,10
316349,Portland Castle,Castle Road,,Portland,Portland Castle Tea Room,Restaurant/Cafe/Canteen,1,0,,306721,0,,50.56816600000000,9099,090,envhealth@weymouth.gov.uk,Weymouth and Portland,http://www.dorsetforyou.com,-2.44657800000000,DT5 1AZ,2014-10-09,fhrs_5_en-GB,5,,FHRS,0
316350,Portland Hospital,Castle Road,,Portland,Portland Community Hospital & Foylebank,Hospitals/Childcare/Caring Premises,5,0,,306564,0,,50.56587900000000,37585,090,envhealth@weymouth.gov.uk,Weymouth and Portland,http://www.dorsetforyou.com,-2.44483300000000,DT5 1AX,2013-10-21,fhrs_5_en-GB,5,,FHRS,0
316351,,40 Easton Street,,Portland,Portland Kebab,Restaurant/Cafe/Canteen,1,10,,465794,5,,50.54674000000000,39471,090,envhealth@weymouth.gov.uk,Weymouth and Portland,http://www.dorsetforyou.com,-2.43576100000000,DT5 1BT,2014-04-09,fhrs_4_en-GB,4,,FHRS,5
316352,Portland Lodge Hotel,Easton Lane,,Portland,Portland Lodge Ltd,Hotel/bed & breakfast/guest house,7842,5,,306717,5,,50.55205700000000,8860,090,envhealth@weymouth.gov.uk,Weymouth and Portland,http://www.dorsetforyou.com,-2.43771600000000,DT5 1BW,2014-05-28,fhrs_5_en-GB,5,,FHRS,5
316353,Market Site Off,Priory Road,,Portland,Portland Market Site,Takeaway/sandwich shop,7844,5,,306612,5,,,39080,090,envhealth@weymouth.gov.uk,Weymouth and Portland,http://www.dorsetforyou.com,,,2014-02-25,fhrs_5_en-GB,5,,FHRS,5
316354,,78 Fortuneswell,,Portland,Portland Pride,Retailers - other,4613,5,,521446,5,,50.55945000000000,37739,090,envhealth@weymouth.gov.uk,Weymouth and Portland,http://www.dorsetforyou.com,-2.44223200000000,DT5 1LZ,2013-02-25,fhrs_5_en-GB,5,,FHRS,5
316355,Drill Hall House,Easton Lane,,Portland,Portland Sculpture and Quarry Trust,Restaurant/Cafe/Canteen,1,0,,441290,5,,50.55205700000000,37639,090,envhealth@weymouth.gov.uk,Weymouth and Portland,http://www.dorsetforyou.com,-2.43771600000000,DT5 1BW,2012-07-24,fhrs_5_en-GB,5,,FHRS,5
316356,,42 Easton Square,,Portland,Portland Spice,Takeaway/sandwich shop,7844,10,,306343,10,,50.54542700000000,11529,090,envhealth@weymouth.gov.uk,Weymouth and Portland,http://www.dorsetforyou.com,-2.43576300000000,DT5 1BY,2014-02-27,fhrs_3_en-GB,3,,FHRS,10
316357,Hardy House,Castle Road,,Portland,Portland Youth Hostel,Restaurant/Cafe/Canteen,1,0,,306573,0,,50.56361600000000,38697,090,envhealth@weymouth.gov.uk,Weymouth and Portland,http://www.dorsetforyou.com,-2.44639300000000,DT5 1AU,2014-04-08,fhrs_4_en-GB,4,,FHRS,10
316358,,230 Preston Road,,Weymouth,Preston Fish & Chip Shop,Takeaway/sandwich shop,7844,0,,306496,0,,50.64644800000000,35835,090,envhealth@weymouth.gov.uk,Weymouth and Portland,http://www.dorsetforyou.com,-2.42036200000000,DT3 6BJ,2015-01-07,fhrs_5_en-GB,5,,FHRS,0
316359,Townbridge House,50 St Thomas Street,,Weymouth,Prezzo Plc,Restaurant/Cafe/Canteen,1,0,,306609,0,,,39059,090,envhealth@weymouth.gov.uk,Weymouth and Portland,http://www.dorsetforyou.com,,DT4 8AN,2014-04-02,fhrs_5_en-GB,5,,FHRS,5
316360,Primrose Lodge Residential Car,120-122 Dorchester Road,,Weymouth,Primrose Lodge,Hospitals/Childcare/Caring Premises,5,5,,306340,0,,50.62683500000000,10375,090,envhealth@weymouth.gov.uk,Weymouth and Portland,http://www.dorsetforyou.com,-2.45827400000000,DT4 7LG,2015-01-08,fhrs_5_en-GB,5,,FHRS,5
316361,Quiddles Beach Cafe,Esplanade,,Chiswell,Quiddles Beach Cafe,Restaurant/Cafe/Canteen,1,5,,306586,5,,50.55803700000000,38965,090,envhealth@weymouth.gov.uk,Weymouth and Portland,http://www.dorsetforyou.com,-2.44738500000000,DT5 1LN,2013-09-19,fhrs_5_en-GB,5,,FHRS,5
316362,,35 Straits,,Portland,Rays Fish & Chips,Takeaway/sandwich shop,7844,5,,306351,5,,50.54491900000000,13659,090,envhealth@weymouth.gov.uk,Weymouth and Portland,http://www.dorsetforyou.com,-2.43460100000000,DT5 1HG,2014-03-25,fhrs_5_en-GB,5,,FHRS,5
316363,Red Lion,Hope Square,,Weymouth,Red Lion,Pub/bar/nightclub,7843,5,,306693,5,,50.60550000000000,7758,090,envhealth@weymouth.gov.uk,Weymouth and Portland,http://www.dorsetforyou.com,-2.45244200000000,DT4 8TR,2014-01-17,fhrs_4_en-GB,4,,FHRS,10
316364,Redlands Sports Club (Includin,Dorchester Road,,Weymouth,Redlands Community Sports Hub,Pub/bar/nightclub,7843,5,,306475,5,,50.63984400000000,35646,090,envhealth@weymouth.gov.uk,Weymouth and Portland,http://www.dorsetforyou.com,-2.47040700000000,DT3 5AW,2014-02-21,fhrs_4_en-GB,4,,FHRS,10
316365,,60 Dorchester Road,,Weymouth,Regency Fish Bar,Takeaway/sandwich shop,7844,0,,306472,5,,50.62364600000000,35626,090,envhealth@weymouth.gov.uk,Weymouth and Portland,http://www.dorsetforyou.com,-2.45511900000000,DT4 7JZ,2014-11-07,fhrs_5_en-GB,5,,FHRS,0
316366,Hotel Rex,29-30 The Esplanade,,Weymouth,Rex Hotel,Hotel/bed & breakfast/guest house,7842,5,,306682,5,,50.60830600000000,6809,090,envhealth@weymouth.gov.uk,Weymouth and Portland,http://www.dorsetforyou.com,-2.45237000000000,DT4 8DN,2014-05-07,fhrs_5_en-GB,5,,FHRS,5
316367,Riviera Hotel,Bowleaze Coveway,,Weymouth,Riviera Hotel,Hotel/bed & breakfast/guest house,7842,,,306461,,,50.63635600000000,35572,090,envhealth@weymouth.gov.uk,Weymouth and Portland,http://www.dorsetforyou.com,-2.41822100000000,DT3 6PR,2014-09-16,fhrs_5_en-GB,5,,FHRS,
316368,Rodlands,4 Ullswater Crescent,,Weymouth,Rodlands,Hospitals/Childcare/Caring Premises,5,0,,306449,5,,50.62850700000000,33706,090,envhealth@weymouth.gov.uk,Weymouth and Portland,http://www.dorsetforyou.com,-2.46750800000000,DT3 5HE,2014-06-18,fhrs_5_en-GB,5,,FHRS,0
316369,,92 The Esplanade,,Weymouth,Rossis Ice Cream Parlour,Restaurant/Cafe/Canteen,1,10,,306519,5,,50.61392200000000,36068,090,envhealth@weymouth.gov.uk,Weymouth and Portland,http://www.dorsetforyou.com,-2.45337100000000,DT4 7AT,2014-06-04,fhrs_4_en-GB,4,,FHRS,5
316370,,9 St Alban Street,,Weymouth,Rowland's Patisserie,Retailers - other,4613,5,,306626,0,,50.60891300000000,39142,090,envhealth@weymouth.gov.uk,Weymouth and Portland,http://www.dorsetforyou.com,-2.45340800000000,DT4 8BZ,2013-06-04,fhrs_5_en-GB,5,,FHRS,0
316371,Royal Standard,700 Dorchester Road,,Weymouth,Royal Standard Public House,Restaurant/Cafe/Canteen,1,,,306341,,,50.66050200000000,10387,090,envhealth@weymouth.gov.uk,Weymouth and Portland,http://www.dorsetforyou.com,-2.46782600000000,DT3 5LA,2014-07-21,fhrs_4_en-GB,4,,FHRS,
316372,Old Castle Hotel,Sudan Road,,Weymouth,Ruan Thai Ltd,Restaurant/Cafe/Canteen,1,5,,306419,5,,50.59851200000000,32631,090,envhealth@weymouth.gov.uk,Weymouth and Portland,http://www.dorsetforyou.com,-2.46167200000000,DT4 9LB,2014-03-12,fhrs_4_en-GB,4,,FHRS,10
316373,The Sailors Return,1-2 St Nicholas Street,,Weymouth,Sailors Return Weymouth,Pub/bar/nightclub,7843,5,,357114,5,,,7577,090,envhealth@weymouth.gov.uk,Weymouth and Portland,http://www.dorsetforyou.com,,,2014-01-29,fhrs_5_en-GB,5,,FHRS,5
316374,Sainsburys,Mercery Road,,Weymouth,Sainsbury's Supermarkets Ltd,Retailers - supermarkets/hypermarkets,7840,0,,625060,0,,,50767,090,envhealth@weymouth.gov.uk,Weymouth and Portland,http://www.dorsetforyou.com,,DT3 5FA,2013-12-16,fhrs_5_en-GB,5,,FHRS,0
316375,,109a St Mary Street,,Weymouth,Sandcastle Cafe,Restaurant/Cafe/Canteen,1,5,,465795,5,,50.61067500000000,39473,090,envhealth@weymouth.gov.uk,Weymouth and Portland,http://www.dorsetforyou.com,-2.45373600000000,DT4 8PB,2014-04-23,fhrs_4_en-GB,4,,FHRS,10
316376,Kiosk And Premises,Old Castle Road,,Weymouth,Sandsfoot Cafe,Restaurant/Cafe/Canteen,1,5,,306731,5,,50.59614700000000,9677,090,envhealth@weymouth.gov.uk,Weymouth and Portland,http://www.dorsetforyou.com,-2.46172000000000,DT4 8QE,2014-02-25,fhrs_5_en-GB,5,,FHRS,5
316377,,The Esplanade,,Weymouth,SC4 - Opposite Marks & Spencer,Restaurant/Cafe/Canteen,1,10,,306647,5,,,39249,090,envhealth@weymouth.gov.uk,Weymouth and Portland,http://www.dorsetforyou.com,,,2013-05-21,fhrs_4_en-GB,4,,FHRS,5
316378,Weyvalley Campus,Dorchester Road,,Weymouth,Scallywags Childcare Centre Ltd,School/college/university,7845,0,,306334,0,,,1002,090,envhealth@weymouth.gov.uk,Weymouth and Portland,http://www.dorsetforyou.com,,,2013-10-31,fhrs_5_en-GB,5,,FHRS,0
316379,,10 Gloucester Street,,Weymouth,Scottish Country Kitchen,Restaurant/Cafe/Canteen,1,10,,637033,5,,50.61288300000000,52728,090,envhealth@weymouth.gov.uk,Weymouth and Portland,http://www.dorsetforyou.com,-2.45477500000000,DT4 7AP,2014-02-05,fhrs_4_en-GB,4,,FHRS,5
316380,,,,,Scran Van,Mobile caterer,7846,10,,589048,10,,,28069,090,envhealth@weymouth.gov.uk,Weymouth and Portland,http://www.dorsetforyou.com,,,2013-09-04,fhrs_3_en-GB,3,,FHRS,10
316381,,2 King Street,,Weymouth,Sea Chef,Takeaway/sandwich shop,7844,0,,306481,0,,50.61444400000000,35727,090,envhealth@weymouth.gov.uk,Weymouth and Portland,http://www.dorsetforyou.com,-2.45340400000000,DT4 7BQ,2014-09-15,fhrs_5_en-GB,5,,FHRS,0
316382,,59 The Esplanade,,Weymouth,Seacroft Restaurant,Restaurant/Cafe/Canteen,1,0,,306426,5,,50.61122400000000,33181,090,envhealth@weymouth.gov.uk,Weymouth and Portland,http://www.dorsetforyou.com,-2.45351500000000,DT4 8DF,2013-06-10,fhrs_5_en-GB,5,,FHRS,5
316383,,13a Cove Street,,Weymouth,Seas the Moment,Retailers - other,4613,5,,306465,0,,50.60603800000000,35602,090,envhealth@weymouth.gov.uk,Weymouth and Portland,http://www.dorsetforyou.com,-2.45277300000000,DT4 8TS,2014-04-23,fhrs_5_en-GB,5,,FHRS,0
316384,Greenhill Gardens,32a Greenhill,,Weymouth,Seascape,Restaurant/Cafe/Canteen,1,5,,306710,0,,50.61914200000000,8624,090,envhealth@weymouth.gov.uk,Weymouth and Portland,http://www.dorsetforyou.com,-2.45000100000000,DT4 7SG,2014-08-27,fhrs_5_en-GB,5,,FHRS,0
316385,Seaview Holiday Park,Preston Road,,Weymouth,Seaview Holiday Park,Restaurant/Cafe/Canteen,1,5,,306699,5,,50.64487000000000,8065,090,envhealth@weymouth.gov.uk,Weymouth and Portland,http://www.dorsetforyou.com,-2.41392700000000,DT3 6DZ,2014-04-15,fhrs_5_en-GB,5,,FHRS,5
316386,,59 St Mary Street,,Weymouth,Sense Wine Bar and Bistro,Restaurant/Cafe/Canteen,1,5,,306505,5,,50.60837800000000,35946,090,envhealth@weymouth.gov.uk,Weymouth and Portland,http://www.dorsetforyou.com,-2.45460400000000,DT4 8PP,2014-05-29,fhrs_4_en-GB,4,,FHRS,10
316387,S G T Bun Bakery,1 Lanehouse Rocks Road,,Weymouth,Sergeant Bun Bakery,Manufacturers/packers,7839,5,,306372,5,,50.60906000000000,18910,090,envhealth@weymouth.gov.uk,Weymouth and Portland,http://www.dorsetforyou.com,-2.48612600000000,DT4 9DQ,2014-01-15,fhrs_4_en-GB,4,,FHRS,10
316388,,9 Custom House Quay,,Weymouth,Sharkys of Weymouth Ltd,Restaurant/Cafe/Canteen,1,10,,306466,5,,50.60759600000000,35614,090,envhealth@weymouth.gov.uk,Weymouth and Portland,http://www.dorsetforyou.com,-2.45212300000000,DT4 8BG,2014-01-22,fhrs_3_en-GB,3,,FHRS,10
316389,,32 St Mary Street,,Weymouth,Sophia's Kitchen,Restaurant/Cafe/Canteen,1,5,,617172,5,,50.60929800000000,52705,090,envhealth@weymouth.gov.uk,Weymouth and Portland,http://www.dorsetforyou.com,-2.45394900000000,DT4 8PN,2013-11-15,fhrs_5_en-GB,5,,FHRS,5
316390,,17-18 St Edmund Street,,Weymouth,Spar (DPM Stores Ltd),Retailers - other,4613,5,,688242,5,,50.60797200000000,52798,090,envhealth@weymouth.gov.uk,Weymouth and Portland,http://www.dorsetforyou.com,-2.45481200000000,DT4 8AR,2014-07-15,fhrs_5_en-GB,5,,FHRS,5
316391,Baileys Store,201 Preston Road,,Weymouth,Spar Shop,Retailers - other,4613,5,,306679,5,,50.64551000000000,6619,090,envhealth@weymouth.gov.uk,Weymouth and Portland,http://www.dorsetforyou.com,-2.42584100000000,DT3 6BG,2014-01-28,fhrs_5_en-GB,5,,FHRS,5
316392,The Spyglass Inn,Bowleaze Coveway,,Weymouth,Spyglass Inn,Pub/bar/nightclub,7843,5,,631388,5,,50.63509800000000,52523,090,envhealth@weymouth.gov.uk,Weymouth and Portland,http://www.dorsetforyou.com,-2.43042700000000,DT3 6PN,2014-01-09,fhrs_4_en-GB,4,,FHRS,10
316393,St Aldhelms Church,Spa Road,,Weymouth,St Aldhelm's Church,Restaurant/Cafe/Canteen,1,0,,306526,0,,50.62991900000000,36129,090,envhealth@weymouth.gov.uk,Weymouth and Portland,http://www.dorsetforyou.com,-2.46514700000000,DT3 5EW,2014-07-17,fhrs_5_en-GB,5,,FHRS,0
316394,St Andrews C Of E Primary Scho,Littlemoor Road,,Weymouth,St Andrew's CE VA Primary School,School/college/university,7845,0,,306532,5,,50.64489900000000,36372,090,envhealth@weymouth.gov.uk,Weymouth and Portland,http://www.dorsetforyou.com,-2.43541100000000,DT3 6AA,2014-03-18,fhrs_5_en-GB,5,,FHRS,5
316395,St Johns C Of E Primary School,Coombe Avenue,,Weymouth,St John's Primary School & Nursery,School/college/university,7845,5,,306544,5,,50.62610000000000,37051,090,envhealth@weymouth.gov.uk,Weymouth and Portland,http://www.dorsetforyou.com,-2.45074600000000,DT4 7TP,2013-11-04,fhrs_5_en-GB,5,,FHRS,5
316396,,39a St Thomas Street,,Weymouth,Stanleys Coffee Shop,Restaurant/Cafe/Canteen,1,5,,505461,5,,50.60844000000000,39497,090,envhealth@weymouth.gov.uk,Weymouth and Portland,http://www.dorsetforyou.com,-2.45485900000000,DT4 8EH,2014-06-27,fhrs_5_en-GB,5,,FHRS,5
316397,,The Esplanade,,Weymouth,Statue Kiosk Opposite 61 The Esplanade,Takeaway/sandwich shop,7844,10,,306652,5,,,39401,090,envhealth@weymouth.gov.uk,Weymouth and Portland,http://www.dorsetforyou.com,,,2014-03-06,fhrs_4_en-GB,4,,FHRS,5
316398,,1 Church Road,,Weymouth,Stracey's,Takeaway/sandwich shop,7844,5,,306463,5,,50.64629400000000,35587,090,envhealth@weymouth.gov.uk,Weymouth and Portland,http://www.dorsetforyou.com,-2.41818200000000,DT3 6BU,2014-10-02,fhrs_5_en-GB,5,,FHRS,5
316399,,55-57 St Thomas Street,,Weymouth,Subway,Restaurant/Cafe/Canteen,1,5,,607765,5,,50.60834800000000,52549,090,envhealth@weymouth.gov.uk,Weymouth and Portland,http://www.dorsetforyou.com,-2.45535300000000,DT4 8EQ,2013-10-23,fhrs_5_en-GB,5,,FHRS,5
316400,,8 Westham Road,,Melcombe Regis,Subway,Restaurant/Cafe/Canteen,1,5,,584394,5,,50.61171100000000,52550,090,envhealth@weymouth.gov.uk,Weymouth and Portland,http://www.dorsetforyou.com,-2.45535700000000,DT4 8NP,2013-08-15,fhrs_5_en-GB,5,,FHRS,5
316401,,4 Reforne,,Portland,Sugar Loaf,Restaurant/Cafe/Canteen,1,5,,306348,5,,50.54602300000000,13079,090,envhealth@weymouth.gov.uk,Weymouth and Portland,http://www.dorsetforyou.com,-2.43770200000000,DT5 2AL,2014-10-09,fhrs_5_en-GB,5,,FHRS,5
316402,,2 Compass Terrace,,Southwell Business Park,Sunbeams Day Nursery,Hospitals/Childcare/Caring Premises,5,0,,465793,0,,50.52823700000000,39460,090,envhealth@weymouth.gov.uk,Weymouth and Portland,http://www.dorsetforyou.com,-2.45129300000000,DT5 2NP,2014-04-23,fhrs_5_en-GB,5,,FHRS,5
316403,Sunny Days Nursery,15-17 Glendinning Avenue,,Weymouth,Sunny Day Nursery,Hospitals/Childcare/Caring Premises,5,5,,306388,10,,50.62035300000000,22718,090,envhealth@weymouth.gov.uk,Weymouth and Portland,http://www.dorsetforyou.com,-2.45542600000000,DT4 7QF,2015-01-20,fhrs_4_en-GB,4,,FHRS,5
316404,Sunnybank House Residential Ho,4-6 Wyke Road,,Weymouth,Sunnybank Care Home,Hospitals/Childcare/Caring Premises,5,0,,306453,5,,50.60420800000000,35230,090,envhealth@weymouth.gov.uk,Weymouth and Portland,http://www.dorsetforyou.com,-2.46315500000000,DT4 9QE,2014-06-03,fhrs_5_en-GB,5,,FHRS,5
316405,Fantasy Island Fun Park,Bowleaze Coveway,,Weymouth,Sunset Coffee Bar,Restaurant/Cafe/Canteen,1,10,,697265,5,,50.63791000000000,52811,090,envhealth@weymouth.gov.uk,Weymouth and Portland,http://www.dorsetforyou.com,-2.41877300000000,DT3 6PW,2014-08-15,fhrs_4_en-GB,4,,FHRS,5
316406,,31 New Street,,Weymouth,Surf Side Diner,Takeaway/sandwich shop,7844,10,,306347,10,,50.60935300000000,12768,090,envhealth@weymouth.gov.uk,Weymouth and Portland,http://www.dorsetforyou.com,-2.45353900000000,DT4 8DA,2014-02-27,fhrs_3_en-GB,3,,FHRS,5
316407,,6 St Alban Street,,Weymouth,Suttons Coffee Shop,Restaurant/Cafe/Canteen,1,5,,306412,5,,50.60891300000000,31876,090,envhealth@weymouth.gov.uk,Weymouth and Portland,http://www.dorsetforyou.com,-2.45340800000000,DT4 8BZ,2013-11-13,fhrs_5_en-GB,5,,FHRS,5
316408,"The Swan, Federated House",41-43 St Thomas Street,,Weymouth,Swan Inn,Pub/bar/nightclub,7843,0,,306578,0,,50.60844000000000,38926,090,envhealth@weymouth.gov.uk,Weymouth and Portland,http://www.dorsetforyou.com,-2.45485900000000,DT4 8EH,2013-10-08,fhrs_5_en-GB,5,,FHRS,5
316409,11a Colwell Shopping Centre,School Street,,Weymouth,Taste of Portugal,Restaurant/Cafe/Canteen,1,5,,722253,5,,50.61063300000000,52784,090,envhealth@weymouth.gov.uk,Weymouth and Portland,http://www.dorsetforyou.com,-2.45524700000000,DT4 8NJ,2014-11-18,fhrs_5_en-GB,5,,FHRS,5
316410,Chesil Beach Visitor Centre,Portland Beach Road,,Portland,Taste* Cafe,Restaurant/Cafe/Canteen,1,5,,546741,0,,50.57910000000000,39524,090,envhealth@weymouth.gov.uk,Weymouth and Portland,http://www.dorsetforyou.com,-2.46982900000000,DT4 9XE,2013-04-17,fhrs_5_en-GB,5,,FHRS,0
316411,,15 Bond Street,,Weymouth,Tastebuds,Takeaway/sandwich shop,7844,0,,306365,0,,50.60998400000000,16525,090,envhealth@weymouth.gov.uk,Weymouth and Portland,http://www.dorsetforyou.com,-2.45331900000000,DT4 8HF,2014-04-22,fhrs_5_en-GB,5,,FHRS,0
316412,Tesco Metro Store And Filling,110-112 Lanehouse Rocks Road,,Weymouth,Tesco Service Station,Retailers - other,4613,5,,733262,10,,50.60759600000000,39006,090,envhealth@weymouth.gov.uk,Weymouth and Portland,http://www.dorsetforyou.com,-2.48547400000000,DT4 9DH,2014-03-11,fhrs_3_en-GB,3,,FHRS,10
316413,Tesco,Park Road,,Portland,Tesco Stores,Retailers - supermarkets/hypermarkets,7840,0,,306592,5,,50.54357100000000,38984,090,envhealth@weymouth.gov.uk,Weymouth and Portland,http://www.dorsetforyou.com,-2.43686100000000,DT5 2AD,2014-06-20,fhrs_5_en-GB,5,,FHRS,0
316414,Aqua Hotel,Castletown,,Portland,The Aqua,Hotel/bed & breakfast/guest house,7842,0,,306704,5,,50.56809900000000,8288,090,envhealth@weymouth.gov.uk,Weymouth and Portland,http://www.dorsetforyou.com,-2.44282100000000,DT5 1BD,2014-08-28,fhrs_5_en-GB,5,,FHRS,0
316415,Beachside Leisure Restaurant A,Bowleaze Coveway,,Weymouth,The Beachside Leisure Centre,Restaurant/Cafe/Canteen,1,0,,306690,0,,,7552,090,envhealth@weymouth.gov.uk,Weymouth and Portland,http://www.dorsetforyou.com,,,2013-04-18,fhrs_5_en-GB,5,,FHRS,0
316416,The Black Dog,3 St Mary Street,,Weymouth,The Black Dog,Pub/bar/nightclub,7843,5,,680606,5,,50.61067500000000,52506,090,envhealth@weymouth.gov.uk,Weymouth and Portland,http://www.dorsetforyou.com,-2.45373600000000,DT4 8PB,2014-06-18,fhrs_5_en-GB,5,,FHRS,5
316417,,15 Chiswell,,Portland,The Bluefish Cafe & Restaurant,Restaurant/Cafe/Canteen,1,0,,306666,0,,50.56222200000000,5380,090,envhealth@weymouth.gov.uk,Weymouth and Portland,http://www.dorsetforyou.com,-2.44871000000000,DT5 1AN,2013-06-17,fhrs_5_en-GB,5,,FHRS,5
316418,,The Esplanade,,Weymouth,The Boat Cafe - Sunshine Cafe Ltd - Opposite 41-42,Restaurant/Cafe/Canteen,1,5,,306635,5,,,39192,090,envhealth@weymouth.gov.uk,Weymouth and Portland,http://www.dorsetforyou.com,,,2014-06-20,fhrs_5_en-GB,5,,FHRS,5
316419,Bridge Inn,Bridge Inn Lane,,Weymouth,The Bridge Inn,Pub/bar/nightclub,7843,5,,306366,5,,50.64749700000000,16785,090,envhealth@weymouth.gov.uk,Weymouth and Portland,http://www.dorsetforyou.com,-2.42106400000000,DT3 6DB,2013-11-27,fhrs_5_en-GB,5,,FHRS,5
316420,,9 Gordon Row,,Weymouth,The Chapelhay,Takeaway/sandwich shop,7844,5,,643958,5,,50.60550900000000,35672,090,envhealth@weymouth.gov.uk,Weymouth and Portland,http://www.dorsetforyou.com,-2.45704900000000,DT4 8LL,2014-03-25,fhrs_5_en-GB,5,,FHRS,0
316421,,35c Melcombe Avenue,,Weymouth,The 'Clean' Cook,Restaurant/Cafe/Canteen,1,0,,722251,0,,50.62345100000000,27105,090,envhealth@weymouth.gov.uk,Weymouth and Portland,http://www.dorsetforyou.com,-2.44746900000000,DT4 7TF,2014-12-03,fhrs_5_en-GB,5,,FHRS,5
316422,Clifton Hotel,Grove Road,,Portland,The Clifton Hotel,Pub/bar/nightclub,7843,10,,306345,10,,50.55083700000000,12069,090,envhealth@weymouth.gov.uk,Weymouth and Portland,http://www.dorsetforyou.com,-2.43220000000000,DT5 1DP,2014-03-04,fhrs_3_en-GB,3,,FHRS,10
316423,,135 Fortuneswell,,Portland,The Cob Shop,Takeaway/sandwich shop,7844,5,,306358,5,,50.56093300000000,14831,090,envhealth@weymouth.gov.uk,Weymouth and Portland,http://www.dorsetforyou.com,-2.44490000000000,DT5 1LU,2013-09-19,fhrs_5_en-GB,5,,FHRS,5
316424,,44 Weston Road,,Portland,The Codfathers (Weston) Ltd + Codfathers Pizzas,Takeaway/sandwich shop,7844,5,,617170,5,,50.53974400000000,52542,090,envhealth@weymouth.gov.uk,Weymouth and Portland,http://www.dorsetforyou.com,-2.44536300000000,DT5 2BZ,2013-11-21,fhrs_4_en-GB,4,,FHRS,10
316425,Littlemoor Shopping Centre,Littlemoor Road,,Weymouth,The Co-operative,Retailers - supermarkets/hypermarkets,7840,0,,306589,5,,,38975,090,envhealth@weymouth.gov.uk,Weymouth and Portland,http://www.dorsetforyou.com,,,2014-12-09,fhrs_5_en-GB,5,,FHRS,5
316426,,50 St Mary Street,,Weymouth,The Corner House Cafe,Restaurant/Cafe/Canteen,1,5,,306504,5,,50.60809100000000,35941,090,envhealth@weymouth.gov.uk,Weymouth and Portland,http://www.dorsetforyou.com,-2.45427600000000,DT4 8PU,2015-01-14,fhrs_5_en-GB,5,,FHRS,5
316427,,3 Hope Square,,Weymouth,The Crows Nest,Restaurant/Cafe/Canteen,1,5,,306390,0,,50.60550000000000,24444,090,envhealth@weymouth.gov.uk,Weymouth and Portland,http://www.dorsetforyou.com,-2.45244200000000,DT4 8TR,2014-05-29,fhrs_5_en-GB,5,,FHRS,5
316428,,57a The Esplanade,,Weymouth,The Curve,Restaurant/Cafe/Canteen,1,5,,565412,10,,50.61048800000000,52529,090,envhealth@weymouth.gov.uk,Weymouth and Portland,http://www.dorsetforyou.com,-2.45326700000000,DT4 8DG,2013-06-14,fhrs_4_en-GB,4,,FHRS,5
316429,,67 St Mary Street,,Weymouth,The Dining Room,Restaurant/Cafe/Canteen,1,0,,492557,0,,50.60837800000000,35953,090,envhealth@weymouth.gov.uk,Weymouth and Portland,http://www.dorsetforyou.com,-2.45460400000000,DT4 8PP,2015-01-07,fhrs_5_en-GB,5,,FHRS,5
316430,,67 Park Street,,Weymouth,The Dolphin Hotel,Pub/bar/nightclub,7843,5,,637031,5,,50.61411600000000,50765,090,envhealth@weymouth.gov.uk,Weymouth and Portland,http://www.dorsetforyou.com,-2.45457400000000,DT4 7DE,2014-02-12,fhrs_5_en-GB,5,,FHRS,5
316431,,6 King Street,,Weymouth,The Dorset Burger Company,Restaurant/Cafe/Canteen,1,5,,688238,0,,50.61456800000000,52696,090,envhealth@weymouth.gov.uk,Weymouth and Portland,http://www.dorsetforyou.com,-2.45385800000000,DT4 7BH,2014-07-21,fhrs_5_en-GB,5,,FHRS,0
316432,Dorset Burger Company,97 St Mary Street,,Weymouth,The Dorset Burger Company,Restaurant/Cafe/Canteen,1,5,,489724,5,,50.61096100000000,39484,090,envhealth@weymouth.gov.uk,Weymouth and Portland,http://www.dorsetforyou.com,-2.45400700000000,DT4 8NY,2014-05-21,fhrs_4_en-GB,4,,FHRS,10
316433,,50 Dorchester Road,,Weymouth,The Dorset Cake Co Ltd,Manufacturers/packers,7839,5,,306471,5,,50.62364600000000,35624,090,envhealth@weymouth.gov.uk,Weymouth and Portland,http://www.dorsetforyou.com,-2.45511900000000,DT4 7JZ,2014-03-03,fhrs_5_en-GB,5,,FHRS,5
316434,Windsbatch Farm,Friar Waddon Road,,Weymouth,The Dorset Pie Co,Restaurant/Cafe/Canteen,1,0,,715132,5,,50.66895500000000,9293,090,envhealth@weymouth.gov.uk,Weymouth and Portland,http://www.dorsetforyou.com,-2.48343300000000,DT3 4EN,2014-11-06,fhrs_5_en-GB,5,,FHRS,5
316435,Edenhurst Hotel,122 The Esplanade,,Weymouth,The Edenhurst,Hotel/bed & breakfast/guest house,7842,5,,306435,5,,50.61584100000000,33267,090,envhealth@weymouth.gov.uk,Weymouth and Portland,http://www.dorsetforyou.com,-2.45245700000000,DT4 7ER,2012-05-23,fhrs_5_en-GB,5,,FHRS,0
316436,The Spa Hotel,229 Dorchester Road,,Weymouth,The Famous Old Spa,Restaurant/Cafe/Canteen,1,5,,306528,5,,50.62839000000000,36203,090,envhealth@weymouth.gov.uk,Weymouth and Portland,http://www.dorsetforyou.com,-2.46069300000000,DT3 5EQ,2013-10-03,fhrs_5_en-GB,5,,FHRS,5
316437,Ferrybridge Inn,262 Portland Road,,Weymouth,The Ferrybridge Inn,Restaurant/Cafe/Canteen,1,0,,530029,0,,50.58731600000000,39505,090,envhealth@weymouth.gov.uk,Weymouth and Portland,http://www.dorsetforyou.com,-2.47282100000000,DT4 9AF,2014-09-03,fhrs_5_en-GB,5,,FHRS,0
316438,The Gallery Bistro,Hope Square,,Weymouth,The Galley Bistro,Restaurant/Cafe/Canteen,1,0,,306558,0,,50.60550000000000,37432,090,envhealth@weymouth.gov.uk,Weymouth and Portland,http://www.dorsetforyou.com,-2.45244200000000,DT4 8TR,2014-07-21,fhrs_5_en-GB,5,,FHRS,5
316439,,2-4 Custom House Quay,,Weymouth,The George Bar and Grill,Pub/bar/nightclub,7843,5,,611121,5,,50.60732900000000,50771,090,envhealth@weymouth.gov.uk,Weymouth and Portland,http://www.dorsetforyou.com,-2.45385900000000,DT4 8BE,2013-10-28,fhrs_5_en-GB,5,,FHRS,5
316440,George Inn,133 Reforne,,Portland,The George Inn,Pub/bar/nightclub,7843,,,306349,,,50.54670100000000,13170,090,envhealth@weymouth.gov.uk,Weymouth and Portland,http://www.dorsetforyou.com,-2.44136400000000,DT5 2AP,2014-12-05,fhrs_5_en-GB,5,,FHRS,
316441,The Giant Pot,2 Queen Street,,Weymouth,The Handmade Pie & Ale House,Restaurant/Cafe/Canteen,1,,,521447,,,50.61551300000000,39214,090,envhealth@weymouth.gov.uk,Weymouth and Portland,http://www.dorsetforyou.com,-2.45368300000000,DT4 7HZ,2014-10-07,fhrs_4_en-GB,4,,FHRS,
316442,Cove Holiday Park,Pennsylvania Road,,Portland,The Hayloft Cafe,Restaurant/Cafe/Canteen,1,0,,704346,0,,50.53830500000000,52821,090,envhealth@weymouth.gov.uk,Weymouth and Portland,http://www.dorsetforyou.com,-2.43087200000000,DT5 1HU,2014-09-10,fhrs_5_en-GB,5,,FHRS,0
316443,Portland Heights Hotel,Yeates Road,,Portland,The Heights Hotel,Hotel/bed & breakfast/guest house,7842,0,,306457,0,,50.55531800000000,35504,090,envhealth@weymouth.gov.uk,Weymouth and Portland,http://www.dorsetforyou.com,-2.44106400000000,DT5 2EN,2014-11-14,fhrs_5_en-GB,5,,FHRS,5
316444,,20 Park Street,,Weymouth,The Hive Cafe,Restaurant/Cafe/Canteen,1,5,,722252,5,,50.61261100000000,4982,090,envhealth@weymouth.gov.uk,Weymouth and Portland,http://www.dorsetforyou.com,-2.45516800000000,DT4 7DQ,2014-11-19,fhrs_5_en-GB,5,,FHRS,5
316445,The Kings Arms,15-16 Trinity Road,,Weymouth,The Kings Arms,Restaurant/Cafe/Canteen,1,5,,306684,5,,50.60678500000000,6847,090,envhealth@weymouth.gov.uk,Weymouth and Portland,http://www.dorsetforyou.com,-2.45501200000000,DT4 8TJ,2014-02-24,fhrs_4_en-GB,4,,FHRS,10
316446,,12 Fernhill Avenue,,Weymouth,The Lawns Care Home,Hospitals/Childcare/Caring Premises,5,0,,306387,0,,50.62392900000000,22124,090,envhealth@weymouth.gov.uk,Weymouth and Portland,http://www.dorsetforyou.com,-2.45403300000000,DT4 7QU,2014-09-03,fhrs_5_en-GB,5,,FHRS,5
316447,,52-53 The Esplanade,,Weymouth,The Lazy Lizard,Restaurant/Cafe/Canteen,1,,,306425,,,50.61048800000000,33180,090,envhealth@weymouth.gov.uk,Weymouth and Portland,http://www.dorsetforyou.com,-2.45326700000000,DT4 8DG,2014-06-13,fhrs_5_en-GB,5,,FHRS,
316448,,Victoria Square,,Portland,The Little Ship,Pub/bar/nightclub,7843,5,,306685,5,,,6979,090,envhealth@weymouth.gov.uk,Weymouth and Portland,http://www.dorsetforyou.com,,,2014-01-30,fhrs_4_en-GB,4,,FHRS,10
316449,The Lodmoor,Greenhill,,Weymouth,The Lodmoor,Pub/bar/nightclub,7843,0,,306539,0,,50.62599300000000,36613,090,envhealth@weymouth.gov.uk,Weymouth and Portland,http://www.dorsetforyou.com,-2.44578200000000,DT4 7SX,2014-01-13,fhrs_5_en-GB,5,,FHRS,0
316450,,,,,The Loving Spoonfull,Mobile caterer,7846,0,,617168,0,,,19228,090,envhealth@weymouth.gov.uk,Weymouth and Portland,http://www.dorsetforyou.com,,,2013-11-13,fhrs_5_en-GB,5,,FHRS,5
316451,,58 Abbotsbury Road,,Weymouth,The Munch Club,Restaurant/Cafe/Canteen,1,10,,306359,5,,50.61196400000000,15022,090,envhealth@weymouth.gov.uk,Weymouth and Portland,http://www.dorsetforyou.com,-2.46419300000000,DT4 0BJ,2013-03-28,fhrs_4_en-GB,4,,FHRS,5
316452,New Inn,Easton Street,,Portland,The New Inn,Pub/bar/nightclub,7843,5,,306726,5,,50.54682900000000,9244,090,envhealth@weymouth.gov.uk,Weymouth and Portland,http://www.dorsetforyou.com,-2.43615700000000,DT5 1BS,2014-01-09,fhrs_5_en-GB,5,,FHRS,5
316453,New Vic Public House,41-42 The Esplanade,,Weymouth,The New Vic,Pub/bar/nightclub,7843,0,,306660,0,,50.60952500000000,5280,090,envhealth@weymouth.gov.uk,Weymouth and Portland,http://www.dorsetforyou.com,-2.45323000000000,DT4 8DH,2013-10-29,fhrs_5_en-GB,5,,FHRS,5
316454,The Nook,54-55 The Esplanade,,Weymouth,The Nook,Restaurant/Cafe/Canteen,1,0,,621308,0,,50.61048800000000,52710,090,envhealth@weymouth.gov.uk,Weymouth and Portland,http://www.dorsetforyou.com,-2.45326700000000,DT4 8DG,2013-12-09,fhrs_5_en-GB,5,,FHRS,5
316455,The Nothe Tavern,Barrack Road,,Weymouth,The Nothe Tavern,Pub/bar/nightclub,7843,0,,306363,0,,50.60614700000000,15663,090,envhealth@weymouth.gov.uk,Weymouth and Portland,http://www.dorsetforyou.com,-2.45025800000000,DT4 8TZ,2014-01-08,fhrs_5_en-GB,5,,FHRS,5
316456,,16 St Edmund Street,,Weymouth,The Old Harbour,Takeaway/sandwich shop,7844,5,,306581,5,,50.60797200000000,38949,090,envhealth@weymouth.gov.uk,Weymouth and Portland,http://www.dorsetforyou.com,-2.45481200000000,DT4 8AR,2013-06-14,fhrs_5_en-GB,5,,FHRS,5
316457,The Ship Inn,Ridgeway (Unadopted East Side,,Weymouth,The Old Ship Inn,Pub/bar/nightclub,7843,10,,306689,0,,50.66389900000000,7337,090,envhealth@weymouth.gov.uk,Weymouth and Portland,http://www.dorsetforyou.com,-2.46844000000000,DT3 5QQ,2014-06-03,fhrs_4_en-GB,4,,FHRS,5
316458,The Palm House,Commercial Road,,Weymouth,The Palm House,Restaurant/Cafe/Canteen,1,10,,707030,5,,50.61404700000000,52739,090,envhealth@weymouth.gov.uk,Weymouth and Portland,http://www.dorsetforyou.com,-2.45601500000000,DT4 7DW,2013-10-10,fhrs_3_en-GB,3,,FHRS,10
316459,New Covenant Church The Prayer,Newstead Road,,Weymouth,The Prayer House,Mobile caterer,7846,5,,306692,5,,,7694,090,envhealth@weymouth.gov.uk,Weymouth and Portland,http://www.dorsetforyou.com,,,2013-08-14,fhrs_5_en-GB,5,,FHRS,0
316460,Premier Hotel,121 The Esplanade,,Weymouth,The Premier Hotel,Hotel/bed & breakfast/guest house,7842,5,,306434,5,,50.61579600000000,33266,090,envhealth@weymouth.gov.uk,Weymouth and Portland,http://www.dorsetforyou.com,-2.45249900000000,DT4 7EP,2012-10-09,fhrs_5_en-GB,5,,FHRS,5
316461,Pulpit Inn,Portland Bill Road,,Portland,The Pulpit Inn,Restaurant/Cafe/Canteen,1,5,,667475,5,,50.51767500000000,52777,090,envhealth@weymouth.gov.uk,Weymouth and Portland,http://www.dorsetforyou.com,-2.45464800000000,DT5 2JT,2014-05-08,fhrs_4_en-GB,4,,FHRS,10
316462,The Rendezvous,St Thomas Street,,Weymouth,The Rendezvous,Pub/bar/nightclub,7843,5,,306516,5,,50.60761000000000,36036,090,envhealth@weymouth.gov.uk,Weymouth and Portland,http://www.dorsetforyou.com,-2.45560000000000,DT4 8AW,2014-04-02,fhrs_4_en-GB,4,,FHRS,10
316463,Richmoor Hotel,146 The Esplanade,,Weymouth,The Richmoor,Hotel/bed & breakfast/guest house,7842,10,,306441,10,,50.61771600000000,33285,090,envhealth@weymouth.gov.uk,Weymouth and Portland,http://www.dorsetforyou.com,-2.45154200000000,DT4 7NP,2014-12-08,fhrs_2_en-GB,2,,FHRS,15
316464,The Ridgeway Social And Educat,Links Road,,Weymouth,The Ridgeway Centre,Hospitals/Childcare/Caring Premises,5,0,,306534,0,,50.61659100000000,36386,090,envhealth@weymouth.gov.uk,Weymouth and Portland,http://www.dorsetforyou.com,-2.46977900000000,DT4 0PF,2014-09-17,fhrs_5_en-GB,5,,FHRS,5
316465,The Riverhouse Inn,54 Church Street,,Weymouth,The Riverhouse Inn,Pub/bar/nightclub,7843,0,,306374,5,,50.65902800000000,18949,090,envhealth@weymouth.gov.uk,Weymouth and Portland,http://www.dorsetforyou.com,-2.47426300000000,DT3 5QB,2013-08-16,fhrs_5_en-GB,5,,FHRS,0
316466,The Rock Hotel,41 Abbotsbury Road,,Weymouth,The Rock,Pub/bar/nightclub,7843,,,306535,,,50.61148100000000,36422,090,envhealth@weymouth.gov.uk,Weymouth and Portland,http://www.dorsetforyou.com,-2.46581300000000,DT4 0AQ,2014-07-15,fhrs_5_en-GB,5,,FHRS,
316467,Royal Breakwater Hotel,Castletown,,Portland,The Royal Breakwater Hotel,Restaurant/Cafe/Canteen,1,5,,306356,5,,50.56809900000000,14742,090,envhealth@weymouth.gov.uk,Weymouth and Portland,http://www.dorsetforyou.com,-2.44282100000000,DT5 1BD,2013-11-13,fhrs_5_en-GB,5,,FHRS,5
316468,Royal Hotel,90-91 The Esplanade,,Weymouth,The Royal Hotel,Hotel/bed & breakfast/guest house,7842,0,,306443,0,,50.61392200000000,33292,090,envhealth@weymouth.gov.uk,Weymouth and Portland,http://www.dorsetforyou.com,-2.45337100000000,DT4 7AT,2014-04-10,fhrs_5_en-GB,5,,FHRS,5
316469,The Royal Oak,52-54 Dorchester Road,,Weymouth,The Royal Oak,Pub/bar/nightclub,7843,5,,306570,5,,50.62364600000000,38509,090,envhealth@weymouth.gov.uk,Weymouth and Portland,http://www.dorsetforyou.com,-2.45511900000000,DT4 7JZ,2014-05-12,fhrs_5_en-GB,5,,FHRS,5
316470,Russell Hotel,135-138 The Esplanade,,Weymouth,The Russell Hotel,Hotel/bed & breakfast/guest house,7842,5,,306683,5,,50.61682300000000,6822,090,envhealth@weymouth.gov.uk,Weymouth and Portland,http://www.dorsetforyou.com,-2.45201400000000,DT4 7NG,2014-01-28,fhrs_4_en-GB,4,,FHRS,10
316471,,10 Trinity Street,,Weymouth,The Seagull Cafe,Restaurant/Cafe/Canteen,1,,,306448,,,50.60619000000000,33620,090,envhealth@weymouth.gov.uk,Weymouth and Portland,http://www.dorsetforyou.com,-2.45311300000000,DT4 8TW,2013-09-16,fhrs_5_en-GB,5,,FHRS,
316472,The Sherborne Hotel,116 The Esplanade,,Weymouth,The Sherborne Hotel,Hotel/bed & breakfast/guest house,7842,5,,306662,5,,50.61553400000000,5361,090,envhealth@weymouth.gov.uk,Weymouth and Portland,http://www.dorsetforyou.com,-2.45277900000000,DT4 7EJ,2012-10-09,fhrs_5_en-GB,5,,FHRS,5
316473,Ship Inn,Custom House Quay,,Weymouth,The Ship Inn,Pub/bar/nightclub,7843,0,,306707,5,,50.60732900000000,8514,090,envhealth@weymouth.gov.uk,Weymouth and Portland,http://www.dorsetforyou.com,-2.45385900000000,DT4 8BE,2014-04-15,fhrs_5_en-GB,5,,FHRS,5
316474,The Spice Ship,240 Preston Road,,Weymouth,The Spice Ship,Pub/bar/nightclub,7843,5,,306530,5,,50.64644800000000,36245,090,envhealth@weymouth.gov.uk,Weymouth and Portland,http://www.dorsetforyou.com,-2.42036200000000,DT3 6BJ,2013-09-17,fhrs_5_en-GB,5,,FHRS,5
316475,,Sutton Road,,Sutton Poyntz,The Spring Head,Pub/bar/nightclub,7843,10,,306420,5,,50.65315900000000,32932,090,envhealth@weymouth.gov.uk,Weymouth and Portland,http://www.dorsetforyou.com,-2.41711200000000,DT3 6LW,2013-11-18,fhrs_3_en-GB,3,,FHRS,10
316476,,13 Custom House Quay,,Weymouth,The Stables Restaurant Ltd,Restaurant/Cafe/Canteen,1,10,,306468,5,,50.60759600000000,35617,090,envhealth@weymouth.gov.uk,Weymouth and Portland,http://www.dorsetforyou.com,-2.45212300000000,DT4 8BG,2014-03-12,fhrs_4_en-GB,4,,FHRS,5
316477,,18 Gloucester Street,,Weymouth,The Star,Pub/bar/nightclub,7843,20,,306646,10,,50.61316800000000,39247,090,envhealth@weymouth.gov.uk,Weymouth and Portland,http://www.dorsetforyou.com,-2.45548400000000,DT4 7AW,2013-03-12,fhrs_1_en-GB,1,,FHRS,5
316478,Cafe,Nothe Parade,,Weymouth,The Stone Pier Cafe,Restaurant/Cafe/Canteen,1,5,,306489,5,,50.60708000000000,35795,090,envhealth@weymouth.gov.uk,Weymouth and Portland,http://www.dorsetforyou.com,-2.45084600000000,DT4 8TX,2014-03-05,fhrs_5_en-GB,5,,FHRS,5
316479,,11a Trinity Street,,Weymouth,The T Shop,Restaurant/Cafe/Canteen,1,5,,306557,0,,50.60678500000000,37420,090,envhealth@weymouth.gov.uk,Weymouth and Portland,http://www.dorsetforyou.com,-2.45501200000000,DT4 8TJ,2014-03-05,fhrs_5_en-GB,5,,FHRS,0
316480,,55-55a The Esplanade,,Weymouth,The Tea Bush,Restaurant/Cafe/Canteen,1,5,,306719,5,,50.61048800000000,8997,090,envhealth@weymouth.gov.uk,Weymouth and Portland,http://www.dorsetforyou.com,-2.45326700000000,DT4 8DG,2014-08-27,fhrs_5_en-GB,5,,FHRS,5
316481,The Tea Cabin,The Esplanade,,Weymouth,The Tea Cabin,Restaurant/Cafe/Canteen,1,5,,306520,0,,50.61255500000000,36086,090,envhealth@weymouth.gov.uk,Weymouth and Portland,http://www.dorsetforyou.com,-2.45337200000000,DT4 7AN,2014-09-05,fhrs_5_en-GB,5,,FHRS,0
316482,,26 King Street,,Weymouth,The Tides Inn,Pub/bar/nightclub,7843,5,,707031,5,,50.61456800000000,52744,090,envhealth@weymouth.gov.uk,Weymouth and Portland,http://www.dorsetforyou.com,-2.45385800000000,DT4 7BH,2014-09-29,fhrs_5_en-GB,5,,FHRS,5
316483,,2 St Alban Street,,Weymouth,The Welcome Cafe,Restaurant/Cafe/Canteen,1,5,,631390,5,,50.60891300000000,52716,090,envhealth@weymouth.gov.uk,Weymouth and Portland,http://www.dorsetforyou.com,-2.45340800000000,DT4 8BZ,2014-01-10,fhrs_5_en-GB,5,,FHRS,5
316484,Wey Valley School,436 Dorchester Road,,Weymouth,The Wey Valley School & Sports College,School/college/university,7845,0,,306474,5,,50.64290700000000,35645,090,envhealth@weymouth.gov.uk,Weymouth and Portland,http://www.dorsetforyou.com,-2.46902300000000,DT3 5AN,2014-03-10,fhrs_5_en-GB,5,,FHRS,5
316485,,25 Buxton Road,,Weymouth,The Weymouth,Takeaway/sandwich shop,7844,5,,306368,5,,50.60043600000000,17582,090,envhealth@weymouth.gov.uk,Weymouth and Portland,http://www.dorsetforyou.com,-2.46177600000000,DT4 9PQ,2014-09-17,fhrs_5_en-GB,5,,FHRS,5
316486,,57 Great George Street,,Weymouth,Thyme Out,Restaurant/Cafe/Canteen,1,0,,306680,0,,50.61138000000000,6671,090,envhealth@weymouth.gov.uk,Weymouth and Portland,http://www.dorsetforyou.com,-2.45514200000000,DT4 8NN,2014-04-22,fhrs_4_en-GB,4,,FHRS,10
316487,,8 Cove Street,,Weymouth,Time for Tea,Restaurant/Cafe/Canteen,1,0,,306376,0,,50.60603800000000,19834,090,envhealth@weymouth.gov.uk,Weymouth and Portland,http://www.dorsetforyou.com,-2.45277300000000,DT4 8TS,2013-10-10,fhrs_5_en-GB,5,,FHRS,0
316488,,82 The Esplanade,,Weymouth,Tom and Erins Ice Cream Parlour,Restaurant/Cafe/Canteen,1,,,478704,,,50.61231900000000,36621,090,envhealth@weymouth.gov.uk,Weymouth and Portland,http://www.dorsetforyou.com,-2.45410500000000,DT4 7AA,2014-07-22,fhrs_5_en-GB,5,,FHRS,
316489,Trafalgar Care Home,207-209 Dorchester Road,,Weymouth,Trafalgar Care Home,Hospitals/Childcare/Caring Premises,5,5,,306386,5,,50.62635700000000,21223,090,envhealth@weymouth.gov.uk,Weymouth and Portland,http://www.dorsetforyou.com,-2.45872200000000,DT4 7LF,2015-01-07,fhrs_5_en-GB,5,,FHRS,5
316490,,9 Greenhill,,Weymouth,Trimar Hospice,Hospitals/Childcare/Caring Premises,5,0,,306569,5,,50.62188400000000,38338,090,envhealth@weymouth.gov.uk,Weymouth and Portland,http://www.dorsetforyou.com,-2.44800500000000,DT4 7SW,2014-05-08,fhrs_5_en-GB,5,,FHRS,5
316491,Underhill Junior School,Killicks Hill,,Portland,Underhill Junior School,School/college/university,7845,5,,306455,5,,50.55741700000000,35464,090,envhealth@weymouth.gov.uk,Weymouth and Portland,http://www.dorsetforyou.com,-2.44482400000000,DT5 1JW,2014-01-29,fhrs_4_en-GB,4,,FHRS,10
316492,,48 St Mary Street,,Weymouth,Upstairs Downstairs Restaurant,Restaurant/Cafe/Canteen,1,5,,306595,5,,50.60809100000000,39000,090,envhealth@weymouth.gov.uk,Weymouth and Portland,http://www.dorsetforyou.com,-2.45427600000000,DT4 8PU,2014-10-30,fhrs_5_en-GB,5,,FHRS,5
316493,Upwey Wishing Well,Church Street,,Weymouth,Upwey Wishing Well Tearooms,Restaurant/Cafe/Canteen,1,0,,306527,5,,,36192,090,envhealth@weymouth.gov.uk,Weymouth and Portland,http://www.dorsetforyou.com,,,2013-09-04,fhrs_4_en-GB,4,,FHRS,10
316494,,7 Custom House Quay,,Weymouth,Vaughans Bistro Ltd,Restaurant/Cafe/Canteen,1,5,,306661,5,,50.60732900000000,5354,090,envhealth@weymouth.gov.uk,Weymouth and Portland,http://www.dorsetforyou.com,-2.45385900000000,DT4 8BE,2013-12-06,fhrs_5_en-GB,5,,FHRS,5
316495,Waterside Inn And Restaurant,Bowleaze Coveway,,Weymouth,Waterside Restaurant,Restaurant/Cafe/Canteen,1,5,,306720,5,,,9035,090,envhealth@weymouth.gov.uk,Weymouth and Portland,http://www.dorsetforyou.com,,,2014-03-24,fhrs_5_en-GB,5,,FHRS,0
316496,Weatherbury Hotel,7 Carlton Road North,,Weymouth,Weatherbury,Pub/bar/nightclub,7843,5,,306369,5,,50.62174600000000,17882,090,envhealth@weymouth.gov.uk,Weymouth and Portland,http://www.dorsetforyou.com,-2.45562300000000,DT4 7PX,2014-12-04,fhrs_5_en-GB,5,,FHRS,5
316497,Wellington Arms,St Alban Street,,Weymouth,Wellington Arms,Pub/bar/nightclub,7843,5,,306414,5,,50.60897200000000,31889,090,envhealth@weymouth.gov.uk,Weymouth and Portland,http://www.dorsetforyou.com,-2.45448200000000,DT4 8PY,2013-12-12,fhrs_5_en-GB,5,,FHRS,5
316498,,,,,Wessex Ice Cream Company,Mobile caterer,7846,5,,551062,5,,,23305,090,envhealth@weymouth.gov.uk,Weymouth and Portland,http://www.dorsetforyou.com,,,2013-05-03,fhrs_5_en-GB,5,,FHRS,5
316499,Westers,Westerhall Road,,Weymouth,Westers,Restaurant/Cafe/Canteen,1,5,,631387,5,,50.62019200000000,52465,090,envhealth@weymouth.gov.uk,Weymouth and Portland,http://www.dorsetforyou.com,-2.45066100000000,DT4 7SZ,2013-12-18,fhrs_5_en-GB,5,,FHRS,5
316500,Westfield Technology Centre,Littlemoor Road,,Weymouth,Westfield Arts College,School/college/university,7845,0,,306672,5,,50.64489900000000,6230,090,envhealth@weymouth.gov.uk,Weymouth and Portland,http://www.dorsetforyou.com,-2.43541100000000,DT3 6AA,2014-09-15,fhrs_5_en-GB,5,,FHRS,0
316501,"Fleet Building, Weymouth College",Cranford Avenue,,Weymouth,Weyco Services,School/college/university,7845,0,,492558,0,,50.62294800000000,39486,090,envhealth@weymouth.gov.uk,Weymouth and Portland,http://www.dorsetforyou.com,-2.45181800000000,DT4 7LQ,2014-04-23,fhrs_5_en-GB,5,,FHRS,5
316502,Old Fish Market,Custom House Quay,,Weymouth,Weyfish Ltd,Distributors/Transporters,7,5,,306469,5,,,35621,090,envhealth@weymouth.gov.uk,Weymouth and Portland,http://www.dorsetforyou.com,,DT4 8AP,2014-06-19,fhrs_5_en-GB,5,,FHRS,5
316503,,85 St Thomas Street,,Weymouth,Weymouth & Portland Animal Welfare Society,Restaurant/Cafe/Canteen,1,5,,611122,0,,50.61056300000000,52698,090,envhealth@weymouth.gov.uk,Weymouth and Portland,http://www.dorsetforyou.com,-2.45478000000000,DT4 8EN,2013-11-13,fhrs_5_en-GB,5,,FHRS,0
316504,Weymouth And Portland National Sailing Academy,Hamm Beach Road,,Portland,Weymouth & Portland Sailing Academy,Restaurant/Cafe/Canteen,1,0,,306584,0,,50.57037000000000,38959,090,envhealth@weymouth.gov.uk,Weymouth and Portland,http://www.dorsetforyou.com,-2.45563600000000,DT5 1SA,2013-09-05,fhrs_5_en-GB,5,,FHRS,5
316505,Weymouth Bay Holiday Park,Preston Road,,Weymouth,Weymouth Bay Holiday Park,Hotel/bed & breakfast/guest house,7842,0,,306402,0,,50.64600600000000,29274,090,envhealth@weymouth.gov.uk,Weymouth and Portland,http://www.dorsetforyou.com,-2.41808100000000,DT3 6BQ,2014-04-08,fhrs_5_en-GB,5,,FHRS,5
316506,The Weymouth Nursing Home,21-23 Glendinning Avenue,,Weymouth,Weymouth Care Home,Hospitals/Childcare/Caring Premises,5,5,,306543,0,,50.62035300000000,37049,090,envhealth@weymouth.gov.uk,Weymouth and Portland,http://www.dorsetforyou.com,-2.45542600000000,DT4 7QF,2014-06-30,fhrs_5_en-GB,5,,FHRS,5
316507,Weymouth & District Hospital,Melcombe Avenue,,Weymouth,Weymouth Community Hospital,Restaurant/Cafe/Canteen,1,5,,306486,10,,50.62106300000000,35775,090,envhealth@weymouth.gov.uk,Weymouth and Portland,http://www.dorsetforyou.com,-2.45106500000000,DT4 7TB,2013-12-03,fhrs_4_en-GB,4,,FHRS,5
316508,,3 Frederick Place,,St Thomas Street,Weymouth Deli,Manufacturers/packers,7839,0,,306696,5,,50.61131000000000,802,090,envhealth@weymouth.gov.uk,Weymouth and Portland,http://www.dorsetforyou.com,-2.45454700000000,DT4 8HQ,2014-09-16,fhrs_5_en-GB,5,,FHRS,5
316509,Weymouth Golf Club,Links Road,,Weymouth,Weymouth Golf Club,Restaurant/Cafe/Canteen,1,10,,306484,5,,50.61659100000000,35751,090,envhealth@weymouth.gov.uk,Weymouth and Portland,http://www.dorsetforyou.com,-2.46977900000000,DT4 0PF,2014-01-08,fhrs_4_en-GB,4,,FHRS,5
316510,The Pavilion Complex,The Esplanade,,Weymouth,Weymouth Pavilion CIC,Restaurant/Cafe/Canteen,1,,,631391,,,50.60887100000000,52722,090,envhealth@weymouth.gov.uk,Weymouth and Portland,http://www.dorsetforyou.com,-2.44798100000000,DT4 8ED,2014-03-12,fhrs_5_en-GB,5,,FHRS,
316511,Weymouth Rugby Club,Monmouth Avenue,,Weymouth,Weymouth Rugby Football Club Ltd,Restaurant/Cafe/Canteen,1,0,,306487,0,,50.63253800000000,35777,090,envhealth@weymouth.gov.uk,Weymouth and Portland,http://www.dorsetforyou.com,-2.45338100000000,DT3 5HZ,2014-09-29,fhrs_5_en-GB,5,,FHRS,0
316512,Weymouth Sailing Club,Nothe Parade,,Weymouth,Weymouth Sailing Club,Pub/bar/nightclub,7843,5,,306490,5,,50.60708000000000,35796,090,envhealth@weymouth.gov.uk,Weymouth and Portland,http://www.dorsetforyou.com,-2.45084600000000,DT4 8TX,2014-03-05,fhrs_5_en-GB,5,,FHRS,5
316513,Sea Cadet Training Centre,Barrack Road,,Weymouth,Weymouth Sea Cadet Training Centre,Pub/bar/nightclub,7843,0,,306727,0,,,9266,090,envhealth@weymouth.gov.uk,Weymouth and Portland,http://www.dorsetforyou.com,,,2014-01-23,fhrs_5_en-GB,5,,FHRS,0
316514,Weymouth Sea Life Centre,Greenhill,,Weymouth,Weymouth Sea Life Centre,Restaurant/Cafe/Canteen,1,5,,306725,0,,50.62599300000000,9225,090,envhealth@weymouth.gov.uk,Weymouth and Portland,http://www.dorsetforyou.com,-2.44578200000000,DT4 7SX,2014-05-19,fhrs_5_en-GB,5,,FHRS,0
316515,Weymouth Squash Centre,Newstead Road,,Weymouth,Weymouth Squash & Fitness Centre Inc. Longs Steakhouse,Restaurant/Cafe/Canteen,1,10,,306488,5,,50.60863800000000,35786,090,envhealth@weymouth.gov.uk,Weymouth and Portland,http://www.dorsetforyou.com,-2.46175700000000,DT4 8JE,2014-03-12,fhrs_3_en-GB,3,,FHRS,10
316516,,45-49 Maiden Street,,Weymouth,Weymouth Tandoori,Restaurant/Cafe/Canteen,1,10,,306577,10,,50.60820200000000,38925,090,envhealth@weymouth.gov.uk,Weymouth and Portland,http://www.dorsetforyou.com,-2.45372600000000,DT4 8AZ,2014-09-22,fhrs_3_en-GB,3,,FHRS,10
316517,White Hart Ph,New Bond Street,,Weymouth,White Hart,Pub/bar/nightclub,7843,0,,306715,5,,50.61024600000000,8741,090,envhealth@weymouth.gov.uk,Weymouth and Portland,http://www.dorsetforyou.com,-2.45513100000000,DT4 8LY,2014-08-26,fhrs_4_en-GB,4,,FHRS,10
316518,,13 Easton Street,,Portland,White Stones Cafe Gallery,Restaurant/Cafe/Canteen,1,5,,306344,5,,50.54682900000000,11541,090,envhealth@weymouth.gov.uk,Weymouth and Portland,http://www.dorsetforyou.com,-2.43615700000000,DT5 1BS,2014-06-27,fhrs_5_en-GB,5,,FHRS,5
316519,William Henry Ph,1 Frederick Place,,St Thomas Street,William Henry,Pub/bar/nightclub,7843,0,,306605,0,,50.61131000000000,39048,090,envhealth@weymouth.gov.uk,Weymouth and Portland,http://www.dorsetforyou.com,-2.45454700000000,DT4 8HQ,2014-04-22,fhrs_4_en-GB,4,,FHRS,10
316520,,12 Great George Street,,Weymouth,Williams The Bakers,Retailers - other,4613,5,,306552,5,,50.61138000000000,37302,090,envhealth@weymouth.gov.uk,Weymouth and Portland,http://www.dorsetforyou.com,-2.45514200000000,DT4 8NN,2013-02-12,fhrs_5_en-GB,5,,FHRS,5
316521,,1 Littlemoor Shopping Centre,,Littlemoor Road,Wings Chinese Takeaway,Takeaway/sandwich shop,7844,5,,306533,5,,50.64817500000000,36381,090,envhealth@weymouth.gov.uk,Weymouth and Portland,http://www.dorsetforyou.com,-2.45375800000000,DT3 6NQ,2013-11-28,fhrs_5_en-GB,5,,FHRS,5
316522,,56 Portland Road,,Weymouth,Wyke Regis Working Mens Club,Pub/bar/nightclub,7843,0,,306561,5,,50.59387900000000,37523,090,envhealth@weymouth.gov.uk,Weymouth and Portland,http://www.dorsetforyou.com,-2.47535900000000,DT4 9AB,2014-02-06,fhrs_5_en-GB,5,,FHRS,5
316523,Wyke Smugglers,76 Portland Road,,Weymouth,Wyke Smugglers,Pub/bar/nightclub,7843,5,,643959,10,,50.59387900000000,52565,090,envhealth@weymouth.gov.uk,Weymouth and Portland,http://www.dorsetforyou.com,-2.47535900000000,DT4 9AB,2014-03-06,fhrs_4_en-GB,4,,FHRS,5
316524,"Wyvern School, Three Schools -",Dorchester Road,,Weymouth,Wyvern School,School/college/university,7845,0,,306636,0,,50.64290700000000,39200,090,envhealth@weymouth.gov.uk,Weymouth and Portland,http://www.dorsetforyou.com,-2.46902300000000,DT3 5AN,2014-04-22,fhrs_5_en-GB,5,,FHRS,0
316525,,56-57 St Thomas Street,,Weymouth,Yates's,Pub/bar/nightclub,7843,5,,306511,5,,50.60834800000000,36016,090,envhealth@weymouth.gov.uk,Weymouth and Portland,http://www.dorsetforyou.com,-2.45535300000000,DT4 8EQ,2014-04-30,fhrs_4_en-GB,4,,FHRS,10
316526,,30a Abbotsbury Road,,Weymouth,Yummy,Takeaway/sandwich shop,7844,5,,306458,5,,50.61203600000000,35521,090,envhealth@weymouth.gov.uk,Weymouth and Portland,http://www.dorsetforyou.com,-2.46200300000000,DT4 0AE,2013-07-03,fhrs_5_en-GB,5,,FHRS,5
316527,,6 Bond Street,,Weymouth,Zafran Indian Restaurant,Restaurant/Cafe/Canteen,1,10,,306364,10,,50.60993700000000,16523,090,envhealth@weymouth.gov.uk,Weymouth and Portland,http://www.dorsetforyou.com,-2.45367200000000,DT4 8HE,2014-02-05,fhrs_3_en-GB,3,,FHRS,10
