,addressline1,addressline2,addressline3,addressline4,businessname,businesstype,businesstypeid,confidenceinmanagement,extractdate,fhrsid,hygiene,itemcount,latitude,localauthoritybusinessid,localauthoritycode,localauthorityemailaddress,localauthorityname,localauthoritywebsite,longitude,postcode,ratingdate,ratingkey,ratingvalue,returncode,schemetype,structural
18564,Harolds Road,Harlow,Essex,,2 'J'S Snack Bar - Mobile,Mobile caterer,7846,0,,154033,0,,51.76492900000000,CIN/99/02424,116,env.health@harlow.gov.uk,Harlow,http://www.harlow.gov.uk/,0.06406800000000,CM19 5BJ,2015-01-08,fhrs_5_en-GB,5,,FHRS,0
18565,,,,,2 Leece Scrumptious,Other catering premises,7841,0,,153929,0,,,CIN/11/00501,116,env.health@harlow.gov.uk,Harlow,http://www.harlow.gov.uk/,,,2013-05-01,fhrs_5_en-GB,5,,FHRS,0
18566,Dine Contract Catering Ltd,Greenway,Harlow Business Park,"Harlow, Essex",3663 Staff Canteen,Restaurant/Cafe/Canteen,1,5,,582381,5,,51.76845600000000,CIN/13/02864,116,env.health@harlow.gov.uk,Harlow,http://www.harlow.gov.uk/,0.05627100000000,CM19 5QB,2013-08-19,fhrs_5_en-GB,5,,FHRS,5
18567,27-29 Broad Walk,Harlow,Essex,,99p Stores Ltd,Retailers - other,4613,0,,153954,0,,51.76984000000000,CIN/11/01052,116,env.health@harlow.gov.uk,Harlow,http://www.harlow.gov.uk/,0.09504800000000,CM20 1JF,2013-06-20,fhrs_5_en-GB,5,,FHRS,0
18568,,,,,AA Snacks,Other catering premises,7841,0,,691583,0,,,CIN/14/03249,116,env.health@harlow.gov.uk,Harlow,http://www.harlow.gov.uk/,,,2014-07-17,fhrs_5_en-GB,5,,FHRS,0
18569,,,,,AA Snacks - (mobile),Mobile caterer,7846,0,,644205,0,,,CIN/14/01274,116,env.health@harlow.gov.uk,Harlow,http://www.harlow.gov.uk/,,,2014-07-17,fhrs_5_en-GB,5,,FHRS,0
18570,Catering by ISS Caterhouse - Partridge Road,Harlow,Essex,,Abbotsweld Primary School,School/college/university,7845,0,,153523,0,,51.75700400000000,CIN/00/03444,116,env.health@harlow.gov.uk,Harlow,http://www.harlow.gov.uk/,0.09777200000000,CM18 6TE,2014-11-12,fhrs_5_en-GB,5,,FHRS,5
18571,Harlow Centre,Partridge Road,Harlow,Essex,Adult Community Learning,School/college/university,7845,0,,709452,0,,51.75700400000000,CIN/14/04299,116,env.health@harlow.gov.uk,Harlow,http://www.harlow.gov.uk/,0.09777200000000,CM18 6TE,2015-01-13,fhrs_5_en-GB,5,,FHRS,0
18572,Unit 11 Staple Tye Mews,Perry Road,Harlow,Essex,Afro Carribean African Centre,Retailers - other,4613,10,,644195,10,,51.75303600000000,CIN/14/00800,116,env.health@harlow.gov.uk,Harlow,http://www.harlow.gov.uk/,0.09030000000000,CM18 7NW,2014-03-20,fhrs_3_en-GB,3,,FHRS,10
18573,7-8 Service Industry Bays,The Stow,Harlow,Essex,Afro Carribean Supermarket,Retailers - other,4613,20,,153665,5,,51.77581500000000,CIN/02/01256,116,env.health@harlow.gov.uk,Harlow,http://www.harlow.gov.uk/,0.11290900000000,CM20 3AB,2014-12-11,fhrs_1_en-GB,1,,FHRS,5
18574,Staff Restaurant,Akhter House,Perry Road,"Harlow, Essex",Akhter Computers Limited,Restaurant/Cafe/Canteen,1,0,,153524,0,,51.75107300000000,CIN/00/03446,116,env.health@harlow.gov.uk,Harlow,http://www.harlow.gov.uk/,0.09047000000000,CM18 7PN,2013-08-15,fhrs_5_en-GB,5,,FHRS,0
18575,First Avenue,Harlow,Essex,,Aldi Stores Limited,Retailers - supermarkets/hypermarkets,7840,0,,670399,0,,,CIN/14/02034,116,env.health@harlow.gov.uk,Harlow,http://www.harlow.gov.uk/,,CM20 3FA,2014-08-18,fhrs_5_en-GB,5,,FHRS,0
18576,,,,,All Things Cake,Other catering premises,7841,0,,709449,0,,,CIN/14/04205,116,env.health@harlow.gov.uk,Harlow,http://www.harlow.gov.uk/,,,2014-09-24,fhrs_5_en-GB,5,,FHRS,0
18577,5 Bush House,Bush Fair,Harlow,Essex,Alliance Pharmacy,Retailers - other,4613,,,154029,,,51.75738700000000,CIN/99/02388,116,env.health@harlow.gov.uk,Harlow,http://www.harlow.gov.uk/,0.11301900000000,CM18 6NS,2010-07-23,fhrs_exempt_en-GB,Exempt,,FHRS,
18578,9 North House,Bush Fair,Harlow,Essex,Alliance Pharmacy,Retailers - other,4613,,,153429,,,51.75767300000000,CIN/00/03153,116,env.health@harlow.gov.uk,Harlow,http://www.harlow.gov.uk/,0.11264100000000,CM18 6PA,2008-08-26,fhrs_exempt_en-GB,Exempt,,FHRS,
18579,3 Elm Hatch,Harlow,,Essex,Amar Mini Market,Retailers - other,4613,10,,153454,0,,51.76349100000000,CIN/00/03237,116,env.health@harlow.gov.uk,Harlow,http://www.harlow.gov.uk/,0.10910100000000,CM18 6BH,2014-01-28,fhrs_4_en-GB,4,,FHRS,0
18580,,,,,Ami's Cupcakes,Other catering premises,7841,5,,153972,5,,,CIN/11/02360,116,env.health@harlow.gov.uk,Harlow,http://www.harlow.gov.uk/,,,2011-11-11,fhrs_5_en-GB,5,,FHRS,0
18581,2 Katherines Hatch,Harlow,Essex,,Amo News,Retailers - other,4613,,,153491,,,51.75779100000000,CIN/00/03341,116,env.health@harlow.gov.uk,Harlow,http://www.harlow.gov.uk/,0.07110300000000,CM19 5NP,2010-06-16,fhrs_exempt_en-GB,Exempt,,FHRS,
18582,1 Bush House,Bush Fair,Harlow,Essex,Andersons,Retailers - other,4613,5,,153981,5,,51.75738700000000,CIN/11/03030,116,env.health@harlow.gov.uk,Harlow,http://www.harlow.gov.uk/,0.11301900000000,CM18 6NS,2014-02-07,fhrs_4_en-GB,4,,FHRS,10
18583,Parndon Mill,Parndon Mill Lane,Harlow,Essex,Annie's Launch,Restaurant/Cafe/Canteen,1,5,,153760,0,,51.78008000000000,CIN/06/03441,116,env.health@harlow.gov.uk,Harlow,http://www.harlow.gov.uk/,0.08148900000000,CM20 2HP,2013-06-19,fhrs_5_en-GB,5,,FHRS,0
18584,,,,,Anuta Loves Cupcakes,Other catering premises,7841,5,,338627,0,,,CIN/12/01193,116,env.health@harlow.gov.uk,Harlow,http://www.harlow.gov.uk/,,,2012-10-03,fhrs_5_en-GB,5,,FHRS,0
18585,58 Harvey Centre,Harlow,Essex,,Argos,Retailers - other,4613,,,153844,,,51.76920000000000,CIN/09/02343,116,env.health@harlow.gov.uk,Harlow,http://www.harlow.gov.uk/,0.09356900000000,CM20 1XR,2009-11-09,fhrs_exempt_en-GB,Exempt,,FHRS,
18586,Unit 2 Harlow Retail Park,Edinburgh Way,Harlow,Essex,Argos Extra,Retailers - other,4613,,,153767,,,51.78526600000000,CIN/07/00081,116,env.health@harlow.gov.uk,Harlow,http://www.harlow.gov.uk/,0.11137800000000,CM20 2TN,2010-09-02,fhrs_exempt_en-GB,Exempt,,FHRS,
18587,Bus Garage,Fourth Avenue,Harlow,Essex,Arriva Bus Depot - Staff Canteen,Restaurant/Cafe/Canteen,1,5,,153934,5,,51.77253600000000,CIN/11/00657,116,env.health@harlow.gov.uk,Harlow,http://www.harlow.gov.uk/,0.09157800000000,CM20 1DU,2014-02-20,fhrs_4_en-GB,4,,FHRS,10
18588,The Water Gardens,South Gate,Harlow,Essex,Asda,Retailers - supermarkets/hypermarkets,7840,5,,153683,5,,51.76736700000000,CIN/03/01689,116,env.health@harlow.gov.uk,Harlow,http://www.harlow.gov.uk/,0.09603500000000,CM20 1AN,2013-07-31,fhrs_5_en-GB,5,,FHRS,5
18589,The Water Gardens,South Gate,Harlow,Essex,Asda - Coffee Shop,Restaurant/Cafe/Canteen,1,0,,153691,0,,51.76736700000000,CIN/03/01927,116,env.health@harlow.gov.uk,Harlow,http://www.harlow.gov.uk/,0.09603500000000,CM20 1AN,2014-10-09,fhrs_5_en-GB,5,,FHRS,0
18590,The Water Gardens,South Gate,Harlow,Essex,Asda - Staff Canteen,Restaurant/Cafe/Canteen,1,0,,153690,5,,51.76736700000000,CIN/03/01924,116,env.health@harlow.gov.uk,Harlow,http://www.harlow.gov.uk/,0.09603500000000,CM20 1AN,2014-10-09,fhrs_5_en-GB,5,,FHRS,0
18591,Ashlyn House,Vicarage Wood,Harlow,Essex,Ashlyns,Hospitals/Childcare/Caring Premises,5,5,,153570,10,,51.77322000000000,CIN/00/03662,116,env.health@harlow.gov.uk,Harlow,http://www.harlow.gov.uk/,0.11519400000000,CM20 3HD,2014-10-30,fhrs_4_en-GB,4,,FHRS,0
18592,8 Slacksbury Hatch,Helions Road,Harlow,Essex,Atlantic Fish Bar,Takeaway/sandwich shop,7844,10,,153609,5,,51.76593900000000,CIN/01/01060,116,env.health@harlow.gov.uk,Harlow,http://www.harlow.gov.uk/,0.08380900000000,CM19 4ET,2014-08-19,fhrs_4_en-GB,4,,FHRS,5
18593,,,,,Aunty Lucy's,Other catering premises,7841,0,,717501,0,,,CIN/14/04758,116,env.health@harlow.gov.uk,Harlow,http://www.harlow.gov.uk/,,,2015-01-13,fhrs_5_en-GB,5,,FHRS,0
18594,4 Princes Gate,Howard Way,Harlow,Essex,B&M Home Store,Retailers - other,4613,0,,371814,0,,51.78083300000000,CIN/12/01366,116,env.health@harlow.gov.uk,Harlow,http://www.harlow.gov.uk/,0.10688000000000,CM20 2SU,2012-06-20,fhrs_5_en-GB,5,,FHRS,0
18595,2-4 Burgoyne Hatch,Momples Road,Harlow,Essex,B&U Convenience Store,Retailers - other,4613,0,,703636,5,,51.77133100000000,CIN/14/03474,116,env.health@harlow.gov.uk,Harlow,http://www.harlow.gov.uk/,0.11968600000000,CM20 3EH,2014-09-15,fhrs_5_en-GB,5,,FHRS,5
18596,,,,,Bake Expectations,Other catering premises,7841,0,,465399,0,,,CIN/12/03581,116,env.health@harlow.gov.uk,Harlow,http://www.harlow.gov.uk/,,,2014-01-22,fhrs_5_en-GB,5,,FHRS,0
18597,18 The Stow,Harlow,Essex,,Bargain Booze,Retailers - other,4613,20,,154058,10,,51.77558100000000,CIN/99/02545,116,env.health@harlow.gov.uk,Harlow,http://www.harlow.gov.uk/,0.11440500000000,CM20 3AH,2014-07-07,fhrs_1_en-GB,1,,FHRS,15
18598,Norman Booth Centre,Mulberry Green,Old Harlow,Essex,Batts Ltd,Restaurant/Cafe/Canteen,1,0,,153647,0,,51.78294000000000,CIN/02/00081,116,env.health@harlow.gov.uk,Harlow,http://www.harlow.gov.uk/,0.14103500000000,CM17 0ET,2013-09-20,fhrs_5_en-GB,5,,FHRS,0
18599,The Mall Cafe,Harvey Centre,Harlow,Essex,BB's Coffee & Muffins,Restaurant/Cafe/Canteen,1,5,,615280,5,,51.76920000000000,CIN/13/03781,116,env.health@harlow.gov.uk,Harlow,http://www.harlow.gov.uk/,0.09356900000000,CM20 1XR,2013-12-06,fhrs_5_en-GB,5,,FHRS,0
18600,89 The Stow,Harlow,Essex,,Belash Tandoori,Restaurant/Cafe/Canteen,1,30,,153616,20,,51.77507900000000,CIN/01/01079,116,env.health@harlow.gov.uk,Harlow,http://www.harlow.gov.uk/,0.11480200000000,CM20 3AP,2014-09-15,fhrs_0_en-GB,0,,FHRS,15
18601,19 High Street,Old Harlow,Essex,,Bengal Cottage Limited,Restaurant/Cafe/Canteen,1,10,,153593,10,,51.78366700000000,CIN/01/01010,116,env.health@harlow.gov.uk,Harlow,http://www.harlow.gov.uk/,0.13371900000000,CM17 0DN,2014-01-27,fhrs_3_en-GB,3,,FHRS,10
18602,The Den,Toddbrook,Harlow,Essex,Bereaved Companions - Breakaway Club,Pub/bar/nightclub,7843,,,153775,,,51.76339600000000,CIN/07/01300,116,env.health@harlow.gov.uk,Harlow,http://www.harlow.gov.uk/,0.08418500000000,CM19 4DU,2008-08-28,fhrs_exempt_en-GB,Exempt,,FHRS,
18603,3 Slacksbury Hatch,Hare Street,Harlow,Essex,Best One,Retailers - other,4613,10,,154053,0,,51.76593900000000,CIN/99/02530,116,env.health@harlow.gov.uk,Harlow,http://www.harlow.gov.uk/,0.08380900000000,CM19 4ET,2014-01-28,fhrs_4_en-GB,4,,FHRS,0
18604,24 Harvey Centre,Harlow,Essex,,"BHS / Burton, Restaurant & Coffee Lounge",Restaurant/Cafe/Canteen,1,5,,153477,5,,51.76920000000000,CIN/00/03286,116,env.health@harlow.gov.uk,Harlow,http://www.harlow.gov.uk/,0.09356900000000,CM20 1XT,2013-05-16,fhrs_5_en-GB,5,,FHRS,5
18605,6 Staple Tye Shopping Centre,Southern Way,Harlow,Essex,Bishaal Tandoori Restaurant,Restaurant/Cafe/Canteen,1,10,,153695,10,,51.75318700000000,CIN/03/02414,116,env.health@harlow.gov.uk,Harlow,http://www.harlow.gov.uk/,0.09195900000000,CM18 7PJ,2013-09-03,fhrs_2_en-GB,2,,FHRS,15
18606,37 Broad Walk,The High,Harlow,Essex ,Boots Stores Limited,Retailers - other,4613,5,,153482,5,,51.76971600000000,CIN/00/03310,116,env.health@harlow.gov.uk,Harlow,http://www.harlow.gov.uk/,0.09389700000000,CM20 1JA,2008-04-28,fhrs_5_en-GB,5,,FHRS,5
18607,16 The Stow,Harlow,Essex,,Boots The Chemist,Retailers - other,4613,,,153614,,,51.77558100000000,CIN/01/01074,116,env.health@harlow.gov.uk,Harlow,http://www.harlow.gov.uk/,0.11440500000000,CM20 3AH,2010-07-19,fhrs_exempt_en-GB,Exempt,,FHRS,
18608,,,,,Bootylicious Coffee,Mobile caterer,7846,0,,644199,0,,,CIN/14/01087,116,env.health@harlow.gov.uk,Harlow,http://www.harlow.gov.uk/,,,2014-06-24,fhrs_5_en-GB,5,,FHRS,0
18609,34 High Street,Harlow,Essex,,Bruno's Trattoria,Restaurant/Cafe/Canteen,1,,,721744,,,51.78332100000000,CIN/14/05011,116,env.health@harlow.gov.uk,Harlow,http://www.harlow.gov.uk/,0.13396300000000,CM17 0DW,,fhrs_awaitinginspection_en-GB,AwaitingInspection,,FHRS,
18610,,,,,Buffets2U,Other catering premises,7841,,,730259,,,,CIN/15/00137,116,env.health@harlow.gov.uk,Harlow,http://www.harlow.gov.uk/,,,,fhrs_awaitinginspection_en-GB,AwaitingInspection,,FHRS,
18611,75 Harvey Centre,The High,Harlow,Essex,Burger King,Restaurant/Cafe/Canteen,1,0,,153478,0,,51.76920000000000,CIN/00/03293,116,env.health@harlow.gov.uk,Harlow,http://www.harlow.gov.uk/,0.09356900000000,CM20 1XS,2013-04-26,fhrs_5_en-GB,5,,FHRS,5
18612,Princes Gate,Howard Way,Harlow,Essex,Burgermaster - Mobile,Mobile caterer,7846,0,,153533,0,,51.78083300000000,CIN/00/03473,116,env.health@harlow.gov.uk,Harlow,http://www.harlow.gov.uk/,0.10688000000000,CM20 2SU,2014-07-29,fhrs_5_en-GB,5,,FHRS,0
18613,First Avenue,Harlow,Essex,,Burnt Mill Academy,School/college/university,7845,0,,153457,5,,51.77687400000000,CIN/00/03242,116,env.health@harlow.gov.uk,Harlow,http://www.harlow.gov.uk/,0.10800000000000,CM20 2NR,2014-05-06,fhrs_5_en-GB,5,,FHRS,5
18614,6-7 Bush House,Bush Fair,Harlow,Essex,Bush Fair Food Centre,Retailers - other,4613,20,,730260,10,,51.75738700000000,CIN/15/00147,116,env.health@harlow.gov.uk,Harlow,http://www.harlow.gov.uk/,0.11301900000000,CM18 6NS,2014-11-24,fhrs_1_en-GB,1,,FHRS,15
18615,Greenway,Harlow,,Essex,Busy Bees Day Nursery,Hospitals/Childcare/Caring Premises,5,0,,153471,0,,51.76748000000000,CIN/00/03272,116,env.health@harlow.gov.uk,Harlow,http://www.harlow.gov.uk/,0.05961800000000,CM19 5QE,2014-07-25,fhrs_5_en-GB,5,,FHRS,0
18616,Trinity United Reformed Church,Harberts Road,Harlow,Essex,Buzze Beez Pre-School Ltd,Hospitals/Childcare/Caring Premises,5,0,,153876,0,,51.76710000000000,CIN/10/00959,116,env.health@harlow.gov.uk,Harlow,http://www.harlow.gov.uk/,0.08422500000000,CM19 4AY,2012-10-17,fhrs_5_en-GB,5,,FHRS,0
18617,7-9 High Street,Old Harlow,Essex,,Cafe  Blue,Restaurant/Cafe/Canteen,1,5,,153682,5,,51.78366700000000,CIN/03/01680,116,env.health@harlow.gov.uk,Harlow,http://www.harlow.gov.uk/,0.13371900000000,CM17 0DN,2014-04-10,fhrs_5_en-GB,5,,FHRS,0
18618,12 The Stow,Harlow,Essex,,Cafe Delight,Restaurant/Cafe/Canteen,1,5,,153553,10,,51.77558100000000,CIN/00/03597,116,env.health@harlow.gov.uk,Harlow,http://www.harlow.gov.uk/,0.11440500000000,CM20 3AH,2013-11-02,fhrs_3_en-GB,3,,FHRS,10
18619,5 The Rows,The High,Harlow,Essex,Cafe Elite,Restaurant/Cafe/Canteen,1,10,,153541,10,,51.77132200000000,CIN/00/03517,116,env.health@harlow.gov.uk,Harlow,http://www.harlow.gov.uk/,0.09262400000000,CM20 1BX,2014-02-11,fhrs_3_en-GB,3,,FHRS,10
18620,Goodman House,Station Approach,Harlow,Essex,Cafe Goodman,Restaurant/Cafe/Canteen,1,,,153969,,,51.78003800000000,CIN/11/02134,116,env.health@harlow.gov.uk,Harlow,http://www.harlow.gov.uk/,0.09246200000000,CM20 2ET,2013-12-13,fhrs_5_en-GB,5,,FHRS,
18621,Kiosk 11 & 12 (34) Harvey Centre,The High,Harlow,Essex,Cafe Harvey,Restaurant/Cafe/Canteen,1,5,,153864,0,,51.76899700000000,CIN/10/00114,116,env.health@harlow.gov.uk,Harlow,http://www.harlow.gov.uk/,0.09189300000000,CM20 1XP,2013-02-18,fhrs_5_en-GB,5,,FHRS,0
18622,2-3 North House,Bush Fair,Harlow,Essex,Cafe Pizzeria,Restaurant/Cafe/Canteen,1,0,,153664,5,,51.75767300000000,CIN/02/01007,116,env.health@harlow.gov.uk,Harlow,http://www.harlow.gov.uk/,0.11264100000000,CM18 6PA,2013-12-03,fhrs_5_en-GB,5,,FHRS,5
18623,Kiosk,Harlow Town Station,Station Approach,"Harlow, Essex",Caffe La Vita,Restaurant/Cafe/Canteen,1,5,,153998,5,,51.78105200000000,CIN/11/03753,116,env.health@harlow.gov.uk,Harlow,http://www.harlow.gov.uk/,0.09513300000000,CM20 2JD,2013-07-17,fhrs_5_en-GB,5,,FHRS,0
18624,20 Latton Bush Business Centre,Southern Way,Harlow,Essex ,Cakes & More!,Retailers - other,4613,0,,153963,5,,51.75333300000000,CIN/11/01491,116,env.health@harlow.gov.uk,Harlow,http://www.harlow.gov.uk/,0.10744000000000,CM18 7BH,2011-09-07,fhrs_5_en-GB,5,,FHRS,5
18625,,,,,Candy Treats,Other catering premises,7841,0,,465394,0,,,CIN/12/03470,116,env.health@harlow.gov.uk,Harlow,http://www.harlow.gov.uk/,,,2013-03-27,fhrs_5_en-GB,5,,FHRS,0
18626,Restaurant - Catering by Mise-En-Place,Elizabeth Way,Harlow,Essex,Canons Brook Golf Club,Restaurant/Cafe/Canteen,1,0,,153580,0,,51.77314200000000,CIN/01/00982,116,env.health@harlow.gov.uk,Harlow,http://www.harlow.gov.uk/,0.07157400000000,CM19 5BE,2015-01-22,fhrs_5_en-GB,5,,FHRS,0
18627,3 Cawley Hatch,Harlow,Essex,,Canteen Caffe,Restaurant/Cafe/Canteen,1,10,,605649,10,,51.76694000000000,CIN/13/03602,116,env.health@harlow.gov.uk,Harlow,http://www.harlow.gov.uk/,0.06685500000000,CM19 5AN,2013-10-30,fhrs_3_en-GB,3,,FHRS,10
18628,10 North House,Bush Fair,Harlow,Essex,Canton Fish Bar,Takeaway/sandwich shop,7844,5,,153787,10,,51.75767300000000,CIN/07/03365,116,env.health@harlow.gov.uk,Harlow,http://www.harlow.gov.uk/,0.11264100000000,CM18 6PA,2013-10-02,fhrs_3_en-GB,3,,FHRS,10
18629,(Unit 1) 35 Broad Walk,Harlow,Essex,,Card Factory,Retailers - other,4613,,,338622,,,51.76984000000000,CIN/12/01089,116,env.health@harlow.gov.uk,Harlow,http://www.harlow.gov.uk/,0.09504800000000,CM20 1JF,2012-05-16,fhrs_exempt_en-GB,Exempt,,FHRS,
18630,1-2 Market House,Market Square,Harlow,Essex,Cash Concepts,Retailers - other,4613,,,730266,,,51.77140100000000,CIN/15/00269,116,env.health@harlow.gov.uk,Harlow,http://www.harlow.gov.uk/,0.09317800000000,CM20 1BL,,fhrs_awaitinginspection_en-GB,AwaitingInspection,,FHRS,
18631,18-20 Terminus Street,Harlow,Essex,,Cashino,Pub/bar/nightclub,7843,0,,153633,0,,51.77065300000000,CIN/01/01493,116,env.health@harlow.gov.uk,Harlow,http://www.harlow.gov.uk/,0.09479600000000,CM20 1ES,2015-01-12,fhrs_5_en-GB,5,,FHRS,5
18632,27 East Gate,Harlow,Essex,,Cashino,Pub/bar/nightclub,7843,0,,153868,0,,51.77057100000000,CIN/10/00383,116,env.health@harlow.gov.uk,Harlow,http://www.harlow.gov.uk/,0.09338600000000,CM20 1HP,2010-04-21,fhrs_5_en-GB,5,,FHRS,0
18633,6B Market House,The High,Harlow,Essex,Caspian's Grill House,Restaurant/Cafe/Canteen,1,10,,153753,10,,51.77140200000000,CIN/06/02908,116,env.health@harlow.gov.uk,Harlow,http://www.harlow.gov.uk/,0.09317800000000,CM20 1BL,2013-11-01,fhrs_3_en-GB,3,,FHRS,10
18634,Timberland Fisheries,Flex Meadow,The Pinnacles,"Harlow, Essex",Cazzarellas Snack Bar,Mobile caterer,7846,10,,589813,5,,51.76531700000000,CIN/13/03285,116,env.health@harlow.gov.uk,Harlow,http://www.harlow.gov.uk/,0.06043300000000,CM19 5UA,2013-09-11,fhrs_4_en-GB,4,,FHRS,5
18635,,,,,Celebrate it with Cake,Other catering premises,7841,5,,153913,0,,,CIN/10/04286,116,env.health@harlow.gov.uk,Harlow,http://www.harlow.gov.uk/,,,2010-10-12,fhrs_5_en-GB,5,,FHRS,0
18636,7-9 Prentice Place,Potter Street,Harlow,Essex,Chahil,Retailers - other,4613,5,,153532,0,,51.75797100000000,CIN/00/03469,116,env.health@harlow.gov.uk,Harlow,http://www.harlow.gov.uk/,0.13347800000000,CM17 9BG,2009-06-17,fhrs_5_en-GB,5,,FHRS,0
18637,2 Market Street,Old Harlow,Essex,,Chequers,Pub/bar/nightclub,7843,10,,726430,10,,51.78354900000000,CIN/14/05174,116,env.health@harlow.gov.uk,Harlow,http://www.harlow.gov.uk/,0.13178500000000,CM17 0AH,2014-12-10,fhrs_3_en-GB,3,,FHRS,10
18638,27 West Gate,The High,Harlow,Essex,Chick Stop,Takeaway/sandwich shop,7844,10,,154063,10,,51.76974000000000,CIN/99/02569,116,env.health@harlow.gov.uk,Harlow,http://www.harlow.gov.uk/,0.09202900000000,CM20 1JR,2013-10-28,fhrs_3_en-GB,3,,FHRS,10
18639,8 Terminus Street,Harlow,Essex,,Chicken Hut,Restaurant/Cafe/Canteen,1,10,,153944,10,,51.77065300000000,CIN/11/00961,116,env.health@harlow.gov.uk,Harlow,http://www.harlow.gov.uk/,0.09479600000000,CM20 1ES,2013-10-10,fhrs_3_en-GB,3,,FHRS,10
18640,Commonside Road,Harlow,Essex,,Children's Support Service,School/college/university,7845,0,,153776,0,,51.75116000000000,CIN/07/02485,116,env.health@harlow.gov.uk,Harlow,http://www.harlow.gov.uk/,0.10925100000000,CM18 7EZ,2013-05-23,fhrs_5_en-GB,5,,FHRS,5
18641,Fawbert & Barnard Primary School,London Road,Harlow,Essex,Chillout Kids Breakfast Club & After School Club,Hospitals/Childcare/Caring Premises,5,10,,589808,0,,51.78171800000000,CIN/13/03231,116,env.health@harlow.gov.uk,Harlow,http://www.harlow.gov.uk/,0.13306100000000,CM17 0DA,2013-12-05,fhrs_4_en-GB,4,,FHRS,0
18642,3 Market House,Stone Cross,Harlow,Essex,Choc & News,Retailers - other,4613,10,,153880,5,,51.77140200000000,CIN/10/01480,116,env.health@harlow.gov.uk,Harlow,http://www.harlow.gov.uk/,0.09317800000000,CM20 1BL,2013-06-19,fhrs_3_en-GB,3,,FHRS,10
18643,5 Garden Terrace Road,Old Harlow,Essex,,Chow's Chinese Take Away,Takeaway/sandwich shop,7844,10,,153681,10,,51.78451100000000,CIN/03/01489,116,env.health@harlow.gov.uk,Harlow,http://www.harlow.gov.uk/,0.13478800000000,CM17 0AT,2015-01-15,fhrs_3_en-GB,3,,FHRS,10
18644,7 Slacksbury Hatch,Hare Street,Harlow,Essex,Chow's Chinese Take Away,Takeaway/sandwich shop,7844,10,,153544,10,,51.76593900000000,CIN/00/03557,116,env.health@harlow.gov.uk,Harlow,http://www.harlow.gov.uk/,0.08380900000000,CM19 4ET,2014-07-15,fhrs_3_en-GB,3,,FHRS,10
18645,Church Langley Community Centre,Church Langley Way,Harlow,Essex,Church Langley Church,Pub/bar/nightclub,7843,5,,153863,5,,51.76773200000000,CIN/09/03481,116,env.health@harlow.gov.uk,Harlow,http://www.harlow.gov.uk/,0.13275000000000,CM17 9TG,2011-01-27,fhrs_5_en-GB,5,,FHRS,5
18646,Catering by Hertfordshire Catering Limited,Church Langley Way,Harlow,Essex,Church Langley Community Primary School,School/college/university,7845,0,,154026,0,,51.76802200000000,CIN/99/02378,116,env.health@harlow.gov.uk,Harlow,http://www.harlow.gov.uk/,0.13109600000000,CM17 9TH,2014-11-20,fhrs_5_en-GB,5,,FHRS,0
18647,Florence Nightingale Health Centre,Minton Lane,Church Langley,"Harlow, Essex",Church Langley Pharmacy,Retailers - other,4613,,,153797,,,51.76773200000000,CIN/08/01047,116,env.health@harlow.gov.uk,Harlow,http://www.harlow.gov.uk/,0.13275000000000,CM17 9TG,2008-08-29,fhrs_exempt_en-GB,Exempt,,FHRS,
18648,Church Langley Primary School,Church Langley Way,Harlow,Essex,Church Langley Pre-School,Hospitals/Childcare/Caring Premises,5,0,,153699,0,,51.76802200000000,CIN/04/01889,116,env.health@harlow.gov.uk,Harlow,http://www.harlow.gov.uk/,0.13109600000000,CM17 9TH,2013-06-27,fhrs_5_en-GB,5,,FHRS,0
18649,Hobbs Cross Road,Old Harlow,Essex,,Churchgate C of E Primary School,School/college/university,7845,0,,153488,0,,51.78106900000000,CIN/00/03325,116,env.health@harlow.gov.uk,Harlow,http://www.harlow.gov.uk/,0.15193600000000,CM17 0LB,2014-04-23,fhrs_5_en-GB,5,,FHRS,0
18650,17 Churchgate Street,Old Harlow,Essex,,Churchgate Stores & Post Office,Restaurant/Cafe/Canteen,1,5,,153433,5,,51.78189300000000,CIN/00/03171,116,env.health@harlow.gov.uk,Harlow,http://www.harlow.gov.uk/,0.14916200000000,CM17 0JT,2014-03-13,fhrs_4_en-GB,4,,FHRS,10
18651,Harlow Leisurezone Cafe & Kiddz Kingdom Cafe,Second Avenue,Harlow,Essex,Churchill Catering Ltd,Restaurant/Cafe/Canteen,1,0,,717494,5,,51.76800800000000,CIN/14/04470,116,env.health@harlow.gov.uk,Harlow,http://www.harlow.gov.uk/,0.09890500000000,CM20 3DT,2014-12-03,fhrs_5_en-GB,5,,FHRS,0
18652,9 Queensgate Centre,Edinburgh Way,Harlow,Essex,Cineworld Cinemas Ltd,Restaurant/Cafe/Canteen,1,0,,153536,0,,51.78388700000000,CIN/00/03482,116,env.health@harlow.gov.uk,Harlow,http://www.harlow.gov.uk/,0.10805200000000,CM20 2DA,2013-09-02,fhrs_5_en-GB,5,,FHRS,5
18653,Catering by U-Select-It,Unit A Cartel Business Estate,Edinburgh Way,"Harlow, Essex",Clement Clarke - Staff Restaurant,Restaurant/Cafe/Canteen,1,5,,153684,10,,51.78685400000000,CIN/03/01693,116,env.health@harlow.gov.uk,Harlow,http://www.harlow.gov.uk/,0.12603900000000,CM20 2TT,2014-02-06,fhrs_4_en-GB,4,,FHRS,5
18654,9 Harvey Centre,The High,Harlow,Essex ,Clinton Cards,Retailers - other,4613,,,153474,,,51.76920000000000,CIN/00/03282,116,env.health@harlow.gov.uk,Harlow,http://www.harlow.gov.uk/,0.09356900000000,CM20 1XN,2008-04-29,fhrs_exempt_en-GB,Exempt,,FHRS,
18655,Canons Brook Golf Club,Elizabeth Way,Harlow,Essex,Club House,Pub/bar/nightclub,7843,5,,153579,5,,51.77314200000000,CIN/01/00981,116,env.health@harlow.gov.uk,Harlow,http://www.harlow.gov.uk/,0.07157400000000,CM19 5BE,2009-05-28,fhrs_5_en-GB,5,,FHRS,5
18656,Old Road,Old Harlow,Essex,,Coho Restaurant,Restaurant/Cafe/Canteen,1,5,,154041,5,,51.79346200000000,CIN/99/02488,116,env.health@harlow.gov.uk,Harlow,http://www.harlow.gov.uk/,0.13506600000000,CM17 0HQ,2014-02-19,fhrs_5_en-GB,5,,FHRS,5
18657,Cooks Spinney,Harlow,Essex,,Cooks Spinney Primary School & Nursery,School/college/university,7845,5,,154031,5,,51.77409500000000,CIN/99/02408,116,env.health@harlow.gov.uk,Harlow,http://www.harlow.gov.uk/,0.11852500000000,CM20 3BW,2013-05-09,fhrs_5_en-GB,5,,FHRS,5
18658,1 Long House,Bush Fair,Tye Green,"Harlow, Essex",Co-op,Retailers - other,4613,5,,153426,5,,51.75728700000000,CIN/00/03149,116,env.health@harlow.gov.uk,Harlow,http://www.harlow.gov.uk/,0.11256500000000,CM18 6NR,2010-01-18,fhrs_5_en-GB,5,,FHRS,5
18659,1-2 Maunds Road,Maunds Hatch,Harlow,Essex,Co-op,Retailers - other,4613,5,,154040,5,,51.74833100000000,CIN/99/02485,116,env.health@harlow.gov.uk,Harlow,http://www.harlow.gov.uk/,0.09847100000000,CM18 7RG,2013-10-03,fhrs_5_en-GB,5,,FHRS,5
18660,21 High Street,Old Harlow,Essex,,Co-op,Retailers - supermarkets/hypermarkets,7840,5,,153486,5,,51.78366700000000,CIN/00/03318,116,env.health@harlow.gov.uk,Harlow,http://www.harlow.gov.uk/,0.13371900000000,CM17 0DN,2010-07-27,fhrs_5_en-GB,5,,FHRS,5
18661,2-4 Manor Hatch,Harlow,Essex,,Co-op,Retailers - other,4613,0,,153503,0,,51.76087000000000,CIN/00/03369,116,env.health@harlow.gov.uk,Harlow,http://www.harlow.gov.uk/,0.12136900000000,CM18 6JA,2010-06-23,fhrs_5_en-GB,5,,FHRS,0
18662,5-7 Colt Hatch,Off Hobtoe Road,Harlow,Essex,Co-op,Retailers - other,4613,10,,153439,0,,51.77465100000000,CIN/00/03191,116,env.health@harlow.gov.uk,Harlow,http://www.harlow.gov.uk/,0.07984700000000,CM20 1SX,2013-07-04,fhrs_4_en-GB,4,,FHRS,5
18663,St Johns Art And Recreation Centre,St Johns Walk,Harlow,Essex,Copperpot Events Ltd,Pub/bar/nightclub,7843,5,,516606,5,,51.78370600000000,CIN/13/00496,116,env.health@harlow.gov.uk,Harlow,http://www.harlow.gov.uk/,0.13105300000000,CM17 0AJ,2013-05-12,fhrs_5_en-GB,5,,FHRS,5
18664,13 Coppice Hatch,Harlow,Essex,,Coppice Hatch Supermarket,Retailers - supermarkets/hypermarkets,7840,10,,153789,5,,51.75870500000000,CIN/07/03635,116,env.health@harlow.gov.uk,Harlow,http://www.harlow.gov.uk/,0.09614100000000,CM18 6SL,2010-07-13,fhrs_4_en-GB,4,,FHRS,0
18665,3 East Gate,Harlow,Essex,,Cork & Skewer,Restaurant/Cafe/Canteen,1,10,,153785,5,,51.77057100000000,CIN/07/03344,116,env.health@harlow.gov.uk,Harlow,http://www.harlow.gov.uk/,0.09338600000000,CM20 1HP,2014-11-07,fhrs_4_en-GB,4,,FHRS,5
18666,Muskham Road,Harlow,Essex,,Corner Cafe (Harlow Museum),Restaurant/Cafe/Canteen,1,0,,644197,0,,51.77872900000000,CIN/14/00926,116,env.health@harlow.gov.uk,Harlow,http://www.harlow.gov.uk/,0.12383100000000,CM20 2LF,2014-07-09,fhrs_5_en-GB,5,,FHRS,0
18667,2-3 Mill Hatch,Harlow,Essex,,Cornish Cafe,Restaurant/Cafe/Canteen,1,5,,153597,5,,51.78590000000000,CIN/01/01028,116,env.health@harlow.gov.uk,Harlow,http://www.harlow.gov.uk/,0.11813600000000,CM20 2DG,2015-01-16,fhrs_5_en-GB,5,,FHRS,5
18668,14 Queensgate Centre,Edinburgh Way,Harlow,Essex,Costa,Restaurant/Cafe/Canteen,1,5,,153807,5,,51.78388700000000,CIN/08/02222,116,env.health@harlow.gov.uk,Harlow,http://www.harlow.gov.uk/,0.10805200000000,CM20 2DA,2013-08-08,fhrs_5_en-GB,5,,FHRS,0
18669,Tesco,East Road,Harlow,Essex,Costa,Restaurant/Cafe/Canteen,1,0,,482073,0,,51.78561200000000,CIN/12/03873,116,env.health@harlow.gov.uk,Harlow,http://www.harlow.gov.uk/,0.12511100000000,CM20 2TG,2014-12-11,fhrs_5_en-GB,5,,FHRS,5
18670,Unit 4 35 Broad Walk,The High,Harlow,Essex,Costa,Restaurant/Cafe/Canteen,1,0,,153805,5,,51.76984000000000,CIN/08/01663,116,env.health@harlow.gov.uk,Harlow,http://www.harlow.gov.uk/,0.09504800000000,CM20 1JF,2013-02-20,fhrs_5_en-GB,5,,FHRS,0
18671,Catering by Compass Group UK & Ireland,Princess Alexandra Hospital,Hamstel Road,"Harlow, Essex",Costa/Amigo (Medirest),Restaurant/Cafe/Canteen,1,5,,153768,5,,51.77135300000000,CIN/07/00454,116,env.health@harlow.gov.uk,Harlow,http://www.harlow.gov.uk/,0.08629100000000,CM20 1QX,2013-08-29,fhrs_5_en-GB,5,,FHRS,5
18672,,,,,Country Queens Ice Cream,Mobile caterer,7846,0,,209639,0,,,CIN/12/00427,116,env.health@harlow.gov.uk,Harlow,http://www.harlow.gov.uk/,,,2014-02-06,fhrs_5_en-GB,5,,FHRS,0
18673,,,,,Coutts Coffee House & Deli Bar,Other catering premises,7841,0,,426829,0,,,CIN/12/02079,116,env.health@harlow.gov.uk,Harlow,http://www.harlow.gov.uk/,,,2012-10-17,fhrs_5_en-GB,5,,FHRS,0
18674,6A Harvey Centre,Harlow,Essex,,Couzens Bakery,Retailers - other,4613,0,,670402,0,,51.76920000000000,CIN/14/02201,116,env.health@harlow.gov.uk,Harlow,http://www.harlow.gov.uk/,0.09356900000000,CM20 1XN,2014-07-07,fhrs_5_en-GB,5,,FHRS,0
18675,1 The Rows,Harlow,Essex,,Coyote Bar,Pub/bar/nightclub,7843,0,,465396,0,,51.77132200000000,CIN/12/03476,116,env.health@harlow.gov.uk,Harlow,http://www.harlow.gov.uk/,0.09262400000000,CM20 1BX,2012-11-27,fhrs_5_en-GB,5,,FHRS,0
18676,West Road,Harlow,Essex,,Craig Oakley - Mobile,Mobile caterer,7846,10,,582380,5,,51.78254300000000,CIN/13/02826,116,env.health@harlow.gov.uk,Harlow,http://www.harlow.gov.uk/,0.11677500000000,CM20 2AL,2013-08-21,fhrs_4_en-GB,4,,FHRS,0
18677,37-39 High Street,Old Harlow,Essex,,Cross Keys Cafe,Restaurant/Cafe/Canteen,1,10,,615279,10,,51.78366700000000,CIN/13/03778,116,env.health@harlow.gov.uk,Harlow,http://www.harlow.gov.uk/,0.13371900000000,CM17 0DN,2013-12-10,fhrs_3_en-GB,3,,FHRS,10
18678,32 High Street,Old Harlow,Essex,,Crystal Palace- Golden Dragon Take Away,Restaurant/Cafe/Canteen,1,10,,153594,10,,51.78332100000000,CIN/01/01012,116,env.health@harlow.gov.uk,Harlow,http://www.harlow.gov.uk/,0.13396300000000,CM17 0DW,2014-11-17,fhrs_3_en-GB,3,,FHRS,10
18679,,,,,Daisy Cakes by Jo,Other catering premises,7841,0,,534674,0,,,CIN/13/00829,116,env.health@harlow.gov.uk,Harlow,http://www.harlow.gov.uk/,,,2013-04-18,fhrs_5_en-GB,5,,FHRS,0
18680,Water Gardens Square,Harlow,Essex,,Delicious Hot Dogs (mobile),Mobile caterer,7846,10,,153905,5,,51.76766200000000,CIN/10/03978,116,env.health@harlow.gov.uk,Harlow,http://www.harlow.gov.uk/,0.09412100000000,CM20 1WG,2013-12-19,fhrs_3_en-GB,3,,FHRS,10
18681,Princess Alexandra Hospital,Hamstel Road,Harlow,Essex,Derwent Centre,Hospitals/Childcare/Caring Premises,5,0,,153634,0,,51.77135300000000,CIN/01/01511,116,env.health@harlow.gov.uk,Harlow,http://www.harlow.gov.uk/,0.08629100000000,CM20 1QX,2013-03-07,fhrs_5_en-GB,5,,FHRS,5
18682,Unit 2 Service Industry Bays,Bush Fair,Harlow,Essex,Dial a Kebab,Takeaway/sandwich shop,7844,10,,153636,10,,51.75712900000000,CIN/01/01701,116,env.health@harlow.gov.uk,Harlow,http://www.harlow.gov.uk/,0.11387600000000,CM18 6LX,2014-11-07,fhrs_3_en-GB,3,,FHRS,10
18683,42A Service Industry Bays,The Stow,Harlow,Essex,Dial Indian,Takeaway/sandwich shop,7844,10,,153879,15,,51.77621600000000,CIN/10/01474,116,env.health@harlow.gov.uk,Harlow,http://www.harlow.gov.uk/,0.11410100000000,CM20 3AN,2013-09-04,fhrs_2_en-GB,2,,FHRS,10
18684,,,,,Diamond Cakes,Other catering premises,7841,0,,338625,0,,,CIN/12/01101,116,env.health@harlow.gov.uk,Harlow,http://www.harlow.gov.uk/,,,2012-06-27,fhrs_5_en-GB,5,,FHRS,0
18685,Harlow Leisurezone,Second Avenue,Harlow,Essex,Dizzy Ducks Day Nursery,Hospitals/Childcare/Caring Premises,5,0,,153872,5,,51.76800800000000,CIN/10/00637,116,env.health@harlow.gov.uk,Harlow,http://www.harlow.gov.uk/,0.09890500000000,CM20 3DT,2014-01-27,fhrs_5_en-GB,5,,FHRS,0
18686,13 West Gate,The High,Harlow,Essex,Domino's Pizza,Takeaway/sandwich shop,7844,0,,153627,0,,51.77029000000000,CIN/01/01106,116,env.health@harlow.gov.uk,Harlow,http://www.harlow.gov.uk/,0.09250300000000,CM20 1JS,2013-10-31,fhrs_5_en-GB,5,,FHRS,0
18687,31 London Road,Old Harlow,Essex,,Domino's Pizza,Takeaway/sandwich shop,7844,5,,153996,5,,51.78224300000000,CIN/11/03709,116,env.health@harlow.gov.uk,Harlow,http://www.harlow.gov.uk/,0.13291200000000,CM17 0DD,2013-07-17,fhrs_5_en-GB,5,,FHRS,0
18688,12 High Street,Old Harlow,Essex,,Dorringtons,Retailers - other,4613,0,,153484,0,,51.78332100000000,CIN/00/03315,116,env.health@harlow.gov.uk,Harlow,http://www.harlow.gov.uk/,0.13396300000000,CM17 0DW,2013-02-20,fhrs_5_en-GB,5,,FHRS,5
18689,3 Prentice Place,Potter Street,Harlow,Essex,Dorringtons,Retailers - other,4613,0,,153602,5,,51.75797100000000,CIN/01/01038,116,env.health@harlow.gov.uk,Harlow,http://www.harlow.gov.uk/,0.13347800000000,CM17 9BG,2013-04-09,fhrs_5_en-GB,5,,FHRS,5
18690,95 The Stow,Harlow,Essex,,Dorringtons,Retailers - other,4613,0,,153617,5,,51.77507900000000,CIN/01/01082,116,env.health@harlow.gov.uk,Harlow,http://www.harlow.gov.uk/,0.11480200000000,CM20 3AP,2013-12-04,fhrs_5_en-GB,5,,FHRS,0
18691,Unit 13 Staple Tye Shopping Centre,Southern Way,Harlow,Essex,Dorringtons Ltd,Retailers - other,4613,5,,153921,5,,51.75318700000000,CIN/10/04664,116,env.health@harlow.gov.uk,Harlow,http://www.harlow.gov.uk/,0.09195900000000,CM18 7PJ,2014-07-07,fhrs_5_en-GB,5,,FHRS,5
18692,,,,,Dumisport Supplements,Other catering premises,7841,,,732554,,,,CIN/15/00305,116,env.health@harlow.gov.uk,Harlow,http://www.harlow.gov.uk/,,,,fhrs_awaitinginspection_en-GB,AwaitingInspection,,FHRS,
18693,5 Ward Hatch,Mowbray Road,Harlow,Essex,Eat Well Chinese Food Take Away,Takeaway/sandwich shop,7844,5,,153881,5,,51.77982700000000,CIN/10/01483,116,env.health@harlow.gov.uk,Harlow,http://www.harlow.gov.uk/,0.11980800000000,CM20 2NB,2013-11-20,fhrs_5_en-GB,5,,FHRS,5
18694,Parndon Wood Nature Reserve,Parndon Wood Road,Harlow,Essex,ECCO,Restaurant/Cafe/Canteen,1,5,,426833,5,,51.74170500000000,CIN/12/02205,116,env.health@harlow.gov.uk,Harlow,http://www.harlow.gov.uk/,0.08932800000000,CM19 4SF,2013-04-23,fhrs_5_en-GB,5,,FHRS,0
18695,Edinburgh Way Service Station,Mill Hatch,Edinburgh Way,"Harlow, Essex",EDD Herring Services Ltd,Retailers - other,4613,5,,447310,5,,51.78590000000000,CIN/12/02838,116,env.health@harlow.gov.uk,Harlow,http://www.harlow.gov.uk/,0.11813600000000,CM20 2DG,2012-10-11,fhrs_5_en-GB,5,,FHRS,5
18696,Unit D5 Harlow Business Centre,Lovet Road,Harlow,Essex,Ellie's Snack Bar,Restaurant/Cafe/Canteen,1,5,,691588,5,,51.76389500000000,CIN/14/03363,116,env.health@harlow.gov.uk,Harlow,http://www.harlow.gov.uk/,0.07480300000000,CM19 5AF,2014-09-15,fhrs_5_en-GB,5,,FHRS,5
18697,,,,,ES Bakes,Other catering premises,7841,,,736005,,,,CIN/15/00563,116,env.health@harlow.gov.uk,Harlow,http://www.harlow.gov.uk/,,,,fhrs_awaitinginspection_en-GB,AwaitingInspection,,FHRS,
18698,5A Civic Walk,The Water Gardens,Harlow,Essex,Esquires Coffee Houses,Restaurant/Cafe/Canteen,1,0,,197150,5,,51.76766200000000,CIN/12/00302,116,env.health@harlow.gov.uk,Harlow,http://www.harlow.gov.uk/,0.09412100000000,CM20 1AQ,2013-08-08,fhrs_5_en-GB,5,,FHRS,0
18699,2 Hart Road,Harlow,,,Essence of India,Restaurant/Cafe/Canteen,1,5,,153472,10,,51.79197900000000,CIN/00/03276,116,env.health@harlow.gov.uk,Harlow,http://www.harlow.gov.uk/,0.13451700000000,CM17 0HL,2014-02-10,fhrs_4_en-GB,4,,FHRS,5
18700,12 Service Industry Bays,The Stow,Harlow,Essex,Essex Pizza & Popadum/Chillies,Takeaway/sandwich shop,7844,10,,551247,10,,51.77581500000000,CIN/13/01433,116,env.health@harlow.gov.uk,Harlow,http://www.harlow.gov.uk/,0.11290900000000,CM20 3AB,2014-10-30,fhrs_2_en-GB,2,,FHRS,15
18701,,,,,Essex Spit Roast,Other catering premises,7841,5,,504976,0,,,CIN/13/00319,116,env.health@harlow.gov.uk,Harlow,http://www.harlow.gov.uk/,,,2013-03-18,fhrs_5_en-GB,5,,FHRS,0
18702,Tillwicks Road,Harlow,Essex,,Esso Service Station,Retailers - other,4613,0,,153563,0,,51.75855900000000,CIN/00/03646,116,env.health@harlow.gov.uk,Harlow,http://www.harlow.gov.uk/,0.11487100000000,CM18 6NQ,2014-01-23,fhrs_5_en-GB,5,,FHRS,0
18703,,,,,Everything 2 Eat,Other catering premises,7841,0,,717500,0,,,CIN/14/04752,116,env.health@harlow.gov.uk,Harlow,http://www.harlow.gov.uk/,,,2014-11-27,fhrs_5_en-GB,5,,FHRS,0
18704,10 East Walk,Harlow,Essex,,Express Brunch & Shakes,Restaurant/Cafe/Canteen,1,10,,691580,5,,51.77004000000000,CIN/14/03050,116,env.health@harlow.gov.uk,Harlow,http://www.harlow.gov.uk/,0.09489800000000,CM20 1JH,2014-09-17,fhrs_4_en-GB,4,,FHRS,5
18705,Parsloe Road,Harlow,Essex,,Fairways Sports & Social Club,Pub/bar/nightclub,7843,5,,153519,5,,51.74387300000000,CIN/00/03439,116,env.health@harlow.gov.uk,Harlow,http://www.harlow.gov.uk/,0.08117100000000,CM19 4RT,2014-05-11,fhrs_5_en-GB,5,,FHRS,5
18706,8 Market House,Market Square,The High,"Harlow, Essex",Fancy Fry,Takeaway/sandwich shop,7844,10,,187499,5,,51.77140200000000,CIN/03/00764,116,env.health@harlow.gov.uk,Harlow,http://www.harlow.gov.uk/,0.09317800000000,CM20 1BL,2014-10-27,fhrs_4_en-GB,4,,FHRS,5
18707,10 Service Industry Bays,The Stow,Harlow,Essex,Farmhouse Pizza,Takeaway/sandwich shop,7844,10,,615274,10,,51.77581500000000,CIN/13/03703,116,env.health@harlow.gov.uk,Harlow,http://www.harlow.gov.uk/,0.11290900000000,CM20 3AB,2014-01-09,fhrs_3_en-GB,3,,FHRS,10
18708,London Road,Old Harlow,Essex,,Fawbert & Barnard Primary School,School/college/university,7845,5,,153500,5,,51.78171800000000,CIN/00/03359,116,env.health@harlow.gov.uk,Harlow,http://www.harlow.gov.uk/,0.13306100000000,CM17 0DA,2013-12-05,fhrs_5_en-GB,5,,FHRS,0
18709,10 High Street,Old Harlow,Essex,,Fine Wines & Spirits,Retailers - other,4613,5,,153939,0,,51.78332100000000,CIN/11/00786,116,env.health@harlow.gov.uk,Harlow,http://www.harlow.gov.uk/,0.13396300000000,CM17 0DW,2013-06-19,fhrs_5_en-GB,5,,FHRS,0
18710,Potter Street Primary School,Carters Mead,Harlow,Essex ,First Steps,Hospitals/Childcare/Caring Premises,5,5,,153648,5,,51.75901200000000,CIN/02/00085,116,env.health@harlow.gov.uk,Harlow,http://www.harlow.gov.uk/,0.12858600000000,CM17 9EU,2010-02-09,fhrs_5_en-GB,5,,FHRS,5
18711,6 Prentice Place,Potter Street,Harlow,Essex,Fish 'n' Chick'n,Takeaway/sandwich shop,7844,0,,153603,5,,51.75797100000000,CIN/01/01040,116,env.health@harlow.gov.uk,Harlow,http://www.harlow.gov.uk/,0.13347800000000,CM17 9BG,2013-10-24,fhrs_5_en-GB,5,,FHRS,5
18712,Genesis Housing Association,Sheering Road,Old Harlow,Essex,Fitzwilliam Court,Hospitals/Childcare/Caring Premises,5,0,,153462,5,,51.78348500000000,CIN/00/03251,116,env.health@harlow.gov.uk,Harlow,http://www.harlow.gov.uk/,0.15110800000000,CM17 0LZ,2014-12-02,fhrs_5_en-GB,5,,FHRS,5
18713,Unit A3.4 Civic Walk,The Water Gardens,Harlow,Essex,Five Guys,Restaurant/Cafe/Canteen,1,0,,691585,0,,51.76766200000000,CIN/14/03314,116,env.health@harlow.gov.uk,Harlow,http://www.harlow.gov.uk/,0.09412100000000,CM20 1AQ,2014-10-27,fhrs_5_en-GB,5,,FHRS,0
18714,The King's Church,Red Willow,Katherines,"Harlow, Essex",Fizzy Totz,Hospitals/Childcare/Caring Premises,5,10,,153919,5,,51.75390300000000,CIN/10/04546,116,env.health@harlow.gov.uk,Harlow,http://www.harlow.gov.uk/,0.06569500000000,CM19 5PB,2011-01-05,fhrs_4_en-GB,4,,FHRS,5
18715,Community Hall Livingstone House,Potter Street,Harlow,Essex,Forever Friends Club,Pub/bar/nightclub,7843,10,,578660,0,,51.76104700000000,CIN/13/02470,116,env.health@harlow.gov.uk,Harlow,http://www.harlow.gov.uk/,0.13092700000000,CM17 9AE,2014-01-27,fhrs_4_en-GB,4,,FHRS,0
18716,2 Katherines Hatch,Harlow,Essex,,Fortune Inn,Takeaway/sandwich shop,7844,0,,153492,5,,51.75779100000000,CIN/00/03343,116,env.health@harlow.gov.uk,Harlow,http://www.harlow.gov.uk/,0.07110300000000,CM19 5NP,2014-05-30,fhrs_5_en-GB,5,,FHRS,5
18717,Unit A3.2 Civic Walk,The Water Gardens,Harlow,Essex,Frankie & Benny's,Restaurant/Cafe/Canteen,1,0,,465397,0,,51.76766200000000,CIN/12/03479,116,env.health@harlow.gov.uk,Harlow,http://www.harlow.gov.uk/,0.09412100000000,CM20 1AQ,2015-01-08,fhrs_5_en-GB,5,,FHRS,0
18718,School Lane,Harlow,Essex,,Freshwaters Primary School,School/college/university,7845,5,,154050,5,,51.77247000000000,CIN/99/02526,116,env.health@harlow.gov.uk,Harlow,http://www.harlow.gov.uk/,0.10537400000000,CM20 3QA,2014-02-27,fhrs_5_en-GB,5,,FHRS,5
18719,,,,,Friendly Food,Other catering premises,7841,,,730258,,,,CIN/15/00135,116,env.health@harlow.gov.uk,Harlow,http://www.harlow.gov.uk/,,,,fhrs_awaitinginspection_en-GB,AwaitingInspection,,FHRS,
18720,11 Prentice Place,Potter Street,Harlow,Essex,Fung Kitchen,Takeaway/sandwich shop,7844,10,,153604,10,,51.75797100000000,CIN/01/01042,116,env.health@harlow.gov.uk,Harlow,http://www.harlow.gov.uk/,0.13347800000000,CM17 9BG,2013-10-23,fhrs_3_en-GB,3,,FHRS,10
18721,Catering by Eurest,Group 4 Security,Sandringham Avenue,"Harlow, Essex",G4S Pageant House-Staff Restaurant,Restaurant/Cafe/Canteen,1,5,,153585,5,,51.76814300000000,CIN/01/00997,116,env.health@harlow.gov.uk,Harlow,http://www.harlow.gov.uk/,0.06128600000000,CM19 5QG,2013-07-04,fhrs_5_en-GB,5,,FHRS,0
18722,13 Harvey Centre,Harlow,Essex,,Game Retail Ltd,Retailers - other,4613,,,197149,,,51.76920000000000,CIN/12/00275,116,env.health@harlow.gov.uk,Harlow,http://www.harlow.gov.uk/,0.09356900000000,CM20 1XN,2012-11-21,fhrs_exempt_en-GB,Exempt,,FHRS,
18723,12-13 North House,Bush Fair,Harlow,Essex,Garden of India,Restaurant/Cafe/Canteen,1,5,,153762,10,,51.75767300000000,CIN/06/03893,116,env.health@harlow.gov.uk,Harlow,http://www.harlow.gov.uk/,0.11264100000000,CM18 6PA,2014-09-22,fhrs_4_en-GB,4,,FHRS,5
18724,Temple Bank,Riverway,Harlow,Essex,Gary Snacks - Mobile,Mobile caterer,7846,5,,153540,0,,51.79151100000000,CIN/00/03501,116,env.health@harlow.gov.uk,Harlow,http://www.harlow.gov.uk/,0.12908600000000,CM20 2DY,2014-07-29,fhrs_5_en-GB,5,,FHRS,5
18725,14-15 Service Industry Bays,The Stow,Harlow,Essex,Gasko's Burgers & Kebabs,Takeaway/sandwich shop,7844,5,,153557,5,,51.77581500000000,CIN/00/03611,116,env.health@harlow.gov.uk,Harlow,http://www.harlow.gov.uk/,0.11290900000000,CM20 3AB,2014-02-05,fhrs_4_en-GB,4,,FHRS,10
18726,Marsh Lane,Old Harlow,Essex,,Gibberd Garden Trust,Restaurant/Cafe/Canteen,1,0,,154039,10,,51.79170900000000,CIN/99/02483,116,env.health@harlow.gov.uk,Harlow,http://www.harlow.gov.uk/,0.14984700000000,CM17 0NA,2008-06-05,fhrs_4_en-GB,4,,FHRS,5
18727,1 Sherards Hatch,Harlow,Essex,,Gills Supermarket,Retailers - other,4613,5,,153900,0,,51.74680500000000,CIN/10/03341,116,env.health@harlow.gov.uk,Harlow,http://www.harlow.gov.uk/,0.08773800000000,CM18 7PS,2013-08-07,fhrs_5_en-GB,5,,FHRS,0
18728,The Gables,1 Fore Street,Old Harlow,Essex,Gina Italian Restaurant,Restaurant/Cafe/Canteen,1,5,,153463,5,,51.78318100000000,CIN/00/03254,116,env.health@harlow.gov.uk,Harlow,http://www.harlow.gov.uk/,0.13224600000000,CM17 0AA,2013-12-04,fhrs_5_en-GB,5,,FHRS,5
18729,Harberts Road,Harlow,Essex,,Golden Swift Public House,Pub/bar/nightclub,7843,5,,153586,5,,51.76710000000000,CIN/01/00998,116,env.health@harlow.gov.uk,Harlow,http://www.harlow.gov.uk/,0.08422500000000,CM19 4AY,2014-02-10,fhrs_5_en-GB,5,,FHRS,5
18730,Abercrombie Way,Harlow,Essex,,Great Parndon Community Association,Pub/bar/nightclub,7843,10,,153415,10,,51.75523000000000,CIN/00/03092,116,env.health@harlow.gov.uk,Harlow,http://www.harlow.gov.uk/,0.09032900000000,CM18 6YJ,2014-01-31,fhrs_3_en-GB,3,,FHRS,5
18731,Mulberry Green,Old Harlow,Essex,,Green Man Hotel,Hotel/bed & breakfast/guest house,7842,0,,153511,0,,51.78294000000000,CIN/00/03412,116,env.health@harlow.gov.uk,Harlow,http://www.harlow.gov.uk/,0.14103500000000,CM17 0ET,2013-07-31,fhrs_5_en-GB,5,,FHRS,5
18732,1a Broad Walk,Harlow,Essex,,Greggs plc,Retailers - other,4613,0,,153938,0,,51.77055400000000,CIN/11/00699,116,env.health@harlow.gov.uk,Harlow,http://www.harlow.gov.uk/,0.09431300000000,CM20 1HX,2013-02-21,fhrs_5_en-GB,5,,FHRS,0
18733,5 Mill Hatch,Harlow,Essex,,Greggs plc,Retailers - other,4613,0,,153800,0,,51.78590000000000,CIN/08/01169,116,env.health@harlow.gov.uk,Harlow,http://www.harlow.gov.uk/,0.11813600000000,CM20 2DG,2013-12-11,fhrs_5_en-GB,5,,FHRS,0
18734,5B Civic Walk,The Water Gardens,Harlow,Essex,Greggs plc,Retailers - other,4613,0,,153967,0,,51.76766200000000,CIN/11/01747,116,env.health@harlow.gov.uk,Harlow,http://www.harlow.gov.uk/,0.09412100000000,CM20 1AQ,2013-02-21,fhrs_5_en-GB,5,,FHRS,5
18735,6 North House,Bush Fair,Harlow,Essex,Greggs plc,Retailers - other,4613,0,,153428,0,,51.75767300000000,CIN/00/03152,116,env.health@harlow.gov.uk,Harlow,http://www.harlow.gov.uk/,0.11264100000000,CM18 6PA,2013-07-17,fhrs_5_en-GB,5,,FHRS,5
18736,Latton Bush Centre,Southern Way,Harlow,Essex ,Griffin Bowls Club,Pub/bar/nightclub,7843,10,,153545,0,,51.75333300000000,CIN/00/03574,116,env.health@harlow.gov.uk,Harlow,http://www.harlow.gov.uk/,0.10744000000000,CM18 7BL,2008-06-02,fhrs_4_en-GB,4,,FHRS,0
18737,Latton Bush Centre,Southern Way,Harlow,Essex,Griffon Day Nursery Ltd,Hospitals/Childcare/Caring Premises,5,5,,153611,0,,51.75333300000000,CIN/01/01067,116,env.health@harlow.gov.uk,Harlow,http://www.harlow.gov.uk/,0.10744000000000,CM18 7BL,2015-01-06,fhrs_5_en-GB,5,,FHRS,0
18738,Staff Restaurant - Catering by Sodexo Limited,New Frontiers Science Park,Third Avenue,"Harlow, Essex",GSK Harlow South,Restaurant/Cafe/Canteen,1,0,,153898,0,,51.76087300000000,CIN/10/02921,116,env.health@harlow.gov.uk,Harlow,http://www.harlow.gov.uk/,0.06823000000000,CM19 5AW,2012-11-07,fhrs_5_en-GB,5,,FHRS,0
18739,3 Oaks Retail Park,Howard Way,Harlow,Essex,Halfords,Retailers - other,4613,,,621660,,,51.78178500000000,CIN/13/04016,116,env.health@harlow.gov.uk,Harlow,http://www.harlow.gov.uk/,0.10995400000000,CM20 2AB,2014-01-27,fhrs_exempt_en-GB,Exempt,,FHRS,
18740,Little Grove Field,Harlow,Essex,,Hare Street Community Primary School & Nursery,School/college/university,7845,0,,153497,5,,51.76741400000000,CIN/00/03354,116,env.health@harlow.gov.uk,Harlow,http://www.harlow.gov.uk/,0.08680500000000,CM19 4BU,2014-02-26,fhrs_5_en-GB,5,,FHRS,5
18741,Burgoyne Hatch,Momples Road,Harlow,Essex,Harefield Church,Hospitals/Childcare/Caring Premises,5,10,,197156,0,,51.77133100000000,CIN/07/02445,116,env.health@harlow.gov.uk,Harlow,http://www.harlow.gov.uk/,0.11968600000000,CM20 3EH,2009-01-07,fhrs_4_en-GB,4,,FHRS,0
18742,Fore Street,Old Harlow,Essex,,Harlow Baptist Church Hall,Hospitals/Childcare/Caring Premises,5,10,,153465,5,,51.78308500000000,CIN/00/03256,116,env.health@harlow.gov.uk,Harlow,http://www.harlow.gov.uk/,0.13111000000000,CM17 0AB,2011-07-26,fhrs_4_en-GB,4,,FHRS,5
18743,32B Terminus Street,Harlow,Essex,,Harlow Bowl,Restaurant/Cafe/Canteen,1,5,,153931,5,,51.77004000000000,CIN/11/00558,116,env.health@harlow.gov.uk,Harlow,http://www.harlow.gov.uk/,0.09489800000000,CM20 1EY,2014-08-04,fhrs_5_en-GB,5,,FHRS,5
18744,Elderfield,Old Harlow,Essex,,Harlow Bowling Club,Pub/bar/nightclub,7843,5,,153449,0,,51.78276100000000,CIN/00/03225,116,env.health@harlow.gov.uk,Harlow,http://www.harlow.gov.uk/,0.13854700000000,CM17 0ER,2013-07-24,fhrs_5_en-GB,5,,FHRS,0
18745,New Horizon Business Centre,Barrows Road,Harlow,Essex,Harlow Cafe,Takeaway/sandwich shop,7844,5,,154001,5,,51.76656400000000,CIN/11/03798,116,env.health@harlow.gov.uk,Harlow,http://www.harlow.gov.uk/,0.06572200000000,CM19 5FN,2013-07-17,fhrs_5_en-GB,5,,FHRS,5
18746,Burntmill Lane,Harlow,Essex,,Harlow Centre For Outdoor Learning,Restaurant/Cafe/Canteen,1,10,,629521,5,,51.78314400000000,CIN/14/00164,116,env.health@harlow.gov.uk,Harlow,http://www.harlow.gov.uk/,0.09578000000000,CM20 2QS,2014-02-19,fhrs_4_en-GB,4,,FHRS,0
18747,Lower Meadow,Commonside Road,Harlow,Essex,Harlow Chinese Community Centre,Hospitals/Childcare/Caring Premises,5,5,,153749,5,,51.74893000000000,CIN/06/01161,116,env.health@harlow.gov.uk,Harlow,http://www.harlow.gov.uk/,0.10020900000000,CM18 7RT,2013-10-30,fhrs_5_en-GB,5,,FHRS,5
18748,Catering by Chartwells,Velizy Avenue,Harlow,Essex,Harlow College,School/college/university,7845,0,,153483,0,,51.77047700000000,CIN/00/03312,116,env.health@harlow.gov.uk,Harlow,http://www.harlow.gov.uk/,0.09913600000000,CM20 3LH,2013-03-14,fhrs_5_en-GB,5,,FHRS,5
18749,The Pavilion,Marigolds Sports Ground,Chippingfield,"Old Harlow, Essex",Harlow Cricket Club,Pub/bar/nightclub,7843,5,,153431,0,,51.78241600000000,CIN/00/03167,116,env.health@harlow.gov.uk,Harlow,http://www.harlow.gov.uk/,0.13477600000000,CM17 0DH,2014-04-24,fhrs_5_en-GB,5,,FHRS,5
18750,Risden Park District Scout Camping Site,Harlow,Essex,CM18 7NL,Harlow District Scouts,Pub/bar/nightclub,7843,,,682581,,,,CIN/14/02727,116,env.health@harlow.gov.uk,Harlow,http://www.harlow.gov.uk/,,,,fhrs_awaitinginspection_en-GB,AwaitingInspection,,FHRS,
18751,Tendring Road,Harlow,Essex,,Harlow Fields School,School/college/university,7845,5,,153673,0,,51.75894000000000,CIN/03/00374,116,env.health@harlow.gov.uk,Harlow,http://www.harlow.gov.uk/,0.09758700000000,CM18 6RN,2013-05-08,fhrs_5_en-GB,5,,FHRS,5
18752,5 Fishers Hatch,Harlow,Essex,,Harlow Fish Bar,Takeaway/sandwich shop,7844,20,,153460,15,,51.77106300000000,CIN/00/03248,116,env.health@harlow.gov.uk,Harlow,http://www.harlow.gov.uk/,0.10506200000000,CM20 3PP,2014-12-01,fhrs_1_en-GB,1,,FHRS,10
18753,13 School Lane,Harlow,Essex,,Harlow International Youth Hostel,Hotel/bed & breakfast/guest house,7842,10,,154051,5,,51.77963300000000,CIN/99/02527,116,env.health@harlow.gov.uk,Harlow,http://www.harlow.gov.uk/,0.10108300000000,CM20 2QD,2009-07-15,fhrs_4_en-GB,4,,FHRS,0
18754,23 Clifton Hatch,Harlow,Essex,,Harlow Kebab,Takeaway/sandwich shop,7844,5,,683186,5,,,CIN/14/02872,116,env.health@harlow.gov.uk,Harlow,http://www.harlow.gov.uk/,,CM18 7FF,2014-12-10,fhrs_5_en-GB,5,,FHRS,5
18755,Colt Hatch,Spring Hills,Harlow,Essex ,Harlow Labour Social Club,Pub/bar/nightclub,7843,0,,153578,0,,51.77465100000000,CIN/01/00970,116,env.health@harlow.gov.uk,Harlow,http://www.harlow.gov.uk/,0.07984700000000,CM20 1SX,2010-10-20,fhrs_5_en-GB,5,,FHRS,0
18756,Latton Bush Centre,Southern Way,Harlow,Essex,Harlow Lawn Tennis Club,Pub/bar/nightclub,7843,10,,516604,0,,51.75333300000000,CIN/13/00419,116,env.health@harlow.gov.uk,Harlow,http://www.harlow.gov.uk/,0.10744000000000,CM18 7BL,2013-03-07,fhrs_4_en-GB,4,,FHRS,0
18757,Church Road,Potter Street,Harlow,Essex,Harlow Masonic Hall Club,Pub/bar/nightclub,7843,5,,153936,5,,51.75617600000000,CIN/11/00666,116,env.health@harlow.gov.uk,Harlow,http://www.harlow.gov.uk/,0.13178500000000,CM17 9EL,2011-01-19,fhrs_5_en-GB,5,,FHRS,5
18758,Cambridge Road,Harlow,Essex,,Harlow Mill Restaurant & Premier Inn,Pub/bar/nightclub,7843,5,,153543,5,,51.79522000000000,CIN/00/03549,116,env.health@harlow.gov.uk,Harlow,http://www.harlow.gov.uk/,0.13136300000000,CM20 2EP,2014-07-09,fhrs_5_en-GB,5,,FHRS,5
18759,Playhouse Square,Harlow,Essex,,Harlow Playhouse,Pub/bar/nightclub,7843,5,,153600,5,,51.76861500000000,CIN/01/01035,116,env.health@harlow.gov.uk,Harlow,http://www.harlow.gov.uk/,0.09261400000000,CM20 1LS,2008-06-18,fhrs_5_en-GB,5,,FHRS,5
18760,Ram Gorse,Elizabeth Way,Harlow,Essex,Harlow Rugby Union Football Club,Pub/bar/nightclub,7843,5,,153451,5,,51.77847900000000,CIN/00/03232,116,env.health@harlow.gov.uk,Harlow,http://www.harlow.gov.uk/,0.08456100000000,CM20 2JQ,2014-01-30,fhrs_5_en-GB,5,,FHRS,5
18761,Southern Way,Harlow,Essex,,Harlow SF Connect,Retailers - other,4613,0,,154054,0,,51.75315900000000,CIN/99/02535,116,env.health@harlow.gov.uk,Harlow,http://www.harlow.gov.uk/,0.08797300000000,CM18 7NN,2014-02-07,fhrs_5_en-GB,5,,FHRS,0
18762,Barclay Entertainment Ltd,Roydon Road,Harlow,Essex,Harlow Stadium,Pub/bar/nightclub,7843,10,,153542,10,,51.77414800000000,CIN/00/03532,116,env.health@harlow.gov.uk,Harlow,http://www.harlow.gov.uk/,0.06398100000000,CM19 5DY,2012-12-18,fhrs_3_en-GB,3,,FHRS,10
18763,27 Adams House,Harlow,Essex,,Harlow Tandoori,Restaurant/Cafe/Canteen,1,10,,153642,10,,51.77131100000000,CIN/01/01936,116,env.health@harlow.gov.uk,Harlow,http://www.harlow.gov.uk/,0.09475400000000,CM20 1BD,2013-12-10,fhrs_3_en-GB,3,,FHRS,10
18764,The Frank Pavesi Pavilion,Ash Tree Field,Elizabeth Way,"Harlow, Essex",Harlow Town Cricket Club,Pub/bar/nightclub,7843,10,,153453,10,,51.77314200000000,CIN/00/03236,116,env.health@harlow.gov.uk,Harlow,http://www.harlow.gov.uk/,0.07157400000000,CM19 5BE,2014-05-11,fhrs_3_en-GB,3,,FHRS,5
18765,Barrows Farm,Elizabeth Way,Harlow,Essex,Harlow Town Football Club,Pub/bar/nightclub,7843,5,,153766,5,,51.77314200000000,CIN/06/04432,116,env.health@harlow.gov.uk,Harlow,http://www.harlow.gov.uk/,0.07157400000000,CM19 5BE,2014-08-20,fhrs_5_en-GB,5,,FHRS,0
18766,15 Garden Terrace Road,Old Harlow,,Essex,Harlow War Memorial Institute,Pub/bar/nightclub,7843,10,,154032,0,,51.78451100000000,CIN/99/02420,116,env.health@harlow.gov.uk,Harlow,http://www.harlow.gov.uk/,0.13478800000000,CM17 0AT,2013-03-13,fhrs_4_en-GB,4,,FHRS,5
18767,Watlington Road,Old Harlow,Essex,,Harlowbury Primary School,School/college/university,7845,0,,154062,0,,51.78458000000000,CIN/99/02567,116,env.health@harlow.gov.uk,Harlow,http://www.harlow.gov.uk/,0.14182300000000,CM17 0DX,2014-02-11,fhrs_5_en-GB,5,,FHRS,0
18768,,,,,Harveys Deli Produce,Other catering premises,7841,10,,629518,0,,,CIN/14/00156,116,env.health@harlow.gov.uk,Harlow,http://www.harlow.gov.uk/,,,2014-02-06,fhrs_4_en-GB,4,,FHRS,0
18769,9 Service Industry Bays,The Stow,Harlow,Essex,Hasty Tasty,Takeaway/sandwich shop,7844,10,,153846,10,,51.77581500000000,CIN/09/02636,116,env.health@harlow.gov.uk,Harlow,http://www.harlow.gov.uk/,0.11290900000000,CM20 3AB,2014-05-05,fhrs_3_en-GB,3,,FHRS,10
18770,Maddox Road,Harlow,Essex,,Heart and Club,Pub/bar/nightclub,7843,5,,153922,5,,51.76877500000000,CIN/10/04815,116,env.health@harlow.gov.uk,Harlow,http://www.harlow.gov.uk/,0.11231900000000,CM20 3NG,2013-10-16,fhrs_4_en-GB,4,,FHRS,10
18771,,,,,Hearty Jerk,Mobile caterer,7846,,,709450,,,,CIN/14/04268,116,env.health@harlow.gov.uk,Harlow,http://www.harlow.gov.uk/,,,,fhrs_awaitinginspection_en-GB,AwaitingInspection,,FHRS,
18772,Kiln Lane,Church Langley,Harlow,Essex,Henry Moore Primary School,School/college/university,7845,0,,153643,0,,51.76313100000000,CIN/01/02165,116,env.health@harlow.gov.uk,Harlow,http://www.harlow.gov.uk/,0.14098200000000,CM17 9LW,2013-07-09,fhrs_5_en-GB,5,,FHRS,5
18773,Unit 15 Latton Bush Business Centre,Southern Way,Harlow,Essex,Herts Meals on Wheels,Hospitals/Childcare/Caring Premises,5,0,,153808,5,,51.75333300000000,CIN/08/02800,116,env.health@harlow.gov.uk,Harlow,http://www.harlow.gov.uk/,0.10744000000000,CM18 7BH,2014-12-10,fhrs_5_en-GB,5,,FHRS,5
18774,27-28 Harvey Centre,Harlow,Essex,,HMV,Retailers - other,4613,,,637162,,,51.76920000000000,CIN/14/00707,116,env.health@harlow.gov.uk,Harlow,http://www.harlow.gov.uk/,0.09356900000000,CM20 1XW,2014-03-26,fhrs_exempt_en-GB,Exempt,,FHRS,
18775,Crown Gate,Harlow,Essex,,Holiday Inn  Express,Hotel/bed & breakfast/guest house,7842,5,,465393,5,,,CIN/12/03452,116,env.health@harlow.gov.uk,Harlow,http://www.harlow.gov.uk/,,CM20 1FL,2014-11-27,fhrs_5_en-GB,5,,FHRS,5
18776,11 Broad Walk,Harlow,Essex,,Holland & Barrett,Retailers - other,4613,5,,153676,5,,51.77055400000000,CIN/03/00644,116,env.health@harlow.gov.uk,Harlow,http://www.harlow.gov.uk/,0.09431300000000,CM20 1HX,2010-06-21,fhrs_5_en-GB,5,,FHRS,5
18777,Tracyes Road,Harlow,Essex,,Holy Cross Catholic Primary Academy,School/college/university,7845,5,,153567,0,,51.75708200000000,CIN/00/03659,116,env.health@harlow.gov.uk,Harlow,http://www.harlow.gov.uk/,0.12096000000000,CM18 6JJ,2015-01-21,fhrs_5_en-GB,5,,FHRS,0
18778,The Nursery,Tracyes Road,Harlow,Essex,Holy Cross Pre-School,Hospitals/Childcare/Caring Premises,5,0,,153650,0,,51.75708200000000,CIN/02/00129,116,env.health@harlow.gov.uk,Harlow,http://www.harlow.gov.uk/,0.12096000000000,CM18 6JJ,2014-07-14,fhrs_5_en-GB,5,,FHRS,0
18779,,,,,Home Baking,Other catering premises,7841,0,,644198,0,,,CIN/14/00930,116,env.health@harlow.gov.uk,Harlow,http://www.harlow.gov.uk/,,,2014-07-17,fhrs_5_en-GB,5,,FHRS,0
18780,,,,,Home Baking,Other catering premises,7841,5,,447313,0,,,CIN/12/03076,116,env.health@harlow.gov.uk,Harlow,http://www.harlow.gov.uk/,,,2013-04-02,fhrs_5_en-GB,5,,FHRS,0
18781,,,,,Home Baking,Other catering premises,7841,5,,154008,5,,,CIN/11/03977,116,env.health@harlow.gov.uk,Harlow,http://www.harlow.gov.uk/,,,2012-01-19,fhrs_5_en-GB,5,,FHRS,0
18782,,,,,Home Baking,Other catering premises,7841,5,,153917,0,,,CIN/10/04462,116,env.health@harlow.gov.uk,Harlow,http://www.harlow.gov.uk/,,,2010-10-18,fhrs_5_en-GB,5,,FHRS,0
18783,,,,,Home Baking,Other catering premises,7841,0,,605650,0,,,CIN/13/03605,116,env.health@harlow.gov.uk,Harlow,http://www.harlow.gov.uk/,,,2014-01-02,fhrs_5_en-GB,5,,FHRS,0
18784,,,,,Home Caterer,Other catering premises,7841,5,,426832,0,,,CIN/12/02199,116,env.health@harlow.gov.uk,Harlow,http://www.harlow.gov.uk/,,,2012-07-06,fhrs_5_en-GB,5,,FHRS,5
18785,Unit 2 Harlow Retail Park,Edinburgh Way,Harlow,Essex,Homebase,Retailers - other,4613,,,153778,,,51.78526600000000,CIN/07/02724,116,env.health@harlow.gov.uk,Harlow,http://www.harlow.gov.uk/,0.11137800000000,CM20 2TN,2008-08-28,fhrs_exempt_en-GB,Exempt,,FHRS,
18786,22 Harvey Centre,Harlow,Essex,,Iceland,Retailers - other,4613,0,,153476,0,,51.76920000000000,CIN/00/03285,116,env.health@harlow.gov.uk,Harlow,http://www.harlow.gov.uk/,0.09356900000000,CM20 1XW,2014-01-23,fhrs_5_en-GB,5,,FHRS,0
18787,Harlow Market Square,Stone Cross,Harlow,Essex,IDF,Retailers - other,4613,5,,153506,5,,51.77140200000000,CIN/00/03393,116,env.health@harlow.gov.uk,Harlow,http://www.harlow.gov.uk/,0.09317800000000,CM20 1BL,2009-03-27,fhrs_5_en-GB,5,,FHRS,5
18788,1 Marriots,The Hoo,Old Harlow,Essex,Imran News,Retailers - other,4613,10,,153490,0,,51.79130900000000,CIN/00/03328,116,env.health@harlow.gov.uk,Harlow,http://www.harlow.gov.uk/,0.13676200000000,CM17 0HT,2014-04-02,fhrs_4_en-GB,4,,FHRS,0
18789,Indian Moments House,Cawley Hatch,Elizabeth Way,"Harlow, Essex",Indian Moments (Essex) Ltd,Restaurant/Cafe/Canteen,1,5,,153795,5,,51.76694000000000,CIN/08/00945,116,env.health@harlow.gov.uk,Harlow,http://www.harlow.gov.uk/,0.06685500000000,CM19 5AN,2013-07-03,fhrs_5_en-GB,5,,FHRS,5
18790,Sydenham House,Monkswick Road,Harlow,Essex,Intermediate Care Nursing Home,Hospitals/Childcare/Caring Premises,5,0,,153675,0,,51.76965400000000,CIN/03/00634,116,env.health@harlow.gov.uk,Harlow,http://www.harlow.gov.uk/,0.11194000000000,CM20 3NU,2013-10-03,fhrs_5_en-GB,5,,FHRS,0
18791,6 to 7 The Rows,Harlow,Essex,,International Shop,Retailers - other,4613,10,,504974,0,,51.77105600000000,CIN/13/00263,116,env.health@harlow.gov.uk,Harlow,http://www.harlow.gov.uk/,0.09290100000000,CM20 1BZ,2013-02-28,fhrs_4_en-GB,4,,FHRS,0
18792,26 Adams House,East Gate,Harlow,Essex,ipizza,Takeaway/sandwich shop,7844,0,,644202,5,,51.77131100000000,CIN/14/01100,116,env.health@harlow.gov.uk,Harlow,http://www.harlow.gov.uk/,0.09475400000000,CM20 1BD,2014-06-19,fhrs_5_en-GB,5,,FHRS,5
18793,Sydenham House,Monkswick Road,Harlow,Essex,Jack and Jill's Nursery,Hospitals/Childcare/Caring Premises,5,5,,153660,5,,51.76965400000000,CIN/02/00342,116,env.health@harlow.gov.uk,Harlow,http://www.harlow.gov.uk/,0.11194000000000,CM20 3NU,2014-01-09,fhrs_5_en-GB,5,,FHRS,0
18794,2 Ward Hatch,Mowbray Road,Harlow,Essex,Jad's Convenience Store,Retailers - other,4613,10,,153626,10,,51.77982700000000,CIN/01/01102,116,env.health@harlow.gov.uk,Harlow,http://www.harlow.gov.uk/,0.11980800000000,CM20 2NB,2013-10-25,fhrs_2_en-GB,2,,FHRS,15
18795,Harlow Masonic Hall,Church Road,Potter Street,"Harlow, Essex",Janet Causton Catering,Pub/bar/nightclub,7843,0,,153530,0,,51.75617600000000,CIN/00/03467,116,env.health@harlow.gov.uk,Harlow,http://www.harlow.gov.uk/,0.13178500000000,CM17 9EL,2015-01-07,fhrs_5_en-GB,5,,FHRS,0
18796,2 Aylmer House,Kitson Way,Harlow,Essex,JD Wetherspoon,Pub/bar/nightclub,7843,5,,153654,0,,51.77118500000000,CIN/02/00237,116,env.health@harlow.gov.uk,Harlow,http://www.harlow.gov.uk/,0.09169000000000,CM20 1DG,2013-11-05,fhrs_5_en-GB,5,,FHRS,5
18797,Churchfield Common Room (attached to The Small Copper Public House),Churchfield,Harlow,Essex,Jelly Beans,Hospitals/Childcare/Caring Premises,5,0,,605646,0,,51.77541000000000,CIN/13/03459,116,env.health@harlow.gov.uk,Harlow,http://www.harlow.gov.uk/,0.12339900000000,CM20 3DE,2013-11-28,fhrs_5_en-GB,5,,FHRS,5
18798,12 Terminus Street,Harlow,Essex,,Jenny's Restaurant,Restaurant/Cafe/Canteen,1,5,,589810,5,,51.77065300000000,CIN/13/03238,116,env.health@harlow.gov.uk,Harlow,http://www.harlow.gov.uk/,0.09479600000000,CM20 1ES,2013-09-02,fhrs_5_en-GB,5,,FHRS,5
18799,Catering by Ashlyns Organics Ltd,Pyenest Road,Harlow,Essex,Jerounds Primary School,School/college/university,7845,0,,153915,0,,51.75647300000000,CIN/10/04385,116,env.health@harlow.gov.uk,Harlow,http://www.harlow.gov.uk/,0.08314200000000,CM19 4PH,2014-05-07,fhrs_5_en-GB,5,,FHRS,0
18800,,,,,Jessica's Bakes,Other catering premises,7841,0,,644200,0,,,CIN/14/01091,116,env.health@harlow.gov.uk,Harlow,http://www.harlow.gov.uk/,,,2014-07-16,fhrs_5_en-GB,5,,FHRS,0
18801,10 Cecil Court,Pegrams Road,Harlow,Essex,Kansas and Papa Joe's,Takeaway/sandwich shop,7844,10,,732555,10,,51.75237700000000,CIN/15/00420,116,env.health@harlow.gov.uk,Harlow,http://www.harlow.gov.uk/,0.08844400000000,CM18 7QR,2015-01-19,fhrs_3_en-GB,3,,FHRS,10
18802,3 Katherines Hatch,Harlow,Essex,,Katherines Local Supermarket,Retailers - other,4613,10,,644204,0,,51.75779100000000,CIN/14/01271,116,env.health@harlow.gov.uk,Harlow,http://www.harlow.gov.uk/,0.07110300000000,CM19 5NP,2014-06-24,fhrs_4_en-GB,4,,FHRS,0
18803,Brookside,Katherines,Harlow,Essex,Katherines Primary School,School/college/university,7845,5,,154028,5,,51.75787800000000,CIN/99/02382,116,env.health@harlow.gov.uk,Harlow,http://www.harlow.gov.uk/,0.07181700000000,CM19 5NJ,2013-09-09,fhrs_5_en-GB,5,,FHRS,5
18804,Coppice Hatch,Harlow,Essex,,Kaz's,Restaurant/Cafe/Canteen,1,5,,605639,10,,51.75870500000000,CIN/13/03320,116,env.health@harlow.gov.uk,Harlow,http://www.harlow.gov.uk/,0.09614100000000,CM18 6SL,2014-03-25,fhrs_4_en-GB,4,,FHRS,5
18805,(Linden Homes) Phase II,Newhall,London Road,"Harlow, Essex CM17 6JA",KE2 Cafe,Restaurant/Cafe/Canteen,1,10,,589811,5,,,CIN/13/03268,116,env.health@harlow.gov.uk,Harlow,http://www.harlow.gov.uk/,,,2014-01-08,fhrs_4_en-GB,4,,FHRS,0
18806,,,,,Kelly's Sweet & Cake Delights,Other catering premises,7841,0,,664043,0,,,CIN/14/01719,116,env.health@harlow.gov.uk,Harlow,http://www.harlow.gov.uk/,,,2014-05-08,fhrs_5_en-GB,5,,FHRS,0
18807,Burnt Mill,Harlow,Essex,,Kev's Snack Bar - Mobile,Mobile caterer,7846,5,,153420,5,,51.77901100000000,CIN/00/03132,116,env.health@harlow.gov.uk,Harlow,http://www.harlow.gov.uk/,0.08600600000000,CM20 2HS,2014-10-30,fhrs_5_en-GB,5,,FHRS,5
18808,Harlow Retail Park,Edinburgh Way,Harlow,Essex,KFC,Restaurant/Cafe/Canteen,1,0,,197160,5,,51.78526600000000,CIN/11/04068,116,env.health@harlow.gov.uk,Harlow,http://www.harlow.gov.uk/,0.11137800000000,CM20 2TN,2014-02-19,fhrs_5_en-GB,5,,FHRS,0
18809,Unit 15 Staple Tye Shopping Centre,Southern Way,Harlow,Essex,KFC Express,Takeaway/sandwich shop,7844,0,,154056,5,,51.75318700000000,CIN/99/02541,116,env.health@harlow.gov.uk,Harlow,http://www.harlow.gov.uk/,0.09195900000000,CM18 7PJ,2013-04-09,fhrs_5_en-GB,5,,FHRS,5
18810,Kiln Lane,Church Langley,Harlow,Essex,Kiddi Caru Day Nursery,Hospitals/Childcare/Caring Premises,5,0,,153698,0,,51.76313100000000,CIN/04/01887,116,env.health@harlow.gov.uk,Harlow,http://www.harlow.gov.uk/,0.14098200000000,CM17 9LW,2015-01-13,fhrs_5_en-GB,5,,FHRS,0
18811,Early Years Building within Little Parndon Primary School,Park Mead,Harlow,Essex,Kidz OK Ltd,Hospitals/Childcare/Caring Premises,5,0,,153984,0,,51.77360300000000,CIN/11/03389,116,env.health@harlow.gov.uk,Harlow,http://www.harlow.gov.uk/,0.08162600000000,CM20 1PU,2013-12-11,fhrs_5_en-GB,5,,FHRS,0
18812,1-3 West Square,West Gate Building,Harlow,Essex,King Du Noodle Bar Restaurant,Restaurant/Cafe/Canteen,1,10,,153751,15,,51.77064400000000,CIN/06/01763,116,env.health@harlow.gov.uk,Harlow,http://www.harlow.gov.uk/,0.09227300000000,CM20 1JJ,2014-11-27,fhrs_2_en-GB,2,,FHRS,15
18813,10 Market House,Stone Cross,Harlow,Essex,King Du Take Away,Takeaway/sandwich shop,7844,10,,153977,10,,51.77140200000000,CIN/11/02797,116,env.health@harlow.gov.uk,Harlow,http://www.harlow.gov.uk/,0.09317800000000,CM20 1BL,2014-11-27,fhrs_3_en-GB,3,,FHRS,10
18814,New Life Christian Fellowship,Purford Green,Harlow,Essex,King's Kitchen,Hospitals/Childcare/Caring Premises,5,,,153504,,,51.76087000000000,CIN/00/03370,116,env.health@harlow.gov.uk,Harlow,http://www.harlow.gov.uk/,0.12136900000000,CM18 6JA,2013-05-16,fhrs_exempt_en-GB,Exempt,,FHRS,
18815,Ployters Road,Harlow,Essex,,Kingsmoor Academy,School/college/university,7845,0,,153527,5,,51.74680500000000,CIN/00/03455,116,env.health@harlow.gov.uk,Harlow,http://www.harlow.gov.uk/,0.08773800000000,CM18 7PS,2014-05-07,fhrs_5_en-GB,5,,FHRS,0
18816,11 Pollard Hatch,Kingsmoor Road,Harlow,Essex,Kingsmoor Chinese Take Away,Takeaway/sandwich shop,7844,10,,153601,10,,51.75551100000000,CIN/01/01036,116,env.health@harlow.gov.uk,Harlow,http://www.harlow.gov.uk/,0.07953300000000,CM19 4LA,2014-01-31,fhrs_3_en-GB,3,,FHRS,10
18817,Parndon Wood Road,Harlow,Essex,,Kingsmoor Christian Centre/Light House,Hospitals/Childcare/Caring Premises,5,5,,153518,5,,51.74588900000000,CIN/00/03438,116,env.health@harlow.gov.uk,Harlow,http://www.harlow.gov.uk/,0.08666700000000,CM19 4SE,2009-11-19,fhrs_5_en-GB,5,,FHRS,5
18818,Church Langley Community Centre,Church Langley Way,Harlow,Essex,Langley Rangers Activity Club & Noah's Arc Pre-School,Hospitals/Childcare/Caring Premises,5,0,,153629,0,,51.76773200000000,CIN/01/01228,116,env.health@harlow.gov.uk,Harlow,http://www.harlow.gov.uk/,0.13275000000000,CM17 9TG,2014-01-27,fhrs_5_en-GB,5,,FHRS,0
18819,Riddings Lane,Harlow,Essex,,Latton Green Primary School,School/college/university,7845,0,,153495,0,,51.74808600000000,CIN/00/03347,116,env.health@harlow.gov.uk,Harlow,http://www.harlow.gov.uk/,0.11315000000000,CM18 7HT,2014-02-04,fhrs_5_en-GB,5,,FHRS,0
18820,Park Lane,Harlow,Essex,,Leah Manning Centre,Hospitals/Childcare/Caring Premises,5,5,,154042,0,,51.77483000000000,CIN/99/02490,116,env.health@harlow.gov.uk,Harlow,http://www.harlow.gov.uk/,0.09859900000000,CM20 2QJ,2014-11-27,fhrs_5_en-GB,5,,FHRS,0
18821,Unit 1 Staple Tye Shopping Centre,Southern Way,Harlow,Essex,Lidl,Retailers - supermarkets/hypermarkets,7840,5,,154055,5,,51.75318700000000,CIN/99/02537,116,env.health@harlow.gov.uk,Harlow,http://www.harlow.gov.uk/,0.09195900000000,CM18 7PJ,2014-06-08,fhrs_5_en-GB,5,,FHRS,5
18822,Purford Green Primary School,Purford Green,Harlow,Essex,Little Acorns Pre-School,Hospitals/Childcare/Caring Premises,5,0,,153818,0,,51.76096200000000,CIN/08/03457,116,env.health@harlow.gov.uk,Harlow,http://www.harlow.gov.uk/,0.12022900000000,CM18 6HP,2009-03-25,fhrs_5_en-GB,5,,FHRS,0
18823,Purford Green Community Club,Purford Green,Harlow,Essex ,Little Explorers Pre-School,Hospitals/Childcare/Caring Premises,5,0,,153940,0,,51.76096200000000,CIN/11/00805,116,env.health@harlow.gov.uk,Harlow,http://www.harlow.gov.uk/,0.12022900000000,CM18 6HP,2011-06-29,fhrs_5_en-GB,5,,FHRS,0
18824,Hodings Road,Harlow,Essex,,Little Parndon Primary School,School/college/university,7845,0,,153514,5,,51.77360300000000,CIN/00/03430,116,env.health@harlow.gov.uk,Harlow,http://www.harlow.gov.uk/,0.08162600000000,CM20 1PU,2014-02-06,fhrs_5_en-GB,5,,FHRS,5
18825,St Mary of Latton Church Hall,The Gowers,Harlow,Essex,Little Stars Pre-School,Hospitals/Childcare/Caring Premises,5,0,,153661,0,,51.77766700000000,CIN/02/00367,116,env.health@harlow.gov.uk,Harlow,http://www.harlow.gov.uk/,0.12237400000000,CM20 2JP,2009-09-28,fhrs_5_en-GB,5,,FHRS,0
18826,Friends Meeting House,Church Leys,Harlow,Essex,Little Treasures Pre-School,Hospitals/Childcare/Caring Premises,5,5,,153652,5,,51.76168600000000,CIN/02/00211,116,env.health@harlow.gov.uk,Harlow,http://www.harlow.gov.uk/,0.10895900000000,CM18 6BY,2010-03-12,fhrs_5_en-GB,5,,FHRS,5
18827,Keefield Close Residential Home,Keefield,Harlow,Essex,Livability,Hospitals/Childcare/Caring Premises,5,5,,153494,0,,51.74421900000000,CIN/00/03346,116,env.health@harlow.gov.uk,Harlow,http://www.harlow.gov.uk/,0.07837700000000,CM19 5SW,2013-07-22,fhrs_5_en-GB,5,,FHRS,5
18828,Netteswell Rectory,Manston Road,Harlow,Essex,Livability,Hospitals/Childcare/Caring Premises,5,0,,154036,0,,51.76724100000000,CIN/99/02475,116,env.health@harlow.gov.uk,Harlow,http://www.harlow.gov.uk/,0.10711700000000,CM20 3PA,2014-01-27,fhrs_5_en-GB,5,,FHRS,0
18829,11 Potter Street,Harlow,Essex,,Livingstone House,Hospitals/Childcare/Caring Premises,5,5,,154044,5,,51.76104700000000,CIN/99/02498,116,env.health@harlow.gov.uk,Harlow,http://www.harlow.gov.uk/,0.13092700000000,CM17 9AE,2014-07-30,fhrs_5_en-GB,5,,FHRS,5
18830,Paringdon Road,Harlow,Essex,,Longwood Primary School & Nursery,School/college/university,7845,0,,153517,5,,51.74900600000000,CIN/00/03434,116,env.health@harlow.gov.uk,Harlow,http://www.harlow.gov.uk/,0.09844500000000,CM18 7RQ,2013-05-23,fhrs_5_en-GB,5,,FHRS,0
18831,4 Colt Hatch,Harlow,Essex,,Lotus House,Takeaway/sandwich shop,7844,5,,717502,5,,51.77465100000000,CIN/14/04767,116,env.health@harlow.gov.uk,Harlow,http://www.harlow.gov.uk/,0.07984700000000,CM20 1SX,2014-11-17,fhrs_5_en-GB,5,,FHRS,5
18832,1A Cawley Hatch,Harlow,Essex,,Louie's Sandwich Bar,Takeaway/sandwich shop,7844,10,,153912,5,,51.76679800000000,CIN/10/04236,116,env.health@harlow.gov.uk,Harlow,http://www.harlow.gov.uk/,0.06674700000000,CM19 5AN,2013-10-30,fhrs_4_en-GB,4,,FHRS,5
18833,,,,,Louise's Cupcakery,Other catering premises,7841,5,,406867,0,,,CIN/12/01943,116,env.health@harlow.gov.uk,Harlow,http://www.harlow.gov.uk/,,,2012-07-03,fhrs_5_en-GB,5,,FHRS,0
18834,,,,,Lunch Ladies,Mobile caterer,7846,10,,534676,5,,,CIN/13/00833,116,env.health@harlow.gov.uk,Harlow,http://www.harlow.gov.uk/,,,2013-04-24,fhrs_4_en-GB,4,,FHRS,5
18835,Unit 6 St James Centre,East Road,Harlow,Essex,M18 Foods,Retailers - other,4613,10,,153995,10,,51.78529100000000,CIN/11/03705,116,env.health@harlow.gov.uk,Harlow,http://www.harlow.gov.uk/,0.12245700000000,CM20 2SX,2014-12-15,fhrs_3_en-GB,3,,FHRS,10
18836,5 Garden Terrace Road,Old Harlow,Essex,,Marina Fish Bar,Takeaway/sandwich shop,7844,10,,153584,10,,51.78451100000000,CIN/01/00993,116,env.health@harlow.gov.uk,Harlow,http://www.harlow.gov.uk/,0.13478800000000,CM17 0AT,2014-08-20,fhrs_3_en-GB,3,,FHRS,10
18837,First Avenue,Harlow,Essex,,Mark Hall Community School & Sports College,School/college/university,7845,5,,153456,10,,51.77889600000000,CIN/00/03241,116,env.health@harlow.gov.uk,Harlow,http://www.harlow.gov.uk/,0.13150700000000,CM17 9LR,2013-12-05,fhrs_3_en-GB,3,,FHRS,10
18838,2 Fore Street,Old Harlow,Essex,,Marquis of Granby Public House,Pub/bar/nightclub,7843,10,,153464,5,,51.78318100000000,CIN/00/03255,116,env.health@harlow.gov.uk,Harlow,http://www.harlow.gov.uk/,0.13224600000000,CM17 0AA,2014-02-03,fhrs_4_en-GB,4,,FHRS,5
18839,3 Long House,Bush Fair,Harlow,Essex,Martins,Retailers - other,4613,5,,153427,5,,51.75728700000000,CIN/00/03150,116,env.health@harlow.gov.uk,Harlow,http://www.harlow.gov.uk/,0.11256500000000,CM18 6NR,2009-11-03,fhrs_4_en-GB,4,,FHRS,10
18840,1-2 Prentice Place,Potter Street,Harlow,Essex,Martins & Post Office,Retailers - other,4613,5,,153531,5,,51.75800700000000,CIN/00/03468,116,env.health@harlow.gov.uk,Harlow,http://www.harlow.gov.uk/,0.13345000000000,CM17 9BG,2008-05-27,fhrs_5_en-GB,5,,FHRS,5
18841,2 Staple Tye,Harlow,Essex,,Martins & Post Office,Retailers - other,4613,5,,153547,5,,51.75318700000000,CIN/00/03577,116,env.health@harlow.gov.uk,Harlow,http://www.harlow.gov.uk/,0.09195900000000,CM18 7PJ,2009-11-03,fhrs_5_en-GB,5,,FHRS,5
18842,9 Market House,Stone Cross,Harlow,Essex,Mary's Pizza Pasta,Takeaway/sandwich shop,7844,10,,682583,15,,51.77140200000000,CIN/14/02794,116,env.health@harlow.gov.uk,Harlow,http://www.harlow.gov.uk/,0.09317800000000,CM20 1BL,2014-08-27,fhrs_2_en-GB,2,,FHRS,15
18843,St James Centre,East Road,Harlow,Essex,Maxines - Mobile,Mobile caterer,7846,10,,153610,5,,51.78529100000000,CIN/01/01064,116,env.health@harlow.gov.uk,Harlow,http://www.harlow.gov.uk/,0.12245700000000,CM20 2SX,2014-02-26,fhrs_4_en-GB,4,,FHRS,0
18844,St Paul's Church,College Square,Harlow,Essex,Maybury Open Door,Hospitals/Childcare/Caring Premises,5,5,,153712,0,,51.76831300000000,CIN/05/01694,116,env.health@harlow.gov.uk,Harlow,http://www.harlow.gov.uk/,0.09293400000000,CM20 1LP,2014-04-08,fhrs_5_en-GB,5,,FHRS,0
18845,Netteswell Hall Annexe,Park Lane,First Avenue,"Harlow, Essex",MCCH Enterprises,Hospitals/Childcare/Caring Premises,5,5,,154018,0,,51.77411400000000,CIN/98/02690,116,env.health@harlow.gov.uk,Harlow,http://www.harlow.gov.uk/,0.09788400000000,CM20 2QH,2008-09-05,fhrs_5_en-GB,5,,FHRS,0
18846,3 Fishers Hatch,Maddox Road,Harlow,Essex,McColls,Retailers - other,4613,5,,153459,0,,51.77102700000000,CIN/00/03246,116,env.health@harlow.gov.uk,Harlow,http://www.harlow.gov.uk/,0.10510400000000,CM20 3PP,2011-02-16,fhrs_5_en-GB,5,,FHRS,5
18847,30 Broad Walk,The High,Harlow,Essex,McDonalds,Restaurant/Cafe/Canteen,1,0,,153592,0,,51.76971600000000,CIN/01/01009,116,env.health@harlow.gov.uk,Harlow,http://www.harlow.gov.uk/,0.09389700000000,CM20 1JA,2014-01-27,fhrs_5_en-GB,5,,FHRS,5
18848,7 The Oaks Retail Park,Howard Way,Harlow,Essex,McDonalds,Restaurant/Cafe/Canteen,1,0,,153512,0,,51.78178500000000,CIN/00/03425,116,env.health@harlow.gov.uk,Harlow,http://www.harlow.gov.uk/,0.10995400000000,CM20 2AB,2013-12-02,fhrs_5_en-GB,5,,FHRS,5
18849,Staple Tye Shopping Centre,Southern Way,Harlow,Essex,McDonalds,Restaurant/Cafe/Canteen,1,0,,153552,0,,51.75318700000000,CIN/00/03591,116,env.health@harlow.gov.uk,Harlow,http://www.harlow.gov.uk/,0.09195900000000,CM18 7PJ,2013-12-02,fhrs_5_en-GB,5,,FHRS,5
18850,Terminus Street,The High,Harlow,Essex,Mecca Bingo Club,Pub/bar/nightclub,7843,5,,154022,5,,51.77033600000000,CIN/98/02772,116,env.health@harlow.gov.uk,Harlow,http://www.harlow.gov.uk/,0.09592600000000,CM20 1XA,2013-12-04,fhrs_5_en-GB,5,,FHRS,5
18851,1 Sumners Hatch,Broadley Road,Harlow,Essex,Medicare Chemist Ltd,Retailers - other,4613,,,154015,,,51.74886800000000,CIN/97/04207,116,env.health@harlow.gov.uk,Harlow,http://www.harlow.gov.uk/,0.07230300000000,CM19 5RD,2010-01-27,fhrs_exempt_en-GB,Exempt,,FHRS,
18852,The Maltings,St Johns Walk,Old Harlow,Essex,Memorial University of Newfoundland,School/college/university,7845,5,,154048,5,,51.78370600000000,CIN/99/02524,116,env.health@harlow.gov.uk,Harlow,http://www.harlow.gov.uk/,0.13105300000000,CM17 0AJ,2014-02-20,fhrs_5_en-GB,5,,FHRS,5
18853,Partridge Care Centre,Partridge Road,Harlow,Essex,Merefield Day Centre,Hospitals/Childcare/Caring Premises,5,10,,338629,5,,51.75613500000000,CIN/12/01203,116,env.health@harlow.gov.uk,Harlow,http://www.harlow.gov.uk/,0.10212200000000,CM18 6TD,2013-12-19,fhrs_4_en-GB,4,,FHRS,0
18854,7-8 Staple Tye,Harlow,Essex,,Metwest Pharmacy,Retailers - other,4613,,,154021,,,51.75318700000000,CIN/98/02738,116,env.health@harlow.gov.uk,Harlow,http://www.harlow.gov.uk/,0.09195900000000,CM18 7PJ,2010-09-09,fhrs_exempt_en-GB,Exempt,,FHRS,
18855,2,3 & 4 Staple Tye Mews,Perry Road,"Harlow, Essex",Mid West Burger Bar,Takeaway/sandwich shop,7844,10,,153550,10,,51.75303600000000,CIN/00/03585,116,env.health@harlow.gov.uk,Harlow,http://www.harlow.gov.uk/,0.09030000000000,CM18 7NW,2014-04-24,fhrs_3_en-GB,3,,FHRS,5
18856,Paringdon Road,Harlow,Essex,,Milwards County Primary School,School/college/university,7845,0,,153516,5,,51.74811300000000,CIN/00/03433,116,env.health@harlow.gov.uk,Harlow,http://www.harlow.gov.uk/,0.08348100000000,CM19 4QX,2014-02-26,fhrs_5_en-GB,5,,FHRS,0
18857,19 West Gate,Harlow,Essex,,Minidelikatesy Kubus Ltd,Retailers - supermarkets/hypermarkets,7840,10,,670401,10,,51.76974000000000,CIN/14/02194,116,env.health@harlow.gov.uk,Harlow,http://www.harlow.gov.uk/,0.09202900000000,CM20 1JR,2014-07-17,fhrs_3_en-GB,3,,FHRS,5
18858,34 Broad Walk,Harlow,Essex,,Monsoon & Accessorize,Retailers - other,4613,,,153759,,,51.76971600000000,CIN/06/03440,116,env.health@harlow.gov.uk,Harlow,http://www.harlow.gov.uk/,0.09389700000000,CM20 1JA,2010-08-24,fhrs_exempt_en-GB,Exempt,,FHRS,
18859,Unit 5-7 Staple Tye Mews,Perry Road,Harlow,Essex,Moonlight Restaurant,Restaurant/Cafe/Canteen,1,5,,154057,5,,51.75303600000000,CIN/99/02543,116,env.health@harlow.gov.uk,Harlow,http://www.harlow.gov.uk/,0.09030000000000,CM18 7NW,2013-07-01,fhrs_5_en-GB,5,,FHRS,5
18860,12 Queensgate Centre,Edinburgh Way,Harlow,Essex,Mothercare World,Retailers - other,4613,,,154047,,,51.78388700000000,CIN/99/02510,116,env.health@harlow.gov.uk,Harlow,http://www.harlow.gov.uk/,0.10805200000000,CM20 2DA,2009-06-12,fhrs_exempt_en-GB,Exempt,,FHRS,
18861,108 The Stow,Harlow,Essex,,Mr Luigi's,Takeaway/sandwich shop,7844,5,,153556,5,,51.77570600000000,CIN/00/03605,116,env.health@harlow.gov.uk,Harlow,http://www.harlow.gov.uk/,0.11491800000000,CM20 3AS,2014-05-05,fhrs_5_en-GB,5,,FHRS,5
18862,Golden Swift,Harberts Road,Harlow,Essex,Mr Whippy (R522 KWR),Retailers - other,4613,10,,691584,0,,51.76710000000000,CIN/14/03311,116,env.health@harlow.gov.uk,Harlow,http://www.harlow.gov.uk/,0.08422500000000,CM19 4AY,2014-08-28,fhrs_4_en-GB,4,,FHRS,0
18863,Linkway Service Station,Kitson Way,Harlow,Essex,MRH ESSO,Retailers - other,4613,10,,493088,5,,51.77118500000000,CIN/13/00108,116,env.health@harlow.gov.uk,Harlow,http://www.harlow.gov.uk/,0.09169000000000,CM20 1DG,2013-02-21,fhrs_4_en-GB,4,,FHRS,0
18864,,,,,mrveg.co.uk,Other catering premises,7841,0,,539680,0,,,CIN/13/01302,116,env.health@harlow.gov.uk,Harlow,http://www.harlow.gov.uk/,,,2013-06-04,fhrs_5_en-GB,5,,FHRS,0
18865,57 Harvey Centre,Harlow,Essex,,Munchies Cakes,Retailers - other,4613,10,,153903,5,,51.76920000000000,CIN/10/03678,116,env.health@harlow.gov.uk,Harlow,http://www.harlow.gov.uk/,0.09356900000000,CM20 1XR,2011-01-27,fhrs_4_en-GB,4,,FHRS,5
18866,16 Service Industry Bays,The Stow,Harlow,Essex,Munchies Pizza,Takeaway/sandwich shop,7844,5,,154004,5,,51.77581500000000,CIN/11/03874,116,env.health@harlow.gov.uk,Harlow,http://www.harlow.gov.uk/,0.11290900000000,CM20 3AB,2014-12-01,fhrs_4_en-GB,4,,FHRS,10
18867,Pyenest Road,Harlow,Essex,,My Place Cafe at The Hub @ Harlow,Hospitals/Childcare/Caring Premises,5,0,,153534,0,,51.75890600000000,CIN/00/03477,116,env.health@harlow.gov.uk,Harlow,http://www.harlow.gov.uk/,0.08789100000000,CM19 4NY,2014-02-19,fhrs_5_en-GB,5,,FHRS,0
18868,15 Coppice Hatch,Harlow,Essex,,My Plaice,Takeaway/sandwich shop,7844,5,,153973,5,,51.75870500000000,CIN/11/02402,116,env.health@harlow.gov.uk,Harlow,http://www.harlow.gov.uk/,0.09614100000000,CM18 6SL,2014-12-02,fhrs_5_en-GB,5,,FHRS,5
18869,3 Civic Walk,The Water Gardens,Harlow,Essex,Nando's,Restaurant/Cafe/Canteen,1,0,,153694,5,,51.76766200000000,CIN/03/02248,116,env.health@harlow.gov.uk,Harlow,http://www.harlow.gov.uk/,0.09412100000000,CM20 1AQ,2013-11-05,fhrs_5_en-GB,5,,FHRS,0
18870,,,,,Neil's Cake Studio,Other catering premises,7841,5,,371831,5,,,CIN/12/01564,116,env.health@harlow.gov.uk,Harlow,http://www.harlow.gov.uk/,,,2012-07-25,fhrs_5_en-GB,5,,FHRS,5
18871,1 Pypers Hatch,Maddox Road,Harlow,Essex,Netteswell Pharmacy,Retailers - other,4613,,,154020,,,51.76877500000000,CIN/98/02707,116,env.health@harlow.gov.uk,Harlow,http://www.harlow.gov.uk/,0.11231900000000,CM20 3NG,2009-05-26,fhrs_exempt_en-GB,Exempt,,FHRS,
18872,2 Pypers Hatch,Maddox Road,Harlow,Essex,New Good Friends,Takeaway/sandwich shop,7844,10,,406866,10,,51.76877500000000,CIN/12/01933,116,env.health@harlow.gov.uk,Harlow,http://www.harlow.gov.uk/,0.11231900000000,CM20 3NG,2013-11-21,fhrs_3_en-GB,3,,FHRS,10
18873,1 Service Bays,Bush Fair,Harlow,Essex,New Indian Balti Express,Takeaway/sandwich shop,7844,5,,153424,10,,51.75712900000000,CIN/00/03142,116,env.health@harlow.gov.uk,Harlow,http://www.harlow.gov.uk/,0.11387600000000,CM18 6LX,2013-09-23,fhrs_4_en-GB,4,,FHRS,5
18874,39 Broad Walk,Harlow,Essex,,New Look,Retailers - other,4613,,,153764,,,51.76984000000000,CIN/06/04244,116,env.health@harlow.gov.uk,Harlow,http://www.harlow.gov.uk/,0.09504800000000,CM20 1JF,2011-03-18,fhrs_exempt_en-GB,Exempt,,FHRS,
18875,9 The Rows,Harlow,Essex,,New Market Cafe,Restaurant/Cafe/Canteen,1,5,,153607,5,,51.77105600000000,CIN/01/01054,116,env.health@harlow.gov.uk,Harlow,http://www.harlow.gov.uk/,0.09290100000000,CM20 1BZ,2013-11-01,fhrs_4_en-GB,4,,FHRS,10
18876,Mark Hall Sports Centre,First Avenue,Harlow,Essex,Newhall Pre-School,Hospitals/Childcare/Caring Premises,5,0,,582386,0,,51.77889600000000,CIN/13/02982,116,env.health@harlow.gov.uk,Harlow,http://www.harlow.gov.uk/,0.13150700000000,CM17 9LR,2013-12-05,fhrs_5_en-GB,5,,FHRS,0
18877,6 Terminus Street,Harlow,Essex,,Newswell Off Licence,Retailers - other,4613,20,,153859,5,,51.77065300000000,CIN/09/03442,116,env.health@harlow.gov.uk,Harlow,http://www.harlow.gov.uk/,0.09479600000000,CM20 1ES,2013-05-02,fhrs_1_en-GB,1,,FHRS,5
18878,Units 1 & 2,The Water Gardens,South Gate,"Harlow, Essex ",Next,Retailers - other,4613,,,153702,,,51.76816600000000,CIN/04/02303,116,env.health@harlow.gov.uk,Harlow,http://www.harlow.gov.uk/,0.09559400000000,CM20 1AB,2008-04-30,fhrs_exempt_en-GB,Exempt,,FHRS,
18879,6A Queensgate Centre,Edinburgh Way,Harlow,Essex ,Next Plc,Retailers - other,4613,,,209635,,,51.78388700000000,CIN/12/00493,116,env.health@harlow.gov.uk,Harlow,http://www.harlow.gov.uk/,0.10805200000000,CM20 2DA,2012-02-07,fhrs_exempt_en-GB,Exempt,,FHRS,
18880,,,,,Noosh,Other catering premises,7841,10,,492292,0,,,CIN/12/04111,116,env.health@harlow.gov.uk,Harlow,http://www.harlow.gov.uk/,,,2013-11-13,fhrs_4_en-GB,4,,FHRS,0
18881,8 West Gate,Harlow,Essex,,Nutricastle Supplements,Retailers - other,4613,,,730264,,,51.77036600000000,CIN/15/00265,116,env.health@harlow.gov.uk,Harlow,http://www.harlow.gov.uk/,0.09172400000000,CM20 1JW,,fhrs_awaitinginspection_en-GB,AwaitingInspection,,FHRS,
18882,Hobtoe Road,Harlow,Essex,,Oakwood Chapel,Hospitals/Childcare/Caring Premises,5,5,,153670,5,,51.77389100000000,CIN/02/01880,116,env.health@harlow.gov.uk,Harlow,http://www.harlow.gov.uk/,0.08058100000000,CM20 1TH,2011-03-21,fhrs_5_en-GB,5,,FHRS,5
18883,2 Hart Road,Old Harlow,Essex,,Oasis Hotel,Hotel/bed & breakfast/guest house,7842,10,,153630,10,,51.79197900000000,CIN/01/01261,116,env.health@harlow.gov.uk,Harlow,http://www.harlow.gov.uk/,0.13451700000000,CM17 0HL,2014-04-23,fhrs_3_en-GB,3,,FHRS,10
18884,11 North House,Bush Fair,Harlow,Essex ,Off Licence,Retailers - other,4613,10,,153923,5,,51.75767300000000,CIN/10/04883,116,env.health@harlow.gov.uk,Harlow,http://www.harlow.gov.uk/,0.11264100000000,CM18 6PA,2011-04-28,fhrs_4_en-GB,4,,FHRS,5
18885,Staff Restaurant - Catering By U-Select-It,PO Box 6068,Edinburgh Way,"Harlow, Essex",O-I Manufacturing UK Limited,Restaurant/Cafe/Canteen,1,5,,153632,5,,51.78532700000000,CIN/01/01355,116,env.health@harlow.gov.uk,Harlow,http://www.harlow.gov.uk/,0.11600600000000,CM20 2DB,2015-01-21,fhrs_4_en-GB,4,,FHRS,10
18886,42 High Street,Old Harlow,Essex,,Old Town Stores,Retailers - other,4613,,,153487,,,51.78332100000000,CIN/00/03323,116,env.health@harlow.gov.uk,Harlow,http://www.harlow.gov.uk/,0.13396300000000,CM17 0DW,2008-05-01,fhrs_exempt_en-GB,Exempt,,FHRS,
18887,33-35 The Stow,Harlow,Essex,,One Stop,Retailers - other,4613,0,,153555,0,,51.77621600000000,CIN/00/03604,116,env.health@harlow.gov.uk,Harlow,http://www.harlow.gov.uk/,0.11410100000000,CM20 3AN,2014-01-23,fhrs_5_en-GB,5,,FHRS,0
18888,Unit 44 & 45 Greenway Business Centre,Greenway,Harlow,Essex,Ora Cafe,Restaurant/Cafe/Canteen,1,10,,153705,10,,51.76748000000000,CIN/05/00576,116,env.health@harlow.gov.uk,Harlow,http://www.harlow.gov.uk/,0.05961800000000,CM19 5QE,2014-01-29,fhrs_3_en-GB,3,,FHRS,10
18889,4 Adams House,The High,Harlow,Essex ,Paddas Newsagent,Retailers - other,4613,10,,153960,0,,51.77131100000000,CIN/11/01261,116,env.health@harlow.gov.uk,Harlow,http://www.harlow.gov.uk/,0.09475400000000,CM20 1BD,2011-04-13,fhrs_4_en-GB,4,,FHRS,0
18890,17 Sheering Road,Old Harlow,Essex,,Pages Guest House,Hotel/bed & breakfast/guest house,7842,10,,154052,5,,51.78354900000000,CIN/99/02529,116,env.health@harlow.gov.uk,Harlow,http://www.harlow.gov.uk/,0.14612400000000,CM17 0JL,2009-11-12,fhrs_4_en-GB,4,,FHRS,0
18891,Unit 13 & 14 Staple Tye Mews,Perry Road,Harlow,Essex,Pak Fook,Takeaway/sandwich shop,7844,10,,153613,5,,51.75303600000000,CIN/01/01073,116,env.health@harlow.gov.uk,Harlow,http://www.harlow.gov.uk/,0.09030000000000,CM18 7NW,2013-11-20,fhrs_4_en-GB,4,,FHRS,5
18892,9 Corner House,Bush Fair,Harlow,Essex,Pak Lock Chinese,Restaurant/Cafe/Canteen,1,10,,153574,10,,51.75789300000000,CIN/01/00956,116,env.health@harlow.gov.uk,Harlow,http://www.harlow.gov.uk/,0.11336100000000,CM18 6NZ,2014-12-16,fhrs_3_en-GB,3,,FHRS,10
18893,Unit 14 Staple Tye Shopping Centre,Southern Way,Harlow,Essex,Papa John's,Takeaway/sandwich shop,7844,,,730262,,,51.75318700000000,CIN/15/00249,116,env.health@harlow.gov.uk,Harlow,http://www.harlow.gov.uk/,0.09195900000000,CM18 7PJ,,fhrs_awaitinginspection_en-GB,AwaitingInspection,,FHRS,
18894,26 Broad Walk,Harlow,Essex,,Papa's Cafe,Restaurant/Cafe/Canteen,1,5,,153989,5,,51.76971600000000,CIN/11/03529,116,env.health@harlow.gov.uk,Harlow,http://www.harlow.gov.uk/,0.09389700000000,CM20 1JA,2013-07-18,fhrs_5_en-GB,5,,FHRS,0
18895,65 Harvey Centre,Harlow,Essex,,Papa's Cappucino,Restaurant/Cafe/Canteen,1,5,,153591,0,,51.76899700000000,CIN/01/01008,116,env.health@harlow.gov.uk,Harlow,http://www.harlow.gov.uk/,0.09189300000000,CM20 1XS,2013-02-18,fhrs_5_en-GB,5,,FHRS,5
18896,Paringdon Road,Harlow,Essex,,Paringdon Sports Club,Pub/bar/nightclub,7843,5,,232183,5,,51.75017500000000,CIN/12/00692,116,env.health@harlow.gov.uk,Harlow,http://www.harlow.gov.uk/,0.08228700000000,CM19 4QT,2013-08-07,fhrs_5_en-GB,5,,FHRS,5
18897,Southern Way,Harlow,,Essex,Park Inn Harlow,Hotel/bed & breakfast/guest house,7842,10,,153546,5,,51.75586500000000,CIN/00/03575,116,env.health@harlow.gov.uk,Harlow,http://www.harlow.gov.uk/,0.12609000000000,CM18 7BA,2014-08-07,fhrs_3_en-GB,3,,FHRS,10
18898,Partridge Road,Harlow,Essex,,Partridge Care Centre,Hospitals/Childcare/Caring Premises,5,0,,153824,5,,51.75613500000000,CIN/09/00881,116,env.health@harlow.gov.uk,Harlow,http://www.harlow.gov.uk/,0.10212200000000,CM18 6TD,2013-10-03,fhrs_5_en-GB,5,,FHRS,0
18899,,,,,PAS Catering,Other catering premises,7841,10,,589809,0,,,CIN/13/03236,116,env.health@harlow.gov.uk,Harlow,http://www.harlow.gov.uk/,,,2014-01-28,fhrs_4_en-GB,4,,FHRS,0
18900,13-15 Wych Elm,Harlow,Essex,,PAS Catering (mobile van),Mobile caterer,7846,10,,670404,5,,51.77201000000000,CIN/14/02343,116,env.health@harlow.gov.uk,Harlow,http://www.harlow.gov.uk/,0.09032200000000,CM20 1QR,2014-10-01,fhrs_4_en-GB,4,,FHRS,0
18901,Tracyes Road,Harlow,Essex,,Passmores Academy Trust,School/college/university,7845,0,,153990,0,,51.74823000000000,CIN/11/03565,116,env.health@harlow.gov.uk,Harlow,http://www.harlow.gov.uk/,0.10795600000000,CM18 6JH,2013-07-15,fhrs_5_en-GB,5,,FHRS,5
18902,Breakfast Club,Pear Tree Mead,Harlow,Essex ,Pear Tree Mead Primary & Nursery School,School/college/university,7845,0,,153839,0,,51.75540500000000,CIN/09/01925,116,env.health@harlow.gov.uk,Harlow,http://www.harlow.gov.uk/,0.11721500000000,CM18 7BY,2009-12-16,fhrs_5_en-GB,5,,FHRS,0
18903,Catering by Caterhouse,Pear Tree Mead,Harlow,Essex,Pear Tree Mead Primary & Nursery School,School/college/university,7845,0,,153569,5,,51.75540500000000,CIN/00/03661,116,env.health@harlow.gov.uk,Harlow,http://www.harlow.gov.uk/,0.11721500000000,CM18 7BY,2014-09-09,fhrs_5_en-GB,5,,FHRS,5
18904,Staff Restaurant - Catering by Baxterstorey,1 Edinburgh Gate,Burnt Mill,"Harlow, Essex",Pearson Education,Restaurant/Cafe/Canteen,1,5,,153447,5,,51.78141600000000,CIN/00/03220,116,env.health@harlow.gov.uk,Harlow,http://www.harlow.gov.uk/,0.09991900000000,CM20 2JE,2014-01-16,fhrs_5_en-GB,5,,FHRS,0
18905,Tye Green Community Centre,Tilegate Road,Bush Fair,"Harlow, Essex ",Peter Pan & Tinkerbell Play Group,Hospitals/Childcare/Caring Premises,5,5,,153564,5,,51.75880100000000,CIN/00/03650,116,env.health@harlow.gov.uk,Harlow,http://www.harlow.gov.uk/,0.11341800000000,CM18 6LU,2010-02-15,fhrs_5_en-GB,5,,FHRS,5
18906,Spurriers,Town Park,Harlow,Essex,Pets Corner,Restaurant/Cafe/Canteen,1,,,570277,,,51.78061900000000,CIN/13/02071,116,env.health@harlow.gov.uk,Harlow,http://www.harlow.gov.uk/,0.09820000000000,CM20 2DQ,,fhrs_awaitinginspection_en-GB,AwaitingInspection,,FHRS,
18907,Market Traders,Market Square,Stone Cross,"Harlow, Essex",Phill's Grill,Mobile caterer,7846,10,,637157,5,,51.77140300000000,CIN/14/00515,116,env.health@harlow.gov.uk,Harlow,http://www.harlow.gov.uk/,0.09513500000000,CM20 1BA,2014-03-06,fhrs_4_en-GB,4,,FHRS,0
18908,Tillwicks Road,Harlow,Essex,,Phoenix Public House,Pub/bar/nightclub,7843,0,,338621,0,,51.76257200000000,CIN/12/01085,116,env.health@harlow.gov.uk,Harlow,http://www.harlow.gov.uk/,0.11424700000000,CM18 6EN,2012-04-18,fhrs_5_en-GB,5,,FHRS,0
18909,The Pink Cottage,Commonside Road,Harlow,Essex,Pink Spice,Restaurant/Cafe/Canteen,1,5,,578666,0,,51.74798600000000,CIN/13/02552,116,env.health@harlow.gov.uk,Harlow,http://www.harlow.gov.uk/,0.10019400000000,CM18 7JB,2013-08-02,fhrs_5_en-GB,5,,FHRS,0
18910,Unit A3.1 Civic Walk,The Water Gardens,Harlow,Essex,Pizza Express,Restaurant/Cafe/Canteen,1,5,,578659,5,,51.76766200000000,CIN/13/02459,116,env.health@harlow.gov.uk,Harlow,http://www.harlow.gov.uk/,0.09412100000000,CM20 1AQ,2013-09-19,fhrs_5_en-GB,5,,FHRS,0
18911,13 Queensgate Centre,Edinburgh Way,Harlow,Essex,Pizza Hut,Restaurant/Cafe/Canteen,1,0,,153537,0,,51.78388700000000,CIN/00/03483,116,env.health@harlow.gov.uk,Harlow,http://www.harlow.gov.uk/,0.10805200000000,CM20 2DA,2014-01-30,fhrs_5_en-GB,5,,FHRS,5
18912,7 Adams House,The High,Harlow,Essex,Pizza Hut,Takeaway/sandwich shop,7844,5,,153716,5,,51.77131100000000,CIN/05/03111,116,env.health@harlow.gov.uk,Harlow,http://www.harlow.gov.uk/,0.09475400000000,CM20 1BD,2013-07-22,fhrs_5_en-GB,5,,FHRS,5
18913,Tawneys Road,Harlow,Essex,,Poplar Kitten Public House - Bar,Pub/bar/nightclub,7843,10,,153624,5,,51.75761100000000,CIN/01/01096,116,env.health@harlow.gov.uk,Harlow,http://www.harlow.gov.uk/,0.11055200000000,CM18 6PN,2009-09-03,fhrs_4_en-GB,4,,FHRS,5
18914,98 Potter Street,Harlow,Essex,,Potter Street Baptist Church,Pub/bar/nightclub,7843,0,,153668,0,,51.75654200000000,CIN/02/01518,116,env.health@harlow.gov.uk,Harlow,http://www.harlow.gov.uk/,0.13291800000000,CM17 9AW,2014-04-10,fhrs_5_en-GB,5,,FHRS,0
18915,96 Potter Street,Harlow,Essex,,Potter Street Community Association,Pub/bar/nightclub,7843,5,,154019,5,,51.75928900000000,CIN/98/02699,116,env.health@harlow.gov.uk,Harlow,http://www.harlow.gov.uk/,0.13167100000000,CM17 9AQ,2010-09-23,fhrs_5_en-GB,5,,FHRS,5
18916,Catering by Passmores Academy,Carters Mead,Harlow,Essex,Potter Street Primary School,School/college/university,7845,,,726425,,,51.75902900000000,CIN/14/05121,116,env.health@harlow.gov.uk,Harlow,http://www.harlow.gov.uk/,0.12868800000000,CM17 9EU,,fhrs_awaitinginspection_en-GB,AwaitingInspection,,FHRS,
18917,Church Langley Way,Harlow,Essex,,Potters Arms Public House,Pub/bar/nightclub,7843,5,,153571,5,,51.76712600000000,CIN/01/00943,116,env.health@harlow.gov.uk,Harlow,http://www.harlow.gov.uk/,0.13092400000000,CM17 9TD,2014-01-25,fhrs_4_en-GB,4,,FHRS,10
18918,17-18 Harvey Centre,Harvey Centre Approach,Harlow,Essex,Poundland,Retailers - other,4613,5,,153475,5,,51.76920000000000,CIN/00/03283,116,env.health@harlow.gov.uk,Harlow,http://www.harlow.gov.uk/,0.09356900000000,CM20 1XW,2009-05-12,fhrs_5_en-GB,5,,FHRS,5
18919,Unit 19 Staple Tye Shopping Centre,Southern Way,Harlow,Essex,Poundland,Retailers - other,4613,0,,644201,0,,51.75318700000000,CIN/14/01094,116,env.health@harlow.gov.uk,Harlow,http://www.harlow.gov.uk/,0.09195900000000,CM18 7PJ,2014-07-07,fhrs_5_en-GB,5,,FHRS,0
18920,Unit 12 The Water Gardens,Harlow,Essex,,Poundworld / discount UK,Retailers - other,4613,5,,406864,5,,51.76803700000000,CIN/12/01717,116,env.health@harlow.gov.uk,Harlow,http://www.harlow.gov.uk/,0.09424000000000,CM20 1AJ,2012-07-17,fhrs_5_en-GB,5,,FHRS,5
18921,St Albans Catholic Academy,First Avenue,Harlow,Essex,Pre-School at St Albans,Hospitals/Childcare/Caring Premises,5,0,,582384,0,,51.77682500000000,CIN/13/02979,116,env.health@harlow.gov.uk,Harlow,http://www.harlow.gov.uk/,0.10924500000000,CM20 2NP,2013-10-24,fhrs_5_en-GB,5,,FHRS,0
18922,Restaurant & Ward Kitchens,Hamstel Road,Harlow,Essex,Princess Alexandra Hospital,Hospitals/Childcare/Caring Premises,5,5,,153470,5,,51.77135300000000,CIN/00/03267,116,env.health@harlow.gov.uk,Harlow,http://www.harlow.gov.uk/,0.08629100000000,CM20 1QX,2014-08-18,fhrs_5_en-GB,5,,FHRS,5
18923,Catering by Passmores Academy,Purford Green,Harlow,Essex,Purford Green Primary Academy,School/college/university,7845,5,,637159,5,,51.76096200000000,CIN/14/00582,116,env.health@harlow.gov.uk,Harlow,http://www.harlow.gov.uk/,0.12022900000000,CM18 6HP,2014-02-13,fhrs_5_en-GB,5,,FHRS,5
18924,Purford Green,Harlow,Essex,,Purford Green Primary Breakfast Club,School/college/university,7845,,,726424,,,51.76096200000000,CIN/14/05103,116,env.health@harlow.gov.uk,Harlow,http://www.harlow.gov.uk/,0.12022900000000,CM18 6HP,,fhrs_awaitinginspection_en-GB,AwaitingInspection,,FHRS,
18925,15 Horsecroft Place,Pinnacles Industrial Estate,Harlow,Essex,Quality Indian,Takeaway/sandwich shop,7844,10,,153696,5,,51.76480900000000,CIN/04/00237,116,env.health@harlow.gov.uk,Harlow,http://www.harlow.gov.uk/,0.06116400000000,CM19 5BU,2013-09-23,fhrs_4_en-GB,4,,FHRS,5
18926,Upper Floors,Hawthorn House,1-5 Harvey Centre Approach,"The High, Harlow, Essex",Quasar Elite,Restaurant/Cafe/Canteen,1,5,,153838,5,,51.76906100000000,CIN/09/01914,116,env.health@harlow.gov.uk,Harlow,http://www.harlow.gov.uk/,0.09433100000000,CM20 1HF,2014-09-15,fhrs_5_en-GB,5,,FHRS,5
18927,11 Market House,The High,Harlow,Essex,Quick Stop News,Retailers - other,4613,10,,154038,0,,51.77140200000000,CIN/99/02479,116,env.health@harlow.gov.uk,Harlow,http://www.harlow.gov.uk/,0.09317800000000,CM20 1BL,2011-04-13,fhrs_4_en-GB,4,,FHRS,0
18928,,,,,Raena's online sari-sari,Other catering premises,7841,0,,539674,0,,,CIN/13/01192,116,env.health@harlow.gov.uk,Harlow,http://www.harlow.gov.uk/,,,2013-06-12,fhrs_5_en-GB,5,,FHRS,0
18929,Norway House,Hamstel Road,Harlow,Essex,Rainbow Day Nursery (Harlow) Ltd,Hospitals/Childcare/Caring Premises,5,0,,153651,5,,51.77135300000000,CIN/02/00175,116,env.health@harlow.gov.uk,Harlow,http://www.harlow.gov.uk/,0.08629100000000,CM20 1QX,2014-09-09,fhrs_5_en-GB,5,,FHRS,5
18930,Meadows Children Centre,Harberts Road,Harlow,Essex,Raindrops Day Nursery Ltd,Hospitals/Childcare/Caring Premises,5,0,,153674,0,,51.76741400000000,CIN/03/00585,116,env.health@harlow.gov.uk,Harlow,http://www.harlow.gov.uk/,0.08680500000000,CM19 4BU,2014-10-16,fhrs_5_en-GB,5,,FHRS,0
18931,38 High Street,Old Harlow,Essex,,Raj Lodge,Restaurant/Cafe/Canteen,1,5,,153595,5,,51.78332100000000,CIN/01/01013,116,env.health@harlow.gov.uk,Harlow,http://www.harlow.gov.uk/,0.13396300000000,CM17 0DW,2014-07-15,fhrs_4_en-GB,4,,FHRS,10
18932,43-45 High Street,Old Harlow,Essex,,Ramco,Retailers - other,4613,,,153631,,,51.78366700000000,CIN/01/01325,116,env.health@harlow.gov.uk,Harlow,http://www.harlow.gov.uk/,0.13371900000000,CM17 0DN,2009-05-26,fhrs_exempt_en-GB,Exempt,,FHRS,
18933,Staff Restaurant - Catering by Eurest,Elizabeth Way,Harlow,Essex,Raytheon Systems,Restaurant/Cafe/Canteen,1,5,,153452,5,,51.76918100000000,CIN/00/03234,116,env.health@harlow.gov.uk,Harlow,http://www.harlow.gov.uk/,0.06618900000000,CM19 5BB,2013-02-13,fhrs_5_en-GB,5,,FHRS,5
18934,,,,,Rebekah's Carribean Cuisine,Other catering premises,7841,,,637160,,,,CIN/14/00584,116,env.health@harlow.gov.uk,Harlow,http://www.harlow.gov.uk/,,,,fhrs_awaitinginspection_en-GB,AwaitingInspection,,FHRS,
18935,109 Potter Street,Harlow,,Essex,Red Lion Public House,Pub/bar/nightclub,7843,5,,153528,5,,51.75827900000000,CIN/00/03464,116,env.health@harlow.gov.uk,Harlow,http://www.harlow.gov.uk/,0.13284000000000,CM17 9AH,2010-07-26,fhrs_5_en-GB,5,,FHRS,5
18936,Mark Hall And Netteswell Community Association,Moot House,The Stow,"Harlow, Essex",Regeneration Centre Charitable Organisation,Pub/bar/nightclub,7843,0,,717496,0,,51.77489800000000,CIN/14/04477,116,env.health@harlow.gov.uk,Harlow,http://www.harlow.gov.uk/,0.11435900000000,CM20 3AG,2014-12-04,fhrs_5_en-GB,5,,FHRS,0
18937,7-9 West Gate,Harlow,Essex,,Reksio Ltd,Retailers - other,4613,5,,154000,5,,51.77029000000000,CIN/11/03789,116,env.health@harlow.gov.uk,Harlow,http://www.harlow.gov.uk/,0.09250300000000,CM20 1JS,2014-03-03,fhrs_5_en-GB,5,,FHRS,5
18938,4 Wych Elm,Harlow,Essex,,Ripped Gym Ltd,Restaurant/Cafe/Canteen,1,0,,153809,5,,51.77226000000000,CIN/08/02827,116,env.health@harlow.gov.uk,Harlow,http://www.harlow.gov.uk/,0.08992700000000,CM20 1QP,2015-01-12,fhrs_5_en-GB,5,,FHRS,5
18939,Ozdil House,River Way,Harlow,Essex,Riverway Cafe,Restaurant/Cafe/Canteen,1,10,,539672,0,,51.79385500000000,CIN/13/01184,116,env.health@harlow.gov.uk,Harlow,http://www.harlow.gov.uk/,0.12628100000000,CM20 2DR,2013-04-09,fhrs_4_en-GB,4,,FHRS,0
18940,,,,,Roxanne's Cakes,Other catering premises,7841,0,,504973,0,,,CIN/13/00197,116,env.health@harlow.gov.uk,Harlow,http://www.harlow.gov.uk/,,,2013-03-27,fhrs_5_en-GB,5,,FHRS,0
18941,Latton Green Primary School,Riddings Lane,Harlow,Essex,Rum Tum Tugger's Nursery,Hospitals/Childcare/Caring Premises,5,0,,153680,0,,51.74779500000000,CIN/03/01473,116,env.health@harlow.gov.uk,Harlow,http://www.harlow.gov.uk/,0.11332500000000,CM18 7HT,2014-03-05,fhrs_5_en-GB,5,,FHRS,0
18942,Alexandra House,Hamstel Road,Harlow,Essex,Runwood Homes Plc,Hospitals/Childcare/Caring Premises,5,0,,153821,5,,51.77308500000000,CIN/09/00553,116,env.health@harlow.gov.uk,Harlow,http://www.harlow.gov.uk/,0.08602300000000,CM20 1BU,2013-11-27,fhrs_5_en-GB,5,,FHRS,0
18943,,,,,S&J Ices,Mobile caterer,7846,,,691581,,,,CIN/14/03127,116,env.health@harlow.gov.uk,Harlow,http://www.harlow.gov.uk/,,,,fhrs_awaitinginspection_en-GB,AwaitingInspection,,FHRS,
18944,,,,,S&J Ices - DG60 JVN,Mobile caterer,7846,5,,582379,0,,,CIN/13/02772,116,env.health@harlow.gov.uk,Harlow,http://www.harlow.gov.uk/,,,2013-08-14,fhrs_5_en-GB,5,,FHRS,0
18945,,,,,S&J Ices - SG58 NGY,Mobile caterer,7846,0,,153599,0,,,CIN/01/01033,116,env.health@harlow.gov.uk,Harlow,http://www.harlow.gov.uk/,,,2013-05-02,fhrs_5_en-GB,5,,FHRS,0
18946,Fifth Allende Avenue,Harlow,Essex,,Sainsbury's,Retailers - supermarkets/hypermarkets,7840,0,,154023,5,,51.77416900000000,CIN/99/02374,116,env.health@harlow.gov.uk,Harlow,http://www.harlow.gov.uk/,0.09279900000000,CM20 2AG,2013-05-30,fhrs_5_en-GB,5,,FHRS,5
18947,Fifth Allende Avenue,Harlow,Essex,,Sainsbury's Cafe,Restaurant/Cafe/Canteen,1,0,,352178,5,,51.77416900000000,CIN/12/01324,116,env.health@harlow.gov.uk,Harlow,http://www.harlow.gov.uk/,0.09279900000000,CM20 2AG,2014-01-22,fhrs_5_en-GB,5,,FHRS,0
18948,10 The Rows,Harlow,Essex,,Sala Minimarket,Retailers - other,4613,10,,153803,0,,51.77105600000000,CIN/08/01220,116,env.health@harlow.gov.uk,Harlow,http://www.harlow.gov.uk/,0.09290100000000,CM20 1BZ,2012-03-02,fhrs_4_en-GB,4,,FHRS,0
18949,Tendring Road,Harlow,Essex,,Salvation Army,Hospitals/Childcare/Caring Premises,5,0,,153560,0,,51.75894000000000,CIN/00/03621,116,env.health@harlow.gov.uk,Harlow,http://www.harlow.gov.uk/,0.09758700000000,CM18 6RN,2014-10-02,fhrs_5_en-GB,5,,FHRS,0
18950,35 Broad Walk,Harlow,Essex,,Savers,Retailers - other,4613,,,154035,,,51.76984000000000,CIN/99/02455,116,env.health@harlow.gov.uk,Harlow,http://www.harlow.gov.uk/,0.09504800000000,CM20 1JF,2009-05-21,fhrs_exempt_en-GB,Exempt,,FHRS,
18951,15 The Stow,Harlow,Essex,,Sayona News,Retailers - other,4613,,,153554,,,51.77558100000000,CIN/00/03599,116,env.health@harlow.gov.uk,Harlow,http://www.harlow.gov.uk/,0.11440500000000,CM20 3AH,2008-08-05,fhrs_exempt_en-GB,Exempt,,FHRS,
18952,Potter Street Primary School,Carters Mead,Harlow,Essex,Schoolgate Nursery,Hospitals/Childcare/Caring Premises,5,0,,582385,0,,51.75901200000000,CIN/13/02981,116,env.health@harlow.gov.uk,Harlow,http://www.harlow.gov.uk/,0.12858600000000,CM17 9EU,2013-12-04,fhrs_5_en-GB,5,,FHRS,0
18953,,,,,Scrummyummy,Other catering premises,7841,0,,589812,0,,,CIN/13/03282,116,env.health@harlow.gov.uk,Harlow,http://www.harlow.gov.uk/,,,2014-01-16,fhrs_5_en-GB,5,,FHRS,0
18954,3 The Rows,Harlow,Essex,,Seen Nightclub,Pub/bar/nightclub,7843,5,,153904,5,,51.77132200000000,CIN/10/03939,116,env.health@harlow.gov.uk,Harlow,http://www.harlow.gov.uk/,0.09262400000000,CM20 1BX,2011-03-31,fhrs_5_en-GB,5,,FHRS,0
18955,,,,,Shake n Bake,Mobile caterer,7846,10,,637158,0,,,CIN/14/00520,116,env.health@harlow.gov.uk,Harlow,http://www.harlow.gov.uk/,,,2014-03-12,fhrs_4_en-GB,4,,FHRS,5
18956,42B Service Industry Bays,The Stow,Harlow,Essex,Shake Wrap and Roll,Takeaway/sandwich shop,7844,,,730263,,,51.77621600000000,CIN/15/00259,116,env.health@harlow.gov.uk,Harlow,http://www.harlow.gov.uk/,0.11410100000000,CM20 3AN,,fhrs_awaitinginspection_en-GB,AwaitingInspection,,FHRS,
18957,6 Corner House,Bush Fair,Harlow,Essex,Sheppard & Wright Butchers,Retailers - other,4613,5,,153425,5,,51.75789300000000,CIN/00/03146,116,env.health@harlow.gov.uk,Harlow,http://www.harlow.gov.uk/,0.11336100000000,CM18 6NZ,2014-02-27,fhrs_4_en-GB,4,,FHRS,10
18958,33 Service Industry Bays,The Stow,Harlow,Essex,Sher Khans,Takeaway/sandwich shop,7844,10,,209634,10,,51.77581500000000,CIN/12/00549,116,env.health@harlow.gov.uk,Harlow,http://www.harlow.gov.uk/,0.11290900000000,CM20 3AB,2014-03-04,fhrs_3_en-GB,3,,FHRS,10
18959,2 Sumners Hatch,Broadley Road,Harlow,Essex,SK News,Retailers - other,4613,20,,153559,5,,51.74886800000000,CIN/00/03618,116,env.health@harlow.gov.uk,Harlow,http://www.harlow.gov.uk/,0.07230300000000,CM19 5RD,2013-05-23,fhrs_1_en-GB,1,,FHRS,0
18960,10 Pollard Hatch,Kingsmoor Road,Harlow,Essex,Ski Mini Market,Retailers - other,4613,10,,153526,0,,51.75551100000000,CIN/00/03454,116,env.health@harlow.gov.uk,Harlow,http://www.harlow.gov.uk/,0.07953300000000,CM19 4LA,2013-07-31,fhrs_4_en-GB,4,,FHRS,0
18961,Harlow College,Velizy Avenue,Harlow,Essex,Skylight Brasserie,School/college/university,7845,5,,153942,0,,51.77047700000000,CIN/11/00864,116,env.health@harlow.gov.uk,Harlow,http://www.harlow.gov.uk/,0.09913600000000,CM20 3LH,2013-03-14,fhrs_5_en-GB,5,,FHRS,5
18962,4-5 New Pond Street,Newhall,Harlow,Essex,Smiles Montessori Newhall,Hospitals/Childcare/Caring Premises,5,5,,551246,5,,51.77307200000000,CIN/13/01395,116,env.health@harlow.gov.uk,Harlow,http://www.harlow.gov.uk/,0.13827800000000,CM17 9FG,2014-04-23,fhrs_5_en-GB,5,,FHRS,5
18963,Unit 1 The Fairway,Bush Fair,Harlow,Essex,Smiles Montessori Pre-School,Hospitals/Childcare/Caring Premises,5,0,,153666,0,,51.75710100000000,CIN/02/01445,116,env.health@harlow.gov.uk,Harlow,http://www.harlow.gov.uk/,0.11442600000000,CM18 6LY,2013-11-21,fhrs_5_en-GB,5,,FHRS,0
18964,Moot House,The Stow,Harlow,Essex,Social Club,Pub/bar/nightclub,7843,5,,153558,5,,51.77489800000000,CIN/00/03616,116,env.health@harlow.gov.uk,Harlow,http://www.harlow.gov.uk/,0.11435900000000,CM20 3AG,2010-01-06,fhrs_5_en-GB,5,,FHRS,0
18965,,,,,Sophisticakes Essex,Other catering premises,7841,10,,153986,5,,,CIN/11/03413,116,env.health@harlow.gov.uk,Harlow,http://www.harlow.gov.uk/,,,2011-11-01,fhrs_4_en-GB,4,,FHRS,5
18966,Catering by Pro Catering Solutions,Church Langley Sports Field,Minton Lane,"Harlow, Essex",South East Harlow Sports Youth Association,Takeaway/sandwich shop,7844,5,,621659,5,,51.76831300000000,CIN/13/04013,116,env.health@harlow.gov.uk,Harlow,http://www.harlow.gov.uk/,0.13390700000000,CM17 9TP,2013-12-08,fhrs_4_en-GB,4,,FHRS,10
18967,24 Clifton Hatch,Harlow,Essex,,Spar,Retailers - other,4613,5,,703634,5,,,CIN/14/03396,116,env.health@harlow.gov.uk,Harlow,http://www.harlow.gov.uk/,,CM18 7FF,2014-10-24,fhrs_4_en-GB,4,,FHRS,10
18968,6 Cecil Court,Pegrams Road,Harlow,Essex,Spice of India,Takeaway/sandwich shop,7844,10,,153430,10,,51.75237700000000,CIN/00/03161,116,env.health@harlow.gov.uk,Harlow,http://www.harlow.gov.uk/,0.08844400000000,CM18 7QR,2014-04-24,fhrs_3_en-GB,3,,FHRS,10
18969,Cooks Spinney Primary School,Harlow,,Essex,Spinney Pre-School,Hospitals/Childcare/Caring Premises,5,5,,153756,5,,51.77409500000000,CIN/06/03319,116,env.health@harlow.gov.uk,Harlow,http://www.harlow.gov.uk/,0.11852500000000,CM20 3BW,2010-03-11,fhrs_5_en-GB,5,,FHRS,5
18970,2 Harefield,Harlow,Essex,,Springers B&B,Hotel/bed & breakfast/guest house,7842,0,,465400,0,,51.77042400000000,CIN/12/03611,116,env.health@harlow.gov.uk,Harlow,http://www.harlow.gov.uk/,0.11813600000000,CM20 3EF,2012-12-05,fhrs_5_en-GB,5,,FHRS,0
18971,School Lane,Harlow,Essex,,Spurriers Cafe,Restaurant/Cafe/Canteen,1,0,,153700,0,,51.77917300000000,CIN/04/01988,116,env.health@harlow.gov.uk,Harlow,http://www.harlow.gov.uk/,0.09914800000000,CM20 2QG,2014-08-07,fhrs_5_en-GB,5,,FHRS,0
18972,Catering by - Ashlyns Organics Ltd,First Avenue,Harlow,Essex,St Albans Catholic Primary School,School/college/university,7845,5,,153458,5,,51.77682500000000,CIN/00/03243,116,env.health@harlow.gov.uk,Harlow,http://www.harlow.gov.uk/,0.10924500000000,CM20 2NP,2013-07-11,fhrs_5_en-GB,5,,FHRS,5
18973,The Stow,Harlow,,Essex,St Andrew's Methodist Church,Hospitals/Childcare/Caring Premises,5,10,,605642,0,,51.77517200000000,CIN/13/03408,116,env.health@harlow.gov.uk,Harlow,http://www.harlow.gov.uk/,0.11266100000000,CM20 3AF,2014-01-16,fhrs_4_en-GB,4,,FHRS,5
18974,St Jame's and St Luke's Church Hall,Perry Road,Harlow,Essex,St Jame's and St Luke's Pre-School,Hospitals/Childcare/Caring Premises,5,5,,153657,10,,51.75303100000000,CIN/02/00294,116,env.health@harlow.gov.uk,Harlow,http://www.harlow.gov.uk/,0.08959000000000,CM18 7NP,2010-03-08,fhrs_4_en-GB,4,,FHRS,5
18975,Paringdon Road,Harlow,Essex,,St James C of E Primary School,School/college/university,7845,5,,153515,5,,51.74747000000000,CIN/00/03432,116,env.health@harlow.gov.uk,Harlow,http://www.harlow.gov.uk/,0.09382400000000,CM18 7RH,2013-07-04,fhrs_5_en-GB,5,,FHRS,5
18976,Perry Road,Harlow,Essex,,St Jame's Church and St Luke's Church,Hospitals/Childcare/Caring Premises,5,0,,605644,0,,51.75303100000000,CIN/13/03450,116,env.health@harlow.gov.uk,Harlow,http://www.harlow.gov.uk/,0.08959000000000,CM18 7NP,2013-11-27,fhrs_5_en-GB,5,,FHRS,0
18977,St Johns Walk,Harlow,Essex,,St Johns Arts And Recreation Centre,Hospitals/Childcare/Caring Premises,5,5,,154049,10,,51.78370600000000,CIN/99/02525,116,env.health@harlow.gov.uk,Harlow,http://www.harlow.gov.uk/,0.13105300000000,CM17 0AJ,2008-07-26,fhrs_4_en-GB,4,,FHRS,5
18978,Pyenest Road,Harlow,Essex,,St Luke's Catholic Primary School,School/college/university,7845,,,154046,,,51.75775600000000,CIN/99/02505,116,env.health@harlow.gov.uk,Harlow,http://www.harlow.gov.uk/,0.08833000000000,CM19 4LU,2014-09-22,fhrs_4_en-GB,4,,FHRS,
18979,Tripton Road,Harlow,Essex,,St Marks Comprehensive School,School/college/university,7845,0,,153568,0,,51.76448200000000,CIN/00/03660,116,env.health@harlow.gov.uk,Harlow,http://www.harlow.gov.uk/,0.10351000000000,CM18 6AA,2013-12-03,fhrs_5_en-GB,5,,FHRS,5
18980,(Church Kitchen) used by Starfishes & Coffee Club,Churchgate Street,Old Harlow,Essex,St Mary and St Hugh Church,Hospitals/Childcare/Caring Premises,5,0,,455584,0,,51.78189300000000,CIN/12/03308,116,env.health@harlow.gov.uk,Harlow,http://www.harlow.gov.uk/,0.14916200000000,CM17 0JT,2012-12-13,fhrs_5_en-GB,5,,FHRS,0
18981,(Hall Kitchen) used by Little Fishes,Churchgate Street,Old Harlow,Essex,St Mary and St Hugh Church Hall,Hospitals/Childcare/Caring Premises,5,0,,153646,0,,51.78189300000000,CIN/02/00065,116,env.health@harlow.gov.uk,Harlow,http://www.harlow.gov.uk/,0.14916200000000,CM17 0JT,2009-09-16,fhrs_5_en-GB,5,,FHRS,0
18982,Church Hall,The Gowers,Harlow,Essex,St Mary at Latton,Hospitals/Childcare/Caring Premises,5,10,,605647,0,,51.77766700000000,CIN/13/03463,116,env.health@harlow.gov.uk,Harlow,http://www.harlow.gov.uk/,0.12237400000000,CM20 2JP,2013-11-28,fhrs_4_en-GB,4,,FHRS,0
18983,Catering by Harrison Catering Services Ltd,Hobbs Cross Road,Harlow,Essex,St Nicholas School,School/college/university,7845,0,,717492,5,,51.77949200000000,CIN/14/03963,116,env.health@harlow.gov.uk,Harlow,http://www.harlow.gov.uk/,0.15406400000000,CM17 0NJ,2014-12-03,fhrs_5_en-GB,5,,FHRS,5
18984,Tawneys Road,Harlow,Essex,,St Stephen's Church,Hospitals/Childcare/Caring Premises,5,0,,605643,0,,51.75784000000000,CIN/13/03437,116,env.health@harlow.gov.uk,Harlow,http://www.harlow.gov.uk/,0.11030200000000,CM18 6QR,2014-02-04,fhrs_5_en-GB,5,,FHRS,0
18985,Passmores House,Third Avenue,Harlow,Essex,Stabilisation  Services,Hospitals/Childcare/Caring Premises,5,5,,153835,0,,51.76251900000000,CIN/09/01791,116,env.health@harlow.gov.uk,Harlow,http://www.harlow.gov.uk/,0.08953600000000,CM18 6YL,2013-07-03,fhrs_5_en-GB,5,,FHRS,5
18986,Unit 3 - 10 St James Centre,East Road,Harlow,Essex,Staples UK,Retailers - other,4613,,,465395,,,51.78529100000000,CIN/12/03473,116,env.health@harlow.gov.uk,Harlow,http://www.harlow.gov.uk/,0.12245700000000,CM20 2SX,2012-11-22,fhrs_exempt_en-GB,Exempt,,FHRS,
18987,,,,,StevenKitchen.co.uk,Other catering premises,7841,0,,644196,0,,,CIN/14/00864,116,env.health@harlow.gov.uk,Harlow,http://www.harlow.gov.uk/,,,2014-03-26,fhrs_5_en-GB,5,,FHRS,0
18988,,,,,Stevie Snax's,Mobile caterer,7846,5,,371813,5,,,CIN/12/01348,116,env.health@harlow.gov.uk,Harlow,http://www.harlow.gov.uk/,,,2013-01-15,fhrs_5_en-GB,5,,FHRS,5
18989,Parnall Road,Harlow,Essex,,Stewards Academy,School/college/university,7845,0,,153840,0,,51.75099100000000,CIN/09/02070,116,env.health@harlow.gov.uk,Harlow,http://www.harlow.gov.uk/,0.09306000000000,CM18 7NQ,2014-07-09,fhrs_5_en-GB,5,,FHRS,0
18990,2 Wych Elm,Harlow,Essex,,Streets to Homes,Hospitals/Childcare/Caring Premises,5,10,,153783,5,,51.77226000000000,CIN/07/02856,116,env.health@harlow.gov.uk,Harlow,http://www.harlow.gov.uk/,0.08992700000000,CM20 1QP,2011-08-01,fhrs_4_en-GB,4,,FHRS,5
18991,25 West Gate,Harlow,Essex,,Subru's Butchers,Retailers - other,4613,10,,153957,15,,51.76974000000000,CIN/11/01217,116,env.health@harlow.gov.uk,Harlow,http://www.harlow.gov.uk/,0.09202900000000,CM20 1JR,2014-12-17,fhrs_2_en-GB,2,,FHRS,15
18992,29 West Gate,Harlow,Essex,,Subru's Convenience Store,Retailers - other,4613,10,,153813,10,,51.76974000000000,CIN/08/03154,116,env.health@harlow.gov.uk,Harlow,http://www.harlow.gov.uk/,0.09202900000000,CM20 1JR,2013-07-22,fhrs_2_en-GB,2,,FHRS,15
18993,14 Queensgate Centre,Edinburgh Way,Harlow,Essex,Subway,Takeaway/sandwich shop,7844,5,,371812,5,,51.78388700000000,CIN/12/01328,116,env.health@harlow.gov.uk,Harlow,http://www.harlow.gov.uk/,0.10805200000000,CM20 2DA,2014-05-30,fhrs_5_en-GB,5,,FHRS,5
18994,29 East Gate,Harlow,,,Subway,Takeaway/sandwich shop,7844,5,,504977,5,,51.77057100000000,CIN/13/00336,116,env.health@harlow.gov.uk,Harlow,http://www.harlow.gov.uk/,0.09338600000000,CM20 1HP,2014-07-17,fhrs_5_en-GB,5,,FHRS,5
18995,Unit 11 Staple Tye Shopping Centre,Southern Way,Harlow,Essex,Subway,Takeaway/sandwich shop,7844,5,,371811,5,,51.75318700000000,CIN/12/01326,116,env.health@harlow.gov.uk,Harlow,http://www.harlow.gov.uk/,0.09195900000000,CM18 7PJ,2013-10-25,fhrs_5_en-GB,5,,FHRS,5
18996,11 High Street,Old Harlow,Essex,,Sue Ryder,Retailers - other,4613,,,154006,,,51.78332100000000,CIN/11/03898,116,env.health@harlow.gov.uk,Harlow,http://www.harlow.gov.uk/,0.13396300000000,CM17 0DW,2013-05-28,fhrs_exempt_en-GB,Exempt,,FHRS,
18997,Phelips Road,Harlow,Essex,,Sumners Farm Close,Hospitals/Childcare/Caring Premises,5,0,,153637,0,,51.74482100000000,CIN/01/01749,116,env.health@harlow.gov.uk,Harlow,http://www.harlow.gov.uk/,0.07691300000000,CM19 5SL,2015-01-29,fhrs_5_en-GB,5,,FHRS,0
18998,3 Sumners Hatch,Broadley Road,Harlow,Essex,Sun Kwong Fish Bar,Takeaway/sandwich shop,7844,5,,153622,5,,51.74886800000000,CIN/01/01092,116,env.health@harlow.gov.uk,Harlow,http://www.harlow.gov.uk/,0.07230300000000,CM19 5RD,2015-01-16,fhrs_5_en-GB,5,,FHRS,0
18999,Coppice Hatch Common Room,Partridge Road,Harlow,Essex,Sunflower Coppice Hatch Pre-School,Hospitals/Childcare/Caring Premises,5,5,,153655,5,,51.75870500000000,CIN/02/00288,116,env.health@harlow.gov.uk,Harlow,http://www.harlow.gov.uk/,0.09614100000000,CM18 6SL,2010-03-11,fhrs_5_en-GB,5,,FHRS,5
19000,Sumners Community Recreation Centre,Broadley Road,Harlow,Essex,Sunflower Day Nursery & Kids Club,Hospitals/Childcare/Caring Premises,5,0,,153653,0,,51.74886800000000,CIN/02/00212,116,env.health@harlow.gov.uk,Harlow,http://www.harlow.gov.uk/,0.07230300000000,CM19 5RD,2013-06-27,fhrs_5_en-GB,5,,FHRS,5
19001,Maunds Hatch,Harlow,Essex,,Sunflower Maunds Hatch Pre-School,Hospitals/Childcare/Caring Premises,5,5,,153656,5,,51.74833100000000,CIN/02/00291,116,env.health@harlow.gov.uk,Harlow,http://www.harlow.gov.uk/,0.09847100000000,CM18 7RG,2009-08-05,fhrs_4_en-GB,4,,FHRS,10
19002,Kingsmoor Road,Harlow,Essex,,Sunflower Pollard Hatch Pre-School,Hospitals/Childcare/Caring Premises,5,5,,153658,10,,51.75551100000000,CIN/02/00297,116,env.health@harlow.gov.uk,Harlow,http://www.harlow.gov.uk/,0.07953300000000,CM19 4LA,2007-11-06,fhrs_4_en-GB,4,,FHRS,5
19003,Ployters Road,Harlow,Essex,,Sunflower Sherards Hatch Pre-School,Hospitals/Childcare/Caring Premises,5,5,,153659,5,,51.74680500000000,CIN/02/00301,116,env.health@harlow.gov.uk,Harlow,http://www.harlow.gov.uk/,0.08773800000000,CM18 7PS,2010-03-17,fhrs_5_en-GB,5,,FHRS,5
19004,,,,,Super Soft,Mobile caterer,7846,0,,153612,0,,,CIN/01/01071,116,env.health@harlow.gov.uk,Harlow,http://www.harlow.gov.uk/,,,2013-06-12,fhrs_5_en-GB,5,,FHRS,0
19005,,,,,Super Whip,Retailers - other,4613,0,,153708,0,,,CIN/05/01025,116,env.health@harlow.gov.uk,Harlow,http://www.harlow.gov.uk/,,,2015-01-27,fhrs_5_en-GB,5,,FHRS,0
19006,19 Harvey Centre,Harlow,Essex,,Superdrug Stores,Retailers - other,4613,5,,154034,0,,51.76920000000000,CIN/99/02433,116,env.health@harlow.gov.uk,Harlow,http://www.harlow.gov.uk/,0.09356900000000,CM20 1XW,2009-05-13,fhrs_5_en-GB,5,,FHRS,5
19007,,,,,Sweet Louise Cakes,Other catering premises,7841,5,,153959,5,,,CIN/11/01259,116,env.health@harlow.gov.uk,Harlow,http://www.harlow.gov.uk/,,,2011-11-17,fhrs_5_en-GB,5,,FHRS,5
19008,Harvey Centre,The High,Harlow,Essex,Sweetone,Retailers - other,4613,10,,709448,0,,51.76899700000000,CIN/14/04200,116,env.health@harlow.gov.uk,Harlow,http://www.harlow.gov.uk/,0.09189300000000,CM20 1XP,2014-09-17,fhrs_4_en-GB,4,,FHRS,0
19009,Catering by LSB Catering Ltd,Central Road,Templefields,"Harlow, Essex",Synthomer - Staff Restaurant,Restaurant/Cafe/Canteen,1,5,,153884,5,,51.78439800000000,CIN/10/02821,116,env.health@harlow.gov.uk,Harlow,http://www.harlow.gov.uk/,0.11912400000000,CM20 2BH,2013-05-09,fhrs_5_en-GB,5,,FHRS,5
19010,30 The Stow,Harlow,Essex,,Tales of India,Restaurant/Cafe/Canteen,1,10,,153615,5,,51.77621600000000,CIN/01/01078,116,env.health@harlow.gov.uk,Harlow,http://www.harlow.gov.uk/,0.11410100000000,CM20 3AN,2014-03-24,fhrs_4_en-GB,4,,FHRS,5
19011,Tany's Dell,Mowbray Road,Harlow,Essex,Tany's Dell Community Primary School,School/college/university,7845,0,,154060,0,,51.78012600000000,CIN/99/02558,116,env.health@harlow.gov.uk,Harlow,http://www.harlow.gov.uk/,0.11869200000000,CM20 2LS,2015-01-27,fhrs_5_en-GB,5,,FHRS,0
19012,,,,,Tasty Cakes,Other catering premises,7841,10,,153858,5,,,CIN/09/03348,116,env.health@harlow.gov.uk,Harlow,http://www.harlow.gov.uk/,,,2010-02-16,fhrs_4_en-GB,4,,FHRS,0
19013,13 High Street,Old Harlow,Essex,,Tasty Fish Bar Ltd,Takeaway/sandwich shop,7844,10,,153485,5,,51.78366700000000,CIN/00/03316,116,env.health@harlow.gov.uk,Harlow,http://www.harlow.gov.uk/,0.13371900000000,CM17 0DN,2014-02-10,fhrs_4_en-GB,4,,FHRS,5
19014,3 Adams House,The High,Harlow,Essex,Tasty Grill Express,Restaurant/Cafe/Canteen,1,10,,153825,10,,51.77131100000000,CIN/09/00891,116,env.health@harlow.gov.uk,Harlow,http://www.harlow.gov.uk/,0.09475400000000,CM20 1BD,2014-01-22,fhrs_3_en-GB,3,,FHRS,10
19015,5 North House,Bush Fair,Harlow,Essex,Tennessee Express,Takeaway/sandwich shop,7844,5,,717495,5,,51.75767300000000,CIN/14/04474,116,env.health@harlow.gov.uk,Harlow,http://www.harlow.gov.uk/,0.11264100000000,CM18 6PA,2014-11-27,fhrs_4_en-GB,4,,FHRS,10
19016,Old Road,Harlow,Essex,,Territorial Army & Cadet Centre,Restaurant/Cafe/Canteen,1,,,154017,,,51.78613100000000,CIN/98/02689,116,env.health@harlow.gov.uk,Harlow,http://www.harlow.gov.uk/,0.13966400000000,CM17 0HD,2010-07-08,fhrs_exempt_en-GB,Exempt,,FHRS,
19017,Tesco Stores Ltd,Church Langley Way,Harlow,Essex,Tesco Family Dining Ltd,Restaurant/Cafe/Canteen,1,0,,703638,0,,51.76609900000000,CIN/14/03929,116,env.health@harlow.gov.uk,Harlow,http://www.harlow.gov.uk/,0.13251300000000,CM17 9TE,2014-10-29,fhrs_5_en-GB,5,,FHRS,5
19018,1-6 Harvey Centre,Harlow,Essex,,Tesco Harlow Metro,Retailers - supermarkets/hypermarkets,7840,0,,153589,0,,51.76920000000000,CIN/01/01004,116,env.health@harlow.gov.uk,Harlow,http://www.harlow.gov.uk/,0.09356900000000,CM20 1XN,2013-09-02,fhrs_5_en-GB,5,,FHRS,0
19019,Church Langley Way,Harlow,Essex,,Tesco Stores Ltd,Retailers - supermarkets/hypermarkets,7840,5,,154024,0,,51.76609900000000,CIN/99/02375,116,env.health@harlow.gov.uk,Harlow,http://www.harlow.gov.uk/,0.13251300000000,CM17 9TE,2014-08-18,fhrs_5_en-GB,5,,FHRS,0
19020,East Road,Harlow,Essex,,Tesco Stores Ltd,Retailers - supermarkets/hypermarkets,7840,0,,153443,0,,51.78561200000000,CIN/00/03214,116,env.health@harlow.gov.uk,Harlow,http://www.harlow.gov.uk/,0.12511100000000,CM20 2TG,2014-06-09,fhrs_5_en-GB,5,,FHRS,0
19021,Church Langley Way,Harlow,Essex,,Tesco Stores Ltd - Filling Station,Retailers - other,4613,0,,154025,0,,51.76609900000000,CIN/99/02376,116,env.health@harlow.gov.uk,Harlow,http://www.harlow.gov.uk/,0.13251300000000,CM17 9TE,2011-08-31,fhrs_5_en-GB,5,,FHRS,0
19022,East Road,Harlow,Essex,,Tesco Stores Ltd - Filling Station,Retailers - other,4613,0,,153444,5,,51.78561200000000,CIN/00/03216,116,env.health@harlow.gov.uk,Harlow,http://www.harlow.gov.uk/,0.12511100000000,CM20 2TG,2010-09-02,fhrs_5_en-GB,5,,FHRS,5
19023,Church Langley Way,Harlow,Essex,,Tesco Stores Ltd - Staff Canteen,Restaurant/Cafe/Canteen,1,0,,153628,0,,51.76609900000000,CIN/01/01199,116,env.health@harlow.gov.uk,Harlow,http://www.harlow.gov.uk/,0.13251300000000,CM17 9TE,2014-10-29,fhrs_5_en-GB,5,,FHRS,0
19024,1-6 Harvey Centre,Harlow,Essex,,Tesco Stores Ltd - Staff Restaurant,Restaurant/Cafe/Canteen,1,0,,153588,5,,51.76920000000000,CIN/01/01003,116,env.health@harlow.gov.uk,Harlow,http://www.harlow.gov.uk/,0.09356900000000,CM20 1XN,2014-07-09,fhrs_5_en-GB,5,,FHRS,5
19025,East Road,Harlow,Essex,,Tesco Stores Ltd - Staff Restaurant,Restaurant/Cafe/Canteen,1,5,,153445,5,,51.78561200000000,CIN/00/03217,116,env.health@harlow.gov.uk,Harlow,http://www.harlow.gov.uk/,0.12511100000000,CM20 2TG,2013-09-10,fhrs_5_en-GB,5,,FHRS,5
19026,Catering by Olive Catering Services Ltd,Field House,Station Approach,"Harlow, Essex",Teva UK Ltd - Staff Restaurant,Restaurant/Cafe/Canteen,1,5,,493089,0,,51.78003800000000,CIN/13/00112,116,env.health@harlow.gov.uk,Harlow,http://www.harlow.gov.uk/,0.09246200000000,CM20 2EW,2013-03-06,fhrs_5_en-GB,5,,FHRS,0
19027,The Pinnacles,Elizabeth Way,Harlow,Essex,Texaco Service Station,Retailers - other,4613,5,,153450,0,,51.76694000000000,CIN/00/03228,116,env.health@harlow.gov.uk,Harlow,http://www.harlow.gov.uk/,0.06685500000000,CM19 5AN,2009-11-02,fhrs_4_en-GB,4,,FHRS,10
19028,109 The Stow,Harlow,Essex,,TGF Pizza,Takeaway/sandwich shop,7844,10,,153619,10,,51.77570600000000,CIN/01/01086,116,env.health@harlow.gov.uk,Harlow,http://www.harlow.gov.uk/,0.11491800000000,CM20 3AS,2014-05-05,fhrs_3_en-GB,3,,FHRS,10
19029,Hubbards Hall,Churchgate Street,Harlow,Essex,That Amazing Place,Pub/bar/nightclub,7843,5,,691589,0,,51.77265200000000,CIN/14/03383,116,env.health@harlow.gov.uk,Harlow,http://www.harlow.gov.uk/,0.14849100000000,CM17 0NH,2014-09-24,fhrs_5_en-GB,5,,FHRS,5
19030,Motability,Warwick House,Stadium Way,"Harlow, Essex",The Atrium Cafe,Restaurant/Cafe/Canteen,1,5,,589807,5,,51.77078000000000,CIN/13/03195,116,env.health@harlow.gov.uk,Harlow,http://www.harlow.gov.uk/,0.06579800000000,CM19 5PX,2013-10-24,fhrs_5_en-GB,5,,FHRS,0
19031,Edinburgh Way,Harlow,Essex,,The Burnt Mill Snooker & Social Club,Pub/bar/nightclub,7843,5,,153448,5,,51.78061900000000,CIN/00/03222,116,env.health@harlow.gov.uk,Harlow,http://www.harlow.gov.uk/,0.09820000000000,CM20 2DQ,2014-02-09,fhrs_4_en-GB,4,,FHRS,10
19032,,,,,The Cake Den,Other catering premises,7841,0,,338628,0,,,CIN/12/01200,116,env.health@harlow.gov.uk,Harlow,http://www.harlow.gov.uk/,,,2014-09-19,fhrs_5_en-GB,5,,FHRS,0
19033,,,,,The Cake Tin Co.,Other catering premises,7841,0,,615273,0,,,CIN/13/03654,116,env.health@harlow.gov.uk,Harlow,http://www.harlow.gov.uk/,,,2014-01-22,fhrs_5_en-GB,5,,FHRS,0
19034,2 Elm Hatch,Waterhouse Moor,Harlow,Essex,The Candy Box,Retailers - other,4613,,,153582,,,51.76349100000000,CIN/01/00985,116,env.health@harlow.gov.uk,Harlow,http://www.harlow.gov.uk/,0.10910100000000,CM18 6BH,2008-05-08,fhrs_exempt_en-GB,Exempt,,FHRS,
19035,Three Horseshoes Road,Harlow,Essex,,The Cock Inn Public House,Pub/bar/nightclub,7843,5,,153561,5,,51.75907600000000,CIN/00/03640,116,env.health@harlow.gov.uk,Harlow,http://www.harlow.gov.uk/,0.08133400000000,CM19 4HB,2013-10-02,fhrs_5_en-GB,5,,FHRS,5
19036,107 The Stow,Harlow,Essex,,The Co-operative Pharmacy,Retailers - other,4613,,,154059,,,51.77570600000000,CIN/99/02548,116,env.health@harlow.gov.uk,Harlow,http://www.harlow.gov.uk/,0.11491800000000,CM20 3AS,2009-05-26,fhrs_exempt_en-GB,Exempt,,FHRS,
19037,5 Market House,Market Square,The High,"Harlow, Essex",The Co-operative Pharmacy,Retailers - other,4613,,,154037,,,51.77140200000000,CIN/99/02476,116,env.health@harlow.gov.uk,Harlow,http://www.harlow.gov.uk/,0.09317800000000,CM20 1BL,2008-08-27,fhrs_exempt_en-GB,Exempt,,FHRS,
19038,Catering by Old Harlow Food Services Ltd,40 Market Street,Harlow,Essex,The Crown,Pub/bar/nightclub,7843,10,,455581,10,,51.78334200000000,CIN/12/03173,116,env.health@harlow.gov.uk,Harlow,http://www.harlow.gov.uk/,0.13028200000000,CM17 0AQ,2014-08-08,fhrs_3_en-GB,3,,FHRS,10
19039,40 Market Street,Harlow,Essex,,The Crown Old Harlow Ltd,Pub/bar/nightclub,7843,0,,455582,0,,51.78334200000000,CIN/12/03181,116,env.health@harlow.gov.uk,Harlow,http://www.harlow.gov.uk/,0.13028200000000,CM17 0AQ,2012-08-29,fhrs_5_en-GB,5,,FHRS,0
19040,The Hides,Harlow,Essex,,The Downs Primary School & Nursery,School/college/university,7845,0,,153417,0,,51.76955400000000,CIN/00/03109,116,env.health@harlow.gov.uk,Harlow,http://www.harlow.gov.uk/,0.10048500000000,CM20 3RB,2013-07-04,fhrs_5_en-GB,5,,FHRS,0
19041,Sherards Hatch,Ployters Road,Harlow,Essex,The Drinker Moth Public House,Pub/bar/nightclub,7843,10,,153608,10,,51.74680500000000,CIN/01/01059,116,env.health@harlow.gov.uk,Harlow,http://www.harlow.gov.uk/,0.08773800000000,CM18 7PS,2014-12-10,fhrs_3_en-GB,3,,FHRS,10
19042,Unit 3 The Water Gardens,South Gate,Harlow,Essex,The Entertainer,Retailers - other,4613,,,153701,,,51.76816600000000,CIN/04/02300,116,env.health@harlow.gov.uk,Harlow,http://www.harlow.gov.uk/,0.09559400000000,CM20 1AB,2009-05-12,fhrs_exempt_en-GB,Exempt,,FHRS,
19043,The Stow,Harlow,Essex,,The Essex Skipper Public House,Pub/bar/nightclub,7843,10,,153866,5,,51.77570600000000,CIN/10/00163,116,env.health@harlow.gov.uk,Harlow,http://www.harlow.gov.uk/,0.11491800000000,CM20 3AS,2010-02-15,fhrs_4_en-GB,4,,FHRS,5
19044,18 Staple Tye Shopping Centre,Southern Way,Harlow,Essex,The Food Shop,Takeaway/sandwich shop,7844,5,,153549,5,,51.75318700000000,CIN/00/03583,116,env.health@harlow.gov.uk,Harlow,http://www.harlow.gov.uk/,0.09195900000000,CM18 7PJ,2013-09-09,fhrs_5_en-GB,5,,FHRS,5
19045,Unit C 55 The Chase,Newhall,Harlow,Essex,The Food Store Newhall,Retailers - other,4613,10,,644194,0,,51.77253800000000,CIN/14/00797,116,env.health@harlow.gov.uk,Harlow,http://www.harlow.gov.uk/,0.13646900000000,CM17 9JA,2014-03-20,fhrs_4_en-GB,4,,FHRS,0
19046,,,,,The Frosted Vanilla Bakery,Other catering premises,7841,5,,371832,5,,,CIN/12/01634,116,env.health@harlow.gov.uk,Harlow,http://www.harlow.gov.uk/,,,2012-05-30,fhrs_5_en-GB,5,,FHRS,5
19047,Fishers Hatch,Maddox Road,Harlow,Essex ,The Garden Tiger Public House,Pub/bar/nightclub,7843,5,,153461,5,,51.77106300000000,CIN/00/03249,116,env.health@harlow.gov.uk,Harlow,http://www.harlow.gov.uk/,0.10506200000000,CM20 3PP,2011-11-29,fhrs_4_en-GB,4,,FHRS,10
19048,The Gateway Centre,Perry Road,Harlow,Essex,The Gateway Nursery,Hospitals/Childcare/Caring Premises,5,0,,153968,5,,51.75154800000000,CIN/11/02039,116,env.health@harlow.gov.uk,Harlow,http://www.harlow.gov.uk/,0.09055000000000,CM18 7NR,2014-10-07,fhrs_5_en-GB,5,,FHRS,0
19049,12 School Lane,Harlow,Essex,,The Greyhound Public House,Pub/bar/nightclub,7843,10,,153878,10,,51.77687800000000,CIN/10/01464,116,env.health@harlow.gov.uk,Harlow,http://www.harlow.gov.uk/,0.10223100000000,CM20 2QB,2014-08-08,fhrs_3_en-GB,3,,FHRS,10
19050,100 Hare Street Springs,Harlow,Essex,,The Hare Public House,Pub/bar/nightclub,7843,5,,153941,0,,51.76894800000000,CIN/11/00844,116,env.health@harlow.gov.uk,Harlow,http://www.harlow.gov.uk/,0.08502000000000,CM19 4AS,2014-05-08,fhrs_5_en-GB,5,,FHRS,5
19051,Broadley Road,Harlow,Essex,,The Herald Public House,Pub/bar/nightclub,7843,5,,153623,0,,51.74886800000000,CIN/01/01094,116,env.health@harlow.gov.uk,Harlow,http://www.harlow.gov.uk/,0.07230300000000,CM19 5RD,2013-08-29,fhrs_5_en-GB,5,,FHRS,5
19052,9 Market House,Stone Cross,Harlow,Essex,The Kebabery,Takeaway/sandwich shop,7844,10,,578658,15,,51.77140200000000,CIN/13/02457,116,env.health@harlow.gov.uk,Harlow,http://www.harlow.gov.uk/,0.09317800000000,CM20 1BL,2014-08-27,fhrs_2_en-GB,2,,FHRS,15
19053,Latton Bush Centre,Southern Way,Harlow,Essex,The Latton Cafe,Restaurant/Cafe/Canteen,1,0,,153997,0,,51.75333300000000,CIN/11/03745,116,env.health@harlow.gov.uk,Harlow,http://www.harlow.gov.uk/,0.10744000000000,CM18 7BL,2014-12-10,fhrs_5_en-GB,5,,FHRS,0
19054,Parsloe Road,Harlow,Essex,,The Link Sports & Social Club,Pub/bar/nightclub,7843,10,,153520,10,,51.74387300000000,CIN/00/03440,116,env.health@harlow.gov.uk,Harlow,http://www.harlow.gov.uk/,0.08117100000000,CM19 4RT,2013-07-24,fhrs_3_en-GB,3,,FHRS,5
19055,Ward Hatch,Harlow,Essex,,The Lords Vine,Restaurant/Cafe/Canteen,1,,,153842,,,51.77982700000000,CIN/09/02172,116,env.health@harlow.gov.uk,Harlow,http://www.harlow.gov.uk/,0.11980800000000,CM20 2NB,2010-03-17,fhrs_exempt_en-GB,Exempt,,FHRS,
19056,Hodings Road,Harlow,Essex,,The Maples Short Break Service,Hospitals/Childcare/Caring Premises,5,0,,153796,0,,51.77360300000000,CIN/08/00969,116,env.health@harlow.gov.uk,Harlow,http://www.harlow.gov.uk/,0.08162600000000,CM20 1PU,2014-08-07,fhrs_5_en-GB,5,,FHRS,0
19057,Harefield Church,Momples Road,Harlow,Essex,The Maybury Open Door,Restaurant/Cafe/Canteen,1,5,,153703,0,,51.77133100000000,CIN/04/02359,116,env.health@harlow.gov.uk,Harlow,http://www.harlow.gov.uk/,0.11968600000000,CM20 3EH,2013-05-30,fhrs_5_en-GB,5,,FHRS,0
19058,Burntmill Lane,Harlow,Essex,,The Moorhen,Restaurant/Cafe/Canteen,1,5,,153573,10,,51.78314400000000,CIN/01/00948,116,env.health@harlow.gov.uk,Harlow,http://www.harlow.gov.uk/,0.09578000000000,CM20 2QS,2013-09-26,fhrs_4_en-GB,4,,FHRS,5
19059,94 The Stow,Harlow,Essex,,The New Cathay Chinese,Restaurant/Cafe/Canteen,1,5,,426831,10,,51.77507900000000,CIN/12/02194,116,env.health@harlow.gov.uk,Harlow,http://www.harlow.gov.uk/,0.11480200000000,CM20 3AP,2013-11-16,fhrs_3_en-GB,3,,FHRS,10
19060,Warwick House,Perry Road,Harlow,Essex,The Nursery Rooms,Hospitals/Childcare/Caring Premises,5,0,,153525,5,,51.75130000000000,CIN/00/03447,116,env.health@harlow.gov.uk,Harlow,http://www.harlow.gov.uk/,0.08884400000000,CM18 7NF,2014-07-14,fhrs_5_en-GB,5,,FHRS,5
19061,Oddfellows Hall,Broadway Avenue,Harlow,Essex,The Oddfellows,Pub/bar/nightclub,7843,5,,153956,0,,51.78418300000000,CIN/11/01094,116,env.health@harlow.gov.uk,Harlow,http://www.harlow.gov.uk/,0.12904500000000,CM17 0AG,2014-03-19,fhrs_5_en-GB,5,,FHRS,0
19062,2 Hart Road,Harlow,,,The Old Cathay,Restaurant/Cafe/Canteen,1,5,,153587,5,,51.79197900000000,CIN/01/01002,116,env.health@harlow.gov.uk,Harlow,http://www.harlow.gov.uk/,0.13451700000000,CM17 0HL,2014-02-10,fhrs_5_en-GB,5,,FHRS,5
19063,12 Prentice Place,Potter Street,Harlow,Essex,The Potter Street Pharmacy,Retailers - other,4613,,,154045,,,51.75800700000000,CIN/99/02500,116,env.health@harlow.gov.uk,Harlow,http://www.harlow.gov.uk/,0.13345000000000,CM17 9BG,2009-06-02,fhrs_exempt_en-GB,Exempt,,FHRS,
19064,Burgoyne Hatch,Momples Road,Harlow,Essex,The Purple Emperor,Pub/bar/nightclub,7843,0,,664044,0,,51.77133100000000,CIN/14/01796,116,env.health@harlow.gov.uk,Harlow,http://www.harlow.gov.uk/,0.11968600000000,CM20 3EH,2014-07-14,fhrs_5_en-GB,5,,FHRS,0
19065,26 Churchgate Street,Harlow,Essex,,The Queens Head,Pub/bar/nightclub,7843,10,,644203,15,,51.78189300000000,CIN/14/01147,116,env.health@harlow.gov.uk,Harlow,http://www.harlow.gov.uk/,0.14916200000000,CM17 0JT,2014-09-08,fhrs_2_en-GB,2,,FHRS,15
19066,5 St James Centre,East Road,Harlow,Essex ,The Range,Retailers - other,4613,10,,153688,0,,51.78529100000000,CIN/03/01922,116,env.health@harlow.gov.uk,Harlow,http://www.harlow.gov.uk/,0.12245700000000,CM20 2SX,2007-11-21,fhrs_4_en-GB,4,,FHRS,0
19067,Catering by Compass Group,5 St James Centre,East Road,"Harlow, Essex",The Range - Customer Cafe,Restaurant/Cafe/Canteen,1,5,,153689,0,,51.78529100000000,CIN/03/01923,116,env.health@harlow.gov.uk,Harlow,http://www.harlow.gov.uk/,0.12245700000000,CM20 2SX,2014-07-29,fhrs_5_en-GB,5,,FHRS,5
19068,Radburn Pavilion,Latton Common Road,Harlow,Essex,The Royal British Legion,Pub/bar/nightclub,7843,5,,153771,0,,51.75264500000000,CIN/07/00800,116,env.health@harlow.gov.uk,Harlow,http://www.harlow.gov.uk/,0.11969400000000,CM18 7GY,2013-06-20,fhrs_5_en-GB,5,,FHRS,5
19069,8 Adams House,The High,Harlow,Essex,The Sandwich Bar,Restaurant/Cafe/Canteen,1,0,,153442,10,,51.77131100000000,CIN/00/03209,116,env.health@harlow.gov.uk,Harlow,http://www.harlow.gov.uk/,0.09475400000000,CM20 1BD,2013-07-19,fhrs_4_en-GB,4,,FHRS,5
19070,,,,,The Sandwich Shack (FL07 2NO),Mobile caterer,7846,5,,726423,0,,,CIN/14/05043,116,env.health@harlow.gov.uk,Harlow,http://www.harlow.gov.uk/,,,2014-11-13,fhrs_5_en-GB,5,,FHRS,0
19071,The White Horse Public House Car Park,160 Old Road,Harlow,Essex,The Sea Horse (stall),Retailers - other,4613,0,,730261,0,,51.79346200000000,CIN/15/00238,116,env.health@harlow.gov.uk,Harlow,http://www.harlow.gov.uk/,0.13506500000000,CM17 0HQ,2015-01-21,fhrs_5_en-GB,5,,FHRS,0
19072,Hobtoe Road,Harlow,Essex,,The Shark Public House,Pub/bar/nightclub,7843,5,,153596,5,,51.77389100000000,CIN/01/01016,116,env.health@harlow.gov.uk,Harlow,http://www.harlow.gov.uk/,0.08058100000000,CM20 1TH,2014-11-08,fhrs_5_en-GB,5,,FHRS,5
19073,Churchfield,Harlow,Essex,,The Small Copper Public House,Pub/bar/nightclub,7843,0,,153432,0,,51.77044677734375,CIN/00/03170,116,env.health@harlow.gov.uk,Harlow,http://www.harlow.gov.uk/,0.70727801322937,CM20 3DE,2011-02-23,fhrs_5_en-GB,5,,FHRS,0
19074,Fourth Avenue,Harlow,Essex,,The Square,Pub/bar/nightclub,7843,5,,153467,10,,51.77041800000000,CIN/00/03258,116,env.health@harlow.gov.uk,Harlow,http://www.harlow.gov.uk/,0.08832000000000,CM20 1DW,2009-09-08,fhrs_4_en-GB,4,,FHRS,5
19075,13 The Stow,Harlow,Essex,,The Stow Butchers,Retailers - other,4613,10,,153887,10,,51.77558100000000,CIN/10/02874,116,env.health@harlow.gov.uk,Harlow,http://www.harlow.gov.uk/,0.11440500000000,CM20 3AH,2013-11-25,fhrs_3_en-GB,3,,FHRS,5
19076,113 The Stow,Harlow,Essex,,The Stow Off Licence,Retailers - other,4613,0,,629522,0,,51.77570600000000,CIN/14/00363,116,env.health@harlow.gov.uk,Harlow,http://www.harlow.gov.uk/,0.11491800000000,CM20 3AS,2014-03-06,fhrs_5_en-GB,5,,FHRS,0
19077,96 The Stow,Harlow,Essex,,The Stow Snooker Club,Pub/bar/nightclub,7843,20,,153618,5,,51.77507900000000,CIN/01/01083,116,env.health@harlow.gov.uk,Harlow,http://www.harlow.gov.uk/,0.11480200000000,CM20 3AP,2012-11-13,fhrs_1_en-GB,1,,FHRS,5
19078,St Paul's Church Hall,College Square,Harlow,Essex ,The Teddy Bear Club,Hospitals/Childcare/Caring Premises,5,5,,153820,5,,51.76831300000000,CIN/09/00091,116,env.health@harlow.gov.uk,Harlow,http://www.harlow.gov.uk/,0.09293400000000,CM20 1LP,2009-09-04,fhrs_5_en-GB,5,,FHRS,5
19079,The Tree House Children's Centre,Parnall Road,Harlow,Essex,The Tree House Tea House,Restaurant/Cafe/Canteen,1,10,,703635,0,,51.75096500000000,CIN/14/03437,116,env.health@harlow.gov.uk,Harlow,http://www.harlow.gov.uk/,0.09403000000000,CM18 7NG,2014-09-23,fhrs_4_en-GB,4,,FHRS,0
19080,,,,,The Unbirthday Bakery,Other catering premises,7841,0,,435270,0,,,CIN/12/02671,116,env.health@harlow.gov.uk,Harlow,http://www.harlow.gov.uk/,,,2012-09-26,fhrs_5_en-GB,5,,FHRS,0
19081,1 Ward Hatch,Harlow,Essex,,The White Admiral Public House,Pub/bar/nightclub,7843,0,,197159,0,,51.77982700000000,CIN/01/01104,116,env.health@harlow.gov.uk,Harlow,http://www.harlow.gov.uk/,0.11980800000000,CM20 2NB,2008-11-19,fhrs_5_en-GB,5,,FHRS,0
19082,155 Potter Street,Harlow,Essex,,The White Horse Public House,Pub/bar/nightclub,7843,5,,153529,5,,51.75641900000000,CIN/00/03465,116,env.health@harlow.gov.uk,Harlow,http://www.harlow.gov.uk/,0.13376700000000,CM17 9AN,2013-04-17,fhrs_5_en-GB,5,,FHRS,5
19083,160 Old Road,Old Harlow,Essex,,The White Horse Public House,Pub/bar/nightclub,7843,0,,153513,0,,51.79346200000000,CIN/00/03427,116,env.health@harlow.gov.uk,Harlow,http://www.harlow.gov.uk/,0.13506600000000,CM17 0HQ,2013-08-15,fhrs_5_en-GB,5,,FHRS,0
19084,Hodings Road,Harlow,Essex,,The Willow,Pub/bar/nightclub,7843,5,,153810,5,,51.77523400000000,CIN/08/02929,116,env.health@harlow.gov.uk,Harlow,http://www.harlow.gov.uk/,0.09157200000000,CM20 1NN,2014-05-27,fhrs_4_en-GB,4,,FHRS,10
19085,Three Horseshoes Road,Harlow,,Essex,Three Horseshoes Public House,Pub/bar/nightclub,7843,10,,153562,0,,51.75907600000000,CIN/00/03642,116,env.health@harlow.gov.uk,Harlow,http://www.harlow.gov.uk/,0.08133400000000,CM19 4HB,2010-02-18,fhrs_4_en-GB,4,,FHRS,5
19086,,,,,TJ Sweettooth,Other catering premises,7841,0,,664045,0,,,CIN/14/01799,116,env.health@harlow.gov.uk,Harlow,http://www.harlow.gov.uk/,,,2014-07-16,fhrs_5_en-GB,5,,FHRS,0
19087,Units 19 & 20 The Water Gardens,Haydens Road,Harlow,Essex,TK Maxx,Retailers - other,4613,,,153685,,,51.76622100000000,CIN/03/01748,116,env.health@harlow.gov.uk,Harlow,http://www.harlow.gov.uk/,0.09322800000000,CM20 1AR,2008-08-01,fhrs_exempt_en-GB,Exempt,,FHRS,
19088,Edinburgh Gate,Burnt Mill,Harlow,Essex,Toby Carvery,Pub/bar/nightclub,7843,0,,153704,5,,51.78024400000000,CIN/05/00439,116,env.health@harlow.gov.uk,Harlow,http://www.harlow.gov.uk/,0.09657400000000,CM20 2LQ,2013-11-07,fhrs_5_en-GB,5,,FHRS,5
19089,26A Terminus Street,Harlow,Essex,,Town Centre Market,Retailers - other,4613,0,,551249,0,,51.77004000000000,CIN/13/01613,116,env.health@harlow.gov.uk,Harlow,http://www.harlow.gov.uk/,0.09489800000000,CM20 1EY,2013-10-10,fhrs_5_en-GB,5,,FHRS,0
19090,1 Queensgate Centre,Edinburgh Way,Harlow,Essex,"Toys ""R"" Us",Retailers - other,4613,,,153535,,,51.78388700000000,CIN/00/03478,116,env.health@harlow.gov.uk,Harlow,http://www.harlow.gov.uk/,0.10805200000000,CM20 2DA,2008-05-22,fhrs_exempt_en-GB,Exempt,,FHRS,
19091,Kiosk 3 (34B-C) Harvey Centre,The High,Harlow,Essex,Traders Coffee Company & Snack Bar,Takeaway/sandwich shop,7844,10,,153590,5,,51.76899700000000,CIN/01/01006,116,env.health@harlow.gov.uk,Harlow,http://www.harlow.gov.uk/,0.09189300000000,CM20 1XP,2014-12-02,fhrs_4_en-GB,4,,FHRS,5
19092,Mobile,Broad Walk,Harlow,Essex,Traditional Sausage Company,Mobile caterer,7846,5,,703643,0,,51.76920000000000,CIN/14/03966,116,env.health@harlow.gov.uk,Harlow,http://www.harlow.gov.uk/,0.09356900000000,CM20 1JE,2014-11-13,fhrs_5_en-GB,5,,FHRS,0
19093,Harlow Town Station,Burnt Mill,Harlow,Essex,Trainstop News,Retailers - other,4613,10,,153421,0,,51.78105200000000,CIN/00/03133,116,env.health@harlow.gov.uk,Harlow,http://www.harlow.gov.uk/,0.09513300000000,CM20 2JD,2009-10-14,fhrs_4_en-GB,4,,FHRS,0
19094,Edinburgh Gate,Harlow,Essex,,Travelodge Harlow,Hotel/bed & breakfast/guest house,7842,0,,153717,5,,51.78024400000000,CIN/06/00609,116,env.health@harlow.gov.uk,Harlow,http://www.harlow.gov.uk/,0.09657400000000,CM20 2LQ,2009-05-12,fhrs_5_en-GB,5,,FHRS,5
19095,1-5 North Place,Edinburgh Way,Temple Fields,"Harlow, Essex",Travis Perkins,Retailers - other,4613,,,691579,,,51.78773700000000,CIN/14/02980,116,env.health@harlow.gov.uk,Harlow,http://www.harlow.gov.uk/,0.12296300000000,CM20 2SL,2014-09-23,fhrs_exempt_en-GB,Exempt,,FHRS,
19096,,,,,Treat Me Cupcakes,Other catering premises,7841,0,,709453,0,,,CIN/14/04301,116,env.health@harlow.gov.uk,Harlow,http://www.harlow.gov.uk/,,,2014-09-15,fhrs_5_en-GB,5,,FHRS,0
19097,4 Corner House,Bush Fair,Harlow,Essex,TSA News,Retailers - other,4613,,,153678,,,51.75789300000000,CIN/03/01002,116,env.health@harlow.gov.uk,Harlow,http://www.harlow.gov.uk/,0.11336100000000,CM18 6NZ,2014-01-23,fhrs_exempt_en-GB,Exempt,,FHRS,
19098,20-24 Adams House,East Gate,Harlow,Essex,Twenty One Bar Lounge,Pub/bar/nightclub,7843,5,,153635,5,,51.77131100000000,CIN/01/01555,116,env.health@harlow.gov.uk,Harlow,http://www.harlow.gov.uk/,0.09475400000000,CM20 1BD,2011-03-31,fhrs_5_en-GB,5,,FHRS,0
19099,Tye Green Village,Harlow,Essex,,Tye Green Care Centre,Hospitals/Childcare/Caring Premises,5,5,,153715,5,,51.75627800000000,CIN/05/02573,116,env.health@harlow.gov.uk,Harlow,http://www.harlow.gov.uk/,0.10864900000000,CM18 6QY,2013-12-11,fhrs_5_en-GB,5,,FHRS,0
19100,Tilegate Road,Harlow,Essex,,Tye Green Indoor Bowls Club,Pub/bar/nightclub,7843,,,730268,,,51.75880100000000,CIN/15/00276,116,env.health@harlow.gov.uk,Harlow,http://www.harlow.gov.uk/,0.11341800000000,CM18 6LU,,fhrs_awaitinginspection_en-GB,AwaitingInspection,,FHRS,
19101,Tilegate Road,Bush Fair,Harlow,Essex,Tye Green Outdoor Bowls Club,Pub/bar/nightclub,7843,10,,153565,0,,51.75880100000000,CIN/00/03654,116,env.health@harlow.gov.uk,Harlow,http://www.harlow.gov.uk/,0.11341800000000,CM18 6LU,2013-02-20,fhrs_4_en-GB,4,,FHRS,5
19102,39 Service Industry Bays,The Stow,Harlow,Essex,U Polaka,Retailers - other,4613,10,,578667,5,,51.77581500000000,CIN/13/02559,116,env.health@harlow.gov.uk,Harlow,http://www.harlow.gov.uk/,0.11290900000000,CM20 3AB,2013-09-09,fhrs_4_en-GB,4,,FHRS,0
19103,7 Cecil Court,Pegrams Road,Harlow,Essex,Uptown Pizza/Moriam Indian Take Away,Takeaway/sandwich shop,7844,10,,605651,15,,51.75237700000000,CIN/13/03620,116,env.health@harlow.gov.uk,Harlow,http://www.harlow.gov.uk/,0.08844400000000,CM18 7QR,2015-01-08,fhrs_2_en-GB,2,,FHRS,10
19104,,,,,Vicki's Celebration Cakes,Other catering premises,7841,0,,153710,0,,,CIN/05/01147,116,env.health@harlow.gov.uk,Harlow,http://www.harlow.gov.uk/,,,2009-07-01,fhrs_5_en-GB,5,,FHRS,0
19105,Victoria Hall,Bury Road,Harlow,Essex,Victoria Hall Performing Arts Association,Pub/bar/nightclub,7843,0,,153422,5,,51.78462400000000,CIN/00/03135,116,env.health@harlow.gov.uk,Harlow,http://www.harlow.gov.uk/,0.13698200000000,CM17 0ED,2008-07-25,fhrs_5_en-GB,5,,FHRS,5
19106,Unit 42 Service Industry Bays,The Stow,Harlow,Essex,Village Kebab House,Takeaway/sandwich shop,7844,10,,153667,15,,51.77621600000000,CIN/02/01449,116,env.health@harlow.gov.uk,Harlow,http://www.harlow.gov.uk/,0.11410100000000,CM20 3AN,2014-07-18,fhrs_2_en-GB,2,,FHRS,10
19107,The Water Gardens,College Square,Harlow,Essex,Virgin Active,Restaurant/Cafe/Canteen,1,5,,153687,0,,51.76803700000000,CIN/03/01761,116,env.health@harlow.gov.uk,Harlow,http://www.harlow.gov.uk/,0.09424000000000,CM20 1AJ,2008-09-24,fhrs_5_en-GB,5,,FHRS,0
19108,32 Broad Walk,Harlow,Essex,,W.H.Smith,Retailers - other,4613,,,153479,,,51.76962500000000,CIN/00/03303,116,env.health@harlow.gov.uk,Harlow,http://www.harlow.gov.uk/,0.09398000000000,CM20 1JD,2008-05-09,fhrs_exempt_en-GB,Exempt,,FHRS,
19109,Broadley Road,Harlow,Essex,,Water Lane Primary School,School/college/university,7845,0,,154027,0,,51.74886800000000,CIN/99/02381,116,env.health@harlow.gov.uk,Harlow,http://www.harlow.gov.uk/,0.07230300000000,CM19 5RD,2014-12-04,fhrs_5_en-GB,5,,FHRS,0
19110,10-11 Corner House,Bush Fair,Harlow,Essex ,West Essex Mind,Hospitals/Childcare/Caring Premises,5,0,,154007,0,,51.75793900000000,CIN/11/03942,116,env.health@harlow.gov.uk,Harlow,http://www.harlow.gov.uk/,0.11332000000000,CM18 6NZ,2012-02-17,fhrs_5_en-GB,5,,FHRS,0
19111,Princes Gate,Howard Way,Harlow,Essex,Wickes Harlow Extra,Retailers - other,4613,,,709451,,,51.78083300000000,CIN/14/04274,116,env.health@harlow.gov.uk,Harlow,http://www.harlow.gov.uk/,0.10688000000000,CM20 2SU,2014-12-04,fhrs_exempt_en-GB,Exempt,,FHRS,
19112,Commercial Unit 5 Mill Court,Edinburgh Gate,Harlow,Essex,Wild 'n' Wacky Ltd.,Restaurant/Cafe/Canteen,1,5,,629520,5,,51.78049400000000,CIN/14/00161,116,env.health@harlow.gov.uk,Harlow,http://www.harlow.gov.uk/,0.09562900000000,CM20 2JA,2014-01-08,fhrs_5_en-GB,5,,FHRS,5
19113,41 Harvey Centre,Harlow,Essex,,Wilkinson Hardware Store,Retailers - other,4613,5,,154016,5,,51.76899700000000,CIN/98/02592,116,env.health@harlow.gov.uk,Harlow,http://www.harlow.gov.uk/,0.09189300000000,CM20 1XP,2010-06-22,fhrs_5_en-GB,5,,FHRS,5
19114,Tawneys Road,Harlow,Essex,,William Martin C of E Junior School,School/college/university,7845,5,,154061,5,,51.75761100000000,CIN/99/02559,116,env.health@harlow.gov.uk,Harlow,http://www.harlow.gov.uk/,0.11055200000000,CM18 6PN,2013-07-11,fhrs_5_en-GB,5,,FHRS,5
19115,16 Service Industry Bay,Staple Tye,Harlow,Essex,Will's Off Licence & Newsagent,Retailers - other,4613,10,,153551,0,,51.75303600000000,CIN/00/03589,116,env.health@harlow.gov.uk,Harlow,http://www.harlow.gov.uk/,0.09030000000000,CM18 7NW,2014-01-28,fhrs_4_en-GB,4,,FHRS,0
19116,1 Burgoyne Hatch,Momples Road,Harlow,Essex,Wing's Garden,Takeaway/sandwich shop,7844,10,,551248,10,,51.77133100000000,CIN/13/01529,116,env.health@harlow.gov.uk,Harlow,http://www.harlow.gov.uk/,0.11968600000000,CM20 3EH,2014-12-02,fhrs_3_en-GB,3,,FHRS,10
19117,Unit 16 Staple Tye Shopping Centre,Southern Way,Harlow,Essex,Wisebuys Off Licence,Retailers - other,4613,0,,670400,0,,51.75318700000000,CIN/14/02118,116,env.health@harlow.gov.uk,Harlow,http://www.harlow.gov.uk/,0.09195900000000,CM18 7PJ,2014-06-04,fhrs_5_en-GB,5,,FHRS,0
19118,11-15 Adams House,Eastgate,Harlow,Essex,Yates's Harlow,Pub/bar/nightclub,7843,5,,153507,5,,51.77131100000000,CIN/00/03398,116,env.health@harlow.gov.uk,Harlow,http://www.harlow.gov.uk/,0.09475400000000,CM20 1BD,2014-09-09,fhrs_5_en-GB,5,,FHRS,5
19119,37 Churchgate Street,Old Harlow,,Essex,Ye Olde Churchgate Butchery,Retailers - other,4613,20,,153434,20,,51.78189300000000,CIN/00/03172,116,env.health@harlow.gov.uk,Harlow,http://www.harlow.gov.uk/,0.14916200000000,CM17 0JT,2014-12-08,fhrs_0_en-GB,0,,FHRS,20
19120,Station Road,Old Harlow,Essex,,Zenz,Restaurant/Cafe/Canteen,1,5,,153697,10,,51.78405600000000,CIN/04/00658,116,env.health@harlow.gov.uk,Harlow,http://www.harlow.gov.uk/,0.13307000000000,CM17 0AP,2014-04-23,fhrs_4_en-GB,4,,FHRS,5
