,addressline1,addressline2,addressline3,addressline4,businessname,businesstype,businesstypeid,confidenceinmanagement,extractdate,fhrsid,hygiene,itemcount,latitude,localauthoritybusinessid,localauthoritycode,localauthorityemailaddress,localauthorityname,localauthoritywebsite,longitude,postcode,ratingdate,ratingkey,ratingvalue,returncode,schemetype,structural
23918,,,,,Acorns Cakes And Crafts,Other catering premises,7841,5,,464807,0,,,12/00071/CPREM,117,environmentservices.request@maldon.gov.uk,Maldon,http://www.maldon.gov.uk,,,2012-10-26,fhrs_5_en-GB,5,,FHRS,0
23919,Brick House Farm Community Centre,Poulton Close,Maldon,Essex,Action For Family Carers,Hospitals/Childcare/Caring Premises,5,0,,20594,0,,51.72041700000000,06200/4000/0/000,117,environmentservices.request@maldon.gov.uk,Maldon,http://www.maldon.gov.uk,0.68350600000000,CM9 6NG,2014-10-21,fhrs_5_en-GB,5,,FHRS,5
23920,All Saints C Of E Primary School,Highlands Drive,Maldon,Essex,All Saints Church Of England Primary School,School/college/university,7845,0,,17152,0,,51.73112100000000,05590/4000/0/000,117,environmentservices.request@maldon.gov.uk,Maldon,http://www.maldon.gov.uk,0.67041100000000,CM9 6HY,2014-01-13,fhrs_5_en-GB,5,,FHRS,5
23921,,,,,Amanda Jane's,Other catering premises,7841,0,,24762,5,,,08/00011/CPREM,117,environmentservices.request@maldon.gov.uk,Maldon,http://www.maldon.gov.uk,,,2014-01-24,fhrs_5_en-GB,5,,FHRS,0
23922,,,,,Angelic Makes,Other catering premises,7841,5,,727275,0,,,14/00085/CPREM,117,environmentservices.request@maldon.gov.uk,Maldon,http://www.maldon.gov.uk,,,2014-11-24,fhrs_5_en-GB,5,,FHRS,5
23923,Annley House,Burnham Road,Althorne,Chelmsford,Annley House Tearooms,Restaurant/Cafe/Canteen,1,0,,681152,0,,51.66951000000000,14/00032/CPREM,117,environmentservices.request@maldon.gov.uk,Maldon,http://www.maldon.gov.uk,0.75128100000000,CM3 6BL,2014-07-02,fhrs_5_en-GB,5,,FHRS,0
23924,5 High Street,Maldon,Essex,,Ansell & Sons,Manufacturers/packers,7839,0,,17077,0,,51.73157600000000,05540/0005/0/000,117,environmentservices.request@maldon.gov.uk,Maldon,http://www.maldon.gov.uk,0.67530400000000,CM9 5PB,2013-03-25,fhrs_5_en-GB,5,,FHRS,0
23925,,,,,Arnott House Bakery,Other catering premises,7841,5,,194490,5,,,12/00002/CPREM,117,environmentservices.request@maldon.gov.uk,Maldon,http://www.maldon.gov.uk,,,2014-08-07,fhrs_5_en-GB,5,,FHRS,0
23926,Netto Supermarket,Bentalls Shopping Centre,Colchester Road,Heybridge,Asda,Retailers - supermarkets/hypermarkets,7840,0,,46951,0,,51.74081900000000,11/00095/CPREM,117,environmentservices.request@maldon.gov.uk,Maldon,http://www.maldon.gov.uk,0.68878600000000,CM9 4NW,2013-10-17,fhrs_5_en-GB,5,,FHRS,0
23927,Hall Road,Asheldham,Southminster,Essex,Asheldham Youth Centre,Other catering premises,7841,0,,43961,5,,51.67546600000000,10690/4000/0/000,117,environmentservices.request@maldon.gov.uk,Maldon,http://www.maldon.gov.uk,0.85511500000000,CM0 7JF,2013-03-07,fhrs_5_en-GB,5,,FHRS,0
23928,Assumption Of Our Lady Roman Cathol,Victoria Road,Maldon,Essex,Assumption Of Our Lady Roman Catholic Church,Other catering premises,7841,,,20942,,,51.73068100000000,06620/4000/0/000,117,environmentservices.request@maldon.gov.uk,Maldon,http://www.maldon.gov.uk,0.68495500000000,CM9 5HF,2008-05-07,fhrs_exempt_en-GB,Exempt,,FHRS,
23929,,,,,Auntie EBS Cupcakes,Other catering premises,7841,5,,46666,5,,,11/00078/CPREM,117,environmentservices.request@maldon.gov.uk,Maldon,http://www.maldon.gov.uk,,,2014-08-11,fhrs_5_en-GB,5,,FHRS,5
23930,,,,,B F And S White,Retailers - other,4613,5,,9459,5,,,04/00015/CPREM,117,environmentservices.request@maldon.gov.uk,Maldon,http://www.maldon.gov.uk,,,2014-08-19,fhrs_5_en-GB,5,,FHRS,5
23931,16 High Street,Maldon,Essex,,Bahn Fai,Restaurant/Cafe/Canteen,1,5,,17081,0,,51.73138200000000,05540/0016/0/000,117,environmentservices.request@maldon.gov.uk,Maldon,http://www.maldon.gov.uk,0.67553900000000,CM9 5PJ,2013-11-14,fhrs_5_en-GB,5,,FHRS,0
23932,Burger Van,Wickes Building Supplies Limited,Wycke Hill Business Park,Maldon,Balazs Molnar,Mobile caterer,7846,5,,489700,0,,51.72091500000000,11/00041/CPREM,117,environmentservices.request@maldon.gov.uk,Maldon,http://www.maldon.gov.uk,0.66320600000000,CM9 6TU,2014-11-04,fhrs_5_en-GB,5,,FHRS,0
23933,44 Heybridge Street,Heybridge,Maldon,Essex,Banglore Spice,Takeaway/sandwich shop,7844,10,,18303,0,,51.73998000000000,06/00101/CPREM,117,environmentservices.request@maldon.gov.uk,Maldon,http://www.maldon.gov.uk,0.68695500000000,CM9 4NB,2014-01-20,fhrs_4_en-GB,4,,FHRS,10
23934,Station Road,Burnham-On-Crouch,Essex,,Baptist Church,Other catering premises,7841,,,13878,,,51.62689400000000,04500/4004/0/000,117,environmentservices.request@maldon.gov.uk,Maldon,http://www.maldon.gov.uk,0.81479600000000,CM0 8HJ,2011-03-11,fhrs_exempt_en-GB,Exempt,,FHRS,
23935,,,,,Barbara Payne,Other catering premises,7841,5,,10170,5,,,04/00137/CPREM,117,environmentservices.request@maldon.gov.uk,Maldon,http://www.maldon.gov.uk,,,2013-07-08,fhrs_4_en-GB,4,,FHRS,10
23936,Canal Bank,Basin Road,Heybridge Basin,Maldon,Basin Pleasure Boats,Takeaway/sandwich shop,7844,10,,293196,0,,51.73420700000000,11/00059/CPREM,117,environmentservices.request@maldon.gov.uk,Maldon,http://www.maldon.gov.uk,0.71429100000000,CM9 4SD,2014-09-25,fhrs_4_en-GB,4,,FHRS,5
23937,,,,,Bazza's Gaff,Mobile caterer,7846,5,,644206,5,,,14/00018/CPREM,117,environmentservices.request@maldon.gov.uk,Maldon,http://www.maldon.gov.uk,,,2014-03-12,fhrs_5_en-GB,5,,FHRS,5
23938,Beacon Hill Sports Village Hall,Church Road,Wickham Bishops,Witham,Beacon Hill Luncheon Club,Pub/bar/nightclub,7843,5,,53948,0,,51.77916600000000,12150/4000/0/000,117,environmentservices.request@maldon.gov.uk,Maldon,http://www.maldon.gov.uk,0.66947800000000,CM8 3JZ,2015-01-23,fhrs_5_en-GB,5,,FHRS,0
23939,Brook Hall,Steeple Road,Latchingdon,Chelmsford,Beatbush Farm,Retailers - other,4613,0,,464791,5,,51.67596900000000,07/00070/CPREM,117,environmentservices.request@maldon.gov.uk,Maldon,http://www.maldon.gov.uk,0.74620400000000,CM3 6LB,2014-08-19,fhrs_5_en-GB,5,,FHRS,5
23940,The Emporium,85-87 High Street,Maldon,Essex,"Bees Cafe, Emporium",Restaurant/Cafe/Canteen,1,10,,17096,0,,51.73126500000000,05540/0085/0/000,117,environmentservices.request@maldon.gov.uk,Maldon,http://www.maldon.gov.uk,0.68028200000000,CM9 5EP,2013-11-12,fhrs_4_en-GB,4,,FHRS,0
23941,New Moor Farm,Tillingham Road,Southminster,Essex,Bellota Ltd,Distributors/Transporters,7,5,,565208,0,,51.66589100000000,13/00024/CPREM,117,environmentservices.request@maldon.gov.uk,Maldon,http://www.maldon.gov.uk,0.84090300000000,CM0 7DS,2013-06-07,fhrs_5_en-GB,5,,FHRS,5
23942,Bellropes,Maldon Road,Bradwell On Sea,Southminster,Bellropes Bed And Breakfast,Hotel/bed & breakfast/guest house,7842,5,,44774,0,,51.71218400000000,10850/2018/2/000,117,environmentservices.request@maldon.gov.uk,Maldon,http://www.maldon.gov.uk,0.86526000000000,CM0 7HY,2014-07-07,fhrs_5_en-GB,5,,FHRS,0
23943,4 The Square,Heybridge,Maldon,Essex,Bengal Tiger,Restaurant/Cafe/Canteen,1,10,,644211,0,,51.74116500000000,14/00023/CPREM,117,environmentservices.request@maldon.gov.uk,Maldon,http://www.maldon.gov.uk,0.68428700000000,CM9 4LT,2014-03-25,fhrs_4_en-GB,4,,FHRS,5
23944,Unit 1,Bentalls Shopping Centre,Colchester Road,Heybridge,Best Kebab And Pizza,Takeaway/sandwich shop,7844,10,,24263,0,,51.74050800000000,07550/2000/2/000,117,environmentservices.request@maldon.gov.uk,Maldon,http://www.maldon.gov.uk,0.68901400000000,CM9 4GD,2014-02-19,fhrs_4_en-GB,4,,FHRS,10
23945,,,,,Blackwater Catering Ltd,Other catering premises,7841,5,,691606,0,,,14/00036/CPREM,117,environmentservices.request@maldon.gov.uk,Maldon,http://www.maldon.gov.uk,,,2014-07-30,fhrs_5_en-GB,5,,FHRS,0
23946,Blackwater Leisure Centre,Park Drive,Maldon,Essex,Blackwater Leisure Centre,Restaurant/Cafe/Canteen,1,0,,20565,5,,51.72336600000000,06150/4000/0/000,117,environmentservices.request@maldon.gov.uk,Maldon,http://www.maldon.gov.uk,0.69021200000000,CM9 5UR,2014-03-12,fhrs_5_en-GB,5,,FHRS,0
23947,Blackwater Bar And Bistro,Blackwater Marina,Esplanade,Mayland,Blackwater Marina Bar And Bistro,Restaurant/Cafe/Canteen,1,5,,595273,0,,51.68951700000000,13/00068/CPREM,117,environmentservices.request@maldon.gov.uk,Maldon,http://www.maldon.gov.uk,0.75486700000000,CM3 6AL,2015-01-21,fhrs_5_en-GB,5,,FHRS,0
23948,Blackwater Sailing Club,Basin Road,Heybridge Basin,Maldon,Blackwater Sailing Club,Other catering premises,7841,0,,27773,0,,51.73420700000000,08200/4002/0/000,117,environmentservices.request@maldon.gov.uk,Maldon,http://www.maldon.gov.uk,0.71429100000000,CM9 4SD,2013-02-22,fhrs_5_en-GB,5,,FHRS,0
23949,10 Garden Close,Steeple,Southminster,Essex,Blooming Tasty,Other catering premises,7841,10,,676636,0,,51.69289100000000,14/00030/CPREM,117,environmentservices.request@maldon.gov.uk,Maldon,http://www.maldon.gov.uk,0.80120600000000,CM0 7LG,2014-05-15,fhrs_4_en-GB,4,,FHRS,0
23950,54 High Street,Maldon,Essex,,Boots The Chemist,Retailers - other,4613,,,17088,,,51.73133500000000,05540/0054/0/000,117,environmentservices.request@maldon.gov.uk,Maldon,http://www.maldon.gov.uk,0.67718700000000,CM9 5PN,2014-03-20,fhrs_exempt_en-GB,Exempt,,FHRS,
23951,Boucherne,30 Holloway Road,Heybridge,Maldon,Boucherne,Hospitals/Childcare/Caring Premises,5,5,,17158,0,,51.74406600000000,05610/0030/0/000,117,environmentservices.request@maldon.gov.uk,Maldon,http://www.maldon.gov.uk,0.67970700000000,CM9 4SQ,2014-09-09,fhrs_5_en-GB,5,,FHRS,5
23952,Bouncers Farm,Wickham Hall Lane,Wickham Bishops,Witham,Bouncers,Hotel/bed & breakfast/guest house,7842,5,,587441,10,,51.77364200000000,09/00026/CPREM,117,environmentservices.request@maldon.gov.uk,Maldon,http://www.maldon.gov.uk,0.65846800000000,CM8 3JJ,2013-09-20,fhrs_4_en-GB,4,,FHRS,5
23953,Post Office Stores,High Street,Bradwell-On-Sea,Southminster,Bradwell Community Shop,Retailers - other,4613,5,,429074,0,,51.72499800000000,09/00108/CPREM,117,environmentservices.request@maldon.gov.uk,Maldon,http://www.maldon.gov.uk,0.90011800000000,CM0 7QN,2012-12-05,fhrs_5_en-GB,5,,FHRS,5
23954,Bradwell Marina,Waterside,Bradwell On Sea,Southminster,Bradwell Marina Club,Other catering premises,7841,5,,44953,0,,51.73278400000000,10900/2011/2/000,117,environmentservices.request@maldon.gov.uk,Maldon,http://www.maldon.gov.uk,0.88637800000000,CM0 7RB,2014-10-09,fhrs_5_en-GB,5,,FHRS,0
23955,Waterside Road,Bradwell On Sea,Southminster,,Bradwell Outdoors,School/college/university,7845,0,,44956,0,,51.73348700000000,10900/4000/0/001,117,environmentservices.request@maldon.gov.uk,Maldon,http://www.maldon.gov.uk,0.88704600000000,CM0 7QY,2013-02-12,fhrs_5_en-GB,5,,FHRS,0
23956,Downhall Beach,Bradwell-On-Sea,Southminster,Essex,Bradwell Power Station,Restaurant/Cafe/Canteen,1,5,,44394,5,,51.74272700000000,10770/0006/0/000,117,environmentservices.request@maldon.gov.uk,Maldon,http://www.maldon.gov.uk,0.89602300000000,CM0 7HP,2014-12-05,fhrs_5_en-GB,5,,FHRS,0
23957,Bradwell Quay Yacht Club,Waterside,Bradwell on Sea,Southminster,Bradwell Quay Yacht Club,Other catering premises,7841,,,44957,,,51.73348700000000,10900/4000/0/002,117,environmentservices.request@maldon.gov.uk,Maldon,http://www.maldon.gov.uk,0.88704600000000,CM0 7QY,2014-08-07,fhrs_exempt_en-GB,Exempt,,FHRS,
23958,Great Braxted Hall,Braxted Park,Great Braxted,Witham,Braxted Park Golf Club,Other catering premises,7841,5,,52556,0,,51.80593900000000,11880/2005/2/000,117,environmentservices.request@maldon.gov.uk,Maldon,http://www.maldon.gov.uk,0.68920800000000,CM8 3EN,2014-09-23,fhrs_5_en-GB,5,,FHRS,0
23959,Braxted Park,Braxted Park Road,Great Braxted,Witham,Braxted Park Pavilion,Other catering premises,7841,0,,421259,0,,51.80593900000000,07/00065/CPREM,117,environmentservices.request@maldon.gov.uk,Maldon,http://www.maldon.gov.uk,0.68920800000000,CM8 3EN,2014-08-11,fhrs_5_en-GB,5,,FHRS,0
23960,Oak Road,Heybridge,Maldon,Essex,Brewster House,Hospitals/Childcare/Caring Premises,5,5,,20528,0,,51.74472000000000,06120/2001/2/000,117,environmentservices.request@maldon.gov.uk,Maldon,http://www.maldon.gov.uk,0.69240800000000,CM9 4AX,2015-01-29,fhrs_5_en-GB,5,,FHRS,5
23961,16 Fambridge Road,Maldon,Essex,,Bridget Howes,Other catering premises,7841,,,713531,,,51.72857100000000,14/00071/CPREM,117,environmentservices.request@maldon.gov.uk,Maldon,http://www.maldon.gov.uk,0.67535800000000,CM9 6AF,2014-10-23,fhrs_exempt_en-GB,Exempt,,FHRS,
23962,Little Baddow Road,Woodham Walter,Maldon,Essex,Bunsay Downs Golf Club,Restaurant/Cafe/Canteen,1,0,,32613,0,,51.73203400000000,09860/2019/0/000,117,environmentservices.request@maldon.gov.uk,Maldon,http://www.maldon.gov.uk,0.61581900000000,CM9 6RP,2014-03-14,fhrs_5_en-GB,5,,FHRS,5
23963,,,,,Bunters,Mobile caterer,7846,5,,46029,0,,,11/00042/CPREM,117,environmentservices.request@maldon.gov.uk,Maldon,http://www.maldon.gov.uk,,,2013-06-11,fhrs_5_en-GB,5,,FHRS,0
23964,28A High Street,Burnham-On-Crouch,Essex,,Bunters Of Burnham,Retailers - other,4613,10,,635114,5,,51.62551000000000,14/00011/CPREM,117,environmentservices.request@maldon.gov.uk,Maldon,http://www.maldon.gov.uk,0.81923300000000,CM0 8AA,2014-09-19,fhrs_3_en-GB,3,,FHRS,10
23965,89 High Street,Maldon,Essex,,Buntings,Manufacturers/packers,7839,5,,17097,5,,51.73126500000000,05540/0089/0/000,117,environmentservices.request@maldon.gov.uk,Maldon,http://www.maldon.gov.uk,0.68028200000000,CM9 5EP,2014-05-12,fhrs_5_en-GB,5,,FHRS,5
23966,76 Station Road,Burnham-On-Crouch,Essex,,Burnham Bakery,Takeaway/sandwich shop,7844,0,,18182,5,,51.63003700000000,06/00084/CPREM,117,environmentservices.request@maldon.gov.uk,Maldon,http://www.maldon.gov.uk,0.81535200000000,CM0 8HF,2014-09-19,fhrs_5_en-GB,5,,FHRS,5
23967,24 High Street,Burnham on Crouch,Essex,,Burnham Grill,Restaurant/Cafe/Canteen,1,0,,9310,0,,51.62551000000000,03980/0024/0/000,117,environmentservices.request@maldon.gov.uk,Maldon,http://www.maldon.gov.uk,0.81923300000000,CM0 8AA,2014-11-14,fhrs_5_en-GB,5,,FHRS,0
23968,Unit 14,Mildmay House,Foundry Lane,Burnham-On-Crouch,Burnham Home Brew And Cake Decor,Retailers - other,4613,5,,610553,0,,51.63308600000000,13/00083/CPREM,117,environmentservices.request@maldon.gov.uk,Maldon,http://www.maldon.gov.uk,0.81312700000000,CM0 8SH,2013-11-12,fhrs_5_en-GB,5,,FHRS,0
23969,Burnham On Crouch County Primary Sc,Dunkirk Road,Burnham-On-Crouch,Essex,Burnham On Crouch County Primary School,School/college/university,7845,0,,9191,0,,51.62784700000000,03770/4000/0/000,117,environmentservices.request@maldon.gov.uk,Maldon,http://www.maldon.gov.uk,0.82117000000000,CM0 8LF,2013-01-29,fhrs_5_en-GB,5,,FHRS,0
23970,Burnham On Crouch Golf Club,Ferry Road,Burnham On Crouch,Essex,Burnham On Crouch Golf Club Ltd,Restaurant/Cafe/Canteen,1,0,,9230,0,,51.63779500000000,03850/4000/0/002,117,environmentservices.request@maldon.gov.uk,Maldon,http://www.maldon.gov.uk,0.78990200000000,CM0 8PQ,2014-08-12,fhrs_5_en-GB,5,,FHRS,0
23971,Football Ground,Springfield Road,Burnham-On-Crouch,Essex,Burnham Ramblers Football Club,Other catering premises,7841,5,,13796,0,,51.63348800000000,04410/4001/0/000,117,environmentservices.request@maldon.gov.uk,Maldon,http://www.maldon.gov.uk,0.80422000000000,CM0 8TE,2012-11-22,fhrs_5_en-GB,5,,FHRS,0
23972,21 Mill Road,Burnham-On-Crouch Town,Burnham-On-Crouch,Essex,Burnt Mill Cottage,Hotel/bed & breakfast/guest house,7842,0,,13486,0,,51.64166700000000,04150/0021/0/000,117,environmentservices.request@maldon.gov.uk,Maldon,http://www.maldon.gov.uk,0.81682400000000,CM0 8PZ,2012-09-27,fhrs_5_en-GB,5,,FHRS,0
23973,41 High Street,Burnham-On-Crouch,Essex,,Cafe 41,Restaurant/Cafe/Canteen,1,5,,464810,0,,51.62528700000000,12/00076/CPREM,117,environmentservices.request@maldon.gov.uk,Maldon,http://www.maldon.gov.uk,0.81690700000000,CM0 8AG,2014-09-19,fhrs_5_en-GB,5,,FHRS,0
23974,,,,,Cakeabella,Other catering premises,7841,0,,429097,0,,,12/00055/CPREM,117,environmentservices.request@maldon.gov.uk,Maldon,http://www.maldon.gov.uk,,,2012-07-20,fhrs_5_en-GB,5,,FHRS,0
23975,,,,,Cakeable Culff,Other catering premises,7841,0,,676637,0,,,14/00031/CPREM,117,environmentservices.request@maldon.gov.uk,Maldon,http://www.maldon.gov.uk,,,2014-06-05,fhrs_5_en-GB,5,,FHRS,0
23976,,,,,Cakes By Nicki,Other catering premises,7841,5,,464801,0,,,12/00065/CPREM,117,environmentservices.request@maldon.gov.uk,Maldon,http://www.maldon.gov.uk,,,2012-08-20,fhrs_5_en-GB,5,,FHRS,0
23977,,,,,Callyco,Other catering premises,7841,0,,9422,0,,,04/00010/CPREM,117,environmentservices.request@maldon.gov.uk,Maldon,http://www.maldon.gov.uk,,,2013-04-30,fhrs_5_en-GB,5,,FHRS,0
23978,Deansbrook Farm,Tillingham Road,Asheldham,Southminster,Caring Homes Group,Hospitals/Childcare/Caring Premises,5,5,,29747,0,,51.67685400000000,09/00107/CPREM,117,environmentservices.request@maldon.gov.uk,Maldon,http://www.maldon.gov.uk,0.85021200000000,CM0 7DZ,2013-07-24,fhrs_5_en-GB,5,,FHRS,0
23979,Eastern Road,Burnham-On-Crouch,Essex,,Carnival Hall,Other catering premises,7841,,,9201,,,51.63308200000000,03780/4001/0/000,117,environmentservices.request@maldon.gov.uk,Maldon,http://www.maldon.gov.uk,0.81812700000000,CM0 8BS,2014-09-17,fhrs_exempt_en-GB,Exempt,,FHRS,
23980,,,,,Caroline Calver,Other catering premises,7841,5,,499802,5,,,08/00068/CPREM,117,environmentservices.request@maldon.gov.uk,Maldon,http://www.maldon.gov.uk,,,2014-08-19,fhrs_5_en-GB,5,,FHRS,5
23981,Carpenters Arms,33 Gate Street,Maldon,Essex,Carpenters Arms,Pub/bar/nightclub,7843,0,,17004,0,,51.73203100000000,05450/0033/0/000,117,environmentservices.request@maldon.gov.uk,Maldon,http://www.maldon.gov.uk,0.67507000000000,CM9 5QF,2014-03-10,fhrs_5_en-GB,5,,FHRS,0
23982,Chapman Convenience Store,Pantile Hill,Southminster,Essex,Chapman Convenience Store,Retailers - other,4613,5,,41845,5,,51.66301400000000,10350/4000/0/000,117,environmentservices.request@maldon.gov.uk,Maldon,http://www.maldon.gov.uk,0.82371600000000,CM0 7BA,2014-08-28,fhrs_5_en-GB,5,,FHRS,5
23983,Chase Farm,Hyde Chase,Woodham Mortimer,Maldon,Chase Farm Bed And Breakfast,Hotel/bed & breakfast/guest house,7842,5,,32542,0,,51.70374100000000,09730/2002/2/000,117,environmentservices.request@maldon.gov.uk,Maldon,http://www.maldon.gov.uk,0.61463500000000,CM9 6TN,2014-08-27,fhrs_5_en-GB,5,,FHRS,0
23984,St Peters Hospital,Spital Road,Maldon Town,Maldon,Cherrytrees Therapy Centre,Hospitals/Childcare/Caring Premises,5,,,5671,,,51.73022600000000,02/00014/CPREM,117,environmentservices.request@maldon.gov.uk,Maldon,http://www.maldon.gov.uk,0.67218300000000,CM9 6EG,2012-11-27,fhrs_exempt_en-GB,Exempt,,FHRS,
23985,128 Station Road,Burnham-On-Crouch,Essex,,Chilli's Indian Takeaway,Takeaway/sandwich shop,7844,10,,209647,15,,51.62828400000000,09/00024/CPREM,117,environmentservices.request@maldon.gov.uk,Maldon,http://www.maldon.gov.uk,0.81459300000000,CM0 8HQ,2014-02-18,fhrs_2_en-GB,2,,FHRS,10
23986,28 The Street,Heybridge,Maldon,Essex,China Garden,Takeaway/sandwich shop,7844,20,,20903,15,,51.73998000000000,06570/0028/0/000,117,environmentservices.request@maldon.gov.uk,Maldon,http://www.maldon.gov.uk,0.68695500000000,CM9 4NB,2014-06-02,fhrs_1_en-GB,1,,FHRS,10
23987,Kiosk 1,The Promenade Park,Park Drive,Maldon,Choc Ice,Takeaway/sandwich shop,7844,10,,20561,0,,51.72330200000000,06150/2002/2/001,117,environmentservices.request@maldon.gov.uk,Maldon,http://www.maldon.gov.uk,0.68907900000000,CM9 5JQ,2013-11-19,fhrs_4_en-GB,4,,FHRS,5
23988,,,,,Church Chocolate Company,Other catering premises,7841,5,,464803,0,,,12/00067/CPREM,117,environmentservices.request@maldon.gov.uk,Maldon,http://www.maldon.gov.uk,,,2012-09-12,fhrs_5_en-GB,5,,FHRS,0
23989,Maldon Golf Club,Maldon Road,Langford,Maldon,Cj Catering Services @ Maldon Golf Club,Other catering premises,7841,5,,27933,0,,51.74037300000000,08340/2010/0/000,117,environmentservices.request@maldon.gov.uk,Maldon,http://www.maldon.gov.uk,0.66297400000000,CM9 6LL,2014-02-04,fhrs_5_en-GB,5,,FHRS,5
23990,,,,,Claire's Takeaway,Other catering premises,7841,5,,499825,0,,,13/00003/CPREM,117,environmentservices.request@maldon.gov.uk,Maldon,http://www.maldon.gov.uk,,,2014-08-21,fhrs_5_en-GB,5,,FHRS,5
23991,Bryants Lane,Woodham Mortimer,Maldon,Essex,Claremont Garden Centre,Retailers - other,4613,,,32512,,,51.71533800000000,09680/2009/2/000,117,environmentservices.request@maldon.gov.uk,Maldon,http://www.maldon.gov.uk,0.61763500000000,CM9 6TB,2012-11-27,fhrs_exempt_en-GB,Exempt,,FHRS,
23992,97 Station Road,Burnham-On-Crouch,Essex,,Close To Home Childcare,Hospitals/Childcare/Caring Premises,5,0,,429064,0,,51.62918700000000,09/00020/CPREM,117,environmentservices.request@maldon.gov.uk,Maldon,http://www.maldon.gov.uk,0.81441700000000,CM0 8HR,2014-01-10,fhrs_5_en-GB,5,,FHRS,5
23993,Cold Norton Village Hall,Cherry Blossom Lane,Cold Norton,Chelmsford,Cold Norton Village Hall,Other catering premises,7841,,,1549,,,51.67297500000000,00280/4000/0/000,117,environmentservices.request@maldon.gov.uk,Maldon,http://www.maldon.gov.uk,0.66856500000000,CM3 6JQ,2012-11-27,fhrs_exempt_en-GB,Exempt,,FHRS,
23994,Carriage House,Station Road,Maldon,Essex,Combined Military Services Museum,Restaurant/Cafe/Canteen,1,,,20820,,,51.73530900000000,06460/2001/2/000,117,environmentservices.request@maldon.gov.uk,Maldon,http://www.maldon.gov.uk,0.68195600000000,CM9 4LQ,2014-10-15,fhrs_exempt_en-GB,Exempt,,FHRS,
23995,Old Rectory,Rectory Road,Tolleshunt Knights,Maldon,Community Of St John The Baptist,Other catering premises,7841,,,32296,,,51.79524800000000,09430/2011/2/000,117,environmentservices.request@maldon.gov.uk,Maldon,http://www.maldon.gov.uk,0.78223800000000,CM9 8EZ,2009-05-01,fhrs_exempt_en-GB,Exempt,,FHRS,
23996,26 High Street,Burnham On Crouch,Essex,,Constitutional Club,Other catering premises,7841,5,,9311,5,,51.62551000000000,03980/0026/0/000,117,environmentservices.request@maldon.gov.uk,Maldon,http://www.maldon.gov.uk,0.81923300000000,CM0 8AA,2014-02-27,fhrs_4_en-GB,4,,FHRS,10
23997,The Kings Head Centre,38 High Street,Maldon,Essex,Continental Coffee Shop,Restaurant/Cafe/Canteen,1,5,,17087,0,,51.73133500000000,05540/0038/1/003,117,environmentservices.request@maldon.gov.uk,Maldon,http://www.maldon.gov.uk,0.67718700000000,CM9 5PN,2013-06-06,fhrs_5_en-GB,5,,FHRS,0
23998,Coopers Village Stores,14 South Street,Tillingham,Southminster,Coopers Village Store,Retailers - other,4613,5,,14527,0,,51.69563300000000,05/00015/CPREM,117,environmentservices.request@maldon.gov.uk,Maldon,http://www.maldon.gov.uk,0.88226100000000,CM0 7TJ,2013-08-01,fhrs_5_en-GB,5,,FHRS,5
23999,2 Hall Road,Heybridge,Maldon,Essex,Copsey Fish Bar,Takeaway/sandwich shop,7844,5,,17942,0,,51.73944800000000,06/00049/CPREM,117,environmentservices.request@maldon.gov.uk,Maldon,http://www.maldon.gov.uk,0.68777800000000,CM9 4NJ,2013-10-02,fhrs_5_en-GB,5,,FHRS,5
24000,80 - 82 High Street,Maldon,Essex,,Costa Coffee,Restaurant/Cafe/Canteen,1,0,,429081,0,,51.73088000000000,10/00076/CPREM,117,environmentservices.request@maldon.gov.uk,Maldon,http://www.maldon.gov.uk,0.68020100000000,CM9 5ET,2014-03-20,fhrs_5_en-GB,5,,FHRS,0
24001,13-14 Dryden Close,Maldon,Essex,,Costcutter,Retailers - other,4613,0,,16725,0,,51.72155900000000,05240/0013/0/000,117,environmentservices.request@maldon.gov.uk,Maldon,http://www.maldon.gov.uk,0.67994000000000,CM9 6DG,2014-03-21,fhrs_5_en-GB,5,,FHRS,5
24002,Costcutters,8 - 10 King Georges Place,High Street,Maldon,Costcutter,Retailers - other,4613,0,,409728,10,,51.73024800000000,12/00048/CPREM,117,environmentservices.request@maldon.gov.uk,Maldon,http://www.maldon.gov.uk,0.68226400000000,CM9 5BZ,2012-06-19,fhrs_4_en-GB,4,,FHRS,0
24003,,,,,Count Of Ten Catering,Restaurant/Cafe/Canteen,1,10,,681153,10,,,14/00034/CPREM,117,environmentservices.request@maldon.gov.uk,Maldon,http://www.maldon.gov.uk,,,2014-07-07,fhrs_3_en-GB,3,,FHRS,10
24004,Latchingdon Road,Cold Norton,Chelmsford,Essex,Country Produce,Retailers - other,4613,0,,1712,0,,51.67091100000000,00360/4000/2/000,117,environmentservices.request@maldon.gov.uk,Maldon,http://www.maldon.gov.uk,0.68102700000000,CM3 6HR,2011-10-05,fhrs_5_en-GB,5,,FHRS,0
24005,,,,,Creative Canapes,Other catering premises,7841,0,,499812,0,,,11/00005/CPREM,117,environmentservices.request@maldon.gov.uk,Maldon,http://www.maldon.gov.uk,,,2013-10-02,fhrs_5_en-GB,5,,FHRS,0
24006,26 The Street,Heybridge,Maldon,Essex,Crispy Bacon Cafe,Restaurant/Cafe/Canteen,1,10,,194492,0,,51.73998000000000,09/00021/CPREM,117,environmentservices.request@maldon.gov.uk,Maldon,http://www.maldon.gov.uk,0.68695500000000,CM9 4NB,2014-06-04,fhrs_4_en-GB,4,,FHRS,0
24007,,,,,Crouch Valley Foods,Mobile caterer,7846,0,,29036,0,,,09/00047/CPREM,117,environmentservices.request@maldon.gov.uk,Maldon,http://www.maldon.gov.uk,,,2014-01-09,fhrs_5_en-GB,5,,FHRS,0
24008,Crouch Valley Lodge,Burnham Road,Latchingdon,Chelmsford,Crouch Valley Motel,Restaurant/Cafe/Canteen,1,5,,2536,5,,51.66853500000000,00980/4000/0/000,117,environmentservices.request@maldon.gov.uk,Maldon,http://www.maldon.gov.uk,0.72674900000000,CM3 6EX,2013-08-15,fhrs_5_en-GB,5,,FHRS,0
24009,Crouch Yacht Club,The Quay,Burnham on Crouch,Essex,Crouch Yacht Club,Other catering premises,7841,10,,293195,0,,51.62561400000000,04580/4000/0/001,117,environmentservices.request@maldon.gov.uk,Maldon,http://www.maldon.gov.uk,0.81529400000000,CM0 8AS,2013-06-12,fhrs_4_en-GB,4,,FHRS,5
24010,"Five Lakes Hotel, Golf & Country Cl",White House Hill,Tolleshunt Knights,Maldon,Crowne Plaza,Hotel/bed & breakfast/guest house,7842,0,,32235,0,,51.78677500000000,09360/4000/0/000,117,environmentservices.request@maldon.gov.uk,Maldon,http://www.maldon.gov.uk,0.80458500000000,CM9 8HX,2014-07-28,fhrs_5_en-GB,5,,FHRS,5
24011,101 High Street,Maldon,Essex,,Crusty Loaf,Takeaway/sandwich shop,7844,10,,17098,0,,51.73126500000000,05540/0101/0/000,117,environmentservices.request@maldon.gov.uk,Maldon,http://www.maldon.gov.uk,0.68028200000000,CM9 5EP,2014-03-18,fhrs_4_en-GB,4,,FHRS,5
24012,54 Spital Road,Maldon,Essex,,Crusty Loaf,Manufacturers/packers,7839,10,,20749,5,,51.72827600000000,06390/0054/0/000,117,environmentservices.request@maldon.gov.uk,Maldon,http://www.maldon.gov.uk,0.66935900000000,CM9 6ED,2014-03-13,fhrs_2_en-GB,2,,FHRS,15
24013,154 High Street,Maldon,Essex,,Crystal Cafe,Restaurant/Cafe/Canteen,1,5,,17106,0,,51.72960700000000,05540/0154/0/000,117,environmentservices.request@maldon.gov.uk,Maldon,http://www.maldon.gov.uk,0.68393500000000,CM9 5BX,2014-09-02,fhrs_5_en-GB,5,,FHRS,5
24014,47 High Street,Burnham-On-Crouch,Essex,,Curry Cottage,Restaurant/Cafe/Canteen,1,10,,444750,15,,51.62528700000000,12/00062/CPREM,117,environmentservices.request@maldon.gov.uk,Maldon,http://www.maldon.gov.uk,0.81690700000000,CM0 8AG,2013-01-27,fhrs_2_en-GB,2,,FHRS,10
24015,41 The Street,Latchingdon,Chelmsford,Essex,D J's Supermarket,Retailers - other,4613,5,,4494,0,,51.67084900000000,01140/0041/0/000,117,environmentservices.request@maldon.gov.uk,Maldon,http://www.maldon.gov.uk,0.71774700000000,CM3 6JP,2014-09-23,fhrs_5_en-GB,5,,FHRS,0
24016,Royal Court,Maldon,Essex,,Daisy Chain Day Care Centre,Hospitals/Childcare/Caring Premises,5,0,,133841,0,,51.72623900000000,6680/0029/0/000,117,environmentservices.request@maldon.gov.uk,Maldon,http://www.maldon.gov.uk,0.68176600000000,CM9 5DA,2013-10-15,fhrs_5_en-GB,5,,FHRS,0
24017,17 North Street,Tolleshunt D'Arcy,Maldon,Essex,Darcy Stores,Retailers - other,4613,0,,421258,0,,51.77373100000000,07/00035/CPREM,117,environmentservices.request@maldon.gov.uk,Maldon,http://www.maldon.gov.uk,0.79644100000000,CM9 8TF,2013-07-24,fhrs_5_en-GB,5,,FHRS,0
24018,Kiosk 3,The Promenade Park,Park Drive,Maldon,Deb And Bri's,Takeaway/sandwich shop,7844,0,,20562,0,,51.72330200000000,06150/2002/2/003,117,environmentservices.request@maldon.gov.uk,Maldon,http://www.maldon.gov.uk,0.68907900000000,CM9 5JQ,2014-05-19,fhrs_5_en-GB,5,,FHRS,0
24019,JP Dairy Cafe,Elm Farm,Maldon Road,Burnham-On-Crouch,Deb's Diner,Restaurant/Cafe/Canteen,1,10,,25297,0,,51.64512300000000,08/00065/CPREM,117,environmentservices.request@maldon.gov.uk,Maldon,http://www.maldon.gov.uk,0.78845900000000,CM0 8NT,2014-08-28,fhrs_4_en-GB,4,,FHRS,5
24020,Ferry Road,North Fambridge,Chelmsford,Essex,Deerlands Day Nursery,Hospitals/Childcare/Caring Premises,5,0,,5317,0,,51.64148600000000,01750/2022/2/000,117,environmentservices.request@maldon.gov.uk,Maldon,http://www.maldon.gov.uk,0.67582100000000,CM3 6LS,2014-04-08,fhrs_5_en-GB,5,,FHRS,0
24021,Dengie Hundred Sports Centre,Millfields,Station Road,Burnham on Crouch,Dengie Hundred Sports Centre,Retailers - other,4613,5,,13900,5,,51.62867200000000,04520/0026/0/000,117,environmentservices.request@maldon.gov.uk,Maldon,http://www.maldon.gov.uk,0.81226100000000,CM0 8HS,2014-04-25,fhrs_5_en-GB,5,,FHRS,5
24022,16 Maldon Road,Burnham-On-Crouch,Essex,,Dhan Shiri,Restaurant/Cafe/Canteen,1,5,,15033,0,,51.64214700000000,05/00090/CPREM,117,environmentservices.request@maldon.gov.uk,Maldon,http://www.maldon.gov.uk,0.79751300000000,CM0 8NS,2013-09-16,fhrs_5_en-GB,5,,FHRS,5
24023,St Lawrence Church Centre,30 Main Road,St Lawrence,Southminster,Diddydots Nursery,Other catering premises,7841,,,499826,,,51.71795300000000,13/00004/CPREM,117,environmentservices.request@maldon.gov.uk,Maldon,http://www.maldon.gov.uk,0.82422900000000,CM0 7NA,2013-01-24,fhrs_exempt_en-GB,Exempt,,FHRS,
24024,Dizzy Rascals Limited,Unit 2,14 Wycke Hill Business Park,Maldon,Dizzy Rascals,Restaurant/Cafe/Canteen,1,5,,552235,0,,51.72184100000000,13/00012/CPREM,117,environmentservices.request@maldon.gov.uk,Maldon,http://www.maldon.gov.uk,0.66359400000000,CM9 6UZ,2015-01-06,fhrs_5_en-GB,5,,FHRS,0
24025,Unit 2,The Old Ironworks,Fullbridge,Maldon,Dominos Pizza,Takeaway/sandwich shop,7844,0,,429085,0,,51.73499300000000,11/00039/CPREM,117,environmentservices.request@maldon.gov.uk,Maldon,http://www.maldon.gov.uk,0.67886600000000,CM9 4LE,2013-03-13,fhrs_5_en-GB,5,,FHRS,0
24026,119 High Street,Maldon,Essex,,Douglas Ball,Retailers - other,4613,10,,17102,10,,51.73026700000000,05540/0119/0/000,117,environmentservices.request@maldon.gov.uk,Maldon,http://www.maldon.gov.uk,0.68298900000000,CM9 5BS,2014-05-09,fhrs_2_en-GB,2,,FHRS,15
24027,Downhall Road,Bradwell-On-Sea,Essex,,Down Hall Rest Home,Hospitals/Childcare/Caring Premises,5,0,,21370,0,,51.73008300000000,07/00014/CPREM,117,environmentservices.request@maldon.gov.uk,Maldon,http://www.maldon.gov.uk,0.89851700000000,CM0 7QP,2012-11-14,fhrs_5_en-GB,5,,FHRS,5
24028,Drapers Sports Club,Drapers Chase,Heybridge,Maldon,Drapers Sports Club,Other catering premises,7841,10,,24331,10,,51.73905800000000,07610/4000/0/000,117,environmentservices.request@maldon.gov.uk,Maldon,http://www.maldon.gov.uk,0.70361700000000,CM9 4QT,2014-09-29,fhrs_3_en-GB,3,,FHRS,10
24029,,,,,Duke Of Pork,Mobile caterer,7846,0,,637163,0,,,14/00013/CPREM,117,environmentservices.request@maldon.gov.uk,Maldon,http://www.maldon.gov.uk,,,2014-02-27,fhrs_5_en-GB,5,,FHRS,0
24030,,,,,East Essex Smallholders Group,Other catering premises,7841,5,,629591,0,,,14/00007/CPREM,117,environmentservices.request@maldon.gov.uk,Maldon,http://www.maldon.gov.uk,,,2014-01-20,fhrs_5_en-GB,5,,FHRS,0
24031,1-3 Foundry Lane,Burnham On Crouch,Essex,,East Of England Co-op,Retailers - supermarkets/hypermarkets,7840,0,,9238,0,,51.63285400000000,03860/2001/2/000,117,environmentservices.request@maldon.gov.uk,Maldon,http://www.maldon.gov.uk,0.81150800000000,CM0 8BL,2014-01-24,fhrs_5_en-GB,5,,FHRS,0
24032,92 Lawling Avenue,Heybridge,Maldon,Essex,East Of England Co-op,Retailers - supermarkets/hypermarkets,7840,5,,24537,0,,51.74204000000000,07880/0092/0/000,117,environmentservices.request@maldon.gov.uk,Maldon,http://www.maldon.gov.uk,0.69711600000000,CM9 4YD,2014-03-24,fhrs_5_en-GB,5,,FHRS,5
24033,93-95 Wood Road,Heybridge,Maldon,Essex,East Of England Co-op,Retailers - supermarkets/hypermarkets,7840,5,,27719,5,,51.74467600000000,08180/0093/0/000,117,environmentservices.request@maldon.gov.uk,Maldon,http://www.maldon.gov.uk,0.69081200000000,CM9 4AS,2012-06-13,fhrs_5_en-GB,5,,FHRS,5
24034,Cross Road,Maldon,Essex,,East Of England Co-op,Retailers - supermarkets/hypermarkets,7840,5,,16639,5,,51.72323500000000,05150/4000/0/000,117,environmentservices.request@maldon.gov.uk,Maldon,http://www.maldon.gov.uk,0.67983600000000,CM9 5ED,2012-06-20,fhrs_5_en-GB,5,,FHRS,5
24035,,,,,Eileens Home Made,Other catering premises,7841,5,,499811,0,,,11/00004/CPREM,117,environmentservices.request@maldon.gov.uk,Maldon,http://www.maldon.gov.uk,,,2014-01-24,fhrs_5_en-GB,5,,FHRS,0
24036,El Guaca,122 High Street,Maldon,Essex,El Guaca Mexican Grill,Restaurant/Cafe/Canteen,1,0,,464799,0,,51.73088000000000,12/00056/CPREM,117,environmentservices.request@maldon.gov.uk,Maldon,http://www.maldon.gov.uk,0.68020100000000,CM9 5ET,2012-09-14,fhrs_5_en-GB,5,,FHRS,0
24037,Beckingham Court,Brick House Road,Tolleshunt Major,Maldon,Elm Croft Care Home,Hospitals/Childcare/Caring Premises,5,0,,14822,0,,51.77982400000000,05/00057/CPREM,117,environmentservices.request@maldon.gov.uk,Maldon,http://www.maldon.gov.uk,0.73974900000000,CM9 8JX,2013-08-29,fhrs_5_en-GB,5,,FHRS,5
24038,Chapter House,Carmelite Way,Maldon,Essex,Essex Cares,Other catering premises,7841,0,,421263,0,,51.73042100000000,09/00037/CPREM,117,environmentservices.request@maldon.gov.uk,Maldon,http://www.maldon.gov.uk,0.67745200000000,CM9 5FJ,2012-06-28,fhrs_5_en-GB,5,,FHRS,0
24039,Wrekin Farm,Burnham Road,Althorne,Chelmsford,Essex Hog Roasts,Mobile caterer,7846,5,,499795,0,,51.65163300000000,07/00029/CPREM,117,environmentservices.request@maldon.gov.uk,Maldon,http://www.maldon.gov.uk,0.77713300000000,CM3 6DT,2013-02-21,fhrs_5_en-GB,5,,FHRS,0
24040,Wonston Road,Southminster,Essex,,Estoril,Hospitals/Childcare/Caring Premises,5,,,10192,,,51.66262100000000,04/00142/CPREM,117,environmentservices.request@maldon.gov.uk,Maldon,http://www.maldon.gov.uk,0.82097300000000,CM0 7FE,2011-08-15,fhrs_exempt_en-GB,Exempt,,FHRS,
24041,Evangelical Church,27 Fullbridge,Maldon,Essex,Evangelical Church,Other catering premises,7841,5,,16987,0,,51.73499300000000,05440/0027/1/000,117,environmentservices.request@maldon.gov.uk,Maldon,http://www.maldon.gov.uk,0.67886600000000,CM9 4LE,2013-11-26,fhrs_5_en-GB,5,,FHRS,0
24042,Fairplay House,Station Road,Wickham Bishops,Witham,Fairplay House,School/college/university,7845,5,,6383,0,,51.77396700000000,02150/2015/2/000,117,environmentservices.request@maldon.gov.uk,Maldon,http://www.maldon.gov.uk,0.65087600000000,CM8 3JL,2013-03-12,fhrs_5_en-GB,5,,FHRS,5
24043,Bentalls Complex,Colchester Road,Heybridge,Maldon,Farleigh In Maldon Day Hospice,Hospitals/Childcare/Caring Premises,5,5,,16432,0,,51.74081900000000,05050/4001/2/000,117,environmentservices.request@maldon.gov.uk,Maldon,http://www.maldon.gov.uk,0.68878600000000,CM9 4NW,2014-05-13,fhrs_5_en-GB,5,,FHRS,0
24044,16 The Street,Heybridge,Maldon,Essex,Farrance,Retailers - other,4613,10,,20902,10,,51.73998000000000,06570/0016/0/000,117,environmentservices.request@maldon.gov.uk,Maldon,http://www.maldon.gov.uk,0.68695500000000,CM9 4NB,2014-03-31,fhrs_4_en-GB,4,,FHRS,0
24045,Hackmans Lane,Purleigh,Chelmsford,Essex,Farthingale Farm,Other catering premises,7841,0,,644207,0,,51.67610700000000,14/00019/CPREM,117,environmentservices.request@maldon.gov.uk,Maldon,http://www.maldon.gov.uk,0.64424400000000,CM3 6RW,2014-04-09,fhrs_5_en-GB,5,,FHRS,0
24046,12 Conyer Close,Maldon,Essex,,Feasts And Flowers,Other catering premises,7841,5,,293198,0,,51.71884100000000,12/00012/CPREM,117,environmentservices.request@maldon.gov.uk,Maldon,http://www.maldon.gov.uk,0.67608700000000,CM9 6XN,2014-03-26,fhrs_5_en-GB,5,,FHRS,0
24047,The Sail Lofts,Woodrolfe Road,Tollesbury,Maldon,Fellowship Afloat Charitable Trust,Other catering premises,7841,0,,32025,0,,51.75927300000000,09130/4000/0/017,117,environmentservices.request@maldon.gov.uk,Maldon,http://www.maldon.gov.uk,0.84682200000000,CM9 8SE,2012-02-20,fhrs_5_en-GB,5,,FHRS,0
24048,165 High Street,Maldon,Essex,,First Stop,Retailers - other,4613,5,,429080,0,,51.73026700000000,10/00071/CPREM,117,environmentservices.request@maldon.gov.uk,Maldon,http://www.maldon.gov.uk,0.68298900000000,CM9 5BS,2010-11-25,fhrs_5_en-GB,5,,FHRS,0
24049,Firstlings Residential Home,The Street,Heybridge,Maldon,Firstlings Residential Home,Hospitals/Childcare/Caring Premises,5,0,,20907,5,,51.73998000000000,06570/4000/0/001,117,environmentservices.request@maldon.gov.uk,Maldon,http://www.maldon.gov.uk,0.68695500000000,CM9 4NB,2014-08-05,fhrs_5_en-GB,5,,FHRS,5
24050,The Fish Inn Restaurant And Takeawa,44 Mill Road,Maldon,Essex,Fish Inn,Takeaway/sandwich shop,7844,0,,429065,5,,51.72801600000000,09/00023/CPREM,117,environmentservices.request@maldon.gov.uk,Maldon,http://www.maldon.gov.uk,0.68589700000000,CM9 5HZ,2012-08-15,fhrs_5_en-GB,5,,FHRS,5
24051,Chigborough Fisheries,Chigborough Road,Heybridge,Maldon,Fishery Hut,Other catering premises,7841,,,24229,,,51.74176500000000,07520/2005/2/002,117,environmentservices.request@maldon.gov.uk,Maldon,http://www.maldon.gov.uk,0.71878600000000,CM9 4RE,2013-11-04,fhrs_exempt_en-GB,Exempt,,FHRS,
24052,6 Springfield Nursery Site,Springfield Road,Burnham-On-Crouch,Essex,Flair Craft / Fozzos,Other catering premises,7841,10,,429045,5,,51.63350300000000,03/00080/CPREM,117,environmentservices.request@maldon.gov.uk,Maldon,http://www.maldon.gov.uk,0.80433700000000,CM0 8TA,2014-06-02,fhrs_4_en-GB,4,,FHRS,0
24053,Forrester Park Golf And Tennis Club,Beckingham Road,Great Totham,Maldon,Forrester Park Golf And Tennis Club,Restaurant/Cafe/Canteen,1,5,,23804,0,,51.77606900000000,07000/4000/0/002,117,environmentservices.request@maldon.gov.uk,Maldon,http://www.maldon.gov.uk,0.70307400000000,CM9 8EA,2014-06-23,fhrs_5_en-GB,5,,FHRS,5
24054,Fox And Hounds Public House,12 The Square,Tillingham,Southminster,Fox And Hounds,Pub/bar/nightclub,7843,0,,51293,5,,51.69721600000000,11480/0012/0/000,117,environmentservices.request@maldon.gov.uk,Maldon,http://www.maldon.gov.uk,0.88298400000000,CM0 7SU,2014-11-11,fhrs_5_en-GB,5,,FHRS,5
24055,The Fox And Hounds Inn,Birchwood Road,Purleigh,Chelmsford,Fox And Hounds,Pub/bar/nightclub,7843,0,,464808,0,,51.69377000000000,12/00072/CPREM,117,environmentservices.request@maldon.gov.uk,Maldon,http://www.maldon.gov.uk,0.62621500000000,CM3 6RF,2014-10-08,fhrs_5_en-GB,5,,FHRS,0
24056,7 Mell Road,Tollesbury,Maldon,Essex,Fred Stores,Retailers - other,4613,5,,17995,5,,51.75707600000000,06/00056/CPREM,117,environmentservices.request@maldon.gov.uk,Maldon,http://www.maldon.gov.uk,0.84023500000000,CM9 8SW,2012-06-13,fhrs_5_en-GB,5,,FHRS,5
24057,The Friendly Fryer,13 High Street,Maldon,Essex,Friendly Frier,Takeaway/sandwich shop,7844,0,,17080,0,,51.73157600000000,05540/0013/A/000,117,environmentservices.request@maldon.gov.uk,Maldon,http://www.maldon.gov.uk,0.67530400000000,CM9 5PB,2013-11-05,fhrs_5_en-GB,5,,FHRS,0
24058,Friends Meeting House,Butt Lane,Maldon,Essex,Friends Meeting House,Other catering premises,7841,10,,14351,0,,51.73149600000000,04920/2006/2/000,117,environmentservices.request@maldon.gov.uk,Maldon,http://www.maldon.gov.uk,0.68197600000000,CM9 5HD,2014-09-11,fhrs_4_en-GB,4,,FHRS,0
24059,,,,,Furzedown Smallholding,Manufacturers/packers,7839,0,,577158,0,,,13/00049/CPREM,117,environmentservices.request@maldon.gov.uk,Maldon,http://www.maldon.gov.uk,,,2013-10-11,fhrs_5_en-GB,5,,FHRS,5
24060,85 East Street,Tollesbury,Maldon,Essex,G Leavett,Manufacturers/packers,7839,10,,28214,0,,51.75825800000000,08740/0085/0/000,117,environmentservices.request@maldon.gov.uk,Maldon,http://www.maldon.gov.uk,0.83786000000000,CM9 8SA,2013-06-10,fhrs_4_en-GB,4,,FHRS,5
24061,,,,,Gerry's Sandwiches,Other catering premises,7841,10,,489706,5,,,12/00083/CPREM,117,environmentservices.request@maldon.gov.uk,Maldon,http://www.maldon.gov.uk,,,2014-05-06,fhrs_4_en-GB,4,,FHRS,5
24062,71 High Street,Burnham-On-Crouch,Essex,,Golden Dragon,Restaurant/Cafe/Canteen,1,10,,464805,10,,51.62512200000000,12/00069/CPREM,117,environmentservices.request@maldon.gov.uk,Maldon,http://www.maldon.gov.uk,0.82040800000000,CM0 8AH,2013-01-27,fhrs_2_en-GB,2,,FHRS,15
24063,6 High Street,Southminster,Essex,,Golden Platter,Restaurant/Cafe/Canteen,1,0,,40866,5,,51.66265700000000,10180/0006/0/000,117,environmentservices.request@maldon.gov.uk,Maldon,http://www.maldon.gov.uk,0.82997000000000,CM0 7DE,2014-02-10,fhrs_4_en-GB,4,,FHRS,10
24064,Golden Platter,70-72 Imperial Avenue,Mayland,Chelmsford,Golden Platter (Mayland) Ltd,Manufacturers/packers,7839,5,,4906,5,,51.68692600000000,01420/4000/0/006,117,environmentservices.request@maldon.gov.uk,Maldon,http://www.maldon.gov.uk,0.75453600000000,CM3 6AH,2014-01-28,fhrs_4_en-GB,4,,FHRS,10
24065,15 Dryden Close,Maldon,Essex,,Golden Sand,Takeaway/sandwich shop,7844,20,,24735,15,,51.72155900000000,08/00008/CPREM,117,environmentservices.request@maldon.gov.uk,Maldon,http://www.maldon.gov.uk,0.67994000000000,CM9 6DG,2014-03-31,fhrs_0_en-GB,0,,FHRS,20
24066,22 Head Street,Goldhanger,Maldon,Essex,Goldhanger Village Hall,Other catering premises,7841,,,21176,,,51.74609500000000,06910/2006/0/000,117,environmentservices.request@maldon.gov.uk,Maldon,http://www.maldon.gov.uk,0.75568700000000,CM9 8AY,2008-06-10,fhrs_exempt_en-GB,Exempt,,FHRS,
24067,Golf Driving Range,Burnham Road,Woodham Mortimer,Maldon,Golf Driving Range,Retailers - other,4613,,,32522,,,51.70865100000000,09690/4000/0/001,117,environmentservices.request@maldon.gov.uk,Maldon,http://www.maldon.gov.uk,0.62353100000000,CM9 6SR,2014-08-07,fhrs_exempt_en-GB,Exempt,,FHRS,
24068,Great Totham County Primary School,Walden House Road,Great Totham,Maldon,Great Totham Breakfast Club/ Totham Tea Timers,School/college/university,7845,,,499803,,,51.77568200000000,09/00041/CPREM,117,environmentservices.request@maldon.gov.uk,Maldon,http://www.maldon.gov.uk,0.68543700000000,CM9 8PN,2013-09-23,fhrs_exempt_en-GB,Exempt,,FHRS,
24069,Village Hall,Maldon Road,Great Totham,Maldon,Great Totham Nursery,Hospitals/Childcare/Caring Premises,5,,,464792,,,51.77472800000000,09/00013/CPREM,117,environmentservices.request@maldon.gov.uk,Maldon,http://www.maldon.gov.uk,0.69096200000000,CM9 8NH,2014-10-23,fhrs_exempt_en-GB,Exempt,,FHRS,
24070,Walden House Road,Great Totham,Maldon,Essex,Great Totham Primary School,School/college/university,7845,0,,24130,0,,51.77568200000000,07410/4000/0/001,117,environmentservices.request@maldon.gov.uk,Maldon,http://www.maldon.gov.uk,0.68543700000000,CM9 8PN,2013-09-23,fhrs_5_en-GB,5,,FHRS,5
24071,Great Totham Store,7 Maldon Road,Great Totham,Maldon,Great Totham Stores Limited,Retailers - other,4613,10,,626165,5,,51.77067800000000,14/00004/CPREM,117,environmentservices.request@maldon.gov.uk,Maldon,http://www.maldon.gov.uk,0.68796600000000,CM9 8PR,2014-01-08,fhrs_4_en-GB,4,,FHRS,5
24072,The Green Man Inn,Green Man Lane,Little Braxted,Witham,Green Man,Pub/bar/nightclub,7843,10,,622605,0,,51.78568000000000,13/00099/CPREM,117,environmentservices.request@maldon.gov.uk,Maldon,http://www.maldon.gov.uk,0.67965100000000,CM8 3LB,2013-12-04,fhrs_4_en-GB,4,,FHRS,10
24073,Green Man Inn,Waterside,Bradwell On Sea,Southminster,Green Man Inn,Pub/bar/nightclub,7843,0,,44958,0,,51.73381600000000,10900/4000/0/003,117,environmentservices.request@maldon.gov.uk,Maldon,http://www.maldon.gov.uk,0.88864600000000,CM0 7QX,2013-09-12,fhrs_5_en-GB,5,,FHRS,5
24074,74 High Street,Maldon,Essex,,Greens,Retailers - other,4613,5,,17095,5,,51.73088000000000,05540/0074/0/000,117,environmentservices.request@maldon.gov.uk,Maldon,http://www.maldon.gov.uk,0.68020100000000,CM9 5ET,2014-08-07,fhrs_5_en-GB,5,,FHRS,5
24075,34 High Street,Maldon,Essex,,Greggs,Restaurant/Cafe/Canteen,1,0,,17084,0,,51.73133500000000,05540/0034/0/000,117,environmentservices.request@maldon.gov.uk,Maldon,http://www.maldon.gov.uk,0.67718700000000,CM9 5PN,2013-05-31,fhrs_5_en-GB,5,,FHRS,5
24076,Hailey House Residential Home,Highlands Drive,Maldon,Essex,Hailey House,Hospitals/Childcare/Caring Premises,5,0,,17151,0,,51.73112100000000,05590/0031/0/000,117,environmentservices.request@maldon.gov.uk,Maldon,http://www.maldon.gov.uk,0.67041100000000,CM9 6HY,2014-06-24,fhrs_5_en-GB,5,,FHRS,5
24077,58 Holloway Road,Heybridge,Maldon,Essex,Hanson House,Hotel/bed & breakfast/guest house,7842,5,,489699,0,,51.74406600000000,11/00033/CPREM,117,environmentservices.request@maldon.gov.uk,Maldon,http://www.maldon.gov.uk,0.67970700000000,CM9 4SQ,2015-01-14,fhrs_5_en-GB,5,,FHRS,0
24078,138 Station Road,Burnham-On-Crouch,Essex,,Happy Returns,Restaurant/Cafe/Canteen,1,5,,429089,0,,51.62818700000000,11/00056/CPREM,117,environmentservices.request@maldon.gov.uk,Maldon,http://www.maldon.gov.uk,0.81448600000000,CM0 8HH,2014-08-19,fhrs_5_en-GB,5,,FHRS,0
24079,Woodrolfe Road,Tollesbury,Maldon,Essex,Harbour View At Tollesbury Cruising Club,Other catering premises,7841,5,,32026,0,,51.75927300000000,09130/4000/0/021,117,environmentservices.request@maldon.gov.uk,Maldon,http://www.maldon.gov.uk,0.84682200000000,CM9 8SE,2014-12-11,fhrs_5_en-GB,5,,FHRS,5
24080,Hardy's,36 Imperial Avenue,Mayland,Chelmsford,Hardy's Bar And Grill,Pub/bar/nightclub,7843,5,,584551,0,,51.68684300000000,13/00056/CPREM,117,environmentservices.request@maldon.gov.uk,Maldon,http://www.maldon.gov.uk,0.75729500000000,CM3 6AQ,2013-09-03,fhrs_5_en-GB,5,,FHRS,5
24081,Harlow Sailing Club,Sea View Parade,Mayland,Chelmsford,Harlow (Blackwater) Sailing Club,Other catering premises,7841,,,5104,,,51.69208500000000,01550/4000/0/000,117,environmentservices.request@maldon.gov.uk,Maldon,http://www.maldon.gov.uk,0.75891600000000,CM3 6EL,2014-07-11,fhrs_exempt_en-GB,Exempt,,FHRS,
24082,Tesco,Fullbridge,Maldon,Essex,Harris And Hoole,Restaurant/Cafe/Canteen,1,10,,687698,0,,51.73550400000000,14/00044/CPREM,117,environmentservices.request@maldon.gov.uk,Maldon,http://www.maldon.gov.uk,0.67931600000000,CM9 4LE,2014-07-15,fhrs_4_en-GB,4,,FHRS,10
24083,St Giles Church Shop,Maldon Road,Langford,Maldon,Heavenly Supplies,Retailers - other,4613,,,429062,,,51.74891300000000,09/00008/CPREM,117,environmentservices.request@maldon.gov.uk,Maldon,http://www.maldon.gov.uk,0.66195600000000,CM9 4SS,2014-09-10,fhrs_exempt_en-GB,Exempt,,FHRS,
24084,Heybridge County Primary School,8 - 11 Rowan Drive,Heybridge,Maldon,Heybridge County Primary School,School/college/university,7845,0,,27386,0,,51.74317100000000,08000/4000/0/000,117,environmentservices.request@maldon.gov.uk,Maldon,http://www.maldon.gov.uk,0.69760400000000,CM9 4TU,2014-03-26,fhrs_5_en-GB,5,,FHRS,0
24085,34 Heybridge Street,Heybridge,Maldon,Essex,Heybridge Inn,Pub/bar/nightclub,7843,0,,14692,10,,51.73998000000000,05/00038/CPREM,117,environmentservices.request@maldon.gov.uk,Maldon,http://www.maldon.gov.uk,0.68695500000000,CM9 4NB,2013-06-07,fhrs_4_en-GB,4,,FHRS,0
24086,Heybridge Swifts Football Club,Scraley Road,Heybridge,Maldon,Heybridge Swifts Football Club,Restaurant/Cafe/Canteen,1,10,,20702,5,,51.74790800000000,06330/4000/0/000,117,environmentservices.request@maldon.gov.uk,Maldon,http://www.maldon.gov.uk,0.70669500000000,CM9 8JA,2014-11-04,fhrs_3_en-GB,3,,FHRS,10
24087,Unit 5 Heybridge Tandoori,Bentalls Shopping Centre,Colchester Road,Heybridge,Heybridge Tandoori,Restaurant/Cafe/Canteen,1,5,,24266,0,,51.74050800000000,07550/2024/2/000,117,environmentservices.request@maldon.gov.uk,Maldon,http://www.maldon.gov.uk,0.68901400000000,CM9 4GD,2014-01-16,fhrs_5_en-GB,5,,FHRS,0
24088,Heybridge Swifts Football Club,Scraley Road,Heybridge,Maldon,Heybridge Youth Football Club,Other catering premises,7841,,,21393,,,51.74561400000000,07/00016/CPREM,117,environmentservices.request@maldon.gov.uk,Maldon,http://www.maldon.gov.uk,0.69735800000000,CM9 4BL,2012-05-03,fhrs_exempt_en-GB,Exempt,,FHRS,
24089,Hillside Bowling Club,99 Station Road,Burnham on Crouch,Essex,Hillside Bowling Club,Other catering premises,7841,,,13876,,,51.62918700000000,04500/4000/0/001,117,environmentservices.request@maldon.gov.uk,Maldon,http://www.maldon.gov.uk,0.81441700000000,CM0 8HR,2013-05-08,fhrs_exempt_en-GB,Exempt,,FHRS,
24090,Hall Road,Southminster,Essex,,Hillside Play Centre,Hospitals/Childcare/Caring Premises,5,0,,40649,5,,51.66092200000000,10150/0001/0/000,117,environmentservices.request@maldon.gov.uk,Maldon,http://www.maldon.gov.uk,0.83699100000000,CM0 7EH,2014-01-16,fhrs_5_en-GB,5,,FHRS,0
24091,16 High Street,Southminster,Essex,,Hong Kong Take Away,Takeaway/sandwich shop,7844,10,,40869,5,,51.66240000000000,10180/0016/0/000,117,environmentservices.request@maldon.gov.uk,Maldon,http://www.maldon.gov.uk,0.82869600000000,CM0 7AA,2013-11-27,fhrs_4_en-GB,4,,FHRS,5
24092,180-182 High Street,Maldon,Essex,,House Of Delight,Restaurant/Cafe/Canteen,1,0,,17108,0,,51.72960700000000,05540/0180/0/000,117,environmentservices.request@maldon.gov.uk,Maldon,http://www.maldon.gov.uk,0.68393500000000,CM9 5BX,2012-09-20,fhrs_5_en-GB,5,,FHRS,0
24093,Green Lane,Althorne,Chelmsford,Essex,Huntsman And Hounds,Pub/bar/nightclub,7843,5,,1299,0,,51.67010700000000,00110/4000/0/002,117,environmentservices.request@maldon.gov.uk,Maldon,http://www.maldon.gov.uk,0.75497600000000,CM3 6BJ,2013-03-18,fhrs_5_en-GB,5,,FHRS,0
24094,Post Office Road,Woodham Mortimer,Maldon,Essex,Hurdlemakers Arms,Pub/bar/nightclub,7843,5,,14620,0,,51.71029000000000,05/00028/CPREM,117,environmentservices.request@maldon.gov.uk,Maldon,http://www.maldon.gov.uk,0.62381400000000,CM9 6ST,2013-03-14,fhrs_5_en-GB,5,,FHRS,0
24095,Kiosk 7,The Promenade Park,Park Drive,Maldon,Ice Box,Takeaway/sandwich shop,7844,5,,20563,0,,51.72330200000000,06150/2002/2/007,117,environmentservices.request@maldon.gov.uk,Maldon,http://www.maldon.gov.uk,0.68907900000000,CM9 5JQ,2014-05-19,fhrs_5_en-GB,5,,FHRS,0
24096,,,,,Iced Gem Cakes,Other catering premises,7841,5,,610552,0,,,13/00079/CPREM,117,environmentservices.request@maldon.gov.uk,Maldon,http://www.maldon.gov.uk,,,2013-11-12,fhrs_5_en-GB,5,,FHRS,0
24097,62-66 High Street,Maldon,Essex,,Iceland Frozen Foods Plc,Retailers - supermarkets/hypermarkets,7840,0,,17090,5,,51.73133500000000,05540/0062/0/000,117,environmentservices.request@maldon.gov.uk,Maldon,http://www.maldon.gov.uk,0.67718700000000,CM9 5PN,2012-11-27,fhrs_5_en-GB,5,,FHRS,5
24098,162 High Street,Maldon,Essex,,Il Camino,Restaurant/Cafe/Canteen,1,0,,429048,0,,51.72960700000000,07/00039/CPREM,117,environmentservices.request@maldon.gov.uk,Maldon,http://www.maldon.gov.uk,0.68393500000000,CM9 5BX,2013-04-04,fhrs_5_en-GB,5,,FHRS,0
24099,St Lawrence Inn,8 Main Road,St Lawrence,Southminster,Indian Ocean,Restaurant/Cafe/Canteen,1,5,,17953,10,,51.71486400000000,06/00051/CPREM,117,environmentservices.request@maldon.gov.uk,Maldon,http://www.maldon.gov.uk,0.82739500000000,CM0 7LY,2014-03-06,fhrs_4_en-GB,4,,FHRS,5
24100,3 The Square,Heybridge,Maldon,Essex,Indian Summer,Restaurant/Cafe/Canteen,1,5,,731380,5,,51.74116500000000,15/00006/CPREM,117,environmentservices.request@maldon.gov.uk,Maldon,http://www.maldon.gov.uk,0.68428700000000,CM9 4LT,2015-01-15,fhrs_5_en-GB,5,,FHRS,5
24101,116 High Street,Maldon,Essex,,Intimo Restaurant,Restaurant/Cafe/Canteen,1,0,,429059,0,,51.73088000000000,08/00059/CPREM,117,environmentservices.request@maldon.gov.uk,Maldon,http://www.maldon.gov.uk,0.68020100000000,CM9 5ET,2013-02-12,fhrs_5_en-GB,5,,FHRS,5
24102,Madison Heights,Park Drive,Maldon,Essex,Izumi Oriental,Restaurant/Cafe/Canteen,1,5,,464790,5,,51.72316500000000,07/00040/CPREM,117,environmentservices.request@maldon.gov.uk,Maldon,http://www.maldon.gov.uk,0.68915700000000,CM9 5JQ,2014-05-20,fhrs_5_en-GB,5,,FHRS,5
24103,,,,,Jacks Snacks,Mobile caterer,7846,5,,209645,0,,,10/00039/CPREM,117,environmentservices.request@maldon.gov.uk,Maldon,http://www.maldon.gov.uk,,,2014-03-11,fhrs_5_en-GB,5,,FHRS,0
24104,Jacobs Farm,Goldhanger Road,Heybridge,Maldon,Jacobs Farm,Retailers - other,4613,5,,24402,5,,51.73802800000000,07700/2013/2/000,117,environmentservices.request@maldon.gov.uk,Maldon,http://www.maldon.gov.uk,0.69794900000000,CM9 4QS,2014-08-20,fhrs_5_en-GB,5,,FHRS,5
24105,17 High Street,Southminster,Essex,,Jasmin Oriental,Restaurant/Cafe/Canteen,1,0,,464806,5,,51.66284000000000,12/00070/CPREM,117,environmentservices.request@maldon.gov.uk,Maldon,http://www.maldon.gov.uk,0.82684300000000,CM0 7AY,2013-11-27,fhrs_5_en-GB,5,,FHRS,5
24106,Post Office,Burnham Road,Althorne,Chelmsford,Jayems Supermarket,Retailers - other,4613,10,,18226,5,,51.66415400000000,06/00090/CPREM,117,environmentservices.request@maldon.gov.uk,Maldon,http://www.maldon.gov.uk,0.75799900000000,CM3 6BU,2014-08-07,fhrs_4_en-GB,4,,FHRS,5
24107,35 Spital Road,Maldon,Essex,,John's Store,Retailers - other,4613,0,,20748,0,,51.72823900000000,06390/0035/0/000,117,environmentservices.request@maldon.gov.uk,Maldon,http://www.maldon.gov.uk,0.67019700000000,CM9 6DZ,2014-10-15,fhrs_4_en-GB,4,,FHRS,10
24108,230A Fambridge Road,Maldon,Essex,,Julia Wingfield,Other catering premises,7841,0,,696662,0,,51.72018000000000,14/00055/CPREM,117,environmentservices.request@maldon.gov.uk,Maldon,http://www.maldon.gov.uk,0.67773000000000,CM9 6BJ,2014-08-15,fhrs_5_en-GB,5,,FHRS,0
24109,West Station Yard,Spital Road,Maldon,Essex,Kabin Snax,Restaurant/Cafe/Canteen,1,0,,20771,0,,51.72420300000000,06410/4002/2/000,117,environmentservices.request@maldon.gov.uk,Maldon,http://www.maldon.gov.uk,0.66574500000000,CM9 6TR,2013-11-18,fhrs_4_en-GB,4,,FHRS,10
24110,,,,,Karen Hutchinson,Other catering premises,7841,5,,409727,5,,,12/00046/CPREM,117,environmentservices.request@maldon.gov.uk,Maldon,http://www.maldon.gov.uk,,,2012-06-13,fhrs_5_en-GB,5,,FHRS,0
24111,,,,,Kathy's Cupcakes,Other catering premises,7841,5,,499804,5,,,09/00078/CPREM,117,environmentservices.request@maldon.gov.uk,Maldon,http://www.maldon.gov.uk,,,2012-10-10,fhrs_5_en-GB,5,,FHRS,0
24112,,,,,Katie Talls Cakes,Other catering premises,7841,0,,658920,5,,,14/00025/CPREM,117,environmentservices.request@maldon.gov.uk,Maldon,http://www.maldon.gov.uk,,,2014-04-15,fhrs_5_en-GB,5,,FHRS,5
24113,3 Pinners Close,Burnham-On-Crouch,Essex,,Katy's Candy Carts,Retailers - other,4613,,,544951,,,51.64267900000000,13/00022/CPREM,117,environmentservices.request@maldon.gov.uk,Maldon,http://www.maldon.gov.uk,0.79782000000000,CM0 8QH,2013-04-19,fhrs_exempt_en-GB,Exempt,,FHRS,
24114,16 Dryden Close,Maldon,Essex,,Kerrys News,Retailers - supermarkets/hypermarkets,7840,10,,16727,10,,51.72155900000000,05240/0016/0/000,117,environmentservices.request@maldon.gov.uk,Maldon,http://www.maldon.gov.uk,0.67994000000000,CM9 6DG,2013-07-01,fhrs_4_en-GB,4,,FHRS,0
24115,,,,,Khush,Other catering premises,7841,5,,595274,5,,,13/00071/CPREM,117,environmentservices.request@maldon.gov.uk,Maldon,http://www.maldon.gov.uk,,,2013-09-30,fhrs_5_en-GB,5,,FHRS,0
24116,,,,,Kids Stuff,Other catering premises,7841,0,,24546,0,,,07890/0052/0/000,117,environmentservices.request@maldon.gov.uk,Maldon,http://www.maldon.gov.uk,,,2013-07-24,fhrs_5_en-GB,5,,FHRS,0
24117,Kings Head,High Street,Bradwell on Sea,Southminster,Kings Head,Pub/bar/nightclub,7843,5,,44626,0,,51.72432100000000,10820/4000/0/000,117,environmentservices.request@maldon.gov.uk,Maldon,http://www.maldon.gov.uk,0.89985700000000,CM0 7QL,2014-06-30,fhrs_4_en-GB,4,,FHRS,10
24118,High Street,Tollesbury,Maldon,Essex,Kings Head Hotel,Pub/bar/nightclub,7843,5,,28282,0,,51.75847500000000,08810/0001/0/000,117,environmentservices.request@maldon.gov.uk,Maldon,http://www.maldon.gov.uk,0.83184400000000,CM9 8RG,2014-12-11,fhrs_5_en-GB,5,,FHRS,5
24119,Knightswood,Steeple Road,Southminster,Essex,Knightswood Day Care Centre,Hospitals/Childcare/Caring Premises,5,0,,9397,0,,51.66602700000000,04/00007/CPREM,117,environmentservices.request@maldon.gov.uk,Maldon,http://www.maldon.gov.uk,0.81736600000000,CM0 7BD,2014-08-21,fhrs_5_en-GB,5,,FHRS,5
24120,,,,,KT's BBQ Services,Other catering premises,7841,5,,508523,5,,,13/00007/CPREM,117,environmentservices.request@maldon.gov.uk,Maldon,http://www.maldon.gov.uk,,,2014-03-10,fhrs_5_en-GB,5,,FHRS,0
24121,7 The Street,Latchingdon,Chelmsford,Essex,L And D Foods,Retailers - other,4613,5,,676635,0,,51.67084600000000,14/00029/CPREM,117,environmentservices.request@maldon.gov.uk,Maldon,http://www.maldon.gov.uk,0.71748700000000,CM3 6JP,2014-05-20,fhrs_5_en-GB,5,,FHRS,0
24122,,,,,Lakeview Cakes,Other catering premises,7841,0,,629589,0,,,13/00100/CPREM,117,environmentservices.request@maldon.gov.uk,Maldon,http://www.maldon.gov.uk,,,2014-01-08,fhrs_5_en-GB,5,,FHRS,0
24123,The Barn At Chigborough,Chigborough Road,Heybridge,Maldon,Lambton And Jackson,Manufacturers/packers,7839,0,,644210,0,,51.74176500000000,14/00022/CPREM,117,environmentservices.request@maldon.gov.uk,Maldon,http://www.maldon.gov.uk,0.71878600000000,CM9 4RE,2014-04-04,fhrs_5_en-GB,5,,FHRS,0
24124,36 The Street,Latchingdon,Chelmsford,Essex,Latchingdon News,Retailers - other,4613,,,4492,,,51.67145400000000,01140/0036/0/000,117,environmentservices.request@maldon.gov.uk,Maldon,http://www.maldon.gov.uk,0.72034400000000,CM3 6JR,2014-01-24,fhrs_exempt_en-GB,Exempt,,FHRS,
24125,Burnham Road,Latchingdon,Chelmsford,Essex,Latchingdon Village Hall,Other catering premises,7841,,,2529,,,51.66853500000000,00980/2025/0/000,117,environmentservices.request@maldon.gov.uk,Maldon,http://www.maldon.gov.uk,0.72674900000000,CM3 6EX,2009-10-05,fhrs_exempt_en-GB,Exempt,,FHRS,
24126,The Square,Heybridge,Maldon,Essex,Le Bouchon Brasserie And Hotel,Hotel/bed & breakfast/guest house,7842,5,,464796,0,,51.74116500000000,11/00096/CPREM,117,environmentservices.request@maldon.gov.uk,Maldon,http://www.maldon.gov.uk,0.68428700000000,CM9 4LT,2014-11-27,fhrs_5_en-GB,5,,FHRS,5
24127,Lets Go Bonkers Limited,Unit 7,Station Industrial Estate,Station Approach,Lets Go Bonkers Ltd,Restaurant/Cafe/Canteen,1,0,,689268,0,,51.63268000000000,14/00040/CPREM,117,environmentservices.request@maldon.gov.uk,Maldon,http://www.maldon.gov.uk,0.81016800000000,CM0 8RW,2014-07-30,fhrs_5_en-GB,5,,FHRS,0
24128,Wycke Hill,Maldon,Essex,,Limburn House,Hotel/bed & breakfast/guest house,7842,0,,489691,0,,51.72026400000000,10/00003/CPREM,117,environmentservices.request@maldon.gov.uk,Maldon,http://www.maldon.gov.uk,0.66138700000000,CM9 6SH,2012-09-27,fhrs_5_en-GB,5,,FHRS,0
24129,,,,,Linda Hamilton Catering,Other catering premises,7841,5,,689270,5,,,14/00050/CPREM,117,environmentservices.request@maldon.gov.uk,Maldon,http://www.maldon.gov.uk,,,2014-07-24,fhrs_5_en-GB,5,,FHRS,0
24130,Langford And Ulting Village Hall,Maldon Road,Langford,Maldon,Little Oaks Nursey,School/college/university,7845,,,27912,,,51.74891300000000,08310/2015/2/000,117,environmentservices.request@maldon.gov.uk,Maldon,http://www.maldon.gov.uk,0.66195600000000,CM9 4SS,2008-11-12,fhrs_exempt_en-GB,Exempt,,FHRS,
24131,Little Oaks Residential Home,Braxted Road,Little Braxted,Witham,Little Oaks Residential Care Home,Hospitals/Childcare/Caring Premises,5,5,,676639,10,,51.78362400000000,14/00039/CPREM,117,environmentservices.request@maldon.gov.uk,Maldon,http://www.maldon.gov.uk,0.68225500000000,CM8 3JY,2014-06-23,fhrs_3_en-GB,3,,FHRS,10
24132,,,,,Little Pickles,Other catering premises,7841,0,,489695,0,,,10/00068/CPREM,117,environmentservices.request@maldon.gov.uk,Maldon,http://www.maldon.gov.uk,,,2014-03-21,fhrs_5_en-GB,5,,FHRS,0
24133,,,,,Littlemickz,Other catering premises,7841,5,,733792,5,,,15/00003/CPREM,117,environmentservices.request@maldon.gov.uk,Maldon,http://www.maldon.gov.uk,,,2015-01-20,fhrs_5_en-GB,5,,FHRS,0
24134,The Old Chandlery,Basin Road,Heybridge,Maldon,Lock Tea Room,Restaurant/Cafe/Canteen,1,5,,27771,0,,51.72994000000000,08200/2026/2/000,117,environmentservices.request@maldon.gov.uk,Maldon,http://www.maldon.gov.uk,0.70941600000000,CM9 4RS,2014-05-13,fhrs_5_en-GB,5,,FHRS,5
24135,Fambridge Close,Maldon,Essex,,Longfield Home,Hospitals/Childcare/Caring Premises,5,0,,16856,0,,51.72412800000000,05340/2001/2/000,117,environmentservices.request@maldon.gov.uk,Maldon,http://www.maldon.gov.uk,0.67890400000000,CM9 6DJ,2013-10-28,fhrs_5_en-GB,5,,FHRS,0
24136,Joyces Chase,Tolleshunt Major,Maldon,Essex,Longwick Farm,Hotel/bed & breakfast/guest house,7842,0,,499799,0,,51.74875800000000,08/00031/CPREM,117,environmentservices.request@maldon.gov.uk,Maldon,http://www.maldon.gov.uk,0.77322200000000,CM9 8AQ,2013-07-15,fhrs_5_en-GB,5,,FHRS,0
24137,17 The Kings Head Centre,38 High Street,Maldon,Essex,Lottie And Jakes,Retailers - other,4613,,,46915,,,51.73133500000000,11/00093/CPREM,117,environmentservices.request@maldon.gov.uk,Maldon,http://www.maldon.gov.uk,0.67718700000000,CM9 5PN,2014-10-15,fhrs_exempt_en-GB,Exempt,,FHRS,
24138,Unit 2,Knowles Farm,Wycke Hill,Maldon,Lottie And Jakes,Other catering premises,7841,0,,444751,0,,51.72026400000000,12/00063/CPREM,117,environmentservices.request@maldon.gov.uk,Maldon,http://www.maldon.gov.uk,0.66138700000000,CM9 6SH,2012-08-28,fhrs_5_en-GB,5,,FHRS,5
24139,United Reform Church Hall,Chapel Road,Great Totham,Maldon,Luncheon Club,Other catering premises,7841,0,,23910,0,,51.78368300000000,07080/2012/2/000,117,environmentservices.request@maldon.gov.uk,Maldon,http://www.maldon.gov.uk,0.70831500000000,CM9 8DA,2015-01-14,fhrs_5_en-GB,5,,FHRS,0
24140,,,,,M And K Caterers,Other catering premises,7841,10,,489704,0,,,11/00104/CPREM,117,environmentservices.request@maldon.gov.uk,Maldon,http://www.maldon.gov.uk,,,2014-08-15,fhrs_4_en-GB,4,,FHRS,0
24141,Market Stall,Butt Lane,Maldon,Essex,Mackenzies Fruit And Veg,Retailers - other,4613,0,,21075,0,,51.73149600000000,06780/5003/0/000,117,environmentservices.request@maldon.gov.uk,Maldon,http://www.maldon.gov.uk,0.68197600000000,CM9 5HD,2012-11-27,fhrs_5_en-GB,5,,FHRS,0
24142,Bowling/Snooker Centre,Park Drive,Maldon,Essex,Madison Heights,Restaurant/Cafe/Canteen,1,10,,20570,0,,51.72336600000000,06150/4000/2/000,117,environmentservices.request@maldon.gov.uk,Maldon,http://www.maldon.gov.uk,0.69021200000000,CM9 5UR,2014-01-24,fhrs_4_en-GB,4,,FHRS,0
24143,,,,,Mahalo Organics,Other catering premises,7841,5,,517510,5,,,13/00011/CPREM,117,environmentservices.request@maldon.gov.uk,Maldon,http://www.maldon.gov.uk,,,2013-02-26,fhrs_5_en-GB,5,,FHRS,0
24144,Prances Cottage,Great Totham Road,Wickham Bishops,Witham,Maldon & East Essex District Scout Council,Other catering premises,7841,,,54102,,,51.77762100000000,12190/2005/2/000,117,environmentservices.request@maldon.gov.uk,Maldon,http://www.maldon.gov.uk,0.67573700000000,CM8 3NP,2013-07-29,fhrs_exempt_en-GB,Exempt,,FHRS,
24145,Maldon Town Football Ground & Sport,Park Drive,Maldon,Essex,Maldon And Tiptree Football Club,Other catering premises,7841,10,,20568,10,,51.72316500000000,06150/4000/0/002,117,environmentservices.request@maldon.gov.uk,Maldon,http://www.maldon.gov.uk,0.68915700000000,CM9 5JQ,2014-03-14,fhrs_3_en-GB,3,,FHRS,5
24146,Butt Lane,Maldon,Essex,,Maldon Baptist Church,Other catering premises,7841,10,,565213,0,,51.73149600000000,13/00040/CPREM,117,environmentservices.request@maldon.gov.uk,Maldon,http://www.maldon.gov.uk,0.68197600000000,CM9 5HD,2013-06-27,fhrs_4_en-GB,4,,FHRS,5
24147,The Promenade Park,Park Drive,Maldon,Essex,Maldon Bowls Club,Other catering premises,7841,,,20564,,,51.72521400000000,06150/2003/0/000,117,environmentservices.request@maldon.gov.uk,Maldon,http://www.maldon.gov.uk,0.68768600000000,CM9 5JG,2015-01-21,fhrs_exempt_en-GB,Exempt,,FHRS,
24148,Constitutional Club,17 Fambridge Road,Maldon,Essex,Maldon Constitutional Club,Other catering premises,7841,0,,16873,0,,51.73072600000000,05350/0017/0/000,117,environmentservices.request@maldon.gov.uk,Maldon,http://www.maldon.gov.uk,0.67509400000000,CM9 6AA,2013-09-27,fhrs_5_en-GB,5,,FHRS,0
24149,Maldon Court Preparatory School,10 Silver Street,Maldon,Essex,Maldon Court Preparatory School,School/college/university,7845,0,,20724,0,,51.73223800000000,06370/0010/0/000,117,environmentservices.request@maldon.gov.uk,Maldon,http://www.maldon.gov.uk,0.67625500000000,CM9 4QE,2014-10-07,fhrs_5_en-GB,5,,FHRS,5
24150,Unit B And C,Wenlock Way,Maldon,Essex,Maldon Delicatessen,Restaurant/Cafe/Canteen,1,5,,10055,0,,51.73138500000000,04/00115/CPREM,117,environmentservices.request@maldon.gov.uk,Maldon,http://www.maldon.gov.uk,0.68053600000000,CM9 5AD,2013-07-24,fhrs_5_en-GB,5,,FHRS,5
24151,102D High Street,Maldon,Essex,,Maldon Discount Limited,Retailers - other,4613,0,,726515,0,,51.73089300000000,14/00083/CPREM,117,environmentservices.request@maldon.gov.uk,Maldon,http://www.maldon.gov.uk,0.68039100000000,CM9 5ET,2014-12-02,fhrs_5_en-GB,5,,FHRS,0
24152,Elim Pentecostal Church,Wantz Road,Maldon,Essex,Maldon Elim Church,Other catering premises,7841,0,,429046,0,,51.72855200000000,07/00019/CPREM,117,environmentservices.request@maldon.gov.uk,Maldon,http://www.maldon.gov.uk,0.68210600000000,CM9 5DB,2012-11-23,fhrs_5_en-GB,5,,FHRS,0
24153,19A High Street,Maldon,Essex,,Maldon Express,Retailers - supermarkets/hypermarkets,7840,0,,565209,0,,51.73164800000000,13/00033/CPREM,117,environmentservices.request@maldon.gov.uk,Maldon,http://www.maldon.gov.uk,0.67610500000000,CM9 5PE,2013-06-13,fhrs_5_en-GB,5,,FHRS,0
24154,Fairfield House,33 Fambridge Road,Maldon,Essex,Maldon Housing Association Limited,Other catering premises,7841,,,16874,,,51.72734700000000,05350/0033/2/000,117,environmentservices.request@maldon.gov.uk,Maldon,http://www.maldon.gov.uk,0.67656000000000,CM9 6AD,2014-08-08,fhrs_exempt_en-GB,Exempt,,FHRS,
24155,169 High Street,Maldon,Essex,,Maldon King Kebab,Takeaway/sandwich shop,7844,5,,499823,0,,51.73026700000000,12/00079/CPREM,117,environmentservices.request@maldon.gov.uk,Maldon,http://www.maldon.gov.uk,0.68298900000000,CM9 5BS,2014-11-04,fhrs_5_en-GB,5,,FHRS,0
24156,Maldon Little Ship Club,The Hythe,Maldon,Essex,Maldon Little Ship Club,Other catering premises,7841,10,,537479,0,,51.72949900000000,06560/2003/2/000,117,environmentservices.request@maldon.gov.uk,Maldon,http://www.maldon.gov.uk,0.68788200000000,CM9 5HN,2013-04-18,fhrs_4_en-GB,4,,FHRS,0
24157,The Lodge,Lodge Road,Maldon,Essex,Maldon Lodge Care Home,Hospitals/Childcare/Caring Premises,5,5,,17257,0,,51.73309100000000,05770/4000/0/000,117,environmentservices.request@maldon.gov.uk,Maldon,http://www.maldon.gov.uk,0.67077300000000,CM9 6HW,2013-11-25,fhrs_5_en-GB,5,,FHRS,0
24158,136 High Street,Maldon,Essex,,Maldon Pie And Mash,Restaurant/Cafe/Canteen,1,5,,349633,0,,51.72960700000000,12/00021/CPREM,117,environmentservices.request@maldon.gov.uk,Maldon,http://www.maldon.gov.uk,0.68393500000000,CM9 5BX,2015-01-19,fhrs_2_en-GB,2,,FHRS,15
24159,Cromwell Yard,Cromwell Lane,Maldon,Essex,Maldon Smokehouse,Manufacturers/packers,7839,0,,689269,0,,51.73401800000000,14/00048/CPREM,117,environmentservices.request@maldon.gov.uk,Maldon,http://www.maldon.gov.uk,0.67627400000000,CM9 4LB,2014-07-31,fhrs_5_en-GB,5,,FHRS,0
24160,191 - 193 High Street,Maldon,Essex,,Maldon Tandoori,Restaurant/Cafe/Canteen,1,0,,17111,0,,51.74060400000000,05540/0191/0/000,117,environmentservices.request@maldon.gov.uk,Maldon,http://www.maldon.gov.uk,0.73636800000000,CM9 7BS,2012-10-25,fhrs_5_en-GB,5,,FHRS,0
24161,Market Hill,Maldon,Essex,,Maldon United Reformed Church,Other catering premises,7841,0,,429054,0,,51.73387400000000,07/00082/CPREM,117,environmentservices.request@maldon.gov.uk,Maldon,http://www.maldon.gov.uk,0.67825000000000,CM9 4QA,2012-10-29,fhrs_5_en-GB,5,,FHRS,0
24162,The Promenade Park,Park Drive,Maldon,Essex,Maldon Yacht Club,Other catering premises,7841,,,20571,,,51.72336600000000,06150/4002/0/000,117,environmentservices.request@maldon.gov.uk,Maldon,http://www.maldon.gov.uk,0.69021200000000,CM9 5UR,2008-05-12,fhrs_exempt_en-GB,Exempt,,FHRS,
24163,8 High Street,Maldon,Essex,,Malones Diner,Restaurant/Cafe/Canteen,1,10,,17079,0,,51.73138200000000,05540/0008/0/001,117,environmentservices.request@maldon.gov.uk,Maldon,http://www.maldon.gov.uk,0.67553900000000,CM9 5PJ,2013-10-24,fhrs_4_en-GB,4,,FHRS,5
24164,Maltsters Arms,6 Hall Road,Heybridge,Maldon,Maltsters Arms,Pub/bar/nightclub,7843,5,,24440,5,,51.73944800000000,07730/4000/0/005,117,environmentservices.request@maldon.gov.uk,Maldon,http://www.maldon.gov.uk,0.68777800000000,CM9 4NJ,2012-06-19,fhrs_5_en-GB,5,,FHRS,5
24165,Mangapps Railway Museum,Mangapp Chase,Burnham On Crouch,Essex,Mangapps Railway Museum,Restaurant/Cafe/Canteen,1,,,13434,,,51.64309400000000,04080/4000/0/000,117,environmentservices.request@maldon.gov.uk,Maldon,http://www.maldon.gov.uk,0.81017600000000,CM0 8QQ,2014-08-07,fhrs_exempt_en-GB,Exempt,,FHRS,
24166,Burnham Road,Althorne,Chelmsford,Essex,Mansion House Residential Home,Hospitals/Childcare/Caring Premises,5,0,,906,5,,51.65569500000000,00050/2085/2/000,117,environmentservices.request@maldon.gov.uk,Maldon,http://www.maldon.gov.uk,0.77006500000000,CM3 6DR,2014-01-22,fhrs_5_en-GB,5,,FHRS,0
24167,Brook Farm,Marsh Road,Burnham on Crouch,Essex,Maravac Meats,Manufacturers/packers,7839,5,,13449,0,,51.63725200000000,04100/4000/0/002,117,environmentservices.request@maldon.gov.uk,Maldon,http://www.maldon.gov.uk,0.83023800000000,CM0 8NA,2013-09-04,fhrs_5_en-GB,5,,FHRS,5
24168,Stansgate Road,Steeple,Southminster,Essex,Marconi Sailing Club,Other catering premises,7841,5,,429047,0,,51.70619400000000,07/00024/CPREM,117,environmentservices.request@maldon.gov.uk,Maldon,http://www.maldon.gov.uk,0.80640000000000,CM0 7LQ,2013-05-08,fhrs_5_en-GB,5,,FHRS,5
24169,87 Washington Road,Maldon,Essex,,Marias Cafe,Restaurant/Cafe/Canteen,1,0,,590938,0,,51.72413700000000,13/00059/CPREM,117,environmentservices.request@maldon.gov.uk,Maldon,http://www.maldon.gov.uk,0.67024500000000,CM9 6JE,2013-10-02,fhrs_5_en-GB,5,,FHRS,0
24170,,,,,Marions Cakes,Other catering premises,7841,0,,658919,0,,,14/00024/CPREM,117,environmentservices.request@maldon.gov.uk,Maldon,http://www.maldon.gov.uk,,,2014-04-29,fhrs_5_en-GB,5,,FHRS,0
24171,40 - 42 High Street,Maldon,Essex,,Marks And Spencer Simply Food,Retailers - supermarkets/hypermarkets,7840,0,,429067,0,,51.73133500000000,09/00027/CPREM,117,environmentservices.request@maldon.gov.uk,Maldon,http://www.maldon.gov.uk,0.67718700000000,CM9 5PN,2012-06-13,fhrs_5_en-GB,5,,FHRS,0
24172,6-8,Station Road,Burnham-On-Crouch,Essex,Martins,Retailers - other,4613,0,,18284,5,,51.62828400000000,06/00098/CPREM,117,environmentservices.request@maldon.gov.uk,Maldon,http://www.maldon.gov.uk,0.81459300000000,CM0 8HQ,2013-11-07,fhrs_5_en-GB,5,,FHRS,5
24173,3 Cromwell Hill,Maldon,Essex,,Masonic Hall,Other catering premises,7841,,,16623,,,51.73311400000000,05130/2004/2/000,117,environmentservices.request@maldon.gov.uk,Maldon,http://www.maldon.gov.uk,0.67727800000000,CM9 4QD,2010-07-22,fhrs_exempt_en-GB,Exempt,,FHRS,
24174,Masonic Hall,East Street,Tollesbury,Maldon,Masonic Hall,Other catering premises,7841,,,28218,,,51.75834100000000,08740/4000/0/000,117,environmentservices.request@maldon.gov.uk,Maldon,http://www.maldon.gov.uk,0.83702400000000,CM9 8QE,2009-10-28,fhrs_exempt_en-GB,Exempt,,FHRS,
24175,The Control Tower,Bradwell Airfield,Bradwell-On-Sea,Southminster,Matthew Anthony,Mobile caterer,7846,0,,681156,0,,51.73189900000000,14/00042/CPREM,117,environmentservices.request@maldon.gov.uk,Maldon,http://www.maldon.gov.uk,0.90148700000000,CM0 7QF,2014-07-07,fhrs_5_en-GB,5,,FHRS,0
24176,Market Stall,Butt Lane,Maldon,Essex,Maureen Griggs,Retailers - other,4613,5,,17730,5,,51.73149600000000,06/00025/CPREM,117,environmentservices.request@maldon.gov.uk,Maldon,http://www.maldon.gov.uk,0.68197600000000,CM9 5HD,2013-02-28,fhrs_5_en-GB,5,,FHRS,5
24177,Maylandsea Bay Yacht Club,The Esplanade,Mayland,Chelmsford,Maylandsea Bay Sailing Club,Other catering premises,7841,,,5216,,,51.68951700000000,01640/4000/0/000,117,environmentservices.request@maldon.gov.uk,Maldon,http://www.maldon.gov.uk,0.75486700000000,CM3 6AL,2010-08-20,fhrs_exempt_en-GB,Exempt,,FHRS,
24178,Katonia Avenue,Mayland,Southminster,Essex,Maylandsea Community Primary School,School/college/university,7845,0,,7474,0,,51.68510100000000,03/00036/CPREM,117,environmentservices.request@maldon.gov.uk,Maldon,http://www.maldon.gov.uk,0.75872200000000,CM3 6AD,2013-09-30,fhrs_5_en-GB,5,,FHRS,5
24179,Maypole Road,Great Totham,Maldon,CM8 3LX,Maypole Pet And Garden Centre,Retailers - other,4613,,,359051,,,,12/00026/CPREM,117,environmentservices.request@maldon.gov.uk,Maldon,http://www.maldon.gov.uk,,,2012-04-24,fhrs_exempt_en-GB,Exempt,,FHRS,
24180,5 High Street,Southminster,Essex,,McColl,Retailers - other,4613,5,,18074,5,,51.66240000000000,06/00066/CPREM,117,environmentservices.request@maldon.gov.uk,Maldon,http://www.maldon.gov.uk,0.82869600000000,CM0 7AA,2012-08-21,fhrs_5_en-GB,5,,FHRS,5
24181,2 High Street,Tollesbury,Maldon,Essex,McColls,Retailers - other,4613,5,,421260,5,,51.75847500000000,07/00079/CPREM,117,environmentservices.request@maldon.gov.uk,Maldon,http://www.maldon.gov.uk,0.83184400000000,CM9 8RG,2012-11-27,fhrs_5_en-GB,5,,FHRS,5
24182,Fullbridge,Maldon,Essex,,Mcdonalds,Takeaway/sandwich shop,7844,0,,16993,0,,51.73499298095703,05440/4003/0/000,117,environmentservices.request@maldon.gov.uk,Maldon,http://www.maldon.gov.uk,0.67886614799500,CM9 4LE,2014-03-25,fhrs_5_en-GB,5,,FHRS,0
24183,12E West Station Yard,Spital Road,Maldon,Essex,Meatline Butchers Ltd,Retailers - other,4613,0,,20764,0,,51.72359300000000,06410/0012/E/000,117,environmentservices.request@maldon.gov.uk,Maldon,http://www.maldon.gov.uk,0.66568100000000,CM9 6TW,2013-08-14,fhrs_5_en-GB,5,,FHRS,0
24184,32 The Street,Heybridge,Maldon,Essex,Mei Kwong,Takeaway/sandwich shop,7844,10,,20905,0,,51.73998000000000,06570/0032/0/000,117,environmentservices.request@maldon.gov.uk,Maldon,http://www.maldon.gov.uk,0.68695500000000,CM9 4NB,2015-01-15,fhrs_4_en-GB,4,,FHRS,0
24185,1 North Street,Southminster,Essex,,Mellows,Restaurant/Cafe/Canteen,1,0,,41571,0,,51.66307800000000,10300/0001/0/000,117,environmentservices.request@maldon.gov.uk,Maldon,http://www.maldon.gov.uk,0.83079200000000,CM0 7DF,2014-03-06,fhrs_5_en-GB,5,,FHRS,0
24186,The Memorial Hall,High Street,Southminster,Essex,Memorial Hall,Other catering premises,7841,10,,535851,5,,51.66284000000000,13/00020/CPREM,117,environmentservices.request@maldon.gov.uk,Maldon,http://www.maldon.gov.uk,0.82684300000000,CM0 7AY,2014-05-06,fhrs_4_en-GB,4,,FHRS,5
24187,,,,,Mike's Chippy,Mobile caterer,7846,5,,42179,0,,,10410/0012/0/000,117,environmentservices.request@maldon.gov.uk,Maldon,http://www.maldon.gov.uk,,,2013-12-03,fhrs_5_en-GB,5,,FHRS,5
24188,Millbeach Public House,Goldhanger Road,Heybridge,Maldon,Mill Beach,Pub/bar/nightclub,7843,10,,24403,10,,51.73527800000000,07700/2026/2/001,117,environmentservices.request@maldon.gov.uk,Maldon,http://www.maldon.gov.uk,0.72433600000000,CM9 4RF,2013-09-11,fhrs_2_en-GB,2,,FHRS,15
24189,Goldhanger Road,Heybridge,Maldon,Essex,Mill Beach Seaside Resort Ltd,Other catering premises,7841,0,,24408,0,,51.73527800000000,07700/4000/0/005,117,environmentservices.request@maldon.gov.uk,Maldon,http://www.maldon.gov.uk,0.72433600000000,CM9 4RF,2014-09-25,fhrs_5_en-GB,5,,FHRS,0
24190,Mill House,Maldon Road,Langford,Maldon,Mill House,Hotel/bed & breakfast/guest house,7842,5,,27911,10,,51.74891300000000,08310/2008/2/000,117,environmentservices.request@maldon.gov.uk,Maldon,http://www.maldon.gov.uk,0.66195600000000,CM9 4SS,2014-09-23,fhrs_4_en-GB,4,,FHRS,5
24191,Round Bush Farm,Burnham Road,Mundon,Maldon,Minerva Centre,Other catering premises,7841,5,,359047,0,,51.68323800000000,08/00023/CPREM,117,environmentservices.request@maldon.gov.uk,Maldon,http://www.maldon.gov.uk,0.69212900000000,CM9 6NP,2014-04-24,fhrs_5_en-GB,5,,FHRS,0
24192,,,,,Miss Stonehams Preserves,Mobile caterer,7846,5,,18047,5,,,06/00062/CPREM,117,environmentservices.request@maldon.gov.uk,Maldon,http://www.maldon.gov.uk,,,2013-05-08,fhrs_5_en-GB,5,,FHRS,0
24193,137 High Street,Maldon,Essex,,Moonlight Balti Express,Takeaway/sandwich shop,7844,5,,17105,5,,51.74060400000000,05540/0137/0/000,117,environmentservices.request@maldon.gov.uk,Maldon,http://www.maldon.gov.uk,0.73636800000000,CM9 7BS,2015-01-22,fhrs_5_en-GB,5,,FHRS,5
24194,Moriartys,43 High Street,Burnham-On-Crouch,Essex,Moriartys Fish Bar,Takeaway/sandwich shop,7844,10,,705611,0,,51.62528700000000,14/00061/CPREM,117,environmentservices.request@maldon.gov.uk,Maldon,http://www.maldon.gov.uk,0.81690700000000,CM0 8AG,2014-09-19,fhrs_4_en-GB,4,,FHRS,10
24195,43 - 45 High Street,Maldon,Essex,,Morrisons,Retailers - supermarkets/hypermarkets,7840,0,,713530,0,,51.73158400000000,14/00033/CPREM,117,environmentservices.request@maldon.gov.uk,Maldon,http://www.maldon.gov.uk,0.67772300000000,CM9 5PF,2014-10-21,fhrs_5_en-GB,5,,FHRS,5
24196,Wycke Hill,Maldon,Essex,,Morrisons,Restaurant/Cafe/Canteen,1,5,,14908,5,,51.72026000000000,05/00068/CPREM,117,environmentservices.request@maldon.gov.uk,Maldon,http://www.maldon.gov.uk,0.66432600000000,CM9 6GG,2013-08-02,fhrs_5_en-GB,5,,FHRS,5
24197,9A High Street,Maldon,Essex,,Mr Feelgood,Takeaway/sandwich shop,7844,0,,359048,0,,51.73157600000000,11/00064/CPREM,117,environmentservices.request@maldon.gov.uk,Maldon,http://www.maldon.gov.uk,0.67530400000000,CM9 5PB,2013-06-13,fhrs_5_en-GB,5,,FHRS,0
24198,Mrs-Sippy's Coffee Shop,Unit 12,Mildmay House,Foundry Lane,Mrs - Sippy's Coffee Shop,Restaurant/Cafe/Canteen,1,5,,29424,0,,51.63308600000000,09/00081/CPREM,117,environmentservices.request@maldon.gov.uk,Maldon,http://www.maldon.gov.uk,0.81312700000000,CM0 8SH,2013-11-12,fhrs_5_en-GB,5,,FHRS,5
24199,,,,,Mrs Alison Barrett,Other catering premises,7841,5,,499796,5,,,07/00042/CPREM,117,environmentservices.request@maldon.gov.uk,Maldon,http://www.maldon.gov.uk,,,2013-08-01,fhrs_5_en-GB,5,,FHRS,0
24200,,,,,Mrs Keefe's Cakes,Other catering premises,7841,5,,209649,0,,,12/00009/CPREM,117,environmentservices.request@maldon.gov.uk,Maldon,http://www.maldon.gov.uk,,,2014-08-19,fhrs_5_en-GB,5,,FHRS,0
24201,,,,,Mrs Maureen Raven,Other catering premises,7841,0,,489688,0,,,08/00022/CPREM,117,environmentservices.request@maldon.gov.uk,Maldon,http://www.maldon.gov.uk,,,2014-08-07,fhrs_5_en-GB,5,,FHRS,5
24202,63B High Street,Maldon,Essex,,Mrs Salisbury's Famous Tea Rooms,Restaurant/Cafe/Canteen,1,5,,658922,0,,51.73130100000000,14/00027/CPREM,117,environmentservices.request@maldon.gov.uk,Maldon,http://www.maldon.gov.uk,0.68024100000000,CM9 5EP,2014-04-28,fhrs_5_en-GB,5,,FHRS,0
24203,,,,,Mrs Williams,Other catering premises,7841,,,499810,,,,10/00070/CPREM,117,environmentservices.request@maldon.gov.uk,Maldon,http://www.maldon.gov.uk,,,2013-10-02,fhrs_exempt_en-GB,Exempt,,FHRS,
24204,Rivendell Village Limited,Rivendell,White Horse Lane,Maldon,Nannas,Other catering premises,7841,0,,590937,0,,51.73100600000000,13/00041/CPREM,117,environmentservices.request@maldon.gov.uk,Maldon,http://www.maldon.gov.uk,0.67624100000000,CM9 5QP,2013-09-18,fhrs_5_en-GB,5,,FHRS,0
24205,Kiosk 5,The Promenade Park,Park Drive,Maldon,Naughty But Nice,Takeaway/sandwich shop,7844,0,,570385,0,,51.72330200000000,13/00038/CPREM,117,environmentservices.request@maldon.gov.uk,Maldon,http://www.maldon.gov.uk,0.68907900000000,CM9 5JQ,2013-07-10,fhrs_5_en-GB,5,,FHRS,0
24206,97 Wood Road,Heybridge,Maldon,Essex,Neptune Fish And Chips,Takeaway/sandwich shop,7844,0,,27720,0,,51.74467600000000,08180/0097/0/000,117,environmentservices.request@maldon.gov.uk,Maldon,http://www.maldon.gov.uk,0.69081200000000,CM9 4AS,2013-11-27,fhrs_5_en-GB,5,,FHRS,0
24207,New Welcome Sailor,74 Station Road,Burnham on Crouch,Essex,New Welcome Sailor,Pub/bar/nightclub,7843,0,,13873,0,,51.63003700000000,04500/0074/0/000,117,environmentservices.request@maldon.gov.uk,Maldon,http://www.maldon.gov.uk,0.81535200000000,CM0 8HF,2014-01-06,fhrs_5_en-GB,5,,FHRS,0
24208,Unit 8,Bentalls Shopping Centre,Colchester Road,Heybridge,New Wok Inn,Takeaway/sandwich shop,7844,5,,24268,0,,51.74050800000000,07550/2027/2/000,117,environmentservices.request@maldon.gov.uk,Maldon,http://www.maldon.gov.uk,0.68901400000000,CM9 4GD,2014-03-31,fhrs_5_en-GB,5,,FHRS,0
24209,5-7 North Street,Southminster,Essex,,Nisa Local At Right Price,Retailers - other,4613,5,,41575,0,,51.66307800000000,10300/0005/0/000,117,environmentservices.request@maldon.gov.uk,Maldon,http://www.maldon.gov.uk,0.83079200000000,CM0 7DF,2014-08-21,fhrs_5_en-GB,5,,FHRS,5
24210,78 Imperial Avenue,Mayland,Chelmsford,Essex,Nisa Local Freshway,Retailers - other,4613,5,,429063,5,,51.68692600000000,09/00011/CPREM,117,environmentservices.request@maldon.gov.uk,Maldon,http://www.maldon.gov.uk,0.75453600000000,CM3 6AH,2013-10-02,fhrs_5_en-GB,5,,FHRS,0
24211,North Fambridge Yacht Station,Ferry Road,North Fambridge,Chelmsford,North Fambridge Yacht Club,Other catering premises,7841,0,,590939,0,,51.63875600000000,13/00067/CPREM,117,environmentservices.request@maldon.gov.uk,Maldon,http://www.maldon.gov.uk,0.67644100000000,CM3 6LR,2013-10-07,fhrs_5_en-GB,5,,FHRS,0
24212,35 High Street,Maldon,Essex,,Oakhouse Bar Cafe,Pub/bar/nightclub,7843,5,,17085,0,,51.73158400000000,05540/0035/0/002,117,environmentservices.request@maldon.gov.uk,Maldon,http://www.maldon.gov.uk,0.67772300000000,CM9 5PF,2014-09-02,fhrs_5_en-GB,5,,FHRS,5
24213,Sea Pearl Restaurant,155 - 157 High Street,Maldon,Essex,Ocean Chinese Restaurant,Restaurant/Cafe/Canteen,1,0,,429056,0,,51.73026700000000,08/00016/CPREM,117,environmentservices.request@maldon.gov.uk,Maldon,http://www.maldon.gov.uk,0.68298900000000,CM9 5BS,2014-04-04,fhrs_4_en-GB,4,,FHRS,10
24214,The Old Ironworks,Fullbridge,Maldon,Essex,Old Ironworks Gym,Restaurant/Cafe/Canteen,1,5,,429092,0,,51.74060400000000,11/00069/CPREM,117,environmentservices.request@maldon.gov.uk,Maldon,http://www.maldon.gov.uk,0.73636800000000,CM9 4LP,2013-05-30,fhrs_5_en-GB,5,,FHRS,0
24215,,,,,Old Police House,Hotel/bed & breakfast/guest house,7842,0,,21382,0,,,07/00015/CPREM,117,environmentservices.request@maldon.gov.uk,Maldon,http://www.maldon.gov.uk,,,2014-08-12,fhrs_5_en-GB,5,,FHRS,0
24216,40 High Street,Burnham on Crouch,Essex,,One Stop,Retailers - other,4613,5,,9316,5,,51.62551000000000,03980/0040/0/000,117,environmentservices.request@maldon.gov.uk,Maldon,http://www.maldon.gov.uk,0.81923300000000,CM0 8AA,2014-03-21,fhrs_5_en-GB,5,,FHRS,5
24217,6 The Street,Wickham Bishops,Witham,Essex,One Stop,Retailers - supermarkets/hypermarkets,7840,5,,54819,5,,51.77889600000000,12360/0006/0/001,117,environmentservices.request@maldon.gov.uk,Maldon,http://www.maldon.gov.uk,0.67384100000000,CM8 3NN,2014-10-13,fhrs_5_en-GB,5,,FHRS,5
24218,4 Station Road,Burnham on Crouch,Essex,,Oriental House,Takeaway/sandwich shop,7844,10,,13871,5,,51.63260200000000,04500/0004/0/000,117,environmentservices.request@maldon.gov.uk,Maldon,http://www.maldon.gov.uk,0.81529400000000,CM0 8BG,2014-01-21,fhrs_4_en-GB,4,,FHRS,5
24219,Southminster Road,Burnham On Crouch,Essex,,Ormiston Rivers Academy,School/college/university,7845,0,,13787,0,,51.63870700000000,04400/4000/0/000,117,environmentservices.request@maldon.gov.uk,Maldon,http://www.maldon.gov.uk,0.81386500000000,CM0 8QB,2013-11-07,fhrs_5_en-GB,5,,FHRS,0
24220,The Chase,Osea Island,Maldon,Essex,Osea Island Resort,Hotel/bed & breakfast/guest house,7842,0,,552234,0,,51.72186000000000,12/00050/CPREM,117,environmentservices.request@maldon.gov.uk,Maldon,http://www.maldon.gov.uk,0.77121300000000,CM9 8UH,2014-09-01,fhrs_5_en-GB,5,,FHRS,0
24221,87A Washington Road,Maldon,Essex,,Our Plaice,Takeaway/sandwich shop,7844,0,,429060,5,,51.72413700000000,08/00073/CPREM,117,environmentservices.request@maldon.gov.uk,Maldon,http://www.maldon.gov.uk,0.67024500000000,CM9 6JE,2013-03-28,fhrs_5_en-GB,5,,FHRS,0
24222,Park Drive,Maldon,Essex,,Park Drive Squash And Fitness Club,Other catering premises,7841,,,20566,,,51.72336600000000,06150/4000/0/001,117,environmentservices.request@maldon.gov.uk,Maldon,http://www.maldon.gov.uk,0.69021200000000,CM9 5UR,2012-11-26,fhrs_exempt_en-GB,Exempt,,FHRS,
24223,Creeksea Place Farm,Ferry Road,Burnham-On-Crouch,Essex,Parlour Cafe,Restaurant/Cafe/Canteen,1,5,,576116,5,,51.63173500000000,13/00044/CPREM,117,environmentservices.request@maldon.gov.uk,Maldon,http://www.maldon.gov.uk,0.79437200000000,CM0 8PJ,2013-07-18,fhrs_5_en-GB,5,,FHRS,0
24224,Love Partying Limited,Unit 12,Mayland Industrial Estate,Steeple Road,Party Bag World / Love Partying Limited,Manufacturers/packers,7839,0,,705609,0,,51.68075600000000,14/00059/CPREM,117,environmentservices.request@maldon.gov.uk,Maldon,http://www.maldon.gov.uk,0.77097300000000,CM3 6AX,2014-09-24,fhrs_5_en-GB,5,,FHRS,5
24225,,,,,Patisserie Alfresco,Other catering premises,7841,0,,499817,0,,,11/00060/CPREM,117,environmentservices.request@maldon.gov.uk,Maldon,http://www.maldon.gov.uk,,,2013-07-16,fhrs_5_en-GB,5,,FHRS,0
24226,Unit 4,Bentalls Shopping Centre,Colchester Road,Heybridge,Paul's Plaice,Takeaway/sandwich shop,7844,5,,21456,0,,51.74050800000000,07/00025/CPREM,117,environmentservices.request@maldon.gov.uk,Maldon,http://www.maldon.gov.uk,0.68901400000000,CM9 4GD,2013-03-13,fhrs_5_en-GB,5,,FHRS,0
24227,Bentalls Shopping Centre,Colchester Road,Heybridge,Maldon,Pavilion Cafe Bar,Restaurant/Cafe/Canteen,1,0,,323775,0,,51.74050800000000,07/00044/CPREM,117,environmentservices.request@maldon.gov.uk,Maldon,http://www.maldon.gov.uk,0.68901400000000,CM9 4GD,2013-07-30,fhrs_5_en-GB,5,,FHRS,0
24228,,,,,Peckish,Other catering premises,7841,0,,626164,5,,,14/00002/CPREM,117,environmentservices.request@maldon.gov.uk,Maldon,http://www.maldon.gov.uk,,,2014-01-08,fhrs_5_en-GB,5,,FHRS,5
24229,Kiosk 6,The Promenade Park,Park Drive,Maldon,Picnic In The Park,Takeaway/sandwich shop,7844,5,,570384,0,,51.72330200000000,13/00037/CPREM,117,environmentservices.request@maldon.gov.uk,Maldon,http://www.maldon.gov.uk,0.68907900000000,CM9 5JQ,2013-07-10,fhrs_5_en-GB,5,,FHRS,0
24230,,,,,Picture A Cake,Other catering premises,7841,5,,499822,0,,,12/00043/CPREM,117,environmentservices.request@maldon.gov.uk,Maldon,http://www.maldon.gov.uk,,,2012-06-01,fhrs_5_en-GB,5,,FHRS,0
24231,Pink Face Limited,Unit 4,Great Hayes Business Park,Lower Burnham Road,Pink Face,Other catering premises,7841,0,,464809,0,,51.65416800000000,12/00075/CPREM,117,environmentservices.request@maldon.gov.uk,Maldon,http://www.maldon.gov.uk,0.65038400000000,CM3 6SQ,2012-10-16,fhrs_5_en-GB,5,,FHRS,0
24232,,,,,Pink Face Studio,Mobile caterer,7846,5,,499809,5,,,10/00066/CPREM,117,environmentservices.request@maldon.gov.uk,Maldon,http://www.maldon.gov.uk,,,2013-10-02,fhrs_5_en-GB,5,,FHRS,0
24233,Unit F,Mildmay Industrial Estate,Foundry Lane,Burnham-On-Crouch,Pizza Island,Takeaway/sandwich shop,7844,0,,209643,5,,51.63270100000000,08/00067/CPREM,117,environmentservices.request@maldon.gov.uk,Maldon,http://www.maldon.gov.uk,0.81379700000000,CM0 8SH,2014-02-18,fhrs_5_en-GB,5,,FHRS,5
24234,5 King Georges Place,High Street,Maldon,Essex,Pizza Time,Takeaway/sandwich shop,7844,10,,464812,10,,51.73024800000000,12/00080/CPREM,117,environmentservices.request@maldon.gov.uk,Maldon,http://www.maldon.gov.uk,0.68226400000000,CM9 5BZ,2014-06-10,fhrs_3_en-GB,3,,FHRS,5
24235,169 Station Road,Burnham on Crouch,Essex,,Polash Restaurant,Restaurant/Cafe/Canteen,1,5,,13875,0,,51.62689400000000,04500/0169/0/000,117,environmentservices.request@maldon.gov.uk,Maldon,http://www.maldon.gov.uk,0.81479600000000,CM0 8HJ,2014-02-18,fhrs_5_en-GB,5,,FHRS,5
24236,,,,,Pop Up Pizza,Mobile caterer,7846,5,,658921,0,,,14/00026/CPREM,117,environmentservices.request@maldon.gov.uk,Maldon,http://www.maldon.gov.uk,,,2014-04-16,fhrs_5_en-GB,5,,FHRS,0
24237,,,,,Posh,Other catering premises,7841,5,,608463,5,,,13/00077/CPREM,117,environmentservices.request@maldon.gov.uk,Maldon,http://www.maldon.gov.uk,,,2013-10-25,fhrs_5_en-GB,5,,FHRS,5
24238,67 High Street,Maldon,Essex,,Poundstretcher Ltd,Retailers - other,4613,,,17091,,,51.73126500000000,05540/0067/0/000,117,environmentservices.request@maldon.gov.uk,Maldon,http://www.maldon.gov.uk,0.68028200000000,CM9 5EP,2014-10-14,fhrs_exempt_en-GB,Exempt,,FHRS,
24239,69-71 High Street,Maldon,Essex,,Prezzo,Restaurant/Cafe/Canteen,1,0,,17092,5,,51.73126500000000,05540/0069/0/000,117,environmentservices.request@maldon.gov.uk,Maldon,http://www.maldon.gov.uk,0.68028200000000,CM9 5EP,2015-01-07,fhrs_5_en-GB,5,,FHRS,5
24240,The Prince Of Wales Public House,Prince Of Wales Road,Great Totham,Maldon,Prince Of Wales,Pub/bar/nightclub,7843,5,,478414,0,,51.77044400000000,12/00081/CPREM,117,environmentservices.request@maldon.gov.uk,Maldon,http://www.maldon.gov.uk,0.68480700000000,CM9 8PX,2014-09-01,fhrs_5_en-GB,5,,FHRS,5
24241,Woodham Road,Stow Maries,Chelmsford,Essex,Prince Of Wales,Pub/bar/nightclub,7843,0,,8599,0,,51.66291700000000,03070/4000/0/000,117,environmentservices.request@maldon.gov.uk,Maldon,http://www.maldon.gov.uk,0.64567400000000,CM3 6SA,2013-03-28,fhrs_5_en-GB,5,,FHRS,5
24242,Purleigh Cp School,Pump Lane,Purleigh,Chelmsford,Purleigh County Primary School,School/college/university,7845,0,,5628,0,,51.68876400000000,01970/4000/0/000,117,environmentservices.request@maldon.gov.uk,Maldon,http://www.maldon.gov.uk,0.65681800000000,CM3 6PJ,2013-11-13,fhrs_5_en-GB,5,,FHRS,0
24243,Purleigh Post Office,Church Hill,Purleigh,Chelmsford,Purleigh Post Office And Stores,Retailers - other,4613,5,,5477,5,,51.68703900000000,01880/2017/2/000,117,environmentservices.request@maldon.gov.uk,Maldon,http://www.maldon.gov.uk,0.66073900000000,CM3 6QH,2014-09-08,fhrs_5_en-GB,5,,FHRS,5
24244,The Quay,Burnham-On-Crouch,Essex,,Quayside,Restaurant/Cafe/Canteen,1,5,,14001,0,,51.62460500000000,04580/4000/0/009,117,environmentservices.request@maldon.gov.uk,Maldon,http://www.maldon.gov.uk,0.81946600000000,CM0 8AT,2014-02-07,fhrs_5_en-GB,5,,FHRS,5
24245,Queen Victoria Public House,The Street,Woodham Walter,Maldon,Queen Victoria,Pub/bar/nightclub,7843,0,,32637,0,,51.73201600000000,09910/2017/2/000,117,environmentservices.request@maldon.gov.uk,Maldon,http://www.maldon.gov.uk,0.61787400000000,CM9 6RF,2013-02-12,fhrs_5_en-GB,5,,FHRS,0
24246,15 North Street,Tolleshunt D'Arcy,Maldon,Essex,Queens Head,Pub/bar/nightclub,7843,10,,32105,5,,51.77373100000000,09260/0015/0/000,117,environmentservices.request@maldon.gov.uk,Maldon,http://www.maldon.gov.uk,0.79644100000000,CM9 8TF,2013-11-06,fhrs_4_en-GB,4,,FHRS,5
24247,26 Providence,Burnham-On-Crouch,Essex,,Queens Head,Pub/bar/nightclub,7843,0,,18404,0,,51.62637300000000,06/00123/CPREM,117,environmentservices.request@maldon.gov.uk,Maldon,http://www.maldon.gov.uk,0.81925700000000,CM0 8JU,2014-01-28,fhrs_5_en-GB,5,,FHRS,0
24248,36 Queen Street,Southminster,Essex,,Queens Head Public House,Pub/bar/nightclub,7843,5,,17772,0,,51.66336100000000,06/00030/CPREM,117,environmentservices.request@maldon.gov.uk,Maldon,http://www.maldon.gov.uk,0.82012200000000,CM0 7BB,2014-03-06,fhrs_5_en-GB,5,,FHRS,0
24249,The Rainbow House,1 Mill Road,Maldon,Essex,Rainbow House,Takeaway/sandwich shop,7844,10,,464804,10,,51.72839200000000,12/00068/CPREM,117,environmentservices.request@maldon.gov.uk,Maldon,http://www.maldon.gov.uk,0.68594900000000,CM9 5HX,2014-10-01,fhrs_3_en-GB,3,,FHRS,10
24250,,,,,Raining Cakes,Other catering premises,7841,0,,46883,0,,,11/00091/CPREM,117,environmentservices.request@maldon.gov.uk,Maldon,http://www.maldon.gov.uk,,,2011-10-03,fhrs_5_en-GB,5,,FHRS,0
24251,Reminder Barge,The Hythe,Maldon,Essex,Reminder Barge,Other catering premises,7841,0,,20899,0,,51.72949700000000,06560/4003/0/000,117,environmentservices.request@maldon.gov.uk,Maldon,http://www.maldon.gov.uk,0.68756400000000,CM9 5HN,2014-01-15,fhrs_5_en-GB,5,,FHRS,0
24252,32 Quest Place,Maldon,Essex,,Request Coffee Shop,Restaurant/Cafe/Canteen,1,0,,323777,0,,51.73092600000000,11/00101/CPREM,117,environmentservices.request@maldon.gov.uk,Maldon,http://www.maldon.gov.uk,0.68252100000000,CM9 5AG,2014-05-09,fhrs_5_en-GB,5,,FHRS,0
24253,28 Steeple Road,Mayland,Chelmsford,Essex,Rickshaw,Restaurant/Cafe/Canteen,1,5,,5137,5,,51.67853300000000,01580/0028/0/000,117,environmentservices.request@maldon.gov.uk,Maldon,http://www.maldon.gov.uk,0.76380600000000,CM3 6BB,2013-11-12,fhrs_4_en-GB,4,,FHRS,10
24254,159 Station Road,Burnham-On-Crouch,Essex,,Rio's Tapas Bar,Restaurant/Cafe/Canteen,1,5,,46717,0,,51.62689400000000,11/00081/CPREM,117,environmentservices.request@maldon.gov.uk,Maldon,http://www.maldon.gov.uk,0.81479600000000,CM0 8HJ,2014-02-20,fhrs_5_en-GB,5,,FHRS,0
24255,Burnham Road,Southminster,Essex,,Rose Inn,Pub/bar/nightclub,7843,5,,17803,5,,51.65372200000000,06/00034/CPREM,117,environmentservices.request@maldon.gov.uk,Maldon,http://www.maldon.gov.uk,0.82190900000000,CM0 7BL,2014-10-24,fhrs_4_en-GB,4,,FHRS,10
24256,Kiosk 8,The Promenade Park,Park Drive,Maldon,Rossis In The Park,Restaurant/Cafe/Canteen,1,0,,429052,0,,51.72330200000000,07/00058/CPREM,117,environmentservices.request@maldon.gov.uk,Maldon,http://www.maldon.gov.uk,0.68907900000000,CM9 5JQ,2013-08-02,fhrs_5_en-GB,5,,FHRS,0
24257,Roundbush Inn,Roundbush Road,Mundon,Maldon,Roundbush Inn,Pub/bar/nightclub,7843,10,,28131,0,,51.68494100000000,08620/4000/0/000,117,environmentservices.request@maldon.gov.uk,Maldon,http://www.maldon.gov.uk,0.68337500000000,CM9 6NN,2013-05-09,fhrs_4_en-GB,4,,FHRS,0
24258,10A - 10C Bentalls Shopping Centre,Colchester Road,Heybridge,Maldon,Rowlands Pharmacy,Retailers - other,4613,,,429082,,,51.74050800000000,11/00003/CPREM,117,environmentservices.request@maldon.gov.uk,Maldon,http://www.maldon.gov.uk,0.68901400000000,CM9 4GD,2014-03-24,fhrs_exempt_en-GB,Exempt,,FHRS,
24259,Royal Burnham Yacht Club,The Quay,Burnham on Crouch,Essex,Royal Burnham Yacht Club,Other catering premises,7841,5,,13997,0,,51.62469300000000,04580/4000/0/004,117,environmentservices.request@maldon.gov.uk,Maldon,http://www.maldon.gov.uk,0.82030900000000,CM0 8AU,2014-04-25,fhrs_5_en-GB,5,,FHRS,5
24260,Royal Corinthian Yacht Club,The Quay,Burnham on Crouch,Essex,Royal Corinthian Yacht Club,Other catering premises,7841,0,,13998,5,,51.62362600000000,04580/4000/0/005,117,environmentservices.request@maldon.gov.uk,Maldon,http://www.maldon.gov.uk,0.82203500000000,CM0 8AX,2014-03-05,fhrs_5_en-GB,5,,FHRS,5
24261,20A High Street,Burnham-On-Crouch,Essex,,Ruam Thai Restaurant,Restaurant/Cafe/Canteen,1,0,,429057,0,,51.62551000000000,08/00046/CPREM,117,environmentservices.request@maldon.gov.uk,Maldon,http://www.maldon.gov.uk,0.81923300000000,CM0 8AA,2012-09-13,fhrs_5_en-GB,5,,FHRS,5
24262,9 South Street,Tolleshunt D'Arcy,Maldon,Essex,Ruby's Indian Cuisine,Restaurant/Cafe/Canteen,1,5,,32839,0,,51.77224800000000,10/00008/CPREM,117,environmentservices.request@maldon.gov.uk,Maldon,http://www.maldon.gov.uk,0.79562400000000,CM9 8TR,2013-11-26,fhrs_5_en-GB,5,,FHRS,0
24263,S B Hydrogen,The Hythe,Maldon,Essex,Sailing Barge Hydrogen,Other catering premises,7841,0,,20898,0,,51.72949700000000,06560/4002/0/000,117,environmentservices.request@maldon.gov.uk,Maldon,http://www.maldon.gov.uk,0.68756400000000,CM9 5HN,2014-06-24,fhrs_5_en-GB,5,,FHRS,5
24264,The Hythe,Maldon,Essex,,Sailing Barge Kitty,Other catering premises,7841,0,,489690,0,,51.72949900000000,09/00070/CPREM,117,environmentservices.request@maldon.gov.uk,Maldon,http://www.maldon.gov.uk,0.68788200000000,CM9 5HN,2014-06-17,fhrs_5_en-GB,5,,FHRS,5
24265,Topsail Charters Limited,S B Thistle,The Hythe,Maldon,Sailing Barge Thistle,Other catering premises,7841,0,,676638,0,,51.72949700000000,14/00037/CPREM,117,environmentservices.request@maldon.gov.uk,Maldon,http://www.maldon.gov.uk,0.68756400000000,CM9 5HN,2014-06-17,fhrs_5_en-GB,5,,FHRS,5
24266,The Old Pump House,6 Head Street,Goldhanger,Maldon,Salty Dogs Tea Rooms,Restaurant/Cafe/Canteen,1,5,,576117,0,,51.74609500000000,13/00046/CPREM,117,environmentservices.request@maldon.gov.uk,Maldon,http://www.maldon.gov.uk,0.75568700000000,CM9 8AY,2013-07-31,fhrs_5_en-GB,5,,FHRS,0
24267,12 Wantz Road,Maldon,Essex,,Salvation Army,Other catering premises,7841,5,,20987,0,,51.72865000000000,06670/0219/2/000,117,environmentservices.request@maldon.gov.uk,Maldon,http://www.maldon.gov.uk,0.68176400000000,CM9 5DE,2012-10-24,fhrs_5_en-GB,5,,FHRS,0
24268,40 Station Road,Burnham-On-Crouch,Essex,,Sauda Village,Takeaway/sandwich shop,7844,5,,194493,5,,51.63151700000000,10/00044/CPREM,117,environmentservices.request@maldon.gov.uk,Maldon,http://www.maldon.gov.uk,0.81551600000000,CM0 8BQ,2013-11-07,fhrs_5_en-GB,5,,FHRS,5
24269,The Oyster Pit,Shop Adjacent 19 High Street,The Quay,Burnham-On-Crouch,Sauda Village,Takeaway/sandwich shop,7844,5,,188404,5,,51.62561400000000,12/00001/CPREM,117,environmentservices.request@maldon.gov.uk,Maldon,http://www.maldon.gov.uk,0.81529400000000,CM0 8AS,2013-11-07,fhrs_5_en-GB,5,,FHRS,5
24270,22 Station Road,Burnham-On-Crouch,Essex,,Savage,Retailers - other,4613,,,429078,,,51.63151700000000,10/00053/CPREM,117,environmentservices.request@maldon.gov.uk,Maldon,http://www.maldon.gov.uk,0.81551600000000,CM0 8BQ,2014-01-06,fhrs_exempt_en-GB,Exempt,,FHRS,
24271,11A Queen Street,Southminster,Essex,,Schumey's Corner,Hospitals/Childcare/Caring Premises,5,0,,32948,0,,51.66336100000000,10/00015/CPREM,117,environmentservices.request@maldon.gov.uk,Maldon,http://www.maldon.gov.uk,0.82012200000000,CM0 7BB,2013-08-29,fhrs_5_en-GB,5,,FHRS,0
24272,,,,,Scrumptious Little Cupcakes / Egg And Moos,Other catering premises,7841,5,,499820,5,,,11/00086/CPREM,117,environmentservices.request@maldon.gov.uk,Maldon,http://www.maldon.gov.uk,,,2014-08-11,fhrs_5_en-GB,5,,FHRS,0
24273,,,,,Seafood King,Retailers - other,4613,5,,421266,0,,,11/00047/CPREM,117,environmentservices.request@maldon.gov.uk,Maldon,http://www.maldon.gov.uk,,,2014-03-24,fhrs_5_en-GB,5,,FHRS,0
24274,3 High Street,Burnham on Crouch,Essex,,Sergeant Peppers Restaurant,Restaurant/Cafe/Canteen,1,0,,9307,5,,51.62528700000000,03980/0003/0/000,117,environmentservices.request@maldon.gov.uk,Maldon,http://www.maldon.gov.uk,0.81690700000000,CM0 8AG,2013-02-08,fhrs_5_en-GB,5,,FHRS,5
24275,87 Washington Road,Maldon,Essex,,Serkys Cafe,Restaurant/Cafe/Canteen,1,5,,552238,0,,51.72413700000000,13/00032/CPREM,117,environmentservices.request@maldon.gov.uk,Maldon,http://www.maldon.gov.uk,0.67024500000000,CM9 6JE,2013-05-31,fhrs_5_en-GB,5,,FHRS,5
24276,195 High Street,Maldon,Essex,,Shahjan Tandoori,Takeaway/sandwich shop,7844,0,,17112,0,,51.72942900000000,05540/0195/0/000,117,environmentservices.request@maldon.gov.uk,Maldon,http://www.maldon.gov.uk,0.68505400000000,CM9 5BU,2013-03-28,fhrs_5_en-GB,5,,FHRS,0
24277,Wicks Manor,Witham Road,Tolleshunt Major,Maldon,Shaken Udder Ltd,Distributors/Transporters,7,5,,194489,0,,51.77132200000000,08/00044/CPREM,117,environmentservices.request@maldon.gov.uk,Maldon,http://www.maldon.gov.uk,0.75335400000000,CM9 8JU,2014-01-29,fhrs_5_en-GB,5,,FHRS,0
24278,,,,,Shaken Udder Mobile Vans,Mobile caterer,7846,5,,9509,0,,,04/00022/CPREM,117,environmentservices.request@maldon.gov.uk,Maldon,http://www.maldon.gov.uk,,,2014-01-29,fhrs_5_en-GB,5,,FHRS,0
24279,Shakes Waffle And Rolls,Shop B,Blackwater House,Fambridge Road,Shakes Waffle And Rolls Ltd,Takeaway/sandwich shop,7844,5,,726514,0,,51.73072600000000,14/00082/CPREM,117,environmentservices.request@maldon.gov.uk,Maldon,http://www.maldon.gov.uk,0.67509400000000,CM9 6AA,2014-12-02,fhrs_5_en-GB,5,,FHRS,0
24280,,,,,Something Sweet Baking,Other catering premises,7841,5,,587443,5,,,13/00061/CPREM,117,environmentservices.request@maldon.gov.uk,Maldon,http://www.maldon.gov.uk,,,2013-09-12,fhrs_5_en-GB,5,,FHRS,0
24281,"Southminster Bowls Club, King Georg",Station Road,Southminster,Essex,Southminster Bowls Club,Other catering premises,7841,,,42982,,,51.66188500000000,10550/6001/0/000,117,environmentservices.request@maldon.gov.uk,Maldon,http://www.maldon.gov.uk,0.83326300000000,CM0 7EW,2014-02-10,fhrs_exempt_en-GB,Exempt,,FHRS,
24282,Southminster Butchers,3 North Street,Southminster,Essex,Southminster Butchers Ltd,Retailers - other,4613,5,,535850,5,,51.66307800000000,13/00019/CPREM,117,environmentservices.request@maldon.gov.uk,Maldon,http://www.maldon.gov.uk,0.83079200000000,CM0 7DF,2013-04-04,fhrs_5_en-GB,5,,FHRS,5
24283,Burnham Road,Southminster,Essex,,Southminster Church Of England Primary School,School/college/university,7845,0,,36813,0,,51.65977300000000,10000/4000/0/003,117,environmentservices.request@maldon.gov.uk,Maldon,http://www.maldon.gov.uk,0.82796800000000,CM0 7ES,2015-01-23,fhrs_5_en-GB,5,,FHRS,0
24284,11A High Street,Southminster,Essex,,Southminster Fish Bar,Takeaway/sandwich shop,7844,0,,40868,0,,51.66240000000000,10180/0011/A/000,117,environmentservices.request@maldon.gov.uk,Maldon,http://www.maldon.gov.uk,0.82869600000000,CM0 7AA,2014-05-30,fhrs_5_en-GB,5,,FHRS,5
24285,15 High Street,Southminster,Essex,,Southminster Pharmacy,Retailers - other,4613,,,9435,,,51.66240000000000,04/00012/CPREM,117,environmentservices.request@maldon.gov.uk,Maldon,http://www.maldon.gov.uk,0.82869600000000,CM0 7AA,2009-05-21,fhrs_exempt_en-GB,Exempt,,FHRS,
24286,Station Road,Southminster,Essex,,Southminster Residential Home,Hospitals/Childcare/Caring Premises,5,5,,14581,0,,51.66188500000000,05/00023/CPREM,117,environmentservices.request@maldon.gov.uk,Maldon,http://www.maldon.gov.uk,0.83326300000000,CM0 7EW,2014-10-24,fhrs_4_en-GB,4,,FHRS,10
24287,44 Station Road,Burnham-On-Crouch,Essex,,Spice Fusion,Restaurant/Cafe/Canteen,1,5,,17865,5,,51.63151700000000,06/00041/CPREM,117,environmentservices.request@maldon.gov.uk,Maldon,http://www.maldon.gov.uk,0.81551600000000,CM0 8BQ,2014-01-21,fhrs_4_en-GB,4,,FHRS,10
24288,Spice Fusion Indian Restaurant And,62 Imperial Avenue,Mayland,Chelmsford,Spice House,Restaurant/Cafe/Canteen,1,10,,691607,0,,51.68692600000000,14/00046/CPREM,117,environmentservices.request@maldon.gov.uk,Maldon,http://www.maldon.gov.uk,0.75453600000000,CM3 6AH,2014-08-01,fhrs_4_en-GB,4,,FHRS,10
24289,,,,,Sprinkles And Wishes Cupcakes,Other catering premises,7841,10,,635115,0,,,14/00012/CPREM,117,environmentservices.request@maldon.gov.uk,Maldon,http://www.maldon.gov.uk,,,2014-02-20,fhrs_4_en-GB,4,,FHRS,0
24290,Squeaks House,Steeple Road,Southminster,Essex,Squeaks Residential Home,Hospitals/Childcare/Caring Premises,5,0,,43291,0,,51.66602700000000,10570/2003/2/000,117,environmentservices.request@maldon.gov.uk,Maldon,http://www.maldon.gov.uk,0.81736600000000,CM0 7BD,2014-05-30,fhrs_5_en-GB,5,,FHRS,5
24291,Eastend Road,Bradwell On Sea,Southminster,Essex,St Cedds Church Of England Voluntary Aided Primary School,School/college/university,7845,0,,44526,10,,51.72472900000000,10800/4000/0/000,117,environmentservices.request@maldon.gov.uk,Maldon,http://www.maldon.gov.uk,0.90120100000000,CM0 7PY,2014-10-20,fhrs_4_en-GB,4,,FHRS,10
24292,St Francis Roman Catholic Primary S,West Chase,Maldon,Essex,St Francis Roman Catholic Primary School,School/college/university,7845,0,,21066,0,,51.73287600000000,06760/4000/0/000,117,environmentservices.request@maldon.gov.uk,Maldon,http://www.maldon.gov.uk,0.67232500000000,CM9 6HN,2014-10-21,fhrs_5_en-GB,5,,FHRS,0
24293,St Marys School Church Of England P,Marsh Road,Burnham-On-Crouch,Essex,St Marys Church Of England Primary School,School/college/university,7845,0,,14945,0,,51.63737700000000,05/00074/CPREM,117,environmentservices.request@maldon.gov.uk,Maldon,http://www.maldon.gov.uk,0.81755500000000,CM0 8LZ,2014-07-16,fhrs_5_en-GB,5,,FHRS,0
24294,South Street,Tillingham,Southminster,Essex,St Nicholas Church Of England Primary School,School/college/university,7845,0,,51212,0,,51.69563300000000,11450/4000/2/001,117,environmentservices.request@maldon.gov.uk,Maldon,http://www.maldon.gov.uk,0.88226100000000,CM0 7TJ,2013-02-28,fhrs_5_en-GB,5,,FHRS,0
24295,St Peters Court Care Home,Spital Road,Maldon,Essex,St Peters Court Care Home,Hospitals/Childcare/Caring Premises,5,0,,20756,0,,51.73013800000000,06390/4000/0/001,117,environmentservices.request@maldon.gov.uk,Maldon,http://www.maldon.gov.uk,0.67290200000000,CM9 6LF,2015-01-07,fhrs_5_en-GB,5,,FHRS,5
24296,Spital Road,Maldon,Essex,,St Peters Hospital,Hospitals/Childcare/Caring Premises,5,0,,20753,0,,51.73022600000000,06390/2039/2/000,117,environmentservices.request@maldon.gov.uk,Maldon,http://www.maldon.gov.uk,0.67218300000000,CM9 6EG,2013-03-14,fhrs_5_en-GB,5,,FHRS,0
24297,72 Wantz Road,Maldon,Essex,,Star House B&B,Hotel/bed & breakfast/guest house,7842,5,,7375,5,,51.72865000000000,03/00006/CPREM,117,environmentservices.request@maldon.gov.uk,Maldon,http://www.maldon.gov.uk,0.68176400000000,CM9 5DE,2013-05-08,fhrs_5_en-GB,5,,FHRS,0
24298,Steeple Bay Holiday Park,Canney Road,Steeple,Southminster,Steeple Bay Holiday Park,Restaurant/Cafe/Canteen,1,5,,1497,0,,51.69298200000000,00256/0001/2/000,117,environmentservices.request@maldon.gov.uk,Maldon,http://www.maldon.gov.uk,0.78868000000000,CM0 7RS,2013-10-22,fhrs_4_en-GB,4,,FHRS,10
24299,Garden Fields,Steeple,Southminster,Essex,Steeple Village Hall,Other catering premises,7841,,,9452,,,51.69364700000000,04/00014/CPREM,117,environmentservices.request@maldon.gov.uk,Maldon,http://www.maldon.gov.uk,0.80118100000000,CM0 7JY,2009-12-07,fhrs_exempt_en-GB,Exempt,,FHRS,
24300,Stone Inn,Main Road,St Lawrence,Southminster,Stone Inn,Pub/bar/nightclub,7843,0,,49720,0,,51.71486400000000,11040/2017/2/000,117,environmentservices.request@maldon.gov.uk,Maldon,http://www.maldon.gov.uk,0.82739500000000,CM0 7LY,2014-10-09,fhrs_5_en-GB,5,,FHRS,5
24301,Stone Sailing Club,Tinnocks Lane,St Lawrence,Southminster,Stone Sailing Club,Other catering premises,7841,,,50160,,,51.71965000000000,11160/2024/2/000,117,environmentservices.request@maldon.gov.uk,Maldon,http://www.maldon.gov.uk,0.82172800000000,CM0 7NF,2014-09-01,fhrs_exempt_en-GB,Exempt,,FHRS,
24302,Stow Maries Great War Aerodrome Lim,Stow Maries Aerodrome,Hackmans Lane,Purleigh,Stow Maries Aerodrome Mess,Restaurant/Cafe/Canteen,1,0,,681154,0,,51.67094100000000,14/00035/CPREM,117,environmentservices.request@maldon.gov.uk,Maldon,http://www.maldon.gov.uk,0.62919000000000,CM3 6RN,2014-07-02,fhrs_5_en-GB,5,,FHRS,5
24303,,,,,Strawberry Ella Cupcakes,Other catering premises,7841,5,,617492,0,,,13/00050/CPREM,117,environmentservices.request@maldon.gov.uk,Maldon,http://www.maldon.gov.uk,,,2013-11-21,fhrs_5_en-GB,5,,FHRS,0
24304,75B High Street,Maldon,Essex,,Subway,Restaurant/Cafe/Canteen,1,0,,18010,0,,51.73126500000000,06/00058/CPREM,117,environmentservices.request@maldon.gov.uk,Maldon,http://www.maldon.gov.uk,0.68028200000000,CM9 5EP,2014-09-02,fhrs_5_en-GB,5,,FHRS,5
24305,,,,,Sue's Catering Services,Other catering premises,7841,5,,15028,0,,,05/00089/CPREM,117,environmentservices.request@maldon.gov.uk,Maldon,http://www.maldon.gov.uk,,,2014-02-27,fhrs_5_en-GB,5,,FHRS,0
24306,Sun & Anchor Inn,The Street,Steeple,Southminster,Sun And Anchor,Pub/bar/nightclub,7843,10,,50638,10,,51.69224600000000,11290/4000/0/000,117,environmentservices.request@maldon.gov.uk,Maldon,http://www.maldon.gov.uk,0.79998000000000,CM0 7RH,2014-10-28,fhrs_3_en-GB,3,,FHRS,10
24307,The Sunny Sailor,1 Fullbridge,Maldon,Essex,Sunny Pete At The Sunny Sailor,Pub/bar/nightclub,7843,0,,717991,0,,51.73550400000000,14/00077/CPREM,117,environmentservices.request@maldon.gov.uk,Maldon,http://www.maldon.gov.uk,0.67931600000000,CM9 4LE,2014-10-30,fhrs_4_en-GB,4,,FHRS,10
24308,56 High Street,Maldon,Essex,,Superdrug Stores Plc,Retailers - other,4613,,,17089,,,51.73133500000000,05540/0056/0/000,117,environmentservices.request@maldon.gov.uk,Maldon,http://www.maldon.gov.uk,0.67718700000000,CM9 5PN,2014-08-11,fhrs_exempt_en-GB,Exempt,,FHRS,
24309,The Swallowtail Restaurant Bar And,Foundry Lane,Burnham-On-Crouch,Essex,Swallowtail Bar And Restaurant,Restaurant/Cafe/Canteen,1,5,,293201,0,,51.63268000000000,12/00016/CPREM,117,environmentservices.request@maldon.gov.uk,Maldon,http://www.maldon.gov.uk,0.81016800000000,CM0 8BL,2014-02-20,fhrs_5_en-GB,5,,FHRS,5
24310,Swan Nursing Home,29 North Street,Tillingham,Southminster,Swan Care Residential Home,Hospitals/Childcare/Caring Premises,5,0,,429055,0,,51.69864700000000,08/00007/CPREM,117,environmentservices.request@maldon.gov.uk,Maldon,http://www.maldon.gov.uk,0.88110700000000,CM0 7TR,2014-01-16,fhrs_5_en-GB,5,,FHRS,0
24311,73 High Street,Maldon,Essex,,Swan Inn,Pub/bar/nightclub,7843,20,,17094,5,,51.73126500000000,05540/0073/0/000,117,environmentservices.request@maldon.gov.uk,Maldon,http://www.maldon.gov.uk,0.68028200000000,CM9 5EP,2013-08-07,fhrs_1_en-GB,1,,FHRS,10
24312,39 High Street,Burnham-On-Crouch,Essex,,Sweet Dreams,Retailers - other,4613,0,,429083,0,,51.62528700000000,11/00026/CPREM,117,environmentservices.request@maldon.gov.uk,Maldon,http://www.maldon.gov.uk,0.81690700000000,CM0 8AG,2014-02-20,fhrs_5_en-GB,5,,FHRS,5
24313,Talking Flowers,37 High Street,Maldon,Essex,Talking Flowers,Retailers - other,4613,,,17086,,,51.73158400000000,05540/0037/0/000,117,environmentservices.request@maldon.gov.uk,Maldon,http://www.maldon.gov.uk,0.67772300000000,CM9 5PF,2012-11-23,fhrs_exempt_en-GB,Exempt,,FHRS,
24314,Tai Chi Maldon Club House,19 London Road,Maldon,Essex,Taoist Tai Chi Society,Other catering premises,7841,,,17265,,,51.73159400000000,05780/4000/0/001,117,environmentservices.request@maldon.gov.uk,Maldon,http://www.maldon.gov.uk,0.67291500000000,CM9 6HD,2012-10-05,fhrs_exempt_en-GB,Exempt,,FHRS,
24315,Ground Floor Unit 8B,West Station Yard,Spital Road,Maldon,Tasty Treats,Mobile caterer,7846,0,,209644,0,,51.72420300000000,09/00084/CPREM,117,environmentservices.request@maldon.gov.uk,Maldon,http://www.maldon.gov.uk,0.66574500000000,CM9 6TR,2014-01-10,fhrs_4_en-GB,4,,FHRS,10
24316,31 Acacia Drive,Maldon,Essex,,Tatoi Bed And Breakfast,Hotel/bed & breakfast/guest house,7842,5,,14135,5,,51.72605800000000,04710/0031/0/000,117,environmentservices.request@maldon.gov.uk,Maldon,http://www.maldon.gov.uk,0.67038700000000,CM9 6AW,2012-11-27,fhrs_5_en-GB,5,,FHRS,5
24317,Tavern Garage,The Causeway,Maldon,Essex,Tavern Garage,Retailers - other,4613,,,27604,,,51.73783500000000,08110/4000/0/009,117,environmentservices.request@maldon.gov.uk,Maldon,http://www.maldon.gov.uk,0.68242400000000,CM9 4LJ,2014-08-07,fhrs_exempt_en-GB,Exempt,,FHRS,
24318,,,,,Taylor Made Treats,Other catering premises,7841,5,,587442,0,,,13/00057/CPREM,117,environmentservices.request@maldon.gov.uk,Maldon,http://www.maldon.gov.uk,,,2013-09-16,fhrs_5_en-GB,5,,FHRS,5
24319,Wycke Hill Business Park,Maldon,Essex,,Tec Distribuion Plc,Other catering premises,7841,0,,489686,0,,51.72148200000000,06840/4006/2/000,117,environmentservices.request@maldon.gov.uk,Maldon,http://www.maldon.gov.uk,0.66396400000000,CM9 6WH,2012-03-19,fhrs_5_en-GB,5,,FHRS,0
24320,Fullbridge,Maldon,Essex,,Tesco,Retailers - supermarkets/hypermarkets,7840,0,,16992,0,,51.73499298095703,05440/4000/0/001,117,environmentservices.request@maldon.gov.uk,Maldon,http://www.maldon.gov.uk,0.67886614799500,CM9 4LE,2014-03-31,fhrs_5_en-GB,5,,FHRS,5
24321,150-152 Station Road,Burnham on Crouch,Essex,,Tesco Express,Retailers - supermarkets/hypermarkets,7840,5,,13874,5,,51.62828400000000,04500/0150/0/000,117,environmentservices.request@maldon.gov.uk,Maldon,http://www.maldon.gov.uk,0.81459300000000,CM0 8HQ,2014-03-26,fhrs_5_en-GB,5,,FHRS,5
24322,Unit 3B  Bentalls Shopping Centre,Colchester Road,Heybridge,Maldon,Tesco Express,Retailers - supermarkets/hypermarkets,7840,0,,14462,0,,51.74050800000000,05/00005/CPREM,117,environmentservices.request@maldon.gov.uk,Maldon,http://www.maldon.gov.uk,0.68901400000000,CM9 4GD,2012-01-05,fhrs_5_en-GB,5,,FHRS,0
24323,Q8 Service Station,14 The Street,Latchingdon,Chelmsford,Texaco,Retailers - other,4613,5,,4491,5,,51.67084600000000,01140/0014/0/000,117,environmentservices.request@maldon.gov.uk,Maldon,http://www.maldon.gov.uk,0.71748700000000,CM3 6JP,2013-10-02,fhrs_5_en-GB,5,,FHRS,5
24324,Anchor Hotel,The Quay,Burnham-On-Crouch,Essex,The Anchor Hotel,Pub/bar/nightclub,7843,5,,508522,5,,51.62460500000000,13/00006/CPREM,117,environmentservices.request@maldon.gov.uk,Maldon,http://www.maldon.gov.uk,0.81946600000000,CM0 8AT,2014-08-13,fhrs_5_en-GB,5,,FHRS,5
24325,41 High Street,Maldon,Essex,,The Art House,Restaurant/Cafe/Canteen,1,5,,409723,0,,51.73158400000000,12/00034/CPREM,117,environmentservices.request@maldon.gov.uk,Maldon,http://www.maldon.gov.uk,0.67772300000000,CM9 5PF,2014-06-24,fhrs_5_en-GB,5,,FHRS,0
24326,24 Mill Road,Maldon,Essex,,The Balti Bhujon,Restaurant/Cafe/Canteen,1,0,,17439,0,,51.72801600000000,05960/0024/0/000,117,environmentservices.request@maldon.gov.uk,Maldon,http://www.maldon.gov.uk,0.68589700000000,CM9 5HZ,2014-06-10,fhrs_5_en-GB,5,,FHRS,5
24327,The Bell Inn,Beckingham Street,Tolleshunt Major,Maldon,The Bell,Pub/bar/nightclub,7843,10,,730216,0,,51.76836200000000,15/00001/CPREM,117,environmentservices.request@maldon.gov.uk,Maldon,http://www.maldon.gov.uk,0.75302800000000,CM9 8LL,2015-01-06,fhrs_4_en-GB,4,,FHRS,10
24328,The Bell Public House,The Street,Purleigh,Chelmsford,The Bell,Pub/bar/nightclub,7843,10,,6188,5,,51.68628000000000,02030/4000/0/000,117,environmentservices.request@maldon.gov.uk,Maldon,http://www.maldon.gov.uk,0.66247400000000,CM3 6QJ,2014-03-11,fhrs_3_en-GB,3,,FHRS,10
24329,The Bell Inn,The Street,Woodham Walter,Maldon,The Bell Public,Pub/bar/nightclub,7843,0,,32635,0,,51.73201600000000,09910/2007/2/000,117,environmentservices.request@maldon.gov.uk,Maldon,http://www.maldon.gov.uk,0.61787400000000,CM9 6RF,2013-03-26,fhrs_5_en-GB,5,,FHRS,0
24330,The Blue Boar Hotel,Silver Street,Maldon,Essex,The Blue Boar Hotel,Hotel/bed & breakfast/guest house,7842,20,,20728,10,,51.73223800000000,06370/2001/2/000,117,environmentservices.request@maldon.gov.uk,Maldon,http://www.maldon.gov.uk,0.67625500000000,CM9 4QE,2015-01-16,fhrs_1_en-GB,1,,FHRS,10
24331,Wantz Road,Maldon,Essex,,The Borough Arms,Pub/bar/nightclub,7843,0,,20991,0,,51.74060400000000,06670/4000/0/001,117,environmentservices.request@maldon.gov.uk,Maldon,http://www.maldon.gov.uk,0.73636800000000,CM9 7DB,2013-03-25,fhrs_4_en-GB,4,,FHRS,10
24332,Homefield House,Witham Road,Little Braxted,Witham,The Braxted Bakery,Other catering premises,7841,0,,535846,0,,51.79026700000000,13/00009/CPREM,117,environmentservices.request@maldon.gov.uk,Maldon,http://www.maldon.gov.uk,0.67171400000000,CM8 3ET,2014-09-12,fhrs_5_en-GB,5,,FHRS,5
24333,2 Maldon Road,Great Totham,Maldon,Essex,The Bull Public House,Pub/bar/nightclub,7843,5,,429079,0,,51.76775100000000,10/00059/CPREM,117,environmentservices.request@maldon.gov.uk,Maldon,http://www.maldon.gov.uk,0.68814000000000,CM9 8NL,2014-11-27,fhrs_5_en-GB,5,,FHRS,5
24334,The Dairy Cabin,17 High Street,Burnham-On-Crouch,Essex,The Cabin,Restaurant/Cafe/Canteen,1,10,,629590,15,,51.62528700000000,14/00006/CPREM,117,environmentservices.request@maldon.gov.uk,Maldon,http://www.maldon.gov.uk,0.81690700000000,CM0 8AG,2014-01-21,fhrs_2_en-GB,2,,FHRS,10
24335,Cap And Feathers Inn,South Street,Tillingham,Southminster,The Cap And Feathers Inn,Pub/bar/nightclub,7843,5,,577156,5,,51.69576600000000,13/00047/CPREM,117,environmentservices.request@maldon.gov.uk,Maldon,http://www.maldon.gov.uk,0.88231300000000,CM0 7TJ,2013-09-12,fhrs_5_en-GB,5,,FHRS,5
24336,Wilkin And Sons Limited,The Cartlodge At Chigborough Barns,Chigborough Road,Heybridge,The Cart Lodge,Restaurant/Cafe/Canteen,1,0,,587444,0,,51.74176500000000,13/00062/CPREM,117,environmentservices.request@maldon.gov.uk,Maldon,http://www.maldon.gov.uk,0.71878600000000,CM9 4RE,2013-09-06,fhrs_5_en-GB,5,,FHRS,0
24337,The Cats Public House,Blue Mill Lane,Woodham Walter,Maldon,The Cats,Pub/bar/nightclub,7843,5,,97128,5,,51.73677000000000,30006/0003/2/000,117,environmentservices.request@maldon.gov.uk,Maldon,http://www.maldon.gov.uk,0.62565200000000,CM9 6LS,2014-08-19,fhrs_5_en-GB,5,,FHRS,5
24338,The Chequers Inn,32 The Street,Wickham Bishops,Witham,The Chequers,Pub/bar/nightclub,7843,5,,409725,0,,51.77889600000000,12/00042/CPREM,117,environmentservices.request@maldon.gov.uk,Maldon,http://www.maldon.gov.uk,0.67384100000000,CM8 3NN,2014-01-14,fhrs_5_en-GB,5,,FHRS,5
24339,The Chequers Inn,Church Street,Goldhanger,Maldon,The Chequers Inn,Pub/bar/nightclub,7843,5,,21154,0,,51.74668800000000,06880/4000/0/001,117,environmentservices.request@maldon.gov.uk,Maldon,http://www.maldon.gov.uk,0.75799800000000,CM9 8AS,2014-11-17,fhrs_5_en-GB,5,,FHRS,5
24340,Cherry Tree Bakery,Unit 3A,Bentalls Shopping Centre,Colchester Road,The Cherry Tree Bakery And Cafe,Restaurant/Cafe/Canteen,1,5,,705608,0,,51.74050800000000,14/00058/CPREM,117,environmentservices.request@maldon.gov.uk,Maldon,http://www.maldon.gov.uk,0.68901400000000,CM9 4GD,2014-09-09,fhrs_5_en-GB,5,,FHRS,5
24341,The Chip Inn,74 Imperial Avenue,Mayland,Chelmsford,The Chip Inn,Takeaway/sandwich shop,7844,0,,4905,0,,51.68692600000000,01420/4000/0/004,117,environmentservices.request@maldon.gov.uk,Maldon,http://www.maldon.gov.uk,0.75453600000000,CM3 6AH,2014-09-23,fhrs_5_en-GB,5,,FHRS,0
24342,Fambridge Yacht Haven,Church Road,North Fambridge,Chelmsford,The Clubhouse,Restaurant/Cafe/Canteen,1,0,,635112,0,,51.63875600000000,14/00009/CPREM,117,environmentservices.request@maldon.gov.uk,Maldon,http://www.maldon.gov.uk,0.67644100000000,CM3 6LR,2014-02-05,fhrs_5_en-GB,5,,FHRS,5
24343,,,,,The Creative Cake,Other catering premises,7841,5,,552237,0,,,13/00031/CPREM,117,environmentservices.request@maldon.gov.uk,Maldon,http://www.maldon.gov.uk,,,2013-05-20,fhrs_5_en-GB,5,,FHRS,0
24344,33 Church Street,Goldhanger,Maldon,Essex,The Cricketers,Pub/bar/nightclub,7843,10,,537480,10,,51.74849800000000,13/00021/CPREM,117,environmentservices.request@maldon.gov.uk,Maldon,http://www.maldon.gov.uk,0.75828200000000,CM9 8AR,2013-04-12,fhrs_3_en-GB,3,,FHRS,5
24345,Eastend Road,Bradwell-On-Sea,Southminster,Essex,The Cricketers,Pub/bar/nightclub,7843,0,,429088,0,,51.72719900000000,11/00051/CPREM,117,environmentservices.request@maldon.gov.uk,Maldon,http://www.maldon.gov.uk,0.90822400000000,CM0 7PT,2014-08-01,fhrs_5_en-GB,5,,FHRS,5
24346,111 High Street,Maldon,Essex,,The Curry Nights,Restaurant/Cafe/Canteen,1,5,,17101,0,,51.74060400000000,05540/0111/0/000,117,environmentservices.request@maldon.gov.uk,Maldon,http://www.maldon.gov.uk,0.73636800000000,CM9 7BS,2014-03-27,fhrs_5_en-GB,5,,FHRS,5
24347,33 Main Road,St Lawrence,Southminster,Essex,The Dairy Stores,Retailers - other,4613,10,,499824,5,,51.71486400000000,13/00001/CPREM,117,environmentservices.request@maldon.gov.uk,Maldon,http://www.maldon.gov.uk,0.82739500000000,CM0 7LY,2014-09-24,fhrs_4_en-GB,4,,FHRS,5
24348,Osea Leisure Park,Goldhanger Road,Heybridge,Maldon,The Deck House/ The View,Restaurant/Cafe/Canteen,1,0,,535847,0,,51.74467600000000,13/00010/CPREM,117,environmentservices.request@maldon.gov.uk,Maldon,http://www.maldon.gov.uk,0.69081200000000,CM9 4AS,2014-04-16,fhrs_5_en-GB,5,,FHRS,0
24349,,,,,The English Patisserie Company,Other catering premises,7841,5,,691608,0,,,14/00052/CPREM,117,environmentservices.request@maldon.gov.uk,Maldon,http://www.maldon.gov.uk,,,2014-07-29,fhrs_5_en-GB,5,,FHRS,0
24350,Ferry Boat Inn,Ferry Road,North Fambridge,Chelmsford,The Ferry Boat Inn,Pub/bar/nightclub,7843,5,,5318,0,,51.63875600000000,01750/4002/2/000,117,environmentservices.request@maldon.gov.uk,Maldon,http://www.maldon.gov.uk,0.67644100000000,CM3 6LR,2014-10-29,fhrs_5_en-GB,5,,FHRS,0
24351,9B High Street,Maldon,Essex,,The Fig Tree,Restaurant/Cafe/Canteen,1,5,,707941,0,,51.73157600000000,14/00066/CPREM,117,environmentservices.request@maldon.gov.uk,Maldon,http://www.maldon.gov.uk,0.67530400000000,CM9 5PB,2014-10-07,fhrs_4_en-GB,4,,FHRS,10
24352,Gardeners Farm,Maldon Road,Goldhanger,Maldon,The Gardeners Farm Shop,Manufacturers/packers,7839,5,,359049,0,,51.73861100000000,12/00024/CPREM,117,environmentservices.request@maldon.gov.uk,Maldon,http://www.maldon.gov.uk,0.73960100000000,CM9 8BQ,2013-09-13,fhrs_5_en-GB,5,,FHRS,5
24353,The Jacks Centre,Burnham Road,Latchingdon,Chelmsford,The Jacks Centre,Restaurant/Cafe/Canteen,1,0,,2537,5,,51.66853500000000,00980/4000/0/003,117,environmentservices.request@maldon.gov.uk,Maldon,http://www.maldon.gov.uk,0.72674900000000,CM3 6EX,2015-01-22,fhrs_5_en-GB,5,,FHRS,0
24354,Church Street,Maldon,Essex,,The Jolly Sailor,Pub/bar/nightclub,7843,0,,14430,5,,51.72878600000000,05/00001/CPREM,117,environmentservices.request@maldon.gov.uk,Maldon,http://www.maldon.gov.uk,0.68643500000000,CM9 5HP,2014-07-23,fhrs_4_en-GB,4,,FHRS,10
24355,The Jolly Sailor Public House,Basin Road,Heybridge,Maldon,The Jolly Sailor,Pub/bar/nightclub,7843,0,,27772,0,,51.72994000000000,08200/4000/0/000,117,environmentservices.request@maldon.gov.uk,Maldon,http://www.maldon.gov.uk,0.70941600000000,CM9 4RS,2014-03-03,fhrs_5_en-GB,5,,FHRS,0
24356,Kings Head,2 High Street,Southminster,Essex,The Kings Head,Pub/bar/nightclub,7843,5,,40865,5,,51.66265700000000,10180/0002/0/000,117,environmentservices.request@maldon.gov.uk,Maldon,http://www.maldon.gov.uk,0.82997000000000,CM0 7DE,2014-10-31,fhrs_5_en-GB,5,,FHRS,5
24357,,,,,The Kitchen Pantry,Other catering premises,7841,0,,499816,0,,,11/00057/CPREM,117,environmentservices.request@maldon.gov.uk,Maldon,http://www.maldon.gov.uk,,,2014-08-11,fhrs_5_en-GB,5,,FHRS,0
24358,55A East Street,Tollesbury,Maldon,Essex,The Light House,Retailers - other,4613,,,28212,,,51.75834100000000,08740/0055/A/000,117,environmentservices.request@maldon.gov.uk,Maldon,http://www.maldon.gov.uk,0.83702400000000,CM9 8QE,2009-05-05,fhrs_exempt_en-GB,Exempt,,FHRS,
24359,The Limes,Southminster Road,Burnham on Crouch,Essex,The Limes,Retailers - other,4613,0,,13785,0,,51.63870700000000,04400/2017/2/000,117,environmentservices.request@maldon.gov.uk,Maldon,http://www.maldon.gov.uk,0.81386500000000,CM0 8QB,2014-08-07,fhrs_5_en-GB,5,,FHRS,0
24360,21 Market Hill,Maldon,Essex,,The Limes Guest House,Hotel/bed & breakfast/guest house,7842,5,,17311,0,,51.73232400000000,05830/0021/0/000,117,environmentservices.request@maldon.gov.uk,Maldon,http://www.maldon.gov.uk,0.67878100000000,CM9 4PZ,2013-02-19,fhrs_5_en-GB,5,,FHRS,0
24361,Yacht Stores A1 And A2,The Sail Lofts,Woodrolfe Road,Tollesbury,The Loft - Tea By The Sea,Restaurant/Cafe/Canteen,1,5,,429095,0,,51.75857000000000,12/00008/CPREM,117,environmentservices.request@maldon.gov.uk,Maldon,http://www.maldon.gov.uk,0.83983600000000,CM9 8SB,2013-08-02,fhrs_5_en-GB,5,,FHRS,5
24362,Mill Road,Maldon,Essex,,The Lower Plume School,School/college/university,7845,5,,20992,0,,51.72620000000000,06670/4000/0/003,117,environmentservices.request@maldon.gov.uk,Maldon,http://www.maldon.gov.uk,0.68425500000000,CM9 5JA,2013-11-20,fhrs_5_en-GB,5,,FHRS,0
24363,,,,,The New Hall Bakery,Other catering premises,7841,0,,681155,0,,,14/00041/CPREM,117,environmentservices.request@maldon.gov.uk,Maldon,http://www.maldon.gov.uk,,,2014-07-04,fhrs_5_en-GB,5,,FHRS,0
24364,Naughty But Nice,Kiosk 5,The Promenade Park,Park Drive,The Noodle Bar,Mobile caterer,7846,5,,696661,0,,51.72316500000000,14/00053/CPREM,117,environmentservices.request@maldon.gov.uk,Maldon,http://www.maldon.gov.uk,0.68915700000000,CM9 5JQ,2014-08-05,fhrs_5_en-GB,5,,FHRS,0
24365,54 Latchingdon Road,Cold Norton,Chelmsford,Essex,The Norton,Pub/bar/nightclub,7843,0,,429072,0,,51.67209100000000,09/00074/CPREM,117,environmentservices.request@maldon.gov.uk,Maldon,http://www.maldon.gov.uk,0.67225900000000,CM3 6JB,2013-07-12,fhrs_5_en-GB,5,,FHRS,5
24366,Lock Hill,Heybridge,Maldon,Essex,The Old Ship,Pub/bar/nightclub,7843,10,,17528,5,,51.72923400000000,06/00006/CPREM,117,environmentservices.request@maldon.gov.uk,Maldon,http://www.maldon.gov.uk,0.70879400000000,CM9 4RX,2014-09-25,fhrs_3_en-GB,3,,FHRS,10
24367,Eastend Road,Bradwell-On-Sea,Southminster,Essex,The Othona Community,Other catering premises,7841,5,,44528,0,,51.73329600000000,10800/4000/0/003,117,environmentservices.request@maldon.gov.uk,Maldon,http://www.maldon.gov.uk,0.92527300000000,CM0 7PN,2014-02-06,fhrs_5_en-GB,5,,FHRS,5
24368,Oyster Smack,112 Station Road,Burnham-On-Crouch,Essex,The Oyster Smack,Restaurant/Cafe/Canteen,1,10,,429073,5,,51.62918700000000,09/00099/CPREM,117,environmentservices.request@maldon.gov.uk,Maldon,http://www.maldon.gov.uk,0.81441700000000,CM0 8HR,2013-06-24,fhrs_4_en-GB,4,,FHRS,5
24369,,,,,The Perfect Little Cakery,Other catering premises,7841,0,,374122,0,,,12/00031/CPREM,117,environmentservices.request@maldon.gov.uk,Maldon,http://www.maldon.gov.uk,,,2012-05-09,fhrs_5_en-GB,5,,FHRS,0
24370,The Plume School,Fambridge Road,Maldon,Essex,The Plume School,School/college/university,7845,0,,16878,0,,51.72930700000000,05350/4000/0/002,117,environmentservices.request@maldon.gov.uk,Maldon,http://www.maldon.gov.uk,0.67658900000000,CM9 6AB,2014-03-24,fhrs_5_en-GB,5,,FHRS,0
24371,Museum Of Power,Hatfield Road,Langford,Maldon,The Plume School At The Museum Of Power,Other catering premises,7841,10,,27903,5,,51.75157500000000,08300/2010/2/000,117,environmentservices.request@maldon.gov.uk,Maldon,http://www.maldon.gov.uk,0.65359200000000,CM9 6QA,2013-08-18,fhrs_4_en-GB,4,,FHRS,5
24372,Birchwood Farm,Birchwood Road,Cock Clarks,Chelmsford,The Potato Shed,Mobile caterer,7846,0,,713532,0,,51.69377000000000,14/00074/CPREM,117,environmentservices.request@maldon.gov.uk,Maldon,http://www.maldon.gov.uk,0.62621500000000,CM3 6RF,2014-10-31,fhrs_5_en-GB,5,,FHRS,0
24373,The Queen Victoria,Spital Road,Maldon,Essex,The Queen Victoria,Pub/bar/nightclub,7843,10,,20754,5,,51.72827600000000,06390/4000/0/000,117,environmentservices.request@maldon.gov.uk,Maldon,http://www.maldon.gov.uk,0.66935900000000,CM9 6ED,2013-09-26,fhrs_4_en-GB,4,,FHRS,5
24374,The Queens Head,The Hythe,Maldon,Essex,The Queens Head,Pub/bar/nightclub,7843,0,,20897,5,,51.72949900000000,06560/4000/0/000,117,environmentservices.request@maldon.gov.uk,Maldon,http://www.maldon.gov.uk,0.68788200000000,CM9 5HN,2014-03-18,fhrs_5_en-GB,5,,FHRS,0
24375,The Railway Hotel,12 Station Road,Burnham on Crouch,Essex,The Railway Hotel,Hotel/bed & breakfast/guest house,7842,5,,13877,0,,51.63151700000000,04500/4000/0/002,117,environmentservices.request@maldon.gov.uk,Maldon,http://www.maldon.gov.uk,0.81551600000000,CM0 8BQ,2014-03-25,fhrs_5_en-GB,5,,FHRS,5
24376,68 Mill Road,Maldon,Essex,,The Raj,Takeaway/sandwich shop,7844,0,,17442,0,,51.72801600000000,05960/0068/0/000,117,environmentservices.request@maldon.gov.uk,Maldon,http://www.maldon.gov.uk,0.68589700000000,CM9 5HZ,2012-08-14,fhrs_5_en-GB,5,,FHRS,5
24377,The Red Lion Inn,47 The Street,Latchingdon,Chelmsford,The Red Lion Inn,Pub/bar/nightclub,7843,0,,4495,15,,51.67145400000000,01140/0047/0/000,117,environmentservices.request@maldon.gov.uk,Maldon,http://www.maldon.gov.uk,0.72034400000000,CM3 6JR,2013-09-04,fhrs_2_en-GB,2,,FHRS,10
24378,Teapot,Ground Floor,7 Fullbridge,Maldon,The Riverside Cafe,Restaurant/Cafe/Canteen,1,10,,733794,0,,51.73550400000000,15/00007/CPREM,117,environmentservices.request@maldon.gov.uk,Maldon,http://www.maldon.gov.uk,0.67931600000000,CM9 4LE,2015-01-20,fhrs_4_en-GB,4,,FHRS,0
24379,35 D'Arcy Road,Tolleshunt Knights,Maldon,Essex,The Rose And Crown Inn,Pub/bar/nightclub,7843,10,,8742,0,,51.80035600000000,03230/0035/0/000,117,environmentservices.request@maldon.gov.uk,Maldon,http://www.maldon.gov.uk,0.76585700000000,CO5 0RR,2014-03-27,fhrs_4_en-GB,4,,FHRS,5
24380,The Chase,Tollesbury,Maldon,Essex,The Royal British Legion,Other catering premises,7841,,,14593,,,51.75915700000000,05/00025/CPREM,117,environmentservices.request@maldon.gov.uk,Maldon,http://www.maldon.gov.uk,0.83564100000000,CM9 8QH,2014-08-20,fhrs_exempt_en-GB,Exempt,,FHRS,
24381,Fambridge Road,Hazeleigh,Maldon,Essex,The Royal Oak,Pub/bar/nightclub,7843,0,,14710,0,,51.71108200000000,05/00042/CPREM,117,environmentservices.request@maldon.gov.uk,Maldon,http://www.maldon.gov.uk,0.67483200000000,CM9 6PE,2013-06-04,fhrs_5_en-GB,5,,FHRS,0
24382,1 The Kings Head Centre,38 High Street,Maldon,Essex,The Secret Garden,Restaurant/Cafe/Canteen,1,10,,717993,0,,51.73133500000000,14/00079/CPREM,117,environmentservices.request@maldon.gov.uk,Maldon,http://www.maldon.gov.uk,0.67718700000000,CM9 5PN,2014-11-11,fhrs_4_en-GB,4,,FHRS,10
24383,The Ship & Anchor P.H.,188 High Street,Maldon,Essex,The Ship And Anchor,Pub/bar/nightclub,7843,10,,17110,5,,51.72960700000000,05540/0188/0/000,117,environmentservices.request@maldon.gov.uk,Maldon,http://www.maldon.gov.uk,0.68393500000000,CM9 5BX,2014-06-24,fhrs_4_en-GB,4,,FHRS,5
24384,52 High Street,Burnham on Crouch,Essex,,The Ship Inn,Pub/bar/nightclub,7843,0,,9318,0,,51.62551000000000,03980/0052/0/000,117,environmentservices.request@maldon.gov.uk,Maldon,http://www.maldon.gov.uk,0.81923300000000,CM0 8AA,2014-06-24,fhrs_5_en-GB,5,,FHRS,5
24385,29-31 High Street,Burnham On Crouch,Essex,,The Star Inn,Pub/bar/nightclub,7843,0,,9312,0,,51.62528700000000,03980/0029/0/000,117,environmentservices.request@maldon.gov.uk,Maldon,http://www.maldon.gov.uk,0.81690700000000,CM0 8AG,2014-08-12,fhrs_5_en-GB,5,,FHRS,5
24386,The Street,Steeple,Southminster,Essex,The Star Inn,Pub/bar/nightclub,7843,10,,581160,5,,51.69312200000000,13/00052/CPREM,117,environmentservices.request@maldon.gov.uk,Maldon,http://www.maldon.gov.uk,0.80282700000000,CM0 7LF,2013-08-20,fhrs_3_en-GB,3,,FHRS,10
24387,Station Arms Public House,39 Station Road,Southminster,Essex,The Station Arms,Pub/bar/nightclub,7843,0,,42972,5,,51.66188500000000,10550/0039/0/000,117,environmentservices.request@maldon.gov.uk,Maldon,http://www.maldon.gov.uk,0.83326300000000,CM0 7EW,2012-10-18,fhrs_5_en-GB,5,,FHRS,5
24388,The Swan Public House,School Road,Little Totham,Maldon,The Swan,Pub/bar/nightclub,7843,5,,629588,0,,51.77158000000000,13/00078/CPREM,117,environmentservices.request@maldon.gov.uk,Maldon,http://www.maldon.gov.uk,0.73771300000000,CM9 8LB,2014-01-20,fhrs_5_en-GB,5,,FHRS,5
24389,Chapel Stores And Post Office,The Street,Woodham Walter,Maldon,The Tadpoles Nursery,Other catering premises,7841,,,727274,,,51.73201600000000,14/00084/CPREM,117,environmentservices.request@maldon.gov.uk,Maldon,http://www.maldon.gov.uk,0.61787400000000,CM9 6RF,2014-12-08,fhrs_exempt_en-GB,Exempt,,FHRS,
24390,Rayleigh Enterprises Limited,Ground Floor,22 High Street,Burnham-On-Crouch,The Tall Green House,Restaurant/Cafe/Canteen,1,5,,617493,5,,51.62551000000000,13/00097/CPREM,117,environmentservices.request@maldon.gov.uk,Maldon,http://www.maldon.gov.uk,0.81923300000000,CM0 8AA,2013-12-03,fhrs_5_en-GB,5,,FHRS,5
24391,185 High Street,Maldon,Essex,,The Warwick Arms,Pub/bar/nightclub,7843,0,,17109,0,,51.72942900000000,05540/0185/0/000,117,environmentservices.request@maldon.gov.uk,Maldon,http://www.maldon.gov.uk,0.68505400000000,CM9 5BU,2013-09-25,fhrs_5_en-GB,5,,FHRS,0
24392,Purleigh Playing Field Pavilion,Howe Green Road,Purleigh,Chelmsford,The Wells Pavilion,Other catering premises,7841,,,5518,,,51.68375000000000,01920/2026/2/000,117,environmentservices.request@maldon.gov.uk,Maldon,http://www.maldon.gov.uk,0.65704500000000,CM3 6PX,2012-11-27,fhrs_exempt_en-GB,Exempt,,FHRS,
24393,The White Horse,26 High Street,Maldon,Essex,The White Horse,Pub/bar/nightclub,7843,10,,17082,5,,51.73138200000000,05540/0026/0/000,117,environmentservices.request@maldon.gov.uk,Maldon,http://www.maldon.gov.uk,0.67553900000000,CM9 5PJ,2014-10-07,fhrs_4_en-GB,4,,FHRS,0
24394,,,,,Thoroughly Good Cupcakes,Other catering premises,7841,10,,489705,0,,,12/00082/CPREM,117,environmentservices.request@maldon.gov.uk,Maldon,http://www.maldon.gov.uk,,,2012-11-27,fhrs_4_en-GB,4,,FHRS,0
24395,38 The Street,Latchingdon,Chelmsford,Essex,Three Eight Chinese Takeaway,Takeaway/sandwich shop,7844,0,,4493,0,,51.67145400000000,01140/0038/0/000,117,environmentservices.request@maldon.gov.uk,Maldon,http://www.maldon.gov.uk,0.72034400000000,CM3 6JR,2013-10-31,fhrs_5_en-GB,5,,FHRS,0
24396,Burnham Road,Althorne,Chelmsford,Essex,Three Horseshoes,Pub/bar/nightclub,7843,5,,29484,0,,51.65528500000000,09/00085/CPREM,117,environmentservices.request@maldon.gov.uk,Maldon,http://www.maldon.gov.uk,0.76416900000000,CM3 6DP,2013-03-20,fhrs_5_en-GB,5,,FHRS,5
24397,Stow Road,Cold Norton,Chelmsford,Essex,Three Rivers Golf And Country Club,Other catering premises,7841,0,,6157,5,,51.67139400000000,02000/4000/0/000,117,environmentservices.request@maldon.gov.uk,Maldon,http://www.maldon.gov.uk,0.66095000000000,CM3 6RR,2013-08-13,fhrs_4_en-GB,4,,FHRS,10
24398,"Tillingham Bowls Club, Recreation G",Vicarage Lane,Tillingham,Southminster,Tillingham Bowls Club,Other catering premises,7841,,,51375,,,51.69620200000000,11500/3000/0/000,117,environmentservices.request@maldon.gov.uk,Maldon,http://www.maldon.gov.uk,0.87849100000000,CM0 7TW,2009-12-16,fhrs_exempt_en-GB,Exempt,,FHRS,
24399,Sports Pavilion,Vicarage Lane,Tillingham,Southminster,Tillingham Cricket Club,Other catering premises,7841,,,51366,,,51.69620200000000,11500/0000/0/000,117,environmentservices.request@maldon.gov.uk,Maldon,http://www.maldon.gov.uk,0.87849100000000,CM0 7TW,2008-05-15,fhrs_exempt_en-GB,Exempt,,FHRS,
24400,Tillingham Village Hall,Vicarage Lane,Tillingham,Southminster,Tillingham Village Hall,Other catering premises,7841,,,51373,,,51.69620200000000,11500/2007/0/000,117,environmentservices.request@maldon.gov.uk,Maldon,http://www.maldon.gov.uk,0.87849100000000,CM0 7TW,2009-05-13,fhrs_exempt_en-GB,Exempt,,FHRS,
24401,Cairn Toul,19 Ferris Avenue,Cold Norton,Chelmsford,Tina Louise Cupcakes Classics And More,Other catering premises,7841,0,,535848,0,,51.67154400000000,13/00017/CPREM,117,environmentservices.request@maldon.gov.uk,Maldon,http://www.maldon.gov.uk,0.67140200000000,CM3 6HZ,2013-04-04,fhrs_5_en-GB,5,,FHRS,0
24402,Unit 4,Little Marsh Estate,Woodrolfe Road,Tollesbury,Tollesbury Cafe,Restaurant/Cafe/Canteen,1,5,,25303,0,,51.75927300000000,08/00066/CPREM,117,environmentservices.request@maldon.gov.uk,Maldon,http://www.maldon.gov.uk,0.84682200000000,CM9 8SE,2013-11-13,fhrs_5_en-GB,5,,FHRS,5
24403,Tollesbury County Primary School,East Street,Tollesbury,Maldon,Tollesbury County Primary,School/college/university,7845,0,,7492,5,,51.75834100000000,03/00045/CPREM,117,environmentservices.request@maldon.gov.uk,Maldon,http://www.maldon.gov.uk,0.83702400000000,CM9 8QE,2014-03-21,fhrs_5_en-GB,5,,FHRS,5
24404,7D Monometer Business Park,Woodrolfe Road,Tollesbury,Maldon,Tollesbury Cuisine,Takeaway/sandwich shop,7844,10,,700710,0,,51.75852000000000,14/00054/CPREM,117,environmentservices.request@maldon.gov.uk,Maldon,http://www.maldon.gov.uk,0.83967300000000,CM9 8SB,2014-08-27,fhrs_4_en-GB,4,,FHRS,0
24405,Tollesbury Hall,15 Church Street,Tollesbury,Maldon,Tollesbury Darby And Joan Lunch Club,Other catering premises,7841,5,,595272,5,,51.75767300000000,13/00045/CPREM,117,environmentservices.request@maldon.gov.uk,Maldon,http://www.maldon.gov.uk,0.83267800000000,CM9 8QJ,2013-09-17,fhrs_5_en-GB,5,,FHRS,0
24406,Tollesbury Sailing Club,Woodrolfe Road,Tollesbury,Maldon,Tollesbury Sailing Club,Other catering premises,7841,0,,32022,0,,51.75896900000000,09130/4000/0/006,117,environmentservices.request@maldon.gov.uk,Maldon,http://www.maldon.gov.uk,0.84715000000000,CM9 8SE,2014-06-11,fhrs_5_en-GB,5,,FHRS,5
24407,Tolleshunt Darcy C Of E (VA) Primar,Tollesbury Road,Tolleshunt D'Arcy,Maldon,Tolleshunt Darcy C Of E  (VA) Primary School,School/college/university,7845,0,,32216,0,,51.77111900000000,09340/4000/0/000,117,environmentservices.request@maldon.gov.uk,Maldon,http://www.maldon.gov.uk,0.79658400000000,CM9 8UB,2013-09-23,fhrs_5_en-GB,5,,FHRS,5
24408,The Village Hall,Top Road,Tolleshunt Knights,Maldon,Tolleshunt Knights Pre-school,Hospitals/Childcare/Caring Premises,5,,,18339,,,51.79756700000000,06/00109/CPREM,117,environmentservices.request@maldon.gov.uk,Maldon,http://www.maldon.gov.uk,0.77317100000000,CM9 8EU,2014-02-11,fhrs_exempt_en-GB,Exempt,,FHRS,
24409,Top Road,Tolleshunt Knights,Maldon,Essex,Tolleshunt Knights Village Hall,Other catering premises,7841,,,32317,,,51.79756700000000,09450/2002/0/000,117,environmentservices.request@maldon.gov.uk,Maldon,http://www.maldon.gov.uk,0.77317100000000,CM9 8EU,2014-08-20,fhrs_exempt_en-GB,Exempt,,FHRS,
24410,The Tolley Shop,19 Spital Road,Maldon,Essex,Tolley Shop,Retailers - other,4613,,,20747,,,51.72921200000000,06390/0019/0/000,117,environmentservices.request@maldon.gov.uk,Maldon,http://www.maldon.gov.uk,0.67325300000000,CM9 6DY,2012-05-23,fhrs_exempt_en-GB,Exempt,,FHRS,
24411,17 Station Road,Maldon,Essex,,Tommy Tuckers,Restaurant/Cafe/Canteen,1,0,,323776,0,,51.73530900000000,09/00010/CPREM,117,environmentservices.request@maldon.gov.uk,Maldon,http://www.maldon.gov.uk,0.68195600000000,CM9 4LQ,2013-10-08,fhrs_5_en-GB,5,,FHRS,0
24412,Wyelands,Maldon Road,Tiptree,Colchester,Toms Farm Shop,Retailers - other,4613,5,,8778,5,,51.79285000000000,03280/2017/2/000,117,environmentservices.request@maldon.gov.uk,Maldon,http://www.maldon.gov.uk,0.71598500000000,CO5 0QA,2012-04-04,fhrs_5_en-GB,5,,FHRS,5
24413,,,,,Totham Bangers,Manufacturers/packers,7839,0,,9760,5,,,04/00059/CPREM,117,environmentservices.request@maldon.gov.uk,Maldon,http://www.maldon.gov.uk,,,2014-06-03,fhrs_5_en-GB,5,,FHRS,0
24414,Totham Lodge Residential Home,Broad Street Green Road,Great Totham,Maldon,Totham Lodge Residential Home,Hospitals/Childcare/Caring Premises,5,10,,23825,0,,51.76122100000000,07030/2007/2/000,117,environmentservices.request@maldon.gov.uk,Maldon,http://www.maldon.gov.uk,0.68737600000000,CM9 8NU,2014-02-17,fhrs_4_en-GB,4,,FHRS,10
24415,Market Hill,Maldon,Essex,,Town Hall,Other catering premises,7841,,,17313,,,51.73177800000000,05830/4002/2/000,117,environmentservices.request@maldon.gov.uk,Maldon,http://www.maldon.gov.uk,0.67825600000000,CM9 4RL,2009-09-09,fhrs_exempt_en-GB,Exempt,,FHRS,
24416,Units 2 To 3A,Leigh Industrial Estate,The Causeway,Maldon,Travis Perkins,Retailers - other,4613,,,700709,,,51.73774600000000,08110/4000/0/003,117,environmentservices.request@maldon.gov.uk,Maldon,http://www.maldon.gov.uk,0.68236100000000,CM9 4LJ,2014-09-05,fhrs_exempt_en-GB,Exempt,,FHRS,
24417,106 High Street,Maldon,Essex,,Truly Scrumptious,Restaurant/Cafe/Canteen,1,5,,717992,0,,51.73088000000000,14/00078/CPREM,117,environmentservices.request@maldon.gov.uk,Maldon,http://www.maldon.gov.uk,0.68020100000000,CM9 5ET,2014-11-04,fhrs_5_en-GB,5,,FHRS,5
24418,Old Station House,Station Road,Burnham-On-Crouch,Essex,T's Coffee Shop,Takeaway/sandwich shop,7844,5,,644209,0,,51.63151700000000,14/00021/CPREM,117,environmentservices.request@maldon.gov.uk,Maldon,http://www.maldon.gov.uk,0.81551600000000,CM0 8BQ,2014-03-25,fhrs_5_en-GB,5,,FHRS,0
24419,,,,,Twice As Nice,Other catering premises,7841,0,,635113,0,,,14/00010/CPREM,117,environmentservices.request@maldon.gov.uk,Maldon,http://www.maldon.gov.uk,,,2014-01-27,fhrs_5_en-GB,5,,FHRS,0
24420,,,,,Twinkle Little Star Cakery,Other catering premises,7841,5,,565214,0,,,13/00043/CPREM,117,environmentservices.request@maldon.gov.uk,Maldon,http://www.maldon.gov.uk,,,2013-07-02,fhrs_5_en-GB,5,,FHRS,0
24421,10 High Street,Tollesbury,Maldon,Essex,Tyndalls Bakery,Manufacturers/packers,7839,5,,199566,0,,51.75847500000000,08/00042/CPREM,117,environmentservices.request@maldon.gov.uk,Maldon,http://www.maldon.gov.uk,0.83184400000000,CM9 8RG,2013-11-13,fhrs_5_en-GB,5,,FHRS,5
24422,184 - 186 Wantz Road,Maldon,Essex,,UK Fish Bar,Takeaway/sandwich shop,7844,0,,18387,0,,51.72625600000000,06/00119/CPREM,117,environmentservices.request@maldon.gov.uk,Maldon,http://www.maldon.gov.uk,0.68221600000000,CM9 5DG,2014-03-11,fhrs_5_en-GB,5,,FHRS,0
24423,Tyndales Farm,Southend Road,Woodham Mortimer,Essex,Ultimate Hog Roast,Mobile caterer,7846,5,,687697,5,,51.71052600000000,14/00043/CPREM,117,environmentservices.request@maldon.gov.uk,Maldon,http://www.maldon.gov.uk,0.60594900000000,CM9 6TQ,2014-07-08,fhrs_5_en-GB,5,,FHRS,0
24424,,,,,Unique Yummy Cakes,Other catering premises,7841,5,,499821,0,,,12/00014/CPREM,117,environmentservices.request@maldon.gov.uk,Maldon,http://www.maldon.gov.uk,,,2014-08-07,fhrs_5_en-GB,5,,FHRS,0
24425,151 High Street,Maldon,Essex,,USA Fried Chicken,Takeaway/sandwich shop,7844,0,,14613,10,,51.73026700000000,05/00027/CPREM,117,environmentservices.request@maldon.gov.uk,Maldon,http://www.maldon.gov.uk,0.68298900000000,CM9 5BS,2014-03-10,fhrs_4_en-GB,4,,FHRS,10
24426,Goldhanger Road,Heybridge,Maldon,Essex,Vaulty Manor,Other catering premises,7841,0,,16888,0,,51.73861100000000,05370/0001/2/000,117,environmentservices.request@maldon.gov.uk,Maldon,http://www.maldon.gov.uk,0.73960100000000,CM9 8BQ,2012-07-27,fhrs_5_en-GB,5,,FHRS,0
24427,Victoria Inn,Belvedere Road,Burnham on Crouch,Essex,Victoria Inn,Pub/bar/nightclub,7843,5,,9019,5,,51.62402200000000,03540/4000/0/000,117,environmentservices.request@maldon.gov.uk,Maldon,http://www.maldon.gov.uk,0.82240600000000,CM0 8AJ,2013-07-24,fhrs_5_en-GB,5,,FHRS,5
24428,Main Road,Mundon,Maldon,Essex,Victory Hall,Other catering premises,7841,,,28095,,,51.68274300000000,08560/2031/2/000,117,environmentservices.request@maldon.gov.uk,Maldon,http://www.maldon.gov.uk,0.70821600000000,CM9 6NU,2014-08-19,fhrs_exempt_en-GB,Exempt,,FHRS,
24429,Wentworth County Primary School,Viking Road,Maldon,Essex,Viking Junior Academy Ltd,School/college/university,7845,0,,209646,5,,51.72313400000000,10/00060/CPREM,117,environmentservices.request@maldon.gov.uk,Maldon,http://www.maldon.gov.uk,0.67043200000000,CM9 6JN,2013-11-19,fhrs_5_en-GB,5,,FHRS,0
24430,11 High Street,Southminster,Essex,,Village Tandoori,Restaurant/Cafe/Canteen,1,0,,40867,5,,51.66240000000000,10180/0011/0/000,117,environmentservices.request@maldon.gov.uk,Maldon,http://www.maldon.gov.uk,0.82869600000000,CM0 7AA,2013-11-27,fhrs_4_en-GB,4,,FHRS,10
24431,Wonston Road,Southminster,Essex,,Villeneuve House,Hospitals/Childcare/Caring Premises,5,,,14755,,,51.66262100000000,05/00048/CPREM,117,environmentservices.request@maldon.gov.uk,Maldon,http://www.maldon.gov.uk,0.82097300000000,CM0 7FE,2014-10-22,fhrs_exempt_en-GB,Exempt,,FHRS,
24432,Vins Diner,Transport Cafe (A12),Kelvedon Road,Great Braxted,Vinnies Diner,Other catering premises,7841,0,,713533,5,,,14/00076/CPREM,117,environmentservices.request@maldon.gov.uk,Maldon,http://www.maldon.gov.uk,,,2014-09-30,fhrs_5_en-GB,5,,FHRS,5
24433,,,,,Vintage Rose,Other catering premises,7841,0,,489697,0,,,11/00007/CPREM,117,environmentservices.request@maldon.gov.uk,Maldon,http://www.maldon.gov.uk,,,2014-01-20,fhrs_5_en-GB,5,,FHRS,0
24434,70A High Street,Maldon,Essex,,W H Smith Ltd,Retailers - other,4613,,,17093,,,51.73088000000000,05540/0070/A/000,117,environmentservices.request@maldon.gov.uk,Maldon,http://www.maldon.gov.uk,0.68020100000000,CM9 5ET,2013-07-08,fhrs_exempt_en-GB,Exempt,,FHRS,
24435,,,,,W I Market,Other catering premises,7841,0,,14386,0,,,04970/0001/0/000,117,environmentservices.request@maldon.gov.uk,Maldon,http://www.maldon.gov.uk,,,2013-08-05,fhrs_5_en-GB,5,,FHRS,0
24436,Warren Golf Club,Old London Road,Woodham Walter,Maldon,Warren Golf Club,Restaurant/Cafe/Canteen,1,10,,32588,0,,51.72879100000000,09820/4000/0/001,117,environmentservices.request@maldon.gov.uk,Maldon,http://www.maldon.gov.uk,0.60555200000000,CM9 6RW,2013-09-06,fhrs_4_en-GB,4,,FHRS,0
24437,19 Downs Road,Maldon,Essex,,Watership Downs Nursery School,School/college/university,7845,,,489692,,,51.73137200000000,10/00012/CPREM,117,environmentservices.request@maldon.gov.uk,Maldon,http://www.maldon.gov.uk,0.68501000000000,CM9 5HG,2012-10-18,fhrs_exempt_en-GB,Exempt,,FHRS,
24438,Waterside Leisure Park,Main Road,St Lawrence,Southminster,Waterside Leisure Park,Other catering premises,7841,10,,49722,10,,51.71486400000000,11040/4000/0/001,117,environmentservices.request@maldon.gov.uk,Maldon,http://www.maldon.gov.uk,0.82739500000000,CM0 7LY,2014-05-28,fhrs_3_en-GB,3,,FHRS,10
24439,Wentworth County Primary School,Viking Road,Maldon,Essex,Wentworth Primary School,School/college/university,7845,0,,20950,0,,51.72313400000000,06630/4000/2/000,117,environmentservices.request@maldon.gov.uk,Maldon,http://www.maldon.gov.uk,0.67043200000000,CM9 6JN,2014-06-19,fhrs_5_en-GB,5,,FHRS,0
24440,Sunbury Way,Maldon,Essex,,West Maldon Community Centre,Restaurant/Cafe/Canteen,1,,,20852,,,51.71944500000000,06500/0000/2/000,117,environmentservices.request@maldon.gov.uk,Maldon,http://www.maldon.gov.uk,0.67286400000000,CM9 6YH,2008-05-02,fhrs_exempt_en-GB,Exempt,,FHRS,
24441,Wheatlands Nursery,Church Street,Goldhanger,Maldon,Wheatlands Education Nursery,Hospitals/Childcare/Caring Premises,5,,,21156,,,51.74668800000000,06880/4001/0/000,117,environmentservices.request@maldon.gov.uk,Maldon,http://www.maldon.gov.uk,0.75799800000000,CM9 8AS,2014-03-04,fhrs_exempt_en-GB,Exempt,,FHRS,
24442,The White Horse Hotel,North Street,Southminster,Essex,White Horse Hotel,Pub/bar/nightclub,7843,10,,41581,5,,51.66421700000000,10300/0082/0/000,117,environmentservices.request@maldon.gov.uk,Maldon,http://www.maldon.gov.uk,0.83167300000000,CM0 7DG,2010-03-23,fhrs_4_en-GB,4,,FHRS,5
24443,Main Road,Mundon,Maldon,Essex,White Horse Inn,Pub/bar/nightclub,7843,5,,28120,0,,51.69186500000000,08600/4000/0/003,117,environmentservices.request@maldon.gov.uk,Maldon,http://www.maldon.gov.uk,0.70339300000000,CM9 6PB,2013-09-24,fhrs_5_en-GB,5,,FHRS,0
24444,Wycke Hill Business Park,Maldon,Essex,,Wickes,Retailers - other,4613,,,21110,,,51.72184100000000,06830/4000/0/002,117,environmentservices.request@maldon.gov.uk,Maldon,http://www.maldon.gov.uk,0.66359400000000,CM9 6UZ,2014-11-13,fhrs_exempt_en-GB,Exempt,,FHRS,
24445,12 The Street,Wickham Bishops,Witham,Essex,Wickham Bishops Health Foods,Retailers - other,4613,5,,18260,5,,51.77889600000000,06/00094/CPREM,117,environmentservices.request@maldon.gov.uk,Maldon,http://www.maldon.gov.uk,0.67384100000000,CM8 3NN,2012-06-13,fhrs_5_en-GB,5,,FHRS,5
24446,Wicks Manor,Witham Road,Tolleshunt Major,Maldon,Wicks Manor Farm Bed And Breakfast,Hotel/bed & breakfast/guest house,7842,0,,32431,0,,51.77132200000000,09610/2018/2/000,117,environmentservices.request@maldon.gov.uk,Maldon,http://www.maldon.gov.uk,0.75335400000000,CM9 8JU,2014-08-07,fhrs_5_en-GB,5,,FHRS,0
24447,Wicks Manor,Witham Road,Tolleshunt Major,Maldon,Wicks Manor Pork,Mobile caterer,7846,5,,707940,5,,51.77132200000000,14/00063/CPREM,117,environmentservices.request@maldon.gov.uk,Maldon,http://www.maldon.gov.uk,0.75335400000000,CM9 8JU,2014-08-16,fhrs_5_en-GB,5,,FHRS,5
24448,32A High Street,Maldon,Essex,,Wimpy,Restaurant/Cafe/Canteen,1,5,,17083,0,,51.73133500000000,05540/0032/A/000,117,environmentservices.request@maldon.gov.uk,Maldon,http://www.maldon.gov.uk,0.67718700000000,CM9 5PN,2013-11-14,fhrs_5_en-GB,5,,FHRS,5
24449,,,,,With Love By Lilly,Other catering premises,7841,5,,522029,5,,,13/00014/CPREM,117,environmentservices.request@maldon.gov.uk,Maldon,http://www.maldon.gov.uk,,,2013-03-08,fhrs_5_en-GB,5,,FHRS,0
24450,Woodacre,38 D'Arcy Road,Tolleshunt Knights,Maldon,Woodacre Residential Home,Hospitals/Childcare/Caring Premises,5,5,,8747,0,,51.80035600000000,03230/2011/2/000,117,environmentservices.request@maldon.gov.uk,Maldon,http://www.maldon.gov.uk,0.76585700000000,CO5 0RR,2013-09-11,fhrs_5_en-GB,5,,FHRS,5
24451,38 Maldon Road,Burnham on Crouch,Essex,,Woodfords Garage Burnham LLP,Retailers - other,4613,,,194491,,,51.64214700000000,04070/0038/0/000,117,environmentservices.request@maldon.gov.uk,Maldon,http://www.maldon.gov.uk,0.79751300000000,CM0 8NS,2014-08-11,fhrs_exempt_en-GB,Exempt,,FHRS,
24452,Southend Road,Woodham Mortimer,Maldon,Essex,Woodham Mortimer Cricket Club,Other catering premises,7841,,,32576,,,51.71032600000000,09800/2015/2/000,117,environmentservices.request@maldon.gov.uk,Maldon,http://www.maldon.gov.uk,0.60968700000000,CM9 6TG,2008-06-05,fhrs_exempt_en-GB,Exempt,,FHRS,
24453,Post Office Road,Woodham Mortimer,Maldon,Essex,Woodham Mortimer Village Hall,Other catering premises,7841,,,32547,,,51.71230200000000,09740/2008/2/000,117,environmentservices.request@maldon.gov.uk,Maldon,http://www.maldon.gov.uk,0.62435000000000,CM9 6SX,2008-05-20,fhrs_exempt_en-GB,Exempt,,FHRS,
24454,Woodham Walter Church Of England Pr,The Street,Woodham Walter,Maldon,Woodham Walter Church Of England Primary School,School/college/university,7845,5,,32638,0,,51.73201600000000,09910/4000/0/000,117,environmentservices.request@maldon.gov.uk,Maldon,http://www.maldon.gov.uk,0.61787400000000,CM9 6RF,2014-11-04,fhrs_5_en-GB,5,,FHRS,0
24455,Woodham Walter Womens Club,Club Room,Top Road,Woodham Walter,Woodham Walter Supper Club,Other catering premises,7841,5,,700711,0,,51.73232000000000,14/00057/CPREM,117,environmentservices.request@maldon.gov.uk,Maldon,http://www.maldon.gov.uk,0.61711000000000,CM9 6RQ,2014-08-22,fhrs_5_en-GB,5,,FHRS,5
24456,Woodham Walter Village Hall,Rectory Road,Woodham Walter,Maldon,Woodham Walter Village Hall,Other catering premises,7841,,,32625,,,51.73420000000000,09890/2023/0/000,117,environmentservices.request@maldon.gov.uk,Maldon,http://www.maldon.gov.uk,0.61830500000000,CM9 6RE,2014-01-24,fhrs_exempt_en-GB,Exempt,,FHRS,
24457,Toms Farm Shop,Maldon Road,Tiptree,Colchester,Woodlands Tea Rooms,Restaurant/Cafe/Canteen,1,5,,323780,0,,51.79285000000000,12/00019/CPREM,117,environmentservices.request@maldon.gov.uk,Maldon,http://www.maldon.gov.uk,0.71598500000000,CO5 0QA,2014-05-16,fhrs_5_en-GB,5,,FHRS,0
24458,,,,,Wrap & Pizza Stop.Co,Retailers - other,4613,5,,581161,0,,,13/00053/CPREM,117,environmentservices.request@maldon.gov.uk,Maldon,http://www.maldon.gov.uk,,,2014-09-12,fhrs_5_en-GB,5,,FHRS,0
24459,Wrekin Farm,Burnham Road,Althorne,Chelmsford,Wrekin Farm Shop,Manufacturers/packers,7839,5,,907,0,,51.65163300000000,00050/4000/0/009,117,environmentservices.request@maldon.gov.uk,Maldon,http://www.maldon.gov.uk,0.77713300000000,CM3 6DT,2013-09-10,fhrs_5_en-GB,5,,FHRS,5
24460,Plantation Hall Community Centre,Colchester Road,Heybridge,Maldon,WRVS For Darby And Joan,Other catering premises,7841,0,,16427,0,,51.74377000000000,05040/4000/0/002,117,environmentservices.request@maldon.gov.uk,Maldon,http://www.maldon.gov.uk,0.69304700000000,CM9 4AL,2015-01-15,fhrs_5_en-GB,5,,FHRS,0
24461,49B Mill Road,Maldon,Essex,,WRVS Luncheon Club,Other catering premises,7841,0,,17441,0,,51.72621900000000,05960/0049/B/000,117,environmentservices.request@maldon.gov.uk,Maldon,http://www.maldon.gov.uk,0.68502300000000,CM9 5HY,2014-09-02,fhrs_5_en-GB,5,,FHRS,5
24462,Ye Olde White Hart Hotel,The Quay,Burnham On Crouch,Essex,Ye Olde White Hart Hotel,Hotel/bed & breakfast/guest house,7842,5,,13999,0,,51.62561400000000,04580/4000/0/006,117,environmentservices.request@maldon.gov.uk,Maldon,http://www.maldon.gov.uk,0.81529400000000,CM0 8AS,2014-07-23,fhrs_5_en-GB,5,,FHRS,5
24463,Great Totham Primary School,Walden House Road,Great Totham,Maldon,Yellow Brick Road Childrens Centre,Other catering premises,7841,,,349632,,,51.77568200000000,12/00020/CPREM,117,environmentservices.request@maldon.gov.uk,Maldon,http://www.maldon.gov.uk,0.68543700000000,CM9 8PN,2012-04-05,fhrs_exempt_en-GB,Exempt,,FHRS,
24464,,,,,Yourway - Gourmet,Other catering premises,7841,5,,637164,5,,,14/00016/CPREM,117,environmentservices.request@maldon.gov.uk,Maldon,http://www.maldon.gov.uk,,,2014-02-10,fhrs_5_en-GB,5,,FHRS,0
24465,Chelmsford Road,Woodham Mortimer,Maldon,Essex,Zara Indian Cuisine,Restaurant/Cafe/Canteen,1,0,,323778,0,,51.71389500000000,12/00017/CPREM,117,environmentservices.request@maldon.gov.uk,Maldon,http://www.maldon.gov.uk,0.61176000000000,CM9 6TJ,2014-10-01,fhrs_5_en-GB,5,,FHRS,5
24466,The Mayland Mill,Steeple Road,Mayland,Chelmsford,Zara Indian Cuisine,Restaurant/Cafe/Canteen,1,5,,429066,0,,51.68069500000000,09/00025/CPREM,117,environmentservices.request@maldon.gov.uk,Maldon,http://www.maldon.gov.uk,0.77622000000000,CM3 6EG,2013-11-12,fhrs_4_en-GB,4,,FHRS,10
