,addressline1,addressline2,addressline3,addressline4,businessname,businesstype,businesstypeid,confidenceinmanagement,extractdate,fhrsid,hygiene,itemcount,latitude,localauthoritybusinessid,localauthoritycode,localauthorityemailaddress,localauthorityname,localauthoritywebsite,longitude,postcode,ratingdate,ratingkey,ratingvalue,returncode,schemetype,structural
39575,8/12 Town Street,Thaxted,Great Dunmow,Essex,A R Waylett(Thaxted) Ltd,Retailers - other,4613,,,478667,,,51.95376400000000,63039008005,122,environmentalhealth@uttlesford.gov.uk,Uttlesford,http://www.uttlesford.gov.uk,0.34421400000000,CM6 2LA,2014-10-13,fhrs_exempt_en-GB,Exempt,,FHRS,
39576,,,,,A Youngs Fish Ltd,Mobile caterer,7846,5,,478502,0,,,12/00150/MOB,122,environmentalhealth@uttlesford.gov.uk,Uttlesford,http://www.uttlesford.gov.uk,,,2013-12-10,fhrs_5_en-GB,5,,FHRS,0
39577,Abbeyfield House,Jollyboys Lane North,Felsted,Great Dunmow,Abbeyfield Felsted Society Ltd,Hospitals/Childcare/Caring Premises,5,0,,123643,0,,51.85776800000000,52030999261,122,environmentalhealth@uttlesford.gov.uk,Uttlesford,http://www.uttlesford.gov.uk,0.44361200000000,CM6 3DU,2014-10-28,fhrs_5_en-GB,5,,FHRS,0
39578,8 - 10 George Street,Saffron Walden,Essex,,ABC Barbeque,Takeaway/sandwich shop,7844,20,,107612,15,,52.02255700000000,38079010005,122,environmentalhealth@uttlesford.gov.uk,Uttlesford,http://www.uttlesford.gov.uk,0.23980000000000,CB10 1EQ,2014-02-11,fhrs_1_en-GB,1,,FHRS,10
39579,,,,,Abigail's Kitchen,Restaurant/Cafe/Canteen,1,0,,49626,0,,,11014029007,122,environmentalhealth@uttlesford.gov.uk,Uttlesford,http://www.uttlesford.gov.uk,,,2008-06-26,fhrs_5_en-GB,5,,FHRS,0
39580,Acreland Green Bed And Breakfast,Acreland Green,The Street,High Easter,Acreland Green B&B,Hotel/bed & breakfast/guest house,7842,5,,564536,5,,51.80733200000000,5600199904X,122,environmentalhealth@uttlesford.gov.uk,Uttlesford,http://www.uttlesford.gov.uk,0.38292700000000,CM3 1HP,2013-06-28,fhrs_5_en-GB,5,,FHRS,0
39581,1 Market Street,Saffron Walden,Essex,,Adnams Cellar And Kitchen,Retailers - other,4613,,,107703,,,52.02347200000000,38122001039,122,environmentalhealth@uttlesford.gov.uk,Uttlesford,http://www.uttlesford.gov.uk,0.24181300000000,CB10 1HZ,2014-03-25,fhrs_exempt_en-GB,Exempt,,FHRS,
39582,,,,,AGP Trophies,Retailers - other,4613,5,,508019,0,,,12/00180/COM,122,environmentalhealth@uttlesford.gov.uk,Uttlesford,http://www.uttlesford.gov.uk,,,2013-01-24,fhrs_5_en-GB,5,,FHRS,0
39583,73 High Street,Dunmow,Essex,,AJ Coulson Butchers,Retailers - other,4613,10,,118722,10,,51.87096200000000,48037073009,122,environmentalhealth@uttlesford.gov.uk,Uttlesford,http://www.uttlesford.gov.uk,0.36480400000000,CM6 1AE,2012-11-12,fhrs_3_en-GB,3,,FHRS,5
39584,1 Long Border Road,Takeley,Bishops Stortford,Hertfordshire,Alpha LSG Ltd,Manufacturers/packers,7839,,,545797,,,51.87795200000000,12/00012/COM,122,environmentalhealth@uttlesford.gov.uk,Uttlesford,http://www.uttlesford.gov.uk,0.24345800000000,CM24 1RL,2013-05-03,fhrs_exempt_en-GB,Exempt,,FHRS,
39585,The Coach & Horses,Wicken Road,Wicken Bonhunt,Saffron Walden,Ananta,Restaurant/Cafe/Canteen,1,5,,568488,0,,51.97788900000000,31005999376,122,environmentalhealth@uttlesford.gov.uk,Uttlesford,http://www.uttlesford.gov.uk,0.18152300000000,CB11 3UG,2013-11-21,fhrs_5_en-GB,5,,FHRS,0
39586,M K Aero Support,Andrewsfield,Newpasture Lane,Stebbing,Andrewsfield Milli-Bar,Restaurant/Cafe/Canteen,1,10,,478504,10,,51.89038600000000,12/00156/COM,122,environmentalhealth@uttlesford.gov.uk,Uttlesford,http://www.uttlesford.gov.uk,0.44051200000000,CM6 3TD,2014-05-20,fhrs_3_en-GB,3,,FHRS,10
39587,16 Church Street,Great Dunmow,Essex,,Angel And Harp,Pub/bar/nightclub,7843,0,,118678,5,,51.87998600000000,48018999090,122,environmentalhealth@uttlesford.gov.uk,Uttlesford,http://www.uttlesford.gov.uk,0.36501600000000,CM6 2AD,2014-01-08,fhrs_5_en-GB,5,,FHRS,5
39588,,,,,Anna Shutes Catering,Restaurant/Cafe/Canteen,1,5,,478452,0,,,08007999019,122,environmentalhealth@uttlesford.gov.uk,Uttlesford,http://www.uttlesford.gov.uk,,,2013-11-27,fhrs_5_en-GB,5,,FHRS,5
39589,Unit 5A,Shire Hill,Saffron Walden,Essex,Antique Attic,Restaurant/Cafe/Canteen,1,0,,482224,0,,52.02070400000000,12/00169/COM,122,environmentalhealth@uttlesford.gov.uk,Uttlesford,http://www.uttlesford.gov.uk,0.25581300000000,CB11 3AQ,2012-11-20,fhrs_5_en-GB,5,,FHRS,5
39590,Stansted Hall,Burton End,Stansted,Essex,Arthur Findlay College,Restaurant/Cafe/Canteen,1,0,,92399,5,,51.89485000000000,26004999369,122,environmentalhealth@uttlesford.gov.uk,Uttlesford,http://www.uttlesford.gov.uk,0.21252700000000,CM24 8UD,2014-07-22,fhrs_4_en-GB,4,,FHRS,10
39591,Ashdon Post Office Stores,5 Crown Hill,Bartlow Road,Ashdon,Ashdon  Stores,Retailers - other,4613,0,,6163,5,,,0200700500X,122,environmentalhealth@uttlesford.gov.uk,Uttlesford,http://www.uttlesford.gov.uk,,,2014-05-07,fhrs_5_en-GB,5,,FHRS,5
39592,Hill Farm Nursery School,Ashdon,Saffron Walden,Essex,Ashdon Childrens Nursery,School/college/university,7845,5,,478419,5,,52.05260100000000,0201599950,122,environmentalhealth@uttlesford.gov.uk,Uttlesford,http://www.uttlesford.gov.uk,0.31420300000000,CB10 2ET,2014-12-01,fhrs_5_en-GB,5,,FHRS,5
39593,Crown Hill,Ashdon,Saffron Walden,Essex,Ashdon Primary School,School/college/university,7845,0,,6164,0,,52.05432500000000,0200799903X,122,environmentalhealth@uttlesford.gov.uk,Uttlesford,http://www.uttlesford.gov.uk,0.31204600000000,CB10 2HB,2015-01-29,fhrs_5_en-GB,5,,FHRS,0
39594,Crown Hill,Ashdon,Saffron Walden,Essex,Ashdon Village Hall,Restaurant/Cafe/Canteen,1,,,615791,,,52.05489200000000,0200799904,122,environmentalhealth@uttlesford.gov.uk,Uttlesford,http://www.uttlesford.gov.uk,0.31290700000000,CB10 2HA,2013-12-02,fhrs_exempt_en-GB,Exempt,,FHRS,
39595,Ashfields Carriage Centre,Cuckoos Lane,Great Canfield,Dunmow,Ashfields Carriage Centre,Restaurant/Cafe/Canteen,1,5,,115827,5,,51.84759000000000,4500199902,122,environmentalhealth@uttlesford.gov.uk,Uttlesford,http://www.uttlesford.gov.uk,0.30314800000000,CM6 1LD,2014-05-02,fhrs_5_en-GB,5,,FHRS,5
39596,62 High Street,Saffron Walden,Essex,,Ask Italian,Restaurant/Cafe/Canteen,1,0,,107639,0,,52.02195000000000,38090062018,122,environmentalhealth@uttlesford.gov.uk,Uttlesford,http://www.uttlesford.gov.uk,0.23955100000000,CB10 1EE,2014-09-16,fhrs_5_en-GB,5,,FHRS,5
39597,Audley End House Restaurant,Audley End House,Saffron Walden,Essex,Audley End House Restaurant,Restaurant/Cafe/Canteen,1,5,,107536,10,,52.02083400000000,3801199905,122,environmentalhealth@uttlesford.gov.uk,Uttlesford,http://www.uttlesford.gov.uk,0.22059100000000,CB11 4JF,2013-04-25,fhrs_4_en-GB,4,,FHRS,5
39598,The Station,Station Road,Wendens Ambo,Saffron Walden,Audley End News,Retailers - other,4613,10,,478550,5,,52.00565200000000,29012999081,122,environmentalhealth@uttlesford.gov.uk,Uttlesford,http://www.uttlesford.gov.uk,0.20829900000000,CB11 4LB,2013-03-11,fhrs_4_en-GB,4,,FHRS,0
39599,Audley End Miniature Railway,C/O Audley End Estate Office,Bruncketts,Wendens Ambo,Audley End Railway Shop,Retailers - other,4613,5,,77005,0,,52.01881200000000,18001999149,122,environmentalhealth@uttlesford.gov.uk,Uttlesford,http://www.uttlesford.gov.uk,0.22052000000000,CB11 4JB,2012-10-30,fhrs_5_en-GB,5,,FHRS,0
39600,The Axe & Compasses,Dunmow Road,Aythorpe Roding,Dunmow,Axe And Compasses,Pub/bar/nightclub,7843,5,,111693,5,,51.81286100000000,41002999332,122,environmentalhealth@uttlesford.gov.uk,Uttlesford,http://www.uttlesford.gov.uk,0.30818100000000,CM6 1PP,2014-05-29,fhrs_4_en-GB,4,,FHRS,10
39601,The Axe & Compasses,Main Street,Arkesden,Saffron Walden,Axe And Compasses,Pub/bar/nightclub,7843,0,,478415,5,,51.98822600000000,01001999231,122,environmentalhealth@uttlesford.gov.uk,Uttlesford,http://www.uttlesford.gov.uk,0.15882400000000,CB11 4EX,2015-01-05,fhrs_5_en-GB,5,,FHRS,5
39602,Rumbles Cottage,Braintree Road,Felsted,Dunmow,Bakers Deli Tearoom,Restaurant/Cafe/Canteen,1,5,,369159,5,,51.85672600000000,5200599958X,122,environmentalhealth@uttlesford.gov.uk,Uttlesford,http://www.uttlesford.gov.uk,0.43446400000000,CM6 3DJ,2014-03-05,fhrs_5_en-GB,5,,FHRS,5
39603,2A Market Place,Dunmow,,,Bakewell,Retailers - other,4613,5,,536247,5,,51.87322500000000,13/00008/COM,122,environmentalhealth@uttlesford.gov.uk,Uttlesford,http://www.uttlesford.gov.uk,0.36227900000000,CM6 1AT,2013-03-20,fhrs_5_en-GB,5,,FHRS,0
39604,55 High Street,Dunmow,Essex,,Balti Spice,Restaurant/Cafe/Canteen,1,20,,118718,20,,51.87096200000000,48037055000,122,environmentalhealth@uttlesford.gov.uk,Uttlesford,http://www.uttlesford.gov.uk,0.36480400000000,CM6 1AE,2014-10-29,fhrs_0_en-GB,0,,FHRS,20
39605,14B Hill Street,Saffron Walden,Essex,,Bangkok Thai Restaurant,Restaurant/Cafe/Canteen,1,5,,107647,10,,52.02345000000000,38093014020,122,environmentalhealth@uttlesford.gov.uk,Uttlesford,http://www.uttlesford.gov.uk,0.24200200000000,CB10 1JD,2014-11-13,fhrs_3_en-GB,3,,FHRS,10
39606,Park Street,Thaxted,Great Dunmow,Essex,Baptist Church,Restaurant/Cafe/Canteen,1,,,478665,,,,63026999210,122,environmentalhealth@uttlesford.gov.uk,Uttlesford,http://www.uttlesford.gov.uk,,,2011-09-23,fhrs_exempt_en-GB,Exempt,,FHRS,
39607,25 Barnards Field,Thaxted,Dunmow,Essex,Barn Babies Nursery School,School/college/university,7845,0,,131538,5,,51.95363400000000,6305502500,122,environmentalhealth@uttlesford.gov.uk,Uttlesford,http://www.uttlesford.gov.uk,0.35119300000000,CM6 2LY,2013-03-07,fhrs_5_en-GB,5,,FHRS,0
39608,Pledgdon Barn,Pledgdon Hall,Henham,Bishop's Stortford,Barn Services Ltd,Restaurant/Cafe/Canteen,1,5,,67338,5,,51.92398700000000,1501999925,122,environmentalhealth@uttlesford.gov.uk,Uttlesford,http://www.uttlesford.gov.uk,0.25602100000000,CM22 6BJ,2013-04-16,fhrs_5_en-GB,5,,FHRS,5
39609,C/O Mr R Tyler,52 Watts Close,Barnston Dunmow,Essex,Barnston Football Club,Pub/bar/nightclub,7843,0,,478592,0,,,43016052008,122,environmentalhealth@uttlesford.gov.uk,Uttlesford,http://www.uttlesford.gov.uk,,,2013-11-25,fhrs_5_en-GB,5,,FHRS,5
39610,Chelmsford Road,Barnston,Dunmow,Essex,Barnston Village Hall,Restaurant/Cafe/Canteen,1,,,478589,,,51.85333600000000,43004999218,122,environmentalhealth@uttlesford.gov.uk,Uttlesford,http://www.uttlesford.gov.uk,0.38525600000000,CM6 1LR,2012-09-07,fhrs_exempt_en-GB,Exempt,,FHRS,
39611,81B High Street,Great Dunmow,Essex,,Bay Leaf Tandoori,Restaurant/Cafe/Canteen,1,10,,118723,10,,51.87096200000000,48037081028,122,environmentalhealth@uttlesford.gov.uk,Uttlesford,http://www.uttlesford.gov.uk,0.36480400000000,CM6 1AE,2012-03-20,fhrs_3_en-GB,3,,FHRS,10
39612,6 - 7 Market Place,Saffron Walden,Essex,,Beales,Restaurant/Cafe/Canteen,1,5,,482220,10,,52.02409600000000,12/00079/COM,122,environmentalhealth@uttlesford.gov.uk,Uttlesford,http://www.uttlesford.gov.uk,0.24161100000000,CB10 1HR,2014-01-06,fhrs_4_en-GB,4,,FHRS,5
39613,Bell Language School,South Road,Saffron Walden,Essex,Bell Day Nursery,School/college/university,7845,5,,107806,0,,52.01604000000000,38175999055A,122,environmentalhealth@uttlesford.gov.uk,Uttlesford,http://www.uttlesford.gov.uk,0.25049200000000,CB11 3ED,2014-06-30,fhrs_5_en-GB,5,,FHRS,5
39614,Bendysh Hall,Ashdon Road,Radwinter,Saffron Walden,Bendysh Hall Bed And Breakfast,Hotel/bed & breakfast/guest house,7842,5,,637178,0,,52.02591400000000,14/00012/COM,122,environmentalhealth@uttlesford.gov.uk,Uttlesford,http://www.uttlesford.gov.uk,0.33998300000000,CB10 2UA,2014-02-26,fhrs_5_en-GB,5,,FHRS,0
39615,Bentfield Cp School,Rainsford Road,Stansted,Essex,Bentfield Primary School,School/college/university,7845,0,,91150,0,,51.91006100000000,25054999019,122,environmentalhealth@uttlesford.gov.uk,Uttlesford,http://www.uttlesford.gov.uk,0.19496900000000,CM24 8DX,2015-01-07,fhrs_5_en-GB,5,,FHRS,5
39616,Bentfield Cp School,Rainsford Road,Stansted,Essex,Bentfield Primary School Nursery,School/college/university,7845,0,,704736,5,,51.91006100000000,14/00123/COM,122,environmentalhealth@uttlesford.gov.uk,Uttlesford,http://www.uttlesford.gov.uk,0.19496900000000,CM24 8DX,2015-01-06,fhrs_5_en-GB,5,,FHRS,0
39617,Village Hall,Berden,Bishops Stortford,Herts,Berden Village Hall,Restaurant/Cafe/Canteen,1,,,478425,,,,03014999016,122,environmentalhealth@uttlesford.gov.uk,Uttlesford,http://www.uttlesford.gov.uk,,,2012-08-20,fhrs_exempt_en-GB,Exempt,,FHRS,
39618,,,,,Big D's Diner,Mobile caterer,7846,10,,637177,5,,,14/00011/COM,122,environmentalhealth@uttlesford.gov.uk,Uttlesford,http://www.uttlesford.gov.uk,,,2014-10-23,fhrs_3_en-GB,3,,FHRS,10
39619,,,,,Bigods Hall Farm Produce,Restaurant/Cafe/Canteen,1,5,,587010,0,,,13/00211/COM,122,environmentalhealth@uttlesford.gov.uk,Uttlesford,http://www.uttlesford.gov.uk,,,2013-09-18,fhrs_5_en-GB,5,,FHRS,0
39620,Chelmsford Road,Felsted,Dunmow,Essex,Bings Hall Residential Home,Hospitals/Childcare/Caring Premises,5,5,,123623,5,,51.85505500000000,5201199937,122,environmentalhealth@uttlesford.gov.uk,Uttlesford,http://www.uttlesford.gov.uk,0.43392400000000,CM6 3EP,2014-07-23,fhrs_4_en-GB,4,,FHRS,10
39621,Village Hall,207 Birchanger Lane,Birchanger,Bishops Stortford,Birchanger Buddies,Hospitals/Childcare/Caring Premises,5,5,,478427,5,,51.88363900000000,04001207001,122,environmentalhealth@uttlesford.gov.uk,Uttlesford,http://www.uttlesford.gov.uk,0.19125500000000,CM23 5QJ,2012-08-01,fhrs_5_en-GB,5,,FHRS,5
39622,Birchanger Primary School,Birchwood,Birchanger,Bishops Stortford,Birchanger C Of E (VC) Primary School,School/college/university,7845,5,,478429,0,,51.88443700000000,04002999017,122,environmentalhealth@uttlesford.gov.uk,Uttlesford,http://www.uttlesford.gov.uk,0.19282000000000,CM23 5QL,2013-09-19,fhrs_5_en-GB,5,,FHRS,0
39623,R/O Birchanger Primary School,Birchwood,Birchanger,Bishops Stortford,Birchanger Nursery School,School/college/university,7845,0,,478430,0,,51.88443700000000,04002999018,122,environmentalhealth@uttlesford.gov.uk,Uttlesford,http://www.uttlesford.gov.uk,0.19282000000000,CM23 5QL,2012-02-28,fhrs_5_en-GB,5,,FHRS,0
39624,229 Birchanger Lane,Birchanger,Bishops Stortford,Hertfordshire,Birchanger Social Club,Pub/bar/nightclub,7843,10,,13354,10,,51.88363900000000,0400199903X,122,environmentalhealth@uttlesford.gov.uk,Uttlesford,http://www.uttlesford.gov.uk,0.19125500000000,CM23 5QJ,2013-09-13,fhrs_3_en-GB,3,,FHRS,10
39625,Unit 1,Zone A,Chelmsford Road Industrial Estate,Dunmow,Birchwood Price Tools,Retailers - other,4613,,,704727,,,51.86485800000000,14/00100/COM,122,environmentalhealth@uttlesford.gov.uk,Uttlesford,http://www.uttlesford.gov.uk,0.37362000000000,CM6 1XG,2014-09-18,fhrs_exempt_en-GB,Exempt,,FHRS,
39626,7 George Street,Saffron Walden,Essex,,Bites Sandwich Bar,Restaurant/Cafe/Canteen,1,5,,107610,5,,52.02278600000000,38079007004,122,environmentalhealth@uttlesford.gov.uk,Uttlesford,http://www.uttlesford.gov.uk,0.23953400000000,CB10 1EW,2013-08-05,fhrs_5_en-GB,5,,FHRS,5
39627,Sworders Fine Art Auctioneers,Cambridge Road,Stansted,Essex,Bizzi Beans,Restaurant/Cafe/Canteen,1,0,,91060,0,,51.91543900000000,2501199927,122,environmentalhealth@uttlesford.gov.uk,Uttlesford,http://www.uttlesford.gov.uk,0.20168800000000,CM24 8GE,2013-09-04,fhrs_5_en-GB,5,,FHRS,5
39628,Bed & Breakfast,Blatches Farm,Braintree Road,Little Dunmow,Blatches Farm B & B,Hotel/bed & breakfast/guest house,7842,5,,595418,5,,51.87620500000000,13/00198/COM,122,environmentalhealth@uttlesford.gov.uk,Uttlesford,http://www.uttlesford.gov.uk,0.42398000000000,CM6 3AL,2013-10-15,fhrs_5_en-GB,5,,FHRS,0
39629,High Street,Hempstead,Saffron Walden,Essex,Bluebell Inn,Pub/bar/nightclub,7843,5,,63515,5,,52.01658200000000,14008999353,122,environmentalhealth@uttlesford.gov.uk,Uttlesford,http://www.uttlesford.gov.uk,0.37849700000000,CB10 2PD,2014-09-24,fhrs_2_en-GB,2,,FHRS,15
39630,Folly Farmhouse,Stortford Road,Great Dunmow,Essex,Bob The Burger (Trading On A120 West Bound),Retailers - other,4613,5,,612647,5,,51.87193000000000,13/00248/COM,122,environmentalhealth@uttlesford.gov.uk,Uttlesford,http://www.uttlesford.gov.uk,0.34787200000000,CM6 1SG,2014-02-27,fhrs_5_en-GB,5,,FHRS,0
39631,5 Bolford Street,Thaxted,Dunmow,Essex,Bolford Street Hall,Restaurant/Cafe/Canteen,1,,,478661,,,51.95357300000000,6300400500X,122,environmentalhealth@uttlesford.gov.uk,Uttlesford,http://www.uttlesford.gov.uk,0.33982300000000,CM6 2PY,2013-06-20,fhrs_exempt_en-GB,Exempt,,FHRS,
39632,Unit 7 Building 3070,The Undercroft,Terminal Road North,Stansted,Boots The Chenist,Retailers - other,4613,0,,729258,0,,51.88994900000000,14/00092/COM,122,environmentalhealth@uttlesford.gov.uk,Uttlesford,http://www.uttlesford.gov.uk,0.26172800000000,CM24 1RW,2015-01-07,fhrs_5_en-GB,5,,FHRS,0
39633,13 Market Place,Saffron Walden,Essex,,Boots UK Ltd,Retailers - other,4613,,,107696,,,52.02409600000000,3811901300X,122,environmentalhealth@uttlesford.gov.uk,Uttlesford,http://www.uttlesford.gov.uk,0.24161100000000,CB10 1HR,2012-05-04,fhrs_exempt_en-GB,Exempt,,FHRS,
39634,48 High Street,Dunmow,Essex,,Bosphorus Takeaway,Takeaway/sandwich shop,7844,5,,118716,5,,51.87069900000000,48037048024,122,environmentalhealth@uttlesford.gov.uk,Uttlesford,http://www.uttlesford.gov.uk,0.36447100000000,CM6 1AW,2014-10-26,fhrs_5_en-GB,5,,FHRS,5
39635,Petrol Filling Station,Southgate,Thremhall Avenue,Stansted Airport,BP Service Station,Retailers - other,4613,0,,92429,0,,,2602199903,122,environmentalhealth@uttlesford.gov.uk,Uttlesford,http://www.uttlesford.gov.uk,,CM24 1AA,2014-11-28,fhrs_5_en-GB,5,,FHRS,5
39636,Hft Bradley Resource Centre,Pound Lane,Ugley,Bishops Stortford,Bradbury Resource Centre,Restaurant/Cafe/Canteen,1,5,,586905,0,,51.92219600000000,13/00163/COM,122,environmentalhealth@uttlesford.gov.uk,Uttlesford,http://www.uttlesford.gov.uk,0.20533500000000,CM22 6HP,2013-09-19,fhrs_5_en-GB,5,,FHRS,5
39637,6 Browns End Road,Broxted,Dunmow,Essex,Brenda's Buns,Restaurant/Cafe/Canteen,1,,,667219,,,51.90887800000000,14/00068/COM,122,environmentalhealth@uttlesford.gov.uk,Uttlesford,http://www.uttlesford.gov.uk,0.28594200000000,CM6 2BQ,2014-05-28,fhrs_exempt_en-GB,Exempt,,FHRS,
39638,Bretts Farm Market,Chelmsford Road,White Roding,Dunmow,Bretts Bar And Bistro,Restaurant/Cafe/Canteen,1,10,,132823,5,,51.79910000000000,65003999216,122,environmentalhealth@uttlesford.gov.uk,Uttlesford,http://www.uttlesford.gov.uk,0.26857800000000,CM6 1RF,2014-02-06,fhrs_4_en-GB,4,,FHRS,5
39639,,,,,Brick House Farm Produce,Manufacturers/packers,7839,5,,536886,0,,,52013999364,122,environmentalhealth@uttlesford.gov.uk,Uttlesford,http://www.uttlesford.gov.uk,,,2013-03-21,fhrs_5_en-GB,5,,FHRS,0
39640,Passenger Terminal,Terminal Road North,Stansted Airport,Essex,Bridge Bar,Restaurant/Cafe/Canteen,1,0,,130751,5,,,62069999025,122,environmentalhealth@uttlesford.gov.uk,Uttlesford,http://www.uttlesford.gov.uk,,CM24 8QT,2015-01-07,fhrs_4_en-GB,4,,FHRS,10
39641,Post Office Stores,1 High Street,Hatfield Broad Oak,Bishops Stortford,Broad Oak Stores,Retailers - other,4613,10,,126162,10,,51.82616800000000,55019001007,122,environmentalhealth@uttlesford.gov.uk,Uttlesford,http://www.uttlesford.gov.uk,0.24181300000000,CM22 7HF,2013-09-02,fhrs_3_en-GB,3,,FHRS,5
39642,Broome End House,Pines Hill,Birchanger,Bishops Stortford,Broome End Care Centre,Hospitals/Childcare/Caring Premises,5,5,,478435,5,,51.89870000000000,04011999105,122,environmentalhealth@uttlesford.gov.uk,Uttlesford,http://www.uttlesford.gov.uk,0.18937200000000,CM24 8EX,2015-01-23,fhrs_5_en-GB,5,,FHRS,0
39643,Market Place,Saffron Walden,Essex,,Brown Bread,Retailers - other,4613,10,,478495,5,,,12/00126/COM,122,environmentalhealth@uttlesford.gov.uk,Uttlesford,http://www.uttlesford.gov.uk,,,2012-06-19,fhrs_4_en-GB,4,,FHRS,0
39644,,,,,Buffy Play Bus,Mobile caterer,7846,0,,644220,0,,,14/00036/MOB,122,environmentalhealth@uttlesford.gov.uk,Uttlesford,http://www.uttlesford.gov.uk,,,2014-04-03,fhrs_5_en-GB,5,,FHRS,0
39645,Burger King,Landside Terminal Building,Bassingbourn Road,Stansted Airport,Burger King,Restaurant/Cafe/Canteen,1,5,,130767,5,,,6206999957,122,environmentalhealth@uttlesford.gov.uk,Uttlesford,http://www.uttlesford.gov.uk,,CM24 8QW,2014-06-11,fhrs_5_en-GB,5,,FHRS,5
39646,Stansted Airport,Terminal Road North,Stansted,Bishops Stortford,Burger King,Restaurant/Cafe/Canteen,1,0,,729262,0,,51.88816100000000,15/00001/COM,122,environmentalhealth@uttlesford.gov.uk,Uttlesford,http://www.uttlesford.gov.uk,0.25835400000000,CM24 1QW,2015-01-07,fhrs_5_en-GB,5,,FHRS,5
39647,Welcome Break,Old Dunmow Road,Birchanger,"Bishops Stortford, Herts",Burger King,Restaurant/Cafe/Canteen,1,0,,13357,0,,51.87160200000000,0400599914B,122,environmentalhealth@uttlesford.gov.uk,Uttlesford,http://www.uttlesford.gov.uk,0.19488300000000,CM23 5QZ,2014-02-14,fhrs_4_en-GB,4,,FHRS,10
39648,Buriton House,Station Road,Newport,Saffron Walden,Buriton House B & B,Hotel/bed & breakfast/guest house,7842,5,,622700,0,,51.98007900000000,13/00254/COM,122,environmentalhealth@uttlesford.gov.uk,Uttlesford,http://www.uttlesford.gov.uk,0.21403100000000,CB11 3PL,2013-12-16,fhrs_5_en-GB,5,,FHRS,0
39649,9 King Street,Saffron Walden,Essex,,Burton & Son Family Butchers,Manufacturers/packers,7839,5,,107671,0,,52.02340300000000,38100009007,122,environmentalhealth@uttlesford.gov.uk,Uttlesford,http://www.uttlesford.gov.uk,0.24070200000000,CB10 1HE,2013-02-07,fhrs_4_en-GB,4,,FHRS,10
39650,Bury Lodge Restaurant,Bury Lodge Lane,Stansted,Essex,Bury Lodge Hotel,Hotel/bed & breakfast/guest house,7842,5,,92398,5,,51.88616600000000,26004999342,122,environmentalhealth@uttlesford.gov.uk,Uttlesford,http://www.uttlesford.gov.uk,0.21332100000000,CM24 8QE,2014-06-16,fhrs_4_en-GB,4,,FHRS,10
39651,Bush House,Bush Road,Little Sampford,Saffron Walden,Bush Farm B & B,Hotel/bed & breakfast/guest house,7842,5,,585651,5,,51.98661800000000,13/00174/COM,122,environmentalhealth@uttlesford.gov.uk,Uttlesford,http://www.uttlesford.gov.uk,0.37185500000000,CB10 2RY,2013-08-20,fhrs_5_en-GB,5,,FHRS,0
39652,Carver Barracks,Wimbish,Saffron Walden,Essex,Busy Bees Childcare Centre,School/college/university,7845,5,,101256,0,,51.98757900000000,3300199908,122,environmentalhealth@uttlesford.gov.uk,Uttlesford,http://www.uttlesford.gov.uk,0.28415100000000,CB10 2YA,2014-01-28,fhrs_5_en-GB,5,,FHRS,5
39653,Butlers,Stansted Business Park,First Avenue,Stansted,Butlers Mobile,Mobile caterer,7846,10,,130773,10,,51.88301400000000,6207399905,122,environmentalhealth@uttlesford.gov.uk,Uttlesford,http://www.uttlesford.gov.uk,0.21884800000000,CM24 1RY,2014-01-28,fhrs_3_en-GB,3,,FHRS,10
39654,,,,,Butterflies Cup Cakes And Pies,Restaurant/Cafe/Canteen,1,5,,681297,10,,,14/00078/COM,122,environmentalhealth@uttlesford.gov.uk,Uttlesford,http://www.uttlesford.gov.uk,,,2014-06-24,fhrs_4_en-GB,4,,FHRS,5
39655,Unit 2,Stansted House,Shire Hill,Saffron Walden,Cafe & Pizzeria  Buon Appetito,Restaurant/Cafe/Canteen,1,10,,612327,10,,52.02070400000000,13/00235/COM,122,environmentalhealth@uttlesford.gov.uk,Uttlesford,http://www.uttlesford.gov.uk,0.25581300000000,CB11 3AQ,2013-11-19,fhrs_3_en-GB,3,,FHRS,5
39656,Passenger Terminal,Terminal Road North,Stansted,Bishops Stortford,Cafe Balzar,Restaurant/Cafe/Canteen,1,5,,637181,5,,51.88994900000000,14/00030/COM,122,environmentalhealth@uttlesford.gov.uk,Uttlesford,http://www.uttlesford.gov.uk,0.26172800000000,CM24 1RW,2014-02-25,fhrs_5_en-GB,5,,FHRS,5
39657,17 George Street,Saffron Walden,Essex,,Cafe Coucou,Restaurant/Cafe/Canteen,1,5,,107613,5,,52.02278600000000,3807901700X,122,environmentalhealth@uttlesford.gov.uk,Uttlesford,http://www.uttlesford.gov.uk,0.23953400000000,CB10 1EW,2014-03-25,fhrs_4_en-GB,4,,FHRS,10
39658,Coach Station,Stansted Airport,Essex,,Cafe Nero,Restaurant/Cafe/Canteen,1,0,,216294,0,,51.88816100000000,6204399935,122,environmentalhealth@uttlesford.gov.uk,Uttlesford,http://www.uttlesford.gov.uk,0.25835400000000,CM24 1QW,2014-01-02,fhrs_5_en-GB,5,,FHRS,5
39659,Thremhall Park,Start Hill,Bishops Stortford,Herts,Cafe Park,Restaurant/Cafe/Canteen,1,0,,92420,0,,51.87054800000000,26017999037,122,environmentalhealth@uttlesford.gov.uk,Uttlesford,http://www.uttlesford.gov.uk,0.22228700000000,CM22 7WE,2014-01-20,fhrs_5_en-GB,5,,FHRS,0
39660,Enterprise House,Bassingbourn Road,Takeley,Stansted,Caffe Nero,Restaurant/Cafe/Canteen,1,5,,732557,0,,51.88816100000000,14/00035/COM,122,environmentalhealth@uttlesford.gov.uk,Uttlesford,http://www.uttlesford.gov.uk,0.25835300000000,CM24 1QW,2015-01-21,fhrs_5_en-GB,5,,FHRS,0
39661,Passenger Terminal,Terminal Road North,Stansted,Bishops Stortford,Caffe Piccolo,Restaurant/Cafe/Canteen,1,5,,522299,5,,51.88994900000000,12/00100/COM,122,environmentalhealth@uttlesford.gov.uk,Uttlesford,http://www.uttlesford.gov.uk,0.26172800000000,CM24 1RW,2013-02-12,fhrs_5_en-GB,5,,FHRS,5
39662,19 Honey Road,Little Canfield,Dunmow,Essex,Cake Gems,Restaurant/Cafe/Canteen,1,0,,690850,0,,51.86960600000000,14/00074/COM,122,environmentalhealth@uttlesford.gov.uk,Uttlesford,http://www.uttlesford.gov.uk,0.28458900000000,CM6 1FF,2014-07-28,fhrs_5_en-GB,5,,FHRS,0
39663,,,,,Cakes By Julia Lisa,Retailers - other,4613,0,,522303,0,,,13/00016/COM,122,environmentalhealth@uttlesford.gov.uk,Uttlesford,http://www.uttlesford.gov.uk,,,2013-02-27,fhrs_5_en-GB,5,,FHRS,0
39664,,,,,Cakes By Sam,Restaurant/Cafe/Canteen,1,5,,589844,0,,,13/00209/COM,122,environmentalhealth@uttlesford.gov.uk,Uttlesford,http://www.uttlesford.gov.uk,,,2013-10-02,fhrs_5_en-GB,5,,FHRS,0
39665,,,,,Catering Bites Ltd,Restaurant/Cafe/Canteen,1,5,,478559,5,,,38022008001,122,environmentalhealth@uttlesford.gov.uk,Uttlesford,http://www.uttlesford.gov.uk,,,2013-09-13,fhrs_5_en-GB,5,,FHRS,5
39666,,,,,Catherines Cottage Cuisine,Restaurant/Cafe/Canteen,1,5,,121285,0,,,50010999175,122,environmentalhealth@uttlesford.gov.uk,Uttlesford,http://www.uttlesford.gov.uk,,,2013-03-28,fhrs_5_en-GB,5,,FHRS,0
39667,Thaxted Market,Town Street,Thaxted,Great Dunmow,Cheese Wheeler,Retailers - other,4613,10,,478496,0,,51.95321600000000,12/00127/COM,122,environmentalhealth@uttlesford.gov.uk,Uttlesford,http://www.uttlesford.gov.uk,0.34421400000000,CM6 2LD,2012-05-29,fhrs_4_en-GB,4,,FHRS,0
39668,1/3 East Street,Saffron Walden,Essex,,China China Restaurant,Restaurant/Cafe/Canteen,1,5,,107593,0,,52.02302700000000,38060001000,122,environmentalhealth@uttlesford.gov.uk,Uttlesford,http://www.uttlesford.gov.uk,0.24485200000000,CB10 1LS,2013-11-22,fhrs_5_en-GB,5,,FHRS,5
39669,3 Market Walk,Saffron Walden,Essex,,Chisnall's Deli,Retailers - other,4613,5,,107707,5,,52.02302400000000,3812399902X,122,environmentalhealth@uttlesford.gov.uk,Uttlesford,http://www.uttlesford.gov.uk,0.24074100000000,CB10 1JZ,2014-10-01,fhrs_4_en-GB,4,,FHRS,10
39670,,,,,Choccy Heaven,Restaurant/Cafe/Canteen,1,5,,631872,0,,,13/00207/COM,122,environmentalhealth@uttlesford.gov.uk,Uttlesford,http://www.uttlesford.gov.uk,,,2013-09-30,fhrs_5_en-GB,5,,FHRS,0
39671,Chrishall Primary School,Palmers Lane,Chrishall,Royston,Chrishall Holy Trinity & St Nicholas C Of E Primary School,School/college/university,7845,5,,478451,0,,52.03434400000000,07016999017,122,environmentalhealth@uttlesford.gov.uk,Uttlesford,http://www.uttlesford.gov.uk,0.10533600000000,SG8 8QE,2013-02-13,fhrs_5_en-GB,5,,FHRS,0
39672,Chrishall Methodist Church,Crawley End Road,Chrishall,Royston,Chrishall Village Hall,Restaurant/Cafe/Canteen,1,,,478449,,,52.03849500000000,0700899942,122,environmentalhealth@uttlesford.gov.uk,Uttlesford,http://www.uttlesford.gov.uk,0.10701900000000,SG8 8QJ,2011-10-21,fhrs_exempt_en-GB,Exempt,,FHRS,
39673,17 Cambridge Road,Stansted,,,Churchill's,Takeaway/sandwich shop,7844,0,,637176,0,,51.90523200000000,14/00010/COM,122,environmentalhealth@uttlesford.gov.uk,Uttlesford,http://www.uttlesford.gov.uk,0.19403600000000,CM24 8BX,2014-02-24,fhrs_5_en-GB,5,,FHRS,5
39674,,,,,Claire's Cakes,Restaurant/Cafe/Canteen,1,5,,585652,0,,,13/00176/COM,122,environmentalhealth@uttlesford.gov.uk,Uttlesford,http://www.uttlesford.gov.uk,,,2013-08-21,fhrs_5_en-GB,5,,FHRS,5
39675,,,,,Clara's Kitchen,Restaurant/Cafe/Canteen,1,5,,579053,5,,,13/00166/COM,122,environmentalhealth@uttlesford.gov.uk,Uttlesford,http://www.uttlesford.gov.uk,,,2013-07-15,fhrs_5_en-GB,5,,FHRS,5
39676,,,,,Clare Louise Cranny,Restaurant/Cafe/Canteen,1,5,,644221,0,,,14/00037/COM,122,environmentalhealth@uttlesford.gov.uk,Uttlesford,http://www.uttlesford.gov.uk,,,2014-04-16,fhrs_5_en-GB,5,,FHRS,5
39677,4 The Arches,Hill Street,Saffron Walden,Essex,Classics,Retailers - other,4613,10,,478567,10,,52.02299700000000,38093999124,122,environmentalhealth@uttlesford.gov.uk,Uttlesford,http://www.uttlesford.gov.uk,0.24171700000000,CB10 1ED,2014-03-21,fhrs_2_en-GB,2,,FHRS,15
39678,54 Cromwell Road,Saffron Walden,Essex,,Classics News,Retailers - other,4613,20,,107584,10,,52.01216800000000,38053054005,122,environmentalhealth@uttlesford.gov.uk,Uttlesford,http://www.uttlesford.gov.uk,0.24745600000000,CB11 4BE,2014-04-30,fhrs_1_en-GB,1,,FHRS,10
39679,Clavering And Arkesden Pre-School,Stortford Road,Clavering,Saffron Walden,Clavering & Arkesden Pre-School,School/college/university,7845,0,,478460,0,,51.96281300000000,0802799957,122,environmentalhealth@uttlesford.gov.uk,Uttlesford,http://www.uttlesford.gov.uk,0.14408000000000,CB11 4PE,2014-09-03,fhrs_5_en-GB,5,,FHRS,0
39680,Stortford Road,Clavering,Saffron Walden,Essex,Clavering Primary School,School/college/university,7845,0,,478458,5,,51.96281300000000,08027999383,122,environmentalhealth@uttlesford.gov.uk,Uttlesford,http://www.uttlesford.gov.uk,0.14408000000000,CB11 4PE,2014-11-10,fhrs_5_en-GB,5,,FHRS,5
39681,Village Hall,Clatterbury Lane,Clavering,Saffron Walden,Clavering Village Hall,Restaurant/Cafe/Canteen,1,,,478454,,,51.97028600000000,08011999265,122,environmentalhealth@uttlesford.gov.uk,Uttlesford,http://www.uttlesford.gov.uk,0.15340500000000,CB11 4QS,2012-09-12,fhrs_exempt_en-GB,Exempt,,FHRS,
39682,,,,,Clerkes Farm Pies,Manufacturers/packers,7839,30,,89618,20,,,2400599942,122,environmentalhealth@uttlesford.gov.uk,Uttlesford,http://www.uttlesford.gov.uk,,,2014-12-05,fhrs_0_en-GB,0,,FHRS,25
39683,26 Honey Road,Little Canfield,Dunmow,Essex,Clever Cloggs Day Nursery,School/college/university,7845,0,,116820,5,,51.86960600000000,4601802600,122,environmentalhealth@uttlesford.gov.uk,Uttlesford,http://www.uttlesford.gov.uk,0.28458900000000,CM6 1FF,2014-12-04,fhrs_5_en-GB,5,,FHRS,0
39684,7 High Street,Great Dunmow,Essex,,Club Liberty,Pub/bar/nightclub,7843,0,,552350,0,,51.87233100000000,13/00056/COM,122,environmentalhealth@uttlesford.gov.uk,Uttlesford,http://www.uttlesford.gov.uk,0.36335100000000,CM6 1AB,2013-05-14,fhrs_5_en-GB,5,,FHRS,0
39685,Cambridge Road,Newport,Saffron Walden,,Coach And Horses Inn,Pub/bar/nightclub,7843,5,,82299,5,,51.99024700000000,20006999298,122,environmentalhealth@uttlesford.gov.uk,Uttlesford,http://www.uttlesford.gov.uk,0.21412500000000,CB11 3TR,2014-06-30,fhrs_5_en-GB,5,,FHRS,0
39686,,,,,Coco-Chops,Retailers - other,4613,0,,478448,0,,,07008017006,122,environmentalhealth@uttlesford.gov.uk,Uttlesford,http://www.uttlesford.gov.uk,,,2012-09-07,fhrs_5_en-GB,5,,FHRS,0
39687,Stansted Airport Railway Station,Bassingbourn Road,Stansted Airport,Essex,Coffee Capital,Restaurant/Cafe/Canteen,1,0,,307939,0,,,6206999961,122,environmentalhealth@uttlesford.gov.uk,Uttlesford,http://www.uttlesford.gov.uk,,CM24 8QW,2013-04-23,fhrs_5_en-GB,5,,FHRS,5
39688,The Kiosk,Stansted Airport Railway Station,Bassingbourn Road,Stansted Airport,Coffee Link,Mobile caterer,7846,10,,307938,0,,51.88816100000000,6206999959,122,environmentalhealth@uttlesford.gov.uk,Uttlesford,http://www.uttlesford.gov.uk,0.25835400000000,CM24 1QW,2013-09-12,fhrs_4_en-GB,4,,FHRS,5
39689,,,,,Coffee Roaster,Distributors/Transporters,7,,,478522,,,,19003999015,122,environmentalhealth@uttlesford.gov.uk,Uttlesford,http://www.uttlesford.gov.uk,,,2014-05-22,fhrs_exempt_en-GB,Exempt,,FHRS,
39690,United Reformed Church,New Street,Great Dunmow,Essex,Coffee Shop,Restaurant/Cafe/Canteen,1,,,722777,,,51.87015700000000,14/00138/COM,122,environmentalhealth@uttlesford.gov.uk,Uttlesford,http://www.uttlesford.gov.uk,0.36322200000000,CM6 1BH,2014-12-12,fhrs_exempt_en-GB,Exempt,,FHRS,
39691,,,,,Complete Gourmet,Restaurant/Cafe/Canteen,1,10,,586907,5,,,13/00208/COM,122,environmentalhealth@uttlesford.gov.uk,Uttlesford,http://www.uttlesford.gov.uk,,,2013-09-18,fhrs_4_en-GB,4,,FHRS,0
39692,,,,,Cooking For You,Restaurant/Cafe/Canteen,1,5,,579058,0,,,63039026003,122,environmentalhealth@uttlesford.gov.uk,Uttlesford,http://www.uttlesford.gov.uk,,,2013-05-23,fhrs_5_en-GB,5,,FHRS,0
39693,22 Cambridge Road,Stansted,,,Co-operative Food Store,Retailers - supermarkets/hypermarkets,7840,0,,91054,0,,51.90473100000000,25011020012,122,environmentalhealth@uttlesford.gov.uk,Uttlesford,http://www.uttlesford.gov.uk,0.19437500000000,CM24 8BZ,2014-01-30,fhrs_5_en-GB,5,,FHRS,5
39694,3 The Arches,Hill Street,Saffron Walden,Essex,Co-operative Pharmacy,Retailers - other,4613,,,478566,,,52.02299700000000,38093999116,122,environmentalhealth@uttlesford.gov.uk,Uttlesford,http://www.uttlesford.gov.uk,0.24171700000000,CB10 1ED,2013-02-08,fhrs_exempt_en-GB,Exempt,,FHRS,
39695,Co Op,White Street,Dunmow,Essex,Co-Operative Stores,Retailers - supermarkets/hypermarkets,7840,0,,118807,0,,51.87284200000000,48093999035,122,environmentalhealth@uttlesford.gov.uk,Uttlesford,http://www.uttlesford.gov.uk,0.36339200000000,CM6 1BD,2014-03-10,fhrs_5_en-GB,5,,FHRS,5
39696,The Village Shop,The Heath,Hatfield Heath,Bishops Stortford,Co-operative Stores,Retailers - supermarkets/hypermarkets,7840,10,,110326,10,,51.81296900000000,40025999281,122,environmentalhealth@uttlesford.gov.uk,Uttlesford,http://www.uttlesford.gov.uk,0.20892000000000,CM22 7EB,2014-11-04,fhrs_2_en-GB,2,,FHRS,15
39697,27 King Street,Saffron Walden,Essex,,Costa Coffee,Restaurant/Cafe/Canteen,1,0,,107674,0,,52.02302700000000,38100027005,122,environmentalhealth@uttlesford.gov.uk,Uttlesford,http://www.uttlesford.gov.uk,0.23963400000000,CB10 1EU,2014-03-18,fhrs_5_en-GB,5,,FHRS,5
39698,Felsted School,Braintree Road,Felsted,Great Dunmow,Costa Coffee,Restaurant/Cafe/Canteen,1,5,,586906,5,,51.86248500000000,13/00200/COM,122,environmentalhealth@uttlesford.gov.uk,Uttlesford,http://www.uttlesford.gov.uk,0.45114400000000,CM6 3EB,2013-09-16,fhrs_5_en-GB,5,,FHRS,5
39699,Tesco,Stortford Road,Dunmow,Essex,Costa Coffee,Restaurant/Cafe/Canteen,1,0,,118787,0,,51.87324900000000,48079999252A,122,environmentalhealth@uttlesford.gov.uk,Uttlesford,http://www.uttlesford.gov.uk,0.34667700000000,CM6 1SF,2014-10-16,fhrs_5_en-GB,5,,FHRS,0
39700,Costa,Costa Coffee (Landside),Passenger Terminal,Stansted Airport,Costa Coffee (Landside),Restaurant/Cafe/Canteen,1,0,,130756,5,,51.88816100000000,6206999921,122,environmentalhealth@uttlesford.gov.uk,Uttlesford,http://www.uttlesford.gov.uk,0.25835400000000,CM24 1QW,2014-01-06,fhrs_5_en-GB,5,,FHRS,5
39701,41/43 High Street,Saffron Walden,Essex,,Costcutters,Retailers - supermarkets/hypermarkets,7840,10,,107635,10,,52.02277500000000,38090041000,122,environmentalhealth@uttlesford.gov.uk,Uttlesford,http://www.uttlesford.gov.uk,0.23873200000000,CB10 1AR,2013-02-11,fhrs_3_en-GB,3,,FHRS,5
39702,,,,,Cottage Bake House Cakes,Restaurant/Cafe/Canteen,1,5,,131487,5,,,6300402800X,122,environmentalhealth@uttlesford.gov.uk,Uttlesford,http://www.uttlesford.gov.uk,,,2011-09-26,fhrs_5_en-GB,5,,FHRS,5
39703,,,,,Country Cuisine Ltd,Restaurant/Cafe/Canteen,1,5,,132821,5,,,65003999143,122,environmentalhealth@uttlesford.gov.uk,Uttlesford,http://www.uttlesford.gov.uk,,,2013-04-16,fhrs_5_en-GB,5,,FHRS,5
39704,Hugh Craig Cricket Pavillion,Church End,Little Bardfield,Essex,Cricket Club,Pub/bar/nightclub,7843,,,478588,,,,42004999578,122,environmentalhealth@uttlesford.gov.uk,Uttlesford,http://www.uttlesford.gov.uk,,,2012-01-05,fhrs_exempt_en-GB,Exempt,,FHRS,
39705,7 Castle Walk,Lower Street,Stansted,Essex,Crimson 8 New Shanghai,Restaurant/Cafe/Canteen,1,10,,91063,10,,51.90276700000000,25014007007,122,environmentalhealth@uttlesford.gov.uk,Uttlesford,http://www.uttlesford.gov.uk,0.20037100000000,CM24 8LY,2014-06-11,fhrs_3_en-GB,3,,FHRS,5
39706,Takeley Day Centre,South Road,Takeley,Bishops Stortford,Crocus (Within Takeley Day Centre),Restaurant/Cafe/Canteen,1,5,,612323,5,,51.87027400000000,12/00167/COM,122,environmentalhealth@uttlesford.gov.uk,Uttlesford,http://www.uttlesford.gov.uk,0.26684200000000,CM22 6RB,2013-11-27,fhrs_5_en-GB,5,,FHRS,0
39707,Street Record,Audley End Road,Saffron Walden,Essex,Crocus Saffron Walden,School/college/university,7845,0,,107541,0,,,3801299913A,122,environmentalhealth@uttlesford.gov.uk,Uttlesford,http://www.uttlesford.gov.uk,,,2014-03-04,fhrs_5_en-GB,5,,FHRS,5
39708,Braintree Road,Dunmow,Essex,,Croft House Nursing Home,Hospitals/Childcare/Caring Premises,5,0,,118663,0,,51.87057300000000,4800999927X,122,environmentalhealth@uttlesford.gov.uk,Uttlesford,http://www.uttlesford.gov.uk,0.36712300000000,CM6 1HR,2014-01-08,fhrs_5_en-GB,5,,FHRS,5
39709,32 High Street,Saffron Walden,Essex,,Cross Keys,Pub/bar/nightclub,7843,10,,107634,5,,52.02344800000000,38090032001,122,environmentalhealth@uttlesford.gov.uk,Uttlesford,http://www.uttlesford.gov.uk,0.23879500000000,CB10 1AX,2014-01-20,fhrs_3_en-GB,3,,FHRS,10
39710,New Life Pentecostal Church,Unit 9,Shire Hill,Saffron Walden,Crossroads,Restaurant/Cafe/Canteen,1,10,,482221,0,,52.02070400000000,12/00097/COM,122,environmentalhealth@uttlesford.gov.uk,Uttlesford,http://www.uttlesford.gov.uk,0.25581300000000,CB11 3AQ,2012-11-20,fhrs_4_en-GB,4,,FHRS,5
39711,The Crown House,Newmarket Road,Great Chesterford,Saffron Walden,Crown House Hotel,Hotel/bed & breakfast/guest house,7842,5,,16381,5,,52.06345600000000,0501799906X,122,environmentalhealth@uttlesford.gov.uk,Uttlesford,http://www.uttlesford.gov.uk,0.19330700000000,CB10 1NS,2014-04-29,fhrs_4_en-GB,4,,FHRS,10
39712,,,,,Cupcake Corner,Restaurant/Cafe/Canteen,1,0,,552349,0,,,13/00050/COM,122,environmentalhealth@uttlesford.gov.uk,Uttlesford,http://www.uttlesford.gov.uk,,,2013-05-30,fhrs_5_en-GB,5,,FHRS,0
39713,,,,,Cupcakes By Clare,Restaurant/Cafe/Canteen,1,5,,371088,0,,,4901701100,122,environmentalhealth@uttlesford.gov.uk,Uttlesford,http://www.uttlesford.gov.uk,,,2012-05-16,fhrs_5_en-GB,5,,FHRS,0
39714,,,,,Cups N Cakes,Retailers - other,4613,5,,564520,0,,,12/00158/COM,122,environmentalhealth@uttlesford.gov.uk,Uttlesford,http://www.uttlesford.gov.uk,,,2013-06-20,fhrs_5_en-GB,5,,FHRS,0
39715,Thaxted Day Centre,Vicarage Mead,Vicarage Lane,Thaxted,Cutlers Kitchen At Thaxted Day Centre,Hospitals/Childcare/Caring Premises,5,5,,131523,5,,51.95614200000000,63043999010,122,environmentalhealth@uttlesford.gov.uk,Uttlesford,http://www.uttlesford.gov.uk,0.34216900000000,CM6 2RJ,2015-01-30,fhrs_5_en-GB,5,,FHRS,5
39716,Gardens,Easton Lodge,Park Road,Little Easton,Daisy's,Restaurant/Cafe/Canteen,1,5,,644227,10,,51.89114300000000,14/00067/COM,122,environmentalhealth@uttlesford.gov.uk,Uttlesford,http://www.uttlesford.gov.uk,0.31406500000000,CM6 2BB,2014-06-22,fhrs_4_en-GB,4,,FHRS,0
39717,,,,,Daisys Mobile Catering,Mobile caterer,7846,5,,150845,0,,,9925G521BPV,122,environmentalhealth@uttlesford.gov.uk,Uttlesford,http://www.uttlesford.gov.uk,,,2014-09-22,fhrs_5_en-GB,5,,FHRS,5
39718,Days Inn Bishops Stortford,Dunmow Road,Birchanger,Bishops Stortford,Days Inn,Hotel/bed & breakfast/guest house,7842,10,,478431,5,,51.87160200000000,0400599915,122,environmentalhealth@uttlesford.gov.uk,Uttlesford,http://www.uttlesford.gov.uk,0.19488300000000,CM23 5QZ,2013-06-21,fhrs_4_en-GB,4,,FHRS,0
39719,Pentecostal Church,Thaxted Road,Debden,Saffron Walden,Debden Pentecostal Church,Restaurant/Cafe/Canteen,1,,,478470,,,51.97552400000000,0902099929,122,environmentalhealth@uttlesford.gov.uk,Uttlesford,http://www.uttlesford.gov.uk,0.26858400000000,CB11 3LW,2012-02-24,fhrs_exempt_en-GB,Exempt,,FHRS,
39720,High Street,Debden,Saffron Walden,Essex,Debden Primary School,School/college/university,7845,0,,478464,0,,51.97698400000000,09011999045,122,environmentalhealth@uttlesford.gov.uk,Uttlesford,http://www.uttlesford.gov.uk,0.26562900000000,CB11 3LE,2013-05-03,fhrs_5_en-GB,5,,FHRS,5
39721,Mill Road,Debden,Saffron Walden,Essex,Debden Village Hall,Restaurant/Cafe/Canteen,1,,,478468,,,51.97918500000000,09015999076,122,environmentalhealth@uttlesford.gov.uk,Uttlesford,http://www.uttlesford.gov.uk,0.26338100000000,CB11 3LB,2013-06-20,fhrs_exempt_en-GB,Exempt,,FHRS,
39722,Debden Village Shop And Hall,Mill Road,Debden,Saffron Walden,Debden Village Shop,Retailers - other,4613,0,,478467,0,,51.97918500000000,09015999074,122,environmentalhealth@uttlesford.gov.uk,Uttlesford,http://www.uttlesford.gov.uk,0.26338100000000,CB11 3LB,2015-01-28,fhrs_5_en-GB,5,,FHRS,5
39723,,,,,Deb's Delights Cakes,Hospitals/Childcare/Caring Premises,5,5,,552347,0,,,13/00015/COM,122,environmentalhealth@uttlesford.gov.uk,Uttlesford,http://www.uttlesford.gov.uk,,,2013-03-25,fhrs_5_en-GB,5,,FHRS,0
39724,15A North Street,Great Dunmow,Essex,,Deb's Diner,Retailers - other,4613,0,,568486,0,,51.87520600000000,13/00146/COM,122,environmentalhealth@uttlesford.gov.uk,Uttlesford,http://www.uttlesford.gov.uk,0.36210700000000,CM6 1AZ,2013-07-12,fhrs_5_en-GB,5,,FHRS,0
39725,73 Rowntree Way,Saffron Walden,Essex,,Deja Vu,Restaurant/Cafe/Canteen,1,20,,107794,10,,52.01344500000000,38164999016,122,environmentalhealth@uttlesford.gov.uk,Uttlesford,http://www.uttlesford.gov.uk,0.23804800000000,CB11 4BY,2014-05-23,fhrs_1_en-GB,1,,FHRS,15
39726,,,,,Desavory Foods,Distributors/Transporters,7,0,,478474,5,,,1101099922,122,environmentalhealth@uttlesford.gov.uk,Uttlesford,http://www.uttlesford.gov.uk,,,2015-01-09,fhrs_4_en-GB,4,,FHRS,10
39727,Home Wood Barn,Grange Green,Tilty,Dunmow Essex,Dogtown London,Mobile caterer,7846,0,,478669,0,,51.91413000000000,6400399927,122,environmentalhealth@uttlesford.gov.uk,Uttlesford,http://www.uttlesford.gov.uk,0.31899900000000,CM6 2EQ,2014-02-20,fhrs_5_en-GB,5,,FHRS,0
39728,Station House,Station Yard Industrial Park,Station Road,Dunmow,Domino's,Takeaway/sandwich shop,7844,0,,722781,0,,51.86820200000000,14/00162/COM,122,environmentalhealth@uttlesford.gov.uk,Uttlesford,http://www.uttlesford.gov.uk,0.36789900000000,CM6 1XD,2014-09-23,fhrs_5_en-GB,5,,FHRS,0
39729,,,,,Doras Cakes,Restaurant/Cafe/Canteen,1,10,,564521,5,,,13/00064/COM,122,environmentalhealth@uttlesford.gov.uk,Uttlesford,http://www.uttlesford.gov.uk,,,2013-09-13,fhrs_4_en-GB,4,,FHRS,0
39730,17 High Street,Great Dunmow,Essex,,Dorringtons,Takeaway/sandwich shop,7844,5,,118708,0,,51.87233100000000,48037017001,122,environmentalhealth@uttlesford.gov.uk,Uttlesford,http://www.uttlesford.gov.uk,0.36335100000000,CM6 1AB,2014-02-14,fhrs_5_en-GB,5,,FHRS,5
39731,4 Cross Street,Saffron Walden,Essex,,Dorringtons,Takeaway/sandwich shop,7844,0,,107588,5,,52.02299100000000,38054002009,122,environmentalhealth@uttlesford.gov.uk,Uttlesford,http://www.uttlesford.gov.uk,0.24011300000000,CB10 1EX,2014-03-26,fhrs_5_en-GB,5,,FHRS,0
39732,2 The Stag,The Heath,Hatfield Heath,Bishops Stortford,Dorringtons (The Stag),Takeaway/sandwich shop,7844,10,,690852,0,,51.81296900000000,14/00094/COM,122,environmentalhealth@uttlesford.gov.uk,Uttlesford,http://www.uttlesford.gov.uk,0.20892000000000,CM22 7EB,2014-08-07,fhrs_4_en-GB,4,,FHRS,5
39733,23 Cambridge Road,Stansted,Essex,,Dorringtons Ltd,Takeaway/sandwich shop,7844,10,,91056,5,,51.90473100000000,25011023001,122,environmentalhealth@uttlesford.gov.uk,Uttlesford,http://www.uttlesford.gov.uk,0.19437500000000,CM24 8BZ,2014-04-07,fhrs_4_en-GB,4,,FHRS,5
39734,24C High Street,Newport,Saffron Walden,Essex,Dorringtons Ltd,Takeaway/sandwich shop,7844,5,,82326,10,,51.98150500000000,2001702403X,122,environmentalhealth@uttlesford.gov.uk,Uttlesford,http://www.uttlesford.gov.uk,0.21322700000000,CB11 3PQ,2014-04-08,fhrs_4_en-GB,4,,FHRS,5
39735,Down Hall,Matching Road,Hatfield Heath,Bishops Stortford,Down Hall Country House Hotel,Hotel/bed & breakfast/guest house,7842,5,,110305,5,,51.79544700000000,40015999017,122,environmentalhealth@uttlesford.gov.uk,Uttlesford,http://www.uttlesford.gov.uk,0.20871600000000,CM22 7AS,2013-10-11,fhrs_5_en-GB,5,,FHRS,5
39736,96 High Street,Saffron Walden,Essex,,Duke Of York,Pub/bar/nightclub,7843,5,,107640,0,,52.02016300000000,3809009600X,122,environmentalhealth@uttlesford.gov.uk,Uttlesford,http://www.uttlesford.gov.uk,0.23991300000000,CB10 1EA,2014-10-03,fhrs_4_en-GB,4,,FHRS,10
39737,,,,,DunFran72,Retailers - other,4613,5,,579050,5,,,13/00155/COM,122,environmentalhealth@uttlesford.gov.uk,Uttlesford,http://www.uttlesford.gov.uk,,,2013-07-15,fhrs_5_en-GB,5,,FHRS,0
39738,St Edmunds Lane,Dunmow,Essex,,Dunmow Bowling Club,Pub/bar/nightclub,7843,,,478605,,,51.87096200000000,48037999149,122,environmentalhealth@uttlesford.gov.uk,Uttlesford,http://www.uttlesford.gov.uk,0.36480400000000,CM6 1AE,2012-08-28,fhrs_exempt_en-GB,Exempt,,FHRS,
39739,27 High Street,Dunmow,Essex,,Dunmow China Garden,Restaurant/Cafe/Canteen,1,5,,118710,5,,51.87233100000000,48037027007,122,environmentalhealth@uttlesford.gov.uk,Uttlesford,http://www.uttlesford.gov.uk,0.36335100000000,CM6 1AB,2014-01-31,fhrs_5_en-GB,5,,FHRS,5
39740,32 High Street,Dunmow,Essex,,Dunmow Club,Pub/bar/nightclub,7843,5,,118712,10,,51.87096200000000,48037032000,122,environmentalhealth@uttlesford.gov.uk,Uttlesford,http://www.uttlesford.gov.uk,0.36480400000000,CM6 1AE,2012-03-19,fhrs_3_en-GB,3,,FHRS,10
39741,46 High Street,Great Dunmow,Essex,,Dunmow Coffee Shop,Restaurant/Cafe/Canteen,1,10,,637174,5,,,12/00002/COM,122,environmentalhealth@uttlesford.gov.uk,Uttlesford,http://www.uttlesford.gov.uk,,CM6 1AN,2014-02-14,fhrs_4_en-GB,4,,FHRS,0
39742,Chelmsford Road Garages,Chelmsford Road,Dunmow,Essex,Dunmow Convenience Stores,Retailers - other,4613,5,,585656,5,,51.86314800000000,4801399855,122,environmentalhealth@uttlesford.gov.uk,Uttlesford,http://www.uttlesford.gov.uk,0.37814900000000,CM6 1LL,2013-09-16,fhrs_5_en-GB,5,,FHRS,0
39743,St Edmunds Lane,Dunmow,,,Dunmow Cricket Club,Pub/bar/nightclub,7843,,,478602,,,51.87364300000000,48009999431,122,environmentalhealth@uttlesford.gov.uk,Uttlesford,http://www.uttlesford.gov.uk,0.37366200000000,CM6 3AT,2012-11-08,fhrs_exempt_en-GB,Exempt,,FHRS,
39744,The Day Centre,Chequers Lane,Dunmow,Essex,Dunmow Day Centre,Hospitals/Childcare/Caring Premises,5,0,,118675,0,,51.87201100000000,4801499902,122,environmentalhealth@uttlesford.gov.uk,Uttlesford,http://www.uttlesford.gov.uk,0.36089300000000,CM6 1EQ,2014-11-17,fhrs_5_en-GB,5,,FHRS,5
39745,69 High Street,Dunmow,Essex,,Dunmow Fish & Chinese Takeaway,Takeaway/sandwich shop,7844,5,,118720,5,,51.87096200000000,48037069001,122,environmentalhealth@uttlesford.gov.uk,Uttlesford,http://www.uttlesford.gov.uk,0.36480400000000,CM6 1AE,2013-09-19,fhrs_4_en-GB,4,,FHRS,10
39746,46 Stortford Road,Great Dunmow,Essex,,Dunmow Guest House,Hotel/bed & breakfast/guest house,7842,0,,564528,0,,51.87257500000000,13/00137/COM,122,environmentalhealth@uttlesford.gov.uk,Uttlesford,http://www.uttlesford.gov.uk,0.35519900000000,CM6 1DL,2013-06-17,fhrs_5_en-GB,5,,FHRS,0
39747,Dunmow Youth Centre,North Street,Dunmow,Essex,Dunmow Youth Club,Pub/bar/nightclub,7843,,,478608,,,51.87520600000000,48058999016,122,environmentalhealth@uttlesford.gov.uk,Uttlesford,http://www.uttlesford.gov.uk,0.36210700000000,CM6 1AZ,2011-05-20,fhrs_exempt_en-GB,Exempt,,FHRS,
39748,,,,,Duxford Country Kitchen,Restaurant/Cafe/Canteen,1,5,,131525,0,,,63045025005,122,environmentalhealth@uttlesford.gov.uk,Uttlesford,http://www.uttlesford.gov.uk,,,2012-02-22,fhrs_5_en-GB,5,,FHRS,0
39749,5 Priors Green Local Centre,Bennet Canfield,Little Canfield,Dunmow,Earley LTD,Manufacturers/packers,7839,10,,667210,10,,,14/00026/COM,122,environmentalhealth@uttlesford.gov.uk,Uttlesford,http://www.uttlesford.gov.uk,,CM6 1HE,2014-05-20,fhrs_3_en-GB,3,,FHRS,10
39750,66 East Street,Saffron Walden,Essex,,East Street Stores,Retailers - other,4613,5,,107818,5,,52.02274000000000,38184001002,122,environmentalhealth@uttlesford.gov.uk,Uttlesford,http://www.uttlesford.gov.uk,0.24765100000000,CB10 1LR,2013-10-08,fhrs_5_en-GB,5,,FHRS,0
39751,Eddie Ho Fish And Chips,8 Station Road,Stansted,Essex,Eddie Ho Fish & Chips,Takeaway/sandwich shop,7844,10,,91167,10,,51.90168800000000,2506399910,122,environmentalhealth@uttlesford.gov.uk,Uttlesford,http://www.uttlesford.gov.uk,0.19937300000000,CM24 8BE,2013-08-29,fhrs_2_en-GB,2,,FHRS,15
39752,50 High Street,Dunmow,Essex,,Edwards Fish Bar,Takeaway/sandwich shop,7844,0,,118717,0,,51.87069900000000,48037050009,122,environmentalhealth@uttlesford.gov.uk,Uttlesford,http://www.uttlesford.gov.uk,0.36447100000000,CM6 1AW,2013-10-22,fhrs_4_en-GB,4,,FHRS,10
39753,Efes,The Heath,Hatfield Heath,Bishops Stortford,Efes Kebab And Pizza Ltd,Takeaway/sandwich shop,7844,5,,478489,10,,51.81296900000000,12/00110/COM,122,environmentalhealth@uttlesford.gov.uk,Uttlesford,http://www.uttlesford.gov.uk,0.20892000000000,CM22 7EB,2014-07-28,fhrs_4_en-GB,4,,FHRS,5
39754,Ridgeons Ltd,Commercial Centre,Ashdon Road,Saffron Walden,Eggs Eleven,Mobile caterer,7846,5,,478480,5,,52.02844100000000,12/00047/COM,122,environmentalhealth@uttlesford.gov.uk,Uttlesford,http://www.uttlesford.gov.uk,0.26127600000000,CB10 2NQ,2014-02-07,fhrs_5_en-GB,5,,FHRS,5
39755,18 Bridge Street,Saffron Walden,Essex,,Eight Bells Inn,Pub/bar/nightclub,7843,10,,107557,15,,52.02529600000000,3802599905X,122,environmentalhealth@uttlesford.gov.uk,Uttlesford,http://www.uttlesford.gov.uk,0.23667100000000,CB10 1BU,2014-02-26,fhrs_2_en-GB,2,,FHRS,15
39756,Myco Garden Centre,Elder Street,Wimbish,Saffron Walden,Elder Street Farm Shop,Restaurant/Cafe/Canteen,1,5,,478505,5,,51.98694800000000,12/00160/COM,122,environmentalhealth@uttlesford.gov.uk,Uttlesford,http://www.uttlesford.gov.uk,0.28835800000000,CB10 2XA,2013-08-13,fhrs_5_en-GB,5,,FHRS,5
39757,Bowling Club,Station Road,Elsenham,Bishops Stortford,Elsenham Bowls Club,Pub/bar/nightclub,7843,0,,478479,0,,51.91580900000000,1104399914,122,environmentalhealth@uttlesford.gov.uk,Uttlesford,http://www.uttlesford.gov.uk,0.22839000000000,CM22 6LA,2014-12-08,fhrs_5_en-GB,5,,FHRS,0
39758,Elsenham Church Of England Primary,High Street,Elsenham,Bishops Stortford,Elsenham Ce Primary School,School/college/university,7845,5,,49656,0,,51.91421900000000,11022999249,122,environmentalhealth@uttlesford.gov.uk,Uttlesford,http://www.uttlesford.gov.uk,0.23305100000000,CM22 6DD,2014-10-17,fhrs_5_en-GB,5,,FHRS,5
39759,Elsenham Golf And Leisure Limited,Hall Road,Henham,Bishops Stortford,Elsenham Golf & Leisure,Restaurant/Cafe/Canteen,1,5,,49649,10,,,1102199920,122,environmentalhealth@uttlesford.gov.uk,Uttlesford,http://www.uttlesford.gov.uk,,CM22 6FL,2013-08-30,fhrs_4_en-GB,4,,FHRS,5
39760,Memorial Hall,Station Road,Elsenham,Bishops Stortford,Elsenham Village Hall,Restaurant/Cafe/Canteen,1,,,478478,,,51.91893100000000,11037999010,122,environmentalhealth@uttlesford.gov.uk,Uttlesford,http://www.uttlesford.gov.uk,0.22783200000000,CM22 6LG,2012-05-10,fhrs_exempt_en-GB,Exempt,,FHRS,
39761,Coopers End Road,Stansted Airport,Essex,,Endeavour House,Takeaway/sandwich shop,7844,0,,478546,5,,,2605599909,122,environmentalhealth@uttlesford.gov.uk,Uttlesford,http://www.uttlesford.gov.uk,,CM24 1JS,2012-05-08,fhrs_5_en-GB,5,,FHRS,5
39762,Clarence House,Watling Street,Thaxted,Dunmow,Essex County Council Resource Study Centre,Retailers - other,4613,0,,564540,0,,51.95474800000000,63049022000A,122,environmentalhealth@uttlesford.gov.uk,Uttlesford,http://www.uttlesford.gov.uk,0.34219800000000,CM6 2PJ,2013-05-23,fhrs_5_en-GB,5,,FHRS,5
39763,"Unit 7, Woodgates Farm",Molehill Green,Takeley,Bishops Stortford,Essex School,School/college/university,7845,10,,536243,10,,51.90329200000000,12/00177/COM,122,environmentalhealth@uttlesford.gov.uk,Uttlesford,http://www.uttlesford.gov.uk,0.28093400000000,CM6 2BN,2013-03-07,fhrs_4_en-GB,4,,FHRS,0
39764,13 Chelmsford Road,Great Dunmow,Essex,,Essex Schools,School/college/university,7845,5,,667217,5,,51.86765200000000,14/00064/COM,122,environmentalhealth@uttlesford.gov.uk,Uttlesford,http://www.uttlesford.gov.uk,0.36483400000000,CM6 1XJ,2014-05-20,fhrs_5_en-GB,5,,FHRS,0
39765,1 Cambridge Road,Stansted,Essex,,Esso Service Station,Retailers - other,4613,5,,586908,5,,51.90473100000000,13/00210/COM,122,environmentalhealth@uttlesford.gov.uk,Uttlesford,http://www.uttlesford.gov.uk,0.19437500000000,CM24 8BZ,2013-09-23,fhrs_5_en-GB,5,,FHRS,5
39766,Start Hill Service Station,Start Hill,Romans Way,Birchanger,Esso Service Station,Retailers - other,4613,0,,478438,5,,51.87128900000000,04013999188,122,environmentalhealth@uttlesford.gov.uk,Uttlesford,http://www.uttlesford.gov.uk,0.20682300000000,CM22 7TA,2012-05-15,fhrs_5_en-GB,5,,FHRS,5
39767,Satellite 2,Terminal Road North,Stansted,Bishops Stortford,Est Presso,Restaurant/Cafe/Canteen,1,5,,585655,0,,51.88994900000000,13/00196/COM,122,environmentalhealth@uttlesford.gov.uk,Uttlesford,http://www.uttlesford.gov.uk,0.26172800000000,CM24 1RW,2013-09-16,fhrs_5_en-GB,5,,FHRS,5
39768,Est Presso,Passenger Terminal,Terminal Road North,Stansted,Est Presso (Sat 1),Restaurant/Cafe/Canteen,1,5,,623442,0,,51.88994900000000,13/00234/COM,122,environmentalhealth@uttlesford.gov.uk,Uttlesford,http://www.uttlesford.gov.uk,0.26172800000000,CM24 1RW,2014-01-06,fhrs_5_en-GB,5,,FHRS,5
39769,George Green,Stortford Road,Little Hallingbury,Bishops Stortford Herts,Falcon House,Hospitals/Childcare/Caring Premises,5,5,,125553,10,,51.84108200000000,54032999139,122,environmentalhealth@uttlesford.gov.uk,Uttlesford,http://www.uttlesford.gov.uk,0.17407500000000,CM22 7PP,2014-07-29,fhrs_4_en-GB,4,,FHRS,0
39770,13 Chapel Hill,Stansted,Essex,,Family News,Retailers - other,4613,,,91069,,,51.90214800000000,25016013004,122,environmentalhealth@uttlesford.gov.uk,Uttlesford,http://www.uttlesford.gov.uk,0.19788400000000,CM24 8AB,2012-05-03,fhrs_exempt_en-GB,Exempt,,FHRS,
39771,Farmhouse Inn,Monk Street,Thaxted,Dunmow,Farmhouse Inn,Pub/bar/nightclub,7843,5,,131508,10,,51.93404200000000,63022999232,122,environmentalhealth@uttlesford.gov.uk,Uttlesford,http://www.uttlesford.gov.uk,0.34340400000000,CM6 2NR,2014-12-04,fhrs_4_en-GB,4,,FHRS,5
39772,Hazel End,Farnham,Bishop's Stortford,Hertfordshire,Farnham Cricket Club,Pub/bar/nightclub,7843,,,478506,,,51.89876000000000,12006999036,122,environmentalhealth@uttlesford.gov.uk,Uttlesford,http://www.uttlesford.gov.uk,0.17161200000000,CM23 1HB,2008-09-11,fhrs_exempt_en-GB,Exempt,,FHRS,
39773,Farnham C Of E Primary School,Rectory Lane,Farnham,Bishops Stortford,Farnham School,School/college/university,7845,0,,53304,0,,51.90227500000000,12008999025,122,environmentalhealth@uttlesford.gov.uk,Uttlesford,http://www.uttlesford.gov.uk,0.14667600000000,CM23 1HR,2015-02-05,fhrs_5_en-GB,5,,FHRS,5
39774,Farnham Village Hall,Rectory Lane,Farnham,Bishops Stortford,Farnham Social Club,Pub/bar/nightclub,7843,0,,478507,10,,51.90214700000000,12008999033,122,environmentalhealth@uttlesford.gov.uk,Uttlesford,http://www.uttlesford.gov.uk,0.14482400000000,CM23 1HT,2004-03-23,fhrs_4_en-GB,4,,FHRS,5
39775,Felsted Mem Hall Trus,Memorial Hall,Braintree Road,Felsted,Felsted Mem Hall Trust,Restaurant/Cafe/Canteen,1,,,478616,,,51.85746600000000,52005999628,122,environmentalhealth@uttlesford.gov.uk,Uttlesford,http://www.uttlesford.gov.uk,0.44167800000000,CM6 3DS,2014-08-19,fhrs_exempt_en-GB,Exempt,,FHRS,
39776,Braintree Road,Felsted,Dunmow,Essex  CM6 3LL,Felsted Prep School,School/college/university,7845,0,,123609,5,,,5200599982,122,environmentalhealth@uttlesford.gov.uk,Uttlesford,http://www.uttlesford.gov.uk,,,2015-02-10,fhrs_5_en-GB,5,,FHRS,5
39777,Watch House Green,Felsted,Dunmow,Essex,Felsted Primary School,School/college/university,7845,0,,123604,0,,51.86248500000000,52005999040,122,environmentalhealth@uttlesford.gov.uk,Uttlesford,http://www.uttlesford.gov.uk,0.45114400000000,CM6 3EB,2014-03-25,fhrs_5_en-GB,5,,FHRS,0
39778,The Legion Hall,Bury Chase,Felsted,Dunmow Essex,Felsted Royal British Legion,Restaurant/Cafe/Canteen,1,5,,123611,0,,51.85799700000000,5200799906,122,environmentalhealth@uttlesford.gov.uk,Uttlesford,http://www.uttlesford.gov.uk,0.43255800000000,CM6 3DQ,2014-10-07,fhrs_5_en-GB,5,,FHRS,0
39779,Felsted,Dunmow,Essex,,Felsted School,School/college/university,7845,5,,123631,10,,,52020999013,122,environmentalhealth@uttlesford.gov.uk,Uttlesford,http://www.uttlesford.gov.uk,,CM6 3JG,2014-01-10,fhrs_4_en-GB,4,,FHRS,5
39780,Fiorano,Walden Road,Thaxted,Dunmow,Fiorano Care Home,Hospitals/Childcare/Caring Premises,5,10,,735801,5,,51.96027700000000,15/00005/COM,122,environmentalhealth@uttlesford.gov.uk,Uttlesford,http://www.uttlesford.gov.uk,0.34315600000000,CM6 2RE,2015-01-20,fhrs_4_en-GB,4,,FHRS,0
39781,48 High Street,Saffron Walden,Essex,,Fish & Chips,Takeaway/sandwich shop,7844,10,,107636,5,,52.02195000000000,38090048005,122,environmentalhealth@uttlesford.gov.uk,Uttlesford,http://www.uttlesford.gov.uk,0.23955100000000,CB10 1EE,2013-03-12,fhrs_4_en-GB,4,,FHRS,5
39782,Thaxted Market,Thaxted,Essex,,Fish Stall Thaxted Market,Retailers - other,4613,,,150803,,,,9914ADAMS,122,environmentalhealth@uttlesford.gov.uk,Uttlesford,http://www.uttlesford.gov.uk,,,2014-06-20,fhrs_exempt_en-GB,Exempt,,FHRS,
39783,5 Lower Street,Stansted,Essex,,Flames,Restaurant/Cafe/Canteen,1,10,,585650,10,,51.90313100000000,13/00172/COM,122,environmentalhealth@uttlesford.gov.uk,Uttlesford,http://www.uttlesford.gov.uk,0.19964700000000,CM24 8LN,2014-05-02,fhrs_3_en-GB,3,,FHRS,10
39784,Fleur De Lys Public House,Widdington,Saffron Walden,Essex,Fleur De Lys,Pub/bar/nightclub,7843,5,,100104,0,,51.96174300000000,32005999199,122,environmentalhealth@uttlesford.gov.uk,Uttlesford,http://www.uttlesford.gov.uk,0.23733400000000,CB11 3SG,2014-03-20,fhrs_4_en-GB,4,,FHRS,10
39785,Flitch Green Primary School,Tanton Road,Little Dunmow,Dunmow,Flitch Green Academy School,School/college/university,7845,0,,119937,0,,51.85870000000000,4902999900,122,environmentalhealth@uttlesford.gov.uk,Uttlesford,http://www.uttlesford.gov.uk,0.41505100000000,CM6 3GG,2013-12-06,fhrs_5_en-GB,5,,FHRS,5
39786,The Street,Little Dunmow,Dunmow,Essex,Flitch Of Bacon,Pub/bar/nightclub,7843,5,,119923,5,,51.86767600000000,49012999219,122,environmentalhealth@uttlesford.gov.uk,Uttlesford,http://www.uttlesford.gov.uk,0.40401300000000,CM6 3HT,2012-05-02,fhrs_4_en-GB,4,,FHRS,10
39787,Town Council,47 Stortford Road,,,Foakes Hall,Restaurant/Cafe/Canteen,1,,,478610,,,51.87296100000000,48079999112,122,environmentalhealth@uttlesford.gov.uk,Uttlesford,http://www.uttlesford.gov.uk,0.35793600000000,CM6 1DG,2013-03-07,fhrs_exempt_en-GB,Exempt,,FHRS,
39788,Network House,Bambers Green Road,Takeley,Bishops Stortford,Food 4 Thought,Restaurant/Cafe/Canteen,1,10,,585654,5,,51.89163100000000,13/00189/COM,122,environmentalhealth@uttlesford.gov.uk,Uttlesford,http://www.uttlesford.gov.uk,0.27426800000000,CM22 6PF,2013-10-07,fhrs_3_en-GB,3,,FHRS,10
39789,Inflite House,London Stansted Airport,Stansted,Essex,Food With Thought,Mobile caterer,7846,5,,92423,0,,51.88301400000000,26019999440,122,environmentalhealth@uttlesford.gov.uk,Uttlesford,http://www.uttlesford.gov.uk,0.21884800000000,CM24 1RY,2014-11-06,fhrs_5_en-GB,5,,FHRS,5
39790,The Mountfitchet High School,Forest Hall Road,Stansted,Essex,Forest Hall School,School/college/university,7845,5,,92405,0,,51.89375200000000,2600899907X,122,environmentalhealth@uttlesford.gov.uk,Uttlesford,http://www.uttlesford.gov.uk,0.20635400000000,CM24 8TZ,2015-01-08,fhrs_5_en-GB,5,,FHRS,0
39791,Freedom Day Care Nursery,Braintree Road,Dunmow,Essex,Freedom Daycare Nursery,School/college/university,7845,5,,118664,5,,51.87334400000000,48009999490,122,environmentalhealth@uttlesford.gov.uk,Uttlesford,http://www.uttlesford.gov.uk,0.37687100000000,CM6 1HU,2014-03-10,fhrs_4_en-GB,4,,FHRS,10
39792,Friars Farm,Hatfield Heath,Bishops Stortford,Herts,Friars Farm B&B,Hotel/bed & breakfast/guest house,7842,0,,478584,0,,51.80617200000000,40010999019,122,environmentalhealth@uttlesford.gov.uk,Uttlesford,http://www.uttlesford.gov.uk,0.21981500000000,CM22 7AP,2013-02-08,fhrs_5_en-GB,5,,FHRS,5
39793,Bretts Farm Market,Chelmsford Road,White Roding,Dunmow,Fullers Family Butchers (Only),Retailers - other,4613,5,,732561,5,,51.79910000000000,14/00148/COM,122,environmentalhealth@uttlesford.gov.uk,Uttlesford,http://www.uttlesford.gov.uk,0.26857800000000,CM6 1RF,2014-11-12,fhrs_5_en-GB,5,,FHRS,5
39794,Bretts Farm Market,Chelmsford Road,White Roding,Dunmow,Fullers Family Food Hall,Retailers - other,4613,10,,536254,10,,51.79910000000000,13/00066/COM,122,environmentalhealth@uttlesford.gov.uk,Uttlesford,http://www.uttlesford.gov.uk,0.26857800000000,CM6 1RF,2014-11-12,fhrs_2_en-GB,2,,FHRS,15
39795,,,,,Fun Factory Castles,Restaurant/Cafe/Canteen,1,,,718082,,,,14/00099/COM,122,environmentalhealth@uttlesford.gov.uk,Uttlesford,http://www.uttlesford.gov.uk,,,2014-10-15,fhrs_exempt_en-GB,Exempt,,FHRS,
39796,21 Cambridge Road,Stansted,,,Furnu,Restaurant/Cafe/Canteen,1,10,,718081,10,,51.90523200000000,14/00097/COM,122,environmentalhealth@uttlesford.gov.uk,Uttlesford,http://www.uttlesford.gov.uk,0.19403600000000,CM24 8BX,2014-10-31,fhrs_2_en-GB,2,,FHRS,15
39797,George Green Farm,George Green,Latchmore Bank,Little Hallingbury,George Green Farm B & B,Hotel/bed & breakfast/guest house,7842,0,,612324,0,,51.84108200000000,13/00169/COM,122,environmentalhealth@uttlesford.gov.uk,Uttlesford,http://www.uttlesford.gov.uk,0.17407500000000,CM22 7PP,2013-11-25,fhrs_5_en-GB,5,,FHRS,0
39798,Saffron Walden Market,,,,Giggly Pig Company,Mobile caterer,7846,20,,107697,5,,,38119T37TWC,122,environmentalhealth@uttlesford.gov.uk,Uttlesford,http://www.uttlesford.gov.uk,,,2013-11-19,fhrs_1_en-GB,1,,FHRS,0
39799,,,,,Gingerbread Greetings,Restaurant/Cafe/Canteen,1,5,,118760,0,,,48061001014,122,environmentalhealth@uttlesford.gov.uk,Uttlesford,http://www.uttlesford.gov.uk,,,2015-01-09,fhrs_5_en-GB,5,,FHRS,0
39800,,,,,Glendale Residential Home Ltd,Hospitals/Childcare/Caring Premises,5,0,,123653,5,,,52041014008,122,environmentalhealth@uttlesford.gov.uk,Uttlesford,http://www.uttlesford.gov.uk,,,2013-03-09,fhrs_5_en-GB,5,,FHRS,0
39801,Glorious Britain,Terminal Road North,Stansted Airport,Stansted,Glorious Britain,Retailers - other,4613,5,,478651,5,,51.88816100000000,6206999910,122,environmentalhealth@uttlesford.gov.uk,Uttlesford,http://www.uttlesford.gov.uk,0.25835400000000,CM24 1QW,2013-03-18,fhrs_5_en-GB,5,,FHRS,5
39802,,,,,Gluten Free And Gorgeous,Retailers - other,4613,5,,522300,0,,,12/00115/COM,122,environmentalhealth@uttlesford.gov.uk,Uttlesford,http://www.uttlesford.gov.uk,,,2013-01-31,fhrs_5_en-GB,5,,FHRS,0
39803,Woodlands Bungalow,North Hall Road,Ugley,Saffron Walden,Go The Whole Hog,Mobile caterer,7846,0,,691577,0,,51.95187700000000,14/00103/MOB,122,environmentalhealth@uttlesford.gov.uk,Uttlesford,http://www.uttlesford.gov.uk,0.21745800000000,CB11 3XP,2014-07-30,fhrs_5_en-GB,5,,FHRS,5
39804,6 Chapel Hill,Stansted,Essex,,Goldings,Retailers - other,4613,10,,91066,10,,51.90259900000000,25016006008,122,environmentalhealth@uttlesford.gov.uk,Uttlesford,http://www.uttlesford.gov.uk,0.19825400000000,CM24 8AG,2014-04-22,fhrs_3_en-GB,3,,FHRS,10
39805,Gorsefield House,Grove Hill,Stansted,,Gorsefield Rural Study Centre,School/college/university,7845,0,,91090,0,,51.90583400000000,25024999029,122,environmentalhealth@uttlesford.gov.uk,Uttlesford,http://www.uttlesford.gov.uk,0.20989800000000,CM24 8SS,2014-04-25,fhrs_5_en-GB,5,,FHRS,0
39806,Saffron Walden Market,,,,Grahams Fish Stall,Retailers - other,4613,5,,150826,0,,53.54737400000000,9920GRAHAMS,122,environmentalhealth@uttlesford.gov.uk,Uttlesford,http://www.uttlesford.gov.uk,-0.09275000000000,DN33 2BD,2012-05-16,fhrs_5_en-GB,5,,FHRS,0
39807,Griffin Farm,Great Canfield,Dunmow,Essex,Grain Haulier,Distributors/Transporters,7,,,478594,,,51.84081300000000,4500799950,122,environmentalhealth@uttlesford.gov.uk,Uttlesford,http://www.uttlesford.gov.uk,0.29883900000000,CM6 1JZ,2013-04-26,fhrs_exempt_en-GB,Exempt,,FHRS,
39808,School Street,Great Chesterford,Saffron Walden,Essex,Great Chesterford Primary School,School/college/university,7845,0,,478444,0,,52.06360800000000,05022999064,122,environmentalhealth@uttlesford.gov.uk,Uttlesford,http://www.uttlesford.gov.uk,0.19675700000000,CB10 1NN,2014-03-19,fhrs_5_en-GB,5,,FHRS,5
39809,Dunmow Church Of England Junior Sch,High Stile,Great Dunmow,Essex,Great Dunmow Out Of School Club,School/college/university,7845,0,,536250,5,,51.87173000000000,13/00055/COM,122,environmentalhealth@uttlesford.gov.uk,Uttlesford,http://www.uttlesford.gov.uk,0.35609900000000,CM6 1EB,2014-11-20,fhrs_5_en-GB,5,,FHRS,0
39810,Walnut Walk,Woodlands Park Drive,Dunmow,Essex,Great Dunmow Primary School,School/college/university,7845,0,,118880,0,,51.87333300000000,4814499901,122,environmentalhealth@uttlesford.gov.uk,Uttlesford,http://www.uttlesford.gov.uk,0.34968900000000,CM6 1ZR,2014-04-01,fhrs_5_en-GB,5,,FHRS,0
39811,1 Great Garnetts,Bishops Green,High Easter Road,Barnston,Great Garnetts,Manufacturers/packers,7839,10,,126948,5,,,5600499918,122,environmentalhealth@uttlesford.gov.uk,Uttlesford,http://www.uttlesford.gov.uk,,,2013-12-16,fhrs_4_en-GB,4,,FHRS,5
39812,Great Hallingbury Manor,Tilekiln Green,Bedlars Green Road,Great Hallingbury,Great Hallingbury Manor Hotel,Restaurant/Cafe/Canteen,1,10,,124507,10,,51.86868100000000,53022999151,122,environmentalhealth@uttlesford.gov.uk,Uttlesford,http://www.uttlesford.gov.uk,0.20777100000000,CM22 7TJ,2014-09-08,fhrs_3_en-GB,3,,FHRS,10
39813,3 Ambrose Corner,High Street,Elsenham,Bishops Stortford,Green Chilli,Takeaway/sandwich shop,7844,10,,49654,5,,51.91000400000000,11022999133,122,environmentalhealth@uttlesford.gov.uk,Uttlesford,http://www.uttlesford.gov.uk,0.24233700000000,CM22 6DP,2014-12-16,fhrs_4_en-GB,4,,FHRS,5
39814,Mill End Green,Mill End Green Road,Great Easton,Dunmow,Green Man,Pub/bar/nightclub,7843,10,,522301,10,,51.90925100000000,12/00157/COM,122,environmentalhealth@uttlesford.gov.uk,Uttlesford,http://www.uttlesford.gov.uk,0.34737600000000,CM6 2DN,2014-06-17,fhrs_3_en-GB,3,,FHRS,10
39815,Greenways,Church Road,Great Hallingbury,Bishops Stortford,Greenways Lodge,Hotel/bed & breakfast/guest house,7842,0,,478484,0,,51.85805700000000,12/00063/COM,122,environmentalhealth@uttlesford.gov.uk,Uttlesford,http://www.uttlesford.gov.uk,0.20653900000000,CM22 7TS,2012-11-07,fhrs_5_en-GB,5,,FHRS,0
39816,Nursery Rise,Dunmow,Essex,,Grove Court,Hospitals/Childcare/Caring Premises,5,0,,118811,5,,51.86579200000000,4809999958,122,environmentalhealth@uttlesford.gov.uk,Uttlesford,http://www.uttlesford.gov.uk,0.36608700000000,CM6 1XW,2014-12-23,fhrs_5_en-GB,5,,FHRS,5
39817,,,,,Grubs Up,Mobile caterer,7846,10,,150920,5,,,9947GRUBSUP,122,environmentalhealth@uttlesford.gov.uk,Uttlesford,http://www.uttlesford.gov.uk,,,2013-12-06,fhrs_4_en-GB,4,,FHRS,5
39818,Bowling Green Pavilion,Newmarket Road,Great Chesterford,Saffron Walden,GT Chesterford Bowling Club,Pub/bar/nightclub,7843,,,478443,,,52.06345600000000,05017999558,122,environmentalhealth@uttlesford.gov.uk,Uttlesford,http://www.uttlesford.gov.uk,0.19330700000000,CB10 1NS,2013-03-07,fhrs_exempt_en-GB,Exempt,,FHRS,
39819,Dunmow Sports And Leisure Centre,Helena Romanes School,Parsonage Downs,Dunmow,Gt Dunmow Leisure Centre,Restaurant/Cafe/Canteen,1,10,,118763,5,,51.88313400000000,4806299905XA,122,environmentalhealth@uttlesford.gov.uk,Uttlesford,http://www.uttlesford.gov.uk,0.35739300000000,CM6 2AT,2013-09-30,fhrs_4_en-GB,4,,FHRS,5
39820,Great Easton,Dunmow,Essex,,GT Easton C Of E Primary School,School/college/university,7845,5,,121292,5,,51.91015600000000,50018999018,122,environmentalhealth@uttlesford.gov.uk,Uttlesford,http://www.uttlesford.gov.uk,0.33939700000000,CM6 2DR,2014-04-24,fhrs_5_en-GB,5,,FHRS,5
39821,34 Town Street,Thaxted,Dunmow,Essex,Guildhall Stores,Retailers - supermarkets/hypermarkets,7840,5,,131517,0,,51.95376400000000,63039034006,122,environmentalhealth@uttlesford.gov.uk,Uttlesford,http://www.uttlesford.gov.uk,0.34421300000000,CM6 2LA,2014-12-03,fhrs_5_en-GB,5,,FHRS,5
39822,103 Cambridge Road,Stansted,Essex,,Hargrave House Residential Care Home,Hospitals/Childcare/Caring Premises,5,5,,91058,5,,51.90689600000000,25011999068,122,environmentalhealth@uttlesford.gov.uk,Uttlesford,http://www.uttlesford.gov.uk,0.19593500000000,CM24 8BY,2015-01-15,fhrs_5_en-GB,5,,FHRS,0
39823,33 Harrisons,Birchanger,Bishops Stortford,Hertfordshire,Harrisons B&B,Hotel/bed & breakfast/guest house,7842,5,,478433,5,,51.88286600000000,04008033009,122,environmentalhealth@uttlesford.gov.uk,Uttlesford,http://www.uttlesford.gov.uk,0.19027300000000,CM23 5QT,2013-02-12,fhrs_5_en-GB,5,,FHRS,5
39824,Welcome Break Service Station,Dunmow Road,Birchanger,Bishops Stortford,Harry Ramsden's,Takeaway/sandwich shop,7844,0,,690851,10,,51.88254900000000,14/00091/COM,122,environmentalhealth@uttlesford.gov.uk,Uttlesford,http://www.uttlesford.gov.uk,0.19134800000000,CM23 5QH,2014-08-12,fhrs_4_en-GB,4,,FHRS,5
39825,52 Stortford Road,Dunmow,Essex,,Harwood Guest House B&B,Hotel/bed & breakfast/guest house,7842,10,,478609,5,,51.87277800000000,4807905200X,122,environmentalhealth@uttlesford.gov.uk,Uttlesford,http://www.uttlesford.gov.uk,0.35268200000000,CM6 1DN,2013-10-29,fhrs_4_en-GB,4,,FHRS,0
39826,Hatfield Forest Estate Office,Bush End Road,Hatfield Broad Oak,Bishops Stortford,Hatfield Forest Shop,Retailers - other,4613,10,,478485,10,,51.86760400000000,12/00066/COM,122,environmentalhealth@uttlesford.gov.uk,Uttlesford,http://www.uttlesford.gov.uk,0.24661800000000,CM22 6NE,2014-04-22,fhrs_4_en-GB,4,,FHRS,0
39827,Hatfield Forest Estate Office,Takeley,Bishop's Stortford,Herts,Hatfield Forest Venison,Farmers/growers,7838,5,,307937,5,,51.86760400000000,5501899904,122,environmentalhealth@uttlesford.gov.uk,Uttlesford,http://www.uttlesford.gov.uk,0.24661800000000,CM22 6NE,2012-03-05,fhrs_5_en-GB,5,,FHRS,0
39828,Stortford Road,Hatfield Heath,Bishops Stortford,Herts,Hatfield Haven,Hospitals/Childcare/Caring Premises,5,0,,110322,5,,51.81810000000000,40023999497,122,environmentalhealth@uttlesford.gov.uk,Uttlesford,http://www.uttlesford.gov.uk,0.19763600000000,CM22 7DL,2015-01-29,fhrs_5_en-GB,5,,FHRS,5
39829,Hatfield Heath Cp School,The Heath,Hatfield Heath,Bishops Stortford,Hatfield Heath CP School,School/college/university,7845,0,,110319,5,,51.81333000000000,40023999012,122,environmentalhealth@uttlesford.gov.uk,Uttlesford,http://www.uttlesford.gov.uk,0.20648600000000,CM22 7EA,2014-11-24,fhrs_5_en-GB,5,,FHRS,5
39830,Hatherley House,Chaters Hill,Saffron Walden,Essex,Hatherley Care Home,Hospitals/Childcare/Caring Premises,5,5,,107574,5,,52.02426400000000,38043999023,122,environmentalhealth@uttlesford.gov.uk,Uttlesford,http://www.uttlesford.gov.uk,0.24790200000000,CB10 2AB,2014-04-30,fhrs_5_en-GB,5,,FHRS,0
39831,,,,,Heart And Soul Cakes,Restaurant/Cafe/Canteen,1,0,,644223,0,,,14/00046/COM,122,environmentalhealth@uttlesford.gov.uk,Uttlesford,http://www.uttlesford.gov.uk,,,2014-04-14,fhrs_5_en-GB,5,,FHRS,0
39832,,,,,Heath Country Cakes,Restaurant/Cafe/Canteen,1,5,,110276,5,,,40002999188,122,environmentalhealth@uttlesford.gov.uk,Uttlesford,http://www.uttlesford.gov.uk,,,2013-03-11,fhrs_5_en-GB,5,,FHRS,5
39833,Parsonage Downs,Dunmow,Essex,,Helena Romanes School,School/college/university,7845,0,,118762,0,,51.88313400000000,4806299905X,122,environmentalhealth@uttlesford.gov.uk,Uttlesford,http://www.uttlesford.gov.uk,0.35739300000000,CM6 2AT,2014-06-09,fhrs_5_en-GB,5,,FHRS,5
39834,,,,,Hello Coffee To Go,Mobile caterer,7846,0,,552344,0,,,12/00046/COM,122,environmentalhealth@uttlesford.gov.uk,Uttlesford,http://www.uttlesford.gov.uk,,,2013-05-21,fhrs_5_en-GB,5,,FHRS,0
39835,Henham & Ugley School,Henham,Bishops Stortford,Hertfordshire,Henham And Ugley Primary School,School/college/university,7845,5,,67289,0,,51.92968800000000,15005999329,122,environmentalhealth@uttlesford.gov.uk,Uttlesford,http://www.uttlesford.gov.uk,0.24849600000000,CM22 6BP,2014-09-04,fhrs_5_en-GB,5,,FHRS,5
39836,,,,,Henham Country Cupcakes,Restaurant/Cafe/Canteen,1,10,,478513,5,,,15005999221,122,environmentalhealth@uttlesford.gov.uk,Uttlesford,http://www.uttlesford.gov.uk,,,2013-10-18,fhrs_4_en-GB,4,,FHRS,0
39837,Henham Stores,High Street,Henham,Bishops Stortford,Henham Po & Stores,Retailers - other,4613,5,,67315,0,,51.93309600000000,15011999262,122,environmentalhealth@uttlesford.gov.uk,Uttlesford,http://www.uttlesford.gov.uk,0.25134300000000,CM22 6AS,2014-06-20,fhrs_5_en-GB,5,,FHRS,0
39838,Village Hall,High Street,Henham,Bishops Stortford Herts,Henham Village Hall,Restaurant/Cafe/Canteen,1,,,478514,,,51.93302800000000,15011999181,122,environmentalhealth@uttlesford.gov.uk,Uttlesford,http://www.uttlesford.gov.uk,0.25771100000000,CM22 6AZ,2013-06-20,fhrs_exempt_en-GB,Exempt,,FHRS,
39839,Hide And Deecs Limited,Forest Hall Road,Birchanger,Herts,Hides And Deecs Limited,Distributors/Transporters,7,,,478432,,,51.89401600000000,04006999283,122,environmentalhealth@uttlesford.gov.uk,Uttlesford,http://www.uttlesford.gov.uk,0.18740000000000,CM24 8TS,2012-10-24,fhrs_exempt_en-GB,Exempt,,FHRS,
39840,New Village Hall,Pleshey Road,High Easter,Chelmsford,High Easter Village Hall,Restaurant/Cafe/Canteen,1,,,478622,,,,56010999677,122,environmentalhealth@uttlesford.gov.uk,Uttlesford,http://www.uttlesford.gov.uk,,,2011-12-28,fhrs_exempt_en-GB,Exempt,,FHRS,
39841,Cricket Ground,Dunmow Road,High Roding,Dunmow,High Roding Cricket Club,Pub/bar/nightclub,7843,,,478624,,,51.83751900000000,57004999025,122,environmentalhealth@uttlesford.gov.uk,Uttlesford,http://www.uttlesford.gov.uk,0.32959100000000,CM6 1NL,2010-09-01,fhrs_exempt_en-GB,Exempt,,FHRS,
39842,9-11 Mandeville Road,Saffron Walden,Essex,,Highfield Nursing Home,Hospitals/Childcare/Caring Premises,5,5,,107688,5,,52.01611200000000,38115009018,122,environmentalhealth@uttlesford.gov.uk,Uttlesford,http://www.uttlesford.gov.uk,0.23918600000000,CB11 4AQ,2014-09-25,fhrs_5_en-GB,5,,FHRS,5
39843,Bumpstead Road,Hempstead,Saffron Walden,Essex,Highgates House B&B,Hotel/bed & breakfast/guest house,7842,0,,478511,0,,52.02548800000000,14008999310,122,environmentalhealth@uttlesford.gov.uk,Uttlesford,http://www.uttlesford.gov.uk,0.39341600000000,CB10 2PW,2008-06-26,fhrs_5_en-GB,5,,FHRS,0
39844,Hilton Hotel,Round Coppice Road,Stansted Airport,Stansted,Hilton London Stansted Airport,Hotel/bed & breakfast/guest house,7842,5,,92426,5,,51.87679100000000,26020999025,122,environmentalhealth@uttlesford.gov.uk,Uttlesford,http://www.uttlesford.gov.uk,0.21168400000000,CM24 1SF,2013-10-17,fhrs_4_en-GB,4,,FHRS,10
39845,,,,,Hiz & Herz,Takeaway/sandwich shop,7844,5,,565275,0,,,13/00086/COM,122,environmentalhealth@uttlesford.gov.uk,Uttlesford,http://www.uttlesford.gov.uk,,,2013-06-05,fhrs_5_en-GB,5,,FHRS,5
39846,Express By Holiday Inn,Thremhall Avenue,London Stansted Airport,Stansted,Holiday Inn Express,Hotel/bed & breakfast/guest house,7842,0,,92428,5,,51.87648500000000,2602199902,122,environmentalhealth@uttlesford.gov.uk,Uttlesford,http://www.uttlesford.gov.uk,0.24681400000000,CM24 1PY,2014-01-13,fhrs_5_en-GB,5,,FHRS,5
39847,23/25 King Street,Saffron Walden,Essex,,Holland & Barrett,Retailers - other,4613,5,,107673,5,,52.02302700000000,3810002300X,122,environmentalhealth@uttlesford.gov.uk,Uttlesford,http://www.uttlesford.gov.uk,0.23963400000000,CB10 1EU,2015-01-09,fhrs_5_en-GB,5,,FHRS,5
39848,Dame Johane Bradbury School,Ashdon Road,Saffron Walden,Essex,Holroyd Howe Independent Food Safety Management,School/college/university,7845,5,,107529,0,,52.02580100000000,38007999175,122,environmentalhealth@uttlesford.gov.uk,Uttlesford,http://www.uttlesford.gov.uk,0.25401400000000,CB10 2AL,2014-09-17,fhrs_5_en-GB,5,,FHRS,5
39849,,,,,Home Caterer,Restaurant/Cafe/Canteen,1,,,478499,,,,12/00133/COM,122,environmentalhealth@uttlesford.gov.uk,Uttlesford,http://www.uttlesford.gov.uk,,,2012-10-26,fhrs_exempt_en-GB,Exempt,,FHRS,
39850,,,,,Home Caterer Cakes,Restaurant/Cafe/Canteen,1,,,118748,,,,48052039002,122,environmentalhealth@uttlesford.gov.uk,Uttlesford,http://www.uttlesford.gov.uk,,,2013-06-20,fhrs_exempt_en-GB,Exempt,,FHRS,
39851,,,,,Home Caterer Cakes,Restaurant/Cafe/Canteen,1,0,,704725,0,,,14/00090/COM,122,environmentalhealth@uttlesford.gov.uk,Uttlesford,http://www.uttlesford.gov.uk,,,2014-09-24,fhrs_5_en-GB,5,,FHRS,0
39852,,,,,Home Cooking,Restaurant/Cafe/Canteen,1,5,,704735,5,,,14/00121/COM,122,environmentalhealth@uttlesford.gov.uk,Uttlesford,http://www.uttlesford.gov.uk,,,2014-09-03,fhrs_5_en-GB,5,,FHRS,5
39853,Homelye Farm,Homelye Chase,Dunmow,,Homelye Farm Courtyards B&B,Hotel/bed & breakfast/guest house,7842,0,,478603,0,,51.87620000000000,48009999784,122,environmentalhealth@uttlesford.gov.uk,Uttlesford,http://www.uttlesford.gov.uk,0.39393400000000,CM6 3AW,2015-01-27,fhrs_5_en-GB,5,,FHRS,0
39854,,,,,Honey Bees Cupcakes,Retailers - other,4613,0,,495832,0,,,13/00003/COM,122,environmentalhealth@uttlesford.gov.uk,Uttlesford,http://www.uttlesford.gov.uk,,,2012-11-08,fhrs_5_en-GB,5,,FHRS,0
39855,85 Rowntree Way,Saffron Walden,Essex,,Ho's Fish And Chips,Takeaway/sandwich shop,7844,10,,107793,10,,52.01344500000000,38164085006,122,environmentalhealth@uttlesford.gov.uk,Uttlesford,http://www.uttlesford.gov.uk,0.23804800000000,CB11 4BY,2014-10-03,fhrs_3_en-GB,3,,FHRS,10
39856,Howe Green House,Howe Green,Howe Green Road,Great Hallingbury,Howe Green Educational Trust Ltd,School/college/university,7845,0,,124498,5,,51.84692000000000,53013999063,122,environmentalhealth@uttlesford.gov.uk,Uttlesford,http://www.uttlesford.gov.uk,0.18995000000000,CM22 7UF,2014-10-13,fhrs_5_en-GB,5,,FHRS,0
39857,Rochelle Close,Thaxted,Dunmow,Essex,Humfrey Lodge,Hospitals/Childcare/Caring Premises,5,0,,131511,5,,51.95761800000000,63028999013,122,environmentalhealth@uttlesford.gov.uk,Uttlesford,http://www.uttlesford.gov.uk,0.34307600000000,CM6 2PX,2014-11-11,fhrs_5_en-GB,5,,FHRS,5
39858,9 George Street,Saffron Walden,Essex,,Humphrey's (SW) Ltd,Manufacturers/packers,7839,10,,107611,0,,52.02278600000000,38079009007,122,environmentalhealth@uttlesford.gov.uk,Uttlesford,http://www.uttlesford.gov.uk,0.23953400000000,CB10 1EW,2013-09-25,fhrs_4_en-GB,4,,FHRS,5
39859,Hunters Meet Restaurant Co Ltd,Chelmsford Road,Hatfield Heath,Bishops Stortford,Hunters Meet Restaurant,Restaurant/Cafe/Canteen,1,10,,110283,15,,51.81245900000000,40006999883,122,environmentalhealth@uttlesford.gov.uk,Uttlesford,http://www.uttlesford.gov.uk,0.21546700000000,CM22 7BQ,2014-02-21,fhrs_2_en-GB,2,,FHRS,10
39860,,,,,IDEL Mobile Reg KE04EBX,Mobile caterer,7846,10,,564529,5,,,13/00141/MOB,122,environmentalhealth@uttlesford.gov.uk,Uttlesford,http://www.uttlesford.gov.uk,,,2013-06-13,fhrs_4_en-GB,4,,FHRS,5
39861,,,,,IDEL Mobile Van Reg No LT58 ZZJ,Retailers - other,4613,10,,564530,5,,,13/00142/MOB,122,environmentalhealth@uttlesford.gov.uk,Uttlesford,http://www.uttlesford.gov.uk,,,2013-06-13,fhrs_4_en-GB,4,,FHRS,5
39862,,,,,IDEL Mobile Vehicle Reg ST65 AFC,Retailers - other,4613,10,,564531,5,,,13/00143/MOB,122,environmentalhealth@uttlesford.gov.uk,Uttlesford,http://www.uttlesford.gov.uk,,,2013-06-13,fhrs_4_en-GB,4,,FHRS,5
39863,Passenger Terminal,Terminal Road North,Stansted,Bishops Stortford,Illustrious Bar,Restaurant/Cafe/Canteen,1,5,,508017,0,,51.88994900000000,12/00095/COM,122,environmentalhealth@uttlesford.gov.uk,Uttlesford,http://www.uttlesford.gov.uk,0.26172800000000,CM24 1RW,2015-02-04,fhrs_5_en-GB,5,,FHRS,5
39864,20 Watling Street,Thaxted,Dunmow,Essex,India Villa,Restaurant/Cafe/Canteen,1,5,,579046,10,,51.95453200000000,13/00129/COM,122,environmentalhealth@uttlesford.gov.uk,Uttlesford,http://www.uttlesford.gov.uk,0.34314800000000,CM6 2PE,2013-10-26,fhrs_3_en-GB,3,,FHRS,10
39865,71 High Street,Dunmow,,,Indo-Chine Restaurant,Restaurant/Cafe/Canteen,1,5,,118721,5,,51.87096200000000,48037071006,122,environmentalhealth@uttlesford.gov.uk,Uttlesford,http://www.uttlesford.gov.uk,0.36480400000000,CM6 1AE,2014-10-26,fhrs_5_en-GB,5,,FHRS,5
39866,,,,,Isabel's Bakery,Restaurant/Cafe/Canteen,1,0,,58625,0,,,13007999197,122,environmentalhealth@uttlesford.gov.uk,Uttlesford,http://www.uttlesford.gov.uk,,,2013-10-07,fhrs_5_en-GB,5,,FHRS,0
39867,Bendysh Hall,Ashdon Road,Radwinter,Saffron Walden,J&S Wildlife Services,Distributors/Transporters,7,10,,729259,0,,52.02591400000000,14/00141/COM,122,environmentalhealth@uttlesford.gov.uk,Uttlesford,http://www.uttlesford.gov.uk,0.33998300000000,CB10 2UA,2014-11-12,fhrs_4_en-GB,4,,FHRS,0
39868,Cammas Hall Fruit Farm,Cammas Hall,Hatfield Broad Oak,Dunmow,J.M Lukies And Sons,Retailers - other,4613,0,,478670,5,,51.81390100000000,65006999012,122,environmentalhealth@uttlesford.gov.uk,Uttlesford,http://www.uttlesford.gov.uk,0.26858200000000,CM22 7JT,2013-06-20,fhrs_5_en-GB,5,,FHRS,5
39869,Jade Garden,6 Market Hill,Saffron Walden,Essex,Jade Garden,Restaurant/Cafe/Canteen,1,5,,107691,10,,52.02420000000000,38118999025,122,environmentalhealth@uttlesford.gov.uk,Uttlesford,http://www.uttlesford.gov.uk,0.24087300000000,CB10 1HQ,2014-10-15,fhrs_4_en-GB,4,,FHRS,5
39870,The Queen Victoria,79 Stortford Road,Dunmow,,Jalsa Ghar (UK Ltd),Restaurant/Cafe/Canteen,1,10,,118784,10,,51.87257500000000,48079079005,122,environmentalhealth@uttlesford.gov.uk,Uttlesford,http://www.uttlesford.gov.uk,0.35519900000000,CM6 1DL,2014-10-30,fhrs_3_en-GB,3,,FHRS,10
39871,,,,,Jam Making,Restaurant/Cafe/Canteen,1,0,,131510,5,,,63028004003,122,environmentalhealth@uttlesford.gov.uk,Uttlesford,http://www.uttlesford.gov.uk,,,2014-11-24,fhrs_5_en-GB,5,,FHRS,5
39872,20 Crabtrees,Saffron Walden,Essex,,Janice Hutchinson,Manufacturers/packers,7839,5,,722779,0,,52.01744900000000,14/00155/COM,122,environmentalhealth@uttlesford.gov.uk,Uttlesford,http://www.uttlesford.gov.uk,0.24971800000000,CB11 3BH,2014-12-09,fhrs_5_en-GB,5,,FHRS,0
39873,1 New Road,Elsenham,Bishops Stortford,Hertfordshire,Jeff And Eddies,Takeaway/sandwich shop,7844,5,,667213,0,,51.92039500000000,14/00039/COM,122,environmentalhealth@uttlesford.gov.uk,Uttlesford,http://www.uttlesford.gov.uk,0.22599900000000,CM22 6HA,2014-05-19,fhrs_5_en-GB,5,,FHRS,5
39874,,,,,Jip's Cakes,Restaurant/Cafe/Canteen,1,5,,478482,5,,,12/00049/COM,122,environmentalhealth@uttlesford.gov.uk,Uttlesford,http://www.uttlesford.gov.uk,,,2012-10-23,fhrs_5_en-GB,5,,FHRS,0
39875,,,,,Joanne Sitkiewicz,Restaurant/Cafe/Canteen,1,5,,86492,0,,,22016999160,122,environmentalhealth@uttlesford.gov.uk,Uttlesford,http://www.uttlesford.gov.uk,,,2014-09-16,fhrs_5_en-GB,5,,FHRS,0
39876,Passenger Terminal,Terminal Road North,Stansted,Bishops Stortford,Joes Cafe,Hospitals/Childcare/Caring Premises,5,0,,637180,0,,51.88994900000000,14/00029/COM,122,environmentalhealth@uttlesford.gov.uk,Uttlesford,http://www.uttlesford.gov.uk,0.26172800000000,CM24 1RW,2014-02-25,fhrs_5_en-GB,5,,FHRS,5
39877,Joseph Barns Wines Limited,13 Market Row,Saffron Walden,Essex,Joseph Barnes Wines Limited,Retailers - other,4613,5,,478574,5,,52.02321600000000,3812001610,122,environmentalhealth@uttlesford.gov.uk,Uttlesford,http://www.uttlesford.gov.uk,0.24107200000000,CB10 1HB,2014-08-19,fhrs_5_en-GB,5,,FHRS,5
39878,Ross Close,Saffron Walden,Essex,,Katherine Semar CP School,School/college/university,7845,0,,107790,0,,52.01069600000000,38163999012,122,environmentalhealth@uttlesford.gov.uk,Uttlesford,http://www.uttlesford.gov.uk,0.24732400000000,CB11 4DU,2014-07-17,fhrs_5_en-GB,5,,FHRS,5
39879,,,,,Katies Kitchen,Restaurant/Cafe/Canteen,1,5,,82322,5,,,20013050001,122,environmentalhealth@uttlesford.gov.uk,Uttlesford,http://www.uttlesford.gov.uk,,,2015-01-07,fhrs_5_en-GB,5,,FHRS,0
39880,Kearsley Airways Limited,Romeera House,Bury Lodge Lane,Stansted,Kearsley Airways Canteen,Takeaway/sandwich shop,7844,0,,478542,5,,51.87050800000000,26005999060,122,environmentalhealth@uttlesford.gov.uk,Uttlesford,http://www.uttlesford.gov.uk,0.22537900000000,CM24 1QL,2014-06-18,fhrs_5_en-GB,5,,FHRS,0
39881,Welcome Break Service Station,Dunmow Road,Birchanger,Bishops Stortford,Kentucky Fried Chicken,Restaurant/Cafe/Canteen,1,0,,13356,5,,51.88254900000000,0400599914A,122,environmentalhealth@uttlesford.gov.uk,Uttlesford,http://www.uttlesford.gov.uk,0.19134800000000,CM23 5QH,2013-12-06,fhrs_5_en-GB,5,,FHRS,5
39882,4 Ongar Road,Great Dunmow,Essex,,Kicking Dickey,Pub/bar/nightclub,7843,5,,118761,5,,51.86430000000000,48061004003,122,environmentalhealth@uttlesford.gov.uk,Uttlesford,http://www.uttlesford.gov.uk,0.36919000000000,CM6 1ES,2014-05-28,fhrs_5_en-GB,5,,FHRS,5
39883,5 -7 Hill Street,Saffron Walden,Essex,,Kim's Tea And Coffee House,Restaurant/Cafe/Canteen,1,0,,107650,0,,52.02306600000000,38093999094,122,environmentalhealth@uttlesford.gov.uk,Uttlesford,http://www.uttlesford.gov.uk,0.24183700000000,CB10 1EH,2013-01-14,fhrs_5_en-GB,5,,FHRS,0
39884,,,,,Kingfisher Catering,Mobile caterer,7846,0,,478529,0,,,20022027009,122,environmentalhealth@uttlesford.gov.uk,Uttlesford,http://www.uttlesford.gov.uk,,,2012-05-09,fhrs_5_en-GB,5,,FHRS,5
39885,16 Lower Street,Stansted,Essex,,Kings Family Butchers,Manufacturers/packers,7839,5,,91118,5,,51.90258500000000,25036016009,122,environmentalhealth@uttlesford.gov.uk,Uttlesford,http://www.uttlesford.gov.uk,0.19999800000000,CM24 8LP,2014-07-01,fhrs_5_en-GB,5,,FHRS,5
39886,Lakeside Cafe,Adj Shell House,Hatfield Forest,Takeley,Lakeside Cafe,Restaurant/Cafe/Canteen,1,5,,126153,0,,51.86760400000000,55006999128,122,environmentalhealth@uttlesford.gov.uk,Uttlesford,http://www.uttlesford.gov.uk,0.24661800000000,CM22 6NE,2013-12-20,fhrs_5_en-GB,5,,FHRS,5
39887,6 Station Road,Stansted,Essex,,Lams Take Away,Takeaway/sandwich shop,7844,20,,91162,15,,51.90168800000000,25063006000,122,environmentalhealth@uttlesford.gov.uk,Uttlesford,http://www.uttlesford.gov.uk,0.19937300000000,CM24 8BE,2014-08-28,fhrs_1_en-GB,1,,FHRS,10
39888,The Ashes,Upper Green Road,Langley,Saffron Walden,Langley Cricket Club,Pub/bar/nightclub,7843,,,478517,,,51.99187200000000,16005999176,122,environmentalhealth@uttlesford.gov.uk,Uttlesford,http://www.uttlesford.gov.uk,0.10595100000000,CB11 4RU,2013-07-04,fhrs_exempt_en-GB,Exempt,,FHRS,
39889,Lawn Cottage,Langley Lower Green,Langley,Saffron Walden,Langley Park Rally School,Restaurant/Cafe/Canteen,1,5,,631873,5,,51.98977400000000,16004999032,122,environmentalhealth@uttlesford.gov.uk,Uttlesford,http://www.uttlesford.gov.uk,0.09198600000000,CB11 4SB,2014-01-20,fhrs_5_en-GB,5,,FHRS,5
39890,Latchmead,Port Lane,Little Hallingbury,Bishops Stortford,Latchmead B+B,Hotel/bed & breakfast/guest house,7842,0,,586903,0,,51.84580900000000,12/00053/COM,122,environmentalhealth@uttlesford.gov.uk,Uttlesford,http://www.uttlesford.gov.uk,0.17032500000000,CM22 7PQ,2013-09-17,fhrs_5_en-GB,5,,FHRS,0
39891,20 Fitzwalter Road,Little Dunmow,Dunmow,Essex,Lauren Nicole Sweet Treats,Mobile caterer,7846,0,,508020,0,,51.86401700000000,13/00004/COM,122,environmentalhealth@uttlesford.gov.uk,Uttlesford,http://www.uttlesford.gov.uk,0.41494400000000,CM6 3FH,2013-02-08,fhrs_5_en-GB,5,,FHRS,0
39892,Village Hall,Stortford Road,Leaden Roding,Dunmow,Leadon Roding Village Hall,Pub/bar/nightclub,7843,,,735802,,,51.79463000000000,58013999106,122,environmentalhealth@uttlesford.gov.uk,Uttlesford,http://www.uttlesford.gov.uk,0.31103400000000,CM6 1QZ,2015-01-20,fhrs_exempt_en-GB,Exempt,,FHRS,
39893,Stansted Airport,Terminal Road North,Stansted,Bishops Stortford,Leon,Restaurant/Cafe/Canteen,1,10,,732558,5,,51.88816100000000,14/00144/COM,122,environmentalhealth@uttlesford.gov.uk,Uttlesford,http://www.uttlesford.gov.uk,0.25835400000000,CM24 1QW,2015-01-15,fhrs_3_en-GB,3,,FHRS,10
39894,,,,,Lilley's Cookies & Biscuits,Restaurant/Cafe/Canteen,1,5,,564526,5,,,13/00088/COM,122,environmentalhealth@uttlesford.gov.uk,Uttlesford,http://www.uttlesford.gov.uk,,,2013-06-14,fhrs_5_en-GB,5,,FHRS,0
39895,3 Silver Street,Stansted,Essex,,Linden House Hotel & Restaurant,Restaurant/Cafe/Canteen,1,10,,205759,5,,51.90260600000000,25057003003,122,environmentalhealth@uttlesford.gov.uk,Uttlesford,http://www.uttlesford.gov.uk,0.19261400000000,CM24 8HA,2014-12-10,fhrs_4_en-GB,4,,FHRS,5
39896,Lindsell,Dunmow,Essex,,Lindsell Village Hall,Restaurant/Cafe/Canteen,1,,,478626,,,,5900699940,122,environmentalhealth@uttlesford.gov.uk,Uttlesford,http://www.uttlesford.gov.uk,,,2012-03-22,fhrs_exempt_en-GB,Exempt,,FHRS,
39897,Linsells Stores,Post Office,Station Road,Felsted,Linsells Stores,Retailers - other,4613,0,,123621,5,,51.85645900000000,52011999049,122,environmentalhealth@uttlesford.gov.uk,Uttlesford,http://www.uttlesford.gov.uk,0.43254700000000,CM6 3DG,2014-01-20,fhrs_5_en-GB,5,,FHRS,5
39898,Little Hallingbury Mill,Old Mill Lane,Gaston Green,Little Hallingbury,Little Hallingbury Mill Hotel,Restaurant/Cafe/Canteen,1,0,,125542,5,,51.83127000000000,54019999066,122,environmentalhealth@uttlesford.gov.uk,Uttlesford,http://www.uttlesford.gov.uk,0.17264500000000,CM22 7QT,2013-11-22,fhrs_5_en-GB,5,,FHRS,5
39899,Lower Road,Little Hallingbury,Bishops Stortford,Herts,Little Hallingbury School,School/college/university,7845,0,,125541,0,,51.83544900000000,54018999380,122,environmentalhealth@uttlesford.gov.uk,Uttlesford,http://www.uttlesford.gov.uk,0.18152600000000,CM22 7RE,2014-11-27,fhrs_5_en-GB,5,,FHRS,0
39900,The Baptist Church Hall,Great Sampford,Saffron Walden,Essex,Little Learners Pre-School,School/college/university,7845,0,,88219,0,,51.99353300000000,2301699904,122,environmentalhealth@uttlesford.gov.uk,Uttlesford,http://www.uttlesford.gov.uk,0.39056000000000,CB10 2RG,2013-09-27,fhrs_5_en-GB,5,,FHRS,0
39901,1 Haslers Lane,Great Dunmow,Essex,,Little Learners With Creative Minds Pre-school,School/college/university,7845,,,644218,,,51.86934100000000,13/00223/COM,122,environmentalhealth@uttlesford.gov.uk,Uttlesford,http://www.uttlesford.gov.uk,0.36445800000000,CM6 1XS,2014-01-14,fhrs_exempt_en-GB,Exempt,,FHRS,
39902,5 Ford Farm Industrial Unit,Braintree Road,Dunmow,Essex,Little Monsters House Of Fun,Restaurant/Cafe/Canteen,1,5,,735800,5,,51.87334400000000,14/00167/COM,122,environmentalhealth@uttlesford.gov.uk,Uttlesford,http://www.uttlesford.gov.uk,0.37687100000000,CM6 1HU,2015-01-23,fhrs_4_en-GB,4,,FHRS,10
39903,Little Willows,Watling Lane,Thaxted,Dunmow,Little Willows Bed And Breakfast,Restaurant/Cafe/Canteen,1,5,,667221,0,,51.95829900000000,14/00075/COM,122,environmentalhealth@uttlesford.gov.uk,Uttlesford,http://www.uttlesford.gov.uk,0.33775500000000,CM6 2RA,2014-06-06,fhrs_5_en-GB,5,,FHRS,0
39904,Dunmow Road,Takeley,Bishops Stortford,Hertfordshire,Londis And Post Office Stores,Retailers - supermarkets/hypermarkets,7840,10,,691576,10,,51.86784000000000,14/00098/COM,122,environmentalhealth@uttlesford.gov.uk,Uttlesford,http://www.uttlesford.gov.uk,0.26852100000000,CM22 6SH,2014-07-21,fhrs_3_en-GB,3,,FHRS,10
39905,Peaslands Road,Saffron Walden,Essex,,Lord Butler Leisure Centre,Restaurant/Cafe/Canteen,1,5,,107739,5,,52.01545300000000,38148999023,122,environmentalhealth@uttlesford.gov.uk,Uttlesford,http://www.uttlesford.gov.uk,0.25158500000000,CB11 3EG,2013-06-20,fhrs_5_en-GB,5,,FHRS,0
39906,,,,,Love Bites,Restaurant/Cafe/Canteen,1,5,,107770,0,,,38153043005,122,environmentalhealth@uttlesford.gov.uk,Uttlesford,http://www.uttlesford.gov.uk,,,2015-01-07,fhrs_5_en-GB,5,,FHRS,5
39907,,,,,Love Little Cakes,Retailers - other,4613,,,478500,,,,12/00136/COM,122,environmentalhealth@uttlesford.gov.uk,Uttlesford,http://www.uttlesford.gov.uk,,,2012-08-08,fhrs_exempt_en-GB,Exempt,,FHRS,
39908,,,,,Love Thy Cake,Restaurant/Cafe/Canteen,1,5,,585657,0,,,4902104100,122,environmentalhealth@uttlesford.gov.uk,Uttlesford,http://www.uttlesford.gov.uk,,,2013-09-16,fhrs_5_en-GB,5,,FHRS,0
39909,,,,,Love Your Cake,Restaurant/Cafe/Canteen,1,0,,667218,0,,,14/00065/COM,122,environmentalhealth@uttlesford.gov.uk,Uttlesford,http://www.uttlesford.gov.uk,,,2014-05-27,fhrs_5_en-GB,5,,FHRS,0
39910,30 Lower Street,Stansted,Essex,,Lower Street Brasserie,Restaurant/Cafe/Canteen,1,10,,478487,10,,51.90258500000000,12/00083/COM,122,environmentalhealth@uttlesford.gov.uk,Uttlesford,http://www.uttlesford.gov.uk,0.19999800000000,CM24 8LP,2014-01-22,fhrs_3_en-GB,3,,FHRS,10
39911,9 Market Place,Dunmow,Essex,,Luckins Wines,Retailers - other,4613,,,118735,,,51.87329700000000,48045009004,122,environmentalhealth@uttlesford.gov.uk,Uttlesford,http://www.uttlesford.gov.uk,0.36178900000000,CM6 1AX,2013-06-04,fhrs_exempt_en-GB,Exempt,,FHRS,
39912,Lucky Star,9A Market Place,Dunmow,Essex,Lucky Star,Takeaway/sandwich shop,7844,5,,118736,5,,51.87329700000000,48045009012,122,environmentalhealth@uttlesford.gov.uk,Uttlesford,http://www.uttlesford.gov.uk,0.36178900000000,CM6 1AX,2012-01-25,fhrs_4_en-GB,4,,FHRS,10
39913,,,,,Lucy's Little Cake Kitchen,Restaurant/Cafe/Canteen,1,5,,478483,0,,,12/00060/COM,122,environmentalhealth@uttlesford.gov.uk,Uttlesford,http://www.uttlesford.gov.uk,,,2012-10-05,fhrs_5_en-GB,5,,FHRS,0
39914,,,,,M & G Cole,Retailers - other,4613,5,,150798,5,,,9912COLE,122,environmentalhealth@uttlesford.gov.uk,Uttlesford,http://www.uttlesford.gov.uk,,,2007-09-11,fhrs_5_en-GB,5,,FHRS,5
39915,M And M Supermarket,Stortford Road,Clavering,Saffron Walden,M & M Supermarket,Retailers - supermarkets/hypermarkets,7840,10,,478459,10,,51.96281300000000,0802799947,122,environmentalhealth@uttlesford.gov.uk,Uttlesford,http://www.uttlesford.gov.uk,0.14408000000000,CB11 4PE,2014-12-22,fhrs_3_en-GB,3,,FHRS,10
39916,Stansted Airport,Terminal Road North,Stansted,Bishops Stortford,M+S Simply Food,Retailers - other,4613,0,,732562,0,,51.88816100000000,15/00002/COM,122,environmentalhealth@uttlesford.gov.uk,Uttlesford,http://www.uttlesford.gov.uk,0.25835400000000,CM24 1QW,2015-01-15,fhrs_5_en-GB,5,,FHRS,0
39917,Mace Shop,Carver Barracks,Wimbish,Saffron Walden,Mace,Retailers - supermarkets/hypermarkets,7840,10,,101255,0,,51.98757900000000,33001999020,122,environmentalhealth@uttlesford.gov.uk,Uttlesford,http://www.uttlesford.gov.uk,0.28415100000000,CB10 2YA,2014-02-04,fhrs_4_en-GB,4,,FHRS,5
39918,,,,,Mama K's,Restaurant/Cafe/Canteen,1,0,,589842,0,,,05019037001,122,environmentalhealth@uttlesford.gov.uk,Uttlesford,http://www.uttlesford.gov.uk,,,2013-06-06,fhrs_5_en-GB,5,,FHRS,0
39919,The Street,Manuden,Bishops Stortford,Herts,Manuden Primary School,School/college/university,7845,0,,79296,0,,51.91692800000000,19017999020,122,environmentalhealth@uttlesford.gov.uk,Uttlesford,http://www.uttlesford.gov.uk,0.16652600000000,CM23 1DE,2013-05-14,fhrs_5_en-GB,5,,FHRS,5
39920,Unit 2,Stansted House,Shire Hill,Saffron Walden,Manzil Indian Takeaway,Takeaway/sandwich shop,7844,10,,579043,5,,52.02070400000000,13/00054/COM,122,environmentalhealth@uttlesford.gov.uk,Uttlesford,http://www.uttlesford.gov.uk,0.25581300000000,CB11 3AQ,2013-07-18,fhrs_4_en-GB,4,,FHRS,0
39921,Walden Road,Thaxted,Dunmow,Essex,Maranello,Hospitals/Childcare/Caring Premises,5,5,,131509,5,,51.96027800000000,63023999058,122,environmentalhealth@uttlesford.gov.uk,Uttlesford,http://www.uttlesford.gov.uk,0.34315600000000,CM6 2RE,2011-10-12,fhrs_5_en-GB,5,,FHRS,0
39922,Rectory Lane,Ashdon,Saffron Walden,,Marpa House,Hotel/bed & breakfast/guest house,7842,0,,478420,0,,52.05496700000000,02016999047,122,environmentalhealth@uttlesford.gov.uk,Uttlesford,http://www.uttlesford.gov.uk,0.30860700000000,CB10 2HN,2014-10-27,fhrs_5_en-GB,5,,FHRS,0
39923,23 High Street,Dunmow,Essex,,May & Brett Ltd,Retailers - other,4613,5,,118709,5,,51.87233100000000,48037023001,122,environmentalhealth@uttlesford.gov.uk,Uttlesford,http://www.uttlesford.gov.uk,0.36335100000000,CM6 1AB,2013-06-20,fhrs_4_en-GB,4,,FHRS,10
39924,9 Market Place,Saffron Walden,Essex,,"Maze By Day, Meze By Night",Restaurant/Cafe/Canteen,1,10,,107695,10,,52.02409600000000,38119009002,122,environmentalhealth@uttlesford.gov.uk,Uttlesford,http://www.uttlesford.gov.uk,0.24161100000000,CB10 1HR,2014-10-30,fhrs_3_en-GB,3,,FHRS,5
39925,McDonalds,Unit 3,Southgate,Stansted Airport,McDonalds Restaurant Ltd,Restaurant/Cafe/Canteen,1,5,,130737,5,,,6204399930,122,environmentalhealth@uttlesford.gov.uk,Uttlesford,http://www.uttlesford.gov.uk,,CM24 1AA,2014-11-28,fhrs_5_en-GB,5,,FHRS,5
39926,The Meadows Montessori Day Nursery,Ross Close,Saffron Walden,Essex,Meadows Montessori Day,School/college/university,7845,0,,107791,0,,52.01069600000000,3816399913,122,environmentalhealth@uttlesford.gov.uk,Uttlesford,http://www.uttlesford.gov.uk,0.24732400000000,CB11 4DU,2013-10-14,fhrs_5_en-GB,5,,FHRS,0
39927,Saffron Walden Methodist Church,Castle Street,Saffron Walden,Essex,Methodist Church,Restaurant/Cafe/Canteen,1,,,478561,,,52.02506900000000,3803899913,122,environmentalhealth@uttlesford.gov.uk,Uttlesford,http://www.uttlesford.gov.uk,0.23865700000000,CB10 1BP,2012-08-20,fhrs_exempt_en-GB,Exempt,,FHRS,
39928,Mill House,Newmarket Road,Great Chesterford,Saffron Walden,Mill House B&B,Hotel/bed & breakfast/guest house,7842,5,,478442,0,,52.06345600000000,05017999051,122,environmentalhealth@uttlesford.gov.uk,Uttlesford,http://www.uttlesford.gov.uk,0.19330700000000,CB10 1NS,2014-01-17,fhrs_5_en-GB,5,,FHRS,0
39929,The Heath,Hatfield Heath,,,Mings Garden,Restaurant/Cafe/Canteen,1,10,,110328,10,,51.81296900000000,40025999303,122,environmentalhealth@uttlesford.gov.uk,Uttlesford,http://www.uttlesford.gov.uk,0.20892000000000,CM22 7EB,2014-11-28,fhrs_3_en-GB,3,,FHRS,10
39930,Passenger Terminal,Terminal Road North,Stansted,Bishops Stortford,Mitie Facilities,Mobile caterer,7846,,,667212,,,51.88994900000000,14/00038/COM,122,environmentalhealth@uttlesford.gov.uk,Uttlesford,http://www.uttlesford.gov.uk,0.26172800000000,CM24 1RW,2014-04-02,fhrs_exempt_en-GB,Exempt,,FHRS,
39931,Dunmow Road,Great Easton,Dunmow,Essex,Moat House Residential Home,Hospitals/Childcare/Caring Premises,5,5,,121284,0,,51.90130000000000,50010999116,122,environmentalhealth@uttlesford.gov.uk,Uttlesford,http://www.uttlesford.gov.uk,0.34201900000000,CM6 2DL,2014-03-19,fhrs_5_en-GB,5,,FHRS,0
39932,11 Central Arcade,Saffron Walden,Essex,,Mocha Cafe,Restaurant/Cafe/Canteen,1,0,,107572,0,,52.02293500000000,38041011004,122,environmentalhealth@uttlesford.gov.uk,Uttlesford,http://www.uttlesford.gov.uk,0.23929400000000,CB10 1ER,2014-01-13,fhrs_5_en-GB,5,,FHRS,5
39933,Village Stores,Molehill Green,Takeley,Hertfordshire,Molehill Green Stores,Retailers - other,4613,10,,130721,5,,51.89884800000000,62027999248,122,environmentalhealth@uttlesford.gov.uk,Uttlesford,http://www.uttlesford.gov.uk,0.27124500000000,CM22 6PQ,2014-08-31,fhrs_3_en-GB,3,,FHRS,10
39934,Mill End,Bambers Green Road,Takeley,Bishops Stortford,Montessori Nursery School,School/college/university,7845,5,,130728,5,,51.88792200000000,62031999117,122,environmentalhealth@uttlesford.gov.uk,Uttlesford,http://www.uttlesford.gov.uk,0.26562300000000,CM22 6PL,2014-12-03,fhrs_5_en-GB,5,,FHRS,5
39935,Motts Cottage,High Street,Stebbing,Dunmow,Motts Cottage B&B,Hotel/bed & breakfast/guest house,7842,0,,478628,0,,51.89100000000000,61014999588,122,environmentalhealth@uttlesford.gov.uk,Uttlesford,http://www.uttlesford.gov.uk,0.41426800000000,CM6 3SE,2014-10-31,fhrs_5_en-GB,5,,FHRS,0
39936,Mountfitchet Castle,Off Lower Street,Stansted,Essex,Mountfitchet Castle,Restaurant/Cafe/Canteen,1,5,,91123,5,,51.90362700000000,25036999037,122,environmentalhealth@uttlesford.gov.uk,Uttlesford,http://www.uttlesford.gov.uk,0.20150300000000,CM24 8SP,2014-03-13,fhrs_5_en-GB,5,,FHRS,0
39937,Coltsfield,Stansted,Essex,,Mountfitchet House,Hospitals/Childcare/Caring Premises,5,0,,718084,0,,,14/00120/COM,122,environmentalhealth@uttlesford.gov.uk,Uttlesford,http://www.uttlesford.gov.uk,,CM24 9LH,2014-11-07,fhrs_5_en-GB,5,,FHRS,0
39938,,,,,Moving Feasts Ltd,Mobile caterer,7846,5,,406963,5,,,6501199901,122,environmentalhealth@uttlesford.gov.uk,Uttlesford,http://www.uttlesford.gov.uk,,,2012-06-13,fhrs_5_en-GB,5,,FHRS,5
39939,2 St Leonards Close,Cambridge Road,Newport,Saffron Walden,Mr Monkey's Sweet Shop,Retailers - other,4613,,,478530,,,51.99210200000000,20027002004,122,environmentalhealth@uttlesford.gov.uk,Uttlesford,http://www.uttlesford.gov.uk,0.21257000000000,CB11 3TQ,2013-10-01,fhrs_exempt_en-GB,Exempt,,FHRS,
39940,8 High Street,Dunmow,Essex,,Musketeers,Restaurant/Cafe/Canteen,1,5,,667220,5,,51.87234600000000,14/00072/COM,122,environmentalhealth@uttlesford.gov.uk,Uttlesford,http://www.uttlesford.gov.uk,0.36258100000000,CM6 1AG,2014-05-12,fhrs_4_en-GB,4,,FHRS,10
39941,Myddleton Maltings,1 Myddylton Place,Saffron Walden,Essex,Myddlyton Maltings,Restaurant/Cafe/Canteen,1,5,,478576,5,,52.02435600000000,38134001009,122,environmentalhealth@uttlesford.gov.uk,Uttlesford,http://www.uttlesford.gov.uk,0.23691600000000,CB10 1BB,2013-09-12,fhrs_5_en-GB,5,,FHRS,0
39942,3 Saville Close,Clavering,Saffron Walden,Essex,Natures Pharmacy,Distributors/Transporters,7,,,478456,,,51.96373800000000,0802200300X,122,environmentalhealth@uttlesford.gov.uk,Uttlesford,http://www.uttlesford.gov.uk,0.13824300000000,CB11 4PY,2014-10-13,fhrs_exempt_en-GB,Exempt,,FHRS,
39943,18 - 20 George Street,Saffron Walden,Essex,,Nemonthron Tandoori Indian,Restaurant/Cafe/Canteen,1,5,,107614,5,,52.02255700000000,38079018006,122,environmentalhealth@uttlesford.gov.uk,Uttlesford,http://www.uttlesford.gov.uk,0.23980000000000,CB10 1EQ,2014-10-30,fhrs_5_en-GB,5,,FHRS,5
39944,23 Stortford Road,Dunmow,,,New Happy Garden,Takeaway/sandwich shop,7844,10,,722780,15,,51.87305500000000,14/00159/COM,122,environmentalhealth@uttlesford.gov.uk,Uttlesford,http://www.uttlesford.gov.uk,0.36084600000000,CM6 1DA,2014-11-19,fhrs_2_en-GB,2,,FHRS,15
39945,9 Shire Hill Industrial Estate,Saffron Walden,Essex,,New Life Pentecostal Church,Restaurant/Cafe/Canteen,1,,,478579,,,52.02070400000000,3817299950X,122,environmentalhealth@uttlesford.gov.uk,Uttlesford,http://www.uttlesford.gov.uk,0.25581300000000,CB11 3AQ,2013-02-07,fhrs_exempt_en-GB,Exempt,,FHRS,
39946,12 King Street,Saffron Walden,Essex,,New Look,Retailers - other,4613,,,478569,,,52.02349900000000,38100012008,122,environmentalhealth@uttlesford.gov.uk,Uttlesford,http://www.uttlesford.gov.uk,0.23990500000000,CB10 1ES,2014-02-18,fhrs_exempt_en-GB,Exempt,,FHRS,
39947,Newdegate House  Howlett End,Thaxted Road,Wimbish,Saffron Walden,Newdegate  House,Hotel/bed & breakfast/guest house,7842,5,,522305,0,,51.98758900000000,13/00029/COM,122,environmentalhealth@uttlesford.gov.uk,Uttlesford,http://www.uttlesford.gov.uk,0.31082000000000,CB10 2XW,2014-11-24,fhrs_5_en-GB,5,,FHRS,0
39948,Clubhouse,Elephant Green,Church Street,Newport,Newport Club,Pub/bar/nightclub,7843,5,,82296,5,,51.98496500000000,2000299920X,122,environmentalhealth@uttlesford.gov.uk,Uttlesford,http://www.uttlesford.gov.uk,0.21434500000000,CB11 3RB,2015-01-09,fhrs_5_en-GB,5,,FHRS,5
39949,Cambridge Road,Newport,Saffron Walden,,Newport Free Grammar School,School/college/university,7845,0,,82298,0,,51.99024700000000,20006999018,122,environmentalhealth@uttlesford.gov.uk,Uttlesford,http://www.uttlesford.gov.uk,0.21412500000000,CB11 3TR,2013-07-09,fhrs_5_en-GB,5,,FHRS,0
39950,Aruma House,High Street,Newport,Saffron Walden,Newport Post Office,Retailers - other,4613,,,478526,,,51.98414700000000,20017999537,122,environmentalhealth@uttlesford.gov.uk,Uttlesford,http://www.uttlesford.gov.uk,0.21429000000000,CB11 3QX,2013-02-08,fhrs_exempt_en-GB,Exempt,,FHRS,
39951,Newport County Primary School,Frambury Lane,Newport,Saffron Walden,Newport Primary School,School/college/university,7845,0,,82325,5,,51.98002000000000,20013999117,122,environmentalhealth@uttlesford.gov.uk,Uttlesford,http://www.uttlesford.gov.uk,0.20898900000000,CB11 3PU,2013-07-11,fhrs_5_en-GB,5,,FHRS,5
39952,Newport Village Stores,High Street,Newport,Saffron Walden,Newport Stores (Essex) Ltd,Retailers - supermarkets/hypermarkets,7840,5,,82328,0,,51.98465100000000,20017999227,122,environmentalhealth@uttlesford.gov.uk,Uttlesford,http://www.uttlesford.gov.uk,0.21476600000000,CB11 3QY,2015-01-09,fhrs_5_en-GB,5,,FHRS,5
39953,Village Hall,Station Road,Newport,Saffron Walden,Newport Village Hall,Restaurant/Cafe/Canteen,1,,,478531,,,51.98007900000000,20028999258,122,environmentalhealth@uttlesford.gov.uk,Uttlesford,http://www.uttlesford.gov.uk,0.21403100000000,CB11 3PL,2013-08-13,fhrs_exempt_en-GB,Exempt,,FHRS,
39954,,,,,Nikki Nash Cakes & The Millionaire Shortbread Company.,Retailers - other,4613,5,,482223,0,,,12/00164/COM,122,environmentalhealth@uttlesford.gov.uk,Uttlesford,http://www.uttlesford.gov.uk,,,2012-12-07,fhrs_5_en-GB,5,,FHRS,5
39955,58 - 60 Cromwell Road,Saffron Walden,Essex,,Nisa Supermarket,Retailers - supermarkets/hypermarkets,7840,5,,107585,5,,52.01216800000000,38053058000,122,environmentalhealth@uttlesford.gov.uk,Uttlesford,http://www.uttlesford.gov.uk,0.24745600000000,CB11 4BE,2012-08-14,fhrs_5_en-GB,5,,FHRS,5
39956,39 Audley Road,Saffron Walden,Essex,,Noahs Cafe,Restaurant/Cafe/Canteen,1,0,,107544,0,,52.02111400000000,38014039009,122,environmentalhealth@uttlesford.gov.uk,Uttlesford,http://www.uttlesford.gov.uk,0.24236600000000,CB11 3HD,2014-09-16,fhrs_5_en-GB,5,,FHRS,0
39957,Marketing House,Stortford Road,Hatfield Heath,CM22 7EB,Nursery On The Heath,School/college/university,7845,0,,430057,0,,,40025999192,122,environmentalhealth@uttlesford.gov.uk,Uttlesford,http://www.uttlesford.gov.uk,,,2015-01-06,fhrs_5_en-GB,5,,FHRS,5
39958,2 Mill End,Thaxted,Essex,,Ocean Delight Fish & Chips,Takeaway/sandwich shop,7844,0,,131505,0,,51.95251000000000,63020002001,122,environmentalhealth@uttlesford.gov.uk,Uttlesford,http://www.uttlesford.gov.uk,0.34577800000000,CM6 2LT,2014-11-11,fhrs_5_en-GB,5,,FHRS,5
39959,11 Gold Street,Saffron Walden,Essex,,Old English Gentleman,Pub/bar/nightclub,7843,5,,107623,5,,52.02172600000000,38084999036,122,environmentalhealth@uttlesford.gov.uk,Uttlesford,http://www.uttlesford.gov.uk,0.24045800000000,CB10 1EJ,2014-10-03,fhrs_5_en-GB,5,,FHRS,5
39960,23 Fairycroft Road,Saffron Walden,Essex,,Old Forge Hotel B&B,Hotel/bed & breakfast/guest house,7842,5,,478562,10,,52.02243900000000,38066023006,122,environmentalhealth@uttlesford.gov.uk,Uttlesford,http://www.uttlesford.gov.uk,0.24361300000000,CB10 1LZ,2014-01-06,fhrs_4_en-GB,4,,FHRS,0
39961,,,,,Olies Seafood,Mobile caterer,7846,10,,704724,5,,,14/00079/MOB,122,environmentalhealth@uttlesford.gov.uk,Uttlesford,http://www.uttlesford.gov.uk,,,2014-09-05,fhrs_4_en-GB,4,,FHRS,5
39962,Olive Garden Stall,Saffron Walden Market,,,Olive Garden,Retailers - other,4613,5,,150880,0,,,9937OLIVEGARDEN,122,environmentalhealth@uttlesford.gov.uk,Uttlesford,http://www.uttlesford.gov.uk,,,2012-06-19,fhrs_5_en-GB,5,,FHRS,5
39963,Newport County Primary School,Frambury Lane,Newport,Saffron Walden,Olivers Lodge Nursery,School/college/university,7845,5,,82324,5,,51.98002000000000,20013999109,122,environmentalhealth@uttlesford.gov.uk,Uttlesford,http://www.uttlesford.gov.uk,0.20898900000000,CB11 3PU,2015-01-22,fhrs_5_en-GB,5,,FHRS,0
39964,4 Ambrose Corner,High Street,Elsenham,Bishops Stortford,One Stop Convenience Stores,Retailers - supermarkets/hypermarkets,7840,5,,49657,5,,51.91000400000000,11022999273,122,environmentalhealth@uttlesford.gov.uk,Uttlesford,http://www.uttlesford.gov.uk,0.24233700000000,CM22 6DP,2014-01-20,fhrs_5_en-GB,5,,FHRS,5
39965,One Stop Community Stores,58/62 High Street,Dunmow,Essex,One Stop Stores,Retailers - other,4613,0,,118719,0,,51.87067400000000,4803705800X,122,environmentalhealth@uttlesford.gov.uk,Uttlesford,http://www.uttlesford.gov.uk,0.36436800000000,CM6 1AW,2013-09-16,fhrs_5_en-GB,5,,FHRS,0
39966,One Stop,Honey Road,Little Canfield,Great Dunmow,One Stop Stores Ltd,Retailers - other,4613,5,,579047,0,,51.86896600000000,13/00131/COM,122,environmentalhealth@uttlesford.gov.uk,Uttlesford,http://www.uttlesford.gov.uk,0.28192700000000,CM6 1YE,2013-08-01,fhrs_4_en-GB,4,,FHRS,10
39967,1 Mercers Row,(First Floor),Saffron Walden,Essex,Oriental Cottage,Takeaway/sandwich shop,7844,10,,107710,10,,52.02328100000000,38127001007,122,environmentalhealth@uttlesford.gov.uk,Uttlesford,http://www.uttlesford.gov.uk,0.24049200000000,CB10 1HD,2014-12-10,fhrs_3_en-GB,3,,FHRS,10
39968,16 King Street,Saffron Walden,Essex,,Oxfam,Retailers - other,4613,,,478570,,,52.02349900000000,38100016003,122,environmentalhealth@uttlesford.gov.uk,Uttlesford,http://www.uttlesford.gov.uk,0.23990500000000,CB10 1ES,2011-10-07,fhrs_exempt_en-GB,Exempt,,FHRS,
39969,,,,,"P  Howes And Son, Catering",Restaurant/Cafe/Canteen,1,10,,91170,5,,,2506402700,122,environmentalhealth@uttlesford.gov.uk,Uttlesford,http://www.uttlesford.gov.uk,,,2011-12-29,fhrs_4_en-GB,4,,FHRS,5
39970,Welcome Break Service Station,Dunmow Road,Birchanger,Bishops Stortford,Papa John's,Restaurant/Cafe/Canteen,1,10,,704729,10,,51.88254900000000,14/00106/DOM,122,environmentalhealth@uttlesford.gov.uk,Uttlesford,http://www.uttlesford.gov.uk,0.19134800000000,CM23 5QH,2014-09-16,fhrs_4_en-GB,4,,FHRS,0
39971,44 High Street,Great Dunmow,Essex,,Paradise Cafe,Restaurant/Cafe/Canteen,1,10,,644224,5,,51.87155200000000,14/00047/COM,122,environmentalhealth@uttlesford.gov.uk,Uttlesford,http://www.uttlesford.gov.uk,0.36315000000000,CM6 1AH,2014-04-03,fhrs_4_en-GB,4,,FHRS,5
39972,Parfect Fairways Unit 14,Flitch Industrial Estate,Chelmsford Road,Great Dunmow,Parfect Fairways,Restaurant/Cafe/Canteen,1,10,,536244,5,,51.86765200000000,12/00178/COM,122,environmentalhealth@uttlesford.gov.uk,Uttlesford,http://www.uttlesford.gov.uk,0.36483400000000,CM6 1XJ,2014-03-20,fhrs_3_en-GB,3,,FHRS,10
39973,Quendon Park,Newport Drive,Quendon,Saffron Walden,Parklands,Restaurant/Cafe/Canteen,1,0,,84670,5,,51.96393500000000,2100999901X,122,environmentalhealth@uttlesford.gov.uk,Uttlesford,http://www.uttlesford.gov.uk,0.20266700000000,CB11 3XN,2014-07-14,fhrs_5_en-GB,5,,FHRS,5
39974,Parrishes,36 Town Street,Thaxted,Dunmow,Parrishes Wine Bar,Restaurant/Cafe/Canteen,1,5,,131518,5,,51.95376400000000,63039036009,122,environmentalhealth@uttlesford.gov.uk,Uttlesford,http://www.uttlesford.gov.uk,0.34421400000000,CM6 2LA,2012-03-02,fhrs_5_en-GB,5,,FHRS,5
39975,Claire A'Violet,6 Market Place,Dunmow,Essex,Patisserie Colistance,Restaurant/Cafe/Canteen,1,5,,668675,5,,51.87322500000000,48045006005,122,environmentalhealth@uttlesford.gov.uk,Uttlesford,http://www.uttlesford.gov.uk,0.36227900000000,CM6 1AT,2014-04-09,fhrs_5_en-GB,5,,FHRS,0
39976,1 Saling Road,Stebbing,Dunmow,Essex,Patricia Pilgrim Mem. School,School/college/university,7845,0,,130014,0,,51.89038600000000,61024999076,122,environmentalhealth@uttlesford.gov.uk,Uttlesford,http://www.uttlesford.gov.uk,0.44051200000000,CM6 3TD,2014-03-24,fhrs_5_en-GB,5,,FHRS,0
39977,,,,,Peake-a-boo Cakes,Restaurant/Cafe/Canteen,1,0,,704728,0,,,14/00105/COM,122,environmentalhealth@uttlesford.gov.uk,Uttlesford,http://www.uttlesford.gov.uk,,,2014-09-24,fhrs_5_en-GB,5,,FHRS,0
39978,,,,,Pennys,Mobile caterer,7846,0,,729260,5,,,14/00163/COM,122,environmentalhealth@uttlesford.gov.uk,Uttlesford,http://www.uttlesford.gov.uk,,,2014-12-17,fhrs_5_en-GB,5,,FHRS,0
39979,Station House,Station Road,Stansted,Essex,Pino Pizza & Grill,Takeaway/sandwich shop,7844,10,,579042,10,,51.90168800000000,12/00135/COM,122,environmentalhealth@uttlesford.gov.uk,Uttlesford,http://www.uttlesford.gov.uk,0.19937300000000,CM24 8BE,2014-08-29,fhrs_3_en-GB,3,,FHRS,10
39980,Passenger Terminal,Terminal Road North,Stansted,Bishops Stortford,Pip,Restaurant/Cafe/Canteen,1,0,,667211,5,,51.88994900000000,14/00032/COM,122,environmentalhealth@uttlesford.gov.uk,Uttlesford,http://www.uttlesford.gov.uk,0.26172800000000,CM24 1RW,2014-05-20,fhrs_5_en-GB,5,,FHRS,0
39981,Pippin Cottage,Walden Road,Hadstock,,Pippin Cottage B & B,Hotel/bed & breakfast/guest house,7842,0,,612325,0,,52.07951200000000,13/00178/COM,122,environmentalhealth@uttlesford.gov.uk,Uttlesford,http://www.uttlesford.gov.uk,0.27224800000000,CB21 4NX,2013-11-11,fhrs_5_en-GB,5,,FHRS,0
39982,The Plough,Sampford Road,Radwinter,Saffron Walden,PJM Properties,Restaurant/Cafe/Canteen,1,10,,732559,10,,52.01140500000000,14/00145/COM,122,environmentalhealth@uttlesford.gov.uk,Uttlesford,http://www.uttlesford.gov.uk,0.35146600000000,CB10 2TL,2015-01-15,fhrs_3_en-GB,3,,FHRS,5
39983,,,,,Planet Of The Crepes,Mobile caterer,7846,5,,430056,5,,,3301699968,122,environmentalhealth@uttlesford.gov.uk,Uttlesford,http://www.uttlesford.gov.uk,,,2014-08-26,fhrs_5_en-GB,5,,FHRS,0
39984,Potash Farm,Felsted,Great Dunmow,Essex,Potash Farm B&B,Hotel/bed & breakfast/guest house,7842,0,,637182,5,,51.84947500000000,52012999018,122,environmentalhealth@uttlesford.gov.uk,Uttlesford,http://www.uttlesford.gov.uk,0.44844800000000,CM6 3LX,2011-09-30,fhrs_5_en-GB,5,,FHRS,5
39985,83 Rowntree Way,Saffron Walden,Essex,,Premier Convenience Store,Retailers - other,4613,10,,107792,10,,52.01344500000000,38164083003,122,environmentalhealth@uttlesford.gov.uk,Uttlesford,http://www.uttlesford.gov.uk,0.23804800000000,CB11 4BY,2011-06-20,fhrs_3_en-GB,3,,FHRS,10
39986,GF PT Unit 2,Martels Industrial Estate,High Easter Road,Barnston,Premier Crew Hospitality,Hospitals/Childcare/Caring Premises,5,5,,681298,5,,51.85096300000000,14/00088/COM,122,environmentalhealth@uttlesford.gov.uk,Uttlesford,http://www.uttlesford.gov.uk,0.37990300000000,CM6 1NA,2014-06-12,fhrs_5_en-GB,5,,FHRS,5
39987,Thremhall Avenue,London Stansted Airport,Stansted,Essex,Premier Inn,Restaurant/Cafe/Canteen,1,0,,564533,0,,51.87620500000000,2602199905,122,environmentalhealth@uttlesford.gov.uk,Uttlesford,http://www.uttlesford.gov.uk,0.24642200000000,CM24 1PY,2014-01-16,fhrs_5_en-GB,5,,FHRS,5
39988,Pret A Manger (Airside),Passenger Terminal,Terminal Road North,Stansted Airport,Pret A Manger,Restaurant/Cafe/Canteen,1,5,,130752,0,,51.88816100000000,62069999033,122,environmentalhealth@uttlesford.gov.uk,Uttlesford,http://www.uttlesford.gov.uk,0.25835400000000,CM24 1QW,2014-10-17,fhrs_5_en-GB,5,,FHRS,5
39989,1 - 3 Cross Street,Saffron Walden,Essex,,Prezzo,Restaurant/Cafe/Canteen,1,5,,107587,0,,52.02299100000000,38054001002,122,environmentalhealth@uttlesford.gov.uk,Uttlesford,http://www.uttlesford.gov.uk,0.24011300000000,CB10 1EX,2014-06-13,fhrs_5_en-GB,5,,FHRS,5
39990,27 High Street,Dunmow,Essex,,Pride Of Sylhet,Restaurant/Cafe/Canteen,1,10,,118711,10,,51.87233100000000,48037027017,122,environmentalhealth@uttlesford.gov.uk,Uttlesford,http://www.uttlesford.gov.uk,0.36335100000000,CM6 1AB,2013-09-05,fhrs_3_en-GB,3,,FHRS,10
39991,,,,,Pri's Kitchen,Restaurant/Cafe/Canteen,1,0,,478481,0,,,12/00048/COM,122,environmentalhealth@uttlesford.gov.uk,Uttlesford,http://www.uttlesford.gov.uk,,,2014-01-23,fhrs_5_en-GB,5,,FHRS,0
39992,30 Church Street,Saffron Walden,Essex,,Provenant Drinks Ltd,Restaurant/Cafe/Canteen,1,,,667209,,,52.02475000000000,14/00019/COM,122,environmentalhealth@uttlesford.gov.uk,Uttlesford,http://www.uttlesford.gov.uk,0.24128000000000,CB10 1JQ,2014-04-28,fhrs_exempt_en-GB,Exempt,,FHRS,
39993,Foakes Hall,Stortford Road,Dunmow,Essex,Puffin Pre-School,Restaurant/Cafe/Canteen,1,5,,118785,5,,51.87296100000000,48079999112A,122,environmentalhealth@uttlesford.gov.uk,Uttlesford,http://www.uttlesford.gov.uk,0.35793600000000,CM6 1DG,2012-12-05,fhrs_5_en-GB,5,,FHRS,5
39994,Philpot End,Dunmow,Essex,,Puttocks Farm B&B,Hotel/bed & breakfast/guest house,7842,0,,579057,0,,51.85144400000000,48064999022,122,environmentalhealth@uttlesford.gov.uk,Uttlesford,http://www.uttlesford.gov.uk,0.35556200000000,CM6 1JQ,2013-08-06,fhrs_5_en-GB,5,,FHRS,5
39995,26/28 High St,Saffron Walden,Essex,,QD Stores,Retailers - other,4613,5,,478565,5,,52.02344800000000,38090026001,122,environmentalhealth@uttlesford.gov.uk,Uttlesford,http://www.uttlesford.gov.uk,0.23879500000000,CB10 1AX,2013-10-14,fhrs_5_en-GB,5,,FHRS,5
39996,The Queens Head,Cambridge Road,Littlebury,Saffron Walden,Queens Head Inn,Pub/bar/nightclub,7843,10,,536246,5,,52.03409000000000,13/00001/COM,122,environmentalhealth@uttlesford.gov.uk,Uttlesford,http://www.uttlesford.gov.uk,0.20905900000000,CB11 4TD,2014-10-30,fhrs_3_en-GB,3,,FHRS,10
39997,Village Hall,Cambridge Road,Quendon,Saffron Walden,Quendon Village Hall,Restaurant/Cafe/Canteen,1,0,,478532,0,,51.94908200000000,21003999549,122,environmentalhealth@uttlesford.gov.uk,Uttlesford,http://www.uttlesford.gov.uk,0.20012000000000,CB11 3XQ,2013-11-25,fhrs_5_en-GB,5,,FHRS,0
39998,Fruit & Veg Stall,Saffron Walden Market,,,R & C Fruits,Retailers - other,4613,0,,478671,0,,,9938RB,122,environmentalhealth@uttlesford.gov.uk,Uttlesford,http://www.uttlesford.gov.uk,,CM7 6TB,2012-05-22,fhrs_5_en-GB,5,,FHRS,0
39999,R A Butler School,South Road,Saffron Walden,Essex,R A Butler Primary School,School/college/university,7845,0,,508021,0,,52.02049000000000,13/00017/COM,122,environmentalhealth@uttlesford.gov.uk,Uttlesford,http://www.uttlesford.gov.uk,0.24443400000000,CB11 3DG,2015-01-15,fhrs_5_en-GB,5,,FHRS,5
40000,R H Simons,Cage End,Hatfield Broad Oak,Bishops Stortford,R H Simons Butchers,Manufacturers/packers,7839,5,,126155,5,,51.82546000000000,55007999040,122,environmentalhealth@uttlesford.gov.uk,Uttlesford,http://www.uttlesford.gov.uk,0.24171900000000,CM22 7HL,2013-10-07,fhrs_5_en-GB,5,,FHRS,0
40001,Radhuni,56 High Street,Newport,Saffron Walden,Radhuni Restaurant,Restaurant/Cafe/Canteen,1,20,,82329,10,,51.98414700000000,20017999553,122,environmentalhealth@uttlesford.gov.uk,Uttlesford,http://www.uttlesford.gov.uk,0.21429000000000,CB11 3QX,2014-10-30,fhrs_1_en-GB,1,,FHRS,10
40002,Waltham Close,London Stansted Airport,Essex,,Radisson Blu Hotel,Hotel/bed & breakfast/guest house,7842,5,,92489,0,,51.89227600000000,2605799901,122,environmentalhealth@uttlesford.gov.uk,Uttlesford,http://www.uttlesford.gov.uk,0.26463500000000,CM24 1PP,2014-02-24,fhrs_5_en-GB,5,,FHRS,0
40003,Radwinter,Saffron Walden,Essex,,Radwinter Bowling Club,Pub/bar/nightclub,7843,5,,478534,10,,52.01908200000000,22010999231,122,environmentalhealth@uttlesford.gov.uk,Uttlesford,http://www.uttlesford.gov.uk,0.31850700000000,CB10 2SS,2011-12-21,fhrs_4_en-GB,4,,FHRS,0
40004,Radwinter Primary School,Radwinter,Saffron Walden,Essex,Radwinter School,School/college/university,7845,5,,86480,0,,52.01606300000000,22010999266,122,environmentalhealth@uttlesford.gov.uk,Uttlesford,http://www.uttlesford.gov.uk,0.33750100000000,CB10 2TX,2014-04-02,fhrs_5_en-GB,5,,FHRS,5
40005,Game Establishment,Park Farm,Radwinter,Saffron Walden,Radwinter Wild Game Company,Farmers/growers,7838,10,,86483,5,,52.03193200000000,22011999651,122,environmentalhealth@uttlesford.gov.uk,Uttlesford,http://www.uttlesford.gov.uk,0.36780800000000,CB10 2UE,2014-10-09,fhrs_4_en-GB,4,,FHRS,5
40006,Stortford Road,Hatfield Heath,Bishops Stortford,,Raj Of India,Takeaway/sandwich shop,7844,20,,110329,20,,51.81296900000000,4002599932X,122,environmentalhealth@uttlesford.gov.uk,Uttlesford,http://www.uttlesford.gov.uk,0.20892000000000,CM22 7EB,2014-08-12,fhrs_0_en-GB,0,,FHRS,15
40007,Lime Tree House,King Street,Saffron Walden,Essex,Rajdhani,Restaurant/Cafe/Canteen,1,10,,216293,10,,,38100999112,122,environmentalhealth@uttlesford.gov.uk,Uttlesford,http://www.uttlesford.gov.uk,,CB10 1HG,2014-02-27,fhrs_3_en-GB,3,,FHRS,5
40008,Ramada Hotel,Dunmow Road,Birchanger,Hertfordshire,Ramada,Hotel/bed & breakfast/guest house,7842,5,,706484,5,,51.87160200000000,14/00124/COM,122,environmentalhealth@uttlesford.gov.uk,Uttlesford,http://www.uttlesford.gov.uk,0.19488300000000,CM23 5QZ,2014-09-02,fhrs_5_en-GB,5,,FHRS,5
40009,Red Chilli,Dunmow Road,Hatfield Broad Oak,Bishops Stortford,Red Chilli Takeaway,Takeaway/sandwich shop,7844,20,,130713,15,,51.86784000000000,6201299945X,122,environmentalhealth@uttlesford.gov.uk,Uttlesford,http://www.uttlesford.gov.uk,0.26852100000000,CM22 6SH,2014-09-15,fhrs_1_en-GB,1,,FHRS,15
40010,Chequers Lane,GT Dunmow,Essex,,Redbond Lodge,Hospitals/Childcare/Caring Premises,5,5,,118767,5,,51.87153300000000,48066999011,122,environmentalhealth@uttlesford.gov.uk,Uttlesford,http://www.uttlesford.gov.uk,0.36008400000000,CM6 1EG,2014-03-17,fhrs_5_en-GB,5,,FHRS,5
40011,Rickling Primary School,Rickling Green,Saffron Walden,Essex,Rickling Green Primary School Cafe,School/college/university,7845,5,,84681,5,,51.94587200000000,2101099901X,122,environmentalhealth@uttlesford.gov.uk,Uttlesford,http://www.uttlesford.gov.uk,0.19671800000000,CB11 3YG,2014-03-18,fhrs_5_en-GB,5,,FHRS,5
40012,Rodings Central Primary School,Dunmow Road,Leaden Roding,Dunmow,Rodings Primary School,School/college/university,7845,5,,128180,5,,51.79864900000000,58003999073,122,environmentalhealth@uttlesford.gov.uk,Uttlesford,http://www.uttlesford.gov.uk,0.30973200000000,CM6 1PZ,2014-12-15,fhrs_4_en-GB,4,,FHRS,10
40013,Romeera Leisure Cente,Forest Hall Road,Stansted,Essex,Romeera Leisure Centre,Restaurant/Cafe/Canteen,1,0,,478544,0,,51.89375200000000,2601099907,122,environmentalhealth@uttlesford.gov.uk,Uttlesford,http://www.uttlesford.gov.uk,0.20635400000000,CM24 8TZ,2013-07-11,fhrs_5_en-GB,5,,FHRS,0
40014,Rose And Crown Inn,Crown Hill,Bartlow Road,Ashdon,Rose & Crown Ltd,Pub/bar/nightclub,7843,20,,545800,10,,52.05489200000000,13/00047/COM,122,environmentalhealth@uttlesford.gov.uk,Uttlesford,http://www.uttlesford.gov.uk,0.31290700000000,CB10 2HA,2014-10-23,fhrs_1_en-GB,1,,FHRS,5
40015,31 Bentfield Green,Pennington Lane,Stansted,Essex,Rose And Crown,Pub/bar/nightclub,7843,10,,668673,10,,51.90815400000000,14/00073/COM,122,environmentalhealth@uttlesford.gov.uk,Uttlesford,http://www.uttlesford.gov.uk,0.18875600000000,CM24 8HX,2014-09-24,fhrs_3_en-GB,3,,FHRS,5
40016,Little Walden Road,Saffron Walden,Essex,,Rowley Hill Lodge,Hotel/bed & breakfast/guest house,7842,5,,478491,5,,52.04476700000000,12/00120/COM,122,environmentalhealth@uttlesford.gov.uk,Uttlesford,http://www.uttlesford.gov.uk,0.24928100000000,CB10 1UZ,2012-10-19,fhrs_5_en-GB,5,,FHRS,0
40017,8 Chapel Hill,Stansted,Essex,,Royal Tandoori Indian,Restaurant/Cafe/Canteen,1,10,,91068,5,,51.90259900000000,25016008000,122,environmentalhealth@uttlesford.gov.uk,Uttlesford,http://www.uttlesford.gov.uk,0.19825400000000,CM24 8AG,2014-04-01,fhrs_4_en-GB,4,,FHRS,5
40018,Station House,Station Road,Wendens Ambo,Saffron Walden,Ruchi,Takeaway/sandwich shop,7844,10,,410010,5,,52.00565200000000,2901299927,122,environmentalhealth@uttlesford.gov.uk,Uttlesford,http://www.uttlesford.gov.uk,0.20829900000000,CB11 4LB,2014-08-12,fhrs_4_en-GB,4,,FHRS,5
40019,8 - 12 High Street,Saffron Walden,Essex,,Saffron Hotel,Hotel/bed & breakfast/guest house,7842,5,,704734,5,,52.02141600000000,14/00118/COM,122,environmentalhealth@uttlesford.gov.uk,Uttlesford,http://www.uttlesford.gov.uk,0.23927600000000,CB10 1AA,2014-08-20,fhrs_4_en-GB,4,,FHRS,10
40020,The Plough Shed,Parsonage Farm,Henham,Bishops Stortford,Saffron Ice Cream Company,Manufacturers/packers,7839,5,,478512,5,,51.93425500000000,1500399913,122,environmentalhealth@uttlesford.gov.uk,Uttlesford,http://www.uttlesford.gov.uk,0.24622200000000,CM22 6AN,2012-01-31,fhrs_5_en-GB,5,,FHRS,5
40021,,,,,Saffron Jam,Restaurant/Cafe/Canteen,1,0,,623443,0,,,13/00237/COM,122,environmentalhealth@uttlesford.gov.uk,Uttlesford,http://www.uttlesford.gov.uk,,,2013-12-06,fhrs_5_en-GB,5,,FHRS,0
40022,Saffron Walden County High School,Audley End Road,Saffron Walden,Essex,Saffron Screen,Retailers - other,4613,5,,107542,0,,52.01714800000000,3801299913B,122,environmentalhealth@uttlesford.gov.uk,Uttlesford,http://www.uttlesford.gov.uk,0.23148500000000,CB11 4UH,2011-12-29,fhrs_5_en-GB,5,,FHRS,5
40023,Audley End Road,Saffron Walden,Essex,,Saffron Walden County High School,School/college/university,7845,5,,107540,5,,52.01714800000000,38012999013,122,environmentalhealth@uttlesford.gov.uk,Uttlesford,http://www.uttlesford.gov.uk,0.23148500000000,CB11 4UH,2014-12-17,fhrs_5_en-GB,5,,FHRS,0
40024,Rear Of Bridge End Gardens,Saffron Walden,Essex,,Saffron Walden Cricket Club,Restaurant/Cafe/Canteen,1,,,478560,,,,38038999045,122,environmentalhealth@uttlesford.gov.uk,Uttlesford,http://www.uttlesford.gov.uk,,,2009-06-18,fhrs_exempt_en-GB,Exempt,,FHRS,
40025,3 Hill Street,Saffron Walden,Essex,,Saffron Walden Day Centre  (The Garden Room),Hospitals/Childcare/Caring Premises,5,5,,107649,5,,52.02306600000000,38093999078,122,environmentalhealth@uttlesford.gov.uk,Uttlesford,http://www.uttlesford.gov.uk,0.24183700000000,CB10 1EH,2014-12-02,fhrs_5_en-GB,5,,FHRS,0
40026,Saffron Walden Town Football Club,Catons Lane,Saffron Walden,Essex,Saffron Walden Football Club,Pub/bar/nightclub,7843,5,,107568,0,,52.02746600000000,38039999022,122,environmentalhealth@uttlesford.gov.uk,Uttlesford,http://www.uttlesford.gov.uk,0.24170700000000,CB10 2DU,2014-11-26,fhrs_5_en-GB,5,,FHRS,5
40027,Deer Park,Windmill Hill,Saffron Essex,,Saffron Walden Golf Club,Pub/bar/nightclub,7843,5,,107853,5,,52.02544500000000,38202999065,122,environmentalhealth@uttlesford.gov.uk,Uttlesford,http://www.uttlesford.gov.uk,0.23304900000000,CB10 1BX,2014-02-07,fhrs_5_en-GB,5,,FHRS,0
40028,Radwinter Road,Saffron Walden,Essex,CB11 Ehy,Saffron Walden Hospital,Hospitals/Childcare/Caring Premises,5,5,,107774,5,,,38157999073,122,environmentalhealth@uttlesford.gov.uk,Uttlesford,http://www.uttlesford.gov.uk,,,2015-01-29,fhrs_5_en-GB,5,,FHRS,5
40029,Shire Hill,Saffron Walden,Essex,,Saffron Walden Nursery School,School/college/university,7845,5,,107801,5,,52.02070400000000,38172999631,122,environmentalhealth@uttlesford.gov.uk,Uttlesford,http://www.uttlesford.gov.uk,0.25581300000000,CB11 3AQ,2015-01-28,fhrs_5_en-GB,5,,FHRS,5
40030,Saffron Walden Rugby Club,Springate,Chickney,Henham,Saffron Walden Rugby Club,Pub/bar/nightclub,7843,,,478600,,,51.93472900000000,47002999044,122,environmentalhealth@uttlesford.gov.uk,Uttlesford,http://www.uttlesford.gov.uk,0.38306800000000,CM6 3QH,2012-05-23,fhrs_exempt_en-GB,Exempt,,FHRS,
40031,Bowling Green,Abbey Lane,Saffron Walden,,Saffron Walden Town Bowls Club,Pub/bar/nightclub,7843,,,478556,,,52.02228200000000,38002999088,122,environmentalhealth@uttlesford.gov.uk,Uttlesford,http://www.uttlesford.gov.uk,0.23720600000000,CB10 1AG,2011-10-21,fhrs_exempt_en-GB,Exempt,,FHRS,
40032,,,,,Salt Of The Earth,Manufacturers/packers,7839,5,,478490,0,,,12/00114/COM,122,environmentalhealth@uttlesford.gov.uk,Uttlesford,http://www.uttlesford.gov.uk,,,2012-11-09,fhrs_5_en-GB,5,,FHRS,0
40033,The Kinema,Chelmsford Road,Essex,,Samui Thai Restaurant,Restaurant/Cafe/Canteen,1,10,,668674,15,,,14/00082/COM,122,environmentalhealth@uttlesford.gov.uk,Uttlesford,http://www.uttlesford.gov.uk,,CM6 1AR,2014-05-29,fhrs_2_en-GB,2,,FHRS,10
40034,Pledgdon Close,Henham,Bishops Stortford,Herts,Saplings Nursery,School/college/university,7845,5,,67337,5,,51.92398700000000,1501999918,122,environmentalhealth@uttlesford.gov.uk,Uttlesford,http://www.uttlesford.gov.uk,0.25602100000000,CM22 6BJ,2013-09-30,fhrs_5_en-GB,5,,FHRS,0
40035,Saracens Filling STN,Mill End,Thaxted,Essex,Saracens Filling Station,Retailers - other,4613,5,,478663,0,,51.95251000000000,63020999057,122,environmentalhealth@uttlesford.gov.uk,Uttlesford,http://www.uttlesford.gov.uk,0.34577800000000,CM6 2LT,2014-01-07,fhrs_5_en-GB,5,,FHRS,0
40036,Saracens Head,Dunmow,Essex,,Saracens Head Hotel,Hotel/bed & breakfast/guest house,7842,5,,118726,5,,51.87234600000000,48037999246,122,environmentalhealth@uttlesford.gov.uk,Uttlesford,http://www.uttlesford.gov.uk,0.36258100000000,CM6 1AG,2014-11-19,fhrs_4_en-GB,4,,FHRS,10
40037,,,,,Scrummy Sponges,Restaurant/Cafe/Canteen,1,5,,589843,5,,,13/00182/COM,122,environmentalhealth@uttlesford.gov.uk,Uttlesford,http://www.uttlesford.gov.uk,,,2013-10-04,fhrs_5_en-GB,5,,FHRS,0
40038,1 Market Place,Great Dunmow,Essex,,Scrumptious Tea Rooms,Restaurant/Cafe/Canteen,1,0,,478488,5,,51.87329700000000,12/00106/COM,122,environmentalhealth@uttlesford.gov.uk,Uttlesford,http://www.uttlesford.gov.uk,0.36178900000000,CM6 1AX,2014-04-16,fhrs_5_en-GB,5,,FHRS,5
40039,26/30 Old Mill Road,Saffron Walden,Essex,,Select And Save Store,Retailers - other,4613,10,,107733,0,,52.01549600000000,38143026000,122,environmentalhealth@uttlesford.gov.uk,Uttlesford,http://www.uttlesford.gov.uk,0.24791400000000,CB11 3ER,2013-03-13,fhrs_4_en-GB,4,,FHRS,10
40040,,,,,Serendipity Cakes,Restaurant/Cafe/Canteen,1,5,,118793,5,,,48083999040,122,environmentalhealth@uttlesford.gov.uk,Uttlesford,http://www.uttlesford.gov.uk,,,2013-03-11,fhrs_5_en-GB,5,,FHRS,5
40041,Village Hall,Sewards End,Saffron Walden,Essex,Sewards End Village Hall,Restaurant/Cafe/Canteen,1,,,478583,,,,39005999012,122,environmentalhealth@uttlesford.gov.uk,Uttlesford,http://www.uttlesford.gov.uk,,,2010-08-18,fhrs_exempt_en-GB,Exempt,,FHRS,
40042,Welcome Break Service Station,Dunmow Road,Birchanger,Bishops Stortford,Shell Forecourt,Retailers - other,4613,0,,13358,5,,51.88254900000000,0400599914C,122,environmentalhealth@uttlesford.gov.uk,Uttlesford,http://www.uttlesford.gov.uk,0.19134800000000,CM23 5QH,2015-02-03,fhrs_5_en-GB,5,,FHRS,0
40043,Shrubbs Farm,Sheering Road,Hatfield Heath,Bishops Stortford,Shrubbs Farm B&B,Hotel/bed & breakfast/guest house,7842,5,,729263,0,,51.80615100000000,15/00003/COM,122,environmentalhealth@uttlesford.gov.uk,Uttlesford,http://www.uttlesford.gov.uk,0.19746000000000,CM22 7LL,2015-01-12,fhrs_5_en-GB,5,,FHRS,0
40044,Saffron Walden Market,,,,Simons Eggs & Whole Foods Stall,Retailers - other,4613,5,,150813,5,,52.02456800000000,9919SIMONS,122,environmentalhealth@uttlesford.gov.uk,Uttlesford,http://www.uttlesford.gov.uk,0.38692300000000,CB10 2PN,2012-05-15,fhrs_5_en-GB,5,,FHRS,0
40045,Skyline Hotel,Chelmsford Road,Barnston,Dunmow,Skyline Hotel And Chapslee,Restaurant/Cafe/Canteen,1,10,,114015,5,,51.85643000000000,43004999293,122,environmentalhealth@uttlesford.gov.uk,Uttlesford,http://www.uttlesford.gov.uk,0.38302300000000,CM6 1LP,2014-12-16,fhrs_4_en-GB,4,,FHRS,5
40046,Unit 16,Golds Nurseries Business Park,Jenkins Drive,Elsenham,Small But Perfect,Restaurant/Cafe/Canteen,1,10,,49632,5,,51.92117800000000,11016999100,122,environmentalhealth@uttlesford.gov.uk,Uttlesford,http://www.uttlesford.gov.uk,0.22598000000000,CM22 6JX,2014-08-12,fhrs_3_en-GB,3,,FHRS,10
40047,Lodge Coaches,The Street,High Easter,Chelmsford,Snug,Restaurant/Cafe/Canteen,1,0,,718085,5,,51.80904800000000,14/00122/COM,122,environmentalhealth@uttlesford.gov.uk,Uttlesford,http://www.uttlesford.gov.uk,0.35667200000000,CM1 4QT,2014-11-21,fhrs_5_en-GB,5,,FHRS,0
40048,2 Castle Walk,Lower Street,Stansted,Essex,Sonargow,Restaurant/Cafe/Canteen,1,5,,91062,5,,51.90276700000000,25014002005,122,environmentalhealth@uttlesford.gov.uk,Uttlesford,http://www.uttlesford.gov.uk,0.20037100000000,CM24 8LY,2014-06-03,fhrs_5_en-GB,5,,FHRS,5
40049,Spangles Childrens Centre,Lower Street,Stansted,Essex,Spangles Childrens Centre,School/college/university,7845,,,91124,,,51.90403900000000,2503699908,122,environmentalhealth@uttlesford.gov.uk,Uttlesford,http://www.uttlesford.gov.uk,0.20108700000000,CM24 8LR,2013-10-02,fhrs_exempt_en-GB,Exempt,,FHRS,
40050,Spar Shop,Passenger Terminal,Terminal Road North,Stansted Airport,Spar,Retailers - supermarkets/hypermarkets,7840,10,,130759,5,,51.88816100000000,6206999939,122,environmentalhealth@uttlesford.gov.uk,Uttlesford,http://www.uttlesford.gov.uk,0.25835400000000,CM24 1QW,2014-02-24,fhrs_4_en-GB,4,,FHRS,5
40051,82 Cambridge Road,Stansted,,,Spar & Jet Garage,Retailers - supermarkets/hypermarkets,7840,0,,91059,5,,51.90829700000000,25011999203,122,environmentalhealth@uttlesford.gov.uk,Uttlesford,http://www.uttlesford.gov.uk,0.19841600000000,CM24 8DB,2014-05-22,fhrs_4_en-GB,4,,FHRS,10
40052,Debden Antiques,Elder Street,Wimbish,Saffron Walden,Square 1,Restaurant/Cafe/Canteen,1,0,,704732,0,,51.98437000000000,14/00110/COM,122,environmentalhealth@uttlesford.gov.uk,Uttlesford,http://www.uttlesford.gov.uk,0.26874000000000,CB11 3JY,2014-08-13,fhrs_5_en-GB,5,,FHRS,5
40053,15 High Street,Dunmow,,,Square 1 Restaurant,Restaurant/Cafe/Canteen,1,5,,118724,10,,51.87233100000000,48037999068,122,environmentalhealth@uttlesford.gov.uk,Uttlesford,http://www.uttlesford.gov.uk,0.36335100000000,CM6 1AB,2014-11-07,fhrs_3_en-GB,3,,FHRS,10
40054,Reeve Road,Stansted,Essex,,St Mary's C Of E (Foundation) Primary School,School/college/university,7845,5,,479000,5,,51.89607100000000,12/00077/COM,122,environmentalhealth@uttlesford.gov.uk,Uttlesford,http://www.uttlesford.gov.uk,0.19922900000000,CM24 8FE,2013-11-15,fhrs_5_en-GB,5,,FHRS,0
40055,High Stile,Great Dunmow,Essex,,St Marys Primary School,School/college/university,7845,0,,118727,0,,51.87173000000000,48039999014,122,environmentalhealth@uttlesford.gov.uk,Uttlesford,http://www.uttlesford.gov.uk,0.35609900000000,CM6 1EB,2014-03-18,fhrs_5_en-GB,5,,FHRS,0
40056,St Marys Church Of England Primary,Castle Street,Saffron Walden,Essex,St Marys Primary School,School/college/university,7845,0,,107567,0,,52.02632700000000,38038999088,122,environmentalhealth@uttlesford.gov.uk,Uttlesford,http://www.uttlesford.gov.uk,0.24109600000000,CB10 1BQ,2013-03-01,fhrs_5_en-GB,5,,FHRS,5
40057,Hatfield Broad Oak School,St Marys Primary School,High Street,Hatfield Broad Oak,St Mary's Primary School,School/college/university,7845,0,,126168,5,,51.82661900000000,55032999024,122,environmentalhealth@uttlesford.gov.uk,Uttlesford,http://www.uttlesford.gov.uk,0.24504200000000,CM22 7HH,2013-10-21,fhrs_5_en-GB,5,,FHRS,0
40058,St Thomas More Roman Catholic Prima,South Road,Saffron Walden,Essex,St Thomas More Catholic Primary School,School/college/university,7845,0,,107804,5,,52.01895200000000,38175999047,122,environmentalhealth@uttlesford.gov.uk,Uttlesford,http://www.uttlesford.gov.uk,0.24537700000000,CB11 3DW,2015-01-12,fhrs_5_en-GB,5,,FHRS,5
40059,Four Acres,Saffron Walden,Essex,,Stanley Wilson Lodge,Hospitals/Childcare/Caring Premises,5,0,,107605,0,,52.02072800000000,3807299901X,122,environmentalhealth@uttlesford.gov.uk,Uttlesford,http://www.uttlesford.gov.uk,0.24517400000000,CB11 3JE,2014-02-21,fhrs_5_en-GB,5,,FHRS,5
40060,Recreation Ground,Stansted,Essex,,Stansted Bowls Club,Pub/bar/nightclub,7843,,,478540,,,51.90127300000000,25055999020,122,environmentalhealth@uttlesford.gov.uk,Uttlesford,http://www.uttlesford.gov.uk,0.19465700000000,CM24 8BD,2012-08-17,fhrs_exempt_en-GB,Exempt,,FHRS,
40061,Day Centre,Chapel Hill,Stansted,Essex,Stansted Day Centre,Restaurant/Cafe/Canteen,1,0,,91070,0,,51.90341500000000,25016999260,122,environmentalhealth@uttlesford.gov.uk,Uttlesford,http://www.uttlesford.gov.uk,0.19455800000000,CM24 8AQ,2013-08-30,fhrs_5_en-GB,5,,FHRS,5
40062,Hargrave Park,Cambridge Road,Stansted,Essex,Stansted Football Club,Pub/bar/nightclub,7843,10,,91057,5,,51.90511400000000,2501199905X,122,environmentalhealth@uttlesford.gov.uk,Uttlesford,http://www.uttlesford.gov.uk,0.19408900000000,CM24 8BX,2013-11-01,fhrs_2_en-GB,2,,FHRS,15
40063,Stansted Mountfitchet Social,12 Lower Street,Stansted,Essex,Stansted Social Club,Pub/bar/nightclub,7843,5,,91116,5,,51.90258500000000,25036012003,122,environmentalhealth@uttlesford.gov.uk,Uttlesford,http://www.uttlesford.gov.uk,0.19999800000000,CM24 8LP,2012-03-19,fhrs_4_en-GB,4,,FHRS,10
40064,Stansted Starbucks,Thremhall Avenue,Southgate,London Stansted Airport,Stansted Starbucks,Restaurant/Cafe/Canteen,1,0,,92430,5,,51.87648500000000,2602199904,122,environmentalhealth@uttlesford.gov.uk,Uttlesford,http://www.uttlesford.gov.uk,0.24681400000000,CM24 1PY,2015-01-09,fhrs_5_en-GB,5,,FHRS,5
40065,Chelmsford Road,Dunmow,Essex,,Stansted Travelodge,Hotel/bed & breakfast/guest house,7842,0,,118671,5,,51.86030300000000,48013999100,122,environmentalhealth@uttlesford.gov.uk,Uttlesford,http://www.uttlesford.gov.uk,0.37563200000000,CM6 1LW,2014-04-14,fhrs_5_en-GB,5,,FHRS,5
40066,Lower Street,Stansted,Essex,,Stansted Youth Centre,Restaurant/Cafe/Canteen,1,,,478539,,,51.90403900000000,2503699907X,122,environmentalhealth@uttlesford.gov.uk,Uttlesford,http://www.uttlesford.gov.uk,0.20108700000000,CM24 8LR,2013-11-19,fhrs_exempt_en-GB,Exempt,,FHRS,
40067,4 Market Street,Saffron Walden,Essex,,Starbucks Coffee,Restaurant/Cafe/Canteen,1,0,,107704,0,,52.02347200000000,38122999034,122,environmentalhealth@uttlesford.gov.uk,Uttlesford,http://www.uttlesford.gov.uk,0.24181300000000,CB10 1HZ,2012-02-03,fhrs_5_en-GB,5,,FHRS,0
40068,Starbucks (Airside),Stansted Airport,Stansted,Essex,Starbucks Coffee Co (UK) Ltd,Restaurant/Cafe/Canteen,1,5,,150904,5,,51.88816100000000,9942STARBUCKS,122,environmentalhealth@uttlesford.gov.uk,Uttlesford,http://www.uttlesford.gov.uk,0.25835400000000,CM24 1QW,2011-08-09,fhrs_5_en-GB,5,,FHRS,5
40069,Welcome Break Service Station,Dunmow Road,Birchanger,Bishops Stortford,Starbucks Kiosk,Restaurant/Cafe/Canteen,1,0,,13360,0,,51.88254900000000,0400599914E,122,environmentalhealth@uttlesford.gov.uk,Uttlesford,http://www.uttlesford.gov.uk,0.19134800000000,CM23 5QH,2014-02-11,fhrs_5_en-GB,5,,FHRS,0
40070,High Street,Stebbing,Dunmow,Essex,Stebbing Primary School,School/college/university,7845,0,,130006,0,,51.89426700000000,61014999308,122,environmentalhealth@uttlesford.gov.uk,Uttlesford,http://www.uttlesford.gov.uk,0.41107100000000,CM6 3SH,2014-09-23,fhrs_5_en-GB,5,,FHRS,5
40071,61 Newbiggen Street,Thaxted,Dunmow,Essex,Steepleview B & B,Hotel/bed & breakfast/guest house,7842,0,,644216,0,,51.95520100000000,13/00177/COM,122,environmentalhealth@uttlesford.gov.uk,Uttlesford,http://www.uttlesford.gov.uk,0.34070800000000,CM6 2QS,2014-04-17,fhrs_5_en-GB,5,,FHRS,0
40072,1 Gold Hill House,Hill Street,Saffron Walden,Essex,Subway,Restaurant/Cafe/Canteen,1,5,,704726,5,,,14/00096/COM,122,environmentalhealth@uttlesford.gov.uk,Uttlesford,http://www.uttlesford.gov.uk,,CB10 1DR,2014-09-23,fhrs_5_en-GB,5,,FHRS,5
40073,Welcome Break Service Station,Dunmow Road,Birchanger,Bishops Stortford,Subway,Restaurant/Cafe/Canteen,1,10,,704731,5,,51.88254900000000,14/00108/COM,122,environmentalhealth@uttlesford.gov.uk,Uttlesford,http://www.uttlesford.gov.uk,0.19134800000000,CM23 5QH,2014-12-08,fhrs_4_en-GB,4,,FHRS,0
40074,,,,,Sugar & Lace,Restaurant/Cafe/Canteen,1,5,,564524,0,,,13/00084/COM,122,environmentalhealth@uttlesford.gov.uk,Uttlesford,http://www.uttlesford.gov.uk,,,2013-06-13,fhrs_5_en-GB,5,,FHRS,0
40075,6 Priors Green Local Centre,Bennet Canfield,Little Canfield,Essex,Sugars Caf Bar,Restaurant/Cafe/Canteen,1,10,,667214,10,,,14/00051/COM,122,environmentalhealth@uttlesford.gov.uk,Uttlesford,http://www.uttlesford.gov.uk,,CM6 1HE,2014-05-27,fhrs_3_en-GB,3,,FHRS,5
40076,,,,,Sunshine Cupcakes,Restaurant/Cafe/Canteen,1,0,,637179,0,,,14/00024/COM,122,environmentalhealth@uttlesford.gov.uk,Uttlesford,http://www.uttlesford.gov.uk,,,2014-02-20,fhrs_5_en-GB,5,,FHRS,0
40077,35 King Street,Saffron Walden,Essex,,Superdrug Stores Plc,Retailers - other,4613,,,478571,,,52.02302700000000,38100035008,122,environmentalhealth@uttlesford.gov.uk,Uttlesford,http://www.uttlesford.gov.uk,0.23963400000000,CB10 1EU,2013-06-06,fhrs_exempt_en-GB,Exempt,,FHRS,
40078,,,,,Suzies Teas,Manufacturers/packers,7839,5,,478528,0,,,2001999991,122,environmentalhealth@uttlesford.gov.uk,Uttlesford,http://www.uttlesford.gov.uk,,,2013-03-18,fhrs_5_en-GB,5,,FHRS,0
40079,Waterloo House,High Street,Newport,Saffron Walden,"Suzie's Teas, Saggers Nursery",Restaurant/Cafe/Canteen,1,5,,82327,0,,51.98134500000000,20017999065,122,environmentalhealth@uttlesford.gov.uk,Uttlesford,http://www.uttlesford.gov.uk,0.21364200000000,CB11 3PG,2013-03-18,fhrs_5_en-GB,5,,FHRS,0
40080,Baptist Church,High Street,Saffron Walden,Essex,SW Baptist Church Lunch Club,Restaurant/Cafe/Canteen,1,0,,307936,0,,52.02195000000000,3809099927,122,environmentalhealth@uttlesford.gov.uk,Uttlesford,http://www.uttlesford.gov.uk,0.23955100000000,CB10 1EE,2013-09-23,fhrs_5_en-GB,5,,FHRS,5
40081,,,,,Swati Gopisetty,Restaurant/Cafe/Canteen,1,5,,612328,0,,,13/00240/COM,122,environmentalhealth@uttlesford.gov.uk,Uttlesford,http://www.uttlesford.gov.uk,,,2013-11-22,fhrs_5_en-GB,5,,FHRS,0
40082,10 Stortford Road,Dunmow,Essex,,Sweetlands Butchers,Manufacturers/packers,7839,20,,118781,15,,51.87305500000000,48079010005,122,environmentalhealth@uttlesford.gov.uk,Uttlesford,http://www.uttlesford.gov.uk,0.36084600000000,CM6 1DA,2014-10-14,fhrs_1_en-GB,1,,FHRS,5
40083,South Road,Takeley,Bishops Stortford,Hertfordshire,Takeley Day Centre,Hospitals/Childcare/Caring Premises,5,0,,130733,0,,51.87027400000000,62041999012,122,environmentalhealth@uttlesford.gov.uk,Uttlesford,http://www.uttlesford.gov.uk,0.26684200000000,CM22 6RB,2013-12-13,fhrs_5_en-GB,5,,FHRS,0
40084,Dunmow Road,Takeley,Bishops Stortford,Herts,Takeley News,Retailers - other,4613,5,,478631,0,,51.86784000000000,62012999425,122,environmentalhealth@uttlesford.gov.uk,Uttlesford,http://www.uttlesford.gov.uk,0.26852100000000,CM22 6SH,2014-05-22,fhrs_4_en-GB,4,,FHRS,10
40085,Bennet Canfield,Little Canfield,Great Dunmow,Essex,Takeley Primary School,School/college/university,7845,0,,536253,0,,51.86896600000000,13/00063/COM,122,environmentalhealth@uttlesford.gov.uk,Uttlesford,http://www.uttlesford.gov.uk,0.28192700000000,CM6 1YE,2014-12-03,fhrs_5_en-GB,5,,FHRS,0
40086,Brewers End,Takeley,Bishops Stortford,Herts,Takeley Silver Jubilee Hall,Restaurant/Cafe/Canteen,1,,,478630,,,,6200499911X,122,environmentalhealth@uttlesford.gov.uk,Uttlesford,http://www.uttlesford.gov.uk,,,2014-08-19,fhrs_exempt_en-GB,Exempt,,FHRS,
40087,15 The Street,Takeley,Bishops Stortford,Herts,Taphall B&B,Hotel/bed & breakfast/guest house,7842,5,,406962,5,,51.86892700000000,62046015002,122,environmentalhealth@uttlesford.gov.uk,Uttlesford,http://www.uttlesford.gov.uk,0.24138200000000,CM22 6QS,2012-06-21,fhrs_5_en-GB,5,,FHRS,5
40088,5 Cross Street,Saffron Walden,Essex,,Tea Amo,Restaurant/Cafe/Canteen,1,5,,482222,0,,52.02299100000000,12/00117/COM,122,environmentalhealth@uttlesford.gov.uk,Uttlesford,http://www.uttlesford.gov.uk,0.24011300000000,CB10 1EX,2013-03-25,fhrs_5_en-GB,5,,FHRS,0
40089,Bruncketts,Station Road,Wendens Ambo,Saffron Walden,Tea Hunt,Restaurant/Cafe/Canteen,1,10,,644229,5,,52.00387100000000,29012999103,122,environmentalhealth@uttlesford.gov.uk,Uttlesford,http://www.uttlesford.gov.uk,0.21170800000000,CB11 4JL,2014-04-09,fhrs_4_en-GB,4,,FHRS,5
40090,Tesco Supermarket,Stortford Road,Dunmow,,Tesco Store & Butchers,Retailers - supermarkets/hypermarkets,7840,5,,118786,5,,51.87324900000000,48079999252,122,environmentalhealth@uttlesford.gov.uk,Uttlesford,http://www.uttlesford.gov.uk,0.34667700000000,CM6 1SF,2013-02-14,fhrs_5_en-GB,5,,FHRS,5
40091,Tesco Stores Limited,Pleasant Valley,Saffron Walden,Essex,Tesco Stores Limited,Retailers - other,4613,5,,554890,0,,52.01264300000000,13/00049/COM,122,environmentalhealth@uttlesford.gov.uk,Uttlesford,http://www.uttlesford.gov.uk,0.24098000000000,CB11 4AP,2013-06-07,fhrs_5_en-GB,5,,FHRS,0
40092,16 - 18 Cambridge Road,Stansted,,,Tesco Stores Limted,Retailers - supermarkets/hypermarkets,7840,5,,91053,5,,51.90473000000000,25011016015,122,environmentalhealth@uttlesford.gov.uk,Uttlesford,http://www.uttlesford.gov.uk,0.19437500000000,CM24 8BZ,2014-03-03,fhrs_5_en-GB,5,,FHRS,5
40093,Radwinter Road,Saffron Walden,Essex,,Tesco Stores Ltd,Retailers - supermarkets/hypermarkets,7840,0,,107775,0,,52.02196700000000,3815799910,122,environmentalhealth@uttlesford.gov.uk,Uttlesford,http://www.uttlesford.gov.uk,0.25845700000000,CB10 2JP,2013-02-18,fhrs_5_en-GB,5,,FHRS,0
40094,1 Town Street,Thaxted,Dunmow,Essex,Thaxted Bakery And Butchery,Farmers/growers,7838,10,,536252,0,,51.95321600000000,13/00061/COM,122,environmentalhealth@uttlesford.gov.uk,Uttlesford,http://www.uttlesford.gov.uk,0.34421400000000,CM6 2LD,2013-03-14,fhrs_4_en-GB,4,,FHRS,5
40095,Park Street,Thaxted,Great Dunmow,Essex,Thaxted Bowling Club,Pub/bar/nightclub,7843,,,478664,,,51.95083500000000,63026999121,122,environmentalhealth@uttlesford.gov.uk,Uttlesford,http://www.uttlesford.gov.uk,0.34407600000000,CM6 2NE,2013-08-05,fhrs_exempt_en-GB,Exempt,,FHRS,
40096,Thaxted C P School,Bardfield Road,Thaxted,Dunmow,Thaxted Primary School,School/college/university,7845,0,,131486,5,,51.95167800000000,63003999028,122,environmentalhealth@uttlesford.gov.uk,Uttlesford,http://www.uttlesford.gov.uk,0.34870300000000,CM6 2LW,2014-11-04,fhrs_5_en-GB,5,,FHRS,5
40097,Burton End,Stansted,Essex,,The Ash,Pub/bar/nightclub,7843,5,,92400,5,,51.89080400000000,26004999520,122,environmentalhealth@uttlesford.gov.uk,Uttlesford,http://www.uttlesford.gov.uk,0.22678900000000,CM24 8UQ,2014-07-17,fhrs_4_en-GB,4,,FHRS,10
40098,The Axe,60 Ashdon Road,Saffron Walden,Essex,The Axe Publichouse,Pub/bar/nightclub,7843,,,552351,,,52.02522300000000,13/00067/COM,122,environmentalhealth@uttlesford.gov.uk,Uttlesford,http://www.uttlesford.gov.uk,0.24948100000000,CB10 2AT,2013-04-21,fhrs_exempt_en-GB,Exempt,,FHRS,
40099,,,,,The Bacon Stall Mobile,Mobile caterer,7846,0,,124508,0,,,53023999171,122,environmentalhealth@uttlesford.gov.uk,Uttlesford,http://www.uttlesford.gov.uk,,,2012-01-27,fhrs_5_en-GB,5,,FHRS,0
40100,Buckinghams Farm,Stanbrook,Thaxted,Dunmow,The Barn Nursery,School/college/university,7845,5,,131512,0,,51.94127800000000,63031999223,122,environmentalhealth@uttlesford.gov.uk,Uttlesford,http://www.uttlesford.gov.uk,0.33673900000000,CM6 2NJ,2014-11-21,fhrs_5_en-GB,5,,FHRS,5
40101,Royston Road,Wendens Ambo,Saffron Walden,Essex,The Bell,Pub/bar/nightclub,7843,5,,690849,0,,52.00547000000000,14/00041/COM,122,environmentalhealth@uttlesford.gov.uk,Uttlesford,http://www.uttlesford.gov.uk,0.19981000000000,CB11 4JY,2014-07-22,fhrs_5_en-GB,5,,FHRS,5
40102,,,,,The Biscuit Jar,Restaurant/Cafe/Canteen,1,5,,552348,0,,,13/00048/COM,122,environmentalhealth@uttlesford.gov.uk,Uttlesford,http://www.uttlesford.gov.uk,,,2013-05-16,fhrs_5_en-GB,5,,FHRS,5
40103,Dunmow Road,High Roding,Dunmow,Essex,The Black Lion,Pub/bar/nightclub,7843,5,,127592,5,,51.82891400000000,57010999171,122,environmentalhealth@uttlesford.gov.uk,Uttlesford,http://www.uttlesford.gov.uk,0.32316700000000,CM6 1NT,2013-11-25,fhrs_5_en-GB,5,,FHRS,5
40104,Boars Head,High Street,Dunmow,Essex,The Boars Head,Pub/bar/nightclub,7843,0,,118725,0,,51.87233100000000,48037999106,122,environmentalhealth@uttlesford.gov.uk,Uttlesford,http://www.uttlesford.gov.uk,0.36335100000000,CM6 1AB,2015-01-31,fhrs_5_en-GB,5,,FHRS,5
40105,7 Station Road,Stansted,Essex,,The Bombay Butler,Restaurant/Cafe/Canteen,1,10,,91163,15,,51.90168800000000,25063007007,122,environmentalhealth@uttlesford.gov.uk,Uttlesford,http://www.uttlesford.gov.uk,0.19937300000000,CM24 8BE,2014-11-13,fhrs_2_en-GB,2,,FHRS,5
40106,Boote House Restauraunt,George Boote House,Felsted,Dunmow Essex,The Boote House,Restaurant/Cafe/Canteen,1,5,,123622,10,,51.85628300000000,5201199912,122,environmentalhealth@uttlesford.gov.uk,Uttlesford,http://www.uttlesford.gov.uk,0.43367000000000,CM6 3DH,2014-04-23,fhrs_3_en-GB,3,,FHRS,10
40107,The Bull,Langley Lower Green,Langley,Essex,The Bull Public House,Pub/bar/nightclub,7843,0,,718083,0,,51.98977400000000,14/00114/COM,122,environmentalhealth@uttlesford.gov.uk,Uttlesford,http://www.uttlesford.gov.uk,0.09198600000000,CB11 4SB,2014-10-09,fhrs_5_en-GB,5,,FHRS,5
40108,,,,,The Cake Den,Restaurant/Cafe/Canteen,1,5,,554891,0,,,13/00070/COM,122,environmentalhealth@uttlesford.gov.uk,Uttlesford,http://www.uttlesford.gov.uk,,,2013-06-10,fhrs_5_en-GB,5,,FHRS,0
40109,,,,,The Cake Lady,Restaurant/Cafe/Canteen,1,0,,718080,0,,,14/00069/COM,122,environmentalhealth@uttlesford.gov.uk,Uttlesford,http://www.uttlesford.gov.uk,,,2014-10-15,fhrs_5_en-GB,5,,FHRS,5
40110,All Wrapped Up,8 Cross Street,Saffron Walden,Essex,The Cheddar Vine Ltd,Restaurant/Cafe/Canteen,1,10,,729261,5,,52.02299100000000,14/00171/COM,122,environmentalhealth@uttlesford.gov.uk,Uttlesford,http://www.uttlesford.gov.uk,0.24011300000000,CB10 1EX,2014-12-30,fhrs_4_en-GB,4,,FHRS,0
40111,Market Place,Saffron Walden,Essex,,The Cheese And Pie Stall,Retailers - other,4613,,,478494,,,,12/00125/COM,122,environmentalhealth@uttlesford.gov.uk,Uttlesford,http://www.uttlesford.gov.uk,,,2014-02-25,fhrs_exempt_en-GB,Exempt,,FHRS,
40112,27 Stortford Road,Dunmow,Essex,,The Chequers,Pub/bar/nightclub,7843,0,,118783,0,,51.87305500000000,48079027005,122,environmentalhealth@uttlesford.gov.uk,Uttlesford,http://www.uttlesford.gov.uk,0.36084600000000,CM6 1DA,2014-03-31,fhrs_5_en-GB,5,,FHRS,0
40113,Cambridge Road,Ugley,Bishop's Stortford,Hertfordshire,The Chequers,Pub/bar/nightclub,7843,5,,95023,10,,51.93939300000000,28002999363,122,environmentalhealth@uttlesford.gov.uk,Uttlesford,http://www.uttlesford.gov.uk,0.19938400000000,CM22 6HZ,2012-10-04,fhrs_3_en-GB,3,,FHRS,10
40114,Braintree Road,Felsted,Dunmow,Essex,The Chequers Inn,Pub/bar/nightclub,7843,10,,123605,10,,51.85735200000000,52005999156,122,environmentalhealth@uttlesford.gov.uk,Uttlesford,http://www.uttlesford.gov.uk,0.43634200000000,CM6 3DL,2014-06-20,fhrs_2_en-GB,2,,FHRS,15
40115,Church End,Henham,Bishop's Stortford,Herts,The Cock Inn,Pub/bar/nightclub,7843,10,,67281,5,,51.93425500000000,15003999054,122,environmentalhealth@uttlesford.gov.uk,Uttlesford,http://www.uttlesford.gov.uk,0.24622200000000,CM22 6AN,2014-05-30,fhrs_3_en-GB,3,,FHRS,10
40116,Hatfield Broad Oak,Bishop's Stortford,Hertfordshire,,The Cock Inn,Pub/bar/nightclub,7843,10,,126147,0,,51.82616800000000,55003999127,122,environmentalhealth@uttlesford.gov.uk,Uttlesford,http://www.uttlesford.gov.uk,0.24181300000000,CM22 7HF,2014-01-21,fhrs_4_en-GB,4,,FHRS,0
40117,The Cock Public House,30 Silver Street,Stansted,Essex,The Cock Public House,Pub/bar/nightclub,7843,0,,91155,0,,51.90271400000000,25057030000,122,environmentalhealth@uttlesford.gov.uk,Uttlesford,http://www.uttlesford.gov.uk,0.19211100000000,CM24 8HD,2015-01-29,fhrs_5_en-GB,5,,FHRS,5
40118,St Marks College,Audley End,Audley End Road,Saffron Walden,The College Of St Mark,Hotel/bed & breakfast/guest house,7842,5,,107543,5,,52.01881200000000,38013999157,122,environmentalhealth@uttlesford.gov.uk,Uttlesford,http://www.uttlesford.gov.uk,0.22052000000000,CB11 4JB,2014-10-24,fhrs_5_en-GB,5,,FHRS,5
40119,,,,,The Complete Gourmet,Restaurant/Cafe/Canteen,1,10,,96143,5,,,29003999147,122,environmentalhealth@uttlesford.gov.uk,Uttlesford,http://www.uttlesford.gov.uk,,,2013-09-18,fhrs_4_en-GB,4,,FHRS,0
40120,,,,,The Cookery Project,Restaurant/Cafe/Canteen,1,5,,644225,5,,,14/00052/COM,122,environmentalhealth@uttlesford.gov.uk,Uttlesford,http://www.uttlesford.gov.uk,,,2014-03-28,fhrs_5_en-GB,5,,FHRS,5
40121,40 Lower Street,Stansted,Essex,,The Cork House,Restaurant/Cafe/Canteen,1,5,,91120,5,,51.90403900000000,25036040007,122,environmentalhealth@uttlesford.gov.uk,Uttlesford,http://www.uttlesford.gov.uk,0.20108700000000,CM24 8LR,2014-01-28,fhrs_4_en-GB,4,,FHRS,10
40122,71 Birchanger Lane,Birchanger,Bishops Stortford,Hertfordshire,The Cottage B&B,Hotel/bed & breakfast/guest house,7842,10,,478426,5,,51.88733500000000,04001071002,122,environmentalhealth@uttlesford.gov.uk,Uttlesford,http://www.uttlesford.gov.uk,0.18594200000000,CM23 5QA,2012-05-03,fhrs_4_en-GB,4,,FHRS,5
40123,Dunmow Road,Leaden Roding,Dunmow,Essex,The Country Stores,Retailers - other,4613,10,,128181,10,,51.79777200000000,58003999219,122,environmentalhealth@uttlesford.gov.uk,Uttlesford,http://www.uttlesford.gov.uk,0.31131100000000,CM6 1QB,2014-04-22,fhrs_2_en-GB,2,,FHRS,15
40124,2 - 3 Rose And Crown Walk,Common Hill,Saffron Walden,Essex,The Court Yard (Tiptree),Restaurant/Cafe/Canteen,1,10,,536249,5,,52.02387400000000,13/00039/COM,122,environmentalhealth@uttlesford.gov.uk,Uttlesford,http://www.uttlesford.gov.uk,0.24238700000000,CB10 1JH,2014-08-20,fhrs_4_en-GB,4,,FHRS,5
40125,22 Beaumont Hill,Great Dunmow,Essex,,The Cricketers,Pub/bar/nightclub,7843,10,,536248,10,,51.88128700000000,13/00014/COM,122,environmentalhealth@uttlesford.gov.uk,Uttlesford,http://www.uttlesford.gov.uk,0.35889500000000,CM6 2AP,2013-03-19,fhrs_3_en-GB,3,,FHRS,10
40126,Wicken Road,Clavering,Saffron Walden,Essex,The Cricketers,Pub/bar/nightclub,7843,5,,478461,5,,51.97365500000000,08032999019,122,environmentalhealth@uttlesford.gov.uk,Uttlesford,http://www.uttlesford.gov.uk,0.15853100000000,CB11 4QT,2014-10-24,fhrs_5_en-GB,5,,FHRS,5
40127,Cricketers Arms,Rickling Green,Saffron Walden,Essex,The Cricketers Arms,Pub/bar/nightclub,7843,10,,84682,10,,51.94587200000000,21011999390,122,environmentalhealth@uttlesford.gov.uk,Uttlesford,http://www.uttlesford.gov.uk,0.19671800000000,CB11 3YG,2010-03-04,fhrs_3_en-GB,3,,FHRS,10
40128,Fairycroft House,39 Audley Road,Saffron Walden,Essex,The Croft Youth Centre Club,Pub/bar/nightclub,7843,,,478558,,,52.02111400000000,38014999037,122,environmentalhealth@uttlesford.gov.uk,Uttlesford,http://www.uttlesford.gov.uk,0.24236600000000,CB11 3HD,2013-06-20,fhrs_exempt_en-GB,Exempt,,FHRS,
40129,High Street,Great Chesterford,Saffron Walden,Essex,The Crown And Thistle,Pub/bar/nightclub,7843,10,,478439,10,,52.06383800000000,05010999358,122,environmentalhealth@uttlesford.gov.uk,Uttlesford,http://www.uttlesford.gov.uk,0.20272100000000,CB10 1PL,2015-01-20,fhrs_3_en-GB,3,,FHRS,10
40130,High Street,Elsenham,Bishops Stortford,Hertfordshire,The Crown Inn,Pub/bar/nightclub,7843,10,,49655,5,,51.91405400000000,11022999168,122,environmentalhealth@uttlesford.gov.uk,Uttlesford,http://www.uttlesford.gov.uk,0.23510800000000,CM22 6DG,2014-10-23,fhrs_3_en-GB,3,,FHRS,10
40131,Little Walden,Saffron Walden,Essex,,The Crown Inn,Pub/bar/nightclub,7843,5,,107681,10,,52.05031200000000,38108999189,122,environmentalhealth@uttlesford.gov.uk,Uttlesford,http://www.uttlesford.gov.uk,0.25224300000000,CB10 1XA,2013-08-08,fhrs_4_en-GB,4,,FHRS,5
40132,,,,,The Curiosity Cakery,Restaurant/Cafe/Canteen,1,0,,579045,0,,,13/00089/COM,122,environmentalhealth@uttlesford.gov.uk,Uttlesford,http://www.uttlesford.gov.uk,,,2013-07-23,fhrs_5_en-GB,5,,FHRS,0
40133,De Salis Hotel,Green Street,Elsenham,Bishops Stortford,The De Salis Hotel & Restaurant,Restaurant/Cafe/Canteen,1,10,,49620,10,,51.90618400000000,1101299922,122,environmentalhealth@uttlesford.gov.uk,Uttlesford,http://www.uttlesford.gov.uk,0.25450400000000,CM22 6DR,2012-11-08,fhrs_2_en-GB,2,,FHRS,15
40134,58 Lower Street,Stansted,Essex,,The Dog And Duck,Pub/bar/nightclub,7843,20,,479001,15,,51.90403900000000,12/00162/COM,122,environmentalhealth@uttlesford.gov.uk,Uttlesford,http://www.uttlesford.gov.uk,0.20108700000000,CM24 8LR,2014-05-29,fhrs_1_en-GB,1,,FHRS,10
40135,Highfields,The Downs,Stebbing,Dunmow,The Duck Truck,Mobile caterer,7846,5,,667222,10,,51.89556800000000,14/00076/MOB,122,environmentalhealth@uttlesford.gov.uk,Uttlesford,http://www.uttlesford.gov.uk,0.40945500000000,CM6 3RA,2014-05-14,fhrs_4_en-GB,4,,FHRS,5
40136,High Street,Hatfield Broad Oak,Bishops Stortford,Herts,The Dukes Head,Pub/bar/nightclub,7843,5,,126163,10,,51.82661900000000,55019999105,122,environmentalhealth@uttlesford.gov.uk,Uttlesford,http://www.uttlesford.gov.uk,0.24504200000000,CM22 7HH,2014-03-05,fhrs_4_en-GB,4,,FHRS,5
40137,,,,,The English Cream Teas Company,Restaurant/Cafe/Canteen,1,5,,536885,0,,,13/00072/COM,122,environmentalhealth@uttlesford.gov.uk,Uttlesford,http://www.uttlesford.gov.uk,,,2012-06-25,fhrs_5_en-GB,5,,FHRS,5
40138,Tye Green House,Tye Green,Tye Green Road,Elsenham,The English Hog Roast Company,Mobile caterer,7846,0,,564523,5,,51.89768700000000,13/00069/COM,122,environmentalhealth@uttlesford.gov.uk,Uttlesford,http://www.uttlesford.gov.uk,0.23891800000000,CM22 6DY,2014-12-17,fhrs_5_en-GB,5,,FHRS,0
40139,Wallbury Dells Cottage,Dell Lane,Little Hallingbury,Bishops Stortford,The Fabulous Fish Finger Company,Mobile caterer,7846,5,,667216,5,,51.84008200000000,14/00057/MOB,122,environmentalhealth@uttlesford.gov.uk,Uttlesford,http://www.uttlesford.gov.uk,0.16390900000000,CM22 7SQ,2014-04-29,fhrs_5_en-GB,5,,FHRS,5
40140,Mutlow Hill,Wendens Ambo,Saffron Walden,Essex,The Fighting Cocks,Pub/bar/nightclub,7843,5,,96160,0,,52.00652000000000,29013999107,122,environmentalhealth@uttlesford.gov.uk,Uttlesford,http://www.uttlesford.gov.uk,0.21144500000000,CB11 4JN,2014-01-14,fhrs_5_en-GB,5,,FHRS,0
40141,Hales Farm,High Cross Lane,Little Canfield,Great Dunmow,The Finer Diner,Mobile caterer,7846,0,,545801,0,,51.86437300000000,13/00065/COM,122,environmentalhealth@uttlesford.gov.uk,Uttlesford,http://www.uttlesford.gov.uk,0.32448500000000,CM6 1TQ,2013-05-07,fhrs_5_en-GB,5,,FHRS,0
40142,The Chestnuts,Stortford Road,Hatfield Heath,Bishops Stortford,The Fish Inn,Takeaway/sandwich shop,7844,0,,110320,10,,51.81296900000000,40023999330,122,environmentalhealth@uttlesford.gov.uk,Uttlesford,http://www.uttlesford.gov.uk,0.20892000000000,CM22 7EB,2014-11-21,fhrs_4_en-GB,4,,FHRS,10
40143,Clavering Farm,Stickling Green,Clavering,Saffron Walden,The Fishing Lodge Cafe,Restaurant/Cafe/Canteen,1,5,,478455,0,,51.97624600000000,08018999058,122,environmentalhealth@uttlesford.gov.uk,Uttlesford,http://www.uttlesford.gov.uk,0.13870800000000,CB11 4RN,2013-07-18,fhrs_5_en-GB,5,,FHRS,0
40144,39 High Street,Dunmow,Essex,,The Flitch House,Restaurant/Cafe/Canteen,1,10,,729257,5,,51.87096200000000,14/00070/COM,122,environmentalhealth@uttlesford.gov.uk,Uttlesford,http://www.uttlesford.gov.uk,0.36480400000000,CM6 1AE,2014-12-16,fhrs_4_en-GB,4,,FHRS,5
40145,Four Ashes,Brewers End,Dunmow Road,Takeley,The Four Ashes,Pub/bar/nightclub,7843,20,,130727,15,,51.86784000000000,6203199901X,122,environmentalhealth@uttlesford.gov.uk,Uttlesford,http://www.uttlesford.gov.uk,0.26852100000000,CM22 6SH,2014-11-28,fhrs_1_en-GB,1,,FHRS,15
40146,Mount Pleasant Road,Saffron Walden,Essex,,The Friends School,School/college/university,7845,5,,107717,0,,52.01710500000000,38132999037,122,environmentalhealth@uttlesford.gov.uk,Uttlesford,http://www.uttlesford.gov.uk,0.24273400000000,CB11 3EA,2014-10-03,fhrs_5_en-GB,5,,FHRS,5
40147,Gladwyns Farmhouse,Sheering Road,Hatfield Heath,Bishops Stortford,The Function Hall  - The Toasted Sandwich Company,Mobile caterer,7846,10,,644226,5,,51.80615200000000,14/00055/MOB,122,environmentalhealth@uttlesford.gov.uk,Uttlesford,http://www.uttlesford.gov.uk,0.19746100000000,CM22 7LL,2014-04-15,fhrs_4_en-GB,4,,FHRS,0
40148,9 - 11 Market Hill,Saffron Walden,Essex,,The Garden Of Edmir,Restaurant/Cafe/Canteen,1,5,,565274,5,,52.02412400000000,13/00058/COM,122,environmentalhealth@uttlesford.gov.uk,Uttlesford,http://www.uttlesford.gov.uk,0.24060700000000,CB10 1HQ,2013-06-18,fhrs_4_en-GB,4,,FHRS,10
40149,74 Thaxted Road,Saffron Walden,Essex,,The Gate Inn,Pub/bar/nightclub,7843,10,,107819,5,,52.01955700000000,3818407400X,122,environmentalhealth@uttlesford.gov.uk,Uttlesford,http://www.uttlesford.gov.uk,0.25090200000000,CB11 3AG,2014-04-11,fhrs_4_en-GB,4,,FHRS,5
40150,The George,George Green,Little Hallingbury,Bishops Stortford,The George,Pub/bar/nightclub,7843,10,,125523,5,,51.84108200000000,54008999043,122,environmentalhealth@uttlesford.gov.uk,Uttlesford,http://www.uttlesford.gov.uk,0.17407500000000,CM22 7PP,2014-01-14,fhrs_4_en-GB,4,,FHRS,5
40151,Audley End House,Audley End,Saffron Walden,Essex,The Gift Shop,Retailers - other,4613,5,,478557,5,,52.02083400000000,3801199906,122,environmentalhealth@uttlesford.gov.uk,Uttlesford,http://www.uttlesford.gov.uk,0.22059100000000,CB11 4JF,2012-11-21,fhrs_5_en-GB,5,,FHRS,5
40152,2 Market Street,Saffron Walden,Essex,,The Golden Butterfly,Retailers - other,4613,,,478575,,,52.02347200000000,38122002005,122,environmentalhealth@uttlesford.gov.uk,Uttlesford,http://www.uttlesford.gov.uk,0.24181300000000,CB10 1HZ,2015-01-09,fhrs_exempt_en-GB,Exempt,,FHRS,
40153,The Gourmet Hotdog Company,Landside Concourse,Bassingbourn Road,Stansted Airport,The Gourmet Hotdog Company,Takeaway/sandwich shop,7844,10,,130768,5,,,6206999963,122,environmentalhealth@uttlesford.gov.uk,Uttlesford,http://www.uttlesford.gov.uk,,CM24 8QW,2014-11-21,fhrs_4_en-GB,4,,FHRS,5
40154,The Green Man,Dunmow Road,Takeley,Bishops Stortford,The Green Man Inn,Pub/bar/nightclub,7843,5,,130741,5,,51.86839300000000,62046999541,122,environmentalhealth@uttlesford.gov.uk,Uttlesford,http://www.uttlesford.gov.uk,0.24674500000000,CM22 6QU,2014-11-03,fhrs_5_en-GB,5,,FHRS,0
40155,,,,,The Grill Sergeant,Mobile caterer,7846,10,,579054,5,,,13/00167/COM,122,environmentalhealth@uttlesford.gov.uk,Uttlesford,http://www.uttlesford.gov.uk,,,2013-07-22,fhrs_4_en-GB,4,,FHRS,5
40156,The Old Service Station,Henham Road,Debden Green,Saffron Walden,The Icing And The Cake,Restaurant/Cafe/Canteen,1,0,,478463,0,,51.95819600000000,0901099913,122,environmentalhealth@uttlesford.gov.uk,Uttlesford,http://www.uttlesford.gov.uk,0.28898900000000,CB11 3LZ,2012-09-13,fhrs_5_en-GB,5,,FHRS,0
40157,Market Hill,Saffron Walden,Essex,,The Kings Arms,Pub/bar/nightclub,7843,10,,107692,10,,52.02412400000000,38118999033,122,environmentalhealth@uttlesford.gov.uk,Uttlesford,http://www.uttlesford.gov.uk,0.24060700000000,CB10 1HQ,2014-12-05,fhrs_3_en-GB,3,,FHRS,10
40158,Station Road,Stansted,Essex,,The Kings Arms,Pub/bar/nightclub,7843,0,,91166,0,,51.90168800000000,25063999069,122,environmentalhealth@uttlesford.gov.uk,Uttlesford,http://www.uttlesford.gov.uk,0.19937300000000,CM24 8BE,2013-11-19,fhrs_4_en-GB,4,,FHRS,10
40159,Kings Head,Linton Road,Hadstock,Cambridge,The Kings Head,Pub/bar/nightclub,7843,20,,58626,10,,52.07951300000000,13007999235,122,environmentalhealth@uttlesford.gov.uk,Uttlesford,http://www.uttlesford.gov.uk,0.27224900000000,CB21 4NX,2014-08-29,fhrs_1_en-GB,1,,FHRS,20
40160,Lion & Lamb,Stortford Road,Little Canfield,Great Dunmow,The Lion And Lamb,Pub/bar/nightclub,7843,5,,116812,0,,51.86814200000000,46011999263,122,environmentalhealth@uttlesford.gov.uk,Uttlesford,http://www.uttlesford.gov.uk,0.29742800000000,CM6 1SR,2013-12-05,fhrs_5_en-GB,5,,FHRS,5
40161,The Chestnuts,The Heath,Hatfield Heath,Bishops Stortford,The Little Fish Shop,Restaurant/Cafe/Canteen,1,5,,637175,5,,51.81788700000000,13/00253/COM,122,environmentalhealth@uttlesford.gov.uk,Uttlesford,http://www.uttlesford.gov.uk,0.19793000000000,CM22 7DL,2014-03-09,fhrs_5_en-GB,5,,FHRS,5
40162,The Maypole Public House,31 Mill End,Thaxted,Dunmow,The Maypole,Pub/bar/nightclub,7843,0,,131507,5,,51.95251000000000,63020031001,122,environmentalhealth@uttlesford.gov.uk,Uttlesford,http://www.uttlesford.gov.uk,0.34577800000000,CM6 2LT,2013-09-19,fhrs_5_en-GB,5,,FHRS,5
40163,Unit 2,Harps Farm,Bedlars Green Lane,Great Hallingbury,The Mixed Case Ltd,Distributors/Transporters,7,,,579051,,,51.86041800000000,13/00161/COM,122,environmentalhealth@uttlesford.gov.uk,Uttlesford,http://www.uttlesford.gov.uk,0.21107000000000,CM22 7TL,2013-07-10,fhrs_exempt_en-GB,Exempt,,FHRS,
40164,21 High Street,Saffron Walden,Essex,,The Mogul Restaurant,Restaurant/Cafe/Canteen,1,10,,107633,10,,52.02372000000000,3809002100X,122,environmentalhealth@uttlesford.gov.uk,Uttlesford,http://www.uttlesford.gov.uk,0.23819600000000,CB10 1AT,2014-03-19,fhrs_3_en-GB,3,,FHRS,10
40165,Chesterford Park,Little Chesterford,Great Chesterford,Essex,The Nucleus,Restaurant/Cafe/Canteen,1,0,,20454,0,,52.05328400000000,06001999015A,122,environmentalhealth@uttlesford.gov.uk,Uttlesford,http://www.uttlesford.gov.uk,0.23785000000000,CB10 1XJ,2015-01-14,fhrs_5_en-GB,5,,FHRS,0
40166,Pines Hill,Stansted,Essex,,The Old Bell Hotel,Hotel/bed & breakfast/guest house,7842,0,,478436,0,,51.89741600000000,04011999113,122,environmentalhealth@uttlesford.gov.uk,Uttlesford,http://www.uttlesford.gov.uk,0.19121300000000,CM24 8EY,2013-04-17,fhrs_5_en-GB,5,,FHRS,5
40167,The Morgan Garage,Lower Road,Little Hallingbury,Bishops Stortford,The Pit Stop,Hotel/bed & breakfast/guest house,7842,0,,579052,0,,51.83192600000000,13/00164/COM,122,environmentalhealth@uttlesford.gov.uk,Uttlesford,http://www.uttlesford.gov.uk,0.18190800000000,CM22 7RA,2013-07-26,fhrs_5_en-GB,5,,FHRS,0
40168,High Street,Great Chesterford,Saffron Walden,Essex,The Plough,Pub/bar/nightclub,7843,10,,478440,20,,52.06383800000000,05010999455,122,environmentalhealth@uttlesford.gov.uk,Uttlesford,http://www.uttlesford.gov.uk,0.20272100000000,CB10 1PL,2014-07-23,fhrs_1_en-GB,1,,FHRS,5
40169,The Plough,High Street,Debden,Saffron Walden,The Plough Inn,Pub/bar/nightclub,7843,10,,478466,10,,51.97698400000000,09011999347,122,environmentalhealth@uttlesford.gov.uk,Uttlesford,http://www.uttlesford.gov.uk,0.26562900000000,CB11 3LE,2013-03-13,fhrs_3_en-GB,3,,FHRS,5
40170,The Prince Of Wales,Brick House,Brick End,Broxted,The Prince Of Wales,Pub/bar/nightclub,7843,5,,114854,5,,51.91021900000000,44001999056,122,environmentalhealth@uttlesford.gov.uk,Uttlesford,http://www.uttlesford.gov.uk,0.28260800000000,CM6 2BJ,2013-10-01,fhrs_5_en-GB,5,,FHRS,5
40171,The Punch Bowl,High Easter,Chelmsford,Essex,The Punch Bowl Restaurant,Restaurant/Cafe/Canteen,1,5,,126961,5,,51.80750800000000,56010999634,122,environmentalhealth@uttlesford.gov.uk,Uttlesford,http://www.uttlesford.gov.uk,0.34960000000000,CM1 4QW,2013-09-20,fhrs_5_en-GB,5,,FHRS,5
40172,,,,,The Purple Sloth Cake Company,Restaurant/Cafe/Canteen,1,5,,96155,0,,,29010999033,122,environmentalhealth@uttlesford.gov.uk,Uttlesford,http://www.uttlesford.gov.uk,,,2015-01-07,fhrs_5_en-GB,5,,FHRS,0
40173,The Queens Head,3 Lower Street,Stansted,Essex,The Queens Head Ltd.,Hotel/bed & breakfast/guest house,7842,0,,722782,0,,51.90313100000000,14/00164/COM,122,environmentalhealth@uttlesford.gov.uk,Uttlesford,http://www.uttlesford.gov.uk,0.19964700000000,CM24 8LN,2014-12-03,fhrs_5_en-GB,5,,FHRS,0
40174,,,,,The Rainbow Shisha,Retailers - other,4613,0,,644222,0,,,14/00042/COM,122,environmentalhealth@uttlesford.gov.uk,Uttlesford,http://www.uttlesford.gov.uk,,,2014-04-10,fhrs_5_en-GB,5,,FHRS,0
40175,Razza,Temple Buildings,Braintree Road,Felsted,The Razza,Restaurant/Cafe/Canteen,1,20,,123608,15,,51.85735200000000,52005999792,122,environmentalhealth@uttlesford.gov.uk,Uttlesford,http://www.uttlesford.gov.uk,0.43634200000000,CM6 3DL,2014-10-29,fhrs_1_en-GB,1,,FHRS,10
40176,11 High Street,Chrishall,Royston,Hertfordshire,The Red Cow,Pub/bar/nightclub,7843,5,,478450,10,,52.03192800000000,07011011005,122,environmentalhealth@uttlesford.gov.uk,Uttlesford,http://www.uttlesford.gov.uk,0.10564600000000,SG8 8RN,2013-07-30,fhrs_4_en-GB,4,,FHRS,5
40177,Finchingfield Road,Great Sampford,Saffron Walden,Essex,The Red Lion,Pub/bar/nightclub,7843,10,,88202,5,,51.99261300000000,23003999176,122,environmentalhealth@uttlesford.gov.uk,Uttlesford,http://www.uttlesford.gov.uk,0.39241900000000,CB10 2RL,2014-05-08,fhrs_4_en-GB,4,,FHRS,5
40178,Marks Hall,Marks Hall Lane,Margaret Roding,Dunmow,The Reid Rooms,Restaurant/Cafe/Canteen,1,5,,129360,5,,51.77817200000000,60006999018,122,environmentalhealth@uttlesford.gov.uk,Uttlesford,http://www.uttlesford.gov.uk,0.31977600000000,CM6 1QT,2014-03-07,fhrs_4_en-GB,4,,FHRS,10
40179,2 Church Street,Saffron Walden,Essex,,The Restaurant On Church Street,Restaurant/Cafe/Canteen,1,5,,107632,0,,52.02414600000000,38090014011,122,environmentalhealth@uttlesford.gov.uk,Uttlesford,http://www.uttlesford.gov.uk,0.23993700000000,CB10 1JW,2014-11-06,fhrs_5_en-GB,5,,FHRS,0
40180,,,,,The Saffron Soup Co.,Restaurant/Cafe/Canteen,1,5,,622698,5,,,13/00233/COM,122,environmentalhealth@uttlesford.gov.uk,Uttlesford,http://www.uttlesford.gov.uk,,,2013-10-31,fhrs_5_en-GB,5,,FHRS,5
40181,4 High Street,Dunmow,Essex,,The Sandwich Shop,Takeaway/sandwich shop,7844,5,,118705,5,,51.87234600000000,48037004007,122,environmentalhealth@uttlesford.gov.uk,Uttlesford,http://www.uttlesford.gov.uk,0.36258100000000,CM6 1AG,2014-04-01,fhrs_4_en-GB,4,,FHRS,10
40182,,,,,The Social Cakework,Hospitals/Childcare/Caring Premises,5,5,,554889,0,,,13/00041/COM,122,environmentalhealth@uttlesford.gov.uk,Uttlesford,http://www.uttlesford.gov.uk,,,2013-06-11,fhrs_5_en-GB,5,,FHRS,0
40183,11 Market Row,Saffron Walden,Essex,,The Spice,Takeaway/sandwich shop,7844,20,,107702,15,,52.02321600000000,38120011007,122,environmentalhealth@uttlesford.gov.uk,Uttlesford,http://www.uttlesford.gov.uk,0.24107200000000,CB10 1HB,2014-11-18,fhrs_1_en-GB,1,,FHRS,10
40184,High Easter Road,Barnston,Great Dunmow,Essex,The Spotted Dog,Pub/bar/nightclub,7843,0,,126947,0,,51.83596000000000,56004999105,122,environmentalhealth@uttlesford.gov.uk,Uttlesford,http://www.uttlesford.gov.uk,0.36532100000000,CM6 1NF,2014-01-28,fhrs_5_en-GB,5,,FHRS,0
40185,The Stag Inn,Little Easton,Great Dunmow,Essex,The Stag Inn,Pub/bar/nightclub,7843,10,,122566,10,,51.89170600000000,51002999340,122,environmentalhealth@uttlesford.gov.uk,Uttlesford,http://www.uttlesford.gov.uk,0.33607000000000,CM6 2JE,2014-05-16,fhrs_3_en-GB,3,,FHRS,10
40186,8 Mill End,Thaxted,Dunmow,Essex,The Star,Restaurant/Cafe/Canteen,1,5,,706483,5,,51.95251000000000,14/00117/COM,122,environmentalhealth@uttlesford.gov.uk,Uttlesford,http://www.uttlesford.gov.uk,0.34577800000000,CM6 2LT,2014-10-03,fhrs_5_en-GB,5,,FHRS,5
40187,The Starr,Market Place,Dunmow,Essex,The Starr Restaurant,Hotel/bed & breakfast/guest house,7842,10,,118737,5,,51.87329700000000,48045999071,122,environmentalhealth@uttlesford.gov.uk,Uttlesford,http://www.uttlesford.gov.uk,0.36178900000000,CM6 1AX,2011-08-24,fhrs_3_en-GB,3,,FHRS,10
40188,The Bullring,Thaxted,Dunmow,Essex,The Swan Hotel,Hotel/bed & breakfast/guest house,7842,5,,131531,5,,51.95446900000000,63049999039,122,environmentalhealth@uttlesford.gov.uk,Uttlesford,http://www.uttlesford.gov.uk,0.34131100000000,CM6 2PL,2014-09-02,fhrs_4_en-GB,4,,FHRS,10
40189,The Swan Hotel,Station Road,Felsted,Dunmow,The Swan Inn,Pub/bar/nightclub,7843,5,,545803,5,,51.85645900000000,13/00083/COM,122,environmentalhealth@uttlesford.gov.uk,Uttlesford,http://www.uttlesford.gov.uk,0.43254700000000,CM6 3DG,2014-10-21,fhrs_5_en-GB,5,,FHRS,5
40190,The Swan Inn,Great Easton,Dunmow,Essex,The Swan Inn,Pub/bar/nightclub,7843,0,,121287,5,,51.90423800000000,50010999442,122,environmentalhealth@uttlesford.gov.uk,Uttlesford,http://www.uttlesford.gov.uk,0.33403000000000,CM6 2HG,2014-01-08,fhrs_5_en-GB,5,,FHRS,5
40191,1 George Street,Saffron Walden,Essex,,The Sweet Shop,Retailers - other,4613,,,478563,,,52.02278600000000,38079001006,122,environmentalhealth@uttlesford.gov.uk,Uttlesford,http://www.uttlesford.gov.uk,0.23953400000000,CB10 1EW,2013-09-13,fhrs_exempt_en-GB,Exempt,,FHRS,
40192,Unit 6,Heath View,The Heath,Hatfield Heath,The Tea Garden,Takeaway/sandwich shop,7844,5,,586904,0,,51.81194400000000,12/00174/COM,122,environmentalhealth@uttlesford.gov.uk,Uttlesford,http://www.uttlesford.gov.uk,0.20508300000000,CM22 7AB,2014-11-12,fhrs_5_en-GB,5,,FHRS,0
40193,,,,,The Teatime Treatery,Restaurant/Cafe/Canteen,1,0,,564522,0,,,13/00068/COM,122,environmentalhealth@uttlesford.gov.uk,Uttlesford,http://www.uttlesford.gov.uk,,,2013-06-12,fhrs_5_en-GB,5,,FHRS,5
40194,55 High Street,Saffron Walden,Essex,,The Temeraire,Pub/bar/nightclub,7843,0,,107638,5,,52.02137000000000,38090055001,122,environmentalhealth@uttlesford.gov.uk,Uttlesford,http://www.uttlesford.gov.uk,0.23928900000000,CB10 1AA,2014-12-04,fhrs_5_en-GB,5,,FHRS,5
40195,The Thatchers,Stortford Road,Hatfield Heath,Bishops Stortford,The Thatchers,Pub/bar/nightclub,7843,10,,110321,5,,51.81457300000000,4002399942X,122,environmentalhealth@uttlesford.gov.uk,Uttlesford,http://www.uttlesford.gov.uk,0.20345600000000,CM22 7DU,2014-01-14,fhrs_4_en-GB,4,,FHRS,5
40196,Duton Hill,Nr Great Dunmow,Essex,,The Three Horseshoes,Pub/bar/nightclub,7843,5,,121277,5,,51.91683200000000,50007999550,122,environmentalhealth@uttlesford.gov.uk,Uttlesford,http://www.uttlesford.gov.uk,0.33241500000000,CM6 2DX,2013-06-20,fhrs_5_en-GB,5,,FHRS,5
40197,The Toll House,Belmont Hill,Newport,Saffron Walden,The Toll House B&B,Hotel/bed & breakfast/guest house,7842,5,,478523,5,,51.98614000000000,20002999145,122,environmentalhealth@uttlesford.gov.uk,Uttlesford,http://www.uttlesford.gov.uk,0.21399500000000,CB11 3RD,2013-10-08,fhrs_5_en-GB,5,,FHRS,0
40198,Tudor House,Church End,Dunmow,Essex,The Toy Box,Retailers - other,4613,,,667223,,,51.88047400000000,14/00077/COM,122,environmentalhealth@uttlesford.gov.uk,Uttlesford,http://www.uttlesford.gov.uk,0.36759900000000,CM6 2AF,2014-06-03,fhrs_exempt_en-GB,Exempt,,FHRS,
40199,Trawlerman Fish Bar,5 Central Arcade,Saffron Walden,Essex,The Trawlerman Fish Bar,Takeaway/sandwich shop,7844,5,,107571,5,,52.02293500000000,38041005004,122,environmentalhealth@uttlesford.gov.uk,Uttlesford,http://www.uttlesford.gov.uk,0.23929400000000,CB10 1ER,2014-05-06,fhrs_5_en-GB,5,,FHRS,5
40200,Little Walden Road,Saffron Walden,Essex,,The Victory,Pub/bar/nightclub,7843,0,,107684,0,,52.02635900000000,38109999026,122,environmentalhealth@uttlesford.gov.uk,Uttlesford,http://www.uttlesford.gov.uk,0.24223400000000,CB10 2DZ,2015-01-13,fhrs_5_en-GB,5,,FHRS,0
40201,Hatfield Heath,Bishops Stortford,Herts,,The Village Tearooms,Restaurant/Cafe/Canteen,1,10,,110330,10,,51.81296900000000,40025999362,122,environmentalhealth@uttlesford.gov.uk,Uttlesford,http://www.uttlesford.gov.uk,0.20892000000000,CM22 7EB,2014-03-03,fhrs_3_en-GB,3,,FHRS,5
40202,Water Cafe,Water Circle,Green Street,Elsenham,The Water Cafe,Restaurant/Cafe/Canteen,1,20,,704733,10,,51.90618400000000,14/00115/COM,122,environmentalhealth@uttlesford.gov.uk,Uttlesford,http://www.uttlesford.gov.uk,0.25450400000000,CM22 6DR,2014-09-18,fhrs_1_en-GB,1,,FHRS,5
40203,The White Hart,Howlett End,Wimbish,Saffron Walden,The White Hart,Pub/bar/nightclub,7843,5,,101259,0,,,33005999149,122,environmentalhealth@uttlesford.gov.uk,Uttlesford,http://www.uttlesford.gov.uk,,CM20 2UZ,2012-02-24,fhrs_5_en-GB,5,,FHRS,5
40204,White Hart Inn,High Street,Stebbing,Dunmow,The White Hart,Pub/bar/nightclub,7843,5,,130005,5,,51.89100000000000,61014999138,122,environmentalhealth@uttlesford.gov.uk,Uttlesford,http://www.uttlesford.gov.uk,0.41426800000000,CM6 3SE,2014-07-29,fhrs_5_en-GB,5,,FHRS,5
40205,The Willows,Bambers Green Road,Takeley,Bishops Stortford,The Willows Guest House,Hotel/bed & breakfast/guest house,7842,5,,623441,5,,51.88077400000000,13/00215/COM,122,environmentalhealth@uttlesford.gov.uk,Uttlesford,http://www.uttlesford.gov.uk,0.29391700000000,CM22 6PE,2014-01-07,fhrs_5_en-GB,5,,FHRS,0
40206,The Windmill,Concourse,Passenger Terminal,Terminal Road North,The Windmill (JD Wetherspoons),Restaurant/Cafe/Canteen,1,0,,130754,5,,51.88816100000000,6206999905X,122,environmentalhealth@uttlesford.gov.uk,Uttlesford,http://www.uttlesford.gov.uk,0.25835400000000,CM24 1QW,2015-01-21,fhrs_5_en-GB,5,,FHRS,5
40207,Yew Tree Inn,36 The Street,Manuden,Bishops Stortford,The Yew Tree,Hotel/bed & breakfast/guest house,7842,10,,545798,15,,51.91916400000000,12/00165/COM,122,environmentalhealth@uttlesford.gov.uk,Uttlesford,http://www.uttlesford.gov.uk,0.16621200000000,CM23 1DJ,2014-11-27,fhrs_2_en-GB,2,,FHRS,10
40208,Hazel End,Hazel End Lane,Farnham,Bishops Stortford,Three Horseshoes,Pub/bar/nightclub,7843,5,,53297,5,,51.89876000000000,12006999052,122,environmentalhealth@uttlesford.gov.uk,Uttlesford,http://www.uttlesford.gov.uk,0.17161200000000,CM23 1HB,2013-05-14,fhrs_4_en-GB,4,,FHRS,10
40209,Mole Hill Green,Takeley,Bishops Stortford,Herts,Three Horseshoes,Pub/bar/nightclub,7843,10,,130720,10,,,62027999027,122,environmentalhealth@uttlesford.gov.uk,Uttlesford,http://www.uttlesford.gov.uk,,CM22 6PS,2014-05-30,fhrs_3_en-GB,3,,FHRS,5
40210,Three Willows Public House,Birchanger Lane,Birchanger,Bishops Stortford,Three Willows,Pub/bar/nightclub,7843,10,,478428,10,,51.87862600000000,04001999056,122,environmentalhealth@uttlesford.gov.uk,Uttlesford,http://www.uttlesford.gov.uk,0.19775300000000,CM23 5QR,2013-08-14,fhrs_3_en-GB,3,,FHRS,5
40211,Welcome Break Service Station,Dunmow Road,Birchanger,Bishops Stortford,Tossed,Restaurant/Cafe/Canteen,1,5,,704730,5,,51.88254900000000,14/00107/COM,122,environmentalhealth@uttlesford.gov.uk,Uttlesford,http://www.uttlesford.gov.uk,0.19134800000000,CM23 5QH,2014-09-09,fhrs_5_en-GB,5,,FHRS,0
40212,Town Hall,Market Place,Saffron Walden,Essex,Town Hall Saffron Walden,Restaurant/Cafe/Canteen,1,5,,478573,5,,52.02409600000000,38119999010,122,environmentalhealth@uttlesford.gov.uk,Uttlesford,http://www.uttlesford.gov.uk,0.24161100000000,CB10 1HR,2010-08-19,fhrs_5_en-GB,5,,FHRS,5
40213,Travelodge Stansted Manor Hotel,Birchanger Lane,Birchanger,Bishops Stortford,Travelodge Hotels Ltd,Hotel/bed & breakfast/guest house,7842,0,,478437,5,,51.87620300000000,04013999153,122,environmentalhealth@uttlesford.gov.uk,Uttlesford,http://www.uttlesford.gov.uk,0.19265200000000,CM23 5ST,2015-01-21,fhrs_5_en-GB,5,,FHRS,5
40214,,,,,Treat Yourself,Retailers - other,4613,0,,667215,0,,,14/00053/COM,122,environmentalhealth@uttlesford.gov.uk,Uttlesford,http://www.uttlesford.gov.uk,,,2014-04-23,fhrs_5_en-GB,5,,FHRS,0
40215,Unit 1,Oak Industrial Park,Chelmsford Road,Great Dunmow,Triumph Pitstop,Mobile caterer,7846,10,,612322,0,,51.86485800000000,12/00122/COM,122,environmentalhealth@uttlesford.gov.uk,Uttlesford,http://www.uttlesford.gov.uk,0.37362000000000,CM6 1XG,2014-02-24,fhrs_4_en-GB,4,,FHRS,5
40216,5 Wilkins Crescent,Stansted,Essex,,Truly Madly Sweetly Cupcakes,Restaurant/Cafe/Canteen,1,0,,579055,0,,51.89616600000000,13/00170/COM,122,environmentalhealth@uttlesford.gov.uk,Uttlesford,http://www.uttlesford.gov.uk,0.19461200000000,CM24 8GG,2013-08-02,fhrs_5_en-GB,5,,FHRS,0
40217,The Tudor Cottage,Middle Street,Clavering,Saffron Walden,Tudor Cottage B&B,Hotel/bed & breakfast/guest house,7842,0,,478492,5,,51.96638000000000,12/00121/COM,122,environmentalhealth@uttlesford.gov.uk,Uttlesford,http://www.uttlesford.gov.uk,0.14227000000000,CB11 4QL,2012-10-19,fhrs_5_en-GB,5,,FHRS,0
40218,15A Shire Hill Industrial Estate,Saffron Walden,Essex,,Tumbledowns,Restaurant/Cafe/Canteen,1,5,,536255,5,,52.02070400000000,3817201501,122,environmentalhealth@uttlesford.gov.uk,Uttlesford,http://www.uttlesford.gov.uk,0.25581300000000,CB11 3AQ,2014-02-18,fhrs_5_en-GB,5,,FHRS,5
40219,1 Newbiggen Street,Thaxted,Dunmow,Essex,UMW,Restaurant/Cafe/Canteen,1,5,,722778,10,,51.95520100000000,14/00142/COM,122,environmentalhealth@uttlesford.gov.uk,Uttlesford,http://www.uttlesford.gov.uk,0.34070800000000,CM6 2QS,2014-09-30,fhrs_4_en-GB,4,,FHRS,5
40220,Universal Aviation UK Limited,Building 130,Stansted Airport,Stansted,Universal Aviation Ltd,Takeaway/sandwich shop,7844,5,,478637,5,,51.88265600000000,6204399903,122,environmentalhealth@uttlesford.gov.uk,Uttlesford,http://www.uttlesford.gov.uk,0.22303000000000,CM24 1QH,2013-05-31,fhrs_5_en-GB,5,,FHRS,5
40221,,,,,Upgrove Hill,Restaurant/Cafe/Canteen,1,5,,545802,0,,,13/00082/COM,122,environmentalhealth@uttlesford.gov.uk,Uttlesford,http://www.uttlesford.gov.uk,,,2013-05-09,fhrs_5_en-GB,5,,FHRS,0
40222,,,,,Vanilla Lily Cakes,Restaurant/Cafe/Canteen,1,5,,131533,0,,,63050036001,122,environmentalhealth@uttlesford.gov.uk,Uttlesford,http://www.uttlesford.gov.uk,,,2011-10-26,fhrs_5_en-GB,5,,FHRS,0
40223,,,,,Victoria's Cakes,Restaurant/Cafe/Canteen,1,5,,91169,0,,,2506401600,122,environmentalhealth@uttlesford.gov.uk,Uttlesford,http://www.uttlesford.gov.uk,,,2014-08-19,fhrs_5_en-GB,5,,FHRS,5
40224,Village Hall,Roundbush Green,Dunmow Road,Aythorpe Roding,Village Hall Committee,Restaurant/Cafe/Canteen,1,,,478587,,,51.80941400000000,41009999060,122,environmentalhealth@uttlesford.gov.uk,Uttlesford,http://www.uttlesford.gov.uk,0.30696000000000,CM6 1PT,2014-08-19,fhrs_exempt_en-GB,Exempt,,FHRS,
40225,Hatfield Heath,Bishop's Stortford,Hertfordshire,,Village Hall Hatfield Heath,Restaurant/Cafe/Canteen,1,,,478586,,,,40025999524,122,environmentalhealth@uttlesford.gov.uk,Uttlesford,http://www.uttlesford.gov.uk,,,2013-01-22,fhrs_exempt_en-GB,Exempt,,FHRS,
40226,Waitrose Limited,Hill Street,Saffron Walden,Essex,Waitrose Store & Butchers,Retailers - supermarkets/hypermarkets,7840,0,,107651,0,,52.02306600000000,38093999108,122,environmentalhealth@uttlesford.gov.uk,Uttlesford,http://www.uttlesford.gov.uk,0.24183700000000,CB10 1EH,2013-05-20,fhrs_5_en-GB,5,,FHRS,5
40227,Welcome Break Service Station,Dunmow Road,Birchanger,Bishops Stortford,Waitrose Supermarket,Retailers - other,4613,0,,536242,0,,51.88254900000000,0400599916,122,environmentalhealth@uttlesford.gov.uk,Uttlesford,http://www.uttlesford.gov.uk,0.19134800000000,CM23 5QH,2013-06-07,fhrs_5_en-GB,5,,FHRS,5
40228,Welcome Break Service Station,Dunmow Road,Birchanger,Bishops Stortford,Welcome Break General Only,Restaurant/Cafe/Canteen,1,,,585648,,,51.88254900000000,0400599914,122,environmentalhealth@uttlesford.gov.uk,Uttlesford,http://www.uttlesford.gov.uk,0.19134800000000,CM23 5QH,2005-03-14,fhrs_exempt_en-GB,Exempt,,FHRS,
40229,Village Hall Committee,Royston Road,Wendens Ambo,Saffron Walden,Wendens Ambo Village Hall,Restaurant/Cafe/Canteen,1,,,478551,,,52.00555900000000,29013999026,122,environmentalhealth@uttlesford.gov.uk,Uttlesford,http://www.uttlesford.gov.uk,0.20466600000000,CB11 4JX,2010-10-20,fhrs_exempt_en-GB,Exempt,,FHRS,
40230,Weston Business Centre,Parsonage Road,Takeley,Bishops Stortford,Weston (Business Centres) Ltd,Takeaway/sandwich shop,7844,0,,130729,0,,51.87603700000000,6203199935,122,environmentalhealth@uttlesford.gov.uk,Uttlesford,http://www.uttlesford.gov.uk,0.26220700000000,CM22 6PU,2015-01-13,fhrs_5_en-GB,5,,FHRS,0
40231,West Point,Dunmow Road,Aythorpe Roding,Dunmow,Westpoint B&B,Hotel/bed & breakfast/guest house,7842,0,,446981,0,,51.80442400000000,41002999375,122,environmentalhealth@uttlesford.gov.uk,Uttlesford,http://www.uttlesford.gov.uk,0.30873600000000,CM6 1PU,2012-08-16,fhrs_5_en-GB,5,,FHRS,0
40232,"Concourse, Passenger Terminal",Terminal Road North,Stansted Airport,Essex,WH Smith,Retailers - other,4613,,,478653,,,51.88816100000000,6206999924,122,environmentalhealth@uttlesford.gov.uk,Uttlesford,http://www.uttlesford.gov.uk,0.25835400000000,CM24 1QW,2014-03-19,fhrs_exempt_en-GB,Exempt,,FHRS,
40233,W H Smith (Sat 2 Int Dept),Terminal Building,Stansted Airport,Essex,WH Smith (Sat 2 Int Dept),Retailers - other,4613,,,478639,,,51.88816100000000,6204399922,122,environmentalhealth@uttlesford.gov.uk,Uttlesford,http://www.uttlesford.gov.uk,0.25835400000000,CM24 1QW,2012-05-30,fhrs_exempt_en-GB,Exempt,,FHRS,
40234,W H Smith (Sat 3),Terminal Building,Stansted Airport,Essex,WH Smith (Sat 3),Retailers - other,4613,,,478640,,,,6204399923,122,environmentalhealth@uttlesford.gov.uk,Uttlesford,http://www.uttlesford.gov.uk,,,2014-03-19,fhrs_exempt_en-GB,Exempt,,FHRS,
40235,Concourse,Passenger Terminal,Terminal Road North,Stansted Airport,WH Smith Landside Arrivals,Retailers - other,4613,,,478650,,,51.88816100000000,6206999908,122,environmentalhealth@uttlesford.gov.uk,Uttlesford,http://www.uttlesford.gov.uk,0.25835400000000,CM24 1QW,2014-03-19,fhrs_exempt_en-GB,Exempt,,FHRS,
40236,Welcome Break Service Station,Dunmow Road,Birchanger,Bishops Stortford,WH Smiths,Retailers - other,4613,0,,13361,0,,51.88254900000000,0400599914F,122,environmentalhealth@uttlesford.gov.uk,Uttlesford,http://www.uttlesford.gov.uk,0.19134800000000,CM23 5QH,2012-02-20,fhrs_5_en-GB,5,,FHRS,0
40237,5 King Street,Saffron Walden,Essex,,WH Smiths Ltd,Retailers - other,4613,,,478568,,,52.02340300000000,38100005001,122,environmentalhealth@uttlesford.gov.uk,Uttlesford,http://www.uttlesford.gov.uk,0.24070200000000,CB10 1HE,2012-08-16,fhrs_exempt_en-GB,Exempt,,FHRS,
40238,Felmoor Farm,Watch House Green,Felsted,Dunmow,Whipper-Snappers Daycare Nursery,School/college/university,7845,0,,123606,0,,51.86355600000000,52005999326,122,environmentalhealth@uttlesford.gov.uk,Uttlesford,http://www.uttlesford.gov.uk,0.45284400000000,CM6 3EF,2013-07-16,fhrs_5_en-GB,5,,FHRS,0
40239,Belmont Hill,Newport,Saffron Walden,Essex,White Horse Inn,Pub/bar/nightclub,7843,,,82295,,,51.98601500000000,20002999137,122,environmentalhealth@uttlesford.gov.uk,Uttlesford,http://www.uttlesford.gov.uk,0.21445500000000,CB11 3RF,2013-07-05,fhrs_awaitinginspection_en-GB,AwaitingInspection,,FHRS,
40240,Hatfield Heath,Bishops Stortford Herts,,,White Horse Inn,Pub/bar/nightclub,7843,0,,110327,5,,51.81296900000000,4002599929X,122,environmentalhealth@uttlesford.gov.uk,Uttlesford,http://www.uttlesford.gov.uk,0.20892000000000,CM22 7EB,2015-01-27,fhrs_5_en-GB,5,,FHRS,5
40241,The White House,Smiths Green,Takeley,Bishops Stortford,White House B&B,Hotel/bed & breakfast/guest house,7842,5,,406961,5,,51.86873600000000,62040999124,122,environmentalhealth@uttlesford.gov.uk,Uttlesford,http://www.uttlesford.gov.uk,0.27337400000000,CM22 6NR,2012-06-21,fhrs_5_en-GB,5,,FHRS,5
40242,,,,,WI,Restaurant/Cafe/Canteen,1,,,478617,,,,52011999774,122,environmentalhealth@uttlesford.gov.uk,Uttlesford,http://www.uttlesford.gov.uk,,,2005-02-04,fhrs_exempt_en-GB,Exempt,,FHRS,
40243,48A High Street,Saffron Walden,Essex,,Wilburs Fitness Gym,Retailers - other,4613,5,,107637,5,,52.02195000000000,38090048013,122,environmentalhealth@uttlesford.gov.uk,Uttlesford,http://www.uttlesford.gov.uk,0.23955100000000,CB10 1EE,2014-05-22,fhrs_5_en-GB,5,,FHRS,5
40244,Market Place,Saffron Walden,Essex,,Wildside Trading,Mobile caterer,7846,5,,478497,0,,,12/00128/COM,122,environmentalhealth@uttlesford.gov.uk,Uttlesford,http://www.uttlesford.gov.uk,,,2012-05-22,fhrs_5_en-GB,5,,FHRS,0
40245,6 High Street,Dunmow,Essex,,Willetts Newsagent,Retailers - other,4613,,,478604,,,51.87234600000000,4803700600X,122,environmentalhealth@uttlesford.gov.uk,Uttlesford,http://www.uttlesford.gov.uk,0.36258100000000,CM6 1AG,2015-01-23,fhrs_exempt_en-GB,Exempt,,FHRS,
40246,Claybury Buildings,High Cross Lane,Little Canfield,Essex,Wiltshire Farm Foods,Distributors/Transporters,7,0,,478596,0,,51.86119700000000,4600799923,122,environmentalhealth@uttlesford.gov.uk,Uttlesford,http://www.uttlesford.gov.uk,0.32273900000000,CM6 1TG,2013-07-22,fhrs_5_en-GB,5,,FHRS,0
40247,,,,,Wimbish Cake Company,Restaurant/Cafe/Canteen,1,5,,612326,5,,,13/00227/COM,122,environmentalhealth@uttlesford.gov.uk,Uttlesford,http://www.uttlesford.gov.uk,,,2013-10-29,fhrs_5_en-GB,5,,FHRS,0
40248,Wimbish School And Premise  Tye Gre,Maple Lane,Wimbish,Saffron Walden,Wimbish Primary School,School/college/university,7845,5,,552353,10,,51.99487200000000,13/00132/COM,122,environmentalhealth@uttlesford.gov.uk,Uttlesford,http://www.uttlesford.gov.uk,0.31681800000000,CB10 2XE,2014-05-15,fhrs_3_en-GB,3,,FHRS,10
40249,Village Hall Top Road,Wimbish,Saffron Walden,Essex,Wimbish Village Hall,Restaurant/Cafe/Canteen,1,,,478555,,,,33013999055,122,environmentalhealth@uttlesford.gov.uk,Uttlesford,http://www.uttlesford.gov.uk,,,2013-06-20,fhrs_exempt_en-GB,Exempt,,FHRS,
40250,,,,,Winning Ways Fine Foods,Retailers - other,4613,0,,101261,0,,,33007999022,122,environmentalhealth@uttlesford.gov.uk,Uttlesford,http://www.uttlesford.gov.uk,,,2013-11-25,fhrs_5_en-GB,5,,FHRS,0
40251,,,,,With Sugar On Top,Restaurant/Cafe/Canteen,1,5,,585649,0,,,13/00150/COM,122,environmentalhealth@uttlesford.gov.uk,Uttlesford,http://www.uttlesford.gov.uk,,,2013-08-23,fhrs_5_en-GB,5,,FHRS,5
40252,"Concourse, Passenger Terminal",Terminal Road North,Stansted Airport,Essex,World Duty Free,Retailers - other,4613,,,478649,,,51.88816100000000,6206999907,122,environmentalhealth@uttlesford.gov.uk,Uttlesford,http://www.uttlesford.gov.uk,0.25835400000000,CM24 1QW,2013-03-18,fhrs_exempt_en-GB,Exempt,,FHRS,
40253,World Duty Free(Red Tag),Red Tag Stansted Airport,Terminal Road North,Stansted,World Duty Free,Retailers - other,4613,,,478657,,,,6206999947,122,environmentalhealth@uttlesford.gov.uk,Uttlesford,http://www.uttlesford.gov.uk,,,2013-03-18,fhrs_exempt_en-GB,Exempt,,FHRS,
40254,Main Airside Stansted Airport,Terminal Road North,Stansted,Essex,World Duty Free(Main Unit),Retailers - other,4613,,,478656,,,,6206999946,122,environmentalhealth@uttlesford.gov.uk,Uttlesford,http://www.uttlesford.gov.uk,,,2013-03-18,fhrs_exempt_en-GB,Exempt,,FHRS,
40255,Satellite 1 Stansted Airport,Terminal Road North,Stansted,Essex,World Duty Free(Sat 1),Retailers - other,4613,,,478654,,,,6206999944,122,environmentalhealth@uttlesford.gov.uk,Uttlesford,http://www.uttlesford.gov.uk,,,2013-03-18,fhrs_exempt_en-GB,Exempt,,FHRS,
40256,Satellite 2 Stansted Airport,Terminal Road North,Stansted,Essex,World Duty Free(Sat 2),Retailers - other,4613,,,478655,,,,6206999945,122,environmentalhealth@uttlesford.gov.uk,Uttlesford,http://www.uttlesford.gov.uk,,,2013-03-18,fhrs_exempt_en-GB,Exempt,,FHRS,
40257,,,,,WOWO's,Mobile caterer,7846,5,,622699,5,,,13/00250/COM,122,environmentalhealth@uttlesford.gov.uk,Uttlesford,http://www.uttlesford.gov.uk,,,2013-12-10,fhrs_5_en-GB,5,,FHRS,0
40258,,,,,Wrens Preschool,Restaurant/Cafe/Canteen,1,,,644215,,,,13/00116/COM,122,environmentalhealth@uttlesford.gov.uk,Uttlesford,http://www.uttlesford.gov.uk,,,2014-03-25,fhrs_exempt_en-GB,Exempt,,FHRS,
40259,7 Chapel Hill,Stansted,Essex,,Y & Z Minimarket,Retailers - supermarkets/hypermarkets,7840,5,,91067,5,,51.90214800000000,25016007004,122,environmentalhealth@uttlesford.gov.uk,Uttlesford,http://www.uttlesford.gov.uk,0.19788400000000,CM24 8AB,2012-02-16,fhrs_5_en-GB,5,,FHRS,0
40260,Yeomans,14 Lower Street,Stansted,Essex,Yeomans Cafe,Restaurant/Cafe/Canteen,1,5,,91117,5,,51.90258500000000,25036014006,122,environmentalhealth@uttlesford.gov.uk,Uttlesford,http://www.uttlesford.gov.uk,0.19999800000000,CM24 8LP,2015-01-23,fhrs_5_en-GB,5,,FHRS,5
40261,7 Market Place,Dunmow,Essex,,Yogi Pharmacy,Retailers - other,4613,,,478606,,,51.87329700000000,48045007001,122,environmentalhealth@uttlesford.gov.uk,Uttlesford,http://www.uttlesford.gov.uk,0.36178900000000,CM6 1AX,2013-03-11,fhrs_exempt_en-GB,Exempt,,FHRS,
40262,Street Record,Priors Hall,Widdington,Saffron Walden,Your Village Chippy,Mobile caterer,7846,5,,478503,0,,,12/00152/MOB,122,environmentalhealth@uttlesford.gov.uk,Uttlesford,http://www.uttlesford.gov.uk,,,2014-10-01,fhrs_5_en-GB,5,,FHRS,0
40263,15 Cambridge Road,Stansted,,,Yummys,Restaurant/Cafe/Canteen,1,10,,91052,10,,51.90523200000000,25011015009,122,environmentalhealth@uttlesford.gov.uk,Uttlesford,http://www.uttlesford.gov.uk,0.19403600000000,CM24 8BX,2014-10-14,fhrs_2_en-GB,2,,FHRS,15
40264,White Hart,Debden,Saffron Walden,Essex,Yuva,Pub/bar/nightclub,7843,5,,478465,5,,51.97698400000000,09011999134,122,environmentalhealth@uttlesford.gov.uk,Uttlesford,http://www.uttlesford.gov.uk,0.26562900000000,CB11 3LE,2013-10-24,fhrs_5_en-GB,5,,FHRS,5
40265,9 High Street,Great Dunmow,Essex,,Zoe's Coffee Shop + Deli,Restaurant/Cafe/Canteen,1,0,,522304,0,,51.87233100000000,13/00028/COM,122,environmentalhealth@uttlesford.gov.uk,Uttlesford,http://www.uttlesford.gov.uk,0.36335100000000,CM6 1AB,2014-07-29,fhrs_5_en-GB,5,,FHRS,0
