,addressline1,addressline2,addressline3,addressline4,businessname,businesstype,businesstypeid,confidenceinmanagement,extractdate,fhrsid,hygiene,itemcount,latitude,localauthoritybusinessid,localauthoritycode,localauthorityemailaddress,localauthorityname,localauthoritywebsite,longitude,postcode,ratingdate,ratingkey,ratingvalue,returncode,schemetype,structural
311766,101 Church Street,Tewkesbury,Gloucestershire,,1471 Ltd,Retailers - other,4613,10,,103793,10,,51.99228510000000,35015/0101/0/000,129,ehenquiries@tewkesbury.gov.uk,Tewkesbury,http://www.tewkesbury.gov.uk,-2.15779111000000,,2014-02-03,fhrs_3_en-GB,3,,FHRS,5
311767,Scout Headquarters,Oldbury Road,Tewkesbury,Gloucestershire,3rd Tewkesbury Scout Group Executive Committee,Other catering premises,7841,5,,46446,5,,51.99580300000000,11/00066/COMM,129,ehenquiries@tewkesbury.gov.uk,Tewkesbury,http://www.tewkesbury.gov.uk,-2.15433800000000,GL20 5LW,2012-03-15,fhrs_5_en-GB,5,,FHRS,0
311768,Winchcombe,Gloucestershire,,,5 North Street,Other catering premises,7841,5,,114924,5,,51.95402145385742,44037/0005/0/000,129,ehenquiries@tewkesbury.gov.uk,Tewkesbury,http://www.tewkesbury.gov.uk,-1.96437430381775,GL54 5LH,2014-08-22,fhrs_4_en-GB,4,,FHRS,10
311769,69 Barton Street,Tewkesbury,Gloucestershire,,Abbey Fryer Fish & Chip Shop,Other catering premises,7841,10,,103777,10,,51.99243800000000,35012/0069/0/000,129,ehenquiries@tewkesbury.gov.uk,Tewkesbury,http://www.tewkesbury.gov.uk,-2.15658400000000,GL20 5PY,2013-11-05,fhrs_3_en-GB,3,,FHRS,10
311770,Toddington,Cheltenham,Glos,,Abbey Garage,Retailers - other,4613,5,,96169,5,,51.89804840087890,29019/1004/2/000,129,ehenquiries@tewkesbury.gov.uk,Tewkesbury,http://www.tewkesbury.gov.uk,-2.07845997810364,,2014-11-20,fhrs_4_en-GB,4,,FHRS,10
311771,67 - 68 Church Street,Tewkesbury,Gloucestershire,,Abbey Hotel,Other catering premises,7841,5,,103786,5,,51.99157100000000,35015/0067/0/000,129,ehenquiries@tewkesbury.gov.uk,Tewkesbury,http://www.tewkesbury.gov.uk,-2.15961000000000,GL20 5RX,2013-03-28,fhrs_4_en-GB,4,,FHRS,10
311772,59 Church Street,Tewkesbury,Gloucestershire,,Abbey Tea Rooms,Other catering premises,7841,5,,103784,5,,51.99102630000000,35015/0059/0/000,129,ehenquiries@tewkesbury.gov.uk,Tewkesbury,http://www.tewkesbury.gov.uk,-2.16115481000000,,2014-09-25,fhrs_5_en-GB,5,,FHRS,5
311773,49 Church Street,Tewkesbury,Gloucestershire,,Abbeyfield Tewkesbury Society,Other catering premises,7841,10,,103783,5,,51.99103604000000,35015/0049/0/000,129,ehenquiries@tewkesbury.gov.uk,Tewkesbury,http://www.tewkesbury.gov.uk,-2.16112639000000,,2010-04-26,fhrs_4_en-GB,4,,FHRS,5
311774,High Street,Winchcombe,Cheltenham,Gloucestershire,Abbots House,Hotel/bed & breakfast/guest house,7842,10,,576628,5,,51.95331900000000,13/00051/COMM,129,ehenquiries@tewkesbury.gov.uk,Tewkesbury,http://www.tewkesbury.gov.uk,-1.96422900000000,GL54 5LJ,2013-08-02,fhrs_4_en-GB,4,,FHRS,5
311775,Ageas House,The Square,Gloucester Business Park,Brockworth,Ageas Insurance Staff Restaurant,Other catering premises,7841,,,21531,,,51.84871700000000,07/00034/COMM,129,ehenquiries@tewkesbury.gov.uk,Tewkesbury,http://www.tewkesbury.gov.uk,-2.17742400000000,GL3 4AD,2014-01-29,fhrs_5_en-GB,5,,FHRS,
311776,Oldbury Road,Tewkesbury,Gloucestershire,,Albion Inn,Pub/bar/nightclub,7843,5,,131823,5,,51.99558700000000,634018/1001/2/000,129,ehenquiries@tewkesbury.gov.uk,Tewkesbury,http://www.tewkesbury.gov.uk,-2.15467300000000,GL20 5LR,2012-02-07,fhrs_4_en-GB,4,,FHRS,10
311777,Alderman Knight School,Ashchurch Road,Tewkesbury,Gloucestershire,Alderman Knight,School/college/university,7845,5,,29226,5,,51.99633000000000,09/00063/COMM,129,ehenquiries@tewkesbury.gov.uk,Tewkesbury,http://www.tewkesbury.gov.uk,-2.12749700000000,GL20 8JJ,2013-07-01,fhrs_5_en-GB,5,,FHRS,5
311778,Alderman Knight School,Ashchurch Road,Tewkesbury,Gloucestershire,Alderman Knight,School/college/university,7845,0,,735188,0,,51.99633000000000,14/00109/COMM,129,ehenquiries@tewkesbury.gov.uk,Tewkesbury,http://www.tewkesbury.gov.uk,-2.12749700000000,GL20 8JJ,2015-01-27,fhrs_5_en-GB,5,,FHRS,5
311779,School Road,Alderton,Tewkesbury,Gloucestershire,Alderton Village Hall,Other catering premises,7841,5,,4269,5,,51.99811300000000,01011/1002/2/000,129,ehenquiries@tewkesbury.gov.uk,Tewkesbury,http://www.tewkesbury.gov.uk,-1.99832400000000,,2005-10-05,fhrs_5_en-GB,5,,FHRS,5
311780,10 Blacksmiths Road,Alderton,Tewkesbury,Glos.,Alderton Village Store,Retailers - other,4613,5,,3773,5,,51.99764900000000,01002/1003/2/000,129,ehenquiries@tewkesbury.gov.uk,Tewkesbury,http://www.tewkesbury.gov.uk,-1.99928200000000,GL20 8NW,2012-01-19,fhrs_5_en-GB,5,,FHRS,5
311781,Aldi Stores,"Rutherford Park, Tewkesbury Road",Uckington,Cheltenham,Aldi,Retailers - other,4613,5,,134600,5,,,68097/1004/2/000,129,ehenquiries@tewkesbury.gov.uk,Tewkesbury,http://www.tewkesbury.gov.uk,,,2014-08-28,fhrs_5_en-GB,5,,FHRS,5
311782,Gloucester Road,Tewkesbury,Gloucestershire,,Aldi Stores Limited,Retailers - supermarkets/hypermarkets,7840,5,,441808,5,,51.98479000000000,12/00068/COMM,129,ehenquiries@tewkesbury.gov.uk,Tewkesbury,http://www.tewkesbury.gov.uk,-2.16113000000000,GL20 5SY,2012-08-10,fhrs_5_en-GB,5,,FHRS,5
311783,Alstone Fields,Tewkesbury,Gloucestershire,,Alstone Fields Farm,Hotel/bed & breakfast/guest house,7842,5,,17644,5,,52.00142900000000,06/00017/COMM,129,ehenquiries@tewkesbury.gov.uk,Tewkesbury,http://www.tewkesbury.gov.uk,-2.03371800000000,GL20 8NG,2010-10-20,fhrs_5_en-GB,5,,FHRS,5
311784,,,,,Amy Daisy Cupcakes,Manufacturers/packers,7839,10,,433843,5,,,12/00070/COMM,129,ehenquiries@tewkesbury.gov.uk,Tewkesbury,http://www.tewkesbury.gov.uk,,,2012-08-06,fhrs_4_en-GB,4,,FHRS,5
311785,,,,,Angelic Designs,Other catering premises,7841,5,,551943,5,,,13/00029/COMM,129,ehenquiries@tewkesbury.gov.uk,Tewkesbury,http://www.tewkesbury.gov.uk,,,2013-05-17,fhrs_5_en-GB,5,,FHRS,5
311786,,,,,Antony Vaks,Other catering premises,7841,10,,535861,5,,,13/00020/COMM,129,ehenquiries@tewkesbury.gov.uk,Tewkesbury,http://www.tewkesbury.gov.uk,,,2013-04-05,fhrs_4_en-GB,4,,FHRS,5
311787,School Lane,Apperley,Tewkesbury,Gloucestershire,Apperley Cricket Club,Other catering premises,7841,10,,134596,5,,51.94776200000000,68089/1001/2/000,129,ehenquiries@tewkesbury.gov.uk,Tewkesbury,http://www.tewkesbury.gov.uk,-2.20380000000000,GL19 4ED,2011-06-17,fhrs_4_en-GB,4,,FHRS,5
311788,97 Gloucester Road,Tewkesbury,Gloucestershire,,Apperley House,Hospitals/Childcare/Caring Premises,5,5,,391270,10,,51.98320300000000,12/00049/COMM,129,ehenquiries@tewkesbury.gov.uk,Tewkesbury,http://www.tewkesbury.gov.uk,-2.15746900000000,GL20 5SU,2013-12-18,fhrs_4_en-GB,4,,FHRS,5
311789,Sawpit Lane,Apperley,Gloucester,Gloucestershire,Apperley Village Hall,Other catering premises,7841,5,,53340,5,,51.95618900000000,12016/1020/2/000,129,ehenquiries@tewkesbury.gov.uk,Tewkesbury,http://www.tewkesbury.gov.uk,-2.19177500000000,GL19 4DP,2014-06-03,fhrs_5_en-GB,5,,FHRS,5
311790,Village Hall,Sawpit Lane,Apperley,Gloucester,Apperley Village Hall - Open Door Lunch Club,Restaurant/Cafe/Canteen,1,5,,457937,5,,51.95618900000000,12/00091/COMM,129,ehenquiries@tewkesbury.gov.uk,Tewkesbury,http://www.tewkesbury.gov.uk,-2.19177500000000,GL19 4DP,2012-09-20,fhrs_5_en-GB,5,,FHRS,5
311791,Ashchurch Road,Tewkesbury,Gloucestershire,,Ashchurch View,Hospitals/Childcare/Caring Premises,5,0,,480022,0,,,12/00101/COMM,129,ehenquiries@tewkesbury.gov.uk,Tewkesbury,http://www.tewkesbury.gov.uk,,GL20 8US,2014-04-30,fhrs_5_en-GB,5,,FHRS,0
311792,Ashchurch,Tewkesbury,Glos.,,Ashchurch Village Hall,Other catering premises,7841,5,,6180,5,,51.99593353271480,02026/1014/2/000,129,ehenquiries@tewkesbury.gov.uk,Tewkesbury,http://www.tewkesbury.gov.uk,-2.13575434684753,GL20 8DP,2008-06-04,fhrs_5_en-GB,5,,FHRS,5
311793,Ashleworth Church Of England Primar,The Village,Ashleworth,Gloucester,Ashleworth C Of E Primary School,School/college/university,7845,0,,29249,5,,51.92865800000000,09/00065/COMM,129,ehenquiries@tewkesbury.gov.uk,Tewkesbury,http://www.tewkesbury.gov.uk,-2.27423300000000,GL19 4HT,2013-01-17,fhrs_5_en-GB,5,,FHRS,0
311794,Ashleworth Village Hall,Nupend,Ashleworth,Gloucester,Ashleworth Memorial Hall,Other catering premises,7841,5,,116816,5,,,46014/1012/2/000,129,ehenquiries@tewkesbury.gov.uk,Tewkesbury,http://www.tewkesbury.gov.uk,,,2010-09-28,fhrs_5_en-GB,5,,FHRS,5
311795,,,,,Ashleworth Post Office,Retailers - other,4613,10,,578657,5,,,13/00050/COMM,129,ehenquiries@tewkesbury.gov.uk,Tewkesbury,http://www.tewkesbury.gov.uk,,,2013-07-30,fhrs_4_en-GB,4,,FHRS,5
311796,The Post Office,Nupend,Ashleworth,Gloucester,Ashleworth Post Office,Retailers - other,4613,5,,116781,10,,51.93095300000000,46001/1004/2/000,129,ehenquiries@tewkesbury.gov.uk,Tewkesbury,http://www.tewkesbury.gov.uk,-2.27317100000000,GL19 4JG,2013-07-30,fhrs_4_en-GB,4,,FHRS,5
311797,MidGlos Indoor Bowling Club,Green Street,Brockworth,Gloucester,ASJ Catering,Other catering premises,7841,10,,703812,15,,51.84586500000000,14/00071/COMM,129,ehenquiries@tewkesbury.gov.uk,Tewkesbury,http://www.tewkesbury.gov.uk,-2.16002300000000,GL3 4LS,2014-08-25,fhrs_2_en-GB,2,,FHRS,10
311798,,,,,Averys Alfresco (Menry Avery),Retailers - other,4613,10,,551942,10,,,13/00026/COMM,129,ehenquiries@tewkesbury.gov.uk,Tewkesbury,http://www.tewkesbury.gov.uk,,,2013-05-16,fhrs_3_en-GB,3,,FHRS,5
311799,Stock Lane,Chaceley,Gloucester,Gloucestershire,Avon Sailing Club,Other catering premises,7841,10,,122568,10,,,51005/1004/2/000,129,ehenquiries@tewkesbury.gov.uk,Tewkesbury,http://www.tewkesbury.gov.uk,,,2013-10-25,fhrs_3_en-GB,3,,FHRS,10
311800,Badgeworth Lane,Shurdington,Cheltenham,Gloucestershire,Badgeworth Court Care Centre,Hospitals/Childcare/Caring Premises,5,0,,16421,0,,51.87147500000000,05036/1001/2/000,129,ehenquiries@tewkesbury.gov.uk,Tewkesbury,http://www.tewkesbury.gov.uk,-2.14255300000000,GL51 4UL,2014-08-05,fhrs_5_en-GB,5,,FHRS,5
311801,Stoke Road,Bishops Cleeve,Cheltenham,Gloucestershire,Badhams Chemist,Retailers - other,4613,,,27473,,,51.94706600000000,08057/0004/3/002,129,ehenquiries@tewkesbury.gov.uk,Tewkesbury,http://www.tewkesbury.gov.uk,-2.07784000000000,,2009-10-22,fhrs_exempt_en-GB,Exempt,,FHRS,
311802,,,,,Baked By Mrs B,Other catering premises,7841,5,,590994,5,,,13/00073/COMM,129,ehenquiries@tewkesbury.gov.uk,Tewkesbury,http://www.tewkesbury.gov.uk,,,2013-09-30,fhrs_5_en-GB,5,,FHRS,5
311803,5 Barton Road,Tewkesbury,Gloucestershire,,Barton House Guest House,Hotel/bed & breakfast/guest house,7842,5,,103763,5,,51.99312600000000,35006/1003/2/000,129,ehenquiries@tewkesbury.gov.uk,Tewkesbury,http://www.tewkesbury.gov.uk,-2.15280000000000,GL20 5QG,2012-08-20,fhrs_5_en-GB,5,,FHRS,5
311804,63 Barton Street,Tewkesbury,Gloucestershire,,Barton Street News,Retailers - other,4613,5,,103776,10,,51.99267400000000,35012/0063/0/000,129,ehenquiries@tewkesbury.gov.uk,Tewkesbury,http://www.tewkesbury.gov.uk,-2.15498300000000,GL20 5PX,2012-02-02,fhrs_3_en-GB,3,,FHRS,10
311805,Bat And Ball Inn,Church Road,Churchdown,Gloucester,Bat & Ball Inn,Pub/bar/nightclub,7843,10,,735192,10,,51.87682600000000,15/00010/COMM,129,ehenquiries@tewkesbury.gov.uk,Tewkesbury,http://www.tewkesbury.gov.uk,-2.16877600000000,GL3 2ER,2015-01-08,fhrs_3_en-GB,3,,FHRS,10
311806,,,,,Beautiful Bakes,Other catering premises,7841,5,,34299,5,,,10/00106/COMM,129,ehenquiries@tewkesbury.gov.uk,Tewkesbury,http://www.tewkesbury.gov.uk,,,2011-01-07,fhrs_5_en-GB,5,,FHRS,5
311807,Bengrove,Teddington,Tewkesbury,Gloucestershire,Bengrove Farm,Hotel/bed & breakfast/guest house,7842,5,,101263,5,,51.99338912963867,33009/1002/2/000,129,ehenquiries@tewkesbury.gov.uk,Tewkesbury,http://www.tewkesbury.gov.uk,-2.04129934310913,GL20 8JB,2011-08-03,fhrs_5_en-GB,5,,FHRS,5
311808,8 Church Street,Tewkesbury,Gloucestershire,,Berkeley Arms,Pub/bar/nightclub,7843,20,,465480,15,,51.99220300000000,12/00113/COMM,129,ehenquiries@tewkesbury.gov.uk,Tewkesbury,http://www.tewkesbury.gov.uk,-2.15754500000000,GL20 5PA,2014-11-27,fhrs_1_en-GB,1,,FHRS,10
311809,Street Record,Sigma Close,Tewkesbury Business Park,Tewkesbury,Best Breakfast Van,Mobile caterer,7846,5,,46798,10,,,11/00086/COMM,129,ehenquiries@tewkesbury.gov.uk,Tewkesbury,http://www.tewkesbury.gov.uk,,,2013-07-17,fhrs_4_en-GB,4,,FHRS,5
311810,98 Church Street,Tewkesbury,Gloucestershire,,Best Takeaway,Takeaway/sandwich shop,7844,10,,670078,10,,51.99218400000000,14/00052/COMM,129,ehenquiries@tewkesbury.gov.uk,Tewkesbury,http://www.tewkesbury.gov.uk,-2.15831600000000,GL20 5RS,2014-06-05,fhrs_2_en-GB,2,,FHRS,15
311811,,,,,Beth's Bakes,Manufacturers/packers,7839,5,,610482,5,,,13/00076/COMM,129,ehenquiries@tewkesbury.gov.uk,Tewkesbury,http://www.tewkesbury.gov.uk,,,2013-10-31,fhrs_5_en-GB,5,,FHRS,5
311812,Bishops Cleeve Bowling Club,Cheltenham Road,Bishops Cleeve,Cheltenham,Bishops Ckeeve Bowling Club,Restaurant/Cafe/Canteen,1,5,,528257,5,,,13/00027/COMM,129,ehenquiries@tewkesbury.gov.uk,Tewkesbury,http://www.tewkesbury.gov.uk,,,2013-03-19,fhrs_5_en-GB,5,,FHRS,5
311813,Post Office,37 Church Road,Bishops Cleeve,Cheltenham,Bishops Cleeve Post Office,Retailers - other,4613,,,27399,,,51.94727700000000,08009/0037/0/000,129,ehenquiries@tewkesbury.gov.uk,Tewkesbury,http://www.tewkesbury.gov.uk,-2.05934100000000,GL52 8LP,2010-07-28,fhrs_exempt_en-GB,Exempt,,FHRS,
311814,The Old Tithe Barn,Cheltenham Road,Bishops Cleeve,Cheltenham,Bishops Cleeve Village Hall Management Committee,Other catering premises,7841,5,,27391,5,,51.93759300000000,08008/1004/2/000,129,ehenquiries@tewkesbury.gov.uk,Tewkesbury,http://www.tewkesbury.gov.uk,-2.06571800000000,,2009-01-09,fhrs_4_en-GB,4,,FHRS,10
311815,41 Gretton Road,Winchcombe,Cheltenham,Gloucestershire,Blair House - Bed And Breakfast,Hotel/bed & breakfast/guest house,7842,5,,114893,5,,51.95707900000000,44024/0041/0/000,129,ehenquiries@tewkesbury.gov.uk,Tewkesbury,http://www.tewkesbury.gov.uk,-1.96799500000000,GL54 5EG,2010-06-30,fhrs_4_en-GB,4,,FHRS,10
311816,94 High Street,Tewkesbury,Gloucestershire,,Blockbuster,Retailers - other,4613,0,,25246,0,,51.99515400000000,08/00060/COMM,129,ehenquiries@tewkesbury.gov.uk,Tewkesbury,http://www.tewkesbury.gov.uk,-2.15618600000000,GL20 5JZ,2011-10-25,fhrs_5_en-GB,5,,FHRS,5
311817,Evesham Road,Bishops Cleeve,Cheltenham,Gloucestershire,Blooms Cheltenham Restaurant,Other catering premises,7841,5,,27420,5,,51.92932600000000,08018/1016/2/001,129,ehenquiries@tewkesbury.gov.uk,Tewkesbury,http://www.tewkesbury.gov.uk,-2.06813000000000,GL50 4SJ,2013-10-17,fhrs_5_en-GB,5,,FHRS,5
311818,Boddington House Farm,Boddington Lane,Boddington,Cheltenham,Boddington Estates Ltd,Manufacturers/packers,7839,,,709379,,,51.92677900000000,13/00078/COMM,129,ehenquiries@tewkesbury.gov.uk,Tewkesbury,http://www.tewkesbury.gov.uk,-2.15583200000000,GL51 0TJ,2014-09-23,fhrs_exempt_en-GB,Exempt,,FHRS,
311819,Bugatti Inn,Gretton Road,Gretton,Cheltenham,Bombay Bugatti,Pub/bar/nightclub,7843,20,,696585,15,,51.97195300000000,14/00069/COMM,129,ehenquiries@tewkesbury.gov.uk,Tewkesbury,http://www.tewkesbury.gov.uk,-1.98862700000000,GL54 5EU,2014-08-12,fhrs_1_en-GB,1,,FHRS,15
311820,150 High Street,Tewkesbury,Gloucestershire,,Bookworm,Other catering premises,7841,5,,644281,5,,51.99288600000000,14/00013/COMM,129,ehenquiries@tewkesbury.gov.uk,Tewkesbury,http://www.tewkesbury.gov.uk,-2.15738700000000,GL20 5JP,2014-03-13,fhrs_5_en-GB,5,,FHRS,5
311821,92 High Street,Tewkesbury,Glos.,,Boots The Chemist,Retailers - other,4613,5,,102483,5,,51.99496336000000,34009/0092/2/000,129,ehenquiries@tewkesbury.gov.uk,Tewkesbury,http://www.tewkesbury.gov.uk,-2.15659467000000,,2009-09-22,fhrs_5_en-GB,5,,FHRS,5
311822,Cleeve Hall,Cheltenham Road,Bishops Cleeve,Cheltenham,Bovis Homes Limited,Other catering premises,7841,5,,27392,5,,51.94713000000000,08008/1007/2/000,129,ehenquiries@tewkesbury.gov.uk,Tewkesbury,http://www.tewkesbury.gov.uk,-2.06415700000000,GL52 8GD,2012-10-01,fhrs_5_en-GB,5,,FHRS,5
311823,Ashchurch Service Station,Ashchurch Road,Tewkesbury,Glos.,BP Ashchurch Simply Food Connect,Restaurant/Cafe/Canteen,1,5,,105079,5,,51.99658400000000,36001/1009/2/000,129,ehenquiries@tewkesbury.gov.uk,Tewkesbury,http://www.tewkesbury.gov.uk,-2.11708400000000,GL20 8JN,2013-09-12,fhrs_5_en-GB,5,,FHRS,5
311824,,,,,BPL (Global) Ltd,Mobile caterer,7846,5,,670077,10,,,14/00049/COMM,129,ehenquiries@tewkesbury.gov.uk,Tewkesbury,http://www.tewkesbury.gov.uk,,,2014-06-19,fhrs_4_en-GB,4,,FHRS,5
311825,Cranham Lodge,Folland Avenue,Hucclecote,Gloucester,Brandon Trust,Other catering premises,7841,10,,134654,5,,51.85038200000000,68151/1001/2/000,129,ehenquiries@tewkesbury.gov.uk,Tewkesbury,http://www.tewkesbury.gov.uk,-2.17595000000000,GL3 3TA,2014-01-17,fhrs_4_en-GB,4,,FHRS,5
311826,Rodway Lane,Sandhurst,Gloucester,Gloucestershire,Brawn Farm,Hotel/bed & breakfast/guest house,7842,5,,132829,5,,51.91280800000000,65007/1002/2/000,129,ehenquiries@tewkesbury.gov.uk,Tewkesbury,http://www.tewkesbury.gov.uk,-2.25369600000000,GL2 9NR,2011-08-31,fhrs_5_en-GB,5,,FHRS,0
311827,Brickhampton Golf Clubhouse,Cheltenham Road East,Churchdown,Gloucester,Brickhampton Court Golf Complex,Other catering premises,7841,5,,123596,5,,51.89375800000000,52003/1003/2/000,129,ehenquiries@tewkesbury.gov.uk,Tewkesbury,http://www.tewkesbury.gov.uk,-2.17960700000000,GL2 9QF,2014-12-01,fhrs_5_en-GB,5,,FHRS,5
311828,The Royal British Legion,Vicarage Lane,Brockworth,Gloucester,Brockworth And Witcombe British Legion Club,Other catering premises,7841,0,,118687,5,,51.84660500000000,48023/1009/2/000,129,ehenquiries@tewkesbury.gov.uk,Tewkesbury,http://www.tewkesbury.gov.uk,-2.15745600000000,GL3 4EZ,2011-07-22,fhrs_5_en-GB,5,,FHRS,5
311829,Moorfield Road,Brockworth,Gloucester,Gloucestershire,Brockworth Childrens Centre,Other catering premises,7841,5,,29694,5,,51.84678800000000,09/00102/COMM,129,ehenquiries@tewkesbury.gov.uk,Tewkesbury,http://www.tewkesbury.gov.uk,-2.15570000000000,GL3 4JL,2011-03-16,fhrs_5_en-GB,5,,FHRS,0
311830,Brockworth Chip Shop,2-4 Court Road,Brockworth,Gloucester,Brockworth Fryer,Other catering premises,7841,10,,117763,10,,,47008/0002/2/000,129,ehenquiries@tewkesbury.gov.uk,Tewkesbury,http://www.tewkesbury.gov.uk,,,2013-07-01,fhrs_3_en-GB,3,,FHRS,10
311831,Brockworth House Care Centre,Shurdington Road,Brockworth,Gloucester,Brockworth House Care Centre - Mill Lane,Other catering premises,7841,0,,118683,5,,51.84641500000000,48020/1001/2/000,129,ehenquiries@tewkesbury.gov.uk,Tewkesbury,http://www.tewkesbury.gov.uk,-2.14469500000000,GL3 4QG,2014-01-28,fhrs_5_en-GB,5,,FHRS,5
311832,Horsebere House,Moorfield Road,Brockworth,Gloucester,Brockworth Kebab & Pizza,Takeaway/sandwich shop,7844,5,,333331,5,,51.84781900000000,12/00004/COMM,129,ehenquiries@tewkesbury.gov.uk,Tewkesbury,http://www.tewkesbury.gov.uk,-2.15737300000000,GL3 4EX,2013-10-22,fhrs_5_en-GB,5,,FHRS,5
311833,The Playing Fields,Mill Lane,Brockworth,Gloucester,Brockworth Rugby Football Club,Other catering premises,7841,10,,117776,10,,,47015/1007/2/000,129,ehenquiries@tewkesbury.gov.uk,Tewkesbury,http://www.tewkesbury.gov.uk,,,2012-10-16,fhrs_3_en-GB,3,,FHRS,5
311834,8A North Street,Winchcombe,Cheltenham,Gloucestershire,Browns Butchers,Retailers - other,4613,10,,114926,15,,51.95402100000000,44037/0008/A/000,129,ehenquiries@tewkesbury.gov.uk,Tewkesbury,http://www.tewkesbury.gov.uk,-1.96437400000000,GL54 5LH,2015-01-20,fhrs_2_en-GB,2,,FHRS,15
311835,Ashchurch Parkway,Northway Lane,Newtown,Tewkesbury,Brunch Bar,Mobile caterer,7846,10,,46465,10,,51.99910700000000,11/00067/COMM,129,ehenquiries@tewkesbury.gov.uk,Tewkesbury,http://www.tewkesbury.gov.uk,-2.13682700000000,GL20 8JG,2014-11-19,fhrs_3_en-GB,3,,FHRS,10
311836,Buckland Manor Hotel,Buckland,Broadway,Worcestershire,Buckland Manor,Hotel/bed & breakfast/guest house,7842,5,,528256,0,,52.02331400000000,13/00025/COMM,129,ehenquiries@tewkesbury.gov.uk,Tewkesbury,http://www.tewkesbury.gov.uk,-1.88326100000000,WR12 7LY,2014-12-04,fhrs_5_en-GB,5,,FHRS,5
311837,,,,,Burger And Fries 3,Mobile caterer,7846,5,,644288,5,,,14/00035/COMM,129,ehenquiries@tewkesbury.gov.uk,Tewkesbury,http://www.tewkesbury.gov.uk,,,2014-04-01,fhrs_4_en-GB,4,,FHRS,10
311838,,,,,Burgers & Fries 1,Mobile caterer,7846,5,,644286,5,,,14/00033/COMM,129,ehenquiries@tewkesbury.gov.uk,Tewkesbury,http://www.tewkesbury.gov.uk,,,2014-04-01,fhrs_5_en-GB,5,,FHRS,5
311839,,,,,Burgers + Fries 2,Mobile caterer,7846,5,,644287,5,,,14/00034/COMM,129,ehenquiries@tewkesbury.gov.uk,Tewkesbury,http://www.tewkesbury.gov.uk,,,2014-04-01,fhrs_5_en-GB,5,,FHRS,5
311840,Crippetts Lane,Shurdington,Cheltenham,Gloucestershire,Burley Fields Lake Farm Shop,Retailers - other,4613,5,,89612,5,,51.88653200000000,24002/1014/2/000,129,ehenquiries@tewkesbury.gov.uk,Tewkesbury,http://www.tewkesbury.gov.uk,-2.08239000000000,,2012-08-14,fhrs_5_en-GB,5,,FHRS,5
311841,,,,,Buttercream Bakehouse,Manufacturers/packers,7839,5,,45845,5,,,11/00031/COMM,129,ehenquiries@tewkesbury.gov.uk,Tewkesbury,http://www.tewkesbury.gov.uk,,,2011-10-18,fhrs_5_en-GB,5,,FHRS,5
311842,Dundry Nurseries,Bamfurlong Lane,Staverton,Cheltenham,Butterfly Cafe,Restaurant/Cafe/Canteen,1,10,,333336,10,,51.89350600000000,12/00015/COMM,129,ehenquiries@tewkesbury.gov.uk,Tewkesbury,http://www.tewkesbury.gov.uk,-2.14717200000000,GL51 6SL,2013-09-03,fhrs_3_en-GB,3,,FHRS,10
311843,Broadway Road,Winchcombe,Gloucestershire,,C & A Filling Station,Retailers - other,4613,10,,114864,10,,51.96335900000000,44008/1020/2/000,129,ehenquiries@tewkesbury.gov.uk,Tewkesbury,http://www.tewkesbury.gov.uk,-1.95633300000000,GL54 5NT,2013-07-17,fhrs_3_en-GB,3,,FHRS,10
311844,9 Church Road,Bishops Cleeve,Cheltenham,Gloucestershire,Cafe No. 9,Other catering premises,7841,5,,25027,10,,51.94746500000000,08/00037/COMM,129,ehenquiries@tewkesbury.gov.uk,Tewkesbury,http://www.tewkesbury.gov.uk,-2.06070900000000,GL52 8LR,2014-06-04,fhrs_4_en-GB,4,,FHRS,5
311845,89 Church Street,Tewkesbury,Gloucestershire,,Caffe E Vino,Other catering premises,7841,,,637198,,,51.99157100000000,14/00014/COMM,129,ehenquiries@tewkesbury.gov.uk,Tewkesbury,http://www.tewkesbury.gov.uk,-2.15961000000000,GL20 5RX,2014-07-11,fhrs_5_en-GB,5,,FHRS,
311846,,,,,Cake Daydreams,Other catering premises,7841,5,,505489,5,,,13/00004/COMM,129,ehenquiries@tewkesbury.gov.uk,Tewkesbury,http://www.tewkesbury.gov.uk,,,2013-02-01,fhrs_5_en-GB,5,,FHRS,5
311847,,,,,Cakes That Grace Bakes,Manufacturers/packers,7839,10,,441812,5,,,12/00076/COMM,129,ehenquiries@tewkesbury.gov.uk,Tewkesbury,http://www.tewkesbury.gov.uk,,,2012-08-22,fhrs_4_en-GB,4,,FHRS,5
311848,Southwick Park,Gloucester Road,Tewkesbury,Gloucestershire,Cambian Autism School,School/college/university,7845,5,,465478,5,,51.97244300000000,12/00088/COMM,129,ehenquiries@tewkesbury.gov.uk,Tewkesbury,http://www.tewkesbury.gov.uk,-2.15590300000000,GL20 7DG,2014-07-07,fhrs_4_en-GB,4,,FHRS,10
311849,,,,,Caroline's Cupcakes,Other catering premises,7841,10,,666969,5,,,14/00002/COMM,129,ehenquiries@tewkesbury.gov.uk,Tewkesbury,http://www.tewkesbury.gov.uk,,,2014-01-10,fhrs_4_en-GB,4,,FHRS,5
311850,,,,,Carolyn Jane Cakes,Other catering premises,7841,10,,33276,5,,,10/00035/COMM,129,ehenquiries@tewkesbury.gov.uk,Tewkesbury,http://www.tewkesbury.gov.uk,,,2010-06-16,fhrs_4_en-GB,4,,FHRS,0
311851,Oldbury Road,Tewkesbury,Gloucestershire,,Cascades,Retailers - other,4613,5,,102516,5,,51.99558700000000,34018/1017/2/000,129,ehenquiries@tewkesbury.gov.uk,Tewkesbury,http://www.tewkesbury.gov.uk,-2.15467300000000,GL20 5LR,2014-08-07,fhrs_4_en-GB,4,,FHRS,10
311852,,,,,Catherine's Cupcakes,Manufacturers/packers,7839,5,,45816,5,,,11/00029/COMM,129,ehenquiries@tewkesbury.gov.uk,Tewkesbury,http://www.tewkesbury.gov.uk,,,2011-05-18,fhrs_5_en-GB,5,,FHRS,5
311853,,,,,Celia's Pantry,Other catering premises,7841,0,,582617,5,,,13/00042/COMM,129,ehenquiries@tewkesbury.gov.uk,Tewkesbury,http://www.tewkesbury.gov.uk,,,2013-08-14,fhrs_5_en-GB,5,,FHRS,5
311854,2 Quay Street,Tewkesbury,Gloucestershire,,Champagne Charlie's,Other catering premises,7841,5,,102523,10,,51.99513500000000,34020/0002/0/000,129,ehenquiries@tewkesbury.gov.uk,Tewkesbury,http://www.tewkesbury.gov.uk,-2.15690000000000,GL20 5BE,2011-09-13,fhrs_3_en-GB,3,,FHRS,10
311855,,,,,Chandlers Farmhouse,Other catering premises,7841,0,,20469,5,,,06023/1004/2/000,129,ehenquiries@tewkesbury.gov.uk,Tewkesbury,http://www.tewkesbury.gov.uk,,,2014-10-09,fhrs_5_en-GB,5,,FHRS,5
311856,The Pavillion,Gloucester Road,Staverton,Cheltenham,Chang Siam Thai Restaurant,Other catering premises,7841,20,,716342,15,,51.89986800000000,14/00104/COMM,129,ehenquiries@tewkesbury.gov.uk,Tewkesbury,http://www.tewkesbury.gov.uk,-2.14296300000000,GL51 0SS,2014-11-11,fhrs_1_en-GB,1,,FHRS,10
311857,Main Road,Shurdington,Cheltenham,Gloucestershire,Chargrove Lawn,Other catering premises,7841,5,,86500,5,,51.87393300000000,22019/1013/2/000,129,ehenquiries@tewkesbury.gov.uk,Tewkesbury,http://www.tewkesbury.gov.uk,-2.10558000000000,GL51 4XA,2015-01-12,fhrs_5_en-GB,5,,FHRS,5
311858,,,,,Charitea,Mobile caterer,7846,10,,565254,5,,,13/00056/COMM,129,ehenquiries@tewkesbury.gov.uk,Tewkesbury,http://www.tewkesbury.gov.uk,,,2013-06-24,fhrs_4_en-GB,4,,FHRS,5
311859,,,,,Charlie's Sugarcraft,Other catering premises,7841,5,,505488,5,,,13/00003/COMM,129,ehenquiries@tewkesbury.gov.uk,Tewkesbury,http://www.tewkesbury.gov.uk,,,2013-01-22,fhrs_5_en-GB,5,,FHRS,5
311860,Endsleigh Insurance,Gate House,Main Road,Shurdington,Charlton House Catering,Other catering premises,7841,0,,86504,0,,51.85757600000000,22019/1095/3/001,129,ehenquiries@tewkesbury.gov.uk,Tewkesbury,http://www.tewkesbury.gov.uk,-2.12629000000000,GL51 4UD,2013-07-18,fhrs_5_en-GB,5,,FHRS,0
311861,Tewkesbury Comprehensive School,Ashchurch Road,Tewkesbury,Gloucestershire,Chartwells,School/college/university,7845,5,,105081,5,,51.99604600000000,36001/1015/2/001,129,ehenquiries@tewkesbury.gov.uk,Tewkesbury,http://www.tewkesbury.gov.uk,-2.13223000000000,GL20 8DF,2014-11-05,fhrs_5_en-GB,5,,FHRS,5
311862,Main Road,Shurdington,Cheltenham,Gloucestershire,Cheese Rollers Inn,Pub/bar/nightclub,7843,,,86503,,,51.86511300000000,22019/1069/2/000,129,ehenquiries@tewkesbury.gov.uk,Tewkesbury,http://www.tewkesbury.gov.uk,-2.11560900000000,GL51 4XJ,2014-01-17,fhrs_4_en-GB,4,,FHRS,
311863,Stoke Road,Bishops Cleeve,Cheltenham,Gloucestershire,Cheltenham North R.F.C.,Other catering premises,7841,10,,27474,10,,51.94706600000000,08057/1016/2/000,129,ehenquiries@tewkesbury.gov.uk,Tewkesbury,http://www.tewkesbury.gov.uk,-2.07784000000000,,2014-03-06,fhrs_3_en-GB,3,,FHRS,10
311864,Gloucester Road,Staverton,Cheltenham,Gloucestershire,Cheltenham Regency Hotel,Other catering premises,7841,10,,97130,5,,51.89973900000000,30006/1027/2/000,129,ehenquiries@tewkesbury.gov.uk,Tewkesbury,http://www.tewkesbury.gov.uk,-2.14568100000000,GL51 0ST,2014-08-13,fhrs_2_en-GB,2,,FHRS,15
311865,58/59 High Street,Tewkesbury,Glos.,,Chicago Pizza,Other catering premises,7841,5,,102480,10,,51.99470918000000,34009/0058/0/000,129,ehenquiries@tewkesbury.gov.uk,Tewkesbury,http://www.tewkesbury.gov.uk,-2.15672326000000,,2014-03-26,fhrs_4_en-GB,4,,FHRS,5
311866,,,,,Children World,Mobile caterer,7846,5,,516802,0,,,13/00018/COMM,129,ehenquiries@tewkesbury.gov.uk,Tewkesbury,http://www.tewkesbury.gov.uk,,,2013-02-15,fhrs_5_en-GB,5,,FHRS,0
311867,,,,,Chocolate Evolution,Manufacturers/packers,7839,5,,610491,5,,,13/00099/COMM,129,ehenquiries@tewkesbury.gov.uk,Tewkesbury,http://www.tewkesbury.gov.uk,,,2013-11-18,fhrs_5_en-GB,5,,FHRS,5
311868,Chosen Court Care Home,139 Hucclecote Road,Hucclecote,Gloucester,Chosen Care Ltd,Other catering premises,7841,5,,128770,5,,51.85179400000000,59007/0139/0/000,129,ehenquiries@tewkesbury.gov.uk,Tewkesbury,http://www.tewkesbury.gov.uk,-2.17570900000000,GL3 3TX,2011-02-08,fhrs_5_en-GB,5,,FHRS,5
311869,8C Blacksmith Lane,Churchdown,Gloucester,Gloucestershire,Chosen Coffee Shop,Restaurant/Cafe/Canteen,1,5,,370645,5,,51.87688300000000,12/00037/COMM,129,ehenquiries@tewkesbury.gov.uk,Tewkesbury,http://www.tewkesbury.gov.uk,-2.16672800000000,GL3 2EU,2013-12-18,fhrs_5_en-GB,5,,FHRS,5
311870,Chosen Hill Rugby Football Club,Brookfield Road,Churchdown,Gloucester,Chosen Hill Former Pupils Rugby Club,Other catering premises,7841,20,,125520,5,,51.87866700000000,54007/1015/2/000,129,ehenquiries@tewkesbury.gov.uk,Tewkesbury,http://www.tewkesbury.gov.uk,-2.16098200000000,,2012-06-11,fhrs_1_en-GB,1,,FHRS,5
311871,Catering,Chosen Hill School,Brookfield Road,Churchdown,Chosen Hill School,School/college/university,7845,5,,29090,5,,51.87980400000000,09/00052/COMM,129,ehenquiries@tewkesbury.gov.uk,Tewkesbury,http://www.tewkesbury.gov.uk,-2.16075300000000,GL3 2PL,2013-07-05,fhrs_5_en-GB,5,,FHRS,5
311872,St Andrews Church,Station Road,Churchdown,Gloucester,Church Of England,Other catering premises,7841,,,125550,,,,54026/1040/2/000,129,ehenquiries@tewkesbury.gov.uk,Tewkesbury,http://www.tewkesbury.gov.uk,,,2009-01-06,fhrs_exempt_en-GB,Exempt,,FHRS,
311873,Churchdown Community Centre,Parton Road,Churchdown,Gloucester,Churchdown C A Social Club Ltd,Other catering premises,7841,,,123633,,,51.88239600000000,52025/1012/2/000,129,ehenquiries@tewkesbury.gov.uk,Tewkesbury,http://www.tewkesbury.gov.uk,-2.17168800000000,GL3 2JH,2014-09-04,fhrs_4_en-GB,4,,FHRS,
311874,Church Road,Churchdown,Gloucester,Gloucestershire,Churchdown Club Ltd,Other catering premises,7841,10,,125530,5,,51.87682600000000,54011/1016/2/000,129,ehenquiries@tewkesbury.gov.uk,Tewkesbury,http://www.tewkesbury.gov.uk,-2.16877600000000,GL3 2ER,2014-04-17,fhrs_4_en-GB,4,,FHRS,5
311875,115 Parton Road,Churchdown,Gloucester,Gloucestershire,Churchdown Day Nursery,Hospitals/Childcare/Caring Premises,5,0,,33889,5,,51.88445500000000,10/00073/COMM,129,ehenquiries@tewkesbury.gov.uk,Tewkesbury,http://www.tewkesbury.gov.uk,-2.17179700000000,GL3 2JE,2015-01-07,fhrs_5_en-GB,5,,FHRS,5
311876,Methodist Chapel,Chapel Hay Lane,Churchdown,Gloucester,Churchdown Methodist Church,Other catering premises,7841,,,125524,,,51.87541200000000,54009/1001/2/000,129,ehenquiries@tewkesbury.gov.uk,Tewkesbury,http://www.tewkesbury.gov.uk,-2.16840800000000,,2012-09-05,fhrs_exempt_en-GB,Exempt,,FHRS,
311877,Churchdown School,Winston Road,Churchdown,Gloucester,Churchdown School Catering,School/college/university,7845,5,,124506,5,,51.88144200000000,53021/1002/2/000,129,ehenquiries@tewkesbury.gov.uk,Tewkesbury,http://www.tewkesbury.gov.uk,-2.17830900000000,GL3 2RA,2013-07-10,fhrs_5_en-GB,5,,FHRS,5
311878,Station Road,Churchdown,Gloucester,Gloucestershire,Churchdown Village Infant School,School/college/university,7845,5,,644289,5,,51.87874000000000,14/00036/COMM,129,ehenquiries@tewkesbury.gov.uk,Tewkesbury,http://www.tewkesbury.gov.uk,-2.16993100000000,GL3 2NB,2014-10-08,fhrs_4_en-GB,4,,FHRS,10
311879,Churchdown Village Junior School,Station Road,Churchdown,Gloucester,Churchdown Village Junior (Edwards And Ward Ltd),School/college/university,7845,0,,29350,0,,,09/00074/COMM,129,ehenquiries@tewkesbury.gov.uk,Tewkesbury,http://www.tewkesbury.gov.uk,,,2014-03-27,fhrs_5_en-GB,5,,FHRS,5
311880,Tewkesbury Road,Uckington,Cheltenham,Gloucestershire,Civil Service Sports Association,Retailers - other,4613,5,,111710,5,,51.91902500000000,41012/1040/2/000,129,ehenquiries@tewkesbury.gov.uk,Tewkesbury,http://www.tewkesbury.gov.uk,-2.11176300000000,GL51 9SL,2013-09-03,fhrs_4_en-GB,4,,FHRS,10
311881,Javelin 1,Meteor Business Park,Cheltenham Road East,Churchdown,Clarkson Evans,Other catering premises,7841,5,,21455,5,,51.89750200000000,07/00025/COMM,129,ehenquiries@tewkesbury.gov.uk,Tewkesbury,http://www.tewkesbury.gov.uk,-2.17094600000000,GL2 9QL,2015-01-20,fhrs_5_en-GB,5,,FHRS,5
311882,2 Cheltenham Road,Bishops Cleeve,Cheltenham,Gloucestershire,Cleeve Day Nursery,Hospitals/Childcare/Caring Premises,5,5,,713431,5,,51.94810200000000,14/00020/COMM,129,ehenquiries@tewkesbury.gov.uk,Tewkesbury,http://www.tewkesbury.gov.uk,-2.06315400000000,GL52 8NF,2014-10-23,fhrs_5_en-GB,5,,FHRS,5
311883,1 Church Road,Bishops Cleeve,Cheltenham,Gloucestershire,Cleeve Fish Bar,Other catering premises,7841,,,27393,,,51.94746500000000,08009/0001/0/000,129,ehenquiries@tewkesbury.gov.uk,Tewkesbury,http://www.tewkesbury.gov.uk,-2.06070900000000,GL52 8LR,2014-04-14,fhrs_5_en-GB,5,,FHRS,
311884,Cleeve Hill,Cheltenham,Gloucestershire,,Cleeve Hill Golf Club,Other catering premises,7841,10,,115835,5,,51.94333400000000,45010/1003/2/000,129,ehenquiries@tewkesbury.gov.uk,Tewkesbury,http://www.tewkesbury.gov.uk,-2.01950400000000,GL52 3PW,2013-07-01,fhrs_3_en-GB,3,,FHRS,10
311885,Cleeve Hill Nursing Home,Cleeve Hill,Cheltenham,Gloucestershire,Cleeve Hill Healthcare Ltd,Other catering premises,7841,5,,115837,5,,51.94333400000000,45010/1005/2/000,129,ehenquiries@tewkesbury.gov.uk,Tewkesbury,http://www.tewkesbury.gov.uk,-2.01950400000000,GL52 3PW,2013-11-22,fhrs_4_en-GB,4,,FHRS,10
311886,Cleeve Hill,Cheltenham,Gloucestershire,,Cleeve Hill Hotel,Other catering premises,7841,5,,115836,5,,51.94045600000000,45010/1004/2/000,129,ehenquiries@tewkesbury.gov.uk,Tewkesbury,http://www.tewkesbury.gov.uk,-2.02494300000000,GL52 3PR,2010-04-27,fhrs_4_en-GB,4,,FHRS,10
311887,The Kings Head,19 Cheltenham Road,Bishops Cleeve,Cheltenham,Cleeve Kebab,Mobile caterer,7846,5,,735189,5,,51.94584500000000,14/00116/COMM,129,ehenquiries@tewkesbury.gov.uk,Tewkesbury,http://www.tewkesbury.gov.uk,-2.06355800000000,GL52 8LU,2015-01-28,fhrs_5_en-GB,5,,FHRS,5
311888,Two Hedges Road,Bishops Cleeve,Cheltenham,Gloucestershire,Cleeve School,School/college/university,7845,0,,604997,5,,51.94156900000000,13/00074/COMM,129,ehenquiries@tewkesbury.gov.uk,Tewkesbury,http://www.tewkesbury.gov.uk,-2.05565300000000,GL52 8AE,2013-10-22,fhrs_4_en-GB,4,,FHRS,10
311889,Wadfield Farm,Corndean Lane,Winchcombe,Gloucestershire,Cleevely B & B,Hotel/bed & breakfast/guest house,7842,5,,17671,5,,51.94139200000000,06/00019/COMM,129,ehenquiries@tewkesbury.gov.uk,Tewkesbury,http://www.tewkesbury.gov.uk,-1.97170100000000,,2008-04-22,fhrs_5_en-GB,5,,FHRS,5
311890,26 - 29 High Street,Tewkesbury,Gloucestershire,,Coffee #1,Other catering premises,7841,5,,441810,5,,51.99436100000000,12/00073/COMM,129,ehenquiries@tewkesbury.gov.uk,Tewkesbury,http://www.tewkesbury.gov.uk,-2.15733400000000,GL20 5AT,2014-03-12,fhrs_5_en-GB,5,,FHRS,5
311891,Winchcombe Railway Station,Greet Road,Winchcombe,Gloucestershire,Coffee Pot Cafe,Other catering premises,7841,5,,29910,5,,51.96544800000000,09/00125/COMM,129,ehenquiries@tewkesbury.gov.uk,Tewkesbury,http://www.tewkesbury.gov.uk,-1.96439400000000,GL54 5LB,2013-10-01,fhrs_5_en-GB,5,,FHRS,5
311892,,,,,Confetti Cakes,Other catering premises,7841,5,,633494,5,,,13/00089/COMM,129,ehenquiries@tewkesbury.gov.uk,Tewkesbury,http://www.tewkesbury.gov.uk,,,2014-01-23,fhrs_5_en-GB,5,,FHRS,5
311893,Tewkesbury Road,Coombe Hill,Gloucester,Gloucestershire,Coombe Hill Service Station,Retailers - other,4613,10,,79291,10,,51.94242200000000,19015/1026/2/000,129,ehenquiries@tewkesbury.gov.uk,Tewkesbury,http://www.tewkesbury.gov.uk,-2.16307200000000,GL19 4BD,2013-10-17,fhrs_3_en-GB,3,,FHRS,10
311894,70 St Johns Avenue,Churchdown,Gloucester,Gloucestershire,Co-Operative (Co-op),Retailers - other,4613,5,,29965,5,,51.88528800000000,09/00130/COMM,129,ehenquiries@tewkesbury.gov.uk,Tewkesbury,http://www.tewkesbury.gov.uk,-2.18560300000000,GL3 2BX,2013-11-20,fhrs_4_en-GB,4,,FHRS,10
311895,Corner Cottage,Stow Road,Alderton,,Corner Cottage Bed And Breakfast,Hotel/bed & breakfast/guest house,7842,5,,9669,5,,51.99331500000000,04/00045/COMM,129,ehenquiries@tewkesbury.gov.uk,Tewkesbury,http://www.tewkesbury.gov.uk,-2.00547200000000,GL20 8NH,2011-09-20,fhrs_4_en-GB,4,,FHRS,10
311896,109 - 113 Queens Road,Tewkesbury,Gloucestershire,,Cost Cutter,Retailers - other,4613,10,,106506,5,,51.98525100000000,37019/0109/0/000,129,ehenquiries@tewkesbury.gov.uk,Tewkesbury,http://www.tewkesbury.gov.uk,-2.15188500000000,GL20 5EN,2011-12-15,fhrs_4_en-GB,4,,FHRS,5
311897,Tesco Supermarket,Church Road,Bishops Cleeve,Cheltenham,Costa @ Tesco,Restaurant/Cafe/Canteen,1,5,,27404,5,,51.94247900000000,08009/1119/2/000/A,129,ehenquiries@tewkesbury.gov.uk,Tewkesbury,http://www.tewkesbury.gov.uk,-2.05552800000000,GL52 4LR,2011-01-11,fhrs_5_en-GB,5,,FHRS,0
311898,95 - 96 High Street,Tewkesbury,Gloucestershire,,Costa Coffee,Other catering premises,7841,,,34137,,,51.99515400000000,10/00092/COMM,129,ehenquiries@tewkesbury.gov.uk,Tewkesbury,http://www.tewkesbury.gov.uk,-2.15618600000000,GL20 5JZ,2014-04-08,fhrs_5_en-GB,5,,FHRS,
311899,2 Columbine Road,Walton Cardiff,Tewkesbury,Gloucestershire,Costcutter,Retailers - other,4613,10,,7473,5,,51.98001200000000,03/00036/COMM,129,ehenquiries@tewkesbury.gov.uk,Tewkesbury,http://www.tewkesbury.gov.uk,-2.14158800000000,,2014-12-04,fhrs_3_en-GB,3,,FHRS,10
311900,Dumbleton Cricket Club,Dairy Lane,Dumbleton,Evesham,Cotswold Bites,Restaurant/Cafe/Canteen,1,10,,457939,5,,52.02174200000000,12/00100/COMM,129,ehenquiries@tewkesbury.gov.uk,Tewkesbury,http://www.tewkesbury.gov.uk,-1.97772800000000,WR11 7TP,2014-08-22,fhrs_3_en-GB,3,,FHRS,10
311901,East Lodge Farm,Stanway Road,Stanton,Gloucestershire,Cotswold Gold,Manufacturers/packers,7839,5,,30042,5,,52.00492500000000,09/00139/COMM,129,ehenquiries@tewkesbury.gov.uk,Tewkesbury,http://www.tewkesbury.gov.uk,-1.92326800000000,WR12 7NH,2012-06-21,fhrs_5_en-GB,5,,FHRS,5
311902,,,,,Cotswold Pudding & Pie Co,Retailers - other,4613,10,,516800,5,,,13/00014/COMM,129,ehenquiries@tewkesbury.gov.uk,Tewkesbury,http://www.tewkesbury.gov.uk,,,2014-09-23,fhrs_4_en-GB,4,,FHRS,5
311903,,,,,Country Fayre,Other catering premises,7841,5,,21324,5,,,07/00009/COMM,129,ehenquiries@tewkesbury.gov.uk,Tewkesbury,http://www.tewkesbury.gov.uk,,,2013-12-10,fhrs_5_en-GB,5,,FHRS,5
311904,Tredington,Tewkesbury,Gloucestershire,,Countrywide Farmers,Retailers - other,4613,,,106538,,,51.96668624877930,37049/1006/2/000,129,ehenquiries@tewkesbury.gov.uk,Tewkesbury,http://www.tewkesbury.gov.uk,-2.15016269683838,GL20 7BZ,2013-08-19,fhrs_exempt_en-GB,Exempt,,FHRS,
311905,7 St Marys Lane,Tewkesbury,Gloucestershire,,Crumpets,Other catering premises,7841,5,,103816,5,,51.99204800000000,35036/0007/0/000,129,ehenquiries@tewkesbury.gov.uk,Tewkesbury,http://www.tewkesbury.gov.uk,-2.15919000000000,GL20 5SL,2014-06-12,fhrs_5_en-GB,5,,FHRS,5
311906,5 Nelson Street,Tewkesbury,Gloucestershire,,Crusty Cob,Takeaway/sandwich shop,7844,5,,713432,5,,51.99304100000000,14/00091/COMM,129,ehenquiries@tewkesbury.gov.uk,Tewkesbury,http://www.tewkesbury.gov.uk,-2.15578500000000,GL20 5QF,2014-10-30,fhrs_5_en-GB,5,,FHRS,5
311907,,,,,Cupa Cakey,Manufacturers/packers,7839,5,,333334,0,,,12/00009/COMM,129,ehenquiries@tewkesbury.gov.uk,Tewkesbury,http://www.tewkesbury.gov.uk,,,2012-02-03,fhrs_5_en-GB,5,,FHRS,5
311908,,,,,Daisy Bakeshop,Manufacturers/packers,7839,5,,45802,5,,,11/00028/COMM,129,ehenquiries@tewkesbury.gov.uk,Tewkesbury,http://www.tewkesbury.gov.uk,,,2011-07-25,fhrs_5_en-GB,5,,FHRS,5
311909,,,,,Danters Amusements,Mobile caterer,7846,5,,542555,5,,,13/00046/COMM,129,ehenquiries@tewkesbury.gov.uk,Tewkesbury,http://www.tewkesbury.gov.uk,,,2013-04-23,fhrs_5_en-GB,5,,FHRS,5
311910,The White House,Evesham Road,Greet,Cheltenham,David's Chilli Oil,Manufacturers/packers,7839,,,45367,,,51.96861300000000,11/00003/COMM,129,ehenquiries@tewkesbury.gov.uk,Tewkesbury,http://www.tewkesbury.gov.uk,-1.96554200000000,GL54 5BH,2011-04-13,fhrs_exempt_en-GB,Exempt,,FHRS,
311911,39 Church Road,Bishops Cleeve,Cheltenham,Gloucestershire,Davids Of Cleeve,Retailers - other,4613,5,,27401,5,,51.94727700000000,08009/0039/0/000,129,ehenquiries@tewkesbury.gov.uk,Tewkesbury,http://www.tewkesbury.gov.uk,-2.05934100000000,GL52 8LP,2012-07-17,fhrs_5_en-GB,5,,FHRS,5
311912,Church Road,Maisemore,Gloucester,Gloucestershire,Deanwood Lodge,Hospitals/Childcare/Caring Premises,5,5,,410591,5,,51.88938800000000,12/00021/COMM,129,ehenquiries@tewkesbury.gov.uk,Tewkesbury,http://www.tewkesbury.gov.uk,-2.27310700000000,GL2 8HB,2014-04-28,fhrs_5_en-GB,5,,FHRS,5
311913,Apperley And Deerhurst Church Of En,School Road,Apperley,Gloucester,Deerhurst & Apperley Primary School,School/college/university,7845,5,,542550,5,,51.95275500000000,13/00028/COMM,129,ehenquiries@tewkesbury.gov.uk,Tewkesbury,http://www.tewkesbury.gov.uk,-2.20238300000000,GL19 4DQ,2015-02-06,fhrs_5_en-GB,5,,FHRS,5
311914,Deerhurst Road,Deerhurst,Gloucester,Gloucestershire,Deerhurst Priory,Hotel/bed & breakfast/guest house,7842,5,,17661,5,,51.96550800000000,06/00018/COMM,129,ehenquiries@tewkesbury.gov.uk,Tewkesbury,http://www.tewkesbury.gov.uk,-2.18909300000000,GL19 4BX,2013-03-19,fhrs_5_en-GB,5,,FHRS,5
311915,New Challenge House,International Drive,Tewkesbury Business Park,Tewkesbury,Delitec,Other catering premises,7841,0,,14753,5,,52.00081800000000,05/00048/COMM,129,ehenquiries@tewkesbury.gov.uk,Tewkesbury,http://www.tewkesbury.gov.uk,-2.12615500000000,GL20 8UQ,2012-09-20,fhrs_5_en-GB,5,,FHRS,0
311916,Churchfields,Bishops Cleeve,Cheltenham,Gloucestershire,Denley Hall,Other catering premises,7841,5,,27504,5,,51.94771800000000,08078/1001/2/000,129,ehenquiries@tewkesbury.gov.uk,Tewkesbury,http://www.tewkesbury.gov.uk,-2.05718800000000,GL52 8LL,2010-08-18,fhrs_5_en-GB,5,,FHRS,5
311917,,,,,Design-a-cakes4u,Other catering premises,7841,5,,625018,5,,,13/00107/COMM,129,ehenquiries@tewkesbury.gov.uk,Tewkesbury,http://www.tewkesbury.gov.uk,,,2014-01-13,fhrs_5_en-GB,5,,FHRS,5
311918,,,,,DG Cakery,Other catering premises,7841,10,,680368,5,,,14/00050/COMM,129,ehenquiries@tewkesbury.gov.uk,Tewkesbury,http://www.tewkesbury.gov.uk,,,2014-06-25,fhrs_4_en-GB,4,,FHRS,5
311919,21 Abbots Leys Road,Winchcombe,Cheltenham,Glos.,Dhillon Stores,Retailers - other,4613,10,,114856,5,,51.95435509000000,44003/0021/0/000,129,ehenquiries@tewkesbury.gov.uk,Tewkesbury,http://www.tewkesbury.gov.uk,-1.97263867000000,,2012-08-28,fhrs_3_en-GB,3,,FHRS,10
311920,2 Knightsbridge Business Centre,Tewkesbury Road,Elmstone Hardwicke,Cheltenham,Dimkins Patisserie,Manufacturers/packers,7839,10,,666973,10,,51.94048000000000,14/00026/COMM,129,ehenquiries@tewkesbury.gov.uk,Tewkesbury,http://www.tewkesbury.gov.uk,-2.15659200000000,GL51 9TA,2014-04-24,fhrs_3_en-GB,3,,FHRS,10
311921,Oberthur Card Systems,Alexandra Way,Ashchurch,Tewkesbury,Dine Limited - Oberthur Card Systems,Restaurant/Cafe/Canteen,1,10,,333343,10,,51.99927800000000,12/00032/COMM,129,ehenquiries@tewkesbury.gov.uk,Tewkesbury,http://www.tewkesbury.gov.uk,-2.12009200000000,GL20 8GA,2013-09-25,fhrs_3_en-GB,3,,FHRS,10
311922,,,,,Doble And Bignall,Manufacturers/packers,7839,5,,644284,10,,,14/00029/COMM,129,ehenquiries@tewkesbury.gov.uk,Tewkesbury,http://www.tewkesbury.gov.uk,,,2014-04-24,fhrs_4_en-GB,4,,FHRS,5
311923,102 High Street,Tewkesbury,Gloucestershire,,Dominos Pizza,Other catering premises,7841,0,,46273,0,,51.99515400000000,11/00056/COMM,129,ehenquiries@tewkesbury.gov.uk,Tewkesbury,http://www.tewkesbury.gov.uk,-2.15618600000000,GL20 5JZ,2013-12-17,fhrs_5_en-GB,5,,FHRS,0
311924,A3,Whittle Way,Gloucester Business Park,Brockworth,Dominos Pizza,Takeaway/sandwich shop,7844,5,,194329,10,,51.84701700000000,12/00001/COMM,129,ehenquiries@tewkesbury.gov.uk,Tewkesbury,http://www.tewkesbury.gov.uk,-2.17152400000000,GL3 4BJ,2013-07-01,fhrs_3_en-GB,3,,FHRS,10
311925,,,,,Donut Factory,Mobile caterer,7846,5,,644285,5,,,14/00032/COMM,129,ehenquiries@tewkesbury.gov.uk,Tewkesbury,http://www.tewkesbury.gov.uk,,,2014-04-01,fhrs_5_en-GB,5,,FHRS,5
311926,4 Oldbury Road,Tewkesbury,Gloucestershire,,Double D's Snooker And Pool Club,Pub/bar/nightclub,7843,20,,34076,5,,51.99401200000000,10/00087/COMM,129,ehenquiries@tewkesbury.gov.uk,Tewkesbury,http://www.tewkesbury.gov.uk,-2.15594900000000,GL20 5NA,2013-02-12,fhrs_1_en-GB,1,,FHRS,10
311927,,,,,Dove House Bed & Breakfast,Hotel/bed & breakfast/guest house,7842,10,,551944,5,,,13/00037/COMM,129,ehenquiries@tewkesbury.gov.uk,Tewkesbury,http://www.tewkesbury.gov.uk,,,2013-05-10,fhrs_4_en-GB,4,,FHRS,5
311928,Dundry Nurseries,Bamfurlong Lane,Staverton,Cheltenham,Doves Cafe,Restaurant/Cafe/Canteen,1,10,,615624,5,,51.89350600000000,13/00092/COMM,129,ehenquiries@tewkesbury.gov.uk,Tewkesbury,http://www.tewkesbury.gov.uk,-2.14717200000000,GL51 6SL,2013-11-14,fhrs_4_en-GB,4,,FHRS,5
311929,,,,,Dream Bakes,Other catering premises,7841,10,,576629,5,,,13/00053/COMM,129,ehenquiries@tewkesbury.gov.uk,Tewkesbury,http://www.tewkesbury.gov.uk,,,2013-08-01,fhrs_4_en-GB,4,,FHRS,5
311930,Dairy Lane,Dumbleton,Evesham,Gloucestershire,Dumbleton Cricket Club,Other catering premises,7841,10,,58579,5,,52.02173300000000,13004/1019/2/000,129,ehenquiries@tewkesbury.gov.uk,Tewkesbury,http://www.tewkesbury.gov.uk,-1.97790300000000,WR11 7TP,2011-08-25,fhrs_4_en-GB,4,,FHRS,5
311931,Dairy Lane,Dumbleton,Evesham,Gloucestershire,Dumbleton Hall Hotel,Other catering premises,7841,5,,58685,5,,52.01797500000000,13012/1003/2/000,129,ehenquiries@tewkesbury.gov.uk,Tewkesbury,http://www.tewkesbury.gov.uk,-1.97758400000000,WR11 7TS,2013-12-18,fhrs_4_en-GB,4,,FHRS,10
311932,Dumbleton Village Hall,Dairy Lane,Dumbleton,Evesham,Dumbleton Nursery School,Other catering premises,7841,5,,29497,5,,52.02173300000000,09/00086/COMM,129,ehenquiries@tewkesbury.gov.uk,Tewkesbury,http://www.tewkesbury.gov.uk,-1.97790300000000,WR11 7TP,2014-08-22,fhrs_5_en-GB,5,,FHRS,5
311933,Main Street,Dumbleton,Broadway,Worcestershire,Dumbleton Village Club,Other catering premises,7841,10,,58630,5,,52.02405200000000,13008/1025/2/000,129,ehenquiries@tewkesbury.gov.uk,Tewkesbury,http://www.tewkesbury.gov.uk,-1.97584700000000,WR11 7TH,2012-07-24,fhrs_4_en-GB,4,,FHRS,5
311934,Dairy Lane,Dumbleton,Evesham,Gloucestershire,Dumbleton Village Hall,Other catering premises,7841,0,,58580,5,,52.09716900000000,13004/1020/2/000,129,ehenquiries@tewkesbury.gov.uk,Tewkesbury,http://www.tewkesbury.gov.uk,-1.91678200000000,WR11 6TP,2009-01-06,fhrs_5_en-GB,5,,FHRS,5
311935,21 Barton Street,Tewkesbury,Gloucestershire,,Eastern Eye Takeaway,Other catering premises,7841,5,,103773,10,,51.99298900000000,35012/0021/0/000,129,ehenquiries@tewkesbury.gov.uk,Tewkesbury,http://www.tewkesbury.gov.uk,-2.15444500000000,GL20 5PR,2013-03-27,fhrs_4_en-GB,4,,FHRS,5
311936,144 - 145 High Street,Tewkesbury,Gloucestershire,,Edinburgh Woollen Mill,Retailers - other,4613,,,102489,,,51.99345300000000,34009/0144/2/000,129,ehenquiries@tewkesbury.gov.uk,Tewkesbury,http://www.tewkesbury.gov.uk,-2.15712700000000,GL20 5JR,2009-10-21,fhrs_exempt_en-GB,Exempt,,FHRS,
311937,Castlehill Primary School,Abbotswood Road,Brockworth,Gloucester,Edwards & Ward,School/college/university,7845,5,,29205,10,,51.83309300000000,09/00061/COMM,129,ehenquiries@tewkesbury.gov.uk,Tewkesbury,http://www.tewkesbury.gov.uk,-2.28177800000000,GL2 4NP,2014-06-04,fhrs_4_en-GB,4,,FHRS,5
311938,Queen Margaret County Primary Schoo,York Road,Tewkesbury,Gloucestershire,Edwards And Ward,School/college/university,7845,5,,706958,5,,52.01789200000000,14/00008/COMM,129,ehenquiries@tewkesbury.gov.uk,Tewkesbury,http://www.tewkesbury.gov.uk,-2.09726400000000,GL20 8HU,2014-01-23,fhrs_5_en-GB,5,,FHRS,5
311939,Ashchurch Primary School,Ashchurch Road,Tewkesbury,Gloucestershire,Edwards And Ward Ltd,School/college/university,7845,5,,636591,0,,,14/00007/COMM,129,ehenquiries@tewkesbury.gov.uk,Tewkesbury,http://www.tewkesbury.gov.uk,,GL2O 8LA,2014-02-03,fhrs_4_en-GB,4,,FHRS,10
311940,Carrant Brook Junior School,Hardwick Bank Road,Northway,Tewkesbury,Edwards And Ward Ltd,School/college/university,7845,0,,633497,0,,52.00859800000000,14/00005/COMM,129,ehenquiries@tewkesbury.gov.uk,Tewkesbury,http://www.tewkesbury.gov.uk,-2.11443500000000,GL20 8RP,2014-01-23,fhrs_5_en-GB,5,,FHRS,0
311941,Grangefield School,Voxwell Lane,Bishops Cleeve,Cheltenham,Edwards And Ward Ltd,School/college/university,7845,5,,666970,5,,51.94195900000000,14/00010/COMM,129,ehenquiries@tewkesbury.gov.uk,Tewkesbury,http://www.tewkesbury.gov.uk,-2.06652000000000,GL52 8GL,2014-04-29,fhrs_4_en-GB,4,,FHRS,10
311942,Mitton Manor Primary School,Carrant Road,Mitton,Tewkesbury,Edwards And Ward Ltd,School/college/university,7845,5,,683180,5,,,14/00006/COMM,129,ehenquiries@tewkesbury.gov.uk,Tewkesbury,http://www.tewkesbury.gov.uk,,,2014-07-04,fhrs_5_en-GB,5,,FHRS,5
311943,Toddington Railway Station,Stow Road,Toddington,Cheltenham,Elegant Excursions,Other catering premises,7841,0,,333344,5,,51.98910140991210,29016/1006/3/001,129,ehenquiries@tewkesbury.gov.uk,Tewkesbury,http://www.tewkesbury.gov.uk,-1.92813003063202,,2014-03-20,fhrs_5_en-GB,5,,FHRS,5
311944,Marina Court,Trafalgar Road,Tewkesbury,Gloucestershire,Elior,Other catering premises,7841,5,,24660,5,,52.00091400000000,08/00001/COMM,129,ehenquiries@tewkesbury.gov.uk,Tewkesbury,http://www.tewkesbury.gov.uk,-2.15107900000000,GL20 5AY,2014-05-08,fhrs_5_en-GB,5,,FHRS,5
311945,Tesco,Gloucester Business Park,Brockworth,Gloucester,Elior,Other catering premises,7841,5,,21304,5,,51.84649100000000,07/00007/COMM,129,ehenquiries@tewkesbury.gov.uk,Tewkesbury,http://www.tewkesbury.gov.uk,-2.17000600000000,,2013-11-21,fhrs_5_en-GB,5,,FHRS,5
311946,Masonic Hall,Trinity Walk,Tewkesbury,Gloucestershire,Elite Fine Dining,Other catering premises,7841,5,,45563,5,,51.99414000000000,11/00014/COMM,129,ehenquiries@tewkesbury.gov.uk,Tewkesbury,http://www.tewkesbury.gov.uk,-2.15466800000000,GL20 5NP,2012-12-21,fhrs_5_en-GB,5,,FHRS,5
311947,Southam Road,Southam,Cheltenham,Gloucestershire,"Ellenborough Park, Shetland Hotels Limited",Hotel/bed & breakfast/guest house,7842,5,,45397,5,,51.92750500000000,11/00005/COMM,129,ehenquiries@tewkesbury.gov.uk,Tewkesbury,http://www.tewkesbury.gov.uk,-2.04039500000000,GL52 3NH,2014-08-14,fhrs_4_en-GB,4,,FHRS,10
311948,,,,,Elmbridge Childminding,Other catering premises,7841,5,,735190,5,,,14/00117/COMM,129,ehenquiries@tewkesbury.gov.uk,Tewkesbury,http://www.tewkesbury.gov.uk,,,2015-01-08,fhrs_5_en-GB,5,,FHRS,5
311949,Brewsters And Travel Inn,Ashchurch Road,Tewkesbury,Gloucestershire,Elmbury Lodge Brewers Fayre,Pub/bar/nightclub,7843,10,,9678,5,,51.99629700000000,04/00046/COMM,129,ehenquiries@tewkesbury.gov.uk,Tewkesbury,http://www.tewkesbury.gov.uk,-2.13549300000000,,2014-09-30,fhrs_3_en-GB,3,,FHRS,10
311950,Bishops Cleeve Primary School,Tobyfield Road,Bishops Cleeve,Cheltenham,Elmtree Playgroup,Other catering premises,7841,10,,333327,5,,51.94665600000000,09/00041/COMM,129,ehenquiries@tewkesbury.gov.uk,Tewkesbury,http://www.tewkesbury.gov.uk,-2.05950000000000,GL52 8NN,2011-11-24,fhrs_4_en-GB,4,,FHRS,5
311951,9 Gretton Road,Winchcombe,Cheltenham,Gloucestershire,Encounter Church,Other catering premises,7841,10,,9594,10,,51.95615200000000,04/00032/COMM,129,ehenquiries@tewkesbury.gov.uk,Tewkesbury,http://www.tewkesbury.gov.uk,-1.96723900000000,GL54 5EE,2013-11-05,fhrs_3_en-GB,3,,FHRS,5
311952,Messier Dowty Ltd,Cheltenham Road East,Churchdown,Gloucester,Eurest Services At Messier-Dowty,Other catering premises,7841,5,,123597,5,,51.89750700000000,52003/1009/2/001,129,ehenquiries@tewkesbury.gov.uk,Tewkesbury,http://www.tewkesbury.gov.uk,-2.17382400000000,GL2 9QH,2014-03-20,fhrs_5_en-GB,5,,FHRS,5
311953,,,,,Express Kebab,Mobile caterer,7846,10,,587076,15,,,13/00079/COMM,129,ehenquiries@tewkesbury.gov.uk,Tewkesbury,http://www.tewkesbury.gov.uk,,,2013-09-19,fhrs_2_en-GB,2,,FHRS,10
311954,Alderton Garage,Stow Road,Alderton,Cheltenham,F.H. Greening & Son,Retailers - other,4613,5,,4270,5,,51.99331500000000,01014/1006/2/000,129,ehenquiries@tewkesbury.gov.uk,Tewkesbury,http://www.tewkesbury.gov.uk,-2.00547200000000,GL20 8NH,2009-01-27,fhrs_5_en-GB,5,,FHRS,5
311955,,,,,Family Barbecue,Mobile caterer,7846,5,,644283,5,,,14/00027/COMM,129,ehenquiries@tewkesbury.gov.uk,Tewkesbury,http://www.tewkesbury.gov.uk,,,2014-04-01,fhrs_5_en-GB,5,,FHRS,5
311956,Pamington Court Farm,Pamington Lane,Pamington,Tewkesbury,Farm House Bed & Breakfast,Hotel/bed & breakfast/guest house,7842,5,,17764,5,,,06/00029/COMM,129,ehenquiries@tewkesbury.gov.uk,Tewkesbury,http://www.tewkesbury.gov.uk,,,2010-05-10,fhrs_5_en-GB,5,,FHRS,5
311957,Southend Farm,Gloucester Road,Tredington,Tewkesbury,Farm Shop,Retailers - other,4613,5,,106537,5,,51.96690400000000,37049/1003/2/000,129,ehenquiries@tewkesbury.gov.uk,Tewkesbury,http://www.tewkesbury.gov.uk,-2.14981400000000,GL20 7BX,2013-03-05,fhrs_5_en-GB,5,,FHRS,5
311958,Down Hatherley Lane,Down Hatherley,Gloucester,Gloucestershire,Fern Court,Other catering premises,7841,5,,126149,5,,51.90190900000000,55004/1026/2/000,129,ehenquiries@tewkesbury.gov.uk,Tewkesbury,http://www.tewkesbury.gov.uk,-2.19311300000000,GL2 9QB,2013-11-18,fhrs_5_en-GB,5,,FHRS,5
311959,12 North Street,Winchcombe,Cheltenham,Gloucestershire,Food Fanatics,Restaurant/Cafe/Canteen,1,5,,45909,5,,51.95402100000000,11/00035/COMM,129,ehenquiries@tewkesbury.gov.uk,Tewkesbury,http://www.tewkesbury.gov.uk,-1.96437400000000,GL54 5LH,2014-08-19,fhrs_5_en-GB,5,,FHRS,5
311960,Pamington Court Farm,Pamington,Tewkesbury,Glos,Food Is Art,Retailers - other,4613,0,,14775,5,,51.99658000000000,05/00051/COMM,129,ehenquiries@tewkesbury.gov.uk,Tewkesbury,http://www.tewkesbury.gov.uk,-2.08400000000000,,2012-10-17,fhrs_5_en-GB,5,,FHRS,5
311961,Main Road,Gloucester,Gloucestershire,,Forest Way,Other catering premises,7841,0,,131488,0,,51.85921800000000,63005/1018/2/000,129,ehenquiries@tewkesbury.gov.uk,Tewkesbury,http://www.tewkesbury.gov.uk,-2.30462300000000,GL2 8JG,2013-03-05,fhrs_5_en-GB,5,,FHRS,5
311962,Forthampton And District Working Me,Church Lane,Forthampton,Gloucester,Forthampton Club,Other catering premises,7841,5,,126945,5,,51.99259300000000,56003/1009/2/000,129,ehenquiries@tewkesbury.gov.uk,Tewkesbury,http://www.tewkesbury.gov.uk,-2.20438000000000,,2010-06-16,fhrs_4_en-GB,4,,FHRS,10
311963,Stanway House,Broadway Road,Stanway,Cheltenham,Fountain Tea Rooms,Other catering premises,7841,10,,96185,5,,51.98966900000000,29028/1003/2/000,129,ehenquiries@tewkesbury.gov.uk,Tewkesbury,http://www.tewkesbury.gov.uk,-1.91237200000000,GL54 5PQ,2011-08-16,fhrs_4_en-GB,4,,FHRS,5
311964,12 Church Road,Alderton,Tewkesbury,Gloucestershire,Gantier Bed & Breakfast,Hotel/bed & breakfast/guest house,7842,0,,17719,5,,51.99697500000000,06/00024/COMM,129,ehenquiries@tewkesbury.gov.uk,Tewkesbury,http://www.tewkesbury.gov.uk,-1.99786900000000,GL20 8NR,2013-03-21,fhrs_5_en-GB,5,,FHRS,0
311965,,,,,Gingerbread Joy,Manufacturers/packers,7839,10,,428802,5,,,12/00064/COMM,129,ehenquiries@tewkesbury.gov.uk,Tewkesbury,http://www.tewkesbury.gov.uk,,,2012-07-23,fhrs_4_en-GB,4,,FHRS,5
311966,Horizons,Cheltenham Road East,Churchdown,Gloucester,GL3 Community Hub,Other catering premises,7841,5,,123599,5,,51.88662200000000,52003/1012/2/000,129,ehenquiries@tewkesbury.gov.uk,Tewkesbury,http://www.tewkesbury.gov.uk,-2.18931400000000,GL3 1HX,2013-08-20,fhrs_5_en-GB,5,,FHRS,5
311967,8 Columbine Road,Walton Cardiff,Tewkesbury,Gloucestershire,Glory Garden Cantonese,Other catering premises,7841,10,,9491,5,,51.98001200000000,04/00020/COMM,129,ehenquiries@tewkesbury.gov.uk,Tewkesbury,http://www.tewkesbury.gov.uk,-2.14158800000000,,2014-05-29,fhrs_4_en-GB,4,,FHRS,5
311968,Gloucestershire Airport,Staverton,Gloucester,Gloucestershire,Gloucestershire Airport Ltd,Restaurant/Cafe/Canteen,1,,,194334,,,51.89292526245117,11/00093/COMM,129,ehenquiries@tewkesbury.gov.uk,Tewkesbury,http://www.tewkesbury.gov.uk,-2.15780687332153,GL51 6SR,2011-12-08,fhrs_exempt_en-GB,Exempt,,FHRS,
311969,Golden City Take Away,Church Road,Churchdown,Gloucester,Golden City,Other catering premises,7841,10,,125531,10,,51.87651100000000,54011/1018/2/000,129,ehenquiries@tewkesbury.gov.uk,Tewkesbury,http://www.tewkesbury.gov.uk,-2.16849800000000,,2014-01-28,fhrs_3_en-GB,3,,FHRS,10
311970,,,,,Good Egg Cakes,Manufacturers/packers,7839,5,,558558,5,,,13/00033/COMM,129,ehenquiries@tewkesbury.gov.uk,Tewkesbury,http://www.tewkesbury.gov.uk,,,2013-06-11,fhrs_5_en-GB,5,,FHRS,5
311971,Evesham Road,Bishops Cleeve,Cheltenham,Gloucestershire,Gotherington Cross Service Station,Retailers - other,4613,5,,70826,5,,51.94247900000000,16004/1007/2/000,129,ehenquiries@tewkesbury.gov.uk,Tewkesbury,http://www.tewkesbury.gov.uk,-2.05552800000000,GL52 4SA,2010-04-12,fhrs_5_en-GB,5,,FHRS,0
311972,Gretton Road,Gotherington,Cheltenham,Gloucestershire,Gotherington Nurseries,Retailers - other,4613,0,,70831,0,,51.96798200000000,16008/1004/2/000,129,ehenquiries@tewkesbury.gov.uk,Tewkesbury,http://www.tewkesbury.gov.uk,-2.03868500000000,GL52 9QY,2012-01-31,fhrs_5_en-GB,5,,FHRS,0
311973,Malleson Road,Gotherington,Cheltenham,Gloucestershire,Gotherington Village Hall,Other catering premises,7841,5,,70851,5,,51.96561200000000,16011/1081/2/000,129,ehenquiries@tewkesbury.gov.uk,Tewkesbury,http://www.tewkesbury.gov.uk,-2.05962700000000,,2011-12-06,fhrs_4_en-GB,4,,FHRS,10
311974,7 Cleeve Road,Gotherington,Cheltenham,Gloucestershire,Gotherington Village Stores,Retailers - other,4613,5,,70824,5,,51.94247900000000,16003/0007/0/000,129,ehenquiries@tewkesbury.gov.uk,Tewkesbury,http://www.tewkesbury.gov.uk,-2.05552800000000,GL52 4EW,2013-11-05,fhrs_5_en-GB,5,,FHRS,5
311975,Greatfield Farm,Shurdington Road,Shurdington,Cheltenham,Greatfield Farm Kitchen/Shop,Retailers - other,4613,10,,134595,5,,51.90010600000000,68081/1001/2/000,129,ehenquiries@tewkesbury.gov.uk,Tewkesbury,http://www.tewkesbury.gov.uk,-2.12861000000000,GL51 5QX,2013-08-28,fhrs_4_en-GB,4,,FHRS,5
311976,26 Green Gardens,Brockworth,Gloucester,Gloucestershire,Green Garden Food And News,Retailers - supermarkets/hypermarkets,7840,10,,34274,5,,51.84128100000000,10/00104/COMM,129,ehenquiries@tewkesbury.gov.uk,Tewkesbury,http://www.tewkesbury.gov.uk,-2.15916400000000,GL3 4NJ,2013-11-21,fhrs_4_en-GB,4,,FHRS,5
311977,Deerhurst Walton,Deerhurst,Gloucester,Gloucestershire,Green Orchard,Hotel/bed & breakfast/guest house,7842,0,,29472,5,,51.95228700000000,09/00084/COMM,129,ehenquiries@tewkesbury.gov.uk,Tewkesbury,http://www.tewkesbury.gov.uk,-2.16181300000000,GL19 4BS,2012-08-14,fhrs_5_en-GB,5,,FHRS,5
311978,Unit 5e,Tewkesbury Industrial Estate,Delta Drive,Tewkesbury,Greggs,Manufacturers/packers,7839,5,,441809,5,,52.00049100000000,12/00072/COMM,129,ehenquiries@tewkesbury.gov.uk,Tewkesbury,http://www.tewkesbury.gov.uk,-2.12943200000000,GL20 8HB,2014-04-16,fhrs_5_en-GB,5,,FHRS,5
311979,11 High Street,Tewkesbury,Gloucestershire,,Greggs PLC,Takeaway/sandwich shop,7844,5,,621500,5,,51.99368600000000,13/00105/COMM,129,ehenquiries@tewkesbury.gov.uk,Tewkesbury,http://www.tewkesbury.gov.uk,-2.15747700000000,GL20 5AL,2013-12-09,fhrs_5_en-GB,5,,FHRS,5
311980,A4,Whittle Way,Gloucester Business Park,Brockworth,Greggs Plc,Manufacturers/packers,7839,5,,46845,5,,51.84701700000000,11/00089/COMM,129,ehenquiries@tewkesbury.gov.uk,Tewkesbury,http://www.tewkesbury.gov.uk,-2.17152400000000,GL3 4BJ,2013-07-01,fhrs_5_en-GB,5,,FHRS,5
311981,Gretton Road,Gretton,Cheltenham,Gloucestershire,Gretton County Primary School,School/college/university,7845,5,,29290,5,,51.96167100000000,09/00069/COMM,129,ehenquiries@tewkesbury.gov.uk,Tewkesbury,http://www.tewkesbury.gov.uk,-1.96936900000000,,2011-10-13,fhrs_5_en-GB,5,,FHRS,5
311982,Winchcombe Road,Gretton,Cheltenham,Gloucestershire,Gretton Village Hall,Other catering premises,7841,10,,114024,5,,51.90180300000000,43012/1066/2/000,129,ehenquiries@tewkesbury.gov.uk,Tewkesbury,http://www.tewkesbury.gov.uk,-2.07158800000000,,2005-10-17,fhrs_3_en-GB,3,,FHRS,10
311983,White Hart Inn,The Rudge,Maisemore,Gloucester,Gurkha Pub And Restaurant,Other catering premises,7841,5,,590995,5,,51.89039700000000,13/00081/COMM,129,ehenquiries@tewkesbury.gov.uk,Tewkesbury,http://www.tewkesbury.gov.uk,-2.26833300000000,GL2 8HY,2013-09-30,fhrs_5_en-GB,5,,FHRS,5
311984,Hailes,Cheltenham,Gloucestershire,,Hailes Abbey,Other catering premises,7841,0,,96146,5,,51.96945953369140,29007/1011/2/000,129,ehenquiries@tewkesbury.gov.uk,Tewkesbury,http://www.tewkesbury.gov.uk,-1.93027162551880,GL54 5PB,2011-10-25,fhrs_5_en-GB,5,,FHRS,0
311985,45 High Street,Tewkesbury,,,Halfords Traditional Butchers,Retailers - other,4613,5,,21508,10,,51.99553100000000,07/00031/COMM,129,ehenquiries@tewkesbury.gov.uk,Tewkesbury,http://www.tewkesbury.gov.uk,-2.15649300000000,GL20 5BH,2014-02-04,fhrs_4_en-GB,4,,FHRS,5
311986,Cheltenham Road East,Churchdown,Gloucester,Gloucestershire,Hare And Hounds,Pub/bar/nightclub,7843,5,,123598,10,,51.88712000000000,52003/1011/2/000,129,ehenquiries@tewkesbury.gov.uk,Tewkesbury,http://www.tewkesbury.gov.uk,-2.18734000000000,GL3 1AA,2014-02-03,fhrs_4_en-GB,4,,FHRS,5
311987,The Uplands,Main Road,Gloucester,Gloucestershire,Harts Traditional Turkeys,Manufacturers/packers,7839,0,,131490,0,,51.85302700000000,63005/1075/2/000,129,ehenquiries@tewkesbury.gov.uk,Tewkesbury,http://www.tewkesbury.gov.uk,-2.32001400000000,GL2 8JH,2012-12-20,fhrs_5_en-GB,5,,FHRS,0
311988,Main Road,Shurdington,Cheltenham,Gloucestershire,Hatherley And Reddings Cricket Club,Other catering premises,7841,5,,86506,5,,51.88653200000000,22019/1104/2/000,129,ehenquiries@tewkesbury.gov.uk,Tewkesbury,http://www.tewkesbury.gov.uk,-2.08239000000000,,2012-07-11,fhrs_4_en-GB,4,,FHRS,10
311989,Down Hatherley Lane,Down Hatherley,Gloucester,Gloucestershire,Hatherley Manor Hotel,Other catering premises,7841,10,,126148,5,,51.90218900000000,55004/1008/2/000,129,ehenquiries@tewkesbury.gov.uk,Tewkesbury,http://www.tewkesbury.gov.uk,-2.20847700000000,GL2 9QA,2014-01-27,fhrs_4_en-GB,4,,FHRS,5
311990,Haw Bridge,Tirley,Gloucester,Gloucestershire,Haw Bridge Inn,Pub/bar/nightclub,7843,5,,133977,10,,51.94935500000000,67006/1003/2/000,129,ehenquiries@tewkesbury.gov.uk,Tewkesbury,http://www.tewkesbury.gov.uk,-2.22736400000000,GL19 4HJ,2013-06-10,fhrs_4_en-GB,4,,FHRS,5
311991,Old Gloucester Road,Boddington,Cheltenham,Gloucestershire,Hayden Hill Fruit Farm,Retailers - other,4613,5,,38887,5,,51.91548900000000,10007/1010/2/000,129,ehenquiries@tewkesbury.gov.uk,Tewkesbury,http://www.tewkesbury.gov.uk,-2.13173100000000,GL51 0SW,2012-08-30,fhrs_5_en-GB,5,,FHRS,5
311992,Hailes,Cheltenham,Gloucestershire,,Hayles Fruit Farm,Other catering premises,7841,10,,96145,15,,51.96945953369140,29007/1004/2/000,129,ehenquiries@tewkesbury.gov.uk,Tewkesbury,http://www.tewkesbury.gov.uk,-1.93027162551880,GL54 5PB,2014-07-25,fhrs_2_en-GB,2,,FHRS,10
311993,Unit 10,Bamel Way,Brockworth,Gloucester,Hedley's Catering Limited,Other catering premises,7841,5,,24973,10,,51.84112800000000,08/00031/COMM,129,ehenquiries@tewkesbury.gov.uk,Tewkesbury,http://www.tewkesbury.gov.uk,-2.16518700000000,GL3 4BH,2013-08-19,fhrs_4_en-GB,4,,FHRS,5
311994,,,,,Helping Hands Catering Services,Other catering premises,7841,5,,487083,5,,,09/00021/COMM,129,ehenquiries@tewkesbury.gov.uk,Tewkesbury,http://www.tewkesbury.gov.uk,,,2014-08-11,fhrs_5_en-GB,5,,FHRS,5
311995,,,,,Helping Hands Catering Services,Other catering premises,7841,5,,28748,5,,,09/00023/COMM,129,ehenquiries@tewkesbury.gov.uk,Tewkesbury,http://www.tewkesbury.gov.uk,,,2014-08-11,fhrs_5_en-GB,5,,FHRS,5
311996,,,,,Hey Pesto,Other catering premises,7841,5,,7426,5,,,03/00020/COMM,129,ehenquiries@tewkesbury.gov.uk,Tewkesbury,http://www.tewkesbury.gov.uk,,,2013-07-08,fhrs_5_en-GB,5,,FHRS,5
311997,Highnam Cricket Club,Newent Road,Highnam,Gloucester,Highnam Court Cricket Club,Other catering premises,7841,10,,46535,10,,51.87898500000000,11/00071/COMM,129,ehenquiries@tewkesbury.gov.uk,Tewkesbury,http://www.tewkesbury.gov.uk,-2.29938200000000,GL2 8DG,2011-10-13,fhrs_3_en-GB,3,,FHRS,5
311998,Highnam Day Nursery,Lassington Lane,Highnam,Gloucester,Highnam Day Nursery Ltd,Other catering premises,7841,5,,9443,0,,51.88422700000000,04/00013/COMM,129,ehenquiries@tewkesbury.gov.uk,Tewkesbury,http://www.tewkesbury.gov.uk,-2.29916900000000,GL2 8DH,2014-03-31,fhrs_5_en-GB,5,,FHRS,5
311999,Newent Road,Highnam,Gloucester,Gloucestershire,Highnam Parish Room,Other catering premises,7841,5,,128182,0,,51.87134300000000,58004/1016/2/000,129,ehenquiries@tewkesbury.gov.uk,Tewkesbury,http://www.tewkesbury.gov.uk,-2.29833600000000,,2010-04-09,fhrs_5_en-GB,5,,FHRS,5
312000,2 Maidenhall,Highnam,Gloucester,Gloucestershire,Highnam Post Office,Retailers - other,4613,10,,128179,5,,51.87990800000000,58003/0002/0/000,129,ehenquiries@tewkesbury.gov.uk,Tewkesbury,http://www.tewkesbury.gov.uk,-2.29686000000000,GL2 8DL,2014-10-14,fhrs_4_en-GB,4,,FHRS,5
312001,Hillview,Fiddington,Tewkesbury,Gloucestershire,Hillview B & B,Hotel/bed & breakfast/guest house,7842,5,,17750,5,,51.97870100000000,06/00027/COMM,129,ehenquiries@tewkesbury.gov.uk,Tewkesbury,http://www.tewkesbury.gov.uk,-2.11715400000000,GL20 7BJ,2010-04-14,fhrs_5_en-GB,5,,FHRS,5
312002,Puckrup,Twyning,Tewkesbury,Gloucestershire,Hilton Puckrup Hall,Other catering premises,7841,5,,110336,5,,51.76417160034180,40030/1006/2/000,129,ehenquiries@tewkesbury.gov.uk,Tewkesbury,http://www.tewkesbury.gov.uk,-2.16174006462097,GL20 6EL,2013-09-05,fhrs_4_en-GB,4,,FHRS,10
312003,14 Court Road,Brockworth,Gloucester,Gloucestershire,Hing Tai,Other catering premises,7841,5,,117766,10,,51.84711600000000,47008/0014/0/000,129,ehenquiries@tewkesbury.gov.uk,Tewkesbury,http://www.tewkesbury.gov.uk,-2.15859000000000,GL3 4EP,2014-01-27,fhrs_4_en-GB,4,,FHRS,5
312004,12 Barton Street,Tewkesbury,Gloucestershire,,Hing Wah,Other catering premises,7841,10,,103772,10,,51.99266106000000,35012/0012/0/000,129,ehenquiries@tewkesbury.gov.uk,Tewkesbury,http://www.tewkesbury.gov.uk,-2.15609908000000,,2014-03-04,fhrs_3_en-GB,3,,FHRS,5
312005,146 High Street,Tewkesbury,Gloucestershire,,Holland And Barrett,Retailers - other,4613,5,,34164,5,,51.99288600000000,10/00095/COMM,129,ehenquiries@tewkesbury.gov.uk,Tewkesbury,http://www.tewkesbury.gov.uk,-2.15738700000000,GL20 5JP,2013-11-12,fhrs_5_en-GB,5,,FHRS,5
312006,Oldbury Road,Tewkesbury,Glos.,,Holy Trinity Church,Other catering premises,7841,5,,102514,5,,51.99454100000000,34018/1010/2/000,129,ehenquiries@tewkesbury.gov.uk,Tewkesbury,http://www.tewkesbury.gov.uk,-2.15546100000000,,2011-11-15,fhrs_4_en-GB,4,,FHRS,10
312007,Oldbury Road,Tewkesbury,Gloucestershire,,Holy Trinity Church Hall,Other catering premises,7841,5,,102513,5,,51.99454100000000,34018/1009/2/000,129,ehenquiries@tewkesbury.gov.uk,Tewkesbury,http://www.tewkesbury.gov.uk,-2.15546100000000,,2011-11-15,fhrs_4_en-GB,4,,FHRS,10
312008,Home Farm,Brockhampton Lane,Swindon Village,Cheltenham,Home Farm Equestrian Centre,Other catering premises,7841,0,,21354,0,,51.93281900000000,07/00012/COMM,129,ehenquiries@tewkesbury.gov.uk,Tewkesbury,http://www.tewkesbury.gov.uk,-2.08889000000000,GL51 9RS,2012-01-17,fhrs_5_en-GB,5,,FHRS,5
312009,,,,,Home Flair Catering,Other catering premises,7841,5,,27421,5,,,08019/1008/2/000,129,ehenquiries@tewkesbury.gov.uk,Tewkesbury,http://www.tewkesbury.gov.uk,,,2014-03-20,fhrs_5_en-GB,5,,FHRS,5
312010,Homelands,Butts Lane,Woodmancote,Cheltenham,Homelands B&B,Hotel/bed & breakfast/guest house,7842,5,,33293,5,,51.94926200000000,10/00036/COMM,129,ehenquiries@tewkesbury.gov.uk,Tewkesbury,http://www.tewkesbury.gov.uk,-2.04379000000000,GL52 9QH,2010-04-22,fhrs_5_en-GB,5,,FHRS,0
312011,39 High Street,Tewkesbury,Gloucestershire,,Honest Home Care,Retailers - other,4613,10,,428801,5,,51.99497300000000,12/00060/COMM,129,ehenquiries@tewkesbury.gov.uk,Tewkesbury,http://www.tewkesbury.gov.uk,-2.15703000000000,GL20 5BB,2012-05-25,fhrs_3_en-GB,3,,FHRS,10
312012,Hoo Lane,Deerhurst,Tewkesbury,Gloucestershire,Hoo Farm B And B,Hotel/bed & breakfast/guest house,7842,5,,53322,5,,51.96640600000000,12011/1001/2/000,129,ehenquiries@tewkesbury.gov.uk,Tewkesbury,http://www.tewkesbury.gov.uk,-2.15956400000000,GL20 7DD,2011-06-17,fhrs_5_en-GB,5,,FHRS,0
312013,Gloucester Road,Staverton,Cheltenham,Gloucestershire,Hope Orchard,Hotel/bed & breakfast/guest house,7842,10,,97129,5,,51.90036200000000,30006/1011/2/000,129,ehenquiries@tewkesbury.gov.uk,Tewkesbury,http://www.tewkesbury.gov.uk,-2.15741100000000,GL51 0TF,2010-08-10,fhrs_4_en-GB,4,,FHRS,0
312014,,,,,Hot And Cold Food Stop,Mobile caterer,7846,5,,615625,5,,,13/00108/COMM,129,ehenquiries@tewkesbury.gov.uk,Tewkesbury,http://www.tewkesbury.gov.uk,,,2013-11-15,fhrs_5_en-GB,5,,FHRS,5
312015,The House In The Tree,Old Gloucester Road,Boddington,Cheltenham,House In The Tree,Pub/bar/nightclub,7843,5,,709378,5,,51.91548900000000,12/00116/COMM,129,ehenquiries@tewkesbury.gov.uk,Tewkesbury,http://www.tewkesbury.gov.uk,-2.13173100000000,GL51 0SW,2012-12-11,fhrs_4_en-GB,4,,FHRS,10
312016,4 Barton Street,Tewkesbury,Gloucestershire,,HQ Polish Delicatessen,Retailers - other,4613,10,,565255,10,,51.99270700000000,13/00059/COMM,129,ehenquiries@tewkesbury.gov.uk,Tewkesbury,http://www.tewkesbury.gov.uk,-2.15667300000000,GL20 5PP,2013-06-21,fhrs_3_en-GB,3,,FHRS,5
312017,Crifty Craft Lane,Churchdown,Gloucester,Gloucestershire,Hunters Green,Other catering premises,7841,5,,125538,10,,51.87358900000000,54014/0012/0/000,129,ehenquiries@tewkesbury.gov.uk,Tewkesbury,http://www.tewkesbury.gov.uk,-2.16931600000000,GL3 2LH,2013-09-03,fhrs_4_en-GB,4,,FHRS,5
312018,8 Kestrel Parade,Innsworth,Gloucester,Gloucestershire,Ice Cream,Retailers - other,4613,0,,528255,0,,51.88622200000000,13/00017/COMM,129,ehenquiries@tewkesbury.gov.uk,Tewkesbury,http://www.tewkesbury.gov.uk,-2.20776400000000,GL3 1BJ,2013-03-21,fhrs_5_en-GB,5,,FHRS,0
312019,,,,,Iced And Delicious,Mobile caterer,7846,5,,457938,5,,,12/00095/COMM,129,ehenquiries@tewkesbury.gov.uk,Tewkesbury,http://www.tewkesbury.gov.uk,,,2012-10-23,fhrs_5_en-GB,5,,FHRS,5
312020,Imjin Barracks,Innsworth Lane,Innsworth,Gloucester,Imjin Barracks - 4 Kitchens On Site,Other catering premises,7841,5,,33328,0,,51.89017700000000,10/00038/COMM,129,ehenquiries@tewkesbury.gov.uk,Tewkesbury,http://www.tewkesbury.gov.uk,-2.19826500000000,GL3 1HW,2014-02-28,fhrs_5_en-GB,5,,FHRS,5
312021,Innsworth Community Hall,Rookery Road,Innsworth,Gloucester,Innsworth Community Hall Co Ltd,Other catering premises,7841,5,,21448,5,,,07/00024/COMM,129,ehenquiries@tewkesbury.gov.uk,Tewkesbury,http://www.tewkesbury.gov.uk,,,2014-05-02,fhrs_5_en-GB,5,,FHRS,5
312022,1-3 Kestrel Parade,Innsworth,Gloucester,Gloucestershire,Innsworth Express,Retailers - other,4613,10,,24907,10,,51.88622200000000,08/00025/COMM,129,ehenquiries@tewkesbury.gov.uk,Tewkesbury,http://www.tewkesbury.gov.uk,-2.20776400000000,GL3 1BJ,2014-02-03,fhrs_3_en-GB,3,,FHRS,10
312023,Luke Lane,Innsworth,Gloucester,Gloucestershire,Innsworth Infant School,School/college/university,7845,5,,666978,5,,51.88524700000000,14/00047/COMM,129,ehenquiries@tewkesbury.gov.uk,Tewkesbury,http://www.tewkesbury.gov.uk,-2.19974000000000,GL3 1HJ,2014-05-02,fhrs_4_en-GB,4,,FHRS,10
312024,Innsworth County Primary School,Rookery Road,Innsworth,Gloucester,Innsworth Junior School,School/college/university,7845,5,,666974,5,,51.88567200000000,14/00038/COMM,129,ehenquiries@tewkesbury.gov.uk,Tewkesbury,http://www.tewkesbury.gov.uk,-2.20879300000000,GL3 1AX,2014-05-02,fhrs_4_en-GB,4,,FHRS,10
312025,12 - 13 Kestrel Parade,Innsworth,Gloucester,Gloucestershire,Innsworth Pizza,Other catering premises,7841,20,,29898,15,,51.88622200000000,09/00124/COMM,129,ehenquiries@tewkesbury.gov.uk,Tewkesbury,http://www.tewkesbury.gov.uk,-2.20776400000000,GL3 1BJ,2013-12-12,fhrs_1_en-GB,1,,FHRS,10
312026,Innsworth Pre School,Innsworth Infant School,Luke Lane,Innsworth,Innsworth Pre-School,Hospitals/Childcare/Caring Premises,5,10,,410595,5,,51.88524700000000,12/00063/COMM,129,ehenquiries@tewkesbury.gov.uk,Tewkesbury,http://www.tewkesbury.gov.uk,-2.19974000000000,GL3 1HJ,2012-07-04,fhrs_4_en-GB,4,,FHRS,5
312027,Du Pont,Ermin Street,Brockworth,Gloucester,Invista (UK) Ltd,Other catering premises,7841,5,,118658,5,,51.84628500000000,48002/1001/2/001,129,ehenquiries@tewkesbury.gov.uk,Tewkesbury,http://www.tewkesbury.gov.uk,-2.16054600000000,,2013-11-21,fhrs_5_en-GB,5,,FHRS,5
312028,Didbrook,Cheltenham,Gloucestershire,,Isbourne Valley School,School/college/university,7845,5,,530014,5,,51.98504200000000,13/00031/COMM,129,ehenquiries@tewkesbury.gov.uk,Tewkesbury,http://www.tewkesbury.gov.uk,-1.93166000000000,GL54 5PE,2013-03-21,fhrs_5_en-GB,5,,FHRS,5
312029,Stow Road,Toddington,Cheltenham,Gloucestershire,Isbourne Valley School,School/college/university,7845,5,,9837,5,,51.99072700000000,04/00072/COMM,129,ehenquiries@tewkesbury.gov.uk,Tewkesbury,http://www.tewkesbury.gov.uk,-1.93677800000000,GL54 5DU,2013-03-21,fhrs_5_en-GB,5,,FHRS,5
312030,4 Blacksmith Lane,Churchdown,Gloucester,Gloucestershire,J + M Stores,Retailers - other,4613,5,,125516,10,,51.87632258999999,54003/0004/0/000,129,ehenquiries@tewkesbury.gov.uk,Tewkesbury,http://www.tewkesbury.gov.uk,-2.16745052000000,,2014-08-05,fhrs_4_en-GB,4,,FHRS,5
312031,Royal Hop Pole,94 - 96 Church Street,Tewkesbury,Gloucestershire,J D Wetherspoon Plc,Other catering premises,7841,5,,103796,0,,51.99203000000000,35015/1020/2/000,129,ehenquiries@tewkesbury.gov.uk,Tewkesbury,http://www.tewkesbury.gov.uk,-2.15863600000000,GL20 5RT,2012-09-21,fhrs_5_en-GB,5,,FHRS,0
312032,Red House Farm,Copse Green Lane,Elmstone Hardwicke,Cheltenham,J M & R Powell,Farmers/growers,7838,5,,45412,0,,51.94440600000000,11/00006/COMM,129,ehenquiries@tewkesbury.gov.uk,Tewkesbury,http://www.tewkesbury.gov.uk,-2.14498200000000,GL51 9TB,2011-02-03,fhrs_5_en-GB,5,,FHRS,0
312033,,,,,JA Poole,Other catering premises,7841,5,,644278,10,,,13/00112/COMM,129,ehenquiries@tewkesbury.gov.uk,Tewkesbury,http://www.tewkesbury.gov.uk,,,2014-04-14,fhrs_4_en-GB,4,,FHRS,5
312034,3 Court Road,Brockworth,Gloucester,Gloucestershire,Janes Pantry,Manufacturers/packers,7839,5,,117764,5,,51.84671000000001,47008/0003/0/000,129,ehenquiries@tewkesbury.gov.uk,Tewkesbury,http://www.tewkesbury.gov.uk,-2.15923190000000,,2014-05-28,fhrs_4_en-GB,4,,FHRS,10
312035,52 St Johns Avenue,Churchdown,Gloucester,Gloucestershire,Janes Pantry,Manufacturers/packers,7839,5,,124529,5,,51.88528800000000,53037/0052/0/000,129,ehenquiries@tewkesbury.gov.uk,Tewkesbury,http://www.tewkesbury.gov.uk,-2.18560300000000,GL3 2BX,2014-01-15,fhrs_5_en-GB,5,,FHRS,5
312036,17 Barton Street,Tewkesbury,Gloucestershire,,Jelly Roll Cafe,Other catering premises,7841,5,,33105,5,,51.99270700000000,10/00025/COMM,129,ehenquiries@tewkesbury.gov.uk,Tewkesbury,http://www.tewkesbury.gov.uk,-2.15667300000000,GL20 5PP,2013-04-25,fhrs_5_en-GB,5,,FHRS,5
312037,Meteor Business Park,Cheltenham Road East,Churchdown,Gloucester,Jet Age Museum,Restaurant/Cafe/Canteen,1,5,,610481,5,,51.89750200000000,13/00075/COMM,129,ehenquiries@tewkesbury.gov.uk,Tewkesbury,http://www.tewkesbury.gov.uk,-2.17094600000000,GL2 9QL,2013-11-06,fhrs_5_en-GB,5,,FHRS,5
312038,Craven Drive,Churchdown,Gloucester,Gloucestershire,Jigsaw Childrens Centre,Other catering premises,7841,5,,29983,5,,51.88524700000000,09/00132/COMM,129,ehenquiries@tewkesbury.gov.uk,Tewkesbury,http://www.tewkesbury.gov.uk,-2.18320600000000,GL3 2DZ,2014-07-01,fhrs_5_en-GB,5,,FHRS,5
312039,,,,,JMF Caterers,Mobile caterer,7846,5,,535863,5,,,13/00036/COMM,129,ehenquiries@tewkesbury.gov.uk,Tewkesbury,http://www.tewkesbury.gov.uk,,,2014-11-20,fhrs_5_en-GB,5,,FHRS,5
312040,Westwold House,4 High Street,Winchcombe,Gloucestershire,John Keeling,Retailers - other,4613,5,,114903,5,,51.95388600000000,44028/0004/0/000,129,ehenquiries@tewkesbury.gov.uk,Tewkesbury,http://www.tewkesbury.gov.uk,-1.96385100000000,GL54 5HT,2011-06-03,fhrs_5_en-GB,5,,FHRS,5
312041,42 - 43 Barton Street,Tewkesbury,Gloucestershire,,Joy Garden Chinese Takeaway,Other catering premises,7841,10,,103775,5,,51.99298900000000,35012/0042/0/000,129,ehenquiries@tewkesbury.gov.uk,Tewkesbury,http://www.tewkesbury.gov.uk,-2.15444500000000,GL20 5PR,2014-03-04,fhrs_3_en-GB,3,,FHRS,10
312042,38A Church Road,Bishops Cleeve,Cheltenham,Gloucestershire,Joyce Arnold,Retailers - other,4613,5,,27400,5,,51.94727700000000,08009/0038/A/000,129,ehenquiries@tewkesbury.gov.uk,Tewkesbury,http://www.tewkesbury.gov.uk,-2.05934100000000,GL52 8LP,2011-12-20,fhrs_5_en-GB,5,,FHRS,5
312043,Olde Bakery Tea Shoppe,High Street,Winchcombe,Gloucestershire,Juri's,Other catering premises,7841,10,,114904,5,,51.95331900000000,44028/1008/2/000,129,ehenquiries@tewkesbury.gov.uk,Tewkesbury,http://www.tewkesbury.gov.uk,-1.96422900000000,GL54 5LJ,2012-10-04,fhrs_4_en-GB,4,,FHRS,5
312044,,,,,Kate's Cookies,Other catering premises,7841,5,,428799,5,,,12/00055/COMM,129,ehenquiries@tewkesbury.gov.uk,Tewkesbury,http://www.tewkesbury.gov.uk,,,2012-06-28,fhrs_5_en-GB,5,,FHRS,5
312045,Mill Avon Holiday Park,Gloucester Road,Tewkesbury,Gloucestershire,Kaz's Filling Station,Mobile caterer,7846,10,,644279,10,,51.98924500000000,14/00001/COMM,129,ehenquiries@tewkesbury.gov.uk,Tewkesbury,http://www.tewkesbury.gov.uk,-2.16388400000000,GL20 5SW,2014-03-19,fhrs_3_en-GB,3,,FHRS,10
312046,6 Hailes Street,Winchcombe,Gloucestershire,,Kellys Coffee House,Other catering premises,7841,10,,114899,5,,51.95453300000000,44026/0006/0/000,129,ehenquiries@tewkesbury.gov.uk,Tewkesbury,http://www.tewkesbury.gov.uk,-1.96290400000000,GL54 5HU,2014-01-29,fhrs_4_en-GB,4,,FHRS,5
312047,2 Millham Road,Bishops Cleeve,Cheltenham,Gloucestershire,Kiddiewinks Day Nursery Ltd,Other catering premises,7841,5,,27457,5,,51.94967000000000,08036/0002/0/000,129,ehenquiries@tewkesbury.gov.uk,Tewkesbury,http://www.tewkesbury.gov.uk,-2.05502300000000,GL52 8BL,2014-03-24,fhrs_5_en-GB,5,,FHRS,5
312048,1 Quay Street,Tewkesbury,Gloucestershire,,Kingfisher,Other catering premises,7841,5,,102522,5,,51.99522927000000,34020/0001/0/000,129,ehenquiries@tewkesbury.gov.uk,Tewkesbury,http://www.tewkesbury.gov.uk,-2.15748042000000,,2014-06-05,fhrs_5_en-GB,5,,FHRS,5
312049,Cricket Club,Sandhurst Lane,Sandhurst,Gloucester,Kingsholm Cricket Club,Other catering premises,7841,20,,134540,5,,51.90886100000000,68012/1003/2/000,129,ehenquiries@tewkesbury.gov.uk,Tewkesbury,http://www.tewkesbury.gov.uk,-2.24251900000000,,2014-10-01,fhrs_1_en-GB,1,,FHRS,10
312050,Evesham Road,Bishops Cleeve,Cheltenham,Glos.,Kingswood Service Station,Retailers - other,4613,5,,27419,5,,51.91077300000000,08018/1013/2/000,129,ehenquiries@tewkesbury.gov.uk,Tewkesbury,http://www.tewkesbury.gov.uk,-2.06907300000000,,2015-01-08,fhrs_5_en-GB,5,,FHRS,5
312051,Knightsbridge Green,Elmstone Hardwicke,Cheltenham,Gloucestershire,Knightsbridge Lodge,Hospitals/Childcare/Caring Premises,5,5,,67290,5,,51.94048000000000,15006/1002/2/000,129,ehenquiries@tewkesbury.gov.uk,Tewkesbury,http://www.tewkesbury.gov.uk,-2.15659200000000,GL51 9TA,2014-06-05,fhrs_5_en-GB,5,,FHRS,5
312052,100 Chosen Drive,Churchdown,Gloucester,Gloucestershire,Krishna News,Retailers - other,4613,10,,125556,5,,51.87909427000000,54039/0100/0/000,129,ehenquiries@tewkesbury.gov.uk,Tewkesbury,http://www.tewkesbury.gov.uk,-2.17804051000000,,2014-02-19,fhrs_4_en-GB,4,,FHRS,5
312053,Rutherford Park,Tewkesbury Road,Uckington,Cheltenham,L A Fitness,Retailers - other,4613,,,134599,,,51.91825300000000,68097/1002/2/000,129,ehenquiries@tewkesbury.gov.uk,Tewkesbury,http://www.tewkesbury.gov.uk,-2.11062700000000,GL51 0SJ,2012-06-08,fhrs_exempt_en-GB,Exempt,,FHRS,
312054,,,,,Ladybirds Larder,Mobile caterer,7846,10,,45381,5,,,11/00004/COMM,129,ehenquiries@tewkesbury.gov.uk,Tewkesbury,http://www.tewkesbury.gov.uk,,,2011-03-28,fhrs_4_en-GB,4,,FHRS,5
312055,Gloucester Business Park,Gloucester Business Park,Brockworth,Gloucestershire,Laithwaites Wine,Retailers - other,4613,5,,683181,0,,51.84931200000000,14/00060/COMM,129,ehenquiries@tewkesbury.gov.uk,Tewkesbury,http://www.tewkesbury.gov.uk,-2.17657000000000,GL3 4AA,2014-07-10,fhrs_5_en-GB,5,,FHRS,0
312056,Gloucester Business Park,Huricane Road,Gloucester Business Park,Brockworth,Laithwaites Wines (Eurest Services),Restaurant/Cafe/Canteen,1,5,,21463,5,,51.84926600000000,07/00026/COMM,129,ehenquiries@tewkesbury.gov.uk,Tewkesbury,http://www.tewkesbury.gov.uk,-2.17725200000000,GL3 4AA,2012-10-10,fhrs_5_en-GB,5,,FHRS,5
312057,,,,,Lawn Farm,Other catering premises,7841,5,,17630,5,,,06/00016/COMM,129,ehenquiries@tewkesbury.gov.uk,Tewkesbury,http://www.tewkesbury.gov.uk,,,2014-05-08,fhrs_5_en-GB,5,,FHRS,5
312058,28 Lee Road,Northway,Tewkesbury,Gloucestershire,Lee Garden,Takeaway/sandwich shop,7844,10,,610494,10,,52.00296400000000,13/00106/COMM,129,ehenquiries@tewkesbury.gov.uk,Tewkesbury,http://www.tewkesbury.gov.uk,-2.11123000000000,GL20 8QF,2013-10-28,fhrs_3_en-GB,3,,FHRS,5
312059,,,,,Let There Bee Cake,Other catering premises,7841,10,,636590,5,,,14/00003/COMM,129,ehenquiries@tewkesbury.gov.uk,Tewkesbury,http://www.tewkesbury.gov.uk,,,2014-02-05,fhrs_4_en-GB,4,,FHRS,5
312060,Lewis At Woodmancote,5 The Green,Station Road,Woodmancote,Lewis@Woodmancote,Retailers - other,4613,5,,115845,5,,51.94247900000000,45014/0005/0/000,129,ehenquiries@tewkesbury.gov.uk,Tewkesbury,http://www.tewkesbury.gov.uk,-2.05552800000000,GL52 4FR,2009-07-07,fhrs_5_en-GB,5,,FHRS,5
312061,Evesham Road,Bishops Cleeve,Cheltenham,Glos.,Lidl UK GMBH,Retailers - other,4613,5,,27418,5,,51.91077300000000,08018/1008/2/000,129,ehenquiries@tewkesbury.gov.uk,Tewkesbury,http://www.tewkesbury.gov.uk,-2.06907300000000,,2011-02-14,fhrs_5_en-GB,5,,FHRS,0
312062,98 High Street,Tewkesbury,Gloucestershire,,Lifestyle,Retailers - other,4613,5,,102485,5,,51.99500821000000,34009/0098/0/000,129,ehenquiries@tewkesbury.gov.uk,Tewkesbury,http://www.tewkesbury.gov.uk,-2.15657199000000,,2011-10-06,fhrs_5_en-GB,5,,FHRS,5
312063,Gypsy Corner,Badgeworth Lane,Shurdington,Cheltenham,Lifeways Ltd,Other catering premises,7841,10,,24744,5,,51.86344600000000,08/00009/COMM,129,ehenquiries@tewkesbury.gov.uk,Tewkesbury,http://www.tewkesbury.gov.uk,-2.12781700000000,GL51 4UH,2012-01-08,fhrs_4_en-GB,4,,FHRS,5
312064,,,,,Little Spoon Bakery,Other catering premises,7841,5,,730035,5,,,14/00107/COMM,129,ehenquiries@tewkesbury.gov.uk,Tewkesbury,http://www.tewkesbury.gov.uk,,,2014-01-07,fhrs_5_en-GB,5,,FHRS,5
312065,12 Hemming Way,Bishops Cleeve,Cheltenham,Gloucestershire,Little Sunshine Day Nursery,Other catering premises,7841,10,,9615,5,,51.94356300000000,04/00035/COMM,129,ehenquiries@tewkesbury.gov.uk,Tewkesbury,http://www.tewkesbury.gov.uk,-2.06051400000000,GL52 8DN,2014-01-16,fhrs_4_en-GB,4,,FHRS,5
312066,71 Clifford Avenue,Walton Cardiff,Tewkesbury,Gloucestershire,Little Walkers Childminding,Hospitals/Childcare/Caring Premises,5,5,,610485,5,,51.98465800000000,13/00087/COMM,129,ehenquiries@tewkesbury.gov.uk,Tewkesbury,http://www.tewkesbury.gov.uk,-2.14457300000000,GL20 7RW,2013-11-06,fhrs_5_en-GB,5,,FHRS,0
312067,,,,,Lljcakes,Other catering premises,7841,10,,633496,5,,,13/00110/COMM,129,ehenquiries@tewkesbury.gov.uk,Tewkesbury,http://www.tewkesbury.gov.uk,,,2014-02-06,fhrs_4_en-GB,4,,FHRS,5
312068,1 - 2 Abbotswood Centre,Brockworth,Gloucestershire,,Lloyds Chemist,Retailers - other,4613,,,121276,,,51.84253400000000,50001/0003/0/000,129,ehenquiries@tewkesbury.gov.uk,Tewkesbury,http://www.tewkesbury.gov.uk,-2.15607700000000,GL3 4NY,2009-11-04,fhrs_exempt_en-GB,Exempt,,FHRS,
312069,Lloyds Chemist,22 Court Road,Brockworth,Gloucester,Lloyds Chemist,Retailers - other,4613,,,117767,,,51.84711600000000,47008/0022/0/000,129,ehenquiries@tewkesbury.gov.uk,Tewkesbury,http://www.tewkesbury.gov.uk,-2.15859000000000,GL3 4EP,2011-09-29,fhrs_exempt_en-GB,Exempt,,FHRS,
312070,Lloyds Chemist,Bishops Walk,Tewkesbury,Gloucestershire,Lloyds Pharmacy,Retailers - other,4613,,,134577,,,51.99545100000000,68060/1004/2/000,129,ehenquiries@tewkesbury.gov.uk,Tewkesbury,http://www.tewkesbury.gov.uk,-2.15557500000000,GL20 5LQ,2009-10-21,fhrs_exempt_en-GB,Exempt,,FHRS,
312071,80 Church Street,Tewkesbury,Gloucestershire,,Lloyds Pharmarcy,Retailers - other,4613,,,103789,,,51.99157100000000,35015/0080/0/000,129,ehenquiries@tewkesbury.gov.uk,Tewkesbury,http://www.tewkesbury.gov.uk,-2.15961000000000,GL20 5RX,2007-05-01,fhrs_exempt_en-GB,Exempt,,FHRS,
312072,Longford Lodge,68 Tewkesbury Road,Longford,Gloucester,Longford Lodge Guest House,Hotel/bed & breakfast/guest house,7842,10,,130001,10,,51.88434200000000,61009/0068/0/000,129,ehenquiries@tewkesbury.gov.uk,Tewkesbury,http://www.tewkesbury.gov.uk,-2.23668200000000,GL2 9EH,2011-08-10,fhrs_3_en-GB,3,,FHRS,5
312073,Longford Lane,Longford,Gloucester,Gloucestershire,Longford Village Hall,Other catering premises,7841,5,,129999,5,,51.88455400000000,61006/1003/2/000,129,ehenquiries@tewkesbury.gov.uk,Tewkesbury,http://www.tewkesbury.gov.uk,-2.23406800000000,GL2 9EL,2008-07-02,fhrs_5_en-GB,5,,FHRS,5
312074,Unit 8 Tarlings Yard,Church Road,Bishops Cleeve,Cheltenham,Lots Of Lemons,Retailers - other,4613,5,,33969,5,,51.94778000000000,10/00079/COMM,129,ehenquiries@tewkesbury.gov.uk,Tewkesbury,http://www.tewkesbury.gov.uk,-2.06038900000000,GL52 8RN,2013-12-16,fhrs_5_en-GB,5,,FHRS,5
312075,,,,,Louise Woods,Other catering premises,7841,5,,7449,5,,,03/00026/COMM,129,ehenquiries@tewkesbury.gov.uk,Tewkesbury,http://www.tewkesbury.gov.uk,,,2010-05-26,fhrs_5_en-GB,5,,FHRS,5
312076,Lower Lode Hotel,Upper Lode Lock,Forthampton,Tewkesbury,Lower Lode Inn,Pub/bar/nightclub,7843,5,,126951,5,,51.98459500000000,56007/1005/2/000,129,ehenquiries@tewkesbury.gov.uk,Tewkesbury,http://www.tewkesbury.gov.uk,-2.17793300000000,GL19 4RE,2014-06-19,fhrs_5_en-GB,5,,FHRS,5
312077,Unit 3 Tarlings Yard,Church Road,Bishops Cleeve,Cheltenham,Lowry's Espresso Bar,Restaurant/Cafe/Canteen,1,5,,666975,5,,51.94778000000000,14/00041/COMM,129,ehenquiries@tewkesbury.gov.uk,Tewkesbury,http://www.tewkesbury.gov.uk,-2.06038900000000,GL52 8RN,2014-06-04,fhrs_5_en-GB,5,,FHRS,5
312078,Scout Headquarters,Oldbury Road,Tewkesbury,Gloucestershire,M5 Nine Community Project,Other catering premises,7841,5,,46695,5,,51.99580300000000,11/00080/COMM,129,ehenquiries@tewkesbury.gov.uk,Tewkesbury,http://www.tewkesbury.gov.uk,-2.15433800000000,GL20 5LW,2015-01-29,fhrs_5_en-GB,5,,FHRS,5
312079,Store And Shop,Gibson Road,Innsworth,Gloucester,MACE Store,Retailers - other,4613,5,,45751,5,,51.88849200000000,11/00025/COMM,129,ehenquiries@tewkesbury.gov.uk,Tewkesbury,http://www.tewkesbury.gov.uk,-2.20023400000000,GL3 1ET,2014-06-05,fhrs_5_en-GB,5,,FHRS,5
312080,Village Hall,Church Road,Maisemore,Gloucester,Maisemore Village Hall,Other catering premises,7841,5,,130714,5,,51.88938800000000,62019/1008/2/000,129,ehenquiries@tewkesbury.gov.uk,Tewkesbury,http://www.tewkesbury.gov.uk,-2.27310700000000,GL2 8HB,2014-02-06,fhrs_5_en-GB,5,,FHRS,5
312081,,,,,Maison Cake,Other catering premises,7841,10,,333329,5,,,11/00082/COMM,129,ehenquiries@tewkesbury.gov.uk,Tewkesbury,http://www.tewkesbury.gov.uk,,,2011-11-23,fhrs_4_en-GB,4,,FHRS,5
312082,97 Gloucester Road,Tewkesbury,Gloucestershire,,Malvern Crossing,Hospitals/Childcare/Caring Premises,5,5,,428796,5,,51.98286563000000,12/00050/COMM,129,ehenquiries@tewkesbury.gov.uk,Tewkesbury,http://www.tewkesbury.gov.uk,-2.15731949000000,,2013-12-18,fhrs_5_en-GB,5,,FHRS,5
312083,Cleeve Hill,Cheltenham,Gloucestershire,,Malvern View,Hotel/bed & breakfast/guest house,7842,10,,115838,5,,51.94045600000000,45010/1024/2/000,129,ehenquiries@tewkesbury.gov.uk,Tewkesbury,http://www.tewkesbury.gov.uk,-2.02494300000000,GL52 3PR,2013-07-01,fhrs_4_en-GB,4,,FHRS,5
312084,1 St Marys Road,Tewkesbury,Gloucestershire,,Malvern View Guest House,Hotel/bed & breakfast/guest house,7842,5,,103817,5,,51.99204800000000,35037/1002/3/001,129,ehenquiries@tewkesbury.gov.uk,Tewkesbury,http://www.tewkesbury.gov.uk,-2.15919000000000,GL20 5SL,2010-05-11,fhrs_5_en-GB,5,,FHRS,0
312085,,,,,Mama's Cakes And Bagels,Other catering premises,7841,5,,32749,5,,,10/00003/COMM,129,ehenquiries@tewkesbury.gov.uk,Tewkesbury,http://www.tewkesbury.gov.uk,,,2010-07-29,fhrs_5_en-GB,5,,FHRS,5
312086,41 Station Road,Bishops Cleeve,Cheltenham,Gloucestershire,Manor Cottage,Hotel/bed & breakfast/guest house,7842,5,,27471,5,,51.94889500000000,08054/0041/0/000,129,ehenquiries@tewkesbury.gov.uk,Tewkesbury,http://www.tewkesbury.gov.uk,-2.05916900000000,GL52 8HH,2010-05-19,fhrs_5_en-GB,5,,FHRS,5
312087,Main Street,Wormington,Gloucestershire,,Manor Farm,Hotel/bed & breakfast/guest house,7842,5,,58698,5,,52.02589300000000,13013/1018/2/000,129,ehenquiries@tewkesbury.gov.uk,Tewkesbury,http://www.tewkesbury.gov.uk,-1.94336000000000,WR12 7NL,2009-10-18,fhrs_5_en-GB,5,,FHRS,5
312088,Mumfords Farm,Wick Lane,Lower Apperley,Gloucester,Marshbrook Dexters,Farmers/growers,7838,,,709380,,,51.94643800000000,14/00065/COMM,129,ehenquiries@tewkesbury.gov.uk,Tewkesbury,http://www.tewkesbury.gov.uk,-2.19503600000000,GL19 4DS,2014-10-10,fhrs_exempt_en-GB,Exempt,,FHRS,
312089,Rear Of 12,Mitton Way,Mitton,Tewkesbury,Martin Barkers Cooked Meats,Manufacturers/packers,7839,10,,107538,10,,,38012/0012/3/001,129,ehenquiries@tewkesbury.gov.uk,Tewkesbury,http://www.tewkesbury.gov.uk,,,2014-06-02,fhrs_3_en-GB,3,,FHRS,10
312090,E M Merrett & Co Ltd,6-8 Court Road,Brockworth,Gloucester,Martin McColl Ltd,Retailers - other,4613,10,,117765,10,,,47008/0006/2/000,129,ehenquiries@tewkesbury.gov.uk,Tewkesbury,http://www.tewkesbury.gov.uk,,,2013-07-01,fhrs_3_en-GB,3,,FHRS,5
312091,Forbouys,42 St Johns Avenue,Churchdown,Gloucester,Martins,Retailers - other,4613,5,,124528,10,,51.88555619000000,53037/0042/0/000,129,ehenquiries@tewkesbury.gov.uk,Tewkesbury,http://www.tewkesbury.gov.uk,-2.18520515000000,,2013-08-12,fhrs_4_en-GB,4,,FHRS,5
312092,Ashchurch Parkway,Tewkesbury,Gloucestershire,,Mary P's Ltd,Hospitals/Childcare/Caring Premises,5,5,,465479,5,,52.00798400000000,12/00090/COMM,129,ehenquiries@tewkesbury.gov.uk,Tewkesbury,http://www.tewkesbury.gov.uk,-2.09705300000000,GL20 8HJ,2014-11-20,fhrs_5_en-GB,5,,FHRS,5
312093,Whitelands Lane,Little Shurdington,Gloucestershire,,Meadows Day Nursery,Other catering premises,7841,0,,86497,5,,51.85480400000000,22018/1021/2/000,129,ehenquiries@tewkesbury.gov.uk,Tewkesbury,http://www.tewkesbury.gov.uk,-2.12018500000000,GL51 4TX,2013-11-20,fhrs_5_en-GB,5,,FHRS,5
312094,49 High Street,Tewkesbury,Gloucestershire,,Melanie's,Other catering premises,7841,5,,102479,5,,51.99553100000000,34009/0049/0/000,129,ehenquiries@tewkesbury.gov.uk,Tewkesbury,http://www.tewkesbury.gov.uk,-2.15649300000000,GL20 5BH,2014-06-17,fhrs_5_en-GB,5,,FHRS,5
312095,1 Curlew Close,Northway,Tewkesbury,Gloucestershire,MENCAP,Hospitals/Childcare/Caring Premises,5,5,,13374,5,,52.00810600000000,04030/0001/0/000,129,ehenquiries@tewkesbury.gov.uk,Tewkesbury,http://www.tewkesbury.gov.uk,-2.12030500000000,GL20 8TJ,2011-12-14,fhrs_4_en-GB,4,,FHRS,10
312096,25 The Sandfield,Northway,Tewkesbury,Glos.,MENCAP,Hospitals/Childcare/Caring Premises,5,0,,13366,5,,52.00546056000000,04017/0025/0/000,129,ehenquiries@tewkesbury.gov.uk,Tewkesbury,http://www.tewkesbury.gov.uk,-2.11504894000000,,2014-12-11,fhrs_5_en-GB,5,,FHRS,5
312097,Westbourne House,New Road,Woodmancote,Cheltenham,MEND @ Westbourne House,Other catering premises,7841,10,,115848,5,,50.86075200000000,45017/1011/2/000,129,ehenquiries@tewkesbury.gov.uk,Tewkesbury,http://www.tewkesbury.gov.uk,-0.92515700000000,,2013-09-26,fhrs_4_en-GB,4,,FHRS,5
312098,Tewkesbury Methodist Church,Church Street,Tewkesbury,Gloucestershire,Methodist Church And Hall,Other catering premises,7841,5,,134634,5,,51.99138600000000,68124/0001/0/000,129,ehenquiries@tewkesbury.gov.uk,Tewkesbury,http://www.tewkesbury.gov.uk,-2.15971300000000,,2009-01-27,fhrs_5_en-GB,5,,FHRS,5
312099,MidGlos Indoor Bowling Club,Green Street,Brockworth,Gloucester,Mid Glos Indoor Bowling Club,Other catering premises,7841,10,,121283,15,,51.84586500000000,50010/1030/2/000,129,ehenquiries@tewkesbury.gov.uk,Tewkesbury,http://www.tewkesbury.gov.uk,-2.16002300000000,GL3 4LS,2014-07-31,fhrs_2_en-GB,2,,FHRS,10
312100,Mill Lane,Brockworth,Gloucester,Gloucestershire,Millbrook Academy,School/college/university,7845,10,,706959,15,,51.84821700000000,14/00075/COMM,129,ehenquiries@tewkesbury.gov.uk,Tewkesbury,http://www.tewkesbury.gov.uk,-2.14880900000000,GL3 4QF,2014-09-23,fhrs_2_en-GB,2,,FHRS,5
312101,6 Blacksmith Lane,Churchdown,Gloucester,Gloucestershire,Mini Fruit And Flower Market,Retailers - other,4613,0,,125517,5,,51.87688300000000,54003/0006/0/000,129,ehenquiries@tewkesbury.gov.uk,Tewkesbury,http://www.tewkesbury.gov.uk,-2.16672800000000,GL3 2EU,2009-02-02,fhrs_5_en-GB,5,,FHRS,5
312102,Main Road,Minsterworth,Gloucestershire,,Minsterworth School,School/college/university,7845,10,,610486,5,,51.85302700000000,13/00090/COMM,129,ehenquiries@tewkesbury.gov.uk,Tewkesbury,http://www.tewkesbury.gov.uk,-2.32001400000000,GL2 8JH,2013-11-06,fhrs_4_en-GB,4,,FHRS,5
312103,Main Road,Minsterworth,Gloucester,Gloucestershire,Minsterworth Village Hall,Other catering premises,7841,0,,131491,5,,51.85302700000000,63005/1087/2/000,129,ehenquiries@tewkesbury.gov.uk,Tewkesbury,http://www.tewkesbury.gov.uk,-2.32001400000000,GL2 8JH,2009-01-07,fhrs_5_en-GB,5,,FHRS,5
312104,16 Mitton Way,Mitton,Tewkesbury,Gloucestershire,Mitton Store,Retailers - other,4613,10,,480024,5,,52.00117200000000,12/00127/COMM,129,ehenquiries@tewkesbury.gov.uk,Tewkesbury,http://www.tewkesbury.gov.uk,-2.14612700000000,GL20 8AN,2012-11-12,fhrs_4_en-GB,4,,FHRS,5
312105,34 Malleson Road,Gotherington,Cheltenham,Gloucestershire,Moat Farm Guest House,Hotel/bed & breakfast/guest house,7842,5,,70850,10,,51.96540400000000,16011/0034/0/000,129,ehenquiries@tewkesbury.gov.uk,Tewkesbury,http://www.tewkesbury.gov.uk,-2.05645400000000,GL52 9ET,2011-08-02,fhrs_4_en-GB,4,,FHRS,5
312106,Montys Fish And Chip Shop,Parton Road,Churchdown,Gloucester,Montys,Other catering premises,7841,5,,123636,5,,51.88412400000000,52025/1049/2/000,129,ehenquiries@tewkesbury.gov.uk,Tewkesbury,http://www.tewkesbury.gov.uk,-2.17222100000000,,2014-04-09,fhrs_4_en-GB,4,,FHRS,10
312107,Ashchurch Road,Tewkesbury,Gloucestershire,,Morrisons,Retailers - other,4613,,,105077,,,51.99503100000000,36001/1004/2/000,129,ehenquiries@tewkesbury.gov.uk,Tewkesbury,http://www.tewkesbury.gov.uk,-2.14686400000000,GL20 8AB,2014-07-24,fhrs_5_en-GB,5,,FHRS,
312108,,,,,Morris's Mobile Catering,Mobile caterer,7846,10,,666977,5,,,14/00044/COMM,129,ehenquiries@tewkesbury.gov.uk,Tewkesbury,http://www.tewkesbury.gov.uk,,,2013-06-03,fhrs_4_en-GB,4,,FHRS,5
312109,,,,,Mr Pork,Mobile caterer,7846,5,,441811,5,,,12/00075/COMM,129,ehenquiries@tewkesbury.gov.uk,Tewkesbury,http://www.tewkesbury.gov.uk,,,2012-08-17,fhrs_5_en-GB,5,,FHRS,5
312110,Land At,Tewkesbury Road,Uckington,Cheltenham,Mr Whippy Cheltenham,Mobile caterer,7846,5,,410592,5,,51.92235946655270,12/00030/COMM,129,ehenquiries@tewkesbury.gov.uk,Tewkesbury,http://www.tewkesbury.gov.uk,-2.12238001823425,,2012-05-14,fhrs_5_en-GB,5,,FHRS,5
312111,,,,,Mrs Caroline Louise Noble,Manufacturers/packers,7839,10,,333338,5,,,12/00017/COMM,129,ehenquiries@tewkesbury.gov.uk,Tewkesbury,http://www.tewkesbury.gov.uk,,,2012-02-20,fhrs_4_en-GB,4,,FHRS,5
312112,,,,,Mrs Hawkins,Other catering premises,7841,5,,23857,5,,,07060/0101/0/000,129,ehenquiries@tewkesbury.gov.uk,Tewkesbury,http://www.tewkesbury.gov.uk,,,2012-08-31,fhrs_5_en-GB,5,,FHRS,5
312113,Teddington Hands Service Station,Evesham Road,Teddington,Tewkesbury,Murco,Retailers - other,4613,10,,480025,5,,52.00343300000000,12/00128/COMM,129,ehenquiries@tewkesbury.gov.uk,Tewkesbury,http://www.tewkesbury.gov.uk,-2.05867300000000,GL20 8NE,2014-07-08,fhrs_2_en-GB,2,,FHRS,15
312114,Mussel End Farm,Mussel End,Sandhurst,Gloucester,Mussel End Meats,Retailers - other,4613,10,,132827,5,,,65006/1005/2/000,129,ehenquiries@tewkesbury.gov.uk,Tewkesbury,http://www.tewkesbury.gov.uk,,,2013-01-09,fhrs_4_en-GB,4,,FHRS,5
312115,84 - 85 Church Street,Tewkesbury,Gloucestershire,,My Great Grandfather's,Other catering premises,7841,5,,103790,5,,51.99157100000000,35015/0084/0/000,129,ehenquiries@tewkesbury.gov.uk,Tewkesbury,http://www.tewkesbury.gov.uk,-2.15961000000000,GL20 5RX,2014-04-10,fhrs_5_en-GB,5,,FHRS,5
312116,Mythe Road,Tewkesbury,Gloucestershire,,Mythe End House,Other catering premises,7841,20,,9772,15,,52.00529600000000,04/00061/COMM,129,ehenquiries@tewkesbury.gov.uk,Tewkesbury,http://www.tewkesbury.gov.uk,-2.16245600000000,GL20 6EB,2014-03-11,fhrs_1_en-GB,1,,FHRS,5
312117,Wallsworth Hall,Sandhurst Lane,Sandhurst,Gloucester,Nature In Art/Haywood's Coffee Shop,Other catering premises,7841,5,,132838,10,,51.90565000000000,65013/1014/2/000,129,ehenquiries@tewkesbury.gov.uk,Tewkesbury,http://www.tewkesbury.gov.uk,-2.23275300000000,GL2 9PA,2013-06-20,fhrs_4_en-GB,4,,FHRS,5
312118,61 High Street,Tewkesbury,Gloucestershire,,New World Restaurant,Other catering premises,7841,5,,102481,5,,51.99635900000000,34009/0061/0/000,129,ehenquiries@tewkesbury.gov.uk,Tewkesbury,http://www.tewkesbury.gov.uk,-2.15595700000000,GL20 5BJ,2013-08-28,fhrs_4_en-GB,4,,FHRS,10
312119,Newbridge House,Down Hatherley Lane,Down Hatherley,Gloucester,Newbridge House Bed And Breakfast,Hotel/bed & breakfast/guest house,7842,5,,32727,5,,51.90190900000000,10/00002/COMM,129,ehenquiries@tewkesbury.gov.uk,Tewkesbury,http://www.tewkesbury.gov.uk,-2.19311300000000,GL2 9QB,2013-03-27,fhrs_5_en-GB,5,,FHRS,0
312120,Cheltenham Rugby Club,Southam Lane,Southam,Cheltenham,Newlands Park Sports And Social Club,Other catering premises,7841,10,,28850,5,,51.92954000000000,09/00031/COMM,129,ehenquiries@tewkesbury.gov.uk,Tewkesbury,http://www.tewkesbury.gov.uk,-2.05047500000000,,2013-08-02,fhrs_3_en-GB,3,,FHRS,10
312121,,,,,Newline Products And Services.,Farmers/growers,7838,5,,7355,5,,,03/00002/COMM,129,ehenquiries@tewkesbury.gov.uk,Tewkesbury,http://www.tewkesbury.gov.uk,,,2008-01-12,fhrs_5_en-GB,5,,FHRS,5
312122,Natton,Ashchurch,Tewkesbury,Gloucestershire,Newton Farm,Hotel/bed & breakfast/guest house,7842,10,,6179,5,,51.99656295776367,02026/1007/2/000,129,ehenquiries@tewkesbury.gov.uk,Tewkesbury,http://www.tewkesbury.gov.uk,-2.10975766181946,GL20 7BE,2009-08-25,fhrs_4_en-GB,4,,FHRS,5
312123,,,,,Nickies Wedding Service.,Other catering premises,7841,5,,118676,5,,,48017/0006/0/000,129,ehenquiries@tewkesbury.gov.uk,Tewkesbury,http://www.tewkesbury.gov.uk,,,2010-06-24,fhrs_5_en-GB,5,,FHRS,5
312124,69 Church Street,Tewkesbury,Gloucestershire,,Nirala Tandoori Restaurant,Other catering premises,7841,10,,103787,5,,51.99122440000000,35015/0069/0/000,129,ehenquiries@tewkesbury.gov.uk,Tewkesbury,http://www.tewkesbury.gov.uk,-2.16047209000000,,2014-03-06,fhrs_3_en-GB,3,,FHRS,10
312125,Tewkesbury Family Centre,Chance Street,Tewkesbury,Gloucestershire,Noah's Ark Children's Centre,Hospitals/Childcare/Caring Premises,5,5,,610489,5,,51.99389900000000,13/00095/COMM,129,ehenquiries@tewkesbury.gov.uk,Tewkesbury,http://www.tewkesbury.gov.uk,-2.15286100000000,GL20 5RQ,2013-10-23,fhrs_5_en-GB,5,,FHRS,5
312126,York Road,Tewkesbury,Gloucestershire,,Noah's Ark Children's Centre,Hospitals/Childcare/Caring Premises,5,10,,610488,5,,51.98289200000000,13/00094/COMM,129,ehenquiries@tewkesbury.gov.uk,Tewkesbury,http://www.tewkesbury.gov.uk,-2.15505100000000,GL20 5HT,2013-11-06,fhrs_4_en-GB,4,,FHRS,5
312127,54 Mottershead Drive,Innsworth,Gloucester,Gloucestershire,Noah's Ark Day Nursery,Other catering premises,7841,10,,129362,10,,51.88486600000000,60009/0054/0/000,129,ehenquiries@tewkesbury.gov.uk,Tewkesbury,http://www.tewkesbury.gov.uk,-2.20164100000000,GL3 1EH,2014-03-18,fhrs_3_en-GB,3,,FHRS,10
312128,Former School Building,Tewkesbury Road,Twigworth,Gloucester,Noah's Ark Day Nursery,Hospitals/Childcare/Caring Premises,5,5,,576627,5,,51.89552200000000,13/00013/COMM,129,ehenquiries@tewkesbury.gov.uk,Tewkesbury,http://www.tewkesbury.gov.uk,-2.22995400000000,GL2 9PG,2013-07-24,fhrs_5_en-GB,5,,FHRS,5
312129,10 North Street,Winchcombe,Gloucestershire,,Norths Bakery,Manufacturers/packers,7839,10,,114927,10,,51.95402100000000,44037/0010/0/000,129,ehenquiries@tewkesbury.gov.uk,Tewkesbury,http://www.tewkesbury.gov.uk,-1.96437400000000,GL54 5LH,2014-07-16,fhrs_2_en-GB,2,,FHRS,15
312130,Northway Lane,Northway,Tewkesbury,Gloucestershire,Northway Chemist,Retailers - other,4613,,,8526,,,52.00156700000000,03011/1013/2/000,129,ehenquiries@tewkesbury.gov.uk,Tewkesbury,http://www.tewkesbury.gov.uk,-2.10930100000000,,2009-10-20,fhrs_exempt_en-GB,Exempt,,FHRS,
312131,Northway Infants School,Virginia Road,Northway,Tewkesbury,Northway Infant School,School/college/university,7845,5,,457936,5,,52.00364600000000,12/00085/COMM,129,ehenquiries@tewkesbury.gov.uk,Tewkesbury,http://www.tewkesbury.gov.uk,-2.11187300000000,GL20 8PT,2012-10-11,fhrs_5_en-GB,5,,FHRS,5
312132,22 Lee Road,Northway,Tewkesbury,Gloucestershire,Northway News,Retailers - other,4613,10,,582616,5,,52.00296400000000,03008/0022/3/000,129,ehenquiries@tewkesbury.gov.uk,Tewkesbury,http://www.tewkesbury.gov.uk,-2.11123000000000,GL20 8QF,2013-09-30,fhrs_3_en-GB,3,,FHRS,10
312133,Northway Lane,Northway,Tewkesbury,Gloucestershire,Northway Public House (Spirit Group Ltd),Pub/bar/nightclub,7843,10,,8524,5,,52.00653200000000,03011/1003/2/000,129,ehenquiries@tewkesbury.gov.uk,Tewkesbury,http://www.tewkesbury.gov.uk,-2.11190900000000,GL20 8HQ,2014-05-29,fhrs_3_en-GB,3,,FHRS,10
312134,Virginia Road,Northway,Tewkesbury,Gloucestershire,Northway-Ashchurch Children's Centre,Hospitals/Childcare/Caring Premises,5,5,,610490,5,,52.00364600000000,13/00096/COMM,129,ehenquiries@tewkesbury.gov.uk,Tewkesbury,http://www.tewkesbury.gov.uk,-2.11187300000000,GL20 8PT,2013-11-18,fhrs_5_en-GB,5,,FHRS,5
312135,Norton Church Of England School,Old Tewkesbury Road,Norton,Gloucester,Norton C Of E Primary School,School/college/university,7845,5,,29483,5,,51.91613300000000,09/00085/COMM,129,ehenquiries@tewkesbury.gov.uk,Tewkesbury,http://www.tewkesbury.gov.uk,-2.20899300000000,GL2 9LR,2014-12-16,fhrs_5_en-GB,5,,FHRS,5
312136,Tewkesbury Road,Norton,Gloucester,Gloucestershire,Norton Village Hall,Other catering premises,7841,5,,126156,10,,51.93635800000000,55008/1035/2/000,129,ehenquiries@tewkesbury.gov.uk,Tewkesbury,http://www.tewkesbury.gov.uk,-2.17893400000000,GL19 4AH,2010-09-07,fhrs_3_en-GB,3,,FHRS,10
312137,Oak Piece,Stanway Road,Stanton,Broadway,Oak Piece Nursery,Retailers - other,4613,5,,584099,5,,52.00573700000000,13/00044/COMM,129,ehenquiries@tewkesbury.gov.uk,Tewkesbury,http://www.tewkesbury.gov.uk,-1.90298800000000,WR12 7NQ,2013-08-29,fhrs_5_en-GB,5,,FHRS,5
312138,16 Gretton Road,Winchcombe,Gloucestershire,,Oaklands Guest House,Hotel/bed & breakfast/guest house,7842,5,,114892,5,,51.95707900000000,44024/0016/0/000,129,ehenquiries@tewkesbury.gov.uk,Tewkesbury,http://www.tewkesbury.gov.uk,-1.96799500000000,GL54 5EG,2013-06-25,fhrs_5_en-GB,5,,FHRS,5
312139,The Old Farmers Arms,Evesham Road,Bishops Cleeve,Cheltenham,Old Farmers Arms,Pub/bar/nightclub,7843,10,,578656,10,,51.95392700000000,13/00049/COMM,129,ehenquiries@tewkesbury.gov.uk,Tewkesbury,http://www.tewkesbury.gov.uk,-2.06416600000000,GL52 8SA,2014-04-01,fhrs_3_en-GB,3,,FHRS,10
312140,Village Hall,Stockwell Lane,Woodmancote,Cheltenham,Old Village Hall,Other catering premises,7841,0,,115856,5,,51.94370600000000,45026/1062/2/000,129,ehenquiries@tewkesbury.gov.uk,Tewkesbury,http://www.tewkesbury.gov.uk,-2.04097700000000,GL52 9QB,2009-01-09,fhrs_5_en-GB,5,,FHRS,5
312141,One,Silk Mill Lane,Winchcombe,Cheltenham,One Silk Mill Lane,Hotel/bed & breakfast/guest house,7842,5,,17695,5,,51.95376000000000,06/00022/COMM,129,ehenquiries@tewkesbury.gov.uk,Tewkesbury,http://www.tewkesbury.gov.uk,-1.96291900000000,GL54 5HZ,2007-11-20,fhrs_5_en-GB,5,,FHRS,5
312142,2 Church Street,Tewkesbury,Gloucestershire,,One Stop,Retailers - other,4613,5,,103782,5,,51.99220300000000,35015/0002/0/000,129,ehenquiries@tewkesbury.gov.uk,Tewkesbury,http://www.tewkesbury.gov.uk,-2.15754500000000,GL20 5PA,2011-11-16,fhrs_5_en-GB,5,,FHRS,5
312143,Unit 5J,Delta Drive,Tewkesbury,Gloucestershire,Orchard Catering,Other catering premises,7841,5,,582620,5,,52.00056300000000,13/00069/COMM,129,ehenquiries@tewkesbury.gov.uk,Tewkesbury,http://www.tewkesbury.gov.uk,-2.12941700000000,GL20 8HB,2013-08-15,fhrs_4_en-GB,4,,FHRS,10
312144,Orchard End,Church Lane,Minsterworth,Gloucester,Orchard End Residential Home,Other catering premises,7841,5,,131492,5,,51.85161700000000,63006/1002/2/000,129,ehenquiries@tewkesbury.gov.uk,Tewkesbury,http://www.tewkesbury.gov.uk,-2.32941200000000,GL2 8JJ,2013-08-22,fhrs_5_en-GB,5,,FHRS,5
312145,Woodmans Way,Bishops Cleeve,Cheltenham,Gloucestershire,Orchard House,Other catering premises,7841,5,,27533,5,,51.94474000000000,08091/1004/2/000,129,ehenquiries@tewkesbury.gov.uk,Tewkesbury,http://www.tewkesbury.gov.uk,-2.06297500000000,GL52 8DP,2013-12-16,fhrs_5_en-GB,5,,FHRS,5
312146,,,,,Orchid Preserves,Retailers - other,4613,5,,33400,10,,,10/00042/COMM,129,ehenquiries@tewkesbury.gov.uk,Tewkesbury,http://www.tewkesbury.gov.uk,,,2010-06-18,fhrs_4_en-GB,4,,FHRS,5
312147,Our Ladys Church Hall,Cheltenham Road East,Churchdown,Gloucester,Our 'Lady' Play Group,Other catering premises,7841,5,,123600,5,,51.88638600000000,52003/1016/3/000,129,ehenquiries@tewkesbury.gov.uk,Tewkesbury,http://www.tewkesbury.gov.uk,-2.18915400000000,,2007-11-26,fhrs_5_en-GB,5,,FHRS,5
312148,Over Farm,Over Bridge,Over,Gloucester,Over Farm Market,Retailers - other,4613,10,,128189,10,,51.87444305419920,58010/1008/2/000,129,ehenquiries@tewkesbury.gov.uk,Tewkesbury,http://www.tewkesbury.gov.uk,-2.26805591583252,,2014-11-05,fhrs_3_en-GB,3,,FHRS,10
312149,,,,,OVS,Mobile caterer,7846,5,,680369,5,,,14/00055/COMM,129,ehenquiries@tewkesbury.gov.uk,Tewkesbury,http://www.tewkesbury.gov.uk,,,2014-06-25,fhrs_5_en-GB,5,,FHRS,5
312150,73 Church Street,Tewkesbury,Gloucestershire,,Owens Restaurant,Other catering premises,7841,10,,32877,5,,51.99157100000000,10/00011/COMM,129,ehenquiries@tewkesbury.gov.uk,Tewkesbury,http://www.tewkesbury.gov.uk,-2.15961000000000,GL20 5RX,2013-07-31,fhrs_4_en-GB,4,,FHRS,5
312151,Newtown Service Station,3 Ashchurch Road,Tewkesbury,Gloucestershire,P J Nicholls,Retailers - other,4613,10,,105072,5,,51.99553600000000,36001/0003/2/000,129,ehenquiries@tewkesbury.gov.uk,Tewkesbury,http://www.tewkesbury.gov.uk,-2.13825800000000,GL20 8DT,2011-10-19,fhrs_3_en-GB,3,,FHRS,10
312152,Unit 3,Malvern View Business Park,Bishops Cleeve,Cheltenham,P K L Group Ltd,Other catering premises,7841,5,,134616,10,,51.94775000000000,68101/1001/2/000,129,ehenquiries@tewkesbury.gov.uk,Tewkesbury,http://www.tewkesbury.gov.uk,-2.08046700000000,GL52 7DQ,2014-03-24,fhrs_4_en-GB,4,,FHRS,5
312153,17 Church Road,Bishops Cleeve,Cheltenham,Gloucestershire,Pan Pizza & Shiraz Balti,Takeaway/sandwich shop,7844,5,,428803,5,,51.94746500000000,12/00066/COMM,129,ehenquiries@tewkesbury.gov.uk,Tewkesbury,http://www.tewkesbury.gov.uk,-2.06070900000000,GL52 8LR,2014-04-25,fhrs_4_en-GB,4,,FHRS,10
312154,Innsworth Technology Park,Gloucester,Gloucestershire,,Park Diner,Other catering premises,7841,10,,134546,10,,51.88744100000000,68017/0001/F/001,129,ehenquiries@tewkesbury.gov.uk,Tewkesbury,http://www.tewkesbury.gov.uk,-2.21502000000000,GL3 1DL,2014-04-14,fhrs_3_en-GB,3,,FHRS,10
312155,Sudeley,Winchcombe,Gloucestershire,,Parks Farm Bed And Breakfast,Hotel/bed & breakfast/guest house,7842,10,,92439,5,,51.94677734375000,26027/1013/2/000,129,ehenquiries@tewkesbury.gov.uk,Tewkesbury,http://www.tewkesbury.gov.uk,-1.94539380073547,GL54 5JB,2010-04-07,fhrs_4_en-GB,4,,FHRS,0
312156,,,,,Parkview B & B,Hotel/bed & breakfast/guest house,7842,0,,24761,5,,,08/00011/COMM,129,ehenquiries@tewkesbury.gov.uk,Tewkesbury,http://www.tewkesbury.gov.uk,,,2012-08-21,fhrs_5_en-GB,5,,FHRS,0
312157,110 High Street,Tewkesbury,Gloucestershire,,Parsons Bakery,Manufacturers/packers,7839,5,,535864,5,,51.99515400000000,13/00038/COMM,129,ehenquiries@tewkesbury.gov.uk,Tewkesbury,http://www.tewkesbury.gov.uk,-2.15618600000000,GL20 5JZ,2013-04-11,fhrs_5_en-GB,5,,FHRS,0
312158,Parton House,Parton Road,Churchdown,Gloucester,Parton House Residential Home,Other catering premises,7841,10,,123635,10,,51.88445500000000,52025/1048/2/000,129,ehenquiries@tewkesbury.gov.uk,Tewkesbury,http://www.tewkesbury.gov.uk,-2.17179700000000,GL3 2JE,2014-04-28,fhrs_3_en-GB,3,,FHRS,10
312159,Catering,Parton Manor Junior School,Craven Drive,Churchdown,Parton Manor Infant And Junior School,School/college/university,7845,5,,29257,5,,,09/00066/COMM,129,ehenquiries@tewkesbury.gov.uk,Tewkesbury,http://www.tewkesbury.gov.uk,,,2012-07-10,fhrs_4_en-GB,4,,FHRS,10
312160,,,,,Party Buffet,Other catering premises,7841,5,,9939,0,,,04/00090/COMM,129,ehenquiries@tewkesbury.gov.uk,Tewkesbury,http://www.tewkesbury.gov.uk,,,2011-07-29,fhrs_5_en-GB,5,,FHRS,0
312161,Innsworth Community Hall,Rookery Road,Innsworth,Gloucester,Perfect Moments Innsworth Thursday Luncheon Club,Restaurant/Cafe/Canteen,1,5,,735191,5,,51.88594700000000,15/00006/COMM,129,ehenquiries@tewkesbury.gov.uk,Tewkesbury,http://www.tewkesbury.gov.uk,-2.21068300000000,GL3 1AU,2015-01-29,fhrs_5_en-GB,5,,FHRS,5
312162,13 Ashchurch Road,Tewkesbury,Gloucestershire,,Perform Fitness,Retailers - other,4613,10,,105075,10,,51.99593400000000,36001/1001/2/000,129,ehenquiries@tewkesbury.gov.uk,Tewkesbury,http://www.tewkesbury.gov.uk,-2.13575400000000,GL20 8DP,2012-08-21,fhrs_3_en-GB,3,,FHRS,10
312163,,,,,Pete's Little Cakery,Manufacturers/packers,7839,5,,610493,5,,,13/00104/COMM,129,ehenquiries@tewkesbury.gov.uk,Tewkesbury,http://www.tewkesbury.gov.uk,,,2013-11-14,fhrs_5_en-GB,5,,FHRS,5
312164,Sudeley House,High Street,Winchcombe,Cheltenham,Pilcher & Newman - Faily Butchers,Retailers - other,4613,5,,683179,5,,51.95331900000000,13/00103/COMM,129,ehenquiries@tewkesbury.gov.uk,Tewkesbury,http://www.tewkesbury.gov.uk,-1.96422900000000,GL54 5LJ,2014-07-09,fhrs_4_en-GB,4,,FHRS,10
312165,2 The Green,Bishops Cleeve,Cheltenham,Gloucestershire,Pilkingtons Butchers,Retailers - other,4613,10,,134583,5,,51.87954400000000,68065/0002/0/000,129,ehenquiries@tewkesbury.gov.uk,Tewkesbury,http://www.tewkesbury.gov.uk,-2.30227600000000,GL2 8DQ,2014-01-16,fhrs_4_en-GB,4,,FHRS,5
312166,Bird Road,Hucclecote,Gloucester,Gloucestershire,Pineholt Bowls Club,Other catering premises,7841,5,,128774,5,,51.85148300000000,59007/1005/2/000,129,ehenquiries@tewkesbury.gov.uk,Tewkesbury,http://www.tewkesbury.gov.uk,-2.17913400000000,GL3 3SN,2010-08-18,fhrs_5_en-GB,5,,FHRS,0
312167,Abbey Terrace,Winchcombe,Gloucestershire,,Plaisterers Arms,Pub/bar/nightclub,7843,10,,114851,10,,51.95269900000000,44001/1005/2/000,129,ehenquiries@tewkesbury.gov.uk,Tewkesbury,http://www.tewkesbury.gov.uk,-1.96529200000000,GL54 5LL,2014-04-24,fhrs_3_en-GB,3,,FHRS,10
312168,Unit 1d  Oldbury Buildings,Northway Lane,Newtown,Tewkesbury,Pollys Pantry,Other catering premises,7841,10,,134558,5,,51.99910700000000,68027/1016/I/000,129,ehenquiries@tewkesbury.gov.uk,Tewkesbury,http://www.tewkesbury.gov.uk,-2.13682700000000,GL20 8JG,2014-02-24,fhrs_4_en-GB,4,,FHRS,5
312169,Postlip,Winchcombe,Cheltenham,Gloucestershire,Postlip Hall Farm,Hotel/bed & breakfast/guest house,7842,5,,114945,5,,51.94072900000000,44040/1008/2/000,129,ehenquiries@tewkesbury.gov.uk,Tewkesbury,http://www.tewkesbury.gov.uk,-2.00102800000000,GL54 5AQ,2011-08-30,fhrs_5_en-GB,5,,FHRS,5
312170,31 - 32 High Street,Tewkesbury,Gloucestershire,,Poundland,Retailers - other,4613,5,,680370,5,,51.99497300000000,14/00056/COMM,129,ehenquiries@tewkesbury.gov.uk,Tewkesbury,http://www.tewkesbury.gov.uk,-2.15703000000000,GL20 5BB,2014-07-03,fhrs_5_en-GB,5,,FHRS,5
312171,Norton Garden Centre,Tewkesbury Road,Twigworth,Gloucester,Pours For Thought,Other catering premises,7841,5,,29621,5,,51.91036300000000,09/00096/COMM,129,ehenquiries@tewkesbury.gov.uk,Tewkesbury,http://www.tewkesbury.gov.uk,-2.21248400000000,GL2 9LH,2013-11-05,fhrs_4_en-GB,4,,FHRS,10
312172,,,,,Precious Gems Childcare Services,Hospitals/Childcare/Caring Premises,5,,,703809,,,,13/00102/COMM,129,ehenquiries@tewkesbury.gov.uk,Tewkesbury,http://www.tewkesbury.gov.uk,,,2014-09-10,fhrs_exempt_en-GB,Exempt,,FHRS,
312173,Mini Market,Usk Way,Brockworth,Gloucester,Premier Mini Market,Retailers - other,4613,10,,117784,10,,,47022/1001/2/000,129,ehenquiries@tewkesbury.gov.uk,Tewkesbury,http://www.tewkesbury.gov.uk,,,2014-03-05,fhrs_3_en-GB,3,,FHRS,5
312174,18 Ermin Street,Brockworth,Gloucester,Gloucestershire,Prickles Child Care,Hospitals/Childcare/Caring Premises,5,5,,516803,5,,51.84777200000000,13/00019/COMM,129,ehenquiries@tewkesbury.gov.uk,Tewkesbury,http://www.tewkesbury.gov.uk,-2.16577800000000,GL3 4HJ,2014-03-27,fhrs_4_en-GB,4,,FHRS,10
312175,A And A Fruit Farm,Shurdington Road,Brockworth,Gloucester,Primrose Vale Farmshop,Farmers/growers,7838,10,,118686,5,,51.84764400000000,48020/1021/2/000,129,ehenquiries@tewkesbury.gov.uk,Tewkesbury,http://www.tewkesbury.gov.uk,-2.14176300000000,,2014-06-04,fhrs_4_en-GB,4,,FHRS,5
312176,2 Church Street,Tewkesbury,Gloucestershire,,Pronto's,Other catering premises,7841,10,,25285,10,,51.99220300000000,08/00064/COMM,129,ehenquiries@tewkesbury.gov.uk,Tewkesbury,http://www.tewkesbury.gov.uk,-2.15754500000000,GL20 5PA,2013-01-29,fhrs_3_en-GB,3,,FHRS,10
312177,,,,,Pukka Tukka,Other catering premises,7841,5,,70879,5,,,16025/0009/0/000,129,ehenquiries@tewkesbury.gov.uk,Tewkesbury,http://www.tewkesbury.gov.uk,,,2011-08-17,fhrs_5_en-GB,5,,FHRS,5
312178,The Queens Arms,The Village,Ashleworth,Gloucester,Queens Arms,Pub/bar/nightclub,7843,10,,116819,5,,51.92865800000000,46018/1010/2/000,129,ehenquiries@tewkesbury.gov.uk,Tewkesbury,http://www.tewkesbury.gov.uk,-2.27423300000000,GL19 4HT,2012-06-28,fhrs_4_en-GB,4,,FHRS,5
312179,1 Culls Meadow,Evesham Road,Toddington,Cheltenham,R H Matthews,Retailers - other,4613,10,,108777,5,,51.99792400000000,39005/0001/0/000,129,ehenquiries@tewkesbury.gov.uk,Tewkesbury,http://www.tewkesbury.gov.uk,-1.96940900000000,GL54 5BZ,2013-08-23,fhrs_4_en-GB,4,,FHRS,5
312180,Unit 6,Green Lane,Newtown,Tewkesbury,Rachael's Ltd,Other catering premises,7841,,,29610,,,51.99902300000000,09/00095/COMM,129,ehenquiries@tewkesbury.gov.uk,Tewkesbury,http://www.tewkesbury.gov.uk,-2.13158300000000,GL20 8HD,2014-08-27,fhrs_5_en-GB,5,,FHRS,
312181,18 Hardwick Bank Road,Northway,Tewkesbury,Gloucestershire,Rainbow Corner Playgroup,Hospitals/Childcare/Caring Premises,5,5,,516799,5,,52.00859800000000,12/00129/COMM,129,ehenquiries@tewkesbury.gov.uk,Tewkesbury,http://www.tewkesbury.gov.uk,-2.11443500000000,GL20 8RP,2014-07-23,fhrs_5_en-GB,5,,FHRS,5
312182,121 High Street,Tewkesbury,Gloucestershire,,Raj Shahi Restaurant,Other catering premises,7841,5,,102487,5,,51.99424234000000,34009/0121/0/000,129,ehenquiries@tewkesbury.gov.uk,Tewkesbury,http://www.tewkesbury.gov.uk,-2.15695312000000,,2014-04-24,fhrs_5_en-GB,5,,FHRS,5
312183,Unit A2,Formal Industrial Park,Northway Lane,Northway,Regency Hampers Ltd,Retailers - other,4613,5,,644290,5,,52.00011900000000,14/00040/COMM,129,ehenquiries@tewkesbury.gov.uk,Tewkesbury,http://www.tewkesbury.gov.uk,-2.11518500000000,GL20 8GY,2014-04-16,fhrs_5_en-GB,5,,FHRS,5
312184,73 Ermin Street,Brockworth,Gloucester,Gloucestershire,Ridgemount Cottage Nursery School,Other catering premises,7841,5,,118657,5,,51.84589400000000,48002/0073/0/000,129,ehenquiries@tewkesbury.gov.uk,Tewkesbury,http://www.tewkesbury.gov.uk,-2.15860000000000,GL3 4EH,2014-01-30,fhrs_5_en-GB,5,,FHRS,5
312185,,,,,Ripley's Hot Food  A417 Layby Between Over And Maisemore,Mobile caterer,7846,20,,134627,10,,,68119/0046/2/000,129,ehenquiries@tewkesbury.gov.uk,Tewkesbury,http://www.tewkesbury.gov.uk,,,2014-12-11,fhrs_1_en-GB,1,,FHRS,10
312186,Street Record,Delta Drive,Tewkesbury,Gloucestershire,Roosters Kebab,Mobile caterer,7846,5,,716338,5,,,14/00077/COMM,129,ehenquiries@tewkesbury.gov.uk,Tewkesbury,http://www.tewkesbury.gov.uk,,,2014-11-13,fhrs_5_en-GB,5,,FHRS,5
312187,The Jubilee Centre,York Road,Tewkesbury,Gloucestershire,Roses Theatre Take Part,Hospitals/Childcare/Caring Premises,5,10,,604999,10,,51.98362800000000,13/00097/COMM,129,ehenquiries@tewkesbury.gov.uk,Tewkesbury,http://www.tewkesbury.gov.uk,-2.15559200000000,GL20 5HU,2013-10-21,fhrs_3_en-GB,3,,FHRS,10
312188,British Legion Club,50 Church Street,Tewkesbury,Gloucestershire,Royal British Legion,Other catering premises,7841,5,,103797,0,,51.99115600000000,35015/1031/2/000,129,ehenquiries@tewkesbury.gov.uk,Tewkesbury,http://www.tewkesbury.gov.uk,-2.16049700000000,GL20 5SN,2012-01-11,fhrs_5_en-GB,5,,FHRS,5
312189,Church Road,Bishops Cleeve,Cheltenham,Gloucestershire,Royal Oak,Pub/bar/nightclub,7843,5,,27402,5,,51.94746500000000,08009/1002/2/000,129,ehenquiries@tewkesbury.gov.uk,Tewkesbury,http://www.tewkesbury.gov.uk,-2.06070900000000,GL52 8LR,2013-07-18,fhrs_4_en-GB,4,,FHRS,10
312190,Unit 63,Basepoint Business Centre,Oakfield Close,Tewkesbury Business Park,Rumbles Snack Bar,Other catering premises,7841,10,,582619,5,,52.00249800000000,13/00064/COMM,129,ehenquiries@tewkesbury.gov.uk,Tewkesbury,http://www.tewkesbury.gov.uk,-2.12755800000000,GL20 8SD,2013-08-15,fhrs_4_en-GB,4,,FHRS,5
312191,,,,,Sacred Springs Water Company,Manufacturers/packers,7839,5,,590993,0,,,13/00070/COMM,129,ehenquiries@tewkesbury.gov.uk,Tewkesbury,http://www.tewkesbury.gov.uk,,,2013-09-26,fhrs_5_en-GB,5,,FHRS,5
312192,Staddlestones Bar & Tandoori Restau,Station Road,Woodmancote,Cheltenham,Saffron Lounge,Other catering premises,7841,10,,115854,15,,51.94821700000000,45025/1049/2/000,129,ehenquiries@tewkesbury.gov.uk,Tewkesbury,http://www.tewkesbury.gov.uk,-2.04892500000000,GL52 9JG,2014-02-28,fhrs_2_en-GB,2,,FHRS,10
312193,66A Church Street,Tewkesbury,Gloucestershire,,Salerno,Other catering premises,7841,5,,666972,5,,51.99114600000000,14/00019/COMM,129,ehenquiries@tewkesbury.gov.uk,Tewkesbury,http://www.tewkesbury.gov.uk,-2.16112300000000,GL20 5RZ,2014-05-22,fhrs_4_en-GB,4,,FHRS,10
312194,,,,,Sandersons Puddings,Manufacturers/packers,7839,5,,333330,5,,,12/00003/COMM,129,ehenquiries@tewkesbury.gov.uk,Tewkesbury,http://www.tewkesbury.gov.uk,,,2012-02-22,fhrs_5_en-GB,5,,FHRS,5
312195,Village Hall,Sandhurst Lane,Sandhurst,Gloucester,Sandhurst Village Hall,Other catering premises,7841,5,,132831,5,,51.90750000000000,65008/1062/2/000,129,ehenquiries@tewkesbury.gov.uk,Tewkesbury,http://www.tewkesbury.gov.uk,-2.25084600000000,GL2 9NP,2010-03-11,fhrs_4_en-GB,4,,FHRS,10
312196,36 High Street,Tewkesbury,Glos.,,Savers Health & Beauty Products,Retailers - other,4613,,,102475,,,51.99454351000000,34009/0036/0/000,129,ehenquiries@tewkesbury.gov.uk,Tewkesbury,http://www.tewkesbury.gov.uk,-2.15680724000000,,2008-09-30,fhrs_exempt_en-GB,Exempt,,FHRS,
312197,,,,,Scrumpdelicious,Other catering premises,7841,5,,370643,5,,,12/00029/COMM,129,ehenquiries@tewkesbury.gov.uk,Tewkesbury,http://www.tewkesbury.gov.uk,,,2012-04-19,fhrs_5_en-GB,5,,FHRS,5
312198,,,,,SE + JA Royle,Other catering premises,7841,5,,21390,5,,,07/00016/COMM,129,ehenquiries@tewkesbury.gov.uk,Tewkesbury,http://www.tewkesbury.gov.uk,,,2007-11-12,fhrs_5_en-GB,5,,FHRS,5
312199,Down Hatherley Village Hall,Down Hatherley Lane,Down Hatherley,Gloucester,Senior Citizens Luncheon Club,Other catering premises,7841,5,,126151,5,,51.90163100000000,55004/1037/2/000,129,ehenquiries@tewkesbury.gov.uk,Tewkesbury,http://www.tewkesbury.gov.uk,-2.19503800000000,,2014-02-27,fhrs_5_en-GB,5,,FHRS,5
312200,,,,,Seren-dipity Cupcakes,Other catering premises,7841,5,,666971,5,,,14/00017/COMM,129,ehenquiries@tewkesbury.gov.uk,Tewkesbury,http://www.tewkesbury.gov.uk,,,2014-05-25,fhrs_5_en-GB,5,,FHRS,5
312201,WRVS Club,Shipway Court,Bishops Cleeve,Cheltenham,Severn Vale Housing,Other catering premises,7841,5,,27503,5,,,08073/0000/2/000,129,ehenquiries@tewkesbury.gov.uk,Tewkesbury,http://www.tewkesbury.gov.uk,,,2008-04-07,fhrs_5_en-GB,5,,FHRS,5
312202,,,,,Sharples Preserves,Manufacturers/packers,7839,10,,45974,5,,,11/00039/COMM,129,ehenquiries@tewkesbury.gov.uk,Tewkesbury,http://www.tewkesbury.gov.uk,,,2013-06-24,fhrs_4_en-GB,4,,FHRS,5
312203,Shell Crosshands Garage,Cirencester Road,Brockworth,Gloucester,Shell Cross Hands Service Station,Retailers - other,4613,0,,121291,5,,51.84201300000000,50013/1007/2/000,129,ehenquiries@tewkesbury.gov.uk,Tewkesbury,http://www.tewkesbury.gov.uk,-2.14907900000000,GL3 4PL,2013-01-24,fhrs_5_en-GB,5,,FHRS,0
312204,Tredington,Tewkesbury,Gloucestershire,,Sherdons Golf Centre,Retailers - other,4613,5,,98419,5,,51.96376800537109,31009/1026/2/000,129,ehenquiries@tewkesbury.gov.uk,Tewkesbury,http://www.tewkesbury.gov.uk,-2.14111471176147,GL20 7BP,2014-06-17,fhrs_5_en-GB,5,,FHRS,5
312205,Shurdington Primary School,Badgeworth Lane,Shurdington,Cheltenham,Shurdington C Of E Primary School,School/college/university,7845,5,,29010,5,,51.86256700000000,09/00045/COMM,129,ehenquiries@tewkesbury.gov.uk,Tewkesbury,http://www.tewkesbury.gov.uk,-2.12543300000000,GL51 4UQ,2014-04-30,fhrs_5_en-GB,5,,FHRS,5
312206,Yarnolds,Shurdington,Cheltenham,Gloucestershire,Shurdington Post Office & Stores,Retailers - other,4613,5,,86524,0,,51.86583900000000,22023/0002/0/000,129,ehenquiries@tewkesbury.gov.uk,Tewkesbury,http://www.tewkesbury.gov.uk,-2.11758600000000,GL51 4SH,2007-10-23,fhrs_5_en-GB,5,,FHRS,0
312207,Shurdington Social Centre,Bishop Road,Shurdington,Cheltenham,Shurdington Pre-School,Hospitals/Childcare/Caring Premises,5,5,,720376,5,,51.86619900000000,14/00100/COMM,129,ehenquiries@tewkesbury.gov.uk,Tewkesbury,http://www.tewkesbury.gov.uk,-2.11674400000000,GL51 4TB,2014-11-24,fhrs_5_en-GB,5,,FHRS,5
312208,Bishop Road,Shurdington,Cheltenham,Gloucestershire,Shurdington Social Centre,Other catering premises,7841,5,,86464,5,,51.86619900000000,22001/1000/0/000,129,ehenquiries@tewkesbury.gov.uk,Tewkesbury,http://www.tewkesbury.gov.uk,-2.11674400000000,GL51 4TB,2009-01-07,fhrs_4_en-GB,4,,FHRS,10
312209,The Pavillion King George V Playing,Main Road,Shurdington,Cheltenham,Shurdington Sports Club,Other catering premises,7841,10,,86505,5,,,22019/1101/2/000,129,ehenquiries@tewkesbury.gov.uk,Tewkesbury,http://www.tewkesbury.gov.uk,,,2012-07-26,fhrs_3_en-GB,3,,FHRS,10
312210,3 Church Road,Bishops Cleeve,Cheltenham,Gloucestershire,Sings Kitchen Chinese Takeaway,Takeaway/sandwich shop,7844,10,,505485,15,,51.94746500000000,12/00043/COMM,129,ehenquiries@tewkesbury.gov.uk,Tewkesbury,http://www.tewkesbury.gov.uk,-2.06070900000000,GL52 8LR,2014-01-16,fhrs_2_en-GB,2,,FHRS,5
312211,1 Conigree Lane,Tewkesbury,Gloucestershire,,Skallywags Day Nursery,Other catering premises,7841,10,,636592,5,,51.98418500000000,14/00022/COMM,129,ehenquiries@tewkesbury.gov.uk,Tewkesbury,http://www.tewkesbury.gov.uk,-2.15626400000000,GL20 5TF,2014-02-26,fhrs_4_en-GB,4,,FHRS,5
312212,Orchard Trading Estate,Toddington,Cheltenham,Gloucestershire,Slice Of Life,Other catering premises,7841,10,,134581,5,,51.99316700000000,68063/0001/2/000,129,ehenquiries@tewkesbury.gov.uk,Tewkesbury,http://www.tewkesbury.gov.uk,-1.96619300000000,GL54 5EB,2012-05-24,fhrs_4_en-GB,4,,FHRS,5
312213,Churchdown Parish Council Offices,Parton Road,Churchdown,Gloucester,Slightly Coffee,Restaurant/Cafe/Canteen,1,10,,571245,5,,51.88239600000000,13/00058/COMM,129,ehenquiries@tewkesbury.gov.uk,Tewkesbury,http://www.tewkesbury.gov.uk,-2.17168800000000,GL3 2JH,2013-06-19,fhrs_4_en-GB,4,,FHRS,5
312214,Snowshill,Broadway,Worcestershire,,Snowshill Arms,Pub/bar/nightclub,7843,5,,91042,5,,52.00214385986328,25009/1038/2/000,129,ehenquiries@tewkesbury.gov.uk,Tewkesbury,http://www.tewkesbury.gov.uk,-1.86089766025543,WR12 7JU,2014-04-16,fhrs_5_en-GB,5,,FHRS,5
312215,Snowshill Hill,Snowshill,Broadway,Worcs,Snowshill Hill Farm,Hotel/bed & breakfast/guest house,7842,5,,91040,5,,52.04041000000000,25008/1010/2/000,129,ehenquiries@tewkesbury.gov.uk,Tewkesbury,http://www.tewkesbury.gov.uk,-1.85579000000000,,2012-05-04,fhrs_5_en-GB,5,,FHRS,5
312216,Hill Barn Farm,Snowshill,Broadway,Worcestershire,Snowshill Lavender,Other catering premises,7841,5,,33314,0,,52.00451700000000,10/00037/COMM,129,ehenquiries@tewkesbury.gov.uk,Tewkesbury,http://www.tewkesbury.gov.uk,-1.84611900000000,WR12 7JY,2012-08-23,fhrs_5_en-GB,5,,FHRS,0
312217,Pipers Grove,Snowshill Road,Broadway,Worcestershire,Snowshill Manor Restaurant - National Trust,Other catering premises,7841,5,,91041,5,,52.00901900000000,25009/1032/2/000,129,ehenquiries@tewkesbury.gov.uk,Tewkesbury,http://www.tewkesbury.gov.uk,-1.85848700000000,WR12 7JT,2014-07-16,fhrs_5_en-GB,5,,FHRS,5
312218,Snowshill,Broadway,Worcestershire,,Snowshill Village Hall,Other catering premises,7841,5,,91043,5,,52.00214385986328,25009/1053/2/000,129,ehenquiries@tewkesbury.gov.uk,Tewkesbury,http://www.tewkesbury.gov.uk,-1.86089766025543,WR12 7JU,2009-01-09,fhrs_4_en-GB,4,,FHRS,10
312219,,,,,So Cupcakes,Other catering premises,7841,5,,590996,5,,,13/00086/COMM,129,ehenquiries@tewkesbury.gov.uk,Tewkesbury,http://www.tewkesbury.gov.uk,,,2013-09-25,fhrs_5_en-GB,5,,FHRS,5
312220,G E Aviation Systems Ltd,Cheltenham Road,Bishops Cleeve,Cheltenham,Sodexo,Other catering premises,7841,0,,27417,5,,51.93615100000000,08018/1005/3/001,129,ehenquiries@tewkesbury.gov.uk,Tewkesbury,http://www.tewkesbury.gov.uk,-2.06629400000000,GL52 8SF,2012-10-16,fhrs_5_en-GB,5,,FHRS,0
312221,Propellers And Catering,Dowty Aerospace,Cheltenham Road East,Churchdown,Sodexo At Dowty Aerospace Propellers,Other catering premises,7841,5,,123601,0,,,52003/1020/2/001,129,ehenquiries@tewkesbury.gov.uk,Tewkesbury,http://www.tewkesbury.gov.uk,,,2012-07-26,fhrs_5_en-GB,5,,FHRS,5
312222,The Grange,Bishops Cleeve Bypass,Bishops Cleeve,Cheltenham,Sodexo Limited,Restaurant/Cafe/Canteen,1,5,,637199,5,,,14/00015/COMM,129,ehenquiries@tewkesbury.gov.uk,Tewkesbury,http://www.tewkesbury.gov.uk,,,2014-02-27,fhrs_5_en-GB,5,,FHRS,5
312223,School Lane,Southam,Cheltenham,Gloucestershire,Southam Village Hall,Other catering premises,7841,5,,92427,5,,,26021/1003/2/000,129,ehenquiries@tewkesbury.gov.uk,Tewkesbury,http://www.tewkesbury.gov.uk,,,2004-02-02,fhrs_5_en-GB,5,,FHRS,5
312224,Ashchurch Primary School,Ashchurch Road,Tewkesbury,Gloucestershire,Sparkies Before And After School Club,Retailers - other,4613,5,,105078,5,,51.99295043945310,36001/1008/2/002,129,ehenquiries@tewkesbury.gov.uk,Tewkesbury,http://www.tewkesbury.gov.uk,-2.14946007728577,,2010-05-05,fhrs_5_en-GB,5,,FHRS,5
312225,Balti Night Tandoori,Moorfield Road,Brockworth,Gloucester,Spicemaster,Other catering premises,7841,5,,118673,5,,51.84682400000000,48014/1002/2/000,129,ehenquiries@tewkesbury.gov.uk,Tewkesbury,http://www.tewkesbury.gov.uk,-2.15678000000000,,2014-04-23,fhrs_4_en-GB,4,,FHRS,10
312226,29 Barton Street,Tewkesbury,Gloucestershire,,Spicy Life,Other catering premises,7841,10,,103774,5,,51.99298900000000,35012/0029/0/000,129,ehenquiries@tewkesbury.gov.uk,Tewkesbury,http://www.tewkesbury.gov.uk,-2.15444500000000,GL20 5PR,2013-04-08,fhrs_4_en-GB,4,,FHRS,5
312227,,,,,Spongecakes Suzebakes,Other catering premises,7841,5,,644282,5,,,14/00025/COMM,129,ehenquiries@tewkesbury.gov.uk,Tewkesbury,http://www.tewkesbury.gov.uk,,,2014-04-22,fhrs_5_en-GB,5,,FHRS,5
312228,,,,,Spongecakes Suzebakes,Retailers - other,4613,5,,428798,5,,,12/00054/COMM,129,ehenquiries@tewkesbury.gov.uk,Tewkesbury,http://www.tewkesbury.gov.uk,,,2012-06-26,fhrs_5_en-GB,5,,FHRS,5
312229,Rontec Pirton Corner Service Statio,Cheltenham Road East,Churchdown,Gloucester,Sri Thurka Service Station,Retailers - other,4613,10,,621497,5,,51.88771900000000,13/00080/COMM,129,ehenquiries@tewkesbury.gov.uk,Tewkesbury,http://www.tewkesbury.gov.uk,-2.18369500000000,GL3 2AD,2013-12-13,fhrs_4_en-GB,4,,FHRS,5
312230,Station Road,Churchdown,Gloucestershire,,St Andrews Church Hall,Other catering premises,7841,5,,125551,5,,51.87797600000000,54026/1042/2/000,129,ehenquiries@tewkesbury.gov.uk,Tewkesbury,http://www.tewkesbury.gov.uk,-2.16962300000000,GL3 2JT,2011-11-17,fhrs_5_en-GB,5,,FHRS,0
312231,Parton Road,Churchdown,Gloucester,Gloucestershire,St Johns Church Hall,Other catering premises,7841,5,,123634,5,,51.88412400000000,52025/1047/2/000,129,ehenquiries@tewkesbury.gov.uk,Tewkesbury,http://www.tewkesbury.gov.uk,-2.17222100000000,,2013-09-03,fhrs_5_en-GB,5,,FHRS,5
312232,Catering,St Marys School,Cheltenham Road East,Churchdown,St Marys Catholic School,School/college/university,7845,0,,29279,0,,51.88618000000000,09/00068/COMM,129,ehenquiries@tewkesbury.gov.uk,Tewkesbury,http://www.tewkesbury.gov.uk,-2.19046000000000,GL3 1HU,2014-11-27,fhrs_5_en-GB,5,,FHRS,5
312233,School Road,Bishops Cleeve,Cheltenham,Glos.,St Michael's Church Hall,Other catering premises,7841,10,,27468,5,,51.94805500000000,08051/1002/2/000,129,ehenquiries@tewkesbury.gov.uk,Tewkesbury,http://www.tewkesbury.gov.uk,-2.05790800000000,,2013-10-09,fhrs_4_en-GB,4,,FHRS,5
312234,Former Infants School,Gloucester Street,Winchcombe,Gloucestershire,St Peters Centre,Other catering premises,7841,0,,114888,5,,51.95210800000000,44021/1101/2/000,129,ehenquiries@tewkesbury.gov.uk,Tewkesbury,http://www.tewkesbury.gov.uk,-1.97043400000000,,2009-01-06,fhrs_5_en-GB,5,,FHRS,5
312235,,,,,St Peter's Church Social Committee,Other catering premises,7841,5,,194331,0,,,11/00068/COMM,129,ehenquiries@tewkesbury.gov.uk,Tewkesbury,http://www.tewkesbury.gov.uk,,,2012-01-17,fhrs_5_en-GB,5,,FHRS,5
312236,Stanton,Tewkesbury,Gloucestershire,,Stanton Guildhouse Trust,Retailers - other,4613,0,,95025,5,,51.99295043945310,28009/1008/2/000,129,ehenquiries@tewkesbury.gov.uk,Tewkesbury,http://www.tewkesbury.gov.uk,-2.14946007728577,WR11 9SN,2008-06-05,fhrs_5_en-GB,5,,FHRS,0
312237,Stanway Road,Stanton,Gloucestershire,,Stanton Social Club,Other catering premises,7841,10,,95036,10,,52.00573700000000,28010/1017/2/000,129,ehenquiries@tewkesbury.gov.uk,Tewkesbury,http://www.tewkesbury.gov.uk,-1.90298800000000,WR12 7NQ,2013-06-25,fhrs_3_en-GB,3,,FHRS,10
312238,Stanway House,Broadway Road,Stanway,Cheltenham,Stanway Mill,Manufacturers/packers,7839,5,,45863,0,,51.98966900000000,11/00032/COMM,129,ehenquiries@tewkesbury.gov.uk,Tewkesbury,http://www.tewkesbury.gov.uk,-1.91237200000000,GL54 5PQ,2011-06-19,fhrs_5_en-GB,5,,FHRS,5
312239,,,,,Stepping Stones Twyning,Hospitals/Childcare/Caring Premises,5,5,,636589,5,,,13/00111/COMM,129,ehenquiries@tewkesbury.gov.uk,Tewkesbury,http://www.tewkesbury.gov.uk,,,2014-02-03,fhrs_5_en-GB,5,,FHRS,5
312240,,,,,Stevie's Cake Toppers,Manufacturers/packers,7839,5,,610492,5,,,13/00101/COMM,129,ehenquiries@tewkesbury.gov.uk,Tewkesbury,http://www.tewkesbury.gov.uk,,,2013-10-30,fhrs_5_en-GB,5,,FHRS,0
312241,,,,,Subs Your Way,Mobile caterer,7846,5,,410594,5,,,12/00059/COMM,129,ehenquiries@tewkesbury.gov.uk,Tewkesbury,http://www.tewkesbury.gov.uk,,,2014-08-11,fhrs_5_en-GB,5,,FHRS,5
312242,Unit 2,Armstrong House,Whittle Way,Gloucester Business Park,Subway,Takeaway/sandwich shop,7844,5,,696580,10,,51.84828600000000,14/00053/COMM,129,ehenquiries@tewkesbury.gov.uk,Tewkesbury,http://www.tewkesbury.gov.uk,-2.17096300000000,GL3 4BJ,2014-08-07,fhrs_4_en-GB,4,,FHRS,5
312243,Unit 2 Crosshands Roundabout,Shurdington Road,Brockworth,Gloucester,Subway,Takeaway/sandwich shop,7844,,,637197,,,51.84806500000000,13/00109/COMM,129,ehenquiries@tewkesbury.gov.uk,Tewkesbury,http://www.tewkesbury.gov.uk,-2.14088200000000,GL3 4PX,2014-06-13,fhrs_4_en-GB,4,,FHRS,
312244,46 High Street,Tewkesbury,Gloucestershire,,Subway Sandwiches,Other catering premises,7841,10,,24998,10,,51.99553100000000,08/00034/COMM,129,ehenquiries@tewkesbury.gov.uk,Tewkesbury,http://www.tewkesbury.gov.uk,-2.15649300000000,GL20 5BH,2013-11-26,fhrs_3_en-GB,3,,FHRS,10
312245,Sudeley Mill,Castle Street,Winchcombe,Gloucestershire,Sudeley Hall,Other catering premises,7841,0,,114869,0,,51.95264200000000,44010/1015/3/000,129,ehenquiries@tewkesbury.gov.uk,Tewkesbury,http://www.tewkesbury.gov.uk,-1.96304400000000,,2009-01-07,fhrs_5_en-GB,5,,FHRS,5
312246,Sudeley Hill Farm,Sudeley Road,Winchcombe,Cheltenham,Sudeley Hill Farm (Farm Shop),Retailers - other,4613,10,,114949,10,,51.94677600000000,44047/1006/2/000,129,ehenquiries@tewkesbury.gov.uk,Tewkesbury,http://www.tewkesbury.gov.uk,-1.94539400000000,GL54 5JB,2014-01-29,fhrs_2_en-GB,2,,FHRS,15
312247,Unit 1,Overton Farm,Main Road,Maisemore,Sweet Dreams Day Nursery,Hospitals/Childcare/Caring Premises,5,5,,703813,10,,51.89982300000000,14/00072/COMM,129,ehenquiries@tewkesbury.gov.uk,Tewkesbury,http://www.tewkesbury.gov.uk,-2.28940500000000,GL2 8HR,2014-08-11,fhrs_3_en-GB,3,,FHRS,10
312248,,,,,Sweetie Pots,Manufacturers/packers,7839,10,,333340,5,,,12/00023/COMM,129,ehenquiries@tewkesbury.gov.uk,Tewkesbury,http://www.tewkesbury.gov.uk,,,2012-03-23,fhrs_3_en-GB,3,,FHRS,10
312249,44 High Street,Tewkesbury,Gloucestershire,,Sweets And Treats,Retailers - other,4613,5,,102478,5,,51.99553100000000,34009/0044/0/000,129,ehenquiries@tewkesbury.gov.uk,Tewkesbury,http://www.tewkesbury.gov.uk,-2.15649300000000,GL20 5BH,2011-06-24,fhrs_4_en-GB,4,,FHRS,10
312250,11 Church Road,Bishops Cleeve,Cheltenham,Gloucestershire,Taj-Mahal Balti House,Other catering premises,7841,10,,27395,5,,51.94746500000000,08009/0011/0/000,129,ehenquiries@tewkesbury.gov.uk,Tewkesbury,http://www.tewkesbury.gov.uk,-2.06070900000000,GL52 8LR,2014-01-16,fhrs_3_en-GB,3,,FHRS,10
312251,20 Beckford Road,Alderton,Tewkesbury,Gloucestershire,Tally Ho B & B,Hotel/bed & breakfast/guest house,7842,5,,17729,5,,51.99851200000000,06/00025/COMM,129,ehenquiries@tewkesbury.gov.uk,Tewkesbury,http://www.tewkesbury.gov.uk,-2.00186000000000,GL20 8NL,2013-03-19,fhrs_5_en-GB,5,,FHRS,5
312252,154 High Street,Tewkesbury,Gloucestershire,,Tasty Bites Sandwich Shop,Takeaway/sandwich shop,7844,5,,633495,5,,51.99288600000000,13/00098/COMM,129,ehenquiries@tewkesbury.gov.uk,Tewkesbury,http://www.tewkesbury.gov.uk,-2.15738700000000,GL20 5JP,2014-01-15,fhrs_5_en-GB,5,,FHRS,5
312253,,,,,Tastythai,Mobile caterer,7846,10,,623447,5,,,13/00065/COMM,129,ehenquiries@tewkesbury.gov.uk,Tewkesbury,http://www.tewkesbury.gov.uk,,,2014-01-10,fhrs_4_en-GB,4,,FHRS,5
312254,Evesham Road,Teddington,Tewkesbury,Gloucestershire,Teddington Hands Inns,Pub/bar/nightclub,7843,10,,101258,5,,52.00269100000000,33003/1001/2/000,129,ehenquiries@tewkesbury.gov.uk,Tewkesbury,http://www.tewkesbury.gov.uk,-2.04929100000000,GL20 8NF,2013-07-30,fhrs_4_en-GB,4,,FHRS,5
312255,Teddington,Tewkesbury,Gloucestershire,,Teddington Village Hall,Other catering premises,7841,10,,101271,5,,51.99624252319340,33010/1066/2/000,129,ehenquiries@tewkesbury.gov.uk,Tewkesbury,http://www.tewkesbury.gov.uk,-2.05247330665588,GL20 8JA,2011-05-27,fhrs_4_en-GB,4,,FHRS,5
312256,Church Road,Bishops Cleeve,Cheltenham,Gloucestershire,Tesco,Retailers - other,4613,5,,27403,5,,51.94247900000000,08009/1119/2/000,129,ehenquiries@tewkesbury.gov.uk,Tewkesbury,http://www.tewkesbury.gov.uk,-2.05552800000000,GL52 4LR,2013-09-06,fhrs_5_en-GB,5,,FHRS,5
312257,Hurrans Garden Centre,Cheltenham Road East,Churchdown,Gloucester,Tesco,Retailers - supermarkets/hypermarkets,7840,10,,621499,5,,,13/00093/COMM,129,ehenquiries@tewkesbury.gov.uk,Tewkesbury,http://www.tewkesbury.gov.uk,,,2013-12-13,fhrs_4_en-GB,4,,FHRS,5
312258,Tesco,Gloucester Business Park,Brockworth,Gloucester,Tesco Brockworth - Staff Canteen,Restaurant/Cafe/Canteen,1,5,,34466,5,,51.84926600000000,10/00120/COMM,129,ehenquiries@tewkesbury.gov.uk,Tewkesbury,http://www.tewkesbury.gov.uk,-2.17725200000000,GL3 4AA,2014-04-09,fhrs_4_en-GB,4,,FHRS,10
312259,Tesco Stores Ltd,Bishops Walk,Tewkesbury,Gloucestershire,Tesco Metro,Retailers - other,4613,5,,134576,5,,51.99686400000000,68060/0001/2/000,129,ehenquiries@tewkesbury.gov.uk,Tewkesbury,http://www.tewkesbury.gov.uk,-2.15434200000000,GL20 5LS,2015-01-27,fhrs_5_en-GB,5,,FHRS,5
312260,Tesco,Gloucester Business Park,Brockworth,Gloucester,Tesco Stores Ltd,Retailers - other,4613,0,,21281,5,,51.84926600000000,07/00005/COMM,129,ehenquiries@tewkesbury.gov.uk,Tewkesbury,http://www.tewkesbury.gov.uk,-2.17725200000000,GL3 4AA,2013-06-10,fhrs_5_en-GB,5,,FHRS,0
312261,Tewkesbury Baptist Church,Station Road,Tewkesbury,Glos,Tewkesbury Baptist Church,Other catering premises,7841,10,,134659,5,,,68158/1006/2/000,129,ehenquiries@tewkesbury.gov.uk,Tewkesbury,http://www.tewkesbury.gov.uk,,,2009-01-14,fhrs_4_en-GB,4,,FHRS,5
312262,Gander Lane,Tewkesbury,Gloucestershire,,Tewkesbury Bowling Club,Other catering premises,7841,5,,103831,5,,51.99062800000000,35049/1006/2/000,129,ehenquiries@tewkesbury.gov.uk,Tewkesbury,http://www.tewkesbury.gov.uk,-2.15823800000000,GL20 5PG,2012-08-21,fhrs_5_en-GB,5,,FHRS,5
312263,Chance Street,Tewkesbury,Gloucestershire,,Tewkesbury C Of E Primary School,School/college/university,7845,5,,103781,5,,51.99389900000000,35013/1005/2/000,129,ehenquiries@tewkesbury.gov.uk,Tewkesbury,http://www.tewkesbury.gov.uk,-2.15286100000000,GL20 5RQ,2014-07-09,fhrs_5_en-GB,5,,FHRS,5
312264,Oldbury Road,Tewkesbury,Gloucestershire,,Tewkesbury Community Fire And Rescue Station,Other catering premises,7841,0,,102515,5,,51.99655000000000,34018/1014/2/000,129,ehenquiries@tewkesbury.gov.uk,Tewkesbury,http://www.tewkesbury.gov.uk,-2.15402100000000,GL20 5LJ,2009-11-05,fhrs_5_en-GB,5,,FHRS,5
312265,Tewkesbury Hospital,Barton Road,Tewkesbury,Gloucestershire,Tewkesbury Community Hospital,Restaurant/Cafe/Canteen,1,,,615623,,,,13/00077/COMM,129,ehenquiries@tewkesbury.gov.uk,Tewkesbury,http://www.tewkesbury.gov.uk,,GL20 5GJ,2015-01-09,fhrs_5_en-GB,5,,FHRS,
312266,Swilgate Ground,Gander Lane,Tewkesbury,Gloucestershire,Tewkesbury Cricket Club,Other catering premises,7841,5,,103830,5,,51.99179900000000,35049/1003/2/000,129,ehenquiries@tewkesbury.gov.uk,Tewkesbury,http://www.tewkesbury.gov.uk,-2.15661100000000,GL20 5PQ,2012-08-20,fhrs_5_en-GB,5,,FHRS,5
312267,Bredon Road,Tewkesbury,Gloucestershire,,Tewkesbury Cruising & Sailing Club,Other catering premises,7841,5,,102464,5,,52.00161700000000,34004/1012/2/000,129,ehenquiries@tewkesbury.gov.uk,Tewkesbury,http://www.tewkesbury.gov.uk,-2.14743400000000,,2012-12-06,fhrs_5_en-GB,5,,FHRS,5
312268,,,,,Tewkesbury Cupcakes,Manufacturers/packers,7839,5,,703811,5,,,14/00068/COMM,129,ehenquiries@tewkesbury.gov.uk,Tewkesbury,http://www.tewkesbury.gov.uk,,,2014-08-13,fhrs_5_en-GB,5,,FHRS,5
312269,150 High Street,Tewkesbury,Gloucestershire,,Tewkesbury Food Bank,Distributors/Transporters,7,5,,542549,5,,51.99288600000000,13/00024/COMM,129,ehenquiries@tewkesbury.gov.uk,Tewkesbury,http://www.tewkesbury.gov.uk,-2.15738700000000,GL20 5JP,2013-04-30,fhrs_5_en-GB,5,,FHRS,5
312270,6 Columbine Road,Walton Cardiff,Tewkesbury,Gloucestershire,Tewkesbury Fryer,Takeaway/sandwich shop,7844,5,,45545,5,,51.97994100000000,11/00013/COMM,129,ehenquiries@tewkesbury.gov.uk,Tewkesbury,http://www.tewkesbury.gov.uk,-2.14180600000000,GL20 7SP,2014-07-10,fhrs_5_en-GB,5,,FHRS,5
312271,Mythe Road,Tewkesbury,Glos.,,Tewkesbury Garden Centre,Other catering premises,7841,10,,107549,5,,51.99952200000000,38019/1019/2/000,129,ehenquiries@tewkesbury.gov.uk,Tewkesbury,http://www.tewkesbury.gov.uk,-2.15864600000000,,2014-01-09,fhrs_4_en-GB,4,,FHRS,0
312272,Elizabeth Wyatt House,Barton Road,Tewkesbury,Gloucestershire,Tewkesbury Lunch Club,Other catering premises,7841,10,,103764,5,,51.99296300000000,35006/1005/2/000,129,ehenquiries@tewkesbury.gov.uk,Tewkesbury,http://www.tewkesbury.gov.uk,-2.15060700000000,,2014-09-03,fhrs_3_en-GB,3,,FHRS,10
312273,Lincoln Green Lane,Tewkesbury,Gloucestershire,,Tewkesbury Park Golf And Country Club,Hotel/bed & breakfast/guest house,7842,10,,670076,10,,51.97909700000000,14/00043/COMM,129,ehenquiries@tewkesbury.gov.uk,Tewkesbury,http://www.tewkesbury.gov.uk,-2.16201200000000,GL20 7DN,2014-06-05,fhrs_3_en-GB,3,,FHRS,10
312274,Tewkesbury Rugby Club,Gander Lane,Tewkesbury,Gloucestershire,Tewkesbury RFC,Other catering premises,7841,5,,134590,10,,51.99062800000000,68072/1001/2/000,129,ehenquiries@tewkesbury.gov.uk,Tewkesbury,http://www.tewkesbury.gov.uk,-2.15823800000000,GL20 5PG,2014-11-21,fhrs_4_en-GB,4,,FHRS,5
312275,George Watson Memorial Hall,Barton Street,Tewkesbury,Gloucestershire,Tewkesbury Town Council,Other catering premises,7841,5,,103779,5,,51.99267400000000,35012/1010/2/000,129,ehenquiries@tewkesbury.gov.uk,Tewkesbury,http://www.tewkesbury.gov.uk,-2.15498300000000,GL20 5PX,2011-12-12,fhrs_5_en-GB,5,,FHRS,5
312276,,,,,Tewkesbury Tykes,Hospitals/Childcare/Caring Premises,5,5,,716336,5,,,14/00011/COMM,129,ehenquiries@tewkesbury.gov.uk,Tewkesbury,http://www.tewkesbury.gov.uk,,,2014-10-20,fhrs_5_en-GB,5,,FHRS,5
312277,Cleeve Hill,Cheltenham,Gloucestershire,,Tewkesbury View,Other catering premises,7841,5,,115840,10,,51.94333400000000,45010/1028/2/000,129,ehenquiries@tewkesbury.gov.uk,Tewkesbury,http://www.tewkesbury.gov.uk,-2.01950400000000,GL52 3PW,2009-07-10,fhrs_4_en-GB,4,,FHRS,5
312278,97 Church Street,Tewkesbury,Gloucestershire,,Tewkesbury YMCA,Other catering premises,7841,5,,103791,5,,51.87328100000000,35015/0097/2/000,129,ehenquiries@tewkesbury.gov.uk,Tewkesbury,http://www.tewkesbury.gov.uk,-2.20840300000000,GL20 4RS,2013-11-19,fhrs_5_en-GB,5,,FHRS,5
312279,Tewkesbury Youth And Community Cent,Link Road,Tewkesbury,Gloucestershire,Tewkesbury Youth Centre,Other catering premises,7841,5,,134601,5,,51.93463897705078,68098/1002/2/000,129,ehenquiries@tewkesbury.gov.uk,Tewkesbury,http://www.tewkesbury.gov.uk,-2.07724499702454,,2012-01-17,fhrs_5_en-GB,5,,FHRS,5
312280,42 High Street,Tewkesbury,Gloucestershire,,The Anchor 1774,Pub/bar/nightclub,7843,5,,102476,5,,51.99553100000000,34009/0042/0/000,129,ehenquiries@tewkesbury.gov.uk,Tewkesbury,http://www.tewkesbury.gov.uk,-2.15649300000000,GL20 5BH,2014-06-17,fhrs_5_en-GB,5,,FHRS,5
312281,Apple Tree,Stockwell Lane,Woodmancote,Cheltenham,The Apple Tree,Pub/bar/nightclub,7843,,,115855,,,51.94436500000000,45026/1042/2/000,129,ehenquiries@tewkesbury.gov.uk,Tewkesbury,http://www.tewkesbury.gov.uk,-2.03524600000000,GL52 9QG,2015-01-07,fhrs_4_en-GB,4,,FHRS,
312282,Apple Tree Inn,Watery Lane,Minsterworth,Gloucester,The Apple Tree Inn,Pub/bar/nightclub,7843,5,,29658,10,,51.85468300000000,09/00099/COMM,129,ehenquiries@tewkesbury.gov.uk,Tewkesbury,http://www.tewkesbury.gov.uk,-2.30950000000000,GL2 8JQ,2014-01-29,fhrs_4_en-GB,4,,FHRS,5
312283,Gloucestershire Airport,Staverton,Gloucester,Gloucestershire,The Aviator Cafe,Other catering premises,7841,5,,134553,5,,51.89137649536133,68023/1003/2/000,129,ehenquiries@tewkesbury.gov.uk,Tewkesbury,http://www.tewkesbury.gov.uk,-2.15973401069641,GL51 6SP,2014-08-12,fhrs_5_en-GB,5,,FHRS,5
312284,,,,,The Bakery,Manufacturers/packers,7839,10,,33925,10,,,10/00076/COMM,129,ehenquiries@tewkesbury.gov.uk,Tewkesbury,http://www.tewkesbury.gov.uk,,,2013-07-18,fhrs_3_en-GB,3,,FHRS,10
312285,78 Church Street,Tewkesbury,Gloucestershire,,The Bay Tree Cafe,Other catering premises,7841,5,,103788,5,,51.99157100000000,35015/0078/0/000,129,ehenquiries@tewkesbury.gov.uk,Tewkesbury,http://www.tewkesbury.gov.uk,-2.15961000000000,GL20 5RX,2014-09-09,fhrs_5_en-GB,5,,FHRS,5
312286,78 Church Street,Tewkesbury,Gloucestershire,,The Bay Tree Restaurant,Other catering premises,7841,5,,735187,5,,51.99157100000000,14/00092/COMM,129,ehenquiries@tewkesbury.gov.uk,Tewkesbury,http://www.tewkesbury.gov.uk,-2.15961000000000,GL20 5RX,2015-01-27,fhrs_5_en-GB,5,,FHRS,5
312287,The Bell Inn,Main Road,Shurdington,Cheltenham,The Bell,Restaurant/Cafe/Canteen,1,10,,516801,15,,51.86669700000000,13/00015/COMM,129,ehenquiries@tewkesbury.gov.uk,Tewkesbury,http://www.tewkesbury.gov.uk,-2.11352100000000,GL51 4XQ,2014-08-07,fhrs_2_en-GB,2,,FHRS,15
312288,Church Street,Tewkesbury,Gloucestershire,,The Bell Hotel,Other catering premises,7841,10,,103794,10,,51.99089200000000,35015/1002/2/000,129,ehenquiries@tewkesbury.gov.uk,Tewkesbury,http://www.tewkesbury.gov.uk,-2.16255000000000,GL20 5SA,2014-04-28,fhrs_3_en-GB,3,,FHRS,10
312289,The Boat Inn The Quay,Quay Lane,Ashleworth,Gloucester,The Boat Inn,Pub/bar/nightclub,7843,10,,546257,10,,51.92403900000000,13/00010/COMM,129,ehenquiries@tewkesbury.gov.uk,Tewkesbury,http://www.tewkesbury.gov.uk,-2.26526200000000,GL19 4HZ,2013-05-10,fhrs_3_en-GB,3,,FHRS,10
312290,Mythe Road,Tewkesbury,Gloucestershire,,The Boathouse,Restaurant/Cafe/Canteen,1,10,,565256,15,,52.00529600000000,13/00062/COMM,129,ehenquiries@tewkesbury.gov.uk,Tewkesbury,http://www.tewkesbury.gov.uk,-2.16245600000000,GL20 6EB,2014-11-13,fhrs_2_en-GB,2,,FHRS,10
312291,High Street,Tewkesbury,Gloucestershire,,The Britannia Inn,Pub/bar/nightclub,7843,10,,102473,10,,51.99436100000000,34009/0030/0/000,129,ehenquiries@tewkesbury.gov.uk,Tewkesbury,http://www.tewkesbury.gov.uk,-2.15733400000000,GL20 5AT,2014-06-12,fhrs_3_en-GB,3,,FHRS,10
312292,Delta Drive,Tewkesbury,Gloucestershire,,The Butty Man,Mobile caterer,7846,10,,134625,15,,52.00016900000000,68119/0023/2/000,129,ehenquiries@tewkesbury.gov.uk,Tewkesbury,http://www.tewkesbury.gov.uk,-2.12873000000000,,2013-07-12,fhrs_2_en-GB,2,,FHRS,10
312293,6 North Street,Winchcombe,Cheltenham,Gloucestershire,The Cake & Sugarcraft Boutique,Retailers - other,4613,10,,505486,5,,51.95402100000000,12/00121/COMM,129,ehenquiries@tewkesbury.gov.uk,Tewkesbury,http://www.tewkesbury.gov.uk,-1.96437400000000,GL54 5LH,2013-01-16,fhrs_4_en-GB,4,,FHRS,5
312294,Ashchurch Road,Tewkesbury,Gloucestershire,,The Canterbury Inn,Pub/bar/nightclub,7843,10,,105076,10,,51.99629700000000,36001/1002/2/000,129,ehenquiries@tewkesbury.gov.uk,Tewkesbury,http://www.tewkesbury.gov.uk,-2.13549300000000,,2013-07-02,fhrs_3_en-GB,3,,FHRS,10
312295,112 High Street,Tewkesbury,Gloucestershire,,The Carousel Classic Confectionery,Retailers - other,4613,5,,670079,5,,51.99458700000000,14/00054/COMM,129,ehenquiries@tewkesbury.gov.uk,Tewkesbury,http://www.tewkesbury.gov.uk,-2.15643200000000,GL20 5JY,2014-06-17,fhrs_5_en-GB,5,,FHRS,5
312296,Shurdington Road,Brockworth,Gloucestershire,,The Chase Hotel,Other catering premises,7841,5,,118685,10,,51.84411300000000,48020/1017/2/000,129,ehenquiries@tewkesbury.gov.uk,Tewkesbury,http://www.tewkesbury.gov.uk,-2.14465900000000,GL3 4PB,2014-08-12,fhrs_4_en-GB,4,,FHRS,5
312297,Bugatti Owners Club,Prescott,Gotherington,Cheltenham,"The Clubhouse Restaurant, Prescott Clubhouse",Other catering premises,7841,10,,428795,5,,51.96186300000000,12/00046/COMM,129,ehenquiries@tewkesbury.gov.uk,Tewkesbury,http://www.tewkesbury.gov.uk,-2.02539200000000,GL52 9RD,2014-03-26,fhrs_4_en-GB,4,,FHRS,5
312298,Gabb Lane,Apperley,Gloucester,,The Coalhouse Inn,Pub/bar/nightclub,7843,5,,53299,5,,51.95347500000000,12007/1010/2/000,129,ehenquiries@tewkesbury.gov.uk,Tewkesbury,http://www.tewkesbury.gov.uk,-2.21220800000000,GL19 4DN,2014-04-16,fhrs_5_en-GB,5,,FHRS,5
312299,Brockworth Youth Centre,Court Road,Brockworth,Gloucester,The Coffee Shop - Brockworth Community Centre,Other catering premises,7841,5,,117769,5,,51.84870900000000,47008/1017/2/000,129,ehenquiries@tewkesbury.gov.uk,Tewkesbury,http://www.tewkesbury.gov.uk,-2.15791300000000,GL3 4ET,2013-09-17,fhrs_5_en-GB,5,,FHRS,5
312300,83 Gloucester Street,Winchcombe,Gloucestershire,,The Corner Cupboard Inn,Pub/bar/nightclub,7843,10,,114887,10,,51.95195500000000,44021/0083/2/000,129,ehenquiries@tewkesbury.gov.uk,Tewkesbury,http://www.tewkesbury.gov.uk,-1.97069100000000,GL54 5LX,2013-10-23,fhrs_3_en-GB,3,,FHRS,10
312301,,,,,The Cotswold Roast And BBQ Company,Mobile caterer,7846,5,,542553,5,,,13/00043/COMM,129,ehenquiries@tewkesbury.gov.uk,Tewkesbury,http://www.tewkesbury.gov.uk,,,2013-04-24,fhrs_5_en-GB,5,,FHRS,5
312302,Shuthonger,Tewkesbury,Glos,,The Crown At Shuthonger,Pub/bar/nightclub,7843,10,,110339,5,,51.99295043945310,40033/1030/2/000,129,ehenquiries@tewkesbury.gov.uk,Tewkesbury,http://www.tewkesbury.gov.uk,-2.14946007728577,,2011-10-25,fhrs_3_en-GB,3,,FHRS,10
312303,43 High Street,Tewkesbury,Gloucestershire,,The Daily Grind Cafe,Restaurant/Cafe/Canteen,1,10,,487086,5,,51.99553100000000,12/00126/COMM,129,ehenquiries@tewkesbury.gov.uk,Tewkesbury,http://www.tewkesbury.gov.uk,-2.15649300000000,GL20 5BH,2014-01-09,fhrs_4_en-GB,4,,FHRS,5
312304,Toby Carvery,Over Bridge,Over,Gloucester,"The Dog, Toby Carvery",Pub/bar/nightclub,7843,5,,128188,5,,51.87426400000000,58010/1006/2/000,129,ehenquiries@tewkesbury.gov.uk,Tewkesbury,http://www.tewkesbury.gov.uk,-2.27372700000000,GL2 8DE,2014-01-17,fhrs_4_en-GB,4,,FHRS,10
312305,136 High Street,Tewkesbury,Gloucestershire,,The Farm & Garden Shop,Retailers - other,4613,0,,102488,5,,51.99345300000000,34009/0136/0/000,129,ehenquiries@tewkesbury.gov.uk,Tewkesbury,http://www.tewkesbury.gov.uk,-2.15712700000000,GL20 5JR,2008-04-25,fhrs_5_en-GB,5,,FHRS,5
312306,Ledbury Road,Gloucester,Gloucestershire,,The Farmers Arms,Pub/bar/nightclub,7843,5,,53328,10,,52.05930900000000,12012/1003/2/000,129,ehenquiries@tewkesbury.gov.uk,Tewkesbury,http://www.tewkesbury.gov.uk,-2.42591500000000,,2014-02-06,fhrs_3_en-GB,3,,FHRS,10
312307,Villars,Sunset Lane,Southam,Cheltenham,The Fine Oil & Spice Co.,Manufacturers/packers,7839,10,,34125,5,,51.92893500000000,10/00091/COMM,129,ehenquiries@tewkesbury.gov.uk,Tewkesbury,http://www.tewkesbury.gov.uk,-2.03838900000000,GL52 3NL,2012-01-10,fhrs_4_en-GB,4,,FHRS,5
312308,116 High Street,Tewkesbury,Gloucestershire,,The Fish Net,Takeaway/sandwich shop,7844,20,,696583,15,,51.99458700000000,14/00061/COMM,129,ehenquiries@tewkesbury.gov.uk,Tewkesbury,http://www.tewkesbury.gov.uk,-2.15643200000000,GL20 5JY,2014-07-30,fhrs_1_en-GB,1,,FHRS,10
312309,Flag And Whistle,Railway Station,Stow Road,Alderton,The Flag And Whistle,Restaurant/Cafe/Canteen,1,5,,637200,5,,51.98996800000000,14/00023/COMM,129,ehenquiries@tewkesbury.gov.uk,Tewkesbury,http://www.tewkesbury.gov.uk,-1.92989000000000,GL54 5DT,2014-03-06,fhrs_5_en-GB,5,,FHRS,5
312310,Fleet Lane,Twyning,Tewkesbury,Gloucestershire,The Fleet Inn,Pub/bar/nightclub,7843,10,,621498,5,,52.02772600000000,13/00085/COMM,129,ehenquiries@tewkesbury.gov.uk,Tewkesbury,http://www.tewkesbury.gov.uk,-2.14293400000000,GL20 6DG,2013-12-18,fhrs_4_en-GB,4,,FHRS,5
312311,Beckford Road,Alderton,Tewkesbury,Glos.,The Gardeners Arms,Pub/bar/nightclub,7843,5,,3663,5,,51.99854900000000,01001/1002/2/000,129,ehenquiries@tewkesbury.gov.uk,Tewkesbury,http://www.tewkesbury.gov.uk,-2.00110000000000,,2013-06-24,fhrs_5_en-GB,5,,FHRS,5
312312,Tewkesbury Road,Elmstone Hardwicke,Cheltenham,Gloucestershire,The Gloucester Old Spot,Pub/bar/nightclub,7843,,,67304,,,51.93321600000000,15010/1002/2/000,129,ehenquiries@tewkesbury.gov.uk,Tewkesbury,http://www.tewkesbury.gov.uk,-2.14919300000000,GL51 9SY,2014-11-11,fhrs_4_en-GB,4,,FHRS,
312313,1 Knightsbridge Business Centre,Knightsbridge,Tewkesbury Road,Cheltenham,The Gloucester Sausage Company,Retailers - other,4613,10,,134573,5,,51.94048000000000,68058/0001/2/000,129,ehenquiries@tewkesbury.gov.uk,Tewkesbury,http://www.tewkesbury.gov.uk,-2.15659200000000,GL51 9TA,2013-08-28,fhrs_4_en-GB,4,,FHRS,5
312314,Grange Road,Northway,"Ashchurch, Tewkesbury",Glos.,The Grange Nursing Home,Hospitals/Childcare/Caring Premises,5,5,,13362,5,,52.00606600000000,04007/1009/2/000,129,ehenquiries@tewkesbury.gov.uk,Tewkesbury,http://www.tewkesbury.gov.uk,-2.11064000000000,GL20 8HZ,2014-04-15,fhrs_4_en-GB,4,,FHRS,10
312315,17 High Street,Tewkesbury,Gloucestershire,,The Great Wall,Other catering premises,7841,10,,487087,15,,51.99368600000000,12/00131/COMM,129,ehenquiries@tewkesbury.gov.uk,Tewkesbury,http://www.tewkesbury.gov.uk,-2.15747700000000,GL20 5AL,2014-07-30,fhrs_2_en-GB,2,,FHRS,10
312316,,,,,The Green Butterfly Bakery,Other catering premises,7841,5,,604998,5,,,13/00088/COMM,129,ehenquiries@tewkesbury.gov.uk,Tewkesbury,http://www.tewkesbury.gov.uk,,,2013-10-16,fhrs_5_en-GB,5,,FHRS,5
312317,Main Road,Shurdington,Cheltenham,Gloucestershire,The Greenway Hotel Ltd,Other catering premises,7841,10,,86501,15,,51.85893400000000,22019/1024/2/000,129,ehenquiries@tewkesbury.gov.uk,Tewkesbury,http://www.tewkesbury.gov.uk,-2.11780000000000,GL51 4UG,2014-12-18,fhrs_2_en-GB,2,,FHRS,10
312318,Gloucester Road,Tewkesbury,Gloucestershire,,The Gupshill Manor,Pub/bar/nightclub,7843,10,,106489,15,,51.98215200000000,37008/1010/2/000,129,ehenquiries@tewkesbury.gov.uk,Tewkesbury,http://www.tewkesbury.gov.uk,-2.15659200000000,GL20 5SG,2014-03-13,fhrs_2_en-GB,2,,FHRS,15
312319,,,,,The Hamper Box,Retailers - other,4613,10,,333333,5,,,12/00006/COMM,129,ehenquiries@tewkesbury.gov.uk,Tewkesbury,http://www.tewkesbury.gov.uk,,,2012-02-09,fhrs_4_en-GB,4,,FHRS,5
312320,Little Washbourne,Tewkesbury,Gloucestershire,,The Hobnails Inn,Pub/bar/nightclub,7843,10,,696581,10,,51.99988555908203,14/00057/COMM,129,ehenquiries@tewkesbury.gov.uk,Tewkesbury,http://www.tewkesbury.gov.uk,-2.01546502113342,GL20 8NQ,2014-08-14,fhrs_2_en-GB,2,,FHRS,15
312321,Columbine Road,Walton Cardiff,Tewkesbury,Gloucestershire,The John Moore Primary School,School/college/university,7845,5,,29362,5,,51.97994100000000,09/00075/COMM,129,ehenquiries@tewkesbury.gov.uk,Tewkesbury,http://www.tewkesbury.gov.uk,-2.14180600000000,GL20 7SP,2014-09-22,fhrs_5_en-GB,5,,FHRS,5
312322,19 Cheltenham Road,Bishops Cleeve,Cheltenham,Gloucestershire,The Kings Head,Pub/bar/nightclub,7843,,,505487,,,51.94566500000000,12/00132/COMM,129,ehenquiries@tewkesbury.gov.uk,Tewkesbury,http://www.tewkesbury.gov.uk,-2.06358700000000,GL52 8LU,2015-01-07,fhrs_4_en-GB,4,,FHRS,
312323,7 Hailes Street,Winchcombe,Cheltenham,Gloucestershire,The Lady Jane Tea Room,Other catering premises,7841,5,,114900,5,,51.95453300000000,44026/0007/0/000,129,ehenquiries@tewkesbury.gov.uk,Tewkesbury,http://www.tewkesbury.gov.uk,-1.96290400000000,GL54 5HU,2014-04-14,fhrs_5_en-GB,5,,FHRS,5
312324,The Old White Lion Inn,37 North Street,Winchcombe,Cheltenham,The Lion Inn,Pub/bar/nightclub,7843,10,,406257,5,,51.95475800000000,12/00031/COMM,129,ehenquiries@tewkesbury.gov.uk,Tewkesbury,http://www.tewkesbury.gov.uk,-1.96571200000000,GL54 5PS,2014-01-07,fhrs_3_en-GB,3,,FHRS,10
312325,,,,,The Little Buffet Co.,Hotel/bed & breakfast/guest house,7842,0,,25174,5,,,08/00052/COMM,129,ehenquiries@tewkesbury.gov.uk,Tewkesbury,http://www.tewkesbury.gov.uk,,,2012-08-14,fhrs_5_en-GB,5,,FHRS,0
312326,The John Moore Primary School,Columbine Road,Walton Cardiff,Tewkesbury,The Little Foxes Playgroup,Other catering premises,7841,5,,146329,5,,51.97994100000000,88944/1001/2/000,129,ehenquiries@tewkesbury.gov.uk,Tewkesbury,http://www.tewkesbury.gov.uk,-2.14180600000000,GL20 7SP,2014-02-26,fhrs_5_en-GB,5,,FHRS,5
312327,The Little People Day Nursery,165 Hucclecote Road,Hucclecote,Gloucester,The Little People,Other catering premises,7841,10,,128771,5,,51.85179400000000,59007/0165/0/000,129,ehenquiries@tewkesbury.gov.uk,Tewkesbury,http://www.tewkesbury.gov.uk,-2.17570900000000,GL3 3TX,2014-12-18,fhrs_3_en-GB,3,,FHRS,10
312328,St Johns Church Hall,Parton Road,Churchdown,Gloucester,The Men's Breakfast Club,Restaurant/Cafe/Canteen,1,5,,610484,5,,,13/00084/COMM,129,ehenquiries@tewkesbury.gov.uk,Tewkesbury,http://www.tewkesbury.gov.uk,,,2013-10-22,fhrs_5_en-GB,5,,FHRS,5
312329,31 Parton Road,Churchdown,Gloucester,Gloucestershire,The Midcounties Co-operative,Retailers - other,4613,5,,123632,5,,51.88801700000000,52025/0031/0/000,129,ehenquiries@tewkesbury.gov.uk,Tewkesbury,http://www.tewkesbury.gov.uk,-2.18297000000000,GL3 2AB,2013-02-25,fhrs_4_en-GB,4,,FHRS,10
312330,Alldays,22 - 24 North Street,Winchcombe,Gloucestershire,The Midcounties Co-operative,Retailers - other,4613,5,,114928,5,,,44037/0012/0/000,129,ehenquiries@tewkesbury.gov.uk,Tewkesbury,http://www.tewkesbury.gov.uk,,,2012-07-20,fhrs_4_en-GB,4,,FHRS,10
312331,Brockworth Supermarket,Abbotswood Road,Brockworth,Gloucester,The Midcounties Co-operative,Retailers - other,4613,5,,121275,5,,51.84253400000000,50001/0002/0/000,129,ehenquiries@tewkesbury.gov.uk,Tewkesbury,http://www.tewkesbury.gov.uk,-2.15607700000000,GL3 4NY,2010-04-12,fhrs_5_en-GB,5,,FHRS,5
312332,Northway Centre,Northway Lane,Northway,Tewkesbury,The Midcounties Co-operative,Retailers - other,4613,10,,8525,10,,52.00359100000000,03011/1006/2/000,129,ehenquiries@tewkesbury.gov.uk,Tewkesbury,http://www.tewkesbury.gov.uk,-2.10998400000000,,2013-09-30,fhrs_3_en-GB,3,,FHRS,10
312333,4 The Green,Bishops Cleeve,Cheltenham,Gloucestershire,The Midcounties Co-operative (4-5 The Green),Retailers - other,4613,5,,134584,10,,51.87954400000000,68065/0004/0/000,129,ehenquiries@tewkesbury.gov.uk,Tewkesbury,http://www.tewkesbury.gov.uk,-2.30227600000000,GL2 8DQ,2012-03-27,fhrs_3_en-GB,3,,FHRS,10
312334,Oxford Swindon And Gloucester Co Op,28 Court Road,Brockworth,Gloucester,The Midcounties Co-operatives,Retailers - other,4613,10,,117768,15,,51.84753254000000,47008/0028/0/000,129,ehenquiries@tewkesbury.gov.uk,Tewkesbury,http://www.tewkesbury.gov.uk,-2.15867132000000,,2013-11-18,fhrs_2_en-GB,2,,FHRS,15
312335,Village Hall,Teddington,Tewkesbury,Gloucestershire,The Montessori Nursery School,Other catering premises,7841,10,,101272,5,,51.76417160034180,33010/1066/2/000/A,129,ehenquiries@tewkesbury.gov.uk,Tewkesbury,http://www.tewkesbury.gov.uk,-2.16174006462097,GL20 8JA,2011-05-27,fhrs_4_en-GB,4,,FHRS,5
312336,High Street,Stanton,Broadway,Worcestershire,The Mount Inn,Pub/bar/nightclub,7843,10,,95037,5,,52.00666100000000,28014/1001/2/000,129,ehenquiries@tewkesbury.gov.uk,Tewkesbury,http://www.tewkesbury.gov.uk,-1.90056800000000,WR12 7NF,2014-04-16,fhrs_3_en-GB,3,,FHRS,10
312337,Twigworth Breakers,Tewkesbury Road,Twigworth,Gloucester,The Munch Box,Other catering premises,7841,5,,7503,5,,,03/00052/COMM,129,ehenquiries@tewkesbury.gov.uk,Tewkesbury,http://www.tewkesbury.gov.uk,,,2014-02-05,fhrs_5_en-GB,5,,FHRS,5
312338,Nottingham Arms,High Street,Tewkesbury,Gloucestershire,The Nottingham Arms,Pub/bar/nightclub,7843,5,,34354,5,,51.99395700000000,10/00110/COMM,129,ehenquiries@tewkesbury.gov.uk,Tewkesbury,http://www.tewkesbury.gov.uk,-2.15676400000000,GL20 5JU,2014-04-10,fhrs_4_en-GB,4,,FHRS,10
312339,Premier Travel Inn,Tewkesbury Road,Twigworth,Gloucester,"The Oakwood, Twigworth Lodge + Premier Travel Inn",Other catering premises,7841,5,,134531,5,,51.89552200000000,68004/1040/2/000,129,ehenquiries@tewkesbury.gov.uk,Tewkesbury,http://www.tewkesbury.gov.uk,-2.22995400000000,GL2 9PG,2014-02-05,fhrs_4_en-GB,4,,FHRS,10
312340,Gloucester Road,Tewkesbury,Glos.,,The Odessa Inn,Pub/bar/nightclub,7843,5,,132065,5,,51.86540985107420,637008/1005/2/000,129,ehenquiries@tewkesbury.gov.uk,Tewkesbury,http://www.tewkesbury.gov.uk,-2.23953008651733,,2011-06-17,fhrs_5_en-GB,5,,FHRS,5
312341,The Old Bakehouse,Stanway,Cheltenham,Gloucestershie,The Old Bakehouse Tearoom,Other catering premises,7841,5,,33666,5,,51.98708100000000,10/00058/COMM,129,ehenquiries@tewkesbury.gov.uk,Tewkesbury,http://www.tewkesbury.gov.uk,-1.90232900000000,GL54 5PH,2010-05-13,fhrs_5_en-GB,5,,FHRS,5
312342,Imjin Barracks,Innsworth Lane,Gloucester,Gloucestershire,The Old Station Nursery,Hospitals/Childcare/Caring Premises,5,0,,34157,0,,51.89017700000000,10/00094/COMM,129,ehenquiries@tewkesbury.gov.uk,Tewkesbury,http://www.tewkesbury.gov.uk,-2.19826500000000,GL3 1HW,2013-11-20,fhrs_5_en-GB,5,,FHRS,5
312343,Millbrook Lodge,Moorfield Road,Brockworth,Gloucester,The Orders Of St John Care Trust,Other catering premises,7841,0,,118674,5,,51.85789900000000,48014/1004/2/000,129,ehenquiries@tewkesbury.gov.uk,Tewkesbury,http://www.tewkesbury.gov.uk,-2.15971100000000,GL3 3EX,2012-11-22,fhrs_5_en-GB,5,,FHRS,0
312344,,,,,The Pear Trees Cake Company,Other catering premises,7841,5,,696579,5,,,14/00028/COMM,129,ehenquiries@tewkesbury.gov.uk,Tewkesbury,http://www.tewkesbury.gov.uk,,,2014-06-05,fhrs_5_en-GB,5,,FHRS,5
312345,26 Lee Road,Northway,Tewkesbury,Gloucestershire,The Pearl Of Northway,Other catering premises,7841,5,,8517,5,,52.00296400000000,03008/0026/3/000,129,ehenquiries@tewkesbury.gov.uk,Tewkesbury,http://www.tewkesbury.gov.uk,-2.11123000000000,GL20 8QF,2014-11-05,fhrs_4_en-GB,4,,FHRS,10
312346,Evesham Road,Toddington,Cheltenham,Gloucestershire,The Pheasant Inn,Other catering premises,7841,10,,542554,10,,51.98996800000000,13/00045/COMM,129,ehenquiries@tewkesbury.gov.uk,Tewkesbury,http://www.tewkesbury.gov.uk,-1.92989000000000,GL54 5DT,2013-04-24,fhrs_3_en-GB,3,,FHRS,10
312347,,,,,The Pie's The Limit,Manufacturers/packers,7839,5,,333337,5,,,12/00016/COMM,129,ehenquiries@tewkesbury.gov.uk,Tewkesbury,http://www.tewkesbury.gov.uk,,,2013-09-30,fhrs_5_en-GB,5,,FHRS,0
312348,Cheltenham Nurseries,Tewkesbury Road,Uckington,Cheltenham,The Plant Centre,Retailers - other,4613,5,,111709,5,,51.91902500000000,41012/1004/2/000,129,ehenquiries@tewkesbury.gov.uk,Tewkesbury,http://www.tewkesbury.gov.uk,-2.11176300000000,GL51 9SL,2010-05-05,fhrs_5_en-GB,5,,FHRS,5
312349,84 Tewkesbury Road,Longford,Gloucester,Gloucestershire,The Queens Head,Pub/bar/nightclub,7843,10,,582621,5,,51.88487300000000,61009/0084/0/000,129,ehenquiries@tewkesbury.gov.uk,Tewkesbury,http://www.tewkesbury.gov.uk,-2.23642300000000,GL2 9EJ,2013-10-30,fhrs_4_en-GB,4,,FHRS,5
312350,Wainlode Hill,Norton,Gloucester,Gloucestershire,The Red Lion,Pub/bar/nightclub,7843,10,,666976,0,,51.93019600000000,14/00042/COMM,129,ehenquiries@tewkesbury.gov.uk,Tewkesbury,http://www.tewkesbury.gov.uk,-2.22281600000000,GL2 9LW,2014-05-13,fhrs_4_en-GB,4,,FHRS,10
312351,Rising Sun Hotel,Cleeve Hill,Cheltenham,Gloucestershire,The Rising Sun Hotel,Other catering premises,7841,10,,115839,10,,51.93975400000000,45010/1025/2/000,129,ehenquiries@tewkesbury.gov.uk,Tewkesbury,http://www.tewkesbury.gov.uk,-2.02783800000000,GL52 3PX,2014-09-23,fhrs_3_en-GB,3,,FHRS,10
312352,New Inn,Haw Bridge,Tirley,Gloucester,The Riverside Inn,Pub/bar/nightclub,7843,5,,133978,5,,51.94935500000000,67006/1009/2/000,129,ehenquiries@tewkesbury.gov.uk,Tewkesbury,http://www.tewkesbury.gov.uk,-2.22736400000000,GL19 4HJ,2011-03-09,fhrs_4_en-GB,4,,FHRS,10
312353,Oldbury Road,Tewkesbury,Glos.,,The Roses Theatre Trust,Other catering premises,7841,10,,102511,5,,51.99454100000000,34018/1006/2/000,129,ehenquiries@tewkesbury.gov.uk,Tewkesbury,http://www.tewkesbury.gov.uk,-2.15546100000000,,2012-07-12,fhrs_4_en-GB,4,,FHRS,5
312354,Royal Oak Inn,Gretton Road,Gretton,Cheltenham,The Royal Oak,Pub/bar/nightclub,7843,20,,333341,10,,51.97176400000000,12/00027/COMM,129,ehenquiries@tewkesbury.gov.uk,Tewkesbury,http://www.tewkesbury.gov.uk,-1.98442000000000,GL54 5EP,2014-01-17,fhrs_1_en-GB,1,,FHRS,20
312355,21C Ermin Street,Brockworth,Gloucester,Gloucestershire,The Sandwich Shop,Takeaway/sandwich shop,7844,10,,696582,5,,51.84822200000000,14/00058/COMM,129,ehenquiries@tewkesbury.gov.uk,Tewkesbury,http://www.tewkesbury.gov.uk,-2.16550400000000,GL3 4EG,2014-08-13,fhrs_4_en-GB,4,,FHRS,5
312356,Shutter Inn,Shutter Lane,Gotherington,Cheltenham,The Shutter Inn,Pub/bar/nightclub,7843,10,,683182,10,,51.96457400000000,14/00064/COMM,129,ehenquiries@tewkesbury.gov.uk,Tewkesbury,http://www.tewkesbury.gov.uk,-2.06065900000000,GL52 9EZ,2014-07-09,fhrs_3_en-GB,3,,FHRS,10
312357,,,,,The Sugar Coated Bakery By Littlebits,Other catering premises,7841,5,,546258,0,,,13/00030/COMM,129,ehenquiries@tewkesbury.gov.uk,Tewkesbury,http://www.tewkesbury.gov.uk,,,2013-04-30,fhrs_5_en-GB,5,,FHRS,5
312358,North Street,Winchcombe,Gloucestershire,,The Sun Inn,Pub/bar/nightclub,7843,5,,114929,5,,51.95402100000000,44037/0014/0/000,129,ehenquiries@tewkesbury.gov.uk,Tewkesbury,http://www.tewkesbury.gov.uk,-1.96437400000000,GL54 5LH,2011-06-03,fhrs_5_en-GB,5,,FHRS,5
312359,,,,,The Superior Sandwich Company,Mobile caterer,7846,5,,696584,5,,,14/00063/COMM,129,ehenquiries@tewkesbury.gov.uk,Tewkesbury,http://www.tewkesbury.gov.uk,,,2014-08-11,fhrs_5_en-GB,5,,FHRS,5
312360,Bishops Drive,Bishops Cleeve,Cheltenham,Gloucestershire,The Swallow Inn,Pub/bar/nightclub,7843,10,,31866,15,,51.94434500000000,09006/1001/2/000,129,ehenquiries@tewkesbury.gov.uk,Tewkesbury,http://www.tewkesbury.gov.uk,-2.06185400000000,GL52 8DR,2013-03-27,fhrs_2_en-GB,2,,FHRS,5
312361,Tewkesbury Road,Coombe Hill,Gloucester,Gloucestershire,The Swan,Pub/bar/nightclub,7843,10,,79290,10,,51.94174700000000,19015/1017/2/000,129,ehenquiries@tewkesbury.gov.uk,Tewkesbury,http://www.tewkesbury.gov.uk,-2.16410300000000,GL19 4BA,2013-12-17,fhrs_2_en-GB,2,,FHRS,15
312362,,,,,The Tewkesbury Mustard Company,Manufacturers/packers,7839,10,,535862,10,,,13/00035/COMM,129,ehenquiries@tewkesbury.gov.uk,Tewkesbury,http://www.tewkesbury.gov.uk,,,2014-06-03,fhrs_3_en-GB,3,,FHRS,10
312363,The Pheasant Inn,Evesham Road,Toddington,Cheltenham,The Thai Restaurant,Other catering premises,7841,10,,29644,5,,51.98996800000000,09/00098/COMM,129,ehenquiries@tewkesbury.gov.uk,Tewkesbury,http://www.tewkesbury.gov.uk,-1.92989000000000,GL54 5DT,2013-04-23,fhrs_3_en-GB,3,,FHRS,10
312364,207 Hucclecote Road,Hucclecote,Gloucester,Gloucestershire,The Victoria Inn,Pub/bar/nightclub,7843,10,,128773,15,,51.84954700000000,59007/1001/2/000,129,ehenquiries@tewkesbury.gov.uk,Tewkesbury,http://www.tewkesbury.gov.uk,-2.16929800000000,GL3 3TZ,2013-05-09,fhrs_2_en-GB,2,,FHRS,10
312365,High Street,Stanton,Broadway,Worcestershire,The Vine,Hotel/bed & breakfast/guest house,7842,10,,95026,5,,52.00646200000000,28009/1010/2/000,129,ehenquiries@tewkesbury.gov.uk,Tewkesbury,http://www.tewkesbury.gov.uk,-1.89950500000000,WR12 7NE,2011-08-05,fhrs_4_en-GB,4,,FHRS,5
312366,Unit 810 Jupiter Court,Cheltenham Road East,Churchdown,Gloucester,The Warehouse Cafe,Other catering premises,7841,0,,45937,5,,51.89591600000000,11/00037/COMM,129,ehenquiries@tewkesbury.gov.uk,Tewkesbury,http://www.tewkesbury.gov.uk,-2.17345400000000,GL2 9QW,2014-07-10,fhrs_5_en-GB,5,,FHRS,5
312367,Horseshoe Drive,Over,Gloucester,Gloucestershire,The Wharf House,Other catering premises,7841,5,,14855,5,,51.87372500000000,05/00062/COMM,129,ehenquiries@tewkesbury.gov.uk,Tewkesbury,http://www.tewkesbury.gov.uk,-2.27330300000000,GL2 8DB,2013-07-10,fhrs_5_en-GB,5,,FHRS,5
312368,The Wheatpieces Public House,2 Clifford Avenue,Walton Cardiff,Tewkesbury,The Wheatpieces Hungry Horse,Pub/bar/nightclub,7843,5,,146316,10,,51.98506500000000,88914/0002/0/000,129,ehenquiries@tewkesbury.gov.uk,Tewkesbury,http://www.tewkesbury.gov.uk,-2.14400700000000,,2014-05-29,fhrs_3_en-GB,3,,FHRS,10
312369,Bredon Road,Tewkesbury,Gloucestershire,,The White Bear,Pub/bar/nightclub,7843,10,,102462,5,,51.99798000000000,34004/1004/2/000,129,ehenquiries@tewkesbury.gov.uk,Tewkesbury,http://www.tewkesbury.gov.uk,-2.15377800000000,GL20 5BU,2014-04-18,fhrs_4_en-GB,4,,FHRS,5
312370,The White Horse,Sandhurst Lane,Sandhurst,Gloucester,The White Horse Chinese Restaurant,Restaurant/Cafe/Canteen,1,5,,565257,10,,51.88718800000000,13/00063/COMM,129,ehenquiries@tewkesbury.gov.uk,Tewkesbury,http://www.tewkesbury.gov.uk,-2.25156100000000,GL2 9NG,2013-06-24,fhrs_4_en-GB,4,,FHRS,5
312371,8 North Street,Winchcombe,Cheltenham,Gloucestershire,The Winchcombe Fish Bar,Other catering premises,7841,20,,25322,10,,51.95402100000000,08/00069/COMM,129,ehenquiries@tewkesbury.gov.uk,Tewkesbury,http://www.tewkesbury.gov.uk,-1.96437400000000,GL54 5LH,2014-01-09,fhrs_1_en-GB,1,,FHRS,20
312372,21 Church Road,Bishops Cleeve,Cheltenham,Gloucestershire,The World Of Taste Cafe Ltd,Restaurant/Cafe/Canteen,1,5,,716339,5,,51.94746500000000,14/00080/COMM,129,ehenquiries@tewkesbury.gov.uk,Tewkesbury,http://www.tewkesbury.gov.uk,-2.06070900000000,GL52 8LR,2014-11-11,fhrs_5_en-GB,5,,FHRS,5
312373,Butts Lane,Woodmancote,Cheltenham,Gloucestershire,The Wynyards,Hotel/bed & breakfast/guest house,7842,5,,115830,5,,51.94926200000000,45006/1015/2/000,129,ehenquiries@tewkesbury.gov.uk,Tewkesbury,http://www.tewkesbury.gov.uk,-2.04379000000000,GL52 9QH,2009-11-05,fhrs_5_en-GB,5,,FHRS,5
312374,The Old Ferry Inn,Stock Lane,Chaceley,Gloucester,The Yew Tree Inn,Pub/bar/nightclub,7843,10,,333345,10,,51.97066700000000,51005/1003/2/000,129,ehenquiries@tewkesbury.gov.uk,Tewkesbury,http://www.tewkesbury.gov.uk,-2.20624800000000,GL19 4EQ,2014-03-12,fhrs_3_en-GB,3,,FHRS,5
312375,85 Barton Street,Tewkesbury,Gloucestershire,,Theoc House,Restaurant/Cafe/Canteen,1,,,46079,,,51.99243800000000,11/00045/COMM,129,ehenquiries@tewkesbury.gov.uk,Tewkesbury,http://www.tewkesbury.gov.uk,-2.15658400000000,GL20 5PY,2015-01-27,fhrs_5_en-GB,5,,FHRS,
312376,83 Barton Street,Tewkesbury,Gloucestershire,,Tillys Of Tewkesbury,Restaurant/Cafe/Canteen,1,5,,542552,5,,51.99243800000000,13/00034/COMM,129,ehenquiries@tewkesbury.gov.uk,Tewkesbury,http://www.tewkesbury.gov.uk,-2.15658400000000,GL20 5PY,2013-04-24,fhrs_5_en-GB,5,,FHRS,0
312377,Brensham Road,Newtown,Tewkesbury,Gloucestershire,Tirlebrook Pre-School Playgroup And Toddlers,Hospitals/Childcare/Caring Premises,5,5,,703810,5,,51.99526300000000,14/00012/COMM,129,ehenquiries@tewkesbury.gov.uk,Tewkesbury,http://www.tewkesbury.gov.uk,-2.13276600000000,GL20 8EW,2014-09-11,fhrs_5_en-GB,5,,FHRS,5
312378,Brensham Road,Newtown,Tewkesbury,Gloucestershire,Tirlebrook Primary School,School/college/university,7845,5,,105084,5,,51.99526300000000,36003/1001/2/000,129,ehenquiries@tewkesbury.gov.uk,Tewkesbury,http://www.tewkesbury.gov.uk,-2.13276600000000,GL20 8EW,2014-02-24,fhrs_5_en-GB,5,,FHRS,5
312379,Village Hall,Main Road,Tirley,Gloucester,Tirley Village Hall,Other catering premises,7841,5,,134533,5,,51.95689400000000,68006/0001/2/000,129,ehenquiries@tewkesbury.gov.uk,Tewkesbury,http://www.tewkesbury.gov.uk,-2.24308900000000,GL19 4EU,2013-11-08,fhrs_5_en-GB,5,,FHRS,5
312380,Cross Hands Inn,Shurdington Road,Brockworth,Gloucester,Toby Carvery,Other catering premises,7841,5,,118684,5,,51.84276800000000,48020/1012/2/000,129,ehenquiries@tewkesbury.gov.uk,Tewkesbury,http://www.tewkesbury.gov.uk,-2.14915400000000,GL3 4PH,2013-04-25,fhrs_4_en-GB,4,,FHRS,10
312381,Stow Road,Toddington,Cheltenham,Glos.,Toddington Garden Centre,Retailers - other,4613,5,,96162,5,,,29016/1009/2/000,129,ehenquiries@tewkesbury.gov.uk,Tewkesbury,http://www.tewkesbury.gov.uk,,,2012-01-05,fhrs_5_en-GB,5,,FHRS,5
312382,Church Lane,Toddington,Cheltenham,Gloucestershire,Toddington Village Hall,Other catering premises,7841,5,,709384,5,,,14/00106/COMM,129,ehenquiries@tewkesbury.gov.uk,Tewkesbury,http://www.tewkesbury.gov.uk,,,2014-10-07,fhrs_5_en-GB,5,,FHRS,5
312383,Top Farm,Buckland,Broadway,Worcs,Top Farm Teas,Other catering premises,7841,10,,9945,5,,52.02331400000000,04/00091/COMM,129,ehenquiries@tewkesbury.gov.uk,Tewkesbury,http://www.tewkesbury.gov.uk,-1.88326100000000,WR12 7LY,2009-05-11,fhrs_4_en-GB,4,,FHRS,5
312384,,,,,Totally Cakealicious,Other catering premises,7841,5,,46411,0,,,11/00064/COMM,129,ehenquiries@tewkesbury.gov.uk,Tewkesbury,http://www.tewkesbury.gov.uk,,,2011-11-08,fhrs_5_en-GB,5,,FHRS,0
312385,Abbey Refectory And Visitors Centre,Church Street,Tewkesbury,Gloucestershire,Touching Souls Tea Room,Restaurant/Cafe/Canteen,1,5,,33904,10,,51.99085502918427,10/00074/COMM,129,ehenquiries@tewkesbury.gov.uk,Tewkesbury,http://www.tewkesbury.gov.uk,-2.16150825155646,,2010-06-21,fhrs_4_en-GB,4,,FHRS,0
312386,Town Hall,High Street,Tewkesbury,Gloucestershire,Town Hall Kitchen,Other catering premises,7841,5,,102492,5,,51.99497300000000,34009/1037/2/000/A,129,ehenquiries@tewkesbury.gov.uk,Tewkesbury,http://www.tewkesbury.gov.uk,-2.15703000000000,GL20 5BB,2008-06-02,fhrs_5_en-GB,5,,FHRS,0
312387,Town Street,Tirley,Gloucester,Gloucestershire,Town Street Farm,Hotel/bed & breakfast/guest house,7842,5,,133987,5,,51.96090500000000,67019/1003/2/000,129,ehenquiries@tewkesbury.gov.uk,Tewkesbury,http://www.tewkesbury.gov.uk,-2.22935800000000,GL19 4HG,2012-10-29,fhrs_5_en-GB,5,,FHRS,0
312388,Shannon Way,Tewkesbury Business Park,Tewkesbury,Gloucestershire,Travelodge,Other catering premises,7841,10,,333328,5,,51.99944200000000,09/00119/COMM,129,ehenquiries@tewkesbury.gov.uk,Tewkesbury,http://www.tewkesbury.gov.uk,-2.12597700000000,GL20 8ND,2014-11-19,fhrs_4_en-GB,4,,FHRS,5
312389,Bredon Road,Tewkesbury,Gloucestershire,,Travis Perkins,Retailers - other,4613,5,,696586,5,,52.00161700000000,34004/1014/2/000,129,ehenquiries@tewkesbury.gov.uk,Tewkesbury,http://www.tewkesbury.gov.uk,-2.14743400000000,,2014-08-07,fhrs_5_en-GB,5,,FHRS,5
312390,Tredington,Tewkesbury,Gloucestershire,,Tredington Primary School,School/college/university,7845,5,,29373,5,,51.96041870117190,09/00076/COMM,129,ehenquiries@tewkesbury.gov.uk,Tewkesbury,http://www.tewkesbury.gov.uk,-2.13720393180847,GL20 7BU,2013-06-17,fhrs_4_en-GB,4,,FHRS,10
312391,Tredington Primary School,Tredington,Tewkesbury,Gloucestershire,Tredington Teddies Playgroup,Hospitals/Childcare/Caring Premises,5,10,,447256,5,,51.96041870117190,12/00083/COMM,129,ehenquiries@tewkesbury.gov.uk,Tewkesbury,http://www.tewkesbury.gov.uk,-2.13720393180847,GL20 7BU,2012-09-17,fhrs_4_en-GB,4,,FHRS,5
312392,Tredington,Tewkesbury,Gloucestershire,,Tredington Village Hall,Other catering premises,7841,5,,98420,5,,51.96376800537109,31009/1034/2/000,129,ehenquiries@tewkesbury.gov.uk,Tewkesbury,http://www.tewkesbury.gov.uk,-2.14111471176147,GL20 7BP,2008-04-07,fhrs_4_en-GB,4,,FHRS,10
312393,Tree Tops Day Nursery,141 Hucclecote Road,Hucclecote,Gloucester,Tree Tops Childrens Nursery,Other catering premises,7841,5,,104917,5,,51.85198066000000,35907/0141/0/000,129,ehenquiries@tewkesbury.gov.uk,Tewkesbury,http://www.tewkesbury.gov.uk,-2.17748507000000,,2014-03-27,fhrs_5_en-GB,5,,FHRS,5
312394,7 Ashchurch Road,Tewkesbury,Gloucestershire,,Treetops Nursery,Other catering premises,7841,10,,105074,5,,51.99593400000000,36001/0007/0/000,129,ehenquiries@tewkesbury.gov.uk,Tewkesbury,http://www.tewkesbury.gov.uk,-2.13575400000000,GL20 8DP,2014-07-23,fhrs_4_en-GB,4,,FHRS,5
312395,Trelleborg Sealing Solutions Limite,International Drive,Tewkesbury Business Park,Tewkesbury,Trelleborg Sealing Solutions,Restaurant/Cafe/Canteen,1,5,,33955,0,,52.00081800000000,10/00078/COMM,129,ehenquiries@tewkesbury.gov.uk,Tewkesbury,http://www.tewkesbury.gov.uk,-2.12615500000000,GL20 8UQ,2012-10-18,fhrs_5_en-GB,5,,FHRS,0
312396,,,,,Trish's Tasty Treats,Mobile caterer,7846,10,,29843,5,,,09/00118/COMM,129,ehenquiries@tewkesbury.gov.uk,Tewkesbury,http://www.tewkesbury.gov.uk,,,2013-04-30,fhrs_4_en-GB,4,,FHRS,5
312397,High Street,Stanton,Broadway,Worcestershire,Trustees Burland Hall,Other catering premises,7841,10,,95027,5,,52.00666100000000,28009/1012/2/000,129,ehenquiries@tewkesbury.gov.uk,Tewkesbury,http://www.tewkesbury.gov.uk,-1.90056800000000,WR12 7NF,2008-05-28,fhrs_4_en-GB,4,,FHRS,0
312398,51 High Street,Tewkesbury,Gloucestershire,,Tudor House Hotel,Hotel/bed & breakfast/guest house,7842,10,,487085,15,,51.99553100000000,12/00125/COMM,129,ehenquiries@tewkesbury.gov.uk,Tewkesbury,http://www.tewkesbury.gov.uk,-2.15649300000000,GL20 5BH,2014-05-30,fhrs_2_en-GB,2,,FHRS,5
312399,St Johns Church Hall,Parton Road,Churchdown,Gloucester,Tuesday Lunch Club,Restaurant/Cafe/Canteen,1,5,,610483,0,,,13/00083/COMM,129,ehenquiries@tewkesbury.gov.uk,Tewkesbury,http://www.tewkesbury.gov.uk,,,2013-09-03,fhrs_5_en-GB,5,,FHRS,5
312400,Little Witcombe,Gloucester,Gloucestershire,,Twelve Bells Beefeater,Other catering premises,7841,10,,20468,5,,51.83945465087890,06023/1003/2/000,129,ehenquiries@tewkesbury.gov.uk,Tewkesbury,http://www.tewkesbury.gov.uk,-2.13969445228577,GL3 4SS,2014-04-30,fhrs_2_en-GB,2,,FHRS,15
312401,Twigworth Services,Tewkesbury Road,Twigworth,Gloucester,Twigworth Service Station,Retailers - other,4613,5,,134532,5,,51.89552200000000,68004/1047/2/000,129,ehenquiries@tewkesbury.gov.uk,Tewkesbury,http://www.tewkesbury.gov.uk,-2.22995400000000,GL2 9PG,2014-02-06,fhrs_5_en-GB,5,,FHRS,5
312402,Tewkesbury,Gloucestershire,,,Two Back Of Avon,Hotel/bed & breakfast/guest house,7842,5,,102461,10,,51.99485397338870,34001/0002/0/000,129,ehenquiries@tewkesbury.gov.uk,Tewkesbury,http://www.tewkesbury.gov.uk,-2.15802001953125,GL20 5BA,2009-09-07,fhrs_4_en-GB,4,,FHRS,5
312403,16 Knightsbridge Business Centre,Knightsbridge,Elmstone Hardwicke,Cheltenham,Two Rivers Production Company,Restaurant/Cafe/Canteen,1,5,,528254,5,,51.94048000000000,13/00011/COMM,129,ehenquiries@tewkesbury.gov.uk,Tewkesbury,http://www.tewkesbury.gov.uk,-2.15659200000000,GL51 9TA,2014-10-13,fhrs_5_en-GB,5,,FHRS,5
312404,High Street,Twyning,Tewkesbury,Gloucestershire,Twyning County Primary School,School/college/university,7845,5,,29383,5,,51.99747800000000,09/00077/COMM,129,ehenquiries@tewkesbury.gov.uk,Tewkesbury,http://www.tewkesbury.gov.uk,-2.15467800000000,,2014-01-08,fhrs_5_en-GB,5,,FHRS,5
312405,Village Hall,Fleet Road,Twyning,Tewkesbury,Twyning Luncheon Club,Other catering premises,7841,5,,516804,5,,52.02772600000000,13/00022/COMM,129,ehenquiries@tewkesbury.gov.uk,Tewkesbury,http://www.tewkesbury.gov.uk,-2.14293400000000,GL20 6DG,2014-10-17,fhrs_5_en-GB,5,,FHRS,5
312406,Fleet Road,Twyning,Tewkesbury,Gloucestershire,Twyning Village Hall,Other catering premises,7841,0,,110301,5,,52.02772600000000,40012/1011/2/000,129,ehenquiries@tewkesbury.gov.uk,Tewkesbury,http://www.tewkesbury.gov.uk,-2.14293400000000,GL20 6DG,2014-03-07,fhrs_5_en-GB,5,,FHRS,0
312407,High Street,Twyning,Tewkesbury,Gloucestershire,Twyning Village Stores,Retailers - other,4613,5,,542551,5,,52.02988400000000,13/00032/COMM,129,ehenquiries@tewkesbury.gov.uk,Tewkesbury,http://www.tewkesbury.gov.uk,-2.15001000000000,GL20 6DE,2013-04-29,fhrs_5_en-GB,5,,FHRS,5
312408,Tithe Barn,Cheltenham Road,Bishops Cleeve,Cheltenham,Tythe Barn Playgroup,Hospitals/Childcare/Caring Premises,5,0,,46576,0,,51.94566500000000,11/00073/COMM,129,ehenquiries@tewkesbury.gov.uk,Tewkesbury,http://www.tewkesbury.gov.uk,-2.06358700000000,GL52 8LU,2011-10-19,fhrs_5_en-GB,5,,FHRS,5
312409,Uckington Village Hall,Shephard Mead,Gloucester Road,Tewkesbury,Uckington And Elmstone Hardwicke Village Hall,Other catering premises,7841,5,,111711,5,,51.98690775348546,41014/1009/2/000,129,ehenquiries@tewkesbury.gov.uk,Tewkesbury,http://www.tewkesbury.gov.uk,-2.16317523389993,,2009-01-09,fhrs_5_en-GB,5,,FHRS,5
312410,,,,,Ultimate Chocolate Fountains,Retailers - other,4613,0,,45448,5,,,11/00008/COMM,129,ehenquiries@tewkesbury.gov.uk,Tewkesbury,http://www.tewkesbury.gov.uk,,,2011-05-05,fhrs_5_en-GB,5,,FHRS,5
312411,Twyning Green,Twyning,Tewkesbury,Gloucestershire,Village Inn,Pub/bar/nightclub,7843,5,,406259,10,,52.02861100000000,12/00044/COMM,129,ehenquiries@tewkesbury.gov.uk,Tewkesbury,http://www.tewkesbury.gov.uk,-2.14669800000000,GL20 6DF,2014-03-18,fhrs_4_en-GB,4,,FHRS,5
312412,Brewers Cottage,Forthampton,Tewkesbury,Gloucestershire,Village Shop,Retailers - other,4613,0,,126942,0,,51.99198700000000,56001/1003/2/000,129,ehenquiries@tewkesbury.gov.uk,Tewkesbury,http://www.tewkesbury.gov.uk,-2.20925900000000,GL19 4QA,2007-10-17,fhrs_5_en-GB,5,,FHRS,0
312413,36 Delavale Road,Winchcombe,Cheltenham,Gloucestershire,Vine House B&B,Hotel/bed & breakfast/guest house,7842,5,,644280,5,,51.95914700000000,14/00004/COMM,129,ehenquiries@tewkesbury.gov.uk,Tewkesbury,http://www.tewkesbury.gov.uk,-1.97039500000000,GL54 5HN,2014-04-22,fhrs_5_en-GB,5,,FHRS,5
312414,Unit 5020,Gloucester Business Park,Brockworth,Gloucester,Virgin Active,Other catering premises,7841,10,,25008,10,,51.84701700000000,08/00035/COMM,129,ehenquiries@tewkesbury.gov.uk,Tewkesbury,http://www.tewkesbury.gov.uk,-2.17152400000000,GL3 4BJ,2014-11-06,fhrs_3_en-GB,3,,FHRS,10
312415,,,,,Vivienne McNulty Catering,Other catering premises,7841,10,,95035,5,,,28010/1003/2/000,129,ehenquiries@tewkesbury.gov.uk,Tewkesbury,http://www.tewkesbury.gov.uk,,,2011-07-26,fhrs_4_en-GB,4,,FHRS,5
312416,Theoc House,Margaret Road,Priors Park,Tewkesbury,Voyage Care,Other catering premises,7841,5,,25018,5,,51.98634600000000,08/00036/COMM,129,ehenquiries@tewkesbury.gov.uk,Tewkesbury,http://www.tewkesbury.gov.uk,-2.15382500000000,GL20 5HZ,2009-02-13,fhrs_5_en-GB,5,,FHRS,5
312417,,,,,W I Market,Other catering premises,7841,5,,110303,5,,,40015/1017/2/000,129,ehenquiries@tewkesbury.gov.uk,Tewkesbury,http://www.tewkesbury.gov.uk,,,2008-04-24,fhrs_5_en-GB,5,,FHRS,5
312418,Mitton Manor Garage,Bredon Road,Tewkesbury,Gloucestershire,Warners Retail Ltd,Retailers - other,4613,0,,102463,0,,51.99876500000000,34004/1011/2/000,129,ehenquiries@tewkesbury.gov.uk,Tewkesbury,http://www.tewkesbury.gov.uk,-2.15174100000000,GL20 5DA,2011-07-22,fhrs_5_en-GB,5,,FHRS,0
312419,Washpool Equestrian Centre,Stanton Road,Stanton,Stanton,Washpool Equestrian Centre Coffee Shop,Other catering premises,7841,10,,25161,5,,52.00646200000000,08/00050/COMM,129,ehenquiries@tewkesbury.gov.uk,Tewkesbury,http://www.tewkesbury.gov.uk,-1.89950500000000,WR12 7NE,2013-08-14,fhrs_3_en-GB,3,,FHRS,10
312420,Sudeley Castle,Sudeley,Winchcombe,Cheltenham,Wesley House Events,Other catering premises,7841,5,,92441,5,,51.95262145996090,26027/1020/2/001,129,ehenquiries@tewkesbury.gov.uk,Tewkesbury,http://www.tewkesbury.gov.uk,-1.96299004554749,,2012-11-16,fhrs_4_en-GB,4,,FHRS,10
312421,16 Isbourne Way,Winchcombe,Gloucestershire,,Wesley House Events Ltd,Other catering premises,7841,10,,28942,5,,51.96469900000000,09/00039/COMM,129,ehenquiries@tewkesbury.gov.uk,Tewkesbury,http://www.tewkesbury.gov.uk,-1.95672500000000,GL54 5NS,2014-04-17,fhrs_4_en-GB,4,,FHRS,5
312422,High Street,Winchcombe,Gloucestershire,,Wesley House Restaurant,Other catering premises,7841,5,,114905,5,,51.95331900000000,44028/1019/2/000,129,ehenquiries@tewkesbury.gov.uk,Tewkesbury,http://www.tewkesbury.gov.uk,-1.96422900000000,GL54 5LJ,2014-04-24,fhrs_4_en-GB,4,,FHRS,10
312423,The Grain Store,Cursey Lane,Elmstone Hardwicke,Cheltenham,Western Arable Services,Distributors/Transporters,7,,,728033,,,51.95205300000000,14/00101/COMM,129,ehenquiries@tewkesbury.gov.uk,Tewkesbury,http://www.tewkesbury.gov.uk,-2.14107800000000,GL51 9TF,2014-11-26,fhrs_exempt_en-GB,Exempt,,FHRS,
312424,Wheatpieces District Centre,Columbine Road,Walton Cardiff,Tewkesbury,Wheatpieces Community Centre,Other catering premises,7841,5,,146330,5,,51.98001200000000,88944/1002/2/000,129,ehenquiries@tewkesbury.gov.uk,Tewkesbury,http://www.tewkesbury.gov.uk,-2.14158800000000,,2010-06-18,fhrs_5_en-GB,5,,FHRS,5
312425,White Hart Hotel,High Street,Winchcombe,Gloucestershire,White Hart Inn,Other catering premises,7841,10,,114906,10,,51.95331900000000,44028/1020/2/000,129,ehenquiries@tewkesbury.gov.uk,Tewkesbury,http://www.tewkesbury.gov.uk,-1.96422900000000,GL54 5LJ,2013-07-01,fhrs_2_en-GB,2,,FHRS,15
312426,The Whittle Inn,Gloucester Business Park,Brockworth,Gloucester,Whittle Inn Brewers Fayre,Other catering premises,7841,5,,14884,5,,51.84649100000000,05/00065/COMM,129,ehenquiries@tewkesbury.gov.uk,Tewkesbury,http://www.tewkesbury.gov.uk,-2.17000600000000,,2014-07-10,fhrs_4_en-GB,4,,FHRS,10
312427,,,,,WI Markets,Other catering premises,7841,5,,106544,5,,,37055/0099/0/000,129,ehenquiries@tewkesbury.gov.uk,Tewkesbury,http://www.tewkesbury.gov.uk,,,2009-09-03,fhrs_5_en-GB,5,,FHRS,5
312428,Shuthonger,Tewkesbury,Gloucestershire,,Willow Cottages Bed & Breakfast,Hotel/bed & breakfast/guest house,7842,10,,110340,5,,52.02177429199220,40033/1035/2/000,129,ehenquiries@tewkesbury.gov.uk,Tewkesbury,http://www.tewkesbury.gov.uk,-2.16397356987000,GL20 6EH,2010-02-05,fhrs_4_en-GB,4,,FHRS,5
312429,Plot 8000,Gloucester Business Park,Brockworth,Gloucester,Wincanton Glaxo-Smith-Klyne,Restaurant/Cafe/Canteen,1,5,,46595,10,,51.84649100000000,11/00074/COMM,129,ehenquiries@tewkesbury.gov.uk,Tewkesbury,http://www.tewkesbury.gov.uk,-2.17000600000000,,2013-04-16,fhrs_4_en-GB,4,,FHRS,5
312430,Winchcombe Abbey Church Of England,Back Lane,Winchcombe,Cheltenham,Winchcombe Abbey C Of E Primary School,School/college/university,7845,10,,46434,5,,51.95298000000000,11/00065/COMM,129,ehenquiries@tewkesbury.gov.uk,Tewkesbury,http://www.tewkesbury.gov.uk,-1.97172300000000,GL54 5QH,2013-07-01,fhrs_4_en-GB,4,,FHRS,5
312431,Stone House,Abbey Terrace,Winchcombe,Cheltenham,Winchcombe Antiques Centre,Other catering premises,7841,5,,447120,5,,51.95269900000000,12/00058/COMM,129,ehenquiries@tewkesbury.gov.uk,Tewkesbury,http://www.tewkesbury.gov.uk,-1.96529200000000,GL54 5LL,2012-08-28,fhrs_5_en-GB,5,,FHRS,5
312432,Winchcombe Chinese Takeway,17 North Street,Winchcombe,Gloucestershire,Winchcombe Cantonese Takeaway,Other catering premises,7841,10,,114930,5,,51.95402100000000,44037/0017/0/000,129,ehenquiries@tewkesbury.gov.uk,Tewkesbury,http://www.tewkesbury.gov.uk,-1.96437400000000,GL54 5LH,2013-10-24,fhrs_2_en-GB,2,,FHRS,15
312433,Greet Road,Winchcombe,Gloucestershire,,Winchcombe Comprehensive School,School/college/university,7845,5,,114890,5,,51.96544800000000,44023/1003/2/001,129,ehenquiries@tewkesbury.gov.uk,Tewkesbury,http://www.tewkesbury.gov.uk,-1.96439400000000,GL54 5LB,2014-01-07,fhrs_4_en-GB,4,,FHRS,10
312434,Abbey Terrace,Winchcombe,Gloucestershire,,Winchcombe Conservative Working Men's Club,Other catering premises,7841,5,,114852,5,,51.95269900000000,44001/1011/2/000,129,ehenquiries@tewkesbury.gov.uk,Tewkesbury,http://www.tewkesbury.gov.uk,-1.96529200000000,GL54 5LL,2012-01-02,fhrs_5_en-GB,5,,FHRS,5
312435,Winchcombe Guide Hall,High Street,Winchcombe,Cheltenham,Winchcombe Country Markets,Retailers - other,4613,0,,114894,0,,51.95331900000000,44024/1003/2/000,129,ehenquiries@tewkesbury.gov.uk,Tewkesbury,http://www.tewkesbury.gov.uk,-1.96422900000000,GL54 5LJ,2008-12-10,fhrs_5_en-GB,5,,FHRS,5
312436,Corndean Lane,Winchcombe,Cheltenham,Gloucestershire,Winchcombe Cricket Club,Other catering premises,7841,10,,114875,10,,51.94629100000000,44015/1022/2/000,129,ehenquiries@tewkesbury.gov.uk,Tewkesbury,http://www.tewkesbury.gov.uk,-1.97411300000000,GL54 5NL,2013-04-18,fhrs_3_en-GB,3,,FHRS,10
312437,Winchcombe Day Centre,Langley Close,Winchcombe,Cheltenham,Winchcombe Day Care Centre,Other catering premises,7841,5,,114919,0,,51.95192400000000,44033/1002/2/000,129,ehenquiries@tewkesbury.gov.uk,Tewkesbury,http://www.tewkesbury.gov.uk,-1.97291200000000,,2013-08-15,fhrs_5_en-GB,5,,FHRS,0
312438,Winchcombe Methodist Church & Hall,High Street,Winchcombe,Gloucestershire,Winchcombe Methodist Church,Other catering premises,7841,5,,114908,10,,51.95078700000000,44028/1030/2/000,129,ehenquiries@tewkesbury.gov.uk,Tewkesbury,http://www.tewkesbury.gov.uk,-1.97606100000000,GL54 5QR,2009-01-07,fhrs_4_en-GB,4,,FHRS,5
312439,Back Lane,Winchcombe,Gloucester,GL545QJ,Winchcombe Playgroup,Hospitals/Childcare/Caring Premises,5,5,,633493,5,,,04/00022/COMM,129,ehenquiries@tewkesbury.gov.uk,Tewkesbury,http://www.tewkesbury.gov.uk,,,2014-02-03,fhrs_5_en-GB,5,,FHRS,5
312440,Scout Hall,Cheltenham Road,Bishops Cleeve,Cheltenham,Winchcombe Scouts,Other catering premises,7841,5,,114872,5,,51.93759300000000,44012/1017/2/000,129,ehenquiries@tewkesbury.gov.uk,Tewkesbury,http://www.tewkesbury.gov.uk,-2.06571800000000,,2009-01-09,fhrs_4_en-GB,4,,FHRS,10
312441,Gretton Road,Gotherington,Cheltenham,Gloucestershire,Winchcombe Youth Centre,Other catering premises,7841,5,,114895,5,,51.96655600000000,44024/1010/2/000,129,ehenquiries@tewkesbury.gov.uk,Tewkesbury,http://www.tewkesbury.gov.uk,-2.04383000000000,,2009-11-26,fhrs_4_en-GB,4,,FHRS,10
312442,Pillcroft Road,Witcombe,Gloucester,Gloucestershire,Witcombe & Bentham Village Hall,Other catering premises,7841,5,,20471,5,,51.84187100000000,06026/1001/2/000,129,ehenquiries@tewkesbury.gov.uk,Tewkesbury,http://www.tewkesbury.gov.uk,-2.14045700000000,GL3 4TB,2009-01-09,fhrs_5_en-GB,5,,FHRS,5
312443,Birdlip Hill,Witcombe,Gloucester,Gloucestershire,Witcombe & District Cricket Club,Other catering premises,7841,5,,74072,5,,,17007/1023/2/000,129,ehenquiries@tewkesbury.gov.uk,Tewkesbury,http://www.tewkesbury.gov.uk,,,2011-01-29,fhrs_5_en-GB,5,,FHRS,5
312444,Bushcombe Close,Woodmancote,Cheltenham,Gloucestershire,Woodmancote New Village Hall,Other catering premises,7841,0,,134711,5,,51.94558500000000,68202/1001/2/000,129,ehenquiries@tewkesbury.gov.uk,Tewkesbury,http://www.tewkesbury.gov.uk,-2.04291400000000,GL52 9HX,2009-01-07,fhrs_4_en-GB,4,,FHRS,10
312445,Station Road,Bishops Cleeve,Cheltenham,Gloucestershire,Woodmancote Primary School,School/college/university,7845,0,,29394,5,,51.94756300000000,09/00078/COMM,129,ehenquiries@tewkesbury.gov.uk,Tewkesbury,http://www.tewkesbury.gov.uk,-2.04813300000000,,2014-05-09,fhrs_5_en-GB,5,,FHRS,5
312446,Pecked Lane,Bishops Cleeve,Cheltenham,Gloucestershire,Woodmancote Royal British Legion Club,Other catering premises,7841,5,,23831,5,,51.94479700000000,07045/1003/2/000,129,ehenquiries@tewkesbury.gov.uk,Tewkesbury,http://www.tewkesbury.gov.uk,-2.05380300000000,,2011-10-24,fhrs_5_en-GB,5,,FHRS,5
312447,,,,,Woodmancote Weenies Childminder,Hospitals/Childcare/Caring Premises,5,10,,716335,5,,,14/00009/COMM,129,ehenquiries@tewkesbury.gov.uk,Tewkesbury,http://www.tewkesbury.gov.uk,,,2014-10-20,fhrs_4_en-GB,4,,FHRS,5
312448,Rodway Hill Golf Course,Newent Road,Highnam,Gloucester,Woodpecker Restaurant,Restaurant/Cafe/Canteen,1,10,,45465,15,,,11/00009/COMM,129,ehenquiries@tewkesbury.gov.uk,Tewkesbury,http://www.tewkesbury.gov.uk,,,2014-07-03,fhrs_2_en-GB,2,,FHRS,15
312449,Nupend,Ashleworth,Gloucester,Gloucestershire,Woodpeckers Sports And Social Club,Other catering premises,7841,5,,116782,5,,51.93077850341797,46001/1008/2/000,129,ehenquiries@tewkesbury.gov.uk,Tewkesbury,http://www.tewkesbury.gov.uk,-2.27478384971619,GL19 4JJ,2010-07-01,fhrs_4_en-GB,4,,FHRS,10
312450,97 High Street,Tewkesbury,Gloucestershire,,Woody's,Retailers - other,4613,10,,102484,10,,51.99515400000000,34009/0097/0/000,129,ehenquiries@tewkesbury.gov.uk,Tewkesbury,http://www.tewkesbury.gov.uk,-2.15618600000000,GL20 5JZ,2012-02-07,fhrs_3_en-GB,3,,FHRS,10
312451,Dairymead,Main Street,Wormington,Broadway,Wormington Village Society,Other catering premises,7841,10,,610487,5,,52.02589300000000,13/00091/COMM,129,ehenquiries@tewkesbury.gov.uk,Tewkesbury,http://www.tewkesbury.gov.uk,-1.94336000000000,WR12 7NL,2013-11-08,fhrs_4_en-GB,4,,FHRS,5
312452,,,,,Wow Cakes,Other catering premises,7841,5,,14849,5,,,05/00061/COMM,129,ehenquiries@tewkesbury.gov.uk,Tewkesbury,http://www.tewkesbury.gov.uk,,,2009-01-28,fhrs_5_en-GB,5,,FHRS,0
312453,Northway Parish Council,Ray Shill Building,Lee Walk,Northway,WRVS Luncheon Club,Other catering premises,7841,10,,8519,5,,52.00264100000000,03009/1001/2/001,129,ehenquiries@tewkesbury.gov.uk,Tewkesbury,http://www.tewkesbury.gov.uk,-2.11032600000000,GL20 8QG,2013-07-31,fhrs_4_en-GB,4,,FHRS,5
312454,Stratford Bridge,Ripple,Tewkesbury,Gloucestershire,Ye Old Hut Cafe Ltd.,Other catering premises,7841,5,,110338,5,,52.04742431640630,40032/1007/2/000,129,ehenquiries@tewkesbury.gov.uk,Tewkesbury,http://www.tewkesbury.gov.uk,-2.17541193962097,GL20 6HE,2014-11-13,fhrs_5_en-GB,5,,FHRS,5
312455,High Street,Tewkesbury,Gloucestershire,,Ye Olde Black Bear,Pub/bar/nightclub,7843,5,,102482,5,,51.99630500000000,34009/0068/2/000,129,ehenquiries@tewkesbury.gov.uk,Tewkesbury,http://www.tewkesbury.gov.uk,-2.15603000000000,GL20 5BJ,2014-06-02,fhrs_4_en-GB,4,,FHRS,10
312456,25 High Street,Tewkesbury,Gloucestershire,,Zitto E Mangia,Other catering premises,7841,5,,728034,5,,,14/00105/COMM,129,ehenquiries@tewkesbury.gov.uk,Tewkesbury,http://www.tewkesbury.gov.uk,,,2014-12-02,fhrs_5_en-GB,5,,FHRS,5
