,addressline1,addressline2,addressline3,addressline4,businessname,businesstype,businesstypeid,confidenceinmanagement,extractdate,fhrsid,hygiene,itemcount,latitude,localauthoritybusinessid,localauthoritycode,localauthorityemailaddress,localauthorityname,localauthoritywebsite,longitude,postcode,ratingdate,ratingkey,ratingvalue,returncode,schemetype,structural
214822,Knightsbridge Farm Newbury Road Headley Thatcham Hampshire RG19 8JY,,,,4 Kingdoms Adventure Park,Restaurant/Cafe/Canteen,1,30,,542538,10,,51.36434500000000,13/00024/CP,131,ehteam@basingstoke.gov.uk,Basingstoke and Deane,http://www.basingstoke.gov.uk,-1.26792000000000,RG19 8JY,2014-12-10,fhrs_0_en-GB,0,,FHRS,15
214823,23 Mulfords Hill Tadley Hampshire RG26 3LQ,,,,Acorn Cottage Childrens Home,Hospitals/Childcare/Caring Premises,5,10,,64806,10,,51.35133900000000,14480/0023/0/000,131,ehteam@basingstoke.gov.uk,Basingstoke and Deane,http://www.basingstoke.gov.uk,-1.13899000000000,RG26 3LQ,2014-06-04,fhrs_3_en-GB,3,,FHRS,10
214824,Active Tots 5 - 7 Granary Court Fair Oak Green Stratfield Saye Reading Hampshire RG7 2DL,,,,Active Tots,Hospitals/Childcare/Caring Premises,5,5,,406851,5,,51.34194000000000,06/00015/CP,131,ehteam@basingstoke.gov.uk,Basingstoke and Deane,http://www.basingstoke.gov.uk,-1.04146700000000,RG7 2DL,2014-08-08,fhrs_5_en-GB,5,,FHRS,5
214825,Agra Balti House 34 Winchester Street Basingstoke Hampshire RG21 7EY,,,,Agra Balti House,Restaurant/Cafe/Canteen,1,5,,89171,5,,51.26240200000000,23730/0034/0/000,131,ehteam@basingstoke.gov.uk,Basingstoke and Deane,http://www.basingstoke.gov.uk,-1.08941400000000,RG21 7EY,2014-06-09,fhrs_5_en-GB,5,,FHRS,5
214826,Freemantle Park Farm Cottington Hill Hannington Tadley Hampshire RG26 5UD,,,,Alastair Carey & Company,Other catering premises,7841,5,,16968,5,,51.30403000000000,05410/2000/3/BAR,131,ehteam@basingstoke.gov.uk,Basingstoke and Deane,http://www.basingstoke.gov.uk,-1.24291500000000,RG26 5UD,2015-02-05,fhrs_5_en-GB,5,,FHRS,5
214827,Ali Baba Take Away 3 The Parade Mulfords Hill Tadley Hampshire RG26 3LG,,,,Ali Baba,Takeaway/sandwich shop,7844,5,,64824,10,,51.35482200000000,14490/0003/0/000,131,ehteam@basingstoke.gov.uk,Basingstoke and Deane,http://www.basingstoke.gov.uk,-1.14195400000000,RG26 3LG,2013-08-12,fhrs_3_en-GB,3,,FHRS,10
214828,All Things Nice Wildmoor Lane Sherfield-on-Loddon Hook Hampshire RG27 0HB,,,,All Things Nice,Other catering premises,7841,5,,628145,10,,51.31244000000000,14/00010/CP,131,ehteam@basingstoke.gov.uk,Basingstoke and Deane,http://www.basingstoke.gov.uk,-1.01684400000000,RG27 0HB,2014-01-21,fhrs_4_en-GB,4,,FHRS,5
214829,Alphabet City Day Nursery Highfields Sherborne Road Basingstoke Hampshire RG21 5TG,,,,Alphabet City Day Nursery,Hospitals/Childcare/Caring Premises,5,0,,22041,5,,51.27240800000000,07/00109/CP,131,ehteam@basingstoke.gov.uk,Basingstoke and Deane,http://www.basingstoke.gov.uk,-1.09379000000000,RG21 5TG,2013-08-09,fhrs_5_en-GB,5,,FHRS,5
214830,AM Restaurant 29 - 33 Winchester Street Basingstoke Hampshire RG21 7EE,,,,AM Restaurant,Pub/bar/nightclub,7843,5,,89170,10,,51.26221500000000,23730/0029/0/000,131,ehteam@basingstoke.gov.uk,Basingstoke and Deane,http://www.basingstoke.gov.uk,-1.08850100000000,RG21 7EE,2014-12-11,fhrs_4_en-GB,4,,FHRS,5
214831,Anu's Kitchen 4 Queens Parade New Street Basingstoke Hampshire RG21 7DA,,,,Anu's Kitchen,Takeaway/sandwich shop,7844,5,,636438,10,,51.26347000000000,14/00003/CP,131,ehteam@basingstoke.gov.uk,Basingstoke and Deane,http://www.basingstoke.gov.uk,-1.08913500000000,RG21 7DA,2014-02-12,fhrs_4_en-GB,4,,FHRS,5
214832,Loddon Vale Indoor Bowling Club Basingstoke Leisure Park Worting Road Basingstoke Hampshire RG22 6PG,,,,Anywhere Catering At Loddon Vale Indoor Bowling Club,Pub/bar/nightclub,7843,10,,90079,5,,51.26497400000000,24382/2007/2/000,131,ehteam@basingstoke.gov.uk,Basingstoke and Deane,http://www.basingstoke.gov.uk,-1.11767100000000,RG22 6PG,2014-10-20,fhrs_4_en-GB,4,,FHRS,5
214833,Apollo Hotel Popley Way Basingstoke Hampshire RG24 9NU,,,,Apollo Hotel,Hotel/bed & breakfast/guest house,7842,5,,72970,5,,51.27925300000000,16680/2000/2/000,131,ehteam@basingstoke.gov.uk,Basingstoke and Deane,http://www.basingstoke.gov.uk,-1.10222900000000,RG24 9NU,2014-10-29,fhrs_4_en-GB,4,,FHRS,10
214834,Applewood Care Home Coopers Lane Bramley Tadley Hampshire RG26 5BZ,,,,Applewood,Hospitals/Childcare/Caring Premises,5,5,,16680,5,,51.32732300000000,05190/2000/2/000,131,ehteam@basingstoke.gov.uk,Basingstoke and Deane,http://www.basingstoke.gov.uk,-1.06080300000000,RG26 5BZ,2014-08-07,fhrs_5_en-GB,5,,FHRS,5
214835,Automobile Association Fanum House Basing View Basingstoke Hampshire RG21 4EA,,,,Aramark Limited At The Automobile Association,Restaurant/Cafe/Canteen,1,0,,4929,0,,51.26937700000000,01450/2001/2/000,131,ehteam@basingstoke.gov.uk,Basingstoke and Deane,http://www.basingstoke.gov.uk,-1.07072800000000,RG21 4EA,2014-06-06,fhrs_5_en-GB,5,,FHRS,5
214836,Asda Brighton Way Basingstoke Hampshire RG22 4DH,,,,Asda,Retailers - supermarkets/hypermarkets,7840,5,,8567,5,,51.24102500000000,03040/2006/2/000,131,ehteam@basingstoke.gov.uk,Basingstoke and Deane,http://www.basingstoke.gov.uk,-1.11248500000000,RG22 4DH,2014-10-10,fhrs_5_en-GB,5,,FHRS,5
214837,Ashcombe House Nursing Home 65A Worting Road Basingstoke Hampshire RG21 8YU,,,,Ashcombe House Nursing Home,Hospitals/Childcare/Caring Premises,5,0,,89922,0,,51.26245100000000,24260/2015/2/000,131,ehteam@basingstoke.gov.uk,Basingstoke and Deane,http://www.basingstoke.gov.uk,-1.10161000000000,RG21 8YU,2014-03-25,fhrs_5_en-GB,5,,FHRS,5
214838,Ashford Hill Primary School Ashford Hill Road Ashford Hill Thatcham Hampshire RG19 8BB,,,,Ashford Hill Primary School,School/college/university,7845,5,,2329,5,,51.35435300000000,00820/2099/2/000,131,ehteam@basingstoke.gov.uk,Basingstoke and Deane,http://www.basingstoke.gov.uk,-1.20555300000000,RG19 8BB,2015-02-02,fhrs_5_en-GB,5,,FHRS,5
214839,Ask R5 Lower Ground Festival Place Basingstoke Hampshire RG21 7BB,,,,Ask,Restaurant/Cafe/Canteen,1,5,,18588,0,,51.26552000000000,06/00165/CP,131,ehteam@basingstoke.gov.uk,Basingstoke and Deane,http://www.basingstoke.gov.uk,-1.08449400000000,RG21 7BB,2014-03-25,fhrs_4_en-GB,4,,FHRS,10
214840,Audleys Close Alton Road Winslade Basingstoke Hampshire RG25 2JU,,,,Audleys Resource Centre,Restaurant/Cafe/Canteen,1,5,,2554,5,,51.24563400000000,00990/2000/2/000,131,ehteam@basingstoke.gov.uk,Basingstoke and Deane,http://www.basingstoke.gov.uk,-1.07941600000000,RG25 2JU,2014-07-17,fhrs_5_en-GB,5,,FHRS,5
214841,Audleys Wood Alton Road Winslade Basingstoke Hampshire RG25 2JT,,,,Audleys Wood Hotel,Hotel/bed & breakfast/guest house,7842,10,,142119,10,,51.24504100000000,78700380/0000/2/000,131,ehteam@basingstoke.gov.uk,Basingstoke and Deane,http://www.basingstoke.gov.uk,-1.08288000000000,RG25 2JT,2015-01-07,fhrs_3_en-GB,3,,FHRS,5
214842,K14 Festival Place Basingstoke Hampshire RG21 7LJ,,,,Auntie Anne's,Retailers - other,4613,10,,47766,10,,51.26486200000000,11/00167/CP,131,ehteam@basingstoke.gov.uk,Basingstoke and Deane,http://www.basingstoke.gov.uk,-1.08780400000000,RG21 7LJ,2014-11-03,fhrs_3_en-GB,3,,FHRS,5
214843,Avenue Nurseries The Avenue Lasham Alton Hampshire GU34 5SU,,,,Avenue Nurseries Garden Centre,Restaurant/Cafe/Canteen,1,5,,4280,10,,51.19036500000000,01040/2003/2/000,131,ehteam@basingstoke.gov.uk,Basingstoke and Deane,http://www.basingstoke.gov.uk,-1.00539000000000,GU34 5SU,2013-11-29,fhrs_4_en-GB,4,,FHRS,5
214844,AXA Wealth Winterthur Way Basingstoke Hampshire RG21 6SZ,,,,Axa Wealth Staff Canteen,Restaurant/Cafe/Canteen,1,5,,89399,0,,51.26777500000000,23880/2001/2/000,131,ehteam@basingstoke.gov.uk,Basingstoke and Deane,http://www.basingstoke.gov.uk,-1.09122900000000,RG21 6SZ,2014-09-24,fhrs_5_en-GB,5,,FHRS,5
214845,The Badgers Wood Wolverton Road Baughurst Tadley Hampshire RG26 5JH,,,,Badgers Wood,Pub/bar/nightclub,7843,10,,89463,10,,51.35139400000000,23930/2022/2/000,131,ehteam@basingstoke.gov.uk,Basingstoke and Deane,http://www.basingstoke.gov.uk,-1.17036500000000,RG26 5JH,2014-07-07,fhrs_3_en-GB,3,,FHRS,10
214846,The Bakers Arms 15 - 15A Winchester Street Basingstoke Hampshire RG21 7ED,,,,Bakers Arms,Pub/bar/nightclub,7843,10,,89167,5,,51.26233300000000,23730/0015/0/000,131,ehteam@basingstoke.gov.uk,Basingstoke and Deane,http://www.basingstoke.gov.uk,-1.08756700000000,RG21 7ED,2015-01-05,fhrs_3_en-GB,3,,FHRS,10
214847,26 Burnaby Close Basingstoke Hampshire RG22 6UJ,,,,Bao Diep,Takeaway/sandwich shop,7844,5,,8970,5,,51.25906100000000,03480/0026/0/000,131,ehteam@basingstoke.gov.uk,Basingstoke and Deane,http://www.basingstoke.gov.uk,-1.12417600000000,RG22 6UJ,2013-09-25,fhrs_4_en-GB,4,,FHRS,10
214848,Shire Pharmaceuticals Lime Tree Way Chineham Basingstoke Hampshire RG24 8EP,,,,Bartlett Mitchell At Shire Pharmaceuticals,Restaurant/Cafe/Canteen,1,0,,17147,5,,51.29771100000000,05580/2001/2/000,131,ehteam@basingstoke.gov.uk,Basingstoke and Deane,http://www.basingstoke.gov.uk,-1.06397400000000,RG24 8EP,2014-01-28,fhrs_5_en-GB,5,,FHRS,0
214849,Bartons Mill Bartons Lane Old Basing Basingstoke Hampshire RG24 8AE,,,,Bartons Mill And Millstone,Restaurant/Cafe/Canteen,1,5,,4860,0,,51.27315500000000,01360/2000/2/000,131,ehteam@basingstoke.gov.uk,Basingstoke and Deane,http://www.basingstoke.gov.uk,-1.05406600000000,RG24 8AE,2014-12-04,fhrs_4_en-GB,4,,FHRS,10
214850,46 Belle Vue Road Old Basing Basingstoke Hampshire RG24 7JU,,,,Basing Chinese Take Away,Takeaway/sandwich shop,7844,5,,10165,0,,51.26915900000000,04/00136/CP,131,ehteam@basingstoke.gov.uk,Basingstoke and Deane,http://www.basingstoke.gov.uk,-1.04037200000000,RG24 7JU,2014-10-27,fhrs_5_en-GB,5,,FHRS,5
214851,Basingfield Court Elderly Persons Home Huish Lane Old Basing Basingstoke Hampshire RG24 7BN,,,,Basingfield Court,Hospitals/Childcare/Caring Premises,5,5,,43836,0,,51.26263800000000,10660/2000/2/000,131,ehteam@basingstoke.gov.uk,Basingstoke and Deane,http://www.basingstoke.gov.uk,-1.04122500000000,RG24 7BN,2014-09-15,fhrs_5_en-GB,5,,FHRS,5
214852,Basingstoke College Of Technology Worting Road Basingstoke Hampshire RG21 8TN,,,,Basingstoke College Of Technology (Training Kitchen),Restaurant/Cafe/Canteen,1,5,,89925,15,,51.26354700000000,24260/2019/2/002,131,ehteam@basingstoke.gov.uk,Basingstoke and Deane,http://www.basingstoke.gov.uk,-1.09568400000000,RG21 8TN,2014-09-12,fhrs_2_en-GB,2,,FHRS,5
214853,Basingstoke Conservative Club Bounty Road Basingstoke Hampshire RG21 3DD,,,,Basingstoke Conservative Club,Pub/bar/nightclub,7843,5,,6812,5,,51.26023600000000,02540/2002/2/000,131,ehteam@basingstoke.gov.uk,Basingstoke and Deane,http://www.basingstoke.gov.uk,-1.09306900000000,RG21 3DD,2014-08-19,fhrs_4_en-GB,4,,FHRS,10
214854,Basingstoke Country Hotel Scures Hill Nately Scures Hook Hampshire RG27 9JS,,,,Basingstoke Country Hotel,Hotel/bed & breakfast/guest house,7842,0,,77991,0,,51.27386300000000,18450/2028/2/000,131,ehteam@basingstoke.gov.uk,Basingstoke and Deane,http://www.basingstoke.gov.uk,-0.98817800000000,RG27 9JS,2014-06-18,fhrs_5_en-GB,5,,FHRS,5
214855,Basingstoke Golf Club Winchester Road Kempshott Hill Basingstoke Hampshire RG23 7LL,,,,Basingstoke Golf Club,Pub/bar/nightclub,7843,0,,50420,5,,51.23012600000000,11230/2005/2/000,131,ehteam@basingstoke.gov.uk,Basingstoke and Deane,http://www.basingstoke.gov.uk,-1.14625100000000,RG23 7LL,2014-09-04,fhrs_5_en-GB,5,,FHRS,0
214856,North Hampshire Hospital Aldermaston Road Basingstoke Hampshire RG24 9NA,,,,Basingstoke Hospital,Hospitals/Childcare/Caring Premises,5,5,,1343,5,,51.28125700000000,00140/1000/2/000,131,ehteam@basingstoke.gov.uk,Basingstoke and Deane,http://www.basingstoke.gov.uk,-1.07013500000000,RG24 9LZ,2014-10-01,fhrs_4_en-GB,4,,FHRS,10
214857,Worting Road Basingstoke Hampshire,,,,Basingstoke Kebab House,Mobile caterer,7846,5,,456111,5,,51.26232800000000,04/00028/CP,131,ehteam@basingstoke.gov.uk,Basingstoke and Deane,http://www.basingstoke.gov.uk,-1.10795600000000,,2015-01-06,fhrs_4_en-GB,4,,FHRS,10
214858,Basingstoke Rugby Club Pack Lane Basingstoke Hampshire RG22 5HH,,,,Basingstoke Rugby Club,Pub/bar/nightclub,7843,5,,69727,10,,51.25066400000000,15730/2001/2/000,131,ehteam@basingstoke.gov.uk,Basingstoke and Deane,http://www.basingstoke.gov.uk,-1.12920700000000,RG22 5HH,2013-07-15,fhrs_4_en-GB,4,,FHRS,5
214859,Basingstoke Town Football Club (Camrose Ground) Western Way Basingstoke Hampshire RG22 6EZ,,,,Basingstoke Town Football Club,Pub/bar/nightclub,7843,20,,88213,10,,51.25174500000000,23010/2003/2/000,131,ehteam@basingstoke.gov.uk,Basingstoke and Deane,http://www.basingstoke.gov.uk,-1.11272300000000,RG22 6EZ,2014-11-21,fhrs_1_en-GB,1,,FHRS,10
214860,Honeywell Avionics Systems Ltd Edison Road Basingstoke Hampshire RG21 6QD,,,,Baxter Storey At Honeywell Avionics,Restaurant/Cafe/Canteen,1,0,,21001,0,,51.27627600000000,06690/2000/2/000,131,ehteam@basingstoke.gov.uk,Basingstoke and Deane,http://www.basingstoke.gov.uk,-1.10331900000000,RG21 6QD,2013-06-05,fhrs_5_en-GB,5,,FHRS,5
214861,Lansing Linde Ltd Kingsclere Road Basingstoke Hampshire RG21 6XJ,,,,Baxter Storey At Linde Material Handling (UK) Ltd,Restaurant/Cafe/Canteen,1,0,,51336,0,,51.26991000000000,11490/2002/2/000,131,ehteam@basingstoke.gov.uk,Basingstoke and Deane,http://www.basingstoke.gov.uk,-1.09993100000000,RG21 6XJ,2013-03-11,fhrs_5_en-GB,5,,FHRS,5
214862,Basingstoke College Of Technology Worting Road Basingstoke Hampshire RG21 8TN,,,,BCoT Nursery,Hospitals/Childcare/Caring Premises,5,5,,89924,5,,51.26354700000000,24260/2019/2/001,131,ehteam@basingstoke.gov.uk,Basingstoke and Deane,http://www.basingstoke.gov.uk,-1.09568400000000,RG21 8TN,2014-09-16,fhrs_5_en-GB,5,,FHRS,5
214863,Beach Arms Hotel Clerken Green Andover Road Oakley Basingstoke Hampshire RG23 7EP,,,,Beach Arms Hotel,Pub/bar/nightclub,7843,0,,1923,5,,51.25520000000000,00500/3000/0/000,131,ehteam@basingstoke.gov.uk,Basingstoke and Deane,http://www.basingstoke.gov.uk,-1.19245900000000,RG23 7EP,2013-12-03,fhrs_5_en-GB,5,,FHRS,5
214864,Beech Tree Care Home Sprents Lane Overton Basingstoke Hampshire RG25 3HX,,,,Beech Tree Care Home,Hospitals/Childcare/Caring Premises,5,10,,80114,5,,51.24180700000000,19350/2006/2/000,131,ehteam@basingstoke.gov.uk,Basingstoke and Deane,http://www.basingstoke.gov.uk,-1.26145700000000,RG25 3HX,2014-12-04,fhrs_4_en-GB,4,,FHRS,5
214865,Beechdown Health And Leisure Club Winchester Road Basingstoke Hampshire RG22 4ES,,,,Beechdown Club,Restaurant/Cafe/Canteen,1,10,,89092,5,,51.24723700000000,23680/2005/2/000,131,ehteam@basingstoke.gov.uk,Basingstoke and Deane,http://www.basingstoke.gov.uk,-1.12431500000000,RG22 4ES,2014-11-06,fhrs_3_en-GB,3,,FHRS,10
214866,3 Anstey Close Basingstoke Hampshire RG21 3JG,,,,Beijing House Takeaway,Takeaway/sandwich shop,7844,5,,1999,10,,51.25284400000000,00550/0003/0/000,131,ehteam@basingstoke.gov.uk,Basingstoke and Deane,http://www.basingstoke.gov.uk,-1.09302800000000,RG21 3JG,2013-07-12,fhrs_4_en-GB,4,,FHRS,5
214867,The Bengal Brasserie 4 Winchester Street Basingstoke Hampshire RG21 7DY,,,,Bengal Brasserie Restaurant,Restaurant/Cafe/Canteen,1,10,,89166,10,,51.26256900000000,23730/0004/0/000,131,ehteam@basingstoke.gov.uk,Basingstoke and Deane,http://www.basingstoke.gov.uk,-1.08783500000000,RG21 7DY,2014-11-19,fhrs_2_en-GB,2,,FHRS,15
214868,Berehill Nursing Home Berehill House Newbury Road Whitchurch Hampshire RG28 7DX,,,,Berehill House Nursing  Home,Hospitals/Childcare/Caring Premises,5,0,,65324,0,,51.23282600000000,14660/2000/2/000,131,ehteam@basingstoke.gov.uk,Basingstoke and Deane,http://www.basingstoke.gov.uk,-1.33681000000000,RG28 7DX,2014-12-18,fhrs_5_en-GB,5,,FHRS,0
214869,Berry Brothers And Rudd Ltd Hamilton Close Basingstoke Hampshire RG21 6YB,,,,Berrys Cafe,Restaurant/Cafe/Canteen,1,5,,550962,0,,51.27528700000000,13/00010/CP,131,ehteam@basingstoke.gov.uk,Basingstoke and Deane,http://www.basingstoke.gov.uk,-1.10689400000000,RG21 6YB,2014-10-02,fhrs_5_en-GB,5,,FHRS,5
214870,Bethany Nursing Home 17A Pamber Heath Road Pamber Heath Tadley Hampshire RG26 3TH,,,,Bethany Nursing Home And Bethany Oaks Coffee Shop,Hospitals/Childcare/Caring Premises,5,5,,70010,5,,51.35206200000000,15830/0017/A/000,131,ehteam@basingstoke.gov.uk,Basingstoke and Deane,http://www.basingstoke.gov.uk,-1.12733000000000,RG26 3TH,2014-04-17,fhrs_5_en-GB,5,,FHRS,5
214871,BHS To-Go Lower Ground Festival Place Basingstoke Hampshire RG21 7BE,,,,BHS To Go,Restaurant/Cafe/Canteen,1,0,,7423,0,,51.26557200000000,03/00018/CP,131,ehteam@basingstoke.gov.uk,Basingstoke and Deane,http://www.basingstoke.gov.uk,-1.08548200000000,RG21 7BE,2014-01-07,fhrs_5_en-GB,5,,FHRS,5
214872,Bhuller Stores 89 St Peters Road Basingstoke Hampshire RG22 6TS,,,,Bhuller Stores,Retailers - other,4613,10,,187773,5,,51.25970200000000,19680/0089/0/000,131,ehteam@basingstoke.gov.uk,Basingstoke and Deane,http://www.basingstoke.gov.uk,-1.12092500000000,RG22 6TS,2014-02-21,fhrs_4_en-GB,4,,FHRS,5
214873,Prowess Partnership Silchester House Holly Lane Silchester Reading Hampshire RG7 2NA,,,,Bijou Weddings At Silchester House,Hotel/bed & breakfast/guest house,7842,5,,41994,5,,51.35337600000000,10380/3000/2/000,131,ehteam@basingstoke.gov.uk,Basingstoke and Deane,http://www.basingstoke.gov.uk,-1.09894300000000,RG7 2NA,2014-02-19,fhrs_4_en-GB,4,,FHRS,10
214874,Bishopswood Golf Course Bishopswood Lane Baughurst Tadley Hampshire RG26 4AT,,,,Bishopswood Golf Course,Pub/bar/nightclub,7843,10,,6458,10,,51.34934600000000,02210/2014/2/000,131,ehteam@basingstoke.gov.uk,Basingstoke and Deane,http://www.basingstoke.gov.uk,-1.15680400000000,RG26 4AT,2014-06-17,fhrs_3_en-GB,3,,FHRS,10
214875,Black Dam Chinese Kitchen 3 Rucstall Centre Holbein Close Basingstoke Hampshire RG21 3QN,,,,Black Dam Chinese Kitchen,Takeaway/sandwich shop,7844,5,,90084,5,,51.25854900000000,24383/0003/2/000,131,ehteam@basingstoke.gov.uk,Basingstoke and Deane,http://www.basingstoke.gov.uk,-1.07172000000000,RG21 3QN,2013-08-07,fhrs_4_en-GB,4,,FHRS,10
214876,Hamilton Close Basingstoke Hampshire,,,,Blue Cafe,Mobile caterer,7846,5,,456122,0,,51.27451800000000,09080/0000/G/000,131,ehteam@basingstoke.gov.uk,Basingstoke and Deane,http://www.basingstoke.gov.uk,-1.10751500000000,,2014-02-07,fhrs_5_en-GB,5,,FHRS,0
214877,Blue Ginger Bell Street Whitchurch Hampshire RG28 7AE,,,,Blue Ginger,Restaurant/Cafe/Canteen,1,5,,34446,5,,51.23028200000000,10/00118/CP,131,ehteam@basingstoke.gov.uk,Basingstoke and Deane,http://www.basingstoke.gov.uk,-1.34021200000000,RG28 7AE,2014-01-07,fhrs_4_en-GB,4,,FHRS,10
214878,The Blue Rickshaw 9 London Street Whitchurch Hampshire RG28 7LH,,,,Blue Rickshaw,Takeaway/sandwich shop,7844,5,,55809,5,,51.23073500000000,12600/0009/0/000,131,ehteam@basingstoke.gov.uk,Basingstoke and Deane,http://www.basingstoke.gov.uk,-1.33762700000000,RG28 7LH,2014-10-14,fhrs_4_en-GB,4,,FHRS,10
214879,The Hampshire Clinic Basing Road Old Basing Basingstoke Hampshire RG24 7AL,,,,BMI  Hampshire Clinic,Hospitals/Childcare/Caring Premises,5,5,,4868,0,,51.27157100000000,01370/2002/2/000,131,ehteam@basingstoke.gov.uk,Basingstoke and Deane,http://www.basingstoke.gov.uk,-1.05722300000000,RG24 7AL,2014-05-28,fhrs_5_en-GB,5,,FHRS,5
214880,BNC Gurkha Grocery Ltd 9 Winton Square Basingstoke Hampshire RG21 8EW,,,,BNC Gurkha Grocery Limited,Retailers - other,4613,5,,28824,10,,51.26229200000000,09/00029/CP,131,ehteam@basingstoke.gov.uk,Basingstoke and Deane,http://www.basingstoke.gov.uk,-1.09031900000000,RG21 8EW,2014-04-22,fhrs_3_en-GB,3,,FHRS,10
214881,Bo Peep's Day Nursery The Old Coach House Church Road Tadley Hampshire RG26 3AU,,,,Bo Peeps Day Nursery,Hospitals/Childcare/Caring Premises,5,5,,14162,5,,51.34489600000000,04750/2008/2/000,131,ehteam@basingstoke.gov.uk,Basingstoke and Deane,http://www.basingstoke.gov.uk,-1.14449400000000,RG26 3AU,2014-05-09,fhrs_5_en-GB,5,,FHRS,5
214882,Bouncing Tots Cafe Unit 37 Basepoint Enterprise Centre Stroudley Road Basingstoke Hampshire RG24 8UP,,,,Bouncing Tots Cafe,Hospitals/Childcare/Caring Premises,5,5,,608689,0,,51.27783000000000,13/00136/CP,131,ehteam@basingstoke.gov.uk,Basingstoke and Deane,http://www.basingstoke.gov.uk,-1.06400500000000,RG24 8UP,2013-11-07,fhrs_5_en-GB,5,,FHRS,0
214883,Bourne Valley Inn Upper Link St Mary Bourne Andover Hampshire SP11 6BT,,,,Bourne Valley Inn,Pub/bar/nightclub,7843,5,,86622,5,,51.24830200000000,22090/2000/2/000,131,ehteam@basingstoke.gov.uk,Basingstoke and Deane,http://www.basingstoke.gov.uk,-1.39176300000000,SP11 6BT,2013-09-11,fhrs_5_en-GB,5,,FHRS,0
214884,Bowlplex Basingstoke Leisure Park Worting Road Basingstoke Hampshire RG22 6PG,,,,Bowlplex,Restaurant/Cafe/Canteen,1,5,,90075,10,,51.26497400000000,24382/2002/2/000,131,ehteam@basingstoke.gov.uk,Basingstoke and Deane,http://www.basingstoke.gov.uk,-1.11767100000000,RG22 6PG,2014-11-11,fhrs_3_en-GB,3,,FHRS,10
214885,B P Popham Services Andover Road Coxford Down Micheldever Winchester Hampshire SO21 3SP,,,,BP Service Station,Retailers - other,4613,0,,636439,0,,,16650/0000/2/000,131,ehteam@basingstoke.gov.uk,Basingstoke and Deane,http://www.basingstoke.gov.uk,,,2014-01-29,fhrs_5_en-GB,5,,FHRS,0
214886,Bramley C E Primary School Bramley Lane Bramley Tadley Hampshire RG26 5AH,,,,Bramley Primary School,School/college/university,7845,5,,7229,5,,51.33510200000000,02840/2005/2/000,131,ehteam@basingstoke.gov.uk,Basingstoke and Deane,http://www.basingstoke.gov.uk,-1.05533200000000,RG26 5AH,2013-09-10,fhrs_4_en-GB,4,,FHRS,10
214887,Bramley Village Bakery Sherfield Road Bramley Tadley Hampshire RG26 5AG,,,,Bramley Village Bakery,Manufacturers/packers,7839,5,,78609,5,,51.32961100000000,18740/2035/2/000,131,ehteam@basingstoke.gov.uk,Basingstoke and Deane,http://www.basingstoke.gov.uk,-1.05798600000000,RG26 5AG,2013-12-11,fhrs_5_en-GB,5,,FHRS,5
214888,Kidsunlimited Unit 3 Spindlewood Stag Oak Lane Basingstoke Hampshire RG24 8NN,,,,Bright Horizons Family Solutions,Hospitals/Childcare/Caring Premises,5,5,,13855,5,,51.29581600000000,04470/4036/3/000,131,ehteam@basingstoke.gov.uk,Basingstoke and Deane,http://www.basingstoke.gov.uk,-1.06206200000000,RG24 8NN,2014-11-04,fhrs_5_en-GB,5,,FHRS,5
214889,British Home Stores Festival Place Basingstoke Hampshire RG21 7BE,,,,British Home Stores,Restaurant/Cafe/Canteen,1,0,,85651,0,,51.26557200000000,21665/0003/2/000,131,ehteam@basingstoke.gov.uk,Basingstoke and Deane,http://www.basingstoke.gov.uk,-1.08548200000000,RG21 7BE,2014-01-07,fhrs_5_en-GB,5,,FHRS,5
214890,Broadmead Rest Home Broadlayings Woolton Hill Newbury Hampshire RG20 9TS,,,,Broadmead Rest Home,Hospitals/Childcare/Caring Premises,5,0,,8681,0,,51.35673600000000,03160/2078/2/000,131,ehteam@basingstoke.gov.uk,Basingstoke and Deane,http://www.basingstoke.gov.uk,-1.37476100000000,RG20 9TS,2014-09-05,fhrs_5_en-GB,5,,FHRS,5
214891,Buildbase Roentgen Road Basingstoke Hampshire RG24 8NT,,,,Buildbase Cafe,Restaurant/Cafe/Canteen,1,5,,699482,5,,51.27162000000000,14/00081/CP,131,ehteam@basingstoke.gov.uk,Basingstoke and Deane,http://www.basingstoke.gov.uk,-1.06228200000000,RG24 8NT,2014-09-02,fhrs_4_en-GB,4,,FHRS,10
214892,Street Record Bell Road Basingstoke Hampshire,,,,Burger Bar,Mobile caterer,7846,10,,608688,5,,,13/00130/CP,131,ehteam@basingstoke.gov.uk,Basingstoke and Deane,http://www.basingstoke.gov.uk,,,2013-11-07,fhrs_4_en-GB,4,,FHRS,5
214893,Burger King (UK) Ltd R1 Lower Ground Festival Place Basingstoke Hampshire RG21 7BE,,,,Burger King,Restaurant/Cafe/Canteen,1,0,,85653,0,,51.26557200000000,21665/0005/2/000,131,ehteam@basingstoke.gov.uk,Basingstoke and Deane,http://www.basingstoke.gov.uk,-1.08548200000000,RG21 7BE,2013-07-30,fhrs_5_en-GB,5,,FHRS,5
214894,Burghclere Primary School Church Lane Burghclere Newbury Hampshire RG20 9HT,,,,Burghclere County Primary School,School/college/university,7845,0,,87883,0,,51.34619600000000,22890/2020/2/000,131,ehteam@basingstoke.gov.uk,Basingstoke and Deane,http://www.basingstoke.gov.uk,-1.32432100000000,RG20 9HT,2014-06-13,fhrs_5_en-GB,5,,FHRS,5
214895,Burnham Copse Primary School Newchurch Road Tadley Hampshire RG26 4HN,,,,Burnham Copse Primary School,School/college/university,7845,5,,65370,5,,51.35545500000000,14680/2003/2/000,131,ehteam@basingstoke.gov.uk,Basingstoke and Deane,http://www.basingstoke.gov.uk,-1.15225400000000,RG26 4HN,2014-05-12,fhrs_5_en-GB,5,,FHRS,5
214896,Busy Bees Aldermaston Road Basingstoke Hampshire RG24 9NJ,,,,Busy Bees,Hospitals/Childcare/Caring Premises,5,5,,1344,5,,51.27897900000000,00140/1002/2/000,131,ehteam@basingstoke.gov.uk,Basingstoke and Deane,http://www.basingstoke.gov.uk,-1.11110900000000,RG24 9NJ,2014-07-04,fhrs_5_en-GB,5,,FHRS,5
214897,Busy Bees Childcare Ltd Mc Williams House Hatch Warren Farm Hatch Warren Lane Basingstoke Hampshire RG22 4RA,,,,Busy Bees Childcare Ltd,Hospitals/Childcare/Caring Premises,5,5,,90092,0,,51.23521300000000,24389/0005/2/000,131,ehteam@basingstoke.gov.uk,Basingstoke and Deane,http://www.basingstoke.gov.uk,-1.11921400000000,RG22 4RA,2014-03-24,fhrs_5_en-GB,5,,FHRS,0
214898,Leapfrog Day Nursery Hanmore Road Chineham Basingstoke Hampshire RG24 8PT,,,,Busy Bees Nursery,Hospitals/Childcare/Caring Premises,5,0,,32042,0,,51.28694800000000,09160/1000/2/000,131,ehteam@basingstoke.gov.uk,Basingstoke and Deane,http://www.basingstoke.gov.uk,-1.06750600000000,RG24 8PT,2014-01-10,fhrs_5_en-GB,5,,FHRS,5
214899,Basingstoke Railway Station Station Approach Basingstoke Hampshire RG21 5NE,,,,Cafe Destino - Station Foyer,Restaurant/Cafe/Canteen,1,5,,508090,0,,51.26831600000000,12/00158/CP,131,ehteam@basingstoke.gov.uk,Basingstoke and Deane,http://www.basingstoke.gov.uk,-1.08790700000000,RG21 5NE,2014-11-03,fhrs_4_en-GB,4,,FHRS,10
214900,CafÃ© Destino Ltd Platform 4 Basingstoke Railway Station Station Approach Basingstoke Hampshire RG21 5NE,,,,Cafe Destino At Platform 4,Restaurant/Cafe/Canteen,1,5,,508089,0,,51.26831600000000,12/00157/CP,131,ehteam@basingstoke.gov.uk,Basingstoke and Deane,http://www.basingstoke.gov.uk,-1.08790700000000,RG21 5NE,2014-11-03,fhrs_4_en-GB,4,,FHRS,10
214901,Cafe Giardino 2 - 3 Kensington House Festival Place Basingstoke Hampshire RG21 7LN,,,,Cafe Giardino,Restaurant/Cafe/Canteen,1,5,,21435,0,,51.26466000000000,07/00022/CP,131,ehteam@basingstoke.gov.uk,Basingstoke and Deane,http://www.basingstoke.gov.uk,-1.08726300000000,RG21 7LN,2014-12-03,fhrs_4_en-GB,4,,FHRS,10
214902,Matrix House Basing View Basingstoke Hampshire,,,,Cafe Mojo At Matrix House,Restaurant/Cafe/Canteen,1,5,,9714,10,,,04/00051/CP,131,ehteam@basingstoke.gov.uk,Basingstoke and Deane,http://www.basingstoke.gov.uk,,,2013-12-02,fhrs_4_en-GB,4,,FHRS,5
214903,CafÃ© Retreat 4 The Parade Mulfords Hill Tadley Hampshire RG26 3LG,,,,Cafe Retreat,Restaurant/Cafe/Canteen,1,10,,18798,10,,51.35482200000000,06/00240/CP,131,ehteam@basingstoke.gov.uk,Basingstoke and Deane,http://www.basingstoke.gov.uk,-1.14195400000000,RG26 3LG,2013-10-14,fhrs_3_en-GB,3,,FHRS,10
214904,Cafe Rouge 20A Winchester Street Basingstoke Hampshire RG21 7DZ,,,,Cafe Rouge,Restaurant/Cafe/Canteen,1,0,,89169,5,,51.26261000000000,23730/0020/A/000,131,ehteam@basingstoke.gov.uk,Basingstoke and Deane,http://www.basingstoke.gov.uk,-1.08847900000000,RG21 7DZ,2013-02-11,fhrs_5_en-GB,5,,FHRS,0
214905,Caffe Pausa Dunelm Mill Gastons Wood Chineham Basingstoke Hampshire RG24 8TW,,,,Caffe Pausa,Restaurant/Cafe/Canteen,1,5,,644293,5,,51.28188400000000,13/00154/CP,131,ehteam@basingstoke.gov.uk,Basingstoke and Deane,http://www.basingstoke.gov.uk,-1.06947200000000,RG24 8TW,2013-11-25,fhrs_5_en-GB,5,,FHRS,5
214906,Folly Farm Thornford Road Headley Thatcham Hampshire RG19 8AH,,,,Caner Kebabs,Mobile caterer,7846,10,,456116,5,,51.36817200000000,06/00188/CP,131,ehteam@basingstoke.gov.uk,Basingstoke and Deane,http://www.basingstoke.gov.uk,-1.25036200000000,RG19 8AH,2013-07-25,fhrs_4_en-GB,4,,FHRS,5
214907,Kingsclere Road Upper Wootton Hampshire,,,,Caner Kebabs,Mobile caterer,7846,5,,456128,5,,51.29194800000000,11550/2002/2/000,131,ehteam@basingstoke.gov.uk,Basingstoke and Deane,http://www.basingstoke.gov.uk,-1.16712400000000,,2013-08-15,fhrs_4_en-GB,4,,FHRS,10
214908,Canterton Stores Preston Candover Basingstoke Hampshire RG25 2DN,,,,Canterton Stores,Retailers - other,4613,5,,608692,10,,51.17401900000000,17000/2055/2/000,131,ehteam@basingstoke.gov.uk,Basingstoke and Deane,http://www.basingstoke.gov.uk,-1.13095100000000,RG25 2DN,2013-09-23,fhrs_4_en-GB,4,,FHRS,5
214909,Castle Hill Junior School Winklebury Way Basingstoke Hampshire RG23 8BN,,,,Castle Hill Junior & Infant School,School/college/university,7845,0,,89342,0,,51.26820200000000,23840/2002/2/000,131,ehteam@basingstoke.gov.uk,Basingstoke and Deane,http://www.basingstoke.gov.uk,-1.12600900000000,RG23 8BN,2014-03-21,fhrs_5_en-GB,5,,FHRS,5
214910,Fort Hill Community School Kenilworth Road Basingstoke Hampshire RG23 8JQ,,,,Castle Hill Pre-School,School/college/university,7845,0,,47585,5,,51.27180100000000,11/00149/CP,131,ehteam@basingstoke.gov.uk,Basingstoke and Deane,http://www.basingstoke.gov.uk,-1.12273000000000,RG23 8JQ,2014-05-22,fhrs_5_en-GB,5,,FHRS,5
214911,Unit 1 Cufaude Business Park Cufaude Lane Bramley Tadley Hampshire RG26 5DL,,,,Cater(UK) Ltd,Other catering premises,7841,10,,15611,5,,51.31619700000000,05/00309/CP,131,ehteam@basingstoke.gov.uk,Basingstoke and Deane,http://www.basingstoke.gov.uk,-1.07060100000000,RG26 5DL,2014-09-30,fhrs_3_en-GB,3,,FHRS,10
214912,Brighton Hill Community College Brighton Way Basingstoke Hampshire RG22 4HS,,,,Catering Academy At Brighton Hill Community School,School/college/university,7845,5,,8576,5,,51.24717200000000,03050/2001/2/000,131,ehteam@basingstoke.gov.uk,Basingstoke and Deane,http://www.basingstoke.gov.uk,-1.11437300000000,RG22 4HS,2014-01-15,fhrs_5_en-GB,5,,FHRS,0
214913,The Vyne Community School Vyne Road Basingstoke Hampshire RG21 5PB,,,,Catering Academy The Vyne Community School,School/college/university,7845,10,,87106,0,,51.27397200000000,22390/2002/2/000,131,ehteam@basingstoke.gov.uk,Basingstoke and Deane,http://www.basingstoke.gov.uk,-1.08911400000000,RG21 5PB,2014-12-16,fhrs_4_en-GB,4,,FHRS,10
214914,ITT Cannon Uk Jays Close Basingstoke Hampshire RG22 4BS,,,,Catermasters Catering At ITT Cannon,Restaurant/Cafe/Canteen,1,0,,49682,5,,51.24721600000000,11030/2007/2/000,131,ehteam@basingstoke.gov.uk,Basingstoke and Deane,http://www.basingstoke.gov.uk,-1.09312400000000,RG22 4BA,2015-01-27,fhrs_5_en-GB,5,,FHRS,0
214915,Centaur News 54 Kingsclere Road Basingstoke Hampshire RG21 6XG,,,,Centaur Newsagents,Retailers - other,4613,5,,4500,0,,51.27423000000000,011490/0054/0/000,131,ehteam@basingstoke.gov.uk,Basingstoke and Deane,http://www.basingstoke.gov.uk,-1.10267100000000,RG21 6XG,2014-10-10,fhrs_5_en-GB,5,,FHRS,5
214916,Sony Business Europe Jays Close Basingstoke Hampshire RG22 4SB,,,,CH And Co Catering At Sony Business Europe,Restaurant/Cafe/Canteen,1,0,,14964,0,,51.24394700000000,05/00077/CP,131,ehteam@basingstoke.gov.uk,Basingstoke and Deane,http://www.basingstoke.gov.uk,-1.09828900000000,RG22 4SB,2015-01-23,fhrs_5_en-GB,5,,FHRS,5
214917,Chalk Ridge Primary School Sullivan Road Basingstoke Hampshire RG22 4ER,,,,Chalk Ridge Primary School,School/college/university,7845,0,,83137,0,,51.24659100000000,20250/0000/2/000,131,ehteam@basingstoke.gov.uk,Basingstoke and Deane,http://www.basingstoke.gov.uk,-1.10542900000000,RG22 4ER,2013-10-03,fhrs_5_en-GB,5,,FHRS,5
214918,Charcoal Grill 3 Queens Parade New Street Basingstoke Hampshire RG21 7DA,,,,Charcoal Grill,Takeaway/sandwich shop,7844,5,,644291,0,,51.26347000000000,13/00096/CP,131,ehteam@basingstoke.gov.uk,Basingstoke and Deane,http://www.basingstoke.gov.uk,-1.08913500000000,RG21 7DA,2014-11-05,fhrs_5_en-GB,5,,FHRS,5
214919,Charcoal Grill 3D Church Street Whitchurch Hampshire RG28 7AD,,,,Charcoal Grill,Takeaway/sandwich shop,7844,5,,33810,0,,51.22943300000000,10/00068/CP,131,ehteam@basingstoke.gov.uk,Basingstoke and Deane,http://www.basingstoke.gov.uk,-1.33947900000000,RG28 7AD,2014-11-05,fhrs_5_en-GB,5,,FHRS,5
214920,Charlies Cafe 6 Roentgen Court Roentgen Road Basingstoke Hampshire RG24 8NT,,,,Charlies Cafe,Restaurant/Cafe/Canteen,1,0,,734799,0,,51.27162000000000,14/00132/CP,131,ehteam@basingstoke.gov.uk,Basingstoke and Deane,http://www.basingstoke.gov.uk,-1.06228200000000,RG24 8NT,2015-02-04,fhrs_5_en-GB,5,,FHRS,5
214921,Chineham Shopping Centre Chineham Hampshire,,,,Charlies Cuisine,Mobile caterer,7846,5,,456112,5,,51.05880355834960,04490/0000/1/000,131,ehteam@basingstoke.gov.uk,Basingstoke and Deane,http://www.basingstoke.gov.uk,-1.28533124923706,,2014-01-27,fhrs_4_en-GB,4,,FHRS,10
214922,PO Box 320 Visa International Lime Tree Way Chineham Basingstoke Hampshire RG24 8ZJ,,,,Charlton House Catering Services Ltd,Restaurant/Cafe/Canteen,1,5,,21630,5,,51.28838700000000,07/00045/CP,131,ehteam@basingstoke.gov.uk,Basingstoke and Deane,http://www.basingstoke.gov.uk,-1.06865200000000,RG24 8NA,2014-11-13,fhrs_5_en-GB,5,,FHRS,5
214923,Cheam School Newbury Road Headley Thatcham Hampshire RG19 8LD,,,,Cheam School,School/college/university,7845,5,,65280,5,,51.35298800000000,14640/2009/2/000,131,ehteam@basingstoke.gov.uk,Basingstoke and Deane,http://www.basingstoke.gov.uk,-1.25789100000000,RG19 8LD,2014-10-14,fhrs_5_en-GB,5,,FHRS,5
214924,Chefbites Ltd 14 Enterprise Court Rankine Road Basingstoke Hampshire RG24 8GE,,,,Chefbites Ltd,Other catering premises,7841,5,,690222,5,,51.27626900000000,14/00077/CP,131,ehteam@basingstoke.gov.uk,Basingstoke and Deane,http://www.basingstoke.gov.uk,-1.07013000000000,RG24 8GE,2014-07-29,fhrs_5_en-GB,5,,FHRS,5
214925,Grafton Way Basingstoke Hampshire,,,,Chef's Snack Bar,Mobile caterer,7846,5,,456114,5,,51.26263200000000,05/00363/CP,131,ehteam@basingstoke.gov.uk,Basingstoke and Deane,http://www.basingstoke.gov.uk,-1.11360300000000,,2014-12-02,fhrs_5_en-GB,5,,FHRS,5
214926,Cherry Blossom Manor German Road Bramley Tadley Hampshire RG26 5GF,,,,Cherry Blossom Manor,Hospitals/Childcare/Caring Premises,5,5,,35204,5,,51.32180700000000,10/00203/CP,131,ehteam@basingstoke.gov.uk,Basingstoke and Deane,http://www.basingstoke.gov.uk,-1.04699500000000,RG26 5GF,2015-01-14,fhrs_5_en-GB,5,,FHRS,5
214927,Chik Mex 5A Church Street Basingstoke Hampshire RG21 7QG,,,,Chik Mex,Takeaway/sandwich shop,7844,5,,14170,5,,51.26304400000000,04770/0005/A/000,131,ehteam@basingstoke.gov.uk,Basingstoke and Deane,http://www.basingstoke.gov.uk,-1.08763900000000,RG21 7QG,2013-12-18,fhrs_4_en-GB,4,,FHRS,10
214928,Chiltern Junior School Chiltern Way Basingstoke Hampshire RG22 5BB,,,,Chiltern Primary School,School/college/university,7845,0,,13817,0,,51.26039200000000,04430/2001/2/000,131,ehteam@basingstoke.gov.uk,Basingstoke and Deane,http://www.basingstoke.gov.uk,-1.13263500000000,RG22 5BB,2014-12-05,fhrs_5_en-GB,5,,FHRS,0
214929,42 Woodlands Penwood Highclere Newbury Hampshire RG20 9EU,,,,China Garden,Takeaway/sandwich shop,7844,10,,89649,10,,51.35011600000000,24030/0042/2/000,131,ehteam@basingstoke.gov.uk,Basingstoke and Deane,http://www.basingstoke.gov.uk,-1.36435400000000,RG20 9EU,2013-06-05,fhrs_3_en-GB,3,,FHRS,10
214930,China Garden 5 Buckingham Parade Basingstoke Hampshire RG22 5NZ,,,,China Garden,Takeaway/sandwich shop,7844,10,,8849,10,,51.24665800000000,03360/0005/2/000,131,ehteam@basingstoke.gov.uk,Basingstoke and Deane,http://www.basingstoke.gov.uk,-1.13833800000000,RG22 5NZ,2014-11-12,fhrs_3_en-GB,3,,FHRS,5
214931,Reading Road Chineham Basingstoke Hampshire RG24 8LN,,,,Chineham Indian Cuisine,Restaurant/Cafe/Canteen,1,10,,112582,10,,51.28800200000000,417500/0001/0/000,131,ehteam@basingstoke.gov.uk,Basingstoke and Deane,http://www.basingstoke.gov.uk,-1.06430100000000,RG24 8LN,2013-12-18,fhrs_3_en-GB,3,,FHRS,10
214932,Chineham District Club Thornhill Way Chineham Basingstoke Hampshire RG24 8YE,,,,Chineham Village Club,Other catering premises,7841,10,,241246,10,,51.29195300000000,21430/0000/2/000,131,ehteam@basingstoke.gov.uk,Basingstoke and Deane,http://www.basingstoke.gov.uk,-1.05350700000000,RG24 8YE,2014-03-21,fhrs_3_en-GB,3,,FHRS,10
214933,Car Park At Keyline Builders Merchants Rankine Road Basingstoke Hampshire RG24 8GE,,,,Chuckwagon Catering,Mobile caterer,7846,5,,456125,5,,51.27626900000000,10/00185/CP,131,ehteam@basingstoke.gov.uk,Basingstoke and Deane,http://www.basingstoke.gov.uk,-1.07013000000000,,2014-05-02,fhrs_4_en-GB,4,,FHRS,10
214934,Cliddesden Primary School Northgate Lane Cliddesden Basingstoke Hampshire RG25 2QU,,,,Cliddesden Primary School,School/college/university,7845,5,,14380,0,,51.23081200000000,04950/2004/2/000,131,ehteam@basingstoke.gov.uk,Basingstoke and Deane,http://www.basingstoke.gov.uk,-1.09277300000000,RG25 2QU,2014-04-28,fhrs_5_en-GB,5,,FHRS,5
214935,37 - 39 Kings Road Basingstoke Hampshire RG22 6DJ,,,,Co Op,Retailers - supermarkets/hypermarkets,7840,10,,51792,5,,51.25677200000000,11630/0037/0/000,131,ehteam@basingstoke.gov.uk,Basingstoke and Deane,http://www.basingstoke.gov.uk,-1.11037600000000,RG22 6DJ,2014-07-17,fhrs_4_en-GB,4,,FHRS,5
214936,Co Op 15 - 17 Winchester Street Overton Basingstoke Hampshire RG25 3HR,,,,Co Op,Retailers - supermarkets/hypermarkets,7840,5,,89189,0,,51.24340700000000,23740/1517/0/000,131,ehteam@basingstoke.gov.uk,Basingstoke and Deane,http://www.basingstoke.gov.uk,-1.26267800000000,RG25 3HR,2014-05-01,fhrs_5_en-GB,5,,FHRS,5
214937,Winklebury Way Basingstoke Hampshire RG23 8BB,,,,Co Op,Retailers - supermarkets/hypermarkets,7840,5,,89344,5,,51.27328500000000,23840/2006/2/000,131,ehteam@basingstoke.gov.uk,Basingstoke and Deane,http://www.basingstoke.gov.uk,-1.11321100000000,RG23 8BB,2014-07-11,fhrs_4_en-GB,4,,FHRS,10
214938,Coal R8a Lower Ground Festival Place Basingstoke Hampshire RG21 7BE,,,,Coal Grill And Bar,Restaurant/Cafe/Canteen,1,5,,85659,10,,51.26557200000000,21665/0043/2/000,131,ehteam@basingstoke.gov.uk,Basingstoke and Deane,http://www.basingstoke.gov.uk,-1.08548200000000,RG21 7BE,2014-05-12,fhrs_4_en-GB,4,,FHRS,5
214939,Rosewood Crockford Lane Basingstoke Hampshire RG24 8UT,,,,Compass Catering At Gist,Restaurant/Cafe/Canteen,1,0,,550960,5,,51.29468100000000,12/00140/CP,131,ehteam@basingstoke.gov.uk,Basingstoke and Deane,http://www.basingstoke.gov.uk,-1.06633100000000,RG24 8UT,2014-04-10,fhrs_4_en-GB,4,,FHRS,10
214940,Overton Mill Papermill Lane Overton Basingstoke Hampshire RG25 3JG,,,,Compass Group At De La Rue,Restaurant/Cafe/Canteen,1,0,,69624,5,,51.25552700000000,15690/2022/2/000,131,ehteam@basingstoke.gov.uk,Basingstoke and Deane,http://www.basingstoke.gov.uk,-1.25974700000000,RG25 3JG,2014-07-28,fhrs_5_en-GB,5,,FHRS,5
214941,Conkers Garden Centre London Road Old Basing Basingstoke Hampshire RG24 7LJ,,,,Conkers Garden Centre,Restaurant/Cafe/Canteen,1,5,,728072,0,,51.26677800000000,12530/2009/2/000,131,ehteam@basingstoke.gov.uk,Basingstoke and Deane,http://www.basingstoke.gov.uk,-1.02975800000000,RG24 7LJ,2014-12-15,fhrs_5_en-GB,5,,FHRS,5
214942,MacMillan Publishing Group Brunel Road Basingstoke Hampshire RG21 6XS,,,,Connect Catering At MacMillan,Restaurant/Cafe/Canteen,1,0,,8801,5,,51.27069800000000,03310/2002/2/000,131,ehteam@basingstoke.gov.uk,Basingstoke and Deane,http://www.basingstoke.gov.uk,-1.10891800000000,RG21 6XT,2013-03-01,fhrs_5_en-GB,5,,FHRS,0
214943,Abbey Court Popley Way Basingstoke Hampshire RG24 9DX,,,,Cornerstone Miss Muffet,Hospitals/Childcare/Caring Premises,5,5,,72972,5,,51.28372000000000,16680/4008/3/054,131,ehteam@basingstoke.gov.uk,Basingstoke and Deane,http://www.basingstoke.gov.uk,-1.09263500000000,RG24 9DX,2014-08-13,fhrs_5_en-GB,5,,FHRS,5
214944,The Cornerstone Centre Priestley Road Basingstoke Hampshire,,,,Cornerstone Nursery,Hospitals/Childcare/Caring Premises,5,5,,74084,5,,51.27846100000000,17010/2010/2/000,131,ehteam@basingstoke.gov.uk,Basingstoke and Deane,http://www.basingstoke.gov.uk,-1.10658000000000,,2014-05-07,fhrs_5_en-GB,5,,FHRS,5
214945,Aldworth Science College Western Way Basingstoke Hampshire RG22 6HA,,,,Cornerstone Sunrise Nursery,Hospitals/Childcare/Caring Premises,5,5,,88212,5,,51.25375100000000,23010/2000/2/00A,131,ehteam@basingstoke.gov.uk,Basingstoke and Deane,http://www.basingstoke.gov.uk,-1.11513500000000,RG22 6HA,2014-05-08,fhrs_4_en-GB,4,,FHRS,10
214946,K13 Festival Place Basingstoke Hampshire,,,,Cornish Bakehouse,Takeaway/sandwich shop,7844,5,,28769,0,,,09/00025/CP,131,ehteam@basingstoke.gov.uk,Basingstoke and Deane,http://www.basingstoke.gov.uk,,,2013-10-01,fhrs_5_en-GB,5,,FHRS,5
214947,2 Greenlands Road Basingstoke Hampshire,,,,Costa Coffee,Restaurant/Cafe/Canteen,1,10,,644292,5,,51.28138800000000,13/00119/CP,131,ehteam@basingstoke.gov.uk,Basingstoke and Deane,http://www.basingstoke.gov.uk,-1.11929200000000,RG24 9RD,2013-08-20,fhrs_4_en-GB,4,,FHRS,5
214948,Costa Coffee Basingstoke Leisure Park Worting Road Basingstoke Hampshire RG22 6PG,,,,Costa Coffee,Restaurant/Cafe/Canteen,1,10,,580283,5,,51.26497400000000,13/00095/CP,131,ehteam@basingstoke.gov.uk,Basingstoke and Deane,http://www.basingstoke.gov.uk,-1.11767100000000,RG22 6PG,2013-08-20,fhrs_4_en-GB,4,,FHRS,5
214949,North Hampshire Hospital Aldermaston Road Basingstoke Hampshire RG24 9NA,,,,Costa Coffee,Restaurant/Cafe/Canteen,1,5,,35039,10,,51.28125700000000,10/00180/CP,131,ehteam@basingstoke.gov.uk,Basingstoke and Deane,http://www.basingstoke.gov.uk,-1.07013500000000,RG24 9LZ,2014-06-05,fhrs_4_en-GB,4,,FHRS,5
214950,Kingsmill Post Office 1 Anstey Close Basingstoke Hampshire RG21 3JG,,,,Costcutter,Retailers - other,4613,5,,21398,5,,,07/00017/CP,131,ehteam@basingstoke.gov.uk,Basingstoke and Deane,http://www.basingstoke.gov.uk,,,2013-06-18,fhrs_4_en-GB,4,,FHRS,10
214951,West Cottage Day Nursery North Sydmonton Newbury Hampshire RG20 4UL,,,,Cottages Day Nursery,Hospitals/Childcare/Caring Premises,5,0,,67575,0,,51.35645400000000,15090/2023/2/000,131,ehteam@basingstoke.gov.uk,Basingstoke and Deane,http://www.basingstoke.gov.uk,-1.28459000000000,RG20 4UL,2014-02-26,fhrs_5_en-GB,5,,FHRS,0
214952,Cottismore Garden Centre Newbury Road Kingsclere Newbury Hampshire RG20 4SY,,,,Cottismore Garden Centre,Restaurant/Cafe/Canteen,1,5,,682441,5,,51.33939100000000,14650/2026/2/000,131,ehteam@basingstoke.gov.uk,Basingstoke and Deane,http://www.basingstoke.gov.uk,-1.25910100000000,RG20 4SY,2014-11-26,fhrs_5_en-GB,5,,FHRS,5
214953,Cranbourne Business And Enterprise College Wessex Close Basingstoke Hampshire RG21 3NP,,,,Cranbourne Business & Enterprise College,School/college/university,7845,5,,87914,0,,51.25654000000000,22920/2001/2/000,131,ehteam@basingstoke.gov.uk,Basingstoke and Deane,http://www.basingstoke.gov.uk,-1.09881600000000,RG21 3NP,2014-06-02,fhrs_4_en-GB,4,,FHRS,10
214954,Curry Queen Unit 3 Buckskin Centre Blackdown Close Basingstoke Hampshire RG22 5BW,,,,Curry Queen Takeway,Takeaway/sandwich shop,7844,5,,28487,5,,51.25644200000000,09/00003/CP,131,ehteam@basingstoke.gov.uk,Basingstoke and Deane,http://www.basingstoke.gov.uk,-1.13351200000000,RG22 5BW,2013-12-04,fhrs_4_en-GB,4,,FHRS,10
214955,Daisy Chain Day Nursery Carpenters Down Basingstoke Hampshire RG24 9AE,,,,Daisy Chain Day Nursery,School/college/university,7845,5,,33366,5,,51.28733300000000,10/00040/CP,131,ehteam@basingstoke.gov.uk,Basingstoke and Deane,http://www.basingstoke.gov.uk,-1.07627400000000,RG24 9AE,2014-08-29,fhrs_5_en-GB,5,,FHRS,5
214956,Daneshill School Bylands Lane Stratfield Turgis Hook Hampshire RG27 0AR,,,,Daneshill School,School/college/university,7845,5,,82843,5,,51.33334100000000,20130/2008/2/000,131,ehteam@basingstoke.gov.uk,Basingstoke and Deane,http://www.basingstoke.gov.uk,-0.98867800000000,RG27 0AR,2014-06-30,fhrs_4_en-GB,4,,FHRS,10
214957,The Cafe Spindlewood Stag Oak Lane Basingstoke Hampshire RG24 8NN,,,,Dayers Fine Foods At Spindlewood,Restaurant/Cafe/Canteen,1,10,,13856,10,,51.29581600000000,04470/4036/3/002,131,ehteam@basingstoke.gov.uk,Basingstoke and Deane,http://www.basingstoke.gov.uk,-1.06206200000000,RG24 8NN,2013-09-06,fhrs_3_en-GB,3,,FHRS,10
214958,Debenhams Plc Festival Place Basingstoke Hampshire RG21 7BA,,,,Debenhams,Restaurant/Cafe/Canteen,1,5,,85652,0,,51.26448400000000,21665/0004/2/000,131,ehteam@basingstoke.gov.uk,Basingstoke and Deane,http://www.basingstoke.gov.uk,-1.08551800000000,RG21 7BA,2014-02-03,fhrs_5_en-GB,5,,FHRS,5
214959,Basingstoke Railway Station Station Approach Basingstoke Hampshire RG21 5NE,,,,Delice De France,Restaurant/Cafe/Canteen,1,5,,81237,0,,51.26831600000000,19800/4025/3/00I,131,ehteam@basingstoke.gov.uk,Basingstoke and Deane,http://www.basingstoke.gov.uk,-1.08790700000000,RG21 5NE,2014-04-16,fhrs_4_en-GB,4,,FHRS,10
214960,4 Feathers Lane Basingstoke Hampshire RG21 7AS,,,,Delta Food,Retailers - other,4613,10,,21974,10,,51.26324000000000,07/00099/CP,131,ehteam@basingstoke.gov.uk,Basingstoke and Deane,http://www.basingstoke.gov.uk,-1.08617300000000,RG21 7AS,2014-01-29,fhrs_3_en-GB,3,,FHRS,5
214961,Pond Cottage & Dewpond Restaurant Sydmonton Road Old Burghclere Newbury Hampshire RG20 9LH,,,,Dew Pond Restaurant,Restaurant/Cafe/Canteen,1,0,,68983,0,,51.32003100000000,15460/2000/2/000,131,ehteam@basingstoke.gov.uk,Basingstoke and Deane,http://www.basingstoke.gov.uk,-1.33383100000000,RG20 9LH,2014-10-15,fhrs_5_en-GB,5,,FHRS,0
214962,20 Chineham Shopping Centre Chineham Basingstoke Hampshire RG24 8BQ,,,,Dominos Pizza,Takeaway/sandwich shop,7844,0,,15536,0,,51.28420700000000,05/00268/CP,131,ehteam@basingstoke.gov.uk,Basingstoke and Deane,http://www.basingstoke.gov.uk,-1.05974600000000,RG24 8BQ,2013-07-03,fhrs_5_en-GB,5,,FHRS,0
214963,Dominos Pizza 6 Brighton Hill Centre Basingstoke Hampshire RG22 4EH,,,,Dominos Pizza,Takeaway/sandwich shop,7844,0,,8559,0,,51.24503900000000,03040/0006/0/000,131,ehteam@basingstoke.gov.uk,Basingstoke and Deane,http://www.basingstoke.gov.uk,-1.11418400000000,RG22 4EH,2014-11-19,fhrs_5_en-GB,5,,FHRS,0
214964,Domino's Pizza 7 Winton Square Basingstoke Hampshire RG21 8EW,,,,Dominos Pizza,Takeaway/sandwich shop,7844,0,,89412,0,,51.26229200000000,23890/0007/0/000,131,ehteam@basingstoke.gov.uk,Basingstoke and Deane,http://www.basingstoke.gov.uk,-1.09031900000000,RG21 8EW,2014-09-15,fhrs_5_en-GB,5,,FHRS,5
214965,Dominos Pizza Unit 4 28 Mulfords Hill Tadley Hampshire RG26 3JE,,,,Dominos Pizza,Takeaway/sandwich shop,7844,5,,47152,5,,51.35526800000000,11/00109/CP,131,ehteam@basingstoke.gov.uk,Basingstoke and Deane,http://www.basingstoke.gov.uk,-1.14148700000000,RG26 3JE,2014-08-11,fhrs_5_en-GB,5,,FHRS,5
214966,Dove House School Sutton Road Basingstoke Hampshire RG21 5SU,,,,Dove House School,School/college/university,7845,0,,83255,0,,51.27471500000000,20300/0000/2/000,131,ehteam@basingstoke.gov.uk,Basingstoke and Deane,http://www.basingstoke.gov.uk,-1.08868400000000,RG21 5SU,2014-02-03,fhrs_5_en-GB,5,,FHRS,5
214967,The Clubhouse Dummer Golf Club Down Street Dummer Basingstoke Hampshire RG25 2AF,,,,Dummer Golf Club,Pub/bar/nightclub,7843,5,,90101,0,,51.21186200000000,24396/0001/2/000,131,ehteam@basingstoke.gov.uk,Basingstoke and Deane,http://www.basingstoke.gov.uk,-1.14618800000000,RG25 2AF,2013-10-29,fhrs_5_en-GB,5,,FHRS,5
214968,Ecchinswell And Sydmonton C E Primary School Ecchinswell Road Ecchinswell Newbury Hampshire RG20 4UA,,,,Ecchinswell & Sydmonton Primary School,School/college/university,7845,0,,20976,0,,51.33714900000000,06660/1050/0/000,131,ehteam@basingstoke.gov.uk,Basingstoke and Deane,http://www.basingstoke.gov.uk,-1.28022500000000,RG20 4UA,2013-10-10,fhrs_5_en-GB,5,,FHRS,5
214969,Ed's Easy Diner Group Ltd Unit R1a Lower Ground Festival Place Basingstoke Hampshire RG21 7BE,,,,Ed's Easy Diner,Restaurant/Cafe/Canteen,1,5,,406852,5,,51.26557200000000,12/00047/CP,131,ehteam@basingstoke.gov.uk,Basingstoke and Deane,http://www.basingstoke.gov.uk,-1.08548200000000,RG21 7BE,2014-06-30,fhrs_4_en-GB,4,,FHRS,10
214970,136 Skippetts Gardens Basingstoke Hampshire RG21 3BY,,,,Elite Bodyworks Kitchen,Other catering premises,7841,5,,669041,5,,51.24979400000000,14/00058/CP,131,ehteam@basingstoke.gov.uk,Basingstoke and Deane,http://www.basingstoke.gov.uk,-1.08472000000000,RG21 3BY,2014-06-03,fhrs_5_en-GB,5,,FHRS,5
214971,Enbridge House Care Home Church Road Woolton Hill Newbury Hampshire RG20 9XQ,,,,Enbridge House Care Home,Hospitals/Childcare/Caring Premises,5,5,,89839,5,,51.35050300000000,24190/2035/2/000,131,ehteam@basingstoke.gov.uk,Basingstoke and Deane,http://www.basingstoke.gov.uk,-1.38629000000000,RG20 9XQ,2014-05-14,fhrs_5_en-GB,5,,FHRS,5
214972,Tadley Service Station Mulfords Hill Tadley Hampshire RG26 3LQ,,,,Esso Tadley,Retailers - other,4613,0,,542542,5,,51.35133900000000,14480/2008/2/000,131,ehteam@basingstoke.gov.uk,Basingstoke and Deane,http://www.basingstoke.gov.uk,-1.13899000000000,RG26 3LQ,2013-03-18,fhrs_5_en-GB,5,,FHRS,0
214973,J Sainsbury Plc Houndmills Road Basingstoke Hampshire RG21 6XW,,,,Eurest At J Sainsbury Distribution Depot,Restaurant/Cafe/Canteen,1,5,,43684,0,,51.27015400000000,10620/2000/2/001,131,ehteam@basingstoke.gov.uk,Basingstoke and Deane,http://www.basingstoke.gov.uk,-1.10590400000000,RG21 6XW,2014-03-20,fhrs_5_en-GB,5,,FHRS,5
214974,Motorola Ltd Jays Close Basingstoke Hampshire RG22 4PD,,,,Eurest Catering  At Motorola,Restaurant/Cafe/Canteen,1,0,,49685,0,,51.24721600000000,11030/2018/2/001,131,ehteam@basingstoke.gov.uk,Basingstoke and Deane,http://www.basingstoke.gov.uk,-1.09312400000000,RG22 4LT,2013-07-22,fhrs_5_en-GB,5,,FHRS,5
214975,De La Rue Plc De La Rue House Jays Close Basingstoke Hampshire RG22 4BS,,,,Eurest Catering At De La Rue,Restaurant/Cafe/Canteen,1,5,,49684,5,,51.24718400000000,11030/2013/2/000,131,ehteam@basingstoke.gov.uk,Basingstoke and Deane,http://www.basingstoke.gov.uk,-1.09137700000000,RG22 4BS,2014-02-25,fhrs_5_en-GB,5,,FHRS,5
214976,Oxoid Ltd Wade Road Basingstoke Hampshire RG24 8PW,,,,Eurest Catering At Thermofisher Scientific,Restaurant/Cafe/Canteen,1,0,,87202,0,,51.28178200000000,22450/2011/2/000,131,ehteam@basingstoke.gov.uk,Basingstoke and Deane,http://www.basingstoke.gov.uk,-1.06573200000000,RG24 8PW,2013-03-12,fhrs_5_en-GB,5,,FHRS,0
214977,Fujitsu Jays Close Basingstoke Hampshire RG22 4BS,,,,Eurest Services At Fujitsu,Restaurant/Cafe/Canteen,1,5,,49683,10,,51.24865900000000,11030/2010/2/000,131,ehteam@basingstoke.gov.uk,Basingstoke and Deane,http://www.basingstoke.gov.uk,-1.09131900000000,RG22 4BS,2013-11-14,fhrs_4_en-GB,4,,FHRS,5
214978,Motorola Mobility UK Ltd 3 Redwood Crockford Lane Basingstoke Hampshire RG24 8WG,,,,Eurest Services At Motorola,Restaurant/Cafe/Canteen,1,5,,15584,5,,51.29431500000000,05/00289/CP,131,ehteam@basingstoke.gov.uk,Basingstoke and Deane,http://www.basingstoke.gov.uk,-1.06890500000000,RG24 8WG,2015-01-30,fhrs_5_en-GB,5,,FHRS,5
214979,Fairfields Primary School Council Road Basingstoke Hampshire RG21 3DH,,,,Fairfields Primary School,School/college/university,7845,5,,16988,0,,51.25925900000000,05440/2002/2/000,131,ehteam@basingstoke.gov.uk,Basingstoke and Deane,http://www.basingstoke.gov.uk,-1.08878900000000,RG21 3DH,2014-05-01,fhrs_5_en-GB,5,,FHRS,5
214980,Long Court Farm Brocks Green Ecchinswell Newbury Hampshire RG20 4UP,,,,Farms Direct,Retailers - other,4613,10,,434100,10,,51.35042000000000,10/00063/CP,131,ehteam@basingstoke.gov.uk,Basingstoke and Deane,http://www.basingstoke.gov.uk,-1.28307600000000,RG20 4UP,2013-02-27,fhrs_3_en-GB,3,,FHRS,10
214981,Dev Vyas Ltd Shop 1 600 Abbey Road Basingstoke Hampshire RG24 9ES,,,,Fastfare,Retailers - other,4613,10,,629,5,,51.28096100000000,00010/0599/0/001,131,ehteam@basingstoke.gov.uk,Basingstoke and Deane,http://www.basingstoke.gov.uk,-1.09059600000000,RG24 9ES,2014-05-20,fhrs_3_en-GB,3,,FHRS,10
214982,Festival Plaice 25A Wote Street Basingstoke Hampshire RG21 7NE,,,,Festival Plaice,Restaurant/Cafe/Canteen,1,10,,29057,15,,51.26322400000000,09/00049/CP,131,ehteam@basingstoke.gov.uk,Basingstoke and Deane,http://www.basingstoke.gov.uk,-1.08643100000000,RG21 7NE,2014-06-26,fhrs_2_en-GB,2,,FHRS,10
214983,R11 Lower Ground Festival Place Basingstoke Hampshire RG21 7BB,,,,Festival Street Kitchen,Restaurant/Cafe/Canteen,1,5,,682440,0,,51.26552000000000,14/00064/CP,131,ehteam@basingstoke.gov.uk,Basingstoke and Deane,http://www.basingstoke.gov.uk,-1.08449400000000,RG21 7BB,2014-06-23,fhrs_5_en-GB,5,,FHRS,5
214984,Firvale Park Prewett Road Basingstoke Hampshire,,,,Firvale,Hospitals/Childcare/Caring Premises,5,0,,18877,5,,51.28176200000000,06/00261/CP,131,ehteam@basingstoke.gov.uk,Basingstoke and Deane,http://www.basingstoke.gov.uk,-1.12133800000000,,2014-03-12,fhrs_5_en-GB,5,,FHRS,5
214985,Fish N' Chick'n 2 Brighton Hill Centre Basingstoke Hampshire RG22 4EH,,,,Fish N' Chick'n,Takeaway/sandwich shop,7844,5,,559357,5,,51.24503900000000,12/00068/CP,131,ehteam@basingstoke.gov.uk,Basingstoke and Deane,http://www.basingstoke.gov.uk,-1.11418400000000,RG22 4EH,2013-12-18,fhrs_5_en-GB,5,,FHRS,5
214986,B And Q Plc Lister Road Basingstoke Hampshire RG22 4LA,,,,Food On The Move,Mobile caterer,7846,5,,559356,0,,51.25309700000000,10/00130/CP,131,ehteam@basingstoke.gov.uk,Basingstoke and Deane,http://www.basingstoke.gov.uk,-1.10600500000000,RG22 4LA,2013-11-05,fhrs_5_en-GB,5,,FHRS,5
214987,Pitchorn Farm Newbury Road Kingsclere Newbury Hampshire RG20 4TA,,,,Food On The Move,Mobile caterer,7846,10,,456120,10,,51.33356000000000,09/00105/CP,131,ehteam@basingstoke.gov.uk,Basingstoke and Deane,http://www.basingstoke.gov.uk,-1.25692700000000,RG20 4TA,2014-09-18,fhrs_3_en-GB,3,,FHRS,5
214988,Fort Hill Community School Kenilworth Road Basingstoke Hampshire RG23 8JQ,,,,Fort Hill Secondary School,School/college/university,7845,5,,50635,5,,51.27180100000000,11290/0000/2/000,131,ehteam@basingstoke.gov.uk,Basingstoke and Deane,http://www.basingstoke.gov.uk,-1.12273000000000,RG23 8JQ,2013-10-01,fhrs_5_en-GB,5,,FHRS,5
214989,1 The Parade Basing View Basingstoke Hampshire RG21 4EJ,,,,Foster's Catering Limited,Restaurant/Cafe/Canteen,1,5,,706996,5,,51.26833100000000,14/00070/CP,131,ehteam@basingstoke.gov.uk,Basingstoke and Deane,http://www.basingstoke.gov.uk,-1.07950700000000,RG21 4EJ,2014-09-17,fhrs_4_en-GB,4,,FHRS,10
214990,Four Lanes Infant School Hanmore Road Chineham Basingstoke Hampshire RG24 8PQ,,,,Four Lanes Infant School,School/college/university,7845,5,,32044,5,,51.29359000000000,09160/2000/2/000,131,ehteam@basingstoke.gov.uk,Basingstoke and Deane,http://www.basingstoke.gov.uk,-1.05694400000000,RG24 8PQ,2014-06-05,fhrs_5_en-GB,5,,FHRS,5
214991,Four Lanes Community Junior School Hanmore Road Chineham Basingstoke Hampshire RG24 8PQ,,,,Four Lanes Junior School,School/college/university,7845,5,,32046,5,,51.29359000000000,09160/2001/2/000,131,ehteam@basingstoke.gov.uk,Basingstoke and Deane,http://www.basingstoke.gov.uk,-1.05694400000000,RG24 8PQ,2014-06-05,fhrs_5_en-GB,5,,FHRS,5
214992,Machine Factory Four Square Armstrong Road Basingstoke Hampshire RG24 8NU,,,,Four Square Staff Canteen,Restaurant/Cafe/Canteen,1,0,,10268,0,,,04/00159/CP,131,ehteam@basingstoke.gov.uk,Basingstoke and Deane,http://www.basingstoke.gov.uk,,,2014-10-29,fhrs_5_en-GB,5,,FHRS,5
214993,Fox Inn Newfound Basingstoke Hampshire RG23 7HH,,,,Fox Inn,Pub/bar/nightclub,7843,0,,65428,0,,51.25942000000000,14700/2008/2/000,131,ehteam@basingstoke.gov.uk,Basingstoke and Deane,http://www.basingstoke.gov.uk,-1.16474100000000,RG23 7HH,2015-01-28,fhrs_5_en-GB,5,,FHRS,5
214994,Franklin Special Fry 78 Franklin Avenue Tadley Hampshire RG26 4EU,,,,Franklin Special Fry,Takeaway/sandwich shop,7844,5,,24494,10,,51.35715000000000,07820/0078/0/000,131,ehteam@basingstoke.gov.uk,Basingstoke and Deane,http://www.basingstoke.gov.uk,-1.15286900000000,RG26 4EU,2014-08-19,fhrs_3_en-GB,3,,FHRS,10
214995,Fresch 4 Winklebury Centre Basingstoke Hampshire RG23 8BU,,,,Fresch,Other catering premises,7841,5,,89324,5,,51.26843100000000,23830/0004/0/000,131,ehteam@basingstoke.gov.uk,Basingstoke and Deane,http://www.basingstoke.gov.uk,-1.12419900000000,RG23 8BU,2014-04-24,fhrs_5_en-GB,5,,FHRS,5
214996,Fun House Argent House Whitney Road Basingstoke Hampshire RG24 8NS,,,,Fun House,Restaurant/Cafe/Canteen,1,5,,88797,5,,51.27398100000000,23460/2006/2/000,131,ehteam@basingstoke.gov.uk,Basingstoke and Deane,http://www.basingstoke.gov.uk,-1.06624800000000,RG24 8NS,2014-03-17,fhrs_5_en-GB,5,,FHRS,0
214997,Gala Club Basingstoke Leisure Park Worting Road Basingstoke Hampshire RG22 6PG,,,,Gala Bingo,Restaurant/Cafe/Canteen,1,5,,90078,5,,51.26497400000000,24382/2006/2/000,131,ehteam@basingstoke.gov.uk,Basingstoke and Deane,http://www.basingstoke.gov.uk,-1.11767100000000,RG22 6PG,2015-01-19,fhrs_4_en-GB,4,,FHRS,10
214998,Clock Barn Ltd Tufton Warren Farm Tufton Warren Whitchurch Hampshire RG28 7RH,,,,Galloping Gourmet At Clock Barn,Other catering premises,7841,5,,657801,0,,51.19960900000000,14/00011/CP,131,ehteam@basingstoke.gov.uk,Basingstoke and Deane,http://www.basingstoke.gov.uk,-1.32725300000000,RG28 7RH,2014-04-22,fhrs_5_en-GB,5,,FHRS,0
214999,The Gamekeepers Tunworth Road Mapledurwell Basingstoke Hampshire RG25 2LU,,,,Gamekeepers,Pub/bar/nightclub,7843,5,,86151,0,,51.25950500000000,21930/2037/2/000,131,ehteam@basingstoke.gov.uk,Basingstoke and Deane,http://www.basingstoke.gov.uk,-1.02023700000000,RG25 2LU,2014-02-25,fhrs_5_en-GB,5,,FHRS,5
215000,Gar Ho Takeaway 10A George Street Kingsclere Newbury Hampshire RG20 5NQ,,,,Gar Ho,Takeaway/sandwich shop,7844,10,,21798,10,,51.32464500000000,07/00069/CP,131,ehteam@basingstoke.gov.uk,Basingstoke and Deane,http://www.basingstoke.gov.uk,-1.24517400000000,RG20 5NQ,2014-03-11,fhrs_3_en-GB,3,,FHRS,10
215001,George And Dragon Townsend Wolverton Tadley Hampshire RG26 5ST,,,,George And Dragon,Pub/bar/nightclub,7843,10,,89496,10,,51.32559100000000,23950/2000/2/000,131,ehteam@basingstoke.gov.uk,Basingstoke and Deane,http://www.basingstoke.gov.uk,-1.19148300000000,RG26 5ST,2013-11-07,fhrs_3_en-GB,3,,FHRS,10
215002,George And Horn Basingstoke Road Kingsclere Newbury Hampshire RG20 5NU,,,,George And Horn,Pub/bar/nightclub,7843,10,,18917,10,,51.32498200000000,06/00276/CP,131,ehteam@basingstoke.gov.uk,Basingstoke and Deane,http://www.basingstoke.gov.uk,-1.24292900000000,RG20 5NU,2013-12-03,fhrs_3_en-GB,3,,FHRS,10
215003,Giraffe R2 Lower Ground Festival Place Basingstoke Hampshire RG21 7BB,,,,Giraffe,Restaurant/Cafe/Canteen,1,0,,35176,5,,51.26552000000000,10/00200/CP,131,ehteam@basingstoke.gov.uk,Basingstoke and Deane,http://www.basingstoke.gov.uk,-1.08449400000000,RG21 7BB,2014-01-14,fhrs_5_en-GB,5,,FHRS,5
215004,44 Belle Vue Road Old Basing Basingstoke Hampshire RG24 7JU,,,,Glaysher Family Butchers,Retailers - other,4613,5,,5423,0,,51.26915900000000,01850/0044/0/000,131,ehteam@basingstoke.gov.uk,Basingstoke and Deane,http://www.basingstoke.gov.uk,-1.04037200000000,RG24 7JU,2015-01-08,fhrs_5_en-GB,5,,FHRS,5
215005,Gourmet Burger Kitchen R8 Lower Ground Festival Place Basingstoke Hampshire RG21 7BE,,,,Gourmet Burger,Restaurant/Cafe/Canteen,1,5,,21789,5,,51.26557200000000,07/00068/CP,131,ehteam@basingstoke.gov.uk,Basingstoke and Deane,http://www.basingstoke.gov.uk,-1.08548200000000,RG21 7BE,2013-09-13,fhrs_5_en-GB,5,,FHRS,5
215006,Luxonic Lighting Priestley Road Basingstoke Hampshire RG24 9JP,,,,Grahams Eatery,Restaurant/Cafe/Canteen,1,5,,45753,5,,51.27707700000000,11/00025/CP,131,ehteam@basingstoke.gov.uk,Basingstoke and Deane,http://www.basingstoke.gov.uk,-1.10932500000000,RG24 9JP,2014-05-14,fhrs_5_en-GB,5,,FHRS,5
215007,Basingstoke School Plus Pack Lane Basingstoke Hampshire RG22 5TH,,,,Grangeside,School/college/university,7845,5,,69729,0,,51.24892800000000,15730/2005/2/000,131,ehteam@basingstoke.gov.uk,Basingstoke and Deane,http://www.basingstoke.gov.uk,-1.12072900000000,RG22 5TH,2013-12-03,fhrs_5_en-GB,5,,FHRS,0
215008,Great Binfields Primary School Binfields Farm Lane Chineham Basingstoke Hampshire RG24 8AJ,,,,Great Binfields Primary School,School/college/university,7845,0,,6369,0,,51.28368700000000,02135/0000/3/000,131,ehteam@basingstoke.gov.uk,Basingstoke and Deane,http://www.basingstoke.gov.uk,-1.05435100000000,RG24 8AJ,2013-10-11,fhrs_5_en-GB,5,,FHRS,5
215009,13 Wote Street Basingstoke Hampshire RG21 7NE,,,,Greggs,Takeaway/sandwich shop,7844,5,,10110,10,,51.26322400000000,04/00126/CP,131,ehteam@basingstoke.gov.uk,Basingstoke and Deane,http://www.basingstoke.gov.uk,-1.08643100000000,RG21 7NE,2014-03-19,fhrs_4_en-GB,4,,FHRS,0
215010,Greggs 12 Mayfair House Festival Place Basingstoke Hampshire RG21 7JT,,,,Greggs,Takeaway/sandwich shop,7844,0,,85776,5,,51.26514900000000,21720/0012/0/000,131,ehteam@basingstoke.gov.uk,Basingstoke and Deane,http://www.basingstoke.gov.uk,-1.08653700000000,RG21 7JT,2013-01-18,fhrs_5_en-GB,5,,FHRS,0
215011,Grillz Emit House 28 Franklin Avenue Tadley Hampshire RG26 4ET,,,,Grillz,Takeaway/sandwich shop,7844,10,,620693,5,,51.35683500000000,13/00177/CP,131,ehteam@basingstoke.gov.uk,Basingstoke and Deane,http://www.basingstoke.gov.uk,-1.14792000000000,RG26 4ET,2013-12-17,fhrs_3_en-GB,3,,FHRS,10
215012,Centre Court Hotel And Tennis Centre Centre Drive Chineham Basingstoke Hampshire RG24 8FY,,,,Hampshire Court Hotel,Hotel/bed & breakfast/guest house,7842,5,,13435,5,,51.28365800000000,04090/0000/2/000,131,ehteam@basingstoke.gov.uk,Basingstoke and Deane,http://www.basingstoke.gov.uk,-1.05749200000000,RG24 8FY,2014-08-22,fhrs_5_en-GB,5,,FHRS,5
215013,21 Heath End Road Baughurst Tadley Hampshire RG26 5LX,,,,Happy Valley Fish & Chips,Takeaway/sandwich shop,7844,10,,32450,15,,51.35614100000000,09640/0021/0/000,131,ehteam@basingstoke.gov.uk,Basingstoke and Deane,http://www.basingstoke.gov.uk,-1.16640200000000,RG26 5LX,2013-05-24,fhrs_2_en-GB,2,,FHRS,10
215014,Stag And Hounds Winchester Road Basingstoke Hampshire RG22 6HN,,,,Harvester Stag And Hounds,Restaurant/Cafe/Canteen,1,5,,89094,5,,51.24951000000000,23680/2015/2/000,131,ehteam@basingstoke.gov.uk,Basingstoke and Deane,http://www.basingstoke.gov.uk,-1.11444200000000,RG22 6HN,2013-11-18,fhrs_4_en-GB,4,,FHRS,10
215015,Crockford Lane Basingstoke Hampshire,,,,Hasan's Kebabs,Mobile caterer,7846,10,,456113,10,,51.29337400000000,05/00251/CP,131,ehteam@basingstoke.gov.uk,Basingstoke and Deane,http://www.basingstoke.gov.uk,-1.06821600000000,,2014-09-25,fhrs_3_en-GB,3,,FHRS,10
215016,Gershwin Road Basingstoke Hampshire RG22 4PQ,,,,Hatch Warren Infant School,School/college/university,7845,5,,27812,0,,51.23898600000000,08230/2002/2/000,131,ehteam@basingstoke.gov.uk,Basingstoke and Deane,http://www.basingstoke.gov.uk,-1.12354000000000,RG22 4PQ,2013-09-24,fhrs_5_en-GB,5,,FHRS,5
215017,Hatchwarren Community Centre Long Cross Lane Basingstoke Hampshire RG22 4XF,,,,Hatch Warren Under 5's Pre-School,Hospitals/Childcare/Caring Premises,5,5,,706995,0,,51.23370300000000,07/00105/CP,131,ehteam@basingstoke.gov.uk,Basingstoke and Deane,http://www.basingstoke.gov.uk,-1.13498400000000,RG22 4XF,2014-09-15,fhrs_5_en-GB,5,,FHRS,5
215018,Hatch Warren Junior School Gershwin Road Basingstoke Hampshire RG22 4PQ,,,,Hatchwarren Junior School,School/college/university,7845,5,,27811,0,,51.23898600000000,08230/2001/2/000,131,ehteam@basingstoke.gov.uk,Basingstoke and Deane,http://www.basingstoke.gov.uk,-1.12354000000000,RG22 4PQ,2014-04-24,fhrs_5_en-GB,5,,FHRS,5
215019,Aldworth Science College Western Way Basingstoke Hampshire RG22 6HA,,,,HC3S At Aldworth Secondary School,School/college/university,7845,5,,88211,5,,51.25375100000000,23010/2000/2/000,131,ehteam@basingstoke.gov.uk,Basingstoke and Deane,http://www.basingstoke.gov.uk,-1.11513500000000,RG22 6HA,2014-09-12,fhrs_4_en-GB,4,,FHRS,10
215020,Bishopswood Junior School Barlows Road Tadley Hampshire RG26 3NA,,,,HC3S At Bishopswood Junior & Infant School,School/college/university,7845,5,,4660,5,,51.34927100000000,01270/0000/2/000,131,ehteam@basingstoke.gov.uk,Basingstoke and Deane,http://www.basingstoke.gov.uk,-1.14395400000000,RG26 3NA,2013-09-10,fhrs_5_en-GB,5,,FHRS,5
215021,Kings Furlong Junior School Upper Chestnut Drive Basingstoke Hampshire RG21 8YJ,,,,HC3S At Kings Furlong Junior & Infant School,School/college/university,7845,5,,86594,0,,51.25793800000000,22070/2003/2/000,131,ehteam@basingstoke.gov.uk,Basingstoke and Deane,http://www.basingstoke.gov.uk,-1.10297300000000,RG21 8YJ,2014-01-13,fhrs_5_en-GB,5,,FHRS,5
215022,Post Office And Shop The Old Baptist Church Thornford Road Headley Thatcham Hampshire RG19 8AD,,,,Headley And Ashford Hill Community Shop,Retailers - other,4613,5,,559358,5,,51.36001600000000,12/00071/CP,131,ehteam@basingstoke.gov.uk,Basingstoke and Deane,http://www.basingstoke.gov.uk,-1.25730300000000,RG19 8AD,2014-07-21,fhrs_5_en-GB,5,,FHRS,5
215023,Heatherside Scures Hill Newnham Hook Hampshire RG27 9JR,,,,Heatherside Rest Home,Hospitals/Childcare/Caring Premises,5,5,,77988,0,,51.27308600000000,18450/2005/2/000,131,ehteam@basingstoke.gov.uk,Basingstoke and Deane,http://www.basingstoke.gov.uk,-0.98671900000000,RG27 9JR,2014-03-27,fhrs_4_en-GB,4,,FHRS,10
215024,Hee's Express 17 London Street Basingstoke Hampshire RG21 7NT,,,,Hees Express,Takeaway/sandwich shop,7844,10,,15670,10,,51.26224700000000,05/00379/CP,131,ehteam@basingstoke.gov.uk,Basingstoke and Deane,http://www.basingstoke.gov.uk,-1.08576300000000,RG21 7NT,2014-01-10,fhrs_3_en-GB,3,,FHRS,10
215025,Tops Pizza 7 New Street Basingstoke Hampshire RG21 7DE,,,,Herbies Pizza,Takeaway/sandwich shop,7844,10,,66025,5,,51.26302600000000,14870/0007/0/000,131,ehteam@basingstoke.gov.uk,Basingstoke and Deane,http://www.basingstoke.gov.uk,-1.08874300000000,RG21 7DE,2014-02-03,fhrs_3_en-GB,3,,FHRS,10
215026,Highclere Castle Highclere Park Highclere Newbury Hampshire RG20 9RN,,,,Highclere Castle,Restaurant/Cafe/Canteen,1,0,,32644,0,,51.32707600000000,09920/2000/2/000,131,ehteam@basingstoke.gov.uk,Basingstoke and Deane,http://www.basingstoke.gov.uk,-1.36213200000000,RG20 9RN,2014-09-16,fhrs_5_en-GB,5,,FHRS,5
215027,Hilton Basingstoke Hotel Old Common Road Basingstoke Hampshire RG21 3PR,,,,Hilton Basingstoke,Hotel/bed & breakfast/guest house,7842,0,,69001,5,,51.26289900000000,15470/0000/2/000,131,ehteam@basingstoke.gov.uk,Basingstoke and Deane,http://www.basingstoke.gov.uk,-1.07138900000000,RG21 3PR,2013-10-07,fhrs_5_en-GB,5,,FHRS,5
215028,Holiday Inn Grove Road Basingstoke Hampshire RG21 3EE,,,,Holiday Inn,Hotel/bed & breakfast/guest house,7842,5,,28378,0,,51.25376700000000,08920/2001/2/000,131,ehteam@basingstoke.gov.uk,Basingstoke and Deane,http://www.basingstoke.gov.uk,-1.07995600000000,RG21 3EE,2014-10-09,fhrs_5_en-GB,5,,FHRS,5
215029,3 Mauritius Close Basingstoke Hampshire RG24 9UW,,,,Honey Bees Little Kitchen,Mobile caterer,7846,5,,644294,5,,51.28248700000000,14/00014/CP,131,ehteam@basingstoke.gov.uk,Basingstoke and Deane,http://www.basingstoke.gov.uk,-1.07297300000000,RG24 9UW,2014-04-30,fhrs_5_en-GB,5,,FHRS,5
215030,Horris Hill School Horris Hill Newtown Common Newbury Hampshire RG20 9DJ,,,,Horris Hill School,School/college/university,7845,5,,43528,5,,51.36449900000000,10590/2011/2/000,131,ehteam@basingstoke.gov.uk,Basingstoke and Deane,http://www.basingstoke.gov.uk,-1.33450800000000,RG20 9DJ,2014-03-26,fhrs_5_en-GB,5,,FHRS,5
215031,Hot Spice Tandoori 10 London Street Whitchurch Hampshire RG28 7LQ,,,,Hot Spice Tandoori Take Away,Takeaway/sandwich shop,7844,5,,55810,5,,51.23041200000000,12600/0010/0/000,131,ehteam@basingstoke.gov.uk,Basingstoke and Deane,http://www.basingstoke.gov.uk,-1.33777500000000,RG28 7LQ,2014-02-05,fhrs_4_en-GB,4,,FHRS,10
215032,Houndmills Service Station Aldermaston Road South Basingstoke Hampshire RG21 6YL,,,,Houndmills Service Station,Retailers - other,4613,5,,1376,5,,51.27527500000000,00150/2022/2/000,131,ehteam@basingstoke.gov.uk,Basingstoke and Deane,http://www.basingstoke.gov.uk,-1.10184700000000,RG21 6YL,2014-11-18,fhrs_5_en-GB,5,,FHRS,5
215033,Post Office Reading Road Sherfield-on-Loddon Hook Hampshire RG27 0EX,,,,House Twenty8,Restaurant/Cafe/Canteen,1,10,,508091,10,,51.31564400000000,13/00021/CP,131,ehteam@basingstoke.gov.uk,Basingstoke and Deane,http://www.basingstoke.gov.uk,-1.02578600000000,RG27 0EX,2013-05-08,fhrs_3_en-GB,3,,FHRS,5
215034,H's Coffee Shop 5 Newbury Street Whitchurch Hampshire RG28 7DW,,,,H's Coffee Shop,Restaurant/Cafe/Canteen,1,5,,34432,5,,51.23050100000000,10/00117/CP,131,ehteam@basingstoke.gov.uk,Basingstoke and Deane,http://www.basingstoke.gov.uk,-1.33907700000000,RG28 7DW,2014-01-07,fhrs_5_en-GB,5,,FHRS,0
215035,47 Cowslip Bank Lychpit Basingstoke Hampshire RG24 8RR,,,,Hungry For Health,Other catering premises,7841,5,,9788,0,,51.27742300000000,04/00064/CP,131,ehteam@basingstoke.gov.uk,Basingstoke and Deane,http://www.basingstoke.gov.uk,-1.06041500000000,RG24 8RR,2014-10-02,fhrs_5_en-GB,5,,FHRS,5
215036,New Barn Bungalow Laverstoke Lane Laverstoke Whitchurch Hampshire RG28 7PG,,,,I Knead Dough,Other catering premises,7841,5,,471012,5,,51.21058300000000,12/00096/CP,131,ehteam@basingstoke.gov.uk,Basingstoke and Deane,http://www.basingstoke.gov.uk,-1.29890600000000,RG28 7PG,2014-08-14,fhrs_5_en-GB,5,,FHRS,5
215037,Istanbul Grill 6A High Street Overton Basingstoke Hampshire RG25 3HA,,,,Istanbull Grill,Takeaway/sandwich shop,7844,5,,682439,5,,51.24411800000000,14/00063/CP,131,ehteam@basingstoke.gov.uk,Basingstoke and Deane,http://www.basingstoke.gov.uk,-1.26424200000000,RG25 3HA,2014-06-26,fhrs_5_en-GB,5,,FHRS,5
215038,1 - 2 Station Mall Basingstoke Hampshire RG21 7DW,,,,J Sainsbury,Retailers - supermarkets/hypermarkets,7840,0,,81314,0,,51.26731000000000,19830/0012/0/000,131,ehteam@basingstoke.gov.uk,Basingstoke and Deane,http://www.basingstoke.gov.uk,-1.08807000000000,RG21 7DW,2014-09-08,fhrs_5_en-GB,5,,FHRS,5
215039,J Sainsbury 30A Mulfords Hill Tadley Hampshire RG26 3JE,,,,J Sainsbury,Retailers - supermarkets/hypermarkets,7840,0,,64807,5,,51.35526800000000,14480/0030/A/000,131,ehteam@basingstoke.gov.uk,Basingstoke and Deane,http://www.basingstoke.gov.uk,-1.14148700000000,RG26 3JE,2014-02-26,fhrs_5_en-GB,5,,FHRS,5
215040,J Sainsburys Wallop Drive Basingstoke Hampshire RG22 4TW,,,,J Sainsbury,Retailers - supermarkets/hypermarkets,7840,0,,87338,0,,51.23550700000000,22530/0003/0/000,131,ehteam@basingstoke.gov.uk,Basingstoke and Deane,http://www.basingstoke.gov.uk,-1.13942000000000,RG22 4TW,2013-02-12,fhrs_5_en-GB,5,,FHRS,0
215041,J Sainsbury 2 - 3 Wallop Drive Basingstoke Hampshire RG22 4TW,,,,J Sainsbury Cafe,Restaurant/Cafe/Canteen,1,5,,87340,5,,51.23550700000000,22530/0003/0/00A,131,ehteam@basingstoke.gov.uk,Basingstoke and Deane,http://www.basingstoke.gov.uk,-1.13942000000000,RG22 4TW,2013-07-30,fhrs_5_en-GB,5,,FHRS,0
215042,Grove House Lutyens Close Lychpit Hampshire,,,,Janes Bistro,Restaurant/Cafe/Canteen,1,5,,9957,5,,,04/00093/CP,131,ehteam@basingstoke.gov.uk,Basingstoke and Deane,http://www.basingstoke.gov.uk,,,2014-04-24,fhrs_5_en-GB,5,,FHRS,0
215043,28A Park Avenue Old Basing BASINGSTOKE Hampshire RG24 7HT,,,,Jerk In A Box Ltd,Other catering premises,7841,5,,45705,0,,51.26490300000000,11/00022/CP,131,ehteam@basingstoke.gov.uk,Basingstoke and Deane,http://www.basingstoke.gov.uk,-1.04113500000000,RG24 7HT,2013-01-03,fhrs_5_en-GB,5,,FHRS,0
215044,17 - 19 Winchester Road Basingstoke Hampshire RG21 8UE,,,,Jims Chinese Takeaway,Takeaway/sandwich shop,7844,5,,89088,10,,51.26187000000000,23680/0017/2/000,131,ehteam@basingstoke.gov.uk,Basingstoke and Deane,http://www.basingstoke.gov.uk,-1.09153200000000,RG21 8UE,2014-02-27,fhrs_3_en-GB,3,,FHRS,10
215045,Jinkz Ltd Unit B Morse Road Basingstoke Hampshire RG22 6NE,,,,JJ's,Restaurant/Cafe/Canteen,1,10,,7441,10,,51.26262400000000,03/00025/CP,131,ehteam@basingstoke.gov.uk,Basingstoke and Deane,http://www.basingstoke.gov.uk,-1.10898800000000,RG22 6NE,2014-12-08,fhrs_3_en-GB,3,,FHRS,10
215046,J J's Unit B Morse Road Basingstoke Hampshire RG22 6NE,,,,JJ's Chatterbox Nursery,Hospitals/Childcare/Caring Premises,5,10,,628144,5,,51.26262400000000,13/00182/CP,131,ehteam@basingstoke.gov.uk,Basingstoke and Deane,http://www.basingstoke.gov.uk,-1.10898800000000,RG22 6NE,2014-01-08,fhrs_4_en-GB,4,,FHRS,5
215047,Grafton Way Basingstoke Hampshire,,,,Joe's Kebabs,Mobile caterer,7846,10,,456117,10,,51.26263200000000,08580/1000/2/001,131,ehteam@basingstoke.gov.uk,Basingstoke and Deane,http://www.basingstoke.gov.uk,-1.11360300000000,,2013-08-15,fhrs_3_en-GB,3,,FHRS,10
215048,1 Winklebury Centre Basingstoke Hampshire RG23 8BU,,,,John Burtons Foodmarket,Retailers - other,4613,5,,89329,5,,51.26843100000000,23830/2006/2/000,131,ehteam@basingstoke.gov.uk,Basingstoke and Deane,http://www.basingstoke.gov.uk,-1.12419900000000,RG23 8BU,2014-10-03,fhrs_5_en-GB,5,,FHRS,5
215049,Jolly Farmer Farleigh Road Cliddesden Basingstoke Hampshire RG25 2JL,,,,Jolly Farmer,Pub/bar/nightclub,7843,5,,24035,5,,51.23986500000000,07260/2016/2/000,131,ehteam@basingstoke.gov.uk,Basingstoke and Deane,http://www.basingstoke.gov.uk,-1.09601900000000,RG25 2JL,2015-01-15,fhrs_4_en-GB,4,,FHRS,10
215050,32 Oakley Lane Oakley Hampshire,,,,Jolly Olly's Coffee Shop,Restaurant/Cafe/Canteen,1,5,,194778,0,,,11/00172/CP,131,ehteam@basingstoke.gov.uk,Basingstoke and Deane,http://www.basingstoke.gov.uk,,,2013-12-13,fhrs_5_en-GB,5,,FHRS,0
215051,Kempshott Junior School Old Down Close Basingstoke Hampshire RG22 5LL,,,,Kempshott Infants & Junior Schools,School/college/university,7845,5,,69028,0,,51.24526600000000,15480/0001/2/000,131,ehteam@basingstoke.gov.uk,Basingstoke and Deane,http://www.basingstoke.gov.uk,-1.13738900000000,RG22 5LL,2014-12-08,fhrs_4_en-GB,4,,FHRS,10
215052,Kentucky Fried Chicken 'Drive-Thru' Restaurant Basingstoke Leisure Park Worting Road Basingstoke Hampshire RG22 6PG,,,,Kentucky Fried Chicken,Takeaway/sandwich shop,7844,0,,90082,5,,51.26497400000000,24382/2011/2/000,131,ehteam@basingstoke.gov.uk,Basingstoke and Deane,http://www.basingstoke.gov.uk,-1.11767100000000,RG22 6PG,2014-02-03,fhrs_5_en-GB,5,,FHRS,5
215053,Kiddi Caru Day Nursery Broadmere Road Basingstoke Hampshire RG22 4AQ,,,,Kiddi Caru Day Nursery,Hospitals/Childcare/Caring Premises,5,0,,9974,0,,51.22959100000000,04/00098/CP,131,ehteam@basingstoke.gov.uk,Basingstoke and Deane,http://www.basingstoke.gov.uk,-1.14205000000000,RG22 4AQ,2013-08-28,fhrs_5_en-GB,5,,FHRS,5
215054,King Of Wessex Winchester Road Basingstoke Hampshire RG21 8YS,,,,King Of Wessex,Pub/bar/nightclub,7843,20,,89096,10,,51.25845700000000,23680/2021/2/000,131,ehteam@basingstoke.gov.uk,Basingstoke and Deane,http://www.basingstoke.gov.uk,-1.09674400000000,RG21 8YS,2014-11-24,fhrs_1_en-GB,1,,FHRS,10
215055,Kingfisher Day Centre Laverstoke Lane Laverstoke Basingstoke Hampshire RG28 7NY,,,,Kingfisher Day Centre,Hospitals/Childcare/Caring Premises,5,0,,471018,5,,51.23324700000000,12/00143/CP,131,ehteam@basingstoke.gov.uk,Basingstoke and Deane,http://www.basingstoke.gov.uk,-1.29794500000000,RG28 7NY,2014-06-05,fhrs_5_en-GB,5,,FHRS,0
215056,Kings Arms Church Street Whitchurch Hampshire RG28 7AB,,,,Kings Arms,Pub/bar/nightclub,7843,5,,14218,5,,51.22943500000000,04820/2013/2/000,131,ehteam@basingstoke.gov.uk,Basingstoke and Deane,http://www.basingstoke.gov.uk,-1.33990900000000,RG28 7AB,2013-11-15,fhrs_5_en-GB,5,,FHRS,5
215057,Kings Exotica 23 London Street Basingstoke Hampshire RG21 7PG,,,,Kings Exotica,Takeaway/sandwich shop,7844,5,,34528,0,,51.26217600000000,10/00125/CP,131,ehteam@basingstoke.gov.uk,Basingstoke and Deane,http://www.basingstoke.gov.uk,-1.08467500000000,RG21 7PG,2014-08-15,fhrs_4_en-GB,4,,FHRS,10
215058,Kings Furlong Fish & Chips 1 Kings Furlong Centre Basingstoke Hampshire RG21 8YT,,,,Kings Furlong Takeaway,Takeaway/sandwich shop,7844,10,,51560,15,,51.25809900000000,11560/0001/2/000,131,ehteam@basingstoke.gov.uk,Basingstoke and Deane,http://www.basingstoke.gov.uk,-1.09690800000000,RG21 8YT,2015-01-14,fhrs_2_en-GB,2,,FHRS,10
215059,Kingsclere C E Primary School Ash Grove Kingsclere Newbury Hampshire RG20 5RE,,,,Kingsclere CE Primary School,School/college/university,7845,0,,2337,0,,51.32693700000000,00830/0000/2/000,131,ehteam@basingstoke.gov.uk,Basingstoke and Deane,http://www.basingstoke.gov.uk,-1.24502100000000,RG20 5RE,2013-12-04,fhrs_5_en-GB,5,,FHRS,5
215060,Park House Hostel Winchester Road Kingsclere Newbury Hampshire RG20 5PY,,,,Kingsclere Training Stables,Restaurant/Cafe/Canteen,1,5,,508092,10,,51.31668000000000,23700/2003/2/000,131,ehteam@basingstoke.gov.uk,Basingstoke and Deane,http://www.basingstoke.gov.uk,-1.25243600000000,RG20 5PY,2014-11-12,fhrs_3_en-GB,3,,FHRS,10
215061,Koala 28 Herriard Way Tadley Hampshire RG26 3UG,,,,Koala,Retailers - other,4613,5,,32615,10,,51.34615600000000,09870/0028/0/000,131,ehteam@basingstoke.gov.uk,Basingstoke and Deane,http://www.basingstoke.gov.uk,-1.13981900000000,RG26 3UG,2013-07-03,fhrs_3_en-GB,3,,FHRS,10
215062,La Tasca R3 Lower Ground Festival Place Basingstoke Hampshire RG21 7BB,,,,La Tasca,Restaurant/Cafe/Canteen,1,5,,85657,10,,51.26552000000000,21665/0024/2/000,131,ehteam@basingstoke.gov.uk,Basingstoke and Deane,http://www.basingstoke.gov.uk,-1.08449400000000,RG21 7BB,2013-11-08,fhrs_4_en-GB,4,,FHRS,5
215063,Southley Farmhouse Overton Basingstoke Hampshire RG25 3DR,,,,Laverstoke Park Farm Butchers Shop,Retailers - other,4613,5,,69622,0,,51.21838000000000,15690/2011/2/000,131,ehteam@basingstoke.gov.uk,Basingstoke and Deane,http://www.basingstoke.gov.uk,-1.25815200000000,RG25 3DR,2013-03-12,fhrs_5_en-GB,5,,FHRS,0
215064,BNP Paribas Lease Group Plc Northern Cross Basing View Basingstoke Hampshire RG21 4HL,,,,Le Caffe Aroma At BNP Parabas,Restaurant/Cafe/Canteen,1,5,,241249,5,,51.26881600000000,12/00030/CP,131,ehteam@basingstoke.gov.uk,Basingstoke and Deane,http://www.basingstoke.gov.uk,-1.07714700000000,RG21 4HL,2014-02-28,fhrs_5_en-GB,5,,FHRS,5
215065,Carefusion UK Ltd The Crescent Jays Close Basingstoke Hampshire RG22 4BS,,,,Le Caffe Aroma At Carefusion,Restaurant/Cafe/Canteen,1,5,,15681,10,,,05/00402/CP,131,ehteam@basingstoke.gov.uk,Basingstoke and Deane,http://www.basingstoke.gov.uk,,,2014-07-24,fhrs_4_en-GB,4,,FHRS,5
215066,Computer 2000 2 Redwood Crockford Lane Basingstoke Hampshire RG24 8WG,,,,Le Caffe Aroma At Computer 2000,Restaurant/Cafe/Canteen,1,10,,471013,10,,51.29524500000000,12/00114/CP,131,ehteam@basingstoke.gov.uk,Basingstoke and Deane,http://www.basingstoke.gov.uk,-1.06597500000000,RG24 8WQ,2013-12-16,fhrs_3_en-GB,3,,FHRS,10
215067,Global Crossing Uk Telecom Ltd Beechgreen Court Crockford Lane Basingstoke Hampshire RG24 8NA,,,,Le Caffe Aroma At Level 3,Restaurant/Cafe/Canteen,1,10,,32838,10,,51.28750900000000,10/00008/CP,131,ehteam@basingstoke.gov.uk,Basingstoke and Deane,http://www.basingstoke.gov.uk,-1.06907200000000,RG24 8NA,2013-10-14,fhrs_2_en-GB,2,,FHRS,15
215068,Micro Peripherals Ltd 1 Elmwood Crockford Lane Basingstoke Hampshire RG24 8WG,,,,Le Caffe Aroma At Micro Peripherals,Restaurant/Cafe/Canteen,1,5,,335267,10,,51.29431500000000,12/00017/CP,131,ehteam@basingstoke.gov.uk,Basingstoke and Deane,http://www.basingstoke.gov.uk,-1.06890500000000,RG24 8WG,2013-08-08,fhrs_4_en-GB,4,,FHRS,5
215069,Taylor Made Golf Ltd Taylormade Court Jays Close Basingstoke Hampshire RG22 4BS,,,,Le Caffe Aroma At Taylor Made Golf,Restaurant/Cafe/Canteen,1,10,,241248,10,,,12/00016/CP,131,ehteam@basingstoke.gov.uk,Basingstoke and Deane,http://www.basingstoke.gov.uk,,,2014-03-07,fhrs_4_en-GB,4,,FHRS,0
215070,Limington House School St Andrews Road Basingstoke Hampshire RG22 6PS,,,,Limington House School,School/college/university,7845,5,,80279,5,,51.25851800000000,19420/0000/2/000,131,ehteam@basingstoke.gov.uk,Basingstoke and Deane,http://www.basingstoke.gov.uk,-1.11293700000000,RG22 6PS,2014-09-15,fhrs_5_en-GB,5,,FHRS,5
215071,Linden Market Linden Avenue Old Basing Basingstoke Hampshire RG24 7HS,,,,Linden Market,Retailers - supermarkets/hypermarkets,7840,10,,54175,10,,51.26602900000000,12210/2001/2/000,131,ehteam@basingstoke.gov.uk,Basingstoke and Deane,http://www.basingstoke.gov.uk,-1.04144100000000,RG24 7HS,2014-06-10,fhrs_3_en-GB,3,,FHRS,10
215072,Little Chef Popham Services Andover Road Coxford Down Micheldever Winchester Hampshire SO21 3SP,,,,Little Chef,Restaurant/Cafe/Canteen,1,0,,17050,5,,51.19306400000000,05490/2012/2/000,131,ehteam@basingstoke.gov.uk,Basingstoke and Deane,http://www.basingstoke.gov.uk,-1.23254200000000,SO21 3SP,2013-12-05,fhrs_5_en-GB,5,,FHRS,5
215073,Little Chef Tot Hill Services A34 Newbury Bypass Burghclere Newbury Hampshire RG20 9BX,,,,Little Chef,Restaurant/Cafe/Canteen,1,10,,85599,10,,51.34859500000000,21630/2010/2/000,131,ehteam@basingstoke.gov.uk,Basingstoke and Deane,http://www.basingstoke.gov.uk,-1.34132900000000,RG20 9BX,2013-12-10,fhrs_3_en-GB,3,,FHRS,10
215074,Little Frankies Basingstoke Leisure Park Worting Road Basingstoke Hampshire RG22 6PG,,,,Little Frankies,Restaurant/Cafe/Canteen,1,5,,89921,10,,51.26497400000000,24260/2008/2/000,131,ehteam@basingstoke.gov.uk,Basingstoke and Deane,http://www.basingstoke.gov.uk,-1.11767100000000,RG22 6PG,2013-09-04,fhrs_3_en-GB,3,,FHRS,10
215075,Little Me Day Nursery Skyline Plaza Alencon Link Basingstoke Hampshire RG21 7NR RG21 7BL,,,,Little Me Nursery,Hospitals/Childcare/Caring Premises,5,5,,434101,0,,51.26743000000000,12/00082/CP,131,ehteam@basingstoke.gov.uk,Basingstoke and Deane,http://www.basingstoke.gov.uk,-1.08500100000000,RG21 7BL,2014-02-26,fhrs_5_en-GB,5,,FHRS,5
215076,Little Stars Pre-School Heath End Village Hall Heath End Road Baughurst Tadley Hampshire RG26 5LU,,,,Little Stars Pre-School,Hospitals/Childcare/Caring Premises,5,10,,495826,5,,51.35609600000000,13/00006/CP,131,ehteam@basingstoke.gov.uk,Basingstoke and Deane,http://www.basingstoke.gov.uk,-1.16511000000000,RG26 5LU,2015-01-08,fhrs_4_en-GB,4,,FHRS,5
215077,Lloyds No 1 Lower Ground R6 Festival Place Basingstoke Hampshire RG21 7BB,,,,Lloyds Number One,Pub/bar/nightclub,7843,5,,85654,0,,51.26552000000000,21665/0013/2/000,131,ehteam@basingstoke.gov.uk,Basingstoke and Deane,http://www.basingstoke.gov.uk,-1.08449400000000,RG21 7BB,2014-10-07,fhrs_5_en-GB,5,,FHRS,5
215078,Pamber Heath Post Office 14 Silchester Road Pamber Heath Tadley Hampshire RG26 3EA,,,,Londis,Retailers - other,4613,10,,78854,5,,51.35789500000000,18880/0014/2/000,131,ehteam@basingstoke.gov.uk,Basingstoke and Deane,http://www.basingstoke.gov.uk,-1.12462000000000,RG26 3EA,2014-06-03,fhrs_4_en-GB,4,,FHRS,5
215079,The Longbridge Mill Reading Road Sherfield-on-Loddon Hook Hampshire RG27 0DL,,,,Longbridge Mill,Restaurant/Cafe/Canteen,1,0,,75307,5,,51.31865400000000,17550/2051/2/000,131,ehteam@basingstoke.gov.uk,Basingstoke and Deane,http://www.basingstoke.gov.uk,-1.02121700000000,RG27 0DL,2014-03-11,fhrs_5_en-GB,5,,FHRS,5
215080,The Barley Mow 19 Oakley Lane Oakley Basingstoke Hampshire RG23 7JZ,,,,Louis At The Barley Mow,Pub/bar/nightclub,7843,5,,68395,5,,51.24882000000000,15290/2008/2/000,131,ehteam@basingstoke.gov.uk,Basingstoke and Deane,http://www.basingstoke.gov.uk,-1.17891700000000,RG23 7JZ,2014-09-25,fhrs_5_en-GB,5,,FHRS,5
215081,Lunch Box 1 Armstrong Road Basingstoke Hampshire,,,,Lunch Box,Restaurant/Cafe/Canteen,1,0,,25118,0,,,08/00046/CP,131,ehteam@basingstoke.gov.uk,Basingstoke and Deane,http://www.basingstoke.gov.uk,,,2013-08-13,fhrs_5_en-GB,5,,FHRS,5
215082,The Lunch Box Weigmore House Crockford Lane Basingstoke Hampshire RG24 8NA,,,,Lunch Box,Takeaway/sandwich shop,7844,5,,17133,5,,51.28750900000000,05560/2020/3/02A,131,ehteam@basingstoke.gov.uk,Basingstoke and Deane,http://www.basingstoke.gov.uk,-1.06907200000000,RG24 8NA,2014-10-22,fhrs_5_en-GB,5,,FHRS,5
215083,Mango Grove 12A London Street Basingstoke Hampshire RG21 7BG,,,,Mango Grove,Restaurant/Cafe/Canteen,1,10,,28582,10,,51.26260200000000,09/00010/CP,131,ehteam@basingstoke.gov.uk,Basingstoke and Deane,http://www.basingstoke.gov.uk,-1.08621400000000,RG21 7NU,2013-07-02,fhrs_3_en-GB,3,,FHRS,10
215084,Manor Field Junior School Brighton Way Basingstoke Hampshire RG22 4DH,,,,Manor Field County Junior School,School/college/university,7845,0,,8573,0,,51.24060000000000,03050/2000/2/000,131,ehteam@basingstoke.gov.uk,Basingstoke and Deane,http://www.basingstoke.gov.uk,-1.11333800000000,RG22 4DH,2013-07-18,fhrs_5_en-GB,5,,FHRS,5
215085,Scrapps Hill Farm 550 Worting Road Basingstoke Hampshire RG23 8PU,,,,Manydown Family Fun,Other catering premises,7841,5,,574036,0,,51.26206400000000,13/00108/CP,131,ehteam@basingstoke.gov.uk,Basingstoke and Deane,http://www.basingstoke.gov.uk,-1.14845500000000,RG23 8PU,2013-07-23,fhrs_5_en-GB,5,,FHRS,0
215086,Scrapps Hill Farm 550 Worting Road Basingstoke Hampshire RG23 8PU,,,,Manydown Farm Shop,Retailers - other,4613,5,,89919,5,,51.26206400000000,24260/2000/2/000,131,ehteam@basingstoke.gov.uk,Basingstoke and Deane,http://www.basingstoke.gov.uk,-1.14845500000000,RG23 8PU,2014-07-15,fhrs_5_en-GB,5,,FHRS,5
215087,Maple Ridge School Maple Crescent Basingstoke Hampshire RG21 5SX,,,,Maple Ridge School,School/college/university,7845,5,,61153,0,,51.27490000000000,13400/0000/2/000,131,ehteam@basingstoke.gov.uk,Basingstoke and Deane,http://www.basingstoke.gov.uk,-1.09042900000000,RG21 5SX,2014-03-28,fhrs_4_en-GB,4,,FHRS,10
215088,Maraga Polish Delikatessen 7 Brighton Hill Centre Basingstoke Hampshire RG22 4EH,,,,Maraga Polish Delikatessen,Retailers - other,4613,5,,559360,5,,51.24503900000000,12/00098/CP,131,ehteam@basingstoke.gov.uk,Basingstoke and Deane,http://www.basingstoke.gov.uk,-1.11418400000000,RG22 4EH,2014-01-15,fhrs_5_en-GB,5,,FHRS,0
215089,Mariners Fish And Chips 9 High Street Overton Basingstoke Hampshire RG25 3HB,,,,Mariners Fish And Chips,Takeaway/sandwich shop,7844,0,,550963,0,,51.24381200000000,13/00037/CP,131,ehteam@basingstoke.gov.uk,Basingstoke and Deane,http://www.basingstoke.gov.uk,-1.26430400000000,RG25 3HB,2014-11-27,fhrs_5_en-GB,5,,FHRS,5
215090,Marks & Spencer 9 - 12 Paddington House Festival Place Basingstoke Hampshire RG21 7LJ,,,,Marks And Spencer,Retailers - supermarkets/hypermarkets,7840,0,,85820,0,,51.26486200000000,21740/0912/0/000,131,ehteam@basingstoke.gov.uk,Basingstoke and Deane,http://www.basingstoke.gov.uk,-1.08780400000000,RG21 7LJ,2014-03-11,fhrs_5_en-GB,5,,FHRS,5
215091,E3 Chineham Shopping Centre Chineham Basingstoke Hampshire RG24 8BQ,,,,Marks And Spencer Simply Foods,Retailers - supermarkets/hypermarkets,7840,0,,335266,5,,51.28420700000000,12/00009/CP,131,ehteam@basingstoke.gov.uk,Basingstoke and Deane,http://www.basingstoke.gov.uk,-1.05974600000000,RG24 8BQ,2014-03-06,fhrs_5_en-GB,5,,FHRS,0
215092,Marnel Junior School Shetland Road Basingstoke Hampshire RG24 9PT,,,,Marnel Junior & Infant School,School/college/university,7845,0,,78686,10,,51.28478300000000,18780/0000/2/000,131,ehteam@basingstoke.gov.uk,Basingstoke and Deane,http://www.basingstoke.gov.uk,-1.07787400000000,RG24 9PT,2014-04-22,fhrs_4_en-GB,4,,FHRS,5
215093,Marnel Lodge Carter Drive Basingstoke Hampshire RG24 9US,,,,Marnel Lodge Care Home,Hospitals/Childcare/Caring Premises,5,0,,45524,5,,51.28874200000000,11/00012/CP,131,ehteam@basingstoke.gov.uk,Basingstoke and Deane,http://www.basingstoke.gov.uk,-1.09206300000000,RG24 9US,2014-02-05,fhrs_5_en-GB,5,,FHRS,5
215094,Keystone Distribution Houndmills Road Basingstoke Hampshire RG21 6XP,,,,Martin Brower UK Ltd,Restaurant/Cafe/Canteen,1,5,,34562,0,,51.27167500000000,10/00128/CP,131,ehteam@basingstoke.gov.uk,Basingstoke and Deane,http://www.basingstoke.gov.uk,-1.10494200000000,RG21 6XP,2014-08-08,fhrs_5_en-GB,5,,FHRS,0
215095,3 Swan Street Kingsclere Newbury Hampshire RG20 5PP,,,,Martin McColl,Retailers - other,4613,10,,406853,10,,51.32387000000000,20370/2003/2/000,131,ehteam@basingstoke.gov.uk,Basingstoke and Deane,http://www.basingstoke.gov.uk,-1.24766900000000,RG20 5PP,2014-04-24,fhrs_3_en-GB,3,,FHRS,10
215096,The Winkle Public House Winklebury Way Basingstoke Hampshire RG23 8BA,,,,Masala Queen At The Winkle,Pub/bar/nightclub,7843,5,,89343,0,,51.27170600000000,23840/2004/2/000,131,ehteam@basingstoke.gov.uk,Basingstoke and Deane,http://www.basingstoke.gov.uk,-1.11377200000000,RG23 8BA,2015-02-03,fhrs_5_en-GB,5,,FHRS,5
215097,Mayflower Chinese Restaurant May Place Basingstoke Hampshire RG21 7NX,,,,Mayflower Restaurant,Restaurant/Cafe/Canteen,1,10,,18772,10,,51.26293900000000,06/00231/CP,131,ehteam@basingstoke.gov.uk,Basingstoke and Deane,http://www.basingstoke.gov.uk,-1.08562000000000,RG21 7NX,2014-10-28,fhrs_3_en-GB,3,,FHRS,10
215098,McColls Giles Court Tadley Basingstoke Hampshire RG26 3RL,,,,McColls,Retailers - other,4613,5,,34393,10,,51.35033400000000,10/00113/CP,131,ehteam@basingstoke.gov.uk,Basingstoke and Deane,http://www.basingstoke.gov.uk,-1.13438500000000,RG26 3RL,2014-02-04,fhrs_3_en-GB,3,,FHRS,10
215099,McDonalds 5 Market Place Basingstoke Hampshire RG21 7QA,,,,McDonalds,Restaurant/Cafe/Canteen,1,5,,61363,5,,51.26263200000000,13470/0005/0/000,131,ehteam@basingstoke.gov.uk,Basingstoke and Deane,http://www.basingstoke.gov.uk,-1.08665800000000,RG21 7QA,2014-08-15,fhrs_5_en-GB,5,,FHRS,5
215100,McDonalds Brighton Hill Retail Park Winchester Road Basingstoke Hampshire RG22 4AN,,,,McDonalds,Restaurant/Cafe/Canteen,1,5,,89089,5,,51.25094300000000,23680/2001/3/007,131,ehteam@basingstoke.gov.uk,Basingstoke and Deane,http://www.basingstoke.gov.uk,-1.10887000000000,RG22 4AN,2014-08-15,fhrs_5_en-GB,5,,FHRS,5
215101,McDonalds Drive Thru Tot Hill Services A34 Newbury Bypass Burghclere Newbury Hampshire RG20 9BX,,,,McDonalds,Restaurant/Cafe/Canteen,1,0,,85600,0,,51.34859500000000,21630/2012/2/000,131,ehteam@basingstoke.gov.uk,Basingstoke and Deane,http://www.basingstoke.gov.uk,-1.34132900000000,RG20 9BX,2014-06-12,fhrs_5_en-GB,5,,FHRS,5
215102,McDonalds 'Drive-Thru' Restaurant Basingstoke Leisure Park Worting Road Basingstoke Hampshire RG22 6PG,,,,McDonalds,Restaurant/Cafe/Canteen,1,0,,90077,5,,51.26497400000000,24382/2005/2/000,131,ehteam@basingstoke.gov.uk,Basingstoke and Deane,http://www.basingstoke.gov.uk,-1.11767100000000,RG22 6PG,2014-03-04,fhrs_5_en-GB,5,,FHRS,0
215103,Merton Junior School Romsey Close Basingstoke Hampshire RG24 9HB,,,,Merton Junior School,School/college/university,7845,5,,76259,5,,51.28237200000000,17950/2000/2/000,131,ehteam@basingstoke.gov.uk,Basingstoke and Deane,http://www.basingstoke.gov.uk,-1.09514200000000,RG24 9HB,2014-11-06,fhrs_5_en-GB,5,,FHRS,5
215104,Milestones Museum Churchill Way West Basingstoke Hampshire RG21 6YR,,,,Milestones Museum,Restaurant/Cafe/Canteen,1,5,,90080,10,,51.26497400000000,24382/2008/2/000,131,ehteam@basingstoke.gov.uk,Basingstoke and Deane,http://www.basingstoke.gov.uk,-1.11767100000000,RG22 6PG,2015-01-20,fhrs_4_en-GB,4,,FHRS,5
215105,Manor Farm Blackstocks Lane Nately Scures Hook Hampshire RG27 9PH,,,,Millers Ark,Restaurant/Cafe/Canteen,1,5,,46682,5,,51.27072500000000,11/00079/CP,131,ehteam@basingstoke.gov.uk,Basingstoke and Deane,http://www.basingstoke.gov.uk,-1.00073300000000,RG27 9PH,2014-04-15,fhrs_4_en-GB,4,,FHRS,10
215106,Morrisons Worting Road Basingstoke Hampshire RG21 8BJ,,,,Morrisons,Retailers - supermarkets/hypermarkets,7840,0,,89916,0,,51.26288000000000,24260/1000/2/000,131,ehteam@basingstoke.gov.uk,Basingstoke and Deane,http://www.basingstoke.gov.uk,-1.10478300000000,RG21 8BJ,2013-06-28,fhrs_5_en-GB,5,,FHRS,0
215107,Morrisons Ltd Worting Road Basingstoke Hampshire RG21 8BJ,,,,Morrisons Customer Cafe,Restaurant/Cafe/Canteen,1,5,,89918,5,,51.26288000000000,24260/1000/2/002,131,ehteam@basingstoke.gov.uk,Basingstoke and Deane,http://www.basingstoke.gov.uk,-1.10478300000000,RG21 8BJ,2014-05-13,fhrs_5_en-GB,5,,FHRS,5
215108,Morrisons Ltd Worting Road Basingstoke Hampshire RG21 8BJ,,,,Morrisons Staff Cafe,Restaurant/Cafe/Canteen,1,5,,89917,5,,51.26288000000000,24260/1000/2/001,131,ehteam@basingstoke.gov.uk,Basingstoke and Deane,http://www.basingstoke.gov.uk,-1.10478300000000,RG21 8BJ,2014-05-13,fhrs_5_en-GB,5,,FHRS,5
215109,1 Winklebury Centre Basingstoke Hampshire RG23 8BU,,,,Mr G's Cafe,Restaurant/Cafe/Canteen,1,5,,550964,5,,51.26843100000000,13/00040/CP,131,ehteam@basingstoke.gov.uk,Basingstoke and Deane,http://www.basingstoke.gov.uk,-1.12419900000000,RG23 8BU,2014-11-24,fhrs_5_en-GB,5,,FHRS,5
215110,Mr Munch 22 Westminster House Festival Place Basingstoke Hampshire RG21 7LS,,,,Mr Munch,Restaurant/Cafe/Canteen,1,5,,85641,5,,51.26486200000000,21660/4220/3/022,131,ehteam@basingstoke.gov.uk,Basingstoke and Deane,http://www.basingstoke.gov.uk,-1.08780400000000,RG21 7LS,2014-03-20,fhrs_5_en-GB,5,,FHRS,5
215111,Kingsclere Road Upper Wootton Hampshire,,,,Mr Terry Lister,Mobile caterer,7846,10,,456129,10,,51.29194800000000,11550/2002/3/000,131,ehteam@basingstoke.gov.uk,Basingstoke and Deane,http://www.basingstoke.gov.uk,-1.16712400000000,,2014-03-17,fhrs_3_en-GB,3,,FHRS,5
215112,2 Century House Vickers Business Centre Priestley Road Basingstoke Hampshire RG24 9RA,,,,Mushi's Cafe,Restaurant/Cafe/Canteen,1,10,,46469,5,,,11/00067/CP,131,ehteam@basingstoke.gov.uk,Basingstoke and Deane,http://www.basingstoke.gov.uk,,,2014-05-02,fhrs_3_en-GB,3,,FHRS,10
215113,Pizza And Chicken Hot 4 You Buckskin Lane Basingstoke Hampshire RG22 5BW,,,,N.J. Food Street,Takeaway/sandwich shop,7844,5,,6589,5,,51.25644200000000,02300/2003/2/000,131,ehteam@basingstoke.gov.uk,Basingstoke and Deane,http://www.basingstoke.gov.uk,-1.13351200000000,RG22 5BW,2014-10-02,fhrs_5_en-GB,5,,FHRS,5
215114,Nandos R4 Lower Ground Festival Place Basingstoke Hampshire RG21 7BB,,,,Nandos,Restaurant/Cafe/Canteen,1,5,,85656,0,,51.26552000000000,21665/0022/2/000,131,ehteam@basingstoke.gov.uk,Basingstoke and Deane,http://www.basingstoke.gov.uk,-1.08449400000000,RG21 7BB,2014-12-05,fhrs_5_en-GB,5,,FHRS,5
215115,Nelsons Diner Ltd Newbury Road Kingsclere Newbury Hampshire RG20 4TA,,,,Nelsons Diner,Restaurant/Cafe/Canteen,1,5,,18549,5,,51.33356000000000,06/00155/CP,131,ehteam@basingstoke.gov.uk,Basingstoke and Deane,http://www.basingstoke.gov.uk,-1.25692700000000,RG20 4TA,2014-04-28,fhrs_5_en-GB,5,,FHRS,5
215116,77 Southern Road Basingstoke Hampshire RG21 3DY,,,,New City Chinese Takeaway,Takeaway/sandwich shop,7844,5,,448590,5,,51.26069200000000,12/00119/CP,131,ehteam@basingstoke.gov.uk,Basingstoke and Deane,http://www.basingstoke.gov.uk,-1.08696900000000,RG21 3DY,2013-07-24,fhrs_4_en-GB,4,,FHRS,10
215117,The New Inn Rowan Road Tadley Hampshire RG26 3RG,,,,New Inn,Pub/bar/nightclub,7843,10,,77334,10,,51.34939200000000,18140/2000/2/000,131,ehteam@basingstoke.gov.uk,Basingstoke and Deane,http://www.basingstoke.gov.uk,-1.13348300000000,RG26 3RG,2014-10-30,fhrs_3_en-GB,3,,FHRS,10
215118,The New Inn Sarum Hill Basingstoke Hampshire RG21 8SS,,,,New Inn,Pub/bar/nightclub,7843,10,,587026,0,,51.26347700000000,18370/2005/2/000,131,ehteam@basingstoke.gov.uk,Basingstoke and Deane,http://www.basingstoke.gov.uk,-1.09240300000000,RG21 8SS,2013-09-10,fhrs_4_en-GB,4,,FHRS,5
215119,New Standard Tandoori 19 Heath End Road Baughurst Tadley Hampshire RG26 5LX,,,,New Standard Tandoori Takeaway,Takeaway/sandwich shop,7844,5,,32449,5,,51.35614100000000,09640/0019/2/000,131,ehteam@basingstoke.gov.uk,Basingstoke and Deane,http://www.basingstoke.gov.uk,-1.16640200000000,RG26 5LX,2014-12-15,fhrs_4_en-GB,4,,FHRS,10
215120,New World Chinese Takeaway 12 Brighton Hill Centre Basingstoke Hampshire RG22 4EH,,,,New World Takeaway,Takeaway/sandwich shop,7844,5,,8561,5,,51.24503900000000,03040/0010/0/000,131,ehteam@basingstoke.gov.uk,Basingstoke and Deane,http://www.basingstoke.gov.uk,-1.11418400000000,RG22 4EH,2014-12-02,fhrs_4_en-GB,4,,FHRS,10
215121,Palace Restaurant 68 - 70 Franklin Avenue Tadley Hampshire RG26 4ET,,,,Ng Palace,Restaurant/Cafe/Canteen,1,20,,24492,15,,51.35683500000000,07820/0068/0/000,131,ehteam@basingstoke.gov.uk,Basingstoke and Deane,http://www.basingstoke.gov.uk,-1.14792000000000,RG26 4ET,2014-03-25,fhrs_1_en-GB,1,,FHRS,10
215122,12 Pemerton Road Basingstoke Hampshire RG21 5LW,,,,Nicola Leonard,Other catering premises,7841,5,,9949,5,,51.27354200000000,04/00092/CP,131,ehteam@basingstoke.gov.uk,Basingstoke and Deane,http://www.basingstoke.gov.uk,-1.08009100000000,RG21 5LW,2014-11-27,fhrs_5_en-GB,5,,FHRS,0
215123,North Waltham Primary School Church Road North Waltham Basingstoke Hampshire RG25 2BL,,,,North Waltham Primary School,School/college/university,7845,0,,14157,0,,51.21368400000000,04730/2008/2/000,131,ehteam@basingstoke.gov.uk,Basingstoke and Deane,http://www.basingstoke.gov.uk,-1.19786700000000,RG25 2BL,2014-04-03,fhrs_5_en-GB,5,,FHRS,5
215124,Oak Lodge Nursing Home Oakley Hall Oakley Basingstoke Hampshire RG23 7EL,,,,Oak Lodge Nursing Home,Hospitals/Childcare/Caring Premises,5,0,,559366,5,,51.24564400000000,13/00085/CP,131,ehteam@basingstoke.gov.uk,Basingstoke and Deane,http://www.basingstoke.gov.uk,-1.20208200000000,RG23 7EL,2014-12-17,fhrs_5_en-GB,5,,FHRS,0
215125,The Oak Tree Nursery And Pre-School Bere Hill Whitchurch Hampshire RG28 7EN,,,,Oak Tree Nursery And Pre-School,Hospitals/Childcare/Caring Premises,5,0,,9359,0,,51.23580500000000,04/00002/CP,131,ehteam@basingstoke.gov.uk,Basingstoke and Deane,http://www.basingstoke.gov.uk,-1.33262700000000,RG28 7EB,2014-10-24,fhrs_5_en-GB,5,,FHRS,0
215126,Oakley Infant School Oakley Lane Oakley Basingstoke Hampshire RG23 7JZ,,,,Oakley County Infants School,School/college/university,7845,0,,68396,0,,51.24882000000000,15290/2019/2/000,131,ehteam@basingstoke.gov.uk,Basingstoke and Deane,http://www.basingstoke.gov.uk,-1.17891700000000,RG23 7JZ,2014-02-03,fhrs_5_en-GB,5,,FHRS,5
215127,Oakley Hall Oakley Basingstoke Hampshire RG23 7EL,,,,Oakley Hall Conference Centre,Hospitals/Childcare/Caring Premises,5,0,,75411,0,,51.24564400000000,17600/3022/2/000,131,ehteam@basingstoke.gov.uk,Basingstoke and Deane,http://www.basingstoke.gov.uk,-1.20208200000000,RG23 7EL,2014-08-28,fhrs_5_en-GB,5,,FHRS,5
215128,2 Vivian Road Basingstoke Hampshire RG21 5QB,,,,Oakridge Fish And Chips,Takeaway/sandwich shop,7844,10,,14602,10,,51.27642000000000,05/00026/CP,131,ehteam@basingstoke.gov.uk,Basingstoke and Deane,http://www.basingstoke.gov.uk,-1.08014800000000,RG21 5QB,2013-11-06,fhrs_3_en-GB,3,,FHRS,5
215129,Oakridge House Jefferson Road Basingstoke Hampshire RG21 5QS,,,,Oakridge House,Hospitals/Childcare/Caring Premises,5,5,,49754,0,,51.27560300000000,11050/0000/2/000,131,ehteam@basingstoke.gov.uk,Basingstoke and Deane,http://www.basingstoke.gov.uk,-1.08376300000000,RG21 5QS,2014-08-07,fhrs_5_en-GB,5,,FHRS,5
215130,Oakridge Junior School Oakridge Road Basingstoke Hampshire RG21 5RR,,,,Oakridge Junior School,School/college/university,7845,0,,68605,0,,51.27591300000000,15340/2000/2/000,131,ehteam@basingstoke.gov.uk,Basingstoke and Deane,http://www.basingstoke.gov.uk,-1.09595700000000,RG21 5RR,2014-06-25,fhrs_5_en-GB,5,,FHRS,5
215131,Oak Tree Farm Bramley Road Little London Tadley Hampshire RG26 5EY,,,,Oaktree Farm Shop,Retailers - other,4613,10,,7248,5,,51.32739400000000,02860/2011/2/000,131,ehteam@basingstoke.gov.uk,Basingstoke and Deane,http://www.basingstoke.gov.uk,-1.10084400000000,RG26 5EY,2013-12-10,fhrs_4_en-GB,4,,FHRS,5
215132,Barn Stores The Green North Waltham Basingstoke Hampshire RG25 2BH,,,,Old Barn Stores,Restaurant/Cafe/Canteen,1,10,,335265,10,,51.21268100000000,11/00162/CP,131,ehteam@basingstoke.gov.uk,Basingstoke and Deane,http://www.basingstoke.gov.uk,-1.19715400000000,RG25 2BQ,2013-02-13,fhrs_3_en-GB,3,,FHRS,5
215133,Old Basing Infant School Milkingpen Lane Old Basing Basingstoke Hampshire RG24 7DL,,,,Old Basing Infants School,School/college/university,7845,5,,63556,0,,51.27000000000000,14020/2004/2/000,131,ehteam@basingstoke.gov.uk,Basingstoke and Deane,http://www.basingstoke.gov.uk,-1.04428300000000,RG24 7DL,2014-06-03,fhrs_5_en-GB,5,,FHRS,5
215134,Old House At Home Station Road Overton Basingstoke Hampshire RG25 3DU,,,,Old House At Home,Pub/bar/nightclub,7843,10,,81456,10,,51.24505000000000,19880/2000/2/000,131,ehteam@basingstoke.gov.uk,Basingstoke and Deane,http://www.basingstoke.gov.uk,-1.26097500000000,RG25 3DU,2013-08-08,fhrs_3_en-GB,3,,FHRS,10
215135,The Old House At Home Tylney Lane Newnham Hook Hampshire RG27 9AH,,,,Old House At Home,Pub/bar/nightclub,7843,5,,65569,5,,51.28199300000000,14740/2006/2/000,131,ehteam@basingstoke.gov.uk,Basingstoke and Deane,http://www.basingstoke.gov.uk,-0.98936200000000,RG27 9AH,2014-11-26,fhrs_4_en-GB,4,,FHRS,10
215136,39 London Road Old Basing Basingstoke Hampshire RG24 7JE,,,,Oliver's Restaurant And Takeaway,Takeaway/sandwich shop,7844,5,,55548,0,,51.26353700000000,12530/0039/0/000,131,ehteam@basingstoke.gov.uk,Basingstoke and Deane,http://www.basingstoke.gov.uk,-1.04570600000000,RG24 7JE,2015-01-08,fhrs_4_en-GB,4,,FHRS,10
215137,One Stop Stanford Road Basingstoke Hampshire RG22 4LP,,,,One Stop,Retailers - other,4613,5,,570429,5,,51.24310500000000,19740/2000/2/000,131,ehteam@basingstoke.gov.uk,Basingstoke and Deane,http://www.basingstoke.gov.uk,-1.12243000000000,RG22 4LP,2013-07-01,fhrs_4_en-GB,4,,FHRS,10
215138,Oriental Gardens Blackdown Close Basingstoke Hampshire RG22 5BW,,,,Oriental Gardens,Restaurant/Cafe/Canteen,1,10,,706998,0,,51.25644200000000,14/00092/CP,131,ehteam@basingstoke.gov.uk,Basingstoke and Deane,http://www.basingstoke.gov.uk,-1.13351200000000,RG22 5BW,2014-09-18,fhrs_4_en-GB,4,,FHRS,5
215139,Oriental Wok 11 New Street Basingstoke Hampshire RG21 7DF,,,,Oriental Wok,Takeaway/sandwich shop,7844,5,,22048,0,,51.26307800000000,07/00110/CP,131,ehteam@basingstoke.gov.uk,Basingstoke and Deane,http://www.basingstoke.gov.uk,-1.08846900000000,RG21 7DF,2014-08-14,fhrs_4_en-GB,4,,FHRS,10
215140,Overton C E Primary School Court Drove Overton Basingstoke Hampshire RG25 3ES,,,,Overton Primary School,School/college/university,7845,0,,17007,5,,51.24798400000000,05450/2002/2/000,131,ehteam@basingstoke.gov.uk,Basingstoke and Deane,http://www.basingstoke.gov.uk,-1.26999700000000,RG25 3ES,2013-10-24,fhrs_5_en-GB,5,,FHRS,0
215141,Home Farm Laverstoke Park Laverstoke Whitchurch Hampshire RG28 7NT,,,,Overton Rugby Club,Pub/bar/nightclub,7843,5,,52906,5,,51.24045300000000,11980/2010/2/000,131,ehteam@basingstoke.gov.uk,Basingstoke and Deane,http://www.basingstoke.gov.uk,-1.29865200000000,RG28 7NT,2013-05-24,fhrs_5_en-GB,5,,FHRS,5
215142,Bishop Challoner Catholic Secondary School St Michaels Road Basingstoke Hampshire RG22 6SR,,,,Pabulum At Bishop Challoner School,Restaurant/Cafe/Canteen,1,5,,456131,5,,51.25656900000000,12/00117/CP,131,ehteam@basingstoke.gov.uk,Basingstoke and Deane,http://www.basingstoke.gov.uk,-1.12287600000000,RG22 6SR,2014-03-07,fhrs_4_en-GB,4,,FHRS,10
215143,Costello Technology College Crossborough Hill Basingstoke Hampshire RG21 4AL,,,,Pabulum At Costello Technology College,School/college/university,7845,5,,17210,10,,51.26191500000000,05680/2000/2/000,131,ehteam@basingstoke.gov.uk,Basingstoke and Deane,http://www.basingstoke.gov.uk,-1.07896200000000,RG21 4AL,2014-02-13,fhrs_4_en-GB,4,,FHRS,5
215144,Papa Johns 4 Buckland Parade Basingstoke Hampshire RG22 6JW,,,,Papa Johns,Takeaway/sandwich shop,7844,5,,8856,5,,51.25029300000000,03380/0004/0/000,131,ehteam@basingstoke.gov.uk,Basingstoke and Deane,http://www.basingstoke.gov.uk,-1.11811000000000,RG22 6JW,2013-12-13,fhrs_4_en-GB,4,,FHRS,10
215145,The Park Cafe Unit 14 Intec 2 Wade Road Basingstoke Hampshire,,,,Park Cafe,Restaurant/Cafe/Canteen,1,5,,542539,5,,,13/00041/CP,131,ehteam@basingstoke.gov.uk,Basingstoke and Deane,http://www.basingstoke.gov.uk,,,2014-11-20,fhrs_5_en-GB,5,,FHRS,5
215146,Park View Junior School Pinkerton Road Basingstoke Hampshire RG22 6RT,,,,Park View Junior & Infant School,School/college/university,7845,5,,72282,0,,51.25461900000000,16460/2000/2/000,131,ehteam@basingstoke.gov.uk,Basingstoke and Deane,http://www.basingstoke.gov.uk,-1.12424600000000,RG22 6RT,2014-06-27,fhrs_5_en-GB,5,,FHRS,0
215147,Parklands Hospital Aldermaston Road Basingstoke Hampshire RG24 9RH,,,,Parklands Hospital,Hospitals/Childcare/Caring Premises,5,5,,1373,5,,51.28273400000000,00150/2013/2/000,131,ehteam@basingstoke.gov.uk,Basingstoke and Deane,http://www.basingstoke.gov.uk,-1.11189700000000,RG24 9RH,2014-04-11,fhrs_5_en-GB,5,,FHRS,5
215148,20 Hinton Close Tadley Hampshire RG26 3RE,,,,Party Nibbles,Other catering premises,7841,5,,33712,5,,51.34881400000000,10/00061/CP,131,ehteam@basingstoke.gov.uk,Basingstoke and Deane,http://www.basingstoke.gov.uk,-1.14420600000000,RG26 3RE,2013-10-25,fhrs_5_en-GB,5,,FHRS,5
215149,Pemberley House Grove Road Basingstoke Hampshire RG21 3HL,,,,Pemberley House Care Home,Hospitals/Childcare/Caring Premises,5,5,,608691,0,,51.25059600000000,13/00163/CP,131,ehteam@basingstoke.gov.uk,Basingstoke and Deane,http://www.basingstoke.gov.uk,-1.08726900000000,RG21 3HL,2013-11-14,fhrs_5_en-GB,5,,FHRS,0
215150,Peters Fish And Chips 1 Fair Isle House Lindisfarne Close Basingstoke Hampshire RG24 9XD,,,,Peters Chinese Food And Fish And Chips,Takeaway/sandwich shop,7844,5,,574035,5,,,13/00013/CP,131,ehteam@basingstoke.gov.uk,Basingstoke and Deane,http://www.basingstoke.gov.uk,,RG24 9XD,2015-01-28,fhrs_5_en-GB,5,,FHRS,5
215151,9 Winchester Street Whitchurch Hampshire RG28 7AH,,,,Philip Langley Butchers,Retailers - other,4613,5,,241247,5,,51.22946400000000,12/00007/CP,131,ehteam@basingstoke.gov.uk,Basingstoke and Deane,http://www.basingstoke.gov.uk,-1.33859100000000,RG28 7AH,2014-02-05,fhrs_4_en-GB,4,,FHRS,10
215152,3 Pyotts Hill Old Basing Basingstoke Hampshire RG24 8AR,,,,Pies And Mash,Mobile caterer,7846,5,,682438,5,,51.27966900000000,13/00121/CP,131,ehteam@basingstoke.gov.uk,Basingstoke and Deane,http://www.basingstoke.gov.uk,-1.04674900000000,RG24 8AR,2013-09-10,fhrs_5_en-GB,5,,FHRS,5
215153,Pizza Express The White House Winchester Road Basingstoke Hampshire RG22 6HL,,,,Pizza Express,Restaurant/Cafe/Canteen,1,5,,89095,5,,51.25030500000000,23680/2019/2/000,131,ehteam@basingstoke.gov.uk,Basingstoke and Deane,http://www.basingstoke.gov.uk,-1.11371100000000,RG22 6HL,2013-07-25,fhrs_4_en-GB,4,,FHRS,10
215154,PizzaExpress R9 Lower Ground Festival Place Basingstoke Hampshire RG21 7BB,,,,Pizza Express,Restaurant/Cafe/Canteen,1,0,,34890,0,,51.26552000000000,10/00166/CP,131,ehteam@basingstoke.gov.uk,Basingstoke and Deane,http://www.basingstoke.gov.uk,-1.08449400000000,RG21 7BB,2013-12-02,fhrs_5_en-GB,5,,FHRS,0
215155,Unit 1B Crown Heights Alencon Link Basingstoke Hampshire RG21 7SY,,,,Pizza GoGo,Restaurant/Cafe/Canteen,1,5,,35094,0,,51.26764300000000,10/00188/CP,131,ehteam@basingstoke.gov.uk,Basingstoke and Deane,http://www.basingstoke.gov.uk,-1.08582800000000,RG21 7SY,2013-12-06,fhrs_4_en-GB,4,,FHRS,10
215156,Pizza Hut (UK) Ltd 17B Lower Ground Festival Place Basingstoke Hampshire RG21 7BE,,,,Pizza Hut,Restaurant/Cafe/Canteen,1,5,,85655,0,,51.26557200000000,21665/0020/2/000,131,ehteam@basingstoke.gov.uk,Basingstoke and Deane,http://www.basingstoke.gov.uk,-1.08548200000000,RG21 7BE,2013-09-11,fhrs_4_en-GB,4,,FHRS,10
215157,Pizza Hut Brighton Hill Retail Park Winchester Road Basingstoke Hampshire RG22 4AN,,,,Pizza Hut,Restaurant/Cafe/Canteen,1,5,,89090,5,,51.25094300000000,23680/2001/3/008,131,ehteam@basingstoke.gov.uk,Basingstoke and Deane,http://www.basingstoke.gov.uk,-1.10887000000000,RG22 4AN,2013-10-07,fhrs_4_en-GB,4,,FHRS,10
215158,Pizza Hut Delivery 22 Hampstead House Festival Place Basingstoke Hampshire RG21 7LG,,,,Pizza Hut Delivery,Takeaway/sandwich shop,7844,5,,85738,0,,51.26565400000000,21700/0022/0/000,131,ehteam@basingstoke.gov.uk,Basingstoke and Deane,http://www.basingstoke.gov.uk,-1.08796000000000,RG21 7LG,2014-01-07,fhrs_4_en-GB,4,,FHRS,10
215159,2 Queens Parade New Street Basingstoke Hampshire RG21 7DA,,,,Pizza World,Takeaway/sandwich shop,7844,5,,66026,5,,51.26347000000000,14870/2001/2/002,131,ehteam@basingstoke.gov.uk,Basingstoke and Deane,http://www.basingstoke.gov.uk,-1.08913500000000,RG21 7DA,2013-12-10,fhrs_4_en-GB,4,,FHRS,10
215160,Planet Ice Basingstoke Leisure Park Worting Road Basingstoke Hampshire RG22 6PG,,,,Planet Ice,Restaurant/Cafe/Canteen,1,10,,90074,10,,51.26497400000000,24382/2000/2/000,131,ehteam@basingstoke.gov.uk,Basingstoke and Deane,http://www.basingstoke.gov.uk,-1.11767100000000,RG22 6PG,2014-02-18,fhrs_3_en-GB,3,,FHRS,10
215161,Daysbright Ltd 2 Stewart Road Basingstoke Hampshire RG24 8NF,,,,Playdays,Restaurant/Cafe/Canteen,1,0,,33316,5,,51.28085700000000,10/00037/CP,131,ehteam@basingstoke.gov.uk,Basingstoke and Deane,http://www.basingstoke.gov.uk,-1.06586500000000,RG24 8NF,2013-08-16,fhrs_5_en-GB,5,,FHRS,5
215162,Popham Air Centre Coxford Down Micheldever Winchester Hampshire SO21 3BD,,,,Popham Air Centre,Restaurant/Cafe/Canteen,1,5,,17049,5,,51.19372200000000,05490/2010/2/000,131,ehteam@basingstoke.gov.uk,Basingstoke and Deane,http://www.basingstoke.gov.uk,-1.24804400000000,SO21 3BD,2014-03-28,fhrs_5_en-GB,5,,FHRS,5
215163,Popham Diner Andover Road Coxford Down Micheldever Winchester Hampshire SO21 3BD,,,,Popham Diner,Restaurant/Cafe/Canteen,1,5,,15672,0,,51.19484800000000,05/00386/CP,131,ehteam@basingstoke.gov.uk,Basingstoke and Deane,http://www.basingstoke.gov.uk,-1.22761800000000,SO21 3BE,2014-04-15,fhrs_5_en-GB,5,,FHRS,0
215164,Popley Fields Community Centre Carpenters Down Basingstoke Hampshire RG24 9AE,,,,Popley Fields Community Association,Other catering premises,7841,5,,9279,5,,51.28733300000000,03940/0000/2/000,131,ehteam@basingstoke.gov.uk,Basingstoke and Deane,http://www.basingstoke.gov.uk,-1.07627400000000,RG24 9AE,2013-08-09,fhrs_4_en-GB,4,,FHRS,10
215165,2 - 3 Market Place Basingstoke Hampshire RG21 7QA,,,,Poppins Restaurant,Restaurant/Cafe/Canteen,1,5,,46846,0,,51.26263200000000,11/00089/CP,131,ehteam@basingstoke.gov.uk,Basingstoke and Deane,http://www.basingstoke.gov.uk,-1.08665800000000,RG21 7QA,2014-06-05,fhrs_5_en-GB,5,,FHRS,0
215166,Portsmouth Arms Public House Hatch Warren Lane Basingstoke Hampshire RG22 4RA,,,,Portsmouth Arms,Pub/bar/nightclub,7843,0,,90091,0,,51.23499200000000,24389/0001/2/000,131,ehteam@basingstoke.gov.uk,Basingstoke and Deane,http://www.basingstoke.gov.uk,-1.11857400000000,RG22 4RA,2013-08-06,fhrs_5_en-GB,5,,FHRS,5
215167,Preston Candover Primary School Preston Candover Basingstoke Hampshire RG25 2EE,,,,Preston Candover C Of E School,School/college/university,7845,0,,1734,0,,51.17274300000000,00370/4090/2/000,131,ehteam@basingstoke.gov.uk,Basingstoke and Deane,http://www.basingstoke.gov.uk,-1.13223400000000,RG25 2EE,2013-07-02,fhrs_5_en-GB,5,,FHRS,5
215168,Abbey Court Popley Way Basingstoke Hampshire RG24 9DX,,,,Pride Catering,Hospitals/Childcare/Caring Premises,5,5,,72973,5,,51.28372000000000,16680/4008/3/060,131,ehteam@basingstoke.gov.uk,Basingstoke and Deane,http://www.basingstoke.gov.uk,-1.09263500000000,RG24 9DX,2015-01-09,fhrs_5_en-GB,5,,FHRS,5
215169,Tadley Horizon School Tadley Common Road Tadley Hampshire RG26 3TB,,,,Priory Tadley Horizon School,School/college/university,7845,5,,559365,5,,51.35596800000000,13/00081/CP,131,ehteam@basingstoke.gov.uk,Basingstoke and Deane,http://www.basingstoke.gov.uk,-1.13265600000000,RG26 3TB,2014-12-04,fhrs_5_en-GB,5,,FHRS,5
215170,Basingstoke Sports Centre Porchester Square Basingstoke Hampshire RG21 7LE,,,,Protoshake Limited,Other catering premises,7841,5,,34505,5,,51.26601400000000,10/00123/CP,131,ehteam@basingstoke.gov.uk,Basingstoke and Deane,http://www.basingstoke.gov.uk,-1.08680600000000,RG21 7LE,2013-07-18,fhrs_5_en-GB,5,,FHRS,5
215171,Basingstoke Sports Centre Porchester Square Basingstoke Hampshire RG21 7LE,,,,PS Lounge Cafe,Restaurant/Cafe/Canteen,1,10,,73017,15,,51.26601400000000,16700/0000/2/000,131,ehteam@basingstoke.gov.uk,Basingstoke and Deane,http://www.basingstoke.gov.uk,-1.08680600000000,RG21 7LE,2014-07-16,fhrs_2_en-GB,2,,FHRS,15
215172,Stagecoach Bus Station Lower Ground Festival Place Basingstoke Hampshire RG21 7BE,,,,PSV90 Canteen At The Bus Station,Restaurant/Cafe/Canteen,1,10,,85660,5,,51.26557200000000,21665/1001/2/000,131,ehteam@basingstoke.gov.uk,Basingstoke and Deane,http://www.basingstoke.gov.uk,-1.08548200000000,RG21 7BE,2014-05-14,fhrs_3_en-GB,3,,FHRS,10
215173,The Purefoy Arms Alresford Road Preston Candover Basingstoke Hampshire RG25 2EJ,,,,Purefoy Arms,Pub/bar/nightclub,7843,5,,1731,5,,51.16989800000000,00370/2008/2/000,131,ehteam@basingstoke.gov.uk,Basingstoke and Deane,http://www.basingstoke.gov.uk,-1.13540600000000,RG25 2EJ,2013-09-25,fhrs_4_en-GB,4,,FHRS,10
215174,Queen Marys College Cliddesden Road Basingstoke Hampshire RG21 3HF,,,,Queen Marys College,School/college/university,7845,5,,14391,5,,51.25560000000000,04970/2002/2/000,131,ehteam@basingstoke.gov.uk,Basingstoke and Deane,http://www.basingstoke.gov.uk,-1.08780000000000,RG21 3HF,2014-05-09,fhrs_5_en-GB,5,,FHRS,5
215175,R Klatt 52 Bishopswood Road Tadley Hampshire RG26 4HD,,,,R & J Klatt Butchers,Retailers - other,4613,10,,6490,10,,51.35651600000000,02240/0052/0/000,131,ehteam@basingstoke.gov.uk,Basingstoke and Deane,http://www.basingstoke.gov.uk,-1.15606900000000,RG26 4HD,2013-11-20,fhrs_3_en-GB,3,,FHRS,10
215176,R E Thompson & Co (Vacuum) Limited 51 Evingar Road Whitchurch Hampshire RG28 7EU,,,,R E Thompson And Co (Vacuum) Ltd,Restaurant/Cafe/Canteen,1,0,,21392,5,,51.23535300000000,07/00016/CP,131,ehteam@basingstoke.gov.uk,Basingstoke and Deane,http://www.basingstoke.gov.uk,-1.34003900000000,RG28 7EU,2015-01-21,fhrs_5_en-GB,5,,FHRS,0
215177,Raj Of Blackdam 1 Rucstall Centre Holbein Close Basingstoke Hampshire RG21 3QN,,,,Raj Indian Cuisine,Restaurant/Cafe/Canteen,1,10,,90083,10,,51.25854900000000,24383/0001/2/000,131,ehteam@basingstoke.gov.uk,Basingstoke and Deane,http://www.basingstoke.gov.uk,-1.07172000000000,RG21 3QN,2014-12-16,fhrs_3_en-GB,3,,FHRS,10
215178,RBB UK Churchill Plaza Churchill Way Basingstoke Hampshire RG21 7GP,,,,RBB UK,Restaurant/Cafe/Canteen,1,5,,508088,0,,51.26615000000000,12/00112/CP,131,ehteam@basingstoke.gov.uk,Basingstoke and Deane,http://www.basingstoke.gov.uk,-1.08468200000000,RG21 7GP,2014-12-19,fhrs_5_en-GB,5,,FHRS,5
215179,Ready 2 Go 19 Hampstead House Festival Place Basingstoke Hampshire RG21 7LG,,,,Ready 2 Go,Restaurant/Cafe/Canteen,1,20,,85737,10,,51.26565400000000,21700/0019/0/000,131,ehteam@basingstoke.gov.uk,Basingstoke and Deane,http://www.basingstoke.gov.uk,-1.08796000000000,RG21 7LG,2014-08-12,fhrs_1_en-GB,1,,FHRS,10
215180,Red Lion Hotel Red Lion Lane Basingstoke Hampshire RG21 7LX,,,,Red Lion Hotel,Hotel/bed & breakfast/guest house,7842,10,,55683,0,,51.26267400000000,12570/0024/2/000,131,ehteam@basingstoke.gov.uk,Basingstoke and Deane,http://www.basingstoke.gov.uk,-1.08518100000000,RG21 7LX,2014-10-02,fhrs_2_en-GB,2,,FHRS,15
215181,Red Rose Tandoori 7 Buckland Parade Basingstoke Hampshire RG22 6JW,,,,Red Rose Indian Restaurant,Restaurant/Cafe/Canteen,1,5,,8858,5,,51.25029300000000,03380/0007/0/000,131,ehteam@basingstoke.gov.uk,Basingstoke and Deane,http://www.basingstoke.gov.uk,-1.11811000000000,RG22 6JW,2014-02-05,fhrs_4_en-GB,4,,FHRS,10
215182,Redfort 20 Winchester Street Overton Basingstoke Hampshire RG25 3HS,,,,Redfort Tandoori,Restaurant/Cafe/Canteen,1,5,,89188,5,,51.24251900000000,23740/0020/0/000,131,ehteam@basingstoke.gov.uk,Basingstoke and Deane,http://www.basingstoke.gov.uk,-1.26303600000000,RG25 3HS,2014-04-23,fhrs_5_en-GB,5,,FHRS,5
215183,Roman House Winklebury Way Basingstoke Hampshire RG23 8BJ,,,,Roman House,Hospitals/Childcare/Caring Premises,5,5,,89341,5,,51.26691200000000,23840/2000/2/000,131,ehteam@basingstoke.gov.uk,Basingstoke and Deane,http://www.basingstoke.gov.uk,-1.13033400000000,RG23 8BJ,2014-11-24,fhrs_5_en-GB,5,,FHRS,0
215184,SKKW Ltd 12 London Street Basingstoke Hampshire RG21 7NJ,,,,Roosters Piri Piri,Restaurant/Cafe/Canteen,1,10,,559364,10,,51.26260200000000,13/00070/CP,131,ehteam@basingstoke.gov.uk,Basingstoke and Deane,http://www.basingstoke.gov.uk,-1.08621400000000,RG21 7NU,2014-08-15,fhrs_3_en-GB,3,,FHRS,10
215185,Rowan Lodge Newnham Hill Crown Lane Newnham Basingstoke Hampshire RG27 9AN,,,,Rowan Lodge,Hospitals/Childcare/Caring Premises,5,5,,47110,0,,51.28017400000000,11/00105/CP,131,ehteam@basingstoke.gov.uk,Basingstoke and Deane,http://www.basingstoke.gov.uk,-0.99221200000000,RG27 9AN,2014-10-29,fhrs_5_en-GB,5,,FHRS,0
215186,Rucstall Primary School Holbein Close Basingstoke Hampshire RG21 3EX,,,,Rucstall Primary School,School/college/university,7845,5,,41366,0,,51.25705800000000,10260/0000/2/000,131,ehteam@basingstoke.gov.uk,Basingstoke and Deane,http://www.basingstoke.gov.uk,-1.07301100000000,RG21 3EX,2014-03-11,fhrs_5_en-GB,5,,FHRS,5
215187,Saffron Tandoori 9 Brighton Hill Centre Basingstoke Hampshire RG22 4EH,,,,Saffron Tandoori,Restaurant/Cafe/Canteen,1,5,,8560,5,,51.24503900000000,03040/0009/2/000,131,ehteam@basingstoke.gov.uk,Basingstoke and Deane,http://www.basingstoke.gov.uk,-1.11418400000000,RG22 4EH,2013-08-28,fhrs_5_en-GB,5,,FHRS,5
215188,Sandford Springs Golf Club Wolverton Tadley Hampshire RG26 5RT,,,,Sandford Springs Golf Club,Pub/bar/nightclub,7843,10,,89481,10,,51.32354900000000,23940/2014/2/000,131,ehteam@basingstoke.gov.uk,Basingstoke and Deane,http://www.basingstoke.gov.uk,-1.22055100000000,RG26 5RT,2015-01-16,fhrs_3_en-GB,3,,FHRS,10
215189,Sasso 10 - 12 George Street Kingsclere Newbury Hampshire RG20 5NQ,,,,Sasso Restaurant,Restaurant/Cafe/Canteen,1,5,,27748,5,,51.32464500000000,08190/0012/0/000,131,ehteam@basingstoke.gov.uk,Basingstoke and Deane,http://www.basingstoke.gov.uk,-1.24517400000000,RG20 5NQ,2015-01-23,fhrs_5_en-GB,5,,FHRS,5
215190,Fir Tree Lodge Heather Drive Tadley Hampshire RG26 4QR,,,,SeeAbility,Hospitals/Childcare/Caring Premises,5,10,,712586,5,,51.35820300000000,14/00114/CP,131,ehteam@basingstoke.gov.uk,Basingstoke and Deane,http://www.basingstoke.gov.uk,-1.15934100000000,RG26 4QR,2014-10-15,fhrs_4_en-GB,4,,FHRS,5
215191,Seeability Heather House Heather Drive Tadley Hampshire RG26 4QR,,,,SeeAbility,Hospitals/Childcare/Caring Premises,5,5,,32455,5,,51.35820300000000,09650/0000/2/000,131,ehteam@basingstoke.gov.uk,Basingstoke and Deane,http://www.basingstoke.gov.uk,-1.15934100000000,RG26 4QR,2014-10-15,fhrs_5_en-GB,5,,FHRS,5
215192,Game Stores Group Ltd Unity House Telford Road Basingstoke Hampshire RG21 6YJ,,,,Servest At Game Ltd,Restaurant/Cafe/Canteen,1,0,,10054,0,,51.27221900000000,04/00115/CP,131,ehteam@basingstoke.gov.uk,Basingstoke and Deane,http://www.basingstoke.gov.uk,-1.10784200000000,RG21 6YJ,2014-08-29,fhrs_5_en-GB,5,,FHRS,5
215193,Homefield House Homefield Way Basingstoke Hampshire RG24 9SE,,,,Shaw Healthcare At Homefield House,Hospitals/Childcare/Caring Premises,5,5,,1369,5,,51.28239800000000,00150/1000/2/000,131,ehteam@basingstoke.gov.uk,Basingstoke and Deane,http://www.basingstoke.gov.uk,-1.11848500000000,RG24 9SE,2014-12-01,fhrs_5_en-GB,5,,FHRS,5
215194,Shell Garage Winchester Road Basingstoke Hampshire RG22 6HT,,,,Shell Pied Piper Garage,Retailers - other,4613,5,,89093,5,,51.24951000000000,23680/2007/2/000,131,ehteam@basingstoke.gov.uk,Basingstoke and Deane,http://www.basingstoke.gov.uk,-1.11444200000000,RG22 6HN,2014-07-14,fhrs_5_en-GB,5,,FHRS,5
215195,Sherfield Oaks Golf Course Wildmoor Lane Sherfield-on-Loddon Hook Hampshire RG27 0HB,,,,Sherfield Oaks Golf Club,Pub/bar/nightclub,7843,0,,88902,10,,51.31244000000000,23540/2023/2/000,131,ehteam@basingstoke.gov.uk,Basingstoke and Deane,http://www.basingstoke.gov.uk,-1.01684400000000,RG27 0HB,2013-09-11,fhrs_4_en-GB,4,,FHRS,10
215196,Sherfield School Reading Road Sherfield-on-Loddon Hook Hampshire RG27 0HT,,,,Sherfield School,School/college/university,7845,5,,75305,5,,51.30974100000000,17550/2033/2/000,131,ehteam@basingstoke.gov.uk,Basingstoke and Deane,http://www.basingstoke.gov.uk,-1.02311300000000,RG27 0HU,2014-07-01,fhrs_5_en-GB,5,,FHRS,5
215197,Hazeldene Manor North Oakley Tadley Hampshire RG26 5TT,,,,Sherlock Parties Limited,Other catering premises,7841,10,,67479,5,,51.28388900000000,15060/2008/2/000,131,ehteam@basingstoke.gov.uk,Basingstoke and Deane,http://www.basingstoke.gov.uk,-1.23061400000000,RG26 5TT,2014-02-28,fhrs_4_en-GB,4,,FHRS,5
215198,Silchester C E Primary School School Lane Silchester Reading Hampshire RG7 2NJ,,,,Silchester Primary School,School/college/university,7845,5,,78814,5,,51.35769600000000,18850/2041/2/000,131,ehteam@basingstoke.gov.uk,Basingstoke and Deane,http://www.basingstoke.gov.uk,-1.09951900000000,RG7 2NJ,2014-01-17,fhrs_5_en-GB,5,,FHRS,5
215199,2 Coronation Close Burghclere Newbury Hampshire RG20 9JA,,,,Simple Franks,Other catering premises,7841,0,,699484,0,,51.34726300000000,14/00085/CP,131,ehteam@basingstoke.gov.uk,Basingstoke and Deane,http://www.basingstoke.gov.uk,-1.33152700000000,RG20 9JA,2014-09-05,fhrs_5_en-GB,5,,FHRS,0
215200,Swing Swang Lane Basingstoke Hampshire,,,,Smileys Kebabs,Mobile caterer,7846,10,,456135,5,,51.27413200000000,24390/0000/2/001,131,ehteam@basingstoke.gov.uk,Basingstoke and Deane,http://www.basingstoke.gov.uk,-1.06324800000000,,2013-11-07,fhrs_4_en-GB,4,,FHRS,5
215201,Rutherford Road Basingstoke Hampshire,,,,Snack Attack,Mobile caterer,7846,5,,456127,5,,51.27971100000000,11/00082/CP,131,ehteam@basingstoke.gov.uk,Basingstoke and Deane,http://www.basingstoke.gov.uk,-1.07180500000000,,2014-06-06,fhrs_5_en-GB,5,,FHRS,0
215202,Eli Lilly & Co Lilly House Priestley Road Basingstoke Hampshire RG24 9NL,,,,Sodexo At Eli Lilly,Restaurant/Cafe/Canteen,1,5,,74082,5,,51.27852200000000,17010/2002/2/000,131,ehteam@basingstoke.gov.uk,Basingstoke and Deane,http://www.basingstoke.gov.uk,-1.10546900000000,RG24 9NL,2013-11-13,fhrs_5_en-GB,5,,FHRS,5
215203,Four Square Armstrong Road Basingstoke Hampshire RG24 8NU,,,,Sodexo At Mars,Restaurant/Cafe/Canteen,1,0,,2138,0,,51.27360400000000,00670/2017/2/000,131,ehteam@basingstoke.gov.uk,Basingstoke and Deane,http://www.basingstoke.gov.uk,-1.06518100000000,RG24 8NU,2014-10-30,fhrs_5_en-GB,5,,FHRS,0
215204,Thorngrove School The Mount Highclere Newbury Hampshire RG20 9PS,,,,Sodexo At Thorngrove School,School/college/university,7845,5,,84927,5,,51.34729100000000,21150/2055/2/000,131,ehteam@basingstoke.gov.uk,Basingstoke and Deane,http://www.basingstoke.gov.uk,-1.37585100000000,RG20 9PS,2013-09-18,fhrs_5_en-GB,5,,FHRS,5
215205,Mountbatten House Basing View Basingstoke Hampshire,,,,Sodexo Catering At Thales,Restaurant/Cafe/Canteen,1,5,,4931,0,,51.26872700000000,01450/2033/2/003,131,ehteam@basingstoke.gov.uk,Basingstoke and Deane,http://www.basingstoke.gov.uk,-1.07397500000000,,2015-01-26,fhrs_5_en-GB,5,,FHRS,5
215206,South View Infant School Shooters Way Basingstoke Hampshire RG21 5LL,,,,South View Infants School,School/college/university,7845,0,,78728,5,,51.27481900000000,18800/2000/2/00I,131,ehteam@basingstoke.gov.uk,Basingstoke and Deane,http://www.basingstoke.gov.uk,-1.08238800000000,RG21 5LL,2014-03-07,fhrs_5_en-GB,5,,FHRS,5
215207,South View Junior School Shooters Way Basingstoke Hampshire RG21 5LL,,,,South View Junior School,School/college/university,7845,0,,78727,0,,51.27481900000000,18800/2000/2/000,131,ehteam@basingstoke.gov.uk,Basingstoke and Deane,http://www.basingstoke.gov.uk,-1.08238800000000,RG21 5LL,2013-04-16,fhrs_5_en-GB,5,,FHRS,5
215208,Space Qube Ltd 72B Upper Ground Festival Place Basingstoke Hampshire RG21 7BF,,,,Space Qube Ltd,Restaurant/Cafe/Canteen,1,5,,690221,10,,51.26557200000000,14/00061/CP,131,ehteam@basingstoke.gov.uk,Basingstoke and Deane,http://www.basingstoke.gov.uk,-1.08548200000000,RG21 7BF,2014-07-22,fhrs_4_en-GB,4,,FHRS,5
215209,Spicy Tadka Great Western Hotel Vyne Road Basingstoke Hampshire,,,,Spicy Tadka,Other catering premises,7841,5,,690220,5,,,14/00057/CP,131,ehteam@basingstoke.gov.uk,Basingstoke and Deane,http://www.basingstoke.gov.uk,,,2014-08-12,fhrs_5_en-GB,5,,FHRS,5
215210,Popley Spot Light Centre Shakespeare Road Basingstoke Hampshire RG24 9BP,,,,Spotlight UK After School Club,Other catering premises,7841,20,,620690,10,,51.27863100000000,13/00169/CP,131,ehteam@basingstoke.gov.uk,Basingstoke and Deane,http://www.basingstoke.gov.uk,-1.07543000000000,RG24 9BP,2013-11-25,fhrs_1_en-GB,1,,FHRS,10
215211,St Annes Catholic Primary School Pinkerton Road Basingstoke Hampshire RG22 6RE,,,,St Annes Catholic Primary School,School/college/university,7845,5,,72283,5,,51.25569400000000,16460/2001/2/000,131,ehteam@basingstoke.gov.uk,Basingstoke and Deane,http://www.basingstoke.gov.uk,-1.11415200000000,RG22 6RE,2014-04-25,fhrs_5_en-GB,5,,FHRS,5
215212,St Bedes Catholic Primary School Popley Way Basingstoke Hampshire RG24 9DX,,,,St Bedes Catholic Primary School,School/college/university,7845,5,,72971,5,,51.28372000000000,16680/2001/2/000,131,ehteam@basingstoke.gov.uk,Basingstoke and Deane,http://www.basingstoke.gov.uk,-1.09263500000000,RG24 9DX,2014-11-06,fhrs_5_en-GB,5,,FHRS,5
215213,Oakridge Methodist Church Vivian Road Basingstoke Hampshire,,,,St Bernards Day Nursery,Hospitals/Childcare/Caring Premises,5,0,,68562,0,,51.27581203432220,15330/2002/2/00A,131,ehteam@basingstoke.gov.uk,Basingstoke and Deane,http://www.basingstoke.gov.uk,-1.07986207239971,,2014-03-17,fhrs_5_en-GB,5,,FHRS,5
215214,St Gabriels Church Tewkesbury Close Basingstoke Hampshire RG24 9DU,,,,St Gabriels Church,Restaurant/Cafe/Canteen,1,10,,620692,10,,51.28168700000000,13/00175/CP,131,ehteam@basingstoke.gov.uk,Basingstoke and Deane,http://www.basingstoke.gov.uk,-1.08676800000000,RG24 9DU,2013-12-10,fhrs_3_en-GB,3,,FHRS,10
215215,St Johns C E Voluntary Aided Primary School Kingsmill Road Basingstoke Hampshire RG21 3JU,,,,St Johns School,School/college/university,7845,5,,51715,5,,51.25534800000000,11600/2001/2/000,131,ehteam@basingstoke.gov.uk,Basingstoke and Deane,http://www.basingstoke.gov.uk,-1.09360900000000,RG21 3JU,2014-02-12,fhrs_5_en-GB,5,,FHRS,5
215216,St Marks C E Primary School Danebury Road Basingstoke Hampshire RG22 4US,,,,St Marks (CE) Primary School,School/college/university,7845,5,,17334,0,,51.23429500000000,05870/0000/2/000,131,ehteam@basingstoke.gov.uk,Basingstoke and Deane,http://www.basingstoke.gov.uk,-1.13003200000000,RG22 4US,2014-01-30,fhrs_5_en-GB,5,,FHRS,5
215217,The Village Shop Bourne Meadow St Mary Bourne Andover Hampshire SP11 6BE,,,,St Marybourne Village Shop,Retailers - other,4613,5,,6834,10,,51.25067800000000,02570/1001/0/000,131,ehteam@basingstoke.gov.uk,Basingstoke and Deane,http://www.basingstoke.gov.uk,-1.39727600000000,SP11 6BE,2013-12-19,fhrs_4_en-GB,4,,FHRS,5
215218,St Marys C E Voluntary Aided Junior School Milkingpen Lane Old Basing Basingstoke Hampshire RG24 7DE,,,,St Marys C Of E Junior School,School/college/university,7845,5,,63555,0,,51.27161400000000,14020/2003/2/000,131,ehteam@basingstoke.gov.uk,Basingstoke and Deane,http://www.basingstoke.gov.uk,-1.04371900000000,RG24 7DE,2014-12-11,fhrs_5_en-GB,5,,FHRS,5
215219,St Michaels Hospice (Basil De Ferranti House) Park Prewett Aldermaston Road Basingstoke Hampshire RG24 9NB,,,,St Michaels Hospice,Hospitals/Childcare/Caring Premises,5,5,,1342,5,,51.28147100000000,00140/0999/2/000,131,ehteam@basingstoke.gov.uk,Basingstoke and Deane,http://www.basingstoke.gov.uk,-1.11126200000000,RG24 9NB,2014-07-02,fhrs_5_en-GB,5,,FHRS,5
215220,St Michaels School Harts Lane Burghclere Newbury Hampshire RG20 9JW,,,,St Michaels School,School/college/university,7845,5,,32220,0,,51.34433500000000,09350/2035/2/000,131,ehteam@basingstoke.gov.uk,Basingstoke and Deane,http://www.basingstoke.gov.uk,-1.33063700000000,RG20 9JW,2013-07-10,fhrs_5_en-GB,5,,FHRS,0
215221,St Thomas Infants School Church Road Woolton Hill Newbury Hampshire RG20 9XF,,,,St Thomas' County Infants School,School/college/university,7845,0,,89840,5,,51.35199000000000,24190/2071/2/000,131,ehteam@basingstoke.gov.uk,Basingstoke and Deane,http://www.basingstoke.gov.uk,-1.38177500000000,RG20 9XF,2014-06-16,fhrs_5_en-GB,5,,FHRS,5
215222,St Thomas Nursing Home St Thomas Close Basingstoke Hampshire RG21 5NW,,,,St Thomas's Nursing Home,Hospitals/Childcare/Caring Premises,5,0,,17415,5,,51.27384700000000,05930/0049/3/000,131,ehteam@basingstoke.gov.uk,Basingstoke and Deane,http://www.basingstoke.gov.uk,-1.09158200000000,RG21 5NW,2013-12-04,fhrs_5_en-GB,5,,FHRS,5
215223,Manor Field Infant School Brighton Way Basingstoke Hampshire RG22 4DH,,,,Starlings Pre-School,Hospitals/Childcare/Caring Premises,5,5,,570427,0,,51.24060000000000,06/00262/CP,131,ehteam@basingstoke.gov.uk,Basingstoke and Deane,http://www.basingstoke.gov.uk,-1.11333800000000,RG22 4DH,2014-06-16,fhrs_4_en-GB,4,,FHRS,10
215224,Rail Track Car Park (Lower) Clifton Terrace Basingstoke Hampshire,,,,Station Kebabs,Mobile caterer,7846,5,,456134,0,,51.26827000000000,19800/4025/4/000,131,ehteam@basingstoke.gov.uk,Basingstoke and Deane,http://www.basingstoke.gov.uk,-1.08637600000000,,2013-12-05,fhrs_5_en-GB,5,,FHRS,0
215225,Subway 10 Chineham Shopping Centre Chineham Basingstoke Hampshire RG24 8BQ,,,,Subway,Restaurant/Cafe/Canteen,1,5,,728078,5,,51.28420700000000,14/00131/CP,131,ehteam@basingstoke.gov.uk,Basingstoke and Deane,http://www.basingstoke.gov.uk,-1.05974600000000,RG24 8BQ,2015-01-07,fhrs_5_en-GB,5,,FHRS,5
215226,Subway 14 - 16 Wote Street Basingstoke Hampshire RG21 7NW,,,,Subway,Takeaway/sandwich shop,7844,5,,728075,0,,51.26303900000000,14/00125/CP,131,ehteam@basingstoke.gov.uk,Basingstoke and Deane,http://www.basingstoke.gov.uk,-1.08699400000000,RG21 7NW,2014-12-15,fhrs_5_en-GB,5,,FHRS,5
215227,Subway 3B Old Basing Mall Basingstoke Hampshire RG21 7AW,,,,Subway,Takeaway/sandwich shop,7844,5,,25084,0,,51.26645200000000,08/00043/CP,131,ehteam@basingstoke.gov.uk,Basingstoke and Deane,http://www.basingstoke.gov.uk,-1.08761400000000,RG21 7AW,2014-07-01,fhrs_5_en-GB,5,,FHRS,0
215228,3 Downsland Parade Basingstoke Hampshire RG21 8TX,,,,Sunny Chinese Takeaway,Takeaway/sandwich shop,7844,10,,20720,10,,51.26332900000000,06360/0003/0/000,131,ehteam@basingstoke.gov.uk,Basingstoke and Deane,http://www.basingstoke.gov.uk,-1.09884100000000,RG21 8TX,2014-04-22,fhrs_3_en-GB,3,,FHRS,10
215229,Priory Farm Andwell Hook Hampshire RG27 9PA,,,,Sunshine Daisy Nursery,Hospitals/Childcare/Caring Premises,5,5,,29460,0,,51.26862800000000,09/00083/CP,131,ehteam@basingstoke.gov.uk,Basingstoke and Deane,http://www.basingstoke.gov.uk,-1.01330600000000,RG27 9PA,2014-05-16,fhrs_5_en-GB,5,,FHRS,5
215230,21 Pleasant Hill Tadley Hampshire RG26 4LT,,,,Suzi And Jane Catering,Other catering premises,7841,10,,690219,10,,51.35126700000000,14/00048/CP,131,ehteam@basingstoke.gov.uk,Basingstoke and Deane,http://www.basingstoke.gov.uk,-1.14398800000000,RG26 4LT,2014-07-21,fhrs_3_en-GB,3,,FHRS,5
215231,Swan Street Stores 5 - 5A Swan Street Kingsclere Newbury Hampshire RG20 5PP,,,,Swan Street Stores,Retailers - other,4613,10,,83348,10,,,20370/0005/A/000,131,ehteam@basingstoke.gov.uk,Basingstoke and Deane,http://www.basingstoke.gov.uk,,,2014-04-29,fhrs_3_en-GB,3,,FHRS,10
215232,Sycamore Cottage Skippetts Lane West Basingstoke Hampshire RG21 3HP,,,,Sycamore Cottage,Hospitals/Childcare/Caring Premises,5,10,,79274,10,,51.25092700000000,19000/2005/2/000,131,ehteam@basingstoke.gov.uk,Basingstoke and Deane,http://www.basingstoke.gov.uk,-1.08581500000000,RG21 3HP,2014-06-25,fhrs_3_en-GB,3,,FHRS,10
215233,Thames Valley Meats Ltd Unit 6 Studland Industrial Estate Gore End Road Ball Hill Newbury Hampshire RG20 0PW,,,,T.V.M Catering Services,Other catering premises,7841,5,,580285,5,,51.36838400000000,13/00115/CP,131,ehteam@basingstoke.gov.uk,Basingstoke and Deane,http://www.basingstoke.gov.uk,-1.39770100000000,RG20 0PW,2013-08-21,fhrs_5_en-GB,5,,FHRS,5
215234,Aldermaston Road Salters Heath Hampshire,,,,Tadley Kebabs,Mobile caterer,7846,5,,456110,10,,51.31681463240670,00160/3001/2/000,131,ehteam@basingstoke.gov.uk,Basingstoke and Deane,http://www.basingstoke.gov.uk,-1.11969508295789,,2014-07-11,fhrs_4_en-GB,4,,FHRS,5
215235,Tadley Community Primary School The Green Tadley Hampshire RG26 3PB,,,,Tadley Primary School,School/college/university,7845,10,,84343,10,,51.34390800000000,20970/2002/2/000,131,ehteam@basingstoke.gov.uk,Basingstoke and Deane,http://www.basingstoke.gov.uk,-1.13609900000000,RG26 3PB,2014-11-05,fhrs_3_en-GB,3,,FHRS,10
215236,1 Mount Pleasant Tadley Hampshire RG26 4JH,,,,Tadley Tandoori,Restaurant/Cafe/Canteen,1,5,,45484,10,,51.35460500000000,11/00010/CP,131,ehteam@basingstoke.gov.uk,Basingstoke and Deane,http://www.basingstoke.gov.uk,-1.14303600000000,RG26 4JH,2013-12-10,fhrs_3_en-GB,3,,FHRS,10
215237,Newman Court Day Care Centre Barber Road Basingstoke Hampshire RG22 4HQ,,,,Talkington Bates Ltd,Hospitals/Childcare/Caring Premises,5,0,,371705,0,,51.24391000000000,12/00035/CP,131,ehteam@basingstoke.gov.uk,Basingstoke and Deane,http://www.basingstoke.gov.uk,-1.11821700000000,RG22 4BW,2013-10-02,fhrs_5_en-GB,5,,FHRS,5
215238,Tang Restaurant 20 Winchester Street Basingstoke Hampshire RG21 7DZ,,,,Tang Chinese Restaurant,Restaurant/Cafe/Canteen,1,10,,706997,0,,51.26261000000000,14/00075/CP,131,ehteam@basingstoke.gov.uk,Basingstoke and Deane,http://www.basingstoke.gov.uk,-1.08847900000000,RG21 7DZ,2014-09-24,fhrs_4_en-GB,4,,FHRS,5
215239,Basingstoke College Of Technology Worting Road Basingstoke Hampshire RG21 8TN,,,,Taste At BCoT,School/college/university,7845,5,,89923,5,,51.26354700000000,24260/2019/2/000,131,ehteam@basingstoke.gov.uk,Basingstoke and Deane,http://www.basingstoke.gov.uk,-1.09568400000000,RG21 8TN,2014-09-12,fhrs_4_en-GB,4,,FHRS,10
215240,Taste Of India 22A Burnaby Close Basingstoke Hampshire RG22 6UJ,,,,Taste Of India,Takeaway/sandwich shop,7844,5,,33830,5,,51.25906100000000,10/00069/CP,131,ehteam@basingstoke.gov.uk,Basingstoke and Deane,http://www.basingstoke.gov.uk,-1.12417600000000,RG22 6UJ,2013-08-15,fhrs_4_en-GB,4,,FHRS,10
215241,The Tasty House 1 The Old Forge Heath End Road Baughurst Tadley Hampshire RG26 5LX,,,,Tasty House,Takeaway/sandwich shop,7844,10,,32448,10,,51.35637200000000,09640/0006/0/000,131,ehteam@basingstoke.gov.uk,Basingstoke and Deane,http://www.basingstoke.gov.uk,-1.16606700000000,RG26 5LY,2014-03-10,fhrs_3_en-GB,3,,FHRS,10
215242,The Tea Bar 9 - 13 London Street Basingstoke Hampshire RG21 7NT,,,,Tea Bar,Restaurant/Cafe/Canteen,1,10,,471015,10,,51.26224700000000,12/00130/CP,131,ehteam@basingstoke.gov.uk,Basingstoke and Deane,http://www.basingstoke.gov.uk,-1.08576300000000,RG21 7NT,2014-04-30,fhrs_3_en-GB,3,,FHRS,10
215243,10 Chequers Road Basingstoke Hampshire RG21 7PU,,,,Teddies Day Nursery,Hospitals/Childcare/Caring Premises,5,5,,13753,0,,51.26437700000000,04360/0010/2/000,131,ehteam@basingstoke.gov.uk,Basingstoke and Deane,http://www.basingstoke.gov.uk,-1.08328400000000,RG21 7PU,2015-01-22,fhrs_5_en-GB,5,,FHRS,5
215244,Tesco Chineham Shopping Centre Chineham Basingstoke Hampshire RG24 8BE,,,,Tesco,Retailers - supermarkets/hypermarkets,7840,0,,20629,0,,51.28410300000000,06230/2000/2/000,131,ehteam@basingstoke.gov.uk,Basingstoke and Deane,http://www.basingstoke.gov.uk,-1.05908900000000,RG24 8BE,2014-02-28,fhrs_5_en-GB,5,,FHRS,5
215245,Test Valley Golf Club Overton Basingstoke Hampshire RG25 3DS,,,,Test Valley Golf Club,Pub/bar/nightclub,7843,5,,69623,5,,51.21350000000000,15690/2018/2/000,131,ehteam@basingstoke.gov.uk,Basingstoke and Deane,http://www.basingstoke.gov.uk,-1.26143700000000,RG25 3DS,2013-09-17,fhrs_5_en-GB,5,,FHRS,5
215246,Testbourne Community School Micheldever Road Whitchurch Hampshire RG28 7JF,,,,Testbourne Community School,School/college/university,7845,5,,456130,5,,51.22550600000000,12/00069/CP,131,ehteam@basingstoke.gov.uk,Basingstoke and Deane,http://www.basingstoke.gov.uk,-1.33516800000000,RG28 7JF,2014-02-06,fhrs_5_en-GB,5,,FHRS,0
215247,400 Worting Road Basingstoke Hampshire RG22 5EA,,,,Thai Sister Cafe,Restaurant/Cafe/Canteen,1,5,,32896,5,,51.26226400000000,10/00012/CP,131,ehteam@basingstoke.gov.uk,Basingstoke and Deane,http://www.basingstoke.gov.uk,-1.13163900000000,RG22 5EA,2014-08-13,fhrs_4_en-GB,4,,FHRS,10
215248,The Aquadrome Basingstoke Leisure Park Worting Road Basingstoke Hampshire RG22 6PG,,,,The Aquadrome,Restaurant/Cafe/Canteen,1,5,,90081,5,,51.26497400000000,24382/2010/2/000,131,ehteam@basingstoke.gov.uk,Basingstoke and Deane,http://www.basingstoke.gov.uk,-1.11767100000000,RG22 6PG,2014-07-22,fhrs_4_en-GB,4,,FHRS,10
215249,The Ark Conference Centre Dinwoodie Drive Basingstoke Hampshire RG24 9NN,,,,The Ark,Restaurant/Cafe/Canteen,1,5,,1345,10,,51.28062400000000,00140/1004/2/000,131,ehteam@basingstoke.gov.uk,Basingstoke and Deane,http://www.basingstoke.gov.uk,-1.10988700000000,RG24 9NN,2014-05-23,fhrs_4_en-GB,4,,FHRS,5
215250,17 The Street Old Basing Basingstoke Hampshire RG24 7BW,,,,The Bakehouse,Manufacturers/packers,7839,10,,550965,10,,51.27112000000000,13/00065/CP,131,ehteam@basingstoke.gov.uk,Basingstoke and Deane,http://www.basingstoke.gov.uk,-1.04934800000000,RG24 7BW,2013-05-09,fhrs_3_en-GB,3,,FHRS,10
215251,The Beacon Kings Road Basingstoke Hampshire RG22 6DJ,,,,The Beacon,Pub/bar/nightclub,7843,5,,518613,5,,51.25677200000000,11630/0000/2/000,131,ehteam@basingstoke.gov.uk,Basingstoke and Deane,http://www.basingstoke.gov.uk,-1.11037600000000,RG22 6DJ,2014-09-22,fhrs_4_en-GB,4,,FHRS,10
215252,The Bell Bell Street Whitchurch Hampshire RG28 7DD,,,,The Bell Inn,Pub/bar/nightclub,7843,5,,5487,0,,51.23051400000000,01890/2005/2/000,131,ehteam@basingstoke.gov.uk,Basingstoke and Deane,http://www.basingstoke.gov.uk,-1.34139700000000,RG28 7DD,2014-08-27,fhrs_5_en-GB,5,,FHRS,5
215253,The Bolton Arms 91 The Street Old Basing Basingstoke Hampshire RG24 7DA,,,,The Bolton Arms,Pub/bar/nightclub,7843,5,,25129,5,,51.27608400000000,08/00047/CP,131,ehteam@basingstoke.gov.uk,Basingstoke and Deane,http://www.basingstoke.gov.uk,-1.04491600000000,RG24 7DA,2015-01-05,fhrs_5_en-GB,5,,FHRS,5
215254,The Bounty 81 Bounty Road Basingstoke Hampshire RG21 3BZ,,,,The Bounty,Pub/bar/nightclub,7843,5,,6811,0,,51.26027900000000,02540/2001/2/000,131,ehteam@basingstoke.gov.uk,Basingstoke and Deane,http://www.basingstoke.gov.uk,-1.08932700000000,RG21 3BZ,2013-07-15,fhrs_4_en-GB,4,,FHRS,10
215255,National Trust Shop The Vyne Vyne Road Sherborne St John Basingstoke Hampshire RG24 9HL,,,,The Brew House,Restaurant/Cafe/Canteen,1,5,,87171,5,,51.30470400000000,22420/2015/2/000,131,ehteam@basingstoke.gov.uk,Basingstoke and Deane,http://www.basingstoke.gov.uk,-1.08757400000000,RG24 9HL,2014-10-27,fhrs_4_en-GB,4,,FHRS,10
215256,26 Silchester Road Pamber Heath Tadley Hampshire RG26 3EE,,,,The Broomsquire,Hotel/bed & breakfast/guest house,7842,10,,78869,10,,51.35801300000000,18890/0026/2/000,131,ehteam@basingstoke.gov.uk,Basingstoke and Deane,http://www.basingstoke.gov.uk,-1.12108400000000,RG26 3EE,2013-11-27,fhrs_3_en-GB,3,,FHRS,10
215257,The Cafe Project The Cafe Dome Brighton Hill Centre Basingstoke Hampshire RG22 4EH,,,,The Cafe Project,Restaurant/Cafe/Canteen,1,0,,542540,0,,51.24503900000000,13/00042/CP,131,ehteam@basingstoke.gov.uk,Basingstoke and Deane,http://www.basingstoke.gov.uk,-1.11418400000000,RG22 4EH,2014-10-09,fhrs_5_en-GB,5,,FHRS,0
215258,The Calleva Arms The Common Silchester Reading Hampshire RG7 2PH,,,,The Calleva Arms,Pub/bar/nightclub,7843,5,,78813,5,,51.35496600000000,18850/2017/2/000,131,ehteam@basingstoke.gov.uk,Basingstoke and Deane,http://www.basingstoke.gov.uk,-1.10343600000000,RG7 2PH,2015-01-21,fhrs_5_en-GB,5,,FHRS,5
215259,The Carnarvon Arms Winchester Road Whitway Burghclere Newbury Hampshire RG20 9LE,,,,The Carnarvon Arms,Pub/bar/nightclub,7843,20,,550961,15,,51.33334900000000,12/00171/CP,131,ehteam@basingstoke.gov.uk,Basingstoke and Deane,http://www.basingstoke.gov.uk,-1.34371500000000,RG20 9LE,2014-10-17,fhrs_1_en-GB,1,,FHRS,15
215260,The Carpenters Arms Harts Lane Burghclere Newbury Hampshire RG20 9JY,,,,The Carpenters Arms,Pub/bar/nightclub,7843,5,,32219,5,,51.34316100000000,09350/2023/2/000,131,ehteam@basingstoke.gov.uk,Basingstoke and Deane,http://www.basingstoke.gov.uk,-1.33761700000000,RG20 9JY,2014-03-27,fhrs_5_en-GB,5,,FHRS,5
215261,The Chineham Arms Ajax Close Chineham Basingstoke Hampshire RG24 8XA,,,,The Chineham Arms,Pub/bar/nightclub,7843,5,,32047,5,,51.29847300000000,09160/2003/2/000,131,ehteam@basingstoke.gov.uk,Basingstoke and Deane,http://www.basingstoke.gov.uk,-1.05704500000000,RG24 8XA,2013-12-02,fhrs_5_en-GB,5,,FHRS,5
215262,The Clere School Earlstone Common Burghclere Newbury Hampshire RG20 9HP,,,,The Clere School,School/college/university,7845,5,,20914,0,,51.34939600000000,06580/2000/2/000,131,ehteam@basingstoke.gov.uk,Basingstoke and Deane,http://www.basingstoke.gov.uk,-1.32098500000000,RG20 9HP,2014-05-13,fhrs_5_en-GB,5,,FHRS,5
215263,The Clock And Thyme 19 Winchester Street Overton Basingstoke Hampshire RG25 3HR,,,,The Clock And Thyme,Other catering premises,7841,5,,580286,0,,51.24340700000000,13/00120/CP,131,ehteam@basingstoke.gov.uk,Basingstoke and Deane,http://www.basingstoke.gov.uk,-1.26267800000000,RG25 3HR,2013-08-27,fhrs_5_en-GB,5,,FHRS,5
215264,The Crown Inn The Street Old Basing Basingstoke Hampshire RG24 7BW,,,,The Crown,Pub/bar/nightclub,7843,5,,46097,5,,51.27112000000000,11/00046/CP,131,ehteam@basingstoke.gov.uk,Basingstoke and Deane,http://www.basingstoke.gov.uk,-1.04934800000000,RG24 7BW,2014-07-03,fhrs_5_en-GB,5,,FHRS,5
215265,The Crown Newbury Road Kingsclere Newbury Hampshire RG20 5QU,,,,The Crown Inn,Pub/bar/nightclub,7843,10,,620688,10,,51.32526100000000,13/00156/CP,131,ehteam@basingstoke.gov.uk,Basingstoke and Deane,http://www.basingstoke.gov.uk,-1.24725900000000,RG20 5QU,2013-12-04,fhrs_3_en-GB,3,,FHRS,5
215266,Pride And Joy Aldermaston Road Sherborne St John Basingstoke Hampshire RG24 9JY,,,,The Curiositea Room,Restaurant/Cafe/Canteen,1,10,,608687,10,,51.29121300000000,13/00109/CP,131,ehteam@basingstoke.gov.uk,Basingstoke and Deane,http://www.basingstoke.gov.uk,-1.11765600000000,RG24 9JY,2013-10-02,fhrs_3_en-GB,3,,FHRS,10
215267,The Four Horseshoes Reading Road Sherfield-on-Loddon Hook Hampshire RG27 0EX,,,,The Four Horseshoes,Pub/bar/nightclub,7843,10,,155144,10,,51.31564400000000,CVBN17550/2037/2/000,131,ehteam@basingstoke.gov.uk,Basingstoke and Deane,http://www.basingstoke.gov.uk,-1.02578600000000,RG27 0EX,2014-09-23,fhrs_3_en-GB,3,,FHRS,10
215268,The Fox Green Lane Ellisfield Basingstoke Hampshire RG25 2QW,,,,The Fox,Pub/bar/nightclub,7843,5,,728076,5,,51.20405400000000,14/00126/CP,131,ehteam@basingstoke.gov.uk,Basingstoke and Deane,http://www.basingstoke.gov.uk,-1.09672000000000,RG25 2QW,2014-12-16,fhrs_5_en-GB,5,,FHRS,0
215269,The Fox Inn Fox Lane North Waltham Basingstoke Hampshire RG25 2BE,,,,The Fox Inn,Pub/bar/nightclub,7843,5,,67664,5,,51.21107900000000,15110/2019/2/000,131,ehteam@basingstoke.gov.uk,Basingstoke and Deane,http://www.basingstoke.gov.uk,-1.19557900000000,RG25 2BE,2013-07-25,fhrs_5_en-GB,5,,FHRS,5
215270,Fur And Feathers Herriard Basingstoke Hampshire RG25 2PN,,,,The Fur And Feathers,Pub/bar/nightclub,7843,5,,35214,0,,51.19799900000000,10/00205/CP,131,ehteam@basingstoke.gov.uk,Basingstoke and Deane,http://www.basingstoke.gov.uk,-1.04089200000000,RG25 2PN,2015-02-02,fhrs_5_en-GB,5,,FHRS,5
215271,Furze Bush Inn Hatt Common East Woodhay Newbury Hampshire RG20 0NQ,,,,The Furze Bush Inn,Pub/bar/nightclub,7843,5,,32342,5,,51.36598200000000,09480/2010/2/000,131,ehteam@basingstoke.gov.uk,Basingstoke and Deane,http://www.basingstoke.gov.uk,-1.39238900000000,RG20 0NQ,2014-10-22,fhrs_5_en-GB,5,,FHRS,5
215272,The Golden Lion Jays Close Basingstoke Hampshire RG22 4BS,,,,The Golden Lion,Pub/bar/nightclub,7843,10,,371704,5,,51.24865900000000,12/00031/CP,131,ehteam@basingstoke.gov.uk,Basingstoke and Deane,http://www.basingstoke.gov.uk,-1.09131900000000,RG22 4BS,2015-01-20,fhrs_3_en-GB,3,,FHRS,10
215273,The Greyhound 46 Winchester Street Overton Basingstoke Hampshire RG25 3HS,,,,The Greyhound,Pub/bar/nightclub,7843,5,,734801,0,,51.24251800000000,23740/0046/2/000,131,ehteam@basingstoke.gov.uk,Basingstoke and Deane,http://www.basingstoke.gov.uk,-1.26303500000000,RG25 3HS,2015-02-05,fhrs_5_en-GB,5,,FHRS,5
215274,The Hatch London Road Old Basing Basingstoke Hampshire RG24 7JL,,,,The Hatch,Pub/bar/nightclub,7843,5,,55552,5,,51.26458400000000,12530/2005/2/000,131,ehteam@basingstoke.gov.uk,Basingstoke and Deane,http://www.basingstoke.gov.uk,-1.03195400000000,RG24 7JL,2014-07-16,fhrs_5_en-GB,5,,FHRS,5
215275,Hoddington Arms Bidden Road Upton Grey Basingstoke Hampshire RG25 2RL,,,,The Hoddington Arms,Pub/bar/nightclub,7843,10,,6312,5,,51.22927400000000,02100/2003/2/000,131,ehteam@basingstoke.gov.uk,Basingstoke and Deane,http://www.basingstoke.gov.uk,-0.99899500000000,RG25 2RL,2014-01-23,fhrs_4_en-GB,4,,FHRS,5
215276,The Hurst Community College Brimpton Road Baughurst Tadley Hampshire RG26 5NL,,,,The Hurst Community College,School/college/university,7845,0,,8624,0,,51.35768700000000,03100/2006/2/000,131,ehteam@basingstoke.gov.uk,Basingstoke and Deane,http://www.basingstoke.gov.uk,-1.17395700000000,RG26 5NL,2014-07-03,fhrs_5_en-GB,5,,FHRS,5
215277,The Iron Duke Fair Oak Lane Stratfield Saye Reading Hampshire RG7 2EH,,,,The Iron Duke,Pub/bar/nightclub,7843,5,,35017,5,,51.34986400000000,10/00178/CP,131,ehteam@basingstoke.gov.uk,Basingstoke and Deane,http://www.basingstoke.gov.uk,-1.02105500000000,RG7 2EH,2014-05-23,fhrs_4_en-GB,4,,FHRS,10
215278,The Jekyll And Hyde Basingstoke Road Hartley Wespall Hook Hampshire RG27 0AX,,,,The Jekyll & Hyde,Pub/bar/nightclub,7843,5,,32198,5,,51.33049800000000,09330/2015/2/000,131,ehteam@basingstoke.gov.uk,Basingstoke and Deane,http://www.basingstoke.gov.uk,-1.00111400000000,RG27 0AX,2013-11-08,fhrs_4_en-GB,4,,FHRS,10
215279,The Kitschen Cafe 1 Feathers Lane Basingstoke Hampshire RG21 7AS,,,,The Kitschen Cafe,Restaurant/Cafe/Canteen,1,5,,699480,0,,51.26324100000000,14/00056/CP,131,ehteam@basingstoke.gov.uk,Basingstoke and Deane,http://www.basingstoke.gov.uk,-1.08630200000000,RG21 7AS,2014-08-21,fhrs_5_en-GB,5,,FHRS,5
215280,The Lime Leaf 25 London Street Basingstoke Hampshire RG21 7PG,,,,The Lime Leaf,Restaurant/Cafe/Canteen,1,5,,21690,5,,51.26217600000000,07/00053/CP,131,ehteam@basingstoke.gov.uk,Basingstoke and Deane,http://www.basingstoke.gov.uk,-1.08467500000000,RG21 7PG,2014-06-17,fhrs_4_en-GB,4,,FHRS,10
215281,The Loddon School Wildmoor Lane Sherfield-on-Loddon Hook Hampshire RG27 0JD,,,,The Loddon School,School/college/university,7845,5,,88901,5,,51.30434600000000,23540/2007/2/000,131,ehteam@basingstoke.gov.uk,Basingstoke and Deane,http://www.basingstoke.gov.uk,-1.03398700000000,RG27 0JD,2014-08-12,fhrs_5_en-GB,5,,FHRS,5
215282,The Maidenhead Inn 17 Winchester Street Basingstoke Hampshire RG21 7ED,,,,The Maidenhead Inn,Pub/bar/nightclub,7843,0,,89168,0,,51.26233300000000,23730/0017/0/000,131,ehteam@basingstoke.gov.uk,Basingstoke and Deane,http://www.basingstoke.gov.uk,-1.08756700000000,RG21 7ED,2014-05-12,fhrs_5_en-GB,5,,FHRS,5
215283,Mapledurwell Village Hall Greywell Road Mapledurwell Basingstoke Hampshire RG25 2LS,,,,The Monkey House Nursery School,Hospitals/Childcare/Caring Premises,5,5,,620689,5,,51.25950500000000,13/00162/CP,131,ehteam@basingstoke.gov.uk,Basingstoke and Deane,http://www.basingstoke.gov.uk,-1.02023700000000,RG25 2LU,2013-11-26,fhrs_5_en-GB,5,,FHRS,5
215284,The Mousetrap 5 The Parade Basing View Basingstoke Hampshire RG21 4EJ,,,,The Mousetrap,Pub/bar/nightclub,7843,10,,580282,10,,51.26833100000000,101460/0005/0/000,131,ehteam@basingstoke.gov.uk,Basingstoke and Deane,http://www.basingstoke.gov.uk,-1.07950700000000,RG21 4EJ,2013-07-24,fhrs_3_en-GB,3,,FHRS,10
215285,Dynasty Chinese Cuisine 70 Franklin Avenue Tadley Hampshire RG26 4ET,,,,The New Dynasty,Takeaway/sandwich shop,7844,10,,24493,10,,51.35683500000000,07820/0070/0/000,131,ehteam@basingstoke.gov.uk,Basingstoke and Deane,http://www.basingstoke.gov.uk,-1.14792000000000,RG26 4ET,2014-03-18,fhrs_3_en-GB,3,,FHRS,10
215286,Academy Altis Leisure Centre West Ham Lane Basingstoke Hampshire RG22 5EE,,,,The Oriental Break,Takeaway/sandwich shop,7844,10,,14782,10,,51.26270000000000,05/00052/CP,131,ehteam@basingstoke.gov.uk,Basingstoke and Deane,http://www.basingstoke.gov.uk,-1.12988300000000,RG22 5EE,2014-01-31,fhrs_3_en-GB,3,,FHRS,10
215287,Units 14B - 14C Viables Craft Centre The Harrow Way Basingstoke Hampshire RG22 4BJ,,,,The Parlour Tearoom,Restaurant/Cafe/Canteen,1,10,,46332,10,,51.24793900000000,11/00059/CP,131,ehteam@basingstoke.gov.uk,Basingstoke and Deane,http://www.basingstoke.gov.uk,-1.09713600000000,RG22 4BJ,2014-09-16,fhrs_3_en-GB,3,,FHRS,10
215288,Clift Meadow Cricket Pavillion The Street Bramley Hampshire,,,,The Pavillion,Other catering premises,7841,5,,728073,5,,51.33144500000000,14/00104/CP,131,ehteam@basingstoke.gov.uk,Basingstoke and Deane,http://www.basingstoke.gov.uk,-1.06690500000000,RG26 5BH,2014-12-03,fhrs_5_en-GB,5,,FHRS,5
215289,The Pelican 8 Silchester Road Pamber Heath Tadley Hampshire RG26 3EA,,,,The Pelican,Pub/bar/nightclub,7843,10,,371706,10,,51.35789500000000,12/00046/CP,131,ehteam@basingstoke.gov.uk,Basingstoke and Deane,http://www.basingstoke.gov.uk,-1.12462000000000,RG26 3EA,2014-11-20,fhrs_3_en-GB,3,,FHRS,10
215290,The Pineapple Public House Little Knowl Hill Brimpton Common Reading Hampshire RG7 4RN,,,,The Pineapple,Other catering premises,7841,10,,456132,10,,51.36207700000000,12/00118/CP,131,ehteam@basingstoke.gov.uk,Basingstoke and Deane,http://www.basingstoke.gov.uk,-1.18710600000000,RG7 4RN,2014-03-19,fhrs_3_en-GB,3,,FHRS,10
215291,The Plough Silchester Road Little London Tadley Hampshire RG26 5EP,,,,The Plough,Pub/bar/nightclub,7843,10,,78840,10,,51.33353700000000,18870/2037/2/000,131,ehteam@basingstoke.gov.uk,Basingstoke and Deane,http://www.basingstoke.gov.uk,-1.10923600000000,RG26 5EP,2013-11-19,fhrs_3_en-GB,3,,FHRS,10
215292,The Old Bakehouse Wootton St Lawrence Basingstoke Hampshire RG23 8PE,,,,The Pod,Other catering premises,7841,5,,728077,5,,51.27573900000000,14/00127/CP,131,ehteam@basingstoke.gov.uk,Basingstoke and Deane,http://www.basingstoke.gov.uk,-1.15317700000000,RG23 8PE,2014-12-10,fhrs_5_en-GB,5,,FHRS,5
215293,The Priory Primary School Pamber Road Pamber End Tadley Hampshire RG26 5QD,,,,The Priory Primary Academy Trust,School/college/university,7845,5,,13720,5,,51.31860800000000,04310/4062/2/000,131,ehteam@basingstoke.gov.uk,Basingstoke and Deane,http://www.basingstoke.gov.uk,-1.13049000000000,RG26 5QD,2014-01-20,fhrs_5_en-GB,5,,FHRS,5
215294,The Purple Olive 21A High Street Overton Basingstoke Hampshire RG25 3HB,,,,The Purple Olive,Retailers - other,4613,5,,39930,5,,51.24381200000000,10050/0021/A/000,131,ehteam@basingstoke.gov.uk,Basingstoke and Deane,http://www.basingstoke.gov.uk,-1.26430400000000,RG25 3HB,2014-07-23,fhrs_5_en-GB,5,,FHRS,5
215295,The Queen Inn Down Street Dummer Basingstoke Hampshire RG25 2AD,,,,The Queen Inn,Pub/bar/nightclub,7843,5,,20752,0,,51.21283700000000,06390/2008/2/000,131,ehteam@basingstoke.gov.uk,Basingstoke and Deane,http://www.basingstoke.gov.uk,-1.15906900000000,RG25 2AD,2014-09-04,fhrs_5_en-GB,5,,FHRS,5
215296,Queens Arms Bunnian Place Basingstoke Hampshire RG21 7JE,,,,The Queens Arms,Pub/bar/nightclub,7843,5,,8908,10,,51.26802300000000,03420/2002/2/000,131,ehteam@basingstoke.gov.uk,Basingstoke and Deane,http://www.basingstoke.gov.uk,-1.08497400000000,RG21 7JE,2013-12-16,fhrs_4_en-GB,4,,FHRS,5
215297,Queens College Arms Aldermaston Road Pamber End Tadley Hampshire RG26 5QR,,,,The Queens College Arms,Pub/bar/nightclub,7843,5,,1403,5,,51.32080100000000,00170/2040/2/000,131,ehteam@basingstoke.gov.uk,Basingstoke and Deane,http://www.basingstoke.gov.uk,-1.12308700000000,RG26 5QR,2014-09-17,fhrs_4_en-GB,4,,FHRS,10
215298,The Rampant Cat Broadlayings Woolton Hill Newbury Hampshire RG20 9TP,,,,The Rampant Cat,Pub/bar/nightclub,7843,5,,8680,5,,51.35899600000000,03160/2076/2/000,131,ehteam@basingstoke.gov.uk,Basingstoke and Deane,http://www.basingstoke.gov.uk,-1.37363800000000,RG20 9TP,2013-10-10,fhrs_5_en-GB,5,,FHRS,5
215299,The Red House Andover Road Highclere Newbury Hampshire RG20 9PU,,,,The Red House,Pub/bar/nightclub,7843,5,,28622,5,,51.33699300000000,09/00013/CP,131,ehteam@basingstoke.gov.uk,Basingstoke and Deane,http://www.basingstoke.gov.uk,-1.37708200000000,RG20 9PU,2013-12-04,fhrs_4_en-GB,4,,FHRS,10
215300,The Red House Inn 21 London Street Whitchurch Hampshire RG28 7LH,,,,The Red House Inn,Pub/bar/nightclub,7843,0,,55807,5,,51.23073500000000,12600/0000/2/000,131,ehteam@basingstoke.gov.uk,Basingstoke and Deane,http://www.basingstoke.gov.uk,-1.33762700000000,RG28 7LH,2014-01-09,fhrs_5_en-GB,5,,FHRS,0
215301,Red Lion Public House 37 High Street Overton Basingstoke Hampshire RG25 3HQ,,,,The Red Lion,Pub/bar/nightclub,7843,5,,39931,5,,51.24377300000000,10050/0037/2/000,131,ehteam@basingstoke.gov.uk,Basingstoke and Deane,http://www.basingstoke.gov.uk,-1.26662600000000,RG25 3HQ,2013-12-11,fhrs_5_en-GB,5,,FHRS,5
215302,The Red Lion Church Road Mortimer West End Reading Hampshire RG7 2HU,,,,The Red Lion Italian Gastro Pub,Pub/bar/nightclub,7843,10,,699481,10,,51.37215100000000,14/00069/CP,131,ehteam@basingstoke.gov.uk,Basingstoke and Deane,http://www.basingstoke.gov.uk,-1.09090300000000,RG7 2HU,2014-08-28,fhrs_3_en-GB,3,,FHRS,5
215303,23 St Johns Piece Oakley Basingstoke Hampshire RG23 7JQ,,,,The Risen Pizza Co,Takeaway/sandwich shop,7844,5,,628143,5,,51.24568100000000,13/00171/CP,131,ehteam@basingstoke.gov.uk,Basingstoke and Deane,http://www.basingstoke.gov.uk,-1.17120700000000,RG23 7JQ,2014-01-06,fhrs_5_en-GB,5,,FHRS,5
215304,Royal Oak 414 Worting Road Basingstoke Hampshire RG22 5EA,,,,The Royal Oak,Pub/bar/nightclub,7843,10,,89920,5,,51.26226400000000,24260/2001/2/000,131,ehteam@basingstoke.gov.uk,Basingstoke and Deane,http://www.basingstoke.gov.uk,-1.13163900000000,RG22 5EA,2013-12-06,fhrs_4_en-GB,4,,FHRS,5
215305,Royal Oak Hydes Platt Ecchinswell Newbury Hampshire RG20 4UH,,,,The Royal Oak,Pub/bar/nightclub,7843,5,,471017,5,,51.33181400000000,12/00134/CP,131,ehteam@basingstoke.gov.uk,Basingstoke and Deane,http://www.basingstoke.gov.uk,-1.28561900000000,RG20 4UH,2014-05-13,fhrs_5_en-GB,5,,FHRS,5
215306,2 Summerhurst Plastow Green Headley Thatcham Hampshire RG19 8LR,,,,The Sandwich Shack,Other catering premises,7841,10,,35164,10,,51.34516100000000,10/00198/CP,131,ehteam@basingstoke.gov.uk,Basingstoke and Deane,http://www.basingstoke.gov.uk,-1.23350800000000,RG19 8LR,2013-12-09,fhrs_3_en-GB,3,,FHRS,10
215307,Burnham Copse Primary School Newchurch Road Tadley Hampshire RG26 4HN,,,,The Saplings Pre-School,Hospitals/Childcare/Caring Premises,5,5,,47690,10,,51.35545500000000,11/00160/CP,131,ehteam@basingstoke.gov.uk,Basingstoke and Deane,http://www.basingstoke.gov.uk,-1.15225400000000,RG26 4HN,2013-11-15,fhrs_4_en-GB,4,,FHRS,5
215308,The Ship Ashford Hill Road Ashford Hill Thatcham Hampshire RG19 8BD,,,,The Ship Inn,Pub/bar/nightclub,7843,5,,2315,5,,51.35524700000000,00800/2007/2/000,131,ehteam@basingstoke.gov.uk,Basingstoke and Deane,http://www.basingstoke.gov.uk,-1.20213400000000,RG19 8BD,2014-05-22,fhrs_4_en-GB,4,,FHRS,10
215309,The Shop Reading Road Sherfield-on-Loddon Hook Hampshire RG27 0EZ,,,,The Shop,Retailers - other,4613,5,,75304,5,,51.31608200000000,17550/2015/2/001,131,ehteam@basingstoke.gov.uk,Basingstoke and Deane,http://www.basingstoke.gov.uk,-1.02648000000000,RG27 0EZ,2013-10-01,fhrs_5_en-GB,5,,FHRS,5
215310,Upton Grey Post Office And Shop Church Street Upton Grey Basingstoke Hampshire RG25 2RA,,,,The Shop & Post Office,Retailers - other,4613,10,,14200,10,,51.22944000000000,04810/2020/2/000,131,ehteam@basingstoke.gov.uk,Basingstoke and Deane,http://www.basingstoke.gov.uk,-1.00056700000000,RG25 2RA,2013-09-17,fhrs_3_en-GB,3,,FHRS,5
215311,Soldiers Return 80 Upper Sherborne Road Basingstoke Hampshire RG21 5RP,,,,The Soldiers Return,Pub/bar/nightclub,7843,5,,608686,5,,51.27668800000000,13/00079/CP,131,ehteam@basingstoke.gov.uk,Basingstoke and Deane,http://www.basingstoke.gov.uk,-1.09730400000000,RG21 5RP,2013-09-30,fhrs_5_en-GB,5,,FHRS,5
215312,57 - 58 Broadmere Road Basingstoke Hampshire RG22 4AQ,,,,The Southern Co-operative,Retailers - supermarkets/hypermarkets,7840,5,,15678,0,,51.22959100000000,05/00399/CP,131,ehteam@basingstoke.gov.uk,Basingstoke and Deane,http://www.basingstoke.gov.uk,-1.14205000000000,RG22 4AQ,2014-09-10,fhrs_5_en-GB,5,,FHRS,5
215313,98 Franklin Avenue Tadley Hampshire RG26 4EU,,,,The Southern Co-Operative,Retailers - supermarkets/hypermarkets,7840,10,,24496,5,,51.35715000000000,07820/0098/0/000,131,ehteam@basingstoke.gov.uk,Basingstoke and Deane,http://www.basingstoke.gov.uk,-1.15286900000000,RG26 4EU,2014-04-23,fhrs_3_en-GB,3,,FHRS,10
215314,149A Pack Lane Basingstoke Hampshire RG22 5HN,,,,The Spice,Restaurant/Cafe/Canteen,1,5,,69728,5,,51.25210400000000,15730/2003/2/000,131,ehteam@basingstoke.gov.uk,Basingstoke and Deane,http://www.basingstoke.gov.uk,-1.13547000000000,RG22 5HN,2013-07-11,fhrs_4_en-GB,4,,FHRS,10
215315,Spruce Goose Beefeater Steakhouse Basingstoke Leisure Park Worting Road Basingstoke Hampshire RG22 6PG,,,,The Spruce Goose,Restaurant/Cafe/Canteen,1,10,,90076,10,,51.26497400000000,24382/2003/2/000,131,ehteam@basingstoke.gov.uk,Basingstoke and Deane,http://www.basingstoke.gov.uk,-1.11767100000000,RG22 6PG,2013-09-30,fhrs_3_en-GB,3,,FHRS,10
215316,The Star Inn Newbury Road Kingsclere Newbury Hampshire RG20 4SY,,,,The Star Inn,Pub/bar/nightclub,7843,0,,65303,10,,51.33939100000000,14650/2006/2/000,131,ehteam@basingstoke.gov.uk,Basingstoke and Deane,http://www.basingstoke.gov.uk,-1.25910100000000,RG20 4SY,2014-08-05,fhrs_4_en-GB,4,,FHRS,10
215317,The Sun Inn Winchester Road North Waltham Basingstoke Hampshire RG25 2DJ,,,,The Sun Inn,Pub/bar/nightclub,7843,5,,67665,5,,51.21567700000000,15110/2047/2/000,131,ehteam@basingstoke.gov.uk,Basingstoke and Deane,http://www.basingstoke.gov.uk,-1.17273400000000,RG25 2DJ,2014-03-04,fhrs_4_en-GB,4,,FHRS,10
215318,The Swan Inn 3 Kiln Road Sherborne St John Basingstoke Hampshire RG24 9HS,,,,The Swan,Pub/bar/nightclub,7843,5,,50976,5,,51.29339100000000,11380/0003/2/000,131,ehteam@basingstoke.gov.uk,Basingstoke and Deane,http://www.basingstoke.gov.uk,-1.10495100000000,RG24 9HS,2013-11-05,fhrs_5_en-GB,5,,FHRS,5
215319,The Swan Hotel 19 Swan Street Kingsclere Newbury Hampshire RG20 5PP,,,,The Swan Hotel,Pub/bar/nightclub,7843,5,,83350,5,,51.32393300000000,20370/0033/0/000,131,ehteam@basingstoke.gov.uk,Basingstoke and Deane,http://www.basingstoke.gov.uk,-1.24758200000000,RG20 5PP,2013-11-06,fhrs_5_en-GB,5,,FHRS,5
215320,Newtown Newbury Hampshire RG20 9BH,,,,The Swan Inn,Pub/bar/nightclub,7843,5,,33999,5,,51.37245300000000,10/00081/CP,131,ehteam@basingstoke.gov.uk,Basingstoke and Deane,http://www.basingstoke.gov.uk,-1.31656400000000,RG20 9BH,2013-09-18,fhrs_5_en-GB,5,,FHRS,5
215321,The Trawlerman 8 Chineham Shopping Centre Chineham Basingstoke Hampshire RG24 8BQ,,,,The Trawlerman,Restaurant/Cafe/Canteen,1,5,,13867,5,,51.28420700000000,04490/0008/0/000,131,ehteam@basingstoke.gov.uk,Basingstoke and Deane,http://www.basingstoke.gov.uk,-1.05974600000000,RG24 8BQ,2014-01-27,fhrs_5_en-GB,5,,FHRS,5
215322,7 Swan Street Kingsclere Newbury Hampshire RG20 5PP,,,,The Village Butcher,Retailers - other,4613,5,,83349,0,,51.32387000000000,20370/0007/0/000,131,ehteam@basingstoke.gov.uk,Basingstoke and Deane,http://www.basingstoke.gov.uk,-1.24766900000000,RG20 5PP,2015-01-12,fhrs_5_en-GB,5,,FHRS,0
215323,3 Swan Street Kingsclere Newbury Hampshire RG20 5PP,,,,The Village Cafe,Restaurant/Cafe/Canteen,1,10,,32787,5,,51.32387000000000,10/00005/CP,131,ehteam@basingstoke.gov.uk,Basingstoke and Deane,http://www.basingstoke.gov.uk,-1.24766900000000,RG20 5PP,2014-04-29,fhrs_4_en-GB,4,,FHRS,5
215324,The Vine Inn Hannington Tadley Hampshire RG26 5TX,,,,The Vine At Hannington,Pub/bar/nightclub,7843,5,,32064,5,,51.29373400000000,09200/2041/2/000,131,ehteam@basingstoke.gov.uk,Basingstoke and Deane,http://www.basingstoke.gov.uk,-1.22624700000000,RG26 5TX,2013-08-13,fhrs_5_en-GB,5,,FHRS,5
215325,The Watership Down Inn Freefolk Priors Freefolk Whitchurch Hampshire RG28 7NJ,,,,The Watership Down Inn,Pub/bar/nightclub,7843,5,,559362,5,,51.23557100000000,13/00036/CP,131,ehteam@basingstoke.gov.uk,Basingstoke and Deane,http://www.basingstoke.gov.uk,-1.30934000000000,RG28 7NJ,2013-06-13,fhrs_5_en-GB,5,,FHRS,5
215326,Wellington Arms Baughurst Road Baughurst Tadley Hampshire RG26 5LP,,,,The Wellington Arms,Pub/bar/nightclub,7843,5,,5047,5,,51.34064500000000,01530/2018/2/000,131,ehteam@basingstoke.gov.uk,Basingstoke and Deane,http://www.basingstoke.gov.uk,-1.16356700000000,RG26 5LP,2014-11-24,fhrs_5_en-GB,5,,FHRS,5
215327,The Wheatsheaf Hotel Popham Lane North Waltham Basingstoke Hampshire RG25 2BB,,,,The Wheatsheaf Hotel,Hotel/bed & breakfast/guest house,7842,5,,67663,5,,51.20482600000000,15110/2016/2/000,131,ehteam@basingstoke.gov.uk,Basingstoke and Deane,http://www.basingstoke.gov.uk,-1.18858800000000,RG25 2BB,2013-08-20,fhrs_4_en-GB,4,,FHRS,10
215328,The White Hart Reading Road Sherfield-on-Loddon Hook Hampshire RG27 0BT,,,,The White Hart,Pub/bar/nightclub,7843,5,,75306,5,,51.31732700000000,17550/2047/2/000,131,ehteam@basingstoke.gov.uk,Basingstoke and Deane,http://www.basingstoke.gov.uk,-1.02486100000000,RG27 0BT,2013-10-10,fhrs_5_en-GB,5,,FHRS,5
215329,The White Hart White Hart Lane Charter Alley Tadley Hampshire RG26 5QA,,,,The White Hart,Pub/bar/nightclub,7843,5,,88689,10,,51.31556500000000,23370/2002/2/000,131,ehteam@basingstoke.gov.uk,Basingstoke and Deane,http://www.basingstoke.gov.uk,-1.14834000000000,RG26 5QA,2014-11-25,fhrs_4_en-GB,4,,FHRS,5
215330,White Hart Inn London Road Basingstoke Hampshire RG21 4AE,,,,The White Hart,Pub/bar/nightclub,7843,20,,55347,15,,51.26252900000000,12490/2018/2/000,131,ehteam@basingstoke.gov.uk,Basingstoke and Deane,http://www.basingstoke.gov.uk,-1.08155800000000,RG21 4AE,2013-11-25,fhrs_1_en-GB,1,,FHRS,15
215331,White Hart Worting Road Basingstoke Hampshire RG22 5EQ,,,,The White Hart,Pub/bar/nightclub,7843,5,,89915,5,,51.26183800000000,24260/0367/2/000,131,ehteam@basingstoke.gov.uk,Basingstoke and Deane,http://www.basingstoke.gov.uk,-1.13358200000000,RG22 5EQ,2013-08-07,fhrs_5_en-GB,5,,FHRS,5
215332,The White Hart Hotel London Street Whitchurch Hampshire RG28 7DN,,,,The White Hart Hotel,Pub/bar/nightclub,7843,5,,495823,5,,51.23081300000000,12/00148/CP,131,ehteam@basingstoke.gov.uk,Basingstoke and Deane,http://www.basingstoke.gov.uk,-1.33864300000000,RG28 7DN,2013-08-14,fhrs_5_en-GB,5,,FHRS,5
215333,Woolpack Inn Totford Lane Northington Alresford Hampshire SO24 9TJ,,,,The Woolpack Inn,Pub/bar/nightclub,7843,5,,85586,10,,51.13744400000000,21620/2002/2/000,131,ehteam@basingstoke.gov.uk,Basingstoke and Deane,http://www.basingstoke.gov.uk,-1.18538100000000,SO24 9TJ,2013-08-05,fhrs_3_en-GB,3,,FHRS,10
215334,The Y Knot Inn Water End Old Basing Basingstoke Hampshire RG24 7BB,,,,The Y Knot Inn,Pub/bar/nightclub,7843,5,,718374,5,,51.27425500000000,14/00090/CP,131,ehteam@basingstoke.gov.uk,Basingstoke and Deane,http://www.basingstoke.gov.uk,-1.00669200000000,RG24 7BB,2014-11-18,fhrs_5_en-GB,5,,FHRS,0
215335,The Yew Tree Inn Andover Road Highclere Newbury Hampshire RG20 9SE,,,,The Yew Tree,Restaurant/Cafe/Canteen,1,0,,495822,5,,51.32740200000000,12/00128/CP,131,ehteam@basingstoke.gov.uk,Basingstoke and Deane,http://www.basingstoke.gov.uk,-1.38103000000000,RG20 9SE,2014-04-01,fhrs_5_en-GB,5,,FHRS,5
215336,Dean Lodge Stargrove Lane East End Newbury Hampshire RG20 0AF,,,,Thyme,Other catering premises,7841,5,,644295,5,,51.34875000000000,14/00028/CP,131,ehteam@basingstoke.gov.uk,Basingstoke and Deane,http://www.basingstoke.gov.uk,-1.40747800000000,RG20 0AF,2014-03-26,fhrs_5_en-GB,5,,FHRS,5
215337,Down Grange Farm Winchester Road Basingstoke Hampshire RG22 4ET,,,,Tiny Tots Day Nursery,Hospitals/Childcare/Caring Premises,5,5,,89091,0,,51.24620100000000,23680/2004/2/000,131,ehteam@basingstoke.gov.uk,Basingstoke and Deane,http://www.basingstoke.gov.uk,-1.12758600000000,RG22 4ET,2014-09-17,fhrs_5_en-GB,5,,FHRS,5
215338,Tiny Town Kindergarden 1 Mount Pleasant Tadley Hampshire RG26 4JH,,,,Tiny Town Kindergarten,Hospitals/Childcare/Caring Premises,5,5,,64702,5,,51.35460500000000,14430/0001/0/003,131,ehteam@basingstoke.gov.uk,Basingstoke and Deane,http://www.basingstoke.gov.uk,-1.14303600000000,RG26 4JH,2014-10-07,fhrs_5_en-GB,5,,FHRS,5
215339,Toby Carvery Down Grange House Winchester Road Basingstoke Hampshire RG22 4ET,,,,Toby Carvery,Restaurant/Cafe/Canteen,1,0,,47525,0,,51.24620100000000,11/00142/CP,131,ehteam@basingstoke.gov.uk,Basingstoke and Deane,http://www.basingstoke.gov.uk,-1.12758600000000,RG22 4ET,2013-06-18,fhrs_5_en-GB,5,,FHRS,5
215340,Towers Restaurant Viables Craft Centre The Harrow Way Basingstoke Hampshire RG22 4BJ,,,,Towers Restaurant,Restaurant/Cafe/Canteen,1,10,,434102,15,,51.24793900000000,24385/0001/2/000,131,ehteam@basingstoke.gov.uk,Basingstoke and Deane,http://www.basingstoke.gov.uk,-1.09713600000000,RG22 4BJ,2014-10-07,fhrs_2_en-GB,2,,FHRS,10
215341,1 Fosters Business Park Old School Road Hook Hampshire RG27 9NY,,,,Town Mill Bakery,Manufacturers/packers,7839,5,,29113,5,,,09/00054/CP,131,ehteam@basingstoke.gov.uk,Basingstoke and Deane,http://www.basingstoke.gov.uk,,,2014-12-02,fhrs_4_en-GB,4,,FHRS,10
215342,Bilton Industrial Estate Bilton Road Basingstoke Hampshire RG24 8LJ,,,,Tracy's Snack Bar,Restaurant/Cafe/Canteen,1,0,,550959,5,,51.28274400000000,12/00129/CP,131,ehteam@basingstoke.gov.uk,Basingstoke and Deane,http://www.basingstoke.gov.uk,-1.06690200000000,RG24 8LJ,2014-06-16,fhrs_5_en-GB,5,,FHRS,0
215343,Popley Fields Community Centre Carpenters Down Basingstoke Hampshire RG24 9AE,,,,Treasure Island Playgroup,Hospitals/Childcare/Caring Premises,5,5,,45680,10,,51.28733300000000,11/00020/CP,131,ehteam@basingstoke.gov.uk,Basingstoke and Deane,http://www.basingstoke.gov.uk,-1.07627400000000,RG24 9AE,2013-03-12,fhrs_4_en-GB,4,,FHRS,5
215344,TTHL Traditional Butchers 49 Kings Road Basingstoke Hampshire RG22 6DJ,,,,TTHL Traditional Butchers,Retailers - other,4613,5,,18573,10,,51.25677200000000,06/00161/CP,131,ehteam@basingstoke.gov.uk,Basingstoke and Deane,http://www.basingstoke.gov.uk,-1.11037600000000,RG22 6DJ,2013-12-04,fhrs_3_en-GB,3,,FHRS,10
215345,Tuli Tandoori Take Away 19A London Street Basingstoke Hampshire RG21 7NT,,,,Tuli Tandoori,Restaurant/Cafe/Canteen,1,5,,55681,5,,51.26224700000000,12570/0019/0/000,131,ehteam@basingstoke.gov.uk,Basingstoke and Deane,http://www.basingstoke.gov.uk,-1.08576300000000,RG21 7NT,2014-02-19,fhrs_5_en-GB,5,,FHRS,5
215346,Simon Smith Filling Station Turgis Green Hook Hampshire RG27 0AG,,,,Turgis Green Filling Station,Retailers - other,4613,10,,86170,10,,51.32746700000000,21940/2005/2/000,131,ehteam@basingstoke.gov.uk,Basingstoke and Deane,http://www.basingstoke.gov.uk,-1.00205500000000,RG27 0AG,2014-01-29,fhrs_3_en-GB,3,,FHRS,5
215347,At The Bramley Inn The Street Bramley Tadley Hampshire RG26 5BT,,,,Turmerics,Restaurant/Cafe/Canteen,1,5,,491606,5,,51.33014000000000,12/00161/CP,131,ehteam@basingstoke.gov.uk,Basingstoke and Deane,http://www.basingstoke.gov.uk,-1.06226700000000,RG26 5BT,2014-06-20,fhrs_5_en-GB,5,,FHRS,5
215348,Turners Butchers 12 High Street Overton Basingstoke Hampshire RG25 3HA,,,,Turners Butchers,Retailers - other,4613,0,,46994,0,,51.24411800000000,11/00097/CP,131,ehteam@basingstoke.gov.uk,Basingstoke and Deane,http://www.basingstoke.gov.uk,-1.26424200000000,RG25 3HA,2014-08-28,fhrs_5_en-GB,5,,FHRS,0
215349,Winchester Road North Waltham Hampshire,,,,UK Best Kebabs,Mobile caterer,7846,10,,456119,10,,51.06303000000000,09/00092/CP,131,ehteam@basingstoke.gov.uk,Basingstoke and Deane,http://www.basingstoke.gov.uk,-1.31677000000000,,2014-12-03,fhrs_3_en-GB,3,,FHRS,5
215350,Lower Link Farm Lower Link St Mary Bourne Andover Hampshire SP11 6DB,,,,Unique Catering At Vitacress,Restaurant/Cafe/Canteen,1,0,,57756,0,,51.24279200000000,12950/2013/2/001,131,ehteam@basingstoke.gov.uk,Basingstoke and Deane,http://www.basingstoke.gov.uk,-1.38692100000000,SP11 6DB,2014-10-16,fhrs_5_en-GB,5,,FHRS,5
215351,United Reformed Church London Street Basingstoke Hampshire RG21 7NU,,,,United Reform Church,Restaurant/Cafe/Canteen,1,5,,55684,0,,51.26260200000000,12570/2002/2/000,131,ehteam@basingstoke.gov.uk,Basingstoke and Deane,http://www.basingstoke.gov.uk,-1.08621400000000,RG21 7NU,2013-12-16,fhrs_5_en-GB,5,,FHRS,5
215352,V And B Butchers 22B Oakley Lane Oakley Basingstoke Hampshire RG23 7JY,,,,V & B Butchers,Retailers - other,4613,0,,68394,0,,51.24963000000000,15290/0022/B/000,131,ehteam@basingstoke.gov.uk,Basingstoke and Deane,http://www.basingstoke.gov.uk,-1.17774200000000,RG23 7JY,2015-02-03,fhrs_5_en-GB,5,,FHRS,0
215353,Apple Tree Cottage Pound Green Baughurst Tadley Hampshire RG26 5SR,,,,Vicki May Cooking Ltd,Other catering premises,7841,5,,29440,5,,51.33073500000000,09/00082/CP,131,ehteam@basingstoke.gov.uk,Basingstoke and Deane,http://www.basingstoke.gov.uk,-1.17485700000000,RG26 5SR,2014-06-11,fhrs_5_en-GB,5,,FHRS,5
215354,Village Bakery 10 High Street Overton Basingstoke Hampshire RG25 3HA,,,,Village Bakery,Retailers - other,4613,5,,39927,0,,51.24411800000000,10050/0010/0/000,131,ehteam@basingstoke.gov.uk,Basingstoke and Deane,http://www.basingstoke.gov.uk,-1.26424200000000,RG25 3HA,2014-12-19,fhrs_5_en-GB,5,,FHRS,5
215355,Village Bakery 2A Bell Street Whitchurch Hampshire RG28 7AE,,,,Village Bakery,Retailers - other,4613,5,,24926,5,,51.23028200000000,08/00027/CP,131,ehteam@basingstoke.gov.uk,Basingstoke and Deane,http://www.basingstoke.gov.uk,-1.34021200000000,RG28 7AE,2014-02-05,fhrs_5_en-GB,5,,FHRS,5
215356,Elmwood Foodstores 6 Elmwood Parade Basingstoke Hampshire RG23 8LL,,,,Village Green Elmwood,Retailers - other,4613,0,,21138,0,,51.27339800000000,06860/0006/0/000,131,ehteam@basingstoke.gov.uk,Basingstoke and Deane,http://www.basingstoke.gov.uk,-1.12231200000000,RG23 8LL,2014-10-31,fhrs_5_en-GB,5,,FHRS,5
215357,Wagamama R10 Lower Ground Festival Place Basingstoke Hampshire RG21 7BE,,,,Wagamama,Restaurant/Cafe/Canteen,1,5,,10127,0,,51.26552000000000,04/00129/CP,131,ehteam@basingstoke.gov.uk,Basingstoke and Deane,http://www.basingstoke.gov.uk,-1.08449400000000,RG21 7BB,2014-08-18,fhrs_5_en-GB,5,,FHRS,5
215358,57 Abbey Road Basingstoke Hampshire RG24 9EA,,,,Wedzonka,Other catering premises,7841,5,,46049,10,,51.28247100000000,11/00043/CP,131,ehteam@basingstoke.gov.uk,Basingstoke and Deane,http://www.basingstoke.gov.uk,-1.08933300000000,RG24 9EA,2014-08-21,fhrs_4_en-GB,4,,FHRS,5
215359,Wellington Arms Hotel Stratfield Turgis Hook Hampshire RG27 0AS,,,,Wellington Arms Hotel,Pub/bar/nightclub,7843,5,,82842,5,,51.33765900000000,20130/2006/2/000,131,ehteam@basingstoke.gov.uk,Basingstoke and Deane,http://www.basingstoke.gov.uk,-0.99936500000000,RG27 0AS,2014-09-24,fhrs_5_en-GB,5,,FHRS,5
215360,Wessex Lodge Nursing Home Newbury Road Whitchurch Hampshire RG28 7DX,,,,Wessex Lodge Nursing Home,Hospitals/Childcare/Caring Premises,5,0,,15669,0,,51.23282600000000,05/00378/CP,131,ehteam@basingstoke.gov.uk,Basingstoke and Deane,http://www.basingstoke.gov.uk,-1.33681000000000,RG28 7DX,2014-12-18,fhrs_5_en-GB,5,,FHRS,5
215361,Weybrook Park Golf Club Rooksdown Lane Basingstoke Hampshire RG24 9NT,,,,Weybrook Park Golf Club,Pub/bar/nightclub,7843,10,,10183,5,,51.28456000000000,04/00140/CP,131,ehteam@basingstoke.gov.uk,Basingstoke and Deane,http://www.basingstoke.gov.uk,-1.12029300000000,RG24 9NT,2014-10-08,fhrs_4_en-GB,4,,FHRS,5
215362,Whitchurch C E Primary School Daniel Road Whitchurch Hampshire RG28 7LS,,,,Whitchurch C Of E Primary School,School/college/university,7845,0,,17362,0,,51.22827600000000,05890/0000/2/000,131,ehteam@basingstoke.gov.uk,Basingstoke and Deane,http://www.basingstoke.gov.uk,-1.33363800000000,RG28 7LS,2014-10-22,fhrs_5_en-GB,5,,FHRS,5
215363,Whitewater Catering Ltd 3 Fosters Business Park Old School Road Hook Hampshire RG27 9NY,,,,Whitewater Catering Limited,Other catering premises,7841,5,,22167,0,,51.27662200000000,07/00135/CP,131,ehteam@basingstoke.gov.uk,Basingstoke and Deane,http://www.basingstoke.gov.uk,-0.98285600000000,RG27 9NY,2014-03-26,fhrs_5_en-GB,5,,FHRS,0
215364,Willowdene Nursery School 42 Reading Road Chineham Basingstoke Hampshire RG24 8LT,,,,Willowdene Nursery School,Hospitals/Childcare/Caring Premises,5,5,,75197,5,,51.28960200000000,17500/0042/0/000,131,ehteam@basingstoke.gov.uk,Basingstoke and Deane,http://www.basingstoke.gov.uk,-1.05745600000000,RG24 8LT,2014-07-07,fhrs_5_en-GB,5,,FHRS,5
215365,Wimpy 1 - 2 Chelsea House Festival Place Basingstoke Hampshire RG21 7JR,,,,Wimpy,Restaurant/Cafe/Canteen,1,10,,32999,15,,51.26389200000000,10/00018/CP,131,ehteam@basingstoke.gov.uk,Basingstoke and Deane,http://www.basingstoke.gov.uk,-1.08683400000000,RG21 7JR,2014-10-08,fhrs_2_en-GB,2,,FHRS,10
215366,Wingwah Chinese Take Away 3 Buckland Parade Basingstoke Hampshire RG22 6JW,,,,Wing Wah Chinese Take Away,Takeaway/sandwich shop,7844,10,,8855,15,,51.25029300000000,03380/0003/0/000,131,ehteam@basingstoke.gov.uk,Basingstoke and Deane,http://www.basingstoke.gov.uk,-1.11811000000000,RG22 6JW,2014-02-26,fhrs_2_en-GB,2,,FHRS,10
215367,Winklebury Junior School Willoughby Way Basingstoke Hampshire RG23 8AF,,,,Winklebury Junior School,School/college/university,7845,0,,88957,0,,51.27058200000000,23580/3000/2/000,131,ehteam@basingstoke.gov.uk,Basingstoke and Deane,http://www.basingstoke.gov.uk,-1.11608700000000,RG23 8AF,2014-03-25,fhrs_5_en-GB,5,,FHRS,5
215368,Wok-U-Like 6 The Parade Basing View Basingstoke Hampshire RG21 4EJ,,,,Wok U Like,Takeaway/sandwich shop,7844,10,,4942,10,,51.26833100000000,01460/0006/0/000,131,ehteam@basingstoke.gov.uk,Basingstoke and Deane,http://www.basingstoke.gov.uk,-1.07950700000000,RG21 4EJ,2013-10-02,fhrs_3_en-GB,3,,FHRS,10
215369,Woolton Hill Junior School Tile Barn Woolton Hill Newbury Hampshire RG20 9XE,,,,Woolton Hill County Junior School,School/college/university,7845,0,,85422,5,,51.35207400000000,21500/2032/2/000,131,ehteam@basingstoke.gov.uk,Basingstoke and Deane,http://www.basingstoke.gov.uk,-1.37907500000000,RG20 9XE,2013-05-23,fhrs_5_en-GB,5,,FHRS,0
215370,Woos Takeaway 53 Kings Road Basingstoke Hampshire RG22 6DJ,,,,Woo's Takeaway,Takeaway/sandwich shop,7844,10,,51796,15,,51.25677200000000,11630/0053/0/000,131,ehteam@basingstoke.gov.uk,Basingstoke and Deane,http://www.basingstoke.gov.uk,-1.11037600000000,RG22 6DJ,2014-05-21,fhrs_2_en-GB,2,,FHRS,10
215371,Wolverton Farm Ramsdell Road Wolverton Tadley Hampshire RG26 5SX,,,,Wyatts Butchers,Retailers - other,4613,5,,18952,5,,51.31937600000000,06/00289/CP,131,ehteam@basingstoke.gov.uk,Basingstoke and Deane,http://www.basingstoke.gov.uk,-1.20301400000000,RG26 5SX,2014-07-10,fhrs_5_en-GB,5,,FHRS,5
215372,Wyevale Garden Centre Wildmoor Lane Sherfield-on-Loddon Hook Hampshire RG27 0HL,,,,Wyevale Garden Centre,Restaurant/Cafe/Canteen,1,5,,88900,5,,51.30355800000000,23540/1000/2/000,131,ehteam@basingstoke.gov.uk,Basingstoke and Deane,http://www.basingstoke.gov.uk,-1.03005900000000,RG27 0HL,2014-09-19,fhrs_5_en-GB,5,,FHRS,5
215373,Wyke Down Inn And Country Club Picket Piece Andover Hampshire SP11 6LX,,,,Wyke Down Country Pub,Pub/bar/nightclub,7843,5,,71934,5,,51.22674100000000,16360/2003/2/000,131,ehteam@basingstoke.gov.uk,Basingstoke and Deane,http://www.basingstoke.gov.uk,-1.42411100000000,SP11 6LX,2014-05-22,fhrs_5_en-GB,5,,FHRS,0
215374,Yew Tree Farm Garden Centre Hatt Common East Woodhay Newbury Hampshire RG20 0NG,,,,Yew Tree Garden Centre Cafe,Restaurant/Cafe/Canteen,1,5,,620687,5,,51.36770100000000,13/00149/CP,131,ehteam@basingstoke.gov.uk,Basingstoke and Deane,http://www.basingstoke.gov.uk,-1.38752500000000,RG20 0NG,2013-11-28,fhrs_5_en-GB,5,,FHRS,0
215375,Public Car Park Castons Yard Basingstoke Hampshire,,,,Yildiz Fast Food Catering,Mobile caterer,7846,10,,471019,10,,,12/00150/CP,131,ehteam@basingstoke.gov.uk,Basingstoke and Deane,http://www.basingstoke.gov.uk,,,2014-05-29,fhrs_3_en-GB,3,,FHRS,5
215376,May Place House 1 May Place Basingstoke Hampshire RG21 7NX,,,,You Trust,Hotel/bed & breakfast/guest house,7842,5,,61963,0,,51.26293900000000,13650/1000/0/000,131,ehteam@basingstoke.gov.uk,Basingstoke and Deane,http://www.basingstoke.gov.uk,-1.08562000000000,RG21 7NX,2014-08-14,fhrs_5_en-GB,5,,FHRS,5
215377,Youngs Fish Bar Carpenters Down Basingstoke Hampshire RG24 9DR,,,,Youngs Fish Bar,Takeaway/sandwich shop,7844,5,,9283,10,,51.28712000000000,03940/1001/0/000,131,ehteam@basingstoke.gov.uk,Basingstoke and Deane,http://www.basingstoke.gov.uk,-1.08350500000000,RG24 9DR,2013-12-11,fhrs_4_en-GB,4,,FHRS,5
215378,Manor Farm 36 Hurstbourne Priors Whitchurch Hampshire RG28 7SE,,,,Yum Yum,Other catering premises,7841,0,,18972,0,,51.21316400000000,06/00296/CP,131,ehteam@basingstoke.gov.uk,Basingstoke and Deane,http://www.basingstoke.gov.uk,-1.37514600000000,RG28 7SE,2014-03-12,fhrs_5_en-GB,5,,FHRS,5
215379,Yummies Takeaway 3 May Place Basingstoke Hampshire RG21 7NX,,,,Yummies,Restaurant/Cafe/Canteen,1,5,,202705,10,,51.26293900000000,12/00013/CP,131,ehteam@basingstoke.gov.uk,Basingstoke and Deane,http://www.basingstoke.gov.uk,-1.08562000000000,RG21 7NX,2013-10-09,fhrs_4_en-GB,4,,FHRS,5
215380,Zizzi 1 London Street Basingstoke Hampshire RG21 7NT,,,,Zizzi,Restaurant/Cafe/Canteen,1,0,,55680,5,,51.26224700000000,12570/0001/2/000,131,ehteam@basingstoke.gov.uk,Basingstoke and Deane,http://www.basingstoke.gov.uk,-1.08576300000000,RG21 7NT,2013-09-12,fhrs_5_en-GB,5,,FHRS,0
