,addressline1,addressline2,addressline3,addressline4,businessname,businesstype,businesstypeid,confidenceinmanagement,extractdate,fhrsid,hygiene,itemcount,latitude,localauthoritybusinessid,localauthoritycode,localauthorityemailaddress,localauthorityname,localauthoritywebsite,longitude,postcode,ratingdate,ratingkey,ratingvalue,returncode,schemetype,structural
252013,163A Ash Road,Aldershot,Hampshire,,@Petite,Takeaway/sandwich shop,7844,10,,733316,5,,51.24216600000000,14/00074/HSFD,140,food@rushmoor.gov.uk,Rushmoor,http://www.rushmoor.gov.uk,-0.74407000000000,GU12 4DB,2015-01-28,fhrs_4_en-GB,4,,FHRS,5
252014,Hippodrome House,Birchett Road,Aldershot,Hampshire,1st Bowl,Restaurant/Cafe/Canteen,1,5,,46440,10,,51.24763500000000,11/00065/HSFD,140,food@rushmoor.gov.uk,Rushmoor,http://www.rushmoor.gov.uk,-0.76194500000000,GU11 1LZ,2014-03-10,fhrs_4_en-GB,4,,FHRS,5
252015,58 Union Street,Aldershot,Hampshire,,99P Store,Retailers - other,4613,10,,30389,10,,51.24930700000000,09/00187/HSFD,140,food@rushmoor.gov.uk,Rushmoor,http://www.rushmoor.gov.uk,-0.76701600000000,GU11 1EG,2013-12-09,fhrs_3_en-GB,3,,FHRS,10
252016,9 - 10 The Mead,Farnborough,Hampshire,,99P Stores,Retailers - other,4613,10,,637278,5,,51.29188400000000,13/00133/HSFD,140,food@rushmoor.gov.uk,Rushmoor,http://www.rushmoor.gov.uk,-0.75661100000000,GU14 7RT,2014-03-14,fhrs_4_en-GB,4,,FHRS,5
252017,246 North Lane,Aldershot,Hampshire,,A & A Catering,Takeaway/sandwich shop,7844,5,,13022,5,,51.25084600000000,04/02737/HSFD,140,food@rushmoor.gov.uk,Rushmoor,http://www.rushmoor.gov.uk,-0.74261500000000,GU12 4TJ,2014-02-25,fhrs_5_en-GB,5,,FHRS,5
252018,205 North Lane,Aldershot,Hampshire,,A Turner & Son,Manufacturers/packers,7839,0,,12094,5,,51.25047500000000,04/01101/HSFD,140,food@rushmoor.gov.uk,Rushmoor,http://www.rushmoor.gov.uk,-0.74315600000000,GU12 4SY,2014-02-25,fhrs_5_en-GB,5,,FHRS,5
252019,Abercorn House,Fernhill Road,Farnborough,Camberley,Abercorn House - Gracewell Healthcare,Hospitals/Childcare/Caring Premises,5,5,,479180,10,,51.31628500000000,12/00072/HSFD,140,food@rushmoor.gov.uk,Rushmoor,http://www.rushmoor.gov.uk,-0.77849400000000,GU17 9HS,2014-05-06,fhrs_4_en-GB,4,,FHRS,5
252020,Cafe,Elles Hall,Meudon Avenue,Farnborough,Age Concern,Other catering premises,7841,10,,9347,5,,51.28897700000000,04/00001/HSFD,140,food@rushmoor.gov.uk,Rushmoor,http://www.rushmoor.gov.uk,-0.75638800000000,GU14 7LE,2015-02-03,fhrs_4_en-GB,4,,FHRS,5
252021,110 Farnborough Road,Farnborough,Hampshire,,Airport Lodge,Hotel/bed & breakfast/guest house,7842,5,,47556,5,,51.28361100000000,11/00145/HSFD,140,food@rushmoor.gov.uk,Rushmoor,http://www.rushmoor.gov.uk,-0.75240400000000,GU14 6TN,2015-02-03,fhrs_5_en-GB,5,,FHRS,0
252022,38 - 40 Alexandra Road,Farnborough,Hampshire,,AJ's Pizza And Grill House,Takeaway/sandwich shop,7844,10,,692163,15,,51.27529500000000,14/00067/HSFD,140,food@rushmoor.gov.uk,Rushmoor,http://www.rushmoor.gov.uk,-0.75000500000000,GU14 6DA,2014-08-07,fhrs_2_en-GB,2,,FHRS,10
252023,15 Station Road,Aldershot,Hampshire,,Al Makkah Halal Food,Retailers - other,4613,20,,689088,15,,51.24768400000000,14/00076/HSFD,140,food@rushmoor.gov.uk,Rushmoor,http://www.rushmoor.gov.uk,-0.76147100000000,GU11 1HT,2014-07-24,fhrs_1_en-GB,1,,FHRS,10
252024,Aldershot And Fleet Rugby Club Pavi,Aldershot Park,Guildford Road,Aldershot,Aldershot & Fleet RUFC,Pub/bar/nightclub,7843,5,,189346,5,,51.23522400000000,11/00102/HSFD,140,food@rushmoor.gov.uk,Rushmoor,http://www.rushmoor.gov.uk,-0.74567700000000,GU12 4BP,2013-07-25,fhrs_5_en-GB,5,,FHRS,0
252025,137 High Street,Aldershot,Hampshire,,Aldershot Chinese Takeaway,Takeaway/sandwich shop,7844,10,,21731,10,,51.24962100000000,07/00059/HSFD,140,food@rushmoor.gov.uk,Rushmoor,http://www.rushmoor.gov.uk,-0.76012900000000,GU11 1TT,2014-02-13,fhrs_3_en-GB,3,,FHRS,10
252026,Unit 2,Blackwater Park,Aldershot,Hampshire,Aldershot College,School/college/university,7845,5,,18013,5,,51.24555700000000,06/00058/HSFD,140,food@rushmoor.gov.uk,Rushmoor,http://www.rushmoor.gov.uk,-0.73738700000000,GU12 4PQ,2014-03-05,fhrs_5_en-GB,5,,FHRS,0
252027,Victoria Road,Aldershot,Hampshire,,Aldershot Conservative Club,Pub/bar/nightclub,7843,10,,30596,5,,51.24854900000000,09/00223/HSFD,140,food@rushmoor.gov.uk,Rushmoor,http://www.rushmoor.gov.uk,-0.76243700000000,GU11 1JX,2012-12-11,fhrs_4_en-GB,4,,FHRS,5
252028,Guildford Road,Aldershot,Hampshire,,Aldershot Cricket Club,Pub/bar/nightclub,7843,5,,11557,5,,51.23522400000000,04/00728/HSFD,140,food@rushmoor.gov.uk,Rushmoor,http://www.rushmoor.gov.uk,-0.74567700000000,GU12 4BP,2014-05-30,fhrs_5_en-GB,5,,FHRS,5
252029,Church Lane East,Aldershot,Hampshire,,Aldershot Day Services,Hospitals/Childcare/Caring Premises,5,5,,10873,0,,51.24018100000000,04/00345/FOOD,140,food@rushmoor.gov.uk,Rushmoor,http://www.rushmoor.gov.uk,-0.75347800000000,GU11 3SS,2011-03-07,fhrs_5_en-GB,5,,FHRS,5
252030,31 High Street,Aldershot,Hampshire,,Aldershot Food & Wine,Retailers - other,4613,5,,45918,10,,51.24995300000000,11/00035/HSFD,140,food@rushmoor.gov.uk,Rushmoor,http://www.rushmoor.gov.uk,-0.76686900000000,GU11 1BH,2014-08-12,fhrs_3_en-GB,3,,FHRS,10
252031,93 Victoria Road,Aldershot,Hampshire,,Aldershot Fried Chicken,Takeaway/sandwich shop,7844,20,,439510,15,,51.24814400000000,12/00105/HSFD,140,food@rushmoor.gov.uk,Rushmoor,http://www.rushmoor.gov.uk,-0.76239000000000,GU11 1JE,2014-05-15,fhrs_0_en-GB,0,,FHRS,20
252032,Rawlinson Road,Aldershot,Hampshire,,Aldershot Garrison Sports Centre,Restaurant/Cafe/Canteen,1,,,692161,,,51.26589300000000,07/00001/HSFD,140,food@rushmoor.gov.uk,Rushmoor,http://www.rushmoor.gov.uk,-0.75127800000000,GU11 2LQ,2014-08-11,fhrs_exempt_en-GB,Exempt,,FHRS,
252033,153 Newport Road,Aldershot,Hampshire,,Aldershot House,Hotel/bed & breakfast/guest house,7842,5,,676365,5,,51.24270100000000,14/00038/HSFD,140,food@rushmoor.gov.uk,Rushmoor,http://www.rushmoor.gov.uk,-0.74356800000000,GU12 4PZ,2014-05-09,fhrs_5_en-GB,5,,FHRS,0
252034,Bar,Masonic Hall,Edward Street,Aldershot,Aldershot Masonic Club (Bar Only),Pub/bar/nightclub,7843,5,,29197,5,,51.24868600000000,09/00060/HSFD,140,food@rushmoor.gov.uk,Rushmoor,http://www.rushmoor.gov.uk,-0.76946800000000,GU11 3DR,2015-01-06,fhrs_5_en-GB,5,,FHRS,5
252035,Aldershot Military Historical Trust,Evelyn Woods Road,Aldershot,Hampshire,Aldershot Military Museum,Retailers - other,4613,,,12168,,,51.26979800000000,04/01184/HELA,140,food@rushmoor.gov.uk,Rushmoor,http://www.rushmoor.gov.uk,-0.75059900000000,GU11 2LG,2013-06-26,fhrs_exempt_en-GB,Exempt,,FHRS,
252036,Aldershot Pools Complex,Guildford Road,Aldershot,Hampshire,Aldershot Pools Complex - General,Restaurant/Cafe/Canteen,1,5,,11553,5,,51.23522400000000,04/00726/HSFD,140,food@rushmoor.gov.uk,Rushmoor,http://www.rushmoor.gov.uk,-0.74567700000000,GU12 4BP,2013-07-09,fhrs_5_en-GB,5,,FHRS,5
252037,314 High Street,Aldershot,Hampshire,,Aldershot Service Station,Retailers - other,4613,10,,34755,5,,51.24554200000000,10/00150/HSFD,140,food@rushmoor.gov.uk,Rushmoor,http://www.rushmoor.gov.uk,-0.75449400000000,GU12 4LT,2013-02-13,fhrs_3_en-GB,3,,FHRS,10
252038,Athletic Club,Weybourne Road,Aldershot,Hampshire,Aldershot Traction Club,Pub/bar/nightclub,7843,5,,12477,5,,51.23814600000000,04/01670/HSFD,140,food@rushmoor.gov.uk,Rushmoor,http://www.rushmoor.gov.uk,-0.76940500000000,GU11 3NE,2012-06-27,fhrs_5_en-GB,5,,FHRS,5
252039,99 Park Road,Farnborough,Hampshire,,Alex Cakes,Other catering premises,7841,10,,410495,5,,51.27910100000000,12/00058/FOOD,140,food@rushmoor.gov.uk,Rushmoor,http://www.rushmoor.gov.uk,-0.73768600000000,GU14 6LJ,2012-06-26,fhrs_4_en-GB,4,,FHRS,5
252040,61 Alexandra Road,Farnborough,Hampshire,,Alexandra Hotel,Hotel/bed & breakfast/guest house,7842,5,,9841,0,,51.27732300000000,04/00072/HSFD,140,food@rushmoor.gov.uk,Rushmoor,http://www.rushmoor.gov.uk,-0.74963500000000,GU14 6BS,2014-03-13,fhrs_5_en-GB,5,,FHRS,0
252041,,,,,All Events Ltd,Mobile caterer,7846,5,,25911,5,,,08/00156/HSFD,140,food@rushmoor.gov.uk,Rushmoor,http://www.rushmoor.gov.uk,,,2013-09-10,fhrs_5_en-GB,5,,FHRS,5
252042,All Saints Pre School,All Saints Church Hall,128 Chapel Lane,Farnborough,All Saints Pre-School,School/college/university,7845,5,,10805,5,,51.31294500000000,04/00314/HELA,140,food@rushmoor.gov.uk,Rushmoor,http://www.rushmoor.gov.uk,-0.77462300000000,GU14 9BL,2011-03-08,fhrs_5_en-GB,5,,FHRS,0
252043,Alpine Ski Centre,Gallwey Road,Aldershot,Hampshire,Alpine Snowsports,Restaurant/Cafe/Canteen,1,5,,21818,0,,51.25648900000000,07/00072/HSFD,140,food@rushmoor.gov.uk,Rushmoor,http://www.rushmoor.gov.uk,-0.74469700000000,GU11 2DD,2013-06-26,fhrs_5_en-GB,5,,FHRS,0
252044,117 Victoria Road,Aldershot,Hampshire,,AM Restaurant,Restaurant/Cafe/Canteen,1,10,,698976,10,,51.24838900000000,14/00083/HSFD,140,food@rushmoor.gov.uk,Rushmoor,http://www.rushmoor.gov.uk,-0.76430300000000,GU11 1JW,2014-09-02,fhrs_3_en-GB,3,,FHRS,10
252045,,,,,Amazing Grace Cakes,Other catering premises,7841,5,,515830,5,,,12/00168/FOOD,140,food@rushmoor.gov.uk,Rushmoor,http://www.rushmoor.gov.uk,,,2013-10-11,fhrs_5_en-GB,5,,FHRS,5
252046,66 Church Lane East,Aldershot,Hampshire,,Annie's Cupcakes,Other catering premises,7841,5,,30794,0,,51.24262900000000,09/00276/FOOD,140,food@rushmoor.gov.uk,Rushmoor,http://www.rushmoor.gov.uk,-0.76046100000000,GU11 3HB,2009-11-20,fhrs_5_en-GB,5,,FHRS,5
252047,TAG Farnborough Airport Ltd,Farnborough Airport,Farnborough Road,Farnborough,Apron Cafe,Restaurant/Cafe/Canteen,1,5,,17651,10,,51.28324600000000,06/00017/HSFD,140,food@rushmoor.gov.uk,Rushmoor,http://www.rushmoor.gov.uk,-0.77657500000000,GU14 6XA,2014-02-17,fhrs_4_en-GB,4,,FHRS,5
252048,29 Kingsmead,Farnborough,Hampshire,,Argos,Retailers - other,4613,,,12540,,,51.29176100000000,04/01782/HSFD,140,food@rushmoor.gov.uk,Rushmoor,http://www.rushmoor.gov.uk,-0.75440600000000,GU14 7SJ,2013-12-23,fhrs_exempt_en-GB,Exempt,,FHRS,
252049,43 Wellington Centre,Aldershot,Hampshire,,Argos,Retailers - other,4613,,,12841,,,51.24886500000000,04/02291/HSFD,140,food@rushmoor.gov.uk,Rushmoor,http://www.rushmoor.gov.uk,-0.76430500000000,GU11 1DB,2011-03-03,fhrs_exempt_en-GB,Exempt,,FHRS,
252050,42 Station Road,Aldershot,Hampshire,,Arian Convenience Store,Retailers - other,4613,5,,18544,5,,51.24775600000000,06/00153/HSFD,140,food@rushmoor.gov.uk,Rushmoor,http://www.rushmoor.gov.uk,-0.76146900000000,GU11 1HT,2014-02-26,fhrs_5_en-GB,5,,FHRS,5
252051,Laffans Road,Aldershot,Hampshire,,Army Golf Club,Pub/bar/nightclub,7843,5,,14868,5,,51.26752300000000,05/00063/FOOD,140,food@rushmoor.gov.uk,Rushmoor,http://www.rushmoor.gov.uk,-0.77785200000000,GU11 2HF,2014-02-18,fhrs_5_en-GB,5,,FHRS,5
252052,ASDA,Westmead,Farnborough,Hampshire,Asda Superstore,Retailers - supermarkets/hypermarkets,7840,5,,12755,5,,51.29104000000000,04/02153/HSFD,140,food@rushmoor.gov.uk,Rushmoor,http://www.rushmoor.gov.uk,-0.75760900000000,GU14 7LT,2013-09-11,fhrs_4_en-GB,4,,FHRS,10
252053,102 Farnborough Road,Farnborough,Hampshire,,Ashbee Guest House,Hotel/bed & breakfast/guest house,7842,10,,18111,5,,51.28361100000000,06/00071/HSFD,140,food@rushmoor.gov.uk,Rushmoor,http://www.rushmoor.gov.uk,-0.75240400000000,GU14 6TN,2012-01-17,fhrs_4_en-GB,4,,FHRS,5
252054,358 High Street,Aldershot,Hampshire,,Astalet Cafe,Restaurant/Cafe/Canteen,1,5,,21308,10,,51.24407500000000,07/00007/HSFD,140,food@rushmoor.gov.uk,Rushmoor,http://www.rushmoor.gov.uk,-0.75264200000000,GU12 4LU,2013-07-24,fhrs_4_en-GB,4,,FHRS,5
252055,Tesco Stores Ltd,Coffee Shop,5 Wellington Avenue,Aldershot,Avenance Plc (Tesco Cafe),Restaurant/Cafe/Canteen,1,5,,14517,5,,51.25090700000000,05/00013/HSFD,140,food@rushmoor.gov.uk,Rushmoor,http://www.rushmoor.gov.uk,-0.77716100000000,GU11 1SQ,2013-03-07,fhrs_5_en-GB,5,,FHRS,5
252056,Aviator Farnborough,55 Farnborough Road,Farnborough,Hampshire,Aviator Hotel Farnborough,Restaurant/Cafe/Canteen,1,5,,22262,5,,51.27956300000000,07/00159/HSFD,140,food@rushmoor.gov.uk,Rushmoor,http://www.rushmoor.gov.uk,-0.75479300000000,GU14 6EL,2013-05-30,fhrs_5_en-GB,5,,FHRS,5
252057,Ground Floor,The Hub Q134,Fowler Avenue,Farnborough,Aviators Cafe And Bar,Restaurant/Cafe/Canteen,1,5,,18481,5,,,06/00137/HSFD,140,food@rushmoor.gov.uk,Rushmoor,http://www.rushmoor.gov.uk,,,2013-02-28,fhrs_5_en-GB,5,,FHRS,5
252058,38A Church Lane East,Aldershot,Hampshire,,B D Convenience Store,Retailers - other,4613,10,,528930,10,,51.24294900000000,12/00129/HSFD,140,food@rushmoor.gov.uk,Rushmoor,http://www.rushmoor.gov.uk,-0.76270100000000,GU11 3BT,2014-09-01,fhrs_3_en-GB,3,,FHRS,10
252059,44 Invincible Road,Farnborough,Hampshire,,B&Q Cafe - Autograph The Food People (Initial Catering),Restaurant/Cafe/Canteen,1,5,,34439,5,,51.29163700000000,10/00117/HSFD,140,food@rushmoor.gov.uk,Rushmoor,http://www.rushmoor.gov.uk,-0.76215400000000,GU14 7ST,2014-03-21,fhrs_5_en-GB,5,,FHRS,5
252060,Concession,Aldershot Railway Station,Station Road,Aldershot,Bakewells Buffets Limited,Takeaway/sandwich shop,7844,5,,13016,0,,51.24671600000000,04/02716/HSFD,140,food@rushmoor.gov.uk,Rushmoor,http://www.rushmoor.gov.uk,-0.76085200000000,GU11 1HN,2013-08-20,fhrs_5_en-GB,5,,FHRS,5
252061,First Floor,1 Discovery Place,Columbus Drive,Farnborough,Bartlett Mitchell Ltd @ AutoDesk,Restaurant/Cafe/Canteen,1,5,,225428,5,,51.29289700000000,12/00023/HSFD,140,food@rushmoor.gov.uk,Rushmoor,http://www.rushmoor.gov.uk,-0.79500600000000,GU14 0NZ,2013-09-20,fhrs_5_en-GB,5,,FHRS,5
252062,Kitchen,Royal Pavilion,Wellesley Road,Aldershot,Baxterstorey - Computer Science Corporation,Restaurant/Cafe/Canteen,1,0,,30535,5,,,09/00211/HSFD,140,food@rushmoor.gov.uk,Rushmoor,http://www.rushmoor.gov.uk,,,2013-11-26,fhrs_5_en-GB,5,,FHRS,5
252063,Beaumont Community Centre,Beaumont Grove,Aldershot,Hampshire,Beaumont Community Preschool And Childcare Groups,Hospitals/Childcare/Caring Premises,5,5,,10288,10,,51.24951300000000,04/00163/HSFD,140,food@rushmoor.gov.uk,Rushmoor,http://www.rushmoor.gov.uk,-0.77545000000000,GU11 1QJ,2014-06-11,fhrs_4_en-GB,4,,FHRS,5
252064,Beaumont Village,Alexandra Road,Aldershot,Hampshire,Beaumont Village (Aldershot),Hospitals/Childcare/Caring Premises,5,5,,13017,5,,51.24953700000000,04/02723/FOOD,140,food@rushmoor.gov.uk,Rushmoor,http://www.rushmoor.gov.uk,-0.77347200000000,GU11 1BB,2013-12-05,fhrs_5_en-GB,5,,FHRS,0
252065,25 Bracklesham Close,Farnborough,Hampshire,,Beech Diner,Mobile caterer,7846,5,,698974,10,,51.30678700000000,14/00030/FOOD,140,food@rushmoor.gov.uk,Rushmoor,http://www.rushmoor.gov.uk,-0.76196100000000,GU14 8LP,2014-08-20,fhrs_4_en-GB,4,,FHRS,0
252066,Belle Vue Road,Aldershot,Hampshire,,Belle Vue Infants School,School/college/university,7845,0,,10316,5,,51.24795400000000,04/00168/HSFD,140,food@rushmoor.gov.uk,Rushmoor,http://www.rushmoor.gov.uk,-0.74372600000000,GU12 4RZ,2013-06-04,fhrs_5_en-GB,5,,FHRS,5
252067,71 Lynchford Road,Farnborough,Hampshire,,Belly Busters,Takeaway/sandwich shop,7844,5,,11935,10,,51.27480000000000,04/00964/HSFD,140,food@rushmoor.gov.uk,Rushmoor,http://www.rushmoor.gov.uk,-0.74827000000000,GU14 6EJ,2014-02-20,fhrs_4_en-GB,4,,FHRS,5
252068,The Bengal Lancer,354 High Street,Aldershot,Hampshire,Bengal Lancer,Restaurant/Cafe/Canteen,1,10,,11821,5,,51.24407500000000,04/00870/HSFD,140,food@rushmoor.gov.uk,Rushmoor,http://www.rushmoor.gov.uk,-0.75264200000000,GU12 4LU,2014-06-12,fhrs_3_en-GB,3,,FHRS,10
252069,176 Queens Road,Farnborough,Hampshire,,Bethney's,Retailers - other,4613,5,,12185,5,,51.27786100000000,04/01227/HSFD,140,food@rushmoor.gov.uk,Rushmoor,http://www.rushmoor.gov.uk,-0.73862300000000,GU14 6LF,2013-07-17,fhrs_4_en-GB,4,,FHRS,10
252070,First Floor,67 Albert Road,Farnborough,Hampshire,Bevan Lodge Community Pre-School,School/college/university,7845,10,,609215,5,,51.28390900000000,04/00007/HELA,140,food@rushmoor.gov.uk,Rushmoor,http://www.rushmoor.gov.uk,-0.74581400000000,GU14 6SL,2013-11-13,fhrs_4_en-GB,4,,FHRS,0
252071,9A - 11A High Street,Aldershot,Hampshire,,Bhetghat Gurkha Restaurant,Restaurant/Cafe/Canteen,1,5,,588784,10,,51.24995300000000,13/00115/HSFD,140,food@rushmoor.gov.uk,Rushmoor,http://www.rushmoor.gov.uk,-0.76686900000000,GU11 1BH,2013-09-06,fhrs_3_en-GB,3,,FHRS,10
252072,Mobile Trader,Hollybush Lane,Aldershot,Hampshire,Big Burger Break,Mobile caterer,7846,10,,47892,5,,51.26894800000000,11/00184/FOOD,140,food@rushmoor.gov.uk,Rushmoor,http://www.rushmoor.gov.uk,-0.73434600000000,,2014-12-10,fhrs_4_en-GB,4,,FHRS,5
252073,179 Lynchford Road,Farnborough,Hampshire,,Big Fry,Takeaway/sandwich shop,7844,5,,29412,5,,51.27536900000000,09/00079/HSFD,140,food@rushmoor.gov.uk,Rushmoor,http://www.rushmoor.gov.uk,-0.74264900000000,GU14 6HD,2014-01-14,fhrs_5_en-GB,5,,FHRS,5
252074,Mobile Trader,Car Park Unit 6,Blackwater Park,Aldershot,Bigger Better Butties,Mobile caterer,7846,5,,528945,5,,,13/00045/FOOD,140,food@rushmoor.gov.uk,Rushmoor,http://www.rushmoor.gov.uk,,,2014-09-24,fhrs_5_en-GB,5,,FHRS,5
252075,17 Camp Road,Farnborough,Hampshire,,BJ's News,Retailers - other,4613,5,,10593,5,,51.27570300000000,04/00245/HSFD,140,food@rushmoor.gov.uk,Rushmoor,http://www.rushmoor.gov.uk,-0.74784400000000,GU14 6EN,2015-01-29,fhrs_4_en-GB,4,,FHRS,10
252076,74 Queens Road,Aldershot,Hampshire,,Blossom House,Hotel/bed & breakfast/guest house,7842,5,,12195,5,,51.24730100000000,04/01248/HSFD,140,food@rushmoor.gov.uk,Rushmoor,http://www.rushmoor.gov.uk,-0.77287200000000,GU11 3JU,2013-01-02,fhrs_4_en-GB,4,,FHRS,10
252077,67 Avenue Road,Farnborough,Hampshire,,Blue Cedars,Hospitals/Childcare/Caring Premises,5,5,,29979,10,,51.28907900000000,09/00131/HELA,140,food@rushmoor.gov.uk,Rushmoor,http://www.rushmoor.gov.uk,-0.74491300000000,GU14 7BH,2013-07-05,fhrs_4_en-GB,4,,FHRS,5
252078,29 High Street,Aldershot,Hampshire,,Bodrum Grill,Restaurant/Cafe/Canteen,1,10,,637275,10,,51.24995300000000,13/00116/HSFD,140,food@rushmoor.gov.uk,Rushmoor,http://www.rushmoor.gov.uk,-0.76686900000000,GU11 1BH,2014-02-26,fhrs_4_en-GB,4,,FHRS,0
252079,42 Grosvenor Road,Aldershot,Hampshire,,Bombay Balti Tandoori,Takeaway/sandwich shop,7844,5,,11491,5,,51.24706400000000,04/00693/HSFD,140,food@rushmoor.gov.uk,Rushmoor,http://www.rushmoor.gov.uk,-0.76663100000000,GU11 3DY,2014-03-21,fhrs_4_en-GB,4,,FHRS,10
252080,Booker Cash And Carry,Blackwater Way,Aldershot,Hampshire,Booker Cash & Carry,Distributors/Transporters,7,5,,12696,10,,51.24025600000000,04/02062/HSFD,140,food@rushmoor.gov.uk,Rushmoor,http://www.rushmoor.gov.uk,-0.74205900000000,GU12 4DX,2013-02-13,fhrs_4_en-GB,4,,FHRS,5
252081,Farnborough College Of Technology,Boundary Road,Farnborough,Hampshire,Bookworms Nursery,Hospitals/Childcare/Caring Premises,5,0,,10391,0,,51.28576200000000,04/00187/FOOD,140,food@rushmoor.gov.uk,Rushmoor,http://www.rushmoor.gov.uk,-0.75089700000000,GU14 6SB,2014-10-13,fhrs_5_en-GB,5,,FHRS,0
252082,28 - 29 Princes Mead,Farnborough,Hampshire,,Boots The Chemist,Retailers - other,4613,0,,12744,5,,51.29196100000000,04/02143/HSFD,140,food@rushmoor.gov.uk,Rushmoor,http://www.rushmoor.gov.uk,-0.75798600000000,GU14 6YA,2014-09-16,fhrs_5_en-GB,5,,FHRS,5
252083,39 - 40 Wellington Centre,Aldershot,Hampshire,,Boots The Chemist,Retailers - other,4613,0,,12834,0,,51.24886500000000,04/02282/HSFD,140,food@rushmoor.gov.uk,Rushmoor,http://www.rushmoor.gov.uk,-0.76430500000000,GU11 1DB,2014-02-13,fhrs_5_en-GB,5,,FHRS,5
252084,5 Blackwater Shopping Park,Farnborough Gate,Farnborough,Hampshire,Boots The Chemist,Retailers - other,4613,0,,34475,0,,51.30753700000000,10/00120/HSFD,140,food@rushmoor.gov.uk,Rushmoor,http://www.rushmoor.gov.uk,-0.74878500000000,GU14 8BL,2013-11-21,fhrs_5_en-GB,5,,FHRS,5
252085,87 Lynchford Road,Farnborough,Hampshire,,Boots The Chemist,Retailers - other,4613,,,11944,,,51.27503700000000,04/00971/HSFD,140,food@rushmoor.gov.uk,Rushmoor,http://www.rushmoor.gov.uk,-0.74605500000000,GU14 6ET,2014-01-16,fhrs_exempt_en-GB,Exempt,,FHRS,
252086,56 - 58 Grosvenor Road,Aldershot,Hampshire,,Booze Booze Booze,Retailers - other,4613,10,,30813,10,,51.24644800000000,09/00282/HSFD,140,food@rushmoor.gov.uk,Rushmoor,http://www.rushmoor.gov.uk,-0.76614600000000,GU11 3EA,2013-03-26,fhrs_3_en-GB,3,,FHRS,5
252087,22 Queens Road,Farnborough,Hampshire,,Bottle & Basket,Retailers - other,4613,,,12178,,,51.27685900000000,04/01203/HSFD,140,food@rushmoor.gov.uk,Rushmoor,http://www.rushmoor.gov.uk,-0.74832800000000,GU14 6DN,2014-12-19,fhrs_exempt_en-GB,Exempt,,FHRS,
252088,18 Boxalls Lane,Aldershot,Hampshire,,Boxalls Lane Mini Market,Retailers - other,4613,10,,25371,10,,51.23609200000000,08/00075/HSFD,140,food@rushmoor.gov.uk,Rushmoor,http://www.rushmoor.gov.uk,-0.76139600000000,GU11 3QJ,2014-01-14,fhrs_3_en-GB,3,,FHRS,10
252089,130 Newport Road,Aldershot,Hampshire,,Bradshaws Fish Bar,Takeaway/sandwich shop,7844,10,,29295,10,,51.24347100000000,09/00069/HSFD,140,food@rushmoor.gov.uk,Rushmoor,http://www.rushmoor.gov.uk,-0.74498000000000,GU12 4PY,2013-04-17,fhrs_3_en-GB,3,,FHRS,10
252090,89 Rectory Road,Farnborough,Hampshire,,Bran Stores,Retailers - other,4613,10,,401581,5,,51.29491300000000,12/00034/HSFD,140,food@rushmoor.gov.uk,Rushmoor,http://www.rushmoor.gov.uk,-0.74303300000000,GU14 7HY,2012-05-31,fhrs_3_en-GB,3,,FHRS,10
252091,Farnborough Grange Nursery And Infa,Moor Road,Farnborough,Hampshire,Breakfast And After School Club,School/college/university,7845,5,,29616,0,,51.31221100000000,09/00095/HSFD,140,food@rushmoor.gov.uk,Rushmoor,http://www.rushmoor.gov.uk,-0.76218800000000,GU14 8HW,2014-05-19,fhrs_5_en-GB,5,,FHRS,5
252092,Cove County Infant School,Fernhill Road,Farnborough,Hampshire,Breakfast Club,School/college/university,7845,10,,401585,5,,51.30102400000000,12/00061/FOOD,140,food@rushmoor.gov.uk,Rushmoor,http://www.rushmoor.gov.uk,-0.77832600000000,GU14 9DP,2012-06-14,fhrs_4_en-GB,4,,FHRS,5
252093,St Patricks Catholic Primary School,Avenue Road,Farnborough,Hampshire,Breakfast Club,School/college/university,7845,5,,30566,5,,51.29257300000000,09/00216/FOOD,140,food@rushmoor.gov.uk,Rushmoor,http://www.rushmoor.gov.uk,-0.74616600000000,GU14 7BW,2012-07-17,fhrs_4_en-GB,4,,FHRS,10
252094,Tower Hill Community Primary School,Fowler Road,Farnborough,Hampshire,Breakfast Club,School/college/university,7845,10,,34856,10,,51.28838100000000,10/00162/HSFD,140,food@rushmoor.gov.uk,Rushmoor,http://www.rushmoor.gov.uk,-0.77064500000000,GU14 0BW,2013-12-12,fhrs_4_en-GB,4,,FHRS,0
252095,9 Bridge Road,Farnborough,Hampshire,,Bridge Road Cafe,Restaurant/Cafe/Canteen,1,5,,698977,10,,51.29245700000000,14/00085/HSFD,140,food@rushmoor.gov.uk,Rushmoor,http://www.rushmoor.gov.uk,-0.77002000000000,GU14 0HT,2014-08-28,fhrs_4_en-GB,4,,FHRS,5
252096,Blunden Hall,Blunden Road,Farnborough,Hampshire,Brookside Pre-School,Hospitals/Childcare/Caring Premises,5,5,,10385,0,,51.29709600000000,04/00184/HELA,140,food@rushmoor.gov.uk,Rushmoor,http://www.rushmoor.gov.uk,-0.77451700000000,,2011-03-25,fhrs_5_en-GB,5,,FHRS,5
252097,42 Giffard Drive,Farnborough,Hampshire,,Buddha House,Takeaway/sandwich shop,7844,5,,521390,5,,51.29881000000000,13/00034/HSFD,140,food@rushmoor.gov.uk,Rushmoor,http://www.rushmoor.gov.uk,-0.77043800000000,GU14 8PX,2014-10-23,fhrs_4_en-GB,4,,FHRS,10
252098,26 - 28 Station Road,Aldershot,Hampshire,,Buddha Store,Retailers - other,4613,10,,554651,10,,51.24775600000000,13/00067/HSFD,140,food@rushmoor.gov.uk,Rushmoor,http://www.rushmoor.gov.uk,-0.76146900000000,GU11 1HT,2013-06-05,fhrs_3_en-GB,3,,FHRS,10
252099,197A North Lane,Aldershot,Hampshire,,Bulldog Cafe,Restaurant/Cafe/Canteen,1,10,,626293,10,,51.25047500000000,13/00134/HSFD,140,food@rushmoor.gov.uk,Rushmoor,http://www.rushmoor.gov.uk,-0.74315600000000,GU12 4SY,2014-01-21,fhrs_3_en-GB,3,,FHRS,5
252100,1 Wellington Avenue,Aldershot,Hampshire,,Burger King,Restaurant/Cafe/Canteen,1,5,,12426,5,,51.25055300000000,04/01617/FOOD,140,food@rushmoor.gov.uk,Rushmoor,http://www.rushmoor.gov.uk,-0.76236800000000,GU11 1SD,2013-09-03,fhrs_5_en-GB,5,,FHRS,5
252101,Burger Bar - Lower Level,Food Court,42 Princes Mead,Farnborough,Burger King,Restaurant/Cafe/Canteen,1,5,,25263,5,,51.29196100000000,08/00061/HSFD,140,food@rushmoor.gov.uk,Rushmoor,http://www.rushmoor.gov.uk,-0.75798600000000,GU14 6YA,2014-01-16,fhrs_4_en-GB,4,,FHRS,10
252102,Building Q170,O'Gorman Avenue,Farnborough,Hampshire,Busy Bees Farnborough Q,Hospitals/Childcare/Caring Premises,5,5,,298502,10,,51.28545400000000,11/00163/HSFD,140,food@rushmoor.gov.uk,Rushmoor,http://www.rushmoor.gov.uk,-0.75831900000000,GU14 7DL,2014-08-29,fhrs_4_en-GB,4,,FHRS,5
252103,,,,,Buttercupdream Cakes,Other catering premises,7841,10,,580856,0,,,13/00098/FOOD,140,food@rushmoor.gov.uk,Rushmoor,http://www.rushmoor.gov.uk,,,2013-08-23,fhrs_4_en-GB,4,,FHRS,0
252104,86 Queensmead,Farnborough,Hampshire,,Cafe Deli,Restaurant/Cafe/Canteen,1,5,,14434,5,,51.29110300000000,05/00001/HSFD,140,food@rushmoor.gov.uk,Rushmoor,http://www.rushmoor.gov.uk,-0.75587200000000,GU14 7SE,2014-03-20,fhrs_5_en-GB,5,,FHRS,5
252105,Retail Unit,Farnborough Railway Station,Union Street,Farnborough,Cafe Destino,Restaurant/Cafe/Canteen,1,10,,196013,5,,51.29666400000000,12/00022/HSFD,140,food@rushmoor.gov.uk,Rushmoor,http://www.rushmoor.gov.uk,-0.75543500000000,GU14 7NL,2013-09-18,fhrs_4_en-GB,4,,FHRS,5
252106,7 Union Street,Aldershot,Hampshire,,Caffe Macchiato,Restaurant/Cafe/Canteen,1,0,,13010,5,,51.24930700000000,04/02690/FOOD,140,food@rushmoor.gov.uk,Rushmoor,http://www.rushmoor.gov.uk,-0.76701600000000,GU11 1EG,2013-08-19,fhrs_5_en-GB,5,,FHRS,5
252107,Greenacre,13 Orchard Road,Farnborough,Hampshire,Cake Indulgence,Other catering premises,7841,5,,21678,0,,51.29363700000000,07/00051/HSFD,140,food@rushmoor.gov.uk,Rushmoor,http://www.rushmoor.gov.uk,-0.76251600000000,GU14 7PR,2015-01-23,fhrs_5_en-GB,5,,FHRS,5
252108,3 Lee Court,Aldershot,Hampshire,,Cakemaker For Guildford W.I.,Other catering premises,7841,5,,11893,0,,51.24064700000000,04/00922/FOOD,140,food@rushmoor.gov.uk,Rushmoor,http://www.rushmoor.gov.uk,-0.75504200000000,GU11 3SY,2014-05-27,fhrs_5_en-GB,5,,FHRS,5
252109,2 Hope Way,Aldershot,Hampshire,,Cakes By Helen Louise,Retailers - other,4613,,,509158,,,51.25170600000000,12/00120/FOOD,140,food@rushmoor.gov.uk,Rushmoor,http://www.rushmoor.gov.uk,-0.77110700000000,GU11 1AF,2013-02-06,fhrs_exempt_en-GB,Exempt,,FHRS,
252110,,,,,Cakes Co,Other catering premises,7841,10,,574492,5,,,13/00099/FOOD,140,food@rushmoor.gov.uk,Rushmoor,http://www.rushmoor.gov.uk,,,2013-07-17,fhrs_4_en-GB,4,,FHRS,5
252111,313 Woodland Walk,Aldershot,Hampshire,,Cakes Victoria,Other catering premises,7841,10,,225432,5,,51.25243600000000,11/00157/FOOD,140,food@rushmoor.gov.uk,Rushmoor,http://www.rushmoor.gov.uk,-0.74155500000000,GU12 4FY,2012-03-12,fhrs_4_en-GB,4,,FHRS,5
252112,78 Abbey Way,Farnborough,Hampshire,,Cakeywakeywoo,Other catering premises,7841,10,,410498,5,,51.29427000000000,12/00065/FOOD,140,food@rushmoor.gov.uk,Rushmoor,http://www.rushmoor.gov.uk,-0.74683700000000,GU14 7DF,2012-07-03,fhrs_4_en-GB,4,,FHRS,5
252113,48A Union Street,Aldershot,Hampshire,,Card Factory,Retailers - other,4613,,,401579,,,51.24961300000000,09/00072/HELA,140,food@rushmoor.gov.uk,Rushmoor,http://www.rushmoor.gov.uk,-0.76531700000000,GU11 1EW,2012-06-15,fhrs_exempt_en-GB,Exempt,,FHRS,
252114,66 Queensmead,Farnborough,Hampshire,,Card Factory,Retailers - other,4613,,,349105,,,51.29168200000000,08/00197/HELA,140,food@rushmoor.gov.uk,Rushmoor,http://www.rushmoor.gov.uk,-0.75627200000000,GU14 7SB,2012-04-27,fhrs_exempt_en-GB,Exempt,,FHRS,
252115,102 - 104 Chapel Lane,Farnborough,Hampshire,,Chapel Lane Pharmacy,Retailers - other,4613,,,30830,,,51.31298900000000,09/00288/HSFD,140,food@rushmoor.gov.uk,Rushmoor,http://www.rushmoor.gov.uk,-0.77456400000000,GU14 9BL,2012-09-07,fhrs_exempt_en-GB,Exempt,,FHRS,
252116,6 Bridge Road,Farnborough,Hampshire,,Chemist Bridge Road,Retailers - other,4613,,,10442,,,51.29250400000000,04/00200/HSFD,140,food@rushmoor.gov.uk,Rushmoor,http://www.rushmoor.gov.uk,-0.76938700000000,GU14 0HS,2011-03-21,fhrs_exempt_en-GB,Exempt,,FHRS,
252117,Owls Childrens Centre,Mayfield Road,Farnborough,Hampshire,Cherrywood Community Childcare,Hospitals/Childcare/Caring Premises,5,10,,34548,5,,51.30336000000000,10/00126/HSFD,140,food@rushmoor.gov.uk,Rushmoor,http://www.rushmoor.gov.uk,-0.76102100000000,GU14 8LH,2013-12-10,fhrs_4_en-GB,4,,FHRS,5
252118,224 Mayfield Road,Farnborough,Hampshire,,Cherrywood Community Primary School,School/college/university,7845,5,,12008,5,,51.30336000000000,04/01043/HSFD,140,food@rushmoor.gov.uk,Rushmoor,http://www.rushmoor.gov.uk,-0.76102100000000,GU14 8LH,2013-07-16,fhrs_5_en-GB,5,,FHRS,5
252119,118 Cove Road,Farnborough,Hampshire,,Cherubs,Hospitals/Childcare/Caring Premises,5,5,,578459,10,,51.29327300000000,06/00161/HSFD,140,food@rushmoor.gov.uk,Rushmoor,http://www.rushmoor.gov.uk,-0.77147500000000,GU14 0HG,2014-08-22,fhrs_4_en-GB,4,,FHRS,5
252120,254 High Street,Aldershot,Hampshire,,China Rose,Takeaway/sandwich shop,7844,10,,452527,20,,51.24671800000000,12/00124/HSFD,140,food@rushmoor.gov.uk,Rushmoor,http://www.rushmoor.gov.uk,-0.75515000000000,GU12 4LP,2014-07-02,fhrs_1_en-GB,1,,FHRS,10
252121,4 Grosvenor Road,Aldershot,Hampshire,,Chip Stop,Takeaway/sandwich shop,7844,10,,682544,10,,51.24918000000000,14/00071/HSFD,140,food@rushmoor.gov.uk,Rushmoor,http://www.rushmoor.gov.uk,-0.76770700000000,GU11 1DP,2014-07-02,fhrs_3_en-GB,3,,FHRS,10
252122,St Peters Parish Centre,60 Church Avenue,Farnborough,Hampshire,Church Hall And Parish Centre,Restaurant/Cafe/Canteen,1,5,,10820,0,,51.29226700000000,04/00323/HSFD,140,food@rushmoor.gov.uk,Rushmoor,http://www.rushmoor.gov.uk,-0.75041900000000,GU14 7AP,2014-07-04,fhrs_5_en-GB,5,,FHRS,0
252123,82 Church Road,Aldershot,Hampshire,,Church Road Londis,Retailers - other,4613,10,,528936,5,,51.23796700000000,12/00163/HSFD,140,food@rushmoor.gov.uk,Rushmoor,http://www.rushmoor.gov.uk,-0.75252100000000,GU11 3PS,2013-03-25,fhrs_3_en-GB,3,,FHRS,10
252124,35 Church Road,Aldershot,Hampshire,,Church Road Post Office,Retailers - other,4613,5,,10883,5,,51.23817700000000,04/00349/HSFD,140,food@rushmoor.gov.uk,Rushmoor,http://www.rushmoor.gov.uk,-0.75194200000000,GU11 3PR,2012-10-24,fhrs_5_en-GB,5,,FHRS,0
252125,1 Westgate,Aldershot,Hampshire,,Cineworld,Retailers - other,4613,0,,521381,5,,,12/00132/HSFD,140,food@rushmoor.gov.uk,Rushmoor,http://www.rushmoor.gov.uk,,GU11 1WG,2013-03-08,fhrs_5_en-GB,5,,FHRS,0
252126,3 Firgrove Parade,Farnborough,Hampshire,,City Cash & Carry,Retailers - other,4613,10,,718561,10,,51.29363100000000,14/00110/HSFD,140,food@rushmoor.gov.uk,Rushmoor,http://www.rushmoor.gov.uk,-0.75428300000000,GU14 7RE,2014-11-18,fhrs_3_en-GB,3,,FHRS,10
252127,19 Churchill Crescent,Farnborough,Hampshire,,City Store,Retailers - other,4613,20,,733318,15,,51.31069500000000,15/00009/HSFD,140,food@rushmoor.gov.uk,Rushmoor,http://www.rushmoor.gov.uk,-0.75740800000000,GU14 8EL,2015-01-21,fhrs_1_en-GB,1,,FHRS,15
252128,Masonic Hall,Edward Street,Aldershot,Hampshire,Classical Dining Of Farnborough,Pub/bar/nightclub,7843,5,,25593,5,,51.24868600000000,08/00105/HSFD,140,food@rushmoor.gov.uk,Rushmoor,http://www.rushmoor.gov.uk,-0.76946800000000,GU11 3DR,2014-06-11,fhrs_5_en-GB,5,,FHRS,5
252129,35 - 41 Alexandra Road,Farnborough,Hampshire,,Classical Dining Of Farnborough (Farnborough Masonic Centre),Other catering premises,7841,5,,33962,0,,51.27678825000000,10/00078/HSFD,140,food@rushmoor.gov.uk,Rushmoor,http://www.rushmoor.gov.uk,-0.74995808000000,,2014-08-26,fhrs_5_en-GB,5,,FHRS,0
252130,27 - 28 Wellington Centre,Aldershot,Hampshire,,Clinton Cards,Retailers - other,4613,,,12829,,,51.24886500000000,04/02276/HSFD,140,food@rushmoor.gov.uk,Rushmoor,http://www.rushmoor.gov.uk,-0.76430500000000,GU11 1DB,2014-12-05,fhrs_exempt_en-GB,Exempt,,FHRS,
252131,37 Princes Mead,Farnborough,Hampshire,,Clinton Cards,Retailers - other,4613,,,12752,,,51.29196100000000,04/02149/HSFD,140,food@rushmoor.gov.uk,Rushmoor,http://www.rushmoor.gov.uk,-0.75798600000000,GU14 6YA,2014-12-05,fhrs_exempt_en-GB,Exempt,,FHRS,
252132,Clocktower House Pre-school,Redvers Buller Road,Aldershot,Hampshire,Clock Tower House Pre-School - Ground Floor,School/college/university,7845,5,,12170,5,,51.26075600000000,04/01188/NEBR,140,food@rushmoor.gov.uk,Rushmoor,http://www.rushmoor.gov.uk,-0.75864000000000,GU11 2BY,2013-12-10,fhrs_5_en-GB,5,,FHRS,5
252133,Farnborough Baptist Church,Queens Road,Farnborough,Hampshire,Club Connect,Other catering premises,7841,5,,452524,0,,51.27733900000000,12/00044/HSFD,140,food@rushmoor.gov.uk,Rushmoor,http://www.rushmoor.gov.uk,-0.74199900000000,,2014-09-18,fhrs_5_en-GB,5,,FHRS,5
252134,Linden Education Centre,Queens Road,Farnborough,Hampshire,Club Connect,School/college/university,7845,5,,701447,0,,51.27784000000000,14/00092/HSFD,140,food@rushmoor.gov.uk,Rushmoor,http://www.rushmoor.gov.uk,-0.74249500000000,GU14 6JU,2014-09-18,fhrs_5_en-GB,5,,FHRS,5
252135,,,,,Club Connect,Other catering premises,7841,5,,701443,0,,,12/00043/FOOD,140,food@rushmoor.gov.uk,Rushmoor,http://www.rushmoor.gov.uk,,,2014-09-18,fhrs_5_en-GB,5,,FHRS,0
252136,56 Netley Street,Farnborough,Hampshire,,Colebrook Guest House,Hotel/bed & breakfast/guest house,7842,5,,12045,5,,51.27604300000000,04/01069/HSFD,140,food@rushmoor.gov.uk,Rushmoor,http://www.rushmoor.gov.uk,-0.75437200000000,GU14 6AT,2015-01-06,fhrs_5_en-GB,5,,FHRS,5
252137,Mons Barracks,Princes Avenue,Aldershot,Hampshire,Combined Mess,Restaurant/Cafe/Canteen,1,5,,30036,10,,51.26406800000000,09/00138/FOOD,140,food@rushmoor.gov.uk,Rushmoor,http://www.rushmoor.gov.uk,-0.74457700000000,GU11 2LF,2014-02-17,fhrs_4_en-GB,4,,FHRS,5
252138,St Omer Barracks,Thornhill Road,Aldershot,Hampshire,Combined Mess,Restaurant/Cafe/Canteen,1,5,,35034,5,,51.25967800000000,10/00179/HSFD,140,food@rushmoor.gov.uk,Rushmoor,http://www.rushmoor.gov.uk,-0.74547100000000,,2014-02-17,fhrs_5_en-GB,5,,FHRS,0
252139,King George V Pavilion,Sycamore Road,Farnborough,Hampshire,Community Playscheme,Hospitals/Childcare/Caring Premises,5,,,448327,,,51.05880355834960,12/00114/FOOD,140,food@rushmoor.gov.uk,Rushmoor,http://www.rushmoor.gov.uk,-1.28533124923706,,2012-08-02,fhrs_exempt_en-GB,Exempt,,FHRS,
252140,Wavell Cody Community Campus,Lynchford Road,Farnborough,Hampshire,Community Playscheme,Hospitals/Childcare/Caring Premises,5,,,448326,,,51.27940900000000,12/00113/FOOD,140,food@rushmoor.gov.uk,Rushmoor,http://www.rushmoor.gov.uk,-0.74960700000000,GU14 6BN,2012-08-02,fhrs_exempt_en-GB,Exempt,,FHRS,
252141,First Floor,115 - 117 Farnborough Road,Farnborough,Hampshire,Compass @ Defra,Restaurant/Cafe/Canteen,1,5,,22245,5,,51.28691900000000,07/00156/HSFD,140,food@rushmoor.gov.uk,Rushmoor,http://www.rushmoor.gov.uk,-0.75396300000000,GU14 7JG,2013-05-17,fhrs_5_en-GB,5,,FHRS,0
252142,Meudon House,Meudon Avenue,Farnborough,Hampshire,Compass At IBM,Restaurant/Cafe/Canteen,1,5,,12665,5,,51.28783600000000,04/01981/HSFD,140,food@rushmoor.gov.uk,Rushmoor,http://www.rushmoor.gov.uk,-0.75564500000000,GU14 7NB,2013-09-04,fhrs_5_en-GB,5,,FHRS,5
252143,140 Pinehurst Road,Farnborough,Hampshire,,Compass Catering @ Fluor,Other catering premises,7841,0,,34598,5,,51.28568000000000,10/00132/HSFD,140,food@rushmoor.gov.uk,Rushmoor,http://www.rushmoor.gov.uk,-0.76098000000000,GU14 7BF,2013-12-09,fhrs_5_en-GB,5,,FHRS,0
252144,Staff Canteen,Tesco,5 Wellington Avenue,Aldershot,Compass Group UK & Ireland,Restaurant/Cafe/Canteen,1,5,,709243,5,,51.25090700000000,14/00087/HSFD,140,food@rushmoor.gov.uk,Rushmoor,http://www.rushmoor.gov.uk,-0.77716100000000,GU11 1SQ,2014-09-26,fhrs_5_en-GB,5,,FHRS,0
252145,North Farnborough County Infant Sch,Rectory Road,Farnborough,Hampshire,Conker Club,School/college/university,7845,10,,726693,5,,51.29942400000000,14/00114/FOOD,140,food@rushmoor.gov.uk,Rushmoor,http://www.rushmoor.gov.uk,-0.74278100000000,GU14 8AJ,2014-12-12,fhrs_4_en-GB,4,,FHRS,5
252146,3 Queens Road,Farnborough,Hampshire,,Co-op,Retailers - supermarkets/hypermarkets,7840,10,,584559,10,,51.27648200000000,13/00083/HSFD,140,food@rushmoor.gov.uk,Rushmoor,http://www.rushmoor.gov.uk,-0.74832400000000,GU14 6DJ,2013-09-13,fhrs_3_en-GB,3,,FHRS,10
252147,173 - 175 North Lane,Aldershot,Hampshire,,Co-op Welcome,Retailers - other,4613,10,,12965,5,,51.25047500000000,04/02551/HSFD,140,food@rushmoor.gov.uk,Rushmoor,http://www.rushmoor.gov.uk,-0.74315600000000,GU12 4SY,2013-01-14,fhrs_4_en-GB,4,,FHRS,5
252148,318 - 320 Fernhill Road,Farnborough,Hampshire,,Co-operative Food,Retailers - other,4613,5,,14904,5,,51.31218900000000,05/00067/HSFD,140,food@rushmoor.gov.uk,Rushmoor,http://www.rushmoor.gov.uk,-0.77635000000000,GU14 9EF,2014-05-28,fhrs_4_en-GB,4,,FHRS,10
252149,1A Blackwater Shopping Park,Farnborough Gate,Farnborough,Hampshire,Costa Coffee,Restaurant/Cafe/Canteen,1,0,,439506,5,,51.30753700000000,12/00031/HSFD,140,food@rushmoor.gov.uk,Rushmoor,http://www.rushmoor.gov.uk,-0.74878500000000,GU14 8BL,2014-01-15,fhrs_5_en-GB,5,,FHRS,0
252150,49 - 51 Union Street,Aldershot,Hampshire,,Costa Coffee,Restaurant/Cafe/Canteen,1,0,,21603,10,,51.24932700000000,07/00041/HSFD,140,food@rushmoor.gov.uk,Rushmoor,http://www.rushmoor.gov.uk,-0.76541000000000,GU11 1EP,2014-10-22,fhrs_4_en-GB,4,,FHRS,10
252151,Food Court,42 Princes Mead,Farnborough,Hampshire,Costa Coffee,Restaurant/Cafe/Canteen,1,5,,21362,10,,,07/00013/HSFD,140,food@rushmoor.gov.uk,Rushmoor,http://www.rushmoor.gov.uk,,,2014-12-05,fhrs_3_en-GB,3,,FHRS,10
252152,2 Templer Avenue,Farnborough,Hampshire,,Costco Wholesale,Retailers - other,4613,5,,578460,5,,51.28214600000000,13/00072/HSFD,140,food@rushmoor.gov.uk,Rushmoor,http://www.rushmoor.gov.uk,-0.76856000000000,GU14 6FE,2013-08-13,fhrs_5_en-GB,5,,FHRS,0
252153,201 Mayfield Road,Farnborough,Hampshire,,Costcutter,Retailers - other,4613,10,,12007,5,,51.30465500000000,04/01042/HSFD,140,food@rushmoor.gov.uk,Rushmoor,http://www.rushmoor.gov.uk,-0.76276500000000,GU14 8UB,2014-01-17,fhrs_4_en-GB,4,,FHRS,0
252154,43 Station Road,Aldershot,Hampshire,,Countrymans Pizzeria,Restaurant/Cafe/Canteen,1,5,,521379,5,,51.24882800000000,12/00090/HSFD,140,food@rushmoor.gov.uk,Rushmoor,http://www.rushmoor.gov.uk,-0.76165500000000,GU11 1BA,2013-03-11,fhrs_5_en-GB,5,,FHRS,0
252155,Cove Bowling Club,53 Horn Road,Farnborough,Hampshire,Cove / Horn Road Bowling Club,Other catering premises,7841,10,,11876,5,,51.29759500000000,04/00910/HSFD,140,food@rushmoor.gov.uk,Rushmoor,http://www.rushmoor.gov.uk,-0.77553400000000,GU14 8RW,2012-12-14,fhrs_4_en-GB,4,,FHRS,0
252156,Fernhill Road,Farnborough,Hampshire,,Cove County Junior School,School/college/university,7845,0,,11391,5,,51.29900100000000,04/00617/FOOD,140,food@rushmoor.gov.uk,Rushmoor,http://www.rushmoor.gov.uk,-0.77753300000000,GU14 9SA,2013-11-22,fhrs_5_en-GB,5,,FHRS,5
252157,Grasmere Road,Farnborough,Hampshire,,Cove Cricket Club,Other catering premises,7841,10,,11436,5,,51.29249600000000,04/00655/HSFD,140,food@rushmoor.gov.uk,Rushmoor,http://www.rushmoor.gov.uk,-0.77888200000000,GU14 0LE,2015-01-16,fhrs_4_en-GB,4,,FHRS,5
252158,340 Fernhill Road,Farnborough,Hampshire,,Cove Fish Bar,Takeaway/sandwich shop,7844,10,,11389,10,,51.31218900000000,04/00616/HSFD,140,food@rushmoor.gov.uk,Rushmoor,http://www.rushmoor.gov.uk,-0.77635000000000,GU14 9EF,2014-12-11,fhrs_3_en-GB,3,,FHRS,5
252159,7 Squirrel Lane,Farnborough,Hampshire,,Cove Football Club,Pub/bar/nightclub,7843,5,,25358,10,,51.29966000000000,08/00073/HSFD,140,food@rushmoor.gov.uk,Rushmoor,http://www.rushmoor.gov.uk,-0.76579600000000,GU14 8PF,2012-12-19,fhrs_3_en-GB,3,,FHRS,10
252160,Cove County Infant School,Fernhill Road,Farnborough,Hampshire,Cove Infants School,School/college/university,7845,5,,11372,5,,51.30102400000000,04/00599/FOOD,140,food@rushmoor.gov.uk,Rushmoor,http://www.rushmoor.gov.uk,-0.77832600000000,GU14 9DP,2013-10-02,fhrs_5_en-GB,5,,FHRS,5
252161,111 Cove Road,Farnborough,Hampshire,,Cove Ivy Leaf Club,Pub/bar/nightclub,7843,10,,11062,15,,51.29339400000000,04/00426/HSFD,140,food@rushmoor.gov.uk,Rushmoor,http://www.rushmoor.gov.uk,-0.77194500000000,GU14 0HF,2014-12-10,fhrs_2_en-GB,2,,FHRS,10
252162,306 Fernhill Road,Farnborough,Hampshire,,Cove Kebab Centre,Takeaway/sandwich shop,7844,10,,615468,5,,51.31039500000000,13/00142/HSFD,140,food@rushmoor.gov.uk,Rushmoor,http://www.rushmoor.gov.uk,-0.77586700000000,GU14 9EE,2014-02-17,fhrs_4_en-GB,4,,FHRS,0
252163,Cove County Secondary School,St Johns Road,Farnborough,Hampshire,Cove School,School/college/university,7845,5,,12259,5,,51.29951600000000,04/01347/HSFD,140,food@rushmoor.gov.uk,Rushmoor,http://www.rushmoor.gov.uk,-0.77862400000000,GU14 9RN,2013-09-19,fhrs_5_en-GB,5,,FHRS,0
252164,328 Fernhill Road,Farnborough,Hampshire,,Cove Tandoori Restaurant,Restaurant/Cafe/Canteen,1,10,,11386,10,,51.31218900000000,04/00613/HSFD,140,food@rushmoor.gov.uk,Rushmoor,http://www.rushmoor.gov.uk,-0.77635000000000,GU14 9EF,2014-03-20,fhrs_3_en-GB,3,,FHRS,10
252165,36A Southampton Street,Farnborough,Hampshire,,Creative Caterers,Other catering premises,7841,5,,676368,5,,51.27500200000000,14/00059/FOOD,140,food@rushmoor.gov.uk,Rushmoor,http://www.rushmoor.gov.uk,-0.75461500000000,GU14 6AX,2014-11-03,fhrs_5_en-GB,5,,FHRS,5
252166,17 Fawn Drive,Aldershot,Hampshire,,Cupcakes 'n' Bakes,Other catering premises,7841,,,515832,,,51.25319100000000,13/00009/FOOD,140,food@rushmoor.gov.uk,Rushmoor,http://www.rushmoor.gov.uk,-0.73818100000000,GU12 4FW,2013-02-21,fhrs_exempt_en-GB,Exempt,,FHRS,
252167,1 Salisbury Road,Farnborough,Hampshire,,Currylicious,Takeaway/sandwich shop,7844,10,,676367,15,,51.29344900000000,14/00057/HSFD,140,food@rushmoor.gov.uk,Rushmoor,http://www.rushmoor.gov.uk,-0.75241000000000,GU14 7AN,2014-09-10,fhrs_2_en-GB,2,,FHRS,10
252168,Mobile Trader,Wickes Car Park,Invincible Road,Farnborough,CV Catering,Mobile caterer,7846,5,,34831,10,,,10/00159/HSFD,140,food@rushmoor.gov.uk,Rushmoor,http://www.rushmoor.gov.uk,,,2013-12-06,fhrs_4_en-GB,4,,FHRS,5
252169,,,,,D Douglas,Mobile caterer,7846,10,,30402,15,,,09/00189/HSFD,140,food@rushmoor.gov.uk,Rushmoor,http://www.rushmoor.gov.uk,,,2014-09-25,fhrs_2_en-GB,2,,FHRS,10
252170,86 Queens Road,Farnborough,Hampshire,,Daisy's Cafe & Restaurant,Restaurant/Cafe/Canteen,1,10,,33719,15,,51.27724000000000,10/00061/HSFD,140,food@rushmoor.gov.uk,Rushmoor,http://www.rushmoor.gov.uk,-0.74440400000000,GU14 6JR,2014-11-19,fhrs_2_en-GB,2,,FHRS,10
252171,94 Blenheim Park,Aldershot,Hampshire,,Daisy's Kitchen,Other catering premises,7841,5,,225427,5,,51.27202200000000,12/00007/FOOD,140,food@rushmoor.gov.uk,Rushmoor,http://www.rushmoor.gov.uk,-0.75175700000000,GU11 2HT,2012-03-02,fhrs_5_en-GB,5,,FHRS,5
252172,26 Fawn Drive,Aldershot,Hampshire,,Daniel - Mobile Food Vehicle,Mobile caterer,7846,5,,521380,5,,51.25319100000000,12/00128/FOOD,140,food@rushmoor.gov.uk,Rushmoor,http://www.rushmoor.gov.uk,-0.73818100000000,GU12 4FW,2013-03-05,fhrs_5_en-GB,5,,FHRS,0
252173,224 Farnborough Road,Farnborough,Hampshire,,Dan's Fish Bar,Takeaway/sandwich shop,7844,5,,21830,5,,51.29306000000000,07/00074/HSFD,140,food@rushmoor.gov.uk,Rushmoor,http://www.rushmoor.gov.uk,-0.75302200000000,GU14 7JW,2013-08-21,fhrs_4_en-GB,4,,FHRS,10
252174,40 Giffard Drive,Farnborough,Hampshire,,Day Lewis Pharmacy,Retailers - other,4613,,,11410,,,51.29881000000000,04/00632/HSFD,140,food@rushmoor.gov.uk,Rushmoor,http://www.rushmoor.gov.uk,-0.77043800000000,GU14 8PX,2014-09-12,fhrs_exempt_en-GB,Exempt,,FHRS,
252175,Canteen - Flight Safety Building,Farnborough Airport,Ively Road,Farnborough,Deli Bar - Interserve,Restaurant/Cafe/Canteen,1,5,,718557,10,,,14/00073/FOOD,140,food@rushmoor.gov.uk,Rushmoor,http://www.rushmoor.gov.uk,,,2014-11-07,fhrs_4_en-GB,4,,FHRS,5
252176,69 Albert Road,Farnborough,Hampshire,,Devereux House,Hospitals/Childcare/Caring Premises,5,5,,9417,10,,51.28390900000000,04/00009/HSFD,140,food@rushmoor.gov.uk,Rushmoor,http://www.rushmoor.gov.uk,-0.74581400000000,GU14 6SL,2014-09-23,fhrs_4_en-GB,4,,FHRS,5
252177,40 Cody Road,Farnborough,Hampshire,,Dimensions (NSO) Ltd,Hospitals/Childcare/Caring Premises,5,0,,10958,5,,51.28899600000000,04/00377/HSFD,140,food@rushmoor.gov.uk,Rushmoor,http://www.rushmoor.gov.uk,-0.77179000000000,GU14 0DE,2012-05-18,fhrs_5_en-GB,5,,FHRS,5
252178,58 Church Lane East,Aldershot,Hampshire,,Dimensions (NSO) Ltd UK,Hospitals/Childcare/Caring Premises,5,5,,10854,5,,51.24262900000000,04/00338/HSFD,140,food@rushmoor.gov.uk,Rushmoor,http://www.rushmoor.gov.uk,-0.76046100000000,GU11 3HB,2015-01-22,fhrs_5_en-GB,5,,FHRS,5
252179,1 Westbury Way,Aldershot,Hampshire,,Dimensions (UK) Ltd,Hospitals/Childcare/Caring Premises,5,5,,12692,10,,51.24985500000000,04/02045/HSFD,140,food@rushmoor.gov.uk,Rushmoor,http://www.rushmoor.gov.uk,-0.74487800000000,GU12 4HE,2014-05-08,fhrs_4_en-GB,4,,FHRS,5
252180,87 Hazel Avenue,Farnborough,Hampshire,,Dimensions (UK) Ltd,Hospitals/Childcare/Caring Premises,5,5,,11616,5,,51.28661800000000,04/00763/FOOD,140,food@rushmoor.gov.uk,Rushmoor,http://www.rushmoor.gov.uk,-0.77314400000000,GU14 0DW,2014-04-02,fhrs_5_en-GB,5,,FHRS,5
252181,71 High Street,Aldershot,Hampshire,,Discount Store,Retailers - other,4613,10,,718558,5,,51.24980200000000,14/00098/HSFD,140,food@rushmoor.gov.uk,Rushmoor,http://www.rushmoor.gov.uk,-0.76362100000000,GU11 1BZ,2014-11-12,fhrs_3_en-GB,3,,FHRS,10
252182,27 Station Road,Aldershot,Hampshire,,Dobry Smak Polish Deli,Retailers - other,4613,10,,18279,10,,51.24775600000000,06/00097/HSFD,140,food@rushmoor.gov.uk,Rushmoor,http://www.rushmoor.gov.uk,-0.76146900000000,GU11 1HT,2014-02-26,fhrs_3_en-GB,3,,FHRS,5
252183,47A Peabody Road,Farnborough,Hampshire,,Dolce Italia,Restaurant/Cafe/Canteen,1,5,,14897,5,,51.27812000000000,05/00066/HSFD,140,food@rushmoor.gov.uk,Rushmoor,http://www.rushmoor.gov.uk,-0.74515400000000,GU14 6EB,2013-06-26,fhrs_5_en-GB,5,,FHRS,5
252184,98 Chapel Lane,Farnborough,Hampshire,,Dominos,Takeaway/sandwich shop,7844,5,,521387,5,,51.31298900000000,13/00010/HSFD,140,food@rushmoor.gov.uk,Rushmoor,http://www.rushmoor.gov.uk,-0.77456400000000,GU14 9BL,2013-03-13,fhrs_5_en-GB,5,,FHRS,0
252185,14 Victoria Road,Farnborough,Hampshire,,Dominos Pizza,Takeaway/sandwich shop,7844,5,,12308,0,,51.29357200000000,04/01450/HSFD,140,food@rushmoor.gov.uk,Rushmoor,http://www.rushmoor.gov.uk,-0.75554700000000,GU14 7NY,2013-07-16,fhrs_5_en-GB,5,,FHRS,5
252186,2 Townstead House,111 - 113 Victoria Road,Aldershot,Hampshire,Dominos Pizza,Takeaway/sandwich shop,7844,5,,12370,5,,51.24814400000000,04/01552/HSFD,140,food@rushmoor.gov.uk,Rushmoor,http://www.rushmoor.gov.uk,-0.76239000000000,GU11 1JE,2014-10-08,fhrs_5_en-GB,5,,FHRS,5
252187,98 Queens Road,Aldershot,Hampshire,,Dosa World Ltd,Takeaway/sandwich shop,7844,10,,698975,10,,51.24730100000000,14/00079/HSFD,140,food@rushmoor.gov.uk,Rushmoor,http://www.rushmoor.gov.uk,-0.77287200000000,GU11 3JU,2014-08-28,fhrs_3_en-GB,3,,FHRS,10
252188,16 Bridge Road,Farnborough,Hampshire,,Edel Services,Retailers - other,4613,10,,629578,5,,51.29250400000000,13/00100/HSFDEP,140,food@rushmoor.gov.uk,Rushmoor,http://www.rushmoor.gov.uk,-0.76938700000000,GU14 0HS,2014-01-23,fhrs_3_en-GB,3,,FHRS,10
252189,Staff Canteen,Council Offices,Farnborough Road,Farnborough,Edwards And Ward Ltd,Restaurant/Cafe/Canteen,1,5,,622606,10,,51.28796700000000,14/00001/FOOD,140,food@rushmoor.gov.uk,Rushmoor,http://www.rushmoor.gov.uk,-0.75440800000000,GU14 7JU,2013-12-10,fhrs_4_en-GB,4,,FHRS,0
252190,28 Queens Road,Farnborough,Hampshire,,Elevenses,Takeaway/sandwich shop,7844,0,,12180,5,,51.27700000000000,04/01207/HSFD,140,food@rushmoor.gov.uk,Rushmoor,http://www.rushmoor.gov.uk,-0.74716300000000,GU14 6DT,2014-10-29,fhrs_5_en-GB,5,,FHRS,0
252191,Tesco Stores Ltd,Baker,5 Wellington Avenue,Aldershot,Euphorium (North London) Limited - Bakery,Retailers - other,4613,0,,730413,5,,,15/00005/HSFD,140,food@rushmoor.gov.uk,Rushmoor,http://www.rushmoor.gov.uk,,,2015-01-16,fhrs_5_en-GB,5,,FHRS,0
252192,Cody Technology Park,Ively Road,Farnborough,Hampshire,Eurest @ Qinetiq A4 Restaurant,Restaurant/Cafe/Canteen,1,5,,12862,5,,51.27934600000000,04/02318/FOOD,140,food@rushmoor.gov.uk,Rushmoor,http://www.rushmoor.gov.uk,-0.79243500000000,GU14 0LX,2014-03-05,fhrs_5_en-GB,5,,FHRS,0
252193,107 High Street,Aldershot,Hampshire,,Europa Food,Retailers - other,4613,10,,410503,15,,51.24976300000000,12/00081/HSFD,140,food@rushmoor.gov.uk,Rushmoor,http://www.rushmoor.gov.uk,-0.76335000000000,GU11 1BY,2014-04-09,fhrs_2_en-GB,2,,FHRS,15
252194,82 - 84 Cove Road,Farnborough,Hampshire,,Everest Cash & Carry,Retailers - other,4613,10,,25794,15,,51.29225100000000,08/00135/HSFD,140,food@rushmoor.gov.uk,Rushmoor,http://www.rushmoor.gov.uk,-0.76927900000000,GU14 0EU,2014-03-04,fhrs_2_en-GB,2,,FHRS,10
252195,9 - 10 Birchett Road,Aldershot,Hampshire,,Everest Cash And Carry,Retailers - other,4613,10,,10378,5,,51.24763500000000,04/00181/HSFD,140,food@rushmoor.gov.uk,Rushmoor,http://www.rushmoor.gov.uk,-0.76194500000000,GU11 1LZ,2013-03-25,fhrs_4_en-GB,4,,FHRS,5
252196,25 - 27 Gordon Road,Aldershot,Hampshire,,Excelsior Club,Pub/bar/nightclub,7843,10,,401583,10,,51.24671900000000,12/00051/HSFD,140,food@rushmoor.gov.uk,Rushmoor,http://www.rushmoor.gov.uk,-0.76374600000000,GU11 1ND,2012-12-10,fhrs_3_en-GB,3,,FHRS,5
252197,Cove County Infant School,Fernhill Road,Farnborough,Hampshire,Explorers After School Club,School/college/university,7845,5,,401584,5,,51.30102400000000,12/00060/FOOD,140,food@rushmoor.gov.uk,Rushmoor,http://www.rushmoor.gov.uk,-0.77832600000000,GU14 9DP,2012-06-14,fhrs_5_en-GB,5,,FHRS,5
252198,Trenchard House - G1,85 Farnborough Road,Farnborough,Hampshire,F.A.S.T.,Restaurant/Cafe/Canteen,1,5,,528939,5,,51.28238200000000,13/00006/HSFD,140,food@rushmoor.gov.uk,Rushmoor,http://www.rushmoor.gov.uk,-0.75348400000000,GU14 6TF,2013-03-19,fhrs_5_en-GB,5,,FHRS,5
252199,65 Camp Road,Farnborough,Hampshire,,Fabulicious Cakes,Retailers - other,4613,5,,33078,0,,51.27625000000000,10/00023/HSFD,140,food@rushmoor.gov.uk,Rushmoor,http://www.rushmoor.gov.uk,-0.74771400000000,GU14 6EP,2012-12-12,fhrs_5_en-GB,5,,FHRS,5
252200,76 Cambridge Road,Aldershot,Hampshire,,Fairhaven Residential Care Home,Hospitals/Childcare/Caring Premises,5,5,,10548,5,,51.24672800000000,04/00230/HSFD,140,food@rushmoor.gov.uk,Rushmoor,http://www.rushmoor.gov.uk,-0.77317400000000,GU11 3LD,2014-04-09,fhrs_5_en-GB,5,,FHRS,5
252201,68 Farnborough Road,Farnborough,Hampshire,,Falcon Hotel,Hotel/bed & breakfast/guest house,7842,5,,25781,10,,51.28208600000000,08/00132/HSFD,140,food@rushmoor.gov.uk,Rushmoor,http://www.rushmoor.gov.uk,-0.75271700000000,GU14 6TH,2014-03-20,fhrs_4_en-GB,4,,FHRS,5
252202,,,,,Family Favourites,Mobile caterer,7846,5,,12134,5,,,04/01142/HSFD,140,food@rushmoor.gov.uk,Rushmoor,http://www.rushmoor.gov.uk,,,2013-09-23,fhrs_4_en-GB,4,,FHRS,10
252203,262 High Street,Aldershot,Hampshire,,Farmhouse Bakery,Manufacturers/packers,7839,10,,11790,10,,51.24671800000000,04/00851/HSFD,140,food@rushmoor.gov.uk,Rushmoor,http://www.rushmoor.gov.uk,-0.75515000000000,GU12 4LP,2013-12-18,fhrs_3_en-GB,3,,FHRS,10
252204,Queens Road,Farnborough,Hampshire,,Farnborough Baptist Church,Other catering premises,7841,0,,46907,0,,51.27733900000000,11/00092/HSFD,140,food@rushmoor.gov.uk,Rushmoor,http://www.rushmoor.gov.uk,-0.74199900000000,,2014-12-16,fhrs_5_en-GB,5,,FHRS,0
252205,Canterbury Road Bowling Club And Gr,Canterbury Road,Farnborough,Hampshire,Farnborough Bowls Club,Other catering premises,7841,5,,10758,5,,51.28149100000000,04/00295/HSFD,140,food@rushmoor.gov.uk,Rushmoor,http://www.rushmoor.gov.uk,-0.74331300000000,GU14 6NW,2013-06-26,fhrs_5_en-GB,5,,FHRS,5
252206,Farnborough Community Centre,Elles Hall,Meudon Avenue,Farnborough,Farnborough Community Centre Association (Hired Rooms),Other catering premises,7841,,,12667,,,51.28897700000000,04/01982/HSFD,140,food@rushmoor.gov.uk,Rushmoor,http://www.rushmoor.gov.uk,-0.75638800000000,GU14 7LE,2012-01-10,fhrs_exempt_en-GB,Exempt,,FHRS,
252207,St Christophers Church,Cove Road,Farnborough,Hampshire,Farnborough Foodbank,Distributors/Transporters,7,,,30668,,,51.28246100000000,09/00242/HSFD,140,food@rushmoor.gov.uk,Rushmoor,http://www.rushmoor.gov.uk,-0.74756400000000,,2012-12-06,fhrs_exempt_en-GB,Exempt,,FHRS,
252208,Farnborough Town Football Club,Cherrywood Road,Farnborough,Hampshire,Farnborough Football Club,Pub/bar/nightclub,7843,5,,666472,5,,51.31030500000000,13/00119/HSFD,140,food@rushmoor.gov.uk,Rushmoor,http://www.rushmoor.gov.uk,-0.76301400000000,GU14 8UD,2014-04-24,fhrs_4_en-GB,4,,FHRS,10
252209,Farnborough Gate Sports Pavilion,Ringwood Road,Farnborough,Hampshire,Farnborough Gate Bowling Club,Other catering premises,7841,5,,12218,5,,51.30753700000000,04/01297/HSFD,140,food@rushmoor.gov.uk,Rushmoor,http://www.rushmoor.gov.uk,-0.74878500000000,GU14 8BL,2014-05-06,fhrs_5_en-GB,5,,FHRS,0
252210,5 Bridge Road,Farnborough,Hampshire,,Farnborough Halal Shop,Retailers - other,4613,5,,47858,5,,51.29245700000000,11/00179/HSFD,140,food@rushmoor.gov.uk,Rushmoor,http://www.rushmoor.gov.uk,-0.77002000000000,GU14 0HT,2013-10-17,fhrs_4_en-GB,4,,FHRS,10
252211,312 Farnborough Road,Farnborough,Hampshire,,Farnborough Hill School,School/college/university,7845,5,,26057,0,,51.30066000000000,08/00187/HSFD,140,food@rushmoor.gov.uk,Rushmoor,http://www.rushmoor.gov.uk,-0.75067900000000,GU14 8AT,2013-04-24,fhrs_5_en-GB,5,,FHRS,5
252212,228 Farnborough Road,Farnborough,Hampshire,,Farnborough Kebab & Burger House,Takeaway/sandwich shop,7844,10,,11291,5,,51.29306000000000,04/00546/HSFD,140,food@rushmoor.gov.uk,Rushmoor,http://www.rushmoor.gov.uk,-0.75302200000000,GU14 7JW,2013-12-05,fhrs_4_en-GB,4,,FHRS,5
252213,Westmead,Farnborough,Hampshire,,Farnborough Leisure Centre,Restaurant/Cafe/Canteen,1,5,,12470,5,,51.56369018554688,04/01667/HELA,140,food@rushmoor.gov.uk,Rushmoor,http://www.rushmoor.gov.uk,-1.81816005706787,GU14 7LD,2013-07-18,fhrs_5_en-GB,5,,FHRS,5
252214,Farnborough Rugby Football Club,Tile Barn Close,Farnborough,Hampshire,Farnborough Rugby Union Football Club Ltd,Other catering premises,7841,5,,17713,5,,51.30049100000000,06/00023/HSFD,140,food@rushmoor.gov.uk,Rushmoor,http://www.rushmoor.gov.uk,-0.76271900000000,GU14 8LS,2014-02-04,fhrs_5_en-GB,5,,FHRS,5
252215,106 Chapel Lane,Farnborough,Hampshire,,Farnborough Tandoori,Takeaway/sandwich shop,7844,5,,666474,5,,51.31298900000000,14/00037/HSFD,140,food@rushmoor.gov.uk,Rushmoor,http://www.rushmoor.gov.uk,-0.77456400000000,GU14 9BL,2014-06-04,fhrs_5_en-GB,5,,FHRS,5
252216,2 Queensmead,Farnborough,Hampshire,,Farnborough Travelodge,Hotel/bed & breakfast/guest house,7842,5,,30754,5,,51.29310100000000,09/00264/HSFD,140,food@rushmoor.gov.uk,Rushmoor,http://www.rushmoor.gov.uk,-0.75606200000000,GU14 7GL,2014-11-11,fhrs_5_en-GB,5,,FHRS,5
252217,Kalathea,1B St Michaels Road,Aldershot,Hampshire,Fayre Food,Retailers - other,4613,,,34760,,,51.24639600000000,10/00151/FOOD,140,food@rushmoor.gov.uk,Rushmoor,http://www.rushmoor.gov.uk,-0.75616200000000,GU12 4JF,2013-12-19,fhrs_exempt_en-GB,Exempt,,FHRS,
252218,Fernhill Primary School,Field Road,Farnborough,Hampshire,Fernhill County Primary School,School/college/university,7845,5,,12056,5,,51.31542700000000,04/01071/FOOD,140,food@rushmoor.gov.uk,Rushmoor,http://www.rushmoor.gov.uk,-0.76957800000000,GU14 9FX,2014-01-13,fhrs_5_en-GB,5,,FHRS,0
252219,Neville Duke Road,Farnborough,Hampshire,,Fernhill School And Language College,School/college/university,7845,10,,12061,5,,51.31578400000000,04/01073/HSFD,140,food@rushmoor.gov.uk,Rushmoor,http://www.rushmoor.gov.uk,-0.76840600000000,GU14 9BY,2014-03-07,fhrs_4_en-GB,4,,FHRS,5
252220,40 Station Road,Aldershot,Hampshire,,Finest Halal Foods Ltd,Retailers - other,4613,10,,569294,15,,51.24775600000000,13/00094/HSFD,140,food@rushmoor.gov.uk,Rushmoor,http://www.rushmoor.gov.uk,-0.76146900000000,GU11 1HT,2013-06-06,fhrs_2_en-GB,2,,FHRS,10
252221,,,,,Fiona Preston,Other catering premises,7841,5,,634368,5,,,14/00009/FOOD,140,food@rushmoor.gov.uk,Rushmoor,http://www.rushmoor.gov.uk,,,2014-01-17,fhrs_5_en-GB,5,,FHRS,5
252222,FIVE Building,Farnborough Airport,Farnborough Road,Farnborough,FIVE,Other catering premises,7841,,,33182,,,,10/00029/HSFD,140,food@rushmoor.gov.uk,Rushmoor,http://www.rushmoor.gov.uk,,,2010-02-15,fhrs_exempt_en-GB,Exempt,,FHRS,
252223,Costco,2 Templer Avenue,Farnborough,Hampshire,Fizz Experience - Warehouse Demo Services,Other catering premises,7841,5,,595465,5,,51.28214600000000,13/00091/FOOD,140,food@rushmoor.gov.uk,Rushmoor,http://www.rushmoor.gov.uk,-0.76856000000000,GU14 6FE,2013-10-22,fhrs_5_en-GB,5,,FHRS,0
252224,Catering Section,Aldershot Conservative Club,Victoria Road,Aldershot,Food 4 U,Restaurant/Cafe/Canteen,1,5,,689087,10,,51.24854900000000,14/00060/HSFD,140,food@rushmoor.gov.uk,Rushmoor,http://www.rushmoor.gov.uk,-0.76243700000000,GU11 1JX,2014-08-05,fhrs_4_en-GB,4,,FHRS,5
252225,40 Reading Road,Farnborough,Hampshire,,Footsteps Day Nursery,Hospitals/Childcare/Caring Premises,5,5,,14877,5,,51.28050100000000,05/00064/HSFD,140,food@rushmoor.gov.uk,Rushmoor,http://www.rushmoor.gov.uk,-0.74831500000000,GU14 6NB,2014-06-13,fhrs_4_en-GB,4,,FHRS,10
252226,2 Westgate,Aldershot,Hampshire,,Frankie & Benny's,Restaurant/Cafe/Canteen,1,5,,528931,5,,,12/00133/HSFD,140,food@rushmoor.gov.uk,Rushmoor,http://www.rushmoor.gov.uk,,GU11 1WG,2013-03-14,fhrs_5_en-GB,5,,FHRS,5
252227,81 High Street,Aldershot,Hampshire,,Frankies Cafe,Restaurant/Cafe/Canteen,1,5,,11685,10,,51.24976300000000,04/00796/HSFD,140,food@rushmoor.gov.uk,Rushmoor,http://www.rushmoor.gov.uk,-0.76335000000000,GU11 1BY,2015-01-15,fhrs_4_en-GB,4,,FHRS,5
252228,Gala Club,High Street,Aldershot,Hampshire,Gala Bingo,Restaurant/Cafe/Canteen,1,5,,11840,10,,51.25050400000000,04/00881/HSFD,140,food@rushmoor.gov.uk,Rushmoor,http://www.rushmoor.gov.uk,-0.76533600000000,GU11 1DJ,2014-01-16,fhrs_4_en-GB,4,,FHRS,5
252229,43 - 45 Union Street,Aldershot,Hampshire,,Game,Retailers - other,4613,,,574489,,,51.24940300000000,13/00042/HSFD,140,food@rushmoor.gov.uk,Rushmoor,http://www.rushmoor.gov.uk,-0.76500700000000,GU11 1EP,2013-07-18,fhrs_exempt_en-GB,Exempt,,FHRS,
252230,Aldershot Military Stadium,Queens Avenue,Aldershot,Hampshire,Garretts Clubhouse,Restaurant/Cafe/Canteen,1,5,,12167,10,,51.26476100000000,04/01183/HSFD,140,food@rushmoor.gov.uk,Rushmoor,http://www.rushmoor.gov.uk,-0.75558000000000,GU11 2JL,2014-02-17,fhrs_4_en-GB,4,,FHRS,5
252231,82 Albert Road,Farnborough,Hampshire,,Glenside - Farnborough,Hospitals/Childcare/Caring Premises,5,5,,401582,10,,51.28390900000000,12/00036/HSFD,140,food@rushmoor.gov.uk,Rushmoor,http://www.rushmoor.gov.uk,-0.74581400000000,GU14 6SL,2013-11-18,fhrs_4_en-GB,4,,FHRS,5
252232,63 Lynchford Road,Farnborough,Hampshire,,Golden Dragon,Takeaway/sandwich shop,7844,5,,11929,10,,51.27480000000000,04/00959/HSFD,140,food@rushmoor.gov.uk,Rushmoor,http://www.rushmoor.gov.uk,-0.74827000000000,GU14 6EJ,2014-06-26,fhrs_4_en-GB,4,,FHRS,5
252233,46 - 48 Cove Road,Farnborough,Hampshire,,Golden House,Takeaway/sandwich shop,7844,5,,34583,5,,51.29246400000000,10/00130/HSFD,140,food@rushmoor.gov.uk,Rushmoor,http://www.rushmoor.gov.uk,-0.76728000000000,GU14 0EN,2014-02-12,fhrs_4_en-GB,4,,FHRS,10
252234,12 Queens Road,Farnborough,Hampshire,,Golden Kebab House,Takeaway/sandwich shop,7844,5,,34848,5,,51.27685900000000,10/00161/HSFD,140,food@rushmoor.gov.uk,Rushmoor,http://www.rushmoor.gov.uk,-0.74832800000000,GU14 6DN,2014-05-14,fhrs_5_en-GB,5,,FHRS,5
252235,The Golden Lion,364 High Street,Aldershot,Hampshire,Golden Lion Public House,Pub/bar/nightclub,7843,5,,11829,5,,51.24407500000000,04/00875/HSFD,140,food@rushmoor.gov.uk,Rushmoor,http://www.rushmoor.gov.uk,-0.75264200000000,GU12 4LU,2013-11-20,fhrs_4_en-GB,4,,FHRS,10
252236,76 Queensmead,Farnborough,Hampshire,,Good Taste Ltd,Restaurant/Cafe/Canteen,1,5,,32738,10,,51.29168200000000,10/00002/HSFD,140,food@rushmoor.gov.uk,Rushmoor,http://www.rushmoor.gov.uk,-0.75627200000000,GU14 7SB,2014-08-26,fhrs_3_en-GB,3,,FHRS,10
252237,Randell House,Fernhill Road,Farnborough,Camberley,Gracewell Healthcare - Randell House,Hospitals/Childcare/Caring Premises,5,5,,225424,0,,51.31636700000000,12/00030/HSFD,140,food@rushmoor.gov.uk,Rushmoor,http://www.rushmoor.gov.uk,-0.77684200000000,GU17 9HR,2014-05-07,fhrs_5_en-GB,5,,FHRS,5
252238,Grange County Junior School,Wren Way,Farnborough,Hampshire,Grange Community Junior School,School/college/university,7845,5,,12503,5,,51.30874600000000,04/01690/FOOD,140,food@rushmoor.gov.uk,Rushmoor,http://www.rushmoor.gov.uk,-0.76787700000000,GU14 8TA,2015-01-14,fhrs_5_en-GB,5,,FHRS,5
252239,Farnborough Grange Nursery And Infa,Moor Road,Farnborough,Hampshire,Grange Infant School,School/college/university,7845,5,,12028,5,,51.31221100000000,04/01057/FOOD,140,food@rushmoor.gov.uk,Rushmoor,http://www.rushmoor.gov.uk,-0.76218800000000,GU14 8HW,2013-09-27,fhrs_5_en-GB,5,,FHRS,0
252240,Grasmere House,33 Cargate Avenue,Aldershot,Hampshire,Grasmere House Rest Home,Hospitals/Childcare/Caring Premises,5,5,,10760,10,,51.24437900000000,04/00297/HSFD,140,food@rushmoor.gov.uk,Rushmoor,http://www.rushmoor.gov.uk,-0.76865200000000,GU11 3EW,2013-02-08,fhrs_4_en-GB,4,,FHRS,5
252241,119 Lynchford Road,Farnborough,Hampshire,,Grays,Restaurant/Cafe/Canteen,1,5,,676362,5,,51.27503700000000,14/00006/HSFD,140,food@rushmoor.gov.uk,Rushmoor,http://www.rushmoor.gov.uk,-0.74605500000000,GU14 6ET,2014-12-02,fhrs_5_en-GB,5,,FHRS,5
252242,68 Queensmead,Farnborough,Hampshire,,Greggs,Takeaway/sandwich shop,7844,0,,13028,0,,51.29168200000000,04/02754/FOOD,140,food@rushmoor.gov.uk,Rushmoor,http://www.rushmoor.gov.uk,-0.75627200000000,GU14 7SB,2012-12-04,fhrs_5_en-GB,5,,FHRS,0
252243,33 Wellington Street,Aldershot,Hampshire,,Greggs Plc,Takeaway/sandwich shop,7844,0,,12447,5,,51.24932300000000,04/01656/HSFD,140,food@rushmoor.gov.uk,Rushmoor,http://www.rushmoor.gov.uk,-0.76426400000000,GU11 1DX,2014-12-09,fhrs_5_en-GB,5,,FHRS,0
252244,44 Giffard Drive,Farnborough,Hampshire,,Guildford Food & Wine,Retailers - other,4613,10,,644468,10,,51.29881000000000,14/00036/HSFD,140,food@rushmoor.gov.uk,Rushmoor,http://www.rushmoor.gov.uk,-0.77043800000000,GU14 8PX,2014-04-16,fhrs_3_en-GB,3,,FHRS,5
252245,Sandy Lane,Farnborough,Hampshire,,Guillemont County Junior School,School/college/university,7845,0,,12224,5,,51.30609900000000,04/01309/FOOD,140,food@rushmoor.gov.uk,Rushmoor,http://www.rushmoor.gov.uk,-0.78909400000000,GU14 9ES,2014-01-17,fhrs_5_en-GB,5,,FHRS,5
252246,78 Farnborough Road,Farnborough,Hampshire,,Gurkha Palace,Restaurant/Cafe/Canteen,1,5,,11270,5,,51.28208600000000,04/00529/HSFD,140,food@rushmoor.gov.uk,Rushmoor,http://www.rushmoor.gov.uk,-0.75271700000000,GU14 6TH,2014-01-23,fhrs_4_en-GB,4,,FHRS,10
252247,58 Station Road,Aldershot,Hampshire,,Gurkha Villa,Takeaway/sandwich shop,7844,10,,634363,10,,51.24923600000000,13/00145/HSFD,140,food@rushmoor.gov.uk,Rushmoor,http://www.rushmoor.gov.uk,-0.76111400000000,GU11 1BG,2014-01-28,fhrs_3_en-GB,3,,FHRS,10
252248,Aldershot Town FC Ltd,Kitchen,The Recreation Ground,High Street,H H Clark Caterers,Restaurant/Cafe/Canteen,1,5,,45359,5,,,11/00002/HSFD,140,food@rushmoor.gov.uk,Rushmoor,http://www.rushmoor.gov.uk,,,2015-01-29,fhrs_5_en-GB,5,,FHRS,5
252249,Unit 6,108 Hawley Lane,Farnborough,Hampshire,H H Clark Caterers Ltd,Other catering premises,7841,5,,349106,5,,51.31437000000000,12/00021/HSFD,140,food@rushmoor.gov.uk,Rushmoor,http://www.rushmoor.gov.uk,-0.75966200000000,GU14 8JE,2013-12-04,fhrs_5_en-GB,5,,FHRS,5
252250,Princes Hall,Princes Way,Aldershot,Hampshire,H H Clark Caterers Ltd - Catering & Bar,Other catering premises,7841,5,,401580,5,,51.25053600000000,12/00020/HSFD,140,food@rushmoor.gov.uk,Rushmoor,http://www.rushmoor.gov.uk,-0.76837300000000,GU11 1NX,2013-12-04,fhrs_5_en-GB,5,,FHRS,5
252251,17 Station Road,Aldershot,Hampshire,,Hafeez,Retailers - other,4613,20,,34130,20,,51.24775600000000,10/00091/HSFD,140,food@rushmoor.gov.uk,Rushmoor,http://www.rushmoor.gov.uk,-0.76146900000000,GU11 1HT,2014-11-12,fhrs_0_en-GB,0,,FHRS,20
252252,3 Blackwater Shopping Park,Farnborough Gate,Farnborough,Hampshire,Halfords,Retailers - other,4613,,,509159,,,51.30753700000000,13/00023/HSFD,140,food@rushmoor.gov.uk,Rushmoor,http://www.rushmoor.gov.uk,-0.74878500000000,GU14 8BL,2013-02-19,fhrs_exempt_en-GB,Exempt,,FHRS,
252253,Food Kiosk - Tenth Tee,Army Golf Club,Laffans Road,Aldershot,Halfway House,Takeaway/sandwich shop,7844,5,,26087,5,,51.26752300000000,08/00193/HSFD,140,food@rushmoor.gov.uk,Rushmoor,http://www.rushmoor.gov.uk,-0.77785200000000,GU11 2HF,2015-01-12,fhrs_5_en-GB,5,,FHRS,0
252254,113 Lynchford Road,Farnborough,Hampshire,,Harry's Wine Bar,Pub/bar/nightclub,7843,10,,298507,10,,51.27503700000000,12/00014/HSFD,140,food@rushmoor.gov.uk,Rushmoor,http://www.rushmoor.gov.uk,-0.74605500000000,GU14 6ET,2014-03-31,fhrs_2_en-GB,2,,FHRS,15
252255,6 Westgate,Aldershot,Hampshire,,Harvester,Restaurant/Cafe/Canteen,1,0,,515831,5,,,13/00001/HSFD,140,food@rushmoor.gov.uk,Rushmoor,http://www.rushmoor.gov.uk,,GU11 1WG,2013-03-04,fhrs_5_en-GB,5,,FHRS,0
252256,11 - 13 Churchill Crescent,Farnborough,Hampshire,,Hawley Convenience Store,Retailers - other,4613,5,,10926,5,,51.31069500000000,04/00365/HSFD,140,food@rushmoor.gov.uk,Rushmoor,http://www.rushmoor.gov.uk,-0.75740800000000,GU14 8EL,2015-01-20,fhrs_5_en-GB,5,,FHRS,5
252257,Ship Lane,Farnborough,Hampshire,,Henry Tyndale School,School/college/university,7845,5,,12234,0,,51.30112400000000,04/01313/HSFD,140,food@rushmoor.gov.uk,Rushmoor,http://www.rushmoor.gov.uk,-0.74449800000000,GU14 8BX,2014-03-10,fhrs_5_en-GB,5,,FHRS,0
252258,181 Victoria Road,Aldershot,Hampshire,,Herbies Pizza,Takeaway/sandwich shop,7844,5,,22134,10,,51.24844800000000,07/00127/HSFD,140,food@rushmoor.gov.uk,Rushmoor,http://www.rushmoor.gov.uk,-0.76648000000000,GU11 1JU,2015-01-15,fhrs_4_en-GB,4,,FHRS,5
252259,Hillingdon,31 Salisbury Road,Farnborough,Hampshire,Hillingdon House,Hospitals/Childcare/Caring Premises,5,0,,12219,0,,51.29245400000000,04/01302/HSFD,140,food@rushmoor.gov.uk,Rushmoor,http://www.rushmoor.gov.uk,-0.75184800000000,GU14 7AJ,2014-02-13,fhrs_5_en-GB,5,,FHRS,5
252260,142 - 144 Victoria Road,Aldershot,Hampshire,,Himalayan Java,Restaurant/Cafe/Canteen,1,10,,726690,5,,51.24886500000000,14/00097/HSFD,140,food@rushmoor.gov.uk,Rushmoor,http://www.rushmoor.gov.uk,-0.76430500000000,GU11 1DB,2014-12-10,fhrs_4_en-GB,4,,FHRS,5
252261,65 Lynchford Road,Farnborough,Hampshire,,Himalayan Stores,Retailers - other,4613,20,,21417,15,,51.27480000000000,07/00020/HSFD,140,food@rushmoor.gov.uk,Rushmoor,http://www.rushmoor.gov.uk,-0.74827000000000,GU14 6EJ,2014-06-19,fhrs_1_en-GB,1,,FHRS,10
252262,22 Kingsmead,Farnborough,Hampshire,,Holland & Barrett,Retailers - other,4613,5,,15234,0,,51.29149800000000,05/00140/FOOD,140,food@rushmoor.gov.uk,Rushmoor,http://www.rushmoor.gov.uk,-0.75497200000000,GU14 7SL,2010-01-20,fhrs_5_en-GB,5,,FHRS,0
252263,34 Union Street,Aldershot,Hampshire,,Holland & Barrett,Retailers - other,4613,0,,12564,5,,51.24961300000000,04/01818/HSFD,140,food@rushmoor.gov.uk,Rushmoor,http://www.rushmoor.gov.uk,-0.76531700000000,GU11 1EW,2011-03-03,fhrs_5_en-GB,5,,FHRS,5
252264,7 Blackwater Shopping Park,Farnborough Gate,Farnborough,Hampshire,Home Sense,Retailers - other,4613,,,620856,,,51.30753700000000,13/00154/HSFD,140,food@rushmoor.gov.uk,Rushmoor,http://www.rushmoor.gov.uk,-0.74878500000000,GU14 8BL,2013-11-21,fhrs_exempt_en-GB,Exempt,,FHRS,
252265,,,,,Hot Rod Burgers,Mobile caterer,7846,10,,629582,5,,,13/00144/FOOD,140,food@rushmoor.gov.uk,Rushmoor,http://www.rushmoor.gov.uk,,,2014-02-03,fhrs_4_en-GB,4,,FHRS,5
252266,153 - 163 Victoria Road,Aldershot,Hampshire,,Iceland Frozen Foods,Retailers - supermarkets/hypermarkets,7840,10,,12397,10,,51.24840100000000,04/01583/HSFD,140,food@rushmoor.gov.uk,Rushmoor,http://www.rushmoor.gov.uk,-0.76543500000000,GU11 1JR,2013-07-19,fhrs_3_en-GB,3,,FHRS,10
252267,98 Queensmead,Farnborough,Hampshire,,Iceland Frozen Foods,Retailers - supermarkets/hypermarkets,7840,5,,12640,5,,51.29063900000000,04/01926/HSFD,140,food@rushmoor.gov.uk,Rushmoor,http://www.rushmoor.gov.uk,-0.75542600000000,GU14 7SH,2013-02-11,fhrs_5_en-GB,5,,FHRS,5
252268,18 Alexandra Road,Farnborough,Hampshire,,Il Colosseo,Restaurant/Cafe/Canteen,1,5,,21355,5,,51.27529500000000,07/00012/HSFD,140,food@rushmoor.gov.uk,Rushmoor,http://www.rushmoor.gov.uk,-0.75000500000000,GU14 6DA,2013-07-19,fhrs_4_en-GB,4,,FHRS,10
252269,25 Western Road,Aldershot,Hampshire,,Imperial Standard,Pub/bar/nightclub,7843,5,,25696,5,,51.24705600000000,08/00119/HSFD,140,food@rushmoor.gov.uk,Rushmoor,http://www.rushmoor.gov.uk,-0.77694800000000,GU11 3PL,2014-08-13,fhrs_5_en-GB,5,,FHRS,5
252270,181 North Lane,Aldershot,Hampshire,,India Raj,Takeaway/sandwich shop,7844,5,,521393,10,,51.25047500000000,13/00044/HSFD,140,food@rushmoor.gov.uk,Rushmoor,http://www.rushmoor.gov.uk,-0.74315600000000,GU12 4SY,2013-09-04,fhrs_4_en-GB,4,,FHRS,5
252271,14 - 40 Victoria Road,Aldershot,Hampshire,,Initial Catering Services,Restaurant/Cafe/Canteen,1,5,,726689,5,,51.24832900000000,14/00072/HSFD,140,food@rushmoor.gov.uk,Rushmoor,http://www.rushmoor.gov.uk,-0.75784300000000,GU11 1TH,2014-12-10,fhrs_5_en-GB,5,,FHRS,5
252272,,,,,Inyama,Manufacturers/packers,7839,10,,574487,15,,,12/00139/FOOD,140,food@rushmoor.gov.uk,Rushmoor,http://www.rushmoor.gov.uk,,,2015-01-21,fhrs_2_en-GB,2,,FHRS,10
252273,6 Alexandra Road,Farnborough,Hampshire,,It's Pizza Time,Takeaway/sandwich shop,7844,5,,14556,5,,51.27529500000000,05/00019/FOOD,140,food@rushmoor.gov.uk,Rushmoor,http://www.rushmoor.gov.uk,-0.75000500000000,GU14 6DA,2014-02-05,fhrs_4_en-GB,4,,FHRS,10
252274,67 Ively Road,Farnborough,Hampshire,,Ively Lodge,Hotel/bed & breakfast/guest house,7842,5,,701446,5,,51.29013700000000,14/00078/HSFD,140,food@rushmoor.gov.uk,Rushmoor,http://www.rushmoor.gov.uk,-0.78037800000000,GU14 0JP,2014-09-08,fhrs_5_en-GB,5,,FHRS,0
252275,,,,,J F Catering,Mobile caterer,7846,10,,21583,10,,,07/00039/HSFD,140,food@rushmoor.gov.uk,Rushmoor,http://www.rushmoor.gov.uk,,,2014-03-03,fhrs_3_en-GB,3,,FHRS,10
252276,,,,,Jacki's Kitchen,Other catering premises,7841,5,,46208,5,,,11/00052/FOOD,140,food@rushmoor.gov.uk,Rushmoor,http://www.rushmoor.gov.uk,,,2014-03-11,fhrs_5_en-GB,5,,FHRS,5
252277,185 Lynchford Road,Farnborough,Hampshire,,Jeev Convenience Store,Retailers - other,4613,10,,45458,10,,51.27536900000000,11/00008/HSFD,140,food@rushmoor.gov.uk,Rushmoor,http://www.rushmoor.gov.uk,-0.74264900000000,GU14 6HD,2014-01-16,fhrs_2_en-GB,2,,FHRS,15
252278,20 Wellington Street,Aldershot,Hampshire,,Jenny Cafe & Restaurant,Restaurant/Cafe/Canteen,1,5,,12445,10,,51.24946600000000,04/01650/HSFD,140,food@rushmoor.gov.uk,Rushmoor,http://www.rushmoor.gov.uk,-0.76328600000000,GU11 1DZ,2014-02-12,fhrs_4_en-GB,4,,FHRS,5
252279,Junior Ranks Restaurant,New Normandy Barracks,Evelyn Woods Road,Aldershot,Jnr Ranks Regimental Restaurant,Restaurant/Cafe/Canteen,1,0,,11229,0,,,04/00513/FOOD,140,food@rushmoor.gov.uk,Rushmoor,http://www.rushmoor.gov.uk,,,2013-09-09,fhrs_5_en-GB,5,,FHRS,0
252280,Junior Ranks Club And Londis,Mons Barracks,Princes Avenue,Aldershot,JRC / Londis,Restaurant/Cafe/Canteen,1,5,,15416,5,,,05/00217/FOOD,140,food@rushmoor.gov.uk,Rushmoor,http://www.rushmoor.gov.uk,,,2013-03-11,fhrs_5_en-GB,5,,FHRS,0
252281,220 Farnborough Road,Farnborough,Hampshire,,Kamko Off Licence And Convenience Store,Retailers - other,4613,20,,25561,20,,51.29306000000000,08/00100/HSFD,140,food@rushmoor.gov.uk,Rushmoor,http://www.rushmoor.gov.uk,-0.75302200000000,GU14 7JW,2014-09-18,fhrs_1_en-GB,1,,FHRS,10
252282,201 North Lane,Aldershot,Hampshire,,Kebab Centre,Takeaway/sandwich shop,7844,10,,12091,10,,51.25047500000000,04/01100/HSFD,140,food@rushmoor.gov.uk,Rushmoor,http://www.rushmoor.gov.uk,-0.74315600000000,GU12 4SY,2013-08-06,fhrs_3_en-GB,3,,FHRS,10
252283,17 Union Street,Aldershot,Hampshire,,Kentucky Fried Chicken,Takeaway/sandwich shop,7844,5,,12550,5,,51.24932700000000,04/01803/HSFD,140,food@rushmoor.gov.uk,Rushmoor,http://www.rushmoor.gov.uk,-0.76541000000000,GU11 1EP,2014-03-17,fhrs_4_en-GB,4,,FHRS,10
252284,66 Victoria Road,Farnborough,Hampshire,,Kentucky Fried Chicken,Takeaway/sandwich shop,7844,10,,12327,5,,51.29320700000000,04/01485/HSFD,140,food@rushmoor.gov.uk,Rushmoor,http://www.rushmoor.gov.uk,-0.75845400000000,GU14 7PH,2014-06-18,fhrs_3_en-GB,3,,FHRS,10
252285,Clocktower House - Kids Den,Redvers Buller Road,Aldershot,Hampshire,Kids Den - 1st Floor,Hospitals/Childcare/Caring Premises,5,5,,26076,5,,51.26075600000000,08/00191/HSFD,140,food@rushmoor.gov.uk,Rushmoor,http://www.rushmoor.gov.uk,-0.75864000000000,GU11 2BY,2013-07-19,fhrs_5_en-GB,5,,FHRS,5
252286,86 Kings Road,Aldershot,Hampshire,,Kings,Takeaway/sandwich shop,7844,5,,11887,10,,51.24713600000000,04/00917/HSFD,140,food@rushmoor.gov.uk,Rushmoor,http://www.rushmoor.gov.uk,-0.77774800000000,GU11 3PJ,2013-10-29,fhrs_4_en-GB,4,,FHRS,5
252287,35 Queens Road,Farnborough,Hampshire,,Kings Indian Tandoori,Takeaway/sandwich shop,7844,5,,726692,5,,51.27696000000000,14/00113/HSFD,140,food@rushmoor.gov.uk,Rushmoor,http://www.rushmoor.gov.uk,-0.74431100000000,GU14 6JP,2014-12-09,fhrs_4_en-GB,4,,FHRS,10
252288,205 Farnborough Road,Farnborough,Hampshire,,Kingsmead Service Station (Total),Retailers - other,4613,5,,25797,0,,51.29218700000000,08/00136/HSFD,140,food@rushmoor.gov.uk,Rushmoor,http://www.rushmoor.gov.uk,-0.75383500000000,GU14 7JT,2012-01-20,fhrs_4_en-GB,4,,FHRS,10
252289,83 Canterbury Road,Farnborough,Hampshire,,Knellwood,Hospitals/Childcare/Caring Premises,5,5,,10759,5,,51.28615100000000,04/00296/HSFD,140,food@rushmoor.gov.uk,Rushmoor,http://www.rushmoor.gov.uk,-0.74440500000000,GU14 6QN,2013-06-24,fhrs_5_en-GB,5,,FHRS,5
252290,La Fontaine,92 Windmill Road,Aldershot,Hampshire,La Fontaine Public House,Pub/bar/nightclub,7843,5,,12492,5,,51.24783300000000,04/01679/HSFD,140,food@rushmoor.gov.uk,Rushmoor,http://www.rushmoor.gov.uk,-0.75181000000000,GU12 4NJ,2013-09-05,fhrs_5_en-GB,5,,FHRS,5
252291,10 Upper Union Street,Aldershot,Hampshire,,Lali Gurash Nepal Cafe,Restaurant/Cafe/Canteen,1,5,,457425,10,,51.24900200000000,12/00102/HSEP,140,food@rushmoor.gov.uk,Rushmoor,http://www.rushmoor.gov.uk,-0.76786900000000,GU11 1EX,2014-04-23,fhrs_3_en-GB,3,,FHRS,10
252292,5 Wellington Centre,Aldershot,Hampshire,,Lidl,Retailers - supermarkets/hypermarkets,7840,0,,34821,10,,51.24886500000000,10/00158/HSFD,140,food@rushmoor.gov.uk,Rushmoor,http://www.rushmoor.gov.uk,-0.76430500000000,GU11 1DB,2014-10-22,fhrs_4_en-GB,4,,FHRS,5
252293,157 Pinewood Park,Farnborough,Hampshire,,Little Bo Peep's,Other catering premises,7841,10,,401587,5,,51.30933300000000,12/00066/FOOD,140,food@rushmoor.gov.uk,Rushmoor,http://www.rushmoor.gov.uk,-0.78705800000000,GU14 9LE,2012-06-14,fhrs_4_en-GB,4,,FHRS,5
252294,9 St Georges Road East,Aldershot,Hampshire,,Little Flowers Day Nursery,Hospitals/Childcare/Caring Premises,5,0,,457426,5,,51.24591600000000,12/00126/HSFD,140,food@rushmoor.gov.uk,Rushmoor,http://www.rushmoor.gov.uk,-0.75587400000000,GU12 4JQ,2014-09-25,fhrs_5_en-GB,5,,FHRS,5
252295,60 Lower Farnham Road,Aldershot,Hampshire,,Little Jems Sweet Trees,Other catering premises,7841,,,521386,,,51.24047400000000,13/00007/FOOD,140,food@rushmoor.gov.uk,Rushmoor,http://www.rushmoor.gov.uk,-0.74391500000000,GU12 4EA,2013-03-04,fhrs_exempt_en-GB,Exempt,,FHRS,
252296,248 Farnborough Road,Farnborough,Hampshire,,Lloyds Pharmacy,Retailers - other,4613,,,11311,,,51.29306000000000,04/00559/HSFD,140,food@rushmoor.gov.uk,Rushmoor,http://www.rushmoor.gov.uk,-0.75302200000000,GU14 7JW,2014-12-05,fhrs_exempt_en-GB,Exempt,,FHRS,
252297,280B Lower Farnham Road,Aldershot,Hampshire,,Lloyds Pharmacy,Retailers - other,4613,,,11912,,,51.23485300000000,04/00938/HSFD,140,food@rushmoor.gov.uk,Rushmoor,http://www.rushmoor.gov.uk,-0.75812000000000,GU11 3RD,2011-03-04,fhrs_exempt_en-GB,Exempt,,FHRS,
252298,3 Broomhill Road,Farnborough,Hampshire,,Londis,Retailers - other,4613,5,,12914,5,,51.29865400000000,04/02473/HSFD,140,food@rushmoor.gov.uk,Rushmoor,http://www.rushmoor.gov.uk,-0.78044000000000,GU14 9PN,2014-10-15,fhrs_4_en-GB,4,,FHRS,10
252299,46 - 48 Giffard Drive,Farnborough,Hampshire,,Londis,Retailers - other,4613,10,,11412,10,,51.29881000000000,04/00635/HSFD,140,food@rushmoor.gov.uk,Rushmoor,http://www.rushmoor.gov.uk,-0.77043800000000,GU14 8PX,2014-01-13,fhrs_3_en-GB,3,,FHRS,10
252300,81 Fernhill Road,Farnborough,Hampshire,,Londis,Retailers - other,4613,5,,28462,5,,51.29900100000000,09/00001/HSFD,140,food@rushmoor.gov.uk,Rushmoor,http://www.rushmoor.gov.uk,-0.77753300000000,GU14 9SA,2014-01-09,fhrs_4_en-GB,4,,FHRS,10
252301,Lille Barracks,Redvers Buller Road,Aldershot,Hampshire,Main Kitchen,Restaurant/Cafe/Canteen,1,5,,11899,5,,51.27068500000000,04/00926/HSFD,140,food@rushmoor.gov.uk,Rushmoor,http://www.rushmoor.gov.uk,-0.74294700000000,,2013-09-10,fhrs_5_en-GB,5,,FHRS,5
252302,94 Reading Road,Farnborough,Hampshire,,Malacca,Restaurant/Cafe/Canteen,1,5,,12204,5,,51.28059600000000,04/01266/HSFD,140,food@rushmoor.gov.uk,Rushmoor,http://www.rushmoor.gov.uk,-0.74459900000000,GU14 6NL,2015-02-09,fhrs_5_en-GB,5,,FHRS,5
252303,41 Station Road,Aldershot,Hampshire,,Malinggo Restaurant,Restaurant/Cafe/Canteen,1,5,,609519,10,,51.24882800000000,13/00103/HSFD,140,food@rushmoor.gov.uk,Rushmoor,http://www.rushmoor.gov.uk,-0.76165500000000,GU11 1BA,2013-11-12,fhrs_4_en-GB,4,,FHRS,5
252304,52 Union Street,Aldershot,Hampshire,,Mangobean,Restaurant/Cafe/Canteen,1,10,,736038,10,,51.24961300000000,15/00006/HSFD,140,food@rushmoor.gov.uk,Rushmoor,http://www.rushmoor.gov.uk,-0.76531600000000,GU11 1EW,2015-02-02,fhrs_3_en-GB,3,,FHRS,5
252305,Manor Junior School,Fernhill Road,Farnborough,Hampshire,Manor Junior & Infants School,School/college/university,7845,5,,11376,10,,51.30363200000000,04/00604/HSFD,140,food@rushmoor.gov.uk,Rushmoor,http://www.rushmoor.gov.uk,-0.77584600000000,GU14 9DX,2013-11-14,fhrs_4_en-GB,4,,FHRS,5
252306,Manor Place Retirement Home,116 Church Lane East,Aldershot,Hampshire,Manor Place Nursing Home,Hospitals/Childcare/Caring Premises,5,5,,10861,5,,51.24147300000000,04/00340/FOOD,140,food@rushmoor.gov.uk,Rushmoor,http://www.rushmoor.gov.uk,-0.75745500000000,GU11 3HN,2014-09-16,fhrs_5_en-GB,5,,FHRS,5
252307,23 - 25 Manor Road,Aldershot,Hampshire,,Maple House Nursing Home,Hospitals/Childcare/Caring Premises,5,5,,11997,5,,51.24204100000000,04/01036/HSFD,140,food@rushmoor.gov.uk,Rushmoor,http://www.rushmoor.gov.uk,-0.76779700000000,GU11 3DG,2014-09-24,fhrs_5_en-GB,5,,FHRS,5
252308,Maple Vue Children's Centre,Belle Vue Road,Aldershot,Hampshire,Maple Vue Nursery,Hospitals/Childcare/Caring Premises,5,5,,189350,10,,51.24795400000000,12/00010/FOOD,140,food@rushmoor.gov.uk,Rushmoor,http://www.rushmoor.gov.uk,-0.74372600000000,GU12 4RZ,2012-01-13,fhrs_4_en-GB,4,,FHRS,5
252309,58 Church Road,Aldershot,Hampshire,,Mark Turner And Daughters,Manufacturers/packers,7839,0,,10895,5,,51.23796700000000,04/00354/HSFD,140,food@rushmoor.gov.uk,Rushmoor,http://www.rushmoor.gov.uk,-0.75252100000000,GU11 3PS,2014-01-14,fhrs_5_en-GB,5,,FHRS,0
252310,38 Union Street,Aldershot,Hampshire,,Marks & Spencers Plc,Retailers - supermarkets/hypermarkets,7840,0,,12566,0,,51.24977800000000,04/01821/HSFD,140,food@rushmoor.gov.uk,Rushmoor,http://www.rushmoor.gov.uk,-0.76554100000000,GU11 1BT,2012-09-12,fhrs_5_en-GB,5,,FHRS,0
252311,Marlborough County Infant School,Redvers Buller Road,Aldershot,Hampshire,Marlborough Infant School,School/college/university,7845,5,,666478,5,,51.27196100000000,14/00054/FOOD,140,food@rushmoor.gov.uk,Rushmoor,http://www.rushmoor.gov.uk,-0.74687000000000,GU11 2HR,2014-06-03,fhrs_5_en-GB,5,,FHRS,5
252312,238 North Lane,Aldershot,Hampshire,,Martin McColls,Retailers - other,4613,10,,18117,10,,51.25084600000000,06/00072/HSFD,140,food@rushmoor.gov.uk,Rushmoor,http://www.rushmoor.gov.uk,-0.74261500000000,GU12 4TJ,2013-06-04,fhrs_3_en-GB,3,,FHRS,5
252313,76 Church Road,Aldershot,Hampshire,,Martins Newsagents,Retailers - other,4613,5,,10904,10,,51.23796700000000,04/00357/HSFD,140,food@rushmoor.gov.uk,Rushmoor,http://www.rushmoor.gov.uk,-0.75252100000000,GU11 3PS,2014-03-06,fhrs_3_en-GB,3,,FHRS,10
252314,61 Cove Road,Farnborough,Hampshire,,Marts Fish & Chips,Takeaway/sandwich shop,7844,5,,11019,5,,51.29187500000000,04/00410/HSFD,140,food@rushmoor.gov.uk,Rushmoor,http://www.rushmoor.gov.uk,-0.76941800000000,GU14 0EX,2014-12-09,fhrs_5_en-GB,5,,FHRS,5
252315,27 - 29 Manor Road,Aldershot,Hampshire,,Marwa Nursing Home,Hospitals/Childcare/Caring Premises,5,10,,11999,10,,51.24204100000000,04/01037/FOOD,140,food@rushmoor.gov.uk,Rushmoor,http://www.rushmoor.gov.uk,-0.76779700000000,GU11 3DG,2014-06-03,fhrs_3_en-GB,3,,FHRS,10
252316,,,,,Maynes Burger Bar,Mobile caterer,7846,5,,15369,0,,,05/00194/HSFD,140,food@rushmoor.gov.uk,Rushmoor,http://www.rushmoor.gov.uk,,,2013-08-02,fhrs_5_en-GB,5,,FHRS,0
252317,171 North Lane,Aldershot,Hampshire,,Mays Chinese Food Takeaway,Takeaway/sandwich shop,7844,10,,13031,10,,51.25047500000000,04/02763/HSFD,140,food@rushmoor.gov.uk,Rushmoor,http://www.rushmoor.gov.uk,-0.74315600000000,GU12 4SY,2014-09-10,fhrs_3_en-GB,3,,FHRS,5
252318,19 Queens Road,Farnborough,Hampshire,,Mazza,Takeaway/sandwich shop,7844,20,,30839,15,,51.27673200000000,09/00290/HSFD,140,food@rushmoor.gov.uk,Rushmoor,http://www.rushmoor.gov.uk,-0.74648200000000,GU14 6DU,2014-12-31,fhrs_1_en-GB,1,,FHRS,15
252319,230 Farnborough Road,Farnborough,Hampshire,,McChina Wok Away,Takeaway/sandwich shop,7844,5,,11294,5,,51.29306000000000,04/00547/HSFD,140,food@rushmoor.gov.uk,Rushmoor,http://www.rushmoor.gov.uk,-0.75302200000000,GU14 7JW,2013-07-22,fhrs_5_en-GB,5,,FHRS,5
252320,79 Victoria Road,Aldershot,Hampshire,,McChina Wok Away,Takeaway/sandwich shop,7844,5,,644467,10,,51.24806400000000,14/00035/HSFD,140,food@rushmoor.gov.uk,Rushmoor,http://www.rushmoor.gov.uk,-0.76081600000000,GU11 1SH,2014-04-14,fhrs_4_en-GB,4,,FHRS,5
252321,1 Blackwater Shopping Park,Farnborough Gate,Farnborough,Hampshire,McDonalds,Restaurant/Cafe/Canteen,1,0,,12693,5,,51.30753700000000,04/02048/HSFD,140,food@rushmoor.gov.uk,Rushmoor,http://www.rushmoor.gov.uk,-0.74878500000000,GU14 8BL,2014-03-11,fhrs_5_en-GB,5,,FHRS,5
252322,23 Union Street,Aldershot,Hampshire,,McDonalds,Restaurant/Cafe/Canteen,1,5,,12556,5,,51.24932700000000,04/01809/HSFD,140,food@rushmoor.gov.uk,Rushmoor,http://www.rushmoor.gov.uk,-0.76541000000000,GU11 1EP,2013-02-13,fhrs_5_en-GB,5,,FHRS,5
252323,227 Farnborough Road,Farnborough,Hampshire,,McDonald's Restaurants Ltd,Restaurant/Cafe/Canteen,1,5,,730410,5,,51.29218600000000,14/00094/HSFD,140,food@rushmoor.gov.uk,Rushmoor,http://www.rushmoor.gov.uk,-0.75383400000000,GU14 7JT,2015-01-06,fhrs_5_en-GB,5,,FHRS,0
252324,17 - 19 Church Avenue,Farnborough,Hampshire,,Melford House,Hotel/bed & breakfast/guest house,7842,0,,10819,5,,51.29005300000000,04/00322/HSFD,140,food@rushmoor.gov.uk,Rushmoor,http://www.rushmoor.gov.uk,-0.74933200000000,GU14 7AT,2014-01-09,fhrs_5_en-GB,5,,FHRS,5
252325,90 Holly Road,Aldershot,Hampshire,,Melita Stores,Retailers - other,4613,5,,11867,5,,51.24648800000000,04/00901/HSFD,140,food@rushmoor.gov.uk,Rushmoor,http://www.rushmoor.gov.uk,-0.74624400000000,GU12 4SG,2014-02-14,fhrs_4_en-GB,4,,FHRS,10
252326,5 Saunton Gardens,Farnborough,Hampshire,,Mencap Homes,Hospitals/Childcare/Caring Premises,5,5,,12232,5,,51.30483700000000,04/01310/HSFD,140,food@rushmoor.gov.uk,Rushmoor,http://www.rushmoor.gov.uk,-0.76640300000000,GU14 8UN,2010-01-28,fhrs_4_en-GB,4,,FHRS,10
252327,St Christophers Church,Cove Road,Farnborough,Hampshire,Messy Church,Other catering premises,7841,0,,225426,0,,51.28246100000000,11/00196/HSFD,140,food@rushmoor.gov.uk,Rushmoor,http://www.rushmoor.gov.uk,-0.74756400000000,,2013-09-25,fhrs_5_en-GB,5,,FHRS,5
252328,13 High Street,Aldershot,Hampshire,,Milano Pizza,Takeaway/sandwich shop,7844,10,,718559,10,,51.24995300000000,14/00106/HSFD,140,food@rushmoor.gov.uk,Rushmoor,http://www.rushmoor.gov.uk,-0.76686900000000,GU11 1BH,2014-11-05,fhrs_2_en-GB,2,,FHRS,15
252329,3 Westgate,Aldershot,Hampshire,,Mimosa,Restaurant/Cafe/Canteen,1,5,,528935,10,,,12/00157/HSFD,140,food@rushmoor.gov.uk,Rushmoor,http://www.rushmoor.gov.uk,,GU11 1WG,2013-09-04,fhrs_4_en-GB,4,,FHRS,5
252330,42 St Michaels Road,Aldershot,Hampshire,,Mina & Gus Convenience Store,Retailers - other,4613,10,,12255,10,,51.24583500000000,04/01341/HSFD,140,food@rushmoor.gov.uk,Rushmoor,http://www.rushmoor.gov.uk,-0.75756600000000,GU12 4JE,2014-10-16,fhrs_2_en-GB,2,,FHRS,15
252331,Southwood Sports Pavilion,Kennels Lane,Farnborough,Hampshire,MKG Catering,Other catering premises,7841,10,,528941,5,,51.29073400000000,13/00014/HSFD,140,food@rushmoor.gov.uk,Rushmoor,http://www.rushmoor.gov.uk,-0.79894900000000,GU14 0ST,2013-03-26,fhrs_4_en-GB,4,,FHRS,5
252332,250 High Street,Aldershot,Hampshire,,MKS Food & Wine,Retailers - other,4613,0,,47176,5,,51.24671800000000,11/00111/HSFD,140,food@rushmoor.gov.uk,Rushmoor,http://www.rushmoor.gov.uk,-0.75515000000000,GU12 4LP,2013-08-08,fhrs_5_en-GB,5,,FHRS,5
252333,22 Station Road,Aldershot,Hampshire,,Mo Mo Station,Restaurant/Cafe/Canteen,1,5,,698978,10,,51.24775600000000,14/00090/HSFD,140,food@rushmoor.gov.uk,Rushmoor,http://www.rushmoor.gov.uk,-0.76146900000000,GU11 1HT,2014-09-03,fhrs_4_en-GB,4,,FHRS,5
252334,The Monkey Puzzle,101 Ively Road,Farnborough,Hampshire,Monkey Puzzle Public House,Restaurant/Cafe/Canteen,1,0,,11880,5,,51.29013700000000,04/00912/HSFD,140,food@rushmoor.gov.uk,Rushmoor,http://www.rushmoor.gov.uk,-0.78037800000000,GU14 0JP,2014-03-10,fhrs_5_en-GB,5,,FHRS,5
252335,Main Kitchen,Mons Barracks,Princes Avenue,Aldershot,Mons Barracks (Main Kitchen),Restaurant/Cafe/Canteen,1,5,,12159,5,,,04/01173/FOOD,140,food@rushmoor.gov.uk,Rushmoor,http://www.rushmoor.gov.uk,,,2013-09-12,fhrs_5_en-GB,5,,FHRS,0
252336,Retail Outlet - Platform 1,Farnborough Railway Station,Union Street,Farnborough,Moo La La,Restaurant/Cafe/Canteen,1,10,,584560,10,,51.29666400000000,13/00118/HSFD,140,food@rushmoor.gov.uk,Rushmoor,http://www.rushmoor.gov.uk,-0.75543500000000,GU14 7NL,2013-09-10,fhrs_3_en-GB,3,,FHRS,10
252337,5 Westgate,Aldershot,Hampshire,,Morrisons,Retailers - supermarkets/hypermarkets,7840,0,,482120,5,,,12/00107/HSFD,140,food@rushmoor.gov.uk,Rushmoor,http://www.rushmoor.gov.uk,,GU11 1WG,2014-11-04,fhrs_5_en-GB,5,,FHRS,0
252338,Morrisons,1 Southwood Village Centre,Links Way,Farnborough,Morrisons Supermarkets Plc,Retailers - supermarkets/hypermarkets,7840,5,,12646,5,,51.29133200000000,04/01938/HSFD,140,food@rushmoor.gov.uk,Rushmoor,http://www.rushmoor.gov.uk,-0.78720200000000,GU14 0NA,2014-03-13,fhrs_5_en-GB,5,,FHRS,5
252339,Mother Goose Nursery,108A St Michaels Road,Aldershot,Hampshire,Mother Goose Nursery School,Hospitals/Childcare/Caring Premises,5,5,,12257,0,,51.24372200000000,04/01344/HSFD,140,food@rushmoor.gov.uk,Rushmoor,http://www.rushmoor.gov.uk,-0.76007300000000,GU12 4JW,2014-03-18,fhrs_5_en-GB,5,,FHRS,5
252340,8 The Mead,Farnborough,Hampshire,,Mr Simms Sweet Shop,Retailers - other,4613,5,,190119,0,,51.29188400000000,11/00106/HSFD,140,food@rushmoor.gov.uk,Rushmoor,http://www.rushmoor.gov.uk,-0.75661100000000,GU14 7RT,2015-01-13,fhrs_5_en-GB,5,,FHRS,5
252341,3 Cross Street,Aldershot,Hampshire,,Munch Stop Pizza,Takeaway/sandwich shop,7844,5,,615466,5,,51.24883200000000,13/00125/HSFD,140,food@rushmoor.gov.uk,Rushmoor,http://www.rushmoor.gov.uk,-0.76626900000000,GU11 1EY,2013-11-20,fhrs_4_en-GB,4,,FHRS,10
252342,Foxs Gymnasium,Queens Avenue,Aldershot,Hampshire,Naafi Coffee Lounge,Retailers - other,4613,0,,12169,0,,51.26312600000000,04/01186/FOOD,140,food@rushmoor.gov.uk,Rushmoor,http://www.rushmoor.gov.uk,-0.75572400000000,GU11 2LB,2012-02-06,fhrs_5_en-GB,5,,FHRS,0
252343,120 Victoria Road,Aldershot,Hampshire,,Namaste Express,Retailers - other,4613,10,,736039,15,,51.24854900000000,15/00015/HSFD,140,food@rushmoor.gov.uk,Rushmoor,http://www.rushmoor.gov.uk,-0.76243700000000,GU11 1JX,2015-01-27,fhrs_2_en-GB,2,,FHRS,10
252344,334 Fernhill Road,Farnborough,Hampshire,,Namaste Super Mart,Retailers - other,4613,20,,726688,10,,51.31218900000000,14/00065/HSFD,140,food@rushmoor.gov.uk,Rushmoor,http://www.rushmoor.gov.uk,-0.77635000000000,GU14 9EF,2014-12-12,fhrs_1_en-GB,1,,FHRS,15
252345,9 Westgate,Aldershot,Hampshire,,Nandos,Other catering premises,7841,5,,528932,5,,,12/00135/HSFD,140,food@rushmoor.gov.uk,Rushmoor,http://www.rushmoor.gov.uk,,GU11 1WG,2013-03-08,fhrs_5_en-GB,5,,FHRS,5
252346,46 Grosvenor Road,Aldershot,Hampshire,,Nanglo Cafe & Restaurant,Restaurant/Cafe/Canteen,1,10,,47415,5,,51.24706400000000,11/00131/HSFD,140,food@rushmoor.gov.uk,Rushmoor,http://www.rushmoor.gov.uk,-0.76663100000000,GU11 3DY,2013-07-18,fhrs_4_en-GB,4,,FHRS,5
252347,54 Netley Street,Farnborough,Hampshire,,Netley House,Hotel/bed & breakfast/guest house,7842,5,,12041,0,,51.27604300000000,04/01068/HSFD,140,food@rushmoor.gov.uk,Rushmoor,http://www.rushmoor.gov.uk,-0.75437200000000,GU14 6AT,2010-02-09,fhrs_5_en-GB,5,,FHRS,5
252348,24 Queens Road,Farnborough,Hampshire,,New Golden Rice,Takeaway/sandwich shop,7844,10,,554652,15,,51.27700000000000,13/00070/HSFD,140,food@rushmoor.gov.uk,Rushmoor,http://www.rushmoor.gov.uk,-0.74716300000000,GU14 6DT,2014-05-01,fhrs_2_en-GB,2,,FHRS,5
252349,186 Victoria Road,Aldershot,Hampshire,,New Gurkha Restaurant,Restaurant/Cafe/Canteen,1,10,,706082,10,,51.24867900000000,14/00028/HSFD,140,food@rushmoor.gov.uk,Rushmoor,http://www.rushmoor.gov.uk,-0.76627300000000,GU11 1JZ,2014-10-02,fhrs_2_en-GB,2,,FHRS,15
252350,11 The Mead,Farnborough,Hampshire,,New Look,Retailers - other,4613,,,46229,,,51.29188400000000,11/00053/HSFD,140,food@rushmoor.gov.uk,Rushmoor,http://www.rushmoor.gov.uk,-0.75661100000000,GU14 7RT,2011-03-21,fhrs_exempt_en-GB,Exempt,,FHRS,
252351,83 Victoria Road,Aldershot,Hampshire,,New Testament Church Of God,Restaurant/Cafe/Canteen,1,10,,620270,10,,51.24806400000000,13/00132/HSFD,140,food@rushmoor.gov.uk,Rushmoor,http://www.rushmoor.gov.uk,-0.76081600000000,GU11 1SH,2013-11-26,fhrs_3_en-GB,3,,FHRS,10
252352,Newport Road,Aldershot,Hampshire,,Newport County Junior School,School/college/university,7845,5,,12068,5,,51.24393600000000,04/01077/HSFD,140,food@rushmoor.gov.uk,Rushmoor,http://www.rushmoor.gov.uk,-0.74806200000000,GU12 4PW,2014-10-16,fhrs_5_en-GB,5,,FHRS,0
252353,73 Queensmead,Farnborough,Hampshire,,News Plus,Retailers - other,4613,5,,482121,5,,51.29125100000000,12/00160/HSFD,140,food@rushmoor.gov.uk,Rushmoor,http://www.rushmoor.gov.uk,-0.75540900000000,GU14 7RZ,2012-12-06,fhrs_5_en-GB,5,,FHRS,5
252354,,,,,Nilam's Cake,Other catering premises,7841,10,,576626,0,,,13/00097/FOOD,140,food@rushmoor.gov.uk,Rushmoor,http://www.rushmoor.gov.uk,,,2013-08-06,fhrs_4_en-GB,4,,FHRS,5
252355,Nirmaya Rodhighar,Townstead House,111 - 113 Victoria Road,Aldershot,Nirmaya Rodhi Ghar,Pub/bar/nightclub,7843,5,,189351,5,,51.24814400000000,12/00012/HSFD,140,food@rushmoor.gov.uk,Rushmoor,http://www.rushmoor.gov.uk,-0.76239000000000,GU11 1JE,2014-12-23,fhrs_5_en-GB,5,,FHRS,5
252356,6 Peabody Road,Farnborough,Hampshire,,North Camp Fish Bar,Takeaway/sandwich shop,7844,5,,30711,5,,51.27596400000000,09/00251/HSFD,140,food@rushmoor.gov.uk,Rushmoor,http://www.rushmoor.gov.uk,-0.74531300000000,GU14 6EY,2014-12-11,fhrs_5_en-GB,5,,FHRS,5
252357,41 Camp Road,Farnborough,Hampshire,,North Camp Pharmacy,Retailers - other,4613,,,410506,,,51.27570300000000,12/00086/HSFD,140,food@rushmoor.gov.uk,Rushmoor,http://www.rushmoor.gov.uk,-0.74784400000000,GU14 6EN,2013-02-06,fhrs_exempt_en-GB,Exempt,,FHRS,
252358,The North Camp,95 Lynchford Road,Farnborough,Hampshire,North Camp Public House,Pub/bar/nightclub,7843,10,,615467,10,,51.27503700000000,13/00140/HSFD,140,food@rushmoor.gov.uk,Rushmoor,http://www.rushmoor.gov.uk,-0.74605500000000,GU14 6ET,2013-11-25,fhrs_2_en-GB,2,,FHRS,15
252359,North Farnborough County Infant Sch,Rectory Road,Farnborough,Hampshire,North Farnborough Infant School,School/college/university,7845,0,,12212,5,,51.29942400000000,04/01278/HSFD,140,food@rushmoor.gov.uk,Rushmoor,http://www.rushmoor.gov.uk,-0.74278100000000,GU14 8AJ,2014-12-12,fhrs_5_en-GB,5,,FHRS,5
252360,Oak Farm Service Station,224 Prospect Road,Farnborough,Hampshire,Oak Farm Connect,Retailers - other,4613,5,,11302,5,,51.30195800000000,04/00551/HSFDEP,140,food@rushmoor.gov.uk,Rushmoor,http://www.rushmoor.gov.uk,-0.76032700000000,GU14 8JZ,2014-02-13,fhrs_5_en-GB,5,,FHRS,5
252361,112 Farnborough Road,Farnborough,Hampshire,,Oak Trees Guest House,Hotel/bed & breakfast/guest house,7842,5,,17736,5,,51.28361100000000,06/00025/HSFD,140,food@rushmoor.gov.uk,Rushmoor,http://www.rushmoor.gov.uk,-0.75240400000000,GU14 6TN,2015-01-15,fhrs_5_en-GB,5,,FHRS,5
252362,Government House,9 Farnborough Road,Aldershot,Hampshire,Officers Mess,Restaurant/Cafe/Canteen,1,0,,537625,0,,51.27240900000000,12/00103/HSFD,140,food@rushmoor.gov.uk,Rushmoor,http://www.rushmoor.gov.uk,-0.75937300000000,GU11 2HD,2014-11-06,fhrs_5_en-GB,5,,FHRS,0
252363,Lille Barracks,Redvers Buller Road,Aldershot,Hampshire,Officers Mess,Restaurant/Cafe/Canteen,1,5,,11895,0,,51.25369700000000,04/00923/HSFD,140,food@rushmoor.gov.uk,Rushmoor,http://www.rushmoor.gov.uk,-0.56282200000000,GU11 2NQ,2013-09-10,fhrs_5_en-GB,5,,FHRS,0
252364,New Normandy Barracks,Evelyn Woods Road,Aldershot,Hampshire,Officers Mess,Restaurant/Cafe/Canteen,1,5,,11233,5,,51.26971600000000,04/00514/HSFD,140,food@rushmoor.gov.uk,Rushmoor,http://www.rushmoor.gov.uk,-0.74799200000000,GU11 2LZ,2013-09-09,fhrs_5_en-GB,5,,FHRS,0
252365,Staff Canteen,124 Victoria Road,Farnborough,Hampshire,Olive Catering Services Ltd,Restaurant/Cafe/Canteen,1,5,,730411,5,,51.29235300000000,14/00100/HSFD,140,food@rushmoor.gov.uk,Rushmoor,http://www.rushmoor.gov.uk,-0.76022600000000,GU14 7PW,2015-01-14,fhrs_5_en-GB,5,,FHRS,5
252366,286 Lower Farnham Road,Aldershot,Hampshire,,One Stop,Retailers - other,4613,5,,11913,5,,51.23485300000000,04/00940/HSFD,140,food@rushmoor.gov.uk,Rushmoor,http://www.rushmoor.gov.uk,-0.75812000000000,GU11 3RD,2012-01-04,fhrs_5_en-GB,5,,FHRS,5
252367,65 - 67 Cove Road,Farnborough,Hampshire,,One Stop,Retailers - other,4613,5,,11025,5,,51.29187500000000,04/00413/HSFD,140,food@rushmoor.gov.uk,Rushmoor,http://www.rushmoor.gov.uk,-0.76941800000000,GU14 0EX,2013-09-12,fhrs_4_en-GB,4,,FHRS,10
252368,96 Chapel Lane,Farnborough,Hampshire,,One Stop,Retailers - other,4613,10,,644466,5,,51.31298900000000,14/00022/HSFD,140,food@rushmoor.gov.uk,Rushmoor,http://www.rushmoor.gov.uk,-0.77456400000000,GU14 9BL,2014-03-28,fhrs_4_en-GB,4,,FHRS,0
252369,68 Grosvenor Road,Aldershot,Hampshire,,Oriental Kitchen,Restaurant/Cafe/Canteen,1,5,,33798,10,,51.24644800000000,10/00067/HSFD,140,food@rushmoor.gov.uk,Rushmoor,http://www.rushmoor.gov.uk,-0.76614600000000,GU11 3EA,2013-11-13,fhrs_4_en-GB,4,,FHRS,5
252370,Our Lady And St Dominic Church,High View Road,Farnborough,Hampshire,Our Lady & St Dominic Church Hall,Other catering premises,7841,5,,25849,5,,51.29487100000000,08/00143/HSFD,140,food@rushmoor.gov.uk,Rushmoor,http://www.rushmoor.gov.uk,-0.76190900000000,GU14 7PT,2011-08-11,fhrs_5_en-GB,5,,FHRS,0
252371,32 Victoria Road,Farnborough,Hampshire,,Papa Johns,Takeaway/sandwich shop,7844,10,,34773,5,,51.29329400000000,10/00152/HSFD,140,food@rushmoor.gov.uk,Rushmoor,http://www.rushmoor.gov.uk,-0.75729000000000,GU14 7PG,2014-10-10,fhrs_3_en-GB,3,,FHRS,10
252372,76 Farnborough Road,Farnborough,Hampshire,,Paperweight Newsagents,Retailers - other,4613,10,,11267,15,,51.28208600000000,04/00528/HSFD,140,food@rushmoor.gov.uk,Rushmoor,http://www.rushmoor.gov.uk,-0.75271700000000,GU14 6TH,2014-02-06,fhrs_2_en-GB,2,,FHRS,10
252373,72 Farnborough Road,Farnborough,Hampshire,,Paprika Restaurant,Restaurant/Cafe/Canteen,1,10,,609520,15,,51.28208600000000,13/00146/HSFD,140,food@rushmoor.gov.uk,Rushmoor,http://www.rushmoor.gov.uk,-0.75271700000000,GU14 6TH,2013-11-06,fhrs_2_en-GB,2,,FHRS,10
252374,74 - 76 Alexandra Road,Farnborough,Hampshire,,Park Avenue,Hospitals/Childcare/Caring Premises,5,5,,452525,5,,51.27712580000000,12/00115/HSFD,140,food@rushmoor.gov.uk,Rushmoor,http://www.rushmoor.gov.uk,-0.75000068000000,,2014-03-11,fhrs_4_en-GB,4,,FHRS,10
252375,Park Lodge,74 Park Road,Farnborough,Hampshire,Park Lodge Guest House,Hotel/bed & breakfast/guest house,7842,0,,12123,5,,51.27826900000000,04/01133/HSFD,140,food@rushmoor.gov.uk,Rushmoor,http://www.rushmoor.gov.uk,-0.73811000000000,GU14 6LU,2011-02-17,fhrs_5_en-GB,5,,FHRS,0
252376,Park Nursery And Pre School,Park Childrens Centre,Gloucester Road,Aldershot,Park Nursery & Pre School,Hospitals/Childcare/Caring Premises,5,5,,493669,5,,51.23544100000000,13/00004/HSFD,140,food@rushmoor.gov.uk,Rushmoor,http://www.rushmoor.gov.uk,-0.75336300000000,GU11 3SL,2014-02-24,fhrs_5_en-GB,5,,FHRS,0
252377,Gloucester Road,Aldershot,Hampshire,,Park Primary School,School/college/university,7845,0,,11416,5,,51.23544100000000,04/00639/HSFD,140,food@rushmoor.gov.uk,Rushmoor,http://www.rushmoor.gov.uk,-0.75336300000000,GU11 3SL,2013-11-18,fhrs_5_en-GB,5,,FHRS,0
252378,7 - 10 Church Circle,Farnborough,Hampshire,,Park View Residential Home,Hospitals/Childcare/Caring Premises,5,5,,10833,5,,51.28297300000000,04/00328/HSFD,140,food@rushmoor.gov.uk,Rushmoor,http://www.rushmoor.gov.uk,-0.74741700000000,GU14 6QH,2014-03-19,fhrs_5_en-GB,5,,FHRS,5
252379,Parkside Centre,57 Guildford Road,Aldershot,Hampshire,Parkside Cafe In The Park,Takeaway/sandwich shop,7844,10,,46823,5,,51.23522400000000,11/00087/HSFD,140,food@rushmoor.gov.uk,Rushmoor,http://www.rushmoor.gov.uk,-0.74567700000000,GU12 4BP,2014-08-20,fhrs_4_en-GB,4,,FHRS,0
252380,Parkside Centre,57 Guildford Road,Aldershot,Hampshire,Parkside Social Centre,Hospitals/Childcare/Caring Premises,5,10,,11561,5,,51.23522400000000,04/00729/HSFD,140,food@rushmoor.gov.uk,Rushmoor,http://www.rushmoor.gov.uk,-0.74567700000000,GU12 4BP,2013-02-14,fhrs_4_en-GB,4,,FHRS,0
252381,Parsonage Farm Infant School,Cherry Tree Close,Farnborough,Hampshire,Parsonage Farm Nursery And Infant School,School/college/university,7845,0,,17544,0,,51.29891800000000,06/00007/HSFD,140,food@rushmoor.gov.uk,Rushmoor,http://www.rushmoor.gov.uk,-0.79119000000000,GU14 9TT,2013-10-25,fhrs_5_en-GB,5,,FHRS,0
252382,74 Church Road,Aldershot,Hampshire,,Pat's,Retailers - other,4613,5,,189348,10,,51.23796700000000,12/00011/HSFD,140,food@rushmoor.gov.uk,Rushmoor,http://www.rushmoor.gov.uk,-0.75252100000000,GU11 3PS,2013-12-19,fhrs_4_en-GB,4,,FHRS,5
252383,Community Centre,Mayfield Road,Farnborough,Hampshire,Pavillion Housing Association,Pub/bar/nightclub,7843,10,,25935,5,,51.30465500000000,08/00163/HSFD,140,food@rushmoor.gov.uk,Rushmoor,http://www.rushmoor.gov.uk,-0.76276500000000,GU14 8UB,2011-09-06,fhrs_4_en-GB,4,,FHRS,5
252384,14 Winchester Street,Farnborough,Hampshire,,Pear Tree Day Nursery,Hospitals/Childcare/Caring Premises,5,5,,25979,5,,51.27521300000000,08/00171/HSFD,140,food@rushmoor.gov.uk,Rushmoor,http://www.rushmoor.gov.uk,-0.75158400000000,GU14 6AW,2014-03-14,fhrs_5_en-GB,5,,FHRS,5
252385,The Sixth Form College,Prospect Avenue,Farnborough,Hampshire,Pebbles Day Nursery,Hospitals/Childcare/Caring Premises,5,5,,452679,5,,51.30491600000000,12/00101/HSFD,140,food@rushmoor.gov.uk,Rushmoor,http://www.rushmoor.gov.uk,-0.75604400000000,GU14 8JX,2014-02-26,fhrs_5_en-GB,5,,FHRS,5
252386,125 Victoria Road,Aldershot,Hampshire,,Peking Hot Wok,Takeaway/sandwich shop,7844,5,,12380,10,,51.24838900000000,04/01567/HSFD,140,food@rushmoor.gov.uk,Rushmoor,http://www.rushmoor.gov.uk,-0.76430300000000,GU11 1JW,2013-11-27,fhrs_4_en-GB,4,,FHRS,5
252387,133 Victoria Road,Aldershot,Hampshire,,Phewa Stores,Retailers - other,4613,10,,15197,10,,51.24838900000000,05/00131/HSFD,140,food@rushmoor.gov.uk,Rushmoor,http://www.rushmoor.gov.uk,-0.76430300000000,GU11 1JW,2015-01-27,fhrs_3_en-GB,3,,FHRS,5
252388,Pinewood Infants School,Pinewood Park,Farnborough,Hampshire,Pinewood Park County Infant School,School/college/university,7845,5,,12728,10,,51.30933300000000,04/02121/HSFD,140,food@rushmoor.gov.uk,Rushmoor,http://www.rushmoor.gov.uk,-0.78705800000000,GU14 9LE,2013-12-04,fhrs_4_en-GB,4,,FHRS,0
252389,68 Pinewood Park,Farnborough,Hampshire,,Pinewood Stores,Retailers - other,4613,5,,12727,5,,51.31009600000000,04/02119/HSFD,140,food@rushmoor.gov.uk,Rushmoor,http://www.rushmoor.gov.uk,-0.78690800000000,GU14 9LF,2014-01-10,fhrs_4_en-GB,4,,FHRS,10
252390,91 Whetstone Road,Farnborough,Hampshire,,Pizza Choice Best Kebab,Restaurant/Cafe/Canteen,1,5,,629579,10,,51.29647800000000,13/00109/HSFD,140,food@rushmoor.gov.uk,Rushmoor,http://www.rushmoor.gov.uk,-0.79085300000000,GU14 9SX,2014-01-21,fhrs_4_en-GB,4,,FHRS,5
252391,5 Union Street,Aldershot,Hampshire,,Pizza Go-Go And Kebabish,Takeaway/sandwich shop,7844,5,,537629,5,,51.24930700000000,13/00052/HSFD,140,food@rushmoor.gov.uk,Rushmoor,http://www.rushmoor.gov.uk,-0.76701600000000,GU11 1EG,2013-03-19,fhrs_5_en-GB,5,,FHRS,5
252392,149 Victoria Road,Aldershot,Hampshire,,Pizza Hut,Takeaway/sandwich shop,7844,5,,578461,5,,51.24840100000000,13/00104/HSFD,140,food@rushmoor.gov.uk,Rushmoor,http://www.rushmoor.gov.uk,-0.76543500000000,GU11 1JR,2013-07-25,fhrs_5_en-GB,5,,FHRS,5
252393,19 Station Road,Aldershot,Hampshire,,Pizza King Curry King,Takeaway/sandwich shop,7844,10,,199523,10,,51.24775600000000,12/00024/HSFD,140,food@rushmoor.gov.uk,Rushmoor,http://www.rushmoor.gov.uk,-0.76146900000000,GU11 1HT,2014-03-06,fhrs_3_en-GB,3,,FHRS,5
252394,Pool Road,Aldershot,Hampshire,,Place Court,Hospitals/Childcare/Caring Premises,5,5,,12158,5,,51.23499700000000,04/01169/HSFD,140,food@rushmoor.gov.uk,Rushmoor,http://www.rushmoor.gov.uk,-0.74887700000000,GU11 3SW,2013-12-19,fhrs_5_en-GB,5,,FHRS,0
252395,84 Alexandra Road,Farnborough,Hampshire,,Playdays Nursery,Hospitals/Childcare/Caring Premises,5,10,,595466,5,,51.27726800000000,13/00108/HSFD,140,food@rushmoor.gov.uk,Rushmoor,http://www.rushmoor.gov.uk,-0.75035300000000,GU14 6DD,2013-10-24,fhrs_4_en-GB,4,,FHRS,5
252396,Hampshire Constabulary Aldershot Di,Wellington Avenue,Aldershot,Hampshire,Police,Other catering premises,7841,,,12430,,,51.25062300000000,04/01620/HSFD,140,food@rushmoor.gov.uk,Rushmoor,http://www.rushmoor.gov.uk,-0.76900100000000,GU11 1NZ,2013-06-07,fhrs_exempt_en-GB,Exempt,,FHRS,
252397,132 Victoria Road,Aldershot,Hampshire,,Pop World,Pub/bar/nightclub,7843,5,,12386,5,,51.24854900000000,04/01572/HSFD,140,food@rushmoor.gov.uk,Rushmoor,http://www.rushmoor.gov.uk,-0.76243700000000,GU11 1JX,2014-12-15,fhrs_4_en-GB,4,,FHRS,10
252398,33 Medway Drive,Farnborough,Hampshire,,Popadoms,Restaurant/Cafe/Canteen,1,5,,29187,5,,51.30575000000000,09/00059/HSFD,140,food@rushmoor.gov.uk,Rushmoor,http://www.rushmoor.gov.uk,-0.77973500000000,GU14 9LY,2013-08-20,fhrs_4_en-GB,4,,FHRS,10
252399,13 Union Street,Aldershot,Hampshire,,Poppins Restaurant,Restaurant/Cafe/Canteen,1,5,,21263,5,,51.24930700000000,07/00003/HSFD,140,food@rushmoor.gov.uk,Rushmoor,http://www.rushmoor.gov.uk,-0.76701600000000,GU11 1EG,2013-05-20,fhrs_5_en-GB,5,,FHRS,5
252400,96D Queensmead,Farnborough,Hampshire,,Poppins Restaurant,Restaurant/Cafe/Canteen,1,0,,13021,5,,51.29110300000000,04/02731/FOOD,140,food@rushmoor.gov.uk,Rushmoor,http://www.rushmoor.gov.uk,-0.75587200000000,GU14 7SE,2014-10-03,fhrs_5_en-GB,5,,FHRS,0
252401,1 Fleet Road,Aldershot,Hampshire,,Potters International Hotel,Hotel/bed & breakfast/guest house,7842,10,,11354,10,,51.25978200000000,04/00584/HSFD,140,food@rushmoor.gov.uk,Rushmoor,http://www.rushmoor.gov.uk,-0.77202400000000,GU11 2ET,2014-03-12,fhrs_3_en-GB,3,,FHRS,10
252402,61 Queensmead,Farnborough,Hampshire,,Poundland,Retailers - other,4613,5,,30781,5,,51.29179300000000,09/00272/HSFD,140,food@rushmoor.gov.uk,Rushmoor,http://www.rushmoor.gov.uk,-0.75571000000000,GU14 7RL,2014-01-14,fhrs_4_en-GB,4,,FHRS,10
252403,132 Cove Road,Farnborough,Hampshire,,Premier,Retailers - other,4613,5,,21350,10,,51.29327300000000,07/00011/HSFD,140,food@rushmoor.gov.uk,Rushmoor,http://www.rushmoor.gov.uk,-0.77147500000000,GU14 0HG,2013-11-19,fhrs_3_en-GB,3,,FHRS,10
252404,69 Victoria Road,Farnborough,Hampshire,,Premier,Retailers - other,4613,10,,706083,10,,51.29355800000000,14/00064/HSFD,140,food@rushmoor.gov.uk,Rushmoor,http://www.rushmoor.gov.uk,-0.75848800000000,GU14 7PL,2014-10-02,fhrs_3_en-GB,3,,FHRS,10
252405,53 High Street,Aldershot,Hampshire,,Premier Express,Retailers - other,4613,10,,528943,15,,51.24995300000000,13/00026/HSFD,140,food@rushmoor.gov.uk,Rushmoor,http://www.rushmoor.gov.uk,-0.76686900000000,GU11 1BH,2013-03-07,fhrs_2_en-GB,2,,FHRS,10
252406,10 Westgate,Aldershot,Hampshire,,Prezzo,Restaurant/Cafe/Canteen,1,5,,528934,5,,,12/00147/HSFD,140,food@rushmoor.gov.uk,Rushmoor,http://www.rushmoor.gov.uk,,GU11 1WG,2013-03-13,fhrs_5_en-GB,5,,FHRS,5
252407,Kingsley Court,Windsor Way,Aldershot,Hampshire,Pride Catering (Peverel Retirement),Hospitals/Childcare/Caring Premises,5,5,,298506,0,,51.24717000000000,11/00204/HSFD,140,food@rushmoor.gov.uk,Rushmoor,http://www.rushmoor.gov.uk,-0.75956500000000,GU11 1HZ,2014-06-02,fhrs_5_en-GB,5,,FHRS,5
252408,19 Sand Hill Court,Farnborough,Hampshire,,Primrose House,Hospitals/Childcare/Caring Premises,5,0,,12994,0,,51.30774200000000,04/02653/FOOD,140,food@rushmoor.gov.uk,Rushmoor,http://www.rushmoor.gov.uk,-0.75710100000000,GU14 8EP,2011-02-01,fhrs_5_en-GB,5,,FHRS,5
252409,36 Invincible Road,Farnborough,Hampshire,,Primus International (St Bernards),Retailers - other,4613,,,12984,,,51.28761800000000,04/02618/FOOD,140,food@rushmoor.gov.uk,Rushmoor,http://www.rushmoor.gov.uk,-0.76482800000000,GU14 7QU,2012-02-24,fhrs_exempt_en-GB,Exempt,,FHRS,
252410,Princes Way,Aldershot,Hampshire,,Princes Hall,Other catering premises,7841,5,,10305,5,,51.25053600000000,04/00166/FOOD,140,food@rushmoor.gov.uk,Rushmoor,http://www.rushmoor.gov.uk,-0.76837300000000,GU11 1NX,2012-05-18,fhrs_5_en-GB,5,,FHRS,5
252411,,,,,Private Business,Other catering premises,7841,5,,18507,5,,,06/00143/HSFD,140,food@rushmoor.gov.uk,Rushmoor,http://www.rushmoor.gov.uk,,,2014-12-11,fhrs_4_en-GB,4,,FHRS,10
252412,166 Alexandra Road,Farnborough,Hampshire,,Pumpkin Patch,Hospitals/Childcare/Caring Premises,5,0,,26034,0,,51.28333800000000,08/00181/HSFD,140,food@rushmoor.gov.uk,Rushmoor,http://www.rushmoor.gov.uk,-0.75129300000000,GU14 6RY,2014-09-05,fhrs_5_en-GB,5,,FHRS,5
252413,50B Station Road,Aldershot,Hampshire,,Quality Superstore,Retailers - other,4613,10,,25013,5,,51.24923600000000,08/00035/HSFD,140,food@rushmoor.gov.uk,Rushmoor,http://www.rushmoor.gov.uk,-0.76111400000000,GU11 1BG,2013-05-30,fhrs_3_en-GB,3,,FHRS,10
252414,,,,,Quartered And Cured,Mobile caterer,7846,10,,709242,10,,,14/00069/FOOD,140,food@rushmoor.gov.uk,Rushmoor,http://www.rushmoor.gov.uk,,,2014-10-07,fhrs_3_en-GB,3,,FHRS,10
252415,The Queen Hotel,1 High Street,Aldershot,Hampshire,Queen Hotel,Pub/bar/nightclub,7843,0,,706081,0,,51.24995300000000,13/00153/HSFD,140,food@rushmoor.gov.uk,Rushmoor,http://www.rushmoor.gov.uk,-0.76686900000000,GU11 1BH,2014-09-29,fhrs_5_en-GB,5,,FHRS,0
252416,Queen Mary Nursery,Middle Hill,Aldershot,Hampshire,Queen Marys Nursery,Hospitals/Childcare/Caring Premises,5,5,,12014,10,,51.25355900000000,04/01049/FOOD,140,food@rushmoor.gov.uk,Rushmoor,http://www.rushmoor.gov.uk,-0.76429400000000,GU11 1PL,2014-12-18,fhrs_4_en-GB,4,,FHRS,5
252417,256 High Street,Aldershot,Hampshire,,Rajpoot,Restaurant/Cafe/Canteen,1,10,,733320,15,,51.24671800000000,15/00011/HSFD,140,food@rushmoor.gov.uk,Rushmoor,http://www.rushmoor.gov.uk,-0.75515000000000,GU12 4LP,2015-01-21,fhrs_2_en-GB,2,,FHRS,5
252418,Farnborough College Of Technology,Boundary Road,Farnborough,Hampshire,Refectory,School/college/university,7845,5,,10387,10,,51.28576200000000,04/00186/FOOD,140,food@rushmoor.gov.uk,Rushmoor,http://www.rushmoor.gov.uk,-0.75089700000000,GU14 6SB,2013-09-19,fhrs_4_en-GB,4,,FHRS,5
252419,Remyck House,5 Eggars Hill,Aldershot,Hampshire,Remyck House Retirement Guesthouse,Hospitals/Childcare/Caring Premises,5,10,,11203,10,,51.24132800000000,04/00498/HSFD,140,food@rushmoor.gov.uk,Rushmoor,http://www.rushmoor.gov.uk,-0.76672700000000,GU11 3NQ,2014-12-16,fhrs_3_en-GB,3,,FHRS,5
252420,Briarcliff House,Kingsmead,Farnborough,Hampshire,Restaurant Associates,Restaurant/Cafe/Canteen,1,5,,12538,0,,51.29102100000000,04/01780/HSFD,140,food@rushmoor.gov.uk,Rushmoor,http://www.rushmoor.gov.uk,-0.75408200000000,GU14 7TE,2013-09-18,fhrs_5_en-GB,5,,FHRS,5
252421,36 - 36A Camp Road,Farnborough,Hampshire,,Retro Coffee Shop,Restaurant/Cafe/Canteen,1,5,,25408,5,,51.27609730000000,08/00080/HSFD,140,food@rushmoor.gov.uk,Rushmoor,http://www.rushmoor.gov.uk,-0.74748725000000,,2013-05-16,fhrs_5_en-GB,5,,FHRS,5
252422,Park Church,Church Lane East,Aldershot,Hampshire,Rowhill Manor Preserves,Restaurant/Cafe/Canteen,1,5,,482118,5,,51.24069900000000,11/00071/HSFD,140,food@rushmoor.gov.uk,Rushmoor,http://www.rushmoor.gov.uk,-0.75317800000000,GU11 3ST,2012-11-30,fhrs_5_en-GB,5,,FHRS,5
252423,45 Peabody Road,Farnborough,Hampshire,,Royal Chef,Takeaway/sandwich shop,7844,5,,692162,10,,51.27664200000000,14/00062/HSFD,140,food@rushmoor.gov.uk,Rushmoor,http://www.rushmoor.gov.uk,-0.74480700000000,GU14 6HA,2014-08-06,fhrs_4_en-GB,4,,FHRS,5
252424,Runways End Outdoor Centre,1 Forge Lane,Aldershot,Hampshire,Runways End Activity Centre,Other catering premises,7841,,,12237,,,51.26472200000000,04/01315/HSFD,140,food@rushmoor.gov.uk,Rushmoor,http://www.rushmoor.gov.uk,-0.77061700000000,GU11 2RE,2012-06-01,fhrs_exempt_en-GB,Exempt,,FHRS,
252425,21 Camp Road,Farnborough,Hampshire,,Rushmoor Cafe,Restaurant/Cafe/Canteen,1,5,,10609,5,,51.27570300000000,04/00249/HSFD,140,food@rushmoor.gov.uk,Rushmoor,http://www.rushmoor.gov.uk,-0.74784400000000,GU14 6EN,2014-05-28,fhrs_5_en-GB,5,,FHRS,5
252426,Southwood Pavilion,Grasmere Road,Farnborough,Hampshire,Rushmoor Community Football Club,Restaurant/Cafe/Canteen,1,5,,30671,0,,51.29249600000000,09/00243/HSFD,140,food@rushmoor.gov.uk,Rushmoor,http://www.rushmoor.gov.uk,-0.77888200000000,GU14 0LE,2013-02-07,fhrs_5_en-GB,5,,FHRS,0
252427,2A Windsor Way,Aldershot,Hampshire,,Rushmoor Day Centre,Hospitals/Childcare/Caring Premises,5,5,,26163,5,,51.24784300000000,08/00212/HSFD,140,food@rushmoor.gov.uk,Rushmoor,http://www.rushmoor.gov.uk,-0.75863000000000,GU11 1JG,2014-12-23,fhrs_5_en-GB,5,,FHRS,5
252428,Pool Road,Aldershot,Hampshire,,Rushmoor Gymnastics Academy,Restaurant/Cafe/Canteen,1,5,,12155,10,,51.23478200000000,04/01167/HSFD,140,food@rushmoor.gov.uk,Rushmoor,http://www.rushmoor.gov.uk,-0.74975700000000,GU11 3SN,2014-12-17,fhrs_4_en-GB,4,,FHRS,0
252429,110 Victoria Road,Aldershot,Hampshire,,Rushmoor Kebabs,Takeaway/sandwich shop,7844,10,,29504,10,,51.24854900000000,09/00086/HSFD,140,food@rushmoor.gov.uk,Rushmoor,http://www.rushmoor.gov.uk,-0.76243700000000,GU11 1JX,2014-05-19,fhrs_3_en-GB,3,,FHRS,10
252430,45 York Road,Farnborough,Hampshire,,S Wise Catering,Pub/bar/nightclub,7843,5,,609218,5,,51.27796300000000,13/00143/HSFD,140,food@rushmoor.gov.uk,Rushmoor,http://www.rushmoor.gov.uk,-0.74646300000000,GU14 6NG,2013-11-13,fhrs_4_en-GB,4,,FHRS,10
252431,150 Ash Road,Aldershot,Hampshire,,Sainsbury's,Retailers - other,4613,0,,676363,0,,51.24182600000000,14/00020/HSFD,140,food@rushmoor.gov.uk,Rushmoor,http://www.rushmoor.gov.uk,-0.74422200000000,GU12 4ES,2014-06-09,fhrs_5_en-GB,5,,FHRS,0
252432,6 Queensmead,Farnborough,Hampshire,,Sainsburys Supermarkets Ltd,Retailers - supermarkets/hypermarkets,7840,5,,30826,5,,51.29310100000000,09/00286/HSFD,140,food@rushmoor.gov.uk,Rushmoor,http://www.rushmoor.gov.uk,-0.75606200000000,GU14 7GL,2013-02-26,fhrs_5_en-GB,5,,FHRS,0
252433,56 Church Road,Aldershot,Hampshire,,Sakura,Takeaway/sandwich shop,7844,5,,25572,10,,51.23796700000000,08/00101/HSFD,140,food@rushmoor.gov.uk,Rushmoor,http://www.rushmoor.gov.uk,-0.75252100000000,GU11 3PS,2014-09-17,fhrs_4_en-GB,4,,FHRS,5
252434,119 Reading Road,Farnborough,Hampshire,,Salesian College,School/college/university,7845,5,,12205,5,,51.28000700000000,04/01267/FOOD,140,food@rushmoor.gov.uk,Rushmoor,http://www.rushmoor.gov.uk,-0.74332500000000,GU14 6PA,2014-02-12,fhrs_5_en-GB,5,,FHRS,0
252435,Ballantyne Road,Farnborough,Hampshire,,Samuel Cody Specialist Sports College,School/college/university,7845,5,,521392,5,,51.30408600000000,13/00038/HSFD,140,food@rushmoor.gov.uk,Rushmoor,http://www.rushmoor.gov.uk,-0.76596500000000,GU14 8SN,2013-02-14,fhrs_5_en-GB,5,,FHRS,0
252436,Church Hall,Church Of The Good Shepherd,Sand Hill,Farnborough,Sand Hill Community Pre School,Hospitals/Childcare/Caring Premises,5,,,46807,,,,11/00086/HSFD,140,food@rushmoor.gov.uk,Rushmoor,http://www.rushmoor.gov.uk,,,2011-03-18,fhrs_exempt_en-GB,Exempt,,FHRS,
252437,209 Lynchford Road,Farnborough,Hampshire,,Sandwich Station,Mobile caterer,7846,10,,225425,5,,51.27551600000000,12/00019/HSFD,140,food@rushmoor.gov.uk,Rushmoor,http://www.rushmoor.gov.uk,-0.74124000000000,GU14 6HF,2013-10-02,fhrs_4_en-GB,4,,FHRS,5
252438,,,,,Sarah Kelly Fine Foods,Other catering premises,7841,0,,12990,5,,,04/02648/FOOD,140,food@rushmoor.gov.uk,Rushmoor,http://www.rushmoor.gov.uk,,,2014-09-11,fhrs_5_en-GB,5,,FHRS,5
252439,21 Union Street,Aldershot,Hampshire,,Savers Health And Beauty,Retailers - other,4613,,,12553,,,51.24932700000000,04/01808/HSFD,140,food@rushmoor.gov.uk,Rushmoor,http://www.rushmoor.gov.uk,-0.76541000000000,GU11 1EP,2010-03-12,fhrs_exempt_en-GB,Exempt,,FHRS,
252440,130 Ash Road,Aldershot,Hampshire,,Seafare,Takeaway/sandwich shop,7844,5,,10129,0,,51.24182600000000,04/00129/HSFD,140,food@rushmoor.gov.uk,Rushmoor,http://www.rushmoor.gov.uk,-0.74422200000000,GU12 4ES,2014-12-10,fhrs_5_en-GB,5,,FHRS,5
252441,Lille Barracks,Redvers Buller Road,Aldershot,Hampshire,Sergeants Mess,Restaurant/Cafe/Canteen,1,5,,12996,0,,51.25369700000000,04/02661/HSFD,140,food@rushmoor.gov.uk,Rushmoor,http://www.rushmoor.gov.uk,-0.56282200000000,GU11 2NQ,2013-09-10,fhrs_5_en-GB,5,,FHRS,0
252442,6 Grosvenor Road,Aldershot,Hampshire,,She She's Continental Sandwich Bar,Takeaway/sandwich shop,7844,5,,30854,5,,51.24918000000000,09/00295/HSFD,140,food@rushmoor.gov.uk,Rushmoor,http://www.rushmoor.gov.uk,-0.76770700000000,GU11 1DP,2015-01-07,fhrs_5_en-GB,5,,FHRS,5
252443,400 High Street,Aldershot,Hampshire,,Shell Aldershot,Retailers - other,4613,10,,637269,10,,51.24279500000000,13/00066/HSFD,140,food@rushmoor.gov.uk,Rushmoor,http://www.rushmoor.gov.uk,-0.75071400000000,GU12 4NE,2014-12-10,fhrs_3_en-GB,3,,FHRS,5
252444,22 Farnborough Road,Farnborough,Hampshire,,Shell Cody,Retailers - other,4613,10,,580854,10,,51.27489300000000,13/00065/HSFD,140,food@rushmoor.gov.uk,Rushmoor,http://www.rushmoor.gov.uk,-0.75534900000000,GU14 6AY,2013-08-16,fhrs_3_en-GB,3,,FHRS,10
252445,Filling Station,326 Farnborough Road,Farnborough,Hampshire,Shell Farnborough,Retailers - other,4613,10,,47531,15,,51.30679700000000,11/00142/HSFD,140,food@rushmoor.gov.uk,Rushmoor,http://www.rushmoor.gov.uk,-0.74937900000000,GU14 8BD,2014-12-11,fhrs_2_en-GB,2,,FHRS,10
252446,,,,,Shelleys Burger Bar,Mobile caterer,7846,5,,11331,5,,,04/00572/HSFD,140,food@rushmoor.gov.uk,Rushmoor,http://www.rushmoor.gov.uk,,,2014-02-12,fhrs_5_en-GB,5,,FHRS,5
252447,Retail Outlet- Booking Hall,Farnborough Railway Station,Union Street,Farnborough,Shop Destino,Retailers - other,4613,10,,493668,5,,51.29666400000000,13/00002/HSFD,140,food@rushmoor.gov.uk,Rushmoor,http://www.rushmoor.gov.uk,-0.75543500000000,GU14 7NL,2012-11-14,fhrs_4_en-GB,4,,FHRS,5
252448,107 Lynchford Road,Farnborough,Hampshire,,Sidewalks,Pub/bar/nightclub,7843,10,,410505,5,,51.27503700000000,12/00085/HSFD,140,food@rushmoor.gov.uk,Rushmoor,http://www.rushmoor.gov.uk,-0.74605500000000,GU14 6ET,2013-09-24,fhrs_3_en-GB,3,,FHRS,10
252449,68 Alexandra Road,Farnborough,Hampshire,,Silverdale Hotel,Hotel/bed & breakfast/guest house,7842,5,,9847,0,,51.27726800000000,04/00073/HSFD,140,food@rushmoor.gov.uk,Rushmoor,http://www.rushmoor.gov.uk,-0.75035300000000,GU14 6DD,2010-02-12,fhrs_5_en-GB,5,,FHRS,5
252450,16 Station Road,Aldershot,Hampshire,,Simply Indian,Takeaway/sandwich shop,7844,10,,47301,10,,51.24775600000000,11/00121/HSFD,140,food@rushmoor.gov.uk,Rushmoor,http://www.rushmoor.gov.uk,-0.76146900000000,GU11 1HT,2014-01-15,fhrs_2_en-GB,2,,FHRS,15
252451,220 Lower Farnham Road,Aldershot,Hampshire,,Sizzling Wok,Takeaway/sandwich shop,7844,10,,558463,10,,51.23757200000000,13/00080/HSFD,140,food@rushmoor.gov.uk,Rushmoor,http://www.rushmoor.gov.uk,-0.75082700000000,GU12 4EN,2013-09-26,fhrs_3_en-GB,3,,FHRS,5
252452,21 Station Road,Aldershot,Hampshire,,Sky Fast Food,Restaurant/Cafe/Canteen,1,10,,588781,10,,51.24768400000000,13/00058/HSFD,140,food@rushmoor.gov.uk,Rushmoor,http://www.rushmoor.gov.uk,-0.76147100000000,GU11 1HT,2013-09-05,fhrs_3_en-GB,3,,FHRS,10
252453,4 Townstead House,111 - 113 Victoria Road,Aldershot,Hampshire,Smart Food And Wine,Retailers - other,4613,10,,18560,10,,51.24814400000000,06/00157/HSFD,140,food@rushmoor.gov.uk,Rushmoor,http://www.rushmoor.gov.uk,-0.76239000000000,GU11 1JE,2014-02-05,fhrs_2_en-GB,2,,FHRS,15
252454,1 Lakeside Road,Farnborough,Hampshire,,Sodexo,Restaurant/Cafe/Canteen,1,5,,26181,5,,51.27294900000000,08/00215/FOOD,140,food@rushmoor.gov.uk,Rushmoor,http://www.rushmoor.gov.uk,-0.76625400000000,GU14 6XP,2014-12-17,fhrs_4_en-GB,4,,FHRS,10
252455,Montgomery House,Queens Avenue,Aldershot,Hampshire,Sodexo,Restaurant/Cafe/Canteen,1,5,,676369,10,,,14/00061/HSFD,140,food@rushmoor.gov.uk,Rushmoor,http://www.rushmoor.gov.uk,,GU11 2JN,2014-06-23,fhrs_4_en-GB,4,,FHRS,0
252456,Wavell Combined Mess,Evelyn Woods Road,Aldershot,Hampshire,Sodexo,Other catering premises,7841,5,,410504,5,,51.26979800000000,12/00082/HSFD,140,food@rushmoor.gov.uk,Rushmoor,http://www.rushmoor.gov.uk,-0.75059900000000,GU11 2LG,2013-11-06,fhrs_5_en-GB,5,,FHRS,0
252457,Zurich House,2 Gladiator Way,Farnborough,Hampshire,Sodexo (Zurich House Coffee Shop),Restaurant/Cafe/Canteen,1,10,,637281,10,,51.27467300000000,14/00012/HSFD,140,food@rushmoor.gov.uk,Rushmoor,http://www.rushmoor.gov.uk,-0.76347000000000,GU14 6GB,2014-03-07,fhrs_3_en-GB,3,,FHRS,5
252458,Farnborough Aerospace Centre,Aerospace Boulevard,Farnborough,Hampshire,Sodexo Catering @ BAE Systems Ltd,Restaurant/Cafe/Canteen,1,5,,12717,5,,51.27955100000000,04/02107/HSFD,140,food@rushmoor.gov.uk,Rushmoor,http://www.rushmoor.gov.uk,-0.75113700000000,GU14 6YU,2013-10-25,fhrs_4_en-GB,4,,FHRS,10
252459,JRDC,St Omer Barracks,Thornhill Road,Aldershot,Sodexo Defence,Restaurant/Cafe/Canteen,1,5,,25532,5,,51.26044100000000,08/00096/HSFD,140,food@rushmoor.gov.uk,Rushmoor,http://www.rushmoor.gov.uk,-0.74593700000000,GU11 2BN,2013-02-18,fhrs_5_en-GB,5,,FHRS,0
252460,Queens Road,Farnborough,Hampshire,,South Farnborough Infant School,School/college/university,7845,0,,12187,5,,51.27784000000000,04/01230/HSFD,140,food@rushmoor.gov.uk,Rushmoor,http://www.rushmoor.gov.uk,-0.74249500000000,GU14 6JU,2015-01-07,fhrs_5_en-GB,5,,FHRS,0
252461,South Farnborough County Junior Sch,Cunnington Road,Farnborough,Hampshire,South Farnborough Junior School,School/college/university,7845,5,,666476,10,,51.28275000000000,14/00052/FOOD,140,food@rushmoor.gov.uk,Rushmoor,http://www.rushmoor.gov.uk,-0.73919200000000,GU14 6PL,2014-05-23,fhrs_4_en-GB,4,,FHRS,5
252462,Southwood Lane,Farnborough,Hampshire,,Southwood Infant School,School/college/university,7845,5,,12691,5,,51.29109300000000,04/02040/HSFD,140,food@rushmoor.gov.uk,Rushmoor,http://www.rushmoor.gov.uk,-0.78663500000000,GU14 0NE,2013-06-04,fhrs_5_en-GB,5,,FHRS,5
252463,71 Lynchford Road,Farnborough,Hampshire,,Sovereign Snooker,Pub/bar/nightclub,7843,10,,17498,10,,51.27480000000000,06/00003/HSFD,140,food@rushmoor.gov.uk,Rushmoor,http://www.rushmoor.gov.uk,-0.74827000000000,GU14 6EJ,2013-08-14,fhrs_2_en-GB,2,,FHRS,15
252464,1 Fleet Road,Farnborough,Hampshire,,Speedy Takeaway,Takeaway/sandwich shop,7844,10,,28625,10,,51.29538000000000,09/00013/HSFD,140,food@rushmoor.gov.uk,Rushmoor,http://www.rushmoor.gov.uk,-0.77689800000000,GU14 9RU,2014-03-18,fhrs_3_en-GB,3,,FHRS,5
252465,167 Lynchford Road,Farnborough,Hampshire,,Spice Eaters,Takeaway/sandwich shop,7844,10,,726691,10,,51.27536900000000,14/00104/HSFD,140,food@rushmoor.gov.uk,Rushmoor,http://www.rushmoor.gov.uk,-0.74264900000000,GU14 6HD,2014-12-10,fhrs_2_en-GB,2,,FHRS,15
252466,The Gold Bungalow,Government Road,Aldershot,Hampshire,Springlake Country Club,Pub/bar/nightclub,7843,0,,11432,0,,51.25688500000000,04/00653/HSFD,140,food@rushmoor.gov.uk,Rushmoor,http://www.rushmoor.gov.uk,-0.73552900000000,GU11 2PT,2014-02-21,fhrs_5_en-GB,5,,FHRS,0
252467,St John Ambulance Hall,Station Road,Farnborough,Hampshire,Squirrels Acorns,Hospitals/Childcare/Caring Premises,5,5,,298500,0,,51.29408800000000,11/00143/FOOD,140,food@rushmoor.gov.uk,Rushmoor,http://www.rushmoor.gov.uk,-0.76013700000000,GU14 7PZ,2013-09-09,fhrs_5_en-GB,5,,FHRS,0
252468,Priory Pavilion,Priory Street,Farnborough,Hampshire,Squirrels Pre-School,Hospitals/Childcare/Caring Premises,5,5,,12160,0,,51.29566700000000,04/01175/HSFD,140,food@rushmoor.gov.uk,Rushmoor,http://www.rushmoor.gov.uk,-0.74283400000000,,2013-12-10,fhrs_5_en-GB,5,,FHRS,5
252469,St Bernadettes Roman Catholic Prima,Tile Barn Close,Farnborough,Hampshire,St Bernadettes After School Club,School/college/university,7845,5,,21782,0,,51.30049100000000,07/00066/HSFD,140,food@rushmoor.gov.uk,Rushmoor,http://www.rushmoor.gov.uk,-0.76271900000000,GU14 8LS,2011-03-11,fhrs_5_en-GB,5,,FHRS,0
252470,71 High View Road,Farnborough,Hampshire,,St Bernadettes Bees Pre School,Hospitals/Childcare/Caring Premises,5,5,,33163,0,,51.29487100000000,10/00028/HSFD,140,food@rushmoor.gov.uk,Rushmoor,http://www.rushmoor.gov.uk,-0.76190900000000,GU14 7PT,2013-02-27,fhrs_5_en-GB,5,,FHRS,0
252471,99 Hawley Lane,Farnborough,Hampshire,,St John Ambulance,Restaurant/Cafe/Canteen,1,5,,26168,0,,51.31353500000000,08/00213/HSFD,140,food@rushmoor.gov.uk,Rushmoor,http://www.rushmoor.gov.uk,-0.76322900000000,GU14 8JG,2014-08-14,fhrs_5_en-GB,5,,FHRS,0
252472,121A Reading Road,Farnborough,Hampshire,,St John Bosco House,Restaurant/Cafe/Canteen,1,5,,12207,5,,51.28031700000000,04/01268/HSFD,140,food@rushmoor.gov.uk,Rushmoor,http://www.rushmoor.gov.uk,-0.74116600000000,GU14 6NZ,2014-02-12,fhrs_5_en-GB,5,,FHRS,5
252473,St Johns Road,Farnborough,Hampshire,,St Johns Court,Restaurant/Cafe/Canteen,1,5,,25786,10,,51.29717000000000,08/00133/HSFD,140,food@rushmoor.gov.uk,Rushmoor,http://www.rushmoor.gov.uk,-0.78301800000000,GU14 9RW,2014-12-08,fhrs_4_en-GB,4,,FHRS,5
252474,St Johns Church Hall,St Johns Road,Farnborough,Hampshire,St John's Playgroup,Hospitals/Childcare/Caring Premises,5,,,12261,,,,04/01348/HSFD,140,food@rushmoor.gov.uk,Rushmoor,http://www.rushmoor.gov.uk,,,2013-09-17,fhrs_exempt_en-GB,Exempt,,FHRS,
252475,St Josephs Roman Catholic Primary S,Bridge Road,Aldershot,Hampshire,St Josephs R.C. School,School/college/university,7845,0,,10481,0,,51.24104800000000,04/00210/HSFD,140,food@rushmoor.gov.uk,Rushmoor,http://www.rushmoor.gov.uk,-0.76407000000000,GU11 3DD,2014-11-06,fhrs_5_en-GB,5,,FHRS,0
252476,Guildford Road East,Farnborough,Hampshire,,St Marks Church Hall,Restaurant/Cafe/Canteen,1,5,,11563,10,,51.28130600000000,04/00730/HELA,140,food@rushmoor.gov.uk,Rushmoor,http://www.rushmoor.gov.uk,-0.74884300000000,,2014-06-27,fhrs_4_en-GB,4,,FHRS,0
252477,St Marks Church Of England Primary,Queens Road,Farnborough,Hampshire,St Marks Church Of England (Aided) Primary School,School/college/university,7845,5,,666477,5,,51.27673200000000,14/00053/FOOD,140,food@rushmoor.gov.uk,Rushmoor,http://www.rushmoor.gov.uk,-0.74648200000000,GU14 6DU,2014-06-03,fhrs_5_en-GB,5,,FHRS,0
252478,St Michaels Church Of England Infan,48 Park Road,Aldershot,Hampshire,St Michaels Infant School,School/college/university,7845,10,,12117,5,,51.23823400000000,04/01127/HSFD,140,food@rushmoor.gov.uk,Rushmoor,http://www.rushmoor.gov.uk,-0.75393200000000,GU11 3PU,2014-09-23,fhrs_4_en-GB,4,,FHRS,5
252479,Park Hall,258 Lower Farnham Road,Aldershot,Hampshire,St Michaels Pre-School Playgroup,Hospitals/Childcare/Caring Premises,5,5,,11911,0,,51.23592300000000,04/00935/HELA,140,food@rushmoor.gov.uk,Rushmoor,http://www.rushmoor.gov.uk,-0.75555600000000,GU11 3RB,2011-03-07,fhrs_5_en-GB,5,,FHRS,5
252480,St Michaels Church Of England Junio,Church Lane East,Aldershot,Hampshire,St Michaels School,School/college/university,7845,5,,10869,5,,51.24018100000000,04/00344/FOOD,140,food@rushmoor.gov.uk,Rushmoor,http://www.rushmoor.gov.uk,-0.75347800000000,GU11 3SS,2014-04-03,fhrs_5_en-GB,5,,FHRS,5
252481,St Patricks Catholic Primary School,Avenue Road,Farnborough,Hampshire,St Patricks Primary School,School/college/university,7845,5,,10260,5,,51.29257300000000,04/00157/HSFD,140,food@rushmoor.gov.uk,Rushmoor,http://www.rushmoor.gov.uk,-0.74616600000000,GU14 7BW,2014-03-05,fhrs_5_en-GB,5,,FHRS,0
252482,St Peters Junior School,Church Avenue,Farnborough,Hampshire,St Peters Church Of England Junior School,School/college/university,7845,0,,10824,5,,51.29226700000000,04/00324/FOOD,140,food@rushmoor.gov.uk,Rushmoor,http://www.rushmoor.gov.uk,-0.75041900000000,GU14 7AP,2014-09-22,fhrs_5_en-GB,5,,FHRS,5
252483,177A Ash Road,Aldershot,Hampshire,,Star Cafe,Restaurant/Cafe/Canteen,1,10,,298512,10,,51.24216600000000,12/00040/HSFD,140,food@rushmoor.gov.uk,Rushmoor,http://www.rushmoor.gov.uk,-0.74407000000000,GU12 4DB,2013-09-03,fhrs_3_en-GB,3,,FHRS,5
252484,177 Ash Road,Aldershot,Hampshire,,Star Kebab,Takeaway/sandwich shop,7844,5,,10229,10,,51.24216600000000,04/00150/HSFD,140,food@rushmoor.gov.uk,Rushmoor,http://www.rushmoor.gov.uk,-0.74407000000000,GU12 4DB,2013-12-04,fhrs_4_en-GB,4,,FHRS,5
252485,206 - 208 North Lane,Aldershot,Hampshire,,Star Off Licence,Retailers - other,4613,5,,12098,5,,51.24946100000000,04/01103/HSFD,140,food@rushmoor.gov.uk,Rushmoor,http://www.rushmoor.gov.uk,-0.74252400000000,GU12 4TG,2015-01-08,fhrs_5_en-GB,5,,FHRS,5
252486,14 The Mead,Farnborough,Hampshire,,Starbucks,Restaurant/Cafe/Canteen,1,5,,574488,5,,51.29188400000000,13/00039/HSFD,140,food@rushmoor.gov.uk,Rushmoor,http://www.rushmoor.gov.uk,-0.75661100000000,GU14 7RT,2013-07-19,fhrs_5_en-GB,5,,FHRS,0
252487,36 North Lane,Aldershot,Hampshire,,Stateside Candy Co Ltd,Retailers - other,4613,5,,401586,5,,51.24353300000000,12/00064/HSFD,140,food@rushmoor.gov.uk,Rushmoor,http://www.rushmoor.gov.uk,-0.74070900000000,GU12 4QG,2012-05-30,fhrs_5_en-GB,5,,FHRS,5
252488,2 Station Road,Aldershot,Hampshire,,Station Cafe,Restaurant/Cafe/Canteen,1,5,,21800,10,,51.24775600000000,07/00069/HSFD,140,food@rushmoor.gov.uk,Rushmoor,http://www.rushmoor.gov.uk,-0.76146900000000,GU11 1HT,2014-09-09,fhrs_4_en-GB,4,,FHRS,5
252489,11 Station Road,Aldershot,Hampshire,,Station Corner Shop,Retailers - other,4613,10,,727552,10,,51.24775600000000,15/00001/HSFD,140,food@rushmoor.gov.uk,Rushmoor,http://www.rushmoor.gov.uk,-0.76146900000000,GU11 1HT,2015-01-02,fhrs_3_en-GB,3,,FHRS,10
252490,88 - 90 Queensmead,Farnborough,Hampshire,,Store Twenty One,Retailers - other,4613,,,634362,,,51.29110300000000,13/00106/HSFD,140,food@rushmoor.gov.uk,Rushmoor,http://www.rushmoor.gov.uk,-0.75587200000000,GU14 7SE,2014-02-20,fhrs_exempt_en-GB,Exempt,,FHRS,
252491,29 Union Street,Aldershot,Hampshire,,Subway,Takeaway/sandwich shop,7844,5,,33775,5,,51.24932700000000,10/00065/HSFD,140,food@rushmoor.gov.uk,Rushmoor,http://www.rushmoor.gov.uk,-0.76541000000000,GU11 1EP,2013-03-18,fhrs_5_en-GB,5,,FHRS,0
252492,Sandwich Bar - Lower Level,Food Court,42 Princes Mead,Farnborough,Subway,Restaurant/Cafe/Canteen,1,5,,574490,5,,51.29196100000000,13/00056/HSFD,140,food@rushmoor.gov.uk,Rushmoor,http://www.rushmoor.gov.uk,-0.75798600000000,GU14 6YA,2013-07-29,fhrs_5_en-GB,5,,FHRS,5
252493,Family Resource Centre,4 - 8 Cambridge Road,Aldershot,Hampshire,Sunbeams Respite Care Unit,Hospitals/Childcare/Caring Premises,5,5,,10530,5,,51.24844900000000,04/00225/FOOD,140,food@rushmoor.gov.uk,Rushmoor,http://www.rushmoor.gov.uk,-0.77348600000000,GU11 3JZ,2012-01-26,fhrs_5_en-GB,5,,FHRS,5
252494,47 Peabody Road,Farnborough,Hampshire,,Super Wok,Takeaway/sandwich shop,7844,10,,30807,15,,51.27812000000000,09/00280/HSFD,140,food@rushmoor.gov.uk,Rushmoor,http://www.rushmoor.gov.uk,-0.74515400000000,GU14 6EB,2014-08-06,fhrs_2_en-GB,2,,FHRS,15
252495,54 - 56 Kingsmead,Farnborough,Hampshire,,Superdrug,Retailers - other,4613,,,12535,,,51.29149800000000,04/01770/HSFD,140,food@rushmoor.gov.uk,Rushmoor,http://www.rushmoor.gov.uk,-0.75497200000000,GU14 7SL,2010-02-09,fhrs_exempt_en-GB,Exempt,,FHRS,
252496,61 - 62 Wellington Centre,Aldershot,Hampshire,,Superdrug,Retailers - other,4613,10,,12835,5,,51.24886500000000,04/02286/HSFD,140,food@rushmoor.gov.uk,Rushmoor,http://www.rushmoor.gov.uk,-0.76430500000000,GU11 1DB,2013-07-03,fhrs_4_en-GB,4,,FHRS,5
252497,Parsonage Farm Infant School,Cherry Tree Close,Farnborough,Hampshire,Sweet Peas,Hospitals/Childcare/Caring Premises,5,,,26221,,,51.29891800000000,08/00228/HSFD,140,food@rushmoor.gov.uk,Rushmoor,http://www.rushmoor.gov.uk,-0.79119000000000,GU14 9TT,2014-09-15,fhrs_exempt_en-GB,Exempt,,FHRS,
252498,,,,,Sweet Sensations,Mobile caterer,7846,10,,22128,10,,,07/00126/HSFD,140,food@rushmoor.gov.uk,Rushmoor,http://www.rushmoor.gov.uk,,,2014-03-03,fhrs_3_en-GB,3,,FHRS,10
252499,33 West Heath Road,Farnborough,Hampshire,,Sweet Times,Other catering premises,7841,,,591095,,,51.29588800000000,13/00057/FOOD,140,food@rushmoor.gov.uk,Rushmoor,http://www.rushmoor.gov.uk,-0.77308300000000,GU14 8QR,2013-10-07,fhrs_exempt_en-GB,Exempt,,FHRS,
252500,24 Buccaneer Court,Kestrel Road,Farnborough,Hampshire,Sweet Tooth Cupcakes,Other catering premises,7841,5,,196012,5,,51.28627300000000,12/00013/FOOD,140,food@rushmoor.gov.uk,Rushmoor,http://www.rushmoor.gov.uk,-0.75406700000000,GU14 7GP,2015-01-27,fhrs_5_en-GB,5,,FHRS,5
252501,6 Sycamore Road,Farnborough,Hampshire,,Sycamore Road Convenience Store,Retailers - other,4613,20,,33675,10,,51.28249900000000,10/00058/HSFD,140,food@rushmoor.gov.uk,Rushmoor,http://www.rushmoor.gov.uk,-0.73836700000000,GU14 6PG,2014-10-20,fhrs_1_en-GB,1,,FHRS,10
252502,Talavera County Infants School,Gun Hill,Aldershot,Hampshire,Talavera County Infant School,School/college/university,7845,5,,12682,5,,51.25175900000000,04/02017/HSFD,140,food@rushmoor.gov.uk,Rushmoor,http://www.rushmoor.gov.uk,-0.76160500000000,GU11 1RG,2014-03-07,fhrs_5_en-GB,5,,FHRS,5
252503,Gun Hill,Aldershot,Hampshire,,Talavera County Junior School,School/college/university,7845,5,,17600,5,,51.25175900000000,06/00012/HSFD,140,food@rushmoor.gov.uk,Rushmoor,http://www.rushmoor.gov.uk,-0.76160500000000,GU11 1RG,2013-06-21,fhrs_5_en-GB,5,,FHRS,5
252504,5 Pirbright Road,Farnborough,Hampshire,,Tall Oaks,Hospitals/Childcare/Caring Premises,5,0,,17666,5,,51.28814200000000,06/00018/HSFD,140,food@rushmoor.gov.uk,Rushmoor,http://www.rushmoor.gov.uk,-0.74812200000000,GU14 7AB,2014-12-12,fhrs_5_en-GB,5,,FHRS,5
252505,First Floor 143 And Ground Floor 14,Lynchford Road,Farnborough,Hampshire,Tanner Family Butcher,Retailers - other,4613,0,,46635,10,,51.27535300000000,11/00076/HSFD,140,food@rushmoor.gov.uk,Rushmoor,http://www.rushmoor.gov.uk,-0.74372400000000,GU14 6HG,2014-09-17,fhrs_4_en-GB,4,,FHRS,10
252506,,,,,Taste Buddies,Other catering premises,7841,5,,46559,5,,,11/00072/FOOD,140,food@rushmoor.gov.uk,Rushmoor,http://www.rushmoor.gov.uk,,,2014-09-18,fhrs_4_en-GB,4,,FHRS,10
252507,98 Grosvenor Road,Aldershot,Hampshire,,Taste Buds,Restaurant/Cafe/Canteen,1,10,,22196,10,,51.24586311000001,07/00141/HSFD,140,food@rushmoor.gov.uk,Rushmoor,http://www.rushmoor.gov.uk,-0.76569179000000,,2014-01-13,fhrs_3_en-GB,3,,FHRS,10
252508,30 Cove Road,Farnborough,Hampshire,,Tasty Tucker,Takeaway/sandwich shop,7844,20,,718560,15,,51.29246400000000,14/00109/HSFD,140,food@rushmoor.gov.uk,Rushmoor,http://www.rushmoor.gov.uk,-0.76728000000000,GU14 0EN,2014-11-13,fhrs_1_en-GB,1,,FHRS,10
252509,Malta Barracks,Shoe Lane,Aldershot,Hampshire,TAVRA,Restaurant/Cafe/Canteen,1,5,,12235,10,,51.26695900000000,04/01314/HSFD,140,food@rushmoor.gov.uk,Rushmoor,http://www.rushmoor.gov.uk,-0.76697300000000,GU11 2HE,2012-12-07,fhrs_4_en-GB,4,,FHRS,5
252510,360 High Street,Aldershot,Hampshire,,Taylers,Retailers - other,4613,10,,11825,10,,51.24407500000000,04/00873/HSFD,140,food@rushmoor.gov.uk,Rushmoor,http://www.rushmoor.gov.uk,-0.75264200000000,GU12 4LU,2013-03-14,fhrs_3_en-GB,3,,FHRS,5
252511,St Josephs Roman Catholic Primary S,Bridge Road,Aldershot,Hampshire,Tea Time Club,School/college/university,7845,5,,486378,0,,51.24104800000000,12/00162/FOOD,140,food@rushmoor.gov.uk,Rushmoor,http://www.rushmoor.gov.uk,-0.76407000000000,GU11 3DD,2014-12-17,fhrs_5_en-GB,5,,FHRS,5
252512,80 Cove Road,Farnborough,Hampshire,,Tesco,Retailers - supermarkets/hypermarkets,7840,10,,689086,5,,51.29225100000000,14/00047/HSFD,140,food@rushmoor.gov.uk,Rushmoor,http://www.rushmoor.gov.uk,-0.76927900000000,GU14 0EU,2014-07-30,fhrs_4_en-GB,4,,FHRS,0
252513,Tesco Stores Ltd,5 Wellington Avenue,Aldershot,Hampshire,Tesco Stores,Retailers - supermarkets/hypermarkets,7840,0,,12434,5,,51.25090700000000,04/01623/HSFD,140,food@rushmoor.gov.uk,Rushmoor,http://www.rushmoor.gov.uk,-0.77716100000000,GU11 1SQ,2013-05-21,fhrs_5_en-GB,5,,FHRS,5
252514,36 Grosvenor Road,Aldershot,Hampshire,,Thaper Bros,Retailers - other,4613,20,,11487,15,,51.24706400000000,04/00691/HSFD,140,food@rushmoor.gov.uk,Rushmoor,http://www.rushmoor.gov.uk,-0.76663100000000,GU11 3DY,2013-07-31,fhrs_1_en-GB,1,,FHRS,10
252515,39 Medway Drive,Farnborough,Hampshire,,The 6 O'Clock News,Retailers - other,4613,5,,12012,5,,51.30575000000000,04/01047/HSFD,140,food@rushmoor.gov.uk,Rushmoor,http://www.rushmoor.gov.uk,-0.77973500000000,GU14 9LY,2015-01-06,fhrs_5_en-GB,5,,FHRS,5
252516,74 Victoria Road,Farnborough,Hampshire,,The Alexandra,Pub/bar/nightclub,7843,5,,657232,10,,51.29320700000000,14/00025/HSFD,140,food@rushmoor.gov.uk,Rushmoor,http://www.rushmoor.gov.uk,-0.75845400000000,GU14 7PH,2014-03-04,fhrs_4_en-GB,4,,FHRS,5
252517,Alexandra Hotel,Barrack Road,Aldershot,Hampshire,The Alexandra,Pub/bar/nightclub,7843,5,,24676,0,,51.24874800000000,08/00002/HSFD,140,food@rushmoor.gov.uk,Rushmoor,http://www.rushmoor.gov.uk,-0.76854900000000,GU11 3NP,2014-03-13,fhrs_5_en-GB,5,,FHRS,0
252518,The Bell,St Omer Barracks,Thornhill Road,Aldershot,The Bell Public House,Pub/bar/nightclub,7843,0,,225431,5,,51.26044100000000,11/00174/HSFD,140,food@rushmoor.gov.uk,Rushmoor,http://www.rushmoor.gov.uk,-0.74593700000000,GU11 2BN,2012-03-13,fhrs_5_en-GB,5,,FHRS,0
252519,268 High Street,Aldershot,Hampshire,,The Best Pizzas & Kebabs,Takeaway/sandwich shop,7844,5,,11802,5,,51.24554200000000,04/00857/HSFD,140,food@rushmoor.gov.uk,Rushmoor,http://www.rushmoor.gov.uk,-0.75449400000000,GU12 4LT,2014-03-12,fhrs_4_en-GB,4,,FHRS,10
252520,Cherrywood Community Primary School,224 Mayfield Road,Farnborough,Hampshire,The Breakfast Club,School/college/university,7845,5,,28817,5,,51.30336000000000,09/00028/HSFD,140,food@rushmoor.gov.uk,Rushmoor,http://www.rushmoor.gov.uk,-0.76102100000000,GU14 8LH,2015-01-07,fhrs_5_en-GB,5,,FHRS,5
252521,141 Lynchford Road,Farnborough,Hampshire,,The Brunch Company,Restaurant/Cafe/Canteen,1,5,,26141,5,,51.27536900000000,08/00207/HSFD,140,food@rushmoor.gov.uk,Rushmoor,http://www.rushmoor.gov.uk,-0.74264900000000,GU14 6HD,2013-02-20,fhrs_5_en-GB,5,,FHRS,5
252522,Tongham Road,Aldershot,Hampshire,,The Connaught School,School/college/university,7845,5,,349110,5,,51.23701600000000,12/00056/FOOD,140,food@rushmoor.gov.uk,Rushmoor,http://www.rushmoor.gov.uk,-0.73921100000000,GU12 4AS,2013-10-11,fhrs_4_en-GB,4,,FHRS,10
252523,109 - 113 Queens Road,Aldershot,Hampshire,,The Co-operative,Retailers - other,4613,5,,12202,10,,51.24687200000000,04/01260/HSFD,140,food@rushmoor.gov.uk,Rushmoor,http://www.rushmoor.gov.uk,-0.77484600000000,GU11 3LA,2013-10-21,fhrs_3_en-GB,3,,FHRS,10
252524,222 Lower Farnham Road,Aldershot,Hampshire,,The Co-operative,Retailers - supermarkets/hypermarkets,7840,5,,580855,5,,51.23757200000000,13/00075/HSFD,140,food@rushmoor.gov.uk,Rushmoor,http://www.rushmoor.gov.uk,-0.75082700000000,GU12 4EN,2013-08-14,fhrs_5_en-GB,5,,FHRS,5
252525,5 Queens Road,Farnborough,Hampshire,,The Co-operative,Retailers - other,4613,10,,12171,10,,51.27648200000000,04/01190/HSFD,140,food@rushmoor.gov.uk,Rushmoor,http://www.rushmoor.gov.uk,-0.74832400000000,GU14 6DJ,2013-04-16,fhrs_3_en-GB,3,,FHRS,10
252526,109 Victoria Road,Aldershot,Hampshire,,The Co-operative Food,Retailers - other,4613,5,,12417,10,,51.24814400000000,04/01605/HSFD,140,food@rushmoor.gov.uk,Rushmoor,http://www.rushmoor.gov.uk,-0.76239000000000,GU11 1JE,2015-01-23,fhrs_3_en-GB,3,,FHRS,10
252527,140 - 142 Ash Road,Aldershot,Hampshire,,The Co-operative Food,Retailers - other,4613,20,,25148,15,,51.24182600000000,08/00048/HSFD,140,food@rushmoor.gov.uk,Rushmoor,http://www.rushmoor.gov.uk,-0.74422200000000,GU12 4ES,2014-08-04,fhrs_1_en-GB,1,,FHRS,15
252528,38 - 40 Woburn Avenue,Farnborough,Hampshire,,The Co-operative Food,Retailers - other,4613,5,,12499,10,,51.28933700000000,04/01686/HSFD,140,food@rushmoor.gov.uk,Rushmoor,http://www.rushmoor.gov.uk,-0.73964300000000,GU14 7EF,2014-02-21,fhrs_2_en-GB,2,,FHRS,15
252529,The Crab And Anchor,5 Southwood Village Centre,Links Way,Farnborough,The Crab & Anchor Public House,Pub/bar/nightclub,7843,10,,12647,10,,51.29133200000000,04/01940/HSFD,140,food@rushmoor.gov.uk,Rushmoor,http://www.rushmoor.gov.uk,-0.78720200000000,GU14 0NA,2014-03-11,fhrs_2_en-GB,2,,FHRS,15
252530,Crimea Road,Aldershot,Hampshire,,The Crimea Inn,Pub/bar/nightclub,7843,10,,30793,10,,51.24852300000000,09/00275/HSFD,140,food@rushmoor.gov.uk,Rushmoor,http://www.rushmoor.gov.uk,-0.75743700000000,GU11 1UE,2013-03-22,fhrs_3_en-GB,3,,FHRS,10
252531,Duke Of York Public House,248 Weybourne Road,Aldershot,Hampshire,The Duke Of York Public House,Pub/bar/nightclub,7843,5,,12479,5,,51.23844900000000,04/01671/HSFD,140,food@rushmoor.gov.uk,Rushmoor,http://www.rushmoor.gov.uk,-0.76911100000000,GU11 3NF,2013-02-26,fhrs_5_en-GB,5,,FHRS,5
252532,69 Lynchford Road,Farnborough,Hampshire,,The Everest Tandoori,Restaurant/Cafe/Canteen,1,20,,11931,15,,51.27480000000000,04/00962/HSFD,140,food@rushmoor.gov.uk,Rushmoor,http://www.rushmoor.gov.uk,-0.74827000000000,GU14 6EJ,2014-11-18,fhrs_1_en-GB,1,,FHRS,10
252533,141 Chapel Lane,Farnborough,Hampshire,,The Fox Inn,Pub/bar/nightclub,7843,5,,47716,5,,51.31260700000000,11/00162/HSFD,140,food@rushmoor.gov.uk,Rushmoor,http://www.rushmoor.gov.uk,-0.77411500000000,GU14 9BN,2014-11-25,fhrs_5_en-GB,5,,FHRS,5
252534,Station Road,Aldershot,Hampshire,,The Funky End,Pub/bar/nightclub,7843,10,,12285,5,,51.24775600000000,04/01410/HELA,140,food@rushmoor.gov.uk,Rushmoor,http://www.rushmoor.gov.uk,-0.76146900000000,GU11 1HT,2014-10-14,fhrs_4_en-GB,4,,FHRS,5
252535,The Gallery Restaurant,Farnborough College Of Technology,Boundary Road,Farnborough,The Gallery,Other catering premises,7841,5,,10397,5,,51.28576200000000,04/00188/FOOD,140,food@rushmoor.gov.uk,Rushmoor,http://www.rushmoor.gov.uk,-0.75089700000000,GU14 6SB,2013-12-03,fhrs_5_en-GB,5,,FHRS,0
252536,Community Centre,Mayfield Road,Farnborough,Hampshire,The Gaming Zone,Other catering premises,7841,10,,25658,5,,51.30465500000000,08/00114/HSFD,140,food@rushmoor.gov.uk,Rushmoor,http://www.rushmoor.gov.uk,-0.76276500000000,GU14 8UB,2011-09-06,fhrs_4_en-GB,4,,FHRS,5
252537,Church Lane East,Aldershot,Hampshire,,The Garden Gate,Pub/bar/nightclub,7843,5,,25461,10,,51.24294900000000,08/00087/HSFD,140,food@rushmoor.gov.uk,Rushmoor,http://www.rushmoor.gov.uk,-0.76270100000000,GU11 3BT,2013-09-19,fhrs_3_en-GB,3,,FHRS,10
252538,Wellington Street,Aldershot,Hampshire,,The George,Pub/bar/nightclub,7843,0,,34999,0,,51.24932300000000,10/00176/HSFD,140,food@rushmoor.gov.uk,Rushmoor,http://www.rushmoor.gov.uk,-0.76426400000000,GU11 1DX,2014-09-29,fhrs_5_en-GB,5,,FHRS,5
252539,O'Gorman Avenue,Farnborough,Hampshire,,The Gloster,Pub/bar/nightclub,7843,0,,558461,5,,51.28545400000000,13/00011/HSFD,140,food@rushmoor.gov.uk,Rushmoor,http://www.rushmoor.gov.uk,-0.75831900000000,GU14 7DL,2013-06-12,fhrs_5_en-GB,5,,FHRS,0
252540,5 Wellington Street,Aldershot,Hampshire,,The Gorge Cafe,Restaurant/Cafe/Canteen,1,5,,644464,10,,51.24932300000000,13/00147/HSFD,140,food@rushmoor.gov.uk,Rushmoor,http://www.rushmoor.gov.uk,-0.76426400000000,GU11 1DX,2014-10-22,fhrs_4_en-GB,4,,FHRS,5
252541,The Hawley Arms,51 Churchill Crescent,Farnborough,Hampshire,The Hawley Arms Public House,Pub/bar/nightclub,7843,10,,10939,10,,51.31069500000000,04/00370/HSFD,140,food@rushmoor.gov.uk,Rushmoor,http://www.rushmoor.gov.uk,-0.75740800000000,GU14 8EL,2013-09-18,fhrs_3_en-GB,3,,FHRS,10
252542,Holiday Inn,Lynchford Road,Farnborough,Hampshire,The Holiday Inn,Hotel/bed & breakfast/guest house,7842,5,,11243,5,,51.27413300000000,04/00518/HSFD,140,food@rushmoor.gov.uk,Rushmoor,http://www.rushmoor.gov.uk,-0.75574300000000,GU14 6AZ,2014-04-10,fhrs_5_en-GB,5,,FHRS,5
252543,Unit 2,Blackwater Trading Estate,Blackwater Way,Aldershot,The Home Brew Shop,Retailers - other,4613,,,33322,,,51.23941900000000,10/00037/HSFD,140,food@rushmoor.gov.uk,Rushmoor,http://www.rushmoor.gov.uk,-0.74115000000000,GU12 4DJ,2010-03-17,fhrs_exempt_en-GB,Exempt,,FHRS,
252544,77 Camp Road,Farnborough,Hampshire,,The Hot Oven,Retailers - other,4613,10,,331828,15,,51.27570300000000,12/00049/HSFD,140,food@rushmoor.gov.uk,Rushmoor,http://www.rushmoor.gov.uk,-0.74784400000000,GU14 6EN,2014-03-11,fhrs_2_en-GB,2,,FHRS,10
252545,Lille Barracks,Redvers Buller Road,Aldershot,Hampshire,The Hub,Restaurant/Cafe/Canteen,1,5,,34652,5,,51.27068500000000,10/00138/HSFD,140,food@rushmoor.gov.uk,Rushmoor,http://www.rushmoor.gov.uk,-0.74294700000000,,2014-01-16,fhrs_5_en-GB,5,,FHRS,0
252546,Naafi And Spar Shop,New Normandy Barracks,Evelyn Woods Road,Aldershot,The Hub,Other catering premises,7841,5,,199522,5,,51.26971600000000,04/00516/HSFD,140,food@rushmoor.gov.uk,Rushmoor,http://www.rushmoor.gov.uk,-0.74799200000000,GU11 2LZ,2013-09-09,fhrs_5_en-GB,5,,FHRS,5
252547,Resettlement Training Centre,Gallwey Road,Aldershot,Hampshire,The Hub Resettlement Centre,Restaurant/Cafe/Canteen,1,0,,11407,5,,51.25552500000000,04/00629/FOOD,140,food@rushmoor.gov.uk,Rushmoor,http://www.rushmoor.gov.uk,-0.75127200000000,GU11 2DG,2015-01-16,fhrs_5_en-GB,5,,FHRS,0
252548,,,,,The Larder Van Ltd,Mobile caterer,7846,5,,515828,5,,,12/00144/FOOD,140,food@rushmoor.gov.uk,Rushmoor,http://www.rushmoor.gov.uk,,,2013-03-01,fhrs_5_en-GB,5,,FHRS,5
252549,77 Queensmead,Farnborough,Hampshire,,The Lemon Plaice,Restaurant/Cafe/Canteen,1,5,,12977,5,,51.29125100000000,04/02598/HSFD,140,food@rushmoor.gov.uk,Rushmoor,http://www.rushmoor.gov.uk,-0.75540900000000,GU14 7RZ,2014-07-07,fhrs_4_en-GB,4,,FHRS,10
252550,The New Inn,Hawley Road,Blackwater,Camberley,The New Inn Public House,Pub/bar/nightclub,7843,5,,12689,10,,51.31642500000000,04/02035/HSFD,140,food@rushmoor.gov.uk,Rushmoor,http://www.rushmoor.gov.uk,-0.76527500000000,GU17 9ES,2014-05-06,fhrs_3_en-GB,3,,FHRS,10
252551,Guillemont County Junior School,Sandy Lane,Farnborough,Hampshire,The Orchard Nursery,Hospitals/Childcare/Caring Premises,5,5,,46401,5,,51.30609900000000,11/00063/HSFD,140,food@rushmoor.gov.uk,Rushmoor,http://www.rushmoor.gov.uk,-0.78909400000000,GU14 9ES,2013-02-12,fhrs_4_en-GB,4,,FHRS,10
252552,Southwood Golf Club,Ively Road,Farnborough,Hampshire,The Pantry,Other catering premises,7841,5,,46618,10,,51.28739100000000,11/00075/HSFD,140,food@rushmoor.gov.uk,Rushmoor,http://www.rushmoor.gov.uk,-0.77913200000000,GU14 0LJ,2014-04-30,fhrs_4_en-GB,4,,FHRS,5
252553,The Plough And Horses,90 Fleet Road,Farnborough,Hampshire,The Plough & Horses,Pub/bar/nightclub,7843,10,,34070,10,,51.29600200000000,10/00086/HSFD,140,food@rushmoor.gov.uk,Rushmoor,http://www.rushmoor.gov.uk,-0.78574500000000,GU14 9RG,2013-11-19,fhrs_3_en-GB,3,,FHRS,10
252554,Prince Of Wales,184 Rectory Road,Farnborough,Hampshire,The Prince Of Wales Public House,Pub/bar/nightclub,7843,5,,12211,5,,51.29962000000000,04/01277/HSFD,140,food@rushmoor.gov.uk,Rushmoor,http://www.rushmoor.gov.uk,-0.74253100000000,GU14 8AL,2013-09-24,fhrs_4_en-GB,4,,FHRS,10
252555,The Queen Victoria,135 - 139 Victoria Road,Aldershot,Hampshire,The Queen Victoria Public House,Pub/bar/nightclub,7843,5,,12387,5,,51.24838900000000,04/01575/HSFD,140,food@rushmoor.gov.uk,Rushmoor,http://www.rushmoor.gov.uk,-0.76430300000000,GU11 1JW,2013-04-23,fhrs_5_en-GB,5,,FHRS,5
252556,103 Hawley Lane,Farnborough,Hampshire,,The Railway Enthusiasts Club,Pub/bar/nightclub,7843,10,,11604,5,,51.31353500000000,04/00754/HSFD,140,food@rushmoor.gov.uk,Rushmoor,http://www.rushmoor.gov.uk,-0.76322900000000,GU14 8JG,2013-03-15,fhrs_3_en-GB,3,,FHRS,10
252557,Unit 14,Ivy Road,Aldershot,Hampshire,The Range,Retailers - other,4613,0,,620266,5,,51.24767100000000,11/00188/HELA,140,food@rushmoor.gov.uk,Rushmoor,http://www.rushmoor.gov.uk,-0.73998000000000,GU12 4TX,2013-12-03,fhrs_5_en-GB,5,,FHRS,5
252558,2 Ash Road,Aldershot,Hampshire,,The Red Lion,Pub/bar/nightclub,7843,,,298508,,,51.24230500000000,12/00029/HSFD,140,food@rushmoor.gov.uk,Rushmoor,http://www.rushmoor.gov.uk,-0.74863600000000,GU12 4EZ,2014-01-08,fhrs_5_en-GB,5,,FHRS,
252559,88 Rectory Road,Farnborough,Hampshire,,The Rivers,Hospitals/Childcare/Caring Premises,5,10,,28741,5,,51.29705600000000,09/00022/HSFD,140,food@rushmoor.gov.uk,Rushmoor,http://www.rushmoor.gov.uk,-0.74159700000000,GU14 7HT,2012-01-30,fhrs_4_en-GB,4,,FHRS,0
252560,51 Cambridge Road East,Farnborough,Hampshire,,The Royal British Legion Club,Pub/bar/nightclub,7843,10,,10550,10,,51.28132800000000,04/00231/HSFD,140,food@rushmoor.gov.uk,Rushmoor,http://www.rushmoor.gov.uk,-0.74829300000000,GU14 6QB,2014-02-27,fhrs_3_en-GB,3,,FHRS,10
252561,37A Mount Pleasant Road,Aldershot,Hampshire,,The Royal Staff,Pub/bar/nightclub,7843,10,,528938,5,,51.24659300000000,12/00166/HSFD,140,food@rushmoor.gov.uk,Rushmoor,http://www.rushmoor.gov.uk,-0.75019600000000,GU12 4NW,2013-03-26,fhrs_3_en-GB,3,,FHRS,10
252562,Salvation Army Hall,1 North Lane,Aldershot,Hampshire,The Salvation Army,Other catering premises,7841,10,,701445,10,,51.24221500000000,14/00049/HSFD,140,food@rushmoor.gov.uk,Rushmoor,http://www.rushmoor.gov.uk,-0.74104600000000,GU12 4QE,2014-09-08,fhrs_4_en-GB,4,,FHRS,0
252563,162 Ship Lane,Farnborough,Hampshire,,The Ship Inn,Pub/bar/nightclub,7843,5,,736036,5,,51.30601200000000,14/00096/HSFD,140,food@rushmoor.gov.uk,Rushmoor,http://www.rushmoor.gov.uk,-0.75001700000000,GU14 8BE,2015-02-12,fhrs_5_en-GB,5,,FHRS,5
252564,The Sixth Form College,Prospect Avenue,Farnborough,Hampshire,The Sixth Form College Farnborough,School/college/university,7845,0,,12162,5,,51.30491600000000,04/01177/FOOD,140,food@rushmoor.gov.uk,Rushmoor,http://www.rushmoor.gov.uk,-0.75604400000000,GU14 8JX,2014-10-16,fhrs_5_en-GB,5,,FHRS,5
252565,135 Fernhill Road,Farnborough,Hampshire,,The Snow Goose,Pub/bar/nightclub,7843,10,,733319,10,,51.30363200000000,15/00010/HSFD,140,food@rushmoor.gov.uk,Rushmoor,http://www.rushmoor.gov.uk,-0.77584600000000,GU14 9DX,2015-01-22,fhrs_3_en-GB,3,,FHRS,10
252566,237 High Street,Aldershot,Hampshire,,The Source,Restaurant/Cafe/Canteen,1,10,,21570,5,,51.24719300000000,07/00038/HSFD,140,food@rushmoor.gov.uk,Rushmoor,http://www.rushmoor.gov.uk,-0.75588200000000,GU11 1TJ,2013-10-11,fhrs_4_en-GB,4,,FHRS,5
252567,125 Park Road,Farnborough,Hampshire,,The Squirrel,Pub/bar/nightclub,7843,5,,34990,5,,51.28046400000000,10/00175/HSFD,140,food@rushmoor.gov.uk,Rushmoor,http://www.rushmoor.gov.uk,-0.73810800000000,GU14 6LR,2014-01-15,fhrs_4_en-GB,4,,FHRS,10
252568,91 Farnborough Road,Farnborough,Hampshire,,The Swan Inn,Restaurant/Cafe/Canteen,1,5,,22120,5,,51.28394300000000,07/00124/HSFD,140,food@rushmoor.gov.uk,Rushmoor,http://www.rushmoor.gov.uk,-0.75316900000000,GU14 6TL,2013-06-14,fhrs_4_en-GB,4,,FHRS,10
252569,16 Halimote Road,Aldershot,Hampshire,,The Tall Ship,Takeaway/sandwich shop,7844,5,,47966,5,,51.24522500000000,11/00194/HSFD,140,food@rushmoor.gov.uk,Rushmoor,http://www.rushmoor.gov.uk,-0.76444600000000,GU11 1NJ,2013-06-13,fhrs_5_en-GB,5,,FHRS,5
252570,90 Whetstone Road,Farnborough,Hampshire,,The Tasty Bites,Takeaway/sandwich shop,7844,10,,12780,15,,51.29647800000000,04/02185/HSFD,140,food@rushmoor.gov.uk,Rushmoor,http://www.rushmoor.gov.uk,-0.79085300000000,GU14 9SX,2014-09-17,fhrs_2_en-GB,2,,FHRS,10
252571,122 Prospect Road,Farnborough,Hampshire,,The Thatched Cottage,Pub/bar/nightclub,7843,5,,29518,10,,51.29839700000000,09/00087/HSFD,140,food@rushmoor.gov.uk,Rushmoor,http://www.rushmoor.gov.uk,-0.76284700000000,GU14 8NU,2013-10-23,fhrs_4_en-GB,4,,FHRS,5
252572,24 - 30 Victoria Road,Farnborough,Hampshire,,The Tilly Shilling,Pub/bar/nightclub,7843,5,,34588,5,,51.29329400000000,10/00131/HSFD,140,food@rushmoor.gov.uk,Rushmoor,http://www.rushmoor.gov.uk,-0.75729000000000,GU14 7PG,2013-03-12,fhrs_5_en-GB,5,,FHRS,0
252573,The Trafalgar,1 Short Street,Aldershot,Hampshire,The Trafalgar Public House,Pub/bar/nightclub,7843,10,,12774,10,,51.24982400000000,04/02180/HSFD,140,food@rushmoor.gov.uk,Rushmoor,http://www.rushmoor.gov.uk,-0.76650000000000,GU11 1HA,2014-02-19,fhrs_3_en-GB,3,,FHRS,10
252574,64 Kingsmead,Farnborough,Hampshire,,The Triangle,Restaurant/Cafe/Canteen,1,5,,12536,5,,51.29149800000000,04/01774/HSFD,140,food@rushmoor.gov.uk,Rushmoor,http://www.rushmoor.gov.uk,-0.75497200000000,GU14 7SL,2013-11-20,fhrs_5_en-GB,5,,FHRS,5
252575,32 - 34 Grosvenor Road,Aldershot,Hampshire,,The Unicorn,Pub/bar/nightclub,7843,5,,30563,5,,51.24706400000000,09/00215/HSFD,140,food@rushmoor.gov.uk,Rushmoor,http://www.rushmoor.gov.uk,-0.76663100000000,GU11 3DY,2011-10-14,fhrs_4_en-GB,4,,FHRS,10
252576,The White Lion,20 Lower Farnham Road,Aldershot,Hampshire,The White Lion Public House,Pub/bar/nightclub,7843,10,,11904,10,,51.24047400000000,04/00931/HSFD,140,food@rushmoor.gov.uk,Rushmoor,http://www.rushmoor.gov.uk,-0.74391500000000,GU12 4EA,2015-01-13,fhrs_3_en-GB,3,,FHRS,10
252577,Willems Park Public House,7 Wellington Avenue,Aldershot,Hampshire,The Willems Park Public House,Restaurant/Cafe/Canteen,1,10,,12428,10,,51.25090700000000,04/01619/HSFD,140,food@rushmoor.gov.uk,Rushmoor,http://www.rushmoor.gov.uk,-0.77716100000000,GU11 1SQ,2013-08-05,fhrs_2_en-GB,2,,FHRS,15
252578,Orchard Lodge,166 Sycamore Road,Farnborough,Hampshire,The WOW Bakery,Other catering premises,7841,5,,225429,5,,51.28696600000000,11/00113/FOOD,140,food@rushmoor.gov.uk,Rushmoor,http://www.rushmoor.gov.uk,-0.74578800000000,GU14 6RG,2012-03-01,fhrs_5_en-GB,5,,FHRS,5
252579,Thomson House,296 Farnborough Road,Farnborough,Hampshire,Thomson Local,Retailers - other,4613,,,298501,,,51.29661900000000,11/00152/HSFD,140,food@rushmoor.gov.uk,Rushmoor,http://www.rushmoor.gov.uk,-0.75292600000000,GU14 7NU,2012-03-29,fhrs_exempt_en-GB,Exempt,,FHRS,
252580,Whitchurch Close,Aldershot,Hampshire,,Ticehurst,Hospitals/Childcare/Caring Premises,5,0,,12484,0,,51.23157500000000,04/01674/FOOD,140,food@rushmoor.gov.uk,Rushmoor,http://www.rushmoor.gov.uk,-0.74672100000000,GU11 3RX,2014-08-20,fhrs_5_en-GB,5,,FHRS,0
252581,9 - 10 Andover Way,Aldershot,Hampshire,,Tices Meadow Londis,Retailers - other,4613,10,,528937,10,,51.23398600000000,12/00164/HSFD,140,food@rushmoor.gov.uk,Rushmoor,http://www.rushmoor.gov.uk,-0.75694000000000,GU11 3RJ,2014-08-29,fhrs_3_en-GB,3,,FHRS,5
252582,Tiffanys,38 - 40 Grosvenor Road,Aldershot,Hampshire,Tiffanys Public House,Pub/bar/nightclub,7843,5,,12946,5,,51.24706400000000,04/02531/HSFD,140,food@rushmoor.gov.uk,Rushmoor,http://www.rushmoor.gov.uk,-0.76663100000000,GU11 3DY,2014-03-07,fhrs_4_en-GB,4,,FHRS,10
252583,25 Boxalls Lane,Aldershot,Hampshire,,Tinley's Food & Drink Ltd,Mobile caterer,7846,10,,515827,5,,51.23758100000000,12/00130/FOOD,140,food@rushmoor.gov.uk,Rushmoor,http://www.rushmoor.gov.uk,-0.76525200000000,GU11 3QW,2013-02-28,fhrs_4_en-GB,4,,FHRS,0
252584,2 Farnborough Gate,Farnborough,Hampshire,,TK Maxx,Retailers - other,4613,,,33336,,,51.30753700000000,10/00038/HSFD,140,food@rushmoor.gov.uk,Rushmoor,http://www.rushmoor.gov.uk,-0.74878500000000,GU14 8BL,2013-11-21,fhrs_exempt_en-GB,Exempt,,FHRS,
252585,7 Westgate,Aldershot,Hampshire,,Toby Carvery,Restaurant/Cafe/Canteen,1,0,,515829,5,,,12/00154/HSFD,140,food@rushmoor.gov.uk,Rushmoor,http://www.rushmoor.gov.uk,,GU11 1WG,2013-03-04,fhrs_5_en-GB,5,,FHRS,0
252586,177 North Lane,Aldershot,Hampshire,,Toms Fish Shop,Takeaway/sandwich shop,7844,10,,12084,10,,51.25047500000000,04/01094/HSFD,140,food@rushmoor.gov.uk,Rushmoor,http://www.rushmoor.gov.uk,-0.74315600000000,GU12 4SY,2013-09-18,fhrs_3_en-GB,3,,FHRS,10
252587,Tower Hill Community Primary School,Fowler Road,Farnborough,Hampshire,Tower Hill Primary School,School/college/university,7845,0,,11406,5,,51.28838100000000,04/00628/FOOD,140,food@rushmoor.gov.uk,Rushmoor,http://www.rushmoor.gov.uk,-0.77064500000000,GU14 0BW,2014-04-25,fhrs_5_en-GB,5,,FHRS,0
252588,Paperweight Ltd TA Tradesmans Arms,Tradesmans Arms,57 Cove Road,Farnborough,Tradesmans Arms,Pub/bar/nightclub,7843,10,,493667,10,,51.29187500000000,12/00165/HSFD,140,food@rushmoor.gov.uk,Rushmoor,http://www.rushmoor.gov.uk,-0.76941800000000,GU14 0EX,2015-01-14,fhrs_3_en-GB,3,,FHRS,10
252589,Westgate House,Alexandra Road,Aldershot,Hampshire,Travelodge,Hotel/bed & breakfast/guest house,7842,5,,521383,10,,,12/00156/HSFD,140,food@rushmoor.gov.uk,Rushmoor,http://www.rushmoor.gov.uk,,GU11 1WF,2014-08-27,fhrs_4_en-GB,4,,FHRS,5
252590,164 Farnborough Road,Farnborough,Hampshire,,Tudorwood Guest House,Hotel/bed & breakfast/guest house,7842,5,,11282,0,,51.28979100000000,04/00537/HSFD,140,food@rushmoor.gov.uk,Rushmoor,http://www.rushmoor.gov.uk,-0.75258000000000,GU14 7JJ,2010-02-12,fhrs_5_en-GB,5,,FHRS,5
252591,Eggars Hill,Aldershot,Hampshire,,Underwood Bowling Club,Other catering premises,7841,10,,11207,5,,51.23897700000000,04/00500/HSFD,140,food@rushmoor.gov.uk,Rushmoor,http://www.rushmoor.gov.uk,-0.76720600000000,GU11 3NG,2014-08-22,fhrs_4_en-GB,4,,FHRS,5
252592,85 Highfield Avenue,Aldershot,Hampshire,,United Response,Hospitals/Childcare/Caring Premises,5,5,,11859,10,,51.23818000000000,04/00892/HSFD,140,food@rushmoor.gov.uk,Rushmoor,http://www.rushmoor.gov.uk,-0.76403300000000,GU11 3DA,2012-01-13,fhrs_4_en-GB,4,,FHRS,5
252593,97 Eastmead,Farnborough,Hampshire,,Vapour Republic,Restaurant/Cafe/Canteen,1,10,,730412,5,,51.29106700000000,14/00108/HSFD,140,food@rushmoor.gov.uk,Rushmoor,http://www.rushmoor.gov.uk,-0.75515500000000,GU14 7SA,2015-01-14,fhrs_4_en-GB,4,,FHRS,5
252594,41 Lower Newport Road,Aldershot,Hampshire,,Vernons Chemist,Retailers - other,4613,,,11915,,,51.24285300000000,04/00942/HSFD,140,food@rushmoor.gov.uk,Rushmoor,http://www.rushmoor.gov.uk,-0.74181600000000,GU12 4QB,2014-12-05,fhrs_exempt_en-GB,Exempt,,FHRS,
252595,1 Union Street,Aldershot,Hampshire,,VERO,Restaurant/Cafe/Canteen,1,20,,626294,5,,51.24930700000000,13/00138/HSFD,140,food@rushmoor.gov.uk,Rushmoor,http://www.rushmoor.gov.uk,-0.76701600000000,GU11 1EG,2014-03-03,fhrs_1_en-GB,1,,FHRS,0
252596,Village Hotel,Pinehurst Road,Farnborough,Hampshire,Village Urban Resort (Village Hotel),Hotel/bed & breakfast/guest house,7842,5,,28549,5,,51.28568000000000,09/00007/HSFD,140,food@rushmoor.gov.uk,Rushmoor,http://www.rushmoor.gov.uk,-0.76098000000000,GU14 7BF,2013-11-20,fhrs_5_en-GB,5,,FHRS,5
252597,36 Giffard Drive,Farnborough,Hampshire,,Vindaloo Indian Takeaway,Takeaway/sandwich shop,7844,5,,11408,10,,51.29881000000000,04/00630/HSFD,140,food@rushmoor.gov.uk,Rushmoor,http://www.rushmoor.gov.uk,-0.77043800000000,GU14 8PX,2013-09-19,fhrs_4_en-GB,4,,FHRS,5
252598,33 Station Road,Aldershot,Hampshire,,Vine Day Centre,Hospitals/Childcare/Caring Premises,5,5,,634367,5,,51.24882800000000,14/00008/HSFD,140,food@rushmoor.gov.uk,Rushmoor,http://www.rushmoor.gov.uk,-0.76165500000000,GU11 1BA,2014-01-29,fhrs_5_en-GB,5,,FHRS,5
252599,20 Links Way,Farnborough,Hampshire,,Virgin Active,Restaurant/Cafe/Canteen,1,10,,25495,10,,51.29019700000000,08/00091/HSFD,140,food@rushmoor.gov.uk,Rushmoor,http://www.rushmoor.gov.uk,-0.79483300000000,GU14 0NU,2013-11-22,fhrs_3_en-GB,3,,FHRS,10
252600,50 - 52 Cove Road,Farnborough,Hampshire,,Vujon,Restaurant/Cafe/Canteen,1,10,,298510,10,,51.29246400000000,12/00038/HSFD,140,food@rushmoor.gov.uk,Rushmoor,http://www.rushmoor.gov.uk,-0.76728000000000,GU14 0EN,2014-09-10,fhrs_3_en-GB,3,,FHRS,5
252601,5 - 6 Princes Mead,Farnborough,Hampshire,,W H Smith,Retailers - other,4613,,,12729,,,51.29196100000000,04/02126/HELA,140,food@rushmoor.gov.uk,Rushmoor,http://www.rushmoor.gov.uk,-0.75798600000000,GU14 6YA,2009-04-28,fhrs_exempt_en-GB,Exempt,,FHRS,
252602,63 - 68 Wellington Centre,Aldershot,Hampshire,,W H Smiths,Retailers - other,4613,,,12837,,,51.24886500000000,04/02287/HSFD,140,food@rushmoor.gov.uk,Rushmoor,http://www.rushmoor.gov.uk,-0.76430500000000,GU11 1DB,2014-12-30,fhrs_exempt_en-GB,Exempt,,FHRS,
252603,Lynchford Road,Farnborough,Hampshire,,Wavell School,School/college/university,7845,10,,15299,5,,51.27240200000000,05/00165/FOOD,140,food@rushmoor.gov.uk,Rushmoor,http://www.rushmoor.gov.uk,-0.75533100000000,GU14 6BH,2013-09-26,fhrs_4_en-GB,4,,FHRS,5
252604,110 Alexandra Road,Aldershot,Hampshire,,Wellington Community Primary School,School/college/university,7845,0,,9624,0,,51.24951300000000,04/00036/HSFD,140,food@rushmoor.gov.uk,Rushmoor,http://www.rushmoor.gov.uk,-0.77545000000000,GU11 1QJ,2014-02-06,fhrs_5_en-GB,5,,FHRS,5
252605,West End County Infant School,York Road,Aldershot,Hampshire,Wellington Community Primary School,School/college/university,7845,0,,12966,0,,51.24704600000000,04/02559/HSFD,140,food@rushmoor.gov.uk,Rushmoor,http://www.rushmoor.gov.uk,-0.77173300000000,GU11 3JG,2014-09-26,fhrs_5_en-GB,5,,FHRS,0
252606,144 - 148 Ash Road,Aldershot,Hampshire,,Wells Service Station,Retailers - other,4613,10,,12822,10,,51.24182600000000,04/02265/HSFDEP,140,food@rushmoor.gov.uk,Rushmoor,http://www.rushmoor.gov.uk,-0.74422200000000,GU12 4ES,2013-10-29,fhrs_3_en-GB,3,,FHRS,5
252607,Queens Road,Aldershot,Hampshire,,West End Centre,Pub/bar/nightclub,7843,5,,12190,5,,51.24818400000000,04/01240/FOOD,140,food@rushmoor.gov.uk,Rushmoor,http://www.rushmoor.gov.uk,-0.76876500000000,GU11 3JD,2012-01-25,fhrs_5_en-GB,5,,FHRS,5
252608,25 St Christophers Road,Farnborough,Hampshire,,West Farnborough Social Club,Pub/bar/nightclub,7843,5,,12239,5,,51.29121000000000,04/01323/HSFD,140,food@rushmoor.gov.uk,Rushmoor,http://www.rushmoor.gov.uk,-0.76777300000000,GU14 0AH,2013-07-10,fhrs_5_en-GB,5,,FHRS,0
252609,225 Ash Road,Aldershot,Hampshire,,West London Training Ltd,Restaurant/Cafe/Canteen,1,10,,17808,10,,51.24194000000000,06/00034/HELA,140,food@rushmoor.gov.uk,Rushmoor,http://www.rushmoor.gov.uk,-0.74138300000000,GU12 4DD,2014-06-12,fhrs_4_en-GB,4,,FHRS,0
252610,89 Whetstone Road,Farnborough,Hampshire,,Whetstone Stores,Retailers - other,4613,5,,12778,5,,51.29647800000000,04/02184/HSFD,140,food@rushmoor.gov.uk,Rushmoor,http://www.rushmoor.gov.uk,-0.79085300000000,GU14 9SX,2013-12-05,fhrs_4_en-GB,4,,FHRS,10
252611,Mobile Trader,Hawley Arms Car Park,Churchill Crescent,Farnborough,White Rose Kebabs,Mobile caterer,7846,5,,10945,5,,,04/00371/HSFD,140,food@rushmoor.gov.uk,Rushmoor,http://www.rushmoor.gov.uk,,,2013-03-04,fhrs_5_en-GB,5,,FHRS,5
252612,14 - 16 Wellington Centre,Aldershot,Hampshire,,Wilkinson,Retailers - other,4613,0,,12843,0,,51.24886500000000,04/02292/HSFD,140,food@rushmoor.gov.uk,Rushmoor,http://www.rushmoor.gov.uk,-0.76430500000000,GU11 1DB,2014-02-13,fhrs_5_en-GB,5,,FHRS,5
252613,31 - 33 Kingsmead,Farnborough,Hampshire,,Wilkinson,Retailers - other,4613,,,12532,,,51.29176100000000,04/01759/HSFD,140,food@rushmoor.gov.uk,Rushmoor,http://www.rushmoor.gov.uk,-0.75440600000000,GU14 7SJ,2012-10-16,fhrs_exempt_en-GB,Exempt,,FHRS,
252614,17 Churchill Crescent,Farnborough,Hampshire,,Willies Kitchen,Takeaway/sandwich shop,7844,10,,199521,15,,51.31069500000000,12/00008/HSFD,140,food@rushmoor.gov.uk,Rushmoor,http://www.rushmoor.gov.uk,-0.75740800000000,GU14 8EL,2014-08-21,fhrs_2_en-GB,2,,FHRS,15
252615,2 Reading Road,Farnborough,Hampshire,,Willow House,Hospitals/Childcare/Caring Premises,5,5,,26218,5,,51.28031800000000,08/00227/HSFD,140,food@rushmoor.gov.uk,Rushmoor,http://www.rushmoor.gov.uk,-0.75217700000000,GU14 6NA,2013-09-13,fhrs_4_en-GB,4,,FHRS,10
252616,29 - 30 Wellington Centre,Aldershot,Hampshire,,Wimpy,Other catering premises,7841,5,,564039,5,,51.24886500000000,13/00024/HSFD,140,food@rushmoor.gov.uk,Rushmoor,http://www.rushmoor.gov.uk,-0.76430500000000,GU11 1DB,2013-09-25,fhrs_5_en-GB,5,,FHRS,0
252617,93 Queensmead,Farnborough,Hampshire,,Wimpy,Restaurant/Cafe/Canteen,1,5,,12638,10,,51.29125100000000,04/01925/HSFD,140,food@rushmoor.gov.uk,Rushmoor,http://www.rushmoor.gov.uk,-0.75540900000000,GU14 7RZ,2014-10-09,fhrs_4_en-GB,4,,FHRS,5
252618,6 - 8 Upper Union Street,Aldershot,Hampshire,,Wine Sellers,Retailers - other,4613,10,,12573,5,,51.24900200000000,04/01836/HELA,140,food@rushmoor.gov.uk,Rushmoor,http://www.rushmoor.gov.uk,-0.76786900000000,GU11 1EX,2013-11-01,fhrs_4_en-GB,4,,FHRS,5
252619,310 Fernhill Road,Farnborough,Hampshire,,Wineland & Food,Retailers - other,4613,10,,676370,15,,51.31039500000000,14/00063/HSFD,140,food@rushmoor.gov.uk,Rushmoor,http://www.rushmoor.gov.uk,-0.77586700000000,GU14 9EE,2014-06-23,fhrs_2_en-GB,2,,FHRS,10
252620,32 Alexandra Road,Farnborough,Hampshire,,Wings Cottage Restaurant,Restaurant/Cafe/Canteen,1,5,,9785,10,,51.27529500000000,04/00063/HSFD,140,food@rushmoor.gov.uk,Rushmoor,http://www.rushmoor.gov.uk,-0.75000500000000,GU14 6DA,2014-03-04,fhrs_4_en-GB,4,,FHRS,5
252621,6 Invincible Road,Farnborough,Hampshire,,Wizzy World,Other catering premises,7841,10,,410501,10,,51.28761800000000,12/00077/HSFD,140,food@rushmoor.gov.uk,Rushmoor,http://www.rushmoor.gov.uk,-0.76482800000000,GU14 7QU,2014-06-12,fhrs_3_en-GB,3,,FHRS,10
252622,30 Camp Road,Farnborough,Hampshire,,Woods The Butchers,Manufacturers/packers,7839,5,,10630,5,,51.27559800000000,04/00256/HSFD,140,food@rushmoor.gov.uk,Rushmoor,http://www.rushmoor.gov.uk,-0.74721600000000,GU14 6EW,2013-11-19,fhrs_4_en-GB,4,,FHRS,10
252623,218 Farnborough Road,Farnborough,Hampshire,,Woodys Take Out,Takeaway/sandwich shop,7844,20,,528929,15,,51.29306000000000,12/00121/HSFD,140,food@rushmoor.gov.uk,Rushmoor,http://www.rushmoor.gov.uk,-0.75302200000000,GU14 7JW,2014-10-23,fhrs_1_en-GB,1,,FHRS,10
252624,182 Victoria Road,Aldershot,Hampshire,,Woody's Take Out,Takeaway/sandwich shop,7844,10,,634365,10,,51.24867900000000,13/00152/HSFD,140,food@rushmoor.gov.uk,Rushmoor,http://www.rushmoor.gov.uk,-0.76627300000000,GU11 1JZ,2014-01-29,fhrs_4_en-GB,4,,FHRS,0
252625,15 High Street,Aldershot,Hampshire,,Word Of Mouth,Pub/bar/nightclub,7843,5,,30816,5,,51.24995300000000,09/00283/HELA,140,food@rushmoor.gov.uk,Rushmoor,http://www.rushmoor.gov.uk,-0.76686900000000,GU11 1BH,2013-03-18,fhrs_5_en-GB,5,,FHRS,5
252626,6 - 8 Station Road,Aldershot,Hampshire,,Worldwide Food Centre,Retailers - other,4613,10,,727553,10,,51.24775600000000,15/00002/HSFD,140,food@rushmoor.gov.uk,Rushmoor,http://www.rushmoor.gov.uk,-0.76146900000000,GU11 1HT,2014-12-31,fhrs_3_en-GB,3,,FHRS,10
252627,Warrant Officers And Sergeants Mess,New Normandy Barracks,Evelyn Woods Road,Aldershot,WO's & Sgts Mess,Restaurant/Cafe/Canteen,1,5,,11236,5,,51.26971600000000,04/00515/FOOD,140,food@rushmoor.gov.uk,Rushmoor,http://www.rushmoor.gov.uk,-0.74799200000000,GU11 2LZ,2013-09-09,fhrs_5_en-GB,5,,FHRS,0
252628,,,,,Wow! Bento!,Other catering premises,7841,5,,537628,5,,,13/00029/FOOD,140,food@rushmoor.gov.uk,Rushmoor,http://www.rushmoor.gov.uk,,,2013-03-27,fhrs_5_en-GB,5,,FHRS,5
252629,50 Grosvenor Road,Aldershot,Hampshire,,Yellow River,Takeaway/sandwich shop,7844,5,,15318,5,,51.24706400000000,05/00174/HSEP,140,food@rushmoor.gov.uk,Rushmoor,http://www.rushmoor.gov.uk,-0.76663100000000,GU11 3DY,2014-12-18,fhrs_4_en-GB,4,,FHRS,10
252630,45 York Road,Farnborough,Hampshire,,York Road Social Club,Pub/bar/nightclub,7843,5,,12506,10,,51.27796300000000,04/01692/HSFD,140,food@rushmoor.gov.uk,Rushmoor,http://www.rushmoor.gov.uk,-0.74646300000000,GU14 6NG,2013-07-30,fhrs_4_en-GB,4,,FHRS,5
252631,177 Lynchford Road,Farnborough,Hampshire,,Yumi Yumi,Restaurant/Cafe/Canteen,1,5,,46246,5,,51.27536900000000,11/00054/HSFD,140,food@rushmoor.gov.uk,Rushmoor,http://www.rushmoor.gov.uk,-0.74264900000000,GU14 6HD,2014-02-27,fhrs_5_en-GB,5,,FHRS,5
252632,1 - 2 Firgrove Parade,Farnborough,Hampshire,,Zaffron,Restaurant/Cafe/Canteen,1,5,,21511,5,,51.29363100000000,07/00031/HSFD,140,food@rushmoor.gov.uk,Rushmoor,http://www.rushmoor.gov.uk,-0.75428300000000,GU14 7RE,2013-09-16,fhrs_5_en-GB,5,,FHRS,5
