,addressline1,addressline2,addressline3,addressline4,businessname,businesstype,businesstypeid,confidenceinmanagement,extractdate,fhrsid,hygiene,itemcount,latitude,localauthoritybusinessid,localauthoritycode,localauthorityemailaddress,localauthorityname,localauthoritywebsite,longitude,postcode,ratingdate,ratingkey,ratingvalue,returncode,schemetype,structural
327341,Unit 6  Fairfield Court,Stourbridge Road,Fairfield,Bromsgrove,5 Aday Catering,Hospitals/Childcare/Caring Premises,5,0,,672460,0,,52.38210400000000,BD/PI/000021336,145,wrsenquiries@worcestershire.gov.uk,Bromsgrove,http://www.worcsregservices.gov.uk,-2.08194800000000,B61 9NJ,2015-01-19,fhrs_5_en-GB,5,,FHRS,0
327342,The Dolphin Centre,School Drive,Bromsgrove,Worcestershire,A P Catering,Restaurant/Cafe/Canteen,1,0,,672104,0,,52.33714200000000,13/00073/FOOD,145,wrsenquiries@worcestershire.gov.uk,Bromsgrove,http://www.worcsregservices.gov.uk,-2.05513800000000,B60 1AY,2014-10-23,fhrs_5_en-GB,5,,FHRS,5
327343,Abacus Nursery School,Barnsley Hall Drive,Bromsgrove,Worcestershire,Abacus Nursery,Hospitals/Childcare/Caring Premises,5,5,,672202,5,,52.35338100000000,BD/PI/000001081,145,wrsenquiries@worcestershire.gov.uk,Bromsgrove,http://www.worcsregservices.gov.uk,-2.04925700000000,B61 0EX,2014-06-17,fhrs_5_en-GB,5,,FHRS,0
327344,21 Western Road,Hagley,Stourbridge,Worcestershire,Abbeyfield House,Hospitals/Childcare/Caring Premises,5,10,,672408,0,,52.41692100000000,BD/PI/000016030,145,wrsenquiries@worcestershire.gov.uk,Bromsgrove,http://www.worcsregservices.gov.uk,-2.14069300000000,DY9 0JY,2013-12-16,fhrs_4_en-GB,4,,FHRS,0
327345,Haybridge High School,Brake Lane,Hagley,Stourbridge,ABM Catering @ Haybridge High School,School/college/university,7845,0,,684129,5,,52.42401400000000,13/00368/FOOD,145,wrsenquiries@worcestershire.gov.uk,Bromsgrove,http://www.worcsregservices.gov.uk,-2.14842100000000,DY8 2XS,2013-10-14,fhrs_5_en-GB,5,,FHRS,5
327346,Park Gate Inn,Kidderminster Road,Park Gate,Dodford,Agrafort Indian Restaurant,Restaurant/Cafe/Canteen,1,10,,684126,10,,52.34224100000000,13/00172/FOOD,145,wrsenquiries@worcestershire.gov.uk,Bromsgrove,http://www.worcsregservices.gov.uk,-2.09533400000000,B61 9AJ,2013-09-09,fhrs_3_en-GB,3,,FHRS,10
327347,Alcott Farm,Icknield Street,Beoley,Birmingham,Alcott Farm Bed And Breakfast,Hotel/bed & breakfast/guest house,7842,0,,672295,0,,52.36364800000000,BD/PI/000008169,145,wrsenquiries@worcestershire.gov.uk,Bromsgrove,http://www.worcsregservices.gov.uk,-1.91868600000000,B48 7EH,2010-03-26,fhrs_5_en-GB,5,,FHRS,0
327348,,,,,All Saints Road,Hospitals/Childcare/Caring Premises,5,,,672198,,,,BD/PI/000000463,145,wrsenquiries@worcestershire.gov.uk,Bromsgrove,http://www.worcsregservices.gov.uk,,,2010-01-25,fhrs_exempt_en-GB,Exempt,,FHRS,
327349,The Coppice Primary School,Shawhurst Lane,Hollywood,Birmingham,Alliance In Partnership @ The Coppice Primary School,School/college/university,7845,0,,703225,0,,52.39033900000000,14/01054/FOOD,145,wrsenquiries@worcestershire.gov.uk,Bromsgrove,http://www.worcsregservices.gov.uk,-1.87621400000000,B47 5JN,2014-09-11,fhrs_5_en-GB,5,,FHRS,5
327350,Waseley Hills High School,School Road,Rubery,Birmingham,Alliance In Partnership @ Waseley Hills High,School/college/university,7845,0,,672362,5,,52.39082200000000,BD/PI/000013135,145,wrsenquiries@worcestershire.gov.uk,Bromsgrove,http://www.worcsregservices.gov.uk,-2.03072500000000,B45 9EL,2010-02-18,fhrs_5_en-GB,5,,FHRS,0
327351,80 Worcester Road,Bromsgrove,Worcestershire,,Altered Images,Restaurant/Cafe/Canteen,1,5,,672418,5,,52.33150900000000,BD/PI/000016930,145,wrsenquiries@worcestershire.gov.uk,Bromsgrove,http://www.worcsregservices.gov.uk,-2.06562400000000,B61 7AG,2011-03-11,fhrs_5_en-GB,5,,FHRS,5
327352,Alvechurch Fisheries,Bittell Road,Barnt Green,Worcestershire,Alvechurch Fisheries Limited,Takeaway/sandwich shop,7844,10,,672160,5,,52.36306000000000,BD/11/00005/COMM,145,wrsenquiries@worcestershire.gov.uk,Bromsgrove,http://www.worcsregservices.gov.uk,-1.98180300000000,,2014-04-02,fhrs_4_en-GB,4,,FHRS,5
327353,Alvechurch Football Club  Lye Meado,Redditch Road,Alvechurch,Birmingham,Alvechurch Football Club,Mobile caterer,7846,5,,672334,10,,52.34681200000000,BD/PI/000012159,145,wrsenquiries@worcestershire.gov.uk,Bromsgrove,http://www.worcsregservices.gov.uk,-1.95732400000000,B48 7RS,2012-02-14,fhrs_3_en-GB,3,,FHRS,10
327354,Radford Road,Alvechurch,Birmingham,Worcestershire,Alvechurch Sports & Social Club,Pub/bar/nightclub,7843,10,,672395,10,,52.35182000000000,BD/PI/000015210,145,wrsenquiries@worcestershire.gov.uk,Bromsgrove,http://www.worcsregservices.gov.uk,-1.95840600000000,B48 7LD,2011-01-13,fhrs_3_en-GB,3,,FHRS,10
327355,Chicago Pizza,129 New Road,Rubery,Worcestershire,American Hut,Takeaway/sandwich shop,7844,5,,672470,5,,52.39297300000000,BD/PI/000022273,145,wrsenquiries@worcestershire.gov.uk,Bromsgrove,http://www.worcsregservices.gov.uk,-2.02107200000000,B45 9JR,2013-03-21,fhrs_4_en-GB,4,,FHRS,10
327356,55 Worcester Road,Bromsgrove,Worcestershire,,Anarkali,Takeaway/sandwich shop,7844,5,,672412,5,,52.33242700000000,BD/PI/000016917,145,wrsenquiries@worcestershire.gov.uk,Bromsgrove,http://www.worcsregservices.gov.uk,-2.06351200000000,B61 7DN,2013-01-30,fhrs_5_en-GB,5,,FHRS,5
327357,34 Worcester Road,Bromsgrove,Worcestershire,,Antonios Pizza,Takeaway/sandwich shop,7844,5,,684502,5,,52.33299300000000,BD/PI/000022444,145,wrsenquiries@worcestershire.gov.uk,Bromsgrove,http://www.worcsregservices.gov.uk,-2.06354200000000,B61 7AE,2014-07-01,fhrs_5_en-GB,5,,FHRS,0
327358,Mobile Snack Bar In Layby,Stratford Road,Slideslow,Worcestershire,Ants Snack Bar,Mobile caterer,7846,0,,672387,5,,,BD/PI/000014483,145,wrsenquiries@worcestershire.gov.uk,Bromsgrove,http://www.worcsregservices.gov.uk,,,2014-05-07,fhrs_5_en-GB,5,,FHRS,5
327359,Hm Prison Blakenhurst,Hm Prison Hewell Grange,Hewell Lane,Tardebigge,Aramak Ltd @ HMP Hewell,Restaurant/Cafe/Canteen,1,0,,684326,0,,52.32560200000000,BD/PI/000007323,145,wrsenquiries@worcestershire.gov.uk,Bromsgrove,http://www.worcsregservices.gov.uk,-1.99162000000000,B97 6QS,2011-07-21,fhrs_5_en-GB,5,,FHRS,5
327360,9 Chapel Street,Bromsgrove,Worcestershire,,Art Cafe,Restaurant/Cafe/Canteen,1,5,,672236,0,,52.33564700000000,BD/PI/000003594,145,wrsenquiries@worcestershire.gov.uk,Bromsgrove,http://www.worcsregservices.gov.uk,-2.05923100000000,B60 2BW,2010-05-27,fhrs_5_en-GB,5,,FHRS,0
327361,The Artrix,School Drive,Bromsgrove,Worcestershire,Artrix,Other catering premises,7841,0,,684483,0,,52.33842900000000,BD/PI/000020098,145,wrsenquiries@worcestershire.gov.uk,Bromsgrove,http://www.worcsregservices.gov.uk,-2.05248300000000,B60 1AX,2010-10-26,fhrs_5_en-GB,5,,FHRS,5
327362,Asda Stores Ltd,21 Market Street,Bromsgrove,Worcestershire,ASDA (Staff Canteen),Restaurant/Cafe/Canteen,1,5,,672440,5,,52.33692400000000,BD/PI/000019654,145,wrsenquiries@worcestershire.gov.uk,Bromsgrove,http://www.worcsregservices.gov.uk,-2.05926200000000,B61 8DA,2013-08-06,fhrs_5_en-GB,5,,FHRS,0
327363,Ashborough Farm,Old Burcot Lane,Burcot,Worcestershire,Ashborough Farmhouse,Hotel/bed & breakfast/guest house,7842,20,,672108,5,,52.34325800000000,13/00248/FOOD,145,wrsenquiries@worcestershire.gov.uk,Bromsgrove,http://www.worcsregservices.gov.uk,-2.04790900000000,B60 1PH,2013-10-25,fhrs_1_en-GB,1,,FHRS,0
327364,Drummond Road,Bromsgrove,Worcestershire,,Aston Fields Middle School,School/college/university,7845,5,,672250,5,,52.32752600000000,BD/PI/000005055,145,wrsenquiries@worcestershire.gov.uk,Bromsgrove,http://www.worcsregservices.gov.uk,-2.04588200000000,B60 2ET,2012-12-10,fhrs_4_en-GB,4,,FHRS,10
327365,96 Stoke Road,Bromsgrove,Worcestershire,,Aston Fields Social Club,Pub/bar/nightclub,7843,5,,672376,0,,52.32274100000000,BD/PI/000014076,145,wrsenquiries@worcestershire.gov.uk,Bromsgrove,http://www.worcsregservices.gov.uk,-2.05189300000000,B60 3EG,2014-06-19,fhrs_5_en-GB,5,,FHRS,5
327366,Aston House Chinese Takeaway,13 - 17 Stoke Road,Bromsgrove,Worcestershire,Aston House Catering Ltd,Takeaway/sandwich shop,7844,10,,712512,10,,52.32286800000000,14/00454/FOOD,145,wrsenquiries@worcestershire.gov.uk,Bromsgrove,http://www.worcsregservices.gov.uk,-2.04923700000000,B60 3EQ,2014-10-28,fhrs_3_en-GB,3,,FHRS,10
327367,Hanbury Road,Bromsgrove,Worcestershire,,Avoncroft Cricket Club,Pub/bar/nightclub,7843,10,,672270,5,,,BD/PI/000006901,145,wrsenquiries@worcestershire.gov.uk,Bromsgrove,http://www.worcsregservices.gov.uk,,,2010-03-29,fhrs_4_en-GB,4,,FHRS,5
327368,Avoncroft Museum Of Buildings,Redditch Road,Bromsgrove,Worcestershire,Avoncroft Enterprises - Hall,Other catering premises,7841,5,,672145,5,,52.31474700000000,BD/10/00015/COMM,145,wrsenquiries@worcestershire.gov.uk,Bromsgrove,http://www.worcsregservices.gov.uk,-2.07171600000000,B60 4JR,2014-09-22,fhrs_5_en-GB,5,,FHRS,5
327369,77 Redditch Road,Bromsgrove,Worcestershire,,Avoncroft Guest House,Hotel/bed & breakfast/guest house,7842,0,,672339,0,,52.31495200000000,BD/PI/000012229,145,wrsenquiries@worcestershire.gov.uk,Bromsgrove,http://www.worcsregservices.gov.uk,-2.07466500000000,B60 4JP,2009-11-25,fhrs_5_en-GB,5,,FHRS,0
327370,Beefeater Restaurants  Badgers Sett,Birmingham Road,Hagley,Stourbridge,Badgers Sett,Pub/bar/nightclub,7843,0,,672216,0,,52.43125300000000,BD/PI/000001945,145,wrsenquiries@worcestershire.gov.uk,Bromsgrove,http://www.worcsregservices.gov.uk,-2.10411600000000,DY9 9JS,2010-11-23,fhrs_5_en-GB,5,,FHRS,5
327371,87 New Road,Rubery,Birmingham,Worcestershire,Balti Hut,Takeaway/sandwich shop,7844,10,,672325,10,,52.39297300000000,BD/PI/000010742,145,wrsenquiries@worcestershire.gov.uk,Bromsgrove,http://www.worcsregservices.gov.uk,-2.02107200000000,B45 9JR,2013-08-22,fhrs_3_en-GB,3,,FHRS,10
327372,Perryfields Road,Bromsgrove,Worcestershire,,BamFM at Sidemoor First School,School/college/university,7845,5,,684579,0,,52.34306200000000,WC/U68MBRPERR/1,145,wrsenquiries@worcestershire.gov.uk,Bromsgrove,http://www.worcsregservices.gov.uk,-2.07795600000000,B61 8QN,2011-07-21,fhrs_5_en-GB,5,,FHRS,0
327373,Banner Foods Ltd,6 Finstall Road,Bromsgrove,Worcestershire,Banner Foods,Manufacturers/packers,7839,5,,672251,5,,52.32308500000000,BD/PI/000005647,145,wrsenquiries@worcestershire.gov.uk,Bromsgrove,http://www.worcsregservices.gov.uk,-2.04744700000000,B60 2DZ,2014-05-09,fhrs_5_en-GB,5,,FHRS,5
327374,Band Phool Balti House,116 - 118 New Road,Rubery,Birmingham,Bano Phool Restaurant,Restaurant/Cafe/Canteen,1,5,,672315,5,,52.39229800000000,BD/PI/000010632,145,wrsenquiries@worcestershire.gov.uk,Bromsgrove,http://www.worcsregservices.gov.uk,-2.02224700000000,B45 9HY,2013-02-22,fhrs_5_en-GB,5,,FHRS,5
327375,,,,,Barnardos at Pear Tree Childrens Centre,Hospitals/Childcare/Caring Premises,5,0,,684580,0,,,WC/U69MBRBROA/1,145,wrsenquiries@worcestershire.gov.uk,Bromsgrove,http://www.worcsregservices.gov.uk,,,2011-09-22,fhrs_5_en-GB,5,,FHRS,5
327376,Baptist Church,Bittell Road,Barnt Green,Bromsgrove,Barnt Green Baptist Church,Other catering premises,7841,5,,672219,5,,52.36317200000000,BD/PI/000002100,145,wrsenquiries@worcestershire.gov.uk,Bromsgrove,http://www.worcsregservices.gov.uk,-1.98576900000000,B45 8LU,2010-02-22,fhrs_5_en-GB,5,,FHRS,5
327377,Kendal End Road,Barnt Green,Birmingham,Worcestershire,Barnt Green Inn,Pub/bar/nightclub,7843,5,,672299,5,,52.36499700000000,BD/PI/000008268,145,wrsenquiries@worcestershire.gov.uk,Bromsgrove,http://www.worcsregservices.gov.uk,-1.99195100000000,B45 8PZ,2014-04-15,fhrs_5_en-GB,5,,FHRS,0
327378,Barnt Green Baptist Church,Bittell Road,Barnt Green,Worcestershire,Barnt Green Playgroup,Hospitals/Childcare/Caring Premises,5,5,,672475,5,,52.36317200000000,BD/PI/000022738,145,wrsenquiries@worcestershire.gov.uk,Bromsgrove,http://www.worcsregservices.gov.uk,-1.98576900000000,B45 8LU,2012-03-22,fhrs_5_en-GB,5,,FHRS,5
327379,Barnt Green Sailing Club  Upper Bit,Cofton Church Lane,Cofton Hackett,Birmingham,Barnt Green Waters Ltd,Pub/bar/nightclub,7843,5,,672218,0,,,BD/PI/000002045,145,wrsenquiries@worcestershire.gov.uk,Bromsgrove,http://www.worcsregservices.gov.uk,,B45 8EW,2014-11-19,fhrs_5_en-GB,5,,FHRS,0
327380,245 Pennine Road,Bromsgrove,Worcestershire,,Bea's Lodge,Hotel/bed & breakfast/guest house,7842,10,,672330,0,,52.34611300000000,BD/PI/000011573,145,wrsenquiries@worcestershire.gov.uk,Bromsgrove,http://www.worcsregservices.gov.uk,-2.05752800000000,B61 0TN,2010-03-02,fhrs_4_en-GB,4,,FHRS,5
327381,Becketts Farm,Alcester Road,Wythall,Birmingham,Becketts Farm Restaurant And Farm Shop,Restaurant/Cafe/Canteen,1,5,,672197,5,,52.37249600000000,BD/PI/000000368,145,wrsenquiries@worcestershire.gov.uk,Bromsgrove,http://www.worcsregservices.gov.uk,-1.88772100000000,B47 6AJ,2014-11-05,fhrs_5_en-GB,5,,FHRS,5
327382,181 New Road,Rubery,Birmingham,Worcestershire,Behan Brothers Butchers,Retailers - other,4613,10,,672321,5,,52.39367400000000,BD/PI/000010689,145,wrsenquiries@worcestershire.gov.uk,Bromsgrove,http://www.worcsregservices.gov.uk,-2.01885300000000,B45 9JW,2014-04-28,fhrs_4_en-GB,4,,FHRS,5
327383,Belbroughton C Of E First School,Bradford Lane,Belbroughton,Stourbridge,Belbroughton CE Primary And Nursery School,School/college/university,7845,5,,672221,5,,52.38914700000000,BD/PI/000002345,145,wrsenquiries@worcestershire.gov.uk,Bromsgrove,http://www.worcsregservices.gov.uk,-2.11947400000000,DY9 9TF,2014-10-03,fhrs_4_en-GB,4,,FHRS,10
327384,5 High Street,Belbroughton,Stourbridge,Worcestershire,Belbroughton Club,Pub/bar/nightclub,7843,5,,672122,0,,52.39160100000000,14/00688/FOOD,145,wrsenquiries@worcestershire.gov.uk,Bromsgrove,http://www.worcsregservices.gov.uk,-2.11962800000000,DY9 9SY,2014-03-21,fhrs_5_en-GB,5,,FHRS,5
327385,24 High Street,Belbroughton,Stourbridge,Worcestershire,Belbroughton Post Office,Restaurant/Cafe/Canteen,1,5,,684133,5,,52.39282500000000,14/00455/FOOD,145,wrsenquiries@worcestershire.gov.uk,Bromsgrove,http://www.worcsregservices.gov.uk,-2.11814700000000,DY9 9ST,2012-11-26,fhrs_5_en-GB,5,,FHRS,5
327386,Bell & Cross Inn,Bromsgrove Road,Clent,Worcestershire,Bell & Cross Public House,Pub/bar/nightclub,7843,5,,672293,5,,52.40741100000000,BD/PI/000007959,145,wrsenquiries@worcestershire.gov.uk,Bromsgrove,http://www.worcsregservices.gov.uk,-2.11462900000000,DY9 9QL,2013-03-28,fhrs_5_en-GB,5,,FHRS,5
327387,Bell Heath C S Centre,Quantry Lane,Bell Heath,Stourbridge,Bell Heath Study Centre,School/college/university,7845,5,,672332,0,,52.39612300000000,BD/PI/000011998,145,wrsenquiries@worcestershire.gov.uk,Bromsgrove,http://www.worcsregservices.gov.uk,-2.06225200000000,DY9 9UU,2010-04-20,fhrs_5_en-GB,5,,FHRS,0
327388,The Bell Toby Grill,Bromsgrove Road,Hagley,Worcestershire,Bell Inn,Pub/bar/nightclub,7843,0,,672223,0,,52.39120700000000,BD/PI/000002617,145,wrsenquiries@worcestershire.gov.uk,Bromsgrove,http://www.worcsregservices.gov.uk,-2.08682900000000,DY9 9XU,2011-10-03,fhrs_5_en-GB,5,,FHRS,0
327389,460 Lickey Road,Rednal,Birmingham,Worcestershire,Ben's Lickey Hills Fish Bar,Takeaway/sandwich shop,7844,5,,672303,10,,52.38304900000000,BD/PI/000008836,145,wrsenquiries@worcestershire.gov.uk,Bromsgrove,http://www.worcsregservices.gov.uk,-2.00282000000000,B45 8UU,2014-03-31,fhrs_4_en-GB,4,,FHRS,5
327390,462 Lickey Road,Rednal,Birmingham,Worcestershire,Bens Mediterranean Pizza & Pasta Bar,Takeaway/sandwich shop,7844,0,,672443,0,,52.38304900000000,BD/PI/000019920,145,wrsenquiries@worcestershire.gov.uk,Bromsgrove,http://www.worcsregservices.gov.uk,-2.00282000000000,B45 8UU,2013-01-10,fhrs_5_en-GB,5,,FHRS,5
327391,Beoley County Primary School,Beoley Lane,Beoley,Redditch,Beoley First School,School/college/university,7845,0,,672136,0,,52.32379300000000,BD/09/00065/COMM,145,wrsenquiries@worcestershire.gov.uk,Bromsgrove,http://www.worcsregservices.gov.uk,-1.89344900000000,B98 9AN,2014-09-10,fhrs_5_en-GB,5,,FHRS,0
327392,141 - 143 Worcester Road,Bromsgrove,Worcestershire,,Big Dave's Cafe And Burger Bar,Restaurant/Cafe/Canteen,1,5,,672174,10,,52.33007900000000,BD/12/00024/COMM,145,wrsenquiries@worcestershire.gov.uk,Bromsgrove,http://www.worcsregservices.gov.uk,-2.06670800000000,B61 7HN,2014-02-13,fhrs_4_en-GB,4,,FHRS,5
327393,Bilberry Hill Training Centre,Rose Hill,Lickey,Birmingham,Birmingham Federation Of Clubs For Young People,School/college/university,7845,10,,672346,10,,52.38013600000000,BD/PI/000012532,145,wrsenquiries@worcestershire.gov.uk,Bromsgrove,http://www.worcsregservices.gov.uk,-2.00777000000000,B45 8RT,2013-09-23,fhrs_3_en-GB,3,,FHRS,10
327394,Scout Centre,Agmore Road,Blackwell,Bromsgrove,Blackwell Adventure,Other catering premises,7841,10,,672186,5,,52.34254900000000,BD/PI/000000033,145,wrsenquiries@worcestershire.gov.uk,Bromsgrove,http://www.worcsregservices.gov.uk,-2.00980400000000,B60 1PX,2011-09-08,fhrs_4_en-GB,4,,FHRS,5
327395,84 Linthurst Newtown,Blackwell,Bromsgrove,Worcestershire,Blackwell Club,Pub/bar/nightclub,7843,10,,672452,10,,52.34972300000000,BD/PI/000020714,145,wrsenquiries@worcestershire.gov.uk,Bromsgrove,http://www.worcsregservices.gov.uk,-2.00607600000000,B60 1BS,2014-08-01,fhrs_4_en-GB,4,,FHRS,0
327396,Blackwell First School,St Catherines Road,Blackwell,Bromsgrove,Blackwell First School (The Blackwell Kitchen),School/college/university,7845,10,,729393,0,,52.35085500000000,14/00904/FOOD,145,wrsenquiries@worcestershire.gov.uk,Bromsgrove,http://www.worcsregservices.gov.uk,-2.01573700000000,B60 1BN,2015-01-14,fhrs_4_en-GB,4,,FHRS,5
327397,Agmore Road,Blackwell,Bromsgrove,Worcestershire,Blackwell Golf Club,Restaurant/Cafe/Canteen,1,5,,672187,5,,52.34614500000000,BD/PI/000000034,145,wrsenquiries@worcestershire.gov.uk,Bromsgrove,http://www.worcsregservices.gov.uk,-2.01009800000000,B60 1PY,2011-02-15,fhrs_5_en-GB,5,,FHRS,5
327398,242 Stourbridge Road,Catshill,Bromsgrove,Worcestershire,Bluebrook Residential Home,Hospitals/Childcare/Caring Premises,5,5,,672485,10,,52.35914500000000,BD/PI/000023163,145,wrsenquiries@worcestershire.gov.uk,Bromsgrove,http://www.worcsregservices.gov.uk,-2.06441700000000,B61 9LE,2015-01-12,fhrs_4_en-GB,4,,FHRS,5
327399,Boat And Railway Inn,Shaw Lane,Stoke Prior,Bromsgrove,Boat & Railway Inn,Pub/bar/nightclub,7843,5,,672364,0,,52.29274700000000,BD/PI/000013371,145,wrsenquiries@worcestershire.gov.uk,Bromsgrove,http://www.worcsregservices.gov.uk,-2.08725100000000,B60 4EQ,2011-10-18,fhrs_5_en-GB,5,,FHRS,0
327400,Holy Cross Lane,Belbroughton,Stourbridge,Worcestershire,Breach House Residential Care Home,Hospitals/Childcare/Caring Premises,5,0,,672294,5,,52.39817900000000,BD/PI/000007985,145,wrsenquiries@worcestershire.gov.uk,Bromsgrove,http://www.worcsregservices.gov.uk,-2.12215900000000,DY9 9SP,2014-02-11,fhrs_5_en-GB,5,,FHRS,0
327401,46 Providence Road,Bromsgrove,Worcestershire,,Breme Care Home,Hospitals/Childcare/Caring Premises,5,0,,684547,0,,52.34027600000000,WC/S34MBR46PR/1,145,wrsenquiries@worcestershire.gov.uk,Bromsgrove,http://www.worcsregservices.gov.uk,-2.06274500000000,B61 8EF,2014-10-10,fhrs_5_en-GB,5,,FHRS,0
327402,Fallow Barn,Brockhill Court,Brockhill Lane,Tardebigge,Brockhill Barn Day Nursery,Hospitals/Childcare/Caring Premises,5,0,,672153,5,,52.32151800000000,BD/10/00088/COMM,145,wrsenquiries@worcestershire.gov.uk,Bromsgrove,http://www.worcsregservices.gov.uk,-1.97325200000000,B97 6RB,2015-01-14,fhrs_5_en-GB,5,,FHRS,5
327403,Stratford Road,Bromsgrove,Worcestershire,,Bromsgrove Golf Centre,Other catering premises,7841,5,,672386,0,,52.33560900000000,BD/PI/000014480,145,wrsenquiries@worcestershire.gov.uk,Bromsgrove,http://www.worcsregservices.gov.uk,-2.04483400000000,B60 1LD,2011-08-01,fhrs_5_en-GB,5,,FHRS,0
327404,290 Birmingham Road,Lickey End,Bromsgrove,Worcestershire,Bromsgrove Harvester,Pub/bar/nightclub,7843,5,,672436,5,,52.35104400000000,BD/PI/000018595,145,wrsenquiries@worcestershire.gov.uk,Bromsgrove,http://www.worcsregservices.gov.uk,-2.04819700000000,B61 0ER,2014-07-01,fhrs_5_en-GB,5,,FHRS,5
327405,51 Shelley Close,Catshill,Bromsgrove,Worcestershire,Bromsgrove Hog Roast Company,Mobile caterer,7846,5,,734060,5,,52.36074800000000,14/01036/FOOD,145,wrsenquiries@worcestershire.gov.uk,Bromsgrove,http://www.worcsregservices.gov.uk,-2.05766400000000,B61 0NQ,2015-01-31,fhrs_5_en-GB,5,,FHRS,5
327406,Conway Road,Bromsgrove,Worcestershire,,Bromsgrove Lower School,School/college/university,7845,0,,672243,0,,52.32974900000000,BD/PI/000004337,145,wrsenquiries@worcestershire.gov.uk,Bromsgrove,http://www.worcsregservices.gov.uk,-2.06149800000000,B60 2AD,2014-10-03,fhrs_5_en-GB,5,,FHRS,5
327407,Avoncroft House,Hanbury Road,Bromsgrove,Worcestershire,Bromsgrove Pre-Paratory And Nursery School,School/college/university,7845,0,,672266,0,,52.31283100000000,BD/PI/000006868,145,wrsenquiries@worcestershire.gov.uk,Bromsgrove,http://www.worcsregservices.gov.uk,-2.07432400000000,B60 4JS,2014-12-12,fhrs_5_en-GB,5,,FHRS,0
327408,Bromsgrove Rovers F C,Birmingham Road,Bromsgrove,Worcestershire,Bromsgrove Rovers Matchday Catering,Other catering premises,7841,5,,672215,5,,52.33948800000000,BD/PI/000001918,145,wrsenquiries@worcestershire.gov.uk,Bromsgrove,http://www.worcsregservices.gov.uk,-2.05553800000000,B61 0DR,2010-03-30,fhrs_4_en-GB,4,,FHRS,10
327409,Bromsgrove Rugby Football Club,Finstall Road,Bromsgrove,Worcestershire,Bromsgrove Rugby Club,Pub/bar/nightclub,7843,10,,672252,0,,52.32511000000000,BD/PI/000005664,145,wrsenquiries@worcestershire.gov.uk,Bromsgrove,http://www.worcsregservices.gov.uk,-2.03993700000000,B60 3DH,2010-05-12,fhrs_4_en-GB,4,,FHRS,5
327410,48 - 50 Providence Road,Bromsgrove,Worcestershire,,Bromsgrove Shortbreaks Unit,Hospitals/Childcare/Caring Premises,5,0,,672444,5,,52.34027600000000,BD/PI/000019931,145,wrsenquiries@worcestershire.gov.uk,Bromsgrove,http://www.worcsregservices.gov.uk,-2.06274500000000,B61 8EF,2014-04-30,fhrs_5_en-GB,5,,FHRS,0
327411,Kidderminster Road,Bromsgrove,Worcestershire,,Bromsgrove Unionist Club,Pub/bar/nightclub,7843,5,,684352,0,,52.33513000000000,BD/PI/000008323,145,wrsenquiries@worcestershire.gov.uk,Bromsgrove,http://www.worcsregservices.gov.uk,-2.06819700000000,B61 7JS,2015-01-23,fhrs_5_en-GB,5,,FHRS,0
327412,Brook Court,Burcot Lane,Bromsgrove,Worcestershire,Brook Court  Ltd.,Hospitals/Childcare/Caring Premises,5,0,,672430,0,,52.34056000000000,BD/PI/000018261,145,wrsenquiries@worcestershire.gov.uk,Bromsgrove,http://www.worcsregservices.gov.uk,-2.05189900000000,B60 1AD,2012-12-10,fhrs_5_en-GB,5,,FHRS,5
327413,23 Greenhill,Burcot,Bromsgrove,Worcestershire,Burcot Grange Residential Home,Hospitals/Childcare/Caring Premises,5,5,,672264,0,,52.34412000000000,BD/PI/000006570,145,wrsenquiries@worcestershire.gov.uk,Bromsgrove,http://www.worcsregservices.gov.uk,-2.02269200000000,B60 1BJ,2014-10-07,fhrs_5_en-GB,5,,FHRS,0
327414,Burger King  Frankley Motorway Serv,Illey Lane,Frankley,Birmingham,Burger King,Takeaway/sandwich shop,7844,0,,672298,0,,52.42878100000000,BD/PI/000008203,145,wrsenquiries@worcestershire.gov.uk,Bromsgrove,http://www.worcsregservices.gov.uk,-2.01716200000000,B32 4AR,2013-01-15,fhrs_5_en-GB,5,,FHRS,5
327415,Burger King  Frankley Motorway Serv,Illey Lane,Frankley,Birmingham,Burger King,Takeaway/sandwich shop,7844,0,,672302,0,,52.42878100000000,BD/PI/000008595,145,wrsenquiries@worcestershire.gov.uk,Bromsgrove,http://www.worcsregservices.gov.uk,-2.01716200000000,B32 4AR,2013-01-15,fhrs_5_en-GB,5,,FHRS,5
327416,Penny Cottage Nursery,19 Stoke Road,Bromsgrove,Worcestershire,Busy Bees Nurseries,Hospitals/Childcare/Caring Premises,5,0,,672374,5,,52.32286800000000,BD/PI/000014039,145,wrsenquiries@worcestershire.gov.uk,Bromsgrove,http://www.worcsregservices.gov.uk,-2.04923700000000,B60 3EQ,2014-09-16,fhrs_5_en-GB,5,,FHRS,0
327417,Bromsgrove And District Indoor Bowl,Austin Road,Bromsgrove,Worcestershire,Butlers,Restaurant/Cafe/Canteen,1,5,,684130,5,,52.31911100000000,13/00378/FOOD,145,wrsenquiries@worcestershire.gov.uk,Bromsgrove,http://www.worcsregservices.gov.uk,-2.06518000000000,B60 3PT,2014-09-25,fhrs_5_en-GB,5,,FHRS,5
327418,36 St Kenelms Road,Romsley,Halesowen,Worcestershire,Buttercups,Hospitals/Childcare/Caring Premises,5,10,,672354,5,,52.41785300000000,BD/PI/000012802,145,wrsenquiries@worcestershire.gov.uk,Bromsgrove,http://www.worcsregservices.gov.uk,-2.05853300000000,B62 0NU,2012-10-19,fhrs_4_en-GB,4,,FHRS,5
327419,Recreation Road,Bromsgrove,,,Buttercups And Dandelions Day Nursery Ltd,Hospitals/Childcare/Caring Premises,5,5,,672113,0,,52.33728300000000,13/00381/FOOD,145,wrsenquiries@worcestershire.gov.uk,Bromsgrove,http://www.worcsregservices.gov.uk,-2.06056900000000,B61 8DT,2013-10-03,fhrs_5_en-GB,5,,FHRS,0
327420,191 Stourbridge Road,Bromsgrove,Worcestershire,,C.E. Partridge & Son Limited,Retailers - other,4613,5,,684424,5,,52.34725300000000,BD/PI/000014171,145,wrsenquiries@worcestershire.gov.uk,Bromsgrove,http://www.worcsregservices.gov.uk,-2.06095000000000,B61 0AS,2013-10-02,fhrs_5_en-GB,5,,FHRS,5
327421,Mobile Cafe,Middle Lane,Wythall,Worcestershire,Cafe De Wheels,Mobile caterer,7846,10,,672139,10,,,BD/09/00089/MOBILE,145,wrsenquiries@worcestershire.gov.uk,Bromsgrove,http://www.worcsregservices.gov.uk,,,2014-02-12,fhrs_3_en-GB,3,,FHRS,10
327422,354 Alcester Road,Burcot,Bromsgrove,Worcestershire,Cafe Fresh,Restaurant/Cafe/Canteen,1,10,,672190,10,,52.34271700000000,BD/PI/000000118,145,wrsenquiries@worcestershire.gov.uk,Bromsgrove,http://www.worcsregservices.gov.uk,-2.02426200000000,B60 1PW,2014-07-07,fhrs_3_en-GB,3,,FHRS,10
327423,14 Hewell Road,Barnt Green,Birmingham,Worcestershire,Cafe Morso,Restaurant/Cafe/Canteen,1,5,,672278,10,,52.36139200000000,BD/PI/000007352,145,wrsenquiries@worcestershire.gov.uk,Bromsgrove,http://www.worcsregservices.gov.uk,-1.99054200000000,B45 8NE,2013-12-11,fhrs_4_en-GB,4,,FHRS,5
327424,147 New Road,Rubery,Birmingham,Worcestershire,Cafe-Licious,Restaurant/Cafe/Canteen,1,10,,672107,5,,52.39367400000000,13/00237/FOOD,145,wrsenquiries@worcestershire.gov.uk,Bromsgrove,http://www.worcsregservices.gov.uk,-2.01885300000000,B45 9JW,2014-09-16,fhrs_4_en-GB,4,,FHRS,0
327425,Priory Cafe  Metal & Ores Industria,138 Hanbury Road,Stoke Prior,Bromsgrove,Canalside Craft Centre,Restaurant/Cafe/Canteen,1,5,,672268,5,,52.30090000000000,BD/PI/000006881,145,wrsenquiries@worcestershire.gov.uk,Bromsgrove,http://www.worcsregservices.gov.uk,-2.07500800000000,B60 4JZ,2012-12-10,fhrs_5_en-GB,5,,FHRS,5
327426,The Wildmoor Oak [ph],Top Road,Wildmoor,Worcestershire,Caribbean Express (Lorenzo's Caribbean Express),Other catering premises,7841,5,,684123,0,,52.38173200000000,13/00093/FOOD,145,wrsenquiries@worcestershire.gov.uk,Bromsgrove,http://www.worcsregservices.gov.uk,-2.05756000000000,B61 0RB,2013-11-25,fhrs_5_en-GB,5,,FHRS,5
327427,Casa Millennium,Old Birmingham Road,Alvechurch,Birmingham,Casa Millennium Guest House,Hotel/bed & breakfast/guest house,7842,5,,672156,5,,52.36100900000000,BD/10/00109/COMM,145,wrsenquiries@worcestershire.gov.uk,Bromsgrove,http://www.worcsregservices.gov.uk,-1.96343400000000,B48 7TG,2010-08-11,fhrs_5_en-GB,5,,FHRS,5
327428,Casting Technology International  B,The Holloway,Alvechurch,Birmingham,Casting Technology International,Other catering premises,7841,5,,672392,0,,52.33674700000000,BD/PI/000015065,145,wrsenquiries@worcestershire.gov.uk,Bromsgrove,http://www.worcsregservices.gov.uk,-1.94507900000000,B48 7QA,2010-02-15,fhrs_5_en-GB,5,,FHRS,5
327429,131 Perryfields Road,Bromsgrove,Worcestershire,,Castle Nursery,Hospitals/Childcare/Caring Premises,5,0,,672463,0,,52.34570000000000,BD/PI/000021552,145,wrsenquiries@worcestershire.gov.uk,Bromsgrove,http://www.worcsregservices.gov.uk,-2.07282300000000,B61 8TH,2011-09-09,fhrs_5_en-GB,5,,FHRS,0
327430,Wast Hills House,Wast Hill Lane,Hopwood,Birmingham,Castlebeck Care,Hospitals/Childcare/Caring Premises,5,0,,672488,0,,52.38465500000000,BD/PI/000023301,145,wrsenquiries@worcestershire.gov.uk,Bromsgrove,http://www.worcsregservices.gov.uk,-1.94497600000000,B38 9ET,2011-11-14,fhrs_5_en-GB,5,,FHRS,5
327431,Catshill Primary School,Gibb Lane,Catshill,Bromsgrove,Catshill First School And Nursery,School/college/university,7845,0,,672254,0,,52.36306800000000,BD/PI/000006151,145,wrsenquiries@worcestershire.gov.uk,Bromsgrove,http://www.worcsregservices.gov.uk,-2.05835800000000,B61 0JP,2015-01-09,fhrs_5_en-GB,5,,FHRS,0
327432,Chadgrove School,Meadow Road,Catshill,Bromsgrove,Chadsgrove School,School/college/university,7845,5,,672308,5,,52.36243700000000,BD/PI/000009811,145,wrsenquiries@worcestershire.gov.uk,Bromsgrove,http://www.worcsregservices.gov.uk,-2.06060400000000,B61 0JL,2014-09-08,fhrs_5_en-GB,5,,FHRS,0
327433,Redhill Lane,Chadwich,Bromsgrove,Worcestershire,Chadwich Manor Farm,Farmers/growers,7838,5,,684400,5,,52.38256600000000,BD/PI/000012238,145,wrsenquiries@worcestershire.gov.uk,Bromsgrove,http://www.worcsregservices.gov.uk,-2.04051800000000,B61 0QG,1996-12-19,fhrs_4_en-GB,4,,FHRS,10
327434,77 Stourbridge Road,Hagley,Stourbridge,Worcestershire,Chandos Lodge,Hospitals/Childcare/Caring Premises,5,5,,672382,5,,52.42931400000000,BD/PI/000014411,145,wrsenquiries@worcestershire.gov.uk,Bromsgrove,http://www.worcsregservices.gov.uk,-2.12830500000000,DY9 0QS,2011-11-16,fhrs_5_en-GB,5,,FHRS,0
327435,Tasty Chicken,160 New Road,Rubery,Worcestershire,Chaps Pizza,Takeaway/sandwich shop,7844,20,,672130,15,,52.39328800000000,BD/09/00049/COMM,145,wrsenquiries@worcestershire.gov.uk,Bromsgrove,http://www.worcsregservices.gov.uk,-2.01747100000000,B45 9JA,2014-08-29,fhrs_1_en-GB,1,,FHRS,10
327436,180 Austin Road,Bromsgrove,Worcestershire,,Charford Fish Bar,Takeaway/sandwich shop,7844,5,,672200,15,,52.32245100000000,BD/PI/000000766,145,wrsenquiries@worcestershire.gov.uk,Bromsgrove,http://www.worcsregservices.gov.uk,-2.07351800000000,B60 3NS,2014-11-28,fhrs_2_en-GB,2,,FHRS,10
327437,58 Worcester Road,Bromsgrove,Worcestershire,,Charlies Kebab Shop,Takeaway/sandwich shop,7844,5,,672413,5,,52.33299300000000,BD/PI/000016918,145,wrsenquiries@worcestershire.gov.uk,Bromsgrove,http://www.worcsregservices.gov.uk,-2.06354200000000,B61 7AE,2014-04-29,fhrs_5_en-GB,5,,FHRS,5
327438,Chennai Restaurant,Kidderminster Road,Bromsgrove,Worcestershire,Chennai,Other catering premises,7841,5,,672432,5,,52.34839300000000,BD/PI/000018410,145,wrsenquiries@worcestershire.gov.uk,Bromsgrove,http://www.worcsregservices.gov.uk,-2.09052000000000,B61 7LB,2013-03-12,fhrs_5_en-GB,5,,FHRS,5
327439,30 Birmingham Road,Bromsgrove,Worcestershire,,China Wok,Takeaway/sandwich shop,7844,10,,672468,10,,52.33899400000000,BD/PI/000021966,145,wrsenquiries@worcestershire.gov.uk,Bromsgrove,http://www.worcsregservices.gov.uk,-2.05537600000000,B61 0DD,2013-10-02,fhrs_3_en-GB,3,,FHRS,10
327440,213 Station Road,Wythall,Birmingham,Worcestershire,Chung Ying,Takeaway/sandwich shop,7844,10,,672370,5,,52.37811400000000,BD/PI/000013978,145,wrsenquiries@worcestershire.gov.uk,Bromsgrove,http://www.worcsregservices.gov.uk,-1.86887400000000,B47 6ET,2010-11-16,fhrs_3_en-GB,3,,FHRS,10
327441,58 Dark Lane,Hollywood,Birmingham,Worcestershire,Churros Susanna,Mobile caterer,7846,5,,672491,0,,52.39581500000000,BD/QWE  PI/000023392,145,wrsenquiries@worcestershire.gov.uk,Bromsgrove,http://www.worcsregservices.gov.uk,-1.88675100000000,B47 5BT,2010-09-13,fhrs_5_en-GB,5,,FHRS,0
327442,Charford First School,Charford Road,Bromsgrove,Worcestershire,Class Catering @ Charford First School,School/college/university,7845,0,,684361,5,,52.32240400000000,BD/PI/000009380,145,wrsenquiries@worcestershire.gov.uk,Bromsgrove,http://www.worcsregservices.gov.uk,-2.06095900000000,B60 3NH,2014-09-08,fhrs_5_en-GB,5,,FHRS,0
327443,Lickey Primary And Middle School,Old Birmingham Road,Lickey,Birmingham,Class Catering @ Lickey Primary School,School/college/university,7845,5,,684388,5,,52.37235900000000,BD/PI/000011212,145,wrsenquiries@worcestershire.gov.uk,Bromsgrove,http://www.worcsregservices.gov.uk,-2.01617000000000,B45 8EU,2014-07-01,fhrs_5_en-GB,5,,FHRS,5
327444,Millfield First School,Swift Close,Bromsgrove,Worcestershire,Class Catering @ Millfields First School,School/college/university,7845,0,,672389,0,,52.32771900000000,BD/PI/000014670,145,wrsenquiries@worcestershire.gov.uk,Bromsgrove,http://www.worcsregservices.gov.uk,-2.07345400000000,B61 7BS,2014-09-09,fhrs_5_en-GB,5,,FHRS,0
327445,34 Red Lion Street,Alvechurch,Birmingham,Worcestershire,Clayton Fern Butchers,Retailers - other,4613,10,,672342,5,,52.35290800000000,BD/PI/000012270,145,wrsenquiries@worcestershire.gov.uk,Bromsgrove,http://www.worcsregservices.gov.uk,-1.96040200000000,B48 7LF,2013-08-20,fhrs_4_en-GB,4,,FHRS,5
327446,Bromsgrove Road,Clent,Worcestershire,,Clent First School,School/college/university,7845,5,,672226,5,,52.42506200000000,BD/PI/000002642,145,wrsenquiries@worcestershire.gov.uk,Bromsgrove,http://www.worcsregservices.gov.uk,-2.12799800000000,DY9 9LY,2014-12-15,fhrs_5_en-GB,5,,FHRS,0
327447,Bungalow Clent Nurseries,Bromsgrove Road,Clent,Worcestershire,Clent Nurseries,Restaurant/Cafe/Canteen,1,5,,672225,5,,52.41107600000000,BD/PI/000002635,145,wrsenquiries@worcestershire.gov.uk,Bromsgrove,http://www.worcsregservices.gov.uk,-2.11687300000000,DY9 9QA,2014-03-13,fhrs_4_en-GB,4,,FHRS,10
327448,Weatheroak Hill,Weatheroak Hill,Birmingham,Worcestershire,Coach & Horses,Pub/bar/nightclub,7843,10,,672406,5,,52.36461600000000,BD/PI/000015890,145,wrsenquiries@worcestershire.gov.uk,Bromsgrove,http://www.worcsregservices.gov.uk,-1.91454200000000,B48 7EA,2014-10-15,fhrs_2_en-GB,2,,FHRS,15
327449,Barnes Close,Malthouse Lane,Chadwich,Bromsgrove,Community For Reconciliation,Hotel/bed & breakfast/guest house,7842,0,,672312,0,,52.39461000000000,BD/PI/000010285,145,wrsenquiries@worcestershire.gov.uk,Bromsgrove,http://www.worcsregservices.gov.uk,-2.04812700000000,B61 0RA,2012-03-27,fhrs_5_en-GB,5,,FHRS,5
327450,Shenstone Court,29 Shenstone Close,Bromsgrove,Worcestershire,Complete Caterers Ltd,Other catering premises,7841,0,,672147,5,,52.34026300000000,BD/10/00020/COMM,145,wrsenquiries@worcestershire.gov.uk,Bromsgrove,http://www.worcsregservices.gov.uk,-2.05238300000000,B60 1PG,2014-05-08,fhrs_5_en-GB,5,,FHRS,0
327451,91 Hewell Road,Barnt Green,Birmingham,Worcestershire,Constance Wallace,Restaurant/Cafe/Canteen,1,5,,672115,5,,52.36150000000000,14/00051/FOOD,145,wrsenquiries@worcestershire.gov.uk,Bromsgrove,http://www.worcsregservices.gov.uk,-1.99002800000000,B45 8NL,2014-03-12,fhrs_5_en-GB,5,,FHRS,5
327452,Coopers Hill Farm,Coopers Hill,Alvechurch,Birmingham,Coopers Farm Shop,Retailers - other,4613,10,,672166,10,,52.35454100000000,BD/11/00023/COMM,145,wrsenquiries@worcestershire.gov.uk,Bromsgrove,http://www.worcsregservices.gov.uk,-1.98276100000000,B48 7BX,2013-05-15,fhrs_4_en-GB,4,,FHRS,0
327453,Costa Coffee,84 - 86 High Street,Bromsgrove,Worcestershire,Costa,Restaurant/Cafe/Canteen,1,5,,672140,5,,52.33482000000000,BD/09/00090/COMM,145,wrsenquiries@worcestershire.gov.uk,Bromsgrove,http://www.worcsregservices.gov.uk,-2.06036000000000,B61 8EX,2013-01-22,fhrs_5_en-GB,5,,FHRS,5
327454,Moto Hospitality  Frankley Motorway,Illey Lane,Frankley,Birmingham,Costa,Restaurant/Cafe/Canteen,1,5,,672178,0,,52.42878100000000,BD/13/00002/COMM,145,wrsenquiries@worcestershire.gov.uk,Bromsgrove,http://www.worcsregservices.gov.uk,-2.01716200000000,B32 4AR,2013-01-15,fhrs_5_en-GB,5,,FHRS,0
327455,Moto Hospitality  Frankley Motorway,Illey Lane,Frankley,Birmingham,Costa,Restaurant/Cafe/Canteen,1,5,,672179,0,,52.42878100000000,BD/13/00003/COMM,145,wrsenquiries@worcestershire.gov.uk,Bromsgrove,http://www.worcsregservices.gov.uk,-2.01716200000000,B32 4AR,2013-01-15,fhrs_5_en-GB,5,,FHRS,0
327456,N E W College,School Drive,Bromsgrove,Worcestershire,Costa @ NE Worcestershire College,School/college/university,7845,0,,672180,0,,52.33842900000000,BD/13/00007/COMM,145,wrsenquiries@worcestershire.gov.uk,Bromsgrove,http://www.worcsregservices.gov.uk,-2.05248300000000,B60 1AX,2013-01-24,fhrs_5_en-GB,5,,FHRS,0
327457,Street Record,Rowney Green Lane,Rowney Green,Worcestershire,Country Grill,Mobile caterer,7846,5,,684247,0,,52.34862500000000,BD/12/00011/COMM,145,wrsenquiries@worcestershire.gov.uk,Bromsgrove,http://www.worcsregservices.gov.uk,-1.93550300000000,,2011-09-15,fhrs_5_en-GB,5,,FHRS,0
327458,Bromsgrove Labour Club,174 Worcester Road,Bromsgrove,Worcestershire,Court Leet Hungry Horse,Pub/bar/nightclub,7843,5,,672478,10,,52.32853000000000,BD/PI/000022823,145,wrsenquiries@worcestershire.gov.uk,Bromsgrove,http://www.worcsregservices.gov.uk,-2.06978700000000,B61 7AY,2014-02-20,fhrs_4_en-GB,4,,FHRS,5
327459,Crab Mill Inn,122 Birmingham Road,Bromsgrove,Worcestershire,Crabmill Inn,Pub/bar/nightclub,7843,5,,672213,5,,52.34041500000000,BD/PI/000001908,145,wrsenquiries@worcestershire.gov.uk,Bromsgrove,http://www.worcsregservices.gov.uk,-2.05346900000000,B61 0DF,2013-11-07,fhrs_4_en-GB,4,,FHRS,10
327460,Lickey Hills Nursing Home,Warren Lane,Lickey,Worcestershire,Craegmoor Nursing Home,Hospitals/Childcare/Caring Premises,5,5,,684553,5,,52.37687300000000,WC/S34MBRWARR/1,145,wrsenquiries@worcestershire.gov.uk,Bromsgrove,http://www.worcsregservices.gov.uk,-2.00630100000000,B45 8ER,2011-07-28,fhrs_5_en-GB,5,,FHRS,5
327461,The Cross & Bowling Green,Alcester Road,Beoley,Redditch,Cross & Bowling Green Inn,Pub/bar/nightclub,7843,5,,672222,5,,52.33280300000000,BD/PI/000002389,145,wrsenquiries@worcestershire.gov.uk,Bromsgrove,http://www.worcsregservices.gov.uk,-1.86902200000000,B98 9DR,2013-10-02,fhrs_5_en-GB,5,,FHRS,5
327462,34 Alcester Road,Finstall,Bromsgrove,Worcestershire,Cross Inn,Pub/bar/nightclub,7843,5,,672191,10,,52.32933000000000,BD/PI/000000139,145,wrsenquiries@worcestershire.gov.uk,Bromsgrove,http://www.worcsregservices.gov.uk,-2.02708700000000,B60 1EW,2013-10-07,fhrs_4_en-GB,4,,FHRS,5
327463,Stourbridge Road,Catshill,Bromsgrove,Worcestershire,Crown Inn,Pub/bar/nightclub,7843,10,,672381,15,,52.35914500000000,BD/PI/000014315,145,wrsenquiries@worcestershire.gov.uk,Bromsgrove,http://www.worcsregservices.gov.uk,-2.06441700000000,B61 9LE,2015-01-09,fhrs_2_en-GB,2,,FHRS,15
327464,Crown Meadow First School,Birmingham Road,Alvechurch,Worcestershire,Crown Meadow & Alvechurch School,School/college/university,7845,0,,672484,5,,52.35502100000000,BD/PI/000023120,145,wrsenquiries@worcestershire.gov.uk,Bromsgrove,http://www.worcsregservices.gov.uk,-1.96254300000000,B48 7TA,2015-01-14,fhrs_5_en-GB,5,,FHRS,0
327465,150 New Road,Rubery,Birmingham,Worcestershire,Crystal,Restaurant/Cafe/Canteen,1,10,,672316,5,,52.39328800000000,BD/PI/000010660,145,wrsenquiries@worcestershire.gov.uk,Bromsgrove,http://www.worcsregservices.gov.uk,-2.01747100000000,B45 9JA,2013-05-01,fhrs_3_en-GB,3,,FHRS,10
327466,Holywell Primary And Nursery School,School Road,Rubery,Birmingham,Cygnet Catering @ Holywell Primary School,School/college/university,7845,5,,684147,10,,52.39333900000000,14/00685/FOOD,145,wrsenquiries@worcestershire.gov.uk,Bromsgrove,http://www.worcsregservices.gov.uk,-2.03266600000000,B45 9EY,2013-12-16,fhrs_4_en-GB,4,,FHRS,5
327467,Meadow Green Primary School,Meadow Road,Wythall,Birmingham,Cygnet Catering @ Meadow Green Primary School,School/college/university,7845,10,,672118,10,,52.37577200000000,14/00463/FOOD,145,wrsenquiries@worcestershire.gov.uk,Bromsgrove,http://www.worcsregservices.gov.uk,-1.88227800000000,B47 6EQ,2014-03-18,fhrs_3_en-GB,3,,FHRS,5
327468,66 - 68 Worcester Road,Bromsgrove,Worcestershire,,Darrs Fish And Chips,Takeaway/sandwich shop,7844,10,,672415,10,,52.33150900000000,BD/PI/000016924,145,wrsenquiries@worcestershire.gov.uk,Bromsgrove,http://www.worcsregservices.gov.uk,-2.06562400000000,B61 7AG,2013-09-10,fhrs_3_en-GB,3,,FHRS,10
327469,Northbound Layby,Redditch Road,Alvechurch,Worcestershire,Dave's Catering,Mobile caterer,7846,5,,672206,5,,52.38944700000000,BD/PI/000001629,145,wrsenquiries@worcestershire.gov.uk,Bromsgrove,http://www.worcsregservices.gov.uk,-1.95784600000000,,2014-03-13,fhrs_5_en-GB,5,,FHRS,5
327470,David Lloyd Fitness Centre,Slideslow Drive,Bromsgrove,Worcestershire,David Lloyd Centre,Other catering premises,7841,0,,672367,0,,52.33826800000000,BD/PI/000013665,145,wrsenquiries@worcestershire.gov.uk,Bromsgrove,http://www.worcsregservices.gov.uk,-2.04871100000000,B60 1GJ,2011-09-12,fhrs_5_en-GB,5,,FHRS,5
327471,97A Bromsgrove Road,Romsley,Halesowen,Worcestershire,David Withers Butchers,Retailers - other,4613,5,,672435,5,,52.41617300000000,BD/PI/000018585,145,wrsenquiries@worcestershire.gov.uk,Bromsgrove,http://www.worcsregservices.gov.uk,-2.05726600000000,B62 0LE,2014-06-20,fhrs_5_en-GB,5,,FHRS,5
327472,26 Hewell Road,Barnt Green,Birmingham,Worcestershire,Deedar Indian Cuisine,Restaurant/Cafe/Canteen,1,10,,672280,10,,52.36139200000000,BD/PI/000007356,145,wrsenquiries@worcestershire.gov.uk,Bromsgrove,http://www.worcsregservices.gov.uk,-1.99054200000000,B45 8NE,2013-11-08,fhrs_3_en-GB,3,,FHRS,10
327473,99 Worcester Road,Hagley,Stourbridge,Worcestershire,Deli In The Village,Retailers - other,4613,0,,672424,0,,52.41925400000000,BD/PI/000017029,145,wrsenquiries@worcestershire.gov.uk,Bromsgrove,http://www.worcsregservices.gov.uk,-2.14412600000000,DY9 0NG,2013-12-11,fhrs_5_en-GB,5,,FHRS,0
327474,38 Worcester Road,Bromsgrove,Worcestershire,,DJ's Chip Bar,Takeaway/sandwich shop,7844,5,,730846,0,,52.33299300000000,14/01168/FOOD,145,wrsenquiries@worcestershire.gov.uk,Bromsgrove,http://www.worcsregservices.gov.uk,-2.06354200000000,B61 7AE,2015-01-21,fhrs_5_en-GB,5,,FHRS,0
327475,Dodford Nursery Childrens Holiday F,Warbage Lane,Dodford,Bromsgrove,Dodford Childrens Holiday Farm,Hospitals/Childcare/Caring Premises,5,5,,672400,5,,52.35739100000000,BD/PI/000015686,145,wrsenquiries@worcestershire.gov.uk,Bromsgrove,http://www.worcsregservices.gov.uk,-2.09334000000000,B61 9BE,2014-05-08,fhrs_5_en-GB,5,,FHRS,0
327476,Dodford Primary School,Fockbury Road,Dodford,Bromsgrove,Dodford First School,School/college/university,7845,0,,672135,0,,52.34774100000000,BD/09/00064/COMM,145,wrsenquiries@worcestershire.gov.uk,Bromsgrove,http://www.worcsregservices.gov.uk,-2.09775300000000,B61 9AW,2013-01-08,fhrs_5_en-GB,5,,FHRS,0
327477,The Dodford Inn,Whinfield Road,Dodford,Bromsgrove,Dodford Inn,Pub/bar/nightclub,7843,10,,672409,10,,52.35499900000000,BD/PI/000016093,145,wrsenquiries@worcestershire.gov.uk,Bromsgrove,http://www.worcsregservices.gov.uk,-2.09310000000000,B61 9BG,2014-10-20,fhrs_2_en-GB,2,,FHRS,15
327478,Stoney Lane,Broad Green,Bromsgrove,Worcestershire,Dolan Park Hospital,Hospitals/Childcare/Caring Premises,5,10,,672428,5,,52.33345100000000,BD/PI/000018050,145,wrsenquiries@worcestershire.gov.uk,Bromsgrove,http://www.worcsregservices.gov.uk,-2.00269900000000,B60 1LY,2013-05-16,fhrs_4_en-GB,4,,FHRS,5
327479,200 New Road,Rubery,Birmingham,Worcestershire,Domino's Pizzas,Takeaway/sandwich shop,7844,0,,672473,0,,52.39328800000000,BD/PI/000022451,145,wrsenquiries@worcestershire.gov.uk,Bromsgrove,http://www.worcsregservices.gov.uk,-2.01747100000000,B45 9JA,2015-01-02,fhrs_5_en-GB,5,,FHRS,0
327480,Dominos Pizza,133 High Street,Bromsgrove,Worcestershire,Domino's Pizzas,Takeaway/sandwich shop,7844,0,,672286,0,,52.33642100000000,BD/PI/000007539,145,wrsenquiries@worcestershire.gov.uk,Bromsgrove,http://www.worcsregservices.gov.uk,-2.05943800000000,B61 8AE,2013-11-27,fhrs_5_en-GB,5,,FHRS,0
327481,109 New Road,Rubery,Worcestershire,,Dragon Hut,Takeaway/sandwich shop,7844,10,,672181,10,,52.39297300000000,BD/13/00008/COMM,145,wrsenquiries@worcestershire.gov.uk,Bromsgrove,http://www.worcsregservices.gov.uk,-2.02107200000000,B45 9JR,2013-02-11,fhrs_3_en-GB,3,,FHRS,5
327482,The Drawbridge Inn,Drawbridge Road,Majors Green,Solihull,Drawbridge Inn,Pub/bar/nightclub,7843,5,,672275,5,,52.39880500000000,BD/PI/000007095,145,wrsenquiries@worcestershire.gov.uk,Bromsgrove,http://www.worcsregservices.gov.uk,-1.85023600000000,B90 1DD,2014-12-09,fhrs_5_en-GB,5,,FHRS,5
327483,3-4 The Square,Alvechurch,Birmingham,Worcestershire,E J Crow & Son Limited,Manufacturers/packers,7839,5,,684536,5,,52.35187400000000,WC/A12NBR3-4T/1,145,wrsenquiries@worcestershire.gov.uk,Bromsgrove,http://www.worcsregservices.gov.uk,-1.95938900000000,B48 7LA,2014-10-03,fhrs_5_en-GB,5,,FHRS,5
327484,3 White Lion Park,Alcester Road,Portway,Birmingham,Eat Well At Dodwells,Mobile caterer,7846,0,,672169,0,,52.34533700000000,BD/11/00029/COMM,145,wrsenquiries@worcestershire.gov.uk,Bromsgrove,http://www.worcsregservices.gov.uk,-1.87873300000000,B48 7HT,2011-08-26,fhrs_5_en-GB,5,,FHRS,5
327485,N E W College,School Drive,Bromsgrove,Worcestershire,Eden Cafe  / Catering By Churchill,School/college/university,7845,0,,672359,0,,52.33842900000000,BD/PI/000013075,145,wrsenquiries@worcestershire.gov.uk,Bromsgrove,http://www.worcsregservices.gov.uk,-2.05248300000000,B60 1AX,2014-09-25,fhrs_5_en-GB,5,,FHRS,0
327486,E J Crow & Son Ltd,3 - 4 The Square,Alvechurch,Birmingham,EJ Crow and Son Ltd.,Retailers - other,4613,5,,672394,5,,52.35187400000000,BD/PI/000015203,145,wrsenquiries@worcestershire.gov.uk,Bromsgrove,http://www.worcsregservices.gov.uk,-1.95938900000000,B48 7LA,2013-04-23,fhrs_5_en-GB,5,,FHRS,5
327487,Gay Hill Golf Club,Hollywood Lane,Hollywood,Birmingham,EJS Catering@ Hollywood Golf Club,Pub/bar/nightclub,7843,10,,684344,5,,52.39674400000000,BD/PI/000007905,145,wrsenquiries@worcestershire.gov.uk,Bromsgrove,http://www.worcsregservices.gov.uk,-1.88013500000000,B47 5PP,2012-03-27,fhrs_4_en-GB,4,,FHRS,5
327488,Unit 50  Weights Farm,Weights Lane,Redditch,Worcestershire,Elaine's Snacks,Mobile caterer,7846,10,,672451,10,,52.32293100000000,BD/PI/000020490,145,wrsenquiries@worcestershire.gov.uk,Bromsgrove,http://www.worcsregservices.gov.uk,-1.95049500000000,B97 6RG,2015-01-12,fhrs_3_en-GB,3,,FHRS,5
327489,89A High Street,Bromsgrove,Worcestershire,,Epi @ The Courtyard,Restaurant/Cafe/Canteen,1,10,,697287,5,,52.33551200000000,14/01017/FOOD,145,wrsenquiries@worcestershire.gov.uk,Bromsgrove,http://www.worcsregservices.gov.uk,-2.06043400000000,B61 8AQ,2014-10-29,fhrs_3_en-GB,3,,FHRS,10
327490,Ewe And Lamb,68 Hanbury Road,Bromsgrove,Worcestershire,Ewe & Lamb,Pub/bar/nightclub,7843,0,,684559,0,,52.30763200000000,WC/U52MBR68HA/1,145,wrsenquiries@worcestershire.gov.uk,Bromsgrove,http://www.worcsregservices.gov.uk,-2.07826000000000,B60 4DN,2011-10-18,fhrs_5_en-GB,5,,FHRS,5
327491,Stourbridge Road,Fairfield,Bromsgrove,Worcestershire,Fairfield First School,School/college/university,7845,0,,672132,0,,52.37500400000000,BD/09/00059/COMM,145,wrsenquiries@worcestershire.gov.uk,Bromsgrove,http://www.worcsregservices.gov.uk,-2.07827700000000,B61 9LZ,2010-01-18,fhrs_5_en-GB,5,,FHRS,0
327492,6 Drakes Cross Parade,Hollywood,Birmingham,Worcestershire,Fanaris Fish Bar,Takeaway/sandwich shop,7844,10,,697284,10,,52.38533900000000,14/00859/FOOD,145,wrsenquiries@worcestershire.gov.uk,Bromsgrove,http://www.worcsregservices.gov.uk,-1.88370700000000,B47 5HD,2014-07-29,fhrs_3_en-GB,3,,FHRS,10
327493,Ian Butler Shooting Ground,Brockhill Lane,Tardebigge,Redditch,Fedcross Ltd Hereford And Worcs Shooting Ground,Pub/bar/nightclub,7843,5,,684289,5,,52.32151800000000,BD/PI/000002598,145,wrsenquiries@worcestershire.gov.uk,Bromsgrove,http://www.worcsregservices.gov.uk,-1.97325200000000,B97 6RB,2014-08-22,fhrs_5_en-GB,5,,FHRS,5
327494,Field House Rest Home,Thicknall Lane,Hagley,Stourbridge,Fieldhouse Rest Home,Hospitals/Childcare/Caring Premises,5,5,,672233,10,,52.41333500000000,BD/PI/000002948,145,wrsenquiries@worcestershire.gov.uk,Bromsgrove,http://www.worcsregservices.gov.uk,-2.13231600000000,DY9 0HL,2014-10-07,fhrs_4_en-GB,4,,FHRS,5
327495,Trafficmaster O-s Id 6078,Little Chef,103 Kidderminster Road South,Hagley,Fig And Favour,Restaurant/Cafe/Canteen,1,5,,672112,5,,52.41375300000000,13/00359/FOOD,145,wrsenquiries@worcestershire.gov.uk,Bromsgrove,http://www.worcsregservices.gov.uk,-2.15068000000000,DY9 0JL,2014-07-30,fhrs_5_en-GB,5,,FHRS,0
327496,Stourbridge Road,Belbroughton,Worcestershire,,Five Spice Restaurant,Restaurant/Cafe/Canteen,1,10,,672120,5,,52.42506200000000,14/00516/FOOD,145,wrsenquiries@worcestershire.gov.uk,Bromsgrove,http://www.worcsregservices.gov.uk,-2.12799800000000,DY9 9LY,2014-05-27,fhrs_4_en-GB,4,,FHRS,5
327497,Five Ways Old Edwardians Club,Ash Lane,Alvechurch,Birmingham,Five Ways Old Edwardians Sports Club Limited,Pub/bar/nightclub,7843,5,,684270,5,,52.36776500000000,BD/PI/000000619,145,wrsenquiries@worcestershire.gov.uk,Bromsgrove,http://www.worcsregservices.gov.uk,-1.95057800000000,B48 7BD,2013-12-05,fhrs_5_en-GB,5,,FHRS,5
327498,Hagley First School,Park Road,Hagley,Stourbridge,Food 4 Thought,School/college/university,7845,0,,672328,5,,52.42255900000000,BD/PI/000011423,145,wrsenquiries@worcestershire.gov.uk,Bromsgrove,http://www.worcsregservices.gov.uk,-2.13937300000000,DY9 0NS,2014-09-08,fhrs_5_en-GB,5,,FHRS,0
327499,Walton Pool,Clent,Stourbridge,Worcestershire,Foresters Nursing Home,Hospitals/Childcare/Caring Premises,5,5,,672399,5,,52.40855500000000,BD/PI/000015640,145,wrsenquiries@worcestershire.gov.uk,Bromsgrove,http://www.worcsregservices.gov.uk,-2.10199000000000,DY9 9RP,2014-06-09,fhrs_5_en-GB,5,,FHRS,5
327500,Odnall Lane,Clent,Stourbridge,Worcestershire,Fountain Inn,Pub/bar/nightclub,7843,0,,672183,5,,52.41496300000000,BD/PI/000000024,145,wrsenquiries@worcestershire.gov.uk,Bromsgrove,http://www.worcsregservices.gov.uk,-2.11403100000000,DY9 9PU,2014-07-01,fhrs_4_en-GB,4,,FHRS,10
327501,Birchfield Road,Redditch,Worcestershire,,Foxlydiate Hotel,Pub/bar/nightclub,7843,5,,672205,5,,52.30506700000000,BD/PI/000001557,145,wrsenquiries@worcestershire.gov.uk,Bromsgrove,http://www.worcsregservices.gov.uk,-1.97899600000000,B97 6PX,2013-09-02,fhrs_5_en-GB,5,,FHRS,5
327502,Thriftwood Farm,Holyoakes Lane,Tardebigge,Redditch,Freerange Catering,Other catering premises,7841,5,,672159,5,,52.30985200000000,BD/11/00004/COMM,145,wrsenquiries@worcestershire.gov.uk,Bromsgrove,http://www.worcsregservices.gov.uk,-2.00148000000000,B97 5SS,2011-02-02,fhrs_5_en-GB,5,,FHRS,5
327503,87 High Street,Bromsgrove,Worcestershire,,French Connection,Takeaway/sandwich shop,7844,5,,672290,5,,52.33551200000000,BD/PI/000007604,145,wrsenquiries@worcestershire.gov.uk,Bromsgrove,http://www.worcsregservices.gov.uk,-2.06043400000000,B61 8AQ,2013-12-03,fhrs_4_en-GB,4,,FHRS,10
327504,Burcot Garden Centre,354 Alcester Road,Burcot,Bromsgrove,Fresh at Burcot Garden Centre,Retailers - other,4613,10,,684541,5,,52.34271700000000,WC/N66LBRALCE/1,145,wrsenquiries@worcestershire.gov.uk,Bromsgrove,http://www.worcsregservices.gov.uk,-2.02426200000000,B60 1PW,2011-08-03,fhrs_4_en-GB,4,,FHRS,5
327505,Tanners Green Lane,Wythall,Birmingham,Worcestershire,Fulford Heath Golf Club,Other catering premises,7841,0,,672390,0,,52.36987600000000,BD/PI/000014728,145,wrsenquiries@worcestershire.gov.uk,Bromsgrove,http://www.worcsregservices.gov.uk,-1.87489100000000,B47 6BH,2011-08-03,fhrs_5_en-GB,5,,FHRS,0
327506,Tardebigge Community Hall,Church Lane,Tardebigge,Bromsgrove,Funzone At Tardebigge,School/college/university,7845,5,,672240,5,,52.31984800000000,BD/PI/000003803,145,wrsenquiries@worcestershire.gov.uk,Bromsgrove,http://www.worcsregservices.gov.uk,-2.00805300000000,B60 3AH,2013-03-08,fhrs_5_en-GB,5,,FHRS,5
327507,The Gate Inn,36 Dodford Road,Bournheath,Bromsgrove,Gate At Bourneheath,Pub/bar/nightclub,7843,0,,672249,0,,52.36473800000000,BD/PI/000004912,145,wrsenquiries@worcestershire.gov.uk,Bromsgrove,http://www.worcsregservices.gov.uk,-2.07756900000000,B61 9JR,2014-11-12,fhrs_5_en-GB,5,,FHRS,0
327508,Lear Corporation,10 Hedera Road,Redditch,Worcestershire,Gather And Gather,Restaurant/Cafe/Canteen,1,0,,684149,5,,52.31485700000000,14/00803/FOOD,145,wrsenquiries@worcestershire.gov.uk,Bromsgrove,http://www.worcsregservices.gov.uk,-1.88446300000000,B98 9EY,2013-07-23,fhrs_4_en-GB,4,,FHRS,10
327509,161B New Road,Rubery,Birmingham,Worcestershire,Gerry's,Takeaway/sandwich shop,7844,5,,672317,0,,52.39367400000000,BD/PI/000010671,145,wrsenquiries@worcestershire.gov.uk,Bromsgrove,http://www.worcsregservices.gov.uk,-2.01885300000000,B45 9JW,2013-08-06,fhrs_5_en-GB,5,,FHRS,5
327510,Birmingham Football Club Train,Wast Hills Lane,B38 93EJ,,Glenfield House,Hospitals/Childcare/Caring Premises,5,5,,684582,10,,,WC/U69MBRWAST/1,145,wrsenquiries@worcestershire.gov.uk,Bromsgrove,http://www.worcsregservices.gov.uk,,,2011-11-21,fhrs_4_en-GB,4,,FHRS,5
327511,Middle Lane,Headley Heath,Birmingham,Worcestershire,Glenfield House Nursing Home,Hospitals/Childcare/Caring Premises,5,5,,672309,5,,52.39063900000000,BD/PI/000010104,145,wrsenquiries@worcestershire.gov.uk,Bromsgrove,http://www.worcsregservices.gov.uk,-1.90937900000000,B38 0DG,2013-08-27,fhrs_5_en-GB,5,,FHRS,5
327512,The Golden Cross [ph],20 High Street,Bromsgrove,Worcestershire,Golden Cross Hotel,Pub/bar/nightclub,7843,0,,684557,0,,52.33384800000000,WC/U52MBR20HI/2,145,wrsenquiries@worcestershire.gov.uk,Bromsgrove,http://www.worcsregservices.gov.uk,-2.06159200000000,B61 8HH,2011-07-25,fhrs_5_en-GB,5,,FHRS,5
327513,3 St Godwalds Road,Bromsgrove,Worcestershire,,Golden Fry,Takeaway/sandwich shop,7844,0,,672351,0,,52.32322900000000,BD/PI/000012752,145,wrsenquiries@worcestershire.gov.uk,Bromsgrove,http://www.worcsregservices.gov.uk,-2.04683100000000,B60 3BN,2014-09-16,fhrs_5_en-GB,5,,FHRS,0
327514,The Golden Lion [ph],Austin Road,Bromsgrove,Worcestershire,Golden Lion,Pub/bar/nightclub,7843,10,,684136,10,,52.31986300000000,14/00469/FOOD,145,wrsenquiries@worcestershire.gov.uk,Bromsgrove,http://www.worcsregservices.gov.uk,-2.07212000000000,B60 3PB,2014-06-24,fhrs_3_en-GB,3,,FHRS,10
327515,139 Golden Cross Lane,Catshill,Bromsgrove,Worcestershire,Golden Plaice,Takeaway/sandwich shop,7844,5,,672259,5,,52.36399400000000,BD/PI/000006266,145,wrsenquiries@worcestershire.gov.uk,Bromsgrove,http://www.worcsregservices.gov.uk,-2.05865200000000,B61 0JZ,2014-02-25,fhrs_5_en-GB,5,,FHRS,5
327516,Grafton Lane,Bromsgrove,Worcestershire,,Grafton Manor Hotel,Hotel/bed & breakfast/guest house,7842,0,,672262,5,,52.32115500000000,BD/PI/000006408,145,wrsenquiries@worcestershire.gov.uk,Bromsgrove,http://www.worcsregservices.gov.uk,-2.08892100000000,B61 7HA,2014-10-23,fhrs_5_en-GB,5,,FHRS,5
327517,Bromsgrove Road,Romsley,Birmingham,Worcestershire,Grange Hill House,Hospitals/Childcare/Caring Premises,5,10,,672429,10,,52.43904000000000,BD/PI/000018203,145,wrsenquiries@worcestershire.gov.uk,Bromsgrove,http://www.worcsregservices.gov.uk,-2.04379200000000,B62 0JJ,2014-05-02,fhrs_4_en-GB,4,,FHRS,0
327518,104 High Street,Bromsgrove,Worcestershire,,Greggs,Takeaway/sandwich shop,7844,5,,684332,5,,52.33482000000000,BD/PI/000007524,145,wrsenquiries@worcestershire.gov.uk,Bromsgrove,http://www.worcsregservices.gov.uk,-2.06036000000000,B61 8EX,2014-12-03,fhrs_5_en-GB,5,,FHRS,5
327519,175 New Road,Rubery,Birmingham,Worcestershire,Greggs,Takeaway/sandwich shop,7844,0,,672320,5,,52.39367400000000,BD/PI/000010681,145,wrsenquiries@worcestershire.gov.uk,Bromsgrove,http://www.worcsregservices.gov.uk,-2.01885300000000,B45 9JW,2014-12-23,fhrs_5_en-GB,5,,FHRS,0
327520,53 Sherwood Road,Bromsgrove,Worcestershire,,Greggs,Takeaway/sandwich shop,7844,5,,672109,5,,52.31926800000000,13/00249/FOOD,145,wrsenquiries@worcestershire.gov.uk,Bromsgrove,http://www.worcsregservices.gov.uk,-2.05865200000000,B60 3DR,2013-07-23,fhrs_5_en-GB,5,,FHRS,0
327521,North Bound Service Station  Frankl,Illey Lane,Frankley,Birmingham,Greggs,Takeaway/sandwich shop,7844,5,,672176,0,,52.42878100000000,BD/12/00031/COMM,145,wrsenquiries@worcestershire.gov.uk,Bromsgrove,http://www.worcsregservices.gov.uk,-2.01716200000000,B32 4AR,2013-01-15,fhrs_5_en-GB,5,,FHRS,0
327522,Grosvenor House Nursing Home,Aqueduct Lane,Alvechurch,Birmingham,Grosvenor House,Hospitals/Childcare/Caring Premises,5,0,,672244,0,,52.35838700000000,BD/PI/000004349,145,wrsenquiries@worcestershire.gov.uk,Bromsgrove,http://www.worcsregservices.gov.uk,-1.97442000000000,B48 7BS,2014-10-09,fhrs_5_en-GB,5,,FHRS,0
327523,92 Worcester Road,Hagley,Stourbridge,Worcestershire,Hagley Cafe,Restaurant/Cafe/Canteen,1,5,,672423,10,,52.41902100000000,BD/PI/000017025,145,wrsenquiries@worcestershire.gov.uk,Bromsgrove,http://www.worcsregservices.gov.uk,-2.14374300000000,DY9 0NJ,2014-05-28,fhrs_4_en-GB,4,,FHRS,0
327524,Worcester Road,Hagley,Stourbridge,Worcestershire,Hagley Free Church,Other catering premises,7841,5,,672425,5,,52.41925400000000,BD/PI/000017034,145,wrsenquiries@worcestershire.gov.uk,Bromsgrove,http://www.worcsregservices.gov.uk,-2.14412600000000,DY9 0NG,2010-10-14,fhrs_5_en-GB,5,,FHRS,5
327525,Hagley Country Club,Wassell Grove Lane,Hagley,Stourbridge,Hagley Golf & Country Club,Other catering premises,7841,0,,672403,0,,52.43537300000000,BD/PI/000015809,145,wrsenquiries@worcestershire.gov.uk,Bromsgrove,http://www.worcsregservices.gov.uk,-2.10140400000000,DY9 9JW,2014-09-08,fhrs_5_en-GB,5,,FHRS,5
327526,Hall Lane,Hagley,Stourbridge,Worcestershire,Hagley Hall,Other catering premises,7841,0,,672361,0,,52.42416300000000,BD/PI/000013100,145,wrsenquiries@worcestershire.gov.uk,Bromsgrove,http://www.worcsregservices.gov.uk,-2.11968700000000,DY9 9LG,2009-12-03,fhrs_5_en-GB,5,,FHRS,0
327527,Hagley R C High School,Brake Lane,Hagley,Stourbridge,Hagley R.C. High School,School/college/university,7845,0,,672388,0,,52.42292400000000,BD/PI/000014652,145,wrsenquiries@worcestershire.gov.uk,Bromsgrove,http://www.worcsregservices.gov.uk,-2.14952000000000,DY8 2XL,2011-11-11,fhrs_5_en-GB,5,,FHRS,5
327528,The Hanbury Turn,Hanbury Road,Bromsgrove,Worcestershire,Hanbury Turn,Pub/bar/nightclub,7843,20,,672267,10,,52.31385300000000,BD/PI/000006871,145,wrsenquiries@worcestershire.gov.uk,Bromsgrove,http://www.worcsregservices.gov.uk,-2.07828600000000,B60 4LU,2014-11-03,fhrs_1_en-GB,1,,FHRS,20
327529,32A Hewell Road,Barnt Green,Birmingham,Worcestershire,Happy Valley,Takeaway/sandwich shop,7844,10,,672281,10,,52.36139200000000,BD/PI/000007364,145,wrsenquiries@worcestershire.gov.uk,Bromsgrove,http://www.worcsregservices.gov.uk,-1.99054200000000,B45 8NE,2014-10-29,fhrs_2_en-GB,2,,FHRS,15
327530,Haven Croft Nursing Home,Lea End Lane,Hopwood,Birmingham,Havencroft Nursing Home,Hospitals/Childcare/Caring Premises,5,5,,684357,0,,52.37759400000000,BD/PI/000008748,145,wrsenquiries@worcestershire.gov.uk,Bromsgrove,http://www.worcsregservices.gov.uk,-1.95635500000000,B48 7AS,2014-08-21,fhrs_5_en-GB,5,,FHRS,0
327531,Rednal Hill Lane,Rubery,Birmingham,Worcestershire,Hawthorn Social Club,Pub/bar/nightclub,7843,5,,672344,10,,52.38821800000000,BD/PI/000012318,145,wrsenquiries@worcestershire.gov.uk,Bromsgrove,http://www.worcsregservices.gov.uk,-2.01464800000000,B45 9LL,2011-08-10,fhrs_3_en-GB,3,,FHRS,10
327532,Breme House,Providence Road,Bromsgrove,Worcestershire,Heart Of England Housing & Care - Breme House,Hospitals/Childcare/Caring Premises,5,5,,672438,5,,52.34027600000000,BD/PI/000019610,145,wrsenquiries@worcestershire.gov.uk,Bromsgrove,http://www.worcsregservices.gov.uk,-2.06274500000000,B61 8EF,2013-09-19,fhrs_5_en-GB,5,,FHRS,0
327533,Heathbrook House,223 - 239 Worcester Road,Stoke Heath,Worcestershire,Heath Brook House,Hospitals/Childcare/Caring Premises,5,0,,672476,5,,52.31634200000000,BD/PI/000022741,145,wrsenquiries@worcestershire.gov.uk,Bromsgrove,http://www.worcsregservices.gov.uk,-2.08049100000000,B61 7JA,2014-10-09,fhrs_5_en-GB,5,,FHRS,0
327534,Thatchers Cottage,Chadwich Lane,Madeley Heath,Stourbridge,Heidi's Kartoffel,Mobile caterer,7846,5,,672154,0,,52.39355000000000,BD/10/00091/MOBILE,145,wrsenquiries@worcestershire.gov.uk,Bromsgrove,http://www.worcsregservices.gov.uk,-2.06449700000000,DY9 9UX,2010-10-19,fhrs_5_en-GB,5,,FHRS,5
327535,Alcester Road,Hollywood,Birmingham,Worcestershire,Hillside Residential Home,Hospitals/Childcare/Caring Premises,5,5,,672193,5,,52.39559600000000,BD/PI/000000252,145,wrsenquiries@worcestershire.gov.uk,Bromsgrove,http://www.worcsregservices.gov.uk,-1.88266600000000,B47 5NS,2013-05-28,fhrs_5_en-GB,5,,FHRS,5
327536,Birmingham Road,Catshill,Bromsgrove,Worcestershire,Hilton Hotel,Hotel/bed & breakfast/guest house,7842,0,,672214,5,,52.36769400000000,BD/PI/000001911,145,wrsenquiries@worcestershire.gov.uk,Bromsgrove,http://www.worcsregservices.gov.uk,-2.04755400000000,B61 0JB,2014-12-15,fhrs_5_en-GB,5,,FHRS,5
327537,The Bromsgrove Hotel,Kidderminster Road,Bromsgrove,Worcestershire,Holiday Inn,Hotel/bed & breakfast/guest house,7842,0,,684489,5,,52.33733300000000,BD/PI/000020990,145,wrsenquiries@worcestershire.gov.uk,Bromsgrove,http://www.worcsregservices.gov.uk,-2.08167400000000,B61 9AB,2011-11-07,fhrs_5_en-GB,5,,FHRS,0
327538,Holly Bush Inn,Bromsgrove Road,Hagley,Worcestershire,Hollybush Inn,Pub/bar/nightclub,7843,5,,672224,10,,52.39663700000000,BD/PI/000002625,145,wrsenquiries@worcestershire.gov.uk,Bromsgrove,http://www.worcsregservices.gov.uk,-2.09818500000000,DY9 9UG,2015-01-09,fhrs_4_en-GB,4,,FHRS,5
327539,63 May Lane,Hollywood,Birmingham,Worcestershire,Hollywood Fish Bar,Takeaway/sandwich shop,7844,5,,672131,5,,52.39110600000000,BD/09/00057/COMM,145,wrsenquiries@worcestershire.gov.uk,Bromsgrove,http://www.worcsregservices.gov.uk,-1.87887200000000,B47 5PA,2013-05-27,fhrs_5_en-GB,5,,FHRS,5
327540,School Road,Rubery,Worcestershire,,Holywell Primary And Nursery School,School/college/university,7845,5,,672265,10,,52.39333900000000,BD/PI/000006738,145,wrsenquiries@worcestershire.gov.uk,Bromsgrove,http://www.worcsregservices.gov.uk,-2.03266600000000,B45 9EY,2013-12-16,fhrs_4_en-GB,4,,FHRS,5
327541,Home Farm,Mill Lane,Wildmoor,Bromsgrove,Home Farm Bed And Breakfast,Hotel/bed & breakfast/guest house,7842,5,,672311,10,,52.37505800000000,BD/PI/000010228,145,wrsenquiries@worcestershire.gov.uk,Bromsgrove,http://www.worcsregservices.gov.uk,-2.06389700000000,B61 0BX,2011-03-09,fhrs_3_en-GB,3,,FHRS,10
327542,634 Birmingham Road,Catshill,Bromsgrove,Worcestershire,Home Farm Day Nursery Limited,Hospitals/Childcare/Caring Premises,5,5,,672211,5,,52.37730700000000,BD/PI/000001868,145,wrsenquiries@worcestershire.gov.uk,Bromsgrove,http://www.worcsregservices.gov.uk,-2.04048400000000,B61 0QB,2014-04-23,fhrs_5_en-GB,5,,FHRS,0
327543,400 Groveley Lane,Cofton Hackett,Birmingham,Worcestershire,Hong Kong Kitchen,Takeaway/sandwich shop,7844,10,,684493,5,,52.38183600000000,BD/PI/000021475,145,wrsenquiries@worcestershire.gov.uk,Bromsgrove,http://www.worcsregservices.gov.uk,-1.99165400000000,B45 8UQ,2013-05-01,fhrs_3_en-GB,3,,FHRS,10
327544,Hopwood Court,Birmingham Road,Hopwood,Birmingham,Hopwood Court Retirement Home,Hospitals/Childcare/Caring Premises,5,0,,672217,0,,52.37635300000000,BD/PI/000001960,145,wrsenquiries@worcestershire.gov.uk,Bromsgrove,http://www.worcsregservices.gov.uk,-1.95689900000000,B48 7AQ,2014-08-19,fhrs_5_en-GB,5,,FHRS,0
327545,Hopwood House Inn,Redditch Road,Alvechurch,Birmingham,Hopwood House,Pub/bar/nightclub,7843,10,,672336,0,,52.37207400000000,BD/PI/000012187,145,wrsenquiries@worcestershire.gov.uk,Bromsgrove,http://www.worcsregservices.gov.uk,-1.95649200000000,B48 7AB,2014-06-10,fhrs_4_en-GB,4,,FHRS,10
327546,Kidderminster Road,Bromsgrove,Worcestershire,,Houseman Hall,Hotel/bed & breakfast/guest house,7842,0,,684353,0,,52.33369300000000,BD/PI/000008360,145,wrsenquiries@worcestershire.gov.uk,Bromsgrove,http://www.worcsregservices.gov.uk,-2.06630200000000,B61 7JN,2014-12-10,fhrs_5_en-GB,5,,FHRS,0
327547,58 Housman Park,Bromsgrove,Worcestershire,,Housman Court,Hospitals/Childcare/Caring Premises,5,5,,672358,5,,52.33689800000000,BD/PI/000013072,145,wrsenquiries@worcestershire.gov.uk,Bromsgrove,http://www.worcsregservices.gov.uk,-2.05685500000000,B60 1AZ,2014-08-27,fhrs_5_en-GB,5,,FHRS,0
327548,Bromsgrove Road,Romsley,Halesowen,Worcestershire,Hunnington & Romsley Cricket And Bowling Club,Pub/bar/nightclub,7843,10,,672464,5,,52.40796600000000,BD/PI/000021671,145,wrsenquiries@worcestershire.gov.uk,Bromsgrove,http://www.worcsregservices.gov.uk,-2.05596200000000,B62 0ET,2011-02-14,fhrs_3_en-GB,3,,FHRS,10
327549,143 Bromsgrove Road,Romsley,Halesowen,Worcestershire,Hunnington Farm And Coarse Fishery Cafe,Mobile caterer,7846,0,,672229,0,,52.42031800000000,BD/PI/000002684,145,wrsenquiries@worcestershire.gov.uk,Bromsgrove,http://www.worcsregservices.gov.uk,-2.05561000000000,B62 0JX,2010-05-17,fhrs_5_en-GB,5,,FHRS,0
327550,Hunters Hill School,Spirehouse Lane,Blackwell,Bromsgrove,Hunters Hill Technology College,School/college/university,7845,0,,672369,0,,52.35116000000000,BD/PI/000013804,145,wrsenquiries@worcestershire.gov.uk,Bromsgrove,http://www.worcsregservices.gov.uk,-2.01741000000000,B60 1QD,2009-12-07,fhrs_5_en-GB,5,,FHRS,0
327551,Ideal Fish And Chip Bar,110 Birmingham Road,Bromsgrove,Worcestershire,Ideal Fish Bar,Takeaway/sandwich shop,7844,0,,672207,0,,52.34041500000000,BD/PI/000001638,145,wrsenquiries@worcestershire.gov.uk,Bromsgrove,http://www.worcsregservices.gov.uk,-2.05346900000000,B61 0DF,2014-10-08,fhrs_5_en-GB,5,,FHRS,0
327552,31 Birmingham Road,Bromsgrove,Worcestershire,,Imagination Street,Restaurant/Cafe/Canteen,1,5,,672129,5,,52.33948800000000,BD/09/00047/COMM,145,wrsenquiries@worcestershire.gov.uk,Bromsgrove,http://www.worcsregservices.gov.uk,-2.05553800000000,B61 0DR,2014-12-19,fhrs_5_en-GB,5,,FHRS,5
327553,7 High Street,Bromsgrove,Worcestershire,,India Spice,Restaurant/Cafe/Canteen,1,5,,672289,5,,52.33443200000000,BD/PI/000007592,145,wrsenquiries@worcestershire.gov.uk,Bromsgrove,http://www.worcsregservices.gov.uk,-2.06187100000000,B61 8AJ,2013-05-28,fhrs_5_en-GB,5,,FHRS,5
327554,53 Millfield Road,Bromsgrove,Worcestershire,,Jack & Jill Nursery,Hospitals/Childcare/Caring Premises,5,5,,672310,10,,52.32853600000000,BD/PI/000010201,145,wrsenquiries@worcestershire.gov.uk,Bromsgrove,http://www.worcsregservices.gov.uk,-2.07527500000000,B61 7BT,2014-02-05,fhrs_3_en-GB,3,,FHRS,10
327555,71 May Lane,Hollywood,Birmingham,Worcestershire,Jade Garden,Takeaway/sandwich shop,7844,10,,672307,10,,52.39110600000000,BD/PI/000009731,145,wrsenquiries@worcestershire.gov.uk,Bromsgrove,http://www.worcsregservices.gov.uk,-1.87887200000000,B47 5PA,2013-06-17,fhrs_3_en-GB,3,,FHRS,10
327556,92 Church Avenue,Holy Cross,Stourbridge,Worcestershire,Jaipur Cottage,Restaurant/Cafe/Canteen,1,5,,672239,5,,52.41149000000000,BD/PI/000003784,145,wrsenquiries@worcestershire.gov.uk,Bromsgrove,http://www.worcsregservices.gov.uk,-2.10705400000000,DY9 9PL,2013-06-13,fhrs_5_en-GB,5,,FHRS,5
327557,13 - 17 Stoke Road,Bromsgrove,Worcestershire,,Jal Catering Limited,Other catering premises,7841,0,,672373,0,,52.32286800000000,BD/PI/000014037,145,wrsenquiries@worcestershire.gov.uk,Bromsgrove,http://www.worcsregservices.gov.uk,-2.04923700000000,B60 3EQ,2011-10-19,fhrs_5_en-GB,5,,FHRS,5
327558,The Weighbridge,Scarfield Hill,Alvechurch,Birmingham,Jayne Humphreys Catering @ The Weighbridge,Restaurant/Cafe/Canteen,1,5,,672157,5,,52.34743700000000,BD/10/00122/COMM,145,wrsenquiries@worcestershire.gov.uk,Bromsgrove,http://www.worcsregservices.gov.uk,-1.97363300000000,B48 7SQ,2012-02-07,fhrs_4_en-GB,4,,FHRS,10
327559,3A Stoke Road,Bromsgrove,Worcestershire,,Jets Craft Cafe,Restaurant/Cafe/Canteen,1,0,,672375,0,,52.32286800000000,BD/PI/000014048,145,wrsenquiries@worcestershire.gov.uk,Bromsgrove,http://www.worcsregservices.gov.uk,-2.04923700000000,B60 3EQ,2011-08-03,fhrs_5_en-GB,5,,FHRS,5
327560,"Kathleen Field Court, Kathleen Fiel",,,,Kathleen Fields Court,Hospitals/Childcare/Caring Premises,5,5,,672450,0,,,BD/PI/000020445,145,wrsenquiries@worcestershire.gov.uk,Bromsgrove,http://www.worcsregservices.gov.uk,,,2014-01-08,fhrs_5_en-GB,5,,FHRS,0
327561,Hopwood Park Services,Redditch Road,Alvechurch,Birmingham,Kentucky Fried Chicken,Takeaway/sandwich shop,7844,0,,672466,0,,52.36372600000000,BD/PI/000021943,145,wrsenquiries@worcestershire.gov.uk,Bromsgrove,http://www.worcsregservices.gov.uk,-1.94578000000000,B48 7AU,2013-03-01,fhrs_5_en-GB,5,,FHRS,0
327562,Keys Hill Poultry Farm,Top Road,Wildmoor,Bromsgrove,"Keys Hill Poultry Farm ""Grumpy Farmer""",Retailers - other,4613,5,,672357,5,,52.38173200000000,BD/PI/000013022,145,wrsenquiries@worcestershire.gov.uk,Bromsgrove,http://www.worcsregservices.gov.uk,-2.05756000000000,B61 0RB,2014-11-25,fhrs_5_en-GB,5,,FHRS,0
327563,Kingsleigh House,37 Harbinger Road,Walkers Heath,Birmingham,Kingsleigh House,Hospitals/Childcare/Caring Premises,5,5,,672274,5,,52.40670800000000,BD/PI/000006947,145,wrsenquiries@worcestershire.gov.uk,Bromsgrove,http://www.worcsregservices.gov.uk,-1.91419700000000,B38 0AD,2014-12-09,fhrs_5_en-GB,5,,FHRS,5
327564,The Korner Kitchen,12 Church Street,Bromsgrove,Worcestershire,Korner Kitchen,Takeaway/sandwich shop,7844,5,,672241,5,,52.33531400000000,BD/PI/000003903,145,wrsenquiries@worcestershire.gov.uk,Bromsgrove,http://www.worcsregservices.gov.uk,-2.06127100000000,B61 8DD,2014-07-15,fhrs_5_en-GB,5,,FHRS,5
327565,L G Harris And Co Ltd,Hanbury Road,Bromsgrove,Worcestershire,L. G. Harris And Co Limited,Restaurant/Cafe/Canteen,1,5,,672271,5,,52.29853000000000,BD/PI/000006908,145,wrsenquiries@worcestershire.gov.uk,Bromsgrove,http://www.worcsregservices.gov.uk,-2.06924100000000,B60 4AE,2011-07-29,fhrs_5_en-GB,5,,FHRS,5
327566,Lickey End & District Working Mens,Alcester Road,Lickey End,Worcestershire,Lickey End & District W M,Pub/bar/nightclub,7843,5,,672194,5,,52.35311300000000,BD/PI/000000286,145,wrsenquiries@worcestershire.gov.uk,Bromsgrove,http://www.worcsregservices.gov.uk,-2.04467600000000,B60 1JT,2010-02-15,fhrs_5_en-GB,5,,FHRS,5
327567,Warren Lane,Lickey,Birmingham,Worcestershire,Lickey Hills Nursing Home,Hospitals/Childcare/Caring Premises,5,0,,672402,0,,52.37687300000000,BD/PI/000015715,145,wrsenquiries@worcestershire.gov.uk,Bromsgrove,http://www.worcsregservices.gov.uk,-2.00630100000000,B45 8ER,2014-11-26,fhrs_5_en-GB,5,,FHRS,0
327568,Lickey Hills Country Park And Visit,Warren Lane,Lickey,Birmingham,Lickey Hills Visitors Centre,Other catering premises,7841,5,,672401,5,,52.37687300000000,BD/PI/000015714,145,wrsenquiries@worcestershire.gov.uk,Bromsgrove,http://www.worcsregservices.gov.uk,-2.00630100000000,B45 8ER,2015-01-16,fhrs_5_en-GB,5,,FHRS,0
327569,Cafe  Rose Hill Golf Club,Rose Hill,Lickey,Birmingham,Lickey Lips Cafe,Restaurant/Cafe/Canteen,1,5,,672172,10,,52.37857200000000,BD/12/00015/COMM,145,wrsenquiries@worcestershire.gov.uk,Bromsgrove,http://www.worcsregservices.gov.uk,-2.00878400000000,B45 8RR,2013-10-16,fhrs_4_en-GB,4,,FHRS,5
327570,Old Rose And Crown Hotel,Rose Hill,Lickey,Birmingham,Lickey Lips Cafe,Pub/bar/nightclub,7843,5,,697280,10,,52.38013600000000,14/00476/FOOD,145,wrsenquiries@worcestershire.gov.uk,Bromsgrove,http://www.worcsregservices.gov.uk,-2.00777000000000,B45 8RT,2014-10-01,fhrs_3_en-GB,3,,FHRS,10
327571,24 New Road,Rubery,Birmingham,Worcestershire,Lilliput Day Nursery,Hospitals/Childcare/Caring Premises,5,0,,684482,0,,52.39150700000000,BD/PI/000020061,145,wrsenquiries@worcestershire.gov.uk,Bromsgrove,http://www.worcsregservices.gov.uk,-2.02500900000000,B45 9HU,2011-09-15,fhrs_5_en-GB,5,,FHRS,0
327572,143 Golden Cross Lane,Catshill,Bromsgrove,Worcestershire,Little Bengal,Takeaway/sandwich shop,7844,5,,672260,5,,52.36399400000000,BD/PI/000006268,145,wrsenquiries@worcestershire.gov.uk,Bromsgrove,http://www.worcsregservices.gov.uk,-2.05865200000000,B61 0JZ,2014-09-17,fhrs_5_en-GB,5,,FHRS,5
327573,Little Heath Garden & Aquatics Cent,Littleheath Lane,Lickey End,Bromsgrove,Little Heath Garden Centre And Aquatics,Restaurant/Cafe/Canteen,1,5,,672305,0,,52.35246900000000,BD/PI/000009088,145,wrsenquiries@worcestershire.gov.uk,Bromsgrove,http://www.worcsregservices.gov.uk,-2.03375200000000,B60 1HY,2011-11-04,fhrs_5_en-GB,5,,FHRS,0
327574,15 Highfields,Bromsgrove,Worcestershire,,Little Munchies,Takeaway/sandwich shop,7844,0,,672106,5,,52.33076700000000,13/00146/FOOD,145,wrsenquiries@worcestershire.gov.uk,Bromsgrove,http://www.worcsregservices.gov.uk,-2.07262200000000,B61 7BZ,2013-10-02,fhrs_5_en-GB,5,,FHRS,5
327575,Street Record,Sandy Lane,Wildmoor,Worcestershire,Lorenzo's Carribean Express,Mobile caterer,7846,5,,672177,5,,,BD/13/00001/MOBILE,145,wrsenquiries@worcestershire.gov.uk,Bromsgrove,http://www.worcsregservices.gov.uk,,,2013-09-12,fhrs_5_en-GB,5,,FHRS,5
327576,Lyttelton Arms Hotel,Bromsgrove Road,Hagley,Worcestershire,Lyttleton Arms Hotel,Pub/bar/nightclub,7843,0,,672228,0,,52.42255900000000,BD/PI/000002681,145,wrsenquiries@worcestershire.gov.uk,Bromsgrove,http://www.worcsregservices.gov.uk,-2.13937300000000,DY9 0NS,2015-01-09,fhrs_5_en-GB,5,,FHRS,0
327577,Charford Court,55 Gilbert Road,Bromsgrove,Worcestershire,M1 Express,Takeaway/sandwich shop,7844,5,,672255,5,,52.31939600000000,BD/PI/000006192,145,wrsenquiries@worcestershire.gov.uk,Bromsgrove,http://www.worcsregservices.gov.uk,-2.06994800000000,B60 3JZ,2010-10-19,fhrs_5_en-GB,5,,FHRS,5
327578,147 Golden Cross Lane,Catshill,Bromsgrove,Worcestershire,Mad Hatters Cafe,Restaurant/Cafe/Canteen,1,5,,672105,5,,52.36399400000000,13/00128/FOOD,145,wrsenquiries@worcestershire.gov.uk,Bromsgrove,http://www.worcsregservices.gov.uk,-2.05865200000000,B61 0JZ,2013-12-05,fhrs_4_en-GB,4,,FHRS,10
327579,Meakong Thai,12 Worcester Road,Bromsgrove,Worcestershire,Maekong Thai,Restaurant/Cafe/Canteen,1,0,,672410,0,,52.33299300000000,BD/PI/000016852,145,wrsenquiries@worcestershire.gov.uk,Bromsgrove,http://www.worcsregservices.gov.uk,-2.06354200000000,B61 7AE,2014-07-10,fhrs_5_en-GB,5,,FHRS,5
327580,23 Hewell Road,Barnt Green,Birmingham,Worcestershire,Magic Moments,Hospitals/Childcare/Caring Premises,5,5,,672279,5,,52.36349600000000,BD/PI/000007354,145,wrsenquiries@worcestershire.gov.uk,Bromsgrove,http://www.worcsregservices.gov.uk,-1.98907300000000,B45 8NG,2013-03-12,fhrs_5_en-GB,5,,FHRS,0
327581,Lickey Hills Primary School,Old Birmingham Road,Lickey,Worcestershire,Magic Moments At Lickey Hills Primary School,School/college/university,7845,0,,684131,0,,52.37235900000000,13/00389/FOOD,145,wrsenquiries@worcestershire.gov.uk,Bromsgrove,http://www.worcsregservices.gov.uk,-2.01617000000000,B45 8EU,2014-02-10,fhrs_5_en-GB,5,,FHRS,0
327582,573 Birmingham Road,Catshill,Bromsgrove,Worcestershire,Malvern View (Lydiate) Ltd,Hospitals/Childcare/Caring Premises,5,5,,672210,5,,52.37424000000000,BD/PI/000001863,145,wrsenquiries@worcestershire.gov.uk,Bromsgrove,http://www.worcsregservices.gov.uk,-2.04306700000000,B61 0HX,2013-09-20,fhrs_5_en-GB,5,,FHRS,5
327583,Bromsgrove Road,Romsley,Halesowen,Worcestershire,Manchester Inn,Pub/bar/nightclub,7843,10,,672232,5,,52.40038800000000,BD/PI/000002830,145,wrsenquiries@worcestershire.gov.uk,Bromsgrove,http://www.worcsregservices.gov.uk,-2.05399800000000,B62 0HH,2012-10-30,fhrs_4_en-GB,4,,FHRS,5
327584,Manor Hall,Swan Lane,Bromsgrove,Worcestershire,Manor Hill House Bed And Breakfast,Hotel/bed & breakfast/guest house,7842,5,,672142,0,,52.31846800000000,BD/09/00103/COMM,145,wrsenquiries@worcestershire.gov.uk,Bromsgrove,http://www.worcsregservices.gov.uk,-2.11756700000000,B61 9HE,2014-08-21,fhrs_5_en-GB,5,,FHRS,0
327585,26 Market Street,Bromsgrove,Worcestershire,,Market Plaice Fish Bar,Takeaway/sandwich shop,7844,0,,716564,0,,52.33692400000000,14/01157/FOOD,145,wrsenquiries@worcestershire.gov.uk,Bromsgrove,http://www.worcsregservices.gov.uk,-2.05926200000000,B61 8DA,2014-11-18,fhrs_5_en-GB,5,,FHRS,0
327586,Masala,123 New Road,Rubery,Birmingham,Massala,Restaurant/Cafe/Canteen,1,10,,672462,10,,52.39297300000000,BD/PI/000021520,145,wrsenquiries@worcestershire.gov.uk,Bromsgrove,http://www.worcsregservices.gov.uk,-2.02107200000000,B45 9JR,2015-01-19,fhrs_3_en-GB,3,,FHRS,10
327587,115 Golden Cross Lane,Catshill,Bromsgrove,Worcestershire,Meadow Mill Bakery,Takeaway/sandwich shop,7844,10,,672116,5,,52.36390500000000,14/00086/FOOD,145,wrsenquiries@worcestershire.gov.uk,Bromsgrove,http://www.worcsregservices.gov.uk,-2.05686100000000,B61 0LA,2014-03-26,fhrs_4_en-GB,4,,FHRS,5
327588,Meadows First School And Nursery,Santridge Lane,Bromsgrove,Worcestershire,Meadows First School,School/college/university,7845,0,,672378,0,,52.34063700000000,BD/PI/000014253,145,wrsenquiries@worcestershire.gov.uk,Bromsgrove,http://www.worcsregservices.gov.uk,-2.05850400000000,B61 0AH,2013-05-21,fhrs_5_en-GB,5,,FHRS,0
327589,Mereside Farm Childrens Nursery  Me,Peterbrook Road,Majors Green,Solihull,Mereside Farm Children's Nursery Ltd,Hospitals/Childcare/Caring Premises,5,0,,672331,0,,52.40262200000000,BD/PI/000011736,145,wrsenquiries@worcestershire.gov.uk,Bromsgrove,http://www.worcsregservices.gov.uk,-1.86229000000000,B90 1HZ,2011-08-04,fhrs_5_en-GB,5,,FHRS,5
327590,Methodist Centre,19 Stratford Road,Bromsgrove,Worcestershire,Methodist Church,Other catering premises,7841,5,,672385,5,,52.33548700000000,BD/PI/000014447,145,wrsenquiries@worcestershire.gov.uk,Bromsgrove,http://www.worcsregservices.gov.uk,-2.05559100000000,B60 1AS,2012-02-07,fhrs_5_en-GB,5,,FHRS,5
327591,Merecroft,Seafield Lane,Portway,Birmingham,Midway Care Group,Hospitals/Childcare/Caring Premises,5,5,,697283,0,,52.34680700000000,14/00841/FOOD,145,wrsenquiries@worcestershire.gov.uk,Bromsgrove,http://www.worcsregservices.gov.uk,-1.89323200000000,B48 7HN,2014-07-28,fhrs_5_en-GB,5,,FHRS,0
327592,,,,,Mitchells Super Whip,Mobile caterer,7846,10,,684480,5,,,BD/PI/000019640,145,wrsenquiries@worcestershire.gov.uk,Bromsgrove,http://www.worcsregservices.gov.uk,,,2012-07-26,fhrs_4_en-GB,4,,FHRS,5
327593,75 May Lane,Hollywood,Birmingham,Worcestershire,Monsoon,Restaurant/Cafe/Canteen,1,5,,672434,10,,52.39110600000000,BD/PI/000018543,145,wrsenquiries@worcestershire.gov.uk,Bromsgrove,http://www.worcsregservices.gov.uk,-1.87887200000000,B47 5PA,2014-05-14,fhrs_4_en-GB,4,,FHRS,5
327594,Moto Hospitality,Frankley Motorway Services Area,Illey Lane,Frankley,MOTO Hospitality Ltd Kiosk SOUTH,Retailers - other,4613,5,,672500,0,,52.42878100000000,WC/A50LBRILLE/2,145,wrsenquiries@worcestershire.gov.uk,Bromsgrove,http://www.worcsregservices.gov.uk,-2.01716200000000,B32 4AR,2011-07-29,fhrs_5_en-GB,5,,FHRS,0
327595,Moundsley Hall,Walkers Heath Road,Kings Norton,Birmingham,Moundsley Hall Nursing Home,Hospitals/Childcare/Caring Premises,5,0,,672398,0,,52.40186100000000,BD/PI/000015584,145,wrsenquiries@worcestershire.gov.uk,Bromsgrove,http://www.worcsregservices.gov.uk,-1.91306000000000,B38 0BL,2011-10-24,fhrs_5_en-GB,5,,FHRS,0
327596,139 Golden Cross Lane,Catshill,Bromsgrove,Worcestershire,Mr Wong's,Takeaway/sandwich shop,7844,5,,672258,5,,52.36399400000000,BD/PI/000006265,145,wrsenquiries@worcestershire.gov.uk,Bromsgrove,http://www.worcsregservices.gov.uk,-2.05865200000000,B61 0JZ,2013-08-29,fhrs_4_en-GB,4,,FHRS,10
327597,493 Birmingham Road,Catshill,Bromsgrove,Worcestershire,Mui Mui Chinese Take Away,Takeaway/sandwich shop,7844,5,,672209,5,,52.36920400000000,BD/PI/000001823,145,wrsenquiries@worcestershire.gov.uk,Bromsgrove,http://www.worcsregservices.gov.uk,-2.04708600000000,B61 0HY,2013-11-27,fhrs_5_en-GB,5,,FHRS,0
327598,7 George Road,Alvechurch,Birmingham,Worcestershire,Mumijis,Mobile caterer,7846,5,,672146,5,,52.35051900000000,BD/10/00019/COMM,145,wrsenquiries@worcestershire.gov.uk,Bromsgrove,http://www.worcsregservices.gov.uk,-1.96701000000000,B48 7PB,2012-10-02,fhrs_5_en-GB,5,,FHRS,0
327599,Unit 7,Strand Centre,2-4 The Strand,Bromsgrove,Munching Mole's Cafe,Restaurant/Cafe/Canteen,1,5,,672114,5,,52.33732900000000,13/00447/FOOD,145,wrsenquiries@worcestershire.gov.uk,Bromsgrove,http://www.worcsregservices.gov.uk,-2.05759000000000,B61 8AB,2014-03-10,fhrs_5_en-GB,5,,FHRS,5
327600,Hillscourt Education Centre,Rose Hill,Lickey,Birmingham,NASUWT,School/college/university,7845,0,,672347,0,,52.37761000000000,BD/PI/000012533,145,wrsenquiries@worcestershire.gov.uk,Bromsgrove,http://www.worcsregservices.gov.uk,-2.01038500000000,B45 8RS,2014-12-05,fhrs_5_en-GB,5,,FHRS,0
327601,57 Hanbury Road,Bromsgrove,Worcestershire,,Navigation Inn,Pub/bar/nightclub,7843,5,,672269,5,,52.30198900000000,BD/PI/000006888,145,wrsenquiries@worcestershire.gov.uk,Bromsgrove,http://www.worcsregservices.gov.uk,-2.07316200000000,B60 4LB,2012-10-30,fhrs_5_en-GB,5,,FHRS,5
327602,New Dilshad International Resteraun,2 Red Lion Street,Alvechurch,Birmingham,New Dilshad Int. Restaurant,Restaurant/Cafe/Canteen,1,0,,672341,0,,52.35288100000000,BD/PI/000012263,145,wrsenquiries@worcestershire.gov.uk,Bromsgrove,http://www.worcsregservices.gov.uk,-1.96031400000000,B48 7LF,2011-11-23,fhrs_5_en-GB,5,,FHRS,5
327603,The New Inn,10 Doctors Hill,Bournheath,Bromsgrove,New Inn,Pub/bar/nightclub,7843,10,,684150,0,,52.36219400000000,14/00839/FOOD,145,wrsenquiries@worcestershire.gov.uk,Bromsgrove,http://www.worcsregservices.gov.uk,-2.07746100000000,B61 9JE,2014-10-15,fhrs_4_en-GB,4,,FHRS,5
327604,60 Worcester Road,Bromsgrove,Worcestershire,,New Orient Cantonese Takeaway,Takeaway/sandwich shop,7844,10,,684151,10,,52.33299300000000,14/00937/FOOD,145,wrsenquiries@worcestershire.gov.uk,Bromsgrove,http://www.worcsregservices.gov.uk,-2.06354200000000,B61 7AE,2014-07-02,fhrs_3_en-GB,3,,FHRS,10
327605,The Tardebigge,Hewell Lane,Tardebigge,Redditch,New Tardebigge,Pub/bar/nightclub,7843,0,,672276,5,,52.31798800000000,BD/PI/000007334,145,wrsenquiries@worcestershire.gov.uk,Bromsgrove,http://www.worcsregservices.gov.uk,-1.99970500000000,B97 6QL,2015-01-08,fhrs_5_en-GB,5,,FHRS,5
327606,,,,,NHS Mental Health Trust,Hospitals/Childcare/Caring Premises,5,,,684425,,,,BD/PI/000014184,145,wrsenquiries@worcestershire.gov.uk,Bromsgrove,http://www.worcsregservices.gov.uk,,,2010-11-10,fhrs_exempt_en-GB,Exempt,,FHRS,
327607,Mobile Cafe,Layby Southbound,Birmingham Road,Rubery,Nicks Sandwich Bar,Mobile caterer,7846,10,,672487,10,,,BD/PI/000023285,145,wrsenquiries@worcestershire.gov.uk,Bromsgrove,http://www.worcsregservices.gov.uk,,,2014-08-04,fhrs_3_en-GB,3,,FHRS,10
327608,School Drive,Bromsgrove,Worcestershire,,North Bromsgrove High School,School/college/university,7845,0,,684411,0,,52.33733200000000,BD/PI/000013074,145,wrsenquiries@worcestershire.gov.uk,Bromsgrove,http://www.worcsregservices.gov.uk,-2.05321600000000,B60 1BA,2011-09-19,fhrs_5_en-GB,5,,FHRS,0
327609,The Oak Tree,Lickey Road,Rednal,Worcestershire,Oak Tree,Pub/bar/nightclub,7843,5,,672304,5,,52.38161100000000,BD/PI/000008845,145,wrsenquiries@worcestershire.gov.uk,Bromsgrove,http://www.worcsregservices.gov.uk,-2.00146800000000,B45 8UX,2014-11-26,fhrs_4_en-GB,4,,FHRS,10
327610,Catshill Baptist Church,The Dock,Catshill,Bromsgrove,Oasis,Restaurant/Cafe/Canteen,1,5,,684374,0,,52.36200800000000,BD/PI/000010266,145,wrsenquiries@worcestershire.gov.uk,Bromsgrove,http://www.worcsregservices.gov.uk,-2.05644700000000,B61 0NJ,2010-06-03,fhrs_5_en-GB,5,,FHRS,0
327611,12 The Strand,Bromsgrove,Worcestershire,,Oceans,Takeaway/sandwich shop,7844,10,,672383,10,,52.33732900000000,BD/PI/000014417,145,wrsenquiries@worcestershire.gov.uk,Bromsgrove,http://www.worcsregservices.gov.uk,-2.05759000000000,B61 8AB,2013-07-02,fhrs_3_en-GB,3,,FHRS,10
327612,Old Halesonians Rugby Football Club,Wassell Grove Lane,Hagley,Stourbridge,Old Halesonians Association,Pub/bar/nightclub,7843,10,,672404,5,,52.43190300000000,BD/PI/000015812,145,wrsenquiries@worcestershire.gov.uk,Bromsgrove,http://www.worcsregservices.gov.uk,-2.11103000000000,DY9 9JP,2010-01-25,fhrs_4_en-GB,4,,FHRS,5
327613,Old Rose And Crown Hotel,Rose Hill,Lickey,Birmingham,Old Rose & Crown,Hotel/bed & breakfast/guest house,7842,0,,684402,0,,52.38013600000000,BD/PI/000012536,145,wrsenquiries@worcestershire.gov.uk,Bromsgrove,http://www.worcsregservices.gov.uk,-2.00777000000000,B45 8RT,2011-11-15,fhrs_5_en-GB,5,,FHRS,5
327614,44 Worcester Road,Bromsgrove,Worcestershire,,On The Rocks,Restaurant/Cafe/Canteen,1,5,,712513,0,,52.33299300000000,14/00496/FOOD,145,wrsenquiries@worcestershire.gov.uk,Bromsgrove,http://www.worcsregservices.gov.uk,-2.06354200000000,B61 7AE,2014-09-18,fhrs_5_en-GB,5,,FHRS,5
327615,112 Birmingham Road,Bromsgrove,Worcestershire,,Oriental Royal,Takeaway/sandwich shop,7844,10,,672437,10,,52.34041500000000,BD/PI/000019210,145,wrsenquiries@worcestershire.gov.uk,Bromsgrove,http://www.worcsregservices.gov.uk,-2.05346900000000,B61 0DF,2013-01-24,fhrs_3_en-GB,3,,FHRS,5
327616,131 Worcester Road,Hagley,Stourbridge,Worcestershire,Our Plaice In Hagley,Takeaway/sandwich shop,7844,10,,672420,10,,52.42089100000000,BD/PI/000016969,145,wrsenquiries@worcestershire.gov.uk,Bromsgrove,http://www.worcsregservices.gov.uk,-2.14345500000000,DY9 0NW,2014-03-21,fhrs_3_en-GB,3,,FHRS,5
327617,Overwood,Woodcote Lane,Dodford,Bromsgrove,Overwood Bed And Breakfast,Hotel/bed & breakfast/guest house,7842,5,,672150,0,,52.35186700000000,BD/10/00034/COMM,145,wrsenquiries@worcestershire.gov.uk,Bromsgrove,http://www.worcsregservices.gov.uk,-2.12590700000000,B61 9EE,2010-06-02,fhrs_5_en-GB,5,,FHRS,0
327618,147 Worcester Road,Hagley,Stourbridge,Worcestershire,P. C. Paddocks Butchers,Retailers - other,4613,10,,672421,10,,52.42089100000000,BD/PI/000016977,145,wrsenquiries@worcestershire.gov.uk,Bromsgrove,http://www.worcsregservices.gov.uk,-2.14345500000000,DY9 0NW,2014-09-25,fhrs_3_en-GB,3,,FHRS,5
327619,Stoke Prior Sports And Country Club,Weston Hall Road,Stoke Prior,Bromsgrove,P.B.S. Leisure Ltd,Pub/bar/nightclub,7843,10,,684125,5,,52.29514200000000,13/00131/FOOD,145,wrsenquiries@worcestershire.gov.uk,Bromsgrove,http://www.worcsregservices.gov.uk,-2.08190400000000,B60 4AL,2014-04-24,fhrs_2_en-GB,2,,FHRS,15
327620,32 Birmingham Road,Bromsgrove,Worcestershire,,Papa John's,Takeaway/sandwich shop,7844,10,,672457,10,,52.33899400000000,BD/PI/000021194,145,wrsenquiries@worcestershire.gov.uk,Bromsgrove,http://www.worcsregservices.gov.uk,-2.05537600000000,B61 0DD,2014-07-07,fhrs_3_en-GB,3,,FHRS,10
327621,Icknield Street,Forhill,Birmingham,Worcestershire,Peacock Inn,Pub/bar/nightclub,7843,0,,672296,5,,52.37480600000000,BD/PI/000008184,145,wrsenquiries@worcestershire.gov.uk,Bromsgrove,http://www.worcsregservices.gov.uk,-1.92032500000000,B38 0EH,2015-02-05,fhrs_5_en-GB,5,,FHRS,0
327622,149 Golden Cross Lane,Catshill,Bromsgrove,Worcestershire,Peking Chinese Takeaway,Takeaway/sandwich shop,7844,10,,672261,10,,52.36399400000000,BD/PI/000006270,145,wrsenquiries@worcestershire.gov.uk,Bromsgrove,http://www.worcsregservices.gov.uk,-2.05865200000000,B61 0JZ,2013-01-14,fhrs_3_en-GB,3,,FHRS,10
327623,25 The Flats,Bromsgrove,Worcestershire,,Perryfields Day Nursery ),Hospitals/Childcare/Caring Premises,5,5,,672391,5,,52.34131000000000,BD/PI/000014974,145,wrsenquiries@worcestershire.gov.uk,Bromsgrove,http://www.worcsregservices.gov.uk,-2.06097100000000,B61 8LE,2014-04-29,fhrs_5_en-GB,5,,FHRS,5
327624,85 Hewell Road,Barnt Green,Birmingham,Worcestershire,Peter's Pan,Takeaway/sandwich shop,7844,5,,672477,5,,52.36150000000000,BD/PI/000022780,145,wrsenquiries@worcestershire.gov.uk,Bromsgrove,http://www.worcsregservices.gov.uk,-1.99002800000000,B45 8NL,2014-07-01,fhrs_5_en-GB,5,,FHRS,5
327625,172 New Road,Rubery,Birmingham,Worcestershire,Phoenix Chinese Take Away,Takeaway/sandwich shop,7844,10,,697285,10,,52.39328800000000,14/00983/FOOD,145,wrsenquiries@worcestershire.gov.uk,Bromsgrove,http://www.worcsregservices.gov.uk,-2.01747100000000,B45 9JA,2014-07-29,fhrs_3_en-GB,3,,FHRS,10
327626,Britannic Management Services Ltd,1 Wythall Green Way,Wythall,Birmingham,Phoenix Group,Other catering premises,7841,0,,672426,0,,52.37622400000000,BD/PI/000017052,145,wrsenquiries@worcestershire.gov.uk,Bromsgrove,http://www.worcsregservices.gov.uk,-1.89427800000000,B47 6WG,2010-07-08,fhrs_5_en-GB,5,,FHRS,5
327627,3 White Lion Park,Alcester Road,Portway,Birmingham,Pit Stop Diner,Mobile caterer,7846,5,,672167,5,,52.34533700000000,BD/11/00026/COMM,145,wrsenquiries@worcestershire.gov.uk,Bromsgrove,http://www.worcsregservices.gov.uk,-1.87873300000000,B48 7HT,2013-06-19,fhrs_5_en-GB,5,,FHRS,0
327628,25 High Street,Bromsgrove,Worcestershire,,Pizza Express,Restaurant/Cafe/Canteen,1,0,,672489,5,,52.34839300000000,BD/PI/000023433,145,wrsenquiries@worcestershire.gov.uk,Bromsgrove,http://www.worcsregservices.gov.uk,-2.09052000000000,B61 8AH,2013-12-05,fhrs_5_en-GB,5,,FHRS,0
327629,10 Ragley Crescent,Bromsgrove,Worcestershire,,Pizza Heaven,Mobile caterer,7846,0,,684146,5,,52.32666700000000,14/00684/FOOD,145,wrsenquiries@worcestershire.gov.uk,Bromsgrove,http://www.worcsregservices.gov.uk,-2.05857300000000,B60 2BD,2014-06-23,fhrs_5_en-GB,5,,FHRS,5
327630,Pizza Hut,14 - 16 High Street,Bromsgrove,Worcestershire,Pizza Hut,Restaurant/Cafe/Canteen,1,5,,684333,5,,52.33377600000000,BD/PI/000007543,145,wrsenquiries@worcestershire.gov.uk,Bromsgrove,http://www.worcsregservices.gov.uk,-2.06178200000000,B61 8HQ,2013-12-05,fhrs_5_en-GB,5,,FHRS,5
327631,5 Chapel Street,Bromsgrove,Worcestershire,,Plaza Coffee,Restaurant/Cafe/Canteen,1,5,,672143,0,,52.33564700000000,BD/09/00104/COMM,145,wrsenquiries@worcestershire.gov.uk,Bromsgrove,http://www.worcsregservices.gov.uk,-2.05923100000000,B60 2BW,2014-09-30,fhrs_5_en-GB,5,,FHRS,0
327632,Alcester Road,Tardebigge,Bromsgrove,Worcestershire,Plymouth House,Hospitals/Childcare/Caring Premises,5,0,,684266,0,,52.32286900000000,BD/PI/000000292,145,wrsenquiries@worcestershire.gov.uk,Bromsgrove,http://www.worcsregservices.gov.uk,-2.00827300000000,B60 1NE,2014-07-24,fhrs_5_en-GB,5,,FHRS,0
327633,Alcester Road,Portway,Birmingham,Worcestershire,Portway Restaurant,Restaurant/Cafe/Canteen,1,5,,672189,5,,52.34533700000000,BD/PI/000000095,145,wrsenquiries@worcestershire.gov.uk,Bromsgrove,http://www.worcsregservices.gov.uk,-1.87873300000000,B48 7HT,2014-05-21,fhrs_5_en-GB,5,,FHRS,5
327634,22 - 24 High Street,Bromsgrove,Worcestershire,,Prezzo,Restaurant/Cafe/Canteen,1,0,,672471,5,,52.33377600000000,BD/PI/000022377,145,wrsenquiries@worcestershire.gov.uk,Bromsgrove,http://www.worcsregservices.gov.uk,-2.06178200000000,B61 8HQ,2014-12-03,fhrs_5_en-GB,5,,FHRS,0
327635,16 Station Road,Wythall,Birmingham,Worcestershire,Pride And Joy Childcare,Hospitals/Childcare/Caring Premises,5,10,,672124,10,,52.37430800000000,14/00847/FOOD,145,wrsenquiries@worcestershire.gov.uk,Bromsgrove,http://www.worcsregservices.gov.uk,-1.88391200000000,B47 6AA,2014-05-19,fhrs_3_en-GB,3,,FHRS,10
327636,St Godwalds Road,Bromsgrove,Worcestershire,,Primrose Hospice And Cancer Help Centre,Hospitals/Childcare/Caring Premises,5,0,,672352,0,,52.32057800000000,BD/PI/000012762,145,wrsenquiries@worcestershire.gov.uk,Bromsgrove,http://www.worcsregservices.gov.uk,-2.04421700000000,B60 3BW,2011-02-25,fhrs_5_en-GB,5,,FHRS,0
327637,65 Stourbridge Road,Hagley,Stourbridge,Worcestershire,Prince Of Wales Inn,Pub/bar/nightclub,7843,10,,684437,15,,52.42931400000000,BD/PI/000014415,145,wrsenquiries@worcestershire.gov.uk,Bromsgrove,http://www.worcsregservices.gov.uk,-2.12830500000000,DY9 0QS,2007-08-10,fhrs_2_en-GB,2,,FHRS,15
327638,Stourbridge Road,Bromsgrove,Worcestershire,,Princess Of Wales Hospital,Hospitals/Childcare/Caring Premises,5,0,,672379,0,,52.34373100000000,BD/PI/000014256,145,wrsenquiries@worcestershire.gov.uk,Bromsgrove,http://www.worcsregservices.gov.uk,-2.05727500000000,B61 0BB,2014-10-20,fhrs_5_en-GB,5,,FHRS,5
327639,Canalside Craft Centre,138 Hanbury Road,Stoke Prior,"Bromsgrove, Worcestershire",Priory Cafe,Restaurant/Cafe/Canteen,1,5,,684572,5,,52.30090000000000,WC/U66MBR138H/1,145,wrsenquiries@worcestershire.gov.uk,Bromsgrove,http://www.worcsregservices.gov.uk,-2.07500800000000,B60 4JZ,2014-04-28,fhrs_5_en-GB,5,,FHRS,5
327640,The Queens Head,1 The Strand,Bromsgrove,Worcestershire,Queens Head,Pub/bar/nightclub,7843,10,,684556,10,,52.33732900000000,WC/U52MBR1THE/2,145,wrsenquiries@worcestershire.gov.uk,Bromsgrove,http://www.worcsregservices.gov.uk,-2.05759000000000,B61 8AB,2011-08-18,fhrs_3_en-GB,3,,FHRS,10
327641,71 Stourbridge Road,Fairfield,Bromsgrove,Worcestershire,Quietwaters Bed And Breakfast,Hotel/bed & breakfast/guest house,7842,10,,672128,5,,52.37449200000000,BD/09/00037/COMM,145,wrsenquiries@worcestershire.gov.uk,Bromsgrove,http://www.worcsregservices.gov.uk,-2.07858500000000,B61 9LY,2009-05-01,fhrs_4_en-GB,4,,FHRS,0
327642,Birmingham City Football Club Train,Wast Hill Lane,Hopwood,Worcestershire,R & R Gough Limited,Pub/bar/nightclub,7843,10,,672482,5,,52.38269600000000,BD/PI/000023077,145,wrsenquiries@worcestershire.gov.uk,Bromsgrove,http://www.worcsregservices.gov.uk,-1.94662400000000,B48 7AT,2013-10-22,fhrs_4_en-GB,4,,FHRS,5
327643,Rectory Cottage,Old Rectory Lane,Alvechurch,Birmingham,Rectory Cottage Bed And Breakfast,Hotel/bed & breakfast/guest house,7842,10,,672149,0,,52.35824700000000,BD/10/00027/COMM,145,wrsenquiries@worcestershire.gov.uk,Bromsgrove,http://www.worcsregservices.gov.uk,-1.95726900000000,B48 7SU,2010-05-10,fhrs_4_en-GB,4,,FHRS,0
327644,Redhouse Farm Barn,Shaw Lane,Stoke Prior,Bromsgrove,Red House Barn,Other catering premises,7841,0,,707317,0,,52.28970600000000,14/01058/FOOD,145,wrsenquiries@worcestershire.gov.uk,Bromsgrove,http://www.worcsregservices.gov.uk,-2.08985500000000,B60 4BG,2014-10-02,fhrs_5_en-GB,5,,FHRS,0
327645,73 High Street,Bromsgrove,Worcestershire,,Red Lion,Pub/bar/nightclub,7843,5,,684340,5,,52.33551200000000,BD/PI/000007594,145,wrsenquiries@worcestershire.gov.uk,Bromsgrove,http://www.worcsregservices.gov.uk,-2.06043400000000,B61 8AQ,2011-07-25,fhrs_5_en-GB,5,,FHRS,5
327646,11 Cherry Hill Road,Barnt Green,Birmingham,Worcestershire,Redwood House Residential Home,Hospitals/Childcare/Caring Premises,5,5,,672238,5,,52.36142800000000,BD/PI/000003705,145,wrsenquiries@worcestershire.gov.uk,Bromsgrove,http://www.worcsregservices.gov.uk,-2.00289100000000,B45 8LL,2014-04-30,fhrs_5_en-GB,5,,FHRS,5
327647,40 High Street,Bromsgrove,Worcestershire,,Regency Tea Room,Restaurant/Cafe/Canteen,1,5,,672288,5,,52.33377600000000,BD/PI/000007563,145,wrsenquiries@worcestershire.gov.uk,Bromsgrove,http://www.worcsregservices.gov.uk,-2.06178200000000,B61 8HQ,2012-06-18,fhrs_5_en-GB,5,,FHRS,5
327648,128 Stourbridge Road,Bromsgrove,Worcestershire,,Regents Court Care Home,Hospitals/Childcare/Caring Premises,5,5,,672377,5,,52.34397300000000,BD/PI/000014154,145,wrsenquiries@worcestershire.gov.uk,Bromsgrove,http://www.worcsregservices.gov.uk,-2.05840600000000,B61 0AN,2014-11-03,fhrs_5_en-GB,5,,FHRS,5
327649,Rigby Lane,Bromsgrove,Worcestershire,,Rigby Hall School,School/college/university,7845,0,,672345,0,,52.32622400000000,BD/PI/000012392,145,wrsenquiries@worcestershire.gov.uk,Bromsgrove,http://www.worcsregservices.gov.uk,-2.04340100000000,B60 2EP,2010-04-28,fhrs_5_en-GB,5,,FHRS,0
327650,2 Finstall Road,Bromsgrove,Worcestershire,,Rosado's Restaurant,Restaurant/Cafe/Canteen,1,5,,672447,5,,52.32308500000000,BD/PI/000020012,145,wrsenquiries@worcestershire.gov.uk,Bromsgrove,http://www.worcsregservices.gov.uk,-2.04744700000000,B60 2DZ,2015-02-06,fhrs_5_en-GB,5,,FHRS,5
327651,Baytree Farm,Middle Lane,Headley Heath,Birmingham,Rubery Football Club,Pub/bar/nightclub,7843,5,,684543,10,,52.38847000000000,WC/N92MBRMIDD/1,145,wrsenquiries@worcestershire.gov.uk,Bromsgrove,http://www.worcsregservices.gov.uk,-1.90641500000000,B38 0DT,2011-08-09,fhrs_3_en-GB,3,,FHRS,10
327652,Ruby Chinese Takeaway,115 New Road,Rubery,Birmingham,Ruby Cantonese,Takeaway/sandwich shop,7844,0,,684381,0,,52.39297300000000,BD/PI/000010631,145,wrsenquiries@worcestershire.gov.uk,Bromsgrove,http://www.worcsregservices.gov.uk,-2.02107200000000,B45 9JR,2011-09-22,fhrs_5_en-GB,5,,FHRS,0
327653,76 Worcester Road,Bromsgrove,Worcestershire,,RubyTake Away,Takeaway/sandwich shop,7844,10,,672417,10,,52.33150900000000,BD/PI/000016928,145,wrsenquiries@worcestershire.gov.uk,Bromsgrove,http://www.worcsregservices.gov.uk,-2.06562400000000,B61 7AG,2013-05-22,fhrs_3_en-GB,3,,FHRS,10
327654,404 Groveley Lane,Cofton Hackett,Birmingham,Worcestershire,Ruchi International Takeaway,Takeaway/sandwich shop,7844,20,,697286,10,,52.38183600000000,14/01001/FOOD,145,wrsenquiries@worcestershire.gov.uk,Bromsgrove,http://www.worcsregservices.gov.uk,-1.99165400000000,B45 8UQ,2014-08-04,fhrs_1_en-GB,1,,FHRS,5
327655,Sanders Park Pavillion  Sanders Par,Kidderminster Road,Bromsgrove,Worcestershire,Sanders Cafe,Other catering premises,7841,5,,672300,0,,52.33513000000000,BD/PI/000008359,145,wrsenquiries@worcestershire.gov.uk,Bromsgrove,http://www.worcsregservices.gov.uk,-2.06819700000000,B61 7JS,2014-08-19,fhrs_5_en-GB,5,,FHRS,5
327656,42 Sandhills Road,Barnt Green,Birmingham,Worcestershire,Sandhills Day Nursery Limited,Hospitals/Childcare/Caring Premises,5,0,,672356,0,,52.36031300000000,BD/PI/000013008,145,wrsenquiries@worcestershire.gov.uk,Bromsgrove,http://www.worcsregservices.gov.uk,-1.98806000000000,B45 8NR,2012-08-08,fhrs_5_en-GB,5,,FHRS,5
327657,School House Private Day Nursery,Priory Road,Dodford,Bromsgrove,School House Day Nursery,Hospitals/Childcare/Caring Premises,5,0,,684394,5,,52.34894200000000,BD/PI/000011968,145,wrsenquiries@worcestershire.gov.uk,Bromsgrove,http://www.worcsregservices.gov.uk,-2.10210100000000,B61 9DF,2014-03-31,fhrs_5_en-GB,5,,FHRS,0
327658,Sea Queen Fish Bar,107 New Road,Rubery,Worcestershire,Sea Queen Fish Shop,Takeaway/sandwich shop,7844,5,,684379,5,,52.39297300000000,BD/PI/000010626,145,wrsenquiries@worcestershire.gov.uk,Bromsgrove,http://www.worcsregservices.gov.uk,-2.02107200000000,B45 9JR,2014-06-26,fhrs_5_en-GB,5,,FHRS,0
327659,Shenapur Indian Cuisine,86 Worcester Road,Hagley,Stourbridge,Shenapur,Restaurant/Cafe/Canteen,1,10,,672422,10,,52.41902100000000,BD/PI/000017021,145,wrsenquiries@worcestershire.gov.uk,Bromsgrove,http://www.worcsregservices.gov.uk,-2.14374300000000,DY9 0NJ,2013-07-24,fhrs_3_en-GB,3,,FHRS,10
327660,86 Worcester Road,Hagley,"Stourbridge, Worcestershire",,Shenapur Indian Cuisine Ltd,Restaurant/Cafe/Canteen,1,5,,684568,5,,52.41902100000000,WC/U62LBR86WO/1,145,wrsenquiries@worcestershire.gov.uk,Bromsgrove,http://www.worcsregservices.gov.uk,-2.14374300000000,DY9 0NJ,2011-11-29,fhrs_5_en-GB,5,,FHRS,5
327661,29 Shenstone Close,Bromsgrove,Worcestershire,,Shenstone Court,Hospitals/Childcare/Caring Premises,5,0,,672365,5,,52.33997500000000,BD/PI/000013425,145,wrsenquiries@worcestershire.gov.uk,Bromsgrove,http://www.worcsregservices.gov.uk,-2.05270500000000,B60 1PG,2014-05-08,fhrs_5_en-GB,5,,FHRS,0
327662,Shimla Peppers,1 George Street,Bromsgrove,Worcestershire,Shimla Peppers,Restaurant/Cafe/Canteen,1,10,,672253,5,,52.34839300000000,BD/PI/000006135,145,wrsenquiries@worcestershire.gov.uk,Bromsgrove,http://www.worcsregservices.gov.uk,-2.09052000000000,B61 7AD,2013-10-26,fhrs_4_en-GB,4,,FHRS,5
327663,Catshill Middle School,Meadow Road,Catshill,Bromsgrove,Shire Services @ Catshill Middle School,School/college/university,7845,0,,684369,0,,52.36120600000000,BD/PI/000009810,145,wrsenquiries@worcestershire.gov.uk,Bromsgrove,http://www.worcsregservices.gov.uk,-2.06110100000000,B61 0JW,2014-06-18,fhrs_5_en-GB,5,,FHRS,5
327664,Finstall First School,Carnforth Road,Bromsgrove,Worcestershire,Shire Services @ Finstall First School,School/college/university,7845,10,,684486,5,,52.33119300000000,BD/PI/000020666,145,wrsenquiries@worcestershire.gov.uk,Bromsgrove,http://www.worcsregservices.gov.uk,-2.04914400000000,B60 2HS,2012-12-11,fhrs_4_en-GB,4,,FHRS,0
327665,Perryfields Road,Bromsgrove,Worcestershire,,Sidemoor First School,School/college/university,7845,5,,672127,5,,52.34306200000000,BD/09/00030/COMM,145,wrsenquiries@worcestershire.gov.uk,Bromsgrove,http://www.worcsregservices.gov.uk,-2.07795600000000,B61 8QN,2014-07-01,fhrs_5_en-GB,5,,FHRS,0
327666,Sidemoor Fish Bar,67 Crabtree Lane,Bromsgrove,Worcestershire,Sidemoor Fish Bar And Pronto Pizza,Takeaway/sandwich shop,7844,5,,672245,5,,52.33860100000000,BD/PI/000004580,145,wrsenquiries@worcestershire.gov.uk,Bromsgrove,http://www.worcsregservices.gov.uk,-2.06736600000000,B61 8NY,2014-10-20,fhrs_5_en-GB,5,,FHRS,0
327667,Pear Tree Childrens Centre,Broad Street,Bromsgrove,Worcestershire,Sidemoor Pre-School,Hospitals/Childcare/Caring Premises,5,0,,684241,0,,52.33962600000000,BD/11/00027/COMM,145,wrsenquiries@worcestershire.gov.uk,Bromsgrove,http://www.worcsregservices.gov.uk,-2.06747100000000,B61 8LW,2011-09-22,fhrs_5_en-GB,5,,FHRS,0
327668,8 Drakes Cross Parade,Hollywood,Birmingham,Worcestershire,Silver House,Takeaway/sandwich shop,7844,10,,672192,5,,52.38533900000000,BD/PI/000000235,145,wrsenquiries@worcestershire.gov.uk,Bromsgrove,http://www.worcsregservices.gov.uk,-1.88370700000000,B47 5HD,2014-03-24,fhrs_4_en-GB,4,,FHRS,5
327669,The Trunk,13 - 21 Humphrey Avenue,Bromsgrove,Worcestershire,Skills Exchange Academy - Starlight Cafe,Restaurant/Cafe/Canteen,1,10,,672158,5,,52.32249900000000,BD/10/00134/COMM,145,wrsenquiries@worcestershire.gov.uk,Bromsgrove,http://www.worcsregservices.gov.uk,-2.06763500000000,B60 3JB,2014-02-18,fhrs_4_en-GB,4,,FHRS,5
327670,126 - 130 High Street,Bromsgrove,Worcestershire,,Slug And Lettuce,Pub/bar/nightclub,7843,5,,684529,0,,52.33597100000000,BD/PI/000023055,145,wrsenquiries@worcestershire.gov.uk,Bromsgrove,http://www.worcsregservices.gov.uk,-2.05910000000000,B61 8ES,2013-12-06,fhrs_5_en-GB,5,,FHRS,5
327671,Layby,Redditch Road,Bromsgrove,Worcestershire,Snack-a-Jacks,Mobile caterer,7846,10,,672152,15,,52.38972700000000,BD/10/00039/COMM,145,wrsenquiries@worcestershire.gov.uk,Bromsgrove,http://www.worcsregservices.gov.uk,-1.95733400000000,,2015-01-16,fhrs_2_en-GB,2,,FHRS,15
327672,Charford Road,Bromsgrove,Worcestershire,,South Bromsgrove High School,School/college/university,7845,0,,672237,5,,52.32488500000000,BD/PI/000003653,145,wrsenquiries@worcestershire.gov.uk,Bromsgrove,http://www.worcsregservices.gov.uk,-2.06131500000000,B60 3NL,2010-02-22,fhrs_5_en-GB,5,,FHRS,0
327673,S P Group,Hedera Road,Redditch,Worcestershire,SP Group,Restaurant/Cafe/Canteen,1,5,,684474,0,,52.31485700000000,BD/PI/000018935,145,wrsenquiries@worcestershire.gov.uk,Bromsgrove,http://www.worcsregservices.gov.uk,-1.88446300000000,B98 9EY,2011-05-12,fhrs_5_en-GB,5,,FHRS,0
327674,74 Worcester Road,Bromsgrove,Worcestershire,,Spice Valley Balti,Restaurant/Cafe/Canteen,1,10,,672416,10,,52.33150900000000,BD/PI/000016926,145,wrsenquiries@worcestershire.gov.uk,Bromsgrove,http://www.worcsregservices.gov.uk,-2.06562400000000,B61 7AG,2013-05-21,fhrs_3_en-GB,3,,FHRS,5
327675,151 Golden Cross Lane,Catshill,Worcestershire,,Spices Indian Bangladeshi Cuisine,Restaurant/Cafe/Canteen,1,5,,672461,10,,52.36399400000000,BD/PI/000021499,145,wrsenquiries@worcestershire.gov.uk,Bromsgrove,http://www.worcsregservices.gov.uk,-2.05865200000000,B61 0JZ,2014-03-31,fhrs_4_en-GB,4,,FHRS,5
327676,The Hall Nursing Home,Old Station Road,Bromsgrove,Worcestershire,St Georges,Hospitals/Childcare/Caring Premises,5,20,,672327,15,,52.32763100000000,BD/PI/000011257,145,wrsenquiries@worcestershire.gov.uk,Bromsgrove,http://www.worcsregservices.gov.uk,-2.05404100000000,B60 2AS,2015-01-06,fhrs_1_en-GB,1,,FHRS,0
327677,St Johns Court Nursing Home,St John Street,Bromsgrove,Worcestershire,St Johns Court,Hospitals/Childcare/Caring Premises,5,0,,672353,5,,52.33442300000000,BD/PI/000012786,145,wrsenquiries@worcestershire.gov.uk,Bromsgrove,http://www.worcsregservices.gov.uk,-2.06363200000000,B61 8QT,2014-04-23,fhrs_5_en-GB,5,,FHRS,0
327678,Holywell Lane,Rubery,Birmingham,Worcestershire,St Oswalds Boys Club,Other catering premises,7841,,,684346,,,52.38926600000000,BD/PI/000008014,145,wrsenquiries@worcestershire.gov.uk,Bromsgrove,http://www.worcsregservices.gov.uk,-2.03319200000000,B45 9AD,2010-02-12,fhrs_exempt_en-GB,Exempt,,FHRS,
327679,St Peters Rc School,Rock Hill,Bromsgrove,Worcestershire,St Peters RC School,School/college/university,7845,5,,672455,5,,52.32701100000000,BD/PI/000021159,145,wrsenquiries@worcestershire.gov.uk,Bromsgrove,http://www.worcsregservices.gov.uk,-2.07043000000000,B61 7LH,2014-09-25,fhrs_5_en-GB,5,,FHRS,0
327680,Asda Stores Ltd,21 Market Street,Bromsgrove,Worcestershire,Staff Canteen at Asda,Other catering premises,7841,5,,684574,5,,52.33692400000000,WC/U67MBR21MA/1,145,wrsenquiries@worcestershire.gov.uk,Bromsgrove,http://www.worcsregservices.gov.uk,-2.05926200000000,B61 8DA,2011-10-24,fhrs_5_en-GB,5,,FHRS,5
327681,Hopwood Park Services,Redditch Road,Alvechurch,Birmingham,Starbucks,Restaurant/Cafe/Canteen,1,0,,672465,0,,52.36372600000000,BD/PI/000021942,145,wrsenquiries@worcestershire.gov.uk,Bromsgrove,http://www.worcsregservices.gov.uk,-1.94578000000000,B48 7AU,2010-07-22,fhrs_5_en-GB,5,,FHRS,0
327682,95 Worcester Road,Hagley,Stourbridge,Worcestershire,Station Inn,Pub/bar/nightclub,7843,0,,684469,10,,52.41925400000000,BD/PI/000017040,145,wrsenquiries@worcestershire.gov.uk,Bromsgrove,http://www.worcsregservices.gov.uk,-2.14412600000000,DY9 0NG,2010-10-06,fhrs_4_en-GB,4,,FHRS,10
327683,Ryefields Road,Stoke Prior,Bromsgrove,Worcestershire,Stoke Prior First School,School/college/university,7845,5,,672349,0,,52.30307000000000,BD/PI/000012704,145,wrsenquiries@worcestershire.gov.uk,Bromsgrove,http://www.worcsregservices.gov.uk,-2.08411900000000,B60 4ND,2011-10-04,fhrs_5_en-GB,5,,FHRS,0
327684,Stoke Prior Post Office,11 - 13 Ryefields Road,Stoke Prior,Bromsgrove,Stoke Prior Post Office,Retailers - other,4613,5,,672348,5,,52.30250200000000,BD/PI/000012674,145,wrsenquiries@worcestershire.gov.uk,Bromsgrove,http://www.worcsregservices.gov.uk,-2.08568700000000,B60 4NA,2013-03-25,fhrs_4_en-GB,4,,FHRS,10
327685,9 Ryefields Road,Stoke Prior,Bromsgrove,Worcestershire,Stubbs,Retailers - other,4613,5,,684403,5,,52.30219700000000,BD/PI/000012701,145,wrsenquiries@worcestershire.gov.uk,Bromsgrove,http://www.worcsregservices.gov.uk,-2.08545100000000,B60 4NA,2014-11-19,fhrs_5_en-GB,5,,FHRS,5
327686,131A High Street,Bromsgrove,Worcestershire,,Subway,Takeaway/sandwich shop,7844,5,,684501,0,,52.33642100000000,BD/PI/000022443,145,wrsenquiries@worcestershire.gov.uk,Bromsgrove,http://www.worcsregservices.gov.uk,-2.05943800000000,B61 8AE,2014-10-01,fhrs_5_en-GB,5,,FHRS,0
327687,184 New Road,Rubery,Birmingham,Worcestershire,Subway,Takeaway/sandwich shop,7844,5,,672442,10,,52.39328800000000,BD/PI/000019919,145,wrsenquiries@worcestershire.gov.uk,Bromsgrove,http://www.worcsregservices.gov.uk,-2.01747100000000,B45 9JA,2014-12-23,fhrs_4_en-GB,4,,FHRS,0
327688,Sunfield Childrens Home,Woodman Lane,Clent,Stourbridge,Sunfield Childrens Homes Ltd,Hospitals/Childcare/Caring Premises,5,0,,672242,0,,52.41770500000000,BD/PI/000004045,145,wrsenquiries@worcestershire.gov.uk,Bromsgrove,http://www.worcsregservices.gov.uk,-2.11361200000000,DY9 9PB,2014-12-05,fhrs_5_en-GB,5,,FHRS,0
327689,Street Record,Birmingham Road,Bromsgrove,Worcestershire,Susie Q's Food 4U,Mobile caterer,7846,5,,672164,5,,52.37981800000000,BD/11/00018/COMM,145,wrsenquiries@worcestershire.gov.uk,Bromsgrove,http://www.worcsregservices.gov.uk,-2.04330000000000,,2011-09-15,fhrs_5_en-GB,5,,FHRS,5
327690,40 Bromsgrove Road,Romsley,Halesowen,Worcestershire,Swallows Nest,Pub/bar/nightclub,7843,5,,672231,0,,52.41561600000000,BD/PI/000002809,145,wrsenquiries@worcestershire.gov.uk,Bromsgrove,http://www.worcsregservices.gov.uk,-2.05697200000000,B62 0LF,2014-08-11,fhrs_5_en-GB,5,,FHRS,5
327691,157 Stourbridge Road,Fairfield,Bromsgrove,Worcestershire,Swan Inn,Pub/bar/nightclub,7843,5,,684436,5,,52.37750200000000,BD/PI/000014385,145,wrsenquiries@worcestershire.gov.uk,Bromsgrove,http://www.worcsregservices.gov.uk,-2.07985300000000,B61 9NG,2014-10-22,fhrs_5_en-GB,5,,FHRS,5
327692,11 Crown Close,Bromsgrove,Worcestershire,,Tandoori Indian Restaurant,Restaurant/Cafe/Canteen,1,0,,684569,5,,52.33418000000000,WC/U62MBR11CR/1,145,wrsenquiries@worcestershire.gov.uk,Bromsgrove,http://www.worcsregservices.gov.uk,-2.06261900000000,B61 8DJ,2011-10-04,fhrs_5_en-GB,5,,FHRS,0
327693,Tardebigge Court,Hewell Lane,Tardebigge,Redditch,Tardebigge Court Cafe,Restaurant/Cafe/Canteen,1,5,,672110,5,,52.31779900000000,13/00328/FOOD,145,wrsenquiries@worcestershire.gov.uk,Bromsgrove,http://www.worcsregservices.gov.uk,-1.99680000000000,B97 6QW,2014-04-22,fhrs_5_en-GB,5,,FHRS,0
327694,147 Worcester Road,Bromsgrove,Worcestershire,,Thai Lotus,Restaurant/Cafe/Canteen,1,10,,672111,10,,52.33007900000000,13/00334/FOOD,145,wrsenquiries@worcestershire.gov.uk,Bromsgrove,http://www.worcsregservices.gov.uk,-2.06670800000000,B61 7HN,2014-10-08,fhrs_3_en-GB,3,,FHRS,10
327695,Bell Inn,Bromsgrove Road,Hagley,Stourbridge,The Bell,Pub/bar/nightclub,7843,0,,684560,0,,52.39120700000000,WC/U52MBRBROM/6,145,wrsenquiries@worcestershire.gov.uk,Bromsgrove,http://www.worcsregservices.gov.uk,-2.08682900000000,DY9 9XU,2011-10-03,fhrs_5_en-GB,5,,FHRS,0
327696,Shawhurst Lane,Hollywood,Birmingham,Worcestershire,The Coppice Primary School,School/college/university,7845,0,,672134,0,,52.39033900000000,BD/09/00063/COMM,145,wrsenquiries@worcestershire.gov.uk,Bromsgrove,http://www.worcsregservices.gov.uk,-1.87621400000000,B47 5JN,2012-11-26,fhrs_5_en-GB,5,,FHRS,0
327697,Sharpway Gate,Harbours Hill,Bromsgrove,Worcestershire,The Country Girl,Pub/bar/nightclub,7843,5,,684124,5,,52.28889400000000,13/00108/FOOD,145,wrsenquiries@worcestershire.gov.uk,Bromsgrove,http://www.worcsregservices.gov.uk,-2.06723200000000,B60 4AY,2013-10-02,fhrs_5_en-GB,5,,FHRS,5
327698,Crown Inn,Withybed Lane,Alvechurch,Birmingham,The Crown Inn,Pub/bar/nightclub,7843,5,,684458,0,,52.35124900000000,BD/PI/000016540,145,wrsenquiries@worcestershire.gov.uk,Bromsgrove,http://www.worcsregservices.gov.uk,-1.97430600000000,B48 7PN,2013-04-18,fhrs_5_en-GB,5,,FHRS,5
327699,Dog And Pheasant,26 Worcester Road,Bromsgrove,Worcestershire,The Dog & Pheasant,Pub/bar/nightclub,7843,0,,684496,0,,52.33299300000000,BD/PI/000021551,145,wrsenquiries@worcestershire.gov.uk,Bromsgrove,http://www.worcsregservices.gov.uk,-2.06354200000000,B61 7AE,2010-11-24,fhrs_5_en-GB,5,,FHRS,0
327700,Ducklings Day Nursery,2 Western Road,Hagley,Stourbridge,The Duckling Day Nursery,Hospitals/Childcare/Caring Premises,5,5,,672407,5,,52.41753700000000,BD/PI/000016029,145,wrsenquiries@worcestershire.gov.uk,Bromsgrove,http://www.worcsregservices.gov.uk,-2.14404700000000,DY9 0LB,2014-06-19,fhrs_5_en-GB,5,,FHRS,0
327701,Hopwood Park Services,Redditch Road,Alvechurch,Birmingham,The Eat In,Restaurant/Cafe/Canteen,1,0,,672335,5,,52.36372600000000,BD/PI/000012185,145,wrsenquiries@worcestershire.gov.uk,Bromsgrove,http://www.worcsregservices.gov.uk,-1.94578000000000,B48 7AU,2014-10-24,fhrs_5_en-GB,5,,FHRS,0
327702,Four Stones Restaurant,Adams Hill,Clent,Stourbridge,The Four Stones,Restaurant/Cafe/Canteen,1,5,,672184,5,,52.41591000000000,BD/PI/000000028,145,wrsenquiries@worcestershire.gov.uk,Bromsgrove,http://www.worcsregservices.gov.uk,-2.11076900000000,DY9 9PS,2014-11-14,fhrs_5_en-GB,5,,FHRS,5
327703,The French Hen Inn,Bromsgrove Road,Clent,Worcestershire,The French Hen,Pub/bar/nightclub,7843,5,,672446,5,,52.41642900000000,BD/PI/000020002,145,wrsenquiries@worcestershire.gov.uk,Bromsgrove,http://www.worcsregservices.gov.uk,-2.12187100000000,DY9 9PY,2014-07-21,fhrs_5_en-GB,5,,FHRS,5
327704,Gate Hangs Well,Woodgate Road,Stoke Prior,Bromsgrove,The Gate Hangs Well,Pub/bar/nightclub,7843,5,,684477,5,,52.29492500000000,BD/PI/000019283,145,wrsenquiries@worcestershire.gov.uk,Bromsgrove,http://www.worcsregservices.gov.uk,-2.05268100000000,B60 4HG,2013-03-21,fhrs_4_en-GB,4,,FHRS,10
327705,Golden Cross Hotel,20 High Street,Bromsgrove,Worcestershire,The Golden Cross Hotel,Pub/bar/nightclub,7843,0,,672287,0,,52.33384800000000,BD/PI/000007553,145,wrsenquiries@worcestershire.gov.uk,Bromsgrove,http://www.worcsregservices.gov.uk,-2.06159200000000,B61 8HH,2011-07-25,fhrs_5_en-GB,5,,FHRS,5
327706,Hm Prison Hewell Grange,Hewell Lane,Tardebigge,Worcestershire,The Grange Resettlement Unit,Restaurant/Cafe/Canteen,1,0,,672277,0,,52.21087646484380,BD/PI/000007343,145,wrsenquiries@worcestershire.gov.uk,Bromsgrove,http://www.worcsregservices.gov.uk,-2.20981502532959,B97 6QQ,2011-07-21,fhrs_5_en-GB,5,,FHRS,0
327707,11-13 High Street,Bromsgrove,Worcestershire,,The Grove,Pub/bar/nightclub,7843,10,,715277,10,,52.33448600000000,14/01213/COMM,145,wrsenquiries@worcestershire.gov.uk,Bromsgrove,http://www.worcsregservices.gov.uk,-2.06185700000000,B61 8AJ,2014-11-04,fhrs_3_en-GB,3,,FHRS,10
327708,Birmingham Road,Bromsgrove,Worcestershire,,The Guild,Pub/bar/nightclub,7843,10,,672368,5,,52.33881700000000,BD/PI/000013666,145,wrsenquiries@worcestershire.gov.uk,Bromsgrove,http://www.worcsregservices.gov.uk,-2.04931400000000,B61 0BA,2014-06-17,fhrs_4_en-GB,4,,FHRS,5
327709,Hill Tavern,31 Adams Hill,Clent,Stourbridge,The Hill Tavern,Pub/bar/nightclub,7843,5,,672185,10,,52.41591000000000,BD/PI/000000029,145,wrsenquiries@worcestershire.gov.uk,Bromsgrove,http://www.worcsregservices.gov.uk,-2.11076900000000,DY9 9PS,2010-02-24,fhrs_3_en-GB,3,,FHRS,10
327710,Hunnington Farm,143 Bromsgrove Road,Romsley,Halesowen,The Jacket Hut,Mobile caterer,7846,5,,672483,0,,52.42031800000000,BD/PI/000023078,145,wrsenquiries@worcestershire.gov.uk,Bromsgrove,http://www.worcsregservices.gov.uk,-2.05561000000000,B62 0JX,2012-05-23,fhrs_5_en-GB,5,,FHRS,0
327711,The Mount School,277 Birmingham Road,Bromsgrove,Worcestershire,The Key Consultancy Limited,School/college/university,7845,5,,672454,0,,52.34760000000000,BD/PI/000021014,145,wrsenquiries@worcestershire.gov.uk,Bromsgrove,http://www.worcsregservices.gov.uk,-2.04995500000000,B61 0EP,2011-03-22,fhrs_5_en-GB,5,,FHRS,0
327712,The Lawns Residential Home,School Lane,Alvechurch,Birmingham,The Lawns,Hospitals/Childcare/Caring Premises,5,0,,684412,0,,52.34945600000000,BD/PI/000013089,145,wrsenquiries@worcestershire.gov.uk,Bromsgrove,http://www.worcsregservices.gov.uk,-1.96087400000000,B48 7SB,2014-09-23,fhrs_5_en-GB,5,,FHRS,5
327713,Lemon Tree Cafe,1 Chapel Street,Bromsgrove,Worcestershire,The Lemon Tree,Restaurant/Cafe/Canteen,1,5,,672235,10,,52.33564700000000,BD/PI/000003583,145,wrsenquiries@worcestershire.gov.uk,Bromsgrove,http://www.worcsregservices.gov.uk,-2.05923100000000,B60 2BW,2015-01-02,fhrs_3_en-GB,3,,FHRS,10
327714,The Leys Rest Home,Old Birmingham Road,Alvechurch,Birmingham,The Leys Residential Home,Hospitals/Childcare/Caring Premises,5,5,,672326,5,,52.36215000000000,BD/PI/000011041,145,wrsenquiries@worcestershire.gov.uk,Bromsgrove,http://www.worcsregservices.gov.uk,-1.95982100000000,B48 7TQ,2014-10-27,fhrs_5_en-GB,5,,FHRS,5
327715,Belbroughton Post Office,24 High Street,Belbroughton,Stourbridge,The Little Coffee Shop,Other catering premises,7841,5,,684330,5,,52.39282500000000,BD/PI/000007491,145,wrsenquiries@worcestershire.gov.uk,Bromsgrove,http://www.worcsregservices.gov.uk,-2.11814700000000,DY9 9ST,2015-01-15,fhrs_5_en-GB,5,,FHRS,5
327716,Red House  Fairfield Court,Stourbridge Road,Fairfield,Bromsgrove,The Little Red House,Hotel/bed & breakfast/guest house,7842,10,,672165,5,,52.38210400000000,BD/11/00021/COMM,145,wrsenquiries@worcestershire.gov.uk,Bromsgrove,http://www.worcsregservices.gov.uk,-2.08194800000000,B61 9NJ,2011-09-20,fhrs_4_en-GB,4,,FHRS,5
327717,34 Ten Ashes Lane,Cofton Hackett,Birmingham,Worcestershire,The Little Treat Boutique,Mobile caterer,7846,5,,684142,5,,52.37943600000000,14/00601/FOOD,145,wrsenquiries@worcestershire.gov.uk,Bromsgrove,http://www.worcsregservices.gov.uk,-1.99858800000000,B45 8PE,2014-02-20,fhrs_5_en-GB,5,,FHRS,5
327718,22 The Square,Alvechurch,Birmingham,Worcestershire,The Lounge,Restaurant/Cafe/Canteen,1,5,,672161,10,,52.35187400000000,BD/11/00006/COMM,145,wrsenquiries@worcestershire.gov.uk,Bromsgrove,http://www.worcsregservices.gov.uk,-1.95938900000000,B48 7LA,2014-10-22,fhrs_4_en-GB,4,,FHRS,5
327719,656 Birmingham Road,Catshill,Bromsgrove,Worcestershire,The Meadows Nursing Home,Hospitals/Childcare/Caring Premises,5,5,,672212,5,,52.38089500000000,BD/PI/000001872,145,wrsenquiries@worcestershire.gov.uk,Bromsgrove,http://www.worcsregservices.gov.uk,-2.03853300000000,B61 0QD,2014-02-07,fhrs_4_en-GB,4,,FHRS,10
327720,33 Birmingham Road,Bromsgrove,Worcestershire,,The Mint Lounge,Other catering premises,7841,0,,672445,0,,52.33948800000000,BD/PI/000019944,145,wrsenquiries@worcestershire.gov.uk,Bromsgrove,http://www.worcsregservices.gov.uk,-2.05553800000000,B61 0DR,2011-02-17,fhrs_5_en-GB,5,,FHRS,0
327721,Nailers Arms,62 Doctors Hill,Bournheath,Bromsgrove,The Nailers' Arms,Pub/bar/nightclub,7843,5,,672248,5,,52.36219400000000,BD/PI/000004887,145,wrsenquiries@worcestershire.gov.uk,Bromsgrove,http://www.worcsregservices.gov.uk,-2.07746100000000,B61 9JE,2012-03-20,fhrs_4_en-GB,4,,FHRS,10
327722,432 Birmingham Road,Catshill,Bromsgrove,Worcestershire,The Oaks Residential Care Home,Hospitals/Childcare/Caring Premises,5,5,,672208,5,,52.36230000000000,BD/PI/000001782,145,wrsenquiries@worcestershire.gov.uk,Bromsgrove,http://www.worcsregservices.gov.uk,-2.04558100000000,B61 0HL,2013-03-19,fhrs_4_en-GB,4,,FHRS,10
327723,Pack Horse Hotel,Alcester Road,Hollywood,Birmingham,The Packhorse Inn,Pub/bar/nightclub,7843,5,,684263,5,,52.39104900000000,BD/PI/000000255,145,wrsenquiries@worcestershire.gov.uk,Bromsgrove,http://www.worcsregservices.gov.uk,-1.88488200000000,B47 5HA,2014-12-09,fhrs_5_en-GB,5,,FHRS,5
327724,Plough And Harrow,419 Stourbridge Road,Catshill,Bromsgrove,The Plough And Harrow,Pub/bar/nightclub,7843,5,,684431,10,,52.36254300000000,BD/PI/000014308,145,wrsenquiries@worcestershire.gov.uk,Bromsgrove,http://www.worcsregservices.gov.uk,-2.06505300000000,B61 9LG,2014-08-22,fhrs_3_en-GB,3,,FHRS,10
327725,Queens Hill,Belbroughton,Stourbridge,Worcestershire,The Queens,Other catering premises,7841,10,,672333,10,,52.39145500000000,BD/PI/000012030,145,wrsenquiries@worcestershire.gov.uk,Bromsgrove,http://www.worcsregservices.gov.uk,-2.12156700000000,DY9 0DU,2014-09-03,fhrs_4_en-GB,4,,FHRS,0
327726,1 The Strand,Bromsgrove,Worcestershire,,The Queens Head,Pub/bar/nightclub,7843,5,,684438,5,,52.33732900000000,BD/PI/000014416,145,wrsenquiries@worcestershire.gov.uk,Bromsgrove,http://www.worcsregservices.gov.uk,-2.05759000000000,B61 8AB,2013-03-21,fhrs_5_en-GB,5,,FHRS,5
327727,Red Lion Inn,Red Lion Street,Alvechurch,Birmingham,The Red Lion Inn,Pub/bar/nightclub,7843,0,,684401,0,,52.35259300000000,BD/PI/000012289,145,wrsenquiries@worcestershire.gov.uk,Bromsgrove,http://www.worcsregservices.gov.uk,-1.96035800000000,B48 7LG,2011-08-04,fhrs_5_en-GB,5,,FHRS,5
327728,34 Birmingham Road,Bromsgrove,Worcestershire,,The Rovers Cafe,Restaurant/Cafe/Canteen,1,0,,672480,0,,52.33899400000000,BD/PI/000022997,145,wrsenquiries@worcestershire.gov.uk,Bromsgrove,http://www.worcsregservices.gov.uk,-2.05537600000000,B61 0DD,2012-03-29,fhrs_5_en-GB,5,,FHRS,5
327729,41 Barley Mow Lane,Catshill,Bromsgrove,Worcestershire,The Royal Oak,Pub/bar/nightclub,7843,5,,684127,5,,52.36239700000000,13/00194/FOOD,145,wrsenquiries@worcestershire.gov.uk,Bromsgrove,http://www.worcsregservices.gov.uk,-2.05042700000000,B61 0LU,2013-10-02,fhrs_4_en-GB,4,,FHRS,10
327730,42 Worcester Road,Bromsgrove,Worcestershire,,The Sandwich Lady & Sons,Restaurant/Cafe/Canteen,1,10,,672427,10,,52.33299300000000,BD/PI/000017933,145,wrsenquiries@worcestershire.gov.uk,Bromsgrove,http://www.worcsregservices.gov.uk,-2.06354200000000,B61 7AE,2015-01-14,fhrs_3_en-GB,3,,FHRS,10
327731,School House,Beoley Lane,Beoley,Redditch,The School House,Hospitals/Childcare/Caring Premises,5,5,,672204,0,,52.32379300000000,BD/PI/000001430,145,wrsenquiries@worcestershire.gov.uk,Bromsgrove,http://www.worcsregservices.gov.uk,-1.89344900000000,B98 9AN,2010-11-10,fhrs_5_en-GB,5,,FHRS,0
327732,Street Record,High Street,Bromsgrove,Worcestershire,The Spud Wagon,Mobile caterer,7846,5,,672182,5,,52.33384500000000,BD/13/00017/MOBILE,145,wrsenquiries@worcestershire.gov.uk,Bromsgrove,http://www.worcsregservices.gov.uk,-2.06208000000000,,2013-05-10,fhrs_5_en-GB,5,,FHRS,5
327733,14 The Square,Alvechurch,Birmingham,Worcestershire,The Square Bakery,Manufacturers/packers,7839,10,,672393,10,,52.35187400000000,BD/PI/000015194,145,wrsenquiries@worcestershire.gov.uk,Bromsgrove,http://www.worcsregservices.gov.uk,-1.95938900000000,B48 7LA,2014-03-10,fhrs_3_en-GB,3,,FHRS,10
327734,The Sun Hotel,101 Bromsgrove Road,Romsley,Halesowen,The Sun,Pub/bar/nightclub,7843,5,,672230,5,,52.41839500000000,BD/PI/000002784,145,wrsenquiries@worcestershire.gov.uk,Bromsgrove,http://www.worcsregservices.gov.uk,-2.05506400000000,B62 0LA,2014-06-20,fhrs_5_en-GB,5,,FHRS,5
327735,Swan Hotel,12 Swan Street,Alvechurch,Birmingham,The Swan,Pub/bar/nightclub,7843,10,,684439,5,,52.35035500000000,BD/PI/000014585,145,wrsenquiries@worcestershire.gov.uk,Bromsgrove,http://www.worcsregservices.gov.uk,-1.95937600000000,B48 7RP,2013-07-31,fhrs_4_en-GB,4,,FHRS,5
327736,Talbot Hotel,Hartle Lane,Belbroughton,Stourbridge,The Talbot,Pub/bar/nightclub,7843,5,,684494,5,,52.39159400000000,BD/PI/000021480,145,wrsenquiries@worcestershire.gov.uk,Bromsgrove,http://www.worcsregservices.gov.uk,-2.11796800000000,DY9 9TG,2011-11-14,fhrs_5_en-GB,5,,FHRS,0
327737,Tandoori Indian Restaurant,11 Crown Close,Bromsgrove,Worcestershire,The Tandoori Restaurant,Restaurant/Cafe/Canteen,1,10,,672246,10,,52.33418000000000,BD/PI/000004637,145,wrsenquiries@worcestershire.gov.uk,Bromsgrove,http://www.worcsregservices.gov.uk,-2.06261900000000,B61 8DJ,2014-07-14,fhrs_3_en-GB,3,,FHRS,10
327738,The Wendy House Day Nursery,Chapel Lane,Wythall,Birmingham,The Wendy House Limited,Hospitals/Childcare/Caring Premises,5,0,,672479,0,,52.37227700000000,BD/PI/000022834,145,wrsenquiries@worcestershire.gov.uk,Bromsgrove,http://www.worcsregservices.gov.uk,-1.89368500000000,B47 6JX,2013-05-29,fhrs_4_en-GB,4,,FHRS,10
327739,Waseley Country Park,Gannow Green Lane,Rubery,Birmingham,The Windmill Cafe,Restaurant/Cafe/Canteen,1,5,,672456,10,,52.40218200000000,BD/PI/000021173,145,wrsenquiries@worcestershire.gov.uk,Bromsgrove,http://www.worcsregservices.gov.uk,-2.04235900000000,B45 9AT,2012-11-22,fhrs_3_en-GB,3,,FHRS,10
327740,Three Roses Homes,Bromsgrove Road,Clent,Worcestershire,Three Roses Homes Ltd,Hospitals/Childcare/Caring Premises,5,0,,672227,0,,52.40685400000000,BD/PI/000002660,145,wrsenquiries@worcestershire.gov.uk,Bromsgrove,http://www.worcsregservices.gov.uk,-2.11365700000000,DY9 9QP,2010-10-01,fhrs_5_en-GB,5,,FHRS,5
327741,Tinos Pizza,170 New Road,Rubery,Birmingham,Tino's Pizza,Takeaway/sandwich shop,7844,5,,672318,5,,52.39328800000000,BD/PI/000010674,145,wrsenquiries@worcestershire.gov.uk,Bromsgrove,http://www.worcsregservices.gov.uk,-2.01747100000000,B45 9JA,2013-05-16,fhrs_5_en-GB,5,,FHRS,5
327742,The Marlbrook,462 Birmingham Road,Catshill,Bromsgrove,Toby Carvery Marlbrook,Pub/bar/nightclub,7843,0,,684279,0,,52.36446700000000,BD/PI/000001802,145,wrsenquiries@worcestershire.gov.uk,Bromsgrove,http://www.worcsregservices.gov.uk,-2.04603800000000,B61 0HR,2014-07-02,fhrs_5_en-GB,5,,FHRS,5
327743,Layby Adjacent To Gorse Green Lane,Stourbridge Road,Belbroughton,Worcestershire,Tracey's Diner,Mobile caterer,7846,0,,672138,5,,,BD/09/00079/MOBILE,145,wrsenquiries@worcestershire.gov.uk,Bromsgrove,http://www.worcsregservices.gov.uk,,,2009-08-28,fhrs_5_en-GB,5,,FHRS,0
327744,Trans Takeaway,4 Red Lion Street,Alvechurch,Birmingham,Trans Takeaway,Takeaway/sandwich shop,7844,20,,672343,15,,52.35290800000000,BD/PI/000012276,145,wrsenquiries@worcestershire.gov.uk,Bromsgrove,http://www.worcsregservices.gov.uk,-1.96040200000000,B48 7LF,2015-01-20,fhrs_1_en-GB,1,,FHRS,10
327745,Birmingham & Midlands Museum Of Tra,Chapel Lane,Wythall,Birmingham,Transport Museum,Other catering premises,7841,0,,672126,0,,52.37227700000000,BD/09/00016/COMM,145,wrsenquiries@worcestershire.gov.uk,Bromsgrove,http://www.worcsregservices.gov.uk,-1.89368500000000,B47 6JX,2013-07-02,fhrs_5_en-GB,5,,FHRS,5
327746,2 Finstall Road,Bromsgrove,Worcestershire,,Travelodge,Hotel/bed & breakfast/guest house,7842,0,,684258,0,,52.32308500000000,BD/GPI/000005642,145,wrsenquiries@worcestershire.gov.uk,Bromsgrove,http://www.worcsregservices.gov.uk,-2.04744700000000,B60 2DZ,2010-08-12,fhrs_5_en-GB,5,,FHRS,5
327747,2 Bear Hill,Alvechurch,Birmingham,Worcestershire,Tudor Rose Fish Bar,Takeaway/sandwich shop,7844,10,,672203,10,,52.35154200000000,BD/PI/000001242,145,wrsenquiries@worcestershire.gov.uk,Bromsgrove,http://www.worcsregservices.gov.uk,-1.96085800000000,B48 7JX,2014-11-26,fhrs_3_en-GB,3,,FHRS,10
327748,Tutnall Lane,Tutnall,Bromsgrove,Worcestershire,Tutnall Hall,Hospitals/Childcare/Caring Premises,5,0,,672397,5,,52.32980900000000,BD/PI/000015394,145,wrsenquiries@worcestershire.gov.uk,Bromsgrove,http://www.worcsregservices.gov.uk,-2.01741700000000,B60 1NA,2014-07-10,fhrs_5_en-GB,5,,FHRS,0
327749,The Uplands,33 Greenhill,Burcot,Bromsgrove,Uplands,Hospitals/Childcare/Caring Premises,5,0,,672263,0,,52.34768100000000,BD/PI/000006559,145,wrsenquiries@worcestershire.gov.uk,Bromsgrove,http://www.worcsregservices.gov.uk,-2.01651400000000,B60 1BL,2010-02-15,fhrs_5_en-GB,5,,FHRS,0
327750,Va Bene,127 Worcester Road,Hagley,Stourbridge,Va Bene Restaurant,Restaurant/Cafe/Canteen,1,5,,672419,5,,52.42089100000000,BD/PI/000016967,145,wrsenquiries@worcestershire.gov.uk,Bromsgrove,http://www.worcsregservices.gov.uk,-2.14345500000000,DY9 0NW,2013-06-17,fhrs_5_en-GB,5,,FHRS,5
327751,113 Hewell Road,Barnt Green,Birmingham,Worcestershire,Victoria Inn,Restaurant/Cafe/Canteen,1,5,,672283,5,,52.35964800000000,BD/PI/000007396,145,wrsenquiries@worcestershire.gov.uk,Bromsgrove,http://www.worcsregservices.gov.uk,-1.99064500000000,B45 8NW,2013-10-02,fhrs_5_en-GB,5,,FHRS,5
327752,115 Golden Cross Lane,Catshill,Bromsgrove,Worcestershire,Village Bakery,Retailers - other,4613,10,,672256,5,,52.36390500000000,BD/PI/000006250,145,wrsenquiries@worcestershire.gov.uk,Bromsgrove,http://www.worcsregservices.gov.uk,-2.05686100000000,B61 0LA,2013-06-26,fhrs_3_en-GB,3,,FHRS,10
327753,Holt Hill,Beoley,Redditch,Worcestershire,Village Inn,Pub/bar/nightclub,7843,10,,672292,10,,52.32453500000000,BD/PI/000007937,145,wrsenquiries@worcestershire.gov.uk,Bromsgrove,http://www.worcsregservices.gov.uk,-1.88911900000000,B98 9AT,2013-03-09,fhrs_3_en-GB,3,,FHRS,10
327754,Vine Lane,Clent,Stourbridge,Worcestershire,Vine Inn,Pub/bar/nightclub,7843,10,,672449,10,,52.41311900000000,BD/PI/000020343,145,wrsenquiries@worcestershire.gov.uk,Bromsgrove,http://www.worcsregservices.gov.uk,-2.10517600000000,DY9 9PH,2014-01-22,fhrs_3_en-GB,3,,FHRS,10
327755,186 New Road,Rubery,Birmingham,Worcestershire,W. & J. Mason,Retailers - other,4613,10,,672323,5,,52.39328800000000,BD/PI/000010693,145,wrsenquiries@worcestershire.gov.uk,Bromsgrove,http://www.worcsregservices.gov.uk,-2.01747100000000,B45 9JA,2013-03-18,fhrs_3_en-GB,3,,FHRS,10
327756,89 Hewell Road,Barnt Green,Birmingham,Worcestershire,Warwicks Butchers,Retailers - other,4613,5,,672282,5,,52.36150000000000,BD/PI/000007391,145,wrsenquiries@worcestershire.gov.uk,Bromsgrove,http://www.worcsregservices.gov.uk,-1.99002800000000,B45 8NL,2014-10-09,fhrs_5_en-GB,5,,FHRS,5
327757,Wassell Grove Lane,Hagley,Stourbridge,Worcestershire,Wassell Grove Fisheries,Takeaway/sandwich shop,7844,5,,672405,5,,52.44116400000000,BD/PI/000015815,145,wrsenquiries@worcestershire.gov.uk,Bromsgrove,http://www.worcsregservices.gov.uk,-2.09935800000000,DY9 9JH,2014-09-08,fhrs_4_en-GB,4,,FHRS,10
327758,25 New Road,Bromsgrove,Worcestershire,,Wayside Residential Home,Hospitals/Childcare/Caring Premises,5,0,,672313,0,,52.33322000000000,BD/PI/000010551,145,wrsenquiries@worcestershire.gov.uk,Bromsgrove,http://www.worcsregservices.gov.uk,-2.05906600000000,B60 2JQ,2014-10-01,fhrs_5_en-GB,5,,FHRS,5
327759,Hurrans Garden Centre,155 Kidderminster Road South,Hagley,Stourbridge,Webbs West Hagley,Restaurant/Cafe/Canteen,1,5,,672301,0,,52.41148000000000,BD/PI/000008405,145,wrsenquiries@worcestershire.gov.uk,Bromsgrove,http://www.worcsregservices.gov.uk,-2.15662600000000,DY9 0JB,2014-10-03,fhrs_5_en-GB,5,,FHRS,5
327760,The Weighbridge,Scarfield Hill,Alvechurch,Birmingham,Weighbridge Public House,Pub/bar/nightclub,7843,5,,672441,5,,52.34743700000000,BD/PI/000019863,145,wrsenquiries@worcestershire.gov.uk,Bromsgrove,http://www.worcsregservices.gov.uk,-1.97363300000000,B48 7SQ,2013-09-02,fhrs_5_en-GB,5,,FHRS,5
327761,49 Wellington Road,Bromsgrove,Worcestershire,,Wellington Lodge Bed & Breakfast,Hotel/bed & breakfast/guest house,7842,10,,672481,0,,52.32623800000000,BD/PI/000023042,145,wrsenquiries@worcestershire.gov.uk,Bromsgrove,http://www.worcsregservices.gov.uk,-2.05312900000000,B60 2AX,2010-10-21,fhrs_4_en-GB,4,,FHRS,0
327762,Minh's Restaurant & West One Bar,159 Worcester Road,Hagley,Worcestershire,West One Hagley Limited,Restaurant/Cafe/Canteen,1,5,,672459,5,,52.42089100000000,BD/PI/000021334,145,wrsenquiries@worcestershire.gov.uk,Bromsgrove,http://www.worcsregservices.gov.uk,-2.14345500000000,DY9 0NW,2014-10-03,fhrs_5_en-GB,5,,FHRS,0
327763,Birmingham Road,Hopwood,Birmingham,Worcestershire,Westmead Hotel,Hotel/bed & breakfast/guest house,7842,10,,672338,5,,52.37785500000000,BD/PI/000012207,145,wrsenquiries@worcestershire.gov.uk,Bromsgrove,http://www.worcsregservices.gov.uk,-1.95822000000000,B48 7AL,2014-09-16,fhrs_4_en-GB,4,,FHRS,5
327764,Alcester Road,Wythall,Birmingham,Worcestershire,White Swan Inn,Pub/bar/nightclub,7843,5,,684264,5,,52.38192300000000,BD/PI/000000256,145,wrsenquiries@worcestershire.gov.uk,Bromsgrove,http://www.worcsregservices.gov.uk,-1.88423000000000,B47 6JG,2014-05-12,fhrs_5_en-GB,5,,FHRS,5
327765,Wildmoor Oak [PH],Top Road,Wildmoor,Worcestershire,Wildmoor Oak,Pub/bar/nightclub,7843,5,,672396,5,,52.38104900000000,BD/PI/000015340,145,wrsenquiries@worcestershire.gov.uk,Bromsgrove,http://www.worcsregservices.gov.uk,-2.05716200000000,B61 0RB,2013-03-21,fhrs_5_en-GB,5,,FHRS,5
327766,Wing Lee Chinese Takeaway,3A Hanover Street,Bromsgrove,Worcestershire,Wing Lee,Takeaway/sandwich shop,7844,5,,672273,5,,52.33269600000000,BD/PI/000006933,145,wrsenquiries@worcestershire.gov.uk,Bromsgrove,http://www.worcsregservices.gov.uk,-2.06449600000000,B61 7JH,2014-09-17,fhrs_4_en-GB,4,,FHRS,10
327767,10 Church Street,Bromsgrove,Worcestershire,,Wok Kitchen,Takeaway/sandwich shop,7844,10,,697288,5,,52.33531400000000,BD/09/00081/COMM,145,wrsenquiries@worcestershire.gov.uk,Bromsgrove,http://www.worcsregservices.gov.uk,-2.06127100000000,B61 8DD,2013-07-04,fhrs_4_en-GB,4,,FHRS,5
327768,Woodlands,Coopers Hill,Alvechurch,Birmingham,Woodlands Bed And Breakfast,Hotel/bed & breakfast/guest house,7842,0,,672490,0,,52.35454100000000,BD/PI/000023444,145,wrsenquiries@worcestershire.gov.uk,Bromsgrove,http://www.worcsregservices.gov.uk,-1.98276100000000,B48 7BX,2010-07-29,fhrs_5_en-GB,5,,FHRS,0
327769,Shawhurst Lane,Hollywood,Birmingham,Worcestershire,Woodrush High School,School/college/university,7845,0,,672363,0,,52.39033900000000,BD/PI/000013304,145,wrsenquiries@worcestershire.gov.uk,Bromsgrove,http://www.worcsregservices.gov.uk,-1.87621400000000,B47 5JN,2014-09-09,fhrs_5_en-GB,5,,FHRS,5
327770,Woodrush Rugby Football Club,Icknield Street,Beoley,Birmingham,Woodrush Rugby FC,Other catering premises,7841,10,,672297,10,,52.38309500000000,BD/PI/000008196,145,wrsenquiries@worcestershire.gov.uk,Bromsgrove,http://www.worcsregservices.gov.uk,-1.92085400000000,B38 0EL,2014-09-17,fhrs_4_en-GB,4,,FHRS,0
327771,,,,,Worcestershire Mental Health Trust,Hospitals/Childcare/Caring Premises,5,,,684426,,,,BD/PI/000014186,145,wrsenquiries@worcestershire.gov.uk,Bromsgrove,http://www.worcsregservices.gov.uk,,,2010-08-26,fhrs_exempt_en-GB,Exempt,,FHRS,
327772,Princess Of Wales Hospital,Stourbridge Road,Bromsgrove,Worcestershire,WRVS Coffee Shop,Other catering premises,7841,0,,684232,0,,52.34373100000000,BD/10/00130/COMM,145,wrsenquiries@worcestershire.gov.uk,Bromsgrove,http://www.worcsregservices.gov.uk,-2.05727500000000,B61 0BB,2014-10-20,fhrs_5_en-GB,5,,FHRS,0
327773,14 Birmingham Road,Hagley,Worcestershire,,Wychbury Inn,Pub/bar/nightclub,7843,5,,672486,5,,52.42623100000000,BD/PI/000023227,145,wrsenquiries@worcestershire.gov.uk,Bromsgrove,http://www.worcsregservices.gov.uk,-2.12784000000000,DY9 9LZ,2013-08-20,fhrs_5_en-GB,5,,FHRS,5
327774,Silver Street,Wythall,Birmingham,Worcestershire,Wythall Community Club,Pub/bar/nightclub,7843,,,672366,,,52.38353800000000,BD/PI/000013588,145,wrsenquiries@worcestershire.gov.uk,Bromsgrove,http://www.worcsregservices.gov.uk,-1.89023500000000,B47 6LZ,2010-02-10,fhrs_exempt_en-GB,Exempt,,FHRS,
327775,241 Station Road,Wythall,Birmingham,Worcestershire,Wythall Residential Home,Hospitals/Childcare/Caring Premises,5,10,,672372,10,,52.37811400000000,BD/PI/000013995,145,wrsenquiries@worcestershire.gov.uk,Bromsgrove,http://www.worcsregservices.gov.uk,-1.86887400000000,B47 6ET,2013-12-09,fhrs_3_en-GB,3,,FHRS,10
327776,Ye Olde Horseshoe,33 High Street,Belbroughton,Stourbridge,Ye Olde Horseshoe Inn,Pub/bar/nightclub,7843,5,,672285,10,,52.39160100000000,BD/PI/000007510,145,wrsenquiries@worcestershire.gov.uk,Bromsgrove,http://www.worcsregservices.gov.uk,-2.11962800000000,DY9 9SY,2014-12-17,fhrs_4_en-GB,4,,FHRS,5
327777,Layby Adjacent Mearse Lane,Stourbridge Road,Hagley,Worcestershire,Yee-Haa Snack Bar,Mobile caterer,7846,20,,672137,15,,52.42101600000000,BD/09/00072/MOBILE,145,wrsenquiries@worcestershire.gov.uk,Bromsgrove,http://www.worcsregservices.gov.uk,-2.13095200000000,,2015-01-09,fhrs_1_en-GB,1,,FHRS,15
327778,Yew Tree Nursing Home,1 Yew Tree Place,Romsley,Worcestershire,Yew Trees Nursing Home,Hospitals/Childcare/Caring Premises,5,0,,672355,0,,52.41820300000000,BD/PI/000012845,145,wrsenquiries@worcestershire.gov.uk,Bromsgrove,http://www.worcsregservices.gov.uk,-2.06040100000000,B62 0NX,2014-09-15,fhrs_5_en-GB,5,,FHRS,0
327779,Peartree Villas,3 Stoke Road,Bromsgrove,Worcestershire,Zinga,Restaurant/Cafe/Canteen,1,10,,672141,10,,52.32286800000000,BD/09/00094/COMM,145,wrsenquiries@worcestershire.gov.uk,Bromsgrove,http://www.worcsregservices.gov.uk,-2.04923700000000,B60 3EQ,2013-01-17,fhrs_3_en-GB,3,,FHRS,5
