,addressline1,addressline2,addressline3,addressline4,businessname,businesstype,businesstypeid,confidenceinmanagement,extractdate,fhrsid,hygiene,itemcount,latitude,localauthoritybusinessid,localauthoritycode,localauthorityemailaddress,localauthorityname,localauthoritywebsite,longitude,postcode,ratingdate,ratingkey,ratingvalue,returncode,schemetype,structural
336471,The Pavilion,Victoria Park Road,Malvern,Worcestershire,3Sixty Coffee House,Restaurant/Cafe/Canteen,1,5,,684589,5,,52.12760300000000,13/00104/FOOD,148,wrsenquiries@worcsregservices.gov.uk,Malvern Hills,http://www.worcsregservices.gov.uk,-2.31378500000000,WR14 2JY,2013-09-13,fhrs_5_en-GB,5,,FHRS,0
336472,Riverside House,Rhydd,Hanley Castle,Worcester,Aalps (Midlands),School/college/university,7845,5,,672782,5,,52.10429200000000,MH/B15ZHCRHYD/1,148,wrsenquiries@worcsregservices.gov.uk,Malvern Hills,http://www.worcsregservices.gov.uk,-2.24070800000000,WR8 0AD,2014-01-03,fhrs_5_en-GB,5,,FHRS,5
336473,Manchester House,Stockton Road,Abberley,Worcestershire,Abberley General Stores,Retailers - other,4613,5,,672844,5,,52.21087646484380,MH/K031ABSTOC/1,148,wrsenquiries@worcsregservices.gov.uk,Malvern Hills,http://www.worcsregservices.gov.uk,-2.20981502532959,WR6 6AP,2013-03-21,fhrs_5_en-GB,5,,FHRS,5
336474,Abberley Hall Ltd,Abberley,Worcester,,Abberley Hall School,School/college/university,7845,0,,672779,0,,52.29590100000000,MH/B15ZABABBE/1,148,wrsenquiries@worcsregservices.gov.uk,Malvern Hills,http://www.worcsregservices.gov.uk,-2.37632400000000,WR6 6DD,2014-09-30,fhrs_5_en-GB,5,,FHRS,5
336475,Abbey Road,Malvern,Worcestershire,,Abbey Hotel,Hotel/bed & breakfast/guest house,7842,0,,672918,0,,52.11030900000000,MH/M015XPABBE/1,148,wrsenquiries@worcsregservices.gov.uk,Malvern Hills,http://www.worcsregservices.gov.uk,-2.32912700000000,WR14 3ET,2011-11-09,fhrs_4_en-GB,4,,FHRS,10
336476,49 Hanley Road,Malvern,Worcestershire,,Abbey House,Hospitals/Childcare/Caring Premises,5,5,,672954,5,,52.07969300000000,MH/N014MW49HA/1,148,wrsenquiries@worcsregservices.gov.uk,Malvern Hills,http://www.worcsregservices.gov.uk,-2.32347300000000,WR14 4HZ,2015-01-02,fhrs_5_en-GB,5,,FHRS,5
336477,Albion Lodge,Hanley Swan,Worcester,,Albion Lodge Retirement Home,Hospitals/Childcare/Caring Premises,5,5,,672969,5,,52.08382200000000,MH/N036HCHANL/1,148,wrsenquiries@worcsregservices.gov.uk,Malvern Hills,http://www.worcsregservices.gov.uk,-2.26523100000000,WR8 0DN,2014-04-07,fhrs_5_en-GB,5,,FHRS,5
336478,Tenbury High School,Tenbury High School,Oldwood Road,"Tenbury Wells, Worcestershire",Alliance in Partnership @ Tenbury High School,School/college/university,7845,5,,672771,5,,52.30427200000000,MH/B154TETENB/1,148,wrsenquiries@worcsregservices.gov.uk,Malvern Hills,http://www.worcsregservices.gov.uk,-2.59809900000000,WR15 8XA,2014-10-22,fhrs_5_en-GB,5,,FHRS,5
336479,8 Coppice Close,Hallow,Worcester,,Americano Ices,Retailers - other,4613,10,,672872,5,,52.23082100000000,MH/K374HA8COP/1,148,wrsenquiries@worcsregservices.gov.uk,Malvern Hills,http://www.worcsregservices.gov.uk,-2.25495100000000,WR2 6JR,2010-05-02,fhrs_4_en-GB,4,,FHRS,5
336480,69 Main Road,Kempsey,Worcester,,Anchor Inn,Pub/bar/nightclub,7843,5,,672658,5,,52.13729000000000,MH/B034KM69MA/2,148,wrsenquiries@worcsregservices.gov.uk,Malvern Hills,http://www.worcsregservices.gov.uk,-2.21632500000000,WR5 3NB,2012-07-05,fhrs_5_en-GB,5,,FHRS,5
336481,18 Marlborough Gardens,Malvern,Worcestershire,,Andys Snack Shack,Mobile caterer,7846,5,,672888,10,,52.13573800000000,MH/K43ZXL18MA/1,148,wrsenquiries@worcsregservices.gov.uk,Malvern Hills,http://www.worcsregservices.gov.uk,-2.31428000000000,WR14 1EH,2014-12-03,fhrs_4_en-GB,4,,FHRS,5
336482,Ballard Mill,Stockton Road,Abberley,Worcester,Angela Veronica Cakes,Retailers - other,4613,5,,672805,0,,52.30081100000000,MH/B31ZABSTOC/1,148,wrsenquiries@worcsregservices.gov.uk,Malvern Hills,http://www.worcsregservices.gov.uk,-2.39240900000000,WR6 6AT,2010-11-18,fhrs_5_en-GB,5,,FHRS,0
336483,Aldens Farm,Barbers Lane,Martley,Worcester,Anna Brazier And Sarah Cole,Retailers - other,4613,5,,703221,5,,52.24222700000000,14/00903/FOOD,148,wrsenquiries@worcsregservices.gov.uk,Malvern Hills,http://www.worcsregservices.gov.uk,-2.35338900000000,WR6 6QD,2014-09-13,fhrs_5_en-GB,5,,FHRS,5
336484,Dunstan Villa,Rochford,Tenbury Wells,Worcestershire,Anns Kitchen,Retailers - other,4613,10,,672801,10,,52.30183100000000,MH/B29ZROROCH/1,148,wrsenquiries@worcsregservices.gov.uk,Malvern Hills,http://www.worcsregservices.gov.uk,-2.53339300000000,WR15 8SP,2014-01-21,fhrs_3_en-GB,3,,FHRS,10
336485,85 Church Street,Malvern,Worcestershire,,Anupam,Restaurant/Cafe/Canteen,1,5,,672688,0,,52.11162500000000,MH/B054XP85CH/1,148,wrsenquiries@worcsregservices.gov.uk,Malvern Hills,http://www.worcsregservices.gov.uk,-2.32777800000000,WR14 2AE,2012-10-23,fhrs_5_en-GB,5,,FHRS,5
336486,Unit 8 Spring Lane North,Malvern,Worcestershire,,Asha Dial-a-Curry,Takeaway/sandwich shop,7844,0,,672751,0,,52.12739500000000,MH/B094XLUNIT/2,148,wrsenquiries@worcsregservices.gov.uk,Malvern Hills,http://www.worcsregservices.gov.uk,-2.30766200000000,WR14 1BU,2011-11-01,fhrs_5_en-GB,5,,FHRS,5
336487,8 Belle Vue Terrace,Malvern,Worcestershire,,ASK,Restaurant/Cafe/Canteen,1,5,,672716,0,,52.11135800000000,MH/B074XP6-8B/1,148,wrsenquiries@worcsregservices.gov.uk,Malvern Hills,http://www.worcsregservices.gov.uk,-2.33018600000000,WR14 4PZ,2015-01-14,fhrs_5_en-GB,5,,FHRS,5
336488,Weather Lane,Astley Burf,"Stourport-On-Severn, Worcester",,Astley Burf Outdoor Ed. Centre,School/college/university,7845,5,,672780,5,,52.31021900000000,MH/B15ZASWEAT/1,148,wrsenquiries@worcsregservices.gov.uk,Malvern Hills,http://www.worcsregservices.gov.uk,-2.28807200000000,DY13 0SF,2014-09-05,fhrs_5_en-GB,5,,FHRS,5
336489,Astley And Dunley Village Hall,Ridleys Cross,Astley,"Stourport-On-Severn, Worcester",Astley Club,Other catering premises,7841,10,,672765,5,,52.21087646484380,MH/B117ASRIDL/1,148,wrsenquiries@worcsregservices.gov.uk,Malvern Hills,http://www.worcsregservices.gov.uk,-2.20981502532959,DY13 0UE,2011-07-11,fhrs_4_en-GB,4,,FHRS,5
336490,23 Avenue Road,Malvern,Worcestershire,,Avenue Care Home,Hospitals/Childcare/Caring Premises,5,0,,672977,0,,52.10938800000000,MH/N036XC23AV/1,148,wrsenquiries@worcsregservices.gov.uk,Malvern Hills,http://www.worcsregservices.gov.uk,-2.31399200000000,WR14 3AY,2015-02-06,fhrs_5_en-GB,5,,FHRS,5
336491,Barbers,B4204 Martley,Martley,Worcester,B & B @ Barbers,Hotel/bed & breakfast/guest house,7842,5,,684594,10,,52.23739500000000,13/00278/FOOD,148,wrsenquiries@worcsregservices.gov.uk,Malvern Hills,http://www.worcsregservices.gov.uk,-2.35780200000000,WR6 6QA,2013-07-31,fhrs_4_en-GB,4,,FHRS,5
336492,Pool Lane,Clows Top,"Kidderminster, Worcestershire",,Badgers Walk Country Hotel,Restaurant/Cafe/Canteen,1,10,,672665,5,,52.35190700000000,MH/B054BAPOOL/1,148,wrsenquiries@worcsregservices.gov.uk,Malvern Hills,http://www.worcsregservices.gov.uk,-2.42228300000000,DY14 9NT,2013-08-13,fhrs_4_en-GB,4,,FHRS,5
336493,36 Old Street,Upton-Upon-Severn,Worcester,,Banjos,Takeaway/sandwich shop,7844,10,,672741,5,,52.06199000000000,MH/B094UP36OL/1,148,wrsenquiries@worcsregservices.gov.uk,Malvern Hills,http://www.worcsregservices.gov.uk,-2.21839600000000,WR8 0HW,2014-12-03,fhrs_3_en-GB,3,,FHRS,10
336494,Bank House Hotel,A4103 Bransford,Bransford,Worcester,"Bank House Hotel, Golf & Country Club",Hotel/bed & breakfast/guest house,7842,5,,672902,0,,52.16995500000000,MH/M015BRBRAN/1,148,wrsenquiries@worcsregservices.gov.uk,Malvern Hills,http://www.worcsregservices.gov.uk,-2.30093800000000,WR6 5JD,2014-11-11,fhrs_4_en-GB,4,,FHRS,10
336495,78 Barnards Green Road,Malvern,Worcestershire,,Barnards Green Butchers,Retailers - other,4613,5,,672855,5,,52.10837000000000,MH/K051XC78BA/1,148,wrsenquiries@worcsregservices.gov.uk,Malvern Hills,http://www.worcsregservices.gov.uk,-2.31135700000000,WR14 3LY,2012-11-16,fhrs_5_en-GB,5,,FHRS,5
336496,North End Lane,Malvern,Worcestershire,,Barnards Green Cricket Club,Pub/bar/nightclub,7843,5,,672764,5,,52.11946800000000,MH/B114XGNORT/1,148,wrsenquiries@worcsregservices.gov.uk,Malvern Hills,http://www.worcsregservices.gov.uk,-2.30994500000000,WR14 2ET,2008-11-24,fhrs_5_en-GB,5,,FHRS,5
336497,Unit 3,74 Barnards Green Road,Malvern,Worcestershire,Barnards Green Fish Bar,Takeaway/sandwich shop,7844,5,,672743,5,,52.10837000000000,MH/B094XC74BA/1,148,wrsenquiries@worcsregservices.gov.uk,Malvern Hills,http://www.worcsregservices.gov.uk,-2.31135700000000,WR14 3LY,2014-09-16,fhrs_5_en-GB,5,,FHRS,5
336498,Bear And Ragged Staff,Station Road,Bransford,Worcester,Bear and Ragged Staff,Pub/bar/nightclub,7843,5,,672612,0,,52.16668100000000,MH/B014BRSTAT/1,148,wrsenquiries@worcsregservices.gov.uk,Malvern Hills,http://www.worcsregservices.gov.uk,-2.28704100000000,WR6 5JH,2013-08-07,fhrs_5_en-GB,5,,FHRS,5
336499,Fernlea,Broadmore Green,Rushwick,Worcester,Beckys Bhajis,Mobile caterer,7846,5,,715278,5,,52.18127100000000,13/00080/FOOD,148,wrsenquiries@worcsregservices.gov.uk,Malvern Hills,http://www.worcsregservices.gov.uk,-2.27262700000000,WR2 5TE,2013-02-19,fhrs_5_en-GB,5,,FHRS,0
336500,Bedwardine House,Upper Wick Lane,Rushwick,Worcester,Bedwardine House Rest Home,Hospitals/Childcare/Caring Premises,5,0,,672972,0,,52.17804200000000,MH/N036RUUPPE/1,148,wrsenquiries@worcsregservices.gov.uk,Malvern Hills,http://www.worcsregservices.gov.uk,-2.25752900000000,WR2 5SU,2014-11-03,fhrs_5_en-GB,5,,FHRS,5
336501,Beechwood Retirement Home,Ryall Road,Holly Green,Upton Upon Severn,Beechwood Care Home (Sanctuary Care),Hospitals/Childcare/Caring Premises,5,5,,672593,5,,52.06386300000000,14/00673/FOOD,148,wrsenquiries@worcsregservices.gov.uk,Malvern Hills,http://www.worcsregservices.gov.uk,-2.20157200000000,WR8 0RR,2014-03-14,fhrs_5_en-GB,5,,FHRS,0
336502,Martley Road,Lower Broadheath,Worcester,,Bell Inn,Pub/bar/nightclub,7843,10,,672609,10,,52.20908700000000,MH/B014BHMART/2,148,wrsenquiries@worcsregservices.gov.uk,Malvern Hills,http://www.worcsregservices.gov.uk,-2.27269500000000,WR2 6QG,2014-06-19,fhrs_3_en-GB,3,,FHRS,10
336503,32 Belle Vue Terrace,Malvern,Worcestershire,,Belle Vue Delicatessen,Retailers - other,4613,5,,684941,5,,52.11135800000000,MH/K251XP32BE/1,148,wrsenquiries@worcsregservices.gov.uk,Malvern Hills,http://www.worcsregservices.gov.uk,-2.33018600000000,WR14 4PZ,2014-10-27,fhrs_5_en-GB,5,,FHRS,5
336504,5 Church Walk,Malvern,Worcestershire,,Benedictos,Restaurant/Cafe/Canteen,1,0,,672686,0,,52.11165100000000,MH/B054XP5CHU/1,148,wrsenquiries@worcsregservices.gov.uk,Malvern Hills,http://www.worcsregservices.gov.uk,-2.32824600000000,WR14 2XH,2015-01-03,fhrs_5_en-GB,5,,FHRS,5
336505,5-7 Worcester Road,Malvern,Worcestershire,,Bengal Brasserie,Restaurant/Cafe/Canteen,1,10,,672687,15,,52.11269700000000,MH/B054XP5WOR/1,148,wrsenquiries@worcsregservices.gov.uk,Malvern Hills,http://www.worcsregservices.gov.uk,-2.33040000000000,WR14 4QY,2014-08-26,fhrs_2_en-GB,2,,FHRS,15
336506,Village Hall,Berrow,Worcestershire,,Berrow/Pendock Village Hall,Other catering premises,7841,0,,684740,5,,52.00857300000000,MH/D454BEVILL/1,148,wrsenquiries@worcsregservices.gov.uk,Malvern Hills,http://www.worcsregservices.gov.uk,-2.30155800000000,WR13 6JN,2004-11-08,fhrs_5_en-GB,5,,FHRS,5
336507,Blackmore Park Road,Welland,"Malvern, Worcestershire",,Berry Lodge  Farm,Hotel/bed & breakfast/guest house,7842,5,,672928,5,,52.07145900000000,MH/M055HCBLAC/2,148,wrsenquiries@worcsregservices.gov.uk,Malvern Hills,http://www.worcsregservices.gov.uk,-2.29925300000000,WR13 6NL,2008-03-10,fhrs_5_en-GB,5,,FHRS,0
336508,The Old Stables,Pigeon House Farm,Lime Street,Eldersfield,Best of Taste Catering,Other catering premises,7841,5,,672796,0,,51.97912400000000,MH/B294ELPIGE/1,148,wrsenquiries@worcsregservices.gov.uk,Malvern Hills,http://www.worcsregservices.gov.uk,-2.27757000000000,GL19 4NW,2010-07-22,fhrs_5_en-GB,5,,FHRS,0
336509,Birtsmorton Court,Birtsmorton,Malvern,Worcestershire,Birtsmorton Court Ltd,Restaurant/Cafe/Canteen,1,5,,672693,5,,52.01708400000000,MH/B05ZBIBIRT/1,148,wrsenquiries@worcsregservices.gov.uk,Malvern Hills,http://www.worcsregservices.gov.uk,-2.29198300000000,WR13 6JS,2013-07-09,fhrs_5_en-GB,5,,FHRS,5
336510,Land At Rear,38 Backfields,Upton-Upon-Severn,Worcester,Bishops Catering,Mobile caterer,7846,0,,672793,0,,52.06237600000000,MH/B274UP38BA/1,148,wrsenquiries@worcsregservices.gov.uk,Malvern Hills,http://www.worcsregservices.gov.uk,-2.21871900000000,WR8 0JH,2008-07-26,fhrs_5_en-GB,5,,FHRS,5
336511,Units 1 And 2,Link Business Centre,Link Way,Malvern,Black Pepper School Lunches,School/college/university,7845,5,,672776,10,,52.12841800000000,MH/B154XTLINK/1,148,wrsenquiries@worcsregservices.gov.uk,Malvern Hills,http://www.worcsregservices.gov.uk,-2.32167900000000,WR14 1UQ,2014-02-26,fhrs_3_en-GB,3,,FHRS,10
336512,Malvern Library,Graham Road,Malvern,Worcestershire,Bloem in the Library,Restaurant/Cafe/Canteen,1,0,,672719,0,,52.11437700000000,MH/B074XPGRAH/2,148,wrsenquiries@worcsregservices.gov.uk,Malvern Hills,http://www.worcsregservices.gov.uk,-2.32756500000000,WR14 2HU,2010-03-26,fhrs_5_en-GB,5,,FHRS,5
336513,35 Upton Road,Callow End,Worcester,,Blue Bell Inn,Pub/bar/nightclub,7843,5,,672634,5,,52.14674500000000,MH/B014PO35UP/2,148,wrsenquiries@worcsregservices.gov.uk,Malvern Hills,http://www.worcsregservices.gov.uk,-2.24079100000000,WR2 4TY,2014-12-05,fhrs_5_en-GB,5,,FHRS,5
336514,9 Church Street,Malvern,Worcestershire,,Blue Bird Tea Rooms,Restaurant/Cafe/Canteen,1,0,,672717,5,,52.11158500000000,MH/B074XP9CHU/3,148,wrsenquiries@worcsregservices.gov.uk,Malvern Hills,http://www.worcsregservices.gov.uk,-2.32916500000000,WR14 2AA,2013-06-18,fhrs_5_en-GB,5,,FHRS,0
336515,Gilvers Lane,Hanley Castle,Worcestershire,,Board Oak Trout Lakes,Restaurant/Cafe/Canteen,1,10,,672723,5,,52.07085100000000,MH/B077HCGILV/1,148,wrsenquiries@worcsregservices.gov.uk,Malvern Hills,http://www.worcsregservices.gov.uk,-2.27204000000000,WR8 0AT,2008-07-10,fhrs_4_en-GB,4,,FHRS,5
336516,34 Worcester Road,Malvern,Worcestershire,,Bredon House Guest House,Hotel/bed & breakfast/guest house,7842,5,,672914,0,,52.11469500000000,MH/M015XP34WO/1,148,wrsenquiries@worcsregservices.gov.uk,Malvern Hills,http://www.worcsregservices.gov.uk,-2.32959700000000,WR14 4AA,2010-03-03,fhrs_5_en-GB,5,,FHRS,0
336517,Lower Dingle,Malvern,Worcestershire,,Brewers Arms,Pub/bar/nightclub,7843,5,,672650,5,,52.10854200000000,MH/B014WMTHED/2,148,wrsenquiries@worcsregservices.gov.uk,Malvern Hills,http://www.worcsregservices.gov.uk,-2.34630000000000,WR14 4BQ,2013-11-11,fhrs_5_en-GB,5,,FHRS,5
336518,Old Bank House,Clows Top,Kidderminster,Worcestershire,Brians Butchers,Retailers - other,4613,5,,672847,5,,52.34426100000000,MH/K051BACLOW/1,148,wrsenquiries@worcsregservices.gov.uk,Malvern Hills,http://www.worcsregservices.gov.uk,-2.42100700000000,DY14 9HL,2014-12-12,fhrs_4_en-GB,4,,FHRS,10
336519,Poolbrook Centre,Bluebell Close,Malvern,Worcestershire,Brighter Futures Nursery,Hospitals/Childcare/Caring Premises,5,0,,672838,0,,52.10480900000000,MH/I119MWBLUE/1,148,wrsenquiries@worcsregservices.gov.uk,Malvern Hills,http://www.worcsregservices.gov.uk,-2.30128700000000,WR14 3SW,2014-07-07,fhrs_5_en-GB,5,,FHRS,5
336520,Birtsmorton,Malvern,Worcestershire,,Brook House,Hotel/bed & breakfast/guest house,7842,5,,672927,5,,52.02053100000000,MH/M055BIBIRT/1,148,wrsenquiries@worcsregservices.gov.uk,Malvern Hills,http://www.worcsregservices.gov.uk,-2.32479400000000,WR13 6AF,2013-07-03,fhrs_5_en-GB,5,,FHRS,5
336521,Plantation,Holt Heath,Worcester,,Broomfields Fruit Farm,Restaurant/Cafe/Canteen,1,5,,672866,5,,52.26638400000000,MH/K29ZHOHOLT/1,148,wrsenquiries@worcsregservices.gov.uk,Malvern Hills,http://www.worcsregservices.gov.uk,-2.26432800000000,WR6 6NR,2014-11-06,fhrs_4_en-GB,4,,FHRS,10
336522,A38 Layby,Clifton Nr Severn Stoke,Worcestershire,,Bus Stop Cafe,Mobile caterer,7846,10,,672878,10,,52.09121100000000,MH/K434SSA38L/1,148,wrsenquiries@worcsregservices.gov.uk,Malvern Hills,http://www.worcsregservices.gov.uk,-2.19165400000000,WR8 9JR,2014-11-21,fhrs_3_en-GB,3,,FHRS,10
336523,Lower Wick Lay-by,Powick,Worcestershire,,Buttie Bar & Grill,Mobile caterer,7846,5,,672875,5,,,MH/K394POLOWE/2,148,wrsenquiries@worcsregservices.gov.uk,Malvern Hills,http://www.worcsregservices.gov.uk,,,2014-04-11,fhrs_5_en-GB,5,,FHRS,5
336524,27 Teme Street,Tenbury Wells,Worcestershire,,Cafe 27,Other catering premises,7841,,,672704,,,52.31345300000000,MH/B074TE27TE/2,148,wrsenquiries@worcsregservices.gov.uk,Malvern Hills,http://www.worcsregservices.gov.uk,-2.59430600000000,WR15 8AD,2015-01-06,fhrs_exempt_en-GB,Exempt,,FHRS,
336525,Leigh Sinton Farm And Nurseries Ltd,Lower Interfields,Malvern,Worcestershire,'Cafe' Fisheries,Restaurant/Cafe/Canteen,1,10,,672727,10,,52.14619800000000,MH/B07ZXTLOWE/1,148,wrsenquiries@worcsregservices.gov.uk,Malvern Hills,http://www.worcsregservices.gov.uk,-2.32604500000000,WR14 1UU,2012-04-26,fhrs_3_en-GB,3,,FHRS,5
336526,121 Barnards Green Road,Malvern,Worcestershire,,Cafe In The Green,Restaurant/Cafe/Canteen,1,0,,672564,0,,52.10871400000000,13/00219/FOOD,148,wrsenquiries@worcsregservices.gov.uk,Malvern Hills,http://www.worcsregservices.gov.uk,-2.31054200000000,WR14 3LT,2013-10-11,fhrs_5_en-GB,5,,FHRS,5
336527,247 Worcester Road,Malvern,Worcestershire,,Cafe Oasis,Restaurant/Cafe/Canteen,1,5,,672712,5,,52.12759000000000,MH/B074XL247W/2,148,wrsenquiries@worcsregservices.gov.uk,Malvern Hills,http://www.worcsregservices.gov.uk,-2.31559600000000,WR14 1SY,2013-07-30,fhrs_5_en-GB,5,,FHRS,5
336528,113 Church Street,Malvern,Worcestershire,,Cafe Zam Zam,Restaurant/Cafe/Canteen,1,10,,672683,10,,52.11171800000000,MH/B054XP113C/1,148,wrsenquiries@worcsregservices.gov.uk,Malvern Hills,http://www.worcsregservices.gov.uk,-2.32659600000000,WR14 2AJ,2014-06-12,fhrs_3_en-GB,3,,FHRS,10
336529,61-65 Church Street,Malvern,Worcestershire,,Caffe Nero,Restaurant/Cafe/Canteen,1,5,,672715,5,,52.11158500000000,MH/B074XP63-6/1,148,wrsenquiries@worcsregservices.gov.uk,Malvern Hills,http://www.worcsregservices.gov.uk,-2.32916500000000,WR14 2AA,2013-11-06,fhrs_4_en-GB,4,,FHRS,10
336530,Great Malvern Retail Park,Roman Way,Malvern,,Caffe Nero,Restaurant/Cafe/Canteen,1,5,,672575,5,,52.13634900000000,13/00299/FOOD,148,wrsenquiries@worcsregservices.gov.uk,Malvern Hills,http://www.worcsregservices.gov.uk,-2.32794500000000,WR14 1LQ,2013-08-09,fhrs_5_en-GB,5,,FHRS,5
336531,Maycombe,C2064 Alfrick Pound,Alfrick Pound,Alfrick,Canapes By Gill,Other catering premises,7841,5,,730851,5,,52.16647500000000,14/00305/FOOD,148,wrsenquiries@worcsregservices.gov.uk,Malvern Hills,http://www.worcsregservices.gov.uk,-2.37626800000000,WR6 5HA,2012-04-18,fhrs_5_en-GB,5,,FHRS,5
336532,Cannara,147 Barnards Green Road,Malvern,Worcestershire,Cannara B&B,Hotel/bed & breakfast/guest house,7842,10,,672922,0,,52.10871400000000,MH/M035XC147B/1,148,wrsenquiries@worcsregservices.gov.uk,Malvern Hills,http://www.worcsregservices.gov.uk,-2.31054200000000,WR14 3LT,2010-01-28,fhrs_4_en-GB,4,,FHRS,0
336533,,,,,Carinya,Hospitals/Childcare/Caring Premises,5,,,684844,,,,MH/I11ZBHPEAC/1,148,wrsenquiries@worcsregservices.gov.uk,Malvern Hills,http://www.worcsregservices.gov.uk,,,2010-07-08,fhrs_exempt_en-GB,Exempt,,FHRS,
336534,Six Acres Barn,Bromyard Road,Sutton,"Tenbury Wells, Worcestershire",Carlies Country Products,Retailers - other,4613,10,,672853,5,,52.28131500000000,MH/K051TEBROM/1,148,wrsenquiries@worcsregservices.gov.uk,Malvern Hills,http://www.worcsregservices.gov.uk,-2.55290600000000,WR15 8RN,2013-07-01,fhrs_4_en-GB,4,,FHRS,5
336535,McCarthy And Stone,Cartwright Court,2 Victoria Road,Malvern,Caterplus,Hospitals/Childcare/Caring Premises,5,0,,672567,0,,,13/00258/FOOD,148,wrsenquiries@worcsregservices.gov.uk,Malvern Hills,http://www.worcsregservices.gov.uk,,WR14 2GE,2014-11-19,fhrs_5_en-GB,5,,FHRS,0
336536,B4204 Martley,Martley,Worcester,Worcestershire,Chantry High School,School/college/university,7845,0,,672770,0,,52.23739500000000,MH/B154MRMART/1,148,wrsenquiries@worcsregservices.gov.uk,Malvern Hills,http://www.worcsregservices.gov.uk,-2.35780200000000,WR6 6QA,2013-07-01,fhrs_5_en-GB,5,,FHRS,5
336537,Malvern College,College Road,Malvern,Worcestershire,Chartwells @ Malvern College,School/college/university,7845,0,,684591,5,,52.10420300000000,13/00221/FOOD,148,wrsenquiries@worcsregservices.gov.uk,Malvern Hills,http://www.worcsregservices.gov.uk,-2.32614700000000,WR14 3DF,2013-12-10,fhrs_5_en-GB,5,,FHRS,5
336538,Chestnut Hill,Green Lane,Malvern,Worcestershire,Chestnut Hill Bed and Breakfast,Hotel/bed & breakfast/guest house,7842,5,,672931,5,,52.07848500000000,MH/M055MWGREE/1,148,wrsenquiries@worcsregservices.gov.uk,Malvern Hills,http://www.worcsregservices.gov.uk,-2.32798800000000,WR14 4HU,2004-04-07,fhrs_5_en-GB,5,,FHRS,5
336539,Morgan Motor Co Ltd,Pickersleigh Road,Malvern,Worcestershire,Chez's @ Morgan Motors,Restaurant/Cafe/Canteen,1,5,,729396,5,,52.12393300000000,15/00011/FOOD,148,wrsenquiries@worcsregservices.gov.uk,Malvern Hills,http://www.worcsregservices.gov.uk,-2.31136300000000,WR14 2LL,2015-01-06,fhrs_5_en-GB,5,,FHRS,5
336540,,,,,Childminder,Hospitals/Childcare/Caring Premises,5,,,684842,,,,MH/I11ZBH1HAL/1,148,wrsenquiries@worcsregservices.gov.uk,Malvern Hills,http://www.worcsregservices.gov.uk,,,2008-06-02,fhrs_exempt_en-GB,Exempt,,FHRS,
336541,,,,,Childmnder,Hospitals/Childcare/Caring Premises,5,,,684848,,,,MH/I11ZGRSINT/1,148,wrsenquiries@worcsregservices.gov.uk,Malvern Hills,http://www.worcsregservices.gov.uk,,,2009-07-29,fhrs_exempt_en-GB,Exempt,,FHRS,
336542,Bury End Town Farm,C2236 Wichenford,Wichenford,Worcester,Chim Doo,Mobile caterer,7846,10,,672584,5,,52.23682400000000,14/00162/FOOD,148,wrsenquiries@worcsregservices.gov.uk,Malvern Hills,http://www.worcsregservices.gov.uk,-2.31544800000000,WR6 6XY,2014-10-30,fhrs_4_en-GB,4,,FHRS,5
336543,6 Moat Way,Malvern,Worcestershire,,China Dragon,Takeaway/sandwich shop,7844,10,,672747,15,,52.11336700000000,MH/B094XG6MOA/4,148,wrsenquiries@worcsregservices.gov.uk,Malvern Hills,http://www.worcsregservices.gov.uk,-2.30149100000000,WR14 2PE,2014-11-18,fhrs_2_en-GB,2,,FHRS,15
336544,Sherridge Road,Leigh Sinton,"Malvern, Worcestershire",,Chirkenhill Farm,Hotel/bed & breakfast/guest house,7842,10,,672947,5,,52.16648000000000,MH/M05ZLESHER/1,148,wrsenquiries@worcsregservices.gov.uk,Malvern Hills,http://www.worcsregservices.gov.uk,-2.33293300000000,WR13 5DE,2009-10-12,fhrs_4_en-GB,4,,FHRS,5
336545,Clarence Park,415 Worcester Road,Malvern,Worcestershire,Clarence Park Village,Hospitals/Childcare/Caring Premises,5,5,,684623,10,,,14/00771/FOOD,148,wrsenquiries@worcsregservices.gov.uk,Malvern Hills,http://www.worcsregservices.gov.uk,,,2014-06-18,fhrs_4_en-GB,4,,FHRS,0
336546,Great Malvern Primary School,Lydes Road,Malvern,Worcestershire,Class Catering @ Great Malvern Primary School,School/college/university,7845,5,,672588,5,,52.11015000000000,14/00618/FOOD,148,wrsenquiries@worcsregservices.gov.uk,Malvern Hills,http://www.worcsregservices.gov.uk,-2.30799600000000,WR14 2BY,2014-03-11,fhrs_5_en-GB,5,,FHRS,5
336547,Kempsey Primary School,Ellsdon,Kempsey,Worcester,Class Catering @ Kempsey Primary School,School/college/university,7845,5,,672894,5,,52.13989900000000,MH/K45ZKMELLS/1,148,wrsenquiries@worcsregservices.gov.uk,Malvern Hills,http://www.worcsregservices.gov.uk,-2.21508100000000,WR5 3NT,2014-01-14,fhrs_5_en-GB,5,,FHRS,5
336548,Cleeve House,49 Hornyold Road,Malvern,Worcestershire,Cleeve House Rest Home,Hospitals/Childcare/Caring Premises,5,5,,672982,5,,52.12238500000000,MH/N036XW49HO/1,148,wrsenquiries@worcsregservices.gov.uk,Malvern Hills,http://www.worcsregservices.gov.uk,-2.33476600000000,WR14 1QH,2014-09-04,fhrs_5_en-GB,5,,FHRS,5
336549,Bath Road,Broomhall,Worcester,,Clerkenleap Service Station,Takeaway/sandwich shop,7844,5,,672729,5,,52.16049400000000,MH/B091KMBATH/1,148,wrsenquiries@worcsregservices.gov.uk,Malvern Hills,http://www.worcsregservices.gov.uk,-2.21617500000000,WR5 3HR,2013-09-12,fhrs_5_en-GB,5,,FHRS,5
336550,41 Alexandra Road,Malvern,Worcestershire,,Clevelands,Hotel/bed & breakfast/guest house,7842,5,,672942,5,,52.12425500000000,MH/M055XT41AL/1,148,wrsenquiries@worcsregservices.gov.uk,Malvern Hills,http://www.worcsregservices.gov.uk,-2.32851400000000,WR14 1HE,2013-08-06,fhrs_5_en-GB,5,,FHRS,5
336551,1 Birchwood Drive,Stocks Lane,Newland,"Malvern, Worcestershire",Clifford James Mobile Food,Mobile caterer,7846,0,,672882,5,,52.14251600000000,MH/K434XLSTOC/3,148,wrsenquiries@worcsregservices.gov.uk,Malvern Hills,http://www.worcsregservices.gov.uk,-2.30788400000000,WR13 5AW,2011-04-05,fhrs_5_en-GB,5,,FHRS,0
336552,Willingsworth,Upper Hook Road,Upton-Upon-Severn,Worcester,Clives Fruit Farm Shop,Retailers - other,4613,0,,672867,0,,52.06423100000000,MH/K29ZUPUPPE/1,148,wrsenquiries@worcsregservices.gov.uk,Malvern Hills,http://www.worcsregservices.gov.uk,-2.24012800000000,WR8 0SA,2012-01-23,fhrs_5_en-GB,5,,FHRS,5
336553,The Octagon Community Centre,Brookfarm Drive,Malvern,Worcestershire,Coffee Shop,Restaurant/Cafe/Canteen,1,10,,672710,5,,52.10281500000000,MH/B074XCBROO/1,148,wrsenquiries@worcsregservices.gov.uk,Malvern Hills,http://www.worcsregservices.gov.uk,-2.30417900000000,WR14 3SQ,2013-08-01,fhrs_4_en-GB,4,,FHRS,5
336554,College House Rest Home,Berrington Road,Tenbury Wells,Worcestershire,College House Residential Home,Hospitals/Childcare/Caring Premises,5,10,,672974,5,,52.30846400000000,MH/N036TEBERR/2,148,wrsenquiries@worcsregservices.gov.uk,Malvern Hills,http://www.worcsregservices.gov.uk,-2.59941700000000,WR15 8EJ,2014-11-18,fhrs_4_en-GB,4,,FHRS,5
336555,106 Barnards Green Road,Malvern,Worcestershire,,Colston Bakery,Retailers - other,4613,10,,672861,10,,52.10830900000000,MH/K111XC106B/1,148,wrsenquiries@worcsregservices.gov.uk,Malvern Hills,http://www.worcsregservices.gov.uk,-2.31052400000000,WR14 3ND,2014-08-28,fhrs_3_en-GB,3,,FHRS,10
336556,223 Worcester Road,Malvern,Worcestershire,,Colston Bakery,Retailers - other,4613,5,,672862,5,,52.12675100000000,MH/K111XL223W/1,148,wrsenquiries@worcsregservices.gov.uk,Malvern Hills,http://www.worcsregservices.gov.uk,-2.31661200000000,WR14 1SU,2013-07-17,fhrs_5_en-GB,5,,FHRS,5
336557,,,,,Community Home (Hill View Childrens Home),Hospitals/Childcare/Caring Premises,5,5,,672993,5,,,MH/N15ZXC126B/1,148,wrsenquiries@worcsregservices.gov.uk,Malvern Hills,http://www.worcsregservices.gov.uk,,,2014-04-30,fhrs_5_en-GB,5,,FHRS,0
336558,3 Como Road,Malvern,Worcestershire,,Como House B & B,Hotel/bed & breakfast/guest house,7842,5,,672941,5,,52.11347200000000,MH/M055XP3COM/1,148,wrsenquiries@worcsregservices.gov.uk,Malvern Hills,http://www.worcsregservices.gov.uk,-2.32636100000000,WR14 2HS,2013-08-13,fhrs_5_en-GB,5,,FHRS,5
336559,10 Old Street,Upton Upon Severn,Worcester,Worcestershire,Cooks Bakery,Manufacturers/packers,7839,5,,672592,5,,52.06292500000000,14/00647/FOOD,148,wrsenquiries@worcsregservices.gov.uk,Malvern Hills,http://www.worcsregservices.gov.uk,-2.21818200000000,WR8 0HA,2014-11-18,fhrs_5_en-GB,5,,FHRS,5
336560,67 Upper Howsell Road,Malvern,Worcestershire,,Co-Op,Retailers - supermarkets/hypermarkets,7840,5,,684882,5,,52.13273500000000,MH/K011XT67UP/3,148,wrsenquiries@worcsregservices.gov.uk,Malvern Hills,http://www.worcsregservices.gov.uk,-2.32439800000000,WR14 1TP,2014-02-03,fhrs_4_en-GB,4,,FHRS,10
336561,32 Avenue Road,Malvern,Worcestershire,,Copper Beech House,Hotel/bed & breakfast/guest house,7842,0,,672937,0,,52.10898300000000,MH/M055XC32AV/2,148,wrsenquiries@worcsregservices.gov.uk,Malvern Hills,http://www.worcsregservices.gov.uk,-2.31429600000000,WR14 3BJ,2010-11-08,fhrs_5_en-GB,5,,FHRS,5
336562,Corse Lawn,Gloucester,,,Corse Lawn House Hotel,Hotel/bed & breakfast/guest house,7842,5,,672903,5,,51.97373600000000,MH/M015ELCORS/1,148,wrsenquiries@worcsregservices.gov.uk,Malvern Hills,http://www.worcsregservices.gov.uk,-2.24652900000000,GL19 4LZ,2014-01-30,fhrs_4_en-GB,4,,FHRS,10
336563,101 Church Street,Malvern,Worcestershire,,Costa,Restaurant/Cafe/Canteen,1,5,,684596,5,,52.11162500000000,13/00325/FOOD,148,wrsenquiries@worcsregservices.gov.uk,Malvern Hills,http://www.worcsregservices.gov.uk,-2.32777800000000,WR14 2AE,2014-01-07,fhrs_5_en-GB,5,,FHRS,0
336564,51 Graham Road,Malvern,Worcestershire,,Cotford Hotel,Hotel/bed & breakfast/guest house,7842,5,,672916,0,,52.11437700000000,MH/M015XP51GR/2,148,wrsenquiries@worcsregservices.gov.uk,Malvern Hills,http://www.worcsregservices.gov.uk,-2.32756500000000,WR14 2HU,2013-04-15,fhrs_5_en-GB,5,,FHRS,0
336565,63 Belmont Road,Malvern,Worcestershire,,Country Cooks,Retailers - other,4613,5,,672573,5,,52.12767200000000,13/00285/FOOD,148,wrsenquiries@worcsregservices.gov.uk,Malvern Hills,http://www.worcsregservices.gov.uk,-2.33444000000000,WR14 1PN,2014-01-08,fhrs_4_en-GB,4,,FHRS,10
336566,The Hollies,A4103 Bransford,Bransford,Worcester,Country House Occasions,Mobile caterer,7846,5,,672600,5,,52.17183000000000,14/00870/FOOD,148,wrsenquiries@worcsregservices.gov.uk,Malvern Hills,http://www.worcsregservices.gov.uk,-2.29545300000000,WR6 5JB,2014-06-04,fhrs_5_en-GB,5,,FHRS,5
336567,3-5 Court Road,Malvern,Worcestershire,,Court House Nursing Home,Hospitals/Childcare/Caring Premises,5,0,,672961,0,,52.10740900000000,MH/N01ZXC3-5C/1,148,wrsenquiries@worcsregservices.gov.uk,Malvern Hills,http://www.worcsregservices.gov.uk,-2.31443100000000,WR14 3BS,2014-04-16,fhrs_5_en-GB,5,,FHRS,5
336568,61 Court Road,Malvern,Worcestershire,,Court Road Bakery,Takeaway/sandwich shop,7844,5,,672863,5,,52.10594400000000,MH/K11ZXC61CO/1,148,wrsenquiries@worcsregservices.gov.uk,Malvern Hills,http://www.worcsregservices.gov.uk,-2.31766200000000,WR14 3ED,2014-05-12,fhrs_4_en-GB,4,,FHRS,10
336569,Cowleigh Park,Cradley,"Malvern, Worcestershire",,Cowleigh Park Farm,Hotel/bed & breakfast/guest house,7842,5,,672944,5,,52.12609500000000,MH/M055XWCOWL/1,148,wrsenquiries@worcsregservices.gov.uk,Malvern Hills,http://www.worcsregservices.gov.uk,-2.34215600000000,WR13 5HJ,2008-10-08,fhrs_5_en-GB,5,,FHRS,5
336570,Bransford,Worcester,,,Croft Guest House,Hotel/bed & breakfast/guest house,7842,5,,672925,5,,52.16995500000000,MH/M03ZBRBRAN/1,148,wrsenquiries@worcsregservices.gov.uk,Malvern Hills,http://www.worcsregservices.gov.uk,-2.30093800000000,WR6 5JD,2012-02-24,fhrs_4_en-GB,4,,FHRS,10
336571,Cromwells Cuisine,6 The Village,Powick,Worcester,Cromwells Nepalese And Indian Cuisine,Restaurant/Cafe/Canteen,1,10,,672598,10,,52.16557600000000,14/00826/FOOD,148,wrsenquiries@worcsregservices.gov.uk,Malvern Hills,http://www.worcsregservices.gov.uk,-2.24267600000000,WR2 4QP,2014-05-07,fhrs_3_en-GB,3,,FHRS,10
336572,21 Malvern Road,Powick,Worcester,,Crown Inn,Pub/bar/nightclub,7843,5,,672633,5,,52.15718200000000,MH/B014PO21MA/1,148,wrsenquiries@worcsregservices.gov.uk,Malvern Hills,http://www.worcsregservices.gov.uk,-2.26658900000000,WR2 4SF,2013-10-08,fhrs_5_en-GB,5,,FHRS,5
336573,66 Main Road,Kempsey,Worcester,,Crown Inn,Pub/bar/nightclub,7843,10,,672657,5,,52.13998500000000,MH/B034KM66MA/2,148,wrsenquiries@worcsregservices.gov.uk,Malvern Hills,http://www.worcsregservices.gov.uk,-2.21722900000000,WR5 3JF,2008-06-09,fhrs_4_en-GB,4,,FHRS,5
336574,Main Road,Hallow,Worcester,Worcestershire,Crown Inn,Pub/bar/nightclub,7843,10,,672619,15,,52.22293800000000,MH/B014HAMAIN/5,148,wrsenquiries@worcsregservices.gov.uk,Malvern Hills,http://www.worcsregservices.gov.uk,-2.25404200000000,WR2 6LB,2014-09-19,fhrs_2_en-GB,2,,FHRS,15
336575,146 Lower Howsell Road,Malvern,Worcestershire,,Dalvington,Hospitals/Childcare/Caring Premises,5,0,,672986,0,,52.13585300000000,MH/N076XL146L/1,148,wrsenquiries@worcsregservices.gov.uk,Malvern Hills,http://www.worcsregservices.gov.uk,-2.31187000000000,WR14 1DL,2013-10-11,fhrs_5_en-GB,5,,FHRS,5
336576,Kings End Road,Powick,Worcester,,Daybrook House,Hotel/bed & breakfast/guest house,7842,5,,672951,0,,52.16261500000000,MH/M05ZPOKING/1,148,wrsenquiries@worcsregservices.gov.uk,Malvern Hills,http://www.worcsregservices.gov.uk,-2.24874200000000,WR2 4RA,2013-07-31,fhrs_5_en-GB,5,,FHRS,0
336577,1 Parkfield Cottages,Main Road,Hallow,Worcester,Deans Ices,Retailers - other,4613,5,,672873,5,,52.21192500000000,MH/K374HAMAIN/1,148,wrsenquiries@worcsregservices.gov.uk,Malvern Hills,http://www.worcsregservices.gov.uk,-2.24982200000000,WR2 6PH,2012-04-27,fhrs_5_en-GB,5,,FHRS,0
336578,Unit 1,10 Belle Vue Terrace,Malvern,Worcestershire,Delicate Bakes,Restaurant/Cafe/Canteen,1,5,,716569,5,,52.11135800000000,14/01233/FOOD,148,wrsenquiries@worcsregservices.gov.uk,Malvern Hills,http://www.worcsregservices.gov.uk,-2.33018600000000,WR14 4PZ,2014-11-18,fhrs_5_en-GB,5,,FHRS,5
336579,Dewdrop Inn,Bell Lane,Lower Broadheath,Worcester,Dew Drop Inn,Pub/bar/nightclub,7843,5,,672608,10,,52.20603900000000,MH/B014BHBELL/1,148,wrsenquiries@worcsregservices.gov.uk,Malvern Hills,http://www.worcsregservices.gov.uk,-2.28053400000000,WR2 6RR,2014-08-06,fhrs_4_en-GB,4,,FHRS,5
336580,124 Worcester Road,Malvern,Worcestershire,,Domino's Pizza,Takeaway/sandwich shop,7844,0,,672732,0,,52.12700500000000,MH/B091XL124W/1,148,wrsenquiries@worcsregservices.gov.uk,Malvern Hills,http://www.worcsregservices.gov.uk,-2.31569400000000,WR14 1SS,2015-01-16,fhrs_5_en-GB,5,,FHRS,5
336581,Hermitage Cottage,37 Kings End Road,Powick,Worcester,Dough On The Go,Mobile caterer,7846,5,,672577,5,,52.16243700000000,13/00315/FOOD,148,wrsenquiries@worcsregservices.gov.uk,Malvern Hills,http://www.worcsregservices.gov.uk,-2.25188400000000,WR2 4RB,2013-06-28,fhrs_4_en-GB,4,,FHRS,10
336582,Drum And Monkey,U61040 Newbridge Green,Newbridge Green,Upton Upon Severn,Drum & Monkey Inn,Pub/bar/nightclub,7843,5,,672647,5,,52.05057500000000,MH/B014UPNEWB/1,148,wrsenquiries@worcsregservices.gov.uk,Malvern Hills,http://www.worcsregservices.gov.uk,-2.22640500000000,WR8 0QP,2014-09-25,fhrs_5_en-GB,5,,FHRS,5
336583,Duke Of York Inn,A438 Berrow,Berrow,Malvern,Duke of York,Pub/bar/nightclub,7843,5,,684638,5,,52.01775600000000,MH/B014BEBERR/1,148,wrsenquiries@worcsregservices.gov.uk,Malvern Hills,http://www.worcsregservices.gov.uk,-2.32031500000000,WR13 6JQ,2013-06-26,fhrs_5_en-GB,5,,FHRS,5
336584,Spring Lane South,Malvern,Worcestershire,,Dukes Diner,Takeaway/sandwich shop,7844,5,,672760,5,,52.12436100000000,MH/B09ZXLSPRI/1,148,wrsenquiries@worcsregservices.gov.uk,Malvern Hills,http://www.worcsregservices.gov.uk,-2.30577200000000,WR14 1AT,2013-09-30,fhrs_5_en-GB,5,,FHRS,0
336585,A451 Dunley,Dunley,Stourport On Severn,Worcestershire,Dunley Hall,Hospitals/Childcare/Caring Premises,5,5,,672968,5,,52.32324700000000,MH/N036ASDUNL/1,148,wrsenquiries@worcsregservices.gov.uk,Malvern Hills,http://www.worcsregservices.gov.uk,-2.30899100000000,DY13 0TX,2014-10-10,fhrs_5_en-GB,5,,FHRS,5
336586,Dyson Perrins Church Of England Hig,Yates Hay Road,Malvern,Worcestershire,Dyson Perrins C of E High Sch.,School/college/university,7845,0,,672777,5,,52.13209100000000,MH/B154XTYATE/1,148,wrsenquiries@worcsregservices.gov.uk,Malvern Hills,http://www.worcsregservices.gov.uk,-2.32963800000000,WR14 1LJ,2015-01-19,fhrs_4_en-GB,4,,FHRS,10
336587,Worcester Road,Earls Croome,Worcester,Worcestershire,Earls Croome Garden Centre,Restaurant/Cafe/Canteen,1,5,,684612,5,,52.07860900000000,14/00582/FOOD,148,wrsenquiries@worcsregservices.gov.uk,Malvern Hills,http://www.worcsregservices.gov.uk,-2.20066100000000,WR8 9DA,2013-10-11,fhrs_4_en-GB,4,,FHRS,10
336588,Dawes Hill Farm,Daws Hill,Powick,Worcester,Early Doors Day Nursery,Hospitals/Childcare/Caring Premises,5,5,,672830,5,,52.16568800000000,MH/I098PODAWS/1,148,wrsenquiries@worcsregservices.gov.uk,Malvern Hills,http://www.worcsregservices.gov.uk,-2.26168300000000,WR2 4RG,2014-01-30,fhrs_5_en-GB,5,,FHRS,5
336589,Village,Clifton-On-Teme,Worcester,,Early Years Centre,Hospitals/Childcare/Caring Premises,5,5,,672829,5,,52.25188400000000,MH/I097CLVILL/1,148,wrsenquiries@worcsregservices.gov.uk,Malvern Hills,http://www.worcsregservices.gov.uk,-2.42144900000000,WR6 6DH,2013-10-03,fhrs_5_en-GB,5,,FHRS,0
336590,Eastfield,Wadborough Road,Kempsey,Worcester,Eastfield Fisheries,Takeaway/sandwich shop,7844,10,,672724,5,,52.14525400000000,MH/B077KMWADB/1,148,wrsenquiries@worcsregservices.gov.uk,Malvern Hills,http://www.worcsregservices.gov.uk,-2.17356100000000,WR5 3QH,2013-07-01,fhrs_4_en-GB,4,,FHRS,5
336591,Layby,Devils Pitch,A443,Stockton On Teme,Eat Fresh,Mobile caterer,7846,5,,672879,5,,52.30713300000000,MH/K434STLAYB/1,148,wrsenquiries@worcsregservices.gov.uk,Malvern Hills,http://www.worcsregservices.gov.uk,-2.39170200000000,WR6 6AU,2013-11-22,fhrs_4_en-GB,4,,FHRS,10
336592,Unit 1,Spring Court,Spring Lane South,Malvern,Eat Smart Educatering Ltd,Other catering premises,7841,5,,703223,5,,52.12436100000000,14/01009/FOOD,148,wrsenquiries@worcsregservices.gov.uk,Malvern Hills,http://www.worcsregservices.gov.uk,-2.30577200000000,WR14 1AT,2014-09-03,fhrs_5_en-GB,5,,FHRS,0
336593,Edgeworth,4 Carlton Road,Malvern,Worcestershire,Edgeworth Bed and Breakfast,Hotel/bed & breakfast/guest house,7842,5,,672943,5,,52.12494200000000,MH/M055XT4CAR/1,148,wrsenquiries@worcsregservices.gov.uk,Malvern Hills,http://www.worcsregservices.gov.uk,-2.32719000000000,WR14 1HH,2004-05-11,fhrs_5_en-GB,5,,FHRS,5
336594,8A Teme Street,Tenbury Wells,Worcestershire,,Efes Pizza And Kebab,Takeaway/sandwich shop,7844,5,,672737,5,,52.31141600000000,MH/B094TE8ATE/1,148,wrsenquiries@worcsregservices.gov.uk,Malvern Hills,http://www.worcsregservices.gov.uk,-2.59350100000000,WR15 8BA,2014-05-21,fhrs_5_en-GB,5,,FHRS,5
336595,De Walden Road,Malvern,Worcestershire,,Elim International Centre,School/college/university,7845,0,,672785,0,,52.11358100000000,MH/B15ZWMDEWA/1,148,wrsenquiries@worcsregservices.gov.uk,Malvern Hills,http://www.worcsregservices.gov.uk,-2.34796000000000,WR14 4DF,2014-09-04,fhrs_5_en-GB,5,,FHRS,0
336596,Stockton Road,Abberley,Worcester,,Elms Hotel & Restaurant,Hotel/bed & breakfast/guest house,7842,5,,672901,5,,52.30081100000000,MH/M015ABSTOC/1,148,wrsenquiries@worcsregservices.gov.uk,Malvern Hills,http://www.worcsregservices.gov.uk,-2.39240900000000,WR6 6AT,2014-11-20,fhrs_4_en-GB,4,,FHRS,10
336597,Malvern Technical Centre,St. Andrews Road,Malvern,Worcestershire,Eurest,Restaurant/Cafe/Canteen,1,0,,672787,5,,52.10029900000000,MH/B174XCSTAN/1,148,wrsenquiries@worcsregservices.gov.uk,Malvern Hills,http://www.worcsregservices.gov.uk,-2.31721300000000,WR14 3PS,2013-09-12,fhrs_5_en-GB,5,,FHRS,0
336598,The Clock House,14 Market Street,Tenbury Wells,Worcestershire,Ferris-Gibbs Ltd,Retailers - other,4613,5,,672851,5,,52.31088000000000,MH/K051TE14MA/1,148,wrsenquiries@worcsregservices.gov.uk,Malvern Hills,http://www.worcsregservices.gov.uk,-2.59465300000000,WR15 8BQ,2014-12-03,fhrs_5_en-GB,5,,FHRS,5
336599,99B Church Street,Malvern,Worcestershire,,Fig Tree,Restaurant/Cafe/Canteen,1,5,,672689,5,,52.11162500000000,MH/B054XP99BC/3,148,wrsenquiries@worcsregservices.gov.uk,Malvern Hills,http://www.worcsregservices.gov.uk,-2.32777800000000,WR14 2AE,2014-11-20,fhrs_4_en-GB,4,,FHRS,10
336600,7 High Street,Upton Upon Severn,Worcester,Worcestershire,Flava Bangladeshi Indian Fusion,Restaurant/Cafe/Canteen,1,5,,672576,5,,52.06406900000000,13/00314/FOOD,148,wrsenquiries@worcsregservices.gov.uk,Malvern Hills,http://www.worcsregservices.gov.uk,-2.21703500000000,WR8 0HQ,2014-02-05,fhrs_5_en-GB,5,,FHRS,5
336601,22 Graham Road,Malvern,Worcestershire,,Flute Signature,Restaurant/Cafe/Canteen,1,5,,672664,5,,52.11231200000000,MH/B051XP22GR/1,148,wrsenquiries@worcsregservices.gov.uk,Malvern Hills,http://www.worcsregservices.gov.uk,-2.32660000000000,WR14 2HL,2012-10-26,fhrs_5_en-GB,5,,FHRS,5
336602,11 Birchwood Drive,Stocks Lane,Newland,"Malvern, Worcestershire",Food Court,Mobile caterer,7846,0,,672881,5,,52.14250100000000,MH/K434XLSTOC/2,148,wrsenquiries@worcsregservices.gov.uk,Malvern Hills,http://www.worcsregservices.gov.uk,-2.29994900000000,WR13 5AZ,2010-10-26,fhrs_5_en-GB,5,,FHRS,5
336603,109 Barnards Green Road,Malvern,Worcestershire,,Food Factory,Takeaway/sandwich shop,7844,5,,672742,5,,52.10871400000000,MH/B094XC109B/2,148,wrsenquiries@worcsregservices.gov.uk,Malvern Hills,http://www.worcsregservices.gov.uk,-2.31054200000000,WR14 3LT,2014-05-06,fhrs_5_en-GB,5,,FHRS,5
336604,Cherry Tree Cotttage,21 Pine Grove,Sunningdale Estate,Knightwick,Food For Thought,Other catering premises,7841,5,,672798,5,,52.20867100000000,MH/B29ZDOSUNN/1,148,wrsenquiries@worcsregservices.gov.uk,Malvern Hills,http://www.worcsregservices.gov.uk,-2.38888800000000,WR6 5PP,2014-05-06,fhrs_5_en-GB,5,,FHRS,5
336605,Three Counties Show Ground,Malvern,Worcestershire,,Food for Thought Cafe,Restaurant/Cafe/Canteen,1,5,,672703,5,,52.08286400000000,MH/B074MWMALV/1,148,wrsenquiries@worcsregservices.gov.uk,Malvern Hills,http://www.worcsregservices.gov.uk,-2.31453600000000,WR13 6NW,2014-05-08,fhrs_5_en-GB,5,,FHRS,5
336606,The Food Hall,Cromer House,Teme Street,Tenbury Wells,Food Hall (Tenbury) Ltd,Retailers - other,4613,5,,684622,5,,52.31256400000000,14/00767/FOOD,148,wrsenquiries@worcsregservices.gov.uk,Malvern Hills,http://www.worcsregservices.gov.uk,-2.59398600000000,WR15 8AA,2014-05-22,fhrs_5_en-GB,5,,FHRS,5
336607,2 Victoria Court,Victoria Road,Malvern,Worcestershire,For Heaven Shakes,Retailers - other,4613,5,,672868,5,,52.11566100000000,MH/K334XPVICT/1,148,wrsenquiries@worcsregservices.gov.uk,Malvern Hills,http://www.worcsregservices.gov.uk,-2.32484300000000,WR14 2TE,2009-06-27,fhrs_5_en-GB,5,,FHRS,5
336608,A4112 Oldwood,Oldwood,Tenbury Wells,Worcestershire,Fountain Inn,Pub/bar/nightclub,7843,5,,672645,5,,52.29766500000000,MH/B014TEOLDW/1,148,wrsenquiries@worcsregservices.gov.uk,Malvern Hills,http://www.worcsregservices.gov.uk,-2.59978400000000,WR15 8TB,2013-09-04,fhrs_5_en-GB,5,,FHRS,5
336609,Four Hedges,Rhydd,Hanley Castle,Worcester,Four Hedges Bed and Breakfast,Hotel/bed & breakfast/guest house,7842,5,,672945,5,,52.10429200000000,MH/M05ZGURHYD/1,148,wrsenquiries@worcsregservices.gov.uk,Malvern Hills,http://www.worcsregservices.gov.uk,-2.24070800000000,WR8 0AD,2008-06-12,fhrs_5_en-GB,5,,FHRS,5
336610,Fox And Hounds Inn,C2065 Lulsley,Lulsley,Knightwick,Fox and Hounds,Pub/bar/nightclub,7843,5,,672628,5,,52.18893900000000,MH/B014LULULS/1,148,wrsenquiries@worcsregservices.gov.uk,Malvern Hills,http://www.worcsregservices.gov.uk,-2.38292400000000,WR6 5QT,2013-10-23,fhrs_5_en-GB,5,,FHRS,5
336611,Bransford Court Lane,Bransford,Worcester,,Fox Inn,Pub/bar/nightclub,7843,0,,672611,0,,52.17615100000000,MH/B014BRBRAN/2,148,wrsenquiries@worcsregservices.gov.uk,Malvern Hills,http://www.worcsregservices.gov.uk,-2.28578600000000,WR6 5JL,2010-05-25,fhrs_5_en-GB,5,,FHRS,5
336612,The Fox Inn,B4204 Broadheath,Broadheath,Tenbury Wells,Fox Inn,Pub/bar/nightclub,7843,10,,672623,10,,52.28425200000000,MH/B014HYHANL/3,148,wrsenquiries@worcsregservices.gov.uk,Malvern Hills,http://www.worcsregservices.gov.uk,-2.48404400000000,WR15 8QS,2014-07-02,fhrs_3_en-GB,3,,FHRS,5
336613,Top Barn Farm & Business Cent,Worcester Road,Holt Heath,Worcester,Frost Catering,Mobile caterer,7846,5,,684963,5,,52.25397100000000,MH/K394HOWORC/1,148,wrsenquiries@worcsregservices.gov.uk,Malvern Hills,http://www.worcsregservices.gov.uk,-2.25054200000000,WR6 6NH,2013-04-18,fhrs_5_en-GB,5,,FHRS,5
336614,G H Bowkett Ltd,1-3 Market Square,Tenbury Wells,Worcestershire,G H Bowketts Ltd,Retailers - other,4613,5,,672842,5,,52.29286700000000,MH/K011TE1-3M/1,148,wrsenquiries@worcsregservices.gov.uk,Malvern Hills,http://www.worcsregservices.gov.uk,-2.54171800000000,WR15 8BN,2011-05-20,fhrs_5_en-GB,5,,FHRS,5
336615,Top Barn Farm,Worcester Road,Holt Heath,Worcester,G. S. Catering,Mobile caterer,7846,5,,730852,5,,52.25397100000000,14/00312/FOOD,148,wrsenquiries@worcsregservices.gov.uk,Malvern Hills,http://www.worcsregservices.gov.uk,-2.25054200000000,WR6 6NH,2014-07-25,fhrs_5_en-GB,5,,FHRS,5
336616,Rosendale,66 Worcester Road,Malvern,Worcestershire,G4S Children's Services,Hospitals/Childcare/Caring Premises,5,0,,684597,0,,52.11924500000000,13/00346/FOOD,148,wrsenquiries@worcsregservices.gov.uk,Malvern Hills,http://www.worcsregservices.gov.uk,-2.32911900000000,WR14 1NU,2014-05-02,fhrs_5_en-GB,5,,FHRS,0
336617,The Curradine Barns,Church Farm,Shrawley,Worcester,Galloping Gourmet,Mobile caterer,7846,0,,672792,0,,52.27891600000000,MH/B274SHCHUR/1,148,wrsenquiries@worcsregservices.gov.uk,Malvern Hills,http://www.worcsregservices.gov.uk,-2.29125500000000,WR6 6TS,2013-08-07,fhrs_5_en-GB,5,,FHRS,0
336618,The Lodge,Bridgend,Eldersfield,Gloucester,Glevum Farm Trust,Hospitals/Childcare/Caring Premises,5,5,,672988,5,,51.98810000000000,MH/N07ZELBRID/1,148,wrsenquiries@worcsregservices.gov.uk,Malvern Hills,http://www.worcsregservices.gov.uk,-2.28745500000000,GL19 4PN,2010-07-22,fhrs_4_en-GB,4,,FHRS,10
336619,The Gloster Arms,15 Merton Road,Malvern,Worcestershire,Gloster Arms,Pub/bar/nightclub,7843,5,,722327,5,,52.12842500000000,14/01197/FOOD,148,wrsenquiries@worcsregservices.gov.uk,Malvern Hills,http://www.worcsregservices.gov.uk,-2.31601100000000,WR14 1ND,2014-12-10,fhrs_5_en-GB,5,,FHRS,0
336620,Redroofs Bransford Garage,Bransford,Worcester,,Go-Gourmet,Takeaway/sandwich shop,7844,0,,672728,5,,52.17180400000000,MH/B091BRBRAN/1,148,wrsenquiries@worcsregservices.gov.uk,Malvern Hills,http://www.worcsregservices.gov.uk,-2.29523300000000,WR6 5JB,2015-01-16,fhrs_5_en-GB,5,,FHRS,0
336621,271 Pickersleigh Road,Malvern,Worcestershire,,Golden Fry/ Golden Pizza,Takeaway/sandwich shop,7844,10,,672745,5,,52.11524100000000,MH/B094XG271P/1,148,wrsenquiries@worcsregservices.gov.uk,Malvern Hills,http://www.worcsregservices.gov.uk,-2.31035300000000,WR14 2QS,2013-06-05,fhrs_3_en-GB,3,,FHRS,10
336622,5 Avenue Road,Malvern,Worcestershire,,Goldhill Residential Care Home,Hospitals/Childcare/Caring Premises,5,5,,672980,5,,52.10997100000000,MH/N036XP5AVE/2,148,wrsenquiries@worcsregservices.gov.uk,Malvern Hills,http://www.worcsregservices.gov.uk,-2.32132700000000,WR14 3AL,2014-04-11,fhrs_4_en-GB,4,,FHRS,10
336623,5 Graham Road,Malvern,Worcestershire,,Great Malvern Hotel,Hotel/bed & breakfast/guest house,7842,0,,672917,5,,52.11186100000000,MH/M015XP5GRA/1,148,wrsenquiries@worcsregservices.gov.uk,Malvern Hills,http://www.worcsregservices.gov.uk,-2.32696200000000,WR14 2HN,2011-11-07,fhrs_4_en-GB,4,,FHRS,10
336624,126 Guarlford Road,Malvern,Worcestershire,,Green Dragon,Pub/bar/nightclub,7843,10,,672652,10,,52.10602900000000,MH/B014XC126G/1,148,wrsenquiries@worcsregservices.gov.uk,Malvern Hills,http://www.worcsregservices.gov.uk,-2.29520700000000,WR14 3QT,2014-11-07,fhrs_3_en-GB,3,,FHRS,10
336625,11 Graham Road,Malvern,Worcestershire,,Greenlink Organic,Restaurant/Cafe/Canteen,1,0,,672697,0,,52.11263200000000,MH/B071XP11GR/1,148,wrsenquiries@worcsregservices.gov.uk,Malvern Hills,http://www.worcsregservices.gov.uk,-2.32772700000000,WR14 2HR,2014-12-09,fhrs_5_en-GB,5,,FHRS,5
336626,326 Worcester Road,Malvern,Worcestershire,,Greggs,Takeaway/sandwich shop,7844,0,,672859,5,,52.13214700000000,MH/K111NE326W/1,148,wrsenquiries@worcsregservices.gov.uk,Malvern Hills,http://www.worcsregservices.gov.uk,-2.30581100000000,WR14 1BD,2014-09-03,fhrs_5_en-GB,5,,FHRS,5
336627,Grimley Raceway 94 (Mobile),Grimley,Worcester,,Grimley Raceway A443,Retailers - other,4613,5,,672815,5,,52.24236600000000,MH/D11NGRGRIM/1,148,wrsenquiries@worcsregservices.gov.uk,Malvern Hills,http://www.worcsregservices.gov.uk,-2.24145500000000,WR2 6LU,2010-04-18,fhrs_5_en-GB,5,,FHRS,5
336628,Astley Burf,Stourport-On-Severn,Worcestershire,,Hampstall Inn,Pub/bar/nightclub,7843,5,,672655,15,,52.30688400000000,MH/B034ASASTL/1,148,wrsenquiries@worcsregservices.gov.uk,Malvern Hills,http://www.worcsregservices.gov.uk,-2.27653700000000,DY13 0RY,2013-09-23,fhrs_2_en-GB,2,,FHRS,10
336629,Church End,Hanley Castle,Worcester,,Hanley Castle High School (Alliance In Partnership),School/college/university,7845,5,,672824,5,,52.07671800000000,MH/I01ZHCCHUR/1,148,wrsenquiries@worcsregservices.gov.uk,Malvern Hills,http://www.worcsregservices.gov.uk,-2.23648800000000,WR8 0BL,2014-04-28,fhrs_5_en-GB,5,,FHRS,0
336630,Malvern House,Welland Road,Hanley Swan,Worcester,Hanley Swan Bakery,Manufacturers/packers,7839,10,,672869,10,,52.08255000000000,MH/K33ZHCWELL/1,148,wrsenquiries@worcsregservices.gov.uk,Malvern Hills,http://www.worcsregservices.gov.uk,-2.27468000000000,WR8 0DA,2014-10-30,fhrs_3_en-GB,3,,FHRS,10
336631,Haresbrook Nursing Home,Berrington Road,Tenbury Wells,Worcestershire,Haresbrook Park Residential Home,Hospitals/Childcare/Caring Premises,5,5,,672966,5,,52.30552200000000,MH/N035TEBERR/2,148,wrsenquiries@worcsregservices.gov.uk,Malvern Hills,http://www.worcsregservices.gov.uk,-2.60511200000000,WR15 8EN,2015-01-21,fhrs_5_en-GB,5,,FHRS,5
336632,Top Barn Farm,Worcester Road,Holt Heath,Worcester,Harvest Shop,Retailers - other,4613,5,,672849,5,,52.25397100000000,MH/K051HOWORC/1,148,wrsenquiries@worcsregservices.gov.uk,Malvern Hills,http://www.worcsregservices.gov.uk,-2.25054200000000,WR6 6NH,2014-05-20,fhrs_4_en-GB,4,,FHRS,10
336633,The Hastings,130 Barnards Green Road,Malvern,Worcestershire,Hastings Old Peoples Home,Hospitals/Childcare/Caring Premises,5,0,,672975,5,,52.10758000000000,MH/N036XC130B/1,148,wrsenquiries@worcsregservices.gov.uk,Malvern Hills,http://www.worcsregservices.gov.uk,-2.30751100000000,WR14 3NA,2015-01-19,fhrs_5_en-GB,5,,FHRS,5
336634,Heath Farm,Moseley Road,Hallow,Worcester,Heath Farm Pig Roasting,Mobile caterer,7846,5,,672795,5,,52.22881900000000,MH/B27ZHAMOSE/1,148,wrsenquiries@worcsregservices.gov.uk,Malvern Hills,http://www.worcsregservices.gov.uk,-2.25789700000000,WR2 6NH,2013-08-07,fhrs_5_en-GB,5,,FHRS,5
336635,27 Church Street,Malvern,Worcestershire,,Henrys Cafe Bar and Bistro,Restaurant/Cafe/Canteen,1,5,,672685,5,,52.11158500000000,MH/B054XP27CH/3,148,wrsenquiries@worcsregservices.gov.uk,Malvern Hills,http://www.worcsregservices.gov.uk,-2.32916500000000,WR14 2AA,2013-10-11,fhrs_4_en-GB,4,,FHRS,10
336636,Bed And Breakfast Accommodation At,Henwick House,Jennett Tree Lane,Callow End,Henwick House Bed & Breakfast,Hotel/bed & breakfast/guest house,7842,0,,672932,0,,52.14542800000000,MH/M055POJENN/1,148,wrsenquiries@worcsregservices.gov.uk,Malvern Hills,http://www.worcsregservices.gov.uk,-2.25171500000000,WR2 4UB,2013-12-23,fhrs_5_en-GB,5,,FHRS,0
336637,114 Worcester Road,Malvern,Worcestershire,,Hillside Pizza,Takeaway/sandwich shop,7844,5,,672731,5,,52.12700500000000,MH/B091XL114W/2,148,wrsenquiries@worcsregservices.gov.uk,Malvern Hills,http://www.worcsregservices.gov.uk,-2.31569400000000,WR14 1SS,2014-05-21,fhrs_5_en-GB,5,,FHRS,0
336638,Bromyard Road,Cotheridge,Worcester,,Hilltop Farm,Mobile caterer,7846,5,,672876,5,,52.19342000000000,MH/K39ZCOBROM/1,148,wrsenquiries@worcsregservices.gov.uk,Malvern Hills,http://www.worcsregservices.gov.uk,-2.32466400000000,WR6 5LX,2014-05-20,fhrs_5_en-GB,5,,FHRS,5
336639,,74 Barnards Green Road,Malvern,Worcestershire,Hing Tai Chinese Takeaway,Takeaway/sandwich shop,7844,5,,672570,10,,52.10837000000000,13/00266/FOOD,148,wrsenquiries@worcsregservices.gov.uk,Malvern Hills,http://www.worcsregservices.gov.uk,-2.31135700000000,WR14 3LY,2013-07-29,fhrs_4_en-GB,4,,FHRS,5
336640,3 The Oaks,Stoke Bliss,Tenbury Wells,Worcestershire,Hollie's Catering,Mobile caterer,7846,5,,707330,0,,52.26516400000000,14/01060/FOOD,148,wrsenquiries@worcsregservices.gov.uk,Malvern Hills,http://www.worcsregservices.gov.uk,-2.54414700000000,WR15 8RR,2014-09-25,fhrs_5_en-GB,5,,FHRS,5
336641,The Holt Fleet,Holt Heath,Worcester,,Holt Fleet Restaurant,Pub/bar/nightclub,7843,5,,672621,5,,52.26564600000000,MH/B014HOHOLT/1,148,wrsenquiries@worcsregservices.gov.uk,Malvern Hills,http://www.worcsregservices.gov.uk,-2.26082100000000,WR6 6NL,2013-09-04,fhrs_5_en-GB,5,,FHRS,5
336642,97 Barnards Green Road,Malvern,Worcestershire,,Hong Kong,Takeaway/sandwich shop,7844,5,,672744,5,,52.10871400000000,MH/B094XC97BA/1,148,wrsenquiries@worcsregservices.gov.uk,Malvern Hills,http://www.worcsregservices.gov.uk,-2.31054200000000,WR14 3LT,2014-11-18,fhrs_5_en-GB,5,,FHRS,0
336643,Pickersleigh Grove,Malvern,Worcestershire,,Howbury House,Hospitals/Childcare/Caring Premises,5,5,,672983,0,,52.11919000000000,MH/N05ZXLPICK/1,148,wrsenquiries@worcsregservices.gov.uk,Malvern Hills,http://www.worcsregservices.gov.uk,-2.31642700000000,WR14 2LU,2014-01-27,fhrs_5_en-GB,5,,FHRS,0
336644,9 Worcester Road,Malvern,Worcestershire,,Hungs Kitchen,Restaurant/Cafe/Canteen,1,5,,672581,5,,52.11269700000000,13/00380/FOOD,148,wrsenquiries@worcsregservices.gov.uk,Malvern Hills,http://www.worcsregservices.gov.uk,-2.33040000000000,WR14 4QY,2014-11-24,fhrs_5_en-GB,5,,FHRS,5
336645,Green Street,Kempsey,Worcester,,Huntsman Inn,Pub/bar/nightclub,7843,10,,672625,5,,52.13933200000000,MH/B014KMGREE/1,148,wrsenquiries@worcsregservices.gov.uk,Malvern Hills,http://www.worcsregservices.gov.uk,-2.18955200000000,WR5 3QB,2011-03-30,fhrs_3_en-GB,3,,FHRS,10
336646,Malvern Lazer Quest,Spring Lane North,Malvern,Worcestershire,Ice Quest,Pub/bar/nightclub,7843,0,,672767,0,,52.12739500000000,MH/B117XLSPRI/3,148,wrsenquiries@worcsregservices.gov.uk,Malvern Hills,http://www.worcsregservices.gov.uk,-2.30766200000000,WR14 1BU,2014-05-16,fhrs_5_en-GB,5,,FHRS,5
336647,Chase High School,Geraldine Road,Malvern,Worcestershire,Innovate Services Ltd,School/college/university,7845,5,,672786,0,,52.10261000000000,MH/B15ZXCGERA/1,148,wrsenquiries@worcsregservices.gov.uk,Malvern Hills,http://www.worcsregservices.gov.uk,-2.31013400000000,WR14 3NZ,2014-03-24,fhrs_5_en-GB,5,,FHRS,0
336648,,,,,J & S Nail,Mobile caterer,7846,10,,715279,5,,,14/00762/FOOD,148,wrsenquiries@worcsregservices.gov.uk,Malvern Hills,http://www.worcsregservices.gov.uk,,,2014-11-07,fhrs_4_en-GB,4,,FHRS,5
336649,Orleton,Stanford Bridge,Worcester,,J W Spilsbury & Co,Hotel/bed & breakfast/guest house,7842,10,,672934,5,,52.30106900000000,MH/M055SOORLE/1,148,wrsenquiries@worcsregservices.gov.uk,Malvern Hills,http://www.worcsregservices.gov.uk,-2.44633300000000,WR6 6SU,2008-12-10,fhrs_4_en-GB,4,,FHRS,5
336650,66 Main Road,Kempsey,Worcester,,Jade Palace,Takeaway/sandwich shop,7844,10,,672733,5,,52.13998500000000,MH/B094KM66MA/1,148,wrsenquiries@worcsregservices.gov.uk,Malvern Hills,http://www.worcsregservices.gov.uk,-2.21722900000000,WR5 3JF,2013-07-11,fhrs_4_en-GB,4,,FHRS,5
336651,Mhhyat Foyer,"Spring Lane North, Haysfield",Malvern,Worcs,Jamboree,Hotel/bed & breakfast/guest house,7842,10,,672953,5,,52.13085000000000,MH/M095XLSPRI/1,148,wrsenquiries@worcsregservices.gov.uk,Malvern Hills,http://www.worcsregservices.gov.uk,-2.31011100000000,WR14 1AH,2010-07-13,fhrs_4_en-GB,4,,FHRS,5
336652,21 School Lane,Upton-Upon-Severn,Worcester,,Jasmin,Hotel/bed & breakfast/guest house,7842,10,,672952,5,,52.06112300000000,MH/M05ZUP21SC/1,148,wrsenquiries@worcsregservices.gov.uk,Malvern Hills,http://www.worcsregservices.gov.uk,-2.21586900000000,WR8 0LD,2008-06-13,fhrs_4_en-GB,4,,FHRS,5
336653,Malvern St James Sport Complex,33 Barnards Green Road,Malvern,Worcestershire,Juice Bar,Restaurant/Cafe/Canteen,1,5,,672726,5,,52.11172700000000,MH/B07ZXC33BA/1,148,wrsenquiries@worcsregservices.gov.uk,Malvern Hills,http://www.worcsregservices.gov.uk,-2.31691500000000,WR14 3LH,2009-08-28,fhrs_5_en-GB,5,,FHRS,5
336654,59 Brookfarm Drive,Malvern,Worcestershire,,Kelmer Catering,Mobile caterer,7846,10,,672887,10,,52.10146800000000,MH/K43ZXC59BR/1,148,wrsenquiries@worcsregservices.gov.uk,Malvern Hills,http://www.worcsregservices.gov.uk,-2.30360000000000,WR14 3SH,2013-09-06,fhrs_3_en-GB,3,,FHRS,10
336655,Summer Hops,B4204 Rochford,Rochford,Tenbury Wells,Keysell's Farm,Manufacturers/packers,7839,5,,684620,5,,52.30422300000000,14/00747/FOOD,148,wrsenquiries@worcsregservices.gov.uk,Malvern Hills,http://www.worcsregservices.gov.uk,-2.54704600000000,WR15 8SL,2014-05-22,fhrs_5_en-GB,5,,FHRS,5
336656,Ivy Cottage,Hancocks Lane,Welland,"Malvern, Worcestershire",Kim's Cafe,Retailers - other,4613,10,,672874,5,,52.05341800000000,MH/K394CAHANC/2,148,wrsenquiries@worcsregservices.gov.uk,Malvern Hills,http://www.worcsregservices.gov.uk,-2.31854300000000,WR13 6LG,2008-03-04,fhrs_3_en-GB,3,,FHRS,10
336657,Bromyard Road,Knightwick,Worcester,,Knightwick Butchers,Retailers - other,4613,5,,672850,5,,52.20040700000000,MH/K051KNBROM/1,148,wrsenquiries@worcsregservices.gov.uk,Malvern Hills,http://www.worcsregservices.gov.uk,-2.39484400000000,WR6 5PH,2014-11-26,fhrs_5_en-GB,5,,FHRS,5
336658,14 Newtown Road,Malvern,Worcestershire,,Kwai Authentic Foods,Takeaway/sandwich shop,7844,5,,672755,5,,52.12205600000000,MH/B094XT14NE/1,148,wrsenquiries@worcsregservices.gov.uk,Malvern Hills,http://www.worcsregservices.gov.uk,-2.33042600000000,WR14 1NZ,2014-05-07,fhrs_5_en-GB,5,,FHRS,0
336659,Unit 11,Mill Farm,B4203 Stanford Bridge,Stanford Bridge,Kyre Kitchens,Manufacturers/packers,7839,5,,672572,5,,52.29179600000000,13/00284/FOOD,148,wrsenquiries@worcsregservices.gov.uk,Malvern Hills,http://www.worcsregservices.gov.uk,-2.42540600000000,WR6 6SP,2014-12-11,fhrs_5_en-GB,5,,FHRS,5
336660,Old Police Station,Sutton,"Tenbury Wells, Worcestershire",,Kyre UK Ltd,Retailers - other,4613,10,,672823,5,,52.28131500000000,MH/E31ZKYSUTT/1,148,wrsenquiries@worcsregservices.gov.uk,Malvern Hills,http://www.worcsregservices.gov.uk,-2.55290600000000,WR15 8RN,2014-03-31,fhrs_4_en-GB,4,,FHRS,5
336661,The Red Lion,45 The Village,Powick,Worcester,L And N Catering @ The Red Lion,Pub/bar/nightclub,7843,5,,722326,5,,52.16209800000000,14/01049/FOOD,148,wrsenquiries@worcsregservices.gov.uk,Malvern Hills,http://www.worcsregservices.gov.uk,-2.24641400000000,WR2 4QT,2014-12-08,fhrs_4_en-GB,4,,FHRS,10
336662,Laylock Nurseries,Bromyard Road,Cotheridge,Worcester,Ladybird Restaurant,Restaurant/Cafe/Canteen,1,5,,672694,5,,52.19089300000000,MH/B071COBROM/1,148,wrsenquiries@worcsregservices.gov.uk,Malvern Hills,http://www.worcsregservices.gov.uk,-2.29786100000000,WR6 5LP,2014-11-17,fhrs_5_en-GB,5,,FHRS,5
336663,The Lodge Larford Farm,Astley,Stourport-On-Severn,Worcestershire,Larford Lake and River Severn,Restaurant/Cafe/Canteen,1,5,,672722,5,,52.32110300000000,MH/B077ASASTL/1,148,wrsenquiries@worcsregservices.gov.uk,Malvern Hills,http://www.worcsregservices.gov.uk,-2.27055200000000,DY13 0SQ,2013-09-06,fhrs_4_en-GB,4,,FHRS,10
336664,Laughern Hill,Wichenford,Worcester,Worcestershire,Laughern Hill Bed And Breakfast,Hotel/bed & breakfast/guest house,7842,5,,672561,0,,52.22685800000000,13/00085/FOOD,148,wrsenquiries@worcsregservices.gov.uk,Malvern Hills,http://www.worcsregservices.gov.uk,-2.33663500000000,WR6 6YB,2013-07-18,fhrs_5_en-GB,5,,FHRS,0
336665,55 Albert Park Road,Malvern,Worcestershire,,Le Delice,Retailers - other,4613,5,,672864,5,,52.12609700000000,MH/K11ZXT55AL/1,148,wrsenquiries@worcsregservices.gov.uk,Malvern Hills,http://www.worcsregservices.gov.uk,-2.32873200000000,WR14 1RH,2014-11-07,fhrs_5_en-GB,5,,FHRS,5
336666,Hereford Road,Leigh Sinton,"Malvern, Worcestershire",,Leigh Sinton Chinese Take Away,Takeaway/sandwich shop,7844,5,,672734,5,,52.15468800000000,MH/B094LEHERE/2,148,wrsenquiries@worcsregservices.gov.uk,Malvern Hills,http://www.worcsregservices.gov.uk,-2.32512800000000,WR13 5DS,2013-01-24,fhrs_5_en-GB,5,,FHRS,5
336667,Crowcroft House Farm,Crowcroft,Leigh Sinton,"Malvern, Worcestershire",Leigh Sinton Garden Centre,Retailers - other,4613,5,,672900,5,,52.15158400000000,MH/L47ZLECROW/1,148,wrsenquiries@worcsregservices.gov.uk,Malvern Hills,http://www.worcsregservices.gov.uk,-2.34197100000000,WR13 5ED,2007-08-28,fhrs_5_en-GB,5,,FHRS,5
336668,Hereford Road,Leigh Sinton,"Malvern, Worcestershire",,Leigh Sinton Post Office/Store,Retailers - other,4613,0,,672845,5,,52.15468800000000,MH/K031LEHERE/1,148,wrsenquiries@worcsregservices.gov.uk,Malvern Hills,http://www.worcsregservices.gov.uk,-2.32512800000000,WR13 5DS,2013-04-04,fhrs_5_en-GB,5,,FHRS,0
336669,Badgers,Brockhill Road,Malvern,Worcestershire,Lesley Hitchen,Other catering premises,7841,0,,672802,5,,52.10167100000000,MH/B29ZWMBROC/1,148,wrsenquiries@worcsregservices.gov.uk,Malvern Hills,http://www.worcsregservices.gov.uk,-2.34709300000000,WR14 4DL,2010-01-29,fhrs_5_en-GB,5,,FHRS,0
336670,Clives Fruit Farm,Upper Hook Road,Upton-Upon-Severn,Worcester,Little Blossom Nursery,Hospitals/Childcare/Caring Premises,5,0,,672831,0,,52.06423100000000,MH/I098UPUPPE/1,148,wrsenquiries@worcsregservices.gov.uk,Malvern Hills,http://www.worcsregservices.gov.uk,-2.24012800000000,WR8 0SA,2010-11-10,fhrs_5_en-GB,5,,FHRS,5
336671,Hunters Moon,Bransford,Worcester,,Little Growbags,Hospitals/Childcare/Caring Premises,5,0,,672828,0,,52.21087646484375,MH/I097BRBRAN/1,148,wrsenquiries@worcsregservices.gov.uk,Malvern Hills,http://www.worcsregservices.gov.uk,-2.20981502532959,WR6 5JB,2014-04-29,fhrs_5_en-GB,5,,FHRS,5
336672,1 Clerkenleap Cottages,Bath Road,Broomhall,Worcester,Little Hoots Day Nursery Ltd,Hospitals/Childcare/Caring Premises,5,0,,672893,0,,52.15926500000000,MH/K458KMBATH/1,148,wrsenquiries@worcsregservices.gov.uk,Malvern Hills,http://www.worcsregservices.gov.uk,-2.21511600000000,WR5 3HR,2008-03-03,fhrs_5_en-GB,5,,FHRS,0
336673,Adj Bayton C Of E School,Bayton,Kidderminster,Worcestershire,Little Learners Nursery,School/college/university,7845,5,,672827,5,,52.35561000000000,MH/I097BABAYT/1,148,wrsenquiries@worcsregservices.gov.uk,Malvern Hills,http://www.worcsregservices.gov.uk,-2.45172800000000,DY14 9LG,2013-11-07,fhrs_5_en-GB,5,,FHRS,5
336674,Little Malvern Court,Little Malvern,Malvern,Worcestershire,Little Malvern Court Visits,Restaurant/Cafe/Canteen,1,5,,684692,5,,52.06120600000000,MH/B31ZLMLITT/1,148,wrsenquiries@worcsregservices.gov.uk,Malvern Hills,http://www.worcsregservices.gov.uk,-2.33707900000000,WR14 4JN,2006-04-21,fhrs_5_en-GB,5,,FHRS,5
336675,Enigma Business Park,Maple Road,"Malvern, Worcs",,Little Oaks Day Nursery,Hospitals/Childcare/Caring Premises,5,5,,672834,0,,52.12490200000000,MH/I099XLENIG/1,148,wrsenquiries@worcsregservices.gov.uk,Malvern Hills,http://www.worcsregservices.gov.uk,-2.30152500000000,WR14 1GQ,2011-10-12,fhrs_5_en-GB,5,,FHRS,0
336676,Broomhall Grange,Norton Road,Broomhall,Worcester,Little Treasures Nursery,Hospitals/Childcare/Caring Premises,5,5,,672833,5,,52.16264800000000,MH/I099KMNORT/1,148,wrsenquiries@worcsregservices.gov.uk,Malvern Hills,http://www.worcsregservices.gov.uk,-2.19818900000000,WR5 2PD,2014-11-21,fhrs_5_en-GB,5,,FHRS,5
336677,Christian Resources Centre,Church Street,Malvern,Worcestershire,Lyttleton Well Cafe,Restaurant/Cafe/Canteen,1,5,,672718,5,,52.11135600000000,MH/B074XPCHUR/1,148,wrsenquiries@worcsregservices.gov.uk,Malvern Hills,http://www.worcsregservices.gov.uk,-2.32745500000000,WR14 2AY,2013-11-18,fhrs_5_en-GB,5,,FHRS,5
336678,104 Barnards Green Road,Malvern,Worcestershire,,M & R A Sherriff,Retailers - other,4613,5,,672858,5,,52.10830900000000,MH/K071XC104B/1,148,wrsenquiries@worcsregservices.gov.uk,Malvern Hills,http://www.worcsregservices.gov.uk,-2.31052400000000,WR14 3ND,2012-05-23,fhrs_5_en-GB,5,,FHRS,0
336679,6 Teme Street,Tenbury Wells,Worcestershire,,Mad Hatters Cafe,Restaurant/Cafe/Canteen,1,5,,684629,5,,52.31141600000000,14/00883/FOOD,148,wrsenquiries@worcsregservices.gov.uk,Malvern Hills,http://www.worcsregservices.gov.uk,-2.59350100000000,WR15 8BA,2014-05-23,fhrs_5_en-GB,5,,FHRS,5
336680,Hayswood Farm,C2102 Madresfield Village,Madresfield Village,Madresfield,Madresfield Early Years Centre,School/college/university,7845,0,,672783,0,,52.12574600000000,MH/B15ZMDMADR/1,148,wrsenquiries@worcsregservices.gov.uk,Malvern Hills,http://www.worcsregservices.gov.uk,-2.28750800000000,WR13 5AA,2014-11-25,fhrs_5_en-GB,5,,FHRS,0
336681,Kempsey Community Centre,Main Road,Kempsey,Worcester,Magic Moments Private Day Nursery,Hospitals/Childcare/Caring Premises,5,5,,672832,5,,52.14556100000000,MH/I099KMMAIN/1,148,wrsenquiries@worcsregservices.gov.uk,Malvern Hills,http://www.worcsregservices.gov.uk,-2.21605800000000,WR5 3LQ,2014-01-03,fhrs_5_en-GB,5,,FHRS,5
336682,Main Road,Kempsey,Worcester,,Malbre House,Hotel/bed & breakfast/guest house,7842,10,,672905,5,,52.12386100000000,MH/M015KMMAIN/1,148,wrsenquiries@worcsregservices.gov.uk,Malvern Hills,http://www.worcsregservices.gov.uk,-2.21950300000000,WR5 3PA,2010-02-22,fhrs_4_en-GB,4,,FHRS,5
336683,Unit 4,Wells Business Centre,157 Wells Road,Malvern,Malvern Buffets,Retailers - other,4613,0,,712514,0,,52.08303100000000,14/01110/FOOD,148,wrsenquiries@worcsregservices.gov.uk,Malvern Hills,http://www.worcsregservices.gov.uk,-2.33245700000000,WR14 4HA,2014-11-05,fhrs_5_en-GB,5,,FHRS,5
336684,229 Worcester Road,Malvern,Worcestershire,,Malvern Butchers,Retailers - other,4613,5,,672857,5,,52.12675100000000,MH/K051XL229W/1,148,wrsenquiries@worcsregservices.gov.uk,Malvern Hills,http://www.worcsregservices.gov.uk,-2.31661200000000,WR14 1SU,2014-04-11,fhrs_5_en-GB,5,,FHRS,5
336685,53 Somers Park Avenue,Malvern,Worcestershire,,Malvern Catering Services,Restaurant/Cafe/Canteen,1,0,,672808,0,,52.12839400000000,MH/B31ZXT53SO/1,148,wrsenquiries@worcsregservices.gov.uk,Malvern Hills,http://www.worcsregservices.gov.uk,-2.32714200000000,WR14 1SE,2011-11-03,fhrs_5_en-GB,5,,FHRS,5
336686,185 Worcester Road,Malvern,Worcestershire,,Malvern Community Hospital,Hospitals/Childcare/Caring Premises,5,0,,672768,0,,52.12385700000000,MH/B13ZXT185W/1,148,wrsenquiries@worcsregservices.gov.uk,Malvern Hills,http://www.worcsregservices.gov.uk,-2.32287300000000,WR14 1EX,2014-09-05,fhrs_5_en-GB,5,,FHRS,0
336687,5 St. Peters Road,Malvern,Worcestershire,,Malvern Country Market,Retailers - other,4613,5,,672871,0,,52.12448400000000,MH/K33ZXW5STP/1,148,wrsenquiries@worcsregservices.gov.uk,Malvern Hills,http://www.worcsregservices.gov.uk,-2.33657800000000,WR14 1QS,2010-06-09,fhrs_5_en-GB,5,,FHRS,0
336688,Guesten Room Lyttleton Rooms,Church Street,Malvern,Worcestershire,Malvern Country Market,Retailers - other,4613,5,,672994,5,,52.10747200000000,MH/O05ZXPCHUR/1,148,wrsenquiries@worcsregservices.gov.uk,Malvern Hills,http://www.worcsregservices.gov.uk,-2.32434600000000,WR14 3DR,2008-12-12,fhrs_5_en-GB,5,,FHRS,5
336689,4 Moat Way,Malvern,Worcestershire,,Malvern Kebab Pizza,Takeaway/sandwich shop,7844,5,,672759,5,,52.11336700000000,MH/B09ZXG4MOA/1,148,wrsenquiries@worcsregservices.gov.uk,Malvern Hills,http://www.worcsregservices.gov.uk,-2.30149100000000,WR14 2PE,2014-04-14,fhrs_5_en-GB,5,,FHRS,5
336690,Malverton,10 Pound Bank Road,Malvern,Worcestershire,Malvern Kindergarten Ltd,Hospitals/Childcare/Caring Premises,5,5,,672836,5,,52.10971900000000,MH/I09ZXC10PO/1,148,wrsenquiries@worcsregservices.gov.uk,Malvern Hills,http://www.worcsregservices.gov.uk,-2.30446000000000,WR14 2DD,2014-05-16,fhrs_5_en-GB,5,,FHRS,5
336691,138 Worcester Road,Malvern,Worcestershire,,Malvern Link Fish Bar Ltd,Takeaway/sandwich shop,7844,5,,672749,5,,52.12700500000000,MH/B094XL138W/1,148,wrsenquiries@worcsregservices.gov.uk,Malvern Hills,http://www.worcsregservices.gov.uk,-2.31569400000000,WR14 1SS,2014-05-12,fhrs_5_en-GB,5,,FHRS,5
336692,23 St. Andrews Road,Malvern,Worcestershire,,Malvern Montessori,Retailers - other,4613,5,,672898,5,,52.10199300000000,MH/K45ZXC23ST/1,148,wrsenquiries@worcsregservices.gov.uk,Malvern Hills,http://www.worcsregservices.gov.uk,-2.31902100000000,WR14 3PR,2012-11-14,fhrs_5_en-GB,5,,FHRS,0
336693,Malvern Hills Outdoor Education Cen,Old Hollow,Malvern,Worcestershire,Malvern Outdoor Elements,Hospitals/Childcare/Caring Premises,5,5,,684592,5,,52.12054600000000,13/00255/FOOD,148,wrsenquiries@worcsregservices.gov.uk,Malvern Hills,http://www.worcsregservices.gov.uk,-2.34902200000000,WR14 4NR,2013-12-12,fhrs_4_en-GB,4,,FHRS,10
336694,The Club House,Spring Lane,Malvern,Worcestershire,Malvern Rugby Football Club,Other catering premises,7841,10,,672812,5,,52.12700100000000,MH/B337XLSPRI/1,148,wrsenquiries@worcsregservices.gov.uk,Malvern Hills,http://www.worcsregservices.gov.uk,-2.31047900000000,WR14 1AJ,2011-03-31,fhrs_3_en-GB,3,,FHRS,10
336695,15 Avenue Road,Malvern,Worcestershire,,Malvern St James,School/college/university,7845,0,,672772,0,,52.11067400000000,MH/B154XC15AV/1,148,wrsenquiries@worcsregservices.gov.uk,Malvern Hills,http://www.worcsregservices.gov.uk,-2.31737500000000,WR14 3BA,2013-06-18,fhrs_5_en-GB,5,,FHRS,5
336696,6 Moat Way,Malvern,Worcestershire,,Malvern Tandoori,Takeaway/sandwich shop,7844,5,,672746,5,,52.11336700000000,MH/B094XG6MOA/3,148,wrsenquiries@worcsregservices.gov.uk,Malvern Hills,http://www.worcsregservices.gov.uk,-2.30149100000000,WR14 2PE,2010-02-22,fhrs_4_en-GB,4,,FHRS,10
336697,The Malvern Theatres,Grange Road,Malvern,Worcestershire,Malvern Theatres Restaurant & Bars,Restaurant/Cafe/Canteen,1,5,,672691,0,,52.11067500000000,MH/B054XPGRAN/3,148,wrsenquiries@worcsregservices.gov.uk,Malvern Hills,http://www.worcsregservices.gov.uk,-2.32679300000000,WR14 3HB,2015-01-16,fhrs_5_en-GB,5,,FHRS,5
336698,90-92 Worcester Road,Malvern,Worcestershire,,Malvern Tilla Restaurant & Lounge Bar,Restaurant/Cafe/Canteen,1,10,,672692,5,,52.11966700000000,MH/B054XT90-9/1,148,wrsenquiries@worcsregservices.gov.uk,Malvern Hills,http://www.worcsregservices.gov.uk,-2.32944400000000,WR14 1NY,2012-03-05,fhrs_4_en-GB,4,,FHRS,5
336699,Malvern Cube,Albert Road North,Malvern,Worcestershire,Malvern Youth & Community Trust,Other catering premises,7841,5,,672814,5,,52.11404800000000,MH/B337XPALBE/2,148,wrsenquiries@worcsregservices.gov.uk,Malvern Hills,http://www.worcsregservices.gov.uk,-2.32274300000000,WR14 2YF,2013-04-22,fhrs_5_en-GB,5,,FHRS,5
336700,Picnic Layby A456,Mamble,Worcestershire,,Mamble Snack Bar,Takeaway/sandwich shop,7844,5,,697350,5,,,14/00967/FOOD,148,wrsenquiries@worcsregservices.gov.uk,Malvern Hills,http://www.worcsregservices.gov.uk,,,2014-10-23,fhrs_4_en-GB,4,,FHRS,10
336701,Manor Arms,The Village,Abberley,Worcester,Manor Arms Hotel,Pub/bar/nightclub,7843,10,,684605,5,,52.30769300000000,14/00138/FOOD,148,wrsenquiries@worcsregservices.gov.uk,Malvern Hills,http://www.worcsregservices.gov.uk,-2.36279800000000,WR6 6BN,2014-04-29,fhrs_4_en-GB,4,,FHRS,5
336702,32 Old Road North,Kempsey,Worcester,Worcestershire,Manor House,Hotel/bed & breakfast/guest house,7842,5,,719770,5,,52.14294700000000,14/00136/FOOD,148,wrsenquiries@worcsregservices.gov.uk,Malvern Hills,http://www.worcsregservices.gov.uk,-2.21495000000000,WR5 3JZ,2014-11-28,fhrs_5_en-GB,5,,FHRS,5
336703,Market Square,Tenbury Wells,Worcestershire,,Market Tavern,Pub/bar/nightclub,7843,0,,672660,5,,52.31060400000000,MH/B034TEMARK/1,148,wrsenquiries@worcsregservices.gov.uk,Malvern Hills,http://www.worcsregservices.gov.uk,-2.59582300000000,WR15 8BL,2014-03-18,fhrs_5_en-GB,5,,FHRS,0
336704,Unit 1 Malvern Retail Park,Roman Way,Malvern,Worcestershire,Marks and Spencers Cafe,Restaurant/Cafe/Canteen,1,0,,672713,0,,52.13174100000000,MH/B074XLROMA/1,148,wrsenquiries@worcsregservices.gov.uk,Malvern Hills,http://www.worcsregservices.gov.uk,-2.30260800000000,WR14 1PZ,2014-09-03,fhrs_5_en-GB,5,,FHRS,5
336705,Marlbank Road,Welland,Malvern,Worcestershire,Marlbank Inn,Pub/bar/nightclub,7843,5,,672597,5,,52.06241000000000,14/00823/FOOD,148,wrsenquiries@worcsregservices.gov.uk,Malvern Hills,http://www.worcsregservices.gov.uk,-2.31154700000000,WR13 6NA,2014-05-09,fhrs_5_en-GB,5,,FHRS,0
336706,132 Worcester Road,Malvern,Worcestershire,,May Link Takeaway/Rest.,Restaurant/Cafe/Canteen,1,5,,672677,5,,52.12700500000000,MH/B054XL132W/1,148,wrsenquiries@worcsregservices.gov.uk,Malvern Hills,http://www.worcsregservices.gov.uk,-2.31569400000000,WR14 1SS,2014-05-21,fhrs_4_en-GB,4,,FHRS,10
336707,333 Worcester Road,Malvern,Worcestershire,,Mayflower Takeaway,Takeaway/sandwich shop,7844,0,,672750,0,,52.13049900000000,MH/B094XL333W/2,148,wrsenquiries@worcsregservices.gov.uk,Malvern Hills,http://www.worcsregservices.gov.uk,-2.31016700000000,WR14 1AN,2014-05-21,fhrs_5_en-GB,5,,FHRS,0
336708,Cob House,Worcester Road,Wichenford,Worcestershire,Mayfly Cafe,Restaurant/Cafe/Canteen,1,10,,672709,5,,52.23573300000000,MH/B074WIWORC/1,148,wrsenquiries@worcsregservices.gov.uk,Malvern Hills,http://www.worcsregservices.gov.uk,-2.34222300000000,WR6 6QB,2013-12-02,fhrs_4_en-GB,4,,FHRS,5
336709,Roman Way,Malvern,Worcestershire,,McDonald's,Restaurant/Cafe/Canteen,1,5,,672682,5,,52.13174100000000,MH/B054XLROMA/1,148,wrsenquiries@worcsregservices.gov.uk,Malvern Hills,http://www.worcsregservices.gov.uk,-2.30260800000000,WR14 1PZ,2013-08-23,fhrs_5_en-GB,5,,FHRS,5
336710,Picken End,Hanley Swan,Worcester,,Meadowbank,Hotel/bed & breakfast/guest house,7842,10,,672946,5,,52.08087600000000,MH/M05ZHCPICK/1,148,wrsenquiries@worcsregservices.gov.uk,Malvern Hills,http://www.worcsregservices.gov.uk,-2.27172200000000,WR8 0DQ,2009-10-09,fhrs_4_en-GB,4,,FHRS,5
336711,Worcestershire Golf Club,Woodfarm Road,Malvern,Worcestershire,Metcalfe Catering,Other catering premises,7841,0,,672810,0,,52.08678600000000,MH/B337MWWOOD/1,148,wrsenquiries@worcsregservices.gov.uk,Malvern Hills,http://www.worcsregservices.gov.uk,-2.32718700000000,WR14 4PP,2014-09-09,fhrs_5_en-GB,5,,FHRS,0
336712,Brookend Farm,Brookend Lane,Kempsey,Worcester,MJW Catering,Mobile caterer,7846,5,,672790,0,,52.14674900000000,MH/B274KMBROO/1,148,wrsenquiries@worcsregservices.gov.uk,Malvern Hills,http://www.worcsregservices.gov.uk,-2.20530800000000,WR5 3LF,2010-09-28,fhrs_5_en-GB,5,,FHRS,0
336713,23 Graham Road,Malvern,Worcestershire,,Montrose House,Hotel/bed & breakfast/guest house,7842,5,,672913,5,,52.11437700000000,MH/M015XP23GR/1,148,wrsenquiries@worcsregservices.gov.uk,Malvern Hills,http://www.worcsregservices.gov.uk,-2.32756500000000,WR14 2HU,2013-01-28,fhrs_4_en-GB,4,,FHRS,10
336714,50 Belle Vue Terrace,Malvern,Worcestershire,,Mount Pleasant Hotel,Hotel/bed & breakfast/guest house,7842,5,,672915,5,,52.11135800000000,MH/M015XP50BE/1,148,wrsenquiries@worcsregservices.gov.uk,Malvern Hills,http://www.worcsregservices.gov.uk,-2.33018600000000,WR14 4PZ,2014-09-02,fhrs_5_en-GB,5,,FHRS,5
336715,9 Victoria Road,Malvern,Worcestershire,,Mowbray Nursing Home,Hospitals/Childcare/Caring Premises,5,5,,672964,5,,52.11513600000000,MH/N01ZXP9VIC/1,148,wrsenquiries@worcsregservices.gov.uk,Malvern Hills,http://www.worcsregservices.gov.uk,-2.32602200000000,WR14 2TF,2014-09-03,fhrs_5_en-GB,5,,FHRS,5
336716,9 Birchwood Drive,Stocks Lane,Newland Malvern,Worcestershire,Mr & Mrs Asquith,Mobile caterer,7846,5,,672883,5,,52.14250100000000,MH/K434XLSTOC/6,148,wrsenquiries@worcsregservices.gov.uk,Malvern Hills,http://www.worcsregservices.gov.uk,-2.29994900000000,WR13 5AZ,2013-04-02,fhrs_5_en-GB,5,,FHRS,0
336717,Ham Cottage,Laburnum Walk,Upton-Upon-Severn,Worcester,Mrs Gillian Newman,Hotel/bed & breakfast/guest house,7842,5,,672936,5,,52.05912200000000,MH/M055UPLABU/1,148,wrsenquiries@worcsregservices.gov.uk,Malvern Hills,http://www.worcsregservices.gov.uk,-2.21359800000000,WR8 0LW,2008-08-21,fhrs_5_en-GB,5,,FHRS,5
336718,2 Birchwood Drive,Stocks Lane,Newland,"Malvern, Worcestershire",Mrs Keeble,Mobile caterer,7846,0,,672880,0,,52.14250100000000,MH/K434XLSTOC/1,148,wrsenquiries@worcsregservices.gov.uk,Malvern Hills,http://www.worcsregservices.gov.uk,-2.29994900000000,WR13 5AZ,2008-08-25,fhrs_5_en-GB,5,,FHRS,0
336719,9a Birchwood Drive,Stocks Lane,Newland,"Malvern, Worcestershire",Ms Hill,Mobile caterer,7846,0,,672885,0,,52.14251600000000,MH/K434XLSTOC/8,148,wrsenquiries@worcsregservices.gov.uk,Malvern Hills,http://www.worcsregservices.gov.uk,-2.30788400000000,WR13 5AW,2013-04-02,fhrs_5_en-GB,5,,FHRS,5
336720,9a Three Counties Park,Upper Pendock,Malvern,Worcestershire,Ms Johanna Preston,Other catering premises,7841,10,,672804,5,,52.00931000000000,MH/B314PEUPPE/1,148,wrsenquiries@worcsregservices.gov.uk,Malvern Hills,http://www.worcsregservices.gov.uk,-2.27944700000000,WR13 6JW,2012-05-09,fhrs_4_en-GB,4,,FHRS,5
336721,Waterside,Upton-Upon-Severn,Worcester,,MV Conway Castle,Retailers - other,4613,5,,672897,5,,52.06440300000000,MH/K45ZUPWATE/1,148,wrsenquiries@worcsregservices.gov.uk,Malvern Hills,http://www.worcsregservices.gov.uk,-2.21645400000000,WR8 0HG,2007-09-23,fhrs_5_en-GB,5,,FHRS,5
336722,The Nags Head,19-21 Bank Street,Malvern,Worcestershire,Nags Head,Pub/bar/nightclub,7843,5,,672654,5,,52.11947300000000,MH/B014XT21BA/1,148,wrsenquiries@worcsregservices.gov.uk,Malvern Hills,http://www.worcsregservices.gov.uk,-2.32812800000000,WR14 2JG,2015-01-27,fhrs_5_en-GB,5,,FHRS,5
336723,The Nash,The Nash,Kemspey,Worcester,Nash,Other catering premises,7841,20,,672799,5,,52.12492500000000,MH/B29ZKMTHEN/1,148,wrsenquiries@worcsregservices.gov.uk,Malvern Hills,http://www.worcsregservices.gov.uk,-2.20801200000000,WR5 3PB,2011-02-02,fhrs_1_en-GB,1,,FHRS,5
336724,Croome Park,Croome D'abitot,Severn Stoke,Worcester,National Trust (Enterprises) Ltd,Restaurant/Cafe/Canteen,1,0,,672699,5,,52.10420800000000,MH/B074CRCROO/1,148,wrsenquiries@worcsregservices.gov.uk,Malvern Hills,http://www.worcsregservices.gov.uk,-2.16446600000000,WR8 9DW,2015-01-15,fhrs_5_en-GB,5,,FHRS,0
336725,14a Market Street,Tenbury Wells,Worcestershire,,Naz's Wine Bar and Indian Restaurant,Restaurant/Cafe/Canteen,1,5,,672663,0,,52.31088000000000,MH/B051TE14AM/1,148,wrsenquiries@worcsregservices.gov.uk,Malvern Hills,http://www.worcsregservices.gov.uk,-2.59465300000000,WR15 8BQ,2012-09-19,fhrs_5_en-GB,5,,FHRS,5
336726,Longley Green,Suckley,Worcester,Worcestershire,Nelson Inn,Pub/bar/nightclub,7843,5,,703222,10,,52.15130400000000,14/00948/FOOD,148,wrsenquiries@worcsregservices.gov.uk,Malvern Hills,http://www.worcsregservices.gov.uk,-2.39683600000000,WR6 5EF,2014-08-27,fhrs_4_en-GB,4,,FHRS,5
336727,18 Malvern Road,Powick,Worcester,,New Four Seasons,Restaurant/Cafe/Canteen,1,5,,672668,5,,52.15796800000000,MH/B054PO18MA/2,148,wrsenquiries@worcsregservices.gov.uk,Malvern Hills,http://www.worcsregservices.gov.uk,-2.26042500000000,WR2 4RU,2014-06-12,fhrs_5_en-GB,5,,FHRS,5
336728,New Inn Lane,Shrawley,Worcester,Worcestershire,New Inn,Pub/bar/nightclub,7843,10,,719773,10,,52.29363600000000,14/01248/FOOD,148,wrsenquiries@worcsregservices.gov.uk,Malvern Hills,http://www.worcsregservices.gov.uk,-2.29720200000000,WR6 6TE,2014-11-27,fhrs_3_en-GB,3,,FHRS,10
336729,Church of England,Leigh Sinton Road,Malvern,Worcestershire,Northlea Ascension Nursery,Retailers - other,4613,5,,672892,5,,52.12894800000000,MH/K457XTLEIG/1,148,wrsenquiries@worcsregservices.gov.uk,Malvern Hills,http://www.worcsregservices.gov.uk,-2.33166000000000,WR14 1JW,2008-08-15,fhrs_5_en-GB,5,,FHRS,5
336730,24 Old Street,Upton-Upon-Severn,Worcester,,Number 24,Restaurant/Cafe/Canteen,1,10,,672696,5,,52.06199000000000,MH/B071UP24OL/1,148,wrsenquiries@worcsregservices.gov.uk,Malvern Hills,http://www.worcsregservices.gov.uk,-2.21839600000000,WR8 0HW,2009-11-18,fhrs_4_en-GB,4,,FHRS,5
336731,The Old Rectory,Church Street,Tenbury Wells,Worcestershire,Old Rectory Retirement Home,Hospitals/Childcare/Caring Premises,5,0,,672967,5,,52.31166500000000,MH/N035TECHUR/2,148,wrsenquiries@worcsregservices.gov.uk,Malvern Hills,http://www.worcsregservices.gov.uk,-2.59588100000000,WR15 8BP,2014-11-20,fhrs_5_en-GB,5,,FHRS,5
336732,35 Old Street,Upton Upon Severn,Worcester,Worcestershire,Old Street B And B,Hotel/bed & breakfast/guest house,7842,5,,716567,5,,52.06233200000000,14/01150/FOOD,148,wrsenquiries@worcsregservices.gov.uk,Malvern Hills,http://www.worcsregservices.gov.uk,-2.21797500000000,WR8 0HN,2014-11-17,fhrs_5_en-GB,5,,FHRS,5
336733,Orchard House,C2105 Quay Lane To High Green,Kinnersley,Severn Stoke,Orchard House Rest Home,Hospitals/Childcare/Caring Premises,5,0,,672973,0,,52.09121100000000,MH/N036SSKINN/1,148,wrsenquiries@worcsregservices.gov.uk,Malvern Hills,http://www.worcsregservices.gov.uk,-2.19165400000000,WR8 9JR,2014-09-25,fhrs_5_en-GB,5,,FHRS,5
336734,136 Worcester Road,Malvern,Worcestershire,,Osborne's of Malvern,Retailers - other,4613,5,,672856,5,,52.12700500000000,MH/K051XL136W/1,148,wrsenquiries@worcsregservices.gov.uk,Malvern Hills,http://www.worcsregservices.gov.uk,-2.31569400000000,WR14 1SS,2012-08-20,fhrs_5_en-GB,5,,FHRS,5
336735,The Orchard,Bransford,Worcester,,Our Place,Hospitals/Childcare/Caring Premises,5,5,,672992,5,,52.16362500000000,MH/N15NBRBRAN/1,148,wrsenquiries@worcsregservices.gov.uk,Malvern Hills,http://www.worcsregservices.gov.uk,-2.30804400000000,WR6 5JE,2014-03-06,fhrs_5_en-GB,5,,FHRS,5
336736,Top Barn Farm,Yard 2 Worcester Road,Holt Heath,Worcester,P & M Meats,Retailers - other,4613,5,,672877,5,,52.25397100000000,MH/K419HOYARD/1,148,wrsenquiries@worcsregservices.gov.uk,Malvern Hills,http://www.worcsregservices.gov.uk,-2.25054200000000,WR6 6NH,2009-10-14,fhrs_5_en-GB,5,,FHRS,5
336737,2 Post Office Lane,Kempsey,Worcester,,Painters Cottage Day Nursery,Hospitals/Childcare/Caring Premises,5,0,,672826,0,,52.13917000000000,MH/I094KM2POS/1,148,wrsenquiries@worcsregservices.gov.uk,Malvern Hills,http://www.worcsregservices.gov.uk,-2.21545800000000,WR5 3NS,2014-05-20,fhrs_5_en-GB,5,,FHRS,0
336738,Bredon School,Pull Court,Bushley,"Tewkesbury, Gloucestershire",Palmer and Howells at Bredon School,School/college/university,7845,0,,672769,0,,52.02303500000000,MH/B154BUPULL/1,148,wrsenquiries@worcsregservices.gov.uk,Malvern Hills,http://www.worcsregservices.gov.uk,-2.20226300000000,GL20 6AH,2012-06-25,fhrs_5_en-GB,5,,FHRS,5
336739,243 Worcester Road,Malvern,Worcestershire,,Paprika Indian Restaurant,Restaurant/Cafe/Canteen,1,5,,672680,5,,52.12759000000000,MH/B054XL243W/1,148,wrsenquiries@worcsregservices.gov.uk,Malvern Hills,http://www.worcsregservices.gov.uk,-2.31559600000000,WR14 1SY,2014-09-18,fhrs_5_en-GB,5,,FHRS,5
336740,87 Church Street,Malvern,Worcestershire,,Parsons Bakery,Retailers - other,4613,5,,672574,5,,52.11162500000000,13/00295/FOOD,148,wrsenquiries@worcsregservices.gov.uk,Malvern Hills,http://www.worcsregservices.gov.uk,-2.32777800000000,WR14 2AE,2013-11-07,fhrs_5_en-GB,5,,FHRS,5
336741,Peachley Lane,Lower Broadheath,Worcester,,Peachley Quad Trekking,Mobile caterer,7846,5,,672816,5,,52.21539500000000,MH/D197BHPEAC/1,148,wrsenquiries@worcsregservices.gov.uk,Malvern Hills,http://www.worcsregservices.gov.uk,-2.27797300000000,WR2 6QR,2014-11-20,fhrs_4_en-GB,4,,FHRS,10
336742,Pembroke House,Cross Street,Tenbury Wells,Worcestershire,Pembroke House Inn,Pub/bar/nightclub,7843,10,,672644,10,,52.30773000000000,MH/B014TECROS/2,148,wrsenquiries@worcsregservices.gov.uk,Malvern Hills,http://www.worcsregservices.gov.uk,-2.59524100000000,WR15 8EQ,2014-09-23,fhrs_3_en-GB,3,,FHRS,10
336743,Pendock Church Of England Primary S,C2219 Pendock,Pendock,Gloucester,Pendock C.E. Primary School,School/college/university,7845,0,,684837,0,,51.99679000000000,MH/I01ZPEPEND/1,148,wrsenquiries@worcsregservices.gov.uk,Malvern Hills,http://www.worcsregservices.gov.uk,-2.31030500000000,GL19 3PW,2014-09-26,fhrs_5_en-GB,5,,FHRS,0
336744,Cross Hands Cottage,B4209 Hanley Castle,Hanley Castle,Worcester,Penelope Tennant-Thomas,Retailers - other,4613,5,,722328,5,,52.08012200000000,14/01215/FOOD,148,wrsenquiries@worcsregservices.gov.uk,Malvern Hills,http://www.worcsregservices.gov.uk,-2.23819900000000,WR8 0BJ,2014-12-05,fhrs_5_en-GB,5,,FHRS,5
336745,Monkswood,8 Kings End Road,Powick,Worcester,Pepperpot Catering,Mobile caterer,7846,5,,672791,5,,52.16261500000000,MH/B274PO8KIN/1,148,wrsenquiries@worcsregservices.gov.uk,Malvern Hills,http://www.worcsregservices.gov.uk,-2.24874200000000,WR2 4RA,2010-06-05,fhrs_5_en-GB,5,,FHRS,5
336746,54 Teme Street,Tenbury Wells,Worcestershire,,Pizza Dianne,Takeaway/sandwich shop,7844,10,,672736,5,,52.31256400000000,MH/B094TE54TE/1,148,wrsenquiries@worcsregservices.gov.uk,Malvern Hills,http://www.worcsregservices.gov.uk,-2.59398600000000,WR15 8AA,2009-09-17,fhrs_4_en-GB,4,,FHRS,0
336747,20 Graham Road,Malvern,Worcestershire,,Pizza Fiesta,Takeaway/sandwich shop,7844,10,,672752,0,,52.11231200000000,MH/B094XP20GR/1,148,wrsenquiries@worcsregservices.gov.uk,Malvern Hills,http://www.worcsregservices.gov.uk,-2.32660000000000,WR14 2HL,2013-05-17,fhrs_4_en-GB,4,,FHRS,10
336748,Three Counties Showground,The Showground,Malvern,Worcestershire,Plants For Business,Mobile caterer,7846,5,,684621,5,,52.08286400000000,14/00750/FOOD,148,wrsenquiries@worcsregservices.gov.uk,Malvern Hills,http://www.worcsregservices.gov.uk,-2.31453600000000,WR13 6NW,2014-06-20,fhrs_5_en-GB,5,,FHRS,5
336749,24 Abbey Road,Malvern,Worcestershire,,Playhouse Nursery,Hospitals/Childcare/Caring Premises,5,0,,672837,0,,52.10684900000000,MH/I09ZXP24AB/1,148,wrsenquiries@worcsregservices.gov.uk,Malvern Hills,http://www.worcsregservices.gov.uk,-2.32861900000000,WR14 3HD,2014-10-27,fhrs_5_en-GB,5,,FHRS,0
336750,Rhydd Road,Guarlford,Malvern,Worcestershire,Plough And Harrow,Pub/bar/nightclub,7843,5,,732465,5,,52.10647200000000,15/00037/FOOD,148,wrsenquiries@worcsregservices.gov.uk,Malvern Hills,http://www.worcsregservices.gov.uk,-2.26380300000000,WR13 6NY,2015-01-15,fhrs_4_en-GB,4,,FHRS,10
336751,43 The Drive,Powick,Worcester,Worcestershire,Pork Peddler,Mobile caterer,7846,5,,684588,5,,52.15945000000000,13/00082/FOOD,148,wrsenquiries@worcsregservices.gov.uk,Malvern Hills,http://www.worcsregservices.gov.uk,-2.26508200000000,WR2 4SA,2014-02-07,fhrs_5_en-GB,5,,FHRS,5
336752,5 Fir Tree Walk,134 Worcester Road,Malvern,Worcestershire,Premier Pizza,Takeaway/sandwich shop,7844,5,,672679,5,,52.12700500000000,MH/B054XL134W/2,148,wrsenquiries@worcsregservices.gov.uk,Malvern Hills,http://www.worcsregservices.gov.uk,-2.31569400000000,WR14 1SS,2014-05-16,fhrs_5_en-GB,5,,FHRS,5
336753,Priors Croft,Grange Road,Malvern,Worcestershire,Priors Croft Restaurant & Bar,Restaurant/Cafe/Canteen,1,5,,672690,5,,52.09963600000000,MH/B054XPGRAN/2,148,wrsenquiries@worcsregservices.gov.uk,Malvern Hills,http://www.worcsregservices.gov.uk,-2.32460200000000,WR14 3EZ,2014-04-29,fhrs_5_en-GB,5,,FHRS,5
336754,54 Barnards Green Road,Malvern,Worcestershire,,Puddle Lane Bed And Breakfast,Hotel/bed & breakfast/guest house,7842,5,,672939,0,,52.10991800000000,MH/M055XC54BA/1,148,wrsenquiries@worcsregservices.gov.uk,Malvern Hills,http://www.worcsregservices.gov.uk,-2.31417100000000,WR14 3LW,2009-11-26,fhrs_5_en-GB,5,,FHRS,0
336755,9 Old Street,Upton Upon Severn,Worcester,Worcestershire,Pundits,Restaurant/Cafe/Canteen,1,20,,672675,20,,52.06233200000000,MH/B054UP9OLD/1,148,wrsenquiries@worcsregservices.gov.uk,Malvern Hills,http://www.worcsregservices.gov.uk,-2.21797500000000,WR8 0HN,2014-09-16,fhrs_0_en-GB,0,,FHRS,20
336756,78 Wells Road,Malvern,Worcestershire,,Railway Inn,Pub/bar/nightclub,7843,0,,672569,0,,52.09230200000000,13/00260/FOOD,148,wrsenquiries@worcsregservices.gov.uk,Malvern Hills,http://www.worcsregservices.gov.uk,-2.33486200000000,WR14 4PA,2013-06-12,fhrs_5_en-GB,5,,FHRS,5
336757,Station Road,Ripple,"Tewkesbury, Gloucestershire",,Railway Inn,Pub/bar/nightclub,7843,5,,684645,5,,52.03806800000000,MH/B014RISTAT/3,148,wrsenquiries@worcsregservices.gov.uk,Malvern Hills,http://www.worcsregservices.gov.uk,-2.18585700000000,GL20 6EY,2011-02-02,fhrs_5_en-GB,5,,FHRS,5
336758,1 Edith Walk,Malvern,Worcestershire,,Rebeccas Range,Restaurant/Cafe/Canteen,1,5,,672684,5,,52.11200600000000,MH/B054XP1EDI/1,148,wrsenquiries@worcsregservices.gov.uk,Malvern Hills,http://www.worcsregservices.gov.uk,-2.32969400000000,WR14 4QH,2014-05-16,fhrs_4_en-GB,4,,FHRS,10
336759,4 St. Anns Road,Malvern,Worcestershire,,Red Lion,Pub/bar/nightclub,7843,10,,684652,5,,52.11170400000000,MH/B014XP4STA/1,148,wrsenquiries@worcsregservices.gov.uk,Malvern Hills,http://www.worcsregservices.gov.uk,-2.33166300000000,WR14 4RG,2012-07-25,fhrs_3_en-GB,3,,FHRS,10
336760,Witley Road,Holt Heath,Worcester,Worcestershire,Red Lion,Pub/bar/nightclub,7843,5,,684641,5,,52.26607400000000,MH/B014HOWITL/2,148,wrsenquiries@worcsregservices.gov.uk,Malvern Hills,http://www.worcsregservices.gov.uk,-2.28169000000000,WR6 6LX,2014-02-28,fhrs_5_en-GB,5,,FHRS,5
336761,The Regal Cinema,47 - 49 Teme Street,Tenbury Wells,Worcestershire,Regal Cafe,Restaurant/Cafe/Canteen,1,10,,730848,10,,52.31267800000000,14/00145/FOOD,148,wrsenquiries@worcsregservices.gov.uk,Malvern Hills,http://www.worcsregservices.gov.uk,-2.59450100000000,WR15 8AE,2013-01-17,fhrs_3_en-GB,3,,FHRS,5
336762,"Regal Cinema, Theatre",Teme Street,Tenbury Wells,Worcestershire,Regal Cinema,Retailers - other,4613,5,,684737,5,,,MH/D41ZXATEME/1,148,wrsenquiries@worcsregservices.gov.uk,Malvern Hills,http://www.worcsregservices.gov.uk,,,1999-01-12,fhrs_5_en-GB,5,,FHRS,5
336763,11 Old Street,Upton-Upon-Severn,Worcester,,River Severn Takeaway,Takeaway/sandwich shop,7844,10,,672738,10,,52.06233200000000,MH/B094UP11OL/1,148,wrsenquiries@worcsregservices.gov.uk,Malvern Hills,http://www.worcsregservices.gov.uk,-2.21797500000000,WR8 0HN,2014-09-18,fhrs_3_en-GB,3,,FHRS,10
336764,Clevelode,Malvern,Worcestershire,,Riverside Caravan Park,Pub/bar/nightclub,7843,10,,672662,5,,52.11202000000000,MH/B037GUCLEV/1,148,wrsenquiries@worcsregservices.gov.uk,Malvern Hills,http://www.worcsregservices.gov.uk,-2.24688300000000,WR13 6PE,2012-04-17,fhrs_4_en-GB,4,,FHRS,5
336765,Kempsey Community Youth Centre,Plovers Rise,Kempsey,Worcester,Rocking Horse Pre-School,Hospitals/Childcare/Caring Premises,5,0,,672890,0,,52.13550500000000,MH/K454KMPLOV/1,148,wrsenquiries@worcsregservices.gov.uk,Malvern Hills,http://www.worcsregservices.gov.uk,-2.21414000000000,WR5 3SA,2009-11-03,fhrs_5_en-GB,5,,FHRS,0
336766,Rose & Crown,Church Lane,Severn Stoke,Worcester,Rose and Crown,Pub/bar/nightclub,7843,5,,672640,5,,52.09457600000000,MH/B014SSCHUR/3,148,wrsenquiries@worcsregservices.gov.uk,Malvern Hills,http://www.worcsregservices.gov.uk,-2.21095100000000,WR8 9JQ,2013-12-16,fhrs_5_en-GB,5,,FHRS,5
336767,Roseland,Clifton,Severn Stoke,Worcester,Roseland Bed and Breakfast,Hotel/bed & breakfast/guest house,7842,5,,672935,5,,52.21087646484380,MH/M055SSCLIF/1,148,wrsenquiries@worcsregservices.gov.uk,Malvern Hills,http://www.worcsregservices.gov.uk,-2.20981502532959,WR8 9JF,2013-05-16,fhrs_5_en-GB,5,,FHRS,0
336768,Osbourne Road,Malvern,Worcestershire,,Rowan House,Hospitals/Childcare/Caring Premises,5,10,,672899,5,,52.12594900000000,MH/K45ZXTOSBO/1,148,wrsenquiries@worcsregservices.gov.uk,Malvern Hills,http://www.worcsregservices.gov.uk,-2.32058000000000,WR14 1JE,2009-10-07,fhrs_4_en-GB,4,,FHRS,0
336769,Coverfields,Hanley Swan,Worcester,,Royal British Legion,Pub/bar/nightclub,7843,5,,684673,5,,52.08422000000000,MH/B114HCCOVE/1,148,wrsenquiries@worcsregservices.gov.uk,Malvern Hills,http://www.worcsregservices.gov.uk,-2.27578500000000,WR8 0EG,2009-10-26,fhrs_5_en-GB,5,,FHRS,5
336770,Broadwas,Worcester,,,Royal Oak,Pub/bar/nightclub,7843,0,,672613,0,,52.19495300000000,MH/B014BWBROA/2,148,wrsenquiries@worcsregservices.gov.uk,Malvern Hills,http://www.worcsregservices.gov.uk,-2.35431500000000,WR6 5NE,2013-07-02,fhrs_5_en-GB,5,,FHRS,0
336771,Malvern Road,Leigh Sinton,Malvern,Worcestershire,Royal Oak Inn,Pub/bar/nightclub,7843,5,,672595,5,,52.15354100000000,14/00769/FOOD,148,wrsenquiries@worcsregservices.gov.uk,Malvern Hills,http://www.worcsregservices.gov.uk,-2.32034000000000,WR13 5DZ,2014-05-08,fhrs_5_en-GB,5,,FHRS,5
336772,1 Clifton Cottages,Bromyard Road,Cotheridge,Worcester,Ruby's Kitchen,Manufacturers/packers,7839,5,,672571,5,,52.19342000000000,13/00283/FOOD,148,wrsenquiries@worcsregservices.gov.uk,Malvern Hills,http://www.worcsregservices.gov.uk,-2.32466400000000,WR6 5LX,2015-01-12,fhrs_5_en-GB,5,,FHRS,5
336773,Gullet Cottage,Hollybush,Ledbury,Herefordshire,Ruffz,Restaurant/Cafe/Canteen,1,5,,672698,5,,52.03870100000000,MH/B074CAHOLL/1,148,wrsenquiries@worcsregservices.gov.uk,Malvern Hills,http://www.worcsregservices.gov.uk,-2.34411200000000,HR8 1EU,2013-06-04,fhrs_5_en-GB,5,,FHRS,5
336774,Upper Wick Lane,Rushwick,Worcester,,Rushwick CofE Primary School,School/college/university,7845,5,,672895,5,,52.17804200000000,MH/K45ZRUUPPE/1,148,wrsenquiries@worcsregservices.gov.uk,Malvern Hills,http://www.worcsregservices.gov.uk,-2.25752900000000,WR2 5SU,2008-06-26,fhrs_5_en-GB,5,,FHRS,5
336775,Ryall House,Ryall Grove,Upton-Upon-Severn,Worcester,Ryall House Farm,Hotel/bed & breakfast/guest house,7842,5,,672933,5,,52.06323900000000,MH/M055RIRYAL/1,148,wrsenquiries@worcsregservices.gov.uk,Malvern Hills,http://www.worcsregservices.gov.uk,-2.19828800000000,WR8 0PL,2013-05-16,fhrs_5_en-GB,5,,FHRS,0
336776,118 Poolbrook Road,Malvern,Worcestershire,,S J Goodwin,Retailers - other,4613,10,,672854,10,,52.10223300000000,MH/K051XC118P/2,148,wrsenquiries@worcsregservices.gov.uk,Malvern Hills,http://www.worcsregservices.gov.uk,-2.30668600000000,WR14 3JD,2014-09-16,fhrs_3_en-GB,3,,FHRS,10
336777,Seabourne Boat Yard,Court Meadow,Kempsey,Worcester,Seabourne Inn,Restaurant/Cafe/Canteen,1,10,,672762,5,,52.14139400000000,MH/B114KMCOUR/1,148,wrsenquiries@worcsregservices.gov.uk,Malvern Hills,http://www.worcsregservices.gov.uk,-2.22340300000000,WR5 3JL,2009-02-04,fhrs_4_en-GB,4,,FHRS,5
336778,72 Albert Road South,Malvern,Worcestershire,,"Sense, Tanglewood",Hospitals/Childcare/Caring Premises,5,5,,672987,5,,52.10986900000000,MH/N076XP72AL/2,148,wrsenquiries@worcsregservices.gov.uk,Malvern Hills,http://www.worcsregservices.gov.uk,-2.32234800000000,WR14 3AH,2010-11-29,fhrs_5_en-GB,5,,FHRS,5
336779,Old Hills,Callow End,Worcester,,Severn Heights Nursing Home,Hospitals/Childcare/Caring Premises,5,5,,672957,5,,52.13732500000000,MH/N01ZPOOLDH/3,148,wrsenquiries@worcsregservices.gov.uk,Malvern Hills,http://www.worcsregservices.gov.uk,-2.24857100000000,WR2 4TQ,2014-11-17,fhrs_5_en-GB,5,,FHRS,5
336780,Bath Road,Broomhall,Worcester,Worcestershire,Severn Motor Yacht Club,Pub/bar/nightclub,7843,5,,707334,5,,52.16049400000000,14/01146/COMM,148,wrsenquiries@worcsregservices.gov.uk,Malvern Hills,http://www.worcsregservices.gov.uk,-2.21617500000000,WR5 3HR,2015-01-16,fhrs_5_en-GB,5,,FHRS,5
336781,Clevelode,Malvern,Worcestershire,,Severnside,Hotel/bed & breakfast/guest house,7842,5,,672920,0,,52.11970500000000,MH/M035GUCLEV/1,148,wrsenquiries@worcsregservices.gov.uk,Malvern Hills,http://www.worcsregservices.gov.uk,-2.24355100000000,WR13 6PD,2013-07-30,fhrs_5_en-GB,5,,FHRS,0
336782,28 Cross Street,Tenbury Wells,Worcestershire,,Shamraj Balti House,Restaurant/Cafe/Canteen,1,5,,672670,5,,52.30983900000000,MH/B054TE28CR/1,148,wrsenquiries@worcsregservices.gov.uk,Malvern Hills,http://www.worcsregservices.gov.uk,-2.59600300000000,WR15 8EE,2014-01-13,fhrs_5_en-GB,5,,FHRS,5
336783,,,,,Sheron & John Nail,Retailers - other,4613,0,,672870,0,,,MH/K33ZXLSTOC/1,148,wrsenquiries@worcsregservices.gov.uk,Malvern Hills,http://www.worcsregservices.gov.uk,,,2011-03-17,fhrs_5_en-GB,5,,FHRS,5
336784,Tenbury Church Of England Primary S,Bromyard Road,Tenbury Wells,Worcestershire,Shire Services at Tenbury Primary School,School/college/university,7845,5,,672825,5,,52.30556900000000,MH/I01ZTEBROM/1,148,wrsenquiries@worcsregservices.gov.uk,Malvern Hills,http://www.worcsregservices.gov.uk,-2.59599000000000,WR15 8BS,2014-10-15,fhrs_5_en-GB,5,,FHRS,5
336785,40 Worcester Road,Malvern,Worcestershire,,Sidney House,Hotel/bed & breakfast/guest house,7842,5,,672923,5,,52.11469500000000,MH/M035XP40WO/1,148,wrsenquiries@worcsregservices.gov.uk,Malvern Hills,http://www.worcsregservices.gov.uk,-2.32959700000000,WR14 4AA,2010-03-02,fhrs_5_en-GB,5,,FHRS,5
336786,42 Beauchamp Road,Malvern,Worcestershire,,Snack Box,Mobile caterer,7846,10,,672889,5,,52.13002300000000,MH/K43ZXT42BE/1,148,wrsenquiries@worcsregservices.gov.uk,Malvern Hills,http://www.worcsregservices.gov.uk,-2.32971000000000,WR14 1RX,2010-09-17,fhrs_3_en-GB,3,,FHRS,10
336787,Worcester Road,Holt Heath,Worcester,,Snax Cafe,Restaurant/Cafe/Canteen,1,10,,672702,10,,52.25397100000000,MH/B074HOWORC/3,148,wrsenquiries@worcsregservices.gov.uk,Malvern Hills,http://www.worcsregservices.gov.uk,-2.25054200000000,WR6 6NH,2014-04-22,fhrs_3_en-GB,3,,FHRS,10
336788,Albert Road North,Malvern,Worcestershire,,South Worcestershire College,School/college/university,7845,0,,672774,0,,52.11348200000000,MH/B154XPALBE/1,148,wrsenquiries@worcsregservices.gov.uk,Malvern Hills,http://www.worcsregservices.gov.uk,-2.32276800000000,WR14 2YH,2014-09-10,fhrs_5_en-GB,5,,FHRS,0
336789,Fir Tree Walk No. 8,134 Worcester Road,Malvern,Worcestershire,Spice Cottage,Restaurant/Cafe/Canteen,1,20,,672678,10,,52.11924500000000,MH/B054XL134W/1,148,wrsenquiries@worcsregservices.gov.uk,Malvern Hills,http://www.worcsregservices.gov.uk,-2.32911900000000,WR14 1NU,2014-10-22,fhrs_1_en-GB,1,,FHRS,10
336790,Upton Upon Severn Sports Club,Old Street,Upton-Upon-Severn,Worcester,Sports Club & Pavilion,Pub/bar/nightclub,7843,10,,672809,5,,52.06292500000000,MH/B334UPOLDS/1,148,wrsenquiries@worcsregservices.gov.uk,Malvern Hills,http://www.worcsregservices.gov.uk,-2.21818200000000,WR8 0HA,2012-04-17,fhrs_4_en-GB,4,,FHRS,5
336791,39 - 41 Teme Street,Tenbury Wells,Worcestershire,,Spotty Dog Tea Room And Gallery,Restaurant/Cafe/Canteen,1,5,,684602,5,,52.31267800000000,14/00056/FOOD,148,wrsenquiries@worcsregservices.gov.uk,Malvern Hills,http://www.worcsregservices.gov.uk,-2.59450100000000,WR15 8AE,2013-10-28,fhrs_5_en-GB,5,,FHRS,5
336792,Three Counties Show Ground,Malvern,Worcestershire,,Spring Garden Show,Mobile caterer,7846,5,,672818,5,,52.08286400000000,MH/D197MWMALV/1,148,wrsenquiries@worcsregservices.gov.uk,Malvern Hills,http://www.worcsregservices.gov.uk,-2.31453600000000,WR13 6NW,2010-05-08,fhrs_5_en-GB,5,,FHRS,5
336793,1-5 Ranelagh Road,Malvern,Worcestershire,,Springfield House,Hospitals/Childcare/Caring Premises,5,5,,672978,5,,52.13080500000000,MH/N036XL1-5R/2,148,wrsenquiries@worcsregservices.gov.uk,Malvern Hills,http://www.worcsregservices.gov.uk,-2.30662000000000,WR14 1BQ,2014-05-01,fhrs_5_en-GB,5,,FHRS,5
336794,3 Birchwood Drive,Stocks Lane,Newland,"Malvern, Worcestershire",Squires Catering,Mobile caterer,7846,10,,672884,5,,52.14250100000000,MH/K434XLSTOC/7,148,wrsenquiries@worcsregservices.gov.uk,Malvern Hills,http://www.worcsregservices.gov.uk,-2.29994900000000,WR13 5AZ,2011-01-31,fhrs_4_en-GB,4,,FHRS,0
336795,St Anns Well Cafe,St Anns Road,Malvern,Worcestershire,St Ann's Well Cafe,Restaurant/Cafe/Canteen,1,5,,672720,5,,52.11128600000000,MH/B074XPSTAN/1,148,wrsenquiries@worcsregservices.gov.uk,Malvern Hills,http://www.worcsregservices.gov.uk,-2.33317900000000,WR14 4RF,2013-07-23,fhrs_4_en-GB,4,,FHRS,10
336796,104 Lower Howsell Road,Malvern,Worcestershire,,St Martin's Day Care Centre,Hospitals/Childcare/Caring Premises,5,5,,672840,5,,52.13585300000000,MH/I134XL104L/1,148,wrsenquiries@worcsregservices.gov.uk,Malvern Hills,http://www.worcsregservices.gov.uk,-2.31187000000000,WR14 1DL,2009-07-08,fhrs_5_en-GB,5,,FHRS,0
336797,Oldwood Road,St Michaels,"Tenbury Wells, Worcestershire",,St Michaels College,School/college/university,7845,5,,672784,5,,52.28791400000000,MH/B15ZTEOLDW/1,148,wrsenquiries@worcsregservices.gov.uk,Malvern Hills,http://www.worcsregservices.gov.uk,-2.61311100000000,WR15 8PH,2014-09-08,fhrs_5_en-GB,5,,FHRS,5
336798,Upton Road,Callow End,Worcester,,Stanbrook Abbey,Hotel/bed & breakfast/guest house,7842,0,,672919,5,,,MH/M01ZPOUPTO/1,148,wrsenquiries@worcsregservices.gov.uk,Malvern Hills,http://www.worcsregservices.gov.uk,,WR2 4TD,2014-11-17,fhrs_5_en-GB,5,,FHRS,5
336799,Stanfield House,Upper Wick Lane,Rushwick,Worcester,Stanfield Nursing Home,Hospitals/Childcare/Caring Premises,5,5,,672958,0,,52.17804200000000,MH/N01ZRUUPPE/1,148,wrsenquiries@worcsregservices.gov.uk,Malvern Hills,http://www.worcsregservices.gov.uk,-2.25752900000000,WR2 5SU,2014-01-14,fhrs_5_en-GB,5,,FHRS,0
336800,The Star Hotel,3 High Street,Upton-Upon-Severn,Worcester,Star Hotel,Hotel/bed & breakfast/guest house,7842,10,,672909,5,,52.06406900000000,MH/M015UP3HIG/1,148,wrsenquiries@worcsregservices.gov.uk,Malvern Hills,http://www.worcsregservices.gov.uk,-2.21703500000000,WR8 0HQ,2014-07-02,fhrs_4_en-GB,4,,FHRS,5
336801,Three Counties Show Ground,Malvern,Worcestershire,,Stockmans Restaurant,Restaurant/Cafe/Canteen,1,5,,672667,5,,52.08286400000000,MH/B054MWMALV/1,148,wrsenquiries@worcsregservices.gov.uk,Malvern Hills,http://www.worcsregservices.gov.uk,-2.31453600000000,WR13 6NW,2014-05-08,fhrs_5_en-GB,5,,FHRS,5
336802,36 Duke Of Edinburgh Way,Malvern,Worcestershire,,Stokes Ices,Retailers - other,4613,5,,684962,0,,52.13473500000000,MH/K374XL36DU/1,148,wrsenquiries@worcsregservices.gov.uk,Malvern Hills,http://www.worcsregservices.gov.uk,-2.30596000000000,WR14 1AY,2006-08-08,fhrs_5_en-GB,5,,FHRS,0
336803,3 Geraldine Road,Malvern,Worcestershire,,Storer Court,Hospitals/Childcare/Caring Premises,5,0,,672589,0,,52.10673200000000,14/00625/FOOD,148,wrsenquiries@worcsregservices.gov.uk,Malvern Hills,http://www.worcsregservices.gov.uk,-2.30871700000000,WR14 3NT,2014-03-11,fhrs_5_en-GB,5,,FHRS,5
336804,M5 Service Area(Northbound),Strensham Motorway Services Ar,Upton-Upon-Severn,Worcester,Strensham Service Area,Restaurant/Cafe/Canteen,1,0,,684670,5,,52.06547700000000,MH/B054HISTRE/4,148,wrsenquiries@worcsregservices.gov.uk,Malvern Hills,http://www.worcsregservices.gov.uk,-2.15704400000000,WR8 0BZ,2013-11-18,fhrs_5_en-GB,5,,FHRS,0
336805,85 Barnards Green Road,Malvern,Worcestershire,,Subway,Takeaway/sandwich shop,7844,0,,684672,0,,52.10871400000000,MH/B091XC85BA/1,148,wrsenquiries@worcsregservices.gov.uk,Malvern Hills,http://www.worcsregservices.gov.uk,-2.31054200000000,WR14 3LT,2013-07-10,fhrs_5_en-GB,5,,FHRS,5
336806,Church Lane,Suckley,Worcester,,Suckley County Primary School,School/college/university,7845,10,,672896,0,,52.16237600000000,MH/K45ZSUCHUR/1,148,wrsenquiries@worcsregservices.gov.uk,Malvern Hills,http://www.worcsregservices.gov.uk,-2.40863000000000,WR6 5DE,2011-12-12,fhrs_4_en-GB,4,,FHRS,5
336807,Suckley Post Office,Longley Green,Suckley,Worcester,Suckley Post Office and Store,Retailers - other,4613,5,,672846,5,,52.15120400000000,MH/K031SULONG/2,148,wrsenquiries@worcsregservices.gov.uk,Malvern Hills,http://www.worcsregservices.gov.uk,-2.39158800000000,WR6 5DU,2013-03-19,fhrs_5_en-GB,5,,FHRS,5
336808,The Hopkilns,Suckley,Worcester,,Suckley Pre-School,Hospitals/Childcare/Caring Premises,5,5,,672891,5,,52.15541300000000,MH/K454SUSUCK/1,148,wrsenquiries@worcsregservices.gov.uk,Malvern Hills,http://www.worcsregservices.gov.uk,-2.41482200000000,WR6 5EH,2008-08-08,fhrs_5_en-GB,5,,FHRS,5
336809,Meadow View,Well Lane,Little Witley,Worcester,Suppertime,Other catering premises,7841,5,,672800,5,,52.26935800000000,MH/B29ZLWWELL/1,148,wrsenquiries@worcsregservices.gov.uk,Malvern Hills,http://www.worcsregservices.gov.uk,-2.31288000000000,WR6 6LN,2009-09-17,fhrs_5_en-GB,5,,FHRS,5
336810,Unit 4 & 5,2 Market Street,Tenbury Wells,Worcestershire,Swift Bakery,Retailers - other,4613,5,,672860,5,,52.31088000000000,MH/K111TE2MAR/2,148,wrsenquiries@worcsregservices.gov.uk,Malvern Hills,http://www.worcsregservices.gov.uk,-2.59465300000000,WR15 8BQ,2014-11-18,fhrs_5_en-GB,5,,FHRS,5
336811,46-48 Teme Street,Tenbury Wells,Worcestershire,,Tabs Tearoom & Restaurant,Restaurant/Cafe/Canteen,1,5,,672705,5,,52.31256400000000,MH/B074TE46-4/1,148,wrsenquiries@worcsregservices.gov.uk,Malvern Hills,http://www.worcsregservices.gov.uk,-2.59398600000000,WR15 8AA,2013-11-19,fhrs_5_en-GB,5,,FHRS,5
336812,The Talbot At Knightwick,Bromyard Road,Knightwick,Worcester,Talbot Hotel,Hotel/bed & breakfast/guest house,7842,5,,685009,5,,52.20040700000000,MH/M015DOBROM/1,148,wrsenquiries@worcsregservices.gov.uk,Malvern Hills,http://www.worcsregservices.gov.uk,-2.39484400000000,WR6 5PH,2014-10-28,fhrs_4_en-GB,4,,FHRS,10
336813,A456 Newnham Bridge,Newnham Bridge,Tenbury Wells,Worcestershire,Talbot Inn,Pub/bar/nightclub,7843,10,,672583,10,,52.31770000000000,14/00006/FOOD,148,wrsenquiries@worcsregservices.gov.uk,Malvern Hills,http://www.worcsregservices.gov.uk,-2.52115800000000,WR15 8JF,2013-12-20,fhrs_3_en-GB,3,,FHRS,10
336814,Bell Lane,Broadheath,Tenbury Wells,Worcestershire,Tally Ho Inn,Pub/bar/nightclub,7843,5,,672622,5,,52.28423500000000,MH/B014HYBELL/1,148,wrsenquiries@worcsregservices.gov.uk,Malvern Hills,http://www.worcsregservices.gov.uk,-2.49690000000000,WR15 8QX,2013-09-03,fhrs_5_en-GB,5,,FHRS,5
336815,Three Counties Show Ground,Blackmore Park Road,Malvern,Worcestershire,TCA Trading,Mobile caterer,7846,5,,672817,5,,52.08286400000000,MH/D197MWBLAC/1,148,wrsenquiries@worcsregservices.gov.uk,Malvern Hills,http://www.worcsregservices.gov.uk,-2.31453600000000,WR13 6NW,2011-06-17,fhrs_5_en-GB,5,,FHRS,5
336816,Wain Shed Little Lightwood Frm,Lightwood Lane,Cotheridge,Worcester,Teme Vale Victuallers,Manufacturers/packers,7839,10,,672821,10,,52.19615500000000,MH/E13ZCOLIGH/1,148,wrsenquiries@worcsregservices.gov.uk,Malvern Hills,http://www.worcsregservices.gov.uk,-2.29688700000000,WR6 5LT,2014-02-07,fhrs_3_en-GB,3,,FHRS,10
336817,17 Teme Street,Tenbury Wells,Worcestershire,,Tenbury Fish Bar,Takeaway/sandwich shop,7844,10,,672758,5,,52.31158400000000,MH/B09ZTE17TE/1,148,wrsenquiries@worcsregservices.gov.uk,Malvern Hills,http://www.worcsregservices.gov.uk,-2.59400200000000,WR15 8BB,2012-06-14,fhrs_4_en-GB,4,,FHRS,5
336818,18-20 Worcester Road,Malvern,Worcestershire,,Terrace On The Hill,Restaurant/Cafe/Canteen,1,0,,672594,0,,52.11286800000000,14/00677/FOOD,148,wrsenquiries@worcsregservices.gov.uk,Malvern Hills,http://www.worcsregservices.gov.uk,-2.33002200000000,WR14 4QW,2014-05-21,fhrs_5_en-GB,5,,FHRS,0
336819,Manor Lodge,C2229 Shelsley Beauchamp,Shelsley Beauchamp,Worcester,Tessa Pound,Other catering premises,7841,5,,672797,5,,52.26406800000000,MH/B294SBSHEL/1,148,wrsenquiries@worcsregservices.gov.uk,Malvern Hills,http://www.worcsregservices.gov.uk,-2.38113900000000,WR6 6RE,2013-10-01,fhrs_5_en-GB,5,,FHRS,5
336820,The Oxhey,Bushley,"Tewkesbury, Gloucestershire",,Tewkesbury Nursing Home,Hospitals/Childcare/Caring Premises,5,0,,672956,0,,52.00036600000000,MH/N01ZBUTHEO/2,148,wrsenquiries@worcsregservices.gov.uk,Malvern Hills,http://www.worcsregservices.gov.uk,-2.18248200000000,GL20 6HP,2014-12-05,fhrs_5_en-GB,5,,FHRS,5
336821,253 Wells Road,Malvern,Worcestershire,,The Abbey College,School/college/university,7845,0,,684608,5,,52.07249200000000,14/00186/FOOD,148,wrsenquiries@worcsregservices.gov.uk,Malvern Hills,http://www.worcsregservices.gov.uk,-2.33296300000000,WR14 4JF,2014-02-04,fhrs_5_en-GB,5,,FHRS,5
336822,Admiral Rodney Inn,B4197 Berrow Green,Berrow Green,Martley,The Admiral Rodney,Pub/bar/nightclub,7843,0,,719772,0,,52.22281000000000,14/01246/FOOD,148,wrsenquiries@worcsregservices.gov.uk,Malvern Hills,http://www.worcsregservices.gov.uk,-2.37031800000000,WR6 6PL,2014-11-26,fhrs_5_en-GB,5,,FHRS,5
336823,Bell Inn,B4202 Pensax,Pensax,Abberley,The Bell Inn,Pub/bar/nightclub,7843,5,,672636,5,,52.31617200000000,MH/B014PXPENS/2,148,wrsenquiries@worcsregservices.gov.uk,Malvern Hills,http://www.worcsregservices.gov.uk,-2.38793800000000,WR6 6AE,2014-12-12,fhrs_4_en-GB,4,,FHRS,10
336824,Shelsley Beauchamp,Worcester,,,The Birche,Restaurant/Cafe/Canteen,1,0,,672669,0,,52.26615500000000,MH/B054SBSHEL/1,148,wrsenquiries@worcsregservices.gov.uk,Malvern Hills,http://www.worcsregservices.gov.uk,-2.38917200000000,WR6 6RD,2013-08-06,fhrs_5_en-GB,5,,FHRS,5
336825,4 Guarlford Road,Malvern,Worcestershire,,The Bluebell Inn,Pub/bar/nightclub,7843,5,,672653,5,,52.10627500000000,MH/B014XC4GUA/1,148,wrsenquiries@worcsregservices.gov.uk,Malvern Hills,http://www.worcsregservices.gov.uk,-2.30102000000000,WR14 3QP,2014-04-09,fhrs_5_en-GB,5,,FHRS,5
336826,The Blue Bell Inn,C2107 Ryall Grove,Ryall Grove,Upton Upon Severn,The Bluebell Inn,Pub/bar/nightclub,7843,5,,672637,5,,52.06418100000000,MH/B014RITHEG/1,148,wrsenquiries@worcsregservices.gov.uk,Malvern Hills,http://www.worcsregservices.gov.uk,-2.19435300000000,WR8 0PP,2014-04-28,fhrs_5_en-GB,5,,FHRS,5
336827,The Boathouse Cafe,Waterside,Upton Upon Severn,Worcestershire,The Boathouse Upton,Restaurant/Cafe/Canteen,1,5,,716568,5,,52.06440300000000,14/01226/FOOD,148,wrsenquiries@worcsregservices.gov.uk,Malvern Hills,http://www.worcsregservices.gov.uk,-2.21645400000000,WR8 0HG,2014-11-11,fhrs_5_en-GB,5,,FHRS,0
336828,The Boynes,Upper Hook Road,Upton-Upon-Severn,Worcester,The Boynes Care Centre,Hospitals/Childcare/Caring Premises,5,0,,672959,0,,52.06382800000000,MH/N01ZUPUPPE/1,148,wrsenquiries@worcsregservices.gov.uk,Malvern Hills,http://www.worcsregservices.gov.uk,-2.24817700000000,WR8 0SB,2014-11-03,fhrs_5_en-GB,5,,FHRS,0
336829,C2025 Stanford Bridge,Stanford Bridge,Worcester,Worcestershire,The Bridge Hotel,Pub/bar/nightclub,7843,5,,672639,5,,52.28926700000000,MH/B014SOSTAN/2,148,wrsenquiries@worcsregservices.gov.uk,Malvern Hills,http://www.worcsregservices.gov.uk,-2.41624800000000,WR6 6RU,2013-07-29,fhrs_5_en-GB,5,,FHRS,5
336830,3 Rye Street,Birtsmorton,Malvern,Worcestershire,The Buffet Catering Company Limited,Retailers - other,4613,5,,719771,5,,52.01706000000000,14/01199/FOOD,148,wrsenquiries@worcsregservices.gov.uk,Malvern Hills,http://www.worcsregservices.gov.uk,-2.31199000000000,WR13 6AS,2014-11-28,fhrs_5_en-GB,5,,FHRS,5
336831,Butchers Arms,Lime Street,Eldersfield,Gloucester,The Butchers Arms,Pub/bar/nightclub,7843,0,,672617,0,,51.97114300000000,MH/B014ELLIME/1,148,wrsenquiries@worcsregservices.gov.uk,Malvern Hills,http://www.worcsregservices.gov.uk,-2.27251300000000,GL19 4NX,2013-12-12,fhrs_5_en-GB,5,,FHRS,5
336832,Jessamine Cottage,Worcester Road,Hanley Swan,Worcester,The Butchers Shop,Retailers - other,4613,0,,672848,0,,52.08655200000000,MH/K051HCWORC/1,148,wrsenquiries@worcsregservices.gov.uk,Malvern Hills,http://www.worcsregservices.gov.uk,-2.27426700000000,WR8 0EA,2015-01-14,fhrs_5_en-GB,5,,FHRS,5
336833,Malvern Cube,Malvern Youth Centre,Albert Road North,Malvern,The Cake Tin,Restaurant/Cafe/Canteen,1,0,,684609,0,,52.11404800000000,14/00225/FOOD,148,wrsenquiries@worcsregservices.gov.uk,Malvern Hills,http://www.worcsregservices.gov.uk,-2.32274300000000,WR14 2YF,2014-06-20,fhrs_5_en-GB,5,,FHRS,5
336834,90 Worcester Road,Malvern,Worcestershire,,The Cave,Restaurant/Cafe/Canteen,1,5,,735291,5,,52.11981900000000,14/01251/FOOD,148,wrsenquiries@worcsregservices.gov.uk,Malvern Hills,http://www.worcsregservices.gov.uk,-2.32953200000000,WR14 1NY,2014-07-24,fhrs_5_en-GB,5,,FHRS,5
336835,Chase Road,Malvern,Worcestershire,,The Chace Rest Home,Hospitals/Childcare/Caring Premises,5,5,,672970,5,,52.06747300000000,MH/N036MWCHAS/1,148,wrsenquiries@worcsregservices.gov.uk,Malvern Hills,http://www.worcsregservices.gov.uk,-2.32426000000000,WR14 4JY,2014-10-20,fhrs_4_en-GB,4,,FHRS,10
336836,B4204 Martley,Martley,Worcester,Worcestershire,The Chandlery,Hotel/bed & breakfast/guest house,7842,5,,672948,5,,52.23739500000000,MH/M05ZMRMART/1,148,wrsenquiries@worcsregservices.gov.uk,Malvern Hills,http://www.worcsregservices.gov.uk,-2.35780200000000,WR6 6QA,2013-07-02,fhrs_4_en-GB,4,,FHRS,10
336837,Gilberts End,Hanley Castle,Worcester,,The Chestnuts Bed and Breakfast,Hotel/bed & breakfast/guest house,7842,10,,672929,5,,52.07838700000000,MH/M055HCGILB/1,148,wrsenquiries@worcsregservices.gov.uk,Malvern Hills,http://www.worcsregservices.gov.uk,-2.26330200000000,WR8 0AS,2008-11-10,fhrs_4_en-GB,4,,FHRS,5
336838,Top Barn Activity Centre,Top Barn Business Centre,Worcester Road,Holt Heath,The Coffee Spot,Restaurant/Cafe/Canteen,1,5,,672566,0,,52.25397100000000,13/00240/FOOD,148,wrsenquiries@worcsregservices.gov.uk,Malvern Hills,http://www.worcsregservices.gov.uk,-2.25054200000000,WR6 6NH,2014-01-06,fhrs_5_en-GB,5,,FHRS,5
336839,The Cottage In The Wood Hotel And R,Holywell Road,Malvern,Worcestershire,The Cottage In The Wood Hotel & Outlook Restaurant,Hotel/bed & breakfast/guest house,7842,5,,672906,5,,52.08190800000000,MH/M015MWHOLY/1,148,wrsenquiries@worcsregservices.gov.uk,Malvern Hills,http://www.worcsregservices.gov.uk,-2.33520700000000,WR14 4LG,2013-10-23,fhrs_5_en-GB,5,,FHRS,5
336840,The Crow Hotel,Teme Street,Tenbury Wells,Worcestershire,The Crow,Pub/bar/nightclub,7843,5,,672587,5,,52.31141600000000,14/00611/FOOD,148,wrsenquiries@worcsregservices.gov.uk,Malvern Hills,http://www.worcsregservices.gov.uk,-2.59350100000000,WR15 8BA,2014-03-27,fhrs_4_en-GB,4,,FHRS,10
336841,The Crown,B4197 Martley,Martley,Worcester,The Crown@ Martley,Pub/bar/nightclub,7843,10,,707332,10,,52.23785500000000,14/01108/FOOD,148,wrsenquiries@worcsregservices.gov.uk,Malvern Hills,http://www.worcsregservices.gov.uk,-2.36315100000000,WR6 6PA,2014-09-30,fhrs_3_en-GB,3,,FHRS,10
336842,4 Graham Road,Malvern,Worcestershire,,The Crusty Cob Sandwich Shop,Takeaway/sandwich shop,7844,5,,672754,5,,52.11186100000000,MH/B094XP4GRA/1,148,wrsenquiries@worcsregservices.gov.uk,Malvern Hills,http://www.worcsregservices.gov.uk,-2.32696200000000,WR14 2HN,2011-11-08,fhrs_5_en-GB,5,,FHRS,5
336843,A4104 Baughton,Baughton,Earls Croome,Worcestershire,The Dog,Pub/bar/nightclub,7843,10,,684655,5,,,MH/B034ECBAUG/1,148,wrsenquiries@worcsregservices.gov.uk,Malvern Hills,http://www.worcsregservices.gov.uk,,,2010-02-10,fhrs_4_en-GB,4,,FHRS,5
336844,Dog Inn,A451 Dunley,Dunley,Stourport On Severn,The Dog at Dunley,Pub/bar/nightclub,7843,5,,672607,10,,52.31766600000000,MH/B014ASDUNL/1,148,wrsenquiries@worcsregservices.gov.uk,Malvern Hills,http://www.worcsregservices.gov.uk,-2.31493800000000,DY13 0UE,2013-12-12,fhrs_4_en-GB,4,,FHRS,5
336845,52 Guarlford Road,Malvern,Worcestershire,,THE ELMS,Hotel/bed & breakfast/guest house,7842,10,,672938,5,,52.10627500000000,MH/M055XC52GU/1,148,wrsenquiries@worcsregservices.gov.uk,Malvern Hills,http://www.worcsregservices.gov.uk,-2.30102000000000,WR14 3QP,2009-10-21,fhrs_4_en-GB,4,,FHRS,5
336846,Farmers Arms,Birts Street,Birtsmorton,Malvern,The Farmers Arms,Pub/bar/nightclub,7843,5,,672610,5,,52.02672000000000,MH/B014BIBIRT/1,148,wrsenquiries@worcsregservices.gov.uk,Malvern Hills,http://www.worcsregservices.gov.uk,-2.30326800000000,WR13 6AP,2013-06-26,fhrs_5_en-GB,5,,FHRS,5
336847,Sandys Road,Malvern,Worcestershire,,The Filling Station,Restaurant/Cafe/Canteen,1,10,,672714,5,,52.12459400000000,MH/B074XLSAND/1,148,wrsenquiries@worcsregservices.gov.uk,Malvern Hills,http://www.worcsregservices.gov.uk,-2.30248700000000,WR14 1JJ,2010-10-26,fhrs_4_en-GB,4,,FHRS,5
336848,The Cafe,The Fold,A4103 Bransford,Bransford,The Fold Cafe,Restaurant/Cafe/Canteen,1,0,,672666,5,,52.17183000000000,MH/B054BRNEWH/1,148,wrsenquiries@worcsregservices.gov.uk,Malvern Hills,http://www.worcsregservices.gov.uk,-2.29545300000000,WR6 5JB,2013-12-12,fhrs_5_en-GB,5,,FHRS,0
336849,Witley Court Drive,Great Witley,Worcestershire,,The Garden Tea Rooms,Restaurant/Cafe/Canteen,1,10,,672700,5,,52.28515800000000,MH/B074GWWITL/1,148,wrsenquiries@worcsregservices.gov.uk,Malvern Hills,http://www.worcsregservices.gov.uk,-2.34379100000000,WR6 6JT,2014-08-12,fhrs_4_en-GB,4,,FHRS,5
336850,11 Abbey Road,Malvern,Worcestershire,,The Great Malvern Deli,Retailers - other,4613,5,,684940,5,,52.11074800000000,MH/K251XP11AB/1,148,wrsenquiries@worcsregservices.gov.uk,Malvern Hills,http://www.worcsregservices.gov.uk,-2.32946600000000,WR14 3ES,2014-09-02,fhrs_4_en-GB,4,,FHRS,10
336851,Lower Court Farm,Church Lane,Suckley,Worcester,The Greenhouse at Holloways,Restaurant/Cafe/Canteen,1,0,,672695,0,,52.16237600000000,MH/B071SUCHUR/1,148,wrsenquiries@worcsregservices.gov.uk,Malvern Hills,http://www.worcsregservices.gov.uk,-2.40863000000000,WR6 5DE,2010-06-28,fhrs_5_en-GB,5,,FHRS,5
336852,Bastonford,Powick,Worcester,Worcestershire,The Halfway House Inn,Pub/bar/nightclub,7843,5,,672635,5,,52.15371100000000,MH/B014POMALV/1,148,wrsenquiries@worcsregservices.gov.uk,Malvern Hills,http://www.worcsregservices.gov.uk,-2.27453400000000,WR2 4SL,2014-11-20,fhrs_4_en-GB,4,,FHRS,10
336853,Mill Farm,B4203 Stanford Bridge,Stanford Bridge,Worcester,The Honey Pot,Restaurant/Cafe/Canteen,1,5,,672563,5,,52.29179600000000,13/00178/FOOD,148,wrsenquiries@worcsregservices.gov.uk,Malvern Hills,http://www.worcsregservices.gov.uk,-2.42540600000000,WR6 6SP,2013-09-27,fhrs_5_en-GB,5,,FHRS,0
336854,The Inn At Stonehall,U60007 Stonehall Common,Stonehall Common,Kemspey,The Inn at Stonehall,Pub/bar/nightclub,7843,10,,672626,5,,52.13916500000000,MH/B014KMSTON/4,148,wrsenquiries@worcsregservices.gov.uk,Malvern Hills,http://www.worcsregservices.gov.uk,-2.17510100000000,WR5 3QG,2011-11-08,fhrs_4_en-GB,4,,FHRS,5
336855,The Inn At Welland,Drake Street,Welland,Malvern,The Inn at Welland,Pub/bar/nightclub,7843,0,,672648,0,,52.05638500000000,MH/B014WEHOOK/1,148,wrsenquiries@worcsregservices.gov.uk,Malvern Hills,http://www.worcsregservices.gov.uk,-2.28360500000000,WR13 6LN,2014-05-14,fhrs_5_en-GB,5,,FHRS,0
336856,271 Worcester Road,Malvern,Worcestershire,,The Ivy Coffee Shop,Restaurant/Cafe/Canteen,1,10,,684598,5,,52.12814200000000,13/00377/FOOD,148,wrsenquiries@worcsregservices.gov.uk,Malvern Hills,http://www.worcsregservices.gov.uk,-2.31394900000000,WR14 1AA,2013-12-16,fhrs_4_en-GB,4,,FHRS,5
336857,Link End Road,Corse Lawn,Gloucester,,The Lawns,Hospitals/Childcare/Caring Premises,5,10,,685012,5,,51.97651500000000,MH/N135ELLINK/1,148,wrsenquiries@worcsregservices.gov.uk,Malvern Hills,http://www.worcsregservices.gov.uk,-2.25050400000000,GL19 4NN,2009-12-15,fhrs_4_en-GB,4,,FHRS,0
336858,The Lawns,33 Main Road,Kempsey,Worcester,The Lawns Nursing Home,Hospitals/Childcare/Caring Premises,5,0,,685011,0,,52.13546500000000,MH/N01ZKM33MA/2,148,wrsenquiries@worcsregservices.gov.uk,Malvern Hills,http://www.worcsregservices.gov.uk,-2.21622900000000,WR5 3NF,2014-07-16,fhrs_5_en-GB,5,,FHRS,5
336859,Lenchford Hotel,Shrawley,Worcester,,The Lenchford Inn,Pub/bar/nightclub,7843,5,,672638,5,,52.27324500000000,MH/B014SHSHRA/4,148,wrsenquiries@worcsregservices.gov.uk,Malvern Hills,http://www.worcsregservices.gov.uk,-2.27946400000000,WR6 6TB,2014-01-27,fhrs_4_en-GB,4,,FHRS,10
336860,1 Village,Clifton-On-Teme,Worcester,,The Lion Inn,Pub/bar/nightclub,7843,5,,672615,5,,52.25188400000000,MH/B014CL1VIL/2,148,wrsenquiries@worcsregservices.gov.uk,Malvern Hills,http://www.worcsregservices.gov.uk,-2.42144900000000,WR6 6DH,2014-06-04,fhrs_5_en-GB,5,,FHRS,5
336861,Townsend Way,Malvern,Worcestershire,,The Malvern,Hotel/bed & breakfast/guest house,7842,5,,672910,5,,52.13056800000000,MH/M015XLTOWN/1,148,wrsenquiries@worcsregservices.gov.uk,Malvern Hills,http://www.worcsregservices.gov.uk,-2.30099400000000,WR14 1PY,2013-10-10,fhrs_5_en-GB,5,,FHRS,0
336862,Manor Park,Albert Road North,Malvern,Worcestershire,The Manor Park Club,Other catering premises,7841,10,,672813,5,,52.11111831665040,MH/B337XPALBE/1,148,wrsenquiries@worcsregservices.gov.uk,Malvern Hills,http://www.worcsregservices.gov.uk,-2.32996010780334,WR14 2TW,2012-01-23,fhrs_4_en-GB,4,,FHRS,5
336863,Masons Arms,Castle Hill,Wichenford,Worcester,The Masons Arms,Pub/bar/nightclub,7843,5,,672649,5,,52.23261300000000,MH/B014WICAST/3,148,wrsenquiries@worcsregservices.gov.uk,Malvern Hills,http://www.worcsregservices.gov.uk,-2.33632700000000,WR6 6YA,2015-01-02,fhrs_4_en-GB,4,,FHRS,10
336864,Unit 69 Phase 3,Malvern Hills Science Park,Geraldine Road,Malvern,The Munch Box,Restaurant/Cafe/Canteen,1,0,,684593,0,,52.10482700000000,13/00256/FOOD,148,wrsenquiries@worcsregservices.gov.uk,Malvern Hills,http://www.worcsregservices.gov.uk,-2.31150700000000,WR14 3SZ,2013-12-02,fhrs_5_en-GB,5,,FHRS,0
336865,105 Lower Howsell Road,Malvern,Worcestershire,,The New Inn,Pub/bar/nightclub,7843,0,,684604,0,,52.13494900000000,14/00132/FOOD,148,wrsenquiries@worcsregservices.gov.uk,Malvern Hills,http://www.worcsregservices.gov.uk,-2.31379200000000,WR14 1DN,2013-12-13,fhrs_5_en-GB,5,,FHRS,5
336866,New Inn,Old Road,Clifton-On-Teme,Worcester,The New Inn,Pub/bar/nightclub,7843,5,,672656,5,,52.24783800000000,MH/B034CLOLDR/1,148,wrsenquiries@worcsregservices.gov.uk,Malvern Hills,http://www.worcsregservices.gov.uk,-2.40891700000000,WR6 6DR,2014-06-04,fhrs_5_en-GB,5,,FHRS,5
336867,Old Bush Inn,Upton Road,Callow End,Worcester,The Old Bush,Pub/bar/nightclub,7843,5,,672565,5,,52.14255000000000,13/00222/FOOD,148,wrsenquiries@worcsregservices.gov.uk,Malvern Hills,http://www.worcsregservices.gov.uk,-2.24364700000000,WR2 4TE,2013-10-24,fhrs_4_en-GB,4,,FHRS,10
336868,208 Wells Road,Malvern,Worcestershire,,The Old Coach House,Hotel/bed & breakfast/guest house,7842,5,,672949,0,,52.07549600000000,MH/M05ZMW208W/1,148,wrsenquiries@worcsregservices.gov.uk,Malvern Hills,http://www.worcsregservices.gov.uk,-2.33264900000000,WR14 4HD,2013-08-06,fhrs_5_en-GB,5,,FHRS,5
336869,Longdon,Tewkesbury,Gloucestershire,,The Old Plough,Hotel/bed & breakfast/guest house,7842,10,,672921,0,,52.02438000000000,MH/M035LOLONG/1,148,wrsenquiries@worcsregservices.gov.uk,Malvern Hills,http://www.worcsregservices.gov.uk,-2.23823800000000,GL20 6AT,2009-11-26,fhrs_4_en-GB,4,,FHRS,5
336870,Bridge House,Waterside,Upton-Upon-Severn,Worcester,The Old Stables Tea Shop,Restaurant/Cafe/Canteen,1,10,,672708,5,,52.06440300000000,MH/B074UPWATE/2,148,wrsenquiries@worcsregservices.gov.uk,Malvern Hills,http://www.worcsregservices.gov.uk,-2.21645400000000,WR8 0HG,2008-05-13,fhrs_4_en-GB,4,,FHRS,5
336871,114 Graham Road,Malvern,Worcestershire,,The Pembridge,Hotel/bed & breakfast/guest house,7842,5,,672911,5,,52.11646600000000,MH/M015XP114G/2,148,wrsenquiries@worcsregservices.gov.uk,Malvern Hills,http://www.worcsregservices.gov.uk,-2.32620700000000,WR14 2HX,2013-08-07,fhrs_5_en-GB,5,,FHRS,5
336872,Rye Street,Birtsmorton,"Malvern, Worcestershire",,The Rectory,Hospitals/Childcare/Caring Premises,5,10,,672990,5,,52.01706000000000,MH/N136BIRYES/1,148,wrsenquiries@worcsregservices.gov.uk,Malvern Hills,http://www.worcsregservices.gov.uk,-2.31199000000000,WR13 6AS,2009-11-26,fhrs_3_en-GB,3,,FHRS,10
336873,Bank Street,Stoke Bliss,"Tenbury Wells, Worcestershire",,The Retreat,Hospitals/Childcare/Caring Premises,5,10,,685015,5,,52.26056500000000,MH/N13ZSEBANK/1,148,wrsenquiries@worcsregservices.gov.uk,Malvern Hills,http://www.worcsregservices.gov.uk,-2.53141800000000,WR15 8RY,2010-03-12,fhrs_4_en-GB,4,,FHRS,5
336874,The Bridge Hotel,87 Teme Street,Tenbury Wells,Worcestershire,The Riverside Cafe,Restaurant/Cafe/Canteen,1,5,,672578,5,,52.31275000000000,13/00327/FOOD,148,wrsenquiries@worcsregservices.gov.uk,Malvern Hills,http://www.worcsregservices.gov.uk,-2.59463400000000,WR15 8AE,2013-12-31,fhrs_5_en-GB,5,,FHRS,5
336875,Robin Hood,B4208 Castlemorton,Castlemorton,Malvern,The Robin Hood,Pub/bar/nightclub,7843,10,,704524,15,,52.03868900000000,14/01104/FOOD,148,wrsenquiries@worcsregservices.gov.uk,Malvern Hills,http://www.worcsregservices.gov.uk,-2.31262200000000,WR13 6BS,2014-09-26,fhrs_2_en-GB,2,,FHRS,10
336876,62 Newtown Road,Malvern,Worcestershire,,The Salvation Army,Other catering premises,7841,10,,703220,10,,52.12205600000000,14/00899/FOOD,148,wrsenquiries@worcsregservices.gov.uk,Malvern Hills,http://www.worcsregservices.gov.uk,-2.33042600000000,WR14 1NZ,2014-09-17,fhrs_3_en-GB,3,,FHRS,10
336877,20 Church Street,Upton Upon Severn,Worcester,Worcestershire,The Secret Mess,Restaurant/Cafe/Canteen,1,5,,672579,5,,52.06420200000000,13/00355/FOOD,148,wrsenquiries@worcsregservices.gov.uk,Malvern Hills,http://www.worcsregservices.gov.uk,-2.21810100000000,WR8 0HT,2013-12-12,fhrs_5_en-GB,5,,FHRS,5
336878,The Ship Inn,63 Teme Street,Tenbury Wells,Worcestershire,The Ship,Pub/bar/nightclub,7843,0,,672642,5,,52.31267800000000,MH/B014TE63TE/1,148,wrsenquiries@worcsregservices.gov.uk,Malvern Hills,http://www.worcsregservices.gov.uk,-2.59450100000000,WR15 8AE,2013-08-13,fhrs_5_en-GB,5,,FHRS,5
336879,Spring Lane,Malvern,Worcestershire,,The Springs Nursing Home,Hospitals/Childcare/Caring Premises,5,5,,672963,5,,52.12779400000000,MH/N01ZXLSPRI/1,148,wrsenquiries@worcsregservices.gov.uk,Malvern Hills,http://www.worcsregservices.gov.uk,-2.30981300000000,WR14 1AL,2014-08-28,fhrs_5_en-GB,5,,FHRS,0
336880,59 Cowleigh Road,Malvern,Worcestershire,,The Star,Pub/bar/nightclub,7843,5,,684653,5,,52.12222800000000,MH/B014XW59CO/1,148,wrsenquiries@worcsregservices.gov.uk,Malvern Hills,http://www.worcsregservices.gov.uk,-2.33624000000000,WR14 1QE,2014-04-30,fhrs_5_en-GB,5,,FHRS,0
336881,The Sun And Slipper,C2096 Mamble,Mamble,Kidderminster,The Sun & Slipper,Pub/bar/nightclub,7843,5,,672629,5,,52.34119800000000,MH/B014MAMAMB/1,148,wrsenquiries@worcsregservices.gov.uk,Malvern Hills,http://www.worcsregservices.gov.uk,-2.45658700000000,DY14 9JL,2013-11-26,fhrs_5_en-GB,5,,FHRS,5
336882,43 Pickersleigh Avenue,Malvern,Worcestershire,,The Supper Table,Other catering premises,7841,5,,697352,5,,52.12514300000000,14/01016/FOOD,148,wrsenquiries@worcsregservices.gov.uk,Malvern Hills,http://www.worcsregservices.gov.uk,-2.31259900000000,WR14 2LP,2014-08-15,fhrs_5_en-GB,5,,FHRS,5
336883,Waterside,Upton Upon Severn,Worcester,Worcestershire,The Swan Hotel,Pub/bar/nightclub,7843,0,,684651,0,,52.06398300000000,MH/B014UPWATE/5,148,wrsenquiries@worcsregservices.gov.uk,Malvern Hills,http://www.worcsregservices.gov.uk,-2.21513900000000,WR8 0JD,2009-10-13,fhrs_5_en-GB,5,,FHRS,5
336884,Swan Inn,Worcester Road,Hanley Swan,Worcester,The Swan Inn,Pub/bar/nightclub,7843,5,,684627,10,,52.08691200000000,14/00819/FOOD,148,wrsenquiries@worcsregservices.gov.uk,Malvern Hills,http://www.worcsregservices.gov.uk,-2.27424000000000,WR8 0EA,2014-05-21,fhrs_4_en-GB,4,,FHRS,5
336885,Swan Inn,Worcester Road,Newland,Malvern,The Swan Inn,Pub/bar/nightclub,7843,5,,684643,5,,52.13871600000000,MH/B014NEWORC/1,148,wrsenquiries@worcsregservices.gov.uk,Malvern Hills,http://www.worcsregservices.gov.uk,-2.29996700000000,WR13 5AY,2014-05-19,fhrs_5_en-GB,5,,FHRS,5
336886,Talbot Inn,87 Main Road,Kempsey,Worcester,The Talbot Inn,Pub/bar/nightclub,7843,5,,684587,5,,52.13905900000000,13/00027/FOOD,148,wrsenquiries@worcsregservices.gov.uk,Malvern Hills,http://www.worcsregservices.gov.uk,-2.21718100000000,WR5 3JA,2014-11-28,fhrs_4_en-GB,4,,FHRS,10
336887,58 Old Street,Upton-Upon-Severn,Worcester,,The Upton Muggery,Pub/bar/nightclub,7843,10,,672646,10,,52.06199000000000,MH/B014UP58OL/1,148,wrsenquiries@worcsregservices.gov.uk,Malvern Hills,http://www.worcsregservices.gov.uk,-2.21839600000000,WR8 0HW,2014-03-14,fhrs_3_en-GB,3,,FHRS,10
336888,14 Green Lane,Malvern,Worcestershire,,The Wells B&B,Hotel/bed & breakfast/guest house,7842,5,,672995,5,,52.07848500000000,MH/S33ZMW14GR/1,148,wrsenquiries@worcsregservices.gov.uk,Malvern Hills,http://www.worcsregservices.gov.uk,-2.32798800000000,WR14 4HU,2013-04-18,fhrs_5_en-GB,5,,FHRS,5
336889,Walton Marine,East Waterside,Upton-Upon-Severn,Worcester,The Wheelhouse Bar & Restaurant,Restaurant/Cafe/Canteen,1,5,,672676,5,,52.06494600000000,MH/B054UPEAST/1,148,wrsenquiries@worcsregservices.gov.uk,Malvern Hills,http://www.worcsregservices.gov.uk,-2.21434100000000,WR8 0PB,2014-05-14,fhrs_4_en-GB,4,,FHRS,10
336890,The Wyche Inn,74 Wyche Road,Malvern,Worcestershire,The Wyche Inn Ltd,Pub/bar/nightclub,7843,5,,672631,5,,52.09180800000000,MH/B014MW74WY/1,148,wrsenquiries@worcsregservices.gov.uk,Malvern Hills,http://www.worcsregservices.gov.uk,-2.33809800000000,WR14 4EQ,2012-03-13,fhrs_4_en-GB,4,,FHRS,10
336891,105 Poolbrook Road,Malvern,Worcestershire,,Three Horse Shoes,Pub/bar/nightclub,7843,5,,672651,5,,52.10087600000000,MH/B014XC105P/3,148,wrsenquiries@worcsregservices.gov.uk,Malvern Hills,http://www.worcsregservices.gov.uk,-2.30626800000000,WR14 3JW,2014-03-24,fhrs_5_en-GB,5,,FHRS,5
336892,Church End,Hanley Castle,Worcester,,Three Kings,Pub/bar/nightclub,7843,10,,672620,5,,52.07671800000000,MH/B014HCCHUR/1,148,wrsenquiries@worcsregservices.gov.uk,Malvern Hills,http://www.worcsregservices.gov.uk,-2.23648800000000,WR8 0BL,2010-11-23,fhrs_3_en-GB,3,,FHRS,10
336893,1 Collett's Green Road,Powick,Worcester,,Three Nuns,Pub/bar/nightclub,7843,5,,672632,5,,52.16046900000000,MH/B014PO1COL/3,148,wrsenquiries@worcsregservices.gov.uk,Malvern Hills,http://www.worcsregservices.gov.uk,-2.26790900000000,WR2 4SB,2012-03-02,fhrs_4_en-GB,4,,FHRS,10
336894,34 Old Street,Upton-Upon-Severn,Worcester,,Thrishna,Restaurant/Cafe/Canteen,1,10,,672673,10,,52.06199000000000,MH/B054UP34OL/2,148,wrsenquiries@worcsregservices.gov.uk,Malvern Hills,http://www.worcsregservices.gov.uk,-2.21839600000000,WR8 0HW,2014-09-18,fhrs_3_en-GB,3,,FHRS,10
336895,Davenham,148 Graham Road,Malvern,Worcestershire,TNS Catering Ltd at Davenham,Hospitals/Childcare/Caring Premises,5,0,,672981,5,,52.11992900000000,MH/N036XT148G/1,148,wrsenquiries@worcsregservices.gov.uk,Malvern Hills,http://www.worcsregservices.gov.uk,-2.32575100000000,WR14 2HY,2014-11-19,fhrs_5_en-GB,5,,FHRS,5
336896,Perrins House Moorlands Road,Malvern,Worcestershire,,TNS Catering Manangement Ltd,Hospitals/Childcare/Caring Premises,5,0,,672965,0,,52.11999500000000,MH/N01ZXTPERR/1,148,wrsenquiries@worcsregservices.gov.uk,Malvern Hills,http://www.worcsregservices.gov.uk,-2.32472900000000,WR14 2TZ,2013-08-14,fhrs_5_en-GB,5,,FHRS,5
336897,Top Barn Activity Centre,Top Barn Business Centre,Worcester Road,Holt Heath,Top Barn Activity And Events Company Ltd,Restaurant/Cafe/Canteen,1,10,,707325,10,,52.25397100000000,14/00070/FOOD,148,wrsenquiries@worcsregservices.gov.uk,Malvern Hills,http://www.worcsregservices.gov.uk,-2.25054200000000,WR6 6NH,2014-07-08,fhrs_3_en-GB,3,,FHRS,5
336898,Top Barn Farm Training Centre,Worcester Road,Holt Heath,Worcester,Top Barn Training Co Ltd,Restaurant/Cafe/Canteen,1,10,,672725,5,,52.25397100000000,MH/B07ZHOWORC/1,148,wrsenquiries@worcsregservices.gov.uk,Malvern Hills,http://www.worcsregservices.gov.uk,-2.25054200000000,WR6 6NH,2011-08-05,fhrs_4_en-GB,4,,FHRS,5
336899,54 Guarlford Road,Malvern,Worcestershire,,Treherne House & Malvern Retreat,Hotel/bed & breakfast/guest house,7842,5,,672940,5,,52.10627500000000,MH/M055XC54GU/1,148,wrsenquiries@worcsregservices.gov.uk,Malvern Hills,http://www.worcsregservices.gov.uk,-2.30102000000000,WR14 3QP,2013-06-10,fhrs_5_en-GB,5,,FHRS,5
336900,2 New Street,Upton-Upon-Severn,Worcester,,Upton Chippy,Takeaway/sandwich shop,7844,10,,672740,5,,52.06355400000000,MH/B094UP2NEW/1,148,wrsenquiries@worcsregservices.gov.uk,Malvern Hills,http://www.worcsregservices.gov.uk,-2.21860800000000,WR8 0HR,2013-11-14,fhrs_4_en-GB,4,,FHRS,5
336901,Oliver Cromwells Jazz Festival,37 Old Street,Upton-Upon-Severn,Worcester,Upton Jazz Festival,Mobile caterer,7846,10,,672819,5,,52.06233200000000,MH/D197UP37OL/1,148,wrsenquiries@worcsregservices.gov.uk,Malvern Hills,http://www.worcsregservices.gov.uk,-2.21797500000000,WR8 0HN,2010-06-26,fhrs_4_en-GB,4,,FHRS,5
336902,18 Old Street,Upton Upon Severn,Worcester,Worcestershire,Upton Pizza And Kebab,Takeaway/sandwich shop,7844,10,,707333,10,,52.06199000000000,14/01144/FOOD,148,wrsenquiries@worcsregservices.gov.uk,Malvern Hills,http://www.worcsregservices.gov.uk,-2.21839600000000,WR8 0HW,2014-09-30,fhrs_3_en-GB,3,,FHRS,10
336903,57 Old Street,Upton-Upon-Severn,Worcester,,Upton Social Club,Hotel/bed & breakfast/guest house,7842,0,,672763,5,,52.06233200000000,MH/B114UP57OL/1,148,wrsenquiries@worcsregservices.gov.uk,Malvern Hills,http://www.worcsregservices.gov.uk,-2.21797500000000,WR8 0HN,2013-02-28,fhrs_5_en-GB,5,,FHRS,0
336904,Upton Upon Severn Cof E Primar,School Lane,Upton-Upon-Severn,Worcester,Upton upon Severn Pre School,Hospitals/Childcare/Caring Premises,5,0,,672835,5,,52.06112300000000,MH/I09ZUPSCHO/1,148,wrsenquiries@worcsregservices.gov.uk,Malvern Hills,http://www.worcsregservices.gov.uk,-2.21586900000000,WR8 0LD,2010-02-26,fhrs_5_en-GB,5,,FHRS,0
336905,Bell House,9 New Street,Upton Upon Severn,Worcester,Uptons Tea And Coffee,Restaurant/Cafe/Canteen,1,5,,684628,5,,52.06331100000000,14/00840/FOOD,148,wrsenquiries@worcsregservices.gov.uk,Malvern Hills,http://www.worcsregservices.gov.uk,-2.21844700000000,WR8 0HP,2014-07-07,fhrs_4_en-GB,4,,FHRS,10
336906,267-269 Worcester Road,Malvern,Worcestershire,,Vasai,Restaurant/Cafe/Canteen,1,5,,672681,5,,52.12814200000000,MH/B054XL267-/2,148,wrsenquiries@worcsregservices.gov.uk,Malvern Hills,http://www.worcsregservices.gov.uk,-2.31394900000000,WR14 1AA,2012-03-28,fhrs_4_en-GB,4,,FHRS,10
336907,Malvern,Worcestershire,,,Viscount Cobham Court,Restaurant/Cafe/Canteen,1,5,,672807,5,,52.11722500000000,MH/B31ZXGVISC/1,148,wrsenquiries@worcsregservices.gov.uk,Malvern Hills,http://www.worcsregservices.gov.uk,-2.31179800000000,WR14 2RJ,2008-10-13,fhrs_5_en-GB,5,,FHRS,0
336908,Grimley,Worcester,,,Wagon Wheel,Pub/bar/nightclub,7843,0,,672618,0,,52.24236600000000,MH/B014GRGRIM/1,148,wrsenquiries@worcsregservices.gov.uk,Malvern Hills,http://www.worcsregservices.gov.uk,-2.24145500000000,WR2 6LU,2014-05-06,fhrs_5_en-GB,5,,FHRS,0
336909,Waitrose Ltd,Edith Walk,Malvern,Worcestershire,Waitrose,Retailers - supermarkets/hypermarkets,7840,0,,684881,0,,52.11200100000000,MH/K011XPEDIT/2,148,wrsenquiries@worcsregservices.gov.uk,Malvern Hills,http://www.worcsregservices.gov.uk,-2.32823400000000,WR14 2HH,2015-01-23,fhrs_5_en-GB,5,,FHRS,0
336910,Shrawley Village Hall,Shrawley,Worcester,,Walnut Cottage Kindergarten,Hospitals/Childcare/Caring Premises,5,5,,672820,5,,52.21087646484380,MH/D454SHSHRA/1,148,wrsenquiries@worcsregservices.gov.uk,Malvern Hills,http://www.worcsregservices.gov.uk,-2.20981502532959,WR6 6TT,2014-12-05,fhrs_4_en-GB,4,,FHRS,10
336911,34 Main Road,Kempsey,Worcester,,Walter De Cantelupe Inn,Pub/bar/nightclub,7843,5,,672624,5,,52.13869900000000,MH/B014KM34MA/1,148,wrsenquiries@worcsregservices.gov.uk,Malvern Hills,http://www.worcsregservices.gov.uk,-2.21732600000000,WR5 3NA,2014-11-14,fhrs_5_en-GB,5,,FHRS,5
336912,Leigh Sinton,Malvern,Worcestershire,,Waterside Care Home,Hospitals/Childcare/Caring Premises,5,5,,672962,5,,52.15570200000000,MH/N01ZXLLEIG/1,148,wrsenquiries@worcsregservices.gov.uk,Malvern Hills,http://www.worcsregservices.gov.uk,-2.31925900000000,WR13 5EQ,2013-10-01,fhrs_5_en-GB,5,,FHRS,0
336913,Lime Grove,Welland,"Malvern, Worcestershire",,Welland House Care Centre,Hospitals/Childcare/Caring Premises,5,0,,672960,0,,52.05951400000000,MH/N01ZWELIME/1,148,wrsenquiries@worcsregservices.gov.uk,Malvern Hills,http://www.worcsregservices.gov.uk,-2.30139000000000,WR13 6LY,2014-10-01,fhrs_5_en-GB,5,,FHRS,0
336914,14 Worcester Road,Malvern,Worcestershire,,Wetherspoons at the Foley Arms,Pub/bar/nightclub,7843,0,,672912,5,,52.11234700000000,MH/M015XP14WO/1,148,wrsenquiries@worcsregservices.gov.uk,Malvern Hills,http://www.worcsregservices.gov.uk,-2.33010500000000,WR14 4QS,2012-11-19,fhrs_5_en-GB,5,,FHRS,5
336915,21 High Street,Upton-Upon-Severn,Worcester,,White Lion Hotel,Hotel/bed & breakfast/guest house,7842,0,,672908,0,,52.06361000000000,MH/M015UP21HI/1,148,wrsenquiries@worcsregservices.gov.uk,Malvern Hills,http://www.worcsregservices.gov.uk,-2.21722300000000,WR8 0HJ,2010-02-09,fhrs_5_en-GB,5,,FHRS,5
336916,21 Avenue Road,Malvern,Worcestershire,,Wishmoor Care Home,Hospitals/Childcare/Caring Premises,5,10,,672976,5,,52.10938800000000,MH/N036XC21AV/3,148,wrsenquiries@worcsregservices.gov.uk,Malvern Hills,http://www.worcsregservices.gov.uk,-2.31399200000000,WR14 3AY,2014-09-10,fhrs_3_en-GB,3,,FHRS,10
336917,80 Barnards Green Road,Malvern,Worcestershire,,Wok N Roll,Takeaway/sandwich shop,7844,5,,672596,5,,52.10837000000000,14/00807/FOOD,148,wrsenquiries@worcsregservices.gov.uk,Malvern Hills,http://www.worcsregservices.gov.uk,-2.31135700000000,WR14 3LY,2014-05-01,fhrs_5_en-GB,5,,FHRS,5
336918,Woodbury View,Martley Road,Lower Broadheath,Worcester,Woodbury View Care Home,Hospitals/Childcare/Caring Premises,5,10,,672989,5,,52.20908700000000,MH/N136BHMART/1,148,wrsenquiries@worcsregservices.gov.uk,Malvern Hills,http://www.worcsregservices.gov.uk,-2.27269500000000,WR2 6QG,2014-05-29,fhrs_4_en-GB,4,,FHRS,5
336919,Weather Lane,Astley Burf,"Stourport-On-Severn, Worcester",,Woodhampton House Bed and Breakfast,Hotel/bed & breakfast/guest house,7842,10,,672926,10,,52.31021900000000,MH/M055ASWEAT/1,148,wrsenquiries@worcsregservices.gov.uk,Malvern Hills,http://www.worcsregservices.gov.uk,-2.28807200000000,DY13 0SF,2013-01-14,fhrs_3_en-GB,3,,FHRS,5
336920,Elm Hill Cottage,Sinton Green,Hallow,Worcester,Worcestershire Cookery Demos,Other catering premises,7841,5,,672806,5,,52.24898100000000,MH/B31ZGRSINT/1,148,wrsenquiries@worcsregservices.gov.uk,Malvern Hills,http://www.worcsregservices.gov.uk,-2.26732900000000,WR2 6NU,2014-04-04,fhrs_5_en-GB,5,,FHRS,5
336921,4 Whitethorn Grove,Malvern,Worcestershire,,Working Lunch Co,Other catering premises,7841,5,,672803,0,,52.12196700000000,MH/B29ZXG4WHI/1,148,wrsenquiries@worcsregservices.gov.uk,Malvern Hills,http://www.worcsregservices.gov.uk,-2.30314100000000,WR14 2UU,2009-12-10,fhrs_5_en-GB,5,,FHRS,0
336922,1-3 Wren Avenue,Malvern,Worcestershire,,Wren House,Hospitals/Childcare/Caring Premises,5,5,,672985,5,,52.11878200000000,MH/N076XG1-3W/1,148,wrsenquiries@worcsregservices.gov.uk,Malvern Hills,http://www.worcsregservices.gov.uk,-2.30430200000000,WR14 2QB,2013-09-13,fhrs_5_en-GB,5,,FHRS,5
336923,22 Yates Hay Road,Malvern,Worcestershire,,Yates Hay Fish Bar,Takeaway/sandwich shop,7844,5,,672756,5,,52.13123700000000,MH/B094XT22YA/3,148,wrsenquiries@worcsregservices.gov.uk,Malvern Hills,http://www.worcsregservices.gov.uk,-2.32644700000000,WR14 1LH,2014-09-05,fhrs_5_en-GB,5,,FHRS,5
336924,Hanley Swan,Worcester,,,Yew Tree House Bed & Breakfast,Hotel/bed & breakfast/guest house,7842,10,,672930,5,,52.08382200000000,MH/M055HCHANL/1,148,wrsenquiries@worcsregservices.gov.uk,Malvern Hills,http://www.worcsregservices.gov.uk,-2.26523100000000,WR8 0DN,2009-11-05,fhrs_4_en-GB,4,,FHRS,5
336925,196 Worcester Road,Malvern,Worcestershire,,York Cafe,Restaurant/Cafe/Canteen,1,5,,672711,5,,52.12918300000000,MH/B074XL196W/1,148,wrsenquiries@worcsregservices.gov.uk,Malvern Hills,http://www.worcsregservices.gov.uk,-2.31156100000000,WR14 1AG,2014-06-06,fhrs_5_en-GB,5,,FHRS,5
336926,Worcester Road,Earls Croome,Worcester,Worcestershire,Yorkshire Grey,Pub/bar/nightclub,7843,10,,697351,5,,52.07860900000000,14/00969/FOOD,148,wrsenquiries@worcsregservices.gov.uk,Malvern Hills,http://www.worcsregservices.gov.uk,-2.20066100000000,WR8 9DA,2014-07-24,fhrs_3_en-GB,3,,FHRS,10
336927,17 Market Street,Tenbury Wells,Worcestershire,,Yue Wah,Takeaway/sandwich shop,7844,5,,672735,10,,52.31088000000000,MH/B094TE17MA/1,148,wrsenquiries@worcsregservices.gov.uk,Malvern Hills,http://www.worcsregservices.gov.uk,-2.59465300000000,WR15 8BQ,2014-04-02,fhrs_3_en-GB,3,,FHRS,10
