,addressline1,addressline2,addressline3,addressline4,businessname,businesstype,businesstypeid,confidenceinmanagement,extractdate,fhrsid,hygiene,itemcount,latitude,localauthoritybusinessid,localauthoritycode,localauthorityemailaddress,localauthorityname,localauthoritywebsite,longitude,postcode,ratingdate,ratingkey,ratingvalue,returncode,schemetype,structural
338906,90 Rushock Close,Woodrow South,Redditch,Worcestershire,007 Grill,Mobile caterer,7846,5,,671964,5,,52.28308200000000,RB/502036,149,wrsenquiries@worcsregservices.gov.uk,Redditch,http://www.worcsregservices.gov.uk,-1.91184000000000,B98 7UQ,2013-02-07,fhrs_5_en-GB,5,,FHRS,5
338907,131 Evesham Road,Redditch,Worcestershire,,9th Chinese Takeaway,Takeaway/sandwich shop,7844,10,,671807,10,,52.29319800000000,14/00248/FOOD,149,wrsenquiries@worcsregservices.gov.uk,Redditch,http://www.worcsregservices.gov.uk,-1.94585100000000,B97 4JX,2014-03-27,fhrs_3_en-GB,3,,FHRS,10
338908,Hither Green Lane,Redditch,Worcestershire,,Abbey Hotel Golf & Country Club,Hotel/bed & breakfast/guest house,7842,5,,685198,10,,52.32304200000000,RB/500366,149,wrsenquiries@worcsregservices.gov.uk,Redditch,http://www.worcsregservices.gov.uk,-1.92283900000000,B98 9BE,2014-10-07,fhrs_4_en-GB,4,,FHRS,5
338909,Kitchens,Dagnell End Road,Riverside,Redditch,Abbey Park Golf & Country Club,Hotel/bed & breakfast/guest house,7842,5,,671910,10,,52.32304200000000,RB/228620,149,wrsenquiries@worcsregservices.gov.uk,Redditch,http://www.worcsregservices.gov.uk,-1.92283900000000,B98 9BE,2014-10-07,fhrs_4_en-GB,4,,FHRS,5
338910,Woodfield Close,Abbeydale,Redditch,Worcestershire,Abbeydale Community Club,Pub/bar/nightclub,7843,10,,685122,5,,52.31124100000000,RB/217277,149,wrsenquiries@worcsregservices.gov.uk,Redditch,http://www.worcsregservices.gov.uk,-1.92708300000000,B98 8JE,2012-10-26,fhrs_3_en-GB,3,,FHRS,10
338911,Manorside Estate,2-4 Walkers Road,Moons Moat,Redditch,Agincare Cuisine Ltd,Other catering premises,7841,5,,672011,0,,52.31438300000000,RB/504747,149,wrsenquiries@worcsregservices.gov.uk,Redditch,http://www.worcsregservices.gov.uk,-1.89687500000000,B98 9HD,2014-08-18,fhrs_5_en-GB,5,,FHRS,5
338912,Brook Industrial Estate,Brook Street,Redditch,Worcestershire,AJs Snack Bar,Mobile caterer,7846,5,,671795,5,,52.30825300000000,13/00101/FOOD,149,wrsenquiries@worcsregservices.gov.uk,Redditch,http://www.worcsregservices.gov.uk,-1.92261500000000,B98 8NG,2013-03-20,fhrs_5_en-GB,5,,FHRS,5
338913,Quinneys Lane,Woodrow South,Redditch,Worcestershire,Alexandra Hospital (Cook Chill),Hospitals/Childcare/Caring Premises,5,0,,671941,5,,52.28131100000000,RB/500337,149,wrsenquiries@worcsregservices.gov.uk,Redditch,http://www.worcsregservices.gov.uk,-1.91127200000000,B98 7WG,2015-01-21,fhrs_5_en-GB,5,,FHRS,5
338914,Green Sward Lane,Matchborough West,Redditch,Worcestershire,Alliance In Partnership @ Arrow Vale Community High School,School/college/university,7845,5,,685201,5,,52.29644900000000,RB/500772,149,wrsenquiries@worcsregservices.gov.uk,Redditch,http://www.worcsregservices.gov.uk,-1.89923300000000,B98 0EN,2014-02-14,fhrs_4_en-GB,4,,FHRS,10
338915,Birchensale Middle School,Bridley Moor Road,Redditch,Worcestershire,Alliance In Partnership @ Birchensale Middle School,School/college/university,7845,0,,707339,0,,52.30930400000000,14/01141/COMM,149,wrsenquiries@worcsregservices.gov.uk,Redditch,http://www.worcsregservices.gov.uk,-1.95529200000000,B97 6HT,2014-07-01,fhrs_5_en-GB,5,,FHRS,0
338916,Holyoakes Field First School,Bridge Street,Redditch,Worcestershire,Alliance In Partnership @ Holyoakes Field First School,School/college/university,7845,0,,707336,0,,52.30847400000000,14/01055/FOOD,149,wrsenquiries@worcsregservices.gov.uk,Redditch,http://www.worcsregservices.gov.uk,-1.94801800000000,B97 6HH,2014-10-15,fhrs_5_en-GB,5,,FHRS,0
338917,St Thomas Moore Rc First School,Woodrow Centre,Redditch,Worcestershire,Alliance In Partnership @ St Thomas More,School/college/university,7845,0,,703227,0,,52.28733700000000,14/00423/FOOD,149,wrsenquiries@worcsregservices.gov.uk,Redditch,http://www.worcsregservices.gov.uk,-1.91539400000000,B98 7RY,2014-09-15,fhrs_5_en-GB,5,,FHRS,0
338918,St Stephens C Of E First School,Mabey Avenue,Redditch,Worcestershire,Alliance In Partnership@St Stephens First School,School/college/university,7845,5,,712515,5,,52.31279900000000,14/01053/FOOD,149,wrsenquiries@worcsregservices.gov.uk,Redditch,http://www.worcsregservices.gov.uk,-1.93242000000000,B98 8HW,2014-11-03,fhrs_5_en-GB,5,,FHRS,5
338919,38 Springvale Road,Redditch,Worcestershire,,Annie's Parties And Cupcakes,Other catering premises,7841,0,,671802,5,,,13/00431/FOOD,149,wrsenquiries@worcsregservices.gov.uk,Redditch,http://www.worcsregservices.gov.uk,,,2014-01-13,fhrs_5_en-GB,5,,FHRS,5
338920,6 Croft Close,Winyates West,Redditch,Worcestershire,Arrow Pig Roast,Mobile caterer,7846,5,,671909,5,,52.30391400000000,RB/228582,149,wrsenquiries@worcsregservices.gov.uk,Redditch,http://www.worcsregservices.gov.uk,-1.90242800000000,B98 0JT,2014-06-03,fhrs_5_en-GB,5,,FHRS,5
338921,Arrow Valley Park,Battens Drive,Redditch,Worcestershire,Arrow Valley Park Central,Restaurant/Cafe/Canteen,1,5,,685203,10,,52.30667100000000,RB/500800,149,wrsenquiries@worcsregservices.gov.uk,Redditch,http://www.worcsregservices.gov.uk,-1.90959400000000,B98 0LJ,2014-06-19,fhrs_3_en-GB,3,,FHRS,10
338922,St Augustines Roman Catholic High S,Stonepits Lane,Redditch,Worcestershire,Aspens Services Ltd,School/college/university,7845,5,,671800,10,,52.27163100000000,13/00376/FOOD,149,wrsenquiries@worcsregservices.gov.uk,Redditch,http://www.worcsregservices.gov.uk,-1.94685900000000,B97 5LX,2013-10-14,fhrs_4_en-GB,4,,FHRS,5
338923,Church Road,Astwood Bank,Redditch,Worcestershire,Astwood Bank First School,School/college/university,7845,0,,671942,0,,52.26377000000000,RB/500581,149,wrsenquiries@worcsregservices.gov.uk,Redditch,http://www.worcsregservices.gov.uk,-1.93822300000000,B96 6EH,2007-11-01,fhrs_5_en-GB,5,,FHRS,0
338924,18 Park Walk,Town Centre,Redditch,Worcestershire,B H S Plc,Retailers - other,4613,5,,685191,5,,52.30458700000000,RB/500221,149,wrsenquiries@worcsregservices.gov.uk,Redditch,http://www.worcsregservices.gov.uk,-1.94112900000000,B97 4HD,2014-03-27,fhrs_5_en-GB,5,,FHRS,5
338925,Cherry Tree Walk,Batchley,Redditch,Worcestershire,Batchley First School,School/college/university,7845,5,,671861,10,,52.30763400000000,RB/214346,149,wrsenquiries@worcsregservices.gov.uk,Redditch,http://www.worcsregservices.gov.uk,-1.96334600000000,B97 6PD,2014-04-28,fhrs_4_en-GB,4,,FHRS,5
338926,207 Batchley Road,Batchley,Redditch,Worcestershire,Batchley Road Fish Bar,Takeaway/sandwich shop,7844,10,,671881,0,,52.30833400000000,RB/220272,149,wrsenquiries@worcsregservices.gov.uk,Redditch,http://www.worcsregservices.gov.uk,-1.95953200000000,B97 6JB,2014-12-04,fhrs_4_en-GB,4,,FHRS,5
338927,65 Poplar Road,Batchley,Redditch,Worcestershire,Batchley Spice Takeaway,Takeaway/sandwich shop,7844,5,,671831,5,,52.30457900000000,RB/203679,149,wrsenquiries@worcsregservices.gov.uk,Redditch,http://www.worcsregservices.gov.uk,-1.96606100000000,B97 6NY,2013-08-21,fhrs_4_en-GB,4,,FHRS,10
338928,Palmers Road,Moons Moat,Redditch,Worcestershire,Bee Jays,Mobile caterer,7846,10,,671984,10,,,RB/503691,149,wrsenquiries@worcsregservices.gov.uk,Redditch,http://www.worcsregservices.gov.uk,,,2013-10-24,fhrs_3_en-GB,3,,FHRS,10
338929,Redditch Premier Inn,Bordesley Lane,Redditch,Worcestershire,Beefeater,Restaurant/Cafe/Canteen,1,0,,671791,0,,,13/00020/FOOD,149,wrsenquiries@worcsregservices.gov.uk,Redditch,http://www.worcsregservices.gov.uk,,B97 6AQ,2013-07-02,fhrs_5_en-GB,5,,FHRS,5
338930,The Bell Inn,1286 Evesham Road,Astwood Bank,Redditch,Bell Inn,Pub/bar/nightclub,7843,5,,671828,5,,52.25700800000000,RB/202681,149,wrsenquiries@worcsregservices.gov.uk,Redditch,http://www.worcsregservices.gov.uk,-1.93736800000000,B96 6AX,2014-11-27,fhrs_5_en-GB,5,,FHRS,5
338931,32 Upperfield Close,Redditch,Worcestershire,,Belly Busters,Mobile caterer,7846,10,,672022,10,,52.30334600000000,RB/504841,149,wrsenquiries@worcsregservices.gov.uk,Redditch,http://www.worcsregservices.gov.uk,-1.92417800000000,B98 8LE,2014-01-09,fhrs_3_en-GB,3,,FHRS,10
338932,152 Bromsgrove Road,Batchley,Redditch,Worcestershire,Bob & Hazels Catering,Mobile caterer,7846,10,,671845,10,,52.30574400000000,RB/210538,149,wrsenquiries@worcsregservices.gov.uk,Redditch,http://www.worcsregservices.gov.uk,-1.95651300000000,B97 4SP,2014-04-28,fhrs_3_en-GB,3,,FHRS,10
338933,Birchfield Road,Headless Cross,Redditch,Worcestershire,Brambles,Hospitals/Childcare/Caring Premises,5,0,,671970,0,,52.29640400000000,RB/503076,149,wrsenquiries@worcsregservices.gov.uk,Redditch,http://www.worcsregservices.gov.uk,-1.95728400000000,B97 4LX,2013-11-11,fhrs_5_en-GB,5,,FHRS,5
338934,Bridley Moor Road,Batchley,Redditch,Worcestershire,Bridley Moor & Batchley Social Club,Pub/bar/nightclub,7843,10,,685074,5,,52.30997700000000,RB/203681,149,wrsenquiries@worcsregservices.gov.uk,Redditch,http://www.worcsregservices.gov.uk,-1.95257800000000,B97 6HS,2009-12-01,fhrs_4_en-GB,4,,FHRS,5
338935,The Limes,425 Evesham Road,Crabbs Cross,Redditch,Bright Kids,Hospitals/Childcare/Caring Premises,5,5,,671961,0,,52.28298400000000,RB/502010,149,wrsenquiries@worcsregservices.gov.uk,Redditch,http://www.worcsregservices.gov.uk,-1.94269700000000,B97 5JA,2014-09-05,fhrs_5_en-GB,5,,FHRS,5
338936,Unicorn Parade,9-13 Unicorn Hill,Redditch,Worcestershire,Britannia Fish Bar,Takeaway/sandwich shop,7844,10,,671958,10,,52.30675400000000,RB/501176,149,wrsenquiries@worcsregservices.gov.uk,Redditch,http://www.worcsregservices.gov.uk,-1.94293100000000,B97 4QR,2014-03-26,fhrs_3_en-GB,3,,FHRS,10
338937,28 Sheldon Road,Redditch,Worcestershire,,Buckley's,Mobile caterer,7846,5,,685028,5,,52.29195400000000,13/00088/FOOD,149,wrsenquiries@worcsregservices.gov.uk,Redditch,http://www.worcsregservices.gov.uk,-1.92226200000000,B98 7QS,2013-10-11,fhrs_5_en-GB,5,,FHRS,5
338938,5 Church Green East,Redditch,Worcestershire,,Cafe Mamba,Restaurant/Cafe/Canteen,1,10,,685035,10,,52.30737300000000,14/00430/FOOD,149,wrsenquiries@worcsregservices.gov.uk,Redditch,http://www.worcsregservices.gov.uk,-1.93996700000000,B98 8BP,2015-01-06,fhrs_3_en-GB,3,,FHRS,10
338939,5 Church Green East,Town Centre,Redditch,Worcestershire,Cafe Mumba,Restaurant/Cafe/Canteen,1,10,,685252,5,,52.30515800000000,RB/504853,149,wrsenquiries@worcsregservices.gov.uk,Redditch,http://www.worcsregservices.gov.uk,-1.95211400000000,B97 4RL,2013-04-29,fhrs_3_en-GB,3,,FHRS,10
338940,31 Spetchley Close,Redditch,Worcestershire,,Cafe2U,Mobile caterer,7846,5,,703228,5,,52.28249400000000,14/01022/FOOD,149,wrsenquiries@worcsregservices.gov.uk,Redditch,http://www.worcsregservices.gov.uk,-1.95191800000000,B97 5NB,2014-09-18,fhrs_5_en-GB,5,,FHRS,5
338941,15-17 Evesham Street,Town Centre,Redditch,Worcestershire,Caffe Nero,Restaurant/Cafe/Canteen,1,0,,672006,0,,52.30616000000000,RB/504663,149,wrsenquiries@worcsregservices.gov.uk,Redditch,http://www.worcsregservices.gov.uk,-1.94146500000000,B97 4ET,2013-09-09,fhrs_5_en-GB,5,,FHRS,5
338942,Unit 5,Millsborough House,Ipsley Street,Redditch,Caspian Pizza & Chilli Spice,Takeaway/sandwich shop,7844,10,,685222,10,,52.30455700000000,RB/503536,149,wrsenquiries@worcsregservices.gov.uk,Redditch,http://www.worcsregservices.gov.uk,-1.93651000000000,B98 7AL,2014-05-14,fhrs_3_en-GB,3,,FHRS,10
338943,64 Unicorn Hill,Town Centre,Redditch,Worcestershire,Champagne Express Indian Fusion,Restaurant/Cafe/Canteen,1,5,,671865,5,,52.30654800000000,RB/216329,149,wrsenquiries@worcsregservices.gov.uk,Redditch,http://www.worcsregservices.gov.uk,-1.94477900000000,B97 4RA,2014-02-17,fhrs_4_en-GB,4,,FHRS,10
338944,133 Evesham Road,Redditch,Worcestershire,,Chi 3,Takeaway/sandwich shop,7844,10,,671871,10,,52.29319800000000,RB/217214,149,wrsenquiries@worcsregservices.gov.uk,Redditch,http://www.worcsregservices.gov.uk,-1.94585100000000,B97 4JX,2014-03-25,fhrs_3_en-GB,3,,FHRS,10
338945,52 Ipsley Street,Redditch,Worcestershire,,China Gardens,Restaurant/Cafe/Canteen,1,5,,671983,10,,52.30370500000000,RB/503551,149,wrsenquiries@worcsregservices.gov.uk,Redditch,http://www.worcsregservices.gov.uk,-1.94025100000000,B98 7AR,2014-11-03,fhrs_4_en-GB,4,,FHRS,5
338946,Unit 27,Kingfisher Walk,Redditch,Worcestershire,Chopstix Noodle Bar,Takeaway/sandwich shop,7844,5,,671817,5,,52.30615200000000,14/00832/FOOD,149,wrsenquiries@worcsregservices.gov.uk,Redditch,http://www.worcsregservices.gov.uk,-1.94345900000000,B97 4EY,2014-06-02,fhrs_5_en-GB,5,,FHRS,0
338947,Church Hill Centre,Church Hill South,Redditch,Worcestershire,Church Hill Chippy,Takeaway/sandwich shop,7844,5,,671929,5,,52.31595300000000,RB/500140,149,wrsenquiries@worcsregservices.gov.uk,Redditch,http://www.worcsregservices.gov.uk,-1.90319400000000,B98 9JG,2015-01-23,fhrs_5_en-GB,5,,FHRS,5
338948,78 Beoley Road West,St Georges,Redditch,Worcestershire,Claires Kitchen,Mobile caterer,7846,10,,671988,15,,,RB/503881,149,wrsenquiries@worcsregservices.gov.uk,Redditch,http://www.worcsregservices.gov.uk,,,2014-09-05,fhrs_2_en-GB,2,,FHRS,10
338949,Kingsley College,Woodrow Drive,Woodrow South,Redditch,Class Catering @ Kingsley College,School/college/university,7845,5,,671840,5,,52.28272100000000,RB/209264,149,wrsenquiries@worcsregservices.gov.uk,Redditch,http://www.worcsregservices.gov.uk,-1.91002300000000,B98 7UH,2014-09-11,fhrs_5_en-GB,5,,FHRS,0
338950,Holloway Lane,Redditch,Wocestershire,,Class Catering -@ St Becks Catholic Middle School,School/college/university,7845,5,,703230,0,,52.30253000000000,RB/504837,149,wrsenquiries@worcsregservices.gov.uk,Redditch,http://www.worcsregservices.gov.uk,-1.92793400000000,B98 7HA,2014-09-08,fhrs_5_en-GB,5,,FHRS,0
338951,Class Catering,Studley Road,Lodge Park,Redditch,Class Catering @ Woodfield Middle School,School/college/university,7845,,,671921,,,52.29688100000000,RB/231878,149,wrsenquiries@worcsregservices.gov.uk,Redditch,http://www.worcsregservices.gov.uk,-1.92294200000000,B98 7HH,,fhrs_awaitinginspection_en-GB,AwaitingInspection,,FHRS,
338952,4 New Meadow Road,Lakeside,Redditch,Worcestershire,Coconut Island,Other catering premises,7841,5,,671975,10,,52.30385300000000,RB/503134,149,wrsenquiries@worcsregservices.gov.uk,Redditch,http://www.worcsregservices.gov.uk,-1.91700600000000,B98 8YW,2013-08-05,fhrs_4_en-GB,4,,FHRS,5
338953,1 Birchfield Road,Headless Cross,Redditch,Worcestershire,Cooking Good Filling Great,Takeaway/sandwich shop,7844,5,,671838,5,,52.29249800000000,RB/208939,149,wrsenquiries@worcsregservices.gov.uk,Redditch,http://www.worcsregservices.gov.uk,-1.94761100000000,B97 4LB,2014-09-17,fhrs_5_en-GB,5,,FHRS,5
338954,1 Evesham Walk,Town Centre,Redditch,Worcestershire,Cooks Corner,Retailers - other,4613,5,,671904,5,,52.30616000000000,RB/226762,149,wrsenquiries@worcsregservices.gov.uk,Redditch,http://www.worcsregservices.gov.uk,-1.94146500000000,B97 4ET,2014-09-01,fhrs_4_en-GB,4,,FHRS,10
338955,63 Evesham Walk,Town Centre,Redditch,Worcestershire,Costa,Restaurant/Cafe/Canteen,1,0,,671995,0,,,RB/504208,149,wrsenquiries@worcsregservices.gov.uk,Redditch,http://www.worcsregservices.gov.uk,,,2013-08-13,fhrs_5_en-GB,5,,FHRS,5
338956,Mall Cafe,Worcester Square,Kingfisher Shopping Centre,Redditch,Costa,Restaurant/Cafe/Canteen,1,5,,730855,5,,52.30578300000000,14/01092/FOOD,149,wrsenquiries@worcsregservices.gov.uk,Redditch,http://www.worcsregservices.gov.uk,-1.94235900000000,B97 4EX,2015-01-20,fhrs_5_en-GB,5,,FHRS,5
338957,17 Landor Road,Greenlands,Redditch,Worcestershire,Cotswold Crepes,Mobile caterer,7846,5,,672007,5,,52.29208800000000,RB/504720,149,wrsenquiries@worcsregservices.gov.uk,Redditch,http://www.worcsregservices.gov.uk,-1.92111800000000,B98 7QR,2010-08-17,fhrs_4_en-GB,4,,FHRS,10
338958,6 Croft Close,Redditch,Worcestershire,,Cotswold Crepes,Mobile caterer,7846,5,,685047,5,,52.30391400000000,14/00585/FOOD,149,wrsenquiries@worcsregservices.gov.uk,Redditch,http://www.worcsregservices.gov.uk,-1.90242800000000,B98 0JT,2014-06-03,fhrs_5_en-GB,5,,FHRS,5
338959,537 Evesham Road,Crabbs Cross,Redditch,Worcestershire,Crabbs Cross Fish & Chips,Takeaway/sandwich shop,7844,10,,671873,5,,52.27874800000000,RB/217664,149,wrsenquiries@worcsregservices.gov.uk,Redditch,http://www.worcsregservices.gov.uk,-1.93870100000000,B97 5JP,2014-08-20,fhrs_3_en-GB,3,,FHRS,10
338960,177 Batchley Road,Batchley,Redditch,Worcestershire,Crystal Panda Cantonese Take Away,Takeaway/sandwich shop,7844,10,,671989,10,,52.30833400000000,RB/503961,149,wrsenquiries@worcsregservices.gov.uk,Redditch,http://www.worcsregservices.gov.uk,-1.95953200000000,B97 6JB,2013-10-09,fhrs_3_en-GB,3,,FHRS,10
338961,37 Unicorn Hill,Town Centre,Redditch,Worcestershire,Dannys,Takeaway/sandwich shop,7844,10,,671885,5,,52.30675400000000,RB/221035,149,wrsenquiries@worcsregservices.gov.uk,Redditch,http://www.worcsregservices.gov.uk,-1.94293100000000,B97 4QR,2013-04-18,fhrs_3_en-GB,3,,FHRS,10
338962,Debenhams,Walford Walk,Redditch,Worcestershire,Debenham's Restaurant,Restaurant/Cafe/Canteen,1,0,,671973,5,,52.30525200000000,RB/503113,149,wrsenquiries@worcsregservices.gov.uk,Redditch,http://www.worcsregservices.gov.uk,-1.94089400000000,B97 4HJ,2014-10-06,fhrs_5_en-GB,5,,FHRS,5
338963,21-23 Beoley Road West,Redditch,Worcestershire,,Dhaka Tandoori,Restaurant/Cafe/Canteen,1,5,,671868,10,,52.30572400000000,RB/216614,149,wrsenquiries@worcsregservices.gov.uk,Redditch,http://www.worcsregservices.gov.uk,-1.93215200000000,B98 8LR,2014-10-09,fhrs_4_en-GB,4,,FHRS,5
338964,100A Evesham Road,Headless Cross,Redditch,Worcestershire,Dilshad Balti,Takeaway/sandwich shop,7844,20,,671897,10,,52.29157100000000,RB/224863,149,wrsenquiries@worcsregservices.gov.uk,Redditch,http://www.worcsregservices.gov.uk,-1.94614600000000,B97 5ES,2014-10-07,fhrs_1_en-GB,1,,FHRS,15
338965,Unit 4D,South East Quadrant,Alcester Street,Redditch,Domino's Pizzas,Takeaway/sandwich shop,7844,5,,671948,5,,52.30629400000000,RB/500862,149,wrsenquiries@worcsregservices.gov.uk,Redditch,http://www.worcsregservices.gov.uk,-1.93927900000000,B98 8AE,2013-07-03,fhrs_5_en-GB,5,,FHRS,5
338966,Evesham Road,Headless Cross,Redditch,Worcestershire,Dorothy Terry Home,Hospitals/Childcare/Caring Premises,5,5,,685153,10,,52.28910700000000,RB/225702,149,wrsenquiries@worcsregservices.gov.uk,Redditch,http://www.worcsregservices.gov.uk,-1.94491800000000,B97 5EN,2014-11-05,fhrs_3_en-GB,3,,FHRS,10
338967,25 Kingfisher Walk,Town Centre,Redditch,Worcestershire,Druckers Vienna Patisserie,Restaurant/Cafe/Canteen,1,5,,671908,0,,52.30615200000000,RB/227009,149,wrsenquiries@worcsregservices.gov.uk,Redditch,http://www.worcsregservices.gov.uk,-1.94345900000000,B97 4EY,2014-09-09,fhrs_5_en-GB,5,,FHRS,0
338968,Trinity High School,Easemore Road,Town Centre,Redditch,Duchy Catering,School/college/university,7845,5,,671954,5,,52.30814400000000,RB/501146,149,wrsenquiries@worcsregservices.gov.uk,Redditch,http://www.worcsregservices.gov.uk,-1.93506700000000,B98 8HB,2006-09-25,fhrs_4_en-GB,4,,FHRS,10
338969,71 Poplar Road,Batchley,Redditch,Worcestershire,Eastern Star,Takeaway/sandwich shop,7844,5,,671901,5,,52.30457900000000,RB/225265,149,wrsenquiries@worcsregservices.gov.uk,Redditch,http://www.worcsregservices.gov.uk,-1.96606100000000,B97 6NY,2014-06-26,fhrs_5_en-GB,5,,FHRS,5
338970,Peakman Street,Redditch,Worcestershire,,Eden Cafe / Catering By Churchill,Restaurant/Cafe/Canteen,1,0,,672000,0,,52.30785800000000,RB/504520,149,wrsenquiries@worcsregservices.gov.uk,Redditch,http://www.worcsregservices.gov.uk,-1.93826500000000,B98 8DW,2011-11-21,fhrs_5_en-GB,5,,FHRS,5
338971,6 Evesham Walk,Town Centre,Redditch,Worcestershire,Emmanuel Church Ecumenical Centre,Other catering premises,7841,0,,671883,5,,52.30578300000000,RB/220497,149,wrsenquiries@worcsregservices.gov.uk,Redditch,http://www.worcsregservices.gov.uk,-1.94236000000000,B97 4EX,2015-01-09,fhrs_5_en-GB,5,,FHRS,0
338972,1B Birchfield Road,Headless Cross,Redditch,Worcestershire,Essence Of Bengal,Restaurant/Cafe/Canteen,1,10,,671987,10,,52.29249800000000,RB/503830,149,wrsenquiries@worcsregservices.gov.uk,Redditch,http://www.worcsregservices.gov.uk,-1.94761100000000,B97 4LB,2013-07-18,fhrs_3_en-GB,3,,FHRS,10
338973,Merse Road,Moons Moat,Redditch,Worcestershire,F W Thorpe Plc,Other catering premises,7841,0,,671905,0,,52.31247300000000,RB/226787,149,wrsenquiries@worcsregservices.gov.uk,Redditch,http://www.worcsregservices.gov.uk,-1.89265400000000,B98 9HH,2014-09-16,fhrs_5_en-GB,5,,FHRS,0
338974,Unit 11,Kingfisher Square,Town Centre,Redditch,Farm Foods Ltd,Retailers - supermarkets/hypermarkets,7840,5,,671971,5,,52.30597300000000,RB/503081,149,wrsenquiries@worcsregservices.gov.uk,Redditch,http://www.worcsregservices.gov.uk,-1.94483800000000,B97 4EQ,2013-03-04,fhrs_5_en-GB,5,,FHRS,5
338975,3 Evesham Walk,Town Centre,Redditch,Worcestershire,Farm Fresh Butchers,Other catering premises,7841,10,,671903,10,,52.30616000000000,RB/226753,149,wrsenquiries@worcsregservices.gov.uk,Redditch,http://www.worcsregservices.gov.uk,-1.94146500000000,B97 4ET,2014-09-25,fhrs_3_en-GB,3,,FHRS,10
338976,12 Lingen Close,Winyates West,Redditch,Worcestershire,Flipino Foods / Catering,Other catering premises,7841,10,,672001,5,,52.30461900000000,RB/504536,149,wrsenquiries@worcsregservices.gov.uk,Redditch,http://www.worcsregservices.gov.uk,-1.89582700000000,B98 0LG,2013-02-04,fhrs_3_en-GB,3,,FHRS,10
338977,19 Kite Lane,Redditch,Worcestershire,,Frankie's,Mobile caterer,7846,5,,671808,10,,52.31173400000000,14/00428/FOOD,149,wrsenquiries@worcsregservices.gov.uk,Redditch,http://www.worcsregservices.gov.uk,-1.96478000000000,B97 6TT,2013-12-03,fhrs_4_en-GB,4,,FHRS,5
338978,Ipsley Church Lane,Ipsley,Redditch,Worcestershire,GKN - Canteen (Sodexo),Other catering premises,7841,0,,671900,0,,52.31186700000000,RB/225027,149,wrsenquiries@worcsregservices.gov.uk,Redditch,http://www.worcsregservices.gov.uk,-1.93764300000000,B98 0TL,2014-11-27,fhrs_5_en-GB,5,,FHRS,0
338979,Unicorn Hill,Town Centre,Redditch,Worcestershire,Golden Cross,Pub/bar/nightclub,7843,5,,671823,5,,52.30654800000000,RB/200975,149,wrsenquiries@worcsregservices.gov.uk,Redditch,http://www.worcsregservices.gov.uk,-1.94477900000000,B97 4RA,2013-02-15,fhrs_4_en-GB,4,,FHRS,10
338980,66 Crabbs Cross Lane,Crabbs Cross,Redditch,Worcestershire,Golden House,Takeaway/sandwich shop,7844,5,,671862,5,,52.27772400000000,RB/215377,149,wrsenquiries@worcsregservices.gov.uk,Redditch,http://www.worcsregservices.gov.uk,-1.94145800000000,B97 5LD,2014-09-10,fhrs_5_en-GB,5,,FHRS,5
338981,1A Woodrow Centre,Woodrow North,Redditch,Worcestershire,Golden Phoenix,Takeaway/sandwich shop,7844,10,,671968,10,,,RB/503031,149,wrsenquiries@worcsregservices.gov.uk,Redditch,http://www.worcsregservices.gov.uk,,,2014-06-24,fhrs_3_en-GB,3,,FHRS,10
338982,The Grove Holloway Drive,Lakeside,Redditch,Worcestershire,Good Food Bar,Mobile caterer,7846,0,,685246,0,,52.30704000000000,RB/504819,149,wrsenquiries@worcsregservices.gov.uk,Redditch,http://www.worcsregservices.gov.uk,-1.92361400000000,B98 8NE,2014-10-20,fhrs_5_en-GB,5,,FHRS,0
338983,15 Dowlers Hill Crescent,Greenlands,Redditch,Worcestershire,Greenlands Chinese Takeaway,Takeaway/sandwich shop,7844,5,,671919,5,,52.29168500000000,RB/231510,149,wrsenquiries@worcsregservices.gov.uk,Redditch,http://www.worcsregservices.gov.uk,-1.92369900000000,B98 7QY,2014-09-24,fhrs_5_en-GB,5,,FHRS,5
338984,42 Evesham Walk,Town Centre,Redditch,Worcestershire,Greggs,Takeaway/sandwich shop,7844,5,,671996,10,,52.30578300000000,RB/504376,149,wrsenquiries@worcsregservices.gov.uk,Redditch,http://www.worcsregservices.gov.uk,-1.94236000000000,B97 4EX,2013-01-08,fhrs_4_en-GB,4,,FHRS,5
338985,9 Kingfisher Walk,Town Centre,Redditch,Worcestershire,Greggs,Takeaway/sandwich shop,7844,5,,671955,10,,52.30615200000000,RB/501159,149,wrsenquiries@worcsregservices.gov.uk,Redditch,http://www.worcsregservices.gov.uk,-1.94345900000000,B97 4EY,2013-01-08,fhrs_4_en-GB,4,,FHRS,5
338986,Unit 9,Washford Drive,Washford,Redditch,Greggs,Takeaway/sandwich shop,7844,5,,685239,5,,,RB/504755,149,wrsenquiries@worcsregservices.gov.uk,Redditch,http://www.worcsregservices.gov.uk,,,2011-11-29,fhrs_5_en-GB,5,,FHRS,0
338987,6 Mount Pleasant,Redditch,Worcestershire,,Grillicious Pizza And Grill,Takeaway/sandwich shop,7844,10,,671810,10,,52.30213300000000,14/00471/FOOD,149,wrsenquiries@worcsregservices.gov.uk,Redditch,http://www.worcsregservices.gov.uk,-1.94273100000000,B97 4JB,2014-04-28,fhrs_3_en-GB,3,,FHRS,10
338988,327 Bromsgrove Road,Webheath,Redditch,Worcestershire,Haversham House,Hospitals/Childcare/Caring Premises,5,0,,671835,5,,52.30133400000000,RB/205844,149,wrsenquiries@worcsregservices.gov.uk,Redditch,http://www.worcsregservices.gov.uk,-1.96905500000000,B97 4NH,2014-05-06,fhrs_5_en-GB,5,,FHRS,5
338989,Peakman Street,Redditch,Worcestershire,,Heart Of Worcestershire College,Restaurant/Cafe/Canteen,1,0,,671946,0,,52.30785800000000,RB/500775,149,wrsenquiries@worcsregservices.gov.uk,Redditch,http://www.worcsregservices.gov.uk,-1.93826500000000,B98 8DW,2013-07-02,fhrs_5_en-GB,5,,FHRS,5
338990,Church Road,Town Centre,Redditch,Worcestershire,Heart Of Worcestershire College Training Kitchen,Restaurant/Cafe/Canteen,1,5,,671930,5,,52.30922800000000,RB/500141,149,wrsenquiries@worcsregservices.gov.uk,Redditch,http://www.worcsregservices.gov.uk,-1.89886100000000,B98 4AB,2013-07-02,fhrs_5_en-GB,5,,FHRS,5
338991,2 Hewell Road,Enfield,Redditch,Worcestershire,Holiday Inn Express,Hotel/bed & breakfast/guest house,7842,5,,671991,5,,52.30818500000000,RB/504008,149,wrsenquiries@worcsregservices.gov.uk,Redditch,http://www.worcsregservices.gov.uk,-1.94471800000000,B97 6AE,2014-09-10,fhrs_5_en-GB,5,,FHRS,0
338992,Mabey Avenue,Redditch,,,Holly Trees Day Nursery,Hospitals/Childcare/Caring Premises,5,0,,672010,5,,52.31279900000000,RB/504741,149,wrsenquiries@worcsregservices.gov.uk,Redditch,http://www.worcsregservices.gov.uk,-1.93242000000000,B98 8HW,2012-01-24,fhrs_5_en-GB,5,,FHRS,5
338993,The Jolly Farmer,Woodrow Drive,Redditch,Worcestershire,Honeydough Pizza Co,Mobile caterer,7846,0,,671812,0,,52.28272100000000,14/00548/FOOD,149,wrsenquiries@worcsregservices.gov.uk,Redditch,http://www.worcsregservices.gov.uk,-1.91002300000000,B98 7UH,2014-02-26,fhrs_5_en-GB,5,,FHRS,0
338994,Dunlop Road,Hunt End,Redditch,Worcestershire,Hot Stuff,Mobile caterer,7846,5,,671974,5,,,RB/503130,149,wrsenquiries@worcsregservices.gov.uk,Redditch,http://www.worcsregservices.gov.uk,,,2011-02-10,fhrs_5_en-GB,5,,FHRS,5
338995,70 Oldbury Close,Redditch,Worcestershire,,Hungry Toad,Mobile caterer,7846,5,,672030,0,,52.31499900000000,RB/504867,149,wrsenquiries@worcsregservices.gov.uk,Redditch,http://www.worcsregservices.gov.uk,-1.91468200000000,B98 8RF,2013-03-06,fhrs_5_en-GB,5,,FHRS,0
338996,Shire Services,Winyates Way,Redditch,Worcestershire,Ipsley Middle School,School/college/university,7845,0,,671999,0,,,RB/504466,149,wrsenquiries@worcsregservices.gov.uk,Redditch,http://www.worcsregservices.gov.uk,,,2014-09-24,fhrs_5_en-GB,5,,FHRS,0
338997,The Grove,Holloway Drive,Redditch,Worcestershire,J C Catering,Mobile caterer,7846,0,,685193,0,,52.30704000000000,RB/500245,149,wrsenquiries@worcsregservices.gov.uk,Redditch,http://www.worcsregservices.gov.uk,-1.92361400000000,B98 8NE,2014-10-20,fhrs_5_en-GB,5,,FHRS,0
338998,The Grove Holloway Drive,Lakeside,Redditch,Worcestershire,J W Catering,Retailers - other,4613,5,,685225,5,,52.30704000000000,RB/504180,149,wrsenquiries@worcsregservices.gov.uk,Redditch,http://www.worcsregservices.gov.uk,-1.92361400000000,B98 8NE,2013-02-16,fhrs_5_en-GB,5,,FHRS,5
338999,Arthur Street,Lakeside,Redditch,Worcestershire,Janes Food To Go,Mobile caterer,7846,5,,671899,10,,52.30394600000000,RB/224999,149,wrsenquiries@worcsregservices.gov.uk,Redditch,http://www.worcsregservices.gov.uk,-1.92127300000000,B98 8JY,2013-12-06,fhrs_4_en-GB,4,,FHRS,5
339000,7 Lakeside Industrial Estate,New Meadow Road,Redditch,Worcestershire,Jasper's Catering Services,Other catering premises,7841,0,,685032,0,,52.30385300000000,13/00287/FOOD,149,wrsenquiries@worcsregservices.gov.uk,Redditch,http://www.worcsregservices.gov.uk,-1.91700600000000,B98 8YW,2013-07-08,fhrs_5_en-GB,5,,FHRS,0
339001,The Grove,Holloway Drive,Redditch,Worcestershire,JT's Cups & Sauces,Mobile caterer,7846,5,,672008,5,,52.30704000000000,RB/504725,149,wrsenquiries@worcsregservices.gov.uk,Redditch,http://www.worcsregservices.gov.uk,-1.92361400000000,B98 8NE,2014-10-20,fhrs_5_en-GB,5,,FHRS,0
339002,,,,,Karov Independent Trading,Mobile caterer,7846,10,,685056,10,,,14/00891/FOOD,149,wrsenquiries@worcsregservices.gov.uk,Redditch,http://www.worcsregservices.gov.uk,,,2014-07-07,fhrs_3_en-GB,3,,FHRS,10
339003,2 Orchard Street,Redditch,Worcestershire,,Kashmir Tandoori,Takeaway/sandwich shop,7844,20,,729398,15,,52.30370500000000,15/00001/FOOD,149,wrsenquiries@worcsregservices.gov.uk,Redditch,http://www.worcsregservices.gov.uk,-1.94025000000000,B98 7DP,2015-01-02,fhrs_1_en-GB,1,,FHRS,15
339004,Street Record,B & Q Car Park,Jinnah Road,Redditch,Ken Harris Catering,Mobile caterer,7846,10,,716570,5,,,14/01083/FOOD,149,wrsenquiries@worcsregservices.gov.uk,Redditch,http://www.worcsregservices.gov.uk,,,2014-11-19,fhrs_4_en-GB,4,,FHRS,5
339005,Trafford Retail Park Ipsley Street,Smallwood,Redditch,Worcestershire,Kentucky Fried Chicken,Restaurant/Cafe/Canteen,1,5,,671957,5,,52.30455600000000,RB/501175,149,wrsenquiries@worcsregservices.gov.uk,Redditch,http://www.worcsregservices.gov.uk,-1.93397300000000,B98 7AH,2014-09-15,fhrs_5_en-GB,5,,FHRS,5
339006,Maclellan House,The Oaks,Clews Road,Redditch,KFC,Other catering premises,7841,5,,707335,5,,52.28363400000000,13/00379/FOOD,149,wrsenquiries@worcsregservices.gov.uk,Redditch,http://www.worcsregservices.gov.uk,-1.93038300000000,B98 7ST,2014-10-01,fhrs_5_en-GB,5,,FHRS,5
339007,Cherry Tree Walk,Batchley,Redditch,Worcestershire,Kids Community Nursery,Hospitals/Childcare/Caring Premises,5,5,,671980,5,,52.30763400000000,RB/503302,149,wrsenquiries@worcsregservices.gov.uk,Redditch,http://www.worcsregservices.gov.uk,-1.96334600000000,B97 6PD,2013-02-14,fhrs_5_en-GB,5,,FHRS,0
339008,Beoley Road West,St Georges,Redditch,Worcestershire,Kings Arms,Pub/bar/nightclub,7843,10,,671913,10,,52.30546300000000,RB/230003,149,wrsenquiries@worcsregservices.gov.uk,Redditch,http://www.worcsregservices.gov.uk,-1.93228500000000,B98 8LT,2013-09-05,fhrs_3_en-GB,3,,FHRS,10
339009,Unit 5,2 Millsborough House,Ipsley Street,Redditch,Kool Runningz Jamaican Restaurant,Restaurant/Cafe/Canteen,1,10,,671803,10,,52.30455700000000,13/00439/FOOD,149,wrsenquiries@worcsregservices.gov.uk,Redditch,http://www.worcsregservices.gov.uk,-1.93651000000000,B98 7AL,2013-11-27,fhrs_3_en-GB,3,,FHRS,10
339010,36 Marsden Road,Smallwood,Redditch,Worcestershire,Lazio Pizza,Takeaway/sandwich shop,7844,10,,671944,10,,52.30191400000000,RB/500710,149,wrsenquiries@worcsregservices.gov.uk,Redditch,http://www.worcsregservices.gov.uk,-1.93620600000000,B98 7BL,2014-10-21,fhrs_3_en-GB,3,,FHRS,10
339011,The Mayfly,Studley Road,Redditch,Worcestershire,Lazy Days,Other catering premises,7841,5,,671813,5,,52.29297600000000,14/00564/FOOD,149,wrsenquiries@worcsregservices.gov.uk,Redditch,http://www.worcsregservices.gov.uk,-1.91881500000000,B98 7HL,2014-03-20,fhrs_4_en-GB,4,,FHRS,10
339012,Alexandra Hospital,Quinneys Lane,Woodrow South,Redditch,League Of Friends Coffee Shop,Restaurant/Cafe/Canteen,1,5,,671902,0,,52.28007200000000,RB/226420,149,wrsenquiries@worcsregservices.gov.uk,Redditch,http://www.worcsregservices.gov.uk,-1.91364900000000,B98 7UB,2010-02-05,fhrs_5_en-GB,5,,FHRS,0
339013,The Grove,Holloway Drive,Lakeside,Redditch,Lets Eat,Mobile caterer,7846,0,,685236,0,,52.30704000000000,RB/504726,149,wrsenquiries@worcsregservices.gov.uk,Redditch,http://www.worcsregservices.gov.uk,-1.92361400000000,B98 8NE,2014-10-20,fhrs_5_en-GB,5,,FHRS,0
339014,9 Enfield Industrial Estate,Hewell Road,Redditch,Worcestershire,"Life, Fork And Spoon",Distributors/Transporters,7,0,,685029,0,,52.31275200000000,13/00141/FOOD,149,wrsenquiries@worcsregservices.gov.uk,Redditch,http://www.worcsregservices.gov.uk,-1.94641400000000,B97 6BG,2013-11-08,fhrs_5_en-GB,5,,FHRS,0
339015,Bartleet Road,Washford,Redditch,Worcestershire,Lisa's Kitchen,Mobile caterer,7846,,,671938,,,52.28955100000000,RB/500242,149,wrsenquiries@worcsregservices.gov.uk,Redditch,http://www.worcsregservices.gov.uk,-1.89590600000000,B98 0DG,,fhrs_awaitinginspection_en-GB,AwaitingInspection,,FHRS,
339016,243 Birmingham Road,Enfield,Redditch,Worcestershire,Little Bears Nursery,Hospitals/Childcare/Caring Premises,5,5,,671870,5,,52.31647300000000,RB/216817,149,wrsenquiries@worcsregservices.gov.uk,Redditch,http://www.worcsregservices.gov.uk,-1.94262500000000,B97 6EH,2011-08-19,fhrs_5_en-GB,5,,FHRS,5
339017,1207 Evesham Road,Redditch,Worcestershire,,Little India,Restaurant/Cafe/Canteen,1,10,,672004,15,,52.25851000000000,RB/504552,149,wrsenquiries@worcsregservices.gov.uk,Redditch,http://www.worcsregservices.gov.uk,-1.93695600000000,B96 6AB,2014-06-16,fhrs_2_en-GB,2,,FHRS,10
339018,188 Birchfield Road,Headless Cross,Redditch,Worcestershire,Little Miss Muffet Nursery,Hospitals/Childcare/Caring Premises,5,0,,671869,0,,52.29652000000000,RB/216667,149,wrsenquiries@worcsregservices.gov.uk,Redditch,http://www.worcsregservices.gov.uk,-1.95643400000000,B97 4NA,2014-01-06,fhrs_5_en-GB,5,,FHRS,5
339019,Beoley Road West,St Georges,Redditch,Worcestershire,Lucy Locket,Hospitals/Childcare/Caring Premises,5,5,,671927,5,,52.30546300000000,RB/500131,149,wrsenquiries@worcsregservices.gov.uk,Redditch,http://www.worcsregservices.gov.uk,-1.93228500000000,B98 8LT,2013-01-10,fhrs_4_en-GB,4,,FHRS,10
339020,Mettis Aerospace,Windsor Road,Redditch,Worcestershire,Mambo @  Mettis,Restaurant/Cafe/Canteen,1,10,,671815,10,,52.31496300000000,14/00634/FOOD,149,wrsenquiries@worcsregservices.gov.uk,Redditch,http://www.worcsregservices.gov.uk,-1.94380000000000,B97 6EF,2014-07-01,fhrs_3_en-GB,3,,FHRS,10
339021,Winyates Green Community Centr,Furze Lane,Winyates Green,Redditch,Mappleborough Green Pre-School,Hospitals/Childcare/Caring Premises,5,0,,671990,0,,52.30572100000000,RB/503999,149,wrsenquiries@worcsregservices.gov.uk,Redditch,http://www.worcsregservices.gov.uk,-1.88247800000000,B98 0SE,2014-06-23,fhrs_5_en-GB,5,,FHRS,0
339022,9 Walford Walk,Town Centre,Redditch,Worcestershire,Marks & Spencers - Refresh,Restaurant/Cafe/Canteen,1,,,671935,,,52.30525200000000,RB/500227,149,wrsenquiries@worcsregservices.gov.uk,Redditch,http://www.worcsregservices.gov.uk,-1.94089400000000,B97 4HJ,,fhrs_awaitinginspection_en-GB,AwaitingInspection,,FHRS,
339023,Redditch Market Market Place,Town Centre,Redditch,Worcestershire,Martin Bowater Fishmonger,Retailers - other,4613,20,,672015,10,,,RB/504805,149,wrsenquiries@worcsregservices.gov.uk,Redditch,http://www.worcsregservices.gov.uk,,,2014-10-03,fhrs_1_en-GB,1,,FHRS,10
339024,76 Watery Lane,Greenlands,Redditch,Worcestershire,Martin Shaw,Mobile caterer,7846,5,,672026,5,,52.29702200000000,RB/504856,149,wrsenquiries@worcsregservices.gov.uk,Redditch,http://www.worcsregservices.gov.uk,-1.91920300000000,B98 7AN,2012-12-04,fhrs_5_en-GB,5,,FHRS,5
339025,21 Easemore Road,Town Centre,Redditch,Worcestershire,Masonic Hall,Pub/bar/nightclub,7843,0,,671866,0,,52.30894600000000,RB/216438,149,wrsenquiries@worcsregservices.gov.uk,Redditch,http://www.worcsregservices.gov.uk,-1.93807300000000,B98 8ER,2011-04-06,fhrs_5_en-GB,5,,FHRS,5
339026,135 Birchfield Road,Headless Cross,Redditch,Worcestershire,Massalla Club,Restaurant/Cafe/Canteen,1,5,,672003,5,,52.29410000000000,RB/504548,149,wrsenquiries@worcsregservices.gov.uk,Redditch,http://www.worcsregservices.gov.uk,-1.95065900000000,B97 4LE,2014-11-25,fhrs_5_en-GB,5,,FHRS,5
339027,19 Clews Road,Redditch,Worcestershire,,McDonalds,Restaurant/Cafe/Canteen,1,5,,671879,5,,52.28363400000000,RB/219875,149,wrsenquiries@worcsregservices.gov.uk,Redditch,http://www.worcsregservices.gov.uk,-1.93038300000000,B98 7ST,2014-05-23,fhrs_5_en-GB,5,,FHRS,5
339028,5 Kingfisher Square,Town Centre,Redditch,Worcestershire,McDonalds,Restaurant/Cafe/Canteen,1,5,,671981,5,,,RB/503367,149,wrsenquiries@worcsregservices.gov.uk,Redditch,http://www.worcsregservices.gov.uk,,,2013-08-01,fhrs_5_en-GB,5,,FHRS,5
339029,Black Soils Road,Moons Moat,Redditch,Worcestershire,McDonalds,Restaurant/Cafe/Canteen,1,5,,671950,5,,52.31193900000000,RB/500946,149,wrsenquiries@worcsregservices.gov.uk,Redditch,http://www.worcsregservices.gov.uk,-1.88806500000000,B98 9HN,2014-08-18,fhrs_5_en-GB,5,,FHRS,5
339030,Meadow Farm Public House,Dagnell End Road,Redditch,Worcestershire,Meadow Farm,Pub/bar/nightclub,7843,5,,671997,5,,52.32405800000000,RB/504378,149,wrsenquiries@worcsregservices.gov.uk,Redditch,http://www.worcsregservices.gov.uk,-1.93790500000000,B98 9BJ,2014-08-26,fhrs_4_en-GB,4,,FHRS,10
339031,15 Beoley Road West,Redditch,Worcestershire,,Megabite,Takeaway/sandwich shop,7844,20,,703229,15,,52.30572400000000,14/01081/FOOD,149,wrsenquiries@worcsregservices.gov.uk,Redditch,http://www.worcsregservices.gov.uk,-1.93215200000000,B98 8LR,2014-09-16,fhrs_1_en-GB,1,,FHRS,15
339032,3 Shakespeare Avenue,Lodge Park,Redditch,Worcestershire,Merchants Fishbar,Takeaway/sandwich shop,7844,0,,671844,0,,52.29989400000000,RB/210426,149,wrsenquiries@worcsregservices.gov.uk,Redditch,http://www.worcsregservices.gov.uk,-1.92493200000000,B98 7LB,2014-10-15,fhrs_5_en-GB,5,,FHRS,5
339033,Cherry Tree Walk,Batchley,Redditch,Worcestershire,Mettis Aerospace Social Club,Pub/bar/nightclub,7843,10,,671928,5,,52.30553900000000,RB/500137,149,wrsenquiries@worcsregservices.gov.uk,Redditch,http://www.worcsregservices.gov.uk,-1.96130900000000,B97 6PB,2012-08-08,fhrs_4_en-GB,4,,FHRS,5
339034,86-88,Beoley Road West,St Georges,Redditch,Mickys Chippy,Takeaway/sandwich shop,7844,5,,671833,5,,52.30587500000000,RB/205550,149,wrsenquiries@worcsregservices.gov.uk,Redditch,http://www.worcsregservices.gov.uk,-1.92987900000000,B98 8LX,2014-07-03,fhrs_5_en-GB,5,,FHRS,5
339035,UK-Nsi Co Ltd,Merse Road,Moons Moat,Redditch,Midshire Catering,Restaurant/Cafe/Canteen,1,0,,672024,0,,52.31580100000000,RB/504847,149,wrsenquiries@worcsregservices.gov.uk,Redditch,http://www.worcsregservices.gov.uk,-1.89386400000000,B98 9HL,2011-11-24,fhrs_5_en-GB,5,,FHRS,5
339036,70 Unicorn Hill,Redditch,Worcestershire,,Mister Pizza,Takeaway/sandwich shop,7844,10,,671896,10,,52.30654800000000,RB/224614,149,wrsenquiries@worcsregservices.gov.uk,Redditch,http://www.worcsregservices.gov.uk,-1.94477900000000,B97 4RA,2014-01-13,fhrs_3_en-GB,3,,FHRS,10
339037,101 Mount Pleasant,Southcrest,Redditch,Worcestershire,Montville Hotel,Hotel/bed & breakfast/guest house,7842,10,,671825,5,,52.30009300000000,RB/202125,149,wrsenquiries@worcsregservices.gov.uk,Redditch,http://www.worcsregservices.gov.uk,-1.94370200000000,B97 4JE,2012-12-18,fhrs_3_en-GB,3,,FHRS,10
339038,Unit 31- 32,Peltlands Padgets Lane,Moons Moat,Redditch,Morgans,Other catering premises,7841,0,,671967,0,,,RB/503030,149,wrsenquiries@worcsregservices.gov.uk,Redditch,http://www.worcsregservices.gov.uk,,,2014-09-03,fhrs_5_en-GB,5,,FHRS,0
339039,65 Mount Pleasant,Southcrest,Redditch,Worcestershire,Mount Pleasant Hotel,Hotel/bed & breakfast/guest house,7842,,,671867,,,52.30098300000000,RB/216463,149,wrsenquiries@worcsregservices.gov.uk,Redditch,http://www.worcsregservices.gov.uk,-1.94305500000000,B97 4HZ,,fhrs_awaitinginspection_en-GB,AwaitingInspection,,FHRS,
339040,B And Q Diy Supercentre,Jinnah Road,Redditch,Worcestershire,Mr Martyn Paul Wakeling,Mobile caterer,7846,5,,685050,5,,52.32293100000000,14/00742/FOOD,149,wrsenquiries@worcsregservices.gov.uk,Redditch,http://www.worcsregservices.gov.uk,-1.95049500000000,B97 6RG,2014-05-06,fhrs_5_en-GB,5,,FHRS,5
339041,9 Walford Walk,Town Centre,Redditch,Worcestershire,Muffin Break,Restaurant/Cafe/Canteen,1,10,,671978,10,,52.30525200000000,RB/503239,149,wrsenquiries@worcsregservices.gov.uk,Redditch,http://www.worcsregservices.gov.uk,-1.94089400000000,B97 4HJ,2013-08-28,fhrs_3_en-GB,3,,FHRS,10
339042,5 Alcester Street,Town Centre,Redditch,Worcestershire,Munch,Restaurant/Cafe/Canteen,1,5,,671874,5,,52.30629400000000,RB/218036,149,wrsenquiries@worcsregservices.gov.uk,Redditch,http://www.worcsregservices.gov.uk,-1.93927900000000,B98 8AE,2014-10-06,fhrs_4_en-GB,4,,FHRS,10
339043,Studley Road,Redditch,Worcestershire,,Nagel Langdons Ltd,Distributors/Transporters,7,5,,685247,5,,52.28996100000000,RB/504821,149,wrsenquiries@worcsregservices.gov.uk,Redditch,http://www.worcsregservices.gov.uk,-1.91421600000000,B98 7JW,2013-05-13,fhrs_5_en-GB,5,,FHRS,5
339044,Unit 4 The Hub Restaurants,Kingfisher Shopping Centre,Redditch,Worcestershire,Nando's,Restaurant/Cafe/Canteen,1,5,,671805,10,,,14/00009/FOOD,149,wrsenquiries@worcsregservices.gov.uk,Redditch,http://www.worcsregservices.gov.uk,,,2014-04-30,fhrs_4_en-GB,4,,FHRS,5
339045,21 Kingfisher Square,Town Centre,Redditch,Worcestershire,Napoleon Cafe,Restaurant/Cafe/Canteen,1,10,,672018,5,,52.30597300000000,RB/504820,149,wrsenquiries@worcsregservices.gov.uk,Redditch,http://www.worcsregservices.gov.uk,-1.94483800000000,B97 4EQ,2014-10-07,fhrs_4_en-GB,4,,FHRS,5
339046,80 Evesham Walk,Redditch,Worcestershire,,Nesta Restaurant,Restaurant/Cafe/Canteen,1,10,,729399,5,,52.30506400000000,15/00005/FOOD,149,wrsenquiries@worcsregservices.gov.uk,Redditch,http://www.worcsregservices.gov.uk,-1.94187700000000,B97 4HA,2015-01-02,fhrs_4_en-GB,4,,FHRS,5
339047,Matchborough Centre,Matchborough East,Redditch,Worcestershire,Noahs Ark Nursery,Hospitals/Childcare/Caring Premises,5,,,671939,,,,RB/500281,149,wrsenquiries@worcsregservices.gov.uk,Redditch,http://www.worcsregservices.gov.uk,,,,fhrs_awaitinginspection_en-GB,AwaitingInspection,,FHRS,
339048,Castleditch Lane,Oakenshaw,Redditch,Worcestershire,Oakenshaw Community Centre,Other catering premises,7841,5,,671872,5,,52.28332400000000,RB/217590,149,wrsenquiries@worcsregservices.gov.uk,Redditch,http://www.worcsregservices.gov.uk,-1.93844600000000,B98 7YB,2009-10-08,fhrs_5_en-GB,5,,FHRS,0
339049,Ipsley Lane,Ipsley,Redditch,Worcestershire,Old Rectory Hotel,Hotel/bed & breakfast/guest house,7842,0,,671894,0,,52.29775300000000,RB/223663,149,wrsenquiries@worcsregservices.gov.uk,Redditch,http://www.worcsregservices.gov.uk,-1.89968500000000,B98 0AP,2014-05-12,fhrs_5_en-GB,5,,FHRS,5
339050,50-54,Ipsley Street,Smallwood,Redditch,Palermo Pizza,Takeaway/sandwich shop,7844,20,,685219,5,,52.30370500000000,RB/503231,149,wrsenquiries@worcsregservices.gov.uk,Redditch,http://www.worcsregservices.gov.uk,-1.94025100000000,B98 7AR,2012-11-15,fhrs_1_en-GB,1,,FHRS,10
339051,Callow Hill Lane,Callow Hill,Redditch,Worcestershire,Parklands Care Home,Hospitals/Childcare/Caring Premises,5,5,,671827,5,,52.28065500000000,RB/202507,149,wrsenquiries@worcsregservices.gov.uk,Redditch,http://www.worcsregservices.gov.uk,-1.96536100000000,B97 5PU,2014-06-11,fhrs_5_en-GB,5,,FHRS,5
339052,62 Unicorn Hill,Town Centre,Redditch,Worcestershire,Parks Take Away,Takeaway/sandwich shop,7844,10,,671822,10,,52.30654800000000,RB/200974,149,wrsenquiries@worcsregservices.gov.uk,Redditch,http://www.worcsregservices.gov.uk,-1.94477900000000,B97 4RA,2014-08-01,fhrs_3_en-GB,3,,FHRS,10
339053,1246 Evesham Road,Astwood Bank,Redditch,Worcestershire,Pete The Meat Butchers,Retailers - other,4613,5,,671914,5,,52.25907600000000,RB/230149,149,wrsenquiries@worcsregservices.gov.uk,Redditch,http://www.worcsregservices.gov.uk,-1.93758500000000,B96 6AA,2014-05-06,fhrs_5_en-GB,5,,FHRS,0
339054,189 Hewell Road,Batchley,Redditch,Worcestershire,Petes Ice Cream - Van V40PRS,Retailers - other,4613,10,,671943,10,,52.31145100000000,RB/500645,149,wrsenquiries@worcsregservices.gov.uk,Redditch,http://www.worcsregservices.gov.uk,-1.95090400000000,B97 6BA,2011-06-06,fhrs_3_en-GB,3,,FHRS,10
339055,57B Arthur Street,Lakeside,Redditch,,Petra's Pantry,Mobile caterer,7846,0,,671794,0,,52.30394600000000,13/00078/MOBIL,149,wrsenquiries@worcsregservices.gov.uk,Redditch,http://www.worcsregservices.gov.uk,-1.92127300000000,B98 8JY,2014-03-19,fhrs_5_en-GB,5,,FHRS,5
339056,9 Matchborough Centre,Matchborough East,Redditch,Worcestershire,Piccolo Pizza & Grill,Takeaway/sandwich shop,7844,5,,672029,10,,52.29580900000000,RB/504862,149,wrsenquiries@worcsregservices.gov.uk,Redditch,http://www.worcsregservices.gov.uk,-1.89643400000000,B98 0EP,2013-10-16,fhrs_4_en-GB,4,,FHRS,5
339057,20 Berkeley Close,Redditch,Worcestershire,,Piglet,Mobile caterer,7846,10,,671816,10,,52.30123400000000,14/00729/FOOD,149,wrsenquiries@worcsregservices.gov.uk,Redditch,http://www.worcsregservices.gov.uk,-1.88117000000000,B98 0QB,2014-04-11,fhrs_3_en-GB,3,,FHRS,10
339058,Willow Way,Batchley,Redditch,Worcestershire,Pitcheroak School,School/college/university,7845,0,,671854,0,,52.30818300000000,RB/212958,149,wrsenquiries@worcsregservices.gov.uk,Redditch,http://www.worcsregservices.gov.uk,-1.96337500000000,B97 6PQ,2014-09-03,fhrs_5_en-GB,5,,FHRS,0
339059,100 Evesham Road,Headless Cross,Redditch,Worcestershire,Pizza Connection,Takeaway/sandwich shop,7844,10,,671821,10,,52.29145400000000,RB/200708,149,wrsenquiries@worcsregservices.gov.uk,Redditch,http://www.worcsregservices.gov.uk,-1.94607300000000,B97 5ES,2013-09-25,fhrs_3_en-GB,3,,FHRS,10
339060,Unit 1,14 Studley Road,Greenlands,Redditch,Pizza Hut,Takeaway/sandwich shop,7844,,,697311,,,52.29878800000000,RB/504195,149,wrsenquiries@worcsregservices.gov.uk,Redditch,http://www.worcsregservices.gov.uk,-1.92459600000000,B98 7LA,,fhrs_awaitinginspection_en-GB,AwaitingInspection,,FHRS,
339061,32A Heming Road,Washford,Redditch,Worcestershire,Platters Mobile,Mobile caterer,7846,10,,671907,5,,52.28823800000000,RB/226907,149,wrsenquiries@worcsregservices.gov.uk,Redditch,http://www.worcsregservices.gov.uk,-1.89513200000000,B98 0DH,2014-08-29,fhrs_3_en-GB,3,,FHRS,10
339062,46 Plymouth Close,Headless Cross,Redditch,Worcestershire,Plymouth Court Ltd.,Hospitals/Childcare/Caring Premises,5,5,,671842,5,,52.29597900000000,RB/210138,149,wrsenquiries@worcsregservices.gov.uk,Redditch,http://www.worcsregservices.gov.uk,-1.95200600000000,B97 4NR,2014-08-07,fhrs_5_en-GB,5,,FHRS,0
339063,35 Unicorn Hill,Redditch,Worcestershire,,Polskie Sklep Smakoz,Retailers - other,4613,5,,671792,5,,52.30675400000000,13/00021/FOOD,149,wrsenquiries@worcsregservices.gov.uk,Redditch,http://www.worcsregservices.gov.uk,-1.94293100000000,B97 4QR,2015-01-06,fhrs_5_en-GB,5,,FHRS,0
339064,Pool Bank,Southcrest,Redditch,Worcestershire,Quality Hotel,Hotel/bed & breakfast/guest house,7842,5,,671878,0,,52.21087646484380,RB/218782,149,wrsenquiries@worcsregservices.gov.uk,Redditch,http://www.worcsregservices.gov.uk,-2.20981502532959,B97 4JS,2014-01-10,fhrs_4_en-GB,4,,FHRS,10
339065,197 Batchley Road,Batchley,Redditch,Worcestershire,R D Rogers Butchers,Manufacturers/packers,7839,5,,671859,10,,52.30833400000000,RB/214108,149,wrsenquiries@worcsregservices.gov.uk,Redditch,http://www.worcsregservices.gov.uk,-1.95953200000000,B97 6JB,2013-03-13,fhrs_4_en-GB,4,,FHRS,5
339066,265 Birchfield Road,Webheath,Redditch,Worcestershire,Ragamuffins,Hospitals/Childcare/Caring Premises,5,0,,671858,0,,52.29770900000000,RB/213839,149,wrsenquiries@worcsregservices.gov.uk,Redditch,http://www.worcsregservices.gov.uk,-1.96241500000000,B97 4NB,2014-09-17,fhrs_5_en-GB,5,,FHRS,0
339067,70 Rectory Road,Headless Cross,Redditch,Worcestershire,Ragamuffins Nusery,Hospitals/Childcare/Caring Premises,5,0,,671906,5,,52.29511400000000,RB/226903,149,wrsenquiries@worcsregservices.gov.uk,Redditch,http://www.worcsregservices.gov.uk,-1.94794500000000,B97 4LL,2009-07-21,fhrs_5_en-GB,5,,FHRS,0
339068,31 Unicorn Hill,Town Centre,Redditch,Worcestershire,Rasoi,Restaurant/Cafe/Canteen,1,10,,671890,10,,52.30675400000000,RB/223193,149,wrsenquiries@worcsregservices.gov.uk,Redditch,http://www.worcsregservices.gov.uk,-1.94293100000000,B97 4QR,2014-03-27,fhrs_3_en-GB,3,,FHRS,10
339069,76 Ipsley Street,Smallwood,Redditch,Worcestershire,Rayyan's,Takeaway/sandwich shop,7844,20,,671998,10,,,RB/504429,149,wrsenquiries@worcsregservices.gov.uk,Redditch,http://www.worcsregservices.gov.uk,,B98 7AJ,2012-12-06,fhrs_1_en-GB,1,,FHRS,10
339070,14 New Meadow Road,Lakeside,Redditch,Worcestershire,Real Nosh,Restaurant/Cafe/Canteen,1,5,,672019,5,,52.30385300000000,RB/504822,149,wrsenquiries@worcsregservices.gov.uk,Redditch,http://www.worcsregservices.gov.uk,-1.91700600000000,B98 8YW,2015-01-26,fhrs_5_en-GB,5,,FHRS,5
339071,127 Rectory Road,Headless Cross,Redditch,Worcestershire,Rectory Road Fish Bar,Takeaway/sandwich shop,7844,10,,671834,10,,52.29455800000000,RB/205744,149,wrsenquiries@worcsregservices.gov.uk,Redditch,http://www.worcsregservices.gov.uk,-1.94950000000000,B97 4LG,2014-11-12,fhrs_3_en-GB,3,,FHRS,10
339072,Bromsgrove Road,Batchley,Redditch,Worcestershire,Redditch Cricket Hockey & Rugby Club,Pub/bar/nightclub,7843,5,,671846,5,,52.30574400000000,RB/210555,149,wrsenquiries@worcsregservices.gov.uk,Redditch,http://www.worcsregservices.gov.uk,-1.95651300000000,B97 4SP,2014-08-12,fhrs_5_en-GB,5,,FHRS,5
339073,Lower Grinsty Lane,Callow Hill,Redditch,Worcestershire,Redditch Golf Club,Restaurant/Cafe/Canteen,1,10,,685052,10,,52.28855800000000,14/00805/FOOD,149,wrsenquiries@worcsregservices.gov.uk,Redditch,http://www.worcsregservices.gov.uk,-1.96751000000000,B97 5PJ,2014-06-19,fhrs_3_en-GB,3,,FHRS,5
339074,45 Downsell Road,Webheath,Redditch,Worcestershire,Redditch Immediate Response Unit,Hospitals/Childcare/Caring Premises,5,0,,671898,5,,52.29721600000000,RB/224980,149,wrsenquiries@worcsregservices.gov.uk,Redditch,http://www.worcsregservices.gov.uk,-1.96908800000000,B97 5RJ,2006-06-08,fhrs_4_en-GB,4,,FHRS,10
339075,18 Beoley Road West,St Georges,Redditch,Worcestershire,Redditch Pizza,Takeaway/sandwich shop,7844,5,,671832,5,,52.30587500000000,RB/205103,149,wrsenquiries@worcsregservices.gov.uk,Redditch,http://www.worcsregservices.gov.uk,-1.92987900000000,B98 8LX,2014-06-10,fhrs_4_en-GB,4,,FHRS,10
339076,Proctors Barn Lane,Redditch,Worcestershire,,Redditch Sailing Club,Other catering premises,7841,10,,671934,10,,,RB/500225,149,wrsenquiries@worcsregservices.gov.uk,Redditch,http://www.worcsregservices.gov.uk,,,2014-09-05,fhrs_3_en-GB,3,,FHRS,5
339077,129 Evesham Road,Headless Cross,Redditch,Worcestershire,Redditch Spice Restaurant,Restaurant/Cafe/Canteen,1,10,,671886,5,,52.29319800000000,RB/222359,149,wrsenquiries@worcsregservices.gov.uk,Redditch,http://www.worcsregservices.gov.uk,-1.94585100000000,B97 4JX,2014-11-28,fhrs_4_en-GB,4,,FHRS,5
339078,Valley Stadium,Bromsgrove Road,Batchley,Redditch,Redditch United Football Club,Pub/bar/nightclub,7843,10,,671852,5,,52.30554400000000,RB/212498,149,wrsenquiries@worcsregservices.gov.uk,Redditch,http://www.worcsregservices.gov.uk,-1.95107200000000,B97 4RN,2015-01-16,fhrs_4_en-GB,4,,FHRS,5
339079,17 Unicorn Hill,Town Centre,Redditch,Worcestershire,Redolence Spice,Restaurant/Cafe/Canteen,1,5,,671918,10,,52.30675400000000,RB/231491,149,wrsenquiries@worcsregservices.gov.uk,Redditch,http://www.worcsregservices.gov.uk,-1.94293100000000,B97 4QR,2014-07-10,fhrs_3_en-GB,3,,FHRS,10
339080,Birchensale Farm,Low Field Lane,Batchley,Redditch,Rhymes Day Nursery,Hospitals/Childcare/Caring Premises,5,0,,671959,0,,,RB/501179,149,wrsenquiries@worcsregservices.gov.uk,Redditch,http://www.worcsregservices.gov.uk,,B97 0QB,2014-09-24,fhrs_5_en-GB,5,,FHRS,0
339081,Evesham Road,Astwood Bank,Redditch,Worcestershire,Ridgeway Middle School,School/college/university,7845,0,,671863,0,,52.25367300000000,RB/215507,149,wrsenquiries@worcsregservices.gov.uk,Redditch,http://www.worcsregservices.gov.uk,-1.93752000000000,B96 6BD,2014-09-15,fhrs_5_en-GB,5,,FHRS,5
339082,Unit 1B The Quadrant Alcester Stree,Town Centre,Redditch,Worcestershire,Rily's,Restaurant/Cafe/Canteen,1,5,,671994,5,,,RB/504203,149,wrsenquiries@worcsregservices.gov.uk,Redditch,http://www.worcsregservices.gov.uk,,B98 5AE,2013-02-27,fhrs_5_en-GB,5,,FHRS,5
339083,59 Birchfield Road,Headless Cross,Redditch,Worcestershire,Rocklands Social Club,Pub/bar/nightclub,7843,10,,671876,10,,52.29249800000000,RB/218448,149,wrsenquiries@worcsregservices.gov.uk,Redditch,http://www.worcsregservices.gov.uk,-1.94761100000000,B97 4LB,2014-03-13,fhrs_3_en-GB,3,,FHRS,10
339084,Colts Lane,Winyates West,Redditch,Worcestershire,Roman Way First School,School/college/university,7845,5,,671920,5,,52.30506200000000,RB/231744,149,wrsenquiries@worcsregservices.gov.uk,Redditch,http://www.worcsregservices.gov.uk,-1.89868500000000,B98 0LH,2013-10-24,fhrs_5_en-GB,5,,FHRS,5
339085,Unit 5,Millsborough House,Ipsley Street,Redditch,Rool Runningz,Restaurant/Cafe/Canteen,1,10,,685042,10,,52.30455700000000,14/00452/FOOD,149,wrsenquiries@worcsregservices.gov.uk,Redditch,http://www.worcsregservices.gov.uk,-1.93651000000000,B98 7AL,2013-11-27,fhrs_3_en-GB,3,,FHRS,10
339086,15 Heathfield Road,Webheath,Redditch,Worcestershire,Rose & Crown,Pub/bar/nightclub,7843,5,,671847,10,,52.29780900000000,RB/210814,149,wrsenquiries@worcsregservices.gov.uk,Redditch,http://www.worcsregservices.gov.uk,-1.96677000000000,B97 5RB,2014-08-29,fhrs_4_en-GB,4,,FHRS,5
339087,48 High Street,Feckenham,Redditch,Worcestershire,Rose & Crown,Pub/bar/nightclub,7843,5,,671895,5,,52.25121700000000,RB/223877,149,wrsenquiries@worcsregservices.gov.uk,Redditch,http://www.worcsregservices.gov.uk,-1.98764900000000,B96 6HS,2014-09-24,fhrs_5_en-GB,5,,FHRS,5
339088,Abbey Trading Centre Alvechurch Hig,Riverside,Redditch,Worcestershire,Sainsburys - Cafe,Restaurant/Cafe/Canteen,1,5,,671924,5,,52.31372000000000,RB/500049,149,wrsenquiries@worcsregservices.gov.uk,Redditch,http://www.worcsregservices.gov.uk,-1.93932800000000,B97 6RF,2013-10-11,fhrs_5_en-GB,5,,FHRS,5
339089,21 Easemore Road,Redditch,Worcestershire,,Sally - Ann's Pantry,Other catering premises,7841,5,,685049,5,,52.30894600000000,14/00721/FOOD,149,wrsenquiries@worcsregservices.gov.uk,Redditch,http://www.worcsregservices.gov.uk,-1.93807300000000,B98 8ER,2014-03-27,fhrs_5_en-GB,5,,FHRS,5
339090,Church Road,Webheath,Redditch,Worcestershire,Saltways Care Home,Hospitals/Childcare/Caring Premises,5,0,,671887,0,,52.29846800000000,RB/222717,149,wrsenquiries@worcsregservices.gov.uk,Redditch,http://www.worcsregservices.gov.uk,-1.97759200000000,B97 5PD,2014-05-07,fhrs_5_en-GB,5,,FHRS,5
339091,1 Winyates Centre,Winyates West,Redditch,Worcestershire,Sampan,Takeaway/sandwich shop,7844,10,,685186,5,,52.30334100000000,RB/233911,149,wrsenquiries@worcsregservices.gov.uk,Redditch,http://www.worcsregservices.gov.uk,-1.89455400000000,B98 0NR,2015-01-13,fhrs_4_en-GB,4,,FHRS,5
339092,79 Arrow Road North,Lakeside,Redditch,Worcestershire,Samuels Catering,Mobile caterer,7846,5,,671888,5,,52.30899200000000,RB/223130,149,wrsenquiries@worcsregservices.gov.uk,Redditch,http://www.worcsregservices.gov.uk,-1.92519500000000,B98 8NT,2014-04-30,fhrs_5_en-GB,5,,FHRS,0
339093,27 Thornhill Road,Redditch,Worcestershire,,Servest @ Aspen Medicall,Restaurant/Cafe/Canteen,1,0,,685057,0,,52.31972000000000,14/00918/FOOD,149,wrsenquiries@worcsregservices.gov.uk,Redditch,http://www.worcsregservices.gov.uk,-1.89303300000000,B98 9ND,2014-07-15,fhrs_5_en-GB,5,,FHRS,5
339094,Tesco Stores Ltd,Coldfield Drive,Redditch,Worcestershire,Servest @ Tesco,Other catering premises,7841,5,,685031,5,,52.28842900000000,13/00246/FOOD,149,wrsenquiries@worcsregservices.gov.uk,Redditch,http://www.worcsregservices.gov.uk,-1.93685500000000,B98 7RU,2013-11-11,fhrs_5_en-GB,5,,FHRS,0
339095,,,,,Seven Mile,Retailers - other,4613,10,,697293,5,,,14/00913/FOOD,149,wrsenquiries@worcsregservices.gov.uk,Redditch,http://www.worcsregservices.gov.uk,,,2014-08-05,fhrs_4_en-GB,4,,FHRS,5
339096,66 Unicorn Hill,Town Centre,Redditch,Worcestershire,Shahi Palace,Restaurant/Cafe/Canteen,1,10,,671952,5,,52.30654800000000,RB/501058,149,wrsenquiries@worcsregservices.gov.uk,Redditch,http://www.worcsregservices.gov.uk,-1.94477900000000,B97 4RA,2013-10-26,fhrs_4_en-GB,4,,FHRS,5
339097,1D 17 The Quadrant Alcester Street,Town Centre,Redditch,Worcestershire,Shipleys Luxury Bingo Club,Other catering premises,7841,5,,685202,5,,,RB/500795,149,wrsenquiries@worcsregservices.gov.uk,Redditch,http://www.worcsregservices.gov.uk,,B98 8AN,2013-07-03,fhrs_4_en-GB,4,,FHRS,10
339098,Canteen (Shire Services),Matchborough Way,Redditch,Worcestershire,Shire Services @ Matchborough First School,School/college/university,7845,5,,685224,0,,,RB/503582,149,wrsenquiries@worcsregservices.gov.uk,Redditch,http://www.worcsregservices.gov.uk,,B98 6GP,2013-05-13,fhrs_5_en-GB,5,,FHRS,5
339099,30 Hewell Road,Batchley,Redditch,Worcestershire,Sicily Pizza Ltd,Takeaway/sandwich shop,7844,10,,671963,10,,52.30958800000000,RB/502029,149,wrsenquiries@worcsregservices.gov.uk,Redditch,http://www.worcsregservices.gov.uk,-1.94615400000000,B97 6AN,2014-02-25,fhrs_3_en-GB,3,,FHRS,10
339100,Church Green West,Town Centre,Redditch,Worcestershire,Smallwood House,Restaurant/Cafe/Canteen,1,0,,671841,0,,52.30827300000000,RB/210035,149,wrsenquiries@worcsregservices.gov.uk,Redditch,http://www.worcsregservices.gov.uk,-1.94106600000000,B97 4BD,2014-12-22,fhrs_5_en-GB,5,,FHRS,5
339101,Brockhill Works,1 Windsor Road,Redditch,Worcestershire,Smokey Joe's,Restaurant/Cafe/Canteen,1,5,,672025,5,,52.31263700000000,RB/504854,149,wrsenquiries@worcsregservices.gov.uk,Redditch,http://www.worcsregservices.gov.uk,-1.94945100000000,B97 6DJ,2014-06-27,fhrs_5_en-GB,5,,FHRS,5
339102,21 Neighbrook Close,Webheath,Redditch,Worcestershire,Snack In The Box,Retailers - other,4613,5,,685061,5,,52.29710100000000,RB/200669,149,wrsenquiries@worcsregservices.gov.uk,Redditch,http://www.worcsregservices.gov.uk,-1.97486500000000,B97 5YA,2009-10-21,fhrs_5_en-GB,5,,FHRS,5
339103,Lakeside Trading Centre,Beoley Road East,Lakeside,Redditch,Snack Re-Treat,Restaurant/Cafe/Canteen,1,,,671956,,,,RB/501173,149,wrsenquiries@worcsregservices.gov.uk,Redditch,http://www.worcsregservices.gov.uk,,,,fhrs_awaitinginspection_en-GB,AwaitingInspection,,FHRS,
339104,215 Mount Pleasant,Southcrest,Redditch,Worcestershire,Southcrest Nursing Home,Hospitals/Childcare/Caring Premises,5,10,,671912,10,,52.29768400000000,RB/229788,149,wrsenquiries@worcsregservices.gov.uk,Redditch,http://www.worcsregservices.gov.uk,-1.94459900000000,B97 4JG,2014-11-06,fhrs_3_en-GB,3,,FHRS,5
339105,76 Ipsley Street,Smallwood,Redditch,Worcestershire,Spice Cafe,Takeaway/sandwich shop,7844,10,,671850,10,,52.30408300000000,RB/211784,149,wrsenquiries@worcsregservices.gov.uk,Redditch,http://www.worcsregservices.gov.uk,-1.93941400000000,B98 7AE,2015-01-06,fhrs_3_en-GB,3,,FHRS,5
339106,21 Castleditch Lane,Redditch,Worcestershire,,Spice Cottage,Takeaway/sandwich shop,7844,5,,671799,5,,52.28332400000000,13/00356/FOOD,149,wrsenquiries@worcsregservices.gov.uk,Redditch,http://www.worcsregservices.gov.uk,-1.93844600000000,B98 7YB,2014-04-29,fhrs_5_en-GB,5,,FHRS,5
339107,5 Matchborough Centre,Matchborough East,Redditch,Worcestershire,Spice Merchants & Napoli Pizza,Takeaway/sandwich shop,7844,10,,671932,10,,52.29580900000000,RB/500215,149,wrsenquiries@worcsregservices.gov.uk,Redditch,http://www.worcsregservices.gov.uk,-1.89643400000000,B98 0EP,2015-01-20,fhrs_2_en-GB,2,,FHRS,15
339108,St Davids House,Willow Way,Batchley,Redditch,St Davids Luncheon Club,Hospitals/Childcare/Caring Premises,5,5,,671926,5,,52.30776900000000,RB/500114,149,wrsenquiries@worcsregservices.gov.uk,Redditch,http://www.worcsregservices.gov.uk,-1.96221600000000,B97 6PG,2012-12-21,fhrs_5_en-GB,5,,FHRS,0
339109,22 Feckenham Road,Headless Cross,Redditch,Worcestershire,St.Martins Care Home For The Elderly Ltd,Hospitals/Childcare/Caring Premises,5,5,,671915,5,,52.29414600000000,RB/230605,149,wrsenquiries@worcsregservices.gov.uk,Redditch,http://www.worcsregservices.gov.uk,-1.95343000000000,B97 5AR,2013-09-03,fhrs_4_en-GB,4,,FHRS,10
339110,163 Evesham Road,Headless Cross,Redditch,Worcestershire,Steps Bar And Bistro,Pub/bar/nightclub,7843,10,,671916,10,,52.28879300000000,RB/230634,149,wrsenquiries@worcsregservices.gov.uk,Redditch,http://www.worcsregservices.gov.uk,-1.94488900000000,B97 5EN,2014-11-07,fhrs_3_en-GB,3,,FHRS,10
339111,178 Birchfield Road,Headless Cross,Redditch,Worcestershire,Stonebridge Nursing Home,Hospitals/Childcare/Caring Premises,5,5,,671884,0,,52.29652000000000,RB/220543,149,wrsenquiries@worcsregservices.gov.uk,Redditch,http://www.worcsregservices.gov.uk,-1.95643400000000,B97 4NA,2014-01-06,fhrs_5_en-GB,5,,FHRS,5
339112,99A Studley Road,Lodge Park,Redditch,Worcestershire,Studley Road Social Club,Pub/bar/nightclub,7843,5,,671848,10,,52.29861600000000,RB/210978,149,wrsenquiries@worcsregservices.gov.uk,Redditch,http://www.worcsregservices.gov.uk,-1.92330600000000,B98 7HF,2009-07-20,fhrs_4_en-GB,4,,FHRS,5
339113,64 Haseley Close,Redditch,Worcestershire,,Sub Catering,Other catering premises,7841,0,,671798,0,,52.29200400000000,13/00207/FOOD,149,wrsenquiries@worcsregservices.gov.uk,Redditch,http://www.worcsregservices.gov.uk,-1.89411100000000,B98 0BW,2015-01-08,fhrs_5_en-GB,5,,FHRS,0
339114,22 Kingfisher Walk,Town Centre,Redditch,Worcestershire,Subway (Redditch),Takeaway/sandwich shop,7844,10,,685159,5,,52.30615200000000,RB/227003,149,wrsenquiries@worcsregservices.gov.uk,Redditch,http://www.worcsregservices.gov.uk,-1.94345900000000,B97 4EY,2013-03-05,fhrs_4_en-GB,4,,FHRS,5
339115,44 Oakly Road,Town Centre,Redditch,Worcestershire,Sweet Moments,Other catering premises,7841,5,,672028,5,,52.30395000000000,RB/504861,149,wrsenquiries@worcsregservices.gov.uk,Redditch,http://www.worcsregservices.gov.uk,-1.94397500000000,B97 4EE,2013-01-23,fhrs_5_en-GB,5,,FHRS,5
339116,28 Mount Pleasant,Redditch,Worcestershire,,Syrenka,Retailers - other,4613,5,,671797,10,,52.30213300000000,13/00187/FOOD,149,wrsenquiries@worcsregservices.gov.uk,Redditch,http://www.worcsregservices.gov.uk,-1.94273100000000,B97 4JB,2013-11-26,fhrs_4_en-GB,4,,FHRS,5
339117,,,,,Tasker's Takeaways,Other catering premises,7841,5,,671843,0,,,RB/210198,149,wrsenquiries@worcsregservices.gov.uk,Redditch,http://www.worcsregservices.gov.uk,,,2014-09-18,fhrs_5_en-GB,5,,FHRS,0
339118,The Grove Holloway Drive,Lakeside,Redditch,Worcestershire,Tasty Diner,Mobile caterer,7846,5,,672013,5,,52.30704000000000,RB/504791,149,wrsenquiries@worcsregservices.gov.uk,Redditch,http://www.worcsregservices.gov.uk,-1.92361400000000,B98 8NE,2014-10-20,fhrs_5_en-GB,5,,FHRS,0
339119,B&Q Car Park Jinnah Road,Smallwood,Redditch,Worcestershire,Tasty Treats,Mobile caterer,7846,5,,672014,0,,52.30072600000000,RB/504797,149,wrsenquiries@worcsregservices.gov.uk,Redditch,http://www.worcsregservices.gov.uk,-1.93430100000000,B98 7ER,2011-04-11,fhrs_5_en-GB,5,,FHRS,0
339120,Terryspring Court,West Avenue,Redditch,Worcestershire,Terry Springs Court,Hospitals/Childcare/Caring Premises,5,0,,671972,5,,52.30247400000000,RB/503100,149,wrsenquiries@worcsregservices.gov.uk,Redditch,http://www.worcsregservices.gov.uk,-1.93985600000000,B98 7DJ,2014-09-01,fhrs_5_en-GB,5,,FHRS,0
339121,Tesco Stores Ltd,Coldfield Drive,Redditch,Worcestershire,Tesco Redditch Family Dining,Restaurant/Cafe/Canteen,1,0,,732467,0,,52.28842900000000,14/01039/FOOD,149,wrsenquiries@worcsregservices.gov.uk,Redditch,http://www.worcsregservices.gov.uk,-1.93685500000000,B98 7RU,2015-01-26,fhrs_5_en-GB,5,,FHRS,5
339122,Unit 4,Alcester Street,Town Centre,Redditch,The Abbey,Pub/bar/nightclub,7843,5,,697309,5,,52.30629400000000,RB/503074,149,wrsenquiries@worcsregservices.gov.uk,Redditch,http://www.worcsregservices.gov.uk,-1.93927900000000,B98 8AE,2014-10-09,fhrs_4_en-GB,4,,FHRS,10
339123,Far Moor Lane,Winyates Green,Redditch,Worcestershire,The Blue Inn,Hotel/bed & breakfast/guest house,7842,10,,671830,5,,52.31066700000000,RB/203669,149,wrsenquiries@worcsregservices.gov.uk,Redditch,http://www.worcsregservices.gov.uk,-1.88387300000000,B98 0SD,2015-01-06,fhrs_4_en-GB,4,,FHRS,5
339124,Callow Hill Lane,Callow Hill,Redditch,Worcestershire,The Bramley Cottage,Pub/bar/nightclub,7843,0,,671855,0,,52.28123700000000,RB/213362,149,wrsenquiries@worcsregservices.gov.uk,Redditch,http://www.worcsregservices.gov.uk,-1.95655100000000,B97 5QB,2014-09-15,fhrs_5_en-GB,5,,FHRS,5
339125,The Brook Inn Public House,Sillins Lane,Callow Hill,Redditch,The Brook Inn,Pub/bar/nightclub,7843,0,,671811,0,,52.27882600000000,14/00497/FOOD,149,wrsenquiries@worcsregservices.gov.uk,Redditch,http://www.worcsregservices.gov.uk,-1.98718700000000,B97 5UD,2013-05-02,fhrs_5_en-GB,5,,FHRS,5
339126,Cedar Park Road,Batchley,Redditch,Worcestershire,The Cedars,Hospitals/Childcare/Caring Premises,5,5,,671889,0,,52.30940900000000,RB/223140,149,wrsenquiries@worcsregservices.gov.uk,Redditch,http://www.worcsregservices.gov.uk,-1.94836900000000,B97 6HP,2012-12-06,fhrs_5_en-GB,5,,FHRS,5
339127,26 Kingfisher Walk,Town Centre,Redditch,Worcestershire,The Cornish Pasty Shop,Takeaway/sandwich shop,7844,10,,671949,5,,52.30615200000000,RB/500940,149,wrsenquiries@worcsregservices.gov.uk,Redditch,http://www.worcsregservices.gov.uk,-1.94345900000000,B97 4EY,2014-11-25,fhrs_4_en-GB,4,,FHRS,5
339128,The Duck Inn Public House,Pheasant Lane,Redditch,Worcestershire,The Duck Inn,Pub/bar/nightclub,7843,0,,671809,5,,52.28543500000000,14/00433/FOOD,149,wrsenquiries@worcsregservices.gov.uk,Redditch,http://www.worcsregservices.gov.uk,-1.93515900000000,B98 7YH,2014-08-14,fhrs_5_en-GB,5,,FHRS,5
339129,2-4 Bates Hill,Town Centre,Redditch,Worcestershire,The Fishermans Catch,Takeaway/sandwich shop,7844,10,,671877,10,,52.30724000000000,RB/218671,149,wrsenquiries@worcsregservices.gov.uk,Redditch,http://www.worcsregservices.gov.uk,-1.94234300000000,B97 4AN,2013-05-10,fhrs_3_en-GB,3,,FHRS,10
339130,62-4 Other Road,Town Centre,Redditch,Worcestershire,The Fishermans Catch,Takeaway/sandwich shop,7844,10,,671860,10,,52.30705600000000,RB/214168,149,wrsenquiries@worcsregservices.gov.uk,Redditch,http://www.worcsregservices.gov.uk,-1.93464400000000,B98 8DT,2014-09-24,fhrs_3_en-GB,3,,FHRS,5
339131,1206 Evesham Road,Astwood Bank,Redditch,Worcestershire,The Flying Fish,Takeaway/sandwich shop,7844,5,,671856,0,,52.25907600000000,RB/213541,149,wrsenquiries@worcsregservices.gov.uk,Redditch,http://www.worcsregservices.gov.uk,-1.93758500000000,B96 6AA,2014-10-15,fhrs_5_en-GB,5,,FHRS,5
339132,The Forest,1 Droitwich Road,Feckenham,Worcestershire,The Forest At Feckenham,Other catering premises,7841,5,,671796,5,,52.25002100000000,13/00147/FOOD,149,wrsenquiries@worcsregservices.gov.uk,Redditch,http://www.worcsregservices.gov.uk,-1.99093100000000,B96 6JE,2015-01-30,fhrs_5_en-GB,5,,FHRS,5
339133,98 Evesham Road,Headless Cross,Redditch,Worcestershire,The Gate Hangs Well,Pub/bar/nightclub,7843,10,,685151,10,,52.29145400000000,RB/225204,149,wrsenquiries@worcsregservices.gov.uk,Redditch,http://www.worcsregservices.gov.uk,-1.94607300000000,B97 5ES,2012-03-25,fhrs_3_en-GB,3,,FHRS,10
339134,8 Matchborough Centre,Matchborough East,Redditch,Worcestershire,The Golden Carp Fish Bar,Takeaway/sandwich shop,7844,5,,671826,10,,52.29580900000000,RB/202143,149,wrsenquiries@worcsregservices.gov.uk,Redditch,http://www.worcsregservices.gov.uk,-1.89643400000000,B98 0EP,2014-03-13,fhrs_4_en-GB,4,,FHRS,5
339135,Icknield Street Drive,Matchborough West,Redditch,Worcestershire,The Golden Goose,Pub/bar/nightclub,7843,5,,671933,5,,52.29203900000000,RB/500217,149,wrsenquiries@worcsregservices.gov.uk,Redditch,http://www.worcsregservices.gov.uk,-1.90399300000000,B98 0DD,2013-08-23,fhrs_5_en-GB,5,,FHRS,5
339136,Plymouth Road,Southcrest,Redditch,Worcestershire,The Greens At Pitcheroak Golf Course,Pub/bar/nightclub,7843,10,,685092,5,,52.30036500000000,RB/208890,149,wrsenquiries@worcsregservices.gov.uk,Redditch,http://www.worcsregservices.gov.uk,-1.94789500000000,B97 4PB,2014-02-11,fhrs_3_en-GB,3,,FHRS,10
339137,Harris Depot,Marlfield Lane,Redditch,Worcestershire,The Grill,Mobile caterer,7846,5,,672021,5,,52.30941900000000,RB/504840,149,wrsenquiries@worcsregservices.gov.uk,Redditch,http://www.worcsregservices.gov.uk,-1.91828600000000,B98 8PU,2014-03-19,fhrs_5_en-GB,5,,FHRS,0
339138,Units F1 - F2,Astwood Business Park,Astwood Lane,Astwood Bank,The Imagination Street Ltd,Restaurant/Cafe/Canteen,1,5,,672027,5,,52.25511000000000,RB/504858,149,wrsenquiries@worcsregservices.gov.uk,Redditch,http://www.worcsregservices.gov.uk,-1.95401300000000,B96 6HH,2014-02-13,fhrs_5_en-GB,5,,FHRS,5
339139,137/139/141 Evesham Road,Headless Cross,Redditch,Worcestershire,The Inn Plaice,Takeaway/sandwich shop,7844,10,,671923,5,,52.29319800000000,RB/233914,149,wrsenquiries@worcsregservices.gov.uk,Redditch,http://www.worcsregservices.gov.uk,-1.94585100000000,B97 4JX,2013-09-19,fhrs_3_en-GB,3,,FHRS,10
339140,75 Beoley Road West,St Georges,Redditch,Worcestershire,The Learning Nursery,Hospitals/Childcare/Caring Premises,5,10,,672016,5,,52.30637000000000,RB/504810,149,wrsenquiries@worcsregservices.gov.uk,Redditch,http://www.worcsregservices.gov.uk,-1.92971700000000,B98 8LY,2013-01-09,fhrs_4_en-GB,4,,FHRS,5
339141,14 Butlers Hill Lane,Brockhill,Redditch,Worcestershire,The Meat Shack,Mobile caterer,7846,0,,672023,0,,52.31370100000000,RB/504844,149,wrsenquiries@worcsregservices.gov.uk,Redditch,http://www.worcsregservices.gov.uk,-1.95792800000000,B97 6SY,2014-04-18,fhrs_5_en-GB,5,,FHRS,5
339142,Paper Mill Drive,Church Hill South,Redditch,Worcestershire,The Oast House,Pub/bar/nightclub,7843,10,,671882,5,,52.30994300000000,RB/220415,149,wrsenquiries@worcsregservices.gov.uk,Redditch,http://www.worcsregservices.gov.uk,-1.90905900000000,B98 8QJ,2014-08-18,fhrs_4_en-GB,4,,FHRS,5
339143,24 Foregate Street,Astwood Bank,Redditch,Worcestershire,The Oddfellows Arms,Other catering premises,7841,5,,671864,5,,52.25921200000000,RB/215508,149,wrsenquiries@worcsregservices.gov.uk,Redditch,http://www.worcsregservices.gov.uk,-1.93880100000000,B96 6BW,2012-12-11,fhrs_5_en-GB,5,,FHRS,5
339144,Unit 3 Kingfisher Square,Kingfisher Shopping Centre,Redditch,Worcs,The Real China,Restaurant/Cafe/Canteen,1,5,,697292,5,,52.30597300000000,14/00895/FOOD,149,wrsenquiries@worcsregservices.gov.uk,Redditch,http://www.worcsregservices.gov.uk,-1.94483800000000,B97 4EQ,2014-07-23,fhrs_5_en-GB,5,,FHRS,0
339145,21 Prospect Hill,Enfield,Redditch,Worcestershire,The Red Chamber Restaurant,Restaurant/Cafe/Canteen,1,5,,671911,5,,52.30886600000000,RB/229065,149,wrsenquiries@worcsregservices.gov.uk,Redditch,http://www.worcsregservices.gov.uk,-1.94069800000000,B97 4BH,2013-11-22,fhrs_4_en-GB,4,,FHRS,10
339146,Unit 4,The Quadrant Alcester Street,Town Centre,Redditch,The Rising Sun,Pub/bar/nightclub,7843,5,,671951,5,,,RB/500990,149,wrsenquiries@worcsregservices.gov.uk,Redditch,http://www.worcsregservices.gov.uk,,B98 6JD,2014-09-22,fhrs_5_en-GB,5,,FHRS,5
339147,Unicorn Hill,Town Centre,Redditch,Worcestershire,The Royal Enfield,Pub/bar/nightclub,7843,5,,672009,0,,52.30675400000000,RB/504738,149,wrsenquiries@worcsregservices.gov.uk,Redditch,http://www.worcsregservices.gov.uk,-1.94293100000000,B97 4QR,2013-09-24,fhrs_5_en-GB,5,,FHRS,5
339148,Redditch Market Church Green East,Town Centre,Redditch,Worcestershire,The Spud Hut,Mobile caterer,7846,10,,671976,10,,52.30562900000000,RB/503144,149,wrsenquiries@worcsregservices.gov.uk,Redditch,http://www.worcsregservices.gov.uk,-1.93999900000000,B97 4HN,2013-08-29,fhrs_3_en-GB,3,,FHRS,5
339149,Astwood Lane,Redditch,Worcestershire,,The Stables Cafe,Restaurant/Cafe/Canteen,1,10,,685231,10,,52.26169700000000,RB/504550,149,wrsenquiries@worcsregservices.gov.uk,Redditch,http://www.worcsregservices.gov.uk,-1.94599200000000,B96 6PS,2014-11-25,fhrs_3_en-GB,3,,FHRS,10
339150,The Stables Farmshop,Woodast Farm,Astwood Lane,Astwood Bank,The Stables Farm Shop,Farmers/growers,7838,5,,671992,5,,52.26169700000000,RB/504184,149,wrsenquiries@worcsregservices.gov.uk,Redditch,http://www.worcsregservices.gov.uk,-1.94599200000000,B96 6PS,2011-08-11,fhrs_5_en-GB,5,,FHRS,5
339151,6 High Street,Feckenham,Redditch,Worcestershire,The Steps B+B,Hotel/bed & breakfast/guest house,7842,0,,685093,5,,52.25121700000000,RB/209219,149,wrsenquiries@worcsregservices.gov.uk,Redditch,http://www.worcsregservices.gov.uk,-1.98764900000000,B96 6HS,2010-01-28,fhrs_5_en-GB,5,,FHRS,5
339152,Howard Road,Park Farm,Redditch,Worcestershire,The Travelling Chef,Mobile caterer,7846,5,,671979,0,,,RB/503263,149,wrsenquiries@worcsregservices.gov.uk,Redditch,http://www.worcsregservices.gov.uk,,,2013-01-10,fhrs_5_en-GB,5,,FHRS,0
339153,St Andrews Church,Upperfield Close,Redditch,,The Way Cafe,Restaurant/Cafe/Canteen,1,10,,671804,10,,52.31630600000000,13/00444/FOOD,149,wrsenquiries@worcsregservices.gov.uk,Redditch,http://www.worcsregservices.gov.uk,-1.90674300000000,B98 9AA,2014-01-10,fhrs_3_en-GB,3,,FHRS,10
339154,Abbey Stadium Sports Centre,Birmingham Road,Redditch,Worcestershire,Thinkin Coffee,Restaurant/Cafe/Canteen,1,10,,685034,10,,52.31875600000000,14/00281/FOOD,149,wrsenquiries@worcsregservices.gov.uk,Redditch,http://www.worcsregservices.gov.uk,-1.94184400000000,B97 6EJ,2014-01-31,fhrs_3_en-GB,3,,FHRS,10
339155,2A Brook Street,Lakeside,Redditch,,Thorne & Sons,Manufacturers/packers,7839,10,,732468,10,,52.30825300000000,RB/504722,149,wrsenquiries@worcsregservices.gov.uk,Redditch,http://www.worcsregservices.gov.uk,-1.92261400000000,B98 8NG,2015-01-15,fhrs_3_en-GB,3,,FHRS,10
339156,1242 Evesham Road,Astwood Bank,Redditch,Worcestershire,Tilla Balti & Tandoori Indian Takeaway,Takeaway/sandwich shop,7844,20,,671836,10,,52.25907600000000,RB/207267,149,wrsenquiries@worcsregservices.gov.uk,Redditch,http://www.worcsregservices.gov.uk,-1.93758500000000,B96 6AA,2015-01-13,fhrs_1_en-GB,1,,FHRS,10
339157,West Avenue,Smallwood,Redditch,Worcestershire,Tinkerbells,Hospitals/Childcare/Caring Premises,5,5,,671986,10,,52.30384000000000,RB/503810,149,wrsenquiries@worcsregservices.gov.uk,Redditch,http://www.worcsregservices.gov.uk,-1.93910700000000,B98 7DN,2014-05-07,fhrs_4_en-GB,4,,FHRS,0
339158,Unit 2 The Hub,Kingfisher Shopping Centre,Redditch,Worcs,Tinseltown,Restaurant/Cafe/Canteen,1,5,,718536,5,,52.30525200000000,14/01169/FOOD,149,wrsenquiries@worcsregservices.gov.uk,Redditch,http://www.worcsregservices.gov.uk,-1.94089400000000,B97 4HJ,2014-11-25,fhrs_5_en-GB,5,,FHRS,0
339159,109 Studley Road,Greenlands,Redditch,Worcestershire,Top Nosh,Mobile caterer,7846,5,,671947,5,,52.29559400000000,RB/500831,149,wrsenquiries@worcsregservices.gov.uk,Redditch,http://www.worcsregservices.gov.uk,-1.92083300000000,B98 7HG,2014-05-12,fhrs_5_en-GB,5,,FHRS,0
339160,Dagnell End Road,Riverside,Redditch,Worcestershire,Travel Lodge Meadow Farm Public House,Hotel/bed & breakfast/guest house,7842,5,,671893,5,,52.32408500000000,RB/223612,149,wrsenquiries@worcsregservices.gov.uk,Redditch,http://www.worcsregservices.gov.uk,-1.93774400000000,B98 9BJ,2008-05-13,fhrs_5_en-GB,5,,FHRS,0
339161,Easemore Road,Town Centre,Redditch,Worcestershire,Trinity High School & Sixth Form Centre (Catering),School/college/university,7845,5,,671829,5,,52.30814400000000,RB/203489,149,wrsenquiries@worcsregservices.gov.uk,Redditch,http://www.worcsregservices.gov.uk,-1.93506700000000,B98 8HB,2014-11-28,fhrs_4_en-GB,4,,FHRS,10
339162,Woodrow Drive,Redditch,Worcestershire,,Tudor Grange Academy Redditch,School/college/university,7845,5,,707337,5,,52.28272100000000,14/01088/FOOD,149,wrsenquiries@worcsregservices.gov.uk,Redditch,http://www.worcsregservices.gov.uk,-1.91002300000000,B98 7UH,2014-09-11,fhrs_5_en-GB,5,,FHRS,0
339163,168 Birmingham Road,Enfield,Redditch,Worcestershire,Tudor Hall Nursery,Hospitals/Childcare/Caring Premises,5,,,671824,,,52.31342400000000,RB/201873,149,wrsenquiries@worcsregservices.gov.uk,Redditch,http://www.worcsregservices.gov.uk,-1.94051600000000,B97 6EN,,fhrs_awaitinginspection_en-GB,AwaitingInspection,,FHRS,
339164,25 Unicorn Hill,Redditch,Worcestershire,,Turkish Delight,Takeaway/sandwich shop,7844,5,,729397,5,,52.30675400000000,14/01170/FOOD,149,wrsenquiries@worcsregservices.gov.uk,Redditch,http://www.worcsregservices.gov.uk,-1.94293100000000,B97 4QR,2014-12-31,fhrs_5_en-GB,5,,FHRS,5
339165,Midshire Catering,Merse Road,Moons Moat,Redditch,UK-Nsi Co Ltd,Other catering premises,7841,0,,671875,5,,52.31580100000000,RB/218308,149,wrsenquiries@worcsregservices.gov.uk,Redditch,http://www.worcsregservices.gov.uk,-1.89386400000000,B98 9HL,2011-11-24,fhrs_5_en-GB,5,,FHRS,0
339166,4 Unicorn Parade Unicorn Hill,Town Centre,Redditch,Worcestershire,Unicorn Cafe,Restaurant/Cafe/Canteen,1,5,,671953,5,,52.27324200000000,RB/501145,149,wrsenquiries@worcsregservices.gov.uk,Redditch,http://www.worcsregservices.gov.uk,-1.94981800000000,B97 5QR,2015-01-06,fhrs_5_en-GB,5,,FHRS,0
339167,118 Birmingham Road,Redditch,Worcestershire,,Val's Catering,Retailers - other,4613,5,,707338,5,,52.31175100000000,14/01117/FOOD,149,wrsenquiries@worcsregservices.gov.uk,Redditch,http://www.worcsregservices.gov.uk,-1.93990300000000,B97 6EP,2014-09-30,fhrs_5_en-GB,5,,FHRS,5
339168,Tennyson Road,Headless Cross,Redditch,Worcestershire,Vaynor First School,School/college/university,7845,5,,671851,5,,52.28837400000000,RB/212027,149,wrsenquiries@worcsregservices.gov.uk,Redditch,http://www.worcsregservices.gov.uk,-1.95251300000000,B97 5BL,2014-09-23,fhrs_5_en-GB,5,,FHRS,0
339169,,,,,Vine Cottage,Hotel/bed & breakfast/guest house,7842,0,,672012,0,,,RB/504750,149,wrsenquiries@worcsregservices.gov.uk,Redditch,http://www.worcsregservices.gov.uk,,,2011-01-13,fhrs_5_en-GB,5,,FHRS,5
339170,Cinema,Kingfisher Square,Redditch,Worcestershire,Vue Cinema Redditch,Takeaway/sandwich shop,7844,0,,697290,0,,52.30597300000000,14/00632/FOOD,149,wrsenquiries@worcsregservices.gov.uk,Redditch,http://www.worcsregservices.gov.uk,-1.94483800000000,B97 4EQ,2014-08-13,fhrs_5_en-GB,5,,FHRS,0
339171,Feckenham Road,Headless Cross,Redditch,Worcestershire,Walkwood C Of E Middle School,School/college/university,7845,5,,671891,0,,52.28872500000000,RB/223439,149,wrsenquiries@worcsregservices.gov.uk,Redditch,http://www.worcsregservices.gov.uk,-1.95446200000000,B97 5AQ,2013-10-08,fhrs_5_en-GB,5,,FHRS,0
339172,Downsell Road,Webheath,Redditch,Worcestershire,Webheath First School,School/college/university,7845,5,,685152,0,,52.29721600000000,RB/225443,149,wrsenquiries@worcsregservices.gov.uk,Redditch,http://www.worcsregservices.gov.uk,-1.96908800000000,B97 5RJ,2015-01-16,fhrs_5_en-GB,5,,FHRS,0
339173,157 Evesham Road,Headless Cross,Redditch,Worcestershire,White Hart,Pub/bar/nightclub,7843,5,,671892,5,,52.29176900000000,RB/223488,149,wrsenquiries@worcsregservices.gov.uk,Redditch,http://www.worcsregservices.gov.uk,-1.94575000000000,B97 5EJ,2014-01-14,fhrs_4_en-GB,4,,FHRS,10
339174,7 Kingfisher Square,Town Centre,Redditch,Worcestershire,Wilkinsons,Retailers - supermarkets/hypermarkets,7840,5,,671969,5,,,RB/503069,149,wrsenquiries@worcsregservices.gov.uk,Redditch,http://www.worcsregservices.gov.uk,,,2013-03-26,fhrs_5_en-GB,5,,FHRS,5
339175,68 Bromsgrove Road,Batchley,Redditch,Worcestershire,Windmill Nursery,Hospitals/Childcare/Caring Premises,5,5,,671965,10,,52.30554400000000,RB/502060,149,wrsenquiries@worcsregservices.gov.uk,Redditch,http://www.worcsregservices.gov.uk,-1.95107200000000,B97 4RN,2014-09-15,fhrs_4_en-GB,4,,FHRS,5
339176,Winyates Centre,Winyates West,Redditch,Worcestershire,Winyates Chippy,Takeaway/sandwich shop,7844,0,,671940,0,,52.30334100000000,RB/500334,149,wrsenquiries@worcsregservices.gov.uk,Redditch,http://www.worcsregservices.gov.uk,-1.89455400000000,B98 0NR,2014-08-27,fhrs_5_en-GB,5,,FHRS,0
339177,2 Shakespeare Avenue,Lodge Park,Redditch,Worcestershire,Wok Inn,Takeaway/sandwich shop,7844,20,,671982,20,,52.29989400000000,RB/503382,149,wrsenquiries@worcsregservices.gov.uk,Redditch,http://www.worcsregservices.gov.uk,-1.92493200000000,B98 7LB,2015-01-06,fhrs_0_en-GB,0,,FHRS,15
339178,1 Woodrow Centre,Woodrow North,Redditch,Worcestershire,Woodrow Chippy,Takeaway/sandwich shop,7844,5,,671839,5,,52.28733700000000,RB/209213,149,wrsenquiries@worcsregservices.gov.uk,Redditch,http://www.worcsregservices.gov.uk,-1.91539400000000,B98 7RY,2013-11-21,fhrs_5_en-GB,5,,FHRS,5
339179,Rockline,25 Heming Road,Redditch,Worcestershire,Workplace Facilities Management @ Rockline,Restaurant/Cafe/Canteen,1,5,,685043,5,,52.28823800000000,14/00492/FOOD,149,wrsenquiries@worcsregservices.gov.uk,Redditch,http://www.worcsregservices.gov.uk,-1.89513200000000,B98 0DH,2014-03-10,fhrs_5_en-GB,5,,FHRS,5
