,addressline1,addressline2,addressline3,addressline4,businessname,businesstype,businesstypeid,confidenceinmanagement,extractdate,fhrsid,hygiene,itemcount,latitude,localauthoritybusinessid,localauthoritycode,localauthorityemailaddress,localauthorityname,localauthoritywebsite,longitude,postcode,ratingdate,ratingkey,ratingvalue,returncode,schemetype,structural
356891,8 High Street,Stourport-On-Severn,Worcestershire,,Ad Gustum,Restaurant/Cafe/Canteen,1,5,,673670,5,,52.34046800000000,WK/PI/000051096,153,wrsenquiries@worcsregservices.gov.uk,Wyre Forest,http://www.worcsregservices.gov.uk,-2.27793600000000,DY13 8DH,2013-04-11,fhrs_5_en-GB,5,,FHRS,5
356892,The Tulip Tree Centre,Castle Road,Kidderminster,Worcestershire,Age Concern,Other catering premises,7841,5,,673538,0,,52.38380000000000,WK/PI/000046395,153,wrsenquiries@worcsregservices.gov.uk,Wyre Forest,http://www.worcsregservices.gov.uk,-2.25041100000000,DY11 6TH,2014-05-15,fhrs_5_en-GB,5,,FHRS,0
356893,14 Comberton Place,Kidderminster,Worcestershire,,AJ's Diner,Restaurant/Cafe/Canteen,1,5,,712520,5,,52.38465600000000,14/01045/FOOD,153,wrsenquiries@worcsregservices.gov.uk,Wyre Forest,http://www.worcsregservices.gov.uk,-2.24041000000000,DY10 1QR,2014-10-28,fhrs_5_en-GB,5,,FHRS,0
356894,112 Coventry Street,Kidderminster,Worcestershire,,Alan Warwick Butcher's,Retailers - other,4613,10,,673540,5,,52.38870700000000,WK/PI/000046420,153,wrsenquiries@worcsregservices.gov.uk,Wyre Forest,http://www.worcsregservices.gov.uk,-2.24676500000000,DY10 2BH,2011-03-08,fhrs_3_en-GB,3,,FHRS,10
356895,116 Offmore Road,Kidderminster,Worcestershire,,All About The Food,Retailers - other,4613,5,,732481,5,,52.38806200000000,14/01198/FOOD,153,wrsenquiries@worcsregservices.gov.uk,Wyre Forest,http://www.worcsregservices.gov.uk,-2.23632800000000,DY10 1SL,2015-01-16,fhrs_5_en-GB,5,,FHRS,5
356896,Wolverley High School,Blakeshall Lane,Wolverley,Kidderminster,Alliance In Partnership@ Wolverley C Of E Secondary School,School/college/university,7845,5,,729434,5,,52.41693800000000,14/01279/FOOD,153,wrsenquiries@worcsregservices.gov.uk,Wyre Forest,http://www.worcsregservices.gov.uk,-2.25399500000000,DY11 5XQ,2015-01-08,fhrs_4_en-GB,4,,FHRS,10
356897,Dixon Street,Kidderminster,Worcestershire,,Anatolia,Takeaway/sandwich shop,7844,5,,673659,10,,52.38281000000000,WK/PI/000050792,153,wrsenquiries@worcsregservices.gov.uk,Wyre Forest,http://www.worcsregservices.gov.uk,-2.24635000000000,DY10 1HH,2014-03-05,fhrs_4_en-GB,4,,FHRS,5
356898,Caunsall Road,Caunsall,Kidderminster,Worcestershire,Anchor Inn,Pub/bar/nightclub,7843,5,,673369,10,,52.42627000000000,WK/PI/000007970,153,wrsenquiries@worcsregservices.gov.uk,Wyre Forest,http://www.worcsregservices.gov.uk,-2.22291600000000,DY11 5YL,2013-07-02,fhrs_4_en-GB,4,,FHRS,5
356899,14 Severn Side,Stourport-On-Severn,Worcestershire,,Angel Hotel,Pub/bar/nightclub,7843,5,,673481,5,,52.33651900000000,WK/PI/000034213,153,wrsenquiries@worcsregservices.gov.uk,Wyre Forest,http://www.worcsregservices.gov.uk,-2.27915800000000,DY13 9EW,2014-07-28,fhrs_5_en-GB,5,,FHRS,0
356900,27 The Slad,Stourport-On-Severn,Worcestershire,,Antionetta's,Restaurant/Cafe/Canteen,1,10,,673501,10,,52.35159400000000,WK/PI/000039971,153,wrsenquiries@worcsregservices.gov.uk,Wyre Forest,http://www.worcsregservices.gov.uk,-2.25580700000000,DY13 9JW,2010-10-26,fhrs_3_en-GB,3,,FHRS,10
356901,15 Doverdale Avenue,Kidderminster,Worcestershire,,Antonios Super Whip,Retailers - other,4613,5,,673391,10,,52.38623600000000,WK/PI/000012154,153,wrsenquiries@worcsregservices.gov.uk,Wyre Forest,http://www.worcsregservices.gov.uk,-2.22812100000000,DY10 3BP,2009-06-10,fhrs_4_en-GB,4,,FHRS,5
356902,11 Roden Avenue,Kidderminster,Worcestershire,,Arden House Residential Home,Hospitals/Childcare/Caring Premises,5,5,,673476,5,,52.39288300000000,WK/PI/000032870,153,wrsenquiries@worcsregservices.gov.uk,Wyre Forest,http://www.worcsregservices.gov.uk,-2.23573800000000,DY10 2RF,2012-11-09,fhrs_5_en-GB,5,,FHRS,5
356903,Arley Arboretum,Upper Arley,Bewdley,Worcestershire,Arley Arboretum Tea Room,Restaurant/Cafe/Canteen,1,10,,673554,5,,52.42203100000000,WK/PI/000046686,153,wrsenquiries@worcsregservices.gov.uk,Wyre Forest,http://www.worcsregservices.gov.uk,-2.34770900000000,DY12 1SQ,2014-08-14,fhrs_4_en-GB,4,,FHRS,5
356904,Areley House,Areley Lane,Stourport On Severn,Worcestershire,Arley House,Hospitals/Childcare/Caring Premises,5,0,,686414,5,,52.33561100000000,13/00269/FOOD,153,wrsenquiries@worcsregservices.gov.uk,Wyre Forest,http://www.worcsregservices.gov.uk,-2.28634400000000,DY13 0AB,2013-10-23,fhrs_5_en-GB,5,,FHRS,5
356905,34 Woodfield Crescent,Kidderminster,Worcestershire,,Ashwood Care Home,Hospitals/Childcare/Caring Premises,5,5,,673527,10,,52.38419400000000,WK/PI/000044716,153,wrsenquiries@worcsregservices.gov.uk,Wyre Forest,http://www.worcsregservices.gov.uk,-2.25510000000000,DY11 6TU,2013-07-09,fhrs_4_en-GB,4,,FHRS,5
356906,Kidderminster College,Market Street,Kidderminster,Worcestershire,Aspens Services,Restaurant/Cafe/Canteen,1,5,,673246,5,,52.38575400000000,13/00175/FOOD,153,wrsenquiries@worcsregservices.gov.uk,Wyre Forest,http://www.worcsregservices.gov.uk,-2.24877600000000,DY10 1LX,2014-01-22,fhrs_5_en-GB,5,,FHRS,5
356907,80 Areley Common,Stourport On Severn,Worcestershire,,Astley Cross Inn,Restaurant/Cafe/Canteen,1,5,,686451,5,,52.32345200000000,WK/PI/000000929,153,wrsenquiries@worcsregservices.gov.uk,Wyre Forest,http://www.worcsregservices.gov.uk,-2.29182600000000,DY13 0NP,2006-09-22,fhrs_5_en-GB,5,,FHRS,5
356908,8 Lichfield Street,Stourport-On-Severn,Worcestershire,,Baldwin House,Restaurant/Cafe/Canteen,1,5,,673427,5,,52.33801600000000,WK/PI/000022813,153,wrsenquiries@worcsregservices.gov.uk,Wyre Forest,http://www.worcsregservices.gov.uk,-2.27702500000000,DY13 9EU,2013-04-11,fhrs_4_en-GB,4,,FHRS,10
356909,14 Lower Park,Bewdley,Worcestershire,,Bank House B&B,Hotel/bed & breakfast/guest house,7842,5,,673451,10,,52.37284600000000,WK/PI/000024715,153,wrsenquiries@worcsregservices.gov.uk,Wyre Forest,http://www.worcsregservices.gov.uk,-2.31236300000000,DY12 2DP,2013-06-20,fhrs_4_en-GB,4,,FHRS,5
356910,Worcester Road,Clent,Stourbridge,West Midlands,Barnett Hill Garden Centre,Restaurant/Cafe/Canteen,1,5,,673529,0,,52.39346600000000,WK/PI/000045338,153,wrsenquiries@worcsregservices.gov.uk,Wyre Forest,http://www.worcsregservices.gov.uk,-2.16192600000000,DY9 0EE,2013-08-12,fhrs_5_en-GB,5,,FHRS,0
356911,Bellmans Cross,Bridgnorth Road,Shatterford,Bewdley,Bellmans Cross Inn,Pub/bar/nightclub,7843,10,,673483,10,,52.42795600000000,WK/PI/000034576,153,wrsenquiries@worcsregservices.gov.uk,Wyre Forest,http://www.worcsregservices.gov.uk,-2.30873800000000,DY12 1RN,2014-11-03,fhrs_3_en-GB,3,,FHRS,10
356912,8 Bewdley Hill,Kidderminster,Worcestershire,,Bewdley Hill Guest House,Hotel/bed & breakfast/guest house,7842,10,,673331,10,,52.38478400000000,WK/PI/000003561,153,wrsenquiries@worcsregservices.gov.uk,Wyre Forest,http://www.worcsregservices.gov.uk,-2.26496200000000,DY11 6BS,2013-06-28,fhrs_3_en-GB,3,,FHRS,10
356913,Habberley Road,Bewdley,Worcestershire,,Bewdley Pines Golf Club,Pub/bar/nightclub,7843,10,,673401,5,,52.38736600000000,WK/PI/000016624,153,wrsenquiries@worcsregservices.gov.uk,Wyre Forest,http://www.worcsregservices.gov.uk,-2.29456900000000,DY12 1LY,2014-08-15,fhrs_4_en-GB,4,,FHRS,5
356914,3 Load Street,Bewdley,Worcestershire,,Bewdley Pizza Parlour,Takeaway/sandwich shop,7844,20,,673259,15,,52.37585200000000,13/00433/FOOD,153,wrsenquiries@worcsregservices.gov.uk,Wyre Forest,http://www.worcsregservices.gov.uk,-2.31457300000000,DY12 2AF,2014-10-09,fhrs_1_en-GB,1,,FHRS,15
356915,49 Load Street,Bewdley,Worcestershire,,Bewdley Quality Butchers,Retailers - other,4613,5,,673555,5,,52.37561300000000,WK/PI/000046694,153,wrsenquiries@worcsregservices.gov.uk,Wyre Forest,http://www.worcsregservices.gov.uk,-2.31632000000000,DY12 2AP,2013-09-30,fhrs_5_en-GB,5,,FHRS,5
356916,114 Bewdley Road,Kidderminster,Worcestershire,,Bewdley Road Fish Bar,Takeaway/sandwich shop,7844,5,,673332,10,,52.38765800000000,WK/PI/000003580,153,wrsenquiries@worcsregservices.gov.uk,Wyre Forest,http://www.worcsregservices.gov.uk,-2.25773500000000,DY11 6RX,2009-09-15,fhrs_4_en-GB,4,,FHRS,5
356917,54 Load Street,Bewdley,Worcestershire,,Bewdley Youth Cafe,Restaurant/Cafe/Canteen,1,5,,686769,5,,52.37561300000000,WK/PI/000049750,153,wrsenquiries@worcsregservices.gov.uk,Wyre Forest,http://www.worcsregservices.gov.uk,-2.31632000000000,DY12 2AP,2013-06-21,fhrs_5_en-GB,5,,FHRS,5
356918,18 York Street,Stourport-On-Severn,Worcestershire,,Blossoms Tea Rooms,Restaurant/Cafe/Canteen,1,5,,673663,5,,52.33899200000000,WK/PI/000050907,153,wrsenquiries@worcsregservices.gov.uk,Wyre Forest,http://www.worcsregservices.gov.uk,-2.27882200000000,DY13 9EE,2014-07-29,fhrs_5_en-GB,5,,FHRS,5
356919,39 Worcester Street,Kidderminster,Worcestershire,,Boars Head Tap House,Pub/bar/nightclub,7843,5,,686796,5,,52.38626300000000,WK/PI/000050353,153,wrsenquiries@worcsregservices.gov.uk,Wyre Forest,http://www.worcsregservices.gov.uk,-2.24607500000000,DY10 1EW,2013-04-15,fhrs_5_en-GB,5,,FHRS,5
356920,Visitor Centre,Wolverley,Kidderminster,Worcestershire,Bodenham Arboretum,Restaurant/Cafe/Canteen,1,5,,673523,5,,52.42150900000000,WK/PI/000044187,153,wrsenquiries@worcsregservices.gov.uk,Wyre Forest,http://www.worcsregservices.gov.uk,-2.27632800000000,DY11 5TB,2014-02-26,fhrs_5_en-GB,5,,FHRS,5
356921,1 Tower Buildings,Blackwell Street,Kidderminster,Worcestershire,Bombay Blues,Restaurant/Cafe/Canteen,1,5,,673562,10,,,WK/PI/000046846,153,wrsenquiries@worcsregservices.gov.uk,Wyre Forest,http://www.worcsregservices.gov.uk,,,2013-02-25,fhrs_4_en-GB,4,,FHRS,5
356922,10 Bridge Street,Stourport-On-Severn,Worcestershire,,Bridge Inn,Pub/bar/nightclub,7843,5,,673349,5,,52.33866000000000,WK/PI/000005365,153,wrsenquiries@worcsregservices.gov.uk,Wyre Forest,http://www.worcsregservices.gov.uk,-2.28210700000000,DY13 8UX,2014-07-28,fhrs_4_en-GB,4,,FHRS,10
356923,"1 The Parade, Stourbridge Road",Kidderminster,Worcestershire,,Broadwaters Chippy,Takeaway/sandwich shop,7844,5,,673500,5,,52.39956900000000,WK/PI/000039775,153,wrsenquiries@worcsregservices.gov.uk,Wyre Forest,http://www.worcsregservices.gov.uk,-2.23681700000000,DY10 2UJ,2014-10-27,fhrs_5_en-GB,5,,FHRS,5
356924,168 Stourbridge Road,Kidderminster,Worcestershire,,Broadwaters Inn,Pub/bar/nightclub,7843,5,,673491,5,,52.40037300000000,WK/PI/000037144,153,wrsenquiries@worcsregservices.gov.uk,Wyre Forest,http://www.worcsregservices.gov.uk,-2.23498400000000,DY10 2UL,2013-04-12,fhrs_5_en-GB,5,,FHRS,5
356925,Brockencote Hall,Bromsgrove Road,Brockencote,Chaddesley Corbett,Brokencote Hall Hotel,Hotel/bed & breakfast/guest house,7842,5,,673289,5,,52.35966200000000,14/00689/FOOD,153,wrsenquiries@worcsregservices.gov.uk,Wyre Forest,http://www.worcsregservices.gov.uk,-2.16857200000000,DY10 4PY,2014-03-03,fhrs_5_en-GB,5,,FHRS,5
356926,Oldnall Road,Kidderminster,Worcestershire,,Brook Court,Hospitals/Childcare/Caring Premises,5,5,,673285,0,,52.38019000000000,14/00511/FOOD,153,wrsenquiries@worcsregservices.gov.uk,Wyre Forest,http://www.worcsregservices.gov.uk,-2.23487700000000,DY10 3HN,2013-10-08,fhrs_5_en-GB,5,,FHRS,5
356927,16 Blakebrook,Kidderminster,Worcestershire,,Brookdale Nursing Home,Hospitals/Childcare/Caring Premises,5,5,,673343,5,,52.38804900000000,WK/PI/000004512,153,wrsenquiries@worcsregservices.gov.uk,Wyre Forest,http://www.worcsregservices.gov.uk,-2.26424700000000,DY11 6AP,2013-06-24,fhrs_5_en-GB,5,,FHRS,5
356928,1 Marlpool Lane,Kidderminster,Worcestershire,,Bryden House Nursing Home,Hospitals/Childcare/Caring Premises,5,5,,729431,5,,52.39207700000000,14/01241/FOOD,153,wrsenquiries@worcsregservices.gov.uk,Wyre Forest,http://www.worcsregservices.gov.uk,-2.25986200000000,DY11 5DA,2015-01-09,fhrs_5_en-GB,5,,FHRS,0
356929,Burlish Park Golf Club,Zortech Avenue,Kidderminster,Worcestershire,Burlish Park Golf Centres Ltd,Restaurant/Cafe/Canteen,1,10,,673673,5,,,WK/PI/000051180,153,wrsenquiries@worcsregservices.gov.uk,Wyre Forest,http://www.worcsregservices.gov.uk,,DY11 7EX,2012-12-10,fhrs_4_en-GB,4,,FHRS,5
356930,6 Woodfield Crescent,Kidderminster,Worcestershire,,Busy Bee's Bakery,Manufacturers/packers,7839,5,,673274,10,,52.38488800000000,14/00359/FOOD,153,wrsenquiries@worcsregservices.gov.uk,Wyre Forest,http://www.worcsregservices.gov.uk,-2.25845400000000,DY11 6TX,2013-02-12,fhrs_4_en-GB,4,,FHRS,5
356931,Cafe Treatment Centre,Kidderminster Hospital,Bewdley Road,Kidderminster,Cafe,Restaurant/Cafe/Canteen,1,5,,673552,5,,52.38517800000000,WK/PI/000046684,153,wrsenquiries@worcsregservices.gov.uk,Wyre Forest,http://www.worcsregservices.gov.uk,-2.26135000000000,DY11 6RJ,2013-04-08,fhrs_5_en-GB,5,,FHRS,5
356932,St Chads Church,Burcher Green,Kidderminster,Worcestershire,Cafe Chad,Restaurant/Cafe/Canteen,1,10,,686423,5,,,14/00343/FOOD,153,wrsenquiries@worcsregservices.gov.uk,Wyre Forest,http://www.worcsregservices.gov.uk,,,2014-06-02,fhrs_4_en-GB,4,,FHRS,5
356933,45 Mill Street,Kidderminster,Worcestershire,,Cafe Masala Restaurant & Takeaway,Restaurant/Cafe/Canteen,1,0,,673457,0,,52.38933300000000,WK/PI/000027008,153,wrsenquiries@worcsregservices.gov.uk,Wyre Forest,http://www.worcsregservices.gov.uk,-2.25656900000000,DY11 6XB,2011-03-30,fhrs_5_en-GB,5,,FHRS,5
356934,Unit 18,Josiah Mason Mall,Rowland Hill Centre,Kidderminster,Cafe Pacifico Kidderminster,Restaurant/Cafe/Canteen,1,10,,686446,10,,52.38740000000000,14/00919/FOOD,153,wrsenquiries@worcsregservices.gov.uk,Wyre Forest,http://www.worcsregservices.gov.uk,-2.24813900000000,DY10 1EJ,2014-06-18,fhrs_3_en-GB,3,,FHRS,10
356935,16 Bridge Street,Stourport On Severn,Stourport-on-severn,Worcestershire,Cafe Raven,Restaurant/Cafe/Canteen,1,0,,673296,0,,52.33888600000000,14/00782/FOOD,153,wrsenquiries@worcsregservices.gov.uk,Wyre Forest,http://www.worcsregservices.gov.uk,-2.28163900000000,DY13 8UT,2014-05-19,fhrs_5_en-GB,5,,FHRS,5
356936,Wyre Forest Glades Leisure Centre,Bromsgrove Street,Kidderminster,Worcestershire,Cafeteria Wyre Forest Glades,Restaurant/Cafe/Canteen,1,5,,673358,5,,52.38657100000000,WK/PI/000005945,153,wrsenquiries@worcsregservices.gov.uk,Wyre Forest,http://www.worcsregservices.gov.uk,-2.24490200000000,DY10 1PP,2012-05-01,fhrs_4_en-GB,4,,FHRS,10
356937,Unit 5 Weavers Wharf,Kidderminster,Worcestershire,,Caffe Nero,Restaurant/Cafe/Canteen,1,0,,673597,0,,52.38709900000000,WK/PI/000049152,153,wrsenquiries@worcsregservices.gov.uk,Wyre Forest,http://www.worcsregservices.gov.uk,-2.25048800000000,DY10 1AA,2013-09-24,fhrs_5_en-GB,5,,FHRS,5
356938,Callow Hill,Rock,Kidderminster,Worcestershire,Callow Hill Methodist Church,Other catering premises,7841,5,,673364,5,,52.36267700000000,WK/PI/000007259,153,wrsenquiries@worcsregservices.gov.uk,Wyre Forest,http://www.worcsregservices.gov.uk,-2.37999000000000,DY14 9XD,2013-07-18,fhrs_5_en-GB,5,,FHRS,5
356939,294-295 Chester Road North,Kidderminster,Worcestershire,,Cambrian House Residential Home,Hospitals/Childcare/Caring Premises,5,5,,673370,10,,52.39338800000000,WK/PI/000008816,153,wrsenquiries@worcsregservices.gov.uk,Wyre Forest,http://www.worcsregservices.gov.uk,-2.23485900000000,DY10 2RR,2014-03-24,fhrs_3_en-GB,3,,FHRS,10
356940,2 York Street,Stourport-On-Severn,Worcestershire,,Canaan,Takeaway/sandwich shop,7844,5,,673534,10,,52.33925000000000,WK/PI/000046333,153,wrsenquiries@worcsregservices.gov.uk,Wyre Forest,http://www.worcsregservices.gov.uk,-2.28004200000000,DY13 9EQ,2013-03-26,fhrs_3_en-GB,3,,FHRS,10
356941,6 Severn Manor Gardens,Stourport-On-Severn,Worcestershire,,Can'T Cook Will Cook,Other catering premises,7841,5,,673575,10,,52.33112500000000,WK/PI/000048187,153,wrsenquiries@worcsregservices.gov.uk,Wyre Forest,http://www.worcsregservices.gov.uk,-2.29035100000000,DY13 0LX,2009-08-27,fhrs_3_en-GB,3,,FHRS,10
356942,42A Comberton Hill,Kidderminster,Worcestershire,,Captain Cod Restaurant,Restaurant/Cafe/Canteen,1,5,,673381,0,,52.38524000000000,WK/PI/000010487,153,wrsenquiries@worcsregservices.gov.uk,Wyre Forest,http://www.worcsregservices.gov.uk,-2.24075100000000,DY10 1QN,2013-08-01,fhrs_5_en-GB,5,,FHRS,5
356943,Residential Home,Cleobury Road,"Far Forest, Rock",Kidderminster,Casa-Mia,Restaurant/Cafe/Canteen,1,5,,673637,5,,52.36912800000000,WK/PI/000050136,153,wrsenquiries@worcsregservices.gov.uk,Wyre Forest,http://www.worcsregservices.gov.uk,-2.40046100000000,DY14 9EH,2013-06-06,fhrs_5_en-GB,5,,FHRS,0
356944,Unit A,99 Comberton Hill,Kidderminster,Worcestershire,Casper Stores,Retailers - other,4613,5,,686750,5,,52.38508500000000,WK/PI/000049159,153,wrsenquiries@worcsregservices.gov.uk,Wyre Forest,http://www.worcsregservices.gov.uk,-2.24188200000000,DY10 1QH,2007-11-14,fhrs_5_en-GB,5,,FHRS,5
356945,"Unit A, Comberton Hill",Kidderminster,Worcestershire,,Casper Stores,Retailers - other,4613,5,,686742,5,,52.38508500000000,WK/PI/000049004,153,wrsenquiries@worcsregservices.gov.uk,Wyre Forest,http://www.worcsregservices.gov.uk,-2.24188200000000,DY10 1QH,2013-04-22,fhrs_5_en-GB,5,,FHRS,0
356946,72 Mill Street,Kidderminster,Worcestershire,,Caspian Pizza,Takeaway/sandwich shop,7844,10,,673651,10,,52.39003200000000,WK/PI/000050691,153,wrsenquiries@worcsregservices.gov.uk,Wyre Forest,http://www.worcsregservices.gov.uk,-2.25770500000000,DY11 6XJ,2013-10-04,fhrs_3_en-GB,3,,FHRS,10
356947,50 Park Lane,Kidderminster,Worcestershire,,Castle Inn,Pub/bar/nightclub,7843,10,,673469,10,,52.38334700000000,WK/PI/000029662,153,wrsenquiries@worcsregservices.gov.uk,Wyre Forest,http://www.worcsregservices.gov.uk,-2.25205400000000,DY11 6TE,2013-07-15,fhrs_3_en-GB,3,,FHRS,10
356948,12 Doverdale Avenue,Kidderminster,Worcestershire,,Catch Of The Day,Takeaway/sandwich shop,7844,10,,673654,15,,52.38569600000000,WK/PI/000050741,153,wrsenquiries@worcsregservices.gov.uk,Wyre Forest,http://www.worcsregservices.gov.uk,-2.22851400000000,DY10 3BS,2013-01-03,fhrs_2_en-GB,2,,FHRS,10
356949,134 Kidderminster Road,Bewdley,Worcestershire,,Catchmens End Fish Bar,Takeaway/sandwich shop,7844,5,,673416,5,,52.37978000000000,WK/PI/000020997,153,wrsenquiries@worcsregservices.gov.uk,Wyre Forest,http://www.worcsregservices.gov.uk,-2.30083600000000,DY12 1DL,2014-10-27,fhrs_5_en-GB,5,,FHRS,0
356950,Tennyson Way,Kidderminster,Worcestershire,,Cavalier,Pub/bar/nightclub,7843,10,,686741,10,,52.38936800000000,WK/PI/000048993,153,wrsenquiries@worcsregservices.gov.uk,Wyre Forest,http://www.worcsregservices.gov.uk,-2.22152400000000,DY10 3YT,2011-02-14,fhrs_3_en-GB,3,,FHRS,10
356951,Zortech Avenue,Kidderminster,Worcestershire,,Centre Of Sporting Excellence And Foundation Learning,School/college/university,7845,5,,673275,5,,,14/00360/FOOD,153,wrsenquiries@worcsregservices.gov.uk,Wyre Forest,http://www.worcsregservices.gov.uk,,,2014-03-04,fhrs_5_en-GB,5,,FHRS,5
356952,Long More,Chaddesley Corbett,Kidderminster,Worcestershire,Chaddesley Corbet Sports Club,Pub/bar/nightclub,7843,10,,673444,10,,52.35152200000000,WK/PI/000023987,153,wrsenquiries@worcsregservices.gov.uk,Wyre Forest,http://www.worcsregservices.gov.uk,-2.17165300000000,DY10 4RE,2012-07-20,fhrs_3_en-GB,3,,FHRS,5
356953,Chaddesley Corbett Endowed Primary,Nethercroft Meadow,Kidderminster Road,Lower Chaddesley,Chaddesley Corbett Endowed Primary & Pre School,School/college/university,7845,5,,712519,5,,52.35616800000000,14/00972/FOOD,153,wrsenquiries@worcsregservices.gov.uk,Wyre Forest,http://www.worcsregservices.gov.uk,-2.16021800000000,DY10 4QN,2014-11-03,fhrs_5_en-GB,5,,FHRS,5
356954,Chester Road North,Kidderminster,Worcestershire,,Chester Road Sporting Club,Pub/bar/nightclub,7843,,,686501,,,52.38859000000000,WK/PI/000008896,153,wrsenquiries@worcsregservices.gov.uk,Wyre Forest,http://www.worcsregservices.gov.uk,-2.23351100000000,DY10 1TH,2005-05-16,fhrs_exempt_en-GB,Exempt,,FHRS,
356955,Franche Community Primary School,Chestnut Grove,Kidderminster,Worcestershire,Chestnut Children's Centre,Hospitals/Childcare/Caring Premises,5,0,,673273,0,,52.39695500000000,14/00349/FOOD,153,wrsenquiries@worcsregservices.gov.uk,Wyre Forest,http://www.worcsregservices.gov.uk,-2.26941400000000,DY11 5QB,2014-10-07,fhrs_5_en-GB,5,,FHRS,0
356956,40 Tan Lane,Stourport-On-Severn,Worcestershire,,China Chef,Takeaway/sandwich shop,7844,5,,673616,5,,52.34210100000000,WK/PI/000049812,153,wrsenquiries@worcsregservices.gov.uk,Wyre Forest,http://www.worcsregservices.gov.uk,-2.27935500000000,DY13 8HD,2013-07-10,fhrs_5_en-GB,5,,FHRS,5
356957,Bewdley Road,Kidderminster,Worcestershire,,China Lodge,Restaurant/Cafe/Canteen,1,,,673676,,,52.38668500000000,WK/PI/000051419,153,wrsenquiries@worcsregservices.gov.uk,Wyre Forest,http://www.worcsregservices.gov.uk,-2.25902200000000,DY11 6RS,,fhrs_awaitinginspection_en-GB,AwaitingInspection,,FHRS,
356958,Unit 8 Barracks Road,Sandy Lane Industrial Estate,Stourport,,Choc N Hog Catering,Mobile caterer,7846,0,,673574,5,,52.32886800000000,WK/PI/000047812,153,wrsenquiries@worcsregservices.gov.uk,Wyre Forest,http://www.worcsregservices.gov.uk,-2.26767900000000,DY13 9QB,2015-02-09,fhrs_5_en-GB,5,,FHRS,5
356959,138 Walter Nash Road East,Kidderminster,Worcestershire,,Choice Catering,Restaurant/Cafe/Canteen,1,10,,673611,10,,52.36910800000000,WK/PI/000049751,153,wrsenquiries@worcsregservices.gov.uk,Wyre Forest,http://www.worcsregservices.gov.uk,-2.27149200000000,DY11 7BY,2015-01-07,fhrs_3_en-GB,3,,FHRS,10
356960,Load Street,Bewdley,Worcestershire,,Christian Community Centre,Restaurant/Cafe/Canteen,1,10,,686581,10,,,WK/PI/000023761,153,wrsenquiries@worcsregservices.gov.uk,Wyre Forest,http://www.worcsregservices.gov.uk,,,2001-06-08,fhrs_3_en-GB,3,,FHRS,10
356961,14 Comberton Hill,Kidderminster,Worcestershire,,Chung Ying Chinese Restaurant,Restaurant/Cafe/Canteen,1,10,,673377,10,,52.38557800000000,WK/PI/000010438,153,wrsenquiries@worcsregservices.gov.uk,Wyre Forest,http://www.worcsregservices.gov.uk,-2.24275100000000,DY10 1QG,2014-11-26,fhrs_2_en-GB,2,,FHRS,15
356962,Brook Street,Kidderminster,Worcestershire,,Church House Day Nursery Ltd,Hospitals/Childcare/Caring Premises,5,0,,673359,5,,52.38755800000000,WK/PI/000006032,153,wrsenquiries@worcsregservices.gov.uk,Wyre Forest,http://www.worcsregservices.gov.uk,-2.26268600000000,DY11 6RH,2014-12-02,fhrs_5_en-GB,5,,FHRS,5
356963,Churchill Lane,Blakedown,Kidderminster,Worcestershire,Churchill & Blakedown Golf Club,Pub/bar/nightclub,7843,10,,673375,10,,52.40481500000000,WK/PI/000009633,153,wrsenquiries@worcsregservices.gov.uk,Wyre Forest,http://www.worcsregservices.gov.uk,-2.18382500000000,DY10 3NB,2013-08-09,fhrs_3_en-GB,3,,FHRS,10
356964,20 Coventry Street,Kidderminster,Worcestershire,,Cinnamon Spice,Takeaway/sandwich shop,7844,5,,673569,5,,52.38901300000000,WK/PI/000047019,153,wrsenquiries@worcsregservices.gov.uk,Wyre Forest,http://www.worcsregservices.gov.uk,-2.24650200000000,DY10 2BG,2012-03-30,fhrs_4_en-GB,4,,FHRS,10
356965,Class Catering,King Charles 1 High School,Borrington Road,Kidderminster,Class Catering @ King Charles 1 High School,School/college/university,7845,10,,686766,10,,52.38178900000000,WK/PI/000049586,153,wrsenquiries@worcsregservices.gov.uk,Wyre Forest,http://www.worcsregservices.gov.uk,-2.22627600000000,DY10 3ED,2010-09-30,fhrs_3_en-GB,3,,FHRS,5
356966,St Georges Ce Primary School And Nu,Birmingham Road,Kidderminster,Worcestershire,Class Catering @ St George's Primary School,School/college/university,7845,5,,673272,0,,52.39145800000000,14/00347/FOOD,153,wrsenquiries@worcsregservices.gov.uk,Wyre Forest,http://www.worcsregservices.gov.uk,-2.23768400000000,DY10 2BX,2013-05-09,fhrs_5_en-GB,5,,FHRS,5
356967,Victory Hall,Tenbury Road,Clows Top,Kidderminster,Clows Top Victory Hall,Other catering premises,7841,5,,686652,5,,52.34415000000000,WK/PI/000038919,153,wrsenquiries@worcsregservices.gov.uk,Wyre Forest,http://www.worcsregservices.gov.uk,-2.41928800000000,DY14 9HG,2013-05-17,fhrs_5_en-GB,5,,FHRS,5
356968,65 Oxford Street,Kidderminster,Worcestershire,,Coffee Lounge,Restaurant/Cafe/Canteen,1,5,,673250,5,,52.38626800000000,13/00261/FOOD,153,wrsenquiries@worcsregservices.gov.uk,Wyre Forest,http://www.worcsregservices.gov.uk,-2.24779500000000,DY10 1BJ,2014-01-09,fhrs_5_en-GB,5,,FHRS,0
356969,Tenbury Road,Clows Top,Kidderminster,Worcestershire,Colliers Arms,Pub/bar/nightclub,7843,5,,673498,5,,52.34837500000000,WK/PI/000038903,153,wrsenquiries@worcsregservices.gov.uk,Wyre Forest,http://www.worcsregservices.gov.uk,-2.40400200000000,DY14 9HA,2014-04-16,fhrs_5_en-GB,5,,FHRS,5
356970,197 Comberton Road,Kidderminster,Worcestershire,,Collingdale Hotel,Hotel/bed & breakfast/guest house,7842,10,,673384,5,,52.38433100000000,WK/PI/000010629,153,wrsenquiries@worcsregservices.gov.uk,Wyre Forest,http://www.worcsregservices.gov.uk,-2.23657400000000,DY10 1UE,2014-12-30,fhrs_4_en-GB,4,,FHRS,5
356971,Building 336,Droitwich Road,Rushock Trading Estate,Rushock,Cookhouse Cafe,Restaurant/Cafe/Canteen,1,10,,673479,10,,52.33534400000000,WK/PI/000033242,153,wrsenquiries@worcsregservices.gov.uk,Wyre Forest,http://www.worcsregservices.gov.uk,-2.18079200000000,WR9 0NR,2014-11-07,fhrs_3_en-GB,3,,FHRS,10
356972,Lea Lane,Cookley,Kidderminster,Worcestershire,Cookley Sports & Social Club,Pub/bar/nightclub,7843,5,,686567,5,,,WK/PI/000022366,153,wrsenquiries@worcsregservices.gov.uk,Wyre Forest,http://www.worcsregservices.gov.uk,,,2014-10-31,fhrs_5_en-GB,5,,FHRS,0
356973,3 Bridge Road,Cookley,Kidderminster,Worcestershire,Cookley Tandoori,Takeaway/sandwich shop,7844,5,,673347,5,,52.42121700000000,WK/PI/000005332,153,wrsenquiries@worcsregservices.gov.uk,Wyre Forest,http://www.worcsregservices.gov.uk,-2.23262400000000,DY10 3SA,2013-02-28,fhrs_5_en-GB,5,,FHRS,5
356974,54 Broomfield Road,Kidderminster,Worcestershire,,Coombe House Nursing Home,Hospitals/Childcare/Caring Premises,5,0,,673361,5,,52.39171900000000,WK/PI/000006332,153,wrsenquiries@worcsregservices.gov.uk,Wyre Forest,http://www.worcsregservices.gov.uk,-2.26710500000000,DY11 5PH,2013-04-26,fhrs_5_en-GB,5,,FHRS,0
356975,136 Walter Nash Road East,Kidderminster,Worcestershire,,Coppice Fish Bar,Takeaway/sandwich shop,7844,5,,673505,5,,52.36910800000000,WK/PI/000041487,153,wrsenquiries@worcsregservices.gov.uk,Wyre Forest,http://www.worcsregservices.gov.uk,-2.27149200000000,DY11 7BY,2013-04-25,fhrs_5_en-GB,5,,FHRS,5
356976,66 Walter Nash Road East,Kidderminster,Worcestershire,,Coppice Lodge,Restaurant/Cafe/Canteen,1,5,,673507,5,,52.36910800000000,WK/PI/000041549,153,wrsenquiries@worcsregservices.gov.uk,Wyre Forest,http://www.worcsregservices.gov.uk,-2.27149200000000,DY11 7BY,2013-11-25,fhrs_5_en-GB,5,,FHRS,5
356977,82 New Road,Kidderminster,Worcestershire,,Corner Cafe,Restaurant/Cafe/Canteen,1,5,,673249,5,,52.38457700000000,13/00236/FOOD,153,wrsenquiries@worcsregservices.gov.uk,Wyre Forest,http://www.worcsregservices.gov.uk,-2.24818200000000,DY10 1AE,2014-02-12,fhrs_4_en-GB,4,,FHRS,10
356978,Crossley Retail Park,Carpet Trades Way,Kidderminster,Worcestershire,Costa,Restaurant/Cafe/Canteen,1,0,,729430,5,,,14/01234/FOOD,153,wrsenquiries@worcsregservices.gov.uk,Wyre Forest,http://www.worcsregservices.gov.uk,,,2015-01-05,fhrs_5_en-GB,5,,FHRS,0
356979,Piano Building,Weavers Wharf,Kidderminster,Worcestershire,Costa,Restaurant/Cafe/Canteen,1,5,,686417,10,,52.38709900000000,13/00364/FOOD,153,wrsenquiries@worcsregservices.gov.uk,Wyre Forest,http://www.worcsregservices.gov.uk,-2.25048800000000,DY10 1AA,2014-04-04,fhrs_4_en-GB,4,,FHRS,5
356980,Riverside Amusement Park,Bridge Street,Stourport On Severn,Worcestershire,Courtney's Cafe,Restaurant/Cafe/Canteen,1,0,,686797,5,,52.33817600000000,WK/PI/000050529,153,wrsenquiries@worcsregservices.gov.uk,Wyre Forest,http://www.worcsregservices.gov.uk,-2.28170800000000,DY13 8UY,2010-08-02,fhrs_5_en-GB,5,,FHRS,5
356981,Cleobury Road,Bewdley,Worcestershire,,Courtyard Cafe,Restaurant/Cafe/Canteen,1,5,,673561,5,,52.36978500000000,WK/PI/000046787,153,wrsenquiries@worcsregservices.gov.uk,Wyre Forest,http://www.worcsregservices.gov.uk,-2.33999800000000,DY12 2QL,2014-05-27,fhrs_5_en-GB,5,,FHRS,5
356982,41 Birmingham Road,Blakedown,Kidderminster,Worcestershire,Crumbs,Takeaway/sandwich shop,7844,5,,673291,10,,52.40402400000000,14/00696/FOOD,153,wrsenquiries@worcsregservices.gov.uk,Wyre Forest,http://www.worcsregservices.gov.uk,-2.17788400000000,DY10 3JW,2013-11-07,fhrs_4_en-GB,4,,FHRS,5
356983,Sebastian Coe Health Centre,Ramada Kidderminster,Habberley Road,Bewdley,Cuba Coffee Lounge,Restaurant/Cafe/Canteen,1,10,,673669,5,,,WK/PI/000051072,153,wrsenquiries@worcsregservices.gov.uk,Wyre Forest,http://www.worcsregservices.gov.uk,,,2014-04-03,fhrs_4_en-GB,4,,FHRS,5
356984,Birchen Coppice Primary School,Woodbury Road,Kidderminster,Worcestershire,Cygnet Foods @ Birchen Coppice Primary School,School/college/university,7845,5,,698480,10,,52.37074500000000,14/00958/FOOD,153,wrsenquiries@worcsregservices.gov.uk,Wyre Forest,http://www.worcsregservices.gov.uk,-2.27122300000000,DY11 7JJ,2014-05-16,fhrs_4_en-GB,4,,FHRS,5
356985,182 Franche Road,Kidderminster,Worcestershire,,Deerhurst Day Nursery,Hospitals/Childcare/Caring Premises,5,5,,673394,5,,52.39237900000000,WK/PI/000014791,153,wrsenquiries@worcsregservices.gov.uk,Wyre Forest,http://www.worcsregservices.gov.uk,-2.26137800000000,DY11 5AD,2015-01-06,fhrs_5_en-GB,5,,FHRS,5
356986,7 High Street,Stourport On Severn,Worcestershire,,Delicia Does,Retailers - other,4613,10,,686420,10,,52.34046800000000,14/00001/FOOD,153,wrsenquiries@worcsregservices.gov.uk,Wyre Forest,http://www.worcsregservices.gov.uk,-2.27793600000000,DY13 8DH,2014-02-05,fhrs_3_en-GB,3,,FHRS,10
356987,The Dog Inn,Worcester Road,Harvington,Kidderminster,Dog Inn,Pub/bar/nightclub,7843,5,,673530,5,,52.37159100000000,WK/PI/000045486,153,wrsenquiries@worcsregservices.gov.uk,Wyre Forest,http://www.worcsregservices.gov.uk,-2.18728600000000,DY10 4LN,2010-03-03,fhrs_5_en-GB,5,,FHRS,5
356988,Dominos Pizza,2 Tower Buildings,Blackwell Street,Kidderminster,Domino's Pizzas,Takeaway/sandwich shop,7844,0,,673563,5,,52.38921800000000,WK/PI/000046847,153,wrsenquiries@worcsregservices.gov.uk,Wyre Forest,http://www.worcsregservices.gov.uk,-2.24720900000000,DY10 2DY,2014-12-01,fhrs_5_en-GB,5,,FHRS,5
356989,9 Vale Road,Stourport-On-Severn,Worcestershire,,Dorrells Cafe,Restaurant/Cafe/Canteen,1,10,,673504,5,,52.34179300000000,WK/PI/000041095,153,wrsenquiries@worcsregservices.gov.uk,Wyre Forest,http://www.worcsregservices.gov.uk,-2.27649100000000,DY13 8YJ,2014-04-15,fhrs_4_en-GB,4,,FHRS,5
356990,26 New Road,Kidderminster,Worcestershire,,Dragon Palace,Takeaway/sandwich shop,7844,10,,673560,15,,52.38455100000000,WK/PI/000046778,153,wrsenquiries@worcsregservices.gov.uk,Wyre Forest,http://www.worcsregservices.gov.uk,-2.24780000000000,DY10 1AF,2013-03-13,fhrs_2_en-GB,2,,FHRS,5
356991,Sladd Lane,Wolverley,Kidderminster,Worcestershire,Drakelow Manor Guest House,Restaurant/Cafe/Canteen,1,5,,673581,0,,52.41928500000000,WK/PI/000048451,153,wrsenquiries@worcsregservices.gov.uk,Wyre Forest,http://www.worcsregservices.gov.uk,-2.26993300000000,DY11 5TF,2009-09-20,fhrs_5_en-GB,5,,FHRS,0
356992,Callow Hill,Rock,Kidderminster,Worcestershire,Duke William,Pub/bar/nightclub,7843,0,,673365,5,,52.36199100000000,WK/PI/000007269,153,wrsenquiries@worcsregservices.gov.uk,Wyre Forest,http://www.worcsregservices.gov.uk,-2.36979300000000,DY14 9XH,2014-09-17,fhrs_5_en-GB,5,,FHRS,0
356993,Coventry Street,Kidderminster,Worcestershire,,Edward Parry Centre,Hospitals/Childcare/Caring Premises,5,5,,673388,5,,,WK/PI/000011408,153,wrsenquiries@worcsregservices.gov.uk,Wyre Forest,http://www.worcsregservices.gov.uk,,DY10 2BO,2010-01-28,fhrs_4_en-GB,4,,FHRS,10
356994,37 Comberton Hill,Kidderminster,Worcestershire,,Emperor Take-Away,Takeaway/sandwich shop,7844,10,,673640,10,,52.38524000000000,WK/PI/000050247,153,wrsenquiries@worcsregservices.gov.uk,Wyre Forest,http://www.worcsregservices.gov.uk,-2.24075100000000,DY10 1QN,2014-11-26,fhrs_2_en-GB,2,,FHRS,15
356995,19 Stourbridge Road,Kidderminster,Worcestershire,,Eurasia,Takeaway/sandwich shop,7844,5,,673558,10,,52.39374300000000,WK/PI/000046743,153,wrsenquiries@worcsregservices.gov.uk,Wyre Forest,http://www.worcsregservices.gov.uk,-2.24575000000000,DY10 2PN,2014-11-11,fhrs_4_en-GB,4,,FHRS,5
356996,Unit E,Crossley Retail Park,Carpet Trades Way,Kidderminster,Eurest,Restaurant/Cafe/Canteen,1,10,,686789,10,,52.39055700000000,WK/PI/000050174,153,wrsenquiries@worcsregservices.gov.uk,Wyre Forest,http://www.worcsregservices.gov.uk,-2.25587100000000,DY11 6DY,2014-11-17,fhrs_3_en-GB,3,,FHRS,10
356997,144 Chester Road South,Kidderminster,Worcestershire,,Fairmont Residential Ltd,Hospitals/Childcare/Caring Premises,5,0,,686503,5,,52.38299200000000,WK/PI/000008947,153,wrsenquiries@worcsregservices.gov.uk,Wyre Forest,http://www.worcsregservices.gov.uk,-2.23655200000000,DY10 1XB,2010-11-30,fhrs_5_en-GB,5,,FHRS,0
356998,Unit 3,Meadow Mills Industrial Estate,Dixon Street,Kidderminster,Fantastico,Restaurant/Cafe/Canteen,1,10,,673276,10,,52.38281000000000,14/00361/FOOD,153,wrsenquiries@worcsregservices.gov.uk,Wyre Forest,http://www.worcsregservices.gov.uk,-2.24635000000000,DY10 1HH,2014-03-17,fhrs_3_en-GB,3,,FHRS,10
356999,Ce Primary School,New Road,Rock,Kidderminster,Far Forest Lea Memorial,School/college/university,7845,5,,673464,5,,52.37004400000000,WK/PI/000027879,153,wrsenquiries@worcsregservices.gov.uk,Wyre Forest,http://www.worcsregservices.gov.uk,-2.39809000000000,DY14 9TQ,2013-12-23,fhrs_5_en-GB,5,,FHRS,5
357000,Sports & Community Hall,Callow Hill,Rock,Kidderminster,Far Forest Society,Other catering premises,7841,5,,673576,5,,52.36345300000000,WK/PI/000048251,153,wrsenquiries@worcsregservices.gov.uk,Wyre Forest,http://www.worcsregservices.gov.uk,-2.38462300000000,DY14 9DB,2013-07-10,fhrs_5_en-GB,5,,FHRS,0
357001,The Cottage,133 Lea Lane,Cookley,Kidderminster,Fat Duck Spuds,Mobile caterer,7846,10,,686416,5,,52.41964300000000,13/00345/FOOD,153,wrsenquiries@worcsregservices.gov.uk,Wyre Forest,http://www.worcsregservices.gov.uk,-2.23260100000000,DY10 3TA,2013-12-01,fhrs_4_en-GB,4,,FHRS,5
357002,38 Walter Nash Road East,Kidderminster,Worcestershire,,Favor House,Restaurant/Cafe/Canteen,1,0,,673506,0,,52.36911200000000,WK/PI/000041516,153,wrsenquiries@worcsregservices.gov.uk,Wyre Forest,http://www.worcsregservices.gov.uk,-2.26570500000000,DY11 7BT,2013-10-30,fhrs_5_en-GB,5,,FHRS,5
357003,Lister Road,Kidderminster,Worcestershire,,First Class Nursery,Hospitals/Childcare/Caring Premises,5,5,,673542,5,,52.37746900000000,WK/PI/000046466,153,wrsenquiries@worcsregservices.gov.uk,Wyre Forest,http://www.worcsregservices.gov.uk,-2.26748900000000,DY11 6NN,2014-04-11,fhrs_5_en-GB,5,,FHRS,5
357004,82 Stourport Road,Kidderminster,Worcestershire,,Foley Fish Bar,Takeaway/sandwich shop,7844,5,,673495,5,,52.37521100000000,WK/PI/000037720,153,wrsenquiries@worcsregservices.gov.uk,Wyre Forest,http://www.worcsregservices.gov.uk,-2.25995400000000,DY11 7BQ,2014-10-21,fhrs_5_en-GB,5,,FHRS,5
357005,13 Severn Grove,Kidderminster,Worcestershire,,Fortune,Takeaway/sandwich shop,7844,10,,673480,5,,52.37324600000000,WK/PI/000034118,153,wrsenquiries@worcsregservices.gov.uk,Wyre Forest,http://www.worcsregservices.gov.uk,-2.27029800000000,DY11 7NT,2013-10-04,fhrs_4_en-GB,4,,FHRS,5
357006,47 Mill Street,Kidderminster,Worcestershire,,Fortune Court,Restaurant/Cafe/Canteen,1,5,,673459,5,,52.38933300000000,WK/PI/000027011,153,wrsenquiries@worcsregservices.gov.uk,Wyre Forest,http://www.worcsregservices.gov.uk,-2.25656900000000,DY11 6XB,2012-07-04,fhrs_5_en-GB,5,,FHRS,5
357007,5 Mill Lane,Wolverley,Kidderminster,Worcestershire,Foxwood,Restaurant/Cafe/Canteen,1,5,,673599,5,,52.40893300000000,WK/PI/000049277,153,wrsenquiries@worcsregservices.gov.uk,Wyre Forest,http://www.worcsregservices.gov.uk,-2.25600700000000,DY11 5TR,2013-06-03,fhrs_5_en-GB,5,,FHRS,5
357008,Unit 21B,John Samuel Building,Arthur Drive,Hoo Farm Industrial Estate,Fozzy's Cafe,Restaurant/Cafe/Canteen,1,10,,729435,5,,52.36606600000000,15/00018/FOOD,153,wrsenquiries@worcsregservices.gov.uk,Wyre Forest,http://www.worcsregservices.gov.uk,-2.24401000000000,DY11 7RA,2015-01-06,fhrs_3_en-GB,3,,FHRS,10
357009,Primary School,Chestnut Grove,Kidderminster,Worcestershire,Franche 726 Childcare,School/college/university,7845,5,,673655,5,,52.39695500000000,WK/PI/000050781,153,wrsenquiries@worcsregservices.gov.uk,Wyre Forest,http://www.worcsregservices.gov.uk,-2.26941400000000,DY11 5QB,2014-10-03,fhrs_5_en-GB,5,,FHRS,0
357010,Park End,Bewdley,Worcestershire,,Frank Chapman Centre,School/college/university,7845,0,,673468,0,,52.35959500000000,WK/PI/000029523,153,wrsenquiries@worcsregservices.gov.uk,Wyre Forest,http://www.worcsregservices.gov.uk,-2.34453100000000,DY12 2TY,2014-09-10,fhrs_5_en-GB,5,,FHRS,0
357011,The Pump House,Weavers Wharf,Kidderminster,Worcestershire,Frankie And Benny's,Restaurant/Cafe/Canteen,1,5,,673512,5,,52.38709900000000,WK/PI/000042231,153,wrsenquiries@worcsregservices.gov.uk,Wyre Forest,http://www.worcsregservices.gov.uk,-2.25048800000000,DY10 1AA,2014-04-17,fhrs_5_en-GB,5,,FHRS,5
357012,2A Load Street,Bewdley,Worcestershire,,Fresh Bites,Takeaway/sandwich shop,7844,5,,673295,5,,52.37585200000000,14/00758/FOOD,153,wrsenquiries@worcsregservices.gov.uk,Wyre Forest,http://www.worcsregservices.gov.uk,-2.31457300000000,DY12 2AF,2014-04-16,fhrs_4_en-GB,4,,FHRS,10
357013,34 Lombard Street,Stourport-On-Severn,Worcestershire,,Froggies,Restaurant/Cafe/Canteen,1,0,,673648,0,,52.34220500000000,WK/PI/000050591,153,wrsenquiries@worcsregservices.gov.uk,Wyre Forest,http://www.worcsregservices.gov.uk,-2.27736000000000,DY13 8DU,2014-07-17,fhrs_5_en-GB,5,,FHRS,5
357014,Worcestershire Caravan Sales,Nelson Road,Sandy Lane Industrial Estate,Stourport On Severn,Frying Pans,Mobile caterer,7846,10,,686410,5,,,13/00037/FOOD,153,wrsenquiries@worcsregservices.gov.uk,Wyre Forest,http://www.worcsregservices.gov.uk,,,2013-12-11,fhrs_4_en-GB,4,,FHRS,5
357015,Bewdley Hill,Kidderminster,Worcestershire,,Gainsborough House Hotel,Hotel/bed & breakfast/guest house,7842,5,,673590,10,,52.38478400000000,WK/PI/000048825,153,wrsenquiries@worcsregservices.gov.uk,Wyre Forest,http://www.worcsregservices.gov.uk,-2.26496200000000,DY11 6BS,2014-11-24,fhrs_4_en-GB,4,,FHRS,5
357016,93-94 Coventry Street,Kidderminster,Worcestershire,,Gainsborough Studio Bakery,Manufacturers/packers,7839,5,,729436,5,,52.38870700000000,WK/PI/000051175,153,wrsenquiries@worcsregservices.gov.uk,Wyre Forest,http://www.worcsregservices.gov.uk,-2.24676500000000,DY10 2BH,2015-01-05,fhrs_4_en-GB,4,,FHRS,10
357017,Function Room,Zortech Avenue,Kidderminster,Worcestershire,Gilt Edge Leisure Centre,Retailers - other,4613,5,,673566,5,,52.35895000000000,WK/PI/000046978,153,wrsenquiries@worcsregservices.gov.uk,Wyre Forest,http://www.worcsregservices.gov.uk,-2.27483600000000,DY11 7DY,2014-04-10,fhrs_5_en-GB,5,,FHRS,5
357018,2 Parkes Passage,Stourport On Severn,Worcestershire,,Gingers Cafe And Coffee Lounge,Restaurant/Cafe/Canteen,1,5,,673268,5,,52.33998200000000,14/00327/FOOD,153,wrsenquiries@worcsregservices.gov.uk,Wyre Forest,http://www.worcsregservices.gov.uk,-2.27818200000000,DY13 9EA,2014-02-21,fhrs_5_en-GB,5,,FHRS,5
357019,43 Load Street,Bewdley,Worcestershire,,Golden Country,Takeaway/sandwich shop,7844,10,,673435,10,,52.37561300000000,WK/PI/000023655,153,wrsenquiries@worcsregservices.gov.uk,Wyre Forest,http://www.worcsregservices.gov.uk,-2.31632000000000,DY12 2AP,2013-08-15,fhrs_3_en-GB,3,,FHRS,10
357020,Shenstone House,Shenstone,Kidderminster,Worcestershire,Golden Nest Care Homes Ltd,Hospitals/Childcare/Caring Premises,5,10,,673620,5,,52.35849700000000,WK/PI/000049845,153,wrsenquiries@worcsregservices.gov.uk,Wyre Forest,http://www.worcsregservices.gov.uk,-2.20071000000000,DY10 4DH,2013-10-02,fhrs_4_en-GB,4,,FHRS,0
357021,42 Mill Street,Kidderminster,Worcestershire,,Golden Wok,Takeaway/sandwich shop,7844,5,,673628,10,,52.38933300000000,WK/PI/000049969,153,wrsenquiries@worcsregservices.gov.uk,Wyre Forest,http://www.worcsregservices.gov.uk,-2.25656900000000,DY11 6XB,2014-11-11,fhrs_4_en-GB,4,,FHRS,5
357022,15 Bridge Street,Stourport On Severn,Stourport-on-severn,Worcestershire,Goodfellows Pizza,Takeaway/sandwich shop,7844,10,,673277,15,,52.33866000000000,14/00366/FOOD,153,wrsenquiries@worcsregservices.gov.uk,Wyre Forest,http://www.worcsregservices.gov.uk,-2.28210700000000,DY13 8UX,2014-11-26,fhrs_2_en-GB,2,,FHRS,15
357023,19A Comberton Hill,Kidderminster,Worcestershire,,Gourmets,Takeaway/sandwich shop,7844,5,,673378,5,,52.38524000000000,WK/PI/000010445,153,wrsenquiries@worcsregservices.gov.uk,Wyre Forest,http://www.worcsregservices.gov.uk,-2.24075100000000,DY10 1QN,2011-05-04,fhrs_5_en-GB,5,,FHRS,5
357024,19 Bull Ring,Kidderminster,Worcestershire,,Greggs,Takeaway/sandwich shop,7844,5,,673671,5,,52.38830700000000,WK/PI/000051098,153,wrsenquiries@worcsregservices.gov.uk,Wyre Forest,http://www.worcsregservices.gov.uk,-2.24896700000000,DY10 2AZ,2013-07-03,fhrs_5_en-GB,5,,FHRS,5
357025,Unit 6 Weavers Wharf,Kidderminster,Worcestershire,,Greggs,Takeaway/sandwich shop,7844,0,,673515,5,,52.38709900000000,WK/PI/000042250,153,wrsenquiries@worcsregservices.gov.uk,Wyre Forest,http://www.worcsregservices.gov.uk,-2.25048800000000,DY10 1AA,2013-05-15,fhrs_5_en-GB,5,,FHRS,0
357026,98 Canterbury Road,Kidderminster,Worcestershire,,Habberley Fish Bar,Takeaway/sandwich shop,7844,5,,673367,10,,52.38684100000000,WK/PI/000007477,153,wrsenquiries@worcsregservices.gov.uk,Wyre Forest,http://www.worcsregservices.gov.uk,-2.27722800000000,DY11 6DH,2014-12-15,fhrs_4_en-GB,4,,FHRS,5
357027,Low Habberley,Kidderminster,Worcestershire,,Habberley Golf Club,Restaurant/Cafe/Canteen,1,5,,673446,5,,52.40104900000000,WK/PI/000024471,153,wrsenquiries@worcsregservices.gov.uk,Wyre Forest,http://www.worcsregservices.gov.uk,-2.29078000000000,DY11 5RF,2013-10-11,fhrs_4_en-GB,4,,FHRS,10
357028,Truro Drive,Kidderminster,Worcestershire,,Habberley Tenants Ass Club,Pub/bar/nightclub,7843,10,,673503,10,,52.38641300000000,WK/PI/000040782,153,wrsenquiries@worcsregservices.gov.uk,Wyre Forest,http://www.worcsregservices.gov.uk,-2.27982600000000,DY11 6DN,2014-09-16,fhrs_3_en-GB,3,,FHRS,5
357029,Northumberland House,437-438 Stourport Road,Kidderminster,Worcestershire,Happy Hearts Childcare,Hospitals/Childcare/Caring Premises,5,10,,673234,5,,52.37607600000000,13/00035/FOOD,153,wrsenquiries@worcsregservices.gov.uk,Wyre Forest,http://www.worcsregservices.gov.uk,-2.25919500000000,DY11 7BL,2014-05-20,fhrs_4_en-GB,4,,FHRS,5
357030,Happy Sole (Fish & Chips),14 Bridge Street,Stourport-On-Severn,Worcestershire,Happy Sole,Takeaway/sandwich shop,7844,10,,673352,10,,52.33866000000000,WK/PI/000005374,153,wrsenquiries@worcsregservices.gov.uk,Wyre Forest,http://www.worcsregservices.gov.uk,-2.28210700000000,DY13 8UX,2014-04-14,fhrs_3_en-GB,3,,FHRS,10
357031,Station Road,Arley,Bewdley,Worcestershire,Harbour Inn,Pub/bar/nightclub,7843,0,,673326,5,,52.41702100000000,WK/PI/000001048,153,wrsenquiries@worcsregservices.gov.uk,Wyre Forest,http://www.worcsregservices.gov.uk,-2.34846300000000,DY12 3NF,2012-09-11,fhrs_5_en-GB,5,,FHRS,5
357032,Harvington Hall Lane,Harvington,Kidderminster,Worcestershire,Harvington Hall,Restaurant/Cafe/Canteen,1,10,,673405,5,,52.36737700000000,WK/PI/000017242,153,wrsenquiries@worcsregservices.gov.uk,Wyre Forest,http://www.worcsregservices.gov.uk,-2.18032100000000,DY10 4LR,2013-05-23,fhrs_4_en-GB,4,,FHRS,5
357033,Wolverley Road,Wolverley,Kidderminster,Worcestershire,Heathfield School,School/college/university,7845,0,,673525,5,,52.40761300000000,WK/PI/000044263,153,wrsenquiries@worcsregservices.gov.uk,Wyre Forest,http://www.worcsregservices.gov.uk,-2.24265200000000,DY10 3QE,2012-10-05,fhrs_5_en-GB,5,,FHRS,0
357034,Hernes Nest,Bewdley,Worcestershire,,Hernes Nest House,Hospitals/Childcare/Caring Premises,5,5,,673406,5,,52.37165600000000,WK/PI/000018082,153,wrsenquiries@worcsregservices.gov.uk,Wyre Forest,http://www.worcsregservices.gov.uk,-2.32037500000000,DY12 2ET,2014-08-19,fhrs_5_en-GB,5,,FHRS,0
357035,The Herons Nursing Home,Heronswood Road,Kidderminster,Worcestershire,Herons Park Nursing Home,Hospitals/Childcare/Caring Premises,5,10,,673407,10,,52.37054900000000,WK/PI/000018085,153,wrsenquiries@worcsregservices.gov.uk,Wyre Forest,http://www.worcsregservices.gov.uk,-2.23213800000000,DY10 4EX,2014-12-29,fhrs_3_en-GB,3,,FHRS,10
357036,8 Warbler Place,Kidderminster,Worcestershire,,Hickory Dickory Dock Day Nursery,Restaurant/Cafe/Canteen,1,0,,673511,10,,52.37040400000000,WK/PI/000041791,153,wrsenquiries@worcsregservices.gov.uk,Wyre Forest,http://www.worcsregservices.gov.uk,-2.23319400000000,DY10 4DZ,2013-11-25,fhrs_4_en-GB,4,,FHRS,0
357037,22 High Street,Stourport On Severn,Stourport-on-severn,Worcestershire,High Street Eatery,Other catering premises,7841,5,,673260,0,,52.33978200000000,13/00436/FOOD,153,wrsenquiries@worcsregservices.gov.uk,Wyre Forest,http://www.worcsregservices.gov.uk,-2.27932600000000,DY13 8BJ,2014-02-17,fhrs_5_en-GB,5,,FHRS,0
357038,Hodge Hill Nurseries,Birmingham Road,Kidderminster,Worcestershire,Hodge Hill Deli And Cafe,Restaurant/Cafe/Canteen,1,5,,673264,10,,52.39383700000000,14/00027/FOOD,153,wrsenquiries@worcsregservices.gov.uk,Wyre Forest,http://www.worcsregservices.gov.uk,-2.21124500000000,DY10 3NR,2014-11-18,fhrs_4_en-GB,4,,FHRS,5
357039,Dan Jackson (Butcher),Hodgehill Nursery,Birmingham Road,Kidderminster,Hodgehill Butchery,Retailers - other,4613,5,,673622,5,,52.39383700000000,WK/PI/000049876,153,wrsenquiries@worcsregservices.gov.uk,Wyre Forest,http://www.worcsregservices.gov.uk,-2.21124500000000,DY10 3NR,2015-01-19,fhrs_5_en-GB,5,,FHRS,5
357040,Habberley Road,Kidderminster,Worcestershire,,Hollyfields Care Home,Hospitals/Childcare/Caring Premises,5,0,,673402,5,,52.39137100000000,WK/PI/000016728,153,wrsenquiries@worcsregservices.gov.uk,Wyre Forest,http://www.worcsregservices.gov.uk,-2.28536800000000,DY11 5RJ,2012-12-11,fhrs_5_en-GB,5,,FHRS,0
357041,66 Blackwell Street,Kidderminster,Worcestershire,,Hollywood Pizza,Takeaway/sandwich shop,7844,10,,673572,10,,52.39140400000000,WK/PI/000047125,153,wrsenquiries@worcsregservices.gov.uk,Wyre Forest,http://www.worcsregservices.gov.uk,-2.24648600000000,DY10 2EL,2014-07-29,fhrs_3_en-GB,3,,FHRS,10
357042,30 Chaddesley Road,Kidderminster,Worcestershire,,Holmwood Care Centre,Hospitals/Childcare/Caring Premises,5,10,,673385,5,,52.38459000000000,WK/PI/000010645,153,wrsenquiries@worcsregservices.gov.uk,Wyre Forest,http://www.worcsregservices.gov.uk,-2.23310700000000,DY10 3DJ,2014-08-20,fhrs_4_en-GB,4,,FHRS,5
357043,Unit B 112 Tennyson Way,Kidderminster,Worcestershire,,Hong Kong Kitchen,Takeaway/sandwich shop,7844,5,,673605,10,,52.38936800000000,WK/PI/000049457,153,wrsenquiries@worcsregservices.gov.uk,Wyre Forest,http://www.worcsregservices.gov.uk,-2.22152400000000,DY10 3YT,2014-12-29,fhrs_4_en-GB,4,,FHRS,5
357044,Matthew Lane,"Hoo Farm Industrial Estate, Worcest",Kidderminster,Worcestershire,Hoo Farm Cafe,Restaurant/Cafe/Canteen,1,5,,673633,10,,52.36606600000000,WK/PI/000050073,153,wrsenquiries@worcsregservices.gov.uk,Wyre Forest,http://www.worcsregservices.gov.uk,-2.24401000000000,DY11 7RA,2015-01-07,fhrs_4_en-GB,4,,FHRS,5
357045,Cleobury Road,Bewdley,Worcestershire,,Hop Pole Inn,Pub/bar/nightclub,7843,0,,673539,0,,,WK/PI/000046414,153,wrsenquiries@worcsregservices.gov.uk,Wyre Forest,http://www.worcsregservices.gov.uk,,DY12 2HQ,2012-02-14,fhrs_5_en-GB,5,,FHRS,5
357046,15-16 Dog Lane,Bewdley,Worcestershire,,Horn & Trumpet,Pub/bar/nightclub,7843,5,,673389,10,,52.37575400000000,WK/PI/000011930,153,wrsenquiries@worcsregservices.gov.uk,Wyre Forest,http://www.worcsregservices.gov.uk,-2.31759900000000,DY12 2EH,2013-10-28,fhrs_4_en-GB,4,,FHRS,5
357047,6 Dudley Street,Kidderminster,Worcestershire,,Horsefair Fish Bar,Takeaway/sandwich shop,7844,20,,673610,10,,52.39179900000000,WK/PI/000049589,153,wrsenquiries@worcsregservices.gov.uk,Wyre Forest,http://www.worcsregservices.gov.uk,-2.24685600000000,DY10 2JJ,2014-08-05,fhrs_1_en-GB,1,,FHRS,20
357048,Wribbenhall Community Centre,Shaw Hedge Road,Bewdley,Worcestershire,In-B-Tweenies,Restaurant/Cafe/Canteen,1,0,,673586,5,,52.38334900000000,WK/PI/000048785,153,wrsenquiries@worcsregservices.gov.uk,Wyre Forest,http://www.worcsregservices.gov.uk,-2.30794200000000,DY12 1EU,2013-06-17,fhrs_5_en-GB,5,,FHRS,0
357049,B And Q,Green Street,Kidderminster,Worcestershire,Interserve/Autograph,Restaurant/Cafe/Canteen,1,0,,703233,0,,52.38120800000000,14/00915/FOOD,153,wrsenquiries@worcsregservices.gov.uk,Wyre Forest,http://www.worcsregservices.gov.uk,-2.24712000000000,DY10 1AX,2014-08-07,fhrs_5_en-GB,5,,FHRS,0
357050,Albert Road,Kidderminster,Worcestershire,,Isabelles,Manufacturers/packers,7839,10,,673254,10,,52.38860100000000,13/00319/FOOD,153,wrsenquiries@worcsregservices.gov.uk,Wyre Forest,http://www.worcsregservices.gov.uk,-2.23715500000000,DY10 1SP,2014-01-17,fhrs_3_en-GB,3,,FHRS,10
357051,Wolverhampton Road,Cookley,Kidderminster,Worcestershire,Island Pool,Pub/bar/nightclub,7843,0,,673271,5,,52.42064400000000,14/00344/FOOD,153,wrsenquiries@worcsregservices.gov.uk,Wyre Forest,http://www.worcsregservices.gov.uk,-2.21703500000000,DY10 3RX,2014-10-22,fhrs_5_en-GB,5,,FHRS,5
357052,8 Elm Grove,Stourport-On-Severn,Worcestershire,,J P Agencies,Other catering premises,7841,5,,673346,10,,52.32337200000000,WK/PI/000005229,153,wrsenquiries@worcsregservices.gov.uk,Wyre Forest,http://www.worcsregservices.gov.uk,-2.29533200000000,DY13 0NT,2010-06-16,fhrs_3_en-GB,3,,FHRS,10
357053,George Hotel,64 Load Street,Bewdley,Worcestershire,JD Wetherspoon,Restaurant/Cafe/Canteen,1,5,,673588,5,,52.37607500000000,WK/PI/000048803,153,wrsenquiries@worcsregservices.gov.uk,Wyre Forest,http://www.worcsregservices.gov.uk,-2.31501600000000,DY12 2AW,2014-08-19,fhrs_5_en-GB,5,,FHRS,5
357054,The Village,Chaddesley Corbett,Kidderminster,Worcestershire,Jukes' Tea Room,Restaurant/Cafe/Canteen,1,5,,673258,5,,52.36054700000000,13/00406/FOOD,153,wrsenquiries@worcsregservices.gov.uk,Wyre Forest,http://www.worcsregservices.gov.uk,-2.15954400000000,DY10 4SA,2013-10-14,fhrs_5_en-GB,5,,FHRS,5
357055,Habberley Road,Kidderminster,Worcestershire,,Jupiter Hotel,Hotel/bed & breakfast/guest house,7842,5,,673278,5,,,14/00388/FOOD,153,wrsenquiries@worcsregservices.gov.uk,Wyre Forest,http://www.worcsregservices.gov.uk,,,2014-04-22,fhrs_5_en-GB,5,,FHRS,5
357056,Unit A,Steve Morris Building,Stadium Close,Kidderminster,Just Play,Hospitals/Childcare/Caring Premises,5,10,,673242,10,,52.38302800000000,13/00096/FOOD,153,wrsenquiries@worcsregservices.gov.uk,Wyre Forest,http://www.worcsregservices.gov.uk,-2.24112100000000,DY10 1NJ,2013-08-28,fhrs_3_en-GB,3,,FHRS,10
357057,Old Waggon And Horses Inn,89-91 Kidderminster Road,Bewdley,Worcestershire,Karina's Kitchen,Pub/bar/nightclub,7843,5,,698482,10,,52.38007300000000,14/01018/FOOD,153,wrsenquiries@worcsregservices.gov.uk,Wyre Forest,http://www.worcsregservices.gov.uk,-2.30223400000000,DY12 1DG,2014-08-14,fhrs_3_en-GB,3,,FHRS,10
357058,Redhill,Bewdley,Worcestershire,,Kateshill House B&B,Hotel/bed & breakfast/guest house,7842,5,,686702,5,,,WK/PI/000046496,153,wrsenquiries@worcsregservices.gov.uk,Wyre Forest,http://www.worcsregservices.gov.uk,,,2013-05-01,fhrs_5_en-GB,5,,FHRS,5
357059,2 Dudley Street,Kidderminster,Worcestershire,,Kaths Diner,Restaurant/Cafe/Canteen,1,5,,673240,10,,52.39179900000000,13/00057/FOOD,153,wrsenquiries@worcsregservices.gov.uk,Wyre Forest,http://www.worcsregservices.gov.uk,-2.24685600000000,DY10 2JJ,2015-01-20,fhrs_3_en-GB,3,,FHRS,10
357060,41 Mason Road,Kidderminster,Worcestershire,,Kemp Hospice,Hospitals/Childcare/Caring Premises,5,0,,673543,0,,52.39048500000000,WK/PI/000046475,153,wrsenquiries@worcsregservices.gov.uk,Wyre Forest,http://www.worcsregservices.gov.uk,-2.26402600000000,DY11 6AG,2014-09-15,fhrs_5_en-GB,5,,FHRS,0
357061,KFC 32-33 Comberton Hill,Kidderminster,Worcestershire,,KFC,Restaurant/Cafe/Canteen,1,0,,673632,5,,52.38524000000000,WK/PI/000050022,153,wrsenquiries@worcsregservices.gov.uk,Wyre Forest,http://www.worcsregservices.gov.uk,-2.24075100000000,DY10 1QN,2013-05-28,fhrs_5_en-GB,5,,FHRS,0
357062,Social And Supporters Club,Stadium Close,Aggborough,Kidderminster,Kidd Harriers,Pub/bar/nightclub,7843,5,,673489,5,,,WK/PI/000036422,153,wrsenquiries@worcsregservices.gov.uk,Wyre Forest,http://www.worcsregservices.gov.uk,,,2012-01-25,fhrs_4_en-GB,4,,FHRS,10
357063,Russell Road,Kidderminster,Worcestershire,,Kidderminster Golf Club,Pub/bar/nightclub,7843,10,,673292,10,,52.38006000000000,14/00718/FOOD,153,wrsenquiries@worcsregservices.gov.uk,Wyre Forest,http://www.worcsregservices.gov.uk,-2.23731500000000,DY10 3HS,2014-03-27,fhrs_3_en-GB,3,,FHRS,5
357064,Hoo Road,Kidderminster,Worcestershire,,Kidderminster Harriers Fooball Club,Pub/bar/nightclub,7843,10,,673411,0,,52.38144100000000,WK/PI/000019272,153,wrsenquiries@worcsregservices.gov.uk,Wyre Forest,http://www.worcsregservices.gov.uk,-2.24337500000000,DY10 1NB,2012-03-30,fhrs_4_en-GB,4,,FHRS,0
357065,Kidderminster Hospital,Bewdley Road,Kidderminster,Worcestershire,Kidderminster Hosp League Of Friends,Restaurant/Cafe/Canteen,1,5,,673336,5,,52.38517800000000,WK/PI/000003626,153,wrsenquiries@worcsregservices.gov.uk,Wyre Forest,http://www.worcsregservices.gov.uk,-2.26135000000000,DY11 6RJ,2013-04-08,fhrs_5_en-GB,5,,FHRS,5
357066,Main Kitchen,Kidderminster Hospital,Bewdley Road,Kidderminster,Kidderminster Hospital,Hospitals/Childcare/Caring Premises,5,10,,673335,20,,52.38517800000000,WK/PI/000003622,153,wrsenquiries@worcsregservices.gov.uk,Wyre Forest,http://www.worcsregservices.gov.uk,-2.26135000000000,DY11 6RJ,2014-11-19,fhrs_1_en-GB,1,,FHRS,10
357067,The Portakabin,St John's First School,Blakebrook,Kidderminster,Kidscare Unlimited,Retailers - other,4613,0,,673565,5,,52.38804900000000,WK/PI/000046954,153,wrsenquiries@worcsregservices.gov.uk,Wyre Forest,http://www.worcsregservices.gov.uk,-2.26424700000000,DY11 6AP,2013-12-05,fhrs_5_en-GB,5,,FHRS,5
357068,24 Lister Road,Kidderminster,Worcestershire,,Kin Yip,Takeaway/sandwich shop,7844,10,,673433,10,,52.37746900000000,WK/PI/000023528,153,wrsenquiries@worcsregservices.gov.uk,Wyre Forest,http://www.worcsregservices.gov.uk,-2.26748900000000,DY11 6NN,2014-06-19,fhrs_3_en-GB,3,,FHRS,10
357069,275 Marlpool Lane,Kidderminster,Worcestershire,,Kindergarden,Restaurant/Cafe/Canteen,1,5,,673455,0,,52.39207700000000,WK/PI/000025828,153,wrsenquiries@worcsregservices.gov.uk,Wyre Forest,http://www.worcsregservices.gov.uk,-2.25986200000000,DY11 5DA,2014-04-02,fhrs_5_en-GB,5,,FHRS,5
357070,Restaurant,SVR,Comberton Hill,Kidderminster,King And Castle,Pub/bar/nightclub,7843,10,,673382,10,,52.38412600000000,WK/PI/000010513,153,wrsenquiries@worcsregservices.gov.uk,Wyre Forest,http://www.worcsregservices.gov.uk,-2.24029000000000,DY10 1QX,2014-04-15,fhrs_3_en-GB,3,,FHRS,10
357071,20 Blackwell Street,Kidderminster,Worcestershire,,King Wah Chinese Food Centre,Takeaway/sandwich shop,7844,10,,673339,10,,52.39000900000000,WK/PI/000004440,153,wrsenquiries@worcsregservices.gov.uk,Wyre Forest,http://www.worcsregservices.gov.uk,-2.24752200000000,DY10 2DU,2013-08-13,fhrs_3_en-GB,3,,FHRS,10
357072,Outdoor Market,High Street,Kidderminster,Worcestershire,Kinver Sausage Company,Mobile caterer,7846,10,,718540,15,,,14/00700/FOOD,153,wrsenquiries@worcsregservices.gov.uk,Wyre Forest,http://www.worcsregservices.gov.uk,,,2015-01-08,fhrs_2_en-GB,2,,FHRS,10
357073,Kiosks 1 & 2,Riverside Meadows,Stourport-On-Severn,,Kiosks 1 & 2,Takeaway/sandwich shop,7844,5,,673547,5,,,WK/PI/000046539,153,wrsenquiries@worcsregservices.gov.uk,Wyre Forest,http://www.worcsregservices.gov.uk,,,2011-05-19,fhrs_4_en-GB,4,,FHRS,10
357074,18 Lombard Street,Stourport-On-Severn,Worcestershire,,La Baguette,Takeaway/sandwich shop,7844,5,,673593,5,,52.34134100000000,WK/PI/000048866,153,wrsenquiries@worcsregservices.gov.uk,Wyre Forest,http://www.worcsregservices.gov.uk,-2.27756000000000,DY13 8DT,2014-10-30,fhrs_5_en-GB,5,,FHRS,5
357075,5 Lower Mill Street,Kidderminster,Worcestershire,,La Brasserie,Restaurant/Cafe/Canteen,1,0,,673449,5,,52.38808700000000,WK/PI/000024697,153,wrsenquiries@worcsregservices.gov.uk,Wyre Forest,http://www.worcsregservices.gov.uk,-2.25092000000000,DY11 6UU,2014-11-03,fhrs_5_en-GB,5,,FHRS,5
357076,Masonic Hall,11 Severn Road,Stourport-On-Severn,Worcestershire,La Brasserie (Stourport) Ltd,Other catering premises,7841,5,,686790,10,,52.33897200000000,WK/PI/000050190,153,wrsenquiries@worcsregservices.gov.uk,Wyre Forest,http://www.worcsregservices.gov.uk,-2.27597400000000,DY13 9HB,2011-10-10,fhrs_4_en-GB,4,,FHRS,5
357077,23 Comberton Hill,Kidderminster,Worcestershire,,Lai Lam,Takeaway/sandwich shop,7844,0,,673379,5,,52.38524000000000,WK/PI/000010450,153,wrsenquiries@worcsregservices.gov.uk,Wyre Forest,http://www.worcsregservices.gov.uk,-2.24075100000000,DY10 1QN,2013-08-14,fhrs_4_en-GB,4,,FHRS,10
357078,Lais Garden,76 George Street,Kidderminster,Worcestershire,Lais  Garden,Takeaway/sandwich shop,7844,10,,673398,5,,52.38661200000000,WK/PI/000015387,153,wrsenquiries@worcsregservices.gov.uk,Wyre Forest,http://www.worcsregservices.gov.uk,-2.24271300000000,DY10 1PY,2012-03-30,fhrs_3_en-GB,3,,FHRS,10
357079,19A High Street,Stourport-On-Severn,Worcestershire,,Lawrence Gough Butchers & Sons,Retailers - other,4613,5,,673409,5,,52.33978300000000,WK/PI/000018302,153,wrsenquiries@worcsregservices.gov.uk,Wyre Forest,http://www.worcsregservices.gov.uk,-2.27876800000000,DY13 8BL,2014-12-09,fhrs_5_en-GB,5,,FHRS,5
357080,25 New Road,Kidderminster,Worcestershire,,Lazio,Takeaway/sandwich shop,7844,10,,673636,15,,52.38455100000000,WK/PI/000050120,153,wrsenquiries@worcsregservices.gov.uk,Wyre Forest,http://www.worcsregservices.gov.uk,-2.24780000000000,DY10 1AF,2014-08-20,fhrs_2_en-GB,2,,FHRS,15
357081,Glenwood,Winterfold Farm,Winterfold,Chaddesley Corbett,Leave It To Me,Other catering premises,7841,5,,673607,0,,52.36347700000000,WK/PI/000049505,153,wrsenquiries@worcsregservices.gov.uk,Wyre Forest,http://www.worcsregservices.gov.uk,-2.18456400000000,DY10 4PL,2014-03-19,fhrs_5_en-GB,5,,FHRS,5
357082,4 Tudor Road,Bewdley,Worcestershire,,Leon's,Mobile caterer,7846,10,,673257,10,,52.37709000000000,13/00405/FOOD,153,wrsenquiries@worcsregservices.gov.uk,Wyre Forest,http://www.worcsregservices.gov.uk,-2.32551100000000,DY12 2BW,2014-01-20,fhrs_3_en-GB,3,,FHRS,10
357083,1 Lickhill Road North,Stourport-On-Severn,Worcestershire,,Lickhill Beef,Farmers/growers,7838,5,,673430,5,,52.34948400000000,WK/PI/000022939,153,wrsenquiries@worcsregservices.gov.uk,Wyre Forest,http://www.worcsregservices.gov.uk,-2.29698900000000,DY13 8RW,2013-04-18,fhrs_5_en-GB,5,,FHRS,5
357084,Country Club,Lye Head,Bewdley,Worcestershire,Little Lakes Caravan Site,Pub/bar/nightclub,7843,5,,673452,5,,52.35588500000000,WK/PI/000024907,153,wrsenquiries@worcsregservices.gov.uk,Wyre Forest,http://www.worcsregservices.gov.uk,-2.36134300000000,DY12 2UU,2014-04-02,fhrs_4_en-GB,4,,FHRS,10
357085,Little Lakes Shop,Lye Head,Bewdley,Worcestershire,Little Lakes Shop & Caf,Retailers - other,4613,10,,686587,5,,52.35336300000000,WK/PI/000024912,153,wrsenquiries@worcsregservices.gov.uk,Wyre Forest,http://www.worcsregservices.gov.uk,-2.35103000000000,DY12 2UZ,2010-11-15,fhrs_4_en-GB,4,,FHRS,5
357086,19 Vicarage Crescent,Kidderminster,Worcestershire,,Little Retro Kitchen,Mobile caterer,7846,5,,686435,5,,52.38245000000000,14/00655/FOOD,153,wrsenquiries@worcsregservices.gov.uk,Wyre Forest,http://www.worcsregservices.gov.uk,-2.24249900000000,DY10 1ND,2014-05-28,fhrs_5_en-GB,5,,FHRS,0
357087,The Lock Inn,Wolverley Road,Wolverley,Kidderminster,Lock Inn,Pub/bar/nightclub,7843,10,,673614,10,,52.41004300000000,WK/PI/000049810,153,wrsenquiries@worcsregservices.gov.uk,Wyre Forest,http://www.worcsregservices.gov.uk,-2.24978000000000,DY10 3RN,2013-10-11,fhrs_3_en-GB,3,,FHRS,10
357088,14 Lorne Street,Kidderminster,Worcestershire,,Lorne House,Restaurant/Cafe/Canteen,1,0,,673445,5,,52.38549200000000,WK/PI/000024284,153,wrsenquiries@worcsregservices.gov.uk,Wyre Forest,http://www.worcsregservices.gov.uk,-2.23605100000000,DY10 1SY,2013-06-26,fhrs_5_en-GB,5,,FHRS,0
357089,8/9 New Road,New Road,Kidderminster,Worcestershire,Love Food Italia,Retailers - other,4613,10,,673463,10,,52.38455100000000,WK/PI/000027742,153,wrsenquiries@worcsregservices.gov.uk,Wyre Forest,http://www.worcsregservices.gov.uk,-2.24780000000000,DY10 1AF,2013-02-12,fhrs_4_en-GB,4,,FHRS,0
357090,Howdens Joinery,Unit 2,"Hoobrook Industrial Estate, Worcest",Kidderminster,"Lucky ""7"" Diner",Mobile caterer,7846,5,,673412,10,,52.37291300000000,WK/PI/000019309,153,wrsenquiries@worcsregservices.gov.uk,Wyre Forest,http://www.worcsregservices.gov.uk,-2.25024600000000,DY10 1HY,2015-01-07,fhrs_4_en-GB,4,,FHRS,5
357091,71 Blackwell Street,Kidderminster,Worcestershire,,Lucky Star,Takeaway/sandwich shop,7844,5,,673340,5,,52.39119700000000,WK/PI/000004487,153,wrsenquiries@worcsregservices.gov.uk,Wyre Forest,http://www.worcsregservices.gov.uk,-2.24667600000000,DY10 2EF,2013-09-03,fhrs_4_en-GB,4,,FHRS,10
357092,Building 338,Droitwich Road,Rushock Trading Estate,Rushock,Macneils Smoke House Ltd,Manufacturers/packers,7839,5,,735300,0,,52.33555400000000,14/01243/FOOD,153,wrsenquiries@worcsregservices.gov.uk,Wyre Forest,http://www.worcsregservices.gov.uk,-2.18409500000000,WR9 0NR,2015-02-05,fhrs_5_en-GB,5,,FHRS,0
357093,Madinatul Uloom Al-Islamiya,Butts Lane,Stone,Kidderminster,Madinatul Uloom,School/college/university,7845,5,,673486,5,,52.36943800000000,WK/PI/000034753,153,wrsenquiries@worcsregservices.gov.uk,Wyre Forest,http://www.worcsregservices.gov.uk,-2.20628200000000,DY10 4BH,2013-06-27,fhrs_4_en-GB,4,,FHRS,10
357094,10 Bridge Street,Kidderminster,Worcestershire,,Marcos Restaurant Ltd,Restaurant/Cafe/Canteen,1,5,,673241,5,,52.38601700000000,13/00059/FOOD,153,wrsenquiries@worcsregservices.gov.uk,Wyre Forest,http://www.worcsregservices.gov.uk,-2.24772000000000,DY10 1BN,2013-10-08,fhrs_5_en-GB,5,,FHRS,5
357095,17 Comberton Road,Kidderminster,Worcestershire,,Mariantonia,Restaurant/Cafe/Canteen,1,5,,673383,5,,52.38478900000000,WK/PI/000010608,153,wrsenquiries@worcsregservices.gov.uk,Wyre Forest,http://www.worcsregservices.gov.uk,-2.23707500000000,DY10 1UA,2014-09-30,fhrs_5_en-GB,5,,FHRS,0
357096,Cafe & Staff Canteen,Unit 18/19,Weavers Wharf,Kidderminster,Marks & Spencer,Restaurant/Cafe/Canteen,1,0,,673550,0,,,WK/PI/000046641,153,wrsenquiries@worcsregservices.gov.uk,Wyre Forest,http://www.worcsregservices.gov.uk,,,2009-06-03,fhrs_5_en-GB,5,,FHRS,5
357097,Unit 18/19 Weavers Wharf,Kidderminster,Worcestershire,,Marks & Spencer,Retailers - other,4613,0,,686667,0,,52.38777700000000,WK/PI/000042242,153,wrsenquiries@worcsregservices.gov.uk,Wyre Forest,http://www.worcsregservices.gov.uk,-2.24853800000000,DY10 2DJ,2009-08-20,fhrs_5_en-GB,5,,FHRS,0
357098,41 Willowfield Drive,Kidderminster,Worcestershire,,Marlpool Diner,Takeaway/sandwich shop,7844,5,,673602,5,,52.40124100000000,WK/PI/000049361,153,wrsenquiries@worcsregservices.gov.uk,Wyre Forest,http://www.worcsregservices.gov.uk,-2.25847600000000,DY11 5HA,2014-11-19,fhrs_5_en-GB,5,,FHRS,5
357099,43 Willowfield Drive,Kidderminster,Worcestershire,,Marlpool Garden,Takeaway/sandwich shop,7844,5,,673520,5,,52.40124100000000,WK/PI/000043420,153,wrsenquiries@worcsregservices.gov.uk,Wyre Forest,http://www.worcsregservices.gov.uk,-2.25847600000000,DY11 5HA,2014-11-19,fhrs_5_en-GB,5,,FHRS,5
357100,32 Horsefair,Kidderminster,Worcestershire,,May Flower Chinese Takeaway,Takeaway/sandwich shop,7844,10,,673564,10,,52.39185400000000,WK/PI/000046857,153,wrsenquiries@worcsregservices.gov.uk,Wyre Forest,http://www.worcsregservices.gov.uk,-2.24626800000000,DY10 2EN,2014-01-27,fhrs_3_en-GB,3,,FHRS,10
357101,32 Horsefair,Kidderminster,Worcestershire,,Mayflower Chinese Takeaway,Takeaway/sandwich shop,7844,10,,686429,10,,52.39185400000000,14/00387/FOOD,153,wrsenquiries@worcsregservices.gov.uk,Wyre Forest,http://www.worcsregservices.gov.uk,-2.24626800000000,DY10 2EN,2014-01-27,fhrs_3_en-GB,3,,FHRS,10
357102,27 Load Street,Bewdley,Worcestershire,,Mei Sum,Takeaway/sandwich shop,7844,,,673584,,,52.37516300000000,WK/PI/000048643,153,wrsenquiries@worcsregservices.gov.uk,Wyre Forest,http://www.worcsregservices.gov.uk,-2.31662500000000,DY12 2AS,,fhrs_awaitinginspection_en-GB,AwaitingInspection,,FHRS,
357103,78 - 80,Load Street,Bewdley,Worcestershire,Merchants Fish Bar,Takeaway/sandwich shop,7844,0,,673438,0,,52.37607500000000,WK/PI/000023753,153,wrsenquiries@worcsregservices.gov.uk,Wyre Forest,http://www.worcsregservices.gov.uk,-2.31501600000000,DY12 2AW,2013-03-06,fhrs_5_en-GB,5,,FHRS,5
357104,80 Load Street,Bewdley,Worcestershire,,Merchants Tea Rooms,Restaurant/Cafe/Canteen,1,5,,686580,5,,52.37607500000000,WK/PI/000023750,153,wrsenquiries@worcsregservices.gov.uk,Wyre Forest,http://www.worcsregservices.gov.uk,-2.31501600000000,DY12 2AW,2013-07-11,fhrs_5_en-GB,5,,FHRS,5
357105,Habberley Road,Bewdley,Worcestershire,,Mercure Kidderminster,Hotel/bed & breakfast/guest house,7842,0,,686807,5,,52.38596000000000,WK/PI/000051225,153,wrsenquiries@worcsregservices.gov.uk,Wyre Forest,http://www.worcsregservices.gov.uk,-2.29228300000000,DY12 1LA,2012-04-24,fhrs_4_en-GB,4,,FHRS,10
357106,Wyre Forest House,Finepoint Way,Kidderminster,Worcestershire,Midshire Catering @ Wyre Forest House,Restaurant/Cafe/Canteen,1,0,,707367,5,,52.36005900000000,14/01125/FOOD,153,wrsenquiries@worcsregservices.gov.uk,Wyre Forest,http://www.worcsregservices.gov.uk,-2.26964500000000,DY11 7WF,2014-07-24,fhrs_5_en-GB,5,,FHRS,0
357107,15 Comberton Hill,Kidderminster,Worcestershire,,Milan,Restaurant/Cafe/Canteen,1,10,,673646,10,,52.38557800000000,WK/PI/000050519,153,wrsenquiries@worcsregservices.gov.uk,Wyre Forest,http://www.worcsregservices.gov.uk,-2.24275100000000,DY10 1QG,2014-11-12,fhrs_3_en-GB,3,,FHRS,10
357108,30 Berkeley Crescent,Stourport On Severn,Stourport-on-severn,Worcestershire,Milly's Pantry,Other catering premises,7841,5,,673330,10,,52.32776500000000,WK/PI/000003366,153,wrsenquiries@worcsregservices.gov.uk,Wyre Forest,http://www.worcsregservices.gov.uk,-2.27813500000000,DY13 0HJ,2013-06-20,fhrs_4_en-GB,4,,FHRS,5
357109,Baptist Church,Lorne Street,Kidderminster,Worcestershire,Milton Hall,Other catering premises,7841,0,,673595,0,,52.38549200000000,WK/PI/000049109,153,wrsenquiries@worcsregservices.gov.uk,Wyre Forest,http://www.worcsregservices.gov.uk,-2.23605100000000,DY10 1SY,2014-09-16,fhrs_5_en-GB,5,,FHRS,5
357110,Residential Care Home,Minster Road,Stourport-On-Severn,Worcestershire,Minster Grange,Hospitals/Childcare/Caring Premises,5,0,,673460,5,,52.34823400000000,WK/PI/000027174,153,wrsenquiries@worcsregservices.gov.uk,Wyre Forest,http://www.worcsregservices.gov.uk,-2.27501900000000,DY13 8AT,2014-07-17,fhrs_5_en-GB,5,,FHRS,0
357111,Holy Trinity School,Birmingham Road,Kidderminster,Worcestershire,Miquill Catering Ltd,Restaurant/Cafe/Canteen,1,0,,673657,0,,52.39050400000000,WK/PI/000050788,153,wrsenquiries@worcsregservices.gov.uk,Wyre Forest,http://www.worcsregservices.gov.uk,-2.23850200000000,DY10 2BY,2013-06-11,fhrs_5_en-GB,5,,FHRS,5
357112,272 Hurcott Road,Kidderminster,Worcestershire,,Mister Softee,Mobile caterer,7846,5,,673415,5,,52.39580300000000,WK/PI/000019655,153,wrsenquiries@worcsregservices.gov.uk,Wyre Forest,http://www.worcsregservices.gov.uk,-2.23222600000000,DY10 2RQ,2009-08-04,fhrs_4_en-GB,4,,FHRS,10
357113,St Peter's Church Hall,Meredith Green,Kidderminster,Worcestershire,Monday Morning Breakfast Club,Other catering premises,7841,10,,673456,10,,52.36738700000000,WK/PI/000026427,153,wrsenquiries@worcsregservices.gov.uk,Wyre Forest,http://www.worcsregservices.gov.uk,-2.27302300000000,DY11 7EJ,2014-11-03,fhrs_3_en-GB,3,,FHRS,5
357114,41 High Street,Stourport On Severn,Worcestershire,,Munchies Bakery,Takeaway/sandwich shop,7844,5,,708937,5,,52.33992500000000,14/00999/FOOD,153,wrsenquiries@worcsregservices.gov.uk,Wyre Forest,http://www.worcsregservices.gov.uk,-2.27970800000000,DY13 8BS,2014-12-10,fhrs_5_en-GB,5,,FHRS,5
357115,Kidderminster Harriers F.C.,Hoo Road,Kidderminster,Worcestershire,Murdoch's Food Bars,Takeaway/sandwich shop,7844,10,,673551,10,,,WK/PI/000046650,153,wrsenquiries@worcsregservices.gov.uk,Wyre Forest,http://www.worcsregservices.gov.uk,,,2014-10-04,fhrs_3_en-GB,3,,FHRS,10
357116,36 Amblecote Road,Kidderminster,Worcestershire,,My Little Party Co,Retailers - other,4613,5,,673253,5,,52.38404100000000,13/00302/FOOD,153,wrsenquiries@worcsregservices.gov.uk,Wyre Forest,http://www.worcsregservices.gov.uk,-2.22445100000000,DY10 3BB,2014-11-10,fhrs_5_en-GB,5,,FHRS,5
357117,N U Wine Bar,"91, 92 & 92A",New Road,Kidderminster,N U  Wine Bar,Pub/bar/nightclub,7843,5,,686719,10,,52.38457700000000,WK/PI/000047037,153,wrsenquiries@worcsregservices.gov.uk,Wyre Forest,http://www.worcsregservices.gov.uk,-2.24818200000000,DY10 1AE,2010-06-03,fhrs_3_en-GB,3,,FHRS,10
357118,11 York Street,Stourport-On-Severn,Worcestershire,,Nabiel's,Restaurant/Cafe/Canteen,1,,,673650,,,52.33904500000000,WK/PI/000050658,153,wrsenquiries@worcsregservices.gov.uk,Wyre Forest,http://www.worcsregservices.gov.uk,-2.27923300000000,DY13 9EF,2013-08-29,fhrs_5_en-GB,5,,FHRS,
357119,1 Lichfield Street,Stourport On Severn,Worcestershire,,Namaste Indian Eatery,Restaurant/Cafe/Canteen,1,10,,729433,10,,52.33801600000000,14/01276/FOOD,153,wrsenquiries@worcsregservices.gov.uk,Wyre Forest,http://www.worcsregservices.gov.uk,-2.27702500000000,DY13 9EU,2014-10-16,fhrs_3_en-GB,3,,FHRS,10
357120,Callow Hill House,Callow Hill,Rock,Kidderminster,New Crown Bakery,Manufacturers/packers,7839,0,,673363,5,,52.36267700000000,WK/PI/000007258,153,wrsenquiries@worcsregservices.gov.uk,Wyre Forest,http://www.worcsregservices.gov.uk,-2.37999000000000,DY14 9XD,2012-11-12,fhrs_4_en-GB,4,,FHRS,10
357121,Pound Green,Arley,Bewdley,Worcestershire,New Inn,Pub/bar/nightclub,7843,5,,673473,5,,52.40626700000000,WK/PI/000030988,153,wrsenquiries@worcsregservices.gov.uk,Wyre Forest,http://www.worcsregservices.gov.uk,-2.36100500000000,DY12 3LF,2014-09-22,fhrs_5_en-GB,5,,FHRS,5
357122,Chinese Take Away,Unit 4 Warbler Place,Kidderminster,Worcestershire,New Star,Takeaway/sandwich shop,7844,5,,673510,5,,52.37040400000000,WK/PI/000041787,153,wrsenquiries@worcsregservices.gov.uk,Wyre Forest,http://www.worcsregservices.gov.uk,-2.23319400000000,DY10 4DZ,2014-10-20,fhrs_5_en-GB,5,,FHRS,0
357123,127-128 Hurcott Road,Kidderminster,Worcestershire,,Newsmarket Midlands Ltd,Retailers - other,4613,5,,698486,0,,52.39589000000000,WK/PI/000051099,153,wrsenquiries@worcsregservices.gov.uk,Wyre Forest,http://www.worcsregservices.gov.uk,-2.23344600000000,DY10 2RG,2014-05-28,fhrs_5_en-GB,5,,FHRS,0
357124,3 Brindley Street,Stourport-On-Severn,Worcestershire,,Newtown Fish & Kebab,Takeaway/sandwich shop,7844,0,,673354,5,,52.34699900000000,WK/PI/000005505,153,wrsenquiries@worcsregservices.gov.uk,Wyre Forest,http://www.worcsregservices.gov.uk,-2.27620000000000,DY13 8JA,2015-01-27,fhrs_5_en-GB,5,,FHRS,5
357125,83 The Birches,Stourport-On-Severn,Worcestershire,,Nickki's Kitchen,Other catering premises,7841,0,,673499,5,,52.33910100000000,WK/PI/000039200,153,wrsenquiries@worcsregservices.gov.uk,Wyre Forest,http://www.worcsregservices.gov.uk,-2.26656700000000,DY13 9NR,2013-04-11,fhrs_5_en-GB,5,,FHRS,5
357126,68 Beaufort Avenue,Kidderminster,Worcestershire,,Nicky Snack Shack,Mobile caterer,7846,5,,698474,5,,52.39431200000000,14/00040/FOOD,153,wrsenquiries@worcsregservices.gov.uk,Wyre Forest,http://www.worcsregservices.gov.uk,-2.27717200000000,DY11 5NJ,2014-02-03,fhrs_4_en-GB,4,,FHRS,10
357127,11-14 Comberton Road,Kidderminster,Worcestershire,,Nightingale Court,Restaurant/Cafe/Canteen,1,5,,673667,5,,52.38478900000000,WK/PI/000050986,153,wrsenquiries@worcsregservices.gov.uk,Wyre Forest,http://www.worcsregservices.gov.uk,-2.23707500000000,DY10 1UA,2014-09-18,fhrs_5_en-GB,5,,FHRS,0
357128,Wolverley Court,Wolverley Road,Wolverley,Kidderminster,Nightingales Residential Home,Hospitals/Childcare/Caring Premises,5,5,,673571,0,,52.40835400000000,WK/PI/000047044,153,wrsenquiries@worcsregservices.gov.uk,Wyre Forest,http://www.worcsregservices.gov.uk,-2.24946200000000,DY10 3RP,2012-10-24,fhrs_5_en-GB,5,,FHRS,5
357129,93 Welch Gate,Bewdley,Worcestershire,,No 93 Bewdley,Restaurant/Cafe/Canteen,1,10,,673243,5,,52.37521400000000,13/00112/FOOD,153,wrsenquiries@worcsregservices.gov.uk,Wyre Forest,http://www.worcsregservices.gov.uk,-2.31768300000000,DY12 2AX,2014-01-16,fhrs_4_en-GB,4,,FHRS,5
357130,70 Blackwell Street,Kidderminster,Worcestershire,,No. 1 Pizza,Takeaway/sandwich shop,7844,10,,673587,5,,52.39140400000000,WK/PI/000048802,153,wrsenquiries@worcsregservices.gov.uk,Wyre Forest,http://www.worcsregservices.gov.uk,-2.24648600000000,DY10 2EL,2013-05-18,fhrs_4_en-GB,4,,FHRS,5
357131,30 Gardeners Meadow,Bewdley,Worcestershire,,Number Thirty,Hotel/bed & breakfast/guest house,7842,5,,673397,5,,52.37361300000000,WK/PI/000015207,153,wrsenquiries@worcsregservices.gov.uk,Wyre Forest,http://www.worcsregservices.gov.uk,-2.31135500000000,DY12 2DG,2009-08-17,fhrs_5_en-GB,5,,FHRS,0
357132,17 York Street,Stourport-On-Severn,Worcestershire,,Oakleigh Guest House,Hotel/bed & breakfast/guest house,7842,5,,673533,5,,52.33899200000000,WK/PI/000046329,153,wrsenquiries@worcsregservices.gov.uk,Wyre Forest,http://www.worcsregservices.gov.uk,-2.27882200000000,DY13 9EE,2012-10-03,fhrs_5_en-GB,5,,FHRS,5
357133,Station Approach,Kidderminster,Worcestershire,,Off Train Kitchen,Restaurant/Cafe/Canteen,1,0,,673580,5,,52.38412600000000,WK/PI/000048429,153,wrsenquiries@worcsregservices.gov.uk,Wyre Forest,http://www.worcsregservices.gov.uk,-2.24029000000000,DY10 1QX,2014-11-14,fhrs_5_en-GB,5,,FHRS,5
357134,Wordsworth Crescent,Kidderminster,Worcestershire,,Offmore Primary School,School/college/university,7845,5,,686686,10,,52.38884900000000,WK/PI/000045741,153,wrsenquiries@worcsregservices.gov.uk,Wyre Forest,http://www.worcsregservices.gov.uk,-2.22518100000000,DY10 3HA,2009-06-03,fhrs_3_en-GB,3,,FHRS,10
357135,For The Elderley,Offmore Farm Close,Kidderminster,Worcestershire,Offmore Residential Home,Hospitals/Childcare/Caring Premises,5,0,,673603,5,,52.38734300000000,WK/PI/000049362,153,wrsenquiries@worcsregservices.gov.uk,Wyre Forest,http://www.worcsregservices.gov.uk,-2.21788500000000,DY10 3HB,2014-09-05,fhrs_5_en-GB,5,,FHRS,0
357136,Offmore Primary School,Wordsworth Crescent,Kidderminster,Worcestershire,Offmore Stars After School & Holiday Club,Hospitals/Childcare/Caring Premises,5,5,,703232,5,,52.38884900000000,14/00686/FOOD,153,wrsenquiries@worcsregservices.gov.uk,Wyre Forest,http://www.worcsregservices.gov.uk,-2.22518100000000,DY10 3HA,2014-04-24,fhrs_5_en-GB,5,,FHRS,0
357137,The Lock Inn,Wolverley Road,Wolverley,Kidderminster,Old Smithy Tearoom,Restaurant/Cafe/Canteen,1,5,,673631,10,,52.41004300000000,WK/PI/000050020,153,wrsenquiries@worcsregservices.gov.uk,Wyre Forest,http://www.worcsregservices.gov.uk,-2.24978000000000,DY10 3RN,2014-10-01,fhrs_4_en-GB,4,,FHRS,5
357138,Driving Range,Zortech Avenue,Kidderminster,Worcestershire,Oldington Golf,Pub/bar/nightclub,7843,0,,673536,0,,52.35895000000000,WK/PI/000046376,153,wrsenquiries@worcsregservices.gov.uk,Wyre Forest,http://www.worcsregservices.gov.uk,-2.27483600000000,DY11 7DY,2012-11-16,fhrs_5_en-GB,5,,FHRS,0
357139,75 Minster Road,Stourport-On-Severn,Worcestershire,,Olive House,Restaurant/Cafe/Canteen,1,10,,673641,10,,52.34864000000000,WK/PI/000050258,153,wrsenquiries@worcsregservices.gov.uk,Wyre Forest,http://www.worcsregservices.gov.uk,-2.27415500000000,DY13 8AS,2009-09-29,fhrs_3_en-GB,3,,FHRS,5
357140,12 Bridge Street,Stourport On Severn,Stourport-on-severn,Worcestershire,Olive Tree Cafe,Restaurant/Cafe/Canteen,1,5,,673297,5,,52.33866000000000,14/00783/FOOD,153,wrsenquiries@worcsregservices.gov.uk,Wyre Forest,http://www.worcsregservices.gov.uk,-2.28210700000000,DY13 8UX,2014-05-19,fhrs_5_en-GB,5,,FHRS,5
357141,44B Mill Street,Kidderminster,Worcestershire,,Oscar's Diner,Restaurant/Cafe/Canteen,1,5,,673303,0,,52.38933300000000,14/00835/FOOD,153,wrsenquiries@worcsregservices.gov.uk,Wyre Forest,http://www.worcsregservices.gov.uk,-2.25656900000000,DY11 6XB,2013-04-15,fhrs_4_en-GB,4,,FHRS,10
357142,Unit D,96 Comberton Hill,Kidderminster,Worcestershire,Our Plaice,Takeaway/sandwich shop,7844,5,,673573,10,,52.38508500000000,WK/PI/000047412,153,wrsenquiries@worcsregservices.gov.uk,Wyre Forest,http://www.worcsregservices.gov.uk,-2.24188200000000,DY10 1QH,2014-02-17,fhrs_4_en-GB,4,,FHRS,5
357143,50-51 Oxford Street,Kidderminster,Worcestershire,,Oxford Cafe,Restaurant/Cafe/Canteen,1,5,,673467,10,,52.38579400000000,WK/PI/000029423,153,wrsenquiries@worcsregservices.gov.uk,Wyre Forest,http://www.worcsregservices.gov.uk,-2.24663100000000,DY10 1AR,2014-12-30,fhrs_4_en-GB,4,,FHRS,5
357144,Papa Johns Pizza,Unit 2,21-23 Coventry Street,Kidderminster,Papa Johns,Takeaway/sandwich shop,7844,0,,673612,5,,52.38901300000000,WK/PI/000049780,153,wrsenquiries@worcsregservices.gov.uk,Wyre Forest,http://www.worcsregservices.gov.uk,-2.24650200000000,DY10 2BG,2013-08-20,fhrs_5_en-GB,5,,FHRS,0
357145,7 Lower Mill Street,Kidderminster,Worcestershire,,Paradise Balti,Restaurant/Cafe/Canteen,1,10,,673450,0,,52.38808700000000,WK/PI/000024701,153,wrsenquiries@worcsregservices.gov.uk,Wyre Forest,http://www.worcsregservices.gov.uk,-2.25092000000000,DY11 6UU,2012-10-31,fhrs_4_en-GB,4,,FHRS,5
357146,Park Attwood,Trimpley Lane,Shatterford,Bewdley,Park Attwood Care Centre,Hospitals/Childcare/Caring Premises,5,5,,686430,0,,52.41438000000000,14/00397/FOOD,153,wrsenquiries@worcsregservices.gov.uk,Wyre Forest,http://www.worcsregservices.gov.uk,-2.30218900000000,DY12 1RE,2013-05-29,fhrs_5_en-GB,5,,FHRS,5
357147,Stourbridge Road,Parkgate,Kidderminster,Worcestershire,Parkgate Inn,Pub/bar/nightclub,7843,5,,673493,5,,52.40545400000000,WK/PI/000037405,153,wrsenquiries@worcsregservices.gov.uk,Wyre Forest,http://www.worcsregservices.gov.uk,-2.21994400000000,DY10 3PT,2013-08-13,fhrs_5_en-GB,5,,FHRS,5
357148,38 Lombard Street,Stourport-On-Severn,Worcestershire,,Pats Fish & Chips,Takeaway/sandwich shop,7844,0,,673440,0,,52.34220500000000,WK/PI/000023871,153,wrsenquiries@worcsregservices.gov.uk,Wyre Forest,http://www.worcsregservices.gov.uk,-2.27736000000000,DY13 8DU,2008-09-17,fhrs_5_en-GB,5,,FHRS,0
357149,Blackwell Street,Kidderminster,Worcestershire,,Peacock Inn,Pub/bar/nightclub,7843,10,,673342,5,,52.39131400000000,WK/PI/000004498,153,wrsenquiries@worcsregservices.gov.uk,Wyre Forest,http://www.worcsregservices.gov.uk,-2.24692600000000,DY10 2EE,2013-04-18,fhrs_3_en-GB,3,,FHRS,10
357150,14-18 Bull Ring,Kidderminster,Worcestershire,,Penny Black,Pub/bar/nightclub,7843,0,,673362,5,,52.38830700000000,WK/PI/000006616,153,wrsenquiries@worcsregservices.gov.uk,Wyre Forest,http://www.worcsregservices.gov.uk,-2.24896700000000,DY10 2AZ,2013-07-02,fhrs_5_en-GB,5,,FHRS,5
357151,1 Sandy Lane,Sandy Lane Industrial Estate,Stourport On Severn,Worcestershire,Peppers Restaurant,Takeaway/sandwich shop,7844,10,,710373,15,,52.32944200000000,14/01160/FOOD,153,wrsenquiries@worcsregservices.gov.uk,Wyre Forest,http://www.worcsregservices.gov.uk,-2.26397000000000,DY13 9PZ,2014-10-15,fhrs_2_en-GB,2,,FHRS,10
357152,48 Load Street,Bewdley,Worcestershire,,Piccolos,Restaurant/Cafe/Canteen,1,5,,673621,5,,52.37561300000000,WK/PI/000049873,153,wrsenquiries@worcsregservices.gov.uk,Wyre Forest,http://www.worcsregservices.gov.uk,-2.31632000000000,DY12 2AP,2014-10-01,fhrs_5_en-GB,5,,FHRS,5
357153,Unit 20A Weavers Wharf,Kidderminster,Worcestershire,,Pizza Hut,Restaurant/Cafe/Canteen,1,0,,673513,5,,52.38808700000000,WK/PI/000042244,153,wrsenquiries@worcsregservices.gov.uk,Wyre Forest,http://www.worcsregservices.gov.uk,-2.25092000000000,DY11 6UU,2013-11-27,fhrs_5_en-GB,5,,FHRS,5
357154,Silver Birches,Heath Lane,Shenstone,Kidderminster,PJS Country Kitchen,Mobile caterer,7846,0,,673626,5,,52.36658600000000,WK/PI/000049953,153,wrsenquiries@worcsregservices.gov.uk,Wyre Forest,http://www.worcsregservices.gov.uk,-2.21217300000000,DY10 4BL,2014-09-15,fhrs_5_en-GB,5,,FHRS,0
357155,Rear Of 9,Church Street,Kidderminster,Worcestershire,Pockets Snooker Club,Pub/bar/nightclub,7843,5,,673374,10,,52.38883500000000,WK/PI/000009463,153,wrsenquiries@worcsregservices.gov.uk,Wyre Forest,http://www.worcsregservices.gov.uk,-2.24980700000000,DY10 2AD,2014-10-27,fhrs_3_en-GB,3,,FHRS,10
357156,68-69 High Street,Bewdley,Worcestershire,,Pomodoro,Restaurant/Cafe/Canteen,1,5,,686808,5,,52.37404400000000,WK/PI/000051410,153,wrsenquiries@worcsregservices.gov.uk,Wyre Forest,http://www.worcsregservices.gov.uk,-2.31459000000000,DY12 2DJ,2013-05-01,fhrs_5_en-GB,5,,FHRS,5
357157,Cookley Post Office,2 Bridge Road,Cookley,Kidderminster,Post Office Counters Ltd,Retailers - other,4613,5,,686472,5,,52.42121700000000,WK/PI/000005321,153,wrsenquiries@worcsregservices.gov.uk,Wyre Forest,http://www.worcsregservices.gov.uk,-2.23262400000000,DY10 3SA,2014-11-19,fhrs_5_en-GB,5,,FHRS,5
357158,20 Golden Hind Drive,Stourport-On-Severn,Worcestershire,,Preto Coffee,Retailers - other,4613,5,,673399,5,,52.33526500000000,WK/PI/000015727,153,wrsenquiries@worcsregservices.gov.uk,Wyre Forest,http://www.worcsregservices.gov.uk,-2.27300100000000,DY13 9RJ,2010-10-28,fhrs_5_en-GB,5,,FHRS,5
357159,21 Lickhill Road North,Stourport-On-Severn,Worcestershire,,Ravenhurst Residential Care Home,Hospitals/Childcare/Caring Premises,5,0,,673431,5,,52.35260900000000,WK/PI/000022992,153,wrsenquiries@worcsregservices.gov.uk,Wyre Forest,http://www.worcsregservices.gov.uk,-2.29494000000000,DY13 8RU,2014-04-14,fhrs_5_en-GB,5,,FHRS,5
357160,Readys Kiosk,Riverside Meadows,Stourport-On-Severn,,Readys,Takeaway/sandwich shop,7844,5,,673548,10,,,WK/PI/000046540,153,wrsenquiries@worcsregservices.gov.uk,Wyre Forest,http://www.worcsregservices.gov.uk,,,2010-02-17,fhrs_3_en-GB,3,,FHRS,10
357161,23-24 Blackwell Street,Kidderminster,Worcestershire,,Red Chillies,Restaurant/Cafe/Canteen,1,10,,673302,10,,52.39000900000000,14/00816/FOOD,153,wrsenquiries@worcsregservices.gov.uk,Wyre Forest,http://www.worcsregservices.gov.uk,-2.24752200000000,DY10 2DU,2014-07-01,fhrs_3_en-GB,3,,FHRS,10
357162,Reel Cinemas Ltd,Green Street,Kidderminster,Worcestershire,Reel Kidderminster,Retailers - other,4613,5,,673639,10,,52.38218600000000,WK/PI/000050246,153,wrsenquiries@worcsregservices.gov.uk,Wyre Forest,http://www.worcsregservices.gov.uk,-2.24803600000000,DY10 1JF,2015-01-06,fhrs_3_en-GB,3,,FHRS,10
357163,"Refreshment Kiosk, Sev Valley Rail",Railway Station,Arley,Bewdley,"Refreshment Kiosk, Severn Valley Raillwayy",Retailers - other,4613,5,,673475,10,,52.41702100000000,WK/PI/000031940,153,wrsenquiries@worcsregservices.gov.uk,Wyre Forest,http://www.worcsregservices.gov.uk,-2.34846300000000,DY12 3NF,2012-05-22,fhrs_4_en-GB,4,,FHRS,5
357164,1B Bridge Street,Stourport-On-Severn,Worcestershire,,Relish,Restaurant/Cafe/Canteen,1,0,,673619,5,,52.33889700000000,WK/PI/000049843,153,wrsenquiries@worcsregservices.gov.uk,Wyre Forest,http://www.worcsregservices.gov.uk,-2.28086100000000,DY13 8XD,2013-04-11,fhrs_5_en-GB,5,,FHRS,5
357165,Dowles Road,Kidderminster,Worcestershire,,Rifle Range Community Centre,Pub/bar/nightclub,7843,10,,673393,10,,52.37254900000000,WK/PI/000012344,153,wrsenquiries@worcsregservices.gov.uk,Wyre Forest,http://www.worcsregservices.gov.uk,-2.27254100000000,DY11 7NU,2007-05-08,fhrs_3_en-GB,3,,FHRS,10
357166,50 Lombard Street,Stourport-On-Severn,Worcestershire,,Rising Sun,Pub/bar/nightclub,7843,5,,673441,5,,52.34220500000000,WK/PI/000023877,153,wrsenquiries@worcsregservices.gov.uk,Wyre Forest,http://www.worcsregservices.gov.uk,-2.27736000000000,DY13 8DU,2014-04-02,fhrs_5_en-GB,5,,FHRS,5
357167,Bewdley Bowling Club,River Side North,Bewdley,Worcestershire,River Side North Bewdley Club,Pub/bar/nightclub,7843,5,,686623,5,,52.37733500000000,WK/PI/000032724,153,wrsenquiries@worcsregservices.gov.uk,Wyre Forest,http://www.worcsregservices.gov.uk,-2.31455400000000,DY12 1AB,1997-02-10,fhrs_5_en-GB,5,,FHRS,5
357168,13 Bridge Street,Stourport-On-Severn,Worcestershire,,Riverside Cafe,Restaurant/Cafe/Canteen,1,0,,673351,0,,52.33817600000000,WK/PI/000005373,153,wrsenquiries@worcsregservices.gov.uk,Wyre Forest,http://www.worcsregservices.gov.uk,-2.28170800000000,DY13 8UY,2009-07-22,fhrs_5_en-GB,5,,FHRS,5
357169,2-3 Severn Side North,Bewdley,Worcestershire,,Riverside Cafe,Restaurant/Cafe/Canteen,1,5,,673482,5,,52.37682900000000,WK/PI/000034231,153,wrsenquiries@worcsregservices.gov.uk,Wyre Forest,http://www.worcsregservices.gov.uk,-2.31532900000000,DY12 2EE,2014-04-15,fhrs_5_en-GB,5,,FHRS,5
357170,Porchbrook Road,Rock Cross,Kidderminster,Worcestershire,Rock Cross Inn,Pub/bar/nightclub,7843,5,,686434,5,,52.33881600000000,14/00617/FOOD,153,wrsenquiries@worcsregservices.gov.uk,Wyre Forest,http://www.worcsregservices.gov.uk,-2.39136600000000,DY14 9SD,2014-12-11,fhrs_5_en-GB,5,,FHRS,5
357171,80 Wilden Lane,Stourport On Severn,Worcestershire,,Rock Tavern,Pub/bar/nightclub,7843,10,,673288,10,,52.34388000000000,14/00669/FOOD,153,wrsenquiries@worcsregservices.gov.uk,Wyre Forest,http://www.worcsregservices.gov.uk,-2.26028400000000,DY13 9LR,2014-03-31,fhrs_3_en-GB,3,,FHRS,10
357172,25 Birmingham Road,Kidderminster,Worcestershire,,Rockny House,Hospitals/Childcare/Caring Premises,5,0,,686468,5,,52.39145800000000,WK/PI/000004165,153,wrsenquiries@worcsregservices.gov.uk,Wyre Forest,http://www.worcsregservices.gov.uk,-2.23768400000000,DY10 2BX,2014-09-16,fhrs_5_en-GB,5,,FHRS,0
357173,7 Baxter Avenue,Kidderminster,Worcestershire,,Rose Orchard,Hospitals/Childcare/Caring Premises,5,5,,673329,5,,52.39213700000000,WK/PI/000002501,153,wrsenquiries@worcsregservices.gov.uk,Wyre Forest,http://www.worcsregservices.gov.uk,-2.24416800000000,DY10 2EU,2014-12-09,fhrs_5_en-GB,5,,FHRS,0
357174,128 Franche Road,Kidderminster,Worcestershire,,Rosedene,Restaurant/Cafe/Canteen,1,5,,673577,5,,52.39822600000000,WK/PI/000048252,153,wrsenquiries@worcsregservices.gov.uk,Wyre Forest,http://www.worcsregservices.gov.uk,-2.26811400000000,DY11 5BE,2014-05-19,fhrs_5_en-GB,5,,FHRS,5
357175,Rowberry Nurseries,Lodgeford Hill,Lower Chaddesley,Kidderminster,Rowberry's Restaurant,Restaurant/Cafe/Canteen,1,5,,673645,5,,52.35616800000000,WK/PI/000050354,153,wrsenquiries@worcsregservices.gov.uk,Wyre Forest,http://www.worcsregservices.gov.uk,-2.16021800000000,DY10 4QN,2014-11-21,fhrs_5_en-GB,5,,FHRS,5
357176,Callow Hill,Rock,Kidderminster,Worcestershire,Royal Forester Inn,Pub/bar/nightclub,7843,5,,673366,10,,52.36203600000000,WK/PI/000007326,153,wrsenquiries@worcsregservices.gov.uk,Wyre Forest,http://www.worcsregservices.gov.uk,-2.37534400000000,DY14 9XW,2014-12-03,fhrs_4_en-GB,4,,FHRS,5
357177,28 Park Street,Kidderminster,Worcestershire,,Ruby's Chinese Takeaway,Takeaway/sandwich shop,7844,5,,673544,5,,52.38670400000000,WK/PI/000046488,153,wrsenquiries@worcsregservices.gov.uk,Wyre Forest,http://www.worcsregservices.gov.uk,-2.25449700000000,DY11 6TN,2009-11-23,fhrs_5_en-GB,5,,FHRS,5
357178,The Running Horse,Long Bank,Bewdley,Worcestershire,Running Horse,Pub/bar/nightclub,7843,5,,673442,5,,52.36826200000000,WK/PI/000023947,153,wrsenquiries@worcsregservices.gov.uk,Wyre Forest,http://www.worcsregservices.gov.uk,-2.34731500000000,DY12 2QP,2012-09-26,fhrs_5_en-GB,5,,FHRS,5
357179,Sainsbury,Crossley Retail Park,2 Carpet Trades Way,Kidderminster,Sainsbury's,Retailers - supermarkets/hypermarkets,7840,0,,686489,0,,52.39168500000000,WK/PI/000007593,153,wrsenquiries@worcsregservices.gov.uk,Wyre Forest,http://www.worcsregservices.gov.uk,-2.25414400000000,DY11 6XP,2015-01-30,fhrs_5_en-GB,5,,FHRS,5
357180,78 Load Street,Bewdley,Worcestershire,,Sampan Restaurant,Restaurant/Cafe/Canteen,1,10,,686579,15,,52.37607500000000,WK/PI/000023746,153,wrsenquiries@worcsregservices.gov.uk,Wyre Forest,http://www.worcsregservices.gov.uk,-2.31501600000000,DY12 2AW,2014-04-16,fhrs_2_en-GB,2,,FHRS,15
357181,401 Stourport Road,Kidderminster,Worcestershire,,Sandwich Xpress,Takeaway/sandwich shop,7844,0,,673623,5,,52.37452000000000,WK/PI/000049934,153,wrsenquiries@worcsregservices.gov.uk,Wyre Forest,http://www.worcsregservices.gov.uk,-2.25961200000000,DY11 7BG,2012-12-11,fhrs_5_en-GB,5,,FHRS,5
357182,Street Record,Frederick Road,Hoo Farm Industrial Estate,Kidderminster,Saucey's,Mobile caterer,7846,5,,673244,0,,,13/00156/FOOD,153,wrsenquiries@worcsregservices.gov.uk,Wyre Forest,http://www.worcsregservices.gov.uk,,,2013-10-03,fhrs_5_en-GB,5,,FHRS,5
357183,Baldwin Chambers,2 Load Street,Bewdley,Worcestershire,Scoops Ice Cream Parlour,Restaurant/Cafe/Canteen,1,5,,673256,5,,,13/00388/FOOD,153,wrsenquiries@worcsregservices.gov.uk,Wyre Forest,http://www.worcsregservices.gov.uk,,,2013-05-09,fhrs_5_en-GB,5,,FHRS,5
357184,Ramada Kidderminster,Habberley Road,Bewdley,Worcestershire,Sebastian Coe Health Centre,Restaurant/Cafe/Canteen,1,5,,673541,5,,,WK/PI/000046440,153,wrsenquiries@worcsregservices.gov.uk,Wyre Forest,http://www.worcsregservices.gov.uk,,,2010-07-13,fhrs_5_en-GB,5,,FHRS,5
357185,17 - 20 New Road,Kidderminster,Worcestershire,,Secret Garden Coffee House,Restaurant/Cafe/Canteen,1,10,,715294,10,,52.38455100000000,14/01090/FOOD,153,wrsenquiries@worcsregservices.gov.uk,Wyre Forest,http://www.worcsregservices.gov.uk,-2.24780000000000,DY10 1AF,2014-09-17,fhrs_3_en-GB,3,,FHRS,10
357186,Street Record,Bewdley Road,Stourport On Severn,Worcestershire,Servest @ Morgan Technical Ceramics,Restaurant/Cafe/Canteen,1,0,,732484,5,,,15/00002/FOOD,153,wrsenquiries@worcsregservices.gov.uk,Wyre Forest,http://www.worcsregservices.gov.uk,,,2015-01-20,fhrs_5_en-GB,5,,FHRS,5
357187,61 Load Street,Bewdley,Worcestershire,,Severn,Restaurant/Cafe/Canteen,1,10,,673267,10,,52.37561300000000,14/00263/FOOD,153,wrsenquiries@worcsregservices.gov.uk,Wyre Forest,http://www.worcsregservices.gov.uk,-2.31632000000000,DY12 2AP,2013-05-01,fhrs_3_en-GB,3,,FHRS,10
357188,11 Bridge Street,Stourport-On-Severn,Worcestershire,,Severn Tandoori,Restaurant/Cafe/Canteen,1,5,,673350,5,,52.33866000000000,WK/PI/000005366,153,wrsenquiries@worcsregservices.gov.uk,Wyre Forest,http://www.worcsregservices.gov.uk,-2.28210700000000,DY13 8UX,2014-11-19,fhrs_5_en-GB,5,,FHRS,5
357189,240 Westbourne Street,Bewdley,Worcestershire,,Severn Valley Guest House,Hotel/bed & breakfast/guest house,7842,10,,673518,10,,52.37644800000000,WK/PI/000042432,153,wrsenquiries@worcsregservices.gov.uk,Wyre Forest,http://www.worcsregservices.gov.uk,-2.30987700000000,DY12 1BS,2013-05-10,fhrs_3_en-GB,3,,FHRS,10
357190,23 Baskerville Road,Kidderminster,Worcestershire,,Shanghai Palace,Takeaway/sandwich shop,7844,10,,673328,5,,52.40260400000000,WK/PI/000002346,153,wrsenquiries@worcsregservices.gov.uk,Wyre Forest,http://www.worcsregservices.gov.uk,-2.23892000000000,DY10 2YF,2015-01-14,fhrs_4_en-GB,4,,FHRS,5
357191,26 Comberton Hill,Kidderminster,Worcestershire,,Shapla Tandoori,Takeaway/sandwich shop,7844,10,,673380,5,,52.38524000000000,WK/PI/000010453,153,wrsenquiries@worcsregservices.gov.uk,Wyre Forest,http://www.worcsregservices.gov.uk,-2.24075100000000,DY10 1QN,2014-12-03,fhrs_4_en-GB,4,,FHRS,5
357192,Car Park At JTF Mega Discount Wareh,Hoo Farm Industrial Estate,Kidderminster,Worcs,Shellis,Mobile caterer,7846,5,,673261,5,,52.36606600000000,13/00438/FOOD,153,wrsenquiries@worcsregservices.gov.uk,Wyre Forest,http://www.worcsregservices.gov.uk,-2.24401000000000,DY11 7RA,2014-02-25,fhrs_5_en-GB,5,,FHRS,5
357193,38 New Road,Kidderminster,Worcestershire,,Shipleys Bingo And Social Club,Pub/bar/nightclub,7843,10,,686600,10,,52.38455100000000,WK/PI/000027735,153,wrsenquiries@worcsregservices.gov.uk,Wyre Forest,http://www.worcsregservices.gov.uk,-2.24780000000000,DY10 1AF,2014-11-21,fhrs_3_en-GB,3,,FHRS,10
357194,King Charles High School,Comberton Road,Kidderminster,Worcestershire,Shire Services - King Charles Upper And Lower Schools,Restaurant/Cafe/Canteen,1,5,,712521,5,,52.38316000000000,14/01118/FOOD,153,wrsenquiries@worcsregservices.gov.uk,Wyre Forest,http://www.worcsregservices.gov.uk,-2.23337900000000,DY10 1XA,2014-09-29,fhrs_5_en-GB,5,,FHRS,5
357195,35 Worth Crescent,Stourport-On-Severn,Worcestershire,,Short Breaks,Restaurant/Cafe/Canteen,1,0,,673578,0,,52.34968700000000,WK/PI/000048264,153,wrsenquiries@worcsregservices.gov.uk,Wyre Forest,http://www.worcsregservices.gov.uk,-2.29484700000000,DY13 8RR,2011-02-14,fhrs_5_en-GB,5,,FHRS,0
357196,Townsend Works,Puxton Lane,Kidderminster,Worcestershire,Simply Church,Other catering premises,7841,0,,673624,5,,52.39304100000000,WK/PI/000049944,153,wrsenquiries@worcsregservices.gov.uk,Wyre Forest,http://www.worcsregservices.gov.uk,-2.25869200000000,DY11 5DF,2014-08-21,fhrs_5_en-GB,5,,FHRS,5
357197,1 New Road,Kidderminster,Worcestershire,,Smithy's 2,Restaurant/Cafe/Canteen,1,5,,673585,10,,52.38455100000000,WK/PI/000048752,153,wrsenquiries@worcsregservices.gov.uk,Wyre Forest,http://www.worcsregservices.gov.uk,-2.24780000000000,DY10 1AF,2014-10-28,fhrs_3_en-GB,3,,FHRS,10
357198,2,Sandy Lane,Sandy Lane Industrial Estate,Stourport On Severn,Smithys Burger Van,Mobile caterer,7846,10,,707365,10,,,14/01065/FOOD,153,wrsenquiries@worcsregservices.gov.uk,Wyre Forest,http://www.worcsregservices.gov.uk,,,2014-10-14,fhrs_3_en-GB,3,,FHRS,10
357199,72 Wilden Lane,Stourport-On-Severn,Worcestershire,,Soup's Up,Restaurant/Cafe/Canteen,1,5,,673519,10,,52.34388000000000,WK/PI/000043237,153,wrsenquiries@worcsregservices.gov.uk,Wyre Forest,http://www.worcsregservices.gov.uk,-2.26028400000000,DY13 9LR,2011-07-08,fhrs_4_en-GB,4,,FHRS,5
357200,(Spennells First School),Heronswood Road,Kidderminster,Worcestershire,Spennells Childcare,Hospitals/Childcare/Caring Premises,5,0,,673583,5,,52.37054900000000,WK/PI/000048562,153,wrsenquiries@worcsregservices.gov.uk,Wyre Forest,http://www.worcsregservices.gov.uk,-2.23213800000000,DY10 4EX,2013-07-19,fhrs_5_en-GB,5,,FHRS,0
357201,Warbler Place,Kidderminster,Worcestershire,,Spennells Community Centre,Other catering premises,7841,0,,673508,0,,,WK/PI/000041781,153,wrsenquiries@worcsregservices.gov.uk,Wyre Forest,http://www.worcsregservices.gov.uk,,,2005-10-20,fhrs_5_en-GB,5,,FHRS,0
357202,Unit 3,Spennells Shopping Centre,Warbler Place,Kidderminster,Spennells Tandoori Takeaway,Takeaway/sandwich shop,7844,5,,703231,5,,52.37040400000000,14/00494/FOOD,153,wrsenquiries@worcsregservices.gov.uk,Wyre Forest,http://www.worcsregservices.gov.uk,-2.23319400000000,DY10 4DZ,2014-03-25,fhrs_5_en-GB,5,,FHRS,5
357203,44 Tan Lane,Stourport-On-Severn,Worcestershire,,Spice Island,Takeaway/sandwich shop,7844,5,,673497,5,,52.34210100000000,WK/PI/000038805,153,wrsenquiries@worcsregservices.gov.uk,Wyre Forest,http://www.worcsregservices.gov.uk,-2.27935500000000,DY13 8HD,2014-07-23,fhrs_5_en-GB,5,,FHRS,5
357204,West Midlands Safari Park,Kidderminster Road,Bewdley,Worcestershire,Spring Grove House,Restaurant/Cafe/Canteen,1,5,,673421,5,,52.37873300000000,WK/PI/000021162,153,wrsenquiries@worcsregservices.gov.uk,Wyre Forest,http://www.worcsregservices.gov.uk,-2.29158900000000,DY12 1LF,2014-07-09,fhrs_5_en-GB,5,,FHRS,5
357205,Treetops Children Centre,Birchen Coppice Primary School,Woodbury Road,Kidderminster,Squirrel's Day Nursery,Hospitals/Childcare/Caring Premises,5,5,,686448,5,,52.37074500000000,14/00928/FOOD,153,wrsenquiries@worcsregservices.gov.uk,Wyre Forest,http://www.worcsregservices.gov.uk,-2.27122300000000,DY11 7JJ,2014-06-25,fhrs_5_en-GB,5,,FHRS,5
357206,Catholic Club,Leswell Street,Kidderminster,Worcestershire,St Ambrose,Pub/bar/nightclub,7843,10,,673426,10,,52.38911600000000,WK/PI/000022781,153,wrsenquiries@worcsregservices.gov.uk,Wyre Forest,http://www.worcsregservices.gov.uk,-2.24025800000000,DY10 1RP,2007-04-30,fhrs_3_en-GB,3,,FHRS,5
357207,School,Leswell Street,Kidderminster,Worcestershire,St Ambrose Catholic Primary School,School/college/university,7845,5,,686568,10,,52.38911600000000,WK/PI/000022779,153,wrsenquiries@worcsregservices.gov.uk,Wyre Forest,http://www.worcsregservices.gov.uk,-2.24025800000000,DY10 1RP,2009-06-10,fhrs_3_en-GB,3,,FHRS,10
357208,St Anne's Ce Primary School,Wyre Hill,Bewdley,Worcestershire,St Anne's Ce Primary School,School/college/university,7845,5,,673546,5,,52.37160900000000,WK/PI/000046537,153,wrsenquiries@worcsregservices.gov.uk,Wyre Forest,http://www.worcsregservices.gov.uk,-2.33078800000000,DY12 2UQ,2013-10-02,fhrs_5_en-GB,5,,FHRS,0
357209,(The Windmill C Of E School),Princess Way,Stourport-On-Severn,Worcestershire,St Bartholomew's C.E. Primary School,School/college/university,7845,5,,673474,5,,52.32857300000000,WK/PI/000031202,153,wrsenquiries@worcsregservices.gov.uk,Wyre Forest,http://www.worcsregservices.gov.uk,-2.28980600000000,DY13 0EL,2014-11-24,fhrs_5_en-GB,5,,FHRS,5
357210,St Georges Hall,Load Street,Bewdley,Worcestershire,St Georges Hall Cafe,Restaurant/Cafe/Canteen,1,5,,673248,5,,52.37636100000000,13/00216/FOOD,153,wrsenquiries@worcsregservices.gov.uk,Wyre Forest,http://www.worcsregservices.gov.uk,-2.31562000000000,DY12 2EQ,2013-12-23,fhrs_5_en-GB,5,,FHRS,0
357211,St Marys C Of E Primary School,Stoney Lane,Kidderminster,Worcestershire,St Mary's CE (VA) Primary School,School/college/university,7845,5,,707366,10,,52.39649500000000,14/01072/FOOD,153,wrsenquiries@worcsregservices.gov.uk,Wyre Forest,http://www.worcsregservices.gov.uk,-2.24528000000000,DY10 2LX,2014-10-08,fhrs_4_en-GB,4,,FHRS,5
357212,Primary School,Sion Avenue,Kidderminster,Worcestershire,St Oswald's C Of E,School/college/university,7845,0,,673487,5,,52.40253400000000,WK/PI/000035108,153,wrsenquiries@worcsregservices.gov.uk,Wyre Forest,http://www.worcsregservices.gov.uk,-2.23327600000000,DY10 2YL,2014-02-14,fhrs_5_en-GB,5,,FHRS,0
357213,Broadwaters Drive,Kidderminster,Worcestershire,,St Oswalds Parish Centre,Other catering premises,7841,0,,673355,5,,,WK/PI/000005854,153,wrsenquiries@worcsregservices.gov.uk,Wyre Forest,http://www.worcsregservices.gov.uk,,,2009-06-26,fhrs_5_en-GB,5,,FHRS,5
357214,St.Catherine's Primary School,Marlpool Lane,Kidderminster,Worcestershire,St. Catherine's Childcare,Retailers - other,4613,0,,686727,5,,52.39800400000000,WK/PI/000048565,153,wrsenquiries@worcsregservices.gov.uk,Wyre Forest,http://www.worcsregservices.gov.uk,-2.26258700000000,DY11 5HP,2014-11-27,fhrs_5_en-GB,5,,FHRS,0
357215,Kidderminster Sorting Office,Carpet Trades Way,Kidderminster,Worcestershire,Staff Canteen,Restaurant/Cafe/Canteen,1,0,,686491,0,,,WK/PI/000007607,153,wrsenquiries@worcsregservices.gov.uk,Wyre Forest,http://www.worcsregservices.gov.uk,,DY10 6SD,2014-08-21,fhrs_5_en-GB,5,,FHRS,0
357216,25 Blackwell Street,Kidderminster,Worcestershire,,Star Kebab House,Takeaway/sandwich shop,7844,5,,673600,5,,52.39000900000000,WK/PI/000049341,153,wrsenquiries@worcsregservices.gov.uk,Wyre Forest,http://www.worcsregservices.gov.uk,-2.24752200000000,DY10 2DU,2013-01-22,fhrs_4_en-GB,4,,FHRS,10
357217,Weavers Wharf Retail Park,Weavers Wharf,Kidderminster,Worcestershire,Starbucks,Restaurant/Cafe/Canteen,1,0,,732478,0,,,14/00438/FOOD,153,wrsenquiries@worcsregservices.gov.uk,Wyre Forest,http://www.worcsregservices.gov.uk,,,2015-01-22,fhrs_5_en-GB,5,,FHRS,5
357218,SVR Railway Station,Bewdley,Worcestershire,,Station Refreshment Room,Restaurant/Cafe/Canteen,1,5,,686620,5,,52.37579900000000,WK/PI/000031937,153,wrsenquiries@worcsregservices.gov.uk,Wyre Forest,http://www.worcsregservices.gov.uk,-2.30712500000000,DY12 1BG,2013-03-06,fhrs_4_en-GB,4,,FHRS,10
357219,The Steps House,18 Gilgal,Stourport On Severn,Worcestershire,Steps House,Pub/bar/nightclub,7843,10,,704525,10,,52.34185200000000,14/01080/FOOD,153,wrsenquiries@worcsregservices.gov.uk,Wyre Forest,http://www.worcsregservices.gov.uk,-2.27421600000000,DY13 9AJ,2014-09-03,fhrs_3_en-GB,3,,FHRS,10
357220,Steve Morris Building,Stadium Close,Kidderminster,Worcestershire,Steve Morris And Co Ltd,Distributors/Transporters,7,,,734070,,,52.38302700000000,14/01020/FOOD,153,wrsenquiries@worcsregservices.gov.uk,Wyre Forest,http://www.worcsregservices.gov.uk,-2.24112000000000,DY10 1NJ,2015-01-21,fhrs_exempt_en-GB,Exempt,,FHRS,
357221,Stone,Kidderminster,Worcestershire,,Stone Manor Hotel,Restaurant/Cafe/Canteen,1,10,,673490,10,,52.36784800000000,WK/PI/000036998,153,wrsenquiries@worcsregservices.gov.uk,Wyre Forest,http://www.worcsregservices.gov.uk,-2.20016500000000,DY10 4PJ,2013-02-14,fhrs_3_en-GB,3,,FHRS,10
357222,20 Lombard Street,Stourport-On-Severn,Worcestershire,,Stourport Kebab & Pizza House,Takeaway/sandwich shop,7844,5,,673439,5,,52.34134100000000,WK/PI/000023846,153,wrsenquiries@worcsregservices.gov.uk,Wyre Forest,http://www.worcsregservices.gov.uk,-2.27756000000000,DY13 8DT,2014-07-23,fhrs_5_en-GB,5,,FHRS,0
357223,Park Avenue,Stourport On Severn,Stourport-on-severn,Worcestershire,Stourport Primary School,School/college/university,7845,5,,673300,5,,52.34289900000000,14/00812/COMM,153,wrsenquiries@worcsregservices.gov.uk,Wyre Forest,http://www.worcsregservices.gov.uk,-2.28418900000000,DY13 8SH,2014-04-30,fhrs_5_en-GB,5,,FHRS,0
357224,Kingsway,Stourport-On-Severn,Worcestershire,,Stourport Sports Club,Pub/bar/nightclub,7843,0,,673423,5,,52.35193500000000,WK/PI/000021482,153,wrsenquiries@worcsregservices.gov.uk,Wyre Forest,http://www.worcsregservices.gov.uk,-2.27627500000000,DY13 8BQ,2013-07-01,fhrs_5_en-GB,5,,FHRS,0
357225,Riverside Meadows,Stourport-On-Severn,,,Stourport Steamer Company,Restaurant/Cafe/Canteen,1,10,,673537,10,,,WK/PI/000046378,153,wrsenquiries@worcsregservices.gov.uk,Wyre Forest,http://www.worcsregservices.gov.uk,,,2010-03-23,fhrs_3_en-GB,3,,FHRS,5
357226,5 York Street,Stourport On Severn,Worcestershire,,Stourport Tandoori,Takeaway/sandwich shop,7844,0,,707368,5,,52.33925000000000,14/01127/FOOD,153,wrsenquiries@worcsregservices.gov.uk,Wyre Forest,http://www.worcsregservices.gov.uk,-2.28004200000000,DY13 9EQ,2014-10-07,fhrs_5_en-GB,5,,FHRS,5
357227,Workmans Club,Lickhill Road,Stourport On Severn,Worcestershire,Stourport Workmens Club,Pub/bar/nightclub,7843,5,,673429,5,,52.34096300000000,WK/PI/000022935,153,wrsenquiries@worcsregservices.gov.uk,Wyre Forest,http://www.worcsregservices.gov.uk,-2.28146200000000,DY13 8SB,2014-12-10,fhrs_5_en-GB,5,,FHRS,5
357228,23 High Street,Kidderminster,Worcestershire,,Subway,Takeaway/sandwich shop,7844,5,,718543,5,,52.38777700000000,14/01236/FOOD,153,wrsenquiries@worcsregservices.gov.uk,Wyre Forest,http://www.worcsregservices.gov.uk,-2.24853800000000,DY10 2DJ,2014-11-19,fhrs_4_en-GB,4,,FHRS,10
357229,80 Stourport Road,Kidderminster,Worcestershire,,Subway,Takeaway/sandwich shop,7844,5,,673237,5,,52.37521100000000,13/00045/FOOD,153,wrsenquiries@worcsregservices.gov.uk,Wyre Forest,http://www.worcsregservices.gov.uk,-2.25995400000000,DY11 7BQ,2015-02-04,fhrs_5_en-GB,5,,FHRS,5
357230,Cleobury Road,Bewdley,Worcestershire,,Summerdyne Nursing Home,Hospitals/Childcare/Caring Premises,5,5,,673376,5,,52.37161900000000,WK/PI/000010069,153,wrsenquiries@worcsregservices.gov.uk,Wyre Forest,http://www.worcsregservices.gov.uk,-2.33368200000000,DY12 2QQ,2014-11-14,fhrs_5_en-GB,5,,FHRS,5
357231,39 Oldnall Road,Kidderminster,Worcestershire,,Sunnycroft Residential Home,Hospitals/Childcare/Caring Premises,5,5,,673466,5,,52.38150900000000,WK/PI/000028929,153,wrsenquiries@worcsregservices.gov.uk,Wyre Forest,http://www.worcsregservices.gov.uk,-2.23626500000000,DY10 3HW,2011-10-13,fhrs_5_en-GB,5,,FHRS,0
357232,Sutton Park Community Primary Schoo,Greatfield Road,Kidderminster,Worcestershire,Sutton Park Community Primary School,School/college/university,7845,5,,673400,5,,52.38087100000000,WK/PI/000016244,153,wrsenquiries@worcsregservices.gov.uk,Wyre Forest,http://www.worcsregservices.gov.uk,-2.26990400000000,DY11 6PH,2013-09-09,fhrs_5_en-GB,5,,FHRS,0
357233,202 Sutton Road,Kidderminster,Worcestershire,,Sutton Road Fish Bar,Takeaway/sandwich shop,7844,5,,673255,5,,52.38469000000000,13/00371/FOOD,153,wrsenquiries@worcsregservices.gov.uk,Wyre Forest,http://www.worcsregservices.gov.uk,-2.26281600000000,DY11 6QJ,2013-08-22,fhrs_5_en-GB,5,,FHRS,5
357234,Unit D Green Street,Kidderminster,Worcestershire,,Suzy Cues Limited,Restaurant/Cafe/Canteen,1,10,,673608,10,,52.38336300000000,WK/PI/000049581,153,wrsenquiries@worcsregservices.gov.uk,Wyre Forest,http://www.worcsregservices.gov.uk,-2.24857200000000,DY10 1AL,2015-01-06,fhrs_3_en-GB,3,,FHRS,10
357235,31A Comberton Hill,Kidderminster,Worcestershire,,Tastyland,Takeaway/sandwich shop,7844,20,,673653,15,,52.38524000000000,WK/PI/000050740,153,wrsenquiries@worcsregservices.gov.uk,Wyre Forest,http://www.worcsregservices.gov.uk,-2.24075100000000,DY10 1QN,2014-10-06,fhrs_1_en-GB,1,,FHRS,15
357236,1 Load Street,Bewdley,Worcestershire,,Teddy Greys,Retailers - other,4613,10,,673434,5,,52.37585200000000,WK/PI/000023578,153,wrsenquiries@worcsregservices.gov.uk,Wyre Forest,http://www.worcsregservices.gov.uk,-2.31457300000000,DY12 2AF,2013-05-09,fhrs_3_en-GB,3,,FHRS,10
357237,88 New Road,Kidderminster,Worcestershire,,Temptations Indian Cuisine,Takeaway/sandwich shop,7844,5,,673281,10,,52.38457700000000,14/00410/FOOD,153,wrsenquiries@worcsregservices.gov.uk,Wyre Forest,http://www.worcsregservices.gov.uk,-2.24818200000000,DY10 1AE,2014-04-15,fhrs_4_en-GB,4,,FHRS,5
357238,& Sixth Form Centre,Stourport Road,Bewdley,Worcestershire,The Bewdley School,School/college/university,7845,5,,673494,5,,52.37347500000000,WK/PI/000037563,153,wrsenquiries@worcsregservices.gov.uk,Wyre Forest,http://www.worcsregservices.gov.uk,-2.30544900000000,DY12 1BL,2013-09-10,fhrs_5_en-GB,5,,FHRS,5
357239,Bird In Hand,5 Canal Side,Holly Road,Stourport On Severn,The Bird In Hand,Pub/bar/nightclub,7843,10,,698481,10,,52.34329900000000,14/01000/FOOD,153,wrsenquiries@worcsregservices.gov.uk,Wyre Forest,http://www.worcsregservices.gov.uk,-2.27082000000000,DY13 9BD,2014-08-04,fhrs_3_en-GB,3,,FHRS,5
357240,1 Mitton Street,Stourport On Severn,Worcestershire,,The Black Star,Pub/bar/nightclub,7843,5,,718541,5,,52.34077500000000,14/01139/FOOD,153,wrsenquiries@worcsregservices.gov.uk,Wyre Forest,http://www.worcsregservices.gov.uk,-2.27733600000000,DY13 8YP,2014-11-25,fhrs_5_en-GB,5,,FHRS,5
357241,Stourport Marina,Nelson Road,Sandy Lane Industrial Estate,Stourport On Severn,The Boathouse,Pub/bar/nightclub,7843,5,,729432,5,,52.32714900000000,14/01275/FOOD,153,wrsenquiries@worcsregservices.gov.uk,Wyre Forest,http://www.worcsregservices.gov.uk,-2.26815300000000,DY13 9QF,2014-12-22,fhrs_5_en-GB,5,,FHRS,5
357242,20 Vernon Road,Stourport On Severn,Stourport-on-severn,Worcestershire,The Cake Doctor,Mobile caterer,7846,5,,673263,5,,52.34171400000000,14/00021/FOOD,153,wrsenquiries@worcsregservices.gov.uk,Wyre Forest,http://www.worcsregservices.gov.uk,-2.27979300000000,DY13 8HA,2014-03-19,fhrs_5_en-GB,5,,FHRS,5
357243,615 Chester Road South,Kidderminster,Worcestershire,,The Chip Inn,Takeaway/sandwich shop,7844,5,,673372,5,,52.37139900000000,WK/PI/000009073,153,wrsenquiries@worcsregservices.gov.uk,Wyre Forest,http://www.worcsregservices.gov.uk,-2.24326100000000,DY10 1XL,2015-01-20,fhrs_5_en-GB,5,,FHRS,5
357244,Redstone Caravan Park,The Rough,Stourport-On-Severn,Worcestershire,The Chuck Wagon,Restaurant/Cafe/Canteen,1,5,,686758,10,,52.33237800000000,WK/PI/000049381,153,wrsenquiries@worcsregservices.gov.uk,Wyre Forest,http://www.worcsregservices.gov.uk,-2.27775300000000,DY13 0LD,2009-04-24,fhrs_4_en-GB,4,,FHRS,5
357245,Nursing Home,Broome,Stourbridge,West Midlands,The Coach House,Hospitals/Childcare/Caring Premises,5,10,,673360,10,,52.40323200000000,WK/PI/000006239,153,wrsenquiries@worcsregservices.gov.uk,Wyre Forest,http://www.worcsregservices.gov.uk,-2.14533800000000,DY9 0HB,2014-11-24,fhrs_3_en-GB,3,,FHRS,10
357246,Mid Counties Co-Operative,Lombard Street,Stourport On Severn,Worcs,The Coffee Shop,Restaurant/Cafe/Canteen,1,5,,673247,5,,52.34142100000000,13/00197/FOOD,153,wrsenquiries@worcsregservices.gov.uk,Wyre Forest,http://www.worcsregservices.gov.uk,-2.27805900000000,DY13 8DR,2013-09-30,fhrs_5_en-GB,5,,FHRS,5
357247,Coventry Street,Kidderminster,Worcestershire,,The Co-operative Childcare,Hospitals/Childcare/Caring Premises,5,0,,708938,0,,,14/01059/FOOD,153,wrsenquiries@worcsregservices.gov.uk,Wyre Forest,http://www.worcsregservices.gov.uk,,,2014-10-20,fhrs_5_en-GB,5,,FHRS,5
357248,Baldwin House,2 Lombard Street,Stourport On Severn,Stourport-on-severn,The Courtyard,Restaurant/Cafe/Canteen,1,5,,686424,5,,52.34134100000000,14/00348/FOOD,153,wrsenquiries@worcsregservices.gov.uk,Wyre Forest,http://www.worcsregservices.gov.uk,-2.27756000000000,DY13 8DT,2014-09-12,fhrs_5_en-GB,5,,FHRS,5
357249,28 Lorne Street,Kidderminster,Worcestershire,,The Cricketers Arms,Pub/bar/nightclub,7843,5,,686784,10,,52.38549200000000,WK/PI/000050057,153,wrsenquiries@worcsregservices.gov.uk,Wyre Forest,http://www.worcsregservices.gov.uk,-2.23605100000000,DY10 1SY,2009-05-26,fhrs_3_en-GB,3,,FHRS,10
357250,The Old Stables,The Old Vicarage,Pensax Road,Abberley,The Crunchy Pig,Mobile caterer,7846,5,,686412,5,,52.32235500000000,13/00105/FOOD,153,wrsenquiries@worcsregservices.gov.uk,Wyre Forest,http://www.worcsregservices.gov.uk,-2.40467400000000,WR6 6AH,2013-09-12,fhrs_5_en-GB,5,,FHRS,5
357251,176 Castle Road,Cookley,Kidderminster,Worcestershire,The Eagle & Spur,Pub/bar/nightclub,7843,10,,673618,10,,52.41868400000000,WK/PI/000049824,153,wrsenquiries@worcsregservices.gov.uk,Wyre Forest,http://www.worcsregservices.gov.uk,-2.23145000000000,DY10 3TB,2014-12-30,fhrs_3_en-GB,3,,FHRS,10
357252,Elizabeth Mills Centre,New Street,Stourport-On-Severn,Worcestershire,The Elizabeth Mills Centre,Restaurant/Cafe/Canteen,1,5,,686804,5,,52.33967700000000,WK/PI/000050996,153,wrsenquiries@worcsregservices.gov.uk,Wyre Forest,http://www.worcsregservices.gov.uk,-2.28164400000000,DY13 8UL,2014-08-05,fhrs_5_en-GB,5,,FHRS,5
357253,105 Habberley Road,Kidderminster,Worcestershire,,The Firs,Hospitals/Childcare/Caring Premises,5,0,,673601,5,,52.39293700000000,WK/PI/000049355,153,wrsenquiries@worcsregservices.gov.uk,Wyre Forest,http://www.worcsregservices.gov.uk,-2.27684000000000,DY11 5PW,2014-11-19,fhrs_5_en-GB,5,,FHRS,5
357254,Load Street,Bewdley,Worcestershire,,The Food Foundry,Restaurant/Cafe/Canteen,1,0,,673627,0,,52.37543500000000,WK/PI/000049960,153,wrsenquiries@worcsregservices.gov.uk,Wyre Forest,http://www.worcsregservices.gov.uk,-2.31576000000000,DY12 2AE,2013-05-10,fhrs_5_en-GB,5,,FHRS,5
357255,Forestry Commission Visitor Centre,Callow Hill,Rock,Kidderminster,The Forest Cafe,Restaurant/Cafe/Canteen,1,0,,673664,0,,52.36298100000000,WK/PI/000050978,153,wrsenquiries@worcsregservices.gov.uk,Wyre Forest,http://www.worcsregservices.gov.uk,-2.36943400000000,DY14 9XQ,2014-09-18,fhrs_5_en-GB,5,,FHRS,0
357256,The Fox Inn,Kidderminster Road,Lower Chaddesley,Chaddesley Corbett,The Fox,Pub/bar/nightclub,7843,10,,686418,10,,52.35616800000000,13/00372/FOOD,153,wrsenquiries@worcsregservices.gov.uk,Wyre Forest,http://www.worcsregservices.gov.uk,-2.16021800000000,DY10 4QN,2013-08-06,fhrs_3_en-GB,3,,FHRS,10
357257,18 Broomfield Road,Kidderminster,Worcestershire,,The Gables Rest Home,Hospitals/Childcare/Caring Premises,5,5,,686479,10,,52.39208800000000,WK/PI/000006317,153,wrsenquiries@worcsregservices.gov.uk,Wyre Forest,http://www.worcsregservices.gov.uk,-2.26319800000000,DY11 5PB,2014-09-30,fhrs_4_en-GB,4,,FHRS,5
357258,The Granary Hotel & Restaurant Ltd,Heath Lane,Shenstone,Kidderminster,The Granary,Hotel/bed & breakfast/guest house,7842,5,,673652,5,,52.35977800000000,WK/PI/000050692,153,wrsenquiries@worcsregservices.gov.uk,Wyre Forest,http://www.worcsregservices.gov.uk,-2.20866000000000,DY10 4BS,2011-08-23,fhrs_5_en-GB,5,,FHRS,5
357259,162 Sutton Park Road,Kidderminster,Worcestershire,,The Grange Resource Centre,Restaurant/Cafe/Canteen,1,5,,673496,5,,52.37656300000000,WK/PI/000038300,153,wrsenquiries@worcsregservices.gov.uk,Wyre Forest,http://www.worcsregservices.gov.uk,-2.27033300000000,DY11 6LF,2014-03-31,fhrs_5_en-GB,5,,FHRS,0
357260,Residential Care Home,8 Blakebrook,Kidderminster,Worcestershire,The Grove Tracscare,Hospitals/Childcare/Caring Premises,5,5,,673344,5,,52.38804900000000,WK/PI/000004542,153,wrsenquiries@worcsregservices.gov.uk,Wyre Forest,http://www.worcsregservices.gov.uk,-2.26424700000000,DY11 6AP,2014-05-01,fhrs_5_en-GB,5,,FHRS,5
357261,Hare And Hounds,Worcester Road,Shenstone,Kidderminster,The Hare And Hounds,Pub/bar/nightclub,7843,10,,732486,15,,52.36101600000000,15/00038/FOOD,153,wrsenquiries@worcsregservices.gov.uk,Wyre Forest,http://www.worcsregservices.gov.uk,-2.20500900000000,DY10 4BU,2015-01-15,fhrs_2_en-GB,2,,FHRS,10
357262,54 Mitton Street,Stourport-On-Severn,Worcestershire,,The Holly Bush,Restaurant/Cafe/Canteen,1,5,,673638,5,,52.34003200000000,WK/PI/000050138,153,wrsenquiries@worcsregservices.gov.uk,Wyre Forest,http://www.worcsregservices.gov.uk,-2.27612800000000,DY13 9AA,2014-08-11,fhrs_5_en-GB,5,,FHRS,5
357263,Hop Pole Inn,Hop Pole Lane,Bewdley,Worcestershire,The Hop Pole,Pub/bar/nightclub,7843,5,,686428,5,,52.37451700000000,14/00370/FOOD,153,wrsenquiries@worcsregservices.gov.uk,Wyre Forest,http://www.worcsregservices.gov.uk,-2.33257300000000,DY12 2QH,2014-03-13,fhrs_5_en-GB,5,,FHRS,5
357264,132 Chester Road South,Kidderminster,Worcestershire,,The Kiddies Day Nursery,Hospitals/Childcare/Caring Premises,5,5,,673371,10,,52.38154000000000,WK/PI/000009072,153,wrsenquiries@worcsregservices.gov.uk,Wyre Forest,http://www.worcsregservices.gov.uk,-2.23868900000000,DY10 1XE,2013-06-19,fhrs_4_en-GB,4,,FHRS,5
357265,Kingsway,Stourport-On-Severn,Worcestershire,,"The Kiddies Day Nursery,",Hospitals/Childcare/Caring Premises,5,5,,673422,10,,52.35007500000000,WK/PI/000021481,153,wrsenquiries@worcsregservices.gov.uk,Wyre Forest,http://www.worcsregservices.gov.uk,-2.27577900000000,DY13 8NH,2014-02-12,fhrs_4_en-GB,4,,FHRS,5
357266,33 Manor Avenue,Kidderminster,Worcestershire,,The Knoll School,School/college/university,7845,5,,673454,5,,52.39164100000000,WK/PI/000025323,153,wrsenquiries@worcsregservices.gov.uk,Wyre Forest,http://www.worcsregservices.gov.uk,-2.27750800000000,DY11 6EA,2014-12-09,fhrs_5_en-GB,5,,FHRS,5
357267,59 Larches Road,Kidderminster,Worcestershire,,The Larches Care Home,Hospitals/Childcare/Caring Premises,5,10,,673424,5,,52.37862800000000,WK/PI/000022093,153,wrsenquiries@worcsregservices.gov.uk,Wyre Forest,http://www.worcsregservices.gov.uk,-2.25556700000000,DY11 7AA,2013-05-08,fhrs_4_en-GB,4,,FHRS,5
357268,The Little Pack Horse,High Street,Bewdley,Worcestershire,The Little Packhorse,Pub/bar/nightclub,7843,5,,673408,5,,52.37429600000000,WK/PI/000018255,153,wrsenquiries@worcsregservices.gov.uk,Wyre Forest,http://www.worcsregservices.gov.uk,-2.31450400000000,DY12 2DH,2014-10-14,fhrs_5_en-GB,5,,FHRS,5
357269,Birmingham Road,Kidderminster,Worcestershire,,The Milestone At Land Oak,Pub/bar/nightclub,7843,0,,673338,5,,52.39245000000000,WK/PI/000004259,153,wrsenquiries@worcsregservices.gov.uk,Wyre Forest,http://www.worcsregservices.gov.uk,-2.23207600000000,DY10 2SA,2013-01-28,fhrs_5_en-GB,5,,FHRS,5
357270,12-14 Severn Side North,Bewdley,Worcestershire,,The Mug House Inn,Restaurant/Cafe/Canteen,1,5,,686631,5,,52.37682900000000,WK/PI/000034226,153,wrsenquiries@worcsregservices.gov.uk,Wyre Forest,http://www.worcsregservices.gov.uk,-2.31532900000000,DY12 2EE,2014-12-15,fhrs_5_en-GB,5,,FHRS,5
357271,63 Load Street,Bewdley,Worcestershire,,The Mulberry Restaurant,Restaurant/Cafe/Canteen,1,10,,673436,5,,52.37561300000000,WK/PI/000023710,153,wrsenquiries@worcsregservices.gov.uk,Wyre Forest,http://www.worcsregservices.gov.uk,-2.31632000000000,DY12 2AP,2012-06-26,fhrs_4_en-GB,4,,FHRS,5
357272,The Odell Centre,Plimsoll Street,Kidderminster,Worcestershire,The Odell Trust,Hospitals/Childcare/Caring Premises,5,0,,673472,5,,52.38584900000000,WK/PI/000030783,153,wrsenquiries@worcsregservices.gov.uk,Wyre Forest,http://www.worcsregservices.gov.uk,-2.25477100000000,DY11 6TZ,2014-03-14,fhrs_5_en-GB,5,,FHRS,0
357273,Old House At Home,26 Birmingham Road,Blakedown,Kidderminster,The Old House At Home,Pub/bar/nightclub,7843,20,,673251,20,,52.40291400000000,13/00296/FOOD,153,wrsenquiries@worcsregservices.gov.uk,Wyre Forest,http://www.worcsregservices.gov.uk,-2.18052500000000,DY10 3JE,2014-11-12,fhrs_0_en-GB,0,,FHRS,15
357274,Old Rose And Crown,1 Worcester Road,Stourport On Severn,Worcestershire,The Old Rose And Crown,Pub/bar/nightclub,7843,5,,718542,5,,52.33462200000000,14/01230/FOOD,153,wrsenquiries@worcsregservices.gov.uk,Wyre Forest,http://www.worcsregservices.gov.uk,-2.26730300000000,DY13 9PA,2014-11-25,fhrs_5_en-GB,5,,FHRS,5
357275,Bed & Breakfast,Wyre Hill,Bewdley,Worcestershire,The Old Town Hall,Hotel/bed & breakfast/guest house,7842,5,,673532,5,,52.37342700000000,WK/PI/000046006,153,wrsenquiries@worcsregservices.gov.uk,Wyre Forest,http://www.worcsregservices.gov.uk,-2.32338400000000,DY12 2UE,2008-01-31,fhrs_5_en-GB,5,,FHRS,0
357276,Wolverley Village,Wolverley,Kidderminster,Worcestershire,The Old Village Store,Retailers - other,4613,10,,673526,5,,52.41244400000000,WK/PI/000044311,153,wrsenquiries@worcsregservices.gov.uk,Wyre Forest,http://www.worcsregservices.gov.uk,-2.25360200000000,DY11 5XB,2014-11-12,fhrs_3_en-GB,3,,FHRS,10
357277,Old Waggon & Horses,Stourbridge Road,Ismere,Kidderminster,The Old Waggon & Horses,Pub/bar/nightclub,7843,10,,673492,10,,52.41860000000000,WK/PI/000037400,153,wrsenquiries@worcsregservices.gov.uk,Wyre Forest,http://www.worcsregservices.gov.uk,-2.19332200000000,DY10 3NX,2014-10-31,fhrs_3_en-GB,3,,FHRS,10
357278,20 Bridge Street,Stourport-On-Severn,Worcestershire,,The Open Kitchen,Restaurant/Cafe/Canteen,1,5,,673604,5,,52.33888600000000,WK/PI/000049369,153,wrsenquiries@worcsregservices.gov.uk,Wyre Forest,http://www.worcsregservices.gov.uk,-2.28163900000000,DY13 8UT,2014-12-09,fhrs_5_en-GB,5,,FHRS,5
357279,Arch Hill Court,Orchard Street,Kidderminster,Worcestershire,The Pantry,Hospitals/Childcare/Caring Premises,5,10,,673280,10,,52.39001600000000,14/00398/FOOD,153,wrsenquiries@worcsregservices.gov.uk,Wyre Forest,http://www.worcsregservices.gov.uk,-2.24840300000000,DY10 2JA,2014-03-19,fhrs_3_en-GB,3,,FHRS,10
357280,Unit 8 Barracks Road,Sandy Lane,Stourport,Worcestershire,The Pig Sty,Takeaway/sandwich shop,7844,0,,673304,5,,52.32886800000000,14/00845/FOOD,153,wrsenquiries@worcsregservices.gov.uk,Wyre Forest,http://www.worcsregservices.gov.uk,-2.26767900000000,DY13 9QB,2014-05-27,fhrs_5_en-GB,5,,FHRS,5
357281,Cleobury Road,"Far Forest, Rock",Kidderminster,Worcestershire,The Plough Inn,Pub/bar/nightclub,7843,10,,686509,10,,52.36774000000000,WK/PI/000010119,153,wrsenquiries@worcsregservices.gov.uk,Wyre Forest,http://www.worcsregservices.gov.uk,-2.39880300000000,DY14 9TE,2014-11-11,fhrs_3_en-GB,3,,FHRS,10
357282,17 Birmingham Road,Blakedown,Kidderminster,Worcestershire,The Poppies Residential Care Home,Hospitals/Childcare/Caring Premises,5,5,,686431,5,,52.40308400000000,14/00400/FOOD,153,wrsenquiries@worcsregservices.gov.uk,Wyre Forest,http://www.worcsregservices.gov.uk,-2.18086400000000,DY10 3JD,2014-09-03,fhrs_5_en-GB,5,,FHRS,5
357283,Public House,Wolverley Village,Wolverley,Kidderminster,The Queens Head,Pub/bar/nightclub,7843,10,,686755,10,,52.41244400000000,WK/PI/000049339,153,wrsenquiries@worcsregservices.gov.uk,Wyre Forest,http://www.worcsregservices.gov.uk,-2.25360200000000,DY11 5XB,2015-01-06,fhrs_3_en-GB,3,,FHRS,10
357284,8 Load Street,Bewdley,Worcestershire,,The Rajah Restaurant,Restaurant/Cafe/Canteen,1,5,,673437,5,,52.37585200000000,WK/PI/000023749,153,wrsenquiries@worcsregservices.gov.uk,Wyre Forest,http://www.worcsregservices.gov.uk,-2.31457300000000,DY12 2AF,2013-02-26,fhrs_4_en-GB,4,,FHRS,10
357285,Crossley Retail Park,Carpet Trades Way,Kidderminster,Worcestershire,The Range Home & Leisure,Retailers - other,4613,5,,686693,5,,52.39055700000000,WK/PI/000046394,153,wrsenquiries@worcsregservices.gov.uk,Wyre Forest,http://www.worcsregservices.gov.uk,-2.25587100000000,DY11 6DY,2015-01-05,fhrs_4_en-GB,4,,FHRS,10
357286,92 Blackwell Street,Kidderminster,Worcestershire,,The Red Man,Pub/bar/nightclub,7843,5,,673341,10,,52.39019900000000,WK/PI/000004495,153,wrsenquiries@worcsregservices.gov.uk,Wyre Forest,http://www.worcsregservices.gov.uk,-2.24706700000000,DY10 2DZ,2013-10-30,fhrs_4_en-GB,4,,FHRS,0
357287,Kidderminster Hospital,Bewdley Road,Kidderminster,Worcestershire,The Robertson Centre,Restaurant/Cafe/Canteen,1,5,,673666,5,,52.38517800000000,WK/PI/000050984,153,wrsenquiries@worcsregservices.gov.uk,Wyre Forest,http://www.worcsregservices.gov.uk,-2.26135000000000,DY11 6RJ,2014-12-19,fhrs_5_en-GB,5,,FHRS,5
357288,Drayton,Belbroughton,Stourbridge,West Midlands,The Robin Hood Inn,Restaurant/Cafe/Canteen,1,10,,673647,10,,52.38127300000000,WK/PI/000050550,153,wrsenquiries@worcsregservices.gov.uk,Wyre Forest,http://www.worcsregservices.gov.uk,-2.14238600000000,DY9 0BW,2010-06-18,fhrs_3_en-GB,3,,FHRS,10
357289,The Rock Cross Inn Rock Cross,Rock,Kidderminster,Worcestershire,The Rock Cross Inn,Restaurant/Cafe/Canteen,1,5,,673656,5,,52.33877900000000,WK/PI/000050787,153,wrsenquiries@worcsregservices.gov.uk,Wyre Forest,http://www.worcsregservices.gov.uk,-2.39176200000000,DY14 9SD,2013-01-14,fhrs_5_en-GB,5,,FHRS,5
357290,9 Lichfield Street,Stourport-On-Severn,Worcestershire,,The Royal British Legion,Pub/bar/nightclub,7843,0,,673428,5,,52.33801600000000,WK/PI/000022814,153,wrsenquiries@worcsregservices.gov.uk,Wyre Forest,http://www.worcsregservices.gov.uk,-2.27702500000000,DY13 9EU,2014-07-28,fhrs_5_en-GB,5,,FHRS,5
357291,Birmingham Road,Birmingham Road,Kidderminster,Worcestershire,The Shrubbery Nursing Home,Hospitals/Childcare/Caring Premises,5,5,,673606,5,,52.39109300000000,WK/PI/000049472,153,wrsenquiries@worcsregservices.gov.uk,Wyre Forest,http://www.worcsregservices.gov.uk,-2.23616900000000,DY10 2JZ,2014-09-22,fhrs_5_en-GB,5,,FHRS,5
357292,7 Farfield,Kidderminster,Worcestershire,,The Station Inn,Pub/bar/nightclub,7843,10,,673239,10,,52.38395100000000,13/00054/FOOD,153,wrsenquiries@worcsregservices.gov.uk,Wyre Forest,http://www.worcsregservices.gov.uk,-2.23779100000000,DY10 1UG,2014-09-23,fhrs_4_en-GB,4,,FHRS,0
357293,& Sixth Form Centre,Minster Road,Stourport-On-Severn,Worcestershire,The Stourport High School,Retailers - other,4613,5,,673461,5,,52.34941900000000,WK/PI/000027175,153,wrsenquiries@worcsregservices.gov.uk,Wyre Forest,http://www.worcsregservices.gov.uk,-2.27562800000000,DY13 8AX,2013-07-10,fhrs_5_en-GB,5,,FHRS,5
357294,9 Birmingham Road,Blakedown,Kidderminster,Worcestershire,The Swan,Pub/bar/nightclub,7843,10,,686743,10,,52.40308400000000,WK/PI/000049037,153,wrsenquiries@worcsregservices.gov.uk,Wyre Forest,http://www.worcsregservices.gov.uk,-2.18086400000000,DY10 3JD,2011-03-07,fhrs_3_en-GB,3,,FHRS,10
357295,The Swan,Vicar Street,Kidderminster,Worcestershire,The Swan,Pub/bar/nightclub,7843,5,,686781,5,,52.38727400000000,WK/PI/000050016,153,wrsenquiries@worcsregservices.gov.uk,Wyre Forest,http://www.worcsregservices.gov.uk,-2.24859400000000,DY10 1DE,2014-11-18,fhrs_5_en-GB,5,,FHRS,5
357296,The Village,Chaddesley Corbett,Kidderminster,Worcestershire,The Talbot Inn,Pub/bar/nightclub,7843,10,,686440,5,,52.36054700000000,14/00694/FOOD,153,wrsenquiries@worcsregservices.gov.uk,Wyre Forest,http://www.worcsregservices.gov.uk,-2.15954400000000,DY10 4SA,2014-02-26,fhrs_4_en-GB,4,,FHRS,5
357297,110 Tennyson Way,Kidderminster,Worcestershire,,The Tenny Fryer,Takeaway/sandwich shop,7844,5,,712518,5,,52.38936800000000,14/00411/FOOD,153,wrsenquiries@worcsregservices.gov.uk,Wyre Forest,http://www.worcsregservices.gov.uk,-2.22152400000000,DY10 3YT,2014-09-18,fhrs_4_en-GB,4,,FHRS,10
357298,Pensax Village Hall,Pensax,Abberley,Worcester,The Thrift Shop,Other catering premises,7841,5,,686611,5,,,WK/PI/000030179,153,wrsenquiries@worcsregservices.gov.uk,Wyre Forest,http://www.worcsregservices.gov.uk,,,2010-03-03,fhrs_4_en-GB,4,,FHRS,10
357299,The Village Butcher (Chaddesley) Lt,The Village,Chaddesley Corbett,Kidderminster,The Village Butcher,Retailers - other,4613,20,,673589,15,,52.36054700000000,WK/PI/000048822,153,wrsenquiries@worcsregservices.gov.uk,Wyre Forest,http://www.worcsregservices.gov.uk,-2.15954400000000,DY10 4SA,2010-10-27,fhrs_1_en-GB,1,,FHRS,10
357300,98 Comberton Hill,Kidderminster,Worcestershire,,The Weavers Real Ale House,Pub/bar/nightclub,7843,5,,673236,5,,52.38508500000000,13/00043/FOOD,153,wrsenquiries@worcsregservices.gov.uk,Wyre Forest,http://www.worcsregservices.gov.uk,-2.24188200000000,DY10 1QH,2013-09-16,fhrs_5_en-GB,5,,FHRS,0
357301,39 High Street,Stourport On Severn,Worcestershire,,The Wheatsheaf,Pub/bar/nightclub,7843,5,,673245,0,,52.33992500000000,13/00165/FOOD,153,wrsenquiries@worcsregservices.gov.uk,Wyre Forest,http://www.worcsregservices.gov.uk,-2.27970800000000,DY13 8BS,2013-09-23,fhrs_5_en-GB,5,,FHRS,5
357302,1 Severn Side,Stourport-On-Severn,Worcestershire,,The Windlass,Restaurant/Cafe/Canteen,1,5,,673630,5,,52.33704800000000,WK/PI/000050017,153,wrsenquiries@worcsregservices.gov.uk,Wyre Forest,http://www.worcsregservices.gov.uk,-2.27963100000000,DY13 9EN,2014-12-09,fhrs_5_en-GB,5,,FHRS,5
357303,1 Wolverley Road,Kidderminster,Worcestershire,,Three Crowns & A Sugar Loaf,Pub/bar/nightclub,7843,5,,673524,5,,52.40095000000000,WK/PI/000044200,153,wrsenquiries@worcsregservices.gov.uk,Wyre Forest,http://www.worcsregservices.gov.uk,-2.26820400000000,DY11 5JN,2012-05-15,fhrs_5_en-GB,5,,FHRS,5
357304,Unit D Rowland Hill Centre,Vicar Street,Kidderminster,Worcestershire,Three Lions Meat Co.,Retailers - other,4613,10,,673478,10,,52.38727400000000,WK/PI/000033146,153,wrsenquiries@worcsregservices.gov.uk,Wyre Forest,http://www.worcsregservices.gov.uk,-2.24859400000000,DY10 1DE,2014-11-18,fhrs_3_en-GB,3,,FHRS,10
357305,4 Lower Mill Street,Kidderminster,Worcestershire,,Three Shires Restaurant,Restaurant/Cafe/Canteen,1,10,,673448,10,,52.38808700000000,WK/PI/000024696,153,wrsenquiries@worcsregservices.gov.uk,Wyre Forest,http://www.worcsregservices.gov.uk,-2.25092000000000,DY11 6UU,2014-10-03,fhrs_3_en-GB,3,,FHRS,10
357306,24 Horsefair,Kidderminster,Worcestershire,,Tiger Bowl,Restaurant/Cafe/Canteen,1,10,,673413,10,,52.39185400000000,WK/PI/000019383,153,wrsenquiries@worcsregservices.gov.uk,Wyre Forest,http://www.worcsregservices.gov.uk,-2.24626800000000,DY10 2EN,2013-06-04,fhrs_3_en-GB,3,,FHRS,10
357307,@Lords & Ladies Day Nursery,Lower Lickhill Road,Stourport-On-Severn,Worcestershire,Tiny Toez,Hospitals/Childcare/Caring Premises,5,5,,673447,5,,52.34750100000000,WK/PI/000024582,153,wrsenquiries@worcsregservices.gov.uk,Wyre Forest,http://www.worcsregservices.gov.uk,-2.29549300000000,DY13 8RJ,2014-10-30,fhrs_5_en-GB,5,,FHRS,5
357308,Steel Wheels Ltd,Bridge Road,Cookley,Kidderminster,Titan Cafe,Restaurant/Cafe/Canteen,1,,,673665,,,52.42390800000000,WK/PI/000050979,153,wrsenquiries@worcsregservices.gov.uk,Wyre Forest,http://www.worcsregservices.gov.uk,-2.23569700000000,DY10 3SD,,fhrs_awaitinginspection_en-GB,AwaitingInspection,,FHRS,
357309,36 Worcester Road,Titton,Stourport-On-Severn,Worcestershire,Titton Stores,Retailers - other,4613,5,,673531,5,,52.32903300000000,WK/PI/000045559,153,wrsenquiries@worcsregservices.gov.uk,Wyre Forest,http://www.worcsregservices.gov.uk,-2.26206000000000,DY13 9PD,2014-12-17,fhrs_4_en-GB,4,,FHRS,10
357310,1 Peel Street,Kidderminster,Worcestershire,,Tony's Bakery,Retailers - other,4613,20,,686610,20,,52.38604100000000,WK/PI/000030011,153,wrsenquiries@worcsregservices.gov.uk,Wyre Forest,http://www.worcsregservices.gov.uk,-2.25719700000000,DY11 6UG,2014-10-24,fhrs_0_en-GB,0,,FHRS,15
357311,9 Towers Buildings,Blackwell Street,Kidderminster,Worcestershire,Town Fryer,Takeaway/sandwich shop,7844,5,,673282,10,,52.38921800000000,14/00413/FOOD,153,wrsenquiries@worcsregservices.gov.uk,Wyre Forest,http://www.worcsregservices.gov.uk,-2.24720900000000,DY10 2DY,2014-03-14,fhrs_4_en-GB,4,,FHRS,5
357312,Tracs Ltd (Residential Home),Honeybrook House,Honeybrook Lane,Kidderminster,Tracs Residential Home,Hospitals/Childcare/Caring Premises,5,5,,673592,5,,52.40267300000000,WK/PI/000048857,153,wrsenquiries@worcsregservices.gov.uk,Wyre Forest,http://www.worcsregservices.gov.uk,-2.26934600000000,DY11 5QS,2013-06-12,fhrs_5_en-GB,5,,FHRS,5
357313,Travelodge Kidderminster,Park Lane,Kidderminster,Worcestershire,Travelodge Hotels Ltd,Hotel/bed & breakfast/guest house,7842,5,,686806,0,,52.38029500000000,WK/PI/000051097,153,wrsenquiries@worcsregservices.gov.uk,Wyre Forest,http://www.worcsregservices.gov.uk,-2.25387300000000,DY11 6TL,2012-07-10,fhrs_5_en-GB,5,,FHRS,0
357314,Nib Green,Arley,Bewdley,Worcestershire,Tudor Barn Bed & Breakfast,Hotel/bed & breakfast/guest house,7842,5,,673465,0,,52.41381500000000,WK/PI/000028042,153,wrsenquiries@worcsregservices.gov.uk,Wyre Forest,http://www.worcsregservices.gov.uk,-2.35933200000000,DY12 3LY,2009-12-08,fhrs_5_en-GB,5,,FHRS,0
357315,Stourport Road,Kidderminster,Worcestershire,,Uef Automotive,Restaurant/Cafe/Canteen,1,0,,686647,0,,,WK/PI/000037775,153,wrsenquiries@worcsregservices.gov.uk,Wyre Forest,http://www.worcsregservices.gov.uk,,,2002-09-20,fhrs_5_en-GB,5,,FHRS,0
357316,112 Coventry Street,Kidderminster,Worcestershire,,Uppercrust,Takeaway/sandwich shop,7844,0,,673387,5,,52.38870700000000,WK/PI/000011338,153,wrsenquiries@worcsregservices.gov.uk,Wyre Forest,http://www.worcsregservices.gov.uk,-2.24676500000000,DY10 2BH,2013-08-28,fhrs_5_en-GB,5,,FHRS,5
357317,Morgan Advanced Ceramics,Morgan Advanced Ceramics,Bewdley Road,Stourport-On-Severn,V M Hayes Catering,Pub/bar/nightclub,7843,5,,673337,5,,52.34776700000000,WK/PI/000003770,153,wrsenquiries@worcsregservices.gov.uk,Wyre Forest,http://www.worcsregservices.gov.uk,-2.28979900000000,DY13 8QR,2014-08-26,fhrs_5_en-GB,5,,FHRS,0
357318,10A Comberton Hill,Kidderminster,Worcestershire,,Vaccaro's,Retailers - other,4613,10,,686783,10,,52.38557800000000,WK/PI/000050023,153,wrsenquiries@worcsregservices.gov.uk,Wyre Forest,http://www.worcsregservices.gov.uk,-2.24275100000000,DY10 1QG,2010-03-11,fhrs_3_en-GB,3,,FHRS,5
357319,57 Load Street,Bewdley,Worcestershire,,Vhujon Restaurant,Restaurant/Cafe/Canteen,1,5,,673570,5,,52.37561300000000,WK/PI/000047024,153,wrsenquiries@worcsregservices.gov.uk,Wyre Forest,http://www.worcsregservices.gov.uk,-2.31632000000000,DY12 2AP,2013-08-06,fhrs_5_en-GB,5,,FHRS,5
357320,Chester Road South,Kidderminster,Worcestershire,,Viaduct Tavern,Pub/bar/nightclub,7843,5,,673373,5,,,WK/PI/000009075,153,wrsenquiries@worcsregservices.gov.uk,Wyre Forest,http://www.worcsregservices.gov.uk,,,2012-04-25,fhrs_5_en-GB,5,,FHRS,5
357321,67 Dowles Road,Kidderminster,Worcestershire,,Vicki's Catering,Restaurant/Cafe/Canteen,1,10,,673392,15,,52.37184800000000,WK/PI/000012323,153,wrsenquiries@worcsregservices.gov.uk,Wyre Forest,http://www.worcsregservices.gov.uk,-2.27227200000000,DY11 7NY,2014-12-09,fhrs_2_en-GB,2,,FHRS,10
357322,15 Comberton Road,Kidderminster,Worcestershire,,Victoria House,Hotel/bed & breakfast/guest house,7842,5,,686514,5,,52.38478900000000,WK/PI/000010603,153,wrsenquiries@worcsregservices.gov.uk,Wyre Forest,http://www.worcsregservices.gov.uk,-2.23707500000000,DY10 1UA,2010-08-20,fhrs_5_en-GB,5,,FHRS,5
357323,4 Lion Hill,Stourport-On-Severn,Worcestershire,,Victoria Villas,Restaurant/Cafe/Canteen,1,0,,673432,5,,52.33965200000000,WK/PI/000023370,153,wrsenquiries@worcsregservices.gov.uk,Wyre Forest,http://www.worcsregservices.gov.uk,-2.27716700000000,DY13 9HD,2009-06-30,fhrs_5_en-GB,5,,FHRS,0
357324,91 Kidderminster Road,Bewdley,Worcestershire,,Waggon & Horses,Pub/bar/nightclub,7843,10,,673419,10,,52.38007300000000,WK/PI/000021119,153,wrsenquiries@worcsregservices.gov.uk,Wyre Forest,http://www.worcsregservices.gov.uk,-2.30223400000000,DY12 1DG,2014-06-10,fhrs_3_en-GB,3,,FHRS,10
357325,1 Welch Gate,Bewdley,Worcestershire,,Welchgate Cafe Bar & Guesthouse,Restaurant/Cafe/Canteen,1,5,,673516,5,,52.37550900000000,WK/PI/000042271,153,wrsenquiries@worcsregservices.gov.uk,Wyre Forest,http://www.worcsregservices.gov.uk,-2.31822900000000,DY12 2AT,2013-09-30,fhrs_5_en-GB,5,,FHRS,5
357326,99 Bewdley Road,Kidderminster,Worcestershire,,Westbourne,Other catering premises,7841,5,,673334,5,,52.38644000000000,WK/PI/000003614,153,wrsenquiries@worcsregservices.gov.uk,Wyre Forest,http://www.worcsregservices.gov.uk,-2.26004900000000,DY11 6RL,2008-10-21,fhrs_5_en-GB,5,,FHRS,5
357327,Westley Court Nursing Home,Austcliffe Lane,Cookley,Kidderminster,Westley Court,Hospitals/Childcare/Caring Premises,5,10,,686447,10,,52.42219700000000,14/00927/FOOD,153,wrsenquiries@worcsregservices.gov.uk,Wyre Forest,http://www.worcsregservices.gov.uk,-2.21848400000000,DY10 3RT,2014-06-17,fhrs_3_en-GB,3,,FHRS,10
357328,Wharton Park Golf & Country Club,Long Bank,Bewdley,Worcestershire,Wharton Park Golf  & Country  Club,Pub/bar/nightclub,7843,5,,673443,5,,52.36761700000000,WK/PI/000023958,153,wrsenquiries@worcsregservices.gov.uk,Wyre Forest,http://www.worcsregservices.gov.uk,-2.34333000000000,DY12 2QW,2015-01-07,fhrs_5_en-GB,5,,FHRS,5
357329,Wilden All Saints Ce Primary School,Wilden Lane,Stourport-On-Severn,Worcestershire,Wilden All Saints Ce Primary School,School/college/university,7845,10,,686672,5,,52.34909700000000,WK/PI/000043252,153,wrsenquiries@worcsregservices.gov.uk,Wyre Forest,http://www.worcsregservices.gov.uk,-2.25919900000000,DY13 9LP,2014-11-10,fhrs_4_en-GB,4,,FHRS,5
357330,Cursley Lane,Shenstone,Kidderminster,Worcestershire,Willow Marsh Fishery,Takeaway/sandwich shop,7844,5,,673625,10,,52.34724900000000,WK/PI/000049952,153,wrsenquiries@worcsregservices.gov.uk,Wyre Forest,http://www.worcsregservices.gov.uk,-2.19646000000000,DY10 4DX,2013-10-02,fhrs_4_en-GB,4,,FHRS,5
357331,Winterfold House,Bromsgrove Road,Winterfold,Chaddesley Corbett,Winterfold House School,Restaurant/Cafe/Canteen,1,0,,673521,0,,52.36218200000000,WK/PI/000043910,153,wrsenquiries@worcsregservices.gov.uk,Wyre Forest,http://www.worcsregservices.gov.uk,-2.18495500000000,DY10 4PW,2014-09-22,fhrs_5_en-GB,5,,FHRS,5
357332,Shatterford Lane,Wolverley,Kidderminster,Worcestershire,Wolverley Memorial Hall,Pub/bar/nightclub,7843,10,,673484,5,,52.41116800000000,WK/PI/000034598,153,wrsenquiries@worcsregservices.gov.uk,Wyre Forest,http://www.worcsregservices.gov.uk,-2.25732800000000,DY11 5TN,2013-12-23,fhrs_3_en-GB,3,,FHRS,10
357333,Wolverley Sebright Primary School,Franche Road,Wolverley,Kidderminster,Wolverley Sebright Primary School,School/college/university,7845,10,,673396,5,,52.40962200000000,WK/PI/000014958,153,wrsenquiries@worcsregservices.gov.uk,Wyre Forest,http://www.worcsregservices.gov.uk,-2.25729000000000,DY11 5TP,2009-09-15,fhrs_3_en-GB,3,,FHRS,10
357334,76 Welch Gate,Bewdley,Worcestershire,,Woodcolliers Arms,Pub/bar/nightclub,7843,5,,673517,5,,52.37543500000000,WK/PI/000042310,153,wrsenquiries@worcsregservices.gov.uk,Wyre Forest,http://www.worcsregservices.gov.uk,-2.31894800000000,DY12 2AU,2013-11-05,fhrs_5_en-GB,5,,FHRS,5
357335,164/165 Chester Road North,Kidderminster,Worcestershire,,Woodlands Residential Home,Hospitals/Childcare/Caring Premises,5,5,,673644,5,,52.38537900000000,WK/PI/000050281,153,wrsenquiries@worcsregservices.gov.uk,Wyre Forest,http://www.worcsregservices.gov.uk,-2.23436100000000,DY10 1TP,2012-12-11,fhrs_5_en-GB,5,,FHRS,5
357336,62 Arley,Bewdley,Worcestershire,,Worralls Grove Bed & Breakfast,Hotel/bed & breakfast/guest house,7842,0,,673658,0,,52.41575700000000,WK/PI/000050789,153,wrsenquiries@worcsregservices.gov.uk,Wyre Forest,http://www.worcsregservices.gov.uk,-2.34123400000000,DY12 1XL,2013-03-05,fhrs_5_en-GB,5,,FHRS,0
357337,Wilden All Saints Ce Primary School,Wilden Lane,Stourport-On-Severn,Worcestershire,Wraps Extended School Services,Restaurant/Cafe/Canteen,1,5,,686778,10,,52.34909700000000,WK/PI/000049956,153,wrsenquiries@worcsregservices.gov.uk,Wyre Forest,http://www.worcsregservices.gov.uk,-2.25919900000000,DY13 9LP,2009-10-21,fhrs_3_en-GB,3,,FHRS,10
357338,Wribbenhall Community Centre,Shaw Hedge Road,Bewdley,Worcestershire,Wribbenhall Community Centre,Other catering premises,7841,0,,673485,0,,52.38334900000000,WK/PI/000034679,153,wrsenquiries@worcsregservices.gov.uk,Wyre Forest,http://www.worcsregservices.gov.uk,-2.30794200000000,DY12 1EU,2009-07-23,fhrs_5_en-GB,5,,FHRS,5
357339,1 Blakebrook,Kidderminster,Worcestershire,,Wyre Forest Adult Placement,Retailers - other,4613,5,,686470,5,,52.38804900000000,WK/PI/000004506,153,wrsenquiries@worcsregservices.gov.uk,Wyre Forest,http://www.worcsregservices.gov.uk,-2.26424700000000,DY11 6AP,2014-09-05,fhrs_5_en-GB,5,,FHRS,5
357340,21 New Forest Close,Far Forest,Kidderminster,Worcestershire,Wyre Pie Company,Retailers - other,4613,0,,673298,0,,52.37056100000000,14/00786/FOOD,153,wrsenquiries@worcsregservices.gov.uk,Wyre Forest,http://www.worcsregservices.gov.uk,-2.39653700000000,DY14 9TJ,2014-10-07,fhrs_5_en-GB,5,,FHRS,0
357341,Old Crown House,Bridge Street,Stourport-On-Severn,Worcestershire,Ye Old Crown Inn,Pub/bar/nightclub,7843,5,,673353,5,,,WK/PI/000005405,153,wrsenquiries@worcsregservices.gov.uk,Wyre Forest,http://www.worcsregservices.gov.uk,,DY13 8XB,2014-05-01,fhrs_5_en-GB,5,,FHRS,5
357342,13-14 Coventry Street,Kidderminster,Worcestershire,,Ye Olde Seven Stars,Pub/bar/nightclub,7843,5,,673591,10,,52.38901300000000,WK/PI/000048837,153,wrsenquiries@worcsregservices.gov.uk,Wyre Forest,http://www.worcsregservices.gov.uk,-2.24650200000000,DY10 2BG,2009-11-12,fhrs_3_en-GB,3,,FHRS,10
357343,4 York Street,Stourport On Severn,Stourport-on-severn,Worcestershire,York Street Butchers,Manufacturers/packers,7839,5,,673301,5,,52.33925000000000,14/00813/FOOD,153,wrsenquiries@worcsregservices.gov.uk,Wyre Forest,http://www.worcsregservices.gov.uk,-2.28004200000000,DY13 9EQ,2014-05-21,fhrs_5_en-GB,5,,FHRS,0
357344,46 Mill Street,Kidderminster,Worcestershire,,Zafran,Takeaway/sandwich shop,7844,10,,673458,10,,52.38933300000000,WK/PI/000027010,153,wrsenquiries@worcsregservices.gov.uk,Wyre Forest,http://www.worcsregservices.gov.uk,-2.25656900000000,DY11 6XB,2010-02-24,fhrs_3_en-GB,3,,FHRS,10
357345,8 Horsefair,Kidderminster,Worcestershire,,Zeera Tandoori,Restaurant/Cafe/Canteen,1,5,,673414,10,,52.39198800000000,WK/PI/000019397,153,wrsenquiries@worcsregservices.gov.uk,Wyre Forest,http://www.worcsregservices.gov.uk,-2.24669500000000,DY10 2EW,2013-07-23,fhrs_3_en-GB,3,,FHRS,10
