,addressline1,addressline2,addressline3,addressline4,businessname,businesstype,businesstypeid,confidenceinmanagement,extractdate,fhrsid,hygiene,itemcount,latitude,localauthoritybusinessid,localauthoritycode,localauthorityemailaddress,localauthorityname,localauthoritywebsite,longitude,postcode,ratingdate,ratingkey,ratingvalue,returncode,schemetype,structural
6958,37 High Road,Broxbourne,Hertfordshire,,A Coffee Affair,Restaurant/Cafe/Canteen,1,10,,178751,5,,51.74865400000000,PI/000049880,155,envhealth@broxbourne.gov.uk,Broxbourne,http://www.broxbourne.gov.uk,-0.01855600000000,EN10 7HX,2014-10-23,fhrs_4_en-GB,4,,FHRS,0
6959,Unit 7,Trident Industrial Estate,Pindar Road,Hoddesdon,Adventure Castle,Restaurant/Cafe/Canteen,1,5,,178822,10,,51.76435200000000,PI/000050457,155,envhealth@broxbourne.gov.uk,Broxbourne,http://www.broxbourne.gov.uk,0.00339100000000,EN11 0DE,2014-05-22,fhrs_4_en-GB,4,,FHRS,5
6960,37 High Street,Waltham Cross,Hertfordshire,,Aksiâs Bakery and Sandwich Bar,Retailers - other,4613,5,,445828,5,,51.68340700000000,PI/000052118,155,envhealth@broxbourne.gov.uk,Broxbourne,http://www.broxbourne.gov.uk,-0.03361600000000,EN8 7AB,2012-08-17,fhrs_5_en-GB,5,,FHRS,0
6961,Taverners Way,Hoddesdon,Hertfordshire,,Aldi Stores Limited,Retailers - supermarkets/hypermarkets,7840,5,,177955,5,,51.76069300000000,PI/000044495,155,envhealth@broxbourne.gov.uk,Broxbourne,http://www.broxbourne.gov.uk,-0.01255200000000,EN11 8TY,2012-02-22,fhrs_5_en-GB,5,,FHRS,5
6962,251 High Street,Waltham Cross,Hertfordshire,,Alimentari Scipione,Takeaway/sandwich shop,7844,0,,627081,10,,51.69122500000000,PI/000053932,155,envhealth@broxbourne.gov.uk,Broxbourne,http://www.broxbourne.gov.uk,-0.03437700000000,EN8 7BE,2014-01-15,fhrs_4_en-GB,4,,FHRS,5
6963,375 Ware Road,Hoddesdon,Hertfordshire,,All About The Sausage,Restaurant/Cafe/Canteen,1,5,,636125,5,,51.77981000000000,PI/000052453,155,envhealth@broxbourne.gov.uk,Broxbourne,http://www.broxbourne.gov.uk,-0.01413300000000,SG13 7PE,2014-02-10,fhrs_4_en-GB,4,,FHRS,10
6964,Unit 13,Impresa Park,Pindar Road,Hoddesdon,All in One Pizza,Takeaway/sandwich shop,7844,5,,307946,5,,51.76598600000000,PI/000050881,155,envhealth@broxbourne.gov.uk,Broxbourne,http://www.broxbourne.gov.uk,0.00508700000000,EN11 0DL,2013-10-07,fhrs_4_en-GB,4,,FHRS,10
6965,259 High Street,Waltham Cross,Hertfordshire,,Americana Fried Chicken & Pizza,Takeaway/sandwich shop,7844,5,,164532,5,,51.69122500000000,PI/000006477,155,envhealth@broxbourne.gov.uk,Broxbourne,http://www.broxbourne.gov.uk,-0.03437700000000,EN8 7BE,2014-09-16,fhrs_4_en-GB,4,,FHRS,10
6966,Andrews Lane,Cheshunt,Hertfordshire,,Andrews Lane Primary School,School/college/university,7845,0,,177198,0,,51.70996000000000,PI/000041137,155,envhealth@broxbourne.gov.uk,Broxbourne,http://www.broxbourne.gov.uk,-0.05461100000000,EN7 6LB,2014-03-04,fhrs_5_en-GB,5,,FHRS,0
6967,Unit 8,Optima Business Park,Pindar Road,Hoddesdon,Angels at Play Day Nursery,Hospitals/Childcare/Caring Premises,5,0,,176745,5,,51.76360400000000,PI/000038705,155,envhealth@broxbourne.gov.uk,Broxbourne,http://www.broxbourne.gov.uk,0.00503900000000,EN11 0DY,2014-10-27,fhrs_5_en-GB,5,,FHRS,0
6968,39 Chaucer Way,Hoddesdon,Hertfordshire,,Animal Gym,Other catering premises,7841,10,,627079,5,,51.77637100000000,PI/000053892,155,envhealth@broxbourne.gov.uk,Broxbourne,http://www.broxbourne.gov.uk,-0.00802100000000,EN11 9QP,2014-01-17,fhrs_4_en-GB,4,,FHRS,5
6969,,,,,Anita Sails Again,Other catering premises,7841,5,,578593,5,,,PI/000053711,155,envhealth@broxbourne.gov.uk,Broxbourne,http://www.broxbourne.gov.uk,,,2013-07-08,fhrs_5_en-GB,5,,FHRS,0
6970,Churchfield CE VA Primary School & Nursery,Cheshunt Wash,Cheshunt,Hertfordshire,Apple Blossom Pre-School,School/college/university,7845,5,,732889,5,,51.71535800000000,PI/000054468,155,envhealth@broxbourne.gov.uk,Broxbourne,http://www.broxbourne.gov.uk,-0.02781400000000,EN8 0LU,2015-01-16,fhrs_5_en-GB,5,,FHRS,5
6971,Unit 7,Brookfield Retail Park,Halfhide Lane,Cheshunt,Argos,Retailers - other,4613,,,177559,,,51.71916500000000,PI/000042709,155,envhealth@broxbourne.gov.uk,Broxbourne,http://www.broxbourne.gov.uk,-0.03871000000000,EN8 0QE,2013-01-25,fhrs_exempt_en-GB,Exempt,,FHRS,
6972,64 Stanstead Road,Hoddesdon,Hertfordshire,,Arkay Newsagents,Retailers - other,4613,,,175143,,,51.76958700000000,PI/000031264,155,envhealth@broxbourne.gov.uk,Broxbourne,http://www.broxbourne.gov.uk,-0.00727700000000,EN11 0RL,2012-06-11,fhrs_exempt_en-GB,Exempt,,FHRS,
6973,Blindmans Lane,Cheshunt,Hertfordshire,,Arlesdene Nursery School,Hospitals/Childcare/Caring Premises,5,0,,177539,5,,51.70415000000000,PI/000042644,155,envhealth@broxbourne.gov.uk,Broxbourne,http://www.broxbourne.gov.uk,-0.03992400000000,EN8 9DW,2014-09-29,fhrs_5_en-GB,5,,FHRS,0
6974,Asda,Conduit Lane,Hoddesdon,Hertfordshire,Asda Supermarket,Retailers - supermarkets/hypermarkets,7840,0,,188289,5,,51.75939700000000,PI/000050810,155,envhealth@broxbourne.gov.uk,Broxbourne,http://www.broxbourne.gov.uk,-0.01089900000000,EN11 8EP,2013-12-16,fhrs_5_en-GB,5,,FHRS,0
6975,109 Rye Road,Hoddesdon,Hertfordshire,,Ashoka Indian Restaurant,Restaurant/Cafe/Canteen,1,5,,732890,5,,51.76701300000000,PI/000054478,155,envhealth@broxbourne.gov.uk,Broxbourne,http://www.broxbourne.gov.uk,-0.00398400000000,EN11 0JP,2015-01-15,fhrs_5_en-GB,5,,FHRS,5
6976,The Grange,97 Crossbrook Street,Cheshunt,Hertfordshire,Asquith Nursery & Pre School,Hospitals/Childcare/Caring Premises,5,0,,661343,5,,51.69665700000000,PI/000053908,155,envhealth@broxbourne.gov.uk,Broxbourne,http://www.broxbourne.gov.uk,-0.03490800000000,EN8 8LY,2014-04-29,fhrs_5_en-GB,5,,FHRS,0
6977,,,,,B & B,Hotel/bed & breakfast/guest house,7842,10,,176355,0,,,PI/000036750,155,envhealth@broxbourne.gov.uk,Broxbourne,http://www.broxbourne.gov.uk,,,2014-07-28,fhrs_4_en-GB,4,,FHRS,0
6978,,,,,B & B(Station Road),Hotel/bed & breakfast/guest house,7842,5,,174249,5,,,PI/000028519,155,envhealth@broxbourne.gov.uk,Broxbourne,http://www.broxbourne.gov.uk,,,2014-11-06,fhrs_5_en-GB,5,,FHRS,5
6979,,,,,Baking & Decorating By Nicki,Other catering premises,7841,5,,551287,0,,,PI/000053697,155,envhealth@broxbourne.gov.uk,Broxbourne,http://www.broxbourne.gov.uk,,,2013-05-20,fhrs_5_en-GB,5,,FHRS,0
6980,51 High Road,Broxbourne,Hertfordshire,,Bargin Booze,Retailers - other,4613,5,,676797,5,,51.74865400000000,PI/000053793,155,envhealth@broxbourne.gov.uk,Broxbourne,http://www.broxbourne.gov.uk,-0.01855600000000,EN10 7HX,2014-04-10,fhrs_5_en-GB,5,,FHRS,0
6981,Hoddesdon Over 60s Centre,Burford Street,Hoddesdon,Hertfordshire,BASC,Other catering premises,7841,5,,178891,0,,51.76626700000000,PI/000050682,155,envhealth@broxbourne.gov.uk,Broxbourne,http://www.broxbourne.gov.uk,-0.00771300000000,EN11 8JA,2012-11-22,fhrs_5_en-GB,5,,FHRS,0
6982,194A Eleanor Cross Road,Waltham Cross,Hertfordshire,,Bazar,Retailers - other,4613,0,,370845,5,,51.68551800000000,PI/000026927,155,envhealth@broxbourne.gov.uk,Broxbourne,http://www.broxbourne.gov.uk,-0.01901400000000,EN8 7PW,2013-12-11,fhrs_5_en-GB,5,,FHRS,5
6983,,,,,Bazar,Other catering premises,7841,0,,530458,0,,,PI/000053619,155,envhealth@broxbourne.gov.uk,Broxbourne,http://www.broxbourne.gov.uk,,,2014-10-02,fhrs_5_en-GB,5,,FHRS,0
6984,,,,,BBQ Mad,Other catering premises,7841,0,,456535,0,,,PI/000052119,155,envhealth@broxbourne.gov.uk,Broxbourne,http://www.broxbourne.gov.uk,,,2014-08-04,fhrs_5_en-GB,5,,FHRS,0
6985,72 High Street,Waltham Cross,Hertfordshire,,Beata Shop,Retailers - other,4613,5,,664324,5,,51.68409900000000,PI/000053806,155,envhealth@broxbourne.gov.uk,Broxbourne,http://www.broxbourne.gov.uk,-0.03250100000000,EN8 7BU,2014-05-12,fhrs_4_en-GB,4,,FHRS,10
6986,Turners Hill,Cheshunt,Hertfordshire,,Beaumont Centre,Hospitals/Childcare/Caring Premises,5,0,,578589,5,,51.70405800000000,PI/000046885,155,envhealth@broxbourne.gov.uk,Broxbourne,http://www.broxbourne.gov.uk,-0.03493500000000,EN8 9BE,2014-03-21,fhrs_5_en-GB,5,,FHRS,5
6987,120 High Street,Waltham Cross,Hertfordshire,,Bereket Kasab,Retailers - other,4613,10,,509929,15,,51.68527800000000,PI/000053482,155,envhealth@broxbourne.gov.uk,Broxbourne,http://www.broxbourne.gov.uk,-0.03256500000000,EN8 7BX,2014-08-11,fhrs_2_en-GB,2,,FHRS,10
6988,5 Cheshunt Wash,Cheshunt,Hertfordshire,,Best Fish and Chips,Takeaway/sandwich shop,7844,10,,170930,10,,51.71440600000000,PI/000019040,155,envhealth@broxbourne.gov.uk,Broxbourne,http://www.broxbourne.gov.uk,-0.03050500000000,EN8 0LJ,2014-07-31,fhrs_3_en-GB,3,,FHRS,10
6989,1 Cheshunt Wash,Cheshunt,Hertfordshire,,Best Market,Retailers - other,4613,5,,170925,5,,51.71440600000000,PI/000019033,155,envhealth@broxbourne.gov.uk,Broxbourne,http://www.broxbourne.gov.uk,-0.03050500000000,EN8 0LJ,2012-12-04,fhrs_5_en-GB,5,,FHRS,5
6990,35 High Street,Waltham Cross,Hertfordshire,,Best One,Retailers - other,4613,5,,703661,5,,51.68340700000000,PI/000054115,155,envhealth@broxbourne.gov.uk,Broxbourne,http://www.broxbourne.gov.uk,-0.03361600000000,EN8 7AB,2014-09-23,fhrs_5_en-GB,5,,FHRS,5
6991,Beaufort Suite,Churchgate,Cheshunt,Hertfordshire,Bishops College,Other catering premises,7841,,,176585,,,51.70361000000000,PI/000037954,155,envhealth@broxbourne.gov.uk,Broxbourne,http://www.broxbourne.gov.uk,-0.04750200000000,EN8 9XQ,2013-01-31,fhrs_exempt_en-GB,Exempt,,FHRS,
6992,Huntingdon Hall,Churchgate,Cheshunt,Hertfordshire,Bishops College,Other catering premises,7841,,,177995,,,51.70361100000000,PI/000044704,155,envhealth@broxbourne.gov.uk,Broxbourne,http://www.broxbourne.gov.uk,-0.04750200000000,EN8 9XQ,2012-03-16,fhrs_exempt_en-GB,Exempt,,FHRS,
6993,,,,,Blood Orange,Retailers - other,4613,5,,703660,5,,,PI/000031794,155,envhealth@broxbourne.gov.uk,Broxbourne,http://www.broxbourne.gov.uk,,,2014-10-01,fhrs_5_en-GB,5,,FHRS,0
6994,,,,,BonBon Bakery,Retailers - other,4613,5,,178886,5,,,PI/000050679,155,envhealth@broxbourne.gov.uk,Broxbourne,http://www.broxbourne.gov.uk,,,2013-06-08,fhrs_5_en-GB,5,,FHRS,0
6995,Bonneygrove Primary School,Dark Lane,Cheshunt,Hertfordshire,Bonneygrove County Primary School,School/college/university,7845,0,,177538,0,,51.70192300000000,PI/000042643,155,envhealth@broxbourne.gov.uk,Broxbourne,http://www.broxbourne.gov.uk,-0.05635900000000,EN7 5ED,2014-06-23,fhrs_5_en-GB,5,,FHRS,5
6996,,,,,Booster Box Mobile Van,Takeaway/sandwich shop,7844,10,,591850,5,,,PI/000053794,155,envhealth@broxbourne.gov.uk,Broxbourne,http://www.broxbourne.gov.uk,,,2013-06-21,fhrs_4_en-GB,4,,FHRS,5
6997,692-694 Goffs Lane,Goffs Oak,Hertfordshire,,Boots the Chemist,Retailers - other,4613,,,167372,,,51.71015200000000,PI/000011304,155,envhealth@broxbourne.gov.uk,Broxbourne,http://www.broxbourne.gov.uk,-0.08599800000000,EN7 5ET,2014-02-24,fhrs_exempt_en-GB,Exempt,,FHRS,
6998,81 The Pavilion,High Street,Waltham Cross,Hertfordshire,Boots The Chemists,Retailers - other,4613,,,176774,,,51.68651300000000,PI/000038825,155,envhealth@broxbourne.gov.uk,Broxbourne,http://www.broxbourne.gov.uk,-0.03220800000000,EN8 7BZ,2014-01-07,fhrs_exempt_en-GB,Exempt,,FHRS,
6999,4-6 Fawkon Walk,Hoddesdon,Hertfordshire,,Boots The Chemists Ltd,Retailers - other,4613,,,174811,,,51.76022000000000,PI/000030172,155,envhealth@broxbourne.gov.uk,Broxbourne,http://www.broxbourne.gov.uk,-0.01279000000000,EN11 8TJ,2013-08-28,fhrs_exempt_en-GB,Exempt,,FHRS,
7000,Unit 6,Brookfield Retail Park,Halfhide Lane,Cheshunt,Boots UK Limited,Retailers - other,4613,0,,177591,0,,51.71916500000000,PI/000042760,155,envhealth@broxbourne.gov.uk,Broxbourne,http://www.broxbourne.gov.uk,-0.03871000000000,EN8 0QE,2013-01-11,fhrs_5_en-GB,5,,FHRS,0
7001,1 Russells Ride,Cheshunt,Hertfordshire,,Bouncing Bees,Hospitals/Childcare/Caring Premises,5,0,,439390,5,,51.69761500000000,PI/000050928,155,envhealth@broxbourne.gov.uk,Broxbourne,http://www.broxbourne.gov.uk,-0.03305800000000,EN8 8TS,2014-02-12,fhrs_5_en-GB,5,,FHRS,5
7002,59 High Street,Hoddesdon,Hertfordshire,,Bowmans,Retailers - other,4613,,,177269,,,51.75961200000000,PI/000041323,155,envhealth@broxbourne.gov.uk,Broxbourne,http://www.broxbourne.gov.uk,-0.01244000000000,EN11 8TQ,2012-05-02,fhrs_exempt_en-GB,Exempt,,FHRS,
7003,Petrol Filling Station,238 Great Cambridge Road,Cheshunt,Hertfordshire,BP Kilsmore Way Connect,Retailers - other,4613,0,,167579,0,,51.71066000000000,PI/000011739,155,envhealth@broxbourne.gov.uk,Broxbourne,http://www.broxbourne.gov.uk,-0.03988900000000,EN8 0NF,2014-02-06,fhrs_5_en-GB,5,,FHRS,5
7004,Petrol Filling Station,26-30 Ware Road,Hoddesdon,Hertfordshire,BP Ware Road Connect,Retailers - other,4613,0,,175487,5,,51.76702300000000,PI/000032582,155,envhealth@broxbourne.gov.uk,Broxbourne,http://www.broxbourne.gov.uk,-0.01201300000000,EN11 9DU,2014-07-31,fhrs_5_en-GB,5,,FHRS,0
7005,,,,,Break Time,Other catering premises,7841,10,,466458,5,,,PI/000053237,155,envhealth@broxbourne.gov.uk,Broxbourne,http://www.broxbourne.gov.uk,,,2012-11-16,fhrs_4_en-GB,4,,FHRS,0
7006,St Augustines Catholic Primary School,Riversmead,Hoddesdon,Hertfordshire,Breakfast Club,School/college/university,7845,5,,558351,5,,51.84004974365234,PI/000053720,155,envhealth@broxbourne.gov.uk,Broxbourne,http://www.broxbourne.gov.uk,-0.27510499954224,EN11 8DP,2013-06-12,fhrs_5_en-GB,5,,FHRS,0
7007,Andrews Lane Primary School,Andrews Lane,Cheshunt,,Bright Sparks,Hospitals/Childcare/Caring Premises,5,5,,178226,0,,51.70996000000000,PI/000045914,155,envhealth@broxbourne.gov.uk,Broxbourne,http://www.broxbourne.gov.uk,-0.05461100000000,EN7 6LB,2013-02-14,fhrs_5_en-GB,5,,FHRS,0
7008,Britannia Road,Waltham Cross,Hertfordshire,,Britannia Cafe,Restaurant/Cafe/Canteen,1,5,,612717,5,,51.68418400000000,PI/000053719,155,envhealth@broxbourne.gov.uk,Broxbourne,http://www.broxbourne.gov.uk,-0.02471400000000,EN8 7NY,2013-11-21,fhrs_5_en-GB,5,,FHRS,5
7009,39 High Street,Cheshunt,Hertfordshire,,British Food Centre,Retailers - other,4613,10,,708240,5,,51.70942700000000,PI/000054433,155,envhealth@broxbourne.gov.uk,Broxbourne,http://www.broxbourne.gov.uk,-0.03662700000000,EN8 0BS,2014-03-26,fhrs_4_en-GB,4,,FHRS,5
7010,68-70 Amwell Street,Hoddesdon,Hertfordshire,,British Legion,Pub/bar/nightclub,7843,5,,664323,0,,51.76469800000000,PI/000049526,155,envhealth@broxbourne.gov.uk,Broxbourne,http://www.broxbourne.gov.uk,-0.01115800000000,EN11 8UA,2014-05-15,fhrs_5_en-GB,5,,FHRS,0
7011,Mobile Snack Bar,Fairways,Cheshunt,Hertfordshire,Brookfield Grill,Takeaway/sandwich shop,7844,5,,216318,10,,51.71876900000000,PI/000049815,155,envhealth@broxbourne.gov.uk,Broxbourne,http://www.broxbourne.gov.uk,-0.03600500000000,EN8 0NL,2013-08-08,fhrs_4_en-GB,4,,FHRS,5
7012,Brookland Infant and Nursery School,Elm Drive,Cheshunt,Hertfordshire,Brookland Infant & Nursery School,School/college/university,7845,0,,177542,0,,51.70986400000000,PI/000042646,155,envhealth@broxbourne.gov.uk,Broxbourne,http://www.broxbourne.gov.uk,-0.02889300000000,EN8 0RX,2013-03-06,fhrs_5_en-GB,5,,FHRS,5
7013,Elm Drive,Cheshunt,Hertfordshire,,Brookland Junior School,School/college/university,7845,0,,177540,0,,51.70986400000000,PI/000042645,155,envhealth@broxbourne.gov.uk,Broxbourne,http://www.broxbourne.gov.uk,-0.02889300000000,EN8 0RX,2013-07-08,fhrs_5_en-GB,5,,FHRS,5
7014,Mill Lane,Broxbourne,Hertfordshire,,Broxbourne C E Primary School,School/college/university,7845,0,,177554,5,,51.74156500000000,PI/000042704,155,envhealth@broxbourne.gov.uk,Broxbourne,http://www.broxbourne.gov.uk,-0.01783800000000,EN10 7AY,2013-12-12,fhrs_5_en-GB,5,,FHRS,5
7015,King Arthur Court,Cheshunt,Hertfordshire,,Broxbourne Day Services,Other catering premises,7841,0,,169148,5,,51.70012400000000,PI/000014523,155,envhealth@broxbourne.gov.uk,Broxbourne,http://www.broxbourne.gov.uk,-0.03037300000000,EN8 8EH,2014-09-24,fhrs_5_en-GB,5,,FHRS,0
7016,Petrol Filling Station,74-76 High Road,Wormley,Hertfordshire,Broxbourne Filling Station,Retailers - other,4613,5,,178315,5,,51.73009400000000,PI/000046339,155,envhealth@broxbourne.gov.uk,Broxbourne,http://www.broxbourne.gov.uk,-0.02601500000000,EN10 6DU,2014-12-18,fhrs_4_en-GB,4,,FHRS,10
7017,31 High Road,Broxbourne,Hertfordshire,,Broxbourne Food and Wine,Retailers - other,4613,10,,173009,0,,51.74865400000000,PI/000024680,155,envhealth@broxbourne.gov.uk,Broxbourne,http://www.broxbourne.gov.uk,-0.01855600000000,EN10 7HX,2013-03-04,fhrs_4_en-GB,4,,FHRS,0
7018,Church Lane,Wormley,Hertfordshire,,Broxbourne Par 3,Restaurant/Cafe/Canteen,1,10,,176588,10,,51.73437300000000,PI/000037965,155,envhealth@broxbourne.gov.uk,Broxbourne,http://www.broxbourne.gov.uk,-0.03826900000000,EN10 7QE,2013-08-08,fhrs_4_en-GB,4,,FHRS,0
7019,Mill Lane Close,Broxbourne,Hertfordshire,,Broxbourne Sports Club,Pub/bar/nightclub,7843,5,,172956,5,,51.74373300000000,PI/000024545,155,envhealth@broxbourne.gov.uk,Broxbourne,http://www.broxbourne.gov.uk,-0.01894500000000,EN10 7BA,2014-06-13,fhrs_4_en-GB,4,,FHRS,10
7020,V and E Club,Goffs Lane,Cheshunt,Hertfordshire,Broxbourne Youth Football Club,Pub/bar/nightclub,7843,5,,177111,10,,51.70663000000000,PI/000040807,155,envhealth@broxbourne.gov.uk,Broxbourne,http://www.broxbourne.gov.uk,-0.05984800000000,EN7 5QN,2014-06-10,fhrs_3_en-GB,3,,FHRS,10
7021,Cafe,Cert Site,Charlton Mead Lane,Hoddesdon,Bruno Cafe @ Bidvest,Restaurant/Cafe/Canteen,1,5,,661345,5,,51.75702200000000,PI/000053957,155,envhealth@broxbourne.gov.uk,Broxbourne,http://www.broxbourne.gov.uk,0.00658800000000,EN11 0DJ,2014-03-10,fhrs_5_en-GB,5,,FHRS,5
7022,Blindmans Lane,Cheshunt,Hertfordshire,,Burleigh Primary School,School/college/university,7845,5,,166475,0,,51.70483300000000,PI/000009640,155,envhealth@broxbourne.gov.uk,Broxbourne,http://www.broxbourne.gov.uk,-0.03934400000000,EN8 9DP,2015-01-16,fhrs_5_en-GB,5,,FHRS,5
7023,,,,,Buttons and Bows Cupcakes,Retailers - other,4613,5,,439394,0,,,PI/000052121,155,envhealth@broxbourne.gov.uk,Broxbourne,http://www.broxbourne.gov.uk,,,2012-08-20,fhrs_5_en-GB,5,,FHRS,0
7024,Farm Shop,Appleby Street Farm,Appleby Street,Cheshunt,C & E Oakley,Retailers - other,4613,0,,178904,5,,51.72244100000000,PI/000050711,155,envhealth@broxbourne.gov.uk,Broxbourne,http://www.broxbourne.gov.uk,-0.07037800000000,EN7 6QT,2013-10-25,fhrs_5_en-GB,5,,FHRS,5
7025,22 Dark Lane,Cheshunt,Hertfordshire,,CafÃ© 2 U,Other catering premises,7841,5,,732891,5,,51.70292900000000,PI/000054521,155,envhealth@broxbourne.gov.uk,Broxbourne,http://www.broxbourne.gov.uk,-0.05578000000000,EN7 5EB,2015-01-20,fhrs_5_en-GB,5,,FHRS,0
7026,87 High Street,Hoddesdon,Hertfordshire,,Caffe Nero,Restaurant/Cafe/Canteen,1,0,,177261,10,,51.76057900000000,PI/000041306,155,envhealth@broxbourne.gov.uk,Broxbourne,http://www.broxbourne.gov.uk,-0.01222300000000,EN11 8TL,2012-03-16,fhrs_4_en-GB,4,,FHRS,5
7027,,,,,Cake Angel,Other catering premises,7841,5,,558346,5,,,PI/000017117,155,envhealth@broxbourne.gov.uk,Broxbourne,http://www.broxbourne.gov.uk,,,2013-06-10,fhrs_5_en-GB,5,,FHRS,0
7028,89 High Street,Waltham Cross,Hertfordshire,,Cake World,Retailers - other,4613,5,,585856,5,,51.68523100000000,PI/000053716,155,envhealth@broxbourne.gov.uk,Broxbourne,http://www.broxbourne.gov.uk,-0.03349300000000,EN8 7AQ,2013-08-22,fhrs_5_en-GB,5,,FHRS,0
7029,6 Manor House Gardens,Wormley,Hertfordshire,,Cakes by Commission,Other catering premises,7841,5,,636126,0,,51.73038700000000,PI/000052524,155,envhealth@broxbourne.gov.uk,Broxbourne,http://www.broxbourne.gov.uk,-0.02633500000000,EN10 6GN,2014-02-14,fhrs_5_en-GB,5,,FHRS,0
7030,,,,,Cakes by Vicki B,Retailers - other,4613,5,,370848,0,,,PI/000050988,155,envhealth@broxbourne.gov.uk,Broxbourne,http://www.broxbourne.gov.uk,,,2012-05-03,fhrs_5_en-GB,5,,FHRS,5
7031,,,,,Cakeycoo,Other catering premises,7841,5,,619720,0,,,PI/000053891,155,envhealth@broxbourne.gov.uk,Broxbourne,http://www.broxbourne.gov.uk,,,2013-12-06,fhrs_5_en-GB,5,,FHRS,0
7032,139 High Street,Waltham Cross,Hertfordshire,,Capri Cafe,Restaurant/Cafe/Canteen,1,0,,177534,5,,51.68744300000000,PI/000042630,155,envhealth@broxbourne.gov.uk,Broxbourne,http://www.broxbourne.gov.uk,-0.03351300000000,EN8 7AP,2013-12-06,fhrs_5_en-GB,5,,FHRS,0
7033,60 High Street,Hoddesdon,Hertfordshire,,Captain Cod,Takeaway/sandwich shop,7844,0,,177240,0,,51.75935000000000,PI/000041278,155,envhealth@broxbourne.gov.uk,Broxbourne,http://www.broxbourne.gov.uk,-0.01185700000000,EN11 8ET,2014-07-18,fhrs_5_en-GB,5,,FHRS,0
7034,Right hand side,Unit 1A,Halfhide Lane,Cheshunt,Card Factory,Retailers - other,4613,0,,636132,0,,51.71916500000000,PI/000053958,155,envhealth@broxbourne.gov.uk,Broxbourne,http://www.broxbourne.gov.uk,-0.03871000000000,EN8 0QE,2014-02-26,fhrs_5_en-GB,5,,FHRS,0
7035,80 The Pavilion,High Street,Waltham Cross,Hertfordshire,Cardfair,Retailers - other,4613,,,547826,,,51.68651300000000,PI/000012468,155,envhealth@broxbourne.gov.uk,Broxbourne,http://www.broxbourne.gov.uk,-0.03220800000000,EN8 7BZ,2012-05-01,fhrs_exempt_en-GB,Exempt,,FHRS,
7036,1 Haslewood Avenue,Hoddesdon,Hertfordshire,,Care Home,Hospitals/Childcare/Caring Premises,5,10,,174816,10,,51.76273800000000,PI/000030182,155,envhealth@broxbourne.gov.uk,Broxbourne,http://www.broxbourne.gov.uk,-0.00910000000000,EN11 8HT,2014-10-29,fhrs_4_en-GB,4,,FHRS,0
7037,53 High Road,Wormley,Hertfordshire,,Cathy Wines,Retailers - other,4613,,,171966,,,51.73364400000000,PI/000021879,155,envhealth@broxbourne.gov.uk,Broxbourne,http://www.broxbourne.gov.uk,-0.02321000000000,EN10 6HT,2013-11-26,fhrs_exempt_en-GB,Exempt,,FHRS,
7038,The Grange,15 High Street,Hoddesdon,Hertfordshire,Cedar Park Nursery,Hospitals/Childcare/Caring Premises,5,0,,177234,0,,51.75788300000000,PI/000041268,155,envhealth@broxbourne.gov.uk,Broxbourne,http://www.broxbourne.gov.uk,-0.01282000000000,EN11 8SX,2013-08-05,fhrs_5_en-GB,5,,FHRS,0
7039,Cafe,Theobalds Lane,Cheshunt,Hertfordshire,Cedars Park,Restaurant/Cafe/Canteen,1,5,,661339,5,,51.69548000000000,PI/000053626,155,envhealth@broxbourne.gov.uk,Broxbourne,http://www.broxbourne.gov.uk,-0.04254100000000,EN8 8RU,2014-07-11,fhrs_5_en-GB,5,,FHRS,5
7040,Fairley House,Andrews Lane,Cheshunt,,Cheeky Monkeys,Restaurant/Cafe/Canteen,1,5,,178738,5,,51.71022000000000,PI/000049807,155,envhealth@broxbourne.gov.uk,Broxbourne,http://www.broxbourne.gov.uk,-0.05669800000000,EN7 6LA,2014-08-11,fhrs_5_en-GB,5,,FHRS,5
7041,3 Masons Parade,Newgatestreet Road,Goffs Oak,Hertfordshire,Cheers Off Licence,Retailers - other,4613,,,167430,,,51.71139500000000,PI/000011441,155,envhealth@broxbourne.gov.uk,Broxbourne,http://www.broxbourne.gov.uk,-0.08888400000000,EN7 5RJ,2013-08-20,fhrs_exempt_en-GB,Exempt,,FHRS,
7042,4 Eleanor Cross Road,Waltham Cross,Hertfordshire,,Cherries,Restaurant/Cafe/Canteen,1,5,,178635,5,,51.68568700000000,PI/000049061,155,envhealth@broxbourne.gov.uk,Broxbourne,http://www.broxbourne.gov.uk,-0.03123100000000,EN8 7LA,2013-12-12,fhrs_4_en-GB,4,,FHRS,10
7043,,,,,Cherry on top,Other catering premises,7841,5,,578584,0,,,PI/000008666,155,envhealth@broxbourne.gov.uk,Broxbourne,http://www.broxbourne.gov.uk,,,2013-08-13,fhrs_5_en-GB,5,,FHRS,0
7044,Cheshunt Ambulance and Fire Station,College Road,Cheshunt,Hertfordshire,Cheshunt Ambulance & Fire Station,Restaurant/Cafe/Canteen,1,0,,166493,0,,51.70258200000000,PI/000009664,155,envhealth@broxbourne.gov.uk,Broxbourne,http://www.broxbourne.gov.uk,-0.03971700000000,EN8 9LT,2014-06-18,fhrs_5_en-GB,5,,FHRS,0
7045,21 Cromwell Avenue,Cheshunt,Hertfordshire,,Cheshunt Chemist,Retailers - other,4613,,,161366,,,51.70196900000000,PI/000001364,155,envhealth@broxbourne.gov.uk,Broxbourne,http://www.broxbourne.gov.uk,-0.05153800000000,EN7 5DJ,2014-09-08,fhrs_exempt_en-GB,Exempt,,FHRS,
7046,King Arthur Court,Cheshunt,Hertfordshire,,Cheshunt Community Hospital,Hospitals/Childcare/Caring Premises,5,0,,163425,5,,51.70012400000000,PI/000004699,155,envhealth@broxbourne.gov.uk,Broxbourne,http://www.broxbourne.gov.uk,-0.03037300000000,EN8 8EH,2012-10-24,fhrs_5_en-GB,5,,FHRS,5
7047,Cheshunt Football Club,Theobalds Lane,Cheshunt,Hertfordshire,Cheshunt Football Club(+Burger Van),Pub/bar/nightclub,7843,5,,164989,5,,51.69548000000000,PI/000007227,155,envhealth@broxbourne.gov.uk,Broxbourne,http://www.broxbourne.gov.uk,-0.04254100000000,EN8 8RU,2013-11-21,fhrs_5_en-GB,5,,FHRS,5
7048,Halfhide Lane,Cheshunt,Hertfordshire,,Cheshunt Marriott Hotel,Restaurant/Cafe/Canteen,1,0,,171223,5,,51.72083200000000,PI/000019833,155,envhealth@broxbourne.gov.uk,Broxbourne,http://www.broxbourne.gov.uk,-0.03245600000000,EN10 6NG,2014-04-25,fhrs_5_en-GB,5,,FHRS,5
7049,19-21 Cheshunt Wash,Cheshunt,Hertfordshire,,Cheshunt News,Retailers - other,4613,,,171107,,,51.71440600000000,PI/000019553,155,envhealth@broxbourne.gov.uk,Broxbourne,http://www.broxbourne.gov.uk,-0.03050500000000,EN8 0LJ,2014-02-06,fhrs_exempt_en-GB,Exempt,,FHRS,
7050,The Old ClubHouse,Cheshunt Park,Park Lane,Cheshunt,Cheshunt Park Golf Club(Private),Pub/bar/nightclub,7843,5,,163103,5,,51.71686200000000,PI/000004198,155,envhealth@broxbourne.gov.uk,Broxbourne,http://www.broxbourne.gov.uk,-0.04835000000000,EN7 6QD,2014-08-06,fhrs_5_en-GB,5,,FHRS,5
7051,Cheshunt Park,Park Lane,Cheshunt,,Cheshunt Park Golf Course,Restaurant/Cafe/Canteen,1,0,,176919,5,,51.71686200000000,PI/000039812,155,envhealth@broxbourne.gov.uk,Broxbourne,http://www.broxbourne.gov.uk,-0.04835000000000,EN7 6QD,2014-08-06,fhrs_5_en-GB,5,,FHRS,5
7052,Cheshunt Rifle and Pistol Club,Theobalds Lane,Cheshunt,Hertfordshire,Cheshunt Rifle & Pistol Club,Pub/bar/nightclub,7843,5,,164991,5,,51.70316500000000,PI/000007228,155,envhealth@broxbourne.gov.uk,Broxbourne,http://www.broxbourne.gov.uk,-0.03238900000000,EN8 8RT,2014-03-11,fhrs_4_en-GB,4,,FHRS,10
7053,37 Crossbrook Street,Cheshunt,Hertfordshire,,Cheshunt Royal British Legion Club,Pub/bar/nightclub,7843,5,,164596,5,,51.69331100000000,PI/000006589,155,envhealth@broxbourne.gov.uk,Broxbourne,http://www.broxbourne.gov.uk,-0.03487900000000,EN8 8LR,2013-08-22,fhrs_4_en-GB,4,,FHRS,10
7054,College Road,Cheshunt,Hertfordshire,,Cheshunt School,School/college/university,7845,5,,177556,5,,51.70117400000000,PI/000042706,155,envhealth@broxbourne.gov.uk,Broxbourne,http://www.broxbourne.gov.uk,-0.04536400000000,EN8 9LY,2014-01-13,fhrs_4_en-GB,4,,FHRS,10
7055,Petrol Filling Station,134 Turners Hill,Cheshunt,Hertfordshire,Cheshunt Service Station(Misha ),Retailers - other,4613,,,178925,,,51.70308400000000,PI/000050757,155,envhealth@broxbourne.gov.uk,Broxbourne,http://www.broxbourne.gov.uk,-0.03423900000000,EN8 9BN,2013-10-12,fhrs_exempt_en-GB,Exempt,,FHRS,
7056,Cheshunt and Waltham Cross Conservative Club,Eleanor Cross Road,Waltham Cross,Hertfordshire,Cheshunt&Waltham Cross Conservative,Pub/bar/nightclub,7843,0,,176590,0,,51.68592100000000,PI/000037971,155,envhealth@broxbourne.gov.uk,Broxbourne,http://www.broxbourne.gov.uk,-0.03120700000000,EN8 7LF,2014-01-24,fhrs_5_en-GB,5,,FHRS,0
7057,33 High Street,Cheshunt,Hertfordshire,,Chicken Time & Fish and Chips,Takeaway/sandwich shop,7844,10,,708238,5,,51.70942700000000,PI/000054380,155,envhealth@broxbourne.gov.uk,Broxbourne,http://www.broxbourne.gov.uk,-0.03662700000000,EN8 0BS,2014-10-20,fhrs_4_en-GB,4,,FHRS,5
7058,165 Turners Hill,Cheshunt,Hertfordshire,,Childrens Nest Nurseries,Hospitals/Childcare/Caring Premises,5,0,,166625,0,,51.70477100000000,PI/000009899,155,envhealth@broxbourne.gov.uk,Broxbourne,http://www.broxbourne.gov.uk,-0.03455700000000,EN8 9BH,2014-09-24,fhrs_5_en-GB,5,,FHRS,5
7059,29 High Road,Broxbourne,Hertfordshire,,China Garden Fish Bar,Takeaway/sandwich shop,7844,0,,173360,5,,51.74865400000000,PI/000025527,155,envhealth@broxbourne.gov.uk,Broxbourne,http://www.broxbourne.gov.uk,-0.01855600000000,EN10 7HX,2014-05-30,fhrs_5_en-GB,5,,FHRS,5
7060,276 Holdbrook Court,Holdbrook South,Waltham Cross,Hertfordshire,China Panda,Takeaway/sandwich shop,7844,0,,178815,10,,51.68516200000000,PI/000050419,155,envhealth@broxbourne.gov.uk,Broxbourne,http://www.broxbourne.gov.uk,-0.01981100000000,EN8 7SL,2013-09-03,fhrs_4_en-GB,4,,FHRS,10
7061,104 Turners Hill,Cheshunt,Hertfordshire,,China Star,Restaurant/Cafe/Canteen,1,20,,165628,10,,51.70308400000000,PI/000008284,155,envhealth@broxbourne.gov.uk,Broxbourne,http://www.broxbourne.gov.uk,-0.03423900000000,EN8 9BN,2013-09-05,fhrs_1_en-GB,1,,FHRS,5
7062,93 High Street,Waltham Cross,Hertfordshire,,Chinese Express,Takeaway/sandwich shop,7844,5,,168147,10,,51.68523100000000,PI/000012620,155,envhealth@broxbourne.gov.uk,Broxbourne,http://www.broxbourne.gov.uk,-0.03349300000000,EN8 7AQ,2013-08-05,fhrs_3_en-GB,3,,FHRS,10
7063,88D The Pavilion,High Street,Waltham Cross,Hertfordshire,Chinese Medical Centre,Retailers - other,4613,,,176856,,,51.68651300000000,PI/000039331,155,envhealth@broxbourne.gov.uk,Broxbourne,http://www.broxbourne.gov.uk,-0.03220800000000,EN8 7BZ,2013-06-06,fhrs_exempt_en-GB,Exempt,,FHRS,
7064,Forres Primary School,Stanstead Road,Hoddesdon,Hertfordshire,CHIPS - Forres,School/college/university,7845,5,,467936,0,,51.77270600000000,PI/000052830,155,envhealth@broxbourne.gov.uk,Broxbourne,http://www.broxbourne.gov.uk,-0.00564600000000,EN11 0RW,2012-11-17,fhrs_5_en-GB,5,,FHRS,0
7065,Millbrook Primary and Nursery School,Gews Corner,Cheshunt,Hertfordshire,CHIPS - Millbrook,School/college/university,7845,5,,466456,0,,51.70616600000000,PI/000052831,155,envhealth@broxbourne.gov.uk,Broxbourne,http://www.broxbourne.gov.uk,-0.03409100000000,EN8 9BX,2012-11-10,fhrs_5_en-GB,5,,FHRS,0
7066,107 Crossbrook Street,Cheshunt,Hertfordshire,,Chunkyâs,Takeaway/sandwich shop,7844,10,,647017,5,,51.69660200000000,PI/000053972,155,envhealth@broxbourne.gov.uk,Broxbourne,http://www.broxbourne.gov.uk,-0.03489600000000,EN8 8LY,2014-03-24,fhrs_4_en-GB,4,,FHRS,5
7067,Junior Kitchen,Churchfield CE VA Primary School & Nursery,Cheshunt Wash,Cheshunt,Churchfield C of E Primary School,School/college/university,7845,5,,307947,0,,51.71535900000000,PI/000050882,155,envhealth@broxbourne.gov.uk,Broxbourne,http://www.broxbourne.gov.uk,-0.02781500000000,EN8 0LU,2014-03-18,fhrs_5_en-GB,5,,FHRS,5
7068,284 High Street,Waltham Cross,Hertfordshire,,Chutney Moe's,Restaurant/Cafe/Canteen,1,10,,661347,10,,51.69128700000000,PI/000053960,155,envhealth@broxbourne.gov.uk,Broxbourne,http://www.broxbourne.gov.uk,-0.03379500000000,EN8 7EA,2014-02-13,fhrs_3_en-GB,3,,FHRS,10
7069,13 High Street,Waltham Cross,Hertfordshire,,Cinnamon Indian Restaurant,Restaurant/Cafe/Canteen,1,20,,168111,15,,51.68279800000000,PI/000012585,155,envhealth@broxbourne.gov.uk,Broxbourne,http://www.broxbourne.gov.uk,-0.03377200000000,EN8 7AA,2015-01-09,fhrs_1_en-GB,1,,FHRS,15
7070,Borough Of Broxbourne,Broxbourne Civic Hall,High Street,Hoddesdon,Civic Hall,Restaurant/Cafe/Canteen,1,0,,177286,5,,51.75569100000000,PI/000041411,155,envhealth@broxbourne.gov.uk,Broxbourne,http://www.broxbourne.gov.uk,-0.01507500000000,EN11 8BE,2014-10-02,fhrs_5_en-GB,5,,FHRS,5
7071,101A High Street,Waltham Cross,Hertfordshire,,Classic Fish and Chips,Restaurant/Cafe/Canteen,1,0,,176797,5,,51.68620300000000,PI/000038985,155,envhealth@broxbourne.gov.uk,Broxbourne,http://www.broxbourne.gov.uk,-0.03355300000000,EN8 7AN,2014-01-08,fhrs_5_en-GB,5,,FHRS,0
7072,77 High Street,Hoddesdon,Hertfordshire,,Clinton Cards,Retailers - other,4613,,,177257,,,51.76057900000000,PI/000041302,155,envhealth@broxbourne.gov.uk,Broxbourne,http://www.broxbourne.gov.uk,-0.01222300000000,EN11 8TL,2013-09-23,fhrs_exempt_en-GB,Exempt,,FHRS,
7073,36 Crossbrook Street,Cheshunt,Hertfordshire,,Coach and Horses/Pizza,Restaurant/Cafe/Canteen,1,5,,491634,5,,51.69449000000000,PI/000051640,155,envhealth@broxbourne.gov.uk,Broxbourne,http://www.broxbourne.gov.uk,-0.03442300000000,EN8 8JQ,2014-07-04,fhrs_5_en-GB,5,,FHRS,5
7074,Blindmans Lane,Cheshunt,Hertfordshire,,Cocos Nursery,Hospitals/Childcare/Caring Premises,5,10,,165122,5,,51.70415000000000,PI/000007503,155,envhealth@broxbourne.gov.uk,Broxbourne,http://www.broxbourne.gov.uk,-0.03992400000000,EN8 9DW,2014-03-26,fhrs_4_en-GB,4,,FHRS,5
7075,88F The Pavilion,High Street,Waltham Cross,Hertfordshire,Coffee Cream,Restaurant/Cafe/Canteen,1,10,,178741,5,,51.68651300000000,PI/000049817,155,envhealth@broxbourne.gov.uk,Broxbourne,http://www.broxbourne.gov.uk,-0.03220800000000,EN8 7BZ,2013-08-01,fhrs_4_en-GB,4,,FHRS,5
7076,Nunsbury Drive,Turnford,Hertfordshire,,College Stores,Retailers - other,4613,5,,177487,5,,51.72344700000000,PI/000042420,155,envhealth@broxbourne.gov.uk,Broxbourne,http://www.broxbourne.gov.uk,-0.02592800000000,EN10 6AH,2013-05-22,fhrs_4_en-GB,4,,FHRS,10
7077,Merck Sharp and Dohme West Hill,Hertford Road,Hoddesdon,Hertfordshire,Compass Contract Services(UK)Ltd,Restaurant/Cafe/Canteen,1,0,,176592,0,,51.76790700000000,PI/000037978,155,envhealth@broxbourne.gov.uk,Broxbourne,http://www.broxbourne.gov.uk,-0.02232200000000,EN11 9BU,2014-06-26,fhrs_5_en-GB,5,,FHRS,5
7078,Staff Restaurant,J Sainsbury plc,Normandy Way,Hoddesdon,Compass Group,Other catering premises,7841,5,,726915,5,,51.76704900000000,PI/000054485,155,envhealth@broxbourne.gov.uk,Broxbourne,http://www.broxbourne.gov.uk,0.00865600000000,EN11 0EW,2014-11-26,fhrs_5_en-GB,5,,FHRS,5
7079,171 Crossbrook Street,Cheshunt,Hertfordshire,,Comrades Of Great War Club,Pub/bar/nightclub,7843,5,,164524,5,,51.69789400000000,PI/000006467,155,envhealth@broxbourne.gov.uk,Broxbourne,http://www.broxbourne.gov.uk,-0.03468100000000,EN8 8ND,2014-03-28,fhrs_5_en-GB,5,,FHRS,5
7080,136-138 Church Lane,Cheshunt,Hertfordshire,,Co-Op Store,Retailers - supermarkets/hypermarkets,7840,5,,161910,0,,51.70902900000000,PI/000002006,155,envhealth@broxbourne.gov.uk,Broxbourne,http://www.broxbourne.gov.uk,-0.04724000000000,EN8 0EA,2012-10-29,fhrs_5_en-GB,5,,FHRS,5
7081,66-68 Stanstead Road,Hoddesdon,Hertfordshire,,Co-op Supermarket,Retailers - other,4613,0,,516596,5,,51.76958700000000,PI/000050949,155,envhealth@broxbourne.gov.uk,Broxbourne,http://www.broxbourne.gov.uk,-0.00727700000000,EN11 0RL,2012-10-10,fhrs_5_en-GB,5,,FHRS,5
7082,696 Goffs Lane,Goffs Oak,Hertfordshire,,Co-Op Supermarket,Retailers - supermarkets/hypermarkets,7840,0,,167351,5,,51.71015200000000,PI/000011268,155,envhealth@broxbourne.gov.uk,Broxbourne,http://www.broxbourne.gov.uk,-0.08599800000000,EN7 5ET,2014-02-19,fhrs_4_en-GB,4,,FHRS,10
7083,Unit C,RD Park,Stephenson Close,Hoddesdon,Cortland Fibron BX,Restaurant/Cafe/Canteen,1,0,,178207,0,,51.75798200000000,PI/000045829,155,envhealth@broxbourne.gov.uk,Broxbourne,http://www.broxbourne.gov.uk,0.00883300000000,EN11 0BW,2012-07-06,fhrs_5_en-GB,5,,FHRS,0
7084,Shopping Basket,Fairfield Drive,Wormley,Hertfordshire,Cost Cutters (Shopping Basket),Retailers - other,4613,0,,177464,0,,51.73034200000000,PI/000042334,155,envhealth@broxbourne.gov.uk,Broxbourne,http://www.broxbourne.gov.uk,-0.02367300000000,EN10 6DX,2014-01-06,fhrs_4_en-GB,4,,FHRS,10
7085,10-13 The Pavilion,High Street,Hoddesdon,Hertfordshire,Costa Coffee,Restaurant/Cafe/Canteen,1,5,,722825,10,,51.76211200000000,PI/000054406,155,envhealth@broxbourne.gov.uk,Broxbourne,http://www.broxbourne.gov.uk,-0.01086600000000,EN11 8UD,2014-10-27,fhrs_2_en-GB,2,,FHRS,15
7086,16 Cromwell Avenue,Cheshunt,Hertfordshire,,Costcutters,Retailers - other,4613,10,,161364,0,,51.70226400000000,PI/000001363,155,envhealth@broxbourne.gov.uk,Broxbourne,http://www.broxbourne.gov.uk,-0.05084500000000,EN7 5DN,2013-03-22,fhrs_4_en-GB,4,,FHRS,5
7087,140 Church Lane,Cheshunt,Hertfordshire,,Costless Express,Retailers - other,4613,5,,547839,5,,51.70902900000000,PI/000053660,155,envhealth@broxbourne.gov.uk,Broxbourne,http://www.broxbourne.gov.uk,-0.04724000000000,EN8 0EA,2013-03-25,fhrs_5_en-GB,5,,FHRS,5
7088,147 High Street,Waltham Cross,Hertfordshire,,Coyles Chemist,Retailers - other,4613,,,168145,,,51.68744300000000,PI/000012618,155,envhealth@broxbourne.gov.uk,Broxbourne,http://www.broxbourne.gov.uk,-0.03351300000000,EN8 7AP,2014-02-11,fhrs_exempt_en-GB,Exempt,,FHRS,
7089,Unit 1 3 & 4 Ingersoll House,Delamare Road,Cheshunt,Hertfordshire,Craft Creations Ltd,Restaurant/Cafe/Canteen,1,0,,169926,0,,51.70433400000000,PI/000016190,155,envhealth@broxbourne.gov.uk,Broxbourne,http://www.broxbourne.gov.uk,-0.02671700000000,EN8 9HD,2013-04-25,fhrs_5_en-GB,5,,FHRS,0
7090,Bridleway North,Hoddesdon,Hertfordshire,,Cranbourne Primary School,School/college/university,7845,0,,177560,5,,51.77650600000000,PI/000042718,155,envhealth@broxbourne.gov.uk,Broxbourne,http://www.broxbourne.gov.uk,-0.00643500000000,EN11 9PP,2014-10-02,fhrs_5_en-GB,5,,FHRS,5
7091,61 High Street,Waltham Cross,Hertfordshire,,Cross Kebab,Takeaway/sandwich shop,7844,0,,168127,10,,51.68407800000000,PI/000012602,155,envhealth@broxbourne.gov.uk,Broxbourne,http://www.broxbourne.gov.uk,-0.03341300000000,EN8 7AE,2014-08-11,fhrs_4_en-GB,4,,FHRS,5
7092,105 Crossbrook Street,Cheshunt,Hertfordshire,,Crossbrook Cafe,Restaurant/Cafe/Canteen,1,0,,178300,0,,51.69660200000000,PI/000046276,155,envhealth@broxbourne.gov.uk,Broxbourne,http://www.broxbourne.gov.uk,-0.03489600000000,EN8 8LY,2014-09-17,fhrs_5_en-GB,5,,FHRS,5
7093,115 Crossbrook Street,Cheshunt,Hertfordshire,,Crossbrook Supermarket,Retailers - other,4613,5,,177455,5,,51.69660200000000,PI/000042312,155,envhealth@broxbourne.gov.uk,Broxbourne,http://www.broxbourne.gov.uk,-0.03489600000000,EN8 8LY,2014-01-22,fhrs_4_en-GB,4,,FHRS,10
7094,1 Clarendon Parade Turners Hill,Cheshunt,Hertfordshire,,Crystal Kebab House 2,Takeaway/sandwich shop,7844,0,,165152,5,,51.70518800000000,PI/000007561,155,envhealth@broxbourne.gov.uk,Broxbourne,http://www.broxbourne.gov.uk,-0.03479900000000,EN8 9DF,2014-08-12,fhrs_5_en-GB,5,,FHRS,5
7095,4 Lynton Parade Turners Hill,Cheshunt,Hertfordshire,,Crystals Pharmacy,Retailers - other,4613,,,165542,,,51.70106500000000,PI/000008165,155,envhealth@broxbourne.gov.uk,Broxbourne,http://www.broxbourne.gov.uk,-0.03399400000000,EN8 8LF,2013-08-06,fhrs_exempt_en-GB,Exempt,,FHRS,
7096,Cuffley and Northaw Youth Centre,Cuffley Hill,Goffs Oak,Hertfordshire,Cuffley & Northaw Youth Centre,Other catering premises,7841,5,,160403,5,,51.70806100000000,PI/000000001,155,envhealth@broxbourne.gov.uk,Broxbourne,http://www.broxbourne.gov.uk,-0.10675500000000,EN6 4EY,2012-02-20,fhrs_5_en-GB,5,,FHRS,5
7097,Cuffley and Northaw Youth Centre,Cuffley Hill,Goffs Oak,Hertfordshire,Cuffley Community Centre Pre-School,Hospitals/Childcare/Caring Premises,5,0,,448593,0,,51.70806100000000,PI/000052648,155,envhealth@broxbourne.gov.uk,Broxbourne,http://www.broxbourne.gov.uk,-0.10675500000000,EN6 4EY,2014-12-10,fhrs_5_en-GB,5,,FHRS,5
7098,Turnford Massey,High Road,Turnford,Hertfordshire,Cumin,Restaurant/Cafe/Canteen,1,5,,178636,10,,51.72256700000000,PI/000049064,155,envhealth@broxbourne.gov.uk,Broxbourne,http://www.broxbourne.gov.uk,-0.02547400000000,EN10 6AN,2013-10-07,fhrs_3_en-GB,3,,FHRS,10
7099,,,,,Cupcake Twins,Retailers - other,4613,5,,187659,5,,,PI/000050263,155,envhealth@broxbourne.gov.uk,Broxbourne,http://www.broxbourne.gov.uk,,,2013-06-20,fhrs_5_en-GB,5,,FHRS,0
7100,"Flat 5, Stanstead Court",106 Stanstead Road,Hoddesdon,Hertfordshire,Cupcakes by Chalya,Other catering premises,7841,5,,612718,0,,51.77102100000000,PI/000053771,155,envhealth@broxbourne.gov.uk,Broxbourne,http://www.broxbourne.gov.uk,-0.00650300000000,EN11 0RN,2013-07-19,fhrs_5_en-GB,5,,FHRS,0
7101,39 High Road,Broxbourne,Hertfordshire,,D W Walters,Retailers - other,4613,5,,176798,5,,51.74865400000000,PI/000038988,155,envhealth@broxbourne.gov.uk,Broxbourne,http://www.broxbourne.gov.uk,-0.01855600000000,EN10 7HX,2013-11-19,fhrs_5_en-GB,5,,FHRS,5
7102,Childrens Day Nursery,1 Kenworth Close,Waltham Cross,Hertfordshire,Daffodils Day Nursery,Hospitals/Childcare/Caring Premises,5,5,,530461,5,,51.68839000000000,PI/000053642,155,envhealth@broxbourne.gov.uk,Broxbourne,http://www.broxbourne.gov.uk,-0.03745100000000,EN8 8BA,2014-10-06,fhrs_5_en-GB,5,,FHRS,5
7103,,,,,Dainty Cakey,Retailers - other,4613,0,,187661,5,,,PI/000050522,155,envhealth@broxbourne.gov.uk,Broxbourne,http://www.broxbourne.gov.uk,,,2013-11-20,fhrs_5_en-GB,5,,FHRS,0
7104,,,,,Daisychain Cupcakes,Retailers - other,4613,5,,415263,0,,,PI/000051001,155,envhealth@broxbourne.gov.uk,Broxbourne,http://www.broxbourne.gov.uk,,,2012-06-15,fhrs_5_en-GB,5,,FHRS,0
7105,186 Windmill Lane,Cheshunt,Hertfordshire,,Dave's Convenience Store,Retailers - other,4613,,,170081,,,51.70284700000000,PI/000016563,155,envhealth@broxbourne.gov.uk,Broxbourne,http://www.broxbourne.gov.uk,-0.02545000000000,EN8 9AF,2012-11-07,fhrs_exempt_en-GB,Exempt,,FHRS,
7106,Theobalds Park,Lieutenant Ellis Way,Waltham Cross,,De Vere Venues,Hotel/bed & breakfast/guest house,7842,0,,516598,10,,51.68849000000000,PI/000053424,155,envhealth@broxbourne.gov.uk,Broxbourne,http://www.broxbourne.gov.uk,-0.05641400000000,EN7 5HW,2014-10-09,fhrs_4_en-GB,4,,FHRS,10
7107,182 Churchgate Road,Cheshunt,Hertfordshire,,DE52 HYT(Events Only)Bruno Moretto,Retailers - other,4613,5,,664321,5,,51.70753800000000,PI/000002042,155,envhealth@broxbourne.gov.uk,Broxbourne,http://www.broxbourne.gov.uk,-0.04953300000000,EN8 9EL,2012-09-17,fhrs_5_en-GB,5,,FHRS,0
7108,223B Turners Hill,Cheshunt,Hertfordshire,,Deli Perfecto,Retailers - other,4613,10,,178759,10,,51.70654900000000,PI/000049917,155,envhealth@broxbourne.gov.uk,Broxbourne,http://www.broxbourne.gov.uk,-0.03657800000000,EN8 9DG,2014-03-17,fhrs_3_en-GB,3,,FHRS,10
7109,Unit 2,33 High Street,Hoddesdon,Hertfordshire,Delight Cafe,Restaurant/Cafe/Canteen,1,5,,177290,5,,51.75895900000000,PI/000041426,155,envhealth@broxbourne.gov.uk,Broxbourne,http://www.broxbourne.gov.uk,-0.01267100000000,EN11 8TA,2014-05-29,fhrs_5_en-GB,5,,FHRS,5
7110,94 Churchgate,Waltham Cross,Hertfordshire,,Dewhurst St Mary Junior Middle & Inf,School/college/university,7845,0,,166616,0,,51.70492800000000,PI/000009888,155,envhealth@broxbourne.gov.uk,Broxbourne,http://www.broxbourne.gov.uk,-0.04719900000000,EN8 9ND,2013-01-24,fhrs_5_en-GB,5,,FHRS,0
7111,19 High Street,Waltham Cross,Hertfordshire,,Diamond Kebab House,Takeaway/sandwich shop,7844,5,,168114,10,,51.68279800000000,PI/000012588,155,envhealth@broxbourne.gov.uk,Broxbourne,http://www.broxbourne.gov.uk,-0.03377200000000,EN8 7AA,2013-07-18,fhrs_3_en-GB,3,,FHRS,10
7112,3 Clayton Parade,Turners Hill,Cheshunt,Hertfordshire,Dilara Supermarket,Retailers - other,4613,5,,165564,10,,51.70111600000000,PI/000008180,155,envhealth@broxbourne.gov.uk,Broxbourne,http://www.broxbourne.gov.uk,-0.03487400000000,EN8 8NQ,2013-11-27,fhrs_4_en-GB,4,,FHRS,5
7113,,,,,Distefano T890 RFE,Retailers - other,4613,0,,612713,0,,,PI/000038535,155,envhealth@broxbourne.gov.uk,Broxbourne,http://www.broxbourne.gov.uk,,,2012-09-17,fhrs_5_en-GB,5,,FHRS,5
7114,Hoddesdon Methodist Church,Middlefield Road,Hoddesdon,,Dollymixtures Pre-School,Hospitals/Childcare/Caring Premises,5,0,,178144,0,,51.76786600000000,PI/000045477,155,envhealth@broxbourne.gov.uk,Broxbourne,http://www.broxbourne.gov.uk,-0.00974400000000,EN11 9ED,2014-12-16,fhrs_5_en-GB,5,,FHRS,5
7115,21 Turners Hill,Cheshunt,Hertfordshire,,Domino's Pizza,Takeaway/sandwich shop,7844,0,,164526,5,,51.70006800000000,PI/000006470,155,envhealth@broxbourne.gov.uk,Broxbourne,http://www.broxbourne.gov.uk,-0.03455800000000,EN8 8NJ,2014-07-14,fhrs_5_en-GB,5,,FHRS,0
7116,Unit 3,78 High Street,Hoddesdon,Hertfordshire,Domino's Pizza,Takeaway/sandwich shop,7844,5,,177309,5,,51.75935000000000,PI/000041485,155,envhealth@broxbourne.gov.uk,Broxbourne,http://www.broxbourne.gov.uk,-0.01185700000000,EN11 8ET,2014-04-16,fhrs_5_en-GB,5,,FHRS,0
7117,74A High Street,Cheshunt,Hertfordshire,,Doric Dance Centre,Other catering premises,7841,5,,166686,0,,51.71018200000000,PI/000010000,155,envhealth@broxbourne.gov.uk,Broxbourne,http://www.broxbourne.gov.uk,-0.03445200000000,EN8 0AJ,2013-01-11,fhrs_5_en-GB,5,,FHRS,0
7118,Downfield Primary School,Downfield Road,Cheshunt,Hertfordshire,Downfield JMI School,School/college/university,7845,0,,177561,0,,51.69908500000000,PI/000042719,155,envhealth@broxbourne.gov.uk,Broxbourne,http://www.broxbourne.gov.uk,-0.02849400000000,EN8 8SS,2014-11-25,fhrs_5_en-GB,5,,FHRS,0
7119,2 Library Court,Brewery Road,Hoddesdon,Hertfordshire,Dream Cafe,Restaurant/Cafe/Canteen,1,20,,178748,0,,51.76105400000000,PI/000049861,155,envhealth@broxbourne.gov.uk,Broxbourne,http://www.broxbourne.gov.uk,-0.00997100000000,EN11 8HF,2015-01-09,fhrs_1_en-GB,1,,FHRS,5
7120,103 High Street,Hoddesdon,Hertfordshire,,E Ward Newsagents,Retailers - other,4613,,,177262,,,51.76155600000000,PI/000041309,155,envhealth@broxbourne.gov.uk,Broxbourne,http://www.broxbourne.gov.uk,-0.01203600000000,EN11 8TN,2014-01-23,fhrs_exempt_en-GB,Exempt,,FHRS,
7121,104 Longfield Lane,Cheshunt,Hertfordshire,,E264 WRH(Ice Cream Van),Mobile caterer,7846,10,,688140,0,,51.71482300000000,PI/000002494,155,envhealth@broxbourne.gov.uk,Broxbourne,http://www.broxbourne.gov.uk,-0.05499600000000,EN7 6AF,2013-08-29,fhrs_4_en-GB,4,,FHRS,0
7122,Broxbourne Post Office,53 High Road,Broxbourne,Hertfordshire,Elgon Chemists Ltd,Retailers - other,4613,,,173351,,,51.74865400000000,PI/000025512,155,envhealth@broxbourne.gov.uk,Broxbourne,http://www.broxbourne.gov.uk,-0.01855600000000,EN10 7HX,2012-11-02,fhrs_exempt_en-GB,Exempt,,FHRS,
7123,Riverside Church,Rye Road,Hoddesdon,Hertfordshire,Elim Church,Other catering premises,7841,,,176206,,,51.76833000000000,PI/000035855,155,envhealth@broxbourne.gov.uk,Broxbourne,http://www.broxbourne.gov.uk,0.00316100000000,EN11 0JB,2014-03-31,fhrs_exempt_en-GB,Exempt,,FHRS,
7124,Merck Sharp and Dohme West Hill,Hertford Road,Hoddesdon,Hertfordshire,Elior UK,Restaurant/Cafe/Canteen,1,5,,717183,5,,51.76790700000000,PI/000054431,155,envhealth@broxbourne.gov.uk,Broxbourne,http://www.broxbourne.gov.uk,-0.02232200000000,EN11 9BU,2014-10-27,fhrs_5_en-GB,5,,FHRS,0
7125,Staff Restaurant Tesco Stores,Brookfield Centre,Halfhide Lane,Cheshunt,Elior-UK,Restaurant/Cafe/Canteen,1,10,,682530,10,,51.71966800000000,PI/000053787,155,envhealth@broxbourne.gov.uk,Broxbourne,http://www.broxbourne.gov.uk,-0.03816700000000,EN8 0NN,2014-06-25,fhrs_3_en-GB,3,,FHRS,5
7126,,,,,Elizabeth Jane Hills Cup Cakes,Retailers - other,4613,5,,390199,0,,,PI/000050995,155,envhealth@broxbourne.gov.uk,Broxbourne,http://www.broxbourne.gov.uk,,,2012-06-07,fhrs_5_en-GB,5,,FHRS,0
7127,125 Crossbrook Street,Cheshunt,Hertfordshire,,"EM&C Frozen Fish,Chicken",Retailers - other,4613,10,,439391,5,,51.69660200000000,PI/000051000,155,envhealth@broxbourne.gov.uk,Broxbourne,http://www.broxbourne.gov.uk,-0.03489600000000,EN8 8LY,2012-08-17,fhrs_4_en-GB,4,,FHRS,0
7128,59 Turners Hill,Cheshunt,Hertfordshire,,Emmi Restaurant,Restaurant/Cafe/Canteen,1,0,,178760,5,,51.70149400000000,PI/000049948,155,envhealth@broxbourne.gov.uk,Broxbourne,http://www.broxbourne.gov.uk,-0.03490100000000,EN8 8NT,2014-03-26,fhrs_5_en-GB,5,,FHRS,5
7129,86 High Street,Waltham Cross,Hertfordshire,,Emre Grocery,Retailers - other,4613,10,,178195,5,,51.68413500000000,PI/000045782,155,envhealth@broxbourne.gov.uk,Broxbourne,http://www.broxbourne.gov.uk,-0.03251400000000,EN8 7BU,2013-03-18,fhrs_4_en-GB,4,,FHRS,5
7130,74 High Street,Waltham Cross,Hertfordshire,,Erciyes Restaurant and Meze Bar,Restaurant/Cafe/Canteen,1,10,,178829,10,,51.68413500000000,PI/000050469,155,envhealth@broxbourne.gov.uk,Broxbourne,http://www.broxbourne.gov.uk,-0.03251400000000,EN8 7BU,2014-07-04,fhrs_3_en-GB,3,,FHRS,10
7131,253 High Street,Waltham Cross,Hertfordshire,,Europa 93,Retailers - other,4613,0,,163398,5,,51.69122500000000,PI/000004636,155,envhealth@broxbourne.gov.uk,Broxbourne,http://www.broxbourne.gov.uk,-0.03437700000000,EN8 7BE,2014-02-13,fhrs_5_en-GB,5,,FHRS,5
7132,26-28 Andrews Lane,Cheshunt,Hertfordshire,,Fair Supermarket,Retailers - other,4613,5,,177201,10,,51.70987700000000,PI/000041146,155,envhealth@broxbourne.gov.uk,Broxbourne,http://www.broxbourne.gov.uk,-0.05231300000000,EN7 6LD,2015-01-05,fhrs_4_en-GB,4,,FHRS,5
7133,Fairfields Primary School & Nursery,Rosedale Way,Cheshunt,Hertfordshire,Fairfields JMI School,School/college/university,7845,0,,177563,0,,51.71491100000000,PI/000042721,155,envhealth@broxbourne.gov.uk,Broxbourne,http://www.broxbourne.gov.uk,-0.05871200000000,EN7 6JG,2014-03-11,fhrs_5_en-GB,5,,FHRS,0
7134,38 Chaucer Way,Hoddesdon,Hertfordshire,,Fairfields Newsagents,Retailers - other,4613,,,176002,,,51.77637100000000,PI/000034979,155,envhealth@broxbourne.gov.uk,Broxbourne,http://www.broxbourne.gov.uk,-0.00802100000000,EN11 9QP,2014-12-18,fhrs_exempt_en-GB,Exempt,,FHRS,
7135,Fat Les's Mobile Snack Bar Food Mobile,Lea Road,Waltham Abbey,Hertfordshire,Fat Les's Mobile,Mobile caterer,7846,10,,176710,5,,51.68293900000000,PI/000038527,155,envhealth@broxbourne.gov.uk,Broxbourne,http://www.broxbourne.gov.uk,-0.01277500000000,EN9 1AS,2014-09-01,fhrs_3_en-GB,3,,FHRS,10
7136,3-3A The Pavilion,High Street,Hoddesdon,Hertfordshire,Favorite Chicken & Ribs,Takeaway/sandwich shop,7844,5,,578598,10,,51.76198500000000,PI/000053744,155,envhealth@broxbourne.gov.uk,Broxbourne,http://www.broxbourne.gov.uk,-0.01133600000000,EN11 8UB,2013-12-13,fhrs_3_en-GB,3,,FHRS,10
7137,100 Turners Hill,Cheshunt,Hertfordshire,,Favorite Chicken and Ribs,Takeaway/sandwich shop,7844,5,,177558,5,,51.70308400000000,PI/000042708,155,envhealth@broxbourne.gov.uk,Broxbourne,http://www.broxbourne.gov.uk,-0.03423900000000,EN8 9BN,2014-06-30,fhrs_5_en-GB,5,,FHRS,5
7138,Cheshunt Park Farm,Park Lane Paradise,Cheshunt,,First Steps Nursery,Hospitals/Childcare/Caring Premises,5,0,,163219,5,,51.72689700000000,PI/000004364,155,envhealth@broxbourne.gov.uk,Broxbourne,http://www.broxbourne.gov.uk,-0.05922700000000,EN7 6PX,2014-01-20,fhrs_5_en-GB,5,,FHRS,5
7139,Food Mobile,253 Turners Hill,Cheshunt,Hertfordshire,Fish on a Dish@The Old English,Takeaway/sandwich shop,7844,5,,661348,0,,51.70654900000000,PI/000053993,155,envhealth@broxbourne.gov.uk,Broxbourne,http://www.broxbourne.gov.uk,-0.03657800000000,EN8 9DG,2014-05-01,fhrs_5_en-GB,5,,FHRS,0
7140,Market Stall Mr Brian Wallace D H Wallace and Sons,Waltham Cross Market,High Street,Waltham Cross,Fish Stall,Retailers - other,4613,10,,178390,5,,51.68620200000000,PI/000046771,155,envhealth@broxbourne.gov.uk,Broxbourne,http://www.broxbourne.gov.uk,-0.03355200000000,EN8 7AN,2014-06-06,fhrs_4_en-GB,4,,FHRS,0
7141,Nice Food 2 Go,113-115 High Street,Waltham Cross,Hertfordshire,Fishpools,Restaurant/Cafe/Canteen,1,0,,178757,0,,51.68594500000000,PI/000049910,155,envhealth@broxbourne.gov.uk,Broxbourne,http://www.broxbourne.gov.uk,-0.03376600000000,EN8 7AL,2014-02-21,fhrs_5_en-GB,5,,FHRS,5
7142,14 Newnham Parade,Cheshunt,Hertfordshire,,Fishy Delishy,Takeaway/sandwich shop,7844,5,,178746,5,,51.70242900000000,PI/000049832,155,envhealth@broxbourne.gov.uk,Broxbourne,http://www.broxbourne.gov.uk,-0.03539600000000,EN8 9NU,2014-03-18,fhrs_5_en-GB,5,,FHRS,5
7143,35 High Street,Hoddesdon,Hertfordshire,,Flames,Restaurant/Cafe/Canteen,1,5,,177282,5,,51.75895900000000,PI/000041403,155,envhealth@broxbourne.gov.uk,Broxbourne,http://www.broxbourne.gov.uk,-0.01267100000000,EN11 8TA,2014-12-15,fhrs_4_en-GB,4,,FHRS,10
7144,Longfield Lane,Cheshunt,Hertfordshire,,Flamstead End School,School/college/university,7845,0,,162715,0,,51.71579300000000,PI/000003471,155,envhealth@broxbourne.gov.uk,Broxbourne,http://www.broxbourne.gov.uk,-0.05714000000000,EN7 6AG,2013-10-07,fhrs_5_en-GB,5,,FHRS,0
7145,Stanstead Road,Hoddesdon,Hertfordshire,,Forres Primary School,School/college/university,7845,0,,177564,0,,51.77270600000000,PI/000042722,155,envhealth@broxbourne.gov.uk,Broxbourne,http://www.broxbourne.gov.uk,-0.00564600000000,EN11 0RW,2014-12-15,fhrs_5_en-GB,5,,FHRS,5
7146,25-27 The Drive,Hoddesdon,Hertfordshire,,Forress Convenience Store,Retailers - other,4613,10,,177529,5,,51.77176100000000,PI/000042606,155,envhealth@broxbourne.gov.uk,Broxbourne,http://www.broxbourne.gov.uk,-0.01144200000000,EN11 9JB,2013-11-06,fhrs_3_en-GB,3,,FHRS,10
7147,1 Manor Croft Parade,College Road,Cheshunt,Hertfordshire,Fountain Cafe,Restaurant/Cafe/Canteen,1,5,,708233,5,,51.70188800000000,PI/000054326,155,envhealth@broxbourne.gov.uk,Broxbourne,http://www.broxbourne.gov.uk,-0.03534700000000,EN8 9LP,2014-09-24,fhrs_5_en-GB,5,,FHRS,5
7148,,,,,Francesco Castagna,Retailers - other,4613,5,,187585,5,,,PI/000029223,155,envhealth@broxbourne.gov.uk,Broxbourne,http://www.broxbourne.gov.uk,,,2012-12-06,fhrs_5_en-GB,5,,FHRS,5
7149,274 Holdbrook Court,Holdbrook South,Waltham Cross,Hertfordshire,Fresh Fried,Other catering premises,7841,10,,703663,5,,51.68516200000000,PI/000054268,155,envhealth@broxbourne.gov.uk,Broxbourne,http://www.broxbourne.gov.uk,-0.01981100000000,EN8 7SL,2014-09-05,fhrs_4_en-GB,4,,FHRS,5
7150,14 Fawkon Walk,Hoddesdon,Hertfordshire,,Fresh Fruit & Veg,Retailers - other,4613,10,,578590,5,,51.75997300000000,PI/000047230,155,envhealth@broxbourne.gov.uk,Broxbourne,http://www.broxbourne.gov.uk,-0.01252500000000,EN11 8TJ,2013-07-01,fhrs_3_en-GB,3,,FHRS,10
7151,Pindar Road,Hoddesdon,Hertfordshire,,Frisco,Restaurant/Cafe/Canteen,1,0,,177993,5,,51.76435200000000,PI/000044701,155,envhealth@broxbourne.gov.uk,Broxbourne,http://www.broxbourne.gov.uk,0.00339100000000,EN11 0DE,2014-10-23,fhrs_5_en-GB,5,,FHRS,0
7152,,,,,G E Swift (Caterer),Other catering premises,7841,5,,187709,10,,,PI/000005643,155,envhealth@broxbourne.gov.uk,Broxbourne,http://www.broxbourne.gov.uk,,,2014-04-25,fhrs_4_en-GB,4,,FHRS,0
7153,111 Rye Road,Hoddesdon,Hertfordshire,,G J's Food and Wine,Retailers - other,4613,10,,175137,5,,51.76701300000000,PI/000031234,155,envhealth@broxbourne.gov.uk,Broxbourne,http://www.broxbourne.gov.uk,-0.00398400000000,EN11 0JP,2013-08-29,fhrs_4_en-GB,4,,FHRS,5
7154,88-102 High Street,Waltham Cross,Hertfordshire,,Gala Bingo Club,Restaurant/Cafe/Canteen,1,0,,177472,0,,51.68527800000000,PI/000042357,155,envhealth@broxbourne.gov.uk,Broxbourne,http://www.broxbourne.gov.uk,-0.03256500000000,EN8 7BX,2013-12-20,fhrs_5_en-GB,5,,FHRS,0
7155,Hailey Lane,Hoddesdon,Hertfordshire,,Galley Hall,Pub/bar/nightclub,7843,5,,173718,5,,51.77937700000000,PI/000026728,155,envhealth@broxbourne.gov.uk,Broxbourne,http://www.broxbourne.gov.uk,-0.01774700000000,SG13 7NY,2013-11-21,fhrs_5_en-GB,5,,FHRS,5
7156,21 College Road,Cheshunt,Hertfordshire,,Gaps News,Retailers - other,4613,,,165825,,,51.70219500000000,PI/000008557,155,envhealth@broxbourne.gov.uk,Broxbourne,http://www.broxbourne.gov.uk,-0.03644800000000,EN8 9LS,2012-08-15,fhrs_exempt_en-GB,Exempt,,FHRS,
7157,,,,,Gary Andrews Fish Stall,Retailers - other,4613,10,,187739,0,,,PI/000013776,155,envhealth@broxbourne.gov.uk,Broxbourne,http://www.broxbourne.gov.uk,,,2012-11-01,fhrs_4_en-GB,4,,FHRS,0
7158,7 Stanstead Road,Hoddesdon,Hertfordshire,,Georges,Takeaway/sandwich shop,7844,5,,505183,10,,51.76647200000000,PI/000053290,155,envhealth@broxbourne.gov.uk,Broxbourne,http://www.broxbourne.gov.uk,-0.00815300000000,EN11 0PE,2014-08-14,fhrs_4_en-GB,4,,FHRS,5
7159,,,,,Gills Chocolates,Retailers - other,4613,,,352920,,,,PI/000050946,155,envhealth@broxbourne.gov.uk,Broxbourne,http://www.broxbourne.gov.uk,,,2012-04-12,fhrs_exempt_en-GB,Exempt,,FHRS,
7160,Restaurant,Tesco Stores Ltd,Halfhide Lane,Cheshunt,Giraffe Concepts Ltd,Restaurant/Cafe/Canteen,1,5,,619717,10,,51.71802000000000,PI/000053791,155,envhealth@broxbourne.gov.uk,Broxbourne,http://www.broxbourne.gov.uk,-0.03745700000000,EN8 0TA,2013-12-03,fhrs_4_en-GB,4,,FHRS,0
7161,652 Goffs Lane,Goffs Oak,Hertfordshire,,Goffs Oak Comrades Club,Pub/bar/nightclub,7843,0,,164136,5,,51.71015200000000,PI/000005869,155,envhealth@broxbourne.gov.uk,Broxbourne,http://www.broxbourne.gov.uk,-0.08599800000000,EN7 5ET,2014-08-13,fhrs_5_en-GB,5,,FHRS,5
7162,688 Goffs Lane,Goffs Oak,Hertfordshire,,Goffs Oak Post Office,Retailers - other,4613,,,167440,,,51.71015200000000,PI/000011455,155,envhealth@broxbourne.gov.uk,Broxbourne,http://www.broxbourne.gov.uk,-0.08599800000000,EN7 5ET,2014-09-16,fhrs_exempt_en-GB,Exempt,,FHRS,
7163,Millcrest Road,Goffs Oak,Hertfordshire,,Goffs Oak Primary School,School/college/university,7845,5,,177566,5,,51.71371100000000,PI/000042724,155,envhealth@broxbourne.gov.uk,Broxbourne,http://www.broxbourne.gov.uk,-0.09357800000000,EN7 5NS,2013-12-19,fhrs_5_en-GB,5,,FHRS,0
7164,Goffs Lane,Goffs Oak,Hertfordshire,,Goffs Oak Village Hall,Other catering premises,7841,,,167353,,,51.71015200000000,PI/000011269,155,envhealth@broxbourne.gov.uk,Broxbourne,http://www.broxbourne.gov.uk,-0.08599800000000,EN7 5ET,2013-11-28,fhrs_exempt_en-GB,Exempt,,FHRS,
7165,Goffs Lane,Cheshunt,Hertfordshire,,Goffs School,School/college/university,7845,0,,177211,0,,51.70643100000000,PI/000041168,155,envhealth@broxbourne.gov.uk,Broxbourne,http://www.broxbourne.gov.uk,-0.05706300000000,EN7 5QW,2014-01-15,fhrs_5_en-GB,5,,FHRS,5
7166,3-5 Stanstead Road,Hoddesdon,Hertfordshire,,Golden Dragon,Takeaway/sandwich shop,7844,5,,174819,5,,51.76647200000000,PI/000030207,155,envhealth@broxbourne.gov.uk,Broxbourne,http://www.broxbourne.gov.uk,-0.00815300000000,EN11 0PE,2015-01-15,fhrs_4_en-GB,4,,FHRS,10
7167,23 College Road,Cheshunt,Hertfordshire,,Golden Phoenix,Takeaway/sandwich shop,7844,10,,177606,5,,51.70219500000000,PI/000042812,155,envhealth@broxbourne.gov.uk,Broxbourne,http://www.broxbourne.gov.uk,-0.03644800000000,EN8 9LS,2014-07-16,fhrs_3_en-GB,3,,FHRS,10
7168,239 Turners Hill,Cheshunt,Hertfordshire,,Gordons Foods,Retailers - other,4613,10,,647015,5,,51.70654900000000,PI/000053912,155,envhealth@broxbourne.gov.uk,Broxbourne,http://www.broxbourne.gov.uk,-0.03657800000000,EN8 9DG,2014-03-24,fhrs_4_en-GB,4,,FHRS,5
7169,27 Flamstead End Road,Cheshunt,Hertfordshire,,Grange Care Services,Hospitals/Childcare/Caring Premises,5,0,,162124,0,,51.71136400000000,PI/000002413,155,envhealth@broxbourne.gov.uk,Broxbourne,http://www.broxbourne.gov.uk,-0.05029500000000,EN8 0JA,2014-02-13,fhrs_5_en-GB,5,,FHRS,0
7170,Old Grange,College Road,Cheshunt,Hertfordshire,Grange Care Services,Hospitals/Childcare/Caring Premises,5,0,,166476,0,,51.70258200000000,PI/000009641,155,envhealth@broxbourne.gov.uk,Broxbourne,http://www.broxbourne.gov.uk,-0.03971700000000,EN8 9LT,2013-10-25,fhrs_5_en-GB,5,,FHRS,0
7171,33 Chaucer Way,Hoddesdon,Hertfordshire,,Greater London Grocers Ltd,Retailers - other,4613,0,,627077,0,,51.77637100000000,PI/000053747,155,envhealth@broxbourne.gov.uk,Broxbourne,http://www.broxbourne.gov.uk,-0.00802100000000,EN11 9QP,2014-01-17,fhrs_5_en-GB,5,,FHRS,5
7172,Hurst Drive,Waltham Cross,Hertfordshire,,Greenfield Nursery School,Hospitals/Childcare/Caring Premises,5,0,,164479,5,,51.68524500000000,PI/000006380,155,envhealth@broxbourne.gov.uk,Broxbourne,http://www.broxbourne.gov.uk,-0.03920700000000,EN8 8DH,2014-03-13,fhrs_5_en-GB,5,,FHRS,0
7173,53 Turners Hill,Cheshunt,Hertfordshire,,Greggs Bakers,Retailers - other,4613,0,,165315,5,,51.70131500000000,PI/000007822,155,envhealth@broxbourne.gov.uk,Broxbourne,http://www.broxbourne.gov.uk,-0.03492300000000,EN8 8NR,2013-07-15,fhrs_5_en-GB,5,,FHRS,0
7174,117 High Street,Waltham Cross,Hertfordshire,,Greggs Bakery,Retailers - other,4613,0,,177531,5,,51.68620300000000,PI/000042621,155,envhealth@broxbourne.gov.uk,Broxbourne,http://www.broxbourne.gov.uk,-0.03355300000000,EN8 7AN,2014-10-06,fhrs_5_en-GB,5,,FHRS,5
7175,,,,,Grubâs Up Catering,Mobile caterer,7846,10,,607364,5,,,PI/000053807,155,envhealth@broxbourne.gov.uk,Broxbourne,http://www.broxbourne.gov.uk,,,2013-10-18,fhrs_3_en-GB,3,,FHRS,10
7176,Hailey Lane,Hoddesdon,Hertfordshire,,Hailey Hall School,School/college/university,7845,0,,173775,5,,51.77809300000000,PI/000026913,155,envhealth@broxbourne.gov.uk,Broxbourne,http://www.broxbourne.gov.uk,-0.01629600000000,SG13 7PB,2013-03-15,fhrs_5_en-GB,5,,FHRS,0
7177,Hailey Petrol Filling Station,379-385 Ware Road,Hoddesdon,Hertfordshire,Hailey Service Station,Retailers - other,4613,5,,176775,5,,51.77981000000000,PI/000038830,155,envhealth@broxbourne.gov.uk,Broxbourne,http://www.broxbourne.gov.uk,-0.01413300000000,SG13 7PE,2013-01-07,fhrs_5_en-GB,5,,FHRS,5
7178,Turners Hill,Cheshunt,Hertfordshire,,Halsey Masonic Hall,Pub/bar/nightclub,7843,5,,164985,0,,51.70006800000000,PI/000007218,155,envhealth@broxbourne.gov.uk,Broxbourne,http://www.broxbourne.gov.uk,-0.03455800000000,EN8 8NJ,2014-01-07,fhrs_5_en-GB,5,,FHRS,0
7179,25 The Pavilion,High Street,Waltham Cross,Hertfordshire,Handersons,Retailers - other,4613,,,168055,,,51.68651300000000,PI/000012493,155,envhealth@broxbourne.gov.uk,Broxbourne,http://www.broxbourne.gov.uk,-0.03220800000000,EN8 7BY,2013-11-27,fhrs_exempt_en-GB,Exempt,,FHRS,
7180,Coffee Bar,Tesco Stores Ltd,Halfhide Lane,Cheshunt,Harris and Hoole,Restaurant/Cafe/Canteen,1,0,,619718,0,,51.71802000000000,PI/000053797,155,envhealth@broxbourne.gov.uk,Broxbourne,http://www.broxbourne.gov.uk,-0.03745700000000,EN8 0TA,2013-12-11,fhrs_5_en-GB,5,,FHRS,0
7181,247A Turners Hill,Cheshunt,Hertfordshire,,Harry's Fishmongers,Retailers - other,4613,10,,661352,5,,51.70654900000000,PI/000054113,155,envhealth@broxbourne.gov.uk,Broxbourne,http://www.broxbourne.gov.uk,-0.03657800000000,EN8 9DG,2014-05-06,fhrs_3_en-GB,3,,FHRS,10
7182,Cedar Lodge,High Street,Cheshunt,,HCC - Broxbourne Care Services,Hospitals/Childcare/Caring Premises,5,0,,516601,0,,51.71246400000000,PI/000053519,155,envhealth@broxbourne.gov.uk,Broxbourne,http://www.broxbourne.gov.uk,-0.03377400000000,EN8 0DG,2014-07-17,fhrs_5_en-GB,5,,FHRS,0
7183,223 Windmill Lane,Cheshunt,Hertfordshire,,Hertfordshire Young Mariners Base,Restaurant/Cafe/Canteen,1,5,,170556,0,,51.70305500000000,PI/000017906,155,envhealth@broxbourne.gov.uk,Broxbourne,http://www.broxbourne.gov.uk,-0.02340000000000,EN8 9AJ,2013-04-18,fhrs_5_en-GB,5,,FHRS,0
7184,117 High Street,Hoddesdon,Hertfordshire,,Herts Plaice,Restaurant/Cafe/Canteen,1,10,,177265,10,,51.76155600000000,PI/000041314,155,envhealth@broxbourne.gov.uk,Broxbourne,http://www.broxbourne.gov.uk,-0.01203600000000,EN11 8TN,2014-08-06,fhrs_3_en-GB,3,,FHRS,10
7185,119 High Street,Hoddesdon,Hertfordshire,,Herts Plaice Fish and Chips,Restaurant/Cafe/Canteen,1,10,,726910,0,,51.76155600000000,PI/000054251,155,envhealth@broxbourne.gov.uk,Broxbourne,http://www.broxbourne.gov.uk,-0.01203600000000,EN11 8TN,2014-12-15,fhrs_4_en-GB,4,,FHRS,5
7186,,,,,Herts Vintage Tea Parties,Other catering premises,7841,5,,415266,0,,,PI/000051192,155,envhealth@broxbourne.gov.uk,Broxbourne,http://www.broxbourne.gov.uk,,,2014-07-02,fhrs_5_en-GB,5,,FHRS,0
7187,Lord Street,Hoddesdon,Hertfordshire,,High Leigh Conference Centre,Restaurant/Cafe/Canteen,1,0,,173536,5,,51.76146900000000,PI/000026055,155,envhealth@broxbourne.gov.uk,Broxbourne,http://www.broxbourne.gov.uk,-0.02819700000000,EN11 8SG,2014-02-20,fhrs_5_en-GB,5,,FHRS,0
7188,8-11 The Precinct,High Road,Broxbourne,Hertfordshire,Highland Restaurant,Restaurant/Cafe/Canteen,1,5,,177613,5,,51.74757800000000,PI/000042861,155,envhealth@broxbourne.gov.uk,Broxbourne,http://www.broxbourne.gov.uk,-0.01870500000000,EN10 7HY,2014-07-31,fhrs_4_en-GB,4,,FHRS,10
7189,Old Highway,Hoddesdon,Hertfordshire,,Hoddesdon and Rye Park Bowling Club,Other catering premises,7841,5,,176786,0,,51.77270400000000,PI/000038887,155,envhealth@broxbourne.gov.uk,Broxbourne,http://www.broxbourne.gov.uk,-0.00284900000000,EN11 0LY,2013-02-15,fhrs_5_en-GB,5,,FHRS,0
7190,Burford Street,Hoddesdon,Hertfordshire,,Hoddesdon Baptist Church,Other catering premises,7841,,,175249,,,51.76442200000000,PI/000031666,155,envhealth@broxbourne.gov.uk,Broxbourne,http://www.broxbourne.gov.uk,-0.00870700000000,EN11 8HX,2012-04-12,fhrs_exempt_en-GB,Exempt,,FHRS,
7191,Lord Street,Hoddesdon,Hertfordshire,,Hoddesdon Bowls Club (Rosehill),Other catering premises,7841,10,,177994,5,,51.76109700000000,PI/000044703,155,envhealth@broxbourne.gov.uk,Broxbourne,http://www.broxbourne.gov.uk,-0.02108400000000,EN11 8NL,2013-11-26,fhrs_3_en-GB,3,,FHRS,10
7192,130 High Street,Hoddesdon,Hertfordshire,,Hoddesdon Cafe,Other catering premises,7841,5,,491639,5,,51.76161700000000,PI/000053425,155,envhealth@broxbourne.gov.uk,Broxbourne,http://www.broxbourne.gov.uk,-0.01081600000000,EN11 8HL,2014-07-18,fhrs_4_en-GB,4,,FHRS,10
7193,Lowfield Sports Ground,Park View,Hoddesdon,,Hoddesdon Cricket Club,Pub/bar/nightclub,7843,10,,177991,5,,51.76485300000000,PI/000044699,155,envhealth@broxbourne.gov.uk,Broxbourne,http://www.broxbourne.gov.uk,0.00222600000000,EN11 8PX,2014-08-27,fhrs_4_en-GB,4,,FHRS,5
7194,Unit 1,33 High Street,Hoddesdon,Hertfordshire,Hoddesdon Express,Retailers - other,4613,,,178842,,,51.75895900000000,PI/000050506,155,envhealth@broxbourne.gov.uk,Broxbourne,http://www.broxbourne.gov.uk,-0.01267100000000,EN11 8TA,2014-01-10,fhrs_exempt_en-GB,Exempt,,FHRS,
7195,50 Ware Road,Hoddesdon,Hertfordshire,,Hoddesdon Food and Wine,Retailers - other,4613,5,,175480,0,,51.76702300000000,PI/000032555,155,envhealth@broxbourne.gov.uk,Broxbourne,http://www.broxbourne.gov.uk,-0.01201300000000,EN11 9DU,2014-11-24,fhrs_5_en-GB,5,,FHRS,0
7196,Labour Hall,Rye Road,Hoddesdon,Hertfordshire,Hoddesdon Labour Club,Pub/bar/nightclub,7843,0,,175147,0,,51.76713300000000,PI/000031281,155,envhealth@broxbourne.gov.uk,Broxbourne,http://www.broxbourne.gov.uk,-0.00626900000000,EN11 0JR,2015-01-15,fhrs_5_en-GB,5,,FHRS,5
7197,Beech Walk,Hoddesdon,Hertfordshire,,Hoddesdon Lawn Tennis Club,Other catering premises,7841,10,,173537,0,,51.76020400000000,PI/000026059,155,envhealth@broxbourne.gov.uk,Broxbourne,http://www.broxbourne.gov.uk,-0.01771700000000,EN11 8NS,2012-05-25,fhrs_4_en-GB,4,,FHRS,5
7198,Middlefield Road,Hoddesdon,Hertfordshire,,Hoddesdon Methodist Church,Other catering premises,7841,,,175486,,,51.76786600000000,PI/000032581,155,envhealth@broxbourne.gov.uk,Broxbourne,http://www.broxbourne.gov.uk,-0.00974400000000,EN11 9ED,2012-04-27,fhrs_exempt_en-GB,Exempt,,FHRS,
7199,High Street,Hoddesdon,Hertfordshire,,Hoddesdon Police Station,Other catering premises,7841,,,177229,,,51.75508600000000,PI/000041258,155,envhealth@broxbourne.gov.uk,Broxbourne,http://www.broxbourne.gov.uk,-0.01388500000000,EN11 8BJ,2011-11-15,fhrs_exempt_en-GB,Exempt,,FHRS,
7200,Lowfield Sports Ground,Park View,Hoddesdon,,Hoddesdon Town Football Club,Pub/bar/nightclub,7843,10,,177990,5,,51.76485300000000,PI/000044698,155,envhealth@broxbourne.gov.uk,Broxbourne,http://www.broxbourne.gov.uk,0.00222600000000,EN11 8PX,2013-01-11,fhrs_4_en-GB,4,,FHRS,5
7201,Staff Restaurant,Stephenson Close,Hoddesdon,Hertfordshire,Hoddesdon Truck Centre,Restaurant/Cafe/Canteen,1,5,,178924,5,,51.75798200000000,PI/000050756,155,envhealth@broxbourne.gov.uk,Broxbourne,http://www.broxbourne.gov.uk,0.00883300000000,EN11 0BW,2014-08-06,fhrs_5_en-GB,5,,FHRS,5
7202,Cornerstone Pre-School Ltd,Walton Road,Hoddesdon,Hertfordshire,Hoddesdon Youth Centre (Trustees),Other catering premises,7841,,,178203,,,51.76808400000000,PI/000045820,155,envhealth@broxbourne.gov.uk,Broxbourne,http://www.broxbourne.gov.uk,-0.00034200000000,EN11 0LH,2013-11-06,fhrs_exempt_en-GB,Exempt,,FHRS,
7203,Walton Road,Hoddesdon,Hertfordshire,,Hoddesdon Youth Centre (Trustees),Retailers - other,4613,5,,176202,10,,51.76808400000000,PI/000035850,155,envhealth@broxbourne.gov.uk,Broxbourne,http://www.broxbourne.gov.uk,-0.00034200000000,EN11 0LH,2012-03-19,fhrs_4_en-GB,4,,FHRS,5
7204,245 High Street,Waltham Cross,Hertfordshire,,Hodsons Quality Fish Bar,Takeaway/sandwich shop,7844,0,,163396,0,,51.69122500000000,PI/000004634,155,envhealth@broxbourne.gov.uk,Broxbourne,http://www.broxbourne.gov.uk,-0.03437700000000,EN8 7BE,2013-10-07,fhrs_5_en-GB,5,,FHRS,0
7205,193 Eleanor Cross Road,Waltham Cross,Hertfordshire,,Holdbrook Christian Fellowship,Hospitals/Childcare/Caring Premises,5,,,168073,,,51.68604400000000,PI/000012523,155,envhealth@broxbourne.gov.uk,Broxbourne,http://www.broxbourne.gov.uk,-0.02142100000000,EN8 7NJ,2013-12-05,fhrs_exempt_en-GB,Exempt,,FHRS,
7206,Longcroft Drive,Waltham Cross,Hertfordshire,,Holdbrook Primary School,School/college/university,7845,0,,177567,0,,51.68368100000000,PI/000042725,155,envhealth@broxbourne.gov.uk,Broxbourne,http://www.broxbourne.gov.uk,-0.01991900000000,EN8 7QG,2014-06-16,fhrs_5_en-GB,5,,FHRS,5
7207,270 Holdbrook Court,Holdbrook South,Waltham Cross,Hertfordshire,Holdbrook Supermarket,Retailers - other,4613,10,,168691,5,,51.68516200000000,PI/000013650,155,envhealth@broxbourne.gov.uk,Broxbourne,http://www.broxbourne.gov.uk,-0.01981100000000,EN8 7SL,2013-01-23,fhrs_4_en-GB,4,,FHRS,0
7208,73 The Pavilion,High Street,Waltham Cross,Hertfordshire,Holland & Barrett,Retailers - other,4613,,,168080,,,51.68651300000000,PI/000012536,155,envhealth@broxbourne.gov.uk,Broxbourne,http://www.broxbourne.gov.uk,-0.03220800000000,EN8 7BZ,2013-06-13,fhrs_exempt_en-GB,Exempt,,FHRS,
7209,49 Aldermere Avenue,Cheshunt,Hertfordshire,,Hollie Button,Other catering premises,7841,5,,612720,0,,51.71347000000000,PI/000053812,155,envhealth@broxbourne.gov.uk,Broxbourne,http://www.broxbourne.gov.uk,-0.04124400000000,EN8 0FE,2013-10-25,fhrs_5_en-GB,5,,FHRS,0
7210,Longlands Close,Cheshunt,Hertfordshire,,Holy Trinity C of E Primary School,School/college/university,7845,0,,177568,0,,51.69511200000000,PI/000042726,155,envhealth@broxbourne.gov.uk,Broxbourne,http://www.broxbourne.gov.uk,-0.03506200000000,EN8 8LU,2013-12-18,fhrs_5_en-GB,5,,FHRS,5
7211,,,,,Honeysuckle Bakery,Retailers - other,4613,5,,187686,0,,,PI/000049735,155,envhealth@broxbourne.gov.uk,Broxbourne,http://www.broxbourne.gov.uk,,,2012-11-09,fhrs_5_en-GB,5,,FHRS,0
7212,Hertford Regional College,High Road,Turnford,Hertfordshire,HRC-Refectory (Aramark Ltd),School/college/university,7845,0,,171662,0,,51.72644700000000,PI/000020970,155,envhealth@broxbourne.gov.uk,Broxbourne,http://www.broxbourne.gov.uk,-0.02465300000000,EN10 6AE,2013-10-09,fhrs_5_en-GB,5,,FHRS,0
7213,239 High Street,Waltham Cross,Hertfordshire,,Hungercure,Takeaway/sandwich shop,7844,0,,163393,5,,51.69122500000000,PI/000004632,155,envhealth@broxbourne.gov.uk,Broxbourne,http://www.broxbourne.gov.uk,-0.03437700000000,EN8 7BE,2014-07-29,fhrs_5_en-GB,5,,FHRS,5
7214,Hurst Drive Primary School,Hurst Drive,Waltham Cross,Hertfordshire,Hurst Drive Jmi School,School/college/university,7845,0,,177569,0,,51.68524500000000,PI/000042727,155,envhealth@broxbourne.gov.uk,Broxbourne,http://www.broxbourne.gov.uk,-0.03920700000000,EN8 8DH,2013-11-12,fhrs_5_en-GB,5,,FHRS,0
7215,,,,,Ice Cream Van E32VJA,Mobile caterer,7846,5,,415267,0,,,PI/000051199,155,envhealth@broxbourne.gov.uk,Broxbourne,http://www.broxbourne.gov.uk,,,2012-06-13,fhrs_5_en-GB,5,,FHRS,0
7216,,,,,Ice Cream Van G911 NLW,Retailers - other,4613,10,,187658,5,,,PI/000049784,155,envhealth@broxbourne.gov.uk,Broxbourne,http://www.broxbourne.gov.uk,,,2013-09-09,fhrs_4_en-GB,4,,FHRS,5
7217,106 High Street,Waltham Cross,Hertfordshire,,Iceland Frozen Foods Plc,Retailers - supermarkets/hypermarkets,7840,0,,169012,0,,51.68527800000000,PI/000014288,155,envhealth@broxbourne.gov.uk,Broxbourne,http://www.broxbourne.gov.uk,-0.03256500000000,EN8 7BX,2012-05-17,fhrs_5_en-GB,5,,FHRS,0
7218,Brocket Road,Hoddesdon,Hertfordshire,,Iceland Frozen Foods Plc,Retailers - supermarkets/hypermarkets,7840,0,,174717,5,,51.75940200000000,PI/000029863,155,envhealth@broxbourne.gov.uk,Broxbourne,http://www.broxbourne.gov.uk,-0.01442000000000,EN11 8PE,2012-01-12,fhrs_5_en-GB,5,,FHRS,5
7219,97 Rye Road,Hoddesdon,Hertfordshire,,Ideal Food and Wine,Retailers - other,4613,5,,178831,5,,51.76700100000000,PI/000050470,155,envhealth@broxbourne.gov.uk,Broxbourne,http://www.broxbourne.gov.uk,-0.00275300000000,EN11 0JL,2013-12-02,fhrs_5_en-GB,5,,FHRS,0
7220,17-19 High Street,Cheshunt,Hertfordshire,,Illusion(De Ja Vu),Restaurant/Cafe/Canteen,1,0,,530460,10,,51.70857000000000,PI/000053639,155,envhealth@broxbourne.gov.uk,Broxbourne,http://www.broxbourne.gov.uk,-0.03748900000000,EN8 0BX,2014-05-30,fhrs_4_en-GB,4,,FHRS,5
7221,610 Goffs Lane,Goffs Oak,Hertfordshire,,In-Ex UK Ltd,Restaurant/Cafe/Canteen,1,0,,167369,5,,51.70938800000000,PI/000011300,155,envhealth@broxbourne.gov.uk,Broxbourne,http://www.broxbourne.gov.uk,-0.08102200000000,EN7 5EP,2013-09-25,fhrs_5_en-GB,5,,FHRS,0
7222,4 Brewery Road,Hoddesdon,Hertfordshire,,Istanbul Kebab Pizza,Takeaway/sandwich shop,7844,5,,178819,10,,51.76105400000000,PI/000050427,155,envhealth@broxbourne.gov.uk,Broxbourne,http://www.broxbourne.gov.uk,-0.00997100000000,EN11 8HF,2013-12-23,fhrs_4_en-GB,4,,FHRS,5
7223,The Friary Holdbrook North,Eleanor Way,Waltham Cross,,Italian Club 2000,Pub/bar/nightclub,7843,5,,178869,5,,51.68666900000000,PI/000050619,155,envhealth@broxbourne.gov.uk,Broxbourne,http://www.broxbourne.gov.uk,-0.02169800000000,EN8 7RY,2012-09-21,fhrs_5_en-GB,5,,FHRS,0
7224,105 High Street,Hoddesdon,Hertfordshire,,"J D Wetherspoon ""The Star""",Pub/bar/nightclub,7843,5,,732887,10,,51.76155600000000,PI/000053907,155,envhealth@broxbourne.gov.uk,Broxbourne,http://www.broxbourne.gov.uk,-0.01203600000000,EN11 8TN,2015-01-09,fhrs_4_en-GB,4,,FHRS,0
7225,Brook Farm,Cuffley Hill,Goffs Oak,Hertfordshire,J I Thomas & Son(Events),Other catering premises,7841,0,,547835,0,,51.70917800000000,PI/000053653,155,envhealth@broxbourne.gov.uk,Broxbourne,http://www.broxbourne.gov.uk,-0.10523200000000,EN6 4EX,2014-10-28,fhrs_5_en-GB,5,,FHRS,0
7226,,,,,Jana Williams,Hospitals/Childcare/Caring Premises,5,,,161864,,,,PI/000001954,155,envhealth@broxbourne.gov.uk,Broxbourne,http://www.broxbourne.gov.uk,,,2012-02-23,fhrs_exempt_en-GB,Exempt,,FHRS,
7227,,,,,Janina,Retailers - other,4613,,,187436,,,,PI/000049864,155,envhealth@broxbourne.gov.uk,Broxbourne,http://www.broxbourne.gov.uk,,,2013-02-08,fhrs_exempt_en-GB,Exempt,,FHRS,
7228,,,,,Jemz Cake Box,Retailers - other,4613,5,,578585,5,,,PI/000016577,155,envhealth@broxbourne.gov.uk,Broxbourne,http://www.broxbourne.gov.uk,,,2013-06-19,fhrs_5_en-GB,5,,FHRS,0
7229,,,,,Jennyâs,Other catering premises,7841,10,,619713,0,,,PI/000044064,155,envhealth@broxbourne.gov.uk,Broxbourne,http://www.broxbourne.gov.uk,,,2013-11-14,fhrs_4_en-GB,4,,FHRS,0
7230,258-260 High Street,Waltham Cross,Hertfordshire,,Jerk Kitchen,Restaurant/Cafe/Canteen,1,5,,636124,5,,51.69091600000000,PI/000045990,155,envhealth@broxbourne.gov.uk,Broxbourne,http://www.broxbourne.gov.uk,-0.03360900000000,EN8 7EA,2014-02-10,fhrs_4_en-GB,4,,FHRS,10
7231,"Food Mobile Jollys Sea Food Fish Stall, The Jolly Bricklayer",2 Flamstead End Road,Cheshunt,Hertfordshire,Jimmy The Fish,Retailers - other,4613,0,,178614,5,,51.71007800000000,PI/000048888,155,envhealth@broxbourne.gov.uk,Broxbourne,http://www.broxbourne.gov.uk,-0.04867100000000,EN8 0HH,2014-12-12,fhrs_5_en-GB,5,,FHRS,5
7232,74 High Street,Cheshunt,Hertfordshire,,Jimmys Bakery,Retailers - other,4613,0,,166684,0,,51.71018200000000,PI/000009999,155,envhealth@broxbourne.gov.uk,Broxbourne,http://www.broxbourne.gov.uk,-0.03445200000000,EN8 0AJ,2014-08-04,fhrs_4_en-GB,4,,FHRS,10
7233,,,,,Jo Jo Macs,Other catering premises,7841,5,,547836,0,,,PI/000053656,155,envhealth@broxbourne.gov.uk,Broxbourne,http://www.broxbourne.gov.uk,,,2013-05-01,fhrs_5_en-GB,5,,FHRS,0
7234,,,,,Joanne Soon Kid Li,Hospitals/Childcare/Caring Premises,5,,,172323,,,,PI/000022812,155,envhealth@broxbourne.gov.uk,Broxbourne,http://www.broxbourne.gov.uk,,,2013-07-09,fhrs_exempt_en-GB,Exempt,,FHRS,
7235,,,,,Joeâs Kernel,Other catering premises,7841,10,,636127,5,,,PI/000053809,155,envhealth@broxbourne.gov.uk,Broxbourne,http://www.broxbourne.gov.uk,,,2013-11-04,fhrs_4_en-GB,4,,FHRS,0
7236,282 High Street,Waltham Cross,Hertfordshire,,Joe's Cafe,Restaurant/Cafe/Canteen,1,5,,164536,5,,51.69128700000000,PI/000006484,155,envhealth@broxbourne.gov.uk,Broxbourne,http://www.broxbourne.gov.uk,-0.03379500000000,EN8 7EA,2014-06-25,fhrs_5_en-GB,5,,FHRS,5
7237,Sheredes Primary School and Nursery,Benford Road,Broxbourne,Hertfordshire,Jousters at Sheredes,School/college/university,7845,0,,178727,5,,51.75244100000000,PI/000049771,155,envhealth@broxbourne.gov.uk,Broxbourne,http://www.broxbourne.gov.uk,-0.02181000000000,EN11 8LL,2014-03-26,fhrs_5_en-GB,5,,FHRS,0
7238,1 Newgatestreet Road,Goffs Oak,Hertfordshire,,Joy Bangla Tandoori Restaurant,Restaurant/Cafe/Canteen,1,5,,167406,10,,51.71074400000000,PI/000011360,155,envhealth@broxbourne.gov.uk,Broxbourne,http://www.broxbourne.gov.uk,-0.08808600000000,EN7 5SS,2014-09-16,fhrs_3_en-GB,3,,FHRS,10
7239,1A Brocket Road,Hoddesdon,Hertfordshire,,Judelicious,Restaurant/Cafe/Canteen,1,5,,636129,5,,51.75927100000000,PI/000053890,155,envhealth@broxbourne.gov.uk,Broxbourne,http://www.broxbourne.gov.uk,-0.01249800000000,EN11 8PA,2014-02-14,fhrs_4_en-GB,4,,FHRS,10
7240,124 High Street,Hoddesdon,Hertfordshire,,K F C,Takeaway/sandwich shop,7844,0,,178646,10,,51.76080600000000,PI/000049198,155,envhealth@broxbourne.gov.uk,Broxbourne,http://www.broxbourne.gov.uk,-0.01128600000000,EN11 8HD,2014-04-24,fhrs_4_en-GB,4,,FHRS,5
7241,55 Eleanor Cross Road,Waltham Cross,Hertfordshire,,K F C,Takeaway/sandwich shop,7844,5,,168673,10,,51.68585600000000,PI/000013608,155,envhealth@broxbourne.gov.uk,Broxbourne,http://www.broxbourne.gov.uk,-0.03003800000000,EN8 7LD,2014-04-17,fhrs_3_en-GB,3,,FHRS,10
7242,192 Eleanor Cross Road,Waltham Cross,Hertfordshire,,Kahyalar Food & Wine,Retailers - other,4613,10,,173867,5,,51.68551800000000,PI/000027249,155,envhealth@broxbourne.gov.uk,Broxbourne,http://www.broxbourne.gov.uk,-0.01901400000000,EN8 7PW,2013-08-16,fhrs_4_en-GB,4,,FHRS,5
7243,Steves Breakfast Box Food Mobile,Britannia Road,Waltham Cross,Hertfordshire,Karakuyu Ltd,Mobile caterer,7846,10,,578594,10,,51.68367200000000,PI/000053732,155,envhealth@broxbourne.gov.uk,Broxbourne,http://www.broxbourne.gov.uk,-0.02425900000000,EN8 7NY,2013-07-19,fhrs_4_en-GB,4,,FHRS,0
7244,"Kathys Sea Food Mobile, The Queens Head",66 High Road,Wormley,Hertfordshire,Kathy's Sea Food,Takeaway/sandwich shop,7844,0,,178397,5,,51.73174200000000,PI/000046819,155,envhealth@broxbourne.gov.uk,Broxbourne,http://www.broxbourne.gov.uk,-0.02508900000000,EN10 6JN,2013-08-02,fhrs_5_en-GB,5,,FHRS,5
7245,,,,,Katies B & B,Hotel/bed & breakfast/guest house,7842,10,,178605,0,,,PI/000048782,155,envhealth@broxbourne.gov.uk,Broxbourne,http://www.broxbourne.gov.uk,,,2013-06-10,fhrs_4_en-GB,4,,FHRS,0
7246,Unit 6,5 Fieldings Road,Cheshunt,Hertfordshire,Kells Kitchen,Takeaway/sandwich shop,7844,5,,682532,5,,51.70921200000000,PI/000054269,155,envhealth@broxbourne.gov.uk,Broxbourne,http://www.broxbourne.gov.uk,-0.02375400000000,EN8 9TL,2014-06-25,fhrs_5_en-GB,5,,FHRS,0
7247,76-78 High Street,Waltham Cross,Hertfordshire,,Kervansaray,Other catering premises,7841,0,,698610,5,,51.68413500000000,PI/000054324,155,envhealth@broxbourne.gov.uk,Broxbourne,http://www.broxbourne.gov.uk,-0.03251400000000,EN8 7BU,2014-08-12,fhrs_5_en-GB,5,,FHRS,5
7248,Brewery Road,Hoddesdon,Hertfordshire,,Kew Designs,Retailers - other,4613,,,178033,,,51.76105400000000,PI/000044838,155,envhealth@broxbourne.gov.uk,Broxbourne,http://www.broxbourne.gov.uk,-0.00997100000000,EN11 8HF,2012-12-20,fhrs_exempt_en-GB,Exempt,,FHRS,
7249,12 New River Industrial Estate,Fairways,Cheshunt,Hertfordshire,Kid Mania,Restaurant/Cafe/Canteen,1,5,,627078,5,,51.71929500000000,PI/000053808,155,envhealth@broxbourne.gov.uk,Broxbourne,http://www.broxbourne.gov.uk,-0.03734400000000,EN8 0NJ,2014-01-17,fhrs_5_en-GB,5,,FHRS,0
7250,,,,,Kiddie Kandie,Retailers - other,4613,5,,585853,0,,,PI/000015388,155,envhealth@broxbourne.gov.uk,Broxbourne,http://www.broxbourne.gov.uk,,,2013-09-06,fhrs_5_en-GB,5,,FHRS,0
7251,Emmanuel Lodge,College Road,Cheshunt,,Kingfisher Nursing Home,Hospitals/Childcare/Caring Premises,5,0,,165115,0,,51.70330100000000,PI/000007494,155,envhealth@broxbourne.gov.uk,Broxbourne,http://www.broxbourne.gov.uk,-0.04509800000000,EN8 9NQ,2014-07-11,fhrs_5_en-GB,5,,FHRS,5
7252,26 King Edward Road,Waltham Cross,Hertfordshire,,Kings Food & Wine,Retailers - other,4613,5,,558347,5,,51.68804800000000,PI/000053506,155,envhealth@broxbourne.gov.uk,Broxbourne,http://www.broxbourne.gov.uk,-0.02725100000000,EN8 7HZ,2013-06-03,fhrs_5_en-GB,5,,FHRS,5
7253,Kingsway Bed and Breakfast,19 High Road,Broxbourne,Hertfordshire,Kingsway Bed & Breakfast,Hotel/bed & breakfast/guest house,7842,5,,178647,0,,51.74976600000000,PI/000049200,155,envhealth@broxbourne.gov.uk,Broxbourne,http://www.broxbourne.gov.uk,-0.01784100000000,EN10 7HU,2015-01-09,fhrs_5_en-GB,5,,FHRS,5
7254,5B The Pavilion,High Street,Hoddesdon,Hertfordshire,Kiss Cafe,Restaurant/Cafe/Canteen,1,5,,174747,5,,51.76198500000000,PI/000029994,155,envhealth@broxbourne.gov.uk,Broxbourne,http://www.broxbourne.gov.uk,-0.01133600000000,EN11 8UB,2014-11-24,fhrs_4_en-GB,4,,FHRS,10
7255,,,,,KMC Enterprises,Mobile caterer,7846,5,,187589,10,,,PI/000050261,155,envhealth@broxbourne.gov.uk,Broxbourne,http://www.broxbourne.gov.uk,,,2013-08-19,fhrs_4_en-GB,4,,FHRS,0
7256,Bonneygrove Primary School,Dark Lane,Cheshunt,Hertfordshire,Kool Kidz,Hospitals/Childcare/Caring Premises,5,5,,177946,0,,51.70192300000000,PI/000044475,155,envhealth@broxbourne.gov.uk,Broxbourne,http://www.broxbourne.gov.uk,-0.05635900000000,EN7 5ED,2013-03-27,fhrs_5_en-GB,5,,FHRS,0
7257,Kiosk,Cheshunt Railway Station,Windmill Lane,Cheshunt,Latte To Go Ltd,Takeaway/sandwich shop,7844,0,,661346,0,,51.70304700000000,PI/000053959,155,envhealth@broxbourne.gov.uk,Broxbourne,http://www.broxbourne.gov.uk,-0.02402300000000,EN8 9AQ,2014-05-06,fhrs_5_en-GB,5,,FHRS,0
7258,1-2 Clayton Parade,Turners Hill,Cheshunt,Hertfordshire,Lavas,Restaurant/Cafe/Canteen,1,5,,165140,5,,51.70111600000000,PI/000007542,155,envhealth@broxbourne.gov.uk,Broxbourne,http://www.broxbourne.gov.uk,-0.03487400000000,EN8 8NQ,2013-09-05,fhrs_4_en-GB,4,,FHRS,10
7259,45 Turners Hill,Cheshunt,Hertfordshire,,Lavas,Pub/bar/nightclub,7843,5,,178909,10,,51.70006800000000,PI/000050730,155,envhealth@broxbourne.gov.uk,Broxbourne,http://www.broxbourne.gov.uk,-0.03455800000000,EN8 8NJ,2014-09-23,fhrs_4_en-GB,4,,FHRS,5
7260,45 High Road,Broxbourne,Hertfordshire,,Laxtons Of Broxbourne,Retailers - other,4613,,,173363,,,51.74865400000000,PI/000025530,155,envhealth@broxbourne.gov.uk,Broxbourne,http://www.broxbourne.gov.uk,-0.01855600000000,EN10 7HX,2013-03-04,fhrs_exempt_en-GB,Exempt,,FHRS,
7261,1 Rye Road,Hoddesdon,Hertfordshire,,Lea House Hotel,Hotel/bed & breakfast/guest house,7842,5,,176198,10,,51.76833000000000,PI/000035838,155,envhealth@broxbourne.gov.uk,Broxbourne,http://www.broxbourne.gov.uk,0.00316100000000,EN11 0JB,2014-12-18,fhrs_4_en-GB,4,,FHRS,5
7262,Old Nazeing Road,Broxbourne,Hertfordshire,,Lee Valley Boat Centre,Restaurant/Cafe/Canteen,1,0,,171789,5,,51.74312400000000,PI/000021325,155,envhealth@broxbourne.gov.uk,Broxbourne,http://www.broxbourne.gov.uk,-0.01268500000000,EN10 6LX,2014-06-20,fhrs_5_en-GB,5,,FHRS,0
7263,Station Road,Waltham Cross,Hertfordshire,,Lee Valley White Water Centre,Restaurant/Cafe/Canteen,1,0,,479236,0,,51.68672000000000,PI/000049545,155,envhealth@broxbourne.gov.uk,Broxbourne,http://www.broxbourne.gov.uk,-0.01462100000000,EN9 1AB,2014-11-24,fhrs_5_en-GB,5,,FHRS,0
7264,LennyÂ¿s Meats,1 Cheshunt Park Farm,Park Lane Paradise,Cheshunt,Lenny's Meats,Retailers - other,4613,5,,177963,5,,51.72185100000000,PI/000044542,155,envhealth@broxbourne.gov.uk,Broxbourne,http://www.broxbourne.gov.uk,-0.05805300000000,EN7 6PY,2014-12-19,fhrs_5_en-GB,5,,FHRS,5
7265,Cuffley and Northaw Youth Centre,Cuffley Hill,Goffs Oak,,Leonard Cheshire Disability,Hospitals/Childcare/Caring Premises,5,,,516595,,,51.70806100000000,PI/000049471,155,envhealth@broxbourne.gov.uk,Broxbourne,http://www.broxbourne.gov.uk,-0.10675500000000,EN6 4EY,2014-09-24,fhrs_exempt_en-GB,Exempt,,FHRS,
7266,,,,,Leslys Delights,Mobile caterer,7846,10,,709207,10,,,PI/000054474,155,envhealth@broxbourne.gov.uk,Broxbourne,http://www.broxbourne.gov.uk,,,2014-10-23,fhrs_4_en-GB,4,,FHRS,0
7267,,,,,Lets Get Saucy,Other catering premises,7841,10,,456536,10,,,PI/000052679,155,envhealth@broxbourne.gov.uk,Broxbourne,http://www.broxbourne.gov.uk,,,2012-10-08,fhrs_4_en-GB,4,,FHRS,0
7268,2 Stockwell Lodge Medical Village,Rosedale Way,Cheshunt,Hertfordshire,Lex Pharmacy,Retailers - other,4613,,,176623,,,51.71380600000000,PI/000038132,155,envhealth@broxbourne.gov.uk,Broxbourne,http://www.broxbourne.gov.uk,-0.05605200000000,EN7 6QQ,2015-01-07,fhrs_exempt_en-GB,Exempt,,FHRS,
7269,High Street,Waltham Cross,Hertfordshire,,Lidl Supermarket,Retailers - supermarkets/hypermarkets,7840,0,,647011,0,,51.68279900000000,PI/000049858,155,envhealth@broxbourne.gov.uk,Broxbourne,http://www.broxbourne.gov.uk,-0.03383000000000,EN8 7AA,2014-03-07,fhrs_5_en-GB,5,,FHRS,0
7270,31A High Street,Hoddesdon,Hertfordshire,,Li's Takeaway,Takeaway/sandwich shop,7844,0,,177273,10,,51.75895900000000,PI/000041334,155,envhealth@broxbourne.gov.uk,Broxbourne,http://www.broxbourne.gov.uk,-0.01267100000000,EN11 8TA,2014-04-16,fhrs_4_en-GB,4,,FHRS,10
7271,Waltham Cross Youth Centre,Stanhope Road,Waltham Cross,,Little Cherubs Kids Club,Hospitals/Childcare/Caring Premises,5,0,,178464,5,,51.68801300000000,PI/000047248,155,envhealth@broxbourne.gov.uk,Broxbourne,http://www.broxbourne.gov.uk,-0.03208500000000,EN8 7DJ,2014-09-25,fhrs_5_en-GB,5,,FHRS,5
7272,The Deering Centre,Longlands Close,Cheshunt,Hertfordshire,Little Learners Pre-School,Hospitals/Childcare/Caring Premises,5,5,,178752,5,,51.69511200000000,PI/000049894,155,envhealth@broxbourne.gov.uk,Broxbourne,http://www.broxbourne.gov.uk,-0.03506200000000,EN8 8LU,2012-03-15,fhrs_5_en-GB,5,,FHRS,5
7273,187 Churchgate Road,Cheshunt,Hertfordshire,,Little Sparrows Day Nursery,Hospitals/Childcare/Caring Premises,5,0,,161921,5,,51.70820400000000,PI/000002033,155,envhealth@broxbourne.gov.uk,Broxbourne,http://www.broxbourne.gov.uk,-0.05009800000000,EN8 9EJ,2014-10-09,fhrs_5_en-GB,5,,FHRS,0
7274,,,,,Little Spoon Bakery,Other catering premises,7841,0,,661349,0,,,PI/000054037,155,envhealth@broxbourne.gov.uk,Broxbourne,http://www.broxbourne.gov.uk,,,2014-04-25,fhrs_5_en-GB,5,,FHRS,0
7275,12 The Precinct,High Road,Broxbourne,Hertfordshire,Lizera Cafe,Restaurant/Cafe/Canteen,1,0,,178694,0,,51.74757800000000,PI/000049488,155,envhealth@broxbourne.gov.uk,Broxbourne,http://www.broxbourne.gov.uk,-0.01870500000000,EN10 7HY,2014-07-21,fhrs_5_en-GB,5,,FHRS,5
7276,,,,,Lizzieâs Sweet Treats,Retailers - other,4613,5,,708236,5,,,PI/000054356,155,envhealth@broxbourne.gov.uk,Broxbourne,http://www.broxbourne.gov.uk,,,2014-10-09,fhrs_5_en-GB,5,,FHRS,0
7277,16 Fawkon Walk,Hoddesdon,Hertfordshire,,Lloyds Pharmacy,Retailers - other,4613,,,178461,,,51.75997300000000,PI/000047233,155,envhealth@broxbourne.gov.uk,Broxbourne,http://www.broxbourne.gov.uk,-0.01252500000000,EN11 8TJ,2012-11-05,fhrs_exempt_en-GB,Exempt,,FHRS,
7278,Unit 1 - 4 Ground Floor,Limes Court,Conduit Lane,Hoddesdon,Lloyds Pharmacy,Retailers - other,4613,,,178687,,,51.75939700000000,PI/000049475,155,envhealth@broxbourne.gov.uk,Broxbourne,http://www.broxbourne.gov.uk,-0.01089900000000,EN11 8EP,2012-12-21,fhrs_exempt_en-GB,Exempt,,FHRS,
7279,,,,,Lollipops Herts,Other catering premises,7841,5,,647016,0,,,PI/000053971,155,envhealth@broxbourne.gov.uk,Broxbourne,http://www.broxbourne.gov.uk,,,2014-03-27,fhrs_5_en-GB,5,,FHRS,0
7280,280 High Street,Waltham Cross,Hertfordshire,,Londis,Retailers - other,4613,10,,164534,5,,51.69128700000000,PI/000006483,155,envhealth@broxbourne.gov.uk,Broxbourne,http://www.broxbourne.gov.uk,-0.03379500000000,EN8 7EA,2013-04-29,fhrs_3_en-GB,3,,FHRS,10
7281,44 Flamstead End Road,Cheshunt,Hertfordshire,,Londis 8 til' L8,Retailers - other,4613,10,,163154,0,,51.71166100000000,PI/000004262,155,envhealth@broxbourne.gov.uk,Broxbourne,http://www.broxbourne.gov.uk,-0.04979000000000,EN8 0HT,2014-09-01,fhrs_4_en-GB,4,,FHRS,5
7282,Flamstead End School,Longfield Lane,Cheshunt,,Longfield Childrens Centre,Hospitals/Childcare/Caring Premises,5,0,,178596,0,,51.71579300000000,PI/000048697,155,envhealth@broxbourne.gov.uk,Broxbourne,http://www.broxbourne.gov.uk,-0.05714000000000,EN7 6AG,2013-10-07,fhrs_5_en-GB,5,,FHRS,0
7283,Longlands Primary School and Nursery,Nunsbury Drive,Turnford,Hertfordshire,Longlands Primary School & Nursery,School/college/university,7845,0,,177572,0,,51.72341100000000,PI/000042729,155,envhealth@broxbourne.gov.uk,Broxbourne,http://www.broxbourne.gov.uk,-0.02536500000000,EN10 6AG,2013-01-24,fhrs_5_en-GB,5,,FHRS,5
7284,24 Andrews Lane,Cheshunt,Hertfordshire,,Longs Fish Bar,Takeaway/sandwich shop,7844,,,177196,,,51.70987700000000,PI/000041132,155,envhealth@broxbourne.gov.uk,Broxbourne,http://www.broxbourne.gov.uk,-0.05231300000000,EN7 6LD,2014-01-29,fhrs_awaitinginspection_en-GB,AwaitingInspection,,FHRS,
7285,2 Masons Parade,Newgatestreet Road,Goffs Oak,Hertfordshire,Longs Takeaway,Takeaway/sandwich shop,7844,5,,167428,10,,51.71139500000000,PI/000011439,155,envhealth@broxbourne.gov.uk,Broxbourne,http://www.broxbourne.gov.uk,-0.08888400000000,EN7 5RJ,2014-01-22,fhrs_3_en-GB,3,,FHRS,10
7286,56 Leven Drive,Waltham Cross,Hertfordshire,,Lorraine Clark Childminder,Hospitals/Childcare/Caring Premises,5,5,,726913,5,,51.68775700000000,PI/000054364,155,envhealth@broxbourne.gov.uk,Broxbourne,http://www.broxbourne.gov.uk,-0.03776800000000,EN8 8BD,2014-08-07,fhrs_5_en-GB,5,,FHRS,5
7287,3 Stockbridge Close,Cheshunt,Hertfordshire,,Lush Hair and Beauty,Retailers - other,4613,,,177965,,,51.71981000000000,PI/000044545,155,envhealth@broxbourne.gov.uk,Broxbourne,http://www.broxbourne.gov.uk,-0.07227100000000,EN7 6GT,2015-01-07,fhrs_exempt_en-GB,Exempt,,FHRS,
7288,5 Bushbarns,Cheshunt,Hertfordshire,,Made with Love & Care Limited,Retailers - other,4613,,,708232,,,51.70794700000000,PI/000054277,155,envhealth@broxbourne.gov.uk,Broxbourne,http://www.broxbourne.gov.uk,-0.05848900000000,EN7 6EA,2014-07-25,fhrs_exempt_en-GB,Exempt,,FHRS,
7289,47 High Road,Wormley,Hertfordshire,,Madina Indian Take Away,Takeaway/sandwich shop,7844,5,,726916,0,,51.73364400000000,PI/000054527,155,envhealth@broxbourne.gov.uk,Broxbourne,http://www.broxbourne.gov.uk,-0.02321000000000,EN10 6HT,2014-12-15,fhrs_5_en-GB,5,,FHRS,5
7290,201-205 Turners Hill,Cheshunt,Hertfordshire,,Mahek,Restaurant/Cafe/Canteen,1,0,,491633,0,,51.70654900000000,PI/000050998,155,envhealth@broxbourne.gov.uk,Broxbourne,http://www.broxbourne.gov.uk,-0.03657800000000,EN8 9DG,2014-07-17,fhrs_5_en-GB,5,,FHRS,5
7291,116 High Street,Hoddesdon,Hertfordshire,,Maison Paul,Other catering premises,7841,10,,698611,5,,51.76080600000000,PI/000054325,155,envhealth@broxbourne.gov.uk,Broxbourne,http://www.broxbourne.gov.uk,-0.01128600000000,EN11 8HD,2014-08-06,fhrs_3_en-GB,3,,FHRS,10
7292,272 Holdbrook Court,Holdbrook South,Waltham Cross,Hertfordshire,Mama Mia Pizza,Takeaway/sandwich shop,7844,20,,178303,15,,51.68516200000000,PI/000046295,155,envhealth@broxbourne.gov.uk,Broxbourne,http://www.broxbourne.gov.uk,-0.01981100000000,EN8 7SL,2014-12-15,fhrs_1_en-GB,1,,FHRS,15
7293,43 High Road,Broxbourne,Hertfordshire,,Mango's,Restaurant/Cafe/Canteen,1,0,,173362,5,,51.74865400000000,PI/000025529,155,envhealth@broxbourne.gov.uk,Broxbourne,http://www.broxbourne.gov.uk,-0.01855600000000,EN10 7HX,2014-04-24,fhrs_4_en-GB,4,,FHRS,10
7294,101 Burford Street,Hoddesdon,Hertfordshire,,Mannamead Centre,Hospitals/Childcare/Caring Premises,5,,,578588,,,51.76442200000000,PI/000046839,155,envhealth@broxbourne.gov.uk,Broxbourne,http://www.broxbourne.gov.uk,-0.00870700000000,EN11 8HX,2012-09-24,fhrs_exempt_en-GB,Exempt,,FHRS,
7295,241 Goffs Lane,Goffs Oak,Hertfordshire,,Mannings Amusements,Mobile caterer,7846,0,,161225,5,,51.70590300000000,PI/000001196,155,envhealth@broxbourne.gov.uk,Broxbourne,http://www.broxbourne.gov.uk,-0.06377300000000,EN7 5QQ,2014-11-06,fhrs_5_en-GB,5,,FHRS,0
7296,31 High Street,Hoddesdon,Hertfordshire,,Marconato Italian Restaurant,Restaurant/Cafe/Canteen,1,0,,177254,5,,51.75895900000000,PI/000041297,155,envhealth@broxbourne.gov.uk,Broxbourne,http://www.broxbourne.gov.uk,-0.01267100000000,EN11 8TA,2014-07-21,fhrs_5_en-GB,5,,FHRS,5
7297,Marks and Spencer Plc,Brookfield Centre,Halfhide Lane,Cheshunt,Marks & Spencer Plc,Retailers - supermarkets/hypermarkets,7840,0,,178856,0,,51.71665900000000,PI/000050572,155,envhealth@broxbourne.gov.uk,Broxbourne,http://www.broxbourne.gov.uk,-0.03777600000000,EN8 0TZ,2013-07-31,fhrs_5_en-GB,5,,FHRS,0
7298,,,,,Martyn's Cupcake Kitchen,Retailers - other,4613,0,,187635,0,,,PI/000050837,155,envhealth@broxbourne.gov.uk,Broxbourne,http://www.broxbourne.gov.uk,,,2011-11-18,fhrs_5_en-GB,5,,FHRS,5
7299,39 High Road,Wormley,Hertfordshire,,Masala Takeaway,Takeaway/sandwich shop,7844,0,,547832,5,,51.73364400000000,PI/000053502,155,envhealth@broxbourne.gov.uk,Broxbourne,http://www.broxbourne.gov.uk,-0.02321000000000,EN10 6HT,2014-08-14,fhrs_5_en-GB,5,,FHRS,5
7300,Unit 11,High Street,Waltham Cross,Hertfordshire,Matma's Cakes,Retailers - other,4613,5,,499251,5,,51.68279800000000,PI/000048968,155,envhealth@broxbourne.gov.uk,Broxbourne,http://www.broxbourne.gov.uk,-0.03377200000000,EN8 7AA,2013-01-15,fhrs_5_en-GB,5,,FHRS,5
7301,Unit 1 Front Building,Brewery Yard,Brewery Road,Hoddesdon,Mayhem Function Hall,Other catering premises,7841,5,,178598,5,,51.76105400000000,PI/000048718,155,envhealth@broxbourne.gov.uk,Broxbourne,http://www.broxbourne.gov.uk,-0.00997100000000,EN11 8HF,2012-05-30,fhrs_5_en-GB,5,,FHRS,0
7302,114 High Street,Waltham Cross,Hertfordshire,,Meat Inn Butcher,Retailers - other,4613,5,,168152,5,,51.68527800000000,PI/000012631,155,envhealth@broxbourne.gov.uk,Broxbourne,http://www.broxbourne.gov.uk,-0.03256500000000,EN8 7BX,2014-03-13,fhrs_4_en-GB,4,,FHRS,10
7303,11 High Street,Cheshunt,Hertfordshire,,Mega Kebab House,Takeaway/sandwich shop,7844,0,,165177,5,,51.70857000000000,PI/000007599,155,envhealth@broxbourne.gov.uk,Broxbourne,http://www.broxbourne.gov.uk,-0.03748900000000,EN8 0BX,2014-07-14,fhrs_5_en-GB,5,,FHRS,5
7304,The Cafe Food Mobile,RD Park,Stephenson Close,Hoddesdon,Megamunch @ The CafÃ©,Other catering premises,7841,5,,664325,5,,51.75798200000000,PI/000053964,155,envhealth@broxbourne.gov.uk,Broxbourne,http://www.broxbourne.gov.uk,0.00883200000000,EN11 0BW,2014-05-16,fhrs_4_en-GB,4,,FHRS,10
7305,136 High Street,Hoddesdon,Hertfordshire,,Mieszko Limited,Retailers - other,4613,0,,178798,5,,51.76161700000000,PI/000050345,155,envhealth@broxbourne.gov.uk,Broxbourne,http://www.broxbourne.gov.uk,-0.01081600000000,EN11 8HL,2013-12-11,fhrs_5_en-GB,5,,FHRS,5
7306,63 High Street,Waltham Cross,Hertfordshire,,Milano Pizza,Takeaway/sandwich shop,7844,0,,415261,0,,51.68407800000000,PI/000050996,155,envhealth@broxbourne.gov.uk,Broxbourne,http://www.broxbourne.gov.uk,-0.03341300000000,EN8 7AE,2014-06-26,fhrs_5_en-GB,5,,FHRS,5
7307,The United Reformed Church Hall,Mill Lane,Broxbourne,Hertfordshire,Mill Lane Pre School Nursery,Hospitals/Childcare/Caring Premises,5,0,,172983,5,,51.74484000000000,PI/000024614,155,envhealth@broxbourne.gov.uk,Broxbourne,http://www.broxbourne.gov.uk,-0.01901300000000,EN10 7BQ,2013-06-10,fhrs_5_en-GB,5,,FHRS,0
7308,Millbrook Primary and Nursery School,Gews Corner,Cheshunt,Hertfordshire,Millbrook JMI School,School/college/university,7845,0,,177573,0,,51.70616600000000,PI/000042731,155,envhealth@broxbourne.gov.uk,Broxbourne,http://www.broxbourne.gov.uk,-0.03409100000000,EN8 9BX,2014-11-25,fhrs_5_en-GB,5,,FHRS,5
7309,,,,,Mollys Delightful Cupcakes,Retailers - other,4613,5,,187460,0,,,PI/000050321,155,envhealth@broxbourne.gov.uk,Broxbourne,http://www.broxbourne.gov.uk,,,2012-11-07,fhrs_5_en-GB,5,,FHRS,0
7310,Fairley House,Andrews Lane,Cheshunt,Hertfordshire,Monkey Puzzle Day Nursery,Hospitals/Childcare/Caring Premises,5,0,,178719,5,,51.71022000000000,PI/000049721,155,envhealth@broxbourne.gov.uk,Broxbourne,http://www.broxbourne.gov.uk,-0.05669800000000,EN7 6LA,2014-03-04,fhrs_4_en-GB,4,,FHRS,10
7311,Delamare Road,Cheshunt,Hertfordshire,,Monster Gymnasium,Restaurant/Cafe/Canteen,1,0,,170061,0,,51.70706000000000,PI/000016515,155,envhealth@broxbourne.gov.uk,Broxbourne,http://www.broxbourne.gov.uk,-0.02358800000000,EN8 9SU,2013-10-03,fhrs_5_en-GB,5,,FHRS,5
7312,"""",147 Turners Hill,Cheshunt,Hertfordshire,Morrisons,Retailers - other,4613,0,,709206,0,,51.70477100000000,PI/000054114,155,envhealth@broxbourne.gov.uk,Broxbourne,http://www.broxbourne.gov.uk,-0.03455700000000,EN8 9BH,2014-10-20,fhrs_5_en-GB,5,,FHRS,0
7313,Morrisons Supermarket Plc,Amwell Street,Hoddesdon,Hertfordshire,Morrisons,Retailers - other,4613,0,,619714,0,,,PI/000053652,155,envhealth@broxbourne.gov.uk,Broxbourne,http://www.broxbourne.gov.uk,,EN11 8FL,2013-11-29,fhrs_5_en-GB,5,,FHRS,0
7314,,,,,Mr. F. Martorana,Retailers - other,4613,5,,187654,0,,,PI/000031958,155,envhealth@broxbourne.gov.uk,Broxbourne,http://www.broxbourne.gov.uk,,,2011-10-02,fhrs_5_en-GB,5,,FHRS,5
7315,,,,,Mr. G. Tambuzzo,Retailers - other,4613,5,,187455,0,,,PI/000034824,155,envhealth@broxbourne.gov.uk,Broxbourne,http://www.broxbourne.gov.uk,,,2012-05-03,fhrs_5_en-GB,5,,FHRS,5
7316,21 Claremont,Goffs Oak,Hertfordshire,,Mrs Bridget Waller (Jam maker),Other catering premises,7841,,,591849,,,51.70723700000000,PI/000022522,155,envhealth@broxbourne.gov.uk,Broxbourne,http://www.broxbourne.gov.uk,-0.06559700000000,EN7 5QR,2013-10-09,fhrs_exempt_en-GB,Exempt,,FHRS,
7317,,,,,Mrs S G Welch,Hospitals/Childcare/Caring Premises,5,5,,160997,5,,,PI/000000874,155,envhealth@broxbourne.gov.uk,Broxbourne,http://www.broxbourne.gov.uk,,,2014-09-29,fhrs_5_en-GB,5,,FHRS,0
7318,61 Eastfield Road,Waltham Cross,Hertfordshire,,My Planet,Restaurant/Cafe/Canteen,1,10,,509931,5,,51.69455400000000,PI/000053487,155,envhealth@broxbourne.gov.uk,Broxbourne,http://www.broxbourne.gov.uk,-0.02641900000000,EN8 7HA,2013-01-30,fhrs_4_en-GB,4,,FHRS,5
7319,,,,,N & S Catering,Mobile caterer,7846,5,,661341,0,,,PI/000053730,155,envhealth@broxbourne.gov.uk,Broxbourne,http://www.broxbourne.gov.uk,,,2013-05-23,fhrs_5_en-GB,5,,FHRS,0
7320,,,,,N945 UOC   Ice cream van,Takeaway/sandwich shop,7844,10,,703670,10,,,PI/000054347,155,envhealth@broxbourne.gov.uk,Broxbourne,http://www.broxbourne.gov.uk,,,2014-09-19,fhrs_4_en-GB,4,,FHRS,0
7321,78 High Street,Cheshunt,Hertfordshire,,Nabila Spices,Takeaway/sandwich shop,7844,0,,166680,5,,51.71018200000000,PI/000009997,155,envhealth@broxbourne.gov.uk,Broxbourne,http://www.broxbourne.gov.uk,-0.03445200000000,EN8 0AJ,2014-08-14,fhrs_4_en-GB,4,,FHRS,10
7322,34 Chaucer Way,Hoddesdon,Hertfordshire,,Nabila Spices 2,Takeaway/sandwich shop,7844,0,,307949,10,,51.77637100000000,PI/000050903,155,envhealth@broxbourne.gov.uk,Broxbourne,http://www.broxbourne.gov.uk,-0.00802100000000,EN11 9QP,2013-09-05,fhrs_4_en-GB,4,,FHRS,10
7323,Hazlemere Marina Cafe,Hazlemere Marina,Highbridge Street,Waltham Abbey,Narrowboat Cafe,Other catering premises,7841,0,,547833,5,,51.68564900000000,PI/000053503,155,envhealth@broxbourne.gov.uk,Broxbourne,http://www.broxbourne.gov.uk,-0.01137000000000,EN9 1BA,2014-10-06,fhrs_4_en-GB,4,,FHRS,10
7324,263 High Street,Waltham Cross,Hertfordshire,,Nasza Polska (Polish Supermarket),Retailers - other,4613,5,,178698,10,,51.69169600000000,PI/000049506,155,envhealth@broxbourne.gov.uk,Broxbourne,http://www.broxbourne.gov.uk,-0.03455900000000,EN8 7AT,2013-09-06,fhrs_4_en-GB,4,,FHRS,5
7325,17 Cromwell Avenue,Cheshunt,Hertfordshire,,Neptune Fish and Shish,Takeaway/sandwich shop,7844,5,,703671,5,,51.70196900000000,PI/000054358,155,envhealth@broxbourne.gov.uk,Broxbourne,http://www.broxbourne.gov.uk,-0.05153800000000,EN7 5DJ,2014-09-05,fhrs_4_en-GB,4,,FHRS,10
7326,41 High Road,Wormley,Hertfordshire,,New Beijing Takeaway,Takeaway/sandwich shop,7844,5,,178745,5,,51.73364400000000,PI/000049831,155,envhealth@broxbourne.gov.uk,Broxbourne,http://www.broxbourne.gov.uk,-0.02321000000000,EN10 6HT,2014-09-24,fhrs_4_en-GB,4,,FHRS,10
7327,99 Rye Road,Hoddesdon,Hertfordshire,,New Ding Wah,Takeaway/sandwich shop,7844,20,,178879,10,,51.76700100000000,PI/000050662,155,envhealth@broxbourne.gov.uk,Broxbourne,http://www.broxbourne.gov.uk,-0.00275300000000,EN11 0JL,2014-07-23,fhrs_1_en-GB,1,,FHRS,10
7328,84 High Street,Cheshunt,Hertfordshire,,New Golden World,Takeaway/sandwich shop,7844,0,,166706,5,,51.71018200000000,PI/000010024,155,envhealth@broxbourne.gov.uk,Broxbourne,http://www.broxbourne.gov.uk,-0.03445200000000,EN8 0AJ,2014-05-30,fhrs_4_en-GB,4,,FHRS,10
7329,194 Windmill Lane,Cheshunt,Hertfordshire,,New Happy House,Takeaway/sandwich shop,7844,5,,170085,10,,51.70284700000000,PI/000016567,155,envhealth@broxbourne.gov.uk,Broxbourne,http://www.broxbourne.gov.uk,-0.02545000000000,EN8 9AF,2014-08-14,fhrs_4_en-GB,4,,FHRS,5
7330,17-18 The Pavilion,High Street,Waltham Cross,Hertfordshire,New Look,Retailers - other,4613,,,176858,,,51.68651300000000,PI/000039349,155,envhealth@broxbourne.gov.uk,Broxbourne,http://www.broxbourne.gov.uk,-0.03220800000000,EN8 7BY,2013-12-11,fhrs_exempt_en-GB,Exempt,,FHRS,
7331,8 Fawkon Walk,Hoddesdon,Hertfordshire,,New Look,Retailers - other,4613,,,174818,,,51.76022000000000,PI/000030193,155,envhealth@broxbourne.gov.uk,Broxbourne,http://www.broxbourne.gov.uk,-0.01279000000000,EN11 8TJ,2012-01-16,fhrs_exempt_en-GB,Exempt,,FHRS,
7332,Unit 2,Brookfield Retail Park,Halfhide Lane,Cheshunt,New Look,Retailers - other,4613,,,177589,,,51.71916500000000,PI/000042756,155,envhealth@broxbourne.gov.uk,Broxbourne,http://www.broxbourne.gov.uk,-0.03871000000000,EN8 0QE,2013-12-16,fhrs_exempt_en-GB,Exempt,,FHRS,
7333,35 Rye Road,Hoddesdon,Hertfordshire,,New Wing's Garden,Takeaway/sandwich shop,7844,5,,176209,5,,51.76744100000000,PI/000035866,155,envhealth@broxbourne.gov.uk,Broxbourne,http://www.broxbourne.gov.uk,0.00048400000000,EN11 0JE,2015-01-15,fhrs_4_en-GB,4,,FHRS,10
7334,Cadmore Lane,Cheshunt,Hertfordshire,,Newgrange Residential Home,Hospitals/Childcare/Caring Premises,5,5,,176951,5,,51.70889600000000,PI/000040007,155,envhealth@broxbourne.gov.uk,Broxbourne,http://www.broxbourne.gov.uk,-0.03067200000000,EN8 9JX,2014-07-01,fhrs_5_en-GB,5,,FHRS,5
7335,Unit 5,Brookfield Retail Park,Halfhide Lane,Cheshunt,Next,Retailers - other,4613,,,177590,,,51.71916500000000,PI/000042758,155,envhealth@broxbourne.gov.uk,Broxbourne,http://www.broxbourne.gov.uk,-0.03871000000000,EN8 0QE,2014-11-24,fhrs_exempt_en-GB,Exempt,,FHRS,
7336,Broxbourne Railway Station,Station Road,Broxbourne,,Nibbles,Retailers - other,4613,10,,178381,5,,51.74708900000000,PI/000046667,155,envhealth@broxbourne.gov.uk,Broxbourne,http://www.broxbourne.gov.uk,-0.01107700000000,EN10 7AW,2013-07-24,fhrs_4_en-GB,4,,FHRS,5
7337,26 The Pavilion,High Street,Waltham Cross,Hertfordshire,Niti Pharmacy,Retailers - other,4613,,,169047,,,51.68651300000000,PI/000014362,155,envhealth@broxbourne.gov.uk,Broxbourne,http://www.broxbourne.gov.uk,-0.03220800000000,EN8 7BY,2012-03-14,fhrs_exempt_en-GB,Exempt,,FHRS,
7338,11 The Clock House,Brewery Road,Hoddesdon,Hertfordshire,Nonna's Kitchen,Other catering premises,7841,5,,578592,10,,,PI/000053610,155,envhealth@broxbourne.gov.uk,Broxbourne,http://www.broxbourne.gov.uk,,EN11 8LA,2013-08-07,fhrs_4_en-GB,4,,FHRS,0
7339,The White Bear,95 High Road,Broxbourne,Hertfordshire,Nosh Eel & Pie House,Restaurant/Cafe/Canteen,1,10,,661351,5,,51.74580600000000,PI/000054111,155,envhealth@broxbourne.gov.uk,Broxbourne,http://www.broxbourne.gov.uk,-0.01869500000000,EN10 7BN,2014-04-16,fhrs_3_en-GB,3,,FHRS,10
7340,32 Chaucer Way,Hoddesdon,Hertfordshire,,Ocean Palace,Takeaway/sandwich shop,7844,0,,176000,5,,51.77637100000000,PI/000034976,155,envhealth@broxbourne.gov.uk,Broxbourne,http://www.broxbourne.gov.uk,-0.00802100000000,EN11 9QP,2014-05-29,fhrs_5_en-GB,5,,FHRS,5
7341,The Laura Trott Leisure Centre,Windmill Lane,Cheshunt,Hertfordshire,OJs Cafe,Restaurant/Cafe/Canteen,1,0,,661342,0,,51.70305500000000,PI/000053906,155,envhealth@broxbourne.gov.uk,Broxbourne,http://www.broxbourne.gov.uk,-0.02340000000000,EN8 9AJ,2014-04-29,fhrs_5_en-GB,5,,FHRS,0
7342,25 College Road,Cheshunt,Hertfordshire,,Old Pond Cafe & Restaurant,Restaurant/Cafe/Canteen,1,5,,165827,10,,51.70219500000000,PI/000008558,155,envhealth@broxbourne.gov.uk,Broxbourne,http://www.broxbourne.gov.uk,-0.03644800000000,EN8 9LS,2014-01-21,fhrs_4_en-GB,4,,FHRS,5
7343,24 The Pavilion,High Street,Waltham Cross,Hertfordshire,Oliver,Retailers - other,4613,5,,499252,5,,51.68651300000000,PI/000053396,155,envhealth@broxbourne.gov.uk,Broxbourne,http://www.broxbourne.gov.uk,-0.03220800000000,EN8 7BY,2013-01-16,fhrs_5_en-GB,5,,FHRS,5
7344,15 Cromwell Avenue,Cheshunt,Hertfordshire,,Olivers,Restaurant/Cafe/Canteen,1,5,,688143,10,,51.70196900000000,PI/000054275,155,envhealth@broxbourne.gov.uk,Broxbourne,http://www.broxbourne.gov.uk,-0.05153800000000,EN7 5DJ,2014-07-01,fhrs_3_en-GB,3,,FHRS,10
7345,257 High Street,Waltham Cross,Hertfordshire,,Olympic Cafe (Ali Cafe Ltd),Restaurant/Cafe/Canteen,1,5,,178302,5,,51.69122500000000,PI/000046285,155,envhealth@broxbourne.gov.uk,Broxbourne,http://www.broxbourne.gov.uk,-0.03437700000000,EN8 7BE,2014-07-14,fhrs_5_en-GB,5,,FHRS,5
7346,16 Newnham Parade,Cheshunt,Hertfordshire,,One Stop,Retailers - other,4613,0,,166449,0,,51.70242900000000,PI/000009599,155,envhealth@broxbourne.gov.uk,Broxbourne,http://www.broxbourne.gov.uk,-0.03539600000000,EN8 9NU,2012-05-11,fhrs_5_en-GB,5,,FHRS,0
7347,66-70 High Street,Cheshunt,Hertfordshire,,One Stop Newsagent,Retailers - other,4613,10,,167831,5,,51.70973900000000,PI/000012164,155,envhealth@broxbourne.gov.uk,Broxbourne,http://www.broxbourne.gov.uk,-0.03538300000000,EN8 0AH,2014-01-08,fhrs_3_en-GB,3,,FHRS,10
7348,15 High Street,Waltham Cross,Hertfordshire,,Oriental Chef,Takeaway/sandwich shop,7844,10,,168113,15,,51.68279800000000,PI/000012586,155,envhealth@broxbourne.gov.uk,Broxbourne,http://www.broxbourne.gov.uk,-0.03377200000000,EN8 7AA,2014-11-12,fhrs_2_en-GB,2,,FHRS,5
7349,1 Lynton Parade Turners Hill,Cheshunt,Hertfordshire,,Oriental Wok,Takeaway/sandwich shop,7844,5,,165527,5,,51.70106500000000,PI/000008149,155,envhealth@broxbourne.gov.uk,Broxbourne,http://www.broxbourne.gov.uk,-0.03399400000000,EN8 8LF,2014-08-14,fhrs_5_en-GB,5,,FHRS,5
7350,99 Turners Hill,Cheshunt,Hertfordshire,,O'Shea Irish Bar,Pub/bar/nightclub,7843,10,,188288,5,,51.70292400000000,PI/000008279,155,envhealth@broxbourne.gov.uk,Broxbourne,http://www.broxbourne.gov.uk,-0.03491200000000,EN8 9BD,2014-03-24,fhrs_4_en-GB,4,,FHRS,5
7351,Church of Our Lady of the Immaculate Conception and St Josep,204 High Street,Waltham Cross,Hertfordshire,Our Lady and St Joseph Church,Other catering premises,7841,,,178465,,,51.68915900000000,PI/000047274,155,envhealth@broxbourne.gov.uk,Broxbourne,http://www.broxbourne.gov.uk,-0.03286000000000,EN8 7DP,2013-01-07,fhrs_exempt_en-GB,Exempt,,FHRS,
7352,21 Whittingstall Road,Hoddesdon,Hertfordshire,,Outside Indian,Other catering premises,7841,0,,661344,0,,51.76810600000000,PI/000053933,155,envhealth@broxbourne.gov.uk,Broxbourne,http://www.broxbourne.gov.uk,-0.00163100000000,EN11 0LJ,2014-02-27,fhrs_5_en-GB,5,,FHRS,5
7353,83 High Street,Hoddesdon,Hertfordshire,,Oxfam,Retailers - other,4613,,,177260,,,51.76057900000000,PI/000041304,155,envhealth@broxbourne.gov.uk,Broxbourne,http://www.broxbourne.gov.uk,-0.01222300000000,EN11 8TL,2012-11-09,fhrs_exempt_en-GB,Exempt,,FHRS,
7354,,,,,Paleo Now UK,Other catering premises,7841,5,,698607,5,,,PI/000054278,155,envhealth@broxbourne.gov.uk,Broxbourne,http://www.broxbourne.gov.uk,,,2014-08-21,fhrs_5_en-GB,5,,FHRS,5
7355,49 High Road,Broxbourne,Hertfordshire,,Papa Johns Pizza,Takeaway/sandwich shop,7844,0,,429001,5,,51.74865400000000,PI/000051200,155,envhealth@broxbourne.gov.uk,Broxbourne,http://www.broxbourne.gov.uk,-0.01855600000000,EN10 7HX,2014-01-15,fhrs_5_en-GB,5,,FHRS,5
7356,,,,,Papa Palms/Finn & Dempseyâs Catering,Takeaway/sandwich shop,7844,0,,429000,5,,,PI/000050992,155,envhealth@broxbourne.gov.uk,Broxbourne,http://www.broxbourne.gov.uk,,,2014-01-20,fhrs_5_en-GB,5,,FHRS,5
7357,135 Crossbrook Street,Cheshunt,Hertfordshire,,Papadom Town Pizzas,Takeaway/sandwich shop,7844,5,,432833,10,,51.69660200000000,PI/000050929,155,envhealth@broxbourne.gov.uk,Broxbourne,http://www.broxbourne.gov.uk,-0.03489600000000,EN8 8LY,2014-02-14,fhrs_3_en-GB,3,,FHRS,10
7358,7 The Precinct,High Road,Broxbourne,Hertfordshire,Parade Celebrations,Retailers - other,4613,,,448592,,,51.74757800000000,PI/000042875,155,envhealth@broxbourne.gov.uk,Broxbourne,http://www.broxbourne.gov.uk,-0.01870500000000,EN10 7HY,2012-09-11,fhrs_exempt_en-GB,Exempt,,FHRS,
7359,Pavilion Cafe,Broxbourne Recreation Ground,Station Road,Broxbourne,Park Cafe,Restaurant/Cafe/Canteen,1,10,,698609,5,,,PI/000054323,155,envhealth@broxbourne.gov.uk,Broxbourne,http://www.broxbourne.gov.uk,,,2014-08-12,fhrs_4_en-GB,4,,FHRS,5
7360,Magnum 25,Lea Road,Waltham Abbey,Hertfordshire,Pavilion Bistro Ltd,Other catering premises,7841,0,,708237,5,,51.68293900000000,PI/000054366,155,envhealth@broxbourne.gov.uk,Broxbourne,http://www.broxbourne.gov.uk,-0.01277600000000,EN9 1AS,2014-09-26,fhrs_5_en-GB,5,,FHRS,0
7361,The Pavilion,High Street,Waltham Cross,,Pavilion Plaza Cafe,Restaurant/Cafe/Canteen,1,5,,216317,5,,51.68651300000000,PI/000048902,155,envhealth@broxbourne.gov.uk,Broxbourne,http://www.broxbourne.gov.uk,-0.03220800000000,EN8 7BZ,2013-12-12,fhrs_5_en-GB,5,,FHRS,5
7362,1-3 Maxwells West,Great Cambridge Road,Cheshunt,Hertfordshire,Pensworth,Retailers - other,4613,,,178644,,,51.69771100000000,PI/000049160,155,envhealth@broxbourne.gov.uk,Broxbourne,http://www.broxbourne.gov.uk,-0.04581700000000,EN8 8XH,2014-02-14,fhrs_exempt_en-GB,Exempt,,FHRS,
7363,88 The Pavilion,High Street,Waltham Cross,Hertfordshire,Percy Ingle Bakery,Retailers - other,4613,0,,168084,5,,51.68651300000000,PI/000012545,155,envhealth@broxbourne.gov.uk,Broxbourne,http://www.broxbourne.gov.uk,-0.03220800000000,EN8 7BZ,2014-02-12,fhrs_5_en-GB,5,,FHRS,5
7364,108 Turners Hill,Cheshunt,Hertfordshire,,Pie and Mash Shop,Restaurant/Cafe/Canteen,1,10,,703666,10,,51.70308400000000,PI/000054328,155,envhealth@broxbourne.gov.uk,Broxbourne,http://www.broxbourne.gov.uk,-0.03423900000000,EN8 9BN,2014-09-24,fhrs_3_en-GB,3,,FHRS,10
7365,,,,,Piece of Cake,Retailers - other,4613,5,,187771,5,,,PI/000050343,155,envhealth@broxbourne.gov.uk,Broxbourne,http://www.broxbourne.gov.uk,,,2013-02-25,fhrs_5_en-GB,5,,FHRS,0
7366,40 Ware Road,Hoddesdon,Hertfordshire,,Piero's Deli,Retailers - other,4613,5,,178316,5,,51.76702300000000,PI/000046342,155,envhealth@broxbourne.gov.uk,Broxbourne,http://www.broxbourne.gov.uk,-0.01201300000000,EN11 9DU,2013-09-05,fhrs_4_en-GB,4,,FHRS,10
7367,7A High Street,Cheshunt,Hertfordshire,,Pizza go-Go,Restaurant/Cafe/Canteen,1,5,,176594,5,,51.70857000000000,PI/000037990,155,envhealth@broxbourne.gov.uk,Broxbourne,http://www.broxbourne.gov.uk,-0.03748900000000,EN8 0BX,2014-07-31,fhrs_5_en-GB,5,,FHRS,5
7368,29 High Street,Hoddesdon,Hertfordshire,,Pizza Hut (UK) Ltd,Takeaway/sandwich shop,7844,10,,177287,10,,51.75895900000000,PI/000041416,155,envhealth@broxbourne.gov.uk,Broxbourne,http://www.broxbourne.gov.uk,-0.01267100000000,EN11 8TA,2013-11-25,fhrs_3_en-GB,3,,FHRS,10
7369,15 Newnham Parade,Cheshunt,Hertfordshire,,Pizza Hut Delivery (UK) Ltd,Takeaway/sandwich shop,7844,0,,166620,10,,51.70242900000000,PI/000009894,155,envhealth@broxbourne.gov.uk,Broxbourne,http://www.broxbourne.gov.uk,-0.03539600000000,EN8 9NU,2014-06-30,fhrs_4_en-GB,4,,FHRS,10
7370,62 High Street,Waltham Cross,Hertfordshire,,Popeye Pizza,Takeaway/sandwich shop,7844,5,,178737,5,,51.68413500000000,PI/000049801,155,envhealth@broxbourne.gov.uk,Broxbourne,http://www.broxbourne.gov.uk,-0.03251400000000,EN8 7BU,2014-01-08,fhrs_5_en-GB,5,,FHRS,5
7371,4 Masons Parade,Newgatestreet Road,Goffs Oak,Hertfordshire,Popeye's Fish Bar,Takeaway/sandwich shop,7844,0,,167431,5,,51.71139500000000,PI/000011443,155,envhealth@broxbourne.gov.uk,Broxbourne,http://www.broxbourne.gov.uk,-0.08888400000000,EN7 5RJ,2014-10-09,fhrs_5_en-GB,5,,FHRS,5
7372,Stanstead Road Post Office,38 Stanstead Road,Hoddesdon,Hertfordshire,Post Office Counters Ltd,Retailers - other,4613,,,175141,,,51.76702700000000,PI/000031260,155,envhealth@broxbourne.gov.uk,Broxbourne,http://www.broxbourne.gov.uk,-0.00852000000000,EN11 0RH,2014-03-24,fhrs_exempt_en-GB,Exempt,,FHRS,
7373,251 High Road,Broxbourne,Hertfordshire,,Post Office T/A Londis,Retailers - other,4613,10,,172546,10,,51.73638000000000,PI/000023406,155,envhealth@broxbourne.gov.uk,Broxbourne,http://www.broxbourne.gov.uk,-0.02230800000000,EN10 6PZ,2013-09-20,fhrs_3_en-GB,3,,FHRS,10
7374,118 High Street,Waltham Cross,Hertfordshire,,POUNDLAND,Retailers - other,4613,10,,169085,5,,51.68527800000000,PI/000014402,155,envhealth@broxbourne.gov.uk,Broxbourne,http://www.broxbourne.gov.uk,-0.03256500000000,EN8 7BX,2013-12-06,fhrs_4_en-GB,4,,FHRS,5
7375,The Forum Store,Paul Close,Cheshunt,Hertfordshire,Premier Foods,Retailers - other,4613,5,,178739,10,,51.72471400000000,PI/000049809,155,envhealth@broxbourne.gov.uk,Broxbourne,http://www.broxbourne.gov.uk,-0.09006000000000,EN7 6DX,2014-03-10,fhrs_4_en-GB,4,,FHRS,5
7376,236 Churchgate Road,Cheshunt,Hertfordshire,,Prima Cafe,Restaurant/Cafe/Canteen,1,10,,216316,5,,51.70891900000000,PI/000002067,155,envhealth@broxbourne.gov.uk,Broxbourne,http://www.broxbourne.gov.uk,-0.04928500000000,EN8 9EQ,2013-08-09,fhrs_4_en-GB,4,,FHRS,5
7377,Prince Of Wales,Burton Lane,Goffs Oak,Hertfordshire,Prince Of Wales Public House,Pub/bar/nightclub,7843,0,,175608,10,,51.71224600000000,PI/000033198,155,envhealth@broxbourne.gov.uk,Broxbourne,http://www.broxbourne.gov.uk,-0.07547300000000,EN7 6SL,2014-07-29,fhrs_4_en-GB,4,,FHRS,10
7378,St Lawrence Church Hall,Church Lane,Wormley,,Puddle Ducks Pre-School,Hospitals/Childcare/Caring Premises,5,0,,178420,0,,51.73295100000000,PI/000046986,155,envhealth@broxbourne.gov.uk,Broxbourne,http://www.broxbourne.gov.uk,-0.02639700000000,EN10 6LB,2013-01-23,fhrs_5_en-GB,5,,FHRS,0
7379,49 High Street,Cheshunt,Hertfordshire,,Punni Chemist,Retailers - other,4613,,,166670,,,51.70942700000000,PI/000009990,155,envhealth@broxbourne.gov.uk,Broxbourne,http://www.broxbourne.gov.uk,-0.03662700000000,EN8 0BS,2012-03-21,fhrs_exempt_en-GB,Exempt,,FHRS,
7380,72 Hurst Drive,Waltham Cross,Hertfordshire,,Pyszne Prysmaki Agaty Cakes,Other catering premises,7841,10,,547830,5,,51.68531700000000,PI/000053468,155,envhealth@broxbourne.gov.uk,Broxbourne,http://www.broxbourne.gov.uk,-0.03868300000000,EN8 8DQ,2013-03-12,fhrs_4_en-GB,4,,FHRS,5
7381,Mobile Burger Van,Brookfield Retail Park,Halfhide Lane,Cheshunt,Quality Catering,Mobile caterer,7846,10,,688141,10,,51.71916500000000,PI/000046807,155,envhealth@broxbourne.gov.uk,Broxbourne,http://www.broxbourne.gov.uk,-0.03871000000000,EN8 0QE,2014-07-11,fhrs_3_en-GB,3,,FHRS,5
7382,Fourfields,Rosedale Way,Cheshunt,Hertfordshire,Quantum Care - Fourfields,Hospitals/Childcare/Caring Premises,5,0,,162805,0,,51.71398000000000,PI/000003680,155,envhealth@broxbourne.gov.uk,Broxbourne,http://www.broxbourne.gov.uk,-0.06002600000000,EN7 6HR,2015-01-16,fhrs_5_en-GB,5,,FHRS,5
7383,Belmont View,Hailey Lane,Hoddesdon,Hertfordshire,Quantum Care Ltd - Belmont,Hospitals/Childcare/Caring Premises,5,5,,176006,5,,51.77937700000000,PI/000034993,155,envhealth@broxbourne.gov.uk,Broxbourne,http://www.broxbourne.gov.uk,-0.01774700000000,SG13 7NY,2014-12-16,fhrs_5_en-GB,5,,FHRS,0
7384,Rosedale Private Nursery,Andrews Lane,Goffs Oak,Hertfordshire,Rafles,Hospitals/Childcare/Caring Premises,5,0,,178069,5,,51.70993900000000,PI/000044993,155,envhealth@broxbourne.gov.uk,Broxbourne,http://www.broxbourne.gov.uk,-0.06529400000000,EN7 6TB,2014-10-20,fhrs_5_en-GB,5,,FHRS,5
7385,Brookland Infant and Nursery School,Elm Drive,Cheshunt,,Rainbow Pre-School,Hospitals/Childcare/Caring Premises,5,0,,178232,0,,51.70986400000000,PI/000045940,155,envhealth@broxbourne.gov.uk,Broxbourne,http://www.broxbourne.gov.uk,-0.02889300000000,EN8 0RX,2014-07-03,fhrs_5_en-GB,5,,FHRS,5
7386,38 Ware Road,Hoddesdon,Hertfordshire,,Raj Mahal,Takeaway/sandwich shop,7844,0,,175479,5,,51.76702300000000,PI/000032550,155,envhealth@broxbourne.gov.uk,Broxbourne,http://www.broxbourne.gov.uk,-0.01201300000000,EN11 9DU,2014-08-13,fhrs_5_en-GB,5,,FHRS,5
7387,48 High Street,Cheshunt,Hertfordshire,,Raj Vogue Tandoori,Restaurant/Cafe/Canteen,1,0,,166700,5,,51.70949700000000,PI/000010014,155,envhealth@broxbourne.gov.uk,Broxbourne,http://www.broxbourne.gov.uk,-0.03592900000000,EN8 0AQ,2014-03-18,fhrs_5_en-GB,5,,FHRS,5
7388,269A Bridge Court,High Street,Waltham Cross,Hertfordshire,Rat Pack Pool Club,Pub/bar/nightclub,7843,5,,178754,5,,51.69169600000000,PI/000049903,155,envhealth@broxbourne.gov.uk,Broxbourne,http://www.broxbourne.gov.uk,-0.03455900000000,EN8 7AT,2013-12-17,fhrs_5_en-GB,5,,FHRS,5
7389,,,,,"Rebecca's Cakes, Vanilla Kitchen",Retailers - other,4613,0,,187632,0,,,PI/000049783,155,envhealth@broxbourne.gov.uk,Broxbourne,http://www.broxbourne.gov.uk,,,2014-06-26,fhrs_5_en-GB,5,,FHRS,5
7390,11 Burford Street,Hoddesdon,Hertfordshire,,Reksio Limited,Retailers - other,4613,5,,607363,5,,51.76212400000000,PI/000053784,155,envhealth@broxbourne.gov.uk,Broxbourne,http://www.broxbourne.gov.uk,-0.01048900000000,EN11 8HP,2013-10-25,fhrs_5_en-GB,5,,FHRS,5
7391,15 Rose Vale,Hoddesdon,Hertfordshire,,Residential Care Home Life Opportuni,Hospitals/Childcare/Caring Premises,5,0,,174422,0,,51.76056500000000,PI/000029064,155,envhealth@broxbourne.gov.uk,Broxbourne,http://www.broxbourne.gov.uk,-0.01561500000000,EN11 8NR,2013-03-05,fhrs_5_en-GB,5,,FHRS,5
7392,HCC Adult Care,Isabel Court,Hoddesdon,Hertfordshire,Respite Care Unit,Hospitals/Childcare/Caring Premises,5,,,178689,,,51.76938200000000,PI/000049477,155,envhealth@broxbourne.gov.uk,Broxbourne,http://www.broxbourne.gov.uk,-0.00264700000000,EN11 0LQ,2014-07-31,fhrs_exempt_en-GB,Exempt,,FHRS,
7393,Deercote Court,Glen Luce,Cheshunt,Hertfordshire,Retirement Complex,Hospitals/Childcare/Caring Premises,5,,,177331,,,51.70021200000000,PI/000041637,155,envhealth@broxbourne.gov.uk,Broxbourne,http://www.broxbourne.gov.uk,-0.03568000000000,EN8 8NW,2013-11-25,fhrs_exempt_en-GB,Exempt,,FHRS,
7394,58 Turners Hill,Cheshunt,Hertfordshire,,Ripley Butchers,Retailers - other,4613,0,,165310,5,,51.70187500000000,PI/000007814,155,envhealth@broxbourne.gov.uk,Broxbourne,http://www.broxbourne.gov.uk,-0.03398700000000,EN8 8LQ,2013-08-08,fhrs_5_en-GB,5,,FHRS,5
7395,99 High Street,Hoddesdon,Hertfordshire,,Ripley Butchers,Retailers - other,4613,20,,177267,10,,51.76155600000000,PI/000041319,155,envhealth@broxbourne.gov.uk,Broxbourne,http://www.broxbourne.gov.uk,-0.01203600000000,EN11 8TN,2014-07-23,fhrs_1_en-GB,1,,FHRS,15
7396,Unit 1 - 9,Lea Road Industrial Park,Lea Road,Waltham Abbey,Robert Lee,Restaurant/Cafe/Canteen,1,10,,178011,10,,51.68293900000000,PI/000044766,155,envhealth@broxbourne.gov.uk,Broxbourne,http://www.broxbourne.gov.uk,-0.01277600000000,EN9 1AS,2014-09-01,fhrs_3_en-GB,3,,FHRS,5
7397,36 Chaucer Way,Hoddesdon,Hertfordshire,,Robinson Butchers,Retailers - other,4613,5,,176001,5,,51.77637100000000,PI/000034978,155,envhealth@broxbourne.gov.uk,Broxbourne,http://www.broxbourne.gov.uk,-0.00802100000000,EN11 9QP,2013-11-21,fhrs_5_en-GB,5,,FHRS,5
7398,189 Windmill Lane,Cheshunt,Hertfordshire,,Rose Cafe,Restaurant/Cafe/Canteen,1,10,,415258,5,,51.70333500000000,PI/000050980,155,envhealth@broxbourne.gov.uk,Broxbourne,http://www.broxbourne.gov.uk,-0.02506700000000,EN8 9AW,2013-12-16,fhrs_4_en-GB,4,,FHRS,5
7399,373 Ware Road,Hoddesdon,Hertfordshire,,Rose Mae Convenience Store,Retailers - other,4613,10,,585857,5,,51.77981000000000,PI/000053717,155,envhealth@broxbourne.gov.uk,Broxbourne,http://www.broxbourne.gov.uk,-0.01413300000000,SG13 7PE,2013-09-12,fhrs_4_en-GB,4,,FHRS,0
7400,Rosedale Sports Club,Andrews Lane,Goffs Oak,Hertfordshire,Rosedale Bowls Club,Other catering premises,7841,5,,178697,0,,51.70993900000000,PI/000049505,155,envhealth@broxbourne.gov.uk,Broxbourne,http://www.broxbourne.gov.uk,-0.06529400000000,EN7 6TB,2013-08-22,fhrs_5_en-GB,5,,FHRS,0
7401,Andrews Lane,Goffs Oak,Hertfordshire,,Rosedale Sports Club,Pub/bar/nightclub,7843,0,,177200,5,,51.70993900000000,PI/000041144,155,envhealth@broxbourne.gov.uk,Broxbourne,http://www.broxbourne.gov.uk,-0.06529400000000,EN7 6TB,2013-08-09,fhrs_4_en-GB,4,,FHRS,10
7402,High Wood Road,Hoddesdon,Hertfordshire,,Roselands Primary School,School/college/university,7845,0,,177574,0,,51.77373300000000,PI/000042732,155,envhealth@broxbourne.gov.uk,Broxbourne,http://www.broxbourne.gov.uk,-0.01954500000000,EN11 9AR,2014-07-02,fhrs_5_en-GB,5,,FHRS,5
7403,83 Roundmoor Drive,Cheshunt,Hertfordshire,,Roundmoor Stores,Retailers - other,4613,5,,170558,5,,51.70655600000000,PI/000017912,155,envhealth@broxbourne.gov.uk,Broxbourne,http://www.broxbourne.gov.uk,-0.03002100000000,EN8 9HW,2013-05-20,fhrs_4_en-GB,4,,FHRS,10
7404,58 High Road,Broxbourne,Hertfordshire,,Royal Bengal Restaurant,Restaurant/Cafe/Canteen,1,10,,173365,5,,51.74702000000000,PI/000025532,155,envhealth@broxbourne.gov.uk,Broxbourne,http://www.broxbourne.gov.uk,-0.01977200000000,EN10 7NF,2014-04-24,fhrs_4_en-GB,4,,FHRS,5
7405,56 High Road,Broxbourne,Hertfordshire,,Royal China,Restaurant/Cafe/Canteen,1,0,,178901,10,,51.74702000000000,PI/000050701,155,envhealth@broxbourne.gov.uk,Broxbourne,http://www.broxbourne.gov.uk,-0.01977200000000,EN10 7NF,2013-06-13,fhrs_4_en-GB,4,,FHRS,10
7406,36 High Street,Cheshunt,Hertfordshire,,Royal Emperor Restaurant,Restaurant/Cafe/Canteen,1,10,,166703,10,,51.70949700000000,PI/000010019,155,envhealth@broxbourne.gov.uk,Broxbourne,http://www.broxbourne.gov.uk,-0.03592900000000,EN8 0AQ,2014-08-12,fhrs_3_en-GB,3,,FHRS,10
7407,,,,,Royal Express Limited,Takeaway/sandwich shop,7844,5,,612721,10,,,PI/000053832,155,envhealth@broxbourne.gov.uk,Broxbourne,http://www.broxbourne.gov.uk,,,2013-11-18,fhrs_3_en-GB,3,,FHRS,10
7408,3 Burford Street,Hoddesdon,Hertfordshire,,Royal India Takeaway,Takeaway/sandwich shop,7844,0,,174478,5,,51.76212400000000,PI/000029177,155,envhealth@broxbourne.gov.uk,Broxbourne,http://www.broxbourne.gov.uk,-0.01048900000000,EN11 8HP,2014-01-30,fhrs_5_en-GB,5,,FHRS,5
7409,Royal Mail Delivery Office,Conduit Lane,Hoddesdon,Hertfordshire,Royal Mail,Restaurant/Cafe/Canteen,1,0,,174438,0,,51.75939700000000,PI/000029090,155,envhealth@broxbourne.gov.uk,Broxbourne,http://www.broxbourne.gov.uk,-0.01089900000000,EN11 8EP,2012-01-18,fhrs_5_en-GB,5,,FHRS,0
7410,Royal Mail Sorting Office,18 Eleanor Cross Road,Waltham Cross,Hertfordshire,Royal Mail,Restaurant/Cafe/Canteen,1,0,,178730,0,,51.68568700000000,PI/000049796,155,envhealth@broxbourne.gov.uk,Broxbourne,http://www.broxbourne.gov.uk,-0.03123100000000,EN8 7LA,2015-01-08,fhrs_5_en-GB,5,,FHRS,5
7411,Rye Park and Hoddesdon United Services Club,Rye Road,Hoddesdon,Hertfordshire,Rye Park & Hoddesdon United Services,Pub/bar/nightclub,7843,0,,175085,0,,51.76713300000000,PI/000031046,155,envhealth@broxbourne.gov.uk,Broxbourne,http://www.broxbourne.gov.uk,-0.00626900000000,EN11 0JR,2013-06-03,fhrs_5_en-GB,5,,FHRS,0
7412,95 Rye Road,Hoddesdon,Hertfordshire,,Rye Park CafÃ© and Kebab House,Restaurant/Cafe/Canteen,1,0,,175134,5,,51.76700100000000,PI/000031228,155,envhealth@broxbourne.gov.uk,Broxbourne,http://www.broxbourne.gov.uk,-0.00275300000000,EN11 0JL,2014-07-21,fhrs_5_en-GB,5,,FHRS,5
7413,Rye Road,Hoddesdon,Hertfordshire,,Rye Park Conservative Club,Pub/bar/nightclub,7843,0,,176047,0,,51.76799600000000,PI/000035158,155,envhealth@broxbourne.gov.uk,Broxbourne,http://www.broxbourne.gov.uk,0.00217600000000,EN11 0JD,2013-12-17,fhrs_5_en-GB,5,,FHRS,0
7414,33 Rye Road,Hoddesdon,Hertfordshire,,Rye Park Market & Off License,Retailers - other,4613,10,,178722,10,,51.76744100000000,PI/000049737,155,envhealth@broxbourne.gov.uk,Broxbourne,http://www.broxbourne.gov.uk,0.00048400000000,EN11 0JE,2013-08-23,fhrs_3_en-GB,3,,FHRS,10
7415,Walton Road,Hoddesdon,Hertfordshire,,Rye Park Nursery School,School/college/university,7845,0,,177576,0,,51.76930000000000,PI/000042733,155,envhealth@broxbourne.gov.uk,Broxbourne,http://www.broxbourne.gov.uk,-0.00099900000000,EN11 0LN,2014-02-20,fhrs_5_en-GB,5,,FHRS,0
7416,65A High Street,Waltham Cross,Hertfordshire,,S & B Trading,Other catering premises,7841,10,,682533,5,,51.68407800000000,PI/000054274,155,envhealth@broxbourne.gov.uk,Broxbourne,http://www.broxbourne.gov.uk,-0.03341300000000,EN8 7AE,2014-07-04,fhrs_4_en-GB,4,,FHRS,5
7417,6 Clayton Parade,Turners Hill,Cheshunt,Hertfordshire,Safedale Pharmacy,Retailers - other,4613,,,165569,,,51.70111600000000,PI/000008184,155,envhealth@broxbourne.gov.uk,Broxbourne,http://www.broxbourne.gov.uk,-0.03487400000000,EN8 8NQ,2012-12-24,fhrs_exempt_en-GB,Exempt,,FHRS,
7418,25 High Street,Hoddesdon,Hertfordshire,,Saffron Restaurant,Restaurant/Cafe/Canteen,1,0,,177251,5,,51.75788300000000,PI/000041295,155,envhealth@broxbourne.gov.uk,Broxbourne,http://www.broxbourne.gov.uk,-0.01282000000000,EN11 8SX,2013-10-10,fhrs_5_en-GB,5,,FHRS,0
7419,72 The Pavilion,High Street,Waltham Cross,Hertfordshire,Sainsburys,Retailers - supermarkets/hypermarkets,7840,5,,169003,10,,51.68651300000000,PI/000014274,155,envhealth@broxbourne.gov.uk,Broxbourne,http://www.broxbourne.gov.uk,-0.03220800000000,EN8 7BZ,2013-06-24,fhrs_4_en-GB,4,,FHRS,5
7420,Sainsburys,Brewery Road,Hoddesdon,Hertfordshire,Sainsburys Supermarket,Retailers - supermarkets/hypermarkets,7840,0,,176637,5,,51.76105400000000,PI/000038187,155,envhealth@broxbourne.gov.uk,Broxbourne,http://www.broxbourne.gov.uk,-0.00997100000000,EN11 8HF,2013-08-05,fhrs_5_en-GB,5,,FHRS,5
7421,18 Brocket Road,Hoddesdon,Hertfordshire,,Sally B's,Restaurant/Cafe/Canteen,1,0,,178864,5,,51.75932200000000,PI/000050599,155,envhealth@broxbourne.gov.uk,Broxbourne,http://www.broxbourne.gov.uk,-0.01285800000000,EN11 8NZ,2013-12-11,fhrs_5_en-GB,5,,FHRS,5
7422,120 High Street,Hoddesdon,Hertfordshire,,Savers Health & Beauty,Retailers - other,4613,,,177244,,,51.76080600000000,PI/000041283,155,envhealth@broxbourne.gov.uk,Broxbourne,http://www.broxbourne.gov.uk,-0.01128600000000,EN11 8HD,2014-07-31,fhrs_exempt_en-GB,Exempt,,FHRS,
7423,5 The Pavilion,High Street,Waltham Cross,Hertfordshire,Savers Health and Beauty,Retailers - other,4613,,,352918,,,51.68651300000000,PI/000042356,155,envhealth@broxbourne.gov.uk,Broxbourne,http://www.broxbourne.gov.uk,-0.03220800000000,EN8 7BY,2012-04-16,fhrs_exempt_en-GB,Exempt,,FHRS,
7424,,,,,Savoury Taste,Retailers - other,4613,0,,178927,5,,,PI/000050771,155,envhealth@broxbourne.gov.uk,Broxbourne,http://www.broxbourne.gov.uk,,,2014-09-25,fhrs_5_en-GB,5,,FHRS,5
7425,Ground and part First Floor,Conduit House,Conduit Lane,Hoddesdon,Scallywagz,Restaurant/Cafe/Canteen,1,5,,647009,5,,51.75939700000000,PI/000049047,155,envhealth@broxbourne.gov.uk,Broxbourne,http://www.broxbourne.gov.uk,-0.01089900000000,EN11 8EP,2014-03-10,fhrs_4_en-GB,4,,FHRS,10
7426,82 High Street,Cheshunt,Hertfordshire,,Seaways Fish Bar,Takeaway/sandwich shop,7844,0,,703665,0,,51.71018200000000,PI/000054318,155,envhealth@broxbourne.gov.uk,Broxbourne,http://www.broxbourne.gov.uk,-0.03445200000000,EN8 0AJ,2014-09-17,fhrs_5_en-GB,5,,FHRS,5
7427,Armitage House,Delamare Road,Cheshunt,Hertfordshire,Servest Catering,Restaurant/Cafe/Canteen,1,5,,177935,15,,51.70530600000000,PI/000044427,155,envhealth@broxbourne.gov.uk,Broxbourne,http://www.broxbourne.gov.uk,-0.02680500000000,EN8 9SL,2014-05-07,fhrs_2_en-GB,2,,FHRS,10
7428,Catering,New Tesco House,Delamare Road,Cheshunt,Servest Catering,Restaurant/Cafe/Canteen,1,5,,178256,10,,51.70433400000000,PI/000046052,155,envhealth@broxbourne.gov.uk,Broxbourne,http://www.broxbourne.gov.uk,-0.02671700000000,EN8 9HD,2014-06-10,fhrs_3_en-GB,3,,FHRS,10
7429,Heldrew House,Delamare Road,Cheshunt,Hertfordshire,Servest Catering,Restaurant/Cafe/Canteen,1,0,,176898,0,,51.70364900000000,PI/000039666,155,envhealth@broxbourne.gov.uk,Broxbourne,http://www.broxbourne.gov.uk,-0.02613900000000,EN8 9AP,2014-05-30,fhrs_5_en-GB,5,,FHRS,0
7430,Tesco Meeting Centre,Old Tesco House,Delamare Road,Cheshunt,Servest Catering,Restaurant/Cafe/Canteen,1,0,,178400,0,,51.70433400000000,PI/000046835,155,envhealth@broxbourne.gov.uk,Broxbourne,http://www.broxbourne.gov.uk,-0.02671700000000,EN8 9HD,2014-07-25,fhrs_5_en-GB,5,,FHRS,0
7431,Workshop 2,Rear of 40,High Street,Cheshunt,Shaolin Monks,Other catering premises,7841,,,439389,,,51.70949700000000,PI/000048753,155,envhealth@broxbourne.gov.uk,Broxbourne,http://www.broxbourne.gov.uk,-0.03592900000000,EN8 0AQ,2012-08-20,fhrs_exempt_en-GB,Exempt,,FHRS,
7432,Petrol Filling Station,47 Flamstead End Road,Cheshunt,Hertfordshire,Shell,Retailers - other,4613,0,,491640,0,,51.71136400000000,PI/000053453,155,envhealth@broxbourne.gov.uk,Broxbourne,http://www.broxbourne.gov.uk,-0.05029500000000,EN8 0JA,2012-12-06,fhrs_5_en-GB,5,,FHRS,0
7433,Petrol Filling Station,21 High Street,Hoddesdon,Hertfordshire,Shell Uk Ltd,Retailers - other,4613,5,,547829,5,,51.75788300000000,PI/000049361,155,envhealth@broxbourne.gov.uk,Broxbourne,http://www.broxbourne.gov.uk,-0.01282000000000,EN11 8SX,2014-07-11,fhrs_5_en-GB,5,,FHRS,5
7434,Sheredes Primary School and Nursery,Benford Road,Broxbourne,Hertfordshire,Sheredes Primary School & Nursery,School/college/university,7845,0,,177580,0,,51.75244100000000,PI/000042739,155,envhealth@broxbourne.gov.uk,Broxbourne,http://www.broxbourne.gov.uk,-0.02181000000000,EN11 8LL,2013-09-23,fhrs_5_en-GB,5,,FHRS,0
7435,Cock Lane,Hoddesdon,Hertfordshire,,Sheredes School,School/college/university,7845,5,,173548,0,,51.75503100000000,PI/000026082,155,envhealth@broxbourne.gov.uk,Broxbourne,http://www.broxbourne.gov.uk,-0.01917500000000,EN11 8JY,2014-09-29,fhrs_5_en-GB,5,,FHRS,5
7436,36 St Laurence Drive,Wormley,Hertfordshire,,Sherrianâs Kitchen,Retailers - other,4613,5,,661338,0,,51.73577800000000,PI/000023099,155,envhealth@broxbourne.gov.uk,Broxbourne,http://www.broxbourne.gov.uk,-0.02447800000000,EN10 6LJ,2014-05-06,fhrs_5_en-GB,5,,FHRS,0
7437,276C High Street,Waltham Cross,Hertfordshire,,Sherries Flowers,Retailers - other,4613,,,164484,,,51.69128700000000,PI/000006391,155,envhealth@broxbourne.gov.uk,Broxbourne,http://www.broxbourne.gov.uk,-0.03379500000000,EN8 7EA,2012-03-05,fhrs_exempt_en-GB,Exempt,,FHRS,
7438,Bushby Hall,Wharf Road,Wormley,Hertfordshire,SIA Club,Restaurant/Cafe/Canteen,1,0,,178609,5,,51.73227500000000,PI/000048824,155,envhealth@broxbourne.gov.uk,Broxbourne,http://www.broxbourne.gov.uk,-0.02205300000000,EN10 6HX,2013-06-13,fhrs_5_en-GB,5,,FHRS,5
7439,New Ford Business Park,New Ford Road,Waltham Cross,,Sifcon International Ltd,Restaurant/Cafe/Canteen,1,,,178402,,,51.68226900000000,PI/000046846,155,envhealth@broxbourne.gov.uk,Broxbourne,http://www.broxbourne.gov.uk,-0.02045800000000,EN8 7PG,2012-12-13,fhrs_exempt_en-GB,Exempt,,FHRS,
7440,12 Newnham Parade,Cheshunt,Hertfordshire,,Simmons (Bakers) Ltd,Retailers - other,4613,5,,166446,5,,51.70242900000000,PI/000009596,155,envhealth@broxbourne.gov.uk,Broxbourne,http://www.broxbourne.gov.uk,-0.03539600000000,EN8 9NU,2014-10-20,fhrs_5_en-GB,5,,FHRS,0
7441,48 Ware Road,Hoddesdon,Hertfordshire,,Simmons Bakeries Ltd,Retailers - other,4613,0,,178648,5,,51.76702300000000,PI/000049202,155,envhealth@broxbourne.gov.uk,Broxbourne,http://www.broxbourne.gov.uk,-0.01201300000000,EN11 9DU,2014-10-27,fhrs_5_en-GB,5,,FHRS,5
7442,128 High Street,Hoddesdon,Hertfordshire,,Smooth + Shake,Other catering premises,7841,10,,505184,10,,51.76080600000000,PI/000053488,155,envhealth@broxbourne.gov.uk,Broxbourne,http://www.broxbourne.gov.uk,-0.01128600000000,EN11 8HD,2014-08-06,fhrs_3_en-GB,3,,FHRS,10
7443,Unit 4 and 5,Haslemere Estate,Charlton Mead Lane,Hoddesdon,Sole Favors Ltd,Retailers - other,4613,,,647014,,,51.75702200000000,PI/000053825,155,envhealth@broxbourne.gov.uk,Broxbourne,http://www.broxbourne.gov.uk,0.00658800000000,EN11 0DJ,2014-03-27,fhrs_exempt_en-GB,Exempt,,FHRS,
7444,4 Clarendon Parade Turners Hill,Cheshunt,Hertfordshire,,Spice Tandoori/China Gate,Takeaway/sandwich shop,7844,5,,612715,5,,51.70518800000000,PI/000052424,155,envhealth@broxbourne.gov.uk,Broxbourne,http://www.broxbourne.gov.uk,-0.03479900000000,EN8 9DF,2013-11-22,fhrs_5_en-GB,5,,FHRS,5
7445,Hertford Regional College,High Road,Turnford,,Squirrels Day Nursery,Hospitals/Childcare/Caring Premises,5,5,,165547,5,,51.72644700000000,PI/000008167,155,envhealth@broxbourne.gov.uk,Broxbourne,http://www.broxbourne.gov.uk,-0.02465300000000,EN10 6AE,2013-07-18,fhrs_5_en-GB,5,,FHRS,0
7446,Riversmead,Hoddesdon,Hertfordshire,,St Augustines Catholic Primary Schoo,School/college/university,7845,0,,177578,0,,51.83103561401370,PI/000042735,155,envhealth@broxbourne.gov.uk,Broxbourne,http://www.broxbourne.gov.uk,-0.21253699064255,EN11 8DP,2015-01-09,fhrs_5_en-GB,5,,FHRS,0
7447,St Augustines Under 5s St Augustines Church,Charlton Close,Hoddesdon,Hertfordshire,St Augustine's Under 5's,Hospitals/Childcare/Caring Premises,5,0,,177996,0,,51.75810800000000,PI/000044705,155,envhealth@broxbourne.gov.uk,Broxbourne,http://www.broxbourne.gov.uk,-0.01018700000000,EN11 8DS,2013-06-27,fhrs_5_en-GB,5,,FHRS,0
7448,Amwell Street,Hoddesdon,Hertfordshire,,St Catherines and St Pauls Church,Other catering premises,7841,,,176565,,,51.76547900000000,PI/000037870,155,envhealth@broxbourne.gov.uk,Broxbourne,http://www.broxbourne.gov.uk,-0.01111000000000,EN11 8TZ,2014-11-26,fhrs_exempt_en-GB,Exempt,,FHRS,
7449,Nursery Adj St Catherines School,Haslewood Avenue,Hoddesdon,Hertfordshire,St Catherines C of E Private Nursery,Hospitals/Childcare/Caring Premises,5,5,,623604,0,,51.76273800000000,PI/000053928,155,envhealth@broxbourne.gov.uk,Broxbourne,http://www.broxbourne.gov.uk,-0.00910000000000,EN11 8HT,2014-01-13,fhrs_5_en-GB,5,,FHRS,0
7450,24 St Catharines Road,Broxbourne,Hertfordshire,,St Catherines Home for the Elderly,Hospitals/Childcare/Caring Premises,5,5,,174217,10,,51.75144900000000,PI/000028422,155,envhealth@broxbourne.gov.uk,Broxbourne,http://www.broxbourne.gov.uk,-0.01259500000000,EN10 7LE,2014-03-17,fhrs_4_en-GB,4,,FHRS,5
7451,Kitchen,St Catherines Hoddesdon VC CE Primary School,Haslewood Avenue,Hoddesdon,St Catherines Primary School,School/college/university,7845,0,,522279,5,,51.76273800000000,PI/000053627,155,envhealth@broxbourne.gov.uk,Broxbourne,http://www.broxbourne.gov.uk,-0.00910000000000,EN11 8HT,2014-10-02,fhrs_5_en-GB,5,,FHRS,5
7452,Cheshunt Wash,Cheshunt,Hertfordshire,,St Clements Church,Other catering premises,7841,,,612716,,,51.71535900000000,PI/000053422,155,envhealth@broxbourne.gov.uk,Broxbourne,http://www.broxbourne.gov.uk,-0.02781500000000,EN8 0LU,2013-11-22,fhrs_exempt_en-GB,Exempt,,FHRS,
7453,St Cross Catholic Primary School,Upper Marsh Lane,Hoddesdon,Hertfordshire,St Cross Catholic  Primary School,School/college/university,7845,5,,174377,0,,51.75384400000000,PI/000028912,155,envhealth@broxbourne.gov.uk,Broxbourne,http://www.broxbourne.gov.uk,-0.01327300000000,EN11 8BN,2014-01-07,fhrs_5_en-GB,5,,FHRS,5
7454,Whitley Road,Hoddesdon,Hertfordshire,,St Cuthberts Church,Other catering premises,7841,,,178442,,,51.77039300000000,PI/000047146,155,envhealth@broxbourne.gov.uk,Broxbourne,http://www.broxbourne.gov.uk,-0.00076200000000,EN11 0PU,2013-10-18,fhrs_exempt_en-GB,Exempt,,FHRS,
7455,St James Road,Goffs Oak,Hertfordshire,,St James Church Hall,Other catering premises,7841,,,167361,,,51.71250800000000,PI/000011288,155,envhealth@broxbourne.gov.uk,Broxbourne,http://www.broxbourne.gov.uk,-0.07770600000000,EN7 6TP,2013-09-03,fhrs_exempt_en-GB,Exempt,,FHRS,
7456,Pear Tree Walk,Cheshunt,Hertfordshire,,St James Hall,Other catering premises,7841,,,607361,,,51.72242800000000,PI/000050648,155,envhealth@broxbourne.gov.uk,Broxbourne,http://www.broxbourne.gov.uk,-0.07561900000000,EN7 6RG,2013-10-21,fhrs_exempt_en-GB,Exempt,,FHRS,
7457,St Josephs Hall,Eleanor Road,Waltham Cross,Hertfordshire,St Joesphâs Toddler Group,Hospitals/Childcare/Caring Premises,5,5,,703673,0,,51.68871900000000,PI/000054362,155,envhealth@broxbourne.gov.uk,Broxbourne,http://www.broxbourne.gov.uk,-0.03075200000000,EN8 7DW,2014-09-24,fhrs_5_en-GB,5,,FHRS,0
7458,Eleanor Road,Waltham Cross,Hertfordshire,,St Josephs Hall,Other catering premises,7841,5,,169054,10,,51.68871900000000,PI/000014372,155,envhealth@broxbourne.gov.uk,Broxbourne,http://www.broxbourne.gov.uk,-0.03075200000000,EN8 7DW,2014-09-11,fhrs_4_en-GB,4,,FHRS,0
7459,St Josephs Catholic Primary School,Royal Avenue,Waltham Cross,Hertfordshire,St Joseph's RC JMI School,School/college/university,7845,0,,169483,0,,51.69153900000000,PI/000015185,155,envhealth@broxbourne.gov.uk,Broxbourne,http://www.broxbourne.gov.uk,-0.02785200000000,EN8 7EN,2014-10-06,fhrs_5_en-GB,5,,FHRS,5
7460,Lieutenant Ellis Way,Cheshunt,Hertfordshire,,St Marys C of E VA High School,School/college/university,7845,5,,178631,10,,51.69651500000000,PI/000049043,155,envhealth@broxbourne.gov.uk,Broxbourne,http://www.broxbourne.gov.uk,-0.05449300000000,EN7 5FB,2013-12-11,fhrs_4_en-GB,4,,FHRS,5
7461,St Pauls Catholic Primary School,Park Lane,Cheshunt,Hertfordshire,St Pauls Roman Catholic Jmi School,School/college/university,7845,0,,177579,0,,51.71558200000000,PI/000042738,155,envhealth@broxbourne.gov.uk,Broxbourne,http://www.broxbourne.gov.uk,-0.05143100000000,EN7 6LR,2014-11-25,fhrs_5_en-GB,5,,FHRS,5
7462,Stanboroughs Court,Conduit Lane,Hoddesdon,Hertfordshire,Stanboroughs Conservative Club,Pub/bar/nightclub,7843,5,,698606,5,,51.75939700000000,PI/000053842,155,envhealth@broxbourne.gov.uk,Broxbourne,http://www.broxbourne.gov.uk,-0.01089900000000,EN11 8EP,2014-08-21,fhrs_5_en-GB,5,,FHRS,0
7463,Unit 1,Brookfield Centre,Halfhide Lane,Cheshunt,Starbucks,Restaurant/Cafe/Canteen,1,0,,178639,0,,51.71966800000000,PI/000049125,155,envhealth@broxbourne.gov.uk,Broxbourne,http://www.broxbourne.gov.uk,-0.03816700000000,EN8 0NN,2013-08-05,fhrs_5_en-GB,5,,FHRS,5
7464,,,,,Stunning Cupcakes,Retailers - other,4613,0,,415265,0,,,PI/000051191,155,envhealth@broxbourne.gov.uk,Broxbourne,http://www.broxbourne.gov.uk,,,2012-06-18,fhrs_5_en-GB,5,,FHRS,0
7465,132 Turners Hill,Cheshunt,Hertfordshire,,Sub Xpress,Takeaway/sandwich shop,7844,5,,415257,5,,51.70308400000000,PI/000050977,155,envhealth@broxbourne.gov.uk,Broxbourne,http://www.broxbourne.gov.uk,-0.03423900000000,EN8 9BN,2013-12-16,fhrs_4_en-GB,4,,FHRS,10
7466,,,,,Sugarshedcakery,Other catering premises,7841,5,,607365,5,,,PI/000053829,155,envhealth@broxbourne.gov.uk,Broxbourne,http://www.broxbourne.gov.uk,,,2013-11-04,fhrs_5_en-GB,5,,FHRS,0
7467,Turnford School,Mill Lane,Cheshunt,Hertfordshire,Sunray After School Club,Hospitals/Childcare/Caring Premises,5,0,,178725,0,,51.71184500000000,PI/000049758,155,envhealth@broxbourne.gov.uk,Broxbourne,http://www.broxbourne.gov.uk,-0.02634600000000,EN8 0JU,2014-11-24,fhrs_5_en-GB,5,,FHRS,0
7468,74 The Pavilion,High Street,Waltham Cross,Hertfordshire,Superdrug,Retailers - other,4613,,,169083,,,51.68651300000000,PI/000014401,155,envhealth@broxbourne.gov.uk,Broxbourne,http://www.broxbourne.gov.uk,-0.03220800000000,EN8 7BZ,2013-01-28,fhrs_exempt_en-GB,Exempt,,FHRS,
7469,St Marys C of E VA High School,Lieutenant Ellis Way,Cheshunt,Hertfordshire,Sure Start Childrens Centre,Hospitals/Childcare/Caring Premises,5,0,,178841,0,,51.69651500000000,PI/000050505,155,envhealth@broxbourne.gov.uk,Broxbourne,http://www.broxbourne.gov.uk,-0.05449300000000,EN7 5FB,2012-06-01,fhrs_5_en-GB,5,,FHRS,0
7470,,,,,Susan Peary (Cake Maker),Retailers - other,4613,10,,187505,5,,,PI/000030705,155,envhealth@broxbourne.gov.uk,Broxbourne,http://www.broxbourne.gov.uk,,,2012-09-19,fhrs_4_en-GB,4,,FHRS,5
7471,5 Clayton Parade,Turners Hill,Cheshunt,Hertfordshire,Swan Pharmacy,Retailers - other,4613,,,178661,,,51.70111600000000,PI/000049312,155,envhealth@broxbourne.gov.uk,Broxbourne,http://www.broxbourne.gov.uk,-0.03487400000000,EN8 8NQ,2012-06-13,fhrs_exempt_en-GB,Exempt,,FHRS,
7472,113 Rye Road,Hoddesdon,Hertfordshire,,Sweet Stuff,Restaurant/Cafe/Canteen,1,5,,187590,5,,51.76701300000000,PI/000050264,155,envhealth@broxbourne.gov.uk,Broxbourne,http://www.broxbourne.gov.uk,-0.00398400000000,EN11 0JP,2013-08-22,fhrs_5_en-GB,5,,FHRS,5
7473,,,,,Sweet Tree House,Other catering premises,7841,5,,637300,0,,,PI/000019259,155,envhealth@broxbourne.gov.uk,Broxbourne,http://www.broxbourne.gov.uk,,,2014-02-26,fhrs_5_en-GB,5,,FHRS,0
7474,62 High Street,Hoddesdon,Hertfordshire,,Tandoori Nights,Restaurant/Cafe/Canteen,1,5,,177285,5,,51.75935000000000,PI/000041406,155,envhealth@broxbourne.gov.uk,Broxbourne,http://www.broxbourne.gov.uk,-0.01185700000000,EN11 8ET,2014-07-18,fhrs_5_en-GB,5,,FHRS,5
7475,25B High Street,Hoddesdon,Hertfordshire,,Taste of China,Restaurant/Cafe/Canteen,1,5,,177272,5,,51.75788300000000,PI/000041333,155,envhealth@broxbourne.gov.uk,Broxbourne,http://www.broxbourne.gov.uk,-0.01282000000000,EN11 8SX,2014-08-13,fhrs_5_en-GB,5,,FHRS,5
7476,9 Anchor Close,Cheshunt,Hertfordshire,,Taste Teasers,Other catering premises,7841,5,,688142,5,,51.71357300000000,PI/000054130,155,envhealth@broxbourne.gov.uk,Broxbourne,http://www.broxbourne.gov.uk,-0.03553600000000,EN8 0PJ,2014-07-16,fhrs_5_en-GB,5,,FHRS,0
7477,75 High Street,Waltham Cross,Hertfordshire,,Tasty House,Takeaway/sandwich shop,7844,0,,178833,5,,51.68466900000000,PI/000050471,155,envhealth@broxbourne.gov.uk,Broxbourne,http://www.broxbourne.gov.uk,-0.03322800000000,EN8 7AF,2013-08-01,fhrs_5_en-GB,5,,FHRS,5
7478,,,,,Teachertots,Hospitals/Childcare/Caring Premises,5,0,,187437,0,,,PI/000050523,155,envhealth@broxbourne.gov.uk,Broxbourne,http://www.broxbourne.gov.uk,,,2014-02-10,fhrs_5_en-GB,5,,FHRS,0
7479,Winterscroft Road,Hoddesdon,Hertfordshire,,Tedems Foodstore,Retailers - other,4613,0,,175242,0,,51.76382400000000,PI/000031636,155,envhealth@broxbourne.gov.uk,Broxbourne,http://www.broxbourne.gov.uk,-0.01639900000000,EN11 8RH,2013-07-17,fhrs_5_en-GB,5,,FHRS,0
7480,Tesco Resource Centre,Delamare Road,Cheshunt,Hertfordshire,Tesco - Quality&Customer Assessment,Restaurant/Cafe/Canteen,1,0,,178282,0,,51.70364900000000,PI/000046157,155,envhealth@broxbourne.gov.uk,Broxbourne,http://www.broxbourne.gov.uk,-0.02613900000000,EN8 9AP,2015-01-16,fhrs_5_en-GB,5,,FHRS,0
7481,246 High Street,Waltham Cross,Hertfordshire,,Tesco Express,Retailers - supermarkets/hypermarkets,7840,10,,168201,10,,51.69055400000000,PI/000012721,155,envhealth@broxbourne.gov.uk,Broxbourne,http://www.broxbourne.gov.uk,-0.03350900000000,EN8 7DZ,2014-03-07,fhrs_3_en-GB,3,,FHRS,5
7482,61-65 High Street,Hoddesdon,Hertfordshire,,Tesco Express,Retailers - supermarkets/hypermarkets,7840,5,,177293,10,,51.75961200000000,PI/000041436,155,envhealth@broxbourne.gov.uk,Broxbourne,http://www.broxbourne.gov.uk,-0.01244000000000,EN11 8TQ,2014-03-10,fhrs_3_en-GB,3,,FHRS,10
7483,1 Stockbridge Close,Cheshunt,Hertfordshire,,Tesco Express(Hammond Street),Retailers - supermarkets/hypermarkets,7840,0,,177964,5,,51.71981000000000,PI/000044543,155,envhealth@broxbourne.gov.uk,Broxbourne,http://www.broxbourne.gov.uk,-0.07227100000000,EN7 6GT,2014-07-28,fhrs_5_en-GB,5,,FHRS,5
7484,112 Burford Street,Hoddesdon,Hertfordshire,,Tesco Stores Ltd,Retailers - other,4613,0,,415264,5,,51.76613200000000,PI/000051012,155,envhealth@broxbourne.gov.uk,Broxbourne,http://www.broxbourne.gov.uk,-0.00876200000000,EN11 8JB,2012-06-21,fhrs_5_en-GB,5,,FHRS,5
7485,64-78 Turners Hill,Cheshunt,Hertfordshire,,Tesco Stores Ltd,Retailers - supermarkets/hypermarkets,7840,0,,165612,5,,51.70187500000000,PI/000008255,155,envhealth@broxbourne.gov.uk,Broxbourne,http://www.broxbourne.gov.uk,-0.03398700000000,EN8 8LQ,2014-03-07,fhrs_5_en-GB,5,,FHRS,5
7486,Brookfield Centre,Halfhide Lane,Cheshunt,,Tesco Stores Ltd,Retailers - supermarkets/hypermarkets,7840,5,,178858,5,,51.71802000000000,PI/000050573,155,envhealth@broxbourne.gov.uk,Broxbourne,http://www.broxbourne.gov.uk,-0.03745700000000,EN8 0TA,2013-11-21,fhrs_5_en-GB,5,,FHRS,5
7487,21 Whitley Road,Hoddesdon,Hertfordshire,,Tex Food and Wine,Retailers - other,4613,0,,175145,5,,51.77039300000000,PI/000031270,155,envhealth@broxbourne.gov.uk,Broxbourne,http://www.broxbourne.gov.uk,-0.00076200000000,EN11 0PU,2014-01-02,fhrs_5_en-GB,5,,FHRS,5
7488,99 High Street,Waltham Cross,Hertfordshire,,TFC (Turkish Food Centre),Retailers - supermarkets/hypermarkets,7840,10,,168140,5,,51.68620300000000,PI/000012613,155,envhealth@broxbourne.gov.uk,Broxbourne,http://www.broxbourne.gov.uk,-0.03355300000000,EN8 7AN,2013-09-11,fhrs_3_en-GB,3,,FHRS,10
7489,41 High Street,Cheshunt,Hertfordshire,,TGF Pizza Company,Takeaway/sandwich shop,7844,5,,166669,5,,51.70942700000000,PI/000009988,155,envhealth@broxbourne.gov.uk,Broxbourne,http://www.broxbourne.gov.uk,-0.03662700000000,EN8 0BS,2014-06-27,fhrs_4_en-GB,4,,FHRS,10
7490,,,,,The Annex B&B,Hotel/bed & breakfast/guest house,7842,5,,177482,0,,,PI/000042387,155,envhealth@broxbourne.gov.uk,Broxbourne,http://www.broxbourne.gov.uk,,,2013-02-20,fhrs_5_en-GB,5,,FHRS,0
7491,Hertford Regional College,High Road,Turnford,Hertfordshire,The Atrium Broxbourne Centre,Restaurant/Cafe/Canteen,1,5,,178726,0,,51.72644700000000,PI/000049761,155,envhealth@broxbourne.gov.uk,Broxbourne,http://www.broxbourne.gov.uk,-0.02465300000000,EN10 6AE,2014-10-24,fhrs_5_en-GB,5,,FHRS,0
7492,The Bell,1 Burford Street,Hoddesdon,Hertfordshire,The Bell  (including B&B),Pub/bar/nightclub,7843,10,,174477,5,,51.76212400000000,PI/000029175,155,envhealth@broxbourne.gov.uk,Broxbourne,http://www.broxbourne.gov.uk,-0.01048900000000,EN11 8HP,2012-09-10,fhrs_4_en-GB,4,,FHRS,5
7493,117 Rye Road,Hoddesdon,Hertfordshire,,The Bread Bin,Retailers - other,4613,5,,175138,5,,51.76701300000000,PI/000031236,155,envhealth@broxbourne.gov.uk,Broxbourne,http://www.broxbourne.gov.uk,-0.00398400000000,EN11 0JP,2013-12-13,fhrs_4_en-GB,4,,FHRS,10
7494,41 High Road,Broxbourne,Hertfordshire,,The Bread Bin,Retailers - other,4613,5,,173005,10,,51.74865400000000,PI/000024670,155,envhealth@broxbourne.gov.uk,Broxbourne,http://www.broxbourne.gov.uk,-0.01855600000000,EN10 7HX,2014-01-13,fhrs_4_en-GB,4,,FHRS,5
7495,5 Fawkon Walk,Hoddesdon,Hertfordshire,,The Bread Bin,Retailers - other,4613,0,,174549,0,,51.76022000000000,PI/000029407,155,envhealth@broxbourne.gov.uk,Broxbourne,http://www.broxbourne.gov.uk,-0.01279000000000,EN11 8TJ,2014-12-15,fhrs_5_en-GB,5,,FHRS,5
7496,High Road,Broxbourne,Hertfordshire,,The Broxbourne School,School/college/university,7845,0,,172813,5,,51.74097000000000,PI/000024070,155,envhealth@broxbourne.gov.uk,Broxbourne,http://www.broxbourne.gov.uk,-0.02303500000000,EN10 7DB,2013-11-25,fhrs_5_en-GB,5,,FHRS,5
7497,74 High Road,Broxbourne,Hertfordshire,,The Bull,Pub/bar/nightclub,7843,5,,173045,5,,51.74567900000000,PI/000024777,155,envhealth@broxbourne.gov.uk,Broxbourne,http://www.broxbourne.gov.uk,-0.01967200000000,EN10 7DZ,2014-11-24,fhrs_5_en-GB,5,,FHRS,5
7498,High Road,Turnford,Hertfordshire,,The Bulls Head,Pub/bar/nightclub,7843,0,,171585,0,,51.72241400000000,PI/000020756,155,envhealth@broxbourne.gov.uk,Broxbourne,http://www.broxbourne.gov.uk,-0.02600200000000,EN10 6BZ,2014-12-16,fhrs_5_en-GB,5,,FHRS,0
7499,Waltham Cross Bus Station,Eleanor Cross Road,Waltham Cross,Hertfordshire,The Bus Stop Shop Ltd,Retailers - other,4613,5,,627080,5,,51.68568700000000,PI/000053914,155,envhealth@broxbourne.gov.uk,Broxbourne,http://www.broxbourne.gov.uk,-0.03123100000000,EN8 7LA,2014-01-09,fhrs_5_en-GB,5,,FHRS,0
7500,,,,,The Candy Girlz,Other catering premises,7841,5,,415268,0,,,PI/000051267,155,envhealth@broxbourne.gov.uk,Broxbourne,http://www.broxbourne.gov.uk,,,2012-07-03,fhrs_5_en-GB,5,,FHRS,0
7501,88C The Pavilion,High Street,Waltham Cross,Hertfordshire,The Candy Store,Retailers - other,4613,,,178749,,,51.68651300000000,PI/000049870,155,envhealth@broxbourne.gov.uk,Broxbourne,http://www.broxbourne.gov.uk,-0.03220800000000,EN8 7BZ,2013-02-18,fhrs_exempt_en-GB,Exempt,,FHRS,
7502,,,,,The Cheese Board,Retailers - other,4613,10,,591853,5,,,PI/000053802,155,envhealth@broxbourne.gov.uk,Broxbourne,http://www.broxbourne.gov.uk,,,2013-10-02,fhrs_4_en-GB,4,,FHRS,0
7503,The Cheshunt Club,Albury Ride,Cheshunt,Hertfordshire,The Cheshunt Sports Club,Pub/bar/nightclub,7843,10,,165006,5,,51.84004974365230,PI/000007262,155,envhealth@broxbourne.gov.uk,Broxbourne,http://www.broxbourne.gov.uk,-0.27510499954224,EN8 8XG,2014-03-18,fhrs_4_en-GB,4,,FHRS,5
7504,Seafood Stall,37 Crossbrook Street,Cheshunt,Hertfordshire,The Cockle Shed,Takeaway/sandwich shop,7844,5,,698608,5,,51.69331100000000,PI/000054317,155,envhealth@broxbourne.gov.uk,Broxbourne,http://www.broxbourne.gov.uk,-0.03487900000000,EN8 8LR,2014-08-15,fhrs_4_en-GB,4,,FHRS,10
7505,105 Rye Road,Hoddesdon,Hertfordshire,,The Co-Op Pharmacy,Retailers - other,4613,,,175135,,,51.76700100000000,PI/000031231,155,envhealth@broxbourne.gov.uk,Broxbourne,http://www.broxbourne.gov.uk,-0.00275300000000,EN11 0JL,2012-11-16,fhrs_exempt_en-GB,Exempt,,FHRS,
7506,9 High Street,Cheshunt,Hertfordshire,,The Co-Operative Food,Retailers - supermarkets/hypermarkets,7840,5,,178732,5,,51.70857000000000,PI/000049797,155,envhealth@broxbourne.gov.uk,Broxbourne,http://www.broxbourne.gov.uk,-0.03748900000000,EN8 0BX,2013-03-11,fhrs_5_en-GB,5,,FHRS,5
7507,Theobalds Park,Lieutenant Ellis Way,Waltham Cross,,The Country Club,Restaurant/Cafe/Canteen,1,0,,178322,5,,51.69360400000000,PI/000046383,155,envhealth@broxbourne.gov.uk,Broxbourne,http://www.broxbourne.gov.uk,-0.04651500000000,EN8 8YA,2013-10-04,fhrs_5_en-GB,5,,FHRS,0
7508,College Road,Cheshunt,Hertfordshire,,The Crocodile,Pub/bar/nightclub,7843,0,,166445,5,,51.70330100000000,PI/000009594,155,envhealth@broxbourne.gov.uk,Broxbourne,http://www.broxbourne.gov.uk,-0.04509800000000,EN8 9NQ,2014-01-09,fhrs_5_en-GB,5,,FHRS,0
7509,Food Mobile,Cadmore Lane,Cheshunt,Hertfordshire,The Diner,Mobile caterer,7846,5,,176709,5,,51.70921100000000,PI/000038525,155,envhealth@broxbourne.gov.uk,Broxbourne,http://www.broxbourne.gov.uk,-0.02375400000000,EN8 9TL,2014-03-21,fhrs_5_en-GB,5,,FHRS,5
7510,67 High Street,Waltham Cross,Hertfordshire,,The First New Off Licence,Retailers - other,4613,10,,168130,10,,51.68407800000000,PI/000012605,155,envhealth@broxbourne.gov.uk,Broxbourne,http://www.broxbourne.gov.uk,-0.03341300000000,EN8 7AE,2014-01-08,fhrs_3_en-GB,3,,FHRS,10
7511,Four Swannes Primary School,King Edward Road,Waltham Cross,Hertfordshire,The Four Swanns Jmi School,School/college/university,7845,0,,177565,0,,51.68811000000000,PI/000042723,155,envhealth@broxbourne.gov.uk,Broxbourne,http://www.broxbourne.gov.uk,-0.02982400000000,EN8 7HH,2013-01-09,fhrs_5_en-GB,5,,FHRS,0
7512,8 High Street,Hoddesdon,Hertfordshire,,The George,Pub/bar/nightclub,7843,10,,177222,5,,51.75240300000000,PI/000041238,155,envhealth@broxbourne.gov.uk,Broxbourne,http://www.broxbourne.gov.uk,-0.01474100000000,EN11 8BL,2014-02-20,fhrs_3_en-GB,3,,FHRS,10
7513,,,,,The Glitter Cake Company,Other catering premises,7841,10,,516600,0,,,PI/000053505,155,envhealth@broxbourne.gov.uk,Broxbourne,http://www.broxbourne.gov.uk,,,2013-03-06,fhrs_4_en-GB,4,,FHRS,0
7514,Newgatestreet Road,Goffs Oak,Hertfordshire,,The Goffs Oak,Pub/bar/nightclub,7843,0,,167355,5,,51.71080900000000,PI/000011276,155,envhealth@broxbourne.gov.uk,Broxbourne,http://www.broxbourne.gov.uk,-0.08709900000000,EN7 5RH,2013-06-24,fhrs_5_en-GB,5,,FHRS,5
7515,23 High Street,Hoddesdon,Hertfordshire,,The Golden Lion,Pub/bar/nightclub,7843,5,,177249,5,,51.75788300000000,PI/000041294,155,envhealth@broxbourne.gov.uk,Broxbourne,http://www.broxbourne.gov.uk,-0.01282000000000,EN11 8SX,2014-07-14,fhrs_4_en-GB,4,,FHRS,10
7516,,,,,The Gorgeous Jam Collection,Other catering premises,7841,10,,636130,0,,,PI/000053941,155,envhealth@broxbourne.gov.uk,Broxbourne,http://www.broxbourne.gov.uk,,,2014-02-17,fhrs_4_en-GB,4,,FHRS,0
7517,62 Churchgate,Cheshunt,Hertfordshire,,The Green Dragon,Pub/bar/nightclub,7843,0,,162034,10,,51.70406100000000,PI/000002249,155,envhealth@broxbourne.gov.uk,Broxbourne,http://www.broxbourne.gov.uk,-0.04807600000000,EN8 9NF,2014-07-29,fhrs_4_en-GB,4,,FHRS,5
7518,3 The Precinct,High Road,Broxbourne,Hertfordshire,The Gulshan Restaurant,Restaurant/Cafe/Canteen,1,0,,178696,5,,51.74757800000000,PI/000049504,155,envhealth@broxbourne.gov.uk,Broxbourne,http://www.broxbourne.gov.uk,-0.01870500000000,EN10 7HY,2013-08-08,fhrs_5_en-GB,5,,FHRS,5
7519,The Hertfordshire Golf and Country Club,White Stubbs Lane,Broxbourne,Hertfordshire,The Half Way Hut Catering,Other catering premises,7841,0,,509930,10,,51.74700600000000,PI/000053486,155,envhealth@broxbourne.gov.uk,Broxbourne,http://www.broxbourne.gov.uk,-0.04093800000000,EN10 7PY,2014-08-04,fhrs_4_en-GB,4,,FHRS,10
7520,The Hertfordshire Golf and Country Club,White Stubbs Lane,Broxbourne,Hertfordshire,The Hertfordshire Golf&Country Club,Restaurant/Cafe/Canteen,1,0,,177086,0,,51.74700600000000,PI/000040698,155,envhealth@broxbourne.gov.uk,Broxbourne,http://www.broxbourne.gov.uk,-0.04093800000000,EN10 7PY,2013-11-22,fhrs_5_en-GB,5,,FHRS,5
7521,The Hollies,11 St Catharines Road,Broxbourne,Hertfordshire,The Hollies Residential Care Home,Hospitals/Childcare/Caring Premises,5,10,,174219,5,,51.75192400000000,PI/000028425,155,envhealth@broxbourne.gov.uk,Broxbourne,http://www.broxbourne.gov.uk,-0.01405200000000,EN10 7LG,2014-12-16,fhrs_2_en-GB,2,,FHRS,15
7522,Stanstead Road,Hoddesdon,Hertfordshire,,The John Warner School,School/college/university,7845,5,,175509,5,,51.77500300000000,PI/000032654,155,envhealth@broxbourne.gov.uk,Broxbourne,http://www.broxbourne.gov.uk,-0.00161700000000,EN11 0QF,2013-12-13,fhrs_4_en-GB,4,,FHRS,10
7523,Stanstead Road,Hoddesdon,Hertfordshire,,The John Warner Sports Centre,Restaurant/Cafe/Canteen,1,0,,177041,0,,51.76702700000000,PI/000040362,155,envhealth@broxbourne.gov.uk,Broxbourne,http://www.broxbourne.gov.uk,-0.00852000000000,EN11 0RH,2014-03-17,fhrs_5_en-GB,5,,FHRS,5
7524,The Jolly Bricklayers,2 Flamstead End Road,Cheshunt,Hertfordshire,The Jolly Bricklayers (no food prep),Pub/bar/nightclub,7843,10,,163125,10,,51.71007800000000,PI/000004227,155,envhealth@broxbourne.gov.uk,Broxbourne,http://www.broxbourne.gov.uk,-0.04867100000000,EN8 0HH,2014-07-17,fhrs_3_en-GB,3,,FHRS,10
7525,2-3 Lynton Parade Turners Hill,Cheshunt,Hertfordshire,,The King James,Pub/bar/nightclub,7843,0,,165534,5,,51.70106500000000,PI/000008160,155,envhealth@broxbourne.gov.uk,Broxbourne,http://www.broxbourne.gov.uk,-0.03399400000000,EN8 8LF,2013-07-16,fhrs_5_en-GB,5,,FHRS,0
7526,197 Lord Street,Hoddesdon,Hertfordshire,,The King William IV,Pub/bar/nightclub,7843,5,,173483,5,,51.76060800000000,PI/000025919,155,envhealth@broxbourne.gov.uk,Broxbourne,http://www.broxbourne.gov.uk,-0.01926500000000,EN11 8NQ,2012-10-12,fhrs_5_en-GB,5,,FHRS,5
7527,Waltham Cross Youth Centre,Stanhope Road,Waltham Cross,,The Lighthouse Club,Other catering premises,7841,5,,177618,0,,51.68801300000000,PI/000042881,155,envhealth@broxbourne.gov.uk,Broxbourne,http://www.broxbourne.gov.uk,-0.03208500000000,EN8 7DJ,2013-03-22,fhrs_5_en-GB,5,,FHRS,0
7528,The Maltsters,177 Windmill Lane,Cheshunt,Hertfordshire,The Maltsters Public House,Pub/bar/nightclub,7843,0,,170118,5,,51.70333500000000,PI/000016622,155,envhealth@broxbourne.gov.uk,Broxbourne,http://www.broxbourne.gov.uk,-0.02506700000000,EN8 9AW,2014-07-14,fhrs_5_en-GB,5,,FHRS,0
7529,78 The Pavilion,High Street,Waltham Cross,Hertfordshire,The Meat Shop,Retailers - other,4613,5,,168874,0,,51.68651300000000,PI/000014033,155,envhealth@broxbourne.gov.uk,Broxbourne,http://www.broxbourne.gov.uk,-0.03220800000000,EN8 7BZ,2012-11-01,fhrs_5_en-GB,5,,FHRS,5
7530,104 High Street,Waltham Cross,Hertfordshire,,The Moon and Cross,Pub/bar/nightclub,7843,5,,168086,5,,51.68527800000000,PI/000012547,155,envhealth@broxbourne.gov.uk,Broxbourne,http://www.broxbourne.gov.uk,-0.03256500000000,EN8 7BX,2014-09-01,fhrs_5_en-GB,5,,FHRS,5
7531,Unit 2,Brookfield Centre,Halfhide Lane,Cheshunt,The Nutri Centre,Retailers - other,4613,,,178241,,,51.71966800000000,PI/000046000,155,envhealth@broxbourne.gov.uk,Broxbourne,http://www.broxbourne.gov.uk,-0.03816700000000,EN8 0NN,2014-01-24,fhrs_exempt_en-GB,Exempt,,FHRS,
7532,The Old Anchor,188 High Street,Cheshunt,Hertfordshire,The Old Anchor Public House,Pub/bar/nightclub,7843,0,,170576,0,,51.71299800000000,PI/000017959,155,envhealth@broxbourne.gov.uk,Broxbourne,http://www.broxbourne.gov.uk,-0.03179700000000,EN8 0AY,2014-01-02,fhrs_5_en-GB,5,,FHRS,5
7533,253 Turners Hill,Cheshunt,Hertfordshire,,The Old English Gentleman,Pub/bar/nightclub,7843,10,,165697,0,,51.70654900000000,PI/000008379,155,envhealth@broxbourne.gov.uk,Broxbourne,http://www.broxbourne.gov.uk,-0.03657800000000,EN8 9DG,2012-04-17,fhrs_4_en-GB,4,,FHRS,0
7534,Mill Lane,Broxbourne,Hertfordshire,,The Old Mill Retreat Cafe,Restaurant/Cafe/Canteen,1,0,,178795,5,,51.74366500000000,PI/000050339,155,envhealth@broxbourne.gov.uk,Broxbourne,http://www.broxbourne.gov.uk,-0.01492100000000,EN10 7AX,2014-07-21,fhrs_5_en-GB,5,,FHRS,5
7535,32 High Road,Wormley,Hertfordshire,,The Old Star,Pub/bar/nightclub,7843,5,,177607,0,,51.73354600000000,PI/000042813,155,envhealth@broxbourne.gov.uk,Broxbourne,http://www.broxbourne.gov.uk,-0.02382300000000,EN10 6LE,2012-12-21,fhrs_5_en-GB,5,,FHRS,0
7536,39-41 Park Lane,Waltham Cross,Hertfordshire,,The Plough,Pub/bar/nightclub,7843,10,,163433,5,,51.68685600000000,PI/000004714,155,envhealth@broxbourne.gov.uk,Broxbourne,http://www.broxbourne.gov.uk,-0.03656200000000,EN8 8AB,2014-07-17,fhrs_4_en-GB,4,,FHRS,5
7537,57 Flamstead End Road,Cheshunt,Hertfordshire,,The Plough,Pub/bar/nightclub,7843,0,,163206,5,,51.71292500000000,PI/000004348,155,envhealth@broxbourne.gov.uk,Broxbourne,http://www.broxbourne.gov.uk,-0.05118300000000,EN8 0JB,2014-02-14,fhrs_5_en-GB,5,,FHRS,0
7538,The Queens Head,66 High Road,Wormley,Hertfordshire,The Queens Head Public House,Pub/bar/nightclub,7843,5,,172052,5,,51.73174200000000,PI/000022092,155,envhealth@broxbourne.gov.uk,Broxbourne,http://www.broxbourne.gov.uk,-0.02508900000000,EN10 6JN,2013-05-28,fhrs_5_en-GB,5,,FHRS,5
7539,137 Crossbrook Street,Cheshunt,Hertfordshire,,The Roman Urn(no food prepared),Pub/bar/nightclub,7843,5,,177513,5,,51.69665700000000,PI/000042529,155,envhealth@broxbourne.gov.uk,Broxbourne,http://www.broxbourne.gov.uk,-0.03490800000000,EN8 8LY,2012-10-11,fhrs_5_en-GB,5,,FHRS,5
7540,The John Warner School,Stanstead Road,Hoddesdon,Hertfordshire,The Spring Meadows,Hospitals/Childcare/Caring Premises,5,5,,178816,5,,51.77500300000000,PI/000050425,155,envhealth@broxbourne.gov.uk,Broxbourne,http://www.broxbourne.gov.uk,-0.00161700000000,EN11 0QF,2014-01-13,fhrs_5_en-GB,5,,FHRS,0
7541,Amwell Street,Hoddesdon,Hertfordshire,,The Sun,Pub/bar/nightclub,7843,5,,175254,0,,51.76435400000000,PI/000031671,155,envhealth@broxbourne.gov.uk,Broxbourne,http://www.broxbourne.gov.uk,-0.01213000000000,EN11 8TX,2014-09-12,fhrs_4_en-GB,4,,FHRS,10
7542,72 Stanstead Road,Hoddesdon,Hertfordshire,,The Tulip Cafe,Restaurant/Cafe/Canteen,1,0,,547827,0,,51.76958700000000,PI/000030999,155,envhealth@broxbourne.gov.uk,Broxbourne,http://www.broxbourne.gov.uk,-0.00727700000000,EN11 0RL,2013-04-26,fhrs_5_en-GB,5,,FHRS,5
7543,41-43 High Street,Waltham Cross,Hertfordshire,,The Venue,Pub/bar/nightclub,7843,5,,168125,0,,51.68340700000000,PI/000012598,155,envhealth@broxbourne.gov.uk,Broxbourne,http://www.broxbourne.gov.uk,-0.03361600000000,EN8 7AB,2015-01-08,fhrs_5_en-GB,5,,FHRS,0
7544,The Vine,207 High Street,Waltham Cross,Hertfordshire,The Vine Public House,Pub/bar/nightclub,7843,0,,176713,0,,51.68981100000000,PI/000038553,155,envhealth@broxbourne.gov.uk,Broxbourne,http://www.broxbourne.gov.uk,-0.03475600000000,EN8 7AY,2013-03-05,fhrs_5_en-GB,5,,FHRS,5
7545,The Wheatsheaf,271-273 High Street,Waltham Cross,Hertfordshire,The Wheatsheaf Public House,Pub/bar/nightclub,7843,0,,176714,0,,51.69125600000000,PI/000038555,155,envhealth@broxbourne.gov.uk,Broxbourne,http://www.broxbourne.gov.uk,-0.03621300000000,EN8 7BG,2013-06-03,fhrs_5_en-GB,5,,FHRS,0
7546,Goffs Lane,Goffs Oak,Hertfordshire,,The Wheelwrights,Restaurant/Cafe/Canteen,1,0,,167306,0,,51.70938800000000,PI/000011159,155,envhealth@broxbourne.gov.uk,Broxbourne,http://www.broxbourne.gov.uk,-0.08102200000000,EN7 5EP,2014-10-09,fhrs_5_en-GB,5,,FHRS,5
7547,The White Bear,95 High Road,Broxbourne,Hertfordshire,The White Bear Public House,Pub/bar/nightclub,7843,5,,173008,5,,51.74580600000000,PI/000024678,155,envhealth@broxbourne.gov.uk,Broxbourne,http://www.broxbourne.gov.uk,-0.01869500000000,EN10 7BN,2013-05-28,fhrs_2_en-GB,2,,FHRS,15
7548,95 High Street,Hoddesdon,Hertfordshire,,The White Swan,Pub/bar/nightclub,7843,0,,177266,0,,51.76155600000000,PI/000041318,155,envhealth@broxbourne.gov.uk,Broxbourne,http://www.broxbourne.gov.uk,-0.01203600000000,EN11 8TN,2014-11-24,fhrs_5_en-GB,5,,FHRS,5
7549,The Windmill,210 Windmill Lane,Cheshunt,Hertfordshire,The Windmill Public House,Pub/bar/nightclub,7843,5,,170089,5,,51.70284700000000,PI/000016571,155,envhealth@broxbourne.gov.uk,Broxbourne,http://www.broxbourne.gov.uk,-0.02545000000000,EN8 9AF,2014-07-17,fhrs_4_en-GB,4,,FHRS,10
7550,59 Ware Road,Hoddesdon,Hertfordshire,,Tiny Toes Nursery,Hospitals/Childcare/Caring Premises,5,0,,175264,0,,51.76768900000000,PI/000031697,155,envhealth@broxbourne.gov.uk,Broxbourne,http://www.broxbourne.gov.uk,-0.01363600000000,EN11 9AB,2014-01-07,fhrs_5_en-GB,5,,FHRS,5
7551,Cheshunt Scout and Guide Hut,Rowlands Fields,Cheshunt,Hertfordshire,Tiny Toons,Hospitals/Childcare/Caring Premises,5,10,,176624,5,,51.70457400000000,PI/000038134,155,envhealth@broxbourne.gov.uk,Broxbourne,http://www.broxbourne.gov.uk,-0.03627200000000,EN8 9BG,2014-03-21,fhrs_4_en-GB,4,,FHRS,5
7552,Tiny Tots Day Care Ltd,Paul Close,Cheshunt,Hertfordshire,Tiny Tots Day Care Limited,Hospitals/Childcare/Caring Premises,5,0,,177622,0,,51.72471400000000,PI/000042915,155,envhealth@broxbourne.gov.uk,Broxbourne,http://www.broxbourne.gov.uk,-0.09006000000000,EN7 6DX,2015-01-16,fhrs_5_en-GB,5,,FHRS,0
7553,160 High Street,Waltham Cross,Hertfordshire,,Tirana 3,Restaurant/Cafe/Canteen,1,10,,682531,10,,51.68757800000000,PI/000053970,155,envhealth@broxbourne.gov.uk,Broxbourne,http://www.broxbourne.gov.uk,-0.03298700000000,EN8 7DF,2014-06-25,fhrs_3_en-GB,3,,FHRS,5
7554,3 Primrose Path,Cheshunt,Hertfordshire,,TLC Childcare,Hospitals/Childcare/Caring Premises,5,,,178896,,,51.69810600000000,PI/000050695,155,envhealth@broxbourne.gov.uk,Broxbourne,http://www.broxbourne.gov.uk,-0.05608900000000,EN7 5AN,2014-07-22,fhrs_exempt_en-GB,Exempt,,FHRS,
7555,Restaurant,Travelodge,Great Eastern Road,Waltham Cross,Toto Pizzeria,Restaurant/Cafe/Canteen,1,10,,661340,10,,51.68561600000000,PI/000053646,155,envhealth@broxbourne.gov.uk,Broxbourne,http://www.broxbourne.gov.uk,-0.04363200000000,EN8 8DY,2014-05-01,fhrs_3_en-GB,3,,FHRS,10
7556,Great Eastern Road,Waltham Cross,Hertfordshire,,Travelodge,Hotel/bed & breakfast/guest house,7842,0,,178425,5,,51.68561600000000,PI/000047019,155,envhealth@broxbourne.gov.uk,Broxbourne,http://www.broxbourne.gov.uk,-0.04363200000000,EN8 8DY,2014-06-09,fhrs_4_en-GB,4,,FHRS,10
7557,,,,,Treat Me Cup Cakes,Other catering premises,7841,5,,456533,0,,,PI/000051195,155,envhealth@broxbourne.gov.uk,Broxbourne,http://www.broxbourne.gov.uk,,,2012-06-06,fhrs_5_en-GB,5,,FHRS,0
7558,,,,,Tulip Bakes,Other catering premises,7841,0,,703667,0,,,PI/000054329,155,envhealth@broxbourne.gov.uk,Broxbourne,http://www.broxbourne.gov.uk,,,2014-09-12,fhrs_5_en-GB,5,,FHRS,0
7559,Newsprinters( Broxbourne) Ltd,Great Eastern Road,Waltham Cross,Hertfordshire,Turner FM,Restaurant/Cafe/Canteen,1,0,,178721,0,,51.68561600000000,PI/000049731,155,envhealth@broxbourne.gov.uk,Broxbourne,http://www.broxbourne.gov.uk,-0.04363200000000,EN8 8DY,2014-04-03,fhrs_5_en-GB,5,,FHRS,0
7560,10 Lynton Parade Turners Hill,Cheshunt,Hertfordshire,,Turners Hill Cafe,Restaurant/Cafe/Canteen,1,5,,307944,5,,51.70106500000000,PI/000050789,155,envhealth@broxbourne.gov.uk,Broxbourne,http://www.broxbourne.gov.uk,-0.03399400000000,EN8 8LF,2013-09-12,fhrs_5_en-GB,5,,FHRS,0
7561,5 Newnham Parade,Cheshunt,Hertfordshire,,Turners Hill Post Office,Retailers - other,4613,10,,558345,5,,51.70242900000000,PI/000009613,155,envhealth@broxbourne.gov.uk,Broxbourne,http://www.broxbourne.gov.uk,-0.03539600000000,EN8 9NU,2013-06-03,fhrs_4_en-GB,4,,FHRS,5
7562,Mill Lane,Cheshunt,Hertfordshire,,Turnford School,School/college/university,7845,0,,170572,5,,51.71184500000000,PI/000017944,155,envhealth@broxbourne.gov.uk,Broxbourne,http://www.broxbourne.gov.uk,-0.02634600000000,EN8 0JU,2013-11-25,fhrs_5_en-GB,5,,FHRS,5
7563,12 Turnford Cottages,High Road,Turnford,Hertfordshire,Turnford Store,Retailers - other,4613,10,,647018,5,,51.72256700000000,PI/000053989,155,envhealth@broxbourne.gov.uk,Broxbourne,http://www.broxbourne.gov.uk,-0.02547400000000,EN10 6AN,2014-09-24,fhrs_4_en-GB,4,,FHRS,5
7564,21 High Street,Cheshunt,Hertfordshire,,Tuti Fruity,Takeaway/sandwich shop,7844,0,,178313,5,,51.70857000000000,PI/000046336,155,envhealth@broxbourne.gov.uk,Broxbourne,http://www.broxbourne.gov.uk,-0.03748900000000,EN8 0BX,2014-10-23,fhrs_5_en-GB,5,,FHRS,5
7565,28 Flamstead End Road,Cheshunt,Hertfordshire,,Ukranian Social Club,Pub/bar/nightclub,7843,5,,163143,5,,51.71166100000000,PI/000004254,155,envhealth@broxbourne.gov.uk,Broxbourne,http://www.broxbourne.gov.uk,-0.04979000000000,EN8 0HT,2013-10-04,fhrs_4_en-GB,4,,FHRS,10
7566,Mill Lane,Broxbourne,Hertfordshire,,United Reformed Church,Other catering premises,7841,,,172980,,,51.74484000000000,PI/000024611,155,envhealth@broxbourne.gov.uk,Broxbourne,http://www.broxbourne.gov.uk,-0.01901300000000,EN10 7BQ,2013-02-04,fhrs_exempt_en-GB,Exempt,,FHRS,
7567,188 Windmill Lane,Cheshunt,Hertfordshire,,USA Pizza & Kebab,Takeaway/sandwich shop,7844,10,,170083,5,,51.70284700000000,PI/000016564,155,envhealth@broxbourne.gov.uk,Broxbourne,http://www.broxbourne.gov.uk,-0.02545000000000,EN8 9AF,2014-01-20,fhrs_3_en-GB,3,,FHRS,10
7568,,,,,Utterly Fluttery,Retailers - other,4613,0,,612723,0,,,PI/000053879,155,envhealth@broxbourne.gov.uk,Broxbourne,http://www.broxbourne.gov.uk,,,2013-11-28,fhrs_5_en-GB,5,,FHRS,0
7569,249 High Street,Waltham Cross,Hertfordshire,,Venus Off Licence,Retailers - other,4613,,,177505,,,51.69122500000000,PI/000042485,155,envhealth@broxbourne.gov.uk,Broxbourne,http://www.broxbourne.gov.uk,-0.03437700000000,EN8 7BE,2014-01-15,fhrs_exempt_en-GB,Exempt,,FHRS,
7570,,,,,Vicsylcakes,Retailers - other,4613,5,,187508,0,,,PI/000050791,155,envhealth@broxbourne.gov.uk,Broxbourne,http://www.broxbourne.gov.uk,,,2014-09-03,fhrs_5_en-GB,5,,FHRS,0
7571,Fitzpatrick Contractors Ltd,Hertford Road,Hoddesdon,Hertfordshire,Volker Fitzpatrick Ltd,Restaurant/Cafe/Canteen,1,5,,168024,0,,51.77017800000000,PI/000012448,155,envhealth@broxbourne.gov.uk,Broxbourne,http://www.broxbourne.gov.uk,-0.03277400000000,EN11 9BX,2014-03-13,fhrs_5_en-GB,5,,FHRS,0
7572,71 The Pavilion,High Street,Waltham Cross,Hertfordshire,W H Smith,Retailers - other,4613,,,169056,,,51.68651300000000,PI/000014374,155,envhealth@broxbourne.gov.uk,Broxbourne,http://www.broxbourne.gov.uk,-0.03220800000000,EN8 7BZ,2013-08-06,fhrs_exempt_en-GB,Exempt,,FHRS,
7573,"Convenience Store, Petrol Filling Station",197 High Road,Broxbourne,Hertfordshire,Waitrose,Retailers - other,4613,0,,732888,0,,51.73796900000000,PI/000054370,155,envhealth@broxbourne.gov.uk,Broxbourne,http://www.broxbourne.gov.uk,-0.02212300000000,EN10 6PY,2015-01-09,fhrs_5_en-GB,5,,FHRS,0
7574,243 High Street,Waltham Cross,Hertfordshire,,Waltham Cross News Market,Retailers - other,4613,10,,163395,0,,51.69122500000000,PI/000004633,155,envhealth@broxbourne.gov.uk,Broxbourne,http://www.broxbourne.gov.uk,-0.03437700000000,EN8 7BE,2014-10-03,fhrs_4_en-GB,4,,FHRS,5
7575,117 Eleanor Cross Road,Waltham Cross,Hertfordshire,,Waltham Cross Petroleum (Jet) PFS,Retailers - other,4613,10,,168908,5,,51.68604400000000,PI/000014081,155,envhealth@broxbourne.gov.uk,Broxbourne,http://www.broxbourne.gov.uk,-0.02142100000000,EN8 7NJ,2014-12-10,fhrs_4_en-GB,4,,FHRS,5
7576,Stanhope Road,Waltham Cross,Hertfordshire,,Waltham Cross Youth Centre,Restaurant/Cafe/Canteen,1,5,,178338,0,,51.68801300000000,PI/000046440,155,envhealth@broxbourne.gov.uk,Broxbourne,http://www.broxbourne.gov.uk,-0.03208500000000,EN8 7DJ,2013-07-29,fhrs_5_en-GB,5,,FHRS,0
7577,40 Christian Close,Hoddesdon,Hertfordshire,,Ware Cross Pharmacy,Retailers - other,4613,,,178242,,,51.77684500000000,PI/000046003,155,envhealth@broxbourne.gov.uk,Broxbourne,http://www.broxbourne.gov.uk,-0.01585700000000,EN11 9FF,2013-08-08,fhrs_exempt_en-GB,Exempt,,FHRS,
7578,88 High Street,Cheshunt,Hertfordshire,,Wathany News,Retailers - other,4613,5,,167835,0,,51.71018200000000,PI/000012167,155,envhealth@broxbourne.gov.uk,Broxbourne,http://www.broxbourne.gov.uk,-0.03445200000000,EN8 0AJ,2015-01-16,fhrs_4_en-GB,4,,FHRS,10
7579,,,,,Wearecakes.co.uk,Other catering premises,7841,0,,585854,0,,,PI/000023184,155,envhealth@broxbourne.gov.uk,Broxbourne,http://www.broxbourne.gov.uk,,,2013-09-09,fhrs_5_en-GB,5,,FHRS,0
7580,Westfield Community Primary School,Westfield Road,Hoddesdon,Hertfordshire,Westfield Jmi School,School/college/university,7845,0,,177581,0,,51.76509700000000,PI/000042740,155,envhealth@broxbourne.gov.uk,Broxbourne,http://www.broxbourne.gov.uk,-0.01831500000000,EN11 8RA,2014-07-21,fhrs_5_en-GB,5,,FHRS,5
7581,Westfield Community Primary School,Westfield Road,Hoddesdon,Hertfordshire,Westfield Pre-School,Hospitals/Childcare/Caring Premises,5,0,,178645,0,,51.76509700000000,PI/000049189,155,envhealth@broxbourne.gov.uk,Broxbourne,http://www.broxbourne.gov.uk,-0.01831500000000,EN11 8RA,2014-05-20,fhrs_5_en-GB,5,,FHRS,0
7582,46 High Street,Cheshunt,Hertfordshire,,Whistle Stop Cafe,Restaurant/Cafe/Canteen,1,5,,166701,0,,51.70949700000000,PI/000010015,155,envhealth@broxbourne.gov.uk,Broxbourne,http://www.broxbourne.gov.uk,-0.03592900000000,EN8 0AQ,2014-07-17,fhrs_5_en-GB,5,,FHRS,5
7583,Whit Hern Park,Churchgate,Cheshunt,Hertfordshire,Whit Hern Park Bowls Club,Other catering premises,7841,5,,176917,0,,,PI/000039800,155,envhealth@broxbourne.gov.uk,Broxbourne,http://www.broxbourne.gov.uk,,EN8 9XA,2013-08-05,fhrs_5_en-GB,5,,FHRS,0
7584,76 High Street,Cheshunt,Hertfordshire,,Whitefields Chemist,Retailers - other,4613,,,166683,,,51.71018200000000,PI/000009998,155,envhealth@broxbourne.gov.uk,Broxbourne,http://www.broxbourne.gov.uk,-0.03445200000000,EN8 0AJ,2014-08-27,fhrs_exempt_en-GB,Exempt,,FHRS,
7585,107 Whitefields Road,Cheshunt,Hertfordshire,,Whitefields Newsagents,Retailers - other,4613,,,167836,,,51.71082300000000,PI/000012168,155,envhealth@broxbourne.gov.uk,Broxbourne,http://www.broxbourne.gov.uk,-0.04373200000000,EN8 0EL,2014-10-27,fhrs_exempt_en-GB,Exempt,,FHRS,
7586,Sturlas Way,Waltham Cross,Hertfordshire,,Wickes Building Supplies Ltd,Other catering premises,7841,,,708229,,,51.68867100000000,PI/000045067,155,envhealth@broxbourne.gov.uk,Broxbourne,http://www.broxbourne.gov.uk,-0.03544200000000,EN8 7BF,2014-10-06,fhrs_exempt_en-GB,Exempt,,FHRS,
7587,5-6 The Precinct,High Road,Broxbourne,Hertfordshire,William Hill Bookmakers,Other catering premises,7841,,,177617,,,51.74757800000000,PI/000042872,155,envhealth@broxbourne.gov.uk,Broxbourne,http://www.broxbourne.gov.uk,-0.01870500000000,EN10 7HY,2012-02-10,fhrs_exempt_en-GB,Exempt,,FHRS,
7588,6 Lynton Parade Turners Hill,Cheshunt,Hertfordshire,,Wimpy,Restaurant/Cafe/Canteen,1,5,,165544,5,,51.70106500000000,PI/000008166,155,envhealth@broxbourne.gov.uk,Broxbourne,http://www.broxbourne.gov.uk,-0.03399400000000,EN8 8LF,2014-02-12,fhrs_4_en-GB,4,,FHRS,10
7589,4 Windmill Lane,Cheshunt,Hertfordshire,,Windmill Cafe,Restaurant/Cafe/Canteen,1,0,,170063,5,,51.70242900000000,PI/000016519,155,envhealth@broxbourne.gov.uk,Broxbourne,http://www.broxbourne.gov.uk,-0.03377500000000,EN8 9AA,2014-01-13,fhrs_5_en-GB,5,,FHRS,5
7590,119 Crossbrook Street,Cheshunt,Hertfordshire,,Wing House,Takeaway/sandwich shop,7844,10,,164647,5,,51.69660200000000,PI/000006686,155,envhealth@broxbourne.gov.uk,Broxbourne,http://www.broxbourne.gov.uk,-0.03489600000000,EN8 8LY,2013-06-12,fhrs_4_en-GB,4,,FHRS,5
7591,2 Fawkon Walk,Hoddesdon,Hertfordshire,,Wok-U-Like,Takeaway/sandwich shop,7844,5,,174547,10,,51.76022000000000,PI/000029400,155,envhealth@broxbourne.gov.uk,Broxbourne,http://www.broxbourne.gov.uk,-0.01279000000000,EN11 8TJ,2014-12-16,fhrs_4_en-GB,4,,FHRS,5
7592,Windmill Lane,Cheshunt,Hertfordshire,,Wolsey Hall,Other catering premises,7841,0,,166494,0,,51.70242900000000,PI/000009665,155,envhealth@broxbourne.gov.uk,Broxbourne,http://www.broxbourne.gov.uk,-0.03377500000000,EN8 9AA,2013-11-08,fhrs_4_en-GB,4,,FHRS,10
7593,Woodland Lodge,Cottage Farm,Goose Green Lord Street,Hoddesdon,Woodlands Lodge (B&B),Hotel/bed & breakfast/guest house,7842,10,,509927,5,,51.76360100000000,PI/000046982,155,envhealth@broxbourne.gov.uk,Broxbourne,http://www.broxbourne.gov.uk,-0.04275500000000,EN11 8SN,2014-10-27,fhrs_4_en-GB,4,,FHRS,5
7594,Hammond Street Post Office,192 Hammondstreet Road,Cheshunt,Hertfordshire,Woodman Stores,Retailers - other,4613,,,176315,,,51.72085300000000,PI/000036470,155,envhealth@broxbourne.gov.uk,Broxbourne,http://www.broxbourne.gov.uk,-0.07390600000000,EN7 6PA,2013-07-17,fhrs_exempt_en-GB,Exempt,,FHRS,
7595,Jones Road,Goffs Oak,Hertfordshire,,Woodside Primary School,School/college/university,7845,0,,177582,5,,51.70812700000000,PI/000042741,155,envhealth@broxbourne.gov.uk,Broxbourne,http://www.broxbourne.gov.uk,-0.09141000000000,EN7 5JS,2013-04-30,fhrs_5_en-GB,5,,FHRS,0
7596,Cozens Lane East,Wormley,Hertfordshire,,Wormley C of E Primary School,School/college/university,7845,0,,177570,0,,51.73689000000000,PI/000042728,155,envhealth@broxbourne.gov.uk,Broxbourne,http://www.broxbourne.gov.uk,-0.01897000000000,EN10 6QA,2013-06-11,fhrs_5_en-GB,5,,FHRS,5
7597,Fairfield Drive,Wormley,Hertfordshire,,Wormley Community Centre,Other catering premises,7841,0,,172552,5,,51.73034200000000,PI/000023419,155,envhealth@broxbourne.gov.uk,Broxbourne,http://www.broxbourne.gov.uk,-0.02367300000000,EN10 6DX,2013-03-18,fhrs_4_en-GB,4,,FHRS,10
7598,25 High Road,Wormley,Hertfordshire,,Wormley Medical & Croft Pharmacy,Retailers - other,4613,,,172561,,,51.73364400000000,PI/000023434,155,envhealth@broxbourne.gov.uk,Broxbourne,http://www.broxbourne.gov.uk,-0.02321000000000,EN10 6HT,2013-10-07,fhrs_exempt_en-GB,Exempt,,FHRS,
7599,55 High Road,Wormley,Hertfordshire,,Wormley News,Retailers - other,4613,,,172555,,,51.73364400000000,PI/000023425,155,envhealth@broxbourne.gov.uk,Broxbourne,http://www.broxbourne.gov.uk,-0.02321000000000,EN10 6HT,2012-06-15,fhrs_exempt_en-GB,Exempt,,FHRS,
7600,Bushby Hall,Wharf Road,Wormley,Hertfordshire,Wormley Over 60's Centre,Other catering premises,7841,5,,172373,5,,51.73227500000000,PI/000022995,155,envhealth@broxbourne.gov.uk,Broxbourne,http://www.broxbourne.gov.uk,-0.02205300000000,EN10 6HX,2014-03-24,fhrs_5_en-GB,5,,FHRS,5
7601,Church Lane,Wormley,Hertfordshire,,Wormley Sports Club,Pub/bar/nightclub,7843,0,,176586,10,,51.73437300000000,PI/000037959,155,envhealth@broxbourne.gov.uk,Broxbourne,http://www.broxbourne.gov.uk,-0.03826900000000,EN10 7QE,2012-09-14,fhrs_4_en-GB,4,,FHRS,5
7602,51 High Road,Wormley,Hertfordshire,,Wormley Stores Fish Bar,Takeaway/sandwich shop,7844,5,,172560,0,,51.73364400000000,PI/000023431,155,envhealth@broxbourne.gov.uk,Broxbourne,http://www.broxbourne.gov.uk,-0.02321000000000,EN10 6HT,2014-12-16,fhrs_5_en-GB,5,,FHRS,5
7603,I T T Jabsco,Bingley Road,Hoddesdon,Hertfordshire,Xylem (Connect Catering),Restaurant/Cafe/Canteen,1,0,,176026,5,,51.75940200000000,PI/000035089,155,envhealth@broxbourne.gov.uk,Broxbourne,http://www.broxbourne.gov.uk,-0.00007400000000,EN11 0BU,2014-08-13,fhrs_5_en-GB,5,,FHRS,5
7604,Windmill Lane,Cheshunt,Hertfordshire,,YHA Lea Valley Youth Hostel,Hotel/bed & breakfast/guest house,7842,0,,177090,5,,51.70305500000000,PI/000040723,155,envhealth@broxbourne.gov.uk,Broxbourne,http://www.broxbourne.gov.uk,-0.02340000000000,EN8 9AJ,2014-09-03,fhrs_5_en-GB,5,,FHRS,0
7605,88-90 Turners Hill,Cheshunt,Hertfordshire,,Yilmaz Food Centre,Retailers - other,4613,10,,178637,10,,51.70187500000000,PI/000049070,155,envhealth@broxbourne.gov.uk,Broxbourne,http://www.broxbourne.gov.uk,-0.03398700000000,EN8 8LQ,2014-06-30,fhrs_3_en-GB,3,,FHRS,10
7606,17 Rye Road,Hoddesdon,Hertfordshire,,Yogi News,Retailers - other,4613,10,,176199,5,,51.76799600000000,PI/000035839,155,envhealth@broxbourne.gov.uk,Broxbourne,http://www.broxbourne.gov.uk,0.00217600000000,EN11 0JD,2014-12-18,fhrs_3_en-GB,3,,FHRS,10
7607,Flamstead End School,Longfield Lane,Cheshunt,Hertfordshire,Young Generation,School/college/university,7845,5,,636128,5,,51.71579300000000,PI/000053810,155,envhealth@broxbourne.gov.uk,Broxbourne,http://www.broxbourne.gov.uk,-0.05714000000000,EN7 6AG,2013-09-05,fhrs_5_en-GB,5,,FHRS,0
7608,,,,,Yours Truly,Retailers - other,4613,5,,216319,0,,,PI/000050746,155,envhealth@broxbourne.gov.uk,Broxbourne,http://www.broxbourne.gov.uk,,,2012-02-22,fhrs_5_en-GB,5,,FHRS,5
7609,Food Mobile,Wickes Building Supplies Ltd,Sturlas Way,Waltham Cross,Yum Yums,Takeaway/sandwich shop,7844,5,,307951,10,,51.68867100000000,PI/000050970,155,envhealth@broxbourne.gov.uk,Broxbourne,http://www.broxbourne.gov.uk,-0.03544200000000,EN8 7BF,2014-01-06,fhrs_3_en-GB,3,,FHRS,10
7610,109-111 High Street,Hoddesdon,Hertfordshire,,Zagara Ristorante,Restaurant/Cafe/Canteen,1,5,,177264,0,,51.76155600000000,PI/000041311,155,envhealth@broxbourne.gov.uk,Broxbourne,http://www.broxbourne.gov.uk,-0.01203600000000,EN11 8TN,2013-06-20,fhrs_5_en-GB,5,,FHRS,0
7611,59A High Street,Waltham Cross,Hertfordshire,,Zara Indian Restaurant,Restaurant/Cafe/Canteen,1,5,,623603,5,,51.68407800000000,PI/000053783,155,envhealth@broxbourne.gov.uk,Broxbourne,http://www.broxbourne.gov.uk,-0.03341300000000,EN8 7AE,2014-01-08,fhrs_5_en-GB,5,,FHRS,5
