,addressline1,addressline2,addressline3,addressline4,businessname,businesstype,businesstypeid,confidenceinmanagement,extractdate,fhrsid,hygiene,itemcount,latitude,localauthoritybusinessid,localauthoritycode,localauthorityemailaddress,localauthorityname,localauthoritywebsite,longitude,postcode,ratingdate,ratingkey,ratingvalue,returncode,schemetype,structural
38385,,,,,148 Denham Way,Other catering premises,7841,5,,323835,5,,,PI/000005548,162,enquiries@Threerivers.gov.uk,Three Rivers,http://www.threerivers.gov.uk,,,2011-06-10,fhrs_4_en-GB,4,,FHRS,10
38386,,,,,50 Dickinson Square,Other catering premises,7841,5,,323893,5,,,PI/000012351,162,enquiries@Threerivers.gov.uk,Three Rivers,http://www.threerivers.gov.uk,,,2011-06-21,fhrs_5_en-GB,5,,FHRS,5
38387,9 Tudor Parade,Rickmansworth,Hertfordshire,,A - Z Convenience,Retailers - other,4613,5,,324291,5,,51.64104000000000,PI/000064154,162,enquiries@Threerivers.gov.uk,Three Rivers,http://www.threerivers.gov.uk,-0.49157900000000,WD3 4DF,2013-11-22,fhrs_4_en-GB,4,,FHRS,10
38388,Abbots Tandoori,Langley Road,Abbots Langley,Hertfordshire,Abbots Tandoori Restaurant,Restaurant/Cafe/Canteen,1,5,,323868,0,,51.70570100000000,PI/000009053,162,enquiries@Threerivers.gov.uk,Three Rivers,http://www.threerivers.gov.uk,-0.41712400000000,WD5 0AB,2014-07-31,fhrs_5_en-GB,5,,FHRS,5
38389,Nissan Renault,5 Wolsey Business Park,Tolpits Lane,Rickmansworth,Alliance Training Centre,Restaurant/Cafe/Canteen,1,0,,324002,0,,51.64074800000000,PI/000025977,162,enquiries@Threerivers.gov.uk,Three Rivers,http://www.threerivers.gov.uk,-0.42953200000000,WD18 9BL,2013-05-22,fhrs_5_en-GB,5,,FHRS,5
38390,,,,,Anna's Kitchen,Other catering premises,7841,,,696049,,,,PI/000046007,162,enquiries@Threerivers.gov.uk,Three Rivers,http://www.threerivers.gov.uk,,,2014-07-31,fhrs_exempt_en-GB,Exempt,,FHRS,
38391,8 Chalfont Road,Maple Cross,Hertfordshire,,Annies,Takeaway/sandwich shop,7844,5,,323862,5,,51.62449300000000,PI/000008471,162,enquiries@Threerivers.gov.uk,Three Rivers,http://www.threerivers.gov.uk,-0.50976700000000,WD3 9RP,2013-05-15,fhrs_5_en-GB,5,,FHRS,5
38392,Anns Pantry,Station Approach,Rickmansworth,Hertfordshire,Anns Pantry Ltd,Restaurant/Cafe/Canteen,1,5,,324042,0,,51.64033200000000,PI/000030554,162,enquiries@Threerivers.gov.uk,Three Rivers,http://www.threerivers.gov.uk,-0.47369700000000,WD3 1QY,2013-05-22,fhrs_5_en-GB,5,,FHRS,5
38393,31 Upper Highway,Abbots Langley,Hertfordshire,,Arden House Nursing Home,Hospitals/Childcare/Caring Premises,5,5,,324005,5,,51.69599300000000,PI/000026180,162,enquiries@Threerivers.gov.uk,Three Rivers,http://www.threerivers.gov.uk,-0.43074600000000,WD4 8PP,2014-01-23,fhrs_5_en-GB,5,,FHRS,5
38394,Shop 1 And Flat 3,1 Katherine Place,Abbots Langley,Hertfordshire,Aroma Kitchen,Restaurant/Cafe/Canteen,1,10,,323964,5,,51.70091800000000,PI/000021558,162,enquiries@Threerivers.gov.uk,Three Rivers,http://www.threerivers.gov.uk,-0.40389100000000,WD5 0BT,2013-09-26,fhrs_3_en-GB,3,,FHRS,10
38395,Oxhey Lane,Carpenders Park,Hertfordshire,,Auburn Mere,Hospitals/Childcare/Caring Premises,5,5,,324256,5,,51.63653200000000,PI/000058488,162,enquiries@Threerivers.gov.uk,Three Rivers,http://www.threerivers.gov.uk,-0.37931700000000,WD19 5RE,2014-12-11,fhrs_5_en-GB,5,,FHRS,5
38396,Eurest Catering Services,1-3 Hercules Way,Leavesden,Hertfordshire,B T Global,Restaurant/Cafe/Canteen,1,5,,323917,5,,51.69332300000000,PI/000014944,162,enquiries@Threerivers.gov.uk,Three Rivers,http://www.threerivers.gov.uk,-0.41405500000000,WD25 7GR,2014-11-11,fhrs_5_en-GB,5,,FHRS,5
38397,4,Katherine Place,College Road,Abbots Langley,Barkers Fish And Chips Takeaway,Takeaway/sandwich shop,7844,5,,324205,5,,51.70091800000000,PI/000052243,162,enquiries@Threerivers.gov.uk,Three Rivers,http://www.threerivers.gov.uk,-0.40389100000000,WD5 0BT,2014-11-28,fhrs_4_en-GB,4,,FHRS,10
38398,57 High Street,Bedmond,Hertfordshire,,Bartholomew,Retailers - other,4613,10,,324028,5,,51.72109800000000,PI/000028925,162,enquiries@Threerivers.gov.uk,Three Rivers,http://www.threerivers.gov.uk,-0.41068000000000,WD5 0QP,2013-08-19,fhrs_4_en-GB,4,,FHRS,5
38399,London Road,Rickmansworth,Hertfordshire,,Batchworth Park Golf Club,Pub/bar/nightclub,7843,5,,324236,5,,51.62913700000000,PI/000056379,162,enquiries@Threerivers.gov.uk,Three Rivers,http://www.threerivers.gov.uk,-0.46127200000000,WD3 1JS,2013-09-03,fhrs_4_en-GB,4,,FHRS,10
38400,Maple Cross House,Denham Way,Maple Cross,Hertfordshire,Baxter Storey,Restaurant/Cafe/Canteen,1,5,,324321,5,,51.62521600000000,PI/000066912,162,enquiries@Threerivers.gov.uk,Three Rivers,http://www.threerivers.gov.uk,-0.50720100000000,WD3 9SW,2014-07-30,fhrs_5_en-GB,5,,FHRS,5
38401,,,,,Beacon Way Residential Home,Hospitals/Childcare/Caring Premises,5,10,,323810,5,,,PI/000000964,162,enquiries@Threerivers.gov.uk,Three Rivers,http://www.threerivers.gov.uk,,,2013-10-24,fhrs_4_en-GB,4,,FHRS,5
38402,William Penn Leisure Centre,Shepherds Lane,Rickmansworth,Hertfordshire,Beaumont Cafe,Restaurant/Cafe/Canteen,1,0,,324318,0,,51.63917700000000,PI/000066902,162,enquiries@Threerivers.gov.uk,Three Rivers,http://www.threerivers.gov.uk,-0.49847600000000,WD3 8JN,2013-06-11,fhrs_5_en-GB,5,,FHRS,5
38403,Former Fmbra Premises,Rickmansworth Road,Chorleywood,Hertfordshire,"Beaumont, Barchester Health Care",Hospitals/Childcare/Caring Premises,5,5,,324182,5,,51.65978400000000,PI/000050014,162,enquiries@Threerivers.gov.uk,Three Rivers,http://www.threerivers.gov.uk,-0.50464800000000,WD3 5BY,2014-06-03,fhrs_4_en-GB,4,,FHRS,10
38404,61 High Street,Bedmond,Hertfordshire,,Bedmond Stores,Retailers - other,4613,20,,324279,5,,51.72109800000000,PI/000061821,162,enquiries@Threerivers.gov.uk,Three Rivers,http://www.threerivers.gov.uk,-0.41068000000000,WD5 0QP,2013-06-05,fhrs_1_en-GB,1,,FHRS,10
38405,5,The Parade,Prestwick Road,South Oxhey,Blue Lagoona,Restaurant/Cafe/Canteen,1,10,,323873,10,,51.62782200000000,PI/000010181,162,enquiries@Threerivers.gov.uk,Three Rivers,http://www.threerivers.gov.uk,-0.38740100000000,WD19 7ED,2014-12-07,fhrs_3_en-GB,3,,FHRS,5
38406,11,The Parade,Prestwick Road,South Oxhey,Boston Chicken Takeaway,Takeaway/sandwich shop,7844,5,,323937,5,,51.62782200000000,PI/000018356,162,enquiries@Threerivers.gov.uk,Three Rivers,http://www.threerivers.gov.uk,-0.38740100000000,WD19 7ED,2014-05-27,fhrs_4_en-GB,4,,FHRS,10
38407,30 Little Oxhey Lane,South Oxhey,Hertfordshire,,Boston Peri Peri Chicken,Takeaway/sandwich shop,7844,5,,324549,5,,51.61930900000000,PI/000065923,162,enquiries@Threerivers.gov.uk,Three Rivers,http://www.threerivers.gov.uk,-0.38566600000000,WD19 6FR,2013-08-20,fhrs_5_en-GB,5,,FHRS,5
38408,212-213 Boundary Way,Garston,Hertfordshire,,Boundary Way Stores,Retailers - other,4613,10,,324225,10,,51.70010000000000,PI/000054842,162,enquiries@Threerivers.gov.uk,Three Rivers,http://www.threerivers.gov.uk,-0.39396400000000,WD25 7SU,2014-11-06,fhrs_3_en-GB,3,,FHRS,10
38409,Greville House,Chorleywood Close,Rickmansworth,Hertfordshire,Boys & Girls Nursery (Rickmansworth),Hospitals/Childcare/Caring Premises,5,5,,718711,5,,51.64207500000000,PI/000059565,162,enquiries@Threerivers.gov.uk,Three Rivers,http://www.threerivers.gov.uk,-0.47426000000000,WD3 4EG,2014-10-15,fhrs_5_en-GB,5,,FHRS,0
38410,Unit 5,Marlins House,Marlins Meadow,Watford,Boys & Girls Nursery Croxley Grn Ltd,Hospitals/Childcare/Caring Premises,5,5,,492470,5,,51.64644100000000,PI/000041929,162,enquiries@Threerivers.gov.uk,Three Rivers,http://www.threerivers.gov.uk,-0.42829500000000,WD18 8YA,2014-12-23,fhrs_5_en-GB,5,,FHRS,5
38411,B P Service Station,283-289 Uxbridge Road,Rickmansworth,Hertfordshire,BP  Oil Uk Ltd,Retailers - other,4613,0,,323833,0,,51.63401700000000,PI/000005276,162,enquiries@Threerivers.gov.uk,Three Rivers,http://www.threerivers.gov.uk,-0.49015000000000,WD3 8DS,2013-06-11,fhrs_5_en-GB,5,,FHRS,5
38412,Abbots Langley,Hertfordshire,,,Breakspeare Community Pre-School,Hospitals/Childcare/Caring Premises,5,0,,324548,0,,51.69841384887695,PI/000065920,162,enquiries@Threerivers.gov.uk,Three Rivers,http://www.threerivers.gov.uk,-0.42364436388016,WD5 0LB,2013-09-04,fhrs_5_en-GB,5,,FHRS,5
38413,18 Hallowes Crescent,South Oxhey,Hertfordshire,,Brothers Cafe,Restaurant/Cafe/Canteen,1,20,,324324,20,,51.62892300000000,PI/000066915,162,enquiries@Threerivers.gov.uk,Three Rivers,http://www.threerivers.gov.uk,-0.40878900000000,WD19 7NT,2014-08-12,fhrs_0_en-GB,0,,FHRS,20
38414,122 High Street,Rickmansworth,Hertfordshire,,Brown Sugar,Retailers - other,4613,,,323923,,,51.63936500000000,PI/000015783,162,enquiries@Threerivers.gov.uk,Three Rivers,http://www.threerivers.gov.uk,-0.47258800000000,WD3 1AB,2014-08-29,fhrs_3_en-GB,3,,FHRS,
38415,16-18 Lower Road,Chorleywood,Hertfordshire,,Budgens Stores Ltd,Retailers - supermarkets/hypermarkets,7840,10,,324287,10,,51.65406400000000,PI/000063502,162,enquiries@Threerivers.gov.uk,Three Rivers,http://www.threerivers.gov.uk,-0.52013100000000,WD3 5LH,2014-10-28,fhrs_3_en-GB,3,,FHRS,10
38416,North Hill,Chorleywood,Hertfordshire,,Bullscroft Farm,Farmers/growers,7838,,,323872,,,51.66175500000000,PI/000009969,162,enquiries@Threerivers.gov.uk,Three Rivers,http://www.threerivers.gov.uk,-0.51111900000000,WD3 5LY,2012-07-16,fhrs_exempt_en-GB,Exempt,,FHRS,
38417,37-39 Station Road,Rickmansworth,Hertfordshire,,Buon Cibo,Restaurant/Cafe/Canteen,1,5,,323935,5,,51.63947600000000,PI/000018084,162,enquiries@Threerivers.gov.uk,Three Rivers,http://www.threerivers.gov.uk,-0.47213600000000,WD3 1QP,2014-08-12,fhrs_4_en-GB,4,,FHRS,10
38418,Erskine Hall Nursing Home,Watford Road,Northwood,Hertfordshire,BUPA,Hospitals/Childcare/Caring Premises,5,0,,323961,0,,51.61400400000000,PI/000021035,162,enquiries@Threerivers.gov.uk,Three Rivers,http://www.threerivers.gov.uk,-0.41139000000000,HA6 3PA,2015-01-20,fhrs_5_en-GB,5,,FHRS,5
38419,Burford House,Rickmansworth Road,Chorleywood,Hertfordshire,Burford House Residential Home,Hospitals/Childcare/Caring Premises,5,10,,324216,5,,51.65844700000000,PI/000054118,162,enquiries@Threerivers.gov.uk,Three Rivers,http://www.threerivers.gov.uk,-0.50198900000000,WD3 5SQ,2014-06-09,fhrs_3_en-GB,3,,FHRS,10
38420,175 New Road,Croxley Green,Hertfordshire,,Butler & Sons Butchers,Retailers - other,4613,10,,701268,0,,51.64845700000000,PI/000068719,162,enquiries@Threerivers.gov.uk,Three Rivers,http://www.threerivers.gov.uk,-0.44734800000000,WD3 3HB,2014-09-08,fhrs_4_en-GB,4,,FHRS,10
38421,,,,,Butterpots,Other catering premises,7841,5,,324227,5,,,PI/000055152,162,enquiries@Threerivers.gov.uk,Three Rivers,http://www.threerivers.gov.uk,,,2010-10-25,fhrs_5_en-GB,5,,FHRS,5
38422,53 Baldwins Lane,Croxley Green,Hertfordshire,,Cafe Amici,Restaurant/Cafe/Canteen,1,0,,323997,0,,51.65216400000000,PI/000025666,162,enquiries@Threerivers.gov.uk,Three Rivers,http://www.threerivers.gov.uk,-0.43265100000000,WD3 3LS,2013-06-10,fhrs_5_en-GB,5,,FHRS,5
38423,14 Main Avenue,Moor Park,Hertfordshire,,Cafe Loco,Restaurant/Cafe/Canteen,1,5,,324025,5,,51.62960500000000,PI/000028644,162,enquiries@Threerivers.gov.uk,Three Rivers,http://www.threerivers.gov.uk,-0.43409300000000,HA6 2HJ,2014-07-31,fhrs_5_en-GB,5,,FHRS,5
38424,99 Church Street,Rickmansworth,Hertfordshire,,Cafe@Lock81,Restaurant/Cafe/Canteen,1,,,324263,,,51.63574600000000,PI/000058966,162,enquiries@Threerivers.gov.uk,Three Rivers,http://www.threerivers.gov.uk,-0.46536900000000,WD3 1JJ,2014-10-31,fhrs_3_en-GB,3,,FHRS,
38425,80 High Street,Rickmansworth,Hertfordshire,,Caffe Nero,Restaurant/Cafe/Canteen,1,0,,324141,0,,51.63929200000000,PI/000044348,162,enquiries@Threerivers.gov.uk,Three Rivers,http://www.threerivers.gov.uk,-0.47114500000000,WD3 1AQ,2013-06-17,fhrs_5_en-GB,5,,FHRS,5
38426,Avalon House,6 Wolsey Business Park,Watford,Hertfordshire,Camelot,Other catering premises,7841,0,,720064,0,,51.64074800000000,PI/000057515,162,enquiries@Threerivers.gov.uk,Three Rivers,http://www.threerivers.gov.uk,-0.42953200000000,WD18 9BL,2014-11-18,fhrs_5_en-GB,5,,FHRS,0
38427,2 Magdalene House,Wolsey Business Park,Tolpits Lane,Rickmansworth,Camelot (UK) Lotteries Ltd,Restaurant/Cafe/Canteen,1,5,,324151,5,,51.64026600000000,PI/000046416,162,enquiries@Threerivers.gov.uk,Three Rivers,http://www.threerivers.gov.uk,-0.42713600000000,WD18 9RN,2014-11-18,fhrs_5_en-GB,5,,FHRS,0
38428,6 The Parade,Watford,Hertfordshire,,Carpenders Park Convenience Store,Retailers - other,4613,0,,324070,0,,51.62816800000000,PI/000033181,162,enquiries@Threerivers.gov.uk,Three Rivers,http://www.threerivers.gov.uk,-0.38315500000000,WD19 5BL,2012-06-13,fhrs_5_en-GB,5,,FHRS,5
38429,Little Oxhey Lane,South Oxhey,Hertfordshire,,Carpenders Park Nursery,Restaurant/Cafe/Canteen,1,10,,323895,10,,51.62253200000000,PI/000012796,162,enquiries@Threerivers.gov.uk,Three Rivers,http://www.threerivers.gov.uk,-0.37032500000000,WD19 5BA,2014-11-25,fhrs_2_en-GB,2,,FHRS,15
38430,Commonwood,Sarratt,Hertfordshire,,Cart & Horses Public House,Pub/bar/nightclub,7843,10,,323975,10,,51.69187164306641,PI/000023296,162,enquiries@Threerivers.gov.uk,Three Rivers,http://www.threerivers.gov.uk,-0.48738706111908,WD4 9BA,2013-06-20,fhrs_2_en-GB,2,,FHRS,15
38431,Chorleywood Jmi School,Stag Lane,Chorleywood,Hertfordshire,Caterlink Ltd,School/college/university,7845,0,,323971,0,,51.64662100000000,PI/000022700,162,enquiries@Threerivers.gov.uk,Three Rivers,http://www.threerivers.gov.uk,-0.52323500000000,WD3 5HR,2013-06-03,fhrs_5_en-GB,5,,FHRS,5
38432,St Clement Danes School,Chenies Road,Chorleywood,Hertfordshire,Caterplus Services,School/college/university,7845,0,,324240,0,,51.66354600000000,PI/000057101,162,enquiries@Threerivers.gov.uk,Three Rivers,http://www.threerivers.gov.uk,-0.51408200000000,WD3 6EW,2013-06-03,fhrs_5_en-GB,5,,FHRS,5
38433,Staff Canteen,The Grove,Hempstead Road,Watford,CH&Co Ltd,Restaurant/Cafe/Canteen,1,0,,323912,0,,51.67729600000000,PI/000014353,162,enquiries@Threerivers.gov.uk,Three Rivers,http://www.threerivers.gov.uk,-0.43659900000000,WD3 4TG,2013-12-03,fhrs_5_en-GB,5,,FHRS,5
38434,Vocalink-Rickmansworth,Drake House,Homestead Road,Rickmansworth,CH&Co Ltd,Restaurant/Cafe/Canteen,1,5,,324300,0,,51.64068300000000,PI/000065778,162,enquiries@Threerivers.gov.uk,Three Rivers,http://www.threerivers.gov.uk,-0.47164700000000,WD3 1FX,2013-05-20,fhrs_5_en-GB,5,,FHRS,5
38435,Chalfont Court,Uxbridge Road,Rickmansworth,Hertfordshire,Chalfont Court Nursing Home,Hospitals/Childcare/Caring Premises,5,10,,324080,5,,51.63712000000000,PI/000034083,162,enquiries@Threerivers.gov.uk,Three Rivers,http://www.threerivers.gov.uk,-0.48189700000000,WD3 7AR,2015-01-16,fhrs_4_en-GB,4,,FHRS,5
38436,Charlotte House,88 The Drive,Rickmansworth,Hertfordshire,Charlotte House Prep School,School/college/university,7845,0,,324208,0,,51.64800300000000,PI/000052508,162,enquiries@Threerivers.gov.uk,Three Rivers,http://www.threerivers.gov.uk,-0.48069500000000,WD3 4DU,2014-11-27,fhrs_5_en-GB,5,,FHRS,0
38437,Woodlands (Ymca),College Road,Abbots Langley,Hertfordshire,Charters Childcare,Hospitals/Childcare/Caring Premises,5,5,,324234,5,,51.70521500000000,PI/000056321,162,enquiries@Threerivers.gov.uk,Three Rivers,http://www.threerivers.gov.uk,-0.40576600000000,WD5 0GE,2014-05-19,fhrs_5_en-GB,5,,FHRS,5
38438,Maple Lodge Close,Maple Cross,Hertfordshire,,Chiltern Sports & Social Club,Pub/bar/nightclub,7843,0,,324278,0,,51.62356700000000,PI/000061727,162,enquiries@Threerivers.gov.uk,Three Rivers,http://www.threerivers.gov.uk,-0.50695200000000,WD3 9SN,2013-09-06,fhrs_4_en-GB,4,,FHRS,10
38439,190 New Road,Croxley Green,Hertfordshire,,Chinese Gourmet Takeaway,Takeaway/sandwich shop,7844,10,,324167,10,,51.64804100000000,PI/000048075,162,enquiries@Threerivers.gov.uk,Three Rivers,http://www.threerivers.gov.uk,-0.44716000000000,WD3 3HD,2014-11-19,fhrs_3_en-GB,3,,FHRS,10
38440,11 New Parade,Chorleywood,Hertfordshire,,Chorley's Plaice Ltd,Takeaway/sandwich shop,7844,10,,456467,5,,51.65512100000000,PI/000014203,162,enquiries@Threerivers.gov.uk,Three Rivers,http://www.threerivers.gov.uk,-0.52197600000000,WD3 5NJ,2014-01-21,fhrs_4_en-GB,4,,FHRS,5
38441,Common Road,Chorleywood,Hertfordshire,,Chorleywood Golf Club,Pub/bar/nightclub,7843,5,,324235,5,,51.65481000000000,PI/000056330,162,enquiries@Threerivers.gov.uk,Three Rivers,http://www.threerivers.gov.uk,-0.51730200000000,WD3 5LN,2014-07-31,fhrs_5_en-GB,5,,FHRS,5
38442,White Horse Public House,Rickmansworth Road,Chorleywood,Hertfordshire,Chorleywood Inns Ltd,Pub/bar/nightclub,7843,10,,323899,10,,51.65693900000000,PI/000013086,162,enquiries@Threerivers.gov.uk,Three Rivers,http://www.threerivers.gov.uk,-0.50008700000000,WD3 5SD,2014-09-05,fhrs_3_en-GB,3,,FHRS,10
38443,113 High Street,Rickmansworth,Hertfordshire,,Chris Blake Butcher,Retailers - other,4613,5,,324297,5,,51.63872900000000,PI/000065067,162,enquiries@Threerivers.gov.uk,Three Rivers,http://www.threerivers.gov.uk,-0.47006600000000,WD3 1AN,2012-01-11,fhrs_5_en-GB,5,,FHRS,5
38444,9 Church Street,Rickmansworth,Hertfordshire,,Cinnamon Square,Restaurant/Cafe/Canteen,1,5,,324132,0,,51.63826400000000,PI/000042418,162,enquiries@Threerivers.gov.uk,Three Rivers,http://www.threerivers.gov.uk,-0.46889600000000,WD3 1BX,2013-09-04,fhrs_5_en-GB,5,,FHRS,5
38445,136 Watford Road,Croxley Green,Hertfordshire,,Coco,Restaurant/Cafe/Canteen,1,10,,446864,5,,51.64673400000000,PI/000029741,162,enquiries@Threerivers.gov.uk,Three Rivers,http://www.threerivers.gov.uk,-0.44350500000000,WD3 3BZ,2014-08-19,fhrs_3_en-GB,3,,FHRS,10
38446,Mill End Community Centre,Church Lane,Mill End,Hertfordshire,Community Cafe,Restaurant/Cafe/Canteen,1,10,,495795,10,,51.63579200000000,PI/000064612,162,enquiries@Threerivers.gov.uk,Three Rivers,http://www.threerivers.gov.uk,-0.48973000000000,WD3 8HD,2014-07-30,fhrs_4_en-GB,4,,FHRS,0
38447,York House School,Sarratt Road,Sarratt,Hertfordshire,Compass Group UK & Ireland,School/college/university,7845,0,,323870,0,,51.66254100000000,PI/000009539,162,enquiries@Threerivers.gov.uk,Three Rivers,http://www.threerivers.gov.uk,-0.45979300000000,WD3 4LW,2014-04-29,fhrs_4_en-GB,4,,FHRS,10
38448,153 High Street,Rickmansworth,Hertfordshire,,Costa Coffee,Restaurant/Cafe/Canteen,1,5,,323984,5,,51.63898700000000,PI/000023899,162,enquiries@Threerivers.gov.uk,Three Rivers,http://www.threerivers.gov.uk,-0.47119900000000,WD3 1AR,2013-12-10,fhrs_5_en-GB,5,,FHRS,5
38449,12 Scots Hill,Croxley Green,Hertfordshire,,Costcutter,Retailers - other,4613,10,,324013,5,,51.64615400000000,PI/000027427,162,enquiries@Threerivers.gov.uk,Three Rivers,http://www.threerivers.gov.uk,-0.45615700000000,WD3 3AD,2013-02-19,fhrs_4_en-GB,4,,FHRS,5
38450,61 Station Road,Kings Langley,Hertfordshire,,Costcutter Supermarket,Retailers - other,4613,10,,324269,10,,51.70919600000000,PI/000060332,162,enquiries@Threerivers.gov.uk,Three Rivers,http://www.threerivers.gov.uk,-0.44040700000000,WD4 8RU,2013-07-31,fhrs_3_en-GB,3,,FHRS,10
38451,5-6,Moneyhill Parade,Uxbridge Road,Rickmansworth,Costcutters,Retailers - other,4613,10,,324079,10,,51.63652200000000,PI/000034082,162,enquiries@Threerivers.gov.uk,Three Rivers,http://www.threerivers.gov.uk,-0.48357900000000,WD3 7BQ,2014-03-04,fhrs_3_en-GB,3,,FHRS,10
38452,The Grapevine Public House,Prestwick Road,South Oxhey,Hertfordshire,Courage Brewery Leased Property,Pub/bar/nightclub,7843,10,,324136,0,,51.61682300000000,PI/000042916,162,enquiries@Threerivers.gov.uk,Three Rivers,http://www.threerivers.gov.uk,-0.39252800000000,WD19 6XY,2013-06-17,fhrs_4_en-GB,4,,FHRS,5
38453,25,Peerglow Industrial Estate,Olds Approach,Rickmansworth,Crowndale Food Services,Distributors/Transporters,7,,,552314,,,51.63850000000000,PI/000066996,162,enquiries@Threerivers.gov.uk,Three Rivers,http://www.threerivers.gov.uk,-0.44307800000000,WD18 9SR,2013-05-10,fhrs_exempt_en-GB,Exempt,,FHRS,
38454,Baldwins Lane,Croxley Green,Hertfordshire,,Croxley Baptist Church,Other catering premises,7841,5,,323965,0,,51.65319100000000,PI/000021578,162,enquiries@Threerivers.gov.uk,Three Rivers,http://www.threerivers.gov.uk,-0.44494600000000,WD3 3LH,2013-01-22,fhrs_5_en-GB,5,,FHRS,0
38455,146 Watford Road,Croxley Green,Hertfordshire,,Croxley Cafe,Restaurant/Cafe/Canteen,1,20,,323900,10,,51.64673400000000,PI/000013275,162,enquiries@Threerivers.gov.uk,Three Rivers,http://www.threerivers.gov.uk,-0.44350500000000,WD3 3BZ,2014-02-12,fhrs_1_en-GB,1,,FHRS,10
38456,202A Watford Road,Croxley Green,Hertfordshire,,Croxley Food Centre,Takeaway/sandwich shop,7844,20,,324301,15,,51.64822100000000,PI/000065833,162,enquiries@Threerivers.gov.uk,Three Rivers,http://www.threerivers.gov.uk,-0.43906000000000,WD3 3DD,2014-12-02,fhrs_1_en-GB,1,,FHRS,15
38457,158 Watford Road,Croxley Green,Hertfordshire,,Croxley Green Post Office,Retailers - other,4613,20,,323809,10,,51.64673400000000,PI/000000874,162,enquiries@Threerivers.gov.uk,Three Rivers,http://www.threerivers.gov.uk,-0.44350500000000,WD3 3BZ,2014-05-23,fhrs_1_en-GB,1,,FHRS,15
38458,C/O Croxley Guild Of Sport,Croxley Green,Hertfordshire,,Croxley Guild of Sport & Social Club,Pub/bar/nightclub,7843,5,,324315,5,,51.64953300000000,PI/000066891,162,enquiries@Threerivers.gov.uk,Three Rivers,http://www.threerivers.gov.uk,-0.45459700000000,WD3 3HT,2013-09-05,fhrs_4_en-GB,4,,FHRS,10
38459,3a The Green,Croxley Green,Hertfordshire,,Croxley Sandwich Bar & Bakery,Retailers - other,4613,10,,323881,5,,51.64670000000000,PI/000011159,162,enquiries@Threerivers.gov.uk,Three Rivers,http://www.threerivers.gov.uk,-0.45595100000000,WD3 3AJ,2014-04-07,fhrs_4_en-GB,4,,FHRS,5
38460,188 Watford Road,Croxley Green,Hertfordshire,,Croxley Supermarket,Retailers - other,4613,10,,323932,0,,51.64690400000000,PI/000017380,162,enquiries@Threerivers.gov.uk,Three Rivers,http://www.threerivers.gov.uk,-0.44007300000000,WD3 3DB,2014-07-31,fhrs_4_en-GB,4,,FHRS,10
38461,197 Watford Road,Croxley Green,Hertfordshire,,Croxley Tandoori Takeaway,Takeaway/sandwich shop,7844,5,,323963,5,,51.65023500000000,PI/000021485,162,enquiries@Threerivers.gov.uk,Three Rivers,http://www.threerivers.gov.uk,-0.43495800000000,WD3 3EH,2013-07-23,fhrs_4_en-GB,4,,FHRS,10
38462,141a Uxbridge Road,Rickmansworth,Hertfordshire,,Curry Garden Restaurant,Restaurant/Cafe/Canteen,1,,,324284,,,51.63562700000000,PI/000062886,162,enquiries@Threerivers.gov.uk,Three Rivers,http://www.threerivers.gov.uk,-0.48459100000000,WD3 7DW,2014-12-10,fhrs_2_en-GB,2,,FHRS,
38463,& Residential Home,Dapplemere,Shepherds Lane,Chorleywood,Dapplemere Nursing,Hospitals/Childcare/Caring Premises,5,5,,324083,5,,51.64608600000000,PI/000034607,162,enquiries@Threerivers.gov.uk,Three Rivers,http://www.threerivers.gov.uk,-0.51570800000000,WD3 5HA,2014-12-15,fhrs_5_en-GB,5,,FHRS,5
38464,Shepherds School,Shepherds Lane,Rickmansworth,Hertfordshire,Daybreak Nursery,School/college/university,7845,0,,324325,5,,51.63681700000000,PI/000066917,162,enquiries@Threerivers.gov.uk,Three Rivers,http://www.threerivers.gov.uk,-0.49602500000000,WD3 8JJ,2014-11-26,fhrs_5_en-GB,5,,FHRS,0
38465,Hunton Park,Essex Lane,Abbots Langley,Hertfordshire,De Vere Venues,Restaurant/Cafe/Canteen,1,10,,323891,5,,51.69319200000000,PI/000012218,162,enquiries@Threerivers.gov.uk,Three Rivers,http://www.threerivers.gov.uk,-0.42502700000000,WD4 8PN,2014-01-30,fhrs_3_en-GB,3,,FHRS,10
38466,,,,,Debbie Whitehead,Hospitals/Childcare/Caring Premises,5,5,,324110,5,,,PI/000037951,162,enquiries@Threerivers.gov.uk,Three Rivers,http://www.threerivers.gov.uk,,,2012-11-12,fhrs_5_en-GB,5,,FHRS,5
38467,1,Langley Parade,High Street,Abbots Langley,Deli-Licious,Restaurant/Cafe/Canteen,1,10,,324299,0,,51.70540100000000,PI/000065652,162,enquiries@Threerivers.gov.uk,Three Rivers,http://www.threerivers.gov.uk,-0.41755500000000,WD5 0AD,2014-06-04,fhrs_4_en-GB,4,,FHRS,10
38468,Kings Lodge Hotel,28-30 Bridge Road,Hunton Bridge,Hertfordshire,Dodman Leisure Ltd,Restaurant/Cafe/Canteen,1,10,,324317,15,,51.69363100000000,PI/000066900,162,enquiries@Threerivers.gov.uk,Three Rivers,http://www.threerivers.gov.uk,-0.43435800000000,WD4 8RQ,2015-01-06,fhrs_2_en-GB,2,,FHRS,10
38469,16 Money Hill Parade,Mill End,Rickmansworth,Hertfordshire,Dolce Caffe,Restaurant/Cafe/Canteen,1,5,,324546,5,,51.63618100000000,PI/000063489,162,enquiries@Threerivers.gov.uk,Three Rivers,http://www.threerivers.gov.uk,-0.48434200000000,WD3 7BE,2014-07-30,fhrs_5_en-GB,5,,FHRS,5
38470,4 Langley Road,Abbots Langley,Hertfordshire,,Dolphin Fish Bar,Takeaway/sandwich shop,7844,5,,324183,5,,51.70570100000000,PI/000050116,162,enquiries@Threerivers.gov.uk,Three Rivers,http://www.threerivers.gov.uk,-0.41712400000000,WD5 0AB,2013-05-14,fhrs_5_en-GB,5,,FHRS,5
38471,5 School Mead,Abbots Langley,Hertfordshire,,Dominos Pizza,Takeaway/sandwich shop,7844,0,,324304,0,,51.69851400000000,PI/000065885,162,enquiries@Threerivers.gov.uk,Three Rivers,http://www.threerivers.gov.uk,-0.42562300000000,WD5 0LA,2013-06-03,fhrs_5_en-GB,5,,FHRS,5
38472,2,Moneyhill Parade,Uxbridge Road,Rickmansworth,Domino's Pizza,Takeaway/sandwich shop,7844,5,,324223,5,,51.63652200000000,PI/000054601,162,enquiries@Threerivers.gov.uk,Three Rivers,http://www.threerivers.gov.uk,-0.48357900000000,WD3 7BQ,2014-11-19,fhrs_5_en-GB,5,,FHRS,0
38473,Travis Perkins,Church Street,Rickmansworth,Hertfordshire,Donna's Snax,Mobile caterer,7846,0,,324154,0,,51.63559900000000,PI/000046481,162,enquiries@Threerivers.gov.uk,Three Rivers,http://www.threerivers.gov.uk,-0.46657300000000,WD3 1JB,2014-06-04,fhrs_5_en-GB,5,,FHRS,0
38474,2 Chalfont Road,Maple Cross,Hertfordshire,,Duran's Cafe,Restaurant/Cafe/Canteen,1,20,,462569,10,,51.62449300000000,PI/000008465,162,enquiries@Threerivers.gov.uk,Three Rivers,http://www.threerivers.gov.uk,-0.50976700000000,WD3 9RP,2014-11-10,fhrs_1_en-GB,1,,FHRS,10
38475,Moor Lane,Sarratt,Hertfordshire,,E Tyler And Sons,Farmers/growers,7838,,,323967,,,51.68124400000000,PI/000021996,162,enquiries@Threerivers.gov.uk,Three Rivers,http://www.threerivers.gov.uk,-0.51641000000000,WD3 6BZ,2013-07-10,fhrs_exempt_en-GB,Exempt,,FHRS,
38476,10,Katherine Place,College Road,Abbots Langley,Early Adventures,Hospitals/Childcare/Caring Premises,5,5,,324270,5,,51.70091800000000,PI/000060486,162,enquiries@Threerivers.gov.uk,Three Rivers,http://www.threerivers.gov.uk,-0.40389100000000,WD5 0BT,2015-01-06,fhrs_5_en-GB,5,,FHRS,5
38477,167 Uxbridge Road,Rickmansworth,Hertfordshire,,Eastern Spice,Restaurant/Cafe/Canteen,1,20,,566883,15,,51.63562700000000,PI/000066976,162,enquiries@Threerivers.gov.uk,Three Rivers,http://www.threerivers.gov.uk,-0.48459100000000,WD3 7DW,2014-10-23,fhrs_1_en-GB,1,,FHRS,15
38478,,,,,Eric Shepherd Unit,Hospitals/Childcare/Caring Premises,5,0,,323829,0,,,PI/000004642,162,enquiries@Threerivers.gov.uk,Three Rivers,http://www.threerivers.gov.uk,,,2013-06-05,fhrs_5_en-GB,5,,FHRS,5
38479,Compass Catering,Building 4,Hatters Lane,Watford,Eurest @ G. E. Money,Restaurant/Cafe/Canteen,1,0,,324066,5,,51.64464000000000,PI/000032698,162,enquiries@Threerivers.gov.uk,Three Rivers,http://www.threerivers.gov.uk,-0.43006300000000,WD18 8YF,2014-03-04,fhrs_5_en-GB,5,,FHRS,5
38480,188b Watford Road,Croxley Green,Hertfordshire,,Farmhouse Pizza Takeaway,Takeaway/sandwich shop,7844,20,,323831,5,,51.64690400000000,PI/000004966,162,enquiries@Threerivers.gov.uk,Three Rivers,http://www.threerivers.gov.uk,-0.44007300000000,WD3 3DB,2015-01-14,fhrs_1_en-GB,1,,FHRS,10
38481,5,Peerglow Industrial Estate,Olds Approach,Rickmansworth,First Choice Catering,Other catering premises,7841,10,,324237,5,,51.63850000000000,PI/000056421,162,enquiries@Threerivers.gov.uk,Three Rivers,http://www.threerivers.gov.uk,-0.44307800000000,WD18 9SR,2014-11-21,fhrs_3_en-GB,3,,FHRS,10
38482,1,The Parade,Prestwick Road,South Oxhey,Fishermans Cabin Takeaway,Takeaway/sandwich shop,7844,5,,324289,5,,51.62782200000000,PI/000063621,162,enquiries@Threerivers.gov.uk,Three Rivers,http://www.threerivers.gov.uk,-0.38740100000000,WD19 7ED,2014-06-04,fhrs_4_en-GB,4,,FHRS,10
38483,76 High Street,Abbots Langley,Hertfordshire,,Full Moon,Takeaway/sandwich shop,7844,10,,324326,5,,51.70576000000000,PI/000066919,162,enquiries@Threerivers.gov.uk,Three Rivers,http://www.threerivers.gov.uk,-0.41812100000000,WD5 0AW,2013-10-08,fhrs_3_en-GB,3,,FHRS,10
38484,78 Church Lane,Mill End,Hertfordshire,,Green Island Fish & Chips Takeaway,Takeaway/sandwich shop,7844,10,,324293,10,,51.63690500000000,PI/000064603,162,enquiries@Threerivers.gov.uk,Three Rivers,http://www.threerivers.gov.uk,-0.49382600000000,WD3 8HE,2014-06-26,fhrs_3_en-GB,3,,FHRS,10
38485,Red House (Hungry Horse) Public House,Watford Road,Croxley Green,Hertfordshire,Greene King Plc,Pub/bar/nightclub,7843,0,,324186,0,,51.64699400000000,PI/000050249,162,enquiries@Threerivers.gov.uk,Three Rivers,http://www.threerivers.gov.uk,-0.44413200000000,WD3 3DX,2015-01-13,fhrs_4_en-GB,4,,FHRS,10
38486,The Swan Public House,College Road,Abbots Langley,Hertfordshire,Greene King Plc,Pub/bar/nightclub,7843,5,,324294,5,,51.70260400000000,PI/000064615,162,enquiries@Threerivers.gov.uk,Three Rivers,http://www.threerivers.gov.uk,-0.41014100000000,WD5 0NR,2015-01-08,fhrs_4_en-GB,4,,FHRS,10
38487,The Fox And Hounds,216 New Road,Croxley Green,Hertfordshire,Greene King Pub Company,Pub/bar/nightclub,7843,5,,324019,5,,51.64775700000000,PI/000027616,162,enquiries@Threerivers.gov.uk,Three Rivers,http://www.threerivers.gov.uk,-0.44472700000000,WD3 3HH,2013-05-15,fhrs_5_en-GB,5,,FHRS,5
38488,The White Bear Public House,Church Street,Rickmansworth,Hertfordshire,Greene King Pub Partners,Pub/bar/nightclub,7843,5,,324191,5,,51.63416800000000,PI/000050678,162,enquiries@Threerivers.gov.uk,Three Rivers,http://www.threerivers.gov.uk,-0.46714100000000,WD3 1JQ,2015-01-09,fhrs_4_en-GB,4,,FHRS,10
38489,Coach And Horses Public House,22 High Street,Rickmansworth,Hertfordshire,Greene King Retailing Ltd,Pub/bar/nightclub,7843,10,,324172,5,,51.63938400000000,PI/000048535,162,enquiries@Threerivers.gov.uk,Three Rivers,http://www.threerivers.gov.uk,-0.46646000000000,WD3 1ER,2014-02-20,fhrs_2_en-GB,2,,FHRS,15
38490,Croxley House,The Green,Croxley Green,Hertfordshire,Greensleeves Trust,Hospitals/Childcare/Caring Premises,5,5,,324093,5,,51.65738500000000,PI/000035687,162,enquiries@Threerivers.gov.uk,Three Rivers,http://www.threerivers.gov.uk,-0.45542800000000,WD3 3JB,2015-01-06,fhrs_5_en-GB,5,,FHRS,5
38491,5 St Andrews Road,South Oxhey,Hertfordshire,,Greggs PLC,Retailers - other,4613,5,,323941,5,,51.62707400000000,PI/000018506,162,enquiries@Threerivers.gov.uk,Three Rivers,http://www.threerivers.gov.uk,-0.38728300000000,WD19 7AD,2015-01-06,fhrs_5_en-GB,5,,FHRS,0
38492,The Cock Inn,Church Lane,Sarratt,Hertfordshire,Hall And Woodhouse Ltd,Pub/bar/nightclub,7843,5,,324050,0,,51.67767100000000,PI/000031447,162,enquiries@Threerivers.gov.uk,Three Rivers,http://www.threerivers.gov.uk,-0.49564200000000,WD3 6HH,2013-08-19,fhrs_5_en-GB,5,,FHRS,5
38493,The Mulberry Bush,Dawes Lane,Sarratt,,Harvest Moon Free Range Farm,Manufacturers/packers,7839,10,,323819,5,,51.68160500000000,PI/000001996,162,enquiries@Threerivers.gov.uk,Three Rivers,http://www.threerivers.gov.uk,-0.50024100000000,WD3 6BQ,2014-11-06,fhrs_3_en-GB,3,,FHRS,10
38494,Northwick Day Centre,Northwick Road,South Oxhey,Hertfordshire,HCC Health & Community Services,Hospitals/Childcare/Caring Premises,5,0,,324174,0,,51.62327200000000,PI/000048659,162,enquiries@Threerivers.gov.uk,Three Rivers,http://www.threerivers.gov.uk,-0.39131800000000,WD19 6RS,2013-08-20,fhrs_5_en-GB,5,,FHRS,5
38495,The Partridge,Delta Gain,Carpenders Park,Hertfordshire,Hell Pizza Watford,Takeaway/sandwich shop,7844,5,,580715,5,,51.62851900000000,PI/000000766,162,enquiries@Threerivers.gov.uk,Three Rivers,http://www.threerivers.gov.uk,-0.37993500000000,WD19 5BU,2014-11-06,fhrs_5_en-GB,5,,FHRS,5
38496,Abbots Langley Jmi School,Parsonage Close,Abbots Langley,Hertfordshire,Hertfordshire Catering,School/college/university,7845,0,,324255,0,,51.70959400000000,PI/000058484,162,enquiries@Threerivers.gov.uk,Three Rivers,http://www.threerivers.gov.uk,-0.41771200000000,WD5 0BQ,2014-06-04,fhrs_5_en-GB,5,,FHRS,5
38497,Arnett Hills Junior Mixed Infants School,Berry Lane,Mill End,Hertfordshire,Hertfordshire Catering,School/college/university,7845,5,,323952,5,,51.64580800000000,PI/000020173,162,enquiries@Threerivers.gov.uk,Three Rivers,http://www.threerivers.gov.uk,-0.49529400000000,WD3 4BT,2014-06-30,fhrs_5_en-GB,5,,FHRS,5
38498,Bedmond Jmi School,Meadow Way,Bedmond,Hertfordshire,Hertfordshire Catering,School/college/university,7845,0,,324296,5,,51.71968600000000,PI/000064976,162,enquiries@Threerivers.gov.uk,Three Rivers,http://www.threerivers.gov.uk,-0.41327800000000,WD5 0RD,2013-06-05,fhrs_5_en-GB,5,,FHRS,5
38499,Breakspeare School,Gallows Hill Lane,Abbots Langley,Hertfordshire,Hertfordshire Catering,School/college/university,7845,0,,323950,5,,51.70309900000000,PI/000019674,162,enquiries@Threerivers.gov.uk,Three Rivers,http://www.threerivers.gov.uk,-0.42083300000000,WD5 0BU,2013-09-04,fhrs_5_en-GB,5,,FHRS,5
38500,Christ Church Jmi School,Rickmansworth Road,Chorleywood,Hertfordshire,Hertfordshire Catering,School/college/university,7845,0,,324074,0,,51.65815900000000,PI/000033568,162,enquiries@Threerivers.gov.uk,Three Rivers,http://www.threerivers.gov.uk,-0.50273600000000,WD3 5SG,2013-06-03,fhrs_5_en-GB,5,,FHRS,5
38501,Colnbrook Special School,Hayling Road,South Oxhey,Hertfordshire,Hertfordshire Catering,School/college/university,7845,0,,324288,5,,51.62928600000000,PI/000063572,162,enquiries@Threerivers.gov.uk,Three Rivers,http://www.threerivers.gov.uk,-0.39187100000000,WD19 7UY,2014-12-03,fhrs_5_en-GB,5,,FHRS,0
38502,Divine Saviour Roman Catholic Junior Mixed Infants,Broomfield Rise,Abbots Langley,Hertfordshire,Hertfordshire Catering,School/college/university,7845,5,,324157,0,,51.70051800000000,PI/000046540,162,enquiries@Threerivers.gov.uk,Three Rivers,http://www.threerivers.gov.uk,-0.42823100000000,WD5 0HW,2013-05-21,fhrs_5_en-GB,5,,FHRS,5
38503,Eastbury Farm Junior Mixed Infants School,Bishops Avenue,Northwood,Hertfordshire,Hertfordshire Catering,School/college/university,7845,0,,324001,5,,51.62523700000000,PI/000025951,162,enquiries@Threerivers.gov.uk,Three Rivers,http://www.threerivers.gov.uk,-0.41814900000000,HA6 3DG,2014-11-28,fhrs_5_en-GB,5,,FHRS,0
38504,Garston Manor Special School,Horseshoe Lane,Garston,Hertfordshire,Hertfordshire Catering,School/college/university,7845,5,,323951,0,,51.69737000000000,PI/000020062,162,enquiries@Threerivers.gov.uk,Three Rivers,http://www.threerivers.gov.uk,-0.39029800000000,WD25 7HR,2013-05-14,fhrs_5_en-GB,5,,FHRS,5
38505,Greenfield Jmi School,Ellesborough Close,South Oxhey,Hertfordshire,Hertfordshire Catering,School/college/university,7845,5,,324198,0,,51.61878100000000,PI/000051414,162,enquiries@Threerivers.gov.uk,Three Rivers,http://www.threerivers.gov.uk,-0.39169400000000,WD19 6TH,2014-12-11,fhrs_5_en-GB,5,,FHRS,5
38506,Harvey Road Jmi School,Harvey Road,Croxley Green,Hertfordshire,Hertfordshire Catering,School/college/university,7845,0,,324203,5,,51.64536200000000,PI/000052221,162,enquiries@Threerivers.gov.uk,Three Rivers,http://www.threerivers.gov.uk,-0.44859600000000,WD3 3BN,2015-01-14,fhrs_5_en-GB,5,,FHRS,0
38507,Little Green JMI School,Lincoln Drive,Croxley Green,Hertfordshire,Hertfordshire Catering,School/college/university,7845,0,,324115,0,,51.65764700000000,PI/000038672,162,enquiries@Threerivers.gov.uk,Three Rivers,http://www.threerivers.gov.uk,-0.44529900000000,WD3 3NJ,2014-11-18,fhrs_5_en-GB,5,,FHRS,0
38508,Malvern Way Infants & Nursery School,Malvern Way,Croxley Green,Hertfordshire,Hertfordshire Catering,School/college/university,7845,0,,323986,0,,51.65073500000000,PI/000023985,162,enquiries@Threerivers.gov.uk,Three Rivers,http://www.threerivers.gov.uk,-0.44079500000000,WD3 3QQ,2015-01-13,fhrs_4_en-GB,4,,FHRS,10
38509,Oxhey Wood Jmi School,Oxhey Drive,South Oxhey,Hertfordshire,Hertfordshire Catering,School/college/university,7845,5,,324011,0,,51.62488800000000,PI/000026981,162,enquiries@Threerivers.gov.uk,Three Rivers,http://www.threerivers.gov.uk,-0.39181000000000,WD19 7SL,2014-11-12,fhrs_5_en-GB,5,,FHRS,0
38510,Rickmansworth Park Jmi School,Park Road,Rickmansworth,Hertfordshire,Hertfordshire Catering,School/college/university,7845,0,,323860,0,,51.64303600000000,PI/000008193,162,enquiries@Threerivers.gov.uk,Three Rivers,http://www.threerivers.gov.uk,-0.46518000000000,WD3 1HU,2014-04-29,fhrs_5_en-GB,5,,FHRS,0
38511,Russell County Junior Mixed Infants School,Brushwood Drive,Chorleywood,Hertfordshire,Hertfordshire Catering,School/college/university,7845,0,,324081,0,,51.65511900000000,PI/000034374,162,enquiries@Threerivers.gov.uk,Three Rivers,http://www.threerivers.gov.uk,-0.52754200000000,WD3 5RR,2013-06-03,fhrs_5_en-GB,5,,FHRS,5
38512,Sarratt CoE Primary School,The Green,Sarratt,Hertfordshire,Hertfordshire Catering,School/college/university,7845,5,,323914,0,,51.84004974365234,PI/000014443,162,enquiries@Threerivers.gov.uk,Three Rivers,http://www.threerivers.gov.uk,-0.27510499954224,WD3 6AS,2015-01-28,fhrs_5_en-GB,5,,FHRS,5
38513,Shepherd Primary School,Shepherds Lane,Rickmansworth,Hertfordshire,Hertfordshire Catering,School/college/university,7845,0,,324101,0,,51.63681700000000,PI/000036833,162,enquiries@Threerivers.gov.uk,Three Rivers,http://www.threerivers.gov.uk,-0.49602500000000,WD3 8JJ,2014-11-26,fhrs_5_en-GB,5,,FHRS,5
38514,St Johns Rc Jmi School,Berry Lane,Mill End,Hertfordshire,Hertfordshire Catering,School/college/university,7845,0,,324241,0,,51.63727600000000,PI/000057178,162,enquiries@Threerivers.gov.uk,Three Rivers,http://www.threerivers.gov.uk,-0.49118400000000,WD3 7HG,2013-06-17,fhrs_5_en-GB,5,,FHRS,5
38515,St Josephs Rc Jmi School,Ainsdale Road,South Oxhey,Hertfordshire,Hertfordshire Catering,School/college/university,7845,5,,324118,0,,51.62725000000000,PI/000039129,162,enquiries@Threerivers.gov.uk,Three Rivers,http://www.threerivers.gov.uk,-0.39688400000000,WD19 7DW,2014-12-03,fhrs_5_en-GB,5,,FHRS,5
38516,St Marys Jmi School,Stockers Farm Road,Rickmansworth,Hertfordshire,Hertfordshire Catering,School/college/university,7845,0,,324057,0,,51.63006300000000,PI/000031756,162,enquiries@Threerivers.gov.uk,Three Rivers,http://www.threerivers.gov.uk,-0.47505300000000,WD3 1NY,2013-06-17,fhrs_5_en-GB,5,,FHRS,0
38517,St Meryl Jmi School,The Mead,Carpenders Park,Hertfordshire,Hertfordshire Catering,School/college/university,7845,0,,323818,0,,51.62858900000000,PI/000001980,162,enquiries@Threerivers.gov.uk,Three Rivers,http://www.threerivers.gov.uk,-0.37720200000000,WD19 5BT,2012-12-06,fhrs_5_en-GB,5,,FHRS,5
38518,St Michaels Roman Catholic School,High Elms Lane,Abbots Langley,Hertfordshire,Hertfordshire Catering,School/college/university,7845,0,,324170,5,,51.69957600000000,PI/000048504,162,enquiries@Threerivers.gov.uk,Three Rivers,http://www.threerivers.gov.uk,-0.38593700000000,WD25 0SS,2013-05-21,fhrs_5_en-GB,5,,FHRS,5
38519,St Pauls Junior Mixed Infants School,Langleybury Lane,Langleybury,Hertfordshire,Hertfordshire Catering,School/college/university,7845,0,,323954,0,,51.69196300000000,PI/000020425,162,enquiries@Threerivers.gov.uk,Three Rivers,http://www.threerivers.gov.uk,-0.43877100000000,WD4 8RJ,2013-06-10,fhrs_5_en-GB,5,,FHRS,5
38520,St Peters Junior Middle And Infant School,Church Lane,Mill End,Hertfordshire,Hertfordshire Catering,School/college/university,7845,0,,323882,0,,51.63579200000000,PI/000011166,162,enquiries@Threerivers.gov.uk,Three Rivers,http://www.threerivers.gov.uk,-0.48973000000000,WD3 8HD,2013-05-15,fhrs_5_en-GB,5,,FHRS,5
38521,Tanners Wood Jmi School,Hazelwood Lane,Abbots Langley,Hertfordshire,Hertfordshire Catering,School/college/university,7845,0,,324061,0,,51.69943000000000,PI/000032088,162,enquiries@Threerivers.gov.uk,Three Rivers,http://www.threerivers.gov.uk,-0.42288600000000,WD5 0LG,2013-06-05,fhrs_5_en-GB,5,,FHRS,5
38522,Warren Dell Jmi School,Gosforth Lane,South Oxhey,Hertfordshire,Hertfordshire Catering,School/college/university,7845,0,,323877,0,,51.62859300000000,PI/000010665,162,enquiries@Threerivers.gov.uk,Three Rivers,http://www.threerivers.gov.uk,-0.39114400000000,WD19 7UZ,2015-01-07,fhrs_5_en-GB,5,,FHRS,5
38523,Woodhall Jmi School,Woodhall Lane,South Oxhey,Hertfordshire,Hertfordshire Catering,School/college/university,7845,0,,323988,0,,51.62074100000000,PI/000024453,162,enquiries@Threerivers.gov.uk,Three Rivers,http://www.threerivers.gov.uk,-0.38383800000000,WD19 6QX,2013-06-17,fhrs_5_en-GB,5,,FHRS,0
38524,Yorke Mead Jmi School,Dulwich Way,Croxley Green,Hertfordshire,Hertfordshire Catering,School/college/university,7845,5,,324067,0,,51.65193600000000,PI/000032861,162,enquiries@Threerivers.gov.uk,Three Rivers,http://www.threerivers.gov.uk,-0.45000500000000,WD3 3PX,2013-05-21,fhrs_5_en-GB,5,,FHRS,5
38525,"The Reach Free School, Symbio House",Wolsey Business Park,Tolpits Lane,Rickmansworth,Hertfordshire Catering Ltd,School/college/university,7845,5,,606707,5,,51.64726700000000,PI/000068426,162,enquiries@Threerivers.gov.uk,Three Rivers,http://www.threerivers.gov.uk,-0.41745500000000,WD18 6NS,2013-11-04,fhrs_5_en-GB,5,,FHRS,5
38526,"Garston Manor, St. Andrews Montessori",High Elms Lane,Abbots Langley,Hertfordshire,High Elms Manor Venue & School,Hospitals/Childcare/Caring Premises,5,0,,324210,0,,51.70197400000000,PI/000052674,162,enquiries@Threerivers.gov.uk,Three Rivers,http://www.threerivers.gov.uk,-0.39360800000000,WD25 0JX,2014-06-04,fhrs_5_en-GB,5,,FHRS,5
38527,Hillside Free Church Hall,Chorleywood,Hertfordshire,,Hillside Pre-School,School/college/university,7845,5,,324142,0,,51.65292100000000,PI/000044378,162,enquiries@Threerivers.gov.uk,Three Rivers,http://www.threerivers.gov.uk,-0.52154200000000,WD3 5AS,2013-08-19,fhrs_5_en-GB,5,,FHRS,5
38528,1 The Green,Croxley Green,Hertfordshire,,Ho King Chinese Takeaway,Takeaway/sandwich shop,7844,20,,323920,15,,51.64670000000000,PI/000015283,162,enquiries@Threerivers.gov.uk,Three Rivers,http://www.threerivers.gov.uk,-0.45595100000000,WD3 3AJ,2014-07-31,fhrs_1_en-GB,1,,FHRS,10
38529,20-22 Hallowes Crescent,South Oxhey,Hertfordshire,,Holloways Super Store,Retailers - other,4613,10,,324121,0,,51.62892300000000,PI/000039324,162,enquiries@Threerivers.gov.uk,Three Rivers,http://www.threerivers.gov.uk,-0.40878900000000,WD19 7NT,2013-01-10,fhrs_4_en-GB,4,,FHRS,10
38530,Old Mill Road,Hunton Bridge,Hertfordshire,,Hunton Bridge Service Station,Retailers - other,4613,10,,323995,5,,51.68891700000000,PI/000025540,162,enquiries@Threerivers.gov.uk,Three Rivers,http://www.threerivers.gov.uk,-0.43349400000000,WD4 8QT,2014-01-07,fhrs_3_en-GB,3,,FHRS,10
38531,5 Old Mill Road,Hunton Bridge,Hertfordshire,,Hunton Spice,Takeaway/sandwich shop,7844,20,,610500,10,,51.69332000000000,PI/000068450,162,enquiries@Threerivers.gov.uk,Three Rivers,http://www.threerivers.gov.uk,-0.43394900000000,WD4 8RD,2014-01-21,fhrs_1_en-GB,1,,FHRS,10
38532,Unit 5,Vale Industrial Estate,Tolpits Lane,Rickmansworth,Igloo Thermologistics,Distributors/Transporters,7,,,323903,,,51.63795900000000,PI/000013702,162,enquiries@Threerivers.gov.uk,Three Rivers,http://www.threerivers.gov.uk,-0.44025000000000,WD18 9QP,2014-10-15,fhrs_exempt_en-GB,Exempt,,FHRS,
38533,"West Herts College,Kings Langley Campus",Langley Waters,Abbots Langley,Hertfordshire,Innovate,Restaurant/Cafe/Canteen,1,5,,324085,5,,51.84004974365230,PI/000034709,162,enquiries@Threerivers.gov.uk,Three Rivers,http://www.threerivers.gov.uk,-0.27510499954224,WD4 8DH,2013-06-11,fhrs_5_en-GB,5,,FHRS,5
38534,St Joan Of Arc Roman Catholic School,High Street,Rickmansworth,Hertfordshire,Innovate Services Ltd,Restaurant/Cafe/Canteen,1,5,,323979,10,,51.64006800000000,PI/000023875,162,enquiries@Threerivers.gov.uk,Three Rivers,http://www.threerivers.gov.uk,-0.46515000000000,WD3 1HG,2014-06-26,fhrs_4_en-GB,4,,FHRS,5
38535,8 Main Parade,Chorleywood,Hertfordshire,,J & J May Butcher,Retailers - other,4613,20,,324124,15,,51.65543000000000,PI/000039829,162,enquiries@Threerivers.gov.uk,Three Rivers,http://www.threerivers.gov.uk,-0.52153200000000,WD3 5RB,2013-08-05,fhrs_1_en-GB,1,,FHRS,15
38536,The Pennsylvanian,115-117 High Street,Rickmansworth,Hertfordshire,J D Wetherspoon,Pub/bar/nightclub,7843,0,,324238,0,,51.63872900000000,PI/000056821,162,enquiries@Threerivers.gov.uk,Three Rivers,http://www.threerivers.gov.uk,-0.47006600000000,WD3 1AN,2013-06-11,fhrs_5_en-GB,5,,FHRS,5
38537,The Swillet Sports And Social Club,Stag Lane,Chorleywood,Hertfordshire,J K Club,Other catering premises,7841,5,,323839,5,,51.64653400000000,PI/000006281,162,enquiries@Threerivers.gov.uk,Three Rivers,http://www.threerivers.gov.uk,-0.52484300000000,WD3 5HP,2012-06-06,fhrs_5_en-GB,5,,FHRS,5
38538,18 St Andrews Road,South Oxhey,Hertfordshire,,Jenny's,Restaurant/Cafe/Canteen,1,10,,323875,5,,51.62728600000000,PI/000010340,162,enquiries@Threerivers.gov.uk,Three Rivers,http://www.threerivers.gov.uk,-0.38830100000000,WD19 7AB,2014-11-13,fhrs_4_en-GB,4,,FHRS,5
38539,10 New Parade,Chorleywood,Hertfordshire,,Jia Oriental Cuisine,Takeaway/sandwich shop,7844,20,,323816,10,,51.65512100000000,PI/000001799,162,enquiries@Threerivers.gov.uk,Three Rivers,http://www.threerivers.gov.uk,-0.52197600000000,WD3 5NJ,2014-07-30,fhrs_1_en-GB,1,,FHRS,10
38540,4 Tudor Parade,Rickmansworth,Hertfordshire,,K B R,Takeaway/sandwich shop,7844,10,,323841,10,,51.64104000000000,PI/000006525,162,enquiries@Threerivers.gov.uk,Three Rivers,http://www.threerivers.gov.uk,-0.49157900000000,WD3 4DF,2014-03-06,fhrs_3_en-GB,3,,FHRS,10
38541,Coach And Horses Public House,The Green,Croxley Green,Hertfordshire,Keane on Bars,Pub/bar/nightclub,7843,10,,323976,10,,51.65135300000000,PI/000023370,162,enquiries@Threerivers.gov.uk,Three Rivers,http://www.threerivers.gov.uk,-0.45557600000000,WD3 3HX,2014-10-27,fhrs_2_en-GB,2,,FHRS,15
38542,14,Moneyhill Parade,Uxbridge Road,Rickmansworth,Kebab Centre Takeaway,Takeaway/sandwich shop,7844,5,,324112,5,,51.63618100000000,PI/000038097,162,enquiries@Threerivers.gov.uk,Three Rivers,http://www.threerivers.gov.uk,-0.48434200000000,WD3 7BE,2014-07-30,fhrs_5_en-GB,5,,FHRS,5
38543,145 Uxbridge Road,Rickmansworth,Hertfordshire,,KFC,Takeaway/sandwich shop,7844,5,,324224,5,,51.63562700000000,PI/000054610,162,enquiries@Threerivers.gov.uk,Three Rivers,http://www.threerivers.gov.uk,-0.48459100000000,WD3 7DW,2014-11-19,fhrs_4_en-GB,4,,FHRS,10
38544,Evergreen Football Club,South Way,Abbots Langley,Hertfordshire,Kim's Kitchen,Restaurant/Cafe/Canteen,1,5,,324283,5,,51.70603400000000,PI/000062866,162,enquiries@Threerivers.gov.uk,Three Rivers,http://www.threerivers.gov.uk,-0.43864800000000,WD4 8LL,2014-01-26,fhrs_4_en-GB,4,,FHRS,10
38545,36 Bridlington Road,South Oxhey,Hertfordshire,,Kingshill Bakery,Retailers - other,4613,5,,324056,5,,51.62678200000000,PI/000031704,162,enquiries@Threerivers.gov.uk,Three Rivers,http://www.threerivers.gov.uk,-0.38830500000000,WD19 7AE,2013-08-15,fhrs_2_en-GB,2,,FHRS,15
38546,7 Bridlington Road,South Oxhey,Hertfordshire,,L  M Ward,Retailers - other,4613,5,,324017,5,,51.62772200000000,PI/000027582,162,enquiries@Threerivers.gov.uk,Three Rivers,http://www.threerivers.gov.uk,-0.38866100000000,WD19 7AF,2013-05-22,fhrs_4_en-GB,4,,FHRS,10
38547,Langleybury Childrens Farm,Langleybury Lane,Langleybury,Hertfordshire,Langleybury Farm,Restaurant/Cafe/Canteen,1,10,,324024,10,,51.69017900000000,PI/000028639,162,enquiries@Threerivers.gov.uk,Three Rivers,http://www.threerivers.gov.uk,-0.44250700000000,WD4 8RN,2010-08-20,fhrs_3_en-GB,3,,FHRS,10
38548,Shop 4,Walpole Building,Church Street,Rickmansworth,Lemon Grass,Restaurant/Cafe/Canteen,1,10,,535110,5,,51.63862500000000,PI/000066999,162,enquiries@Threerivers.gov.uk,Three Rivers,http://www.threerivers.gov.uk,-0.46894200000000,WD3 1BU,2014-11-20,fhrs_3_en-GB,3,,FHRS,10
38549,,,,,Limpopo Cakes,Other catering premises,7841,,,396743,,,,PI/000003278,162,enquiries@Threerivers.gov.uk,Three Rivers,http://www.threerivers.gov.uk,,,2012-05-30,fhrs_exempt_en-GB,Exempt,,FHRS,
38550,5 New Parade,Chorleywood,Hertfordshire,,Little Beans & Co Ltd,Restaurant/Cafe/Canteen,1,20,,610499,5,,51.65512100000000,PI/000038701,162,enquiries@Threerivers.gov.uk,Three Rivers,http://www.threerivers.gov.uk,-0.52197600000000,WD3 5NJ,2013-11-07,fhrs_1_en-GB,1,,FHRS,10
38551,37 Bridlington Road,South Oxhey,Hertfordshire,,M & H Kersim,Retailers - other,4613,10,,324313,0,,51.62678200000000,PI/000066880,162,enquiries@Threerivers.gov.uk,Three Rivers,http://www.threerivers.gov.uk,-0.38830500000000,WD19 7AE,2014-06-04,fhrs_4_en-GB,4,,FHRS,10
38552,140 High Street,Rickmansworth,Hertfordshire,,Maharaja Tandoori Restaurant,Restaurant/Cafe/Canteen,1,10,,324239,5,,51.63936500000000,PI/000056831,162,enquiries@Threerivers.gov.uk,Three Rivers,http://www.threerivers.gov.uk,-0.47258800000000,WD3 1AB,2014-06-26,fhrs_4_en-GB,4,,FHRS,5
38553,1 Odeon Parade,Rickmansworth,Hertfordshire,,Mangal Express,Takeaway/sandwich shop,7844,20,,409491,10,,51.63873300000000,PI/000065951,162,enquiries@Threerivers.gov.uk,Three Rivers,http://www.threerivers.gov.uk,-0.46893800000000,WD3 1EE,2014-12-08,fhrs_1_en-GB,1,,FHRS,10
38554,Denham Way,Maple Cross,Hertfordshire,,Maple Cross Junior Mixed Infants School,School/college/university,7845,0,,324113,0,,51.61874600000000,PI/000038377,162,enquiries@Threerivers.gov.uk,Three Rivers,http://www.threerivers.gov.uk,-0.51319100000000,WD3 9SS,2013-06-17,fhrs_5_en-GB,5,,FHRS,5
38555,15 Church Street,Rickmansworth,Hertfordshire,,Maurizios,Restaurant/Cafe/Canteen,1,10,,324190,10,,51.63826400000000,PI/000050665,162,enquiries@Threerivers.gov.uk,Three Rivers,http://www.threerivers.gov.uk,-0.46889600000000,WD3 1BX,2014-01-09,fhrs_2_en-GB,2,,FHRS,15
38556,1-2 Tudor Parade,Rickmansworth,Hertfordshire,,Mccolls,Retailers - other,4613,5,,323842,5,,51.64104000000000,PI/000006526,162,enquiries@Threerivers.gov.uk,Three Rivers,http://www.threerivers.gov.uk,-0.49157900000000,WD3 4DF,2013-05-15,fhrs_4_en-GB,4,,FHRS,10
38557,6,The Yews,Chalfont Road,Maple Cross,Mccolls,Retailers - other,4613,0,,324215,0,,51.62449300000000,PI/000053593,162,enquiries@Threerivers.gov.uk,Three Rivers,http://www.threerivers.gov.uk,-0.50976700000000,WD3 9RP,2014-07-30,fhrs_5_en-GB,5,,FHRS,5
38558,313 Prestwick Road,South Oxhey,Hertfordshire,,Meng Zan Express,Takeaway/sandwich shop,7844,10,,324197,10,,51.61666700000000,PI/000051241,162,enquiries@Threerivers.gov.uk,Three Rivers,http://www.threerivers.gov.uk,-0.39429600000000,WD19 6UT,2015-01-06,fhrs_2_en-GB,2,,FHRS,15
38559,Sandy Lodge Lane,Moor Park,Hertfordshire,,Merchant Taylors School,School/college/university,7845,0,,323814,0,,51.63284000000000,PI/000001282,162,enquiries@Threerivers.gov.uk,Three Rivers,http://www.threerivers.gov.uk,-0.42185800000000,HA6 2HT,2014-11-19,fhrs_5_en-GB,5,,FHRS,0
38560,27 Station Road,Rickmansworth,Hertfordshire,,Mexica Buffet Chinese Restaurant,Restaurant/Cafe/Canteen,1,10,,324082,10,,51.63947600000000,PI/000034502,162,enquiries@Threerivers.gov.uk,Three Rivers,http://www.threerivers.gov.uk,-0.47213600000000,WD3 1QP,2014-12-04,fhrs_3_en-GB,3,,FHRS,10
38561,1-3 Altham Gardens,South Oxhey,Hertfordshire,,Mid Counties Co-Opertive  Childcare,Hospitals/Childcare/Caring Premises,5,10,,324046,10,,51.62215600000000,PI/000030771,162,enquiries@Threerivers.gov.uk,Three Rivers,http://www.threerivers.gov.uk,-0.39000000000000,WD19 6HJ,2014-10-09,fhrs_3_en-GB,3,,FHRS,10
38562,159A Uxbridge Road,Rickmansworth,Hertfordshire,,Mill End Cafe,Restaurant/Cafe/Canteen,1,,,324308,,,51.63562700000000,PI/000065941,162,enquiries@Threerivers.gov.uk,Three Rivers,http://www.threerivers.gov.uk,-0.48459100000000,WD3 7DW,2014-02-06,fhrs_3_en-GB,3,,FHRS,
38563,49 High Street,Abbots Langley,Hertfordshire,,Milly's The Bakers,Retailers - other,4613,10,,688492,10,,51.70724700000000,PI/000068557,162,enquiries@Threerivers.gov.uk,Three Rivers,http://www.threerivers.gov.uk,-0.41636100000000,WD5 0AA,2014-07-08,fhrs_3_en-GB,3,,FHRS,10
38564,Coy Carp Public House,Coppermill Lane,West Hyde,Hertfordshire,Mitchells & Butlers,Pub/bar/nightclub,7843,0,,324048,5,,51.60803700000000,PI/000030875,162,enquiries@Threerivers.gov.uk,Three Rivers,http://www.threerivers.gov.uk,-0.49914300000000,UB9 6HZ,2013-12-10,fhrs_5_en-GB,5,,FHRS,5
38565,Harvester Public House ( Two Bridges),Watford Road,Croxley Green,Hertfordshire,Mitchells & Butlers Leisure Retail,Pub/bar/nightclub,7843,0,,324281,5,,51.65120800000000,PI/000062625,162,enquiries@Threerivers.gov.uk,Three Rivers,http://www.threerivers.gov.uk,-0.43174400000000,WD3 3RX,2013-06-10,fhrs_5_en-GB,5,,FHRS,5
38566,Scotsbridge Mill,Scots Mill Lane,Croxley Green,Hertfordshire,Mitchells & Butlers Leisure Retail,Pub/bar/nightclub,7843,5,,324175,0,,51.64456500000000,PI/000048664,162,enquiries@Threerivers.gov.uk,Three Rivers,http://www.threerivers.gov.uk,-0.46177500000000,WD3 4AA,2013-07-18,fhrs_5_en-GB,5,,FHRS,5
38567,The Gate Public House,Rickmansworth Road,Chorleywood,Hertfordshire,Mitchells & Butlers Leisure Retail,Pub/bar/nightclub,7843,5,,324129,0,,51.65844700000000,PI/000041778,162,enquiries@Threerivers.gov.uk,Three Rivers,http://www.threerivers.gov.uk,-0.50198900000000,WD3 5SQ,2015-01-27,fhrs_5_en-GB,5,,FHRS,5
38568,Ye Olde Greene Manne Public House,Batchworth Heath,Rickmansworth,Hertfordshire,Mitchells & Butlers Leisure Retail,Pub/bar/nightclub,7843,0,,323898,0,,51.61990900000000,PI/000012842,162,enquiries@Threerivers.gov.uk,Three Rivers,http://www.threerivers.gov.uk,-0.44539000000000,WD3 1QB,2013-06-17,fhrs_5_en-GB,5,,FHRS,5
38569,Moor Park Mansion,Batchworth Heath,Rickmansworth,Hertfordshire,Moor Park,Pub/bar/nightclub,7843,0,,324034,5,,51.62843600000000,PI/000029945,162,enquiries@Threerivers.gov.uk,Three Rivers,http://www.threerivers.gov.uk,-0.44900000000000,WD3 1QN,2014-10-23,fhrs_5_en-GB,5,,FHRS,0
38570,5 Main Parade,Chorleywood,Hertfordshire,,Morgans Deli,Retailers - other,4613,10,,324295,15,,51.65543000000000,PI/000064625,162,enquiries@Threerivers.gov.uk,Three Rivers,http://www.threerivers.gov.uk,-0.52153200000000,WD3 5RB,2013-07-22,fhrs_2_en-GB,2,,FHRS,10
38571,,,,,Mummy's Yummy Cupcakes,Other catering premises,7841,10,,324179,5,,,PI/000049341,162,enquiries@Threerivers.gov.uk,Three Rivers,http://www.threerivers.gov.uk,,,2011-05-23,fhrs_4_en-GB,4,,FHRS,5
38572,31 Bridlington Road,South Oxhey,Hertfordshire,,Munchies Cafe,Restaurant/Cafe/Canteen,1,10,,323884,5,,51.62678200000000,PI/000011232,162,enquiries@Threerivers.gov.uk,Three Rivers,http://www.threerivers.gov.uk,-0.38830500000000,WD19 7AE,2013-06-17,fhrs_3_en-GB,3,,FHRS,10
38573,19 School Mead,Abbots Langley,Hertfordshire,,New Beijing,Takeaway/sandwich shop,7844,10,,324305,15,,51.69851400000000,PI/000065892,162,enquiries@Threerivers.gov.uk,Three Rivers,http://www.threerivers.gov.uk,-0.42562300000000,WD5 0LA,2015-01-07,fhrs_2_en-GB,2,,FHRS,5
38574,The Bell Public House,117 Primrose Hill,Kings Langley,Hertfordshire,Newlord Ltd,Pub/bar/nightclub,7843,10,,324075,10,,51.71554400000000,PI/000033821,162,enquiries@Threerivers.gov.uk,Three Rivers,http://www.threerivers.gov.uk,-0.44178100000000,WD4 8HX,2013-04-23,fhrs_3_en-GB,3,,FHRS,10
38575,Unit 4,20 School Mead,Abbots Langley,Hertfordshire,Night of Bengal,Takeaway/sandwich shop,7844,20,,624287,15,,51.69801600000000,PI/000048211,162,enquiries@Threerivers.gov.uk,Three Rivers,http://www.threerivers.gov.uk,-0.42471500000000,WD5 0LA,2014-11-17,fhrs_1_en-GB,1,,FHRS,10
38576,12 St Andrews Road,South Oxhey,Hertfordshire,,Nisa,Retailers - supermarkets/hypermarkets,7840,5,,504924,0,,51.62728600000000,PI/000065996,162,enquiries@Threerivers.gov.uk,Three Rivers,http://www.threerivers.gov.uk,-0.38830100000000,WD19 7AB,2014-07-31,fhrs_5_en-GB,5,,FHRS,5
38577,18 Little Oxhey Lane,South Oxhey,Hertfordshire,,Nisa,Retailers - other,4613,5,,324181,5,,51.61930900000000,PI/000049709,162,enquiries@Threerivers.gov.uk,Three Rivers,http://www.threerivers.gov.uk,-0.38566600000000,WD19 6FR,2013-05-21,fhrs_4_en-GB,4,,FHRS,10
38578,20 High Street,Abbots Langley,Hertfordshire,,Noor Mahal,Restaurant/Cafe/Canteen,1,,,703611,,,51.70642200000000,PI/000068552,162,enquiries@Threerivers.gov.uk,Three Rivers,http://www.threerivers.gov.uk,-0.41723000000000,WD5 0AR,2014-11-28,fhrs_2_en-GB,2,,FHRS,
38579,24 Eastbury Avenue,Northwood,Hertfordshire,,Northwood Nursing Home,Hospitals/Childcare/Caring Premises,5,5,,323830,5,,51.61695200000000,PI/000004731,162,enquiries@Threerivers.gov.uk,Three Rivers,http://www.threerivers.gov.uk,-0.41657400000000,HA6 3LN,2014-10-09,fhrs_4_en-GB,4,,FHRS,10
38580,Sandy Lodge Road,Moor Park,Hertfordshire,,Northwood Preparatory School,School/college/university,7845,10,,323889,5,,51.63369400000000,PI/000012109,162,enquiries@Threerivers.gov.uk,Three Rivers,http://www.threerivers.gov.uk,-0.43598900000000,WD3 1LW,2014-12-04,fhrs_4_en-GB,4,,FHRS,0
38581,20 Little Oxhey Lane,South Oxhey,Hertfordshire,,Ocean Fry Fish Bar,Takeaway/sandwich shop,7844,10,,323807,10,,51.61930900000000,PI/000000351,162,enquiries@Threerivers.gov.uk,Three Rivers,http://www.threerivers.gov.uk,-0.38566600000000,WD19 6FR,2013-12-20,fhrs_2_en-GB,2,,FHRS,15
38582,Clancy,Coppermill Lane,West Hyde,Hertfordshire,Ocs Catering Ltd @ Clancy Docwra,Other catering premises,7841,5,,324088,5,,51.60803700000000,PI/000034940,162,enquiries@Threerivers.gov.uk,Three Rivers,http://www.threerivers.gov.uk,-0.49914300000000,UB9 6HZ,2014-12-01,fhrs_5_en-GB,5,,FHRS,5
38583,20-21 Heronsgate Road,Chorleywood,Hertfordshire,,Old Macdonalds Day Nursery,Hospitals/Childcare/Caring Premises,5,5,,324012,5,,51.64631800000000,PI/000027101,162,enquiries@Threerivers.gov.uk,Three Rivers,http://www.threerivers.gov.uk,-0.52771100000000,WD3 5BN,2014-04-29,fhrs_5_en-GB,5,,FHRS,5
38584,24 Hallowes Crescent,South Oxhey,Hertfordshire,,Oxhey Fish & Chips,Takeaway/sandwich shop,7844,20,,323878,10,,51.62892300000000,PI/000010714,162,enquiries@Threerivers.gov.uk,Three Rivers,http://www.threerivers.gov.uk,-0.40878900000000,WD19 7NT,2014-11-19,fhrs_1_en-GB,1,,FHRS,10
38585,Oxhey Park Golf Centre,Prestwick Road,South Oxhey,Hertfordshire,Oxhey Park Golf Club,Restaurant/Cafe/Canteen,1,10,,324009,0,,51.63317300000000,PI/000026559,162,enquiries@Threerivers.gov.uk,Three Rivers,http://www.threerivers.gov.uk,-0.38880000000000,WD19 7EX,2014-07-31,fhrs_4_en-GB,4,,FHRS,10
38586,Rickmansworth School,Scots Hill,Croxley Green,Hertfordshire,Pabulum Ltd,School/college/university,7845,0,,323880,0,,51.64493100000000,PI/000011063,162,enquiries@Threerivers.gov.uk,Three Rivers,http://www.threerivers.gov.uk,-0.45541800000000,WD3 3AQ,2014-11-07,fhrs_5_en-GB,5,,FHRS,0
38587,High Elms Lane,Abbots Langley,Hertfordshire,,Parmiters School,School/college/university,7845,20,,323854,5,,51.70324800000000,PI/000007519,162,enquiries@Threerivers.gov.uk,Three Rivers,http://www.threerivers.gov.uk,-0.38945300000000,WD25 0UU,2013-06-11,fhrs_1_en-GB,1,,FHRS,10
38588,28 Main Avenue,Moor Park,Hertfordshire,,Peking Garden Restaurant,Restaurant/Cafe/Canteen,1,10,,323956,15,,51.62960500000000,PI/000020435,162,enquiries@Threerivers.gov.uk,Three Rivers,http://www.threerivers.gov.uk,-0.43409300000000,HA6 2HJ,2014-08-13,fhrs_2_en-GB,2,,FHRS,10
38589,43 High Street,Abbots Langley,Hertfordshire,,Peony Garden Takeaway,Takeaway/sandwich shop,7844,5,,324027,5,,51.70724700000000,PI/000028681,162,enquiries@Threerivers.gov.uk,Three Rivers,http://www.threerivers.gov.uk,-0.41636100000000,WD5 0AA,2014-10-16,fhrs_5_en-GB,5,,FHRS,5
38590,Sunley House,Olds Approach,Rickmansworth,Hertfordshire,Pepe's Food Service Limited,Distributors/Transporters,7,,,324320,,,51.63842300000000,PI/000066911,162,enquiries@Threerivers.gov.uk,Three Rivers,http://www.threerivers.gov.uk,-0.43792200000000,WD18 9TB,2010-08-26,fhrs_exempt_en-GB,Exempt,,FHRS,
38591,139 Uxbridge Road,Rickmansworth,Hertfordshire,,Pepe's Piri Piri,Restaurant/Cafe/Canteen,1,,,482431,,,51.63562700000000,PI/000025844,162,enquiries@Threerivers.gov.uk,Three Rivers,http://www.threerivers.gov.uk,-0.48459100000000,WD3 7DW,2014-11-04,fhrs_5_en-GB,5,,FHRS,
38592,28,Peerglow Industrial Estate,Olds Approach,Rickmansworth,Picasso Caterers,Other catering premises,7841,5,,324168,0,,51.63850000000000,PI/000048093,162,enquiries@Threerivers.gov.uk,Three Rivers,http://www.threerivers.gov.uk,-0.44307800000000,WD18 9SR,2013-05-15,fhrs_4_en-GB,4,,FHRS,10
38593,35 High Street,Abbots Langley,Hertfordshire,,Pin Wei,Restaurant/Cafe/Canteen,1,10,,323991,15,,51.70724700000000,PI/000024532,162,enquiries@Threerivers.gov.uk,Three Rivers,http://www.threerivers.gov.uk,-0.41636100000000,WD5 0AA,2014-06-27,fhrs_2_en-GB,2,,FHRS,5
38594,64 High Street,Rickmansworth,Hertfordshire,,Post Office and Mace Store,Retailers - other,4613,0,,323887,0,,51.63903200000000,PI/000011653,162,enquiries@Threerivers.gov.uk,Three Rivers,http://www.threerivers.gov.uk,-0.46983900000000,WD3 1AA,2012-05-02,fhrs_5_en-GB,5,,FHRS,5
38595,The Ox,Bridlington Road,South Oxhey,Hertfordshire,Power Taverns LLP,Pub/bar/nightclub,7843,5,,323885,5,,51.62746000000000,PI/000011233,162,enquiries@Threerivers.gov.uk,Three Rivers,http://www.threerivers.gov.uk,-0.38924800000000,WD19 7AG,2014-11-05,fhrs_4_en-GB,4,,FHRS,10
38596,28 Little Oxhey Lane,South Oxhey,Hertfordshire,,Premier Food & Wine,Retailers - other,4613,10,,434099,10,,51.61930900000000,PI/000066882,162,enquiries@Threerivers.gov.uk,Three Rivers,http://www.threerivers.gov.uk,-0.38566600000000,WD19 6FR,2014-07-31,fhrs_3_en-GB,3,,FHRS,10
38597,72 Church Lane,Mill End,Hertfordshire,,Premiere Food & Wine,Retailers - other,4613,5,,323977,5,,51.63690500000000,PI/000023379,162,enquiries@Threerivers.gov.uk,Three Rivers,http://www.threerivers.gov.uk,-0.49382600000000,WD3 8HE,2013-01-22,fhrs_4_en-GB,4,,FHRS,10
38598,The Druids,205 High Street,Rickmansworth,Hertfordshire,Punch Taverns Plc,Pub/bar/nightclub,7843,20,,323982,10,,51.63883700000000,PI/000023890,162,enquiries@Threerivers.gov.uk,Three Rivers,http://www.threerivers.gov.uk,-0.47421000000000,WD3 1BB,2014-05-21,fhrs_1_en-GB,1,,FHRS,10
38599,The Pavillion,Green Lane,Oxhey Hall,Hertfordshire,Punch Taverns Plc,Pub/bar/nightclub,7843,5,,324266,5,,51.63374400000000,PI/000059485,162,enquiries@Threerivers.gov.uk,Three Rivers,http://www.threerivers.gov.uk,-0.39372200000000,WD19 4LT,2014-11-12,fhrs_4_en-GB,4,,FHRS,10
38600,The Tree Public House,166 Uxbridge Road,Rickmansworth,Hertfordshire,Punch Taverns Plc,Pub/bar/nightclub,7843,5,,324000,0,,51.63461800000000,PI/000025861,162,enquiries@Threerivers.gov.uk,Three Rivers,http://www.threerivers.gov.uk,-0.48935000000000,WD3 8BQ,2012-06-14,fhrs_5_en-GB,5,,FHRS,5
38601,Margaret House Residential Home,Parsonage Close,Abbots Langley,Hertfordshire,Quantum Care Ltd,Hospitals/Childcare/Caring Premises,5,0,,324221,5,,51.70959400000000,PI/000054301,162,enquiries@Threerivers.gov.uk,Three Rivers,http://www.threerivers.gov.uk,-0.41771200000000,WD5 0BQ,2014-06-04,fhrs_5_en-GB,5,,FHRS,0
38602,Meresworth Residential Home,Field Way,Rickmansworth,Hertfordshire,Quantum Care Ltd,Hospitals/Childcare/Caring Premises,5,5,,324051,5,,51.63714800000000,PI/000031606,162,enquiries@Threerivers.gov.uk,Three Rivers,http://www.threerivers.gov.uk,-0.48756100000000,WD3 7EJ,2013-12-30,fhrs_5_en-GB,5,,FHRS,5
38603,Pinewood Lodge Residential Home,Oxhey Drive,South Oxhey,Hertfordshire,Quantum Care Ltd,Hospitals/Childcare/Caring Premises,5,5,,323942,5,,51.62523900000000,PI/000018805,162,enquiries@Threerivers.gov.uk,Three Rivers,http://www.threerivers.gov.uk,-0.39777900000000,WD19 7HR,2014-06-04,fhrs_5_en-GB,5,,FHRS,5
38604,The Fairway Residential Home,Green Lane,Oxhey Hall,Hertfordshire,Quantum Care Ltd,Hospitals/Childcare/Caring Premises,5,0,,323910,0,,51.63473500000000,PI/000014270,162,enquiries@Threerivers.gov.uk,Three Rivers,http://www.threerivers.gov.uk,-0.39256000000000,WD19 4LX,2015-01-07,fhrs_5_en-GB,5,,FHRS,5
38605,173a High Street,Rickmansworth,Hertfordshire,,Rasal Brassierie Restaurant,Restaurant/Cafe/Canteen,1,10,,324274,10,,51.63904200000000,PI/000060962,162,enquiries@Threerivers.gov.uk,Three Rivers,http://www.threerivers.gov.uk,-0.47265600000000,WD3 1AY,2014-06-26,fhrs_3_en-GB,3,,FHRS,10
38606,5 Tudor Parade,Rickmansworth,Hertfordshire,,Rasal Takeaway,Takeaway/sandwich shop,7844,5,,323843,5,,51.64104000000000,PI/000006527,162,enquiries@Threerivers.gov.uk,Three Rivers,http://www.threerivers.gov.uk,-0.49157900000000,WD3 4DF,2013-03-05,fhrs_5_en-GB,5,,FHRS,5
38607,4,The Parade,Prestwick Road,South Oxhey,Red Cafe,Restaurant/Cafe/Canteen,1,5,,324230,5,,51.62782200000000,PI/000055324,162,enquiries@Threerivers.gov.uk,Three Rivers,http://www.threerivers.gov.uk,-0.38740100000000,WD19 7ED,2013-09-18,fhrs_5_en-GB,5,,FHRS,5
38608,92 High Street,Rickmansworth,Hertfordshire,,Remo's Piazza,Restaurant/Cafe/Canteen,1,10,,409492,5,,51.63929200000000,PI/000065971,162,enquiries@Threerivers.gov.uk,Three Rivers,http://www.threerivers.gov.uk,-0.47114500000000,WD3 1AQ,2014-12-11,fhrs_4_en-GB,4,,FHRS,5
38609,The Rivers Office Park,Maple Cross,Rickmansworth,Hertfordshire,Renault/Nissan Alliance,Restaurant/Cafe/Canteen,1,0,,323946,0,,51.62582900000000,PI/000018962,162,enquiries@Threerivers.gov.uk,Three Rivers,http://www.threerivers.gov.uk,-0.50590900000000,WD3 9YS,2012-11-29,fhrs_5_en-GB,5,,FHRS,5
38610,153a Uxbridge Road,Rickmansworth,Hertfordshire,,Robertos,Restaurant/Cafe/Canteen,1,5,,324038,5,,51.63562700000000,PI/000030006,162,enquiries@Threerivers.gov.uk,Three Rivers,http://www.threerivers.gov.uk,-0.48459100000000,WD3 7DW,2013-09-03,fhrs_5_en-GB,5,,FHRS,5
38611,10 Main Parade,Chorleywood,Hertfordshire,,Rootz,Restaurant/Cafe/Canteen,1,10,,521893,10,,51.65543000000000,PI/000064624,162,enquiries@Threerivers.gov.uk,Three Rivers,http://www.threerivers.gov.uk,-0.52153200000000,WD3 5RB,2014-07-30,fhrs_3_en-GB,3,,FHRS,10
38612,Swillet House,52 Heronsgate Road,Chorleywood,Hertfordshire,Rootz Brasserie,Restaurant/Cafe/Canteen,1,5,,323845,10,,51.64697400000000,PI/000006596,162,enquiries@Threerivers.gov.uk,Three Rivers,http://www.threerivers.gov.uk,-0.52841300000000,WD3 5BB,2014-07-30,fhrs_3_en-GB,3,,FHRS,10
38613,Rose And Crown Public House,Woodcock Hill,Rickmansworth,Hertfordshire,Rose and Crown,Pub/bar/nightclub,7843,5,,324160,5,,51.62207800000000,PI/000047029,162,enquiries@Threerivers.gov.uk,Three Rivers,http://www.threerivers.gov.uk,-0.47023600000000,WD3 1PP,2013-12-06,fhrs_5_en-GB,5,,FHRS,5
38614,Common Road,Chorleywood,Hertfordshire,,Rose And Crown Public House,Pub/bar/nightclub,7843,,,324206,,,51.65588800000000,PI/000052248,162,enquiries@Threerivers.gov.uk,Three Rivers,http://www.threerivers.gov.uk,-0.51716600000000,WD3 5LW,2013-08-15,fhrs_4_en-GB,4,,FHRS,
38615,161-163 Watford Road,Croxley Green,Hertfordshire,,Royal British Legion Croxley Green,Pub/bar/nightclub,7843,10,,324282,10,,51.64969500000000,PI/000062629,162,enquiries@Threerivers.gov.uk,Three Rivers,http://www.threerivers.gov.uk,-0.43694200000000,WD3 3ED,2013-08-08,fhrs_3_en-GB,3,,FHRS,5
38616,Rickmansworth Delivery Office,Rectory Lane,Rickmansworth,Hertfordshire,Royal Mail,Restaurant/Cafe/Canteen,1,0,,323926,0,,51.63975000000000,PI/000016549,162,enquiries@Threerivers.gov.uk,Three Rivers,http://www.threerivers.gov.uk,-0.47456900000000,WD3 1FA,2011-01-05,fhrs_5_en-GB,5,,FHRS,5
38617,109 Primrose Hill,Kings Langley,Hertfordshire,,Rumblin Tums,Retailers - other,4613,5,,323996,5,,51.71554400000000,PI/000025608,162,enquiries@Threerivers.gov.uk,Three Rivers,http://www.threerivers.gov.uk,-0.44178100000000,WD4 8HX,2013-08-19,fhrs_5_en-GB,5,,FHRS,5
38618,76 Church Lane,Mill End,Hertfordshire,,S V S News,Retailers - other,4613,10,,324053,5,,51.63690500000000,PI/000031653,162,enquiries@Threerivers.gov.uk,Three Rivers,http://www.threerivers.gov.uk,-0.49382600000000,WD3 8HE,2013-11-08,fhrs_3_en-GB,3,,FHRS,10
38619,8,The Parade,Delta Gain,Carpenders Park,Saffron,Restaurant/Cafe/Canteen,1,,,324253,,,51.62816800000000,PI/000058426,162,enquiries@Threerivers.gov.uk,Three Rivers,http://www.threerivers.gov.uk,-0.38315500000000,WD19 5BL,2014-11-14,fhrs_4_en-GB,4,,FHRS,
38620,33 Lower Road,Chorleywood,Hertfordshire,,Sathi Restaurant,Restaurant/Cafe/Canteen,1,,,323908,,,51.65406400000000,PI/000014166,162,enquiries@Threerivers.gov.uk,Three Rivers,http://www.threerivers.gov.uk,-0.51946600000000,WD3 5LQ,2014-02-13,fhrs_3_en-GB,3,,FHRS,
38621,137 Uxbridge Road,Rickmansworth,Hertfordshire,,Sea Master,Takeaway/sandwich shop,7844,5,,324261,5,,51.63562700000000,PI/000058795,162,enquiries@Threerivers.gov.uk,Three Rivers,http://www.threerivers.gov.uk,-0.48459100000000,WD3 7DW,2014-07-18,fhrs_5_en-GB,5,,FHRS,5
38622,152 Watford Road,Croxley Green,Hertfordshire,,Seaworld Fish & Chip Takeaway,Takeaway/sandwich shop,7844,5,,324108,10,,51.64673400000000,PI/000037847,162,enquiries@Threerivers.gov.uk,Three Rivers,http://www.threerivers.gov.uk,-0.44350500000000,WD3 3BZ,2014-10-27,fhrs_4_en-GB,4,,FHRS,5
38623,142 High Street,Rickmansworth,Hertfordshire,,Seriously Sweet,Retailers - other,4613,10,,612399,10,,51.63927400000000,PI/000036168,162,enquiries@Threerivers.gov.uk,Three Rivers,http://www.threerivers.gov.uk,-0.47251800000000,WD3 1AB,2013-11-13,fhrs_2_en-GB,2,,FHRS,15
38624,25 & 33,Peerglow Industrial Estate,Olds Approach,Rickmansworth,Seven Seeded Limited,Manufacturers/packers,7839,,,323949,,,51.63845500000000,PI/000019476,162,enquiries@Threerivers.gov.uk,Three Rivers,http://www.threerivers.gov.uk,-0.44303700000000,WD18 9SR,2013-05-21,fhrs_exempt_en-GB,Exempt,,FHRS,
38625,13-17 Rectory Road,Rickmansworth,Hertfordshire,,Seymour House,Hospitals/Childcare/Caring Premises,5,10,,323960,5,,51.63946300000000,PI/000020901,162,enquiries@Threerivers.gov.uk,Three Rivers,http://www.threerivers.gov.uk,-0.47603800000000,WD3 1FH,2014-02-03,fhrs_4_en-GB,4,,FHRS,5
38626,18 Main Avenue,Moor Park,Hertfordshire,,Shemul,Restaurant/Cafe/Canteen,1,10,,323989,5,,51.62960500000000,PI/000024481,162,enquiries@Threerivers.gov.uk,Three Rivers,http://www.threerivers.gov.uk,-0.43409300000000,HA6 2HJ,2014-12-01,fhrs_4_en-GB,4,,FHRS,5
38627,Shepherd House,College Road,Abbots Langley,Hertfordshire,Sherwood News,Retailers - other,4613,10,,323822,10,,51.70203500000000,PI/000002867,162,enquiries@Threerivers.gov.uk,Three Rivers,http://www.threerivers.gov.uk,-0.40602300000000,WD5 0NX,2014-11-06,fhrs_3_en-GB,3,,FHRS,10
38628,,,,,Shorba,Mobile caterer,7846,10,,534312,10,,,PI/000042346,162,enquiries@Threerivers.gov.uk,Three Rivers,http://www.threerivers.gov.uk,,,2014-04-29,fhrs_3_en-GB,3,,FHRS,10
38629,The Halfway House,91 Uxbridge Road,Rickmansworth,Hertfordshire,Sid & Jack's Kitchen,Restaurant/Cafe/Canteen,1,10,,605227,15,,51.63730000000000,PI/000068425,162,enquiries@Threerivers.gov.uk,Three Rivers,http://www.threerivers.gov.uk,-0.47908800000000,WD3 7DQ,2013-10-23,fhrs_2_en-GB,2,,FHRS,10
38630,,,,,Silli Chilli,Other catering premises,7841,5,,323992,5,,,PI/000024631,162,enquiries@Threerivers.gov.uk,Three Rivers,http://www.threerivers.gov.uk,,,2014-04-16,fhrs_5_en-GB,5,,FHRS,5
38631,51 Baldwins Lane,Croxley Green,Hertfordshire,,Simmons,Retailers - other,4613,5,,528484,0,,51.65216400000000,PI/000001017,162,enquiries@Threerivers.gov.uk,Three Rivers,http://www.threerivers.gov.uk,-0.43265100000000,WD3 3LS,2013-03-20,fhrs_5_en-GB,5,,FHRS,5
38632,5,Katherine Place,College Road,Abbots Langley,Simmons Bakers Ltd,Retailers - other,4613,5,,323948,5,,51.70091800000000,PI/000019372,162,enquiries@Threerivers.gov.uk,Three Rivers,http://www.threerivers.gov.uk,-0.40389100000000,WD5 0BT,2014-03-26,fhrs_5_en-GB,5,,FHRS,5
38633,47 High Street,Abbots Langley,Hertfordshire,,Simon East Butchers,Retailers - other,4613,5,,323892,5,,51.70724700000000,PI/000012257,162,enquiries@Threerivers.gov.uk,Three Rivers,http://www.threerivers.gov.uk,-0.41636100000000,WD5 0AA,2013-10-15,fhrs_4_en-GB,4,,FHRS,10
38634,2,The Parade,Prestwick Road,South Oxhey,Simons Kebab And Pizza House,Takeaway/sandwich shop,7844,10,,324045,10,,51.62782200000000,PI/000030691,162,enquiries@Threerivers.gov.uk,Three Rivers,http://www.threerivers.gov.uk,-0.38740100000000,WD19 7ED,2014-01-24,fhrs_3_en-GB,3,,FHRS,10
38635,127 Boundary Way,Garston,Hertfordshire,,Snacks Van,Mobile caterer,7846,5,,606706,10,,51.70020900000000,PI/000026114,162,enquiries@Threerivers.gov.uk,Three Rivers,http://www.threerivers.gov.uk,-0.39275900000000,WD25 7SP,2014-05-22,fhrs_4_en-GB,4,,FHRS,5
38636,6 Station Approach,South Oxhey,Hertfordshire,,South Oxhey Chinese Takeaway,Takeaway/sandwich shop,7844,10,,323852,10,,51.62811100000000,PI/000007211,162,enquiries@Threerivers.gov.uk,Three Rivers,http://www.threerivers.gov.uk,-0.38616200000000,WD19 7DT,2015-01-12,fhrs_3_en-GB,3,,FHRS,10
38637,28 School Mead,Abbots Langley,Hertfordshire,,Spar,Retailers - other,4613,10,,324302,5,,51.69851400000000,PI/000065878,162,enquiries@Threerivers.gov.uk,Three Rivers,http://www.threerivers.gov.uk,-0.42562300000000,WD5 0LA,2015-01-08,fhrs_4_en-GB,4,,FHRS,5
38638,Mill End Stores,68-70 Church Lane,Mill End,Hertfordshire,Spark Stores,Retailers - other,4613,5,,324015,0,,51.63690500000000,PI/000027522,162,enquiries@Threerivers.gov.uk,Three Rivers,http://www.threerivers.gov.uk,-0.49382600000000,WD3 8HE,2012-04-30,fhrs_5_en-GB,5,,FHRS,5
38639,Hertsmere Leisure Ltd,Fairway Inn Public House Rickmansworth Golf Course,Moor Lane,Rickmansworth,SPCL Ltd,Pub/bar/nightclub,7843,5,,324245,5,,51.63370000000000,PI/000057628,162,enquiries@Threerivers.gov.uk,Three Rivers,http://www.threerivers.gov.uk,-0.45951300000000,WD3 1QL,2013-08-20,fhrs_4_en-GB,4,,FHRS,10
38640,307 Prestwick Road,South Oxhey,Hertfordshire,,Spicy Tomato Pizza,Takeaway/sandwich shop,7844,5,,323817,5,,51.61666700000000,PI/000001879,162,enquiries@Threerivers.gov.uk,Three Rivers,http://www.threerivers.gov.uk,-0.39429600000000,WD19 6UT,2013-05-21,fhrs_5_en-GB,5,,FHRS,5
38641,"Friendship Club, St Andrews Church",37 Quickley Lane,Chorleywood,Hertfordshire,St Andrews Day Centre,Other catering premises,7841,5,,323994,5,,51.64949300000000,PI/000025298,162,enquiries@Threerivers.gov.uk,Three Rivers,http://www.threerivers.gov.uk,-0.52208700000000,WD3 5AE,2014-12-16,fhrs_5_en-GB,5,,FHRS,0
38642,Horseshoe Lane,Garston,Hertfordshire,,St Catherine Of Siena Rc Jmi School,School/college/university,7845,5,,324212,5,,51.69642400000000,PI/000052906,162,enquiries@Threerivers.gov.uk,Three Rivers,http://www.threerivers.gov.uk,-0.38558600000000,WD25 7HP,2014-12-08,fhrs_5_en-GB,5,,FHRS,5
38643,208a Watford Road,Croxley Green,Hertfordshire,,Standard Tandoori Restaurant,Restaurant/Cafe/Canteen,1,10,,324109,10,,51.64822100000000,PI/000037851,162,enquiries@Threerivers.gov.uk,Three Rivers,http://www.threerivers.gov.uk,-0.43906000000000,WD3 3DD,2013-05-16,fhrs_3_en-GB,3,,FHRS,10
38644,12 New Parade,Chorleywood,Hertfordshire,,Stratton Bakery,Retailers - other,4613,5,,323837,0,,51.65512100000000,PI/000005877,162,enquiries@Threerivers.gov.uk,Three Rivers,http://www.threerivers.gov.uk,-0.52197600000000,WD3 5NJ,2013-05-14,fhrs_5_en-GB,5,,FHRS,5
38645,12 Main Parade,Chorleywood,Hertfordshire,,Sujoy Tandoori Restaurant,Restaurant/Cafe/Canteen,1,5,,323883,5,,51.65543000000000,PI/000011190,162,enquiries@Threerivers.gov.uk,Three Rivers,http://www.threerivers.gov.uk,-0.52153200000000,WD3 5RB,2014-07-30,fhrs_5_en-GB,5,,FHRS,5
38646,6 St Andrews Road,South Oxhey,Hertfordshire,,Sunny Boys Cafe,Restaurant/Cafe/Canteen,1,10,,324087,10,,51.62728600000000,PI/000034910,162,enquiries@Threerivers.gov.uk,Three Rivers,http://www.threerivers.gov.uk,-0.38830100000000,WD19 7AB,2013-08-15,fhrs_3_en-GB,3,,FHRS,10
38647,High View,Chorleywood,Hertfordshire,,Sunrise Senior Living,Hospitals/Childcare/Caring Premises,5,5,,324102,5,,51.65636700000000,PI/000036860,162,enquiries@Threerivers.gov.uk,Three Rivers,http://www.threerivers.gov.uk,-0.49686800000000,WD3 5TQ,2014-03-03,fhrs_5_en-GB,5,,FHRS,5
38648,37,The Parade,Prestwick Road,South Oxhey,Swallow Garden Takeaway,Takeaway/sandwich shop,7844,5,,323911,0,,51.62680900000000,PI/000014305,162,enquiries@Threerivers.gov.uk,Three Rivers,http://www.threerivers.gov.uk,-0.38697400000000,WD19 7EE,2013-04-26,fhrs_4_en-GB,4,,FHRS,10
38649,57-59 High Street,Abbots Langley,Hertfordshire,,Sweeney'S Budgens,Retailers - supermarkets/hypermarkets,7840,5,,324026,5,,51.70615700000000,PI/000028671,162,enquiries@Threerivers.gov.uk,Three Rivers,http://www.threerivers.gov.uk,-0.41694900000000,WD5 0AE,2014-03-03,fhrs_4_en-GB,4,,FHRS,10
38650,,,,,Sweet at Heart,Other catering premises,7841,,,458037,,,,PI/000023328,162,enquiries@Threerivers.gov.uk,Three Rivers,http://www.threerivers.gov.uk,,,2012-10-24,fhrs_exempt_en-GB,Exempt,,FHRS,
38651,4 Station Road,Rickmansworth,Hertfordshire,,Tamarind Thai Cafe,Restaurant/Cafe/Canteen,1,10,,324195,5,,51.63947600000000,PI/000050975,162,enquiries@Threerivers.gov.uk,Three Rivers,http://www.threerivers.gov.uk,-0.47213600000000,WD3 1QP,2014-06-26,fhrs_4_en-GB,4,,FHRS,5
38652,Tesco Stores Ltd,Harefield Road,Rickmansworth,Hertfordshire,Tesco,Retailers - supermarkets/hypermarkets,7840,5,,324173,0,,51.63387500000000,PI/000048588,162,enquiries@Threerivers.gov.uk,Three Rivers,http://www.threerivers.gov.uk,-0.47020000000000,WD3 1LX,2014-03-04,fhrs_4_en-GB,4,,FHRS,10
38653,11,Katherine Place,College Road,Abbots Langley,Tesco Leavesden Watford Express,Retailers - other,4613,0,,324054,0,,51.70091800000000,PI/000031659,162,enquiries@Threerivers.gov.uk,Three Rivers,http://www.threerivers.gov.uk,-0.40389100000000,WD5 0BT,2013-06-05,fhrs_5_en-GB,5,,FHRS,0
38654,15,Moneyhill Parade,Uxbridge Road,Rickmansworth,Thai Orchid,Restaurant/Cafe/Canteen,1,10,,324262,10,,51.63618100000000,PI/000058797,162,enquiries@Threerivers.gov.uk,Three Rivers,http://www.threerivers.gov.uk,-0.48434200000000,WD3 7BE,2014-07-07,fhrs_3_en-GB,3,,FHRS,10
38655,The Royal Oak Public House,Kitters Green,Abbots Langley,Hertfordshire,Thames Valley Inns Ltd,Pub/bar/nightclub,7843,10,,323998,10,,51.70406600000000,PI/000025786,162,enquiries@Threerivers.gov.uk,Three Rivers,http://www.threerivers.gov.uk,-0.41857100000000,WD5 0ET,2014-02-13,fhrs_3_en-GB,3,,FHRS,10
38656,11 Dove Park,Chorleywood,Hertfordshire,,The Allergy Angel,Retailers - other,4613,5,,647053,5,,51.64947600000000,PI/000008312,162,enquiries@Threerivers.gov.uk,Three Rivers,http://www.threerivers.gov.uk,-0.52716100000000,WD3 5NY,2014-03-29,fhrs_5_en-GB,5,,FHRS,5
38657,Keen On Bars Ltd,The Artichoke Public House,The Green,Croxley Green,The Artichoke,Pub/bar/nightclub,7843,10,,324204,5,,51.64825600000000,PI/000052234,162,enquiries@Threerivers.gov.uk,Three Rivers,http://www.threerivers.gov.uk,-0.45597000000000,WD3 3HN,2014-04-23,fhrs_4_en-GB,4,,FHRS,5
38658,The Black Horse Public House,Dog Kennel Lane,Chorleywood,Hertfordshire,The Black Horse,Pub/bar/nightclub,7843,10,,324148,10,,51.65312900000000,PI/000046337,162,enquiries@Threerivers.gov.uk,Three Rivers,http://www.threerivers.gov.uk,-0.50528700000000,WD3 5EG,2014-05-22,fhrs_3_en-GB,3,,FHRS,10
38659,The Green,Sarratt,Hertfordshire,,The Boot Public House,Pub/bar/nightclub,7843,10,,323874,10,,51.68534400000000,PI/000010309,162,enquiries@Threerivers.gov.uk,Three Rivers,http://www.threerivers.gov.uk,-0.49376700000000,WD3 6BL,2014-02-04,fhrs_2_en-GB,2,,FHRS,15
38660,The Aquadrome,Frogmoor Lane,Rickmansworth,Hertfordshire,The Cafe In The Park,Restaurant/Cafe/Canteen,1,0,,323853,5,,51.63310100000000,PI/000007318,162,enquiries@Threerivers.gov.uk,Three Rivers,http://www.threerivers.gov.uk,-0.47220600000000,WD3 1NB,2014-07-31,fhrs_5_en-GB,5,,FHRS,5
38661,Cedar Village Country Club,Chorleywood,Hertfordshire,,The Cedar Stores,Retailers - other,4613,10,,324307,5,,51.84004974365234,PI/000065929,162,enquiries@Threerivers.gov.uk,Three Rivers,http://www.threerivers.gov.uk,-0.27510499954224,WD3 5GL,2013-09-20,fhrs_4_en-GB,4,,FHRS,5
38662,Cedars Village Country Club,Finch Green,Chorleywood,Hertfordshire,The Cedar Tree Restaurant,Restaurant/Cafe/Canteen,1,5,,324250,5,,51.84004974365234,PI/000058250,162,enquiries@Threerivers.gov.uk,Three Rivers,http://www.threerivers.gov.uk,-0.27510499954224,WD3 5GL,2014-09-09,fhrs_5_en-GB,5,,FHRS,5
38663,95 Tibbs Hill Road,Abbots Langley,Hertfordshire,,The Compasses Public House,Pub/bar/nightclub,7843,5,,324159,5,,51.70481800000000,PI/000046972,162,enquiries@Threerivers.gov.uk,Three Rivers,http://www.threerivers.gov.uk,-0.41232200000000,WD5 0LJ,2013-06-11,fhrs_5_en-GB,5,,FHRS,5
38664,Co-Op Food Store,132-142 New Road,Croxley Green,Hertfordshire,The Co-operative Food Group,Retailers - supermarkets/hypermarkets,7840,0,,324166,0,,51.64815500000000,PI/000048067,162,enquiries@Threerivers.gov.uk,Three Rivers,http://www.threerivers.gov.uk,-0.44829800000000,WD3 3ER,2013-09-26,fhrs_5_en-GB,5,,FHRS,5
38665,309 Baldwins Lane,Croxley Green,Hertfordshire,,The Corner Plaice Takeaway,Takeaway/sandwich shop,7844,5,,324222,0,,51.65371300000000,PI/000054435,162,enquiries@Threerivers.gov.uk,Three Rivers,http://www.threerivers.gov.uk,-0.44906300000000,WD3 3LE,2013-05-29,fhrs_5_en-GB,5,,FHRS,5
38666,Old Mill Road,Hunton Bridge,Hertfordshire,,The Dog And Partridge Public House,Pub/bar/nightclub,7843,5,,324220,5,,51.69308800000000,PI/000054290,162,enquiries@Threerivers.gov.uk,Three Rivers,http://www.threerivers.gov.uk,-0.43411700000000,WD4 8RB,2012-06-06,fhrs_5_en-GB,5,,FHRS,5
38667,Old Shire Lane,Horn Hill,Hertfordshire,,The Dumb Bell Public House,Pub/bar/nightclub,7843,10,,323945,10,,51.62248000000000,PI/000018939,162,enquiries@Threerivers.gov.uk,Three Rivers,http://www.threerivers.gov.uk,-0.53053400000000,SL9 0QY,2014-11-25,fhrs_3_en-GB,3,,FHRS,5
38668,Harvest Moon Free Range Farm,The Mulberry Bush,Dawes Lane,Sarratt,The Farm Kitchen,Manufacturers/packers,7839,10,,728172,10,,51.68160500000000,PI/000068726,162,enquiries@Threerivers.gov.uk,Three Rivers,http://www.threerivers.gov.uk,-0.50024100000000,WD3 6BQ,2014-08-28,fhrs_3_en-GB,3,,FHRS,5
38669,Keen On Bars Ltd,34 Church Street,Rickmansworth,Hertfordshire,The Feathers,Restaurant/Cafe/Canteen,1,10,,324004,10,,51.63741600000000,PI/000026030,162,enquiries@Threerivers.gov.uk,Three Rivers,http://www.threerivers.gov.uk,-0.46865000000000,WD3 1DJ,2014-06-03,fhrs_3_en-GB,3,,FHRS,10
38670,41 High Street,Abbots Langley,Hertfordshire,,The Forest Of India Restaurant,Restaurant/Cafe/Canteen,1,,,324177,,,51.70724700000000,PI/000049155,162,enquiries@Threerivers.gov.uk,Three Rivers,http://www.threerivers.gov.uk,-0.41636100000000,WD5 0AA,2014-01-10,fhrs_4_en-GB,4,,FHRS,
38671,,,,,The Funny Farm,Hospitals/Childcare/Caring Premises,5,5,,323927,5,,,PI/000016621,162,enquiries@Threerivers.gov.uk,Three Rivers,http://www.threerivers.gov.uk,,,2013-06-05,fhrs_5_en-GB,5,,FHRS,5
38672,2,New Parade,The Green,Croxley Green,The Green Tandoori Takeaway,Takeaway/sandwich shop,7844,20,,324094,15,,51.64667400000000,PI/000035688,162,enquiries@Threerivers.gov.uk,Three Rivers,http://www.threerivers.gov.uk,-0.45602400000000,WD3 3AN,2014-06-05,fhrs_1_en-GB,1,,FHRS,15
38673,The Grove,Hempstead Road,Watford,Hertfordshire,The Grove Hotel,Hotel/bed & breakfast/guest house,7842,5,,323913,5,,51.67729600000000,PI/000014354,162,enquiries@Threerivers.gov.uk,Three Rivers,http://www.threerivers.gov.uk,-0.43659900000000,WD3 4TG,2013-08-16,fhrs_5_en-GB,5,,FHRS,0
38674,Christ Church,Rickmansworth Road,Chorleywood,Hertfordshire,The Junction,Restaurant/Cafe/Canteen,1,5,,493545,5,,51.65815900000000,PI/000062414,162,enquiries@Threerivers.gov.uk,Three Rivers,http://www.threerivers.gov.uk,-0.50273600000000,WD3 5SG,2014-01-10,fhrs_5_en-GB,5,,FHRS,0
38675,22-24 Bridge Road,Hunton Bridge,Hertfordshire,,The Kings Head & Coach House,Pub/bar/nightclub,7843,5,,324539,5,,51.69321000000000,PI/000009313,162,enquiries@Threerivers.gov.uk,Three Rivers,http://www.threerivers.gov.uk,-0.43583400000000,WD4 8RE,2014-12-02,fhrs_5_en-GB,5,,FHRS,5
38676,18 School Mead,Abbots Langley,Hertfordshire,,The Lighthouse,Takeaway/sandwich shop,7844,5,,324303,5,,51.69851400000000,PI/000065884,162,enquiries@Threerivers.gov.uk,Three Rivers,http://www.threerivers.gov.uk,-0.42562300000000,WD5 0LA,2014-10-08,fhrs_5_en-GB,5,,FHRS,5
38677,Leavesden Film Studios,Leavesden,Hertfordshire,,The Lindley Group,Restaurant/Cafe/Canteen,1,5,,456471,10,,51.69199900000000,PI/000062621,162,enquiries@Threerivers.gov.uk,Three Rivers,http://www.threerivers.gov.uk,-0.39802700000000,WD25 7LP,2013-09-17,fhrs_4_en-GB,4,,FHRS,5
38678,The Lindley Group,Leavesden Film Studios,Leavesden,Hertfordshire,The Lindley Group Cafe,Restaurant/Cafe/Canteen,1,5,,492471,10,,51.69199900000000,PI/000066967,162,enquiries@Threerivers.gov.uk,Three Rivers,http://www.threerivers.gov.uk,-0.39802700000000,WD25 7LP,2014-03-20,fhrs_4_en-GB,4,,FHRS,0
38679,,,,,The Little Italian Kitchen,Other catering premises,7841,5,,324537,5,,,PI/000006895,162,enquiries@Threerivers.gov.uk,Three Rivers,http://www.threerivers.gov.uk,,,2013-09-07,fhrs_5_en-GB,5,,FHRS,5
38680,4 Station Road,Kings Langley,Hertfordshire,,The Little Shop,Restaurant/Cafe/Canteen,1,10,,323847,5,,51.70690500000000,PI/000006880,162,enquiries@Threerivers.gov.uk,Three Rivers,http://www.threerivers.gov.uk,-0.43854600000000,WD4 8LF,2014-12-12,fhrs_4_en-GB,4,,FHRS,5
38681,26 Little Oxhey Lane,South Oxhey,Hertfordshire,,The Local Cafe,Restaurant/Cafe/Canteen,1,10,,324327,0,,51.61930900000000,PI/000066921,162,enquiries@Threerivers.gov.uk,Three Rivers,http://www.threerivers.gov.uk,-0.38566600000000,WD19 6FR,2014-02-11,fhrs_4_en-GB,4,,FHRS,5
38682,Micklefield Hall,Sarratt Road,Sarratt,Hertfordshire,The Micklefield Partnership,Farmers/growers,7838,0,,324150,0,,51.66657100000000,PI/000046369,162,enquiries@Threerivers.gov.uk,Three Rivers,http://www.threerivers.gov.uk,-0.47861400000000,WD3 6AQ,2014-01-02,fhrs_5_en-GB,5,,FHRS,0
38683,7 New Parade,Chorleywood,Hertfordshire,,The Peppermill Restaurant,Restaurant/Cafe/Canteen,1,10,,324134,10,,51.65512100000000,PI/000042842,162,enquiries@Threerivers.gov.uk,Three Rivers,http://www.threerivers.gov.uk,-0.52197600000000,WD3 5NJ,2014-04-29,fhrs_3_en-GB,3,,FHRS,10
38684,The Plough,Dunny Lane,Belsize,Hertfordshire,The Plough Public House,Pub/bar/nightclub,7843,5,,323897,5,,51.69715200000000,PI/000012837,162,enquiries@Threerivers.gov.uk,Three Rivers,http://www.threerivers.gov.uk,-0.50375000000000,WD3 4NP,2014-06-12,fhrs_4_en-GB,4,,FHRS,10
38685,The Cricketers,The Green,Sarratt,Hertfordshire,The Restaurant Group Plc,Restaurant/Cafe/Canteen,1,5,,323940,5,,51.68205400000000,PI/000018464,162,enquiries@Threerivers.gov.uk,Three Rivers,http://www.threerivers.gov.uk,-0.49176400000000,WD3 6AS,2014-07-31,fhrs_4_en-GB,4,,FHRS,10
38686,Royal Masonic School,Rickmansworth Park,Rickmansworth,Hertfordshire,The Royal Masonic School for Girls,School/college/university,7845,,,324145,,,51.64801100000000,PI/000045964,162,enquiries@Threerivers.gov.uk,Three Rivers,http://www.threerivers.gov.uk,-0.47364100000000,WD3 4HF,2014-06-09,fhrs_5_en-GB,5,,FHRS,
38687,M & K Leisure Ltd,The Stag Public House,Long Lane,Heronsgate,The Stag Chorleywood,Pub/bar/nightclub,7843,5,,323916,5,,51.64482700000000,PI/000014707,162,enquiries@Threerivers.gov.uk,Three Rivers,http://www.threerivers.gov.uk,-0.52567800000000,WD3 5BT,2013-05-21,fhrs_4_en-GB,4,,FHRS,10
38688,133a High Street,Rickmansworth,Hertfordshire,,The Upper Crust,Retailers - other,4613,10,,324063,15,,51.63872900000000,PI/000032118,162,enquiries@Threerivers.gov.uk,Three Rivers,http://www.threerivers.gov.uk,-0.47006600000000,WD3 1AN,2013-09-03,fhrs_2_en-GB,2,,FHRS,5
38689,32 High Street,Abbots Langley,Hertfordshire,,The Village Cafe,Restaurant/Cafe/Canteen,1,20,,324312,5,,51.70642200000000,PI/000065992,162,enquiries@Threerivers.gov.uk,Three Rivers,http://www.threerivers.gov.uk,-0.41723000000000,WD5 0AR,2014-11-11,fhrs_1_en-GB,1,,FHRS,5
38690,367 Uxbridge Road,Rickmansworth,Hertfordshire,,The Whip and Collar,Pub/bar/nightclub,7843,20,,324146,20,,51.63336900000000,PI/000046269,162,enquiries@Threerivers.gov.uk,Three Rivers,http://www.threerivers.gov.uk,-0.49366900000000,WD3 8DT,2014-04-23,fhrs_0_en-GB,0,,FHRS,20
38691,4 Main Avenue,Moor Park,Hertfordshire,,Tolly & Sons Ltd,Retailers - other,4613,10,,323955,5,,51.62960500000000,PI/000020432,162,enquiries@Threerivers.gov.uk,Three Rivers,http://www.threerivers.gov.uk,-0.43409300000000,HA6 2HJ,2014-01-23,fhrs_4_en-GB,4,,FHRS,5
38692,Church Wharf,Church Street,Rickmansworth,Hertfordshire,Travis Perkins Trading Co Ltd,Retailers - other,4613,0,,707680,0,,51.63658800000000,PI/000050675,162,enquiries@Threerivers.gov.uk,Three Rivers,http://www.threerivers.gov.uk,-0.46792700000000,WD3 1JB,2014-11-24,fhrs_5_en-GB,5,,FHRS,0
38693,38 Gallows Hill,Abbots Langley,Hertfordshire,,Unicorn Public House,Pub/bar/nightclub,7843,5,,324059,5,,51.70064200000000,PI/000031922,162,enquiries@Threerivers.gov.uk,Three Rivers,http://www.threerivers.gov.uk,-0.43414500000000,WD4 8LU,2013-06-11,fhrs_5_en-GB,5,,FHRS,5
38694,The Village Tandoori,12 High Street,Abbots Langley,Hertfordshire,Village Tandoori Takeaway,Takeaway/sandwich shop,7844,20,,324099,10,,51.70642200000000,PI/000036784,162,enquiries@Threerivers.gov.uk,Three Rivers,http://www.threerivers.gov.uk,-0.41723000000000,WD5 0AR,2015-01-19,fhrs_1_en-GB,1,,FHRS,15
38695,Marston Cottage,Lower Road,Chorleywood,Hertfordshire,W H Higgins Butcher Ltd,Retailers - other,4613,20,,324265,10,,51.65406400000000,PI/000059367,162,enquiries@Threerivers.gov.uk,Three Rivers,http://www.threerivers.gov.uk,-0.51946600000000,WD3 5LQ,2014-10-06,fhrs_1_en-GB,1,,FHRS,5
38696,Project Centre,Womens Royal Voluntary Service,Bury Lane,Rickmansworth,W R V S Lunch Club,Other catering premises,7841,5,,324092,5,,51.63713100000000,PI/000035637,162,enquiries@Threerivers.gov.uk,Three Rivers,http://www.threerivers.gov.uk,-0.46955600000000,WD3 1DP,2014-12-11,fhrs_5_en-GB,5,,FHRS,5
38697,Homestead Road,Rickmansworth,Hertfordshire,,Waitrose,Retailers - supermarkets/hypermarkets,7840,0,,324178,0,,51.64068300000000,PI/000049304,162,enquiries@Threerivers.gov.uk,Three Rivers,http://www.threerivers.gov.uk,-0.47164700000000,WD3 1FX,2014-07-31,fhrs_5_en-GB,5,,FHRS,5
38698,Centerplate Ltd,5 Hercules Way,Leavesden,Hertfordshire,Warner Bros Studio,Restaurant/Cafe/Canteen,1,5,,465628,10,,51.69436600000000,PI/000023038,162,enquiries@Threerivers.gov.uk,Three Rivers,http://www.threerivers.gov.uk,-0.41206500000000,WD25 7GS,2014-04-07,fhrs_4_en-GB,4,,FHRS,5
38699,Bloc 4,Watford,Hertfordshire,,Waterside Cafe,Restaurant/Cafe/Canteen,1,10,,324323,10,,51.64591800000000,PI/000066914,162,enquiries@Threerivers.gov.uk,Three Rivers,http://www.threerivers.gov.uk,-0.42951300000000,WD18 8YR,2014-02-19,fhrs_3_en-GB,3,,FHRS,10
38700,T/A Daybreak Nurseries Ltd,Watersmeet,High Street,Rickmansworth,Watersmeet,Hospitals/Childcare/Caring Premises,5,0,,323858,0,,51.63852400000000,PI/000007535,162,enquiries@Threerivers.gov.uk,Three Rivers,http://www.threerivers.gov.uk,-0.46463900000000,WD3 1HJ,2014-06-26,fhrs_5_en-GB,5,,FHRS,0
38701,Sunley House,Olds Approach,Rickmansworth,Hertfordshire,Wenzels The Bakers,Manufacturers/packers,7839,,,612400,,,51.63842300000000,PI/000039915,162,enquiries@Threerivers.gov.uk,Three Rivers,http://www.threerivers.gov.uk,-0.43792200000000,WD18 9TB,2013-11-14,fhrs_exempt_en-GB,Exempt,,FHRS,
38702,80a High Street,Rickmansworth,Hertfordshire,,Wenzel's the Bakers,Retailers - other,4613,5,,324095,10,,51.63929200000000,PI/000036174,162,enquiries@Threerivers.gov.uk,Three Rivers,http://www.threerivers.gov.uk,-0.47114500000000,WD3 1AQ,2014-01-20,fhrs_3_en-GB,3,,FHRS,10
38703,Chorleywood Close,Rickmansworth,Hertfordshire,,Westerley Care Home,Hospitals/Childcare/Caring Premises,5,5,,323939,5,,51.64207500000000,PI/000018413,162,enquiries@Threerivers.gov.uk,Three Rivers,http://www.threerivers.gov.uk,-0.47426000000000,WD3 4EG,2014-12-09,fhrs_5_en-GB,5,,FHRS,5
38704,Kings House Business Centre,Home Park Industrial Estate,Kings Langley,Hertfordshire,Wilson Vale Catering,Restaurant/Cafe/Canteen,1,5,,462571,5,,51.70705600000000,PI/000066962,162,enquiries@Threerivers.gov.uk,Three Rivers,http://www.threerivers.gov.uk,-0.43978500000000,WD4 8LZ,2014-04-29,fhrs_5_en-GB,5,,FHRS,0
38705,7 Money Hill Parade,Mill End,Rickmansworth,Hertfordshire,Wimpy Restaurants Ltd,Restaurant/Cafe/Canteen,1,0,,441414,0,,51.63652200000000,PI/000066930,162,enquiries@Threerivers.gov.uk,Three Rivers,http://www.threerivers.gov.uk,-0.48357900000000,WD3 7BQ,2014-03-04,fhrs_5_en-GB,5,,FHRS,5
38706,16 Hallowes Crescent,South Oxhey,Hertfordshire,,Wok 'N' Bowl Take Away,Takeaway/sandwich shop,7844,20,,323944,15,,51.62892300000000,PI/000018938,162,enquiries@Threerivers.gov.uk,Three Rivers,http://www.threerivers.gov.uk,-0.40878900000000,WD19 7NT,2014-08-28,fhrs_1_en-GB,1,,FHRS,10
38707,157a Uxbridge Road,Rickmansworth,Hertfordshire,,Woks Cookin,Takeaway/sandwich shop,7844,20,,324259,10,,51.63562700000000,PI/000058776,162,enquiries@Threerivers.gov.uk,Three Rivers,http://www.threerivers.gov.uk,-0.48459100000000,WD3 7DW,2014-11-21,fhrs_1_en-GB,1,,FHRS,10
38708,156 Watford Road,Croxley Green,Hertfordshire,,Y2k Takeaway,Takeaway/sandwich shop,7844,20,,324131,10,,51.64673400000000,PI/000041982,162,enquiries@Threerivers.gov.uk,Three Rivers,http://www.threerivers.gov.uk,-0.44350500000000,WD3 3BZ,2014-07-03,fhrs_1_en-GB,1,,FHRS,15
38709,26 Lower Road,Chorleywood,Hertfordshire,,Yourz Food and Wine,Retailers - other,4613,10,,324196,10,,51.65406400000000,PI/000051122,162,enquiries@Threerivers.gov.uk,Three Rivers,http://www.threerivers.gov.uk,-0.52013100000000,WD3 5LH,2014-06-25,fhrs_3_en-GB,3,,FHRS,10
38710,181 High Street,Rickmansworth,Hertfordshire,,Yummy Pizza & Paya Thai & Chinese,Takeaway/sandwich shop,7844,,,534313,,,51.63904200000000,PI/000066980,162,enquiries@Threerivers.gov.uk,Three Rivers,http://www.threerivers.gov.uk,-0.47265600000000,WD3 1AY,2014-09-25,fhrs_awaitinginspection_en-GB,AwaitingInspection,,FHRS,
38711,21 Church Street,Rickmansworth,Hertfordshire,,Zaza,Restaurant/Cafe/Canteen,1,5,,324155,5,,51.63776600000000,PI/000046488,162,enquiries@Threerivers.gov.uk,Three Rivers,http://www.threerivers.gov.uk,-0.46861000000000,WD3 1DE,2014-01-06,fhrs_4_en-GB,4,,FHRS,10
