,addressline1,addressline2,addressline3,addressline4,businessname,businesstype,businesstypeid,confidenceinmanagement,extractdate,fhrsid,hygiene,itemcount,latitude,localauthoritybusinessid,localauthoritycode,localauthorityemailaddress,localauthorityname,localauthoritywebsite,longitude,postcode,ratingdate,ratingkey,ratingvalue,returncode,schemetype,structural
40266,143 The Parade High Street,Watford,,,143 Bar,Pub/bar/nightclub,7843,5,,278192,10,,51.65946500000000,05/00079/FOOD2,163,envhealth@watford.gov.uk,Watford,http://www.watford.gov.uk/foodhygieneratings,-0.40124200000000,WD17 1NA,2010-08-20,fhrs_4_en-GB,4,,FHRS,0
40267,158 Whippendell Road,Watford,,,3V Pizzeria,Restaurant/Cafe/Canteen,1,10,,278706,10,,51.65315000000000,11/00088/FOOD2,163,envhealth@watford.gov.uk,Watford,http://www.watford.gov.uk/foodhygieneratings,-0.40762200000000,WD18 7NB,2014-03-24,fhrs_3_en-GB,3,,FHRS,10
40268,77-79 High Street,Watford,,,99p Stores,Retailers - other,4613,0,,278450,0,,51.66740800000000,08/00044/FOOD2,163,envhealth@watford.gov.uk,Watford,http://www.watford.gov.uk/foodhygieneratings,-0.41063100000000,WD17 2DF,2008-07-02,fhrs_5_en-GB,5,,FHRS,0
40269,4 Haydon Road,Watford,Hertfordshire,,Abell Chemist,Retailers - other,4613,,,278744,,,51.64552500000000,12/00015/FOOD2,163,envhealth@watford.gov.uk,Watford,http://www.watford.gov.uk/foodhygieneratings,-0.37746500000000,WD19 4DD,2010-04-27,fhrs_exempt_en-GB,Exempt,,FHRS,
40270,191 St Albans Road,Watford,,,Afccos,Retailers - other,4613,10,,278542,10,,51.66976900000000,09/00014/FOOD2,163,envhealth@watford.gov.uk,Watford,http://www.watford.gov.uk/foodhygieneratings,-0.39784200000000,WD24 5BH,2014-03-06,fhrs_3_en-GB,3,,FHRS,10
40271,13 St James Road,Watford,,,Akshar News,Retailers - other,4613,,,278800,,,51.65144100000000,12/00084/FOOD2,163,envhealth@watford.gov.uk,Watford,http://www.watford.gov.uk/foodhygieneratings,-0.39898000000000,WD18 0DZ,2015-02-04,fhrs_exempt_en-GB,Exempt,,FHRS,
40272,The Brow,Watford,,,Alban Wood Primary And Nursery School,School/college/university,7845,0,,278686,5,,51.69722800000000,11/00007/FOOD2,163,envhealth@watford.gov.uk,Watford,http://www.watford.gov.uk/foodhygieneratings,-0.40033100000000,WD25 7NX,2012-09-12,fhrs_5_en-GB,5,,FHRS,0
40273,13 King Street,Watford,,,Alibaba Tandoori Restaurant,Restaurant/Cafe/Canteen,1,10,,278302,5,,51.65346700000000,07/00050/FOOD2,163,envhealth@watford.gov.uk,Watford,http://www.watford.gov.uk/foodhygieneratings,-0.39458600000000,WD18 0BW,2014-04-08,fhrs_3_en-GB,3,,FHRS,10
40274,96 Queens Avenue,Watford,,,Ambala Express,Takeaway/sandwich shop,7844,20,,683644,25,,51.65159200000000,14/00118/FOOD2,163,envhealth@watford.gov.uk,Watford,http://www.watford.gov.uk/foodhygieneratings,-0.41210000000000,WD18 7NS,2014-07-17,fhrs_0_en-GB,0,,FHRS,15
40275,Watford Junction Station,Station Road,Watford,,AMT Coffee Watford,Takeaway/sandwich shop,7844,0,,278676,5,,51.66401100000000,10/00175/FOOD2,163,envhealth@watford.gov.uk,Watford,http://www.watford.gov.uk/foodhygieneratings,-0.39827700000000,WD17 1EG,2011-08-31,fhrs_4_en-GB,4,,FHRS,10
40276,115 The Harlequin,Watford,,,Ann Summers Ltd,Retailers - other,4613,,,278624,,,51.65472700000000,10/00033/FOOD2,163,envhealth@watford.gov.uk,Watford,http://www.watford.gov.uk/foodhygieneratings,-0.39335600000000,WD17 2TH,2010-05-17,fhrs_exempt_en-GB,Exempt,,FHRS,
40277,Cassiobury Park,Rousebarn Lane,Three Rivers,Croxley Green,Anna's Kitchen Ltd,Restaurant/Cafe/Canteen,1,0,,278461,0,,51.65723000000000,08/00068/FOOD2,163,envhealth@watford.gov.uk,Watford,http://www.watford.gov.uk/foodhygieneratings,-0.43022000000000,WD3 3GG,2014-03-04,fhrs_4_en-GB,4,,FHRS,10
40278,Argos Ltd,UNIT E,Waterfields Retail Park,Watford,Argos,Retailers - other,4613,,,278745,,,51.65242300000000,12/00016/FOOD2,163,envhealth@watford.gov.uk,Watford,http://www.watford.gov.uk/foodhygieneratings,-0.38992500000000,WD17 2EU,2006-01-10,fhrs_exempt_en-GB,Exempt,,FHRS,
40279,1 Charter Place,Watford,,,Argos Superstore,Retailers - other,4613,,,278719,,,51.65596100000000,11/00152/FOOD2,163,envhealth@watford.gov.uk,Watford,http://www.watford.gov.uk/foodhygieneratings,-0.39546700000000,WD17 2RR,2006-01-31,fhrs_exempt_en-GB,Exempt,,FHRS,
40280,Aromas,162 High Street,Watford,,Aroma Cafe,Restaurant/Cafe/Canteen,1,5,,278527,5,,51.65318700000000,08/00222/FOOD2,163,envhealth@watford.gov.uk,Watford,http://www.watford.gov.uk/foodhygieneratings,-0.39254300000000,WD17 2EG,2013-08-14,fhrs_5_en-GB,5,,FHRS,5
40281,Odhams Trading Estate Access Road,Watford,,,Asda Cafe,Restaurant/Cafe/Canteen,1,0,,278421,0,,51.67948900000000,07/00281/FOOD2,163,envhealth@watford.gov.uk,Watford,http://www.watford.gov.uk/foodhygieneratings,-0.38994900000000,WD24 7RT,2014-09-12,fhrs_5_en-GB,5,,FHRS,0
40282,Odhams Trading Estate Access Road,Watford,,,Asda Pharmacy,Retailers - other,4613,,,278578,,,51.67948900000000,09/00170/FOOD2,163,envhealth@watford.gov.uk,Watford,http://www.watford.gov.uk/foodhygieneratings,-0.38994900000000,WD24 7RT,2008-04-22,fhrs_exempt_en-GB,Exempt,,FHRS,
40283,Odhams Trading Estate  Asda Stores,St Albans Road,Watford,,Asda Stores,Retailers - supermarkets/hypermarkets,7840,0,,278285,0,,51.67948900000000,07/00027/FOOD2,163,envhealth@watford.gov.uk,Watford,http://www.watford.gov.uk/foodhygieneratings,-0.38994900000000,WD24 7RT,2013-12-02,fhrs_5_en-GB,5,,FHRS,5
40284,The Former Post Office,Market Street,Watford,,Ask Italian Restaurant,Restaurant/Cafe/Canteen,1,0,,278419,0,,51.65558200000000,07/00269/FOOD2,163,envhealth@watford.gov.uk,Watford,http://www.watford.gov.uk/foodhygieneratings,-0.39737400000000,WD18 0LG,2014-03-10,fhrs_5_en-GB,5,,FHRS,0
40285,41 The Harlequin,Watford,,,Auntie Anne's,Restaurant/Cafe/Canteen,1,0,,278700,0,,51.65608900000000,11/00067/FOOD2,163,envhealth@watford.gov.uk,Watford,http://www.watford.gov.uk/foodhygieneratings,-0.39434900000000,WD17 2TE,2013-03-08,fhrs_5_en-GB,5,,FHRS,5
40286,81 Codicote Drive,Watford,Hertfordshire,,Authentic Catering,Other catering premises,7841,5,,657234,5,,51.69046600000000,14/00068/FOOD2,163,envhealth@watford.gov.uk,Watford,http://www.watford.gov.uk/foodhygieneratings,-0.38326600000000,WD25 9QZ,2014-03-25,fhrs_4_en-GB,4,,FHRS,10
40287,The Wishing Well Public House,188 - 194 St Albans Road,Watford,,Authentic Thai,Restaurant/Cafe/Canteen,1,5,,421617,10,,51.67028600000000,12/00093/FOOD2,163,envhealth@watford.gov.uk,Watford,http://www.watford.gov.uk/foodhygieneratings,-0.39689800000000,WD24 4AT,2013-08-15,fhrs_4_en-GB,4,,FHRS,5
40288,11 Stamford Road,Watford,,,"Authentic Thai Cuisine, Nascot Arms",Restaurant/Cafe/Canteen,1,5,,278295,5,,51.66521000000000,07/00041/FOOD2,163,envhealth@watford.gov.uk,Watford,http://www.watford.gov.uk/foodhygieneratings,-0.40182000000000,WD17 4QS,2013-12-04,fhrs_5_en-GB,5,,FHRS,5
40289,Unit 37,Watford Market,Watford House Lane,Watford,Aylesbury Fisheries,Mobile caterer,7846,0,,732437,5,,51.65728100000000,14/00157/FOOD2,163,envhealth@watford.gov.uk,Watford,http://www.watford.gov.uk/foodhygieneratings,-0.39802200000000,WD17 1BJ,2015-01-21,fhrs_5_en-GB,5,,FHRS,5
40290,208 St Albans Road,Watford,,,Bains Newsagents,Retailers - other,4613,,,278274,,,51.67108100000000,06870/0208/0/000,163,envhealth@watford.gov.uk,Watford,http://www.watford.gov.uk/foodhygieneratings,-0.39646600000000,WD24 4AU,2006-02-17,fhrs_exempt_en-GB,Exempt,,FHRS,
40291,,,,,Bakhter Fresh Food,Mobile caterer,7846,0,,563888,0,,,13/00017/FOOD2,163,envhealth@watford.gov.uk,Watford,http://www.watford.gov.uk/foodhygieneratings,,,2013-05-13,fhrs_4_en-GB,4,,FHRS,10
40292,9 King Street,Watford,,,Banana Tree,Restaurant/Cafe/Canteen,1,0,,637369,5,,51.65349300000000,13/00089/FOOD2,163,envhealth@watford.gov.uk,Watford,http://www.watford.gov.uk/foodhygieneratings,-0.39454200000000,WD18 0BW,2014-03-05,fhrs_5_en-GB,5,,FHRS,5
40293,23 - 33 The Parade High Street,Watford,,,Band M Retail Ltd,Retailers - other,4613,0,,636608,0,,51.65709400000000,13/00123/FOOD2,163,envhealth@watford.gov.uk,Watford,http://www.watford.gov.uk/foodhygieneratings,-0.39814500000000,WD17 1LQ,2014-02-10,fhrs_5_en-GB,5,,FHRS,0
40294,151 The Parade,High Street,Watford,,Bar Bodega (Watford),Pub/bar/nightclub,7843,0,,278481,0,,51.65946500000000,08/00104/FOOD2,163,envhealth@watford.gov.uk,Watford,http://www.watford.gov.uk/foodhygieneratings,-0.40124200000000,WD17 1NA,2014-11-19,fhrs_4_en-GB,4,,FHRS,10
40295,Unwins Wine Merchants,111 Courtlands Drive,Watford,,Bargain Booze,Retailers - other,4613,,,278664,,,51.68237000000000,10/00144/FOOD2,163,envhealth@watford.gov.uk,Watford,http://www.watford.gov.uk/foodhygieneratings,-0.41870500000000,WD17 4HZ,2014-10-17,fhrs_exempt_en-GB,Exempt,,FHRS,
40296,45 The Parade High Street,Watford,,,Barracuda,Restaurant/Cafe/Canteen,1,0,,278261,5,,51.65787300000000,06/00183/FOOD2,163,envhealth@watford.gov.uk,Watford,http://www.watford.gov.uk/foodhygieneratings,-0.39924500000000,WD17 1LJ,2014-01-27,fhrs_5_en-GB,5,,FHRS,5
40297,8 Clarendon Road,Watford,,,Barracuda,Other catering premises,7841,5,,730689,5,,51.65688700000000,14/00190/FOOD2,163,envhealth@watford.gov.uk,Watford,http://www.watford.gov.uk/foodhygieneratings,-0.39745800000000,WD17 1DY,2014-12-02,fhrs_5_en-GB,5,,FHRS,0
40298,Ladys Close,Watford,Hertfordshire,,Barracudas Activity Day Camp,Hospitals/Childcare/Caring Premises,5,,,559332,,,51.65158700000000,12/00013/FOOD2,163,envhealth@watford.gov.uk,Watford,http://www.watford.gov.uk/foodhygieneratings,-0.39586700000000,WD18 0AE,2012-10-18,fhrs_exempt_en-GB,Exempt,,FHRS,
40299,Cherry Tree Road,Watford,Hertfordshire,,Baxter Storey,Restaurant/Cafe/Canteen,1,5,,278439,5,,51.68051400000000,08/00024/FOOD2,163,envhealth@watford.gov.uk,Watford,http://www.watford.gov.uk/foodhygieneratings,-0.40246800000000,WD24 6SH,2013-09-11,fhrs_5_en-GB,5,,FHRS,5
40300,244 St Albans Road,Watford,,,Bazil,Takeaway/sandwich shop,7844,20,,637374,15,,51.67193900000000,14/00010/FOOD2,163,envhealth@watford.gov.uk,Watford,http://www.watford.gov.uk/foodhygieneratings,-0.39608800000000,WD24 4AX,2014-03-12,fhrs_1_en-GB,1,,FHRS,15
40301,76A High Street,Watford,,,BBQ Express Watford Ltd,Takeaway/sandwich shop,7844,20,,516088,10,,51.65523500000000,12/00166/FOOD2,163,envhealth@watford.gov.uk,Watford,http://www.watford.gov.uk/foodhygieneratings,-0.39633100000000,WD17 2BP,2014-08-01,fhrs_1_en-GB,1,,FHRS,10
40302,53 The Harlequin,Watford,,,BBs Coffee & Muffins,Restaurant/Cafe/Canteen,1,0,,278549,0,,51.65506700000000,09/00028/FOOD2,163,envhealth@watford.gov.uk,Watford,http://www.watford.gov.uk/foodhygieneratings,-0.39259300000000,WD17 2TF,2013-07-26,fhrs_5_en-GB,5,,FHRS,5
40303,9 High Street,Watford,,,Beavers,Pub/bar/nightclub,7843,0,,278623,0,,51.65504300000000,10/00031/FOOD2,163,envhealth@watford.gov.uk,Watford,http://www.watford.gov.uk/foodhygieneratings,-0.39740700000000,WD18 0PA,2010-11-16,fhrs_5_en-GB,5,,FHRS,0
40304,Gammons Lane,Watford,,,Beechfield Childrens Centre,Hospitals/Childcare/Caring Premises,5,0,,278566,0,,51.67597100000000,09/00138/FOOD2,163,envhealth@watford.gov.uk,Watford,http://www.watford.gov.uk/foodhygieneratings,-0.40757400000000,WD24 5TY,2014-02-04,fhrs_5_en-GB,5,,FHRS,0
40305,Gammons Lane,Watford,,,Beechfield JMI School,School/college/university,7845,0,,278787,0,,51.67597100000000,12/00071/FOOD2,163,envhealth@watford.gov.uk,Watford,http://www.watford.gov.uk/foodhygieneratings,-0.40757400000000,WD24 5TY,2013-03-07,fhrs_5_en-GB,5,,FHRS,5
40306,14-16 Westland Road,Watford,,,Bellerose Residential Home,Hospitals/Childcare/Caring Premises,5,5,,583093,0,,51.66301000000000,13/00084/FOOD2,163,envhealth@watford.gov.uk,Watford,http://www.watford.gov.uk/foodhygieneratings,-0.39873100000000,WD17 1QS,2013-04-26,fhrs_5_en-GB,5,,FHRS,0
40307,229 St Albans Road,Watford,,,Best Food Village Ltd,Retailers - other,4613,0,,716231,0,,51.67105200000000,13/00086/FOOD2,163,envhealth@watford.gov.uk,Watford,http://www.watford.gov.uk/foodhygieneratings,-0.39700200000000,WD24 5BQ,2014-11-13,fhrs_4_en-GB,4,,FHRS,10
40308,65 The Parade High Street,Watford,,,Best One,Retailers - other,4613,0,,454996,0,,51.65787300000000,12/00187/FOOD2,163,envhealth@watford.gov.uk,Watford,http://www.watford.gov.uk/foodhygieneratings,-0.39924500000000,WD17 1LJ,2014-09-25,fhrs_5_en-GB,5,,FHRS,5
40309,29A Rickmansworth Road,Watford,,,Betel Of Britain,Hospitals/Childcare/Caring Premises,5,0,,278406,5,,51.65699300000000,07/00250/FOOD2,163,envhealth@watford.gov.uk,Watford,http://www.watford.gov.uk/foodhygieneratings,-0.40659100000000,WD18 7HL,2015-01-28,fhrs_5_en-GB,5,,FHRS,5
40310,83-87 High Street,Watford,,,BHS Public Restaurant,Restaurant/Cafe/Canteen,1,5,,278344,5,,51.65486200000000,07/00152/FOOD2,163,envhealth@watford.gov.uk,Watford,http://www.watford.gov.uk/foodhygieneratings,-0.39468200000000,WD17 2DQ,2014-09-25,fhrs_5_en-GB,5,,FHRS,5
40311,Bills,107 - 107A High Street,Watford,,Bills Restaurant,Restaurant/Cafe/Canteen,1,0,,715109,0,,51.65486200000000,14/00108/FOOD2,163,envhealth@watford.gov.uk,Watford,http://www.watford.gov.uk/foodhygieneratings,-0.39468200000000,WD17 2DQ,2014-11-06,fhrs_5_en-GB,5,,FHRS,0
40312,Ground Floor Unit 3B,Fishers Industrial Estate,Wiggenhall Road,Watford,Bloc Direct,Manufacturers/packers,7839,10,,409833,10,,51.64829600000000,12/00011/FOOD2,163,envhealth@watford.gov.uk,Watford,http://www.watford.gov.uk/foodhygieneratings,-0.39591100000000,WD18 0FN,2014-03-12,fhrs_3_en-GB,3,,FHRS,10
40313,147 High Street,Watford,,,Boots The Chemist,Retailers - other,4613,0,,278562,0,,51.65385900000000,09/00114/FOOD2,163,envhealth@watford.gov.uk,Watford,http://www.watford.gov.uk/foodhygieneratings,-0.39301100000000,WD17 2ER,2007-12-11,fhrs_5_en-GB,5,,FHRS,0
40314,231 St Albans Road,Watford,,,Boots The Chemist,Retailers - other,4613,,,278580,,,51.67105200000000,09/00181/FOOD2,163,envhealth@watford.gov.uk,Watford,http://www.watford.gov.uk/foodhygieneratings,-0.39700200000000,WD24 5BQ,2010-11-03,fhrs_exempt_en-GB,Exempt,,FHRS,
40315,Boots,UNIT D,Waterfields Retail Park,Watford,Boots The Chemists,Retailers - other,4613,5,,278756,0,,51.65242300000000,12/00028/FOOD2,163,envhealth@watford.gov.uk,Watford,http://www.watford.gov.uk/foodhygieneratings,-0.38992500000000,WD17 2EU,2010-11-15,fhrs_5_en-GB,5,,FHRS,0
40316,Verulam Passage,Watford,,,Box Of Snacks,Restaurant/Cafe/Canteen,1,10,,278203,5,,51.66307900000000,06/00017/FOOD2,163,envhealth@watford.gov.uk,Watford,http://www.watford.gov.uk/foodhygieneratings,-0.39786100000000,WD17 1DG,2013-12-19,fhrs_3_en-GB,3,,FHRS,10
40317,Central Hall,Loates Lane,Watford,,Boys And Girls Nursery,Hospitals/Childcare/Caring Premises,5,0,,278511,0,,51.65791900000000,08/00174/FOOD2,163,envhealth@watford.gov.uk,Watford,http://www.watford.gov.uk/foodhygieneratings,-0.39337400000000,WD17 2PA,2014-02-04,fhrs_5_en-GB,5,,FHRS,0
40318,145 Bushey Mill Lane,Watford,,,Bradshaw Post Office,Retailers - other,4613,5,,278581,10,,51.67427300000000,09/00184/FOOD2,163,envhealth@watford.gov.uk,Watford,http://www.watford.gov.uk/foodhygieneratings,-0.38659000000000,WD24 7PD,2008-04-22,fhrs_4_en-GB,4,,FHRS,5
40319,Oxhey Road,Watford,,,Bromet Primary School,School/college/university,7845,5,,278512,5,,51.64117200000000,08/00176/FOOD2,163,envhealth@watford.gov.uk,Watford,http://www.watford.gov.uk/foodhygieneratings,-0.38845900000000,WD19 4QG,2013-03-06,fhrs_5_en-GB,5,,FHRS,0
40320,55 The Brow,Watford,,,Brow Pharmacy,Retailers - other,4613,,,278806,,,51.69694300000000,12/00090/FOOD2,163,envhealth@watford.gov.uk,Watford,http://www.watford.gov.uk/foodhygieneratings,-0.39851800000000,WD25 7NY,2005-09-29,fhrs_exempt_en-GB,Exempt,,FHRS,
40321,Brunswick Nursing Home,62 Stratford Road,Watford,,Brunswick Court Care Centre,Hospitals/Childcare/Caring Premises,5,0,,278449,5,,51.66363400000000,08/00042/FOOD2,163,envhealth@watford.gov.uk,Watford,http://www.watford.gov.uk/foodhygieneratings,-0.40823800000000,WD17 4JB,2013-11-19,fhrs_5_en-GB,5,,FHRS,5
40322,Marchwood House,934 - 974 St Albans Road,Watford,,Bubby G's,Restaurant/Cafe/Canteen,1,5,,278496,10,,51.69080900000000,08/00151/FOOD2,163,envhealth@watford.gov.uk,Watford,http://www.watford.gov.uk/foodhygieneratings,-0.38527900000000,WD25 9NN,2013-11-11,fhrs_4_en-GB,4,,FHRS,5
40323,1 Printers Avenue,Watford,,,Budgens,Retailers - other,4613,10,,278242,10,,51.65138900000000,06/00135/FOOD2,163,envhealth@watford.gov.uk,Watford,http://www.watford.gov.uk/foodhygieneratings,-0.42238500000000,WD18 7QR,2013-08-20,fhrs_3_en-GB,3,,FHRS,5
40324,57 High Street,Watford,,,Burger King,Restaurant/Cafe/Canteen,1,0,,278388,0,,51.65626700000000,07/00220/FOOD2,163,envhealth@watford.gov.uk,Watford,http://www.watford.gov.uk/foodhygieneratings,-0.39684400000000,WD17 2DJ,2013-03-08,fhrs_5_en-GB,5,,FHRS,0
40325,Aldenham Road,Watford,,,Bushey And Oxhey Infants School,School/college/university,7845,10,,278770,5,,51.64741300000000,12/00046/FOOD2,163,envhealth@watford.gov.uk,Watford,http://www.watford.gov.uk/foodhygieneratings,-0.37999900000000,WD23 2QH,2014-01-21,fhrs_4_en-GB,4,,FHRS,5
40326,Watford General Hospital,Vicarage Road,Watford,,Busy Bees,Hospitals/Childcare/Caring Premises,5,0,,278225,0,,51.64906100000000,06/00102/FOOD2,163,envhealth@watford.gov.uk,Watford,http://www.watford.gov.uk/foodhygieneratings,-0.40448400000000,WD18 0HB,2013-10-29,fhrs_5_en-GB,5,,FHRS,0
40327,25 Villiers Road,Watford,,,C Loveday,Retailers - other,4613,5,,278411,5,,51.64557100000000,07/00260/FOOD2,163,envhealth@watford.gov.uk,Watford,http://www.watford.gov.uk/foodhygieneratings,-0.38140900000000,WD19 4AG,2014-09-19,fhrs_5_en-GB,5,,FHRS,5
40328,Watford Central Library,Hempstead Road,Watford,,Cafe At The Library,Restaurant/Cafe/Canteen,1,5,,716233,5,,51.66022800000000,14/00152/FOOD2,163,envhealth@watford.gov.uk,Watford,http://www.watford.gov.uk/foodhygieneratings,-0.40309500000000,WD17 3EU,2014-11-17,fhrs_5_en-GB,5,,FHRS,5
40329,202 The Harlequin,Watford,,,Cafe Giardino,Restaurant/Cafe/Canteen,1,0,,278780,5,,51.65480900000000,12/00063/FOOD2,163,envhealth@watford.gov.uk,Watford,http://www.watford.gov.uk/foodhygieneratings,-0.39407600000000,WD17 2TA,2013-08-14,fhrs_5_en-GB,5,,FHRS,5
40330,159 The Parade High Street,Watford,,,Cafe India,Restaurant/Cafe/Canteen,1,10,,278639,15,,51.65994800000000,10/00068/FOOD2,163,envhealth@watford.gov.uk,Watford,http://www.watford.gov.uk/foodhygieneratings,-0.40170200000000,WD17 1NJ,2014-03-11,fhrs_2_en-GB,2,,FHRS,10
40331,56 Queens Road,Watford,,,Cafe On The Corner,Restaurant/Cafe/Canteen,1,5,,637377,0,,51.65750100000000,14/00033/FOOD2,163,envhealth@watford.gov.uk,Watford,http://www.watford.gov.uk/foodhygieneratings,-0.39301200000000,WD17 2LA,2014-03-03,fhrs_4_en-GB,4,,FHRS,10
40332,Watford High Street Station,182 High Street,Watford,,Cafe Presso,Restaurant/Cafe/Canteen,1,20,,278660,5,,51.65258400000000,10/00115/FOOD2,163,envhealth@watford.gov.uk,Watford,http://www.watford.gov.uk/foodhygieneratings,-0.39184200000000,WD17 2NW,2014-09-16,fhrs_1_en-GB,1,,FHRS,5
40333,West Watford Free Church,Tolpits Lane,Watford,,Cafe West,Other catering premises,7841,0,,479212,0,,51.64569900000000,11/00039/FOOD2,163,envhealth@watford.gov.uk,Watford,http://www.watford.gov.uk/foodhygieneratings,-0.41785600000000,WD18 6NU,2014-11-18,fhrs_5_en-GB,5,,FHRS,0
40334,19 Queens Road,Watford,,,Caffe' L'Antico,Restaurant/Cafe/Canteen,1,5,,278561,0,,51.65472700000000,09/00113/FOOD2,163,envhealth@watford.gov.uk,Watford,http://www.watford.gov.uk/foodhygieneratings,-0.39335600000000,WD17 2LH,2015-01-29,fhrs_5_en-GB,5,,FHRS,0
40335,100-102 High Street,Watford,,,Caffe Nero,Restaurant/Cafe/Canteen,1,0,,278595,5,,51.65475400000000,09/00227/FOOD2,163,envhealth@watford.gov.uk,Watford,http://www.watford.gov.uk/foodhygieneratings,-0.39533600000000,WD17 2BW,2012-03-08,fhrs_5_en-GB,5,,FHRS,5
40336,54 Vicarage Road,Watford,,,Cakes Art,Retailers - other,4613,5,,647072,5,,51.65157900000000,14/00018/FOOD2,163,envhealth@watford.gov.uk,Watford,http://www.watford.gov.uk/foodhygieneratings,-0.40056500000000,WD18 0EN,2014-04-22,fhrs_5_en-GB,5,,FHRS,5
40337,Unit 20,The Wenta Business Centre,Colne Way,Watford,Caketastic Partners Ltd,Other catering premises,7841,0,,509716,5,,51.67832500000000,13/00003/FOOD2,163,envhealth@watford.gov.uk,Watford,http://www.watford.gov.uk/foodhygieneratings,-0.38374200000000,WD24 7ND,2013-02-12,fhrs_5_en-GB,5,,FHRS,5
40338,,,,,Camden Noodle Bar,Mobile caterer,7846,5,,702340,0,,,13/00019/FOOD2,163,envhealth@watford.gov.uk,Watford,http://www.watford.gov.uk/foodhygieneratings,,,2013-05-01,fhrs_5_en-GB,5,,FHRS,0
40339,75 The Parade High Street,Watford,,,Candies,Retailers - other,4613,10,,278523,0,,51.66369200000000,08/00207/FOOD2,163,envhealth@watford.gov.uk,Watford,http://www.watford.gov.uk/foodhygieneratings,-0.39202700000000,WD24 4RJ,2013-05-03,fhrs_4_en-GB,4,,FHRS,0
40340,Caretech Community Service,44 The Avenue,Watford,,Caretech Community Services,Hospitals/Childcare/Caring Premises,5,5,,278331,5,,51.66159900000000,07/00109/FOOD2,163,envhealth@watford.gov.uk,Watford,http://www.watford.gov.uk/foodhygieneratings,-0.40410200000000,WD17 4NS,2014-05-19,fhrs_5_en-GB,5,,FHRS,5
40341,136 Mildred Avenue,Watford,,,Caretech Community Services Ltd,Hospitals/Childcare/Caring Premises,5,0,,278265,5,,51.65398900000000,06/00188/FOOD2,163,envhealth@watford.gov.uk,Watford,http://www.watford.gov.uk/foodhygieneratings,-0.41249400000000,WD18 7DX,2013-08-19,fhrs_5_en-GB,5,,FHRS,5
40342,Cargo Workshop,28 Charter Place,Watford,,Cargo,Retailers - other,4613,,,479210,,,51.65693900000000,01370/0028/0/000,163,envhealth@watford.gov.uk,Watford,http://www.watford.gov.uk/foodhygieneratings,-0.39598200000000,WD17 2RU,2003-07-22,fhrs_exempt_en-GB,Exempt,,FHRS,
40343,Carluccio's,Unit 2,132- 136 High Street,Watford,Carluccio's,Restaurant/Cafe/Canteen,1,0,,510467,0,,51.65360000000000,12/00184/FOOD2,163,envhealth@watford.gov.uk,Watford,http://www.watford.gov.uk/foodhygieneratings,-0.39319400000000,WD17 2EN,2013-02-26,fhrs_5_en-GB,5,,FHRS,0
40344,St Andrews Church Hall,Church Road,Watford,,Cassio Pre-school,Hospitals/Childcare/Caring Premises,5,,,631403,,,51.66664000000000,13/00107/FOOD2,163,envhealth@watford.gov.uk,Watford,http://www.watford.gov.uk/foodhygieneratings,-0.40119200000000,WD17 4PY,2014-01-21,fhrs_exempt_en-GB,Exempt,,FHRS,
40345,Bellmount Wood Avenue,Watford,Hertfordshire,,Cassiobury Infant And Nursery School,School/college/university,7845,0,,278483,5,,51.66846600000000,08/00109/FOOD2,163,envhealth@watford.gov.uk,Watford,http://www.watford.gov.uk/foodhygieneratings,-0.42252900000000,WD17 3PE,2014-01-21,fhrs_5_en-GB,5,,FHRS,5
40346,Bellmount Wood Avenue,Watford,Hertfordshire,,Cassiobury Junior,School/college/university,7845,0,,278586,0,,51.66690500000000,09/00197/FOOD2,163,envhealth@watford.gov.uk,Watford,http://www.watford.gov.uk/foodhygieneratings,-0.42212100000000,WD17 3PD,2014-10-17,fhrs_5_en-GB,5,,FHRS,5
40347,53 Langley Way,Watford,,,Cassiobury Pharmacy,Retailers - other,4613,,,278748,,,51.66729900000000,12/00020/FOOD2,163,envhealth@watford.gov.uk,Watford,http://www.watford.gov.uk/foodhygieneratings,-0.41730600000000,WD17 3EA,2010-01-04,fhrs_exempt_en-GB,Exempt,,FHRS,
40348,TJX Watford,41 - 43 Clarendon Road,Watford,,Catering Academy Co Uk,Restaurant/Cafe/Canteen,1,10,,647057,10,,51.65895500000000,12/00211/FOOD2,163,envhealth@watford.gov.uk,Watford,http://www.watford.gov.uk/foodhygieneratings,-0.39742800000000,WD17 1TB,2014-02-26,fhrs_3_en-GB,3,,FHRS,10
40349,Iveco Ford House,Station Road,Watford,,Catermasters,Restaurant/Cafe/Canteen,1,5,,278459,5,,,08/00066/FOOD2,163,envhealth@watford.gov.uk,Watford,http://www.watford.gov.uk/foodhygieneratings,,,2014-03-31,fhrs_5_en-GB,5,,FHRS,5
40350,Derby Road,Watford,Hertfordshire,,Central Primary School,School/college/university,7845,0,,278784,5,,51.65512800000000,12/00068/FOOD2,163,envhealth@watford.gov.uk,Watford,http://www.watford.gov.uk/foodhygieneratings,-0.39114500000000,WD17 2LZ,2013-03-08,fhrs_5_en-GB,5,,FHRS,5
40351,Raphael Drive,Watford,,,Centre Point Community Centre,Other catering premises,7841,5,,278269,10,,51.66321700000000,06140/2000/2/000,163,envhealth@watford.gov.uk,Watford,http://www.watford.gov.uk/foodhygieneratings,-0.38886300000000,WD24 4GY,2006-03-10,fhrs_4_en-GB,4,,FHRS,5
40352,32 Raphael Drive,Watford,,,Centrepoint Supermarket,Retailers - other,4613,20,,278759,5,,51.66321700000000,12/00031/FOOD2,163,envhealth@watford.gov.uk,Watford,http://www.watford.gov.uk/foodhygieneratings,-0.38886300000000,WD24 4GY,2013-03-27,fhrs_1_en-GB,1,,FHRS,5
40353,141-143 Bushey Mill Lane,Watford,,,Chagcrest Ltd,Retailers - other,4613,,,278773,,,51.67427300000000,12/00049/FOOD2,163,envhealth@watford.gov.uk,Watford,http://www.watford.gov.uk/foodhygieneratings,-0.38659000000000,WD24 7PD,2008-04-22,fhrs_exempt_en-GB,Exempt,,FHRS,
40354,Southsea Avenue,Watford,,,Chater Infant School,School/college/university,7845,0,,278505,0,,51.65412700000000,08/00163/FOOD2,163,envhealth@watford.gov.uk,Watford,http://www.watford.gov.uk/foodhygieneratings,-0.40809400000000,WD18 7NJ,2013-12-16,fhrs_5_en-GB,5,,FHRS,0
40355,Addiscombe Road,Watford,,,Chater Junior School,School/college/university,7845,0,,278550,0,,51.65385000000000,09/00044/FOOD2,163,envhealth@watford.gov.uk,Watford,http://www.watford.gov.uk/foodhygieneratings,-0.40294300000000,WD18 0WN,2014-04-03,fhrs_5_en-GB,5,,FHRS,0
40356,103 North Approach,Watford,,,Chemilab Pharmacy,Retailers - other,4613,,,278742,,,51.69114100000000,12/00008/FOOD2,163,envhealth@watford.gov.uk,Watford,http://www.watford.gov.uk/foodhygieneratings,-0.40099400000000,WD25 0EL,2011-12-07,fhrs_exempt_en-GB,Exempt,,FHRS,
40357,221 St. Albans Road,Watford,,,Chemsitree,Retailers - other,4613,,,278617,,,,10/00023/FOOD2,163,envhealth@watford.gov.uk,Watford,http://www.watford.gov.uk/foodhygieneratings,,WD2 5BH,2010-01-27,fhrs_exempt_en-GB,Exempt,,FHRS,
40358,Berry Avenue,Watford,Hertfordshire,,Cherry Tree Primary School,School/college/university,7845,0,,278433,0,,51.68143900000000,08/00012/FOOD2,163,envhealth@watford.gov.uk,Watford,http://www.watford.gov.uk/foodhygieneratings,-0.39975900000000,WD24 6RU,2012-12-13,fhrs_5_en-GB,5,,FHRS,5
40359,Tolpits Lane,Watford,,,Chessbrook Education Support Centre,Hospitals/Childcare/Caring Premises,5,10,,278345,5,,51.64837700000000,07/00154/FOOD2,163,envhealth@watford.gov.uk,Watford,http://www.watford.gov.uk/foodhygieneratings,-0.41511800000000,WD18 6LJ,2013-09-10,fhrs_4_en-GB,4,,FHRS,5
40360,11 Market Street,Watford,,,Chicken Cottage,Restaurant/Cafe/Canteen,1,10,,278513,15,,51.65504300000000,08/00177/FOOD2,163,envhealth@watford.gov.uk,Watford,http://www.watford.gov.uk/foodhygieneratings,-0.39740700000000,WD18 0PA,2013-03-27,fhrs_2_en-GB,2,,FHRS,5
40361,328 St Albans Road,Watford,,,Chilli Lounge,Restaurant/Cafe/Canteen,1,20,,729274,15,,51.67456900000000,14/00069/FOOD2,163,envhealth@watford.gov.uk,Watford,http://www.watford.gov.uk/foodhygieneratings,-0.39640000000000,WD24 6PQ,2014-07-29,fhrs_1_en-GB,1,,FHRS,15
40362,168 Whippendell Road,Watford,,,China Garden,Takeaway/sandwich shop,7844,10,,278412,10,,51.65315000000000,07/00261/FOOD2,163,envhealth@watford.gov.uk,Watford,http://www.watford.gov.uk/foodhygieneratings,-0.40762200000000,WD18 7NB,2013-08-20,fhrs_3_en-GB,3,,FHRS,10
40363,132 The Gossamers,Watford,,,Chiqizza,Takeaway/sandwich shop,7844,10,,415246,5,,51.68132000000000,12/00114/FOOD2,163,envhealth@watford.gov.uk,Watford,http://www.watford.gov.uk/foodhygieneratings,-0.37990300000000,WD25 9AD,2013-11-14,fhrs_4_en-GB,4,,FHRS,5
40364,Woodside Leisure Park,North Orbital Road,Watford,,Chiquito,Restaurant/Cafe/Canteen,1,5,,278316,10,,51.69264400000000,07/00075/FOOD2,163,envhealth@watford.gov.uk,Watford,http://www.watford.gov.uk/foodhygieneratings,-0.39453200000000,WD25 7JZ,2014-08-21,fhrs_4_en-GB,4,,FHRS,5
40365,9 Chalk Hill,Watford,,,Chutneys Tandoori Restaurant,Restaurant/Cafe/Canteen,1,10,,278334,10,,51.64631900000000,07/00117/FOOD2,163,envhealth@watford.gov.uk,Watford,http://www.watford.gov.uk/foodhygieneratings,-0.38349300000000,WD19 4BL,2014-03-18,fhrs_3_en-GB,3,,FHRS,10
40366,468 St Albans Road,Watford,,,Cinnamon Indian Cuisine,Restaurant/Cafe/Canteen,1,10,,669866,5,,51.67909200000000,14/00106/FOOD2,163,envhealth@watford.gov.uk,Watford,http://www.watford.gov.uk/foodhygieneratings,-0.39577800000000,WD24 6QU,2014-06-11,fhrs_4_en-GB,4,,FHRS,5
40367,,,,,Claudette's Bakery,Other catering premises,7841,0,,710185,0,,,11/00005/FOOD2,163,envhealth@watford.gov.uk,Watford,http://www.watford.gov.uk/foodhygieneratings,,,2014-10-27,fhrs_5_en-GB,5,,FHRS,0
40368,251A St Albans Road,Watford,,,Claypot,Takeaway/sandwich shop,7844,10,,687937,10,,51.67105200000000,14/00087/FOOD2,163,envhealth@watford.gov.uk,Watford,http://www.watford.gov.uk/foodhygieneratings,-0.39700200000000,WD24 5BQ,2014-07-29,fhrs_3_en-GB,3,,FHRS,10
40369,141 The Harlequin,Watford,,,Clinton Cards,Retailers - other,4613,,,278576,,,51.65608900000000,09/00166/FOOD2,163,envhealth@watford.gov.uk,Watford,http://www.watford.gov.uk/foodhygieneratings,-0.39434900000000,WD17 2TL,2009-04-21,fhrs_exempt_en-GB,Exempt,,FHRS,
40370,18 The Harlequin,Watford,,,Clinton Cards,Retailers - other,4613,,,278575,,,51.65570800000000,09/00165/FOOD2,163,envhealth@watford.gov.uk,Watford,http://www.watford.gov.uk/foodhygieneratings,-0.39478200000000,WD17 2TD,2009-04-21,fhrs_exempt_en-GB,Exempt,,FHRS,
40371,Coates Way,Watford,,,Coates Way JMI School,School/college/university,7845,5,,278494,5,,51.69469200000000,08/00142/FOOD2,163,envhealth@watford.gov.uk,Watford,http://www.watford.gov.uk/foodhygieneratings,-0.37929500000000,WD25 9NW,2013-09-11,fhrs_5_en-GB,5,,FHRS,5
40372,117 Courtlands Drive,Watford,,,Codland Fish And Chips,Takeaway/sandwich shop,7844,5,,278732,5,,51.68237000000000,11/00166/FOOD2,163,envhealth@watford.gov.uk,Watford,http://www.watford.gov.uk/foodhygieneratings,-0.41870500000000,WD17 4HZ,2014-05-15,fhrs_4_en-GB,4,,FHRS,10
40373,72-74 The Parade High Street,Watford,,,Colombia Press,Pub/bar/nightclub,7843,5,,278491,5,,51.65842000000000,08/00131/FOOD2,163,envhealth@watford.gov.uk,Watford,http://www.watford.gov.uk/foodhygieneratings,-0.40104700000000,WD17 1AW,2013-03-20,fhrs_5_en-GB,5,,FHRS,0
40374,Street Record,Ryan Way,Watford,,Come Dine With Us NL02 BKF,Mobile caterer,7846,5,,278510,5,,,08/00172/FOOD2,163,envhealth@watford.gov.uk,Watford,http://www.watford.gov.uk/foodhygieneratings,,,2013-12-09,fhrs_4_en-GB,4,,FHRS,10
40375,140-142 The Gossamers,Watford,,,Co-op Store,Retailers - other,4613,0,,278650,5,,51.68132000000000,10/00079/FOOD2,163,envhealth@watford.gov.uk,Watford,http://www.watford.gov.uk/foodhygieneratings,-0.37990300000000,WD25 9AD,2014-07-07,fhrs_5_en-GB,5,,FHRS,5
40376,160 - 162 St Albans Road,Watford,,,Co-op Store,Retailers - other,4613,0,,278605,0,,51.66897400000000,09/00287/FOOD2,163,envhealth@watford.gov.uk,Watford,http://www.watford.gov.uk/foodhygieneratings,-0.39756700000000,WD24 4FT,2013-11-05,fhrs_4_en-GB,4,,FHRS,10
40377,454 St Albans Road,Watford,,,Corner Newsagent,Retailers - other,4613,10,,278635,5,,51.67702900000000,10/00059/FOOD2,163,envhealth@watford.gov.uk,Watford,http://www.watford.gov.uk/foodhygieneratings,-0.39677600000000,WD24 6PJ,2013-10-25,fhrs_3_en-GB,3,,FHRS,10
40378,74 Market Street,Watford,,,Corner Shop,Retailers - other,4613,10,,278645,10,,51.65401500000000,10/00074/FOOD2,163,envhealth@watford.gov.uk,Watford,http://www.watford.gov.uk/foodhygieneratings,-0.40052300000000,WD18 0PX,2013-12-03,fhrs_3_en-GB,3,,FHRS,10
40379,132 High Street,Watford,,,Costa,Restaurant/Cafe/Canteen,1,0,,534532,0,,51.65360000000000,12/00168/FOOD2,163,envhealth@watford.gov.uk,Watford,http://www.watford.gov.uk/foodhygieneratings,-0.39319400000000,WD17 2EN,2013-03-26,fhrs_5_en-GB,5,,FHRS,0
40380,WH Smith,54 The Harlequin,Watford,,Costa @ W H Smiths,Restaurant/Cafe/Canteen,1,0,,278182,0,,51.65522900000000,04/00032/FOOD2,163,envhealth@watford.gov.uk,Watford,http://www.watford.gov.uk/foodhygieneratings,-0.39260100000000,WD17 2TN,2010-01-04,fhrs_5_en-GB,5,,FHRS,0
40381,30-31 The Harlequin,Watford,,,Costa Coffee,Restaurant/Cafe/Canteen,1,0,,278235,5,,51.65608900000000,06/00120/FOOD2,163,envhealth@watford.gov.uk,Watford,http://www.watford.gov.uk/foodhygieneratings,-0.39434900000000,WD17 2TE,2013-03-20,fhrs_5_en-GB,5,,FHRS,5
40382,UNIT A,Waterfields Retail Park,Watford,,Costa Ltd,Restaurant/Cafe/Canteen,1,0,,637376,0,,51.65242300000000,14/00016/FOOD2,163,envhealth@watford.gov.uk,Watford,http://www.watford.gov.uk/foodhygieneratings,-0.38992500000000,WD17 2EU,2014-03-18,fhrs_5_en-GB,5,,FHRS,0
40383,3 Horseshoe Lane,Watford,,,Costcutter,Retailers - other,4613,5,,278791,5,,51.69442500000000,12/00075/FOOD2,163,envhealth@watford.gov.uk,Watford,http://www.watford.gov.uk/foodhygieneratings,-0.38667000000000,WD25 0LN,2009-11-30,fhrs_5_en-GB,5,,FHRS,5
40384,67 Market Street,Watford,,,Costcutter,Retailers - other,4613,20,,546746,5,,51.65409800000000,13/00047/FOOD2,163,envhealth@watford.gov.uk,Watford,http://www.watford.gov.uk/foodhygieneratings,-0.39930600000000,WD18 0PR,2013-05-01,fhrs_1_en-GB,1,,FHRS,5
40385,Retail Unit A,Attenborough Court,Owen Square,Watford,Costcutter,Retailers - other,4613,20,,647079,5,,51.64572500000000,14/00064/FOOD2,163,envhealth@watford.gov.uk,Watford,http://www.watford.gov.uk/foodhygieneratings,-0.38344100000000,WD19 4FN,2014-02-18,fhrs_1_en-GB,1,,FHRS,5
40386,150 Haines Way,Watford,Hertfordshire,,Costcutters,Retailers - other,4613,10,,491467,5,,51.69258700000000,07/00137/FOOD2,163,envhealth@watford.gov.uk,Watford,http://www.watford.gov.uk/foodhygieneratings,-0.40814900000000,WD25 7QX,2014-07-21,fhrs_4_en-GB,4,,FHRS,5
40387,161-165 High Street,Watford,,,Cotswold Outdoor,Retailers - other,4613,,,278777,,,51.65333400000000,12/00055/FOOD2,163,envhealth@watford.gov.uk,Watford,http://www.watford.gov.uk/foodhygieneratings,-0.39211900000000,WD17 2ET,2012-01-23,fhrs_exempt_en-GB,Exempt,,FHRS,
40388,Car Park,Greenhill Crescent,Watford,,Country Kitchen,Mobile caterer,7846,10,,278448,15,,51.64649100000000,08/00041/FOOD2,163,envhealth@watford.gov.uk,Watford,http://www.watford.gov.uk/foodhygieneratings,-0.42531600000000,WD18 8QU,2014-09-17,fhrs_2_en-GB,2,,FHRS,15
40389,Goodwood Parade,133 Courtlands Drive,Watford,,Courtlands Cafe,Restaurant/Cafe/Canteen,1,5,,278509,5,,,08/00168/FOOD2,163,envhealth@watford.gov.uk,Watford,http://www.watford.gov.uk/foodhygieneratings,,WD2 5LL,2013-12-06,fhrs_5_en-GB,5,,FHRS,5
40390,Courtland Lodge,Courtlands Close,Watford,,Courtlands Lodge,Hospitals/Childcare/Caring Premises,5,5,,278394,5,,51.68378900000000,07/00235/FOOD2,163,envhealth@watford.gov.uk,Watford,http://www.watford.gov.uk/foodhygieneratings,-0.41788900000000,WD24 5GW,2013-08-28,fhrs_5_en-GB,5,,FHRS,5
40391,Cheslyn House,54 Nascot Wood Road,Watford,,Courtland's Residents Association,Other catering premises,7841,5,,710187,5,,51.67533000000000,14/00078/FOOD2,163,envhealth@watford.gov.uk,Watford,http://www.watford.gov.uk/foodhygieneratings,-0.41537800000000,WD17 4SL,2014-09-25,fhrs_5_en-GB,5,,FHRS,5
40392,310 Whippendell Road,Watford,,,Crossroads Cafe,Restaurant/Cafe/Canteen,1,5,,278593,5,,51.65090600000000,09/00225/FOOD2,163,envhealth@watford.gov.uk,Watford,http://www.watford.gov.uk/foodhygieneratings,-0.41329500000000,WD18 7PD,2014-01-14,fhrs_5_en-GB,5,,FHRS,0
40393,,,,,Crumb's Farm,Other catering premises,7841,0,,726277,5,,,14/00200/FOOD2,163,envhealth@watford.gov.uk,Watford,http://www.watford.gov.uk/foodhygieneratings,,,2014-12-18,fhrs_5_en-GB,5,,FHRS,5
40394,Tesco Stores Ltd,239 - 241 Lower High Street,Watford,,Customer Cafe,Restaurant/Cafe/Canteen,1,0,,637371,5,,51.65143000000000,13/00099/FOOD2,163,envhealth@watford.gov.uk,Watford,http://www.watford.gov.uk/foodhygieneratings,-0.38767600000000,WD17 2BD,2014-03-21,fhrs_5_en-GB,5,,FHRS,5
40395,178 Bushey Mill Lane,Watford,,,D And D Newsagents,Retailers - other,4613,10,,278728,10,,51.67421200000000,11/00162/FOOD2,163,envhealth@watford.gov.uk,Watford,http://www.watford.gov.uk/foodhygieneratings,-0.38738800000000,WD24 7PB,2013-12-11,fhrs_2_en-GB,2,,FHRS,15
40396,121 Courtlands Drive,Watford,,,D And S News,Retailers - other,4613,,,278783,,,51.68237000000000,12/00067/FOOD2,163,envhealth@watford.gov.uk,Watford,http://www.watford.gov.uk/foodhygieneratings,-0.41870500000000,WD17 4HZ,2014-08-12,fhrs_4_en-GB,4,,FHRS,
40397,94 Rickmansworth Road,Watford,,,D D D Ltd,Other catering premises,7841,,,278734,,,51.65452700000000,11/00168/FOOD2,163,envhealth@watford.gov.uk,Watford,http://www.watford.gov.uk/foodhygieneratings,-0.41773700000000,WD18 7JJ,2008-04-22,fhrs_exempt_en-GB,Exempt,,FHRS,
40398,10 Market Street,Watford,,,D J News,Retailers - other,4613,5,,278795,5,,51.65527300000000,12/00079/FOOD2,163,envhealth@watford.gov.uk,Watford,http://www.watford.gov.uk/foodhygieneratings,-0.39781900000000,WD18 0PD,2009-11-10,fhrs_5_en-GB,5,,FHRS,5
40399,56B Vicarage Road,Watford,,,D& S Food And Wine,Retailers - other,4613,5,,637368,0,,51.65157900000000,13/00088/FOOD2,163,envhealth@watford.gov.uk,Watford,http://www.watford.gov.uk/foodhygieneratings,-0.40056500000000,WD18 0EN,2014-03-05,fhrs_4_en-GB,4,,FHRS,10
40400,510 Whippendell Road,Watford,,,Daly's,Pub/bar/nightclub,7843,10,,278536,5,,51.65174000000000,08200/0510/0/000,163,envhealth@watford.gov.uk,Watford,http://www.watford.gov.uk/foodhygieneratings,-0.42179500000000,WD18 7QJ,2012-03-14,fhrs_4_en-GB,4,,FHRS,5
40401,2 Market Street,Watford,,,Dand S Food And Wine,Retailers - other,4613,20,,637361,5,,51.65527300000000,13/00031/FOOD2,163,envhealth@watford.gov.uk,Watford,http://www.watford.gov.uk/foodhygieneratings,-0.39781900000000,WD18 0PD,2014-03-12,fhrs_1_en-GB,1,,FHRS,5
40402,229B St Albans Road,Watford,,,Data Super Food Store,Retailers - other,4613,20,,647076,10,,51.67105200000000,14/00046/FOOD2,163,envhealth@watford.gov.uk,Watford,http://www.watford.gov.uk/foodhygieneratings,-0.39700200000000,WD24 5BQ,2014-11-17,fhrs_1_en-GB,1,,FHRS,15
40403,219 St Albans Road,Watford,,,Day 1,Retailers - other,4613,10,,669861,10,,51.66976900000000,14/00092/FOOD2,163,envhealth@watford.gov.uk,Watford,http://www.watford.gov.uk/foodhygieneratings,-0.39784200000000,WD24 5BH,2014-05-15,fhrs_3_en-GB,3,,FHRS,10
40404,Wickes Car Park,Lower High Street,,,Delicious Annie's,Mobile caterer,7846,5,,540205,5,,,13/00014/FOOD2,163,envhealth@watford.gov.uk,Watford,http://www.watford.gov.uk/foodhygieneratings,,,2013-12-11,fhrs_4_en-GB,4,,FHRS,10
40405,Derby Road,Watford,Hertfordshire,,Derby Road Baptist Church,Other catering premises,7841,5,,278622,5,,51.65512800000000,10/00028/FOOD2,163,envhealth@watford.gov.uk,Watford,http://www.watford.gov.uk/foodhygieneratings,-0.39114500000000,WD17 2LZ,2013-10-30,fhrs_5_en-GB,5,,FHRS,5
40406,Dine India,274A St Albans Road,Watford,,Dine India Takeaway,Takeaway/sandwich shop,7844,20,,704512,15,,51.67289900000000,14/00170/FOOD2,163,envhealth@watford.gov.uk,Watford,http://www.watford.gov.uk/foodhygieneratings,-0.39596700000000,WD24 6PE,2014-09-23,fhrs_1_en-GB,1,,FHRS,15
40407,Unit B,2 Greycaine Road,Watford,,Dolphina Gymnastics Centre,Other catering premises,7841,5,,707266,0,,51.67658700000000,14/00134/FOOD2,163,envhealth@watford.gov.uk,Watford,http://www.watford.gov.uk/foodhygieneratings,-0.38749200000000,WD24 7GP,2014-10-09,fhrs_5_en-GB,5,,FHRS,0
40408,14-16 Vicarage Road,Watford,,,Domenic's Snack Bar And Cafe,Restaurant/Cafe/Canteen,1,5,,278424,5,,51.65212400000000,07900/1416/0/000,163,envhealth@watford.gov.uk,Watford,http://www.watford.gov.uk/foodhygieneratings,-0.39963500000000,WD18 0EH,2014-03-31,fhrs_5_en-GB,5,,FHRS,5
40409,Belmont House,187 - 189 St Albans Road,Watford,,Domino's Pizza,Takeaway/sandwich shop,7844,0,,619377,0,,51.66976900000000,13/00115/FOOD2,163,envhealth@watford.gov.uk,Watford,http://www.watford.gov.uk/foodhygieneratings,-0.39784200000000,WD24 5BH,2013-12-17,fhrs_5_en-GB,5,,FHRS,0
40410,125 Courtlands Drive,Watford,,,Dragon Garden,Takeaway/sandwich shop,7844,5,,278387,10,,51.68300900000000,07/00217/FOOD2,163,envhealth@watford.gov.uk,Watford,http://www.watford.gov.uk/foodhygieneratings,-0.41807500000000,WD24 5LL,2014-09-25,fhrs_3_en-GB,3,,FHRS,10
40411,Dunnings Bar & Resturant,153 St Albans Road,Watford,,Dunnings Bar And Restaurant,Pub/bar/nightclub,7843,5,,278272,5,,51.66702000000000,06870/0153/2/000,163,envhealth@watford.gov.uk,Watford,http://www.watford.gov.uk/foodhygieneratings,-0.39867700000000,WD24 5BB,2012-02-23,fhrs_5_en-GB,5,,FHRS,5
40412,30 Vicarage Road,Watford,,,E And S Pinoy Oriental Store,Retailers - other,4613,0,,278716,0,,51.65212400000000,11/00141/FOOD2,163,envhealth@watford.gov.uk,Watford,http://www.watford.gov.uk/foodhygieneratings,-0.39963500000000,WD18 0EH,2013-03-11,fhrs_5_en-GB,5,,FHRS,5
40413,97 Eastbury Road,Watford,,,Eastbury Road Post Office,Retailers - other,4613,,,278762,,,51.64038500000000,12/00034/FOOD2,163,envhealth@watford.gov.uk,Watford,http://www.watford.gov.uk/foodhygieneratings,-0.39866100000000,WD19 4JP,2009-11-30,fhrs_exempt_en-GB,Exempt,,FHRS,
40414,77 Market Street,Watford,,,Eastern European Foods,Retailers - other,4613,10,,278222,5,,51.65409800000000,06/00099/FOOD2,163,envhealth@watford.gov.uk,Watford,http://www.watford.gov.uk/foodhygieneratings,-0.39930600000000,WD18 0PR,2012-03-08,fhrs_4_en-GB,4,,FHRS,5
40415,241 St Albans Road,Watford,,,Eats & Treats,Other catering premises,7841,5,,278501,5,,51.67105200000000,08/00157/FOOD2,163,envhealth@watford.gov.uk,Watford,http://www.watford.gov.uk/foodhygieneratings,-0.39700200000000,WD24 5BQ,2013-10-29,fhrs_5_en-GB,5,,FHRS,5
40416,97 Market Street,Watford,,,Ebb Tide,Takeaway/sandwich shop,7844,5,,278490,5,,51.65372300000000,08/00130/FOOD2,163,envhealth@watford.gov.uk,Watford,http://www.watford.gov.uk/foodhygieneratings,-0.40015700000000,WD18 0PT,2014-02-24,fhrs_5_en-GB,5,,FHRS,5
40417,"Unit 142, Upper Mall",Intu Watford,Watford,,Ed's Easy Diner,Restaurant/Cafe/Canteen,1,5,,647062,10,,51.65608900000000,13/00078/FOOD2,163,envhealth@watford.gov.uk,Watford,http://www.watford.gov.uk/foodhygieneratings,-0.39434900000000,WD17 2TL,2014-04-04,fhrs_4_en-GB,4,,FHRS,5
40418,Langley Way,Watford,,,Essex Arms,Other catering premises,7841,0,,278301,0,,51.66787200000000,07/00049/FOOD2,163,envhealth@watford.gov.uk,Watford,http://www.watford.gov.uk/foodhygieneratings,-0.41712700000000,WD17 3EG,2013-10-01,fhrs_5_en-GB,5,,FHRS,5
40419,25 Estcourt Road,Watford,,,Estcourt Tavern,Restaurant/Cafe/Canteen,1,5,,278563,5,,51.65986300000000,09/00128/FOOD2,163,envhealth@watford.gov.uk,Watford,http://www.watford.gov.uk/foodhygieneratings,-0.39545900000000,WD17 2PY,2014-12-16,fhrs_5_en-GB,5,,FHRS,5
40420,239 - 241 Lower High Street,Watford,,,Euphorium (North London) Ltd,Retailers - supermarkets/hypermarkets,7840,5,,637366,5,,51.65143000000000,13/00077/FOOD2,163,envhealth@watford.gov.uk,Watford,http://www.watford.gov.uk/foodhygieneratings,-0.38767600000000,WD17 2BD,2014-03-17,fhrs_5_en-GB,5,,FHRS,5
40421,78 St Albans Road,Watford,,,Eurest Services,Restaurant/Cafe/Canteen,1,5,,278362,5,,51.66459000000000,07/00179/FOOD2,163,envhealth@watford.gov.uk,Watford,http://www.watford.gov.uk/foodhygieneratings,-0.39921100000000,WD17 1AF,2014-01-13,fhrs_5_en-GB,5,,FHRS,5
40422,101 St Albans Road,Watford,,,Express Food Centre,Retailers - other,4613,5,,278758,10,,51.66465300000000,12/00030/FOOD2,163,envhealth@watford.gov.uk,Watford,http://www.watford.gov.uk/foodhygieneratings,-0.39984500000000,WD17 1RD,2012-03-10,fhrs_4_en-GB,4,,FHRS,0
40423,137 Courtlands Drive,Watford,,,F T Taylor (Watford) Ltd,Retailers - other,4613,,,278752,,,51.68300900000000,12/00024/FOOD2,163,envhealth@watford.gov.uk,Watford,http://www.watford.gov.uk/foodhygieneratings,-0.41807500000000,WD24 5LL,2009-11-30,fhrs_exempt_en-GB,Exempt,,FHRS,
40424,73 Vicarage Road,Watford,,,Fabulous Feasts,Other catering premises,7841,0,,278436,5,,51.65235400000000,08/00015/FOOD2,163,envhealth@watford.gov.uk,Watford,http://www.watford.gov.uk/foodhygieneratings,-0.40006100000000,WD18 0EJ,2012-10-17,fhrs_5_en-GB,5,,FHRS,5
40425,17-19 Park Avenue,Watford,,,Fairhaven,Hospitals/Childcare/Caring Premises,5,5,,278246,5,,51.65552900000000,06/00142/FOOD2,163,envhealth@watford.gov.uk,Watford,http://www.watford.gov.uk/foodhygieneratings,-0.40667100000000,WD18 7HR,2014-04-30,fhrs_5_en-GB,5,,FHRS,5
40426,350 St Albans Road,Watford,,,Famous Chef,Takeaway/sandwich shop,7844,10,,278249,10,,51.67456900000000,06/00146/FOOD2,163,envhealth@watford.gov.uk,Watford,http://www.watford.gov.uk/foodhygieneratings,-0.39640000000000,WD24 6PQ,2013-11-05,fhrs_2_en-GB,2,,FHRS,15
40427,119 Courtlands Drive,Watford,,,Farmhouse Pizza,Takeaway/sandwich shop,7844,20,,278681,10,,51.68237000000000,10/00186/FOOD2,163,envhealth@watford.gov.uk,Watford,http://www.watford.gov.uk/foodhygieneratings,-0.41870500000000,WD17 4HZ,2014-11-18,fhrs_1_en-GB,1,,FHRS,15
40428,68 Market Street,Watford,,,Ferhat Food Centre,Retailers - other,4613,20,,278361,10,,51.65401500000000,07/00178/FOOD2,163,envhealth@watford.gov.uk,Watford,http://www.watford.gov.uk/foodhygieneratings,-0.40052300000000,WD18 0PX,2014-03-24,fhrs_1_en-GB,1,,FHRS,5
40429,Watford Field Road,Watford,,,Field Junior School,School/college/university,7845,0,,278237,0,,51.65108900000000,06/00127/FOOD2,163,envhealth@watford.gov.uk,Watford,http://www.watford.gov.uk/foodhygieneratings,-0.39039100000000,WD18 0BH,2013-10-01,fhrs_5_en-GB,5,,FHRS,5
40430,91-93 Longspring,Watford,,,First Choice Convenience Store,Retailers - other,4613,10,,278642,10,,51.67822300000000,10/00071/FOOD2,163,envhealth@watford.gov.uk,Watford,http://www.watford.gov.uk/foodhygieneratings,-0.39729800000000,WD24 6PU,2013-11-11,fhrs_2_en-GB,2,,FHRS,15
40431,92 Queens Road,Watford,,,Flaming Kebab,Takeaway/sandwich shop,7844,20,,701902,15,,51.65750100000000,14/00158/FOOD2,163,envhealth@watford.gov.uk,Watford,http://www.watford.gov.uk/foodhygieneratings,-0.39301200000000,WD17 2LA,2014-09-15,fhrs_1_en-GB,1,,FHRS,10
40432,56A Vicarage Road,Watford,,,Football Cafe,Restaurant/Cafe/Canteen,1,10,,278466,10,,51.65157900000000,08/00077/FOOD2,163,envhealth@watford.gov.uk,Watford,http://www.watford.gov.uk/foodhygieneratings,-0.40056500000000,WD18 0EN,2014-04-16,fhrs_3_en-GB,3,,FHRS,10
40433,5-11 Foxhill,Watford,Hertfordshire,,Foxhill Food Store,Retailers - other,4613,10,,278299,10,,51.68046300000000,07/00047/FOOD2,163,envhealth@watford.gov.uk,Watford,http://www.watford.gov.uk/foodhygieneratings,-0.40463900000000,WD24 6SX,2013-03-22,fhrs_2_en-GB,2,,FHRS,15
40434,Frankie And Bennys,North Orbital Road,Watford,,Frankie And Benny's,Restaurant/Cafe/Canteen,1,5,,278504,5,,51.69264400000000,08/00160/FOOD2,163,envhealth@watford.gov.uk,Watford,http://www.watford.gov.uk/foodhygieneratings,-0.39453200000000,WD25 7JZ,2013-08-28,fhrs_5_en-GB,5,,FHRS,5
40435,158 Harwoods Road,Watford,,,Fresh Banana Leaf,Takeaway/sandwich shop,7844,10,,732438,10,,51.65252600000000,14/00179/FOOD2,163,envhealth@watford.gov.uk,Watford,http://www.watford.gov.uk/foodhygieneratings,-0.40738400000000,WD18 7RN,2015-01-08,fhrs_2_en-GB,2,,FHRS,15
40436,142 St Albans Road,Watford,,,Fresh Cut Sandwich Bar,Takeaway/sandwich shop,7844,0,,278296,5,,51.66897400000000,07/00042/FOOD2,163,envhealth@watford.gov.uk,Watford,http://www.watford.gov.uk/foodhygieneratings,-0.39756700000000,WD24 4FT,2014-09-26,fhrs_5_en-GB,5,,FHRS,0
40437,Fullerians Rugby Club,Coningesby Drive,Watford,,Fullerians Rugby Club,Restaurant/Cafe/Canteen,1,0,,278738,0,,51.66532900000000,12/00004/FOOD2,163,envhealth@watford.gov.uk,Watford,http://www.watford.gov.uk/foodhygieneratings,-0.42323100000000,WD17 3BD,2013-11-06,fhrs_4_en-GB,4,,FHRS,10
40438,121A St Albans Road,Watford,,,Funky Flavours,Takeaway/sandwich shop,7844,5,,669857,5,,51.66465300000000,14/00049/FOOD2,163,envhealth@watford.gov.uk,Watford,http://www.watford.gov.uk/foodhygieneratings,-0.39984500000000,WD17 1RD,2014-05-27,fhrs_5_en-GB,5,,FHRS,5
40439,49 The Parade High Street,Watford,,,G. Gibson,Retailers - other,4613,5,,722263,5,,51.65791000000000,14/00172/FOOD2,163,envhealth@watford.gov.uk,Watford,http://www.watford.gov.uk/foodhygieneratings,-0.39928700000000,WD17 1LJ,2014-12-02,fhrs_5_en-GB,5,,FHRS,5
40440,Within Precinct,Charter Place,Watford,,G.R. Hickman Ltd,Mobile caterer,7846,,,278726,,,51.65668400000000,11/00160/FOOD2,163,envhealth@watford.gov.uk,Watford,http://www.watford.gov.uk/foodhygieneratings,-0.39641000000000,WD17 2RN,2010-03-19,fhrs_exempt_en-GB,Exempt,,FHRS,
40441,Woodside Leisure Park,North Orbital Road,Watford,,Gambado Watford,Restaurant/Cafe/Canteen,1,0,,278366,0,,51.69264400000000,07/00183/FOOD2,163,envhealth@watford.gov.uk,Watford,http://www.watford.gov.uk/foodhygieneratings,-0.39453200000000,WD25 7JZ,2014-05-09,fhrs_5_en-GB,5,,FHRS,0
40442,314 St Albans Road,Watford,,,Ganesha Restaurant And Takeaway,Restaurant/Cafe/Canteen,1,0,,374086,10,,51.67456900000000,11/00135/FOOD2,163,envhealth@watford.gov.uk,Watford,http://www.watford.gov.uk/foodhygieneratings,-0.39640000000000,WD24 6PQ,2014-01-22,fhrs_4_en-GB,4,,FHRS,5
40443,Lea Farm Recreation,First Avenue,Watford,Hertfordshire,Garston Bowls Club,Other catering premises,7841,5,,278234,10,,51.68047600000000,06/00119/FOOD2,163,envhealth@watford.gov.uk,Watford,http://www.watford.gov.uk/foodhygieneratings,-0.37488500000000,WD25 6PS,2014-06-12,fhrs_4_en-GB,4,,FHRS,5
40444,124 The Gossamers,Watford,,,Garston Cafe,Restaurant/Cafe/Canteen,1,20,,278326,10,,51.68132000000000,07/00103/FOOD2,163,envhealth@watford.gov.uk,Watford,http://www.watford.gov.uk/foodhygieneratings,-0.37990300000000,WD25 9AD,2014-08-27,fhrs_1_en-GB,1,,FHRS,10
40445,Watford Junction Station,Platforms 9 And 10,Station Road,Watford,Giardino 14,Takeaway/sandwich shop,7844,5,,700733,5,,51.66378100000000,14/00119/FOOD2,163,envhealth@watford.gov.uk,Watford,http://www.watford.gov.uk/foodhygieneratings,-0.39660800000000,WD17 1EU,2014-08-28,fhrs_5_en-GB,5,,FHRS,0
40446,Gill's Catering,338 St Albans Road,Watford,,Gill London Enterprises Ltd,Retailers - other,4613,10,,669859,5,,51.67456900000000,14/00081/FOOD2,163,envhealth@watford.gov.uk,Watford,http://www.watford.gov.uk/foodhygieneratings,-0.39640000000000,WD24 6PQ,2014-05-06,fhrs_4_en-GB,4,,FHRS,0
40447,156 Whippendell Road,Watford,,,Gill's Superstore,Retailers - other,4613,10,,278599,10,,51.65315000000000,09/00251/FOOD2,163,envhealth@watford.gov.uk,Watford,http://www.watford.gov.uk/foodhygieneratings,-0.40762200000000,WD18 7NB,2014-05-13,fhrs_3_en-GB,3,,FHRS,10
40448,239 - 241 Lower High Street,Watford,,,Giraffe,Restaurant/Cafe/Canteen,1,0,,637364,0,,51.65143000000000,13/00069/FOOD2,163,envhealth@watford.gov.uk,Watford,http://www.watford.gov.uk/foodhygieneratings,-0.38767600000000,WD17 2BD,2014-03-18,fhrs_5_en-GB,5,,FHRS,0
40449,Victoria Road,Watford,,,Glen Sports & Social Club,Pub/bar/nightclub,7843,5,,278335,10,,51.66999200000000,07/00122/FOOD2,163,envhealth@watford.gov.uk,Watford,http://www.watford.gov.uk/foodhygieneratings,-0.39906400000000,WD24 5AZ,2012-03-10,fhrs_3_en-GB,3,,FHRS,10
40450,65 Market Street,Watford,,,GoKula Vegetarian Cafe,Restaurant/Cafe/Canteen,1,5,,278625,5,,51.65409800000000,10/00034/FOOD2,163,envhealth@watford.gov.uk,Watford,http://www.watford.gov.uk/foodhygieneratings,-0.39930600000000,WD18 0PR,2013-10-02,fhrs_4_en-GB,4,,FHRS,10
40451,199 St Albans Road,Watford,,,Golden Crown,Takeaway/sandwich shop,7844,10,,278464,10,,51.66976900000000,08/00074/FOOD2,163,envhealth@watford.gov.uk,Watford,http://www.watford.gov.uk/foodhygieneratings,-0.39784200000000,WD24 5BH,2013-03-26,fhrs_2_en-GB,2,,FHRS,15
40452,85 Queens Road,Watford,,,Great Poland,Retailers - other,4613,5,,546743,0,,51.65749300000000,13/00006/FOOD2,163,envhealth@watford.gov.uk,Watford,http://www.watford.gov.uk/foodhygieneratings,-0.39244900000000,WD17 2QN,2014-11-17,fhrs_5_en-GB,5,,FHRS,5
40453,2 Leadbetter Drive,Watford,,,Greenbanks Care Home,Hospitals/Childcare/Caring Premises,5,5,,278329,5,,51.68219700000000,07/00107/FOOD2,163,envhealth@watford.gov.uk,Watford,http://www.watford.gov.uk/foodhygieneratings,-0.42387500000000,WD17 4JR,2013-08-20,fhrs_5_en-GB,5,,FHRS,5
40454,114C High Street,Watford,,,Greggs,Retailers - other,4613,0,,456137,0,,51.65426100000000,12/00158/FOOD2,163,envhealth@watford.gov.uk,Watford,http://www.watford.gov.uk/foodhygieneratings,-0.39480400000000,WD17 2BJ,2015-01-07,fhrs_5_en-GB,5,,FHRS,0
40455,41 High Street,Watford,,,Greggs,Retailers - other,4613,0,,278596,0,,51.65626700000000,09/00231/FOOD2,163,envhealth@watford.gov.uk,Watford,http://www.watford.gov.uk/foodhygieneratings,-0.39684400000000,WD17 2DJ,2015-01-07,fhrs_5_en-GB,5,,FHRS,0
40456,85 Vicarage Road,Watford,,,Grill Hut Original,Takeaway/sandwich shop,7844,20,,536203,20,,51.65235400000000,13/00029/FOOD2,163,envhealth@watford.gov.uk,Watford,http://www.watford.gov.uk/foodhygieneratings,-0.40006100000000,WD18 0EJ,2014-09-09,fhrs_0_en-GB,0,,FHRS,15
40457,119 St Albans Road,Watford,,,Groszek Ltd,Retailers - other,4613,20,,278606,10,,51.66465300000000,09/00294/FOOD2,163,envhealth@watford.gov.uk,Watford,http://www.watford.gov.uk/foodhygieneratings,-0.39984500000000,WD17 1RD,2013-10-08,fhrs_1_en-GB,1,,FHRS,15
40458,Rickmansworth Road,Watford,,,Halsey Masonic Hall,Other catering premises,7841,0,,278322,5,,51.65836100000000,07/00095/FOOD2,163,envhealth@watford.gov.uk,Watford,http://www.watford.gov.uk/foodhygieneratings,-0.40337700000000,WD18 0JE,2012-09-26,fhrs_5_en-GB,5,,FHRS,5
40459,Hamiltons Catering,100 Cecil Street,Watford,,Hamilton Catering,Other catering premises,7841,5,,278473,5,,51.67156500000000,08/00087/FOOD2,163,envhealth@watford.gov.uk,Watford,http://www.watford.gov.uk/foodhygieneratings,-0.39902300000000,WD24 5AP,2014-09-26,fhrs_5_en-GB,5,,FHRS,5
40460,Ganders Ash,Watford,Hertfordshire,,Hammer In Hand,Pub/bar/nightclub,7843,5,,278788,5,,51.69647700000000,12/00072/FOOD2,163,envhealth@watford.gov.uk,Watford,http://www.watford.gov.uk/foodhygieneratings,-0.40261500000000,WD25 7EX,2005-11-01,fhrs_5_en-GB,5,,FHRS,5
40461,Unit 4,Faircross House,116 The Parade High Street,Watford,Hanako,Restaurant/Cafe/Canteen,1,5,,278328,5,,51.65905900000000,07/00106/FOOD2,163,envhealth@watford.gov.uk,Watford,http://www.watford.gov.uk/foodhygieneratings,-0.40182000000000,WD17 1BD,2015-02-06,fhrs_5_en-GB,5,,FHRS,5
40462,7 Colne Way Court,Colne Way,Watford,,Hansons The Caterers,Other catering premises,7841,5,,278390,5,,51.67875400000000,07/00223/FOOD2,163,envhealth@watford.gov.uk,Watford,http://www.watford.gov.uk/foodhygieneratings,-0.38488400000000,WD24 7NE,2014-01-22,fhrs_5_en-GB,5,,FHRS,5
40463,61 The Brow,Watford,,,Happy Garden,Takeaway/sandwich shop,7844,20,,278288,10,,51.69694300000000,07/00031/FOOD2,163,envhealth@watford.gov.uk,Watford,http://www.watford.gov.uk/foodhygieneratings,-0.39851800000000,WD25 7NY,2014-03-14,fhrs_1_en-GB,1,,FHRS,10
40464,500 Whippendell Road,Watford,,,Happy Palace,Takeaway/sandwich shop,7844,0,,278359,5,,51.65174000000000,07/00174/FOOD2,163,envhealth@watford.gov.uk,Watford,http://www.watford.gov.uk/foodhygieneratings,-0.42179500000000,WD18 7QJ,2014-09-22,fhrs_5_en-GB,5,,FHRS,0
40465,Harvester,The Three Horseshoes,St Albans Road,Watford,Harvester Restaurant,Restaurant/Cafe/Canteen,1,0,,278589,0,,51.69449900000000,09/00210/FOOD2,163,envhealth@watford.gov.uk,Watford,http://www.watford.gov.uk/foodhygieneratings,-0.38555300000000,WD25 0LL,2013-01-16,fhrs_5_en-GB,5,,FHRS,5
40466,62 Harwoods Road,Watford,,,Harwoods Catering Ltd,Retailers - other,4613,5,,278540,5,,51.65152100000000,09/00012/FOOD2,163,envhealth@watford.gov.uk,Watford,http://www.watford.gov.uk/foodhygieneratings,-0.40619000000000,WD18 7RE,2014-01-15,fhrs_5_en-GB,5,,FHRS,5
40467,13 Harwoods Road,Watford,,,Harwoods Convenience Store,Retailers - other,4613,10,,278634,10,,51.65044700000000,10/00058/FOOD2,163,envhealth@watford.gov.uk,Watford,http://www.watford.gov.uk/foodhygieneratings,-0.40526000000000,WD18 7RB,2013-08-19,fhrs_3_en-GB,3,,FHRS,10
40468,18 Clarendon Road,Watford,,,Hayris Kebab House,Takeaway/sandwich shop,7844,10,,278393,10,,51.65738200000000,07/00233/FOOD2,163,envhealth@watford.gov.uk,Watford,http://www.watford.gov.uk/foodhygieneratings,-0.39684800000000,WD17 1JY,2013-11-25,fhrs_3_en-GB,3,,FHRS,10
40469,Plot A,Iona,North Orbital Road,Watford,Hazel Peters,Mobile caterer,7846,5,,278199,5,,51.69165100000000,05560/2016/2/00A,163,envhealth@watford.gov.uk,Watford,http://www.watford.gov.uk/foodhygieneratings,-0.39160100000000,WD25 0NB,2009-11-30,fhrs_5_en-GB,5,,FHRS,5
40470,North Watford Fire Station,530 St Albans Road,Watford,,Hertfordshire Fire & Ambulance Brigade,Restaurant/Cafe/Canteen,1,10,,278797,10,,51.67852600000000,12/00081/FOOD2,163,envhealth@watford.gov.uk,Watford,http://www.watford.gov.uk/foodhygieneratings,-0.39053300000000,WD24 7RY,2014-03-18,fhrs_4_en-GB,4,,FHRS,0
40471,Watford Fire Station,223 - 229 Lower High Street,Watford,,Hertfordshire Fire And Rescue,Restaurant/Cafe/Canteen,1,,,278614,,,51.65157600000000,10/00006/FOOD2,163,envhealth@watford.gov.uk,Watford,http://www.watford.gov.uk/foodhygieneratings,-0.38914600000000,WD17 2AG,2014-04-07,fhrs_4_en-GB,4,,FHRS,
40472,Bellmount Wood Avenue,Watford,Hertfordshire,,Herts Bowling Club,Other catering premises,7841,5,,278531,5,,51.66994700000000,08/00250/FOOD2,163,envhealth@watford.gov.uk,Watford,http://www.watford.gov.uk/foodhygieneratings,-0.42297000000000,WD17 3BT,2006-05-25,fhrs_5_en-GB,5,,FHRS,5
40473,,,,,Hilary And Victoria's Kitchen,Other catering premises,7841,0,,701896,5,,,14/00117/FOOD2,163,envhealth@watford.gov.uk,Watford,http://www.watford.gov.uk/foodhygieneratings,,,2014-09-18,fhrs_5_en-GB,5,,FHRS,5
40474,Hillside,39 - 41 Kingsfield Road,Watford,Hertfordshire,Hillside Residential Home,Hospitals/Childcare/Caring Premises,5,0,,278500,0,,51.64351700000000,08/00156/FOOD2,163,envhealth@watford.gov.uk,Watford,http://www.watford.gov.uk/foodhygieneratings,-0.38638200000000,WD19 4TQ,2013-12-05,fhrs_5_en-GB,5,,FHRS,5
40475,Maple Court Central Park,Reeds Crescent,Watford,,Hilton Worldwide,Restaurant/Cafe/Canteen,1,0,,278733,5,,51.66472300000000,11/00167/FOOD2,163,envhealth@watford.gov.uk,Watford,http://www.watford.gov.uk/foodhygieneratings,-0.39317600000000,WD24 4QQ,2014-12-05,fhrs_5_en-GB,5,,FHRS,5
40476,87 Vicarage Road,Watford,,,Hin Garden,Takeaway/sandwich shop,7844,10,,278264,10,,51.65235400000000,06/00187/FOOD2,163,envhealth@watford.gov.uk,Watford,http://www.watford.gov.uk/foodhygieneratings,-0.40006100000000,WD18 0EJ,2014-05-19,fhrs_3_en-GB,3,,FHRS,5
40477,88 The Parade High Street,Watford,,,Hintons Pharmacy,Retailers - other,4613,,,735062,,,51.65841900000000,03710/0088/0/000,163,envhealth@watford.gov.uk,Watford,http://www.watford.gov.uk/foodhygieneratings,-0.40104700000000,WD17 1AW,2015-02-04,fhrs_exempt_en-GB,Exempt,,FHRS,
40478,HKS,HKS Petrol Station,Wiggenhall Road,Watford,HKS Colne,Retailers - other,4613,5,,278279,5,,51.64767100000000,07/00019/FOOD2,163,envhealth@watford.gov.uk,Watford,http://www.watford.gov.uk/foodhygieneratings,-0.39425600000000,WD18 0FS,2012-12-14,fhrs_5_en-GB,5,,FHRS,5
40479,33-34 The Harlequin,Watford,,,HMV,Retailers - other,4613,,,278661,,,51.65608900000000,10/00117/FOOD2,163,envhealth@watford.gov.uk,Watford,http://www.watford.gov.uk/foodhygieneratings,-0.39434900000000,WD17 2TE,2011-03-18,fhrs_exempt_en-GB,Exempt,,FHRS,
40480,46 Aldenham Road,Watford,Bushey,,Ho Lok,Takeaway/sandwich shop,7844,10,,278417,5,,51.64689300000000,07/00267/FOOD2,163,envhealth@watford.gov.uk,Watford,http://www.watford.gov.uk/foodhygieneratings,-0.38207000000000,WD23 2NA,2013-09-10,fhrs_4_en-GB,4,,FHRS,5
40481,19 Bridle Path,Watford,,,"Holiday Inn Express London, Watford Junction",Hotel/bed & breakfast/guest house,7842,0,,278530,0,,51.66462200000000,08/00240/FOOD2,163,envhealth@watford.gov.uk,Watford,http://www.watford.gov.uk/foodhygieneratings,-0.39824100000000,WD17 1UE,2014-04-28,fhrs_5_en-GB,5,,FHRS,0
40482,105 High Street,Watford,,,Holland & Barrett,Retailers - other,4613,5,,278751,5,,51.65486200000000,12/00023/FOOD2,163,envhealth@watford.gov.uk,Watford,http://www.watford.gov.uk/foodhygieneratings,-0.39468200000000,WD17 2DQ,2008-04-22,fhrs_5_en-GB,5,,FHRS,5
40483,Woodside Leisure Park,North Orbital Road,Watford,,Hollywood Bowl,Restaurant/Cafe/Canteen,1,5,,278398,5,,51.69264400000000,07/00240/FOOD2,163,envhealth@watford.gov.uk,Watford,http://www.watford.gov.uk/foodhygieneratings,-0.39453200000000,WD25 7JZ,2014-03-11,fhrs_5_en-GB,5,,FHRS,5
40484,Greenbank Road,Watford,,,Holy Rood Primary School,School/college/university,7845,5,,278218,5,,51.68204900000000,06/00084/FOOD2,163,envhealth@watford.gov.uk,Watford,http://www.watford.gov.uk/foodhygieneratings,-0.42620900000000,WD17 4FS,2014-04-01,fhrs_5_en-GB,5,,FHRS,5
40485,Tolpits Lane,Watford,,,Holywell Community Centre,Other catering premises,7841,5,,278553,5,,51.64230600000000,09/00058/FOOD2,163,envhealth@watford.gov.uk,Watford,http://www.watford.gov.uk/foodhygieneratings,-0.41898600000000,WD18 9QD,2010-12-01,fhrs_5_en-GB,5,,FHRS,0
40486,51 The Brow,Watford,,,Home Pizza,Takeaway/sandwich shop,7844,5,,278458,5,,51.69694300000000,08/00064/FOOD2,163,envhealth@watford.gov.uk,Watford,http://www.watford.gov.uk/foodhygieneratings,-0.39851800000000,WD25 7NY,2014-03-06,fhrs_5_en-GB,5,,FHRS,5
40487,Marks And Spencers,Hot Food To Go,91 - 95 High Street,Watford,Hot Food On The Move (including Freshly-made Baguettes),Restaurant/Cafe/Canteen,1,0,,278298,0,,51.65528700000000,07/00045/FOOD2,163,envhealth@watford.gov.uk,Watford,http://www.watford.gov.uk/foodhygieneratings,-0.39485400000000,WD17 2DH,2013-03-20,fhrs_5_en-GB,5,,FHRS,0
40488,157 The Parade High Street,Watford,,,Hot Stuff Balti House,Takeaway/sandwich shop,7844,10,,278191,10,,51.65946500000000,05/00059/FOOD2,163,envhealth@watford.gov.uk,Watford,http://www.watford.gov.uk/foodhygieneratings,-0.40124200000000,WD17 1NA,2014-12-04,fhrs_3_en-GB,3,,FHRS,10
40489,132 The Harlequin,Watford,,,Hotel Chocolat,Retailers - other,4613,0,,278180,0,,51.65570800000000,04/00025/FOOD2,163,envhealth@watford.gov.uk,Watford,http://www.watford.gov.uk/foodhygieneratings,-0.39478200000000,WD17 2TJ,2009-11-30,fhrs_5_en-GB,5,,FHRS,0
40490,Unit 5,25 Greenhill Crescent,Watford,,Hungarian Store Ltd,Retailers - other,4613,5,,715111,5,,51.64293100000000,14/00173/FOOD2,163,envhealth@watford.gov.uk,Watford,http://www.watford.gov.uk/foodhygieneratings,-0.42405200000000,WD18 8XU,2014-11-05,fhrs_5_en-GB,5,,FHRS,5
40491,75 - 77 Sotheron Road,Watford,,,Ice Cream Van Reg 715 EOO,Mobile caterer,7846,5,,278803,5,,51.65995000000000,12/00087/FOOD2,163,envhealth@watford.gov.uk,Watford,http://www.watford.gov.uk/foodhygieneratings,-0.39393800000000,WD17 2QB,2009-04-22,fhrs_5_en-GB,5,,FHRS,5
40492,75 - 77 Sotheron Road,Watford,,,Ice Cream Van Reg F202 CWY,Mobile caterer,7846,5,,278672,5,,51.65995000000000,10/00161/FOOD2,163,envhealth@watford.gov.uk,Watford,http://www.watford.gov.uk/foodhygieneratings,-0.39393800000000,WD17 2QB,2012-05-18,fhrs_5_en-GB,5,,FHRS,5
40493,75 - 77 Sotheron Road,Watford,,,Ice Cream Van Reg L246 HOH,Mobile caterer,7846,5,,278674,5,,51.65995000000000,10/00170/FOOD2,163,envhealth@watford.gov.uk,Watford,http://www.watford.gov.uk/foodhygieneratings,-0.39393800000000,WD17 2QB,2012-03-15,fhrs_5_en-GB,5,,FHRS,5
40494,75 - 77 Sotheron Road,Watford,,,Ice Cream Van Reg W857 0NB,Mobile caterer,7846,5,,278528,5,,51.65995000000000,08/00223/FOOD2,163,envhealth@watford.gov.uk,Watford,http://www.watford.gov.uk/foodhygieneratings,-0.39393800000000,WD17 2QB,2012-03-15,fhrs_5_en-GB,5,,FHRS,5
40495,125 The Parade High Street,Watford,,,Iceland Frozen Foods Plc,Retailers - supermarkets/hypermarkets,7840,0,,278648,0,,51.65946500000000,10/00077/FOOD2,163,envhealth@watford.gov.uk,Watford,http://www.watford.gov.uk/foodhygieneratings,-0.40124200000000,WD17 1NA,2010-03-24,fhrs_5_en-GB,5,,FHRS,5
40496,97 Longspring,Watford,,,Indian Sizzler Watford Ltd,Restaurant/Cafe/Canteen,1,10,,278413,10,,51.67822300000000,07/00262/FOOD2,163,envhealth@watford.gov.uk,Watford,http://www.watford.gov.uk/foodhygieneratings,-0.39729800000000,WD24 6PU,2013-12-05,fhrs_3_en-GB,3,,FHRS,10
40497,Cassio Unit,14 Stratford Road,Watford,,Initial Facilities (Healthcare),Hospitals/Childcare/Caring Premises,5,0,,647073,0,,51.66580700000000,14/00032/FOOD2,163,envhealth@watford.gov.uk,Watford,http://www.watford.gov.uk/foodhygieneratings,-0.40473500000000,WD17 4QH,2014-04-16,fhrs_5_en-GB,5,,FHRS,0
40498,Hertfordshire Partnership NHS Trust,Prospect House,Peace Drive,Watford,Initial Facilities (Healthcare),Restaurant/Cafe/Canteen,1,0,,647075,0,,51.65839700000000,14/00035/FOOD2,163,envhealth@watford.gov.uk,Watford,http://www.watford.gov.uk/foodhygieneratings,-0.40532800000000,WD17 3XE,2014-04-01,fhrs_5_en-GB,5,,FHRS,0
40499,Langley House,698 St Albans Road,Watford,,Initial Facilities (Healthcare),Restaurant/Cafe/Canteen,1,10,,657233,0,,51.68366100000000,14/00045/FOOD2,163,envhealth@watford.gov.uk,Watford,http://www.watford.gov.uk/foodhygieneratings,-0.39121900000000,WD25 9FG,2014-04-23,fhrs_4_en-GB,4,,FHRS,10
40500,205 Leavesden Road,Watford,,,Islamic Food Store,Retailers - other,4613,20,,647060,15,,51.67331000000000,13/00027/FOOD2,163,envhealth@watford.gov.uk,Watford,http://www.watford.gov.uk/foodhygieneratings,-0.40298200000000,WD24 5EL,2014-03-25,fhrs_1_en-GB,1,,FHRS,15
40501,696 St Albans Road,Watford,,,ISS Mediclean,Hospitals/Childcare/Caring Premises,5,5,,278684,0,,51.68478300000000,11/00002/FOOD2,163,envhealth@watford.gov.uk,Watford,http://www.watford.gov.uk/foodhygieneratings,-0.39042700000000,WD25 9NG,2012-10-22,fhrs_5_en-GB,5,,FHRS,0
40502,58 Vicarage Road,Watford,,,Ivy Russell (Smaller Unit),Mobile caterer,7846,0,,278229,0,,51.65117100000000,06/00114/FOOD2,163,envhealth@watford.gov.uk,Watford,http://www.watford.gov.uk/foodhygieneratings,-0.40101300000000,WD18 0EW,2014-03-25,fhrs_5_en-GB,5,,FHRS,0
40503,Wetherspoon House,Reeds Crescent,Watford,,J D Wetherspoon Plc,Restaurant/Cafe/Canteen,1,0,,278290,0,,51.66349000000000,07/00033/FOOD2,163,envhealth@watford.gov.uk,Watford,http://www.watford.gov.uk/foodhygieneratings,-0.39372600000000,WD24 4QL,2013-11-04,fhrs_5_en-GB,5,,FHRS,0
40504,32 Villiers Road,Watford,,,J P Pharmacy,Retailers - other,4613,,,278746,,,51.64546500000000,12/00018/FOOD2,163,envhealth@watford.gov.uk,Watford,http://www.watford.gov.uk/foodhygieneratings,-0.38089200000000,WD19 4AH,2009-12-01,fhrs_exempt_en-GB,Exempt,,FHRS,
40505,J Sainsbury PLC,Albert Road South,Watford,Hertfordshire,J Sainsbury Supermarket,Retailers - supermarkets/hypermarkets,7840,0,,278312,0,,51.65985600000000,07/00066/FOOD2,163,envhealth@watford.gov.uk,Watford,http://www.watford.gov.uk/foodhygieneratings,-0.40020200000000,WD17 1QQ,2014-05-28,fhrs_5_en-GB,5,,FHRS,5
40506,J Stores,53 The Brow,Watford,,J Stores Food And Wine,Retailers - other,4613,10,,278508,5,,51.69694300000000,08/00166/FOOD2,163,envhealth@watford.gov.uk,Watford,http://www.watford.gov.uk/foodhygieneratings,-0.39851800000000,WD25 7NY,2014-02-18,fhrs_4_en-GB,4,,FHRS,5
40507,376 St Albans Road,Watford,,,Jay Convenience Store,Retailers - other,4613,5,,278348,5,,51.67702900000000,07/00157/FOOD2,163,envhealth@watford.gov.uk,Watford,http://www.watford.gov.uk/foodhygieneratings,-0.39677600000000,WD24 6PJ,2010-11-30,fhrs_5_en-GB,5,,FHRS,5
40508,209 St Albans Road,Watford,,,Jenny's Cafe,Restaurant/Cafe/Canteen,1,10,,278292,10,,51.66976900000000,07/00035/FOOD2,163,envhealth@watford.gov.uk,Watford,http://www.watford.gov.uk/foodhygieneratings,-0.39784200000000,WD24 5BH,2013-12-05,fhrs_3_en-GB,3,,FHRS,5
40509,33 Market Street,Watford,,,Jenny's Restaurant,Restaurant/Cafe/Canteen,1,5,,278257,5,,51.65444800000000,06/00170/FOOD2,163,envhealth@watford.gov.uk,Watford,http://www.watford.gov.uk/foodhygieneratings,-0.39865700000000,WD18 0PN,2014-04-15,fhrs_4_en-GB,4,,FHRS,10
40510,Jimmys World Grill And Bar,134 High Street,Watford,,Jimmy's World Grill And Bar,Restaurant/Cafe/Canteen,1,5,,510468,10,,51.65360000000000,12/00185/FOOD2,163,envhealth@watford.gov.uk,Watford,http://www.watford.gov.uk/foodhygieneratings,-0.39319400000000,WD17 2EN,2014-06-27,fhrs_4_en-GB,4,,FHRS,5
40511,5 Cassio Road,Watford,,,John Davis Chemist,Retailers - other,4613,,,278774,,,51.65449900000000,12/00050/FOOD2,163,envhealth@watford.gov.uk,Watford,http://www.watford.gov.uk/foodhygieneratings,-0.40173500000000,WD18 0QP,2009-11-30,fhrs_exempt_en-GB,Exempt,,FHRS,
40512,Upper Mall,2 The Harlequin,Watford,,Johnnie Cupcakes Ltd,Retailers - other,4613,0,,607802,5,,51.65472700000000,12/00209/FOOD2,163,envhealth@watford.gov.uk,Watford,http://www.watford.gov.uk/foodhygieneratings,-0.39335600000000,WD17 2TH,2013-11-08,fhrs_5_en-GB,5,,FHRS,0
40513,Johns Stores,21 Langley Road,Watford,,John's Store,Retailers - other,4613,20,,278577,10,,51.66413400000000,09/00167/FOOD2,163,envhealth@watford.gov.uk,Watford,http://www.watford.gov.uk/foodhygieneratings,-0.40071600000000,WD17 4PS,2014-03-25,fhrs_1_en-GB,1,,FHRS,15
40514,246 St Albans Road,Watford,,,Jollof,Takeaway/sandwich shop,7844,10,,700732,5,,51.67193900000000,14/00112/FOOD2,163,envhealth@watford.gov.uk,Watford,http://www.watford.gov.uk/foodhygieneratings,-0.39608800000000,WD24 4AX,2014-08-27,fhrs_4_en-GB,4,,FHRS,5
40515,Unit 40,The Wenta Business Centre,Colne Way,Watford,Joseph Catering,Other catering premises,7841,10,,278626,5,,51.67832500000000,10/00038/FOOD2,163,envhealth@watford.gov.uk,Watford,http://www.watford.gov.uk/foodhygieneratings,-0.38374200000000,WD24 7ND,2013-12-09,fhrs_4_en-GB,4,,FHRS,5
40516,37 Market Street,Watford,,,Joya Tandoori,Restaurant/Cafe/Canteen,1,20,,278364,15,,51.65444800000000,07/00181/FOOD2,163,envhealth@watford.gov.uk,Watford,http://www.watford.gov.uk/foodhygieneratings,-0.39865700000000,WD18 0PN,2014-01-14,fhrs_1_en-GB,1,,FHRS,10
40517,101A St Albans Road,Watford,,,Junction Cafe,Restaurant/Cafe/Canteen,1,10,,278430,5,,51.66465300000000,08/00008/FOOD2,163,envhealth@watford.gov.uk,Watford,http://www.watford.gov.uk/foodhygieneratings,-0.39984500000000,WD17 1RD,2014-08-27,fhrs_4_en-GB,4,,FHRS,5
40518,31 - 35 Clarendon Road,Watford,,,Jurys Inn Watford,Hotel/bed & breakfast/guest house,7842,0,,278569,5,,51.65866600000000,09/00150/FOOD2,163,envhealth@watford.gov.uk,Watford,http://www.watford.gov.uk/foodhygieneratings,-0.39739500000000,WD17 1JA,2013-10-21,fhrs_5_en-GB,5,,FHRS,0
40519,56C Vicarage Road,Watford,,,Kasturi Indian Takeaway,Takeaway/sandwich shop,7844,10,,278520,5,,51.65157900000000,08/00191/FOOD2,163,envhealth@watford.gov.uk,Watford,http://www.watford.gov.uk/foodhygieneratings,-0.40056500000000,WD18 0EN,2012-09-19,fhrs_4_en-GB,4,,FHRS,5
40520,158 St Albans Road,Watford,,,Kays Newsagent,Retailers - other,4613,,,278273,,,51.66897400000000,06870/0158/0/000,163,envhealth@watford.gov.uk,Watford,http://www.watford.gov.uk/foodhygieneratings,-0.39756700000000,WD24 4FT,2009-11-30,fhrs_exempt_en-GB,Exempt,,FHRS,
40521,292 Lower High Street,Watford,,,Keane's Cafe,Takeaway/sandwich shop,7844,5,,278679,5,,51.64834200000000,10/00181/FOOD2,163,envhealth@watford.gov.uk,Watford,http://www.watford.gov.uk/foodhygieneratings,-0.38677400000000,WD17 2JE,2014-01-22,fhrs_5_en-GB,5,,FHRS,5
40522,114 Whippendell Road,Watford,,,Kebabish,Takeaway/sandwich shop,7844,10,,278186,10,,51.65427600000000,05/00017/FOOD2,163,envhealth@watford.gov.uk,Watford,http://www.watford.gov.uk/foodhygieneratings,-0.40645500000000,WD18 7NE,2013-11-20,fhrs_2_en-GB,2,,FHRS,15
40523,138-140 St Albans Road,Watford,,,Kentucky Fried Chicken,Takeaway/sandwich shop,7844,5,,278397,5,,51.66897400000000,07/00239/FOOD2,163,envhealth@watford.gov.uk,Watford,http://www.watford.gov.uk/foodhygieneratings,-0.39756700000000,WD24 4FT,2014-03-31,fhrs_5_en-GB,5,,FHRS,5
40524,40 Market Street,Watford,,,Khybar Shenwari Grill,Other catering premises,7841,10,,701895,10,,51.65444400000000,14/00042/FOOD2,163,envhealth@watford.gov.uk,Watford,http://www.watford.gov.uk/foodhygieneratings,-0.39962600000000,WD18 0PY,2014-08-13,fhrs_3_en-GB,3,,FHRS,10
40525,66 Market Street,Watford,,,Khyber Halal Meat,Retailers - other,4613,20,,693794,15,,51.65401500000000,14/00116/FOOD2,163,envhealth@watford.gov.uk,Watford,http://www.watford.gov.uk/foodhygieneratings,-0.40052300000000,WD18 0PX,2014-08-13,fhrs_1_en-GB,1,,FHRS,10
40526,198 St Albans Road,Watford,,,King Do,Restaurant/Cafe/Canteen,1,20,,278210,15,,51.67001100000000,06/00057/FOOD2,163,envhealth@watford.gov.uk,Watford,http://www.watford.gov.uk/foodhygieneratings,-0.39712500000000,WD24 4AS,2015-01-14,fhrs_1_en-GB,1,,FHRS,10
40527,12 Wellington Road,Watford,,,King's Jive,Other catering premises,7841,,,647063,,,51.66275800000000,13/00079/FOOD2,163,envhealth@watford.gov.uk,Watford,http://www.watford.gov.uk/foodhygieneratings,-0.39939100000000,WD17 1QU,2013-12-02,fhrs_exempt_en-GB,Exempt,,FHRS,
40528,North Approach,Watford,,,Kingsway Infants School,School/college/university,7845,0,,278303,0,,51.68956400000000,07/00051/FOOD2,163,envhealth@watford.gov.uk,Watford,http://www.watford.gov.uk/foodhygieneratings,-0.40673500000000,WD25 0ES,2014-04-28,fhrs_4_en-GB,4,,FHRS,10
40529,Briar Road,Watford,,,Kingsway Junior School,School/college/university,7845,0,,278346,0,,51.68891600000000,07/00155/FOOD2,163,envhealth@watford.gov.uk,Watford,http://www.watford.gov.uk/foodhygieneratings,-0.40599100000000,WD25 0JH,2013-01-11,fhrs_5_en-GB,5,,FHRS,0
40530,205 North Approach,Watford,,,Kingswood Baptist Church,Other catering premises,7841,0,,278475,0,,51.68956400000000,08/00092/FOOD2,163,envhealth@watford.gov.uk,Watford,http://www.watford.gov.uk/foodhygieneratings,-0.40673500000000,WD25 0ES,2012-03-14,fhrs_5_en-GB,5,,FHRS,0
40531,Briar Road,Watford,,,Kingswood Early Years Centre,Hospitals/Childcare/Caring Premises,5,0,,278486,5,,51.68847300000000,08/00112/FOOD2,163,envhealth@watford.gov.uk,Watford,http://www.watford.gov.uk/foodhygieneratings,-0.39988700000000,WD25 0DX,2013-03-05,fhrs_5_en-GB,5,,FHRS,0
40532,64 The Parade High Street,Watford,,,Kismet Kebab,Restaurant/Cafe/Canteen,1,10,,278260,0,,51.65789600000000,06/00177/FOOD2,163,envhealth@watford.gov.uk,Watford,http://www.watford.gov.uk/foodhygieneratings,-0.40025600000000,WD17 1AH,2014-06-19,fhrs_4_en-GB,4,,FHRS,0
40533,254 St Albans Road,Watford,,,Knutford Food And Wine,Retailers - other,4613,20,,278718,5,,51.67193900000000,11/00144/FOOD2,163,envhealth@watford.gov.uk,Watford,http://www.watford.gov.uk/foodhygieneratings,-0.39608800000000,WD24 4AX,2014-03-07,fhrs_1_en-GB,1,,FHRS,10
40534,Knutsford Avenue,Watford,Hertfordshire,,Knutsford School,School/college/university,7845,5,,278507,5,,51.67112600000000,08/00165/FOOD2,163,envhealth@watford.gov.uk,Watford,http://www.watford.gov.uk/foodhygieneratings,-0.38728100000000,WD24 7ER,2011-07-14,fhrs_4_en-GB,4,,FHRS,10
40535,Knutsford Junior & Infant School,Knutsford Avenue,Watford,Hertfordshire,Knutz Out Of School Club,Hospitals/Childcare/Caring Premises,5,5,,278597,5,,51.67112600000000,09/00249/FOOD2,163,envhealth@watford.gov.uk,Watford,http://www.watford.gov.uk/foodhygieneratings,-0.38728100000000,WD24 7ER,2011-07-15,fhrs_4_en-GB,4,,FHRS,10
40536,KPMG Building,58 Clarendon Road,Watford,,KPMG Staff Restaurant And Cafe,Restaurant/Cafe/Canteen,1,0,,278518,0,,51.66206400000000,08/00186/FOOD2,163,envhealth@watford.gov.uk,Watford,http://www.watford.gov.uk/foodhygieneratings,-0.39661000000000,WD17 1DE,2014-09-29,fhrs_5_en-GB,5,,FHRS,0
40537,75 Market Street,Watford,,,La Bottega Italiana,Retailers - other,4613,20,,278374,15,,51.65409800000000,07/00193/FOOD2,163,envhealth@watford.gov.uk,Watford,http://www.watford.gov.uk/foodhygieneratings,-0.39930600000000,WD18 0PR,2014-09-29,fhrs_0_en-GB,0,,FHRS,20
40538,312 St Albans Road,Watford,,,Lahore Restaurant,Restaurant/Cafe/Canteen,1,5,,278715,5,,51.67456900000000,11/00133/FOOD2,163,envhealth@watford.gov.uk,Watford,http://www.watford.gov.uk/foodhygieneratings,-0.39640000000000,WD24 6PQ,2013-08-19,fhrs_4_en-GB,4,,FHRS,10
40539,167 - 169 The Harlequin,Watford,,,Lakeland,Retailers - other,4613,,,278699,,,51.65418700000000,11/00065/FOOD2,163,envhealth@watford.gov.uk,Watford,http://www.watford.gov.uk/foodhygieneratings,-0.39336100000000,WD17 2TQ,2012-01-20,fhrs_exempt_en-GB,Exempt,,FHRS,
40540,7 Chalk Hill,Watford,,,Lalbagh Tandoori Restaurant,Restaurant/Cafe/Canteen,1,5,,278545,5,,51.64631900000000,09/00017/FOOD2,163,envhealth@watford.gov.uk,Watford,http://www.watford.gov.uk/foodhygieneratings,-0.38349300000000,WD19 4BL,2014-01-16,fhrs_4_en-GB,4,,FHRS,10
40541,101 Eastbury Road,Watford,,,Lalji Gajipra,Retailers - other,4613,20,,710186,10,,51.64038500000000,12/00200/FOOD2,163,envhealth@watford.gov.uk,Watford,http://www.watford.gov.uk/foodhygieneratings,-0.39866100000000,WD19 4JP,2014-10-17,fhrs_1_en-GB,1,,FHRS,10
40542,108 High Road,Leavesden,Watford,,Lancaster Court,Hospitals/Childcare/Caring Premises,5,5,,278567,0,,51.69162900000000,09/00139/FOOD2,163,envhealth@watford.gov.uk,Watford,http://www.watford.gov.uk/foodhygieneratings,-0.40913700000000,WD25 7AU,2013-12-05,fhrs_5_en-GB,5,,FHRS,5
40543,Langley Catering,38 - 42 The Parade High Street,Watford,,Langley Banqueting,Restaurant/Cafe/Canteen,1,20,,278391,15,,51.65732300000000,07/00229/FOOD2,163,envhealth@watford.gov.uk,Watford,http://www.watford.gov.uk/foodhygieneratings,-0.39979900000000,WD17 1AZ,2014-03-26,fhrs_1_en-GB,1,,FHRS,5
40544,60-60A The Parade High Street,Watford,,,L'Artista Restaurant,Restaurant/Cafe/Canteen,1,0,,278318,5,,51.65789600000000,07/00090/FOOD2,163,envhealth@watford.gov.uk,Watford,http://www.watford.gov.uk/foodhygieneratings,-0.40025600000000,WD17 1AH,2014-09-26,fhrs_5_en-GB,5,,FHRS,5
40545,127 The Parade High Street,Watford,,,Laser Planet,Restaurant/Cafe/Canteen,1,,,427352,,,51.65946500000000,11/00131/FOOD2,163,envhealth@watford.gov.uk,Watford,http://www.watford.gov.uk/foodhygieneratings,-0.40124200000000,WD17 1NA,2014-09-03,fhrs_5_en-GB,5,,FHRS,
40546,Laurance Haines Junior Mixed Infant,Vicarage Road,Watford,,Laurance Haines School,School/college/university,7845,5,,278468,0,,51.64685200000000,08/00079/FOOD2,163,envhealth@watford.gov.uk,Watford,http://www.watford.gov.uk/foodhygieneratings,-0.40739500000000,WD18 0DD,2014-01-15,fhrs_5_en-GB,5,,FHRS,5
40547,Watford General Hospital,Vicarage Road,Watford,,League Of Friends Tea Shop And Tea Bar,Restaurant/Cafe/Canteen,1,5,,278478,10,,51.64906100000000,08/00101/FOOD2,163,envhealth@watford.gov.uk,Watford,http://www.watford.gov.uk/foodhygieneratings,-0.40448400000000,WD18 0HB,2014-08-08,fhrs_3_en-GB,3,,FHRS,10
40548,146 - 148 Haines Way,Watford,Hertfordshire,,Leavesden Green Post Office And Newsagent,Retailers - other,4613,10,,278767,0,,51.69258700000000,12/00040/FOOD2,163,envhealth@watford.gov.uk,Watford,http://www.watford.gov.uk/foodhygieneratings,-0.40814900000000,WD25 7QX,2014-02-19,fhrs_4_en-GB,4,,FHRS,5
40549,187 Leavesden Road,Watford,,,Leavesden Montessori House,Other catering premises,7841,0,,704511,0,,51.67331000000000,13/00012/FOOD2,163,envhealth@watford.gov.uk,Watford,http://www.watford.gov.uk/foodhygieneratings,-0.40298200000000,WD24 5EL,2013-05-14,fhrs_5_en-GB,5,,FHRS,5
40550,119 Courtlands Drive,Watford,,,Leavesden Tandoori,Takeaway/sandwich shop,7844,5,,278380,10,,51.68237000000000,07/00202/FOOD2,163,envhealth@watford.gov.uk,Watford,http://www.watford.gov.uk/foodhygieneratings,-0.41870500000000,WD17 4HZ,2013-12-18,fhrs_4_en-GB,4,,FHRS,5
40551,4-6 Langley Road,Watford,,,Lemongrass,Restaurant/Cafe/Canteen,1,5,,278379,5,,51.66442800000000,07/00201/FOOD2,163,envhealth@watford.gov.uk,Watford,http://www.watford.gov.uk/foodhygieneratings,-0.40121200000000,WD17 4PT,2013-07-16,fhrs_5_en-GB,5,,FHRS,5
40552,105A Sandringham Road,Watford,,,Little Raccoons Day Nursery,Hospitals/Childcare/Caring Premises,5,10,,374085,5,,51.67410000000000,11/00127/FOOD2,163,envhealth@watford.gov.uk,Watford,http://www.watford.gov.uk/foodhygieneratings,-0.39563600000000,WD24 7BD,2013-12-05,fhrs_4_en-GB,4,,FHRS,5
40553,John Lewis,52 The Harlequin,Watford,,Little Waitrose,Retailers - supermarkets/hypermarkets,7840,0,,591459,0,,51.65463100000000,13/00053/FOOD2,163,envhealth@watford.gov.uk,Watford,http://www.watford.gov.uk/foodhygieneratings,-0.39229000000000,WD17 2TW,2013-09-20,fhrs_5_en-GB,5,,FHRS,0
40554,Littlebury Hall,Mildred Avenue,Watford,,Littlebury Childrens Centre,Hospitals/Childcare/Caring Premises,5,0,,278552,0,,51.65538600000000,09/00055/FOOD2,163,envhealth@watford.gov.uk,Watford,http://www.watford.gov.uk/foodhygieneratings,-0.40809300000000,WD18 7DY,2014-01-21,fhrs_5_en-GB,5,,FHRS,0
40555,Retail Unit C,Attenborough Court,Owen Square,Watford,LJ's Coffee House,Restaurant/Cafe/Canteen,1,5,,465804,5,,,12/00182/FOOD2,163,envhealth@watford.gov.uk,Watford,http://www.watford.gov.uk/foodhygieneratings,,WD19 4FN,2014-08-11,fhrs_5_en-GB,5,,FHRS,0
40556,207 Pinner Road,Watford,,,Load Of Hay,Restaurant/Cafe/Canteen,1,10,,278276,10,,51.63821300000000,07/00015/FOOD2,163,envhealth@watford.gov.uk,Watford,http://www.watford.gov.uk/foodhygieneratings,-0.38323200000000,WD19 4ET,2014-03-06,fhrs_3_en-GB,3,,FHRS,10
40557,253 St Albans Road,Watford,,,Londis,Retailers - other,4613,10,,278640,10,,51.67105200000000,10/00069/FOOD2,163,envhealth@watford.gov.uk,Watford,http://www.watford.gov.uk/foodhygieneratings,-0.39700200000000,WD24 5BQ,2013-12-17,fhrs_2_en-GB,2,,FHRS,15
40558,7 Garston Park Parade,Watford,,,Londis,Retailers - other,4613,20,,278647,10,,51.68995000000000,10/00076/FOOD2,163,envhealth@watford.gov.uk,Watford,http://www.watford.gov.uk/foodhygieneratings,-0.38558500000000,WD25 9LQ,2014-08-07,fhrs_1_en-GB,1,,FHRS,10
40559,71 Gammons Lane,Watford,,,Londis,Retailers - other,4613,10,,278231,10,,51.67429100000000,06/00116/FOOD2,163,envhealth@watford.gov.uk,Watford,http://www.watford.gov.uk/foodhygieneratings,-0.40374300000000,WD24 5HU,2013-11-18,fhrs_3_en-GB,3,,FHRS,10
40560,89 Queens Road,Watford,,,Londis,Retailers - other,4613,10,,278469,5,,51.65749300000000,08/00080/FOOD2,163,envhealth@watford.gov.uk,Watford,http://www.watford.gov.uk/foodhygieneratings,-0.39244900000000,WD17 2QN,2012-03-12,fhrs_4_en-GB,4,,FHRS,5
40561,Londis (CHN News),91-93 Vicarage Road,Watford,,Londis,Retailers - other,4613,5,,278572,5,,51.65197500000000,09/00158/FOOD2,163,envhealth@watford.gov.uk,Watford,http://www.watford.gov.uk/foodhygieneratings,-0.40060900000000,WD18 0EB,2010-12-06,fhrs_5_en-GB,5,,FHRS,5
40562,12 Brush Rise,Watford,,,Lou's Ice Creams,Mobile caterer,7846,10,,590743,5,,51.68038100000000,13/00057/FOOD2,163,envhealth@watford.gov.uk,Watford,http://www.watford.gov.uk/foodhygieneratings,-0.40390500000000,WD24 6SZ,2013-10-04,fhrs_4_en-GB,4,,FHRS,5
40563,Mobile Catering Van,Lous Snack Bar,Colonial Way,Watford,Lou's Snack Bar,Mobile caterer,7846,5,,278321,5,,51.64959100000000,07/00094/FOOD2,163,envhealth@watford.gov.uk,Watford,http://www.watford.gov.uk/foodhygieneratings,-0.42246200000000,WD24 4WG,2014-06-19,fhrs_5_en-GB,5,,FHRS,5
40564,14 Woodford Road,Watford,,,M Two  Snax,Other catering premises,7841,10,,647064,5,,51.66214100000000,13/00080/FOOD2,163,envhealth@watford.gov.uk,Watford,http://www.watford.gov.uk/foodhygieneratings,-0.39506000000000,WD17 1PA,2014-03-19,fhrs_4_en-GB,4,,FHRS,5
40565,80 Whippendell Road,Watford,,,M.D.Pharmacy,Retailers - other,4613,,,278765,,,51.65464700000000,12/00038/FOOD2,163,envhealth@watford.gov.uk,Watford,http://www.watford.gov.uk/foodhygieneratings,-0.40596500000000,WD18 7LR,2015-02-04,fhrs_exempt_en-GB,Exempt,,FHRS,
40566,229 St Albans Road,Watford,,,Mahmood Halal Meat,Retailers - other,4613,10,,408284,5,,51.67105200000000,12/00149/FOOD2,163,envhealth@watford.gov.uk,Watford,http://www.watford.gov.uk/foodhygieneratings,-0.39700200000000,WD24 5BQ,2014-03-17,fhrs_4_en-GB,4,,FHRS,5
40567,271 - 273 St Albans Road,Watford,,,Mala Polska Ltd,Retailers - other,4613,5,,546745,0,,51.67183800000000,13/00028/FOOD2,163,envhealth@watford.gov.uk,Watford,http://www.watford.gov.uk/foodhygieneratings,-0.39661200000000,WD24 5BJ,2014-12-09,fhrs_5_en-GB,5,,FHRS,5
40568,28 Market Street,Watford,,,Mangans,Pub/bar/nightclub,7843,5,,278598,5,,51.65444400000000,09/00250/FOOD2,163,envhealth@watford.gov.uk,Watford,http://www.watford.gov.uk/foodhygieneratings,-0.39962600000000,WD18 0PY,2010-11-04,fhrs_5_en-GB,5,,FHRS,5
40569,91 - 95 High Street,Watford,,,Marks & Spencers Staff Restaurant,Restaurant/Cafe/Canteen,1,0,,278551,0,,51.65528700000000,09/00051/FOOD2,163,envhealth@watford.gov.uk,Watford,http://www.watford.gov.uk/foodhygieneratings,-0.39485400000000,WD17 2DH,2013-03-20,fhrs_5_en-GB,5,,FHRS,0
40570,91 - 95 High Street,Watford,,,Marks And Spencers,Retailers - supermarkets/hypermarkets,7840,0,,278592,0,,51.65626700000000,09/00221/FOOD2,163,envhealth@watford.gov.uk,Watford,http://www.watford.gov.uk/foodhygieneratings,-0.39684400000000,WD17 2DJ,2013-03-20,fhrs_5_en-GB,5,,FHRS,0
40571,Cassiobury Park,Watford,,,Marsala Ices Kiosk,Takeaway/sandwich shop,7844,5,,278385,0,,51.65999984741211,07/00209/FOOD2,163,envhealth@watford.gov.uk,Watford,http://www.watford.gov.uk/foodhygieneratings,-0.40099999308586,WD1 7HY,2014-08-06,fhrs_5_en-GB,5,,FHRS,5
40572,134 The Gossamers,Watford,,,Martins,Retailers - other,4613,5,,278212,5,,51.68132000000000,06/00065/FOOD2,163,envhealth@watford.gov.uk,Watford,http://www.watford.gov.uk/foodhygieneratings,-0.37990300000000,WD25 9AD,2012-03-10,fhrs_5_en-GB,5,,FHRS,5
40573,9 Garston Park Parade,Watford,,,Martins,Retailers - other,4613,5,,278342,5,,51.68995000000000,07/00146/FOOD2,163,envhealth@watford.gov.uk,Watford,http://www.watford.gov.uk/foodhygieneratings,-0.38558500000000,WD25 9LQ,2012-12-13,fhrs_5_en-GB,5,,FHRS,5
40574,Morton Hall,Eastbury Road,Watford,,Mascot Out Of School Care,Hospitals/Childcare/Caring Premises,5,10,,278570,0,,51.64038500000000,09/00151/FOOD2,163,envhealth@watford.gov.uk,Watford,http://www.watford.gov.uk/foodhygieneratings,-0.39866100000000,WD19 4JP,2012-02-29,fhrs_4_en-GB,4,,FHRS,5
40575,79-83 Tolpits Lane,Watford,,,McColls,Retailers - other,4613,10,,278227,5,,51.64567200000000,06/00105/FOOD2,163,envhealth@watford.gov.uk,Watford,http://www.watford.gov.uk/foodhygieneratings,-0.41651300000000,WD18 6NT,2014-05-06,fhrs_3_en-GB,3,,FHRS,10
40576,McColls Supermarket,176 - 180 Cassiobury Drive,Watford,,McColls,Retailers - other,4613,10,,278498,10,,51.66617400000000,08/00153/FOOD2,163,envhealth@watford.gov.uk,Watford,http://www.watford.gov.uk/foodhygieneratings,-0.41653600000000,WD17 3AJ,2011-08-18,fhrs_2_en-GB,2,,FHRS,15
40577,126-130 High Street,Watford,,,McDonalds,Restaurant/Cafe/Canteen,1,0,,278633,0,,51.65426100000000,10/00055/FOOD2,163,envhealth@watford.gov.uk,Watford,http://www.watford.gov.uk/foodhygieneratings,-0.39480400000000,WD17 2BJ,2011-08-08,fhrs_5_en-GB,5,,FHRS,5
40578,Mcdonalds Restaurants Ltd,331 St Albans Road,Watford,,McDonalds,Restaurant/Cafe/Canteen,1,0,,278472,0,,51.67717200000000,08/00086/FOOD2,163,envhealth@watford.gov.uk,Watford,http://www.watford.gov.uk/foodhygieneratings,-0.39740700000000,WD24 6PP,2013-03-25,fhrs_5_en-GB,5,,FHRS,0
40579,Rigby House,30-34 The Parade High Street,Watford,,McDonalds,Restaurant/Cafe/Canteen,1,0,,278238,0,,51.65706300000000,06/00128/FOOD2,163,envhealth@watford.gov.uk,Watford,http://www.watford.gov.uk/foodhygieneratings,-0.39917200000000,WD17 1EA,2014-03-17,fhrs_5_en-GB,5,,FHRS,0
40580,869-875 St Albans Road,Watford,,,McDonalds Drive Thru,Restaurant/Cafe/Canteen,1,0,,278506,0,,51.69231200000000,08/00164/FOOD2,163,envhealth@watford.gov.uk,Watford,http://www.watford.gov.uk/foodhygieneratings,-0.38605000000000,WD25 0NH,2013-03-19,fhrs_5_en-GB,5,,FHRS,0
40581,Ground Floor,34 Vicarage Road,Watford,,McMechi,Takeaway/sandwich shop,7844,10,,683642,5,,51.65157900000000,14/00089/FOOD2,163,envhealth@watford.gov.uk,Watford,http://www.watford.gov.uk/foodhygieneratings,-0.40056500000000,WD18 0EN,2014-06-23,fhrs_3_en-GB,3,,FHRS,10
40582,288 Whippendell Road,Watford,,,McRoosters,Takeaway/sandwich shop,7844,10,,594546,5,,51.65090600000000,13/00092/FOOD2,163,envhealth@watford.gov.uk,Watford,http://www.watford.gov.uk/foodhygieneratings,-0.41329500000000,WD18 7PD,2013-10-01,fhrs_3_en-GB,3,,FHRS,10
40583,308 Whippendell Road,Watford,,,Med Cakes,Restaurant/Cafe/Canteen,1,10,,278310,5,,51.65090600000000,07/00064/FOOD2,163,envhealth@watford.gov.uk,Watford,http://www.watford.gov.uk/foodhygieneratings,-0.41329500000000,WD18 7PD,2013-02-21,fhrs_3_en-GB,3,,FHRS,10
40584,116-118 Whippendell Road,Watford,,,Medina Food Store,Retailers - other,4613,10,,278456,15,,51.65364600000000,08/00055/FOOD2,163,envhealth@watford.gov.uk,Watford,http://www.watford.gov.uk/foodhygieneratings,-0.40707000000000,WD18 7ND,2014-05-17,fhrs_2_en-GB,2,,FHRS,10
40585,160 Whippendell Road,Watford,,,Melo Cafe,Restaurant/Cafe/Canteen,1,10,,669853,10,,51.65319400000000,13/00039/FOOD2,163,envhealth@watford.gov.uk,Watford,http://www.watford.gov.uk/foodhygieneratings,-0.40757700000000,WD18 7NB,2014-05-13,fhrs_3_en-GB,3,,FHRS,5
40586,136 The Gossamers,Watford,,,Meriden Fish Bar,Takeaway/sandwich shop,7844,10,,278248,10,,51.68132000000000,06/00144/FOOD2,163,envhealth@watford.gov.uk,Watford,http://www.watford.gov.uk/foodhygieneratings,-0.37990300000000,WD25 9AD,2014-07-28,fhrs_3_en-GB,3,,FHRS,10
40587,Meriden Medical Centre,Harvest End,Watford,,Meriden Pharmacy,Retailers - other,4613,,,278737,,,51.68135900000000,12/00003/FOOD2,163,envhealth@watford.gov.uk,Watford,http://www.watford.gov.uk/foodhygieneratings,-0.38469000000000,WD25 9UB,2010-05-26,fhrs_exempt_en-GB,Exempt,,FHRS,
40588,128 The Gossamers,Watford,,,Meriden Post Office,Retailers - other,4613,20,,278646,5,,51.68132000000000,10/00075/FOOD2,163,envhealth@watford.gov.uk,Watford,http://www.watford.gov.uk/foodhygieneratings,-0.37990300000000,WD25 9AD,2013-04-04,fhrs_1_en-GB,1,,FHRS,5
40589,21 The Harlequin,Watford,,,Millie's Cookies,Retailers - other,4613,0,,278220,0,,51.65570800000000,06/00096/FOOD2,163,envhealth@watford.gov.uk,Watford,http://www.watford.gov.uk/foodhygieneratings,-0.39478200000000,WD17 2TD,2014-03-20,fhrs_5_en-GB,5,,FHRS,0
40590,103 Harwoods Road,Watford,,,Mint,Takeaway/sandwich shop,7844,20,,606117,10,,51.65216000000000,13/00025/FOOD2,163,envhealth@watford.gov.uk,Watford,http://www.watford.gov.uk/foodhygieneratings,-0.40757000000000,WD18 7RL,2013-11-05,fhrs_1_en-GB,1,,FHRS,10
40591,Trinity Mirror Printing Watford Ltd,4 Odhams Industrial Estate,St Albans Road,Watford,Mirror Colour Print,Restaurant/Cafe/Canteen,1,0,,278280,0,,51.68022700000000,07/00020/FOOD2,163,envhealth@watford.gov.uk,Watford,http://www.watford.gov.uk/foodhygieneratings,-0.38934400000000,WD24 7RG,2014-02-05,fhrs_5_en-GB,5,,FHRS,0
40592,121 St Albans Road,Watford,,,Mithunn Convenience Store,Retailers - other,4613,10,,278431,10,,51.66465300000000,08/00010/FOOD2,163,envhealth@watford.gov.uk,Watford,http://www.watford.gov.uk/foodhygieneratings,-0.39984500000000,WD17 1RD,2013-10-14,fhrs_2_en-GB,2,,FHRS,15
40593,66 - 68 The Parade High Street,Watford,,,Molloy's/Reflex,Restaurant/Cafe/Canteen,1,0,,278278,0,,51.65789600000000,07/00018/FOOD2,163,envhealth@watford.gov.uk,Watford,http://www.watford.gov.uk/foodhygieneratings,-0.40025600000000,WD17 1AH,2013-09-16,fhrs_4_en-GB,4,,FHRS,10
40594,163-165 St Albans Road,Watford,,,Monsoon Restaurant,Restaurant/Cafe/Canteen,1,5,,278258,0,,51.66830800000000,06/00171/FOOD2,163,envhealth@watford.gov.uk,Watford,http://www.watford.gov.uk/foodhygieneratings,-0.39821200000000,WD24 5BD,2013-03-27,fhrs_5_en-GB,5,,FHRS,5
40595,44 High Street,Watford,,,Moon Under Water,Restaurant/Cafe/Canteen,1,0,,278441,0,,51.65602200000000,08/00028/FOOD2,163,envhealth@watford.gov.uk,Watford,http://www.watford.gov.uk/foodhygieneratings,-0.39734400000000,WD17 2BS,2014-06-09,fhrs_5_en-GB,5,,FHRS,5
40596,Old Peoples Home,5 Park Avenue,Watford,,Morningside,Hospitals/Childcare/Caring Premises,5,5,,278434,0,,51.65552900000000,08/00013/FOOD2,163,envhealth@watford.gov.uk,Watford,http://www.watford.gov.uk/foodhygieneratings,-0.40667100000000,WD18 7HR,2011-01-18,fhrs_5_en-GB,5,,FHRS,5
40597,Morrisons,Ascot Road,Watford,,Morrison's,Retailers - supermarkets/hypermarkets,7840,0,,647066,0,,,13/00093/FOOD2,163,envhealth@watford.gov.uk,Watford,http://www.watford.gov.uk/foodhygieneratings,,WD18 8AA,2014-04-07,fhrs_5_en-GB,5,,FHRS,0
40598,25 Devon Road,Watford,Hertfordshire,,Ms A.J. Wells,Hospitals/Childcare/Caring Premises,5,,,729279,,,51.66990600000000,14/00225/FOOD2,163,envhealth@watford.gov.uk,Watford,http://www.watford.gov.uk/foodhygieneratings,-0.38822000000000,WD24 4HP,2015-01-13,fhrs_exempt_en-GB,Exempt,,FHRS,
40599,43 First Avenue,Watford,Hertfordshire,,Ms B.A. Liberty,Hospitals/Childcare/Caring Premises,5,,,729277,,,51.68497500000000,14/00221/FOOD2,163,envhealth@watford.gov.uk,Watford,http://www.watford.gov.uk/foodhygieneratings,-0.38671600000000,WD25 9PY,2015-01-13,fhrs_exempt_en-GB,Exempt,,FHRS,
40600,55 Kings Avenue,Watford,,,Ms C. Jovanoski,Hospitals/Childcare/Caring Premises,5,,,729275,,,51.65261100000000,14/00215/FOOD2,163,envhealth@watford.gov.uk,Watford,http://www.watford.gov.uk/foodhygieneratings,-0.41102400000000,WD18 7SB,2015-01-13,fhrs_exempt_en-GB,Exempt,,FHRS,
40601,6 Stanbury Avenue,Watford,,,Ms C. Reynolds,Hospitals/Childcare/Caring Premises,5,,,729276,,,51.67553500000000,14/00218/FOOD2,163,envhealth@watford.gov.uk,Watford,http://www.watford.gov.uk/foodhygieneratings,-0.42195100000000,WD17 3HW,2015-01-13,fhrs_exempt_en-GB,Exempt,,FHRS,
40602,72 Bushey Mill Crescent,Watford,Hertfordshire,,Ms L.J. Cooper,Hospitals/Childcare/Caring Premises,5,,,729278,,,51.67836100000000,14/00224/FOOD2,163,envhealth@watford.gov.uk,Watford,http://www.watford.gov.uk/foodhygieneratings,-0.39356100000000,WD24 7RD,2015-01-13,fhrs_exempt_en-GB,Exempt,,FHRS,
40603,41 Munden Grove,Watford,,,Ms T. Grehan,Hospitals/Childcare/Caring Premises,5,,,729280,,,51.67219600000000,14/00226/FOOD2,163,envhealth@watford.gov.uk,Watford,http://www.watford.gov.uk/foodhygieneratings,-0.38861700000000,WD24 7EF,2015-01-13,fhrs_exempt_en-GB,Exempt,,FHRS,
40604,2 Langley Road,Watford,,,Munchers Snack  Bar,Restaurant/Cafe/Canteen,1,10,,278638,10,,51.66442800000000,10/00067/FOOD2,163,envhealth@watford.gov.uk,Watford,http://www.watford.gov.uk/foodhygieneratings,-0.40121200000000,WD17 4PT,2014-01-13,fhrs_3_en-GB,3,,FHRS,10
40605,80 - 82 Merton Road,Watford,,,Namaste Katmandu,Restaurant/Cafe/Canteen,1,5,,691691,5,,51.65317800000000,14/00110/FOOD2,163,envhealth@watford.gov.uk,Watford,http://www.watford.gov.uk/foodhygieneratings,-0.40043700000000,WD18 0WY,2014-08-13,fhrs_5_en-GB,5,,FHRS,5
40606,129 St Albans Road,Watford,,,Nanas,Restaurant/Cafe/Canteen,1,5,,278338,10,,51.66542900000000,07/00129/FOOD2,163,envhealth@watford.gov.uk,Watford,http://www.watford.gov.uk/foodhygieneratings,-0.39941200000000,WD17 1RA,2013-10-14,fhrs_4_en-GB,4,,FHRS,5
40607,42 The Parade High Street,Watford,,,Nandos,Restaurant/Cafe/Canteen,1,0,,278351,0,,51.65732300000000,07/00162/FOOD2,163,envhealth@watford.gov.uk,Watford,http://www.watford.gov.uk/foodhygieneratings,-0.39979900000000,WD17 1AZ,2013-03-04,fhrs_5_en-GB,5,,FHRS,5
40608,Unit 4,136 High Street,Watford,,Nandos,Restaurant/Cafe/Canteen,1,5,,521774,0,,51.65360000000000,12/00183/FOOD2,163,envhealth@watford.gov.uk,Watford,http://www.watford.gov.uk/foodhygieneratings,-0.39319400000000,WD17 2EN,2014-10-16,fhrs_5_en-GB,5,,FHRS,5
40609,Nascot Lawn,92A Langley Road,Watford,,Nascot Lawn Childrens Unit,Hospitals/Childcare/Caring Premises,5,0,,278262,0,,51.66790800000000,06/00185/FOOD2,163,envhealth@watford.gov.uk,Watford,http://www.watford.gov.uk/foodhygieneratings,-0.40711900000000,WD17 4PJ,2013-10-01,fhrs_5_en-GB,5,,FHRS,0
40610,Nascot Wood Road,Watford,,,Nascot Wood Infant And Nursery School,School/college/university,7845,0,,278558,5,,51.67047200000000,09/00085/FOOD2,163,envhealth@watford.gov.uk,Watford,http://www.watford.gov.uk/foodhygieneratings,-0.40921300000000,WD17 4YT,2014-03-31,fhrs_5_en-GB,5,,FHRS,0
40611,Nascot Wood Road,Watford,,,Nascot Wood Junior School,School/college/university,7845,5,,278399,0,,51.67034100000000,07/00241/FOOD2,163,envhealth@watford.gov.uk,Watford,http://www.watford.gov.uk/foodhygieneratings,-0.41085200000000,WD17 4YS,2014-03-31,fhrs_5_en-GB,5,,FHRS,0
40612,25 The Harlequin,Watford,,,Network News,Retailers - other,4613,,,278652,,,51.65570800000000,10/00083/FOOD2,163,envhealth@watford.gov.uk,Watford,http://www.watford.gov.uk/foodhygieneratings,-0.39478200000000,WD17 2TD,2010-03-26,fhrs_exempt_en-GB,Exempt,,FHRS,
40613,64 Rickmansworth Road,Watford,,,New Hope Trust,Hospitals/Childcare/Caring Premises,5,5,,278677,5,,51.65534200000000,10/00176/FOOD2,163,envhealth@watford.gov.uk,Watford,http://www.watford.gov.uk/foodhygieneratings,-0.41217200000000,WD18 7JA,2014-06-17,fhrs_5_en-GB,5,,FHRS,5
40614,69 Queens Road,Watford,,,New Hope Trust,Hospitals/Childcare/Caring Premises,5,5,,278352,5,,51.65749300000000,07/00163/FOOD2,163,envhealth@watford.gov.uk,Watford,http://www.watford.gov.uk/foodhygieneratings,-0.39244900000000,WD17 2QN,2013-09-10,fhrs_5_en-GB,5,,FHRS,5
40615,138 Queens Road,Watford,,,New Imperial Takeaway,Takeaway/sandwich shop,7844,10,,278207,10,,51.65909300000000,06/00040/FOOD2,163,envhealth@watford.gov.uk,Watford,http://www.watford.gov.uk/foodhygieneratings,-0.39245000000000,WD17 2NX,2014-06-02,fhrs_3_en-GB,3,,FHRS,10
40616,103 - 105 Longspring,Watford,,,New Shapla Tandoori,Restaurant/Cafe/Canteen,1,10,,278247,10,,51.67822300000000,06/00143/FOOD2,163,envhealth@watford.gov.uk,Watford,http://www.watford.gov.uk/foodhygieneratings,-0.39729800000000,WD24 6PU,2014-05-13,fhrs_3_en-GB,3,,FHRS,10
40617,107 Villiers Road,Watford,,,News Bit,Retailers - other,4613,10,,278621,0,,51.64367600000000,10/00027/FOOD2,163,envhealth@watford.gov.uk,Watford,http://www.watford.gov.uk/foodhygieneratings,-0.38159200000000,WD19 4AL,2012-02-28,fhrs_4_en-GB,4,,FHRS,0
40618,401-403 St Albans Road,Watford,,,News Express (AM 2 PM),Retailers - other,4613,10,,517060,10,,51.67843400000000,08/00009/FOOD2,163,envhealth@watford.gov.uk,Watford,http://www.watford.gov.uk/foodhygieneratings,-0.39694300000000,WD24 6PT,2012-10-15,fhrs_3_en-GB,3,,FHRS,10
40619,68 Cassiobury Park Avenue,Watford,,,Newsbox,Retailers - other,4613,10,,278444,5,,51.65747900000000,08/00035/FOOD2,163,envhealth@watford.gov.uk,Watford,http://www.watford.gov.uk/foodhygieneratings,-0.41727300000000,WD18 7LE,2013-11-12,fhrs_3_en-GB,3,,FHRS,10
40620,Next Retail Ltd,UNIT A,Waterfields Retail Park,Watford,Next Retail Limited,Retailers - other,4613,,,278739,,,51.65242300000000,12/00005/FOOD2,163,envhealth@watford.gov.uk,Watford,http://www.watford.gov.uk/foodhygieneratings,-0.38992500000000,WD17 2EU,2006-03-01,fhrs_exempt_en-GB,Exempt,,FHRS,
40621,6-8 Orbital Crescent,Watford,,,Nisa Local,Retailers - other,4613,20,,278259,15,,51.68511600000000,06/00175/FOOD2,163,envhealth@watford.gov.uk,Watford,http://www.watford.gov.uk/foodhygieneratings,-0.41162200000000,WD25 0HA,2013-08-15,fhrs_1_en-GB,1,,FHRS,15
40622,127-129 Courtlands Drive,Watford,,,Nisa Supermarket,Retailers - other,4613,10,,278740,10,,51.68300900000000,12/00006/FOOD2,163,envhealth@watford.gov.uk,Watford,http://www.watford.gov.uk/foodhygieneratings,-0.41807500000000,WD24 5LL,2014-11-05,fhrs_3_en-GB,3,,FHRS,10
40623,227 St Albans Road,Watford,,,North Watford Conservative Club,Other catering premises,7841,5,,278286,5,,51.66976900000000,07/00028/FOOD2,163,envhealth@watford.gov.uk,Watford,http://www.watford.gov.uk/foodhygieneratings,-0.39784200000000,WD24 5BH,2014-09-17,fhrs_4_en-GB,4,,FHRS,10
40624,65 Chester Road,Watford,Hertfordshire,,Noshahi Food Stores Ltd,Retailers - other,4613,20,,647074,15,,51.65404500000000,14/00034/FOOD2,163,envhealth@watford.gov.uk,Watford,http://www.watford.gov.uk/foodhygieneratings,-0.40402000000000,WD18 0RG,2014-02-24,fhrs_1_en-GB,1,,FHRS,15
40625,334 - 336 St Albans Road,Watford,,,NW SUPERMARKET,Retailers - other,4613,20,,278323,15,,51.67456900000000,07/00097/FOOD2,163,envhealth@watford.gov.uk,Watford,http://www.watford.gov.uk/foodhygieneratings,-0.39640000000000,WD24 6PQ,2014-03-10,fhrs_1_en-GB,1,,FHRS,10
40626,65 Vicarage Road,Watford,,,Oasis Cash 'N' Carry,Retailers - other,4613,5,,278305,10,,51.65235400000000,07/00053/FOOD2,163,envhealth@watford.gov.uk,Watford,http://www.watford.gov.uk/foodhygieneratings,-0.40006100000000,WD18 0EJ,2012-03-13,fhrs_4_en-GB,4,,FHRS,5
40627,133 High Street,Watford,,,Ocean Bells Coffee Company,Restaurant/Cafe/Canteen,1,5,,623756,5,,51.65381300000000,13/00072/FOOD2,163,envhealth@watford.gov.uk,Watford,http://www.watford.gov.uk/foodhygieneratings,-0.39294000000000,WD17 2ER,2014-01-10,fhrs_5_en-GB,5,,FHRS,0
40628,126B Leavesden Road,Watford,,,Ocean Fish Bar,Takeaway/sandwich shop,7844,5,,278402,5,,51.67290400000000,07/00245/FOOD2,163,envhealth@watford.gov.uk,Watford,http://www.watford.gov.uk/foodhygieneratings,-0.40225800000000,WD24 5EG,2013-03-15,fhrs_4_en-GB,4,,FHRS,10
40629,127 The Parade High Street,Watford,,,Oceana Jongleurs,Pub/bar/nightclub,7843,0,,278495,0,,51.65946500000000,08/00147/FOOD2,163,envhealth@watford.gov.uk,Watford,http://www.watford.gov.uk/foodhygieneratings,-0.40124200000000,WD17 1NA,2014-07-28,fhrs_5_en-GB,5,,FHRS,0
40630,89 - 91 North Approach,Watford,,,One Stop,Retailers - other,4613,10,,278666,5,,51.69114100000000,10/00147/FOOD2,163,envhealth@watford.gov.uk,Watford,http://www.watford.gov.uk/foodhygieneratings,-0.40099400000000,WD25 0EL,2011-06-17,fhrs_4_en-GB,4,,FHRS,0
40631,189 Leavesden Road,Watford,,,Orbit Newsagents,Retailers - other,4613,5,,278794,5,,51.67331000000000,12/00078/FOOD2,163,envhealth@watford.gov.uk,Watford,http://www.watford.gov.uk/foodhygieneratings,-0.40298200000000,WD24 5EL,2008-04-22,fhrs_5_en-GB,5,,FHRS,5
40632,Orbital Community Centre,Haines Way,Watford,Hertfordshire,Orbital Pre-School,Hospitals/Childcare/Caring Premises,5,10,,647056,10,,51.69208200000000,12/00117/FOOD2,163,envhealth@watford.gov.uk,Watford,http://www.watford.gov.uk/foodhygieneratings,-0.40010700000000,WD25 7QU,2014-03-05,fhrs_3_en-GB,3,,FHRS,10
40633,24 Garston Lane,Watford,,,Orchard House Bed And Breakfast,Hotel/bed & breakfast/guest house,7842,0,,278789,0,,51.68899600000000,12/00073/FOOD2,163,envhealth@watford.gov.uk,Watford,http://www.watford.gov.uk/foodhygieneratings,-0.38551700000000,WD25 9QJ,2009-06-26,fhrs_5_en-GB,5,,FHRS,5
40634,81 The Parade High Street,Watford,,,Oxfam,Retailers - other,4613,,,278198,,,51.65842300000000,05/00099/FOOD2,163,envhealth@watford.gov.uk,Watford,http://www.watford.gov.uk/foodhygieneratings,-0.39997700000000,WD17 1LN,2006-01-16,fhrs_exempt_en-GB,Exempt,,FHRS,
40635,Lower Paddock Road,Watford,,,Oxhey Conservative Club,Restaurant/Cafe/Canteen,1,5,,278350,5,,51.64519200000000,07/00160/FOOD2,163,envhealth@watford.gov.uk,Watford,http://www.watford.gov.uk/foodhygieneratings,-0.38004900000000,WD19 4DS,2014-08-26,fhrs_5_en-GB,5,,FHRS,0
40636,Eastbury Road,Watford,,,Oxhey Early Years Centre,Hospitals/Childcare/Caring Premises,5,10,,278193,0,,51.64198600000000,05/00080/FOOD2,163,envhealth@watford.gov.uk,Watford,http://www.watford.gov.uk/foodhygieneratings,-0.39668300000000,WD19 4RL,2014-02-26,fhrs_4_en-GB,4,,FHRS,0
40637,137 The Harlequin,Watford,,,Panacea Health And Beauty,Retailers - other,4613,5,,278807,10,,51.65608900000000,12/00091/FOOD2,163,envhealth@watford.gov.uk,Watford,http://www.watford.gov.uk/foodhygieneratings,-0.39434900000000,WD17 2TL,2012-03-08,fhrs_4_en-GB,4,,FHRS,5
40638,185 The Parade High Street,Watford,,,Panda Cuisine,Takeaway/sandwich shop,7844,10,,463387,15,,51.65994800000000,12/00122/FOOD2,163,envhealth@watford.gov.uk,Watford,http://www.watford.gov.uk/foodhygieneratings,-0.40170200000000,WD17 1NJ,2014-05-07,fhrs_2_en-GB,2,,FHRS,10
40639,8 Garston Park Parade,Watford,,,Panda Inn,Takeaway/sandwich shop,7844,20,,278245,15,,51.68995000000000,06/00140/FOOD2,163,envhealth@watford.gov.uk,Watford,http://www.watford.gov.uk/foodhygieneratings,-0.38558500000000,WD25 9LQ,2013-11-28,fhrs_1_en-GB,1,,FHRS,15
40640,18 Market Street,Watford,,,Papa Johns Pizza,Takeaway/sandwich shop,7844,0,,278537,0,,51.65527300000000,09/00001/FOOD2,163,envhealth@watford.gov.uk,Watford,http://www.watford.gov.uk/foodhygieneratings,-0.39781900000000,WD18 0PD,2013-03-08,fhrs_5_en-GB,5,,FHRS,0
40641,4 Park Avenue,Watford,,,Park Lodge Residential Home,Hospitals/Childcare/Caring Premises,5,0,,278637,5,,51.65552900000000,10/00064/FOOD2,163,envhealth@watford.gov.uk,Watford,http://www.watford.gov.uk/foodhygieneratings,-0.40667100000000,WD18 7HR,2014-08-18,fhrs_5_en-GB,5,,FHRS,0
40642,14A Garston Park Parade,Watford,,,Park Pharmacy,Retailers - other,4613,10,,278790,5,,51.68995000000000,12/00074/FOOD2,163,envhealth@watford.gov.uk,Watford,http://www.watford.gov.uk/foodhygieneratings,-0.38558500000000,WD25 9LQ,2008-04-22,fhrs_4_en-GB,4,,FHRS,5
40643,118 Gammons Lane,Watford,,,Park View,Hospitals/Childcare/Caring Premises,5,,,278488,,,51.67585500000000,08/00116/FOOD2,163,envhealth@watford.gov.uk,Watford,http://www.watford.gov.uk/foodhygieneratings,-0.40501800000000,WD24 5HY,2008-06-09,fhrs_exempt_en-GB,Exempt,,FHRS,
40644,Northfield Gardens,Watford,,,Parkgate Infant And Nursery School,School/college/university,7845,0,,278453,0,,51.67848000000000,08/00047/FOOD2,163,envhealth@watford.gov.uk,Watford,http://www.watford.gov.uk/foodhygieneratings,-0.39176400000000,WD24 7RL,2014-09-15,fhrs_5_en-GB,5,,FHRS,0
40645,Southwold Road,Watford,,,Parkgate JM School,School/college/university,7845,5,,278802,0,,51.67496000000000,12/00086/FOOD2,163,envhealth@watford.gov.uk,Watford,http://www.watford.gov.uk/foodhygieneratings,-0.39346500000000,WD24 7DN,2013-06-19,fhrs_5_en-GB,5,,FHRS,0
40646,John Lewis Partners Dinning Room,52 The Harlequin,Watford,,Partners Dining Room,Restaurant/Cafe/Canteen,1,0,,278499,0,,51.65463100000000,08/00155/FOOD2,163,envhealth@watford.gov.uk,Watford,http://www.watford.gov.uk/foodhygieneratings,-0.39229000000000,WD17 2TW,2014-03-20,fhrs_5_en-GB,5,,FHRS,5
40647,99 Vicarage Road,Watford,,,Patwarls,Takeaway/sandwich shop,7844,10,,278688,5,,51.65197500000000,11/00011/FOOD2,163,envhealth@watford.gov.uk,Watford,http://www.watford.gov.uk/foodhygieneratings,-0.40060900000000,WD18 0EB,2014-03-07,fhrs_4_en-GB,4,,FHRS,5
40648,Peace Hospice,Peace Drive,Watford,,Peace Hospice,Hospitals/Childcare/Caring Premises,5,0,,278325,5,,51.65869100000000,07/00101/FOOD2,163,envhealth@watford.gov.uk,Watford,http://www.watford.gov.uk/foodhygieneratings,-0.40449300000000,WD17 3PH,2013-12-18,fhrs_5_en-GB,5,,FHRS,5
40649,10/00165/FOOD2,,,,Peace Of Cake,Restaurant/Cafe/Canteen,1,5,,278673,0,,,10/00165/FOOD2,163,envhealth@watford.gov.uk,Watford,http://www.watford.gov.uk/foodhygieneratings,,,2011-06-29,fhrs_5_en-GB,5,,FHRS,0
40650,146 High Street,Watford,,,Pepe Rosso,Restaurant/Cafe/Canteen,1,20,,278665,10,,51.65360000000000,10/00145/FOOD2,163,envhealth@watford.gov.uk,Watford,http://www.watford.gov.uk/foodhygieneratings,-0.39319400000000,WD17 2EN,2014-03-18,fhrs_1_en-GB,1,,FHRS,10
40651,81 Whippendell Road,Watford,,,Pepe's Piri Piri,Restaurant/Cafe/Canteen,1,0,,278386,5,,51.65468700000000,07/00213/FOOD2,163,envhealth@watford.gov.uk,Watford,http://www.watford.gov.uk/foodhygieneratings,-0.40427200000000,WD18 7LY,2014-09-24,fhrs_5_en-GB,5,,FHRS,5
40652,Peri Peri Grill And Restaurant,144 High Street,Watford,,Peri Peri,Restaurant/Cafe/Canteen,1,5,,669856,10,,51.65365500000000,14/00048/FOOD2,163,envhealth@watford.gov.uk,Watford,http://www.watford.gov.uk/foodhygieneratings,-0.39322100000000,WD17 2EN,2014-05-28,fhrs_3_en-GB,3,,FHRS,10
40653,203 St Albans Road,Watford,,,Peri Peri Original,Takeaway/sandwich shop,7844,10,,278629,5,,51.66976900000000,10/00046/FOOD2,163,envhealth@watford.gov.uk,Watford,http://www.watford.gov.uk/foodhygieneratings,-0.39784200000000,WD24 5BH,2013-11-13,fhrs_3_en-GB,3,,FHRS,10
40654,Phoenix House,45 Langley Way,Watford,,Phoenix House Take Away,Takeaway/sandwich shop,7844,10,,278244,5,,51.66729900000000,06/00137/FOOD2,163,envhealth@watford.gov.uk,Watford,http://www.watford.gov.uk/foodhygieneratings,-0.41730600000000,WD17 3EA,2014-02-18,fhrs_4_en-GB,4,,FHRS,5
40655,Cherry Tree Primary School,Berry Avenue,Watford,Hertfordshire,Pickles Pre-School,Hospitals/Childcare/Caring Premises,5,,,631405,,,51.68159800000000,14/00002/FOOD2,163,envhealth@watford.gov.uk,Watford,http://www.watford.gov.uk/foodhygieneratings,-0.40412200000000,WD24 6ST,2014-02-03,fhrs_exempt_en-GB,Exempt,,FHRS,
40656,137-139 High Street,Watford,,,Pizza Express,Restaurant/Cafe/Canteen,1,0,,278432,0,,51.65385900000000,08/00011/FOOD2,163,envhealth@watford.gov.uk,Watford,http://www.watford.gov.uk/foodhygieneratings,-0.39301100000000,WD17 2ER,2014-03-07,fhrs_5_en-GB,5,,FHRS,5
40657,28 Vicarage Road,Watford,,,Pizza Hot Express,Takeaway/sandwich shop,7844,10,,278659,5,,51.65212400000000,10/00112/FOOD2,163,envhealth@watford.gov.uk,Watford,http://www.watford.gov.uk/foodhygieneratings,-0.39963500000000,WD18 0EH,2013-12-03,fhrs_4_en-GB,4,,FHRS,5
40658,Steak House,195 St Albans Road,Watford,,Pizza Hunt,Takeaway/sandwich shop,7844,20,,693795,10,,51.66976900000000,14/00131/FOOD2,163,envhealth@watford.gov.uk,Watford,http://www.watford.gov.uk/foodhygieneratings,-0.39784200000000,WD24 5BH,2014-07-17,fhrs_1_en-GB,1,,FHRS,15
40659,474 St Albans Road,Watford,,,Pizza Hut,Restaurant/Cafe/Canteen,1,0,,278447,5,,51.67909200000000,08/00040/FOOD2,163,envhealth@watford.gov.uk,Watford,http://www.watford.gov.uk/foodhygieneratings,-0.39577800000000,WD24 6QU,2014-03-04,fhrs_5_en-GB,5,,FHRS,5
40660,North Western Avenue,Watford,,,Pizza Hut,Restaurant/Cafe/Canteen,1,0,,278223,5,,51.68134100000000,06/00100/FOOD2,163,envhealth@watford.gov.uk,Watford,http://www.watford.gov.uk/foodhygieneratings,-0.38798800000000,WD25 9JS,2014-02-18,fhrs_5_en-GB,5,,FHRS,5
40661,81 Chalk Hill,Watford,,,Plaice 4 Taste,Takeaway/sandwich shop,7844,10,,278190,10,,51.64626700000000,05/00039/FOOD2,163,envhealth@watford.gov.uk,Watford,http://www.watford.gov.uk/foodhygieneratings,-0.37972200000000,WD19 4DA,2014-03-17,fhrs_3_en-GB,3,,FHRS,10
40662,162C High Street,Watford,,,Polski Sklep Nieus Ltd,Retailers - other,4613,20,,278669,10,,51.65318700000000,10/00154/FOOD2,163,envhealth@watford.gov.uk,Watford,http://www.watford.gov.uk/foodhygieneratings,-0.39254300000000,WD17 2EG,2014-01-10,fhrs_1_en-GB,1,,FHRS,10
40663,56 The Harlequin,Watford,,,Ponti's Retail Ltd,Restaurant/Cafe/Canteen,1,10,,278644,15,,51.65506700000000,10/00073/FOOD2,163,envhealth@watford.gov.uk,Watford,http://www.watford.gov.uk/foodhygieneratings,-0.39259300000000,WD17 2TF,2014-12-11,fhrs_2_en-GB,2,,FHRS,15
40664,21 - 22 Charter Place,Watford,,,Popiandy's,Restaurant/Cafe/Canteen,1,10,,278547,5,,51.65634900000000,09/00021/FOOD2,163,envhealth@watford.gov.uk,Watford,http://www.watford.gov.uk/foodhygieneratings,-0.39627700000000,WD17 2RS,2014-02-25,fhrs_4_en-GB,4,,FHRS,5
40665,Goodwood Parade Post Office,139 Courtlands Drive,Watford,,Post Office Counters Ltd,Retailers - other,4613,5,,278736,5,,51.68300900000000,12/00002/FOOD2,163,envhealth@watford.gov.uk,Watford,http://www.watford.gov.uk/foodhygieneratings,-0.41807500000000,WD24 5LL,2005-08-23,fhrs_5_en-GB,5,,FHRS,5
40666,33 - 35 High Street,Watford,,,Poundland,Retailers - other,4613,0,,278710,0,,51.65626700000000,11/00097/FOOD2,163,envhealth@watford.gov.uk,Watford,http://www.watford.gov.uk/foodhygieneratings,-0.39684400000000,WD17 2DJ,2014-02-24,fhrs_5_en-GB,5,,FHRS,0
40667,150 Whippendell Road,Watford,,,Prajco,Retailers - other,4613,20,,278607,5,,51.65315000000000,09/00295/FOOD2,163,envhealth@watford.gov.uk,Watford,http://www.watford.gov.uk/foodhygieneratings,-0.40762200000000,WD18 7NB,2013-12-13,fhrs_1_en-GB,1,,FHRS,5
40668,38 Lammas Road,Watford,Hertfordshire,,Premier Food And Wine Express,Retailers - other,4613,20,,278793,15,,51.64908900000000,12/00077/FOOD2,163,envhealth@watford.gov.uk,Watford,http://www.watford.gov.uk/foodhygieneratings,-0.39339700000000,WD18 0BA,2014-01-20,fhrs_1_en-GB,1,,FHRS,15
40669,69 Water Lane,Watford,Hertfordshire,,Premier Inn,Hotel/bed & breakfast/guest house,7842,0,,278360,0,,51.65390000000000,07/00176/FOOD2,163,envhealth@watford.gov.uk,Watford,http://www.watford.gov.uk/foodhygieneratings,-0.38945300000000,WD17 2NJ,2014-11-25,fhrs_5_en-GB,5,,FHRS,5
40670,14 Woodford Road,Watford,,,Premier News,Retailers - other,4613,10,,278343,10,,51.66214100000000,07/00151/FOOD2,163,envhealth@watford.gov.uk,Watford,http://www.watford.gov.uk/foodhygieneratings,-0.39506000000000,WD17 1PA,2014-01-24,fhrs_3_en-GB,3,,FHRS,10
40671,175 St Albans Road,Watford,,,Premier Pizza,Takeaway/sandwich shop,7844,5,,278294,5,,51.66830800000000,07/00037/FOOD2,163,envhealth@watford.gov.uk,Watford,http://www.watford.gov.uk/foodhygieneratings,-0.39821200000000,WD24 5BD,2014-01-28,fhrs_5_en-GB,5,,FHRS,5
40672,19-21 The Parade High Street,Watford,,,Presence Retail Ltd,Restaurant/Cafe/Canteen,1,5,,278214,0,,51.65716800000000,06/00072/FOOD2,163,envhealth@watford.gov.uk,Watford,http://www.watford.gov.uk/foodhygieneratings,-0.39828700000000,WD17 1LQ,2013-12-17,fhrs_4_en-GB,4,,FHRS,10
40673,Holywell Community Centre,Tolpits Lane,Watford,,Pre-steps C.I.C.,Hospitals/Childcare/Caring Premises,5,,,278668,,,51.64230600000000,10/00152/FOOD2,163,envhealth@watford.gov.uk,Watford,http://www.watford.gov.uk/foodhygieneratings,-0.41898600000000,WD18 9QD,2011-07-18,fhrs_exempt_en-GB,Exempt,,FHRS,
40674,1 The Parade High Street,Watford,,,Pret A Manger,Restaurant/Cafe/Canteen,1,0,,278698,0,,51.65716800000000,11/00062/FOOD2,163,envhealth@watford.gov.uk,Watford,http://www.watford.gov.uk/foodhygieneratings,-0.39828700000000,WD17 1LQ,2011-06-24,fhrs_5_en-GB,5,,FHRS,0
40675,109-111 High Street,Watford,,,Primark,Retailers - other,4613,,,278724,,,51.65486200000000,11/00158/FOOD2,163,envhealth@watford.gov.uk,Watford,http://www.watford.gov.uk/foodhygieneratings,-0.39468200000000,WD17 2DQ,2011-07-15,fhrs_exempt_en-GB,Exempt,,FHRS,
40676,Residential Care Home,29 - 33 Essex Road,Watford,,Primrose Lodge,Hospitals/Childcare/Caring Premises,5,10,,278591,5,,51.66221200000000,09/00216/FOOD2,163,envhealth@watford.gov.uk,Watford,http://www.watford.gov.uk/foodhygieneratings,-0.40290900000000,WD17 4EL,2014-09-09,fhrs_4_en-GB,4,,FHRS,0
40677,Stratford Road,Watford,,,Prince Michael Of Kent Court,Hospitals/Childcare/Caring Premises,5,0,,278601,5,,51.66677600000000,09/00255/FOOD2,163,envhealth@watford.gov.uk,Watford,http://www.watford.gov.uk/foodhygieneratings,-0.40525000000000,WD17 4DH,2014-01-22,fhrs_5_en-GB,5,,FHRS,0
40678,51 Langley Way,Watford,,,Prince Of Bengal,Takeaway/sandwich shop,7844,5,,278306,10,,51.66729900000000,07/00058/FOOD2,163,envhealth@watford.gov.uk,Watford,http://www.watford.gov.uk/foodhygieneratings,-0.41730600000000,WD17 3EA,2014-02-18,fhrs_4_en-GB,4,,FHRS,5
40679,Watford Junction Station,Station Road,Watford,,Puccinos,Retailers - other,4613,10,,278243,5,,51.66378100000000,06/00136/FOOD2,163,envhealth@watford.gov.uk,Watford,http://www.watford.gov.uk/foodhygieneratings,-0.39660800000000,WD17 1EU,2013-11-12,fhrs_2_en-GB,2,,FHRS,15
40680,506 Whippendell Road,Watford,,,Puckatucka,Takeaway/sandwich shop,7844,0,,278493,0,,51.65174000000000,08/00137/FOOD2,163,envhealth@watford.gov.uk,Watford,http://www.watford.gov.uk/foodhygieneratings,-0.42179500000000,WD18 7QJ,2014-02-13,fhrs_5_en-GB,5,,FHRS,0
40681,Local Board Road,Watford,,,Pump House,Other catering premises,7841,5,,278769,0,,51.65036900000000,12/00042/FOOD2,163,envhealth@watford.gov.uk,Watford,http://www.watford.gov.uk/foodhygieneratings,-0.38898600000000,WD17 2JP,2009-07-28,fhrs_4_en-GB,4,,FHRS,10
40682,141 Leavesden Road,Watford,,,Quality Tandoori,Takeaway/sandwich shop,7844,5,,278414,5,,51.67191900000000,07/00264/FOOD2,163,envhealth@watford.gov.uk,Watford,http://www.watford.gov.uk/foodhygieneratings,-0.40188800000000,WD24 5EP,2014-09-10,fhrs_5_en-GB,5,,FHRS,5
40683,58 High Street,Watford,,,Que Pasa,Pub/bar/nightclub,7843,0,,278289,5,,51.65602200000000,07/00032/FOOD2,163,envhealth@watford.gov.uk,Watford,http://www.watford.gov.uk/foodhygieneratings,-0.39734400000000,WD17 2BS,2013-08-14,fhrs_5_en-GB,5,,FHRS,5
40684,78 Queens Road,Watford,,,Queen's Food And Wine,Retailers - other,4613,10,,278713,10,,51.65750100000000,11/00119/FOOD2,163,envhealth@watford.gov.uk,Watford,http://www.watford.gov.uk/foodhygieneratings,-0.39301200000000,WD17 2LA,2013-09-20,fhrs_2_en-GB,2,,FHRS,15
40685,207 Queens Road,Watford,,,Queens Road Mini Mart,Retailers - other,4613,10,,278543,10,,51.66095800000000,09/00015/FOOD2,163,envhealth@watford.gov.uk,Watford,http://www.watford.gov.uk/foodhygieneratings,-0.39332400000000,WD17 2QH,2013-11-29,fhrs_3_en-GB,3,,FHRS,10
40686,4 Clarendon Road,Watford,,,Quick Shop,Retailers - other,4613,10,,278611,10,,51.66740800000000,10/00001/FOOD2,163,envhealth@watford.gov.uk,Watford,http://www.watford.gov.uk/foodhygieneratings,-0.41063100000000,WD17 1DZ,2013-11-13,fhrs_2_en-GB,2,,FHRS,15
40687,251 St Albans Road,Watford,,,R H Newsagents,Retailers - other,4613,,,278685,,,51.67105200000000,11/00003/FOOD2,163,envhealth@watford.gov.uk,Watford,http://www.watford.gov.uk/foodhygieneratings,-0.39700200000000,WD24 5BQ,2013-10-14,fhrs_exempt_en-GB,Exempt,,FHRS,
40688,167-169 The Parade High Street,Watford,,,Rabbani's (British Indian Cuisine),Restaurant/Cafe/Canteen,1,20,,278604,15,,51.65994800000000,09/00274/FOOD2,163,envhealth@watford.gov.uk,Watford,http://www.watford.gov.uk/foodhygieneratings,-0.40170200000000,WD17 1NJ,2014-09-16,fhrs_1_en-GB,1,,FHRS,15
40689,83 The Parade High Street,Watford,,,Rehab,Pub/bar/nightclub,7843,5,,278590,10,,51.65842300000000,09/00212/FOOD2,163,envhealth@watford.gov.uk,Watford,http://www.watford.gov.uk/foodhygieneratings,-0.39997700000000,WD17 1LN,2009-11-10,fhrs_4_en-GB,4,,FHRS,5
40690,48-50 High Street,Watford,,,Revolution Watford,Restaurant/Cafe/Canteen,1,0,,278532,5,,51.65602200000000,08/00256/FOOD2,163,envhealth@watford.gov.uk,Watford,http://www.watford.gov.uk/foodhygieneratings,-0.39734400000000,WD17 2BS,2014-03-17,fhrs_5_en-GB,5,,FHRS,5
40691,168 Cassiobury Drive,Watford,,,Rhubarb Cafe,Restaurant/Cafe/Canteen,1,5,,278662,5,,51.66617400000000,10/00125/FOOD2,163,envhealth@watford.gov.uk,Watford,http://www.watford.gov.uk/foodhygieneratings,-0.41653600000000,WD17 3AJ,2014-07-10,fhrs_5_en-GB,5,,FHRS,0
40692,1 Pinner Road,Watford,,,Rich Wines,Retailers - other,4613,5,,278798,5,,51.64436800000000,12/00082/FOOD2,163,envhealth@watford.gov.uk,Watford,http://www.watford.gov.uk/foodhygieneratings,-0.38351900000000,WD19 4EF,2009-11-30,fhrs_5_en-GB,5,,FHRS,5
40693,73 Rickmansworth Road,Watford,,,Rickmansworth Road Guest House,Hotel/bed & breakfast/guest house,7842,10,,352098,5,,51.65596200000000,12/00053/FOOD2,163,envhealth@watford.gov.uk,Watford,http://www.watford.gov.uk/foodhygieneratings,-0.40947500000000,WD18 7ED,2012-05-01,fhrs_4_en-GB,4,,FHRS,5
40694,Pinner Road,Watford,,,Ricky's Cafe,Takeaway/sandwich shop,7844,10,,278263,10,,51.64549900000000,06/00186/FOOD2,163,envhealth@watford.gov.uk,Watford,http://www.watford.gov.uk/foodhygieneratings,-0.38404200000000,WD19 4EA,2014-01-16,fhrs_3_en-GB,3,,FHRS,10
40695,The Rifle Volunteer,Villiers Road,Watford,,Rifle Volunteer,Restaurant/Cafe/Canteen,1,0,,278573,5,,51.64557100000000,09/00159/FOOD2,163,envhealth@watford.gov.uk,Watford,http://www.watford.gov.uk/foodhygieneratings,-0.38140900000000,WD19 4AG,2013-03-25,fhrs_5_en-GB,5,,FHRS,5
40696,65-73 The Parade High Street,Watford,,,Rileys 147 Snooker Club,Restaurant/Cafe/Canteen,1,5,,278365,10,,51.65787300000000,07/00182/FOOD2,163,envhealth@watford.gov.uk,Watford,http://www.watford.gov.uk/foodhygieneratings,-0.39924500000000,WD17 1LJ,2013-12-06,fhrs_4_en-GB,4,,FHRS,5
40697,The Rising Sun,2 Ascot Road,Watford,,"Rising Sun, Brewers Fayre",Restaurant/Cafe/Canteen,1,0,,278185,0,,51.65151000000000,05/00016/FOOD2,163,envhealth@watford.gov.uk,Watford,http://www.watford.gov.uk/foodhygieneratings,-0.42407200000000,WD18 8AP,2014-03-12,fhrs_5_en-GB,5,,FHRS,0
40698,1A St Johns Road,Watford,,,Rodells,Restaurant/Cafe/Canteen,1,5,,278300,5,,51.66109900000000,07/00048/FOOD2,163,envhealth@watford.gov.uk,Watford,http://www.watford.gov.uk/foodhygieneratings,-0.39508300000000,WD17 1PU,2012-03-27,fhrs_5_en-GB,5,,FHRS,5
40699,38 High Street,Watford,,,Roosters Piri Piri,Takeaway/sandwich shop,7844,,,278416,,,51.65602200000000,07/00266/FOOD2,163,envhealth@watford.gov.uk,Watford,http://www.watford.gov.uk/foodhygieneratings,-0.39734400000000,WD17 2BS,2014-03-07,fhrs_5_en-GB,5,,FHRS,
40700,83 Chalk Hill,Watford,,,Rose Grocers Ltd,Retailers - other,4613,5,,278768,5,,51.64626700000000,12/00041/FOOD2,163,envhealth@watford.gov.uk,Watford,http://www.watford.gov.uk/foodhygieneratings,-0.37972200000000,WD19 4DA,2009-11-30,fhrs_5_en-GB,5,,FHRS,5
40701,94 - 96 St Albans Road,Watford,,,Rosica Kachova,Mobile caterer,7846,5,,693792,5,,51.66638000000000,13/00045/FOOD2,163,envhealth@watford.gov.uk,Watford,http://www.watford.gov.uk/foodhygieneratings,-0.39728200000000,WD24 4BA,2014-05-12,fhrs_5_en-GB,5,,FHRS,5
40702,6-8 Rosslyn Road,Watford,,,Rosslyn Court,Hospitals/Childcare/Caring Premises,5,0,,278415,0,,51.65780100000000,07/00265/FOOD2,163,envhealth@watford.gov.uk,Watford,http://www.watford.gov.uk/foodhygieneratings,-0.40251500000000,WD18 0JY,2014-02-11,fhrs_5_en-GB,5,,FHRS,5
40703,188 Queens Road,Watford,,,S &  P Food Store,Retailers - other,4613,10,,278541,15,,51.66083700000000,09/00013/FOOD2,163,envhealth@watford.gov.uk,Watford,http://www.watford.gov.uk/foodhygieneratings,-0.39369000000000,WD17 2NT,2014-03-25,fhrs_2_en-GB,2,,FHRS,15
40704,113 Courtlands Drive,Watford,,,Saffron,Restaurant/Cafe/Canteen,1,10,,278217,10,,51.68237000000000,06/00080/FOOD2,163,envhealth@watford.gov.uk,Watford,http://www.watford.gov.uk/foodhygieneratings,-0.41870500000000,WD17 4HZ,2014-06-10,fhrs_3_en-GB,3,,FHRS,10
40705,North Western Avenue,Watford,,,Sainsbury Staff Restaurant,Restaurant/Cafe/Canteen,1,0,,278613,0,,51.68134100000000,10/00005/FOOD2,163,envhealth@watford.gov.uk,Watford,http://www.watford.gov.uk/foodhygieneratings,-0.38798800000000,WD25 9JS,2013-05-23,fhrs_5_en-GB,5,,FHRS,5
40706,J Sainsbury Plc,North Western Avenue,Watford,,Sainsburys,Retailers - supermarkets/hypermarkets,7840,0,,278643,0,,51.68134100000000,10/00072/FOOD2,163,envhealth@watford.gov.uk,Watford,http://www.watford.gov.uk/foodhygieneratings,-0.38798800000000,WD25 9JS,2014-10-29,fhrs_5_en-GB,5,,FHRS,5
40707,North Western Avenue,Watford,,,Sainsbury's Cafe,Restaurant/Cafe/Canteen,1,0,,278327,0,,51.68134100000000,07/00105/FOOD2,163,envhealth@watford.gov.uk,Watford,http://www.watford.gov.uk/foodhygieneratings,-0.38798800000000,WD25 9JS,2013-05-23,fhrs_5_en-GB,5,,FHRS,5
40708,J Sainsbury Plc,North Western Avenue,Watford,,Sainsbury's Local Petrol Station,Retailers - other,4613,0,,278526,5,,51.68134100000000,08/00215/FOOD2,163,envhealth@watford.gov.uk,Watford,http://www.watford.gov.uk/foodhygieneratings,-0.38798800000000,WD25 9JS,2009-01-19,fhrs_5_en-GB,5,,FHRS,5
40709,40 Diamond Road,Watford,Hertfordshire,,Samantha's Cakes,Other catering premises,7841,5,,637360,0,,51.67237700000000,13/00016/FOOD2,163,envhealth@watford.gov.uk,Watford,http://www.watford.gov.uk/foodhygieneratings,-0.40381000000000,WD24 5EW,2014-03-24,fhrs_5_en-GB,5,,FHRS,0
40710,172 St Albans Road,Watford,,,Sam's Chicken,Restaurant/Cafe/Canteen,1,10,,278514,5,,51.67001100000000,08/00178/FOOD2,163,envhealth@watford.gov.uk,Watford,http://www.watford.gov.uk/foodhygieneratings,-0.39712500000000,WD24 4AS,2013-01-28,fhrs_4_en-GB,4,,FHRS,0
40711,176 Bushey Mill Lane,Watford,,,Seaworld Fish And Chips,Takeaway/sandwich shop,7844,0,,278445,5,,51.67421200000000,08/00036/FOOD2,163,envhealth@watford.gov.uk,Watford,http://www.watford.gov.uk/foodhygieneratings,-0.38738800000000,WD24 7PB,2013-12-05,fhrs_5_en-GB,5,,FHRS,5
40712,Intu Watford,135 High Street,Watford,,Shakeaway,Restaurant/Cafe/Canteen,1,5,,669855,5,,51.65381300000000,14/00027/FOOD2,163,envhealth@watford.gov.uk,Watford,http://www.watford.gov.uk/foodhygieneratings,-0.39294000000000,WD17 2ER,2014-05-20,fhrs_5_en-GB,5,,FHRS,5
40713,Sheepcot Service Station,North Orbital Road,Watford,,Sheepcot Service Station,Retailers - other,4613,0,,278219,0,,51.69199900000000,06/00089/FOOD2,163,envhealth@watford.gov.uk,Watford,http://www.watford.gov.uk/foodhygieneratings,-0.39802700000000,WD25 7LW,2009-06-24,fhrs_5_en-GB,5,,FHRS,0
40714,Leavesden Green Community Centre,Clarke Way,Watford,Hertfordshire,Sheila's Meals,Restaurant/Cafe/Canteen,1,5,,689061,0,,51.84004974365230,14/00120/FOOD2,163,envhealth@watford.gov.uk,Watford,http://www.watford.gov.uk/foodhygieneratings,-0.27510499954224,WD25 0BW,2014-07-30,fhrs_5_en-GB,5,,FHRS,0
40715,12 Rosslyn Road,Watford,,,Silver Springs,Hospitals/Childcare/Caring Premises,5,10,,278270,5,,51.65780100000000,06380/0012/0/000,163,envhealth@watford.gov.uk,Watford,http://www.watford.gov.uk/foodhygieneratings,-0.40251500000000,WD18 0JY,2014-01-15,fhrs_4_en-GB,4,,FHRS,5
40716,183 St Albans Road,Watford,,,Slow Boat,Takeaway/sandwich shop,7844,10,,278735,10,,51.66830800000000,12/00001/FOOD2,163,envhealth@watford.gov.uk,Watford,http://www.watford.gov.uk/foodhygieneratings,-0.39821200000000,WD24 5BD,2014-08-21,fhrs_2_en-GB,2,,FHRS,15
40717,Small World Nursery,22 Tolpits Lane,Watford,,Small World Community Nursery,Hospitals/Childcare/Caring Premises,5,0,,278428,5,,51.64657600000000,08/00005/FOOD2,163,envhealth@watford.gov.uk,Watford,http://www.watford.gov.uk/foodhygieneratings,-0.41693000000000,WD18 6AA,2013-09-10,fhrs_5_en-GB,5,,FHRS,5
40718,68 Euston Avenue,Watford,Hertfordshire,,Smit Newsagents,Retailers - other,4613,10,,278619,5,,51.64994300000000,10/00025/FOOD2,163,envhealth@watford.gov.uk,Watford,http://www.watford.gov.uk/foodhygieneratings,-0.41321300000000,WD18 7SY,2014-01-14,fhrs_2_en-GB,2,,FHRS,15
40719,7 Greycaine Road,Watford,,,Soul Survivor Watford Church,Other catering premises,7841,10,,278330,15,,51.67658700000000,07/00108/FOOD2,163,envhealth@watford.gov.uk,Watford,http://www.watford.gov.uk/foodhygieneratings,-0.38749200000000,WD24 7GP,2014-11-04,fhrs_2_en-GB,2,,FHRS,0
40720,41-43 Langley Road,Watford,,,Southern Cross,Restaurant/Cafe/Canteen,1,0,,278588,5,,51.66457000000000,09/00207/FOOD2,163,envhealth@watford.gov.uk,Watford,http://www.watford.gov.uk/foodhygieneratings,-0.40434400000000,WD17 4PP,2014-02-18,fhrs_4_en-GB,4,,FHRS,10
40721,55 Queens Road,Watford,,,Spar,Retailers - other,4613,5,,278658,10,,51.65749300000000,10/00102/FOOD2,163,envhealth@watford.gov.uk,Watford,http://www.watford.gov.uk/foodhygieneratings,-0.39244900000000,WD17 2QN,2011-03-26,fhrs_4_en-GB,4,,FHRS,5
40722,2 Seymour Grove,Watford,,,Spice Experience,Restaurant/Cafe/Canteen,1,5,,669860,5,,51.64213500000000,14/00091/FOOD2,163,envhealth@watford.gov.uk,Watford,http://www.watford.gov.uk/foodhygieneratings,-0.39316500000000,WD19 4FF,2014-06-03,fhrs_5_en-GB,5,,FHRS,5
40723,36 Market Street,Watford,,,Spice Lounge,Restaurant/Cafe/Canteen,1,10,,528436,15,,51.65444400000000,12/00112/FOOD2,163,envhealth@watford.gov.uk,Watford,http://www.watford.gov.uk/foodhygieneratings,-0.39962600000000,WD18 0PY,2014-07-22,fhrs_2_en-GB,2,,FHRS,10
40724,Baptist Church,St James Road,Watford,,St James's Road Church Pre-School,Hospitals/Childcare/Caring Premises,5,5,,637379,5,,51.65144100000000,14/00054/FOOD2,163,envhealth@watford.gov.uk,Watford,http://www.watford.gov.uk/foodhygieneratings,-0.39898000000000,WD18 0DZ,2014-03-17,fhrs_5_en-GB,5,,FHRS,0
40725,Langley Way,Watford,,,St Lukes Church,Other catering premises,7841,0,,278565,5,,51.66787200000000,09/00134/FOOD2,163,envhealth@watford.gov.uk,Watford,http://www.watford.gov.uk/foodhygieneratings,-0.41712700000000,WD17 3EG,2013-07-05,fhrs_5_en-GB,5,,FHRS,0
40726,Croxley View,Watford,Hertfordshire,,St. Anthonys RC Primary School,School/college/university,7845,0,,631407,0,,51.64777900000000,14/00009/FOOD2,163,envhealth@watford.gov.uk,Watford,http://www.watford.gov.uk/foodhygieneratings,-0.42011100000000,WD18 6BW,2012-12-14,fhrs_5_en-GB,5,,FHRS,0
40727,3 Mildred Avenue,Watford,,,St. Anthonys Residential Home,Hospitals/Childcare/Caring Premises,5,0,,278266,5,,51.65538600000000,06/00192/FOOD2,163,envhealth@watford.gov.uk,Watford,http://www.watford.gov.uk/foodhygieneratings,-0.40809300000000,WD18 7DY,2014-01-15,fhrs_5_en-GB,5,,FHRS,5
40728,St Marys Church,Church Street,Watford,,St. Mary's Pre-School,School/college/university,7845,5,,278367,5,,51.65457300000000,07/00184/FOOD2,163,envhealth@watford.gov.uk,Watford,http://www.watford.gov.uk/foodhygieneratings,-0.39593500000000,WD18 0EG,2014-01-14,fhrs_5_en-GB,5,,FHRS,5
40729,13 Louvain Way,Watford,,,St. Peter's Home,Hospitals/Childcare/Caring Premises,5,5,,278544,5,,51.69915700000000,09/00016/FOOD2,163,envhealth@watford.gov.uk,Watford,http://www.watford.gov.uk/foodhygieneratings,-0.39936600000000,WD25 7EH,2013-10-21,fhrs_5_en-GB,5,,FHRS,5
40730,Appletree Walk,Watford,,,Stanborough Primary School And Nursery,School/college/university,7845,5,,278772,5,,51.68728500000000,12/00048/FOOD2,163,envhealth@watford.gov.uk,Watford,http://www.watford.gov.uk/foodhygieneratings,-0.39391100000000,WD25 0DQ,2013-09-11,fhrs_5_en-GB,5,,FHRS,5
40731,Stanborough School,Stanborough Park,Watford,,Stanborough Secondary School,School/college/university,7845,5,,278395,5,,51.68595500000000,07/00236/FOOD2,163,envhealth@watford.gov.uk,Watford,http://www.watford.gov.uk/foodhygieneratings,-0.39656200000000,WD25 9JT,2014-06-10,fhrs_5_en-GB,5,,FHRS,5
40732,12 The Harlequin,Watford,,,Starbucks,Restaurant/Cafe/Canteen,1,0,,278184,0,,51.65472700000000,05/00008/FOOD2,163,envhealth@watford.gov.uk,Watford,http://www.watford.gov.uk/foodhygieneratings,-0.39335600000000,WD17 2TB,2009-12-01,fhrs_5_en-GB,5,,FHRS,0
40733,Bushey & Oxhey Railway Station,Pinner Road,Watford,,Station Express,Retailers - other,4613,10,,278694,10,,51.64549900000000,11/00037/FOOD2,163,envhealth@watford.gov.uk,Watford,http://www.watford.gov.uk/foodhygieneratings,-0.38404200000000,WD19 4EA,2014-01-21,fhrs_2_en-GB,2,,FHRS,15
40734,195 St Albans Road,Watford,,,Steakhouse,Restaurant/Cafe/Canteen,1,10,,278708,10,,51.66976900000000,11/00093/FOOD2,163,envhealth@watford.gov.uk,Watford,http://www.watford.gov.uk/foodhygieneratings,-0.39784200000000,WD24 5BH,2014-07-17,fhrs_1_en-GB,1,,FHRS,20
40735,100 Queens Avenue,Watford,,,Stop And Shop,Retailers - other,4613,,,278799,,,51.65159200000000,12/00083/FOOD2,163,envhealth@watford.gov.uk,Watford,http://www.watford.gov.uk/foodhygieneratings,-0.41210000000000,WD18 7NS,2010-02-03,fhrs_exempt_en-GB,Exempt,,FHRS,
40736,11 King Street,Watford,,,Subway,Takeaway/sandwich shop,7844,0,,278221,0,,51.65346700000000,06/00098/FOOD2,163,envhealth@watford.gov.uk,Watford,http://www.watford.gov.uk/foodhygieneratings,-0.39458600000000,WD18 0BW,2013-10-02,fhrs_5_en-GB,5,,FHRS,0
40737,47 The Parade High Street,Watford,,,Subway,Restaurant/Cafe/Canteen,1,20,,278228,15,,51.65787300000000,06/00108/FOOD2,163,envhealth@watford.gov.uk,Watford,http://www.watford.gov.uk/foodhygieneratings,-0.39924500000000,WD17 1LJ,2014-01-16,fhrs_1_en-GB,1,,FHRS,10
40738,Sugar And Spice,1 Hagden Lane,Watford,,Sugar And Spice Mini Market,Retailers - other,4613,,,278479,,,51.64876200000000,08/00102/FOOD2,163,envhealth@watford.gov.uk,Watford,http://www.watford.gov.uk/foodhygieneratings,-0.40764600000000,WD18 0HQ,2014-04-08,fhrs_5_en-GB,5,,FHRS,
40739,Bellmount Wood Avenue,Watford,Hertfordshire,,Sun Postal Sports & Social Club,Pub/bar/nightclub,7843,5,,278489,5,,51.66659500000000,08/00126/FOOD2,163,envhealth@watford.gov.uk,Watford,http://www.watford.gov.uk/foodhygieneratings,-0.42114800000000,WD17 3BN,2014-05-12,fhrs_5_en-GB,5,,FHRS,5
40740,153 The Harlequin,Watford,,,Superdrug,Retailers - other,4613,0,,278656,0,,51.65522900000000,10/00099/FOOD2,163,envhealth@watford.gov.uk,Watford,http://www.watford.gov.uk/foodhygieneratings,-0.39260100000000,WD17 2TN,2012-09-06,fhrs_5_en-GB,5,,FHRS,5
40741,22-24 The Parade High Street,Watford,,,Superdrug,Retailers - other,4613,0,,278757,5,,51.65689500000000,12/00029/FOOD2,163,envhealth@watford.gov.uk,Watford,http://www.watford.gov.uk/foodhygieneratings,-0.39868700000000,WD17 1AA,2009-12-01,fhrs_5_en-GB,5,,FHRS,5
40742,146A High Street,Watford,,,Sweetimes,Retailers - other,4613,,,278620,,,51.65360000000000,10/00026/FOOD2,163,envhealth@watford.gov.uk,Watford,http://www.watford.gov.uk/foodhygieneratings,-0.39319400000000,WD17 2EN,2010-01-21,fhrs_exempt_en-GB,Exempt,,FHRS,
40743,Pinner Road,Watford,,,Table Hall Nursery,Hospitals/Childcare/Caring Premises,5,5,,278440,5,,51.64293300000000,08/00026/FOOD2,163,envhealth@watford.gov.uk,Watford,http://www.watford.gov.uk/foodhygieneratings,-0.38248600000000,WD19 4EH,2013-11-13,fhrs_5_en-GB,5,,FHRS,0
40744,44 Market Street,Watford,,,Tapestry Cakes,Other catering premises,7841,0,,278546,5,,51.65444400000000,09/00020/FOOD2,163,envhealth@watford.gov.uk,Watford,http://www.watford.gov.uk/foodhygieneratings,-0.39962600000000,WD18 0PY,2012-02-09,fhrs_5_en-GB,5,,FHRS,5
40745,57 Market Street,Watford,,,Tarboush,Restaurant/Cafe/Canteen,1,0,,278678,0,,51.65409800000000,10/00177/FOOD2,163,envhealth@watford.gov.uk,Watford,http://www.watford.gov.uk/foodhygieneratings,-0.39930600000000,WD18 0PR,2013-03-04,fhrs_5_en-GB,5,,FHRS,5
40746,Outside Watford Printers Ltd,58A Vicarage Road,Watford,,Taste Buds (Big Unit),Mobile caterer,7846,0,,278230,5,,,06/00115/FOOD2,163,envhealth@watford.gov.uk,Watford,http://www.watford.gov.uk/foodhygieneratings,,WD1 8EP,2013-03-09,fhrs_5_en-GB,5,,FHRS,0
40747,170 High Street,Watford,,,Taste Of Lahore,Restaurant/Cafe/Canteen,1,5,,447617,5,,51.65318700000000,12/00141/FOOD2,163,envhealth@watford.gov.uk,Watford,http://www.watford.gov.uk/foodhygieneratings,-0.39254300000000,WD17 2EG,2013-02-12,fhrs_5_en-GB,5,,FHRS,5
40748,114D High Street,Watford,,,Tesco,Retailers - other,4613,5,,374084,0,,51.66740800000000,11/00125/FOOD2,163,envhealth@watford.gov.uk,Watford,http://www.watford.gov.uk/foodhygieneratings,-0.41063100000000,WD17 2GJ,2012-05-23,fhrs_5_en-GB,5,,FHRS,5
40749,Tesco,Unit A,Campbell Court,1 Colnhurst Road,Tesco Express,Retailers - supermarkets/hypermarkets,7840,0,,647070,0,,,14/00001/FOOD2,163,envhealth@watford.gov.uk,Watford,http://www.watford.gov.uk/foodhygieneratings,,WD17 4BU,2014-04-07,fhrs_5_en-GB,5,,FHRS,0
40750,239 - 241 Lower High Street,Watford,,,Tesco Extra,Retailers - supermarkets/hypermarkets,7840,0,,278232,0,,51.65143000000000,06/00117/FOOD2,163,envhealth@watford.gov.uk,Watford,http://www.watford.gov.uk/foodhygieneratings,-0.38767600000000,WD17 2BD,2014-03-12,fhrs_5_en-GB,5,,FHRS,5
40751,239-241 Lower High Street,Watford,,,Tesco Petrol Station,Retailers - other,4613,0,,278750,5,,51.65143000000000,12/00022/FOOD2,163,envhealth@watford.gov.uk,Watford,http://www.watford.gov.uk/foodhygieneratings,-0.38767600000000,WD17 2BD,2008-04-22,fhrs_5_en-GB,5,,FHRS,5
40752,239-241 Lower High Street,Watford,,,Tesco Staff Canteen,Restaurant/Cafe/Canteen,1,0,,278585,5,,51.65143000000000,09/00195/FOOD2,163,envhealth@watford.gov.uk,Watford,http://www.watford.gov.uk/foodhygieneratings,-0.38767600000000,WD17 2BD,2014-03-12,fhrs_5_en-GB,5,,FHRS,5
40753,170 Whippendell Road,Watford,,,Tesco Stores Ltd,Retailers - other,4613,0,,278524,0,,51.65315000000000,08/00212/FOOD2,163,envhealth@watford.gov.uk,Watford,http://www.watford.gov.uk/foodhygieneratings,-0.40762200000000,WD18 7NB,2008-12-11,fhrs_5_en-GB,5,,FHRS,0
40754,226 - 228 St Albans Road,Watford,,,Tesco Stores Ltd,Retailers - supermarkets/hypermarkets,7840,0,,278608,0,,51.67108100000000,09/00297/FOOD2,163,envhealth@watford.gov.uk,Watford,http://www.watford.gov.uk/foodhygieneratings,-0.39646600000000,WD24 4AU,2010-06-03,fhrs_5_en-GB,5,,FHRS,0
40755,859 St Albans Road,Watford,,,TGI Fridays,Restaurant/Cafe/Canteen,1,0,,278297,0,,51.69092900000000,07/00043/FOOD2,163,envhealth@watford.gov.uk,Watford,http://www.watford.gov.uk/foodhygieneratings,-0.38620100000000,WD25 0LH,2013-11-13,fhrs_5_en-GB,5,,FHRS,0
40756,417 - 421 St Albans Road,Watford,,,Thai 4U,Hotel/bed & breakfast/guest house,7842,5,,647077,10,,51.67902200000000,14/00058/FOOD2,163,envhealth@watford.gov.uk,Watford,http://www.watford.gov.uk/foodhygieneratings,-0.39656100000000,WD24 6PR,2014-03-31,fhrs_4_en-GB,4,,FHRS,5
40757,185A St Albans Road,Watford,,,The Anchor Fish Bar,Takeaway/sandwich shop,7844,5,,615792,5,,51.66830800000000,13/00049/FOOD2,163,envhealth@watford.gov.uk,Watford,http://www.watford.gov.uk/foodhygieneratings,-0.39821200000000,WD24 5BD,2013-11-21,fhrs_5_en-GB,5,,FHRS,0
40758,120 The Gossamers,Watford,,,The Badger,Pub/bar/nightclub,7843,0,,278375,0,,51.68132000000000,07/00194/FOOD2,163,envhealth@watford.gov.uk,Watford,http://www.watford.gov.uk/foodhygieneratings,-0.37990300000000,WD25 9AD,2010-10-19,fhrs_5_en-GB,5,,FHRS,5
40759,320 St Albans Road,Watford,,,The Bowl,Restaurant/Cafe/Canteen,1,10,,278267,10,,51.67456900000000,06/00193/FOOD2,163,envhealth@watford.gov.uk,Watford,http://www.watford.gov.uk/foodhygieneratings,-0.39640000000000,WD24 6PQ,2014-09-23,fhrs_2_en-GB,2,,FHRS,15
40760,63 The Brow,Watford,,,The Brow News,Retailers - other,4613,,,278796,,,51.69694300000000,12/00080/FOOD2,163,envhealth@watford.gov.uk,Watford,http://www.watford.gov.uk/foodhygieneratings,-0.39851800000000,WD25 7NY,2010-01-04,fhrs_exempt_en-GB,Exempt,,FHRS,
40761,Tea Pavilion,Cassiobury Park,Watford,,The Cha,Restaurant/Cafe/Canteen,1,0,,715110,5,,51.65784600000000,14/00169/FOOD2,163,envhealth@watford.gov.uk,Watford,http://www.watford.gov.uk/foodhygieneratings,-0.41447000000000,WD18 7HY,2014-11-05,fhrs_5_en-GB,5,,FHRS,5
40762,4 Printers Avenue,Watford,,,The Chase Nursing Home,Hospitals/Childcare/Caring Premises,5,0,,278206,5,,51.65138900000000,06/00033/FOOD2,163,envhealth@watford.gov.uk,Watford,http://www.watford.gov.uk/foodhygieneratings,-0.42238500000000,WD18 7QR,2014-10-09,fhrs_5_en-GB,5,,FHRS,0
40763,6A Garston Park Parade,Watford,,,The Coffee Lounge,Restaurant/Cafe/Canteen,1,10,,278429,10,,51.68995000000000,08/00006/FOOD2,163,envhealth@watford.gov.uk,Watford,http://www.watford.gov.uk/foodhygieneratings,-0.38558500000000,WD25 9LQ,2013-11-04,fhrs_3_en-GB,3,,FHRS,10
40764,Watford Junction Station,Station Road,Watford,,The Cooperative Childcare,Hospitals/Childcare/Caring Premises,5,5,,278378,5,,51.66378100000000,07/00200/FOOD2,163,envhealth@watford.gov.uk,Watford,http://www.watford.gov.uk/foodhygieneratings,-0.39660800000000,WD17 1AB,2014-02-19,fhrs_5_en-GB,5,,FHRS,5
40765,236 St Albans Road,Watford,,,The Coral Reef,Retailers - other,4613,5,,278804,5,,51.67108100000000,12/00088/FOOD2,163,envhealth@watford.gov.uk,Watford,http://www.watford.gov.uk/foodhygieneratings,-0.39646600000000,WD24 4AU,2008-04-22,fhrs_5_en-GB,5,,FHRS,5
40766,7A Earl Street,Watford,Hertfordshire,,The Dandelion Bakery,Other catering premises,7841,5,,693793,0,,51.65773000000000,14/00072/FOOD2,163,envhealth@watford.gov.uk,Watford,http://www.watford.gov.uk/foodhygieneratings,-0.39400200000000,WD17 2PD,2014-08-20,fhrs_5_en-GB,5,,FHRS,0
40767,417 - 421 St Albans Road,Watford,,,The Dome,Pub/bar/nightclub,7843,5,,278763,5,,51.67902200000000,12/00036/FOOD2,163,envhealth@watford.gov.uk,Watford,http://www.watford.gov.uk/foodhygieneratings,-0.39656100000000,WD24 6PR,2014-04-16,fhrs_5_en-GB,5,,FHRS,5
40768,175 The Harlequin,Watford,,,The Espresso Bar,Restaurant/Cafe/Canteen,1,0,,278189,0,,51.65499900000000,05/00038/FOOD2,163,envhealth@watford.gov.uk,Watford,http://www.watford.gov.uk/foodhygieneratings,-0.39367800000000,,2011-08-16,fhrs_5_en-GB,5,,FHRS,0
40769,2 St Johns Road,Watford,,,The Estcourt Arms,Restaurant/Cafe/Canteen,1,10,,278522,10,,51.66136400000000,08/00205/FOOD2,163,envhealth@watford.gov.uk,Watford,http://www.watford.gov.uk/foodhygieneratings,-0.39542000000000,WD17 1PT,2014-08-26,fhrs_4_en-GB,4,,FHRS,0
40770,Greenhill Crescent,Watford,,,The Filling Station,Mobile caterer,7846,10,,278525,15,,51.64502900000000,08/00213/FOOD2,163,envhealth@watford.gov.uk,Watford,http://www.watford.gov.uk/foodhygieneratings,-0.42546900000000,,2013-11-29,fhrs_2_en-GB,2,,FHRS,10
40771,7 Station Road,Watford,,,The Flag,Restaurant/Cafe/Canteen,1,0,,278571,0,,51.66368500000000,09/00157/FOOD2,163,envhealth@watford.gov.uk,Watford,http://www.watford.gov.uk/foodhygieneratings,-0.39880900000000,WD17 1AP,2013-03-22,fhrs_5_en-GB,5,,FHRS,0
40772,16 Market Street,Watford,,,The Flower Drum,Restaurant/Cafe/Canteen,1,5,,278240,10,,51.65527300000000,06/00132/FOOD2,163,envhealth@watford.gov.uk,Watford,http://www.watford.gov.uk/foodhygieneratings,-0.39781900000000,WD18 0PD,2014-01-14,fhrs_4_en-GB,4,,FHRS,5
40773,4 Market Street,Watford,,,The Flower Shop,Retailers - other,4613,,,278747,,,51.65527300000000,12/00019/FOOD2,163,envhealth@watford.gov.uk,Watford,http://www.watford.gov.uk/foodhygieneratings,-0.39781900000000,WD18 0PD,2015-02-09,fhrs_exempt_en-GB,Exempt,,FHRS,
40774,17 Kingsfield Court,Kingsfield Road,Watford,Hertfordshire,The Fudge Can,Other catering premises,7841,5,,669864,5,,51.64277100000000,14/00101/FOOD2,163,envhealth@watford.gov.uk,Watford,http://www.watford.gov.uk/foodhygieneratings,-0.38704400000000,WD19 4PR,2014-06-17,fhrs_5_en-GB,5,,FHRS,5
40775,Fourth Avenue,Watford,Hertfordshire,,The Grove Academy,School/college/university,7845,0,,278241,0,,51.68346200000000,06/00134/FOOD2,163,envhealth@watford.gov.uk,Watford,http://www.watford.gov.uk/foodhygieneratings,-0.38587300000000,WD25 9RH,2013-10-22,fhrs_5_en-GB,5,,FHRS,5
40776,Fourth Avenue,Watford,Hertfordshire,,The Grove Academy,Restaurant/Cafe/Canteen,1,5,,683643,5,,,14/00093/FOOD2,163,envhealth@watford.gov.uk,Watford,http://www.watford.gov.uk/foodhygieneratings,,,2014-06-23,fhrs_5_en-GB,5,,FHRS,5
40777,The Grove Academy,Fourth Avenue,Watford,Hertfordshire,The Grove After School,Other catering premises,7841,5,,719604,5,,,14/00125/FOOD2,163,envhealth@watford.gov.uk,Watford,http://www.watford.gov.uk/foodhygieneratings,,,2014-11-27,fhrs_5_en-GB,5,,FHRS,5
40778,Eastbury Road,Watford,,,The Happy Hour,Restaurant/Cafe/Canteen,1,5,,278480,5,,51.64179500000000,08/00103/FOOD2,163,envhealth@watford.gov.uk,Watford,http://www.watford.gov.uk/foodhygieneratings,-0.39725300000000,WD19 4JL,2014-04-02,fhrs_5_en-GB,5,,FHRS,5
40779,The Heaven Day Centre,4 Whippendell Road,Watford,,The Haven Day Centre,Restaurant/Cafe/Canteen,1,5,,278377,10,,51.65512400000000,07/00199/FOOD2,163,envhealth@watford.gov.uk,Watford,http://www.watford.gov.uk/foodhygieneratings,-0.40402600000000,WD18 7LU,2015-01-12,fhrs_4_en-GB,4,,FHRS,5
40780,1 Hempstead Road,Watford,,,The Horns,Pub/bar/nightclub,7843,5,,278594,5,,51.66003000000000,09/00226/FOOD2,163,envhealth@watford.gov.uk,Watford,http://www.watford.gov.uk/foodhygieneratings,-0.40375200000000,WD17 3RL,2014-01-27,fhrs_5_en-GB,5,,FHRS,5
40781,99 North Approach,Watford,,,The Hung Toa,Takeaway/sandwich shop,7844,,,278463,,,51.69114100000000,08/00073/FOOD2,163,envhealth@watford.gov.uk,Watford,http://www.watford.gov.uk/foodhygieneratings,-0.40099400000000,WD25 0EL,2014-04-30,fhrs_4_en-GB,4,,FHRS,
40782,173 The Parade High Street,Watford,,,The LP Cafe Ltd,Restaurant/Cafe/Canteen,1,,,619373,,,51.65994800000000,13/00058/FOOD2,163,envhealth@watford.gov.uk,Watford,http://www.watford.gov.uk/foodhygieneratings,-0.40170200000000,WD17 1NJ,2014-02-19,fhrs_5_en-GB,5,,FHRS,
40783,Within B And Q Carpark,Watford Arches Retail Park,Lower High Street,Watford,The Lunch Box,Mobile caterer,7846,5,,278376,5,,51.65020700000000,07/00195/FOOD2,163,envhealth@watford.gov.uk,Watford,http://www.watford.gov.uk/foodhygieneratings,-0.38834100000000,WD17 2JJ,2013-10-29,fhrs_5_en-GB,5,,FHRS,5
40784,182-184 Bushey Mill Lane,Watford,,,The Nest,Retailers - other,4613,20,,278371,10,,51.67306000000000,07/00190/FOOD2,163,envhealth@watford.gov.uk,Watford,http://www.watford.gov.uk/foodhygieneratings,-0.38536100000000,WD24 7PE,2013-10-25,fhrs_1_en-GB,1,,FHRS,10
40785,14 Fearnley Street,Watford,,,The Oddfellows,Pub/bar/nightclub,7843,5,,278786,5,,51.65286800000000,12/00070/FOOD2,163,envhealth@watford.gov.uk,Watford,http://www.watford.gov.uk/foodhygieneratings,-0.40144500000000,WD18 0RD,2010-01-04,fhrs_5_en-GB,5,,FHRS,5
40786,90 High Street,Watford,,,The One Bell,Pub/bar/nightclub,7843,0,,278349,10,,51.65475400000000,07/00159/FOOD2,163,envhealth@watford.gov.uk,Watford,http://www.watford.gov.uk/foodhygieneratings,-0.39533600000000,WD17 2BW,2010-06-02,fhrs_4_en-GB,4,,FHRS,10
40787,156 High Street,Watford,,,The One Crown,Pub/bar/nightclub,7843,10,,278293,0,,51.65360000000000,07/00036/FOOD2,163,envhealth@watford.gov.uk,Watford,http://www.watford.gov.uk/foodhygieneratings,-0.39319400000000,WD17 2EN,2012-03-13,fhrs_4_en-GB,4,,FHRS,0
40788,Watford Palace Theatre,20 Clarendon Road,Watford,,The Palace Theatre,Restaurant/Cafe/Canteen,1,5,,278782,5,,51.65701700000000,12/00066/FOOD2,163,envhealth@watford.gov.uk,Watford,http://www.watford.gov.uk/foodhygieneratings,-0.39707800000000,WD17 1JZ,2014-01-14,fhrs_4_en-GB,4,,FHRS,10
40789,3 Park Avenue,Watford,,,The Park Nursery,Hospitals/Childcare/Caring Premises,5,5,,278400,5,,51.65552900000000,07/00243/FOOD2,163,envhealth@watford.gov.uk,Watford,http://www.watford.gov.uk/foodhygieneratings,-0.40667100000000,WD18 7HR,2013-12-10,fhrs_5_en-GB,5,,FHRS,5
40790,52 The Harlequin,Watford,,,The Place To Eat,Restaurant/Cafe/Canteen,1,0,,278332,0,,51.65463100000000,07/00110/FOOD2,163,envhealth@watford.gov.uk,Watford,http://www.watford.gov.uk/foodhygieneratings,-0.39229000000000,WD17 2TW,2014-03-20,fhrs_5_en-GB,5,,FHRS,5
40791,229A St Albans Road,Watford,,,The Point Tropical Shop,Retailers - other,4613,20,,459956,10,,51.67091000000000,12/00140/FOOD2,163,envhealth@watford.gov.uk,Watford,http://www.watford.gov.uk/foodhygieneratings,-0.39710800000000,WD24 5BU,2014-03-17,fhrs_1_en-GB,1,,FHRS,15
40792,145 The Parade High Street,Watford,,,The Pond Post Office,Retailers - other,4613,5,,278396,5,,51.65946500000000,07/00238/FOOD2,163,envhealth@watford.gov.uk,Watford,http://www.watford.gov.uk/foodhygieneratings,-0.40124200000000,WD17 1NA,2011-11-17,fhrs_5_en-GB,5,,FHRS,5
40793,151 St Albans Road,Watford,,,The Prince George,Pub/bar/nightclub,7843,5,,278476,5,,51.66702000000000,08/00095/FOOD2,163,envhealth@watford.gov.uk,Watford,http://www.watford.gov.uk/foodhygieneratings,-0.39867700000000,WD24 5BB,2013-12-12,fhrs_4_en-GB,4,,FHRS,10
40794,85 Wilmington Close,Watford,,,The Proper Lush Salad Company,Other catering premises,7841,5,,683641,5,,51.65701500000000,14/00071/FOOD2,163,envhealth@watford.gov.uk,Watford,http://www.watford.gov.uk/foodhygieneratings,-0.40024400000000,WD18 0FQ,2014-06-24,fhrs_5_en-GB,5,,FHRS,5
40795,The Quarters,30 - 40 St Albans Road,Watford,,The Quarters Watford,Hotel/bed & breakfast/guest house,7842,0,,278340,0,,51.66247200000000,07/00136/FOOD2,163,envhealth@watford.gov.uk,Watford,http://www.watford.gov.uk/foodhygieneratings,-0.40018200000000,WD17 1RN,2013-12-16,fhrs_5_en-GB,5,,FHRS,5
40796,1 Aldenham Road,Watford,,,The Railway Arms,Pub/bar/nightclub,7843,5,,278771,10,,51.64574200000000,12/00047/FOOD2,163,envhealth@watford.gov.uk,Watford,http://www.watford.gov.uk/foodhygieneratings,-0.38271800000000,WD19 4AB,2010-05-25,fhrs_4_en-GB,4,,FHRS,5
40797,238 St Albans Road,Watford,,,The Rice Bowl,Takeaway/sandwich shop,7844,0,,278337,5,,51.67108100000000,07/00125/FOOD2,163,envhealth@watford.gov.uk,Watford,http://www.watford.gov.uk/foodhygieneratings,-0.39646600000000,WD24 4AU,2014-03-25,fhrs_4_en-GB,4,,FHRS,10
40798,Watford Heath,Watford,,,The Royal Oak,Pub/bar/nightclub,7843,5,,278200,5,,51.63827200000000,06/00007/FOOD2,163,envhealth@watford.gov.uk,Watford,http://www.watford.gov.uk/foodhygieneratings,-0.38487700000000,WD19 4EU,2014-05-07,fhrs_4_en-GB,4,,FHRS,10
40799,7 - 8 Faircross House,116 The Parade High Street,Watford,,The Sandwich Box,Restaurant/Cafe/Canteen,1,5,,278392,5,,51.65905900000000,07/00232/FOOD2,163,envhealth@watford.gov.uk,Watford,http://www.watford.gov.uk/foodhygieneratings,-0.40182000000000,WD17 1BD,2013-08-14,fhrs_2_en-GB,2,,FHRS,15
40800,Second And Third Floors,103 - 105 High Street,Watford,,The Sports Food Company Ltd,Retailers - other,4613,,,278654,,,51.65486200000000,10/00092/FOOD2,163,envhealth@watford.gov.uk,Watford,http://www.watford.gov.uk/foodhygieneratings,-0.39468200000000,WD17 2DQ,2010-11-26,fhrs_exempt_en-GB,Exempt,,FHRS,
40801,39 Chalk Hill,Watford,,,The Victoria Public House,Other catering premises,7841,10,,278437,5,,51.64628500000000,08/00017/FOOD2,163,envhealth@watford.gov.uk,Watford,http://www.watford.gov.uk/foodhygieneratings,-0.38173000000000,WD19 4BU,2013-03-23,fhrs_4_en-GB,4,,FHRS,5
40802,73 Tolpits Lane,Watford,,,The Viking,Takeaway/sandwich shop,7844,20,,637370,10,,51.64567200000000,13/00098/FOOD2,163,envhealth@watford.gov.uk,Watford,http://www.watford.gov.uk/foodhygieneratings,-0.41651300000000,WD18 6NT,2014-03-12,fhrs_1_en-GB,1,,FHRS,10
40803,108 Villiers Road,Watford,,,The Villiers Arms,Pub/bar/nightclub,7843,5,,278683,5,,51.64388400000000,11/00001/FOOD2,163,envhealth@watford.gov.uk,Watford,http://www.watford.gov.uk/foodhygieneratings,-0.38103500000000,WD19 4AJ,2011-03-03,fhrs_5_en-GB,5,,FHRS,5
40804,The Wellington Arms (PH),2 Woodford Road,Watford,,The Wellington Arms,Pub/bar/nightclub,7843,5,,278320,5,,51.66214100000000,07/00092/FOOD2,163,envhealth@watford.gov.uk,Watford,http://www.watford.gov.uk/foodhygieneratings,-0.39506000000000,WD17 1PA,2013-03-26,fhrs_4_en-GB,4,,FHRS,10
40805,The Wellspring Church Centre,1 Wellspring Way,Watford,,The Wellspring Cafe,Restaurant/Cafe/Canteen,1,0,,456136,0,,51.65174400000000,11/00094/FOOD2,163,envhealth@watford.gov.uk,Watford,http://www.watford.gov.uk/foodhygieneratings,-0.39159700000000,WD17 2AH,2012-10-09,fhrs_5_en-GB,5,,FHRS,5
40806,79 St Albans Road,Watford,,,The White Lion,Pub/bar/nightclub,7843,5,,278211,5,,51.66345500000000,06/00058/FOOD2,163,envhealth@watford.gov.uk,Watford,http://www.watford.gov.uk/foodhygieneratings,-0.40037800000000,WD17 1SJ,2013-10-08,fhrs_4_en-GB,4,,FHRS,10
40807,The Wishing Well Public House,188 - 194 St Albans Road,Watford,,The Wishing Well,Pub/bar/nightclub,7843,5,,278801,10,,51.67028600000000,12/00085/FOOD2,163,envhealth@watford.gov.uk,Watford,http://www.watford.gov.uk/foodhygieneratings,-0.39689800000000,WD24 4AT,2012-01-13,fhrs_4_en-GB,4,,FHRS,5
40808,19 Colonial Way,Watford,,,Thomas Franks Ltd,Restaurant/Cafe/Canteen,1,0,,637375,0,,51.66650400000000,14/00011/FOOD2,163,envhealth@watford.gov.uk,Watford,http://www.watford.gov.uk/foodhygieneratings,-0.38660600000000,WD24 4JL,2014-03-12,fhrs_5_en-GB,5,,FHRS,0
40809,22 The Harlequin,Watford,,,Thorntons,Retailers - other,4613,,,278729,,,51.65570800000000,11/00163/FOOD2,163,envhealth@watford.gov.uk,Watford,http://www.watford.gov.uk/foodhygieneratings,-0.39478200000000,WD17 2TD,2009-11-30,fhrs_exempt_en-GB,Exempt,,FHRS,
40810,Unit 11,Watford Enterprise Centre,25 Greenhill Crescent,Watford,Thought 4 Food,Other catering premises,7841,5,,278253,5,,51.64461400000000,06/00165/FOOD2,163,envhealth@watford.gov.uk,Watford,http://www.watford.gov.uk/foodhygieneratings,-0.42483200000000,WD18 8PH,2011-09-16,fhrs_4_en-GB,4,,FHRS,10
40811,Leavesden Road Baptist Church,Leavesden Road,Watford,,Thursday Fellowship Centre,Other catering premises,7841,5,,278311,0,,51.67034700000000,07/00065/FOOD2,163,envhealth@watford.gov.uk,Watford,http://www.watford.gov.uk/foodhygieneratings,-0.40067100000000,WD24 5ER,2014-05-08,fhrs_5_en-GB,5,,FHRS,5
40812,63 The Parade High Street,Watford,,,Tinseltown,Restaurant/Cafe/Canteen,1,5,,595881,5,,51.65787300000000,13/00062/FOOD2,163,envhealth@watford.gov.uk,Watford,http://www.watford.gov.uk/foodhygieneratings,-0.39924500000000,WD17 1LJ,2013-10-28,fhrs_5_en-GB,5,,FHRS,5
40813,50 Clarendon Road,Watford,,,Tk Maxx Staff Restaurant And Cafe,Restaurant/Cafe/Canteen,1,5,,278503,10,,51.66060800000000,08/00159/FOOD2,163,envhealth@watford.gov.uk,Watford,http://www.watford.gov.uk/foodhygieneratings,-0.39667600000000,WD17 1TX,2014-03-12,fhrs_4_en-GB,4,,FHRS,5
40814,100 Hempstead Road,Watford,,,Toad Hall Nursery,Hospitals/Childcare/Caring Premises,5,5,,278314,5,,51.66559700000000,07/00068/FOOD2,163,envhealth@watford.gov.uk,Watford,http://www.watford.gov.uk/foodhygieneratings,-0.40978900000000,WD17 4LA,2014-02-04,fhrs_5_en-GB,5,,FHRS,5
40815,Unit Park House,15 - 19 Greenhill Crescent,Watford,,Tony And Maria's Cafe,Restaurant/Cafe/Canteen,1,20,,278534,10,,51.64461400000000,08/00275/FOOD2,163,envhealth@watford.gov.uk,Watford,http://www.watford.gov.uk/foodhygieneratings,-0.42483200000000,WD18 8PH,2014-04-22,fhrs_1_en-GB,1,,FHRS,10
40816,Bushey Mill Lane,Watford,,,TopGolf Ltd,Restaurant/Cafe/Canteen,1,5,,278720,5,,51.67771700000000,11/00153/FOOD2,163,envhealth@watford.gov.uk,Watford,http://www.watford.gov.uk/foodhygieneratings,-0.39585500000000,WD24 7QS,2014-09-08,fhrs_5_en-GB,5,,FHRS,5
40817,155 The Parade High Street,Watford,,,Tops Pizza,Takeaway/sandwich shop,7844,5,,278363,5,,51.65946500000000,07/00180/FOOD2,163,envhealth@watford.gov.uk,Watford,http://www.watford.gov.uk/foodhygieneratings,-0.40124200000000,WD17 1NA,2013-10-15,fhrs_4_en-GB,4,,FHRS,10
40818,Intu Watford,101 The Harlequin,Watford,,Tortilla,Restaurant/Cafe/Canteen,1,0,,669858,5,,51.65472700000000,14/00053/FOOD2,163,envhealth@watford.gov.uk,Watford,http://www.watford.gov.uk/foodhygieneratings,-0.39335600000000,WD17 2TH,2014-05-28,fhrs_5_en-GB,5,,FHRS,5
40819,Tots Nursery At Leavesden Green JMI,High Road,Leavesden,Watford,Tots Day Nursery,Hospitals/Childcare/Caring Premises,5,5,,278548,5,,51.69177500000000,09/00027/FOOD2,163,envhealth@watford.gov.uk,Watford,http://www.watford.gov.uk/foodhygieneratings,-0.40798900000000,WD25 7QZ,2014-06-10,fhrs_5_en-GB,5,,FHRS,5
40820,7 - 8 Century Park,Watford,,,Toys R Us Ltd,Retailers - other,4613,,,278236,,,51.64931800000000,06/00126/FOOD2,163,envhealth@watford.gov.uk,Watford,http://www.watford.gov.uk/foodhygieneratings,-0.39036800000000,WD17 2SF,2006-10-24,fhrs_exempt_en-GB,Exempt,,FHRS,
40821,23 - 25 Market Street,Watford,,,Travel Lodge,Hotel/bed & breakfast/guest house,7842,0,,278455,0,,51.65504300000000,08/00054/FOOD2,163,envhealth@watford.gov.uk,Watford,http://www.watford.gov.uk/foodhygieneratings,-0.39740700000000,WD18 0PA,2013-11-26,fhrs_5_en-GB,5,,FHRS,0
40822,53 Fourth Avenue,Watford,Hertfordshire,,Truly Scrumptious Sweets And Treats,Other catering premises,7841,0,,669863,0,,51.68693800000000,14/00098/FOOD2,163,envhealth@watford.gov.uk,Watford,http://www.watford.gov.uk/foodhygieneratings,-0.38303000000000,WD25 9QH,2014-06-02,fhrs_5_en-GB,5,,FHRS,0
40823,Bushey Mill Lane,Watford,,,Tudor Arms,Pub/bar/nightclub,7843,0,,278356,0,,51.67370800000000,07/00171/FOOD2,163,envhealth@watford.gov.uk,Watford,http://www.watford.gov.uk/foodhygieneratings,-0.38541000000000,WD24 7TQ,2013-09-19,fhrs_5_en-GB,5,,FHRS,0
40824,188 Bushey Mill Lane,Watford,,,Tudor Cafe,Restaurant/Cafe/Canteen,1,5,,278319,10,,51.67306000000000,07/00091/FOOD2,163,envhealth@watford.gov.uk,Watford,http://www.watford.gov.uk/foodhygieneratings,-0.38536100000000,WD24 7PE,2013-08-20,fhrs_4_en-GB,4,,FHRS,5
40825,364 St Albans Road,Watford,,,Tudorken Chemist,Retailers - other,4613,,,278749,,,51.67456900000000,12/00021/FOOD2,163,envhealth@watford.gov.uk,Watford,http://www.watford.gov.uk/foodhygieneratings,-0.39640000000000,WD24 6PQ,2009-11-30,fhrs_exempt_en-GB,Exempt,,FHRS,
40826,113 - 115 Sussex Road,Watford,,,Turning Point,Hospitals/Childcare/Caring Premises,5,,,278333,,,51.67374800000000,07/00112/FOOD2,163,envhealth@watford.gov.uk,Watford,http://www.watford.gov.uk/foodhygieneratings,-0.40678400000000,WD24 5HR,2011-12-12,fhrs_exempt_en-GB,Exempt,,FHRS,
40827,55 Chester Road,Watford,Hertfordshire,,Unique Cakes,Other catering premises,7841,5,,669862,5,,51.65404500000000,14/00094/FOOD2,163,envhealth@watford.gov.uk,Watford,http://www.watford.gov.uk/foodhygieneratings,-0.40402000000000,WD18 0RG,2014-06-16,fhrs_5_en-GB,5,,FHRS,5
40828,Uppercrust,Watford Junction Station,Station Road,Watford,Upper Crust,Takeaway/sandwich shop,7844,0,,278355,0,,51.66401100000000,07/00170/FOOD2,163,envhealth@watford.gov.uk,Watford,http://www.watford.gov.uk/foodhygieneratings,-0.39827700000000,WD17 1EG,2014-02-06,fhrs_5_en-GB,5,,FHRS,0
40829,84 Whippendell Road,Watford,,,Urmi News,Retailers - other,4613,,,278533,,,51.65464700000000,08/00262/FOOD2,163,envhealth@watford.gov.uk,Watford,http://www.watford.gov.uk/foodhygieneratings,-0.40596500000000,WD18 7LR,2008-04-22,fhrs_exempt_en-GB,Exempt,,FHRS,
40830,3 Bushey Mill Lane,Watford,,,Viking Fish Bar,Takeaway/sandwich shop,7844,5,,278454,10,,51.67816000000000,08/00051/FOOD2,163,envhealth@watford.gov.uk,Watford,http://www.watford.gov.uk/foodhygieneratings,-0.39602700000000,WD24 7QT,2013-05-27,fhrs_4_en-GB,4,,FHRS,5
40831,5 Stanley Road,Watford,,,Villcare,Hospitals/Childcare/Caring Premises,5,5,,278641,10,,51.65626500000000,10/00070/FOOD2,163,envhealth@watford.gov.uk,Watford,http://www.watford.gov.uk/foodhygieneratings,-0.39143700000000,WD17 2QU,2013-09-10,fhrs_4_en-GB,4,,FHRS,5
40832,51 Eastbury Road,Watford,,,Villcare Ltd.,Hospitals/Childcare/Caring Premises,5,,,278653,,,51.64156000000000,10/00090/FOOD2,163,envhealth@watford.gov.uk,Watford,http://www.watford.gov.uk/foodhygieneratings,-0.39643800000000,WD19 4JN,2012-01-10,fhrs_exempt_en-GB,Exempt,,FHRS,
40833,293-299 Whippendell Road,Watford,,,Vimco Superstores,Retailers - other,4613,20,,278587,10,,51.65058900000000,09/00198/FOOD2,163,envhealth@watford.gov.uk,Watford,http://www.watford.gov.uk/foodhygieneratings,-0.41376900000000,WD18 7PA,2014-03-24,fhrs_1_en-GB,1,,FHRS,15
40834,Woodside Leisure Park,North Orbital Road,Watford,,Vue Cinema,Retailers - other,4613,0,,278287,5,,51.69264400000000,07/00030/FOOD2,163,envhealth@watford.gov.uk,Watford,http://www.watford.gov.uk/foodhygieneratings,-0.39453200000000,WD25 7JZ,2013-03-10,fhrs_5_en-GB,5,,FHRS,0
40835,Watford Junction Railway Station,Station Road,Watford,,W H Smith,Retailers - other,4613,,,278519,,,51.66378100000000,08/00188/FOOD2,163,envhealth@watford.gov.uk,Watford,http://www.watford.gov.uk/foodhygieneratings,-0.39660800000000,WD17 1EU,2009-03-13,fhrs_exempt_en-GB,Exempt,,FHRS,
40836,W H Smith,54 The Harlequin,Watford,,W H Smith Ltd,Retailers - other,4613,0,,278283,0,,51.65522900000000,07/00025/FOOD2,163,envhealth@watford.gov.uk,Watford,http://www.watford.gov.uk/foodhygieneratings,-0.39260100000000,WD17 2TN,2010-01-04,fhrs_5_en-GB,5,,FHRS,0
40837,Wagamamas,5 King Street,Watford,,Wagamama,Restaurant/Cafe/Canteen,1,0,,510466,0,,51.65346700000000,12/00181/FOOD2,163,envhealth@watford.gov.uk,Watford,http://www.watford.gov.uk/foodhygieneratings,-0.39458600000000,WD18 0BW,2013-02-25,fhrs_5_en-GB,5,,FHRS,0
40838,Little Waitrose,St Albans Road,Watford,,Waitrose Ltd,Retailers - other,4613,0,,278705,0,,51.68098700000000,11/00085/FOOD2,163,envhealth@watford.gov.uk,Watford,http://www.watford.gov.uk/foodhygieneratings,-0.39490100000000,WD24 7RU,2013-10-14,fhrs_5_en-GB,5,,FHRS,5
40839,76 The Parade High Street,Watford,,,Walkabout/Highlight,Pub/bar/nightclub,7843,0,,278268,0,,51.65842000000000,06/00194/FOOD2,163,envhealth@watford.gov.uk,Watford,http://www.watford.gov.uk/foodhygieneratings,-0.40104700000000,WD17 1AW,2014-01-16,fhrs_5_en-GB,5,,FHRS,0
40840,8 Monica Close,Watford,,,Walsingham,Hospitals/Childcare/Caring Premises,5,,,278383,,,51.66333200000000,07/00205/FOOD2,163,envhealth@watford.gov.uk,Watford,http://www.watford.gov.uk/foodhygieneratings,-0.38943700000000,WD24 4GZ,2013-03-21,fhrs_exempt_en-GB,Exempt,,FHRS,
40841,13 Garston Park Parade,Watford,,,Waterfront Fish And Chips,Takeaway/sandwich shop,7844,10,,278381,15,,51.68995000000000,07/00203/FOOD2,163,envhealth@watford.gov.uk,Watford,http://www.watford.gov.uk/foodhygieneratings,-0.38558500000000,WD25 9LQ,2013-02-04,fhrs_2_en-GB,2,,FHRS,5
40842,342 St Albans Road,Watford,,,Watford Cafe,Restaurant/Cafe/Canteen,1,,,278239,,,51.67456900000000,06/00131/FOOD2,163,envhealth@watford.gov.uk,Watford,http://www.watford.gov.uk/foodhygieneratings,-0.39640000000000,WD24 6PQ,2014-04-30,fhrs_5_en-GB,5,,FHRS,
40843,Watford Leisure Centre,Peace Prospect,Watford,Hertfordshire,Watford Central Leisure Cafe,Restaurant/Cafe/Canteen,1,0,,278516,5,,51.66010000000000,08/00183/FOOD2,163,envhealth@watford.gov.uk,Watford,http://www.watford.gov.uk/foodhygieneratings,-0.40492100000000,WD17 3HA,2013-11-28,fhrs_5_en-GB,5,,FHRS,5
40844,The Colosseum,Rickmansworth Road,Watford,,Watford Colosseum,Restaurant/Cafe/Canteen,1,5,,421616,5,,51.65897400000000,12/00089/FOOD2,163,envhealth@watford.gov.uk,Watford,http://www.watford.gov.uk/foodhygieneratings,-0.40345700000000,WD17 3JN,2013-10-29,fhrs_5_en-GB,5,,FHRS,5
40845,2 Printers Avenue,Watford,,,Watford Day Nursery,Hospitals/Childcare/Caring Premises,5,0,,637373,0,,51.65138900000000,13/00104/FOOD2,163,envhealth@watford.gov.uk,Watford,http://www.watford.gov.uk/foodhygieneratings,-0.42238500000000,WD18 7QR,2014-02-10,fhrs_5_en-GB,5,,FHRS,0
40846,65 Queens Road,Watford,,,Watford Day Services,Hospitals/Childcare/Caring Premises,5,0,,278336,0,,51.65749300000000,07/00123/FOOD2,163,envhealth@watford.gov.uk,Watford,http://www.watford.gov.uk/foodhygieneratings,-0.39244900000000,WD17 2QN,2013-09-20,fhrs_5_en-GB,5,,FHRS,5
40847,12-14 St Albans Road,Watford,,,Watford Ex Service & Social Club Ltd,Other catering premises,7841,20,,307935,15,,51.66740800000000,12/00119/FOOD2,163,envhealth@watford.gov.uk,Watford,http://www.watford.gov.uk/foodhygieneratings,-0.41063100000000,WD17 1RX,2014-01-21,fhrs_1_en-GB,1,,FHRS,15
40848,Neal Street,Watford,,,Watford Field Infant And Nursery School,School/college/university,7845,0,,278517,5,,51.65114300000000,08/00185/FOOD2,163,envhealth@watford.gov.uk,Watford,http://www.watford.gov.uk/foodhygieneratings,-0.39303500000000,WD18 0WF,2015-02-10,fhrs_5_en-GB,5,,FHRS,5
40849,Watford Football Club Ltd,Vicarage Road,Watford,,Watford Football Club,Restaurant/Cafe/Canteen,1,5,,278425,5,,51.65040700000000,07900/2012/2/000,163,envhealth@watford.gov.uk,Watford,http://www.watford.gov.uk/foodhygieneratings,-0.40229800000000,WD18 0ER,2012-12-24,fhrs_5_en-GB,5,,FHRS,5
40850,Watford General Hospital,Vicarage Road,Watford,,Watford General Hospital Kitchen,Hospitals/Childcare/Caring Premises,5,0,,278555,0,,51.64906100000000,09/00076/FOOD2,163,envhealth@watford.gov.uk,Watford,http://www.watford.gov.uk/foodhygieneratings,-0.40448400000000,WD18 0HB,2013-11-11,fhrs_5_en-GB,5,,FHRS,0
40851,Rickmansworth Road,Watford,,,Watford Grammar School For Boys,School/college/university,7845,0,,278324,5,,51.65503900000000,07/00098/FOOD2,163,envhealth@watford.gov.uk,Watford,http://www.watford.gov.uk/foodhygieneratings,-0.41433600000000,WD18 7JF,2013-11-06,fhrs_5_en-GB,5,,FHRS,5
40852,Ladys Close,Watford,Hertfordshire,,Watford Grammar School For Girls,School/college/university,7845,5,,278353,5,,51.65158700000000,07/00164/FOOD2,163,envhealth@watford.gov.uk,Watford,http://www.watford.gov.uk/foodhygieneratings,-0.39586700000000,WD18 0AE,2014-06-09,fhrs_5_en-GB,5,,FHRS,0
40853,Multi Racial Community Centre,St Michaels Church Hall,Durban Road West,Watford,Watford Muslim Womens Organisation,Other catering premises,7841,5,,278484,5,,51.65456900000000,08/00110/FOOD2,163,envhealth@watford.gov.uk,Watford,http://www.watford.gov.uk/foodhygieneratings,-0.40818000000000,WD18 7DS,2014-05-01,fhrs_5_en-GB,5,,FHRS,5
40854,Observer House,Caxton Way,Watford,Hertfordshire,Watford Observer Staff Canteen,Restaurant/Cafe/Canteen,1,5,,404478,5,,51.64305100000000,12/00111/FOOD2,163,envhealth@watford.gov.uk,Watford,http://www.watford.gov.uk/foodhygieneratings,-0.42959700000000,WD18 8RJ,2013-12-06,fhrs_5_en-GB,5,,FHRS,5
40855,529 St Albans Road,Watford,,,Watford Pizza,Takeaway/sandwich shop,7844,10,,278404,5,,51.68211700000000,07/00247/FOOD2,163,envhealth@watford.gov.uk,Watford,http://www.watford.gov.uk/foodhygieneratings,-0.39272000000000,WD25 9JH,2013-08-15,fhrs_4_en-GB,4,,FHRS,5
40856,Radlett Road,Watford,,,Watford Rugby Club,Restaurant/Cafe/Canteen,1,10,,278556,5,,51.67394200000000,09/00081/FOOD2,163,envhealth@watford.gov.uk,Watford,http://www.watford.gov.uk/foodhygieneratings,-0.40006300000000,WD24 4DG,2013-12-18,fhrs_4_en-GB,4,,FHRS,5
40857,112 St Albans Road,Watford,,,Watford Service Station,Retailers - other,4613,0,,619375,0,,51.66812200000000,13/00085/FOOD2,163,envhealth@watford.gov.uk,Watford,http://www.watford.gov.uk/foodhygieneratings,-0.39707600000000,WD24 4AE,2013-12-05,fhrs_5_en-GB,5,,FHRS,0
40858,Century Park,Dalton Way,Watford,,Watford Sheltered Workshop Ltd,Other catering premises,7841,5,,278657,0,,51.64931800000000,10/00100/FOOD2,163,envhealth@watford.gov.uk,Watford,http://www.watford.gov.uk/foodhygieneratings,-0.39036800000000,WD17 2SF,2011-05-17,fhrs_5_en-GB,5,,FHRS,0
40859,17-21 Cross Street,Watford,,,Watford Social Centre For The Blind,Other catering premises,7841,5,,278628,0,,51.65882800000000,10/00044/FOOD2,163,envhealth@watford.gov.uk,Watford,http://www.watford.gov.uk/foodhygieneratings,-0.39474400000000,WD17 2QD,2011-09-14,fhrs_5_en-GB,5,,FHRS,0
40860,70-72 Queens Road,Watford,,,Watford Social Club,Pub/bar/nightclub,7843,10,,278727,5,,51.65750100000000,11/00161/FOOD2,163,envhealth@watford.gov.uk,Watford,http://www.watford.gov.uk/foodhygieneratings,-0.39301200000000,WD17 2LA,2008-04-22,fhrs_4_en-GB,4,,FHRS,5
40861,43 - 45 Market Street,Watford,,,Watford Supermarket,Retailers - other,4613,20,,467743,15,,51.65444800000000,12/00207/FOOD2,163,envhealth@watford.gov.uk,Watford,http://www.watford.gov.uk/foodhygieneratings,-0.39865700000000,WD18 0PN,2015-01-16,fhrs_1_en-GB,1,,FHRS,15
40862,Halsey House,Rosslyn Road,Watford,,Watford Town And Country Club,Other catering premises,7841,5,,278418,5,,51.65790200000000,07/00268/FOOD2,163,envhealth@watford.gov.uk,Watford,http://www.watford.gov.uk/foodhygieneratings,-0.40136900000000,WD18 0JX,2014-04-14,fhrs_4_en-GB,4,,FHRS,10
40863,Woodside,Horseshoe Lane,Watford,,Watford Town Cricket Club,Other catering premises,7841,5,,278741,5,,51.69566900000000,12/00007/FOOD2,163,envhealth@watford.gov.uk,Watford,http://www.watford.gov.uk/foodhygieneratings,-0.39219600000000,WD25 7HH,2003-06-14,fhrs_4_en-GB,4,,FHRS,10
40864,Northbank House,27 Woodford Road,Watford,,Watford Trade Unionist And Labour Club,Pub/bar/nightclub,7843,5,,278252,10,,51.65843100000000,06/00164/FOOD2,163,envhealth@watford.gov.uk,Watford,http://www.watford.gov.uk/foodhygieneratings,-0.39922500000000,WD17 1PE,2012-10-31,fhrs_4_en-GB,4,,FHRS,0
40865,16 Nascot Road,Watford,,,Watford United Synagogue,Other catering premises,7841,,,278579,,,51.66533000000000,09/00173/FOOD2,163,envhealth@watford.gov.uk,Watford,http://www.watford.gov.uk/foodhygieneratings,-0.40073200000000,WD17 4YE,2008-04-22,fhrs_exempt_en-GB,Exempt,,FHRS,
40866,123 St Albans Road,Watford,,,Wawel Deli,Retailers - other,4613,20,,615793,0,,51.66465300000000,13/00064/FOOD2,163,envhealth@watford.gov.uk,Watford,http://www.watford.gov.uk/foodhygieneratings,-0.39984500000000,WD17 1RD,2013-11-27,fhrs_1_en-GB,1,,FHRS,0
40867,Abbots Bakery And Catering Services,57 The Brow,Watford,,Wendy's Bakery,Retailers - other,4613,5,,278457,10,,51.69694300000000,08/00063/FOOD2,163,envhealth@watford.gov.uk,Watford,http://www.watford.gov.uk/foodhygieneratings,-0.39851800000000,WD25 7NY,2013-11-27,fhrs_3_en-GB,3,,FHRS,10
40868,89 High Street,Watford,,,Wenzels The Bakers,Retailers - other,4613,0,,446424,0,,51.65486200000000,12/00131/FOOD2,163,envhealth@watford.gov.uk,Watford,http://www.watford.gov.uk/foodhygieneratings,-0.39468200000000,WD17 2DQ,2014-01-07,fhrs_5_en-GB,5,,FHRS,5
40869,23 Charter Place,Watford,,,Wenzels The Bakers Ltd,Retailers - other,4613,5,,278722,5,,51.65634900000000,11/00155/FOOD2,163,envhealth@watford.gov.uk,Watford,http://www.watford.gov.uk/foodhygieneratings,-0.39627700000000,WD17 2RS,2014-06-11,fhrs_5_en-GB,5,,FHRS,5
40870,Watford Campus,Hempstead Road,Watford,,West Herts College,School/college/university,7845,0,,278467,0,,51.66012400000000,08/00078/FOOD2,163,envhealth@watford.gov.uk,Watford,http://www.watford.gov.uk/foodhygieneratings,-0.40606200000000,WD17 3EZ,2013-03-27,fhrs_5_en-GB,5,,FHRS,0
40871,W H Sports Club Limited,8 Park Avenue,Watford,,West Herts Sports Club,Pub/bar/nightclub,7843,10,,278373,5,,51.65552000000000,07/00192/FOOD2,163,envhealth@watford.gov.uk,Watford,http://www.watford.gov.uk/foodhygieneratings,-0.40606500000000,WD18 7HP,2014-01-24,fhrs_4_en-GB,4,,FHRS,5
40872,W H Sports Club Limited,8 Park Avenue,Watford,,West Herts Squash And Fitness Centre,Other catering premises,7841,,,278559,,,51.65552000000000,09/00101/FOOD2,163,envhealth@watford.gov.uk,Watford,http://www.watford.gov.uk/foodhygieneratings,-0.40606500000000,WD18 7HP,2012-03-16,fhrs_exempt_en-GB,Exempt,,FHRS,
40873,West Watford Christian Fellowship,119A Vicarage Road,Watford,,West Watford Christian Fellowship,Other catering premises,7841,10,,278372,10,,51.65045800000000,07/00191/FOOD2,163,envhealth@watford.gov.uk,Watford,http://www.watford.gov.uk/foodhygieneratings,-0.40274400000000,WD18 0EY,2011-10-20,fhrs_4_en-GB,4,,FHRS,0
40874,15 Harwoods Road,Watford,,,West Watford Community Centre,Other catering premises,7841,0,,278574,0,,51.65152100000000,09/00161/FOOD2,163,envhealth@watford.gov.uk,Watford,http://www.watford.gov.uk/foodhygieneratings,-0.40619000000000,WD18 7RE,2014-09-16,fhrs_5_en-GB,5,,FHRS,0
40875,Tolpits Lane,Watford,,,Westfield Community Technology College,School/college/university,7845,5,,631406,10,,51.64726700000000,14/00008/FOOD2,163,envhealth@watford.gov.uk,Watford,http://www.watford.gov.uk/foodhygieneratings,-0.41745500000000,WD18 6NS,2013-12-06,fhrs_4_en-GB,4,,FHRS,5
40876,Watford General Hospital,Vicarage Road,Watford,,WH Smith,Retailers - other,4613,,,278609,,,51.64906100000000,09/00302/FOOD2,163,envhealth@watford.gov.uk,Watford,http://www.watford.gov.uk/foodhygieneratings,-0.40448400000000,WD18 0HB,2014-03-13,fhrs_exempt_en-GB,Exempt,,FHRS,
40877,164 Whippendell Road,Watford,,,Whippendell Food And Wine,Retailers - other,4613,5,,278610,5,,51.65315000000000,09/15957/FOOD2,163,envhealth@watford.gov.uk,Watford,http://www.watford.gov.uk/foodhygieneratings,-0.40762200000000,WD18 7NB,2009-11-30,fhrs_4_en-GB,4,,FHRS,10
40878,1 Paramount Industrial Estate,Sandown Road,Watford,,Whistle Stop Cafe,Other catering premises,7841,10,,689060,5,,51.67346700000000,14/00095/FOOD2,163,envhealth@watford.gov.uk,Watford,http://www.watford.gov.uk/foodhygieneratings,-0.39279500000000,WD24 7XA,2014-08-05,fhrs_4_en-GB,4,,FHRS,5
40879,27-31 Upton Road,Watford,,,White House Hotel,Hotel/bed & breakfast/guest house,7842,5,,278291,5,,51.65634000000000,07/00034/FOOD2,163,envhealth@watford.gov.uk,Watford,http://www.watford.gov.uk/foodhygieneratings,-0.40156900000000,WD18 0JL,2013-09-25,fhrs_5_en-GB,5,,FHRS,5
40880,12 Gladstone Road,Watford,,,White's Refreshments,Mobile caterer,7846,5,,733767,0,,51.65526500000000,14/00207/FOOD2,163,envhealth@watford.gov.uk,Watford,http://www.watford.gov.uk/foodhygieneratings,-0.39069100000000,WD17 2QY,2015-01-29,fhrs_5_en-GB,5,,FHRS,5
40881,3 Charter Place,Watford,,,Wilkinson Stores Ltd,Retailers - other,4613,5,,278208,5,,51.65596100000000,06/00048/FOOD2,163,envhealth@watford.gov.uk,Watford,http://www.watford.gov.uk/foodhygieneratings,-0.39546700000000,WD17 2RR,2006-05-10,fhrs_5_en-GB,5,,FHRS,0
40882,Staff Canteen,Oak House,Reeds Crescent,Watford,Wilson Vale Catering Management,Restaurant/Cafe/Canteen,1,0,,278281,0,,51.66432500000000,07/00022/FOOD2,163,envhealth@watford.gov.uk,Watford,http://www.watford.gov.uk/foodhygieneratings,-0.39099300000000,WD24 4PH,2014-03-10,fhrs_5_en-GB,5,,FHRS,5
40883,Unit 1 Sandown Road,Watford,,,Windsors Of Watford,Pub/bar/nightclub,7843,5,,278725,10,,51.67263200000000,11/00159/FOOD2,163,envhealth@watford.gov.uk,Watford,http://www.watford.gov.uk/foodhygieneratings,-0.39415500000000,WD24 7DH,2009-11-10,fhrs_4_en-GB,4,,FHRS,5
40884,423 St Albans Road,Watford,,,Wok Express,Takeaway/sandwich shop,7844,5,,479211,5,,51.67902200000000,07/00222/FOOD2,163,envhealth@watford.gov.uk,Watford,http://www.watford.gov.uk/foodhygieneratings,-0.39656100000000,WD24 6PR,2014-05-12,fhrs_5_en-GB,5,,FHRS,5
40885,Woodside Leisure Centre,Horseshoe Lane,Watford,,Woodside Leisure Centre Cafe,Restaurant/Cafe/Canteen,1,5,,278721,5,,51.69566900000000,11/00154/FOOD2,163,envhealth@watford.gov.uk,Watford,http://www.watford.gov.uk/foodhygieneratings,-0.39219600000000,WD25 7HH,2014-10-17,fhrs_5_en-GB,5,,FHRS,5
40886,Greenhill Lodge,22-24 Alexandra Road,Watford,,Working Together For Wellbeing,Hospitals/Childcare/Caring Premises,5,5,,278408,5,,51.66383100000000,07/00252/FOOD2,163,envhealth@watford.gov.uk,Watford,http://www.watford.gov.uk/foodhygieneratings,-0.40419700000000,WD17 4QY,2014-05-19,fhrs_5_en-GB,5,,FHRS,5
40887,Watford General Hospital,Vicarage Road,Watford,,WRVS Shop,Restaurant/Cafe/Canteen,1,5,,278423,5,,51.64906100000000,07900/0060/2/WRV,163,envhealth@watford.gov.uk,Watford,http://www.watford.gov.uk/foodhygieneratings,-0.40448400000000,WD18 0HB,2008-04-22,fhrs_5_en-GB,5,,FHRS,5
40888,59 Market Street,Watford,,,XFC,Takeaway/sandwich shop,7844,20,,278443,10,,51.65409800000000,08/00034/FOOD2,163,envhealth@watford.gov.uk,Watford,http://www.watford.gov.uk/foodhygieneratings,-0.39930600000000,WD18 0PR,2012-03-29,fhrs_1_en-GB,1,,FHRS,10
40889,Holywell Community Centre,Tolpits Lane,Watford,,Xtra Time Kidz Club,Hospitals/Childcare/Caring Premises,5,20,,516086,5,,51.64230600000000,12/00161/FOOD2,163,envhealth@watford.gov.uk,Watford,http://www.watford.gov.uk/foodhygieneratings,-0.41898600000000,WD18 9QD,2014-10-17,fhrs_1_en-GB,1,,FHRS,5
40890,2 Orbital Crescent,Watford,,,Yas Mini Mart,Retailers - other,4613,10,,278426,10,,51.68511600000000,08/00002/FOOD2,163,envhealth@watford.gov.uk,Watford,http://www.watford.gov.uk/foodhygieneratings,-0.41162200000000,WD25 0HA,2014-10-28,fhrs_3_en-GB,3,,FHRS,10
40891,107-115 The Parade High Street,Watford,,,Yates Wine Lodge,Pub/bar/nightclub,7843,0,,278369,0,,51.65875100000000,07/00187/FOOD2,163,envhealth@watford.gov.uk,Watford,http://www.watford.gov.uk/foodhygieneratings,-0.40029800000000,WD17 1LU,2013-09-23,fhrs_4_en-GB,4,,FHRS,10
40892,Ymca,Charter Place,Watford,,YMCA Cafe,Restaurant/Cafe/Canteen,1,5,,278205,5,,51.65705200000000,06/00022/FOOD2,163,envhealth@watford.gov.uk,Watford,http://www.watford.gov.uk/foodhygieneratings,-0.39639700000000,WD17 2RT,2014-11-04,fhrs_5_en-GB,5,,FHRS,5
40893,133 The Harlequin,Watford,,,Yogurtland,Retailers - other,4613,0,,278730,5,,51.65570800000000,11/00164/FOOD2,163,envhealth@watford.gov.uk,Watford,http://www.watford.gov.uk/foodhygieneratings,-0.39478200000000,WD17 2TJ,2008-02-18,fhrs_5_en-GB,5,,FHRS,5
40894,180 York Way,Watford,Hertfordshire,,York House,Hospitals/Childcare/Caring Premises,5,0,,278502,0,,51.67996000000000,08/00158/FOOD2,163,envhealth@watford.gov.uk,Watford,http://www.watford.gov.uk/foodhygieneratings,-0.37841800000000,WD25 9RX,2013-11-19,fhrs_5_en-GB,5,,FHRS,5
40895,104 Princes Avenue,Watford,,,Yummy Yummy,Takeaway/sandwich shop,7844,10,,278602,5,,51.65153800000000,09/00257/FOOD2,163,envhealth@watford.gov.uk,Watford,http://www.watford.gov.uk/foodhygieneratings,-0.41344600000000,WD18 7SJ,2014-01-15,fhrs_4_en-GB,4,,FHRS,5
40896,131 Vicarage Road,Watford,,,Zaks Grill N Go,Takeaway/sandwich shop,7844,10,,278407,10,,51.64950500000000,07/00251/FOOD2,163,envhealth@watford.gov.uk,Watford,http://www.watford.gov.uk/foodhygieneratings,-0.40543700000000,WD18 0HA,2013-01-07,fhrs_4_en-GB,4,,FHRS,0
40897,82 Whippendell Road,Watford,,,Zeb Super Stores,Retailers - other,4613,10,,278492,10,,51.65464700000000,08/00132/FOOD2,163,envhealth@watford.gov.uk,Watford,http://www.watford.gov.uk/foodhygieneratings,-0.40596500000000,WD18 7LR,2014-05-13,fhrs_3_en-GB,3,,FHRS,10
40898,1 - 3 Euston Avenue,Watford,Hertfordshire,,Zeynap,Retailers - other,4613,5,,705781,5,,51.64998600000000,14/00107/FOOD2,163,envhealth@watford.gov.uk,Watford,http://www.watford.gov.uk/foodhygieneratings,-0.41240200000000,WD18 7SZ,2014-09-24,fhrs_5_en-GB,5,,FHRS,5
40899,89-91 The Parade High Street,Watford,,,Zinco Ristorante,Restaurant/Cafe/Canteen,1,10,,278435,10,,51.65842300000000,08/00014/FOOD2,163,envhealth@watford.gov.uk,Watford,http://www.watford.gov.uk/foodhygieneratings,-0.39997700000000,WD17 1LN,2013-08-14,fhrs_3_en-GB,3,,FHRS,10
40900,3 King Street,Watford,,,Zizzi,Restaurant/Cafe/Canteen,1,0,,510469,0,,51.65346700000000,12/00202/FOOD2,163,envhealth@watford.gov.uk,Watford,http://www.watford.gov.uk/foodhygieneratings,-0.39458600000000,WD18 0BW,2013-02-22,fhrs_5_en-GB,5,,FHRS,5
