,addressline1,addressline2,addressline3,addressline4,businessname,businesstype,businesstypeid,confidenceinmanagement,extractdate,fhrsid,hygiene,itemcount,latitude,localauthoritybusinessid,localauthoritycode,localauthorityemailaddress,localauthorityname,localauthoritywebsite,longitude,postcode,ratingdate,ratingkey,ratingvalue,returncode,schemetype,structural
42016,Symonds Hyde,Hammonds Lane,Hatfield,Hertfordshire,3 Brewers of St Albans,Manufacturers/packers,7839,0,,555440,5,,51.78812800000000,PI/000083859,164,e.health@welhat.gov.uk,Welwyn Hatfield,http://www.welhat.gov.uk,-0.26284100000000,AL10 9BB,2013-03-26,fhrs_5_en-GB,5,,FHRS,5
42017,26 Town Centre,Hatfield,Hertfordshire,,Aaroh,Retailers - other,4613,,,174486,,,51.76414600000000,PI/000029184,164,e.health@welhat.gov.uk,Welwyn Hatfield,http://www.welhat.gov.uk,-0.22551800000000,AL10 0LD,2013-01-10,fhrs_exempt_en-GB,Exempt,,FHRS,
42018,St Albans Road East,Hatfield,Hertfordshire,,Acacia Mews Care Home,Hospitals/Childcare/Caring Premises,5,0,,421673,0,,51.76591700000000,PI/000082309,164,e.health@welhat.gov.uk,Welwyn Hatfield,http://www.welhat.gov.uk,-0.21952100000000,AL10 0FJ,2014-01-08,fhrs_5_en-GB,5,,FHRS,0
42019,Holwell Primary School,Holwell Road,Welwyn Garden City,Hertfordshire,Adonai Kids Club Holwell Primary Sch,Other catering premises,7841,,,182583,,,51.79413100000000,PI/000077327,164,e.health@welhat.gov.uk,Welwyn Hatfield,http://www.welhat.gov.uk,-0.19574400000000,AL7 3RP,2013-05-01,fhrs_exempt_en-GB,Exempt,,FHRS,
42020,Homerswood Primary and Nursery School,Kirklands,Welwyn Garden City,Hertfordshire,Afterskoolerz,School/college/university,7845,0,,680062,5,,51.81745900000000,PI/000085963,164,e.health@welhat.gov.uk,Welwyn Hatfield,http://www.welhat.gov.uk,-0.20298100000000,AL8 7RF,2014-08-20,fhrs_5_en-GB,5,,FHRS,5
42021,11 Parkhouse Court,Hatfield,Hertfordshire,,Aldi,Retailers - supermarkets/hypermarkets,7840,0,,182219,0,,51.76360900000000,PI/000073362,164,e.health@welhat.gov.uk,Welwyn Hatfield,http://www.welhat.gov.uk,-0.24124800000000,AL10 9RQ,2013-01-24,fhrs_5_en-GB,5,,FHRS,5
42022,,,,,All Things Scrummy,Other catering premises,7841,,,700063,,,,PI/000041456,164,e.health@welhat.gov.uk,Welwyn Hatfield,http://www.welhat.gov.uk,,,,fhrs_awaitinginspection_en-GB,AwaitingInspection,,FHRS,
42023,31 Cole Green Lane,Welwyn Garden City,Hertfordshire,,Alliance Pharmacy,Retailers - other,4613,,,181481,,,51.79168900000000,PI/000070584,164,e.health@welhat.gov.uk,Welwyn Hatfield,http://www.welhat.gov.uk,-0.19424700000000,AL7 3PP,2011-08-09,fhrs_exempt_en-GB,Exempt,,FHRS,
42024,8 Harpsfield Broadway,Hatfield,Hertfordshire,,Amar Newsagents,Retailers - other,4613,,,181878,,,51.76366600000000,PI/000071786,164,e.health@welhat.gov.uk,Welwyn Hatfield,http://www.welhat.gov.uk,-0.23902800000000,AL10 9TF,2011-11-04,fhrs_exempt_en-GB,Exempt,,FHRS,
42025,,,,,Amazingcupcakes4u,Other catering premises,7841,5,,323786,5,,,PI/000074528,164,e.health@welhat.gov.uk,Welwyn Hatfield,http://www.welhat.gov.uk,,,2012-04-11,fhrs_5_en-GB,5,,FHRS,5
42026,Lemsford Village Hall,Brocket Road,Welwyn Garden City,Hertfordshire,Annabel's Montessori School,School/college/university,7845,0,,181941,0,,51.79326141702440,PI/000072132,164,e.health@welhat.gov.uk,Welwyn Hatfield,http://www.welhat.gov.uk,-0.23603609027003,,2011-10-04,fhrs_5_en-GB,5,,FHRS,0
42027,15 Market Place,Hatfield,Hertfordshire,,Applebys,Takeaway/sandwich shop,7844,10,,181847,10,,51.76275600000000,PI/000071654,164,e.health@welhat.gov.uk,Welwyn Hatfield,http://www.welhat.gov.uk,-0.22635500000000,AL10 0LJ,2014-09-03,fhrs_3_en-GB,3,,FHRS,10
42028,Applecroft Road,Welwyn Garden City,Hertfordshire,,Applecroft Primary School,School/college/university,7845,0,,181711,0,,51.79752400000000,PI/000071132,164,e.health@welhat.gov.uk,Welwyn Hatfield,http://www.welhat.gov.uk,-0.21836300000000,AL8 6JZ,2015-02-04,fhrs_5_en-GB,5,,FHRS,5
42029,28 High Street,Welwyn,Hertfordshire,,Aqua Ristorante,Restaurant/Cafe/Canteen,1,0,,182234,5,,51.83033200000000,PI/000073398,164,e.health@welhat.gov.uk,Welwyn Hatfield,http://www.welhat.gov.uk,-0.21515300000000,AL6 9EQ,2015-01-15,fhrs_5_en-GB,5,,FHRS,5
42030,Unit B,Fretherne Road,Welwyn Garden City,Hertfordshire,Argos,Retailers - other,4613,,,182154,,,51.80033000000000,PI/000073133,164,e.health@welhat.gov.uk,Welwyn Hatfield,http://www.welhat.gov.uk,-0.20595400000000,AL8 6PZ,2011-12-01,fhrs_exempt_en-GB,Exempt,,FHRS,
42031,,,,,Artisan Spanish Food,Other catering premises,7841,,,718106,,,,PI/000009994,164,e.health@welhat.gov.uk,Welwyn Hatfield,http://www.welhat.gov.uk,,,,fhrs_awaitinginspection_en-GB,AwaitingInspection,,FHRS,
42032,6 Falcon Way,Welwyn Garden City,Hertfordshire,,Artizian Catering-Roche Products Ltd,Restaurant/Cafe/Canteen,1,0,,182132,0,,51.80789400000000,PI/000073047,164,e.health@welhat.gov.uk,Welwyn Hatfield,http://www.welhat.gov.uk,-0.19726900000000,AL7 1TW,2012-03-15,fhrs_5_en-GB,5,,FHRS,5
42033,98 Town Centre,Hatfield,Hertfordshire,,Asda Stores Ltd,Retailers - supermarkets/hypermarkets,7840,0,,181868,5,,51.76363500000000,PI/000071756,164,e.health@welhat.gov.uk,Welwyn Hatfield,http://www.welhat.gov.uk,-0.22739300000000,AL10 0JW,2011-08-03,fhrs_5_en-GB,5,,FHRS,0
42034,Emmanuel House,Travellers Close,Hatfield,Hertfordshire,Ashley Wilde Group Ltd,Restaurant/Cafe/Canteen,1,5,,181962,5,,51.73769400000000,PI/000072246,164,e.health@welhat.gov.uk,Welwyn Hatfield,http://www.welhat.gov.uk,-0.21560500000000,AL9 7LD,2014-06-23,fhrs_4_en-GB,4,,FHRS,10
42035,Birchwood Post Office,125 Birchwood Avenue,Hatfield,,Ashvins,Retailers - other,4613,,,181811,,,51.77045600000000,PI/000071438,164,e.health@welhat.gov.uk,Welwyn Hatfield,http://www.welhat.gov.uk,-0.22538600000000,AL10 0PT,2010-08-25,fhrs_exempt_en-GB,Exempt,,FHRS,
42036,4-6 Howardsgate,Welwyn Garden City,Hertfordshire,,Ask Pizza And Pasta Restaurant,Restaurant/Cafe/Canteen,1,0,,589534,0,,51.80146400000000,PI/000084772,164,e.health@welhat.gov.uk,Welwyn Hatfield,http://www.welhat.gov.uk,-0.20779400000000,AL8 6BQ,2011-08-30,fhrs_5_en-GB,5,,FHRS,5
42037,,,,,At Your Wish Cake Design,Other catering premises,7841,,,631465,,,,PI/000048423,164,e.health@welhat.gov.uk,Welwyn Hatfield,http://www.welhat.gov.uk,,,,fhrs_awaitinginspection_en-GB,AwaitingInspection,,FHRS,
42038,Attimore Hall,Ridgeway,Welwyn Garden City,Hertfordshire,Attimore Barn Pre-School,Other catering premises,7841,0,,182581,5,,51.79963900000000,PI/000077320,164,e.health@welhat.gov.uk,Welwyn Hatfield,http://www.welhat.gov.uk,-0.18147100000000,AL7 2AD,2013-09-10,fhrs_5_en-GB,5,,FHRS,5
42039,Ridgeway,Welwyn Garden City,Hertfordshire,,Attimore Hall,Pub/bar/nightclub,7843,0,,181399,5,,51.79963900000000,PI/000070239,164,e.health@welhat.gov.uk,Welwyn Hatfield,http://www.welhat.gov.uk,-0.18147100000000,AL7 2AD,2015-01-28,fhrs_5_en-GB,5,,FHRS,5
42040,Brocket Park,Marford Road,Welwyn Garden City,Hertfordshire,Auberge Du Lac,Restaurant/Cafe/Canteen,1,0,,175806,0,,,PI/000033953,164,e.health@welhat.gov.uk,Welwyn Hatfield,http://www.welhat.gov.uk,,,2013-08-16,fhrs_5_en-GB,5,,FHRS,5
42041,1 Oaklands Wood,Hatfield,Hertfordshire,,B&B,Hotel/bed & breakfast/guest house,7842,5,,174474,5,,51.76061900000000,PI/000029173,164,e.health@welhat.gov.uk,Welwyn Hatfield,http://www.welhat.gov.uk,-0.22778600000000,AL10 8LU,2010-08-10,fhrs_5_en-GB,5,,FHRS,5
42042,St Andrews Care Home,Great North Road,Welwyn Garden City,Hertfordshire,B&M Care,Hospitals/Childcare/Caring Premises,5,0,,181644,5,,51.80359300000000,PI/000070975,164,e.health@welhat.gov.uk,Welwyn Hatfield,http://www.welhat.gov.uk,-0.22726200000000,AL8 7SR,2015-01-23,fhrs_5_en-GB,5,,FHRS,5
42043,,,,,Bake Me Smile,Other catering premises,7841,,,571531,,,,PI/000083936,164,e.health@welhat.gov.uk,Welwyn Hatfield,http://www.welhat.gov.uk,,,,fhrs_awaitinginspection_en-GB,AwaitingInspection,,FHRS,
42044,Street Record,Southfield,Welwyn Garden City,Hertfordshire,Baps and Wraps,Mobile caterer,7846,5,,631471,5,,,PI/000085057,164,e.health@welhat.gov.uk,Welwyn Hatfield,http://www.welhat.gov.uk,,,2014-02-12,fhrs_5_en-GB,5,,FHRS,5
42045,2 Parkhouse Court,Hatfield,Hertfordshire,,Bar Turan,Restaurant/Cafe/Canteen,1,20,,182211,10,,51.76360900000000,PI/000073339,164,e.health@welhat.gov.uk,Welwyn Hatfield,http://www.welhat.gov.uk,-0.24124800000000,AL10 9RQ,2014-03-11,fhrs_1_en-GB,1,,FHRS,5
42046,Woolmer Green Village Hall,Hall Lane,Woolmer Green,Knebworth,Barleyfields Children's Centre,School/college/university,7845,,,182588,,,51.85216400000000,PI/000077345,164,e.health@welhat.gov.uk,Welwyn Hatfield,http://www.welhat.gov.uk,-0.18340500000000,SG3 6XA,2010-09-23,fhrs_exempt_en-GB,Exempt,,FHRS,
42047,Barn Close,Welwyn Garden City,Hertfordshire,,Barn Theatre,Retailers - other,4613,,,181619,,,51.79836500000000,PI/000070915,164,e.health@welhat.gov.uk,Welwyn Hatfield,http://www.welhat.gov.uk,-0.21393600000000,AL8 6ST,2010-09-20,fhrs_exempt_en-GB,Exempt,,FHRS,
42048,Sherrardswood School,3 Lockleys,Welwyn,Hertfordshire,Barracudas Sherrardswood School,School/college/university,7845,,,182571,,,51.82841000000000,PI/000077282,164,e.health@welhat.gov.uk,Welwyn Hatfield,http://www.welhat.gov.uk,-0.20646400000000,AL6 0BJ,,fhrs_exempt_en-GB,Exempt,,FHRS,
42049,6A High Street,Welwyn,Hertfordshire,,Barrows,Retailers - other,4613,,,555441,,,,PI/000083883,164,e.health@welhat.gov.uk,Welwyn Hatfield,http://www.welhat.gov.uk,,,2013-03-27,fhrs_exempt_en-GB,Exempt,,FHRS,
42050,Comet Way,Hatfield,Hertfordshire,,Beales Hotel,Hotel/bed & breakfast/guest house,7842,5,,174661,5,,51.76247700000000,PI/000029719,164,e.health@welhat.gov.uk,Welwyn Hatfield,http://www.welhat.gov.uk,-0.24129200000000,AL10 9NG,2014-05-19,fhrs_5_en-GB,5,,FHRS,5
42051,148 Daniells,Welwyn Garden City,Hertfordshire,,Beau Monde Cakes,Other catering premises,7841,,,555437,,,51.80457500000000,PI/000039901,164,e.health@welhat.gov.uk,Welwyn Hatfield,http://www.welhat.gov.uk,-0.18434700000000,AL7 1QW,,fhrs_awaitinginspection_en-GB,AwaitingInspection,,FHRS,
42052,11 Stonehills,Welwyn Garden City,Hertfordshire,,Bebo,Restaurant/Cafe/Canteen,1,5,,182151,5,,51.80222900000000,PI/000073123,164,e.health@welhat.gov.uk,Welwyn Hatfield,http://www.welhat.gov.uk,-0.20490700000000,AL8 6NA,2013-08-01,fhrs_5_en-GB,5,,FHRS,5
42053,Great North Road,Hatfield,Hertfordshire,,Bell Bar Service Station,Retailers - other,4613,,,182072,,,51.73373800000000,PI/000072772,164,e.health@welhat.gov.uk,Welwyn Hatfield,http://www.welhat.gov.uk,-0.18918600000000,AL9 6DA,2011-04-21,fhrs_exempt_en-GB,Exempt,,FHRS,
42054,63 The Galleria,Comet Way,Hatfield,Hertfordshire,Bella Italia,Restaurant/Cafe/Canteen,1,,,182239,,,51.76135700000000,PI/000073420,164,e.health@welhat.gov.uk,Welwyn Hatfield,http://www.welhat.gov.uk,-0.24039300000000,AL10 0XY,2015-01-08,fhrs_5_en-GB,5,,FHRS,
42055,3 Great North Road,Hatfield,Hertfordshire,,Bengal Paradise,Restaurant/Cafe/Canteen,1,5,,181960,5,,51.71596500000000,PI/000072215,164,e.health@welhat.gov.uk,Welwyn Hatfield,http://www.welhat.gov.uk,-0.17730200000000,AL9 6LB,2014-02-10,fhrs_5_en-GB,5,,FHRS,5
42056,14 The Arcade,Hatfield,Hertfordshire,,Bengal Spice,Takeaway/sandwich shop,7844,10,,421672,5,,51.76320200000000,PI/000081818,164,e.health@welhat.gov.uk,Welwyn Hatfield,http://www.welhat.gov.uk,-0.22554000000000,AL10 0JY,2013-02-13,fhrs_4_en-GB,4,,FHRS,5
42057,,,,,Bettys Bakes,Other catering premises,7841,5,,421640,5,,,PI/000015364,164,e.health@welhat.gov.uk,Welwyn Hatfield,http://www.welhat.gov.uk,,,2013-10-07,fhrs_5_en-GB,5,,FHRS,5
42058,18 High View,Hatfield,Hertfordshire,,Bhaji's Indian Takeaway & Restaurant,Restaurant/Cafe/Canteen,1,10,,637382,10,,51.74847700000000,PI/000028264,164,e.health@welhat.gov.uk,Welwyn Hatfield,http://www.welhat.gov.uk,-0.23415700000000,AL10 8HZ,2015-01-09,fhrs_3_en-GB,3,,FHRS,10
42059,32 Howardsgate,Welwyn Garden City,Hertfordshire,,Bills Restaurant,Restaurant/Cafe/Canteen,1,,,724471,,,,PI/000017206,164,e.health@welhat.gov.uk,Welwyn Hatfield,http://www.welhat.gov.uk,,,,fhrs_awaitinginspection_en-GB,AwaitingInspection,,FHRS,
42060,41 Cole Green Lane,Welwyn Garden City,Hertfordshire,,Bipash Tandoori Indian Restaurant,Restaurant/Cafe/Canteen,1,20,,182017,15,,51.79168900000000,PI/000072472,164,e.health@welhat.gov.uk,Welwyn Hatfield,http://www.welhat.gov.uk,-0.19424700000000,AL7 3PP,2014-08-28,fhrs_1_en-GB,1,,FHRS,10
42061,Birchwood Avenue,Hatfield,,,Birchwood Avenue Primary School,School/college/university,7845,0,,182310,0,,51.76940400000000,PI/000073827,164,e.health@welhat.gov.uk,Welwyn Hatfield,http://www.welhat.gov.uk,-0.22713800000000,AL10 0PS,2013-05-03,fhrs_5_en-GB,5,,FHRS,5
42062,Birchway,Hatfield,Hertfordshire,,Birchwood Nursery School,School/college/university,7845,5,,181863,5,,51.76846313476563,PI/000071737,164,e.health@welhat.gov.uk,Welwyn Hatfield,http://www.welhat.gov.uk,-0.22550791501999,AL10 0PD,2014-03-26,fhrs_5_en-GB,5,,FHRS,5
42063,131 Birchwood Avenue,Hatfield,Hertfordshire,,Birchwood Wines,Retailers - other,4613,,,516784,,,51.77045600000000,PI/000025754,164,e.health@welhat.gov.uk,Welwyn Hatfield,http://www.welhat.gov.uk,-0.22538600000000,AL10 0PT,2013-03-13,fhrs_exempt_en-GB,Exempt,,FHRS,
42064,Woods Avenue,Hatfield,,,Bishops Hatfield Girls School,School/college/university,7845,5,,181817,5,,51.75886200000000,PI/000071475,164,e.health@welhat.gov.uk,Welwyn Hatfield,http://www.welhat.gov.uk,-0.22631900000000,AL10 8NL,2013-09-13,fhrs_5_en-GB,5,,FHRS,5
42065,,,,,Black Cat Cookie Company,Mobile caterer,7846,,,668505,,,,PI/000004504,164,e.health@welhat.gov.uk,Welwyn Hatfield,http://www.welhat.gov.uk,,,,fhrs_awaitinginspection_en-GB,AwaitingInspection,,FHRS,
42066,41 Wigmores North,Welwyn Garden City,Hertfordshire,,Blacks,Retailers - other,4613,,,182240,,,51.80224500000000,PI/000073421,164,e.health@welhat.gov.uk,Welwyn Hatfield,http://www.welhat.gov.uk,-0.20654500000000,AL8 6PG,2010-09-17,fhrs_exempt_en-GB,Exempt,,FHRS,
42067,1 The Boulevard,Welwyn Garden City,Hertfordshire,,Blue Apple Catering - Paypoint,Restaurant/Cafe/Canteen,1,0,,631462,0,,51.80826700000000,PI/000033946,164,e.health@welhat.gov.uk,Welwyn Hatfield,http://www.welhat.gov.uk,-0.19229300000000,AL7 1EL,2015-01-14,fhrs_5_en-GB,5,,FHRS,5
42068,36A Station Road,Cuffley,Potters Bar,Hertfordshire,Blue Sea Fish & Chips,Takeaway/sandwich shop,7844,5,,181341,5,,51.70781300000000,PI/000070069,164,e.health@welhat.gov.uk,Welwyn Hatfield,http://www.welhat.gov.uk,-0.11149900000000,EN6 4HE,2014-02-18,fhrs_5_en-GB,5,,FHRS,5
42069,20 High View,Hatfield,Hertfordshire,,Bobs Family Butcher,Retailers - other,4613,5,,182048,5,,51.74847700000000,PI/000072632,164,e.health@welhat.gov.uk,Welwyn Hatfield,http://www.welhat.gov.uk,-0.23415700000000,AL10 8HZ,2013-06-13,fhrs_5_en-GB,5,,FHRS,5
42070,Oldings Corner,Great North Road,Hatfield,Hertfordshire,Bon Appetit,Mobile caterer,7846,5,,185014,5,,51.77634300000000,PI/500005041,164,e.health@welhat.gov.uk,Welwyn Hatfield,http://www.welhat.gov.uk,-0.22041500000000,AL9 5JY,2014-02-14,fhrs_5_en-GB,5,,FHRS,5
42071,1 Chalgrove,Welwyn Garden City,Hertfordshire,,Bon Bon Buffets,Retailers - other,4613,,,456518,,,51.80155000000000,PI/000040273,164,e.health@welhat.gov.uk,Welwyn Hatfield,http://www.welhat.gov.uk,-0.15979800000000,AL7 2QJ,2013-05-01,fhrs_exempt_en-GB,Exempt,,FHRS,
42072,47 Town Centre,Hatfield,Hertfordshire,,Boots Co Plc,Retailers - other,4613,,,181840,,,51.76326900000000,PI/000071614,164,e.health@welhat.gov.uk,Welwyn Hatfield,http://www.welhat.gov.uk,-0.22639300000000,AL10 0JT,2011-04-05,fhrs_exempt_en-GB,Exempt,,FHRS,
42073,126 Peartree Lane,Welwyn Garden City,Hertfordshire,,Boots Pharmacy,Retailers - other,4613,,,182301,,,51.79579300000000,PI/000073765,164,e.health@welhat.gov.uk,Welwyn Hatfield,http://www.welhat.gov.uk,-0.19973900000000,AL7 3XW,2011-12-13,fhrs_exempt_en-GB,Exempt,,FHRS,
42074,Units 31 to 31A,The Howard Centre,Howardsgate,Welwyn Garden City,Boots The Chemist,Retailers - other,4613,,,181658,,,51.80121700000000,PI/000071005,164,e.health@welhat.gov.uk,Welwyn Hatfield,http://www.welhat.gov.uk,-0.20458400000000,AL8 6HA,2012-02-29,fhrs_exempt_en-GB,Exempt,,FHRS,
42075,The Ryde School,Pleasant Rise,Hatfield,,Breakfast Club The Ryde School,School/college/university,7845,5,,479968,5,,51.77188500000000,PI/000083866,164,e.health@welhat.gov.uk,Welwyn Hatfield,http://www.welhat.gov.uk,-0.21288000000000,AL9 5DR,2012-11-29,fhrs_5_en-GB,5,,FHRS,5
42076,Breaks Manor,Link Drive,Hatfield,Hertfordshire,Breaks Manor Youth Centre,Restaurant/Cafe/Canteen,1,10,,182065,5,,51.76132800000000,PI/000072739,164,e.health@welhat.gov.uk,Welwyn Hatfield,http://www.welhat.gov.uk,-0.22233900000000,AL10 8TP,2012-08-16,fhrs_4_en-GB,4,,FHRS,5
42077,4 Parkhouse Court,Hatfield,Hertfordshire,,Bright Comets Day Nursery,School/college/university,7845,0,,182212,5,,51.76360900000000,PI/000073341,164,e.health@welhat.gov.uk,Welwyn Hatfield,http://www.welhat.gov.uk,-0.24124800000000,AL10 9RQ,2013-07-11,fhrs_5_en-GB,5,,FHRS,5
42078,39 Fretherne Road,Welwyn Garden City,Hertfordshire,,British Heart Foundation,Retailers - other,4613,,,173900,,,51.80065000000000,PI/000027343,164,e.health@welhat.gov.uk,Welwyn Hatfield,http://www.welhat.gov.uk,-0.20575300000000,AL8 6NS,2013-03-06,fhrs_exempt_en-GB,Exempt,,FHRS,
42079,Brocket Hall,,,,Brocket Hall Golf Club,Restaurant/Cafe/Canteen,1,5,,200308,5,,51.79999923706055,PI/000073476,164,e.health@welhat.gov.uk,Welwyn Hatfield,http://www.welhat.gov.uk,-0.23332999646664,,2011-12-12,fhrs_4_en-GB,4,,FHRS,10
42080,Brocket Hall,Brocket Park,Marford Road,Welwyn Garden City,Brocket Hall International Limited,Restaurant/Cafe/Canteen,1,5,,182117,5,,51.80176900000000,PI/000073008,164,e.health@welhat.gov.uk,Welwyn Hatfield,http://www.welhat.gov.uk,-0.24411400000000,AL8 7XG,2013-08-16,fhrs_5_en-GB,5,,FHRS,5
42081,Brookmans Park Hotel,Bradmore Green,Hatfield,Hertfordshire,Brookmans,Hotel/bed & breakfast/guest house,7842,0,,181786,5,,51.72237800000000,PI/000071367,164,e.health@welhat.gov.uk,Welwyn Hatfield,http://www.welhat.gov.uk,-0.20248200000000,AL9 7QW,2014-10-02,fhrs_5_en-GB,5,,FHRS,5
42082,29 Bradmore Green,Brookmans Park,Hatfield,Hertfordshire,Brookmans Bakery,Retailers - other,4613,0,,181776,5,,51.72227000000000,PI/000071328,164,e.health@welhat.gov.uk,Welwyn Hatfield,http://www.welhat.gov.uk,-0.20189300000000,AL9 7QR,2013-07-26,fhrs_5_en-GB,5,,FHRS,5
42083,Golf Club Road,Brookmans Park,Hatfield,Hertfordshire,Brookmans Park Golf Club,Restaurant/Cafe/Canteen,1,20,,182157,10,,51.72698900000000,PI/000073137,164,e.health@welhat.gov.uk,Welwyn Hatfield,http://www.welhat.gov.uk,-0.18709600000000,AL9 7AT,2014-08-08,fhrs_1_en-GB,1,,FHRS,10
42084,25 Bradmore Green,Brookmans Park,Hatfield,Hertfordshire,Brookmans Park News,Retailers - other,4613,,,181773,,,51.72227000000000,PI/000071326,164,e.health@welhat.gov.uk,Welwyn Hatfield,http://www.welhat.gov.uk,-0.20189300000000,AL9 7QR,2011-07-25,fhrs_exempt_en-GB,Exempt,,FHRS,
42085,Bradmore Way,Brookmans Park,Hatfield,,Brookmans Park Primary School,School/college/university,7845,0,,173860,0,,51.72423500000000,PI/000027219,164,e.health@welhat.gov.uk,Welwyn Hatfield,http://www.welhat.gov.uk,-0.20156900000000,AL9 7QY,2013-05-16,fhrs_5_en-GB,5,,FHRS,0
42086,Oaklands Avenue,Hatfield,Hertfordshire,,Brookmans Park United Reformed Church,Other catering premises,7841,,,181794,,,51.71924300000000,PI/000071401,164,e.health@welhat.gov.uk,Welwyn Hatfield,http://www.welhat.gov.uk,-0.20152100000000,AL9 7UJ,2012-12-11,fhrs_exempt_en-GB,Exempt,,FHRS,
42087,95 Bradmore Green,Brookmans Park,Hatfield,Hertfordshire,Brookmans Wines,Retailers - other,4613,,,181783,,,51.72161800000000,PI/000071339,164,e.health@welhat.gov.uk,Welwyn Hatfield,http://www.welhat.gov.uk,-0.20277300000000,AL9 7QT,2011-03-29,fhrs_exempt_en-GB,Exempt,,FHRS,
42088,St Christophers Nursing Home,Drakes Way,Hatfield,Hertfordshire,BUPA Care Homes,Hospitals/Childcare/Caring Premises,5,0,,181823,5,,51.74993600000000,PI/000071510,164,e.health@welhat.gov.uk,Welwyn Hatfield,http://www.welhat.gov.uk,-0.22478500000000,AL10 8XY,2014-08-01,fhrs_5_en-GB,5,,FHRS,5
42089,131 The Galleria,Comet Way,Hatfield,,Burger King (Hatfield),Restaurant/Cafe/Canteen,1,0,,181990,0,,51.76091400000000,PI/000072355,164,e.health@welhat.gov.uk,Welwyn Hatfield,http://www.welhat.gov.uk,-0.24141000000000,AL10 0XR,2012-02-28,fhrs_5_en-GB,5,,FHRS,0
42090,,,,,Burrowfields Snack Bar,Mobile caterer,7846,20,,611316,15,,,PI/000084224,164,e.health@welhat.gov.uk,Welwyn Hatfield,http://www.welhat.gov.uk,,,2015-01-13,fhrs_1_en-GB,1,,FHRS,10
42091,1 Mardley Hill,Welwyn,Hertfordshire,,Busy Bee Day Nursery,Restaurant/Cafe/Canteen,1,0,,181474,0,,51.84494100000000,PI/000070558,164,e.health@welhat.gov.uk,Welwyn Hatfield,http://www.welhat.gov.uk,-0.18905300000000,AL6 0UE,2013-08-06,fhrs_5_en-GB,5,,FHRS,5
42092,Units 1 To 2,Shire Park,Falcon Way,Welwyn Garden City,Busy Bee's,Restaurant/Cafe/Canteen,1,5,,181411,0,,51.81054300000000,PI/000070304,164,e.health@welhat.gov.uk,Welwyn Hatfield,http://www.welhat.gov.uk,-0.19410300000000,AL7 1TN,2014-08-01,fhrs_5_en-GB,5,,FHRS,0
42093,130 The Galleria,Comet Way,Hatfield,,Cafe Giardino Deli,Restaurant/Cafe/Canteen,1,5,,175332,5,,,PI/000031923,164,e.health@welhat.gov.uk,Welwyn Hatfield,http://www.welhat.gov.uk,,,2014-03-24,fhrs_5_en-GB,5,,FHRS,5
42094,125 The Galleria,Comet Way,Hatfield,,Cafe Nero,Restaurant/Cafe/Canteen,1,0,,182742,0,,,PI/000081685,164,e.health@welhat.gov.uk,Welwyn Hatfield,http://www.welhat.gov.uk,,,2011-07-04,fhrs_5_en-GB,5,,FHRS,0
42095,31 Howardsgate,Welwyn Garden City,Hertfordshire,,Cafe Nero,Restaurant/Cafe/Canteen,1,5,,170299,5,,51.80190000000000,PI/000017205,164,e.health@welhat.gov.uk,Welwyn Hatfield,http://www.welhat.gov.uk,-0.20634100000000,AL8 6AP,2012-07-30,fhrs_5_en-GB,5,,FHRS,5
42096,The University Of Hertfordshire,De Haviland Campus,Mosquito Way,Hatfield,Cafe Sport,Restaurant/Cafe/Canteen,1,0,,182009,5,,51.76007000000000,PI/000072450,164,e.health@welhat.gov.uk,Welwyn Hatfield,http://www.welhat.gov.uk,-0.25052900000000,AL10 9EU,2013-11-13,fhrs_5_en-GB,5,,FHRS,5
42097,Learning Resources Centre,de Havilland Campus,Mosquito Way,Hatfield,Cafe Study,Restaurant/Cafe/Canteen,1,5,,637385,5,,,PI/000077651,164,e.health@welhat.gov.uk,Welwyn Hatfield,http://www.welhat.gov.uk,,,2012-10-30,fhrs_5_en-GB,5,,FHRS,5
42098,15 Wigmores South,Welwyn Garden City,Hertfordshire,,Cafe Trio,Restaurant/Cafe/Canteen,1,5,,182264,10,,51.80111000000000,PI/000073513,164,e.health@welhat.gov.uk,Welwyn Hatfield,http://www.welhat.gov.uk,-0.20760500000000,AL8 6PL,2013-02-22,fhrs_4_en-GB,4,,FHRS,5
42099,,,,,Cafe4U,Other catering premises,7841,,,447170,,,,PI/000039749,164,e.health@welhat.gov.uk,Welwyn Hatfield,http://www.welhat.gov.uk,,,,fhrs_awaitinginspection_en-GB,AwaitingInspection,,FHRS,
42100,,,,,Cakes and Cookies,Other catering premises,7841,0,,163919,0,,,PI/000005560,164,e.health@welhat.gov.uk,Welwyn Hatfield,http://www.welhat.gov.uk,,,2011-07-26,fhrs_5_en-GB,5,,FHRS,5
42101,98 Haldens,Welwyn Garden City,Hertfordshire,,Cakes and Sugarcraft Shop,Retailers - other,4613,5,,182225,5,,51.81243300000000,PI/000073370,164,e.health@welhat.gov.uk,Welwyn Hatfield,http://www.welhat.gov.uk,-0.19009600000000,AL7 1DD,2011-08-23,fhrs_5_en-GB,5,,FHRS,5
42102,,,,,Cakes by Emily Ann,Other catering premises,7841,,,594355,,,,PI/000045292,164,e.health@welhat.gov.uk,Welwyn Hatfield,http://www.welhat.gov.uk,,,,fhrs_awaitinginspection_en-GB,AwaitingInspection,,FHRS,
42103,,,,,Cakes by Mey,Other catering premises,7841,0,,626511,5,,,PI/000031045,164,e.health@welhat.gov.uk,Welwyn Hatfield,http://www.welhat.gov.uk,,,2014-11-10,fhrs_5_en-GB,5,,FHRS,5
42104,,,,,Cakes by World of Epiphany,Other catering premises,7841,5,,421658,5,,,PI/000039623,164,e.health@welhat.gov.uk,Welwyn Hatfield,http://www.welhat.gov.uk,,,2013-10-07,fhrs_5_en-GB,5,,FHRS,5
42105,The Campus,Welwyn Garden City,Hertfordshire,,Campus West,Restaurant/Cafe/Canteen,1,10,,181927,10,,51.80507900000000,PI/000072060,164,e.health@welhat.gov.uk,Welwyn Hatfield,http://www.welhat.gov.uk,-0.20666400000000,,2012-10-05,fhrs_3_en-GB,3,,FHRS,5
42106,8 Great North Road,Welwyn,Hertfordshire,,Candour Care Services - Broadview,Hospitals/Childcare/Caring Premises,5,0,,173212,0,,51.83830000000000,PI/000025151,164,e.health@welhat.gov.uk,Welwyn Hatfield,http://www.welhat.gov.uk,-0.20279000000000,AL6 0PL,2014-06-13,fhrs_5_en-GB,5,,FHRS,5
42107,10 Great North Road,Welwyn,Hertfordshire,,Candour Care Services - Hillcrest,Hospitals/Childcare/Caring Premises,5,0,,499283,0,,51.83830000000000,PI/000044889,164,e.health@welhat.gov.uk,Welwyn Hatfield,http://www.welhat.gov.uk,-0.20279000000000,AL6 0PL,2014-06-13,fhrs_5_en-GB,5,,FHRS,0
42108,6 Great North Road,Welwyn,Hertfordshire,,Candour Care Services - Homeside,Hospitals/Childcare/Caring Premises,5,0,,173209,0,,51.83830000000000,PI/000025150,164,e.health@welhat.gov.uk,Welwyn Hatfield,http://www.welhat.gov.uk,-0.20279000000000,AL6 0PL,2014-06-13,fhrs_5_en-GB,5,,FHRS,5
42109,University of Hertfordshire,College Lane,Hatfield,Hertfordshire,Cantina Cafe,Restaurant/Cafe/Canteen,1,5,,680061,5,,51.75288600000000,PI/000085959,164,e.health@welhat.gov.uk,Welwyn Hatfield,http://www.welhat.gov.uk,-0.24218600000000,AL10 9AB,2014-12-16,fhrs_5_en-GB,5,,FHRS,5
42110,Unit 2,41 Town Centre,Hatfield,,Card Factory,Retailers - other,4613,,,566963,,,51.76379600000000,PI/000047418,164,e.health@welhat.gov.uk,Welwyn Hatfield,http://www.welhat.gov.uk,-0.22676300000000,AL10 0JJ,,fhrs_exempt_en-GB,Exempt,,FHRS,
42111,4 Nimrod Drive,Hatfield,Hertfordshire,,Care Home,Hospitals/Childcare/Caring Premises,5,0,,421629,0,,51.76276600000000,PI/000000267,164,e.health@welhat.gov.uk,Welwyn Hatfield,http://www.welhat.gov.uk,-0.25046800000000,AL10 9LS,2012-09-21,fhrs_5_en-GB,5,,FHRS,0
42112,Sherwood Court,The Common,Hatfield,Hertfordshire,Care Tech Community Services Ltd,Hospitals/Childcare/Caring Premises,5,5,,181870,5,,51.76337900000000,PI/000071764,164,e.health@welhat.gov.uk,Welwyn Hatfield,http://www.welhat.gov.uk,-0.23009800000000,AL10 0NX,2014-03-24,fhrs_5_en-GB,5,,FHRS,5
42113,,,,,Casa Di Dolci,Other catering premises,7841,5,,421630,5,,,PI/000001126,164,e.health@welhat.gov.uk,Welwyn Hatfield,http://www.welhat.gov.uk,,,2012-09-05,fhrs_5_en-GB,5,,FHRS,5
42114,,,,,Caterer,Other catering premises,7841,,,555428,,,,PI/000006121,164,e.health@welhat.gov.uk,Welwyn Hatfield,http://www.welhat.gov.uk,,,,fhrs_awaitinginspection_en-GB,AwaitingInspection,,FHRS,
42115,Royal Veterinary College,Hawkshead Lane,Hatfield,Hertfordshire,Catering by Churchill,Other catering premises,7841,0,,687646,5,,51.71423400000000,PI/000085967,164,e.health@welhat.gov.uk,Welwyn Hatfield,http://www.welhat.gov.uk,-0.21031800000000,AL9 7TA,2014-11-24,fhrs_5_en-GB,5,,FHRS,5
42116,Mitsubishi Electric Uk Ltd,Travellers Lane,Welham Green,Hatfield,Catermasters,Restaurant/Cafe/Canteen,1,5,,181905,5,,51.74326700000000,PI/000071955,164,e.health@welhat.gov.uk,Welwyn Hatfield,http://www.welhat.gov.uk,-0.22020900000000,AL10 8XB,2013-09-10,fhrs_5_en-GB,5,,FHRS,5
42117,Apollo Court,2 Bishops Square,Hatfield,Hertfordshire,Catermasters - Henkel Ltd,Restaurant/Cafe/Canteen,1,5,,181944,5,,51.76216100000000,PI/000072147,164,e.health@welhat.gov.uk,Welwyn Hatfield,http://www.welhat.gov.uk,-0.24302800000000,AL10 9EX,2011-06-02,fhrs_5_en-GB,5,,FHRS,5
42118,90 Peartree Lane,Welwyn Garden City,Hertfordshire,,Central Herts YMCA,Restaurant/Cafe/Canteen,1,0,,181490,0,,51.79795000000000,PI/000070622,164,e.health@welhat.gov.uk,Welwyn Hatfield,http://www.welhat.gov.uk,-0.19731800000000,AL7 3UL,2013-04-11,fhrs_5_en-GB,5,,FHRS,0
42119,Pine Grove,Brookmans Park,Hatfield,,Chancellors School,School/college/university,7845,5,,174200,5,,51.72743900000000,PI/000028330,164,e.health@welhat.gov.uk,Welwyn Hatfield,http://www.welhat.gov.uk,-0.18366000000000,AL9 7BN,2013-09-24,fhrs_5_en-GB,5,,FHRS,5
42120,89 Bradmore Green,Brookmans Park,Hatfield,Hertfordshire,Charcoal Grill,Takeaway/sandwich shop,7844,0,,516794,5,,51.72161800000000,PI/000083894,164,e.health@welhat.gov.uk,Welwyn Hatfield,http://www.welhat.gov.uk,-0.20277300000000,AL9 7QT,2013-02-26,fhrs_5_en-GB,5,,FHRS,5
42121,121 Millwards,Hatfield,Hertfordshire,,Charlies Delivered,Mobile caterer,7846,10,,456515,5,,51.74739600000000,PI/000006588,164,e.health@welhat.gov.uk,Welwyn Hatfield,http://www.welhat.gov.uk,-0.22508800000000,AL10 8UU,2012-12-28,fhrs_4_en-GB,4,,FHRS,5
42122,,,,,Charlies Delivered,Mobile caterer,7846,,,687642,,,,PI/000006591,164,e.health@welhat.gov.uk,Welwyn Hatfield,http://www.welhat.gov.uk,,,,fhrs_awaitinginspection_en-GB,AwaitingInspection,,FHRS,
42123,6 St Albans Road East,Hatfield,Hertfordshire,,Charlies Fish & Chips,Restaurant/Cafe/Canteen,1,0,,181742,0,,51.76716300000000,PI/000071202,164,e.health@welhat.gov.uk,Welwyn Hatfield,http://www.welhat.gov.uk,-0.21748600000000,AL10 0HB,2013-03-21,fhrs_5_en-GB,5,,FHRS,5
42124,Oaklands College,The Campus,Welwyn Garden City,Hertfordshire,Chartwells Refectory,School/college/university,7845,5,,181573,0,,,PI/000070775,164,e.health@welhat.gov.uk,Welwyn Hatfield,http://www.welhat.gov.uk,,,2015-01-15,fhrs_4_en-GB,4,,FHRS,10
42125,13 Parkhouse Court,Hatfield,Hertfordshire,,China East Buffet,Restaurant/Cafe/Canteen,1,10,,182222,15,,51.76360900000000,PI/000073364,164,e.health@welhat.gov.uk,Welwyn Hatfield,http://www.welhat.gov.uk,-0.24124800000000,AL10 9RQ,2015-01-12,fhrs_2_en-GB,2,,FHRS,15
42126,16 Bradmore Green,Brookmans Park,Hatfield,Hertfordshire,China Red,Restaurant/Cafe/Canteen,1,5,,181785,5,,51.72237800000000,PI/000071364,164,e.health@welhat.gov.uk,Welwyn Hatfield,http://www.welhat.gov.uk,-0.20248200000000,AL9 7QW,2014-03-25,fhrs_5_en-GB,5,,FHRS,5
42127,16-18 Market Place,Hatfield,Hertfordshire,,China Sky,Restaurant/Cafe/Canteen,1,5,,181899,5,,51.76275700000000,PI/000071901,164,e.health@welhat.gov.uk,Welwyn Hatfield,http://www.welhat.gov.uk,-0.22645600000000,AL10 0LN,2013-05-02,fhrs_5_en-GB,5,,FHRS,5
42128,70 The Galleria,Comet Way,Hatfield,Hertfordshire,Chiquito,Restaurant/Cafe/Canteen,1,0,,182735,10,,51.76135700000000,PI/000081657,164,e.health@welhat.gov.uk,Welwyn Hatfield,http://www.welhat.gov.uk,-0.24039300000000,AL10 0XY,2014-09-08,fhrs_4_en-GB,4,,FHRS,5
42129,,,,,Choice Buffets,Other catering premises,7841,5,,555435,5,,,PI/000036390,164,e.health@welhat.gov.uk,Welwyn Hatfield,http://www.welhat.gov.uk,,,2013-04-25,fhrs_5_en-GB,5,,FHRS,0
42130,25 St Albans Road East,Hatfield,Hertfordshire,,Christ Church United Reformed Church,Other catering premises,7841,,,181871,,,51.76456400000000,PI/000071766,164,e.health@welhat.gov.uk,Welwyn Hatfield,http://www.welhat.gov.uk,-0.22108100000000,AL10 0EJ,2010-06-14,fhrs_exempt_en-GB,Exempt,,FHRS,
42131,110 Parkway,Welwyn Garden City,Hertfordshire,,Christchurch Baptist,Restaurant/Cafe/Canteen,1,5,,181667,5,,51.79693100000000,PI/000071028,164,e.health@welhat.gov.uk,Welwyn Hatfield,http://www.welhat.gov.uk,-0.21190400000000,AL8 6HN,2014-02-13,fhrs_5_en-GB,5,,FHRS,5
42132,,,,,Christmas Cottage,Hotel/bed & breakfast/guest house,7842,10,,200302,5,,,PI/000024880,164,e.health@welhat.gov.uk,Welwyn Hatfield,http://www.welhat.gov.uk,,,2012-02-06,fhrs_4_en-GB,4,,FHRS,5
42133,Hatfield Railway Station,79 Great North Road,Hatfield,Hertfordshire,Chuggs,Restaurant/Cafe/Canteen,1,5,,555439,5,,51.76390500000000,PI/000083849,164,e.health@welhat.gov.uk,Welwyn Hatfield,http://www.welhat.gov.uk,-0.21557100000000,AL9 5AB,2013-04-11,fhrs_5_en-GB,5,,FHRS,5
42134,St Francis Of Assisi Church,Church Road,Welwyn Garden City,Hertfordshire,Church Hall,Other catering premises,7841,,,181956,,,,PI/000072180,164,e.health@welhat.gov.uk,Welwyn Hatfield,http://www.welhat.gov.uk,,,2012-02-27,fhrs_exempt_en-GB,Exempt,,FHRS,
42135,St Marys Church,Church Street,Welwyn,Hertfordshire,Church Hall,Other catering premises,7841,0,,182590,0,,51.83156204223633,PI/000077349,164,e.health@welhat.gov.uk,Welwyn Hatfield,http://www.welhat.gov.uk,-0.21391439437866,AL6 9LX,2010-09-23,fhrs_5_en-GB,5,,FHRS,0
42136,St Michael and All Angels Church,Birchwood Avenue,Hatfield,Hertfordshire,Church Hall,Other catering premises,7841,,,182603,,,,PI/000077573,164,e.health@welhat.gov.uk,Welwyn Hatfield,http://www.welhat.gov.uk,,,,fhrs_exempt_en-GB,Exempt,,FHRS,
42137,Gosling Sports Park,Stanborough Road,Welwyn Garden City,Hertfordshire,Churchill Catering,Restaurant/Cafe/Canteen,1,5,,456520,5,,51.79071800000000,PI/000048433,164,e.health@welhat.gov.uk,Welwyn Hatfield,http://www.welhat.gov.uk,-0.21306300000000,AL8 6XE,2015-02-03,fhrs_5_en-GB,5,,FHRS,5
42138,Hertfordshire Constabularly,Stanborough Road,Welwyn Garden City,Hertfordshire,Churchill Catering Ltd,Restaurant/Cafe/Canteen,1,,,499288,,,51.78720200000000,PI/000083884,164,e.health@welhat.gov.uk,Welwyn Hatfield,http://www.welhat.gov.uk,-0.21726200000000,AL8 6XF,,fhrs_awaitinginspection_en-GB,AwaitingInspection,,FHRS,
42139,Christ the King Church,Haldens,Welwyn Garden City,Hertfordshire,Circles Montessori,Other catering premises,7841,5,,182451,5,,,PI/000075395,164,e.health@welhat.gov.uk,Welwyn Hatfield,http://www.welhat.gov.uk,,,2013-05-09,fhrs_5_en-GB,5,,FHRS,5
42140,25 Stonehills,Welwyn Garden City,Hertfordshire,,Classic Fish & Chips,Takeaway/sandwich shop,7844,0,,173903,0,,51.80222900000000,PI/000027352,164,e.health@welhat.gov.uk,Welwyn Hatfield,http://www.welhat.gov.uk,-0.20490700000000,AL8 6NA,2011-09-08,fhrs_5_en-GB,5,,FHRS,0
42141,University Of Hertfordshire,De Havilland Campus,Mosquito Way,Hatfield,Club De Havilland,Pub/bar/nightclub,7843,0,,182005,0,,51.76007000000000,PI/000072426,164,e.health@welhat.gov.uk,Welwyn Hatfield,http://www.welhat.gov.uk,-0.25052900000000,AL10 9EU,2014-01-13,fhrs_5_en-GB,5,,FHRS,5
42142,Palace Yard,Hatfield Park,Great North Road,Hatfield,Coach House,Restaurant/Cafe/Canteen,1,0,,182166,0,,51.76140300000000,PI/000073164,164,e.health@welhat.gov.uk,Welwyn Hatfield,http://www.welhat.gov.uk,-0.21129400000000,AL9 5NE,2014-03-21,fhrs_5_en-GB,5,,FHRS,5
42143,,,,,Cocobellacakes,Other catering premises,7841,,,718107,,,,PI/000012149,164,e.health@welhat.gov.uk,Welwyn Hatfield,http://www.welhat.gov.uk,,,,fhrs_awaitinginspection_en-GB,AwaitingInspection,,FHRS,
42144,The Commons,Welwyn Garden City,Hertfordshire,,Commonswood School,School/college/university,7845,5,,178196,5,,51.78438000000000,PI/000045782,164,e.health@welhat.gov.uk,Welwyn Hatfield,http://www.welhat.gov.uk,-0.17744500000000,AL7 4RU,2013-11-29,fhrs_5_en-GB,5,,FHRS,5
42145,Ocado Ltd,Gypsy Moth Avenue,Hatfield,,Company Shop Ltd,Retailers - other,4613,,,182574,,,51.77119100000000,PI/000077307,164,e.health@welhat.gov.uk,Welwyn Hatfield,http://www.welhat.gov.uk,-0.24198200000000,AL10 9BD,2012-01-26,fhrs_exempt_en-GB,Exempt,,FHRS,
42146,Asda Superstore,98 Town Centre,Hatfield,Hertfordshire,Compass Asda Cafe Hatfield,Restaurant/Cafe/Canteen,1,0,,182209,0,,51.76363500000000,PI/000073337,164,e.health@welhat.gov.uk,Welwyn Hatfield,http://www.welhat.gov.uk,-0.22739300000000,AL10 0JW,2014-03-24,fhrs_5_en-GB,5,,FHRS,5
42147,Hatfield Avenue,Hatfield,Hertfordshire,,Computer Centre Uk Ltd,Restaurant/Cafe/Canteen,1,,,182063,,,51.77273600000000,PI/000072733,164,e.health@welhat.gov.uk,Welwyn Hatfield,http://www.welhat.gov.uk,-0.24367600000000,AL10 9TW,2014-03-26,fhrs_exempt_en-GB,Exempt,,FHRS,
42148,Fielder Centre,Hatfield Avenue,Hatfield,,Conference Hertfordshire,Restaurant/Cafe/Canteen,1,5,,178417,5,,51.77548800000000,PI/000046964,164,e.health@welhat.gov.uk,Welwyn Hatfield,http://www.welhat.gov.uk,-0.24913500000000,AL10 9TP,2013-10-02,fhrs_5_en-GB,5,,FHRS,5
42149,Maynard House,1 The Common,Hatfield,Hertfordshire,Conservative Club (Hatfield) Ltd,Pub/bar/nightclub,7843,10,,181828,10,,51.76490900000000,PI/000071542,164,e.health@welhat.gov.uk,Welwyn Hatfield,http://www.welhat.gov.uk,-0.22661800000000,AL10 0NF,2014-09-08,fhrs_3_en-GB,3,,FHRS,10
42150,10 Wilshere Road,Welwyn,Hertfordshire,,Convenience Store,Retailers - other,4613,10,,499281,5,,51.82931100000000,PI/000027121,164,e.health@welhat.gov.uk,Welwyn Hatfield,http://www.welhat.gov.uk,-0.22491700000000,AL6 9PX,2012-12-07,fhrs_3_en-GB,3,,FHRS,10
42151,98 Bridge Road East,Welwyn Garden City,Hertfordshire,,Cost Cutter Supermarket,Retailers - supermarkets/hypermarkets,7840,5,,182018,10,,51.79879400000000,PI/000072475,164,e.health@welhat.gov.uk,Welwyn Hatfield,http://www.welhat.gov.uk,-0.18968500000000,AL7 1JN,2015-01-06,fhrs_4_en-GB,4,,FHRS,5
42152,50 Howardsgate,Welwyn Garden City,Hertfordshire,,Costa,Restaurant/Cafe/Canteen,1,10,,182105,5,,51.80120400000000,PI/000072974,164,e.health@welhat.gov.uk,Welwyn Hatfield,http://www.welhat.gov.uk,-0.20667300000000,AL8 6BJ,2011-06-17,fhrs_3_en-GB,3,,FHRS,10
42153,Next,Comet Way,Hatfield,Hertfordshire,Costa @ Next,Restaurant/Cafe/Canteen,1,5,,323793,5,,51.77607300000000,PI/000083835,164,e.health@welhat.gov.uk,Welwyn Hatfield,http://www.welhat.gov.uk,-0.22341200000000,AL9 5JU,2014-07-31,fhrs_5_en-GB,5,,FHRS,5
42154,67 The Galleria,Comet Way,Hatfield,Hertfordshire,Costa @ Odeon Cineama,Restaurant/Cafe/Canteen,1,,,706080,,,51.76135700000000,PI/000085986,164,e.health@welhat.gov.uk,Welwyn Hatfield,http://www.welhat.gov.uk,-0.24039300000000,AL10 0XY,,fhrs_awaitinginspection_en-GB,AwaitingInspection,,FHRS,
42155,61 The Galleria,Comet Way,Hatfield,Hertfordshire,Costa Coffee,Restaurant/Cafe/Canteen,1,5,,182708,5,,51.76135700000000,PI/000081069,164,e.health@welhat.gov.uk,Welwyn Hatfield,http://www.welhat.gov.uk,-0.24039300000000,AL10 0XX,2011-11-04,fhrs_5_en-GB,5,,FHRS,5
42156,17-19 Howardsgate,Welwyn Garden City,Hertfordshire,,Costcutter,Retailers - other,4613,5,,173899,5,,51.80206600000000,PI/000027338,164,e.health@welhat.gov.uk,Welwyn Hatfield,http://www.welhat.gov.uk,-0.20720500000000,AL8 6AA,2011-02-25,fhrs_5_en-GB,5,,FHRS,5
42157,179 Handside Lane,Welwyn Garden City,Hertfordshire,,Costcutter,Retailers - other,4613,10,,181709,5,,51.79527800000000,PI/000071131,164,e.health@welhat.gov.uk,Welwyn Hatfield,http://www.welhat.gov.uk,-0.21788600000000,AL8 6TA,2014-03-10,fhrs_4_en-GB,4,,FHRS,5
42158,2 Salisbury Square,Hatfield,Hertfordshire,,Costcutter,Retailers - other,4613,10,,181801,5,,51.76315700000000,PI/000071412,164,e.health@welhat.gov.uk,Welwyn Hatfield,http://www.welhat.gov.uk,-0.21425300000000,AL9 5AD,2012-08-02,fhrs_3_en-GB,3,,FHRS,10
42159,School Lane,Hatfield,,,Countess Anne Church Of England Primary School,School/college/university,7845,0,,174964,0,,51.76512800000000,PI/000030638,164,e.health@welhat.gov.uk,Welwyn Hatfield,http://www.welhat.gov.uk,-0.21850900000000,AL10 8AX,2012-09-13,fhrs_5_en-GB,5,,FHRS,5
42160,76 Haldens,Welwyn Garden City,Hertfordshire,,Couzens Bakery,Manufacturers/packers,7839,5,,182087,5,,51.81243300000000,PI/000072889,164,e.health@welhat.gov.uk,Welwyn Hatfield,http://www.welhat.gov.uk,-0.19009600000000,AL7 1DD,2013-03-15,fhrs_4_en-GB,4,,FHRS,10
42161,Sir John Newsom Way,Welwyn Garden City,Hertfordshire,,Creswick Primary and Nursery School,School/college/university,7845,0,,182188,0,,51.78750800000000,PI/000073288,164,e.health@welhat.gov.uk,Welwyn Hatfield,http://www.welhat.gov.uk,-0.20015500000000,AL7 4FL,2011-09-16,fhrs_5_en-GB,5,,FHRS,0
42162,24 Bullens Green Lane,Hatfield,Hertfordshire,,Crumbs 'n' al Caribbean Cakes,Retailers - other,4613,,,631463,,,51.74102900000000,PI/000038879,164,e.health@welhat.gov.uk,Welwyn Hatfield,http://www.welhat.gov.uk,-0.24421000000000,AL4 0QS,,fhrs_awaitinginspection_en-GB,AwaitingInspection,,FHRS,
42163,Clubhouse,King George V Playing Fields,Northaw Road East,Cuffley,Cuffley & Northaw Sports Clubs,Restaurant/Cafe/Canteen,1,5,,589529,5,,51.70182200000000,PI/000082490,164,e.health@welhat.gov.uk,Welwyn Hatfield,http://www.welhat.gov.uk,-0.11978000000000,EN6 4RD,2013-12-05,fhrs_5_en-GB,5,,FHRS,5
42164,3 Maynard Place,Cuffley,Potters Bar,Hertfordshire,Cuffley Cafe,Restaurant/Cafe/Canteen,1,5,,178429,5,,51.70818100000000,PI/000047037,164,e.health@welhat.gov.uk,Welwyn Hatfield,http://www.welhat.gov.uk,-0.11311900000000,EN6 4JA,2014-01-23,fhrs_5_en-GB,5,,FHRS,5
42165,Carbone Hill,Potters Bar,Hertfordshire,,Cuffley Camp Outdoor Centre,Restaurant/Cafe/Canteen,1,5,,181639,5,,51.72116000000000,PI/000070967,164,e.health@welhat.gov.uk,Welwyn Hatfield,http://www.welhat.gov.uk,-0.12682500000000,EN6 4PR,2014-06-12,fhrs_5_en-GB,5,,FHRS,5
42166,King James Avenue,Potters Bar,Hertfordshire,,Cuffley Free Church,Other catering premises,7841,,,181390,,,51.70843200000000,PI/000070194,164,e.health@welhat.gov.uk,Welwyn Hatfield,http://www.welhat.gov.uk,-0.11643700000000,EN6 4LP,2012-12-11,fhrs_exempt_en-GB,Exempt,,FHRS,
42167,Maynard Place,Potters Bar,Hertfordshire,,Cuffley Hall,Other catering premises,7841,,,181372,,,51.70818100000000,PI/000070137,164,e.health@welhat.gov.uk,Welwyn Hatfield,http://www.welhat.gov.uk,-0.11311900000000,EN6 4JA,2012-09-07,fhrs_exempt_en-GB,Exempt,,FHRS,
42168,42 Station Road,Cuffley,Potters Bar,Hertfordshire,Cuffley Kebab And Pizza,Takeaway/sandwich shop,7844,5,,182041,5,,51.70781300000000,PI/000072600,164,e.health@welhat.gov.uk,Welwyn Hatfield,http://www.welhat.gov.uk,-0.11149900000000,EN6 4HE,2014-02-18,fhrs_5_en-GB,5,,FHRS,5
42169,Theobalds Road,Potters Bar,Hertfordshire,,Cuffley School,School/college/university,7845,,,181381,,,51.70416600000000,PI/000070170,164,e.health@welhat.gov.uk,Welwyn Hatfield,http://www.welhat.gov.uk,-0.11228700000000,EN6 4HN,2014-11-12,fhrs_5_en-GB,5,,FHRS,
42170,80 Station Road,Cuffley,Potters Bar,Hertfordshire,Cuffley Service Station,Retailers - other,4613,,,182025,,,51.70785100000000,PI/000072527,164,e.health@welhat.gov.uk,Welwyn Hatfield,http://www.welhat.gov.uk,-0.11046900000000,EN6 4HA,2012-08-21,fhrs_exempt_en-GB,Exempt,,FHRS,
42171,,,,,CW Cakes,Other catering premises,7841,10,,169334,5,,,PI/000014885,164,e.health@welhat.gov.uk,Welwyn Hatfield,http://www.welhat.gov.uk,,,2010-09-22,fhrs_4_en-GB,4,,FHRS,5
42172,7 Manor Parade,Hatfield,Hertfordshire,,Daisychain Creations Ltd,Restaurant/Cafe/Canteen,1,,,734359,,,51.77156000000000,PI/000028177,164,e.health@welhat.gov.uk,Welwyn Hatfield,http://www.welhat.gov.uk,-0.23363300000000,AL10 9JS,,fhrs_awaitinginspection_en-GB,AwaitingInspection,,FHRS,
42173,Danesbury Home,73 School Lane,Welwyn,Hertfordshire,Danesbury Neurological Centre,Restaurant/Cafe/Canteen,1,0,,182572,0,,51.82796700000000,PI/000077283,164,e.health@welhat.gov.uk,Welwyn Hatfield,http://www.welhat.gov.uk,-0.22288000000000,AL6 9SB,2014-04-16,fhrs_5_en-GB,5,,FHRS,0
42174,The Listed Hangar,Mosquito Way,Hatfield,,David Lloyd Hatfield,Restaurant/Cafe/Canteen,1,5,,181348,10,,51.76526800000000,PI/000070081,164,e.health@welhat.gov.uk,Welwyn Hatfield,http://www.welhat.gov.uk,-0.24393700000000,AL10 9AX,2014-02-17,fhrs_3_en-GB,3,,FHRS,10
42175,,,,,Dawn Andrews (Home Caterer),Other catering premises,7841,5,,182333,5,,,PI/000074162,164,e.health@welhat.gov.uk,Welwyn Hatfield,http://www.welhat.gov.uk,,,2010-08-03,fhrs_5_en-GB,5,,FHRS,5
42176,129 The Galleria,Comet Way,Hatfield,Hertfordshire,Daytime Leisure,Retailers - other,4613,,,175331,,,,PI/000031922,164,e.health@welhat.gov.uk,Welwyn Hatfield,http://www.welhat.gov.uk,,,2010-09-03,fhrs_exempt_en-GB,Exempt,,FHRS,
42177,"First Floor, Culpitt House",74-78 Town Centre,Hatfield,Hertfordshire,De Joint Restaurant & Niteclub LLP,Restaurant/Cafe/Canteen,1,10,,323790,10,,51.76363500000000,PI/000081816,164,e.health@welhat.gov.uk,Welwyn Hatfield,http://www.welhat.gov.uk,-0.22739300000000,AL10 0JW,2014-04-23,fhrs_2_en-GB,2,,FHRS,15
42178,83 Wood Common,Hatfield,Hertfordshire,,Debby's Kitchen,Other catering premises,7841,,,632693,,,51.77174900000000,PI/000039400,164,e.health@welhat.gov.uk,Welwyn Hatfield,http://www.welhat.gov.uk,-0.22049400000000,AL10 0UE,,fhrs_awaitinginspection_en-GB,AwaitingInspection,,FHRS,
42179,72 Thistle Grove,Welwyn Garden City,Hertfordshire,,Deblicious Cakes and Bakes,Other catering premises,7841,,,611313,,,51.78677800000000,PI/000022545,164,e.health@welhat.gov.uk,Welwyn Hatfield,http://www.welhat.gov.uk,-0.17323100000000,AL7 4AQ,,fhrs_awaitinginspection_en-GB,AwaitingInspection,,FHRS,
42180,De Havilland Primary School,Travellers Lane,Hatfield,,DeHavilland PreSchool,School/college/university,7845,5,,182129,5,,51.74880400000000,PI/000073036,164,e.health@welhat.gov.uk,Welwyn Hatfield,http://www.welhat.gov.uk,-0.22782800000000,AL10 8TQ,2013-03-04,fhrs_4_en-GB,4,,FHRS,10
42181,1 Fiddlebridge Lane,Hatfield,Hertfordshire,,Delicio's Cakes,Other catering premises,7841,0,,589530,0,,51.76366200000000,PI/000084625,164,e.health@welhat.gov.uk,Welwyn Hatfield,http://www.welhat.gov.uk,-0.23340600000000,AL10 0SP,2011-11-29,fhrs_5_en-GB,5,,FHRS,5
42182,13 Dellsome Lane,Welham Green,Hatfield,Hertfordshire,Dellsome Foodstore,Retailers - other,4613,10,,181856,10,,51.73467300000000,PI/000071706,164,e.health@welhat.gov.uk,Welwyn Hatfield,http://www.welhat.gov.uk,-0.21859100000000,AL9 7DY,2011-01-11,fhrs_3_en-GB,3,,FHRS,5
42183,,,,,Diabetic Friendly Cakes 4U,Other catering premises,7841,5,,165013,5,,,PI/000007288,164,e.health@welhat.gov.uk,Welwyn Hatfield,http://www.welhat.gov.uk,,,2011-05-25,fhrs_5_en-GB,5,,FHRS,5
42184,23B Station Road,Welwyn,Hertfordshire,,Digswell Butchers,Retailers - other,4613,5,,181430,5,,51.82288500000000,PI/000070374,164,e.health@welhat.gov.uk,Welwyn Hatfield,http://www.welhat.gov.uk,-0.19562600000000,AL6 0DU,2014-03-07,fhrs_4_en-GB,4,,FHRS,10
42185,288 Knightsfield,Welwyn Garden City,Hertfordshire,,Digswell Park Sports Association,Restaurant/Cafe/Canteen,1,5,,181536,5,,51.81919100000000,PI/000070734,164,e.health@welhat.gov.uk,Welwyn Hatfield,http://www.welhat.gov.uk,-0.20983300000000,AL8 7NQ,2012-10-17,fhrs_5_en-GB,5,,FHRS,5
42186,Hertford Road,Welwyn,Hertfordshire,,Digswell Tennis Club,Other catering premises,7841,,,182169,,,51.81840600000000,PI/000073169,164,e.health@welhat.gov.uk,Welwyn Hatfield,http://www.welhat.gov.uk,-0.18911600000000,AL6 0BX,2013-05-08,fhrs_exempt_en-GB,Exempt,,FHRS,
42187,30 Harmer Green Lane,Welwyn,Hertfordshire,,Digswell Village Hall,Other catering premises,7841,,,182456,,,,PI/000075424,164,e.health@welhat.gov.uk,Welwyn Hatfield,http://www.welhat.gov.uk,,,2012-02-28,fhrs_exempt_en-GB,Exempt,,FHRS,
42188,1 Old Forge Close,Welwyn,Hertfordshire,,Digswell Water B&B,Hotel/bed & breakfast/guest house,7842,0,,178640,0,,51.81806400000000,PI/000049128,164,e.health@welhat.gov.uk,Welwyn Hatfield,http://www.welhat.gov.uk,-0.19085700000000,AL6 0SR,2011-10-04,fhrs_5_en-GB,5,,FHRS,0
42189,,,,,Diivino Italian Caterers,Other catering premises,7841,5,,668511,5,,,PI/000033803,164,e.health@welhat.gov.uk,Welwyn Hatfield,http://www.welhat.gov.uk,,,2014-08-27,fhrs_5_en-GB,5,,FHRS,5
42190,,,,,Dining In,Other catering premises,7841,0,,181792,0,,,PI/000071392,164,e.health@welhat.gov.uk,Welwyn Hatfield,http://www.welhat.gov.uk,,,2012-10-30,fhrs_5_en-GB,5,,FHRS,5
42191,1 Parkhouse Court,Hatfield,Hertfordshire,,Domino's Pizza,Takeaway/sandwich shop,7844,0,,182210,5,,51.76360900000000,PI/000073338,164,e.health@welhat.gov.uk,Welwyn Hatfield,http://www.welhat.gov.uk,-0.24124800000000,AL10 9RQ,2013-11-27,fhrs_5_en-GB,5,,FHRS,5
42192,51 Fretherne Road,Welwyn Garden City,Hertfordshire,,Domino's Pizza,Takeaway/sandwich shop,7844,0,,182150,0,,51.80065000000000,PI/000073120,164,e.health@welhat.gov.uk,Welwyn Hatfield,http://www.welhat.gov.uk,-0.20575300000000,AL8 6NS,2011-08-17,fhrs_5_en-GB,5,,FHRS,0
42193,B&Q Car Park,Swallowfields,Welwyn Garden City,,Dom's Snacks,Mobile caterer,7846,0,,185017,5,,51.80008200000000,PI/500005153,164,e.health@welhat.gov.uk,Welwyn Hatfield,http://www.welhat.gov.uk,-0.18935700000000,,2014-03-24,fhrs_5_en-GB,5,,FHRS,5
42194,,,,,Dotty About Cupcakes,Other catering premises,7841,,,171448,,,,PI/000020439,164,e.health@welhat.gov.uk,Welwyn Hatfield,http://www.welhat.gov.uk,,,,fhrs_awaitinginspection_en-GB,AwaitingInspection,,FHRS,
42195,,,,,Dreamalicious,Other catering premises,7841,,,706077,,,,PI/000022414,164,e.health@welhat.gov.uk,Welwyn Hatfield,http://www.welhat.gov.uk,,,,fhrs_awaitinginspection_en-GB,AwaitingInspection,,FHRS,
42196,,,,,Dreams2real Studios,Other catering premises,7841,10,,169517,5,,,PI/000015253,164,e.health@welhat.gov.uk,Welwyn Hatfield,http://www.welhat.gov.uk,,,2011-03-29,fhrs_4_en-GB,4,,FHRS,5
42197,119 Moors Walk,Welwyn Garden City,Hertfordshire,,Dynasty,Restaurant/Cafe/Canteen,1,5,,175840,10,,51.80121300000000,PI/000034196,164,e.health@welhat.gov.uk,Welwyn Hatfield,http://www.welhat.gov.uk,-0.17224100000000,AL7 2BQ,2013-01-04,fhrs_4_en-GB,4,,FHRS,5
42198,Hatfield Community Free School,Briars Lane,Hatfield,Hertfordshire,Edwards and Blake Ltd,School/college/university,7845,5,,700067,5,,51.76019500000000,PI/000085972,164,e.health@welhat.gov.uk,Welwyn Hatfield,http://www.welhat.gov.uk,-0.22944000000000,AL10 8ES,2014-10-09,fhrs_5_en-GB,5,,FHRS,0
42199,,,,,Egg Free Cakes and Treats,Other catering premises,7841,5,,175637,5,,,PI/000033265,164,e.health@welhat.gov.uk,Welwyn Hatfield,http://www.welhat.gov.uk,,,2011-09-06,fhrs_5_en-GB,5,,FHRS,5
42200,2 Park Street,Hatfield,Hertfordshire,,Eight Bells,Pub/bar/nightclub,7843,10,,181807,10,,51.76264200000000,PI/000071423,164,e.health@welhat.gov.uk,Welwyn Hatfield,http://www.welhat.gov.uk,-0.21353400000000,AL9 5AX,2014-01-28,fhrs_3_en-GB,3,,FHRS,10
42201,European Knowledge Centre,Mosquito Way,Hatfield,,Eisai Europe Limited,Restaurant/Cafe/Canteen,1,0,,605845,0,,51.76703300000000,PI/000082356,164,e.health@welhat.gov.uk,Welwyn Hatfield,http://www.welhat.gov.uk,-0.24050600000000,AL10 9SN,2012-08-17,fhrs_5_en-GB,5,,FHRS,0
42202,University of Hertfordshire,College Lane,Hatfield,,Ele House,Restaurant/Cafe/Canteen,1,5,,182055,5,,51.75288600000000,PI/000072702,164,e.health@welhat.gov.uk,Welwyn Hatfield,http://www.welhat.gov.uk,-0.24218600000000,AL10 9AB,2013-10-25,fhrs_4_en-GB,4,,FHRS,10
42203,University of Hertfordshire,College Lane,Hatfield,,Ele House - Union Shop,Retailers - other,4613,,,182145,,,51.75288600000000,PI/000073108,164,e.health@welhat.gov.uk,Welwyn Hatfield,http://www.welhat.gov.uk,-0.24218600000000,AL10 9AB,2010-07-08,fhrs_exempt_en-GB,Exempt,,FHRS,
42204,Trident Place,1-6 Mosquito Way,Hatfield,Hertfordshire,Elior - EE,Restaurant/Cafe/Canteen,1,0,,182498,5,,51.76926800000000,PI/000075809,164,e.health@welhat.gov.uk,Welwyn Hatfield,http://www.welhat.gov.uk,-0.23604200000000,AL10 9BW,2014-01-02,fhrs_5_en-GB,5,,FHRS,5
42205,27 The Shaws,Welwyn Garden City,Hertfordshire,,Elite Cuisine,Other catering premises,7841,5,,177650,5,,51.79520300000000,PI/000043067,164,e.health@welhat.gov.uk,Welwyn Hatfield,http://www.welhat.gov.uk,-0.16798900000000,AL7 2HR,2013-06-14,fhrs_5_en-GB,5,,FHRS,5
42206,,,,,Elnas Cakes,Other catering premises,7841,,,734360,,,,PI/000082290,164,e.health@welhat.gov.uk,Welwyn Hatfield,http://www.welhat.gov.uk,,,,fhrs_awaitinginspection_en-GB,AwaitingInspection,,FHRS,
42207,Apollo Court,2 Bishops Square,Hatfield,,Environment Agency - Baxter Storey,Restaurant/Cafe/Canteen,1,5,,181897,5,,51.76216100000000,PI/000071893,164,e.health@welhat.gov.uk,Welwyn Hatfield,http://www.welhat.gov.uk,-0.24302800000000,AL10 9EX,2014-03-25,fhrs_4_en-GB,4,,FHRS,10
42208,,,,,Epic Bakes,Mobile caterer,7846,,,555434,,,,PI/000035679,164,e.health@welhat.gov.uk,Welwyn Hatfield,http://www.welhat.gov.uk,,,,fhrs_awaitinginspection_en-GB,AwaitingInspection,,FHRS,
42209,58-60 Town Centre,Hatfield,Hertfordshire,,Erol's Cafe,Restaurant/Cafe/Canteen,1,5,,182067,5,,51.76379600000000,PI/000072756,164,e.health@welhat.gov.uk,Welwyn Hatfield,http://www.welhat.gov.uk,-0.22676300000000,AL10 0JJ,2014-08-05,fhrs_5_en-GB,5,,FHRS,5
42210,School Lane,Essendon,Hatfield,,Essendon Church of England Primary School,School/college/university,7845,5,,175514,5,,51.76162300000000,PI/000032666,164,e.health@welhat.gov.uk,Welwyn Hatfield,http://www.welhat.gov.uk,-0.15337900000000,AL9 6HD,2013-07-17,fhrs_5_en-GB,5,,FHRS,5
42211,Bedwell Park,High Road 1,Hatfield,Hertfordshire,Essendon Country Club,Restaurant/Cafe/Canteen,1,0,,555447,5,,51.75985100000000,PI/000083913,164,e.health@welhat.gov.uk,Welwyn Hatfield,http://www.welhat.gov.uk,-0.14646700000000,AL9 6HN,2014-02-27,fhrs_5_en-GB,5,,FHRS,5
42212,School Lane,Hatfield,Hertfordshire,,Essendon Village Hall,Other catering premises,7841,,,182457,,,,PI/000075426,164,e.health@welhat.gov.uk,Welwyn Hatfield,http://www.welhat.gov.uk,,,2011-10-18,fhrs_exempt_en-GB,Exempt,,FHRS,
42213,Eastbridge Service Station,Bridge Road East,Welwyn Garden City,Hertfordshire,Esso,Retailers - other,4613,,,178276,,,51.80135900000000,PI/000046135,164,e.health@welhat.gov.uk,Welwyn Hatfield,http://www.welhat.gov.uk,-0.19564400000000,AL7 1LE,2013-04-03,fhrs_exempt_en-GB,Exempt,,FHRS,
42214,Tesco Stores Ltd,Great North Road,Hatfield,Hertfordshire,Euphorium (North London) Limited,Manufacturers/packers,7839,,,718114,,,51.77634300000000,PI/000085997,164,e.health@welhat.gov.uk,Welwyn Hatfield,http://www.welhat.gov.uk,-0.22041500000000,AL9 5JY,,fhrs_awaitinginspection_en-GB,AwaitingInspection,,FHRS,
42215,Ocado Ltd,Gypsy Moth Avenue,Hatfield,,Eurest Services,Restaurant/Cafe/Canteen,1,0,,181940,0,,51.77119100000000,PI/000072131,164,e.health@welhat.gov.uk,Welwyn Hatfield,http://www.welhat.gov.uk,-0.24198200000000,AL10 9BD,2011-10-06,fhrs_5_en-GB,5,,FHRS,0
42216,Unit 3,41 Town Centre,Hatfield,Hertfordshire,Euro Supermarket,Retailers - supermarkets/hypermarkets,7840,5,,479959,5,,51.76379600000000,PI/000032566,164,e.health@welhat.gov.uk,Welwyn Hatfield,http://www.welhat.gov.uk,-0.22676300000000,AL10 0JJ,2012-12-20,fhrs_5_en-GB,5,,FHRS,5
42217,Eisai Limited,European Knowledge Centre,Mosquito Way,Hatfield,Europa Catering,Restaurant/Cafe/Canteen,1,0,,637390,0,,51.76703300000000,PI/000085063,164,e.health@welhat.gov.uk,Welwyn Hatfield,http://www.welhat.gov.uk,-0.24050600000000,AL10 9SN,2014-01-06,fhrs_5_en-GB,5,,FHRS,0
42218,6 Codicote Road,Welwyn,Hertfordshire,,European Missionary Fellowship,Other catering premises,7841,,,181513,,,51.83154200000000,PI/000070686,164,e.health@welhat.gov.uk,Welwyn Hatfield,http://www.welhat.gov.uk,-0.21549700000000,AL6 9NB,2010-12-21,fhrs_exempt_en-GB,Exempt,,FHRS,
42219,Everest House,Sopers Road,Potters Bar,Hertfordshire,Everest Ltd,Restaurant/Cafe/Canteen,1,10,,175573,10,,51.70753000000000,PI/000032935,164,e.health@welhat.gov.uk,Welwyn Hatfield,http://www.welhat.gov.uk,-0.10787700000000,EN6 4SG,2014-01-23,fhrs_2_en-GB,2,,FHRS,15
42220,12 Harpsfield Broadway,Hatfield,Hertfordshire,,Everest Spice Lounge,Restaurant/Cafe/Canteen,1,5,,479957,5,,51.76366600000000,PI/000029065,164,e.health@welhat.gov.uk,Welwyn Hatfield,http://www.welhat.gov.uk,-0.23902800000000,AL10 9TF,2014-11-19,fhrs_4_en-GB,4,,FHRS,10
42221,118 Richards Street,Hatfield,Hertfordshire,,Excel Food Catering Services,Other catering premises,7841,,,175651,,,51.76870500000000,PI/000033289,164,e.health@welhat.gov.uk,Welwyn Hatfield,http://www.welhat.gov.uk,-0.24949900000000,AL10 9GP,2011-08-09,fhrs_exempt_en-GB,Exempt,,FHRS,
42222,The Annexe,Countess Anne Church Of England Primary School,School Lane,Hatfield,Explorers Day Nursery at YMCA,Restaurant/Cafe/Canteen,1,5,,182185,5,,51.76512800000000,PI/000073260,164,e.health@welhat.gov.uk,Welwyn Hatfield,http://www.welhat.gov.uk,-0.21850900000000,AL10 8AX,2014-09-09,fhrs_5_en-GB,5,,FHRS,5
42223,162 Hollybush Lane,Welwyn Garden City,Hertfordshire,,Express Supermarket,Retailers - supermarkets/hypermarkets,7840,10,,174138,5,,51.78446500000000,PI/000028119,164,e.health@welhat.gov.uk,Welwyn Hatfield,http://www.welhat.gov.uk,-0.19639100000000,AL7 4JU,2011-07-07,fhrs_4_en-GB,4,,FHRS,5
42224,15 Little Ridge,Welwyn Garden City,Hertfordshire,,Fat Jacks / Downtown Pizza,Takeaway/sandwich shop,7844,5,,375932,5,,51.79822700000000,PI/000075457,164,e.health@welhat.gov.uk,Welwyn Hatfield,http://www.welhat.gov.uk,-0.18260100000000,AL7 2BH,2014-04-08,fhrs_4_en-GB,4,,FHRS,10
42225,38 The Common,Hatfield,Hertfordshire,,Favorite Chicken & Ribs,Restaurant/Cafe/Canteen,1,0,,182126,0,,51.76263900000000,PI/000073023,164,e.health@welhat.gov.uk,Welwyn Hatfield,http://www.welhat.gov.uk,-0.23112700000000,AL10 0LU,2013-05-03,fhrs_5_en-GB,5,,FHRS,0
42226,,,,,Firebird Bakery,Other catering premises,7841,5,,421665,5,,,PI/000045144,164,e.health@welhat.gov.uk,Welwyn Hatfield,http://www.welhat.gov.uk,,,2013-10-07,fhrs_5_en-GB,5,,FHRS,5
42227,University of Hertfordshire,Section Bouygues,Hatfield,Hertfordshire,Flavours from Eden,Restaurant/Cafe/Canteen,1,,,631472,,,51.75288600000000,PI/500010410,164,e.health@welhat.gov.uk,Welwyn Hatfield,http://www.welhat.gov.uk,-0.24218500000000,AL10 9AB,,fhrs_awaitinginspection_en-GB,AwaitingInspection,,FHRS,
42228,,,,,Flip Crepes,Other catering premises,7841,,,700061,,,,PI/000030107,164,e.health@welhat.gov.uk,Welwyn Hatfield,http://www.welhat.gov.uk,,,,fhrs_awaitinginspection_en-GB,AwaitingInspection,,FHRS,
42229,Digswell Nurseries,Great North Road,Welwyn Garden City,Hertfordshire,Flowerpot Coffee Shop,Restaurant/Cafe/Canteen,1,5,,182262,5,,51.80359300000000,PI/000073512,164,e.health@welhat.gov.uk,Welwyn Hatfield,http://www.welhat.gov.uk,-0.22726200000000,AL8 7SR,2011-05-25,fhrs_5_en-GB,5,,FHRS,5
42230,69 Parkway,Welwyn Garden City,Hertfordshire,,Focolare Centre For Unity,Restaurant/Cafe/Canteen,1,0,,181632,0,,51.79819900000000,PI/000070956,164,e.health@welhat.gov.uk,Welwyn Hatfield,http://www.welhat.gov.uk,-0.21012800000000,AL8 6JG,2011-02-15,fhrs_5_en-GB,5,,FHRS,0
42231,University of Hertfordshire,College Lane,Hatfield,,Forum,Restaurant/Cafe/Canteen,1,10,,375934,5,,51.75288600000000,PI/000081005,164,e.health@welhat.gov.uk,Welwyn Hatfield,http://www.welhat.gov.uk,-0.24218600000000,AL10 9AB,2014-11-03,fhrs_4_en-GB,4,,FHRS,5
42232,15 Howardsgate,Welwyn Garden City,Hertfordshire,,Fountain of Life,Other catering premises,7841,0,,170298,5,,51.80274300000000,PI/000017201,164,e.health@welhat.gov.uk,Welwyn Hatfield,http://www.welhat.gov.uk,-0.22940100000000,AL8 6BU,2011-08-22,fhrs_5_en-GB,5,,FHRS,5
42233,69 The Galleria,Comet Way,Hatfield,,Frankie And Bennys,Restaurant/Cafe/Canteen,1,5,,182146,5,,51.76091400000000,PI/000073109,164,e.health@welhat.gov.uk,Welwyn Hatfield,http://www.welhat.gov.uk,-0.24141000000000,AL10 0XY,2013-11-04,fhrs_5_en-GB,5,,FHRS,5
42234,51 Bradmore Green,Brookmans Park,Hatfield,Hertfordshire,Frankies 5 a day,Retailers - other,4613,,,479961,,,51.72168700000000,PI/000046762,164,e.health@welhat.gov.uk,Welwyn Hatfield,http://www.welhat.gov.uk,-0.20194500000000,AL9 7QS,2012-12-11,fhrs_exempt_en-GB,Exempt,,FHRS,
42235,,,,,Fresh Catch Prime Cuts Ltd,Other catering premises,7841,5,,499280,5,,,PI/000003126,164,e.health@welhat.gov.uk,Welwyn Hatfield,http://www.welhat.gov.uk,,,2013-01-04,fhrs_5_en-GB,5,,FHRS,5
42236,Wellfield Close,Hatfield,Hertfordshire,,Friendship House,Other catering premises,7841,0,,181832,5,,51.76593400000000,PI/000071566,164,e.health@welhat.gov.uk,Welwyn Hatfield,http://www.welhat.gov.uk,-0.22840400000000,AL10 0BU,2014-07-24,fhrs_5_en-GB,5,,FHRS,5
42237,45 Wigmores North,Welwyn Garden City,Hertfordshire,,Fuhao,Restaurant/Cafe/Canteen,1,20,,181546,15,,51.80224500000000,PI/000070743,164,e.health@welhat.gov.uk,Welwyn Hatfield,http://www.welhat.gov.uk,-0.20654500000000,AL8 6PG,2014-03-31,fhrs_1_en-GB,1,,FHRS,15
42238,,,,,Gala Cakes Ltd,Other catering premises,7841,5,,421660,5,,,PI/000042195,164,e.health@welhat.gov.uk,Welwyn Hatfield,http://www.welhat.gov.uk,,,2013-10-07,fhrs_5_en-GB,5,,FHRS,5
42239,66-68 Great North Road,Welwyn,Hertfordshire,,Gareth's Butchers Of Welwyn,Retailers - other,4613,5,,181472,0,,51.84219400000000,PI/000070539,164,e.health@welhat.gov.uk,Welwyn Hatfield,http://www.welhat.gov.uk,-0.19407000000000,AL6 0TA,2013-04-12,fhrs_5_en-GB,5,,FHRS,5
42240,,,,,Gateaux Doux,Other catering premises,7841,,,178213,,,,PI/000045844,164,e.health@welhat.gov.uk,Welwyn Hatfield,http://www.welhat.gov.uk,,,,fhrs_awaitinginspection_en-GB,AwaitingInspection,,FHRS,
42241,,,,,Genever's,Retailers - other,4613,,,479956,,,,PI/000024727,164,e.health@welhat.gov.uk,Welwyn Hatfield,http://www.welhat.gov.uk,,,,fhrs_awaitinginspection_en-GB,AwaitingInspection,,FHRS,
42242,100 Peartree Lane,Welwyn Garden City,Hertfordshire,,Golden Valley Chinese Takeaway,Takeaway/sandwich shop,7844,0,,182083,0,,51.79579300000000,PI/000072858,164,e.health@welhat.gov.uk,Welwyn Hatfield,http://www.welhat.gov.uk,-0.19973900000000,AL7 3XW,2013-04-11,fhrs_5_en-GB,5,,FHRS,0
42243,,,,,Good Food 2Go,Mobile caterer,7846,0,,165525,0,,,PI/000008145,164,e.health@welhat.gov.uk,Welwyn Hatfield,http://www.welhat.gov.uk,,,2011-09-20,fhrs_5_en-GB,5,,FHRS,0
42244,75-78 The Galleria,Comet Way,Hatfield,Hertfordshire,Grape Tree,Retailers - other,4613,,,668516,,,51.76091400000000,PI/000085079,164,e.health@welhat.gov.uk,Welwyn Hatfield,http://www.welhat.gov.uk,-0.24141000000000,AL10 0YA,,fhrs_awaitinginspection_en-GB,AwaitingInspection,,FHRS,
42245,Unit 40,The Howard Centre,Howardsgate,Welwyn Garden City,Grape Tree,Retailers - other,4613,,,566964,,,,PI/000083932,164,e.health@welhat.gov.uk,Welwyn Hatfield,http://www.welhat.gov.uk,,AL8 6ES,,fhrs_awaitinginspection_en-GB,AwaitingInspection,,FHRS,
42246,7 Cole Green Lane,Welwyn Garden City,Hertfordshire,,Green Garden Chinese Takeaway,Takeaway/sandwich shop,7844,,,181486,,,51.79168900000000,PI/000070594,164,e.health@welhat.gov.uk,Welwyn Hatfield,http://www.welhat.gov.uk,-0.19424700000000,AL7 3PP,2014-12-03,fhrs_3_en-GB,3,,FHRS,
42247,Green Lanes,Hatfield,,,Green Lanes Primary School,School/college/university,7845,5,,178412,5,,51.77527500000000,PI/000046906,164,e.health@welhat.gov.uk,Welwyn Hatfield,http://www.welhat.gov.uk,-0.23366200000000,AL10 9JY,2013-07-12,fhrs_5_en-GB,5,,FHRS,5
42248,30 Stonehills,Welwyn Garden City,Hertfordshire,,Greggs,Retailers - other,4613,0,,181367,0,,51.80192700000000,PI/000070124,164,e.health@welhat.gov.uk,Welwyn Hatfield,http://www.welhat.gov.uk,-0.20574500000000,AL8 6PD,2011-11-10,fhrs_5_en-GB,5,,FHRS,0
42249,7 Shoplands,Welwyn Garden City,Hertfordshire,,Hakalok Restaurant,Restaurant/Cafe/Canteen,1,20,,181345,10,,51.81528800000000,PI/000070079,164,e.health@welhat.gov.uk,Welwyn Hatfield,http://www.welhat.gov.uk,-0.20332900000000,AL8 7RH,2014-09-26,fhrs_1_en-GB,1,,FHRS,10
42250,Margery Wood,Welwyn Garden City,Hertfordshire,,Haldens Residents Club,Pub/bar/nightclub,7843,5,,182094,5,,51.81473600000000,PI/000072928,164,e.health@welhat.gov.uk,Welwyn Hatfield,http://www.welhat.gov.uk,-0.18611500000000,AL7 1UN,2011-10-04,fhrs_5_en-GB,5,,FHRS,5
42251,,,,,Haletts Caterers,Other catering premises,7841,0,,323782,5,,,PI/000036494,164,e.health@welhat.gov.uk,Welwyn Hatfield,http://www.welhat.gov.uk,,,2012-04-03,fhrs_5_en-GB,5,,FHRS,0
42252,18 Hall Grove,Welwyn Garden City,Hertfordshire,,Hall Grove Pharmacy,Retailers - other,4613,,,181462,,,51.78877900000000,PI/000070498,164,e.health@welhat.gov.uk,Welwyn Hatfield,http://www.welhat.gov.uk,-0.17932700000000,AL7 4PH,2013-03-14,fhrs_exempt_en-GB,Exempt,,FHRS,
42253,Lemsford Lane,Welwyn Garden City,Hertfordshire,,Handside Hall,Other catering premises,7841,5,,182014,5,,51.79187400000000,PI/000072469,164,e.health@welhat.gov.uk,Welwyn Hatfield,http://www.welhat.gov.uk,-0.22174700000000,AL8 6YL,2011-03-09,fhrs_5_en-GB,5,,FHRS,5
42254,118 Handside Lane,Welwyn Garden City,Hertfordshire,,Handside Lane B&B,Hotel/bed & breakfast/guest house,7842,,,421657,,,51.79610900000000,PI/000039553,164,e.health@welhat.gov.uk,Welwyn Hatfield,http://www.welhat.gov.uk,-0.21756300000000,AL8 6SZ,,fhrs_awaitinginspection_en-GB,AwaitingInspection,,FHRS,
42255,22 High View,Hatfield,Hertfordshire,,Happy Valley Takeaway,Restaurant/Cafe/Canteen,1,10,,182170,10,,51.74847700000000,PI/000073171,164,e.health@welhat.gov.uk,Welwyn Hatfield,http://www.welhat.gov.uk,-0.23415700000000,AL10 8HZ,2014-03-26,fhrs_3_en-GB,3,,FHRS,10
42256,69 Hardings,Welwyn Garden City,Hertfordshire,,Hardings Pre School,School/college/university,7845,5,,182044,5,,51.80152200000000,PI/000072618,164,e.health@welhat.gov.uk,Welwyn Hatfield,http://www.welhat.gov.uk,-0.16838500000000,AL7 2HA,2013-03-14,fhrs_5_en-GB,5,,FHRS,5
42257,Tesco Stores Ltd,Great North Road,Hatfield,Hertfordshire,Harris and Hoole,Restaurant/Cafe/Canteen,1,,,621186,,,51.77634300000000,PI/000085028,164,e.health@welhat.gov.uk,Welwyn Hatfield,http://www.welhat.gov.uk,-0.22041500000000,AL9 5JY,,fhrs_awaitinginspection_en-GB,AwaitingInspection,,FHRS,
42258,Harrow Farm,Pottersheath Road,Welwyn,Hertfordshire,Harrows Farm Freerange Produce,Retailers - other,4613,,,182243,,,51.84900400000000,PI/000073425,164,e.health@welhat.gov.uk,Welwyn Hatfield,http://www.welhat.gov.uk,-0.20131800000000,AL6 9SU,2012-01-16,fhrs_exempt_en-GB,Exempt,,FHRS,
42259,65 Bishops Rise,Hatfield,Hertfordshire,,Harvest Energy,Retailers - other,4613,5,,181896,5,,51.74858800000000,PI/000071892,164,e.health@welhat.gov.uk,Welwyn Hatfield,http://www.welhat.gov.uk,-0.23499300000000,AL10 9BY,2011-11-04,fhrs_5_en-GB,5,,FHRS,5
42260,63A-63B The Galleria,Comet Way,Hatfield,,Harvester,Pub/bar/nightclub,7843,0,,323789,0,,51.76091400000000,PI/000081743,164,e.health@welhat.gov.uk,Welwyn Hatfield,http://www.welhat.gov.uk,-0.24141000000000,AL10 0XY,2012-02-23,fhrs_5_en-GB,5,,FHRS,5
42261,Harwood Close,Welwyn Garden City,Hertfordshire,,Harwood Hill JMI and Nursery School,School/college/university,7845,0,,181436,5,,51.81664000000000,PI/000070386,164,e.health@welhat.gov.uk,Welwyn Hatfield,http://www.welhat.gov.uk,-0.19761700000000,AL8 7SN,2014-06-12,fhrs_5_en-GB,5,,FHRS,5
42262,Harwood Hill JMI and Nursery School,Harwood Close,Welwyn Garden City,Hertfordshire,Harwood Hill Pre-School,School/college/university,7845,5,,182582,5,,51.81664000000000,PI/000077323,164,e.health@welhat.gov.uk,Welwyn Hatfield,http://www.welhat.gov.uk,-0.19761700000000,AL8 7SN,2013-05-01,fhrs_5_en-GB,5,,FHRS,5
42263,,,,,Hatfield Best Kebabs,Mobile caterer,7846,,,185015,,,,PI/500005042,164,e.health@welhat.gov.uk,Welwyn Hatfield,http://www.welhat.gov.uk,,,2015-01-05,fhrs_4_en-GB,4,,FHRS,
42264,11-13 The Arcade,Hatfield,Hertfordshire,,Hatfield Coffee House,Restaurant/Cafe/Canteen,1,5,,181978,5,,51.76320200000000,PI/000072301,164,e.health@welhat.gov.uk,Welwyn Hatfield,http://www.welhat.gov.uk,-0.22554000000000,AL10 0JY,2013-09-12,fhrs_4_en-GB,4,,FHRS,10
42265,1 Town Centre,Hatfield,Hertfordshire,,Hatfield Community Resource Centre,Other catering premises,7841,,,181967,,,51.76358700000000,PI/000072273,164,e.health@welhat.gov.uk,Welwyn Hatfield,http://www.welhat.gov.uk,-0.22484400000000,AL10 0JZ,2012-02-22,fhrs_exempt_en-GB,Exempt,,FHRS,
42266,Sports Ground and Premises,Ascots Lane,Welwyn Garden City,Hertfordshire,Hatfield Cricket Club,Restaurant/Cafe/Canteen,1,10,,178576,5,,51.78023500000000,PI/000048461,164,e.health@welhat.gov.uk,Welwyn Hatfield,http://www.welhat.gov.uk,-0.19396400000000,,2012-08-23,fhrs_4_en-GB,4,,FHRS,5
42267,3 Market Place,Hatfield,Hertfordshire,,Hatfield Fresh Meat & Groceries,Retailers - other,4613,5,,160719,5,,51.76351800000000,PI/000000517,164,e.health@welhat.gov.uk,Welwyn Hatfield,http://www.welhat.gov.uk,-0.22681800000000,AL10 0JL,2014-04-22,fhrs_5_en-GB,5,,FHRS,5
42268,,,,,Hatfield Fresh Meat & Groceries,Other catering premises,7841,5,,176233,5,,,PI/000035973,164,e.health@welhat.gov.uk,Welwyn Hatfield,http://www.welhat.gov.uk,,,2011-05-26,fhrs_5_en-GB,5,,FHRS,5
42269,52 The Common,Hatfield,Hertfordshire,,Hatfield Kebab and Pizza House,Takeaway/sandwich shop,7844,20,,181885,10,,51.76263900000000,PI/000071841,164,e.health@welhat.gov.uk,Welwyn Hatfield,http://www.welhat.gov.uk,-0.23112700000000,AL10 0LU,2012-05-28,fhrs_1_en-GB,1,,FHRS,5
42270,College Lane,Hatfield,Hertfordshire,,Hatfield Lawn Tennis And Bowls Club,Restaurant/Cafe/Canteen,1,5,,181874,0,,51.75899900000000,PI/000071779,164,e.health@welhat.gov.uk,Welwyn Hatfield,http://www.welhat.gov.uk,-0.24145600000000,AL10 9PJ,2013-05-22,fhrs_5_en-GB,5,,FHRS,5
42271,8 Market Place,Hatfield,Hertfordshire,,Hatfield Netsurf,Restaurant/Cafe/Canteen,1,5,,181849,5,,51.76275700000000,PI/000071658,164,e.health@welhat.gov.uk,Welwyn Hatfield,http://www.welhat.gov.uk,-0.22645600000000,AL10 0LN,2011-09-09,fhrs_5_en-GB,5,,FHRS,5
42272,Tamblin Way,Hatfield,Hertfordshire,,Hatfield Nursing Home,Hospitals/Childcare/Caring Premises,5,0,,182532,5,,51.76628600000000,PI/000076273,164,e.health@welhat.gov.uk,Welwyn Hatfield,http://www.welhat.gov.uk,-0.24289700000000,AL10 9EZ,2014-03-04,fhrs_5_en-GB,5,,FHRS,5
42273,76 Great North Road,Hatfield,Hertfordshire,,Hatfield Social Club,Pub/bar/nightclub,7843,10,,181795,5,,51.76446500000000,PI/000071402,164,e.health@welhat.gov.uk,Welwyn Hatfield,http://www.welhat.gov.uk,-0.21454900000000,AL9 5ER,2011-12-05,fhrs_3_en-GB,3,,FHRS,10
42274,26 The Common,Hatfield,Hertfordshire,,Hatfield Trades & Labour Club,Pub/bar/nightclub,7843,5,,181845,5,,51.76318100000000,PI/000071634,164,e.health@welhat.gov.uk,Welwyn Hatfield,http://www.welhat.gov.uk,-0.23013500000000,AL10 0LX,2011-12-05,fhrs_5_en-GB,5,,FHRS,5
42275,7 The Parade,St Albans Road East,Hatfield,,Hatfield Wine Stores,Retailers - other,4613,,,181743,,,51.76699900000000,PI/000071203,164,e.health@welhat.gov.uk,Welwyn Hatfield,http://www.welhat.gov.uk,-0.21794200000000,AL10 0EY,2011-10-17,fhrs_exempt_en-GB,Exempt,,FHRS,
42276,15 Church Street,Hatfield,Hertfordshire,,"Heritage Care, St. Audrey's",Hospitals/Childcare/Caring Premises,5,5,,181805,5,,51.76098400000000,PI/000071421,164,e.health@welhat.gov.uk,Welwyn Hatfield,http://www.welhat.gov.uk,-0.21271600000000,AL9 5AR,2015-02-04,fhrs_5_en-GB,5,,FHRS,5
42277,Fire Station,Bridge Road East,Welwyn Garden City,Hertfordshire,Hertfordshire Fire & Rescue Service,Restaurant/Cafe/Canteen,1,5,,181458,5,,51.79927700000000,PI/000070470,164,e.health@welhat.gov.uk,Welwyn Hatfield,http://www.welhat.gov.uk,-0.19065100000000,AL7 1LP,2012-02-20,fhrs_4_en-GB,4,,FHRS,10
42278,The Dutch Nursery,Great North Road,Brookmans Park,Hatfield,Hicks and Son Ltd,Retailers - other,4613,,,594357,,,51.73158500000000,PI/000085016,164,e.health@welhat.gov.uk,Welwyn Hatfield,http://www.welhat.gov.uk,-0.18308900000000,AL9 6ND,,fhrs_awaitinginspection_en-GB,AwaitingInspection,,FHRS,
42279,12-13 The Galleria,Comet Way,Hatfield,Hertfordshire,HMV,Retailers - other,4613,,,589535,,,51.76091400000000,PI/000084925,164,e.health@welhat.gov.uk,Welwyn Hatfield,http://www.welhat.gov.uk,-0.24141000000000,AL10 0XR,2010-09-07,fhrs_exempt_en-GB,Exempt,,FHRS,
42280,8 High View,Hatfield,Hertfordshire,,Hodson Chemist,Retailers - other,4613,,,181883,,,51.74847700000000,PI/000071835,164,e.health@welhat.gov.uk,Welwyn Hatfield,http://www.welhat.gov.uk,-0.23415700000000,AL10 8HZ,2011-05-25,fhrs_exempt_en-GB,Exempt,,FHRS,
42281,100 The Galleria,Comet Way,Hatfield,,Holland & Barrett,Retailers - other,4613,,,178584,,,51.76091400000000,PI/000048571,164,e.health@welhat.gov.uk,Welwyn Hatfield,http://www.welhat.gov.uk,-0.24141000000000,AL10 0YB,2011-10-17,fhrs_exempt_en-GB,Exempt,,FHRS,
42282,54 Howardsgate,Welwyn Garden City,Hertfordshire,,Holland & Barrett Ltd,Retailers - other,4613,,,181995,,,51.80090400000000,PI/000072379,164,e.health@welhat.gov.uk,Welwyn Hatfield,http://www.welhat.gov.uk,-0.20530700000000,AL8 6BP,2012-12-11,fhrs_exempt_en-GB,Exempt,,FHRS,
42283,,,,,Holly & Ivy B&B,Hotel/bed & breakfast/guest house,7842,,,421646,,,,PI/000024273,164,e.health@welhat.gov.uk,Welwyn Hatfield,http://www.welhat.gov.uk,,,,fhrs_awaitinginspection_en-GB,AwaitingInspection,,FHRS,
42284,Holwell Road,Welwyn Garden City,Hertfordshire,,Holwell Primary School,School/college/university,7845,0,,182268,0,,51.79413100000000,PI/000073520,164,e.health@welhat.gov.uk,Welwyn Hatfield,http://www.welhat.gov.uk,-0.19574400000000,AL7 3RP,2012-01-06,fhrs_5_en-GB,5,,FHRS,5
42285,Crookhams,Welwyn Garden City,Hertfordshire,,Holy Family Rc School,School/college/university,7845,0,,182093,0,,51.81061000000000,PI/000072927,164,e.health@welhat.gov.uk,Welwyn Hatfield,http://www.welhat.gov.uk,-0.18271200000000,AL7 1PG,2013-01-24,fhrs_5_en-GB,5,,FHRS,5
42286,,,,,Home Baker,Other catering premises,7841,,,718108,,,,PI/000012347,164,e.health@welhat.gov.uk,Welwyn Hatfield,http://www.welhat.gov.uk,,,,fhrs_awaitinginspection_en-GB,AwaitingInspection,,FHRS,
42287,,,,,Home Caterer,Other catering premises,7841,5,,181479,5,,,PI/000070570,164,e.health@welhat.gov.uk,Welwyn Hatfield,http://www.welhat.gov.uk,,,2013-05-08,fhrs_5_en-GB,5,,FHRS,5
42288,,,,,Home Caterer - Market Stall,Other catering premises,7841,5,,169505,5,,,PI/000015232,164,e.health@welhat.gov.uk,Welwyn Hatfield,http://www.welhat.gov.uk,,,2011-05-25,fhrs_5_en-GB,5,,FHRS,5
42289,Kirklands,Welwyn Garden City,Hertfordshire,,Homerswood Primary and Nursery School,School/college/university,7845,5,,181535,5,,51.81745900000000,PI/000070733,164,e.health@welhat.gov.uk,Welwyn Hatfield,http://www.welhat.gov.uk,-0.20298100000000,AL8 7RF,2013-05-08,fhrs_5_en-GB,5,,FHRS,5
42290,Homestead Court,Homestead Lane,Welwyn Garden City,,Homestead Court Hotel,Hotel/bed & breakfast/guest house,7842,,,181517,,,51.78950100000000,PI/000070695,164,e.health@welhat.gov.uk,Welwyn Hatfield,http://www.welhat.gov.uk,-0.18936100000000,AL7 4LX,2014-03-12,fhrs_5_en-GB,5,,FHRS,
42291,Ellenbrook Lane,Hatfield,Hertfordshire,,Honister,Hospitals/Childcare/Caring Premises,5,5,,177893,5,,51.75827500000000,PI/000044256,164,e.health@welhat.gov.uk,Welwyn Hatfield,http://www.welhat.gov.uk,-0.25075700000000,AL10 9RW,2013-08-02,fhrs_5_en-GB,5,,FHRS,5
42292,31 The Minims,Hatfield,Hertfordshire,,Hospitaller Order Of St John Of God,Hospitals/Childcare/Caring Premises,5,0,,181812,5,,51.76670500000000,PI/000071440,164,e.health@welhat.gov.uk,Welwyn Hatfield,http://www.welhat.gov.uk,-0.23127200000000,AL10 0AW,2015-01-14,fhrs_5_en-GB,5,,FHRS,5
42293,Howe Dell School,The Runway,Hatfield,Hertfordshire,Howe Dell Children's Centre,School/college/university,7845,0,,182309,5,,51.76727600000000,PI/000073826,164,e.health@welhat.gov.uk,Welwyn Hatfield,http://www.welhat.gov.uk,-0.24658300000000,AL10 9AH,2014-10-23,fhrs_5_en-GB,5,,FHRS,5
42294,Howe Dell Community Hall,The Runway,Hatfield,,Howe Dell Community Centre,Restaurant/Cafe/Canteen,1,0,,582801,0,,51.76727600000000,PI/000084696,164,e.health@welhat.gov.uk,Welwyn Hatfield,http://www.welhat.gov.uk,-0.24658300000000,AL10 9AH,2013-03-08,fhrs_5_en-GB,5,,FHRS,0
42295,The Runway,Hatfield,Hertfordshire,,Howe Dell School,School/college/university,7845,0,,182573,0,,51.76727600000000,PI/000077290,164,e.health@welhat.gov.uk,Welwyn Hatfield,http://www.welhat.gov.uk,-0.24658300000000,AL10 9AH,2015-01-23,fhrs_5_en-GB,5,,FHRS,0
42296,11 Shoplands,Welwyn Garden City,Hertfordshire,,Hoy Che,Restaurant/Cafe/Canteen,1,10,,181522,10,,51.81528800000000,PI/000070704,164,e.health@welhat.gov.uk,Welwyn Hatfield,http://www.welhat.gov.uk,-0.20332900000000,AL8 7RH,2013-03-22,fhrs_3_en-GB,3,,FHRS,10
42297,3 Marsden Road,Welwyn Garden City,Hertfordshire,,Huttons Newsagents,Retailers - other,4613,,,181691,,,51.79355300000000,PI/000071095,164,e.health@welhat.gov.uk,Welwyn Hatfield,http://www.welhat.gov.uk,-0.21740300000000,AL8 6YQ,2011-12-06,fhrs_exempt_en-GB,Exempt,,FHRS,
42298,Unit A,Fretherne Road,Welwyn Garden City,Hertfordshire,Iceland Frozen Foods,Retailers - supermarkets/hypermarkets,7840,5,,182155,5,,51.80033000000000,PI/000073135,164,e.health@welhat.gov.uk,Welwyn Hatfield,http://www.welhat.gov.uk,-0.20595400000000,AL8 6PZ,2013-05-07,fhrs_5_en-GB,5,,FHRS,5
42299,74-78 Town Centre,Hatfield,Hertfordshire,,Iceland Frozen Foods Plc,Retailers - supermarkets/hypermarkets,7840,5,,182745,5,,51.76363500000000,PI/000081705,164,e.health@welhat.gov.uk,Welwyn Hatfield,http://www.welhat.gov.uk,-0.22739300000000,AL10 0JW,2012-11-28,fhrs_5_en-GB,5,,FHRS,5
42300,,,,,Icely Done Drink Ltd,Other catering premises,7841,,,724473,,,,PI/000085999,164,e.health@welhat.gov.uk,Welwyn Hatfield,http://www.welhat.gov.uk,,,,fhrs_awaitinginspection_en-GB,AwaitingInspection,,FHRS,
42301,29 Market Place,Hatfield,Hertfordshire,,IFS News,Retailers - other,4613,,,160728,,,51.76275600000000,PI/000000533,164,e.health@welhat.gov.uk,Welwyn Hatfield,http://www.welhat.gov.uk,-0.22635500000000,AL10 0LJ,2011-10-25,fhrs_exempt_en-GB,Exempt,,FHRS,
42302,Douglas Tilbe House,Hall Grove,Welwyn Garden City,Hertfordshire,Isabel Hospice,Hospitals/Childcare/Caring Premises,5,0,,174621,0,,51.78877900000000,PI/000029614,164,e.health@welhat.gov.uk,Welwyn Hatfield,http://www.welhat.gov.uk,-0.17932700000000,AL7 4PH,2011-10-27,fhrs_5_en-GB,5,,FHRS,0
42303,Queen Elizabeth II Hospital,Howlands,Welwyn Garden City,,Isabel Hospice,Hospitals/Childcare/Caring Premises,5,0,,182727,5,,,PI/000081454,164,e.health@welhat.gov.uk,Welwyn Hatfield,http://www.welhat.gov.uk,,,2014-02-04,fhrs_5_en-GB,5,,FHRS,5
42304,The Hub,Tamblin Way,Hatfield,Hertfordshire,ISS Food and Hospitality - Affinity,Restaurant/Cafe/Canteen,1,0,,447173,5,,51.76628600000000,PI/000083846,164,e.health@welhat.gov.uk,Welwyn Hatfield,http://www.welhat.gov.uk,-0.24289700000000,AL10 9EZ,2014-09-09,fhrs_5_en-GB,5,,FHRS,5
42305,,,,,J Mo Mo,Mobile caterer,7846,10,,594358,10,,,PI/000085017,164,e.health@welhat.gov.uk,Welwyn Hatfield,http://www.welhat.gov.uk,,,2014-10-10,fhrs_3_en-GB,3,,FHRS,10
42306,57 Bradmore Green,Brookmans Park,Hatfield,Hertfordshire,J R Hammersley And Son Fishmongers,Retailers - other,4613,5,,181781,5,,51.72168700000000,PI/000071335,164,e.health@welhat.gov.uk,Welwyn Hatfield,http://www.welhat.gov.uk,-0.20194500000000,AL9 7QS,2012-11-08,fhrs_5_en-GB,5,,FHRS,5
42307,,,,,Jac's Cakes,Other catering premises,7841,,,516782,,,,PI/000004389,164,e.health@welhat.gov.uk,Welwyn Hatfield,http://www.welhat.gov.uk,,,,fhrs_awaitinginspection_en-GB,AwaitingInspection,,FHRS,
42308,23 Park Street,Hatfield,,,Jaipur Indian Restaurant,Restaurant/Cafe/Canteen,1,10,,181803,5,,51.76303900000000,PI/000071416,164,e.health@welhat.gov.uk,Welwyn Hatfield,http://www.welhat.gov.uk,-0.21363400000000,AL9 5AT,2014-03-20,fhrs_4_en-GB,4,,FHRS,5
42309,,,,,Jean Greer,Other catering premises,7841,5,,323783,5,,,PI/000039056,164,e.health@welhat.gov.uk,Welwyn Hatfield,http://www.welhat.gov.uk,,,2012-03-27,fhrs_5_en-GB,5,,FHRS,5
42310,,,,,Jennings Meat and Fish,Other catering premises,7841,0,,626510,5,,,PI/000023268,164,e.health@welhat.gov.uk,Welwyn Hatfield,http://www.welhat.gov.uk,,,2014-05-15,fhrs_5_en-GB,5,,FHRS,5
42311,21 Market Place,Hatfield,Hertfordshire,,Jennys Burgers,Restaurant/Cafe/Canteen,1,5,,181848,10,,51.76275600000000,PI/000071655,164,e.health@welhat.gov.uk,Welwyn Hatfield,http://www.welhat.gov.uk,-0.22635500000000,AL10 0LJ,2014-07-14,fhrs_4_en-GB,4,,FHRS,5
42312,25 Market Place,Hatfield,Hertfordshire,,Jing Jing Oriental Food Shop,Retailers - other,4613,10,,182070,10,,51.76275600000000,PI/000072764,164,e.health@welhat.gov.uk,Welwyn Hatfield,http://www.welhat.gov.uk,-0.22635500000000,AL10 0LJ,2011-08-08,fhrs_3_en-GB,3,,FHRS,5
42313,,,,,Johns Refreshments,Mobile caterer,7846,5,,182042,10,,,PI/000072606,164,e.health@welhat.gov.uk,Welwyn Hatfield,http://www.welhat.gov.uk,,,2013-09-05,fhrs_4_en-GB,4,,FHRS,5
42314,St Johns VA C of E Primary School,Hertford Road,Welwyn,Hertfordshire,Jousters After School Club,School/college/university,7845,5,,181937,5,,51.81840600000000,PI/000072116,164,e.health@welhat.gov.uk,Welwyn Hatfield,http://www.welhat.gov.uk,-0.18911600000000,AL6 0BX,2012-03-29,fhrs_5_en-GB,5,,FHRS,5
42315,Templewood Primary School,Pentley Park,Welwyn Garden City,Hertfordshire,Jousters at Templewood,School/college/university,7845,0,,182597,0,,51.80996400000000,PI/000077400,164,e.health@welhat.gov.uk,Welwyn Hatfield,http://www.welhat.gov.uk,-0.20916900000000,AL8 7SD,2011-07-07,fhrs_5_en-GB,5,,FHRS,5
42316,29 Jonquil Close,Welwyn Garden City,Hertfordshire,,Jubilee House,Hospitals/Childcare/Caring Premises,5,5,,181454,5,,51.79179300000000,PI/000070448,164,e.health@welhat.gov.uk,Welwyn Hatfield,http://www.welhat.gov.uk,-0.17943700000000,AL7 3HX,2012-10-22,fhrs_5_en-GB,5,,FHRS,5
42317,,,,,Karen's Catering,Other catering premises,7841,0,,181846,0,,,PI/000071647,164,e.health@welhat.gov.uk,Welwyn Hatfield,http://www.welhat.gov.uk,,,2011-08-18,fhrs_5_en-GB,5,,FHRS,5
42318,3 High Street,Welwyn,Hertfordshire,,Katie's Bakery,Retailers - other,4613,5,,181493,10,,51.83062500000000,PI/000070645,164,e.health@welhat.gov.uk,Welwyn Hatfield,http://www.welhat.gov.uk,-0.21547500000000,AL6 9EE,2013-12-12,fhrs_3_en-GB,3,,FHRS,10
42319,59 Dellsome Lane,Welham Green,Hatfield,Hertfordshire,Kean Pharmacy,Retailers - other,4613,,,181859,,,51.73467300000000,PI/000071712,164,e.health@welhat.gov.uk,Welwyn Hatfield,http://www.welhat.gov.uk,-0.21859100000000,AL9 7DY,2011-10-17,fhrs_exempt_en-GB,Exempt,,FHRS,
42320,92 Haldens,Welwyn Garden City,Hertfordshire,,Kebab & Fishermans Net,Takeaway/sandwich shop,7844,0,,555431,5,,51.81243300000000,PI/000027646,164,e.health@welhat.gov.uk,Welwyn Hatfield,http://www.welhat.gov.uk,-0.19009600000000,AL7 1DD,2013-03-15,fhrs_5_en-GB,5,,FHRS,0
42321,40 The Common,Hatfield,Hertfordshire,,Kebabish,Takeaway/sandwich shop,7844,5,,200305,10,,51.76263900000000,PI/000081520,164,e.health@welhat.gov.uk,Welwyn Hatfield,http://www.welhat.gov.uk,-0.23112700000000,AL10 0LU,2013-07-31,fhrs_4_en-GB,4,,FHRS,5
42322,11 Dellsome Lane,Welham Green,Hatfield,Hertfordshire,Kens Family Butchers,Retailers - other,4613,5,,181734,5,,51.73467300000000,PI/000071184,164,e.health@welhat.gov.uk,Welwyn Hatfield,http://www.welhat.gov.uk,-0.21859100000000,AL9 7DY,2014-09-10,fhrs_5_en-GB,5,,FHRS,5
42323,6 Church Road,Welwyn Garden City,Hertfordshire,,KFC,Restaurant/Cafe/Canteen,1,0,,182037,0,,51.80075100000000,PI/000072584,164,e.health@welhat.gov.uk,Welwyn Hatfield,http://www.welhat.gov.uk,-0.20703900000000,AL8 6PS,2011-11-30,fhrs_5_en-GB,5,,FHRS,5
42324,De Havilland Gatehouse,Goldsmith Way,Hatfield,,KFC,Restaurant/Cafe/Canteen,1,0,,589533,0,,,PI/000084771,164,e.health@welhat.gov.uk,Welwyn Hatfield,http://www.welhat.gov.uk,,,2014-01-08,fhrs_5_en-GB,5,,FHRS,5
42325,34 Market Place,Hatfield,Hertfordshire,,Khyber Balti House,Restaurant/Cafe/Canteen,1,20,,181887,10,,51.76275700000000,PI/000071847,164,e.health@welhat.gov.uk,Welwyn Hatfield,http://www.welhat.gov.uk,-0.22645600000000,AL10 0LN,2015-01-16,fhrs_1_en-GB,1,,FHRS,10
42326,Little Heath Primary School,School Road,Potters Bar,Hertfordshire,Kids n Clubs,Other catering premises,7841,,,174971,,,51.70598500000000,PI/000030653,164,e.health@welhat.gov.uk,Welwyn Hatfield,http://www.welhat.gov.uk,-0.17501100000000,EN6 1JW,2013-04-16,fhrs_exempt_en-GB,Exempt,,FHRS,
42327,,,,,Kingfisher Cakes,Other catering premises,7841,5,,499282,5,,,PI/000041038,164,e.health@welhat.gov.uk,Welwyn Hatfield,http://www.welhat.gov.uk,,,2013-10-07,fhrs_5_en-GB,5,,FHRS,5
42328,59 London Road,Knebworth,Hertfordshire,,Knebworth Care Home,Restaurant/Cafe/Canteen,1,10,,456517,10,,51.85350600000000,PI/000029030,164,e.health@welhat.gov.uk,Welwyn Hatfield,http://www.welhat.gov.uk,-0.18120200000000,SG3 6JE,2014-03-05,fhrs_3_en-GB,3,,FHRS,5
42329,Homerswood Primary and Nursery School,Kirklands,Welwyn Garden City,Hertfordshire,Knightsfield Pre-School,School/college/university,7845,0,,182743,0,,51.81745900000000,PI/000081693,164,e.health@welhat.gov.uk,Welwyn Hatfield,http://www.welhat.gov.uk,-0.20298100000000,AL8 7RF,2011-10-05,fhrs_5_en-GB,5,,FHRS,0
42330,Knightsfield,Welwyn Garden City,Hertfordshire,,Knightsfield School,School/college/university,7845,5,,181540,0,,51.82197400000000,PI/000070737,164,e.health@welhat.gov.uk,Welwyn Hatfield,http://www.welhat.gov.uk,-0.20895400000000,AL8 7LW,2010-10-08,fhrs_5_en-GB,5,,FHRS,0
42331,,,,,L A Bakery,Other catering premises,7841,5,,176918,5,,,PI/000039801,164,e.health@welhat.gov.uk,Welwyn Hatfield,http://www.welhat.gov.uk,,,2013-04-17,fhrs_5_en-GB,5,,FHRS,5
42332,Lemsford Lane,Welwyn Garden City,Hertfordshire,,Lakeside School,School/college/university,7845,0,,181608,5,,51.79291500000000,PI/000070857,164,e.health@welhat.gov.uk,Welwyn Hatfield,http://www.welhat.gov.uk,-0.22396800000000,AL8 6YN,2014-06-03,fhrs_5_en-GB,5,,FHRS,5
42333,15 High Street,Welwyn,Hertfordshire,,Laura Kate,Restaurant/Cafe/Canteen,1,,,700064,,,51.83062500000000,PI/000046622,164,e.health@welhat.gov.uk,Welwyn Hatfield,http://www.welhat.gov.uk,-0.21547500000000,AL6 9EE,,fhrs_awaitinginspection_en-GB,AwaitingInspection,,FHRS,
42334,S & B Commercials Plc,Travellers Lane,Hatfield,Hertfordshire,LC's,Restaurant/Cafe/Canteen,1,10,,668519,10,,51.74017200000000,PI/000085955,164,e.health@welhat.gov.uk,Welwyn Hatfield,http://www.welhat.gov.uk,-0.21652100000000,AL9 7HN,2014-12-09,fhrs_3_en-GB,3,,FHRS,5
42335,41 Dellsome Lane,Hatfield,Hertfordshire,,Le On Cafe,Restaurant/Cafe/Canteen,1,5,,182205,10,,51.73467200000000,PI/000073318,164,e.health@welhat.gov.uk,Welwyn Hatfield,http://www.welhat.gov.uk,-0.21859100000000,AL9 7DY,2015-01-16,fhrs_3_en-GB,3,,FHRS,10
42336,117a Moors Walk,Welwyn Garden City,Hertfordshire,,Lee's Fish & Chips,Restaurant/Cafe/Canteen,1,0,,182230,0,,51.80121300000000,PI/000073380,164,e.health@welhat.gov.uk,Welwyn Hatfield,http://www.welhat.gov.uk,-0.17224100000000,AL7 2BQ,2014-03-03,fhrs_5_en-GB,5,,FHRS,5
42337,117 Newgate Street Village,Hertford,Hertfordshire,,Lemon Touch,Other catering premises,7841,0,,637381,5,,51.72778400000000,PI/000010740,164,e.health@welhat.gov.uk,Welwyn Hatfield,http://www.welhat.gov.uk,-0.11198400000000,SG13 8QR,2014-12-03,fhrs_5_en-GB,5,,FHRS,5
42338,Brocket Road,Welwyn Garden City,Hertfordshire,,Lemsford Village Hall,Other catering premises,7841,,,182464,,,,PI/000075470,164,e.health@welhat.gov.uk,Welwyn Hatfield,http://www.welhat.gov.uk,,,,fhrs_exempt_en-GB,Exempt,,FHRS,
42339,61 London Road,Knebworth,Hertfordshire,,Lessiter's Ltd,Manufacturers/packers,7839,,,181400,,,51.85193200000000,PI/000070254,164,e.health@welhat.gov.uk,Welwyn Hatfield,http://www.welhat.gov.uk,-0.18119300000000,SG3 6JY,2014-03-10,fhrs_exempt_en-GB,Exempt,,FHRS,
42340,71-81 Moors Walk,Welwyn Garden City,Hertfordshire,,Lidl Discount Foodstore,Retailers - supermarkets/hypermarkets,7840,5,,181950,5,,51.80121300000000,PI/000072167,164,e.health@welhat.gov.uk,Welwyn Hatfield,http://www.welhat.gov.uk,-0.17224100000000,AL7 2BQ,2011-08-18,fhrs_5_en-GB,5,,FHRS,5
42341,12 Fiddlebridge Industrial Centre,Lemsford Road,Hatfield,Hertfordshire,Lights Pizza,Takeaway/sandwich shop,7844,5,,516788,5,,51.76354600000000,PI/000046811,164,e.health@welhat.gov.uk,Welwyn Hatfield,http://www.welhat.gov.uk,-0.23407700000000,AL10 0DE,2013-02-27,fhrs_5_en-GB,5,,FHRS,5
42342,School Road,Little Heath,Potters Bar,,Little Heath Primary School,School/college/university,7845,5,,181766,5,,51.70598500000000,PI/000071300,164,e.health@welhat.gov.uk,Welwyn Hatfield,http://www.welhat.gov.uk,-0.17501100000000,EN6 1JW,2015-02-03,fhrs_5_en-GB,5,,FHRS,5
42343,37 Cole Green Lane,Welwyn Garden City,Hertfordshire,,Little Orchards,Retailers - other,4613,10,,181487,5,,51.79168900000000,PI/000070596,164,e.health@welhat.gov.uk,Welwyn Hatfield,http://www.welhat.gov.uk,-0.19424700000000,AL7 3PP,2011-07-25,fhrs_3_en-GB,3,,FHRS,10
42344,,,,,LJ's Cake House,Other catering premises,7841,,,555426,,,,PI/000003150,164,e.health@welhat.gov.uk,Welwyn Hatfield,http://www.welhat.gov.uk,,,,fhrs_awaitinginspection_en-GB,AwaitingInspection,,FHRS,
42345,1 Robin Hood Lane,Hatfield,Hertfordshire,,Lloyds Chemist,Retailers - other,4613,,,181850,,,51.76414200000000,PI/000071664,164,e.health@welhat.gov.uk,Welwyn Hatfield,http://www.welhat.gov.uk,-0.22702500000000,AL10 0LP,2013-03-06,fhrs_exempt_en-GB,Exempt,,FHRS,
42346,40 High Street,Welwyn,Hertfordshire,,Lloyds Chemists,Retailers - other,4613,,,181501,,,51.83033200000000,PI/000070668,164,e.health@welhat.gov.uk,Welwyn Hatfield,http://www.welhat.gov.uk,-0.21515300000000,AL6 9EQ,2011-12-06,fhrs_exempt_en-GB,Exempt,,FHRS,
42347,84 Haldens,Welwyn Garden City,Hertfordshire,,Lloyds Pharmacy,Retailers - other,4613,,,181470,,,51.81243300000000,PI/000070528,164,e.health@welhat.gov.uk,Welwyn Hatfield,http://www.welhat.gov.uk,-0.19009600000000,AL7 1DD,2013-03-06,fhrs_exempt_en-GB,Exempt,,FHRS,
42348,9 Shoplands,Welwyn Garden City,Hertfordshire,,Lloyds Pharmacy,Retailers - other,4613,,,181524,,,51.81528800000000,PI/000070707,164,e.health@welhat.gov.uk,Welwyn Hatfield,http://www.welhat.gov.uk,-0.20332900000000,AL8 7RH,2011-12-06,fhrs_exempt_en-GB,Exempt,,FHRS,
42349,Unit 3,Swallowfields,Welwyn Garden City,Hertfordshire,London Condiment Co. Ltd,Manufacturers/packers,7839,0,,668518,5,,51.80034100000000,PI/000085951,164,e.health@welhat.gov.uk,Welwyn Hatfield,http://www.welhat.gov.uk,-0.18912900000000,AL7 1JD,2014-08-18,fhrs_5_en-GB,5,,FHRS,5
42350,6 Manor Parade,Hatfield,Hertfordshire,,Loon Che Chinese Take Away,Takeaway/sandwich shop,7844,5,,181901,5,,51.77156100000000,PI/000071927,164,e.health@welhat.gov.uk,Welwyn Hatfield,http://www.welhat.gov.uk,-0.23363400000000,AL10 9JS,2014-09-09,fhrs_4_en-GB,4,,FHRS,10
42351,21 Dellsome Lane,Hatfield,Hertfordshire,,Lotus Fish Bar,Takeaway/sandwich shop,7844,20,,181857,15,,51.73467300000000,PI/000071708,164,e.health@welhat.gov.uk,Welwyn Hatfield,http://www.welhat.gov.uk,-0.21859100000000,AL9 7DY,2014-06-20,fhrs_1_en-GB,1,,FHRS,15
42352,33 Caponfield,Welwyn Garden City,Hertfordshire,,Lucy's bakehouse,Other catering premises,7841,,,729842,,,51.78914800000000,PI/000014184,164,e.health@welhat.gov.uk,Welwyn Hatfield,http://www.welhat.gov.uk,-0.17475900000000,AL7 4AW,,fhrs_awaitinginspection_en-GB,AwaitingInspection,,FHRS,
42353,Hall Grove,Welwyn Garden City,Hertfordshire,,Ludwick Family Club,Other catering premises,7841,,,181422,,,51.78877900000000,PI/000070357,164,e.health@welhat.gov.uk,Welwyn Hatfield,http://www.welhat.gov.uk,-0.17932700000000,AL7 4PH,2011-07-21,fhrs_exempt_en-GB,Exempt,,FHRS,
42354,,,,,Lunch Box Deli,Other catering premises,7841,,,724472,,,,PI/000036261,164,e.health@welhat.gov.uk,Welwyn Hatfield,http://www.welhat.gov.uk,,,,fhrs_awaitinginspection_en-GB,AwaitingInspection,,FHRS,
42355,,,,,Mad Dogs,Mobile caterer,7846,,,421638,,,,PI/000015025,164,e.health@welhat.gov.uk,Welwyn Hatfield,http://www.welhat.gov.uk,,,,fhrs_awaitinginspection_en-GB,AwaitingInspection,,FHRS,
42356,33-35 Market Place,Hatfield,Hertfordshire,,Maja Polish Shop,Retailers - other,4613,5,,499286,10,,51.76275600000000,PI/000075477,164,e.health@welhat.gov.uk,Welwyn Hatfield,http://www.welhat.gov.uk,-0.22635500000000,AL10 0LJ,2013-06-13,fhrs_4_en-GB,4,,FHRS,5
42357,Layby,Marford Road,Lemsford,Welwyn Garden City,Mal's Mobile,Mobile caterer,7846,5,,185011,5,,51.79849400000000,PI/500004972,164,e.health@welhat.gov.uk,Welwyn Hatfield,http://www.welhat.gov.uk,-0.24962100000000,,2015-01-15,fhrs_5_en-GB,5,,FHRS,5
42358,Oaklands Parade,64 Great North Road,Welwyn,Hertfordshire,Mardley Stores,Retailers - other,4613,5,,181471,5,,51.84192538000000,PI/000070538,164,e.health@welhat.gov.uk,Welwyn Hatfield,http://www.welhat.gov.uk,-0.19406855000000,,2015-01-19,fhrs_5_en-GB,5,,FHRS,5
42359,Unit 14,The Howard Centre,Howardsgate,Welwyn Garden City,Marks & Spencer,Retailers - supermarkets/hypermarkets,7840,0,,178317,0,,51.80121700000000,PI/000046346,164,e.health@welhat.gov.uk,Welwyn Hatfield,http://www.welhat.gov.uk,-0.20458400000000,AL8 6HA,2011-04-13,fhrs_5_en-GB,5,,FHRS,5
42360,1 The Galleria,Comet Way,Hatfield,,Marks And Spencer Outlet,Retailers - other,4613,,,181981,,,51.76091400000000,PI/000072319,164,e.health@welhat.gov.uk,Welwyn Hatfield,http://www.welhat.gov.uk,-0.24141000000000,AL10 0XR,2011-03-07,fhrs_exempt_en-GB,Exempt,,FHRS,
42361,10 Hall Grove,Welwyn Garden City,Hertfordshire,,Martins,Retailers - other,4613,5,,182199,5,,51.78877900000000,PI/000073312,164,e.health@welhat.gov.uk,Welwyn Hatfield,http://www.welhat.gov.uk,-0.17932700000000,AL7 4PH,2012-12-11,fhrs_4_en-GB,4,,FHRS,10
42362,43 Howardsgate,Welwyn Garden City,Hertfordshire,,Martins,Retailers - other,4613,5,,181610,5,,51.80190000000000,PI/000070876,164,e.health@welhat.gov.uk,Welwyn Hatfield,http://www.welhat.gov.uk,-0.20634100000000,AL8 6AP,2012-05-29,fhrs_5_en-GB,5,,FHRS,5
42363,47 Cole Green Lane,Welwyn Garden City,Hertfordshire,,Martins,Retailers - other,4613,,,182204,,,51.79168900000000,PI/000073317,164,e.health@welhat.gov.uk,Welwyn Hatfield,http://www.welhat.gov.uk,-0.19424700000000,AL7 3PP,2012-08-08,fhrs_exempt_en-GB,Exempt,,FHRS,
42364,80 Haldens,Welwyn Garden City,Hertfordshire,,Martins,Retailers - other,4613,,,181468,,,51.81243300000000,PI/000070520,164,e.health@welhat.gov.uk,Welwyn Hatfield,http://www.welhat.gov.uk,-0.19009600000000,AL7 1DD,2012-08-08,fhrs_exempt_en-GB,Exempt,,FHRS,
42365,9 Town Centre,Hatfield,Hertfordshire,,Martins,Retailers - other,4613,,,181841,,,51.76358700000000,PI/000071625,164,e.health@welhat.gov.uk,Welwyn Hatfield,http://www.welhat.gov.uk,-0.22484400000000,AL10 0JZ,2011-10-28,fhrs_exempt_en-GB,Exempt,,FHRS,
42366,Panshanger Post Office,63 Moors Walk,Welwyn Garden City,Hertfordshire,Martins,Retailers - other,4613,,,181322,,,51.80121300000000,PI/000070019,164,e.health@welhat.gov.uk,Welwyn Hatfield,http://www.welhat.gov.uk,-0.17224100000000,AL7 2BQ,2011-09-19,fhrs_exempt_en-GB,Exempt,,FHRS,
42367,South Hatfield Post Office,12 High View,Hatfield,Hertfordshire,Martins,Retailers - other,4613,,,181903,,,51.74854300000000,PI/000071951,164,e.health@welhat.gov.uk,Welwyn Hatfield,http://www.welhat.gov.uk,-0.23434300000000,AL10 8JB,2011-08-05,fhrs_exempt_en-GB,Exempt,,FHRS,
42368,Unit 16,Peartree Farm,Welwyn Garden City,Hertfordshire,Master Chef,Other catering premises,7841,,,175038,,,51.79893100000000,PI/000030906,164,e.health@welhat.gov.uk,Welwyn Hatfield,http://www.welhat.gov.uk,-0.19742400000000,AL7 3UW,2014-06-19,fhrs_4_en-GB,4,,FHRS,
42369,28 High View,Hatfield,Hertfordshire,,Max's Kebab House,Takeaway/sandwich shop,7844,10,,182214,10,,51.74847700000000,PI/000073351,164,e.health@welhat.gov.uk,Welwyn Hatfield,http://www.welhat.gov.uk,-0.23415700000000,AL10 8HZ,2014-01-09,fhrs_3_en-GB,3,,FHRS,10
42370,Peel Court,College Way,Welwyn Garden City,Hertfordshire,McCarthy & Stone Assisted living,Hospitals/Childcare/Caring Premises,5,0,,605846,5,,,PI/000084876,164,e.health@welhat.gov.uk,Welwyn Hatfield,http://www.welhat.gov.uk,,,2014-04-16,fhrs_5_en-GB,5,,FHRS,5
42371,63 Howardsgate,Welwyn Garden City,Hertfordshire,,McDonald's Restaurants Ltd,Restaurant/Cafe/Canteen,1,0,,668517,0,,51.80172000000000,PI/000085370,164,e.health@welhat.gov.uk,Welwyn Hatfield,http://www.welhat.gov.uk,-0.20514400000000,AL8 6BB,2013-04-05,fhrs_5_en-GB,5,,FHRS,5
42372,68 The Galleria,Comet Way,Hatfield,Hertfordshire,McDonald's Restaurants Ltd,Restaurant/Cafe/Canteen,1,0,,181925,0,,51.76135700000000,PI/000072026,164,e.health@welhat.gov.uk,Welwyn Hatfield,http://www.welhat.gov.uk,-0.24039300000000,AL10 0XY,2013-01-30,fhrs_5_en-GB,5,,FHRS,5
42373,Unit,7 Garden Court,Welwyn Garden City,Hertfordshire,Megna Indian Take Away,Takeaway/sandwich shop,7844,5,,182491,5,,51.80160400000000,PI/000075712,164,e.health@welhat.gov.uk,Welwyn Hatfield,http://www.welhat.gov.uk,-0.19580900000000,AL7 1BH,2012-02-02,fhrs_5_en-GB,5,,FHRS,5
42374,Roehyde Way,Hatfield,Hertfordshire,,Mercure Hatfield Oak Hotel,Hotel/bed & breakfast/guest house,7842,5,,178481,10,,51.74585400000000,PI/000047396,164,e.health@welhat.gov.uk,Welwyn Hatfield,http://www.welhat.gov.uk,-0.24092300000000,AL10 9AF,2013-08-09,fhrs_2_en-GB,2,,FHRS,15
42375,,,,,Merenge Foods Ltd,Other catering premises,7841,10,,375931,5,,,PI/000009298,164,e.health@welhat.gov.uk,Welwyn Hatfield,http://www.welhat.gov.uk,,,2012-05-29,fhrs_4_en-GB,4,,FHRS,5
42376,81-82 Bradmore Green,Brookmans Park,Hatfield,Hertfordshire,Methi Indian Cuisine,Restaurant/Cafe/Canteen,1,5,,182012,5,,51.72161800000000,PI/000072456,164,e.health@welhat.gov.uk,Welwyn Hatfield,http://www.welhat.gov.uk,-0.20277300000000,AL9 7QT,2013-05-07,fhrs_5_en-GB,5,,FHRS,5
42377,7 Bradmore Green,Brookmans Park,Hatfield,Hertfordshire,Michaels Family Butcher,Retailers - other,4613,5,,173854,5,,51.72237800000000,PI/000027202,164,e.health@welhat.gov.uk,Welwyn Hatfield,http://www.welhat.gov.uk,-0.20248200000000,AL9 7QW,2014-02-12,fhrs_5_en-GB,5,,FHRS,5
42378,Royal Naval Association Club,Black Fan Road,Welwyn Garden City,,Michele's Snack Shack,Mobile caterer,7846,5,,668522,5,,51.80509400000000,PI/500011327,164,e.health@welhat.gov.uk,Welwyn Hatfield,http://www.welhat.gov.uk,-0.18886700000000,AL7 1HA,2014-12-03,fhrs_4_en-GB,4,,FHRS,10
42379,,,,,Milk Dark White,Other catering premises,7841,,,700062,,,,PI/000041402,164,e.health@welhat.gov.uk,Welwyn Hatfield,http://www.welhat.gov.uk,,,,fhrs_awaitinginspection_en-GB,AwaitingInspection,,FHRS,
42380,,,,,Mill Green Caterers,Other catering premises,7841,5,,555433,5,,,PI/000031944,164,e.health@welhat.gov.uk,Welwyn Hatfield,http://www.welhat.gov.uk,,,2015-01-23,fhrs_5_en-GB,5,,FHRS,5
42381,Gypsy Lane,Welwyn Garden City,Hertfordshire,,Mill Green Golf Club,Restaurant/Cafe/Canteen,1,0,,181682,0,,51.77574900000000,PI/000071070,164,e.health@welhat.gov.uk,Welwyn Hatfield,http://www.welhat.gov.uk,-0.19212900000000,AL7 4TY,2012-02-29,fhrs_5_en-GB,5,,FHRS,0
42382,Great North Road,Hatfield,Hertfordshire,,Miller & Carter,Pub/bar/nightclub,7843,5,,608495,5,,51.73202200000000,PI/000083935,164,e.health@welhat.gov.uk,Welwyn Hatfield,http://www.welhat.gov.uk,-0.18518500000000,AL9 6NA,2013-11-06,fhrs_5_en-GB,5,,FHRS,5
42383,3 Salisbury Square,Hatfield,Hertfordshire,,Ming Garden,Takeaway/sandwich shop,7844,5,,181796,5,,51.76315700000000,PI/000071406,164,e.health@welhat.gov.uk,Welwyn Hatfield,http://www.welhat.gov.uk,-0.21425300000000,AL9 5AD,2014-03-21,fhrs_5_en-GB,5,,FHRS,5
42384,49 Cole Green Lane,Welwyn Garden City,Hertfordshire,,Mini Mart,Retailers - supermarkets/hypermarkets,7840,10,,178422,5,,51.79168900000000,PI/000047005,164,e.health@welhat.gov.uk,Welwyn Hatfield,http://www.welhat.gov.uk,-0.19424700000000,AL7 3PP,2012-11-29,fhrs_4_en-GB,4,,FHRS,5
42385,10 Parkhouse Court,Hatfield,Hertfordshire,,Moe's,Restaurant/Cafe/Canteen,1,20,,323788,15,,51.76360900000000,PI/000077315,164,e.health@welhat.gov.uk,Welwyn Hatfield,http://www.welhat.gov.uk,-0.24124800000000,AL10 9RQ,2014-01-20,fhrs_1_en-GB,1,,FHRS,15
42386,,,,,Moist - Cakes N Bakes,Other catering premises,7841,,,700059,,,,PI/000013077,164,e.health@welhat.gov.uk,Welwyn Hatfield,http://www.welhat.gov.uk,,,,fhrs_awaitinginspection_en-GB,AwaitingInspection,,FHRS,
42387,Knightsfield,Welwyn Garden City,Hertfordshire,,Monks Walk School,School/college/university,7845,0,,175115,5,,51.81988000000000,PI/000031160,164,e.health@welhat.gov.uk,Welwyn Hatfield,http://www.welhat.gov.uk,-0.21137300000000,AL8 7NL,2014-12-04,fhrs_5_en-GB,5,,FHRS,5
42388,38 London Road,Woolmer Green,Knebworth,,Monread Lodge,Hospitals/Childcare/Caring Premises,5,0,,181916,0,,51.86107200000000,PI/000071991,164,e.health@welhat.gov.uk,Welwyn Hatfield,http://www.welhat.gov.uk,-0.18319200000000,SG3 6HG,2013-11-18,fhrs_5_en-GB,5,,FHRS,5
42389,9 Wigmores South,Welwyn Garden City,Hertfordshire,,Moreno's Cafe,Restaurant/Cafe/Canteen,1,5,,516792,10,,51.80111000000000,PI/000083885,164,e.health@welhat.gov.uk,Welwyn Hatfield,http://www.welhat.gov.uk,-0.20760500000000,AL8 6PL,2014-09-09,fhrs_4_en-GB,4,,FHRS,5
42390,40 Black Fan Road,Welwyn Garden City,Hertfordshire,,Morrisons,Retailers - supermarkets/hypermarkets,7840,5,,181394,5,,51.79919600000000,PI/000070213,164,e.health@welhat.gov.uk,Welwyn Hatfield,http://www.welhat.gov.uk,-0.17958900000000,AL7 1RY,2013-08-08,fhrs_5_en-GB,5,,FHRS,5
42391,40 Black Fan Road,Welwyn Garden City,Hertfordshire,,Morrisons Petrol Filling Station,Retailers - other,4613,5,,182500,5,,51.79942443000000,PI/000075824,164,e.health@welhat.gov.uk,Welwyn Hatfield,http://www.welhat.gov.uk,-0.17875223000000,,2012-03-12,fhrs_5_en-GB,5,,FHRS,5
42392,,,,,Mospresso,Mobile caterer,7846,5,,668514,5,,,PI/000075459,164,e.health@welhat.gov.uk,Welwyn Hatfield,http://www.welhat.gov.uk,,,2014-12-10,fhrs_5_en-GB,5,,FHRS,5
42393,20A London Road,Woolmer Green,Knebworth,Hertfordshire,Mr Low Chinese Takeaway,Takeaway/sandwich shop,7844,0,,182002,5,,51.85166600000000,PI/000072405,164,e.health@welhat.gov.uk,Welwyn Hatfield,http://www.welhat.gov.uk,-0.18084100000000,SG3 6JP,2014-06-16,fhrs_5_en-GB,5,,FHRS,5
42394,158 Hollybush Lane,Welwyn Garden City,Hertfordshire,,Mrs C's,Takeaway/sandwich shop,7844,5,,178383,5,,51.78446500000000,PI/000046696,164,e.health@welhat.gov.uk,Welwyn Hatfield,http://www.welhat.gov.uk,-0.19639100000000,AL7 4JU,2015-01-06,fhrs_5_en-GB,5,,FHRS,5
42395,Unit 42,The Howard Centre,Howardsgate,Welwyn Garden City,Muffin Break,Restaurant/Cafe/Canteen,1,10,,181331,10,,51.80121700000000,PI/000070049,164,e.health@welhat.gov.uk,Welwyn Hatfield,http://www.welhat.gov.uk,-0.20458400000000,AL8 6HA,2014-07-22,fhrs_2_en-GB,2,,FHRS,15
42396,Hertfordshire Business Services,Mundells,Welwyn Garden City,Hertfordshire,Mundells Cafe,Restaurant/Cafe/Canteen,1,10,,375933,10,,51.80781600000000,PI/000077399,164,e.health@welhat.gov.uk,Welwyn Hatfield,http://www.welhat.gov.uk,-0.18925100000000,AL7 1FT,2014-01-30,fhrs_3_en-GB,3,,FHRS,10
42397,,,,,My Chocolate Explosion WGC,Mobile caterer,7846,5,,499287,5,,,PI/000083882,164,e.health@welhat.gov.uk,Welwyn Hatfield,http://www.welhat.gov.uk,,,2013-05-01,fhrs_5_en-GB,5,,FHRS,5
42398,Mymwood Lodge,Shepherds Way,Brookmans Park,Hatfield,Mymwood Lifeskills Centre,Hospitals/Childcare/Caring Premises,5,,,589524,,,51.71899700000000,PI/000028224,164,e.health@welhat.gov.uk,Welwyn Hatfield,http://www.welhat.gov.uk,-0.17102700000000,AL9 6NN,2013-09-26,fhrs_exempt_en-GB,Exempt,,FHRS,
42399,66 The Galleria,Comet Way,Hatfield,Hertfordshire,Nandos,Restaurant/Cafe/Canteen,1,0,,182149,5,,51.76135700000000,PI/000073116,164,e.health@welhat.gov.uk,Welwyn Hatfield,http://www.welhat.gov.uk,-0.24039300000000,AL10 0XY,2014-05-19,fhrs_5_en-GB,5,,FHRS,5
42400,36 Wigmores North,Welwyn Garden City,Hertfordshire,,Natural Health Food Store,Retailers - other,4613,,,181363,,,51.80256700000000,PI/000070110,164,e.health@welhat.gov.uk,Welwyn Hatfield,http://www.welhat.gov.uk,-0.20701100000000,AL8 6PH,2011-11-09,fhrs_exempt_en-GB,Exempt,,FHRS,
42401,27 Salisbury Square,Hatfield,Hertfordshire,,New Dynasty,Takeaway/sandwich shop,7844,5,,181800,10,,51.76253400000000,PI/000071411,164,e.health@welhat.gov.uk,Welwyn Hatfield,http://www.welhat.gov.uk,-0.21465500000000,AL9 5JD,2014-09-01,fhrs_3_en-GB,3,,FHRS,10
42402,Unit 11,The Howard Centre,Howardsgate,Welwyn Garden City,New Look,Retailers - other,4613,,,181992,,,51.80121700000000,PI/000072368,164,e.health@welhat.gov.uk,Welwyn Hatfield,http://www.welhat.gov.uk,-0.20458400000000,AL8 6HA,2010-10-11,fhrs_exempt_en-GB,Exempt,,FHRS,
42403,140 Cole Green Lane,Welwyn Garden City,Hertfordshire,,New Zion Christian Fellowship,Retailers - other,4613,,,516789,,,51.79018800000000,PI/000070216,164,e.health@welhat.gov.uk,Welwyn Hatfield,http://www.welhat.gov.uk,-0.18668000000000,AL7 3JE,,fhrs_awaitinginspection_en-GB,AwaitingInspection,,FHRS,
42404,Unit 29,The Howard Centre,Howardsgate,Welwyn Garden City,Next,Retailers - other,4613,,,181418,,,51.80121700000000,PI/000070332,164,e.health@welhat.gov.uk,Welwyn Hatfield,http://www.welhat.gov.uk,-0.20458400000000,AL8 6HA,2013-05-07,fhrs_exempt_en-GB,Exempt,,FHRS,
42405,88-90 Haldens,Welwyn Garden City,Hertfordshire,,Nisa Local,Retailers - supermarkets/hypermarkets,7840,5,,182085,5,,51.81243300000000,PI/000072887,164,e.health@welhat.gov.uk,Welwyn Hatfield,http://www.welhat.gov.uk,-0.19009600000000,AL7 1DD,2012-02-17,fhrs_5_en-GB,5,,FHRS,5
42406,7 High Street,Welwyn,Hertfordshire,,No.7 Cooking Academy,Other catering premises,7841,0,,172936,0,,51.83062500000000,PI/000024497,164,e.health@welhat.gov.uk,Welwyn Hatfield,http://www.welhat.gov.uk,-0.21547500000000,AL6 9EE,2011-03-17,fhrs_5_en-GB,5,,FHRS,0
42407,Nodeway Filling Station,Welwyn By Pass Road,Welwyn,Hertfordshire,Nodeway Connect,Retailers - other,4613,,,182133,,,51.82381600000000,PI/000073062,164,e.health@welhat.gov.uk,Welwyn Hatfield,http://www.welhat.gov.uk,-0.21424900000000,,2011-11-03,fhrs_exempt_en-GB,Exempt,,FHRS,
42408,Stanborough Park,Stanborough Road,Welwyn Garden City,Hertfordshire,North Kiosk,Retailers - other,4613,10,,555449,5,,,PI/000083922,164,e.health@welhat.gov.uk,Welwyn Hatfield,http://www.welhat.gov.uk,,,2014-09-02,fhrs_4_en-GB,4,,FHRS,5
42409,Tolgate Road,Hatfield,Hertfordshire,,North Mymms Cricket Club,Other catering premises,7841,,,181892,,,51.72388500000000,PI/000071882,164,e.health@welhat.gov.uk,Welwyn Hatfield,http://www.welhat.gov.uk,-0.23846000000000,AL9 7TR,2012-05-03,fhrs_exempt_en-GB,Exempt,,FHRS,
42410,Station Road,Welham Green,Hatfield,Hertfordshire,North Mymms Youth and Community Cent,Other catering premises,7841,,,421669,,,51.73080900000000,PI/000072299,164,e.health@welhat.gov.uk,Welwyn Hatfield,http://www.welhat.gov.uk,-0.21105400000000,AL9 7PF,2014-02-26,fhrs_exempt_en-GB,Exempt,,FHRS,
42411,King George V Playing Fields,Northaw Road East,Potters Bar,Hertfordshire,Northaw & Cuffley Bowling Club,Restaurant/Cafe/Canteen,1,10,,181353,5,,,PI/000070087,164,e.health@welhat.gov.uk,Welwyn Hatfield,http://www.welhat.gov.uk,,,2012-08-29,fhrs_4_en-GB,4,,FHRS,5
42412,Northaw Road East,Cuffley,Potters Bar,,Northaw And Cuffley Lawn Tennis Club,Restaurant/Cafe/Canteen,1,10,,589526,5,,51.70182200000000,PI/000032931,164,e.health@welhat.gov.uk,Welwyn Hatfield,http://www.welhat.gov.uk,-0.11978000000000,EN6 4RD,2012-02-29,fhrs_4_en-GB,4,,FHRS,5
42413,Vineyards Road,Northaw,Potters Bar,,Northaw C of E Primary School,School/college/university,7845,0,,181720,5,,51.70623900000000,PI/000071145,164,e.health@welhat.gov.uk,Welwyn Hatfield,http://www.welhat.gov.uk,-0.14758800000000,EN6 4PB,2014-06-10,fhrs_5_en-GB,5,,FHRS,5
42414,5 Northaw Road West,Potters Bar,Hertfordshire,,Northaw Village Hall,Other catering premises,7841,,,181989,,,51.70406900000000,PI/000072348,164,e.health@welhat.gov.uk,Welwyn Hatfield,http://www.welhat.gov.uk,-0.14913900000000,EN6 4NW,2011-12-21,fhrs_exempt_en-GB,Exempt,,FHRS,
42415,,,,,Now Now South African Food Co,Other catering premises,7841,0,,172497,5,,,PI/000023293,164,e.health@welhat.gov.uk,Welwyn Hatfield,http://www.welhat.gov.uk,,,2014-08-20,fhrs_5_en-GB,5,,FHRS,5
42416,11 South Drive,Potters Bar,Hertfordshire,,Number Eleven,Hotel/bed & breakfast/guest house,7842,,,668507,,,51.70386000000000,PI/000011875,164,e.health@welhat.gov.uk,Welwyn Hatfield,http://www.welhat.gov.uk,-0.11393500000000,EN6 4HP,,fhrs_awaitinginspection_en-GB,AwaitingInspection,,FHRS,
42417,Oak Cottage Residential Home,4 Wilkins Green Lane,Hatfield,Hertfordshire,Oak Cottage Care Ltd,Hospitals/Childcare/Caring Premises,5,5,,181900,5,,51.75652900000000,PI/000071918,164,e.health@welhat.gov.uk,Welwyn Hatfield,http://www.welhat.gov.uk,-0.25191100000000,AL10 9RT,2014-06-03,fhrs_4_en-GB,4,,FHRS,10
42418,Woods Avenue,Hatfield,,,Oak View Primary and Nursery School,School/college/university,7845,0,,181822,0,,51.75634300000000,PI/000071508,164,e.health@welhat.gov.uk,Welwyn Hatfield,http://www.welhat.gov.uk,-0.22386800000000,AL10 8NW,2012-01-25,fhrs_5_en-GB,5,,FHRS,5
42419,16 Turpins Chase,Welwyn,Hertfordshire,,Oaklands Manor B&B,Hotel/bed & breakfast/guest house,7842,,,421664,,,51.83969000000000,PI/000045138,164,e.health@welhat.gov.uk,Welwyn Hatfield,http://www.welhat.gov.uk,-0.19084600000000,AL6 0RA,,fhrs_awaitinginspection_en-GB,AwaitingInspection,,FHRS,
42420,Great North Road,Welwyn,Hertfordshire,,Oaklands Primary School,School/college/university,7845,0,,181475,0,,51.84153000000000,PI/000070560,164,e.health@welhat.gov.uk,Welwyn Hatfield,http://www.welhat.gov.uk,-0.19708700000000,AL6 0PX,2013-04-19,fhrs_5_en-GB,5,,FHRS,0
42421,Gypsy Moth Avenue,Hatfield,Hertfordshire,,Ocado Ltd,Retailers - supermarkets/hypermarkets,7840,5,,182521,0,,51.77053700000000,PI/000075989,164,e.health@welhat.gov.uk,Welwyn Hatfield,http://www.welhat.gov.uk,-0.24516700000000,AL10 9BD,2012-11-23,fhrs_5_en-GB,5,,FHRS,5
42422,76 Great North Road,Welwyn,Hertfordshire,,Ocean Star,Restaurant/Cafe/Canteen,1,5,,181473,5,,51.84219400000000,PI/000070540,164,e.health@welhat.gov.uk,Welwyn Hatfield,http://www.welhat.gov.uk,-0.19407000000000,AL6 0TA,2014-11-26,fhrs_5_en-GB,5,,FHRS,5
42423,Building 4000,Mosquito Way,Hatfield,Hertfordshire,OCS Catering - PCL Transport,Restaurant/Cafe/Canteen,1,,,734362,,,,PI/000086002,164,e.health@welhat.gov.uk,Welwyn Hatfield,http://www.welhat.gov.uk,,AL10 9US,,fhrs_awaitinginspection_en-GB,AwaitingInspection,,FHRS,
42424,67 The Galleria,Comet Way,Hatfield,Hertfordshire,Odeon Cinema Ltd,Retailers - other,4613,0,,175244,5,,51.76135700000000,PI/000031651,164,e.health@welhat.gov.uk,Welwyn Hatfield,http://www.welhat.gov.uk,-0.24039300000000,AL10 0XY,2013-11-27,fhrs_5_en-GB,5,,FHRS,5
42425,,,,,Oh My.....Yum (OMY),Other catering premises,7841,5,,637380,5,,,PI/000004838,164,e.health@welhat.gov.uk,Welwyn Hatfield,http://www.welhat.gov.uk,,,2014-09-30,fhrs_5_en-GB,5,,FHRS,5
42426,The Bungalow,Old Owens Sports Ground,Coopers Lane,Potters Bar,Old Owens Sports Association,Restaurant/Cafe/Canteen,1,5,,173599,5,,51.70192600000000,PI/000026274,164,e.health@welhat.gov.uk,Welwyn Hatfield,http://www.welhat.gov.uk,-0.16500000000000,EN6 4NE,2014-10-10,fhrs_5_en-GB,5,,FHRS,5
42427,Hatfield Park,Great North Road,Hatfield,Hertfordshire,Old Palace Restaurant,Restaurant/Cafe/Canteen,1,0,,182167,0,,51.76140300000000,PI/000073165,164,e.health@welhat.gov.uk,Welwyn Hatfield,http://www.welhat.gov.uk,-0.21129400000000,AL9 5NE,2014-06-11,fhrs_5_en-GB,5,,FHRS,5
42428,32-36 High View,Hatfield,Hertfordshire,,One Stop,Retailers - other,4613,,,181930,,,51.74847700000000,PI/000072074,164,e.health@welhat.gov.uk,Welwyn Hatfield,http://www.welhat.gov.uk,-0.23415700000000,AL10 8HZ,2012-08-08,fhrs_exempt_en-GB,Exempt,,FHRS,
42429,Peartree Post Office,120-122 Peartree Lane,Welwyn Garden City,Hertfordshire,One Stop Shop,Retailers - other,4613,,,181516,,,51.79579300000000,PI/000070692,164,e.health@welhat.gov.uk,Welwyn Hatfield,http://www.welhat.gov.uk,-0.19973900000000,AL7 3XW,2011-07-06,fhrs_exempt_en-GB,Exempt,,FHRS,
42430,Old Rectory Drive,Hatfield,,,Onslow St Audreys School,School/college/university,7845,0,,178398,5,,51.76022200000000,PI/000046820,164,e.health@welhat.gov.uk,Welwyn Hatfield,http://www.welhat.gov.uk,-0.22054200000000,AL10 8AB,2014-12-03,fhrs_5_en-GB,5,,FHRS,5
42431,,,,,Organic Chocolate Fountains,Other catering premises,7841,10,,176162,5,,,PI/000035653,164,e.health@welhat.gov.uk,Welwyn Hatfield,http://www.welhat.gov.uk,,,2010-11-03,fhrs_4_en-GB,4,,FHRS,5
42432,31 Dellsome Lane,Welham Green,Hatfield,Hertfordshire,Oriental Express,Restaurant/Cafe/Canteen,1,5,,182102,5,,51.73467300000000,PI/000072966,164,e.health@welhat.gov.uk,Welwyn Hatfield,http://www.welhat.gov.uk,-0.21859100000000,AL9 7DY,2013-04-12,fhrs_5_en-GB,5,,FHRS,5
42433,16 Station Road,Cuffley,Potters Bar,Hertfordshire,Oriental Star,Restaurant/Cafe/Canteen,1,10,,181383,10,,51.70773300000000,PI/000070177,164,e.health@welhat.gov.uk,Welwyn Hatfield,http://www.welhat.gov.uk,-0.11263100000000,EN6 4HT,2014-07-30,fhrs_3_en-GB,3,,FHRS,10
42434,Oshwal Centre,Coopers Lane Road,Potters Bar,Hertfordshire,Oshwal Association Of The Uk,Other catering premises,7841,,,181744,,,51.69568500000000,PI/000071207,164,e.health@welhat.gov.uk,Welwyn Hatfield,http://www.welhat.gov.uk,-0.15123200000000,EN6 4DG,2013-04-05,fhrs_exempt_en-GB,Exempt,,FHRS,
42435,The Hyde,Woodcock Hill,St Albans,Hertfordshire,Osprey London,Restaurant/Cafe/Canteen,1,0,,175338,0,,,PI/000031931,164,e.health@welhat.gov.uk,Welwyn Hatfield,http://www.welhat.gov.uk,,,2011-06-28,fhrs_5_en-GB,5,,FHRS,0
42436,Woodhall Lane,Welwyn Garden City,Hertfordshire,,Our Lady Catholic Primary School,School/college/university,7845,5,,175564,0,,51.79203000000000,PI/000032904,164,e.health@welhat.gov.uk,Welwyn Hatfield,http://www.welhat.gov.uk,-0.20183200000000,AL7 3TF,2014-02-10,fhrs_5_en-GB,5,,FHRS,5
42437,37 Fretherne Road,Welwyn Garden City,Hertfordshire,,Oxfam,Retailers - other,4613,,,181653,,,51.80065000000000,PI/000070992,164,e.health@welhat.gov.uk,Welwyn Hatfield,http://www.welhat.gov.uk,-0.20575300000000,AL8 6NS,2011-12-06,fhrs_exempt_en-GB,Exempt,,FHRS,
42438,36B Howardsgate,Welwyn Garden City,Hertfordshire,,Oxfam Bookshop,Retailers - other,4613,,,555432,,,51.80120400000000,PI/000028461,164,e.health@welhat.gov.uk,Welwyn Hatfield,http://www.welhat.gov.uk,-0.20667300000000,AL8 6BJ,,fhrs_awaitinginspection_en-GB,AwaitingInspection,,FHRS,
42439,15 The Arcade,Hatfield,Hertfordshire,,Pak Halal Butchers,Retailers - other,4613,,,174401,,,51.76320200000000,PI/000029003,164,e.health@welhat.gov.uk,Welwyn Hatfield,http://www.welhat.gov.uk,-0.22554000000000,AL10 0JY,2014-03-27,fhrs_exempt_en-GB,Exempt,,FHRS,
42440,54 The Common,Hatfield,Hertfordshire,,Palmers Newsagents,Retailers - other,4613,,,181844,,,51.76263900000000,PI/000071633,164,e.health@welhat.gov.uk,Welwyn Hatfield,http://www.welhat.gov.uk,-0.23112700000000,AL10 0LU,2011-05-17,fhrs_exempt_en-GB,Exempt,,FHRS,
42441,Daniells,Welwyn Garden City,Hertfordshire,,Panshanger Primary School,School/college/university,7845,0,,181410,5,,51.80249600000000,PI/000070299,164,e.health@welhat.gov.uk,Welwyn Hatfield,http://www.welhat.gov.uk,-0.18190700000000,AL7 1QY,2013-09-04,fhrs_5_en-GB,5,,FHRS,5
42442,2-4 Westfield,Welwyn Garden City,Hertfordshire,,Panshanger Stores,Retailers - other,4613,10,,479963,5,,,PI/000070297,164,e.health@welhat.gov.uk,Welwyn Hatfield,http://www.welhat.gov.uk,,,2013-01-08,fhrs_4_en-GB,4,,FHRS,5
42443,Panshanger Football Club,Moneyhole Recreational Ground,Sylvan Way,Welwyn Garden City,Panshanger Youth Football Club,Restaurant/Cafe/Canteen,1,5,,637387,10,,51.79737900000000,PI/000079805,164,e.health@welhat.gov.uk,Welwyn Hatfield,http://www.welhat.gov.uk,-0.16450700000000,AL7 2RT,2014-02-10,fhrs_4_en-GB,4,,FHRS,5
42444,53 Cole Green Lane,Welwyn Garden City,Hertfordshire,,Papa Johns,Restaurant/Cafe/Canteen,1,5,,182027,5,,51.79168900000000,PI/000072531,164,e.health@welhat.gov.uk,Welwyn Hatfield,http://www.welhat.gov.uk,-0.19424700000000,AL7 3PP,2015-01-16,fhrs_4_en-GB,4,,FHRS,10
42445,,,,,Parisienne the House of Cupcakes,Other catering premises,7841,0,,421632,5,,,PI/000006271,164,e.health@welhat.gov.uk,Welwyn Hatfield,http://www.welhat.gov.uk,,,2012-07-03,fhrs_5_en-GB,5,,FHRS,0
42446,,,,,Parkland Honey,Other catering premises,7841,,,555429,,,,PI/000026624,164,e.health@welhat.gov.uk,Welwyn Hatfield,http://www.welhat.gov.uk,,,,fhrs_awaitinginspection_en-GB,AwaitingInspection,,FHRS,
42447,,,,,Pauline Morris (Home Baker),Other catering premises,7841,0,,421633,5,,,PI/000007810,164,e.health@welhat.gov.uk,Welwyn Hatfield,http://www.welhat.gov.uk,,,2012-06-14,fhrs_5_en-GB,5,,FHRS,5
42448,Building 4000,Mosquito Way,Hatfield,Hertfordshire,PCL Transport,Distributors/Transporters,7,0,,687645,0,,,PI/000084900,164,e.health@welhat.gov.uk,Welwyn Hatfield,http://www.welhat.gov.uk,,AL10 9US,2014-07-04,fhrs_5_en-GB,5,,FHRS,0
42449,Peartree Lane,Welwyn Garden City,Hertfordshire,,Peartree Primary School,School/college/university,7845,5,,181515,5,,51.79579300000000,PI/000070690,164,e.health@welhat.gov.uk,Welwyn Hatfield,http://www.welhat.gov.uk,-0.19973900000000,AL7 3XW,2013-11-12,fhrs_5_en-GB,5,,FHRS,5
42450,26 High View,Hatfield,Hertfordshire,,Pebreya,Retailers - other,4613,10,,558268,10,,51.74847700000000,PI/000028255,164,e.health@welhat.gov.uk,Welwyn Hatfield,http://www.welhat.gov.uk,-0.23415700000000,AL10 8HZ,2014-01-09,fhrs_3_en-GB,3,,FHRS,10
42451,21 Rowans,Welwyn Garden City,Hertfordshire,,Peri-Jerk,Mobile caterer,7846,,,421661,,,51.81397700000000,PI/000043712,164,e.health@welhat.gov.uk,Welwyn Hatfield,http://www.welhat.gov.uk,-0.18587000000000,AL7 1NZ,2014-02-12,fhrs_exempt_en-GB,Exempt,,FHRS,
42452,Pentacostal Church,Hyde Valley Road,,,Peri-Jerk Food Van,Mobile caterer,7846,5,,635120,5,,,PI/500009084,164,e.health@welhat.gov.uk,Welwyn Hatfield,http://www.welhat.gov.uk,,,2014-02-14,fhrs_5_en-GB,5,,FHRS,5
42453,,,,,Peter Stern Catering,Other catering premises,7841,0,,479958,0,,,PI/000031427,164,e.health@welhat.gov.uk,Welwyn Hatfield,http://www.welhat.gov.uk,,,2013-02-21,fhrs_5_en-GB,5,,FHRS,0
42454,Mercury House,1 Broadwater Road,Welwyn Garden City,Hertfordshire,Pinnacle Consulting Engineers,Restaurant/Cafe/Canteen,1,10,,635119,5,,51.79942900000000,PI/000085061,164,e.health@welhat.gov.uk,Welwyn Hatfield,http://www.welhat.gov.uk,-0.19939100000000,AL7 3BQ,2011-08-23,fhrs_4_en-GB,4,,FHRS,5
42455,40-42 Howardsgate,Welwyn Garden City,Hertfordshire,,Pizza Express,Restaurant/Cafe/Canteen,1,5,,182077,5,,51.80120400000000,PI/000072825,164,e.health@welhat.gov.uk,Welwyn Hatfield,http://www.welhat.gov.uk,-0.20667300000000,AL8 6BJ,2013-03-14,fhrs_5_en-GB,5,,FHRS,5
42456,65-65A The Galleria,Comet Way,Hatfield,,Pizza Express,Restaurant/Cafe/Canteen,1,0,,594356,0,,51.76091400000000,PI/000083918,164,e.health@welhat.gov.uk,Welwyn Hatfield,http://www.welhat.gov.uk,-0.24141000000000,AL10 0XY,2014-03-03,fhrs_5_en-GB,5,,FHRS,5
42457,31 Market Place,Hatfield,Hertfordshire,,Pizza Go Go,Takeaway/sandwich shop,7844,10,,182064,10,,51.76275600000000,PI/000072734,164,e.health@welhat.gov.uk,Welwyn Hatfield,http://www.welhat.gov.uk,-0.22635500000000,AL10 0LJ,2014-03-24,fhrs_3_en-GB,3,,FHRS,10
42458,46 The Common,Hatfield,Hertfordshire,,Pizza Hut,Takeaway/sandwich shop,7844,,,718113,,,51.76263900000000,PI/000085996,164,e.health@welhat.gov.uk,Welwyn Hatfield,http://www.welhat.gov.uk,-0.23112700000000,AL10 0LU,,fhrs_awaitinginspection_en-GB,AwaitingInspection,,FHRS,
42459,29 Salisbury Square,Hatfield,Hertfordshire,,Pizza Palace,Restaurant/Cafe/Canteen,1,5,,181802,5,,51.76253400000000,PI/000071413,164,e.health@welhat.gov.uk,Welwyn Hatfield,http://www.welhat.gov.uk,-0.21465500000000,AL9 5JD,2014-03-25,fhrs_4_en-GB,4,,FHRS,10
42460,30 Meadway,Welwyn Garden City,Hertfordshire,,Pizzazz.london,Mobile caterer,7846,0,,668513,5,,51.78989600000000,PI/000042410,164,e.health@welhat.gov.uk,Welwyn Hatfield,http://www.welhat.gov.uk,-0.19460800000000,AL7 4NH,2014-10-28,fhrs_5_en-GB,5,,FHRS,5
42461,35 Dellsome Lane,Welham Green,Hatfield,Hertfordshire,PJ News,Retailers - other,4613,,,181858,,,51.73467300000000,PI/000071709,164,e.health@welhat.gov.uk,Welwyn Hatfield,http://www.welhat.gov.uk,-0.21859100000000,AL9 7DY,2011-10-25,fhrs_exempt_en-GB,Exempt,,FHRS,
42462,Trevelyan House,Church Road,Welwyn Garden City,Hertfordshire,Playschool Nursery,School/college/university,7845,5,,608494,5,,51.79988300000000,PI/000000243,164,e.health@welhat.gov.uk,Welwyn Hatfield,http://www.welhat.gov.uk,-0.20730600000000,AL8 6NT,2014-09-09,fhrs_4_en-GB,4,,FHRS,10
42463,,,,,Plural Ventures Ltd,Other catering premises,7841,5,,177678,5,,,PI/000043271,164,e.health@welhat.gov.uk,Welwyn Hatfield,http://www.welhat.gov.uk,,,2011-08-05,fhrs_5_en-GB,5,,FHRS,5
42464,Presbytery,141 Woodhall Lane,Welwyn Garden City,Hertfordshire,Pomegranate Cafe,Restaurant/Cafe/Canteen,1,10,,182577,10,,51.79079800000000,PI/000077312,164,e.health@welhat.gov.uk,Welwyn Hatfield,http://www.welhat.gov.uk,-0.19892200000000,AL7 3TP,2013-09-12,fhrs_3_en-GB,3,,FHRS,10
42465,Ponsbourne Park,Newgate Street Village,Hertford,Hertfordshire,Ponsbourne Park Hotel,Hotel/bed & breakfast/guest house,7842,0,,182111,5,,51.72978700000000,PI/000072992,164,e.health@welhat.gov.uk,Welwyn Hatfield,http://www.welhat.gov.uk,-0.11573800000000,SG13 8QS,2014-01-11,fhrs_5_en-GB,5,,FHRS,0
42466,55 Newgate Street Village,Hertford,Hertfordshire,,Ponsbourne St Marys C of E VC Primary School,School/college/university,7845,0,,181912,5,,51.72984700000000,PI/000071980,164,e.health@welhat.gov.uk,Welwyn Hatfield,http://www.welhat.gov.uk,-0.11837100000000,SG13 8RA,2014-06-10,fhrs_5_en-GB,5,,FHRS,5
42467,66 Howardsgate,Welwyn Garden City,Hertfordshire,,Poppins,Restaurant/Cafe/Canteen,1,10,,181994,5,,51.80090400000000,PI/000072375,164,e.health@welhat.gov.uk,Welwyn Hatfield,http://www.welhat.gov.uk,-0.20530700000000,AL8 6BP,2013-02-28,fhrs_4_en-GB,4,,FHRS,5
42468,168-170 Hollybush Lane,Welwyn Garden City,Hertfordshire,,Post Office Counters Ltd,Retailers - other,4613,,,589531,,,51.78446500000000,PI/000084640,164,e.health@welhat.gov.uk,Welwyn Hatfield,http://www.welhat.gov.uk,-0.19639100000000,AL7 4JU,2011-03-29,fhrs_exempt_en-GB,Exempt,,FHRS,
42469,70 Great North Road,Welwyn,Hertfordshire,,Post Office Counters Ltd,Retailers - other,4613,,,181477,,,51.84219400000000,PI/000070562,164,e.health@welhat.gov.uk,Welwyn Hatfield,http://www.welhat.gov.uk,-0.19407000000000,AL6 0TA,2011-11-03,fhrs_exempt_en-GB,Exempt,,FHRS,
42470,12-14 Church Road,Welwyn Garden City,Hertfordshire,,Poundstretcher Limited,Retailers - other,4613,0,,175778,0,,51.80022141000000,PI/000033775,164,e.health@welhat.gov.uk,Welwyn Hatfield,http://www.welhat.gov.uk,-0.20685571000000,,2011-11-09,fhrs_5_en-GB,5,,FHRS,5
42471,1-3 South Mundells,Welwyn Garden City,Hertfordshire,,Predator Motorsport,Restaurant/Cafe/Canteen,1,5,,182247,0,,51.80534000000000,PI/000073460,164,e.health@welhat.gov.uk,Welwyn Hatfield,http://www.welhat.gov.uk,-0.19080000000000,AL7 1EP,2013-04-11,fhrs_5_en-GB,5,,FHRS,5
42472,15 Howardsgate,Welwyn Garden City,Hertfordshire,,Prezzo,Restaurant/Cafe/Canteen,1,0,,200307,0,,51.80231500000000,PI/000081824,164,e.health@welhat.gov.uk,Welwyn Hatfield,http://www.welhat.gov.uk,-0.20763000000000,AL8 6AL,2012-02-14,fhrs_5_en-GB,5,,FHRS,0
42473,71-72 The Galleria,Comet Way,Hatfield,Hertfordshire,Prezzo,Restaurant/Cafe/Canteen,1,0,,631470,0,,51.76135700000000,PI/000085010,164,e.health@welhat.gov.uk,Welwyn Hatfield,http://www.welhat.gov.uk,-0.24039300000000,AL10 0XY,2014-03-03,fhrs_5_en-GB,5,,FHRS,5
42474,Unit 2,Swallow End,Welwyn Garden City,Hertfordshire,PW Gates,Restaurant/Cafe/Canteen,1,,,421650,,,51.80129500000000,PI/000027831,164,e.health@welhat.gov.uk,Welwyn Hatfield,http://www.welhat.gov.uk,-0.19033900000000,AL7 1JA,,fhrs_awaitinginspection_en-GB,AwaitingInspection,,FHRS,
42475,Queen Elizabeth II Hospital,Howlands,Welwyn Garden City,Hertfordshire,QEII Sports And Social Club,Restaurant/Cafe/Canteen,1,5,,182001,5,,51.78299900000000,PI/000072401,164,e.health@welhat.gov.uk,Welwyn Hatfield,http://www.welhat.gov.uk,-0.18586600000000,AL7 4HQ,2013-04-10,fhrs_5_en-GB,5,,FHRS,5
42476,Greenacres,Wellfield Close,Hatfield,,Quantum Care Ltd,Hospitals/Childcare/Caring Premises,5,0,,181833,5,,51.76593400000000,PI/000071570,164,e.health@welhat.gov.uk,Welwyn Hatfield,http://www.welhat.gov.uk,-0.22840400000000,AL10 0BU,2014-03-04,fhrs_5_en-GB,5,,FHRS,5
42477,Hyde Valley House,Hyde Valley,Welwyn Garden City,Hertfordshire,Quantum Care Ltd,Hospitals/Childcare/Caring Premises,5,5,,181518,5,,51.79089100000000,PI/000070696,164,e.health@welhat.gov.uk,Welwyn Hatfield,http://www.welhat.gov.uk,-0.19206000000000,AL7 4ND,2013-11-29,fhrs_5_en-GB,5,,FHRS,5
42478,73 School Lane,Welwyn,Hertfordshire,,Queen Victoria Memorial Hospital,Hospitals/Childcare/Caring Premises,5,0,,181628,5,,51.82796700000000,PI/000070942,164,e.health@welhat.gov.uk,Welwyn Hatfield,http://www.welhat.gov.uk,-0.22288000000000,AL6 9PW,2014-04-29,fhrs_5_en-GB,5,,FHRS,5
42479,Shepherds Way,Brookmans Park,Hatfield,,Queenswood School,School/college/university,7845,0,,181748,0,,51.71538600000000,PI/000071224,164,e.health@welhat.gov.uk,Welwyn Hatfield,http://www.welhat.gov.uk,-0.16662700000000,AL9 6NS,2013-11-06,fhrs_5_en-GB,5,,FHRS,0
42480,16-22 Birchwood Avenue,Hatfield,Hertfordshire,,Quigleys Newsagent,Retailers - other,4613,,,181813,,,51.76924300000000,PI/000071443,164,e.health@welhat.gov.uk,Welwyn Hatfield,http://www.welhat.gov.uk,-0.23017300000000,AL10 0PW,2011-10-31,fhrs_exempt_en-GB,Exempt,,FHRS,
42481,19 Market Place,Hatfield,Hertfordshire,,Rainbow Noodle Bar,Restaurant/Cafe/Canteen,1,0,,175817,0,,51.76275600000000,PI/000034046,164,e.health@welhat.gov.uk,Welwyn Hatfield,http://www.welhat.gov.uk,-0.22635500000000,AL10 0LJ,2013-03-22,fhrs_5_en-GB,5,,FHRS,5
42482,78 Haldens,Welwyn Garden City,Hertfordshire,,Raj Garden Tandoori IndianRestaurant,Restaurant/Cafe/Canteen,1,10,,182086,5,,51.81243300000000,PI/000072888,164,e.health@welhat.gov.uk,Welwyn Hatfield,http://www.welhat.gov.uk,-0.19009600000000,AL7 1DD,2013-05-13,fhrs_4_en-GB,4,,FHRS,5
42483,55 Bradmore Green,Hatfield,Hertfordshire,,Raj Tandoori,Restaurant/Cafe/Canteen,1,5,,181780,5,,51.72168700000000,PI/000071334,164,e.health@welhat.gov.uk,Welwyn Hatfield,http://www.welhat.gov.uk,-0.20194500000000,AL9 7QS,2014-08-12,fhrs_4_en-GB,4,,FHRS,10
42484,St Albans Road West,Hatfield,Hertfordshire,,Ramada Hatfield Hotel,Hotel/bed & breakfast/guest house,7842,,,700066,,,51.76006300000000,PI/000085058,164,e.health@welhat.gov.uk,Welwyn Hatfield,http://www.welhat.gov.uk,-0.24464600000000,AL10 9RH,2015-01-08,fhrs_5_en-GB,5,,FHRS,
42485,Bessemer Road,Welwyn Garden City,Hertfordshire,,Rank Xerox Ltd,Restaurant/Cafe/Canteen,1,5,,181449,5,,51.80504200000000,PI/000070406,164,e.health@welhat.gov.uk,Welwyn Hatfield,http://www.welhat.gov.uk,-0.19573500000000,,2014-03-31,fhrs_5_en-GB,5,,FHRS,5
42486,Bessemer Road,Welwyn Garden City,Hertfordshire,,Ratcliff Palfinger,Restaurant/Cafe/Canteen,1,0,,181448,0,,51.81010600000000,PI/000070405,164,e.health@welhat.gov.uk,Welwyn Hatfield,http://www.welhat.gov.uk,-0.19140700000000,AL7 1ET,2011-08-09,fhrs_5_en-GB,5,,FHRS,5
42487,de Havilland Campus,Mosquito Way,Hatfield,,Refectory,Restaurant/Cafe/Canteen,1,5,,182605,5,,,PI/000077656,164,e.health@welhat.gov.uk,Welwyn Hatfield,http://www.welhat.gov.uk,,,2014-01-13,fhrs_4_en-GB,4,,FHRS,10
42488,"Flat, Friends Meeting House",109 Handside Lane,Welwyn Garden City,Hertfordshire,Religious Society Of Friends,Other catering premises,7841,5,,499285,5,,51.79900100000000,PI/000070937,164,e.health@welhat.gov.uk,Welwyn Hatfield,http://www.welhat.gov.uk,-0.21552000000000,AL8 6SP,2012-11-30,fhrs_5_en-GB,5,,FHRS,5
42489,2-6 Market Place,Hatfield,Hertfordshire,,Rendezvous,Restaurant/Cafe/Canteen,1,5,,175816,5,,51.76275700000000,PI/000034041,164,e.health@welhat.gov.uk,Welwyn Hatfield,http://www.welhat.gov.uk,-0.22645600000000,AL10 0LN,2011-10-05,fhrs_4_en-GB,4,,FHRS,10
42490,Stanborough Lodge,Great North Road,Welwyn Garden City,Hertfordshire,Residential Care Home,Hospitals/Childcare/Caring Premises,5,0,,605844,0,,51.78262700000000,PI/000048656,164,e.health@welhat.gov.uk,Welwyn Hatfield,http://www.welhat.gov.uk,-0.22447400000000,AL8 7TD,2013-03-04,fhrs_5_en-GB,5,,FHRS,0
42491,15 Town Centre,Hatfield,Hertfordshire,,Rice Time,Restaurant/Cafe/Canteen,1,5,,181842,5,,51.76358700000000,PI/000071626,164,e.health@welhat.gov.uk,Welwyn Hatfield,http://www.welhat.gov.uk,-0.22484400000000,AL10 0JZ,2013-03-26,fhrs_5_en-GB,5,,FHRS,5
42492,Unit 7,1 High View,Hatfield,Hertfordshire,Robins Pizza,Takeaway/sandwich shop,7844,20,,182302,15,,51.74847700000000,PI/000073771,164,e.health@welhat.gov.uk,Welwyn Hatfield,http://www.welhat.gov.uk,-0.23415700000000,AL10 8HZ,2014-03-31,fhrs_1_en-GB,1,,FHRS,15
42493,Briars Lane,Hatfield,Hertfordshire,,Roe Hill Playgroup,Restaurant/Cafe/Canteen,1,,,182056,,,51.76026500000000,PI/000072705,164,e.health@welhat.gov.uk,Welwyn Hatfield,http://www.welhat.gov.uk,-0.22994500000000,AL10 8ES,,fhrs_exempt_en-GB,Exempt,,FHRS,
42494,50-52 Town Centre,Hatfield,Hertfordshire,,Roll On Friday,Restaurant/Cafe/Canteen,1,5,,181362,5,,51.76379600000000,PI/000070109,164,e.health@welhat.gov.uk,Welwyn Hatfield,http://www.welhat.gov.uk,-0.22676300000000,AL10 0JJ,2013-04-04,fhrs_4_en-GB,4,,FHRS,10
42495,22 High Road,Hatfield,Hertfordshire,,Rose and Crown,Pub/bar/nightclub,7843,5,,181602,5,,51.76036400000000,PI/000070851,164,e.health@welhat.gov.uk,Welwyn Hatfield,http://www.welhat.gov.uk,-0.15395200000000,AL9 6HW,2013-10-29,fhrs_5_en-GB,5,,FHRS,5
42496,,,,,Rouge Catering,Other catering premises,7841,5,,173314,5,,,PI/000025410,164,e.health@welhat.gov.uk,Welwyn Hatfield,http://www.welhat.gov.uk,,,2011-10-17,fhrs_5_en-GB,5,,FHRS,5
42497,9 Guessens Road,Welwyn Garden City,Hertfordshire,,Rowan Tree Day Nursery,School/college/university,7845,0,,182078,5,,51.80338000000000,PI/000072829,164,e.health@welhat.gov.uk,Welwyn Hatfield,http://www.welhat.gov.uk,-0.20963300000000,AL8 6QW,2012-12-07,fhrs_5_en-GB,5,,FHRS,5
42498,Rowans,Welwyn Garden City,Hertfordshire,,Rowans Primary School,School/college/university,7845,0,,178259,5,,51.81397700000000,PI/000046056,164,e.health@welhat.gov.uk,Welwyn Hatfield,http://www.welhat.gov.uk,-0.18587000000000,AL7 1NZ,2012-11-21,fhrs_5_en-GB,5,,FHRS,5
42499,Welwyn Garden City Delivery Office,Bessemer Road,Welwyn Garden City,Hertfordshire,Royal Mail,Restaurant/Cafe/Canteen,1,0,,181446,0,,51.80449200000000,PI/000070397,164,e.health@welhat.gov.uk,Welwyn Hatfield,http://www.welhat.gov.uk,-0.19591100000000,AL7 1AA,2011-03-16,fhrs_5_en-GB,5,,FHRS,5
42500,Northern Home Counties Distribution Centre,Hatfield Business Park,Frobisher Way,Hatfield,Royal Mail Streamline,Restaurant/Cafe/Canteen,1,0,,181998,0,,51.77480200000000,PI/000072398,164,e.health@welhat.gov.uk,Welwyn Hatfield,http://www.welhat.gov.uk,-0.25078500000000,AL10 9SL,2015-01-14,fhrs_5_en-GB,5,,FHRS,0
42501,Black Fan Road,Welwyn Garden City,Hertfordshire,,Royal Naval Association Club,Other catering premises,7841,5,,173980,5,,51.80509400000000,PI/000027639,164,e.health@welhat.gov.uk,Welwyn Hatfield,http://www.welhat.gov.uk,-0.18886700000000,AL7 1HA,2012-02-06,fhrs_5_en-GB,5,,FHRS,5
42502,44 Church Road,Welwyn Garden City,Hertfordshire,,Sainsbury,Retailers - supermarkets/hypermarkets,7840,0,,516785,0,,51.80358300000000,PI/000027335,164,e.health@welhat.gov.uk,Welwyn Hatfield,http://www.welhat.gov.uk,-0.21175700000000,AL8 6SA,2013-03-08,fhrs_5_en-GB,5,,FHRS,0
42503,26 Station Road,Cuffley,Potters Bar,Hertfordshire,Salepick Pharmacy,Retailers - other,4613,,,181385,,,51.70773300000000,PI/000070180,164,e.health@welhat.gov.uk,Welwyn Hatfield,http://www.welhat.gov.uk,-0.11263100000000,EN6 4HT,2011-03-29,fhrs_exempt_en-GB,Exempt,,FHRS,
42504,Unit 2,Sterling Court,Mundells,Welwyn Garden City,Salvation Herts International Church,Other catering premises,7841,5,,605841,5,,51.80781600000000,PI/000027567,164,e.health@welhat.gov.uk,Welwyn Hatfield,http://www.welhat.gov.uk,-0.18925100000000,AL7 1FT,2013-09-26,fhrs_5_en-GB,5,,FHRS,5
42505,31 Stonehills,Welwyn Garden City,Hertfordshire,,Savers Health & Beauty,Retailers - other,4613,,,706078,,,51.80222900000000,PI/000027354,164,e.health@welhat.gov.uk,Welwyn Hatfield,http://www.welhat.gov.uk,-0.20490700000000,AL8 6NA,,fhrs_awaitinginspection_en-GB,AwaitingInspection,,FHRS,
42506,,,,,Scrumptious Temptations,Other catering premises,7841,,,734357,,,,PI/000006620,164,e.health@welhat.gov.uk,Welwyn Hatfield,http://www.welhat.gov.uk,,,,fhrs_awaitinginspection_en-GB,AwaitingInspection,,FHRS,
42507,39 Cole Green Lane,Welwyn Garden City,Hertfordshire,,Seaworld,Takeaway/sandwich shop,7844,0,,174111,5,,51.79168900000000,PI/000028034,164,e.health@welhat.gov.uk,Welwyn Hatfield,http://www.welhat.gov.uk,-0.19424700000000,AL7 3PP,2015-01-13,fhrs_5_en-GB,5,,FHRS,5
42508,7 Parkhouse Court,Hatfield,Hertfordshire,,Sella Supermarket,Retailers - supermarkets/hypermarkets,7840,5,,182213,5,,51.76360900000000,PI/000073343,164,e.health@welhat.gov.uk,Welwyn Hatfield,http://www.welhat.gov.uk,-0.24124800000000,AL10 9RQ,2012-08-14,fhrs_5_en-GB,5,,FHRS,5
42509,Tesco HO,Concept Centre,Shire Business Park,Falcon Way,Servest Catering,Restaurant/Cafe/Canteen,1,5,,687647,5,,51.80449200000000,PI/500011490,164,e.health@welhat.gov.uk,Welwyn Hatfield,http://www.welhat.gov.uk,-0.19591100000000,AL7 1AB,2015-01-07,fhrs_5_en-GB,5,,FHRS,5
42510,Tesco Stores Ltd,Travellers Lane,Hatfield,Hertfordshire,Servest Catering,Restaurant/Cafe/Canteen,1,0,,182242,0,,,PI/000073424,164,e.health@welhat.gov.uk,Welwyn Hatfield,http://www.welhat.gov.uk,,AL9 7HY,2011-08-12,fhrs_5_en-GB,5,,FHRS,0
42511,6A Sewells,Welwyn Garden City,Hertfordshire,,Sewells Residential Home,Hospitals/Childcare/Caring Premises,5,5,,181434,5,,51.81536000000000,PI/000070380,164,e.health@welhat.gov.uk,Welwyn Hatfield,http://www.welhat.gov.uk,-0.19742100000000,AL8 7AQ,2013-01-08,fhrs_5_en-GB,5,,FHRS,5
42512,"Second Floor, Culpitt House",74-78 Town Centre,Hatfield,Hertfordshire,Shades Pool & Snooker Club,Pub/bar/nightclub,7843,5,,181882,5,,51.76363500000000,PI/000071824,164,e.health@welhat.gov.uk,Welwyn Hatfield,http://www.welhat.gov.uk,-0.22739300000000,AL10 0JW,2012-09-06,fhrs_5_en-GB,5,,FHRS,5
42513,132 The Galleria,Comet Way,Hatfield,Hertfordshire,Shake a Snake,Takeaway/sandwich shop,7844,5,,182737,5,,51.84004974365234,PI/000081660,164,e.health@welhat.gov.uk,Welwyn Hatfield,http://www.welhat.gov.uk,-0.27510499954224,AL10 0XB,2010-09-13,fhrs_5_en-GB,5,,FHRS,5
42514,Ridgeway,Welwyn Garden City,Hertfordshire,,Shamrock Club,Pub/bar/nightclub,7843,10,,178304,5,,51.79963900000000,PI/000046312,164,e.health@welhat.gov.uk,Welwyn Hatfield,http://www.welhat.gov.uk,-0.18147100000000,AL7 2AD,2010-10-06,fhrs_4_en-GB,4,,FHRS,5
42515,Stadium Service Station,Stanborough Road,Welwyn Garden City,Hertfordshire,Shell,Retailers - other,4613,,,555446,,,51.79329800000000,PI/000083912,164,e.health@welhat.gov.uk,Welwyn Hatfield,http://www.welhat.gov.uk,-0.21069900000000,AL8 6XA,,fhrs_awaitinginspection_en-GB,AwaitingInspection,,FHRS,
42516,3 Lockleys,Welwyn,Hertfordshire,,Sherrardswood School,School/college/university,7845,0,,182570,5,,51.82841000000000,PI/000077274,164,e.health@welhat.gov.uk,Welwyn Hatfield,http://www.welhat.gov.uk,-0.20646400000000,AL6 0BJ,2013-04-24,fhrs_5_en-GB,5,,FHRS,5
42517,Recreation Club,Shire Park,Falcon Way,Welwyn Garden City,Shire Park Club,Pub/bar/nightclub,7843,10,,182034,10,,51.80789400000000,PI/000072569,164,e.health@welhat.gov.uk,Welwyn Hatfield,http://www.welhat.gov.uk,-0.19726900000000,AL7 1TW,2013-03-01,fhrs_3_en-GB,3,,FHRS,5
42518,,,,,Sian Carson,Other catering premises,7841,,,578225,,,,PI/000020548,164,e.health@welhat.gov.uk,Welwyn Hatfield,http://www.welhat.gov.uk,,,,fhrs_awaitinginspection_en-GB,AwaitingInspection,,FHRS,
42519,19 Station Road,Hatfield,Hertfordshire,,Sibthorpe Arms,Pub/bar/nightclub,7843,0,,181862,0,,51.73264000000000,PI/000071719,164,e.health@welhat.gov.uk,Welwyn Hatfield,http://www.welhat.gov.uk,-0.21383400000000,AL9 7PL,2011-08-25,fhrs_5_en-GB,5,,FHRS,0
42520,68 Town Centre,Hatfield,Hertfordshire,,Simmons,Retailers - other,4613,0,,421676,5,,51.76363500000000,PI/000083845,164,e.health@welhat.gov.uk,Welwyn Hatfield,http://www.welhat.gov.uk,-0.22739300000000,AL10 0JW,2012-09-07,fhrs_5_en-GB,5,,FHRS,0
42521,129 Birchwood Avenue,Hatfield,Hertfordshire,,Simmons (Bakers) Ltd,Retailers - other,4613,0,,181757,0,,51.77045600000000,PI/000071261,164,e.health@welhat.gov.uk,Welwyn Hatfield,http://www.welhat.gov.uk,-0.22538600000000,AL10 0PT,2012-08-10,fhrs_5_en-GB,5,,FHRS,5
42522,14 Station Road,Cuffley,Potters Bar,Hertfordshire,Simmons (Bakers) Ltd,Retailers - other,4613,5,,182217,5,,51.70773300000000,PI/000073357,164,e.health@welhat.gov.uk,Welwyn Hatfield,http://www.welhat.gov.uk,-0.11263100000000,EN6 4HT,2014-03-24,fhrs_5_en-GB,5,,FHRS,5
42523,3 The Parade,St Albans Road East,Hatfield,,Simmons (Bakers) Ltd,Retailers - other,4613,0,,181740,5,,51.76699900000000,PI/000071201,164,e.health@welhat.gov.uk,Welwyn Hatfield,http://www.welhat.gov.uk,-0.21794200000000,AL10 0EY,2013-09-17,fhrs_5_en-GB,5,,FHRS,5
42524,33 Howardsgate,Welwyn Garden City,Hertfordshire,,Simmons (Bakers) Ltd,Retailers - other,4613,5,,181993,5,,51.80190000000000,PI/000072369,164,e.health@welhat.gov.uk,Welwyn Hatfield,http://www.welhat.gov.uk,-0.20634100000000,AL8 6AP,2014-03-11,fhrs_5_en-GB,5,,FHRS,0
42525,34 High Street,Welwyn,Hertfordshire,,Simmons (Bakers) Ltd,Retailers - other,4613,0,,181499,5,,51.83033200000000,PI/000070667,164,e.health@welhat.gov.uk,Welwyn Hatfield,http://www.welhat.gov.uk,-0.21515300000000,AL6 9EQ,2014-07-16,fhrs_5_en-GB,5,,FHRS,5
42526,35 Cole Green Lane,Welwyn Garden City,Hertfordshire,,Simmons (Bakers) Ltd,Retailers - other,4613,5,,181483,5,,51.79168900000000,PI/000070586,164,e.health@welhat.gov.uk,Welwyn Hatfield,http://www.welhat.gov.uk,-0.19424700000000,AL7 3PP,2014-01-14,fhrs_5_en-GB,5,,FHRS,5
42527,51 Dellsome Lane,Hatfield,Hertfordshire,,Simmons (Bakers) Ltd,Retailers - other,4613,5,,181804,5,,51.73467300000000,PI/000071417,164,e.health@welhat.gov.uk,Welwyn Hatfield,http://www.welhat.gov.uk,-0.21859100000000,AL9 7DY,2014-06-17,fhrs_5_en-GB,5,,FHRS,5
42528,67 Moors Walk,Welwyn Garden City,Hertfordshire,,Simmons (Bakers) Ltd,Retailers - other,4613,0,,181378,0,,51.80121300000000,PI/000070153,164,e.health@welhat.gov.uk,Welwyn Hatfield,http://www.welhat.gov.uk,-0.17224100000000,AL7 2BQ,2015-01-27,fhrs_5_en-GB,5,,FHRS,0
42529,Herns Lane,Welwyn Garden City,Hertfordshire,,Sir Frederic Osborn School,School/college/university,7845,0,,181413,0,,51.80218200000000,PI/000070311,164,e.health@welhat.gov.uk,Welwyn Hatfield,http://www.welhat.gov.uk,-0.17907700000000,AL7 2AF,2013-05-16,fhrs_5_en-GB,5,,FHRS,0
42530,14 Hall Grove,Welwyn Garden City,Hertfordshire,,Sizzlers,Restaurant/Cafe/Canteen,1,0,,181460,0,,51.78877900000000,PI/000070496,164,e.health@welhat.gov.uk,Welwyn Hatfield,http://www.welhat.gov.uk,-0.17932700000000,AL7 4PH,2011-08-18,fhrs_5_en-GB,5,,FHRS,0
42531,50 The Common,Hatfield,Hertfordshire,,Skippers Fish & Chips,Takeaway/sandwich shop,7844,10,,181843,10,,51.76263900000000,PI/000071632,164,e.health@welhat.gov.uk,Welwyn Hatfield,http://www.welhat.gov.uk,-0.23112700000000,AL10 0LU,2015-01-07,fhrs_3_en-GB,3,,FHRS,10
42532,1 Glenwood,Welwyn Garden City,Hertfordshire,,Snack Delivery Service,Restaurant/Cafe/Canteen,1,10,,182274,5,,51.79570300000000,PI/000073532,164,e.health@welhat.gov.uk,Welwyn Hatfield,http://www.welhat.gov.uk,-0.16657600000000,AL7 2JT,2012-04-17,fhrs_4_en-GB,4,,FHRS,5
42533,Glaxosmithkline Training Centre,North Mymms Park,Tolgate Road,North Mymms,Sodexo,Restaurant/Cafe/Canteen,1,0,,182589,0,,51.72239500000000,PI/000077346,164,e.health@welhat.gov.uk,Welwyn Hatfield,http://www.welhat.gov.uk,-0.23804000000000,AL9 7TR,2012-02-08,fhrs_5_en-GB,5,,FHRS,0
42534,27 Station Road,Potters Bar,Hertfordshire,,Sonar Bangla Restaurant,Restaurant/Cafe/Canteen,1,5,,181388,5,,51.70815400000000,PI/000070186,164,e.health@welhat.gov.uk,Welwyn Hatfield,http://www.welhat.gov.uk,-0.11202000000000,EN6 4HX,2014-03-27,fhrs_5_en-GB,5,,FHRS,5
42535,31 Town Centre,Hatfield,Hertfordshire,,Springfield Pharmacy,Retailers - other,4613,,,181839,,,51.76326900000000,PI/000071613,164,e.health@welhat.gov.uk,Welwyn Hatfield,http://www.welhat.gov.uk,-0.22639300000000,AL10 0JT,2011-08-09,fhrs_exempt_en-GB,Exempt,,FHRS,
42536,Hillyfields,Welwyn Garden City,Hertfordshire,,Springmead Primary School,School/college/university,7845,0,,175386,0,,51.80302500000000,PI/000032155,164,e.health@welhat.gov.uk,Welwyn Hatfield,http://www.welhat.gov.uk,-0.17019500000000,AL7 2HB,2014-07-04,fhrs_5_en-GB,5,,FHRS,5
42537,Holwell Road,Welwyn Garden City,Hertfordshire,,Squirrels At Ludwick,Restaurant/Cafe/Canteen,1,0,,182463,5,,51.79413100000000,PI/000075464,164,e.health@welhat.gov.uk,Welwyn Hatfield,http://www.welhat.gov.uk,-0.19574400000000,AL7 3RP,2015-01-29,fhrs_5_en-GB,5,,FHRS,5
42538,Plough Hill,Potters Bar,Hertfordshire,,St Andrews Church,Other catering premises,7841,,,181389,,,51.70931600000000,PI/000070193,164,e.health@welhat.gov.uk,Welwyn Hatfield,http://www.welhat.gov.uk,-0.11438900000000,EN6 4DR,2011-08-23,fhrs_exempt_en-GB,Exempt,,FHRS,
42539,Fore Street,Hatfield,Hertfordshire,,St Etheldredas Church,Other catering premises,7841,,,182452,,,51.76200400000000,PI/000075401,164,e.health@welhat.gov.uk,Welwyn Hatfield,http://www.welhat.gov.uk,-0.21243700000000,,2012-03-06,fhrs_exempt_en-GB,Exempt,,FHRS,
42540,12 The Minims,Hatfield,Hertfordshire,,St John of God Hospitaller Services,Hospitals/Childcare/Caring Premises,5,0,,181852,5,,51.76670500000000,PI/000071676,164,e.health@welhat.gov.uk,Welwyn Hatfield,http://www.welhat.gov.uk,-0.23127200000000,AL10 0AW,2015-01-15,fhrs_5_en-GB,5,,FHRS,5
42541,Lemsford Village,Welwyn Garden City,Hertfordshire,,St Johns Church of England JMI School,School/college/university,7845,0,,182196,5,,51.79600300000000,PI/000073303,164,e.health@welhat.gov.uk,Welwyn Hatfield,http://www.welhat.gov.uk,-0.23317200000000,AL8 7TR,2013-11-13,fhrs_5_en-GB,5,,FHRS,5
42542,Hertford Road,Welwyn,Hertfordshire,,St Johns VA C of E Primary School,School/college/university,7845,0,,181435,5,,51.81840600000000,PI/000070382,164,e.health@welhat.gov.uk,Welwyn Hatfield,http://www.welhat.gov.uk,-0.18911600000000,AL6 0BX,2013-05-01,fhrs_5_en-GB,5,,FHRS,5
42543,Bishops Rise,Hatfield,Hertfordshire,,St Johns Youth Centre,Other catering premises,7841,,,181867,,,51.74814500000000,PI/000071752,164,e.health@welhat.gov.uk,Welwyn Hatfield,http://www.welhat.gov.uk,-0.23483700000000,AL10 9BZ,2013-04-23,fhrs_exempt_en-GB,Exempt,,FHRS,
42544,Hollybush Lane,Welwyn Garden City,Hertfordshire,,St Mary Magdalene Church,Other catering premises,7841,,,582800,,,,PI/000075402,164,e.health@welhat.gov.uk,Welwyn Hatfield,http://www.welhat.gov.uk,,,2013-04-25,fhrs_exempt_en-GB,Exempt,,FHRS,
42545,Dellsome Lane,Welham Green,Hatfield,,St Marys Church of England VA Primary School,School/college/university,7845,0,,181890,0,,51.73557400000000,PI/000071868,164,e.health@welhat.gov.uk,Welwyn Hatfield,http://www.welhat.gov.uk,-0.22109000000000,AL9 7NE,2013-05-16,fhrs_5_en-GB,5,,FHRS,0
42546,St Michaels Woolmer Green School,12 London Road,Knebworth,Hertfordshire,St Michael'S Pre-School,School/college/university,7845,,,181933,,,51.85166600000000,PI/000072104,164,e.health@welhat.gov.uk,Welwyn Hatfield,http://www.welhat.gov.uk,-0.18084100000000,SG3 6JP,2013-05-02,fhrs_exempt_en-GB,Exempt,,FHRS,
42547,12 London Road,Knebworth,Hertfordshire,,St Michaels Woolmer Green School,School/college/university,7845,0,,181404,0,,51.85166600000000,PI/000070275,164,e.health@welhat.gov.uk,Welwyn Hatfield,http://www.welhat.gov.uk,-0.18084100000000,SG3 6JP,2011-07-12,fhrs_5_en-GB,5,,FHRS,5
42548,St Peters Catholic Church,Bishops Rise,Hatfield,Hertfordshire,St Peters Presbytery,Other catering premises,7841,,,181895,,,51.75349300000000,PI/000071891,164,e.health@welhat.gov.uk,Welwyn Hatfield,http://www.welhat.gov.uk,-0.23348400000000,AL10 9HN,2013-04-02,fhrs_exempt_en-GB,Exempt,,FHRS,
42549,Woods Avenue,Hatfield,,,St Philip Howard Catholic Primary School,School/college/university,7845,0,,181829,0,,51.75817400000000,PI/000071545,164,e.health@welhat.gov.uk,Welwyn Hatfield,http://www.welhat.gov.uk,-0.22543300000000,AL10 8NN,2011-07-19,fhrs_5_en-GB,5,,FHRS,0
42550,The Stanborough,Stanborough Road,Welwyn Garden City,Hertfordshire,Stanborough Beefeater and Premier Inn,Pub/bar/nightclub,7843,5,,182073,5,,51.79273900000000,PI/000072775,164,e.health@welhat.gov.uk,Welwyn Hatfield,http://www.welhat.gov.uk,-0.21233100000000,AL8 6XD,2013-09-04,fhrs_4_en-GB,4,,FHRS,10
42551,Stanborough Park,Stanborough Road,Welwyn Garden City,,Stanborough Park Coffee Shop,Restaurant/Cafe/Canteen,1,10,,447169,5,,,PI/000032622,164,e.health@welhat.gov.uk,Welwyn Hatfield,http://www.welhat.gov.uk,,AL8 6DR,2014-03-18,fhrs_4_en-GB,4,,FHRS,5
42552,Lemsford Lane,Welwyn Garden City,Hertfordshire,,Stanborough School,School/college/university,7845,5,,181601,5,,51.79036800000000,PI/000070847,164,e.health@welhat.gov.uk,Welwyn Hatfield,http://www.welhat.gov.uk,-0.21963100000000,AL8 6YR,2013-04-30,fhrs_5_en-GB,5,,FHRS,5
42553,Unit 58,The Howard Centre,Howardsgate,Welwyn Garden City,Starbucks,Restaurant/Cafe/Canteen,1,0,,631469,0,,51.80121700000000,PI/000084646,164,e.health@welhat.gov.uk,Welwyn Hatfield,http://www.welhat.gov.uk,-0.20458400000000,AL8 6HA,2011-04-12,fhrs_5_en-GB,5,,FHRS,5
42554,Stonehills,Welwyn Garden City,Hertfordshire,,Street Trader,Mobile caterer,7846,5,,185016,5,,51.74931100000000,PI/500005046,164,e.health@welhat.gov.uk,Welwyn Hatfield,http://www.welhat.gov.uk,-0.22446200000000,AL10 8XR,2013-05-03,fhrs_5_en-GB,5,,FHRS,5
42555,The Town Inn,Queensway,Hatfield,Hertfordshire,Street Trader,Mobile caterer,7846,10,,182039,10,,51.84004974365234,PI/000072591,164,e.health@welhat.gov.uk,Welwyn Hatfield,http://www.welhat.gov.uk,-0.27510499954224,AL10 0LQ,2014-01-22,fhrs_3_en-GB,3,,FHRS,10
42556,The Forum,University of Hertfordshire,College Lane,Hatfield,Style Bar,Restaurant/Cafe/Canteen,1,5,,637389,5,,51.75288600000000,PI/000085062,164,e.health@welhat.gov.uk,Welwyn Hatfield,http://www.welhat.gov.uk,-0.24218600000000,AL10 9AB,2014-11-12,fhrs_5_en-GB,5,,FHRS,5
42557,12 Parkhouse Court,Hatfield,Hertfordshire,,Subway,Restaurant/Cafe/Canteen,1,5,,182221,5,,51.76360900000000,PI/000073363,164,e.health@welhat.gov.uk,Welwyn Hatfield,http://www.welhat.gov.uk,-0.24124800000000,AL10 9RQ,2014-07-31,fhrs_5_en-GB,5,,FHRS,5
42558,32 Stonehills,Welwyn Garden City,Hertfordshire,,Subway,Takeaway/sandwich shop,7844,0,,181364,5,,51.80192700000000,PI/000070112,164,e.health@welhat.gov.uk,Welwyn Hatfield,http://www.welhat.gov.uk,-0.20574500000000,AL8 6PD,2014-01-20,fhrs_5_en-GB,5,,FHRS,5
42559,42 The Common,Hatfield,Hertfordshire,,Subway,Restaurant/Cafe/Canteen,1,5,,718109,5,,51.76263900000000,PI/000081521,164,e.health@welhat.gov.uk,Welwyn Hatfield,http://www.welhat.gov.uk,-0.23112700000000,AL10 0LU,2014-08-07,fhrs_5_en-GB,5,,FHRS,5
42560,92 The Galleria,Comet Way,Hatfield,,Subway,Takeaway/sandwich shop,7844,5,,421649,5,,51.76091400000000,PI/000027806,164,e.health@welhat.gov.uk,Welwyn Hatfield,http://www.welhat.gov.uk,-0.24141000000000,AL10 0YB,2014-05-23,fhrs_4_en-GB,4,,FHRS,10
42561,,,,,Sugar Dreams,Other catering premises,7841,5,,166220,5,,,PI/000009197,164,e.health@welhat.gov.uk,Welwyn Hatfield,http://www.welhat.gov.uk,,,2010-03-02,fhrs_5_en-GB,5,,FHRS,5
42562,St Marys Church of England VA Primary School,Dellsome Lane,Hatfield,Hertfordshire,Sunshine Pre-School,School/college/university,7845,,,182198,,,51.73557400000000,PI/000073309,164,e.health@welhat.gov.uk,Welwyn Hatfield,http://www.welhat.gov.uk,-0.22109000000000,AL9 7NE,2013-04-17,fhrs_exempt_en-GB,Exempt,,FHRS,
42563,22-24 Howardsgate,Welwyn Garden City,Hertfordshire,,Superdrug,Retailers - other,4613,,,181669,,,51.80146400000000,PI/000071030,164,e.health@welhat.gov.uk,Welwyn Hatfield,http://www.welhat.gov.uk,-0.20779400000000,AL8 6BQ,2013-05-07,fhrs_exempt_en-GB,Exempt,,FHRS,
42564,49 The Galleria,Comet Way,Hatfield,,Superdrug Stores Plc,Retailers - other,4613,,,181924,,,51.76091400000000,PI/000072023,164,e.health@welhat.gov.uk,Welwyn Hatfield,http://www.welhat.gov.uk,-0.24141000000000,AL10 0XX,2011-07-11,fhrs_exempt_en-GB,Exempt,,FHRS,
42565,25-27 Dellsome Lane,Welham Green,Hatfield,Hertfordshire,SVG Food & Wine,Retailers - other,4613,,,182141,,,51.73467300000000,PI/000073096,164,e.health@welhat.gov.uk,Welwyn Hatfield,http://www.welhat.gov.uk,-0.21859100000000,AL9 7DY,2012-03-02,fhrs_exempt_en-GB,Exempt,,FHRS,
42566,Blackthorn Road,Welwyn Garden City,Hertfordshire,,Swallow Dell Primary School,School/college/university,7845,0,,181417,5,,51.79509100000000,PI/000070328,164,e.health@welhat.gov.uk,Welwyn Hatfield,http://www.welhat.gov.uk,-0.18570000000000,AL7 3JP,2013-09-06,fhrs_5_en-GB,5,,FHRS,5
42567,,,,,SweetWithout,Other catering premises,7841,,,637384,,,,PI/000043308,164,e.health@welhat.gov.uk,Welwyn Hatfield,http://www.welhat.gov.uk,,,,fhrs_awaitinginspection_en-GB,AwaitingInspection,,FHRS,
42568,Queen Elizabeth II Hospital,Howlands,Welwyn Garden City,Hertfordshire,Sycamore Day Nursery and Pre-School,Restaurant/Cafe/Canteen,1,0,,182007,5,,51.78299900000000,PI/000072441,164,e.health@welhat.gov.uk,Welwyn Hatfield,http://www.welhat.gov.uk,-0.18586600000000,AL7 4HQ,2015-01-12,fhrs_5_en-GB,5,,FHRS,5
42569,,,,,Taras Kitchen,Other catering premises,7841,10,,174883,5,,,PI/000030399,164,e.health@welhat.gov.uk,Welwyn Hatfield,http://www.welhat.gov.uk,,,2010-10-18,fhrs_4_en-GB,4,,FHRS,5
42570,,,,,Taste Africa,Other catering premises,7841,,,706079,,,,PI/000033730,164,e.health@welhat.gov.uk,Welwyn Hatfield,http://www.welhat.gov.uk,,,,fhrs_awaitinginspection_en-GB,AwaitingInspection,,FHRS,
42571,33-34 Salisbury Square,Hatfield,Hertfordshire,,Taste Of India,Restaurant/Cafe/Canteen,1,,,181799,,,51.76284500000000,PI/000071409,164,e.health@welhat.gov.uk,Welwyn Hatfield,http://www.welhat.gov.uk,-0.21501900000000,AL9 5AF,2012-11-22,fhrs_5_en-GB,5,,FHRS,
42572,,,,,Tastealicious,Other catering premises,7841,,,668504,,,,PI/000004261,164,e.health@welhat.gov.uk,Welwyn Hatfield,http://www.welhat.gov.uk,,,,fhrs_awaitinginspection_en-GB,AwaitingInspection,,FHRS,
42573,Orion House,Bessemer Road,Welwyn Garden City,Hertfordshire,Tasty Lunch Company,Restaurant/Cafe/Canteen,1,5,,447174,5,,51.80371700000000,PI/000083847,164,e.health@welhat.gov.uk,Welwyn Hatfield,http://www.welhat.gov.uk,-0.19640600000000,AL7 1HH,2012-07-25,fhrs_5_en-GB,5,,FHRS,0
42574,,,,,Tasty Treats,Retailers - other,4613,,,668512,,,,PI/000035896,164,e.health@welhat.gov.uk,Welwyn Hatfield,http://www.welhat.gov.uk,,,,fhrs_awaitinginspection_en-GB,AwaitingInspection,,FHRS,
42575,26 Fiddlebridge Industrial Estate,Lemsford Road,Hatfield,,Tasty's,Takeaway/sandwich shop,7844,5,,182596,5,,51.76359200000000,PI/000077395,164,e.health@welhat.gov.uk,Welwyn Hatfield,http://www.welhat.gov.uk,-0.23411800000000,AL10 0DE,2013-05-02,fhrs_5_en-GB,5,,FHRS,5
42576,83 Bradmore Green,Hatfield,Hertfordshire,,Tealicious,Restaurant/Cafe/Canteen,1,10,,718110,10,,51.72161800000000,PI/000084773,164,e.health@welhat.gov.uk,Welwyn Hatfield,http://www.welhat.gov.uk,-0.20277300000000,AL9 7QT,2015-01-06,fhrs_3_en-GB,3,,FHRS,10
42577,Pentley Park,Welwyn Garden City,Hertfordshire,,Templewood Primary School,School/college/university,7845,5,,181622,5,,51.80996400000000,PI/000070928,164,e.health@welhat.gov.uk,Welwyn Hatfield,http://www.welhat.gov.uk,-0.20916900000000,AL8 7SD,2014-09-26,fhrs_4_en-GB,4,,FHRS,10
42578,London Road,Welwyn,Hertfordshire,,Tenterfield Nursery School,School/college/university,7845,0,,181592,0,,51.82646100000000,PI/000070819,164,e.health@welhat.gov.uk,Welwyn Hatfield,http://www.welhat.gov.uk,-0.21423200000000,AL6 9JF,2013-05-08,fhrs_5_en-GB,5,,FHRS,0
42579,Stanborough Park,Stanborough Road,Welwyn Garden City,,Terranova Restaurant,Restaurant/Cafe/Canteen,1,5,,181958,10,,51.78537600000000,PI/000072193,164,e.health@welhat.gov.uk,Welwyn Hatfield,http://www.welhat.gov.uk,-0.22170700000000,,2014-03-11,fhrs_4_en-GB,4,,FHRS,5
42580,1 Falcon Way,Welwyn Garden City,Hertfordshire,,Tesco,Restaurant/Cafe/Canteen,1,0,,160546,0,,51.80789400000000,PI/000000250,164,e.health@welhat.gov.uk,Welwyn Hatfield,http://www.welhat.gov.uk,-0.19726900000000,AL7 1TW,2011-11-25,fhrs_5_en-GB,5,,FHRS,0
42581,61 Moors Walk,Welwyn Garden City,Hertfordshire,,Tesco,Retailers - supermarkets/hypermarkets,7840,,,555442,,,51.80121300000000,PI/000083888,164,e.health@welhat.gov.uk,Welwyn Hatfield,http://www.welhat.gov.uk,-0.17224100000000,AL7 2BQ,,fhrs_awaitinginspection_en-GB,AwaitingInspection,,FHRS,
42582,Unit 3,Shire Park,Falcon Way,Welwyn Garden City,Tesco  - Servest Catering,Restaurant/Cafe/Canteen,1,5,,637383,5,,51.80789400000000,PI/000031814,164,e.health@welhat.gov.uk,Welwyn Hatfield,http://www.welhat.gov.uk,-0.19726900000000,AL7 1TW,2014-07-23,fhrs_5_en-GB,5,,FHRS,5
42583,Cirrus C,Kestrel Way,Shire Park,Welwyn Garden City,Tesco - Servest Catering,Restaurant/Cafe/Canteen,1,0,,185021,0,,51.80142974853516,PI/500005396,164,e.health@welhat.gov.uk,Welwyn Hatfield,http://www.welhat.gov.uk,-0.20573000609875,AL7 1AB,2011-11-25,fhrs_5_en-GB,5,,FHRS,0
42584,Progress House,Shire Park,The Boulevard,Welwyn Garden City,Tesco - Servest Catering,Restaurant/Cafe/Canteen,1,0,,182233,0,,51.80935300000000,PI/000073384,164,e.health@welhat.gov.uk,Welwyn Hatfield,http://www.welhat.gov.uk,-0.19275800000000,AL7 1GB,2011-11-25,fhrs_5_en-GB,5,,FHRS,0
42585,Tesco Stores Ltd,Cirrus Building A,Falcon Way,Welwyn Garden City,Tesco - Servest Catering,Restaurant/Cafe/Canteen,1,0,,182232,0,,51.79632600000000,PI/000073382,164,e.health@welhat.gov.uk,Welwyn Hatfield,http://www.welhat.gov.uk,-0.18445500000000,AL7 1AB,2015-01-07,fhrs_5_en-GB,5,,FHRS,5
42586,Unit 5,Shire Park,Falcon Way,Welwyn Garden City,Tesco - Servest Catering,Restaurant/Cafe/Canteen,1,5,,637388,5,,51.80789400000000,PI/000084589,164,e.health@welhat.gov.uk,Welwyn Hatfield,http://www.welhat.gov.uk,-0.19726900000000,AL7 1TW,2014-07-23,fhrs_5_en-GB,5,,FHRS,5
42587,14 High Street,Welwyn,Hertfordshire,,Tesco Express,Retailers - supermarkets/hypermarkets,7840,0,,182130,5,,51.83033200000000,PI/000073041,164,e.health@welhat.gov.uk,Welwyn Hatfield,http://www.welhat.gov.uk,-0.21515300000000,AL6 9EQ,2011-02-01,fhrs_5_en-GB,5,,FHRS,5
42588,59 Station Road,Cuffley,Potters Bar,Hertfordshire,Tesco Stores,Retailers - supermarkets/hypermarkets,7840,5,,182285,5,,51.70815400000000,PI/000073627,164,e.health@welhat.gov.uk,Welwyn Hatfield,http://www.welhat.gov.uk,-0.11202000000000,EN6 4HX,2013-01-31,fhrs_4_en-GB,4,,FHRS,10
42589,Great North Road,Hatfield,Hertfordshire,,Tesco Stores Ltd,Retailers - supermarkets/hypermarkets,7840,,,181746,,,51.77634300000000,PI/000071215,164,e.health@welhat.gov.uk,Welwyn Hatfield,http://www.welhat.gov.uk,-0.22041500000000,AL9 5JY,2014-05-12,fhrs_5_en-GB,5,,FHRS,
42590,Tewin Road,Welwyn Garden City,Hertfordshire,,Tewin Road Cafe,Restaurant/Cafe/Canteen,1,0,,635118,0,,51.80371500000000,PI/000027560,164,e.health@welhat.gov.uk,Welwyn Hatfield,http://www.welhat.gov.uk,-0.19391100000000,AL7 1BD,2011-07-07,fhrs_5_en-GB,5,,FHRS,0
42591,15A Town Centre,Hatfield,Hertfordshire,,TGF Pizza,Restaurant/Cafe/Canteen,1,10,,181335,10,,51.76358700000000,PI/000070061,164,e.health@welhat.gov.uk,Welwyn Hatfield,http://www.welhat.gov.uk,-0.22484400000000,AL10 0JZ,2015-01-20,fhrs_3_en-GB,3,,FHRS,10
42592,Comet Way,Hatfield,Hertfordshire,,The Airfield,Pub/bar/nightclub,7843,5,,182140,5,,51.76801100000000,PI/000073092,164,e.health@welhat.gov.uk,Welwyn Hatfield,http://www.welhat.gov.uk,-0.23196000000000,AL10 0DA,2014-01-09,fhrs_4_en-GB,4,,FHRS,10
42593,Briars Pavilion,Briars Lane,Hatfield,Hertfordshire,The Beautiful Gates,Restaurant/Cafe/Canteen,1,5,,182492,5,,51.75514400000000,PI/000075726,164,e.health@welhat.gov.uk,Welwyn Hatfield,http://www.welhat.gov.uk,-0.22966700000000,AL10 8EY,2014-08-28,fhrs_5_en-GB,5,,FHRS,5
42594,Beehive Lane,Welwyn Garden City,Hertfordshire,,The Beehive,Pub/bar/nightclub,7843,,,181423,,,51.78587200000000,PI/000070359,164,e.health@welhat.gov.uk,Welwyn Hatfield,http://www.welhat.gov.uk,-0.18791100000000,AL7 4BW,2014-04-23,fhrs_5_en-GB,5,,FHRS,
42595,10 Harpsfield Broadway,Hatfield,Hertfordshire,,The Broadway Cafe,Restaurant/Cafe/Canteen,1,5,,181873,10,,51.76366600000000,PI/000071774,164,e.health@welhat.gov.uk,Welwyn Hatfield,http://www.welhat.gov.uk,-0.23902800000000,AL10 9TF,2015-01-07,fhrs_2_en-GB,2,,FHRS,15
42596,Hill Farm Lane,Welwyn,Hertfordshire,,The Brocket Arms,Pub/bar/nightclub,7843,5,,182746,10,,51.83726400000000,PI/000081730,164,e.health@welhat.gov.uk,Welwyn Hatfield,http://www.welhat.gov.uk,-0.26678500000000,AL6 9BT,2014-01-29,fhrs_4_en-GB,4,,FHRS,5
42597,47 Heath Road,Potters Bar,Hertfordshire,,The Builders Arms PH,Pub/bar/nightclub,7843,5,,181735,5,,51.70637200000000,PI/000071186,164,e.health@welhat.gov.uk,Welwyn Hatfield,http://www.welhat.gov.uk,-0.18201500000000,EN6 1LR,2013-08-15,fhrs_5_en-GB,5,,FHRS,5
42598,West End Lane,Essendon,Hatfield,Hertfordshire,The Candlestick,Pub/bar/nightclub,7843,10,,182131,5,,51.75960700000000,PI/000073043,164,e.health@welhat.gov.uk,Welwyn Hatfield,http://www.welhat.gov.uk,-0.17169000000000,AL9 6BA,2014-01-14,fhrs_3_en-GB,3,,FHRS,10
42599,19 Bishops Rise,Hatfield,Hertfordshire,,The Cavendish Arms,Pub/bar/nightclub,7843,10,,181879,5,,51.75688000000000,PI/000071789,164,e.health@welhat.gov.uk,Welwyn Hatfield,http://www.welhat.gov.uk,-0.23682900000000,AL10 9HF,2012-09-18,fhrs_4_en-GB,4,,FHRS,5
42600,16 London Road,Woolmer Green,Knebworth,,The Chequers Inn PH,Pub/bar/nightclub,7843,5,,181405,5,,51.85166600000000,PI/000070276,164,e.health@welhat.gov.uk,Welwyn Hatfield,http://www.welhat.gov.uk,-0.18084100000000,SG3 6JP,2013-10-18,fhrs_4_en-GB,4,,FHRS,10
42601,Cole Green Lane,Welwyn Garden City,Hertfordshire,,The Chieftain,Pub/bar/nightclub,7843,5,,182586,0,,51.79081800000000,PI/000077339,164,e.health@welhat.gov.uk,Welwyn Hatfield,http://www.welhat.gov.uk,-0.18791600000000,AL7 3JF,2011-09-12,fhrs_5_en-GB,5,,FHRS,0
42602,61 Newgate Street Village,Hertford,Hertfordshire,,The Coach and Horses,Pub/bar/nightclub,7843,5,,181368,5,,51.72984700000000,PI/000070125,164,e.health@welhat.gov.uk,Welwyn Hatfield,http://www.welhat.gov.uk,-0.11837100000000,SG13 8RA,2014-03-21,fhrs_5_en-GB,5,,FHRS,5
42603,Great North Road,Hatfield,Hertfordshire,,The Cock O The North,Pub/bar/nightclub,7843,5,,181762,5,,51.73202200000000,PI/000071286,164,e.health@welhat.gov.uk,Welwyn Hatfield,http://www.welhat.gov.uk,-0.18518500000000,AL9 6NA,2015-02-03,fhrs_5_en-GB,5,,FHRS,5
42604,Commonswood School,The Commons,Welwyn Garden City,Hertfordshire,The Commons Pre-School,Other catering premises,7841,10,,375935,5,,51.78438000000000,PI/000081832,164,e.health@welhat.gov.uk,Welwyn Hatfield,http://www.welhat.gov.uk,-0.17744500000000,AL7 4RU,2014-03-12,fhrs_3_en-GB,3,,FHRS,10
42605,,,,,The Cookhouse B&B,Hotel/bed & breakfast/guest house,7842,,,421647,,,,PI/000025260,164,e.health@welhat.gov.uk,Welwyn Hatfield,http://www.welhat.gov.uk,,,,fhrs_awaitinginspection_en-GB,AwaitingInspection,,FHRS,
42606,13-17 Cole Green Lane,Welwyn Garden City,Hertfordshire,,The Co-operative Food,Retailers - supermarkets/hypermarkets,7840,0,,181480,0,,51.79168900000000,PI/000070578,164,e.health@welhat.gov.uk,Welwyn Hatfield,http://www.welhat.gov.uk,-0.19424700000000,AL7 3PP,2012-05-10,fhrs_5_en-GB,5,,FHRS,5
42607,1-5 Shoplands,Welwyn Garden City,Hertfordshire,,The Co-operative Food,Retailers - supermarkets/hypermarkets,7840,10,,181351,5,,51.81528800000000,PI/000070085,164,e.health@welhat.gov.uk,Welwyn Hatfield,http://www.welhat.gov.uk,-0.20332900000000,AL8 7RH,2011-03-01,fhrs_4_en-GB,4,,FHRS,0
42608,19-23 Station Road,Potters Bar,Hertfordshire,,The Co-operative Food,Retailers - supermarkets/hypermarkets,7840,0,,181387,0,,51.70815400000000,PI/000070185,164,e.health@welhat.gov.uk,Welwyn Hatfield,http://www.welhat.gov.uk,-0.11202000000000,EN6 4HX,2012-03-27,fhrs_5_en-GB,5,,FHRS,5
42609,37-39 Bradmore Green,Brookmans Park,Hatfield,Hertfordshire,The Co-operative Food,Retailers - supermarkets/hypermarkets,7840,5,,181777,5,,51.72227000000000,PI/000071331,164,e.health@welhat.gov.uk,Welwyn Hatfield,http://www.welhat.gov.uk,-0.20189300000000,AL9 7QR,2011-10-11,fhrs_4_en-GB,4,,FHRS,10
42610,39 Homestead Road,Hatfield,Hertfordshire,,The Co-operative Food,Retailers - supermarkets/hypermarkets,7840,0,,181837,5,,51.77129100000000,PI/000071578,164,e.health@welhat.gov.uk,Welwyn Hatfield,http://www.welhat.gov.uk,-0.22465800000000,AL10 0QN,2012-04-13,fhrs_5_en-GB,5,,FHRS,5
42611,8 Hall Grove,Welwyn Garden City,Hertfordshire,,The Co-operative Food,Retailers - supermarkets/hypermarkets,7840,5,,181464,5,,51.78877900000000,PI/000070500,164,e.health@welhat.gov.uk,Welwyn Hatfield,http://www.welhat.gov.uk,-0.17932700000000,AL7 4PH,2011-11-03,fhrs_4_en-GB,4,,FHRS,10
42612,31 Station Road,Welwyn,Hertfordshire,,The Cowper Arms,Pub/bar/nightclub,7843,5,,181926,5,,51.82438500000000,PI/000072048,164,e.health@welhat.gov.uk,Welwyn Hatfield,http://www.welhat.gov.uk,-0.19256200000000,AL6 0EA,2014-01-22,fhrs_4_en-GB,4,,FHRS,10
42613,Cromer Hyde Lane,Welwyn Garden City,Hertfordshire,,The Crooked Chimney,Pub/bar/nightclub,7843,0,,181334,5,,51.79620900000000,PI/000070060,164,e.health@welhat.gov.uk,Welwyn Hatfield,http://www.welhat.gov.uk,-0.24995700000000,AL8 7XE,2013-11-13,fhrs_5_en-GB,5,,FHRS,5
42614,45 Newgate Street Village,Hertford,Hertfordshire,,The Crown Public House,Pub/bar/nightclub,7843,5,,181953,5,,51.72984700000000,PI/000072173,164,e.health@welhat.gov.uk,Welwyn Hatfield,http://www.welhat.gov.uk,-0.11837100000000,SG13 8RA,2014-03-21,fhrs_5_en-GB,5,,FHRS,5
42615,Welwyn North Station,Harmer Green Lane,Welwyn,,The Deli Stop,Restaurant/Cafe/Canteen,1,5,,687644,5,,51.82621200000000,PI/000082482,164,e.health@welhat.gov.uk,Welwyn Hatfield,http://www.welhat.gov.uk,-0.19029800000000,AL6 0AS,2014-03-11,fhrs_4_en-GB,4,,FHRS,10
42616,Church Road,Welwyn Garden City,Hertfordshire,,The Doctors Tonic,Pub/bar/nightclub,7843,0,,181650,0,,51.79999700000000,PI/000070987,164,e.health@welhat.gov.uk,Welwyn Hatfield,http://www.welhat.gov.uk,-0.20772200000000,AL8 6PR,2011-07-07,fhrs_5_en-GB,5,,FHRS,0
42617,9-11 Cole Green Lane,Welwyn Garden City,Hertfordshire,,The Don Indian Restaurant,Restaurant/Cafe/Canteen,1,5,,560622,5,,51.79168900000000,PI/000028029,164,e.health@welhat.gov.uk,Welwyn Hatfield,http://www.welhat.gov.uk,-0.19424700000000,AL7 3PP,2014-04-09,fhrs_5_en-GB,5,,FHRS,5
42618,Great North Road,Brookmans Park,Hatfield,Hertfordshire,The Dutch Nursery,Restaurant/Cafe/Canteen,1,5,,181763,5,,51.73158500000000,PI/000071288,164,e.health@welhat.gov.uk,Welwyn Hatfield,http://www.welhat.gov.uk,-0.18308900000000,AL9 6ND,2014-03-26,fhrs_5_en-GB,5,,FHRS,5
42619,Great North Road,Welwyn Garden City,Hertfordshire,,The East,Restaurant/Cafe/Canteen,1,5,,174911,5,,51.78474600000000,PI/000030480,164,e.health@welhat.gov.uk,Welwyn Hatfield,http://www.welhat.gov.uk,-0.22491200000000,AL8 7TB,2014-02-04,fhrs_4_en-GB,4,,FHRS,10
42620,Old Herns Lane,Welwyn Garden City,Hertfordshire,,The Fairway Tavern,Restaurant/Cafe/Canteen,1,5,,181321,5,,51.80851000000000,PI/000070009,164,e.health@welhat.gov.uk,Welwyn Hatfield,http://www.welhat.gov.uk,-0.17309200000000,AL7 2ED,2014-03-21,fhrs_5_en-GB,5,,FHRS,5
42621,,,,,The Flower Pot,Other catering premises,7841,,,734363,,,,PI/000086008,164,e.health@welhat.gov.uk,Welwyn Hatfield,http://www.welhat.gov.uk,,,,fhrs_awaitinginspection_en-GB,AwaitingInspection,,FHRS,
42622,University of Hertfordshire,College Lane,Hatfield,Hertfordshire,The Food Court Restaurant and Bar,Restaurant/Cafe/Canteen,1,5,,181902,5,,51.75288600000000,PI/000071944,164,e.health@welhat.gov.uk,Welwyn Hatfield,http://www.welhat.gov.uk,-0.24218600000000,AL10 9AB,2010-11-10,fhrs_5_en-GB,5,,FHRS,5
42623,Free Church,Church Road,Welwyn Garden City,Hertfordshire,The Free Church,Other catering premises,7841,,,589527,,,,PI/000075400,164,e.health@welhat.gov.uk,Welwyn Hatfield,http://www.welhat.gov.uk,,,2011-02-16,fhrs_exempt_en-GB,Exempt,,FHRS,
42624,Oak View Primary and Nursery School,Woods Avenue,Hatfield,Hertfordshire,The Fun Factory Afterschool Club,School/college/university,7845,5,,182578,5,,51.75634300000000,PI/000077313,164,e.health@welhat.gov.uk,Welwyn Hatfield,http://www.welhat.gov.uk,-0.22386800000000,AL10 8NW,2010-04-13,fhrs_5_en-GB,5,,FHRS,5
42625,14-16 Newgate Street Village,Hertford,Hertfordshire,,The Gables,Restaurant/Cafe/Canteen,1,,,181371,,,51.72984700000000,PI/000070128,164,e.health@welhat.gov.uk,Welwyn Hatfield,http://www.welhat.gov.uk,-0.11837100000000,SG13 8RA,2014-07-03,fhrs_5_en-GB,5,,FHRS,
42626,72 Haldens,Welwyn Garden City,Hertfordshire,,The Great Wall Chinese Restaurant,Restaurant/Cafe/Canteen,1,5,,589532,5,,51.81243300000000,PI/000084759,164,e.health@welhat.gov.uk,Welwyn Hatfield,http://www.welhat.gov.uk,-0.19009600000000,AL7 1DD,2014-08-29,fhrs_5_en-GB,5,,FHRS,5
42627,Hall Grove,Welwyn Garden City,Hertfordshire,,The Grove,Pub/bar/nightclub,7843,0,,181424,5,,51.78877900000000,PI/000070362,164,e.health@welhat.gov.uk,Welwyn Hatfield,http://www.welhat.gov.uk,-0.17932700000000,AL7 4PH,2013-02-06,fhrs_5_en-GB,5,,FHRS,5
42628,91 Bishops Rise,Hatfield,Hertfordshire,,The Harrier,Pub/bar/nightclub,7843,5,,181866,5,,51.74814500000000,PI/000071750,164,e.health@welhat.gov.uk,Welwyn Hatfield,http://www.welhat.gov.uk,-0.23483700000000,AL10 9BZ,2014-03-20,fhrs_5_en-GB,5,,FHRS,5
42629,Shoplands,Welwyn Garden City,Hertfordshire,,The Hedgehog,Pub/bar/nightclub,7843,,,181525,,,51.81528800000000,PI/000070712,164,e.health@welhat.gov.uk,Welwyn Hatfield,http://www.welhat.gov.uk,-0.20332900000000,AL8 7RH,,fhrs_awaitinginspection_en-GB,AwaitingInspection,,FHRS,
42630,Hollybush Lane,Welwyn Garden City,Hertfordshire,,The Hollybush,Pub/bar/nightclub,7843,0,,181599,5,,51.78446500000000,PI/000070840,164,e.health@welhat.gov.uk,Welwyn Hatfield,http://www.welhat.gov.uk,-0.19639100000000,AL7 4JU,2013-12-11,fhrs_5_en-GB,5,,FHRS,5
42631,,,,,The Honest Baker,Other catering premises,7841,,,706076,,,,PI/000014450,164,e.health@welhat.gov.uk,Welwyn Hatfield,http://www.welhat.gov.uk,,,,fhrs_awaitinginspection_en-GB,AwaitingInspection,,FHRS,
42632,2 Station Road,Hatfield,Hertfordshire,,The Hope And Anchor,Pub/bar/nightclub,7843,10,,178034,5,,51.73304600000000,PI/000044851,164,e.health@welhat.gov.uk,Welwyn Hatfield,http://www.welhat.gov.uk,-0.21745300000000,AL9 7PJ,2012-07-25,fhrs_4_en-GB,4,,FHRS,5
42633,Homestead Road,Hatfield,Hertfordshire,,The Hopfields,Pub/bar/nightclub,7843,0,,181809,0,,51.77194600000000,PI/000071432,164,e.health@welhat.gov.uk,Welwyn Hatfield,http://www.welhat.gov.uk,-0.22460300000000,AL10 0QW,2011-08-17,fhrs_5_en-GB,5,,FHRS,0
42634,21 Park Street,Hatfield,Hertfordshire,,The Horse & Groom,Pub/bar/nightclub,7843,10,,181806,10,,51.76304000000000,PI/000071422,164,e.health@welhat.gov.uk,Welwyn Hatfield,http://www.welhat.gov.uk,-0.21363500000000,AL9 5AT,2014-03-25,fhrs_3_en-GB,3,,FHRS,10
42635,,,,,The Island Recipe,Retailers - other,4613,,,668506,,,,PI/000010345,164,e.health@welhat.gov.uk,Welwyn Hatfield,http://www.welhat.gov.uk,,,,fhrs_awaitinginspection_en-GB,AwaitingInspection,,FHRS,
42636,21 Church Street,Welwyn,Hertfordshire,,The Lemon Plaice,Restaurant/Cafe/Canteen,1,0,,181980,5,,51.83120000000000,PI/000072314,164,e.health@welhat.gov.uk,Welwyn Hatfield,http://www.welhat.gov.uk,-0.21427700000000,AL6 9LN,2014-03-24,fhrs_5_en-GB,5,,FHRS,5
42637,18 Lemsford Village,Welwyn Garden City,Hertfordshire,,The Long and Short Arm,Pub/bar/nightclub,7843,0,,181945,0,,51.79724300000000,PI/000072155,164,e.health@welhat.gov.uk,Welwyn Hatfield,http://www.welhat.gov.uk,-0.22955600000000,AL8 7TN,2012-12-28,fhrs_5_en-GB,5,,FHRS,5
42638,Sloansway,Welwyn Garden City,Hertfordshire,,The Mayflower,Pub/bar/nightclub,7843,10,,182162,10,,51.81252400000000,PI/000073152,164,e.health@welhat.gov.uk,Welwyn Hatfield,http://www.welhat.gov.uk,-0.18904700000000,AL7 1NB,2013-03-15,fhrs_3_en-GB,3,,FHRS,10
42639,20 Station Road,Potters Bar,Hertfordshire,,The Mumbai Indian Restaurant,Restaurant/Cafe/Canteen,1,5,,181975,5,,51.70773300000000,PI/000072288,164,e.health@welhat.gov.uk,Welwyn Hatfield,http://www.welhat.gov.uk,-0.11263100000000,EN6 4HT,2014-03-31,fhrs_5_en-GB,5,,FHRS,5
42640,Shaws Corner,Bibbs Hall Lane,Welwyn,Hertfordshire,The National Trust,Retailers - other,4613,,,182514,,,51.83593200000000,PI/000075932,164,e.health@welhat.gov.uk,Welwyn Hatfield,http://www.welhat.gov.uk,-0.26791000000000,AL6 9BX,2011-10-06,fhrs_exempt_en-GB,Exempt,,FHRS,
42641,4 Fretherne Road,Welwyn Garden City,Hertfordshire,,The Neem Tree Restaurant,Restaurant/Cafe/Canteen,1,0,,555430,0,,51.80085600000000,PI/000027165,164,e.health@welhat.gov.uk,Welwyn Hatfield,http://www.welhat.gov.uk,-0.20626700000000,AL8 6NU,2013-05-09,fhrs_5_en-GB,5,,FHRS,0
42642,82 Great North Road,Welwyn,Hertfordshire,,The North Star,Pub/bar/nightclub,7843,0,,182089,0,,51.84219400000000,PI/000072892,164,e.health@welhat.gov.uk,Welwyn Hatfield,http://www.welhat.gov.uk,-0.19407000000000,AL6 0TA,2011-10-10,fhrs_5_en-GB,5,,FHRS,5
42643,64 Station Road,Cuffley,Potters Bar,Hertfordshire,The Orchid Flowers & Cafe,Restaurant/Cafe/Canteen,1,0,,447168,0,,51.70785100000000,PI/000028734,164,e.health@welhat.gov.uk,Welwyn Hatfield,http://www.welhat.gov.uk,-0.11046900000000,EN6 4HA,2012-11-01,fhrs_5_en-GB,5,,FHRS,5
42644,49 Wigmores North,Welwyn Garden City,Hertfordshire,,The Pavillion,Restaurant/Cafe/Canteen,1,20,,181548,15,,51.80224500000000,PI/000070744,164,e.health@welhat.gov.uk,Welwyn Hatfield,http://www.welhat.gov.uk,-0.20654500000000,AL8 6PG,2014-11-07,fhrs_1_en-GB,1,,FHRS,15
42645,47 Bradmore Green,Brookmans Park,Hatfield,Hertfordshire,The Pearl Fish Bar,Takeaway/sandwich shop,7844,5,,181754,5,,51.72168700000000,PI/000071258,164,e.health@welhat.gov.uk,Welwyn Hatfield,http://www.welhat.gov.uk,-0.20194500000000,AL9 7QS,2014-02-04,fhrs_5_en-GB,5,,FHRS,5
42646,1 Howardsgate,Welwyn Garden City,Hertfordshire,,The Pig and Truffle,Restaurant/Cafe/Canteen,1,5,,734361,5,,51.80239000000000,PI/000085966,164,e.health@welhat.gov.uk,Welwyn Hatfield,http://www.welhat.gov.uk,-0.20777200000000,AL8 6AL,2015-01-16,fhrs_5_en-GB,5,,FHRS,5
42647,John Lewis Plc,Bridge Road,Welwyn Garden City,Hertfordshire,The Place to Eat,Restaurant/Cafe/Canteen,1,0,,182096,0,,51.80355900000000,PI/000072943,164,e.health@welhat.gov.uk,Welwyn Hatfield,http://www.welhat.gov.uk,-0.20665200000000,AL8 6TP,2014-02-10,fhrs_5_en-GB,5,,FHRS,5
42648,43 Plough Hill,Cuffley,Potters Bar,,The Plough,Pub/bar/nightclub,7843,5,,182043,5,,51.70986000000000,PI/000072613,164,e.health@welhat.gov.uk,Welwyn Hatfield,http://www.welhat.gov.uk,-0.11519100000000,EN6 4DW,2014-01-24,fhrs_4_en-GB,4,,FHRS,10
42649,16 Hall Grove,Welwyn Garden City,Hertfordshire,,The Raj Of India Restaurant,Restaurant/Cafe/Canteen,1,20,,181461,20,,51.78877900000000,PI/000070497,164,e.health@welhat.gov.uk,Welwyn Hatfield,http://www.welhat.gov.uk,-0.17932700000000,AL7 4PH,2015-01-17,fhrs_0_en-GB,0,,FHRS,15
42650,64 The Galleria,Comet Way,Hatfield,,The Real China,Restaurant/Cafe/Canteen,1,,,182591,,,51.76091400000000,PI/000077353,164,e.health@welhat.gov.uk,Welwyn Hatfield,http://www.welhat.gov.uk,-0.24141000000000,AL10 0XY,2014-04-16,fhrs_5_en-GB,5,,FHRS,
42651,11 Digswell Hill,Welwyn,Hertfordshire,,The Red Lion,Pub/bar/nightclub,7843,0,,181636,0,,51.81266600000000,PI/000070963,164,e.health@welhat.gov.uk,Welwyn Hatfield,http://www.welhat.gov.uk,-0.22605000000000,AL6 9AJ,2015-01-22,fhrs_5_en-GB,5,,FHRS,5
42652,26 London Road,Knebworth,Hertfordshire,,The Red Lion,Pub/bar/nightclub,7843,10,,181946,10,,51.85166600000000,PI/000072159,164,e.health@welhat.gov.uk,Welwyn Hatfield,http://www.welhat.gov.uk,-0.18084100000000,SG3 6JP,2012-03-12,fhrs_3_en-GB,3,,FHRS,10
42653,88 Great North Road,Hatfield,Hertfordshire,,The Red Lion,Pub/bar/nightclub,7843,5,,181759,5,,51.76668200000000,PI/000071268,164,e.health@welhat.gov.uk,Welwyn Hatfield,http://www.welhat.gov.uk,-0.21482400000000,AL9 5EU,2014-06-04,fhrs_5_en-GB,5,,FHRS,5
42654,Great North Road,Hatfield,Hertfordshire,,The Rookery Cafe,Restaurant/Cafe/Canteen,1,10,,555438,10,,51.73753800000000,PI/000048696,164,e.health@welhat.gov.uk,Welwyn Hatfield,http://www.welhat.gov.uk,-0.20651600000000,AL9 5SF,2015-01-19,fhrs_3_en-GB,3,,FHRS,10
42655,4 Salisbury Square,Hatfield,Hertfordshire,,The Royal Tandoori,Restaurant/Cafe/Canteen,1,5,,181797,5,,51.76315700000000,PI/000071407,164,e.health@welhat.gov.uk,Welwyn Hatfield,http://www.welhat.gov.uk,-0.21425300000000,AL9 5AD,2014-03-20,fhrs_4_en-GB,4,,FHRS,10
42656,The Ryde School,Pleasant Rise,Hatfield,Hertfordshire,The Ryde Pre-School,School/college/university,7845,,,182580,,,51.77188500000000,PI/000077318,164,e.health@welhat.gov.uk,Welwyn Hatfield,http://www.welhat.gov.uk,-0.21288000000000,AL9 5DR,2013-03-13,fhrs_exempt_en-GB,Exempt,,FHRS,
42657,Pleasant Rise,Hatfield,,,The Ryde School,School/college/university,7845,0,,182177,0,,51.77188500000000,PI/000073212,164,e.health@welhat.gov.uk,Welwyn Hatfield,http://www.welhat.gov.uk,-0.21288000000000,AL9 5DR,2012-09-10,fhrs_5_en-GB,5,,FHRS,5
42658,2 High Street,Welwyn,Hertfordshire,,The Sagar Restaurant & Balti House,Restaurant/Cafe/Canteen,1,,,181498,,,51.83033200000000,PI/000070665,164,e.health@welhat.gov.uk,Welwyn Hatfield,http://www.welhat.gov.uk,-0.21515300000000,AL6 9EQ,2013-05-13,fhrs_5_en-GB,5,,FHRS,
42659,Welwyn Garden City Corps,Cole Green Lane,Welwyn Garden City,Hertfordshire,The Salvation Army,Other catering premises,7841,5,,185012,5,,51.78446500000000,PI/500005022,164,e.health@welhat.gov.uk,Welwyn Hatfield,http://www.welhat.gov.uk,-0.19639100000000,AL7 4JU,2010-11-26,fhrs_5_en-GB,5,,FHRS,5
42660,13-15 Broadwater Road,Welwyn Garden City,Hertfordshire,,The Self Storage Company,Retailers - other,4613,,,631464,,,51.79942900000000,PI/000047620,164,e.health@welhat.gov.uk,Welwyn Hatfield,http://www.welhat.gov.uk,-0.19939100000000,AL7 3BQ,,fhrs_awaitinginspection_en-GB,AwaitingInspection,,FHRS,
42661,Unit 51,The Howard Centre,Howardsgate,Welwyn Garden City,The Shaken Cow,Retailers - other,4613,,,174260,,,51.80121700000000,PI/000028567,164,e.health@welhat.gov.uk,Welwyn Hatfield,http://www.welhat.gov.uk,-0.20458400000000,AL8 6HA,2011-02-25,fhrs_exempt_en-GB,Exempt,,FHRS,
42662,The University Of Hertfordshire,De Haviland Campus,Mosquito Way,Hatfield,The Shop,Retailers - other,4613,,,182010,,,51.76007000000000,PI/000072451,164,e.health@welhat.gov.uk,Welwyn Hatfield,http://www.welhat.gov.uk,-0.25052900000000,AL10 9EU,2013-04-18,fhrs_exempt_en-GB,Exempt,,FHRS,
42663,,,,,The Square Tomato,Mobile caterer,7846,,,516786,,,,PI/000032150,164,e.health@welhat.gov.uk,Welwyn Hatfield,http://www.welhat.gov.uk,,,,fhrs_awaitinginspection_en-GB,AwaitingInspection,,FHRS,
42664,22 London Road,Welwyn,Hertfordshire,,The Steamer,Pub/bar/nightclub,7843,0,,181587,0,,51.82756300000000,PI/000070814,164,e.health@welhat.gov.uk,Welwyn Hatfield,http://www.welhat.gov.uk,-0.21461000000000,AL6 9DP,2013-04-19,fhrs_5_en-GB,5,,FHRS,0
42665,31 Lemsford Village,Welwyn Garden City,Hertfordshire,,The Sun Inn,Pub/bar/nightclub,7843,10,,181645,10,,51.79724300000000,PI/000070977,164,e.health@welhat.gov.uk,Welwyn Hatfield,http://www.welhat.gov.uk,-0.22955600000000,AL8 7TN,2014-09-12,fhrs_3_en-GB,3,,FHRS,10
42666,Judge's Hill,Potters Bar,Hertfordshire,,The Sun Inn,Pub/bar/nightclub,7843,10,,178112,15,,51.70567500000000,PI/000045255,164,e.health@welhat.gov.uk,Welwyn Hatfield,http://www.welhat.gov.uk,-0.15235800000000,EN6 4NL,2014-01-29,fhrs_2_en-GB,2,,FHRS,15
42667,8 High Street,Welwyn,Hertfordshire,,The Tavern,Pub/bar/nightclub,7843,5,,181504,5,,51.83033200000000,PI/000070670,164,e.health@welhat.gov.uk,Welwyn Hatfield,http://www.welhat.gov.uk,-0.21515300000000,AL6 9EQ,2014-02-14,fhrs_5_en-GB,5,,FHRS,5
42668,Queensway,Hatfield,Hertfordshire,,The Town Inn,Pub/bar/nightclub,7843,5,,181834,5,,51.84004974365230,PI/000071571,164,e.health@welhat.gov.uk,Welwyn Hatfield,http://www.welhat.gov.uk,-0.27510499954224,AL10 0LQ,2011-10-20,fhrs_5_en-GB,5,,FHRS,5
42669,Brickwall Close,Ayot St Peter,Welwyn,Hertfordshire,The Waggoners,Pub/bar/nightclub,7843,0,,181637,5,,51.80955200000000,PI/000070964,164,e.health@welhat.gov.uk,Welwyn Hatfield,http://www.welhat.gov.uk,-0.22947900000000,AL6 9AA,2014-03-28,fhrs_5_en-GB,5,,FHRS,5
42670,1 High Street,Welwyn,Hertfordshire,,The Wellington,Pub/bar/nightclub,7843,0,,181562,5,,51.83129800000000,PI/000070754,164,e.health@welhat.gov.uk,Welwyn Hatfield,http://www.welhat.gov.uk,-0.21537600000000,AL6 9LZ,2012-01-16,fhrs_5_en-GB,5,,FHRS,0
42671,2 Prospect Place,Welwyn,Hertfordshire,,The White Hart,Pub/bar/nightclub,7843,5,,182080,5,,51.82970300000000,PI/000072833,164,e.health@welhat.gov.uk,Welwyn Hatfield,http://www.welhat.gov.uk,-0.21397300000000,AL6 9EN,2014-03-03,fhrs_5_en-GB,5,,FHRS,5
42672,30 Mill Lane,Welwyn,Hertfordshire,,The White Horse,Pub/bar/nightclub,7843,10,,181507,10,,51.83085400000000,PI/000070672,164,e.health@welhat.gov.uk,Welwyn Hatfield,http://www.welhat.gov.uk,-0.21337600000000,AL6 9ET,2014-01-30,fhrs_3_en-GB,3,,FHRS,10
42673,45 Wild Hill,Hatfield,Hertfordshire,,The Woodman,Pub/bar/nightclub,7843,5,,181747,5,,51.74575400000000,PI/000071220,164,e.health@welhat.gov.uk,Welwyn Hatfield,http://www.welhat.gov.uk,-0.17307500000000,AL9 6EA,2014-10-23,fhrs_5_en-GB,5,,FHRS,5
42674,21 Warrengate Road,Hatfield,Hertfordshire,,The Woodman Inn and Restaurant,Pub/bar/nightclub,7843,5,,181881,0,,51.72258500000000,PI/000071812,164,e.health@welhat.gov.uk,Welwyn Hatfield,http://www.welhat.gov.uk,-0.22142600000000,AL9 7TT,2015-01-14,fhrs_5_en-GB,5,,FHRS,0
42675,89 Great North Road,Hatfield,Hertfordshire,,The Wrestlers Public House,Pub/bar/nightclub,7843,10,,181760,10,,51.77101100000000,PI/000071274,164,e.health@welhat.gov.uk,Welwyn Hatfield,http://www.welhat.gov.uk,-0.21691400000000,AL9 5LP,2014-04-10,fhrs_3_en-GB,3,,FHRS,5
42676,14 Gwynfa Close,Welwyn,Hertfordshire,,Three Oaks Care Home,Hospitals/Childcare/Caring Premises,5,0,,173246,5,,51.84192300000000,PI/000025256,164,e.health@welhat.gov.uk,Welwyn Hatfield,http://www.welhat.gov.uk,-0.20161500000000,AL6 0PR,2014-06-17,fhrs_5_en-GB,5,,FHRS,5
42677,25 Heronswood Road,Welwyn Garden City,Hertfordshire,,Tibbles,Restaurant/Cafe/Canteen,1,5,,323785,5,,51.79751400000000,PI/000070294,164,e.health@welhat.gov.uk,Welwyn Hatfield,http://www.welhat.gov.uk,-0.18770600000000,AL7 3NX,2014-03-10,fhrs_5_en-GB,5,,FHRS,0
42678,166 Hollybush Lane,Welwyn Garden City,Hertfordshire,,Tikka Masala,Takeaway/sandwich shop,7844,5,,181934,10,,51.78446500000000,PI/000072106,164,e.health@welhat.gov.uk,Welwyn Hatfield,http://www.welhat.gov.uk,-0.19639100000000,AL7 4JU,2015-01-14,fhrs_4_en-GB,4,,FHRS,5
42679,30-34 The Galleria,Comet Way,Hatfield,,TK Maxx,Retailers - other,4613,,,182051,,,51.76091400000000,PI/000072664,164,e.health@welhat.gov.uk,Welwyn Hatfield,http://www.welhat.gov.uk,-0.24141000000000,AL10 0XU,2011-12-13,fhrs_exempt_en-GB,Exempt,,FHRS,
42680,Tolmers Road,Potters Bar,Hertfordshire,,Tolmers Scout Camp,Retailers - other,4613,5,,181647,5,,51.71817600000000,PI/000070979,164,e.health@welhat.gov.uk,Welwyn Hatfield,http://www.welhat.gov.uk,-0.11956500000000,EN6 4JS,2014-07-30,fhrs_4_en-GB,4,,FHRS,10
42681,,,,,Tony's Fruit,Retailers - other,4613,,,668509,,,,PI/000012532,164,e.health@welhat.gov.uk,Welwyn Hatfield,http://www.welhat.gov.uk,,,,fhrs_awaitinginspection_en-GB,AwaitingInspection,,FHRS,
42682,,,,,Tracey Signature Cupcakes Ltd,Other catering premises,7841,5,,447167,5,,,PI/000004825,164,e.health@welhat.gov.uk,Welwyn Hatfield,http://www.welhat.gov.uk,,,2012-08-09,fhrs_5_en-GB,5,,FHRS,5
42683,Parkhouse Court,Hatfield,,,Travelodge,Hotel/bed & breakfast/guest house,7842,0,,182710,0,,51.76366600000000,PI/000081125,164,e.health@welhat.gov.uk,Welwyn Hatfield,http://www.welhat.gov.uk,-0.23902800000000,AL10 9TF,2013-07-11,fhrs_5_en-GB,5,,FHRS,5
42684,,,,,Truly Amazing Cakes Ltd,Other catering premises,7841,5,,421659,5,,,PI/000040861,164,e.health@welhat.gov.uk,Welwyn Hatfield,http://www.welhat.gov.uk,,,2013-10-07,fhrs_5_en-GB,5,,FHRS,5
42685,,,,,Two A's Snack Bar,Mobile caterer,7846,,,724470,,,,PI/000000391,164,e.health@welhat.gov.uk,Welwyn Hatfield,http://www.welhat.gov.uk,,,,fhrs_awaitinginspection_en-GB,AwaitingInspection,,FHRS,
42686,1 Northaw Road West,Potters Bar,Hertfordshire,,Two Brewers,Pub/bar/nightclub,7843,10,,181614,10,,51.70406900000000,PI/000070894,164,e.health@welhat.gov.uk,Welwyn Hatfield,http://www.welhat.gov.uk,-0.14913900000000,EN6 4NW,2013-10-31,fhrs_3_en-GB,3,,FHRS,10
42687,The Two Willows,9 Howardsgate,Welwyn Garden City,Hertfordshire,Two Willows,Pub/bar/nightclub,7843,5,,700065,5,,51.80231500000000,PI/000085021,164,e.health@welhat.gov.uk,Welwyn Hatfield,http://www.welhat.gov.uk,-0.20762900000000,AL8 6AW,2014-08-28,fhrs_4_en-GB,4,,FHRS,10
42688,,,,,Unique Twist Designs,Other catering premises,7841,,,700060,,,,PI/000022634,164,e.health@welhat.gov.uk,Welwyn Hatfield,http://www.welhat.gov.uk,,,,fhrs_awaitinginspection_en-GB,AwaitingInspection,,FHRS,
42689,University of Hertfordshire,College Lane,Hatfield,Hertfordshire,University Day Nursery,Restaurant/Cafe/Canteen,1,5,,182180,5,,51.75288600000000,PI/000073231,164,e.health@welhat.gov.uk,Welwyn Hatfield,http://www.welhat.gov.uk,-0.24218600000000,AL10 9AB,2013-08-15,fhrs_5_en-GB,5,,FHRS,5
42690,"The Faculty Of Art & Design,The Gallery",Quantic Building,College Lane,Hatfield,University of Hertfordshire,Restaurant/Cafe/Canteen,1,5,,182004,5,,51.75288600000000,PI/000072424,164,e.health@welhat.gov.uk,Welwyn Hatfield,http://www.welhat.gov.uk,-0.24218600000000,AL10 9AB,2010-03-02,fhrs_5_en-GB,5,,FHRS,5
42691,40 Station Road,Cuffley,Potters Bar,Hertfordshire,V C Wackett & Son,Retailers - other,4613,,,181382,,,51.70781300000000,PI/000070174,164,e.health@welhat.gov.uk,Welwyn Hatfield,http://www.welhat.gov.uk,-0.11149900000000,EN6 4HE,2011-03-29,fhrs_exempt_en-GB,Exempt,,FHRS,
42692,Newgate Street Village,Hertford,Hertfordshire,,Village Hall,Retailers - other,4613,,,181369,,,51.72865600000000,PI/000070126,164,e.health@welhat.gov.uk,Welwyn Hatfield,http://www.welhat.gov.uk,-0.11758100000000,SG13 8RP,2012-02-23,fhrs_exempt_en-GB,Exempt,,FHRS,
42693,6 High Street,Welwyn,Hertfordshire,,Village Wines,Retailers - other,4613,,,181503,,,51.83033200000000,PI/000070669,164,e.health@welhat.gov.uk,Welwyn Hatfield,http://www.welhat.gov.uk,-0.21515300000000,AL6 9EQ,2011-12-13,fhrs_exempt_en-GB,Exempt,,FHRS,
42694,31 Russett House,Russett Wood,Welwyn Garden City,Hertfordshire,Vinzzenzios Ltd,Restaurant/Cafe/Canteen,1,,,605842,,,51.79675400000000,PI/000028105,164,e.health@welhat.gov.uk,Welwyn Hatfield,http://www.welhat.gov.uk,-0.16538800000000,AL7 2HQ,,fhrs_awaitinginspection_en-GB,AwaitingInspection,,FHRS,
42695,12 High Street,Welwyn,Hertfordshire,,Vita Ristorante,Restaurant/Cafe/Canteen,1,5,,631468,5,,51.83033200000000,PI/000083933,164,e.health@welhat.gov.uk,Welwyn Hatfield,http://www.welhat.gov.uk,-0.21515300000000,AL6 9EQ,2014-08-15,fhrs_4_en-GB,4,,FHRS,10
42696,Unit 30,The Howard Centre,Howardsgate,Welwyn Garden City,W H Smith,Retailers - other,4613,,,181657,,,51.80121700000000,PI/000071003,164,e.health@welhat.gov.uk,Welwyn Hatfield,http://www.welhat.gov.uk,-0.20458400000000,AL8 6HA,2011-12-01,fhrs_exempt_en-GB,Exempt,,FHRS,
42697,Bridge Road,Welwyn Garden City,Hertfordshire,,Waitrose Ltd,Retailers - supermarkets/hypermarkets,7840,0,,181595,0,,51.80229700000000,PI/000070831,164,e.health@welhat.gov.uk,Welwyn Hatfield,http://www.welhat.gov.uk,-0.20403400000000,AL8 6AB,2012-09-20,fhrs_5_en-GB,5,,FHRS,0
42698,Watchlytes,Welwyn Garden City,,Hertfordshire,Watchlytes JMI School,School/college/university,7845,5,,178389,5,,51.79887800000000,PI/000046747,164,e.health@welhat.gov.uk,Welwyn Hatfield,http://www.welhat.gov.uk,-0.17306000000000,AL7 2AZ,2013-05-03,fhrs_5_en-GB,5,,FHRS,5
42699,7-8 The Galleria,Comet Way,Hatfield,Hertfordshire,Waterstones Ltd,Retailers - other,4613,,,181921,,,51.76135700000000,PI/000072016,164,e.health@welhat.gov.uk,Welwyn Hatfield,http://www.welhat.gov.uk,-0.24039300000000,AL10 0XR,2011-08-30,fhrs_exempt_en-GB,Exempt,,FHRS,
42700,Unit 3C,Mardleybury Farm,Mardleybury Road,Knebworth,We R Cake,Restaurant/Cafe/Canteen,1,,,631461,,,51.85085900000000,PI/000031680,164,e.health@welhat.gov.uk,Welwyn Hatfield,http://www.welhat.gov.uk,-0.17285900000000,SG3 6SG,,fhrs_awaitinginspection_en-GB,AwaitingInspection,,FHRS,
42701,80 Town Centre,Hatfield,Hertfordshire,,Welcome,Retailers - supermarkets/hypermarkets,7840,5,,182747,0,,51.76363500000000,PI/000081740,164,e.health@welhat.gov.uk,Welwyn Hatfield,http://www.welhat.gov.uk,-0.22739300000000,AL10 0JW,2011-08-09,fhrs_5_en-GB,5,,FHRS,0
42702,1 Roe Green Centre,Bishops Rise,Hatfield,Hertfordshire,Welcome Co-Op,Retailers - supermarkets/hypermarkets,7840,10,,182008,10,,51.75722000000000,PI/000072443,164,e.health@welhat.gov.uk,Welwyn Hatfield,http://www.welhat.gov.uk,-0.23733700000000,AL10 9HE,2013-10-30,fhrs_2_en-GB,2,,FHRS,15
42703,1 Woodcot Lane,Welwyn Garden City,Hertfordshire,,Welwyn and Hatfield LD Day Service,Hospitals/Childcare/Caring Premises,5,0,,589528,5,,51.79847700000000,PI/000082336,164,e.health@welhat.gov.uk,Welwyn Hatfield,http://www.welhat.gov.uk,-0.18016900000000,AL7 2FA,2015-02-04,fhrs_5_en-GB,5,,FHRS,0
42704,Football And Social Club,Herns Way,Welwyn Garden City,Hertfordshire,Welwyn Garden City Football Club,Restaurant/Cafe/Canteen,1,,,589523,,,51.80552700000000,PI/000027650,164,e.health@welhat.gov.uk,Welwyn Hatfield,http://www.welhat.gov.uk,-0.17786900000000,AL7 1TA,,fhrs_awaitinginspection_en-GB,AwaitingInspection,,FHRS,
42705,Mannicotts,Welwyn Garden City,Hertfordshire,,Welwyn Garden City Golf Club Ltd,Restaurant/Cafe/Canteen,1,0,,181643,5,,51.80230100000000,PI/000070972,164,e.health@welhat.gov.uk,Welwyn Hatfield,http://www.welhat.gov.uk,-0.22151100000000,AL8 7BP,2014-01-23,fhrs_5_en-GB,5,,FHRS,5
42706,Jim McDonald Centre,3 Mcdonald Court,Hatfield,Hertfordshire,Welwyn Hatfield Council,Restaurant/Cafe/Canteen,1,0,,181872,0,,51.74792700000000,PI/000071768,164,e.health@welhat.gov.uk,Welwyn Hatfield,http://www.welhat.gov.uk,-0.23287500000000,AL10 8HR,2014-03-21,fhrs_5_en-GB,5,,FHRS,5
42707,Mill Green Museum And Mill,Mill Green,Bush Hall Lane,Hatfield,Welwyn Hatfield Museum Service,Manufacturers/packers,7839,0,,181761,5,,51.77297000000000,PI/000071277,164,e.health@welhat.gov.uk,Welwyn Hatfield,http://www.welhat.gov.uk,-0.20498100000000,AL9 5PD,2012-12-17,fhrs_5_en-GB,5,,FHRS,5
42708,,,,,Welwyn Kebab Ltd,Mobile caterer,7846,,,718111,,,,PI/000085991,164,e.health@welhat.gov.uk,Welwyn Hatfield,http://www.welhat.gov.uk,,,,fhrs_awaitinginspection_en-GB,AwaitingInspection,,FHRS,
42709,22 Harmer Green Lane,Digswell,Welwyn,Hertfordshire,Welwyn North Stores,Retailers - other,4613,10,,181431,5,,51.82282400000000,PI/000070377,164,e.health@welhat.gov.uk,Welwyn Hatfield,http://www.welhat.gov.uk,-0.19160900000000,AL6 0AX,2012-02-17,fhrs_3_en-GB,3,,FHRS,10
42710,Hobbs Way,Welwyn Garden City,Hertfordshire,,Welwyn Rugby Football Club,Restaurant/Cafe/Canteen,1,10,,181620,10,,51.79459200000000,PI/000070919,164,e.health@welhat.gov.uk,Welwyn Hatfield,http://www.welhat.gov.uk,-0.21473700000000,AL8 6HX,2014-02-05,fhrs_3_en-GB,3,,FHRS,10
42711,The Pavilion,Ottway Walk,Welwyn,Hertfordshire,Welwyn Sports & Social Club,Pub/bar/nightclub,7843,10,,181629,5,,,PI/000070945,164,e.health@welhat.gov.uk,Welwyn Hatfield,http://www.welhat.gov.uk,,,2012-02-28,fhrs_4_en-GB,4,,FHRS,5
42712,15 London Road,Welwyn,Hertfordshire,,Welwyn St Marys Church of England Primary School,School/college/university,7845,0,,181590,5,,51.82659200000000,PI/000070818,164,e.health@welhat.gov.uk,Welwyn Hatfield,http://www.welhat.gov.uk,-0.21640400000000,AL6 9DJ,2014-09-26,fhrs_5_en-GB,5,,FHRS,5
42713,The Pavilion,Ottway Walk,Welwyn,Hertfordshire,Welwyn Tennis Club,Restaurant/Cafe/Canteen,1,,,181630,,,,PI/000070947,164,e.health@welhat.gov.uk,Welwyn Hatfield,http://www.welhat.gov.uk,,,2013-04-25,fhrs_exempt_en-GB,Exempt,,FHRS,
42714,Welwyn St Marys Church of England Primary School,15 London Road,Welwyn,Hertfordshire,Welwyn Under Fives Playgroup,School/college/university,7845,0,,182245,0,,51.82659200000000,PI/000073430,164,e.health@welhat.gov.uk,Welwyn Hatfield,http://www.welhat.gov.uk,-0.21640400000000,AL6 9DJ,2011-07-19,fhrs_5_en-GB,5,,FHRS,0
42715,8-9 Parkhouse Court,Hatfield,Hertfordshire,,Western Fried Chicken,Restaurant/Cafe/Canteen,1,20,,175656,10,,51.76360900000000,PI/000033318,164,e.health@welhat.gov.uk,Welwyn Hatfield,http://www.welhat.gov.uk,-0.24124800000000,AL10 9RQ,2014-08-28,fhrs_1_en-GB,1,,FHRS,5
42716,42 Fretherne Road,Welwyn Garden City,Hertfordshire,,WGC Grill and Pizza,Takeaway/sandwich shop,7844,5,,182592,10,,51.80085600000000,PI/000077364,164,e.health@welhat.gov.uk,Welwyn Hatfield,http://www.welhat.gov.uk,-0.20626700000000,AL8 6NU,2015-01-20,fhrs_4_en-GB,4,,FHRS,5
42717,Elizabeth House,Elizabeth Close,Welwyn Garden City,Hertfordshire,WGCHA,Hospitals/Childcare/Caring Premises,5,0,,181951,5,,51.79773700000000,PI/000072168,164,e.health@welhat.gov.uk,Welwyn Hatfield,http://www.welhat.gov.uk,-0.16778800000000,,2014-08-20,fhrs_5_en-GB,5,,FHRS,5
42718,North Mymms Youth and Community Centre,Station Road,Welham Green,Hatfield,Willowbrook Nursery,Other catering premises,7841,,,182284,,,51.73080900000000,PI/000073612,164,e.health@welhat.gov.uk,Welwyn Hatfield,http://www.welhat.gov.uk,-0.21105400000000,AL9 7PF,2010-06-30,fhrs_exempt_en-GB,Exempt,,FHRS,
42719,77 Bradmore Green,Hatfield,Hertfordshire,,Wing Wah Garden,Takeaway/sandwich shop,7844,0,,181782,5,,51.72161800000000,PI/000071336,164,e.health@welhat.gov.uk,Welwyn Hatfield,http://www.welhat.gov.uk,-0.20277300000000,AL9 7QT,2014-07-31,fhrs_5_en-GB,5,,FHRS,5
42720,Community Centre,Mill Green Road,Welwyn Garden City,Hertfordshire,Woodhall Community Centre,Other catering premises,7841,,,182082,,,51.79134100000000,PI/000072838,164,e.health@welhat.gov.uk,Welwyn Hatfield,http://www.welhat.gov.uk,-0.19678400000000,AL7 3XD,2013-04-30,fhrs_exempt_en-GB,Exempt,,FHRS,
42721,Woodhall Lane United Reform Church,Woodhall Lane,Welwyn Garden City,Hertfordshire,Woodhall Pre-School,School/college/university,7845,,,182575,,,51.79079800000000,PI/000077310,164,e.health@welhat.gov.uk,Welwyn Hatfield,http://www.welhat.gov.uk,-0.19892200000000,AL7 3TP,2012-11-27,fhrs_exempt_en-GB,Exempt,,FHRS,
42722,Woolmer Green Village Hall,Hall Lane,Knebworth,Hertfordshire,Woolmer Green Community Cafe,Other catering premises,7841,,,200306,,,51.85216400000000,PI/000081752,164,e.health@welhat.gov.uk,Welwyn Hatfield,http://www.welhat.gov.uk,-0.18340500000000,SG3 6XA,2012-02-14,fhrs_exempt_en-GB,Exempt,,FHRS,
42723,Woolmer Green Village Hall,Hall Lane,Knebworth,Hertfordshire,Woolmer Green Food & Craft Market,Other catering premises,7841,,,200304,,,51.85216400000000,PI/000081825,164,e.health@welhat.gov.uk,Welwyn Hatfield,http://www.welhat.gov.uk,-0.18340500000000,SG3 6XA,2012-02-06,fhrs_exempt_en-GB,Exempt,,FHRS,
42724,Hall Lane,Knebworth,Hertfordshire,,Woolmer Green Village Hall,Other catering premises,7841,,,182465,,,51.85216400000000,PI/000075471,164,e.health@welhat.gov.uk,Welwyn Hatfield,http://www.welhat.gov.uk,-0.18340500000000,SG3 6XA,2013-05-02,fhrs_exempt_en-GB,Exempt,,FHRS,
42725,The Cavendish Arms,19 Bishops Rise,Hatfield,,Yum Yums,Other catering premises,7841,5,,516791,5,,51.75688000000000,PI/000083856,164,e.health@welhat.gov.uk,Welwyn Hatfield,http://www.welhat.gov.uk,-0.23682900000000,AL10 9HF,2013-02-19,fhrs_4_en-GB,4,,FHRS,10
