,addressline1,addressline2,addressline3,addressline4,businessname,businesstype,businesstypeid,confidenceinmanagement,extractdate,fhrsid,hygiene,itemcount,latitude,localauthoritybusinessid,localauthoritycode,localauthorityemailaddress,localauthorityname,localauthoritywebsite,longitude,postcode,ratingdate,ratingkey,ratingvalue,returncode,schemetype,structural
252633,Twenty Mile Service Station,London Road,West Kingsdown,KENT,20 Mile Service Station,Retailers - other,4613,5,,730483,5,,51.35232900000000,15/00002/MIXED/S,187,eh.support@dartford.gov.uk,Sevenoaks,http://www.sevenoaks.gov.uk/,0.25323000000000,TN15 6EX,2015-01-06,fhrs_5_en-GB,5,,FHRS,0
252634,Swanley Memorial Hall,Swanley Lane,Swanley,Kent,5 Wents Playgroup In 5 Wents Memorial Hall,Hospitals/Childcare/Caring Premises,5,0,,267085,0,,,14460/2005/2/000,187,eh.support@dartford.gov.uk,Sevenoaks,http://www.sevenoaks.gov.uk/,,,2013-07-17,fhrs_5_en-GB,5,,FHRS,0
252635,Polhill,Halstead,Sevenoaks,Kent,7 Hotel & Diner,Restaurant/Cafe/Canteen,1,0,,266935,0,,51.32432937622070,10/00061/MIXED,187,eh.support@dartford.gov.uk,Sevenoaks,http://www.sevenoaks.gov.uk/,0.15553224086761,TN14 7AA,2013-08-06,fhrs_5_en-GB,5,,FHRS,5
252636,8 St Johns Hill,Sevenoaks,KENT,,7Oaks News And Wine,Retailers - other,4613,5,,594368,0,,51.28209800000000,13/00131/MIXED/S,187,eh.support@dartford.gov.uk,Sevenoaks,http://www.sevenoaks.gov.uk/,0.19468200000000,TN13 3NP,2013-07-11,fhrs_5_en-GB,5,,FHRS,0
252637,126 High Street,Sevenoaks,KENT,,99P Stores,Retailers - other,4613,10,,267057,5,,51.27847400000000,12/00014/MIXED,187,eh.support@dartford.gov.uk,Sevenoaks,http://www.sevenoaks.gov.uk/,0.17305600000000,TN13 1XB,2014-01-13,fhrs_3_en-GB,3,,FHRS,10
252638,Abbey Court Nursing Home,London Road,West Kingsdown,Sevenoaks,Abbey Court Nursing Home,Other catering premises,7841,5,,266679,10,,51.34061300000000,04/00356/FOOD,187,eh.support@dartford.gov.uk,Sevenoaks,http://www.sevenoaks.gov.uk/,0.26712900000000,TN15 6JB,2014-12-17,fhrs_4_en-GB,4,,FHRS,5
252639,Stangrove Lodge,Manor House Gardens,Edenbridge,Kent,Abbeyfield,Other catering premises,7841,5,,266894,5,,51.19715400000000,09060/2004/2/000,187,eh.support@dartford.gov.uk,Sevenoaks,http://www.sevenoaks.gov.uk/,0.06189100000000,TN8 5EG,2014-11-11,fhrs_5_en-GB,5,,FHRS,5
252640,Acorns Nursery,Sevenoaks Cp School,Bradbourne Park Road,Sevenoaks,Acorns Day Nursery,Other catering premises,7841,5,,266702,5,,51.28460700000000,05/00123/FOOD,187,eh.support@dartford.gov.uk,Sevenoaks,http://www.sevenoaks.gov.uk/,0.18605400000000,TN13 3LB,2014-12-09,fhrs_5_en-GB,5,,FHRS,5
252641,Day Centre,Holly Bush Court,Hollybush Close,Sevenoaks,Age UK,Hospitals/Childcare/Caring Premises,5,10,,266514,5,,51.27703900000000,03/00205/MAIN,187,eh.support@dartford.gov.uk,Sevenoaks,http://www.sevenoaks.gov.uk/,0.19686400000000,TN13 3UX,2014-07-09,fhrs_4_en-GB,4,,FHRS,0
252642,Aldi Store,St. Marys Road,Swanley,Kent,Aldi Stores Ltd,Retailers - supermarkets/hypermarkets,7840,0,,267077,0,,,13850/2005/2/000,187,eh.support@dartford.gov.uk,Sevenoaks,http://www.sevenoaks.gov.uk/,,,2014-02-14,fhrs_5_en-GB,5,,FHRS,0
252643,,,,,Alice's Ices,Retailers - other,4613,0,,267012,0,,,11/00072/FOOD,187,eh.support@dartford.gov.uk,Sevenoaks,http://www.sevenoaks.gov.uk/,,,2014-03-31,fhrs_5_en-GB,5,,FHRS,0
252644,114 St Johns Hill,Sevenoaks,KENT,,Alice's Tea Shop,Restaurant/Cafe/Canteen,1,5,,580448,5,,51.28679900000000,13/00093/MIXED/S,187,eh.support@dartford.gov.uk,Sevenoaks,http://www.sevenoaks.gov.uk/,0.19580900000000,TN13 3PD,2015-02-11,fhrs_5_en-GB,5,,FHRS,5
252645,42 Shurlock Avenue,Swanley,Kent,,Ali's Plaice,Takeaway/sandwich shop,7844,10,,266675,10,,51.40227200000000,04/00350/MIXED,187,eh.support@dartford.gov.uk,Sevenoaks,http://www.sevenoaks.gov.uk/,0.16819600000000,BR8 7ST,2013-09-06,fhrs_2_en-GB,2,,FHRS,15
252646,,,,,Alison Burden Catering,Other catering premises,7841,0,,266627,0,,,04/00045/FOOD,187,eh.support@dartford.gov.uk,Sevenoaks,http://www.sevenoaks.gov.uk/,,,2014-01-22,fhrs_5_en-GB,5,,FHRS,0
252647,The Limes,Bough Beech Road,Four Elms,Edenbridge,Allmans,Retailers - other,4613,5,,266448,10,,51.21520300000000,02/00269/MIXED,187,eh.support@dartford.gov.uk,Sevenoaks,http://www.sevenoaks.gov.uk/,0.10028500000000,TN8 6NE,2014-02-18,fhrs_4_en-GB,4,,FHRS,5
252648,Blue House Farm,Scabharbour Road,Weald,Sevenoaks,Allstar Catering Services,Other catering premises,7841,10,,266868,10,,51.22650800000000,09/00033/FOOD,187,eh.support@dartford.gov.uk,Sevenoaks,http://www.sevenoaks.gov.uk/,0.19534500000000,TN14 6NN,2014-02-24,fhrs_4_en-GB,4,,FHRS,0
252649,10 Bradbourne Park Road,Sevenoaks,Kent,,Alpine Residential Home,Other catering premises,7841,5,,266415,5,,51.28135100000000,01/00024/MIXED,187,eh.support@dartford.gov.uk,Sevenoaks,http://www.sevenoaks.gov.uk/,0.18273000000000,TN13 3LH,2014-01-14,fhrs_5_en-GB,5,,FHRS,0
252650,1 Tubs Hill Parade,London Road,Sevenoaks,Kent,Alpinia Patisserie,Manufacturers/packers,7839,10,,266851,15,,51.27643200000000,08620/0001/0/000,187,eh.support@dartford.gov.uk,Sevenoaks,http://www.sevenoaks.gov.uk/,0.18368700000000,TN13 1DH,2014-03-27,fhrs_2_en-GB,2,,FHRS,10
252651,Amherst County Primary School,Witches Lane,Sevenoaks,Kent,Amherst School,School/college/university,7845,5,,267097,5,,51.28164200000000,16660/2002/2/000,187,eh.support@dartford.gov.uk,Sevenoaks,http://www.sevenoaks.gov.uk/,0.16269600000000,TN13 2AX,2013-09-13,fhrs_5_en-GB,5,,FHRS,0
252652,,,,,Angel Flea Market,Manufacturers/packers,7839,10,,266986,10,,,11/00035/FOOD,187,eh.support@dartford.gov.uk,Sevenoaks,http://www.sevenoaks.gov.uk/,,,2011-05-10,fhrs_4_en-GB,4,,FHRS,0
252653,Anthony Roper County Primary School,Anthony Roper County Primary School,High Street,Eynsford,Anthony Roper County Primary School,School/college/university,7845,5,,622529,5,,51.36938400000000,13/00158/FOOD/S,187,eh.support@dartford.gov.uk,Sevenoaks,http://www.sevenoaks.gov.uk/,0.21345100000000,DA4 0AA,2013-12-03,fhrs_4_en-GB,4,,FHRS,10
252654,,,,,Apiary,Hotel/bed & breakfast/guest house,7842,0,,517581,0,,,13/00036/FOOD/S,187,eh.support@dartford.gov.uk,Sevenoaks,http://www.sevenoaks.gov.uk/,,,2013-03-07,fhrs_5_en-GB,5,,FHRS,0
252655,Coolings Nurseries Ltd,Rushmore Hill,Knockholt,Sevenoaks,Arthurs Coffee Shop And Coolings Nurseries,Restaurant/Cafe/Canteen,1,5,,266554,10,,51.32927100000000,03/00520/MAIN,187,eh.support@dartford.gov.uk,Sevenoaks,http://www.sevenoaks.gov.uk/,0.11983400000000,TN14 7NN,2014-10-07,fhrs_4_en-GB,4,,FHRS,5
252656,Asda Stores Ltd,London Road,Swanley,Kent,Asda Customer Restaurant,Restaurant/Cafe/Canteen,1,0,,266821,0,,51.39705400000000,08/00037/FOOD,187,eh.support@dartford.gov.uk,Sevenoaks,http://www.sevenoaks.gov.uk/,0.17466300000000,BR8 7UN,2014-07-25,fhrs_5_en-GB,5,,FHRS,5
252657,Asda Stores Ltd,London Road,Swanley,Kent,Asda Stores Ltd,Retailers - supermarkets/hypermarkets,7840,0,,266542,0,,51.39705400000000,03/00365/MAIN,187,eh.support@dartford.gov.uk,Sevenoaks,http://www.sevenoaks.gov.uk/,0.17466300000000,BR8 7UN,2013-01-31,fhrs_5_en-GB,5,,FHRS,5
252658,New Ash Green Youth Centre Trust,Ash Road,New Ash Green,Longfield,"Ash Cum Ridley Lunch Club, Youth And Community Centre",Other catering premises,7841,5,,266713,5,,51.36717800000000,05/00237/FOOD,187,eh.support@dartford.gov.uk,Sevenoaks,http://www.sevenoaks.gov.uk/,0.30540700000000,DA3 8JY,2014-02-27,fhrs_5_en-GB,5,,FHRS,0
252659,Austin Lodge Golf Club,Upper Austin Lodge Road,Eynsford,Dartford,Austin Lodge Golf Club Catering And Bar,Other catering premises,7841,0,,266940,0,,51.34504800000000,10/00069/MIXED,187,eh.support@dartford.gov.uk,Sevenoaks,http://www.sevenoaks.gov.uk/,0.21252200000000,DA4 0HU,2013-06-21,fhrs_5_en-GB,5,,FHRS,5
252660,Platform 1,Sevenoaks Station,London Road,Sevenoaks,Bagel Express,Takeaway/sandwich shop,7844,10,,266848,5,,51.27684000000000,08520/2013/2/001,187,eh.support@dartford.gov.uk,Sevenoaks,http://www.sevenoaks.gov.uk/,0.18202800000000,TN13 1DP,2014-02-12,fhrs_4_en-GB,4,,FHRS,5
252661,,,,,Bake Temptation,Mobile caterer,7846,,,293409,,,,12/00019/FOOD/S,187,eh.support@dartford.gov.uk,Sevenoaks,http://www.sevenoaks.gov.uk/,,,2012-04-03,fhrs_exempt_en-GB,Exempt,,FHRS,
252662,47 Bethel Road,Sevenoaks,Kent,,Banana Leaf Restaurant,Restaurant/Cafe/Canteen,1,0,,266629,0,,51.28160700000000,04/00053/MIXED,187,eh.support@dartford.gov.uk,Sevenoaks,http://www.sevenoaks.gov.uk/,0.19640800000000,TN13 3UE,2014-03-28,fhrs_5_en-GB,5,,FHRS,0
252663,Raleys,Plymouth Drive,Sevenoaks,Kent,Barnies Day Nursery And Out Of School Club,Other catering premises,7841,10,,266737,5,,,06/00042/MIXED,187,eh.support@dartford.gov.uk,Sevenoaks,http://www.sevenoaks.gov.uk/,,,2014-09-18,fhrs_4_en-GB,4,,FHRS,5
252664,133 St. Johns Hill,Sevenoaks,Kent,,Bat And Ball Pharmacy,Retailers - other,4613,,,266522,,,51.28737500000000,03/00226/MAIN,187,eh.support@dartford.gov.uk,Sevenoaks,http://www.sevenoaks.gov.uk/,0.19480400000000,TN13 3PE,2014-01-15,fhrs_exempt_en-GB,Exempt,,FHRS,
252665,4 The Square,Riverhead,Sevenoaks,Kent,Batchelors,Retailers - other,4613,0,,267091,0,,51.28384300000000,15180/0004/0/000,187,eh.support@dartford.gov.uk,Sevenoaks,http://www.sevenoaks.gov.uk/,0.16959700000000,TN13 2AA,2014-05-29,fhrs_5_en-GB,5,,FHRS,5
252666,,,,,Becca's Sweet Bakes,Other catering premises,7841,0,,706993,0,,,14/00099/FOOD/S,187,eh.support@dartford.gov.uk,Sevenoaks,http://www.sevenoaks.gov.uk/,,,2014-09-10,fhrs_5_en-GB,5,,FHRS,0
252667,,,,,Becky's Bakes And Cakes,Other catering premises,7841,5,,632246,0,,,14/00012/FOOD/S,187,eh.support@dartford.gov.uk,Sevenoaks,http://www.sevenoaks.gov.uk/,,,2014-01-29,fhrs_5_en-GB,5,,FHRS,0
252668,40 Robyns Way,Sevenoaks,Kent,,Bed And Breakfast,Hotel/bed & breakfast/guest house,7842,0,,266539,0,,51.28340500000000,03/00345/MAIN,187,eh.support@dartford.gov.uk,Sevenoaks,http://www.sevenoaks.gov.uk/,0.17819500000000,TN13 3EB,2013-08-21,fhrs_5_en-GB,5,,FHRS,0
252669,,,,,Bed And Breakfast,Hotel/bed & breakfast/guest house,7842,10,,594362,5,,,13/00123/FOOD/S,187,eh.support@dartford.gov.uk,Sevenoaks,http://www.sevenoaks.gov.uk/,,,2013-10-07,fhrs_4_en-GB,4,,FHRS,0
252670,Otford Railway Station,Station Road,Otford,Sevenoaks,Bee Zoo,Other catering premises,7841,10,,266630,10,,51.31301200000000,04/00061/FOOD,187,eh.support@dartford.gov.uk,Sevenoaks,http://www.sevenoaks.gov.uk/,0.19688900000000,TN14 5QY,2014-10-07,fhrs_3_en-GB,3,,FHRS,10
252671,Bessels Green Baptist Church,Bessels Green Road,Sevenoaks,Kent,Bessels Green Baptist Church And Hall,Other catering premises,7841,,,266786,,,51.27820600000000,07/00019/MIXED,187,eh.support@dartford.gov.uk,Sevenoaks,http://www.sevenoaks.gov.uk/,0.15945300000000,,2012-03-30,fhrs_exempt_en-GB,Exempt,,FHRS,
252672,,,,,Bijou Catering,Other catering premises,7841,5,,266914,0,,,10/00025/FOOD,187,eh.support@dartford.gov.uk,Sevenoaks,http://www.sevenoaks.gov.uk/,,,2014-06-23,fhrs_5_en-GB,5,,FHRS,0
252673,Birtley House School,Fawkham Road,West Kingsdown,KENT,Birtley House Independant School,School/college/university,7845,0,,429627,0,,51.34733400000000,12/00026/FOOD/S,187,eh.support@dartford.gov.uk,Sevenoaks,http://www.sevenoaks.gov.uk/,0.27020400000000,TN15 6AY,2012-07-06,fhrs_5_en-GB,5,,FHRS,0
252674,Black Lion Inn,Ash Road,Hartley,KENT,Black Lion,Pub/bar/nightclub,7843,0,,486863,0,,51.37891000000000,12/00064/MIXED/S,187,eh.support@dartford.gov.uk,Sevenoaks,http://www.sevenoaks.gov.uk/,0.30471800000000,DA3 8EX,2012-12-04,fhrs_4_en-GB,4,,FHRS,10
252675,Castle Farm,Redmans Lane,Shoreham,Sevenoaks,"Blends For Friends, The Tea Barn",Distributors/Transporters,7,,,266981,,,51.35011400000000,11/00028/MIXED,187,eh.support@dartford.gov.uk,Sevenoaks,http://www.sevenoaks.gov.uk/,0.17106000000000,TN14 7UB,2014-03-25,fhrs_exempt_en-GB,Exempt,,FHRS,
252676,10B Swanley Centre,London Road,Swanley,KENT,Blue Harbour Restaurant,Restaurant/Cafe/Canteen,1,0,,727559,10,,51.39623600000000,14/00124/MIXED/S,187,eh.support@dartford.gov.uk,Sevenoaks,http://www.sevenoaks.gov.uk/,0.17462400000000,BR8 7TG,2014-12-18,fhrs_4_en-GB,4,,FHRS,10
252677,,,,,Bluebell's Cakes,Other catering premises,7841,0,,594367,0,,,13/00130/FOOD/S,187,eh.support@dartford.gov.uk,Sevenoaks,http://www.sevenoaks.gov.uk/,,,2013-06-13,fhrs_5_en-GB,5,,FHRS,5
252678,Fawkham Manor Hospital,Manor Lane,Fawkham,Longfield,BMI Fawkham Manor,Other catering premises,7841,0,,266895,0,,51.37265800000000,09070/2002/2/000,187,eh.support@dartford.gov.uk,Sevenoaks,http://www.sevenoaks.gov.uk/,0.28642900000000,DA3 8ND,2014-08-29,fhrs_5_en-GB,5,,FHRS,0
252679,,116 London Road,Dunton Green,KENT,Bojangles,Restaurant/Cafe/Canteen,1,0,,556132,0,,51.29453600000000,13/00057/MIXED/S,187,eh.support@dartford.gov.uk,Sevenoaks,http://www.sevenoaks.gov.uk/,0.16668700000000,TN13 2UT,2013-05-31,fhrs_5_en-GB,5,,FHRS,0
252680,120 High Street,Sevenoaks,Kent,,Boots Co Plc,Retailers - other,4613,0,,266458,0,,51.27169000000000,02/00284/MIXED,187,eh.support@dartford.gov.uk,Sevenoaks,http://www.sevenoaks.gov.uk/,0.19292400000000,TN13 1XA,2013-02-11,fhrs_5_en-GB,5,,FHRS,5
252681,27 High Street,Edenbridge,Kent,,Boots Co Plc,Retailers - other,4613,,,266545,,,51.19737900000000,03/00409/MAIN,187,eh.support@dartford.gov.uk,Sevenoaks,http://www.sevenoaks.gov.uk/,0.06493600000000,TN8 5AD,2012-10-11,fhrs_exempt_en-GB,Exempt,,FHRS,
252682,32 Swanley Centre,Swanley,Kent,,Boots The Chemist,Retailers - other,4613,,,266533,,,51.39629500000000,03/00270/MAIN,187,eh.support@dartford.gov.uk,Sevenoaks,http://www.sevenoaks.gov.uk/,0.17385000000000,BR8 7TL,2013-01-10,fhrs_exempt_en-GB,Exempt,,FHRS,
252683,Commonwork Land Trust,Bore Place,Bore Place Road,Chiddingstone,Bore Place Conference And Study Centre,School/college/university,7845,,,266535,,,51.22050900000000,03/00284/FOOD,187,eh.support@dartford.gov.uk,Sevenoaks,http://www.sevenoaks.gov.uk/,0.15520400000000,TN8 7AR,2014-04-01,fhrs_4_en-GB,4,,FHRS,
252684,Education Self Catering,Bore Place,Bore Place Road,Chiddingstone,Bore Place Resource Centre,School/college/university,7845,10,,594364,15,,51.22050900000000,13/00126/MIXED/S,187,eh.support@dartford.gov.uk,Sevenoaks,http://www.sevenoaks.gov.uk/,0.15520400000000,TN8 7AR,2013-09-19,fhrs_2_en-GB,2,,FHRS,0
252685,2 Church Road,Hartley,Longfield,Kent,Bottle And Basket Off Licence,Retailers - other,4613,,,266500,,,51.38755500000000,03/00148/MAIN,187,eh.support@dartford.gov.uk,Sevenoaks,http://www.sevenoaks.gov.uk/,0.30641700000000,DA3 8DL,2014-02-27,fhrs_exempt_en-GB,Exempt,,FHRS,
252686,Bough Beech Sailing Club,Winkhurst Green Road,Bough Beech,Edenbridge,Bough Beech Sailing Club,Other catering premises,7841,20,,266648,5,,51.20854600000000,04/00252/MIXED,187,eh.support@dartford.gov.uk,Sevenoaks,http://www.sevenoaks.gov.uk/,0.14894700000000,TN8 7AN,2013-07-25,fhrs_1_en-GB,1,,FHRS,5
252687,37 High Street,Edenbridge,KENT,,Boyce's Bakery,Manufacturers/packers,7839,10,,267035,5,,51.19737900000000,11/00104/MIXED,187,eh.support@dartford.gov.uk,Sevenoaks,http://www.sevenoaks.gov.uk/,0.06493600000000,TN8 5AD,2014-05-27,fhrs_3_en-GB,3,,FHRS,10
252688,Bramblefield Close,Longfield,Kent,,Bramblings Residential Home,Other catering premises,7841,,,266424,,,51.39738600000000,01/00036/MIXED,187,eh.support@dartford.gov.uk,Sevenoaks,http://www.sevenoaks.gov.uk/,0.30177900000000,DA3 7PE,2014-11-18,fhrs_4_en-GB,4,,FHRS,
252689,Brands Hatch Place Hotel And Spa,Brands Hatch Road,Fawkham,KENT,Brands Hatch Place Hotel,Other catering premises,7841,0,,266487,0,,51.36038800000000,03/00037/MAIN,187,eh.support@dartford.gov.uk,Sevenoaks,http://www.sevenoaks.gov.uk/,0.27090700000000,DA3 8NQ,2014-03-07,fhrs_5_en-GB,5,,FHRS,0
252690,Brands Hatch Thistle Hotel,Brands Hatch,Fawkham,Longfield,Brands Hatch Thistle Hotel And Otium Health Club,Other catering premises,7841,5,,266437,10,,51.35890900000000,01520/0000/2/000,187,eh.support@dartford.gov.uk,Sevenoaks,http://www.sevenoaks.gov.uk/,0.25343800000000,DA3 8PE,2014-02-05,fhrs_3_en-GB,3,,FHRS,10
252691,Brands Hatch Place Hotel And Spa,Brands Hatch Road,Fawkham,KENT,Brandshatch Place Health Club And Spa,Other catering premises,7841,0,,266438,0,,51.36038800000000,01530/2001/2/000,187,eh.support@dartford.gov.uk,Sevenoaks,http://www.sevenoaks.gov.uk/,0.27090700000000,DA3 8NQ,2013-09-05,fhrs_5_en-GB,5,,FHRS,0
252692,The Pavilion,Brasted Recreation Ground,Westerham Road,Brasted,Brasted Montessori Nursery School,Hospitals/Childcare/Caring Premises,5,0,,708524,5,,,14/00101/MIXED/S,187,eh.support@dartford.gov.uk,Sevenoaks,http://www.sevenoaks.gov.uk/,,,2014-10-14,fhrs_5_en-GB,5,,FHRS,5
252693,The Green,High Street,Brasted,Westerham,Brasted Village Stores,Retailers - other,4613,10,,266932,15,,51.27696700000000,10/00057/MIXED,187,eh.support@dartford.gov.uk,Sevenoaks,http://www.sevenoaks.gov.uk/,0.11134600000000,TN16 1JL,2013-06-12,fhrs_2_en-GB,2,,FHRS,15
252694,Shoreham County Primary School,Church Street,Shoreham,Kent,Breakfast Club,School/college/university,7845,10,,510340,0,,51.33312400000000,13/00025/FOOD/S,187,eh.support@dartford.gov.uk,Sevenoaks,http://www.sevenoaks.gov.uk/,0.17842600000000,TN14 7SN,2014-07-10,fhrs_2_en-GB,2,,FHRS,15
252695,,,,,Breda's Sausages,Retailers - supermarkets/hypermarkets,7840,0,,572182,0,,,13/00079/MIXED/S,187,eh.support@dartford.gov.uk,Sevenoaks,http://www.sevenoaks.gov.uk/,,,2013-07-26,fhrs_5_en-GB,5,,FHRS,0
252696,Bricklayers Arms,39 Chevening Road,Chipstead,Sevenoaks,Bricklayers Arms,Pub/bar/nightclub,7843,5,,266670,5,,51.28563700000000,04/00344/MIXED,187,eh.support@dartford.gov.uk,Sevenoaks,http://www.sevenoaks.gov.uk/,0.14838500000000,TN13 2RZ,2015-02-05,fhrs_5_en-GB,5,,FHRS,5
252697,Bridge House Stores,Station Road,Eynsford,Dartford,Bridge House Stores,Retailers - other,4613,0,,267081,0,,51.36621900000000,14090/2094/2/000,187,eh.support@dartford.gov.uk,Sevenoaks,http://www.sevenoaks.gov.uk/,0.20723500000000,DA4 0EJ,2013-06-26,fhrs_5_en-GB,5,,FHRS,0
252698,The Bridges Centre,High Street,Edenbridge,Kent,Bridges,Hospitals/Childcare/Caring Premises,5,5,,266758,5,,51.19722600000000,06480/2030/2/000,187,eh.support@dartford.gov.uk,Sevenoaks,http://www.sevenoaks.gov.uk/,0.06441400000000,TN8 5AJ,2014-05-28,fhrs_5_en-GB,5,,FHRS,5
252699,Presbytery,2 Sycamore Drive,Swanley,Kent,Bright Sparks Child Centre,Hospitals/Childcare/Caring Premises,5,5,,266826,0,,51.39898600000000,08/00044/MIXED,187,eh.support@dartford.gov.uk,Sevenoaks,http://www.sevenoaks.gov.uk/,0.17471100000000,BR8 7AY,2013-07-17,fhrs_5_en-GB,5,,FHRS,0
252700,Broke Hill Golf Club,Sevenoaks Road,Halstead,Sevenoaks,Broke Hill Golf Clubhouse,Other catering premises,7841,,,266498,,,51.34500900000000,03/00143/MAIN,187,eh.support@dartford.gov.uk,Sevenoaks,http://www.sevenoaks.gov.uk/,0.13168900000000,TN14 7HR,2013-11-11,fhrs_3_en-GB,3,,FHRS,
252701,Broughton Cottage,London Road,Dunton Green,Sevenoaks,Broughton Cottage Day Nursery,Hospitals/Childcare/Caring Premises,5,5,,266556,0,,51.30097800000000,03/00566/MIXED,187,eh.support@dartford.gov.uk,Sevenoaks,http://www.sevenoaks.gov.uk/,0.16069300000000,TN13 2TD,2013-09-24,fhrs_5_en-GB,5,,FHRS,5
252702,73 London Road,Sevenoaks,Kent,,Brunch @ 73,Restaurant/Cafe/Canteen,1,10,,266870,5,,51.27254800000000,09/00041/MIXED,187,eh.support@dartford.gov.uk,Sevenoaks,http://www.sevenoaks.gov.uk/,0.18986800000000,TN13 1AX,2013-10-21,fhrs_4_en-GB,4,,FHRS,5
252703,Moreton Industrial Estate,London Road,Swanley,Kent,Brunch Box,Other catering premises,7841,10,,266788,15,,51.39044700000000,07/00030/MIXED,187,eh.support@dartford.gov.uk,Sevenoaks,http://www.sevenoaks.gov.uk/,0.18945600000000,BR8 8DE,2014-09-10,fhrs_2_en-GB,2,,FHRS,10
252704,BT,160 London Road,Sevenoaks,Kent,BT Sevenoaks,Other catering premises,7841,0,,266846,0,,51.27806000000000,08520/0160/0/000,187,eh.support@dartford.gov.uk,Sevenoaks,http://www.sevenoaks.gov.uk/,0.18169900000000,TN13 1BT,2014-06-12,fhrs_5_en-GB,5,,FHRS,5
252705,,,,,Bubba's Cakes,Other catering premises,7841,5,,552004,5,,,13/00056/MIXED/S,187,eh.support@dartford.gov.uk,Sevenoaks,http://www.sevenoaks.gov.uk/,,,2013-05-20,fhrs_5_en-GB,5,,FHRS,0
252706,Bucks Head Public House,Bucks Head,Park Lane,Seal,Bucks Head,Pub/bar/nightclub,7843,10,,266656,15,,51.27418200000000,04/00321/MIXED,187,eh.support@dartford.gov.uk,Sevenoaks,http://www.sevenoaks.gov.uk/,0.22477200000000,TN15 0JJ,2014-03-18,fhrs_2_en-GB,2,,FHRS,5
252707,11-13 Cherry Trees,Hartley,Longfield,Kent,Budgens,Retailers - other,4613,10,,266478,15,,51.38348500000000,02440/1113/0/000,187,eh.support@dartford.gov.uk,Sevenoaks,http://www.sevenoaks.gov.uk/,0.30894300000000,DA3 8DS,2014-09-30,fhrs_2_en-GB,2,,FHRS,10
252708,,,,,Buffet Belles,Other catering premises,7841,0,,266920,0,,,10/00037/FOOD,187,eh.support@dartford.gov.uk,Sevenoaks,http://www.sevenoaks.gov.uk/,,,2013-09-17,fhrs_5_en-GB,5,,FHRS,0
252709,14 South Park,Sevenoaks,Kent,,Buffet Express,Other catering premises,7841,10,,267101,10,,51.27067900000000,99/00001/MIXED,187,eh.support@dartford.gov.uk,Sevenoaks,http://www.sevenoaks.gov.uk/,0.19124200000000,TN13 1AN,2014-03-27,fhrs_3_en-GB,3,,FHRS,10
252710,Bullfinch,London Road,Riverhead,Sevenoaks,Bullfinch,Pub/bar/nightclub,7843,,,266928,,,51.28741800000000,10/00052/MIXED,187,eh.support@dartford.gov.uk,Sevenoaks,http://www.sevenoaks.gov.uk/,0.16787300000000,TN13 2DR,2013-12-04,fhrs_5_en-GB,5,,FHRS,
252711,"Burghesh Court Stores, Post Office",3 The Village,Chiddingstone,Edenbridge,Burghesh Court Stores And Post Office,Retailers - other,4613,0,,266911,0,,51.18594700000000,10/00016/MIXED,187,eh.support@dartford.gov.uk,Sevenoaks,http://www.sevenoaks.gov.uk/,0.14645000000000,TN8 7AH,2013-02-08,fhrs_5_en-GB,5,,FHRS,0
252712,Chopras Pharmacy,Holmesdale Road,South Darenth,Dartford,Butt & Hobbs Ltd.,Retailers - other,4613,,,632918,,,51.40374400000000,00/00003/MIXED,187,eh.support@dartford.gov.uk,Sevenoaks,http://www.sevenoaks.gov.uk/,0.24664100000000,DA4 9AF,2011-02-24,fhrs_exempt_en-GB,Exempt,,FHRS,
252713,,,,,Butterdrop,Mobile caterer,7846,0,,266900,0,,,10/00001/FOOD,187,eh.support@dartford.gov.uk,Sevenoaks,http://www.sevenoaks.gov.uk/,,,2014-07-07,fhrs_5_en-GB,5,,FHRS,0
252714,,,,,Butterflies Cakes,Other catering premises,7841,5,,266455,5,,,02/00280/FOOD,187,eh.support@dartford.gov.uk,Sevenoaks,http://www.sevenoaks.gov.uk/,,,2013-02-13,fhrs_5_en-GB,5,,FHRS,5
252715,7 Manse Parade,London Road,Swanley,Kent,Caffe Cinos,Restaurant/Cafe/Canteen,1,0,,266866,5,,51.39194000000000,09/00030/MIXED,187,eh.support@dartford.gov.uk,Sevenoaks,http://www.sevenoaks.gov.uk/,0.18702600000000,BR8 8DA,2013-08-05,fhrs_5_en-GB,5,,FHRS,0
252716,112 High Street,Sevenoaks,Kent,,Caffe Nero,Restaurant/Cafe/Canteen,1,5,,266647,0,,51.27116100000000,04/00251/MIXED,187,eh.support@dartford.gov.uk,Sevenoaks,http://www.sevenoaks.gov.uk/,0.19284200000000,TN13 1UZ,2014-05-23,fhrs_5_en-GB,5,,FHRS,5
252717,,,,,Cake-It-Away,Mobile caterer,7846,0,,266995,0,,,11/00047/FOOD,187,eh.support@dartford.gov.uk,Sevenoaks,http://www.sevenoaks.gov.uk/,,,2014-04-14,fhrs_5_en-GB,5,,FHRS,0
252718,,,,,Cakelicous,Other catering premises,7841,5,,637496,0,,,14/00025/FOOD/S,187,eh.support@dartford.gov.uk,Sevenoaks,http://www.sevenoaks.gov.uk/,,,2014-03-11,fhrs_5_en-GB,5,,FHRS,0
252719,Polhill,Halstead,Sevenoaks,Kent,Calcutta Club,Restaurant/Cafe/Canteen,1,10,,266790,10,,51.32432937622070,07/00037/MIXED,187,eh.support@dartford.gov.uk,Sevenoaks,http://www.sevenoaks.gov.uk/,0.15553224086761,TN14 7AA,2013-11-28,fhrs_3_en-GB,3,,FHRS,10
252720,Manor Farm,Manor Road,Longfield,KENT,Carib Catering,Mobile caterer,7846,0,,733919,0,,51.38768000000000,15/00020/MIXED/S,187,eh.support@dartford.gov.uk,Sevenoaks,http://www.sevenoaks.gov.uk/,0.33324400000000,DA3 8LD,2014-10-15,fhrs_5_en-GB,5,,FHRS,0
252721,,,,,Cassis Catering,Other catering premises,7841,5,,266831,0,,,08/00067/FOOD,187,eh.support@dartford.gov.uk,Sevenoaks,http://www.sevenoaks.gov.uk/,,,2013-08-02,fhrs_5_en-GB,5,,FHRS,0
252722,,,,,Catercraft,Retailers - other,4613,10,,266503,10,,,03/00171/MAIN,187,eh.support@dartford.gov.uk,Sevenoaks,http://www.sevenoaks.gov.uk/,,,2013-01-24,fhrs_4_en-GB,4,,FHRS,0
252723,Post Office,Chiddingstone Causeway,Tonbridge,Kent,Causeway Stores,Retailers - other,4613,10,,266726,10,,51.19881100000000,05/00285/MIXED,187,eh.support@dartford.gov.uk,Sevenoaks,http://www.sevenoaks.gov.uk/,0.16966500000000,TN11 8JP,2014-02-19,fhrs_3_en-GB,3,,FHRS,10
252724,Swanley School,St. Marys Road,Swanley,Kent,Centre Class,Hospitals/Childcare/Caring Premises,5,10,,266907,5,,51.39624300000000,10/00008/FOOD,187,eh.support@dartford.gov.uk,Sevenoaks,http://www.sevenoaks.gov.uk/,0.16988000000000,BR8 7TE,2012-03-28,fhrs_4_en-GB,4,,FHRS,5
252725,Chafford Arms,Spring Hill,Fordcombe,Tunbridge Wells,Chafford Arms,Pub/bar/nightclub,7843,0,,266506,0,,51.14208200000000,03/00176/MIXED,187,eh.support@dartford.gov.uk,Sevenoaks,http://www.sevenoaks.gov.uk/,0.18022800000000,TN3 0SA,2014-07-29,fhrs_5_en-GB,5,,FHRS,0
252726,37 Station Road,Swanley,Kent,,Charcoal Grill,Other catering premises,7841,5,,266674,5,,51.39490100000000,04/00349/MIXED,187,eh.support@dartford.gov.uk,Sevenoaks,http://www.sevenoaks.gov.uk/,0.17579700000000,BR8 8ES,2014-05-22,fhrs_5_en-GB,5,,FHRS,5
252727,Unit 1,Chart Farm,Styants Bottom Road,Seal,Chart Farm Venison,Retailers - other,4613,0,,479200,5,,51.28706500000000,11/00042/FOOD,187,eh.support@dartford.gov.uk,Sevenoaks,http://www.sevenoaks.gov.uk/,0.25607200000000,TN15 0ES,2012-11-28,fhrs_5_en-GB,5,,FHRS,5
252728,Chartwell House,Mapleton Road,Westerham,KENT,Chartwell,Restaurant/Cafe/Canteen,1,5,,266412,5,,51.24314200000000,01/00015/MIXED,187,eh.support@dartford.gov.uk,Sevenoaks,http://www.sevenoaks.gov.uk/,0.08184300000000,TN16 1PS,2014-01-23,fhrs_5_en-GB,5,,FHRS,5
252729,Hever Hotel,Hever Hotel,Hever Road,Hever,Chateauform At Hever,Hotel/bed & breakfast/guest house,7842,20,,267029,15,,51.19863700000000,11/00095/MIXED,187,eh.support@dartford.gov.uk,Sevenoaks,http://www.sevenoaks.gov.uk/,0.11331600000000,TN8 7NP,2014-12-03,fhrs_1_en-GB,1,,FHRS,15
252730,17 Sandy Lane,Westerham,KENT,,Chefsblends,Manufacturers/packers,7839,,,504339,,,51.27316400000000,13/00013/FOOD/S,187,eh.support@dartford.gov.uk,Sevenoaks,http://www.sevenoaks.gov.uk/,0.07663300000000,TN16 1EB,2013-01-25,fhrs_exempt_en-GB,Exempt,,FHRS,
252731,Chequers Inn,Watery Lane,Kemsing,KENT,Chequers Inn,Pub/bar/nightclub,7843,20,,647164,15,,51.30449400000000,14/00033/MIXED/S,187,eh.support@dartford.gov.uk,Sevenoaks,http://www.sevenoaks.gov.uk/,0.25278000000000,TN15 6NP,2014-03-25,fhrs_0_en-GB,0,,FHRS,20
252732,Cherry Tree Nursery,Otford Road,Sevenoaks,Kent,Cherry Tree Nursery Farm Shop,Restaurant/Cafe/Canteen,1,10,,266576,10,,51.29298800000000,03/00625/MIXED,187,eh.support@dartford.gov.uk,Sevenoaks,http://www.sevenoaks.gov.uk/,0.18944900000000,TN14 5DW,2013-09-24,fhrs_3_en-GB,3,,FHRS,10
252733,"Cheshire Home, Chipstead Lake",Chevening Road,Chipstead,Sevenoaks,Cheshire Home,Hospitals/Childcare/Caring Premises,5,0,,266479,0,,51.28664100000000,02530/2026/2/000,187,eh.support@dartford.gov.uk,Sevenoaks,http://www.sevenoaks.gov.uk/,0.15445500000000,TN13 2SD,2014-05-22,fhrs_5_en-GB,5,,FHRS,5
252734,Chevening  CEP School,Chevening Church Of England Primary,Chevening Road,Chipstead,Chevening CEP School,School/college/university,7845,0,,479203,0,,51.28803400000000,12/00059/FOOD/S,187,eh.support@dartford.gov.uk,Sevenoaks,http://www.sevenoaks.gov.uk/,0.14664700000000,TN13 2SA,2012-11-14,fhrs_5_en-GB,5,,FHRS,0
252735,Chiddingstone C Of E School,The Village,Chiddingstone,Edenbridge,Chiddingstone C Of E School,School/college/university,7845,5,,266403,5,,51.18594700000000,01/00003/FOOD,187,eh.support@dartford.gov.uk,Sevenoaks,http://www.sevenoaks.gov.uk/,0.14645000000000,TN8 7AH,2014-09-23,fhrs_4_en-GB,4,,FHRS,10
252736,Chipstead Pavilion,Recreation Ground,Chevening Road,Chipstead,Chipstead Football Club,Pub/bar/nightclub,7843,,,266792,,,51.28803400000000,07/00040/MIXED,187,eh.support@dartford.gov.uk,Sevenoaks,http://www.sevenoaks.gov.uk/,0.14664700000000,TN13 2SA,2012-02-14,fhrs_exempt_en-GB,Exempt,,FHRS,
252737,Chipstead Sailing Club,Chevening Road,Chipstead,Sevenoaks,Chipstead Sailing Club,Restaurant/Cafe/Canteen,1,,,266540,,,51.28664100000000,03/00355/MAIN,187,eh.support@dartford.gov.uk,Sevenoaks,http://www.sevenoaks.gov.uk/,0.15445500000000,TN13 2SD,2011-11-18,fhrs_exempt_en-GB,Exempt,,FHRS,
252738,7 The Green,Westerham,Kent,,Chocs On The Green,Retailers - other,4613,5,,266933,0,,51.26730000000000,10/00058/MIXED,187,eh.support@dartford.gov.uk,Sevenoaks,http://www.sevenoaks.gov.uk/,0.07259900000000,TN16 1AS,2013-06-13,fhrs_5_en-GB,5,,FHRS,0
252739,23 Market Square,Westerham,Kent,,Chows Restaurant,Restaurant/Cafe/Canteen,1,5,,266603,5,,51.26693200000000,03/00664/HELA,187,eh.support@dartford.gov.uk,Sevenoaks,http://www.sevenoaks.gov.uk/,0.07153600000000,TN16 1AN,2014-09-03,fhrs_4_en-GB,4,,FHRS,10
252740,Rickards Hall,High Street,Edenbridge,Kent,Church House Pre-school,Hospitals/Childcare/Caring Premises,5,5,,266980,0,,51.19559400000000,11/00027/MIXED,187,eh.support@dartford.gov.uk,Sevenoaks,http://www.sevenoaks.gov.uk/,0.06514200000000,TN8 5AR,2014-03-26,fhrs_5_en-GB,5,,FHRS,0
252741,Churchill Primary School,Rystead Lane,Westerham,Kent,Churchill Breakfast And After School Club,Other catering premises,7841,10,,585866,10,,51.27421900000000,13/00114/FOOD/S,187,eh.support@dartford.gov.uk,Sevenoaks,http://www.sevenoaks.gov.uk/,0.07541900000000,TN16 1ED,2013-09-13,fhrs_3_en-GB,3,,FHRS,10
252742,Churchill County Primary School,Rysted Lane,Westerham,Kent,Churchill County Primary School,School/college/university,7845,5,,267067,5,,51.27155200000000,12510/2000/2/000,187,eh.support@dartford.gov.uk,Sevenoaks,http://www.sevenoaks.gov.uk/,0.06858900000000,TN16 1EZ,2013-09-13,fhrs_4_en-GB,4,,FHRS,10
252743,,,,,Claires Cuisine,Other catering premises,7841,5,,699490,5,,,14/00091/FOOD/S,187,eh.support@dartford.gov.uk,Sevenoaks,http://www.sevenoaks.gov.uk/,,,2014-08-14,fhrs_5_en-GB,5,,FHRS,0
252744,,,,,Clever Cupcake Kitchen,Other catering premises,7841,0,,537283,0,,,13/00039/FOOD/S,187,eh.support@dartford.gov.uk,Sevenoaks,http://www.sevenoaks.gov.uk/,,,2013-04-18,fhrs_5_en-GB,5,,FHRS,0
252745,8 Upper Street North,New Ash Green,Longfield,KENT,Clocktower Restaurant,Restaurant/Cafe/Canteen,1,5,,504335,0,,51.36622000000000,13/00008/MIXED/S,187,eh.support@dartford.gov.uk,Sevenoaks,http://www.sevenoaks.gov.uk/,0.30521600000000,DA3 8JR,2013-01-11,fhrs_5_en-GB,5,,FHRS,5
252746,Brands Hatch Circuit,Brands Hatch Road,Fawkham,Longfield,Colin Chapman Way-Fast Lane,Restaurant/Cafe/Canteen,1,0,,266745,0,,51.35807200000000,06/00070/MIXED,187,eh.support@dartford.gov.uk,Sevenoaks,http://www.sevenoaks.gov.uk/,0.25581100000000,DA3 8NG,2014-02-25,fhrs_5_en-GB,5,,FHRS,5
252747,Combe Bank School,Combe Bank Drive,Sundridge,Sevenoaks,Combe Bank School,School/college/university,7845,,,266561,,,51.28231700000000,03/00601/FOOD,187,eh.support@dartford.gov.uk,Sevenoaks,http://www.sevenoaks.gov.uk/,0.12237500000000,TN14 6AE,2014-06-19,fhrs_5_en-GB,5,,FHRS,
252748,Roman Court,High Street,Edenbridge,KENT,"Connect Catering Ltd, Peverel Care",Other catering premises,7841,0,,267042,5,,51.19919800000000,11/00114/MIXED,187,eh.support@dartford.gov.uk,Sevenoaks,http://www.sevenoaks.gov.uk/,0.06430200000000,TN8 5LW,2013-11-29,fhrs_5_en-GB,5,,FHRS,0
252749,7 Blacks Yard,Sevenoaks,Kent,,Cook,Retailers - supermarkets/hypermarkets,7840,0,,266632,0,,51.27137100000000,04/00075/HELA,187,eh.support@dartford.gov.uk,Sevenoaks,http://www.sevenoaks.gov.uk/,0.19217800000000,TN13 1DS,2013-04-12,fhrs_5_en-GB,5,,FHRS,5
252750,Coolings Nurseries,Main Road,Knockholt,Sevenoaks,Coolings Green And Pleasant,Restaurant/Cafe/Canteen,1,5,,266553,5,,51.31475100000000,03/00518/HELA,187,eh.support@dartford.gov.uk,Sevenoaks,http://www.sevenoaks.gov.uk/,0.11514700000000,TN14 7LJ,2014-03-11,fhrs_5_en-GB,5,,FHRS,5
252751,Swanley Service Station,73 - 75 High Street,Swanley,Kent,Co-op  Service Station,Retailers - other,4613,0,,266677,5,,51.39466700000000,04/00353/MIXED,187,eh.support@dartford.gov.uk,Sevenoaks,http://www.sevenoaks.gov.uk/,0.17969600000000,BR8 8AF,2015-01-15,fhrs_4_en-GB,4,,FHRS,10
252752,1-2 Carlton Parade,St. Johns Hill,Sevenoaks,Kent,Co-op Welcome,Retailers - supermarkets/hypermarkets,7840,10,,266610,0,,51.28645600000000,03/00674/MIXED,187,eh.support@dartford.gov.uk,Sevenoaks,http://www.sevenoaks.gov.uk/,0.19536300000000,TN13 3NZ,2013-11-25,fhrs_4_en-GB,4,,FHRS,10
252753,30 The Row,New Ash Green,Longfield,Kent,Co-operative,Retailers - supermarkets/hypermarkets,7840,10,,266811,0,,51.36601900000000,08/00008/MIXED,187,eh.support@dartford.gov.uk,Sevenoaks,http://www.sevenoaks.gov.uk/,0.30491800000000,DA3 8JB,2014-12-31,fhrs_4_en-GB,4,,FHRS,10
252754,The Grange,6 High Street,Westerham,Kent,Co-operative,Retailers - other,4613,5,,266776,5,,51.26608300000000,06670/0006/0/000,187,eh.support@dartford.gov.uk,Sevenoaks,http://www.sevenoaks.gov.uk/,0.06820000000000,TN16 1RF,2014-02-11,fhrs_4_en-GB,4,,FHRS,10
252755,1 The Green,Westerham,Kent,,Costa,Restaurant/Cafe/Canteen,1,0,,266946,0,,51.26730000000000,10/00079/MIXED,187,eh.support@dartford.gov.uk,Sevenoaks,http://www.sevenoaks.gov.uk/,0.07259900000000,TN16 1AS,2014-12-03,fhrs_5_en-GB,5,,FHRS,5
252756,64 High Street,Edenbridge,KENT,,Costa,Restaurant/Cafe/Canteen,1,0,,267015,5,,51.19722600000000,11/00076/MIXED,187,eh.support@dartford.gov.uk,Sevenoaks,http://www.sevenoaks.gov.uk/,0.06441400000000,TN8 5AJ,2015-01-29,fhrs_5_en-GB,5,,FHRS,5
252757,Sevenoaks Railway Station,London Road,Sevenoaks,KENT,Costa,Restaurant/Cafe/Canteen,1,0,,637494,0,,51.27668300000000,14/00023/MIXED/S,187,eh.support@dartford.gov.uk,Sevenoaks,http://www.sevenoaks.gov.uk/,0.18176300000000,TN13 1DP,2014-02-28,fhrs_5_en-GB,5,,FHRS,0
252758,2 Blighs Road,Sevenoaks,Kent,,Costa Coffee,Restaurant/Cafe/Canteen,1,5,,266916,10,,51.27246000000000,10/00029/FOOD,187,eh.support@dartford.gov.uk,Sevenoaks,http://www.sevenoaks.gov.uk/,0.19218700000000,TN13 1DA,2014-11-20,fhrs_4_en-GB,4,,FHRS,5
252759,Wine Rack,58 High Street,Edenbridge,KENT,Costcutters,Retailers - supermarkets/hypermarkets,7840,10,,727556,0,,51.19722600000000,14/00121/MIXED/S,187,eh.support@dartford.gov.uk,Sevenoaks,http://www.sevenoaks.gov.uk/,0.06441400000000,TN8 5AJ,2014-12-04,fhrs_4_en-GB,4,,FHRS,10
252760,22 London Road,Sevenoaks,KENT,,Cote Brasserie,Other catering premises,7841,0,,572179,0,,51.27045200000000,13/00075/MIXED/S,187,eh.support@dartford.gov.uk,Sevenoaks,http://www.sevenoaks.gov.uk/,0.19232000000000,TN13 1AJ,2013-07-17,fhrs_5_en-GB,5,,FHRS,5
252761,,,,,Cottage Cooking,Mobile caterer,7846,5,,266432,5,,,01260/0022/0/000,187,eh.support@dartford.gov.uk,Sevenoaks,http://www.sevenoaks.gov.uk/,,,2014-08-06,fhrs_5_en-GB,5,,FHRS,5
252762,Polhill Garden Centre,London Road,Halstead,Sevenoaks,Cottage Farm Quality Meats,Retailers - other,4613,5,,266837,0,,,08410/2005/3/005,187,eh.support@dartford.gov.uk,Sevenoaks,http://www.sevenoaks.gov.uk/,,,2014-05-21,fhrs_5_en-GB,5,,FHRS,0
252763,,,,,Create A Cake With Julie,Manufacturers/packers,7839,0,,580455,0,,,13/00104/FOOD/S,187,eh.support@dartford.gov.uk,Sevenoaks,http://www.sevenoaks.gov.uk/,,,2013-08-22,fhrs_5_en-GB,5,,FHRS,0
252764,Manor Buildings,Powder Mill Lane,Leigh,Tonbridge,Creative Catering,Other catering premises,7841,10,,266741,5,,51.19678400000000,06/00056/MIXED,187,eh.support@dartford.gov.uk,Sevenoaks,http://www.sevenoaks.gov.uk/,0.23810300000000,TN11 9AS,2014-11-10,fhrs_4_en-GB,4,,FHRS,5
252765,2 Broadway,Crockenhill,Swanley,Kent,Crockenhill Indian Takeaway,Other catering premises,7841,5,,266461,0,,51.38362400000000,02/00290/MIXED,187,eh.support@dartford.gov.uk,Sevenoaks,http://www.sevenoaks.gov.uk/,0.16122000000000,BR8 8JH,2011-03-30,fhrs_4_en-GB,4,,FHRS,10
252766,4 - 5 Broadway,Crockenhill,Swanley,Kent,Crockenhill Post Office Stores,Retailers - other,4613,5,,266973,0,,51.38362400000000,11/00018/MIXED,187,eh.support@dartford.gov.uk,Sevenoaks,http://www.sevenoaks.gov.uk/,0.16122000000000,BR8 8JH,2013-03-26,fhrs_5_en-GB,5,,FHRS,5
252767,Crockenhill County Primary School,Stones Cross Road,Crockenhill,KENT,Crockenhill Primary School,School/college/university,7845,0,,619229,0,,51.38717200000000,13/00157/FOOD/S,187,eh.support@dartford.gov.uk,Sevenoaks,http://www.sevenoaks.gov.uk/,0.15947600000000,BR8 8LT,2013-10-25,fhrs_5_en-GB,5,,FHRS,0
252768,Crockham Hill C Of E Primary School,Crockham Hill,Edenbridge,Kent,Crockham Hill C Of E Primary School,School/college/university,7845,5,,266723,5,,51.23712800000000,05/00274/FOOD,187,eh.support@dartford.gov.uk,Sevenoaks,http://www.sevenoaks.gov.uk/,0.06545500000000,TN8 6RP,2014-06-18,fhrs_5_en-GB,5,,FHRS,5
252769,,,,,Crossways House Bed And Breakfast,Other catering premises,7841,10,,657816,10,,,13/00127/FOOD/S,187,eh.support@dartford.gov.uk,Sevenoaks,http://www.sevenoaks.gov.uk/,,,2013-10-14,fhrs_3_en-GB,3,,FHRS,5
252770,Godden Green,Sevenoaks,Kent,,Cygnet Hospital,Other catering premises,7841,5,,266813,0,,51.27160900000000,08/00014/FOOD,187,eh.support@dartford.gov.uk,Sevenoaks,http://www.sevenoaks.gov.uk/,0.23005300000000,TN15 0JR,2014-07-25,fhrs_5_en-GB,5,,FHRS,5
252771,25 Selah Drive,Swanley,Kent,,D And D Meats,Distributors/Transporters,7,5,,266905,5,,51.40630400000000,10/00006/FOOD,187,eh.support@dartford.gov.uk,Sevenoaks,http://www.sevenoaks.gov.uk/,0.16121100000000,BR8 7WD,2011-08-12,fhrs_5_en-GB,5,,FHRS,0
252772,4 High Street,Edenbridge,KENT,,D And M News,Retailers - other,4613,10,,727558,5,,51.19868100000000,14/00123/MIXED/S,187,eh.support@dartford.gov.uk,Sevenoaks,http://www.sevenoaks.gov.uk/,0.06403500000000,TN8 5AG,2014-12-23,fhrs_3_en-GB,3,,FHRS,10
252773,Darenth Valley Golf Course Ltd,Station Road,Shoreham,Sevenoaks,Darenth Valley Golf Course Ltd,Other catering premises,7841,10,,266417,10,,51.33144300000000,01/00026/MIXED,187,eh.support@dartford.gov.uk,Sevenoaks,http://www.sevenoaks.gov.uk/,0.18754900000000,TN14 7SA,2013-02-25,fhrs_3_en-GB,3,,FHRS,10
252774,Caxton Hall,Swanley School,St. Marys Road,Swanley,Dawn To Dusk Day Nursery Swanley Ltd,Hospitals/Childcare/Caring Premises,5,0,,266725,0,,51.39624300000000,05/00276/FOOD,187,eh.support@dartford.gov.uk,Sevenoaks,http://www.sevenoaks.gov.uk/,0.16988000000000,BR8 7TE,2013-10-04,fhrs_5_en-GB,5,,FHRS,5
252775,,,,,Delaware Cottage Delights,Mobile caterer,7846,5,,568431,10,,,13/00066/FOOD/S,187,eh.support@dartford.gov.uk,Sevenoaks,http://www.sevenoaks.gov.uk/,,,2013-06-14,fhrs_4_en-GB,4,,FHRS,0
252776,London House,4 Market Square,Westerham,KENT,Deli Di Luca,Restaurant/Cafe/Canteen,1,5,,445117,5,,51.26730900000000,12/00032/MIXED/S,187,eh.support@dartford.gov.uk,Sevenoaks,http://www.sevenoaks.gov.uk/,0.07103700000000,TN16 1AW,2014-12-16,fhrs_4_en-GB,4,,FHRS,10
252777,135-137 London Road,Sevenoaks,Kent,,Dolphin Fish Bar,Other catering premises,7841,5,,266847,5,,51.27440600000000,08520/1351/0/000,187,eh.support@dartford.gov.uk,Sevenoaks,http://www.sevenoaks.gov.uk/,0.18764800000000,TN13 1BH,2014-08-06,fhrs_5_en-GB,5,,FHRS,5
252778,119 St Johns Hill,Sevenoaks,KENT,,Domino Pizza,Other catering premises,7841,0,,266825,0,,51.28737500000000,08/00042/MIXED,187,eh.support@dartford.gov.uk,Sevenoaks,http://www.sevenoaks.gov.uk/,0.19480400000000,TN13 3PE,2013-02-12,fhrs_5_en-GB,5,,FHRS,0
252779,15 High Street,Swanley,KENT,,Domino's Pizza,Other catering premises,7841,0,,267058,0,,51.39524600000000,12/00015/MIXED,187,eh.support@dartford.gov.uk,Sevenoaks,http://www.sevenoaks.gov.uk/,0.17804100000000,BR8 8AE,2014-02-14,fhrs_5_en-GB,5,,FHRS,0
252780,Donnington Manor Hotel,London Road,Dunton Green,Sevenoaks,Donnington Manor Hotel,Other catering premises,7841,10,,266667,10,,51.30097800000000,04/00339/MIXED,187,eh.support@dartford.gov.uk,Sevenoaks,http://www.sevenoaks.gov.uk/,0.16069300000000,TN13 2TD,2013-04-18,fhrs_3_en-GB,3,,FHRS,10
252781,Westerham Heights Farm,Westerham Hill,Westerham,Kent,Doorsteps Catering,Other catering premises,7841,5,,266563,5,,,03/00604/MIXED,187,eh.support@dartford.gov.uk,Sevenoaks,http://www.sevenoaks.gov.uk/,,,2013-09-04,fhrs_5_en-GB,5,,FHRS,5
252782,Beech Avenue,Swanley,KENT,,Downsview Community Primary School,School/college/university,7845,10,,464177,5,,51.39584600000000,12/00054/FOOD/S,187,eh.support@dartford.gov.uk,Sevenoaks,http://www.sevenoaks.gov.uk/,0.18350400000000,BR8 8AU,2014-04-24,fhrs_4_en-GB,4,,FHRS,5
252783,Dunton Green County Primary School,London Road,Dunton Green,Sevenoaks,Dunton Green County Primary School,School/college/university,7845,0,,266662,0,,51.29576500000000,04/00330/FOOD,187,eh.support@dartford.gov.uk,Sevenoaks,http://www.sevenoaks.gov.uk/,0.16536800000000,TN13 2UP,2014-11-11,fhrs_4_en-GB,4,,FHRS,10
252784,159 London Road,Dunton Green,Sevenoaks,Kent,Dunton Green Social Club,Pub/bar/nightclub,7843,5,,266836,5,,51.29639300000000,08380/0159/0/000,187,eh.support@dartford.gov.uk,Sevenoaks,http://www.sevenoaks.gov.uk/,0.16496700000000,TN13 2TA,2014-03-24,fhrs_4_en-GB,4,,FHRS,10
252785,Eagle Heights Bird Of Prey Centre,Lullingstone Lane,Eynsford,Dartford,Eagle Heights Wildlife Park,Restaurant/Cafe/Canteen,1,0,,266382,0,,51.37014200000000,00/00024/MIXED,187,eh.support@dartford.gov.uk,Sevenoaks,http://www.sevenoaks.gov.uk/,0.19324300000000,DA4 0JB,2014-03-20,fhrs_5_en-GB,5,,FHRS,0
252786,Eaglesfield Farm,West Yoke,Ash,Sevenoaks,Eaglesfield Equestrian Centre,Restaurant/Cafe/Canteen,1,10,,266572,5,,51.36632300000000,03/00617/MIXED,187,eh.support@dartford.gov.uk,Sevenoaks,http://www.sevenoaks.gov.uk/,0.29263600000000,TN15 7HT,2014-09-08,fhrs_2_en-GB,2,,FHRS,15
252787,The Eden Centre,Four Elms Road,Edenbridge,KENT,Eat @ Eden,Restaurant/Cafe/Canteen,1,0,,580451,0,,,13/00100/MIXED/S,187,eh.support@dartford.gov.uk,Sevenoaks,http://www.sevenoaks.gov.uk/,,TN8 6BY,2013-08-13,fhrs_5_en-GB,5,,FHRS,0
252788,,,,,Eat'N Mess,Mobile caterer,7846,5,,504342,5,,,13/00016/FOOD/S,187,eh.support@dartford.gov.uk,Sevenoaks,http://www.sevenoaks.gov.uk/,,,2013-01-29,fhrs_5_en-GB,5,,FHRS,0
252789,Edenbridge Womens Institute,Edenbridge Womens Institute Hall,Station Road,Edenbridge,Eden Nursery,Other catering premises,7841,10,,632921,10,,51.19968600000000,14/00017/FOOD/S,187,eh.support@dartford.gov.uk,Sevenoaks,http://www.sevenoaks.gov.uk/,0.06413700000000,TN8 5LX,2014-02-05,fhrs_3_en-GB,3,,FHRS,5
252790,Edenbridge & District War Memorial,Mill Hill,Edenbridge,Kent,Edenbridge & District War Memorial Hospital,Other catering premises,7841,10,,266373,5,,51.19066700000000,00/00008/FOOD,187,eh.support@dartford.gov.uk,Sevenoaks,http://www.sevenoaks.gov.uk/,0.06662500000000,TN8 5DA,2014-07-28,fhrs_3_en-GB,3,,FHRS,10
252791,93 High Street,Edenbridge,Kent,,Edenbridge Balti,Other catering premises,7841,10,,266757,10,,51.19535100000000,06480/0093/0/000,187,eh.support@dartford.gov.uk,Sevenoaks,http://www.sevenoaks.gov.uk/,0.06566100000000,TN8 5AU,2013-09-18,fhrs_2_en-GB,2,,FHRS,15
252792,Edenbridge CP School,High Street,Edenbridge,Kent,Edenbridge Childrens Centre,Hospitals/Childcare/Caring Premises,5,,,266983,,,51.16965866088867,11/00030/FOOD,187,eh.support@dartford.gov.uk,Sevenoaks,http://www.sevenoaks.gov.uk/,0.75830000638962,TN8 5AB,2014-03-12,fhrs_exempt_en-GB,Exempt,,FHRS,
252793,Edenbridge Cp School,High Street,Edenbridge,Kent,Edenbridge CP School Principal Catering Consultants Ltd,School/college/university,7845,5,,266708,0,,51.19831700000000,05/00221/FOOD,187,eh.support@dartford.gov.uk,Sevenoaks,http://www.sevenoaks.gov.uk/,0.06477700000000,TN8 5AB,2014-06-06,fhrs_5_en-GB,5,,FHRS,5
252794,Edenbridge Leisure Centre,Station Road,Edenbridge,KENT,Edenbridge Leisure Centre,Restaurant/Cafe/Canteen,1,5,,266569,10,,51.19972800000000,03/00614/MIXED,187,eh.support@dartford.gov.uk,Sevenoaks,http://www.sevenoaks.gov.uk/,0.06479800000000,TN8 5LU,2014-02-05,fhrs_4_en-GB,4,,FHRS,0
252795,67 High Street,Edenbridge,Kent,,Edenbridge Working Mens Club,Other catering premises,7841,10,,266668,5,,51.19673600000000,04/00340/MIXED,187,eh.support@dartford.gov.uk,Sevenoaks,http://www.sevenoaks.gov.uk/,0.06517900000000,TN8 5AL,2014-05-01,fhrs_3_en-GB,3,,FHRS,10
252796,,,,,Edge Of The Weald Smokery,Manufacturers/packers,7839,5,,619219,0,,,13/00134/FOOD/S,187,eh.support@dartford.gov.uk,Sevenoaks,http://www.sevenoaks.gov.uk/,,,2013-11-01,fhrs_5_en-GB,5,,FHRS,0
252797,Eglantine Villa,Eglantine Lane,Horton Kirby,Dartford,Eglantine Villa,Other catering premises,7841,0,,266427,5,,51.38514300000000,01/00040/MIXED,187,eh.support@dartford.gov.uk,Sevenoaks,http://www.sevenoaks.gov.uk/,0.24118800000000,DA4 9JL,2014-07-24,fhrs_4_en-GB,4,,FHRS,10
252798,49 London Road,Sevenoaks,KENT,,El Matador,Restaurant/Cafe/Canteen,1,0,,266999,5,,51.27092900000000,11/00055/MIXED,187,eh.support@dartford.gov.uk,Sevenoaks,http://www.sevenoaks.gov.uk/,0.19134000000000,TN13 1AR,2014-08-01,fhrs_5_en-GB,5,,FHRS,0
252799,7 Market Square,Westerham,Kent,,Elmfield Drugs Ltd,Retailers - other,4613,,,266473,,,51.26693200000000,02/00311/MIXED,187,eh.support@dartford.gov.uk,Sevenoaks,http://www.sevenoaks.gov.uk/,0.07153600000000,TN16 1AN,2013-11-14,fhrs_exempt_en-GB,Exempt,,FHRS,
252800,Emily Jackson House,Emily Jackson Close,Sevenoaks,Kent,Emily Jackson House,Other catering premises,7841,5,,266689,10,,51.27495200000000,04420/2000/2/000,187,eh.support@dartford.gov.uk,Sevenoaks,http://www.sevenoaks.gov.uk/,0.18635500000000,TN13 1XH,2014-09-26,fhrs_4_en-GB,4,,FHRS,5
252801,,,,,Emma Page Cakes,Other catering premises,7841,5,,647171,5,,,14/00044/FOOD/S,187,eh.support@dartford.gov.uk,Sevenoaks,http://www.sevenoaks.gov.uk/,,,2014-03-25,fhrs_5_en-GB,5,,FHRS,5
252802,,,,,Emma's Candy Galore And More,Retailers - other,4613,0,,688980,0,,,14/00086/FOOD/S,187,eh.support@dartford.gov.uk,Sevenoaks,http://www.sevenoaks.gov.uk/,,,2014-07-31,fhrs_5_en-GB,5,,FHRS,0
252803,119 High Street,Sevenoaks,Kent,,Especially Health,Retailers - other,4613,5,,266512,0,,51.27162800000000,03/00201/MAIN,187,eh.support@dartford.gov.uk,Sevenoaks,http://www.sevenoaks.gov.uk/,0.19240500000000,TN13 1UP,2014-02-14,fhrs_5_en-GB,5,,FHRS,0
252804,Champion Filling Station,Station Road,Edenbridge,Kent,Esso Filling Station Champion On The Run,Retailers - other,4613,0,,266732,0,,51.20660300000000,06/00016/MIXED,187,eh.support@dartford.gov.uk,Sevenoaks,http://www.sevenoaks.gov.uk/,0.06098200000000,TN8 6HL,2013-10-04,fhrs_5_en-GB,5,,FHRS,0
252805,Eureka Sun Club,Manor Lane,Fawkham,Longfield,Eureka Sun Club,Pub/bar/nightclub,7843,5,,266636,10,,51.37265800000000,04/00112/MIXED,187,eh.support@dartford.gov.uk,Sevenoaks,http://www.sevenoaks.gov.uk/,0.28642900000000,DA3 8ND,2013-11-18,fhrs_4_en-GB,4,,FHRS,5
252806,,,,,Ever After Wedding Cakes,Manufacturers/packers,7839,0,,619220,0,,,13/00135/FOOD/S,187,eh.support@dartford.gov.uk,Sevenoaks,http://www.sevenoaks.gov.uk/,,,2013-11-08,fhrs_5_en-GB,5,,FHRS,0
252807,Common Meadow,Riverside,Eynsford,Dartford,Eynsford Cricket Club,Pub/bar/nightclub,7843,5,,266406,5,,51.36860900000000,01/00006/MIXED,187,eh.support@dartford.gov.uk,Sevenoaks,http://www.sevenoaks.gov.uk/,0.20921800000000,DA4 0AE,2013-09-06,fhrs_5_en-GB,5,,FHRS,5
252808,Riverside,Eynsford,Dartford,Kent,Eynsford Riverside Club,Pub/bar/nightclub,7843,10,,266639,0,,51.16965866088867,04/00121/MIXED,187,eh.support@dartford.gov.uk,Sevenoaks,http://www.sevenoaks.gov.uk/,0.75830000638962,DA4 0AE,2013-09-06,fhrs_4_en-GB,4,,FHRS,5
252809,86 High Street,Edenbridge,KENT,,"Fade, Food And Drink, Etcetera",Restaurant/Cafe/Canteen,1,10,,552003,15,,51.19559400000000,13/00055/MIXED/S,187,eh.support@dartford.gov.uk,Sevenoaks,http://www.sevenoaks.gov.uk/,0.06514200000000,TN8 5AR,2014-11-24,fhrs_2_en-GB,2,,FHRS,5
252810,Fahims Indian Restaurant,9 High Street,Swanley,KENT,Fahim's Indian Restaurant,Restaurant/Cafe/Canteen,1,5,,504333,5,,51.39524600000000,13/00005/MIXED/S,187,eh.support@dartford.gov.uk,Sevenoaks,http://www.sevenoaks.gov.uk/,0.17804100000000,BR8 8AE,2015-01-28,fhrs_5_en-GB,5,,FHRS,5
252811,Fairby Grange,Ash Road,Hartley,Longfield,Fairby Grange,Other catering premises,7841,5,,266375,5,,51.38303500000000,00/00012/MIXED,187,eh.support@dartford.gov.uk,Sevenoaks,http://www.sevenoaks.gov.uk/,0.30531300000000,DA3 8ER,2014-09-03,fhrs_5_en-GB,5,,FHRS,5
252812,Fairby Stores,Ash Road,Hartley,KENT,Fairby Stores,Retailers - supermarkets/hypermarkets,7840,10,,510341,0,,51.38507300000000,13/00027/MIXED/S,187,eh.support@dartford.gov.uk,Sevenoaks,http://www.sevenoaks.gov.uk/,0.30364800000000,DA3 8EH,2013-02-20,fhrs_4_en-GB,4,,FHRS,10
252813,,,,,Fairycake,Manufacturers/packers,7839,5,,637499,0,,,14/00028/FOOD/S,187,eh.support@dartford.gov.uk,Sevenoaks,http://www.sevenoaks.gov.uk/,,,2014-03-19,fhrs_5_en-GB,5,,FHRS,0
252814,1 Falconers Court,High Street,Edenbridge,Kent,Falconers Court,Hospitals/Childcare/Caring Premises,5,0,,266759,0,,51.19823400000000,06485/0001/0/000,187,eh.support@dartford.gov.uk,Sevenoaks,http://www.sevenoaks.gov.uk/,0.06537500000000,TN8 5NW,2014-03-12,fhrs_5_en-GB,5,,FHRS,0
252815,High Street,Farningham,Dartford,Kent,Farningham Butchers,Retailers - supermarkets/hypermarkets,7840,0,,266954,5,,51.38075500000000,10/00090/MIXED,187,eh.support@dartford.gov.uk,Sevenoaks,http://www.sevenoaks.gov.uk/,0.22035100000000,DA4 0DG,2013-01-10,fhrs_4_en-GB,4,,FHRS,10
252816,13-14 Eynsford Road,Farningham,Dartford,Kent,Farningham Day Nursery,Hospitals/Childcare/Caring Premises,5,0,,266691,0,,51.37739400000000,04530/1314/0/000,187,eh.support@dartford.gov.uk,Sevenoaks,http://www.sevenoaks.gov.uk/,0.22356600000000,DA4 0BD,2013-11-08,fhrs_5_en-GB,5,,FHRS,5
252817,Wellgate,Three Gates Road,Fawkham,KENT,Fawkham Bee Company,Manufacturers/packers,7839,0,,669007,0,,51.37826600000000,14/00064/FOOD/S,187,eh.support@dartford.gov.uk,Sevenoaks,http://www.sevenoaks.gov.uk/,0.27232300000000,DA3 8NZ,2014-06-05,fhrs_5_en-GB,5,,FHRS,0
252818,Fawkham Primary School,Valley Road,Fawkham,Longfield,Fawkham Primary School,School/college/university,7845,0,,267094,5,,51.37708900000000,15680/2016/2/000,187,eh.support@dartford.gov.uk,Sevenoaks,http://www.sevenoaks.gov.uk/,0.28057100000000,DA3 8NA,2014-09-10,fhrs_5_en-GB,5,,FHRS,0
252819,Fighting Cocks,The Street,Horton Kirby,Dartford,Fighting Cocks,Pub/bar/nightclub,7843,0,,266571,0,,51.39145900000000,03/00616/MIXED,187,eh.support@dartford.gov.uk,Sevenoaks,http://www.sevenoaks.gov.uk/,0.24054800000000,DA4 9BY,2013-07-22,fhrs_4_en-GB,4,,FHRS,10
252820,Fircroft Tenants Social Club,Farmstead Drive,Edenbridge,Kent,Fircroft Tenants Social Club,Pub/bar/nightclub,7843,,,266496,,,,03/00116/MIXED,187,eh.support@dartford.gov.uk,Sevenoaks,http://www.sevenoaks.gov.uk/,,TN8 8DX,2014-03-28,fhrs_exempt_en-GB,Exempt,,FHRS,
252821,The Five Bells,Church Road,Seal,KENT,Five Bells,Pub/bar/nightclub,7843,5,,445119,0,,51.28922800000000,12/00034/MIXED/S,187,eh.support@dartford.gov.uk,Sevenoaks,http://www.sevenoaks.gov.uk/,0.22053700000000,TN15 0AU,2012-08-13,fhrs_4_en-GB,4,,FHRS,10
252822,Fleur De Lis,High Street,Leigh,KENT,Fleur De Lis,Pub/bar/nightclub,7843,10,,636160,5,,51.19586700000000,14/00022/FOOD/S,187,eh.support@dartford.gov.uk,Sevenoaks,http://www.sevenoaks.gov.uk/,0.21255200000000,TN11 8RL,2014-02-20,fhrs_2_en-GB,2,,FHRS,15
252823,,,,,Flick's Fancies,Other catering premises,7841,0,,594360,0,,,13/00096/FOOD/S,187,eh.support@dartford.gov.uk,Sevenoaks,http://www.sevenoaks.gov.uk/,,,2013-08-06,fhrs_5_en-GB,5,,FHRS,0
252824,,,,,Flossy Pops,Other catering premises,7841,0,,636158,0,,,14/00019/FOOD/S,187,eh.support@dartford.gov.uk,Sevenoaks,http://www.sevenoaks.gov.uk/,,,2014-02-17,fhrs_5_en-GB,5,,FHRS,0
252825,C/O,The Old Crown Hotel,74 - 76 High Street,Edenbridge,Flourish Craft Bakery,Retailers - other,4613,0,,580452,0,,51.19559400000000,13/00101/MIXED/S,187,eh.support@dartford.gov.uk,Sevenoaks,http://www.sevenoaks.gov.uk/,0.06514200000000,TN8 5AR,2013-08-13,fhrs_5_en-GB,5,,FHRS,0
252826,19 - 20 The Green,Westerham,KENT,,Food For Thought,Restaurant/Cafe/Canteen,1,5,,504338,5,,51.26704300000000,13/00011/MIXED/S,187,eh.support@dartford.gov.uk,Sevenoaks,http://www.sevenoaks.gov.uk/,0.07336100000000,TN16 1AX,2014-08-29,fhrs_5_en-GB,5,,FHRS,5
252827,,,,,Food To Di For,Other catering premises,7841,10,,266882,5,,,09/00058/FOOD,187,eh.support@dartford.gov.uk,Sevenoaks,http://www.sevenoaks.gov.uk/,,,2013-03-14,fhrs_4_en-GB,4,,FHRS,0
252828,Fordcombe C Of E Primary School,The Green,Fordcombe,Tunbridge Wells,Fordcombe C Of E Primary School,School/college/university,7845,0,,266507,0,,51.14137900000000,03/00177/MAIN,187,eh.support@dartford.gov.uk,Sevenoaks,http://www.sevenoaks.gov.uk/,0.18033800000000,TN3 0RY,2013-10-08,fhrs_5_en-GB,5,,FHRS,0
252829,30 High Street,Otford,Sevenoaks,Kent,Forge House Restaurant,Restaurant/Cafe/Canteen,1,10,,266764,10,,51.31314700000000,06570/0030/0/000,187,eh.support@dartford.gov.uk,Sevenoaks,http://www.sevenoaks.gov.uk/,0.18871600000000,TN14 5PQ,2014-07-08,fhrs_3_en-GB,3,,FHRS,10
252830,Four Elms Road,Four Elms,Edenbridge,Kent,Four Elms Filling Station,Retailers - other,4613,10,,266695,5,,51.21537700000000,05/00034/FOOD,187,eh.support@dartford.gov.uk,Sevenoaks,http://www.sevenoaks.gov.uk/,0.09866100000000,TN8 6NL,2012-11-09,fhrs_4_en-GB,4,,FHRS,0
252831,Four Elms Cp School,Bough Beech Road,Four Elms,Edenbridge,Four Elms Primary School,School/college/university,7845,10,,266433,0,,51.21520300000000,01290/2013/2/000,187,eh.support@dartford.gov.uk,Sevenoaks,http://www.sevenoaks.gov.uk/,0.10028500000000,TN8 6NE,2013-03-18,fhrs_4_en-GB,4,,FHRS,0
252832,Romney Street,Knatts Valley,KENT,,Fox And Hounds,Pub/bar/nightclub,7843,,,580446,,,51.33068700000000,13/00090/MIXED/S,187,eh.support@dartford.gov.uk,Sevenoaks,http://www.sevenoaks.gov.uk/,0.22430500000000,TN15 6XR,2013-11-12,fhrs_3_en-GB,3,,FHRS,
252833,,,,,Fresh As A Daisy,Retailers - supermarkets/hypermarkets,7840,0,,267026,5,,,11/00091/FOOD,187,eh.support@dartford.gov.uk,Sevenoaks,http://www.sevenoaks.gov.uk/,,,2013-09-04,fhrs_5_en-GB,5,,FHRS,0
252834,,,,,Fresh Catering,Other catering premises,7841,10,,266989,0,,,11/00039/FOOD,187,eh.support@dartford.gov.uk,Sevenoaks,http://www.sevenoaks.gov.uk/,,,2014-01-27,fhrs_4_en-GB,4,,FHRS,10
252835,Furness School,Rowhill Road,Hextable,Swanley,Furness School,School/college/university,7845,10,,267064,0,,51.41457900000000,12380/2000/2/000,187,eh.support@dartford.gov.uk,Sevenoaks,http://www.sevenoaks.gov.uk/,0.18344700000000,BR8 7RP,2014-10-08,fhrs_4_en-GB,4,,FHRS,5
252836,High Street,Westerham,KENT,,General Wolfe Inn,Pub/bar/nightclub,7843,5,,611045,5,,51.26423900000000,13/00097/MIXED/S,187,eh.support@dartford.gov.uk,Sevenoaks,http://www.sevenoaks.gov.uk/,0.06413300000000,TN16 1RQ,2013-07-30,fhrs_5_en-GB,5,,FHRS,0
252837,George & Dragon,Market Square,Westerham,Kent,George & Dragon,Pub/bar/nightclub,7843,5,,266618,10,,51.26730900000000,03/00686/MIXED,187,eh.support@dartford.gov.uk,Sevenoaks,http://www.sevenoaks.gov.uk/,0.07103700000000,TN16 1AW,2013-08-22,fhrs_2_en-GB,2,,FHRS,15
252838,Morleys Road,Sevenoaks Weald,KENT,,Giacomos,Restaurant/Cafe/Canteen,1,10,,669006,15,,51.23724400000000,14/00063/MIXED/S,187,eh.support@dartford.gov.uk,Sevenoaks,http://www.sevenoaks.gov.uk/,0.19879300000000,TN14 6QR,2014-06-12,fhrs_2_en-GB,2,,FHRS,10
252839,3C Dorset Street,Sevenoaks,KENT,,Giggling Squid,Restaurant/Cafe/Canteen,1,5,,727555,10,,51.27091400000000,14/00119/MIXED/S,187,eh.support@dartford.gov.uk,Sevenoaks,http://www.sevenoaks.gov.uk/,0.19211300000000,TN13 1LL,2014-12-10,fhrs_4_en-GB,4,,FHRS,5
252840,1-2 Well Court,Bank Street,Sevenoaks,Kent,Ginseng,Restaurant/Cafe/Canteen,1,10,,266400,10,,51.27127900000000,00570/2000/2/000,187,eh.support@dartford.gov.uk,Sevenoaks,http://www.sevenoaks.gov.uk/,0.19184400000000,TN13 1UN,2013-08-20,fhrs_2_en-GB,2,,FHRS,15
252841,,,,,Glitter 'N' Ice,Manufacturers/packers,7839,5,,479201,15,,,12/00057/FOOD/S,187,eh.support@dartford.gov.uk,Sevenoaks,http://www.sevenoaks.gov.uk/,,,2012-10-31,fhrs_2_en-GB,2,,FHRS,5
252842,Gloucester House,Lansdowne Road,Sevenoaks,Kent,Gloucester House,Other catering premises,7841,0,,266808,5,,51.28385100000000,07970/0000/2/000,187,eh.support@dartford.gov.uk,Sevenoaks,http://www.sevenoaks.gov.uk/,0.20289700000000,TN13 3XU,2014-06-26,fhrs_5_en-GB,5,,FHRS,0
252843,Glovers Farm Shop,Hartley Bottom Road,Hartley,Longfield,Glovers Quality Meats,Retailers - other,4613,0,,266374,0,,51.37405300000000,00/00009/MIXED,187,eh.support@dartford.gov.uk,Sevenoaks,http://www.sevenoaks.gov.uk/,0.32433200000000,DA3 8LF,2013-10-29,fhrs_5_en-GB,5,,FHRS,0
252844,The Playbarn,Johnsons Farm,West Yoke,Ash,Go Bananas,Restaurant/Cafe/Canteen,1,5,,266802,5,,51.36632300000000,07/00061/MIXED,187,eh.support@dartford.gov.uk,Sevenoaks,http://www.sevenoaks.gov.uk/,0.29263600000000,TN15 7HT,2013-07-03,fhrs_5_en-GB,5,,FHRS,5
252845,Black Lion Inn,Ash Road,Hartley,KENT,Golden Dragon,Restaurant/Cafe/Canteen,1,10,,486864,10,,51.37891000000000,12/00065/MIXED/S,187,eh.support@dartford.gov.uk,Sevenoaks,http://www.sevenoaks.gov.uk/,0.30471800000000,DA3 8EX,2012-12-04,fhrs_3_en-GB,3,,FHRS,5
252846,Brands Hatch Circuit,Brands Hatch Road,Fawkham,Longfield,Grand Prix Terrace Fast Food Outlet,Other catering premises,7841,0,,266491,0,,51.35807200000000,03/00045/MIXED,187,eh.support@dartford.gov.uk,Sevenoaks,http://www.sevenoaks.gov.uk/,0.25581100000000,DA3 8NG,2014-02-25,fhrs_5_en-GB,5,,FHRS,0
252847,Grasshopper Inn,The Green,Westerham,Kent,Grasshopper On The Green,Pub/bar/nightclub,7843,10,,266597,10,,51.26730000000000,03/00653/MIXED,187,eh.support@dartford.gov.uk,Sevenoaks,http://www.sevenoaks.gov.uk/,0.07259900000000,TN16 1AS,2013-05-16,fhrs_3_en-GB,3,,FHRS,10
252848,,,,,Green Apron UK,Other catering premises,7841,5,,721997,0,,,14/00118/FOOD/S,187,eh.support@dartford.gov.uk,Sevenoaks,http://www.sevenoaks.gov.uk/,,,2014-12-03,fhrs_5_en-GB,5,,FHRS,0
252849,Club House,Green Court Road,Crockenhill,Swanley,Green Court Sports Club,Other catering premises,7841,5,,266643,0,,51.38538600000000,04/00174/MIXED,187,eh.support@dartford.gov.uk,Sevenoaks,http://www.sevenoaks.gov.uk/,0.16271200000000,BR8 8JG,2013-09-11,fhrs_5_en-GB,5,,FHRS,0
252850,Green Man,Hodsoll Street,Sevenoaks,Kent,Green Man,Pub/bar/nightclub,7843,10,,266780,10,,51.34272000000000,06910/2024/2/000,187,eh.support@dartford.gov.uk,Sevenoaks,http://www.sevenoaks.gov.uk/,0.33291300000000,TN15 7LE,2015-01-08,fhrs_4_en-GB,4,,FHRS,0
252851,27 High Street,Seal,Sevenoaks,Kent,H W Coldbreath,Retailers - other,4613,10,,266767,10,,51.28873300000000,06600/0027/0/000,187,eh.support@dartford.gov.uk,Sevenoaks,http://www.sevenoaks.gov.uk/,0.22105800000000,TN15 0AN,2013-12-03,fhrs_3_en-GB,3,,FHRS,10
252852,Brands Hatch Circuit,Brands Hatch Road,Fawkham,Longfield,Hailwoods,Restaurant/Cafe/Canteen,1,0,,266489,0,,51.35807200000000,03/00043/MIXED,187,eh.support@dartford.gov.uk,Sevenoaks,http://www.sevenoaks.gov.uk/,0.25581100000000,DA3 8NG,2014-02-25,fhrs_4_en-GB,4,,FHRS,10
252853,London Road,Sevenoaks,KENT,,Halfway House,Pub/bar/nightclub,7843,5,,479205,5,,51.27913000000000,12/00063/MIXED/S,187,eh.support@dartford.gov.uk,Sevenoaks,http://www.sevenoaks.gov.uk/,0.17739100000000,TN13 2JD,2014-06-25,fhrs_4_en-GB,4,,FHRS,10
252854,Otford Lane,Halstead,KENT,,Halstead County Primary School,School/college/university,7845,0,,594366,0,,51.32941700000000,13/00129/FOOD/S,187,eh.support@dartford.gov.uk,Sevenoaks,http://www.sevenoaks.gov.uk/,0.13603300000000,TN14 7EA,2013-10-11,fhrs_5_en-GB,5,,FHRS,0
252855,Hancocks,Knockholt Road,Halstead,Sevenoaks,Hancocks Newsagents,Retailers - other,4613,20,,266807,10,,51.32854700000000,07800/2041/2/000,187,eh.support@dartford.gov.uk,Sevenoaks,http://www.sevenoaks.gov.uk/,0.13392500000000,TN14 7EU,2014-01-17,fhrs_1_en-GB,1,,FHRS,5
252856,7 The Parade,Dynes Road,Kemsing,Sevenoaks,Happy Family Chinese Take Away,Other catering premises,7841,10,,266712,10,,51.30767800000000,05/00235/MIXED,187,eh.support@dartford.gov.uk,Sevenoaks,http://www.sevenoaks.gov.uk/,0.20936100000000,TN15 6RE,2013-10-01,fhrs_3_en-GB,3,,FHRS,5
252857,,,,,Happykin Kitchen,Manufacturers/packers,7839,0,,266971,0,,,11/00015/FOOD,187,eh.support@dartford.gov.uk,Sevenoaks,http://www.sevenoaks.gov.uk/,,,2011-01-10,fhrs_5_en-GB,5,,FHRS,0
252858,Hartley & District Social Club Ltd,Ash Road,Hartley,Longfield,Hartley & District Social Club Ltd,Pub/bar/nightclub,7843,0,,266499,0,,51.38546300000000,03/00145/MAIN,187,eh.support@dartford.gov.uk,Sevenoaks,http://www.sevenoaks.gov.uk/,0.30395500000000,DA3 8EH,2014-03-07,fhrs_5_en-GB,5,,FHRS,5
252859,Culvey Close,Hartley,KENT,,Hartley Country Club,Pub/bar/nightclub,7843,5,,266551,5,,51.38419400000000,03/00477/MAIN,187,eh.support@dartford.gov.uk,Sevenoaks,http://www.sevenoaks.gov.uk/,0.30353200000000,DA3 8BS,2015-01-08,fhrs_5_en-GB,5,,FHRS,0
252860,Hartley Cp School,Round Ash Way,Hartley,Longfield,"Hartley CP School, Total Catering Solutions Ltd",School/college/university,7845,0,,267063,0,,51.38340400000000,12310/0000/2/000,187,eh.support@dartford.gov.uk,Sevenoaks,http://www.sevenoaks.gov.uk/,0.30304700000000,DA3 8BT,2013-01-17,fhrs_5_en-GB,5,,FHRS,5
252861,Charton Manor,Gorse Hill,Farningham,Dartford,Hawthorne Trust Ltd,Other catering premises,7841,5,,266728,5,,51.37733700000000,05410/2007/2/000,187,eh.support@dartford.gov.uk,Sevenoaks,http://www.sevenoaks.gov.uk/,0.23365100000000,DA4 0JT,2014-08-13,fhrs_5_en-GB,5,,FHRS,5
252862,128 London Road,Dunton Green,Sevenoaks,Kent,Hei's,Other catering premises,7841,5,,266835,5,,51.29453600000000,08380/0128/0/000,187,eh.support@dartford.gov.uk,Sevenoaks,http://www.sevenoaks.gov.uk/,0.16668700000000,TN13 2UT,2013-04-25,fhrs_5_en-GB,5,,FHRS,5
252863,Henry Viii Inn,Hever Road,Hever,Edenbridge,Henry Viii,Pub/bar/nightclub,7843,5,,266923,5,,51.18349900000000,10/00042/FOOD,187,eh.support@dartford.gov.uk,Sevenoaks,http://www.sevenoaks.gov.uk/,0.11096400000000,TN8 7NH,2014-11-20,fhrs_4_en-GB,4,,FHRS,10
252864,43 High Street,Edenbridge,KENT,,Herongate Park Farm Produce,Other catering premises,7841,10,,619223,10,,51.19737900000000,13/00149/MIXED/S,187,eh.support@dartford.gov.uk,Sevenoaks,http://www.sevenoaks.gov.uk/,0.06493600000000,TN8 5AD,2013-11-29,fhrs_3_en-GB,3,,FHRS,10
252865,Hever Castle,Hever Castle,Hever,Edenbridge,Hever Astor Wing,Restaurant/Cafe/Canteen,1,5,,266707,5,,51.18722800000000,05/00211/SUB,187,eh.support@dartford.gov.uk,Sevenoaks,http://www.sevenoaks.gov.uk/,0.11363900000000,TN8 7NG,2014-03-20,fhrs_5_en-GB,5,,FHRS,5
252866,Hever C Of E Primary School,Hever Road,Hever,KENT,Hever C Of E Primary School,School/college/university,7845,0,,619221,0,,51.18349900000000,13/00147/FOOD/S,187,eh.support@dartford.gov.uk,Sevenoaks,http://www.sevenoaks.gov.uk/,0.11096400000000,TN8 7NH,2013-12-02,fhrs_5_en-GB,5,,FHRS,0
252867,Hever Castle Golf Club,Hever Road,Hever,Edenbridge,Hever Castle Golf Club And Shop,Other catering premises,7841,5,,266552,15,,51.19863700000000,03/00479/MAIN,187,eh.support@dartford.gov.uk,Sevenoaks,http://www.sevenoaks.gov.uk/,0.11331600000000,TN8 7NP,2014-07-30,fhrs_2_en-GB,2,,FHRS,10
252868,The Moat Restaurant,Hever Castle,Hever,Edenbridge,Hever Moat Restaurant,Restaurant/Cafe/Canteen,1,5,,266749,5,,51.18722800000000,06240/2018/2/000,187,eh.support@dartford.gov.uk,Sevenoaks,http://www.sevenoaks.gov.uk/,0.11363900000000,TN8 7NG,2013-03-27,fhrs_5_en-GB,5,,FHRS,5
252869,The Pavilion Restaurant,Hever Castle,Hever,Edenbridge,Hever Pavilion Restaurant,Restaurant/Cafe/Canteen,1,5,,714824,5,,51.18722800000000,05/00094/SUB,187,eh.support@dartford.gov.uk,Sevenoaks,http://www.sevenoaks.gov.uk/,0.11363900000000,TN8 7NG,2014-10-29,fhrs_5_en-GB,5,,FHRS,5
252870,26 Main Road,Hextable,Swanley,Kent,Hextable Food And Wine,Retailers - other,4613,10,,266665,10,,51.40919300000000,04/00336/MIXED,187,eh.support@dartford.gov.uk,Sevenoaks,http://www.sevenoaks.gov.uk/,0.18296100000000,BR8 7RB,2015-01-05,fhrs_3_en-GB,3,,FHRS,5
252871,St. Peters Church,College Road,Hextable,Swanley,Hextable Kindergarten,Hospitals/Childcare/Caring Premises,5,10,,266527,0,,51.41057900000000,03/00252/MAIN,187,eh.support@dartford.gov.uk,Sevenoaks,http://www.sevenoaks.gov.uk/,0.18048100000000,BR8 7RH,2012-02-08,fhrs_4_en-GB,4,,FHRS,5
252872,Hextable County Primary School,Rowhill Road,HEXTABLE,KENT,Hextable Primary School,School/college/university,7845,5,,267066,0,,51.41297600000000,12380/2014/2/000,187,eh.support@dartford.gov.uk,Sevenoaks,http://www.sevenoaks.gov.uk/,0.18164500000000,BR8 7RL,2014-06-18,fhrs_5_en-GB,5,,FHRS,5
252873,The Gallery,Crawfords,HEXTABLE,KENT,Hextable Village Pre School,Hospitals/Childcare/Caring Premises,5,10,,632245,10,,51.40932900000000,14/00011/FOOD/S,187,eh.support@dartford.gov.uk,Sevenoaks,http://www.sevenoaks.gov.uk/,0.17561900000000,BR8 7LT,2013-09-30,fhrs_3_en-GB,3,,FHRS,5
252874,High Firs County Primary School,Court Crescent,Swanley,KENT,High Firs Cp School,School/college/university,7845,5,,517575,0,,51.39188200000000,13/00029/FOOD/S,187,eh.support@dartford.gov.uk,Sevenoaks,http://www.sevenoaks.gov.uk/,0.17516500000000,BR8 8NR,2014-12-15,fhrs_5_en-GB,5,,FHRS,0
252875,High Street Post Office,13 High Street,Sevenoaks,Kent,High Street Post Office,Retailers - other,4613,,,266511,,,51.26661800000000,03/00199/MAIN,187,eh.support@dartford.gov.uk,Sevenoaks,http://www.sevenoaks.gov.uk/,0.19339900000000,TN13 1HZ,2011-03-30,fhrs_exempt_en-GB,Exempt,,FHRS,
252876,1 Blighs Walk,Sevenoaks,Kent,,Holland And Barrett,Retailers - other,4613,0,,266431,0,,51.27189800000000,01146/0001/0/000,187,eh.support@dartford.gov.uk,Sevenoaks,http://www.sevenoaks.gov.uk/,0.19191600000000,TN13 1DB,2013-02-04,fhrs_5_en-GB,5,,FHRS,5
252877,11 Swanley Centre,Swanley,Kent,,Holland And Barrett,Retailers - other,4613,0,,267083,0,,51.39628200000000,14440/0011/0/000,187,eh.support@dartford.gov.uk,Sevenoaks,http://www.sevenoaks.gov.uk/,0.17456800000000,BR8 7TG,2013-01-31,fhrs_5_en-GB,5,,FHRS,5
252878,Hollyville Cafe,London Road,West Kingsdown,Sevenoaks,Hollyville Cafe,Restaurant/Cafe/Canteen,1,5,,266573,15,,51.34901900000000,03/00621/MIXED,187,eh.support@dartford.gov.uk,Sevenoaks,http://www.sevenoaks.gov.uk/,0.25328300000000,TN15 6ET,2013-02-20,fhrs_2_en-GB,2,,FHRS,5
252879,Holmesdale Bowls,Worships Hill,Riverhead,Sevenoaks,Holmesdale Bowling Club,Pub/bar/nightclub,7843,10,,267098,5,,51.28244200000000,16830/2012/2/000,187,eh.support@dartford.gov.uk,Sevenoaks,http://www.sevenoaks.gov.uk/,0.16724100000000,,2012-08-20,fhrs_4_en-GB,4,,FHRS,0
252880,Holywell Park,Hodsoll Street,Sevenoaks,Kent,Holywell Park Residential Home,Hospitals/Childcare/Caring Premises,5,0,,266652,0,,51.34272000000000,04/00315/MIXED,187,eh.support@dartford.gov.uk,Sevenoaks,http://www.sevenoaks.gov.uk/,0.33291300000000,TN15 7LE,2015-01-08,fhrs_5_en-GB,5,,FHRS,5
252881,95 High Street,Edenbridge,Kent,,Hong Kong Diner,Other catering premises,7841,5,,266593,5,,51.19535100000000,03/00648/MIXED,187,eh.support@dartford.gov.uk,Sevenoaks,http://www.sevenoaks.gov.uk/,0.06566100000000,TN8 5AU,2013-12-06,fhrs_5_en-GB,5,,FHRS,5
252882,White Oak County Primary School,Hilda May Avenue,Swanley,KENT,Horizon County Primary School,School/college/university,7845,5,,704126,5,,51.40108300000000,14/00097/FOOD/S,187,eh.support@dartford.gov.uk,Sevenoaks,http://www.sevenoaks.gov.uk/,0.17170500000000,BR8 7BT,2014-09-18,fhrs_5_en-GB,5,,FHRS,5
252883,Horton Kirby C Of E Primary School,Horton Road,Horton Kirby,Dartford,Horton Kirby C Of E Primary School,School/college/university,7845,5,,266567,0,,51.39423500000000,03/00610/FOOD,187,eh.support@dartford.gov.uk,Sevenoaks,http://www.sevenoaks.gov.uk/,0.24400500000000,DA4 9BN,2014-03-12,fhrs_5_en-GB,5,,FHRS,5
252884,11A High Street,Otford,Sevenoaks,Kent,Hospice Of Hope Tea Rooms,Other catering premises,7841,0,,266428,0,,51.31284900000000,01/00041/MIXED,187,eh.support@dartford.gov.uk,Sevenoaks,http://www.sevenoaks.gov.uk/,0.18782600000000,TN14 5PG,2013-06-21,fhrs_5_en-GB,5,,FHRS,5
252885,Unit 14,Gaywood Farm,Hole Lane,Edenbridge,Hot Trotters,Other catering premises,7841,5,,687701,5,,51.21629200000000,14/00077/MIXED/S,187,eh.support@dartford.gov.uk,Sevenoaks,http://www.sevenoaks.gov.uk/,0.05365400000000,TN8 6SL,2014-06-30,fhrs_5_en-GB,5,,FHRS,5
252886,Argyle Road,Sevenoaks,Kent,,Ibbett Mosely Auction Rooms,Restaurant/Cafe/Canteen,1,10,,266942,0,,51.27221900000000,10/00073/MIXED,187,eh.support@dartford.gov.uk,Sevenoaks,http://www.sevenoaks.gov.uk/,0.18870600000000,TN13 1HJ,2013-10-16,fhrs_4_en-GB,4,,FHRS,0
252887,,,,,Ice As Nice,Mobile caterer,7846,0,,609644,0,,,13/00141/FOOD/S,187,eh.support@dartford.gov.uk,Sevenoaks,http://www.sevenoaks.gov.uk/,,,2013-11-19,fhrs_5_en-GB,5,,FHRS,0
252888,,,,,Ice Queen Bike,Retailers - other,4613,0,,679117,0,,,14/00067/MIXED/S,187,eh.support@dartford.gov.uk,Sevenoaks,http://www.sevenoaks.gov.uk/,,,2014-06-12,fhrs_5_en-GB,5,,FHRS,0
252889,25A Swanley Centre,London Road,Swanley,KENT,Iceland,Retailers - supermarkets/hypermarkets,7840,0,,582775,0,,51.39623600000000,13/00105/MIXED/S,187,eh.support@dartford.gov.uk,Sevenoaks,http://www.sevenoaks.gov.uk/,0.17462400000000,BR8 7TG,2013-08-28,fhrs_5_en-GB,5,,FHRS,0
252890,Ide Hill Village Hall,Ide Hill,KENT,,Ide Hill Community Shop,Retailers - other,4613,5,,267014,10,,51.24629800000000,11/00075/MIXED,187,eh.support@dartford.gov.uk,Sevenoaks,http://www.sevenoaks.gov.uk/,0.13083200000000,TN14 6JG,2014-09-01,fhrs_4_en-GB,4,,FHRS,5
252891,Ide Hill Village Hall,Ide Hill,Sevenoaks,Kent,Ide Hill Pre-School,Hospitals/Childcare/Caring Premises,5,10,,266969,10,,,11/00013/MIXED,187,eh.support@dartford.gov.uk,Sevenoaks,http://www.sevenoaks.gov.uk/,,,2014-02-04,fhrs_3_en-GB,3,,FHRS,5
252892,Ide Hill Primary School,Ide Hill School,Sundridge Road,Ide Hill,Ide Hill School,School/college/university,7845,5,,622526,0,,51.24719600000000,12/00052/FOOD/S,187,eh.support@dartford.gov.uk,Sevenoaks,http://www.sevenoaks.gov.uk/,0.12644600000000,TN14 6JT,2013-12-10,fhrs_5_en-GB,5,,FHRS,5
252893,42 High Street,Edenbridge,Kent,,Istanbul Kebab Kent Ltd,Takeaway/sandwich shop,7844,5,,266755,10,,51.19722600000000,06480/0042/0/000,187,eh.support@dartford.gov.uk,Sevenoaks,http://www.sevenoaks.gov.uk/,0.06441400000000,TN8 5AJ,2014-11-11,fhrs_4_en-GB,4,,FHRS,5
252894,1 Heathwood Parade,London Road,Swanley,KENT,J S News,Retailers - supermarkets/hypermarkets,7840,10,,504336,10,,51.40315200000000,13/00009/MIXED/S,187,eh.support@dartford.gov.uk,Sevenoaks,http://www.sevenoaks.gov.uk/,0.16196900000000,BR8 7HB,2013-01-11,fhrs_3_en-GB,3,,FHRS,5
252895,Southern Side Lay By West Of Juncti,Swanley Bypass,Swanley,KENT,Jacks Diner,Other catering premises,7841,10,,504331,15,,,13/00003/MIXED/S,187,eh.support@dartford.gov.uk,Sevenoaks,http://www.sevenoaks.gov.uk/,,,2014-01-30,fhrs_2_en-GB,2,,FHRS,10
252896,,,,,Jayneycakes,Mobile caterer,7846,5,,267018,5,,,11/00082/FOOD,187,eh.support@dartford.gov.uk,Sevenoaks,http://www.sevenoaks.gov.uk/,,,2014-08-12,fhrs_4_en-GB,4,,FHRS,10
252897,67-73 St. Johns Hill,Sevenoaks,Kent,,Jet Service Station,Retailers - other,4613,5,,266611,10,,51.28545100000000,03/00675/MIXED,187,eh.support@dartford.gov.uk,Sevenoaks,http://www.sevenoaks.gov.uk/,0.19528600000000,TN13 3NY,2013-11-25,fhrs_4_en-GB,4,,FHRS,5
252898,93 St. Johns Hill,Sevenoaks,Kent,,Jolley Fish And Chips,Other catering premises,7841,5,,267074,5,,51.28737500000000,13770/0093/0/000,187,eh.support@dartford.gov.uk,Sevenoaks,http://www.sevenoaks.gov.uk/,0.19480400000000,TN13 3PE,2013-04-15,fhrs_4_en-GB,4,,FHRS,10
252899,,,,,Julia Canning,Other catering premises,7841,5,,708525,5,,,14/00102/FOOD/S,187,eh.support@dartford.gov.uk,Sevenoaks,http://www.sevenoaks.gov.uk/,,,2014-09-04,fhrs_5_en-GB,5,,FHRS,5
252900,Knockholt Village Centre,Main Road,Knockholt,KENT,Junior Junction Club,Hospitals/Childcare/Caring Premises,5,5,,714826,10,,51.31283100000000,14/00104/MIXED/S,187,eh.support@dartford.gov.uk,Sevenoaks,http://www.sevenoaks.gov.uk/,0.11686600000000,TN14 7LG,2014-10-28,fhrs_4_en-GB,4,,FHRS,5
252901,,,,,Karl's Country Kitchen,Other catering premises,7841,5,,619227,0,,,13/00153/FOOD/S,187,eh.support@dartford.gov.uk,Sevenoaks,http://www.sevenoaks.gov.uk/,,,2013-12-03,fhrs_5_en-GB,5,,FHRS,0
252902,2 The Parade,Dynes Road,Kemsing,Sevenoaks,Kemsing Fish Bar,Takeaway/sandwich shop,7844,10,,266913,10,,51.30767800000000,10/00021/MIXED,187,eh.support@dartford.gov.uk,Sevenoaks,http://www.sevenoaks.gov.uk/,0.20936100000000,TN15 6RE,2014-03-24,fhrs_3_en-GB,3,,FHRS,10
252903,Kemsing Post Office,1 St. Edith's Road,Kemsing,Sevenoaks,Kemsing Post Office,Retailers - other,4613,0,,266441,0,,51.30513600000000,02/00022/MIXED,187,eh.support@dartford.gov.uk,Sevenoaks,http://www.sevenoaks.gov.uk/,0.22911000000000,TN15 6PT,2012-06-11,fhrs_4_en-GB,4,,FHRS,10
252904,Kemsing County Primary School,High Street,Kemsing,KENT,Kemsing Primary School,School/college/university,7845,5,,504340,5,,51.30706100000000,13/00014/FOOD/S,187,eh.support@dartford.gov.uk,Sevenoaks,http://www.sevenoaks.gov.uk/,0.22908800000000,TN15 6PU,2015-01-28,fhrs_5_en-GB,5,,FHRS,5
252905,Crouch House Road,Edenbridge,KENT,,Kent And Surrey Golf And Country Club,Restaurant/Cafe/Canteen,1,20,,464178,15,,51.20184300000000,12/00055/MIXED/S,187,eh.support@dartford.gov.uk,Sevenoaks,http://www.sevenoaks.gov.uk/,0.05295400000000,TN8 5LQ,2014-06-09,fhrs_1_en-GB,1,,FHRS,15
252906,Brands Hatch Circuit,Brands Hatch Road,Fawkham,Longfield,Kentagon,Restaurant/Cafe/Canteen,1,0,,266490,0,,51.35807200000000,03/00044/MIXED,187,eh.support@dartford.gov.uk,Sevenoaks,http://www.sevenoaks.gov.uk/,0.25581100000000,DA3 8NG,2014-02-25,fhrs_4_en-GB,4,,FHRS,10
252907,Cow Lane,Mark Beech,KENT,,Kentish Horse,Pub/bar/nightclub,7843,10,,700562,10,,51.16512800000000,14/00060/MIXED/S,187,eh.support@dartford.gov.uk,Sevenoaks,http://www.sevenoaks.gov.uk/,0.10883800000000,TN8 5NT,2014-09-11,fhrs_3_en-GB,3,,FHRS,10
252908,52 Swanley Centre,London Road,Swanley,KENT,KFC,Other catering premises,7841,0,,407055,0,,51.39675500000000,12/00023/FOOD/S,187,eh.support@dartford.gov.uk,Sevenoaks,http://www.sevenoaks.gov.uk/,0.17378600000000,BR8 7TQ,2013-12-02,fhrs_5_en-GB,5,,FHRS,0
252909,Walters Green Farm,Walters Green Road,Penshurst,Tonbridge,Kieron's Game,Retailers - other,4613,5,,266910,5,,51.14727000000000,10/00014/MIXED,187,eh.support@dartford.gov.uk,Sevenoaks,http://www.sevenoaks.gov.uk/,0.16187000000000,TN11 8HE,2012-03-20,fhrs_5_en-GB,5,,FHRS,5
252910,Kings Arms,Church Street,Shoreham,Sevenoaks,Kings Arms,Pub/bar/nightclub,7843,10,,266482,10,,51.33330000000000,02930/2000/2/000,187,eh.support@dartford.gov.uk,Sevenoaks,http://www.sevenoaks.gov.uk/,0.18008600000000,TN14 7SJ,2013-07-30,fhrs_3_en-GB,3,,FHRS,10
252911,Kings Arms Hotel,Market Square,Westerham,Kent,Kings Arms Hotel,Other catering premises,7841,,,267100,,,51.26693200000000,9200/2003/2/000,187,eh.support@dartford.gov.uk,Sevenoaks,http://www.sevenoaks.gov.uk/,0.07153600000000,TN16 1AN,2014-09-05,fhrs_5_en-GB,5,,FHRS,
252912,34 Hever Road,West Kingsdown,Sevenoaks,Kent,Kings Garden,Other catering premises,7841,5,,266418,5,,51.35052400000000,01/00027/MIXED,187,eh.support@dartford.gov.uk,Sevenoaks,http://www.sevenoaks.gov.uk/,0.25684700000000,TN15 6HD,2013-05-15,fhrs_4_en-GB,4,,FHRS,10
252913,Kippington Grange,Grange Road,Sevenoaks,Kent,Kippington Nursing Home,Other catering premises,7841,0,,266729,0,,51.26347000000000,05500/2000/2/000,187,eh.support@dartford.gov.uk,Sevenoaks,http://www.sevenoaks.gov.uk/,0.18142400000000,TN13 2PG,2014-04-24,fhrs_4_en-GB,4,,FHRS,10
252914,Kirkys Cafe,Unit 23,Heaver Trading Estate,Ash Road,Kirky's Cafe,Restaurant/Cafe/Canteen,1,10,,266964,5,,51.36074800000000,11/00006/MIXED,187,eh.support@dartford.gov.uk,Sevenoaks,http://www.sevenoaks.gov.uk/,0.29395200000000,TN15 7HJ,2014-03-13,fhrs_3_en-GB,3,,FHRS,10
252915,,,,,Knightingales,Other catering premises,7841,10,,585867,5,,,13/00116/FOOD/S,187,eh.support@dartford.gov.uk,Sevenoaks,http://www.sevenoaks.gov.uk/,,,2013-09-19,fhrs_4_en-GB,4,,FHRS,0
252916,Knockholt Village Stores,Main Road,Knockholt,Sevenoaks,Knockholt Village Stores,Retailers - other,4613,0,,266856,5,,51.31566900000000,08940/2155/2/000,187,eh.support@dartford.gov.uk,Sevenoaks,http://www.sevenoaks.gov.uk/,0.12355500000000,TN14 7LD,2013-05-22,fhrs_5_en-GB,5,,FHRS,5
252917,Bradbourne School,Bradbourne Vale Road,Sevenoaks,Kent,Knole Academy,School/college/university,7845,0,,266435,0,,51.28713200000000,01420/2010/2/000,187,eh.support@dartford.gov.uk,Sevenoaks,http://www.sevenoaks.gov.uk/,0.18375000000000,TN13 3LE,2014-09-09,fhrs_5_en-GB,5,,FHRS,5
252918,Knole Academy West,Bradbourne Vale Road,Sevenoaks,KENT,Knole Academy 6th Form Servery,School/college/university,7845,0,,708523,0,,51.28713200000000,14/00100/FOOD/S,187,eh.support@dartford.gov.uk,Sevenoaks,http://www.sevenoaks.gov.uk/,0.18375000000000,TN13 3LE,2014-09-09,fhrs_5_en-GB,5,,FHRS,5
252919,Knole House,Knole Lane,Sevenoaks,KENT,Knole House Brewhouse Tea Rooms,Restaurant/Cafe/Canteen,1,0,,622528,0,,51.26407100000000,13/00120/MIXED/S,187,eh.support@dartford.gov.uk,Sevenoaks,http://www.sevenoaks.gov.uk/,0.21116800000000,TN15 0RP,2013-12-13,fhrs_5_en-GB,5,,FHRS,0
252920,Knole Park Golf Club,Seal Hollow Road,Sevenoaks,Kent,Knole Park Golf Club,Restaurant/Cafe/Canteen,1,0,,266516,5,,51.27600000000000,03/00216/MAIN,187,eh.support@dartford.gov.uk,Sevenoaks,http://www.sevenoaks.gov.uk/,0.20289400000000,TN15 0HJ,2013-01-03,fhrs_5_en-GB,5,,FHRS,0
252921,17 High Street,Westerham,KENT,,L A Larratts Butchers/Greengrocer,Retailers - other,4613,5,,733482,5,,51.26668300000000,14/00126/MIXED/S,187,eh.support@dartford.gov.uk,Sevenoaks,http://www.sevenoaks.gov.uk/,0.06981800000000,TN16 1RA,2014-12-31,fhrs_4_en-GB,4,,FHRS,10
252922,25 High Street,Edenbridge,Kent,,La Botte,Restaurant/Cafe/Canteen,1,5,,266883,10,,51.19831700000000,09/00059/MIXED,187,eh.support@dartford.gov.uk,Sevenoaks,http://www.sevenoaks.gov.uk/,0.06477700000000,TN8 5AB,2014-05-30,fhrs_3_en-GB,3,,FHRS,10
252923,Lady Boswell Church Of England Scho,Lady Boswells C Of E Primary School,Plymouth Drive,Sevenoaks,Lady Boswell Church Of England School,School/college/university,7845,5,,510335,0,,51.27413100000000,13/00018/FOOD/S,187,eh.support@dartford.gov.uk,Sevenoaks,http://www.sevenoaks.gov.uk/,0.19706900000000,TN13 3RP,2015-01-30,fhrs_5_en-GB,5,,FHRS,5
252924,Lazzat Indian Cuisine,Gravesend Road,Wrotham,Sevenoaks,Lazzat,Restaurant/Cafe/Canteen,1,10,,486866,10,,51.33308800000000,12/00067/MIXED/S,187,eh.support@dartford.gov.uk,Sevenoaks,http://www.sevenoaks.gov.uk/,0.34327700000000,TN15 7JS,2014-06-24,fhrs_3_en-GB,3,,FHRS,10
252925,6 East Hill,South Darenth,Dartford,Kent,Leeraj Convenience Store,Retailers - other,4613,10,,266385,0,,51.40306700000000,00/00047/MIXED,187,eh.support@dartford.gov.uk,Sevenoaks,http://www.sevenoaks.gov.uk/,0.24866400000000,DA4 9AN,2013-03-21,fhrs_4_en-GB,4,,FHRS,10
252926,The Green,Leigh,KENT,,Leigh County Primary School,School/college/university,7845,0,,627763,5,,51.19587700000000,14/00007/FOOD/S,187,eh.support@dartford.gov.uk,Sevenoaks,http://www.sevenoaks.gov.uk/,0.21584500000000,TN11 8QP,2014-01-24,fhrs_5_en-GB,5,,FHRS,5
252927,Park View,High Street,Leigh,Tonbridge,Leigh Post Office,Retailers - other,4613,10,,266763,10,,51.19586700000000,06540/2017/2/000,187,eh.support@dartford.gov.uk,Sevenoaks,http://www.sevenoaks.gov.uk/,0.21255200000000,TN11 8RL,2014-09-01,fhrs_3_en-GB,3,,FHRS,5
252928,,,,,Let Them Eat Cakes,Mobile caterer,7846,5,,266934,5,,,10/00060/FOOD,187,eh.support@dartford.gov.uk,Sevenoaks,http://www.sevenoaks.gov.uk/,,,2013-07-05,fhrs_5_en-GB,5,,FHRS,5
252929,80 London Road,Sevenoaks,KENT,,Lidl,Retailers - supermarkets/hypermarkets,7840,0,,619226,0,,51.27913000000000,13/00152/MIXED/S,187,eh.support@dartford.gov.uk,Sevenoaks,http://www.sevenoaks.gov.uk/,0.17739100000000,TN13 2JD,2013-11-27,fhrs_5_en-GB,5,,FHRS,0
252930,The Little Brown Jug,Tonbridge Road,Chiddingstone Causeway,Kent,Little Brown Jug,Pub/bar/nightclub,7843,10,,266541,10,,51.19752400000000,03/00363/MAIN,187,eh.support@dartford.gov.uk,Sevenoaks,http://www.sevenoaks.gov.uk/,0.17311100000000,TN11 8JJ,2015-01-12,fhrs_3_en-GB,3,,FHRS,5
252931,,,,,Little Meadows,Mobile caterer,7846,0,,429626,0,,,12/00025/FOOD/S,187,eh.support@dartford.gov.uk,Sevenoaks,http://www.sevenoaks.gov.uk/,,,2012-07-04,fhrs_5_en-GB,5,,FHRS,0
252932,Shell Garage,London Road,Sevenoaks,KENT,Little Waitrose,Retailers - supermarkets/hypermarkets,7840,0,,687700,0,,51.27643200000000,14/00076/MIXED/S,187,eh.support@dartford.gov.uk,Sevenoaks,http://www.sevenoaks.gov.uk/,0.18368700000000,TN13 1DH,2014-07-02,fhrs_5_en-GB,5,,FHRS,0
252933,36 Hever Road,West Kingsdown,Sevenoaks,Kent,Lloyds Chemist,Retailers - other,4613,,,266751,,,51.35052400000000,06350/0036/0/000,187,eh.support@dartford.gov.uk,Sevenoaks,http://www.sevenoaks.gov.uk/,0.25684700000000,TN15 6HD,2012-03-13,fhrs_exempt_en-GB,Exempt,,FHRS,
252934,63-65 High Street,Sevenoaks,Kent,,Loch Fyne Restaurants,Restaurant/Cafe/Canteen,1,0,,266444,0,,51.26949700000000,02/00176/MIXED,187,eh.support@dartford.gov.uk,Sevenoaks,http://www.sevenoaks.gov.uk/,0.19289100000000,TN13 1JY,2015-02-06,fhrs_5_en-GB,5,,FHRS,5
252935,3 - 6 White Hart Parade,London Road,Riverhead,KENT,Londis,Retailers - supermarkets/hypermarkets,7840,10,,445120,15,,51.28436300000000,12/00035/MIXED/S,187,eh.support@dartford.gov.uk,Sevenoaks,http://www.sevenoaks.gov.uk/,0.16967900000000,TN13 2BJ,2012-08-15,fhrs_2_en-GB,2,,FHRS,0
252936,37 Azalea Drive,Swanley,KENT,,Londis,Retailers - supermarkets/hypermarkets,7840,20,,267038,5,,51.39309300000000,11/00107/MIXED,187,eh.support@dartford.gov.uk,Sevenoaks,http://www.sevenoaks.gov.uk/,0.16999000000000,BR8 8HS,2015-01-05,fhrs_1_en-GB,1,,FHRS,0
252937,Supermarket,Farmstead Drive,Edenbridge,Kent,Londis,Retailers - other,4613,10,,266398,5,,51.20523100000000,004700/2001/2/000,187,eh.support@dartford.gov.uk,Sevenoaks,http://www.sevenoaks.gov.uk/,0.06690500000000,TN8 6DX,2014-02-07,fhrs_3_en-GB,3,,FHRS,10
252938,Longacre,28 Pilgrims Way East,Otford,Sevenoaks,Longacre Day Nursery,Hospitals/Childcare/Caring Premises,5,0,,266525,0,,51.31248700000000,03/00244/MIXED,187,eh.support@dartford.gov.uk,Sevenoaks,http://www.sevenoaks.gov.uk/,0.20280400000000,TN14 5QN,2014-03-20,fhrs_5_en-GB,5,,FHRS,5
252939,33 High Street,Edenbridge,KENT,,Longhouse Malaysian Fusion Restaurant,Restaurant/Cafe/Canteen,1,0,,510338,5,,51.19737900000000,13/00023/MIXED/S,187,eh.support@dartford.gov.uk,Sevenoaks,http://www.sevenoaks.gov.uk/,0.06493600000000,TN8 5AD,2015-01-29,fhrs_5_en-GB,5,,FHRS,5
252940,Lullingstone Castle,2 High Street,Swanley,Kent,Lullingstone Castle,Pub/bar/nightclub,7843,0,,266774,0,,51.39523600000000,06640/0002/0/000,187,eh.support@dartford.gov.uk,Sevenoaks,http://www.sevenoaks.gov.uk/,0.17715000000000,BR8 8BE,2014-05-22,fhrs_5_en-GB,5,,FHRS,5
252941,Roman Villa,Lullingstone Park,Eynsford,Dartford,Lullingstone Roman Villa,Restaurant/Cafe/Canteen,1,0,,266698,0,,51.36072300000000,05/00090/MIXED,187,eh.support@dartford.gov.uk,Sevenoaks,http://www.sevenoaks.gov.uk/,0.19533600000000,DA4 0JA,2013-06-26,fhrs_5_en-GB,5,,FHRS,0
252942,9 The Row,New Ash Green,Longfield,Kent,Lyns Breakfast Bar,Restaurant/Cafe/Canteen,1,0,,266785,0,,51.36601900000000,07/00018/MIXED,187,eh.support@dartford.gov.uk,Sevenoaks,http://www.sevenoaks.gov.uk/,0.30491800000000,DA3 8JB,2013-06-27,fhrs_5_en-GB,5,,FHRS,5
252943,,,,,M K Catering,Other catering premises,7841,0,,609516,0,,,13/00137/FOOD/S,187,eh.support@dartford.gov.uk,Sevenoaks,http://www.sevenoaks.gov.uk/,,,2013-11-12,fhrs_5_en-GB,5,,FHRS,0
252944,122 London Road,Dunton Green,Sevenoaks,Kent,Macs Convenience Store,Retailers - supermarkets/hypermarkets,7840,0,,266543,0,,51.29453600000000,03/00382/MAIN,187,eh.support@dartford.gov.uk,Sevenoaks,http://www.sevenoaks.gov.uk/,0.16668700000000,TN13 2UT,2013-02-11,fhrs_5_en-GB,5,,FHRS,5
252945,59 High Street,Edenbridge,KENT,,Magic Wok,Other catering premises,7841,5,,266978,5,,51.19673600000000,11/00025/MIXED,187,eh.support@dartford.gov.uk,Sevenoaks,http://www.sevenoaks.gov.uk/,0.06517900000000,TN8 5AL,2014-12-04,fhrs_5_en-GB,5,,FHRS,5
252946,7 Station Road,Swanley,Kent,,Magic Wok,Other catering premises,7841,,,267082,,,51.39490100000000,14150/0007/0/000,187,eh.support@dartford.gov.uk,Sevenoaks,http://www.sevenoaks.gov.uk/,0.17579700000000,BR8 8ES,2014-11-20,fhrs_5_en-GB,5,,FHRS,
252947,Majestic Wines,London Road,Riverhead,Sevenoaks,Majestic Wine Warehouse Ltd,Retailers - other,4613,0,,266889,0,,51.28889700000000,09/00066/MIXED,187,eh.support@dartford.gov.uk,Sevenoaks,http://www.sevenoaks.gov.uk/,0.16914700000000,TN13 2DN,2012-11-15,fhrs_5_en-GB,5,,FHRS,0
252948,81 High Street,Sevenoaks,KENT,,Malabar Coffee House,Restaurant/Cafe/Canteen,1,5,,266985,0,,51.27046300000000,11/00034/FOOD,187,eh.support@dartford.gov.uk,Sevenoaks,http://www.sevenoaks.gov.uk/,0.19265100000000,TN13 1LE,2015-02-05,fhrs_5_en-GB,5,,FHRS,5
252949,Malt Shovel,Station Road,Eynsford,Dartford,Malt Shovel,Pub/bar/nightclub,7843,5,,267080,10,,51.36566500000000,14090/2048/2/000,187,eh.support@dartford.gov.uk,Sevenoaks,http://www.sevenoaks.gov.uk/,0.20752500000000,DA4 0ER,2014-06-30,fhrs_4_en-GB,4,,FHRS,5
252950,Gardiner Business Park,Little Browns Lane,Edenbridge,KENT,Manic Monsters Limited Play Centre,Restaurant/Cafe/Canteen,1,5,,266736,10,,51.20932200000000,06/00036/MIXED,187,eh.support@dartford.gov.uk,Sevenoaks,http://www.sevenoaks.gov.uk/,0.04133100000000,TN8 6LH,2014-01-31,fhrs_4_en-GB,4,,FHRS,0
252951,Forge Lane,West Kingsdown,KENT,,Manordene,Other catering premises,7841,5,,563965,0,,51.34040500000000,13/00067/FOOD/S,187,eh.support@dartford.gov.uk,Sevenoaks,http://www.sevenoaks.gov.uk/,0.26997600000000,TN15 6JD,2015-01-20,fhrs_5_en-GB,5,,FHRS,5
252952,18 High Street,Edenbridge,Kent,,Marinos Fish Bar,Other catering premises,7841,5,,266863,5,,51.19864400000000,09/00011/MIXED,187,eh.support@dartford.gov.uk,Sevenoaks,http://www.sevenoaks.gov.uk/,0.06404800000000,TN8 5AG,2014-08-12,fhrs_5_en-GB,5,,FHRS,5
252953,66 London Road,Sevenoaks,KENT,,Marks And Spencer,Retailers - supermarkets/hypermarkets,7840,5,,718260,5,,51.27244200000000,14/00109/MIXED/S,187,eh.support@dartford.gov.uk,Sevenoaks,http://www.sevenoaks.gov.uk/,0.19070900000000,TN13 1AT,2014-11-17,fhrs_5_en-GB,5,,FHRS,0
252954,103A London Road,Sevenoaks,Kent,,Marmaris Kebab House,Other catering premises,7841,10,,266844,15,,51.27440600000000,08520/0103/A/000,187,eh.support@dartford.gov.uk,Sevenoaks,http://www.sevenoaks.gov.uk/,0.18764800000000,TN13 1BH,2013-10-30,fhrs_2_en-GB,2,,FHRS,10
252955,Martin McColl Ltd,19 - 21 The Row,New Ash Green,KENT,Martins Newsagents And Post Office,Retailers - other,4613,0,,266536,0,,51.36601900000000,03/00310/MIXED,187,eh.support@dartford.gov.uk,Sevenoaks,http://www.sevenoaks.gov.uk/,0.30491800000000,DA3 8JB,2014-02-21,fhrs_4_en-GB,4,,FHRS,10
252956,Lay-by East Of Shoreham Railway Sta,Shoreham Road,Shoreham,KENT,Matt's Diner,Other catering premises,7841,5,,510336,10,,,13/00019/MIXED/S,187,eh.support@dartford.gov.uk,Sevenoaks,http://www.sevenoaks.gov.uk/,,,2014-07-21,fhrs_4_en-GB,4,,FHRS,5
252957,Hever Road Post Office,28 Hever Road,West Kingsdown,Sevenoaks,McColl's,Retailers - other,4613,10,,266791,15,,51.35052400000000,07/00038/MIXED,187,eh.support@dartford.gov.uk,Sevenoaks,http://www.sevenoaks.gov.uk/,0.25684700000000,TN15 6HD,2014-04-07,fhrs_2_en-GB,2,,FHRS,5
252958,Hextable Post Office,2 Home Hill,Hextable,Swanley,McColls Store,Retailers - other,4613,5,,266733,5,,51.41220100000000,06/00020/MIXED,187,eh.support@dartford.gov.uk,Sevenoaks,http://www.sevenoaks.gov.uk/,0.18366500000000,BR8 7RR,2014-02-13,fhrs_5_en-GB,5,,FHRS,5
252959,Mcdonalds Restaurant,Old Otford Road,Sevenoaks,Kent,Mcdonalds Restaurant,Restaurant/Cafe/Canteen,1,0,,266959,0,,,10580/9001/2/000,187,eh.support@dartford.gov.uk,Sevenoaks,http://www.sevenoaks.gov.uk/,,,2014-02-04,fhrs_5_en-GB,5,,FHRS,5
252960,27-37 High Street,Swanley,Kent,,"Meeting Point Day Centre, Rural Age Concern",Hospitals/Childcare/Caring Premises,5,10,,266529,10,,51.39524600000000,03/00258/MAIN,187,eh.support@dartford.gov.uk,Sevenoaks,http://www.sevenoaks.gov.uk/,0.17804100000000,BR8 8AE,2014-02-26,fhrs_3_en-GB,3,,FHRS,10
252961,Ash Road,Ash,KENT,,Milestone School,School/college/university,7845,0,,267043,5,,51.37263600000000,11/00116/FOOD,187,eh.support@dartford.gov.uk,Sevenoaks,http://www.sevenoaks.gov.uk/,0.30548000000000,DA3 8JZ,2013-11-20,fhrs_5_en-GB,5,,FHRS,5
252962,New Ash Green County Primary School,New Ash Green County Primary School,Church Road,New Ash Green,Molly's Pre School,Other catering premises,7841,0,,637498,0,,51.36787600000000,14/00027/FOOD/S,187,eh.support@dartford.gov.uk,Sevenoaks,http://www.sevenoaks.gov.uk/,0.30604600000000,DA3 8JT,2014-03-18,fhrs_5_en-GB,5,,FHRS,0
252963,41 Chipstead Lane,Sevenoaks,Kent,,Monique's Day Nursery And Montessori Pre-School,Hospitals/Childcare/Caring Premises,5,5,,266408,0,,51.28345200000000,01/00010/FOOD,187,eh.support@dartford.gov.uk,Sevenoaks,http://www.sevenoaks.gov.uk/,0.16110300000000,TN13 2AJ,2015-02-05,fhrs_5_en-GB,5,,FHRS,5
252964,6 London Road,Westerham,Kent,,Montien Thai,Restaurant/Cafe/Canteen,1,5,,266598,10,,51.26799600000000,03/00655/MIXED,187,eh.support@dartford.gov.uk,Sevenoaks,http://www.sevenoaks.gov.uk/,0.07188500000000,TN16 1BD,2014-06-26,fhrs_3_en-GB,3,,FHRS,10
252965,65 London Road,Sevenoaks,Kent,,Montien Thai,Restaurant/Cafe/Canteen,1,5,,266587,5,,51.27174500000000,03/00640/MIXED,187,eh.support@dartford.gov.uk,Sevenoaks,http://www.sevenoaks.gov.uk/,0.19050400000000,TN13 1AU,2014-05-23,fhrs_4_en-GB,4,,FHRS,10
252966,Manic Monsters Ltd,Units 1-4,Gardiner Business Park,Little Browns Lane,Monty's Day Care Nursery,Hospitals/Childcare/Caring Premises,5,5,,266965,10,,51.20979000000000,11/00007/MIXED,187,eh.support@dartford.gov.uk,Sevenoaks,http://www.sevenoaks.gov.uk/,0.04026400000000,TN8 6LH,2014-01-31,fhrs_4_en-GB,4,,FHRS,0
252967,,,,,Morwenna's,Other catering premises,7841,0,,266456,10,,,02/00281/FOOD,187,eh.support@dartford.gov.uk,Sevenoaks,http://www.sevenoaks.gov.uk/,,,2013-04-08,fhrs_4_en-GB,4,,FHRS,0
252968,Motorsport Vision Ltd,Unit 2,Brands Hatch Circuit,Brands Hatch Road,Motor Sport Vision Centre,Other catering premises,7841,0,,266381,0,,51.35807200000000,00/00023/MIXED,187,eh.support@dartford.gov.uk,Sevenoaks,http://www.sevenoaks.gov.uk/,0.25581100000000,DA3 8NG,2014-02-18,fhrs_5_en-GB,5,,FHRS,5
252969,34 Swanley Centre,Swanley,Kent,,Motties,Restaurant/Cafe/Canteen,1,10,,266678,15,,51.39629500000000,04/00355/MIXED,187,eh.support@dartford.gov.uk,Sevenoaks,http://www.sevenoaks.gov.uk/,0.17385000000000,BR8 7TL,2014-08-07,fhrs_2_en-GB,2,,FHRS,10
252970,,,,,Mrs Blueberry,Other catering premises,7841,0,,647168,0,,,14/00038/FOOD/S,187,eh.support@dartford.gov.uk,Sevenoaks,http://www.sevenoaks.gov.uk/,,,2014-03-27,fhrs_5_en-GB,5,,FHRS,0
252971,,,,,"Mrs M Broome, Jams And Chutneys",Manufacturers/packers,7839,5,,396731,0,,,12/00022/FOOD/S,187,eh.support@dartford.gov.uk,Sevenoaks,http://www.sevenoaks.gov.uk/,,,2014-11-17,fhrs_5_en-GB,5,,FHRS,0
252972,,,,,Mrs Tea,Other catering premises,7841,10,,718259,0,,,14/00108/FOOD/S,187,eh.support@dartford.gov.uk,Sevenoaks,http://www.sevenoaks.gov.uk/,,,2014-11-10,fhrs_4_en-GB,4,,FHRS,0
252973,,,,,N & J Fudge,Retailers - other,4613,0,,266994,0,,,11/00046/FOOD,187,eh.support@dartford.gov.uk,Sevenoaks,http://www.sevenoaks.gov.uk/,,,2011-05-25,fhrs_5_en-GB,5,,FHRS,0
252974,18B Market Square,Westerham,Kent,,Napoli E,Restaurant/Cafe/Canteen,1,5,,266896,5,,51.26725800000000,09200/0018/B/000,187,eh.support@dartford.gov.uk,Sevenoaks,http://www.sevenoaks.gov.uk/,0.07037500000000,TN16 1AR,2014-03-25,fhrs_5_en-GB,5,,FHRS,5
252975,4 The Link,New Ash Green,Longfield,Kent,New Ash Green Kebab And Pizza,Other catering premises,7841,,,266613,,,51.36602300000000,03/00677/MIXED,187,eh.support@dartford.gov.uk,Sevenoaks,http://www.sevenoaks.gov.uk/,0.30425700000000,DA3 8HG,2014-09-16,fhrs_3_en-GB,3,,FHRS,
252976,New Ash Green County Primary School,New Ash Green County Primary School,Church Road,New Ash Green,New Ash Green Primary School,School/college/university,7845,0,,504334,0,,51.36787600000000,13/00006/FOOD/S,187,eh.support@dartford.gov.uk,Sevenoaks,http://www.sevenoaks.gov.uk/,0.30604600000000,DA3 8JT,2013-01-11,fhrs_5_en-GB,5,,FHRS,5
252977,24 The Row,New Ash Green,Longfield,Kent,New Ash Green Tandoori,Takeaway/sandwich shop,7844,10,,266927,10,,51.36601900000000,10/00051/MIXED,187,eh.support@dartford.gov.uk,Sevenoaks,http://www.sevenoaks.gov.uk/,0.30491800000000,DA3 8JB,2014-09-23,fhrs_3_en-GB,3,,FHRS,10
252978,New Beacon School,Brittains Lane,Sevenoaks,Kent,New Beacon School,School/college/university,7845,5,,266601,0,,51.26225800000000,03/00658/FOOD,187,eh.support@dartford.gov.uk,Sevenoaks,http://www.sevenoaks.gov.uk/,0.17695200000000,TN13 2PB,2014-09-17,fhrs_5_en-GB,5,,FHRS,0
252979,75 St. Johns Hill,Sevenoaks,Kent,,New Inn,Pub/bar/nightclub,7843,5,,266608,5,,51.28545100000000,03/00672/MIXED,187,eh.support@dartford.gov.uk,Sevenoaks,http://www.sevenoaks.gov.uk/,0.19528600000000,TN13 3NY,2011-01-26,fhrs_4_en-GB,4,,FHRS,10
252980,Rainbow Inn,2 Heathwood Parade,London Road,Swanley,New Rainbow Inn,Restaurant/Cafe/Canteen,1,5,,733483,0,,51.40315100000000,15/00003/MIXED/S,187,eh.support@dartford.gov.uk,Sevenoaks,http://www.sevenoaks.gov.uk/,0.16196800000000,BR8 7HB,2015-01-20,fhrs_5_en-GB,5,,FHRS,5
252981,Nine Acres,Billet Hill,Ash,KENT,Nine Acres B&B,Other catering premises,7841,10,,563964,5,,51.35922900000000,13/00065/MIXED/S,187,eh.support@dartford.gov.uk,Sevenoaks,http://www.sevenoaks.gov.uk/,0.28791400000000,TN15 7HG,2013-06-27,fhrs_4_en-GB,4,,FHRS,5
252982,10 Market Square,Westerham,Kent,,Nisa,Retailers - other,4613,5,,266649,5,,51.26730900000000,04/00285/MIXED,187,eh.support@dartford.gov.uk,Sevenoaks,http://www.sevenoaks.gov.uk/,0.07103700000000,TN16 1AW,2014-12-16,fhrs_5_en-GB,5,,FHRS,5
252983,Nomads Football Club,Four Elms Road,Edenbridge,Kent,Nomads Football Club,Pub/bar/nightclub,7843,0,,266497,0,,,03/00120/MAIN,187,eh.support@dartford.gov.uk,Sevenoaks,http://www.sevenoaks.gov.uk/,,,2014-03-26,fhrs_5_en-GB,5,,FHRS,0
252984,10 Blacks Yard,Sevenoaks,Kent,,Nonna Cappuccini,Retailers - other,4613,5,,266586,10,,51.27137100000000,03/00638/MIXED,187,eh.support@dartford.gov.uk,Sevenoaks,http://www.sevenoaks.gov.uk/,0.19217800000000,TN13 1DS,2014-07-01,fhrs_4_en-GB,4,,FHRS,5
252985,Essington House,High Street,Eynsford,Dartford,Norman's Butchers,Retailers - other,4613,5,,266393,5,,51.36948900000000,00/00060/MIXED,187,eh.support@dartford.gov.uk,Sevenoaks,http://www.sevenoaks.gov.uk/,0.21453300000000,DA4 0AB,2013-05-24,fhrs_5_en-GB,5,,FHRS,5
252986,Polhill Garden Centre Ltd,Polhill Garden Centre,London Road,Badgers Mount,Novells,Restaurant/Cafe/Canteen,1,10,,266625,5,,51.33134000000000,04/00013/MIXED,187,eh.support@dartford.gov.uk,Sevenoaks,http://www.sevenoaks.gov.uk/,0.14986000000000,TN14 7AD,2014-06-12,fhrs_4_en-GB,4,,FHRS,5
252987,1 The Parade,Ash Road,Hartley,Longfield,NTS Minimarket,Retailers - other,4613,20,,266641,5,,51.38820600000000,04/00157/MIXED,187,eh.support@dartford.gov.uk,Sevenoaks,http://www.sevenoaks.gov.uk/,0.30442300000000,DA3 8BG,2014-02-27,fhrs_1_en-GB,1,,FHRS,0
252988,,,,,Oak End Lodge,Other catering premises,7841,5,,510339,0,,,13/00024/MAIN/S,187,eh.support@dartford.gov.uk,Sevenoaks,http://www.sevenoaks.gov.uk/,,,2013-02-21,fhrs_5_en-GB,5,,FHRS,0
252989,Lullingstone Park Visitor Centre,Castle Road,Eynsford,Dartford,Oak Tree Cafe,Restaurant/Cafe/Canteen,1,0,,266566,0,,51.35292100000000,03/00608/FOOD,187,eh.support@dartford.gov.uk,Sevenoaks,http://www.sevenoaks.gov.uk/,0.19076900000000,DA4 0JF,2013-07-01,fhrs_5_en-GB,5,,FHRS,0
252990,Care Edenbridge,1 Phillippines Close,Edenbridge,KENT,Oak Tree Cafe Bistro,Other catering premises,7841,5,,699491,10,,51.19116100000000,14/00093/MIXED/S,187,eh.support@dartford.gov.uk,Sevenoaks,http://www.sevenoaks.gov.uk/,0.06918000000000,TN8 5GN,2014-08-29,fhrs_4_en-GB,4,,FHRS,5
252991,107 London Road,Sevenoaks,Kent,,Oaks Spice,Restaurant/Cafe/Canteen,1,5,,266845,5,,51.27440600000000,08520/0107/0/000,187,eh.support@dartford.gov.uk,Sevenoaks,http://www.sevenoaks.gov.uk/,0.18764800000000,TN13 1BH,2013-12-03,fhrs_4_en-GB,4,,FHRS,10
252992,Hextable School,Egerton Avenue,Hextable,KENT,Oasis Academy Hextable,School/college/university,7845,0,,594363,0,,51.40809200000000,13/00124/FOOD/S,187,eh.support@dartford.gov.uk,Sevenoaks,http://www.sevenoaks.gov.uk/,0.17735800000000,BR8 7LU,2013-10-10,fhrs_5_en-GB,5,,FHRS,0
252993,Otford County Primary School,High Street,Otford,Sevenoaks,Oasis After School Club,Other catering premises,7841,10,,266904,10,,51.31284900000000,10/00005/FOOD,187,eh.support@dartford.gov.uk,Sevenoaks,http://www.sevenoaks.gov.uk/,0.18782600000000,TN14 5PG,2013-04-25,fhrs_3_en-GB,3,,FHRS,10
252994,Oasis Cafe,London Road,West Kingsdown,Sevenoaks,Oasis Cafe,Restaurant/Cafe/Canteen,1,10,,266659,10,,51.35208000000000,04/00325/MIXED,187,eh.support@dartford.gov.uk,Sevenoaks,http://www.sevenoaks.gov.uk/,0.25310300000000,TN15 6EX,2014-08-29,fhrs_3_en-GB,3,,FHRS,10
252995,1 Felicity Cottages,Long Barn Road,Weald,Sevenoaks,Old Bakery,Retailers - other,4613,0,,266404,0,,51.23679000000000,01/00004/MIXED,187,eh.support@dartford.gov.uk,Sevenoaks,http://www.sevenoaks.gov.uk/,0.18559100000000,TN14 6PY,2014-05-08,fhrs_5_en-GB,5,,FHRS,0
252996,Old Downs Residential Home,The Old Downs,Castle Hill,Hartley,Old Downs Care Home,Hospitals/Childcare/Caring Premises,5,5,,486865,5,,51.38715000000000,12/00066/MIXED/S,187,eh.support@dartford.gov.uk,Sevenoaks,http://www.sevenoaks.gov.uk/,0.30048900000000,DA3 7BH,2014-06-11,fhrs_5_en-GB,5,,FHRS,5
252997,Sevenoaks Adult Education Centre,Sevenoaks Adult Education Centre,Bradbourne Road,Sevenoaks,Olive Dining,School/college/university,7845,5,,627762,10,,51.28310800000000,14/00006/FOOD/S,187,eh.support@dartford.gov.uk,Sevenoaks,http://www.sevenoaks.gov.uk/,0.19024100000000,TN13 3QN,2014-10-15,fhrs_4_en-GB,4,,FHRS,5
252998,5 Carlton Parade,St Johns Hill,Sevenoaks,KENT,Olivias Cafe,Restaurant/Cafe/Canteen,1,5,,647165,5,,51.28645600000000,14/00034/MIXED/S,187,eh.support@dartford.gov.uk,Sevenoaks,http://www.sevenoaks.gov.uk/,0.19536300000000,TN13 3NZ,2014-03-27,fhrs_5_en-GB,5,,FHRS,0
252999,,,,,On Site Caterers Ltd,Other catering premises,7841,5,,580454,0,,,13/00103/MIXED/S,187,eh.support@dartford.gov.uk,Sevenoaks,http://www.sevenoaks.gov.uk/,,,2013-08-13,fhrs_5_en-GB,5,,FHRS,0
253000,2 Sevenoaks Road,Otford,KENT,,One Stop,Retailers - other,4613,0,,266580,0,,51.31046700000000,03/00629/MIXED,187,eh.support@dartford.gov.uk,Sevenoaks,http://www.sevenoaks.gov.uk/,0.19016700000000,TN14 5PB,2013-11-08,fhrs_5_en-GB,5,,FHRS,5
253001,46 Seal Road,Sevenoaks,Kent,,One Stop Community Stores,Retailers - supermarkets/hypermarkets,7840,5,,267070,10,,51.28878100000000,12810/0046/0/000,187,eh.support@dartford.gov.uk,Sevenoaks,http://www.sevenoaks.gov.uk/,0.19467100000000,TN14 5AR,2014-04-09,fhrs_4_en-GB,4,,FHRS,5
253002,Swanley Technical College Kitchen,Swanley School,St Marys Road,Swanley,Orchards Academy,School/college/university,7845,0,,517577,5,,51.39624300000000,13/00031/FOOD/S,187,eh.support@dartford.gov.uk,Sevenoaks,http://www.sevenoaks.gov.uk/,0.16988000000000,BR8 7TE,2014-07-03,fhrs_5_en-GB,5,,FHRS,5
253003,Otford Church Hall,High Street,Otford,Sevenoaks,"Otford Church Hall, The Methodist Church",Other catering premises,7841,,,266799,,,51.31292300000000,07/00055/MIXED,187,eh.support@dartford.gov.uk,Sevenoaks,http://www.sevenoaks.gov.uk/,0.18718400000000,,2012-03-22,fhrs_exempt_en-GB,Exempt,,FHRS,
253004,High Street,Otford,KENT,,Otford County Primary School,School/college/university,7845,5,,733484,5,,51.31284800000000,15/00004/FOOD/S,187,eh.support@dartford.gov.uk,Sevenoaks,http://www.sevenoaks.gov.uk/,0.18782600000000,TN14 5PG,2015-01-19,fhrs_5_en-GB,5,,FHRS,0
253005,Otford Manor,Shorehill Lane,Knatts Valley,Sevenoaks,Otford Manor,Other catering premises,7841,5,,266664,5,,51.31324700000000,04/00335/MIXED,187,eh.support@dartford.gov.uk,Sevenoaks,http://www.sevenoaks.gov.uk/,0.23060800000000,TN15 6XF,2013-04-30,fhrs_4_en-GB,4,,FHRS,10
253006,Otford County Primary School,High Street,Otford,Sevenoaks,Otford Nursery School,Other catering premises,7841,0,,266903,0,,51.31284900000000,10/00004/FOOD,187,eh.support@dartford.gov.uk,Sevenoaks,http://www.sevenoaks.gov.uk/,0.18782600000000,TN14 5PG,2014-02-03,fhrs_5_en-GB,5,,FHRS,5
253007,4 High Street,Otford,Sevenoaks,Kent,Otford Pharmacy,Retailers - other,4613,,,266502,,,51.31314700000000,03/00165/MAIN,187,eh.support@dartford.gov.uk,Sevenoaks,http://www.sevenoaks.gov.uk/,0.18871600000000,TN14 5PQ,2014-02-12,fhrs_exempt_en-GB,Exempt,,FHRS,
253008,Our Lady Of Hartley Rc School,Stack Lane,Hartley,Longfield,Our Lady Of Hartley Rc School,School/college/university,7845,0,,267078,5,,51.38558000000000,13920/2028/2/000,187,eh.support@dartford.gov.uk,Sevenoaks,http://www.sevenoaks.gov.uk/,0.30670600000000,DA3 8BL,2013-04-25,fhrs_5_en-GB,5,,FHRS,0
253009,104 High Street,Edenbridge,Kent,,Ozzy's Place,Other catering premises,7841,10,,266887,10,,51.19559400000000,09/00063/MIXED,187,eh.support@dartford.gov.uk,Sevenoaks,http://www.sevenoaks.gov.uk/,0.06514200000000,TN8 5AR,2014-05-27,fhrs_3_en-GB,3,,FHRS,10
253010,Brands Hatch Circuit,Brands Hatch Road,Fawkham,Longfield,Paddock Hill Grandstand-Fast Lane,Other catering premises,7841,0,,266744,0,,51.35807200000000,06/00066/MIXED,187,eh.support@dartford.gov.uk,Sevenoaks,http://www.sevenoaks.gov.uk/,0.25581100000000,DA3 8NG,2014-02-25,fhrs_5_en-GB,5,,FHRS,5
253011,Palace Of India,High Street,Farningham,Dartford,Palace Of India,Restaurant/Cafe/Canteen,1,10,,266425,15,,51.38219700000000,01/00038/MIXED,187,eh.support@dartford.gov.uk,Sevenoaks,http://www.sevenoaks.gov.uk/,0.21876800000000,DA4 0DT,2014-12-02,fhrs_2_en-GB,2,,FHRS,10
253012,91 St Johns Hill,Sevenoaks,KENT,,Paprika,Other catering premises,7841,10,,267022,5,,51.28737500000000,11/00087/MIXED,187,eh.support@dartford.gov.uk,Sevenoaks,http://www.sevenoaks.gov.uk/,0.19480400000000,TN13 3PE,2013-03-19,fhrs_4_en-GB,4,,FHRS,5
253013,Parkwood Hall School,Beechenlea Lane,Swanley,Kent,Parkwood Hall School,School/college/university,7845,5,,266402,5,,51.39360000000000,00760/2057/2/000,187,eh.support@dartford.gov.uk,Sevenoaks,http://www.sevenoaks.gov.uk/,0.19062800000000,BR8 8DR,2015-02-11,fhrs_5_en-GB,5,,FHRS,5
253014,15 The Row,New Ash Green,Longfield,Kent,Partners Coffee And Gift Shop,Retailers - other,4613,5,,266472,5,,51.36601900000000,02/00309/MIXED,187,eh.support@dartford.gov.uk,Sevenoaks,http://www.sevenoaks.gov.uk/,0.30491800000000,DA3 8JB,2014-12-11,fhrs_5_en-GB,5,,FHRS,5
253015,21 London Road,Sevenoaks,Kent,,Payden,Retailers - other,4613,,,266564,,,51.27092900000000,03/00605/MIXED,187,eh.support@dartford.gov.uk,Sevenoaks,http://www.sevenoaks.gov.uk/,0.19134000000000,TN13 1AR,2012-02-07,fhrs_exempt_en-GB,Exempt,,FHRS,
253016,36 High Street,Edenbridge,Kent,,Paydens Chemist And Edenbridge Post Office,Retailers - other,4613,,,266646,,,51.19722600000000,04/00212/MIXED,187,eh.support@dartford.gov.uk,Sevenoaks,http://www.sevenoaks.gov.uk/,0.06441400000000,TN8 5AJ,2011-08-31,fhrs_exempt_en-GB,Exempt,,FHRS,
253017,Pedham Place Golf Centre Ltd,London Road,Swanley,Kent,Pedham Place Golf Centre Ltd,Other catering premises,7841,0,,266850,0,,51.38417900000000,08560/2059/2/000,187,eh.support@dartford.gov.uk,Sevenoaks,http://www.sevenoaks.gov.uk/,0.19806800000000,BR8 8PP,2013-06-20,fhrs_5_en-GB,5,,FHRS,5
253018,High Street,Penshurst,Kent,,Penshurst C Of E Primary School,School/college/university,7845,0,,594369,5,,51.17157000000000,13/00132/FOOD/S,187,eh.support@dartford.gov.uk,Sevenoaks,http://www.sevenoaks.gov.uk/,0.17981600000000,TN11 8BX,2013-05-17,fhrs_5_en-GB,5,,FHRS,0
253019,Penshurst Place,Penshurst,Tonbridge,Kent,Penshurst Place & Gardens & Cafe,Restaurant/Cafe/Canteen,1,5,,267044,5,,51.17463700000000,11190/2000/2/000,187,eh.support@dartford.gov.uk,Sevenoaks,http://www.sevenoaks.gov.uk/,0.18366600000000,TN11 8DG,2013-09-13,fhrs_4_en-GB,4,,FHRS,10
253020,,,,,Perfect Pantry,Other catering premises,7841,10,,647166,0,,,14/00036/FOOD/S,187,eh.support@dartford.gov.uk,Sevenoaks,http://www.sevenoaks.gov.uk/,,,2014-03-03,fhrs_4_en-GB,4,,FHRS,0
253021,Mill Hill Petrol Station,Mill Hill,Edenbridge,Kent,Petrocel Ltd,Retailers - other,4613,10,,266547,0,,51.18776500000000,03/00443/MIXED,187,eh.support@dartford.gov.uk,Sevenoaks,http://www.sevenoaks.gov.uk/,0.06851300000000,TN8 5DQ,2012-12-14,fhrs_4_en-GB,4,,FHRS,0
253022,The Pied Bull (ph),High Street,Farningham,Dartford,Pied Bull,Pub/bar/nightclub,7843,5,,266595,5,,51.38075500000000,03/00650/MIXED,187,eh.support@dartford.gov.uk,Sevenoaks,http://www.sevenoaks.gov.uk/,0.22035100000000,DA4 0DG,2014-11-24,fhrs_4_en-GB,4,,FHRS,10
253023,Pilgroves Farm Bungalow,South Brook Lane,Toys Hill,KENT,Pilgroves Pork And Poultry,Retailers - other,4613,5,,681319,5,,51.22605800000000,14/00075/FOOD/S,187,eh.support@dartford.gov.uk,Sevenoaks,http://www.sevenoaks.gov.uk/,0.11029000000000,TN8 6PA,2014-06-25,fhrs_5_en-GB,5,,FHRS,0
253024,Pinehurst House Nursing Home,Pinehurst,Sevenoaks,Kent,Pinehurst House Nursing Home,Other catering premises,7841,0,,267045,0,,51.29088100000000,11360/0000/2/000,187,eh.support@dartford.gov.uk,Sevenoaks,http://www.sevenoaks.gov.uk/,0.20968700000000,TN14 5AQ,2015-01-27,fhrs_5_en-GB,5,,FHRS,5
253025,146-148 High Street,Sevenoaks,Kent,,Pizza Express,Restaurant/Cafe/Canteen,1,0,,266770,5,,51.27274300000000,06610/1461/0/000,187,eh.support@dartford.gov.uk,Sevenoaks,http://www.sevenoaks.gov.uk/,0.19287400000000,TN13 1XE,2014-01-13,fhrs_5_en-GB,5,,FHRS,5
253026,Unif F,Warren Farm,Main Road,Sundridge,Pizza Italy,Other catering premises,7841,10,,693399,10,,51.27862700000000,14/00082/MIXED/S,187,eh.support@dartford.gov.uk,Sevenoaks,http://www.sevenoaks.gov.uk/,0.13784900000000,TN14 6EE,2014-07-30,fhrs_4_en-GB,4,,FHRS,0
253027,1A High Street,Swanley,Kent,,Pizza Spot,Other catering premises,7841,0,,266407,5,,51.39524600000000,01/00008/MIXED,187,eh.support@dartford.gov.uk,Sevenoaks,http://www.sevenoaks.gov.uk/,0.17804100000000,BR8 8AE,2013-03-26,fhrs_5_en-GB,5,,FHRS,5
253028,33 The Row,New Ash Green,Longfield,Kent,Pizzalands,Takeaway/sandwich shop,7844,20,,266638,15,,51.36601900000000,04/00118/MIXED,187,eh.support@dartford.gov.uk,Sevenoaks,http://www.sevenoaks.gov.uk/,0.30491800000000,DA3 8JB,2014-09-16,fhrs_1_en-GB,1,,FHRS,10
253029,Milestone School,Ash Road,Ash,KENT,Play 4 Ages After School Club,Other catering premises,7841,0,,266956,0,,51.37263600000000,10/00092/FOOD,187,eh.support@dartford.gov.uk,Sevenoaks,http://www.sevenoaks.gov.uk/,0.30548000000000,DA3 8JZ,2014-01-31,fhrs_5_en-GB,5,,FHRS,0
253030,Polhill Garden Centre,London Road,Halstead,Sevenoaks,Polhill Farm Shop,Retailers - other,4613,10,,266715,15,,,05/00240/MIXED,187,eh.support@dartford.gov.uk,Sevenoaks,http://www.sevenoaks.gov.uk/,,,2013-11-18,fhrs_2_en-GB,2,,FHRS,5
253031,6 High Street,Otford,KENT,,Pond View Cafe And Tea Rooms,Restaurant/Cafe/Canteen,1,0,,445118,5,,51.31314700000000,12/00033/MIXED/S,187,eh.support@dartford.gov.uk,Sevenoaks,http://www.sevenoaks.gov.uk/,0.18871600000000,TN14 5PQ,2014-02-03,fhrs_5_en-GB,5,,FHRS,5
253032,Pootings Oast,Pootings Road,Crockham Hill,Edenbridge,Pootings Oast,Hotel/bed & breakfast/guest house,7842,5,,266815,0,,51.22434100000000,08/00019/FOOD,187,eh.support@dartford.gov.uk,Sevenoaks,http://www.sevenoaks.gov.uk/,0.08014900000000,TN8 6SD,2011-05-31,fhrs_5_en-GB,5,,FHRS,5
253033,Penshurst Place,Penshurst Road,Penshurst,KENT,Porcupine Pantry,Restaurant/Cafe/Canteen,1,,,585868,,,51.17591300000000,13/00117/MIXED/S,187,eh.support@dartford.gov.uk,Sevenoaks,http://www.sevenoaks.gov.uk/,0.18085100000000,TN11 8DH,2014-03-10,fhrs_5_en-GB,5,,FHRS,
253034,,,,,Pots Of Pleasure,Manufacturers/packers,7839,0,,611048,0,,,13/00144/FOOD/S,187,eh.support@dartford.gov.uk,Sevenoaks,http://www.sevenoaks.gov.uk/,,,2013-10-31,fhrs_5_en-GB,5,,FHRS,0
253035,12 Swanley Centre,London Road,Swanley,KENT,Poundland,Retailers - other,4613,5,,464169,0,,51.39628200000000,12/00042/MIXED/S,187,eh.support@dartford.gov.uk,Sevenoaks,http://www.sevenoaks.gov.uk/,0.17456800000000,BR8 7TG,2014-08-05,fhrs_5_en-GB,5,,FHRS,5
253036,Premier Inn And Beefeater Resaurant,London Road,Swanley,KENT,Premier Inn And Beefeater Restaurant,Restaurant/Cafe/Canteen,1,5,,266993,0,,51.40502900000000,11/00045/MIXED,187,eh.support@dartford.gov.uk,Sevenoaks,http://www.sevenoaks.gov.uk/,0.15870700000000,BR8 7QD,2014-06-25,fhrs_4_en-GB,4,,FHRS,10
253037,8 London Road,Sevenoaks,KENT,,Prezzo,Restaurant/Cafe/Canteen,1,,,464176,,,51.27643200000000,12/00051/MIXED/S,187,eh.support@dartford.gov.uk,Sevenoaks,http://www.sevenoaks.gov.uk/,0.18368700000000,TN13 1DH,2014-11-20,fhrs_5_en-GB,5,,FHRS,
253038,24A London Road,Sevenoaks,Kent,,Pronto Beaux Bagels,Other catering premises,7841,0,,266706,5,,51.27088500000000,05/00205/HELA,187,eh.support@dartford.gov.uk,Sevenoaks,http://www.sevenoaks.gov.uk/,0.19176800000000,TN13 1AP,2014-08-01,fhrs_5_en-GB,5,,FHRS,0
253039,,,,,Pukara Estates,Retailers - other,4613,0,,622828,0,,,13/00136/FOOD/S,187,eh.support@dartford.gov.uk,Sevenoaks,http://www.sevenoaks.gov.uk/,,,2013-11-01,fhrs_5_en-GB,5,,FHRS,0
253040,,,,,Pumpernickels,Other catering premises,7841,10,,267008,0,,,11/00068/FOOD,187,eh.support@dartford.gov.uk,Sevenoaks,http://www.sevenoaks.gov.uk/,,,2013-03-04,fhrs_4_en-GB,4,,FHRS,5
253041,Unit 1 & 2,Sevenoaks Station,London Road,Sevenoaks,Pumpkin Cafe,Other catering premises,7841,5,,266465,10,,51.27668300000000,02/00294/MIXED,187,eh.support@dartford.gov.uk,Sevenoaks,http://www.sevenoaks.gov.uk/,0.18176300000000,TN13 1DP,2015-01-13,fhrs_4_en-GB,4,,FHRS,5
253042,Stag Community Arts Centre,London Road,Sevenoaks,KENT,PUP Cafe,Restaurant/Cafe/Canteen,1,10,,615411,5,,51.27007100000000,13/00146/MIXED/S,187,eh.support@dartford.gov.uk,Sevenoaks,http://www.sevenoaks.gov.uk/,0.19198700000000,TN13 1ZZ,2013-02-14,fhrs_4_en-GB,4,,FHRS,0
253043,Pyle Gate Farm,Hartfield Road,Cowden,Edenbridge,Pyle Gate Farm,Hotel/bed & breakfast/guest house,7842,0,,266494,0,,51.15632300000000,03/00096/FOOD,187,eh.support@dartford.gov.uk,Sevenoaks,http://www.sevenoaks.gov.uk/,0.09788200000000,TN8 7HE,2014-03-24,fhrs_5_en-GB,5,,FHRS,0
253044,106 High Street,Edenbridge,Kent,,Quality Tandoori,Restaurant/Cafe/Canteen,1,5,,266575,5,,51.19559400000000,03/00624/MIXED,187,eh.support@dartford.gov.uk,Sevenoaks,http://www.sevenoaks.gov.uk/,0.06514200000000,TN8 5AR,2014-08-14,fhrs_5_en-GB,5,,FHRS,5
253045,Queens Arms,Cowden Pound,Edenbridge,Kent,Queens Arms,Pub/bar/nightclub,7843,5,,266466,0,,51.16357100000000,02/00297/MIXED,187,eh.support@dartford.gov.uk,Sevenoaks,http://www.sevenoaks.gov.uk/,0.09085900000000,TN8 5NP,2013-03-25,fhrs_5_en-GB,5,,FHRS,5
253046,54 Holly Bush Lane,Sevenoaks,KENT,,Rafferty's,Restaurant/Cafe/Canteen,1,10,,266922,10,,51.28140600000000,10/00039/MIXED,187,eh.support@dartford.gov.uk,Sevenoaks,http://www.sevenoaks.gov.uk/,0.19470600000000,TN13 3TL,2013-10-31,fhrs_3_en-GB,3,,FHRS,10
253047,Darenth House,High Street,Eynsford,Dartford,Rafferty's,Retailers - other,4613,5,,266947,0,,51.36938400000000,10/00080/MIXED,187,eh.support@dartford.gov.uk,Sevenoaks,http://www.sevenoaks.gov.uk/,0.21345100000000,DA4 0AA,2014-04-07,fhrs_4_en-GB,4,,FHRS,10
253048,6 - 7 Tubs Hill Parade,London Road,Sevenoaks,KENT,Raj Bari,Restaurant/Cafe/Canteen,1,10,,504337,5,,51.27643200000000,13/00010/MIXED/S,187,eh.support@dartford.gov.uk,Sevenoaks,http://www.sevenoaks.gov.uk/,0.18368700000000,TN13 1DH,2014-05-20,fhrs_4_en-GB,4,,FHRS,5
253049,23-25 High Street,Swanley,Kent,,Raj Of India,Restaurant/Cafe/Canteen,1,10,,266387,10,,51.39524600000000,00/00050/MIXED,187,eh.support@dartford.gov.uk,Sevenoaks,http://www.sevenoaks.gov.uk/,0.17804100000000,BR8 8AE,2014-03-18,fhrs_3_en-GB,3,,FHRS,10
253050,Rajdani,17-20 London Road,West Kingsdown,Sevenoaks,Rajdani,Restaurant/Cafe/Canteen,1,20,,266854,15,,51.34806700000000,08640/2078/2/000,187,eh.support@dartford.gov.uk,Sevenoaks,http://www.sevenoaks.gov.uk/,0.25417000000000,TN15 6ES,2014-12-01,fhrs_1_en-GB,1,,FHRS,10
253051,Redlibbets Golf Club,West Yoke,Ash,Sevenoaks,Redlibbets Golf Club,Other catering premises,7841,0,,266537,5,,51.36632300000000,03/00326/MIXED,187,eh.support@dartford.gov.uk,Sevenoaks,http://www.sevenoaks.gov.uk/,0.29263600000000,TN15 7HT,2013-03-14,fhrs_5_en-GB,5,,FHRS,0
253052,,,,,Rendell's Painted Cakes,Mobile caterer,7846,5,,568433,5,,,13/00071/FOOD/S,187,eh.support@dartford.gov.uk,Sevenoaks,http://www.sevenoaks.gov.uk/,,,2013-07-05,fhrs_5_en-GB,5,,FHRS,0
253053,26 Market Square,Westerham,Kent,,Rendezvous Cafe Brasserie,Restaurant/Cafe/Canteen,1,5,,266565,10,,51.26713600000000,03/00607/MIXED,187,eh.support@dartford.gov.uk,Sevenoaks,http://www.sevenoaks.gov.uk/,0.07014000000000,TN16 1FR,2014-09-08,fhrs_4_en-GB,4,,FHRS,5
253054,5 The Parade,Dynes Road,Kemsing,Sevenoaks,Richlands Convenience Store,Retailers - other,4613,5,,266594,5,,51.30767800000000,03/00649/MIXED,187,eh.support@dartford.gov.uk,Sevenoaks,http://www.sevenoaks.gov.uk/,0.20936100000000,TN15 6RE,2013-03-19,fhrs_5_en-GB,5,,FHRS,5
253055,Riverhead Infants CP School,Riverhead Infants School,Worships Hill,Riverhead,Riverhead Infants School,School/college/university,7845,5,,733485,5,,51.28231600000000,15/00005/FOOD/S,187,eh.support@dartford.gov.uk,Sevenoaks,http://www.sevenoaks.gov.uk/,0.16849200000000,TN13 2AR,2015-01-20,fhrs_5_en-GB,5,,FHRS,0
253056,2 The White Hart Parade,London Road,Riverhead,Sevenoaks,Riverhead Sandwich Bar,Takeaway/sandwich shop,7844,0,,266721,0,,51.28436300000000,05/00271/MIXED,187,eh.support@dartford.gov.uk,Sevenoaks,http://www.sevenoaks.gov.uk/,0.16967900000000,TN13 2BJ,2013-07-12,fhrs_5_en-GB,5,,FHRS,5
253057,Riverhill House,Riverhill,Sevenoaks,KENT,Riverhill Himalayan Gardens,Restaurant/Cafe/Canteen,1,0,,527069,0,,51.24658200000000,13/00041/MIXED/S,187,eh.support@dartford.gov.uk,Sevenoaks,http://www.sevenoaks.gov.uk/,0.20911100000000,TN15 0RR,2013-03-20,fhrs_5_en-GB,5,,FHRS,5
253058,2 Riverside,Eynsford,KENT,,Riverside Tea Rooms,Restaurant/Cafe/Canteen,1,0,,563966,0,,51.36860900000000,13/00069/MIXED/S,187,eh.support@dartford.gov.uk,Sevenoaks,http://www.sevenoaks.gov.uk/,0.20921800000000,DA4 0AE,2013-06-26,fhrs_5_en-GB,5,,FHRS,0
253059,Rockdale,Rockdale Road,Sevenoaks,Kent,Rockdale House,Other catering premises,7841,5,,266650,5,,51.26888100000000,04/00311/MIXED,187,eh.support@dartford.gov.uk,Sevenoaks,http://www.sevenoaks.gov.uk/,0.19214500000000,TN13 1JT,2014-01-13,fhrs_5_en-GB,5,,FHRS,0
253060,,,,,Ronnie Comfort,Other catering premises,7841,0,,266442,0,,,02/00023/FOOD,187,eh.support@dartford.gov.uk,Sevenoaks,http://www.sevenoaks.gov.uk/,,,2013-12-10,fhrs_5_en-GB,5,,FHRS,5
253061,Rose & Crown,Otford Lane,Halstead,Sevenoaks,Rose And Crown,Pub/bar/nightclub,7843,10,,266609,10,,51.32941700000000,03/00673/MIXED,187,eh.support@dartford.gov.uk,Sevenoaks,http://www.sevenoaks.gov.uk/,0.13603300000000,TN14 7EA,2013-04-23,fhrs_3_en-GB,3,,FHRS,10
253062,The Rose And Crown,London Road,Dunton Green,KENT,Rose And Crown,Pub/bar/nightclub,7843,,,267021,,,51.30024300000000,11/00085/MIXED,187,eh.support@dartford.gov.uk,Sevenoaks,http://www.sevenoaks.gov.uk/,0.16055800000000,TN13 2TH,2014-11-10,fhrs_5_en-GB,5,,FHRS,
253063,Roundash Pre-School,Portacabin Rear Of Primary School,Round Ash Way,Hartley,Roundash Pre-school,Other catering premises,7841,5,,546620,0,,51.38340400000000,13/00054/FOOD/S,187,eh.support@dartford.gov.uk,Sevenoaks,http://www.sevenoaks.gov.uk/,0.30304700000000,DA3 8BT,2013-05-01,fhrs_5_en-GB,5,,FHRS,0
253064,,,,,Rowdy & Fancy's,Manufacturers/packers,7839,0,,267013,5,,,11/00074/FOOD,187,eh.support@dartford.gov.uk,Sevenoaks,http://www.sevenoaks.gov.uk/,,,2011-08-30,fhrs_5_en-GB,5,,FHRS,0
253065,Skinners,Skinners Lane,Edenbridge,Kent,Roy Atfield Farmshop Meat Supplies And VT Meats,Retailers - other,4613,5,,266383,5,,51.20202600000000,00/00036/MIXED,187,eh.support@dartford.gov.uk,Sevenoaks,http://www.sevenoaks.gov.uk/,0.07523600000000,TN8 6LW,2010-02-24,fhrs_5_en-GB,5,,FHRS,5
253066,Royal Oak,West Yoke,Ash,Sevenoaks,Royal Oak,Pub/bar/nightclub,7843,5,,266391,10,,51.36632300000000,00/00058/MIXED,187,eh.support@dartford.gov.uk,Sevenoaks,http://www.sevenoaks.gov.uk/,0.29263600000000,TN15 7HT,2013-03-08,fhrs_4_en-GB,4,,FHRS,0
253067,Royal Oak Hotel,High Street,Sevenoaks,Kent,Royal Oak Hotel,Other catering premises,7841,10,,266590,15,,51.26576500000000,03/00645/MIXED,187,eh.support@dartford.gov.uk,Sevenoaks,http://www.sevenoaks.gov.uk/,0.19335900000000,TN13 1HY,2014-02-03,fhrs_2_en-GB,2,,FHRS,15
253068,Hawkhurst,100 Brands Hatch Park,Scratchers Lane,Fawkham,Rural Age Concern Darenth Valley,Restaurant/Cafe/Canteen,1,0,,266827,0,,51.36274800000000,08/00046/MIXED,187,eh.support@dartford.gov.uk,Sevenoaks,http://www.sevenoaks.gov.uk/,0.26326600000000,DA3 8PU,2014-02-12,fhrs_5_en-GB,5,,FHRS,5
253069,Russell Court,Russell Square,Longfield,Kent,Russell Court Nursing Home,Other catering premises,7841,0,,266653,5,,51.39620100000000,04/00317/FOOD,187,eh.support@dartford.gov.uk,Sevenoaks,http://www.sevenoaks.gov.uk/,0.29663100000000,DA3 7RY,2014-12-11,fhrs_5_en-GB,5,,FHRS,0
253070,Russell House School,Station Road,Otford,Sevenoaks,Russell House School,School/college/university,7845,5,,266388,5,,51.31318400000000,00/00054/FOOD,187,eh.support@dartford.gov.uk,Sevenoaks,http://www.sevenoaks.gov.uk/,0.19392700000000,TN14 5QU,2014-07-08,fhrs_5_en-GB,5,,FHRS,0
253071,Grange Farm,Pootings Road,Crockham Hill,Edenbridge,S And G Game Meat Supplies,Retailers - other,4613,5,,266871,5,,51.23092600000000,09/00042/MIXED,187,eh.support@dartford.gov.uk,Sevenoaks,http://www.sevenoaks.gov.uk/,0.07339900000000,TN8 6SA,2012-10-08,fhrs_5_en-GB,5,,FHRS,5
253072,34 London Road,Riverhead,Sevenoaks,Kent,Sai Newsagent,Retailers - other,4613,10,,266840,5,,51.28589100000000,08500/0034/0/000,187,eh.support@dartford.gov.uk,Sevenoaks,http://www.sevenoaks.gov.uk/,0.16923500000000,TN13 2DE,2013-04-04,fhrs_4_en-GB,4,,FHRS,0
253073,J Sainsbury Plc,Otford Road,Sevenoaks,Kent,Sainsbury Staff Canteen,Restaurant/Cafe/Canteen,1,0,,266861,5,,51.29574600000000,09/00009/FOOD,187,eh.support@dartford.gov.uk,Sevenoaks,http://www.sevenoaks.gov.uk/,0.19201900000000,TN14 5EG,2013-07-29,fhrs_5_en-GB,5,,FHRS,5
253074,J Sainsbury Plc,Otford Road,Sevenoaks,KENT,Sainsburys,Retailers - supermarkets/hypermarkets,7840,0,,632919,5,,,14/00014/MIXED/S,187,eh.support@dartford.gov.uk,Sevenoaks,http://www.sevenoaks.gov.uk/,,TN14 4EG,2014-02-03,fhrs_5_en-GB,5,,FHRS,0
253075,Sainsburys Supermarkets Ltd,143 St Johns Hill,Sevenoaks,KENT,Sainsbury's,Retailers - supermarkets/hypermarkets,7840,0,,669005,0,,,14/00061/MIXED/S,187,eh.support@dartford.gov.uk,Sevenoaks,http://www.sevenoaks.gov.uk/,,,2014-05-21,fhrs_5_en-GB,5,,FHRS,0
253076,Wickes Building Supplies,Otford Road,Sevenoaks,Kent,Samson Catering,Other catering premises,7841,10,,266925,10,,51.29257900000000,10/00049/FOOD,187,eh.support@dartford.gov.uk,Sevenoaks,http://www.sevenoaks.gov.uk/,0.19066300000000,TN14 5DE,2015-01-05,fhrs_3_en-GB,3,,FHRS,10
253077,2 Station Parade,London Road,Sevenoaks,Kent,Sans Minimarket,Retailers - other,4613,10,,266716,10,,51.27708300000000,05/00247/MIXED,187,eh.support@dartford.gov.uk,Sevenoaks,http://www.sevenoaks.gov.uk/,0.18347400000000,TN13 1DL,2013-04-10,fhrs_3_en-GB,3,,FHRS,5
253078,,,,,Sarah Webb-Wilson,Other catering premises,7841,0,,572183,0,,,13/00080/FOOD/S,187,eh.support@dartford.gov.uk,Sevenoaks,http://www.sevenoaks.gov.uk/,,,2013-07-26,fhrs_5_en-GB,5,,FHRS,0
253079,Zambra Way,Seal,KENT,,Seal C Of E Primary School,School/college/university,7845,10,,464174,5,,51.23684500000000,12/00049/FOOD/S,187,eh.support@dartford.gov.uk,Sevenoaks,http://www.sevenoaks.gov.uk/,0.23831400000000,TN15 0SG,2014-05-08,fhrs_4_en-GB,4,,FHRS,5
253080,21 High Street,Seal,Sevenoaks,Kent,Seal General Store,Retailers - other,4613,10,,266766,10,,51.28873300000000,06600/0021/0/000,187,eh.support@dartford.gov.uk,Sevenoaks,http://www.sevenoaks.gov.uk/,0.22105800000000,TN15 0AN,2013-11-26,fhrs_4_en-GB,4,,FHRS,0
253081,Church Street,Seal,KENT,,Seal Kebab And Pizza,Other catering premises,7841,10,,537286,10,,51.28967900000000,13/00050/MIXED/S,187,eh.support@dartford.gov.uk,Sevenoaks,http://www.sevenoaks.gov.uk/,0.22239500000000,TN15 0AR,2014-11-03,fhrs_3_en-GB,3,,FHRS,10
253082,Cuisine 7,Sevenoaks Leisure Centre,Buckhurst Lane,Sevenoaks,Sencio Cafe,Restaurant/Cafe/Canteen,1,10,,266439,10,,51.27158800000000,01820/2001/2/001,187,eh.support@dartford.gov.uk,Sevenoaks,http://www.sevenoaks.gov.uk/,0.19595900000000,TN13 1LW,2014-06-06,fhrs_4_en-GB,4,,FHRS,0
253083,White Oak Leisure Centre,Hilda May Avenue,Swanley,Kent,Sencio Cafe,Restaurant/Cafe/Canteen,1,5,,266798,5,,51.40108300000000,07/00053/MIXED,187,eh.support@dartford.gov.uk,Sevenoaks,http://www.sevenoaks.gov.uk/,0.17170500000000,BR8 7BT,2014-06-04,fhrs_4_en-GB,4,,FHRS,10
253084,147 High Street,Sevenoaks,Kent,,Sevenoaks Book Shop And Cafe,Restaurant/Cafe/Canteen,1,0,,580450,0,,51.27337000000000,13/00099/MIXED/S,187,eh.support@dartford.gov.uk,Sevenoaks,http://www.sevenoaks.gov.uk/,0.19257400000000,TN13 1XJ,2013-07-25,fhrs_5_en-GB,5,,FHRS,5
253085,127 St. Johns Hill,Sevenoaks,Kent,,Sevenoaks Grill,Other catering premises,7841,5,,266386,0,,51.28737500000000,00/00048/MIXED,187,eh.support@dartford.gov.uk,Sevenoaks,http://www.sevenoaks.gov.uk/,0.19480400000000,TN13 3PE,2014-02-10,fhrs_4_en-GB,4,,FHRS,10
253086,Sevenoaks Hospital,Hospital Road,Sevenoaks,Kent,Sevenoaks Hospital Kitchen,Other catering premises,7841,5,,266389,0,,51.28827600000000,00/00055/FOOD,187,eh.support@dartford.gov.uk,Sevenoaks,http://www.sevenoaks.gov.uk/,0.19471800000000,TN13 3PG,2014-08-08,fhrs_5_en-GB,5,,FHRS,0
253087,Sevenoaks Preparatory School,Godden Green,Sevenoaks,Kent,Sevenoaks Preparatory School,School/college/university,7845,5,,266865,5,,51.26830900000000,09/00017/FOOD,187,eh.support@dartford.gov.uk,Sevenoaks,http://www.sevenoaks.gov.uk/,0.22673900000000,TN15 0JU,2013-09-11,fhrs_5_en-GB,5,,FHRS,5
253088,Sevenoaks Preparatory School,Godden Green,Sevenoaks,Kent,Sevenoaks Preparatory School,School/college/university,7845,5,,266864,10,,51.26830900000000,09/00016/FOOD,187,eh.support@dartford.gov.uk,Sevenoaks,http://www.sevenoaks.gov.uk/,0.22673900000000,TN15 0JU,2014-10-07,fhrs_4_en-GB,4,,FHRS,5
253089,Sevenoaks Cp School,Bradbourne Park Road,Sevenoaks,Kent,"Sevenoaks Primary School, Independent Catering",School/college/university,7845,0,,266644,0,,51.28460700000000,04/00195/FOOD,187,eh.support@dartford.gov.uk,Sevenoaks,http://www.sevenoaks.gov.uk/,0.18605400000000,TN13 3LB,2015-01-30,fhrs_5_en-GB,5,,FHRS,5
253090,Plymouth Drive,Sevenoaks,Kent,,Sevenoaks Rugby Football Club,Pub/bar/nightclub,7843,5,,266710,5,,51.27413100000000,05/00224/MIXED,187,eh.support@dartford.gov.uk,Sevenoaks,http://www.sevenoaks.gov.uk/,0.19706900000000,TN13 3RP,2012-03-16,fhrs_5_en-GB,5,,FHRS,5
253091,High Street,Sevenoaks,Kent,,Sevenoaks School,School/college/university,7845,0,,266703,0,,51.26546300000000,05/00138/FOOD,187,eh.support@dartford.gov.uk,Sevenoaks,http://www.sevenoaks.gov.uk/,0.19459200000000,TN13 1HU,2014-03-18,fhrs_5_en-GB,5,,FHRS,0
253092,145A High Street,Sevenoaks,Kent,,Sevenoaks Tandoori,Other catering premises,7841,5,,266462,10,,51.27337000000000,02/00291/MIXED,187,eh.support@dartford.gov.uk,Sevenoaks,http://www.sevenoaks.gov.uk/,0.19257400000000,TN13 1XJ,2013-03-21,fhrs_3_en-GB,3,,FHRS,10
253093,Seal Hollow Road,Sevenoaks,Kent,,Sevenoaks Town Golf Club,Restaurant/Cafe/Canteen,1,,,266557,,,51.27600000000000,03/00583/FOOD,187,eh.support@dartford.gov.uk,Sevenoaks,http://www.sevenoaks.gov.uk/,0.20289400000000,TN15 0HJ,2012-03-21,fhrs_exempt_en-GB,Exempt,,FHRS,
253094,,,,,Sharon Lord Cakes,Other catering premises,7841,0,,266469,0,,,02/00305/FOOD,187,eh.support@dartford.gov.uk,Sevenoaks,http://www.sevenoaks.gov.uk/,,,2012-10-03,fhrs_5_en-GB,5,,FHRS,0
253095,Church Road,Sundridge,KENT,,Shaw Lodge,Other catering premises,7841,5,,572180,5,,51.26263500000000,13/00076/MIXED/S,187,eh.support@dartford.gov.uk,Sevenoaks,http://www.sevenoaks.gov.uk/,0.12412000000000,TN14 6AU,2013-07-22,fhrs_5_en-GB,5,,FHRS,5
253096,128 Seal Road,Sevenoaks,Kent,,Shell Service Station,Retailers - other,4613,0,,266518,0,,51.28896200000000,03/00219/MAIN,187,eh.support@dartford.gov.uk,Sevenoaks,http://www.sevenoaks.gov.uk/,0.19984300000000,TN14 5AX,2013-01-03,fhrs_5_en-GB,5,,FHRS,0
253097,Shop At Knole,Knole House,Knole Lane,Sevenoaks,Shop At Knole House,Retailers - other,4613,,,622527,,,51.26407100000000,13/00119/MIXED/S,187,eh.support@dartford.gov.uk,Sevenoaks,http://www.sevenoaks.gov.uk/,0.21116800000000,TN15 0RP,2013-12-13,fhrs_exempt_en-GB,Exempt,,FHRS,
253098,Shoreham County Primary School,Church Street,Shoreham,Kent,Shoreham Primary School,School/college/university,7845,0,,504341,0,,51.33312400000000,13/00015/FOOD/S,187,eh.support@dartford.gov.uk,Sevenoaks,http://www.sevenoaks.gov.uk/,0.17842600000000,TN14 7SN,2014-07-10,fhrs_2_en-GB,2,,FHRS,15
253099,Shoreham Post Office,35 High Street,Shoreham,Sevenoaks,Shoreham Village Store,Retailers - other,4613,10,,266773,10,,51.33519200000000,06620/0035/2/000,187,eh.support@dartford.gov.uk,Sevenoaks,http://www.sevenoaks.gov.uk/,0.17746200000000,TN14 7TB,2015-01-05,fhrs_3_en-GB,3,,FHRS,10
253100,,,,,Shoscombe Bed And Breakfast,Hotel/bed & breakfast/guest house,7842,10,,580447,5,,,13/00091/MIXED/S,187,eh.support@dartford.gov.uk,Sevenoaks,http://www.sevenoaks.gov.uk/,,,2013-08-05,fhrs_4_en-GB,4,,FHRS,0
253101,38 Shurlock Avenue,Swanley,Kent,,Shurlock Stores,Retailers - other,4613,20,,266676,10,,51.40227200000000,04/00352/MIXED,187,eh.support@dartford.gov.uk,Sevenoaks,http://www.sevenoaks.gov.uk/,0.16819600000000,BR8 7ST,2014-02-14,fhrs_1_en-GB,1,,FHRS,5
253102,Silverleigh Health & Leisure Centre,London Road,West Kingsdown,Sevenoaks,Silverleigh Health And Leisure Centre,Other catering premises,7841,5,,266672,0,,51.35208000000000,04/00346/MIXED,187,eh.support@dartford.gov.uk,Sevenoaks,http://www.sevenoaks.gov.uk/,0.25310300000000,TN15 6EX,2013-06-11,fhrs_4_en-GB,4,,FHRS,10
253103,Sevenoaks Masonic Hall Ltd,119A St Johns Hill,Sevenoaks,KENT,Simply Catering At Sevenoaks Masonic Lodge,Other catering premises,7841,5,,632247,5,,51.28747600000000,14/00013/MIXED/S,187,eh.support@dartford.gov.uk,Sevenoaks,http://www.sevenoaks.gov.uk/,0.19470900000000,TN13 3PE,2014-01-22,fhrs_4_en-GB,4,,FHRS,10
253104,,,,,Simply Gorgeous Cakes,Mobile caterer,7846,0,,464179,5,,,12/00056/FOOD/S,187,eh.support@dartford.gov.uk,Sevenoaks,http://www.sevenoaks.gov.uk/,,,2012-10-24,fhrs_5_en-GB,5,,FHRS,5
253105,,,,,Simply Sandwiches,Other catering premises,7841,5,,266666,10,,,04/00337/MIXED,187,eh.support@dartford.gov.uk,Sevenoaks,http://www.sevenoaks.gov.uk/,,,2014-07-25,fhrs_3_en-GB,3,,FHRS,10
253106,Skeet Hill House,Skeet Hill Lane,Chelsfield,Orpington,Skeet Hill House,Other catering premises,7841,10,,266495,5,,51.37040300000000,03/00098/MIXED,187,eh.support@dartford.gov.uk,Sevenoaks,http://www.sevenoaks.gov.uk/,0.14266700000000,BR5 4EX,2014-11-21,fhrs_4_en-GB,4,,FHRS,5
253107,Solefields Road,Sevenoaks,KENT,,Solefield School,School/college/university,7845,5,,409900,0,,51.26147400000000,12/00024/FOOD/S,187,eh.support@dartford.gov.uk,Sevenoaks,http://www.sevenoaks.gov.uk/,0.19246700000000,TN13 1PH,2013-11-13,fhrs_4_en-GB,4,,FHRS,10
253108,Soprano Delicatessen Ltd,8 Dorset Street,Sevenoaks,KENT,Soprano,Restaurant/Cafe/Canteen,1,5,,669000,5,,51.27091400000000,14/00055/MIXED/S,187,eh.support@dartford.gov.uk,Sevenoaks,http://www.sevenoaks.gov.uk/,0.19211300000000,TN13 1LL,2014-04-24,fhrs_4_en-GB,4,,FHRS,10
253109,,,,,Soupa Soups,Manufacturers/packers,7839,0,,267033,0,,,11/00099/FOOD,187,eh.support@dartford.gov.uk,Sevenoaks,http://www.sevenoaks.gov.uk/,,,2011-11-04,fhrs_5_en-GB,5,,FHRS,0
253110,Residents Restaurant,Southdowns,South Darenth,Dartford,Southdowns Restaurant Welfare Dwellings,Restaurant/Cafe/Canteen,1,5,,266501,0,,51.40129100000000,03/00151/MAIN,187,eh.support@dartford.gov.uk,Sevenoaks,http://www.sevenoaks.gov.uk/,0.25405500000000,DA4 9LG,2014-06-05,fhrs_4_en-GB,4,,FHRS,10
253111,Unit 4,Speedgate Farm,Speedgate Hill,Fawkham,Speedgate Farm Coffee Shop,Restaurant/Cafe/Canteen,1,0,,266550,0,,51.36965700000000,03/00462/MAIN,187,eh.support@dartford.gov.uk,Sevenoaks,http://www.sevenoaks.gov.uk/,0.26873600000000,DA3 8NJ,2013-10-14,fhrs_5_en-GB,5,,FHRS,0
253112,57-59 High Street,Sevenoaks,Kent,,Spice Club,Restaurant/Cafe/Canteen,1,10,,266513,15,,51.26899400000000,03/00204/MIXED,187,eh.support@dartford.gov.uk,Sevenoaks,http://www.sevenoaks.gov.uk/,0.19331200000000,TN13 1JF,2013-06-05,fhrs_2_en-GB,2,,FHRS,10
253113,4 Carlton Parade,St. Johns Hill,Sevenoaks,Kent,Spice Lounge,Restaurant/Cafe/Canteen,1,10,,266616,15,,51.28645600000000,03/00683/MIXED,187,eh.support@dartford.gov.uk,Sevenoaks,http://www.sevenoaks.gov.uk/,0.19536300000000,TN13 3NZ,2013-03-06,fhrs_2_en-GB,2,,FHRS,10
253114,29 The Row,New Ash Green,Longfield,Kent,Spice Village,Takeaway/sandwich shop,7844,10,,266738,5,,51.36601900000000,06/00043/MIXED,187,eh.support@dartford.gov.uk,Sevenoaks,http://www.sevenoaks.gov.uk/,0.30491800000000,DA3 8JB,2011-02-24,fhrs_3_en-GB,3,,FHRS,10
253115,Axstane House,Hever Road,West Kingsdown,Sevenoaks,Springles Day Nursery,Other catering premises,7841,5,,266488,10,,51.35052400000000,03/00040/MIXED,187,eh.support@dartford.gov.uk,Sevenoaks,http://www.sevenoaks.gov.uk/,0.25684700000000,TN15 6HD,2015-01-06,fhrs_4_en-GB,4,,FHRS,0
253116,Walker House,London Road,Riverhead,Sevenoaks,Squiggles Childcare Ltd,Hospitals/Childcare/Caring Premises,5,0,,266817,5,,51.28889700000000,08/00023/MIXED,187,eh.support@dartford.gov.uk,Sevenoaks,http://www.sevenoaks.gov.uk/,0.16914700000000,TN13 2DN,2014-10-13,fhrs_5_en-GB,5,,FHRS,5
253117,Hartley CP School,Round Ash Way,Hartley,Longfield,Squirrel Breakfast Club,School/college/university,7845,5,,266943,5,,51.38340400000000,10/00075/FOOD,187,eh.support@dartford.gov.uk,Sevenoaks,http://www.sevenoaks.gov.uk/,0.30304700000000,DA3 8BT,2014-06-12,fhrs_5_en-GB,5,,FHRS,0
253118,St. Bartholemews Rc Primary School,Sycamore Drive,Swanley,Kent,St Bartholomews RC Primary School,School/college/university,7845,0,,267087,5,,51.39898600000000,14500/2003/2/000,187,eh.support@dartford.gov.uk,Sevenoaks,http://www.sevenoaks.gov.uk/,0.17471100000000,BR8 7AY,2013-05-14,fhrs_5_en-GB,5,,FHRS,0
253119,The Pavilion,London Road,West Kingsdown,Sevenoaks,St Edmunds Pop In,Restaurant/Cafe/Canteen,1,5,,266794,5,,51.34435600000000,07/00047/MIXED,187,eh.support@dartford.gov.uk,Sevenoaks,http://www.sevenoaks.gov.uk/,0.25816700000000,TN15 6BZ,2012-03-28,fhrs_5_en-GB,5,,FHRS,5
253120,St Johns C Of E Primary School,Bayham Road,Sevenoaks,KENT,St Johns CEP Primary School,School/college/university,7845,,,486869,,,51.28141800000000,12/00070/HELA/S,187,eh.support@dartford.gov.uk,Sevenoaks,http://www.sevenoaks.gov.uk/,0.20027100000000,TN13 3XD,2014-12-17,fhrs_4_en-GB,4,,FHRS,
253121,Rumshott Estate Ltd,St Julians,St Julians Road,Underriver,St Julians Club,Restaurant/Cafe/Canteen,1,5,,267093,10,,,15610/2033/2/000,187,eh.support@dartford.gov.uk,Sevenoaks,http://www.sevenoaks.gov.uk/,,,2015-01-19,fhrs_3_en-GB,3,,FHRS,10
253122,Main Road,Knockholt,KENT,,St Katharines Knockholt C Of E Primary School,School/college/university,7845,5,,609643,0,,51.30929400000000,13/00140/FOOD/S,187,eh.support@dartford.gov.uk,Sevenoaks,http://www.sevenoaks.gov.uk/,0.10403400000000,TN14 7LS,2013-11-18,fhrs_5_en-GB,5,,FHRS,0
253123,St Lawrence Village Hall,St Lawrence Village Hall,Church Road,Stone Street,St Lawrence Pre-School,Hospitals/Childcare/Caring Premises,5,10,,266992,10,,51.27147100000000,11/00043/FOOD,187,eh.support@dartford.gov.uk,Sevenoaks,http://www.sevenoaks.gov.uk/,0.25463400000000,TN15 0LL,2011-05-25,fhrs_4_en-GB,4,,FHRS,0
253124,St. Lukes Church,Eardley Road,Sevenoaks,Kent,St Luke's Church Hall,Other catering premises,7841,,,266634,,,51.27432600000000,04/00086/MIXED,187,eh.support@dartford.gov.uk,Sevenoaks,http://www.sevenoaks.gov.uk/,0.18664100000000,TN13 1XT,2013-07-04,fhrs_exempt_en-GB,Exempt,,FHRS,
253125,15 The Glebe Field,Shoreham Lane,Sevenoaks,Kent,St Marys Abbeyfield,Hospitals/Childcare/Caring Premises,5,0,,267071,5,,51.28202300000000,13050/0015/0/000,187,eh.support@dartford.gov.uk,Sevenoaks,http://www.sevenoaks.gov.uk/,0.17219300000000,TN13 3DR,2014-07-22,fhrs_5_en-GB,5,,FHRS,0
253126,St Marys Road,Swanley,KENT,,St Marys Church Of England Primary School,School/college/university,7845,5,,517576,0,,51.39499000000000,13/00030/FOOD/S,187,eh.support@dartford.gov.uk,Sevenoaks,http://www.sevenoaks.gov.uk/,0.16859900000000,BR8 7BU,2014-12-15,fhrs_5_en-GB,5,,FHRS,5
253127,St Pauls Church Of England School,School Lane,Swanley,KENT,St Pauls C Of E Primary School,School/college/university,7845,5,,687702,5,,51.40694700000000,14/00078/FOOD/S,187,eh.support@dartford.gov.uk,Sevenoaks,http://www.sevenoaks.gov.uk/,0.19533500000000,BR8 7PJ,2014-07-15,fhrs_5_en-GB,5,,FHRS,0
253128,St. Thomas Rc Primary School,South Park,Sevenoaks,Kent,St Thomas Roman Catholic School,School/college/university,7845,5,,267073,10,,51.27073500000000,13430/9001/2/000,187,eh.support@dartford.gov.uk,Sevenoaks,http://www.sevenoaks.gov.uk/,0.18823400000000,TN13 1EH,2014-05-21,fhrs_4_en-GB,4,,FHRS,0
253129,St. Michaels School,St. Michaels Drive,Otford,Sevenoaks,St. Michaels School,School/college/university,7845,5,,266504,5,,,03/00172/MAIN,187,eh.support@dartford.gov.uk,Sevenoaks,http://www.sevenoaks.gov.uk/,,,2014-06-13,fhrs_5_en-GB,5,,FHRS,5
253130,St. Nicholas Church,Rectory Lane,Sevenoaks,Kent,St. Nicholas Undercroft Kitchen And Coffee Shop,Restaurant/Cafe/Canteen,1,5,,266555,5,,,03/00558/MIXED,187,eh.support@dartford.gov.uk,Sevenoaks,http://www.sevenoaks.gov.uk/,,,2014-09-05,fhrs_5_en-GB,5,,FHRS,5
253131,Emmetts Gardens,Ide Hill,Sevenoaks,Kent,Stable Tea Rooms And Shop At Emmetts Gardens,Restaurant/Cafe/Canteen,1,5,,266568,0,,,03/00611/MIXED,187,eh.support@dartford.gov.uk,Sevenoaks,http://www.sevenoaks.gov.uk/,,,2013-10-02,fhrs_5_en-GB,5,,FHRS,5
253132,London Road,Sevenoaks,Kent,,Stag Community Arts Centre,Restaurant/Cafe/Canteen,1,10,,266877,5,,51.27007100000000,09/00051/FOOD,187,eh.support@dartford.gov.uk,Sevenoaks,http://www.sevenoaks.gov.uk/,0.19198700000000,TN13 1ZZ,2013-02-06,fhrs_3_en-GB,3,,FHRS,10
253133,Stanholm Residential Care Home,Mill Hill,Edenbridge,Kent,Stanholm Residential Care Home,Other catering premises,7841,5,,266899,5,,51.19115800000000,09540/9076/2/000,187,eh.support@dartford.gov.uk,Sevenoaks,http://www.sevenoaks.gov.uk/,0.06732000000000,TN8 5DB,2014-07-30,fhrs_5_en-GB,5,,FHRS,0
253134,Stantons Newsagent,2 Manse Parade,London Road,Swanley,Stantons,Retailers - other,4613,20,,721995,5,,51.39190200000000,14/00114/MIXED/S,187,eh.support@dartford.gov.uk,Sevenoaks,http://www.sevenoaks.gov.uk/,0.18712500000000,BR8 8DA,2014-12-08,fhrs_1_en-GB,1,,FHRS,5
253135,Steep Hill School,Castle Hill,Fawkham,Longfield,Steep Hill School,School/college/university,7845,5,,266596,0,,51.38807200000000,03/00651/FOOD,187,eh.support@dartford.gov.uk,Sevenoaks,http://www.sevenoaks.gov.uk/,0.29475800000000,DA3 7BG,2013-10-09,fhrs_5_en-GB,5,,FHRS,5
253136,23 High Street,Seal,KENT,,Stefanos,Restaurant/Cafe/Canteen,1,0,,647163,5,,51.28871600000000,14/00032/MIXED/S,187,eh.support@dartford.gov.uk,Sevenoaks,http://www.sevenoaks.gov.uk/,0.22097100000000,TN15 0AN,2014-03-21,fhrs_5_en-GB,5,,FHRS,5
253137,49 Swanley Centre,Swanley,Kent,,Step-In Cafe,Restaurant/Cafe/Canteen,1,10,,267084,10,,51.39675500000000,14440/0049/0/000,187,eh.support@dartford.gov.uk,Sevenoaks,http://www.sevenoaks.gov.uk/,0.17378600000000,BR8 7TQ,2015-01-05,fhrs_3_en-GB,3,,FHRS,10
253138,24 Swanley Centre,London Road,Swanley,KENT,Subway,Restaurant/Cafe/Canteen,1,5,,622530,5,,51.39623600000000,13/00159/MIXED/S,187,eh.support@dartford.gov.uk,Sevenoaks,http://www.sevenoaks.gov.uk/,0.17462400000000,BR8 7TG,2013-12-09,fhrs_5_en-GB,5,,FHRS,0
253139,97 High Street,Sevenoaks,KENT,,Subway,Other catering premises,7841,0,,267025,5,,51.27080700000000,11/00090/MIXED,187,eh.support@dartford.gov.uk,Sevenoaks,http://www.sevenoaks.gov.uk/,0.19256700000000,TN13 1LH,2015-02-05,fhrs_5_en-GB,5,,FHRS,0
253140,,,,,Sugar And Butter,Mobile caterer,7846,0,,464175,0,,,12/00050/FOOD/S,187,eh.support@dartford.gov.uk,Sevenoaks,http://www.sevenoaks.gov.uk/,,,2012-10-10,fhrs_5_en-GB,5,,FHRS,0
253141,1 Winterton Court,Market Square,Westerham,Kent,Sultan Kebab House,Other catering premises,7841,5,,266897,10,,51.26692200000000,09200/2000/2/000,187,eh.support@dartford.gov.uk,Sevenoaks,http://www.sevenoaks.gov.uk/,0.07058900000000,TN16 1AL,2013-07-30,fhrs_4_en-GB,4,,FHRS,5
253142,61 High Street,Sevenoaks,Kent,,Sun Do Restaurant,Restaurant/Cafe/Canteen,1,5,,266768,5,,51.26899400000000,06610/0061/0/000,187,eh.support@dartford.gov.uk,Sevenoaks,http://www.sevenoaks.gov.uk/,0.19331200000000,TN13 1JF,2014-04-09,fhrs_5_en-GB,5,,FHRS,5
253143,27 London Road,Riverhead,Sevenoaks,Kent,Sun On,Other catering premises,7841,10,,266426,15,,51.28479500000000,01/00039/MIXED,187,eh.support@dartford.gov.uk,Sevenoaks,http://www.sevenoaks.gov.uk/,0.16968500000000,TN13 2BU,2013-05-09,fhrs_2_en-GB,2,,FHRS,10
253144,18 The Row,New Ash Green,Longfield,Kent,Sun Rise Chinese Take Away,Other catering premises,7841,0,,266471,10,,51.36601900000000,02/00308/MIXED,187,eh.support@dartford.gov.uk,Sevenoaks,http://www.sevenoaks.gov.uk/,0.30491800000000,DA3 8JB,2013-05-01,fhrs_4_en-GB,4,,FHRS,10
253145,Sundridge And Brasted COE Primary S,Sundridge Primary School,Church Road,Sundridge,Sundridge And Brasted CEP School,School/college/university,7845,0,,479202,0,,51.27474800000000,12/00058/FOOD/S,187,eh.support@dartford.gov.uk,Sevenoaks,http://www.sevenoaks.gov.uk/,0.12711600000000,TN14 6EA,2012-11-14,fhrs_5_en-GB,5,,FHRS,0
253146,132 Main Road,Sundridge,Sevenoaks,Kent,Sundridge And Brasted Social Club,Pub/bar/nightclub,7843,,,266857,,,51.27818400000000,08980/0132/0/000,187,eh.support@dartford.gov.uk,Sevenoaks,http://www.sevenoaks.gov.uk/,0.12363300000000,TN14 6ET,2014-03-18,fhrs_exempt_en-GB,Exempt,,FHRS,
253147,144 Main Road,Sundridge,Sevenoaks,Kent,Sundridge Supermarket,Retailers - other,4613,10,,266717,5,,51.27818400000000,05/00248/MIXED,187,eh.support@dartford.gov.uk,Sevenoaks,http://www.sevenoaks.gov.uk/,0.12363300000000,TN14 6ET,2014-12-03,fhrs_3_en-GB,3,,FHRS,10
253148,Sunrise Of Sevenoaks,64 Westerham Road,Bessels Green,Sevenoaks,Sunrise Senior Living Of Sevenoaks,Other catering premises,7841,0,,266888,5,,51.27988500000000,09/00064/MIXED,187,eh.support@dartford.gov.uk,Sevenoaks,http://www.sevenoaks.gov.uk/,0.15554400000000,TN13 2PZ,2014-04-02,fhrs_5_en-GB,5,,FHRS,0
253149,10 Swanley Centre,Swanley,Kent,,Superdrug Stores Plc,Retailers - other,4613,0,,266379,5,,51.39628200000000,00/00020/MIXED,187,eh.support@dartford.gov.uk,Sevenoaks,http://www.sevenoaks.gov.uk/,0.17456800000000,BR8 7TG,2012-01-10,fhrs_5_en-GB,5,,FHRS,0
253150,Superfry Fish Bar,5 High Street,Swanley,KENT,Superfry,Takeaway/sandwich shop,7844,5,,733915,5,,51.39524600000000,15/00010/MIXED/S,187,eh.support@dartford.gov.uk,Sevenoaks,http://www.sevenoaks.gov.uk/,0.17804100000000,BR8 8AE,2015-01-28,fhrs_5_en-GB,5,,FHRS,5
253151,UNit 7,Warsop Trading Estate,Hever Road,Edenbridge,Supreme Cuisine,Distributors/Transporters,7,10,,266615,0,,51.19207000000000,03/00682/MIXED,187,eh.support@dartford.gov.uk,Sevenoaks,http://www.sevenoaks.gov.uk/,0.07121100000000,TN8 5LD,2013-12-17,fhrs_4_en-GB,4,,FHRS,10
253152,38 Hever Road,West Kingsdown,Sevenoaks,Kent,Suters,Retailers - other,4613,5,,266752,5,,51.35052400000000,06350/0038/0/000,187,eh.support@dartford.gov.uk,Sevenoaks,http://www.sevenoaks.gov.uk/,0.25684700000000,TN15 6HD,2015-02-03,fhrs_5_en-GB,5,,FHRS,5
253153,Ground Floor Part And First Floor,16 High Street,Swanley,KENT,Swanley And District Food Bank,Retailers - other,4613,0,,657818,0,,51.39503900000000,14/00048/FOOD/S,187,eh.support@dartford.gov.uk,Sevenoaks,http://www.sevenoaks.gov.uk/,0.17757100000000,BR8 8BG,2014-04-22,fhrs_5_en-GB,5,,FHRS,5
253154,14 High Street,Swanley,Kent,,Swanley Bakery,Manufacturers/packers,7839,10,,266775,10,,51.39523600000000,06640/0014/0/000,187,eh.support@dartford.gov.uk,Sevenoaks,http://www.sevenoaks.gov.uk/,0.17715000000000,BR8 8BE,2014-08-12,fhrs_3_en-GB,3,,FHRS,10
253155,Woodlands,Hilda May Avenue,Swanley,Kent,Swanley Banqueting,Restaurant/Cafe/Canteen,1,5,,266778,5,,51.40108300000000,06690/2002/2/000,187,eh.support@dartford.gov.uk,Sevenoaks,http://www.sevenoaks.gov.uk/,0.17170500000000,BR8 7BT,2015-01-05,fhrs_5_en-GB,5,,FHRS,5
253156,23 Swanley Lane,Swanley,Kent,,Swanley House (The Drive Care Homes Ltd),Hospitals/Childcare/Caring Premises,5,10,,266523,5,,51.39731100000000,03/00235/MIXED,187,eh.support@dartford.gov.uk,Sevenoaks,http://www.sevenoaks.gov.uk/,0.17825400000000,BR8 7JE,2014-08-12,fhrs_4_en-GB,4,,FHRS,5
253157,18 High Street,Swanley,Kent,,Swanley Junction Working Mens Club,Pub/bar/nightclub,7843,5,,266579,5,,51.39503900000000,03/00628/MIXED,187,eh.support@dartford.gov.uk,Sevenoaks,http://www.sevenoaks.gov.uk/,0.17757100000000,BR8 8BG,2012-03-29,fhrs_5_en-GB,5,,FHRS,5
253158,Christ Church Centre,Kingswood Avenue,Swanley,KENT,Swanley Kindergarden,Hospitals/Childcare/Caring Premises,5,,,647170,,,51.39568000000000,14/00041/MIXED/S,187,eh.support@dartford.gov.uk,Sevenoaks,http://www.sevenoaks.gov.uk/,0.18227400000000,BR8 8AN,2014-03-13,fhrs_exempt_en-GB,Exempt,,FHRS,
253159,47 Swanley Centre,Swanley,Kent,,Swanley Pharmacy,Retailers - other,4613,,,266467,,,51.39675500000000,02/00299/MIXED,187,eh.support@dartford.gov.uk,Sevenoaks,http://www.sevenoaks.gov.uk/,0.17378600000000,BR8 7TQ,2013-01-10,fhrs_exempt_en-GB,Exempt,,FHRS,
253160,11 - 13 Lynden Way,Swanley,KENT,,Swanley Produce And Wine Store,Retailers - other,4613,5,,266718,5,,51.39636700000000,05/00249/MIXED,187,eh.support@dartford.gov.uk,Sevenoaks,http://www.sevenoaks.gov.uk/,0.16363200000000,BR8 7DN,2013-07-29,fhrs_4_en-GB,4,,FHRS,10
253161,3 High Street,Swanley,Kent,,Swanley Tandoori,Other catering premises,7841,5,,266858,10,,51.39524600000000,09/00004/HELA,187,eh.support@dartford.gov.uk,Sevenoaks,http://www.sevenoaks.gov.uk/,0.17804100000000,BR8 8AE,2013-09-11,fhrs_3_en-GB,3,,FHRS,10
253162,Swanley Youth & Community Centre,St. Marys Road,Swanley,Kent,Swanley Youth & Community Centre,Other catering premises,7841,,,267076,,,51.39499000000000,13850/2001/2/000,187,eh.support@dartford.gov.uk,Sevenoaks,http://www.sevenoaks.gov.uk/,0.16859900000000,BR8 7BU,2014-03-12,fhrs_exempt_en-GB,Exempt,,FHRS,
253163,Unit 2,Bat & Ball Enterprise Centre,Bat & Ball Road,Sevenoaks,T & W Bakeries Enterprises Ltd,Manufacturers/packers,7839,0,,266784,5,,51.29066200000000,07/00011/FOOD,187,eh.support@dartford.gov.uk,Sevenoaks,http://www.sevenoaks.gov.uk/,0.19554900000000,TN14 5LJ,2013-05-21,fhrs_5_en-GB,5,,FHRS,5
253164,49 High Street,Edenbridge,Kent,,T A Allman,Retailers - other,4613,5,,266544,10,,51.19673600000000,03/00389/MAIN,187,eh.support@dartford.gov.uk,Sevenoaks,http://www.sevenoaks.gov.uk/,0.06517900000000,TN8 5AL,2014-12-04,fhrs_4_en-GB,4,,FHRS,5
253165,Tabsfield,Eynsford Road,Eynsford,Dartford,Tabsfield,Other catering premises,7841,0,,266892,0,,51.37460900000000,09/00069/FOOD,187,eh.support@dartford.gov.uk,Sevenoaks,http://www.sevenoaks.gov.uk/,0.22150500000000,DA4 0BG,2013-07-01,fhrs_5_en-GB,5,,FHRS,0
253166,110 London Road,Dunton Green,Sevenoaks,Kent,Taj Tandoori,Takeaway/sandwich shop,7844,0,,266413,5,,51.29453600000000,01/00017/MIXED,187,eh.support@dartford.gov.uk,Sevenoaks,http://www.sevenoaks.gov.uk/,0.16668700000000,TN13 2UT,2013-04-30,fhrs_5_en-GB,5,,FHRS,5
253167,Tally Ho,Main Road,Knockholt,Sevenoaks,Tally Ho,Pub/bar/nightclub,7843,20,,266612,15,,51.30617700000000,03/00676/MIXED,187,eh.support@dartford.gov.uk,Sevenoaks,http://www.sevenoaks.gov.uk/,0.09633000000000,TN14 7NT,2014-06-06,fhrs_1_en-GB,1,,FHRS,15
253168,Unit 15,Wealden Place,Bradbourne Vale Road,Sevenoaks,Tandem Catering,Other catering premises,7841,10,,266436,15,,51.28739400000000,01420/4208/3/015,187,eh.support@dartford.gov.uk,Sevenoaks,http://www.sevenoaks.gov.uk/,0.19282600000000,TN13 3QQ,2013-06-26,fhrs_2_en-GB,2,,FHRS,0
253169,47 High Street,Seal,Sevenoaks,Kent,Tandoori Nights,Takeaway/sandwich shop,7844,0,,266655,5,,51.28856300000000,04/00320/MIXED,187,eh.support@dartford.gov.uk,Sevenoaks,http://www.sevenoaks.gov.uk/,0.22287100000000,TN15 0AW,2014-03-21,fhrs_5_en-GB,5,,FHRS,5
253170,High Street,Brasted,KENT,,Tarte,Other catering premises,7841,5,,606182,5,,51.27587600000000,13/00072/MIXED/S,187,eh.support@dartford.gov.uk,Sevenoaks,http://www.sevenoaks.gov.uk/,0.11254300000000,TN16 1JE,2013-06-03,fhrs_5_en-GB,5,,FHRS,5
253171,,,,,Tasty Cakes,Other catering premises,7841,0,,668999,0,,,13/00094/FOOD/S,187,eh.support@dartford.gov.uk,Sevenoaks,http://www.sevenoaks.gov.uk/,,,2013-05-24,fhrs_5_en-GB,5,,FHRS,0
253172,Polhill Garden Centre Ltd,Polhill Garden Centre,London Road,Badgers Mount,Taylors Of London,Retailers - other,4613,0,,721994,10,,51.33134000000000,14/00113/MIXED/S,187,eh.support@dartford.gov.uk,Sevenoaks,http://www.sevenoaks.gov.uk/,0.14986000000000,TN14 7AD,2014-11-25,fhrs_4_en-GB,4,,FHRS,10
253173,,,,,Teacups And Fancies,Other catering premises,7841,5,,681318,5,,,14/00072/FOOD/S,187,eh.support@dartford.gov.uk,Sevenoaks,http://www.sevenoaks.gov.uk/,,,2014-07-02,fhrs_5_en-GB,5,,FHRS,5
253174,Teddies Nursery,Amherst Hill,Riverhead,Sevenoaks,Teddies Nurseries,Hospitals/Childcare/Caring Premises,5,5,,266445,0,,51.28315000000000,02/00261/MIXED,187,eh.support@dartford.gov.uk,Sevenoaks,http://www.sevenoaks.gov.uk/,0.17107000000000,TN13 2EL,2014-11-07,fhrs_5_en-GB,5,,FHRS,5
253175,39 - 41 High Street,Edenbridge,Kent,,Tesco,Retailers - supermarkets/hypermarkets,7840,10,,266884,0,,51.19737900000000,09/00060/MIXED,187,eh.support@dartford.gov.uk,Sevenoaks,http://www.sevenoaks.gov.uk/,0.06493600000000,TN8 5AD,2012-10-11,fhrs_4_en-GB,4,,FHRS,0
253176,Tesco Store,London Road,Riverhead,Sevenoaks,Tesco,Retailers - supermarkets/hypermarkets,7840,0,,266654,0,,51.29919100000000,04/00319/MAIN,187,eh.support@dartford.gov.uk,Sevenoaks,http://www.sevenoaks.gov.uk/,0.16248300000000,,2014-02-27,fhrs_5_en-GB,5,,FHRS,5
253177,Tesco,136 High Street,Sevenoaks,KENT,Tesco Stores Ltd,Retailers - supermarkets/hypermarkets,7840,5,,266769,0,,51.27169000000000,06610/0136/0/000,187,eh.support@dartford.gov.uk,Sevenoaks,http://www.sevenoaks.gov.uk/,0.19292400000000,TN13 1XA,2012-07-23,fhrs_4_en-GB,4,,FHRS,10
253178,32 London Road,Sevenoaks,Kent,,The Anchor,Pub/bar/nightclub,7843,10,,266585,0,,51.27147600000000,03/00636/MIXED,187,eh.support@dartford.gov.uk,Sevenoaks,http://www.sevenoaks.gov.uk/,0.19139400000000,TN13 1AS,2014-06-05,fhrs_4_en-GB,4,,FHRS,10
253179,The Badger,The Row,New Ash Green,Longfield,The Badger,Pub/bar/nightclub,7843,10,,267090,0,,51.36601900000000,15120/0000/2/000,187,eh.support@dartford.gov.uk,Sevenoaks,http://www.sevenoaks.gov.uk/,0.30491800000000,DA3 8JB,2012-06-12,fhrs_4_en-GB,4,,FHRS,5
253180,25 College Road,Hextable,Swanley,Kent,The Bakery,Manufacturers/packers,7839,10,,266619,5,,51.41008500000000,03160/0025/0/000,187,eh.support@dartford.gov.uk,Sevenoaks,http://www.sevenoaks.gov.uk/,0.17899100000000,BR8 7LN,2015-01-20,fhrs_4_en-GB,4,,FHRS,5
253181,The Bell,High Street,Kemsing,Sevenoaks,The Bell,Pub/bar/nightclub,7843,,,266762,,,51.30568300000000,06530/2027/2/000,187,eh.support@dartford.gov.uk,Sevenoaks,http://www.sevenoaks.gov.uk/,0.23014100000000,TN15 6NB,2014-09-16,fhrs_5_en-GB,5,,FHRS,
253182,13 Bank Street,Sevenoaks,Kent,,The Black Boy Pub,Pub/bar/nightclub,7843,10,,266399,10,,51.27101400000000,00570/0013/0/000,187,eh.support@dartford.gov.uk,Sevenoaks,http://www.sevenoaks.gov.uk/,0.19206000000000,TN13 1UW,2014-03-11,fhrs_3_en-GB,3,,FHRS,10
253183,,,,,The Bonbon Bakery,Manufacturers/packers,7839,0,,556133,0,,,13/00062/FOOD/S,187,eh.support@dartford.gov.uk,Sevenoaks,http://www.sevenoaks.gov.uk/,,,2013-06-12,fhrs_5_en-GB,5,,FHRS,0
253184,The Bottle House,Coldharbour Road,Penshurst,Tonbridge,The Bottle House Inn,Pub/bar/nightclub,7843,0,,266684,0,,51.15868000000000,04/00361/MIXED,187,eh.support@dartford.gov.uk,Sevenoaks,http://www.sevenoaks.gov.uk/,0.16593600000000,TN11 8ET,2014-02-19,fhrs_5_en-GB,5,,FHRS,0
253185,The Bridges,Horton Road,South Darenth,KENT,The Bridges Public House,Pub/bar/nightclub,7843,0,,266591,0,,51.40187300000000,03/00646/MIXED,187,eh.support@dartford.gov.uk,Sevenoaks,http://www.sevenoaks.gov.uk/,0.24619000000000,DA4 9AX,2014-02-12,fhrs_5_en-GB,5,,FHRS,0
253186,The Bull,High Street,Otford,Sevenoaks,The Bull,Pub/bar/nightclub,7843,0,,266748,0,,51.31284900000000,06/00074/MIXED,187,eh.support@dartford.gov.uk,Sevenoaks,http://www.sevenoaks.gov.uk/,0.18782600000000,TN14 5PG,2013-06-24,fhrs_4_en-GB,4,,FHRS,10
253187,The Bull,The Bull Inn,Lombard Street,Horton Kirby,The Bull Inn,Pub/bar/nightclub,7843,10,,537284,0,,51.39108300000000,13/00048/MIXED/S,187,eh.support@dartford.gov.uk,Sevenoaks,http://www.sevenoaks.gov.uk/,0.24468400000000,DA4 9DF,2013-03-26,fhrs_4_en-GB,4,,FHRS,10
253188,Cafe Grill,Sevenoaks Bus Station,Buckhurst Lane,Sevenoaks,The Cafe Grill,Restaurant/Cafe/Canteen,1,0,,266623,5,,51.27100000000000,04/00006/MIXED,187,eh.support@dartford.gov.uk,Sevenoaks,http://www.sevenoaks.gov.uk/,0.19471200000000,TN13 1LX,2014-09-03,fhrs_5_en-GB,5,,FHRS,5
253189,Castle Hotel,Castle Hotel,High Street,Eynsford,The Castle Hotel,Pub/bar/nightclub,7843,5,,657819,5,,51.36948900000000,14/00049/MIXED/S,187,eh.support@dartford.gov.uk,Sevenoaks,http://www.sevenoaks.gov.uk/,0.21453300000000,DA4 0AB,2014-04-17,fhrs_4_en-GB,4,,FHRS,10
253190,51 Swanley Centre,Swanley,Kent,,The Chef,Restaurant/Cafe/Canteen,1,5,,266390,10,,51.39675500000000,00/00057/MIXED,187,eh.support@dartford.gov.uk,Sevenoaks,http://www.sevenoaks.gov.uk/,0.17378600000000,BR8 7TQ,2015-01-05,fhrs_4_en-GB,4,,FHRS,5
253191,73 High Street,Sevenoaks,Kent,,The Chequers,Pub/bar/nightclub,7843,,,266789,,,51.27248300000000,07/00035/MIXED,187,eh.support@dartford.gov.uk,Sevenoaks,http://www.sevenoaks.gov.uk/,0.18995100000000,TN13 1LD,2013-11-18,fhrs_4_en-GB,4,,FHRS,
253192,The Chequers,High Street,Farningham,Dartford,The Chequers,Pub/bar/nightclub,7843,10,,266468,10,,51.38219700000000,02/00303/MIXED,187,eh.support@dartford.gov.uk,Sevenoaks,http://www.sevenoaks.gov.uk/,0.21876800000000,DA4 0DT,2014-03-31,fhrs_3_en-GB,3,,FHRS,10
253193,Chequers,Chequers Inn,Cray Road,Crockenhill,The Chequers Inn,Pub/bar/nightclub,7843,10,,267003,5,,51.38341100000000,11/00061/MIXED,187,eh.support@dartford.gov.uk,Sevenoaks,http://www.sevenoaks.gov.uk/,0.15717200000000,BR8 8LP,2013-03-19,fhrs_3_en-GB,3,,FHRS,10
253194,The Chocolate Shop,London Road,Sevenoaks,Kent,The Chocolate Shop,Retailers - other,4613,5,,266410,0,,51.27179900000000,01/00013/MIXED,187,eh.support@dartford.gov.uk,Sevenoaks,http://www.sevenoaks.gov.uk/,0.19046300000000,TN13 1AU,2013-02-04,fhrs_4_en-GB,4,,FHRS,10
253195,3 Station Road,Swanley,KENT,,The Clove Tandoori Restaurant,Restaurant/Cafe/Canteen,1,0,,546619,5,,51.39490100000000,13/00053/MIXED/S,187,eh.support@dartford.gov.uk,Sevenoaks,http://www.sevenoaks.gov.uk/,0.17579700000000,BR8 8ES,2014-12-02,fhrs_4_en-GB,4,,FHRS,10
253196,Camberwell Lane,Ide Hill,KENT,,The Cock Inn,Pub/bar/nightclub,7843,10,,504330,5,,51.24661500000000,13/00001/MIXED/S,187,eh.support@dartford.gov.uk,Sevenoaks,http://www.sevenoaks.gov.uk/,0.12825300000000,TN14 6JN,2013-07-09,fhrs_2_en-GB,2,,FHRS,15
253197,Shoreham Lane,Halstead,KENT,,The Cock Inn,Pub/bar/nightclub,7843,10,,619225,10,,51.33104300000000,13/00151/MIXED/S,187,eh.support@dartford.gov.uk,Sevenoaks,http://www.sevenoaks.gov.uk/,0.13659700000000,TN14 7DD,2013-11-20,fhrs_3_en-GB,3,,FHRS,10
253198,1 Market Square,Westerham,KENT,,The Comodor,Restaurant/Cafe/Canteen,1,10,,721992,10,,51.26693200000000,14/00111/MIXED/S,187,eh.support@dartford.gov.uk,Sevenoaks,http://www.sevenoaks.gov.uk/,0.07153600000000,TN16 1AN,2014-11-25,fhrs_3_en-GB,3,,FHRS,10
253199,25 Esparto Way,SOUTH DARENTH,KENT,,The Co-operative,Retailers - supermarkets/hypermarkets,7840,0,,647169,0,,51.40291800000000,14/00039/MIXED/S,187,eh.support@dartford.gov.uk,Sevenoaks,http://www.sevenoaks.gov.uk/,0.24562300000000,DA4 9LN,2014-03-31,fhrs_5_en-GB,5,,FHRS,0
253200,Co-op Welcome,30-32 Hever Road,West Kingsdown,KENT,The Co-operative,Retailers - supermarkets/hypermarkets,7840,0,,266377,0,,51.35052400000000,00/00018/MIXED,187,eh.support@dartford.gov.uk,Sevenoaks,http://www.sevenoaks.gov.uk/,0.25684700000000,TN15 6HD,2013-02-05,fhrs_5_en-GB,5,,FHRS,5
253201,19 High Street,Westerham,Kent,,The Courtyard,Restaurant/Cafe/Canteen,1,5,,266891,10,,51.26668300000000,09/00068/MIXED,187,eh.support@dartford.gov.uk,Sevenoaks,http://www.sevenoaks.gov.uk/,0.06981900000000,TN16 1RA,2014-04-25,fhrs_3_en-GB,3,,FHRS,10
253202,The Crown,84 High Street,Shoreham,KENT,The Crown,Pub/bar/nightclub,7843,10,,267049,15,,51.33753200000000,12/00003/MIXED,187,eh.support@dartford.gov.uk,Sevenoaks,http://www.sevenoaks.gov.uk/,0.17834800000000,TN14 7TJ,2013-01-28,fhrs_2_en-GB,2,,FHRS,10
253203,The Crown Public House,10 High Street,Otford,Sevenoaks,The Crown Public House,Pub/bar/nightclub,7843,10,,266476,5,,51.31314700000000,02/00317/MIXED,187,eh.support@dartford.gov.uk,Sevenoaks,http://www.sevenoaks.gov.uk/,0.18871600000000,TN14 5PQ,2014-03-18,fhrs_2_en-GB,2,,FHRS,15
253204,London Road,Dunton Green,Sevenoaks,Kent,The Dukes Head,Pub/bar/nightclub,7843,10,,266881,10,,51.29603000000000,09/00056/MIXED,187,eh.support@dartford.gov.uk,Sevenoaks,http://www.sevenoaks.gov.uk/,0.16563900000000,TN13 2UR,2012-11-07,fhrs_3_en-GB,3,,FHRS,10
253205,The Dynes,Nightingale Road,Kemsing,Sevenoaks,The Dynes,Other catering premises,7841,10,,266958,10,,51.30673800000000,10140/2000/2/000,187,eh.support@dartford.gov.uk,Sevenoaks,http://www.sevenoaks.gov.uk/,0.20867000000000,TN15 6RU,2015-01-12,fhrs_3_en-GB,3,,FHRS,10
253206,The Elms Nursery,Bough Beech Road,Four Elms,KENT,The Elms Cafe,Other catering premises,7841,10,,733487,10,,51.21133400000000,15/00009/MIXED/S,187,eh.support@dartford.gov.uk,Sevenoaks,http://www.sevenoaks.gov.uk/,0.10788400000000,TN8 6ND,2015-01-15,fhrs_3_en-GB,3,,FHRS,10
253207,Bough Beech Road,Four Elms,KENT,,The Elms Nursery,Retailers - other,4613,10,,733486,10,,51.21133400000000,15/00006/MIXED/S,187,eh.support@dartford.gov.uk,Sevenoaks,http://www.sevenoaks.gov.uk/,0.10788400000000,TN8 6ND,2015-01-15,fhrs_3_en-GB,3,,FHRS,10
253208,30 High Street,Cowden,Edenbridge,Kent,The Fountain,Pub/bar/nightclub,7843,5,,266753,10,,51.14447000000000,06470/0030/0/000,187,eh.support@dartford.gov.uk,Sevenoaks,http://www.sevenoaks.gov.uk/,0.09282700000000,TN8 7JG,2013-09-17,fhrs_3_en-GB,3,,FHRS,10
253209,25 The Row,New Ash Green,KENT,,The Fun Shop,Restaurant/Cafe/Canteen,1,10,,636159,0,,51.36601900000000,14/00021/MIXED/S,187,eh.support@dartford.gov.uk,Sevenoaks,http://www.sevenoaks.gov.uk/,0.30491800000000,DA3 8JB,2014-02-21,fhrs_4_en-GB,4,,FHRS,5
253210,The Gamecock,London Road,West Kingsdown,Sevenoaks,The Gamecock,Pub/bar/nightclub,7843,5,,266853,10,,51.34351800000000,08640/2040/2/000,187,eh.support@dartford.gov.uk,Sevenoaks,http://www.sevenoaks.gov.uk/,0.26015000000000,TN15 6EL,2015-01-20,fhrs_4_en-GB,4,,FHRS,5
253211,11-13 The Row,New Ash Green,Longfield,Kent,The Granary,Retailers - other,4613,5,,266414,5,,51.36601900000000,01/00020/FOOD,187,eh.support@dartford.gov.uk,Sevenoaks,http://www.sevenoaks.gov.uk/,0.30491800000000,DA3 8JB,2014-02-27,fhrs_4_en-GB,4,,FHRS,10
253212,2 Bradbourne Park Road,Sevenoaks,Kent,,The Granville School,School/college/university,7845,5,,266633,5,,51.28019000000000,04/00085/FOOD,187,eh.support@dartford.gov.uk,Sevenoaks,http://www.sevenoaks.gov.uk/,0.18178600000000,TN13 3LJ,2013-09-19,fhrs_5_en-GB,5,,FHRS,5
253213,The Greyhound,Charcott,Tonbridge,Kent,The Greyhound,Pub/bar/nightclub,7843,10,,266697,10,,51.20322300000000,05/00072/MIXED,187,eh.support@dartford.gov.uk,Sevenoaks,http://www.sevenoaks.gov.uk/,0.17661500000000,TN11 8LG,2013-05-07,fhrs_3_en-GB,3,,FHRS,10
253214,The Greyhound,Uckfield Lane,Hever,Edenbridge,The Greyhound Inn,Pub/bar/nightclub,7843,0,,266470,0,,51.17586800000000,02/00306/MIXED,187,eh.support@dartford.gov.uk,Sevenoaks,http://www.sevenoaks.gov.uk/,0.10675200000000,TN8 7LJ,2013-08-01,fhrs_5_en-GB,5,,FHRS,5
253215,The Harrow,Harrow Road,Knockholt,Sevenoaks,The Harrow,Pub/bar/nightclub,7843,0,,266918,5,,51.31589300000000,10/00031/MIXED,187,eh.support@dartford.gov.uk,Sevenoaks,http://www.sevenoaks.gov.uk/,0.12706700000000,TN14 7JT,2013-07-11,fhrs_5_en-GB,5,,FHRS,5
253216,4 High Street,Shoreham,Sevenoaks,Kent,The Honey Pot,Restaurant/Cafe/Canteen,1,0,,266797,0,,51.33415900000000,07/00052/MIXED,187,eh.support@dartford.gov.uk,Sevenoaks,http://www.sevenoaks.gov.uk/,0.17787200000000,TN14 7TD,2014-03-27,fhrs_5_en-GB,5,,FHRS,0
253217,Castle Farm,Redmans Lane,Shoreham,Sevenoaks,The Hop Shop,Retailers - other,4613,10,,267061,5,,51.35011400000000,12030/2018/2/000,187,eh.support@dartford.gov.uk,Sevenoaks,http://www.sevenoaks.gov.uk/,0.17106000000000,TN14 7UB,2014-10-14,fhrs_4_en-GB,4,,FHRS,5
253218,The Jolly Miller,East Hill,South Darenth,Dartford,The Jolly Millers,Pub/bar/nightclub,7843,5,,266800,5,,51.40306700000000,07/00056/MIXED,187,eh.support@dartford.gov.uk,Sevenoaks,http://www.sevenoaks.gov.uk/,0.24866400000000,DA4 9AN,2012-03-13,fhrs_4_en-GB,4,,FHRS,10
253219,1 The Parade,Dynes Road,Kemsing,KENT,The Kemsing Newsagent,Retailers - other,4613,5,,267054,5,,51.30767800000000,12/00010/MIXED,187,eh.support@dartford.gov.uk,Sevenoaks,http://www.sevenoaks.gov.uk/,0.20936100000000,TN15 6RE,2015-02-09,fhrs_5_en-GB,5,,FHRS,5
253220,81 High Street,Edenbridge,KENT,,The King And Queen,Pub/bar/nightclub,7843,10,,619222,10,,51.19535100000000,13/00148/MIXED/S,187,eh.support@dartford.gov.uk,Sevenoaks,http://www.sevenoaks.gov.uk/,0.06566100000000,TN8 5AU,2013-11-27,fhrs_3_en-GB,3,,FHRS,10
253221,Kings Head Public House And Restaur,The Kings Head,Bessels Green Road,Bessels Green,The Kings Head,Pub/bar/nightclub,7843,,,669001,,,51.27918300000000,14/00056/MIXED/S,187,eh.support@dartford.gov.uk,Sevenoaks,http://www.sevenoaks.gov.uk/,0.15706000000000,TN13 2QA,2015-01-13,fhrs_4_en-GB,4,,FHRS,
253222,The Lamb,Swanley Village Road,Swanley Village,Swanley,The Lamb,Pub/bar/nightclub,7843,0,,266660,0,,51.40411500000000,04/00326/MIXED,187,eh.support@dartford.gov.uk,Sevenoaks,http://www.sevenoaks.gov.uk/,0.20103700000000,BR8 7NN,2011-08-09,fhrs_5_en-GB,5,,FHRS,5
253223,3 Carlton Parade,St. Johns Hill,Sevenoaks,Kent,The Lantern,Other catering premises,7841,5,,266429,5,,51.28645600000000,01/00042/MIXED,187,eh.support@dartford.gov.uk,Sevenoaks,http://www.sevenoaks.gov.uk/,0.19536300000000,TN13 3NZ,2013-09-19,fhrs_5_en-GB,5,,FHRS,5
253224,The Leicester Arms Hotel,High Street,Penshurst,Kent,The Leicester Arms Hotel,Hotel/bed & breakfast/guest house,7842,0,,669002,5,,51.17250400000000,14/00057/MIXED/S,187,eh.support@dartford.gov.uk,Sevenoaks,http://www.sevenoaks.gov.uk/,0.18229200000000,TN11 8BT,2014-05-06,fhrs_5_en-GB,5,,FHRS,5
253225,,,,,The Lemonade Factory,Mobile caterer,7846,5,,266824,0,,,08/00041/MIXED,187,eh.support@dartford.gov.uk,Sevenoaks,http://www.sevenoaks.gov.uk/,,,2012-10-20,fhrs_5_en-GB,5,,FHRS,0
253226,High Street,Farningham,Dartford,Kent,The Lion,Pub/bar/nightclub,7843,5,,266423,10,,51.38182900000000,01/00035/MIXED,187,eh.support@dartford.gov.uk,Sevenoaks,http://www.sevenoaks.gov.uk/,0.21921100000000,DA4 0DP,2014-08-13,fhrs_2_en-GB,2,,FHRS,15
253227,,,,,The Little Cookery Company,Mobile caterer,7846,0,,582777,0,,,13/00108/FOOD/S,187,eh.support@dartford.gov.uk,Sevenoaks,http://www.sevenoaks.gov.uk/,,,2013-08-30,fhrs_5_en-GB,5,,FHRS,0
253228,Hollybush Recreation Ground,Hollybush Close,Sevenoaks,Kent,The Lodge,Restaurant/Cafe/Canteen,1,0,,266830,0,,51.27703900000000,08/00066/MIXED,187,eh.support@dartford.gov.uk,Sevenoaks,http://www.sevenoaks.gov.uk/,0.19686400000000,TN13 3UX,2013-05-01,fhrs_5_en-GB,5,,FHRS,5
253229,Lullingstone Park Golf Course,Park Gate Road,Chelsfield,Orpington,The Lodge,Restaurant/Cafe/Canteen,1,10,,266960,10,,51.36089200000000,10920/2000/3/RED,187,eh.support@dartford.gov.uk,Sevenoaks,http://www.sevenoaks.gov.uk/,0.16109800000000,BR6 7PX,2014-10-07,fhrs_3_en-GB,3,,FHRS,10
253230,Stag Community Arts Centre,London Road,Sevenoaks,Kent,The Lodge Coffee Shop,Restaurant/Cafe/Canteen,1,5,,266878,0,,51.27007100000000,09/00052/FOOD,187,eh.support@dartford.gov.uk,Sevenoaks,http://www.sevenoaks.gov.uk/,0.19198700000000,TN13 1ZZ,2013-11-13,fhrs_4_en-GB,4,,FHRS,10
253231,South Ash Road,Ash,Sevenoaks,Kent,The London Golf Club,Restaurant/Cafe/Canteen,1,0,,266493,5,,51.34585200000000,03/00071/MAIN,187,eh.support@dartford.gov.uk,Sevenoaks,http://www.sevenoaks.gov.uk/,0.29092400000000,TN15 7EN,2014-04-10,fhrs_5_en-GB,5,,FHRS,0
253232,Manor Farm,Manor Road,Longfield,KENT,The Mexican Food Company,Mobile caterer,7846,0,,733918,0,,51.38768000000000,15/00019/MIXED/S,187,eh.support@dartford.gov.uk,Sevenoaks,http://www.sevenoaks.gov.uk/,0.33324400000000,DA3 8LD,2014-10-15,fhrs_5_en-GB,5,,FHRS,0
253233,22 London Road,Dunton Green,,,The Miners Arms,Pub/bar/nightclub,7843,5,,619224,5,,51.29094600000000,13/00150/MIXED/S,187,eh.support@dartford.gov.uk,Sevenoaks,http://www.sevenoaks.gov.uk/,0.16825400000000,TN13 2UF,2013-12-04,fhrs_5_en-GB,5,,FHRS,5
253234,The Moorings Hotel,97 Hitchen Hatch Lane,Sevenoaks,Kent,The Moorings Hotel,Other catering premises,7841,20,,266779,15,,51.27803600000000,06880/0097/0/000,187,eh.support@dartford.gov.uk,Sevenoaks,http://www.sevenoaks.gov.uk/,0.18300300000000,TN13 3BE,2014-06-10,fhrs_1_en-GB,1,,FHRS,10
253235,The New School At West Heath,Ashgrove Road,Sevenoaks,Kent,The New School At West Heath,School/college/university,7845,0,,266602,0,,51.25474400000000,03/00659/FOOD,187,eh.support@dartford.gov.uk,Sevenoaks,http://www.sevenoaks.gov.uk/,0.18632800000000,TN13 1SR,2013-09-24,fhrs_5_en-GB,5,,FHRS,5
253236,G And D News Kiosk,Swanley Railway Station,Station Approach,Swanley,The News Stand,Retailers - other,4613,20,,267079,0,,,14040/0000/3/002,187,eh.support@dartford.gov.uk,Sevenoaks,http://www.sevenoaks.gov.uk/,,,2014-12-04,fhrs_1_en-GB,1,,FHRS,5
253237,135 High Street,Sevenoaks,KENT,,The Oak Tree,Pub/bar/nightclub,7843,10,,669003,0,,51.27162800000000,14/00058/MIXED/S,187,eh.support@dartford.gov.uk,Sevenoaks,http://www.sevenoaks.gov.uk/,0.19240500000000,TN13 1UP,2014-05-09,fhrs_4_en-GB,4,,FHRS,5
253238,121 High Street,Edenbridge,Kent,,The Old Eden,Pub/bar/nightclub,7843,5,,266734,5,,51.19379600000000,06/00025/MIXED,187,eh.support@dartford.gov.uk,Sevenoaks,http://www.sevenoaks.gov.uk/,0.06613500000000,TN8 5AX,2014-01-16,fhrs_5_en-GB,5,,FHRS,5
253239,,,,,The Old Stable,Hotel/bed & breakfast/guest house,7842,,,611047,,,,13/00143/FOOD/S,187,eh.support@dartford.gov.uk,Sevenoaks,http://www.sevenoaks.gov.uk/,,,2013-11-20,fhrs_exempt_en-GB,Exempt,,FHRS,
253240,Cow Lane,Mark Beech,KENT,,The Old Vicarage,Hotel/bed & breakfast/guest house,7842,0,,464173,0,,51.16417600000000,12/00047/FOOD/S,187,eh.support@dartford.gov.uk,Sevenoaks,http://www.sevenoaks.gov.uk/,0.10929500000000,TN8 5NX,2012-10-02,fhrs_5_en-GB,5,,FHRS,0
253241,The Olympic,Beechenlea Lane,Swanley,Kent,The Olympic,Restaurant/Cafe/Canteen,1,,,266605,,,51.39347500000000,03/00667/FOOD,187,eh.support@dartford.gov.uk,Sevenoaks,http://www.sevenoaks.gov.uk/,0.19056400000000,BR8 8DR,2014-02-27,fhrs_5_en-GB,5,,FHRS,
253242,Stone Street,Seal,KENT,,The Padwell Arms,Pub/bar/nightclub,7843,10,,590034,10,,51.27309600000000,13/00121/MIXED/S,187,eh.support@dartford.gov.uk,Sevenoaks,http://www.sevenoaks.gov.uk/,0.25058500000000,TN15 0LQ,2014-10-23,fhrs_3_en-GB,3,,FHRS,10
253243,Diners Club,Beatrice Wilson Flats,Rockdale Road,Sevenoaks,The Pantry,Restaurant/Cafe/Canteen,1,5,,266859,5,,51.26939100000000,09/00006/MIXED,187,eh.support@dartford.gov.uk,Sevenoaks,http://www.sevenoaks.gov.uk/,0.18987600000000,TN13 1JZ,2013-08-29,fhrs_5_en-GB,5,,FHRS,0
253244,Allsworth Court,38 - 40 St Davids Road,HEXTABLE,KENT,The Parents Consortium,Other catering premises,7841,10,,568430,10,,51.41308200000000,13/00061/MIXED/S,187,eh.support@dartford.gov.uk,Sevenoaks,http://www.sevenoaks.gov.uk/,0.17980900000000,BR8 7RJ,2015-01-01,fhrs_3_en-GB,3,,FHRS,5
253245,Leisure & Swimming Club Ltd,Punch Croft,New Ash Green,Longfield,The Pavillion,Other catering premises,7841,5,,266492,0,,51.36299700000000,03/00070/MIXED,187,eh.support@dartford.gov.uk,Sevenoaks,http://www.sevenoaks.gov.uk/,0.30311400000000,DA3 8HS,2014-04-11,fhrs_5_en-GB,5,,FHRS,0
253246,,,,,"The Pightle,  Bed And Breakfast",Hotel/bed & breakfast/guest house,7842,5,,594365,0,,,13/00128/FOOD/S,187,eh.support@dartford.gov.uk,Sevenoaks,http://www.sevenoaks.gov.uk/,,,2013-10-14,fhrs_5_en-GB,5,,FHRS,0
253247,The Plough,24 Riverside,Eynsford,Dartford,The Plough,Pub/bar/nightclub,7843,5,,266420,10,,51.36860900000000,01/00029/MIXED,187,eh.support@dartford.gov.uk,Sevenoaks,http://www.sevenoaks.gov.uk/,0.20921800000000,DA4 0AE,2014-09-04,fhrs_3_en-GB,3,,FHRS,10
253248,117 St Johns Hill,Sevenoaks,KENT,,The Polish Deli,Retailers - supermarkets/hypermarkets,7840,10,,687703,10,,51.28747600000000,14/00080/MIXED/S,187,eh.support@dartford.gov.uk,Sevenoaks,http://www.sevenoaks.gov.uk/,0.19470900000000,TN13 3PE,2014-07-17,fhrs_3_en-GB,3,,FHRS,10
253249,London Road,West Kingsdown,Sevenoaks,Kent,The Portobello Inn,Pub/bar/nightclub,7843,5,,266974,0,,51.34061300000000,11/00019/MIXED,187,eh.support@dartford.gov.uk,Sevenoaks,http://www.sevenoaks.gov.uk/,0.26712900000000,TN15 6JB,2013-10-31,fhrs_5_en-GB,5,,FHRS,5
253250,,,,,The Proprietor,Hotel/bed & breakfast/guest house,7842,5,,580444,0,,,13/00087/MIXED/S,187,eh.support@dartford.gov.uk,Sevenoaks,http://www.sevenoaks.gov.uk/,,,2013-07-29,fhrs_5_en-GB,5,,FHRS,0
253251,The Queen P.H.,58 New Road,South Darenth,Dartford,The Queen P.H.,Pub/bar/nightclub,7843,5,,266592,5,,51.40189000000000,03/00647/MIXED,187,eh.support@dartford.gov.uk,Sevenoaks,http://www.sevenoaks.gov.uk/,0.24952700000000,DA4 9AR,2012-05-29,fhrs_5_en-GB,5,,FHRS,5
253252,4 Sevenoaks Road,Otford,KENT,,The Racquet Academy,Restaurant/Cafe/Canteen,1,5,,568432,0,,51.31046700000000,13/00070/MIXED/S,187,eh.support@dartford.gov.uk,Sevenoaks,http://www.sevenoaks.gov.uk/,0.19016700000000,TN14 5PB,2013-07-03,fhrs_5_en-GB,5,,FHRS,0
253253,Red Lion,The Red Lion,Swanley Village Road,Swanley,The Red Lion,Pub/bar/nightclub,7843,0,,609518,0,,51.40500600000000,13/00139/MIXED/S,187,eh.support@dartford.gov.uk,Sevenoaks,http://www.sevenoaks.gov.uk/,0.19475300000000,BR8 7NF,2013-11-13,fhrs_5_en-GB,5,,FHRS,5
253254,The Retirement Homes Association,Southdowns,South Darenth,Dartford,The Retirement Homes Association (Shop Only),Retailers - other,4613,10,,572184,10,,51.40129100000000,13370/0000/2/000,187,eh.support@dartford.gov.uk,Sevenoaks,http://www.sevenoaks.gov.uk/,0.25405500000000,DA4 9LG,2014-06-05,fhrs_3_en-GB,3,,FHRS,5
253255,30 Camden Road,Sevenoaks,Kent,,The Rifleman,Pub/bar/nightclub,7843,5,,266614,0,,51.28506100000000,03/00681/MIXED,187,eh.support@dartford.gov.uk,Sevenoaks,http://www.sevenoaks.gov.uk/,0.19354700000000,TN13 3LZ,2012-03-29,fhrs_5_en-GB,5,,FHRS,0
253256,Rising Sun,Twitton Lane,Otford,Sevenoaks,The Rising Sun,Pub/bar/nightclub,7843,10,,266526,5,,51.31316000000000,03/00250/MAIN,187,eh.support@dartford.gov.uk,Sevenoaks,http://www.sevenoaks.gov.uk/,0.17060700000000,TN14 5JR,2014-05-13,fhrs_4_en-GB,4,,FHRS,5
253257,The Rising Sun,Fawkham Green,Fawkham,Longfield,The Rising Sun,Pub/bar/nightclub,7843,5,,266692,5,,51.36715200000000,04750/2009/2/000,187,eh.support@dartford.gov.uk,Sevenoaks,http://www.sevenoaks.gov.uk/,0.27642800000000,DA3 8NL,2014-05-27,fhrs_4_en-GB,4,,FHRS,10
253258,The Rising Sun Public House,Cotmans Ash Lane,Kemsing,KENT,The Rising Sun,Pub/bar/nightclub,7843,10,,266621,10,,51.31719100000000,03370/2014/2/000,187,eh.support@dartford.gov.uk,Sevenoaks,http://www.sevenoaks.gov.uk/,0.24444700000000,TN15 6XD,2013-04-30,fhrs_2_en-GB,2,,FHRS,15
253259,Amherst Hill,Riverhead,Sevenoaks,Kent,The Riverhead Harvester,Restaurant/Cafe/Canteen,1,10,,266395,15,,51.28295700000000,00100/2003/2/000,187,eh.support@dartford.gov.uk,Sevenoaks,http://www.sevenoaks.gov.uk/,0.17081700000000,TN13 2EN,2014-05-02,fhrs_2_en-GB,2,,FHRS,15
253260,Hoath Corner,Chiddingstone Hoath,Kent,,The Rock Inn,Pub/bar/nightclub,7843,5,,537285,5,,51.16750200000000,13/00049/MIXED/S,187,eh.support@dartford.gov.uk,Sevenoaks,http://www.sevenoaks.gov.uk/,0.14005800000000,TN8 7BS,2013-03-14,fhrs_5_en-GB,5,,FHRS,5
253261,Croft Hall,High Street,Edenbridge,Kent,The Royal British Legion Club,Pub/bar/nightclub,7843,0,,266451,0,,51.19831700000000,02/00272/MIXED,187,eh.support@dartford.gov.uk,Sevenoaks,http://www.sevenoaks.gov.uk/,0.06477700000000,TN8 5AB,2012-09-26,fhrs_5_en-GB,5,,FHRS,0
253262,Main Road,Crockham Hill,KENT,,The Royal Oak,Pub/bar/nightclub,7843,5,,486867,10,,51.23563800000000,12/00068/MIXED/S,187,eh.support@dartford.gov.uk,Sevenoaks,http://www.sevenoaks.gov.uk/,0.06427100000000,TN8 6RD,2014-06-12,fhrs_3_en-GB,3,,FHRS,10
253263,139 - 141 High Street,Sevenoaks,KENT,,The Sennockian,Pub/bar/nightclub,7843,5,,266584,10,,51.27255300000000,03/00635/MIXED,187,eh.support@dartford.gov.uk,Sevenoaks,http://www.sevenoaks.gov.uk/,0.19247800000000,TN13 1UX,2013-04-15,fhrs_4_en-GB,4,,FHRS,5
253264,Manor Farm,Manor Road,Longfield,KENT,The Shack,Mobile caterer,7846,0,,733917,0,,51.38768000000000,15/00012/MIXED/S,187,eh.support@dartford.gov.uk,Sevenoaks,http://www.sevenoaks.gov.uk/,0.33324400000000,DA3 8LD,2014-10-15,fhrs_5_en-GB,5,,FHRS,0
253265,The Snail,Stone Street,Seal,KENT,The Snail,Pub/bar/nightclub,7843,10,,669008,10,,51.26773600000000,14/00065/MIXED/S,187,eh.support@dartford.gov.uk,Sevenoaks,http://www.sevenoaks.gov.uk/,0.25805000000000,TN15 0LT,2014-06-10,fhrs_3_en-GB,3,,FHRS,10
253266,Stanhope Arms,Stanhope Arms,Church Road,Brasted,The Stanhope Arms,Pub/bar/nightclub,7843,5,,657817,5,,51.27876300000000,14/00047/MIXED/S,187,eh.support@dartford.gov.uk,Sevenoaks,http://www.sevenoaks.gov.uk/,0.10352700000000,TN16 1HZ,2014-04-22,fhrs_5_en-GB,5,,FHRS,5
253267,130 High Street,Edenbridge,Kent,,The Star Inn,Pub/bar/nightclub,7843,10,,266906,5,,51.19358600000000,10/00007/MIXED,187,eh.support@dartford.gov.uk,Sevenoaks,http://www.sevenoaks.gov.uk/,0.06581100000000,TN8 5AY,2014-07-28,fhrs_3_en-GB,3,,FHRS,10
253268,Swan Lane,Edenbridge,Kent,,The Swan,Pub/bar/nightclub,7843,10,,266962,15,,51.21112300000000,11/00004/FOOD,187,eh.support@dartford.gov.uk,Sevenoaks,http://www.sevenoaks.gov.uk/,0.06171400000000,TN8 6BA,2014-02-18,fhrs_2_en-GB,2,,FHRS,10
253269,,,,,The Thatched Cottage,Hotel/bed & breakfast/guest house,7842,,,637500,,,,14/00030/FOOD/S,187,eh.support@dartford.gov.uk,Sevenoaks,http://www.sevenoaks.gov.uk/,,,2014-03-03,fhrs_exempt_en-GB,Exempt,,FHRS,
253270,15 Main Road,Hextable,Swanley,Kent,The Village Pharmacy,Retailers - other,4613,,,266457,,,51.40919300000000,02/00283/MIXED,187,eh.support@dartford.gov.uk,Sevenoaks,http://www.sevenoaks.gov.uk/,0.18296100000000,BR8 7RB,2012-05-17,fhrs_exempt_en-GB,Exempt,,FHRS,
253271,Vine Tavern,11 Pound Lane,Sevenoaks,Kent,The Vine Restaurant,Restaurant/Cafe/Canteen,1,10,,266746,5,,51.27700700000000,06/00071/MIXED,187,eh.support@dartford.gov.uk,Sevenoaks,http://www.sevenoaks.gov.uk/,0.19236000000000,TN13 3TB,2014-11-25,fhrs_4_en-GB,4,,FHRS,5
253272,Grange Farm,Pootings Road,Crockham Hill,Edenbridge,The Westerham Brewery Company,Manufacturers/packers,7839,0,,266624,0,,51.23092600000000,04/00012/FOOD,187,eh.support@dartford.gov.uk,Sevenoaks,http://www.sevenoaks.gov.uk/,0.07339900000000,TN8 6SA,2013-05-24,fhrs_5_en-GB,5,,FHRS,0
253273,Wheatsheaf,Hever Road,Bough Beech,KENT,The Wheatsheaf,Pub/bar/nightclub,7843,10,,669004,10,,51.20148000000000,14/00059/MIXED/S,187,eh.support@dartford.gov.uk,Sevenoaks,http://www.sevenoaks.gov.uk/,0.12617200000000,TN8 7NX,2014-05-28,fhrs_4_en-GB,4,,FHRS,0
253274,The White Rock Inn,Underriver,Sevenoaks,Kent,The White Rock Inn,Pub/bar/nightclub,7843,5,,266419,5,,51.24634800000000,01/00028/MIXED,187,eh.support@dartford.gov.uk,Sevenoaks,http://www.sevenoaks.gov.uk/,0.22860100000000,TN15 0SB,2013-05-23,fhrs_4_en-GB,4,,FHRS,10
253275,Ash Road,Ash,Sevenoaks,Kent,The White Swan Public House,Pub/bar/nightclub,7843,10,,266570,0,,51.36074800000000,03/00615/MIXED,187,eh.support@dartford.gov.uk,Sevenoaks,http://www.sevenoaks.gov.uk/,0.29395200000000,TN15 7HJ,2013-03-14,fhrs_4_en-GB,4,,FHRS,10
253276,Windmill Road,Sevenoaks Weald,KENT,,The Windmill,Pub/bar/nightclub,7843,20,,632248,10,,51.23727000000000,14/00015/MIXED/S,187,eh.support@dartford.gov.uk,Sevenoaks,http://www.sevenoaks.gov.uk/,0.18779100000000,TN14 6PN,2014-02-05,fhrs_1_en-GB,1,,FHRS,5
253277,The Woodman,2 High Street,Otford,Sevenoaks,The Woodman,Pub/bar/nightclub,7843,10,,266890,10,,51.31311700000000,09/00067/MIXED,187,eh.support@dartford.gov.uk,Sevenoaks,http://www.sevenoaks.gov.uk/,0.18887200000000,TN14 5PQ,2013-06-25,fhrs_3_en-GB,3,,FHRS,5
253278,Wheatsheaf Hill,Ide Hill,KENT,,The Woodman,Pub/bar/nightclub,7843,10,,266671,10,,51.25445400000000,04/00345/MIXED,187,eh.support@dartford.gov.uk,Sevenoaks,http://www.sevenoaks.gov.uk/,0.14711700000000,TN14 6BU,2014-03-03,fhrs_3_en-GB,3,,FHRS,10
253279,19 London Road,Sevenoaks,KENT,,Thind Wine Merchants,Retailers - other,4613,,,267053,,,51.27092900000000,12/00008/MIXED,187,eh.support@dartford.gov.uk,Sevenoaks,http://www.sevenoaks.gov.uk/,0.19134000000000,TN13 1AR,2012-02-07,fhrs_exempt_en-GB,Exempt,,FHRS,
253280,Three Horseshoes,Main Road,Knockholt,Sevenoaks,Three Horseshoes,Pub/bar/nightclub,7843,10,,266855,10,,51.31566900000000,08940/2127/2/000,187,eh.support@dartford.gov.uk,Sevenoaks,http://www.sevenoaks.gov.uk/,0.12355500000000,TN14 7LD,2013-06-03,fhrs_3_en-GB,3,,FHRS,5
253281,Tiggers Nursery,Dunton Green County Primary School,London Road,Dunton Green,Tiggers Nursery School,Hospitals/Childcare/Caring Premises,5,10,,714827,0,,51.29569200000000,14/00106/FOOD/S,187,eh.support@dartford.gov.uk,Sevenoaks,http://www.sevenoaks.gov.uk/,0.16546500000000,TN13 2UP,2014-11-03,fhrs_4_en-GB,4,,FHRS,10
253282,25 Station Road,Swanley,Kent,,Tip Top Cafe,Restaurant/Cafe/Canteen,1,5,,266673,5,,51.39490100000000,04/00348/MIXED,187,eh.support@dartford.gov.uk,Sevenoaks,http://www.sevenoaks.gov.uk/,0.17579700000000,BR8 8ES,2015-01-05,fhrs_5_en-GB,5,,FHRS,0
253283,Badgers Mount Hotel,London Road,Badgers Mount,Halstead,Toby Carvery Badgers Mount,Restaurant/Cafe/Canteen,1,0,,266782,0,,51.33134000000000,07/00003/MIXED,187,eh.support@dartford.gov.uk,Sevenoaks,http://www.sevenoaks.gov.uk/,0.14986000000000,TN14 7AD,2014-11-28,fhrs_5_en-GB,5,,FHRS,5
253284,1 Station Parade,London Road,Sevenoaks,Kent,Tom Bell Traditional Fish & Chips,Takeaway/sandwich shop,7844,5,,266849,5,,51.27708300000000,08530/0001/0/000,187,eh.support@dartford.gov.uk,Sevenoaks,http://www.sevenoaks.gov.uk/,0.18347400000000,TN13 1DL,2013-11-25,fhrs_4_en-GB,4,,FHRS,10
253285,84 High Street,Edenbridge,Kent,,Tom Bells Traditional Fish And Chips,Takeaway/sandwich shop,7844,5,,266546,5,,51.19559400000000,03/00426/MAIN,187,eh.support@dartford.gov.uk,Sevenoaks,http://www.sevenoaks.gov.uk/,0.06514200000000,TN8 5AR,2014-04-22,fhrs_4_en-GB,4,,FHRS,10
253286,18 Cedar Drive,Edenbridge,Kent,,Tonys Corner Shop,Retailers - other,4613,20,,266669,5,,51.20149000000000,04/00341/MIXED,187,eh.support@dartford.gov.uk,Sevenoaks,http://www.sevenoaks.gov.uk/,0.05873500000000,TN8 5JL,2013-11-06,fhrs_1_en-GB,1,,FHRS,10
253287,Memorial Pavilion,High Street,Seal,KENT,Top Banana Preschool,Hospitals/Childcare/Caring Premises,5,10,,266988,10,,51.28881900000000,11/00038/MIXED,187,eh.support@dartford.gov.uk,Sevenoaks,http://www.sevenoaks.gov.uk/,0.22031600000000,TN15 0AL,2014-12-08,fhrs_3_en-GB,3,,FHRS,5
253288,Oakstead Service Station,Heathwood Parade,London Road,Swanley,Total Service Station,Retailers - other,4613,10,,266453,0,,51.40315200000000,02/00274/MIXED,187,eh.support@dartford.gov.uk,Sevenoaks,http://www.sevenoaks.gov.uk/,0.16196900000000,BR8 7HB,2012-06-25,fhrs_4_en-GB,4,,FHRS,5
253289,21 High Street,Swanley,Kent,,Towes Convenience Store,Retailers - other,4613,10,,266528,5,,51.39524600000000,03/00257/MAIN,187,eh.support@dartford.gov.uk,Sevenoaks,http://www.sevenoaks.gov.uk/,0.17804100000000,BR8 8AE,2013-07-29,fhrs_4_en-GB,4,,FHRS,0
253290,Car Park,Gamecock Public House,London Road,West Kingsdown,Traditional Pie And Mash (Registered With Greenwich),Mobile caterer,7846,0,,582778,0,,,13/00110/MIXED/S,187,eh.support@dartford.gov.uk,Sevenoaks,http://www.sevenoaks.gov.uk/,,,2013-08-30,fhrs_5_en-GB,5,,FHRS,0
253291,Trinity School Sevenoaks Ltd,Unit E,Ryedale Court,Riverhead,Trinity School,School/college/university,7845,0,,609517,0,,51.28889700000000,13/00138/FOOD/S,187,eh.support@dartford.gov.uk,Sevenoaks,http://www.sevenoaks.gov.uk/,0.16914700000000,TN13 2DN,2013-11-12,fhrs_5_en-GB,5,,FHRS,0
253292,8 The Green,Westerham,Kent,,Tudor Rose Tea Rooms,Restaurant/Cafe/Canteen,1,5,,267089,5,,51.26730000000000,14870/0008/0/000,187,eh.support@dartford.gov.uk,Sevenoaks,http://www.sevenoaks.gov.uk/,0.07259900000000,TN16 1AS,2014-04-25,fhrs_5_en-GB,5,,FHRS,5
253293,20 London Road,Westerham,Kent,,Tulsi Restaurant And Take Away,Restaurant/Cafe/Canteen,1,10,,266599,10,,51.26799600000000,03/00656/MIXED,187,eh.support@dartford.gov.uk,Sevenoaks,http://www.sevenoaks.gov.uk/,0.07188500000000,TN16 1BD,2013-05-16,fhrs_3_en-GB,3,,FHRS,10
253294,The Corner Shop,14 Turners Place,East Hill,South Darenth,Turners,Restaurant/Cafe/Canteen,1,0,,637493,0,,51.40330600000000,14/00020/MIXED/S,187,eh.support@dartford.gov.uk,Sevenoaks,http://www.sevenoaks.gov.uk/,0.24699400000000,DA4 9BF,2014-02-18,fhrs_5_en-GB,5,,FHRS,0
253295,Woodlands Nursery And Garden Centre,Ash Lane,Ash,Sevenoaks,Twig And Spoon,Restaurant/Cafe/Canteen,1,0,,266869,5,,51.33168500000000,09/00039/MIXED,187,eh.support@dartford.gov.uk,Sevenoaks,http://www.sevenoaks.gov.uk/,0.28645700000000,TN15 7EG,2014-07-07,fhrs_5_en-GB,5,,FHRS,5
253296,30 High Street,Shoreham,Sevenoaks,Kent,Two Brewers,Pub/bar/nightclub,7843,0,,266384,0,,51.33415900000000,00/00046/MIXED,187,eh.support@dartford.gov.uk,Sevenoaks,http://www.sevenoaks.gov.uk/,0.17787200000000,TN14 7TD,2013-11-13,fhrs_5_en-GB,5,,FHRS,5
253297,Underriver Village Hall,Underriver,Sevenoaks,Kent,Underriver Under Fives,Hospitals/Childcare/Caring Premises,5,10,,266818,5,,51.24634800000000,08/00024/MIXED,187,eh.support@dartford.gov.uk,Sevenoaks,http://www.sevenoaks.gov.uk/,0.22860100000000,TN15 0SB,2013-06-24,fhrs_4_en-GB,4,,FHRS,5
253298,23 Northdown Road,Kemsing,KENT,,Up The Downs Bed And Breakfast,Other catering premises,7841,5,,594370,5,,51.30883800000000,13/00133/MIXED/S,187,eh.support@dartford.gov.uk,Sevenoaks,http://www.sevenoaks.gov.uk/,0.21174100000000,TN15 6SD,2013-10-15,fhrs_5_en-GB,5,,FHRS,5
253299,Palmers Farm,Coopers Lane,Fordcombe,Tunbridge Wells,V And C Smith,Manufacturers/packers,7839,5,,266620,5,,51.14786200000000,03280/2003/2/000,187,eh.support@dartford.gov.uk,Sevenoaks,http://www.sevenoaks.gov.uk/,0.18662000000000,TN3 0RN,2013-02-18,fhrs_2_en-GB,2,,FHRS,15
253300,Valence School,Westerham Road,Westerham,Kent,Valence School,School/college/university,7845,0,,266562,5,,51.26912000000000,03/00603/FOOD,187,eh.support@dartford.gov.uk,Sevenoaks,http://www.sevenoaks.gov.uk/,0.09111600000000,TN16 1QN,2012-09-27,fhrs_5_en-GB,5,,FHRS,0
253301,143 High Street,Sevenoaks,Kent,,Valentina Fine Foods,Restaurant/Cafe/Canteen,1,5,,266930,0,,51.27255300000000,10/00054/MIXED,187,eh.support@dartford.gov.uk,Sevenoaks,http://www.sevenoaks.gov.uk/,0.19247800000000,TN13 1UX,2014-02-04,fhrs_5_en-GB,5,,FHRS,0
253302,,,,,Victoria's Sweet Kitchen,Other catering premises,7841,0,,632920,0,,,14/00016/FOOD/S,187,eh.support@dartford.gov.uk,Sevenoaks,http://www.sevenoaks.gov.uk/,,,2014-02-10,fhrs_5_en-GB,5,,FHRS,0
253303,39 Dartford Road,Sevenoaks,Kent,,Vine Hall Evangelical Church Hall,Other catering premises,7841,,,266626,,,51.27841300000000,04/00032/MIXED,187,eh.support@dartford.gov.uk,Sevenoaks,http://www.sevenoaks.gov.uk/,0.19361700000000,TN13 3TE,2013-03-26,fhrs_exempt_en-GB,Exempt,,FHRS,
253304,Unit 8,Churchill Business Park,Hortons Way,Westerham,Vinissimo,Distributors/Transporters,7,5,,266719,5,,51.27008200000000,05/00262/MIXED,187,eh.support@dartford.gov.uk,Sevenoaks,http://www.sevenoaks.gov.uk/,0.07544800000000,TN16 1BT,2012-02-23,fhrs_5_en-GB,5,,FHRS,5
253305,131-133 High Street,Sevenoaks,Kent,,W H Smith Ltd,Retailers - other,4613,,,266460,,,51.27162800000000,02/00286/MIXED,187,eh.support@dartford.gov.uk,Sevenoaks,http://www.sevenoaks.gov.uk/,0.19240500000000,TN13 1UP,2013-02-11,fhrs_exempt_en-GB,Exempt,,FHRS,
253306,A20 Roundabout,Dartford Road,Farningham,Dartford,W J King (Garages) Ltd Retail Kiosk,Retailers - other,4613,5,,266549,10,,51.38258600000000,03/00453/MAIN,187,eh.support@dartford.gov.uk,Sevenoaks,http://www.sevenoaks.gov.uk/,0.21963500000000,DA4 0DX,2014-01-16,fhrs_4_en-GB,4,,FHRS,0
253307,138A - 138B High Street,Sevenoaks,KENT,,Wagamama,Restaurant/Cafe/Canteen,1,5,,647162,0,,51.27309200000000,14/00031/MIXED/S,187,eh.support@dartford.gov.uk,Sevenoaks,http://www.sevenoaks.gov.uk/,0.19299100000000,TN13 1XE,2014-03-24,fhrs_5_en-GB,5,,FHRS,0
253308,58 - 62 High Street,Sevenoaks,KENT,,Waitrose,Retailers - supermarkets/hypermarkets,7840,5,,267060,10,,51.26982000000000,12/00017/FOOD,187,eh.support@dartford.gov.uk,Sevenoaks,http://www.sevenoaks.gov.uk/,0.19338000000000,TN13 1JR,2013-09-04,fhrs_4_en-GB,4,,FHRS,5
253309,Waitrose,Mont St Aignan Way,Edenbridge,KENT,Waitrose Ltd,Retailers - supermarkets/hypermarkets,7840,5,,657820,0,,51.19534900000000,14/00053/MIXED/S,187,eh.support@dartford.gov.uk,Sevenoaks,http://www.sevenoaks.gov.uk/,0.06427300000000,TN8 5LN,2014-04-24,fhrs_5_en-GB,5,,FHRS,5
253310,Walthamstow Hall Junior School,Bradbourne Park Road,Sevenoaks,Kent,Walthamstow Hall Junior School,School/college/university,7845,0,,266600,0,,51.28347900000000,03/00657/FOOD,187,eh.support@dartford.gov.uk,Sevenoaks,http://www.sevenoaks.gov.uk/,0.18677400000000,TN13 3LD,2013-05-17,fhrs_5_en-GB,5,,FHRS,0
253311,Walthamstow Hall School,Hollybush Lane,Sevenoaks,Kent,Walthamstow Hall School,School/college/university,7845,5,,266781,10,,51.27899100000000,06990/2000/2/000,187,eh.support@dartford.gov.uk,Sevenoaks,http://www.sevenoaks.gov.uk/,0.19783200000000,TN13 3UL,2014-09-10,fhrs_4_en-GB,4,,FHRS,0
253312,Weald Cp School,Long Barn Road,Weald,Sevenoaks,Weald Cp School,School/college/university,7845,10,,266578,0,,51.23679000000000,03/00627/FOOD,187,eh.support@dartford.gov.uk,Sevenoaks,http://www.sevenoaks.gov.uk/,0.18559100000000,TN14 6PY,2011-03-02,fhrs_4_en-GB,4,,FHRS,0
253313,Well Place Nursery,Well Place Farm,Penshurst,Tonbridge,Well Place Day Nursery,Other catering premises,7841,10,,266696,5,,51.17676400000000,05/00071/FOOD,187,eh.support@dartford.gov.uk,Sevenoaks,http://www.sevenoaks.gov.uk/,0.18774400000000,TN11 8BH,2014-10-15,fhrs_3_en-GB,3,,FHRS,10
253314,86 Childsbridge Lane,Seal,Sevenoaks,Kent,Wendy Wood Bed And Breakfast,Hotel/bed & breakfast/guest house,7842,5,,266955,0,,51.29431500000000,10/00091/FOOD,187,eh.support@dartford.gov.uk,Sevenoaks,http://www.sevenoaks.gov.uk/,0.21835800000000,TN15 0BW,2013-11-25,fhrs_5_en-GB,5,,FHRS,0
253315,19 - 21 West End,Kemsing,Sevenoaks,Kent,West End Convenience Store,Retailers - other,4613,10,,266945,10,,51.30623900000000,10/00078/MIXED,187,eh.support@dartford.gov.uk,Sevenoaks,http://www.sevenoaks.gov.uk/,0.22689600000000,TN15 6PX,2014-01-15,fhrs_3_en-GB,3,,FHRS,5
253316,Fawkham Road,West Kingsdown,KENT,,West Kingsdown C Of E Primary School,School/college/university,7845,5,,464168,5,,51.34150300000000,12/00041/FOOD/S,187,eh.support@dartford.gov.uk,Sevenoaks,http://www.sevenoaks.gov.uk/,0.26759000000000,TN15 6JP,2014-03-24,fhrs_4_en-GB,4,,FHRS,10
253317,,,,,West Kingsdown Fruit And Veg,Retailers - other,4613,5,,266832,0,,,08/00069/FOOD,187,eh.support@dartford.gov.uk,Sevenoaks,http://www.sevenoaks.gov.uk/,,,2012-01-04,fhrs_5_en-GB,5,,FHRS,5
253318,West Kingsdown Pre School,School Lane,West Kingsdown,Sevenoaks,West Kingsdown Pre School,Hospitals/Childcare/Caring Premises,5,0,,266645,0,,51.33677700000000,04/00206/FOOD,187,eh.support@dartford.gov.uk,Sevenoaks,http://www.sevenoaks.gov.uk/,0.26597800000000,TN15 6JN,2013-07-03,fhrs_5_en-GB,5,,FHRS,0
253319,Churchill School,Rysted Lane,Westerham,Kent,Westerham Day Nursery,Other catering premises,7841,5,,266560,5,,51.26903300000000,03/00597/MIXED,187,eh.support@dartford.gov.uk,Sevenoaks,http://www.sevenoaks.gov.uk/,0.06970900000000,TN16 1EP,2014-03-17,fhrs_5_en-GB,5,,FHRS,0
253320,Westerham Fish And Chip Shop,2 Winterton Court,Market Square,Westerham,Westerham Fish And Chips,Takeaway/sandwich shop,7844,5,,708526,15,,51.26692200000000,14/00103/MIXED/S,187,eh.support@dartford.gov.uk,Sevenoaks,http://www.sevenoaks.gov.uk/,0.07058900000000,TN16 1AL,2014-09-03,fhrs_2_en-GB,2,,FHRS,10
253321,Westerham Golf Club Ltd,Westerham Road,Westerham,KENT,Westerham Golf Club,Other catering premises,7841,10,,266577,5,,51.26767400000000,03/00626/MIXED,187,eh.support@dartford.gov.uk,Sevenoaks,http://www.sevenoaks.gov.uk/,0.08493000000000,TN16 1LJ,2013-07-30,fhrs_3_en-GB,3,,FHRS,10
253322,Westerham Mens Club,Fullers Hill,Westerham,Kent,Westerham Mens Club,Pub/bar/nightclub,7843,10,,266727,10,,51.26783100000000,05160/2005/2/000,187,eh.support@dartford.gov.uk,Sevenoaks,http://www.sevenoaks.gov.uk/,0.07103100000000,TN16 1AF,2013-11-14,fhrs_3_en-GB,3,,FHRS,10
253323,Westerham Place,Quebec Square,Westerham,KENT,Westerham Place Residential Care Home,Other catering premises,7841,0,,464167,5,,51.26686500000000,12/00039/MIXED/S,187,eh.support@dartford.gov.uk,Sevenoaks,http://www.sevenoaks.gov.uk/,0.07583300000000,TN16 1TD,2014-01-23,fhrs_5_en-GB,5,,FHRS,5
253324,1 Mill Lane,Westerham,Kent,,Westerham Royal British Legion Club,Pub/bar/nightclub,7843,0,,266394,0,,51.26430300000000,00/00061/MIXED,187,eh.support@dartford.gov.uk,Sevenoaks,http://www.sevenoaks.gov.uk/,0.06814900000000,TN16 1SG,2014-06-06,fhrs_5_en-GB,5,,FHRS,0
253325,King Georges Field,Costells Meadow,Westerham,Kent,Westerham Sports Association Club House,Other catering premises,7841,,,266534,,,,03/00279/MAIN,187,eh.support@dartford.gov.uk,Sevenoaks,http://www.sevenoaks.gov.uk/,,,2011-05-31,fhrs_exempt_en-GB,Exempt,,FHRS,
253326,White Gates Farm,Shacklands Road,Shoreham,Sevenoaks,White Gates Farm,Manufacturers/packers,7839,5,,266642,5,,51.33923200000000,04/00168/FOOD,187,eh.support@dartford.gov.uk,Sevenoaks,http://www.sevenoaks.gov.uk/,0.17202500000000,TN14 7TU,2015-01-06,fhrs_5_en-GB,5,,FHRS,5
253327,White Hart,Tonbridge Road,Sevenoaks,Kent,White Hart,Pub/bar/nightclub,7843,0,,266872,0,,51.25495300000000,09/00045/MIXED,187,eh.support@dartford.gov.uk,Sevenoaks,http://www.sevenoaks.gov.uk/,0.19870600000000,TN13 1SG,2013-07-25,fhrs_5_en-GB,5,,FHRS,5
253328,White Hart Hotel,High Street,Brasted,KENT,White Hart Hotel,Pub/bar/nightclub,7843,0,,266538,0,,51.27587600000000,03/00339/MAIN,187,eh.support@dartford.gov.uk,Sevenoaks,http://www.sevenoaks.gov.uk/,0.11254300000000,TN16 1JE,2013-12-04,fhrs_5_en-GB,5,,FHRS,5
253329,The White Horse Inn,105 Main Road,Sundridge,KENT,White Horse Inn,Pub/bar/nightclub,7843,10,,594407,10,,51.27861200000000,13/00058/MIXED/S,187,eh.support@dartford.gov.uk,Sevenoaks,http://www.sevenoaks.gov.uk/,0.13024800000000,TN14 6EQ,2015-01-13,fhrs_3_en-GB,3,,FHRS,10
253330,62 West End,Kemsing,Sevenoaks,Kent,White Lodge Residential Care Home,Other catering premises,7841,,,266685,,,51.30600400000000,04/00362/MIXED,187,eh.support@dartford.gov.uk,Sevenoaks,http://www.sevenoaks.gov.uk/,0.22318300000000,TN15 6QB,2014-05-27,fhrs_5_en-GB,5,,FHRS,
253331,White Oak Indoor Bowls Centre,Garrolds Close,Swanley,Kent,White Oak Indoor Bowls Centre And Bar,Restaurant/Cafe/Canteen,1,0,,266833,0,,51.40084400000000,08/00073/MIXED,187,eh.support@dartford.gov.uk,Sevenoaks,http://www.sevenoaks.gov.uk/,0.16906300000000,BR8 7BF,2013-05-09,fhrs_5_en-GB,5,,FHRS,0
253332,The Willows,Hilda May Avenue,Swanley,Kent,White Oak Pre School,Hospitals/Childcare/Caring Premises,5,5,,266966,0,,51.40001400000000,11/00008/FOOD,187,eh.support@dartford.gov.uk,Sevenoaks,http://www.sevenoaks.gov.uk/,0.17070600000000,BR8 7BT,2014-01-14,fhrs_5_en-GB,5,,FHRS,0
253333,Wickes Building Supplies,Otford Road,Sevenoaks,Kent,Wickes Building Supplies (formerly Focus),Retailers - other,4613,,,714825,,,51.29257900000000,10720/2016/2/000,187,eh.support@dartford.gov.uk,Sevenoaks,http://www.sevenoaks.gov.uk/,0.19066300000000,TN14 5DE,2014-11-03,fhrs_exempt_en-GB,Exempt,,FHRS,
253334,White Oak Indoor Bowls Centre,White Oak Indoor Bowls Centre,Hilda May Avenue,Swanley,Wild Garlic Catering,Restaurant/Cafe/Canteen,1,10,,721993,10,,51.40108300000000,14/00112/MIXED/S,187,eh.support@dartford.gov.uk,Sevenoaks,http://www.sevenoaks.gov.uk/,0.17170500000000,BR8 7BT,2014-11-13,fhrs_3_en-GB,3,,FHRS,5
253335,Wildernesse Golf Club,Park Lane,Sevenoaks,Kent,Wildernesse Golf Club,Restaurant/Cafe/Canteen,1,20,,266961,15,,51.28237600000000,10970/2005/2/000,187,eh.support@dartford.gov.uk,Sevenoaks,http://www.sevenoaks.gov.uk/,0.22238600000000,TN15 0JE,2014-09-03,fhrs_1_en-GB,1,,FHRS,0
253336,37 Swanley Centre,Swanley,Kent,,Wilkinson,Retailers - other,4613,,,266970,,,51.39629500000000,11/00014/MIXED,187,eh.support@dartford.gov.uk,Sevenoaks,http://www.sevenoaks.gov.uk/,0.17385000000000,BR8 7TL,2011-01-06,fhrs_exempt_en-GB,Exempt,,FHRS,
253337,Gabriels Farm,Marsh Green Road,Marsh Green,Edenbridge,Wiltshire Farm Foods - Unit 1,Distributors/Transporters,7,5,,266714,0,,51.18472500000000,05/00238/MIXED,187,eh.support@dartford.gov.uk,Sevenoaks,http://www.sevenoaks.gov.uk/,0.06238100000000,TN8 5PP,2013-11-22,fhrs_5_en-GB,5,,FHRS,0
253338,Churchill School,Rysted Lane,Westerham,Kent,Winnies Pre School,Hospitals/Childcare/Caring Premises,5,5,,267068,5,,51.26903300000000,12510/2004/2/000,187,eh.support@dartford.gov.uk,Sevenoaks,http://www.sevenoaks.gov.uk/,0.06970900000000,TN16 1EP,2013-09-13,fhrs_5_en-GB,5,,FHRS,5
253339,,,,,Wizzard Of Cakes,Mobile caterer,7846,5,,504332,0,,,13/00004/FOOD/S,187,eh.support@dartford.gov.uk,Sevenoaks,http://www.sevenoaks.gov.uk/,,,2013-01-16,fhrs_5_en-GB,5,,FHRS,0
253340,Westerham Garage,Westerham Garage,London Road,Westerham,Wolfe Westerham Ltd,Retailers - other,4613,0,,445123,5,,51.27407500000000,12/00038/FOOD/S,187,eh.support@dartford.gov.uk,Sevenoaks,http://www.sevenoaks.gov.uk/,0.07395000000000,TN16 2DJ,2012-08-24,fhrs_5_en-GB,5,,FHRS,0
253341,,,,,Wonderland Cupcakes,Mobile caterer,7846,0,,445122,0,,,12/00037/FOOD/S,187,eh.support@dartford.gov.uk,Sevenoaks,http://www.sevenoaks.gov.uk/,,,2012-08-22,fhrs_5_en-GB,5,,FHRS,0
253342,Woodlands Manor Golf Club,Tinkerpot Lane,West Kingsdown,Sevenoaks,Woodlands Manor Golf Club,Other catering premises,7841,10,,266405,0,,51.32326400000000,01/00005/MIXED,187,eh.support@dartford.gov.uk,Sevenoaks,http://www.sevenoaks.gov.uk/,0.24480100000000,TN15 6AB,2013-08-05,fhrs_4_en-GB,4,,FHRS,10
253343,51 High Street,Edenbridge,KENT,,Your Good Health,Retailers - other,4613,5,,721996,0,,51.19673600000000,14/00115/MIXED/S,187,eh.support@dartford.gov.uk,Sevenoaks,http://www.sevenoaks.gov.uk/,0.06517900000000,TN8 5AL,2014-12-03,fhrs_5_en-GB,5,,FHRS,5
253344,,,,,Yvonne Chapman,Other catering premises,7841,5,,637495,0,,,14/00024/FOOD/S,187,eh.support@dartford.gov.uk,Sevenoaks,http://www.sevenoaks.gov.uk/,,,2014-02-27,fhrs_5_en-GB,5,,FHRS,0
253345,46 Telston Lane,Otford,Sevenoaks,Kent,Yvonnes,Retailers - other,4613,5,,266581,0,,51.30941300000000,03/00630/MIXED,187,eh.support@dartford.gov.uk,Sevenoaks,http://www.sevenoaks.gov.uk/,0.17529400000000,TN14 5LA,2013-07-03,fhrs_4_en-GB,4,,FHRS,10
253346,Zizzis,35 - 37 Alexander House,London Road,Sevenoaks,Zizzi Restaurant,Restaurant/Cafe/Canteen,1,5,,266463,0,,51.27092900000000,02/00292/MIXED,187,eh.support@dartford.gov.uk,Sevenoaks,http://www.sevenoaks.gov.uk/,0.19134000000000,TN13 1AR,2014-06-10,fhrs_5_en-GB,5,,FHRS,5
