,addressline1,addressline2,addressline3,addressline4,businessname,businesstype,businesstypeid,confidenceinmanagement,extractdate,fhrsid,hygiene,itemcount,latitude,localauthoritybusinessid,localauthoritycode,localauthorityemailaddress,localauthorityname,localauthoritywebsite,longitude,postcode,ratingdate,ratingkey,ratingvalue,returncode,schemetype,structural
187072,,North Valley Retail Park,Colne,Lancashire,Â£-Poundstretcher Extra,Retailers - other,4613,0,,591450,5,,53.86120605468750,NM010,201,environmental.food@pendle.gov.uk,Pendle,http://www.pendle.gov.uk,-2.56927990913391,BB8 9HH,2013-08-14,fhrs_5_en-GB,5,,FHRS,0
187073,,7 Victoria Road,Earby,"Barnoldswick, Lancashire",2 Lips,Retailers - other,4613,5,,212898,5,,53.91619600000000,NN007,201,environmental.food@pendle.gov.uk,Pendle,http://www.pendle.gov.uk,-2.14432400000000,BB18 6UN,2014-07-30,fhrs_4_en-GB,4,,FHRS,10
187074,,Langroyd Road,Colne,Lancashire,4 Kids (Colne) Ltd,Restaurant/Cafe/Canteen,1,10,,159503,5,,53.86608500000000,NB037,201,environmental.food@pendle.gov.uk,Pendle,http://www.pendle.gov.uk,-2.16816200000000,BB8 7AN,2014-08-20,fhrs_3_en-GB,3,,FHRS,10
187075,,17 Bankfield Terrace,Barnoldswick,Lancashire,A Choice of Rolls,Takeaway/sandwich shop,7844,5,,433950,5,,53.92227300000000,NA053,201,environmental.food@pendle.gov.uk,Pendle,http://www.pendle.gov.uk,-2.18331100000000,BB18 5RS,2012-07-18,fhrs_5_en-GB,5,,FHRS,5
187076,,,,,A Jar of Happiness,Restaurant/Cafe/Canteen,1,5,,447540,10,,,NA086,201,environmental.food@pendle.gov.uk,Pendle,http://www.pendle.gov.uk,,,2012-08-21,fhrs_4_en-GB,4,,FHRS,5
187077,,66 Chapel Street,Brierfield,"Nelson, Lancashire",A1 Spend and Save,Retailers - other,4613,10,,185874,10,,53.82486600000000,SM098,201,environmental.food@pendle.gov.uk,Pendle,http://www.pendle.gov.uk,-2.22855000000000,BB9 5DF,2014-07-09,fhrs_3_en-GB,3,,FHRS,10
187078,Abbeyfield House,Gisburn Road,Barnoldswick,Lancashire,Abbeyfield House,Hospitals/Childcare/Caring Premises,5,5,,360656,5,,53.92292300000000,NH018,201,environmental.food@pendle.gov.uk,Pendle,http://www.pendle.gov.uk,-2.19289200000000,BB18 5JX,2014-08-18,fhrs_5_en-GB,5,,FHRS,0
187079,,26 Church Street,Colne,Lancashire,About Coffee Ltd,Restaurant/Cafe/Canteen,1,5,,485333,5,,53.85718500000000,NM026,201,environmental.food@pendle.gov.uk,Pendle,http://www.pendle.gov.uk,-2.16940400000000,BB8 0LG,2012-12-05,fhrs_5_en-GB,5,,FHRS,5
187080,,3 Russell Street,Nelson,Lancashire,Ace Centre,Restaurant/Cafe/Canteen,1,5,,185644,5,,53.85821800000000,SA005,201,environmental.food@pendle.gov.uk,Pendle,http://www.pendle.gov.uk,-2.24788500000000,BB9 7NL,2014-11-21,fhrs_5_en-GB,5,,FHRS,5
187081,,Mill Green,Colne,Lancashire,Admiral Lord Rodney,Pub/bar/nightclub,7843,10,,159638,10,,53.85364900000000,NP019,201,environmental.food@pendle.gov.uk,Pendle,http://www.pendle.gov.uk,-2.16607500000000,BB8 0TA,2014-01-02,fhrs_3_en-GB,3,,FHRS,10
187082,,,,,AHK Cake Designs,Restaurant/Cafe/Canteen,1,10,,159459,5,,,NA048,201,environmental.food@pendle.gov.uk,Pendle,http://www.pendle.gov.uk,,,2012-10-23,fhrs_3_en-GB,3,,FHRS,10
187083,,112 Scotland Road,Nelson,Lancashire,Ahmad Convenience Store,Retailers - other,4613,5,,212909,5,,53.84013700000000,SK010,201,environmental.food@pendle.gov.uk,Pendle,http://www.pendle.gov.uk,-2.21371000000000,BB9 7XJ,2014-06-30,fhrs_5_en-GB,5,,FHRS,5
187084,,3 Albert Street,Nelson,Lancashire,Al Niamat,Takeaway/sandwich shop,7844,10,,185809,10,,53.83600400000000,SJ040,201,environmental.food@pendle.gov.uk,Pendle,http://www.pendle.gov.uk,-2.21768500000000,BB9 7EY,2015-01-13,fhrs_3_en-GB,3,,FHRS,10
187085,,56 Market Street,Colne,Lancashire,Al Pacinos,Takeaway/sandwich shop,7844,5,,159574,5,,53.85698400000000,NJ035,201,environmental.food@pendle.gov.uk,Pendle,http://www.pendle.gov.uk,-2.16595200000000,BB8 0HS,2014-12-15,fhrs_5_en-GB,5,,FHRS,5
187086,,4 Colne Road,Brierfield,"Nelson, Lancashire",Alamgir,Restaurant/Cafe/Canteen,1,10,,584404,10,,53.82407200000000,SK042,201,environmental.food@pendle.gov.uk,Pendle,http://www.pendle.gov.uk,-2.23454700000000,BB9 5PH,2013-09-03,fhrs_3_en-GB,3,,FHRS,10
187087,,22 Albert Road,Colne,Lancashire,Albert House Residential Home,Hospitals/Childcare/Caring Premises,5,0,,159532,5,,53.85653500000000,NH006,201,environmental.food@pendle.gov.uk,Pendle,http://www.pendle.gov.uk,-2.17198600000000,BB8 0AA,2014-10-21,fhrs_5_en-GB,5,,FHRS,0
187088,,3A Albion Street,Brierfield,"Nelson, Lancashire",Albion Street Chippy,Takeaway/sandwich shop,7844,5,,185773,5,,53.82181400000000,SJ001,201,environmental.food@pendle.gov.uk,Pendle,http://www.pendle.gov.uk,-2.23587100000000,BB9 5LG,2012-10-19,fhrs_5_en-GB,5,,FHRS,5
187089,,North Valley Retail Park,Colne,Lancashire,Aldi Stores Ltd,Retailers - supermarkets/hypermarkets,7840,5,,159623,5,,53.86120605468750,NM064,201,environmental.food@pendle.gov.uk,Pendle,http://www.pendle.gov.uk,-2.56927990913391,BB8 9HH,2014-12-02,fhrs_5_en-GB,5,,FHRS,5
187090,,253 Brunswick Street,Nelson,Lancashire,Alice's Sandwich Bar,Takeaway/sandwich shop,7844,5,,185812,5,,53.82937000000000,SJ044,201,environmental.food@pendle.gov.uk,Pendle,http://www.pendle.gov.uk,-2.20289800000000,BB9 0HS,2014-06-27,fhrs_5_en-GB,5,,FHRS,5
187091,,,,,All Caked Up,Restaurant/Cafe/Canteen,1,5,,421247,5,,,NA063,201,environmental.food@pendle.gov.uk,Pendle,http://www.pendle.gov.uk,,,2014-08-13,fhrs_5_en-GB,5,,FHRS,5
187092,,Emmott Lane,Colne,Lancashire,Alma Inn,Pub/bar/nightclub,7843,5,,159516,5,,53.86567700000000,ND007,201,environmental.food@pendle.gov.uk,Pendle,http://www.pendle.gov.uk,-2.12749900000000,BB8 7EG,2013-04-29,fhrs_4_en-GB,4,,FHRS,10
187093,,45 Regent Street,Nelson,Lancashire,Al-Noor House,Restaurant/Cafe/Canteen,1,10,,185839,10,,53.84044900000000,SK035,201,environmental.food@pendle.gov.uk,Pendle,http://www.pendle.gov.uk,-2.20997300000000,BB9 7QP,2013-11-25,fhrs_3_en-GB,3,,FHRS,10
187094,,19A Chapel Street,Brierfield,"Nelson, Lancashire",Amis Mini Market,Retailers - other,4613,10,,185853,10,,53.82538800000000,SM008,201,environmental.food@pendle.gov.uk,Pendle,http://www.pendle.gov.uk,-2.23280700000000,BB9 5HJ,2014-05-19,fhrs_3_en-GB,3,,FHRS,5
187095,,97 Albert Road,Colne,Lancashire,Anaz Take-away,Takeaway/sandwich shop,7844,5,,159569,10,,53.85522300000000,NJ030,201,environmental.food@pendle.gov.uk,Pendle,http://www.pendle.gov.uk,-2.17765100000000,BB8 0BS,2014-08-20,fhrs_4_en-GB,4,,FHRS,5
187096,,18 North Street,Nelson,Lancashire,Anmol Ziaka,Takeaway/sandwich shop,7844,5,,185819,5,,53.83902000000000,SJ052,201,environmental.food@pendle.gov.uk,Pendle,http://www.pendle.gov.uk,-2.21464700000000,BB9 7NF,2014-08-11,fhrs_5_en-GB,5,,FHRS,5
187097,,,,,Annie's Ices,Mobile caterer,7846,5,,158165,5,,,H001,201,environmental.food@pendle.gov.uk,Pendle,http://www.pendle.gov.uk,,,2014-07-29,fhrs_5_en-GB,5,,FHRS,5
187098,,Cross Street,Nelson,Lancashire,Appetite,Takeaway/sandwich shop,7844,5,,328548,5,,53.83641800000000,SA017,201,environmental.food@pendle.gov.uk,Pendle,http://www.pendle.gov.uk,-2.21714100000000,BB9 7EN,2014-10-15,fhrs_5_en-GB,5,,FHRS,5
187099,,63 Keighley Road,Colne,Lancashire,Appetites,Takeaway/sandwich shop,7844,5,,159597,5,,53.85797200000000,NL008,201,environmental.food@pendle.gov.uk,Pendle,http://www.pendle.gov.uk,-2.15922100000000,BB8 0QF,2014-06-03,fhrs_4_en-GB,4,,FHRS,10
187100,The Arcade,Market Street,Colne,Lancashire,Arcade Cafe Ltd,Restaurant/Cafe/Canteen,1,5,,548203,5,,53.85700700000000,NA040,201,environmental.food@pendle.gov.uk,Pendle,http://www.pendle.gov.uk,-2.16815600000000,BB8 0HR,2014-11-21,fhrs_5_en-GB,5,,FHRS,5
187101,,10 Windy Bank,Colne,Lancashire,Arcadia Cafe,Restaurant/Cafe/Canteen,1,5,,159437,5,,53.85789600000000,NA012,201,environmental.food@pendle.gov.uk,Pendle,http://www.pendle.gov.uk,-2.16895000000000,BB8 9HZ,2013-05-16,fhrs_5_en-GB,5,,FHRS,5
187102,,168 Barkerhouse Road,Nelson,Lancashire,Asam,Retailers - other,4613,5,,185866,5,,53.83611600000000,SM052,201,environmental.food@pendle.gov.uk,Pendle,http://www.pendle.gov.uk,-2.19960300000000,BB9 9HA,2014-08-12,fhrs_4_en-GB,4,,FHRS,10
187103,,Corporation Street,Colne,Lancashire,Asda Stores Limited,Retailers - supermarkets/hypermarkets,7840,5,,328540,0,,53.84907300000000,NC004,201,environmental.food@pendle.gov.uk,Pendle,http://www.pendle.gov.uk,-2.19648800000000,BB8 8LU,2013-03-13,fhrs_5_en-GB,5,,FHRS,5
187104,,15 Colne Road,Brierfield,"Nelson, Lancashire",Asha Indian Take-away,Takeaway/sandwich shop,7844,5,,185807,5,,53.82419900000000,SJ038,201,environmental.food@pendle.gov.uk,Pendle,http://www.pendle.gov.uk,-2.23401600000000,BB9 5HW,2013-08-14,fhrs_5_en-GB,5,,FHRS,5
187105,,170 Every Street,Nelson,Lancashire,Ashraf Grocer's,Retailers - other,4613,5,,185871,5,,53.83564800000000,SM087,201,environmental.food@pendle.gov.uk,Pendle,http://www.pendle.gov.uk,-2.22060100000000,BB9 7HG,2014-08-12,fhrs_5_en-GB,5,,FHRS,5
187106,,75 Albert Road,Colne,Lancashire,Ashville House,Hotel/bed & breakfast/guest house,7842,5,,212925,5,,53.85551400000000,NA002,201,environmental.food@pendle.gov.uk,Pendle,http://www.pendle.gov.uk,-2.17563000000000,BB8 0BP,2014-05-07,fhrs_5_en-GB,5,,FHRS,5
187107,Unit 5,Clayton Street Industrial Esta,Nelson,Lancashire,Astra Catering,Restaurant/Cafe/Canteen,1,5,,185748,5,,53.84067200000000,SG005,201,environmental.food@pendle.gov.uk,Pendle,http://www.pendle.gov.uk,-2.21573400000000,BB9 7PH,2014-08-12,fhrs_5_en-GB,5,,FHRS,5
187108,,The Crescent,Burnley,Lancashire,Aykroyd Lodge,Hospitals/Childcare/Caring Premises,5,5,,212859,5,,53.81938000000000,SH038,201,environmental.food@pendle.gov.uk,Pendle,http://www.pendle.gov.uk,-2.23020700000000,BB10 2LX,2014-06-23,fhrs_5_en-GB,5,,FHRS,5
187109,,,,,Ayni Chocolate,Restaurant/Cafe/Canteen,1,5,,708364,5,,,NA102,201,environmental.food@pendle.gov.uk,Pendle,http://www.pendle.gov.uk,,,2014-04-17,fhrs_5_en-GB,5,,FHRS,5
187110,,14 Railway Street,Brierfield,"Nelson, Lancashire",Azad Stores,Retailers - other,4613,5,,212885,5,,53.82384600000000,SM079,201,environmental.food@pendle.gov.uk,Pendle,http://www.pendle.gov.uk,-2.23522900000000,BB9 5PJ,2014-08-12,fhrs_5_en-GB,5,,FHRS,5
187111,,139 Leeds Road,Nelson,Lancashire,B.B.Q Tonight,Takeaway/sandwich shop,7844,5,,185789,5,,53.83972500000000,SJ019,201,environmental.food@pendle.gov.uk,Pendle,http://www.pendle.gov.uk,-2.20764400000000,BB9 9XG,2012-09-10,fhrs_5_en-GB,5,,FHRS,5
187112,,Cuckstool Lane,Fence,"Burnley, Lancashire",Babar Elephant,Restaurant/Cafe/Canteen,1,5,,534047,5,,53.82960800000000,SA042,201,environmental.food@pendle.gov.uk,Pendle,http://www.pendle.gov.uk,-2.26078600000000,BB12 9PA,2014-12-17,fhrs_4_en-GB,4,,FHRS,10
187113,,26 Hallam Road,Nelson,Lancashire,Balti Curry House,Takeaway/sandwich shop,7844,5,,185784,5,,53.83967800000000,SJ013,201,environmental.food@pendle.gov.uk,Pendle,http://www.pendle.gov.uk,-2.20338900000000,BB9 8AA,2014-05-08,fhrs_5_en-GB,5,,FHRS,5
187114,,,,,Bankys Butteys,Mobile caterer,7846,10,,591447,5,,,H041,201,environmental.food@pendle.gov.uk,Pendle,http://www.pendle.gov.uk,,,2013-09-12,fhrs_4_en-GB,4,,FHRS,5
187115,,Vivary Way,Colne,Lancashire,BannistersRestaurant/BB's Coffee Shop,Restaurant/Cafe/Canteen,1,5,,159435,5,,53.85783900000000,NA009,201,environmental.food@pendle.gov.uk,Pendle,http://www.pendle.gov.uk,-2.17752500000000,BB8 9NW,2013-10-31,fhrs_5_en-GB,5,,FHRS,5
187116,,Vivary Way,Colne,Lancashire,Banny's Fish and Chip Restaurant,Restaurant/Cafe/Canteen,1,5,,159452,5,,53.85783900000000,NA037,201,environmental.food@pendle.gov.uk,Pendle,http://www.pendle.gov.uk,-2.17752500000000,BB8 9NW,2013-08-21,fhrs_5_en-GB,5,,FHRS,5
187117,,Albert Road,Colne,Lancashire,Bargain Booze,Retailers - other,4613,10,,212857,5,,53.85604800000000,NN008,201,environmental.food@pendle.gov.uk,Pendle,http://www.pendle.gov.uk,-2.17300200000000,BB8 0RY,2014-08-11,fhrs_4_en-GB,4,,FHRS,5
187118,,68-70 Gisburn Road,Barrowford,"Nelson, Lancashire",Bargain Booze,Retailers - other,4613,5,,726955,5,,53.84958600000000,SQ007,201,environmental.food@pendle.gov.uk,Pendle,http://www.pendle.gov.uk,-2.21685900000000,BB9 8NG,2014-11-19,fhrs_5_en-GB,5,,FHRS,5
187119,,102 Barkerhouse Road,Nelson,Lancashire,Barkerhouse Pharmacy,Restaurant/Cafe/Canteen,1,,,708386,,,53.83657700000000,ST003,201,environmental.food@pendle.gov.uk,Pendle,http://www.pendle.gov.uk,-2.20378400000000,BB9 9EU,2014-06-10,fhrs_exempt_en-GB,Exempt,,FHRS,
187120,,2 Pendle View,Barley,"Burnley, Lancashire",Barley Tea Rooms,Restaurant/Cafe/Canteen,1,5,,185668,5,,53.86064300000000,SA046,201,environmental.food@pendle.gov.uk,Pendle,http://www.pendle.gov.uk,-2.27312700000000,BB12 9LA,2012-10-31,fhrs_5_en-GB,5,,FHRS,5
187121,7 Majestic Buildings,Albert Road,Barnoldswick,Lancashire,Barlic Bites,Takeaway/sandwich shop,7844,5,,159601,5,,53.91644300000000,NL012,201,environmental.food@pendle.gov.uk,Pendle,http://www.pendle.gov.uk,-2.18710700000000,BB18 5AA,2012-11-23,fhrs_5_en-GB,5,,FHRS,5
187122,,7 Station Road,Barnoldswick,Lancashire,Barlick Raj Balti Ltd,Restaurant/Cafe/Canteen,1,10,,534043,10,,53.91689100000000,NA006,201,environmental.food@pendle.gov.uk,Pendle,http://www.pendle.gov.uk,-2.18762600000000,BB18 5NA,2013-12-04,fhrs_3_en-GB,3,,FHRS,10
187123,,York Street,Barnoldswick,Lancashire,Barnoldswick CE School,School/college/university,7845,5,,159496,5,,53.91505900000000,NB026,201,environmental.food@pendle.gov.uk,Pendle,http://www.pendle.gov.uk,-2.18665900000000,BB18 5BB,2013-12-09,fhrs_5_en-GB,5,,FHRS,5
187124,,Station Road,Barnoldswick,Lancashire,Barnoldswick Conservative Club,Pub/bar/nightclub,7843,5,,212881,5,,53.91689100000000,NS017,201,environmental.food@pendle.gov.uk,Pendle,http://www.pendle.gov.uk,-2.18762600000000,BB18 5NA,2014-05-13,fhrs_5_en-GB,5,,FHRS,5
187125,,West Close Road,Barnoldswick,Lancashire,Barnoldswick Cricket Club,Pub/bar/nightclub,7843,5,,328545,10,,53.92125800000000,NS007,201,environmental.food@pendle.gov.uk,Pendle,http://www.pendle.gov.uk,-2.18866600000000,BB18 5EN,2011-12-06,fhrs_3_en-GB,3,,FHRS,10
187126,,21 King Street,Barnoldswick,Lancashire,Barnoldswick Legion Club Ltd,Pub/bar/nightclub,7843,5,,212936,5,,53.91533600000000,NS020,201,environmental.food@pendle.gov.uk,Pendle,http://www.pendle.gov.uk,-2.18812200000000,BB18 5UW,2014-06-04,fhrs_5_en-GB,5,,FHRS,5
187127,,West Close Road,Barnoldswick,Lancashire,Barnoldswick Town F C,Pub/bar/nightclub,7843,5,,159660,10,,53.92125800000000,NS028,201,environmental.food@pendle.gov.uk,Pendle,http://www.pendle.gov.uk,-2.18866600000000,BB18 5EN,2011-12-06,fhrs_3_en-GB,3,,FHRS,10
187128,,Green Street,Barnoldswick,Lancashire,Barnoldswick WMC,Pub/bar/nightclub,7843,10,,212919,5,,53.91623300000000,NS018,201,environmental.food@pendle.gov.uk,Pendle,http://www.pendle.gov.uk,-2.18937400000000,BB18 5NX,2014-06-26,fhrs_4_en-GB,4,,FHRS,5
187129,,6 King Edward Terrace,Barrowford,"Nelson, Lancashire",Barrowford Catering,Takeaway/sandwich shop,7844,5,,185729,5,,53.84677100000000,SE011,201,environmental.food@pendle.gov.uk,Pendle,http://www.pendle.gov.uk,-2.21789300000000,BB9 8NJ,2014-11-25,fhrs_5_en-GB,5,,FHRS,5
187130,,Wilton Street,Barrowford,"Nelson, Lancashire",Barrowford Nursery,Hospitals/Childcare/Caring Premises,5,5,,212907,5,,53.84825700000000,SB042,201,environmental.food@pendle.gov.uk,Pendle,http://www.pendle.gov.uk,-2.21653300000000,BB9 8PU,2014-05-13,fhrs_5_en-GB,5,,FHRS,5
187131,,Rushton Street,Barrowford,"Nelson, Lancashire",Barrowford Primary School,School/college/university,7845,5,,185692,5,,53.85073500000000,SB022,201,environmental.food@pendle.gov.uk,Pendle,http://www.pendle.gov.uk,-2.21767100000000,BB9 6EA,2014-07-18,fhrs_5_en-GB,5,,FHRS,5
187132,,David Street,Barrowford,"Nelson, Lancashire",Barrowford Working Mens Club,Pub/bar/nightclub,7843,10,,212913,5,,53.85440800000000,SS005,201,environmental.food@pendle.gov.uk,Pendle,http://www.pendle.gov.uk,-2.21458900000000,BB9 6HL,2014-05-13,fhrs_4_en-GB,4,,FHRS,5
187133,,Blacko Bar Road,Roughlee,"Nelson, Lancashire",Bay Horse Inn,Pub/bar/nightclub,7843,5,,328552,5,,53.85898100000000,SD003,201,environmental.food@pendle.gov.uk,Pendle,http://www.pendle.gov.uk,-2.23941000000000,BB9 6NP,2013-11-12,fhrs_5_en-GB,5,,FHRS,5
187134,,106 Gisburn Road,Barrowford,"Nelson, Lancashire",Beech's Butchers,Retailers - other,4613,5,,185833,5,,53.85231200000000,SK020,201,environmental.food@pendle.gov.uk,Pendle,http://www.pendle.gov.uk,-2.21553600000000,BB9 6EW,2014-03-31,fhrs_5_en-GB,5,,FHRS,5
187135,,7-9 Colne Road,Earby,"Barnoldswick, Lancashire",Beer Hut,Retailers - other,4613,5,,328544,5,,53.91464000000000,NM058,201,environmental.food@pendle.gov.uk,Pendle,http://www.pendle.gov.uk,-2.14585700000000,BB18 6XB,2014-06-25,fhrs_5_en-GB,5,,FHRS,5
187136,,193 Barkerhouse Road,Nelson,Lancashire,Beer Hut,Retailers - other,4613,10,,212910,5,,53.83577100000000,SQ001,201,environmental.food@pendle.gov.uk,Pendle,http://www.pendle.gov.uk,-2.19662300000000,BB9 9NP,2014-07-16,fhrs_4_en-GB,4,,FHRS,5
187137,,Wheatley Lane Road,Barrowford,"Nelson, Lancashire",Belgarth Nursing Home,Hospitals/Childcare/Caring Premises,5,0,,185760,5,,53.84911600000000,SH017,201,environmental.food@pendle.gov.uk,Pendle,http://www.pendle.gov.uk,-2.22801400000000,BB9 6QP,2013-11-19,fhrs_5_en-GB,5,,FHRS,5
187138,,Holden Road,Burnley,Lancashire,Belvedere and Caldervale SC,Pub/bar/nightclub,7843,5,,185933,5,,53.81496700000000,SS009,201,environmental.food@pendle.gov.uk,Pendle,http://www.pendle.gov.uk,-2.23461700000000,BB10 2LE,2012-09-12,fhrs_5_en-GB,5,,FHRS,5
187139,,74 Barkerhouse Road,Nelson,Lancashire,Best Booze Convenience Store,Retailers - other,4613,5,,185855,10,,53.83657700000000,SM010,201,environmental.food@pendle.gov.uk,Pendle,http://www.pendle.gov.uk,-2.20378400000000,BB9 9EU,2014-08-19,fhrs_3_en-GB,3,,FHRS,10
187140,,67B Larch Street,Nelson,Lancashire,Best Quality Meat Centre,Retailers - other,4613,10,,185829,5,,53.83564200000000,SK009,201,environmental.food@pendle.gov.uk,Pendle,http://www.pendle.gov.uk,-2.20397700000000,BB9 9RH,2013-11-11,fhrs_3_en-GB,3,,FHRS,10
187141,,,,,Betty Buttercream,Retailers - other,4613,10,,159439,10,,,NA014,201,environmental.food@pendle.gov.uk,Pendle,http://www.pendle.gov.uk,,,2013-02-08,fhrs_3_en-GB,3,,FHRS,10
187142,,Skipton Old Road,Colne,Lancashire,Black Lane Ends Tavern,Pub/bar/nightclub,7843,10,,159634,10,,53.87930300000000,NP007,201,environmental.food@pendle.gov.uk,Pendle,http://www.pendle.gov.uk,-2.10854200000000,BB8 7EP,2014-02-13,fhrs_3_en-GB,3,,FHRS,10
187143,,Gisburn Road,Blacko,"Nelson, Lancashire",Blacko County Primary School,School/college/university,7845,5,,185679,5,,53.86836600000000,SB005,201,environmental.food@pendle.gov.uk,Pendle,http://www.pendle.gov.uk,-2.21435600000000,BB9 6LS,2013-10-09,fhrs_5_en-GB,5,,FHRS,5
187144,Blakey Hall Farm,Red Lane,Colne,Lancashire,Blakey Hall Farm B+B,Hotel/bed & breakfast/guest house,7842,5,,212856,5,,53.86330200000000,NA066,201,environmental.food@pendle.gov.uk,Pendle,http://www.pendle.gov.uk,-2.19605300000000,BB8 9TD,2014-05-21,fhrs_5_en-GB,5,,FHRS,5
187145,,18 Cotton Tree Lane,Colne,Lancashire,Blossom Tree,Hospitals/Childcare/Caring Premises,5,5,,159659,5,,53.85787700000000,NS027,201,environmental.food@pendle.gov.uk,Pendle,http://www.pendle.gov.uk,-2.14924700000000,BB8 7BA,2014-07-16,fhrs_5_en-GB,5,,FHRS,5
187146,,161 Railway Street,Nelson,Lancashire,Bobby's Off Licence,Retailers - other,4613,10,,570480,5,,53.83209800000000,SM072,201,environmental.food@pendle.gov.uk,Pendle,http://www.pendle.gov.uk,-2.21058500000000,BB9 9PG,2013-06-26,fhrs_3_en-GB,3,,FHRS,10
187147,,33 Railway Street,Nelson,Lancashire,Bob's Traditional Fish and Chips,Restaurant/Cafe/Canteen,1,5,,591455,5,,53.83539100000000,SJ060,201,environmental.food@pendle.gov.uk,Pendle,http://www.pendle.gov.uk,-2.21376200000000,BB9 9SG,2013-10-03,fhrs_5_en-GB,5,,FHRS,5
187148,,117b Gisburn Road,Barrowford,"Nelson, Lancashire",Bombay Lounge,Restaurant/Cafe/Canteen,1,10,,212867,10,,53.85231200000000,SP022,201,environmental.food@pendle.gov.uk,Pendle,http://www.pendle.gov.uk,-2.21553600000000,BB9 6EW,2013-12-16,fhrs_3_en-GB,3,,FHRS,10
187149,,64 Market Street,Colne,Lancashire,Boots The Chemist,Restaurant/Cafe/Canteen,1,,,708373,,,53.85698400000000,NT006,201,environmental.food@pendle.gov.uk,Pendle,http://www.pendle.gov.uk,-2.16595200000000,BB8 0HS,2014-06-26,fhrs_exempt_en-GB,Exempt,,FHRS,
187150,2 Marsden Mall,Pendle Rise Shopping Centre,Nelson,Lancashire,Boot's The Chemist,Restaurant/Cafe/Canteen,1,,,708384,,,53.83613700000000,ST001,201,environmental.food@pendle.gov.uk,Pendle,http://www.pendle.gov.uk,-2.21369000000000,BB9 9SL,2014-06-10,fhrs_exempt_en-GB,Exempt,,FHRS,
187151,Walton Lane Community Centre,Leeds Road,Nelson,Lancashire,Borough of Pendle,Hospitals/Childcare/Caring Premises,5,5,,185759,5,,53.86120605468750,SH016,201,environmental.food@pendle.gov.uk,Pendle,http://www.pendle.gov.uk,-2.56927990913391,BB9 8RW,2013-05-29,fhrs_5_en-GB,5,,FHRS,5
187152,,359 Leeds Road,Nelson,Lancashire,Boundary Pharmacy,Restaurant/Cafe/Canteen,1,,,708392,,,53.84452000000000,ST009,201,environmental.food@pendle.gov.uk,Pendle,http://www.pendle.gov.uk,-2.19962800000000,BB9 8RP,2014-06-04,fhrs_exempt_en-GB,Exempt,,FHRS,
187153,,7 New Market Street,Colne,Lancashire,Boyce's Barrel,Pub/bar/nightclub,7843,5,,726951,5,,53.85711900000000,NS030,201,environmental.food@pendle.gov.uk,Pendle,http://www.pendle.gov.uk,-2.17162300000000,BB8 9BJ,2014-12-03,fhrs_5_en-GB,5,,FHRS,5
187154,,Bradley Road,Nelson,Lancashire,Bradley Early Years Centre,Hospitals/Childcare/Caring Premises,5,5,,185693,5,,53.83939500000000,SB023,201,environmental.food@pendle.gov.uk,Pendle,http://www.pendle.gov.uk,-2.21113800000000,BB9 7QH,2014-12-16,fhrs_5_en-GB,5,,FHRS,0
187155,,Dover Street,Nelson,Lancashire,Bradley Primary School,School/college/university,7845,5,,185677,5,,53.84144900000000,SB003,201,environmental.food@pendle.gov.uk,Pendle,http://www.pendle.gov.uk,-2.20855000000000,BB9 7RF,2012-10-22,fhrs_5_en-GB,5,,FHRS,5
187156,,2 Scotland Road,Nelson,Lancashire,Bramwell's,Retailers - other,4613,5,,185884,10,,53.83764600000000,SN016,201,environmental.food@pendle.gov.uk,Pendle,http://www.pendle.gov.uk,-2.21404700000000,BB9 7UU,2013-12-18,fhrs_4_en-GB,4,,FHRS,5
187157,,,,,Bratengrill,Mobile caterer,7846,5,,158173,5,,,H015,201,environmental.food@pendle.gov.uk,Pendle,http://www.pendle.gov.uk,,,2012-09-10,fhrs_5_en-GB,5,,FHRS,5
187158,Briercliffe Lodge,Rainhall Crescent,Barnoldswick,Lancashire,Briercliffe Lodge Care Home,Hospitals/Childcare/Caring Premises,5,5,,159534,5,,53.91943800000000,NH010,201,environmental.food@pendle.gov.uk,Pendle,http://www.pendle.gov.uk,-2.17395000000000,BB18 6BS,2014-04-25,fhrs_5_en-GB,5,,FHRS,5
187159,,27 Burnley Road,Brierfield,"Nelson, Lancashire",Brierfield Bakery,Manufacturers/packers,7839,5,,185726,5,,53.82106800000000,SE003,201,environmental.food@pendle.gov.uk,Pendle,http://www.pendle.gov.uk,-2.23568400000000,BB9 5JL,2013-09-27,fhrs_4_en-GB,4,,FHRS,10
187160,,Hardy Avenue,Brierfield,"Nelson, Lancashire",Brierfield House Care Home,Hospitals/Childcare/Caring Premises,5,5,,185768,0,,53.82838800000000,SH029,201,environmental.food@pendle.gov.uk,Pendle,http://www.pendle.gov.uk,-2.22923800000000,BB9 5RN,2014-10-21,fhrs_5_en-GB,5,,FHRS,5
187161,,Cross Street,Brierfield,"Nelson, Lancashire",Brierfield Liberal Club Ltd,Pub/bar/nightclub,7843,10,,212912,5,,53.82457400000000,SS004,201,environmental.food@pendle.gov.uk,Pendle,http://www.pendle.gov.uk,-2.23506600000000,BB9 5PA,2014-05-13,fhrs_4_en-GB,4,,FHRS,5
187162,,17-19 Walter Street,Brierfield,"Nelson, Lancashire",Brierfield WMC,Pub/bar/nightclub,7843,5,,185935,10,,53.82252000000000,SS020,201,environmental.food@pendle.gov.uk,Pendle,http://www.pendle.gov.uk,-2.23288200000000,BB9 5AW,2013-09-10,fhrs_4_en-GB,4,,FHRS,5
187163,,Harden Road,Kelbrook,"Barnoldswick, Lancashire",Brook Farm Childrens Nursery,Hospitals/Childcare/Caring Premises,5,5,,159477,5,,53.89860400000000,NB001,201,environmental.food@pendle.gov.uk,Pendle,http://www.pendle.gov.uk,-2.14712500000000,BB18 6TS,2014-10-22,fhrs_5_en-GB,5,,FHRS,0
187164,,Fore Side,Barrowford,"Nelson, Lancashire",Brookdell,Hospitals/Childcare/Caring Premises,5,5,,185764,5,,53.85737100000000,SH023,201,environmental.food@pendle.gov.uk,Pendle,http://www.pendle.gov.uk,-2.21086400000000,BB9 6AB,2014-10-28,fhrs_5_en-GB,5,,FHRS,0
187165,,219 Brunswick Street,Nelson,Lancashire,Brunswick Street Chippy,Takeaway/sandwich shop,7844,10,,185778,10,,53.83021100000000,SJ007,201,environmental.food@pendle.gov.uk,Pendle,http://www.pendle.gov.uk,-2.20533400000000,BB9 0JT,2013-07-31,fhrs_3_en-GB,3,,FHRS,10
187166,,2 Royal Oak Cottages,Barrowford,"Nelson, Lancashire",B's Baking,Restaurant/Cafe/Canteen,1,5,,554845,5,,53.85560900000000,SA079,201,environmental.food@pendle.gov.uk,Pendle,http://www.pendle.gov.uk,-2.23066400000000,BB9 6RB,2013-06-07,fhrs_5_en-GB,5,,FHRS,5
187167,,,,,Bumbly Bees,Restaurant/Cafe/Canteen,1,5,,159461,5,,,NA051,201,environmental.food@pendle.gov.uk,Pendle,http://www.pendle.gov.uk,,,2013-09-24,fhrs_5_en-GB,5,,FHRS,5
187168,,Reedymoor Lane,Foulridge,"Colne, Lancashire",Burwain Sailing Club,Pub/bar/nightclub,7843,10,,159657,10,,53.87343400000000,NS022,201,environmental.food@pendle.gov.uk,Pendle,http://www.pendle.gov.uk,-2.18270100000000,BB8 7LJ,2013-10-01,fhrs_3_en-GB,3,,FHRS,10
187169,,71-73 Keighley Road,Colne,Lancashire,C H Leedham and Sons,Restaurant/Cafe/Canteen,1,,,708372,,,53.85797200000000,NT005,201,environmental.food@pendle.gov.uk,Pendle,http://www.pendle.gov.uk,-2.15922100000000,BB8 0QF,2014-06-26,fhrs_exempt_en-GB,Exempt,,FHRS,
187170,The Warehouse,Warehouse Lane,Foulridge,"Colne, Lancashire",Cafe Cargo,Restaurant/Cafe/Canteen,1,5,,159444,5,,53.87762200000000,NA023,201,environmental.food@pendle.gov.uk,Pendle,http://www.pendle.gov.uk,-2.17074900000000,BB8 7PP,2015-01-13,fhrs_4_en-GB,4,,FHRS,10
187171,,14-16 Market Square,Nelson,Lancashire,Cafe Express,Restaurant/Cafe/Canteen,1,10,,185848,10,,53.83773200000000,SL013,201,environmental.food@pendle.gov.uk,Pendle,http://www.pendle.gov.uk,-2.21617500000000,BB9 7LP,2013-05-14,fhrs_3_en-GB,3,,FHRS,10
187172,,15A Newtown,Barnoldswick,Lancashire,Cafe Julia,Restaurant/Cafe/Canteen,1,5,,159454,5,,53.91589300000000,NA041,201,environmental.food@pendle.gov.uk,Pendle,http://www.pendle.gov.uk,-2.18789600000000,BB18 5UQ,2013-02-21,fhrs_5_en-GB,5,,FHRS,5
187173,,21 Albert Road,Barnoldswick,Lancashire,Cafe on the Square Ltd,Restaurant/Cafe/Canteen,1,5,,159430,5,,53.91644300000000,NA001,201,environmental.food@pendle.gov.uk,Pendle,http://www.pendle.gov.uk,-2.18710700000000,BB18 5AA,2013-11-15,fhrs_5_en-GB,5,,FHRS,5
187174,,,,,Caffeine Rush (Pendle) Ltd,Mobile caterer,7846,5,,212854,5,,,H075,201,environmental.food@pendle.gov.uk,Pendle,http://www.pendle.gov.uk,,,2014-05-21,fhrs_5_en-GB,5,,FHRS,5
187175,,,,,Cake,Restaurant/Cafe/Canteen,1,5,,708363,5,,,NA100,201,environmental.food@pendle.gov.uk,Pendle,http://www.pendle.gov.uk,,,2014-09-22,fhrs_5_en-GB,5,,FHRS,5
187176,,,,,Cake by Victoria Andrews,Restaurant/Cafe/Canteen,1,5,,548204,5,,,NA088,201,environmental.food@pendle.gov.uk,Pendle,http://www.pendle.gov.uk,,,2013-05-02,fhrs_5_en-GB,5,,FHRS,5
187177,,,,,Cake-A-Licious,Restaurant/Cafe/Canteen,1,5,,591448,5,,,NA096,201,environmental.food@pendle.gov.uk,Pendle,http://www.pendle.gov.uk,,,2013-09-25,fhrs_5_en-GB,5,,FHRS,5
187178,,6 Keighley Road,Colne,Lancashire,Calder View,Hospitals/Childcare/Caring Premises,5,10,,159538,5,,53.85717800000000,NH026,201,environmental.food@pendle.gov.uk,Pendle,http://www.pendle.gov.uk,-2.16215200000000,BB8 0JL,2013-02-12,fhrs_4_en-GB,4,,FHRS,5
187179,,43 Railway Street,Nelson,Lancashire,Captain Cooks,Takeaway/sandwich shop,7844,5,,185815,5,,53.83539100000000,SJ047,201,environmental.food@pendle.gov.uk,Pendle,http://www.pendle.gov.uk,-2.21376200000000,BB9 9SG,2014-12-15,fhrs_5_en-GB,5,,FHRS,5
187180,,60A Albert Road,Colne,Lancashire,Carlo's Restaurant,Restaurant/Cafe/Canteen,1,5,,159446,5,,53.85617200000000,NA026,201,environmental.food@pendle.gov.uk,Pendle,http://www.pendle.gov.uk,-2.17424900000000,BB8 0AD,2012-10-04,fhrs_5_en-GB,5,,FHRS,5
187181,,54 Carr Hall Road,Barrowford,"Nelson, Lancashire",Carr Hall Home For The Elderly,Hospitals/Childcare/Caring Premises,5,5,,185761,5,,53.83985400000000,SH018,201,environmental.food@pendle.gov.uk,Pendle,http://www.pendle.gov.uk,-2.23051700000000,BB9 6PY,2014-03-18,fhrs_4_en-GB,4,,FHRS,10
187182,,114 Carr Road,Nelson,Lancashire,Carr Road Newsagents,Retailers - other,4613,10,,570484,5,,53.83885500000000,SR010,201,environmental.food@pendle.gov.uk,Pendle,http://www.pendle.gov.uk,-2.22146900000000,BB9 7ST,2013-06-27,fhrs_3_en-GB,3,,FHRS,10
187183,,Marsden Hall Road North,Nelson,Lancashire,Castercliff CP School,School/college/university,7845,5,,185686,5,,53.84055000000000,SB013,201,environmental.food@pendle.gov.uk,Pendle,http://www.pendle.gov.uk,-2.19222300000000,BB9 8JJ,2012-11-22,fhrs_5_en-GB,5,,FHRS,5
187184,,48-50 Manchester Road,Nelson,Lancashire,Catering&Zaky's,Restaurant/Cafe/Canteen,1,10,,185663,10,,53.83586200000000,SA036,201,environmental.food@pendle.gov.uk,Pendle,http://www.pendle.gov.uk,-2.21680300000000,BB9 7EJ,2013-06-26,fhrs_3_en-GB,3,,FHRS,10
187185,,115 Leeds Road,Nelson,Lancashire,Cath's Cafe,Restaurant/Cafe/Canteen,1,5,,185790,10,,53.83920200000000,SJ020,201,environmental.food@pendle.gov.uk,Pendle,http://www.pendle.gov.uk,-2.20875100000000,BB9 9UA,2014-12-05,fhrs_3_en-GB,3,,FHRS,10
187186,,18-22 Rainhall Road,Barnoldswick,Lancashire,Cellar Bar & Bistro,Restaurant/Cafe/Canteen,1,5,,485332,5,,53.91553500000000,NM014,201,environmental.food@pendle.gov.uk,Pendle,http://www.pendle.gov.uk,-2.18692000000000,BB18 5AF,2012-12-06,fhrs_5_en-GB,5,,FHRS,5
187187,,75 Keighley Road,Colne,Lancashire,Cemetery Chippy,Takeaway/sandwich shop,7844,5,,159551,0,,53.85797200000000,NJ011,201,environmental.food@pendle.gov.uk,Pendle,http://www.pendle.gov.uk,-2.15922100000000,BB8 0QF,2015-01-07,fhrs_5_en-GB,5,,FHRS,5
187188,,4 Scotland Road,Nelson,Lancashire,Chalkers Snooker Club,Pub/bar/nightclub,7843,5,,591458,10,,53.83764600000000,SS046,201,environmental.food@pendle.gov.uk,Pendle,http://www.pendle.gov.uk,-2.21404700000000,BB9 7UU,2013-08-06,fhrs_3_en-GB,3,,FHRS,10
187189,,232 Chapel House Road,Nelson,Lancashire,Chapel Grocers,Retailers - other,4613,5,,185850,5,,53.82984600000000,SM003,201,environmental.food@pendle.gov.uk,Pendle,http://www.pendle.gov.uk,-2.21343000000000,BB9 0QR,2014-08-12,fhrs_5_en-GB,5,,FHRS,5
187190,,194 Chapel House Road,Nelson,Lancashire,Chapel House Pharmacy,Restaurant/Cafe/Canteen,1,,,708387,,,53.83052200000000,ST004,201,environmental.food@pendle.gov.uk,Pendle,http://www.pendle.gov.uk,-2.21243000000000,BB9 0QW,2014-06-04,fhrs_exempt_en-GB,Exempt,,FHRS,
187191,,23 Albert Road,Barnoldswick,Lancashire,Chaudhry Continental Store,Retailers - other,4613,5,,159612,5,,53.91644300000000,NM016,201,environmental.food@pendle.gov.uk,Pendle,http://www.pendle.gov.uk,-2.18710700000000,BB18 5AA,2014-07-01,fhrs_4_en-GB,4,,FHRS,10
187192,,33 Ashford Street,Nelson,Lancashire,Chaudhry Food Stores,Retailers - other,4613,10,,708380,10,,53.83344900000000,SM027,201,environmental.food@pendle.gov.uk,Pendle,http://www.pendle.gov.uk,-2.20870700000000,BB9 9DG,2014-09-30,fhrs_3_en-GB,3,,FHRS,10
187193,,39 Albert Road,Barnoldswick,Lancashire,Chef's Pantry,Manufacturers/packers,7839,5,,159523,5,,53.91644300000000,NE009,201,environmental.food@pendle.gov.uk,Pendle,http://www.pendle.gov.uk,-2.18710700000000,BB18 5AA,2012-11-12,fhrs_5_en-GB,5,,FHRS,5
187194,,67 Colne Road,Brierfield,"Nelson, Lancashire",Chemist,Retailers - other,4613,,,212901,,,53.82679700000000,SM105,201,environmental.food@pendle.gov.uk,Pendle,http://www.pendle.gov.uk,-2.23359000000000,BB9 5NP,2014-06-04,fhrs_exempt_en-GB,Exempt,,FHRS,
187195,,62 Leeds Road,Nelson,Lancashire,Chesters (Nelson) Ltd,Takeaway/sandwich shop,7844,5,,455939,5,,53.83775000000000,SJ029,201,environmental.food@pendle.gov.uk,Pendle,http://www.pendle.gov.uk,-2.21143400000000,BB9 9TD,2012-10-15,fhrs_5_en-GB,5,,FHRS,5
187196,,4-6 Victoria Road,Earby,"Barnoldswick, Lancashire",Chilli Pepper,Restaurant/Cafe/Canteen,1,5,,159473,5,,53.91758200000000,NA078,201,environmental.food@pendle.gov.uk,Pendle,http://www.pendle.gov.uk,-2.14277600000000,BB18 6US,2014-12-01,fhrs_5_en-GB,5,,FHRS,5
187197,,132 Manchester Road,Nelson,Lancashire,China Express,Takeaway/sandwich shop,7844,5,,185795,5,,53.83341800000000,SJ025,201,environmental.food@pendle.gov.uk,Pendle,http://www.pendle.gov.uk,-2.22109100000000,BB9 7AH,2014-12-01,fhrs_5_en-GB,5,,FHRS,0
187198,,39 Rainhall Road,Barnoldswick,Lancashire,China Express,Takeaway/sandwich shop,7844,5,,159545,5,,53.91694300000000,NJ005,201,environmental.food@pendle.gov.uk,Pendle,http://www.pendle.gov.uk,-2.18315000000000,BB18 6AB,2013-10-16,fhrs_5_en-GB,5,,FHRS,5
187199,,33 Albert Road,Colne,Lancashire,China Garden,Takeaway/sandwich shop,7844,5,,159549,5,,53.85604800000000,NJ009,201,environmental.food@pendle.gov.uk,Pendle,http://www.pendle.gov.uk,-2.17300200000000,BB8 0RY,2013-08-08,fhrs_5_en-GB,5,,FHRS,5
187200,,,,,Chocolate Falls of Lancashire,Mobile caterer,7846,5,,485337,5,,,SR022,201,environmental.food@pendle.gov.uk,Pendle,http://www.pendle.gov.uk,,,2012-12-11,fhrs_5_en-GB,5,,FHRS,5
187201,,Leeds Road,Nelson,Lancashire,Chocstop,Retailers - other,4613,0,,485335,0,,53.83632500000000,SM016,201,environmental.food@pendle.gov.uk,Pendle,http://www.pendle.gov.uk,-2.21425300000000,BB9 9SY,2012-12-04,fhrs_5_en-GB,5,,FHRS,5
187202,,48 Colne Road,Brierfield,"Nelson, Lancashire",Chopsticks,Takeaway/sandwich shop,7844,5,,185780,5,,53.82601400000000,SJ009,201,environmental.food@pendle.gov.uk,Pendle,http://www.pendle.gov.uk,-2.23417800000000,BB9 5NN,2014-12-22,fhrs_4_en-GB,4,,FHRS,10
187203,,Cross Street,Nelson,Lancashire,Christ Church,Restaurant/Cafe/Canteen,1,5,,328547,5,,53.83641800000000,SA010,201,environmental.food@pendle.gov.uk,Pendle,http://www.pendle.gov.uk,-2.21714100000000,BB9 7EN,2013-01-31,fhrs_5_en-GB,5,,FHRS,5
187204,,Bent Lane,Colne,Lancashire,Christchurch CE School,School/college/university,7845,5,,159487,5,,53.86140800000000,NB012,201,environmental.food@pendle.gov.uk,Pendle,http://www.pendle.gov.uk,-2.14294900000000,BB8 7AA,2014-02-10,fhrs_5_en-GB,5,,FHRS,5
187205,,19 Albert Road,Barnoldswick,Lancashire,Chubbys Chippy,Takeaway/sandwich shop,7844,5,,159541,5,,53.91644300000000,NJ001,201,environmental.food@pendle.gov.uk,Pendle,http://www.pendle.gov.uk,-2.18710700000000,BB18 5AA,2013-10-03,fhrs_4_en-GB,4,,FHRS,10
187206,,292-294 Leeds Road,Nelson,Lancashire,Chunky Chicken,Restaurant/Cafe/Canteen,1,5,,421252,5,,53.84281500000000,SJ064,201,environmental.food@pendle.gov.uk,Pendle,http://www.pendle.gov.uk,-2.20322200000000,BB9 8EP,2014-04-03,fhrs_5_en-GB,5,,FHRS,5
187207,,6 Church Street,Barnoldswick,Lancashire,Church Street Chippy,Takeaway/sandwich shop,7844,5,,159542,5,,53.91566600000000,NJ002,201,environmental.food@pendle.gov.uk,Pendle,http://www.pendle.gov.uk,-2.18940200000000,BB18 5UT,2013-09-20,fhrs_4_en-GB,4,,FHRS,10
187208,,Pendle Rise Shopping Centre,Nelson,Lancashire,Claire's Cafe,Restaurant/Cafe/Canteen,1,5,,534048,5,,53.83613700000000,SA047,201,environmental.food@pendle.gov.uk,Pendle,http://www.pendle.gov.uk,-2.21369000000000,BB9 9SL,2013-10-07,fhrs_5_en-GB,5,,FHRS,5
187209,Dimpenley Clarion House,Jinny Lane,Roughlee,"Burnley, Lancashire",Clarion House,Restaurant/Cafe/Canteen,1,5,,212891,5,,53.85227300000000,SA012,201,environmental.food@pendle.gov.uk,Pendle,http://www.pendle.gov.uk,-2.25794700000000,BB12 9LL,2014-05-13,fhrs_4_en-GB,4,,FHRS,10
187210,,Bradley Road,Nelson,Lancashire,Cleaver Group (Meat) Limited,Retailers - other,4613,10,,185827,5,,53.83939500000000,SK004,201,environmental.food@pendle.gov.uk,Pendle,http://www.pendle.gov.uk,-2.21113800000000,BB9 7QH,2013-02-13,fhrs_4_en-GB,4,,FHRS,5
187211,,Kirkstall Drive,Barnoldswick,Lancashire,Coates Lane CP School,School/college/university,7845,5,,159498,5,,53.92130500000000,NB028,201,environmental.food@pendle.gov.uk,Pendle,http://www.pendle.gov.uk,-2.17510000000000,BB18 6EZ,2014-01-24,fhrs_4_en-GB,4,,FHRS,10
187212,,,,,CoffeeEco,Mobile caterer,7846,5,,578811,5,,,H027,201,environmental.food@pendle.gov.uk,Pendle,http://www.pendle.gov.uk,,,2013-07-18,fhrs_5_en-GB,5,,FHRS,5
187213,,Back Lane,Southfield,"Burnley, Lancashire",Coldwell Activity Centre,Restaurant/Cafe/Canteen,1,5,,185763,5,,53.83844200000000,SH022,201,environmental.food@pendle.gov.uk,Pendle,http://www.pendle.gov.uk,-2.15878200000000,BB10 3RG,2014-06-18,fhrs_5_en-GB,5,,FHRS,5
187214,Unit 10-16 Market Hall,Market Street,Colne,Lancashire,Collinson's Delicatessen,Retailers - other,4613,5,,159614,5,,53.85698400000000,NM027,201,environmental.food@pendle.gov.uk,Pendle,http://www.pendle.gov.uk,-2.16595200000000,BB8 0HS,2014-01-14,fhrs_5_en-GB,5,,FHRS,5
187215,,Byron Road,Colne,Lancashire,Colne Cricket Club,Pub/bar/nightclub,7843,5,,159656,5,,53.85980200000000,NS009,201,environmental.food@pendle.gov.uk,Pendle,http://www.pendle.gov.uk,-2.15501600000000,BB8 0RF,2014-06-30,fhrs_4_en-GB,4,,FHRS,10
187216,Law Farm,Skipton Old Road,Colne,Lancashire,Colne Golf Club,Pub/bar/nightclub,7843,5,,159520,5,,53.86745200000000,ND015,201,environmental.food@pendle.gov.uk,Pendle,http://www.pendle.gov.uk,-2.13938100000000,BB8 7EB,2014-06-30,fhrs_5_en-GB,5,,FHRS,5
187217,,Market Street,Colne,Lancashire,Colne HCC (Pharmacy) Ltd,Restaurant/Cafe/Canteen,1,,,708368,,,53.85742200000000,NT001,201,environmental.food@pendle.gov.uk,Pendle,http://www.pendle.gov.uk,-2.16724600000000,BB8 0LJ,2014-08-12,fhrs_exempt_en-GB,Exempt,,FHRS,
187218,,Keighley Road,Colne,Lancashire,Colne Legion Club,Pub/bar/nightclub,7843,5,,159655,5,,53.85717800000000,NS008,201,environmental.food@pendle.gov.uk,Pendle,http://www.pendle.gov.uk,-2.16215200000000,BB8 0JL,2013-07-03,fhrs_5_en-GB,5,,FHRS,5
187219,Unit 1,"Primet Business Centre, Burnle",Colne,Lancashire,Colne Snooker Club,Pub/bar/nightclub,7843,5,,726947,5,,53.85235400000000,NA022,201,environmental.food@pendle.gov.uk,Pendle,http://www.pendle.gov.uk,-2.18492000000000,BB8 8DQ,2014-11-12,fhrs_5_en-GB,5,,FHRS,5
187220,,2-4 Knowsley Street,Colne,Lancashire,Colne Tacklers Club,Pub/bar/nightclub,7843,10,,591452,10,,53.85561900000000,NS004,201,environmental.food@pendle.gov.uk,Pendle,http://www.pendle.gov.uk,-2.17145000000000,BB8 0SD,2013-10-07,fhrs_3_en-GB,3,,FHRS,10
187221,,2 Hall Street,Colne,Lancashire,Colne Warpdressers Club and Institute,Pub/bar/nightclub,7843,10,,212866,5,,53.85518400000000,NS006,201,environmental.food@pendle.gov.uk,Pendle,http://www.pendle.gov.uk,-2.17401700000000,BB8 0DJ,2014-05-13,fhrs_4_en-GB,4,,FHRS,5
187222,,1 Skipton Road,Colne,Lancashire,Commercial Hotel,Pub/bar/nightclub,7843,5,,159637,5,,53.85753500000000,NP018,201,environmental.food@pendle.gov.uk,Pendle,http://www.pendle.gov.uk,-2.16394700000000,BB8 0NN,2014-06-25,fhrs_5_en-GB,5,,FHRS,5
187223,,114-116 Colne Road,Brierfield,"Nelson, Lancashire",Connelly's,Takeaway/sandwich shop,7844,5,,185781,5,,53.82821000000000,SJ010,201,environmental.food@pendle.gov.uk,Pendle,http://www.pendle.gov.uk,-2.23300500000000,BB9 5RQ,2014-08-21,fhrs_5_en-GB,5,,FHRS,5
187224,,Rainhall Road,Barnoldswick,Lancashire,Co-op Barnoldswick,Retailers - supermarkets/hypermarkets,7840,5,,159603,5,,53.91694300000000,NM001,201,environmental.food@pendle.gov.uk,Pendle,http://www.pendle.gov.uk,-2.18315000000000,BB18 6AB,2014-12-17,fhrs_5_en-GB,5,,FHRS,5
187225,,42-44 Market Street,Colne,Lancashire,Co-operative,Retailers - supermarkets/hypermarkets,7840,5,,159618,5,,53.85698400000000,NM041,201,environmental.food@pendle.gov.uk,Pendle,http://www.pendle.gov.uk,-2.16595200000000,BB8 0HS,2014-01-09,fhrs_5_en-GB,5,,FHRS,5
187226,,71 Victoria Road,Earby,"Barnoldswick, Lancashire",Co-operative Retail Services,Retailers - supermarkets/hypermarkets,7840,0,,159620,0,,53.91619600000000,NM053,201,environmental.food@pendle.gov.uk,Pendle,http://www.pendle.gov.uk,-2.14432400000000,BB18 6UN,2014-12-17,fhrs_5_en-GB,5,,FHRS,5
187227,,72 Clover Hill Road,Nelson,Lancashire,Costsavers,Retailers - other,4613,10,,591457,5,,53.83070700000000,SR014,201,environmental.food@pendle.gov.uk,Pendle,http://www.pendle.gov.uk,-2.20428800000000,BB9 0JR,2013-09-04,fhrs_4_en-GB,4,,FHRS,5
187228,,Winewall Road,Colne,Lancashire,Cotton Tree Inn,Pub/bar/nightclub,7843,5,,159519,5,,53.85686200000000,ND012,201,environmental.food@pendle.gov.uk,Pendle,http://www.pendle.gov.uk,-2.14144400000000,BB8 7BS,2014-02-24,fhrs_5_en-GB,5,,FHRS,5
187229,,,,,Country Hog Roast,Mobile caterer,7846,5,,158177,5,,,H019,201,environmental.food@pendle.gov.uk,Pendle,http://www.pendle.gov.uk,,,2012-07-16,fhrs_5_en-GB,5,,FHRS,5
187230,,Lower North Avenue,Barnoldswick,Lancashire,Cravenside,Hospitals/Childcare/Caring Premises,5,0,,159535,0,,53.91859100000000,NH011,201,environmental.food@pendle.gov.uk,Pendle,http://www.pendle.gov.uk,-2.18702500000000,BB18 6DP,2014-05-08,fhrs_5_en-GB,5,,FHRS,5
187231,,Beverley Road,Blacko,"Nelson, Lancashire",Cross Gaits Inn,Pub/bar/nightclub,7843,5,,185713,5,,53.86803200000000,SD005,201,environmental.food@pendle.gov.uk,Pendle,http://www.pendle.gov.uk,-2.20481900000000,BB9 6RF,2013-09-27,fhrs_5_en-GB,5,,FHRS,5
187232,,Church Street,Barnoldswick,Lancashire,Cross Keys Inn,Pub/bar/nightclub,7843,5,,159632,5,,53.91589200000000,NP002,201,environmental.food@pendle.gov.uk,Pendle,http://www.pendle.gov.uk,-2.18856600000000,BB18 5UR,2014-07-18,fhrs_5_en-GB,5,,FHRS,5
187233,,121 Albert Road,Colne,Lancashire,Crown News and Booze,Retailers - other,4613,5,,212935,5,,53.85476200000000,NR010,201,environmental.food@pendle.gov.uk,Pendle,http://www.pendle.gov.uk,-2.17954900000000,BB8 0BT,2014-06-26,fhrs_5_en-GB,5,,FHRS,5
187234,,,,,Crumbs Catering,Restaurant/Cafe/Canteen,1,5,,447542,10,,,SA077,201,environmental.food@pendle.gov.uk,Pendle,http://www.pendle.gov.uk,,,2011-12-06,fhrs_4_en-GB,4,,FHRS,5
187235,,,,,Cupa-ccino,Mobile caterer,7846,5,,212915,5,,,H081,201,environmental.food@pendle.gov.uk,Pendle,http://www.pendle.gov.uk,,,2014-06-03,fhrs_5_en-GB,5,,FHRS,5
187236,,,,,Curry Guru,Restaurant/Cafe/Canteen,1,5,,447541,5,,,SA039,201,environmental.food@pendle.gov.uk,Pendle,http://www.pendle.gov.uk,,,2014-08-12,fhrs_5_en-GB,5,,FHRS,5
187237,,62 Halifax Road,Brierfield,"Nelson, Lancashire",D J Fairburn,Manufacturers/packers,7839,5,,185835,5,,53.82394500000000,SK022,201,environmental.food@pendle.gov.uk,Pendle,http://www.pendle.gov.uk,-2.23071800000000,BB9 5BB,2014-11-26,fhrs_4_en-GB,4,,FHRS,10
187238,,,,,Daddy Steak Out,Mobile caterer,7846,5,,726946,5,,,H030,201,environmental.food@pendle.gov.uk,Pendle,http://www.pendle.gov.uk,,,2014-12-01,fhrs_5_en-GB,5,,FHRS,5
187239,,16 Lindred Road,Brierfield,"Nelson, Lancashire",Daisy Communications Limited,Restaurant/Cafe/Canteen,1,5,,185707,5,,53.83339800000000,SC001,201,environmental.food@pendle.gov.uk,Pendle,http://www.pendle.gov.uk,-2.23657400000000,BB9 5SR,2013-05-01,fhrs_5_en-GB,5,,FHRS,0
187240,Dam Head Barn,Blacko Bar Road,Roughlee,"Nelson, Lancashire",Dam Head Barn,Hotel/bed & breakfast/guest house,7842,5,,328551,5,,53.85600000000000,SA025,201,environmental.food@pendle.gov.uk,Pendle,http://www.pendle.gov.uk,-2.24669000000000,BB9 6NX,2014-06-23,fhrs_5_en-GB,5,,FHRS,5
187241,,10 Hildrop Road,Nelson,Lancashire,Dar General Store,Retailers - other,4613,5,,212900,5,,53.84014200000000,SM055,201,environmental.food@pendle.gov.uk,Pendle,http://www.pendle.gov.uk,-2.20516900000000,BB9 8EF,2014-07-16,fhrs_4_en-GB,4,,FHRS,10
187242,,19-21 Burnley Road,Brierfield,"Nelson, Lancashire",Dave's Newsagents,Retailers - other,4613,5,,212869,5,,53.82243600000000,SR008,201,environmental.food@pendle.gov.uk,Pendle,http://www.pendle.gov.uk,-2.23459800000000,BB9 5HX,2014-08-12,fhrs_5_en-GB,5,,FHRS,5
187243,Unit 13,Clayton Street Industrial Esta,Nelson,Lancashire,David Chilvers,Manufacturers/packers,7839,5,,185886,5,,53.84067200000000,SO003,201,environmental.food@pendle.gov.uk,Pendle,http://www.pendle.gov.uk,-2.21573400000000,BB9 7PH,2014-03-01,fhrs_5_en-GB,5,,FHRS,5
187244,,6 Skipton Road,Foulridge,"Colne, Lancashire",David Ingham and Son,Retailers - other,4613,5,,159590,5,,53.87616900000000,NK020,201,environmental.food@pendle.gov.uk,Pendle,http://www.pendle.gov.uk,-2.16890300000000,BB8 7PQ,2014-01-14,fhrs_5_en-GB,5,,FHRS,5
187245,,29 Reedyford Road,Nelson,Lancashire,Day to Day,Retailers - other,4613,10,,584406,5,,53.84241500000000,SM073,201,environmental.food@pendle.gov.uk,Pendle,http://www.pendle.gov.uk,-2.20600100000000,BB9 8LL,2013-08-21,fhrs_4_en-GB,4,,FHRS,5
187246,,25 Victoria Road,Earby,"Barnoldswick, Lancashire",DD'S Delicatessen,Retailers - other,4613,5,,159606,5,,53.91619600000000,NM006,201,environmental.food@pendle.gov.uk,Pendle,http://www.pendle.gov.uk,-2.14432400000000,BB18 6UN,2014-10-09,fhrs_5_en-GB,5,,FHRS,5
187247,,63 Gisburn Road,Barnoldswick,Lancashire,De Santis and Sons Mini Mart,Retailers - other,4613,5,,159609,5,,53.91976200000000,NM012,201,environmental.food@pendle.gov.uk,Pendle,http://www.pendle.gov.uk,-2.19140000000000,BB18 5HB,2014-03-05,fhrs_5_en-GB,5,,FHRS,5
187248,,,,,Deborah Shaw Cake Couture,Restaurant/Cafe/Canteen,1,5,,433952,5,,,NA083,201,environmental.food@pendle.gov.uk,Pendle,http://www.pendle.gov.uk,,,2014-08-13,fhrs_5_en-GB,5,,FHRS,5
187249,,40 Albert Road,Colne,Lancashire,Deerstones Bakery,Retailers - other,4613,5,,680682,5,,53.85617200000000,NL013,201,environmental.food@pendle.gov.uk,Pendle,http://www.pendle.gov.uk,-2.17424900000000,BB8 0AD,2014-05-14,fhrs_4_en-GB,4,,FHRS,10
187250,,72C Manchester Road,Nelson,Lancashire,Deli Fusion,Restaurant/Cafe/Canteen,1,5,,726954,5,,53.83586200000000,SL001,201,environmental.food@pendle.gov.uk,Pendle,http://www.pendle.gov.uk,-2.21680300000000,BB9 7EJ,2014-12-09,fhrs_5_en-GB,5,,FHRS,5
187251,,2 Richmond Court,Colne,Lancashire,Delicious,Restaurant/Cafe/Canteen,1,5,,159465,5,,53.85726800000000,NA058,201,environmental.food@pendle.gov.uk,Pendle,http://www.pendle.gov.uk,-2.16791400000000,BB8 9HR,2013-10-08,fhrs_5_en-GB,5,,FHRS,5
187252,,New Market Street,Colne,Lancashire,Derby Arms,Pub/bar/nightclub,7843,5,,212858,5,,53.85711900000000,NP015,201,environmental.food@pendle.gov.uk,Pendle,http://www.pendle.gov.uk,-2.17162300000000,BB8 9BJ,2014-06-17,fhrs_5_en-GB,5,,FHRS,5
187253,,Juno Street,Nelson,Lancashire,Dercliffe,Hospitals/Childcare/Caring Premises,5,5,,185754,5,,53.84366000000000,SH007,201,environmental.food@pendle.gov.uk,Pendle,http://www.pendle.gov.uk,-2.20333200000000,BB9 8RH,2015-01-19,fhrs_5_en-GB,5,,FHRS,5
187254,,,,,Diane's Catering,Restaurant/Cafe/Canteen,1,5,,185661,5,,,SA033,201,environmental.food@pendle.gov.uk,Pendle,http://www.pendle.gov.uk,,,2014-06-17,fhrs_5_en-GB,5,,FHRS,5
187255,,33 Market Street,Colne,Lancashire,Dixy Chicken,Takeaway/sandwich shop,7844,5,,159563,5,,53.85742200000000,NJ024,201,environmental.food@pendle.gov.uk,Pendle,http://www.pendle.gov.uk,-2.16724600000000,BB8 0LJ,2014-05-15,fhrs_5_en-GB,5,,FHRS,5
187256,,2 Burnley Road,Brierfield,"Nelson, Lancashire",Dixy Fried Chicken,Takeaway/sandwich shop,7844,5,,447543,5,,53.82197900000000,SJ050,201,environmental.food@pendle.gov.uk,Pendle,http://www.pendle.gov.uk,-2.23423100000000,BB9 5HY,2013-12-30,fhrs_4_en-GB,4,,FHRS,10
187257,,74 Manchester Road,Nelson,Lancashire,Dixy Fried Chicken,Takeaway/sandwich shop,7844,5,,185822,10,,53.83586200000000,SJ055,201,environmental.food@pendle.gov.uk,Pendle,http://www.pendle.gov.uk,-2.21680300000000,BB9 7EJ,2013-12-11,fhrs_4_en-GB,4,,FHRS,5
187258,,82 Manchester Road,Nelson,Lancashire,Dobo Take Away,Takeaway/sandwich shop,7844,5,,185794,5,,53.83508500000000,SJ024,201,environmental.food@pendle.gov.uk,Pendle,http://www.pendle.gov.uk,-2.21907900000000,BB9 7HD,2013-10-03,fhrs_5_en-GB,5,,FHRS,5
187259,,68-70 Market Street,Colne,Lancashire,Domino's Pizza,Takeaway/sandwich shop,7844,0,,708365,0,,53.85698400000000,NJ044,201,environmental.food@pendle.gov.uk,Pendle,http://www.pendle.gov.uk,-2.16595200000000,BB8 0HS,2014-09-24,fhrs_5_en-GB,5,,FHRS,0
187260,,,,,Dream me a Cupcake,Restaurant/Cafe/Canteen,1,5,,502293,5,,,NA062,201,environmental.food@pendle.gov.uk,Pendle,http://www.pendle.gov.uk,,,2014-06-24,fhrs_5_en-GB,5,,FHRS,5
187261,,Victoria Road,Earby,"Barnoldswick, Lancashire",Earby Conservative Club,Pub/bar/nightclub,7843,5,,212877,5,,53.91758200000000,NS014,201,environmental.food@pendle.gov.uk,Pendle,http://www.pendle.gov.uk,-2.14277600000000,BB18 6US,2014-06-17,fhrs_5_en-GB,5,,FHRS,5
187262,,William Street,Earby,"Barnoldswick, Lancashire",Earby Cricket Club,Pub/bar/nightclub,7843,5,,570477,5,,53.91351700000000,NS024,201,environmental.food@pendle.gov.uk,Pendle,http://www.pendle.gov.uk,-2.14550300000000,BB18 6NN,2013-07-05,fhrs_5_en-GB,5,,FHRS,5
187263,,School Lane,Earby,"Barnoldswick, Lancashire",Earby Lead Mining Museum,Restaurant/Cafe/Canteen,1,10,,212875,5,,53.91869500000000,NA027,201,environmental.food@pendle.gov.uk,Pendle,http://www.pendle.gov.uk,-2.14416500000000,BB18 6QF,2014-07-29,fhrs_4_en-GB,4,,FHRS,0
187264,,49 Victoria Road,Earby,"Barnoldswick, Lancashire",Earby Oriental,Takeaway/sandwich shop,7844,5,,159577,5,,53.91619600000000,NJ039,201,environmental.food@pendle.gov.uk,Pendle,http://www.pendle.gov.uk,-2.14432400000000,BB18 6UN,2014-08-14,fhrs_4_en-GB,4,,FHRS,10
187265,,Bailey Street,Earby,"Barnoldswick, Lancashire",Earby Springfield Primary School,School/college/university,7845,5,,159499,5,,53.91343700000000,NB031,201,environmental.food@pendle.gov.uk,Pendle,http://www.pendle.gov.uk,-2.13673300000000,BB18 6SJ,2013-09-24,fhrs_5_en-GB,5,,FHRS,5
187266,,145 Leeds Road,Nelson,Lancashire,Eccles and Eastwood,Retailers - other,4613,5,,212868,5,,53.83972500000000,SQ005,201,environmental.food@pendle.gov.uk,Pendle,http://www.pendle.gov.uk,-2.20764400000000,BB9 9XG,2014-08-12,fhrs_5_en-GB,5,,FHRS,5
187267,,,,,Elaine's Wholefoods,Retailers - other,4613,5,,619250,5,,,NM066,201,environmental.food@pendle.gov.uk,Pendle,http://www.pendle.gov.uk,,,2013-11-08,fhrs_5_en-GB,5,,FHRS,5
187268,,Keighley Road,Laneshawbridge,"Colne, Lancashire",Emmott Arms Ltd,Pub/bar/nightclub,7843,5,,212934,5,,53.86281100000000,NP030,201,environmental.food@pendle.gov.uk,Pendle,http://www.pendle.gov.uk,-2.11777400000000,BB8 7HX,2014-07-23,fhrs_5_en-GB,5,,FHRS,5
187269,Glyde Works,Byron Road,Colne,Lancashire,Empress Centre,Restaurant/Cafe/Canteen,1,5,,159462,5,,53.86030000000000,NA054,201,environmental.food@pendle.gov.uk,Pendle,http://www.pendle.gov.uk,-2.15932100000000,BB8 0BQ,2015-01-14,fhrs_4_en-GB,4,,FHRS,10
187270,,43 Scotland Road,Nelson,Lancashire,Euro Food Store,Retailers - other,4613,5,,433957,5,,53.83742000000000,SM026,201,environmental.food@pendle.gov.uk,Pendle,http://www.pendle.gov.uk,-2.21474500000000,BB9 7UT,2014-08-12,fhrs_5_en-GB,5,,FHRS,5
187271,,11a Church Street,Barnoldswick,Lancashire,European Mini Market,Retailers - other,4613,20,,708367,10,,53.91589200000000,NM067,201,environmental.food@pendle.gov.uk,Pendle,http://www.pendle.gov.uk,-2.18856600000000,BB18 5UR,2014-10-03,fhrs_1_en-GB,1,,FHRS,10
187272,,42 Colne Road,Brierfield,"Nelson, Lancashire",Faisal Mini Market,Retailers - other,4613,10,,185883,10,,53.82482700000000,SN011,201,environmental.food@pendle.gov.uk,Pendle,http://www.pendle.gov.uk,-2.23450500000000,BB9 5NS,2014-09-30,fhrs_3_en-GB,3,,FHRS,10
187273,,63 Scotland Road,Nelson,Lancashire,Family Favourites,Retailers - other,4613,10,,185885,10,,53.83862600000000,SN025,201,environmental.food@pendle.gov.uk,Pendle,http://www.pendle.gov.uk,-2.21421900000000,BB9 7UY,2013-11-20,fhrs_3_en-GB,3,,FHRS,10
187274,,Leeds Road,Nelson,Lancashire,Farmfoods,Retailers - other,4613,0,,629348,0,,,SM024,201,environmental.food@pendle.gov.uk,Pendle,http://www.pendle.gov.uk,,BB9 8ER,2014-01-03,fhrs_5_en-GB,5,,FHRS,0
187275,,63 Market Street,Colne,Lancashire,Farmfoods Limited,Retailers - other,4613,5,,194345,5,,53.85747900000000,NM002,201,environmental.food@pendle.gov.uk,Pendle,http://www.pendle.gov.uk,-2.16539100000000,BB8 0LL,2014-05-07,fhrs_5_en-GB,5,,FHRS,5
187276,,,,,Farri's Asian Treats,Restaurant/Cafe/Canteen,1,5,,554846,5,,,SA080,201,environmental.food@pendle.gov.uk,Pendle,http://www.pendle.gov.uk,,,2013-05-22,fhrs_5_en-GB,5,,FHRS,5
187277,,Byron Road,Colne,Lancashire,Favordale Hostel,Hospitals/Childcare/Caring Premises,5,0,,159529,0,,53.86018100000000,NH002,201,environmental.food@pendle.gov.uk,Pendle,http://www.pendle.gov.uk,-2.15387700000000,BB8 0BH,2013-08-14,fhrs_5_en-GB,5,,FHRS,5
187278,,560 Wheatley Lane Road,Fence,"Burnley, Lancashire",Fence Gate Limited,Restaurant/Cafe/Canteen,1,5,,185648,5,,53.83111600000000,SA013,201,environmental.food@pendle.gov.uk,Pendle,http://www.pendle.gov.uk,-2.26584000000000,BB12 9EE,2014-12-17,fhrs_5_en-GB,5,,FHRS,5
187279,,422 Wheatley Lane Road,Fence,"Burnley, Lancashire",Fence Post Office,Retailers - other,4613,5,,212846,5,,53.83526800000000,SR038,201,environmental.food@pendle.gov.uk,Pendle,http://www.pendle.gov.uk,-2.25785800000000,BB12 9ED,2014-11-11,fhrs_5_en-GB,5,,FHRS,5
187280,,379 Wheatley Lane Road,Fence,"Burnley, Lancashire",Fence Village Store,Retailers - other,4613,5,,570481,5,,53.83626200000000,SM092,201,environmental.food@pendle.gov.uk,Pendle,http://www.pendle.gov.uk,-2.25541800000000,BB12 9PZ,2014-02-24,fhrs_5_en-GB,5,,FHRS,5
187281,,1 Station Road,Barnoldswick,Lancashire,Flava,Takeaway/sandwich shop,7844,5,,159566,5,,53.91689100000000,NJ027,201,environmental.food@pendle.gov.uk,Pendle,http://www.pendle.gov.uk,-2.18762600000000,BB18 5NA,2014-02-14,fhrs_4_en-GB,4,,FHRS,10
187282,,151 Railway Street,Nelson,Lancashire,FLAVA Takeaway,Takeaway/sandwich shop,7844,5,,185785,5,,53.83209800000000,SJ014,201,environmental.food@pendle.gov.uk,Pendle,http://www.pendle.gov.uk,-2.21058500000000,BB9 9PG,2014-09-01,fhrs_5_en-GB,5,,FHRS,5
187283,,68 Manchester Road,Nelson,Lancashire,Follies,Takeaway/sandwich shop,7844,5,,185808,5,,53.83586200000000,SJ039,201,environmental.food@pendle.gov.uk,Pendle,http://www.pendle.gov.uk,-2.21680300000000,BB9 7EJ,2013-11-26,fhrs_5_en-GB,5,,FHRS,5
187284,,25 Skipton Road,Colne,Lancashire,Food 2 Go,Takeaway/sandwich shop,7844,5,,159476,5,,53.85895600000000,NA085,201,environmental.food@pendle.gov.uk,Pendle,http://www.pendle.gov.uk,-2.16320800000000,BB8 0NQ,2013-09-10,fhrs_5_en-GB,5,,FHRS,5
187285,The Moorings,Warehouse Lane,Foulridge,"Colne, Lancashire",Foulridge Canal Cruises Ltd,Mobile caterer,7846,5,,158179,5,,53.87762200000000,H035,201,environmental.food@pendle.gov.uk,Pendle,http://www.pendle.gov.uk,-2.17074900000000,BB8 7PP,2013-05-07,fhrs_5_en-GB,5,,FHRS,5
187286,,4 Skipton Road,Foulridge,"Colne, Lancashire",Foulridge House,Takeaway/sandwich shop,7844,5,,159560,10,,53.87616900000000,NJ021,201,environmental.food@pendle.gov.uk,Pendle,http://www.pendle.gov.uk,-2.16890300000000,BB8 7PQ,2012-11-02,fhrs_4_en-GB,4,,FHRS,5
187287,,Town Gate,Foulridge,"Colne, Lancashire",Foulridge Social Club,Pub/bar/nightclub,7843,5,,212870,5,,53.87699500000000,NS011,201,environmental.food@pendle.gov.uk,Pendle,http://www.pendle.gov.uk,-2.16901200000000,BB8 7PL,2014-06-03,fhrs_5_en-GB,5,,FHRS,5
187288,,Noyna Road,Foulridge,"Colne, Lancashire",Foulridge Sports Club,Pub/bar/nightclub,7843,5,,159658,5,,53.87751100000000,NS026,201,environmental.food@pendle.gov.uk,Pendle,http://www.pendle.gov.uk,-2.16642900000000,BB8 7QY,2015-01-07,fhrs_5_en-GB,5,,FHRS,5
187289,,Higham Hall Road,Higham,"Burnley, Lancashire",Four Alls Inn,Pub/bar/nightclub,7843,5,,185714,5,,53.82453600000000,SD006,201,environmental.food@pendle.gov.uk,Pendle,http://www.pendle.gov.uk,-2.29318800000000,BB12 9EZ,2014-12-03,fhrs_5_en-GB,5,,FHRS,5
187290,,Skipton Road,Foulridge,"Colne, Lancashire",Four Elephants,Restaurant/Cafe/Canteen,1,10,,159470,10,,53.87824700000000,NA068,201,environmental.food@pendle.gov.uk,Pendle,http://www.pendle.gov.uk,-2.16742000000000,BB8 7PY,2014-12-11,fhrs_3_en-GB,3,,FHRS,10
187291,,3 Church Street,Barnoldswick,Lancashire,Franky's,Takeaway/sandwich shop,7844,,,610966,,,53.91566600000000,NJ042,201,environmental.food@pendle.gov.uk,Pendle,http://www.pendle.gov.uk,-2.18940200000000,BB18 5UT,2014-03-20,fhrs_3_en-GB,3,,FHRS,
187292,,,,,Freshly Made,Mobile caterer,7846,5,,158172,5,,,H014,201,environmental.food@pendle.gov.uk,Pendle,http://www.pendle.gov.uk,,,2014-06-20,fhrs_5_en-GB,5,,FHRS,5
187293,,10 Oakfield Avenue,Barnoldswick,Lancashire,Freshly Made Donuts,Mobile caterer,7846,5,,548202,5,,53.92130200000000,H031,201,environmental.food@pendle.gov.uk,Pendle,http://www.pendle.gov.uk,-2.19504600000000,BB18 5JP,2013-05-08,fhrs_5_en-GB,5,,FHRS,5
187294,Unit 1,Place De Creil,Nelson,Lancashire,Fulton's Foods,Retailers - other,4613,5,,185851,0,,53.85821800000000,SM005,201,environmental.food@pendle.gov.uk,Pendle,http://www.pendle.gov.uk,-2.24788500000000,BB9 9TB,2014-07-29,fhrs_5_en-GB,5,,FHRS,5
187295,,Turner Road,Nelson,Lancashire,Giddy Kippers Ltd,Restaurant/Cafe/Canteen,1,5,,185676,5,,53.83510300000000,SB001,201,environmental.food@pendle.gov.uk,Pendle,http://www.pendle.gov.uk,-2.22868200000000,BB9 7DR,2014-08-26,fhrs_5_en-GB,5,,FHRS,5
187296,,Gisburn Road,Barnoldswick,Lancashire,Gisburn Road Childrens Centre,Hospitals/Childcare/Caring Premises,5,10,,159478,5,,53.91869500000000,NB002,201,environmental.food@pendle.gov.uk,Pendle,http://www.pendle.gov.uk,-2.18929400000000,BB18 5LS,2014-06-17,fhrs_4_en-GB,4,,FHRS,5
187297,,Gisburn Road,Barnoldswick,Lancashire,Gisburn Road CP School,School/college/university,7845,5,,159497,5,,53.91869500000000,NB027,201,environmental.food@pendle.gov.uk,Pendle,http://www.pendle.gov.uk,-2.18929400000000,BB18 5LS,2013-06-19,fhrs_5_en-GB,5,,FHRS,5
187298,,Unit 37 Market hall Market Street,Colne,Lancashire,Glamour Ice,Restaurant/Cafe/Canteen,1,5,,548205,5,,53.85698400000000,NR009,201,environmental.food@pendle.gov.uk,Pendle,http://www.pendle.gov.uk,-2.16595200000000,BB8 0HS,2013-05-10,fhrs_5_en-GB,5,,FHRS,5
187299,,,,,Glittersweet & Cupaliciouss,Restaurant/Cafe/Canteen,1,5,,212879,5,,,NA021,201,environmental.food@pendle.gov.uk,Pendle,http://www.pendle.gov.uk,,,2014-08-13,fhrs_5_en-GB,5,,FHRS,5
187300,,1 Arcadia,Colne,Lancashire,Gobstoppers Traditional Sweets,Retailers - other,4613,5,,584400,5,,53.85693600000000,NA094,201,environmental.food@pendle.gov.uk,Pendle,http://www.pendle.gov.uk,-2.16797400000000,BB8 0HX,2013-09-10,fhrs_5_en-GB,5,,FHRS,5
187301,,,,,Golden Catering Ltd,Mobile caterer,7846,5,,158178,5,,,H026,201,environmental.food@pendle.gov.uk,Pendle,http://www.pendle.gov.uk,,,2011-08-26,fhrs_5_en-GB,5,,FHRS,5
187302,,329 Leeds Road,Nelson,Lancashire,Golden Chopsticks,Takeaway/sandwich shop,7844,5,,185792,5,,53.84405100000000,SJ022,201,environmental.food@pendle.gov.uk,Pendle,http://www.pendle.gov.uk,-2.20078100000000,BB9 8RW,2013-07-03,fhrs_5_en-GB,5,,FHRS,5
187303,,100 Scotland Road,Nelson,Lancashire,Good Fortune,Takeaway/sandwich shop,7844,5,,185820,5,,53.84013700000000,SJ053,201,environmental.food@pendle.gov.uk,Pendle,http://www.pendle.gov.uk,-2.21371000000000,BB9 7XJ,2014-12-30,fhrs_5_en-GB,5,,FHRS,5
187304,"Unit 56-57, Market Hall",Market Street,Colne,Lancashire,Good Health,Retailers - other,4613,5,,212849,5,,53.85698400000000,NM044,201,environmental.food@pendle.gov.uk,Pendle,http://www.pendle.gov.uk,-2.16595200000000,BB8 0HS,2014-06-25,fhrs_5_en-GB,5,,FHRS,5
187305,,49 Gisburn Road,Barnoldswick,Lancashire,Good Taste,Takeaway/sandwich shop,7844,5,,159543,5,,53.91976200000000,NJ003,201,environmental.food@pendle.gov.uk,Pendle,http://www.pendle.gov.uk,-2.19140000000000,BB18 5HB,2012-08-23,fhrs_5_en-GB,5,,FHRS,5
187306,,104 Colne Road,Earby,"Barnoldswick, Lancashire",Goodyear,Takeaway/sandwich shop,7844,,,159556,,,53.91142900000000,NJ017,201,environmental.food@pendle.gov.uk,Pendle,http://www.pendle.gov.uk,-2.14788500000000,BB18 6XS,2012-12-19,fhrs_5_en-GB,5,,FHRS,
187307,,55 Wellhouse Road,Barnoldswick,Lancashire,Gospel Mission,Restaurant/Cafe/Canteen,1,5,,212940,5,,53.91800100000000,NA082,201,environmental.food@pendle.gov.uk,Pendle,http://www.pendle.gov.uk,-2.18481500000000,BB18 6DB,2014-11-07,fhrs_5_en-GB,5,,FHRS,5
187308,,Edward Street,Whitewalls Industrial Estate,"Nelson, Lancashire",Graham Engineering Limited,Restaurant/Cafe/Canteen,1,5,,185710,5,,53.84732900000000,SC016,201,environmental.food@pendle.gov.uk,Pendle,http://www.pendle.gov.uk,-2.20216500000000,BB9 8SY,2014-02-06,fhrs_5_en-GB,5,,FHRS,5
187309,,5 Market Street,Colne,Lancashire,Grahame's Poultry,Retailers - other,4613,5,,159585,5,,53.85742200000000,NK011,201,environmental.food@pendle.gov.uk,Pendle,http://www.pendle.gov.uk,-2.16724600000000,BB8 0LJ,2014-11-18,fhrs_5_en-GB,5,,FHRS,5
187310,,Barrowford Road,Fence,"Burnley, Lancashire",Grains Barn Farm,Hotel/bed & breakfast/guest house,7842,0,,185655,0,,53.83385900000000,SA026,201,environmental.food@pendle.gov.uk,Pendle,http://www.pendle.gov.uk,-2.25701400000000,BB12 9QQ,2014-06-04,fhrs_5_en-GB,5,,FHRS,0
187311,Grange Fell,Skipton Road,Earby,"Barnoldswick, Lancashire",Grange Fell Bed and Breakfast,Hotel/bed & breakfast/guest house,7842,5,,159455,5,,53.92000500000000,NA042,201,environmental.food@pendle.gov.uk,Pendle,http://www.pendle.gov.uk,-2.14599700000000,BB18 6JL,2014-07-23,fhrs_5_en-GB,5,,FHRS,5
187312,The Balcony Market Hall,Market Street,Colne,Lancashire,Grannie's Kitchen,Restaurant/Cafe/Canteen,1,5,,159438,5,,53.85698400000000,NA013,201,environmental.food@pendle.gov.uk,Pendle,http://www.pendle.gov.uk,-2.16595200000000,BB8 0HS,2013-07-29,fhrs_5_en-GB,5,,FHRS,5
187313,,74 Albert Road,Colne,Lancashire,Green Chimney Coffee Co,Restaurant/Cafe/Canteen,1,5,,534045,5,,53.85558200000000,NP034,201,environmental.food@pendle.gov.uk,Pendle,http://www.pendle.gov.uk,-2.17781900000000,BB8 0AG,2013-03-26,fhrs_5_en-GB,5,,FHRS,5
187314,,Alkincoats Road,Colne,Lancashire,Greens,Restaurant/Cafe/Canteen,1,5,,421248,5,,53.85845100000000,NA077,201,environmental.food@pendle.gov.uk,Pendle,http://www.pendle.gov.uk,-2.18295500000000,BB8 9QQ,2014-05-23,fhrs_5_en-GB,5,,FHRS,5
187315,,,,,Greenwoods,Restaurant/Cafe/Canteen,1,5,,159460,5,,,NA049,201,environmental.food@pendle.gov.uk,Pendle,http://www.pendle.gov.uk,,,2012-11-15,fhrs_4_en-GB,4,,FHRS,10
187316,,41 Market Street,Colne,Lancashire,Gregg's,Retailers - other,4613,5,,159598,5,,53.85742200000000,NL009,201,environmental.food@pendle.gov.uk,Pendle,http://www.pendle.gov.uk,-2.16724600000000,BB8 0LJ,2013-03-27,fhrs_5_en-GB,5,,FHRS,5
187317,6 The Mall,Pendle Rise Shopping Centre,Nelson,Lancashire,Greggs Plc,Retailers - other,4613,5,,185847,0,,53.83613700000000,SL012,201,environmental.food@pendle.gov.uk,Pendle,http://www.pendle.gov.uk,-2.21369000000000,BB9 9SL,2013-03-18,fhrs_5_en-GB,5,,FHRS,5
187318,,"Market Hall,Pendle Rise",Nelson,Lancashire,Greta's,Restaurant/Cafe/Canteen,1,5,,185670,5,,53.83613700000000,SA056,201,environmental.food@pendle.gov.uk,Pendle,http://www.pendle.gov.uk,-2.21369000000000,BB9 9SL,2014-05-12,fhrs_5_en-GB,5,,FHRS,5
187319,,8 Frank Street,Barnoldswick,Lancashire,H Purcell Meats,Manufacturers/packers,7839,5,,159527,5,,53.91593100000000,NF001,201,environmental.food@pendle.gov.uk,Pendle,http://www.pendle.gov.uk,-2.18715000000000,BB18 5AE,2013-07-24,fhrs_5_en-GB,5,,FHRS,5
187320,,72B Manchester Road,Nelson,Lancashire,Hafiz Halal Meat & Grocers,Retailers - other,4613,5,,554848,5,,53.83586200000000,SK037,201,environmental.food@pendle.gov.uk,Pendle,http://www.pendle.gov.uk,-2.21680300000000,BB9 7EJ,2013-06-04,fhrs_5_en-GB,5,,FHRS,5
187321,,,,,Halaal Cakes,Restaurant/Cafe/Canteen,1,0,,502294,0,,,SA043,201,environmental.food@pendle.gov.uk,Pendle,http://www.pendle.gov.uk,,,2013-01-15,fhrs_5_en-GB,5,,FHRS,0
187322,,54 Halifax Road,Brierfield,"Nelson, Lancashire",Halifax Road Fish & Chip Shop,Takeaway/sandwich shop,7844,10,,185811,10,,53.82394500000000,SJ043,201,environmental.food@pendle.gov.uk,Pendle,http://www.pendle.gov.uk,-2.23071800000000,BB9 5BB,2014-04-22,fhrs_3_en-GB,3,,FHRS,10
187323,,1 Hall Street,Colne,Lancashire,Hall Street Chippy,Takeaway/sandwich shop,7844,10,,159550,10,,53.85518400000000,NJ010,201,environmental.food@pendle.gov.uk,Pendle,http://www.pendle.gov.uk,-2.17401700000000,BB8 0DJ,2013-11-20,fhrs_3_en-GB,3,,FHRS,10
187324,,36 Rainhall Road,Barnoldswick,Lancashire,Hannah Spice,Takeaway/sandwich shop,7844,5,,159572,5,,53.91584200000000,NJ033,201,environmental.food@pendle.gov.uk,Pendle,http://www.pendle.gov.uk,-2.18608400000000,BB18 5DR,2013-12-12,fhrs_4_en-GB,4,,FHRS,10
187325,,2 Glenfield Road,Nelson,Lancashire,Happy Garden,Takeaway/sandwich shop,7844,10,,185783,10,,53.84070200000000,SJ012,201,environmental.food@pendle.gov.uk,Pendle,http://www.pendle.gov.uk,-2.19853100000000,BB9 8AW,2014-04-15,fhrs_3_en-GB,3,,FHRS,10
187326,,127 Albert Road,Colne,Lancashire,Happy House,Takeaway/sandwich shop,7844,10,,159547,10,,53.85476200000000,NJ007,201,environmental.food@pendle.gov.uk,Pendle,http://www.pendle.gov.uk,-2.17954900000000,BB8 0BT,2013-09-11,fhrs_3_en-GB,3,,FHRS,10
187327,,67 Coates Avenue,Barnoldswick,Lancashire,Happy Shopper,Retailers - other,4613,5,,328543,5,,53.92045900000000,NM007,201,environmental.food@pendle.gov.uk,Pendle,http://www.pendle.gov.uk,-2.17601000000000,BB18 6EY,2013-06-24,fhrs_4_en-GB,4,,FHRS,10
187328,,Skipton Old Road,Foulridge,"Colne, Lancashire",Hare and Hounds Inn,Pub/bar/nightclub,7843,10,,159643,10,,53.87564000000000,NP027,201,environmental.food@pendle.gov.uk,Pendle,http://www.pendle.gov.uk,-2.16763800000000,BB8 7PD,2014-07-28,fhrs_3_en-GB,3,,FHRS,10
187329,,121 Scotland Road,Nelson,Lancashire,Hartley's,Retailers - other,4613,5,,212886,5,,53.84090800000000,SN022,201,environmental.food@pendle.gov.uk,Pendle,http://www.pendle.gov.uk,-2.21477800000000,BB9 7XR,2014-08-12,fhrs_4_en-GB,4,,FHRS,10
187330,,85 Scotland Road,Nelson,Lancashire,Hassan Halal Meat,Retailers - other,4613,10,,185840,5,,53.83862600000000,SK040,201,environmental.food@pendle.gov.uk,Pendle,http://www.pendle.gov.uk,-2.21421900000000,BB9 7UY,2013-12-04,fhrs_3_en-GB,3,,FHRS,10
187331,,,,,Haverholt CCH,Hospitals/Childcare/Caring Premises,5,5,,328539,10,,,NB030,201,environmental.food@pendle.gov.uk,Pendle,http://www.pendle.gov.uk,,,2014-06-03,fhrs_4_en-GB,4,,FHRS,5
187332,,71-73 North Valley Road,Colne,Lancashire,Headline Convenience Store,Retailers - other,4613,10,,159611,5,,53.85738000000000,NM015,201,environmental.food@pendle.gov.uk,Pendle,http://www.pendle.gov.uk,-2.17814600000000,BB8 9AQ,2014-05-19,fhrs_4_en-GB,4,,FHRS,5
187333,,,,,Heavenly Angel Cakes,Restaurant/Cafe/Canteen,1,5,,185665,5,,,SA038,201,environmental.food@pendle.gov.uk,Pendle,http://www.pendle.gov.uk,,,2014-06-17,fhrs_5_en-GB,5,,FHRS,5
187334,,3 Albert Road,Barnoldswick,Lancashire,Heavenly Scents Gifts & Candles,Restaurant/Cafe/Canteen,1,5,,212855,5,,53.91644300000000,NA045,201,environmental.food@pendle.gov.uk,Pendle,http://www.pendle.gov.uk,-2.18710700000000,BB18 5AA,2014-11-07,fhrs_5_en-GB,5,,FHRS,5
187335,,,,,Helen Hayward,Restaurant/Cafe/Canteen,1,5,,212920,5,,,SA073,201,environmental.food@pendle.gov.uk,Pendle,http://www.pendle.gov.uk,,,2014-05-21,fhrs_4_en-GB,4,,FHRS,10
187336,Unit 14 Market Hall,Market Street,Colne,Lancashire,Helen's Snack Bar,Restaurant/Cafe/Canteen,1,5,,578813,5,,53.85698400000000,NA010,201,environmental.food@pendle.gov.uk,Pendle,http://www.pendle.gov.uk,-2.16595200000000,BB8 0HS,2013-07-29,fhrs_4_en-GB,4,,FHRS,10
187337,,1 Trinity Close,Brierfield,"Nelson, Lancashire",Heyhead House,Hospitals/Childcare/Caring Premises,5,5,,212852,5,,53.82375500000000,SH042,201,environmental.food@pendle.gov.uk,Pendle,http://www.pendle.gov.uk,-2.22644800000000,BB9 5ED,2014-06-04,fhrs_5_en-GB,5,,FHRS,5
187338,,19-21 Skipton Road,Colne,Lancashire,Heyworth's News,Retailers - other,4613,5,,212890,5,,53.85895600000000,NR006,201,environmental.food@pendle.gov.uk,Pendle,http://www.pendle.gov.uk,-2.16320800000000,BB8 0NQ,2014-06-25,fhrs_5_en-GB,5,,FHRS,5
187339,,Higham Hall Road,Higham,"Burnley, Lancashire",Higham C of E School,School/college/university,7845,5,,185681,5,,53.82453600000000,SB007,201,environmental.food@pendle.gov.uk,Pendle,http://www.pendle.gov.uk,-2.29318800000000,BB12 9EZ,2014-03-11,fhrs_5_en-GB,5,,FHRS,5
187340,,2 Halifax Road,Brierfield,"Nelson, Lancashire",Hill Stop,Retailers - other,4613,5,,185880,5,,53.82390300000000,SM117,201,environmental.food@pendle.gov.uk,Pendle,http://www.pendle.gov.uk,-2.23384700000000,BB9 5AF,2014-06-17,fhrs_5_en-GB,5,,FHRS,5
187341,,56 Windsor Street,Colne,Lancashire,Ho King,Takeaway/sandwich shop,7844,5,,159554,5,,53.86048000000000,NJ015,201,environmental.food@pendle.gov.uk,Pendle,http://www.pendle.gov.uk,-2.16558600000000,BB8 9LD,2012-12-03,fhrs_5_en-GB,5,,FHRS,5
187342,,Regent Street,Nelson,Lancashire,Hodge House Community Centre,Restaurant/Cafe/Canteen,1,5,,185755,5,,53.84413000000000,SH008,201,environmental.food@pendle.gov.uk,Pendle,http://www.pendle.gov.uk,-2.20677000000000,BB9 8LJ,2014-09-01,fhrs_5_en-GB,5,,FHRS,5
187343,,Manchester Road,Nelson,Lancashire,Hollin Bank Service Station,Retailers - other,4613,5,,212922,5,,53.83120200000000,SM023,201,environmental.food@pendle.gov.uk,Pendle,http://www.pendle.gov.uk,-2.22847900000000,BB9 7SH,2014-08-12,fhrs_5_en-GB,5,,FHRS,5
187344,,57 Holmefield Gardens,Barrowford,"Nelson, Lancashire",Holmefield Gardens B+B,Hotel/bed & breakfast/guest house,7842,10,,185654,5,,53.84714100000000,SA024,201,environmental.food@pendle.gov.uk,Pendle,http://www.pendle.gov.uk,-2.21704400000000,BB9 8NW,2014-06-24,fhrs_4_en-GB,4,,FHRS,5
187345,,144 Scotland Road,Nelson,Lancashire,Holt's Fish and Chips,Takeaway/sandwich shop,7844,5,,185799,5,,53.84138400000000,SJ030,201,environmental.food@pendle.gov.uk,Pendle,http://www.pendle.gov.uk,-2.21470400000000,BB9 7XT,2014-06-12,fhrs_5_en-GB,5,,FHRS,5
187346,,Reedyford Road,Nelson,Lancashire,Holy Saviours R.C. School,School/college/university,7845,0,,185701,0,,53.84464100000000,SB031,201,environmental.food@pendle.gov.uk,Pendle,http://www.pendle.gov.uk,-2.21277600000000,BB9 8ST,2012-02-20,fhrs_5_en-GB,5,,FHRS,0
187347,,Halifax Road,Brierfield,"Nelson, Lancashire",Holy Trinity RC School,School/college/university,7845,5,,212942,5,,53.82376700000000,SB021,201,environmental.food@pendle.gov.uk,Pendle,http://www.pendle.gov.uk,-2.22467100000000,BB9 5BL,2014-05-13,fhrs_5_en-GB,5,,FHRS,5
187348,,Pendle Rise Shopping Centre,Nelson,Lancashire,Home Bargains,Retailers - other,4613,5,,185852,5,,53.83613700000000,SM007,201,environmental.food@pendle.gov.uk,Pendle,http://www.pendle.gov.uk,-2.21369000000000,BB9 9SL,2014-06-17,fhrs_5_en-GB,5,,FHRS,5
187349,,,,,Home Catering,Restaurant/Cafe/Canteen,1,5,,212937,5,,,SA054,201,environmental.food@pendle.gov.uk,Pendle,http://www.pendle.gov.uk,,,2014-05-21,fhrs_5_en-GB,5,,FHRS,5
187350,,Stoney Bank Road,Earby,"Barnoldswick, Lancashire",Hoseasons,Restaurant/Cafe/Canteen,1,5,,159510,10,,53.91573500000000,NC022,201,environmental.food@pendle.gov.uk,Pendle,http://www.pendle.gov.uk,-2.13907000000000,BB18 6RN,2013-08-06,fhrs_4_en-GB,4,,FHRS,5
187351,Pendleside,Colne Road,Burnley,Lancashire,Hospice Care,Hospitals/Childcare/Caring Premises,5,0,,185770,0,,53.81903300000000,SH034,201,environmental.food@pendle.gov.uk,Pendle,http://www.pendle.gov.uk,-2.23745000000000,BB10 2LW,2014-05-28,fhrs_5_en-GB,5,,FHRS,0
187352,Lower Park Marina,Kelbrook Road,Barnoldswick,Lancashire,Hotel Boat Periwinkle,Mobile caterer,7846,5,,212872,10,,53.91146800000000,H065,201,environmental.food@pendle.gov.uk,Pendle,http://www.pendle.gov.uk,-2.17824000000000,BB18 5TB,2014-05-21,fhrs_4_en-GB,4,,FHRS,5
187353,,Halifax Road,Nelson,Lancashire,Hulton Care Home - HC-One,Hospitals/Childcare/Caring Premises,5,5,,185769,5,,53.82533700000000,SH032,201,environmental.food@pendle.gov.uk,Pendle,http://www.pendle.gov.uk,-2.21149300000000,BB9 0EL,2013-08-28,fhrs_5_en-GB,5,,FHRS,0
187354,,,,,Hungry Hedgehog,Mobile caterer,7846,5,,158174,5,,,H016,201,environmental.food@pendle.gov.uk,Pendle,http://www.pendle.gov.uk,,,2014-05-16,fhrs_5_en-GB,5,,FHRS,5
187355,,11 Skipton Road,Colne,Lancashire,Hungry Hippo,Takeaway/sandwich shop,7844,10,,570470,5,,53.85895600000000,NA091,201,environmental.food@pendle.gov.uk,Pendle,http://www.pendle.gov.uk,-2.16320800000000,BB8 0NQ,2013-07-10,fhrs_4_en-GB,4,,FHRS,5
187356,,10 Newtown,Barnoldswick,Lancashire,Hutchinsons Pie Shop Ltd,Restaurant/Cafe/Canteen,1,5,,421250,5,,53.91589300000000,NE003,201,environmental.food@pendle.gov.uk,Pendle,http://www.pendle.gov.uk,-2.18789600000000,BB18 5UQ,2014-03-27,fhrs_5_en-GB,5,,FHRS,5
187357,,32-34 Colne Road,Brierfield,"Nelson, Lancashire",I Townson and Son Ltd,Restaurant/Cafe/Canteen,1,5,,185830,5,,53.82482700000000,SK011,201,environmental.food@pendle.gov.uk,Pendle,http://www.pendle.gov.uk,-2.23450500000000,BB9 5NS,2014-03-18,fhrs_5_en-GB,5,,FHRS,5
187358,,48 Market Street,Colne,Lancashire,Ice Dreamz,Retailers - other,4613,5,,421251,5,,53.85698400000000,NM065,201,environmental.food@pendle.gov.uk,Pendle,http://www.pendle.gov.uk,-2.16595200000000,BB8 0HS,2014-03-14,fhrs_4_en-GB,4,,FHRS,10
187359,,76 Manchester Road,Nelson,Lancashire,Inayat Food Store,Retailers - other,4613,5,,554849,5,,53.83508500000000,SM116,201,environmental.food@pendle.gov.uk,Pendle,http://www.pendle.gov.uk,-2.21907900000000,BB9 7HD,2013-05-14,fhrs_5_en-GB,5,,FHRS,5
187360,,6 Dockray Street,Colne,Lancashire,Indulge,Restaurant/Cafe/Canteen,1,5,,159576,5,,53.85783800000000,NJ037,201,environmental.food@pendle.gov.uk,Pendle,http://www.pendle.gov.uk,-2.16568200000000,BB8 9HT,2014-08-11,fhrs_4_en-GB,4,,FHRS,10
187361,,Langroyd Road,Colne,Lancashire,Innisfree Childcare Ltd,Hospitals/Childcare/Caring Premises,5,5,,159483,5,,53.86124200000000,NB008,201,environmental.food@pendle.gov.uk,Pendle,http://www.pendle.gov.uk,-2.16700300000000,BB8 9EN,2014-03-17,fhrs_5_en-GB,5,,FHRS,5
187362,,39 Walter Street,Brierfield,"Nelson, Lancashire",Irfan Food Store,Retailers - other,4613,10,,578818,10,,53.82044300000000,SM090,201,environmental.food@pendle.gov.uk,Pendle,http://www.pendle.gov.uk,-2.23349300000000,BB9 5JB,2013-08-13,fhrs_3_en-GB,3,,FHRS,10
187363,,58 Brunswick Street,Nelson,Lancashire,Ishy's,Retailers - other,4613,10,,185858,10,,53.83194900000000,SM021,201,environmental.food@pendle.gov.uk,Pendle,http://www.pendle.gov.uk,-2.20859400000000,BB9 0SL,2014-11-12,fhrs_3_en-GB,3,,FHRS,10
187364,,Unit 24 Market Hall Pendle,Pendle Rise,Nelson,Ishy's Snacks,Takeaway/sandwich shop,7844,5,,185775,5,,53.85921600000000,SJ004,201,environmental.food@pendle.gov.uk,Pendle,http://www.pendle.gov.uk,-2.17646700000000,BB8 9SL,2014-04-02,fhrs_5_en-GB,5,,FHRS,5
187365,,4 Church Street,Colne,Lancashire,Istanbul Take-Away,Takeaway/sandwich shop,7844,10,,159568,10,,53.85718500000000,NJ029,201,environmental.food@pendle.gov.uk,Pendle,http://www.pendle.gov.uk,-2.16940400000000,BB8 0LG,2014-05-14,fhrs_3_en-GB,3,,FHRS,10
187366,,,,,J & L Mallender,Restaurant/Cafe/Canteen,1,5,,159581,5,,,NK005,201,environmental.food@pendle.gov.uk,Pendle,http://www.pendle.gov.uk,,,2014-05-15,fhrs_5_en-GB,5,,FHRS,5
187367,,62 Albert Road,Colne,Lancashire,J J's Cafe Bar,Restaurant/Cafe/Canteen,1,5,,159464,5,,53.85558200000000,NA057,201,environmental.food@pendle.gov.uk,Pendle,http://www.pendle.gov.uk,-2.17781900000000,BB8 0AG,2013-09-26,fhrs_5_en-GB,5,,FHRS,5
187368,,46 Market Street,Colne,Lancashire,J Wild (Confectioners) Ltd,Retailers - other,4613,5,,159593,5,,53.85698400000000,NL003,201,environmental.food@pendle.gov.uk,Pendle,http://www.pendle.gov.uk,-2.16595200000000,BB8 0HS,2012-11-28,fhrs_5_en-GB,5,,FHRS,5
187369,,65 Victoria Road,Earby,"Barnoldswick, Lancashire",J Wild (Confectioners) Ltd,Retailers - other,4613,5,,159596,5,,53.91619600000000,NL007,201,environmental.food@pendle.gov.uk,Pendle,http://www.pendle.gov.uk,-2.14432400000000,BB18 6UN,2013-03-12,fhrs_5_en-GB,5,,FHRS,5
187370,,17 Rainhall Road,Barnoldswick,Lancashire,J Wild (Confectioners) Ltd,Retailers - other,4613,5,,159591,5,,53.91553500000000,NL001,201,environmental.food@pendle.gov.uk,Pendle,http://www.pendle.gov.uk,-2.18692000000000,BB18 5AF,2014-08-07,fhrs_5_en-GB,5,,FHRS,5
187371,,66 Market Street,Colne,Lancashire,Jack Fultons,Retailers - other,4613,5,,159622,5,,53.85698400000000,NM063,201,environmental.food@pendle.gov.uk,Pendle,http://www.pendle.gov.uk,-2.16595200000000,BB8 0HS,2014-01-13,fhrs_5_en-GB,5,,FHRS,5
187372,,9 Leeds Road,Nelson,Lancashire,Jacks Cafe,Restaurant/Cafe/Canteen,1,5,,433955,5,,53.83778300000000,SA034,201,environmental.food@pendle.gov.uk,Pendle,http://www.pendle.gov.uk,-2.21292300000000,BB9 9SZ,2014-07-03,fhrs_5_en-GB,5,,FHRS,5
187373,,19 Albert Road,Colne,Lancashire,Jaipur,Restaurant/Cafe/Canteen,1,5,,159434,5,,53.85604800000000,NA007,201,environmental.food@pendle.gov.uk,Pendle,http://www.pendle.gov.uk,-2.17300200000000,BB8 0RY,2013-06-19,fhrs_5_en-GB,5,,FHRS,5
187374,,174 Every Street,Nelson,Lancashire,Jaurah Food Store,Retailers - other,4613,5,,185862,5,,53.83564800000000,SM036,201,environmental.food@pendle.gov.uk,Pendle,http://www.pendle.gov.uk,-2.22060100000000,BB9 7HG,2013-11-13,fhrs_4_en-GB,4,,FHRS,10
187375,,25-27 Church Street,Barnoldswick,Lancashire,Jesters Restaurant,Restaurant/Cafe/Canteen,1,10,,159431,10,,53.91589200000000,NA003,201,environmental.food@pendle.gov.uk,Pendle,http://www.pendle.gov.uk,-2.18856600000000,BB18 5UR,2013-10-10,fhrs_3_en-GB,3,,FHRS,10
187376,,19-21 New Market Street,Colne,Lancashire,Jim's Vegetarian Restaurant,Restaurant/Cafe/Canteen,1,5,,159447,5,,53.85711900000000,NA028,201,environmental.food@pendle.gov.uk,Pendle,http://www.pendle.gov.uk,-2.17162300000000,BB8 9BJ,2014-02-20,fhrs_4_en-GB,4,,FHRS,10
187377,,,,,Joanna's Delicious Cake Company,Restaurant/Cafe/Canteen,1,5,,185651,5,,,SA018,201,environmental.food@pendle.gov.uk,Pendle,http://www.pendle.gov.uk,,,2012-11-15,fhrs_5_en-GB,5,,FHRS,5
187378,,Unit 2,Commercial St,Barnoldswick,Joe's Ices,Mobile caterer,7846,5,,212871,5,,53.91625900000000,H010,201,environmental.food@pendle.gov.uk,Pendle,http://www.pendle.gov.uk,-2.18964800000000,BB18 5NY,2014-07-29,fhrs_4_en-GB,4,,FHRS,10
187379,,123 Bradshaw Street,Nelson,Lancashire,John Hopkinson,Retailers - other,4613,5,,212903,5,,53.83112500000000,SR006,201,environmental.food@pendle.gov.uk,Pendle,http://www.pendle.gov.uk,-2.21699200000000,BB9 0BH,2014-07-16,fhrs_4_en-GB,4,,FHRS,10
187380,,76 Holly Street,Nelson,Lancashire,K & M foods,Retailers - other,4613,5,,212893,5,,53.83471400000000,SM056,201,environmental.food@pendle.gov.uk,Pendle,http://www.pendle.gov.uk,-2.20509700000000,BB9 0TF,2014-07-16,fhrs_5_en-GB,5,,FHRS,5
187381,,9 Scotland Road,Nelson,Lancashire,Kandy Warehouse,Retailers - other,4613,5,,570479,5,,53.83742000000000,SM013,201,environmental.food@pendle.gov.uk,Pendle,http://www.pendle.gov.uk,-2.21474500000000,BB9 7UT,2014-10-21,fhrs_5_en-GB,5,,FHRS,5
187382,,41 Albert Road,Barnoldswick,Lancashire,Kandybox,Retailers - other,4613,5,,534046,5,,53.91644300000000,NR004,201,environmental.food@pendle.gov.uk,Pendle,http://www.pendle.gov.uk,-2.18710700000000,BB18 5AA,2014-04-10,fhrs_5_en-GB,5,,FHRS,5
187383,,19 Scotland Road,Nelson,Lancashire,Kates Kitchen,Restaurant/Cafe/Canteen,1,10,,185660,10,,53.83742000000000,SA032,201,environmental.food@pendle.gov.uk,Pendle,http://www.pendle.gov.uk,-2.21474500000000,BB9 7UT,2013-07-04,fhrs_3_en-GB,3,,FHRS,10
187384,,61 Scotland Road,Nelson,Lancashire,Kebabish (Nelson),Takeaway/sandwich shop,7844,10,,185824,10,,53.83862600000000,SJ058,201,environmental.food@pendle.gov.uk,Pendle,http://www.pendle.gov.uk,-2.21421900000000,BB9 7UY,2014-10-07,fhrs_3_en-GB,3,,FHRS,10
187385,,401 Colne Road,Kelbrook,"Barnoldswick, Lancashire",Kelbrook Fisheries,Takeaway/sandwich shop,7844,5,,159559,5,,53.89733100000000,NJ020,201,environmental.food@pendle.gov.uk,Pendle,http://www.pendle.gov.uk,-2.15132000000000,BB18 6TG,2013-07-18,fhrs_4_en-GB,4,,FHRS,10
187386,,School Street,Kelbrook,"Barnoldswick, Lancashire",Kelbrook Primary School,School/college/university,7845,5,,212842,5,,53.89672000000000,NB022,201,environmental.food@pendle.gov.uk,Pendle,http://www.pendle.gov.uk,-2.15153100000000,BB18 6UD,2014-05-07,fhrs_5_en-GB,5,,FHRS,5
187387,,Kelbrook Road,Barnoldswick,Lancashire,Kelbrook Road Service Station,Retailers - other,4613,5,,212918,5,,53.91247800000000,NR040,201,environmental.food@pendle.gov.uk,Pendle,http://www.pendle.gov.uk,-2.18221700000000,BB18 5BX,2014-06-03,fhrs_5_en-GB,5,,FHRS,5
187388,,Colne Road,Kelbrook,"Barnoldswick, Lancashire",Kelbrook Service Station,Retailers - other,4613,0,,159617,0,,53.89733100000000,NM036,201,environmental.food@pendle.gov.uk,Pendle,http://www.pendle.gov.uk,-2.15132000000000,BB18 6TG,2014-06-25,fhrs_5_en-GB,5,,FHRS,0
187389,,North Valley Retail Park,Colne,Lancashire,KFC,Restaurant/Cafe/Canteen,1,0,,159475,0,,53.86120605468750,NA080,201,environmental.food@pendle.gov.uk,Pendle,http://www.pendle.gov.uk,-2.56927990913391,BB8 9HH,2013-01-10,fhrs_5_en-GB,5,,FHRS,5
187390,,27-29 Railway Street,Nelson,Lancashire,Khan's Take-away,Takeaway/sandwich shop,7844,5,,328556,5,,53.83539100000000,SJ041,201,environmental.food@pendle.gov.uk,Pendle,http://www.pendle.gov.uk,-2.21376200000000,BB9 9SG,2014-04-29,fhrs_5_en-GB,5,,FHRS,5
187391,,53-55 Scotland Road,Nelson,Lancashire,Khawaja Food Store,Retailers - other,4613,5,,734808,5,,53.83862500000000,SK044,201,environmental.food@pendle.gov.uk,Pendle,http://www.pendle.gov.uk,-2.21421900000000,BB9 7UY,2014-12-15,fhrs_5_en-GB,5,,FHRS,5
187392,,"Barden Mill, Barden Lane",Burnley,Lancashire,Kingfisher Cafe at Reedley Marina,Restaurant/Cafe/Canteen,1,0,,708378,5,,53.80870700000000,SA094,201,environmental.food@pendle.gov.uk,Pendle,http://www.pendle.gov.uk,-2.24134000000000,BB10 1JA,2013-03-12,fhrs_5_en-GB,5,,FHRS,0
187393,,4 Dockray Street,Colne,Lancashire,Kippax Biscuits,Retailers - other,4613,0,,212887,0,,53.85783800000000,NL004,201,environmental.food@pendle.gov.uk,Pendle,http://www.pendle.gov.uk,-2.16568200000000,BB8 9HT,2014-08-13,fhrs_5_en-GB,5,,FHRS,0
187394,,102 Manchester Road,Nelson,Lancashire,Kismat,Takeaway/sandwich shop,7844,5,,185821,5,,53.83508500000000,SJ054,201,environmental.food@pendle.gov.uk,Pendle,http://www.pendle.gov.uk,-2.21907900000000,BB9 7HD,2014-12-15,fhrs_5_en-GB,5,,FHRS,5
187395,Cotton Mill Works,Unit 1,The Arches,Knotts Lane,Knotts Lane Convenience Store,Retailers - other,4613,10,,726948,10,,53.85311600000000,NA104,201,environmental.food@pendle.gov.uk,Pendle,http://www.pendle.gov.uk,-2.18002800000000,BB8 8AD,2014-11-24,fhrs_3_en-GB,3,,FHRS,10
187396,,10 Forest Street,Nelson,Lancashire,KSC and Catholic Club,Pub/bar/nightclub,7843,5,,584408,5,,53.83939800000000,SS035,201,environmental.food@pendle.gov.uk,Pendle,http://www.pendle.gov.uk,-2.21466400000000,BB9 7NB,2013-09-11,fhrs_5_en-GB,5,,FHRS,5
187397,,40 Albert Road,Colne,Lancashire,La Dolce Vita,Restaurant/Cafe/Canteen,1,5,,534044,5,,53.85617200000000,NA081,201,environmental.food@pendle.gov.uk,Pendle,http://www.pendle.gov.uk,-2.17424900000000,BB8 0AD,2014-11-21,fhrs_5_en-GB,5,,FHRS,5
187398,,14 Church Street,Colne,Lancashire,La Villa,Restaurant/Cafe/Canteen,1,5,,159433,5,,53.85718500000000,NA005,201,environmental.food@pendle.gov.uk,Pendle,http://www.pendle.gov.uk,-2.16940400000000,BB8 0LG,2013-12-03,fhrs_5_en-GB,5,,FHRS,5
187399,,Skipton Road,Foulridge,"Colne, Lancashire",Lakeview Children's Nursery,Hospitals/Childcare/Caring Premises,5,5,,159504,0,,53.87240800000000,NB040,201,environmental.food@pendle.gov.uk,Pendle,http://www.pendle.gov.uk,-2.16493300000000,BB8 7NN,2015-01-13,fhrs_5_en-GB,5,,FHRS,5
187400,,80 Manchester Road,Nelson,Lancashire,Lala's,Takeaway/sandwich shop,7844,10,,212931,10,,53.83508500000000,SJ062,201,environmental.food@pendle.gov.uk,Pendle,http://www.pendle.gov.uk,-2.21907900000000,BB9 7HD,2013-12-10,fhrs_3_en-GB,3,,FHRS,10
187401,,2 Church Street,Barrowford,"Nelson, Lancashire",Lamb Working Mens Club,Pub/bar/nightclub,7843,10,,212895,5,,53.85220200000000,SS003,201,environmental.food@pendle.gov.uk,Pendle,http://www.pendle.gov.uk,-2.21687300000000,BB9 6EE,2014-05-14,fhrs_4_en-GB,4,,FHRS,5
187402,Fire Station,Wellhouse Road,Barnoldswick,Lancashire,Lancashire Fire & Rescue,Restaurant/Cafe/Canteen,1,5,,212941,5,,53.91800100000000,NC021,201,environmental.food@pendle.gov.uk,Pendle,http://www.pendle.gov.uk,-2.18481500000000,BB18 6DB,2014-05-07,fhrs_5_en-GB,5,,FHRS,5
187403,,Bradley Road,Nelson,Lancashire,Lancashire Fire and Rescue,Restaurant/Cafe/Canteen,1,5,,584403,5,,53.83939500000000,SC011,201,environmental.food@pendle.gov.uk,Pendle,http://www.pendle.gov.uk,-2.21113800000000,BB9 7QH,2013-09-04,fhrs_5_en-GB,5,,FHRS,5
187404,,Emmott Lane,Colne,Lancashire,Laneshawbridge CP School,School/college/university,7845,5,,212861,0,,53.86334600000000,NB024,201,environmental.food@pendle.gov.uk,Pendle,http://www.pendle.gov.uk,-2.12151600000000,BB8 7JE,2014-07-11,fhrs_5_en-GB,5,,FHRS,0
187405,,Langroyd Road,Colne,Lancashire,Langroyd Hall,Pub/bar/nightclub,7843,5,,159518,5,,53.86608500000000,ND010,201,environmental.food@pendle.gov.uk,Pendle,http://www.pendle.gov.uk,-2.16816200000000,BB8 7AN,2014-08-28,fhrs_5_en-GB,5,,FHRS,5
187406,,70 Langroyd Road,Colne,Lancashire,Laura's Larder,Manufacturers/packers,7839,5,,159528,5,,53.86305000000000,NF003,201,environmental.food@pendle.gov.uk,Pendle,http://www.pendle.gov.uk,-2.16637100000000,BB8 9EQ,2014-01-07,fhrs_5_en-GB,5,,FHRS,5
187407,,11 Market Street,Colne,Lancashire,Lawson's Butchers,Retailers - other,4613,5,,159586,5,,53.85742200000000,NK012,201,environmental.food@pendle.gov.uk,Pendle,http://www.pendle.gov.uk,-2.16724600000000,BB8 0LJ,2014-10-01,fhrs_4_en-GB,4,,FHRS,10
187408,,,,,LCC Childrens Home,Hospitals/Childcare/Caring Premises,5,0,,185766,0,,,SH025,201,environmental.food@pendle.gov.uk,Pendle,http://www.pendle.gov.uk,,,2014-06-04,fhrs_5_en-GB,5,,FHRS,0
187409,,1 Trawden Road,Colne,Lancashire,Lee Garden,Takeaway/sandwich shop,7844,5,,159561,5,,53.85644000000000,NJ022,201,environmental.food@pendle.gov.uk,Pendle,http://www.pendle.gov.uk,-2.14138200000000,BB8 7BU,2012-12-04,fhrs_5_en-GB,5,,FHRS,5
187410,2d Valley Mills,Southfield Street,Nelson,Lancashire,Leeda's Ices,Mobile caterer,7846,5,,570468,5,,53.83310900000000,H074,201,environmental.food@pendle.gov.uk,Pendle,http://www.pendle.gov.uk,-2.20297700000000,BB9 0JZ,2013-07-16,fhrs_5_en-GB,5,,FHRS,5
187411,,228 Leeds Road,Nelson,Lancashire,Leeds Road News,Retailers - other,4613,5,,726956,5,,53.84195900000000,SR029,201,environmental.food@pendle.gov.uk,Pendle,http://www.pendle.gov.uk,-2.20467700000000,BB9 8EN,2014-11-17,fhrs_4_en-GB,4,,FHRS,10
187412,,15 Albert Road,Barnoldswick,Lancashire,Liddell's,Retailers - other,4613,5,,159595,5,,53.91644300000000,NL006,201,environmental.food@pendle.gov.uk,Pendle,http://www.pendle.gov.uk,-2.18710700000000,BB18 5AA,2013-08-21,fhrs_5_en-GB,5,,FHRS,5
187413,,Rigby Street,Nelson,Lancashire,Lidl,Retailers - supermarkets/hypermarkets,7840,5,,212894,5,,53.83495300000000,SM106,201,environmental.food@pendle.gov.uk,Pendle,http://www.pendle.gov.uk,-2.21748200000000,BB9 7AA,2014-07-23,fhrs_5_en-GB,5,,FHRS,5
187414,,64 Railway Street,Nelson,Lancashire,Liquorstore,Retailers - other,4613,5,,656672,5,,53.83398100000000,SQ003,201,environmental.food@pendle.gov.uk,Pendle,http://www.pendle.gov.uk,-2.21291900000000,BB9 9AH,2014-03-25,fhrs_5_en-GB,5,,FHRS,5
187415,"Barrowfield Centre, Holmefield",22 Gisburn Road,Barrowford,"Nelson, Lancashire",Little Blossoms of Barrowford Childrens Nursery,Hospitals/Childcare/Caring Premises,5,5,,717443,5,,53.84883100000000,SB046,201,environmental.food@pendle.gov.uk,Pendle,http://www.pendle.gov.uk,-2.21720500000000,BB9 8NE,2014-10-15,fhrs_5_en-GB,5,,FHRS,5
187416,,,,,Little Moss Cafe,Mobile caterer,7846,5,,158180,5,,,H036,201,environmental.food@pendle.gov.uk,Pendle,http://www.pendle.gov.uk,,,2014-07-15,fhrs_5_en-GB,5,,FHRS,5
187417,Greenberfield Locks Car Park,Greenberfield Lane,Barnoldswick,Lancashire,Lock Stop Refreshments,Restaurant/Cafe/Canteen,1,5,,159621,5,,53.92961300000000,NM062,201,environmental.food@pendle.gov.uk,Pendle,http://www.pendle.gov.uk,-2.17329200000000,BB18 5SU,2014-05-02,fhrs_5_en-GB,5,,FHRS,5
187418,,Norfolk Street,Nelson,Lancashire,Lomeshaye Juniors,School/college/university,7845,5,,185682,5,,53.83706700000000,SB008,201,environmental.food@pendle.gov.uk,Pendle,http://www.pendle.gov.uk,-2.22147500000000,BB9 7SY,2013-05-14,fhrs_5_en-GB,5,,FHRS,5
187419,"Unit 163, Imex Spaces Business","Lomeshaye Business Village, Tu",Nelson,Lancashire,Lomeshaye Village Day Nursery,Hospitals/Childcare/Caring Premises,5,5,,185685,5,,53.83510300000000,SB012,201,environmental.food@pendle.gov.uk,Pendle,http://www.pendle.gov.uk,-2.22868200000000,BB9 7DR,2014-05-19,fhrs_5_en-GB,5,,FHRS,5
187420,,2 Manchester Road,Nelson,Lancashire,Lord Nelson Hotel,Pub/bar/nightclub,7843,5,,212850,5,,53.83652000000000,SD015,201,environmental.food@pendle.gov.uk,Pendle,http://www.pendle.gov.uk,-2.21534800000000,BB9 7EG,2014-06-30,fhrs_5_en-GB,5,,FHRS,5
187421,,Lord Street,Colne,Lancashire,Lord Street C.P. School,School/college/university,7845,5,,159488,5,,53.85650700000000,NB014,201,environmental.food@pendle.gov.uk,Pendle,http://www.pendle.gov.uk,-2.17875100000000,BB8 9AR,2014-01-15,fhrs_5_en-GB,5,,FHRS,5
187422,,23 Skipton Road,Colne,Lancashire,Lotus Chinese Take Away,Takeaway/sandwich shop,7844,5,,159552,5,,53.85895600000000,NJ013,201,environmental.food@pendle.gov.uk,Pendle,http://www.pendle.gov.uk,-2.16320800000000,BB8 0NQ,2014-01-02,fhrs_5_en-GB,5,,FHRS,5
187423,,,,,Louies,Restaurant/Cafe/Canteen,1,5,,502292,5,,,NA055,201,environmental.food@pendle.gov.uk,Pendle,http://www.pendle.gov.uk,,,2014-05-07,fhrs_5_en-GB,5,,FHRS,5
187424,,,,,Love Sweet Things,Restaurant/Cafe/Canteen,1,5,,433951,0,,,NA071,201,environmental.food@pendle.gov.uk,Pendle,http://www.pendle.gov.uk,,,2012-07-20,fhrs_5_en-GB,5,,FHRS,0
187425,,6 Howard Street,Nelson,Lancashire,Lovett House,Hotel/bed & breakfast/guest house,7842,5,,212899,5,,53.83739700000000,SA001,201,environmental.food@pendle.gov.uk,Pendle,http://www.pendle.gov.uk,-2.22273800000000,BB9 7SZ,2014-06-04,fhrs_5_en-GB,5,,FHRS,5
187426,,230 Hibson Road,Nelson,Lancashire,Lynwood,Hospitals/Childcare/Caring Premises,5,5,,185690,0,,53.82723200000000,SB018,201,environmental.food@pendle.gov.uk,Pendle,http://www.pendle.gov.uk,-2.21736600000000,BB9 0QA,2014-09-17,fhrs_5_en-GB,5,,FHRS,5
187427,12 Trafalgar Mall,The Victory Centre,Nelson,Lancashire,M & T Butchers Preston Ltd,Retailers - other,4613,5,,717445,5,,53.83743100000000,SK060,201,environmental.food@pendle.gov.uk,Pendle,http://www.pendle.gov.uk,-2.21360500000000,BB9 9UP,2014-10-14,fhrs_5_en-GB,5,,FHRS,5
187428,,114 Scotland Road,Nelson,Lancashire,M and N Newsagent,Retailers - other,4613,5,,212847,5,,53.84013700000000,SR039,201,environmental.food@pendle.gov.uk,Pendle,http://www.pendle.gov.uk,-2.21371000000000,BB9 7XJ,2014-06-10,fhrs_5_en-GB,5,,FHRS,5
187429,,150 Halifax Road,Brierfield,"Nelson, Lancashire",MA News & Grocers,Retailers - other,4613,5,,433959,10,,53.82435600000000,SR019,201,environmental.food@pendle.gov.uk,Pendle,http://www.pendle.gov.uk,-2.22702800000000,BB9 5BQ,2014-08-13,fhrs_4_en-GB,4,,FHRS,5
187430,,3 Railway Street,Brierfield,"Nelson, Lancashire",Mama's,Takeaway/sandwich shop,7844,10,,185802,10,,53.82384600000000,SJ033,201,environmental.food@pendle.gov.uk,Pendle,http://www.pendle.gov.uk,-2.23522900000000,BB9 5PJ,2014-12-12,fhrs_3_en-GB,3,,FHRS,10
187431,,1 King Edward Terrace,Barrowford,"Nelson, Lancashire",Man Lee,Takeaway/sandwich shop,7844,5,,185806,5,,53.84677100000000,SJ037,201,environmental.food@pendle.gov.uk,Pendle,http://www.pendle.gov.uk,-2.21789300000000,BB9 8NJ,2012-10-29,fhrs_5_en-GB,5,,FHRS,5
187432,,62-66 Manchester Road,Nelson,Lancashire,Mansha Sweet Centre,Takeaway/sandwich shop,7844,5,,185814,0,,53.83586200000000,SJ046,201,environmental.food@pendle.gov.uk,Pendle,http://www.pendle.gov.uk,-2.21680300000000,BB9 7EJ,2014-05-27,fhrs_5_en-GB,5,,FHRS,0
187433,,2 Burnley Road,Brierfield,"Nelson, Lancashire",Maria's,Retailers - other,4613,5,,212853,5,,53.82197900000000,SM108,201,environmental.food@pendle.gov.uk,Pendle,http://www.pendle.gov.uk,-2.23423100000000,BB9 5HY,2014-07-28,fhrs_5_en-GB,5,,FHRS,5
187434,,Bradley Road,Nelson,Lancashire,Maria's Butcher,Retailers - other,4613,30,,734809,15,,53.83990600000000,SK045,201,environmental.food@pendle.gov.uk,Pendle,http://www.pendle.gov.uk,-2.21173300000000,BB9 7QQ,2015-01-07,fhrs_0_en-GB,0,,FHRS,20
187435,,Bradley Road,Nelson,Lancashire,Maria's Cash and Carry,Retailers - other,4613,10,,185887,10,,53.83990600000000,SO014,201,environmental.food@pendle.gov.uk,Pendle,http://www.pendle.gov.uk,-2.21173300000000,BB9 7QQ,2014-12-30,fhrs_3_en-GB,3,,FHRS,10
187436,,55-57 Gisburn Road,Barnoldswick,Lancashire,Mario's,Restaurant/Cafe/Canteen,1,5,,159564,5,,53.91976200000000,NJ025,201,environmental.food@pendle.gov.uk,Pendle,http://www.pendle.gov.uk,-2.19140000000000,BB18 5HB,2012-09-12,fhrs_5_en-GB,5,,FHRS,5
187437,,3 Prospect Buildings,Nelson,Lancashire,Market Street Chippy,Takeaway/sandwich shop,7844,0,,185810,0,,53.83776000000000,SJ042,201,environmental.food@pendle.gov.uk,Pendle,http://www.pendle.gov.uk,-2.21588600000000,BB9 7NS,2013-02-04,fhrs_5_en-GB,5,,FHRS,0
187438,,8 Market Street,Colne,Lancashire,Market Street Tavern,Pub/bar/nightclub,7843,10,,212843,5,,53.85700700000000,NP013,201,environmental.food@pendle.gov.uk,Pendle,http://www.pendle.gov.uk,-2.16815600000000,BB8 0HR,2014-06-25,fhrs_4_en-GB,4,,FHRS,5
187439,,120 Burnley Road,Colne,Lancashire,Markham's Mini Market,Retailers - other,4613,5,,570472,10,,53.85041500000000,NM023,201,environmental.food@pendle.gov.uk,Pendle,http://www.pendle.gov.uk,-2.18932000000000,BB8 8JA,2013-06-28,fhrs_4_en-GB,4,,FHRS,5
187440,,Marsden Hall Road North,Nelson,Lancashire,Marsden Community Centre,Hospitals/Childcare/Caring Premises,5,5,,591453,5,,53.84224500000000,SA045,201,environmental.food@pendle.gov.uk,Pendle,http://www.pendle.gov.uk,-2.18946500000000,BB9 8JL,2013-10-02,fhrs_5_en-GB,5,,FHRS,5
187441,,Percy Street,Nelson,Lancashire,Marsden CP School,School/college/university,7845,5,,185687,5,,53.83208100000000,SB015,201,environmental.food@pendle.gov.uk,Pendle,http://www.pendle.gov.uk,-2.21486900000000,BB9 0BE,2012-10-15,fhrs_5_en-GB,5,,FHRS,5
187442,,76 Beaufort Street,Nelson,Lancashire,Marsden Food & Drink,Retailers - other,4613,5,,629349,5,,53.83064400000000,SM088,201,environmental.food@pendle.gov.uk,Pendle,http://www.pendle.gov.uk,-2.21417800000000,BB9 0BT,2014-01-14,fhrs_5_en-GB,5,,FHRS,5
187443,,Barkerhouse Road,Nelson,Lancashire,Marsden Grange,Hospitals/Childcare/Caring Premises,5,5,,185758,0,,53.83567800000000,SH015,201,environmental.food@pendle.gov.uk,Pendle,http://www.pendle.gov.uk,-2.19290000000000,BB9 9NL,2013-09-20,fhrs_5_en-GB,5,,FHRS,5
187444,,316 Kings Causeway,Brierfield,"Nelson, Lancashire",Marsden Heights Care Home,Hospitals/Childcare/Caring Premises,5,5,,185752,5,,53.82176400000000,SH004,201,environmental.food@pendle.gov.uk,Pendle,http://www.pendle.gov.uk,-2.20924200000000,BB9 0EY,2014-12-10,fhrs_5_en-GB,5,,FHRS,5
187445,,Edge End Lane,Nelson,Lancashire,Marsden Heights Community College,School/college/university,7845,5,,185684,5,,53.82637000000000,SB010,201,environmental.food@pendle.gov.uk,Pendle,http://www.pendle.gov.uk,-2.22217800000000,BB9 0PR,2013-11-25,fhrs_5_en-GB,5,,FHRS,5
187446,,187-189 Barkerhouse Road,Nelson,Lancashire,Marsden News,Retailers - other,4613,5,,212884,5,,53.83577100000000,SM011,201,environmental.food@pendle.gov.uk,Pendle,http://www.pendle.gov.uk,-2.19662300000000,BB9 9NP,2014-11-11,fhrs_5_en-GB,5,,FHRS,5
187447,28 Marsden Mall,Pendle Rise Shopping Centre,Nelson,Lancashire,Martins,Retailers - other,4613,5,,212924,5,,53.83613700000000,SR044,201,environmental.food@pendle.gov.uk,Pendle,http://www.pendle.gov.uk,-2.21369000000000,BB9 9SL,2014-06-10,fhrs_5_en-GB,5,,FHRS,5
187448,,,,,Marwins Chucks,Retailers - other,4613,5,,708382,5,,,SO010,201,environmental.food@pendle.gov.uk,Pendle,http://www.pendle.gov.uk,,,2014-09-08,fhrs_5_en-GB,5,,FHRS,5
187449,,91 Albert Road,Colne,Lancashire,Masonic Hall,Pub/bar/nightclub,7843,10,,159653,5,,53.85522300000000,NS001,201,environmental.food@pendle.gov.uk,Pendle,http://www.pendle.gov.uk,-2.17765100000000,BB8 0BS,2014-06-26,fhrs_4_en-GB,4,,FHRS,5
187450,Unit 1-2 Market Hall,Market Street,Colne,Lancashire,Maybury's Farm Shop,Retailers - other,4613,5,,159582,5,,53.85698400000000,NK006,201,environmental.food@pendle.gov.uk,Pendle,http://www.pendle.gov.uk,-2.16595200000000,BB8 0HS,2014-11-25,fhrs_5_en-GB,5,,FHRS,5
187451,,49 Belgrave Street,Nelson,Lancashire,Mayflower,Takeaway/sandwich shop,7844,5,,185776,5,,53.83916600000000,SJ005,201,environmental.food@pendle.gov.uk,Pendle,http://www.pendle.gov.uk,-2.20323500000000,BB9 9HS,2012-12-05,fhrs_5_en-GB,5,,FHRS,5
187452,,15 Glenroy Avenue,Colne,Lancashire,McColl's,Retailers - other,4613,5,,433953,5,,53.86353200000000,NM031,201,environmental.food@pendle.gov.uk,Pendle,http://www.pendle.gov.uk,-2.16839500000000,BB8 9ET,2014-08-12,fhrs_5_en-GB,5,,FHRS,5
187453,,North Valley Retail Park,Colne,Lancashire,McDonalds,Restaurant/Cafe/Canteen,1,0,,159474,0,,53.86120605468750,NA079,201,environmental.food@pendle.gov.uk,Pendle,http://www.pendle.gov.uk,-2.56927990913391,BB8 9HH,2013-02-20,fhrs_5_en-GB,5,,FHRS,5
187454,,69 Red Lion Street,Earby,"Barnoldswick, Lancashire",McGarrell's Farm Produce,Retailers - other,4613,5,,584399,5,,53.91750000000000,NA093,201,environmental.food@pendle.gov.uk,Pendle,http://www.pendle.gov.uk,-2.13607700000000,BB18 6RJ,2013-09-05,fhrs_5_en-GB,5,,FHRS,5
187455,,51-53 Gisburn Road,Barrowford,"Nelson, Lancashire",McGuires Off-Licence,Retailers - other,4613,5,,185863,5,,53.84730100000000,SM042,201,environmental.food@pendle.gov.uk,Pendle,http://www.pendle.gov.uk,-2.21823100000000,BB9 8ND,2015-01-08,fhrs_5_en-GB,5,,FHRS,5
187456,,87 Regent Street,Nelson,Lancashire,Medina Food Stores,Retailers - other,4613,10,,185872,10,,53.84188000000000,SM091,201,environmental.food@pendle.gov.uk,Pendle,http://www.pendle.gov.uk,-2.20870400000000,BB9 7RG,2014-07-09,fhrs_3_en-GB,3,,FHRS,10
187457,,21 Church Street,Barnoldswick,Lancashire,Mediterranean,Takeaway/sandwich shop,7844,5,,159573,5,,53.91589200000000,NJ034,201,environmental.food@pendle.gov.uk,Pendle,http://www.pendle.gov.uk,-2.18856600000000,BB18 5UR,2012-09-27,fhrs_5_en-GB,5,,FHRS,5
187458,,208 Every Street,Nelson,Lancashire,Mian Store,Restaurant/Cafe/Canteen,1,5,,455941,5,,53.83362200000000,SK005,201,environmental.food@pendle.gov.uk,Pendle,http://www.pendle.gov.uk,-2.22280900000000,BB9 7BS,2014-08-15,fhrs_4_en-GB,4,,FHRS,10
187459,Middle Beardshaw Head,Burnley Road,Trawden,"Colne, Lancashire",Middle Beardshaw Head,Hotel/bed & breakfast/guest house,7842,0,,212848,5,,53.83951900000000,NA033,201,environmental.food@pendle.gov.uk,Pendle,http://www.pendle.gov.uk,-2.14620300000000,BB8 8PP,2014-06-24,fhrs_5_en-GB,5,,FHRS,5
187460,,72 Albert Road,Colne,Lancashire,Miraj,Takeaway/sandwich shop,7844,5,,159570,5,,53.85558200000000,NJ031,201,environmental.food@pendle.gov.uk,Pendle,http://www.pendle.gov.uk,-2.17781900000000,BB8 0AG,2014-12-30,fhrs_5_en-GB,5,,FHRS,5
187461,,46 Glen Street,Colne,Lancashire,Money Save Store,Retailers - other,4613,10,,159615,10,,53.86103300000000,NM030,201,environmental.food@pendle.gov.uk,Pendle,http://www.pendle.gov.uk,-2.16859800000000,BB8 9EW,2014-07-02,fhrs_3_en-GB,3,,FHRS,10
187462,,52 Walton Street,Colne,Lancashire,Money Save Store,Retailers - other,4613,10,,570474,5,,53.85501900000000,NM056,201,environmental.food@pendle.gov.uk,Pendle,http://www.pendle.gov.uk,-2.16956200000000,BB8 0EL,2013-06-25,fhrs_3_en-GB,3,,FHRS,10
187463,,5 Manchester Road,Barnoldswick,Lancashire,Monks House,Hotel/bed & breakfast/guest house,7842,5,,212914,5,,53.91396000000000,NA032,201,environmental.food@pendle.gov.uk,Pendle,http://www.pendle.gov.uk,-2.18883100000000,BB18 5NZ,2014-06-24,fhrs_4_en-GB,4,,FHRS,10
187464,,15 Victoria Road,Earby,"Barnoldswick, Lancashire",Morgans Cafe,Restaurant/Cafe/Canteen,1,5,,159441,5,,53.91619600000000,NA018,201,environmental.food@pendle.gov.uk,Pendle,http://www.pendle.gov.uk,-2.14432400000000,BB18 6UN,2013-04-04,fhrs_5_en-GB,5,,FHRS,5
187465,,Byron Road,Colne,Lancashire,Morris Dancers,Pub/bar/nightclub,7843,5,,159513,5,,53.86018100000000,ND003,201,environmental.food@pendle.gov.uk,Pendle,http://www.pendle.gov.uk,-2.15387700000000,BB8 0BH,2013-04-11,fhrs_5_en-GB,5,,FHRS,5
187466,,Pendle Street,Nelson,Lancashire,Morrisons,Retailers - supermarkets/hypermarkets,7840,5,,185875,5,,53.83905000000000,SM103,201,environmental.food@pendle.gov.uk,Pendle,http://www.pendle.gov.uk,-2.21811200000000,BB9 7UZ,2014-01-28,fhrs_5_en-GB,5,,FHRS,5
187467,Victoria Garage,Gisburn Road,Barrowford,"Nelson, Lancashire",Morrisons Local,Retailers - supermarkets/hypermarkets,7840,5,,708381,5,,53.85142100000000,SM080,201,environmental.food@pendle.gov.uk,Pendle,http://www.pendle.gov.uk,-2.21600200000000,BB9 6DT,2014-10-07,fhrs_5_en-GB,5,,FHRS,5
187468,Thorneyholme Farm Cottage,Barley New Road,Roughlee,"Burnley, Lancashire",Mr & Mrs Taylor,Hotel/bed & breakfast/guest house,7842,5,,212928,5,,53.85625800000000,SA071,201,environmental.food@pendle.gov.uk,Pendle,http://www.pendle.gov.uk,-2.25207300000000,BB12 9LH,2014-05-21,fhrs_5_en-GB,5,,FHRS,5
187469,,5 Water Street,Earby,"Barnoldswick, Lancashire",Mr B's (Fish and Chip Shop),Takeaway/sandwich shop,7844,10,,159558,5,,53.91708900000000,NJ019,201,environmental.food@pendle.gov.uk,Pendle,http://www.pendle.gov.uk,-2.14172400000000,BB18 6QP,2014-02-06,fhrs_3_en-GB,3,,FHRS,10
187470,,12-14 Market Place,Colne,Lancashire,Mr Chips,Restaurant/Cafe/Canteen,1,5,,159436,5,,53.85681900000000,NA011,201,environmental.food@pendle.gov.uk,Pendle,http://www.pendle.gov.uk,-2.16774500000000,BB8 0HY,2014-01-09,fhrs_5_en-GB,5,,FHRS,5
187471,,9 Victoria Road,Earby,"Barnoldswick, Lancashire",Mr T's Aspendos,Retailers - other,4613,5,,159589,5,,53.91619600000000,NK019,201,environmental.food@pendle.gov.uk,Pendle,http://www.pendle.gov.uk,-2.14432400000000,BB18 6UN,2014-05-14,fhrs_5_en-GB,5,,FHRS,5
187472,,,,,Mr Twirly Tops,Mobile caterer,7846,5,,447538,5,,,H062,201,environmental.food@pendle.gov.uk,Pendle,http://www.pendle.gov.uk,,,2014-08-12,fhrs_5_en-GB,5,,FHRS,5
187473,Unit 9A,Grafton Street,Nelson,Lancashire,Mr Valentine Ices,Mobile caterer,7846,5,,158167,5,,53.84020000000000,H004,201,environmental.food@pendle.gov.uk,Pendle,http://www.pendle.gov.uk,-2.20331600000000,BB9 8AG,2013-06-19,fhrs_5_en-GB,5,,FHRS,5
187474,,Town House Road,Nelson,Lancashire,Municipal Golf Club,Pub/bar/nightclub,7843,5,,185937,5,,53.83766000000000,SS026,201,environmental.food@pendle.gov.uk,Pendle,http://www.pendle.gov.uk,-2.18397400000000,BB9 8DG,2014-10-22,fhrs_5_en-GB,5,,FHRS,5
187475,,Albert Road,Colne,Lancashire,Municipal Hall,Pub/bar/nightclub,7843,5,,159533,5,,53.85572800000000,NH007,201,environmental.food@pendle.gov.uk,Pendle,http://www.pendle.gov.uk,-2.17696900000000,BB8 0AE,2013-05-20,fhrs_5_en-GB,5,,FHRS,5
187476,Unit 35-36 Market Hall,Market Street,Colne,Lancashire,Murphy's,Retailers - other,4613,5,,212865,5,,53.85698400000000,NN009,201,environmental.food@pendle.gov.uk,Pendle,http://www.pendle.gov.uk,-2.16595200000000,BB8 0HS,2014-06-25,fhrs_4_en-GB,4,,FHRS,10
187477,,Reedley Marina,Barden Lane Burnley,,MV Pendle Explorer,Mobile caterer,7846,5,,158170,5,,53.81283200000000,H008,201,environmental.food@pendle.gov.uk,Pendle,http://www.pendle.gov.uk,-2.24189500000000,BB12 0DX,2012-11-15,fhrs_5_en-GB,5,,FHRS,5
187478,,29 Glenfield Road,Nelson,Lancashire,Nanna's Bakery,Takeaway/sandwich shop,7844,5,,185728,5,,53.84116200000000,SE009,201,environmental.food@pendle.gov.uk,Pendle,http://www.pendle.gov.uk,-2.19777300000000,BB9 8AP,2014-09-01,fhrs_5_en-GB,5,,FHRS,5
187479,,47 Scotland Road,Nelson,Lancashire,Nawab Sweet Centre,Restaurant/Cafe/Canteen,1,5,,717444,5,,53.83742000000000,SJ067,201,environmental.food@pendle.gov.uk,Pendle,http://www.pendle.gov.uk,-2.21474500000000,BB9 7UT,2014-10-15,fhrs_5_en-GB,5,,FHRS,5
187480,The Abattoir,Junction Street,Colne,Lancashire,Neerock Ltd,Restaurant/Cafe/Canteen,1,0,,159507,0,,53.84822500000000,NC005,201,environmental.food@pendle.gov.uk,Pendle,http://www.pendle.gov.uk,-2.19820200000000,BB8 8LH,2014-10-17,fhrs_5_en-GB,5,,FHRS,5
187481,,Scotland Road,Nelson,Lancashire,Nelson and Colne College - KITCHEN,School/college/university,7845,0,,185689,0,,53.84422100000000,SB017,201,environmental.food@pendle.gov.uk,Pendle,http://www.pendle.gov.uk,-2.22120900000000,BB9 7YT,2012-12-11,fhrs_5_en-GB,5,,FHRS,0
187482,,12 Leeds Rd,Nelson,,Nelson Bazaar Stall 1 / Falooda Bar,Retailers - other,4613,10,,185854,10,,53.83613700000000,SM009,201,environmental.food@pendle.gov.uk,Pendle,http://www.pendle.gov.uk,-2.21369000000000,BB9 9SL,2013-06-14,fhrs_3_en-GB,3,,FHRS,10
187483,,12 Leeds Road,Nelson,Lancashire,Nelson Bazaar Stall 44/45 N Khan Fruit,Retailers - other,4613,5,,185881,5,,53.83632500000000,SN004,201,environmental.food@pendle.gov.uk,Pendle,http://www.pendle.gov.uk,-2.21425300000000,BB9 9SY,2014-11-17,fhrs_5_en-GB,5,,FHRS,5
187484,,12 Leeds Road,Nelson,Lancashire,Nelson Bazaar Stall 50 / Sofy's Sweets,Retailers - other,4613,5,,185856,5,,53.83632500000000,SM012,201,environmental.food@pendle.gov.uk,Pendle,http://www.pendle.gov.uk,-2.21425300000000,BB9 9SY,2014-11-17,fhrs_5_en-GB,5,,FHRS,5
187485,,104 Leeds Road,Nelson,Lancashire,Nelson Carters and Motormens Club,Pub/bar/nightclub,7843,5,,328558,5,,53.83834500000000,SS031,201,environmental.food@pendle.gov.uk,Pendle,http://www.pendle.gov.uk,-2.21003900000000,BB9 9TN,2014-06-17,fhrs_5_en-GB,5,,FHRS,5
187486,,Surrey Road,Nelson,Lancashire,Nelson Cricket Club,Pub/bar/nightclub,7843,10,,467545,10,,53.84156000000000,SS002,201,environmental.food@pendle.gov.uk,Pendle,http://www.pendle.gov.uk,-2.22174200000000,BB9 7TY,2012-11-13,fhrs_3_en-GB,3,,FHRS,10
187487,Victoria Park Stadium,Lomeshaye Way,Nelson,Lancashire,Nelson Football Club Ltd,Pub/bar/nightclub,7843,10,,515891,10,,53.83594700000000,SS044,201,environmental.food@pendle.gov.uk,Pendle,http://www.pendle.gov.uk,-2.22917300000000,BB9 7BN,2013-02-25,fhrs_3_en-GB,3,,FHRS,10
187488,,Kings Causeway,Brierfield,"Nelson, Lancashire",Nelson Golf Club,Pub/bar/nightclub,7843,5,,185717,5,,53.82135700000000,SD017,201,environmental.food@pendle.gov.uk,Pendle,http://www.pendle.gov.uk,-2.20533600000000,BB9 0EU,2014-10-30,fhrs_5_en-GB,5,,FHRS,5
187489,,"Bus/Rail Interchange, Broadway",Nelson,Lancashire,Nelson Inter News and Cafe,Restaurant/Cafe/Canteen,1,5,,185652,10,,53.83588600000000,SA019,201,environmental.food@pendle.gov.uk,Pendle,http://www.pendle.gov.uk,-2.21308100000000,BB9 9SJ,2014-01-27,fhrs_4_en-GB,4,,FHRS,5
187490,,247 Barkerhouse Road,Nelson,Lancashire,Nelson Manor Care Home,Hospitals/Childcare/Caring Premises,5,5,,185753,5,,53.83567800000000,SH005,201,environmental.food@pendle.gov.uk,Pendle,http://www.pendle.gov.uk,-2.19290000000000,BB9 9NL,2014-01-07,fhrs_5_en-GB,5,,FHRS,5
187491,24 Marsden Mall,Pendle Rise Shopping Centre,Nelson,Lancashire,Nelson Nutrition,Retailers - other,4613,5,,212844,5,,53.83613700000000,SM004,201,environmental.food@pendle.gov.uk,Pendle,http://www.pendle.gov.uk,-2.21369000000000,BB9 9SL,2014-07-16,fhrs_5_en-GB,5,,FHRS,5
187492,,41 Every Street,Nelson,Lancashire,Nelson Pharmacy,Restaurant/Cafe/Canteen,1,,,708389,,,53.83845200000000,ST006,201,environmental.food@pendle.gov.uk,Pendle,http://www.pendle.gov.uk,-2.21581400000000,BB9 7LU,2014-06-17,fhrs_exempt_en-GB,Exempt,,FHRS,
187493,The Gravel,Hibson Road,Nelson,Lancashire,Nelson Poultry Club,Pub/bar/nightclub,7843,5,,584407,5,,53.83002900000000,SS008,201,environmental.food@pendle.gov.uk,Pendle,http://www.pendle.gov.uk,-2.21640900000000,BB9 0DY,2013-09-06,fhrs_5_en-GB,5,,FHRS,5
187494,,2A New Brown Street,Nelson,Lancashire,Nelson Warpdressers Club,Pub/bar/nightclub,7843,10,,212878,5,,53.83832600000000,SS013,201,environmental.food@pendle.gov.uk,Pendle,http://www.pendle.gov.uk,-2.21564600000000,BB9 7NY,2014-05-15,fhrs_4_en-GB,4,,FHRS,5
187495,,3 Nora Street,Barrowford,"Nelson, Lancashire",New Bridge Chippy,Takeaway/sandwich shop,7844,5,,185798,5,,53.84675900000000,SJ028,201,environmental.food@pendle.gov.uk,Pendle,http://www.pendle.gov.uk,-2.21933700000000,BB9 8NS,2014-10-01,fhrs_5_en-GB,5,,FHRS,5
187496,,West Street,Colne,Lancashire,New Life Christian Centre,Restaurant/Cafe/Canteen,1,5,,610965,5,,53.85557100000000,NH028,201,environmental.food@pendle.gov.uk,Pendle,http://www.pendle.gov.uk,-2.16731400000000,BB8 0HP,2013-10-16,fhrs_5_en-GB,5,,FHRS,5
187497,,3 Frank Street,Barnoldswick,Lancashire,New Million Stars,Takeaway/sandwich shop,7844,5,,159432,5,,53.91593100000000,NA004,201,environmental.food@pendle.gov.uk,Pendle,http://www.pendle.gov.uk,-2.18715000000000,BB18 5AE,2013-09-19,fhrs_5_en-GB,5,,FHRS,5
187498,,27 Rainhall Road,Barnoldswick,Lancashire,New Mr Chipps,Takeaway/sandwich shop,7844,,,159472,,,53.91584200000000,NA073,201,environmental.food@pendle.gov.uk,Pendle,http://www.pendle.gov.uk,-2.18608400000000,BB18 5DR,2014-05-09,fhrs_3_en-GB,3,,FHRS,
187499,,61 Nora Street,Barrowford,"Nelson, Lancashire",Newbridge Pharmacy,Restaurant/Cafe/Canteen,1,,,708394,,,53.84813400000000,ST011,201,environmental.food@pendle.gov.uk,Pendle,http://www.pendle.gov.uk,-2.21986100000000,BB9 8NT,2014-06-10,fhrs_exempt_en-GB,Exempt,,FHRS,
187500,,11-13 Albert Road,Barnoldswick,Lancashire,Newsagent,Retailers - other,4613,5,,637904,5,,53.91644300000000,NR025,201,environmental.food@pendle.gov.uk,Pendle,http://www.pendle.gov.uk,-2.18710700000000,BB18 5AA,2014-12-29,fhrs_5_en-GB,5,,FHRS,5
187501,,33 Scotland Road,Nelson,Lancashire,Newsagents,Retailers - other,4613,5,,212902,5,,53.83742000000000,SR003,201,environmental.food@pendle.gov.uk,Pendle,http://www.pendle.gov.uk,-2.21474500000000,BB9 7UT,2014-06-17,fhrs_5_en-GB,5,,FHRS,5
187502,,West Street,Colne,Lancashire,Newtown Nursery,Hospitals/Childcare/Caring Premises,5,5,,159479,5,,53.85567100000000,NB003,201,environmental.food@pendle.gov.uk,Pendle,http://www.pendle.gov.uk,-2.16626600000000,BB8 0HW,2013-11-05,fhrs_5_en-GB,5,,FHRS,0
187503,,104-106 Green Road,Colne,Lancashire,Nice Day,Retailers - other,4613,5,,212862,5,,53.85293100000000,NM020,201,environmental.food@pendle.gov.uk,Pendle,http://www.pendle.gov.uk,-2.17793000000000,BB8 8AJ,2014-06-17,fhrs_4_en-GB,4,,FHRS,10
187504,,67A Larch Street,Nelson,Lancashire,Nice Day,Retailers - other,4613,10,,185879,10,,53.83564200000000,SM115,201,environmental.food@pendle.gov.uk,Pendle,http://www.pendle.gov.uk,-2.20397700000000,BB9 9RH,2013-07-23,fhrs_3_en-GB,3,,FHRS,10
187505,,153-155 Railway Street,Nelson,Lancashire,Nicholsons' Butchers,Retailers - other,4613,5,,185838,5,,53.83209800000000,SK033,201,environmental.food@pendle.gov.uk,Pendle,http://www.pendle.gov.uk,-2.21058500000000,BB9 9PG,2014-12-09,fhrs_5_en-GB,5,,FHRS,5
187506,,204 Keighley Road,Colne,Lancashire,Nicola Jayne Celebration Cakes,Retailers - other,4613,5,,159600,5,,53.85903500000000,NL011,201,environmental.food@pendle.gov.uk,Pendle,http://www.pendle.gov.uk,-2.15084700000000,BB8 0PL,2014-06-24,fhrs_5_en-GB,5,,FHRS,5
187507,,10 Dockray Street,Colne,Lancashire,No. 10 Kebab and Pizza House,Takeaway/sandwich shop,7844,5,,159565,5,,53.85783800000000,NJ026,201,environmental.food@pendle.gov.uk,Pendle,http://www.pendle.gov.uk,-2.16568200000000,BB8 9HT,2014-12-16,fhrs_5_en-GB,5,,FHRS,5
187508,Noggarth Top Cottage,Noggarth Road,Roughlee,"Burnley, Lancashire",Noggarth Top Shop,Retailers - other,4613,5,,185868,5,,53.85005100000000,SM068,201,environmental.food@pendle.gov.uk,Pendle,http://www.pendle.gov.uk,-2.24600100000000,BB12 9PY,2014-06-23,fhrs_5_en-GB,5,,FHRS,5
187509,,102 Colne Road,Earby,"Barnoldswick, Lancashire",Nooze 'n' Booze,Retailers - other,4613,10,,159651,10,,53.91142900000000,NR023,201,environmental.food@pendle.gov.uk,Pendle,http://www.pendle.gov.uk,-2.14788500000000,BB18 6XS,2013-09-24,fhrs_3_en-GB,3,,FHRS,10
187510,,69 North Valley Road,Colne,Lancashire,North Valley Chippy,Takeaway/sandwich shop,7844,5,,328542,0,,53.85763300000000,NJ012,201,environmental.food@pendle.gov.uk,Pendle,http://www.pendle.gov.uk,-2.17712900000000,BB8 9AQ,2015-01-06,fhrs_5_en-GB,5,,FHRS,0
187511,,51-53 Albert Road,Colne,Lancashire,Northern Care,Hospitals/Childcare/Caring Premises,5,5,,570471,10,,53.85551400000000,NH016,201,environmental.food@pendle.gov.uk,Pendle,http://www.pendle.gov.uk,-2.17563000000000,BB8 0BP,2013-06-24,fhrs_3_en-GB,3,,FHRS,10
187512,The Nook,Knotts Lane,Colne,Lancashire,Northern Care,Hospitals/Childcare/Caring Premises,5,5,,159539,5,,53.84693700000000,NH029,201,environmental.food@pendle.gov.uk,Pendle,http://www.pendle.gov.uk,-2.17073000000000,BB8 8HH,2012-11-15,fhrs_5_en-GB,5,,FHRS,5
187513,"Unit 1, Imex Spaces","Lomeshaye Business Village,",Nelson,Lancashire,Northern Relish,Restaurant/Cafe/Canteen,1,5,,515890,10,,53.83510300000000,SA029,201,environmental.food@pendle.gov.uk,Pendle,http://www.pendle.gov.uk,-2.22868200000000,BB9 7DR,2013-02-25,fhrs_4_en-GB,4,,FHRS,0
187514,,94 Every Street,Nelson,Lancashire,Numark Chemist,Restaurant/Cafe/Canteen,1,,,708393,,,53.83816300000000,ST010,201,environmental.food@pendle.gov.uk,Pendle,http://www.pendle.gov.uk,-2.21672400000000,BB9 7LT,2014-07-29,fhrs_exempt_en-GB,Exempt,,FHRS,
187515,,80 Oak Street,Colne,Lancashire,Oak Stores,Retailers - other,4613,5,,159619,5,,53.86110400000000,NM048,201,environmental.food@pendle.gov.uk,Pendle,http://www.pendle.gov.uk,-2.15663200000000,BB8 0BA,2014-05-13,fhrs_4_en-GB,4,,FHRS,10
187516,,Wycoller Road,Trawden,"Colne, Lancashire",Oaklands Cottage B+B,Hotel/bed & breakfast/guest house,7842,5,,159456,5,,53.85053600000000,NA043,201,environmental.food@pendle.gov.uk,Pendle,http://www.pendle.gov.uk,-2.10548800000000,BB8 8SY,2014-11-24,fhrs_5_en-GB,5,,FHRS,5
187517,1 Reedley Business Centre,Redman Road,Burnley,Lancashire,Oaks From Acorns,Hospitals/Childcare/Caring Premises,5,5,,185678,5,,53.81627100000000,SB004,201,environmental.food@pendle.gov.uk,Pendle,http://www.pendle.gov.uk,-2.23406300000000,BB10 2TY,2015-01-14,fhrs_5_en-GB,5,,FHRS,5
187518,,21-23 Halifax Road,Brierfield,"Nelson, Lancashire",Oasis Off Licence,Retailers - other,4613,5,,433958,5,,53.82367500000000,SM049,201,environmental.food@pendle.gov.uk,Pendle,http://www.pendle.gov.uk,-2.23076200000000,BB9 5BG,2014-07-16,fhrs_4_en-GB,4,,FHRS,10
187519,,,,,Odessa,Restaurant/Cafe/Canteen,1,5,,619248,5,,,NA097,201,environmental.food@pendle.gov.uk,Pendle,http://www.pendle.gov.uk,,,2013-12-03,fhrs_4_en-GB,4,,FHRS,10
187520,,Railway Street,Nelson,Lancashire,Offsprings Nursery,Hospitals/Childcare/Caring Premises,5,5,,185694,5,,53.83345300000000,SB024,201,environmental.food@pendle.gov.uk,Pendle,http://www.pendle.gov.uk,-2.21189800000000,BB9 9AG,2014-12-15,fhrs_5_en-GB,5,,FHRS,5
187521,,33 Newchurch Village,Newchurch-In-Pendle,"Burnley, Lancashire",Old Earth House Bed and Breakfast,Hotel/bed & breakfast/guest house,7842,5,,185641,5,,53.85084400000000,SA002,201,environmental.food@pendle.gov.uk,Pendle,http://www.pendle.gov.uk,-2.27023600000000,BB12 9JR,2014-06-23,fhrs_5_en-GB,5,,FHRS,5
187522,The Old Rock,Keighley Road,Trawden,"Colne, Lancashire",Old Rock Cafe,Restaurant/Cafe/Canteen,1,5,,159451,5,,53.84656000000000,NA036,201,environmental.food@pendle.gov.uk,Pendle,http://www.pendle.gov.uk,-2.13510100000000,BB8 8RW,2013-11-18,fhrs_5_en-GB,5,,FHRS,5
187523,,46 Albert Road,Colne,Lancashire,One Stop,Retailers - other,4613,10,,591451,5,,53.85617200000000,NM011,201,environmental.food@pendle.gov.uk,Pendle,http://www.pendle.gov.uk,-2.17424900000000,BB8 0AD,2013-07-24,fhrs_4_en-GB,4,,FHRS,5
187524,,Netherfield Road,Nelson,Lancashire,One Stop,Retailers - other,4613,0,,185878,0,,53.83555600000000,SM113,201,environmental.food@pendle.gov.uk,Pendle,http://www.pendle.gov.uk,-2.21190900000000,BB9 9PS,2014-02-11,fhrs_5_en-GB,5,,FHRS,0
187525,York House,Church Street,Barnoldswick,Lancashire,One Stop,Retailers - other,4613,10,,159604,10,,53.91566600000000,NM004,201,environmental.food@pendle.gov.uk,Pendle,http://www.pendle.gov.uk,-2.18940200000000,BB18 5UT,2014-09-19,fhrs_2_en-GB,2,,FHRS,15
187526,Colne Commercial Centre,Exchange Street,Colne,Lancashire,Open Door,Restaurant/Cafe/Canteen,1,5,,159468,5,,53.85549400000000,NA061,201,environmental.food@pendle.gov.uk,Pendle,http://www.pendle.gov.uk,-2.17078000000000,BB8 0SQ,2014-10-22,fhrs_5_en-GB,5,,FHRS,5
187527,,45-47 Burnley Road,Brierfield,"Nelson, Lancashire",Pam's Convenience Store,Retailers - other,4613,5,,185873,10,,53.82035700000000,SM094,201,environmental.food@pendle.gov.uk,Pendle,http://www.pendle.gov.uk,-2.23613600000000,BB9 5JR,2014-07-01,fhrs_3_en-GB,3,,FHRS,10
187528,,146 Leeds Road,Nelson,Lancashire,Papa's Pizza,Takeaway/sandwich shop,7844,5,,185823,5,,53.83932900000000,SJ057,201,environmental.food@pendle.gov.uk,Pendle,http://www.pendle.gov.uk,-2.20781000000000,BB9 9XB,2014-12-30,fhrs_5_en-GB,5,,FHRS,5
187529,,Venables Avenue,Colne,Lancashire,Park High School,School/college/university,7845,5,,159492,5,,53.86396300000000,NB019,201,environmental.food@pendle.gov.uk,Pendle,http://www.pendle.gov.uk,-2.15559400000000,BB8 7DP,2012-11-30,fhrs_5_en-GB,5,,FHRS,5
187530,,Rutland Street,Colne,Lancashire,Park Junior School,School/college/university,7845,5,,159490,5,,53.85852100000000,NB017,201,environmental.food@pendle.gov.uk,Pendle,http://www.pendle.gov.uk,-2.15899500000000,BB8 0QJ,2014-02-12,fhrs_5_en-GB,5,,FHRS,5
187531,,136A Gisburn Road,Barrowford,"Nelson, Lancashire",Park Newsagents,Retailers - other,4613,5,,212874,5,,53.85355400000000,SR016,201,environmental.food@pendle.gov.uk,Pendle,http://www.pendle.gov.uk,-2.21437100000000,BB9 6HQ,2014-08-12,fhrs_4_en-GB,4,,FHRS,10
187532,,20 Park Road,Barnoldswick,Lancashire,Park Road Chippy,Takeaway/sandwich shop,7844,5,,159544,5,,53.91521400000000,NJ004,201,environmental.food@pendle.gov.uk,Pendle,http://www.pendle.gov.uk,-2.18585300000000,BB18 5BG,2013-03-21,fhrs_5_en-GB,5,,FHRS,5
187533,,114 Gisburn Road,Barrowford,"Nelson, Lancashire",Park View Cafe,Restaurant/Cafe/Canteen,1,5,,185782,10,,53.85231200000000,SJ011,201,environmental.food@pendle.gov.uk,Pendle,http://www.pendle.gov.uk,-2.21553600000000,BB9 6EW,2013-05-23,fhrs_4_en-GB,4,,FHRS,0
187534,,75A Scotland Road,Nelson,Lancashire,Park2 Chippy,Takeaway/sandwich shop,7844,5,,185818,5,,53.83862600000000,SJ051,201,environmental.food@pendle.gov.uk,Pendle,http://www.pendle.gov.uk,-2.21421900000000,BB9 7UY,2014-06-17,fhrs_4_en-GB,4,,FHRS,10
187535,Parkfield Post Office,209 Railway Street,Nelson,Lancashire,Parkfield Post Office,Retailers - other,4613,5,,212860,5,,53.83092400000000,SR034,201,environmental.food@pendle.gov.uk,Pendle,http://www.pendle.gov.uk,-2.20883200000000,BB9 0QL,2014-07-23,fhrs_4_en-GB,4,,FHRS,10
187536,,26 Parrock Road,Barrowford,Nelson,Parrock House Day Nursery Ltd,Hospitals/Childcare/Caring Premises,5,5,,185762,0,,53.84263100000000,SH020,201,environmental.food@pendle.gov.uk,Pendle,http://www.pendle.gov.uk,-2.23039500000000,BB9 6QF,2014-04-30,fhrs_5_en-GB,5,,FHRS,5
187537,Unit 6-8,Whitewalls Close,Colne,Lancashire,Pasture Farm Foods,Manufacturers/packers,7839,10,,668846,5,,53.85010400000000,SO004,201,environmental.food@pendle.gov.uk,Pendle,http://www.pendle.gov.uk,-2.19818000000000,BB8 8LE,2014-04-14,fhrs_4_en-GB,4,,FHRS,5
187538,,Peel Gardens,Colne,Lancashire,Peel Gardens Nursing Home,Hospitals/Childcare/Caring Premises,5,10,,159537,5,,53.85829500000000,NH017,201,environmental.food@pendle.gov.uk,Pendle,http://www.pendle.gov.uk,-2.17880400000000,BB8 9PR,2014-05-12,fhrs_4_en-GB,4,,FHRS,5
187539,,2 Church Street,Barnoldswick,Lancashire,Peking House,Takeaway/sandwich shop,7844,10,,159571,5,,53.91566600000000,NJ032,201,environmental.food@pendle.gov.uk,Pendle,http://www.pendle.gov.uk,-2.18940200000000,BB18 5UT,2015-01-07,fhrs_4_en-GB,4,,FHRS,5
187540,,,,,Pendle Cake Company,Restaurant/Cafe/Canteen,1,5,,708362,5,,,NA099,201,environmental.food@pendle.gov.uk,Pendle,http://www.pendle.gov.uk,,,2014-09-16,fhrs_5_en-GB,5,,FHRS,5
187541,,Old Laund Street,Fence,"Burnley, Lancashire",Pendle Forest Sports Club,Pub/bar/nightclub,7843,5,,726957,5,,53.83466600000000,SS015,201,environmental.food@pendle.gov.uk,Pendle,http://www.pendle.gov.uk,-2.25777800000000,BB12 9EN,2014-12-05,fhrs_5_en-GB,5,,FHRS,5
187542,,60 Every Street,Nelson,Lancashire,Pendle Halal Meat & Poultry Centre,Retailers - other,4613,10,,534049,5,,53.83845200000000,SK003,201,environmental.food@pendle.gov.uk,Pendle,http://www.pendle.gov.uk,-2.21581400000000,BB9 7LU,2013-04-03,fhrs_4_en-GB,4,,FHRS,5
187543,,Colne Road,Barrowford,"Nelson, Lancashire",Pendle Heritage Centre Ltd,Restaurant/Cafe/Canteen,1,10,,185659,10,,53.85354600000000,SA031,201,environmental.food@pendle.gov.uk,Pendle,http://www.pendle.gov.uk,-2.20914200000000,BB9 6JQ,2013-07-02,fhrs_3_en-GB,3,,FHRS,10
187544,,New Market Street,Colne,Lancashire,Pendle Hippodrome Theatre,Pub/bar/nightclub,7843,5,,212882,5,,53.85711900000000,NS019,201,environmental.food@pendle.gov.uk,Pendle,http://www.pendle.gov.uk,-2.17162300000000,BB8 9BJ,2014-05-07,fhrs_5_en-GB,5,,FHRS,5
187545,,Blacko Bar Road,Barley,"Burnley, Lancashire",Pendle Inn,Pub/bar/nightclub,7843,5,,185719,5,,53.85864100000000,SD019,201,environmental.food@pendle.gov.uk,Pendle,http://www.pendle.gov.uk,-2.27206500000000,BB12 9JX,2013-02-01,fhrs_5_en-GB,5,,FHRS,5
187546,,Fountain Street,Barnoldswick,Lancashire,Pendle Nursery,Hospitals/Childcare/Caring Premises,5,5,,159500,0,,53.91615300000000,NB032,201,environmental.food@pendle.gov.uk,Pendle,http://www.pendle.gov.uk,-2.18308600000000,BB18 6AQ,2014-11-25,fhrs_5_en-GB,5,,FHRS,5
187547,,,,,Pendle Pat-a-Cakes,Restaurant/Cafe/Canteen,1,5,,185673,5,,,SA075,201,environmental.food@pendle.gov.uk,Pendle,http://www.pendle.gov.uk,,,2014-03-20,fhrs_5_en-GB,5,,FHRS,5
187548,,Town House Road,Nelson,Lancashire,Pendle Pupil Referral Unit/ Hendon Brook,School/college/university,7845,5,,185702,5,,53.83766000000000,SB034,201,environmental.food@pendle.gov.uk,Pendle,http://www.pendle.gov.uk,-2.18397400000000,BB9 8DG,2014-12-04,fhrs_4_en-GB,4,,FHRS,10
187549,,95 Albert Road,Colne,Lancashire,Pendle Sandwitch Bar,Restaurant/Cafe/Canteen,1,5,,159453,5,,53.85522300000000,NA039,201,environmental.food@pendle.gov.uk,Pendle,http://www.pendle.gov.uk,-2.17765100000000,BB8 0BS,2014-07-02,fhrs_5_en-GB,5,,FHRS,5
187550,,Oxford Road,Nelson,Lancashire,Pendle Vale College,School/college/university,7845,5,,185691,5,,53.85821800000000,SB019,201,environmental.food@pendle.gov.uk,Pendle,http://www.pendle.gov.uk,-2.24788500000000,BB9 8JG,2014-06-18,fhrs_5_en-GB,5,,FHRS,0
187551,,Gibfield Road,Colne,Lancashire,Pendle View Primary School,School/college/university,7845,5,,159486,5,,53.84690600000000,NB011,201,environmental.food@pendle.gov.uk,Pendle,http://www.pendle.gov.uk,-2.19176600000000,BB8 8JT,2013-06-18,fhrs_5_en-GB,5,,FHRS,5
187552,,Leeds Road,Nelson,Lancashire,Pendle Wavelengths,Restaurant/Cafe/Canteen,1,5,,185667,5,,53.83775000000000,SA044,201,environmental.food@pendle.gov.uk,Pendle,http://www.pendle.gov.uk,-2.21143400000000,BB9 9TD,2013-09-04,fhrs_5_en-GB,5,,FHRS,5
187553,Magistrates Court,Colne Road,Burnley,Lancashire,Pennine Magistrates Court,Restaurant/Cafe/Canteen,1,0,,212908,5,,53.81847000000000,SC010,201,environmental.food@pendle.gov.uk,Pendle,http://www.pendle.gov.uk,-2.23579100000000,BB10 2LG,2014-06-24,fhrs_5_en-GB,5,,FHRS,5
187554,,,,,Petrah's Pit Stop,Mobile caterer,7846,5,,515888,5,,,H032,201,environmental.food@pendle.gov.uk,Pendle,http://www.pendle.gov.uk,,,2013-02-21,fhrs_5_en-GB,5,,FHRS,5
187555,,Units 7-8 Market Hall,Market Street,"Colne, Lancashire",Phil Bellies,Mobile caterer,7846,5,,212906,5,,53.85698400000000,H029,201,environmental.food@pendle.gov.uk,Pendle,http://www.pendle.gov.uk,-2.16595200000000,BB8 0HS,2014-07-29,fhrs_5_en-GB,5,,FHRS,5
187556,,118 Burnley Road,Colne,Lancashire,Phillips Lane Chippy,Takeaway/sandwich shop,7844,5,,159548,5,,53.85041500000000,NJ008,201,environmental.food@pendle.gov.uk,Pendle,http://www.pendle.gov.uk,-2.18932000000000,BB8 8JA,2012-12-04,fhrs_5_en-GB,5,,FHRS,5
187557,,,,,Picnic Basket,Restaurant/Cafe/Canteen,1,5,,734807,5,,,SA060,201,environmental.food@pendle.gov.uk,Pendle,http://www.pendle.gov.uk,,,2014-12-10,fhrs_5_en-GB,5,,FHRS,5
187558,,17 Victoria Road,Earby,"Barnoldswick, Lancashire",Pitt's Butchers,Retailers - other,4613,5,,159588,5,,53.91619600000000,NK018,201,environmental.food@pendle.gov.uk,Pendle,http://www.pendle.gov.uk,-2.14432400000000,BB18 6UN,2014-08-20,fhrs_5_en-GB,5,,FHRS,5
187559,,148 Leeds Road,Nelson,Lancashire,Pizza Perfection,Takeaway/sandwich shop,7844,5,,185801,5,,53.83932900000000,SJ032,201,environmental.food@pendle.gov.uk,Pendle,http://www.pendle.gov.uk,-2.20781000000000,BB9 9XB,2014-12-30,fhrs_5_en-GB,5,,FHRS,5
187560,,30 Scotland Road,Nelson,Lancashire,Pizza Uno,Takeaway/sandwich shop,7844,5,,185657,5,,53.83764600000000,SA028,201,environmental.food@pendle.gov.uk,Pendle,http://www.pendle.gov.uk,-2.21404700000000,BB9 7UU,2013-12-20,fhrs_5_en-GB,5,,FHRS,5
187561,,38 Larch Street,Nelson,Lancashire,Plaice On The Hill,Takeaway/sandwich shop,7844,5,,185786,5,,53.83564200000000,SJ015,201,environmental.food@pendle.gov.uk,Pendle,http://www.pendle.gov.uk,-2.20397700000000,BB9 9RH,2012-09-04,fhrs_5_en-GB,5,,FHRS,5
187562,,81 Leeds Road,Nelson,Lancashire,Polski Smaki,Retailers - other,4613,5,,185788,5,,53.83836000000000,SJ017,201,environmental.food@pendle.gov.uk,Pendle,http://www.pendle.gov.uk,-2.21190800000000,BB9 9TG,2015-01-13,fhrs_5_en-GB,5,,FHRS,5
187563,,46 Colne Road,Brierfield,"Nelson, Lancashire",Poppadom City,Takeaway/sandwich shop,7844,10,,328555,10,,53.82601400000000,SJ002,201,environmental.food@pendle.gov.uk,Pendle,http://www.pendle.gov.uk,-2.23417800000000,BB9 5NN,2014-01-20,fhrs_3_en-GB,3,,FHRS,10
187564,,,,,Porky's,Mobile caterer,7846,5,,433947,5,,,H013,201,environmental.food@pendle.gov.uk,Pendle,http://www.pendle.gov.uk,,,2012-08-08,fhrs_5_en-GB,5,,FHRS,5
187565,,10 Skipton Road,Foulridge,"Colne, Lancashire",Potter and Hill,Restaurant/Cafe/Canteen,1,5,,159449,5,,53.87616900000000,NA031,201,environmental.food@pendle.gov.uk,Pendle,http://www.pendle.gov.uk,-2.16890300000000,BB8 7PQ,2013-07-10,fhrs_4_en-GB,4,,FHRS,10
187566,,Pendle Rise Shopping Centre,Nelson,Lancashire,Pound World,Retailers - other,4613,5,,629350,5,,53.83613700000000,SM089,201,environmental.food@pendle.gov.uk,Pendle,http://www.pendle.gov.uk,-2.21369000000000,BB9 9SL,2014-01-14,fhrs_5_en-GB,5,,FHRS,5
187567,,45 Scotland Road,Nelson,Lancashire,Poundwise,Restaurant/Cafe/Canteen,1,5,,485336,5,,53.83742000000000,SM102,201,environmental.food@pendle.gov.uk,Pendle,http://www.pendle.gov.uk,-2.21474500000000,BB9 7UT,2012-11-20,fhrs_5_en-GB,5,,FHRS,5
187568,,12 Hill Place,Nelson,Lancashire,Premier Express,Retailers - other,4613,5,,212911,5,,53.82798900000000,SR021,201,environmental.food@pendle.gov.uk,Pendle,http://www.pendle.gov.uk,-2.21664100000000,BB9 0QB,2014-06-10,fhrs_5_en-GB,5,,FHRS,5
187569,,158 Skipton Road,Colne,Lancashire,Premier Wines,Retailers - other,4613,0,,212876,5,,53.86216400000000,NM055,201,environmental.food@pendle.gov.uk,Pendle,http://www.pendle.gov.uk,-2.16320500000000,BB8 0NX,2014-06-03,fhrs_5_en-GB,5,,FHRS,5
187570,,6 Rhoda Street,Nelson,Lancashire,Premier Wines,Retailers - other,4613,10,,185870,5,,53.83817800000000,SM076,201,environmental.food@pendle.gov.uk,Pendle,http://www.pendle.gov.uk,-2.20275900000000,BB9 9HX,2013-09-17,fhrs_4_en-GB,4,,FHRS,5
187571,,Tatton Street,Colne,Lancashire,Primet County Infant School,School/college/university,7845,5,,159491,5,,53.84984100000000,NB018,201,environmental.food@pendle.gov.uk,Pendle,http://www.pendle.gov.uk,-2.18842000000000,BB8 8JE,2014-07-14,fhrs_5_en-GB,5,,FHRS,5
187572,,Dent Street,Colne,Lancashire,Primet High School (Academy),School/college/university,7845,5,,159484,5,,53.84908600000000,NB009,201,environmental.food@pendle.gov.uk,Pendle,http://www.pendle.gov.uk,-2.18817400000000,BB8 8JF,2014-09-30,fhrs_5_en-GB,5,,FHRS,5
187573,,87 Scotland Road,Nelson,Lancashire,Pronto Pizza,Takeaway/sandwich shop,7844,5,,185797,5,,53.83862600000000,SJ027,201,environmental.food@pendle.gov.uk,Pendle,http://www.pendle.gov.uk,-2.21421900000000,BB9 7UY,2013-08-05,fhrs_5_en-GB,5,,FHRS,5
187574,,43a Market Street,Colne,Lancashire,Quality Care,Restaurant/Cafe/Canteen,1,5,,159471,0,,53.85742200000000,NA072,201,environmental.food@pendle.gov.uk,Pendle,http://www.pendle.gov.uk,-2.16724600000000,BB8 0LJ,2014-12-05,fhrs_5_en-GB,5,,FHRS,5
187575,,27 Victoria Road,Earby,"Barnoldswick, Lancashire",Quality Fish Bar,Takeaway/sandwich shop,7844,5,,159557,5,,53.91619600000000,NJ018,201,environmental.food@pendle.gov.uk,Pendle,http://www.pendle.gov.uk,-2.14432400000000,BB18 6UN,2013-03-08,fhrs_5_en-GB,5,,FHRS,5
187576,,Burnley Road,Colne,Lancashire,Queens Hotel,Pub/bar/nightclub,7843,5,,212904,5,,53.85171700000000,NP010,201,environmental.food@pendle.gov.uk,Pendle,http://www.pendle.gov.uk,-2.18399000000000,BB8 8DY,2014-05-13,fhrs_4_en-GB,4,,FHRS,10
187577,,55-57 Derby Street,Colne,Lancashire,Quinn's,Retailers - other,4613,10,,570473,5,,53.85803200000000,NM028,201,environmental.food@pendle.gov.uk,Pendle,http://www.pendle.gov.uk,-2.17436300000000,BB8 9AF,2013-06-25,fhrs_3_en-GB,3,,FHRS,10
187578,,,,,Rachel Brown Cakes,Restaurant/Cafe/Canteen,1,5,,570469,5,,,NA090,201,environmental.food@pendle.gov.uk,Pendle,http://www.pendle.gov.uk,,,2013-06-12,fhrs_5_en-GB,5,,FHRS,5
187579,,Railway Street,Nelson,Lancashire,Railway Street Community Centre,Hospitals/Childcare/Caring Premises,5,5,,185772,5,,53.83028600000000,SH043,201,environmental.food@pendle.gov.uk,Pendle,http://www.pendle.gov.uk,-2.20831200000000,BB9 0SE,2014-08-08,fhrs_5_en-GB,5,,FHRS,5
187580,,6 Colne Road,Brierfield,"Nelson, Lancashire",Rau Senh,Takeaway/sandwich shop,7844,5,,185800,5,,53.82407200000000,SJ031,201,environmental.food@pendle.gov.uk,Pendle,http://www.pendle.gov.uk,-2.23454700000000,BB9 5PH,2012-11-12,fhrs_5_en-GB,5,,FHRS,5
187581,,Railway Street,Nelson,Lancashire,Raza Superstore,Retailers - other,4613,10,,185720,10,,53.83028600000000,SD020,201,environmental.food@pendle.gov.uk,Pendle,http://www.pendle.gov.uk,-2.20831200000000,BB9 0SE,2014-12-03,fhrs_3_en-GB,3,,FHRS,10
187582,,9 Church Street,Barnoldswick,Lancashire,Redmans,Retailers - other,4613,5,,159605,5,,53.91589200000000,NM005,201,environmental.food@pendle.gov.uk,Pendle,http://www.pendle.gov.uk,-2.18856600000000,BB18 5UR,2014-12-02,fhrs_5_en-GB,5,,FHRS,5
187583,Reedley Hall Lodge,Colne Road,Burnley,Lancashire,Reedley Cottages,Hospitals/Childcare/Caring Premises,5,5,,212851,5,,53.81903300000000,SH026,201,environmental.food@pendle.gov.uk,Pendle,http://www.pendle.gov.uk,-2.23745000000000,BB10 2LW,2014-11-11,fhrs_5_en-GB,5,,FHRS,5
187584,,Reedley Road,Burnley,Lancashire,Reedley CP School,School/college/university,7845,5,,185688,5,,53.81976200000000,SB016,201,environmental.food@pendle.gov.uk,Pendle,http://www.pendle.gov.uk,-2.22794500000000,BB10 2NE,2012-11-16,fhrs_5_en-GB,5,,FHRS,5
187585,,51 Burnley Road,Brierfield,"Nelson, Lancashire",Reedley Fish and Chips,Takeaway/sandwich shop,7844,5,,185813,5,,53.82035700000000,SJ045,201,environmental.food@pendle.gov.uk,Pendle,http://www.pendle.gov.uk,-2.23613600000000,BB9 5JR,2014-09-26,fhrs_4_en-GB,4,,FHRS,10
187586,,117 Regent Street,Nelson,Lancashire,Reedyford Off Licence,Retailers - other,4613,10,,185869,10,,53.84413000000000,SM075,201,environmental.food@pendle.gov.uk,Pendle,http://www.pendle.gov.uk,-2.20677000000000,BB9 8LJ,2014-07-23,fhrs_3_en-GB,3,,FHRS,10
187587,,5 Market Street,Nelson,Lancashire,Relish Sandwiches,Retailers - other,4613,5,,185742,5,,53.83719500000000,SF003,201,environmental.food@pendle.gov.uk,Pendle,http://www.pendle.gov.uk,-2.21513900000000,BB9 7LJ,2013-05-20,fhrs_5_en-GB,5,,FHRS,5
187588,,134A Gisburn Road,Barrowford,"Nelson, Lancashire",Remas Take-Away,Takeaway/sandwich shop,7844,10,,185791,5,,53.85355400000000,SJ021,201,environmental.food@pendle.gov.uk,Pendle,http://www.pendle.gov.uk,-2.21437100000000,BB9 6HQ,2013-02-05,fhrs_4_en-GB,4,,FHRS,5
187589,,10-12 Albert Road,Colne,Lancashire,Rennie Goth's,Retailers - other,4613,5,,212905,5,,53.85653500000000,NR029,201,environmental.food@pendle.gov.uk,Pendle,http://www.pendle.gov.uk,-2.17198600000000,BB8 0AA,2014-06-26,fhrs_5_en-GB,5,,FHRS,5
187590,,,,,Revd Don Johnson,Restaurant/Cafe/Canteen,1,5,,708361,5,,,NA069,201,environmental.food@pendle.gov.uk,Pendle,http://www.pendle.gov.uk,,,2013-11-20,fhrs_4_en-GB,4,,FHRS,10
187591,,330 Gisburn Road,Blacko,"Nelson, Lancashire",Rising Sun,Pub/bar/nightclub,7843,5,,185898,5,,53.86836600000000,SP011,201,environmental.food@pendle.gov.uk,Pendle,http://www.pendle.gov.uk,-2.21435600000000,BB9 6LS,2013-10-11,fhrs_4_en-GB,4,,FHRS,10
187592,,,,,Riz's Cakes,Restaurant/Cafe/Canteen,1,5,,554847,5,,,SA081,201,environmental.food@pendle.gov.uk,Pendle,http://www.pendle.gov.uk,,,2013-05-21,fhrs_5_en-GB,5,,FHRS,5
187593,,Barrowford Road,Higham,Burnley,Roaming Roosters Farm Shop,Restaurant/Cafe/Canteen,1,5,,455940,5,,53.72477200000000,SK002,201,environmental.food@pendle.gov.uk,Pendle,http://www.pendle.gov.uk,-2.42456200000000,BB12 9BR,2014-11-04,fhrs_5_en-GB,5,,FHRS,5
187594,,Skipton Road,Earby,"Barnoldswick, Lancashire",Robbo's,Mobile caterer,7846,5,,158169,5,,53.92070100000000,H007,201,environmental.food@pendle.gov.uk,Pendle,http://www.pendle.gov.uk,-2.15046100000000,BB18 6JJ,2013-07-25,fhrs_5_en-GB,5,,FHRS,5
187595,,,,,Roc Northwest Ltd (Tower View),Hospitals/Childcare/Caring Premises,5,5,,591449,5,,,NH001,201,environmental.food@pendle.gov.uk,Pendle,http://www.pendle.gov.uk,,,2013-10-01,fhrs_5_en-GB,5,,FHRS,5
187596,,Skipton Road,Barnoldswick,Lancashire,Rolls Royce Leisure,Pub/bar/nightclub,7843,5,,159506,5,,53.91882000000000,NC002,201,environmental.food@pendle.gov.uk,Pendle,http://www.pendle.gov.uk,-2.19572000000000,BB18 5HJ,2013-03-11,fhrs_5_en-GB,5,,FHRS,5
187597,Ghyll Brow,Skipton Road,Barnoldswick,Lancashire,Rolls Royce PLC,Restaurant/Cafe/Canteen,1,5,,159508,5,,53.92000000000000,NC014,201,environmental.food@pendle.gov.uk,Pendle,http://www.pendle.gov.uk,-2.18257000000000,BB18 5RU,2013-07-11,fhrs_5_en-GB,5,,FHRS,5
187598,,Blacko Bar Road,Roughlee,"Nelson, Lancashire",Roughlee CE School,School/college/university,7845,5,,212921,5,,53.85600000000000,SB032,201,environmental.food@pendle.gov.uk,Pendle,http://www.pendle.gov.uk,-2.24669000000000,BB9 6NX,2014-06-24,fhrs_5_en-GB,5,,FHRS,5
187599,Roughlee Village Centre,Pasture Lane,Roughlee,"Nelson, Lancashire",Roughlee Village Centre,Restaurant/Cafe/Canteen,1,5,,185669,5,,53.85845100000000,SA050,201,environmental.food@pendle.gov.uk,Pendle,http://www.pendle.gov.uk,-2.23887400000000,BB9 6NR,2013-05-30,fhrs_5_en-GB,5,,FHRS,5
187600,,7 Albert Road,Colne,Lancashire,Rowlands Pharmacy,Restaurant/Cafe/Canteen,1,,,708371,,,53.85604800000000,NT004,201,environmental.food@pendle.gov.uk,Pendle,http://www.pendle.gov.uk,-2.17300200000000,BB8 0RY,2014-06-26,fhrs_exempt_en-GB,Exempt,,FHRS,
187601,,2-6 Arthur Street,Brierfield,"Nelson, Lancashire",Rowlands Pharmacy,Restaurant/Cafe/Canteen,1,,,708385,,,53.82482200000000,ST002,201,environmental.food@pendle.gov.uk,Pendle,http://www.pendle.gov.uk,-2.23254600000000,BB9 5SQ,2014-06-04,fhrs_exempt_en-GB,Exempt,,FHRS,
187602,,33 Albert Road,Barnoldswick,Lancashire,RSVP,Restaurant/Cafe/Canteen,1,5,,409717,5,,53.91644300000000,NM022,201,environmental.food@pendle.gov.uk,Pendle,http://www.pendle.gov.uk,-2.18710700000000,BB18 5AA,2014-08-12,fhrs_5_en-GB,5,,FHRS,5
187603,,147 Gisburn Road,Barrowford,"Nelson, Lancashire",Rubajellos,Restaurant/Cafe/Canteen,1,5,,447539,5,,53.85355400000000,NA065,201,environmental.food@pendle.gov.uk,Pendle,http://www.pendle.gov.uk,-2.21437100000000,BB9 6HQ,2012-08-20,fhrs_5_en-GB,5,,FHRS,5
187604,,25-27 Ruskin Avenue,Colne,Lancashire,Ruskin Stores,Retailers - other,4613,10,,584401,10,,53.86180000000000,NM057,201,environmental.food@pendle.gov.uk,Pendle,http://www.pendle.gov.uk,-2.17299600000000,BB8 9RP,2013-08-27,fhrs_3_en-GB,3,,FHRS,10
187605,,20 School Lane,Colne,Lancashire,Rye Flatt Bed and Breakfast,Hotel/bed & breakfast/guest house,7842,5,,328538,5,,53.86220800000000,NA034,201,environmental.food@pendle.gov.uk,Pendle,http://www.pendle.gov.uk,-2.11898900000000,BB8 7JB,2014-07-29,fhrs_5_en-GB,5,,FHRS,5
187606,,"Unit 32-35 Market Hall, Pendle Rise",Nelson,Lancashire,S & J Quality Meats,Retailers - other,4613,5,,185842,5,,53.83613700000000,SK043,201,environmental.food@pendle.gov.uk,Pendle,http://www.pendle.gov.uk,-2.21369000000000,BB9 9SL,2014-12-09,fhrs_4_en-GB,4,,FHRS,10
187607,Unit 14 Market Hall,Pendle Rise Shopping Centre,Nelson,Lancashire,S & S Greengrocers,Retailers - other,4613,5,,212923,5,,53.83613700000000,SN003,201,environmental.food@pendle.gov.uk,Pendle,http://www.pendle.gov.uk,-2.21369000000000,BB9 9SL,2014-08-12,fhrs_5_en-GB,5,,FHRS,5
187608,,40 Glenfield Road,Nelson,Lancashire,S & S Stores,Retailers - other,4613,10,,185865,5,,53.84116200000000,SM048,201,environmental.food@pendle.gov.uk,Pendle,http://www.pendle.gov.uk,-2.19777300000000,BB9 8AP,2013-09-24,fhrs_3_en-GB,3,,FHRS,10
187609,,14 Water Street,Earby,"Barnoldswick, Lancashire",S and B Fruits,Retailers - other,4613,5,,570476,10,,53.91708900000000,NN012,201,environmental.food@pendle.gov.uk,Pendle,http://www.pendle.gov.uk,-2.14172400000000,BB18 6QP,2014-09-01,fhrs_4_en-GB,4,,FHRS,5
187610,,11 Newtown,Barnoldswick,Lancashire,S Hirst Butcher,Retailers - other,4613,5,,159579,5,,53.91589300000000,NK003,201,environmental.food@pendle.gov.uk,Pendle,http://www.pendle.gov.uk,-2.18789600000000,BB18 5UQ,2013-11-05,fhrs_5_en-GB,5,,FHRS,5
187611,,59 Gisburn Road,Barnoldswick,Lancashire,S J & K Brown,Retailers - other,4613,5,,159587,5,,53.91976200000000,NK015,201,environmental.food@pendle.gov.uk,Pendle,http://www.pendle.gov.uk,-2.19140000000000,BB18 5HB,2014-06-26,fhrs_5_en-GB,5,,FHRS,5
187612,,"Unit 34-36 Market Hall,Pendle Rise",Nelson,Lancashire,S&J Quality Meats,Retailers - other,4613,5,,185831,5,,53.83613700000000,SK013,201,environmental.food@pendle.gov.uk,Pendle,http://www.pendle.gov.uk,-2.21369000000000,BB9 9SL,2014-12-09,fhrs_4_en-GB,4,,FHRS,10
187613,,Red Lane,Colne,Lancashire,Sacred Heart RC School,School/college/university,7845,5,,159489,5,,53.86732300000000,NB016,201,environmental.food@pendle.gov.uk,Pendle,http://www.pendle.gov.uk,-2.17606000000000,BB8 7JR,2014-02-05,fhrs_5_en-GB,5,,FHRS,5
187614,,Edmondson Street,Barnoldswick,Lancashire,Safe Hands Greenstart Nurseries,Hospitals/Childcare/Caring Premises,5,5,,159493,5,,53.92115500000000,NB021,201,environmental.food@pendle.gov.uk,Pendle,http://www.pendle.gov.uk,-2.19093400000000,BB18 5EY,2014-05-22,fhrs_4_en-GB,4,,FHRS,10
187615,,Derby Street,Colne,Lancashire,Safehands Green Start Nursery Colne,Hospitals/Childcare/Caring Premises,5,5,,159502,5,,53.85699100000000,NB035,201,environmental.food@pendle.gov.uk,Pendle,http://www.pendle.gov.uk,-2.17359900000000,BB8 9AA,2013-09-17,fhrs_5_en-GB,5,,FHRS,5
187616,,North Valley Road,Colne,Lancashire,Sainsburys P.F.S,Retailers - other,4613,0,,159652,5,,53.85853400000000,NR026,201,environmental.food@pendle.gov.uk,Pendle,http://www.pendle.gov.uk,-2.17518700000000,BB8 9AG,2013-12-03,fhrs_5_en-GB,5,,FHRS,5
187617,Sainsbury's Supermarkets Ltd,Windy Bank,Colne,Lancashire,Sainsbury's Supermarkets Ltd,Retailers - supermarkets/hypermarkets,7840,0,,159607,0,,53.85892300000000,NM008,201,environmental.food@pendle.gov.uk,Pendle,http://www.pendle.gov.uk,-2.16763200000000,BB8 9HY,2014-11-26,fhrs_5_en-GB,5,,FHRS,0
187618,,23 Skipton Road,Barnoldswick,Lancashire,Sainty's,Manufacturers/packers,7839,5,,159522,5,,53.91986800000000,NE005,201,environmental.food@pendle.gov.uk,Pendle,http://www.pendle.gov.uk,-2.18683300000000,BB18 5EF,2014-08-14,fhrs_5_en-GB,5,,FHRS,5
187619,,,,,Salimah's Snacks,Restaurant/Cafe/Canteen,1,5,,699377,5,,,SA091,201,environmental.food@pendle.gov.uk,Pendle,http://www.pendle.gov.uk,,,2014-08-11,fhrs_5_en-GB,5,,FHRS,5
187620,,Cross Lane,Salterforth,"Barnoldswick, Lancashire",Salterforth Primary School,School/college/university,7845,5,,159495,5,,53.90672800000000,NB025,201,environmental.food@pendle.gov.uk,Pendle,http://www.pendle.gov.uk,-2.16834100000000,BB18 5UD,2014-03-10,fhrs_5_en-GB,5,,FHRS,5
187621,,Stanley Street,Nelson,Lancashire,Salvation Army,Hospitals/Childcare/Caring Premises,5,5,,185938,0,,53.83584300000000,SS032,201,environmental.food@pendle.gov.uk,Pendle,http://www.pendle.gov.uk,-2.21730500000000,BB9 7EL,2013-08-22,fhrs_5_en-GB,5,,FHRS,0
187622,,174 Smith Street,Nelson,Lancashire,Samson's Cafe,Restaurant/Cafe/Canteen,1,5,,185662,5,,53.83933500000000,SA035,201,environmental.food@pendle.gov.uk,Pendle,http://www.pendle.gov.uk,-2.20420800000000,BB9 9HL,2014-12-10,fhrs_5_en-GB,5,,FHRS,5
187623,,174 Leeds Road,Nelson,Lancashire,Santa's,Takeaway/sandwich shop,7844,5,,185817,5,,53.83989800000000,SJ049,201,environmental.food@pendle.gov.uk,Pendle,http://www.pendle.gov.uk,-2.20644500000000,BB9 9XW,2013-02-07,fhrs_5_en-GB,5,,FHRS,5
187624,,146 Scotland Road,Nelson,Lancashire,Schofield's,Restaurant/Cafe/Canteen,1,5,,185837,5,,53.84138400000000,SK031,201,environmental.food@pendle.gov.uk,Pendle,http://www.pendle.gov.uk,-2.21470400000000,BB9 7XT,2014-11-27,fhrs_5_en-GB,5,,FHRS,5
187625,,96 Colne Road,Brierfield,"Nelson, Lancashire",Scrumptious Coffee & Sandwich Bar,Takeaway/sandwich shop,7844,5,,619251,5,,53.82605900000000,SA086,201,environmental.food@pendle.gov.uk,Pendle,http://www.pendle.gov.uk,-2.23416300000000,BB9 5NN,2013-12-02,fhrs_4_en-GB,4,,FHRS,10
187626,,77 North Valley Road,Colne,Lancashire,Shaan Curry House,Takeaway/sandwich shop,7844,10,,629347,5,,53.85738000000000,NJ043,201,environmental.food@pendle.gov.uk,Pendle,http://www.pendle.gov.uk,-2.17814600000000,BB8 9AQ,2013-12-18,fhrs_3_en-GB,3,,FHRS,10
187627,,86 Manchester Road,Nelson,Lancashire,Shamas Halal Meat,Retailers - other,4613,10,,185841,10,,53.83508500000000,SK041,201,environmental.food@pendle.gov.uk,Pendle,http://www.pendle.gov.uk,-2.21907900000000,BB9 7HD,2013-12-04,fhrs_3_en-GB,3,,FHRS,10
187628,Unit 1 Market Hall,Market Street,Colne,Lancashire,Shaw's,Retailers - other,4613,5,,734806,5,,53.85698300000000,NN015,201,environmental.food@pendle.gov.uk,Pendle,http://www.pendle.gov.uk,-2.16595100000000,BB8 0HS,2015-01-05,fhrs_5_en-GB,5,,FHRS,5
187629,,Well Head Road,Newchurch-In-Pendle,"Burnley, Lancashire",Shekinah Christian Centre,Restaurant/Cafe/Canteen,1,0,,409718,0,,53.84565700000000,SH002,201,environmental.food@pendle.gov.uk,Pendle,http://www.pendle.gov.uk,-2.28240800000000,BB12 9LP,2012-06-14,fhrs_5_en-GB,5,,FHRS,0
187630,,Southfield Lane,Southfield,"Burnley, Lancashire",Shooters Arms,Pub/bar/nightclub,7843,10,,185721,10,,53.82915300000000,SD021,201,environmental.food@pendle.gov.uk,Pendle,http://www.pendle.gov.uk,-2.18106500000000,BB10 3RJ,2013-11-22,fhrs_3_en-GB,3,,FHRS,10
187631,Working Mans Club,Midland Street,Nelson,Lancashire,Short Homers Working Mens Club,Pub/bar/nightclub,7843,10,,421253,10,,53.84181000000000,SS012,201,environmental.food@pendle.gov.uk,Pendle,http://www.pendle.gov.uk,-2.20753300000000,BB9 7RJ,2012-07-13,fhrs_3_en-GB,3,,FHRS,10
187632,,Long Ing Lane,Barnoldswick,Lancashire,Silentnight Beds,Restaurant/Cafe/Canteen,1,5,,159505,5,,53.92000000000000,NC001,201,environmental.food@pendle.gov.uk,Pendle,http://www.pendle.gov.uk,-2.18257000000000,BB18 6BL,2012-10-19,fhrs_5_en-GB,5,,FHRS,5
187633,,,,,Silver Fern - C44 Boat,Mobile caterer,7846,5,,578810,5,,,H024,201,environmental.food@pendle.gov.uk,Pendle,http://www.pendle.gov.uk,,,2013-08-09,fhrs_5_en-GB,5,,FHRS,5
187634,,43 Albert Road,Barnoldswick,Lancashire,Simply Wicked,Retailers - other,4613,5,,159599,5,,53.91644300000000,NL010,201,environmental.food@pendle.gov.uk,Pendle,http://www.pendle.gov.uk,-2.18710700000000,BB18 5AA,2014-10-03,fhrs_5_en-GB,5,,FHRS,5
187635,,51-53 Gisburn Road,Barnoldswick,Lancashire,Singh Off Licence,Retailers - other,4613,5,,159608,5,,53.91976200000000,NM009,201,environmental.food@pendle.gov.uk,Pendle,http://www.pendle.gov.uk,-2.19140000000000,BB18 5HB,2014-07-30,fhrs_5_en-GB,5,,FHRS,5
187636,,35 Churchill Way,Nelson,Lancashire,SIS (Science in Sport) Ltd,Manufacturers/packers,7839,0,,629351,0,,53.83595800000000,SO005,201,environmental.food@pendle.gov.uk,Pendle,http://www.pendle.gov.uk,-2.23251600000000,BB9 6RT,2015-01-06,fhrs_5_en-GB,5,,FHRS,0
187637,,,,,Sky High Cakes,Restaurant/Cafe/Canteen,1,10,,185656,5,,,SA027,201,environmental.food@pendle.gov.uk,Pendle,http://www.pendle.gov.uk,,,2014-07-29,fhrs_4_en-GB,4,,FHRS,5
187638,Ice Works,Cross Street,Nelson,Lancashire,Slater's Ices,Manufacturers/packers,7839,5,,185747,5,,53.83871400000000,SG002,201,environmental.food@pendle.gov.uk,Pendle,http://www.pendle.gov.uk,-2.21507100000000,BB9 7NQ,2012-11-05,fhrs_5_en-GB,5,,FHRS,5
187639,,35-37 Romney Street,Nelson,Lancashire,Smartypants,Hospitals/Childcare/Caring Premises,5,5,,185705,0,,53.82988700000000,SB041,201,environmental.food@pendle.gov.uk,Pendle,http://www.pendle.gov.uk,-2.21529900000000,BB9 0DD,2014-09-09,fhrs_5_en-GB,5,,FHRS,5
187640,,Vale Street,Nelson,Lancashire,Sovereign Group Ltd,Restaurant/Cafe/Canteen,1,5,,185711,5,,53.83341000000000,SC017,201,environmental.food@pendle.gov.uk,Pendle,http://www.pendle.gov.uk,-2.20553200000000,BB9 0TA,2014-09-24,fhrs_5_en-GB,5,,FHRS,5
187641,,351-357 Leeds Road,Nelson,Lancashire,Spar Store,Retailers - other,4613,5,,212932,5,,53.84452000000000,SM101,201,environmental.food@pendle.gov.uk,Pendle,http://www.pendle.gov.uk,-2.19962800000000,BB9 8RP,2014-07-28,fhrs_5_en-GB,5,,FHRS,5
187642,"Unit 1, The Fountains",Gisburn Road,Barrowford,"Nelson, Lancashire",Spar Store,Retailers - other,4613,5,,185876,5,,53.85079200000000,SM110,201,environmental.food@pendle.gov.uk,Pendle,http://www.pendle.gov.uk,-2.21618100000000,BB9 8LQ,2014-06-26,fhrs_5_en-GB,5,,FHRS,5
187643,Springbank Garage,Manchester Road,Nelson,Lancashire,Spar/Shell Service Station,Retailers - other,4613,0,,185877,0,,53.83329400000000,SM112,201,environmental.food@pendle.gov.uk,Pendle,http://www.pendle.gov.uk,-2.22043700000000,BB9 7AJ,2013-09-03,fhrs_5_en-GB,5,,FHRS,0
187644,,,,,Specialized Cakes,Restaurant/Cafe/Canteen,1,5,,212892,5,,,SA020,201,environmental.food@pendle.gov.uk,Pendle,http://www.pendle.gov.uk,,,2014-06-24,fhrs_5_en-GB,5,,FHRS,5
187645,,112 Higher Reedley Road,Brierfield,"Nelson, Lancashire",Spend and Save,Retailers - other,4613,5,,212916,5,,53.81818100000000,SM086,201,environmental.food@pendle.gov.uk,Pendle,http://www.pendle.gov.uk,-2.22225600000000,BB9 5EJ,2014-08-12,fhrs_5_en-GB,5,,FHRS,5
187646,,60-62 Hallam Road,Nelson,Lancashire,Spend n Save,Retailers - other,4613,5,,185932,10,,53.83944600000000,SR020,201,environmental.food@pendle.gov.uk,Pendle,http://www.pendle.gov.uk,-2.20237000000000,BB9 8AB,2014-06-10,fhrs_4_en-GB,4,,FHRS,5
187647,,195 Chapel House Road,Nelson,Lancashire,Spend N Save,Retailers - other,4613,5,,185860,5,,53.82966700000000,SM025,201,environmental.food@pendle.gov.uk,Pendle,http://www.pendle.gov.uk,-2.21311000000000,BB9 0QP,2012-05-17,fhrs_4_en-GB,4,,FHRS,10
187648,,98-100 Manchester Road,Nelson,Lancashire,Spice of India,Restaurant/Cafe/Canteen,1,5,,185653,5,,53.83508500000000,SA023,201,environmental.food@pendle.gov.uk,Pendle,http://www.pendle.gov.uk,-2.21907900000000,BB9 7HD,2013-10-09,fhrs_5_en-GB,5,,FHRS,5
187649,,348 Burnley Road,Colne,Lancashire,Spinning Mill,Pub/bar/nightclub,7843,5,,159635,5,,53.84631400000000,NP008,201,environmental.food@pendle.gov.uk,Pendle,http://www.pendle.gov.uk,-2.19627800000000,BB8 8LF,2014-07-29,fhrs_5_en-GB,5,,FHRS,5
187650,,,,,Spitting Pig Yorkshire,Mobile caterer,7846,5,,433948,5,,,H020,201,environmental.food@pendle.gov.uk,Pendle,http://www.pendle.gov.uk,,,2014-09-23,fhrs_5_en-GB,5,,FHRS,5
187651,,Gibfield Road,Colne,Lancashire,SS John Fisher & Thomas More Catholic Humanities College,School/college/university,7845,5,,159485,5,,53.84690600000000,NB010,201,environmental.food@pendle.gov.uk,Pendle,http://www.pendle.gov.uk,-2.19176600000000,BB8 8JT,2013-11-11,fhrs_5_en-GB,5,,FHRS,5
187652,St. Andrews House,37 Rainhall Road,Barnoldswick,Lancashire,St Andrews House,Hospitals/Childcare/Caring Premises,5,10,,159536,5,,53.91585200000000,NH014,201,environmental.food@pendle.gov.uk,Pendle,http://www.pendle.gov.uk,-2.18533800000000,BB18 5DG,2014-03-12,fhrs_3_en-GB,3,,FHRS,10
187653,,Vaughan Street,Nelson,Lancashire,St Georges Social Club,Pub/bar/nightclub,7843,5,,212864,5,,53.83097600000000,SS030,201,environmental.food@pendle.gov.uk,Pendle,http://www.pendle.gov.uk,-2.20425900000000,BB9 0JS,2014-07-28,fhrs_5_en-GB,5,,FHRS,5
187654,,Lomeshaye Road,Nelson,Lancashire,St John Southworth School,School/college/university,7845,5,,185703,0,,53.83268500000000,SB036,201,environmental.food@pendle.gov.uk,Pendle,http://www.pendle.gov.uk,-2.21911200000000,BB9 0DQ,2013-09-16,fhrs_5_en-GB,5,,FHRS,5
187655,,Barkerhouse Road,Nelson,Lancashire,St Johns Church,Restaurant/Cafe/Canteen,1,5,,185771,5,,53.83626700000000,SH041,201,environmental.food@pendle.gov.uk,Pendle,http://www.pendle.gov.uk,-2.20106300000000,BB9 9EZ,2012-11-23,fhrs_5_en-GB,5,,FHRS,0
187656,St Johns CE Primary School,Trent Road,Nelson,Lancashire,St Johns Primary School,School/college/university,7845,0,,185695,5,,53.83465200000000,SB025,201,environmental.food@pendle.gov.uk,Pendle,http://www.pendle.gov.uk,-2.19360900000000,BB9 0NY,2014-09-24,fhrs_5_en-GB,5,,FHRS,5
187657,,West Close Road,Barnoldswick,Lancashire,St Josephs RC School,School/college/university,7845,5,,159481,0,,53.92125800000000,NB005,201,environmental.food@pendle.gov.uk,Pendle,http://www.pendle.gov.uk,-2.18866600000000,BB18 5EN,2014-01-22,fhrs_5_en-GB,5,,FHRS,5
187658,,Spenbrook Road,Newchurch-In-Pendle,"Burnley, Lancashire",St Marys CE School,School/college/university,7845,0,,591454,0,,53.84971000000000,SB014,201,environmental.food@pendle.gov.uk,Pendle,http://www.pendle.gov.uk,-2.27100400000000,BB12 9JP,2013-09-17,fhrs_5_en-GB,5,,FHRS,5
187659,St Michael and All Angels C of E Primary School,Skipton Road,Foulridge,Colne,St Michael and All Angels C of E Primary School,School/college/university,7845,5,,159494,0,,53.87240800000000,NB023,201,environmental.food@pendle.gov.uk,Pendle,http://www.pendle.gov.uk,-2.16493300000000,BB8 7NN,2012-09-05,fhrs_5_en-GB,5,,FHRS,5
187660,,Hibson Road,Nelson,Lancashire,St Pauls CE School,School/college/university,7845,5,,185680,5,,53.82902200000000,SB006,201,environmental.food@pendle.gov.uk,Pendle,http://www.pendle.gov.uk,-2.21654000000000,BB9 0DZ,2012-12-04,fhrs_5_en-GB,5,,FHRS,5
187661,,Leeds Road,Nelson,Lancashire,St Philips Primary School,School/college/university,7845,0,,212938,5,,53.83773400000000,SB033,201,environmental.food@pendle.gov.uk,Pendle,http://www.pendle.gov.uk,-2.21041600000000,BB9 9TQ,2014-06-30,fhrs_5_en-GB,5,,FHRS,5
187662,,4 Knotts Lane,Colne,Lancashire,Stable Cross,Hotel/bed & breakfast/guest house,7842,5,,212917,5,,53.85311600000000,NA038,201,environmental.food@pendle.gov.uk,Pendle,http://www.pendle.gov.uk,-2.18002800000000,BB8 8AD,2014-06-17,fhrs_5_en-GB,5,,FHRS,0
187663,,,,,Stanbury Cottage,Restaurant/Cafe/Canteen,1,10,,699375,10,,,NA101,201,environmental.food@pendle.gov.uk,Pendle,http://www.pendle.gov.uk,,,2014-08-06,fhrs_3_en-GB,3,,FHRS,10
187664,,125 Colne Road,Earby,"Barnoldswick, Lancashire",Station Hotel,Pub/bar/nightclub,7843,5,,584402,5,,53.91321000000000,NP022,201,environmental.food@pendle.gov.uk,Pendle,http://www.pendle.gov.uk,-2.14673500000000,BB18 6XL,2013-09-10,fhrs_5_en-GB,5,,FHRS,5
187665,,Hibson Road,Nelson,Lancashire,Station Hotel,Pub/bar/nightclub,7843,10,,328554,10,,53.83544300000000,SD010,201,environmental.food@pendle.gov.uk,Pendle,http://www.pendle.gov.uk,-2.21482600000000,BB9 9SB,2013-09-03,fhrs_3_en-GB,3,,FHRS,10
187666,,47 Railway Street,Nelson,Lancashire,Station News,Retailers - other,4613,5,,185931,5,,53.83539100000000,SR001,201,environmental.food@pendle.gov.uk,Pendle,http://www.pendle.gov.uk,-2.21376200000000,BB9 9SG,2014-11-20,fhrs_5_en-GB,5,,FHRS,5
187667,,8 Walmsgate,Barnoldswick,Lancashire,Stephen Bell,Retailers - other,4613,10,,159580,10,,53.91495500000000,NK004,201,environmental.food@pendle.gov.uk,Pendle,http://www.pendle.gov.uk,-2.19035800000000,BB18 5PS,2013-05-15,fhrs_3_en-GB,3,,FHRS,10
187668,,107 Marsden Hall Road North,Nelson,Lancashire,Stocks Hall (Andrew Smith Home),Hospitals/Childcare/Caring Premises,5,0,,185756,0,,53.84099100000000,SH012,201,environmental.food@pendle.gov.uk,Pendle,http://www.pendle.gov.uk,-2.19239300000000,BB9 8JH,2014-12-03,fhrs_5_en-GB,5,,FHRS,0
187669,,Skipton Road,Barnoldswick,Lancashire,Strand Filling Station,Retailers - other,4613,5,,159650,5,,53.86120605468750,NR007,201,environmental.food@pendle.gov.uk,Pendle,http://www.pendle.gov.uk,-2.56927990913391,BB18 5RW,2013-08-21,fhrs_5_en-GB,5,,FHRS,5
187670,,13-15 Manchester Road,Barnoldswick,Lancashire,Strategy Club,Pub/bar/nightclub,7843,5,,328546,5,,53.91396000000000,NS025,201,environmental.food@pendle.gov.uk,Pendle,http://www.pendle.gov.uk,-2.18883100000000,BB18 5NZ,2014-06-04,fhrs_5_en-GB,5,,FHRS,5
187671,,,,,Strawberry J&M,Retailers - other,4613,5,,689040,5,,,SM038,201,environmental.food@pendle.gov.uk,Pendle,http://www.pendle.gov.uk,,,2014-06-23,fhrs_5_en-GB,5,,FHRS,5
187672,,,,,Streetwise Food and Drink,Mobile caterer,7846,5,,699376,5,,,NR042,201,environmental.food@pendle.gov.uk,Pendle,http://www.pendle.gov.uk,,,2014-08-04,fhrs_5_en-GB,5,,FHRS,5
187673,Springbank Garage,Manchester Road,Nelson,Lancashire,Subway Store,Takeaway/sandwich shop,7844,10,,591456,5,,53.83329400000000,SM118,201,environmental.food@pendle.gov.uk,Pendle,http://www.pendle.gov.uk,-2.22043700000000,BB9 7AJ,2015-01-08,fhrs_4_en-GB,4,,FHRS,5
187674,,,,,Sue's Snacks,Mobile caterer,7846,5,,158175,5,,,H017,201,environmental.food@pendle.gov.uk,Pendle,http://www.pendle.gov.uk,,,2013-05-30,fhrs_5_en-GB,5,,FHRS,5
187675,,2b Keighley Road,Colne,Lancashire,Sugarhouse Bar & Club,Pub/bar/nightclub,7843,10,,637905,10,,53.85717800000000,NS003,201,environmental.food@pendle.gov.uk,Pendle,http://www.pendle.gov.uk,-2.16215200000000,BB8 0JL,2014-02-11,fhrs_3_en-GB,3,,FHRS,10
187676,,7 Leeds Road,Nelson,Lancashire,Supafruit,Retailers - other,4613,10,,570482,10,,53.83778300000000,SN001,201,environmental.food@pendle.gov.uk,Pendle,http://www.pendle.gov.uk,-2.21292300000000,BB9 9SZ,2013-06-26,fhrs_3_en-GB,3,,FHRS,10
187677,,,,,Sustenance,Restaurant/Cafe/Canteen,1,5,,708377,5,,,SA093,201,environmental.food@pendle.gov.uk,Pendle,http://www.pendle.gov.uk,,,2014-08-21,fhrs_5_en-GB,5,,FHRS,5
187678,,Unit 24/30 Market Hall Market St,Colne,Lancashire,Sweets R Us,Retailers - other,4613,5,,515889,5,,53.85698400000000,NR005,201,environmental.food@pendle.gov.uk,Pendle,http://www.pendle.gov.uk,-2.16595200000000,BB8 0HS,2013-01-03,fhrs_5_en-GB,5,,FHRS,5
187679,Residential Care Home,Hill Lane,Colne,Lancashire,Sycamore Rise H.F.E.,Hospitals/Childcare/Caring Premises,5,5,,159530,5,,53.86449100000000,NH003,201,environmental.food@pendle.gov.uk,Pendle,http://www.pendle.gov.uk,-2.13569100000000,BB8 7EF,2014-04-29,fhrs_5_en-GB,5,,FHRS,5
187680,,,,,T and A Lunchbox,Mobile caterer,7846,5,,158166,5,,,H003,201,environmental.food@pendle.gov.uk,Pendle,http://www.pendle.gov.uk,,,2013-07-15,fhrs_5_en-GB,5,,FHRS,5
187681,,17 New Market Street,Colne,Lancashire,Tandoori Nights,Takeaway/sandwich shop,7844,5,,159575,5,,53.85711900000000,NJ036,201,environmental.food@pendle.gov.uk,Pendle,http://www.pendle.gov.uk,-2.17162300000000,BB8 9BJ,2012-11-12,fhrs_4_en-GB,4,,FHRS,10
187682,,7 Gladstone Terrace,Barrowford,"Nelson, Lancashire",Taste of India,Takeaway/sandwich shop,7844,5,,185816,5,,53.84720300000000,SJ048,201,environmental.food@pendle.gov.uk,Pendle,http://www.pendle.gov.uk,-2.21777400000000,BB9 8NL,2014-12-30,fhrs_5_en-GB,5,,FHRS,5
187683,,3 New Road,Earby,"Barnoldswick, Lancashire",Taste of Sicily,Takeaway/sandwich shop,7844,5,,159562,5,,53.91518100000000,NJ023,201,environmental.food@pendle.gov.uk,Pendle,http://www.pendle.gov.uk,-2.14427500000000,BB18 6UY,2014-12-17,fhrs_5_en-GB,5,,FHRS,5
187684,,,,,Taste of the Wild,Mobile caterer,7846,5,,467544,5,,,SA074,201,environmental.food@pendle.gov.uk,Pendle,http://www.pendle.gov.uk,,,2012-10-22,fhrs_5_en-GB,5,,FHRS,5
187685,,67 Larch Street,Nelson,Lancashire,Tasty Grill,Takeaway/sandwich shop,7844,0,,360657,0,,53.83564200000000,SJ056,201,environmental.food@pendle.gov.uk,Pendle,http://www.pendle.gov.uk,-2.20397700000000,BB9 9RH,2013-05-07,fhrs_5_en-GB,5,,FHRS,0
187686,,198 Keighley Road,Colne,Lancashire,Taylor's,Retailers - other,4613,5,,159616,5,,53.85903500000000,NM034,201,environmental.food@pendle.gov.uk,Pendle,http://www.pendle.gov.uk,-2.15084700000000,BB8 0PL,2014-05-07,fhrs_5_en-GB,5,,FHRS,5
187687,,207 Leeds Road,Nelson,Lancashire,Taylor's (Chemist),Retailers - other,4613,,,708391,,,53.84194900000000,ST008,201,environmental.food@pendle.gov.uk,Pendle,http://www.pendle.gov.uk,-2.20526900000000,BB9 8EH,2012-12-05,fhrs_exempt_en-GB,Exempt,,FHRS,
187688,,,,,Teardrop Coffee,Mobile caterer,7846,5,,689039,5,,,H028,201,environmental.food@pendle.gov.uk,Pendle,http://www.pendle.gov.uk,,,2014-06-19,fhrs_5_en-GB,5,,FHRS,5
187689,,52-54 Market Street,Colne,Lancashire,Tesco Express,Retailers - supermarkets/hypermarkets,7840,0,,726950,0,,53.85698400000000,NM060,201,environmental.food@pendle.gov.uk,Pendle,http://www.pendle.gov.uk,-2.16595200000000,BB8 0HS,2014-11-19,fhrs_5_en-GB,5,,FHRS,5
187690,,12 Newtown,Barnoldswick,Lancashire,Thai Food & Spices,Takeaway/sandwich shop,7844,5,,637903,5,,53.91593900000000,NA089,201,environmental.food@pendle.gov.uk,Pendle,http://www.pendle.gov.uk,-2.18756100000000,BB18 5UQ,2013-11-13,fhrs_5_en-GB,5,,FHRS,5
187691,,Surrey Road,Nelson,Lancashire,Thatch & Thistle,Pub/bar/nightclub,7843,5,,185724,5,,53.84260600000000,SD026,201,environmental.food@pendle.gov.uk,Pendle,http://www.pendle.gov.uk,-2.22009100000000,BB9 7TZ,2013-08-28,fhrs_5_en-GB,5,,FHRS,5
187692,,Holme Street,Nelson,Lancashire,The Alexandra Snooker Centre,Pub/bar/nightclub,7843,5,,185936,5,,53.83666900000000,SS024,201,environmental.food@pendle.gov.uk,Pendle,http://www.pendle.gov.uk,-2.21253800000000,BB9 9SS,2012-05-16,fhrs_4_en-GB,4,,FHRS,10
187693,,Salterforth Lane,Salterforth,"Barnoldswick, Lancashire",The Anchor Inn,Pub/bar/nightclub,7843,,,159645,,,53.90410800000000,NP032,201,environmental.food@pendle.gov.uk,Pendle,http://www.pendle.gov.uk,-2.17180100000000,BB18 5TT,2014-05-01,fhrs_5_en-GB,5,,FHRS,
187694,The Fishing Lodge,,Roughlee,Nelson,The Bait Box,Mobile caterer,7846,5,,680683,5,,53.85815400000000,SA088,201,environmental.food@pendle.gov.uk,Pendle,http://www.pendle.gov.uk,-2.23904000000000,BB9 6NR,2014-05-14,fhrs_5_en-GB,5,,FHRS,5
187695,The Old Bank,143 Gisburn Road,Barrowford,"Nelson, Lancashire",The Bankers Draft,Pub/bar/nightclub,7843,5,,734811,5,,53.85355400000000,SS007,201,environmental.food@pendle.gov.uk,Pendle,http://www.pendle.gov.uk,-2.21437100000000,BB9 6HQ,2014-12-15,fhrs_5_en-GB,5,,FHRS,5
187696,,Barley,Burnley,Lancashire,The Barley Mow,Pub/bar/nightclub,7843,5,,185642,5,,53.85864257812500,SA003,201,environmental.food@pendle.gov.uk,Pendle,http://www.pendle.gov.uk,-2.27206540107727,BB12 9JX,2014-12-10,fhrs_5_en-GB,5,,FHRS,5
187697,The Beacon Centre,Maurice Street,Nelson,Lancashire,The Beacon Day Nursery,Hospitals/Childcare/Caring Premises,5,5,,185683,5,,53.83496600000000,SB009,201,environmental.food@pendle.gov.uk,Pendle,http://www.pendle.gov.uk,-2.22009600000000,BB9 7HS,2014-09-16,fhrs_5_en-GB,5,,FHRS,5
187698,,"3 Pendleside, Lomeshaye Industri",Nelson,Lancashire,The Big Sandwich,Retailers - other,4613,0,,185649,0,,53.83677500000000,SA015,201,environmental.food@pendle.gov.uk,Pendle,http://www.pendle.gov.uk,-2.23758100000000,BB9 6RY,2014-07-29,fhrs_5_en-GB,5,,FHRS,0
187699,,56 Rainhall Road,Barnoldswick,Lancashire,The Blue Dolphin,Takeaway/sandwich shop,7844,,,159546,,,53.91694300000000,NJ006,201,environmental.food@pendle.gov.uk,Pendle,http://www.pendle.gov.uk,-2.18315000000000,BB18 6AB,2013-09-27,fhrs_5_en-GB,5,,FHRS,
187700,,34 Rainhall Road,Barnoldswick,Lancashire,The Bookstop,Restaurant/Cafe/Canteen,1,0,,455938,5,,53.91584200000000,NA087,201,environmental.food@pendle.gov.uk,Pendle,http://www.pendle.gov.uk,-2.18608400000000,BB18 5DR,2014-05-02,fhrs_5_en-GB,5,,FHRS,5
187701,,,,,The Butty Professor,Mobile caterer,7846,5,,212896,5,,,H018,201,environmental.food@pendle.gov.uk,Pendle,http://www.pendle.gov.uk,,,2013-07-08,fhrs_5_en-GB,5,,FHRS,5
187702,,Barley New Road,Barley,"Burnley, Lancashire",The Cabin,Restaurant/Cafe/Canteen,1,5,,185645,5,,53.85864100000000,SA006,201,environmental.food@pendle.gov.uk,Pendle,http://www.pendle.gov.uk,-2.27206500000000,BB12 9JX,2014-01-20,fhrs_5_en-GB,5,,FHRS,5
187703,,,,,The Cake Shop,Restaurant/Cafe/Canteen,1,5,,409715,5,,,NA050,201,environmental.food@pendle.gov.uk,Pendle,http://www.pendle.gov.uk,,,2014-08-12,fhrs_5_en-GB,5,,FHRS,5
187704,,,,,The Candy Van,Mobile caterer,7846,5,,212897,5,,,H021,201,environmental.food@pendle.gov.uk,Pendle,http://www.pendle.gov.uk,,,2014-06-17,fhrs_5_en-GB,5,,FHRS,5
187705,,73 Barkerhouse Road,Nelson,Lancashire,The China Chef,Takeaway/sandwich shop,7844,5,,185774,5,,53.83729300000000,SJ003,201,environmental.food@pendle.gov.uk,Pendle,http://www.pendle.gov.uk,-2.20536800000000,BB9 9ES,2013-03-19,fhrs_5_en-GB,5,,FHRS,5
187706,,95 Bradshaw Street,Nelson,Lancashire,The Chippy,Takeaway/sandwich shop,7844,5,,185777,5,,53.83294500000000,SJ006,201,environmental.food@pendle.gov.uk,Pendle,http://www.pendle.gov.uk,-2.21414400000000,BB9 9BS,2014-12-04,fhrs_5_en-GB,5,,FHRS,5
187707,West Mill,Churchill Way,Brierfield,"Nelson, Lancashire",The Chocolate Strawberry,Restaurant/Cafe/Canteen,1,5,,185671,5,,53.82839300000000,SA065,201,environmental.food@pendle.gov.uk,Pendle,http://www.pendle.gov.uk,-2.23578600000000,BB9 5NF,2015-01-06,fhrs_5_en-GB,5,,FHRS,5
187708,,18-26 Colne Road,Brierfield,"Nelson, Lancashire",The Co-op,Retailers - supermarkets/hypermarkets,7840,10,,185861,10,,53.82482700000000,SM029,201,environmental.food@pendle.gov.uk,Pendle,http://www.pendle.gov.uk,-2.23450500000000,BB9 5NS,2014-12-16,fhrs_3_en-GB,3,,FHRS,10
187709,,26-30 Rainhall Road,Barnoldswick,Lancashire,The Co-operative Pharmacy,Restaurant/Cafe/Canteen,1,,,708374,,,53.91584200000000,NT008,201,environmental.food@pendle.gov.uk,Pendle,http://www.pendle.gov.uk,-2.18608400000000,BB18 5DR,2014-06-04,fhrs_exempt_en-GB,Exempt,,FHRS,
187710,,10-12 Colne Road,Brierfield,"Nelson, Lancashire",The Co-operative Pharmacy,Restaurant/Cafe/Canteen,1,,,708388,,,53.82407200000000,ST005,201,environmental.food@pendle.gov.uk,Pendle,http://www.pendle.gov.uk,-2.23454700000000,BB9 5PH,2014-06-04,fhrs_exempt_en-GB,Exempt,,FHRS,
187711,,1-3 Colne Road,Brierfield,"Nelson, Lancashire",The Corner House,Restaurant/Cafe/Canteen,1,5,,708376,5,,53.82419900000000,SA092,201,environmental.food@pendle.gov.uk,Pendle,http://www.pendle.gov.uk,-2.23401600000000,BB9 5HW,2014-09-18,fhrs_5_en-GB,5,,FHRS,5
187712,,400 Colne Road,Kelbrook,"Barnoldswick, Lancashire",The Craven Heifer Inn,Pub/bar/nightclub,7843,5,,159644,5,,53.89793300000000,NP029,201,environmental.food@pendle.gov.uk,Pendle,http://www.pendle.gov.uk,-2.15156600000000,BB18 6TF,2012-10-29,fhrs_5_en-GB,5,,FHRS,5
187713,,94 Albert Road,Colne,Lancashire,The Crown Hotel,Pub/bar/nightclub,7843,5,,159511,5,,53.85515700000000,ND001,201,environmental.food@pendle.gov.uk,Pendle,http://www.pendle.gov.uk,-2.18015900000000,BB8 0QD,2013-06-18,fhrs_5_en-GB,5,,FHRS,5
187714,,5 Church Street,Colne,Lancashire,The Duke of Lancaster,Pub/bar/nightclub,7843,5,,212880,5,,53.85669900000000,NP012,201,environmental.food@pendle.gov.uk,Pendle,http://www.pendle.gov.uk,-2.17031400000000,BB8 0EB,2014-06-03,fhrs_5_en-GB,5,,FHRS,5
187715,,25 Colne Road,Brierfield,"Nelson, Lancashire",The Feathers Inn,Pub/bar/nightclub,7843,10,,185896,10,,53.82679700000000,SP005,201,environmental.food@pendle.gov.uk,Pendle,http://www.pendle.gov.uk,-2.23359000000000,BB9 5NP,2013-03-04,fhrs_3_en-GB,3,,FHRS,10
187716,,347 Leeds Road,Nelson,Lancashire,The Filling Station,Takeaway/sandwich shop,7844,5,,185793,5,,53.84452000000000,SJ023,201,environmental.food@pendle.gov.uk,Pendle,http://www.pendle.gov.uk,-2.19962800000000,BB9 8RP,2012-10-30,fhrs_5_en-GB,5,,FHRS,5
187717,,14 Church Street,Barnoldswick,Lancashire,The Fountain Inn,Pub/bar/nightclub,7843,5,,433954,5,,53.91566600000000,NP006,201,environmental.food@pendle.gov.uk,Pendle,http://www.pendle.gov.uk,-2.18940200000000,BB18 5UT,2014-03-20,fhrs_4_en-GB,4,,FHRS,10
187718,,38 Skipton Road,Colne,Lancashire,The Frying Pan,Takeaway/sandwich shop,7844,10,,159553,5,,53.85839000000000,NJ014,201,environmental.food@pendle.gov.uk,Pendle,http://www.pendle.gov.uk,-2.16308400000000,BB8 0NH,2013-03-27,fhrs_4_en-GB,4,,FHRS,5
187719,,217 Gisburn Road,Barrowford,"Nelson, Lancashire",The George and Dragon,Pub/bar/nightclub,7843,5,,619254,5,,53.85448500000000,SP009,201,environmental.food@pendle.gov.uk,Pendle,http://www.pendle.gov.uk,-2.21144200000000,BB9 6JD,2013-12-05,fhrs_5_en-GB,5,,FHRS,5
187720,,140 Chapel House Road,Nelson,Lancashire,The Golden Fish,Takeaway/sandwich shop,7844,5,,185779,5,,53.83121600000000,SJ008,201,environmental.food@pendle.gov.uk,Pendle,http://www.pendle.gov.uk,-2.21140100000000,BB9 9PJ,2013-03-19,fhrs_4_en-GB,4,,FHRS,10
187721,The Grange,Keighley Road,Colne,Lancashire,The Grange,Hospitals/Childcare/Caring Premises,5,0,,159531,0,,53.85821700000000,NH004,201,environmental.food@pendle.gov.uk,Pendle,http://www.pendle.gov.uk,-2.15741200000000,BB8 0QG,2014-10-01,fhrs_5_en-GB,5,,FHRS,5
187722,,61 Manchester Road,Barnoldswick,Lancashire,The Greyhound Inn,Pub/bar/nightclub,7843,5,,159633,5,,53.91274800000000,NP005,201,environmental.food@pendle.gov.uk,Pendle,http://www.pendle.gov.uk,-2.18759300000000,BB18 5PW,2014-06-24,fhrs_5_en-GB,5,,FHRS,5
187723,,Crown Way,Colne,Lancashire,The Heathly Choice/Pendle Leisure Centre,Restaurant/Cafe/Canteen,1,10,,726949,5,,53.85649500000000,NH015,201,environmental.food@pendle.gov.uk,Pendle,http://www.pendle.gov.uk,-2.18071200000000,BB8 9NP,2014-11-04,fhrs_4_en-GB,4,,FHRS,5
187724,,78 Albert Road,Colne,Lancashire,The Ivy Palace,Restaurant/Cafe/Canteen,1,5,,159442,5,,53.85558200000000,NA019,201,environmental.food@pendle.gov.uk,Pendle,http://www.pendle.gov.uk,-2.17781900000000,BB8 0AG,2012-11-06,fhrs_5_en-GB,5,,FHRS,5
187725,,25-29 Colne Road,Earby,Barnoldswick,The Jade Palace,Restaurant/Cafe/Canteen,1,,,159440,,,53.91464000000000,NA017,201,environmental.food@pendle.gov.uk,Pendle,http://www.pendle.gov.uk,-2.14585700000000,BB18 6XB,2012-11-08,fhrs_5_en-GB,5,,FHRS,
187726,,8 Windy Bank,Colne,Lancashire,The Jovial Hatters,Pub/bar/nightclub,7843,5,,212888,5,,53.85789600000000,NP021,201,environmental.food@pendle.gov.uk,Pendle,http://www.pendle.gov.uk,-2.16895000000000,BB8 9HZ,2014-06-25,fhrs_5_en-GB,5,,FHRS,5
187727,,17 Walverden Road,Brierfield,"Nelson, Lancashire",The Limes,Hospitals/Childcare/Caring Premises,5,10,,212863,5,,53.82410000000000,SH006,201,environmental.food@pendle.gov.uk,Pendle,http://www.pendle.gov.uk,-2.21958300000000,BB9 0PJ,2014-05-13,fhrs_4_en-GB,4,,FHRS,5
187728,,,,,The Little Bird Bakery,Restaurant/Cafe/Canteen,1,5,,212933,5,,,NA052,201,environmental.food@pendle.gov.uk,Pendle,http://www.pendle.gov.uk,,,2014-06-17,fhrs_5_en-GB,5,,FHRS,5
187729,,Goitside,Nelson,Lancashire,The Mission,Hospitals/Childcare/Caring Premises,5,0,,185643,0,,53.83920288085938,SA004,201,environmental.food@pendle.gov.uk,Pendle,http://www.pendle.gov.uk,-2.21276307106018,BB9 7XD,2014-06-23,fhrs_5_en-GB,5,,FHRS,0
187730,,Gisburn Road,Blacko,"Nelson, Lancashire",The Moorcock Inn,Pub/bar/nightclub,7843,5,,185718,5,,53.88415000000000,SD018,201,environmental.food@pendle.gov.uk,Pendle,http://www.pendle.gov.uk,-2.21352400000000,BB9 6NG,2013-09-12,fhrs_5_en-GB,5,,FHRS,5
187731,,Skipton Old Road,Foulridge,"Colne, Lancashire",The New Inn,Pub/bar/nightclub,7843,5,,159642,5,,53.87564000000000,NP026,201,environmental.food@pendle.gov.uk,Pendle,http://www.pendle.gov.uk,-2.16763800000000,BB8 7PD,2014-07-22,fhrs_4_en-GB,4,,FHRS,10
187732,,78 Leeds Road,Nelson,Lancashire,The New Rice Bowl,Takeaway/sandwich shop,7844,5,,185787,5,,53.83834500000000,SJ016,201,environmental.food@pendle.gov.uk,Pendle,http://www.pendle.gov.uk,-2.21003900000000,BB9 9TN,2013-04-02,fhrs_5_en-GB,5,,FHRS,5
187733,The Oaks,Colne Road,Burnley,Lancashire,The Oaks,Restaurant/Cafe/Canteen,1,5,,185723,5,,53.78969400000000,SD025,201,environmental.food@pendle.gov.uk,Pendle,http://www.pendle.gov.uk,-2.17341200000000,BB10 2NG,2014-10-09,fhrs_5_en-GB,5,,FHRS,5
187734,,146 Gisburn Road,Barrowford,"Nelson, Lancashire",The Old Bridge Inn,Pub/bar/nightclub,7843,5,,708383,5,,53.85731900000000,SP010,201,environmental.food@pendle.gov.uk,Pendle,http://www.pendle.gov.uk,-2.20970800000000,BB9 6AJ,2014-07-07,fhrs_5_en-GB,5,,FHRS,5
187735,Roaming Roosters,Barrowford Road,Higham,Burnley Lancs,The Old Spot Bistro,Restaurant/Cafe/Canteen,1,5,,185647,5,,53.82799200000000,SA009,201,environmental.food@pendle.gov.uk,Pendle,http://www.pendle.gov.uk,-2.27610500000000,BB12 9ER,2014-07-07,fhrs_5_en-GB,5,,FHRS,5
187736,,Colne Road,Kelbrook,"Barnoldswick, Lancashire",The Old Stone Trough Inn,Pub/bar/nightclub,7843,5,,159515,5,,53.88796400000000,ND006,201,environmental.food@pendle.gov.uk,Pendle,http://www.pendle.gov.uk,-2.16011100000000,BB18 6XY,2014-05-15,fhrs_5_en-GB,5,,FHRS,5
187737,Greenhill Mill,Skipton Road,Colne,Lancashire,The Paprika Lady,Importers/Exporters,14,5,,578817,5,,53.86216400000000,NO005,201,environmental.food@pendle.gov.uk,Pendle,http://www.pendle.gov.uk,-2.16320500000000,BB8 0NX,2013-07-30,fhrs_5_en-GB,5,,FHRS,5
187738,Fulshaw Head Farm,Unit 6,Pasture Lane,Barrowford,The Posh Pork Pie Company,Mobile caterer,7846,5,,433956,5,,53.85362000000000,SE005,201,environmental.food@pendle.gov.uk,Pendle,http://www.pendle.gov.uk,-2.23685500000000,BB9 6RA,2014-01-29,fhrs_5_en-GB,5,,FHRS,5
187739,,Skipton Road,Earby,"Barnoldswick, Lancashire",The Punchbowl,Pub/bar/nightclub,7843,5,,159641,5,,53.92070100000000,NP025,201,environmental.food@pendle.gov.uk,Pendle,http://www.pendle.gov.uk,-2.15046100000000,BB18 6JJ,2014-08-12,fhrs_5_en-GB,5,,FHRS,5
187740,,70 Red Lion Street,Earby,"Barnoldswick, Lancashire",The Red Lion,Pub/bar/nightclub,7843,5,,159639,5,,53.91717700000000,NP023,201,environmental.food@pendle.gov.uk,Pendle,http://www.pendle.gov.uk,-2.13616700000000,BB18 6RD,2013-04-03,fhrs_5_en-GB,5,,FHRS,5
187741,,31 Market Street,Colne,Lancashire,The Red Lion Hotel,Pub/bar/nightclub,7843,5,,194342,5,,53.85742200000000,NP014,201,environmental.food@pendle.gov.uk,Pendle,http://www.pendle.gov.uk,-2.16724600000000,BB8 0LJ,2014-06-24,fhrs_5_en-GB,5,,FHRS,5
187742,The Rising,Guide Lane,Higham,"Burnley, Lancashire",The Rising Fishery,Restaurant/Cafe/Canteen,1,5,,656671,5,,53.83141800000000,SA070,201,environmental.food@pendle.gov.uk,Pendle,http://www.pendle.gov.uk,-2.28319300000000,BB12 9BX,2014-04-01,fhrs_4_en-GB,4,,FHRS,10
187743,,,,,The Roundhouse Bakery and Catering,Restaurant/Cafe/Canteen,1,5,,185650,5,,,SA016,201,environmental.food@pendle.gov.uk,Pendle,http://www.pendle.gov.uk,,,2013-02-08,fhrs_5_en-GB,5,,FHRS,0
187744,,5 Albert Road,Colne,Lancashire,The Sandwich Shop,Takeaway/sandwich shop,7844,5,,159592,5,,53.85604800000000,NL002,201,environmental.food@pendle.gov.uk,Pendle,http://www.pendle.gov.uk,-2.17300200000000,BB8 0RY,2013-07-23,fhrs_5_en-GB,5,,FHRS,5
187745,,North Valley Road,Colne,Lancashire,The Toddle In Nursery Ltd,Hospitals/Childcare/Caring Premises,5,0,,159480,5,,53.85853400000000,NB004,201,environmental.food@pendle.gov.uk,Pendle,http://www.pendle.gov.uk,-2.17518700000000,BB8 9AG,2014-07-21,fhrs_5_en-GB,5,,FHRS,5
187746,,Church Street,Trawden,"Colne, Lancashire",The Trawden Arms,Pub/bar/nightclub,7843,5,,159646,5,,53.84525700000000,NP033,201,environmental.food@pendle.gov.uk,Pendle,http://www.pendle.gov.uk,-2.13508200000000,BB8 8RU,2013-12-10,fhrs_5_en-GB,5,,FHRS,5
187747,,217 Burnley Road,Colne,Lancashire,The Vape Bar,Takeaway/sandwich shop,7844,5,,578816,0,,53.84918100000000,NJ040,201,environmental.food@pendle.gov.uk,Pendle,http://www.pendle.gov.uk,-2.19100100000000,BB8 8JD,2014-10-20,fhrs_5_en-GB,5,,FHRS,0
187748,,105 Albert Road,Colne,Lancashire,The Venue (Colne) Limited,Pub/bar/nightclub,7843,5,,159654,5,,53.85522300000000,NS002,201,environmental.food@pendle.gov.uk,Pendle,http://www.pendle.gov.uk,-2.17765100000000,BB8 0BS,2012-11-15,fhrs_5_en-GB,5,,FHRS,0
187749,,112A Gisburn Road,Barrowford,"Nelson, Lancashire",The Village Fayre Fine Foods Ltd,Takeaway/sandwich shop,7844,5,,185864,10,,53.85231200000000,SM044,201,environmental.food@pendle.gov.uk,Pendle,http://www.pendle.gov.uk,-2.21553600000000,BB9 6EW,2013-11-12,fhrs_4_en-GB,4,,FHRS,5
187750,,110-112 Gisburn Road,Barrowford,"Nelson, Lancashire",The Village Pharmacy,Restaurant/Cafe/Canteen,1,,,708390,,,53.85231200000000,ST007,201,environmental.food@pendle.gov.uk,Pendle,http://www.pendle.gov.uk,-2.21553600000000,BB9 6EW,2014-06-17,fhrs_exempt_en-GB,Exempt,,FHRS,
187751,,35-37 Church Street,Colne,Lancashire,The Wallace Hartley,Pub/bar/nightclub,7843,5,,159512,5,,53.85669900000000,ND002,201,environmental.food@pendle.gov.uk,Pendle,http://www.pendle.gov.uk,-2.17031400000000,BB8 0EB,2013-07-17,fhrs_5_en-GB,5,,FHRS,5
187752,,300 Wheatley Lane Road,Fence,"Burnley, Lancashire",The White Swan Hotel,Pub/bar/nightclub,7843,5,,185900,5,,53.83769500000000,SP020,201,environmental.food@pendle.gov.uk,Pendle,http://www.pendle.gov.uk,-2.25348100000000,BB12 9QA,2014-01-21,fhrs_5_en-GB,5,,FHRS,5
187753,Thornton Hall Farm,,Thornton In Craven,"Skipton, West Yorkshire",Thornton Hall Country Park,Restaurant/Cafe/Canteen,1,0,,328537,0,,53.93215900000000,NA015,201,environmental.food@pendle.gov.uk,Pendle,http://www.pendle.gov.uk,-2.14395300000000,BD23 3TJ,2012-03-28,fhrs_5_en-GB,5,,FHRS,0
187754,Harrys House Of Coffee,14 Manchester Road,Nelson,Lancashire,Toast of the Town,Restaurant/Cafe/Canteen,1,10,,328549,10,,53.83652000000000,SA021,201,environmental.food@pendle.gov.uk,Pendle,http://www.pendle.gov.uk,-2.21534800000000,BB9 7EG,2013-07-08,fhrs_3_en-GB,3,,FHRS,10
187755,,57 Market Street,Colne,Lancashire,Tom Wilson (Tobacco) Ltd,Retailers - other,4613,5,,212889,5,,53.85747900000000,NR001,201,environmental.food@pendle.gov.uk,Pendle,http://www.pendle.gov.uk,-2.16539100000000,BB8 0LL,2014-08-11,fhrs_5_en-GB,5,,FHRS,5
187756,,Netherfield Road,Nelson,Lancashire,Training 2000,Restaurant/Cafe/Canteen,1,5,,185709,5,,53.83466700000000,SC015,201,environmental.food@pendle.gov.uk,Pendle,http://www.pendle.gov.uk,-2.21163100000000,BB9 9AR,2013-03-26,fhrs_5_en-GB,5,,FHRS,5
187757,,,,,Travel N Bite,Mobile caterer,7846,5,,158181,5,,,H039,201,environmental.food@pendle.gov.uk,Pendle,http://www.pendle.gov.uk,,,2014-01-06,fhrs_5_en-GB,5,,FHRS,5
187758,,Dean Street,Trawden,"Colne, Lancashire",Trawden CP School,School/college/university,7845,5,,159501,5,,53.84647700000000,NB033,201,environmental.food@pendle.gov.uk,Pendle,http://www.pendle.gov.uk,-2.13725900000000,BB8 8RN,2014-02-04,fhrs_5_en-GB,5,,FHRS,5
187759,Trawden Forest Post Office,44 Church Street,Trawden,"Colne, Lancashire",Trawden Forest Post Office,Retailers - other,4613,5,,212926,5,,53.84525700000000,NR027,201,environmental.food@pendle.gov.uk,Pendle,http://www.pendle.gov.uk,-2.13508200000000,BB8 8RU,2014-08-11,fhrs_5_en-GB,5,,FHRS,5
187760,,,,,Treatz,Mobile caterer,7846,5,,158168,5,,,H006,201,environmental.food@pendle.gov.uk,Pendle,http://www.pendle.gov.uk,,,2012-12-18,fhrs_5_en-GB,5,,FHRS,5
187761,,10 Salterforth Road,Earby,Barnoldswick,Tricky Dicky's Sticky Toffee Pudding Company,Restaurant/Cafe/Canteen,1,5,,159457,5,,53.91240600000000,NA044,201,environmental.food@pendle.gov.uk,Pendle,http://www.pendle.gov.uk,-2.14932000000000,BB18 6NG,2012-11-15,fhrs_5_en-GB,5,,FHRS,5
187762,,117/117A Gisburn Road,Barrowford,"Nelson, Lancashire",Turners,Restaurant/Cafe/Canteen,1,5,,185849,5,,53.85231200000000,SM001,201,environmental.food@pendle.gov.uk,Pendle,http://www.pendle.gov.uk,-2.21553600000000,BB9 6EW,2013-07-22,fhrs_5_en-GB,5,,FHRS,5
187763,,84 Manchester Road,Nelson,Lancashire,UK Fried Chicken (Halal),Takeaway/sandwich shop,7844,20,,185803,20,,53.83508500000000,SJ034,201,environmental.food@pendle.gov.uk,Pendle,http://www.pendle.gov.uk,-2.21907900000000,BB9 7HD,2014-10-20,fhrs_0_en-GB,0,,FHRS,15
187764,,65 Market Street,Colne,Lancashire,Union Exchange,Pub/bar/nightclub,7843,5,,159514,5,,53.85747900000000,ND004,201,environmental.food@pendle.gov.uk,Pendle,http://www.pendle.gov.uk,-2.16539100000000,BB8 0LL,2013-07-31,fhrs_5_en-GB,5,,FHRS,5
187765,,60 Vernon Street,Nelson,Lancashire,Unity Hall,Hospitals/Childcare/Caring Premises,5,5,,185751,5,,53.83191600000000,SH003,201,environmental.food@pendle.gov.uk,Pendle,http://www.pendle.gov.uk,-2.21166300000000,BB9 9DE,2014-07-23,fhrs_5_en-GB,5,,FHRS,5
187766,,70 Railway Street,Nelson,Lancashire,Upper Crust,Takeaway/sandwich shop,7844,5,,185845,5,,53.83398100000000,SL008,201,environmental.food@pendle.gov.uk,Pendle,http://www.pendle.gov.uk,-2.21291900000000,BB9 9AH,2013-11-25,fhrs_5_en-GB,5,,FHRS,5
187767,,Crown Way,Colne,Lancashire,Urban Altitude Catering,Restaurant/Cafe/Canteen,1,10,,578815,0,,53.85649500000000,NA095,201,environmental.food@pendle.gov.uk,Pendle,http://www.pendle.gov.uk,-2.18071200000000,BB8 9NP,2013-08-13,fhrs_4_en-GB,4,,FHRS,0
187768,6 Majestic Buildings,Albert Road,Barnoldswick,Lancashire,Usmaniyah Indian Takeaway Ltd,Takeaway/sandwich shop,7844,5,,159567,5,,53.91644300000000,NJ028,201,environmental.food@pendle.gov.uk,Pendle,http://www.pendle.gov.uk,-2.18710700000000,BB18 5AA,2013-07-24,fhrs_5_en-GB,5,,FHRS,5
187769,,3 Rupert Street,Nelson,Lancashire,Variety Food Store,Retailers - other,4613,5,,584405,10,,53.83237900000000,SM017,201,environmental.food@pendle.gov.uk,Pendle,http://www.pendle.gov.uk,-2.22424600000000,BB9 7DN,2013-08-20,fhrs_3_en-GB,3,,FHRS,10
187770,,43 Ethersall Road,Nelson,Lancashire,Veronica's,Retailers - other,4613,5,,328557,5,,53.82739400000000,SM035,201,environmental.food@pendle.gov.uk,Pendle,http://www.pendle.gov.uk,-2.21220200000000,BB9 0RP,2014-08-12,fhrs_5_en-GB,5,,FHRS,5
187771,,1-3 Burrell Avenue,Colne,Lancashire,Via Discount Stores,Retailers - other,4613,10,,159613,5,,53.86348500000000,NM019,201,environmental.food@pendle.gov.uk,Pendle,http://www.pendle.gov.uk,-2.16977900000000,BB8 9EX,2012-11-20,fhrs_4_en-GB,4,,FHRS,5
187772,,25 Victoria Avenue,Brierfield,"Nelson, Lancashire",Victoria House Res. Home,Hospitals/Childcare/Caring Premises,5,5,,185765,5,,53.82775400000000,SH024,201,environmental.food@pendle.gov.uk,Pendle,http://www.pendle.gov.uk,-2.23171100000000,BB9 5RH,2013-07-24,fhrs_5_en-GB,5,,FHRS,5
187773,,Carr Road,Nelson,Lancashire,Victoria Park Pavillion CIC,Restaurant/Cafe/Canteen,1,5,,548206,5,,53.83848700000000,SA078,201,environmental.food@pendle.gov.uk,Pendle,http://www.pendle.gov.uk,-2.22133000000000,BB9 7SS,2013-05-08,fhrs_5_en-GB,5,,FHRS,5
187774,,29-31 Albert Road,Barnoldswick,Lancashire,Victoria's Tea Rooms,Restaurant/Cafe/Canteen,1,0,,159463,5,,53.91644300000000,NA056,201,environmental.food@pendle.gov.uk,Pendle,http://www.pendle.gov.uk,-2.18710700000000,BB18 5AA,2014-10-15,fhrs_5_en-GB,5,,FHRS,5
187775,,12 Water Street,Earby,"Barnoldswick, Lancashire",Village Bakery,Manufacturers/packers,7839,5,,159521,5,,53.91708900000000,NE004,201,environmental.food@pendle.gov.uk,Pendle,http://www.pendle.gov.uk,-2.14172400000000,BB18 6QP,2014-02-18,fhrs_4_en-GB,4,,FHRS,10
187776,Bankfield site,Skipton Road,Barnoldswick,Lancashire,Volnay Kitchen/ Rolls Royce,Restaurant/Cafe/Canteen,1,5,,159509,5,,53.92000000000000,NC015,201,environmental.food@pendle.gov.uk,Pendle,http://www.pendle.gov.uk,-2.18257000000000,BB18 5RU,2013-07-11,fhrs_5_en-GB,5,,FHRS,5
187777,,129 Scotland Road,Nelson,Lancashire,W H Oddie (Nelson) Ltd,Manufacturers/packers,7839,0,,185725,0,,53.84090800000000,SE001,201,environmental.food@pendle.gov.uk,Pendle,http://www.pendle.gov.uk,-2.21477800000000,BB9 7XR,2014-03-25,fhrs_5_en-GB,5,,FHRS,5
187778,,10 Market Street,Colne,Lancashire,W H Oddie (Nelson) Ltd,Retailers - other,4613,5,,159594,5,,53.85700700000000,NL005,201,environmental.food@pendle.gov.uk,Pendle,http://www.pendle.gov.uk,-2.16815600000000,BB8 0HR,2013-07-15,fhrs_5_en-GB,5,,FHRS,5
187779,,325 Leeds Road,Nelson,Lancashire,W H Oddie (Nelson) Ltd,Takeaway/sandwich shop,7844,5,,185846,5,,53.84405100000000,SL011,201,environmental.food@pendle.gov.uk,Pendle,http://www.pendle.gov.uk,-2.20078100000000,BB9 8RW,2014-07-21,fhrs_5_en-GB,5,,FHRS,5
187780,40 Marsden Mall,Pendle Rise Shopping Centre,Nelson,Lancashire,W H Oddie (Nelson) Ltd,Takeaway/sandwich shop,7844,5,,185843,5,,53.83613700000000,SL002,201,environmental.food@pendle.gov.uk,Pendle,http://www.pendle.gov.uk,-2.21369000000000,BB9 9SL,2013-12-03,fhrs_5_en-GB,5,,FHRS,5
187781,,Walter Street,Brierfield,"Nelson, Lancashire",Walter Street C.P. School,School/college/university,7845,5,,185696,5,,53.82252000000000,SB026,201,environmental.food@pendle.gov.uk,Pendle,http://www.pendle.gov.uk,-2.23288200000000,BB9 5AW,2012-11-05,fhrs_5_en-GB,5,,FHRS,5
187782,,Walton Lane,Nelson,Lancashire,Walton Lane Childrens Centre,Hospitals/Childcare/Caring Premises,5,5,,185706,5,,53.83830000000000,SB045,201,environmental.food@pendle.gov.uk,Pendle,http://www.pendle.gov.uk,-2.18324700000000,BB9 8BP,2014-02-28,fhrs_5_en-GB,5,,FHRS,5
187783,,Bracewell Street,Nelson,Lancashire,Walverden Primary School,School/college/university,7845,5,,185700,5,,53.83467100000000,SB030,201,environmental.food@pendle.gov.uk,Pendle,http://www.pendle.gov.uk,-2.20369900000000,BB9 0TL,2013-04-24,fhrs_5_en-GB,5,,FHRS,5
187784,,Netherfield Road,Nelson,Lancashire,Walverden Service Station,Retailers - other,4613,5,,185857,5,,53.83555600000000,SM019,201,environmental.food@pendle.gov.uk,Pendle,http://www.pendle.gov.uk,-2.21190900000000,BB9 9PS,2014-08-12,fhrs_5_en-GB,5,,FHRS,5
187785,Wayside Barn,Greenfield Road,Colne,Lancashire,Wayside Barn Bed and Breakfast,Hotel/bed & breakfast/guest house,7842,5,,159448,5,,53.85294100000000,NA030,201,environmental.food@pendle.gov.uk,Pendle,http://www.pendle.gov.uk,-2.18913400000000,BB8 9PE,2014-06-30,fhrs_5_en-GB,5,,FHRS,5
187786,,Kelbrook Road,Barnoldswick,Lancashire,West Craven Cafe Bar,Restaurant/Cafe/Canteen,1,5,,159445,5,,53.91146800000000,NA024,201,environmental.food@pendle.gov.uk,Pendle,http://www.pendle.gov.uk,-2.17824000000000,BB18 5TB,2014-05-22,fhrs_5_en-GB,5,,FHRS,5
187787,,Kelbrook Road,Barnoldswick,Lancashire,West Craven High School,School/college/university,7845,5,,159482,5,,53.91146800000000,NB006,201,environmental.food@pendle.gov.uk,Pendle,http://www.pendle.gov.uk,-2.17824000000000,BB18 5TB,2013-06-26,fhrs_5_en-GB,5,,FHRS,5
187788,,West Street,Colne,Lancashire,West Street County Junior,School/college/university,7845,5,,421249,5,,53.85567100000000,NB020,201,environmental.food@pendle.gov.uk,Pendle,http://www.pendle.gov.uk,-2.16626600000000,BB8 0HW,2014-03-10,fhrs_5_en-GB,5,,FHRS,5
187789,,Scott Street,Nelson,Lancashire,Westfield Bowling Club,Pub/bar/nightclub,7843,5,,584409,5,,53.84230300000000,SS036,201,environmental.food@pendle.gov.uk,Pendle,http://www.pendle.gov.uk,-2.21831100000000,BB9 7UE,2013-09-03,fhrs_5_en-GB,5,,FHRS,5
187790,,Wheatley Lane Road,Fence,"Burnley, Lancashire",Wheatley Lane Methodist School,School/college/university,7845,0,,185698,0,,53.83526800000000,SB028,201,environmental.food@pendle.gov.uk,Pendle,http://www.pendle.gov.uk,-2.25785800000000,BB12 9ED,2012-11-21,fhrs_5_en-GB,5,,FHRS,5
187791,,Gisburn Road,Barrowford,"Nelson, Lancashire",White Bear Inn,Pub/bar/nightclub,7843,0,,185715,5,,53.85317500000000,SD007,201,environmental.food@pendle.gov.uk,Pendle,http://www.pendle.gov.uk,-2.21552500000000,BB9 6EP,2013-04-09,fhrs_5_en-GB,5,,FHRS,5
187792,White Lee Head Farm,Lanehouse,Trawden,"Colne, Lancashire",White Lee Head Club,Pub/bar/nightclub,7843,5,,212927,5,,53.84076500000000,NS015,201,environmental.food@pendle.gov.uk,Pendle,http://www.pendle.gov.uk,-2.13360900000000,BB8 8SW,2014-06-04,fhrs_5_en-GB,5,,FHRS,5
187793,,Riley Street,Earby,"Barnoldswick, Lancashire",White Lion Hotel,Pub/bar/nightclub,7843,10,,159640,10,,53.91574300000000,NP024,201,environmental.food@pendle.gov.uk,Pendle,http://www.pendle.gov.uk,-2.14031900000000,BB18 6NX,2014-12-04,fhrs_3_en-GB,3,,FHRS,10
187794,,Norfolk Street,Nelson,Lancashire,Whitefield C P School,School/college/university,7845,5,,212929,5,,53.83706700000000,SB039,201,environmental.food@pendle.gov.uk,Pendle,http://www.pendle.gov.uk,-2.22147500000000,BB9 7SY,2014-05-13,fhrs_5_en-GB,5,,FHRS,5
187795,,Every Street,,"Nelson, Lancashire",Whitefield Infant and Nursery School,School/college/university,7845,0,,726952,0,,53.83611700000000,SB035,201,environmental.food@pendle.gov.uk,Pendle,http://www.pendle.gov.uk,-2.21987400000000,BB9 7HF,2014-11-26,fhrs_5_en-GB,5,,FHRS,0
187796,,Barley New Road,Barley,"Burnley, Lancashire",Whitehough Outdoor Education Centre,School/college/university,7845,10,,185699,5,,53.85950100000000,SB029,201,environmental.food@pendle.gov.uk,Pendle,http://www.pendle.gov.uk,-2.25726200000000,BB12 9LF,2013-06-11,fhrs_4_en-GB,4,,FHRS,5
187797,,206-208 Keighley Road,Colne,Lancashire,Whiteside's (Noyna) Ltd,Retailers - other,4613,5,,159583,5,,53.85903500000000,NK009,201,environmental.food@pendle.gov.uk,Pendle,http://www.pendle.gov.uk,-2.15084700000000,BB8 0PL,2014-03-19,fhrs_5_en-GB,5,,FHRS,5
187798,,39 Victoria Road,Earby,"Barnoldswick, Lancashire",Whitworths,Restaurant/Cafe/Canteen,1,,,708370,,,53.91619600000000,NT003,201,environmental.food@pendle.gov.uk,Pendle,http://www.pendle.gov.uk,-2.14432400000000,BB18 6UN,2014-06-26,fhrs_exempt_en-GB,Exempt,,FHRS,
187799,,21 Rainhall Road,Barnoldswick,Lancashire,Whitworth's Chemist,Restaurant/Cafe/Canteen,1,,,708369,,,53.91584200000000,NT002,201,environmental.food@pendle.gov.uk,Pendle,http://www.pendle.gov.uk,-2.18608400000000,BB18 5DR,2014-06-17,fhrs_exempt_en-GB,Exempt,,FHRS,
187800,,Pendle Rise Shopping Centre,Nelson,Lancashire,Wilkinsons,Retailers - other,4613,5,,212883,0,,53.83613700000000,SM002,201,environmental.food@pendle.gov.uk,Pendle,http://www.pendle.gov.uk,-2.21369000000000,BB9 9SL,2014-06-23,fhrs_5_en-GB,5,,FHRS,0
187801,Spring Bank Mill,Every Street,Nelson,Lancashire,William Reed Ltd,Restaurant/Cafe/Canteen,1,5,,212939,5,,53.83345500000000,SC007,201,environmental.food@pendle.gov.uk,Pendle,http://www.pendle.gov.uk,-2.22549700000000,BB9 7DA,2014-05-21,fhrs_5_en-GB,5,,FHRS,5
187802,,61-63 Victoria Road,Earby,"Barnoldswick, Lancashire",Wine Line,Retailers - other,4613,5,,570475,10,,53.91619600000000,NM059,201,environmental.food@pendle.gov.uk,Pendle,http://www.pendle.gov.uk,-2.14432400000000,BB18 6UN,2013-06-24,fhrs_3_en-GB,3,,FHRS,10
187803,,239 Leeds Road,Nelson,Lancashire,Wing Fa,Takeaway/sandwich shop,7844,5,,185804,5,,53.84312000000000,SJ035,201,environmental.food@pendle.gov.uk,Pendle,http://www.pendle.gov.uk,-2.20354300000000,BB9 8EJ,2014-12-18,fhrs_5_en-GB,5,,FHRS,5
187804,,Gisburn Road,Barrowford,"Nelson, Lancashire",Winston's Private Club,Pub/bar/nightclub,7843,5,,194344,10,,53.85317500000000,SS006,201,environmental.food@pendle.gov.uk,Pendle,http://www.pendle.gov.uk,-2.21552500000000,BB9 6EP,2012-01-10,fhrs_3_en-GB,3,,FHRS,10
187805,,14 Newchurch Village,Newchurch-In-Pendle,"Burnley, Lancashire",Witches Galore,Retailers - other,4613,5,,212845,5,,53.85084400000000,SR030,201,environmental.food@pendle.gov.uk,Pendle,http://www.pendle.gov.uk,-2.27023600000000,BB12 9JR,2014-06-24,fhrs_5_en-GB,5,,FHRS,5
187806,,Wycoller Road,Trawden,"Colne, Lancashire",Wycoller Tea Room,Restaurant/Cafe/Canteen,1,5,,159443,5,,53.85053600000000,NA020,201,environmental.food@pendle.gov.uk,Pendle,http://www.pendle.gov.uk,-2.10548800000000,BB8 8SY,2014-04-02,fhrs_5_en-GB,5,,FHRS,5
187807,,152 Wheatley Lane Road,Fence,"Burnley, Lancashire",Ye Old Sparrowhawk,Pub/bar/nightclub,7843,5,,185722,5,,53.84242000000000,SD024,201,environmental.food@pendle.gov.uk,Pendle,http://www.pendle.gov.uk,-2.24641200000000,BB12 9QG,2014-03-12,fhrs_5_en-GB,5,,FHRS,5
187808,,,,,Yes Chef Street Feast,Mobile caterer,7846,10,,578812,5,,,H040,201,environmental.food@pendle.gov.uk,Pendle,http://www.pendle.gov.uk,,,2013-08-07,fhrs_4_en-GB,4,,FHRS,5
187809,,17 Church Street,Barnoldswick,Lancashire,Yum Yums,Takeaway/sandwich shop,7844,5,,159466,5,,53.91589200000000,NA059,201,environmental.food@pendle.gov.uk,Pendle,http://www.pendle.gov.uk,-2.18856600000000,BB18 5UR,2014-12-09,fhrs_5_en-GB,5,,FHRS,5
187810,,40 Colne Road,Brierfield,"Nelson, Lancashire",Zakariyas Fresh Fillings,Takeaway/sandwich shop,7844,5,,447544,5,,53.82482700000000,SJ065,201,environmental.food@pendle.gov.uk,Pendle,http://www.pendle.gov.uk,-2.23450500000000,BB9 5NS,2014-12-01,fhrs_5_en-GB,5,,FHRS,5
187811,4 The Fountains,Gisburn Road,Barrowford,"Nelson, Lancashire",Zio Ristorante,Restaurant/Cafe/Canteen,1,10,,185674,5,,53.85079200000000,SA076,201,environmental.food@pendle.gov.uk,Pendle,http://www.pendle.gov.uk,-2.21618100000000,BB9 8LQ,2014-07-09,fhrs_4_en-GB,4,,FHRS,5
