,addressline1,addressline2,addressline3,addressline4,businessname,businesstype,businesstypeid,confidenceinmanagement,extractdate,fhrsid,hygiene,itemcount,latitude,localauthoritybusinessid,localauthoritycode,localauthorityemailaddress,localauthorityname,localauthoritywebsite,longitude,postcode,ratingdate,ratingkey,ratingvalue,returncode,schemetype,structural
197001,Worden Sports College Westfield Drive Leyland Preston Lancashire,,,,Academy@Worden,School/college/university,7845,0,,159295,0,,53.69397200000000,MIXED/881/11,205,envhealth@southribble.gov.uk,South Ribble,http://www.southribble.gov.uk,-2.71022200000000,PR25 1QX,2014-03-28,fhrs_5_en-GB,5,,FHRS,0
197002,Unit 1 143 Station Road Bamber Bridge Preston Lancashire,,,,Alborz,Takeaway/sandwich shop,7844,20,,13393,25,,53.73061900000000,04040/0143/0/000,205,envhealth@southribble.gov.uk,South Ribble,http://www.southribble.gov.uk,-2.66124400000000,PR5 6LA,2014-03-27,fhrs_0_en-GB,0,,FHRS,20
197003,Adjacent To Easthams Farm Cuerden Way Bamber Bridge Preston Lancashire,,,,Aldi,Retailers - supermarkets/hypermarkets,7840,0,,159167,0,,53.72303300000000,MIXED/228/07,205,envhealth@southribble.gov.uk,South Ribble,http://www.southribble.gov.uk,-2.66933900000000,PR5 6BJ,2011-03-15,fhrs_5_en-GB,5,,FHRS,0
197004,Aldi Stores Westgate Leyland Preston Lancashire,,,,Aldi,Retailers - supermarkets/hypermarkets,7840,0,,159234,5,,53.69203100000000,MIXED/60/06,205,envhealth@southribble.gov.uk,South Ribble,http://www.southribble.gov.uk,-2.70089100000000,PR25 2LX,2013-11-14,fhrs_5_en-GB,5,,FHRS,5
197005,0 Kingsfold Drive Penwortham Lancashire,,,,Alexanders,Mobile caterer,7846,0,,421561,5,,53.73393700000000,MIXED/744/10,205,envhealth@southribble.gov.uk,South Ribble,http://www.southribble.gov.uk,-2.71394900000000,,2012-06-30,fhrs_5_en-GB,5,,FHRS,0
197006,All Hallows Roman Catholic High School Crabtree Avenue Preston Lancashire,,,,All Hallows Roman Catholic High School,School/college/university,7845,5,,66428,5,,53.73952400000000,14940/4000/0/001,205,envhealth@southribble.gov.uk,South Ribble,http://www.southribble.gov.uk,-2.74141900000000,PR1 0LN,2014-11-24,fhrs_5_en-GB,5,,FHRS,5
197007,131 Station Road Bamber Bridge Lancashire,,,,American Chicken Hut,Takeaway/sandwich shop,7844,5,,589311,5,,53.73239900000000,MIXED/1210/13,205,envhealth@southribble.gov.uk,South Ribble,http://www.southribble.gov.uk,-2.66275700000000,PR5 6QP,2014-12-12,fhrs_5_en-GB,5,,FHRS,5
197008,0 Kingsfold Drive Penwortham Lancashire,,,,Americano,Mobile caterer,7846,0,,157929,0,,53.73393700000000,FOOD/644/10,205,envhealth@southribble.gov.uk,South Ribble,http://www.southribble.gov.uk,-2.71394900000000,,2012-07-09,fhrs_5_en-GB,5,,FHRS,5
197009,Anchor Inn 43 Croston Road Lostock Hall Lancashire,,,,Anchor Inn,Pub/bar/nightclub,7843,10,,159216,5,,53.72412500000000,MIXED/517/09,205,envhealth@southribble.gov.uk,South Ribble,http://www.southribble.gov.uk,-2.69381700000000,PR5 5LA,2014-10-19,fhrs_4_en-GB,4,,FHRS,5
197010,89 Liverpool Road Penwortham Preston Lancashire,,,,Andreas Fish   Chip Shop,Takeaway/sandwich shop,7844,10,,631770,5,,53.74876000000000,MIXED/1265/13,205,envhealth@southribble.gov.uk,South Ribble,http://www.southribble.gov.uk,-2.73484800000000,PR1 0QB,2014-01-27,fhrs_4_en-GB,4,,FHRS,5
197011,4 Glamis Road Leyland Lancashire,,,,Ann Smith,Retailers - other,4613,5,,589294,5,,53.68988100000000,FOOD/1161/13,205,envhealth@southribble.gov.uk,South Ribble,http://www.southribble.gov.uk,-2.67947300000000,PR25 4YP,2013-09-03,fhrs_5_en-GB,5,,FHRS,0
197012,97 Bannister Drive Leyland Preston Lancashire,,,,Anna's Plaice,Takeaway/sandwich shop,7844,5,,21064,5,,53.69729400000000,06760/0097/0/000,205,envhealth@southribble.gov.uk,South Ribble,http://www.southribble.gov.uk,-2.70476500000000,PR25 2GD,2014-07-23,fhrs_4_en-GB,4,,FHRS,10
197013,69 Hough Lane Leyland Preston Lancashire,,,,Antonello's,Restaurant/Cafe/Canteen,1,10,,27992,10,,53.69561700000000,08440/0069/0/000,205,envhealth@southribble.gov.uk,South Ribble,http://www.southribble.gov.uk,-2.69330200000000,PR25 2SA,2014-09-01,fhrs_3_en-GB,3,,FHRS,10
197014,171 - 177 Towngate Leyland Preston Lancashire,,,,Asda Stores,Retailers - supermarkets/hypermarkets,7840,5,,197599,5,,53.69412900000000,MIXED/948/11,205,envhealth@southribble.gov.uk,South Ribble,http://www.southribble.gov.uk,-2.69571600000000,PR25 2TE,2013-04-29,fhrs_5_en-GB,5,,FHRS,0
197015,Ashbridge School Lindle Lane Hutton Preston Lancashire,,,,Ashbridge School & Nursery Ltd,School/college/university,7845,5,,20640,5,,53.73534500000000,06240/4002/0/000,205,envhealth@southribble.gov.uk,South Ribble,http://www.southribble.gov.uk,-2.74427100000000,PR4 4AQ,2014-08-13,fhrs_5_en-GB,5,,FHRS,5
197016,Ashleigh Private Nursery Marsh Lane Longton Preston,,,,Ashleigh Nursery,Hospitals/Childcare/Caring Premises,5,0,,51477,5,,53.72522700000000,11530/4001/0/000,205,envhealth@southribble.gov.uk,South Ribble,http://www.southribble.gov.uk,-2.79427300000000,PR4 5ZJ,2014-03-31,fhrs_5_en-GB,5,,FHRS,0
197017,Unit 1 South Rings Business Park Craven Drive Bamber Bridge Preston Lancashire,,,,Autograph The Food People,Restaurant/Cafe/Canteen,1,0,,692016,0,,53.72062100000000,MIXED/1343/14,205,envhealth@southribble.gov.uk,South Ribble,http://www.southribble.gov.uk,-2.67139200000000,PR5 6BZ,2014-08-08,fhrs_5_en-GB,5,,FHRS,0
197018,Avant Gardens Wigan Road Leyland Preston,,,,Avant Gardens,Restaurant/Cafe/Canteen,1,10,,42638,5,,53.68329700000000,10510/4000/0/007,205,envhealth@southribble.gov.uk,South Ribble,http://www.southribble.gov.uk,-2.67705100000000,PR25 5DA,2014-01-21,fhrs_4_en-GB,4,,FHRS,5
197019,Balshaws C Of E High School Church Road Leyland Lancashire,,,,Balshaws CE High School,School/college/university,7845,5,,548840,0,,53.68761300000000,MIXED/1145/13,205,envhealth@southribble.gov.uk,South Ribble,http://www.southribble.gov.uk,-2.68623600000000,PR25 3AH,2013-05-14,fhrs_5_en-GB,5,,FHRS,5
197020,Irongate Ground Brownedge Road Bamber Bridge Preston,,,,Bamber Bridge Football Club,Pub/bar/nightclub,7843,5,,7236,10,,53.72793600000000,02850/2001/2/000,205,envhealth@southribble.gov.uk,South Ribble,http://www.southribble.gov.uk,-2.67484300000000,PR5 6UX,2014-04-24,fhrs_4_en-GB,4,,FHRS,5
197021,Bamber Bridge Methodist Church Station Road Bamber Bridge Preston Lancashire,,,,Bamber Bridge Methodist Church,Restaurant/Cafe/Canteen,1,5,,492857,5,,53.72508600000000,MIXED/1080/12,205,envhealth@southribble.gov.uk,South Ribble,http://www.southribble.gov.uk,-2.66046000000000,PR5 6ED,2014-09-02,fhrs_4_en-GB,4,,FHRS,10
197022,Bangla Fusion Liverpool Old Road Much Hoole Preston Lancashire,,,,Bangla Fusion Wine Bar Restaurant,Restaurant/Cafe/Canteen,1,5,,518635,5,,53.69490400000000,MIXED/1131/13,205,envhealth@southribble.gov.uk,South Ribble,http://www.southribble.gov.uk,-2.81505700000000,PR4 5JQ,2014-12-15,fhrs_5_en-GB,5,,FHRS,5
197023,Barrisle Nursing Home 17 Greenside Gardens Leyland Preston Lancashire,,,,Barrisle Nursing Home,School/college/university,7845,10,,157921,10,,53.68680500000000,FOOD/218/07,205,envhealth@southribble.gov.uk,South Ribble,http://www.southribble.gov.uk,-2.72875700000000,PR26 7SG,2014-04-28,fhrs_3_en-GB,3,,FHRS,5
197024,70 Walton Summit Centre Banksfield Place Bamber Bridge Preston,,,,Batleys Cash & Carry,Distributors/Transporters,7,5,,616866,10,,53.72150500000000,04160/2001/2/000,205,envhealth@southribble.gov.uk,South Ribble,http://www.southribble.gov.uk,-2.65140200000000,PR5 8AD,2013-11-25,fhrs_4_en-GB,4,,FHRS,5
197025,Canteen Baxi Partnership Limited Club Street Bamber Bridge Preston,,,,Baxi Staff Restaurant,Restaurant/Cafe/Canteen,1,5,,7342,5,,53.72312200000000,02980/4001/0/001,205,envhealth@southribble.gov.uk,South Ribble,http://www.southribble.gov.uk,-2.65977700000000,PR5 6FN,2014-04-03,fhrs_4_en-GB,4,,FHRS,10
197026,Lutra House Dodd Way Walton Summit Industrial Estate Bamber Bridge Preston Lancashire,,,,Baxterstorey Caterers,Other catering premises,7841,5,,384891,5,,53.71884800000000,MIXED/1012/12,205,envhealth@southribble.gov.uk,South Ribble,http://www.southribble.gov.uk,-2.65080000000000,PR5 8BX,2014-03-12,fhrs_5_en-GB,5,,FHRS,5
197027,Beeston Manor Country Hotel Quaker Brook Lane Samlesbury Preston Lancashire,,,,Beeston Manor,Hotel/bed & breakfast/guest house,7842,5,,159282,5,,53.74338100000000,MIXED/840/11,205,envhealth@southribble.gov.uk,South Ribble,http://www.southribble.gov.uk,-2.60008200000000,PR5 0RA,2014-09-04,fhrs_5_en-GB,5,,FHRS,5
197028,Beijing Restaurant 11 Chapel Brow Leyland Lancashire,,,,Beijing Restaurant,Restaurant/Cafe/Canteen,1,5,,159267,5,,53.69722000000000,MIXED/777/11,205,envhealth@southribble.gov.uk,South Ribble,http://www.southribble.gov.uk,-2.68963300000000,PR25 3NH,2014-11-19,fhrs_5_en-GB,5,,FHRS,5
197029,83 Pope Lane Penwortham Lancashire,,,,Black Bull,Pub/bar/nightclub,7843,5,,589315,5,,53.73704300000000,MIXED/523/09,205,envhealth@southribble.gov.uk,South Ribble,http://www.southribble.gov.uk,-2.72086300000000,PR1 9BA,2013-09-10,fhrs_5_en-GB,5,,FHRS,0
197030,Black Horse Hotel Gregson Lane Hoghton Preston Lancashire,,,,Black Horse,Pub/bar/nightclub,7843,10,,534630,15,,53.73247900000000,MIXED/1152/13,205,envhealth@southribble.gov.uk,South Ribble,http://www.southribble.gov.uk,-2.61572200000000,PR5 0ED,2014-09-25,fhrs_2_en-GB,2,,FHRS,15
197031,Blue Ocean Indian Takeaway (Unit 3) Chorley Road Walton-Le-Dale Preston Lancashire,,,,Blue Ocean Indian Cuisine Balti House,Takeaway/sandwich shop,7844,5,,159158,5,,53.74521500000000,MIXED/157/07,205,envhealth@southribble.gov.uk,South Ribble,http://www.southribble.gov.uk,-2.67266300000000,PR5 4JN,2013-11-28,fhrs_5_en-GB,5,,FHRS,5
197032,47 Cann Bridge Street Higher Walton Preston Lancashire,,,,Bon Appetit,Restaurant/Cafe/Canteen,1,0,,16788,5,,53.74277200000000,05290/0047/0/000,205,envhealth@southribble.gov.uk,South Ribble,http://www.southribble.gov.uk,-2.64292100000000,PR5 4DJ,2013-12-18,fhrs_5_en-GB,5,,FHRS,5
197033,Booths - General Store Millbrook Way Penwortham Preston,,,,Booths Supermarkets,Retailers - supermarkets/hypermarkets,7840,5,,70992,5,,53.73602000000000,16060/4000/0/001,205,envhealth@southribble.gov.uk,South Ribble,http://www.southribble.gov.uk,-2.73100300000000,PR1 0XW,2015-01-26,fhrs_5_en-GB,5,,FHRS,5
197034,Booths Supermarkets Liverpool Road Longton Preston,,,,Booths Supermarkets,Retailers - supermarkets/hypermarkets,7840,5,,51269,10,,53.72622500000000,11470/4000/0/003,205,envhealth@southribble.gov.uk,South Ribble,http://www.southribble.gov.uk,-2.79004800000000,PR4 5AU,2013-10-11,fhrs_4_en-GB,4,,FHRS,0
197035,1 Todd Lane South Lostock Hall Preston,,,,Briarwood Rest Home,Hospitals/Childcare/Caring Premises,5,10,,60584,10,,53.72682500000000,13230/0001/0/000,205,envhealth@southribble.gov.uk,South Ribble,http://www.southribble.gov.uk,-2.68222100000000,PR5 5XD,2014-03-19,fhrs_3_en-GB,3,,FHRS,5
197036,4 New Lane Penwortham Preston,,,,Bright Sparks Day Nursery,Hospitals/Childcare/Caring Premises,5,5,,71310,5,,53.73910300000000,16170/0004/0/000,205,envhealth@southribble.gov.uk,South Ribble,http://www.southribble.gov.uk,-2.70848200000000,PR1 9JE,2014-10-06,fhrs_5_en-GB,5,,FHRS,5
197037,336 Station Road Bamber Bridge Preston,,,,Brindle Brothers,Retailers - other,4613,10,,13403,10,,53.72385800000000,04040/0336/0/000,205,envhealth@southribble.gov.uk,South Ribble,http://www.southribble.gov.uk,-2.66159200000000,PR5 6EH,2014-03-07,fhrs_3_en-GB,3,,FHRS,10
197038,Broadfield House Home For The Aged Broadfield Walk Leyland Preston,,,,Broadfield House Home For The Aged,Hospitals/Childcare/Caring Premises,5,0,,23894,0,,53.69270800000000,07070/4000/0/001,205,envhealth@southribble.gov.uk,South Ribble,http://www.southribble.gov.uk,-2.70656600000000,PR25 1NB,2014-10-28,fhrs_5_en-GB,5,,FHRS,5
197039,Simeon House Gough Lane Bamber Bridge Preston Lancashire,,,,Brookhaven Nursing Home,Hospitals/Childcare/Caring Premises,5,5,,159187,5,,53.71570700000000,MIXED/370/08,205,envhealth@southribble.gov.uk,South Ribble,http://www.southribble.gov.uk,-2.63978100000000,PR5 6AQ,2014-09-11,fhrs_5_en-GB,5,,FHRS,5
197040,Brownedge St Marys Rc School Station Road Bamber Bridge Lancashire,,,,Brownedge St. Marys Rc School,School/college/university,7845,5,,13407,5,,53.73302800000000,04040/4000/0/002,205,envhealth@southribble.gov.uk,South Ribble,http://www.southribble.gov.uk,-2.66110000000000,PR5 6PB,2014-09-17,fhrs_5_en-GB,5,,FHRS,0
197041,Ribblesdale Service Station Liverpool Road Much Hoole Preston Lancashire,,,,Bryn Cottage,Restaurant/Cafe/Canteen,1,5,,730634,5,,53.70406000000000,MIXED/1390/15,205,envhealth@southribble.gov.uk,South Ribble,http://www.southribble.gov.uk,-2.80076700000000,PR4 5JX,2014-10-29,fhrs_5_en-GB,5,,FHRS,5
197042,Bukhara Preston New Road Samlesbury Preston Lancashire,,,,Bukhara Restaurant,Restaurant/Cafe/Canteen,1,5,,159274,5,,53.76864700000000,MIXED/808/11,205,envhealth@southribble.gov.uk,South Ribble,http://www.southribble.gov.uk,-2.57977900000000,PR5 0UP,2014-11-26,fhrs_5_en-GB,5,,FHRS,5
197043,Burger King Restaurant Craven Drive Bamber Bridge Preston Lancashire,,,,Burger King,Restaurant/Cafe/Canteen,1,0,,467736,5,,53.72062100000000,MIXED/1070/12,205,envhealth@southribble.gov.uk,South Ribble,http://www.southribble.gov.uk,-2.67139200000000,PR5 6BZ,2014-04-24,fhrs_5_en-GB,5,,FHRS,5
197044,Busy Bees 1 Emily Street Lostock Hall Preston,,,,Busy Bees,Hospitals/Childcare/Caring Premises,5,5,,54417,5,,53.72759700000000,12270/0001/0/000,205,envhealth@southribble.gov.uk,South Ribble,http://www.southribble.gov.uk,-2.69335900000000,PR5 5SZ,2014-12-05,fhrs_5_en-GB,5,,FHRS,5
197045,Kindercare School Lane Bamber Bridge Preston,,,,Busy Bees Nursery,Hospitals/Childcare/Caring Premises,5,5,,9256,5,,53.70916100000000,03880/2003/0/000,205,envhealth@southribble.gov.uk,South Ribble,http://www.southribble.gov.uk,-2.70738700000000,PR26 6QE,2014-11-28,fhrs_5_en-GB,5,,FHRS,5
197046,2 New Lane Penwortham Preston Lancashire,,,,Butties 2 Go,Takeaway/sandwich shop,7844,10,,71309,5,,53.73910300000000,16170/0002/0/000,205,envhealth@southribble.gov.uk,South Ribble,http://www.southribble.gov.uk,-2.70848200000000,PR1 9JE,2013-11-07,fhrs_4_en-GB,4,,FHRS,5
197047,4 Hope Terrace Lostock Hall Preston Lancashire,,,,Cafe D'Licious,Restaurant/Cafe/Canteen,1,10,,637918,0,,53.72585700000000,MIXED/1277/14,205,envhealth@southribble.gov.uk,South Ribble,http://www.southribble.gov.uk,-2.69278400000000,PR5 5RU,2014-05-13,fhrs_4_en-GB,4,,FHRS,5
197048,Cafe Market Hall Northcote Street Leyland Lancashire,,,,Cafe Noir,Restaurant/Cafe/Canteen,1,5,,159157,10,,53.69543900000000,MIXED/149/06,205,envhealth@southribble.gov.uk,South Ribble,http://www.southribble.gov.uk,-2.69457200000000,PR25 2AA,2013-03-14,fhrs_4_en-GB,4,,FHRS,5
197049,Calvert House Mill Lane Leyland Lancashire,,,,Calvert House,Hospitals/Childcare/Caring Premises,5,0,,693789,0,,53.69081700000000,MIXED/1330/14,205,envhealth@southribble.gov.uk,South Ribble,http://www.southribble.gov.uk,-2.71480300000000,PR25 1HY,2014-08-05,fhrs_5_en-GB,5,,FHRS,5
197050,Campbells Ltd Watkin Lane Lostock Hall Preston,,,,Campbells Caravans Preston,Restaurant/Cafe/Canteen,1,5,,60929,5,,53.72557900000000,13330/4000/0/002,205,envhealth@southribble.gov.uk,South Ribble,http://www.southribble.gov.uk,-2.69096100000000,PR5 5RD,2014-09-03,fhrs_5_en-GB,5,,FHRS,0
197051,4 Broad Croft Longton Preston Lancashire,,,,Candy Bar Occassions,Mobile caterer,7846,5,,732459,5,,53.72983100000000,FOOD/1394/15,205,envhealth@southribble.gov.uk,South Ribble,http://www.southribble.gov.uk,-2.78567400000000,PR4 5NN,2015-01-26,fhrs_5_en-GB,5,,FHRS,5
197052,16 Chapel Brow Leyland Lancashire,,,,Capsicum,Takeaway/sandwich shop,7844,10,,159262,10,,53.69747000000000,MIXED/751/10,205,envhealth@southribble.gov.uk,South Ribble,http://www.southribble.gov.uk,-2.68991000000000,PR25 3NE,2013-11-07,fhrs_3_en-GB,3,,FHRS,10
197053,10 Cann Bridge Street Higher Walton Preston Lancashire,,,,Carr Manor Nursery School,Hospitals/Childcare/Caring Premises,5,5,,16779,5,,53.74277200000000,05290/0011/0/000,205,envhealth@southribble.gov.uk,South Ribble,http://www.southribble.gov.uk,-2.64292100000000,PR5 4DJ,2014-03-27,fhrs_5_en-GB,5,,FHRS,5
197054,Carr Manor Nursery School St Patricks Place Walton-Le-Dale Preston Lancashire,,,,Carr Manor Nursery School,Hospitals/Childcare/Caring Premises,5,5,,159185,5,,53.74610200000000,MIXED/355/08,205,envhealth@southribble.gov.uk,South Ribble,http://www.southribble.gov.uk,-2.66508100000000,PR5 4HN,2014-07-04,fhrs_5_en-GB,5,,FHRS,5
197055,254 Chapel Lane New Longton Preston Lancashire,,,,Chapel Lane Day Nursery,Hospitals/Childcare/Caring Premises,5,5,,159237,0,,53.72637000000000,MIXED/608/10,205,envhealth@southribble.gov.uk,South Ribble,http://www.southribble.gov.uk,-2.75213000000000,PR4 4AB,2014-01-23,fhrs_4_en-GB,4,,FHRS,10
197056,17 Chapel Brow Leyland Lancashire,,,,Charcoal Grill,Takeaway/sandwich shop,7844,5,,159260,5,,53.69722000000000,MIXED/748/10,205,envhealth@southribble.gov.uk,South Ribble,http://www.southribble.gov.uk,-2.68963300000000,PR25 3NH,2014-03-27,fhrs_4_en-GB,4,,FHRS,10
197057,Charnock Farm Cafe Wigan Road Leyland Preston Lancashire,,,,Charnock Farm,Restaurant/Cafe/Canteen,1,5,,706568,5,,53.68356300000000,MIXED/1322/14,205,envhealth@southribble.gov.uk,South Ribble,http://www.southribble.gov.uk,-2.67773600000000,PR25 5DA,2014-08-20,fhrs_5_en-GB,5,,FHRS,5
197058,3/4 Market Hall Northcote Street Leyland Preston,,,,Cheese Cabin,Retailers - other,4613,10,,81147,5,,53.69543900000000,19772/2003/2/000,205,envhealth@southribble.gov.uk,South Ribble,http://www.southribble.gov.uk,-2.69457200000000,PR25 2AA,2013-07-02,fhrs_4_en-GB,4,,FHRS,5
197059,9 Golden Hill Lane Leyland Preston Lancashire,,,,Chesters Chicken and Pizza,Takeaway/sandwich shop,7844,10,,159193,10,,53.69803200000000,MIXED/422/08,205,envhealth@southribble.gov.uk,South Ribble,http://www.southribble.gov.uk,-2.69061600000000,PR25 3NP,2014-03-24,fhrs_3_en-GB,3,,FHRS,10
197060,Chestnut Grove Rest Home Todd Lane South St Catherine's Way Lostock Hall Preston,,,,Chestnut Grove Rest Home,Hospitals/Childcare/Caring Premises,5,5,,81088,5,,53.72322200000000,19738/0100/2/000,205,envhealth@southribble.gov.uk,South Ribble,http://www.southribble.gov.uk,-2.68037500000000,PR5 5XE,2014-05-06,fhrs_4_en-GB,4,,FHRS,10
197061,39 Hough Lane Leyland Preston Lancashire,,,,Chicken Barbecue,Takeaway/sandwich shop,7844,10,,333359,5,,53.69502100000000,MIXED/120/06,205,envhealth@southribble.gov.uk,South Ribble,http://www.southribble.gov.uk,-2.69533700000000,PR25 2SB,2012-12-03,fhrs_4_en-GB,4,,FHRS,5
197062,68 Leyland Lane Leyland Lancashire,,,,Chicken Deli/Welcome To Barbados,Takeaway/sandwich shop,7844,5,,159155,5,,53.69853000000000,MIXED/134/06,205,envhealth@southribble.gov.uk,South Ribble,http://www.southribble.gov.uk,-2.71302500000000,PR25 1XB,2013-06-03,fhrs_5_en-GB,5,,FHRS,5
197063,Coffee Shop Worden Park Leyland Lancashire,,,,Choco - Lotty,Restaurant/Cafe/Canteen,1,0,,333366,0,,53.68238000000000,MIXED/991/12,205,envhealth@southribble.gov.uk,South Ribble,http://www.southribble.gov.uk,-2.70212400000000,PR25 1DJ,2013-10-16,fhrs_5_en-GB,5,,FHRS,0
197064,68 Hough Lane Leyland Lancashire,,,,Chop Suey House,Takeaway/sandwich shop,7844,5,,616867,5,,53.69561700000000,MIXED/1264/13,205,envhealth@southribble.gov.uk,South Ribble,http://www.southribble.gov.uk,-2.69330200000000,PR25 2SA,2013-11-21,fhrs_5_en-GB,5,,FHRS,5
197065,10 Hawksbury Drive Penwortham Preston Lancashire,,,,Clarkes Butty Bar,Takeaway/sandwich shop,7844,20,,698593,10,,53.73629900000000,MIXED/796/11,205,envhealth@southribble.gov.uk,South Ribble,http://www.southribble.gov.uk,-2.71898600000000,PR1 9EJ,2014-08-12,fhrs_1_en-GB,1,,FHRS,15
197066,7 Worden Lane Leyland Lancashire,,,,Clough House Rest Home,Hospitals/Childcare/Caring Premises,5,0,,159248,0,,53.68803800000000,MIXED/677/10,205,envhealth@southribble.gov.uk,South Ribble,http://www.southribble.gov.uk,-2.69832600000000,PR25 3EL,2014-09-02,fhrs_5_en-GB,5,,FHRS,5
197067,104 - 106 Towngate Leyland Preston Lancashire,,,,Cod's Plaice/Mumbai Masala,Takeaway/sandwich shop,7844,5,,692015,5,,53.69123500000000,MIXED/1314/14,205,envhealth@southribble.gov.uk,South Ribble,http://www.southribble.gov.uk,-2.69722800000000,PR25 2LR,2014-08-14,fhrs_5_en-GB,5,,FHRS,5
197068,Gregson Lane Community Centre Gregson Lane Hoghton Preston Lancashire,,,,Community Cafe,Retailers - other,4613,5,,159291,5,,53.73457500000000,MIXED/870/11,205,envhealth@southribble.gov.uk,South Ribble,http://www.southribble.gov.uk,-2.62067900000000,PR5 0DP,2013-10-15,fhrs_4_en-GB,4,,FHRS,10
197069,Fairhaven Housing Association Crownlee Penwortham Preston,,,,Community Centre,Other catering premises,7841,5,,333358,5,,53.73952600000000,15020/2000/2/000,205,envhealth@southribble.gov.uk,South Ribble,http://www.southribble.gov.uk,-2.73961400000000,PR1 0PA,2012-03-20,fhrs_5_en-GB,5,,FHRS,5
197070,Coote Lane Residential Home Coote Lane Lostock Hall Preston,,,,Coote Lane Residential Home,Hospitals/Childcare/Caring Premises,5,5,,53949,5,,53.72481000000000,12150/4000/0/000,205,envhealth@southribble.gov.uk,South Ribble,http://www.southribble.gov.uk,-2.69970900000000,PR5 5JE,2014-08-18,fhrs_5_en-GB,5,,FHRS,5
197071,Cop Lane Ce School Cop Lane Penwortham Preston Lancashire,,,,Cop Lane CE School,School/college/university,7845,0,,66269,0,,53.74255300000000,14910/4000/0/003,205,envhealth@southribble.gov.uk,South Ribble,http://www.southribble.gov.uk,-2.72819000000000,PR1 9AE,2014-12-01,fhrs_5_en-GB,5,,FHRS,0
197072,The Old Police Station Golden Hill Leyland Lancashire,,,,Coppers Tea Rooms,Restaurant/Cafe/Canteen,1,5,,159280,5,,53.69811700000000,MIXED/837/11,205,envhealth@southribble.gov.uk,South Ribble,http://www.southribble.gov.uk,-2.68839100000000,PR25 3NN,2013-02-21,fhrs_5_en-GB,5,,FHRS,5
197073,Costa Preston New Road Mellor Brook Lancashire,,,,Costa,Restaurant/Cafe/Canteen,1,5,,705049,5,,,MIXED/1355/14,205,envhealth@southribble.gov.uk,South Ribble,http://www.southribble.gov.uk,,,2014-10-01,fhrs_5_en-GB,5,,FHRS,0
197074,Tesco Direct Unit 7 The Capitol Centre Capitol Way Walton-Le-Dale Preston Lancashire,,,,Costa,Restaurant/Cafe/Canteen,1,0,,159222,0,,53.74882700000000,MIXED/538/09,205,envhealth@southribble.gov.uk,South Ribble,http://www.southribble.gov.uk,-2.67771000000000,PR5 4AW,2013-10-08,fhrs_5_en-GB,5,,FHRS,0
197075,65 School Lane Leyland Preston,,,,Costcutter,Retailers - other,4613,20,,32572,10,,53.69734400000000,09800/0065/0/000,205,envhealth@southribble.gov.uk,South Ribble,http://www.southribble.gov.uk,-2.69926800000000,PR25 2TU,2014-09-03,fhrs_1_en-GB,1,,FHRS,0
197076,Coupe Green County Primary School Coupe Green Hoghton Preston Lancashire,,,,Coupe Green County Primary School,School/college/university,7845,0,,17191,0,,53.74349600000000,05650/4000/0/000,205,envhealth@southribble.gov.uk,South Ribble,http://www.southribble.gov.uk,-2.61971900000000,PR5 0JR,2013-07-11,fhrs_5_en-GB,5,,FHRS,5
197077,9 Fossdale Moss Moss Side Leyland Lancashire,,,,Creative Cakes,Manufacturers/packers,7839,0,,657823,0,,53.69573400000000,FOOD/1310/14,205,envhealth@southribble.gov.uk,South Ribble,http://www.southribble.gov.uk,-2.72654800000000,PR26 7AS,2014-04-10,fhrs_5_en-GB,5,,FHRS,5
197078,310 Leyland Lane Leyland Preston Lancashire,,,,Crispy Fried,Takeaway/sandwich shop,7844,10,,479146,15,,53.69109800000000,MIXED/1110/12,205,envhealth@southribble.gov.uk,South Ribble,http://www.southribble.gov.uk,-2.71733700000000,PR25 1UL,2014-11-28,fhrs_2_en-GB,2,,FHRS,10
197079,220 Liverpool Road Longton Preston Lancashire,,,,Croft Bakery Ltd,Other catering premises,7841,10,,423655,10,,53.71814000000000,MIXED/1051/12,205,envhealth@southribble.gov.uk,South Ribble,http://www.southribble.gov.uk,-2.79217000000000,PR4 5YB,2013-07-22,fhrs_3_en-GB,3,,FHRS,10
197080,Cuerden Church School Station Road Bamber Bridge Preston Lancashire,,,,Cuerden Church School,School/college/university,7845,0,,157922,0,,53.72508600000000,FOOD/305/08,205,envhealth@southribble.gov.uk,South Ribble,http://www.southribble.gov.uk,-2.66046000000000,PR5 6ED,2013-11-05,fhrs_5_en-GB,5,,FHRS,0
197081,Cuerden Grange Nursing Home 414 Station Road Bamber Bridge Preston,,,,Cuerden Grange Nursing Home,Hospitals/Childcare/Caring Premises,5,5,,13405,10,,53.72154200000000,04040/0414/0/000,205,envhealth@southribble.gov.uk,South Ribble,http://www.southribble.gov.uk,-2.66423800000000,PR5 6JN,2014-07-24,fhrs_4_en-GB,4,,FHRS,5
197082,Cuerden Church School Station Road Bamber Bridge Preston Lancashire,,,,Cuerden Nursery School,Hospitals/Childcare/Caring Premises,5,0,,159255,0,,53.72508600000000,MIXED/717/10,205,envhealth@southribble.gov.uk,South Ribble,http://www.southribble.gov.uk,-2.66046000000000,PR5 6ED,2013-11-05,fhrs_5_en-GB,5,,FHRS,0
197083,Cumberland School Church Road Bamber Bridge Preston Lancashire,,,,Cumberland School,School/college/university,7845,5,,679785,5,,53.72096500000000,FOOD/1302/14,205,envhealth@southribble.gov.uk,South Ribble,http://www.southribble.gov.uk,-2.66130400000000,PR5 6EP,2014-06-05,fhrs_5_en-GB,5,,FHRS,5
197084,63 Brindle Road Bamber Bridge Preston,,,,D J and C Murphy,Retailers - other,4613,10,,7201,5,,53.73265500000000,02800/0063/0/000,205,envhealth@southribble.gov.uk,South Ribble,http://www.southribble.gov.uk,-2.65208900000000,PR5 6YH,2013-10-22,fhrs_4_en-GB,4,,FHRS,5
197085,Daisy Chain Day Nursery Hastings Road Leyland Preston,,,,Daisy Chain Day Care Nursery Ltd,Hospitals/Childcare/Caring Premises,5,10,,27760,5,,53.69890900000000,08190/2004/2/000,205,envhealth@southribble.gov.uk,South Ribble,http://www.southribble.gov.uk,-2.68976700000000,PR25 3SP,2014-11-20,fhrs_2_en-GB,2,,FHRS,15
197086,32 Church Terrace Blackburn Road Higher Walton Preston Lancashire,,,,Darione,Retailers - other,4613,10,,606956,10,,53.74089200000000,MIXED/1234/13,205,envhealth@southribble.gov.uk,South Ribble,http://www.southribble.gov.uk,-2.64152800000000,PR5 4DY,2013-10-31,fhrs_3_en-GB,3,,FHRS,10
197087,Darios Pizza 240A Station Road Bamber Bridge Preston Lancashire,,,,Dario's,Takeaway/sandwich shop,7844,10,,13398,10,,53.72658600000000,04040/0240/A/000,205,envhealth@southribble.gov.uk,South Ribble,http://www.southribble.gov.uk,-2.66077100000000,PR5 6EA,2014-08-26,fhrs_3_en-GB,3,,FHRS,5
197088,0 Flensburg Way Farington Moss Lancashire,,,,Debis,Mobile caterer,7846,10,,159160,5,,53.70881800000000,MIXED/170/07,205,envhealth@southribble.gov.uk,South Ribble,http://www.southribble.gov.uk,-2.71650900000000,,2013-08-29,fhrs_4_en-GB,4,,FHRS,5
197089,0 Cuerden Way Bamber Bridge Lancashire,,,,Dee's Lunchbox,Mobile caterer,7846,5,,360684,10,,53.72334700000000,MIXED/912/11,205,envhealth@southribble.gov.uk,South Ribble,http://www.southribble.gov.uk,-2.66974200000000,,2014-02-04,fhrs_4_en-GB,4,,FHRS,5
197090,50A School Lane Bamber Bridge Preston Lancashire,,,,Deihi,Takeaway/sandwich shop,7844,10,,9255,15,,53.73689600000000,03880/0050/A/000,205,envhealth@southribble.gov.uk,South Ribble,http://www.southribble.gov.uk,-2.65903800000000,PR5 6QE,2014-09-23,fhrs_2_en-GB,2,,FHRS,10
197091,STREET RECORD Centurion Way Farington Lancashire,,,,Della's Deli,Mobile caterer,7846,5,,485493,5,,,MIXED/1062/12,205,envhealth@southribble.gov.uk,South Ribble,http://www.southribble.gov.uk,,,2014-10-21,fhrs_5_en-GB,5,,FHRS,5
197092,STREET RECORD Clydesdale Place Moss Side Industrial Estate Leyland Lancashire,,,,Della's Deli,Mobile caterer,7846,5,,611159,5,,,MIXED/1247/13,205,envhealth@southribble.gov.uk,South Ribble,http://www.southribble.gov.uk,,,2013-11-05,fhrs_5_en-GB,5,,FHRS,5
197093,Dr Oetker (UK) Limited 20 Marathon Place Moss Side Industrial Estate Leyland Lancashire,,,,Dine,Restaurant/Cafe/Canteen,1,0,,623135,0,,53.70200300000000,MIXED/1239/13,205,envhealth@southribble.gov.uk,South Ribble,http://www.southribble.gov.uk,-2.72599000000000,PR26 7QN,2013-12-09,fhrs_5_en-GB,5,,FHRS,0
197094,253 Station Road Bamber Bridge Preston Lancashire,,,,Diyab Spice,Takeaway/sandwich shop,7844,10,,159200,10,,53.72645400000000,MIXED/464/08,205,envhealth@southribble.gov.uk,South Ribble,http://www.southribble.gov.uk,-2.66023900000000,PR5 6LE,2013-09-25,fhrs_3_en-GB,3,,FHRS,10
197095,Dolphin Inn Marsh Lane Longton Preston Lancashire,,,,Dolphin Inn,Restaurant/Cafe/Canteen,1,5,,553399,5,,53.72412000000000,MIXED/1175/13,205,envhealth@southribble.gov.uk,South Ribble,http://www.southribble.gov.uk,-2.81578900000000,PR4 5JY,2013-05-24,fhrs_5_en-GB,5,,FHRS,5
197096,Domino Pizza 3 Churchill Way Leyland Preston,,,,Domino Pizza,Takeaway/sandwich shop,7844,5,,81082,5,,53.69766300000000,19734/0006/0/000,205,envhealth@southribble.gov.uk,South Ribble,http://www.southribble.gov.uk,-2.69073100000000,PR25 3LZ,2014-03-20,fhrs_5_en-GB,5,,FHRS,5
197097,148 Station Road Bamber Bridge Preston Lancashire,,,,Domino's Pizza,Takeaway/sandwich shop,7844,5,,159286,5,,53.72927100000000,MIXED/855/11,205,envhealth@southribble.gov.uk,South Ribble,http://www.southribble.gov.uk,-2.66123800000000,PR5 6TP,2014-09-11,fhrs_5_en-GB,5,,FHRS,0
197098,Dowry House Private Nursery St. Marys Road Bamber Bridge Preston,,,,Dowry House Private Nursery,Pub/bar/nightclub,7843,5,,13372,5,,53.72986700000000,04020/4000/0/001,205,envhealth@southribble.gov.uk,South Ribble,http://www.southribble.gov.uk,-2.66388400000000,PR5 6TE,2014-07-28,fhrs_5_en-GB,5,,FHRS,5
197099,Dunbia Preston Limited Church Road Bamber Bridge Preston Lancashire,,,,Dunbia,Restaurant/Cafe/Canteen,1,10,,159207,10,,53.74584200000000,MIXED/486/09,205,envhealth@southribble.gov.uk,South Ribble,http://www.southribble.gov.uk,-2.63118600000000,PR5 6AL,2014-07-23,fhrs_3_en-GB,3,,FHRS,10
197100,Dunelm (Soft Furnishings) Limited Capitol Centre Walton-Le-Dale Preston,,,,Dunelm Mill Shop,Restaurant/Cafe/Canteen,1,5,,77928,5,,53.74882700000000,18420/0000/2/000,205,envhealth@southribble.gov.uk,South Ribble,http://www.southribble.gov.uk,-2.67771000000000,PR5 4AW,2014-09-02,fhrs_5_en-GB,5,,FHRS,0
197101,Dunkirk Hall Dunkirk Lane Moss Side Leyland Lancashire,,,,Dunkirk Hall,Pub/bar/nightclub,7843,5,,589306,5,,53.69139400000000,MIXED/1188/13,205,envhealth@southribble.gov.uk,South Ribble,http://www.southribble.gov.uk,-2.72335400000000,PR26 7SW,2013-09-05,fhrs_5_en-GB,5,,FHRS,5
197102,Eagle and Child Hotel 30 Church Road Leyland Lancashire,,,,Eagle and Child,Pub/bar/nightclub,7843,0,,703250,0,,53.68904500000000,MIXED/1311/14,205,envhealth@southribble.gov.uk,South Ribble,http://www.southribble.gov.uk,-2.69363300000000,PR25 3AA,2014-08-12,fhrs_5_en-GB,5,,FHRS,5
197103,131A Bent Lane Leyland Preston Lancashire,,,,Ed's Plaice,Takeaway/sandwich shop,7844,10,,21144,5,,53.69340800000000,06870/0131/A/000,205,envhealth@southribble.gov.uk,South Ribble,http://www.southribble.gov.uk,-2.68361900000000,PR25 4HS,2013-11-18,fhrs_4_en-GB,4,,FHRS,5
197104,Ash Joinery Saunders Lane Hutton Preston Lancashire,,,,Elizabeth Saunders,Hospitals/Childcare/Caring Premises,5,10,,534625,10,,53.72825700000000,MIXED/1124/13,205,envhealth@southribble.gov.uk,South Ribble,http://www.southribble.gov.uk,-2.75795400000000,PR4 5SA,2014-09-05,fhrs_4_en-GB,4,,FHRS,0
197105,3 Pear Tree Street Bamber Bridge Preston Lancashire,,,,Emma's Luxury Cakepops & Cupcakes,Retailers - other,4613,0,,703249,0,,53.73486600000000,FOOD/1357/14,205,envhealth@southribble.gov.uk,South Ribble,http://www.southribble.gov.uk,-2.66363000000000,PR5 6EZ,2014-09-10,fhrs_5_en-GB,5,,FHRS,0
197106,142 Walton Summit Centre Brierley Road Bamber Bridge Preston,,,,Evans Vanodine International PLC,Restaurant/Cafe/Canteen,1,5,,13501,0,,53.72445800000000,04180/0142/0/000,205,envhealth@southribble.gov.uk,South Ribble,http://www.southribble.gov.uk,-2.65044700000000,PR5 8AH,2014-03-12,fhrs_5_en-GB,5,,FHRS,0
197107,0 Newfield Road Walton Summit Industrial Estate Bamber Bridge Lancashire,,,,Everything Under The Bun,School/college/university,7845,5,,159293,5,,53.72206100000000,MIXED/872/11,205,envhealth@southribble.gov.uk,South Ribble,http://www.southribble.gov.uk,-2.64715300000000,,2014-01-20,fhrs_5_en-GB,5,,FHRS,5
197108,The Auctioneer Cafe Walton Summit Centre Reedfield Place Walton Summit Industrial Estate Bamber Bridge Preston Lancashire,,,,Expedier Catering Ltd,Restaurant/Cafe/Canteen,1,5,,13719,5,,53.71961300000000,04310/4000/0/002,205,envhealth@southribble.gov.uk,South Ribble,http://www.southribble.gov.uk,-2.65225100000000,PR5 8AA,2013-12-18,fhrs_5_en-GB,5,,FHRS,5
197109,44 Cann Bridge Street Higher Walton Preston Lancashire,,,,Fair View Take Away,Takeaway/sandwich shop,7844,5,,16786,5,,53.74277200000000,05290/0044/0/000,205,envhealth@southribble.gov.uk,South Ribble,http://www.southribble.gov.uk,-2.64292100000000,PR5 4DJ,2014-10-29,fhrs_4_en-GB,4,,FHRS,10
197110,57 Stanifield Lane Farington Preston Lancashire,,,,Farington Chippy,Takeaway/sandwich shop,7844,5,,576343,5,,53.70138100000000,MIXED/1164/13,205,envhealth@southribble.gov.uk,South Ribble,http://www.southribble.gov.uk,-2.68500600000000,PR25 4QA,2014-12-04,fhrs_5_en-GB,5,,FHRS,5
197111,Farington County Primary School Rose Street Farington Preston Lancashire,,,,Farington County Primary School,School/college/university,7845,5,,14152,5,,53.70186700000000,04720/4000/0/000,205,envhealth@southribble.gov.uk,South Ribble,http://www.southribble.gov.uk,-2.68499800000000,PR25 4GH,2014-01-07,fhrs_5_en-GB,5,,FHRS,5
197112,Farington Lodge Stanifield Lane Farington Preston,,,,Farington Lodge Hotel,Hotel/bed & breakfast/guest house,7842,5,,14192,5,,53.70532400000000,04800/2005/2/000,205,envhealth@southribble.gov.uk,South Ribble,http://www.southribble.gov.uk,-2.68234300000000,PR25 4QR,2014-09-16,fhrs_4_en-GB,4,,FHRS,10
197113,St Pauls Church Of England Primary School Croston Road Lostock Hall Preston Lancashire,,,,Farington St. Pauls C Of E School,School/college/university,7845,5,,14378,5,,53.71998000000000,04940/4000/0/003,205,envhealth@southribble.gov.uk,South Ribble,http://www.southribble.gov.uk,-2.70014400000000,PR26 6PR,2013-10-09,fhrs_4_en-GB,4,,FHRS,10
197114,Farmers Arms Wham Lane Whitestake Preston,,,,Farmers Arms,Restaurant/Cafe/Canteen,1,5,,80809,5,,53.72313100000000,19620/4000/0/000,205,envhealth@southribble.gov.uk,South Ribble,http://www.southribble.gov.uk,-2.73235500000000,PR4 4JS,2014-11-26,fhrs_5_en-GB,5,,FHRS,5
197115,Unit 18D Boxer Place Moss Side Industrial Estate Leyland Lancashire,,,,Fat Sax Chutney,Manufacturers/packers,7839,5,,693790,5,,53.70099600000000,MIXED/1338/14,205,envhealth@southribble.gov.uk,South Ribble,http://www.southribble.gov.uk,-2.72153400000000,PR26 7QL,2014-07-30,fhrs_5_en-GB,5,,FHRS,5
197116,53 Fox Lane Leyland Preston,,,,First Footsteps Ltd,Hospitals/Childcare/Caring Premises,5,5,,24619,0,,53.68845900000000,07970/0053/0/000,205,envhealth@southribble.gov.uk,South Ribble,http://www.southribble.gov.uk,-2.69999900000000,PR25 1HA,2013-09-04,fhrs_5_en-GB,5,,FHRS,5
197117,Esso Petroleum Company Ltd Five Barred Gate Service Station Preston New Road Samlesbury Preston Lancashire,,,,Five Barred Gate Subway,Restaurant/Cafe/Canteen,1,0,,589304,0,,53.76401200000000,MIXED/1174/13,205,envhealth@southribble.gov.uk,South Ribble,http://www.southribble.gov.uk,-2.59749400000000,PR5 0UX,2013-07-10,fhrs_5_en-GB,5,,FHRS,0
197118,The Fleece Inn 39 Liverpool Road Penwortham Preston,,,,Fleece Inn,Pub/bar/nightclub,7843,5,,69920,0,,53.74940600000000,15800/0039/0/000,205,envhealth@southribble.gov.uk,South Ribble,http://www.southribble.gov.uk,-2.73206900000000,PR1 9XD,2013-04-08,fhrs_5_en-GB,5,,FHRS,5
197119,3 Alder Drive Hoghton Preston Lancashire,,,,Food2go,Retailers - other,4613,10,,589310,10,,53.73246900000000,MIXED/1208/13,205,envhealth@southribble.gov.uk,South Ribble,http://www.southribble.gov.uk,-2.62114800000000,PR5 0AD,2013-09-25,fhrs_3_en-GB,3,,FHRS,10
197120,0 School Lane Bamber Bridge Lancashire,,,,Footprints Child Care Ltd,School/college/university,7845,5,,159307,5,,53.73680400000000,MIXED/923/11,205,envhealth@southribble.gov.uk,South Ribble,http://www.southribble.gov.uk,-2.65884900000000,,2014-11-17,fhrs_5_en-GB,5,,FHRS,5
197121,Fox and Lion Inn 1 Towngate Leyland Lancashire,,,,Fox and Lion,Pub/bar/nightclub,7843,5,,159298,10,,53.68871100000000,MIXED/891/11,205,envhealth@southribble.gov.uk,South Ribble,http://www.southribble.gov.uk,-2.69844300000000,PR25 2EN,2011-11-02,fhrs_4_en-GB,4,,FHRS,5
197122,Leyland Fox Lane Sports Club Fox Lane Leyland Lancashire,,,,Fox Lane Catering,Restaurant/Cafe/Canteen,1,5,,637917,0,,53.68800600000000,MIXED/1253/13,205,envhealth@southribble.gov.uk,South Ribble,http://www.southribble.gov.uk,-2.70368600000000,PR25 1HB,2013-12-13,fhrs_5_en-GB,5,,FHRS,0
197123,Foxholes Restaurant Langdale Road Leyland Preston,,,,Foxholes Restaurant,School/college/university,7845,10,,28148,0,,53.68091600000000,08640/4001/0/000,205,envhealth@southribble.gov.uk,South Ribble,http://www.southribble.gov.uk,-2.68954800000000,PR25 3DQ,2013-11-21,fhrs_4_en-GB,4,,FHRS,10
197124,Frankie And Bennys Unit 2A The Capitol Centre Capitol Way Walton-Le-Dale Preston Lancashire,,,,Frankie & Benny's,Restaurant/Cafe/Canteen,1,5,,77930,5,,53.74882700000000,18420/4000/0/005,205,envhealth@southribble.gov.uk,South Ribble,http://www.southribble.gov.uk,-2.67771000000000,PR5 4AW,2014-03-12,fhrs_5_en-GB,5,,FHRS,5
197125,2 Fernleigh Moss Side Leyland Lancashire,,,,Frosted Cakes Ltd,Manufacturers/packers,7839,0,,679786,0,,53.69192400000000,FOOD/1327/14,205,envhealth@southribble.gov.uk,South Ribble,http://www.southribble.gov.uk,-2.74250500000000,PR26 7AL,2014-06-13,fhrs_5_en-GB,5,,FHRS,5
197126,18 Watkin Lane Lostock Hall Preston Lancashire,,,,Fry Inn,Takeaway/sandwich shop,7844,5,,60916,5,,53.72557900000000,13330/0018/0/000,205,envhealth@southribble.gov.uk,South Ribble,http://www.southribble.gov.uk,-2.69096100000000,PR5 5RD,2014-03-27,fhrs_4_en-GB,4,,FHRS,10
197127,FullFilled 21 Golden Hill Lane Leyland Lancashire,,,,Fullfilled,Takeaway/sandwich shop,7844,5,,159140,10,,53.69803200000000,MIXED/108/06,205,envhealth@southribble.gov.uk,South Ribble,http://www.southribble.gov.uk,-2.69061600000000,PR25 3NP,2013-09-11,fhrs_4_en-GB,4,,FHRS,5
197128,Kaths Fish and Chips 23 Golden Hill Lane Leyland Lancashire,,,,Gilly's Traditional Fish & Chips,Takeaway/sandwich shop,7844,5,,159275,5,,53.69803200000000,MIXED/810/11,205,envhealth@southribble.gov.uk,South Ribble,http://www.southribble.gov.uk,-2.69061600000000,PR25 3NP,2014-01-20,fhrs_5_en-GB,5,,FHRS,5
197129,111 Towngate Leyland Preston Lancashire,,,,Giulio's,Takeaway/sandwich shop,7844,5,,41431,5,,53.69249500000000,10270/0111/0/000,205,envhealth@southribble.gov.uk,South Ribble,http://www.southribble.gov.uk,-2.69684000000000,PR25 2LQ,2013-10-02,fhrs_4_en-GB,4,,FHRS,10
197130,344 Leyland Lane Leyland Preston,,,,Glovers,Manufacturers/packers,7839,5,,28237,5,,53.68957300000000,08760/0344/0/000,205,envhealth@southribble.gov.uk,South Ribble,http://www.southribble.gov.uk,-2.71691700000000,PR25 1UQ,2014-07-29,fhrs_5_en-GB,5,,FHRS,5
197131,85 Leyland Lane Leyland Preston,,,,Glovers,Manufacturers/packers,7839,5,,28229,5,,53.69853000000000,08760/0085/0/000,205,envhealth@southribble.gov.uk,South Ribble,http://www.southribble.gov.uk,-2.71302500000000,PR25 1XB,2014-07-23,fhrs_5_en-GB,5,,FHRS,0
197132,209 Station Road Bamber Bridge Preston Lancashire,,,,Glovers Bakery,Retailers - other,4613,5,,159301,5,,53.72756800000000,MIXED/903/11,205,envhealth@southribble.gov.uk,South Ribble,http://www.southribble.gov.uk,-2.66030100000000,PR5 6LD,2014-10-17,fhrs_5_en-GB,5,,FHRS,0
197133,Glovers Bakery 1 Victoria Terrace Lostock Hall Preston,,,,Glovers Bakery Limited,Manufacturers/packers,7839,5,,60756,5,,53.72645600000000,13280/0001/0/000,205,envhealth@southribble.gov.uk,South Ribble,http://www.southribble.gov.uk,-2.69318800000000,PR5 5RX,2013-12-03,fhrs_5_en-GB,5,,FHRS,5
197134,89 Pope Lane Penwortham Preston Lancashire,,,,Godwin's Fish And Chips,Takeaway/sandwich shop,7844,10,,72005,5,,53.73704300000000,16380/0089/0/000,205,envhealth@southribble.gov.uk,South Ribble,http://www.southribble.gov.uk,-2.72086300000000,PR1 9BA,2014-07-23,fhrs_4_en-GB,4,,FHRS,0
197135,107 Brownedge Road Lostock Hall Preston Lancashire,,,,Golden City Chinese Take Away,Takeaway/sandwich shop,7844,5,,53668,5,,53.72724800000000,12080/0107/0/000,205,envhealth@southribble.gov.uk,South Ribble,http://www.southribble.gov.uk,-2.68371300000000,PR5 5AE,2014-01-31,fhrs_5_en-GB,5,,FHRS,5
197136,70 Leyland Lane Leyland Lancashire,,,,Golden Future,Takeaway/sandwich shop,7844,10,,28227,10,,53.69853000000000,08760/0070/0/000,205,envhealth@southribble.gov.uk,South Ribble,http://www.southribble.gov.uk,-2.71302500000000,PR25 1XB,2013-12-19,fhrs_3_en-GB,3,,FHRS,10
197137,13 Golden Hill Lane Leyland Preston Lancashire,,,,Golden Hill Chinese Take-Away,Takeaway/sandwich shop,7844,10,,27424,5,,53.69803200000000,08020/0013/0/000,205,envhealth@southribble.gov.uk,South Ribble,http://www.southribble.gov.uk,-2.69061600000000,PR25 3NP,2014-10-28,fhrs_4_en-GB,4,,FHRS,5
197138,Golden Hill Short Stay School Earnshaw Drive Leyland Preston Lancashire,,,,Golden Hill Short Stay School,School/college/university,7845,5,,24364,5,,53.69735100000000,07670/4000/0/000,205,envhealth@southribble.gov.uk,South Ribble,http://www.southribble.gov.uk,-2.71185400000000,PR25 1QS,2012-03-12,fhrs_5_en-GB,5,,FHRS,5
197139,The Golden Phoenix 4 Chapel Brow Leyland Preston,,,,Golden Phoenix,Takeaway/sandwich shop,7844,10,,23986,10,,53.69747000000000,07200/0004/0/000,205,envhealth@southribble.gov.uk,South Ribble,http://www.southribble.gov.uk,-2.68991000000000,PR25 3NE,2013-10-18,fhrs_3_en-GB,3,,FHRS,10
197140,336 Leyland Lane Leyland Preston Lancashire,,,,Golden Star,Takeaway/sandwich shop,7844,5,,632699,5,,53.68957300000000,MIXED/1269/13,205,envhealth@southribble.gov.uk,South Ribble,http://www.southribble.gov.uk,-2.71691700000000,PR25 1UQ,2014-01-29,fhrs_5_en-GB,5,,FHRS,5
197141,71 Royal Avenue Leyland Lancashire,,,,Goodfellas,Takeaway/sandwich shop,7844,20,,553397,15,,53.68481000000000,MIXED/1157/13,205,envhealth@southribble.gov.uk,South Ribble,http://www.southribble.gov.uk,-2.71067400000000,PR25 1BX,2014-12-02,fhrs_1_en-GB,1,,FHRS,10
197142,18 Hough Lane Leyland Preston,,,,Greenhalgh's Craft Bakery,Manufacturers/packers,7839,0,,27989,0,,53.69472800000000,08440/0018/0/000,205,envhealth@southribble.gov.uk,South Ribble,http://www.southribble.gov.uk,-2.69477200000000,PR25 2SD,2013-09-10,fhrs_5_en-GB,5,,FHRS,0
197143,50 Hough Lane Leyland Preston,,,,Greggs North West,Manufacturers/packers,7839,5,,27991,5,,53.69561700000000,08440/0050/0/000,205,envhealth@southribble.gov.uk,South Ribble,http://www.southribble.gov.uk,-2.69330200000000,PR25 2SA,2014-08-29,fhrs_5_en-GB,5,,FHRS,5
197144,309 Gregson Lane Hoghton Preston Lancashire,,,,Gregson Lane Chippy,Takeaway/sandwich shop,7844,10,,159138,10,,53.73457500000000,MIXED/104/06,205,envhealth@southribble.gov.uk,South Ribble,http://www.southribble.gov.uk,-2.62067900000000,PR5 0DP,2013-11-21,fhrs_3_en-GB,3,,FHRS,5
197145,0 Cocker Road Walton Summit Industrial Estate Bamber Bridge Lancashire,,,,Grundy's Quality Fish + Chips,Mobile caterer,7846,5,,80830,10,,53.72304635647294,19640/0436/0/000,205,envhealth@southribble.gov.uk,South Ribble,http://www.southribble.gov.uk,-2.64653685437865,,2014-03-12,fhrs_4_en-GB,4,,FHRS,5
197146,50B School Lane Bamber Bridge Preston Lancashire,,,,Gusto Italia,Takeaway/sandwich shop,7844,5,,159276,5,,53.73689600000000,MIXED/814/11,205,envhealth@southribble.gov.uk,South Ribble,http://www.southribble.gov.uk,-2.65903800000000,PR5 6QE,2014-03-10,fhrs_5_en-GB,5,,FHRS,5
197147,4A Chapel Lane Longton Lancashire,,,,Happy Bunnies,Retailers - other,4613,5,,606953,5,,53.72641900000000,MIXED/1201/13,205,envhealth@southribble.gov.uk,South Ribble,http://www.southribble.gov.uk,-2.77835100000000,PR4 5EB,2013-10-18,fhrs_5_en-GB,5,,FHRS,5
197148,63 School Lane Leyland Lancashire,,,,Happy House,Takeaway/sandwich shop,7844,10,,159278,10,,53.69734400000000,MIXED/830/11,205,envhealth@southribble.gov.uk,South Ribble,http://www.southribble.gov.uk,-2.69926800000000,PR25 2TU,2013-07-24,fhrs_3_en-GB,3,,FHRS,10
197149,3 Severn Drive Walton-Le-Dale Preston Lancashire,,,,Happy Valley Take-Away,Takeaway/sandwich shop,7844,5,,79833,10,,53.73362200000000,19250/0003/0/000,205,envhealth@southribble.gov.uk,South Ribble,http://www.southribble.gov.uk,-2.67396400000000,PR5 4TD,2014-01-29,fhrs_4_en-GB,4,,FHRS,5
197150,66 Stanifield Lane Farington Preston,,,,Haydocks Butchers,Retailers - other,4613,10,,14188,10,,53.70229500000000,04800/0066/0/000,205,envhealth@southribble.gov.uk,South Ribble,http://www.southribble.gov.uk,-2.68394500000000,PR25 4GA,2014-10-28,fhrs_3_en-GB,3,,FHRS,10
197151,21 Hennel Lane Walton-Le-Dale Preston Lancashire,,,,Hennel Lane News and Off Licence,Retailers - other,4613,10,,159245,10,,53.74319100000000,MIXED/662/10,205,envhealth@southribble.gov.uk,South Ribble,http://www.southribble.gov.uk,-2.67623900000000,PR5 4LB,2015-01-15,fhrs_2_en-GB,2,,FHRS,15
197152,25 Midge Hall Lane Midge Hall Leyland Lancashire,,,,Hippie Chippie,Mobile caterer,7846,5,,700470,5,,53.70239100000000,MIXED/1358/14,205,envhealth@southribble.gov.uk,South Ribble,http://www.southribble.gov.uk,-2.74471900000000,PR26 6TN,2014-09-10,fhrs_5_en-GB,5,,FHRS,5
197153,The Preston Hotel Reedfield Place Walton Summit Industrial Estate Bamber Bridge Preston Lancashire,,,,Holiday Inn Express,Hotel/bed & breakfast/guest house,7842,5,,467737,5,,,MIXED/1075/12,205,envhealth@southribble.gov.uk,South Ribble,http://www.southribble.gov.uk,,PR5 6AB,2014-04-24,fhrs_5_en-GB,5,,FHRS,5
197154,153 Dunkirk Lane Moss Side Leyland Lancashire,,,,Home Baking,Retailers - other,4613,0,,589300,0,,53.69169100000000,FOOD/1236/13,205,envhealth@southribble.gov.uk,South Ribble,http://www.southribble.gov.uk,-2.72784200000000,PR26 7SP,2013-10-01,fhrs_5_en-GB,5,,FHRS,0
197155,62 Canberra Road Leyland Lancashire,,,,Honest Crust,Restaurant/Cafe/Canteen,1,5,,664572,5,,53.69137400000000,MIXED/1288/14,205,envhealth@southribble.gov.uk,South Ribble,http://www.southribble.gov.uk,-2.68720500000000,PR25 3ER,2014-05-29,fhrs_5_en-GB,5,,FHRS,5
197156,Hospital Inn 333 Brindle Road Bamber Bridge Preston,,,,Hospital Inn,Restaurant/Cafe/Canteen,1,0,,7205,0,,53.72681500000000,02800/4000/0/003,205,envhealth@southribble.gov.uk,South Ribble,http://www.southribble.gov.uk,-2.63998000000000,PR5 6YP,2013-10-08,fhrs_5_en-GB,5,,FHRS,0
197157,Howick Primary School Liverpool Road Penwortham Preston Lancashire,,,,Howick Primary School,School/college/university,7845,0,,69928,0,,53.74095800000000,15800/4000/0/000,205,envhealth@southribble.gov.uk,South Ribble,http://www.southribble.gov.uk,-2.74787200000000,PR1 0NB,2014-12-01,fhrs_5_en-GB,5,,FHRS,0
197158,Huntley Gate Farm Whalley Road Samlesbury Preston,,,,Huntleys Country Stores,Retailers - other,4613,10,,485495,5,,53.77237600000000,MIXED/1108/12,205,envhealth@southribble.gov.uk,South Ribble,http://www.southribble.gov.uk,-2.59104300000000,PR5 0UN,2015-01-08,fhrs_3_en-GB,3,,FHRS,10
197159,Hutton Grammar School Liverpool Road Hutton Lancashire,,,,Hutton Grammar School,School/college/university,7845,0,,20644,0,,53.73310700000000,06250/4000/0/001,205,envhealth@southribble.gov.uk,South Ribble,http://www.southribble.gov.uk,-2.76418000000000,PR4 5SN,2015-01-28,fhrs_5_en-GB,5,,FHRS,5
197160,"I Care GB Limited, Unit C2 Binary Court Western Avenue Matrix Park Buckshaw Village Chorley Lancashire",,,,Icare GB Limited,Other catering premises,7841,5,,159308,5,,53.68487600000000,MIXED/925/11,205,envhealth@southribble.gov.uk,South Ribble,http://www.southribble.gov.uk,-2.66806700000000,PR7 7NB,2014-01-14,fhrs_5_en-GB,5,,FHRS,5
197161,17 - 19 Church Road Leyland Lancashire,,,,Ice Dreams and Coffee Beans,Restaurant/Cafe/Canteen,1,5,,462688,5,,53.68873600000000,MIXED/1054/12,205,envhealth@southribble.gov.uk,South Ribble,http://www.southribble.gov.uk,-2.69717200000000,PR25 3EJ,2012-10-25,fhrs_5_en-GB,5,,FHRS,5
197162,Marias 83 Leyland Lane Leyland Lancashire,,,,Indiana,Takeaway/sandwich shop,7844,10,,28228,10,,53.69853000000000,08760/0083/0/000,205,envhealth@southribble.gov.uk,South Ribble,http://www.southribble.gov.uk,-2.71302500000000,PR25 1XB,2013-09-12,fhrs_3_en-GB,3,,FHRS,10
197163,81 Hough Lane Leyland Preston Lancashire,,,,Isolabella Ltd,Restaurant/Cafe/Canteen,1,20,,230422,5,,53.69597500000000,MIXED/97/06,205,envhealth@southribble.gov.uk,South Ribble,http://www.southribble.gov.uk,-2.69205100000000,PR25 2YD,2014-11-21,fhrs_1_en-GB,1,,FHRS,5
197164,41 Moss Lane Leyland Lancashire,,,,J S Food + Wine,Retailers - other,4613,10,,159186,10,,53.69875300000000,MIXED/356/08,205,envhealth@southribble.gov.uk,South Ribble,http://www.southribble.gov.uk,-2.68408400000000,PR25 4XA,2013-07-30,fhrs_3_en-GB,3,,FHRS,10
197165,8 Fellway Close Lostock Hall Preston Lancashire,,,,Jackets,Mobile caterer,7846,10,,637916,10,,53.72477400000000,FOOD/1286/14,205,envhealth@southribble.gov.uk,South Ribble,http://www.southribble.gov.uk,-2.67626200000000,PR5 5YW,2014-01-23,fhrs_3_en-GB,3,,FHRS,10
197166,7 Beechfield Court Leyland Preston,,,,Jah Jireh Rest Home,Hospitals/Childcare/Caring Premises,5,0,,21093,0,,53.68862400000000,06810/0007/0/000,205,envhealth@southribble.gov.uk,South Ribble,http://www.southribble.gov.uk,-2.68858400000000,PR25 3SA,2014-09-04,fhrs_5_en-GB,5,,FHRS,0
197167,252 Station Road Bamber Bridge Preston Lancashire,,,,John Dory,Takeaway/sandwich shop,7844,10,,13399,0,,53.72658600000000,04040/0252/0/000,205,envhealth@southribble.gov.uk,South Ribble,http://www.southribble.gov.uk,-2.66077100000000,PR5 6EA,2014-03-20,fhrs_4_en-GB,4,,FHRS,5
197168,4 Priory Lane Penwortham Preston Lancashire,,,,Juice Fit,Retailers - other,4613,5,,636442,5,,53.75099300000000,MIXED/1281/14,205,envhealth@southribble.gov.uk,South Ribble,http://www.southribble.gov.uk,-2.72977700000000,PR1 0AR,2014-02-06,fhrs_5_en-GB,5,,FHRS,0
197169,1 Wham Lane New Longton Preston Lancashire,,,,Kam's Corner Shop,Retailers - other,4613,10,,159305,10,,53.72243800000000,MIXED/920/11,205,envhealth@southribble.gov.uk,South Ribble,http://www.southribble.gov.uk,-2.74273900000000,PR4 4XB,2014-12-16,fhrs_3_en-GB,3,,FHRS,5
197170,44 - 46 Kensington Avenue Penwortham Preston Lancashire,,,,Kensington Nursery School,Hospitals/Childcare/Caring Premises,5,5,,159173,5,,53.75311000000000,MIXED/264/07,205,envhealth@southribble.gov.uk,South Ribble,http://www.southribble.gov.uk,-2.73343800000000,PR1 0EE,2013-03-12,fhrs_5_en-GB,5,,FHRS,0
197171,458 Leyland Road Lostock Hall Preston Lancashire,,,,KFC,Restaurant/Cafe/Canteen,1,5,,55859,5,,53.72702800000000,12610/0458/0/000,205,envhealth@southribble.gov.uk,South Ribble,http://www.southribble.gov.uk,-2.69385000000000,PR5 5RY,2014-07-23,fhrs_5_en-GB,5,,FHRS,5
197172,Kentucky Fried Chicken Preston New Road Mellor Brook Preston Lancashire,,,,KFC,Restaurant/Cafe/Canteen,1,5,,1586,5,,53.76983400000000,00290/4000/0/001,205,envhealth@southribble.gov.uk,South Ribble,http://www.southribble.gov.uk,-2.55497400000000,BB2 7PU,2014-02-04,fhrs_5_en-GB,5,,FHRS,0
197173,0 Marathon Place Moss Side Industrial Estate Leyland Lancashire,,,,Kim's Butty Box,Mobile caterer,7846,10,,159229,10,,,MIXED/569/09,205,envhealth@southribble.gov.uk,South Ribble,http://www.southribble.gov.uk,,,2013-09-19,fhrs_3_en-GB,3,,FHRS,10
197174,Kings Abbott Abbotsway Penwortham Preston,,,,Kings Abbot Rest Home,Hospitals/Childcare/Caring Premises,5,5,,64417,5,,53.75118700000000,14310/2001/2/000,205,envhealth@southribble.gov.uk,South Ribble,http://www.southribble.gov.uk,-2.72744400000000,PR1 0BD,2013-08-20,fhrs_4_en-GB,4,,FHRS,10
197175,Kingsfold Primary School Martinfield Road Penwortham Preston Lancashire,,,,Kingsfold Primary School,School/college/university,7845,0,,70409,5,,53.73481200000000,15990/4000/0/000,205,envhealth@southribble.gov.uk,South Ribble,http://www.southribble.gov.uk,-2.71512500000000,PR1 9HJ,2014-11-27,fhrs_5_en-GB,5,,FHRS,5
197176,92 Leyland Road Penwortham Preston Lancashire,,,,Kowloon,Takeaway/sandwich shop,7844,20,,159228,10,,53.74545700000000,MIXED/567/09,205,envhealth@southribble.gov.uk,South Ribble,http://www.southribble.gov.uk,-2.71171200000000,PR1 9QJ,2014-09-18,fhrs_1_en-GB,1,,FHRS,15
197177,Charnock Farm Garden Centre Wigan Road Leyland Preston Lancashire,,,,Lakeside Coffee House,Restaurant/Cafe/Canteen,1,10,,159294,5,,53.68329700000000,MIXED/876/11,205,envhealth@southribble.gov.uk,South Ribble,http://www.southribble.gov.uk,-2.67705100000000,PR25 5DA,2014-10-01,fhrs_4_en-GB,4,,FHRS,5
197178,43 Cann Bridge Street Higher Walton Preston Lancashire,,,,Lal Vina Indian Take Away,Takeaway/sandwich shop,7844,10,,16785,5,,53.74277200000000,05290/0043/0/000,205,envhealth@southribble.gov.uk,South Ribble,http://www.southribble.gov.uk,-2.64292100000000,PR5 4DJ,2013-09-19,fhrs_4_en-GB,4,,FHRS,5
197179,County Ground Thurston Road Leyland Preston,,,,Lancashire Football Association,Pub/bar/nightclub,7843,5,,647260,5,,53.69316900000000,10240/2001/2/000,205,envhealth@southribble.gov.uk,South Ribble,http://www.southribble.gov.uk,-2.69385300000000,PR25 2LF,2014-03-28,fhrs_5_en-GB,5,,FHRS,0
197180,The Dining Room 9 Bridge Court Little Hoole Preston Lancashire,,,,Langs Of Longton,Restaurant/Cafe/Canteen,1,5,,409649,5,,53.70743200000000,MIXED/924/11,205,envhealth@southribble.gov.uk,South Ribble,http://www.southribble.gov.uk,-2.79521100000000,PR4 5JT,2014-03-17,fhrs_5_en-GB,5,,FHRS,5
197181,Lansdowne Garage 150 Brownedge Road Lostock Hall Preston,,,,Lansdowne Garage,Retailers - other,4613,5,,53671,10,,53.72724800000000,12080/0150/0/000,205,envhealth@southribble.gov.uk,South Ribble,http://www.southribble.gov.uk,-2.68371300000000,PR5 5AE,2013-09-03,fhrs_3_en-GB,3,,FHRS,10
197182,United Norwest Co-op Limited Dunkirk Lane Leyland Preston,,,,Late Shop Leyland,Retailers - other,4613,0,,24356,0,,53.69276700000000,07650/4000/0/003,205,envhealth@southribble.gov.uk,South Ribble,http://www.southribble.gov.uk,-2.73406900000000,PR26 7SN,2014-02-20,fhrs_5_en-GB,5,,FHRS,0
197183,Late Store 79 Pope Lane Penwortham Preston,,,,Late Store,Retailers - other,4613,5,,72004,5,,53.73697100000000,16380/0079/0/000,205,envhealth@southribble.gov.uk,South Ribble,http://www.southribble.gov.uk,-2.71940700000000,PR1 9BY,2012-03-05,fhrs_5_en-GB,5,,FHRS,5
197184,161 Liverpool Road Hutton Preston,,,,Lathams Of Broughton,Manufacturers/packers,7839,5,,20643,5,,53.73220200000000,06250/0161/0/000,205,envhealth@southribble.gov.uk,South Ribble,http://www.southribble.gov.uk,-2.77219800000000,PR4 5FE,2014-12-09,fhrs_5_en-GB,5,,FHRS,0
197185,46 Cann Bridge Street Higher Walton Preston Lancashire,,,,Laurel's,Takeaway/sandwich shop,7844,5,,16787,5,,53.74277200000000,05290/0046/0/000,205,envhealth@southribble.gov.uk,South Ribble,http://www.southribble.gov.uk,-2.64292100000000,PR5 4DJ,2014-01-15,fhrs_5_en-GB,5,,FHRS,5
197186,Lever House County Primary School Bristol Avenue Farington Preston Lancashire,,,,Lever House County Primary School,School/college/university,7845,5,,13990,5,,53.70340000000000,04580/2000/0/000,205,envhealth@southribble.gov.uk,South Ribble,http://www.southribble.gov.uk,-2.68244800000000,PR25 4QP,2014-01-07,fhrs_5_en-GB,5,,FHRS,5
197187,15 Church Road Leyland Lancashire,,,,Leyland Cross Fish and Chips,Takeaway/sandwich shop,7844,5,,485496,0,,53.68873600000000,MIXED/1112/12,205,envhealth@southribble.gov.uk,South Ribble,http://www.southribble.gov.uk,-2.69717200000000,PR25 3EJ,2012-12-18,fhrs_5_en-GB,5,,FHRS,0
197188,358 Leyland Lane Leyland Lancashire,,,,Leyland Lane Fish and Chips,Takeaway/sandwich shop,7844,10,,730633,10,,53.68757800000000,MIXED/1376/14,205,envhealth@southribble.gov.uk,South Ribble,http://www.southribble.gov.uk,-2.71665600000000,PR25 1TB,2014-11-27,fhrs_4_en-GB,4,,FHRS,0
197189,60 Hough Lane Leyland Lancashire,,,,Leyland Lion,Pub/bar/nightclub,7843,5,,159309,5,,53.74584200000000,MIXED/926/11,205,envhealth@southribble.gov.uk,South Ribble,http://www.southribble.gov.uk,-2.63118600000000,PR5 1SP,2014-03-12,fhrs_5_en-GB,5,,FHRS,5
197190,Leyland Methodist Infant School Canberra Road Leyland Lancashire,,,,Leyland Methodist Infant School,School/college/university,7845,5,,23960,10,,53.69327900000000,07160/4000/0/001,205,envhealth@southribble.gov.uk,South Ribble,http://www.southribble.gov.uk,-2.68728200000000,PR25 3ET,2013-06-21,fhrs_4_en-GB,4,,FHRS,5
197191,Leyland Methodist Junior School Kitchen Canberra Road Leyland Lancashire,,,,Leyland Methodist Junior School Kitchen,School/college/university,7845,0,,23961,5,,53.69327900000000,07160/4000/0/002,205,envhealth@southribble.gov.uk,South Ribble,http://www.southribble.gov.uk,-2.68728200000000,PR25 3ET,2013-06-13,fhrs_5_en-GB,5,,FHRS,5
197192,Little Hoole County Primary School Dob Lane Walmer Bridge Preston Lancashire,,,,Little Hoole CP School,School/college/university,7845,0,,77059,5,,53.71113700000000,18020/4000/0/000,205,envhealth@southribble.gov.uk,South Ribble,http://www.southribble.gov.uk,-2.78822000000000,PR4 5QL,2014-12-01,fhrs_4_en-GB,4,,FHRS,10
197193,Little India 32 Liverpool Road Penwortham Preston Lancashire,,,,Little India,Takeaway/sandwich shop,7844,5,,69919,5,,53.74989000000000,15800/0032/0/000,205,envhealth@southribble.gov.uk,South Ribble,http://www.southribble.gov.uk,-2.73221400000000,PR1 0DQ,2013-11-22,fhrs_5_en-GB,5,,FHRS,5
197194,5 Severn Drive Walton-Le-Dale Preston Lancashire,,,,Londis,Retailers - other,4613,5,,159244,10,,53.73362200000000,MIXED/653/10,205,envhealth@southribble.gov.uk,South Ribble,http://www.southribble.gov.uk,-2.67396400000000,PR5 4TD,2013-09-03,fhrs_4_en-GB,4,,FHRS,5
197195,Penwortham Lane Po 222 Leyland Road Penwortham Preston,,,,Londis,Retailers - other,4613,5,,188048,10,,53.73678000000000,15740/0222/0/000,205,envhealth@southribble.gov.uk,South Ribble,http://www.southribble.gov.uk,-2.70460700000000,PR1 9TA,2013-07-30,fhrs_4_en-GB,4,,FHRS,5
197196,53 Chapel Lane Longton Preston Lancashire,,,,Longton House,Takeaway/sandwich shop,7844,5,,689247,10,,53.72656400000000,MIXED/1335/14,205,envhealth@southribble.gov.uk,South Ribble,http://www.southribble.gov.uk,-2.77670200000000,PR4 5WA,2014-07-29,fhrs_3_en-GB,3,,FHRS,10
197197,Longton Nursing And Residential Home 11 Marsh Lane Longton Preston,,,,Longton Nursing And Residential Home,Hospitals/Childcare/Caring Premises,5,5,,51471,5,,53.72522700000000,11530/0011/0/000,205,envhealth@southribble.gov.uk,South Ribble,http://www.southribble.gov.uk,-2.79427300000000,PR4 5ZJ,2014-02-21,fhrs_5_en-GB,5,,FHRS,0
197198,Longton School School Lane Longton Preston Lancashire,,,,Longton School,School/college/university,7845,0,,51802,0,,53.72528400000000,11630/4000/0/000,205,envhealth@southribble.gov.uk,South Ribble,http://www.southribble.gov.uk,-2.78289200000000,PR4 5YA,2013-09-16,fhrs_5_en-GB,5,,FHRS,5
197199,153A Liverpool Road Longton Preston Lancashire,,,,Longton Tandoori,Takeaway/sandwich shop,7844,10,,159137,10,,53.72565600000000,MIXED/101/06,205,envhealth@southribble.gov.uk,South Ribble,http://www.southribble.gov.uk,-2.79047700000000,PR4 5AB,2014-03-05,fhrs_3_en-GB,3,,FHRS,10
197200,Lostock Grove Rest Home Slater Lane Leyland Lancashire,,,,Lostock Grove Rest Home,Hospitals/Childcare/Caring Premises,5,5,,159214,5,,53.68886700000000,MIXED/512/09,205,envhealth@southribble.gov.uk,South Ribble,http://www.southribble.gov.uk,-2.72073600000000,PR25 1TN,2015-01-13,fhrs_5_en-GB,5,,FHRS,5
197201,Lostock Hall Cp School Linden Drive Lostock Hall Preston Lancashire,,,,Lostock Hall Cp School,School/college/university,7845,5,,55941,5,,53.72912300000000,12630/4000/0/000,205,envhealth@southribble.gov.uk,South Ribble,http://www.southribble.gov.uk,-2.68592600000000,PR5 5AS,2014-09-10,fhrs_5_en-GB,5,,FHRS,5
197202,Lostock Hall High School Todd Lane North Lostock Hall Preston Lancashire,,,,Lostock Hall High School,School/college/university,7845,5,,60539,0,,53.72973600000000,13220/4000/0/000,205,envhealth@southribble.gov.uk,South Ribble,http://www.southribble.gov.uk,-2.68088900000000,PR5 5UR,2014-02-27,fhrs_5_en-GB,5,,FHRS,0
197203,Lostock Lodge Residential Care Home 34 Wateringpool Lane Lostock Hall Preston,,,,Lostock Lodge Residential Care Home,Hospitals/Childcare/Caring Premises,5,10,,60880,10,,53.72855700000000,13320/0034/0/000,205,envhealth@southribble.gov.uk,South Ribble,http://www.southribble.gov.uk,-2.68904000000000,PR5 5AP,2014-08-21,fhrs_3_en-GB,3,,FHRS,10
197204,103 Liverpool Road Penwortham Lancashire,,,,Louise Nixon Cake Design,Retailers - other,4613,5,,504110,5,,53.74876000000000,FOOD/1128/13,205,envhealth@southribble.gov.uk,South Ribble,http://www.southribble.gov.uk,-2.73484800000000,PR1 0QB,2013-01-25,fhrs_5_en-GB,5,,FHRS,0
197205,159 Liverpool Road Hutton Lancashire,,,,Lucky Star Chinese Cuisine,Takeaway/sandwich shop,7844,20,,159163,15,,53.73220200000000,MIXED/210/07,205,envhealth@southribble.gov.uk,South Ribble,http://www.southribble.gov.uk,-2.77219800000000,PR4 5FE,2014-10-17,fhrs_1_en-GB,1,,FHRS,15
197206,328 Leyland Lane Leyland Preston Lancashire,,,,Luigi,Takeaway/sandwich shop,7844,10,,384893,5,,53.68957300000000,MIXED/1028/12,205,envhealth@southribble.gov.uk,South Ribble,http://www.southribble.gov.uk,-2.71691700000000,PR25 1UQ,2014-11-25,fhrs_4_en-GB,4,,FHRS,5
197207,2B Franklands Longton Preston Lancashire,,,,Mad Hatters Tea Shop,Restaurant/Cafe/Canteen,1,5,,595318,0,,53.72907000000000,MIXED/1221/13,205,envhealth@southribble.gov.uk,South Ribble,http://www.southribble.gov.uk,-2.78253800000000,PR4 5PD,2013-10-18,fhrs_5_en-GB,5,,FHRS,5
197208,11 Golden Hill Lane Leyland Preston Lancashire,,,,Mahatten Fried Chicken,Takeaway/sandwich shop,7844,5,,479145,5,,53.69803200000000,MIXED/1107/12,205,envhealth@southribble.gov.uk,South Ribble,http://www.southribble.gov.uk,-2.69061600000000,PR25 3NP,2014-10-29,fhrs_4_en-GB,4,,FHRS,10
197209,Maplewood House Care Home Ash Grove Bamber Bridge Preston Lancashire,,,,Maplewood House,Hospitals/Childcare/Caring Premises,5,10,,6903,5,,53.73257800000000,02640/2001/0/000,205,envhealth@southribble.gov.uk,South Ribble,http://www.southribble.gov.uk,-2.65468000000000,PR5 6GY,2015-01-06,fhrs_4_en-GB,4,,FHRS,5
197210,Centurian House  Centurion Industrial Estate Centurion Way Farington Preston Lancashire,,,,Marias Kitchen,Restaurant/Cafe/Canteen,1,5,,637920,5,,53.70445600000000,MIXED/1287/14,205,envhealth@southribble.gov.uk,South Ribble,http://www.southribble.gov.uk,-2.68804000000000,PR25 4GU,2014-02-21,fhrs_5_en-GB,5,,FHRS,5
197211,STREET RECORD Western Drive Leyland Lancashire,,,,Marke's Ices,Mobile caterer,7846,5,,730632,10,,,MIXED/1323/14,205,envhealth@southribble.gov.uk,South Ribble,http://www.southribble.gov.uk,,,2014-10-03,fhrs_4_en-GB,4,,FHRS,5
197212,25 Midge Hall Lane Midge Hall Leyland Lancashire,,,,Market Street Chippy Quality Fish and Chips,Mobile caterer,7846,5,,700468,5,,53.70239100000000,MIXED/1324/14,205,envhealth@southribble.gov.uk,South Ribble,http://www.southribble.gov.uk,-2.74471900000000,PR26 6TN,2014-09-10,fhrs_5_en-GB,5,,FHRS,5
197213,Bloomfield House/Marylands Nursery Pope Lane Penwortham Preston,,,,Marylands Private Nursery,Hospitals/Childcare/Caring Premises,5,5,,72006,0,,53.73462300000000,16380/2004/2/000,205,envhealth@southribble.gov.uk,South Ribble,http://www.southribble.gov.uk,-2.72421700000000,PR1 9DE,2014-06-19,fhrs_5_en-GB,5,,FHRS,5
197214,Dardsley Brownedge Road Lostock Hall Lancashire,,,,Marylands Private Nursery School,Hospitals/Childcare/Caring Premises,5,5,,700469,0,,,MIXED/1326/14,205,envhealth@southribble.gov.uk,South Ribble,http://www.southribble.gov.uk,,PR5 5AL,2014-07-30,fhrs_5_en-GB,5,,FHRS,0
197215,40 School Lane Bamber Bridge Preston Lancashire,,,,Masons Baker and Confectioners,Retailers - other,4613,5,,159251,5,,53.73596700000000,MIXED/705/10,205,envhealth@southribble.gov.uk,South Ribble,http://www.southribble.gov.uk,-2.66125200000000,PR5 6QD,2014-03-12,fhrs_5_en-GB,5,,FHRS,5
197216,69 Royal Avenue Leyland Lancashire,,,,McColls,Retailers - other,4613,10,,467735,10,,53.68481000000000,MIXED/1067/12,205,envhealth@southribble.gov.uk,South Ribble,http://www.southribble.gov.uk,-2.71067400000000,PR25 1BX,2014-04-22,fhrs_3_en-GB,3,,FHRS,5
197217,Mcdonalds Restaurants Ltd Churchill Way Leyland Lancashire,,,,McDonalds,Restaurant/Cafe/Canteen,1,0,,159179,0,,53.69766300000000,MIXED/323/08,205,envhealth@southribble.gov.uk,South Ribble,http://www.southribble.gov.uk,-2.69073100000000,PR25 3LZ,2014-01-21,fhrs_5_en-GB,5,,FHRS,0
197218,Mcdonalds Restaurants Ltd The Capitol Centre Capitol Way Walton-Le-Dale Preston Lancashire,,,,McDonalds Restaurants Ltd,Restaurant/Cafe/Canteen,1,0,,159184,0,,53.74882700000000,MIXED/351/08,205,envhealth@southribble.gov.uk,South Ribble,http://www.southribble.gov.uk,-2.67771000000000,PR5 4AW,2014-01-14,fhrs_5_en-GB,5,,FHRS,5
197219,Champ Chicken Co Ltd Liverpool Road Walmer Bridge Preston Lancashire,,,,Meat @ The Factory,Retailers - other,4613,5,,464527,10,,53.71196700000000,MIXED/1099/12,205,envhealth@southribble.gov.uk,South Ribble,http://www.southribble.gov.uk,-2.79185700000000,PR4 5HY,2013-07-05,fhrs_4_en-GB,4,,FHRS,0
197220,50 Moss Lane Leyland Preston,,,,Melrose Rest Home,Hospitals/Childcare/Caring Premises,5,5,,32029,5,,53.69810800000000,09140/0050/0/000,205,envhealth@southribble.gov.uk,South Ribble,http://www.southribble.gov.uk,-2.68049900000000,PR25 4SH,2014-03-13,fhrs_5_en-GB,5,,FHRS,5
197221,Quattros Too Ltd Preston New Road Samlesbury Lancashire,,,,Mezzo Restaurant Ltd,Restaurant/Cafe/Canteen,1,10,,454791,5,,53.76864700000000,MIXED/1061/12,205,envhealth@southribble.gov.uk,South Ribble,http://www.southribble.gov.uk,-2.57977900000000,PR5 0UP,2014-05-01,fhrs_4_en-GB,4,,FHRS,5
197222,Leyland Technical Centre Aston Way Moss Side Industrial Estate Leyland Lancashire,,,,Mi Technology Group Ltd,Restaurant/Cafe/Canteen,1,5,,159226,5,,53.70092100000000,MIXED/561/09,205,envhealth@southribble.gov.uk,South Ribble,http://www.southribble.gov.uk,-2.72945500000000,PR26 7TZ,2013-01-15,fhrs_4_en-GB,4,,FHRS,10
197223,Middleforth C Of E School Hill Road South Penwortham Preston Lancashire,,,,Middleforth C Of E School,School/college/university,7845,5,,69038,5,,53.74164500000000,15480/4000/0/000,205,envhealth@southribble.gov.uk,South Ribble,http://www.southribble.gov.uk,-2.71490800000000,PR1 9YE,2014-02-27,fhrs_5_en-GB,5,,FHRS,0
197224,0 Seedlee Road Walton Summit Industrial Estate Bamber Bridge Lancashire,,,,Millennium Catering,Mobile caterer,7846,10,,8586,5,,53.71978585884621,03070/0035/0/000,205,envhealth@southribble.gov.uk,South Ribble,http://www.southribble.gov.uk,-2.65118151154572,,2015-01-07,fhrs_4_en-GB,4,,FHRS,5
197225,69 Old Hall Drive Bamber Bridge Preston,,,,Mini Chef,Mobile caterer,7846,10,,9165,10,,53.72559200000000,03720/0069/0/000,205,envhealth@southribble.gov.uk,South Ribble,http://www.southribble.gov.uk,-2.66489300000000,PR5 6EU,2014-07-31,fhrs_3_en-GB,3,,FHRS,5
197226,Staff Canteen  Interbrew (uk) Limited Cuerdale Lane Samlesbury Preston Lancashire,,,,MITIE Catering Services Ltd (gather & Gather),Restaurant/Cafe/Canteen,1,5,,606955,5,,53.76167500000000,MIXED/1226/13,205,envhealth@southribble.gov.uk,South Ribble,http://www.southribble.gov.uk,-2.61702900000000,PR5 0XD,2013-10-22,fhrs_5_en-GB,5,,FHRS,0
197227,Moorhey School Far Croft Lostock Hall Preston Lancashire,,,,Moorhey School,Hospitals/Childcare/Caring Premises,5,5,,54520,5,,53.73046400000000,12290/4000/0/000,205,envhealth@southribble.gov.uk,South Ribble,http://www.southribble.gov.uk,-2.69645300000000,PR5 5SS,2014-09-10,fhrs_5_en-GB,5,,FHRS,5
197228,Morrisons Supermarket Olympian Way Leyland Preston Lancashire,,,,Morrisons,Restaurant/Cafe/Canteen,1,5,,159268,5,,53.69914400000000,MIXED/78/06,205,envhealth@southribble.gov.uk,South Ribble,http://www.southribble.gov.uk,-2.69581400000000,PR25 3UR,2013-08-02,fhrs_5_en-GB,5,,FHRS,5
197229,29 Midge Hall Lane Midge Hall Leyland Lancashire,,,,Moss Farm Meats,Retailers - other,4613,5,,718657,0,,53.70239100000000,MIXED/1278/14,205,envhealth@southribble.gov.uk,South Ribble,http://www.southribble.gov.uk,-2.74471900000000,PR26 6TN,2014-08-15,fhrs_5_en-GB,5,,FHRS,5
197230,86 Longmeanygate Midge Hall Leyland Lancashire,,,,Moss House Farm  Catering.,Other catering premises,7841,5,,589298,0,,53.70151000000000,FOOD/1199/13,205,envhealth@southribble.gov.uk,South Ribble,http://www.southribble.gov.uk,-2.71983100000000,PR26 7PB,2013-09-18,fhrs_5_en-GB,5,,FHRS,0
197231,Moss Side County Primary School Paradise Lane Moss Side Leyland Preston Lancashire,,,,Moss Side County Primary School,School/college/university,7845,0,,32279,0,,53.69435900000000,09410/4000/0/001,205,envhealth@southribble.gov.uk,South Ribble,http://www.southribble.gov.uk,-2.72950800000000,PR26 7ST,2013-11-05,fhrs_5_en-GB,5,,FHRS,0
197232,Much Hoole Play Centre Moss House Lane Much Hoole Preston,,,,Much Hoole Play Centre,Other catering premises,7841,5,,62026,5,,53.69901800000000,13670/4000/0/009,205,envhealth@southribble.gov.uk,South Ribble,http://www.southribble.gov.uk,-2.79682400000000,PR4 4TD,2013-10-18,fhrs_5_en-GB,5,,FHRS,5
197233,St Michaels Church Of England Primary School Liverpool Old Road Much Hoole Preston Lancashire,,,,Much Hoole School,School/college/university,7845,0,,61968,5,,53.69490400000000,13650/4000/0/005,205,envhealth@southribble.gov.uk,South Ribble,http://www.southribble.gov.uk,-2.81505700000000,PR4 5JQ,2014-12-01,fhrs_5_en-GB,5,,FHRS,5
197234,Much Hoole Post Office 2 Smithy Lane Much Hoole Preston Lancashire,,,,Much Hoole Village Shop,Retailers - other,4613,10,,159201,10,,53.69978000000000,MIXED/471/08,205,envhealth@southribble.gov.uk,South Ribble,http://www.southribble.gov.uk,-2.80106500000000,PR4 4GN,2013-11-15,fhrs_3_en-GB,3,,FHRS,10
197235,Naaz Indian Restaurant Club Street Bamber Bridge Preston Lancashire,,,,Naaz Brasserie,Restaurant/Cafe/Canteen,1,10,,159243,5,,53.72312200000000,MIXED/651/10,205,envhealth@southribble.gov.uk,South Ribble,http://www.southribble.gov.uk,-2.65977700000000,PR5 6FN,2014-08-28,fhrs_4_en-GB,4,,FHRS,5
197236,Nabs Head Hotel Nabs Head Lane Samlesbury Preston Lancashire,,,,Nabs Head Hotel,Hotel/bed & breakfast/guest house,7842,5,,448478,5,,53.76155700000000,MIXED/1071/12,205,envhealth@southribble.gov.uk,South Ribble,http://www.southribble.gov.uk,-2.57576800000000,PR5 0UQ,2014-03-20,fhrs_4_en-GB,4,,FHRS,10
197237,New Hall Tavern Cuerdale Lane Samlesbury Lancashire,,,,New Hall Tavern,Pub/bar/nightclub,7843,5,,159224,5,,53.75717300000000,MIXED/549/09,205,envhealth@southribble.gov.uk,South Ribble,http://www.southribble.gov.uk,-2.62199800000000,PR5 0XA,2014-03-20,fhrs_4_en-GB,4,,FHRS,10
197238,New Longton All Saints C Of E School Hugh Barn Lane New Longton Preston Lancashire,,,,New Longton C Of E School,School/college/university,7845,0,,63049,0,,53.72208700000000,13960/4000/0/000,205,envhealth@southribble.gov.uk,South Ribble,http://www.southribble.gov.uk,-2.74715800000000,PR4 4XA,2015-01-23,fhrs_5_en-GB,5,,FHRS,0
197239,STREET RECORD Brownedge Road Bamber Bridge Lancashire,,,,Nice One Ices,Mobile caterer,7846,5,,159249,5,,53.72750500000000,MIXED/678/10,205,envhealth@southribble.gov.uk,South Ribble,http://www.southribble.gov.uk,-2.67919700000000,,2014-06-20,fhrs_5_en-GB,5,,FHRS,5
197240,15 Priory Lane Penwortham Preston Lancashire,,,,No 15 At Macmillans,Restaurant/Cafe/Canteen,1,5,,726793,0,,53.75099300000000,MIXED/1374/14,205,envhealth@southribble.gov.uk,South Ribble,http://www.southribble.gov.uk,-2.72977700000000,PR1 0AR,2014-12-16,fhrs_5_en-GB,5,,FHRS,0
197241,Northbrook County Junior School Bannister Drive Leyland Preston Lancashire,,,,Northbrook Primary School,School/college/university,7845,0,,21067,5,,53.69623600000000,06760/4000/0/000,205,envhealth@southribble.gov.uk,South Ribble,http://www.southribble.gov.uk,-2.70276300000000,PR25 2GB,2014-11-25,fhrs_2_en-GB,2,,FHRS,15
197242,Oakmount Day Nursery Kellet Lane Bamber Bridge Preston,,,,Oakmount Day Nursery,Hospitals/Childcare/Caring Premises,5,0,,8938,0,,53.72120600000000,03460/4000/0/001,205,envhealth@southribble.gov.uk,South Ribble,http://www.southribble.gov.uk,-2.63683400000000,PR5 6AN,2013-11-14,fhrs_5_en-GB,5,,FHRS,0
197243,Welcome Chinese Takeaway Dunkirk Lane Moss Side Leyland Lancashire,,,,Ocean Fish and Chips,Takeaway/sandwich shop,7844,5,,421559,5,,53.69276700000000,MIXED/1040/12,205,envhealth@southribble.gov.uk,South Ribble,http://www.southribble.gov.uk,-2.73406900000000,PR26 7SN,2014-03-17,fhrs_5_en-GB,5,,FHRS,5
197244,Old Oak Inn 143 Hoghton Lane Hoghton Preston Lancashire,,,,Old Oak,Pub/bar/nightclub,7843,10,,693791,10,,53.74064600000000,MIXED/1344/14,205,envhealth@southribble.gov.uk,South Ribble,http://www.southribble.gov.uk,-2.61640200000000,PR5 0JE,2014-08-01,fhrs_3_en-GB,3,,FHRS,10
197245,Walton Summit Centre Dodd Way Walton Summit Industrial Estate Bamber Bridge Preston Lancashire,,,,Optima Catering Ltd,Restaurant/Cafe/Canteen,1,5,,538421,5,,53.71884800000000,MIXED/1143/13,205,envhealth@southribble.gov.uk,South Ribble,http://www.southribble.gov.uk,-2.65080000000000,PR5 8BX,2014-10-08,fhrs_5_en-GB,5,,FHRS,5
197246,Orchard House Nursery School Orchard Street Leyland Lancashire,,,,Orchard House Nursery,School/college/university,7845,5,,159250,5,,53.69701500000000,MIXED/702/10,205,envhealth@southribble.gov.uk,South Ribble,http://www.southribble.gov.uk,-2.68943300000000,PR25 3SH,2014-10-06,fhrs_5_en-GB,5,,FHRS,5
197247,139 Liverpool Road Longton Preston Lancashire,,,,Orchid,Restaurant/Cafe/Canteen,1,0,,188050,5,,53.72565600000000,MIXED/945/11,205,envhealth@southribble.gov.uk,South Ribble,http://www.southribble.gov.uk,-2.79047700000000,PR4 5AB,2013-10-25,fhrs_5_en-GB,5,,FHRS,5
197248,23 Chapel Brow Leyland Lancashire,,,,Original Bistro French,Restaurant/Cafe/Canteen,1,10,,159277,10,,53.69722000000000,MIXED/828/11,205,envhealth@southribble.gov.uk,South Ribble,http://www.southribble.gov.uk,-2.68963300000000,PR25 3NH,2013-09-27,fhrs_3_en-GB,3,,FHRS,10
197249,9 Dob Lane Walmer Bridge Preston Lancashire,,,,P. Molloy Catering,Mobile caterer,7846,5,,209840,5,,53.71113700000000,MIXED/966/12,205,envhealth@southribble.gov.uk,South Ribble,http://www.southribble.gov.uk,-2.78822000000000,PR4 5QL,2012-02-16,fhrs_5_en-GB,5,,FHRS,5
197250,Pappa Johns 73 Liverpool Road Penwortham Preston Lancashire,,,,Papa Johns,Takeaway/sandwich shop,7844,0,,712330,0,,53.74940600000000,MIXED/1352/14,205,envhealth@southribble.gov.uk,South Ribble,http://www.southribble.gov.uk,-2.73206900000000,PR1 9XD,2014-10-07,fhrs_5_en-GB,5,,FHRS,0
197251,74 Liverpool Road Longton Preston Lancashire,,,,Pappa's Pizzeria,Takeaway/sandwich shop,7844,10,,159151,0,,53.72716700000000,MIXED/117/06,205,envhealth@southribble.gov.uk,South Ribble,http://www.southribble.gov.uk,-2.78206300000000,PR4 5PB,2013-11-27,fhrs_4_en-GB,4,,FHRS,0
197252,6 Ryefield Avenue Penwortham Preston Lancashire,,,,Pat A Cake Cupcakes,Retailers - other,4613,5,,583296,0,,53.73580900000000,FOOD/1216/13,205,envhealth@southribble.gov.uk,South Ribble,http://www.southribble.gov.uk,-2.71979600000000,PR1 9EB,2013-08-22,fhrs_5_en-GB,5,,FHRS,5
197253,STREET RECORD Braconash Road Leyland Lancashire,,,,Pauls,Mobile caterer,7846,5,,631768,5,,53.69952100000000,MIXED/1238/13,205,envhealth@southribble.gov.uk,South Ribble,http://www.southribble.gov.uk,-2.70716000000000,,2014-03-19,fhrs_5_en-GB,5,,FHRS,5
197254,Pauls Farm 382 Dunkirk Lane Moss Side Leyland Lancashire,,,,Pauls Farm Shop Limited,Retailers - other,4613,5,,518633,0,,53.69507300000000,FOOD/1118/13,205,envhealth@southribble.gov.uk,South Ribble,http://www.southribble.gov.uk,-2.74777000000000,PR26 7SY,2014-07-11,fhrs_5_en-GB,5,,FHRS,5
197255,Pear Tree Hotel 2 Station Road Bamber Bridge Preston Lancashire,,,,Pear Tree Hotel,Restaurant/Cafe/Canteen,1,10,,159208,10,,53.73466200000000,MIXED/489/09,205,envhealth@southribble.gov.uk,South Ribble,http://www.southribble.gov.uk,-2.66314100000000,PR5 6QL,2014-01-21,fhrs_3_en-GB,3,,FHRS,10
197256,The Pear Tree Inn 155 Leyland Road Penwortham Preston,,,,Pear Tree Inn,Pub/bar/nightclub,7843,10,,69765,10,,53.73933000000000,15740/0155/0/000,205,envhealth@southribble.gov.uk,South Ribble,http://www.southribble.gov.uk,-2.70656000000000,PR1 9QB,2014-10-29,fhrs_3_en-GB,3,,FHRS,10
197257,Unit 9 Chandlers Business Park Talbot Road Leyland Lancashire,,,,Peek - A - Brew,Restaurant/Cafe/Canteen,1,0,,708560,5,,53.70072400000000,MIXED/1356/14,205,envhealth@southribble.gov.uk,South Ribble,http://www.southribble.gov.uk,-2.71133600000000,PR25 2ZG,2014-10-09,fhrs_5_en-GB,5,,FHRS,0
197258,282 Station Road Bamber Bridge Preston Lancashire,,,,Peking Inn,Restaurant/Cafe/Canteen,1,5,,13401,5,,53.72538900000000,04040/0282/0/000,205,envhealth@southribble.gov.uk,South Ribble,http://www.southribble.gov.uk,-2.66091900000000,PR5 6EB,2014-10-29,fhrs_5_en-GB,5,,FHRS,5
197259,150 Station Road Bamber Bridge Preston Lancashire,,,,Penningtons,Retailers - other,4613,5,,565929,5,,53.72927100000000,MIXED/1169/13,205,envhealth@southribble.gov.uk,South Ribble,http://www.southribble.gov.uk,-2.66123800000000,PR5 6TP,2013-06-27,fhrs_5_en-GB,5,,FHRS,5
197260,27 Chorley Road Walton-Le-Dale Preston Lancashire,,,,Penningtons,Takeaway/sandwich shop,7844,10,,159230,10,,53.74694200000000,MIXED/574/09,205,envhealth@southribble.gov.uk,South Ribble,http://www.southribble.gov.uk,-2.67244800000000,PR5 4JA,2014-07-30,fhrs_3_en-GB,3,,FHRS,5
197261,Broad Oak County School Pope Lane Penwortham Preston Lancashire,,,,Penwortham Broad Oak County School,School/college/university,7845,5,,72008,0,,53.73462300000000,16380/4000/0/000,205,envhealth@southribble.gov.uk,South Ribble,http://www.southribble.gov.uk,-2.72421700000000,PR1 9DE,2014-11-27,fhrs_5_en-GB,5,,FHRS,5
197262,54 Liverpool Road Penwortham Lancashire,,,,Penwortham Chop Suey House,Takeaway/sandwich shop,7844,5,,69921,5,,53.74989000000000,15800/0054/0/000,205,envhealth@southribble.gov.uk,South Ribble,http://www.southribble.gov.uk,-2.73221400000000,PR1 0DQ,2013-06-27,fhrs_5_en-GB,5,,FHRS,0
197263,Penwortham County Primary School Crookings Lane Penwortham Preston Lancashire,,,,Penwortham County Primary School,School/college/university,7845,5,,66815,5,,53.74955400000000,14990/4000/0/000,205,envhealth@southribble.gov.uk,South Ribble,http://www.southribble.gov.uk,-2.73721300000000,PR1 0HU,2013-07-16,fhrs_5_en-GB,5,,FHRS,5
197264,Penwortham Girls High School Cop Lane Penwortham Preston Lancashire,,,,Penwortham Girls High School,School/college/university,7845,0,,448473,0,,53.74754200000000,FOOD/1021/12,205,envhealth@southribble.gov.uk,South Ribble,http://www.southribble.gov.uk,-2.72968600000000,PR1 0SR,2014-03-26,fhrs_5_en-GB,5,,FHRS,0
197265,Penwortham Golf Club Blundell Lane Penwortham Preston Lancashire,,,,Penwortham Golf Club,Other catering premises,7841,10,,735193,10,,53.75430200000000,MIXED/1377/14,205,envhealth@southribble.gov.uk,South Ribble,http://www.southribble.gov.uk,-2.73095600000000,PR1 0AX,2014-11-20,fhrs_3_en-GB,3,,FHRS,10
197266,Penwortham Grange Martinfield Road Penwortham Preston Lancashire,,,,Penwortham Grange and Lodge,Hospitals/Childcare/Caring Premises,5,0,,159169,0,,53.73601900000000,MIXED/230/07,205,envhealth@southribble.gov.uk,South Ribble,http://www.southribble.gov.uk,-2.71322000000000,PR1 9HL,2014-09-03,fhrs_5_en-GB,5,,FHRS,5
197267,Penwortham Priory Technology College Crow Hills Road Penwortham Preston Lancashire,,,,Penwortham Priory Academy,School/college/university,7845,5,,730631,0,,53.75078000000000,FOOD/1332/14,205,envhealth@southribble.gov.uk,South Ribble,http://www.southribble.gov.uk,-2.74097900000000,PR1 0JE,2014-10-14,fhrs_5_en-GB,5,,FHRS,0
197268,91 Leyland Lane Leyland Preston Lancashire,,,,Peppers Grill,Takeaway/sandwich shop,7844,5,,430222,5,,53.69853000000000,MIXED/1047/12,205,envhealth@southribble.gov.uk,South Ribble,http://www.southribble.gov.uk,-2.71302500000000,PR25 1XB,2013-08-07,fhrs_5_en-GB,5,,FHRS,5
197269,11A Preston Road Leyland Lancashire,,,,Petras,Takeaway/sandwich shop,7844,10,,421558,5,,53.70019700000000,MIXED/1014/12,205,envhealth@southribble.gov.uk,South Ribble,http://www.southribble.gov.uk,-2.68613700000000,PR25 4NT,2013-11-26,fhrs_4_en-GB,4,,FHRS,5
197270,STREET RECORD Brownedge Road Bamber Bridge Lancashire,,,,Phils Ices,Mobile caterer,7846,5,,333364,5,,53.72750500000000,MIXED/968/12,205,envhealth@southribble.gov.uk,South Ribble,http://www.southribble.gov.uk,-2.67919700000000,,2012-03-16,fhrs_5_en-GB,5,,FHRS,5
197271,Pinocchios Restaurant 34 Chorley Road Walton-Le-Dale Preston Lancashire,,,,Pinocchio's Restaurant,Restaurant/Cafe/Canteen,1,5,,78029,5,,53.74694200000000,18470/0034/0/000,205,envhealth@southribble.gov.uk,South Ribble,http://www.southribble.gov.uk,-2.67244800000000,PR5 4JA,2014-08-14,fhrs_5_en-GB,5,,FHRS,5
197272,Unit 6 Clifton Parade Bristol Avenue Farington Leyland Lancashire,,,,Pizza Costa,Takeaway/sandwich shop,7844,10,,576345,10,,53.70371800000000,MIXED/1195/13,205,envhealth@southribble.gov.uk,South Ribble,http://www.southribble.gov.uk,-2.68031700000000,PR25 4YU,2014-09-10,fhrs_3_en-GB,3,,FHRS,10
197273,Pizza Roma 1B Victoria Terrace Watkin Lane Lostock Hall Preston Lancashire,,,,Pizza Roma,Takeaway/sandwich shop,7844,5,,60757,5,,53.72645600000000,13280/0001/B/000,205,envhealth@southribble.gov.uk,South Ribble,http://www.southribble.gov.uk,-2.69318800000000,PR5 5RX,2013-06-25,fhrs_4_en-GB,4,,FHRS,10
197274,Pleasant Retreat 2 Watkin Lane Lostock Hall Preston Lancashire,,,,Pleasant Retreat,Pub/bar/nightclub,7843,10,,647263,10,,53.72557900000000,MIXED/1259/13,205,envhealth@southribble.gov.uk,South Ribble,http://www.southribble.gov.uk,-2.69096100000000,PR5 5RD,2014-03-26,fhrs_3_en-GB,3,,FHRS,10
197275,Millers Lostock Lane Bamber Bridge Preston Lancashire,,,,Poachers,Hotel/bed & breakfast/guest house,7842,10,,159299,5,,53.72157200000000,MIXED/898/11,205,envhealth@southribble.gov.uk,South Ribble,http://www.southribble.gov.uk,-2.67016400000000,PR5 6BA,2013-04-26,fhrs_4_en-GB,4,,FHRS,5
197276,15 Poplar Avenue Bamber Bridge Preston Lancashire,,,,Poplar Fish Bar,Takeaway/sandwich shop,7844,5,,159270,5,,53.73101800000000,MIXED/788/11,205,envhealth@southribble.gov.uk,South Ribble,http://www.southribble.gov.uk,-2.65559600000000,PR5 6JJ,2014-02-26,fhrs_5_en-GB,5,,FHRS,5
197277,197 Dunkirk Lane Leyland Preston,,,,Poplars Nursery,Hospitals/Childcare/Caring Premises,5,0,,24352,0,,53.69276700000000,07650/0197/0/000,205,envhealth@southribble.gov.uk,South Ribble,http://www.southribble.gov.uk,-2.73406900000000,PR26 7SN,2013-08-29,fhrs_5_en-GB,5,,FHRS,5
197278,84 Liverpool Road Longton Lancashire,,,,Porcini's Ristorante,Restaurant/Cafe/Canteen,1,5,,51261,5,,53.72721500000000,11470/0084/0/000,205,envhealth@southribble.gov.uk,South Ribble,http://www.southribble.gov.uk,-2.78306500000000,PR4 5NB,2013-10-23,fhrs_5_en-GB,5,,FHRS,5
197279,Express By Holiday Inn Craven Drive Bamber Bridge Preston Lancashire,,,,Premier Inn,Hotel/bed & breakfast/guest house,7842,0,,159199,0,,53.72062100000000,MIXED/461/08,205,envhealth@southribble.gov.uk,South Ribble,http://www.southribble.gov.uk,-2.67139200000000,PR5 6BZ,2014-02-04,fhrs_5_en-GB,5,,FHRS,0
197280,Unit 1 The Capitol Centre Capitol Way Walton-Le-Dale Preston Lancashire,,,,Prezzo,Restaurant/Cafe/Canteen,1,5,,631771,5,,53.74882700000000,MIXED/1279/14,205,envhealth@southribble.gov.uk,South Ribble,http://www.southribble.gov.uk,-2.67771000000000,PR5 4AW,2014-01-14,fhrs_5_en-GB,5,,FHRS,0
197281,Priory Park Nursing Home Priory Crescent Penwortham Preston Lancashire,,,,Priory Park Care Home,Hospitals/Childcare/Caring Premises,5,5,,333363,0,,53.75433000000000,MIXED/963/12,205,envhealth@southribble.gov.uk,South Ribble,http://www.southribble.gov.uk,-2.72646700000000,PR1 0AL,2014-12-09,fhrs_5_en-GB,5,,FHRS,5
197282,91 Hennel Lane Walton-Le-Dale Preston Lancashire,,,,Progress,Hospitals/Childcare/Caring Premises,5,0,,703248,0,,53.74219400000000,FOOD/1309/14,205,envhealth@southribble.gov.uk,South Ribble,http://www.southribble.gov.uk,-2.67916500000000,PR5 4LE,2014-08-28,fhrs_5_en-GB,5,,FHRS,0
197283,244A Cop Lane Penwortham Preston Lancashire,,,,Puccini,Restaurant/Cafe/Canteen,1,10,,159162,10,,53.73824200000000,MIXED/184/07,205,envhealth@southribble.gov.uk,South Ribble,http://www.southribble.gov.uk,-2.72330900000000,PR1 9AB,2014-02-12,fhrs_4_en-GB,4,,FHRS,0
197284,Parochial Centre Brownedge Road Lostock Hall Preston Lancashire,,,,Quality Food Fayre,Restaurant/Cafe/Canteen,1,0,,623137,5,,53.72698200000000,MIXED/573/09,205,envhealth@southribble.gov.uk,South Ribble,http://www.southribble.gov.uk,-2.69247000000000,PR5 5AA,2013-12-10,fhrs_5_en-GB,5,,FHRS,5
197285,1 Highgate Penwortham Preston Lancashire,,,,Rachel's Cakes,Retailers - other,4613,0,,623132,0,,53.75023300000000,FOOD/1244/13,205,envhealth@southribble.gov.uk,South Ribble,http://www.southribble.gov.uk,-2.73491900000000,PR1 0HY,2013-12-17,fhrs_5_en-GB,5,,FHRS,0
197286,Unit A4 South Ribble Industrial Estate Winery Lane Walton-Le-Dale Preston Lancashire,,,,Rascals Party and Play Centre,Restaurant/Cafe/Canteen,1,5,,159176,5,,53.75043200000000,MIXED/307/08,205,envhealth@southribble.gov.uk,South Ribble,http://www.southribble.gov.uk,-2.67996500000000,PR5 4BG,2014-11-21,fhrs_4_en-GB,4,,FHRS,10
197287,Ravenscroft Liverpool Road Longton Preston Lancashire,,,,Ravenscroft Rest Home,Hospitals/Childcare/Caring Premises,5,5,,197601,0,,53.72776400000000,MIXED/799/11,205,envhealth@southribble.gov.uk,South Ribble,http://www.southribble.gov.uk,-2.78016500000000,PR4 5HA,2013-08-15,fhrs_5_en-GB,5,,FHRS,0
197288,The Red Lion 138 Liverpool Road Longton Preston Lancashire,,,,Red Lion Public House,Pub/bar/nightclub,7843,5,,576342,5,,53.72624600000000,MIXED/1153/13,205,envhealth@southribble.gov.uk,South Ribble,http://www.southribble.gov.uk,-2.78956400000000,PR4 5AU,2013-07-01,fhrs_5_en-GB,5,,FHRS,5
197289,303 Leyland Lane Leyland Lancashire,,,,Reiver House,Hospitals/Childcare/Caring Premises,5,5,,611161,5,,53.68971100000000,MIXED/1258/13,205,envhealth@southribble.gov.uk,South Ribble,http://www.southribble.gov.uk,-2.71632900000000,PR25 1UP,2013-11-11,fhrs_5_en-GB,5,,FHRS,0
197290,88 Station Road Bamber Bridge Preston Lancashire,,,,Rico's Pizzas,Takeaway/sandwich shop,7844,5,,13389,5,,53.73239900000000,04040/0088/0/000,205,envhealth@southribble.gov.uk,South Ribble,http://www.southribble.gov.uk,-2.66275700000000,PR5 6QP,2014-10-31,fhrs_5_en-GB,5,,FHRS,5
197291,6 Main Square Buckshaw Village Chorley Lancashire,,,,Rigbye's Village Store,Retailers - other,4613,10,,159161,10,,53.68103100000000,MIXED/174/07,205,envhealth@southribble.gov.uk,South Ribble,http://www.southribble.gov.uk,-2.66277100000000,,2014-03-28,fhrs_3_en-GB,3,,FHRS,10
197292,Rios Chicken Hut 1 Bridge Court Little Hoole Preston Lancashire,,,,Rios Chicken,Restaurant/Cafe/Canteen,1,5,,623133,5,,53.70743200000000,MIXED/1230/13,205,envhealth@southribble.gov.uk,South Ribble,http://www.southribble.gov.uk,-2.79521100000000,PR4 5JT,2013-11-25,fhrs_5_en-GB,5,,FHRS,5
197293,61 - 63 Liverpool Road Penwortham Lancashire,,,,Ristorante Salvatore,Restaurant/Cafe/Canteen,1,10,,69922,10,,53.74940600000000,15800/0063/0/000,205,envhealth@southribble.gov.uk,South Ribble,http://www.southribble.gov.uk,-2.73206900000000,PR1 9XD,2013-08-29,fhrs_3_en-GB,3,,FHRS,10
197294,1 - 3 Leyland Road Penwortham Preston Lancashire,,,,Riverside Cafe,Restaurant/Cafe/Canteen,1,10,,623136,10,,53.74676800000000,MIXED/1260/13,205,envhealth@southribble.gov.uk,South Ribble,http://www.southribble.gov.uk,-2.71337200000000,PR1 9QH,2013-12-10,fhrs_3_en-GB,3,,FHRS,10
197295,STREET RECORD Hough Lane Leyland Lancashire,,,,Robinsons,Mobile caterer,7846,5,,726792,5,,,MIXED/1329/14,205,envhealth@southribble.gov.uk,South Ribble,http://www.southribble.gov.uk,,,2014-08-26,fhrs_5_en-GB,5,,FHRS,5
197296,EH (Out Of Borough Addresses) Civic Centre West Paddock Leyland Lancashire,,,,Robinsons Farm Ice Cream,Mobile caterer,7846,5,,679788,10,,53.68990400000000,MIXED/1320/14,205,envhealth@southribble.gov.uk,South Ribble,http://www.southribble.gov.uk,-2.70937200000000,,2014-05-28,fhrs_4_en-GB,4,,FHRS,5
197297,0 Towngate Leyland Lancashire,,,,Robinsons Farm Ices,Mobile caterer,7846,10,,28234,10,,53.69062500000000,08760/0267/0/000,205,envhealth@southribble.gov.uk,South Ribble,http://www.southribble.gov.uk,-2.69769100000000,,2013-10-15,fhrs_3_en-GB,3,,FHRS,10
197298,STREET RECORD Brownedge Road Bamber Bridge Lancashire,,,,Robinsons Farm Ices,Mobile caterer,7846,5,,595316,5,,53.72750500000000,MIXED/1030/12,205,envhealth@southribble.gov.uk,South Ribble,http://www.southribble.gov.uk,-2.67919700000000,,2014-09-24,fhrs_5_en-GB,5,,FHRS,0
197299,41 - 45 Chapel Brow Leyland Lancashire,,,,Roccoco,Restaurant/Cafe/Canteen,1,10,,159252,5,,53.69722000000000,MIXED/712/10,205,envhealth@southribble.gov.uk,South Ribble,http://www.southribble.gov.uk,-2.68963300000000,PR25 3NH,2014-11-13,fhrs_4_en-GB,4,,FHRS,5
197300,Romeros Pizzas and Kebabs Chapel Brow Leyland Lancashire,,,,Romero's Pizzas & Kebabs,Takeaway/sandwich shop,7844,10,,23990,10,,53.69722000000000,07200/4000/0/000,205,envhealth@southribble.gov.uk,South Ribble,http://www.southribble.gov.uk,-2.68963300000000,PR25 3NH,2014-10-01,fhrs_3_en-GB,3,,FHRS,10
197301,Runshaw College Langdale Road Leyland Lancashire,,,,Runshaw Dining,School/college/university,7845,5,,28146,0,,53.68740600000000,08640/4000/0/000,205,envhealth@southribble.gov.uk,South Ribble,http://www.southribble.gov.uk,-2.68317300000000,PR25 3AQ,2013-01-23,fhrs_5_en-GB,5,,FHRS,5
197302,Sadiya Balti House 240 Station Road Bamber Bridge Preston Lancashire,,,,Sadiya,Takeaway/sandwich shop,7844,10,,159202,5,,53.72658600000000,MIXED/478/08,205,envhealth@southribble.gov.uk,South Ribble,http://www.southribble.gov.uk,-2.66077100000000,PR5 6EA,2013-08-28,fhrs_4_en-GB,4,,FHRS,5
197303,J Sainsbury PLC Cuerden Way Bamber Bridge Preston,,,,Sainsburys,Retailers - supermarkets/hypermarkets,7840,0,,8604,0,,53.72303300000000,03080/4000/0/002,205,envhealth@southribble.gov.uk,South Ribble,http://www.southribble.gov.uk,-2.66933900000000,PR5 6BJ,2014-03-31,fhrs_5_en-GB,5,,FHRS,0
197304,Samlesbury C Of E School Potters Lane Samlesbury Preston Lancashire,,,,Samlesbury C Of E School,School/college/university,7845,5,,75486,5,,53.77012200000000,17640/4000/0/000,205,envhealth@southribble.gov.uk,South Ribble,http://www.southribble.gov.uk,-2.62088500000000,PR5 0UE,2014-02-04,fhrs_5_en-GB,5,,FHRS,5
197305,Samlesbury Hall Preston New Road Samlesbury Preston,,,,Samlesbury Hall Ltd,Restaurant/Cafe/Canteen,1,5,,75506,5,,53.76864700000000,17650/2032/2/000,205,envhealth@southribble.gov.uk,South Ribble,http://www.southribble.gov.uk,-2.57977900000000,PR5 0UP,2015-01-23,fhrs_5_en-GB,5,,FHRS,0
197306,Sangam Balti House First Floor 14 - 15 Hope Terrace Lostock Hall Preston Lancashire,,,,Sangam Balti House,Restaurant/Cafe/Canteen,1,10,,647264,15,,53.72585700000000,MIXED/1307/14,205,envhealth@southribble.gov.uk,South Ribble,http://www.southribble.gov.uk,-2.69278400000000,PR5 5RU,2014-04-08,fhrs_2_en-GB,2,,FHRS,10
197307,1 Hollands Farm Wigan Road Leyland Preston,,,,Sarah's Ark Day Nursery,Hospitals/Childcare/Caring Premises,5,5,,42639,5,,53.69059900000000,10510/4000/0/008,205,envhealth@southribble.gov.uk,South Ribble,http://www.southribble.gov.uk,-2.67482100000000,PR25 5UD,2014-08-26,fhrs_5_en-GB,5,,FHRS,5
197308,Sceptre Nursery 2 Sceptre Way Bamber Bridge Preston,,,,Sceptre Nursery,Hospitals/Childcare/Caring Premises,5,0,,9253,0,,53.71939700000000,03870/4001/0/000,205,envhealth@southribble.gov.uk,South Ribble,http://www.southribble.gov.uk,-2.63886700000000,PR5 6AW,2014-11-28,fhrs_5_en-GB,5,,FHRS,0
197309,St Catherines Roman Catholic School Moss Lane Leyland Lancashire,,,,School Kitchen,School/college/university,7845,5,,32031,5,,53.69929700000000,09140/4000/0/003,205,envhealth@southribble.gov.uk,South Ribble,http://www.southribble.gov.uk,-2.67856500000000,PR25 4SJ,2014-01-07,fhrs_5_en-GB,5,,FHRS,5
197310,54 School Lane Bamber Bridge Preston Lancashire,,,,School Lane Chippy,Takeaway/sandwich shop,7844,10,,159168,5,,53.73689600000000,MIXED/229/07,205,envhealth@southribble.gov.uk,South Ribble,http://www.southribble.gov.uk,-2.65903800000000,PR5 6QE,2013-09-10,fhrs_4_en-GB,4,,FHRS,5
197311,42 School Lane Bamber Bridge Preston Lancashire,,,,School Lane Super Saver,Retailers - other,4613,5,,467733,5,,53.73596700000000,MIXED/1039/12,205,envhealth@southribble.gov.uk,South Ribble,http://www.southribble.gov.uk,-2.66125200000000,PR5 6QD,2014-07-28,fhrs_5_en-GB,5,,FHRS,5
197312,School Lane Working Mens Club St. Aidans Road Bamber Bridge Preston,,,,School Lane Working Mens Club,Pub/bar/nightclub,7843,10,,13365,10,,53.73547600000000,04010/4000/0/000,205,envhealth@southribble.gov.uk,South Ribble,http://www.southribble.gov.uk,-2.66215400000000,PR5 6GD,2013-11-06,fhrs_3_en-GB,3,,FHRS,10
197313,Stanley Grange Roach Road Samlesbury Preston,,,,Self Unlimited,Hospitals/Childcare/Caring Premises,5,5,,75531,5,,53.74485900000000,17660/2023/2/000,205,envhealth@southribble.gov.uk,South Ribble,http://www.southribble.gov.uk,-2.59731300000000,PR5 0RB,2014-11-19,fhrs_5_en-GB,5,,FHRS,5
197314,36B Liverpool Road Penwortham Preston Lancashire,,,,Sen's Relish,Restaurant/Cafe/Canteen,1,0,,159281,0,,53.74989000000000,MIXED/838/11,205,envhealth@southribble.gov.uk,South Ribble,http://www.southribble.gov.uk,-2.73221400000000,PR1 0DQ,2014-12-15,fhrs_5_en-GB,5,,FHRS,5
197315,360 Leyland Lane Leyland Preston Lancashire,,,,Seven Stars,Takeaway/sandwich shop,7844,10,,159154,5,,53.68757900000000,MIXED/132/06,205,envhealth@southribble.gov.uk,South Ribble,http://www.southribble.gov.uk,-2.71665600000000,PR25 1TB,2013-11-12,fhrs_4_en-GB,4,,FHRS,5
197316,Seven Stars Cp Infants School Peacock Hall Road Leyland Preston Lancashire,,,,Seven Stars Cp Infants School,School/college/university,7845,0,,32327,0,,53.68651000000000,09460/4000/0/000,205,envhealth@southribble.gov.uk,South Ribble,http://www.southribble.gov.uk,-2.71804600000000,PR25 1TD,2013-11-07,fhrs_5_en-GB,5,,FHRS,5
197317,345 Station Road Bamber Bridge Preston Lancashire,,,,Shaws Sandwich Bar,Restaurant/Cafe/Canteen,1,10,,726794,10,,53.72369900000000,MIXED/1381/14,205,envhealth@southribble.gov.uk,South Ribble,http://www.southribble.gov.uk,-2.66110500000000,PR5 6EE,2014-12-16,fhrs_3_en-GB,3,,FHRS,10
197318,6 Clayton Avenue Leyland Lancashire,,,,Sheila's Jams,Restaurant/Cafe/Canteen,1,0,,589297,0,,53.68499600000000,FOOD/1197/13,205,envhealth@southribble.gov.uk,South Ribble,http://www.southribble.gov.uk,-2.71423500000000,PR25 1AT,2013-08-18,fhrs_5_en-GB,5,,FHRS,5
197319,Sir Tom Finney P H Central Drive Penwortham Preston Lancashire,,,,Sir Tom Finney,Pub/bar/nightclub,7843,10,,159287,5,,53.74176400000000,MIXED/857/11,205,envhealth@southribble.gov.uk,South Ribble,http://www.southribble.gov.uk,-2.74261000000000,PR1 0NL,2013-10-18,fhrs_3_en-GB,3,,FHRS,10
197320,STREET RECORD Liverpool Old Road Much Hoole Lancashire,,,,Sizzlers,Mobile caterer,7846,5,,606954,10,,,MIXED/1204/13,205,envhealth@southribble.gov.uk,South Ribble,http://www.southribble.gov.uk,,,2013-10-14,fhrs_4_en-GB,4,,FHRS,5
197321,Leyland Golf Club Wigan Road Leyland Lancashire,,,,Slaters Catering Limited,Restaurant/Cafe/Canteen,1,5,,188047,5,,53.69059900000000,MIXED/958/12,205,envhealth@southribble.gov.uk,South Ribble,http://www.southribble.gov.uk,-2.67482100000000,PR25 5UD,2014-06-25,fhrs_5_en-GB,5,,FHRS,5
197322,7 Priory Lane Penwortham Preston,,,,Slice Of Sicily,Takeaway/sandwich shop,7844,10,,72281,5,,53.75099300000000,16460/0007/0/000,205,envhealth@southribble.gov.uk,South Ribble,http://www.southribble.gov.uk,-2.72977700000000,PR1 0AR,2014-03-26,fhrs_3_en-GB,3,,FHRS,10
197323,2 Liege Road Leyland Preston,,,,Small World Private Day Nursery,Hospitals/Childcare/Caring Premises,5,5,,28258,5,,53.69140000000000,08790/0002/0/000,205,envhealth@southribble.gov.uk,South Ribble,http://www.southribble.gov.uk,-2.69514100000000,PR25 2ES,2014-01-15,fhrs_4_en-GB,4,,FHRS,10
197324,Smithy Inn 133 Liverpool Old Road Much Hoole Preston Lancashire,,,,Smithy Inn,Pub/bar/nightclub,7843,5,,589301,5,,53.69984400000000,MIXED/1146/13,205,envhealth@southribble.gov.uk,South Ribble,http://www.southribble.gov.uk,-2.80498900000000,PR4 4GB,2013-09-06,fhrs_4_en-GB,4,,FHRS,10
197325,83 Liverpool Road Penwortham Preston,,,,Snack & Chat,Restaurant/Cafe/Canteen,1,5,,69924,5,,53.74876000000000,15800/0083/0/000,205,envhealth@southribble.gov.uk,South Ribble,http://www.southribble.gov.uk,-2.73484800000000,PR1 0QB,2014-09-17,fhrs_4_en-GB,4,,FHRS,10
197326,Unit 100B Edward Street Walton-Le-Dale Preston Lancashire,,,,Snack Attack,Restaurant/Cafe/Canteen,1,10,,583300,10,,53.75066100000000,MIXED/1207/13,205,envhealth@southribble.gov.uk,South Ribble,http://www.southribble.gov.uk,-2.67919500000000,PR5 4AQ,2014-12-12,fhrs_3_en-GB,3,,FHRS,10
197327,0 Brierley Road Walton Summit Industrial Estate Bamber Bridge Lancashire,,,,Snack Van,Mobile caterer,7846,10,,32221,5,,53.72147810003729,09360/0002/0/000,205,envhealth@southribble.gov.uk,South Ribble,http://www.southribble.gov.uk,-2.64928553973933,,2014-07-23,fhrs_4_en-GB,4,,FHRS,5
197328,0 Cocker Road Walton Summit Industrial Estate Bamber Bridge Lancashire,,,,Snappy Snacks,Mobile caterer,7846,5,,159159,5,,53.72304635647294,MIXED/168/07,205,envhealth@southribble.gov.uk,South Ribble,http://www.southribble.gov.uk,-2.64653685437865,,2014-11-21,fhrs_5_en-GB,5,,FHRS,5
197329,South Ribble Tennis Centre Cuerden Way Bamber Bridge Preston Lancashire,,,,South Ribble Tennis Centre,Other catering premises,7841,5,,421560,10,,53.72303300000000,MIXED/54/06,205,envhealth@southribble.gov.uk,South Ribble,http://www.southribble.gov.uk,-2.66933900000000,PR5 6BJ,2013-11-26,fhrs_4_en-GB,4,,FHRS,5
197330,Walmer Bridge Post Office 108 Liverpool Old Road Walmer Bridge Preston,,,,Spar,Retailers - other,4613,0,,77305,0,,53.71084300000000,18130/0108/1/000,205,envhealth@southribble.gov.uk,South Ribble,http://www.southribble.gov.uk,-2.79051800000000,PR4 5GE,2013-10-22,fhrs_5_en-GB,5,,FHRS,0
197331,2-4 Alder Drive Hoghton Preston,,,,Spar Stores,Retailers - other,4613,5,,16995,10,,53.73246900000000,05450/0002/0/000,205,envhealth@southribble.gov.uk,South Ribble,http://www.southribble.gov.uk,-2.62114800000000,PR5 0AD,2013-10-22,fhrs_3_en-GB,3,,FHRS,10
197332,343 Leyland Lane Leyland Preston,,,,Spar Stores,Retailers - other,4613,5,,28236,5,,53.68971100000000,08760/0343/0/000,205,envhealth@southribble.gov.uk,South Ribble,http://www.southribble.gov.uk,-2.71632900000000,PR25 1UP,2013-04-22,fhrs_5_en-GB,5,,FHRS,5
197333,Spar/Post Office 11/15 Broadfield Drive Leyland Preston,,,,Spar Stores,Retailers - other,4613,5,,657822,5,,53.69697900000000,07060/0011/0/000,205,envhealth@southribble.gov.uk,South Ribble,http://www.southribble.gov.uk,-2.71081800000000,PR25 1GJ,2014-04-29,fhrs_5_en-GB,5,,FHRS,0
197334,3 Victoria Terrace Lostock Hall Preston,,,,Spar Stores (with Post Office),Retailers - other,4613,10,,60758,10,,53.72645600000000,13280/0003/0/000,205,envhealth@southribble.gov.uk,South Ribble,http://www.southribble.gov.uk,-2.69318800000000,PR5 5RX,2013-04-23,fhrs_3_en-GB,3,,FHRS,5
197335,St Teresas Primary School Stanley Grove Penwortham Preston Lancashire,,,,St Teresas Primary School,School/college/university,7845,0,,73130,0,,53.74796000000000,16750/4000/0/000,205,envhealth@southribble.gov.uk,South Ribble,http://www.southribble.gov.uk,-2.73912600000000,PR1 0JH,2015-01-20,fhrs_5_en-GB,5,,FHRS,0
197336,St Aidans School Larch Grove Bamber Bridge Preston Lancashire,,,,St. Aidans School,School/college/university,7845,0,,8983,0,,53.73195400000000,03490/4000/0/000,205,envhealth@southribble.gov.uk,South Ribble,http://www.southribble.gov.uk,-2.65553500000000,PR5 6GX,2013-07-09,fhrs_5_en-GB,5,,FHRS,5
197337,St Annes School Slater Lane Moss Side Leyland Preston Lancashire,,,,St. Annes School,School/college/university,7845,0,,32602,0,,53.68933700000000,09840/4000/0/002,205,envhealth@southribble.gov.uk,South Ribble,http://www.southribble.gov.uk,-2.71724600000000,PR25 1TL,2014-12-16,fhrs_5_en-GB,5,,FHRS,0
197338,St. Catherines Hospice Lostock Lane Lostock Hall Preston,,,,St. Catherines Hospice,Hospitals/Childcare/Caring Premises,5,5,,56056,5,,53.72080800000000,12660/4000/0/000,205,envhealth@southribble.gov.uk,South Ribble,http://www.southribble.gov.uk,-2.68135100000000,PR5 5XU,2014-07-15,fhrs_5_en-GB,5,,FHRS,5
197339,St James Church Of England School Slater Lane Moss Side Leyland Lancashire,,,,St. James C Of E School,School/college/university,7845,0,,32601,5,,53.68933700000000,09840/4000/0/000,205,envhealth@southribble.gov.uk,South Ribble,http://www.southribble.gov.uk,-2.71724600000000,PR25 1TL,2014-03-26,fhrs_5_en-GB,5,,FHRS,0
197340,St Leonards Church Of England Primary School Walton Green Walton-Le-Dale Preston Lancashire,,,,St. Leonards C Of E Primary School,School/college/university,7845,5,,80241,5,,53.74572000000000,19400/4000/0/000,205,envhealth@southribble.gov.uk,South Ribble,http://www.southribble.gov.uk,-2.67561300000000,PR5 4JL,2013-06-21,fhrs_5_en-GB,5,,FHRS,5
197341,St Mary Magdalen Roman Catholic School Buller Avenue Penwortham Preston Lancashire,,,,St. Mary Magdelenes School,Hospitals/Childcare/Caring Premises,5,5,,65326,5,,53.74446500000000,14660/4000/0/000,205,envhealth@southribble.gov.uk,South Ribble,http://www.southribble.gov.uk,-2.70925400000000,PR1 9QQ,2013-07-11,fhrs_5_en-GB,5,,FHRS,5
197342,St Marys And St Benedicts R C Primary School Brownedge Lane Bamber Bridge Preston Lancashire,,,,St. Marys and St. Benedicts RC Primary School,School/college/university,7845,5,,7231,5,,53.73084900000000,02840/4000/0/002,205,envhealth@southribble.gov.uk,South Ribble,http://www.southribble.gov.uk,-2.66356600000000,PR5 6TA,2014-09-10,fhrs_4_en-GB,4,,FHRS,10
197343,St Marys Primary School Haig Avenue Leyland Preston Lancashire,,,,St. Marys Primary School,School/college/university,7845,10,,27603,0,,53.69604300000000,08110/4000/0/000,205,envhealth@southribble.gov.uk,South Ribble,http://www.southribble.gov.uk,-2.69891300000000,PR25 2QA,2014-11-27,fhrs_4_en-GB,4,,FHRS,10
197344,St Marys Roman Catholic High School Royal Avenue Leyland Lancashire,,,,St. Marys RC School,School/college/university,7845,5,,32535,10,,53.68481000000000,09710/4000/0/000,205,envhealth@southribble.gov.uk,South Ribble,http://www.southribble.gov.uk,-2.71067400000000,PR25 1BX,2013-01-16,fhrs_4_en-GB,4,,FHRS,0
197345,St Patricks School Higher Walton Road Walton-Le-Dale Lancashire,,,,St. Patricks School,School/college/university,7845,5,,78689,5,,53.74632700000000,18780/4000/0/002,205,envhealth@southribble.gov.uk,South Ribble,http://www.southribble.gov.uk,-2.66670700000000,PR5 4HD,2014-03-12,fhrs_5_en-GB,5,,FHRS,5
197346,St Oswalds Roman Catholic School Chapel Lane Longton Lancashire,,,,St.Oswalds R.C. School,School/college/university,7845,5,,49907,5,,53.72509100000000,11090/4000/0/004,205,envhealth@southribble.gov.uk,South Ribble,http://www.southribble.gov.uk,-2.76956700000000,PR4 5FB,2013-02-25,fhrs_5_en-GB,5,,FHRS,5
197347,326 Croston Road Farington Moss Leyland Lancashire,,,,Stanley House Nursery,Hospitals/Childcare/Caring Premises,5,5,,14373,0,,53.71191300000000,04940/0326/0/000,205,envhealth@southribble.gov.uk,South Ribble,http://www.southribble.gov.uk,-2.70864600000000,PR26 6PN,2013-02-28,fhrs_5_en-GB,5,,FHRS,0
197348,Starbucks Unit 8 The Capitol Centre Capitol Way Walton-Le-Dale Preston Lancashire,,,,Starbucks,Restaurant/Cafe/Canteen,1,5,,159223,5,,53.74882700000000,MIXED/545/09,205,envhealth@southribble.gov.uk,South Ribble,http://www.southribble.gov.uk,-2.67771000000000,PR5 4AW,2011-08-05,fhrs_5_en-GB,5,,FHRS,5
197349,2A Stanley Road Farington Leyland Lancashire,,,,Steph's Kitchen,Restaurant/Cafe/Canteen,1,10,,589312,10,,53.70749900000000,MIXED/1212/13,205,envhealth@southribble.gov.uk,South Ribble,http://www.southribble.gov.uk,-2.68086300000000,PR25 4RH,2013-09-10,fhrs_3_en-GB,3,,FHRS,10
197350,328 Chapel Lane New Longton Preston Lancashire,,,,Stickyweeds,Other catering premises,7841,5,,159212,0,,53.72637000000000,MIXED/505/09,205,envhealth@southribble.gov.uk,South Ribble,http://www.southribble.gov.uk,-2.75213000000000,PR4 4AB,2014-08-28,fhrs_5_en-GB,5,,FHRS,0
197351,90 School Lane Leyland Preston Lancashire,,,,Stonehouse Childcare,School/college/university,7845,0,,32575,0,,53.69734400000000,09800/0090/0/000,205,envhealth@southribble.gov.uk,South Ribble,http://www.southribble.gov.uk,-2.69926800000000,PR25 2TU,2014-12-16,fhrs_5_en-GB,5,,FHRS,0
197352,16 Liverpool Road Penwortham Preston Lancashire,,,,Strictly Cupcakes Penwortham,Restaurant/Cafe/Canteen,1,0,,664571,5,,53.75028900000000,MIXED/1250/13,205,envhealth@southribble.gov.uk,South Ribble,http://www.southribble.gov.uk,-2.72877900000000,PR1 0AD,2014-05-08,fhrs_5_en-GB,5,,FHRS,5
197353,24 Hough Lane Leyland Preston Lancashire,,,,Subway,Restaurant/Cafe/Canteen,1,5,,631772,5,,53.69472800000000,MIXED/785/11,205,envhealth@southribble.gov.uk,South Ribble,http://www.southribble.gov.uk,-2.69477200000000,PR25 2SD,2013-12-17,fhrs_5_en-GB,5,,FHRS,5
197354,393 Station Road Bamber Bridge Preston Lancashire,,,,Subway,Takeaway/sandwich shop,7844,10,,159204,5,,53.72262500000000,MIXED/481/09,205,envhealth@southribble.gov.uk,South Ribble,http://www.southribble.gov.uk,-2.66190600000000,PR5 6EJ,2014-03-05,fhrs_4_en-GB,4,,FHRS,5
197355,56 Liverpool Road Penwortham Preston Lancashire,,,,Subway,Restaurant/Cafe/Canteen,1,0,,159166,0,,53.74989000000000,MIXED/226/07,205,envhealth@southribble.gov.uk,South Ribble,http://www.southribble.gov.uk,-2.73221400000000,PR1 0DQ,2014-11-26,fhrs_5_en-GB,5,,FHRS,0
197356,STREET RECORD Spring Lane Samlesbury Lancashire,,,,Subway,Restaurant/Cafe/Canteen,1,0,,657824,0,,,MIXED/1249/13,205,envhealth@southribble.gov.uk,South Ribble,http://www.southribble.gov.uk,,,2013-07-10,fhrs_5_en-GB,5,,FHRS,0
197357,Subway Unit 9 The Capitol Centre Capitol Way Walton-Le-Dale Preston Lancashire,,,,Subway,Restaurant/Cafe/Canteen,1,0,,159232,0,,53.74882700000000,MIXED/580/09,205,envhealth@southribble.gov.uk,South Ribble,http://www.southribble.gov.uk,-2.67771000000000,PR5 4AW,2014-06-25,fhrs_5_en-GB,5,,FHRS,0
197358,5 Sandringham Road Walton-Le-Dale Preston,,,,Sunny Days Playschool,Hospitals/Childcare/Caring Premises,5,10,,79733,5,,53.73963300000000,19220/0005/0/001,205,envhealth@southribble.gov.uk,South Ribble,http://www.southribble.gov.uk,-2.67280100000000,PR5 4QN,2013-11-26,fhrs_3_en-GB,3,,FHRS,10
197359,Rear 119 Liverpool Road Longton Preston,,,,Sunshine Nursery,School/college/university,7845,0,,494407,0,,53.72630600000000,MIXED/1122/13,205,envhealth@southribble.gov.uk,South Ribble,http://www.southribble.gov.uk,-2.78592700000000,PR4 5AA,2014-10-08,fhrs_5_en-GB,5,,FHRS,5
197360,Gregsons Farm Preston New Road Samlesbury Preston,,,,Susans Farmhouse Fudge,Manufacturers/packers,7839,10,,75507,5,,53.76569500000000,17650/4000/0/000,205,envhealth@southribble.gov.uk,South Ribble,http://www.southribble.gov.uk,-2.63043800000000,PR5 0UH,2011-06-22,fhrs_4_en-GB,4,,FHRS,5
197361,5 Craigflower Court Bamber Bridge Preston Lancashire,,,,Sweet Ideas,Retailers - other,4613,5,,589296,5,,53.72348100000000,FOOD/1191/13,205,envhealth@southribble.gov.uk,South Ribble,http://www.southribble.gov.uk,-2.63486800000000,PR5 6DX,2013-03-06,fhrs_5_en-GB,5,,FHRS,0
197362,88 Liverpool Road Hutton Preston Lancashire,,,,Sylhet Bangla,Restaurant/Cafe/Canteen,1,5,,159175,5,,53.73301600000000,MIXED/282/07,205,envhealth@southribble.gov.uk,South Ribble,http://www.southribble.gov.uk,-2.76575500000000,PR4 5SL,2013-09-12,fhrs_4_en-GB,4,,FHRS,10
197363,Unit 9 Clifton Parade Bristol Avenue Farington Leyland Lancashire,,,,Sylhet Fusion,Takeaway/sandwich shop,7844,10,,589307,5,,53.70371800000000,MIXED/1189/13,205,envhealth@southribble.gov.uk,South Ribble,http://www.southribble.gov.uk,-2.68031700000000,PR25 4YU,2013-09-23,fhrs_4_en-GB,4,,FHRS,5
197364,Tardy Gate Hotel Brownedge Road Lostock Hall Lancashire,,,,Tardy Gate,Pub/bar/nightclub,7843,10,,589305,10,,53.72698200000000,MIXED/1178/13,205,envhealth@southribble.gov.uk,South Ribble,http://www.southribble.gov.uk,-2.69247000000000,PR5 5AA,2013-09-27,fhrs_3_en-GB,3,,FHRS,10
197365,41 Linden Drive Lostock Hall Preston Lancashire,,,,Tasty Plaice,Takeaway/sandwich shop,7844,5,,159180,10,,53.72988900000000,MIXED/329/08,205,envhealth@southribble.gov.uk,South Ribble,http://www.southribble.gov.uk,-2.68706100000000,PR5 5AR,2014-01-09,fhrs_4_en-GB,4,,FHRS,5
197366,353 Leyland Lane Leyland Preston Lancashire,,,,Tatjanas Sandwhich Shop,Restaurant/Cafe/Canteen,1,5,,197596,10,,53.68971100000000,MIXED/847/11,205,envhealth@southribble.gov.uk,South Ribble,http://www.southribble.gov.uk,-2.71632900000000,PR25 1UP,2013-10-29,fhrs_4_en-GB,4,,FHRS,5
197367,67 New Lane Penwortham Preston Lancashire,,,,Taylormade Cake Boutique,Manufacturers/packers,7839,5,,636440,0,,53.73829400000000,FOOD/1290/14,205,envhealth@southribble.gov.uk,South Ribble,http://www.southribble.gov.uk,-2.71159100000000,PR1 9JH,2014-02-21,fhrs_5_en-GB,5,,FHRS,5
197368,Tesco Direct Unit 7 The Capitol Centre Capitol Way Walton-Le-Dale Preston Lancashire,,,,Tesco,Retailers - other,4613,5,,159213,5,,53.74882700000000,MIXED/509/09,205,envhealth@southribble.gov.uk,South Ribble,http://www.southribble.gov.uk,-2.67771000000000,PR5 4AW,2014-05-01,fhrs_5_en-GB,5,,FHRS,5
197369,94 Leyland Lane Leyland Preston,,,,Tesco Express,Retailers - other,4613,5,,333357,5,,53.69814700000000,08760/0094/0/000,205,envhealth@southribble.gov.uk,South Ribble,http://www.southribble.gov.uk,-2.71401800000000,PR25 1XD,2013-11-14,fhrs_4_en-GB,4,,FHRS,10
197370,Tesco Stores Limited Towngate Leyland Preston,,,,Tesco Extra,Retailers - supermarkets/hypermarkets,7840,5,,41432,5,,53.68935700000000,10270/4003/0/000,205,envhealth@southribble.gov.uk,South Ribble,http://www.southribble.gov.uk,-2.69716700000000,PR25 2FN,2013-02-12,fhrs_4_en-GB,4,,FHRS,10
197371,Tesco Stores Limited Towngate Leyland Preston Lancashire,,,,Tesco Family Dining Ltd,Restaurant/Cafe/Canteen,1,0,,727268,0,,53.68935700000000,MIXED/1389/15,205,envhealth@southribble.gov.uk,South Ribble,http://www.southribble.gov.uk,-2.69716700000000,PR25 2FN,2014-12-18,fhrs_5_en-GB,5,,FHRS,0
197372,Tesco Stores Limited Towngate Leyland Preston Lancashire,,,,Tesco Leyland Colleague Room,Restaurant/Cafe/Canteen,1,5,,730635,0,,53.68935700000000,MIXED/1391/15,205,envhealth@southribble.gov.uk,South Ribble,http://www.southribble.gov.uk,-2.69716700000000,PR25 2FN,2014-12-18,fhrs_5_en-GB,5,,FHRS,0
197373,Tesco Stores Limited Canberra Road Leyland Lancashire,,,,Tesco Stores Limited,Retailers - supermarkets/hypermarkets,7840,5,,664573,0,,,MIXED/1289/14,205,envhealth@southribble.gov.uk,South Ribble,http://www.southribble.gov.uk,,PR5 2EQ,2014-05-28,fhrs_5_en-GB,5,,FHRS,0
197374,346 Leyland Lane Leyland Preston,,,,TG Clarkson + Son,Retailers - other,4613,10,,28238,10,,53.68757900000000,08760/0346/0/000,205,envhealth@southribble.gov.uk,South Ribble,http://www.southribble.gov.uk,-2.71665600000000,PR25 1TB,2013-03-19,fhrs_3_en-GB,3,,FHRS,10
197375,The Bag Inn 259 Station Road Bamber Bridge Preston Lancashire,,,,The Bag Inn,Restaurant/Cafe/Canteen,1,5,,589309,5,,53.72645400000000,MIXED/1206/13,205,envhealth@southribble.gov.uk,South Ribble,http://www.southribble.gov.uk,-2.66023900000000,PR5 6LE,2014-11-13,fhrs_5_en-GB,5,,FHRS,5
197376,241 - 243 Leyland Lane Leyland Lancashire,,,,The Barn,Hospitals/Childcare/Caring Premises,5,5,,159236,5,,53.69239400000000,MIXED/603/09,205,envhealth@southribble.gov.uk,South Ribble,http://www.southribble.gov.uk,-2.71714700000000,PR25 1XL,2014-12-15,fhrs_5_en-GB,5,,FHRS,0
197377,153B Liverpool Road Longton Preston Lancashire,,,,The Big Fish,Takeaway/sandwich shop,7844,10,,507672,5,,53.72565600000000,MIXED/1130/13,205,envhealth@southribble.gov.uk,South Ribble,http://www.southribble.gov.uk,-2.79047700000000,PR4 5AB,2014-03-21,fhrs_4_en-GB,4,,FHRS,5
197378,The Bobbin Mill 2 Eaton Avenue Buckshaw Village Chorley Lancashire,,,,The Bobbin Mill,Pub/bar/nightclub,7843,5,,159165,10,,53.68667900000000,MIXED/223/07,205,envhealth@southribble.gov.uk,South Ribble,http://www.southribble.gov.uk,-2.67189600000000,PR7 7NA,2014-04-24,fhrs_4_en-GB,4,,FHRS,5
197379,The Brambles Park Avenue New Longton Preston,,,,The Brambles Residential Care Home,Hospitals/Childcare/Caring Premises,5,5,,63703,10,,53.72741000000000,14060/2003/2/000,205,envhealth@southribble.gov.uk,South Ribble,http://www.southribble.gov.uk,-2.75117800000000,PR4 4AY,2014-09-03,fhrs_4_en-GB,4,,FHRS,5
197380,The Brambles 159 Longmeanygate Midge Hall Leyland Preston Lancashire,,,,The Brambles School,School/college/university,7845,5,,157931,5,,53.69704400000000,FOOD/750/10,205,envhealth@southribble.gov.uk,South Ribble,http://www.southribble.gov.uk,-2.74167100000000,PR26 7TB,2013-02-28,fhrs_5_en-GB,5,,FHRS,0
197381,The Brown Hare Millbrook Way Penwortham Preston Lancashire,,,,The Brown Hare,Restaurant/Cafe/Canteen,1,0,,479144,0,,53.73602000000000,MIXED/1081/12,205,envhealth@southribble.gov.uk,South Ribble,http://www.southribble.gov.uk,-2.73100300000000,PR1 0XW,2014-05-13,fhrs_5_en-GB,5,,FHRS,5
197382,Buckshaw Village Site Wigan Road Leyland Preston Lancashire,,,,The Chef,Mobile caterer,7846,10,,9008,10,,53.69378900000000,03530/0089/0/000,205,envhealth@southribble.gov.uk,South Ribble,http://www.southribble.gov.uk,-2.69021100000000,PR25 5NG,2014-07-30,fhrs_3_en-GB,3,,FHRS,10
197383,13 Hennel Lane Walton-Le-Dale Lancashire,,,,The Contented Sole,Takeaway/sandwich shop,7844,10,,78665,5,,53.74353600000000,18770/0013/0/000,205,envhealth@southribble.gov.uk,South Ribble,http://www.southribble.gov.uk,-2.67394000000000,PR5 4LA,2013-11-27,fhrs_4_en-GB,4,,FHRS,5
197384,85 Liverpool Road Penwortham Preston Lancashire,,,,The Cow Shed,Restaurant/Cafe/Canteen,1,0,,159310,0,,53.74876000000000,MIXED/930/11,205,envhealth@southribble.gov.uk,South Ribble,http://www.southribble.gov.uk,-2.73484800000000,PR1 0QB,2015-01-14,fhrs_5_en-GB,5,,FHRS,0
197385,3 Bridge Court Little Hoole Preston Lancashire,,,,The Crafty Potter,Restaurant/Cafe/Canteen,1,0,,583299,0,,53.70743200000000,MIXED/1198/13,205,envhealth@southribble.gov.uk,South Ribble,http://www.southribble.gov.uk,-2.79521100000000,PR4 5JT,2013-08-09,fhrs_5_en-GB,5,,FHRS,5
197386,103 Brownedge Road Lostock Hall Preston,,,,The Crusty Corner,Other catering premises,7841,5,,53667,5,,53.72724800000000,12080/0103/0/000,205,envhealth@southribble.gov.uk,South Ribble,http://www.southribble.gov.uk,-2.68371300000000,PR5 5AE,2014-12-08,fhrs_5_en-GB,5,,FHRS,5
197387,112 Leyland Lane Leyland Preston,,,,The Dairy Shop,Retailers - other,4613,5,,28230,0,,53.69680100000000,08760/0112/0/000,205,envhealth@southribble.gov.uk,South Ribble,http://www.southribble.gov.uk,-2.71513200000000,PR25 1XE,2013-08-06,fhrs_5_en-GB,5,,FHRS,5
197388,78 Liverpool Old Road Walmer Bridge Preston,,,,The Deli,Takeaway/sandwich shop,7844,10,,77304,10,,53.71084300000000,18130/0078/0/000,205,envhealth@southribble.gov.uk,South Ribble,http://www.southribble.gov.uk,-2.79051800000000,PR4 5GE,2014-03-31,fhrs_3_en-GB,3,,FHRS,5
197389,5 Preston Road Leyland Preston Lancashire,,,,The Dilraj,Takeaway/sandwich shop,7844,5,,32375,10,,53.70019700000000,09530/0005/0/000,205,envhealth@southribble.gov.uk,South Ribble,http://www.southribble.gov.uk,-2.68613700000000,PR25 4NT,2014-03-13,fhrs_4_en-GB,4,,FHRS,5
197390,Moss House Farm Moss House Lane Much Hoole Preston Lancashire,,,,The Feisty Cow - Mobile,Mobile caterer,7846,0,,448476,5,,53.69876900000000,MIXED/1060/12,205,envhealth@southribble.gov.uk,South Ribble,http://www.southribble.gov.uk,-2.77717400000000,PR4 4TE,2012-08-13,fhrs_5_en-GB,5,,FHRS,5
197391,9 - 10 Market Hall Northcote Street Leyland Lancashire,,,,The Fish Plaice,Retailers - other,4613,5,,544905,5,,53.69543900000000,MIXED/1165/13,205,envhealth@southribble.gov.uk,South Ribble,http://www.southribble.gov.uk,-2.69457200000000,PR25 2AA,2013-04-26,fhrs_5_en-GB,5,,FHRS,0
197392,Fox Cub Public House Liverpool Road Walmer Bridge Preston,,,,The Fox Cub,Pub/bar/nightclub,7843,0,,77351,5,,53.70743200000000,18150/2001/2/002,205,envhealth@southribble.gov.uk,South Ribble,http://www.southribble.gov.uk,-2.79521100000000,PR4 5JT,2014-03-20,fhrs_5_en-GB,5,,FHRS,0
197393,2 Hough Lane Leyland Preston,,,,The Gables,Pub/bar/nightclub,7843,10,,27987,15,,53.69472800000000,08440/0002/0/000,205,envhealth@southribble.gov.uk,South Ribble,http://www.southribble.gov.uk,-2.69477200000000,PR25 2SD,2014-03-20,fhrs_2_en-GB,2,,FHRS,10
197394,286 Golden Hill Lane Leyland Preston Lancashire,,,,The Great Wall,Takeaway/sandwich shop,7844,5,,159219,5,,53.69860400000000,MIXED/528/09,205,envhealth@southribble.gov.uk,South Ribble,http://www.southribble.gov.uk,-2.70967900000000,PR25 2YH,2013-10-10,fhrs_5_en-GB,5,,FHRS,0
197395,18A Liverpool Road Penwortham Lancashire,,,,The Lalbagh,Takeaway/sandwich shop,7844,10,,69917,5,,53.74989000000000,15800/0018/A/000,205,envhealth@southribble.gov.uk,South Ribble,http://www.southribble.gov.uk,-2.73221400000000,PR1 0DQ,2014-09-30,fhrs_3_en-GB,3,,FHRS,10
197396,The Leyland Centre King Street Leyland Preston,,,,The Leyland Centre,Other catering premises,7841,5,,606951,5,,53.69495500000000,08520/4001/0/000,205,envhealth@southribble.gov.uk,South Ribble,http://www.southribble.gov.uk,-2.69277700000000,PR25 2LE,2013-10-21,fhrs_5_en-GB,5,,FHRS,0
197397,Feathers Leyland Hotel Leyland Way Leyland Preston,,,,The Leyland Hotel,Hotel/bed & breakfast/guest house,7842,5,,28251,10,,53.69508900000000,08770/4000/0/000,205,envhealth@southribble.gov.uk,South Ribble,http://www.southribble.gov.uk,-2.68036000000000,PR25 4JX,2014-02-11,fhrs_4_en-GB,4,,FHRS,5
197398,0 Centurion Way Farington Lancashire,,,,The Little Chippy,Mobile caterer,7846,10,,24349,5,,53.70703318631795,07640/0047/0/000,205,envhealth@southribble.gov.uk,South Ribble,http://www.southribble.gov.uk,-2.68320225794016,,2014-10-22,fhrs_4_en-GB,4,,FHRS,0
197399,The Meadows Mill Lane Leyland Preston,,,,The Meadows Residential Care Home,Hospitals/Childcare/Caring Premises,5,5,,31958,5,,53.69073400000000,09090/2001/2/000,205,envhealth@southribble.gov.uk,South Ribble,http://www.southribble.gov.uk,-2.71501400000000,PR25 1HY,2013-11-06,fhrs_5_en-GB,5,,FHRS,5
197400,Midge Hall 15 Midge Hall Lane Midge Hall Leyland Lancashire,,,,The Midge Hall,Pub/bar/nightclub,7843,5,,706569,5,,53.70239100000000,MIXED/1368/14,205,envhealth@southribble.gov.uk,South Ribble,http://www.southribble.gov.uk,-2.74471900000000,PR26 6TN,2014-10-09,fhrs_5_en-GB,5,,FHRS,5
197401,25 Station Road Bamber Bridge Preston Lancashire,,,,The New Orient,Takeaway/sandwich shop,7844,10,,13385,10,,53.73505200000000,04040/0025/0/000,205,envhealth@southribble.gov.uk,South Ribble,http://www.southribble.gov.uk,-2.66258700000000,PR5 6QR,2013-09-18,fhrs_3_en-GB,3,,FHRS,5
197402,Seven Stars Inn 355 Leyland Lane Leyland Lancashire,,,,The New Seven Stars,Pub/bar/nightclub,7843,5,,518634,5,,53.68683700000000,MIXED/1116/12,205,envhealth@southribble.gov.uk,South Ribble,http://www.southribble.gov.uk,-2.71600700000000,PR25 1TA,2013-03-01,fhrs_4_en-GB,4,,FHRS,10
197403,Childrens Centre 75 Royal Avenue Leyland Preston Lancashire,,,,The Nursery Leyland Limited,Hospitals/Childcare/Caring Premises,5,0,,576344,0,,53.68481000000000,MIXED/1194/13,205,envhealth@southribble.gov.uk,South Ribble,http://www.southribble.gov.uk,-2.71067400000000,PR25 1BX,2013-07-12,fhrs_5_en-GB,5,,FHRS,0
197404,The Old Leyland Gates Golden Hill Lane Leyland Preston,,,,The Old Leyland Gates,Pub/bar/nightclub,7843,0,,27439,5,,53.69811500000000,08020/4000/0/001,205,envhealth@southribble.gov.uk,South Ribble,http://www.southribble.gov.uk,-2.69338900000000,PR25 3PG,2013-02-11,fhrs_5_en-GB,5,,FHRS,5
197405,39 Ryden Avenue Leyland Lancashire,,,,The One Who Bakes,Retailers - other,4613,0,,705048,0,,53.69366200000000,FOOD/1361/14,205,envhealth@southribble.gov.uk,South Ribble,http://www.southribble.gov.uk,-2.68004900000000,PR25 4ZL,2014-05-14,fhrs_5_en-GB,5,,FHRS,0
197406,57 Hough Lane Leyland Preston Lancashire,,,,The Plaice,Takeaway/sandwich shop,7844,5,,462689,0,,53.69561700000000,MIXED/1063/12,205,envhealth@southribble.gov.uk,South Ribble,http://www.southribble.gov.uk,-2.69330200000000,PR25 2SA,2015-01-12,fhrs_5_en-GB,5,,FHRS,5
197407,Last Orders Inn 193 Station Road Bamber Bridge Preston Lancashire,,,,The Pump and Truncheon,Pub/bar/nightclub,7843,10,,589303,5,,53.72847500000000,MIXED/1171/13,205,envhealth@southribble.gov.uk,South Ribble,http://www.southribble.gov.uk,-2.66039100000000,PR5 6LB,2013-08-28,fhrs_4_en-GB,4,,FHRS,5
197408,2 Hope Terrace Lostock Hall Preston Lancashire,,,,The Radohny,Takeaway/sandwich shop,7844,5,,159233,5,,53.72585700000000,MIXED/592/09,205,envhealth@southribble.gov.uk,South Ribble,http://www.southribble.gov.uk,-2.69278400000000,PR5 5RU,2013-09-26,fhrs_5_en-GB,5,,FHRS,5
197409,Railway Hotel Preston Road Leyland Lancashire,,,,The Railway At Leyland,Pub/bar/nightclub,7843,10,,159171,5,,53.70019700000000,MIXED/251/07,205,envhealth@southribble.gov.uk,South Ribble,http://www.southribble.gov.uk,-2.68613700000000,PR25 4NT,2014-10-29,fhrs_4_en-GB,4,,FHRS,5
197410,67 Liverpool Road Longton Preston Lancashire,,,,The Rams Head,Pub/bar/nightclub,7843,5,,159220,5,,53.72776400000000,MIXED/534/09,205,envhealth@southribble.gov.uk,South Ribble,http://www.southribble.gov.uk,-2.78016500000000,PR4 5HA,2014-11-23,fhrs_5_en-GB,5,,FHRS,5
197411,The Rose Of Farington 59 Stanifield Lane Farington Leyland Lancashire,,,,The Rose Of Farington,Pub/bar/nightclub,7843,10,,692014,10,,53.70138100000000,MIXED/1297/14,205,envhealth@southribble.gov.uk,South Ribble,http://www.southribble.gov.uk,-2.68500600000000,PR25 4QA,2014-08-06,fhrs_3_en-GB,3,,FHRS,10
197412,The Samlesbury Hotel Preston New Road Samlesbury Preston Lancashire,,,,The Samlesbury Hotel,Hotel/bed & breakfast/guest house,7842,5,,631769,0,,53.76731000000000,MIXED/1257/13,205,envhealth@southribble.gov.uk,South Ribble,http://www.southribble.gov.uk,-2.60844900000000,PR5 0UL,2014-01-29,fhrs_5_en-GB,5,,FHRS,0
197413,97 Pope Lane Penwortham Lancashire,,,,The Shampan,Restaurant/Cafe/Canteen,1,10,,159189,10,,53.73611100000000,MIXED/401/08,205,envhealth@southribble.gov.uk,South Ribble,http://www.southribble.gov.uk,-2.72186300000000,PR1 9DB,2013-09-03,fhrs_3_en-GB,3,,FHRS,10
197414,235 Leyland Road Penwortham Preston,,,,The Sumpter Horse,Pub/bar/nightclub,7843,5,,69766,10,,53.73443200000000,15740/0235/0/000,205,envhealth@southribble.gov.uk,South Ribble,http://www.southribble.gov.uk,-2.70185400000000,PR1 9SY,2013-12-11,fhrs_3_en-GB,3,,FHRS,10
197415,316 Station Road Bamber Bridge Preston Lancashire,,,,The Titash Tandoori,Takeaway/sandwich shop,7844,5,,13402,5,,53.72385800000000,04040/0316/0/000,205,envhealth@southribble.gov.uk,South Ribble,http://www.southribble.gov.uk,-2.66159200000000,PR5 6EH,2014-03-24,fhrs_4_en-GB,4,,FHRS,10
197416,0 Boxer Place Moss Side Industrial Estate Leyland Lancashire,,,,The Tucker Box,Mobile caterer,7846,5,,159285,5,,53.70105500000000,MIXED/85/06,205,envhealth@southribble.gov.uk,South Ribble,http://www.southribble.gov.uk,-2.72170700000000,,2014-03-27,fhrs_4_en-GB,4,,FHRS,10
197417,26 Liverpool Road Penwortham Preston,,,,The Upper Crust Craft Bakery,Manufacturers/packers,7839,5,,69918,5,,53.74989000000000,15800/0026/0/000,205,envhealth@southribble.gov.uk,South Ribble,http://www.southribble.gov.uk,-2.73221400000000,PR1 0DQ,2014-11-18,fhrs_4_en-GB,4,,FHRS,10
197418,3 Golden Hill Lane Leyland Preston Lancashire,,,,The Viceroy,Restaurant/Cafe/Canteen,1,10,,159297,5,,53.69803200000000,MIXED/886/11,205,envhealth@southribble.gov.uk,South Ribble,http://www.southribble.gov.uk,-2.69061600000000,PR25 3NP,2014-08-20,fhrs_4_en-GB,4,,FHRS,5
197419,Yew Tree Inn 100 Victoria Road Walton-Le-Dale Preston Lancashire,,,,The Yew Tree,Pub/bar/nightclub,7843,5,,559154,0,,53.74907500000000,MIXED/1172/13,205,envhealth@southribble.gov.uk,South Ribble,http://www.southribble.gov.uk,-2.67348300000000,PR5 4AU,2013-06-11,fhrs_5_en-GB,5,,FHRS,5
197420,101 Liverpool Road Hutton Lancashire,,,,Thoroughgoods,Retailers - other,4613,5,,159178,5,,53.73310700000000,MIXED/318/08,205,envhealth@southribble.gov.uk,South Ribble,http://www.southribble.gov.uk,-2.76418000000000,PR4 5SN,2012-03-05,fhrs_5_en-GB,5,,FHRS,5
197421,39 Leyland Road Penwortham Lancashire,,,,Thoroughgoods Select,Retailers - other,4613,5,,732460,5,,53.74676800000000,MIXED/797/11,205,envhealth@southribble.gov.uk,South Ribble,http://www.southribble.gov.uk,-2.71337200000000,PR1 9QH,2014-12-15,fhrs_4_en-GB,4,,FHRS,10
197422,Tickled Trout Hotel Preston New Road Samlesbury Preston,,,,Tickled Trout Hotel,Hotel/bed & breakfast/guest house,7842,20,,75508,15,,53.76516800000000,17650/4000/0/006,205,envhealth@southribble.gov.uk,South Ribble,http://www.southribble.gov.uk,-2.63994100000000,PR5 0UJ,2014-09-17,fhrs_1_en-GB,1,,FHRS,15
197423,Tickled Trout Filling Station Preston New Road Samlesbury Lancashire,,,,Tickled Trout Service Station,Retailers - other,4613,5,,448479,5,,53.76516800000000,MIXED/807/11,205,envhealth@southribble.gov.uk,South Ribble,http://www.southribble.gov.uk,-2.63994100000000,PR5 0UJ,2014-02-04,fhrs_5_en-GB,5,,FHRS,0
197424,Bridge Inn 6 Leyland Road Penwortham Preston Lancashire,,,,Tinkerbells Bridge Inn,Hospitals/Childcare/Caring Premises,5,5,,679787,0,,53.74873000000000,MIXED/1261/13,205,envhealth@southribble.gov.uk,South Ribble,http://www.southribble.gov.uk,-2.71604400000000,PR1 9XR,2013-12-17,fhrs_5_en-GB,5,,FHRS,5
197425,St Leonards Church Of England Primary School Walton Green Walton-Le-Dale Preston Lancashire,,,,TOCS,School/college/university,7845,10,,589299,5,,53.74572000000000,FOOD/1203/13,205,envhealth@southribble.gov.uk,South Ribble,http://www.southribble.gov.uk,-2.67561300000000,PR5 4JL,2013-09-23,fhrs_4_en-GB,4,,FHRS,5
197426,Ice Cream Parlour 10 Bridge Court Liverpool Road Much Hoole Preston Lancashire,,,,Tootsies Ice Cream and Coffee Shop,Restaurant/Cafe/Canteen,1,10,,159174,5,,53.70743200000000,MIXED/281/07,205,envhealth@southribble.gov.uk,South Ribble,http://www.southribble.gov.uk,-2.79521100000000,PR4 5JT,2013-01-14,fhrs_4_en-GB,4,,FHRS,5
197427,Torotrak 1 Moss Side Industrial Estate Aston Way Leyland Preston,,,,Torotrak,Restaurant/Cafe/Canteen,1,5,,209838,5,,53.70218800000000,13470/2001/2/000,205,envhealth@southribble.gov.uk,South Ribble,http://www.southribble.gov.uk,-2.72958300000000,PR26 7UX,2014-09-03,fhrs_5_en-GB,5,,FHRS,5
197428,11 Market Hall Northcote Street Leyland Lancashire,,,,Touch Of Love,Retailers - other,4613,0,,719766,5,,53.69543900000000,MIXED/1382/14,205,envhealth@southribble.gov.uk,South Ribble,http://www.southribble.gov.uk,-2.69457200000000,PR25 2AA,2014-10-08,fhrs_5_en-GB,5,,FHRS,5
197429,7 Leyton Avenue Leyland Lancashire,,,,Touch Of Love,Retailers - other,4613,5,,719764,0,,53.68658800000000,FOOD/1367/14,205,envhealth@southribble.gov.uk,South Ribble,http://www.southribble.gov.uk,-2.71403500000000,PR25 1AQ,2014-10-08,fhrs_5_en-GB,5,,FHRS,5
197430,60 Wateringpool Lane Lostock Hall Preston,,,,Townley House Nursery,Hospitals/Childcare/Caring Premises,5,5,,60882,5,,53.73155800000000,13320/0060/0/000,205,envhealth@southribble.gov.uk,South Ribble,http://www.southribble.gov.uk,-2.68911900000000,PR5 5UA,2014-01-20,fhrs_5_en-GB,5,,FHRS,5
197431,Black Horse Hotel 237 Liverpool Old Road Much Hoole Preston Lancashire,,,,Trattoria San Marco,Restaurant/Cafe/Canteen,1,10,,159183,5,,53.69834300000000,MIXED/350/08,205,envhealth@southribble.gov.uk,South Ribble,http://www.southribble.gov.uk,-2.80901900000000,PR4 4RJ,2014-03-26,fhrs_4_en-GB,4,,FHRS,5
197432,129 Station Road Bamber Bridge Preston Lancashire,,,,Tuk Tuk,Takeaway/sandwich shop,7844,5,,623134,5,,53.73268100000000,MIXED/1237/13,205,envhealth@southribble.gov.uk,South Ribble,http://www.southribble.gov.uk,-2.66223100000000,PR5 6QS,2013-12-18,fhrs_5_en-GB,5,,FHRS,5
197433,Vernon Carus Sports And Social Club Factory Lane Penwortham Preston,,,,Vernon Carus Sports And Social Club,Pub/bar/nightclub,7843,5,,67544,5,,53.75202800000000,15080/4002/0/000,205,envhealth@southribble.gov.uk,South Ribble,http://www.southribble.gov.uk,-2.71211600000000,PR1 9SN,2014-03-28,fhrs_5_en-GB,5,,FHRS,5
197434,30 School Lane Leyland Preston Lancashire,,,,Victoria Cakes,Other catering premises,7841,0,,647262,0,,53.69523100000000,MIXED/1186/13,205,envhealth@southribble.gov.uk,South Ribble,http://www.southribble.gov.uk,-2.69628000000000,PR25 2TS,2013-11-04,fhrs_5_en-GB,5,,FHRS,0
197435,1 Victoria Street Lostock Hall Preston Lancashire,,,,Victoria Chip Shop,Takeaway/sandwich shop,7844,10,,60726,5,,53.72468200000000,13270/0001/0/000,205,envhealth@southribble.gov.uk,South Ribble,http://www.southribble.gov.uk,-2.69074900000000,PR5 5RA,2014-03-20,fhrs_4_en-GB,4,,FHRS,5
197436,Virgin Active Unit 12 The Capitol Centre Capitol Way Walton-Le-Dale Preston Lancashire,,,,Virgin Active Preston,Restaurant/Cafe/Canteen,1,5,,384894,10,,53.74882700000000,MIXED/993/12,205,envhealth@southribble.gov.uk,South Ribble,http://www.southribble.gov.uk,-2.67771000000000,PR5 4AW,2013-10-08,fhrs_4_en-GB,4,,FHRS,5
197437,Waitrose Distribution Centre Unit 5 Eaton Avenue Matrix Park Buckshaw Village Lancashire,,,,Waitrose Limited,Distributors/Transporters,7,0,,590609,5,,,MIXED/1243/13,205,envhealth@southribble.gov.uk,South Ribble,http://www.southribble.gov.uk,,,2013-10-16,fhrs_5_en-GB,5,,FHRS,0
197438,Waitrose Capitol Way Walton-Le-Dale Lancashire,,,,Waitrose Ltd,Retailers - supermarkets/hypermarkets,7840,5,,333361,5,,53.74820500000000,MIXED/955/12,205,envhealth@southribble.gov.uk,South Ribble,http://www.southribble.gov.uk,-2.67765600000000,,2014-01-14,fhrs_5_en-GB,5,,FHRS,5
197439,74 Liverpool Old Road Walmer Bridge Preston,,,,Walmer Bridge Day Nursery,Hospitals/Childcare/Caring Premises,5,10,,77303,15,,53.71084300000000,18130/0074/0/000,205,envhealth@southribble.gov.uk,South Ribble,http://www.southribble.gov.uk,-2.79051800000000,PR4 5GE,2014-07-18,fhrs_2_en-GB,2,,FHRS,5
197440,63 Liverpool Old Road Walmer Bridge Preston Lancashire,,,,Walmer Bridge Off Licence,Takeaway/sandwich shop,7844,10,,719765,10,,53.71427200000000,MIXED/1380/14,205,envhealth@southribble.gov.uk,South Ribble,http://www.southribble.gov.uk,-2.78990000000000,PR4 5QA,2014-10-02,fhrs_3_en-GB,3,,FHRS,5
197441,69 Liverpool Old Road Walmer Bridge Preston Lancashire,,,,Walmer Bridge Supper Bar,Restaurant/Cafe/Canteen,1,5,,159314,5,,53.71068400000000,MIXED/940/11,205,envhealth@southribble.gov.uk,South Ribble,http://www.southribble.gov.uk,-2.79010600000000,PR4 5QE,2014-03-25,fhrs_4_en-GB,4,,FHRS,10
197442,65 Liverpool Old Road Walmer Bridge Preston Lancashire,,,,Walmer Bridge Tandoori,Takeaway/sandwich shop,7844,5,,77302,5,,53.71427200000000,18130/0065/0/000,205,envhealth@southribble.gov.uk,South Ribble,http://www.southribble.gov.uk,-2.78990000000000,PR4 5QA,2013-09-18,fhrs_5_en-GB,5,,FHRS,5
197443,Walton Fox South Rings Business Park Craven Drive Bamber Bridge Preston Lancashire,,,,Walton Fox (vintage Inns),Pub/bar/nightclub,7843,5,,159272,5,,53.72062100000000,MIXED/793/11,205,envhealth@southribble.gov.uk,South Ribble,http://www.southribble.gov.uk,-2.67139200000000,PR5 6BZ,2014-09-18,fhrs_5_en-GB,5,,FHRS,5
197444,Walton House Nursing Home 188 Chorley Road Walton-Le-Dale Preston,,,,Walton House Nursing Home,Hospitals/Childcare/Caring Premises,5,5,,78031,5,,53.73837500000000,18470/0188/0/000,205,envhealth@southribble.gov.uk,South Ribble,http://www.southribble.gov.uk,-2.66947600000000,PR5 4PD,2014-11-18,fhrs_5_en-GB,5,,FHRS,5
197445,Walton-Le-Dale County Primary School Severn Drive Walton-Le-Dale Preston Lancashire,,,,Walton-Le-Dale County Primary School,Hospitals/Childcare/Caring Premises,5,5,,79835,5,,53.73362200000000,19250/4000/0/000,205,envhealth@southribble.gov.uk,South Ribble,http://www.southribble.gov.uk,-2.67396400000000,PR5 4TD,2013-12-02,fhrs_4_en-GB,4,,FHRS,10
197446,Walton-Le-Dale County Secondary School Brindle Road Bamber Bridge Preston,,,,Walton-Le-Dale High School,School/college/university,7845,5,,7204,10,,53.73631900000000,02800/4000/0/002,205,envhealth@southribble.gov.uk,South Ribble,http://www.southribble.gov.uk,-2.65610300000000,PR5 6RN,2014-11-13,fhrs_4_en-GB,4,,FHRS,5
197447,Wellfield County Secondary School Yewlands Drive Leyland Lancashire,,,,Wellfield County Secondary School,School/college/university,7845,0,,44207,5,,53.69549000000000,10730/4000/0/000,205,envhealth@southribble.gov.uk,South Ribble,http://www.southribble.gov.uk,-2.69807100000000,PR25 2TN,2014-03-17,fhrs_5_en-GB,5,,FHRS,5
197448,Wellington Park Church Road Leyland Preston,,,,Wellington Park,Other catering premises,7841,5,,24057,0,,53.68920900000000,07280/2002/2/000,205,envhealth@southribble.gov.uk,South Ribble,http://www.southribble.gov.uk,-2.68850300000000,PR25 3AB,2014-10-27,fhrs_5_en-GB,5,,FHRS,5
197449,White Bull Victoria Road Walton-Le-Dale Preston Lancashire,,,,White Bull,Restaurant/Cafe/Canteen,1,5,,159191,5,,53.74865100000000,MIXED/405/08,205,envhealth@southribble.gov.uk,South Ribble,http://www.southribble.gov.uk,-2.67215700000000,PR5 4BA,2011-11-16,fhrs_5_en-GB,5,,FHRS,5
197450,Whitefield Road Primary School Whitefield Road Penwortham Preston Lancashire,,,,Whitefield Road Primary School,School/college/university,7845,5,,74392,0,,53.74221700000000,17140/4000/0/000,205,envhealth@southribble.gov.uk,South Ribble,http://www.southribble.gov.uk,-2.73913100000000,PR1 0RH,2015-01-23,fhrs_5_en-GB,5,,FHRS,5
197451,Whitefriars 1 Hill Road Penwortham Preston,,,,Whitefriars Nursery,Hospitals/Childcare/Caring Premises,5,5,,69003,0,,53.74885300000000,15470/2019/2/000,205,envhealth@southribble.gov.uk,South Ribble,http://www.southribble.gov.uk,-2.72547800000000,PR1 9XH,2013-07-11,fhrs_5_en-GB,5,,FHRS,0
197452,Windmill Hotel Preston New Road Mellor Brook Blackburn Lancashire,,,,Windmill Inn,Hotel/bed & breakfast/guest house,7842,5,,589313,5,,53.76953200000000,MIXED/1215/13,205,envhealth@southribble.gov.uk,South Ribble,http://www.southribble.gov.uk,-2.54852200000000,BB2 7NS,2013-09-24,fhrs_5_en-GB,5,,FHRS,5
197453,122 Station Road Bamber Bridge Preston Lancashire,,,,Withy Arms,Pub/bar/nightclub,7843,5,,583301,5,,53.73239900000000,MIXED/892/11,205,envhealth@southribble.gov.uk,South Ribble,http://www.southribble.gov.uk,-2.66275700000000,PR5 6QP,2013-08-13,fhrs_4_en-GB,4,,FHRS,10
197454,Roebuck Hotel Roebuck Hotel 3 - 5 Worden Lane Leyland Lancashire,,,,Withy Arms Leyland,Pub/bar/nightclub,7843,5,,692013,5,,53.68803800000000,MIXED/1270/13,205,envhealth@southribble.gov.uk,South Ribble,http://www.southribble.gov.uk,-2.69832600000000,PR25 3EL,2014-11-24,fhrs_5_en-GB,5,,FHRS,5
197455,Withy Grove Nursing Home Poplar Grove Bamber Bridge Preston Lancashire,,,,Withy Grove Nursing Home,Hospitals/Childcare/Caring Premises,5,5,,553398,10,,53.72962100000000,MIXED/1170/13,205,envhealth@southribble.gov.uk,South Ribble,http://www.southribble.gov.uk,-2.65466500000000,PR5 6RE,2014-11-20,fhrs_4_en-GB,4,,FHRS,5
197456,3 Withy Grove Road Bamber Bridge Preston Lancashire,,,,Wm Morrison Supermarkets Plc,Retailers - other,4613,5,,159261,5,,53.72943500000000,MIXED/749/10,205,envhealth@southribble.gov.uk,South Ribble,http://www.southribble.gov.uk,-2.65913300000000,PR5 6WY,2014-01-13,fhrs_5_en-GB,5,,FHRS,0
197457,Communications House Lancastergate Leyland Preston Lancashire,,,,Wonderland,Restaurant/Cafe/Canteen,1,20,,159197,10,,53.69047400000000,MIXED/459/08,205,envhealth@southribble.gov.uk,South Ribble,http://www.southribble.gov.uk,-2.69985100000000,PR25 2EX,2014-09-24,fhrs_1_en-GB,1,,FHRS,0
197458,Woodlea School Junior School Woodlea Road Leyland Preston Lancashire,,,,Woodlea School Junior School,School/college/university,7845,0,,43685,0,,53.68929800000000,10620/4000/0/001,205,envhealth@southribble.gov.uk,South Ribble,http://www.southribble.gov.uk,-2.70254200000000,PR25 1JL,2014-11-25,fhrs_5_en-GB,5,,FHRS,5
197459,116 Marsh Lane Longton Preston Lancashire,,,,Woodnook,Hotel/bed & breakfast/guest house,7842,0,,576340,5,,53.72655900000000,FOOD/1202/13,205,envhealth@southribble.gov.uk,South Ribble,http://www.southribble.gov.uk,-2.80466600000000,PR4 5YL,2013-07-30,fhrs_5_en-GB,5,,FHRS,0
197460,Springfield Farm Knoll Lane Little Hoole Preston Lancashire,,,,Woods Farm Shop,Retailers - other,4613,5,,485494,5,,53.70625900000000,MIXED/1083/12,205,envhealth@southribble.gov.uk,South Ribble,http://www.southribble.gov.uk,-2.78640200000000,PR4 4TB,2014-09-10,fhrs_5_en-GB,5,,FHRS,5
197461,Catering Pavilion Worden Park Leyland Lancashire,,,,Worden Park Kiosk,Restaurant/Cafe/Canteen,1,5,,409645,5,,53.68238000000000,MIXED/1017/12,205,envhealth@southribble.gov.uk,South Ribble,http://www.southribble.gov.uk,-2.70212400000000,PR25 1DJ,2012-06-12,fhrs_4_en-GB,4,,FHRS,10
197462,123 Towngate Leyland Preston Lancashire,,,,Wyndhams Tea Rooms,Restaurant/Cafe/Canteen,1,5,,333362,5,,53.69249500000000,MIXED/962/12,205,envhealth@southribble.gov.uk,South Ribble,http://www.southribble.gov.uk,-2.69684000000000,PR25 2LQ,2014-02-12,fhrs_5_en-GB,5,,FHRS,0
197463,63 - 65 Turpin Green Lane Leyland Preston Lancashire,,,,You & Me,Takeaway/sandwich shop,7844,10,,534628,5,,53.69518200000000,MIXED/1150/13,205,envhealth@southribble.gov.uk,South Ribble,http://www.southribble.gov.uk,-2.68917600000000,PR25 3HA,2014-10-29,fhrs_4_en-GB,4,,FHRS,5
197464,14 Chapel Brow Leyland Lancashire,,,,Yum Yum,Takeaway/sandwich shop,7844,10,,23987,10,,53.69747000000000,07200/0014/0/000,205,envhealth@southribble.gov.uk,South Ribble,http://www.southribble.gov.uk,-2.68991000000000,PR25 3NE,2013-04-03,fhrs_3_en-GB,3,,FHRS,10
197465,145 Station Road Bamber Bridge Preston Lancashire,,,,Yu's Garden,Takeaway/sandwich shop,7844,10,,333367,10,,53.73061900000000,MIXED/999/12,205,envhealth@southribble.gov.uk,South Ribble,http://www.southribble.gov.uk,-2.66124400000000,PR5 6LA,2014-03-24,fhrs_3_en-GB,3,,FHRS,10
197466,464 Leyland Road Lostock Hall Preston Lancashire,,,,Zhen Zhen,Takeaway/sandwich shop,7844,10,,159231,15,,53.72702800000000,MIXED/575/09,205,envhealth@southribble.gov.uk,South Ribble,http://www.southribble.gov.uk,-2.69385000000000,PR5 5RY,2013-09-27,fhrs_2_en-GB,2,,FHRS,10
197467,Arm Staff Canteen  Leyland Business Park Centurion Way Farington Preston Lancashire,,,,Zoes Cafe Ltd,Restaurant/Cafe/Canteen,1,10,,448477,10,,53.70751500000000,MIXED/1064/12,205,envhealth@southribble.gov.uk,South Ribble,http://www.southribble.gov.uk,-2.68754400000000,PR25 3GR,2014-02-13,fhrs_3_en-GB,3,,FHRS,10
