,addressline1,addressline2,addressline3,addressline4,businessname,businesstype,businesstypeid,confidenceinmanagement,extractdate,fhrsid,hygiene,itemcount,latitude,localauthoritybusinessid,localauthoritycode,localauthorityemailaddress,localauthorityname,localauthoritywebsite,longitude,postcode,ratingdate,ratingkey,ratingvalue,returncode,schemetype,structural
57587,Farmers Market,The Square,Market Harborough,Leicestershire,19 Gales Farms,Retailers - other,4613,5,,595964,0,,,04/00063/FOODC,211,foodandsafety@harborough.gov.uk,Harborough,http://www.harborough.gov.uk,,,2013-07-04,fhrs_5_en-GB,5,,FHRS,0
57588,Village Hall,High Street,Great Easton,Leicestershire,411 Fun Club,Hospitals/Childcare/Caring Premises,5,,,355324,,,52.52918200000000,10/00029/FOODC,211,foodandsafety@harborough.gov.uk,Harborough,http://www.harborough.gov.uk,-0.75156900000000,LE16 8ST,2010-11-11,fhrs_exempt_en-GB,Exempt,,FHRS,
57589,Saint Marys House,Church Close,Lutterworth,Leics,A B M Catering,Hospitals/Childcare/Caring Premises,5,0,,354887,0,,52.45613800000000,02/00104/FOODC,211,foodandsafety@harborough.gov.uk,Harborough,http://www.harborough.gov.uk,-1.20351100000000,LE17 4UJ,2014-03-17,fhrs_5_en-GB,5,,FHRS,5
57590,,,,,A Nice Day For Cake,Other catering premises,7841,0,,668666,0,,,13/00127/FOODC,211,foodandsafety@harborough.gov.uk,Harborough,http://www.harborough.gov.uk,,,2014-03-14,fhrs_5_en-GB,5,,FHRS,5
57591,A Taste Of Canton,95A Main Street,Broughton Astley,Leicester,A Taste Of Canton,Takeaway/sandwich shop,7844,10,,355269,10,,52.53331300000000,09570/0095/0/000,211,foodandsafety@harborough.gov.uk,Harborough,http://www.harborough.gov.uk,-1.22978700000000,LE9 6RE,2013-11-21,fhrs_3_en-GB,3,,FHRS,5
57592,Abbey Cottage Cantonese,10 Abbey Street,Market Harborough,Leics,Abbey Cottage,Takeaway/sandwich shop,7844,0,,354845,5,,52.47907000000000,00010/0010/0/000,211,foodandsafety@harborough.gov.uk,Harborough,http://www.harborough.gov.uk,-0.92367400000000,LE16 9AA,2015-01-13,fhrs_5_en-GB,5,,FHRS,5
57593,1 Clover Court,Hearth Street,Market Harborough,Leicestershire,ABM Catering,Hospitals/Childcare/Caring Premises,5,5,,355243,5,,52.47957200000000,09/00099/FOODC,211,foodandsafety@harborough.gov.uk,Harborough,http://www.harborough.gov.uk,-0.92752000000000,LE16 9AH,2013-01-28,fhrs_5_en-GB,5,,FHRS,0
57594,Bruntingthorpe Proving Ground,Peatling Parva Road,Bruntingthorpe,Leicestershire,Airfield Diner,Restaurant/Cafe/Canteen,1,0,,355411,5,,52.49520600000000,11/00086/FOODHS,211,foodandsafety@harborough.gov.uk,Harborough,http://www.harborough.gov.uk,-1.10838900000000,LE17 5QS,2013-08-30,fhrs_5_en-GB,5,,FHRS,0
57595,,,,,Airstream Catering,Mobile caterer,7846,5,,595974,0,,,13/00062/FOODHS,211,foodandsafety@harborough.gov.uk,Harborough,http://www.harborough.gov.uk,,,2013-05-09,fhrs_5_en-GB,5,,FHRS,5
57596,Aldi Stores,Springfield Street,Market Harborough,Leicestershire,Aldi,Retailers - supermarkets/hypermarkets,7840,0,,354991,0,,52.47548400000000,05/00119/FOODHS,211,foodandsafety@harborough.gov.uk,Harborough,http://www.harborough.gov.uk,-0.91597300000000,LE16 8BD,2013-08-02,fhrs_5_en-GB,5,,FHRS,0
57597,3 Church Square,Market Harborough,Leicestershire,,Aldins Tea Rooms,Restaurant/Cafe/Canteen,1,5,,354918,5,,52.47887600000000,03070/0003/0/000,211,foodandsafety@harborough.gov.uk,Harborough,http://www.harborough.gov.uk,-0.92122000000000,LE16 7NB,2014-09-09,fhrs_5_en-GB,5,,FHRS,5
57598,Aldwinckles Cafe,8C Church Street,Market Harborough,Leicestershire,Aldwinckles Coffee Shop,Restaurant/Cafe/Canteen,1,5,,355165,0,,52.47915100000000,08/00091/FOODHS,211,foodandsafety@harborough.gov.uk,Harborough,http://www.harborough.gov.uk,-0.92172900000000,LE16 7AA,2013-06-12,fhrs_5_en-GB,5,,FHRS,0
57599,,,,,All Things Nice,Other catering premises,7841,10,,355210,5,,,09/00025/FOODC,211,foodandsafety@harborough.gov.uk,Harborough,http://www.harborough.gov.uk,,,2009-10-27,fhrs_4_en-GB,4,,FHRS,0
57600,12 Weston Court,George Street,Lutterworth,Leicestershire,Amys Sweet Shop,Retailers - other,4613,0,,456760,0,,52.45620800000000,12/00068/FOODHS,211,foodandsafety@harborough.gov.uk,Harborough,http://www.harborough.gov.uk,-1.20186200000000,LE17 4EG,2012-10-09,fhrs_5_en-GB,5,,FHRS,0
57601,,,,,Angel Jane Cakes,Other catering premises,7841,0,,733032,5,,,14/00108/FOODC,211,foodandsafety@harborough.gov.uk,Harborough,http://www.harborough.gov.uk,,,2015-01-28,fhrs_5_en-GB,5,,FHRS,5
57602,Tilton On The Hill Post Office,Leicester Road,Tilton On The Hill,Leicester,Anglo African Ventures Ltd,Retailers - other,4613,,,355190,,,52.64348300000000,08840/2020/2/000,211,foodandsafety@harborough.gov.uk,Harborough,http://www.harborough.gov.uk,-0.90694800000000,LE7 9DB,2009-01-06,fhrs_exempt_en-GB,Exempt,,FHRS,
57603,,,,,Annes Hot Stuff / Harkers Fudge,Mobile caterer,7846,0,,354990,0,,,05/00116/FOODHS,211,foodandsafety@harborough.gov.uk,Harborough,http://www.harborough.gov.uk,,,2013-09-19,fhrs_5_en-GB,5,,FHRS,0
57604,,,,,Anne's Welsh Kitchen Produce,Other catering premises,7841,5,,355168,5,,,08/00095/FOODC,211,foodandsafety@harborough.gov.uk,Harborough,http://www.harborough.gov.uk,,,2010-10-12,fhrs_5_en-GB,5,,FHRS,5
57605,Village Hall,Main Street,Ashby Parva,Lutterworth,APB Playgroup,Other catering premises,7841,,,354905,,,52.49258000000000,03/00050/HS,211,foodandsafety@harborough.gov.uk,Harborough,http://www.harborough.gov.uk,-1.22591800000000,LE17 5HS,2009-07-02,fhrs_exempt_en-GB,Exempt,,FHRS,
57606,Oriental Healing,7 Adam And Eve Street,Market Harborough,Leicestershire,Appleby's,Restaurant/Cafe/Canteen,1,5,,375203,5,,52.47825500000000,12/00032/FOODHS,211,foodandsafety@harborough.gov.uk,Harborough,http://www.harborough.gov.uk,-0.92016000000000,LE16 7LT,2013-11-06,fhrs_5_en-GB,5,,FHRS,5
57607,Unit 2400,Argos Distribution Canteen,Wellington Parkway,Magna Park,Argos Distribution Canteen,Restaurant/Cafe/Canteen,1,10,,355533,10,,52.45650600000000,17280/2007/2/000,211,foodandsafety@harborough.gov.uk,Harborough,http://www.harborough.gov.uk,-1.24447600000000,LE17 4XW,2014-09-02,fhrs_3_en-GB,3,,FHRS,10
57608,Argos Distributors Ltd,21 Saint Marys Place,Market Harborough,Leics,Argos Distributors Ltd,Retailers - other,4613,,,355475,,,52.47742500000000,14450/2001/2/000,211,foodandsafety@harborough.gov.uk,Harborough,http://www.harborough.gov.uk,-0.91881100000000,LE16 7DR,2002-02-25,fhrs_exempt_en-GB,Exempt,,FHRS,
57609,24B St Marys Road,Market Harborough,Leicestershire,,Ascough's Bistro,Restaurant/Cafe/Canteen,1,5,,706710,5,,52.47789200000000,14/00087/FOODHS,211,foodandsafety@harborough.gov.uk,Harborough,http://www.harborough.gov.uk,-0.91774000000000,LE16 7DU,2014-08-06,fhrs_5_en-GB,5,,FHRS,5
57610,"Assembly Rooms,Welland Park College",Welland Park Road,Market Harborough,Leics,Assembly Rooms,Other catering premises,7841,,,354907,,,52.47435400000000,03/00065/FOODC,211,foodandsafety@harborough.gov.uk,Harborough,http://www.harborough.gov.uk,-0.92119800000000,LE16 9DR,2009-02-25,fhrs_exempt_en-GB,Exempt,,FHRS,
57611,@Aylestone Saint James RFC,Covert Lane,Scraptoft,Leicester,Aylestone Saint James RFC,Other catering premises,7841,10,,354950,10,,52.63926500000000,03600/2009/2/000,211,foodandsafety@harborough.gov.uk,Harborough,http://www.harborough.gov.uk,-1.02523400000000,LE7 9SQ,2014-11-11,fhrs_3_en-GB,3,,FHRS,10
57612,19 The Square,Market Harborough,Leicestershire,,B & M Retail,Retailers - other,4613,0,,595965,0,,52.47790700000000,09/00105/FOODHS,211,foodandsafety@harborough.gov.uk,Harborough,http://www.harborough.gov.uk,-0.92039000000000,LE16 7PA,2013-08-29,fhrs_5_en-GB,5,,FHRS,0
57613,,,,,B Freemans Catering And Amusements,Mobile caterer,7846,5,,579639,0,,,13/00063/FOODHS,211,foodandsafety@harborough.gov.uk,Harborough,http://www.harborough.gov.uk,,,2013-07-24,fhrs_5_en-GB,5,,FHRS,0
57614,Babe Blooz,39 Saint Marys Road,Market Harborough,Leics,Babe Blooz,Restaurant/Cafe/Canteen,1,5,,354884,10,,52.47816800000000,02/00081/FOODC,211,foodandsafety@harborough.gov.uk,Harborough,http://www.harborough.gov.uk,-0.91844000000000,LE16 7DS,2014-04-29,fhrs_4_en-GB,4,,FHRS,5
57615,Leicester Road,Lutterworth,Leicestershire,,Back In Time For Tea,Restaurant/Cafe/Canteen,1,0,,688896,0,,52.46393100000000,13/00096/FOODHS,211,foodandsafety@harborough.gov.uk,Harborough,http://www.harborough.gov.uk,-1.19662900000000,LE17 4HE,2013-08-16,fhrs_5_en-GB,5,,FHRS,0
57616,,,,,Bake Bake Biscotti,Other catering premises,7841,5,,479132,5,,,12/00107/FOODC,211,foodandsafety@harborough.gov.uk,Harborough,http://www.harborough.gov.uk,,,2012-11-26,fhrs_5_en-GB,5,,FHRS,5
57617,Bakers Arms,Main Street,Thorpe Langton,Market Harborough,Bakers Arms,Pub/bar/nightclub,7843,5,,355355,5,,52.52575700000000,10150/2007/2/000,211,foodandsafety@harborough.gov.uk,Harborough,http://www.harborough.gov.uk,-0.90900200000000,LE16 7TS,2014-03-18,fhrs_5_en-GB,5,,FHRS,5
57618,Bambury Farm,Bambury Lane,Peatling Magna,Leicester,Bambury Organic Farm,Retailers - other,4613,5,,354908,10,,52.55019000000000,03/00071/FOODC,211,foodandsafety@harborough.gov.uk,Harborough,http://www.harborough.gov.uk,-1.15504400000000,LE8 5UA,2003-04-10,fhrs_4_en-GB,4,,FHRS,5
57619,Baptist Church,25 Coventry Road,Market Harborough,Leics,Baptist Church,Other catering premises,7841,,,354941,,,52.47709400000000,03550/0025/2/000,211,foodandsafety@harborough.gov.uk,Harborough,http://www.harborough.gov.uk,-0.92485600000000,LE16 9BX,2005-03-03,fhrs_exempt_en-GB,Exempt,,FHRS,
57620,Bates Butchers,4A Church Square,Market Harboroug,Leics,Bates Butchers,Retailers - other,4613,5,,354919,5,,52.47887600000000,03070/0004/A/000,211,foodandsafety@harborough.gov.uk,Harborough,http://www.harborough.gov.uk,-0.92122000000000,LE16 7NB,2014-06-26,fhrs_5_en-GB,5,,FHRS,5
57621,Glen Stewart Nursery,Melton Rd,Market Harborough,,Bates Butchers Farm Shop,Manufacturers/packers,7839,,,723732,,,52.51805100000000,13/00132/FOODHS,211,foodandsafety@harborough.gov.uk,Harborough,http://www.harborough.gov.uk,-0.93952300000000,LE16 7TG,2014-12-02,fhrs_exempt_en-GB,Exempt,,FHRS,
57622,,,,,Be Dazzled,Retailers - other,4613,5,,688905,5,,,14/00039/FOODC,211,foodandsafety@harborough.gov.uk,Harborough,http://www.harborough.gov.uk,,,2014-07-09,fhrs_5_en-GB,5,,FHRS,0
57623,Green Road,Broughton Astley,Leicestershire,,Bengal Palace,Restaurant/Cafe/Canteen,1,10,,355049,10,,52.53434000000000,06050/0001/0/000,211,foodandsafety@harborough.gov.uk,Harborough,http://www.harborough.gov.uk,-1.22878200000000,LE9 6RA,2014-09-10,fhrs_3_en-GB,3,,FHRS,10
57624,Alma Park,Watling Street,Claybrooke Parva,Leicestershire,Best Start Nurseries @ Alma Park,Hospitals/Childcare/Caring Premises,5,0,,355067,5,,52.48326600000000,07/00125/FOODC,211,foodandsafety@harborough.gov.uk,Harborough,http://www.harborough.gov.uk,-1.29181600000000,LE17 5BE,2014-08-07,fhrs_5_en-GB,5,,FHRS,5
57625,,,,,Big Daddies Diner,Mobile caterer,7846,0,,579630,0,,,13/00033/FOODHS,211,foodandsafety@harborough.gov.uk,Harborough,http://www.harborough.gov.uk,,,2014-12-05,fhrs_5_en-GB,5,,FHRS,0
57626,Baptist Chapel,11 Brook Lane,Billesdon,Leicestershire,Billesdon Chapel Drop-In,Restaurant/Cafe/Canteen,1,5,,706704,5,,52.61716200000000,14/00043/FOODHS,211,foodandsafety@harborough.gov.uk,Harborough,http://www.harborough.gov.uk,-0.93687900000000,LE7 9AB,2014-08-27,fhrs_5_en-GB,5,,FHRS,0
57627,@Billesdon Cricket Club,Coplow Lane,Billesdon,Leicester,Billesdon Cricket Club,Other catering premises,7841,10,,354931,5,,52.62913200000000,03400/2002/2/000,211,foodandsafety@harborough.gov.uk,Harborough,http://www.harborough.gov.uk,-0.94639900000000,LE7 9DQ,2008-01-03,fhrs_3_en-GB,3,,FHRS,10
57628,Billesdon Parochial Primary School,Gaulby Road,Billesdon,Leicestershire,Billesdon School,School/college/university,7845,0,,355135,0,,52.61496300000000,08/00019/FOODC,211,foodandsafety@harborough.gov.uk,Harborough,http://www.harborough.gov.uk,-0.93827600000000,LE7 9AG,2013-07-11,fhrs_5_en-GB,5,,FHRS,0
57629,Coventry Road,Lutterworth,Leicestershire,,Bistro  (Lutterworth Sports Centre),Restaurant/Cafe/Canteen,1,5,,354957,0,,52.45717000000000,04/00071/FOODC,211,foodandsafety@harborough.gov.uk,Harborough,http://www.harborough.gov.uk,-1.20456700000000,LE17 4RB,2013-07-03,fhrs_5_en-GB,5,,FHRS,0
57630,Bitteswell Church Of England School,The Green,Bitteswell,Leicestershire,Bitteswell After School Club,Other catering premises,7841,5,,354910,0,,52.68526077270508,03/00110/HS,211,foodandsafety@harborough.gov.uk,Harborough,http://www.harborough.gov.uk,-1.13088500499725,LE17 4SB,2011-11-17,fhrs_5_en-GB,5,,FHRS,0
57631,Bitteswell Cricket Club,Ullesthorpe Road,Bitteswell,Lutterworth,Bitteswell Cricket Club,Other catering premises,7841,,,355518,,,,16550/2013/2/000,211,foodandsafety@harborough.gov.uk,Harborough,http://www.harborough.gov.uk,,,2008-10-01,fhrs_exempt_en-GB,Exempt,,FHRS,
57632,Hall Lane,Bitteswell,Lutterworth,Leics,Bitteswell Montessori Day Nursery,Hospitals/Childcare/Caring Premises,5,0,,354878,0,,52.48205900000000,02/00038/HSFOOD,211,foodandsafety@harborough.gov.uk,Harborough,http://www.harborough.gov.uk,-1.20646000000000,LE17 4LN,2011-08-24,fhrs_5_en-GB,5,,FHRS,0
57633,Black Boy Inn,Main Street,Hungarton,Leicester,Black Boy Inn,Pub/bar/nightclub,7843,0,,355292,5,,52.65963800000000,09820/2025/2/000,211,foodandsafety@harborough.gov.uk,Harborough,http://www.harborough.gov.uk,-0.98058900000000,LE7 9JR,2013-08-21,fhrs_5_en-GB,5,,FHRS,0
57634,20 Manor Walk,Market Harborough,Leicestershire,,Blend Coffee Shop,Restaurant/Cafe/Canteen,1,10,,509040,5,,52.47729300000000,06/00205/FOODHS,211,foodandsafety@harborough.gov.uk,Harborough,http://www.harborough.gov.uk,-0.92206900000000,LE16 9BP,2014-07-16,fhrs_4_en-GB,4,,FHRS,5
57635,81 Kilby Road,Fleckney,Leicestershire,,Blossomtree Nursery,Hospitals/Childcare/Caring Premises,5,5,,355206,0,,52.53740500000000,09/00012/FOODHS,211,foodandsafety@harborough.gov.uk,Harborough,http://www.harborough.gov.uk,-1.05276200000000,LE8 8BP,2014-02-17,fhrs_5_en-GB,5,,FHRS,0
57636,88 Main Street,Kibworth Harcourt,Leicestershire,,Boboli,Restaurant/Cafe/Canteen,1,10,,355079,10,,52.54405100000000,07/00168/FOODHS,211,foodandsafety@harborough.gov.uk,Harborough,http://www.harborough.gov.uk,-0.99625900000000,LE8 0NQ,2014-12-01,fhrs_3_en-GB,3,,FHRS,10
57637,Boots Co Plc,9 Saint Marys Place,Market Harborough,Leics,Boots Co Plc,Retailers - other,4613,,,355476,,,52.47742500000000,14450/2003/2/000,211,foodandsafety@harborough.gov.uk,Harborough,http://www.harborough.gov.uk,-0.91881100000000,LE16 7DR,2002-02-01,fhrs_exempt_en-GB,Exempt,,FHRS,
57638,Bowden Stores,3 The Green,Great Bowden,Market Harborough,Bowden Stores,Retailers - other,4613,10,,355506,10,,52.49215800000000,15700/2001/2/000,211,foodandsafety@harborough.gov.uk,Harborough,http://www.harborough.gov.uk,-0.90391300000000,LE16 7EU,2013-08-29,fhrs_3_en-GB,3,,FHRS,10
57639,Market Hall,Northampton Road,Market Harborough,Leicestershire,Brennans Confectionery,Retailers - other,4613,5,,706708,5,,52.47666600000000,14/00070/FOODC,211,foodandsafety@harborough.gov.uk,Harborough,http://www.harborough.gov.uk,-0.91933100000000,LE16 9HB,2014-08-21,fhrs_5_en-GB,5,,FHRS,5
57640,Brenntag Logistics,Bilton Way,Lutterworth,Leicestershire,Brenntag UK,Distributors/Transporters,7,,,688902,,,,14/00019/FOODHS,211,foodandsafety@harborough.gov.uk,Harborough,http://www.harborough.gov.uk,,LE17 4QS,2014-07-21,fhrs_exempt_en-GB,Exempt,,FHRS,
57641,Bridge 61 Public House,Gumley Road,Foxton,Market Harborough,Bridge 61,Retailers - other,4613,20,,355052,10,,52.50114800000000,06110/2004/2/000,211,foodandsafety@harborough.gov.uk,Harborough,http://www.harborough.gov.uk,-0.98235700000000,LE16 7RA,2014-01-22,fhrs_1_en-GB,1,,FHRS,10
57642,Binleys Bridge Farm,Debdale Lane,Smeeton Westerby,Leicestershire,Bridge 67 Cookery School,Other catering premises,7841,10,,355213,5,,52.52941500000000,09/00037/FOODC,211,foodandsafety@harborough.gov.uk,Harborough,http://www.harborough.gov.uk,-0.99842100000000,LE8 0QD,2012-11-26,fhrs_4_en-GB,4,,FHRS,0
57643,Bringhurst County Primary School,Great Easton Road,Bringhurst,Market Harborough,Bringhurst County Primary School,School/college/university,7845,0,,355020,0,,52.52439600000000,05950/0000/2/000,211,foodandsafety@harborough.gov.uk,Harborough,http://www.harborough.gov.uk,-0.75723200000000,LE16 8RH,2015-01-16,fhrs_5_en-GB,5,,FHRS,0
57644,16 Market Street,Lutterworth,Leics,,British Legion Club,Pub/bar/nightclub,7843,10,,355627,10,,52.45660500000000,10490/0016/0/000,211,foodandsafety@harborough.gov.uk,Harborough,http://www.harborough.gov.uk,-1.19947000000000,LE17 4EH,2013-09-30,fhrs_3_en-GB,3,,FHRS,10
57645,Britvic Ndc Canteen,Wellington Parkway,Lutterworth,Leicestershire,Britvic NDC (Canteen),Restaurant/Cafe/Canteen,1,0,,355161,0,,52.45650600000000,08/00084/FOODC,211,foodandsafety@harborough.gov.uk,Harborough,http://www.harborough.gov.uk,-1.24447600000000,LE17 4XW,2014-12-09,fhrs_5_en-GB,5,,FHRS,0
57646,15 Bell Lane,Husbands Bosworth,Leicestershire,,Brook House Residential Home,Hospitals/Childcare/Caring Premises,5,5,,354863,5,,52.45370500000000,01180/0015/2/000,211,foodandsafety@harborough.gov.uk,Harborough,http://www.harborough.gov.uk,-1.05823700000000,LE17 6LA,2014-03-31,fhrs_5_en-GB,5,,FHRS,0
57647,Brooke House VIth Form College,Leicester Road,Market Harborough,Leics,Brooke House,School/college/university,7845,5,,355189,5,,52.48246100000000,08810/2054/2/000,211,foodandsafety@harborough.gov.uk,Harborough,http://www.harborough.gov.uk,-0.92585900000000,LE16 7AU,2013-12-09,fhrs_5_en-GB,5,,FHRS,5
57648,Broughton Astley Conservative Club,3 Green Road,Broughton Astley,Leicester,Broughton Astley Conservative Club,Pub/bar/nightclub,7843,10,,355050,5,,52.53434000000000,06050/0003/0/000,211,foodandsafety@harborough.gov.uk,Harborough,http://www.harborough.gov.uk,-1.22878200000000,LE9 6RA,2007-05-25,fhrs_4_en-GB,4,,FHRS,5
57649,Main Street,Broughton Astley,,,Broughton Astley Convenient Store,Retailers - other,4613,5,,595987,0,,52.53403300000000,13/00110/FOODHS,211,foodandsafety@harborough.gov.uk,Harborough,http://www.harborough.gov.uk,-1.22987800000000,LE9 6RD,2012-03-13,fhrs_5_en-GB,5,,FHRS,5
57650,Broughton Astley Motor Spares,34 Main Street,Broughton Astley,Leicester,Broughton Astley Motor Spares,Retailers - other,4613,,,355264,,,52.53403300000000,09570/0034/3/001,211,foodandsafety@harborough.gov.uk,Harborough,http://www.harborough.gov.uk,-1.22987800000000,LE9 6RD,2008-12-11,fhrs_exempt_en-GB,Exempt,,FHRS,
57651,Village Hall,Station Road,Broughton Astley,Leicester,Broughton Astley Village Hall,Other catering premises,7841,,,355489,,,,14690/2005/2/000,211,foodandsafety@harborough.gov.uk,Harborough,http://www.harborough.gov.uk,,,2009-03-20,fhrs_exempt_en-GB,Exempt,,FHRS,
57652,Spar Supermarket,82 Main Street,Broughton Astley,Leicester,Broughton News,Retailers - other,4613,10,,355267,0,,52.53403300000000,09570/0082/0/000,211,foodandsafety@harborough.gov.uk,Harborough,http://www.harborough.gov.uk,-1.22987800000000,LE9 6RD,2013-07-10,fhrs_4_en-GB,4,,FHRS,0
57653,Bulls Head,2 Main Street,Broughton Astley,Leicestershire,Bull At Broughton,Pub/bar/nightclub,7843,10,,355436,5,,52.53403300000000,12/00002/FOODHS,211,foodandsafety@harborough.gov.uk,Harborough,http://www.harborough.gov.uk,-1.22987800000000,LE9 6RD,2013-09-11,fhrs_4_en-GB,4,,FHRS,5
57654,The Cottage,Snows Lane,Keyham,Leicestershire,Bunny And Clarke,Restaurant/Cafe/Canteen,1,0,,619757,5,,,13/00119/FOODHS,211,foodandsafety@harborough.gov.uk,Harborough,http://www.harborough.gov.uk,,,2013-10-24,fhrs_5_en-GB,5,,FHRS,5
57655,Village Hall,Rectory End,Burton Overy,Leicester,Burton Overy Village Hall,Other catering premises,7841,,,355545,,,52.57945300000000,18493/2006/2/000,211,foodandsafety@harborough.gov.uk,Harborough,http://www.harborough.gov.uk,-0.99924400000000,LE8 9DR,2010-04-21,fhrs_exempt_en-GB,Exempt,,FHRS,
57656,1 Hill Court,Main Street,Thurnby,Leicestershire,Bushby Childrens Centre,Other catering premises,7841,0,,355395,0,,52.62762800000000,11/00047/FOODC,211,foodandsafety@harborough.gov.uk,Harborough,http://www.harborough.gov.uk,-1.04130100000000,LE7 9NY,2011-08-04,fhrs_5_en-GB,5,,FHRS,0
57657,Tower Canteen,Sovereign Park Industrial Estate,Market Harborough,Leics,C D S Global,Restaurant/Cafe/Canteen,1,5,,355469,0,,52.46929700000000,14160/2010/3/001,211,foodandsafety@harborough.gov.uk,Harborough,http://www.harborough.gov.uk,-0.91583100000000,LE16 9EG,2014-12-04,fhrs_5_en-GB,5,,FHRS,0
57658,Cafe Centrale Roman Way Day Centre,36 Roman Way,Market Harborough,Leicestershire,Cafe Centrale (Roman Way Centre),Restaurant/Cafe/Canteen,1,0,,355062,0,,52.48028300000000,07/00067/FOODC,211,foodandsafety@harborough.gov.uk,Harborough,http://www.harborough.gov.uk,-0.91971300000000,LE16 7PQ,2013-08-02,fhrs_5_en-GB,5,,FHRS,0
57659,Carpe Diem Market Harborough Railwa,Rockingham Road,Market Harborough,Leics,Cafe Diem Ltd,Restaurant/Cafe/Canteen,1,5,,355454,10,,52.48079800000000,13010/2004/3/002,211,foodandsafety@harborough.gov.uk,Harborough,http://www.harborough.gov.uk,-0.90821500000000,LE16 7QE,2014-03-03,fhrs_3_en-GB,3,,FHRS,10
57660,,,,,Cafe In The Barn,Other catering premises,7841,,,595970,,,,13/00052/FOODC,211,foodandsafety@harborough.gov.uk,Harborough,http://www.harborough.gov.uk,,,2013-09-19,fhrs_exempt_en-GB,Exempt,,FHRS,
57661,Alma Park,Woodway Lane,Claybrooke Parva,Leicestershire,Caffe Crema,Restaurant/Cafe/Canteen,1,5,,355343,5,,52.48352900000000,10/00068/FOODC,211,foodandsafety@harborough.gov.uk,Harborough,http://www.harborough.gov.uk,-1.28185500000000,,2014-08-07,fhrs_5_en-GB,5,,FHRS,5
57662,33C The Square,Market Harborough,Leicestershire,,Caffe Nero,Restaurant/Cafe/Canteen,1,5,,354989,5,,52.47732900000000,05/00101/FOODHS,211,foodandsafety@harborough.gov.uk,Harborough,http://www.harborough.gov.uk,-0.92105200000000,LE16 7PE,2014-07-09,fhrs_4_en-GB,4,,FHRS,10
57663,,,,,Caked,Manufacturers/packers,7839,5,,713248,0,,,14/00090/FOODC,211,foodandsafety@harborough.gov.uk,Harborough,http://www.harborough.gov.uk,,,2014-10-22,fhrs_5_en-GB,5,,FHRS,0
57664,,,,,Cakes By Minel,Retailers - other,4613,5,,355402,5,,,11/00061/FOODC,211,foodandsafety@harborough.gov.uk,Harborough,http://www.harborough.gov.uk,,,2011-08-03,fhrs_5_en-GB,5,,FHRS,0
57665,,,,,Cakes For All,Other catering premises,7841,5,,355224,5,,,09/00054/FOODC,211,foodandsafety@harborough.gov.uk,Harborough,http://www.harborough.gov.uk,,,2012-11-22,fhrs_5_en-GB,5,,FHRS,5
57666,Hdc Service Shop,19 - 21 Market Street,Lutterworth,Leicestershire,Camis,Restaurant/Cafe/Canteen,1,0,,728958,0,,52.45601500000000,14/00109/FOODHS,211,foodandsafety@harborough.gov.uk,Harborough,http://www.harborough.gov.uk,-1.19986400000000,LE17 4EJ,2014-12-22,fhrs_5_en-GB,5,,FHRS,0
57667,,,,,Candy Store,Mobile caterer,7846,0,,579638,0,,,13/00059/FOODHS,211,foodandsafety@harborough.gov.uk,Harborough,http://www.harborough.gov.uk,,,2013-07-25,fhrs_5_en-GB,5,,FHRS,0
57668,6B High Street,Fleckney,Leicestershire,,Capital House,Takeaway/sandwich shop,7844,10,,702476,5,,52.53557900000000,14/00089/FOODHS,211,foodandsafety@harborough.gov.uk,Harborough,http://www.harborough.gov.uk,-1.04478100000000,LE8 8AJ,2014-08-26,fhrs_4_en-GB,4,,FHRS,5
57669,Bagatelle,116 Burnmill Road,Market Harborough,Leics,CARE Bagatelle,Hospitals/Childcare/Caring Premises,5,,,354906,,,52.48666900000000,03/00059/FOODC,211,foodandsafety@harborough.gov.uk,Harborough,http://www.harborough.gov.uk,-0.92195700000000,LE16 7JG,2009-12-04,fhrs_exempt_en-GB,Exempt,,FHRS,
57670,70 High Street,Kibworth,Leicester,,Care Community,Hospitals/Childcare/Caring Premises,5,,,355097,,,52.53676900000000,07040/0070/0/000,211,foodandsafety@harborough.gov.uk,Harborough,http://www.harborough.gov.uk,-0.99729500000000,LE8 0HQ,2008-12-19,fhrs_exempt_en-GB,Exempt,,FHRS,
57671,,,,,Carlas Catering,Other catering premises,7841,5,,637925,5,,,06/00139/FOODC,211,foodandsafety@harborough.gov.uk,Harborough,http://www.harborough.gov.uk,,,2013-08-02,fhrs_5_en-GB,5,,FHRS,5
57672,,,,,Carla's Catering,Other catering premises,7841,10,,355321,0,,,10/00025/FOODC,211,foodandsafety@harborough.gov.uk,Harborough,http://www.harborough.gov.uk,,,2010-08-20,fhrs_4_en-GB,4,,FHRS,0
57673,,,,,Carries Bakery,Other catering premises,7841,5,,524905,5,,,13/00002/FOODC,211,foodandsafety@harborough.gov.uk,Harborough,http://www.harborough.gov.uk,,,2013-02-26,fhrs_5_en-GB,5,,FHRS,5
57674,Castle Lane Day Nursery,9 Great Bowden Road,Market Harborough,Leicestershire,Castle Lane Day Nursery Ltd,Hospitals/Childcare/Caring Premises,5,0,,355019,0,,52.48126400000000,05940/0009/0/001,211,foodandsafety@harborough.gov.uk,Harborough,http://www.harborough.gov.uk,-0.91098700000000,LE16 7DE,2013-08-29,fhrs_5_en-GB,5,,FHRS,0
57675,DHL,Hunter Boulevard,Magna Park,Lutterworth,Catermaster,Restaurant/Cafe/Canteen,1,0,,355212,5,,52.46256900000000,09/00033/FOODC,211,foodandsafety@harborough.gov.uk,Harborough,http://www.harborough.gov.uk,-1.24797800000000,LE17 4XN,2014-03-17,fhrs_5_en-GB,5,,FHRS,5
57676,Lime Trees Day Nursery,88 Northampton Road,Market Harborough,Leicestershire,Caterpillar Day Nursery Ltd,Hospitals/Childcare/Caring Premises,5,0,,355384,5,,52.46826900000000,11/00022/FOODHS,211,foodandsafety@harborough.gov.uk,Harborough,http://www.harborough.gov.uk,-0.91348600000000,LE16 9HF,2014-03-10,fhrs_5_en-GB,5,,FHRS,5
57677,Catholic Social Club,40 Coventry Road,Market Harborough,Leics,Catholic Social Club,Pub/bar/nightclub,7843,5,,354943,5,,52.47737300000000,03550/0040/0/000,211,foodandsafety@harborough.gov.uk,Harborough,http://www.harborough.gov.uk,-0.92499700000000,LE16 9BZ,2011-02-25,fhrs_4_en-GB,4,,FHRS,10
57678,Lilbourne Lane,Catthorpe,Leicestershire,,Catthorpe Manor,Other catering premises,7841,5,,355195,5,,52.39863200000000,08960/2001/3/001,211,foodandsafety@harborough.gov.uk,Harborough,http://www.harborough.gov.uk,-1.18048700000000,LE17 6DF,2013-08-15,fhrs_5_en-GB,5,,FHRS,0
57679,Co-op Supermarket,93 Main Street,Broughton Astley,Leicester,Central England Cooperative,Retailers - supermarkets/hypermarkets,7840,0,,355268,0,,52.53331300000000,09570/0093/0/000,211,foodandsafety@harborough.gov.uk,Harborough,http://www.harborough.gov.uk,-1.22978700000000,LE9 6RE,2012-05-04,fhrs_5_en-GB,5,,FHRS,0
57680,Co Operative Retail Services Ltd,George Street,Lutterworth,Leicestershire,Central England Co-operative,Retailers - supermarkets/hypermarkets,7840,5,,355011,5,,52.45682100000000,05530/2001/2/000,211,foodandsafety@harborough.gov.uk,Harborough,http://www.harborough.gov.uk,-1.20082000000000,LE17 4EE,2013-07-18,fhrs_5_en-GB,5,,FHRS,0
57681,Co-op,61 High Street,Kibworth,Leicester,Central England Co-operative,Retailers - supermarkets/hypermarkets,7840,0,,355096,0,,52.53703800000000,07040/0061/0/000,211,foodandsafety@harborough.gov.uk,Harborough,http://www.harborough.gov.uk,-0.99730400000000,LE8 0HS,2013-08-14,fhrs_5_en-GB,5,,FHRS,0
57682,Co-op,17 Main Street,Houghton-On-The-Hill,Leicester,Central England Co-operative,Retailers - supermarkets/hypermarkets,7840,0,,354883,0,,52.62493000000000,02/00075/FOODC,211,foodandsafety@harborough.gov.uk,Harborough,http://www.harborough.gov.uk,-0.99887200000000,LE7 9GE,2013-07-11,fhrs_5_en-GB,5,,FHRS,0
57683,Co-op,27 - 29 Coventry Road,Market Harborough,Leics,Central England Co-operative,Retailers - supermarkets/hypermarkets,7840,0,,354942,0,,52.47678200000000,03550/0029/0/000,211,foodandsafety@harborough.gov.uk,Harborough,http://www.harborough.gov.uk,-0.92524700000000,LE16 9BX,2013-09-25,fhrs_5_en-GB,5,,FHRS,0
57684,Co-op Store,26-30 High Street,Fleckney,Leicester,Central England Co-operative,Retailers - supermarkets/hypermarkets,7840,0,,355060,0,,52.53557900000000,06990/2630/0/000,211,foodandsafety@harborough.gov.uk,Harborough,http://www.harborough.gov.uk,-1.04478100000000,LE8 8AJ,2014-09-10,fhrs_5_en-GB,5,,FHRS,5
57685,Co-Operative Retail Services Ltd,Main Street,Scraptoft,Leicester,Central England Co-operative,Retailers - supermarkets/hypermarkets,7840,0,,355348,0,,52.64573700000000,10010/2009/2/000,211,foodandsafety@harborough.gov.uk,Harborough,http://www.harborough.gov.uk,-1.04612200000000,LE7 9TD,2013-07-17,fhrs_5_en-GB,5,,FHRS,0
57686,Co-op,13 Main Street,Great Glen,Leicester,Central House,Retailers - supermarkets/hypermarkets,7840,0,,355287,5,,52.57360900000000,09790/0013/0/000,211,foodandsafety@harborough.gov.uk,Harborough,http://www.harborough.gov.uk,-1.03389100000000,LE8 9GH,2012-07-16,fhrs_5_en-GB,5,,FHRS,0
57687,V G Superstore,Central Avenue,Lutterworth,Leics,Central Stores,Retailers - supermarkets/hypermarkets,7840,5,,354891,5,,52.46367900000000,02370/2002/2/000,211,foodandsafety@harborough.gov.uk,Harborough,http://www.harborough.gov.uk,-1.20053400000000,LE17 4NY,2013-08-20,fhrs_5_en-GB,5,,FHRS,5
57688,,,,,Chalky Fritche,Manufacturers/packers,7839,0,,579633,0,,,13/00049/FOODC,211,foodandsafety@harborough.gov.uk,Harborough,http://www.harborough.gov.uk,,,2013-07-24,fhrs_5_en-GB,5,,FHRS,0
57689,Chandlers Arms,Fenny Lane,Shearsby,Lutterworth,Chandlers Arms,Pub/bar/nightclub,7843,5,,354978,5,,52.51149500000000,04880/2001/2/000,211,foodandsafety@harborough.gov.uk,Harborough,http://www.harborough.gov.uk,-1.08245000000000,LE17 6PL,2013-10-30,fhrs_5_en-GB,5,,FHRS,5
57690,Cheikho's Trattoria,12 Church Street,Lutterworth,Leics,Cheikho's Trattoria,Restaurant/Cafe/Canteen,1,5,,354924,5,,52.45567800000000,03100/0012/0/000,211,foodandsafety@harborough.gov.uk,Harborough,http://www.harborough.gov.uk,-1.20065000000000,LE17 4AW,2014-12-18,fhrs_4_en-GB,4,,FHRS,10
57691,Chengs Garden,66 Main Street,Broughton Astley,Leicester,Chengs Garden,Takeaway/sandwich shop,7844,10,,355266,10,,52.53403300000000,09570/0066/0/000,211,foodandsafety@harborough.gov.uk,Harborough,http://www.harborough.gov.uk,-1.22987800000000,LE9 6RD,2014-03-12,fhrs_3_en-GB,3,,FHRS,10
57692,The Chequers Country Inn,Main Street,Ullesthorpe,Leicestershire,Chequers Country Inn,Pub/bar/nightclub,7843,0,,668667,5,,52.48497400000000,14/00007/FOODHS,211,foodandsafety@harborough.gov.uk,Harborough,http://www.harborough.gov.uk,-1.25660800000000,LE17 5BT,2014-03-31,fhrs_5_en-GB,5,,FHRS,5
57693,Chequers Inn,High Street,Swinford,Lutterworth,Chequers Inn,Pub/bar/nightclub,7843,20,,355114,5,,52.41027900000000,07090/2001/2/000,211,foodandsafety@harborough.gov.uk,Harborough,http://www.harborough.gov.uk,-1.16317400000000,LE17 6BL,2014-01-08,fhrs_1_en-GB,1,,FHRS,10
57694,Cherry Tree Inn,Main Street,Catthorpe,Lutterworth,Cherry Tree,Pub/bar/nightclub,7843,5,,355275,5,,52.39822600000000,09630/2013/2/000,211,foodandsafety@harborough.gov.uk,Harborough,http://www.harborough.gov.uk,-1.18943100000000,LE17 6DB,2013-04-19,fhrs_5_en-GB,5,,FHRS,5
57695,44 Main Street,Broughton Astley,Leicestershire,,Chill Out Cafe,Restaurant/Cafe/Canteen,1,10,,355378,5,,52.53403300000000,11/00012/FOODHS,211,foodandsafety@harborough.gov.uk,Harborough,http://www.harborough.gov.uk,-1.22987800000000,LE9 6RD,2014-04-08,fhrs_4_en-GB,4,,FHRS,5
57696,Chengs Cottage,17 High Street,Lutterworth,Leicestershire,China Cottage,Takeaway/sandwich shop,7844,5,,355239,0,,52.45503400000000,09/00087/FOODHS,211,foodandsafety@harborough.gov.uk,Harborough,http://www.harborough.gov.uk,-1.19970500000000,LE17 4AT,2014-05-20,fhrs_5_en-GB,5,,FHRS,0
57697,27 High Street,Kibworth Beauchamp,Leicestershire,,Chollipops,Manufacturers/packers,7839,5,,688895,5,,52.53703800000000,11/00110/FOODC,211,foodandsafety@harborough.gov.uk,Harborough,http://www.harborough.gov.uk,-0.99723000000000,LE8 0HS,2012-01-20,fhrs_5_en-GB,5,,FHRS,5
57698,Christian Conference Centre,Saint Peters Road,Arnesby,Leicester,Christian Conference Centre,Other catering premises,7841,,,355484,,,,14530/2035/2/000,211,foodandsafety@harborough.gov.uk,Harborough,http://www.harborough.gov.uk,,LE8 3WJ,2010-02-03,fhrs_exempt_en-GB,Exempt,,FHRS,
57699,Church Hall,Honeypot Lane,Husbands Bosworth,Lutterworth,Church Hall,Other catering premises,7841,,,355117,,,,07450/2004/2/000,211,foodandsafety@harborough.gov.uk,Harborough,http://www.harborough.gov.uk,,,2013-02-11,fhrs_exempt_en-GB,Exempt,,FHRS,
57700,Church Langton C E School,Stonton Road,Church Langton,Market Harborough,Church Langton C Of E School,School/college/university,7845,0,,355496,0,,52.53420200000000,14970/2007/2/000,211,foodandsafety@harborough.gov.uk,Harborough,http://www.harborough.gov.uk,-0.93301600000000,LE16 7SZ,2014-12-05,fhrs_5_en-GB,5,,FHRS,0
57701,127 Northampton Road,Market Harborough,Leicestershire,,Cinnamon Lounge,Restaurant/Cafe/Canteen,1,20,,509048,10,,52.47261000000000,12/00117/FOODHS,211,foodandsafety@harborough.gov.uk,Harborough,http://www.harborough.gov.uk,-0.91626500000000,LE16 9HD,2014-07-29,fhrs_1_en-GB,1,,FHRS,10
57702,,,,,Classic Slices,Manufacturers/packers,7839,0,,456757,5,,,04740/0040/0/000,211,foodandsafety@harborough.gov.uk,Harborough,http://www.harborough.gov.uk,,,2012-10-08,fhrs_5_en-GB,5,,FHRS,5
57703,The Cottage,Frolesworth Lane,Claybrooke Magna,Leicestershire,Claybrooke Cottage (Residential Home),Hospitals/Childcare/Caring Premises,5,5,,354979,5,,52.50150100000000,05/00002/FOODHS,211,foodandsafety@harborough.gov.uk,Harborough,http://www.harborough.gov.uk,-1.26144200000000,LE17 5DA,2009-02-02,fhrs_5_en-GB,5,,FHRS,5
57704,Main Road,Claybrooke Parva,Leicestershire,,Claybrooke Primary School,School/college/university,7845,0,,355046,0,,52.48816600000000,06/00206/FOODC,211,foodandsafety@harborough.gov.uk,Harborough,http://www.harborough.gov.uk,-1.27553800000000,LE17 5AF,2013-07-10,fhrs_5_en-GB,5,,FHRS,0
57705,Coach & Horses,54 Main Street,Lubenham,Market Harborough,Coach & Horses,Pub/bar/nightclub,7843,5,,355298,5,,52.47927700000000,09910/0054/2/000,211,foodandsafety@harborough.gov.uk,Harborough,http://www.harborough.gov.uk,-0.96096600000000,LE16 9TF,2014-10-28,fhrs_5_en-GB,5,,FHRS,5
57706,Coba Plastics Ltd,Marlborough Drive,Fleckney,Leicestershire,Coba International Ltd,Restaurant/Cafe/Canteen,1,5,,479121,5,,52.53107500000000,10500/2001/2/000,211,foodandsafety@harborough.gov.uk,Harborough,http://www.harborough.gov.uk,-1.03699100000000,LE8 8UR,2014-07-09,fhrs_5_en-GB,5,,FHRS,0
57707,Cock Inn,Main Street,Peatling Magna,Leicester,Cock Inn,Pub/bar/nightclub,7843,10,,355302,5,,52.52872300000000,09970/2018/2/000,211,foodandsafety@harborough.gov.uk,Harborough,http://www.harborough.gov.uk,-1.12672600000000,LE8 5UQ,2014-09-30,fhrs_4_en-GB,4,,FHRS,5
57708,,,,,Coffee Express,Mobile caterer,7846,0,,479128,0,,,12/00099/FOODHS,211,foodandsafety@harborough.gov.uk,Harborough,http://www.harborough.gov.uk,,,2012-11-05,fhrs_5_en-GB,5,,FHRS,5
57709,Lock Keepers Cottage,Gumley Road,Foxton,Leicestershire,Coffee Stop,Restaurant/Cafe/Canteen,1,10,,355064,10,,52.50114800000000,07/00077/FOODHS,211,foodandsafety@harborough.gov.uk,Harborough,http://www.harborough.gov.uk,-0.98235700000000,LE16 7RA,2014-07-03,fhrs_3_en-GB,3,,FHRS,10
57710,Foxbury Stoneygate Residential Home,27 High Street,Husbands Bosworth,Leicestershire,Community Care Solutions,Hospitals/Childcare/Caring Premises,5,5,,355237,0,,52.45290800000000,09/00084/FOODHS,211,foodandsafety@harborough.gov.uk,Harborough,http://www.harborough.gov.uk,-1.05526700000000,LE17 6LJ,2009-11-04,fhrs_5_en-GB,5,,FHRS,5
57711,,,,,Cook In Kilworth,Other catering premises,7841,0,,355344,0,,,10/00070/FOODC,211,foodandsafety@harborough.gov.uk,Harborough,http://www.harborough.gov.uk,,,2013-03-14,fhrs_5_en-GB,5,,FHRS,0
57712,26 Church Street,Lutterworth,Leicestershire,,Costa Coffee,Restaurant/Cafe/Canteen,1,0,,355391,0,,52.45557900000000,11/00037/FOODHS,211,foodandsafety@harborough.gov.uk,Harborough,http://www.harborough.gov.uk,-1.20188800000000,LE17 4AL,2013-06-27,fhrs_5_en-GB,5,,FHRS,0
57713,38A Uppingham Road,Houghton On THe Hill,Leicestershire.,,Costa Fish Bar,Restaurant/Cafe/Canteen,1,10,,579644,10,,52.62752200000000,13/00072/FOODHS,211,foodandsafety@harborough.gov.uk,Harborough,http://www.harborough.gov.uk,-0.99698100000000,LE7 9HH,2013-07-24,fhrs_3_en-GB,3,,FHRS,10
57714,Gilesports,8 St Marys Place,Market Harborough,Leicestershire,Costa Ltd,Takeaway/sandwich shop,7844,0,,355075,0,,52.47742500000000,07/00151/FOODHS,211,foodandsafety@harborough.gov.uk,Harborough,http://www.harborough.gov.uk,-0.91881100000000,LE16 7DR,2013-08-02,fhrs_5_en-GB,5,,FHRS,0
57715,14 Stretton Road,Great Glen,Leicester,,County Pharmacy,Retailers - other,4613,,,355498,,,52.57681100000000,15060/0014/0/000,211,foodandsafety@harborough.gov.uk,Harborough,http://www.harborough.gov.uk,-1.03184300000000,LE8 9GN,2012-07-16,fhrs_exempt_en-GB,Exempt,,FHRS,
57716,Workshop,Coventry Gliding Club Ltd The Soari,Sibbertoft Road,Husbands Bosworth,Coventry Gliding Club Ltd,Pub/bar/nightclub,7843,0,,355124,0,,52.44091100000000,07680/2007/2/000,211,foodandsafety@harborough.gov.uk,Harborough,http://www.harborough.gov.uk,-1.04813800000000,LE17 6JJ,2009-03-18,fhrs_5_en-GB,5,,FHRS,0
57717,Service Station,Coventry Road,Market Harborough,Leicestershire,Coventry Road Service Station (BP),Retailers - other,4613,5,,354947,0,,52.47737300000000,03550/2003/2/000,211,foodandsafety@harborough.gov.uk,Harborough,http://www.harborough.gov.uk,-0.92499700000000,LE16 9BZ,2012-11-28,fhrs_5_en-GB,5,,FHRS,5
57718,6 Cranbrook Road,Scraptoft,Leicestershire,,Cranbrook News,Retailers - other,4613,10,,579645,10,,52.63759100000000,13/00073/FOODHS,211,foodandsafety@harborough.gov.uk,Harborough,http://www.harborough.gov.uk,-1.04377200000000,LE7 9UA,2013-07-19,fhrs_4_en-GB,4,,FHRS,0
57719,Cricket Pavilion,Coventry Road,Lutterworth,Leics,Cricket Pavilion,Pub/bar/nightclub,7843,,,354936,,,,03540/3017/2/000,211,foodandsafety@harborough.gov.uk,Harborough,http://www.harborough.gov.uk,,,2007-11-16,fhrs_exempt_en-GB,Exempt,,FHRS,
57720,Harborough Market Hall,Northampton Road,Market Harborough,Leicestershire,Crumbs,Retailers - other,4613,5,,718010,5,,52.47545100000000,14/00067/FOODHS,211,foodandsafety@harborough.gov.uk,Harborough,http://www.harborough.gov.uk,-0.91822700000000,LE16 9HB,2014-04-17,fhrs_5_en-GB,5,,FHRS,5
57721,1 Market Place,Billesdon,Leicester,,D And S Hoare,Retailers - other,4613,10,,355367,5,,52.61820100000000,10480/0001/0/000,211,foodandsafety@harborough.gov.uk,Harborough,http://www.harborough.gov.uk,-0.93945400000000,LE7 9AJ,2014-12-01,fhrs_4_en-GB,4,,FHRS,5
57722,,,,,Deli2dine4,Retailers - other,4613,5,,449515,0,,,12/00082/FOODC,211,foodandsafety@harborough.gov.uk,Harborough,http://www.harborough.gov.uk,,,2012-09-14,fhrs_5_en-GB,5,,FHRS,5
57723,,,,,Delizioso,Other catering premises,7841,0,,355424,0,,,11610/0046/A/000,211,foodandsafety@harborough.gov.uk,Harborough,http://www.harborough.gov.uk,,,2013-09-25,fhrs_5_en-GB,5,,FHRS,0
57724,Market Hall,Northampton Road,Market Harborough,Leicestershire,Dim Sum Master,Retailers - other,4613,10,,668670,5,,52.47666600000000,14/00026/FOODC,211,foodandsafety@harborough.gov.uk,Harborough,http://www.harborough.gov.uk,-0.91933100000000,LE16 9HB,2014-06-11,fhrs_4_en-GB,4,,FHRS,5
57725,Unit 5320,Hunter Boulevard,Magna Park,Lutterworth,Dine Contract Catering Ltd,Restaurant/Cafe/Canteen,1,0,,579642,0,,,13/00067/FOODHS,211,foodandsafety@harborough.gov.uk,Harborough,http://www.harborough.gov.uk,,,2013-08-07,fhrs_5_en-GB,5,,FHRS,0
57726,The Dirty Duck,Main Street,Ullesthorpe,Leicestershire,Dirty Duck,Restaurant/Cafe/Canteen,1,10,,706711,5,,52.48497400000000,14/00093/FOODHS,211,foodandsafety@harborough.gov.uk,Harborough,http://www.harborough.gov.uk,-1.25660800000000,LE17 5BT,2014-07-29,fhrs_4_en-GB,4,,FHRS,5
57727,Dog & Gun,Main Street,Keyham,Leicester,Dog And Gun,Pub/bar/nightclub,7843,0,,355294,5,,52.65184100000000,09840/2007/2/000,211,foodandsafety@harborough.gov.uk,Harborough,http://www.harborough.gov.uk,-1.01000900000000,LE7 9JQ,2014-05-14,fhrs_5_en-GB,5,,FHRS,0
57728,Dog & Gun,High Street,Walton,Lutterworth,Dog And Gun Inn,Pub/bar/nightclub,7843,5,,355115,5,,52.47961700000000,07100/2023/2/000,211,foodandsafety@harborough.gov.uk,Harborough,http://www.harborough.gov.uk,-1.12413500000000,LE17 5RG,2013-11-05,fhrs_5_en-GB,5,,FHRS,5
57729,Unit B,Trimbush Way,Market Harborough,Leicestershire,Dominos Pizza,Takeaway/sandwich shop,7844,0,,355339,0,,52.48338600000000,10/00057/FOODHS,211,foodandsafety@harborough.gov.uk,Harborough,http://www.harborough.gov.uk,-0.89835800000000,LE16 7XY,2013-10-30,fhrs_5_en-GB,5,,FHRS,0
57730,54 High Street,Kibworth Beauchamp,Leicestershire,,Doner Master,Takeaway/sandwich shop,7844,10,,524908,5,,52.53676900000000,13/00013/FOODHS,211,foodandsafety@harborough.gov.uk,Harborough,http://www.harborough.gov.uk,-0.99729500000000,LE8 0HQ,2014-09-17,fhrs_4_en-GB,4,,FHRS,5
57731,10 Adam And Eve Street,Market Harborough,Leics,,Duncan Murray Wines,Retailers - other,4613,5,,354848,5,,52.47825500000000,00060/0010/0/000,211,foodandsafety@harborough.gov.uk,Harborough,http://www.harborough.gov.uk,-0.92016000000000,LE16 7LT,2010-01-21,fhrs_5_en-GB,5,,FHRS,5
57732,Dunton Bassett Arms,9 Bennetts Hill,Dunton Bassett,Lutterworth,Dunton Bassett Arms,Pub/bar/nightclub,7843,5,,354866,5,,52.51070600000000,01230/0009/2/000,211,foodandsafety@harborough.gov.uk,Harborough,http://www.harborough.gov.uk,-1.19648400000000,LE17 5JJ,2009-09-23,fhrs_5_en-GB,5,,FHRS,5
57733,Dunton Bassett C.P. School,The Mount,Dunton Bassett,Lutterworth,Dunton Bassett County Primary School,School/college/university,7845,0,,355507,0,,52.51025800000000,15890/2000/2/000,211,foodandsafety@harborough.gov.uk,Harborough,http://www.harborough.gov.uk,-1.19806900000000,LE17 5JL,2005-04-27,fhrs_5_en-GB,5,,FHRS,5
57734,Village Hall,The Mount,Dunton Bassett,Lutterworth,Dunton Bassett Village Hall,Other catering premises,7841,,,355508,,,,15890/2004/2/000,211,foodandsafety@harborough.gov.uk,Harborough,http://www.harborough.gov.uk,,,2007-05-30,fhrs_exempt_en-GB,Exempt,,FHRS,
57735,,,,,Dunton Cakes,Other catering premises,7841,0,,619756,0,,,13/00113/FOODC,211,foodandsafety@harborough.gov.uk,Harborough,http://www.harborough.gov.uk,,,2013-12-17,fhrs_5_en-GB,5,,FHRS,0
57736,,,,,Elizabeth Dempsey,Other catering premises,7841,0,,355328,0,,,10/00037/FOODC,211,foodandsafety@harborough.gov.uk,Harborough,http://www.harborough.gov.uk,,,2012-12-13,fhrs_5_en-GB,5,,FHRS,0
57737,Emerson And Wests,7 Northampton Road,Market Harborough,Leics,Emerson And Wests Limited,Retailers - other,4613,5,,355423,5,,52.47666600000000,11610/0007/0/000,211,foodandsafety@harborough.gov.uk,Harborough,http://www.harborough.gov.uk,-0.91933100000000,LE16 9HB,2015-01-08,fhrs_4_en-GB,4,,FHRS,10
57738,,,,,Enchanted Tree Bakery,Other catering premises,7841,0,,637929,0,,,14/00010/FOODC,211,foodandsafety@harborough.gov.uk,Harborough,http://www.harborough.gov.uk,,,2014-03-11,fhrs_5_en-GB,5,,FHRS,0
57739,Enigma Cafe Bar And Nightclub,18 Coventry Road,Market Harborough,Leicestershire,Enigma Cafe,Restaurant/Cafe/Canteen,1,5,,595985,5,,52.47737300000000,13/00108/FOODHS,211,foodandsafety@harborough.gov.uk,Harborough,http://www.harborough.gov.uk,-0.92499700000000,LE16 9BZ,2014-06-26,fhrs_5_en-GB,5,,FHRS,5
57740,Astley News,16 Main Street,Broughton Astley,Leicester,Estley News,Retailers - other,4613,10,,355263,0,,52.53403300000000,09570/0016/0/000,211,foodandsafety@harborough.gov.uk,Harborough,http://www.harborough.gov.uk,-1.22987800000000,LE9 6RD,2013-07-03,fhrs_4_en-GB,4,,FHRS,0
57741,Asda RDC Unit 3100,Hunter Boulevard,Magna Park,Lutterworth,Eurest Food,Restaurant/Cafe/Canteen,1,5,,579629,5,,52.46256900000000,13/00030/FOODHS,211,foodandsafety@harborough.gov.uk,Harborough,http://www.harborough.gov.uk,-1.24797800000000,LE17 4XN,2014-12-09,fhrs_5_en-GB,5,,FHRS,0
57742,Evergreen Fields,Pincet Lane,North Kilworth,Lutterworth,Evergreen Fields Farm,Retailers - other,4613,10,,355630,10,,52.46119700000000,12420/2000/2/000,211,foodandsafety@harborough.gov.uk,Harborough,http://www.harborough.gov.uk,-1.08273000000000,LE17 6NE,2008-02-12,fhrs_3_en-GB,3,,FHRS,10
57743,,,,,F And M A Cooper,Other catering premises,7841,0,,355259,0,,,09450/0001/0/000,211,foodandsafety@harborough.gov.uk,Harborough,http://www.harborough.gov.uk,,,2014-11-11,fhrs_5_en-GB,5,,FHRS,0
57744,F Howkins Garage,Lutterworth Road,North Kilworth,Lutterworth,F Howkins And Son,Retailers - other,4613,5,,355255,5,,52.44654600000000,09390/2055/2/000,211,foodandsafety@harborough.gov.uk,Harborough,http://www.harborough.gov.uk,-1.09367200000000,LE17 6EP,2009-02-25,fhrs_5_en-GB,5,,FHRS,5
57745,Farndon Fields Community Centre,Argyle Park,Market Harborough,Leics,Farndon Fields Community Centre,Other catering premises,7841,,,354852,,,52.46618500000000,00370/2000/0/000,211,foodandsafety@harborough.gov.uk,Harborough,http://www.harborough.gov.uk,-0.92550500000000,LE16 9JH,2004-11-15,fhrs_exempt_en-GB,Exempt,,FHRS,
57746,Farndon Fields Farm,Farndon Road,Market Harborough,Leicestershire,Farndon Fields Farm Ltd,Retailers - other,4613,10,,354977,10,,52.47177700000000,04850/2013/2/000,211,foodandsafety@harborough.gov.uk,Harborough,http://www.harborough.gov.uk,-0.93345100000000,LE16 9NP,2013-11-13,fhrs_3_en-GB,3,,FHRS,5
57747,Argyle Park,Market Harborough,Leicestershire,,Farndon Fields Primary School,School/college/university,7845,5,,456759,0,,52.46618500000000,12/00063/FOODC,211,foodandsafety@harborough.gov.uk,Harborough,http://www.harborough.gov.uk,-0.92550500000000,LE16 9JH,2014-10-06,fhrs_5_en-GB,5,,FHRS,5
57748,,,,,Farrinheight Foods,Other catering premises,7841,5,,579628,5,,,13/00029/FOODC,211,foodandsafety@harborough.gov.uk,Harborough,http://www.harborough.gov.uk,,,2013-06-26,fhrs_5_en-GB,5,,FHRS,0
57749,95 Main Street,Broughton Astley,Leicestershire,,Fellas Takeaway,Takeaway/sandwich shop,7844,20,,355380,10,,52.53331300000000,11/00015/FOODHS,211,foodandsafety@harborough.gov.uk,Harborough,http://www.harborough.gov.uk,-1.22978700000000,LE9 6RE,2015-01-20,fhrs_1_en-GB,1,,FHRS,5
57750,Fernvale County Primary School,Somerby Road,Thurnby,Leicestershire,Fernvale CP School,School/college/university,7845,5,,355137,5,,52.63649800000000,08/00027/FOODC,211,foodandsafety@harborough.gov.uk,Harborough,http://www.harborough.gov.uk,-1.04320500000000,LE7 9PR,2014-01-17,fhrs_5_en-GB,5,,FHRS,0
57751,Feilding Palmer Cottage Hospital,Gilmorton Road,Lutterworth,Leics,Fielding Palmer Cottage Hospital,Hospitals/Childcare/Caring Premises,5,5,,355013,0,,52.45808900000000,05610/2006/2/000,211,foodandsafety@harborough.gov.uk,Harborough,http://www.harborough.gov.uk,-1.19680900000000,LE17 4DZ,2014-09-16,fhrs_5_en-GB,5,,FHRS,0
57752,Butties,24 Church Street,Lutterworth,Leicestershire,Flackies Meats,Retailers - other,4613,10,,355405,5,,52.45567800000000,11/00070/FOODHS,211,foodandsafety@harborough.gov.uk,Harborough,http://www.harborough.gov.uk,-1.20065000000000,LE17 4AW,2014-09-16,fhrs_4_en-GB,4,,FHRS,5
57753,Flames Grill,22 High Street,Market Harborough,Leics,Flames Grill,Takeaway/sandwich shop,7844,10,,355108,10,,52.47850800000000,07060/0022/0/000,211,foodandsafety@harborough.gov.uk,Harborough,http://www.harborough.gov.uk,-0.92227500000000,LE16 7NJ,2014-10-08,fhrs_3_en-GB,3,,FHRS,10
57754,The Old Baptist Church,Brookside,Fleckney,Leicester,Fleckney Baptist Church,Other catering premises,7841,,,354872,,,52.53546400000000,01890/0000/2/000,211,foodandsafety@harborough.gov.uk,Harborough,http://www.harborough.gov.uk,-1.04397200000000,LE8 8AA,2010-03-25,fhrs_exempt_en-GB,Exempt,,FHRS,
57755,Fleckney C Of E Primary School,16 Batchelor Road,Fleckney,Leicester,Fleckney C Of E Primary School,School/college/university,7845,5,,354858,0,,52.53872800000000,00960/0016/2/000,211,foodandsafety@harborough.gov.uk,Harborough,http://www.harborough.gov.uk,-1.04956300000000,LE8 8BE,2014-07-08,fhrs_5_en-GB,5,,FHRS,5
57756,24 High Street,Fleckney,Leicestershire,,Fleckney Fish Bar,Takeaway/sandwich shop,7844,5,,557823,0,,52.53557900000000,12/00052/FOODHS,211,foodandsafety@harborough.gov.uk,Harborough,http://www.harborough.gov.uk,-1.04478100000000,LE8 8AJ,2013-12-10,fhrs_5_en-GB,5,,FHRS,5
57757,87 Kilby Road,Fleckney,Leicester,,Fleckney General Stores,Retailers - other,4613,10,,355172,5,,52.53740500000000,08060/0087/0/000,211,foodandsafety@harborough.gov.uk,Harborough,http://www.harborough.gov.uk,-1.05276200000000,LE8 8BP,2013-10-09,fhrs_3_en-GB,3,,FHRS,10
57758,The Manor House,17 Main Street,Fleckney,Leicester,Fleckney Manor Training,Hospitals/Childcare/Caring Premises,5,,,355280,,,52.53461900000000,09720/0017/2/000,211,foodandsafety@harborough.gov.uk,Harborough,http://www.harborough.gov.uk,-1.04836900000000,LE8 8AP,2010-02-08,fhrs_exempt_en-GB,Exempt,,FHRS,
57759,Fleckney C Of E Primary School,16 Batchelor Road,Fleckney,Leicestershire,Fleckney Out Of School Club,Hospitals/Childcare/Caring Premises,5,5,,355314,5,,52.53872800000000,10/00014/FOODC,211,foodandsafety@harborough.gov.uk,Harborough,http://www.harborough.gov.uk,-1.04956300000000,LE8 8BE,2013-11-14,fhrs_5_en-GB,5,,FHRS,5
57760,Fleckney Working Mens Club,1-3 Orchard Street,Fleckney,Leicester,Fleckney Social Club,Pub/bar/nightclub,7843,5,,355449,5,,52.53337100000000,12020/0013/0/001,211,foodandsafety@harborough.gov.uk,Harborough,http://www.harborough.gov.uk,-1.04630300000000,LE8 8AR,2005-10-17,fhrs_5_en-GB,5,,FHRS,5
57761,Fleckney Recreation Ground,Leicester Road,Fleckney,Leicester,Fleckney Sports And Leisure Centre,Other catering premises,7841,,,355182,,,52.54114000000000,08760/2009/2/000,211,foodandsafety@harborough.gov.uk,Harborough,http://www.harborough.gov.uk,-1.04771200000000,LE8 8BG,2012-11-20,fhrs_exempt_en-GB,Exempt,,FHRS,
57762,Fleckney Leisure Centre,Leicester Road,Fleckney,Leicestershire,Fleckney Youth Club,Restaurant/Cafe/Canteen,1,,,355166,,,52.54114000000000,08/00093/FOODHS,211,foodandsafety@harborough.gov.uk,Harborough,http://www.harborough.gov.uk,-1.04771200000000,LE8 8BG,2009-04-08,fhrs_exempt_en-GB,Exempt,,FHRS,
57763,Foodmania 3/5,Devitt Way,Broughton Astley,Leicester,Foodmania,Retailers - other,4613,5,,354969,5,,52.52259000000000,04070/0003/0/000,211,foodandsafety@harborough.gov.uk,Harborough,http://www.harborough.gov.uk,-1.22058600000000,LE9 6NQ,2009-02-09,fhrs_5_en-GB,5,,FHRS,5
57764,1 Market Street,Lutterworth,Leics,,Fords,Retailers - other,4613,,,355369,,,52.45601500000000,10490/0001/0/000,211,foodandsafety@harborough.gov.uk,Harborough,http://www.harborough.gov.uk,-1.19986400000000,LE17 4EJ,2004-01-21,fhrs_exempt_en-GB,Exempt,,FHRS,
57765,Main Street,Illston On The Hill,Leicestershire,,Fox And Goose,Pub/bar/nightclub,7843,10,,355440,10,,52.58700400000000,12/00018/FOODHS,211,foodandsafety@harborough.gov.uk,Harborough,http://www.harborough.gov.uk,-0.95755000000000,LE7 9EG,2012-02-10,fhrs_4_en-GB,4,,FHRS,0
57766,Rugby Road,Lutterworth,Leicestershire,,Fox Inn,Pub/bar/nightclub,7843,20,,355154,15,,52.45317800000000,08/00068/FOODHS,211,foodandsafety@harborough.gov.uk,Harborough,http://www.harborough.gov.uk,-1.20044500000000,LE17 4BN,2011-09-16,fhrs_1_en-GB,1,,FHRS,10
57767,Primary School,Foxton Road,Foxton,Market Harborough,Foxton County Primary School,School/college/university,7845,0,,355000,0,,52.49917600000000,05250/0000/2/000,211,foodandsafety@harborough.gov.uk,Harborough,http://www.harborough.gov.uk,-0.97055900000000,LE16 7QZ,2013-01-30,fhrs_5_en-GB,5,,FHRS,0
57768,Foxton Locks,Gumley Road,Foxton,Leicestershire,Foxton Locks Inn,Pub/bar/nightclub,7843,5,,354984,0,,52.50114800000000,05/00056/FOODHS,211,foodandsafety@harborough.gov.uk,Harborough,http://www.harborough.gov.uk,-0.98235700000000,LE16 7RA,2014-07-03,fhrs_5_en-GB,5,,FHRS,5
57769,59 Northampton Road,Market Harborough,Leicestershire,,Freddys Party Shop,Retailers - other,4613,10,,355143,10,,52.47273800000000,08/00039/FOODHS,211,foodandsafety@harborough.gov.uk,Harborough,http://www.harborough.gov.uk,-0.91646800000000,LE16 9HD,2014-09-24,fhrs_2_en-GB,2,,FHRS,15
57770,Shadwells,3 Church Street,Lutterworth,Leics,Frutas Limited,Retailers - other,4613,5,,354922,5,,52.45543700000000,03100/0003/0/000,211,foodandsafety@harborough.gov.uk,Harborough,http://www.harborough.gov.uk,-1.20089000000000,LE17 4AE,2010-01-27,fhrs_5_en-GB,5,,FHRS,5
57771,Harborough District Council,The Symington Building,Adam And Eve Street,Market Harborough,Gallone,Restaurant/Cafe/Canteen,1,10,,688909,5,,52.47854900000000,14/00069/FOODHS,211,foodandsafety@harborough.gov.uk,Harborough,http://www.harborough.gov.uk,-0.92077200000000,LE16 7AG,2014-07-28,fhrs_4_en-GB,4,,FHRS,5
57772,8 Roman Way,Market Harborough,Leicestershire,,Garage Bakehouse,Manufacturers/packers,7839,10,,702473,5,,52.48028300000000,14/00066/FOODHS,211,foodandsafety@harborough.gov.uk,Harborough,http://www.harborough.gov.uk,-0.91971300000000,LE16 7PQ,2014-09-09,fhrs_4_en-GB,4,,FHRS,5
57773,Town End Farm,Rugby Road,Cotesbach,Leicestershire,Garden Barn Cafe,Restaurant/Cafe/Canteen,1,5,,355319,0,,52.43304900000000,10/00021/FOODHS,211,foodandsafety@harborough.gov.uk,Harborough,http://www.harborough.gov.uk,-1.21254700000000,LE17 4HS,2011-09-29,fhrs_5_en-GB,5,,FHRS,0
57774,Parochial Primary School,Gaulby Road,Billesdon,Leicester,Gaulby Parochial Primary School,School/college/university,7845,0,,355009,0,,52.61496300000000,05490/2002/2/000,211,foodandsafety@harborough.gov.uk,Harborough,http://www.harborough.gov.uk,-0.93827600000000,LE7 9AG,2013-07-11,fhrs_5_en-GB,5,,FHRS,0
57775,George & Dragon,18 Green Road,Broughton Astley,Leicester,George And Dragon,Pub/bar/nightclub,7843,5,,355051,5,,52.53434000000000,06050/0018/2/000,211,foodandsafety@harborough.gov.uk,Harborough,http://www.harborough.gov.uk,-1.22878200000000,LE9 6RA,2009-03-25,fhrs_5_en-GB,5,,FHRS,0
57776,George House,Magna Park,Coventry Road,Lutterworth,George Canteen,Restaurant/Cafe/Canteen,1,5,,355438,0,,52.45139000000000,12/00011/FOODC,211,foodandsafety@harborough.gov.uk,Harborough,http://www.harborough.gov.uk,-1.24724100000000,LE17 4XH,2012-03-16,fhrs_5_en-GB,5,,FHRS,0
57777,Harborough Innovation Centre,Wellington Way,Airfield Business Park,Market Harborough,Gibsons Catering Ltd,Mobile caterer,7846,10,,693813,5,,52.49540200000000,14/00054/FOODHS,211,foodandsafety@harborough.gov.uk,Harborough,http://www.harborough.gov.uk,-0.93925800000000,LE16 7WB,2014-08-13,fhrs_4_en-GB,4,,FHRS,5
57778,Gilmorton Chandler C Of E Primary S,Church Lane,Gilmorton,Lutterworth,Gilmorton Chandler C Of E School,School/college/university,7845,0,,354897,0,,52.48671400000000,02900/2004/2/000,211,foodandsafety@harborough.gov.uk,Harborough,http://www.harborough.gov.uk,-1.16191600000000,LE17 5LU,2014-05-19,fhrs_5_en-GB,5,,FHRS,5
57779,,,,,Gilmorton Child Care,Hospitals/Childcare/Caring Premises,5,0,,595981,0,,,13/00094/FOODC,211,foodandsafety@harborough.gov.uk,Harborough,http://www.harborough.gov.uk,,,2013-09-05,fhrs_5_en-GB,5,,FHRS,0
57780,Village Hall,Main Street,Gilmorton,Lutterworth,Gilmorton Village Hall,Other catering premises,7841,,,355285,,,,09760/2045/2/000,211,foodandsafety@harborough.gov.uk,Harborough,http://www.harborough.gov.uk,,,2007-10-30,fhrs_exempt_en-GB,Exempt,,FHRS,
57781,Main Street,Gilmorton,Leicestershire,,Gilmorton Village Store,Retailers - other,4613,5,,355233,10,,52.48636000000000,09/00075/FOODHS,211,foodandsafety@harborough.gov.uk,Harborough,http://www.harborough.gov.uk,-1.15884500000000,LE17 5LS,2012-11-01,fhrs_4_en-GB,4,,FHRS,5
57782,787 Uppingham Road,Thurnby,Leicestershire,,Goldeck Services Ltd (Thurnby) Leics,Retailers - other,4613,5,,354967,5,,52.63106500000000,04/00192/FOODHS,211,foodandsafety@harborough.gov.uk,Harborough,http://www.harborough.gov.uk,-1.04394400000000,LE7 9RQ,2010-03-19,fhrs_5_en-GB,5,,FHRS,5
57783,Golden Fish Bar,Main Street,Broughton Astley,Leicester,Golden Fish Bar,Takeaway/sandwich shop,7844,10,,355270,10,,52.53403300000000,09570/2001/2/000,211,foodandsafety@harborough.gov.uk,Harborough,http://www.harborough.gov.uk,-1.22987800000000,LE9 6RD,2013-10-04,fhrs_3_en-GB,3,,FHRS,10
57784,21 Abbey Street,Market Harborough,Leicestershire,,Golden Orchid,Restaurant/Cafe/Canteen,1,5,,355417,5,,52.47907000000000,11/00109/FOODHS,211,foodandsafety@harborough.gov.uk,Harborough,http://www.harborough.gov.uk,-0.92367400000000,LE16 9AA,2014-12-08,fhrs_5_en-GB,5,,FHRS,5
57785,,,,,Good Mood Food Ltd,Mobile caterer,7846,5,,733031,0,,,14/00057/FOODHS,211,foodandsafety@harborough.gov.uk,Harborough,http://www.harborough.gov.uk,,,2015-01-16,fhrs_5_en-GB,5,,FHRS,5
57786,Great Bowden C Of E Primary School,Gunnsbrook Close,Great Bowden,Leicestershire,Great Bowden Academy,School/college/university,7845,0,,449512,0,,52.49175200000000,12/00065/FOODC,211,foodandsafety@harborough.gov.uk,Harborough,http://www.harborough.gov.uk,-0.90574900000000,LE16 7HZ,2014-09-23,fhrs_5_en-GB,5,,FHRS,5
57787,Great Bowden Parish Church Hall,Dingley Road,Great Bowden,Market Harborough,Great Bowden Parish Church Hall,Other catering premises,7841,,,354970,,,,04110/2004/2/000,211,foodandsafety@harborough.gov.uk,Harborough,http://www.harborough.gov.uk,,,2005-03-31,fhrs_exempt_en-GB,Exempt,,FHRS,
57788,Village Hall,40 The Green,Great Bowden,Market Harborough,Great Bowden Village Hall,Other catering premises,7841,,,355505,,,52.49215800000000,15700/2000/2/000,211,foodandsafety@harborough.gov.uk,Harborough,http://www.harborough.gov.uk,-0.90391300000000,LE16 7EU,2010-04-12,fhrs_exempt_en-GB,Exempt,,FHRS,
57789,Great Glen Community Centre,The Chase,Great Glen,Leicester,Great Glen Community Centre,Other catering premises,7841,,,355502,,,,15460/2000/0/000,211,foodandsafety@harborough.gov.uk,Harborough,http://www.harborough.gov.uk,,,2000-09-01,fhrs_exempt_en-GB,Exempt,,FHRS,
57790,Great Glen Parochial Village Hall,Main Street,Great Glen,Leicester,Great Glen Parochial Village Hall,Other catering premises,7841,,,355626,,,52.57355100000000,09790/2009/2/000,211,foodandsafety@harborough.gov.uk,Harborough,http://www.harborough.gov.uk,-1.03337600000000,LE8 9GG,2005-09-29,fhrs_exempt_en-GB,Exempt,,FHRS,
57791,Great Glen Post Office,11 Stretton Road,Great Glen,Leicester,Great Glen Post Office,Retailers - other,4613,5,,355497,5,,52.57681100000000,15060/0011/2/000,211,foodandsafety@harborough.gov.uk,Harborough,http://www.harborough.gov.uk,-1.03184300000000,LE8 9GN,2014-10-07,fhrs_5_en-GB,5,,FHRS,5
57792,Great Glen Community Centre,The Chase,Great Glen,Leicestershire,Great Glen Pre School,Hospitals/Childcare/Caring Premises,5,,,354966,,,52.68526077270508,04/00189/FOODHS,211,foodandsafety@harborough.gov.uk,Harborough,http://www.harborough.gov.uk,-1.13088500499725,,2007-11-22,fhrs_exempt_en-GB,Exempt,,FHRS,
57793,Cricket And Football Club,High Street,Great Glen,Leicester,Great Glen Sports And Social Club,Other catering premises,7841,,,355089,,,,07010/2002/2/000,211,foodandsafety@harborough.gov.uk,Harborough,http://www.harborough.gov.uk,,,2010-01-25,fhrs_exempt_en-GB,Exempt,,FHRS,
57794,Scraptoft Golf Club,Beeby Road,Scraptoft,Leicestershire,Greenside Catering Services,Restaurant/Cafe/Canteen,1,5,,524907,5,,52.65287600000000,13/00009/FOODHS,211,foodandsafety@harborough.gov.uk,Harborough,http://www.harborough.gov.uk,-1.03517600000000,LE7 9SJ,2014-09-23,fhrs_5_en-GB,5,,FHRS,5
57795,5A St Marys Place,Market Harborough,Leicestershire,,Greggs,Takeaway/sandwich shop,7844,0,,354913,5,,52.47742500000000,03/00150/FOODHS,211,foodandsafety@harborough.gov.uk,Harborough,http://www.harborough.gov.uk,-0.91881100000000,LE16 7DR,2014-09-22,fhrs_5_en-GB,5,,FHRS,5
57796,Butchers Shop,Chapel Lane,Tugby,Leicester,GT Doughty And Sons,Manufacturers/packers,7839,10,,354893,5,,52.60150400000000,02480/2008/2/000,211,foodandsafety@harborough.gov.uk,Harborough,http://www.harborough.gov.uk,-0.87770900000000,LE7 9WA,2014-08-20,fhrs_4_en-GB,4,,FHRS,5
57797,Village Hall,Main Street,Gumley,Market Harborough,Gumley Village Hall,Other catering premises,7841,,,355288,,,52.50381100000000,09800/2036/2/000,211,foodandsafety@harborough.gov.uk,Harborough,http://www.harborough.gov.uk,-0.99635100000000,LE16 7RU,2008-10-01,fhrs_exempt_en-GB,Exempt,,FHRS,
57798,Hai Tan,27 Church Street,Lutterworth,Leicestershire,Hai Tian Restaurant,Restaurant/Cafe/Canteen,1,5,,354925,5,,52.45543700000000,03100/0027/0/000,211,foodandsafety@harborough.gov.uk,Harborough,http://www.harborough.gov.uk,-1.20089000000000,LE17 4AE,2011-12-15,fhrs_5_en-GB,5,,FHRS,5
57799,C Of E Primary School,Churchgate,Hallaton,Market Harborough,Hallaton C Of E Primary School,School/college/university,7845,0,,354895,0,,52.56145300000000,02770/2001/2/000,211,foodandsafety@harborough.gov.uk,Harborough,http://www.harborough.gov.uk,-0.84129000000000,LE16 8TY,2014-09-10,fhrs_5_en-GB,5,,FHRS,5
57800,Hallaton Manor,Cranoe Road,Hallaton,Leicestershire,Hallaton Manor Ltd,Hospitals/Childcare/Caring Premises,5,10,,355541,0,,52.55555800000000,18122/0000/0/000,211,foodandsafety@harborough.gov.uk,Harborough,http://www.harborough.gov.uk,-0.84805400000000,LE16 8TZ,2012-02-27,fhrs_4_en-GB,4,,FHRS,5
57801,Hallbrook Primary School,Pickering Road,Broughton Astley,Leicester,Hallbrook Primary School,School/college/university,7845,0,,355451,0,,,12410/2000/0/000,211,foodandsafety@harborough.gov.uk,Harborough,http://www.harborough.gov.uk,,,2015-01-22,fhrs_5_en-GB,5,,FHRS,0
57802,Oakham Road,Halstead,Tilton On The Hill,Leicestershire,Halstead House Farm,Other catering premises,7841,5,,418441,0,,52.64264300000000,12/00031/FOODC,211,foodandsafety@harborough.gov.uk,Harborough,http://www.harborough.gov.uk,-0.88150400000000,LE7 9DJ,2013-12-13,fhrs_5_en-GB,5,,FHRS,5
57803,12 Church Street,Market Harborough,Leicestershire,,Hambleton Bakery,Retailers - other,4613,10,,668669,15,,52.47915100000000,14/00022/FOODHS,211,foodandsafety@harborough.gov.uk,Harborough,http://www.harborough.gov.uk,-0.92172900000000,LE16 7AA,2014-05-27,fhrs_2_en-GB,2,,FHRS,10
57804,Han,29 Saint Marys Road,Market Harborough,Leics,Han Chinese Restaurant,Restaurant/Cafe/Canteen,1,5,,355480,5,,52.47816800000000,14470/0029/0/000,211,foodandsafety@harborough.gov.uk,Harborough,http://www.harborough.gov.uk,-0.91844000000000,LE16 7DS,2014-03-18,fhrs_5_en-GB,5,,FHRS,5
57805,Harborough Evangelical Church,121 Bath Street,Market Harborough,Leics,Harborough Evangelical Church,Other catering premises,7841,,,354860,,,52.47100400000000,00990/0121/2/000,211,foodandsafety@harborough.gov.uk,Harborough,http://www.harborough.gov.uk,-0.92157500000000,LE16 9JL,2009-03-04,fhrs_exempt_en-GB,Exempt,,FHRS,
57806,53 Western Avenue,Market Harborough,Leicestershire,,Harborough Fish Bar,Takeaway/sandwich shop,7844,0,,354955,5,,52.47024900000000,04/00042/FOODHS,211,foodandsafety@harborough.gov.uk,Harborough,http://www.harborough.gov.uk,-0.92556800000000,LE16 9PL,2013-09-05,fhrs_5_en-GB,5,,FHRS,5
57807,Harborough Leisure Centre,Northampton Road,Market Harborough,Leics,Harborough Leisure Centre,Restaurant/Cafe/Canteen,1,5,,355430,10,,52.46665500000000,11610/2000/2/000,211,foodandsafety@harborough.gov.uk,Harborough,http://www.harborough.gov.uk,-0.91591000000000,LE16 9HF,2013-10-03,fhrs_4_en-GB,4,,FHRS,5
57808,Kibworth Rugby Union Football Club,Northampton Road,Market Harborough,Leics,Harborough Rugby Football Club,Other catering premises,7841,,,355628,,,52.46826900000000,11610/2001/2/000,211,foodandsafety@harborough.gov.uk,Harborough,http://www.harborough.gov.uk,-0.91348600000000,LE16 9HF,2012-11-01,fhrs_exempt_en-GB,Exempt,,FHRS,
57809,Harborough Theatre,14 Church Square,Market Harborough,Leics,Harborough Theatre,Other catering premises,7841,5,,354917,5,,52.47887600000000,03070/0000/2/000,211,foodandsafety@harborough.gov.uk,Harborough,http://www.harborough.gov.uk,-0.92122000000000,LE16 7NB,2009-02-18,fhrs_5_en-GB,5,,FHRS,5
57810,Northampton Road,Market Harborough,Leicestershire,,Harborough Town Football Club,Other catering premises,7841,10,,637931,5,,,14/00018/FOODHS,211,foodandsafety@harborough.gov.uk,Harborough,http://www.harborough.gov.uk,,,2014-03-12,fhrs_4_en-GB,4,,FHRS,5
57811,Warren Farm,Welford Road,Knaptoft,Leicestershire,Harrison Farming Meats,Retailers - other,4613,10,,355033,10,,52.48628200000000,06/00085/FOODHS,211,foodandsafety@harborough.gov.uk,Harborough,http://www.harborough.gov.uk,-1.07490400000000,LE17 6NP,2012-06-19,fhrs_4_en-GB,4,,FHRS,0
57812,Unit 3,Harry Haddocks,Central Avenue,Lutterworth,Harry Haddocks,Takeaway/sandwich shop,7844,10,,354892,10,,52.46367900000000,02370/2004/2/000,211,foodandsafety@harborough.gov.uk,Harborough,http://www.harborough.gov.uk,-1.20053400000000,LE17 4NY,2014-09-17,fhrs_3_en-GB,3,,FHRS,5
57813,Hart Of Fleckney Bowls Club,Leicester Road,Fleckney,Leicester,Hart Of Fleckney Bowls Club,Other catering premises,7841,5,,355183,5,,52.54114000000000,08760/2009/3/001,211,foodandsafety@harborough.gov.uk,Harborough,http://www.harborough.gov.uk,-1.04771200000000,LE8 8BG,2014-07-16,fhrs_5_en-GB,5,,FHRS,5
57814,,,,,Hatched Matched And Despatched,Other catering premises,7841,5,,595966,5,,,12/00008/FOODC,211,foodandsafety@harborough.gov.uk,Harborough,http://www.harborough.gov.uk,,,2013-09-10,fhrs_5_en-GB,5,,FHRS,5
57815,Hedgehog Hall,Loddington Road,Tilton On The Hill,Leicestershire,Hedgehog Hall B& B,Hotel/bed & breakfast/guest house,7842,5,,355248,0,,52.63547600000000,09/00109/FOODHS,211,foodandsafety@harborough.gov.uk,Harborough,http://www.harborough.gov.uk,-0.89757200000000,LE7 9DE,2015-01-19,fhrs_5_en-GB,5,,FHRS,0
57816,,,,,Helen Holmes,Hospitals/Childcare/Caring Premises,5,0,,579634,0,,,13/00050/FOODC,211,foodandsafety@harborough.gov.uk,Harborough,http://www.harborough.gov.uk,,,2013-08-08,fhrs_5_en-GB,5,,FHRS,0
57817,,,,,Helsham Chocolates,Other catering premises,7841,0,,595967,0,,,12/00009/FOODC,211,foodandsafety@harborough.gov.uk,Harborough,http://www.harborough.gov.uk,,,2012-01-23,fhrs_5_en-GB,5,,FHRS,0
57818,Heron's Lodge,138 Northampton Road,Market Harborough,Leics,Heron's Lodge,Hospitals/Childcare/Caring Premises,5,5,,355429,5,,52.46665500000000,11610/0138/2/000,211,foodandsafety@harborough.gov.uk,Harborough,http://www.harborough.gov.uk,-0.91591000000000,LE16 9HF,2012-01-18,fhrs_5_en-GB,5,,FHRS,5
57819,13 Lutterworth Road,Walcote,Leicestershire,,High House,Hotel/bed & breakfast/guest house,7842,5,,355028,5,,52.44793000000000,06/00061/FOODHS,211,foodandsafety@harborough.gov.uk,Harborough,http://www.harborough.gov.uk,-1.16688900000000,LE17 4JW,2009-05-05,fhrs_5_en-GB,5,,FHRS,5
57820,Hobbs Fishmongers,5 Church Square,Market Harborough,Leics,Hobbs Fish Mongers,Retailers - other,4613,5,,557815,5,,52.47887600000000,03070/0005/0/000,211,foodandsafety@harborough.gov.uk,Harborough,http://www.harborough.gov.uk,-0.92122000000000,LE16 7NB,2013-07-04,fhrs_5_en-GB,5,,FHRS,5
57821,,,,,Hoggesters,Mobile caterer,7846,0,,355142,0,,,08/00036/FOODC,211,foodandsafety@harborough.gov.uk,Harborough,http://www.harborough.gov.uk,,,2011-08-23,fhrs_5_en-GB,5,,FHRS,0
57822,Julian Graves,4 St Marys Place,Market Harborough,Leicestershire,Holland And Barrett,Retailers - other,4613,0,,355331,0,,52.47742500000000,10/00041/FOODHS,211,foodandsafety@harborough.gov.uk,Harborough,http://www.harborough.gov.uk,-0.91881100000000,LE16 7DR,2013-11-22,fhrs_5_en-GB,5,,FHRS,5
57823,Hollybush Inn,Main Street,Ashby Parva,Lutterworth,Hollybush Inn,Pub/bar/nightclub,7843,5,,355261,5,,52.49258000000000,09540/2021/2/000,211,foodandsafety@harborough.gov.uk,Harborough,http://www.harborough.gov.uk,-1.22591800000000,LE17 5HS,2013-12-10,fhrs_4_en-GB,4,,FHRS,10
57824,Holt Farm,Ullesthorpe Road,Gilmorton,Leicestershire,Holt Farm B & B,Hotel/bed & breakfast/guest house,7842,5,,355159,0,,52.48330300000000,08/00077/FOODHS,211,foodandsafety@harborough.gov.uk,Harborough,http://www.harborough.gov.uk,-1.17676500000000,LE17 5PD,2009-03-06,fhrs_5_en-GB,5,,FHRS,0
57825,Main Street,Frolesworth,Leicestershire,,Home Farm,Manufacturers/packers,7839,,,723731,,,52.51181900000000,12/00075/FOODC,211,foodandsafety@harborough.gov.uk,Harborough,http://www.harborough.gov.uk,-1.26098900000000,LE17 5EE,2014-12-09,fhrs_exempt_en-GB,Exempt,,FHRS,
57826,5 Ashley Road,Medbourne,Market Harborough,Leics,Homestead House,Hotel/bed & breakfast/guest house,7842,5,,354856,5,,52.52802700000000,00510/0005/0/000,211,foodandsafety@harborough.gov.uk,Harborough,http://www.harborough.gov.uk,-0.82489400000000,LE16 8DL,2006-11-29,fhrs_5_en-GB,5,,FHRS,0
57827,Honeypot Lane,Husbands Bosworth,Lutterworth,Leics,Honey Pot Pre-School,Other catering premises,7841,,,354904,,,52.45451100000000,03/00027/FOODC,211,foodandsafety@harborough.gov.uk,Harborough,http://www.harborough.gov.uk,-1.05228600000000,,2010-01-27,fhrs_exempt_en-GB,Exempt,,FHRS,
57828,Hong Kong Take Away,30 Goward Street,Market Harborough,Leics,Hong Kong Take Away,Takeaway/sandwich shop,7844,5,,355016,10,,52.47855700000000,05840/0030/0/000,211,foodandsafety@harborough.gov.uk,Harborough,http://www.harborough.gov.uk,-0.92564500000000,LE16 9AF,2014-10-08,fhrs_4_en-GB,4,,FHRS,5
57829,Horse And Hounds,Glen Rise,Great Glen,Leicester,Horse And Hounds,Pub/bar/nightclub,7843,5,,355014,5,,52.58083800000000,05710/2008/2/000,211,foodandsafety@harborough.gov.uk,Harborough,http://www.harborough.gov.uk,-1.05069000000000,LE2 4RG,2014-09-10,fhrs_5_en-GB,5,,FHRS,5
57830,Main Street,Houghton-On-The-Hill,Leicester,Leics,Houghton C Of E Primary School,School/college/university,7845,5,,354882,5,,52.62432900000000,02/00074/FOODC,211,foodandsafety@harborough.gov.uk,Harborough,http://www.harborough.gov.uk,-0.99894500000000,LE7 9GD,2014-06-23,fhrs_5_en-GB,5,,FHRS,5
57831,Houghton Garage,71 Uppingham Road,Houghton-On-The-Hill,Leicester,Houghton Garage,Retailers - other,4613,,,557830,,,52.62752000000000,16680/0071/2/000,211,foodandsafety@harborough.gov.uk,Harborough,http://www.harborough.gov.uk,-0.99888700000000,LE7 9HJ,2005-12-30,fhrs_exempt_en-GB,Exempt,,FHRS,
57832,Houghton Methodist Church,Main Street,Houghton-On-The-Hill,Leicester,Houghton Methodist Church,Other catering premises,7841,,,355290,,,52.62493000000000,09810/2005/2/000,211,foodandsafety@harborough.gov.uk,Harborough,http://www.harborough.gov.uk,-0.99887200000000,LE7 9GE,2009-02-26,fhrs_exempt_en-GB,Exempt,,FHRS,
57833,Houghton Playing Fields Association,Main Street,Houghton-On-The-Hill,Leicester,Houghton Playing Fields Association,Other catering premises,7841,,,355291,,,52.62493000000000,09810/2006/2/000,211,foodandsafety@harborough.gov.uk,Harborough,http://www.harborough.gov.uk,-0.99887200000000,LE7 9GE,2009-04-17,fhrs_exempt_en-GB,Exempt,,FHRS,
57834,Village Hall,Main Street,Houghton-On-The-Hill,Leicester,Houghton Village Hall,Other catering premises,7841,,,355289,,,52.62493000000000,09810/2000/2/000,211,foodandsafety@harborough.gov.uk,Harborough,http://www.harborough.gov.uk,-0.99887200000000,LE7 9GE,2007-10-15,fhrs_exempt_en-GB,Exempt,,FHRS,
57835,Hungarton Village Hall,@Unknown,Hungarton,Leicester,Hungarton Village Hall,Other catering premises,7841,,,355119,,,,07590/2000/2/000,211,foodandsafety@harborough.gov.uk,Harborough,http://www.harborough.gov.uk,,,2010-09-20,fhrs_exempt_en-GB,Exempt,,FHRS,
57836,The Old School,Paget Street,Kibworth Beauchamp,Leicestershire,Hunny Bee Day Nursery,Hospitals/Childcare/Caring Premises,5,0,,579632,5,,52.53755200000000,13/00048/FOODHS,211,foodandsafety@harborough.gov.uk,Harborough,http://www.harborough.gov.uk,-0.99528700000000,LE8 0HW,2013-07-30,fhrs_5_en-GB,5,,FHRS,5
57837,26 Berridges Lane,Husbands Bosworth,Lutterworth,Leics,Hunters Lodge Care And Support Ltd,Hospitals/Childcare/Caring Premises,5,0,,354868,0,,52.45470000000000,01270/0026/0/000,211,foodandsafety@harborough.gov.uk,Harborough,http://www.harborough.gov.uk,-1.05786300000000,LE17 6LE,2013-09-23,fhrs_5_en-GB,5,,FHRS,5
57838,Husbands Bosworth C Of E Primary Sc,School Lane,Husbands Bosworth,Leicestershire,Husbands Bosworth C Of E School,School/college/university,7845,0,,355136,0,,52.45152900000000,08/00020/FOODC,211,foodandsafety@harborough.gov.uk,Harborough,http://www.harborough.gov.uk,-1.05594400000000,LE17 6JU,2013-12-10,fhrs_5_en-GB,5,,FHRS,5
57839,Roman Way Day Centre,36 Roman Way,Market Harborough,Leicestershire,I Care GB Ltd,Other catering premises,7841,5,,355335,5,,52.48028300000000,10/00049/FOODC,211,foodandsafety@harborough.gov.uk,Harborough,http://www.harborough.gov.uk,-0.91971300000000,LE16 7PQ,2014-08-14,fhrs_5_en-GB,5,,FHRS,0
57840,The Old Fire Station Annexe,Fairfield Road,Market Harborough,Leicestershire,Ice Bar Cafe,Restaurant/Cafe/Canteen,1,0,,355242,5,,52.48203200000000,09/00098/FOODHS,211,foodandsafety@harborough.gov.uk,Harborough,http://www.harborough.gov.uk,-0.92813800000000,LE16 9QH,2014-10-01,fhrs_5_en-GB,5,,FHRS,5
57841,6 Weston Court,George Street,Lutterworth,Leicestershire,Indian Lounge,Restaurant/Cafe/Canteen,1,5,,355068,0,,52.45620800000000,07/00128/FOODHS,211,foodandsafety@harborough.gov.uk,Harborough,http://www.harborough.gov.uk,-1.20186200000000,LE17 4EG,2013-08-02,fhrs_5_en-GB,5,,FHRS,0
57842,10 Bank Street,Lutterworth,Leicestershire,,Indian Vojon,Restaurant/Cafe/Canteen,1,5,,355199,5,,52.45483900000000,09/00002/FOODHS,211,foodandsafety@harborough.gov.uk,Harborough,http://www.harborough.gov.uk,-1.20154800000000,LE17 4AG,2014-03-17,fhrs_5_en-GB,5,,FHRS,0
57843,113 St Marys Road,Market Harborough,Leicestershire,,Indian Zest,Restaurant/Cafe/Canteen,1,5,,355397,10,,52.47852500000000,11/00049/FOODHS,211,foodandsafety@harborough.gov.uk,Harborough,http://www.harborough.gov.uk,-0.91423500000000,LE16 7DT,2014-07-09,fhrs_3_en-GB,3,,FHRS,10
57844,Poundstretcher,Springfield Street,Market Harborough,Leics,Instore,Retailers - other,4613,,,354875,,,52.47618500000000,02/00024/HS,211,foodandsafety@harborough.gov.uk,Harborough,http://www.harborough.gov.uk,-0.91444800000000,,2013-07-04,fhrs_exempt_en-GB,Exempt,,FHRS,
57845,,,,,Irene Elizabeth,Other catering premises,7841,0,,355521,0,,,16720/0006/0/000,211,foodandsafety@harborough.gov.uk,Harborough,http://www.harborough.gov.uk,,,2014-09-24,fhrs_5_en-GB,5,,FHRS,0
57846,Irenes Mobile Cafe,Rugby Road,Cotesbach,Leicestershire,Irenes Cafe,Restaurant/Cafe/Canteen,1,10,,688894,10,,,11/00096/FOODHS,211,foodandsafety@harborough.gov.uk,Harborough,http://www.harborough.gov.uk,,,2014-03-17,fhrs_3_en-GB,3,,FHRS,10
57847,136 Station Road,Broughton Astley,Lecestershire,,Ishka,Restaurant/Cafe/Canteen,1,5,,733034,0,,,15/00004/FOODHS,211,foodandsafety@harborough.gov.uk,Harborough,http://www.harborough.gov.uk,,LE9 6WP,2015-01-22,fhrs_5_en-GB,5,,FHRS,5
57848,Post Office,90 Northampton Road,Market Harborough,Leics,J R Stores,Retailers - other,4613,10,,355426,5,,52.46826900000000,11610/0090/2/000,211,foodandsafety@harborough.gov.uk,Harborough,http://www.harborough.gov.uk,-0.91348600000000,LE16 9HF,2013-03-27,fhrs_3_en-GB,3,,FHRS,10
57849,"J Stamp And Sons,The Chestnuts",15 Kettering Road,Market Harborough,Leics,J Stamp And Sons,Other catering premises,7841,,,355125,,,52.47657400000000,07980/0015/0/000,211,foodandsafety@harborough.gov.uk,Harborough,http://www.harborough.gov.uk,-0.91029300000000,LE16 8AN,2008-03-05,fhrs_exempt_en-GB,Exempt,,FHRS,
57850,The Stableyard,Main Street,Cotesbach,Leicestershire,Jasons Organic Butchers Shop,Retailers - other,4613,5,,355235,5,,52.43671000000000,09/00080/FOODHS,211,foodandsafety@harborough.gov.uk,Harborough,http://www.harborough.gov.uk,-1.21017200000000,LE17 4HX,2014-11-21,fhrs_5_en-GB,5,,FHRS,5
57851,,,,,Jessica Sherriff,Hospitals/Childcare/Caring Premises,5,5,,733033,5,,,14/00124/FOODC,211,foodandsafety@harborough.gov.uk,Harborough,http://www.harborough.gov.uk,,,2015-01-29,fhrs_5_en-GB,5,,FHRS,5
57852,Milners Bakery,Astley Court,74 Main Street,Broughton Astley,John F Milner Bakers Limited,Retailers - other,4613,10,,355272,15,,52.53403300000000,09570/2006/2/000,211,foodandsafety@harborough.gov.uk,Harborough,http://www.harborough.gov.uk,-1.22987800000000,LE9 6RD,2014-09-10,fhrs_2_en-GB,2,,FHRS,5
57853,"John Ross Butchers, Market Hall",Northampton Road,Market Harborough,Leics,John Ross Butchers,Retailers - other,4613,20,,355433,5,,52.47435400000000,11610/2010/C/000,211,foodandsafety@harborough.gov.uk,Harborough,http://www.harborough.gov.uk,-0.92119800000000,LE16 9DR,2014-09-11,fhrs_1_en-GB,1,,FHRS,5
57854,Wycliffe County Primary School,Moorbarns Lane,Lutterworth,Leics,John Wycliffe Primary School,School/college/university,7845,5,,355419,5,,52.45194200000000,11120/2003/2/000,211,foodandsafety@harborough.gov.uk,Harborough,http://www.harborough.gov.uk,-1.20785400000000,LE17 4QJ,2014-09-04,fhrs_5_en-GB,5,,FHRS,5
57855,Joiners Arms,Church Walk,Bruntingthorpe,Lutterworth,Joiners Arms,Pub/bar/nightclub,7843,5,,354930,5,,52.50284600000000,03130/2009/2/000,211,foodandsafety@harborough.gov.uk,Harborough,http://www.harborough.gov.uk,-1.11418600000000,LE17 5QH,2013-11-27,fhrs_4_en-GB,4,,FHRS,10
57856,Joseph Morris Butchers,Walcote Road,South Kilworth,Lutterworth,Joseph Morris Butchers Ltd,Retailers - other,4613,10,,355524,10,,52.43223900000000,16880/2036/2/000,211,foodandsafety@harborough.gov.uk,Harborough,http://www.harborough.gov.uk,-1.11448400000000,LE17 6EG,2014-07-31,fhrs_3_en-GB,3,,FHRS,5
57857,Joules Eating House,53 High Street,Market Harborough,Leics,Joules Eating House,Restaurant/Cafe/Canteen,1,5,,355111,5,,52.47963400000000,07060/0053/0/000,211,foodandsafety@harborough.gov.uk,Harborough,http://www.harborough.gov.uk,-0.92245300000000,LE16 7AF,2014-05-20,fhrs_5_en-GB,5,,FHRS,5
57858,,,,,Julies Crafts And Cream Teas,Other catering premises,7841,0,,723738,0,,,14/00105/FOODC,211,foodandsafety@harborough.gov.uk,Harborough,http://www.harborough.gov.uk,,,2014-11-27,fhrs_5_en-GB,5,,FHRS,0
57859,A Casa,9 Adam And Eve Street,Market Harborough,Leicestershire,Just So Italian,Retailers - other,4613,5,,595977,5,,52.47825500000000,13/00075/FOODHS,211,foodandsafety@harborough.gov.uk,Harborough,http://www.harborough.gov.uk,-0.92016000000000,LE16 7LT,2013-09-11,fhrs_4_en-GB,4,,FHRS,10
57860,,,,,Karenskakery,Other catering premises,7841,5,,444884,5,,,12/00070/FOODC,211,foodandsafety@harborough.gov.uk,Harborough,http://www.harborough.gov.uk,,,2012-08-15,fhrs_5_en-GB,5,,FHRS,5
57861,,,,,Kelly Elizabeth Pavey,Hospitals/Childcare/Caring Premises,5,0,,579647,5,,,13/00083/FOODC,211,foodandsafety@harborough.gov.uk,Harborough,http://www.harborough.gov.uk,,,2013-08-07,fhrs_5_en-GB,5,,FHRS,5
57862,KFC,17 St Marys Place,Market Harborough,Leicestershire,Kentucky Fried Chicken,Takeaway/sandwich shop,7844,0,,355473,10,,52.47742500000000,14450/0017/0/000,211,foodandsafety@harborough.gov.uk,Harborough,http://www.harborough.gov.uk,-0.91881100000000,LE16 7DR,2013-11-19,fhrs_4_en-GB,4,,FHRS,5
57863,Main Street,Keyham,Leicester,,Keyham Village Hall,Other catering premises,7841,,,355295,,,52.65184100000000,09840/2021/2/000,211,foodandsafety@harborough.gov.uk,Harborough,http://www.harborough.gov.uk,-1.01000900000000,LE7 9JQ,2001-02-06,fhrs_exempt_en-GB,Exempt,,FHRS,
57864,Main Street,Keyham,Leicester,Leics,Keyham Village Hall,Other catering premises,7841,,,354901,,,52.65184100000000,03/00013/FOODC,211,foodandsafety@harborough.gov.uk,Harborough,http://www.harborough.gov.uk,-1.01000900000000,LE7 9JQ,2009-01-28,fhrs_exempt_en-GB,Exempt,,FHRS,
57865,Saddington Road,Smeeton Westerby,Leicestershire,,Kibworth & Smeeton JFC,Other catering premises,7841,,,355076,,,52.52761300000000,07/00159/FOODC,211,foodandsafety@harborough.gov.uk,Harborough,http://www.harborough.gov.uk,-1.00901300000000,,2011-03-15,fhrs_exempt_en-GB,Exempt,,FHRS,
57866,19 Harborough Road,Kibworth Harcourt,Leicestershire,,Kibworth Antiques Centre,Restaurant/Cafe/Canteen,1,0,,524904,0,,52.53835800000000,12/00105/FOODHS,211,foodandsafety@harborough.gov.uk,Harborough,http://www.harborough.gov.uk,-0.98541900000000,LE8 0RB,2013-01-30,fhrs_5_en-GB,5,,FHRS,5
57867,Kibworth Bowling Club,Fleckney Road,Kibworth,Leicester,Kibworth Bowling Club,Other catering premises,7841,5,,354999,5,,52.53668900000000,05110/2002/2/000,211,foodandsafety@harborough.gov.uk,Harborough,http://www.harborough.gov.uk,-1.00487500000000,LE8 0HG,2014-01-30,fhrs_5_en-GB,5,,FHRS,0
57868,Kibworth C Of E Primary School,Hillcrest Avenue,Kibworth,Leicester,Kibworth C Of E Primary School,School/college/university,7845,5,,355116,5,,52.54163700000000,07120/0000/2/000,211,foodandsafety@harborough.gov.uk,Harborough,http://www.harborough.gov.uk,-0.99995600000000,LE8 0NH,2013-10-28,fhrs_5_en-GB,5,,FHRS,0
57869,Smeeton Road,Kibworth Beauchamp,Leicestershire,,Kibworth Court,Hospitals/Childcare/Caring Premises,5,10,,355439,5,,52.53595100000000,12/00016/FOODHS,211,foodandsafety@harborough.gov.uk,Harborough,http://www.harborough.gov.uk,-0.99731400000000,LE8 0LG,2015-01-13,fhrs_4_en-GB,4,,FHRS,5
57870,Cricket Club,Fleckney Road,Kibworth,Leicester,Kibworth Cricket Club,Other catering premises,7841,5,,355616,5,,52.53668900000000,05110/2007/2/000,211,foodandsafety@harborough.gov.uk,Harborough,http://www.harborough.gov.uk,-1.00487500000000,LE8 0HG,2014-05-07,fhrs_5_en-GB,5,,FHRS,0
57871,48 High Street,Kibworth Beauchamp,Leicestershire,,Kibworth Fish Bar,Takeaway/sandwich shop,7844,5,,355029,5,,52.53676900000000,06/00070/FOODHS,211,foodandsafety@harborough.gov.uk,Harborough,http://www.harborough.gov.uk,-0.99729500000000,LE8 0HQ,2013-11-13,fhrs_5_en-GB,5,,FHRS,0
57872,Weir Road,Kibworth,Leicester,Leics,Kibworth Golf Club,Restaurant/Cafe/Canteen,1,,,688893,,,52.53491500000000,03/00045/HS,211,foodandsafety@harborough.gov.uk,Harborough,http://www.harborough.gov.uk,-0.99292900000000,LE8 0LP,2014-11-19,fhrs_5_en-GB,5,,FHRS,
57873,Kibworth High School,Smeeton Road,Kibworth,Leicester,Kibworth High School,School/college/university,7845,0,,355466,0,,,14010/2005/2/000,211,foodandsafety@harborough.gov.uk,Harborough,http://www.harborough.gov.uk,,,2014-10-07,fhrs_5_en-GB,5,,FHRS,0
57874,Kibworth House,46 High Street,Kibworth,Leicester,Kibworth House,Takeaway/sandwich shop,7844,0,,355094,0,,52.53676900000000,07040/0046/0/000,211,foodandsafety@harborough.gov.uk,Harborough,http://www.harborough.gov.uk,-0.99729500000000,LE8 0HQ,2014-11-20,fhrs_5_en-GB,5,,FHRS,0
57875,Kibworth Knoll Residential Home,12 Fleckney Road,Kibworth,Leicester,Kibworth Knoll Residential Home,Hospitals/Childcare/Caring Premises,5,5,,354996,5,,52.53636000000000,05110/0012/2/000,211,foodandsafety@harborough.gov.uk,Harborough,http://www.harborough.gov.uk,-1.00214000000000,LE8 0HE,2014-09-05,fhrs_5_en-GB,5,,FHRS,0
57876,Methodist Church,School Road,Kibworth,Leicester,Kibworth Methodist Church Pre-School,Other catering premises,7841,,,354903,,,52.53764300000000,03/00025/HS,211,foodandsafety@harborough.gov.uk,Harborough,http://www.harborough.gov.uk,-0.99656700000000,LE8 0JE,2008-10-10,fhrs_exempt_en-GB,Exempt,,FHRS,
57877,Kibworth High School,Smeeton Road,Kibworth Beauchamp,Leicestershire,Kibworth Pre School Nursery,Hospitals/Childcare/Caring Premises,5,,,354914,,,,03/00156/FOODHS,211,foodandsafety@harborough.gov.uk,Harborough,http://www.harborough.gov.uk,,,2008-12-16,fhrs_exempt_en-GB,Exempt,,FHRS,
57878,Kibworth Village Hall,15 Station Street,Kibworth,Leicester,Kibworth Village Hall,Other catering premises,7841,,,355495,,,52.53782000000000,14810/0015/2/000,211,foodandsafety@harborough.gov.uk,Harborough,http://www.harborough.gov.uk,-0.99401300000000,LE8 0LN,2003-08-01,fhrs_exempt_en-GB,Exempt,,FHRS,
57879,Kibworth Working Mens Club,47 Fleckney Road,Kibworth,Leicester,Kibworth Working Mens Club,Other catering premises,7841,5,,354998,5,,52.53667400000000,05110/0047/0/000,211,foodandsafety@harborough.gov.uk,Harborough,http://www.harborough.gov.uk,-1.00207400000000,LE8 0HF,2009-04-27,fhrs_5_en-GB,5,,FHRS,5
57880,North Kilworth House,Lutterworth Road,North Kilworth,Lutterworth,Kilworth House Hotel,Hotel/bed & breakfast/guest house,7842,0,,354902,0,,52.44635300000000,03/00019/HS,211,foodandsafety@harborough.gov.uk,Harborough,http://www.harborough.gov.uk,-1.11446600000000,LE17 6JE,2011-10-11,fhrs_5_en-GB,5,,FHRS,0
57881,Kilworth Springs Golf Club,South Kilworth Road,North Kilworth,Lutterworth,Kilworth Springs Golf Club,Restaurant/Cafe/Canteen,1,5,,355467,5,,52.44311700000000,14120/0000/2/000,211,foodandsafety@harborough.gov.uk,Harborough,http://www.harborough.gov.uk,-1.09783300000000,LE17 6HJ,2014-07-14,fhrs_5_en-GB,5,,FHRS,0
57882,The Kings Head,30 Church Street,Market Harborough,Leics,Kings Head,Pub/bar/nightclub,7843,20,,354928,10,,52.47915100000000,03110/0030/0/000,211,foodandsafety@harborough.gov.uk,Harborough,http://www.harborough.gov.uk,-0.92172900000000,LE16 7AA,2013-06-24,fhrs_1_en-GB,1,,FHRS,10
57883,,,,,Kissme Kakes,Other catering premises,7841,0,,718012,0,,,14/00106/FOODC,211,foodandsafety@harborough.gov.uk,Harborough,http://www.harborough.gov.uk,,,2014-11-14,fhrs_5_en-GB,5,,FHRS,5
57884,Kitchen Dunton Bassett Arms,9 Bennetts Hill,Dunton Bassett,Lutterworth,Kitchen Of Dunton Bassett Arms,Restaurant/Cafe/Canteen,1,10,,354867,10,,52.51070600000000,01230/0009/2/001,211,foodandsafety@harborough.gov.uk,Harborough,http://www.harborough.gov.uk,-1.19648400000000,LE17 5JJ,2013-04-24,fhrs_3_en-GB,3,,FHRS,10
57885,KJs Cafe And Restaurant,13 Adam And Eve Street,Market Harborough,Leicestershire,KJ's,Restaurant/Cafe/Canteen,1,20,,723740,10,,52.47825500000000,14/00118/FOODHS,211,foodandsafety@harborough.gov.uk,Harborough,http://www.harborough.gov.uk,-0.92016000000000,LE16 7LT,2014-12-03,fhrs_1_en-GB,1,,FHRS,0
57886,Knaptoft House Farm,Bruntingthorpe Road,Knaptoft,Lutterworth,Knaptoft House Farm,Hotel/bed & breakfast/guest house,7842,5,,354888,5,,52.49883400000000,02000/2000/2/000,211,foodandsafety@harborough.gov.uk,Harborough,http://www.harborough.gov.uk,-1.08907700000000,LE17 6PR,2012-03-21,fhrs_5_en-GB,5,,FHRS,5
57887,Aylestone Transport Site,Broughton Way,Broughton Astley,Leicestershire,Knights Mobile Catering,Mobile caterer,7846,5,,688907,5,,,14/00065/FOODHS,211,foodandsafety@harborough.gov.uk,Harborough,http://www.harborough.gov.uk,,,2014-07-15,fhrs_5_en-GB,5,,FHRS,5
57888,Koggys Wine Bar,12 Station Road,Lutterworth,Leics,Koggys Wine Bar,Pub/bar/nightclub,7843,5,,355490,5,,52.45562300000000,14760/0012/2/000,211,foodandsafety@harborough.gov.uk,Harborough,http://www.harborough.gov.uk,-1.19776600000000,LE17 4AP,2014-12-30,fhrs_5_en-GB,5,,FHRS,5
57889,Market Hall,Northampton Road,Market Harborough,Leicestershire,La Malagueta,Retailers - other,4613,5,,706709,5,,52.47666600000000,14/00082/FOODHS,211,foodandsafety@harborough.gov.uk,Harborough,http://www.harborough.gov.uk,-0.91933100000000,LE16 9HB,2014-09-11,fhrs_5_en-GB,5,,FHRS,0
57890,Langton Road,Great Bowden,Leicestershire,,Langton Brook Farm,Hotel/bed & breakfast/guest house,7842,5,,355024,5,,52.49405500000000,06/00018/FOODHS,211,foodandsafety@harborough.gov.uk,Harborough,http://www.harborough.gov.uk,-0.90486700000000,LE16 7EZ,2009-02-26,fhrs_5_en-GB,5,,FHRS,5
57891,Melton Road,East Langton,Leicestershire,,Langton Inn,Pub/bar/nightclub,7843,0,,354987,0,,52.53775300000000,05/00083/FOODHS,211,foodandsafety@harborough.gov.uk,Harborough,http://www.harborough.gov.uk,-0.94167400000000,,2014-02-05,fhrs_5_en-GB,5,,FHRS,5
57892,Langtons Cricket Club,Main Street,East Langton,Market Harborough,Langtons Cricket Club,Other catering premises,7841,,,355278,,,52.52710800000000,09710/2035/2/000,211,foodandsafety@harborough.gov.uk,Harborough,http://www.harborough.gov.uk,-0.92993000000000,LE16 7TW,2008-01-15,fhrs_exempt_en-GB,Exempt,,FHRS,
57893,@Catthorpe Manor Residential Home,Lilbourne Lane,Catthorpe,Lutterworth,Latvian Welfare Trust,Hospitals/Childcare/Caring Premises,5,5,,355194,5,,52.39863200000000,08960/2001/2/000,211,foodandsafety@harborough.gov.uk,Harborough,http://www.harborough.gov.uk,-1.18048700000000,LE17 6DF,2013-08-15,fhrs_5_en-GB,5,,FHRS,0
57894,Launde Abbey,Launde Road,Launde,Leicester,Launde Abbey Retreat House And Conference Centre,Other catering premises,7841,0,,355178,0,,52.62686100000000,08600/2014/2/000,211,foodandsafety@harborough.gov.uk,Harborough,http://www.harborough.gov.uk,-0.82804000000000,LE7 9XB,2013-02-07,fhrs_5_en-GB,5,,FHRS,0
57895,Hill Farm,Launde Road,Launde,Leicestershire,Launde Farm Foods,Retailers - other,4613,5,,355374,5,,52.62686100000000,11/00004/FOODC,211,foodandsafety@harborough.gov.uk,Harborough,http://www.harborough.gov.uk,-0.82804000000000,LE7 9XB,2010-11-22,fhrs_5_en-GB,5,,FHRS,5
57896,,,,,Laura Cook,Hospitals/Childcare/Caring Premises,5,,,479133,,,,12/00111/FOODC,211,foodandsafety@harborough.gov.uk,Harborough,http://www.harborough.gov.uk,,,2012-11-21,fhrs_exempt_en-GB,Exempt,,FHRS,
57897,,,,,Lavender Green Bakery,Other catering premises,7841,0,,728956,0,,,14/00102/FOODC,211,foodandsafety@harborough.gov.uk,Harborough,http://www.harborough.gov.uk,,,2014-02-03,fhrs_5_en-GB,5,,FHRS,0
57898,"The Aero Club, Leicester East Airfi",Gartree Road,Stoughton,Leicester,Leicester Aero Club Limited,Other catering premises,7841,0,,355005,0,,52.60446300000000,05450/2004/2/000,211,foodandsafety@harborough.gov.uk,Harborough,http://www.harborough.gov.uk,-1.04827400000000,LE2 2FG,2014-02-17,fhrs_5_en-GB,5,,FHRS,5
57899,London Road,Great Glen,Leicestershire,,Leicester Grammar School,School/college/university,7845,0,,355155,0,,52.56757500000000,08/00069/FOODC,211,foodandsafety@harborough.gov.uk,Harborough,http://www.harborough.gov.uk,-1.02161500000000,LE8 9DJ,2014-10-27,fhrs_5_en-GB,5,,FHRS,0
57900,Lenthall Square,Market Harborough,Leicestershire,,Lenthall House,Hospitals/Childcare/Caring Premises,5,10,,557829,5,,52.46979600000000,13/00054/FOODHS,211,foodandsafety@harborough.gov.uk,Harborough,http://www.harborough.gov.uk,-0.92609400000000,LE16 9LQ,2015-01-12,fhrs_4_en-GB,4,,FHRS,5
57901,,,,,Leona Smith,Hospitals/Childcare/Caring Premises,5,0,,595976,0,,,13/00074/FOODC,211,foodandsafety@harborough.gov.uk,Harborough,http://www.harborough.gov.uk,,,2013-09-19,fhrs_5_en-GB,5,,FHRS,0
57902,Kettering Road,Market Harborough,Leicestershire,,Lidl UK GmbH,Retailers - supermarkets/hypermarkets,7840,5,,354960,5,,52.47477300000000,04/00124/FOODHS,211,foodandsafety@harborough.gov.uk,Harborough,http://www.harborough.gov.uk,-0.90280200000000,,2010-04-15,fhrs_5_en-GB,5,,FHRS,5
57903,,,,,Lill's Rustic Kitchen,Other catering premises,7841,5,,637930,5,,,14/00013/FOODC,211,foodandsafety@harborough.gov.uk,Harborough,http://www.harborough.gov.uk,,,2014-03-05,fhrs_5_en-GB,5,,FHRS,5
57904,13A Linden Drive,Lutterworth,Leics,,Linden Food Stores/ Off Licence,Retailers - other,4613,5,,355196,5,,52.45736300000000,08980/0013/A/000,211,foodandsafety@harborough.gov.uk,Harborough,http://www.harborough.gov.uk,-1.21186300000000,LE17 4SS,2013-11-05,fhrs_5_en-GB,5,,FHRS,5
57905,Mercury News,17 Linden Drive,Lutterworth,Leicestershire,Linden News Ltd,Retailers - other,4613,,,579648,,,52.45736300000000,13/00084/FOODHS,211,foodandsafety@harborough.gov.uk,Harborough,http://www.harborough.gov.uk,-1.21186300000000,LE17 4SS,2013-07-18,fhrs_exempt_en-GB,Exempt,,FHRS,
57906,Coventry Road,Market Harborough,Leicestershire,,Little Acorns Pre School,Hospitals/Childcare/Caring Premises,5,,,723733,,,,14/00058/FOODHS,211,foodandsafety@harborough.gov.uk,Harborough,http://www.harborough.gov.uk,,,2014-11-25,fhrs_exempt_en-GB,Exempt,,FHRS,
57907,2 - 4 Angel Row,Angel Street,Market Harborough,Leicestershire,Little Angels Day Nursery,Hospitals/Childcare/Caring Premises,5,5,,355113,5,,52.47984600000000,07060/2045/2/000,211,foodandsafety@harborough.gov.uk,Harborough,http://www.harborough.gov.uk,-0.92397900000000,LE16 9QG,2014-09-15,fhrs_5_en-GB,5,,FHRS,5
57908,Little India Restaurant,St Peters Road,Arnesby,Leicestershire,Little India,Restaurant/Cafe/Canteen,1,10,,354964,5,,52.52505400000000,04/00172/FOODC,211,foodandsafety@harborough.gov.uk,Harborough,http://www.harborough.gov.uk,-1.09199900000000,LE8 5WJ,2013-12-04,fhrs_4_en-GB,4,,FHRS,5
57909,17 Lutterworth Road,Walcote,Leicestershire,,Little Lodge,Hotel/bed & breakfast/guest house,7842,5,,595979,5,,52.44793000000000,13/00085/FOODC,211,foodandsafety@harborough.gov.uk,Harborough,http://www.harborough.gov.uk,-1.16688900000000,LE17 4JW,2013-09-23,fhrs_5_en-GB,5,,FHRS,5
57910,25 Main Street,Foxton,Leicestershire,,Little Me Nurseries Ltd,Hospitals/Childcare/Caring Premises,5,0,,355284,0,,52.50443500000000,09730/2020/2/000,211,foodandsafety@harborough.gov.uk,Harborough,http://www.harborough.gov.uk,-0.96853600000000,LE16 7RB,2014-01-22,fhrs_5_en-GB,5,,FHRS,5
57911,Village Hall,Main Street,Willoughby Waterleys,Leicestershire,Little Monkeys Playgroup,Hospitals/Childcare/Caring Premises,5,10,,668668,5,,52.52697600000000,14/00011/FOODHS,211,foodandsafety@harborough.gov.uk,Harborough,http://www.harborough.gov.uk,-1.15354400000000,LE8 6UF,2014-05-19,fhrs_4_en-GB,4,,FHRS,5
57912,Lutterworth Grammar School And Comm,Bitteswell Road,Lutterworth,Leicestershire,Little Rainbows Community Pre School,School/college/university,7845,0,,509043,0,,52.46040900000000,11/00040/FOODHS,211,foodandsafety@harborough.gov.uk,Harborough,http://www.harborough.gov.uk,-1.20890900000000,LE17 4EW,2014-12-18,fhrs_5_en-GB,5,,FHRS,0
57913,,,,,Little Robins Cottage,Other catering premises,7841,5,,637928,5,,,14/00008/FOODC,211,foodandsafety@harborough.gov.uk,Harborough,http://www.harborough.gov.uk,,,2014-03-12,fhrs_5_en-GB,5,,FHRS,0
57914,New Horizons Day Care Nursery,Manor Walk,Market Harborough,Leics,Little Stars Pre School Group,Hospitals/Childcare/Caring Premises,5,,,355366,,,52.47729300000000,10370/0000/2/00A,211,foodandsafety@harborough.gov.uk,Harborough,http://www.harborough.gov.uk,-0.92206900000000,LE16 9BP,2013-11-06,fhrs_exempt_en-GB,Exempt,,FHRS,
57915,Lloyds Chemist,9 High Street,Lutterworth,Leics,Lloyds Chemist,Retailers - other,4613,,,355099,,,52.45503400000000,07050/0009/0/000,211,foodandsafety@harborough.gov.uk,Harborough,http://www.harborough.gov.uk,-1.19970500000000,LE17 4AT,2003-02-24,fhrs_exempt_en-GB,Exempt,,FHRS,
57916,Lloyds Chemist,8 Station Street,Kibworth,Leicester,Lloyds Chemist,Retailers - other,4613,,,355494,,,52.53787300000000,14810/0008/0/000,211,foodandsafety@harborough.gov.uk,Harborough,http://www.harborough.gov.uk,-0.99399700000000,LE8 0LN,2013-03-05,fhrs_exempt_en-GB,Exempt,,FHRS,
57917,Lloyds Chemist,2 Church Street,Lutterworth,Leics,Lloyds Chemist Plc,Retailers - other,4613,,,354921,,,52.45567800000000,03100/0002/0/000,211,foodandsafety@harborough.gov.uk,Harborough,http://www.harborough.gov.uk,-1.20065000000000,LE17 4AW,2007-11-16,fhrs_exempt_en-GB,Exempt,,FHRS,
57918,Rear Of Leisure Centre,Northampton Road,Market Harborough,Leicestershire,Lloyds Pharmacy,Retailers - other,4613,,,354982,,,52.46826900000000,05/00037/FOODHS,211,foodandsafety@harborough.gov.uk,Harborough,http://www.harborough.gov.uk,-0.91348600000000,LE16 9HF,2009-05-05,fhrs_exempt_en-GB,Exempt,,FHRS,
57919,SSD Off Licence And General Store,26 New Street,Lutterworth,Leics,Londis Off Licence & General Store,Retailers - other,4613,10,,355422,10,,52.45977800000000,11520/0026/0/000,211,foodandsafety@harborough.gov.uk,Harborough,http://www.harborough.gov.uk,-1.20338700000000,LE17 4PJ,2014-02-20,fhrs_3_en-GB,3,,FHRS,10
57920,Western Avenue Stores,47 Western Avenue,Market Harborough,Leics,Londis Western Avenue Stores,Retailers - other,4613,5,,355534,10,,52.47024900000000,17350/0047/0/000,211,foodandsafety@harborough.gov.uk,Harborough,http://www.harborough.gov.uk,-0.92556800000000,LE16 9PL,2014-02-05,fhrs_4_en-GB,4,,FHRS,5
57921,Long Meadow Farm,Ingarsby Road,Keyham,Leicestershire,Long Meadow Farm LLP,Restaurant/Cafe/Canteen,1,5,,728955,5,,52.65271100000000,14/00095/FOODHS,211,foodandsafety@harborough.gov.uk,Harborough,http://www.harborough.gov.uk,-1.00654500000000,LE7 9JU,2014-11-27,fhrs_5_en-GB,5,,FHRS,5
57922,Longfield Kindergarden,Kilby Road,Fleckney,Leicester,Longfield Kindergarten,Hospitals/Childcare/Caring Premises,5,5,,355173,5,,52.54072900000000,08060/2004/2/000,211,foodandsafety@harborough.gov.uk,Harborough,http://www.harborough.gov.uk,-1.06714000000000,LE8 8BQ,2008-09-09,fhrs_5_en-GB,5,,FHRS,5
57923,,,,,Lorenzo's,Mobile caterer,7846,5,,375207,5,,,12/00053/FOODHS,211,foodandsafety@harborough.gov.uk,Harborough,http://www.harborough.gov.uk,,,2011-11-28,fhrs_5_en-GB,5,,FHRS,5
57924,4 St Marys Road,Market Harborough,Leicestershire,,Louisa's Place,Pub/bar/nightclub,7843,10,,688906,5,,52.47789200000000,14/00046/FOODHS,211,foodandsafety@harborough.gov.uk,Harborough,http://www.harborough.gov.uk,-0.91774000000000,LE16 7DU,2014-07-21,fhrs_4_en-GB,4,,FHRS,5
57925,Lubenham C Of E School,School Lane,Lubenham,Market Harborough,Lubenham C Of E School,School/college/university,7845,5,,355459,5,,52.47783100000000,13460/0000/2/000,211,foodandsafety@harborough.gov.uk,Harborough,http://www.harborough.gov.uk,-0.96111800000000,LE16 9TW,2013-10-07,fhrs_5_en-GB,5,,FHRS,5
57926,Church Hall,Church Road,Kibworth,Leicester,Lunchstop,Restaurant/Cafe/Canteen,1,5,,354909,5,,52.54110300000000,03/00079/FOODC,211,foodandsafety@harborough.gov.uk,Harborough,http://www.harborough.gov.uk,-0.99317100000000,LE8 0NB,2008-10-27,fhrs_5_en-GB,5,,FHRS,5
57927,Lutterworth Chippy,5 Bell Street,Lutterworth,Leics,Lutterworth Chippy,Takeaway/sandwich shop,7844,10,,354864,10,,52.45558700000000,01200/0005/2/001,211,foodandsafety@harborough.gov.uk,Harborough,http://www.harborough.gov.uk,-1.19916500000000,LE17 4DW,2013-08-07,fhrs_3_en-GB,3,,FHRS,5
57928,Lutterworth Club,Lower Leicester Road,Lutterworth,Leics,Lutterworth Club,Pub/bar/nightclub,7843,10,,355253,5,,52.45877900000000,09270/2000/2/000,211,foodandsafety@harborough.gov.uk,Harborough,http://www.harborough.gov.uk,-1.19918100000000,LE17 4NF,2007-05-04,fhrs_4_en-GB,4,,FHRS,5
57929,Lutterworth Grammar School & Commun,Bitteswell Road,Lutterworth,Leics,Lutterworth College,School/college/university,7845,5,,354869,10,,52.46040900000000,01410/2000/2/000,211,foodandsafety@harborough.gov.uk,Harborough,http://www.harborough.gov.uk,-1.20890900000000,LE17 4EW,2013-09-16,fhrs_4_en-GB,4,,FHRS,5
57930,Willowbanks Nursing Home,Ashby Lane,Bitteswell,Leicestershire,Lutterworth Country House,Hospitals/Childcare/Caring Premises,5,10,,579626,5,,52.47727700000000,12/00035/FOODHS,211,foodandsafety@harborough.gov.uk,Harborough,http://www.harborough.gov.uk,-1.21192000000000,LE17 4LS,2014-09-02,fhrs_3_en-GB,3,,FHRS,10
57931,Lutterworth Ford,Leicester Road,Lutterworth,Leics,Lutterworth Ford,Retailers - other,4613,,,355185,,,52.48579600000000,08800/2045/2/000,211,foodandsafety@harborough.gov.uk,Harborough,http://www.harborough.gov.uk,-1.20069300000000,LE17 4LT,2013-07-18,fhrs_exempt_en-GB,Exempt,,FHRS,
57932,Woodway Road,Lutterworth,Leicestershire,,Lutterworth High School,School/college/university,7845,5,,595972,0,,52.45251800000000,13/00060/FOODC,211,foodandsafety@harborough.gov.uk,Harborough,http://www.harborough.gov.uk,-1.20933000000000,LE17 4QH,2013-09-23,fhrs_5_en-GB,5,,FHRS,0
57933,Lutterworth News,Leicester Road,Lutterworth,Leics,Lutterworth News,Retailers - other,4613,5,,355186,5,,52.47284100000000,08800/2046/2/000,211,foodandsafety@harborough.gov.uk,Harborough,http://www.harborough.gov.uk,-1.19933800000000,LE17 4LX,2015-01-26,fhrs_5_en-GB,5,,FHRS,5
57934,Lutterworth RFC,Ashby Lane,Bitteswell,Lutterworth,Lutterworth Rugby Football Club,Other catering premises,7841,10,,354854,5,,52.47101500000000,00390/2033/2/000,211,foodandsafety@harborough.gov.uk,Harborough,http://www.harborough.gov.uk,-1.21132500000000,LE17 4SQ,2013-10-23,fhrs_4_en-GB,4,,FHRS,5
57935,Main Chemist,46 Main Street,Broughton Astley,Leicester,Main Chemist,Retailers - other,4613,,,355265,,,52.53403300000000,09570/0046/0/000,211,foodandsafety@harborough.gov.uk,Harborough,http://www.harborough.gov.uk,-1.22987800000000,LE9 6RD,2008-03-28,fhrs_exempt_en-GB,Exempt,,FHRS,
57936,Majestic Wine,121 St Marys Road,Market Harborough,Leicestershire,Majestic Wine Warehouse,Retailers - other,4613,5,,355238,0,,52.47852500000000,09/00086/FOODHS,211,foodandsafety@harborough.gov.uk,Harborough,http://www.harborough.gov.uk,-0.91423500000000,LE16 7DT,2009-09-14,fhrs_5_en-GB,5,,FHRS,0
57937,Gilmorton Road,Lutterworth,Leicestershire,,Manic Minor,Restaurant/Cafe/Canteen,1,10,,728954,10,,,14/00060/FOODHS,211,foodandsafety@harborough.gov.uk,Harborough,http://www.harborough.gov.uk,,,2014-12-15,fhrs_4_en-GB,4,,FHRS,0
57938,Manor Farm Tearooms,Main Street,Catthorpe,Leicestershire,Manor Farm Shop And Tea Rooms,Restaurant/Cafe/Canteen,1,5,,355274,5,,52.39822600000000,09630/2001/2/000,211,foodandsafety@harborough.gov.uk,Harborough,http://www.harborough.gov.uk,-1.18943100000000,LE17 6DB,2013-12-10,fhrs_5_en-GB,5,,FHRS,5
57939,Marcus Stevens Butchers Shop,Station Road,Ullesthorpe,Lutterworth,Marcus Stevens Butchers Shop,Retailers - other,4613,5,,355492,5,,52.48417900000000,14800/2012/2/000,211,foodandsafety@harborough.gov.uk,Harborough,http://www.harborough.gov.uk,-1.25603300000000,LE17 5BS,2013-11-15,fhrs_5_en-GB,5,,FHRS,5
57940,Market Harborough C Of E Primary Sc,Fairfield Road,Market Harborough,Leicestershire,Market Harborough C E Primary School,School/college/university,7845,0,,354974,0,,52.48203200000000,04740/2005/2/000,211,foodandsafety@harborough.gov.uk,Harborough,http://www.harborough.gov.uk,-0.92813800000000,LE16 9QH,2014-07-07,fhrs_5_en-GB,5,,FHRS,5
57941,Youth Centre,Coventry Road,Market Harborough,Leicestershire,Market Harborough Childrens Centre,Other catering premises,7841,,,355393,,,52.47678200000000,11/00042/FOODHS,211,foodandsafety@harborough.gov.uk,Harborough,http://www.harborough.gov.uk,-0.92524700000000,LE16 9BX,2015-01-19,fhrs_exempt_en-GB,Exempt,,FHRS,
57942,The Conservative Club,6 Fairfield Road,Market Harborough,Leicestershire,Market Harborough Conservative Club Ltd,Pub/bar/nightclub,7843,5,,354973,5,,52.47827800000000,04740/0006/0/000,211,foodandsafety@harborough.gov.uk,Harborough,http://www.harborough.gov.uk,-0.92459200000000,LE16 9QQ,2012-02-27,fhrs_5_en-GB,5,,FHRS,5
57943,Cricket Club,Fairfield Road,Market Harborough,Leics,Market Harborough Cricket Club,Other catering premises,7841,,,354975,,,,04740/2011/2/000,211,foodandsafety@harborough.gov.uk,Harborough,http://www.harborough.gov.uk,,,2009-02-23,fhrs_exempt_en-GB,Exempt,,FHRS,
57944,Youth Centre,Coventry Road,Market Harborough,Leics,Market Harborough Young Peolples Centre,Other catering premises,7841,,,354946,,,52.47709400000000,03550/2002/2/000,211,foodandsafety@harborough.gov.uk,Harborough,http://www.harborough.gov.uk,-0.92485600000000,LE16 9BX,2010-02-01,fhrs_exempt_en-GB,Exempt,,FHRS,
57945,Harborough Market Hall,Northampton Road,Market Harborough,Leicestershire,Market Plaice,Takeaway/sandwich shop,7844,5,,706706,5,,52.47545100000000,14/00061/FOODHS,211,foodandsafety@harborough.gov.uk,Harborough,http://www.harborough.gov.uk,-0.91822700000000,LE16 9HB,2014-08-21,fhrs_5_en-GB,5,,FHRS,5
57946,,,,,Martha Eats Cake,Manufacturers/packers,7839,5,,355341,5,,,10/00062/FOODC,211,foodandsafety@harborough.gov.uk,Harborough,http://www.harborough.gov.uk,,,2010-09-23,fhrs_5_en-GB,5,,FHRS,5
57947,"9 Thornton Crescent,","Church Langton,","Market Harborough,",Leicestershire.,Martines Cakes,Manufacturers/packers,7839,0,,557821,0,,,12/00026/FOODC,211,foodandsafety@harborough.gov.uk,Harborough,http://www.harborough.gov.uk,,,2012-03-22,fhrs_5_en-GB,5,,FHRS,0
57948,23 Abbey Street,Market Harborough,Leicestershire,,May Wah,Restaurant/Cafe/Canteen,1,10,,619760,5,,52.47907000000000,13/00129/FOODHS,211,foodandsafety@harborough.gov.uk,Harborough,http://www.harborough.gov.uk,-0.92367400000000,LE16 9AA,2013-12-03,fhrs_4_en-GB,4,,FHRS,5
57949,McDonalds,Melton Road,West Langton,Market Harborough,McDonalds Restaurant Ltd,Restaurant/Cafe/Canteen,1,0,,355544,0,,52.52050400000000,18140/3006/2/000,211,foodandsafety@harborough.gov.uk,Harborough,http://www.harborough.gov.uk,-0.93849300000000,,2014-09-08,fhrs_5_en-GB,5,,FHRS,5
57950,Meadowdale Primary School,Ryelands Close,Market Harborough,Leics,Meadowdale Primary School,School/college/university,7845,0,,354874,5,,52.48039043676570,02/00021/FOODC,211,foodandsafety@harborough.gov.uk,Harborough,http://www.harborough.gov.uk,-0.89923787055273,,2014-01-13,fhrs_5_en-GB,5,,FHRS,5
57951,Meatcure Restaurant,Edinburgh House,Abbey Street,Market Harborough,Meatcure,Other catering premises,7841,0,,723737,0,,52.47907000000000,14/00098/FOODHS,211,foodandsafety@harborough.gov.uk,Harborough,http://www.harborough.gov.uk,-0.92367400000000,LE16 9AA,2014-11-27,fhrs_5_en-GB,5,,FHRS,0
57952,Medbourne Sports Club,11 Hallaton Road,Medbourne,Market Harborough,Medbourne Sports Club,Other catering premises,7841,5,,355054,5,,52.53026900000000,06250/0011/0/000,211,foodandsafety@harborough.gov.uk,Harborough,http://www.harborough.gov.uk,-0.82526100000000,LE16 8DR,2010-01-28,fhrs_5_en-GB,5,,FHRS,5
57953,Stores & Post Office,3 Springbank,Medbourne,Market Harborough,Medbourne Stores And Post Office,Retailers - other,4613,5,,355470,5,,52.53034800000000,14250/0003/0/000,211,foodandsafety@harborough.gov.uk,Harborough,http://www.harborough.gov.uk,-0.82234000000000,LE16 8EB,2014-12-01,fhrs_5_en-GB,5,,FHRS,5
57954,Mediterranean Deli And Farm Shop,Wistow Rural Centre,Kibworth Road,Wistow,Mediterrenanean Deli And Farm Shop,Retailers - other,4613,5,,375208,5,,52.55652800000000,12/00058/FOODHS,211,foodandsafety@harborough.gov.uk,Harborough,http://www.harborough.gov.uk,-1.05506400000000,LE8 0QF,2013-11-28,fhrs_5_en-GB,5,,FHRS,5
57955,,,,,Melody Cakes,Manufacturers/packers,7839,10,,355338,5,,,10/00055/FOODC,211,foodandsafety@harborough.gov.uk,Harborough,http://www.harborough.gov.uk,,,2010-11-22,fhrs_4_en-GB,4,,FHRS,5
57956,Edinburgh House,Abbey Street,Market Harborough,Leicestershire,Mercado Lounge,Restaurant/Cafe/Canteen,1,0,,595971,0,,,13/00056/FOODHS,211,foodandsafety@harborough.gov.uk,Harborough,http://www.harborough.gov.uk,,,2013-08-01,fhrs_5_en-GB,5,,FHRS,0
57957,3 High Street,Fleckney,Leicester,,Mercury News,Retailers - other,4613,,,355056,,,52.53557900000000,06990/0003/0/000,211,foodandsafety@harborough.gov.uk,Harborough,http://www.harborough.gov.uk,-1.04478100000000,LE8 8AJ,2010-02-05,fhrs_exempt_en-GB,Exempt,,FHRS,
57958,Mercury News,17 Linden Drive,Lutterworth,Leics,Mercury News,Retailers - other,4613,,,355197,,,52.45736300000000,08980/0017/0/000,211,foodandsafety@harborough.gov.uk,Harborough,http://www.harborough.gov.uk,-1.21186300000000,LE17 4SS,2009-02-16,fhrs_exempt_en-GB,Exempt,,FHRS,
57959,Mercury News/Post Office 12/13,Saint Marys Place,Market Harborough,Leics,Mercury News,Retailers - other,4613,,,355478,,,52.47742500000000,14450/2010/2/000,211,foodandsafety@harborough.gov.uk,Harborough,http://www.harborough.gov.uk,-0.91881100000000,LE16 7DR,2013-07-04,fhrs_exempt_en-GB,Exempt,,FHRS,
57960,Mercury News Shop,28 High Street,Kibworth,Leicester,Mercury Newshop,Retailers - other,4613,,,355093,,,52.53677700000000,07040/0028/0/000,211,foodandsafety@harborough.gov.uk,Harborough,http://www.harborough.gov.uk,-0.99726500000000,LE8 0HQ,2010-02-08,fhrs_exempt_en-GB,Exempt,,FHRS,
57961,MH Methodist Youth Centre,Northampton Road,Market Harborough,Leics,Methodist Youth Centre,Other catering premises,7841,,,355435,,,52.47533000000000,11610/2012/2/000,211,foodandsafety@harborough.gov.uk,Harborough,http://www.harborough.gov.uk,-0.91881900000000,LE16 9HE,2009-01-12,fhrs_exempt_en-GB,Exempt,,FHRS,
57962,Coventry Road,Broughton Astley,Leicester,Leics,Mill On The Soar Hotel,Restaurant/Cafe/Canteen,1,5,,354886,5,,52.54008900000000,02/00097/FOODC,211,foodandsafety@harborough.gov.uk,Harborough,http://www.harborough.gov.uk,-1.25194800000000,LE9 6QD,2013-09-03,fhrs_4_en-GB,4,,FHRS,10
57963,31A High Street,Market Harborough,Leicestershire,,Milos Cafe,Restaurant/Cafe/Canteen,1,,,479122,,,,11/00032/FOODHS,211,foodandsafety@harborough.gov.uk,Harborough,http://www.harborough.gov.uk,,,2014-09-08,fhrs_3_en-GB,3,,FHRS,
57964,Unit 6,Three Manors Retail Park,Rockingham Road,Market Harborough,Mini Mischiefs,Restaurant/Cafe/Canteen,1,5,,579641,5,,52.48325800000000,13/00065/FOODHS,211,foodandsafety@harborough.gov.uk,Harborough,http://www.harborough.gov.uk,-0.92648800000000,LE16 7BA,2013-08-06,fhrs_5_en-GB,5,,FHRS,5
57965,Thurnby Stores,8 Cranbrook Road,Thurnby,Leicester,MK's Coffee Shop  & Off License,Retailers - other,4613,10,,355611,10,,52.63759100000000,03620/0008/0/000,211,foodandsafety@harborough.gov.uk,Harborough,http://www.harborough.gov.uk,-1.04377200000000,LE7 9UA,2014-05-14,fhrs_2_en-GB,2,,FHRS,15
57966,Montgomerys News,83 Bath Street,Market Harborough,Leics,Montgomerys News,Retailers - other,4613,5,,354859,5,,52.47113900000000,00990/0083/0/000,211,foodandsafety@harborough.gov.uk,Harborough,http://www.harborough.gov.uk,-0.91764100000000,LE16 9EJ,2011-06-27,fhrs_4_en-GB,4,,FHRS,10
57967,Mistry's Pharmacy,14 High Street,Market Harborough,Leics,Mr S K Mistry,Retailers - other,4613,,,355103,,,52.47850800000000,07060/0014/0/000,211,foodandsafety@harborough.gov.uk,Harborough,http://www.harborough.gov.uk,-0.92227500000000,LE16 7NJ,2008-12-11,fhrs_exempt_en-GB,Exempt,,FHRS,
57968,,,,,Mrs Bees Kitchen,Other catering premises,7841,0,,355149,0,,,08/00060/FOODC,211,foodandsafety@harborough.gov.uk,Harborough,http://www.harborough.gov.uk,,,2014-02-25,fhrs_5_en-GB,5,,FHRS,0
57969,"Mrs Yorks Sweet Stall,Market Hall",Northampton Road,Market Harborough,Leics,Mrs Yorks Sweets,Retailers - other,4613,5,,355434,5,,52.47435400000000,11610/2010/G/000,211,foodandsafety@harborough.gov.uk,Harborough,http://www.harborough.gov.uk,-0.92119800000000,LE16 9DR,2008-12-17,fhrs_5_en-GB,5,,FHRS,5
57970,,,,,My Cake Fairy,Other catering premises,7841,5,,545824,5,,,13/00019/FOODC,211,foodandsafety@harborough.gov.uk,Harborough,http://www.harborough.gov.uk,,,2013-04-29,fhrs_5_en-GB,5,,FHRS,5
57971,,,,,N & S Catering,Other catering premises,7841,10,,355228,0,,,09/00068/FOODC,211,foodandsafety@harborough.gov.uk,Harborough,http://www.harborough.gov.uk,,,2012-09-12,fhrs_4_en-GB,4,,FHRS,0
57972,,,,,N Y Snacks,Mobile caterer,7846,0,,355170,0,,,08/00103/FOODHS,211,foodandsafety@harborough.gov.uk,Harborough,http://www.harborough.gov.uk,,,2013-03-07,fhrs_5_en-GB,5,,FHRS,0
57973,Nags Head,24 Church Street,Market Harborough,Leics,Nags Head,Pub/bar/nightclub,7843,5,,354927,5,,52.47915100000000,03110/0024/2/000,211,foodandsafety@harborough.gov.uk,Harborough,http://www.harborough.gov.uk,-0.92172900000000,LE16 7AA,2008-07-25,fhrs_5_en-GB,5,,FHRS,5
57974,Community Centre,Naseby Square,Market Harborough,Leicestershire,Naseby Square Community Lunch Club,Other catering premises,7841,5,,595973,0,,52.47293600000000,13/00061/FOODHS,211,foodandsafety@harborough.gov.uk,Harborough,http://www.harborough.gov.uk,-0.92248400000000,LE16 9PA,2013-10-22,fhrs_5_en-GB,5,,FHRS,0
57975,Butties,24 Church Street,Lutterworth,Leicestershire,Neil Green Catering,Takeaway/sandwich shop,7844,5,,355047,10,,52.45567800000000,06/00211/FOODHS,211,foodandsafety@harborough.gov.uk,Harborough,http://www.harborough.gov.uk,-1.20065000000000,LE17 4AW,2014-01-14,fhrs_3_en-GB,3,,FHRS,10
57976,13 George Street,Lutterworth,Leicestershire,,Neptune Chippy,Takeaway/sandwich shop,7844,5,,354959,10,,52.45620800000000,04/00082/FOODHS,211,foodandsafety@harborough.gov.uk,Harborough,http://www.harborough.gov.uk,-1.20186200000000,LE17 4EG,2013-12-04,fhrs_4_en-GB,4,,FHRS,5
57977,Nevill Arms,12 Waterfall Way,Medbourne,Leicestershire,Nevill Arms Inn & Restaurant,Pub/bar/nightclub,7843,0,,355200,0,,52.52827400000000,09/00003/FOODC,211,foodandsafety@harborough.gov.uk,Harborough,http://www.harborough.gov.uk,-0.82444500000000,LE16 8EE,2014-10-03,fhrs_5_en-GB,5,,FHRS,0
57978,Nevill Holt Hall,Paddock Lane,Nevill Holt,Leicestershire,Neville Holt Opera,Restaurant/Cafe/Canteen,1,10,,355612,10,,52.53576400000000,04/00185/HS,211,foodandsafety@harborough.gov.uk,Harborough,http://www.harborough.gov.uk,-0.79769200000000,LE16 8EG,2008-07-18,fhrs_3_en-GB,3,,FHRS,10
57979,Greyhound Inn,2 Market Place,Billesdon,Leicester,New Greyhound,Pub/bar/nightclub,7843,10,,355368,10,,52.61820100000000,10480/0002/2/000,211,foodandsafety@harborough.gov.uk,Harborough,http://www.harborough.gov.uk,-0.93945400000000,LE7 9AJ,2013-09-17,fhrs_3_en-GB,3,,FHRS,10
57980,New Horizons Coffee Shop,Manor Walk,Market Harborough,Leics,New Horizons Coffee Shop,Restaurant/Cafe/Canteen,1,0,,355365,0,,52.47724800000000,10370/0000/2/000,211,foodandsafety@harborough.gov.uk,Harborough,http://www.harborough.gov.uk,-0.92202600000000,LE16 9BP,2014-07-28,fhrs_5_en-GB,5,,FHRS,5
57981,3 Saint Catharines Way,Houghton-On-The-Hill,Leicester,,News Centre,Retailers - other,4613,,,355472,,,52.62553300000000,14380/0003/0/000,211,foodandsafety@harborough.gov.uk,Harborough,http://www.harborough.gov.uk,-1.00215200000000,LE7 9HE,2013-08-21,fhrs_exempt_en-GB,Exempt,,FHRS,
57982,@Nissan GB Limited Canteen,Watling Street,Magna Park,Lutterworth,Nissan GB Limited Canteen (Mitie Ltd),Restaurant/Cafe/Canteen,1,5,,355526,0,,52.45139000000000,17080/2005/3/001,211,foodandsafety@harborough.gov.uk,Harborough,http://www.harborough.gov.uk,-1.24724100000000,LE17 4XH,2013-08-15,fhrs_5_en-GB,5,,FHRS,0
57983,North Kilworth Bowling Club,Back Street,North Kilworth,Lutterworth,North Kilworth Bowling Club,Other catering premises,7841,5,,354857,5,,52.44432600000000,00710/2011/2/000,211,foodandsafety@harborough.gov.uk,Harborough,http://www.harborough.gov.uk,-1.09601300000000,LE17 6HG,2009-04-27,fhrs_5_en-GB,5,,FHRS,5
57984,North Kilworth Sports Club,South Kilworth Road,North Kilworth,Lutterworth,North Kilworth Sports Club,Other catering premises,7841,,,355468,,,,14120/2000/2/000,211,foodandsafety@harborough.gov.uk,Harborough,http://www.harborough.gov.uk,,,2007-11-30,fhrs_exempt_en-GB,Exempt,,FHRS,
57985,Nunu Day Nursery,Torch Way,Northampton Road,Market Harborough,Nunu At Market Harborough,Hospitals/Childcare/Caring Premises,5,5,,354962,5,,52.46546000000000,04/00138/FOODC,211,foodandsafety@harborough.gov.uk,Harborough,http://www.harborough.gov.uk,-0.91505700000000,LE16 9HL,2014-09-03,fhrs_5_en-GB,5,,FHRS,5
57986,Swapethorpe House,Rugby Road,Lutterworth,Leicestershire. LE17 4HN,Nurture Me Day Nursery,Hospitals/Childcare/Caring Premises,5,5,,595986,5,,,13/00109/FOODHS,211,foodandsafety@harborough.gov.uk,Harborough,http://www.harborough.gov.uk,,,2014-09-02,fhrs_5_en-GB,5,,FHRS,5
57987,Main Street,Glooston,Leicestershire,,Old Barn Inn,Pub/bar/nightclub,7843,0,,579640,5,,52.55539000000000,13/00064/FOODHS,211,foodandsafety@harborough.gov.uk,Harborough,http://www.harborough.gov.uk,-0.89553800000000,LE16 7ST,2013-07-30,fhrs_5_en-GB,5,,FHRS,5
57988,Old Crown Inn,High Street,Fleckney,Leicester,Old Crown Inn,Pub/bar/nightclub,7843,10,,355059,10,,52.53557900000000,06990/2003/2/000,211,foodandsafety@harborough.gov.uk,Harborough,http://www.harborough.gov.uk,-1.04478100000000,LE8 8AJ,2014-11-06,fhrs_3_en-GB,3,,FHRS,10
57989,Old Mill County Primary School,Station Road,Broughton Astley,Leicester,Old Mill County Primary School,School/college/university,7845,5,,355488,5,,,14690/2004/2/000,211,foodandsafety@harborough.gov.uk,Harborough,http://www.harborough.gov.uk,,,2010-04-15,fhrs_5_en-GB,5,,FHRS,5
57990,Old Red Lion,Main Street,Welham,Market Harborough,Old Red Lion,Pub/bar/nightclub,7843,10,,355362,5,,52.52534100000000,10210/2008/2/000,211,foodandsafety@harborough.gov.uk,Harborough,http://www.harborough.gov.uk,-0.87231000000000,LE16 7UJ,2014-09-17,fhrs_4_en-GB,4,,FHRS,5
57991,Olde Royal Oak,Valley Lane,Bitteswell,Lutterworth,Olde Royal Oak (Ye),Pub/bar/nightclub,7843,10,,355523,10,,52.46627200000000,16770/2017/2/000,211,foodandsafety@harborough.gov.uk,Harborough,http://www.harborough.gov.uk,-1.21183600000000,LE17 4SA,2014-12-15,fhrs_3_en-GB,3,,FHRS,10
57992,Tyco Valves,Crosby Road,Market Harborough,Leicestershire,Olive Catering,Restaurant/Cafe/Canteen,1,5,,354952,10,,52.46909200000000,03750/2000/2/000,211,foodandsafety@harborough.gov.uk,Harborough,http://www.harborough.gov.uk,-0.91794100000000,LE16 9EE,2013-09-05,fhrs_4_en-GB,4,,FHRS,5
57993,Unit 2200,@Toyota GB Limited Canteen,Shackleton Way,Magna Park,Olive Catering,Restaurant/Cafe/Canteen,1,0,,354899,0,,52.45417200000000,03/00006/FOODC,211,foodandsafety@harborough.gov.uk,Harborough,http://www.harborough.gov.uk,-1.24507500000000,LE17 4XP,2014-01-14,fhrs_5_en-GB,5,,FHRS,0
57994,Westfield Lodge,Rugby Road,Swinford,Leicestershire,Olive Catering Services,Restaurant/Cafe/Canteen,1,0,,702472,5,,52.40719300000000,14/00050/FOODHS,211,foodandsafety@harborough.gov.uk,Harborough,http://www.harborough.gov.uk,-1.17175800000000,LE17 6BP,2014-08-19,fhrs_5_en-GB,5,,FHRS,5
57995,Harborough Market Hall,Northampton Road,Market Harborough,Leicestershire,Oori Sushi,Retailers - other,4613,5,,706707,5,,52.47545100000000,14/00064/FOODHS,211,foodandsafety@harborough.gov.uk,Harborough,http://www.harborough.gov.uk,-0.91822700000000,LE16 9HB,2014-08-21,fhrs_5_en-GB,5,,FHRS,5
57996,,,,,Options Catering,Other catering premises,7841,0,,355164,0,,,08/00090/FOODC,211,foodandsafety@harborough.gov.uk,Harborough,http://www.harborough.gov.uk,,,2013-02-22,fhrs_5_en-GB,5,,FHRS,5
57997,Orchard Primary School,Blenheim Crescent,Broughton Astley,Leicester,Orchard Primary School,School/college/university,7845,0,,354871,0,,52.53335200000000,01450/2003/2/000,211,foodandsafety@harborough.gov.uk,Harborough,http://www.harborough.gov.uk,-1.23590500000000,LE9 6QY,2013-10-02,fhrs_5_en-GB,5,,FHRS,0
57998,St Josephs Roman Catholic Primary S,Coventry Road,Market Harborough,Leicestershire,Out Of School Club,Hospitals/Childcare/Caring Premises,5,,,354961,,,52.47737300000000,04/00136/FOODC,211,foodandsafety@harborough.gov.uk,Harborough,http://www.harborough.gov.uk,-0.92499700000000,LE16 9BZ,2007-11-14,fhrs_exempt_en-GB,Exempt,,FHRS,
57999,,,,,Outback Burger,Mobile caterer,7846,0,,524903,5,,,12/00064/FOODHS,211,foodandsafety@harborough.gov.uk,Harborough,http://www.harborough.gov.uk,,,2012-08-21,fhrs_5_en-GB,5,,FHRS,5
58000,Oxfam,5 High Street,Market Harborough,Leics,Oxfam,Retailers - other,4613,,,355102,,,52.47850800000000,07060/0005/0/000,211,foodandsafety@harborough.gov.uk,Harborough,http://www.harborough.gov.uk,-0.92227500000000,LE16 7NJ,2010-02-09,fhrs_exempt_en-GB,Exempt,,FHRS,
58001,8A High Street,Market Harborough,Leicestershire,,Oxfam Bookshop,Retailers - other,4613,,,456762,,,52.47850800000000,12/00085/FOODHS,211,foodandsafety@harborough.gov.uk,Harborough,http://www.harborough.gov.uk,-0.92227500000000,LE16 7NJ,2012-10-08,fhrs_exempt_en-GB,Exempt,,FHRS,
58002,Ullesthorpe Garden And Aquatic Cent,Lutterworth Road,Ullesthorpe,Leicestershire,Palmers At Ullesthorpe Ltd,Restaurant/Cafe/Canteen,1,5,,557818,5,,52.47980900000000,11/00105/FOODHS,211,foodandsafety@harborough.gov.uk,Harborough,http://www.harborough.gov.uk,-1.24323700000000,LE17 5DR,2014-12-05,fhrs_5_en-GB,5,,FHRS,0
58003,19 Linden Drive,Lutterworth,Leics,,Papadoms,Takeaway/sandwich shop,7844,5,,354873,0,,52.45736300000000,019/0/000,211,foodandsafety@harborough.gov.uk,Harborough,http://www.harborough.gov.uk,-1.21186300000000,LE17 4SS,2013-05-30,fhrs_5_en-GB,5,,FHRS,0
58004,Parish Church Hall,Coventry Road,Market Harborough,Leics,Parish Church Hall,Other catering premises,7841,,,354948,,,,03550/2004/2/000,211,foodandsafety@harborough.gov.uk,Harborough,http://www.harborough.gov.uk,,,2005-03-31,fhrs_exempt_en-GB,Exempt,,FHRS,
58005,Trojan Place,Market Harborough,Leicestershire,,Peaker Park Care Village,Hospitals/Childcare/Caring Premises,5,0,,355392,0,,52.48185600000000,11/00041/FOODC,211,foodandsafety@harborough.gov.uk,Harborough,http://www.harborough.gov.uk,-0.89723300000000,LE16 7FP,2014-07-29,fhrs_5_en-GB,5,,FHRS,0
58006,Pear Tree Stores,Main Street,Scraptoft,Leicester,Pear Tree Stores,Retailers - other,4613,10,,355349,5,,52.64573700000000,10010/2010/2/000,211,foodandsafety@harborough.gov.uk,Harborough,http://www.harborough.gov.uk,-1.04612200000000,LE7 9TD,2013-07-17,fhrs_4_en-GB,4,,FHRS,5
58007,Village Hall,Main Street,Peatling Magna,Leicester,Peatling Magna Village Hall,Other catering premises,7841,,,355303,,,52.52872300000000,09970/2027/2/000,211,foodandsafety@harborough.gov.uk,Harborough,http://www.harborough.gov.uk,-1.12672600000000,LE8 5UQ,2007-11-23,fhrs_exempt_en-GB,Exempt,,FHRS,
58008,Peatling Hall,Main Street,Peatling Parva,Lutterworth,Peatling Parva Village Hall,Other catering premises,7841,,,355304,,,52.50158300000000,09980/2010/2/000,211,foodandsafety@harborough.gov.uk,Harborough,http://www.harborough.gov.uk,-1.13305400000000,LE17 5QA,2007-07-16,fhrs_exempt_en-GB,Exempt,,FHRS,
58009,,,,,Perfect Party Cakes,Manufacturers/packers,7839,0,,355340,0,,,10/00059/FOODC,211,foodandsafety@harborough.gov.uk,Harborough,http://www.harborough.gov.uk,,,2015-01-15,fhrs_5_en-GB,5,,FHRS,0
58010,Thimble Hall,Melton Road,Lowesby,Leicestershire,Pescatore Ices,Mobile caterer,7846,0,,595980,0,,52.67210100000000,13/00091/FOODHS,211,foodandsafety@harborough.gov.uk,Harborough,http://www.harborough.gov.uk,-0.93282500000000,LE7 9DH,2013-07-03,fhrs_5_en-GB,5,,FHRS,0
58011,Pig In Muck,Manor Road,Claybrooke Magna,Lutterworth,Pig In Muck,Pub/bar/nightclub,7843,5,,369073,5,,52.49652200000000,10310/2003/2/000,211,foodandsafety@harborough.gov.uk,Harborough,http://www.harborough.gov.uk,-1.28073300000000,LE17 5AY,2013-08-28,fhrs_5_en-GB,5,,FHRS,5
58012,Hill Farm,Rugby Road,Cotesbach,Leicestershire,Pitstop Cafe,Mobile caterer,7846,10,,509044,15,,52.42680300000000,12/00003/FOODHS,211,foodandsafety@harborough.gov.uk,Harborough,http://www.harborough.gov.uk,-1.22380600000000,LE17 4HT,2014-08-19,fhrs_2_en-GB,2,,FHRS,15
58013,Pizza Direct,18 St Marys Road,Market Harborough,Leicestershire,Pizza Direct Company,Takeaway/sandwich shop,7844,10,,355413,15,,52.47789200000000,11/00101/FOODHS,211,foodandsafety@harborough.gov.uk,Harborough,http://www.harborough.gov.uk,-0.91774000000000,LE16 7DU,2014-09-23,fhrs_2_en-GB,2,,FHRS,15
58014,16 St Marys Place,Market Harborough,Leicestershire,,Pizza Express,Restaurant/Cafe/Canteen,1,0,,355329,0,,52.47742500000000,10/00038/FOODHS,211,foodandsafety@harborough.gov.uk,Harborough,http://www.harborough.gov.uk,-0.91881100000000,LE16 7DR,2014-12-16,fhrs_5_en-GB,5,,FHRS,0
58015,Pizzaman And Punta Di Vista,17 Manor Walk,Market Harborough,Leicestershire,Pizzaman & Veneto,Restaurant/Cafe/Canteen,1,10,,354993,5,,52.47724800000000,05/00121/FOODHS,211,foodandsafety@harborough.gov.uk,Harborough,http://www.harborough.gov.uk,-0.92202600000000,LE16 9BP,2014-11-24,fhrs_3_en-GB,3,,FHRS,10
58016,20 Church Street,Lutterworth,Leicestershire,,PJ's,Restaurant/Cafe/Canteen,1,5,,355412,5,,52.45567800000000,11/00092/FOODHS,211,foodandsafety@harborough.gov.uk,Harborough,http://www.harborough.gov.uk,-1.20065000000000,LE17 4AW,2014-12-05,fhrs_5_en-GB,5,,FHRS,0
58017,,,,,Polka-Dot Parties,Other catering premises,7841,5,,355406,0,,,11/00071/FOODC,211,foodandsafety@harborough.gov.uk,Harborough,http://www.harborough.gov.uk,,,2011-09-29,fhrs_5_en-GB,5,,FHRS,0
58018,Broughton Astley Post Office,134 Station Road,Broughton Astley,Leicester,Post Office,Retailers - other,4613,5,,355486,5,,52.52405400000000,14690/0134/2/000,211,foodandsafety@harborough.gov.uk,Harborough,http://www.harborough.gov.uk,-1.21488600000000,LE9 6PW,2013-07-03,fhrs_5_en-GB,5,,FHRS,0
58019,Dunton Bassett Post Office,11 Main Street,Dunton Bassett,Lutterworth,Post Office Counters Ltd,Retailers - other,4613,10,,355277,0,,52.51062800000000,09700/0011/2/000,211,foodandsafety@harborough.gov.uk,Harborough,http://www.harborough.gov.uk,-1.19560200000000,LE17 5JH,2013-07-03,fhrs_4_en-GB,4,,FHRS,0
58020,Great Easton Post Office,6 High Street,Great Easton,Market Harborough,Post Office Counters Ltd,Retailers - other,4613,,,355085,,,52.52918200000000,07000/0006/2/000,211,foodandsafety@harborough.gov.uk,Harborough,http://www.harborough.gov.uk,-0.75156900000000,LE16 8ST,2013-08-22,fhrs_exempt_en-GB,Exempt,,FHRS,
58021,Post Office,2 High Street,Husbands Bosworth,Lutterworth,Post Office Counters Ltd,Retailers - other,4613,,,355090,,,52.45270100000000,07030/0002/2/000,211,foodandsafety@harborough.gov.uk,Harborough,http://www.harborough.gov.uk,-1.05522700000000,LE17 6LH,2012-04-04,fhrs_exempt_en-GB,Exempt,,FHRS,
58022,Community Centre,Naseby Square,Market Harborough,Leicestershire,Progress House After School Club,Hospitals/Childcare/Caring Premises,5,5,,355150,5,,52.47293600000000,08/00062/FOODHS,211,foodandsafety@harborough.gov.uk,Harborough,http://www.harborough.gov.uk,-0.92248400000000,LE16 9PA,2012-02-27,fhrs_5_en-GB,5,,FHRS,0
58023,Progress House Day Nursery,96 Northampton Road,Market Harborough,Leics,Progress House Day Nursery,Hospitals/Childcare/Caring Premises,5,10,,355427,5,,52.46665500000000,11610/0096/0/000,211,foodandsafety@harborough.gov.uk,Harborough,http://www.harborough.gov.uk,-0.91591000000000,LE16 9HF,2014-08-22,fhrs_4_en-GB,4,,FHRS,5
58024,Protheroes Motor Group Ltd,Northampton Road,Market Harborough,Leics,Protheroe Motor Group Ltd,Retailers - other,4613,,,355431,,,52.47261000000000,11610/2003/2/000,211,foodandsafety@harborough.gov.uk,Harborough,http://www.harborough.gov.uk,-0.91626500000000,LE16 9HD,2010-02-10,fhrs_exempt_en-GB,Exempt,,FHRS,
58025,742 Uppingham Road,Thurnby,Leicestershire,,Purple Rocket Nursery,Hospitals/Childcare/Caring Premises,5,0,,354954,0,,52.63149600000000,04/00026/FOODHS,211,foodandsafety@harborough.gov.uk,Harborough,http://www.harborough.gov.uk,-1.04270800000000,LE7 9RN,2014-03-12,fhrs_5_en-GB,5,,FHRS,0
58026,Main Street,Leire,Leicestershire,,Queens Arms,Pub/bar/nightclub,7843,5,,355444,5,,52.50653800000000,12/00036/FOODHS,211,foodandsafety@harborough.gov.uk,Harborough,http://www.harborough.gov.uk,-1.22666000000000,LE17 5HF,2013-10-04,fhrs_5_en-GB,5,,FHRS,5
58027,,,,,Rachels Cakes And Bakes,Other catering premises,7841,0,,509046,0,,,12/00104/FOODC,211,foodandsafety@harborough.gov.uk,Harborough,http://www.harborough.gov.uk,,,2012-12-07,fhrs_5_en-GB,5,,FHRS,0
58028,Railway Arms,6 Station Street,Kibworth,Leicester,Railway Arms,Pub/bar/nightclub,7843,5,,355493,5,,52.53787300000000,14810/0006/2/000,211,foodandsafety@harborough.gov.uk,Harborough,http://www.harborough.gov.uk,-0.99399700000000,LE8 0LN,2014-07-31,fhrs_4_en-GB,4,,FHRS,10
58029,Lutterworth Golf Club,Rugby Road,Lutterworth,Leicestershire,Rebecca Louise Catering,Restaurant/Cafe/Canteen,1,5,,369074,5,,52.44916200000000,12/00025/FOODHS,211,foodandsafety@harborough.gov.uk,Harborough,http://www.harborough.gov.uk,-1.19823700000000,LE17 4HN,2012-05-10,fhrs_5_en-GB,5,,FHRS,5
58030,Red Admiral,163 Station Road,Broughton Astley,Leicester,Red Admiral,Pub/bar/nightclub,7843,10,,355487,5,,52.52578300000000,14690/0163/2/000,211,foodandsafety@harborough.gov.uk,Harborough,http://www.harborough.gov.uk,-1.21663900000000,LE9 6PU,2014-01-23,fhrs_4_en-GB,4,,FHRS,5
58031,Red Arrow,Coventry Road,Lutterworth,Leics,Red Arrow,Pub/bar/nightclub,7843,0,,354934,5,,52.45544400000000,03540/2006/2/000,211,foodandsafety@harborough.gov.uk,Harborough,http://www.harborough.gov.uk,-1.21261800000000,LE17 4QF,2014-08-12,fhrs_5_en-GB,5,,FHRS,5
58032,58 - 60 High Street,Market Harborough,Leicestershire,,Red Cow,Pub/bar/nightclub,7843,10,,355386,5,,52.47963400000000,11/00027/FOODHS,211,foodandsafety@harborough.gov.uk,Harborough,http://www.harborough.gov.uk,-0.92245300000000,LE16 7AF,2011-06-14,fhrs_4_en-GB,4,,FHRS,0
58033,30 Coventry Road,Market Harborough,Leicestershire,,Red Hot Curry Pot,Takeaway/sandwich shop,7844,10,,509047,10,,52.47737300000000,12/00116/FOODHS,211,foodandsafety@harborough.gov.uk,Harborough,http://www.harborough.gov.uk,-0.92499700000000,LE16 9BZ,2014-10-08,fhrs_3_en-GB,3,,FHRS,10
58034,The Ridgeway Primary School,The Ridgeway,Market Harborough,Leicestershire,Ridgeway Primary Academy,School/college/university,7845,5,,479124,0,,52.48638600000000,12/00077/FOODC,211,foodandsafety@harborough.gov.uk,Harborough,http://www.harborough.gov.uk,-0.91265700000000,LE16 7HQ,2014-06-02,fhrs_5_en-GB,5,,FHRS,5
58035,Butchers,Astley Court,Main Street,Broughton Astley,Ringrose Butchers,Retailers - other,4613,5,,355271,0,,52.53331300000000,09570/2005/2/000,211,foodandsafety@harborough.gov.uk,Harborough,http://www.harborough.gov.uk,-1.22978700000000,LE9 6RE,2014-09-10,fhrs_5_en-GB,5,,FHRS,5
58036,Rio Bravo Mexican Restaurant,53 The Square,Market Harborough,Leics,Rio Bravo,Other catering premises,7841,10,,355514,10,,52.47790700000000,16100/0053/3/001,211,foodandsafety@harborough.gov.uk,Harborough,http://www.harborough.gov.uk,-0.92039000000000,LE16 7PA,2013-04-15,fhrs_3_en-GB,3,,FHRS,5
58037,,,,,Roaming Giraffe Ltd,Mobile caterer,7846,0,,545823,0,,,13/00015/FOODC,211,foodandsafety@harborough.gov.uk,Harborough,http://www.harborough.gov.uk,,,2013-05-07,fhrs_5_en-GB,5,,FHRS,0
58038,35 High Street,Market Harborough,Leicestershire,,Rocksalt Bistro Ltd,Restaurant/Cafe/Canteen,1,5,,728957,5,,52.48002200000000,14/00103/FOODHS,211,foodandsafety@harborough.gov.uk,Harborough,http://www.harborough.gov.uk,-0.92359200000000,LE16 7NL,2014-12-12,fhrs_5_en-GB,5,,FHRS,5
58039,Roman Way Day Centre,36 Roman Way,Market Harborough,Leics,Roman Way Day Centre,Hospitals/Childcare/Caring Premises,5,5,,355456,5,,52.48028300000000,13080/0036/0/000,211,foodandsafety@harborough.gov.uk,Harborough,http://www.harborough.gov.uk,-0.91971300000000,LE16 7PQ,2014-08-12,fhrs_5_en-GB,5,,FHRS,5
58040,Main Street,Tilton On The Hill,Leicestershire.,,Rose And Crown,Pub/bar/nightclub,7843,10,,355377,5,,52.64203000000000,11/00009/FOODHS,211,foodandsafety@harborough.gov.uk,Harborough,http://www.harborough.gov.uk,-0.90247600000000,LE7 9LF,2012-09-18,fhrs_4_en-GB,4,,FHRS,5
58041,Rose And Crown,69 Uppingham Road,Houghton-On-The-Hill,Leicester,Rose And Crown,Pub/bar/nightclub,7843,5,,355520,5,,52.62752000000000,16680/0069/2/000,211,foodandsafety@harborough.gov.uk,Harborough,http://www.harborough.gov.uk,-0.99888700000000,LE7 9HJ,2014-12-05,fhrs_4_en-GB,4,,FHRS,10
58042,Market Hall,Northampton Road,Market Harborough,Leicestershire,Routs The Fishmongers,Retailers - other,4613,0,,668671,0,,52.47666600000000,14/00036/FOODHS,211,foodandsafety@harborough.gov.uk,Harborough,http://www.harborough.gov.uk,-0.91933100000000,LE16 9HB,2014-04-15,fhrs_5_en-GB,5,,FHRS,5
58043,Market Harborough Delivery Office,Rockingham Road,Market Harborough,Leics,Royal Mail Sorting Office,Restaurant/Cafe/Canteen,1,,,355453,,,52.48369500000000,13010/2003/2/000,211,foodandsafety@harborough.gov.uk,Harborough,http://www.harborough.gov.uk,-0.90553700000000,LE16 7PP,2010-11-26,fhrs_exempt_en-GB,Exempt,,FHRS,
58044,Royal Oak,19 High Street,Great Glen,Leicester,Royal Oak,Pub/bar/nightclub,7843,5,,355088,5,,52.57549400000000,07010/0019/2/000,211,foodandsafety@harborough.gov.uk,Harborough,http://www.harborough.gov.uk,-1.03576800000000,LE8 9FJ,2010-03-25,fhrs_4_en-GB,4,,FHRS,10
58045,94 Main Street,Foxton,Leicestershire,,Rural Trading Partnership,Retailers - other,4613,5,,355318,5,,52.50157000000000,10/00019/FOODHS,211,foodandsafety@harborough.gov.uk,Harborough,http://www.harborough.gov.uk,-0.97199100000000,LE16 7RD,2013-10-03,fhrs_5_en-GB,5,,FHRS,5
58046,J Sainsbury Plc,20 Saint Marys Place,Market Harborough,Leics,Sainsbury's Supermarket And Warehouse,Retailers - supermarkets/hypermarkets,7840,0,,355477,0,,52.47742500000000,14450/2008/2/000,211,foodandsafety@harborough.gov.uk,Harborough,http://www.harborough.gov.uk,-0.91881100000000,LE16 7DR,2014-10-09,fhrs_5_en-GB,5,,FHRS,0
58047,24 Horsefair Close,Market Harborough,Leicestershire,,Sally Weston,Hospitals/Childcare/Caring Premises,5,,,355204,,,52.48153200000000,09/00008/FOODC,211,foodandsafety@harborough.gov.uk,Harborough,http://www.harborough.gov.uk,-0.93053500000000,LE16 9QP,2009-03-09,fhrs_exempt_en-GB,Exempt,,FHRS,
58048,,,,,Sammys Srumptious Cookies,Other catering premises,7841,5,,355320,5,,,10/00023/FOODC,211,foodandsafety@harborough.gov.uk,Harborough,http://www.harborough.gov.uk,,,2010-03-18,fhrs_5_en-GB,5,,FHRS,0
58049,,,,,Saporito Fine Foods,Manufacturers/packers,7839,5,,718009,5,,,14/00045/FOODC,211,foodandsafety@harborough.gov.uk,Harborough,http://www.harborough.gov.uk,,,2014-05-27,fhrs_5_en-GB,5,,FHRS,5
58050,,,,,Sarah Rose Cakes,Other catering premises,7841,5,,355128,5,,,08/00005/FOODC,211,foodandsafety@harborough.gov.uk,Harborough,http://www.harborough.gov.uk,,,2008-03-13,fhrs_5_en-GB,5,,FHRS,5
58051,,,,,Sarah's Cake Kitchen,Other catering premises,7841,5,,619758,0,,,13/00120/FOODC,211,foodandsafety@harborough.gov.uk,Harborough,http://www.harborough.gov.uk,,,2013-12-17,fhrs_5_en-GB,5,,FHRS,0
58052,,,,,Sarah's Cakes,Other catering premises,7841,0,,668665,0,,,13/00101/FOODC,211,foodandsafety@harborough.gov.uk,Harborough,http://www.harborough.gov.uk,,,2014-03-09,fhrs_5_en-GB,5,,FHRS,0
58053,Savers,19 High Street,Market Harborough,Leics,Savers Plc,Retailers - other,4613,,,355106,,,52.47850800000000,07060/0019/0/000,211,foodandsafety@harborough.gov.uk,Harborough,http://www.harborough.gov.uk,-0.92227500000000,LE16 7NJ,2004-05-05,fhrs_exempt_en-GB,Exempt,,FHRS,
58054,Fox Inn,34 Rugby Road,Lutterworth,Leicestershire,Sawasdee Thai Restaurant,Restaurant/Cafe/Canteen,1,10,,718006,5,,52.45317800000000,13/00076/FOODHS,211,foodandsafety@harborough.gov.uk,Harborough,http://www.harborough.gov.uk,-1.20044500000000,LE17 4BN,2014-02-17,fhrs_4_en-GB,4,,FHRS,5
58055,Scraptoft Golf Club,Beeby Road,Scraptoft,Leicester,Scraptoft Golf Club,Restaurant/Cafe/Canteen,1,5,,354862,5,,52.65287600000000,01070/2004/2/000,211,foodandsafety@harborough.gov.uk,Harborough,http://www.harborough.gov.uk,-1.03517600000000,LE7 9SJ,2011-09-28,fhrs_5_en-GB,5,,FHRS,5
58056,Seldom Seen Farm,Green Lane,Billesdon,Leicester,Seldom Seen Farm,Restaurant/Cafe/Canteen,1,5,,355048,5,,52.63070500000000,06010/0000/2/000,211,foodandsafety@harborough.gov.uk,Harborough,http://www.harborough.gov.uk,-0.92932600000000,LE7 9FA,2009-10-07,fhrs_5_en-GB,5,,FHRS,5
58057,Self Unlimited East Midlands Region,Melton Road,Shangton,Leicestershire,Self Unlimited,Other catering premises,7841,0,,355372,0,,52.56186700000000,10750/2001/2/000,211,foodandsafety@harborough.gov.uk,Harborough,http://www.harborough.gov.uk,-0.93823100000000,LE8 0PS,2014-03-19,fhrs_5_en-GB,5,,FHRS,0
58058,@Semelab Limited,Coventry Road,Lutterworth,Leics,Semelab Limited,Restaurant/Cafe/Canteen,1,5,,354933,5,,52.45230100000000,03540/2000/2/000,211,foodandsafety@harborough.gov.uk,Harborough,http://www.harborough.gov.uk,-1.24070700000000,LE17 4JB,2014-01-08,fhrs_5_en-GB,5,,FHRS,0
58059,Canteen,Asda IDC,Hunter Boulevard,Magna Park,Servest,Restaurant/Cafe/Canteen,1,0,,355311,0,,52.46256900000000,10/00008/FOODC,211,foodandsafety@harborough.gov.uk,Harborough,http://www.harborough.gov.uk,-1.24797800000000,LE17 4XN,2014-11-04,fhrs_5_en-GB,5,,FHRS,0
58060,Shagorika Tandoori,16 Saint Marys Road,Market Harborough,Leics,Shagorika,Restaurant/Cafe/Canteen,1,5,,355479,5,,52.47789200000000,14470/0016/0/000,211,foodandsafety@harborough.gov.uk,Harborough,http://www.harborough.gov.uk,-0.91774000000000,LE16 7DU,2014-09-24,fhrs_5_en-GB,5,,FHRS,0
58061,The Chef,2 Lathkill Street,Market Harborough,Leicestershire,Shanghai Way,Takeaway/sandwich shop,7844,10,,355032,10,,52.47049500000000,06/00084/FOODHS,211,foodandsafety@harborough.gov.uk,Harborough,http://www.harborough.gov.uk,-0.91899600000000,LE16 9EY,2013-06-20,fhrs_2_en-GB,2,,FHRS,15
58062,Bruntingthorpe Road,Shearsby,Leicestershire,,Shearsby Bath,Restaurant/Cafe/Canteen,1,10,,354889,5,,52.50379000000000,02020/2001/2/000,211,foodandsafety@harborough.gov.uk,Harborough,http://www.harborough.gov.uk,-1.09055100000000,LE17 6PP,2014-02-06,fhrs_4_en-GB,4,,FHRS,5
58063,Mallards,Saddington Road,Shearsby,Leicestershire,Shearsby Valley Lakes,Restaurant/Cafe/Canteen,1,0,,355214,0,,52.51205600000000,09/00038/FOODHS,211,foodandsafety@harborough.gov.uk,Harborough,http://www.harborough.gov.uk,-1.07138700000000,LE17 6PX,2013-04-22,fhrs_5_en-GB,5,,FHRS,0
58064,Sherrier C Of E Primary School,Bitteswell Road,Lutterworth,Leics,Sherrier C Of E Primary School,School/college/university,7845,0,,354870,0,,52.45968100000000,01410/2010/2/000,211,foodandsafety@harborough.gov.uk,Harborough,http://www.harborough.gov.uk,-1.20494900000000,LE17 4EX,2015-01-26,fhrs_5_en-GB,5,,FHRS,0
58065,1 Devitt Way,Broughton Astley,Leicester,,Shivik Chippy,Takeaway/sandwich shop,7844,10,,354968,10,,52.52259000000000,04070/0001/0/000,211,foodandsafety@harborough.gov.uk,Harborough,http://www.harborough.gov.uk,-1.22058600000000,LE9 6NQ,2014-02-04,fhrs_3_en-GB,3,,FHRS,5
58066,,,,,Shortland And Sweet,Other catering premises,7841,0,,354958,0,,,04/00072/FOODC,211,foodandsafety@harborough.gov.uk,Harborough,http://www.harborough.gov.uk,,,2013-08-16,fhrs_5_en-GB,5,,FHRS,0
58067,Shoulder Of Mutton,60 Main Street,Foxton,Market Harborough,Shoulder Of Mutton,Pub/bar/nightclub,7843,10,,355283,5,,52.50443500000000,09730/0060/2/000,211,foodandsafety@harborough.gov.uk,Harborough,http://www.harborough.gov.uk,-0.96853600000000,LE16 7RB,2014-01-28,fhrs_3_en-GB,3,,FHRS,10
58068,,,,,Simply Cupcakes,Other catering premises,7841,5,,355385,0,,,11/00024/FOODC,211,foodandsafety@harborough.gov.uk,Harborough,http://www.harborough.gov.uk,,,2011-06-16,fhrs_5_en-GB,5,,FHRS,0
58069,23 Adam And Eve Street,Market Harborough,Leicestershire,,Simply Simons,Restaurant/Cafe/Canteen,1,10,,433543,10,,52.47825500000000,11/00036/FOODHS,211,foodandsafety@harborough.gov.uk,Harborough,http://www.harborough.gov.uk,-0.92016000000000,LE16 7LT,2014-12-02,fhrs_3_en-GB,3,,FHRS,5
58070,Pegasus Service Station,117 Coventry Road,Market Harborough,Leics,Spar,Retailers - other,4613,0,,354885,0,,52.47678200000000,02/00086/FOODC,211,foodandsafety@harborough.gov.uk,Harborough,http://www.harborough.gov.uk,-0.92524700000000,LE16 9BX,2013-08-02,fhrs_5_en-GB,5,,FHRS,0
58071,Kibworth Off Licence,31 Fleckney Road,Kibworth,Leicester,Spar Foodmarkets Ltd,Retailers - other,4613,5,,354997,5,,52.53667400000000,05110/0031/0/000,211,foodandsafety@harborough.gov.uk,Harborough,http://www.harborough.gov.uk,-1.00207400000000,LE8 0HF,2009-11-02,fhrs_5_en-GB,5,,FHRS,5
58072,,,,,Special Treats,Other catering premises,7841,5,,355074,5,,,07/00150/FOODC,211,foodandsafety@harborough.gov.uk,Harborough,http://www.harborough.gov.uk,,,2013-11-14,fhrs_5_en-GB,5,,FHRS,5
58073,St Marys Filling Station,Market Street,Lutterworth,Leicestershire,SPG Filling Station Ltd,Retailers - other,4613,0,,579643,0,,,13/00070/FOODC,211,foodandsafety@harborough.gov.uk,Harborough,http://www.harborough.gov.uk,,LE17 4NE,2013-07-18,fhrs_5_en-GB,5,,FHRS,0
58074,23 Leicester Road,Kibworth Harcourt,Leicestershire,,Spice Of India,Restaurant/Cafe/Canteen,1,10,,632275,10,,52.54271200000000,14/00016/FOODHS,211,foodandsafety@harborough.gov.uk,Harborough,http://www.harborough.gov.uk,-0.99631900000000,LE8 0NN,2014-02-04,fhrs_3_en-GB,3,,FHRS,10
58075,Spices,"@ New Greyhound,","Billesdon,",Leicestershire.,Spices @ New Greyhound,Takeaway/sandwich shop,7844,5,,595983,5,,52.61820100000000,13/00098/FOODHS,211,foodandsafety@harborough.gov.uk,Harborough,http://www.harborough.gov.uk,-0.93945400000000,LE7 9AJ,2014-09-30,fhrs_4_en-GB,4,,FHRS,10
58076,Square Bar,53 The Square,Market Harborough,Leics,Square Cafe Bar,Restaurant/Cafe/Canteen,1,10,,355513,10,,52.47790700000000,16100/0053/0/000,211,foodandsafety@harborough.gov.uk,Harborough,http://www.harborough.gov.uk,-0.92039000000000,LE16 7PA,2014-07-09,fhrs_3_en-GB,3,,FHRS,10
58077,St Andrews C Of E Primary School,Dag Lane,North Kilworth,Lutterworth,St Andrews C Of E School,School/college/university,7845,0,,718004,0,,52.44302600000000,03840/2005/2/000,211,foodandsafety@harborough.gov.uk,Harborough,http://www.harborough.gov.uk,-1.09656900000000,LE17 6HD,2014-11-11,fhrs_5_en-GB,5,,FHRS,0
58078,St Andrews C Of E Primary School,Dag Lane,North Kilworth,Leicestershire,St Andrews Childcare,Hospitals/Childcare/Caring Premises,5,0,,355312,0,,52.44302600000000,10/00011/FOODC,211,foodandsafety@harborough.gov.uk,Harborough,http://www.harborough.gov.uk,-1.09656900000000,LE17 6HD,2014-11-11,fhrs_5_en-GB,5,,FHRS,0
58079,St Cuthberts C Of E School,The Chase,Great Glen,Leicester,St Cuthberts C Of E School,School/college/university,7845,0,,355501,0,,52.57880400000000,15460/0000/2/000,211,foodandsafety@harborough.gov.uk,Harborough,http://www.harborough.gov.uk,-1.02604400000000,LE8 9EQ,2014-03-24,fhrs_5_en-GB,5,,FHRS,5
58080,St Johns Ambulance Station,15 Abbey Street,Market Harborough,Leics,St Johns Ambulance Station,Other catering premises,7841,,,354847,,,52.47907000000000,00010/2001/2/000,211,foodandsafety@harborough.gov.uk,Harborough,http://www.harborough.gov.uk,-0.92367400000000,LE16 9AA,2005-10-31,fhrs_exempt_en-GB,Exempt,,FHRS,
58081,St Josephs Roman Catholic Primary S,Coventry Road,Market Harborough,Leics,St Josephs RC Primary School,School/college/university,7845,0,,354945,0,,52.47737300000000,03550/2001/2/000,211,foodandsafety@harborough.gov.uk,Harborough,http://www.harborough.gov.uk,-0.92499700000000,LE16 9BZ,2014-11-26,fhrs_5_en-GB,5,,FHRS,0
58082,St Lukes C Of E School,Main Street,Thurnby,Leicester,St Lukes C Of E School,School/college/university,7845,5,,355357,5,,52.62866900000000,10160/2041/2/000,211,foodandsafety@harborough.gov.uk,Harborough,http://www.harborough.gov.uk,-1.04219400000000,LE7 9PN,2011-12-01,fhrs_5_en-GB,5,,FHRS,0
58083,St Lukes Hospital,33 Leicester Road,Market Harborough,Leics,St Lukes Hospital,Hospitals/Childcare/Caring Premises,5,0,,355188,0,,52.48721900000000,08810/0033/0/000,211,foodandsafety@harborough.gov.uk,Harborough,http://www.harborough.gov.uk,-0.93111900000000,LE16 7BN,2014-06-24,fhrs_5_en-GB,5,,FHRS,0
58084,St Marys C Of E Primary School,The Green,Bitteswell,Leicestershire,St Marys C Of E (Aided) Primary School,School/college/university,7845,0,,355134,5,,52.68526077270508,08/00018/FOODC,211,foodandsafety@harborough.gov.uk,Harborough,http://www.harborough.gov.uk,-1.13088500499725,LE17 4SB,2013-07-12,fhrs_5_en-GB,5,,FHRS,5
58085,Saint Marys Fish Bar 72/74,Saint Marys Road,Market Harborough,Leics,St Marys Fish Bar,Takeaway/sandwich shop,7844,10,,355482,10,,52.47789200000000,14470/0074/2/000,211,foodandsafety@harborough.gov.uk,Harborough,http://www.harborough.gov.uk,-0.91774000000000,LE16 7DU,2013-12-03,fhrs_3_en-GB,3,,FHRS,10
58086,St Marys Montessori Day Nursery,Coventry Road,Lutterworth,Leics,St Marys Montessori,Hospitals/Childcare/Caring Premises,5,5,,354935,0,,,03540/2010/2/000,211,foodandsafety@harborough.gov.uk,Harborough,http://www.harborough.gov.uk,,,2013-08-07,fhrs_5_en-GB,5,,FHRS,5
58087,,,,,St Valentines Liquorice,Retailers - other,4613,0,,728953,0,,,14/00031/FOODC,211,foodandsafety@harborough.gov.uk,Harborough,http://www.harborough.gov.uk,,,2014-12-04,fhrs_5_en-GB,5,,FHRS,5
58088,Staff Of Life,Main Street,Mowsley,Lutterworth,Staff Of Life,Pub/bar/nightclub,7843,5,,355300,5,,52.49475300000000,09940/2008/2/000,211,foodandsafety@harborough.gov.uk,Harborough,http://www.harborough.gov.uk,-1.04906800000000,LE17 6NT,2013-12-03,fhrs_5_en-GB,5,,FHRS,5
58089,1 - 7 St Marys Road,Market Harborough,Leicestershire,,Starbucks Coffee Company,Restaurant/Cafe/Canteen,1,0,,355069,5,,52.47800478000000,07/00131/FOODHS,211,foodandsafety@harborough.gov.uk,Harborough,http://www.harborough.gov.uk,-0.91945655000000,,2013-06-24,fhrs_5_en-GB,5,,FHRS,0
58090,Stoneygate Rugby Football Club,Covert Lane,Scraptoft,Leicester,Stoneygate Football Club,Other catering premises,7841,5,,354949,5,,52.64600300000000,03600/2005/2/000,211,foodandsafety@harborough.gov.uk,Harborough,http://www.harborough.gov.uk,-1.03025700000000,LE7 9SP,2009-01-30,fhrs_5_en-GB,5,,FHRS,5
58091,6 London Road,Great Glen,Leicester,Leics,Stoneygate School,School/college/university,7845,5,,354881,0,,52.56757500000000,02/00073/FOODC,211,foodandsafety@harborough.gov.uk,Harborough,http://www.harborough.gov.uk,-1.02161500000000,LE8 9DJ,2013-11-21,fhrs_5_en-GB,5,,FHRS,5
58092,Leicester Airport,Gartree Road,Stoughton,Leicestershire,Stretton 2000 Limited,Restaurant/Cafe/Canteen,1,,,355006,,,52.60446300000000,05450/2009/2/000,211,foodandsafety@harborough.gov.uk,Harborough,http://www.harborough.gov.uk,-1.04827400000000,LE2 2FG,2013-07-19,fhrs_exempt_en-GB,Exempt,,FHRS,
58093,Stuart Court,High Street,Kibworth,Leicester,Stuart Court,Hospitals/Childcare/Caring Premises,5,5,,355098,0,,52.53740300000000,07040/4127/3/000,211,foodandsafety@harborough.gov.uk,Harborough,http://www.harborough.gov.uk,-0.99369800000000,LE8 0LR,2014-11-17,fhrs_5_en-GB,5,,FHRS,0
58094,69 High Street,Market Harborough,Leicestershire,,Subway,Takeaway/sandwich shop,7844,5,,728962,0,,52.47957900000000,14/00136/FOODHS,211,foodandsafety@harborough.gov.uk,Harborough,http://www.harborough.gov.uk,-0.92236600000000,LE16 7AF,2014-03-20,fhrs_5_en-GB,5,,FHRS,5
58095,9 High Street,Lutterworth,Leicestershire,,Subway,Restaurant/Cafe/Canteen,1,5,,579625,0,,52.45503400000000,12/00005/FOODHS,211,foodandsafety@harborough.gov.uk,Harborough,http://www.harborough.gov.uk,-1.19970500000000,LE17 4AT,2015-01-22,fhrs_5_en-GB,5,,FHRS,0
58096,Market Hall,Northampton Road,Market Harborough,Leicestershire,Sues's Cheese Stall,Retailers - other,4613,5,,718011,5,,52.47666600000000,14/00094/FOODHS,211,foodandsafety@harborough.gov.uk,Harborough,http://www.harborough.gov.uk,-0.91933100000000,LE16 9HB,2014-04-17,fhrs_5_en-GB,5,,FHRS,5
58097,Sunargow Tandoori  Restaurant (Upst,44B Main Street,Broughton Astley,Leicester,Sunargow Tandoori Restaurant,Restaurant/Cafe/Canteen,1,10,,702475,10,,52.53331300000000,14/00088/FOODHS,211,foodandsafety@harborough.gov.uk,Harborough,http://www.harborough.gov.uk,-1.22978700000000,LE9 6RE,2014-09-10,fhrs_3_en-GB,3,,FHRS,10
58098,Sunnybrae Service Station,67 Uppingham Road,Houghton-On-The-Hill,Leicester,Sunnybrae Service Station,Retailers - other,4613,5,,355519,5,,52.62752000000000,16680/0067/0/000,211,foodandsafety@harborough.gov.uk,Harborough,http://www.harborough.gov.uk,-0.99888700000000,LE7 9HJ,2012-02-28,fhrs_5_en-GB,5,,FHRS,5
58099,Sunnydale,Smeeton Road,Saddington,Leicestershire,Sunnydale Farm,Hotel/bed & breakfast/guest house,7842,5,,355398,0,,52.52209900000000,11/00050/FOODC,211,foodandsafety@harborough.gov.uk,Harborough,http://www.harborough.gov.uk,-1.02884600000000,LE8 0QT,2013-09-11,fhrs_5_en-GB,5,,FHRS,0
58100,Superdrug Stores,43-51 The Square,Market Harborough,Leics,Superdrug Stores Plc,Retailers - other,4613,,,355516,,,52.47790700000000,16100/4351/0/000,211,foodandsafety@harborough.gov.uk,Harborough,http://www.harborough.gov.uk,-0.92039000000000,LE16 7PA,2002-01-24,fhrs_exempt_en-GB,Exempt,,FHRS,
58101,Field No. 3928,Leicester Road,Broughton Astley,Leicester,Sutton Circuit,Restaurant/Cafe/Canteen,1,5,,354898,5,,52.54333100000000,03/00004/FOODC,211,foodandsafety@harborough.gov.uk,Harborough,http://www.harborough.gov.uk,-1.24030200000000,,2007-11-16,fhrs_5_en-GB,5,,FHRS,5
58102,Sutton In The Elms Private Nursing,34 Sutton Lane,Sutton In The Elms,Broughton Astley,Sutton In The Elms Private Care Home,Hospitals/Childcare/Caring Premises,5,0,,355180,0,,52.54050500000000,08740/0126/2/000,211,foodandsafety@harborough.gov.uk,Harborough,http://www.harborough.gov.uk,-1.23678300000000,LE9 6QF,2014-04-08,fhrs_5_en-GB,5,,FHRS,0
58103,Swallow Cottage,22 Coventry Road,Market Harborough,Leics,Swallow Cottage,Takeaway/sandwich shop,7844,5,,354940,5,,52.47737300000000,03550/0022/0/000,211,foodandsafety@harborough.gov.uk,Harborough,http://www.harborough.gov.uk,-0.92499700000000,LE16 9BZ,2014-06-11,fhrs_5_en-GB,5,,FHRS,5
58104,,,,,Sweethart Cakes,Other catering premises,7841,5,,355394,5,,,11/00046/FOODC,211,foodandsafety@harborough.gov.uk,Harborough,http://www.harborough.gov.uk,,,2014-12-30,fhrs_5_en-GB,5,,FHRS,5
58105,@Street Record,Allexton Road,Stockerston,Oakham,Sweethedges Farm Tea Shop,Restaurant/Cafe/Canteen,1,5,,355540,5,,,18119/0000/0/000,211,foodandsafety@harborough.gov.uk,Harborough,http://www.harborough.gov.uk,,,2014-10-02,fhrs_5_en-GB,5,,FHRS,5
58106,Swinford C Of E Primary School,School Lane,Swinford,Lutterworth,Swinford C Of E Primary School,School/college/university,7845,0,,355460,0,,52.41116400000000,13500/2003/2/000,211,foodandsafety@harborough.gov.uk,Harborough,http://www.harborough.gov.uk,-1.16364200000000,LE17 6BG,2013-07-10,fhrs_5_en-GB,5,,FHRS,0
58107,Swinford Village Hall,Chapel Street,Swinford,Lutterworth,Swinford Play Group,Other catering premises,7841,,,354877,,,52.41018400000000,02/00036/HS,211,foodandsafety@harborough.gov.uk,Harborough,http://www.harborough.gov.uk,-1.16499800000000,LE17 6AZ,2006-02-08,fhrs_exempt_en-GB,Exempt,,FHRS,
58108,,,,,Sylvias,Other catering premises,7841,5,,433545,5,,,12/00062/FOODC,211,foodandsafety@harborough.gov.uk,Harborough,http://www.harborough.gov.uk,,,2014-09-30,fhrs_5_en-GB,5,,FHRS,5
58109,126 - 128 Northampton Road,Market Harborough,Leicestershire,,T M L Care Solutions Ltd,Hospitals/Childcare/Caring Premises,5,5,,355428,5,,52.46826900000000,11610/0126/0/000,211,foodandsafety@harborough.gov.uk,Harborough,http://www.harborough.gov.uk,-0.91348600000000,LE16 9HF,2012-11-27,fhrs_5_en-GB,5,,FHRS,5
58110,,,,,Taste Creations Of Harborough,Other catering premises,7841,5,,637927,5,,,13/00128/FOODC,211,foodandsafety@harborough.gov.uk,Harborough,http://www.harborough.gov.uk,,,2014-03-18,fhrs_5_en-GB,5,,FHRS,5
58111,Tasty Kitchen,22 London Road,Great Glen,Leicester,Tasty Kitchen,Takeaway/sandwich shop,7844,0,,355251,0,,52.57084400000000,09180/0022/0/000,211,foodandsafety@harborough.gov.uk,Harborough,http://www.harborough.gov.uk,-1.03328800000000,LE8 9GF,2013-03-13,fhrs_5_en-GB,5,,FHRS,5
58112,11A Main Street,Broughton Astley,Leicestershire,,Teapots Nursery Academy,Hospitals/Childcare/Caring Premises,5,5,,355445,0,,52.53331300000000,12/00037/FOODHS,211,foodandsafety@harborough.gov.uk,Harborough,http://www.harborough.gov.uk,-1.22978700000000,LE9 6RE,2014-08-27,fhrs_5_en-GB,5,,FHRS,5
58113,Unit A,Development 1 Peaker Park,Rockingham Road,Market Harborough,Tesco Stores,Retailers - other,4613,5,,355326,5,,,10/00035/FOODC,211,foodandsafety@harborough.gov.uk,Harborough,http://www.harborough.gov.uk,,,2010-09-17,fhrs_5_en-GB,5,,FHRS,0
58114,Tesco,21 The Square,Market Harborough,Leics,Tesco Stores Limited,Retailers - supermarkets/hypermarkets,7840,0,,355512,0,,52.47790700000000,16100/0021/0/000,211,foodandsafety@harborough.gov.uk,Harborough,http://www.harborough.gov.uk,-0.92039000000000,LE16 7PA,2013-08-01,fhrs_5_en-GB,5,,FHRS,0
58115,49 Nelson Street,Market Harborough,Leicestershire,,The Admiral Nelson,Pub/bar/nightclub,7843,5,,355421,5,,52.47777500000000,11340/0049/2/000,211,foodandsafety@harborough.gov.uk,Harborough,http://www.harborough.gov.uk,-0.92759300000000,LE16 9AX,2013-11-05,fhrs_4_en-GB,4,,FHRS,10
58116,Angel Hotel 37/38,High Street,Market Harborough,Leics,The Angel Hotel,Hotel/bed & breakfast/guest house,7842,5,,355109,5,,52.47963400000000,07060/0037/2/000,211,foodandsafety@harborough.gov.uk,Harborough,http://www.harborough.gov.uk,-0.92245300000000,LE16 7AF,2014-03-18,fhrs_5_en-GB,5,,FHRS,5
58117,373 Scraptoft Lane,Scraptoft,Leicestershire,,The Apple Tree School,Hospitals/Childcare/Caring Premises,5,0,,355234,0,,52.64353000000000,09/00078/FOODHS,211,foodandsafety@harborough.gov.uk,Harborough,http://www.harborough.gov.uk,-1.04903700000000,LE7 9SE,2014-06-25,fhrs_5_en-GB,5,,FHRS,0
58118,,,,,The Artisan Food Services,Manufacturers/packers,7839,5,,688904,5,,,14/00034/FOODC,211,foodandsafety@harborough.gov.uk,Harborough,http://www.harborough.gov.uk,,,2014-06-24,fhrs_5_en-GB,5,,FHRS,5
58119,Peatling Lodge Farm,Bruntingthorpe Road,Peatling Parva,Leicestershire,The Bait Box,Restaurant/Cafe/Canteen,1,0,,433544,0,,52.49925800000000,11/00107/FOODC,211,foodandsafety@harborough.gov.uk,Harborough,http://www.harborough.gov.uk,-1.12741300000000,LE17 5RB,2013-09-11,fhrs_5_en-GB,5,,FHRS,0
58120,Bell Inn,2 Kilworth Road,Husbands Bosworth,Lutterworth,The Bell Inn,Pub/bar/nightclub,7843,,,355174,,,52.45203000000000,08100/0002/2/000,211,foodandsafety@harborough.gov.uk,Harborough,http://www.harborough.gov.uk,-1.05799300000000,LE17 6JZ,2014-06-10,fhrs_5_en-GB,5,,FHRS,
58121,Bell Inn,Main Street,Gumley,Leicestershire,The Bell Inn,Restaurant/Cafe/Canteen,1,10,,688900,10,,52.50381100000000,14/00005/FOODHS,211,foodandsafety@harborough.gov.uk,Harborough,http://www.harborough.gov.uk,-0.99635100000000,LE16 7RU,2014-03-12,fhrs_3_en-GB,3,,FHRS,10
58122,The Bell,Main Street,East Langton,Leicestershire,The Bell Inn,Pub/bar/nightclub,7843,5,,355219,10,,52.52710800000000,09/00044/FOODHS,211,foodandsafety@harborough.gov.uk,Harborough,http://www.harborough.gov.uk,-0.92993000000000,LE16 7TW,2014-02-17,fhrs_4_en-GB,4,,FHRS,5
58123,The Bell Inn,Main Street,Burton Overy,Leicester,The Bell Inn,Pub/bar/nightclub,7843,5,,355273,5,,52.57550700000000,09590/2006/2/000,211,foodandsafety@harborough.gov.uk,Harborough,http://www.harborough.gov.uk,-1.00154700000000,LE8 9DL,2014-09-10,fhrs_5_en-GB,5,,FHRS,0
58124,The Black Horse Inn,94 Main Street,Foxton,Leicestershire,The Black Horse,Pub/bar/nightclub,7843,5,,713246,5,,52.50157000000000,14/00075/FOODHS,211,foodandsafety@harborough.gov.uk,Harborough,http://www.harborough.gov.uk,-0.97199100000000,LE16 7RD,2014-10-30,fhrs_5_en-GB,5,,FHRS,5
58125,,,,,The Bowden Cake Company,Other catering premises,7841,0,,449509,0,,,12/00010/FOODC,211,foodandsafety@harborough.gov.uk,Harborough,http://www.harborough.gov.uk,,,2012-09-26,fhrs_5_en-GB,5,,FHRS,0
58126,Witham Villa Riding Centre,Cosby Road,Broughton Astley,Leicestershire,The Cafe,Restaurant/Cafe/Canteen,1,5,,355379,5,,52.53208800000000,11/00013/FOODHS,211,foodandsafety@harborough.gov.uk,Harborough,http://www.harborough.gov.uk,-1.22528300000000,LE9 6PA,2012-10-09,fhrs_5_en-GB,5,,FHRS,5
58127,Main Street,Caldecott,Leicestershire,,The Castle Inn,Pub/bar/nightclub,7843,10,,355390,10,,52.52945500000000,11/00035/FOODHS,211,foodandsafety@harborough.gov.uk,Harborough,http://www.harborough.gov.uk,-0.72484900000000,LE16 8RT,2014-06-25,fhrs_3_en-GB,3,,FHRS,5
58128,Country Properties,55 High Street,Husbands Bosworth,Leicestershire,The Catering Corner,Restaurant/Cafe/Canteen,1,10,,688901,10,,52.45290800000000,14/00014/FOODHS,211,foodandsafety@harborough.gov.uk,Harborough,http://www.harborough.gov.uk,-1.05526700000000,LE17 6LJ,2014-07-08,fhrs_3_en-GB,3,,FHRS,10
58129,Church Walk,Market Harborough,Leicestershire,,The Cherry Tree,Pub/bar/nightclub,7843,5,,355221,5,,52.47527800000000,09/00047/FOODHS,211,foodandsafety@harborough.gov.uk,Harborough,http://www.harborough.gov.uk,-0.91212100000000,LE16 8AE,2014-11-04,fhrs_5_en-GB,5,,FHRS,5
58130,The Chestnuts,St Peters Road,Arnesby,Leicestershire,The Chestnuts (Arnesby) Ltd,Hospitals/Childcare/Caring Premises,5,5,,355023,0,,52.52505400000000,06/00012/FOODHS,211,foodandsafety@harborough.gov.uk,Harborough,http://www.harborough.gov.uk,-1.09199900000000,LE8 5WJ,2013-10-15,fhrs_5_en-GB,5,,FHRS,0
58131,14A Saxon Close,Market Harborough,Leicestershire,,The Community Lounge,Hospitals/Childcare/Caring Premises,5,,,355031,,,52.48105100000000,06/00081/FOODC,211,foodandsafety@harborough.gov.uk,Harborough,http://www.harborough.gov.uk,-0.91716200000000,LE16 7PR,2007-12-10,fhrs_exempt_en-GB,Exempt,,FHRS,
58132,Gordon Davies Chemist,7 - 9 Coventry Road,Market Harborough,Leicestershire,The Co-operative Pharmacy,Retailers - other,4613,,,723739,,,52.47709400000000,14/00110/FOODHS,211,foodandsafety@harborough.gov.uk,Harborough,http://www.harborough.gov.uk,-0.92485600000000,LE16 9BX,2014-12-10,fhrs_exempt_en-GB,Exempt,,FHRS,
58133,51 Caxton Street,Market Harborough,Leicestershire,,The Crafty Baker,Other catering premises,7841,0,,355437,0,,52.47054200000000,12/00004/FOODC,211,foodandsafety@harborough.gov.uk,Harborough,http://www.harborough.gov.uk,-0.91721400000000,LE16 9EP,2012-02-16,fhrs_5_en-GB,5,,FHRS,0
58134,,,,,The Creative Cake Company,Other catering premises,7841,10,,355250,5,,,09/00112/FOODC,211,foodandsafety@harborough.gov.uk,Harborough,http://www.harborough.gov.uk,,,2009-12-16,fhrs_4_en-GB,4,,FHRS,5
58135,Crown Inn,Lutterworth Road,Gilmorton,Leicestershire,The Crown Inn,Pub/bar/nightclub,7843,10,,595982,10,,52.48514700000000,13/00095/FOODHS,211,foodandsafety@harborough.gov.uk,Harborough,http://www.harborough.gov.uk,-1.15771900000000,LE17 5NY,2013-09-03,fhrs_3_en-GB,3,,FHRS,10
58136,Main Street,Tur Langton,Leicestershire,,The Crown Inn,Pub/bar/nightclub,7843,10,,557825,5,,52.54433800000000,13/00035/FOODHS,211,foodandsafety@harborough.gov.uk,Harborough,http://www.harborough.gov.uk,-0.95155700000000,LE8 0PJ,2014-11-28,fhrs_4_en-GB,4,,FHRS,5
58137,8 Leicester Road,Fleckney,Leicestershire,,The Crown Of India,Restaurant/Cafe/Canteen,1,10,,355375,10,,52.68526077270508,11/00006/FOODHS,211,foodandsafety@harborough.gov.uk,Harborough,http://www.harborough.gov.uk,-1.13088500499725,LE8 0BF,2014-01-28,fhrs_3_en-GB,3,,FHRS,10
58138,The Cube,Symingtons Recreation Ground,St Marys Road,Market Harborough,The Cube Youth And Community Centre,Restaurant/Cafe/Canteen,1,,,713249,,,52.47816800000000,14/00091/FOODHS,211,foodandsafety@harborough.gov.uk,Harborough,http://www.harborough.gov.uk,-0.91844000000000,LE16 7DS,2014-10-13,fhrs_exempt_en-GB,Exempt,,FHRS,
58139,The Elms P H,St Johns Business Park,Rugby Road,Lutterworth,The Elms,Pub/bar/nightclub,7843,0,,354988,0,,52.45109400000000,05/00096/FOODHS,211,foodandsafety@harborough.gov.uk,Harborough,http://www.harborough.gov.uk,-1.19668600000000,LE17 4HB,2013-12-04,fhrs_5_en-GB,5,,FHRS,5
58140,North End,Hallaton,Leicestershire,,The Fox Inn,Pub/bar/nightclub,7843,10,,545825,10,,52.56287200000000,13/00021/FOODHS,211,foodandsafety@harborough.gov.uk,Harborough,http://www.harborough.gov.uk,-0.83657600000000,LE16 8UJ,2014-12-01,fhrs_3_en-GB,3,,FHRS,10
58141,,,,,The Fresh Local Produce Company,Manufacturers/packers,7839,0,,355443,0,,,12/00030/FOODC,211,foodandsafety@harborough.gov.uk,Harborough,http://www.harborough.gov.uk,,,2012-04-03,fhrs_5_en-GB,5,,FHRS,0
58142,The Gables Residential Home,29 Leicester Road,Market Harborough,Leics,The Gables Care Home (Market Harborough) Ltd,Hospitals/Childcare/Caring Premises,5,5,,355187,5,,52.48478300000000,08810/0029/2/000,211,foodandsafety@harborough.gov.uk,Harborough,http://www.harborough.gov.uk,-0.92914600000000,LE16 7AX,2014-07-21,fhrs_4_en-GB,4,,FHRS,10
58143,General Elliot,Main Street,Willoughby Waterleys,Leicester,The General Elliott,Pub/bar/nightclub,7843,5,,355364,5,,52.52697600000000,10220/2020/2/000,211,foodandsafety@harborough.gov.uk,Harborough,http://www.harborough.gov.uk,-1.15354400000000,LE8 6UF,2007-03-22,fhrs_5_en-GB,5,,FHRS,5
58144,The Golden Shield,46 Main Street,Fleckney,Leicester,The Golden Shield,Pub/bar/nightclub,7843,10,,355281,5,,52.53419600000000,09720/0046/0/000,211,foodandsafety@harborough.gov.uk,Harborough,http://www.harborough.gov.uk,-1.04831900000000,LE8 8AN,2013-07-17,fhrs_4_en-GB,4,,FHRS,5
58145,Walton Road,Kimcote,Leicestershire,,The Grange,Hotel/bed & breakfast/guest house,7842,5,,355027,5,,52.47364400000000,06/00045/FOODHS,211,foodandsafety@harborough.gov.uk,Harborough,http://www.harborough.gov.uk,-1.13952100000000,LE17 5RU,2009-04-14,fhrs_5_en-GB,5,,FHRS,5
58146,Grange Nursing Home,Smeeton Road,Saddington,Leicestershire,The Grange Nursing And Residential Home,Hospitals/Childcare/Caring Premises,5,10,,688910,5,,52.52209900000000,14/00081/FOODC,211,foodandsafety@harborough.gov.uk,Harborough,http://www.harborough.gov.uk,-1.02884600000000,LE8 0QT,2014-07-14,fhrs_4_en-GB,4,,FHRS,5
58147,27 Linden Drive,Lutterworth,Leicestershire,,The Great Wall House,Takeaway/sandwich shop,7844,0,,355414,5,,52.45736300000000,11/00104/FOODHS,211,foodandsafety@harborough.gov.uk,Harborough,http://www.harborough.gov.uk,-1.21186300000000,LE17 4SS,2013-05-30,fhrs_5_en-GB,5,,FHRS,0
58148,Lutterworth Road,Gilmorton,Leicestershire,,The Grey Goose,Restaurant/Cafe/Canteen,1,10,,355232,10,,52.48344900000000,09/00073/FOODHS,211,foodandsafety@harborough.gov.uk,Harborough,http://www.harborough.gov.uk,-1.15904700000000,LE17 5PN,2014-07-03,fhrs_3_en-GB,3,,FHRS,10
58149,The Greyhound,9 Market Street,Lutterworth,Leics,The Greyhound,Pub/bar/nightclub,7843,10,,355370,10,,52.45601500000000,10490/0009/2/000,211,foodandsafety@harborough.gov.uk,Harborough,http://www.harborough.gov.uk,-1.19986400000000,LE17 4EJ,2013-08-30,fhrs_3_en-GB,3,,FHRS,5
58150,39 High Street,Kibworth Beauchamp,Leicestershire,,The Kibworth Deli,Retailers - other,4613,0,,728959,0,,52.53703800000000,14/00133/FOODHS,211,foodandsafety@harborough.gov.uk,Harborough,http://www.harborough.gov.uk,-0.99730400000000,LE8 0HS,2014-12-11,fhrs_5_en-GB,5,,FHRS,0
58151,The Kings Head,23 Main Street,Smeeton Westerby,Leicester,The Kings Head,Pub/bar/nightclub,7843,10,,355352,5,,52.52907600000000,10070/0023/2/000,211,foodandsafety@harborough.gov.uk,Harborough,http://www.harborough.gov.uk,-0.99974000000000,LE8 0QJ,2014-06-17,fhrs_3_en-GB,3,,FHRS,10
58152,Kitchen Range Cookshop,22 Church Street,Market Harborough,Leicestershire,The Kitchen Range Cookshop,Restaurant/Cafe/Canteen,1,5,,456761,5,,52.47915100000000,12/00081/FOODHS,211,foodandsafety@harborough.gov.uk,Harborough,http://www.harborough.gov.uk,-0.92172900000000,LE16 7AA,2012-10-01,fhrs_4_en-GB,4,,FHRS,10
58153,Glenn Stewart Nursery,Melton Road,East Langton,Leicestershire,The Langton Stone Company,Restaurant/Cafe/Canteen,1,10,,355387,10,,52.51805100000000,11/00028/FOODHS,211,foodandsafety@harborough.gov.uk,Harborough,http://www.harborough.gov.uk,-0.93952300000000,LE16 7TG,2014-05-13,fhrs_3_en-GB,3,,FHRS,5
58154,9 Station Street,Kibworth,Leicester,,The Lighthouse,Restaurant/Cafe/Canteen,1,0,,369076,0,,52.53787300000000,14810/0009/0/000,211,foodandsafety@harborough.gov.uk,Harborough,http://www.harborough.gov.uk,-0.99399700000000,LE8 0LN,2014-03-11,fhrs_5_en-GB,5,,FHRS,5
58155,The Lodge,Grange Lane,Thurnby,Leicester,The Lodge,Hospitals/Childcare/Caring Premises,5,0,,355017,0,,52.62911200000000,05880/2002/2/000,211,foodandsafety@harborough.gov.uk,Harborough,http://www.harborough.gov.uk,-1.04923200000000,LE7 9PH,2010-12-16,fhrs_5_en-GB,5,,FHRS,0
58156,The Man At Arms,The Green,Bitteswell,Lutterworth,The Man At Arms,Pub/bar/nightclub,7843,5,,355503,5,,52.46772400000000,15670/2018/2/000,211,foodandsafety@harborough.gov.uk,Harborough,http://www.harborough.gov.uk,-1.21245800000000,LE17 4SB,2014-05-20,fhrs_5_en-GB,5,,FHRS,5
58157,Market Hall,Northampton Road,Market Harborough,Leicestershire,The Market Place Cafe,Restaurant/Cafe/Canteen,1,5,,557827,5,,52.47666600000000,13/00037/FOODHS,211,foodandsafety@harborough.gov.uk,Harborough,http://www.harborough.gov.uk,-0.91933100000000,LE16 9HB,2014-12-11,fhrs_5_en-GB,5,,FHRS,0
58158,14 Juniper Close,Lutterworth,Leicestershire,,The Neon Pig,Mobile caterer,7846,0,,619755,0,,52.46146100000000,13/00099/FOODHS,211,foodandsafety@harborough.gov.uk,Harborough,http://www.harborough.gov.uk,-1.21299700000000,LE17 4US,2013-10-31,fhrs_5_en-GB,5,,FHRS,5
58159,The New Sunargow,14 Station Road,Lutterworth,Leics,The New Sunargow,Other catering premises,7841,10,,355491,10,,52.45562300000000,14760/0014/0/000,211,foodandsafety@harborough.gov.uk,Harborough,http://www.harborough.gov.uk,-1.19776600000000,LE17 4AP,2014-05-20,fhrs_3_en-GB,3,,FHRS,10
58160,31 Kettering Road,Market Harborough,Leicestershire,,The Oat Hill,Pub/bar/nightclub,7843,10,,355073,10,,52.47657400000000,07/00149/FOODHS,211,foodandsafety@harborough.gov.uk,Harborough,http://www.harborough.gov.uk,-0.91029300000000,LE16 8AN,2014-10-15,fhrs_3_en-GB,3,,FHRS,5
58161,Greyhound Inn,14 London Road,Great Glen,Leicestershire,The Old Greyhound Inn,Restaurant/Cafe/Canteen,1,10,,375201,10,,52.57084400000000,11/00060/FOODHS,211,foodandsafety@harborough.gov.uk,Harborough,http://www.harborough.gov.uk,-1.03328800000000,LE8 9GF,2013-08-21,fhrs_3_en-GB,3,,FHRS,10
58162,Noseley Hall,The Avenue,Noseley,Leicestershire,The Olive Grove Cookery School,Other catering premises,7841,0,,444883,0,,52.58422100000000,12/00023/FOODC,211,foodandsafety@harborough.gov.uk,Harborough,http://www.harborough.gov.uk,-0.91509400000000,,2012-08-23,fhrs_5_en-GB,5,,FHRS,0
58163,,,,,The Part-time Baker,Manufacturers/packers,7839,0,,579636,5,,,13/00055/FOODC,211,foodandsafety@harborough.gov.uk,Harborough,http://www.harborough.gov.uk,,,2013-07-23,fhrs_5_en-GB,5,,FHRS,5
58164,The Plough Inn,Main Street,Bruntingthorpe,Lutterworth,The Plough Inn,Pub/bar/nightclub,7843,5,,355625,5,,52.50293600000000,09580/2024/2/000,211,foodandsafety@harborough.gov.uk,Harborough,http://www.harborough.gov.uk,-1.11300600000000,LE17 5QE,2012-12-06,fhrs_5_en-GB,5,,FHRS,5
58165,Main Street,Saddington,Leicestershire,,The Queens Head,Restaurant/Cafe/Canteen,1,5,,557824,5,,52.52209900000000,13/00023/FOODHS,211,foodandsafety@harborough.gov.uk,Harborough,http://www.harborough.gov.uk,-1.02884600000000,LE8 0QT,2014-11-17,fhrs_5_en-GB,5,,FHRS,5
58166,Queens Head,20 Church Street,Billesdon,Leicester,The Queens Head,Pub/bar/nightclub,7843,5,,354920,5,,52.61684300000000,03080/0020/2/000,211,foodandsafety@harborough.gov.uk,Harborough,http://www.harborough.gov.uk,-0.93839300000000,LE7 9AE,2014-05-14,fhrs_5_en-GB,5,,FHRS,5
58167,Main Street,Gilmorton,Leicestershire,,The Red Lion,Pub/bar/nightclub,7843,10,,718013,5,,52.48698600000000,14/00113/FOODHS,211,foodandsafety@harborough.gov.uk,Harborough,http://www.harborough.gov.uk,-1.16088000000000,LE17 5LT,2014-07-29,fhrs_4_en-GB,4,,FHRS,5
58168,Red Lion,5 Main Street,Great Bowden,Leicestershire,The Red Lion,Restaurant/Cafe/Canteen,1,10,,619759,5,,52.49237500000000,13/00125/FOODHS,211,foodandsafety@harborough.gov.uk,Harborough,http://www.harborough.gov.uk,-0.90599900000000,LE16 7HB,2013-11-26,fhrs_4_en-GB,4,,FHRS,5
58169,Robert Smyth Upper School,75 Burnmill Road,Market Harborough,Leicestershire,The Robert Smyth Academy,School/college/university,7845,0,,354890,0,,52.48666900000000,02110/0081/2/000,211,foodandsafety@harborough.gov.uk,Harborough,http://www.harborough.gov.uk,-0.92195700000000,LE16 7JG,2013-02-05,fhrs_5_en-GB,5,,FHRS,5
58170,Trimbush Way,Market Harborough,Leicestershire,,The Roebuck,Restaurant/Cafe/Canteen,1,5,,433546,0,,52.48338600000000,12/00066/FOODHS,211,foodandsafety@harborough.gov.uk,Harborough,http://www.harborough.gov.uk,-0.89835800000000,LE16 7XY,2014-01-29,fhrs_5_en-GB,5,,FHRS,5
58171,Royal Hotel,Coventry Road,Broughton Astley,Leicester,The Royal,Pub/bar/nightclub,7843,5,,354932,5,,52.53583200000000,03520/2007/2/000,211,foodandsafety@harborough.gov.uk,Harborough,http://www.harborough.gov.uk,-1.23429900000000,LE9 6QB,2008-08-22,fhrs_5_en-GB,5,,FHRS,5
58172,The Royal Bengal (Tandoori) Restaur,46 Saint Marys Road,Market Harborough,Leics,The Royal Bengal,Restaurant/Cafe/Canteen,1,10,,355481,5,,52.47789200000000,14470/0046/2/000,211,foodandsafety@harborough.gov.uk,Harborough,http://www.harborough.gov.uk,-0.91774000000000,LE16 7DU,2014-08-06,fhrs_3_en-GB,3,,FHRS,10
58173,29 Western Avenue,Market Harborough,Leicestershire,,The Royalist,Pub/bar/nightclub,7843,10,,355044,10,,52.47024900000000,06/00199/FOODHS,211,foodandsafety@harborough.gov.uk,Harborough,http://www.harborough.gov.uk,-0.92556800000000,LE16 9PL,2014-03-18,fhrs_3_en-GB,3,,FHRS,10
58174,125 St Marys Road,Market Harborough,Leicestershire,,The Sandwich Shop,Takeaway/sandwich shop,7844,0,,637926,0,,52.47852500000000,13/00114/FOODHS,211,foodandsafety@harborough.gov.uk,Harborough,http://www.harborough.gov.uk,-0.91423500000000,LE16 7DT,2014-03-06,fhrs_5_en-GB,5,,FHRS,5
58175,Settling Rooms,Springfield Street,Market Harborough,Leics,The Settling Rooms Coffee Bar,Restaurant/Cafe/Canteen,1,,,355471,,,52.47548400000000,14320/2000/2/000,211,foodandsafety@harborough.gov.uk,Harborough,http://www.harborough.gov.uk,-0.91597300000000,LE16 8BD,2005-03-23,fhrs_exempt_en-GB,Exempt,,FHRS,
58176,The Shambles Public House,10 Bell Street,Lutterworth,Leics,The Shambles Public House,Pub/bar/nightclub,7843,5,,354865,5,,52.45558700000000,01200/0010/2/000,211,foodandsafety@harborough.gov.uk,Harborough,http://www.harborough.gov.uk,-1.19916500000000,LE17 4DW,2012-04-27,fhrs_5_en-GB,5,,FHRS,5
58177,The Shires Inn,Main Street,Peatling Parva,Lutterworth,The Shires,Pub/bar/nightclub,7843,10,,355305,5,,52.49936800000000,09980/2036/2/000,211,foodandsafety@harborough.gov.uk,Harborough,http://www.harborough.gov.uk,-1.13377500000000,LE17 5PU,2012-09-25,fhrs_3_en-GB,3,,FHRS,10
58178,The Stableyard,Main Street,Cotesbach,Leicestershire,The Stables,Restaurant/Cafe/Canteen,1,5,,688899,5,,52.43671000000000,14/00002/FOODHS,211,foodandsafety@harborough.gov.uk,Harborough,http://www.harborough.gov.uk,-1.21017200000000,LE17 4HX,2014-07-15,fhrs_4_en-GB,4,,FHRS,10
58179,The Sugar Loaf,18 High Street,Market Harborough,Leics,The Sugar Loaf,Pub/bar/nightclub,7843,0,,355105,5,,52.47850800000000,07060/0018/0/000,211,foodandsafety@harborough.gov.uk,Harborough,http://www.harborough.gov.uk,-0.92227500000000,LE16 7NJ,2014-11-20,fhrs_5_en-GB,5,,FHRS,5
58180,21 Adam And Eve Street,Market Harborough,Leicestershire,,The Sugar Shack,Retailers - other,4613,5,,355346,0,,52.47825500000000,10/00073/FOODHS,211,foodandsafety@harborough.gov.uk,Harborough,http://www.harborough.gov.uk,-0.92016000000000,LE16 7LT,2011-11-25,fhrs_5_en-GB,5,,FHRS,0
58181,6 Cross Bank,Great Easton,Leicestershire,,The Sun Inn,Restaurant/Cafe/Canteen,1,10,,713247,10,,52.52804000000000,14/00086/FOODHS,211,foodandsafety@harborough.gov.uk,Harborough,http://www.harborough.gov.uk,-0.74902100000000,LE16 8SR,2014-10-21,fhrs_3_en-GB,3,,FHRS,5
58182,5 High Street,Kibworth Beauchamp,Leicestershire,,The Swan,Pub/bar/nightclub,7843,10,,632276,5,,52.53740300000000,14/00017/FOODHS,211,foodandsafety@harborough.gov.uk,Harborough,http://www.harborough.gov.uk,-0.99369800000000,LE8 0LR,2014-02-05,fhrs_3_en-GB,3,,FHRS,10
58183,,,,,The Sweetie Lady,Retailers - other,4613,,,433542,,,,08/00031/FOODC,211,foodandsafety@harborough.gov.uk,Harborough,http://www.harborough.gov.uk,,,2012-07-12,fhrs_exempt_en-GB,Exempt,,FHRS,
58184,The Three Swans,21 High Street,Market Harborough,Leics,The Three Swans Hotel Ltd,Restaurant/Cafe/Canteen,1,5,,355107,5,,52.47850800000000,07060/0021/2/000,211,foodandsafety@harborough.gov.uk,Harborough,http://www.harborough.gov.uk,-0.92227500000000,LE16 7NJ,2014-11-21,fhrs_5_en-GB,5,,FHRS,0
58185,,,,,The Vegan Cakery,Manufacturers/packers,7839,0,,369075,0,,,12/00046/FOODC,211,foodandsafety@harborough.gov.uk,Harborough,http://www.harborough.gov.uk,,,2012-05-16,fhrs_5_en-GB,5,,FHRS,0
58186,101 St Marys Road,Market Harborough,Leicestershire,,The Village Inn,Pub/bar/nightclub,7843,10,,668672,10,,52.47852500000000,14/00052/FOODHS,211,foodandsafety@harborough.gov.uk,Harborough,http://www.harborough.gov.uk,-0.91423500000000,LE16 7DT,2014-05-28,fhrs_3_en-GB,3,,FHRS,5
58187,45 High Street,Kibworth Beauchamp,Leicestershire,,The Well,Restaurant/Cafe/Canteen,1,10,,355231,5,,52.53703800000000,09/00072/FOODHS,211,foodandsafety@harborough.gov.uk,Harborough,http://www.harborough.gov.uk,-0.99730400000000,LE8 0HS,2013-11-13,fhrs_4_en-GB,4,,FHRS,5
58188,Wharf House Hotel,Welford Road,Northampton,Northamptonshire,The Wharf Inn,Pub/bar/nightclub,7843,10,,688908,10,,52.42264500000000,14/00068/FOODHS,211,foodandsafety@harborough.gov.uk,Harborough,http://www.harborough.gov.uk,-1.05403100000000,NN6 6JQ,2014-07-14,fhrs_3_en-GB,3,,FHRS,10
58189,375 Scraptoft Lane,Scraptoft,Leicestershire,,The White House,Pub/bar/nightclub,7843,0,,355383,0,,52.64353000000000,11/00021/FOODHS,211,foodandsafety@harborough.gov.uk,Harborough,http://www.harborough.gov.uk,-1.04903700000000,LE7 9SE,2013-05-31,fhrs_5_en-GB,5,,FHRS,0
58190,The Willows Nursing Home,Coventry Road,Market Harborough,Leics,The Willows Nursing And Residential Home,Hospitals/Childcare/Caring Premises,5,5,,354944,5,,52.47709400000000,03550/2000/2/000,211,foodandsafety@harborough.gov.uk,Harborough,http://www.harborough.gov.uk,-0.92485600000000,LE16 9BX,2014-07-07,fhrs_5_en-GB,5,,FHRS,5
58191,Masonic Hall,George Street,Lutterworth,Leics,The Wycliff Rooms,Pub/bar/nightclub,7843,,,355010,,,52.45752800000000,05530/2000/2/000,211,foodandsafety@harborough.gov.uk,Harborough,http://www.harborough.gov.uk,-1.20033700000000,LE17 4ED,2009-03-30,fhrs_exempt_en-GB,Exempt,,FHRS,
58192,Station Road,Broughton Astley,Leicester,Leics,Thomas Estley Community College,School/college/university,7845,5,,354880,0,,52.52897800000000,02/00071/FOODC,211,foodandsafety@harborough.gov.uk,Harborough,http://www.harborough.gov.uk,-1.22264000000000,LE9 6PT,2014-11-11,fhrs_5_en-GB,5,,FHRS,0
58193,Three Cottages,Loddington Road,Tilton On The Hill,Leicestershire,Three Cottages Bed And Breakfast,Hotel/bed & breakfast/guest house,7842,5,,595968,0,,52.63547600000000,13/00011/FOODHS,211,foodandsafety@harborough.gov.uk,Harborough,http://www.harborough.gov.uk,-0.89757200000000,LE7 9DE,2013-09-30,fhrs_5_en-GB,5,,FHRS,5
58194,Thurnby Memorial Hall,Main Street,Thurnby,Leicester,Thurnby Memorial Hall,Other catering premises,7841,,,355356,,,52.62866900000000,10160/2002/2/000,211,foodandsafety@harborough.gov.uk,Harborough,http://www.harborough.gov.uk,-1.04219400000000,LE7 9PN,2007-11-07,fhrs_exempt_en-GB,Exempt,,FHRS,
58195,Thurnby Grocers,10 Telford Way,Thurnby,Leicester,Thurnby Superstore,Retailers - other,4613,5,,355500,5,,52.63424100000000,15360/0010/0/000,211,foodandsafety@harborough.gov.uk,Harborough,http://www.harborough.gov.uk,-1.04975600000000,LE5 2LX,2013-10-07,fhrs_5_en-GB,5,,FHRS,0
58196,Franks Road,Walcote,Leicestershire,,Thursday Lunch Club,Other catering premises,7841,5,,355315,5,,52.44830100000000,10/00015/FOODC,211,foodandsafety@harborough.gov.uk,Harborough,http://www.harborough.gov.uk,-1.16694000000000,,2014-01-23,fhrs_5_en-GB,5,,FHRS,0
58197,Tilton Garage,Leicester Road,Tilton On The Hill,Leicester,Tilton Garage,Retailers - other,4613,,,355191,,,52.64348300000000,08840/2023/2/000,211,foodandsafety@harborough.gov.uk,Harborough,http://www.harborough.gov.uk,-0.90694800000000,LE7 9DB,2013-08-21,fhrs_exempt_en-GB,Exempt,,FHRS,
58198,Tilton Village Hall,Leicester Road,Tilton On The Hill,Leicester,Tilton Village Hall,Other catering premises,7841,,,355192,,,52.64348300000000,08840/2025/2/000,211,foodandsafety@harborough.gov.uk,Harborough,http://www.harborough.gov.uk,-0.90694800000000,LE7 9DB,2010-02-22,fhrs_exempt_en-GB,Exempt,,FHRS,
58199,3 Shambles Court,Belll Street,Lutterworth,,TJs Burger And Kebab Bar,Takeaway/sandwich shop,7844,5,,579646,5,,52.45558700000000,13/00077/FOODHS,211,foodandsafety@harborough.gov.uk,Harborough,http://www.harborough.gov.uk,-1.19916500000000,LE17 4DW,2013-08-01,fhrs_5_en-GB,5,,FHRS,5
58200,16 High Street,Market Harborough,Leicestershire,,Top Wok,Takeaway/sandwich shop,7844,5,,545826,0,,52.47850800000000,13/00026/FOODHS,211,foodandsafety@harborough.gov.uk,Harborough,http://www.harborough.gov.uk,-0.92227500000000,LE16 7NJ,2015-01-13,fhrs_5_en-GB,5,,FHRS,5
58201,17 Abbey Street,Market Harborough,Leicestershire,,Toro Latino,Restaurant/Cafe/Canteen,1,5,,355156,5,,52.47907000000000,08/00072/FOODHS,211,foodandsafety@harborough.gov.uk,Harborough,http://www.harborough.gov.uk,-0.92367400000000,LE16 9AA,2015-01-23,fhrs_5_en-GB,5,,FHRS,5
58202,56 Main Street,Lubenham,Leicestershire,,Totty Teas Ltd,Restaurant/Cafe/Canteen,1,10,,728963,5,,52.47927700000000,15/00001/FOODHS,211,foodandsafety@harborough.gov.uk,Harborough,http://www.harborough.gov.uk,-0.96096600000000,LE16 9TF,2015-01-06,fhrs_4_en-GB,4,,FHRS,5
58203,6 Abbey Street,Market Harborough,Leicestershire,,Travelodge,Hotel/bed & breakfast/guest house,7842,0,,355388,0,,52.47913500000000,11/00033/FOODHS,211,foodandsafety@harborough.gov.uk,Harborough,http://www.harborough.gov.uk,-0.92377200000000,,2011-07-18,fhrs_5_en-GB,5,,FHRS,0
58204,Rugby Road,Lutterworth,Leicestershire,,Travelodge,Hotel/bed & breakfast/guest house,7842,0,,355021,0,,52.42504600000000,06/00006/FOODHS,211,foodandsafety@harborough.gov.uk,Harborough,http://www.harborough.gov.uk,-1.22382800000000,,2009-02-06,fhrs_5_en-GB,5,,FHRS,0
58205,Compass House,Rockingham Road,Market Harborough,Leics,Travelsphere Ltd,Restaurant/Cafe/Canteen,1,,,355452,,,52.48376500000000,13010/2002/2/000,211,foodandsafety@harborough.gov.uk,Harborough,http://www.harborough.gov.uk,-0.89951200000000,LE16 7QD,2007-02-22,fhrs_exempt_en-GB,Exempt,,FHRS,
58206,64 High Street,Market Harborough,Leicestershire,,Trident Fish Bar,Takeaway/sandwich shop,7844,5,,355112,5,,52.47963400000000,07060/0064/0/000,211,foodandsafety@harborough.gov.uk,Harborough,http://www.harborough.gov.uk,-0.92245300000000,LE16 7AF,2013-11-19,fhrs_4_en-GB,4,,FHRS,10
58207,Triumph Six Sports Club,36 Main Street,Lubenham,Market Harborough,Triumph Sports Club,Other catering premises,7841,,,355297,,,52.47927700000000,09910/0036/0/000,211,foodandsafety@harborough.gov.uk,Harborough,http://www.harborough.gov.uk,-0.96096600000000,LE16 9TF,2010-07-29,fhrs_exempt_en-GB,Exempt,,FHRS,
58208,Tugby Village Hall,Main Street,Tugby,Leicester,Tugby Village Hall,Other catering premises,7841,,,355358,,,52.60021100000000,10180/2037/2/000,211,foodandsafety@harborough.gov.uk,Harborough,http://www.harborough.gov.uk,-0.87882000000000,LE7 9WD,2010-05-05,fhrs_exempt_en-GB,Exempt,,FHRS,
58209,Tur Langton Village Hall,Main Street,Tur Langton,Leicester,Tur Langton Village Hall,Other catering premises,7841,,,355359,,,,10190/2042/2/000,211,foodandsafety@harborough.gov.uk,Harborough,http://www.harborough.gov.uk,,,2005-03-10,fhrs_exempt_en-GB,Exempt,,FHRS,
58210,Turville Memorial Village Hall,Welford Road,Husbands Bosworth,Lutterworth,Turville Memorial Village Hall,Other catering premises,7841,,,355529,,,52.44729100000000,17190/2014/2/000,211,foodandsafety@harborough.gov.uk,Harborough,http://www.harborough.gov.uk,-1.05778500000000,LE17 6JH,2010-02-17,fhrs_exempt_en-GB,Exempt,,FHRS,
58211,,,,,UK Food Courts For Main Events,Mobile caterer,7846,5,,479130,5,,,12/00101/FOODHS,211,foodandsafety@harborough.gov.uk,Harborough,http://www.harborough.gov.uk,,,2012-10-11,fhrs_5_en-GB,5,,FHRS,5
58212,Ullesthorpe C Of E Primary School,Ashby Road,Ullesthorpe,Lutterworth,Ullesthorpe C Of E Primary School,School/college/university,7845,5,,354855,5,,52.48489200000000,00480/2006/2/000,211,foodandsafety@harborough.gov.uk,Harborough,http://www.harborough.gov.uk,-1.25088100000000,LE17 5DN,2010-03-22,fhrs_5_en-GB,5,,FHRS,5
58213,Ullesthorpe Court Hotel And Golf Cl,Frolesworth Road,Ullesthorpe,Lutterworth,Ullesthorpe Court Hotel And Golf Club (Best Western Plus),Restaurant/Cafe/Canteen,1,10,,355003,5,,52.49432600000000,05360/2013/2/000,211,foodandsafety@harborough.gov.uk,Harborough,http://www.harborough.gov.uk,-1.25705500000000,LE17 5BZ,2013-07-11,fhrs_3_en-GB,3,,FHRS,10
58214,Ullesthorpe Pre-school,Main Street,Ullesthorpe,Leicestershire,Ullesthorpe Kids Klub Ltd,Hospitals/Childcare/Caring Premises,5,,,355083,,,52.48437600000000,07/00183/FOODC,211,foodandsafety@harborough.gov.uk,Harborough,http://www.harborough.gov.uk,-1.25445400000000,LE17 5DH,2009-09-25,fhrs_exempt_en-GB,Exempt,,FHRS,
58215,Main Street,Ullesthorpe,Leicestershire,,Ullesthorpe Post Office And Stores,Manufacturers/packers,7839,5,,702474,0,,,14/00085/FOODHS,211,foodandsafety@harborough.gov.uk,Harborough,http://www.harborough.gov.uk,,,2014-12-05,fhrs_5_en-GB,5,,FHRS,0
58216,Ullesthorpe Pre-school,Main Street,Ullesthorpe,Leicestershire,Ullesthorpe Pre School,School/college/university,7845,,,354986,,,52.48437600000000,05/00065/FOODHS,211,foodandsafety@harborough.gov.uk,Harborough,http://www.harborough.gov.uk,-1.25445400000000,LE17 5DH,2013-07-10,fhrs_exempt_en-GB,Exempt,,FHRS,
58217,,,,,Uneedcake,Other catering premises,7841,0,,595969,0,,,13/00017/FOODC,211,foodandsafety@harborough.gov.uk,Harborough,http://www.harborough.gov.uk,,,2013-09-30,fhrs_5_en-GB,5,,FHRS,0
58218,Unicorn Inn,29 Church Street,Lutterworth,Leics,Unicorn Inn,Pub/bar/nightclub,7843,10,,354926,10,,52.45543700000000,03100/0029/2/000,211,foodandsafety@harborough.gov.uk,Harborough,http://www.harborough.gov.uk,-1.20089000000000,LE17 4AE,2012-10-11,fhrs_3_en-GB,3,,FHRS,10
58219,United Reformed Church,George Street,Lutterworth,Leics,United Reformed Church,Other catering premises,7841,0,,355012,0,,52.45614100000000,05530/2004/2/000,211,foodandsafety@harborough.gov.uk,Harborough,http://www.harborough.gov.uk,-1.20130400000000,LE17 4EF,2014-11-27,fhrs_5_en-GB,5,,FHRS,0
58220,Trades And Labour Club,47 High Street,Market Harborough,Leics,United Trades & Labour Club,Other catering premises,7841,5,,355110,5,,52.47957900000000,07060/0047/0/000,211,foodandsafety@harborough.gov.uk,Harborough,http://www.harborough.gov.uk,-0.92236600000000,LE16 7AF,2009-05-14,fhrs_5_en-GB,5,,FHRS,5
58221,Unwins,12 High Street,Lutterworth,Leics,Unwins Wine Merchants,Retailers - other,4613,0,,355100,0,,52.45511900000000,07050/0012/0/000,211,foodandsafety@harborough.gov.uk,Harborough,http://www.harborough.gov.uk,-1.20030700000000,LE17 4AD,2005-06-24,fhrs_5_en-GB,5,,FHRS,5
58222,High Cross Road,Claybrooke Magna,Leicestershire,,Victoria Farm,Hotel/bed & breakfast/guest house,7842,5,,355026,5,,52.49419600000000,06/00037/FOODHS,211,foodandsafety@harborough.gov.uk,Harborough,http://www.harborough.gov.uk,-1.30056700000000,LE17 5AU,2007-12-13,fhrs_5_en-GB,5,,FHRS,5
58223,,,,,Victoria's Cake Company,Other catering premises,7841,10,,545822,5,,,13/00010/FOODC,211,foodandsafety@harborough.gov.uk,Harborough,http://www.harborough.gov.uk,,,2013-04-26,fhrs_4_en-GB,4,,FHRS,5
58224,Unit 3320,@Merck Ltd,Hunter Boulevard,Magna Park,VWR International,Restaurant/Cafe/Canteen,1,5,,355120,5,,52.46256900000000,07610/2005/2/000,211,foodandsafety@harborough.gov.uk,Harborough,http://www.harborough.gov.uk,-1.24797800000000,LE17 4XN,2013-10-28,fhrs_5_en-GB,5,,FHRS,5
58225,W F Chapman Butchers,13 High Street,Lutterworth,Leics,W F Chapman Butchers,Manufacturers/packers,7839,5,,354844,5,,52.45503400000000,`07050/0013/0/000,211,foodandsafety@harborough.gov.uk,Harborough,http://www.harborough.gov.uk,-1.19970500000000,LE17 4AT,2013-08-14,fhrs_5_en-GB,5,,FHRS,5
58226,W T Hind Pharmacy,8-10 High Street,Fleckney,Leicester,W T Hind Pharmacy,Retailers - other,4613,,,355057,,,52.53557900000000,06990/0008/0/000,211,foodandsafety@harborough.gov.uk,Harborough,http://www.harborough.gov.uk,-1.04478100000000,LE8 8AJ,2009-01-28,fhrs_exempt_en-GB,Exempt,,FHRS,
58227,Lower Leicester Road,Lutterworth,Leicestershire,,Waitrose,Retailers - supermarkets/hypermarkets,7840,0,,355313,0,,52.45877900000000,10/00013/FOODHS,211,foodandsafety@harborough.gov.uk,Harborough,http://www.harborough.gov.uk,-1.19918100000000,LE17 4NF,2014-02-20,fhrs_5_en-GB,5,,FHRS,0
58228,Springfield Street,Market Harborough,Leicestershire,,Waitrose Ltd,Retailers - supermarkets/hypermarkets,7840,0,,479123,0,,52.47548400000000,12/00076/FOODHS,211,foodandsafety@harborough.gov.uk,Harborough,http://www.harborough.gov.uk,-0.91597300000000,LE16 8BD,2015-01-06,fhrs_5_en-GB,5,,FHRS,0
58229,Walcote Service Station,20 Lutterworth Road,Walcote,Lutterworth,Walcote Service Station,Retailers - other,4613,5,,355257,5,,52.44793000000000,09430/0020/2/000,211,foodandsafety@harborough.gov.uk,Harborough,http://www.harborough.gov.uk,-1.16688900000000,LE17 4JW,2008-04-01,fhrs_5_en-GB,5,,FHRS,5
58230,Lutterworth Road,Misterton,Leicestershire,,Wals Cafe,Mobile caterer,7846,10,,449516,10,,52.44669500000000,12/00084/FOODHS,211,foodandsafety@harborough.gov.uk,Harborough,http://www.harborough.gov.uk,-1.17522400000000,,2014-03-17,fhrs_3_en-GB,3,,FHRS,10
58231,Village Hall,Kimcote Road,Walton,Lutterworth,Walton /Kimcote Village Hall,Other catering premises,7841,,,355176,,,52.47520100000000,08150/2000/0/000,211,foodandsafety@harborough.gov.uk,Harborough,http://www.harborough.gov.uk,-1.12868400000000,LE17 5RR,2006-11-22,fhrs_exempt_en-GB,Exempt,,FHRS,
58232,Market Harborough Rugby Club,Northampton Road,Market Harborough,Leicestershire,Waterfield Catering,Other catering premises,7841,10,,479129,5,,52.46826900000000,12/00100/FOODHS,211,foodandsafety@harborough.gov.uk,Harborough,http://www.harborough.gov.uk,-0.91348600000000,LE16 9HF,2012-11-01,fhrs_4_en-GB,4,,FHRS,5
58233,Water Front Restaurant And Bar,Terminal Warehouse,Union Wharf,Market Harborough,Waterfront,Restaurant/Cafe/Canteen,1,0,,355416,0,,52.48404100000000,11/00108/FOODHS,211,foodandsafety@harborough.gov.uk,Harborough,http://www.harborough.gov.uk,-0.93063600000000,LE16 7UW,2013-03-05,fhrs_5_en-GB,5,,FHRS,0
58234,Market Hall,Northampton Road,Market Harborough,Leicestershire,Webb's,Retailers - other,4613,5,,706705,10,,52.47666600000000,14/00053/FOODHS,211,foodandsafety@harborough.gov.uk,Harborough,http://www.harborough.gov.uk,-0.91933100000000,LE16 9HB,2014-09-11,fhrs_4_en-GB,4,,FHRS,5
58235,The Park Diner,Welland Park Road,Market Harborough,Leicestershire,Welland Park Cafe,Restaurant/Cafe/Canteen,1,5,,718014,10,,52.47435400000000,14/00116/FOODHS,211,foodandsafety@harborough.gov.uk,Harborough,http://www.harborough.gov.uk,-0.92119800000000,LE16 9DR,2014-11-24,fhrs_3_en-GB,3,,FHRS,10
58236,Welland Park College,Welland Park Road,Market Harborough,Leicestershire,Welland Park Community College,School/college/university,7845,5,,355130,0,,52.47435400000000,08/00014/FOODC,211,foodandsafety@harborough.gov.uk,Harborough,http://www.harborough.gov.uk,-0.92119800000000,LE16 9DR,2014-12-04,fhrs_5_en-GB,5,,FHRS,5
58237,"Assembly Rooms,Welland Park College",Welland Park Road,Market Harborough,Leics,Welland Park Pre-School,Hospitals/Childcare/Caring Premises,5,,,355530,,,52.47435400000000,17250/2002/2/000,211,foodandsafety@harborough.gov.uk,Harborough,http://www.harborough.gov.uk,-0.92119800000000,LE16 9DR,2009-12-23,fhrs_exempt_en-GB,Exempt,,FHRS,
58238,Managers Office,Chater House,St Marys Road,Market Harborough,Welland Place,Restaurant/Cafe/Canteen,1,0,,637932,0,,52.47854600000000,14/00020/FOODHS,211,foodandsafety@harborough.gov.uk,Harborough,http://www.harborough.gov.uk,-0.91164300000000,LE16 7GF,2014-03-03,fhrs_5_en-GB,5,,FHRS,0
58239,Weltons,28 The Green,Great Bowden,Market Harborough,Weltons,Retailers - other,4613,5,,355504,5,,52.49215800000000,15700/0028/2/000,211,foodandsafety@harborough.gov.uk,Harborough,http://www.harborough.gov.uk,-0.90391300000000,LE16 7EU,2013-03-06,fhrs_5_en-GB,5,,FHRS,5
58240,Wesses Bakery,10 Farndon Road,Market Harborough,Leics,Wesses Bakehouse,Manufacturers/packers,7839,10,,354976,10,,52.47513500000000,04850/0010/0/000,211,foodandsafety@harborough.gov.uk,Harborough,http://www.harborough.gov.uk,-0.93091100000000,LE16 9NW,2013-09-04,fhrs_2_en-GB,2,,FHRS,15
58241,Wesses Bakery,55 The Square,Market Harborough,Leics,Wesses Bakery,Retailers - other,4613,10,,355515,5,,52.47790700000000,16100/0055/0/000,211,foodandsafety@harborough.gov.uk,Harborough,http://www.harborough.gov.uk,-0.92039000000000,LE16 7PA,2014-11-24,fhrs_4_en-GB,4,,FHRS,0
58242,White Hart,Rugby Road,South Kilworth,Lutterworth,White Hart,Pub/bar/nightclub,7843,0,,355458,0,,52.43052200000000,13240/2006/2/000,211,foodandsafety@harborough.gov.uk,Harborough,http://www.harborough.gov.uk,-1.11216600000000,LE17 6DN,2013-02-07,fhrs_5_en-GB,5,,FHRS,0
58243,White Horse 30/32,Station Road,Broughton Astley,Leicester,White Horse,Pub/bar/nightclub,7843,5,,355485,0,,52.52897800000000,14690/0032/0/000,211,foodandsafety@harborough.gov.uk,Harborough,http://www.harborough.gov.uk,-1.22264000000000,LE9 6PT,2014-08-27,fhrs_5_en-GB,5,,FHRS,0
58244,The White Lion,Lutterworth Road,North Kilworth,Leicestershire,White Lion Wine Bar And Restaurant,Restaurant/Cafe/Canteen,1,5,,723736,0,,52.44654600000000,14/00096/FOODHS,211,foodandsafety@harborough.gov.uk,Harborough,http://www.harborough.gov.uk,-1.09367200000000,LE17 6EP,2014-11-27,fhrs_5_en-GB,5,,FHRS,5
58245,White Lion,9 High Street,Market Harborough,Leicestershire,Wildwood,Restaurant/Cafe/Canteen,1,5,,375202,5,,52.47850800000000,11/00091/FOODHS,211,foodandsafety@harborough.gov.uk,Harborough,http://www.harborough.gov.uk,-0.92227500000000,LE16 7NJ,2014-08-18,fhrs_5_en-GB,5,,FHRS,5
58246,Wilkinsons,19 Saint Marys Place,Market Harborough,Leics,Wilkinsons,Retailers - other,4613,5,,355474,5,,52.47742500000000,14450/0019/0/000,211,foodandsafety@harborough.gov.uk,Harborough,http://www.harborough.gov.uk,-0.91881100000000,LE16 7DR,2009-03-25,fhrs_5_en-GB,5,,FHRS,5
58247,Williams Butchers,1 Main Street,Fleckney,Leicester,Williams Butchers,Retailers - other,4613,5,,355279,5,,52.53461900000000,09720/0001/0/000,211,foodandsafety@harborough.gov.uk,Harborough,http://www.harborough.gov.uk,-1.04836900000000,LE8 8AP,2014-12-15,fhrs_5_en-GB,5,,FHRS,5
58248,,,,,Willowcroft Cakes,Other catering premises,7841,5,,718007,0,,,14/00032/FOODC,211,foodandsafety@harborough.gov.uk,Harborough,http://www.harborough.gov.uk,,,2014-07-22,fhrs_5_en-GB,5,,FHRS,5
58249,Wistow Rural Centre,Kibworth Road,Wistow,Leicestershire,Wistow Cafe Bistro,Restaurant/Cafe/Canteen,1,5,,355163,5,,52.55652800000000,08/00089/FOODHS,211,foodandsafety@harborough.gov.uk,Harborough,http://www.harborough.gov.uk,-1.05506400000000,LE8 0QF,2013-11-28,fhrs_5_en-GB,5,,FHRS,5
58250,Wistow Rural Centre,Kibworth Road,Wistow,Leicestershire,Wistow Farm Shop,Retailers - other,4613,5,,355236,5,,52.55652800000000,09/00083/FOODHS,211,foodandsafety@harborough.gov.uk,Harborough,http://www.harborough.gov.uk,-1.05506400000000,LE8 0QF,2009-11-18,fhrs_5_en-GB,5,,FHRS,5
58251,Witham Villa Riding Centre,Cosby Road,Broughton Astley,Leicester,Witham Villa Cafe,Restaurant/Cafe/Canteen,1,10,,728951,5,,52.53208800000000,03/00066/FOODC,211,foodandsafety@harborough.gov.uk,Harborough,http://www.harborough.gov.uk,-1.22528300000000,LE9 6PA,2014-09-02,fhrs_4_en-GB,4,,FHRS,5
58252,Morrisons,Bitteswell Road,Lutterworth,Leicestershire,WM Morrison Supermarket PLC,Retailers - supermarkets/hypermarkets,7840,5,,354981,0,,52.46512600000000,05/00036/FOODHS,211,foodandsafety@harborough.gov.uk,Harborough,http://www.harborough.gov.uk,-1.20670700000000,,2012-03-22,fhrs_5_en-GB,5,,FHRS,0
58253,Woodmarket,Lutterworth,Leicestershire,,Woodmarket House,Hospitals/Childcare/Caring Premises,5,5,,557828,0,,52.45316800000000,13/00041/FOODC,211,foodandsafety@harborough.gov.uk,Harborough,http://www.harborough.gov.uk,-1.20705200000000,LE17 4BZ,2014-12-12,fhrs_5_en-GB,5,,FHRS,0
58254,,,,,Woodside Catering,Other catering premises,7841,0,,355247,0,,,09/00108/FOODC,211,foodandsafety@harborough.gov.uk,Harborough,http://www.harborough.gov.uk,,,2013-09-05,fhrs_5_en-GB,5,,FHRS,5
58255,Woodway Stores,15 Woodway Road,Lutterworth,Leics,Woodway Stores,Retailers - other,4613,5,,355539,5,,52.45351000000000,17980/0015/0/000,211,foodandsafety@harborough.gov.uk,Harborough,http://www.harborough.gov.uk,-1.20982700000000,LE17 4QQ,2013-09-16,fhrs_4_en-GB,4,,FHRS,10
58256,The Yews,29 London Road,Great Glen,Leicester,Yews Hotel,Pub/bar/nightclub,7843,5,,355252,5,,52.57588200000000,09180/0029/2/000,211,foodandsafety@harborough.gov.uk,Harborough,http://www.harborough.gov.uk,-1.04150000000000,LE8 9FL,2013-10-23,fhrs_5_en-GB,5,,FHRS,5
58257,Kibworth Shooting Ground,Harborough Road,Kibworth Beauchamp,Leicestershire,Yummies,Restaurant/Cafe/Canteen,1,10,,355222,10,,52.53347600000000,09/00049/FOODC,211,foodandsafety@harborough.gov.uk,Harborough,http://www.harborough.gov.uk,-0.97727300000000,,2013-11-13,fhrs_3_en-GB,3,,FHRS,5
58258,,,,,Yummies Snack Bar,Mobile caterer,7846,5,,595978,5,,,13/00079/FOODHS,211,foodandsafety@harborough.gov.uk,Harborough,http://www.harborough.gov.uk,,,2013-09-18,fhrs_5_en-GB,5,,FHRS,5
58259,Debdale Wharf Marina,Debdale Wharf,Kibworth,Leicestershire,Zest Catering And Events,Restaurant/Cafe/Canteen,1,5,,723735,5,,52.51741100000000,14/00074/FOODHS,211,foodandsafety@harborough.gov.uk,Harborough,http://www.harborough.gov.uk,-0.97608700000000,LE8 0XA,2014-11-17,fhrs_5_en-GB,5,,FHRS,5
58260,47 High Street,Market Harborough,Leicestershire,,Zizzi,Restaurant/Cafe/Canteen,1,0,,355043,5,,52.47963400000000,06/00192/FOODHS,211,foodandsafety@harborough.gov.uk,Harborough,http://www.harborough.gov.uk,-0.92245300000000,LE16 7AF,2014-09-29,fhrs_5_en-GB,5,,FHRS,5
