,addressline1,addressline2,addressline3,addressline4,businessname,businesstype,businesstypeid,confidenceinmanagement,extractdate,fhrsid,hygiene,itemcount,latitude,localauthoritybusinessid,localauthoritycode,localauthorityemailaddress,localauthorityname,localauthoritywebsite,longitude,postcode,ratingdate,ratingkey,ratingvalue,returncode,schemetype,structural
64657,Old Dalby Woodhouse,Lawn Lane,Old Dalby,,& Cakes,Manufacturers/packers,7839,0,,46344,0,,,11/00060/COMM,214,fhrs@melton.gov.uk,Melton,http://www.melton.gov.uk,,,2011-10-14,fhrs_5_en-GB,5,,FHRS,0
64658,The Cross,Grantham Road,Bottesford,,A E Taylor & Sons,Retailers - other,4613,5,,9181,5,,52.94166000000000,03740/2002/2/000,214,fhrs@melton.gov.uk,Melton,http://www.melton.gov.uk,-0.80065400000000,NG13 0DF,2014-06-23,fhrs_5_en-GB,5,,FHRS,5
64659,Ab Kettleby Community Primary Schoo,Wartnaby Road,Ab Kettleby,Melton Mowbray,Ab Kettleby School,School/college/university,7845,0,,32585,5,,52.80052700000000,09820/2000/2/000,214,fhrs@melton.gov.uk,Melton,http://www.melton.gov.uk,-0.92832000000000,LE14 3JJ,2013-11-20,fhrs_5_en-GB,5,,FHRS,5
64660,45 Nottingham Street,Melton Mowbray,,,Age UK,Restaurant/Cafe/Canteen,1,5,,20972,0,,52.76577200000000,06660/0045/2/000,214,fhrs@melton.gov.uk,Melton,http://www.melton.gov.uk,-0.88825300000000,LE13 1NN,2014-12-04,fhrs_5_en-GB,5,,FHRS,5
64661,Gloucester House,Norman Way,Melton Mowbray,,Age UK,Hospitals/Childcare/Caring Premises,5,0,,627058,0,,52.76671700000000,07890/2000/2/000,214,fhrs@melton.gov.uk,Melton,http://www.melton.gov.uk,-0.88550100000000,LE13 1JE,2014-02-24,fhrs_5_en-GB,5,,FHRS,0
64662,All England Sports Ground,Saxby Road,Melton Mowbray,,All England Sports Club - M.Mowbray Cricket Club,Other catering premises,7841,10,,482398,5,,,08/00056/COMM,214,fhrs@melton.gov.uk,Melton,http://www.melton.gov.uk,,,2013-09-02,fhrs_4_en-GB,4,,FHRS,5
64663,49A Nottingham Street,Melton Mowbray,,,All Things Nice Cafe,Restaurant/Cafe/Canteen,1,5,,33995,10,,52.76571800000000,10/00081/COMM,214,fhrs@melton.gov.uk,Melton,http://www.melton.gov.uk,-0.88823900000000,LE13 1NN,2014-10-22,fhrs_4_en-GB,4,,FHRS,5
64664,Amberly,4 Church Lane,Asfordby,,Amberley Gardens B&B,Hotel/bed & breakfast/guest house,7842,10,,14920,5,,52.76380900000000,05/00071/COMM,214,fhrs@melton.gov.uk,Melton,http://www.melton.gov.uk,-0.95216300000000,LE14 3RU,2011-10-05,fhrs_4_en-GB,4,,FHRS,5
64665,21 Nottingham Street,Melton Mowbray,,,Amici,Restaurant/Cafe/Canteen,1,5,,688489,5,,52.76577200000000,14/00022/COMM,214,fhrs@melton.gov.uk,Melton,http://www.melton.gov.uk,-0.88825300000000,LE13 1NN,2014-07-31,fhrs_5_en-GB,5,,FHRS,5
64666,Andys Fish Bar,68 Barker Crescent,Melton Mowbray,,Andy's Fish Bar,Takeaway/sandwich shop,7844,5,,1746,0,,52.75293600000000,00390/0068/0/000,214,fhrs@melton.gov.uk,Melton,http://www.melton.gov.uk,-0.88850500000000,LE13 0QW,2014-01-29,fhrs_5_en-GB,5,,FHRS,5
64667,Andys Fish Bar,13 Sysonby Street,Melton Mowbray,,Andy's Fish Bar,Takeaway/sandwich shop,7844,5,,28362,5,,52.77182600000000,08910/0000/2/000,214,fhrs@melton.gov.uk,Melton,http://www.melton.gov.uk,-0.89933400000000,LE13 0LP,2013-11-13,fhrs_5_en-GB,5,,FHRS,5
64668,Anne Of Cleves Inn,12 Burton Street,Melton Mowbray,,Anne Of Cleves,Pub/bar/nightclub,7843,10,,4746,10,,52.76373900000000,01320/0012/0/000,214,fhrs@melton.gov.uk,Melton,http://www.melton.gov.uk,-0.88523700000000,LE13 1AE,2014-07-22,fhrs_3_en-GB,3,,FHRS,10
64669,Apurba Restaurant,38 Leicester Street,Melton Mowbray,,Apurba,Restaurant/Cafe/Canteen,1,10,,14350,10,,52.76416000000000,04920/0038/0/000,214,fhrs@melton.gov.uk,Melton,http://www.melton.gov.uk,-0.88799700000000,LE13 0PP,2013-03-06,fhrs_3_en-GB,3,,FHRS,5
64670,Melton Road,Asfordby Hill,Melton Mowbray,,Asfordby Hill Primary School,School/college/university,7845,0,,20459,0,,52.76586800000000,06010/2000/2/000,214,fhrs@melton.gov.uk,Melton,http://www.melton.gov.uk,-0.92908200000000,LE14 3QX,2013-05-22,fhrs_5_en-GB,5,,FHRS,5
64671,Parish Hall,24 Main Street,Asfordby,,Asfordby Parish Hall,Other catering premises,7841,,,550806,,,52.76457000000000,05270/0028/2/000,214,fhrs@melton.gov.uk,Melton,http://www.melton.gov.uk,-0.94869200000000,LE14 3SA,2013-05-10,fhrs_exempt_en-GB,Exempt,,FHRS,
64672,135 Asfordby Road,Melton Mowbray,,,Asfordby Road Stores,Retailers - other,4613,5,,1341,5,,52.76633300000000,00140/0135/0/000,214,fhrs@melton.gov.uk,Melton,http://www.melton.gov.uk,-0.90030300000000,LE13 0HW,2015-01-14,fhrs_5_en-GB,5,,FHRS,5
64673,Village Hall,5 Folville Street,Ashby Folville,,Ashby Folville Village Hall,Other catering premises,7841,,,482395,,,52.70098400000000,03280/0005/2/000,214,fhrs@melton.gov.uk,Melton,http://www.melton.gov.uk,-0.95380100000000,LE14 2TE,2014-10-20,fhrs_exempt_en-GB,Exempt,,FHRS,
64674,Focus,Leicester Road,Melton Mowbray,,B&Q,Retailers - other,4613,,,482666,,,52.75632600000000,04900/2006/2/000,214,fhrs@melton.gov.uk,Melton,http://www.melton.gov.uk,-0.90793400000000,LE13 0DB,2013-03-19,fhrs_exempt_en-GB,Exempt,,FHRS,
64675,Jeld Wen,Snow Hill,Melton Mowbray,,Bangers And Sash,Restaurant/Cafe/Canteen,1,,,703591,,,52.76794800000000,14/00056/COMM,214,fhrs@melton.gov.uk,Melton,http://www.melton.gov.uk,-0.88260900000000,LE13 1PD,2014-10-22,fhrs_3_en-GB,3,,FHRS,
64676,Bates Shop,King Street,Twyford,Melton Mowbray,Bates General Store,Retailers - other,4613,5,,14106,10,,52.68308100000000,04680/2002/2/000,214,fhrs@melton.gov.uk,Melton,http://www.melton.gov.uk,-0.92325300000000,LE14 2HR,2013-11-20,fhrs_3_en-GB,3,,FHRS,10
64677,,,,,Beata Hanks,Other catering premises,7841,10,,482403,5,,,10/00036/COMM,214,fhrs@melton.gov.uk,Melton,http://www.melton.gov.uk,,,2012-06-18,fhrs_4_en-GB,4,,FHRS,5
64678,,,,,Beautifully Gluten Free,Retailers - other,4613,0,,504251,0,,,13/00018/COMM,214,fhrs@melton.gov.uk,Melton,http://www.melton.gov.uk,,,2013-01-31,fhrs_5_en-GB,5,,FHRS,0
64679,55 King Street,Melton Mowbray,,,Belgian Heaven Chocolate Co,Retailers - other,4613,0,,683000,0,,52.76499700000000,14/00025/COMM,214,fhrs@melton.gov.uk,Melton,http://www.melton.gov.uk,-0.88612300000000,LE13 1XB,2014-07-10,fhrs_5_en-GB,5,,FHRS,0
64680,,,,,Belinda's Chocolates,Retailers - other,4613,5,,689926,5,,,14/00041/COMM,214,fhrs@melton.gov.uk,Melton,http://www.melton.gov.uk,,,2014-08-04,fhrs_5_en-GB,5,,FHRS,5
64681,1 St Marys Way,Melton Mowbray,,,Bellini Ltd,Restaurant/Cafe/Canteen,1,5,,18337,5,,52.76571200000000,06/00109/COMM,214,fhrs@melton.gov.uk,Melton,http://www.melton.gov.uk,-0.88576400000000,LE13 1YE,2013-10-02,fhrs_5_en-GB,5,,FHRS,5
64682,Woodside Farm,Long Lane,Barkestone Le Vale,Nottingham,Belvoir B&B At Woodside Farm,Hotel/bed & breakfast/guest house,7842,5,,1815,5,,52.89478100000000,00420/2004/2/000,214,fhrs@melton.gov.uk,Melton,http://www.melton.gov.uk,-0.81610000000000,NG13 0HQ,2012-11-15,fhrs_5_en-GB,5,,FHRS,5
64683,Belvoir Brewery,Crown Business Park,Station Road,Old Dalby,Belvoir Brewery - The Sample Cellar,Restaurant/Cafe/Canteen,1,10,,627063,10,,52.81075600000000,11/00009/COMM,214,fhrs@melton.gov.uk,Melton,http://www.melton.gov.uk,-0.98342300000000,LE14 3NQ,2013-11-07,fhrs_2_en-GB,2,,FHRS,15
64684,Harston Lane,Knipton,,,Belvoir Cricket Club,Other catering premises,7841,,,482662,,,52.87208700000000,00630/0000/2/000,214,fhrs@melton.gov.uk,Melton,http://www.melton.gov.uk,-0.77765800000000,NG32 1RJ,2011-11-28,fhrs_exempt_en-GB,Exempt,,FHRS,
64685,Belvoir High School,Barkestone Lane,Bottesford,Nottingham,Belvoir High School,School/college/university,7845,10,,1772,5,,52.93719800000000,00400/2006/2/000,214,fhrs@melton.gov.uk,Melton,http://www.melton.gov.uk,-0.80748800000000,NG13 0AX,2014-06-12,fhrs_3_en-GB,3,,FHRS,10
64686,Belvoir Castle,Belvoir,,,Belvoir Tea Room,Restaurant/Cafe/Canteen,1,10,,401691,5,,52.89474800000000,12/00034/COMM,214,fhrs@melton.gov.uk,Melton,http://www.melton.gov.uk,-0.78266900000000,NG32 1PE,2014-06-23,fhrs_4_en-GB,4,,FHRS,0
64687,33A Saxby Road,Melton Mowbray,,,Belvoir's Baps & Bangers (Belvoir Catering Ltd),Takeaway/sandwich shop,7844,5,,24478,5,,52.76479700000000,07790/0033/A/000,214,fhrs@melton.gov.uk,Melton,http://www.melton.gov.uk,-0.87735500000000,LE13 1BW,2015-01-07,fhrs_4_en-GB,4,,FHRS,10
64688,Birch Wood School,Grange Drive,Melton Mowbray,,Birch Wood Special School,School/college/university,7845,5,,9742,0,,,04/00055/COMM,214,fhrs@melton.gov.uk,Melton,http://www.melton.gov.uk,,,2014-12-03,fhrs_5_en-GB,5,,FHRS,5
64689,,,,,Bishop's Bespoke Catering,Other catering premises,7841,5,,482824,5,,,11/00051/COMM,214,fhrs@melton.gov.uk,Melton,http://www.melton.gov.uk,,,2015-01-23,fhrs_5_en-GB,5,,FHRS,5
64690,,,,,Black Goat Farm,Mobile caterer,7846,10,,482673,5,,,11/00011/COMM,214,fhrs@melton.gov.uk,Melton,http://www.melton.gov.uk,,,2011-02-09,fhrs_4_en-GB,4,,FHRS,5
64691,Boots Chemist,1 Cheapside,Melton Mowbray,,Boots Co Plc,Retailers - other,4613,0,,5239,0,,52.76459500000000,01670/0001/0/000,214,fhrs@melton.gov.uk,Melton,http://www.melton.gov.uk,-0.88739300000000,LE13 0TP,2011-11-17,fhrs_5_en-GB,5,,FHRS,5
64692,Bowls Club,Belvoir Road,Bottesford,,Bottesford Bowls Club,Other catering premises,7841,,,2065,,,52.93822900000000,00610/2033/2/000,214,fhrs@melton.gov.uk,Melton,http://www.melton.gov.uk,-0.80362000000000,NG13 0BG,2014-10-08,fhrs_exempt_en-GB,Exempt,,FHRS,
64693,Cricket Pavilion,Belvoir Road,Bottesford,,Bottesford Cricket Club,Other catering premises,7841,,,482661,,,52.93822900000000,00610/3033/2/000,214,fhrs@melton.gov.uk,Melton,http://www.melton.gov.uk,-0.80362000000000,NG13 0BG,2013-01-21,fhrs_exempt_en-GB,Exempt,,FHRS,
64694,Bottesford C Of E Primary School,Silverwood Road,Bottesford,Nottingham,Bottesford Primary School,School/college/university,7845,0,,27663,0,,52.93914700000000,08140/0000/2/000,214,fhrs@melton.gov.uk,Melton,http://www.melton.gov.uk,-0.80544000000000,NG13 0BS,2015-01-20,fhrs_5_en-GB,5,,FHRS,5
64695,The Fuller Room,Old Primary School,Grantham Road,Bottesford,Bottesford Youth Club,Hospitals/Childcare/Caring Premises,5,,,605715,,,52.94166000000000,13/00074/COMM,214,fhrs@melton.gov.uk,Melton,http://www.melton.gov.uk,-0.80065400000000,NG13 0DF,2013-11-28,fhrs_exempt_en-GB,Exempt,,FHRS,
64696,Bouverie Lodge,Melton Road,Nether Broughton,Melton Mowbray,Bouverie Lodge Quality Foods,Retailers - other,4613,5,,6923,5,,52.81740800000000,02650/4108/2/000,214,fhrs@melton.gov.uk,Melton,http://www.melton.gov.uk,-0.96050500000000,LE14 3ES,2014-02-14,fhrs_5_en-GB,5,,FHRS,5
64697,18 Burdetts Close,Great Dalby,,,Bowler Roasters,Mobile caterer,7846,5,,14610,0,,52.72276500000000,05/00027/COMM,214,fhrs@melton.gov.uk,Melton,http://www.melton.gov.uk,-0.89897100000000,LE14 2EN,2013-06-10,fhrs_5_en-GB,5,,FHRS,5
64698,Wilton Road,Melton Mowbray,,,Boyes,Retailers - other,4613,,,28516,,,52.76618700000000,09/00005/COMM,214,fhrs@melton.gov.uk,Melton,http://www.melton.gov.uk,-0.88939800000000,LE13 0UJ,2012-01-20,fhrs_exempt_en-GB,Exempt,,FHRS,
64699,BP,Egerton Park Self Serve,Leicester Road,Melton Mowbray,BP Egerton Connect,Retailers - other,4613,5,,626524,0,,52.76297300000000,14/00005/COMM,214,fhrs@melton.gov.uk,Melton,http://www.melton.gov.uk,-0.89468200000000,LE13 0DA,2015-01-22,fhrs_5_en-GB,5,,FHRS,0
64700,Ashby Road,Gaddesby,Melton Mowbray,,Branbury Farm,Farmers/growers,7838,5,,482675,5,,52.70808600000000,11/00063/COMM,214,fhrs@melton.gov.uk,Melton,http://www.melton.gov.uk,-0.97963800000000,LE7 4WF,2011-11-02,fhrs_5_en-GB,5,,FHRS,5
64701,51 Sherrard Street,Melton Mowbray,,,Brewsters Grocers,Retailers - other,4613,5,,27521,5,,52.76473600000000,08090/0051/0/000,214,fhrs@melton.gov.uk,Melton,http://www.melton.gov.uk,-0.88421800000000,LE13 1XH,2012-08-06,fhrs_5_en-GB,5,,FHRS,5
64702,30 Market Place,Melton Mowbray,,,British Heart Foundation,Retailers - other,4613,,,482670,,,52.76440400000000,05890/0030/0/000,214,fhrs@melton.gov.uk,Melton,http://www.melton.gov.uk,-0.88621300000000,LE13 1XD,2012-10-05,fhrs_exempt_en-GB,Exempt,,FHRS,
64703,Sandy Lane,Melton Mowbray,,,Broadoak Grange Residential Home,Hospitals/Childcare/Caring Premises,5,5,,24415,0,,52.75180900000000,07710/2001/2/000,214,fhrs@melton.gov.uk,Melton,http://www.melton.gov.uk,-0.88429600000000,LE13 0AW,2014-02-19,fhrs_5_en-GB,5,,FHRS,5
64704,Broadoak Lodge Residential Home,Sandy Lane,Melton Mowbray,,Broadoak Lodge,Hospitals/Childcare/Caring Premises,5,5,,24412,5,,52.75511800000000,07710/0039/2/000,214,fhrs@melton.gov.uk,Melton,http://www.melton.gov.uk,-0.88433000000000,LE13 0AN,2014-10-14,fhrs_5_en-GB,5,,FHRS,5
64705,Brobot Petroleum Ltd,Thorpe Road,Melton Mowbray,Leicestershire,Brobot Petroleum,Retailers - other,4613,5,,32196,5,,52.76954900000000,09330/2002/2/000,214,fhrs@melton.gov.uk,Melton,http://www.melton.gov.uk,-0.87222200000000,LE13 1SH,2011-01-17,fhrs_5_en-GB,5,,FHRS,5
64706,Melton Road,Asfordby Hill,Melton Mowbray,,Brockleby's,Manufacturers/packers,7839,10,,14643,10,,52.76451200000000,05/00032/COMM,214,fhrs@melton.gov.uk,Melton,http://www.melton.gov.uk,-0.91835500000000,LE14 3QU,2014-01-22,fhrs_3_en-GB,3,,FHRS,10
64707,Brooksby Melton College,Asfordby Road,Melton Mowbray,,Brooksby Melton College  - Melton Campus,School/college/university,7845,5,,1348,5,,52.76640600000000,00140/2012/2/001,214,fhrs@melton.gov.uk,Melton,http://www.melton.gov.uk,-0.89171900000000,LE13 0HJ,2015-01-28,fhrs_5_en-GB,5,,FHRS,0
64708,Brooksby Melton College,Hoby Road,Brooksby,Melton Mowbray,Brooksby Melton College - Brooksby Campus,School/college/university,7845,10,,4298,5,,52.73809600000000,01060/0000/2/000,214,fhrs@melton.gov.uk,Melton,http://www.melton.gov.uk,-1.00629400000000,LE14 2LJ,2014-11-04,fhrs_4_en-GB,4,,FHRS,5
64709,The Workshop,Manor Farm,2 Main Road,Nether Broughton,Broughton Bakery,Manufacturers/packers,7839,5,,664574,0,,52.82372300000000,14/00013/COMM,214,fhrs@melton.gov.uk,Melton,http://www.melton.gov.uk,-0.97129200000000,LE14 3HB,2014-05-09,fhrs_5_en-GB,5,,FHRS,5
64710,Brownlow CP School,Limes Avenue,Melton Mowbray,Leicestershire,Brownlow Primary School,School/college/university,7845,5,,14379,0,,52.76844100000000,04950/0000/2/000,214,fhrs@melton.gov.uk,Melton,http://www.melton.gov.uk,-0.87674200000000,LE13 1QL,2012-12-13,fhrs_5_en-GB,5,,FHRS,5
64711,3 Bowley Court,Melton Mowbray,,,Browsers,Restaurant/Cafe/Canteen,1,5,,2359,5,,52.76483600000000,00860/0003/0/000,214,fhrs@melton.gov.uk,Melton,http://www.melton.gov.uk,-0.88439300000000,LE13 1XY,2015-02-09,fhrs_5_en-GB,5,,FHRS,5
64712,Daycare Centre Brunts Farmhouse,9 East End,Long Clawson,Melton Mowbray,Brunts Farmhouse Day Nursery,Hospitals/Childcare/Caring Premises,5,5,,7321,0,,52.84010300000000,02950/0009/2/000,214,fhrs@melton.gov.uk,Melton,http://www.melton.gov.uk,-0.92071000000000,LE14 4NG,2013-10-03,fhrs_5_en-GB,5,,FHRS,5
64713,Bryn Barn,38 High Street,Waltham On The Wolds,Melton Mowbray,Bryn Barn,Hotel/bed & breakfast/guest house,7842,5,,1293,5,,,00110/0038/0/000,214,fhrs@melton.gov.uk,Melton,http://www.melton.gov.uk,,LE14 4AA,2013-05-16,fhrs_5_en-GB,5,,FHRS,5
64714,Back Street,Buckminster,,,Buckminster Barn,Other catering premises,7841,,,482682,,,,12/00061/COMM,214,fhrs@melton.gov.uk,Melton,http://www.melton.gov.uk,,,2012-11-26,fhrs_exempt_en-GB,Exempt,,FHRS,
64715,Buckminster Primary School,School Lane,Buckminster,Grantham,Buckminster Primary School,School/college/university,7845,0,,24568,0,,52.79269900000000,07920/2005/2/000,214,fhrs@melton.gov.uk,Melton,http://www.melton.gov.uk,-0.69018900000000,NG33 5RZ,2013-12-19,fhrs_5_en-GB,5,,FHRS,0
64716,Buckminster General Store,2 Main Street,Buckminster,Grantham,Buckminster Stores,Retailers - other,4613,5,,16825,5,,52.79649100000000,05310/2015/2/000,214,fhrs@melton.gov.uk,Melton,http://www.melton.gov.uk,-0.69577100000000,NG33 5SA,2014-06-12,fhrs_5_en-GB,5,,FHRS,5
64717,Village Hall,Melton Road,Burton Lazars,,Burton Lazars Community Hall,Other catering premises,7841,,,482665,,,52.74420000000000,04/00027/COMM,214,fhrs@melton.gov.uk,Melton,http://www.melton.gov.uk,-0.86398900000000,LE14 2UR,2013-07-17,fhrs_exempt_en-GB,Exempt,,FHRS,
64718,Cafe Italia,10 Church Street,Melton Mowbray,,Caffe Italia,Restaurant/Cafe/Canteen,1,5,,17572,5,,52.76391500000000,06/00010/COMM,214,fhrs@melton.gov.uk,Melton,http://www.melton.gov.uk,-0.88674400000000,LE13 0PN,2013-07-03,fhrs_5_en-GB,5,,FHRS,5
64719,31 - 32 Market Place,Melton Mowbray,,,Caffe Nero,Restaurant/Cafe/Canteen,1,0,,14955,0,,52.76440400000000,05/00076/COMM,214,fhrs@melton.gov.uk,Melton,http://www.melton.gov.uk,-0.88621300000000,LE13 1XD,2012-06-13,fhrs_5_en-GB,5,,FHRS,5
64720,Street Record,Bowling Green,Melton Mowbray,,Canton Wok,Mobile caterer,7846,10,,627060,5,,,10/00012/COMM,214,fhrs@melton.gov.uk,Melton,http://www.melton.gov.uk,,,2014-03-31,fhrs_4_en-GB,4,,FHRS,5
64721,Captains Close Cp School,Saxelby Road,Asfordby,Melton Mowbray,Captains Close School,School/college/university,7845,0,,24500,0,,52.76569100000000,07830/2000/2/000,214,fhrs@melton.gov.uk,Melton,http://www.melton.gov.uk,-0.95766100000000,LE14 3TU,2013-11-13,fhrs_5_en-GB,5,,FHRS,5
64722,4 Cheapside,Melton Mowbray,,,Card Factory,Retailers - other,4613,,,482680,,,52.76459500000000,12/00018/COMM,214,fhrs@melton.gov.uk,Melton,http://www.melton.gov.uk,-0.88739300000000,LE13 0TP,2012-04-12,fhrs_exempt_en-GB,Exempt,,FHRS,
64723,The Castle Inn,33 Vicarage Lane,Eaton,,Castle Inn,Pub/bar/nightclub,7843,5,,32479,0,,52.85402700000000,09660/0033/0/000,214,fhrs@melton.gov.uk,Melton,http://www.melton.gov.uk,-0.81942200000000,NG32 1SP,2012-03-19,fhrs_5_en-GB,5,,FHRS,5
64724,Scalford Road,Melton Mowbray,,,Catherine Dalley House,Hospitals/Childcare/Caring Premises,5,5,,24548,0,,52.77217100000000,07890/2003/2/000,214,fhrs@melton.gov.uk,Melton,http://www.melton.gov.uk,-0.88711100000000,LE13 1JZ,2014-04-25,fhrs_5_en-GB,5,,FHRS,5
64725,Goldsmith Grange,Thorpe Side,Scalford,,Catherine Gilchrist Catering,Other catering premises,7841,0,,29222,0,,52.79877300000000,09/00063/COMM,214,fhrs@melton.gov.uk,Melton,http://www.melton.gov.uk,-0.85783600000000,LE14 4SB,2013-04-30,fhrs_5_en-GB,5,,FHRS,0
64726,"Pedigree Masterfoods , A Division O",Mill Street,Melton Mowbray,Leicestershire,Cat's Whiskers (Mars Petcare UK),Restaurant/Cafe/Canteen,1,5,,20662,5,,,06270/0000/0/000,214,fhrs@melton.gov.uk,Melton,http://www.melton.gov.uk,,LE13 1AZ,2013-10-24,fhrs_5_en-GB,5,,FHRS,5
64727,9 Windsor Street,Melton Mowbray,,,Chalkboard Cafe And Deli,Restaurant/Cafe/Canteen,1,5,,682999,5,,52.76490600000000,14/00024/COMM,214,fhrs@melton.gov.uk,Melton,http://www.melton.gov.uk,-0.88513300000000,LE13 1BU,2014-07-10,fhrs_5_en-GB,5,,FHRS,5
64728,15 Main Street,Muston,,,Chantry Cottage Bed & Breakfast,Hotel/bed & breakfast/guest house,7842,0,,637945,0,,52.93404100000000,14/00014/COMM,214,fhrs@melton.gov.uk,Melton,http://www.melton.gov.uk,-0.76935100000000,NG13 0FB,2014-03-19,fhrs_5_en-GB,5,,FHRS,0
64729,,,,,Charlotte's Tasty Treats,Mobile caterer,7846,5,,589657,0,,,13/00064/COMM,214,fhrs@melton.gov.uk,Melton,http://www.melton.gov.uk,,,2013-09-27,fhrs_5_en-GB,5,,FHRS,0
64730,62 Sherrard Street,Melton Mowbray,,,Cheeky Sprinkles,Retailers - other,4613,0,,365263,0,,52.76439400000000,12/00002/COMM,214,fhrs@melton.gov.uk,Melton,http://www.melton.gov.uk,-0.88416800000000,LE13 1XJ,2012-05-11,fhrs_5_en-GB,5,,FHRS,5
64731,The Granary,Main Street,Wartnaby,Melton Mowbray,Cherizena Coffee Beans,Manufacturers/packers,7839,,,17557,,,52.80086800000000,06/00009/COMM,214,fhrs@melton.gov.uk,Melton,http://www.melton.gov.uk,-0.94842500000000,LE14 3HY,2014-10-02,fhrs_exempt_en-GB,Exempt,,FHRS,
64732,The Cherry Tree,Edendale Road,Melton Mowbray,,Cherry Tree,Pub/bar/nightclub,7843,10,,8585,5,,52.75620900000000,03070/0000/2/000,214,fhrs@melton.gov.uk,Melton,http://www.melton.gov.uk,-0.89723800000000,LE13 0EW,2014-01-21,fhrs_3_en-GB,3,,FHRS,10
64733,Wok This Way,9 Park Road,Melton Mowbray,,China Town,Restaurant/Cafe/Canteen,1,5,,21205,5,,52.76703300000000,06950/0009/0/000,214,fhrs@melton.gov.uk,Melton,http://www.melton.gov.uk,-0.88954000000000,LE13 1TT,2013-10-02,fhrs_4_en-GB,4,,FHRS,10
64734,Church Farm House,25 Middle Street,Croxton Kerrial,,Church Farmhouse Cakes,Manufacturers/packers,7839,5,,247545,0,,52.85424600000000,06150/0025/0/000,214,fhrs@melton.gov.uk,Melton,http://www.melton.gov.uk,-0.76064900000000,NG32 1QP,2012-03-27,fhrs_5_en-GB,5,,FHRS,5
64735,57 King Street,Melton Mowbray,,,Coco,Retailers - other,4613,10,,25513,0,,52.76499700000000,08/00094/COMM,214,fhrs@melton.gov.uk,Melton,http://www.melton.gov.uk,-0.88612300000000,LE13 1XB,2014-10-02,fhrs_4_en-GB,4,,FHRS,0
64736,,,,,Colleen's Cakes,Manufacturers/packers,7839,5,,46361,0,,,11/00061/COMM,214,fhrs@melton.gov.uk,Melton,http://www.melton.gov.uk,,,2014-10-20,fhrs_5_en-GB,5,,FHRS,0
64737,Hoby Village Hall,32 Main Street,Hoby,,Community Hall,Other catering premises,7841,,,482667,,,52.75075400000000,05/00018/COMM,214,fhrs@melton.gov.uk,Melton,http://www.melton.gov.uk,-1.00848000000000,LE14 3DT,2014-03-26,fhrs_exempt_en-GB,Exempt,,FHRS,
64738,Fair Trade/Cooks Cabin,Unit 7 Farmers Market,Scalford Road,Melton Mowbray,Cooks Kitchen,Restaurant/Cafe/Canteen,1,0,,482681,0,,,12/00026/COMM,214,fhrs@melton.gov.uk,Melton,http://www.melton.gov.uk,,,2015-01-27,fhrs_5_en-GB,5,,FHRS,5
64739,1A Bradgate Lane,Asfordby,Melton Mowbray,,Co-operative Food,Retailers - supermarkets/hypermarkets,7840,0,,2387,0,,52.76445300000000,00890/0001/A/000,214,fhrs@melton.gov.uk,Melton,http://www.melton.gov.uk,-0.95177700000000,LE14 3YD,2014-10-24,fhrs_5_en-GB,5,,FHRS,5
64740,Co Op Superstore,54 Scalford Road,Melton Mowbray,,Co-operative Food,Retailers - supermarkets/hypermarkets,7840,0,,24547,0,,52.76923200000000,07890/0054/0/000,214,fhrs@melton.gov.uk,Melton,http://www.melton.gov.uk,-0.88817900000000,LE13 1JY,2013-08-02,fhrs_5_en-GB,5,,FHRS,5
64741,Co-Op Supermarket,13 Queen Street,Bottesford,Nottingham,Co-operative Society,Retailers - supermarkets/hypermarkets,7840,5,,9721,5,,52.94210000000000,04/00052/COMM,214,fhrs@melton.gov.uk,Melton,http://www.melton.gov.uk,-0.80320100000000,NG13 0AH,2013-01-31,fhrs_5_en-GB,5,,FHRS,5
64742,2 Market Place,Melton Mowbray,,,Costa Coffee,Restaurant/Cafe/Canteen,1,0,,307940,0,,52.76486100000000,12/00016/COMM,214,fhrs@melton.gov.uk,Melton,http://www.melton.gov.uk,-0.88701600000000,LE13 0PU,2014-04-08,fhrs_5_en-GB,5,,FHRS,5
64743,Craven Street Post Office,15 Craven Street,Melton Mowbray,,Craven Street Stores,Retailers - other,4613,5,,6779,5,,52.75702100000000,02500/0015/2/000,214,fhrs@melton.gov.uk,Melton,http://www.melton.gov.uk,-0.88311100000000,LE13 0QT,2013-01-21,fhrs_5_en-GB,5,,FHRS,5
64744,,,,,"Creative Cuisine, By Christina",Other catering premises,7841,5,,734177,5,,,15/00011/COMM,214,fhrs@melton.gov.uk,Melton,http://www.melton.gov.uk,,,2015-01-30,fhrs_5_en-GB,5,,FHRS,5
64745,,,,,Crem Pat,Other catering premises,7841,5,,504250,0,,,13/00003/COMM,214,fhrs@melton.gov.uk,Melton,http://www.melton.gov.uk,,,2013-01-29,fhrs_5_en-GB,5,,FHRS,5
64746,3 East End,Long Clawson,,,Crown And Plough,Pub/bar/nightclub,7843,5,,647337,5,,52.84010300000000,14/00015/COMM,214,fhrs@melton.gov.uk,Melton,http://www.melton.gov.uk,-0.92071000000000,LE14 4NG,2014-03-28,fhrs_5_en-GB,5,,FHRS,5
64747,Croxton Kerrial Sports And Social C,Knipton Road,Croxton Kerrial,,Croxton Kerrial  Sports & Social Club,Other catering premises,7841,,,14180,,,52.85927200000000,04770/6000/2/000,214,fhrs@melton.gov.uk,Melton,http://www.melton.gov.uk,-0.78505800000000,NG32 1RT,2012-01-20,fhrs_exempt_en-GB,Exempt,,FHRS,
64748,Croxton Kerrial CP School,School Lane,Croxton Kerrial,Grantham,Croxton Kerrial CP School,School/college/university,7845,5,,24570,5,,52.85318600000000,07930/0002/2/000,214,fhrs@melton.gov.uk,Melton,http://www.melton.gov.uk,-0.76250600000000,NG32 1QR,2014-07-08,fhrs_5_en-GB,5,,FHRS,5
64749,8 Burrough End,Great Dalby,Melton Mowbray,,Dairy Farm,Hotel/bed & breakfast/guest house,7842,5,,4650,5,,52.71976700000000,01250/0008/2/000,214,fhrs@melton.gov.uk,Melton,http://www.melton.gov.uk,-0.89947500000000,LE14 2EW,2012-08-17,fhrs_5_en-GB,5,,FHRS,5
64750,Butchers,27 Main Street,Stathern,Melton Mowbray,David Cox Butchers,Retailers - other,4613,0,,17186,0,,52.87201000000000,05650/0027/0/000,214,fhrs@melton.gov.uk,Melton,http://www.melton.gov.uk,-0.85468000000000,LE14 4HW,2013-05-22,fhrs_5_en-GB,5,,FHRS,5
64751,,,,,DD's Cakes,Other catering premises,7841,0,,410364,0,,,12/00036/COMM,214,fhrs@melton.gov.uk,Melton,http://www.melton.gov.uk,,,2012-07-03,fhrs_5_en-GB,5,,FHRS,5
64752,16 Princess Drive,Melton Mowbray,,,Dee's Snack Bar (T/At Beler Way),Mobile caterer,7846,5,,9411,5,,52.74984100000000,04/00009/COMM,214,fhrs@melton.gov.uk,Melton,http://www.melton.gov.uk,-0.88815400000000,LE13 0DJ,2014-07-24,fhrs_5_en-GB,5,,FHRS,5
64753,51 King Street,Melton Mowbray,,,Derek Jones Family Butchers,Retailers - other,4613,5,,14069,5,,52.76499600000000,04640/0051/0/000,214,fhrs@melton.gov.uk,Melton,http://www.melton.gov.uk,-0.88612300000000,LE13 1XB,2015-01-19,fhrs_5_en-GB,5,,FHRS,5
64754,Dickinson And Morris,Unit 8 Farmers Market,Scalford Road,Melton Mowbray,Dickinson & Morris,Retailers - other,4613,5,,732575,5,,,15/00015/COMM,214,fhrs@melton.gov.uk,Melton,http://www.melton.gov.uk,,,2015-01-27,fhrs_5_en-GB,5,,FHRS,5
64755,D And M Sausage Shop,8 Nottingham Street,Melton Mowbray,,Dickinson & Morris - The Sausage Shop,Retailers - other,4613,0,,20968,5,,52.76582600000000,06660/0008/0/000,214,fhrs@melton.gov.uk,Melton,http://www.melton.gov.uk,-0.88728800000000,LE13 1NW,2014-07-23,fhrs_5_en-GB,5,,FHRS,0
64756,Ye Olde Pie Shoppe,10 Nottingham Street,Melton Mowbray,,Dickinson & Morris - Ye Olde Pork Pie Shoppe,Retailers - other,4613,0,,20969,5,,52.76582600000000,06660/0010/0/000,214,fhrs@melton.gov.uk,Melton,http://www.melton.gov.uk,-0.88728800000000,LE13 1NW,2014-11-03,fhrs_5_en-GB,5,,FHRS,5
64757,53 Sherrard Street,Melton Mowbray,,,Dim Sum,Takeaway/sandwich shop,7844,10,,27523,15,,52.76473600000000,08090/0053/0/000,214,fhrs@melton.gov.uk,Melton,http://www.melton.gov.uk,-0.88421800000000,LE13 1XH,2014-11-18,fhrs_2_en-GB,2,,FHRS,15
64758,61 King Street,Melton Mowbray,,,Dolce Vita,Restaurant/Cafe/Canteen,1,5,,576967,10,,52.76499700000000,12/00051/COMM,214,fhrs@melton.gov.uk,Melton,http://www.melton.gov.uk,-0.88612300000000,LE13 1XB,2014-04-15,fhrs_3_en-GB,3,,FHRS,10
64759,Dominos Pizza,30 Sherrard Street,Melton Mowbray,,Domino's Pizza,Takeaway/sandwich shop,7844,0,,627070,0,,52.76439400000000,13/00075/COMM,214,fhrs@melton.gov.uk,Melton,http://www.melton.gov.uk,-0.88416800000000,LE13 1XJ,2013-11-07,fhrs_5_en-GB,5,,FHRS,0
64760,Railway Station,Burton Street,Melton Mowbray,,Don't Be Latte,Restaurant/Cafe/Canteen,1,5,,703587,5,,52.76261700000000,14/00049/COMM,214,fhrs@melton.gov.uk,Melton,http://www.melton.gov.uk,-0.88452400000000,LE13 1AF,2014-09-25,fhrs_5_en-GB,5,,FHRS,5
64761,Canal Lane,STATHERN,Melton Mowbray,,Dove Cottage Day Hospice,Hospitals/Childcare/Caring Premises,5,5,,1584,5,,52.88667400000000,00290/2000/2/000,214,fhrs@melton.gov.uk,Melton,http://www.melton.gov.uk,-0.88027300000000,LE14 4EX,2014-01-21,fhrs_5_en-GB,5,,FHRS,5
64762,Dove Cottage Day Hospice,Canal Lane,Stathern,,Dove Cottage Tea Room,Restaurant/Cafe/Canteen,1,5,,33826,5,,52.88667400000000,10/00069/COMM,214,fhrs@melton.gov.uk,Melton,http://www.melton.gov.uk,-0.88027300000000,LE14 4EX,2014-01-21,fhrs_5_en-GB,5,,FHRS,5
64763,Early Years Nursery Ltd,British School Gardens,Melton Mowbray,,Early Years Nursery,Hospitals/Childcare/Caring Premises,5,5,,20873,5,,52.76671700000000,06540/2000/2/000,214,fhrs@melton.gov.uk,Melton,http://www.melton.gov.uk,-0.88550100000000,LE13 1JE,2013-09-04,fhrs_5_en-GB,5,,FHRS,5
64764,Swallowdale Primary School,Early Years Nursery,Dalby Road,Melton Mowbray,Early Years Nursery,Hospitals/Childcare/Caring Premises,5,0,,18146,0,,52.75462000000000,06/00078/COMM,214,fhrs@melton.gov.uk,Melton,http://www.melton.gov.uk,-0.88969200000000,LE13 0BJ,2014-03-24,fhrs_5_en-GB,5,,FHRS,0
64765,Dalby Grange,Warwick Lodge,Warwick Road,Melton Mowbray,East Midlands Centre For Neurobehavioural Rehabilitation,Hospitals/Childcare/Caring Premises,5,0,,626523,0,,52.75669800000000,14/00003/COMM,214,fhrs@melton.gov.uk,Melton,http://www.melton.gov.uk,-0.88697200000000,LE13 0RD,2014-01-17,fhrs_5_en-GB,5,,FHRS,5
64766,,,,,Eaton Pantry,Manufacturers/packers,7839,0,,14690,0,,,05/00038/COMM,214,fhrs@melton.gov.uk,Melton,http://www.melton.gov.uk,,,2013-04-24,fhrs_5_en-GB,5,,FHRS,5
64767,13 - 15 Nottingham Street,Melton Mowbray,,,Edinburgh Woollen Mill,Retailers - other,4613,,,482672,,,52.76577200000000,08/00026/COMM,214,fhrs@melton.gov.uk,Melton,http://www.melton.gov.uk,-0.88825300000000,LE13 1NN,2013-01-10,fhrs_exempt_en-GB,Exempt,,FHRS,
64768,Social Club,18 Main Street,Edmondthorpe,,Edmonthorpe Social Club,Pub/bar/nightclub,7843,,,24854,,,52.75004600000000,08/00020/COMM,214,fhrs@melton.gov.uk,Melton,http://www.melton.gov.uk,-0.72702700000000,LE14 2JU,2014-03-28,fhrs_exempt_en-GB,Exempt,,FHRS,
64769,Egerton Lodge,Wilton Road,Melton Mowbray,,Egerton Lodge Ltd,Hospitals/Childcare/Caring Premises,5,0,,40878,5,,52.76618700000000,10180/2008/2/000,214,fhrs@melton.gov.uk,Melton,http://www.melton.gov.uk,-0.88939800000000,LE13 0UJ,2014-04-28,fhrs_5_en-GB,5,,FHRS,0
64770,Leicester Road,Melton Mowbray,,,Egerton Park Cricket Club,Other catering premises,7841,,,14315,,,52.76297300000000,04900/2020/2/000,214,fhrs@melton.gov.uk,Melton,http://www.melton.gov.uk,-0.89468200000000,LE13 0DA,2014-03-28,fhrs_exempt_en-GB,Exempt,,FHRS,
64771,,,,,Elizabeth Stenson,Manufacturers/packers,7839,5,,482676,0,,,11/00065/COMM,214,fhrs@melton.gov.uk,Melton,http://www.melton.gov.uk,,,2011-10-24,fhrs_5_en-GB,5,,FHRS,5
64772,The Elms Farm,52 East End,Long Clawson,,Elms Farm B&B,Hotel/bed & breakfast/guest house,7842,5,,7324,5,,52.84010300000000,02950/0052/2/000,214,fhrs@melton.gov.uk,Melton,http://www.melton.gov.uk,-0.92071000000000,LE14 4NG,2012-11-23,fhrs_5_en-GB,5,,FHRS,5
64773,97 Main Street,Asfordby,,,Empress Of India,Restaurant/Cafe/Canteen,1,5,,32965,5,,52.76418800000000,10/00016/COMM,214,fhrs@melton.gov.uk,Melton,http://www.melton.gov.uk,-0.94825700000000,LE14 3RZ,2014-10-22,fhrs_4_en-GB,4,,FHRS,10
64774,13 Burton Street,Melton Mowbray,,,Euro Mini Market,Retailers - other,4613,,,46533,,,52.76373900000000,11/00071/COMM,214,fhrs@melton.gov.uk,Melton,http://www.melton.gov.uk,-0.88523700000000,LE13 1AE,2014-02-04,fhrs_5_en-GB,5,,FHRS,
64775,Field OS 5612 And 0076,The Driveway,Eye Kettleby,,Eye Kettleby Lakes,Restaurant/Cafe/Canteen,1,5,,18319,5,,,06/00105/COMM,214,fhrs@melton.gov.uk,Melton,http://www.melton.gov.uk,,,2013-07-24,fhrs_5_en-GB,5,,FHRS,5
64776,Scalford Road,Melton Mowbray,,,Fair Game Foods,Mobile caterer,7846,10,,198038,0,,,10/00044/COMM,214,fhrs@melton.gov.uk,Melton,http://www.melton.gov.uk,,,2015-01-27,fhrs_4_en-GB,4,,FHRS,5
64777,Community Centre,62 - 64 Drummond Walk,Melton Mowbray,,Fairmead Children's And Community Centre,Other catering premises,7841,,,482817,,,52.77451600000000,11/00024/COMM,214,fhrs@melton.gov.uk,Melton,http://www.melton.gov.uk,-0.89178000000000,LE13 1JF,2012-05-23,fhrs_exempt_en-GB,Exempt,,FHRS,
64778,Butchers,27 Main Street,Stathern,Melton Mowbray,Fat Cheeks Food Company,Manufacturers/packers,7839,5,,605711,0,,52.87201000000000,13/00020/COMM,214,fhrs@melton.gov.uk,Melton,http://www.melton.gov.uk,-0.85468000000000,LE14 4HW,2014-05-14,fhrs_5_en-GB,5,,FHRS,5
64779,,,,,Fat Mo's Cakes And Bakes,Retailers - other,4613,5,,569256,0,,,13/00046/COMM,214,fhrs@melton.gov.uk,Melton,http://www.melton.gov.uk,,,2013-07-17,fhrs_5_en-GB,5,,FHRS,5
64780,8 Market Place,Melton Mowbray,,,Fern Mae's Traditional Sweet Shop,Retailers - other,4613,0,,484860,0,,,09/00016/COMM,214,fhrs@melton.gov.uk,Melton,http://www.melton.gov.uk,,,2012-05-08,fhrs_5_en-GB,5,,FHRS,5
64781,Fish And Chip Shop,3 Queen Street,Bottesford,,Fish & Chip Bar,Takeaway/sandwich shop,7844,5,,24007,5,,52.94210000000000,07240/0003/0/000,214,fhrs@melton.gov.uk,Melton,http://www.melton.gov.uk,-0.80320100000000,NG13 0AH,2014-06-12,fhrs_4_en-GB,4,,FHRS,10
64782,63 Main Road,Kirby Bellars,,,Flying Childers,Pub/bar/nightclub,7843,0,,16654,0,,52.75089100000000,05180/2000/2/000,214,fhrs@melton.gov.uk,Melton,http://www.melton.gov.uk,-0.94106500000000,LE14 2DU,2013-09-04,fhrs_5_en-GB,5,,FHRS,5
64783,Fox And Hounds,6 Somerby Road,Knossington,,Fox & Hounds,Pub/bar/nightclub,7843,5,,27869,5,,52.67106100000000,08260/0006/0/000,214,fhrs@melton.gov.uk,Melton,http://www.melton.gov.uk,-0.81842800000000,LE15 8LY,2013-10-22,fhrs_5_en-GB,5,,FHRS,5
64784,11 Faldo Drive,Melton Mowbray,,,Framland Residential Home,Hospitals/Childcare/Caring Premises,5,10,,8695,15,,52.78003000000000,03180/0011/2/000,214,fhrs@melton.gov.uk,Melton,http://www.melton.gov.uk,-0.88541300000000,LE13 1RH,2014-08-14,fhrs_2_en-GB,2,,FHRS,10
64785,Francesca's Fine Foods,Market 11 - Mobile Catering Unit,Market Place,Melton Mowbray,Francesca's Fresh Foods,Mobile caterer,7846,0,,187594,0,,,06/00045/COMM,214,fhrs@melton.gov.uk,Melton,http://www.melton.gov.uk,,,2013-09-13,fhrs_5_en-GB,5,,FHRS,5
64786,Frisby Church Of England Primary Sc,Hall Orchard Lane,Frisby On The Wreake,Melton Mowbray,Frisby After School Club,Hospitals/Childcare/Caring Premises,5,0,,18154,0,,52.75140100000000,06/00079/COMM,214,fhrs@melton.gov.uk,Melton,http://www.melton.gov.uk,-0.97142600000000,LE14 2NH,2014-02-10,fhrs_5_en-GB,5,,FHRS,0
64787,Village Stores,17 Main Street,Frisby On The Wreake,,Frisby News,Retailers - other,4613,5,,16965,5,,52.75260700000000,05410/0017/0/000,214,fhrs@melton.gov.uk,Melton,http://www.melton.gov.uk,-0.97157500000000,LE14 2NJ,2014-10-30,fhrs_5_en-GB,5,,FHRS,5
64788,Old School House,Church Lane,Frisby On The Wreake,Melton Mowbray,Frisby Pre-School,Hospitals/Childcare/Caring Premises,5,5,,5404,5,,52.75323400000000,01830/0008/2/000,214,fhrs@melton.gov.uk,Melton,http://www.melton.gov.uk,-0.97133800000000,LE14 2NQ,2013-09-06,fhrs_5_en-GB,5,,FHRS,5
64789,Frisby Church Of England Primary Sc,Hall Orchard Lane,Frisby On The Wreake,Melton Mowbray,Frisby Primary School,Hospitals/Childcare/Caring Premises,5,5,,9305,0,,52.75140100000000,03980/0000/2/000,214,fhrs@melton.gov.uk,Melton,http://www.melton.gov.uk,-0.97142600000000,LE14 2NH,2013-06-14,fhrs_5_en-GB,5,,FHRS,5
64790,Village Hall,15 Water Lane,Frisby On The Wreake,,Frisby Village Hall,Other catering premises,7841,,,657252,,,52.75295000000000,09860/0015/2/000,214,fhrs@melton.gov.uk,Melton,http://www.melton.gov.uk,-0.97380400000000,LE14 2NP,2014-03-26,fhrs_exempt_en-GB,Exempt,,FHRS,
64791,22 Ashby Road,Gaddesby,Leicester,,Gaddesby Primary School,School/college/university,7845,5,,1384,0,,52.70797200000000,00160/2002/2/000,214,fhrs@melton.gov.uk,Melton,http://www.melton.gov.uk,-0.97895900000000,LE7 4WF,2013-03-01,fhrs_5_en-GB,5,,FHRS,5
64792,Village Hall,20 Ashby Road,Gaddesby,,Gaddesby School Community Limited Pre-School,Hospitals/Childcare/Caring Premises,5,0,,589656,0,,52.70808600000000,13/00055/COMM,214,fhrs@melton.gov.uk,Melton,http://www.melton.gov.uk,-0.97963800000000,LE7 4WF,2013-09-26,fhrs_5_en-GB,5,,FHRS,0
64793,Gates Nurseries And Garden Centre,Somerby Road,Cold Overton,,Gates Nurseries & Garden Centre,Restaurant/Cafe/Canteen,1,0,,27856,5,,52.68052600000000,08250/2001/2/000,214,fhrs@melton.gov.uk,Melton,http://www.melton.gov.uk,-0.80486000000000,LE15 7QB,2014-02-13,fhrs_5_en-GB,5,,FHRS,5
64794,,,,,Gills Gift Shop,Retailers - other,4613,,,718100,,,,14/00066/COMM,214,fhrs@melton.gov.uk,Melton,http://www.melton.gov.uk,,,2014-11-19,fhrs_exempt_en-GB,Exempt,,FHRS,
64795,,,,,Gill's Kitchen,Other catering premises,7841,5,,6775,5,,,02490/0048/0/000,214,fhrs@melton.gov.uk,Melton,http://www.melton.gov.uk,,,2013-02-18,fhrs_5_en-GB,5,,FHRS,5
64796,26 Church Lane,Muston,,,Glebe House,Hotel/bed & breakfast/guest house,7842,5,,482822,5,,52.93223000000000,11/00038/COMM,214,fhrs@melton.gov.uk,Melton,http://www.melton.gov.uk,-0.76900100000000,NG13 0FD,2012-08-08,fhrs_5_en-GB,5,,FHRS,5
64797,17 Windsor Street,Melton Mowbray,,,Golden Choice,Takeaway/sandwich shop,7844,20,,41214,10,,52.76490600000000,10230/0017/0/000,214,fhrs@melton.gov.uk,Melton,http://www.melton.gov.uk,-0.88513300000000,LE13 1BU,2014-07-02,fhrs_1_en-GB,1,,FHRS,10
64798,4 Jubilee Street,Melton Mowbray,Leicestershire,,Goodlife Health Club,Retailers - other,4613,,,482793,,,52.76776700000000,04530/0004/2/000,214,fhrs@melton.gov.uk,Melton,http://www.melton.gov.uk,-0.88440700000000,LE13 1ND,2014-03-31,fhrs_exempt_en-GB,Exempt,,FHRS,
64799,Gorse House,33 Main Street,Grimston,Melton Mowbray,Gorse House,Hotel/bed & breakfast/guest house,7842,10,,17005,0,,52.79025300000000,05450/0033/2/000,214,fhrs@melton.gov.uk,Melton,http://www.melton.gov.uk,-0.98370800000000,LE14 3BZ,2014-10-02,fhrs_4_en-GB,4,,FHRS,0
64800,5 Market Place,Melton Mowbray,,,Gracies Sandwich Bar,Takeaway/sandwich shop,7844,0,,28640,0,,52.76440400000000,09/00015/COMM,214,fhrs@melton.gov.uk,Melton,http://www.melton.gov.uk,-0.88621300000000,LE13 1XD,2013-08-12,fhrs_5_en-GB,5,,FHRS,5
64801,,,,,Granny Mirany,Other catering premises,7841,0,,331938,5,,,12/00019/COMM,214,fhrs@melton.gov.uk,Melton,http://www.melton.gov.uk,,,2012-04-13,fhrs_5_en-GB,5,,FHRS,0
64802,4 Main Street,Burrough On The Hill,Melton Mowbray,,Grants,Pub/bar/nightclub,7843,5,,620014,5,,52.68871400000000,13/00082/COMM,214,fhrs@melton.gov.uk,Melton,http://www.melton.gov.uk,-0.88112600000000,LE14 2JQ,2014-10-21,fhrs_5_en-GB,5,,FHRS,5
64803,Great Dalby Primary School,Top End,Great Dalby,Melton Mowbray,Great Dalby School,School/college/university,7845,5,,32322,5,,52.72255000000000,09460/2002/2/000,214,fhrs@melton.gov.uk,Melton,http://www.melton.gov.uk,-0.90491300000000,LE14 2HA,2013-11-22,fhrs_5_en-GB,5,,FHRS,5
64804,Village Hall,19 Top End,Great Dalby,,Great Dalby Village Hall,Other catering premises,7841,,,32321,,,52.72255000000000,09460/0019/2/000,214,fhrs@melton.gov.uk,Melton,http://www.melton.gov.uk,-0.90491300000000,LE14 2HA,2011-10-24,fhrs_exempt_en-GB,Exempt,,FHRS,
64805,26 Market Place,Melton Mowbray,,,Greggs,Takeaway/sandwich shop,7844,0,,17364,0,,52.76440400000000,05890/0026/0/000,214,fhrs@melton.gov.uk,Melton,http://www.melton.gov.uk,-0.88621300000000,LE13 1XD,2014-09-26,fhrs_5_en-GB,5,,FHRS,0
64806,Egerton View,Melton Mowbray,,,Gretton Court,Hospitals/Childcare/Caring Premises,5,0,,14318,0,,52.76408300000000,04900/4000/2/000,214,fhrs@melton.gov.uk,Melton,http://www.melton.gov.uk,-0.89515700000000,LE13 0RW,2014-02-19,fhrs_5_en-GB,5,,FHRS,5
64807,Village Hall,28 Main Street,Grimston,,Grimston Village Hall,Other catering premises,7841,,,484854,,,52.79025300000000,03/00011/COMM,214,fhrs@melton.gov.uk,Melton,http://www.melton.gov.uk,-0.98370800000000,LE14 3BZ,2014-03-26,fhrs_exempt_en-GB,Exempt,,FHRS,
64808,Celtic Lakes,Hoby Road,Asfordby,Melton Mowbray,Hagar The Horrible's Cafe,Restaurant/Cafe/Canteen,1,,,703588,,,52.76055800000000,14/00050/COMM,214,fhrs@melton.gov.uk,Melton,http://www.melton.gov.uk,-0.96897200000000,LE14 3TL,2014-10-30,fhrs_5_en-GB,5,,FHRS,
64809,Snow Hill,Melton Mowbray,,,Halfords,Retailers - other,4613,,,617609,,,,08210/2006/2/000,214,fhrs@melton.gov.uk,Melton,http://www.melton.gov.uk,,,2014-01-06,fhrs_exempt_en-GB,Exempt,,FHRS,
64810,1 Main Street,Holwell,Melton Mowbray,,Hall Farm,Hotel/bed & breakfast/guest house,7842,10,,482804,5,,52.80553900000000,09/00066/COMM,214,fhrs@melton.gov.uk,Melton,http://www.melton.gov.uk,-0.91005400000000,LE14 4SZ,2012-11-15,fhrs_4_en-GB,4,,FHRS,5
64811,Tennis Avenue,Melton Mowbray,,,Hamilton Lawn Tennis Club,Restaurant/Cafe/Canteen,1,20,,28401,15,,52.75511500000000,08940/2000/2/000,214,fhrs@melton.gov.uk,Melton,http://www.melton.gov.uk,-0.88591600000000,LE13 0RB,2014-10-08,fhrs_1_en-GB,1,,FHRS,15
64812,,,,,Handmade In Harby,Other catering premises,7841,5,,722649,0,,,14/00073/COMM,214,fhrs@melton.gov.uk,Melton,http://www.melton.gov.uk,,,2014-12-10,fhrs_5_en-GB,5,,FHRS,5
64813,0 Nottingham Road,Melton Mowbray,,,Hanson,Mobile caterer,7846,10,,32783,5,,,10/00005/COMM,214,fhrs@melton.gov.uk,Melton,http://www.melton.gov.uk,,,2014-02-19,fhrs_4_en-GB,4,,FHRS,5
64814,32 Burton Street,Melton Mowbray,,,Happy House,Takeaway/sandwich shop,7844,5,,4749,5,,52.76261700000000,01320/0032/0/000,214,fhrs@melton.gov.uk,Melton,http://www.melton.gov.uk,-0.88452400000000,LE13 1AF,2014-11-19,fhrs_4_en-GB,4,,FHRS,10
64815,Harby Church Of England Primary Sch,School Lane,Harby,Melton Mowbray,Harby C Of E Primary School,School/college/university,7845,0,,24575,0,,52.87304500000000,07940/2001/2/000,214,fhrs@melton.gov.uk,Melton,http://www.melton.gov.uk,-0.89366900000000,LE14 4BZ,2014-04-29,fhrs_5_en-GB,5,,FHRS,5
64816,Harby Garage,41 Nether Street,Harby,,Harby Garage & The Tea Junction,Retailers - other,4613,5,,20751,10,,52.87339500000000,06390/2001/2/000,214,fhrs@melton.gov.uk,Melton,http://www.melton.gov.uk,-0.89551700000000,LE14 4BW,2013-12-04,fhrs_3_en-GB,3,,FHRS,10
64817,Hillside House,27 Melton Road,Burton Lazars,Melton Mowbray,Hillside House,Hotel/bed & breakfast/guest house,7842,0,,20463,5,,52.74420000000000,06020/0027/2/000,214,fhrs@melton.gov.uk,Melton,http://www.melton.gov.uk,-0.86398900000000,LE14 2UR,2013-04-24,fhrs_5_en-GB,5,,FHRS,5
64818,,,,,Hogroast Hogroast,Mobile caterer,7846,10,,693121,5,,,14/00047/COMM,214,fhrs@melton.gov.uk,Melton,http://www.melton.gov.uk,,,2014-08-20,fhrs_4_en-GB,4,,FHRS,5
64819,7 Cheapside,Melton Mowbray,,,Holland & Barrett,Retailers - other,4613,0,,33857,5,,52.76459500000000,10/00071/COMM,214,fhrs@melton.gov.uk,Melton,http://www.melton.gov.uk,-0.88739300000000,LE13 0TP,2010-11-30,fhrs_5_en-GB,5,,FHRS,5
64820,Skylark Farm,Tilton Road,Twyford,Melton Mowbray,Holland's Nurseries,Restaurant/Cafe/Canteen,1,5,,578442,0,,52.68193200000000,13/00053/COMM,214,fhrs@melton.gov.uk,Melton,http://www.melton.gov.uk,-0.92640200000000,LE14 2HZ,2013-08-14,fhrs_5_en-GB,5,,FHRS,0
64821,41 Welby Road,Asfordby Hill,,,Holwell Sports And Social Club,Pub/bar/nightclub,7843,10,,32653,5,,52.77040000000000,09940/0041/0/000,214,fhrs@melton.gov.uk,Melton,http://www.melton.gov.uk,-0.92619900000000,LE14 3RD,2011-10-10,fhrs_4_en-GB,4,,FHRS,5
64822,Hose C Of E Primary School,20 Bolton Lane,Hose,Melton Mowbray,Hose C Of E Primary School,School/college/university,7845,0,,2311,0,,52.85595300000000,00800/0020/2/000,214,fhrs@melton.gov.uk,Melton,http://www.melton.gov.uk,-0.90797500000000,LE14 4JE,2014-06-10,fhrs_5_en-GB,5,,FHRS,5
64823,The Post Office And Stores,Mantles Yard,The Green,Hose,Hose Post Office And Stores,Retailers - other,4613,5,,627064,5,,52.85751500000000,11/00015/COMM,214,fhrs@melton.gov.uk,Melton,http://www.melton.gov.uk,-0.90679200000000,LE14 4JP,2012-07-10,fhrs_5_en-GB,5,,FHRS,5
64824,Village Hall,Harby Lane,Hose,,Hose Village Hall,Other catering premises,7841,,,482792,,,52.85791100000000,04020/2000/2/000,214,fhrs@melton.gov.uk,Melton,http://www.melton.gov.uk,-0.90391600000000,LE14 4JR,2011-11-14,fhrs_exempt_en-GB,Exempt,,FHRS,
64825,Lodge Farmhouse,Melton Road,Nether Broughton,Melton Mowbray,Hot Rocks Pizza,Mobile caterer,7846,0,,482821,0,,52.81740800000000,11/00031/COMM,214,fhrs@melton.gov.uk,Melton,http://www.melton.gov.uk,-0.96050500000000,LE14 3ES,2013-10-05,fhrs_5_en-GB,5,,FHRS,5
64826,12 Church Lane,Old Dalby,,,Hunters Lodge,Hospitals/Childcare/Caring Premises,5,0,,5486,0,,52.80580000000000,01890/2004/2/000,214,fhrs@melton.gov.uk,Melton,http://www.melton.gov.uk,-1.00214100000000,LE14 3LB,2014-04-01,fhrs_5_en-GB,5,,FHRS,5
64827,Cattle Market - I Rippon Cheese Sta,Scalford Road,Melton Mowbray,,Ian Rippon,Mobile caterer,7846,10,,401692,10,,,12/00035/COMM,214,fhrs@melton.gov.uk,Melton,http://www.melton.gov.uk,,,2014-03-18,fhrs_3_en-GB,3,,FHRS,10
64828,,,,,Ian Rippon Mobile Catering Unit,Mobile caterer,7846,5,,657254,5,,,14/00018/COMM,214,fhrs@melton.gov.uk,Melton,http://www.melton.gov.uk,,,2014-04-16,fhrs_5_en-GB,5,,FHRS,5
64829,Iceland,28 High Street,Melton Mowbray,Leicestershire,Iceland Frozen Foods Plc,Retailers - other,4613,5,,13572,5,,52.76508000000000,04210/0028/0/000,214,fhrs@melton.gov.uk,Melton,http://www.melton.gov.uk,-0.88830000000000,LE13 0TR,2012-08-10,fhrs_5_en-GB,5,,FHRS,5
64830,,,,,Jackie's Catering,Other catering premises,7841,0,,683002,0,,,14/00031/COMM,214,fhrs@melton.gov.uk,Melton,http://www.melton.gov.uk,,,2014-07-17,fhrs_5_en-GB,5,,FHRS,0
64831,,,,,Jane Armitage,Manufacturers/packers,7839,10,,482832,0,,,12/00028/COMM,214,fhrs@melton.gov.uk,Melton,http://www.melton.gov.uk,,,2012-05-23,fhrs_4_en-GB,4,,FHRS,5
64832,,,,,Jan's Homemade Bakes,Manufacturers/packers,7839,5,,594409,0,,,13/00068/COMM,214,fhrs@melton.gov.uk,Melton,http://www.melton.gov.uk,,,2013-10-15,fhrs_5_en-GB,5,,FHRS,0
64833,The Jasmine House,44 Sherrard Street,Melton Mowbray,,Jasmine House,Restaurant/Cafe/Canteen,1,0,,27520,5,,52.76439400000000,08090/0044/0/000,214,fhrs@melton.gov.uk,Melton,http://www.melton.gov.uk,-0.88416800000000,LE13 1XJ,2013-10-23,fhrs_5_en-GB,5,,FHRS,5
64834,Jim Mellin - Fishmonger,Cheapside,Melton Mowbray,,Jim Mellin,Mobile caterer,7846,10,,627061,0,,,10/00046/COMM,214,fhrs@melton.gov.uk,Melton,http://www.melton.gov.uk,,,2014-12-02,fhrs_4_en-GB,4,,FHRS,0
64835,John Ferneley High School,Scalford Road,Melton Mowbray,Leicestershire,John Ferneley College,School/college/university,7845,5,,24549,5,,52.78628200000000,07890/2005/2/000,214,fhrs@melton.gov.uk,Melton,http://www.melton.gov.uk,-0.88777400000000,LE13 1LB,2013-10-15,fhrs_5_en-GB,5,,FHRS,5
64836,Rockingham Cars,Mill Street,Melton Mowbray,,Jumping Jelly Beans,Restaurant/Cafe/Canteen,1,5,,605713,0,,52.76326700000000,13/00069/COMM,214,fhrs@melton.gov.uk,Melton,http://www.melton.gov.uk,-0.88283300000000,LE13 1AY,2013-11-13,fhrs_5_en-GB,5,,FHRS,5
64837,Kettleby Foods,2 Samworth Way,Melton Mowbray,,Kettleby Foods Staff Canteen (Unique),Restaurant/Cafe/Canteen,1,0,,14303,0,,,04900/1001/1/001,214,fhrs@melton.gov.uk,Melton,http://www.melton.gov.uk,,,2014-01-13,fhrs_5_en-GB,5,,FHRS,0
64838,1 Scalford Road,Melton Mowbray,,,KFC,Restaurant/Cafe/Canteen,1,10,,24734,5,,52.76923200000000,08/00008/COMM,214,fhrs@melton.gov.uk,Melton,http://www.melton.gov.uk,-0.88817900000000,LE13 1JY,2013-11-11,fhrs_2_en-GB,2,,FHRS,15
64839,Gaddesby Primary School,22 Ashby Road,Gaddesby,Leicester,Kids' Club,Hospitals/Childcare/Caring Premises,5,5,,18188,0,,52.70808600000000,06/00085/COMM,214,fhrs@melton.gov.uk,Melton,http://www.melton.gov.uk,-0.97963800000000,LE7 4WF,2013-07-16,fhrs_5_en-GB,5,,FHRS,5
64840,Day Nursery,King Edward VII Upper School,Burton Road,Melton Mowbray,King Edward VII Daycare Nursery,Hospitals/Childcare/Caring Premises,5,0,,4723,5,,52.75381400000000,01310/2000/2/001,214,fhrs@melton.gov.uk,Melton,http://www.melton.gov.uk,-0.87572500000000,LE13 1DR,2014-06-16,fhrs_5_en-GB,5,,FHRS,5
64841,7 Bradgate Lane,Asfordby,,,Kings Chinese Takeaway,Takeaway/sandwich shop,7844,5,,2392,5,,52.76445300000000,00890/0007/0/000,214,fhrs@melton.gov.uk,Melton,http://www.melton.gov.uk,-0.95177700000000,LE14 3YD,2014-03-19,fhrs_5_en-GB,5,,FHRS,5
64842,The Bakery,19 Kings Road,Melton Mowbray,Leicestershire,Kings Road Bakery,Manufacturers/packers,7839,10,,14055,5,,52.76653200000000,04630/0019/0/000,214,fhrs@melton.gov.uk,Melton,http://www.melton.gov.uk,-0.87919200000000,LE13 1QF,2014-03-17,fhrs_3_en-GB,3,,FHRS,10
64843,Village Hall,21 Main Street,Kirby Bellars,,Kirby Bellars Village Hall,Other catering premises,7841,,,482796,,,52.75276100000000,05/00042/COMM,214,fhrs@melton.gov.uk,Melton,http://www.melton.gov.uk,-0.93910800000000,LE14 2EA,2013-05-07,fhrs_exempt_en-GB,Exempt,,FHRS,
64844,43 Sherrard Street,Melton Mowbray,,,Knapps Family Butchers,Retailers - other,4613,5,,479947,5,,52.76473600000000,12/00046/COMM,214,fhrs@melton.gov.uk,Melton,http://www.melton.gov.uk,-0.88421800000000,LE13 1XH,2014-06-10,fhrs_5_en-GB,5,,FHRS,5
64845,Knipton Village Hall,Church Hill,Knipton,Grantham,Knipton Community Centre,Other catering premises,7841,,,482664,,,,01740/6000/2/000,214,fhrs@melton.gov.uk,Melton,http://www.melton.gov.uk,,,2013-06-06,fhrs_exempt_en-GB,Exempt,,FHRS,
64846,Post Office,3 Main Street,Knipton,,Knipton Post Office,Retailers - other,4613,5,,17062,10,,52.87139400000000,05510/0000/2/000,214,fhrs@melton.gov.uk,Melton,http://www.melton.gov.uk,-0.77489900000000,NG32 1RW,2014-11-11,fhrs_4_en-GB,4,,FHRS,5
64847,Village Hall,Main Street,Knossington,,Knossington And Somerby Pre-School,Hospitals/Childcare/Caring Premises,5,5,,18345,5,,52.66933000000000,06/00110/COMM,214,fhrs@melton.gov.uk,Melton,http://www.melton.gov.uk,-0.81529500000000,LE15 8LT,2011-11-21,fhrs_5_en-GB,5,,FHRS,5
64848,The Grange Therapeutic School,15 - 17 Somerby Road,Knossington,Oakham,Knossington Grange School,School/college/university,7845,0,,27870,5,,52.67106100000000,08260/0015/2/000,214,fhrs@melton.gov.uk,Melton,http://www.melton.gov.uk,-0.81842800000000,LE15 8LY,2013-11-01,fhrs_5_en-GB,5,,FHRS,0
64849,1 - 3 Leicester Street,Melton Mowbray,,,La Torre Italian Restaurant,Restaurant/Cafe/Canteen,1,5,,9442,5,,52.76416000000000,04/00013/COMM,214,fhrs@melton.gov.uk,Melton,http://www.melton.gov.uk,-0.88799700000000,LE13 0PP,2015-01-07,fhrs_5_en-GB,5,,FHRS,5
64850,Lakeview House,Landyke Lane,Holwell,,Lakeview Fisheries Cafe,Restaurant/Cafe/Canteen,1,0,,25168,0,,52.81923200000000,08/00051/COMM,214,fhrs@melton.gov.uk,Melton,http://www.melton.gov.uk,-0.90141700000000,LE14 4SX,2013-07-03,fhrs_5_en-GB,5,,FHRS,5
64851,Langar Karting And Quad Centre,Harby Road,Langar,Nottingham,Langar Karting,Restaurant/Cafe/Canteen,1,0,,14827,0,,52.88984900000000,05/00058/COMM,214,fhrs@melton.gov.uk,Melton,http://www.melton.gov.uk,-0.90658900000000,NG13 9HY,2013-10-22,fhrs_5_en-GB,5,,FHRS,0
64852,111A Sandy Lane,Melton Mowbray,,,Langholme B And B,Hotel/bed & breakfast/guest house,7842,0,,703589,0,,52.75180900000000,14/00054/COMM,214,fhrs@melton.gov.uk,Melton,http://www.melton.gov.uk,-0.88429600000000,LE13 0AW,2014-09-24,fhrs_5_en-GB,5,,FHRS,5
64853,Unit 6 Lara House,Normanton Lane,Bottesford,,Lara House Day Nursery,Hospitals/Childcare/Caring Premises,5,5,,20870,10,,52.94545000000000,06530/2013/2/000,214,fhrs@melton.gov.uk,Melton,http://www.melton.gov.uk,-0.80203700000000,NG13 0EL,2014-10-01,fhrs_4_en-GB,4,,FHRS,5
64854,Three Shires Nursery,Orston Lane,Bottesford,,Little Jacks Farm & Garden Centre,Restaurant/Cafe/Canteen,1,5,,22712,5,,52.94416000000000,07/00281/COMM,214,fhrs@melton.gov.uk,Melton,http://www.melton.gov.uk,-0.81412700000000,NG13 0AU,2014-08-19,fhrs_4_en-GB,4,,FHRS,10
64855,80 Welby Lane,Melton Mowbray,,,Little Rascals Day Nursery,Hospitals/Childcare/Caring Premises,5,5,,17684,5,,52.77378900000000,06/00021/COMM,214,fhrs@melton.gov.uk,Melton,http://www.melton.gov.uk,-0.90159700000000,LE13 0TD,2015-02-02,fhrs_4_en-GB,4,,FHRS,10
64856,25 High Street,Somerby,Melton Mowbray,,Little Shop Of Loveliness,Retailers - other,4613,20,,441803,0,,52.68719000000000,11/00059/COMM,214,fhrs@melton.gov.uk,Melton,http://www.melton.gov.uk,-0.84878000000000,LE14 2PZ,2015-01-06,fhrs_1_en-GB,1,,FHRS,5
64857,Long Field School,Ambleside Way,Melton Mowbray,,Little Stars @ The Academy,Hospitals/Childcare/Caring Premises,5,0,,712605,0,,52.76132300000000,14/00062/COMM,214,fhrs@melton.gov.uk,Melton,http://www.melton.gov.uk,-0.89905100000000,LE13 0BN,2014-11-03,fhrs_5_en-GB,5,,FHRS,5
64858,Methodist Church,Sandy Lane,Melton Mowbray,,Little Stars Preschool,Hospitals/Childcare/Caring Premises,5,0,,531209,5,,52.75180900000000,13/00023/COMM,214,fhrs@melton.gov.uk,Melton,http://www.melton.gov.uk,-0.88429600000000,LE13 0AW,2014-11-03,fhrs_5_en-GB,5,,FHRS,0
64859,55 Sherrard Street,Melton Mowbray,,,Lloyds Pharmacy,Retailers - other,4613,,,482801,,,52.76473600000000,08090/0055/0/000,214,fhrs@melton.gov.uk,Melton,http://www.melton.gov.uk,-0.88421800000000,LE13 1XH,2012-03-12,fhrs_exempt_en-GB,Exempt,,FHRS,
64860,34 Sherrard Street,Melton Mowbray,,,Londis - NFS Service,Retailers - other,4613,5,,46462,0,,52.76439400000000,11/00067/COMM,214,fhrs@melton.gov.uk,Melton,http://www.melton.gov.uk,-0.88416800000000,LE13 1XJ,2012-12-12,fhrs_5_en-GB,5,,FHRS,5
64861,Long Clawson C Of E Primary School,School Lane,Long Clawson,Melton Mowbray,Long Clawson School,School/college/university,7845,5,,24581,5,,52.83848900000000,07950/2000/2/000,214,fhrs@melton.gov.uk,Melton,http://www.melton.gov.uk,-0.92606500000000,LE14 4PB,2013-02-26,fhrs_5_en-GB,5,,FHRS,5
64862,Back Lane,Long Clawson,Melton Mowbray,,Long Clawson Village Hall,Retailers - other,4613,,,482815,,,52.83841700000000,10/00078/COMM,214,fhrs@melton.gov.uk,Melton,http://www.melton.gov.uk,-0.92508700000000,LE14 4NA,2013-05-23,fhrs_exempt_en-GB,Exempt,,FHRS,
64863,Long Field School,Ambleside Way,Melton Mowbray,,Long Field Academy,School/college/university,7845,0,,14186,5,,52.76132300000000,04800/0000/2/000,214,fhrs@melton.gov.uk,Melton,http://www.melton.gov.uk,-0.89905100000000,LE13 0BN,2014-01-29,fhrs_5_en-GB,5,,FHRS,5
64864,,,,,LouRay Cakes & Bakes,Other catering premises,7841,0,,732573,0,,,15/00012/COMM,214,fhrs@melton.gov.uk,Melton,http://www.melton.gov.uk,,,2015-01-26,fhrs_5_en-GB,5,,FHRS,5
64865,,,,,Lower Grange Puddings,Manufacturers/packers,7839,5,,14683,0,,,05/00037/COMM,214,fhrs@melton.gov.uk,Melton,http://www.melton.gov.uk,,,2014-09-11,fhrs_5_en-GB,5,,FHRS,0
64866,The Cove,Sysonby Street,Melton Mowbray,,Lunch Club,Hospitals/Childcare/Caring Premises,5,10,,482806,5,,52.77182600000000,09/00077/COMM,214,fhrs@melton.gov.uk,Melton,http://www.melton.gov.uk,-0.89933400000000,LE13 0LP,2013-04-08,fhrs_4_en-GB,4,,FHRS,5
64867,The Manners Arms,6 Croxton Road,Knipton,Grantham,Manners Arms,Pub/bar/nightclub,7843,10,,6877,10,,52.87291800000000,02600/0006/0/000,214,fhrs@melton.gov.uk,Melton,http://www.melton.gov.uk,-0.77366700000000,NG32 1RH,2014-01-20,fhrs_3_en-GB,3,,FHRS,10
64868,Manor Farm,2 Church Lane,Saxelby,Melton Mowbray,Manor House B&B,Hotel/bed & breakfast/guest house,7842,5,,5554,5,,52.78130600000000,01940/0002/2/000,214,fhrs@melton.gov.uk,Melton,http://www.melton.gov.uk,-0.96271500000000,LE14 3PA,2013-08-01,fhrs_5_en-GB,5,,FHRS,5
64869,26 Nottingham Road,MELTON MOWBRAY,Melton Mowbray,,Mar Lodge Residential,Hospitals/Childcare/Caring Premises,5,0,,20947,0,,52.76821100000000,06630/0026/0/000,214,fhrs@melton.gov.uk,Melton,http://www.melton.gov.uk,-0.89145100000000,LE13 0NP,2014-01-07,fhrs_5_en-GB,5,,FHRS,5
64870,March House,Kirby Road,Great Dalby,,March House Farm,Retailers - other,4613,5,,7398,5,,52.72255000000000,03/00013/COMM,214,fhrs@melton.gov.uk,Melton,http://www.melton.gov.uk,-0.90491300000000,LE14 2HA,2014-02-27,fhrs_5_en-GB,5,,FHRS,5
64871,35 Burton Street,Melton Mowbray,,,Ma's Cottage,Takeaway/sandwich shop,7844,5,,17583,5,,52.76261700000000,06/00011/COMM,214,fhrs@melton.gov.uk,Melton,http://www.melton.gov.uk,-0.88452400000000,LE13 1AF,2013-08-14,fhrs_5_en-GB,5,,FHRS,5
64872,Masterfoods National Office,Freeby Lane,Waltham On The Wolds,,Masterfoods Ltd,Restaurant/Cafe/Canteen,1,0,,8833,5,,52.80124200000000,03340/2003/2/000,214,fhrs@melton.gov.uk,Melton,http://www.melton.gov.uk,-0.81174400000000,LE14 4RT,2014-07-25,fhrs_5_en-GB,5,,FHRS,5
64873,Mcdonalds Restaurant,32 Thorpe End,Melton Mowbray,,McDonalds,Restaurant/Cafe/Canteen,1,5,,32150,0,,52.76454000000000,09310/0032/2/000,214,fhrs@melton.gov.uk,Melton,http://www.melton.gov.uk,-0.88151100000000,LE13 1RB,2014-06-06,fhrs_4_en-GB,4,,FHRS,10
64874,Melton And District IBC Ltd.,Bowling Green,Melton Mowbray,,Melton And District Indoor Bowls Centre Ltd,Restaurant/Cafe/Canteen,1,,,2363,,,52.75734000000000,00870/0001/2/000,214,fhrs@melton.gov.uk,Melton,http://www.melton.gov.uk,-0.90189200000000,LE13 0FA,2014-11-21,fhrs_5_en-GB,5,,FHRS,
64875,Conservative Club,8 Thorpe End,Melton Mowbray,,Melton Conservative Club,Pub/bar/nightclub,7843,10,,32153,5,,52.76454000000000,09310/2000/2/000,214,fhrs@melton.gov.uk,Melton,http://www.melton.gov.uk,-0.88151100000000,LE13 1RB,2014-11-18,fhrs_4_en-GB,4,,FHRS,5
64876,Melton Foods,3 Samworth Way,Melton Mowbray,,Melton Foods Staff Canteen,Restaurant/Cafe/Canteen,1,5,,25441,5,,52.75432900000000,08/00085/COMM,214,fhrs@melton.gov.uk,Melton,http://www.melton.gov.uk,-0.91463700000000,LE13 1GA,2013-06-24,fhrs_5_en-GB,5,,FHRS,0
64877,11 Windsor Street,Melton Mowbray,,,Melton Health Store,Retailers - other,4613,5,,685692,5,,52.76490600000000,14/00035/COMM,214,fhrs@melton.gov.uk,Melton,http://www.melton.gov.uk,-0.88513300000000,LE13 1BU,2014-07-24,fhrs_5_en-GB,5,,FHRS,5
64878,15 Windsor Street,Melton Mowbray,,,Melton Kebab House,Takeaway/sandwich shop,7844,10,,41213,10,,52.76490600000000,10230/0015/0/000,214,fhrs@melton.gov.uk,Melton,http://www.melton.gov.uk,-0.88513300000000,LE13 1BU,2014-07-17,fhrs_3_en-GB,3,,FHRS,10
64879,Melton Country Park,Wymondham Way,Melton Mowbray,,Melton Learning Hub Cafe,Restaurant/Cafe/Canteen,1,0,,42860,5,,,10540/6000/2/000,214,fhrs@melton.gov.uk,Melton,http://www.melton.gov.uk,,,2013-10-23,fhrs_5_en-GB,5,,FHRS,5
64880,,,,,Melt'on Luxury Alcoholic Ice Cream,Manufacturers/packers,7839,5,,577356,5,,,13/00037/COMM,214,fhrs@melton.gov.uk,Melton,http://www.melton.gov.uk,,,2013-05-20,fhrs_5_en-GB,5,,FHRS,5
64881,Rafa Club,24 Asfordby Road,Melton Mowbray,,"Melton Mowbray & District RAFA, Tornado Club",Pub/bar/nightclub,7843,10,,1338,5,,52.76695500000000,00140/0024/0/000,214,fhrs@melton.gov.uk,Melton,http://www.melton.gov.uk,-0.89269900000000,LE13 0HR,2014-03-28,fhrs_4_en-GB,4,,FHRS,5
64882,Waltham Road,Thorpe Arnold,,,Melton Mowbray Golf Club,Restaurant/Cafe/Canteen,1,5,,664575,5,,52.77732200000000,14/00021/COMM,214,fhrs@melton.gov.uk,Melton,http://www.melton.gov.uk,-0.85214100000000,LE14 4SD,2014-05-21,fhrs_5_en-GB,5,,FHRS,5
64883,St Marys Hospital,Thorpe Road,Melton Mowbray,,Melton Mowbray Hospital,Hospitals/Childcare/Caring Premises,5,0,,32195,0,,52.76594700000000,09330/2000/2/000,214,fhrs@melton.gov.uk,Melton,http://www.melton.gov.uk,-0.87731000000000,LE13 1SJ,2014-02-25,fhrs_5_en-GB,5,,FHRS,5
64884,King Street,Melton Mowbray,,,Melton Snooker Club,Restaurant/Cafe/Canteen,1,10,,17366,5,,52.76524700000000,05890/0029/A/000,214,fhrs@melton.gov.uk,Melton,http://www.melton.gov.uk,-0.88595400000000,LE13 1XA,2012-03-19,fhrs_4_en-GB,4,,FHRS,0
64885,30 Burton Street,Melton Mowbray,,,Melton Tandoori,Restaurant/Cafe/Canteen,1,5,,29232,5,,52.76261700000000,09/00064/COMM,214,fhrs@melton.gov.uk,Melton,http://www.melton.gov.uk,-0.88452400000000,LE13 1AF,2013-09-09,fhrs_4_en-GB,4,,FHRS,10
64886,Burton Road,Melton Mowbray,,,Melton Vale Post 16 Centre,School/college/university,7845,5,,45558,5,,52.75145200000000,11/00014/COMM,214,fhrs@melton.gov.uk,Melton,http://www.melton.gov.uk,-0.87503100000000,LE13 1DN,2013-11-08,fhrs_5_en-GB,5,,FHRS,5
64887,Deli Italia,6 - 8 Church Street,Melton Mowbray,,Meltons,Restaurant/Cafe/Canteen,1,0,,550807,0,,52.76391500000000,12/00062/COMM,214,fhrs@melton.gov.uk,Melton,http://www.melton.gov.uk,-0.88674400000000,LE13 0PN,2013-05-20,fhrs_5_en-GB,5,,FHRS,5
64888,9 Sherrard Street,Melton Mowbray,,,Mercury News,Retailers - other,4613,0,,550809,0,,52.76473600000000,13/00028/COMM,214,fhrs@melton.gov.uk,Melton,http://www.melton.gov.uk,-0.88421800000000,LE13 1XH,2013-05-23,fhrs_5_en-GB,5,,FHRS,5
64889,7 Sysonby Street,Melton Mowbray,,,Michelle's Veg Patch,Retailers - other,4613,0,,617610,0,,52.77182600000000,13/00077/COMM,214,fhrs@melton.gov.uk,Melton,http://www.melton.gov.uk,-0.89933400000000,LE13 0LP,2013-12-12,fhrs_5_en-GB,5,,FHRS,0
64890,25 Chapel Lane,Nether Broughton,,,Midshires Farms,Mobile caterer,7846,5,,703586,5,,52.82508900000000,06/00077/COMM,214,fhrs@melton.gov.uk,Melton,http://www.melton.gov.uk,-0.97023600000000,LE14 3EN,2014-09-25,fhrs_5_en-GB,5,,FHRS,5
64891,,,,,Miguel's Ices,Mobile caterer,7846,5,,7217,5,,,02830/0071/0/000,214,fhrs@melton.gov.uk,Melton,http://www.melton.gov.uk,,,2012-09-11,fhrs_5_en-GB,5,,FHRS,5
64892,2 Park Road,Melton Mowbray,,,Millenium Fish Bar,Takeaway/sandwich shop,7844,5,,21202,5,,52.76703300000000,06950/0002/0/000,214,fhrs@melton.gov.uk,Melton,http://www.melton.gov.uk,-0.88954000000000,LE13 1TT,2013-10-22,fhrs_5_en-GB,5,,FHRS,5
64893,Miss Bs Tea Rooms,34A Market Place,Melton Mowbray,,Miss B's Tea Rooms,Restaurant/Cafe/Canteen,1,5,,17369,5,,52.76440400000000,05890/0034/A/000,214,fhrs@melton.gov.uk,Melton,http://www.melton.gov.uk,-0.88621300000000,LE13 1XD,2015-02-09,fhrs_5_en-GB,5,,FHRS,5
64894,Mobile Catering Trailer,Snow Hill,Melton Mowbray,,Monks Munchies,Mobile caterer,7846,5,,685694,5,,,14/00037/COMM,214,fhrs@melton.gov.uk,Melton,http://www.melton.gov.uk,,,2014-07-24,fhrs_5_en-GB,5,,FHRS,5
64895,16 Market Place,Melton Mowbray,,,More Coffee,Restaurant/Cafe/Canteen,1,5,,576966,0,,52.76440400000000,12/00044/COMM,214,fhrs@melton.gov.uk,Melton,http://www.melton.gov.uk,-0.88621300000000,LE13 1XD,2014-05-01,fhrs_5_en-GB,5,,FHRS,5
64896,Sage Cross Street,Melton Mowbray,,,Morrisons,Retailers - supermarkets/hypermarkets,7840,0,,32149,0,,52.76454000000000,09310/0001/2/000,214,fhrs@melton.gov.uk,Melton,http://www.melton.gov.uk,-0.88151100000000,LE13 1RB,2014-03-31,fhrs_5_en-GB,5,,FHRS,5
64897,Mowbray Rangers Football Club,Pavillion,Sports Ground,Melton Road,Mowbray Rangers FC,Takeaway/sandwich shop,7844,5,,21462,5,,52.76586900000000,07/00026/COMM,214,fhrs@melton.gov.uk,Melton,http://www.melton.gov.uk,-0.92908200000000,LE14 3QX,2011-03-13,fhrs_4_en-GB,4,,FHRS,10
64898,Village Deli,47 Main Street,Asfordby,Melton Mowbray,Munch Box,Retailers - other,4613,20,,45445,10,,52.76418800000000,11/00008/COMM,214,fhrs@melton.gov.uk,Melton,http://www.melton.gov.uk,-0.94825700000000,LE14 3RZ,2014-11-28,fhrs_1_en-GB,1,,FHRS,15
64899,Village Hall,33 Chapel Lane,Nether Broughton,,Nether Broughton Village Hall,Other catering premises,7841,,,482663,,,52.82508900000000,01530/0033/2/000,214,fhrs@melton.gov.uk,Melton,http://www.melton.gov.uk,-0.97023600000000,LE14 3EN,2013-04-29,fhrs_exempt_en-GB,Exempt,,FHRS,
64900,Gorse Farm,Six Hills Lane,Old Dalby,,Nice Pie,Mobile caterer,7846,5,,709186,5,,52.79612200000000,14/00009/COMM,214,fhrs@melton.gov.uk,Melton,http://www.melton.gov.uk,-0.99513900000000,LE14 3NB,2014-10-20,fhrs_5_en-GB,5,,FHRS,5
64901,62 Nottingham Street,Melton Mowbray,,,Nickos Fish Bar,Takeaway/sandwich shop,7844,10,,20974,10,,52.76582600000000,06660/0062/0/000,214,fhrs@melton.gov.uk,Melton,http://www.melton.gov.uk,-0.88728800000000,LE13 1NW,2014-10-06,fhrs_3_en-GB,3,,FHRS,10
64902,,,,,Nicola Kirk Sugarcraft,Other catering premises,7841,10,,18163,0,,,06/00081/COMM,214,fhrs@melton.gov.uk,Melton,http://www.melton.gov.uk,,,2012-11-13,fhrs_4_en-GB,4,,FHRS,5
64903,,,,,Nicole Blake,Retailers - other,4613,5,,701077,0,,,14/00051/COMM,214,fhrs@melton.gov.uk,Melton,http://www.melton.gov.uk,,,2014-09-18,fhrs_5_en-GB,5,,FHRS,5
64904,Cafe,54A King Street,Melton Mowbray,,Nigel's Cafe At 54A King Street,Restaurant/Cafe/Canteen,1,5,,14071,5,,52.76499700000000,04640/0054/A/000,214,fhrs@melton.gov.uk,Melton,http://www.melton.gov.uk,-0.88612300000000,LE13 1XB,2014-03-13,fhrs_4_en-GB,4,,FHRS,10
64905,13 Hartopp Road,Melton Mowbray,,,Nigels News,Retailers - other,4613,5,,482802,5,,52.75199300000000,09/00053/COMM,214,fhrs@melton.gov.uk,Melton,http://www.melton.gov.uk,-0.88660300000000,LE13 0QZ,2014-07-23,fhrs_4_en-GB,4,,FHRS,10
64906,The Noels Arms,31 Burton Street,Melton Mowbray,,Noels Arms,Pub/bar/nightclub,7843,5,,715392,0,,52.76373900000000,14/00063/COMM,214,fhrs@melton.gov.uk,Melton,http://www.melton.gov.uk,-0.88523700000000,LE13 1AE,2014-11-07,fhrs_5_en-GB,5,,FHRS,5
64907,Northfield Stores,3 Charnwood Avenue,Asfordby,,Northfield Stores Asfordby,Retailers - other,4613,10,,5224,0,,52.76510800000000,01650/0003/0/000,214,fhrs@melton.gov.uk,Melton,http://www.melton.gov.uk,-0.95469600000000,LE14 3YG,2014-10-02,fhrs_4_en-GB,4,,FHRS,0
64908,The Christian Centre,42 - 44 Nottingham Street,Melton Mowbray,,Oasis Family Centre At The Covenant Life Church,Hospitals/Childcare/Caring Premises,5,5,,14665,0,,52.76582600000000,05/00035/COMM,214,fhrs@melton.gov.uk,Melton,http://www.melton.gov.uk,-0.88728800000000,LE13 1NW,2014-10-06,fhrs_5_en-GB,5,,FHRS,5
64909,34 Burton Street,Melton Mowbray,,,Ocean Blue,Takeaway/sandwich shop,7844,10,,4751,5,,52.76261700000000,01320/0034/0/000,214,fhrs@melton.gov.uk,Melton,http://www.melton.gov.uk,-0.88452400000000,LE13 1AF,2014-11-18,fhrs_4_en-GB,4,,FHRS,5
64910,10 - 12 Park Road,Melton Mowbray,,,Off The Beaten Path,Restaurant/Cafe/Canteen,1,0,,21206,5,,52.76703300000000,06950/0010/0/000,214,fhrs@melton.gov.uk,Melton,http://www.melton.gov.uk,-0.88954000000000,LE13 1TT,2014-05-14,fhrs_5_en-GB,5,,FHRS,0
64911,,,,,Old Brickyard Preserves,Manufacturers/packers,7839,0,,33842,5,,,10/00070/COMM,214,fhrs@melton.gov.uk,Melton,http://www.melton.gov.uk,,,2010-11-10,fhrs_5_en-GB,5,,FHRS,5
64912,Eastwell Road,Scalford,Melton Mowbray,,Old Brickyard Tea Rooms,Restaurant/Cafe/Canteen,1,0,,376465,0,,,12/00032/COMM,214,fhrs@melton.gov.uk,Melton,http://www.melton.gov.uk,,,2012-05-31,fhrs_5_en-GB,5,,FHRS,5
64913,Old Dalby C Of E School,Longcliffe Hill,Old Dalby,Melton Mowbray,Old Dalby Primary School,School/college/university,7845,5,,16431,0,,52.80856000000000,05050/2004/2/000,214,fhrs@melton.gov.uk,Melton,http://www.melton.gov.uk,-1.00221100000000,LE14 3JY,2013-12-16,fhrs_5_en-GB,5,,FHRS,5
64914,Village Hall,Main Road,Old Dalby,Melton Mowbray,Old Dalby Village Hall,Other catering premises,7841,,,482668,,,,05200/6000/2/000,214,fhrs@melton.gov.uk,Melton,http://www.melton.gov.uk,,,2015-01-30,fhrs_exempt_en-GB,Exempt,,FHRS,
64915,Old Guadaloupe House,Kirby Lane,Eye Kettleby,,Old Guadaloupe Bed & Breakfast,Hotel/bed & breakfast/guest house,7842,10,,482805,5,,52.74925100000000,09/00070/COMM,214,fhrs@melton.gov.uk,Melton,http://www.melton.gov.uk,-0.90300000000000,LE14 2TS,2012-11-29,fhrs_4_en-GB,4,,FHRS,5
64916,Brooklyn,53 Main Street,Wymondham,,Old Jake,Manufacturers/packers,7839,5,,18119,5,,52.76035600000000,06/00073/COMM,214,fhrs@melton.gov.uk,Melton,http://www.melton.gov.uk,-0.74119000000000,LE14 2AG,2012-11-13,fhrs_5_en-GB,5,,FHRS,5
64917,Old Manor  House,1 West End,Long Clawson,Melton Mowbray,Old Manor House,Hotel/bed & breakfast/guest house,7842,5,,7368,0,,52.83608400000000,03/00005/COMM,214,fhrs@melton.gov.uk,Melton,http://www.melton.gov.uk,-0.93155700000000,LE14 4PE,2012-10-08,fhrs_5_en-GB,5,,FHRS,5
64918,Cattle Market,Scalford Road,Melton Mowbray,,On The Hoof,Restaurant/Cafe/Canteen,1,20,,576614,15,,52.76923200000000,13/00049/COMM,214,fhrs@melton.gov.uk,Melton,http://www.melton.gov.uk,-0.88817900000000,LE13 1JY,2014-08-12,fhrs_1_en-GB,1,,FHRS,15
64919,7B The Sands,Long Clawson,Melton Mowbray,,On The Sands Cafe & Deli,Restaurant/Cafe/Canteen,1,5,,17592,5,,52.83921600000000,06/00012/COMM,214,fhrs@melton.gov.uk,Melton,http://www.melton.gov.uk,-0.92395400000000,LE14 4PA,2014-04-16,fhrs_5_en-GB,5,,FHRS,5
64920,29 - 33 Grange Drive,Melton Mowbray,,,One Stop Stores Limited,Retailers - other,4613,5,,486804,0,,,12/00055/COMM,214,fhrs@melton.gov.uk,Melton,http://www.melton.gov.uk,,,2014-06-04,fhrs_5_en-GB,5,,FHRS,5
64921,11 Market Street,Bottesford,,,Oriental Kitchen,Takeaway/sandwich shop,7844,5,,17381,5,,52.94169400000000,05900/0011/0/000,214,fhrs@melton.gov.uk,Melton,http://www.melton.gov.uk,-0.80220000000000,NG13 0BW,2014-03-31,fhrs_5_en-GB,5,,FHRS,5
64922,2 St Johns Drive,Melton Mowbray,,,Park Lane Kids Ltd,Hospitals/Childcare/Caring Premises,5,0,,25313,0,,52.77438600000000,08/00068/COMM,214,fhrs@melton.gov.uk,Melton,http://www.melton.gov.uk,-0.88555800000000,LE13 1JX,2015-01-13,fhrs_5_en-GB,5,,FHRS,5
64923,The Cafe,The Mall,53 Nottingham Street,Melton Mowbray,Paula's Pantry,Restaurant/Cafe/Canteen,1,10,,29288,5,,52.76577200000000,09/00069/COMM,214,fhrs@melton.gov.uk,Melton,http://www.melton.gov.uk,-0.88825300000000,LE13 1NN,2014-12-01,fhrs_2_en-GB,2,,FHRS,15
64924,Pauls Plaice,4 Bradgate Lane,Asfordby,,Paul's Plaice,Takeaway/sandwich shop,7844,20,,2388,5,,52.76445300000000,00890/0002/0/000,214,fhrs@melton.gov.uk,Melton,http://www.melton.gov.uk,-0.95177700000000,LE14 3YD,2013-04-30,fhrs_1_en-GB,1,,FHRS,5
64925,1 Market Street,Bottesford,,,Pauls Restaurant The Wine Lounge And Bistro,Restaurant/Cafe/Canteen,1,5,,17379,5,,52.94169300000000,05900/0001/0/000,214,fhrs@melton.gov.uk,Melton,http://www.melton.gov.uk,-0.80220000000000,NG13 0BW,2015-01-20,fhrs_4_en-GB,4,,FHRS,10
64926,Bowls Club,Town Estate Sports Ground,Leicester Road,Melton Mowbray,Pavilion Cafe,Restaurant/Cafe/Canteen,1,5,,33071,5,,,10/00023/COMM,214,fhrs@melton.gov.uk,Melton,http://www.melton.gov.uk,,,2014-04-08,fhrs_4_en-GB,4,,FHRS,10
64927,11 East End,Long Clawson,,,Pears Butchers,Retailers - other,4613,5,,7322,5,,52.84010300000000,02950/0011/0/000,214,fhrs@melton.gov.uk,Melton,http://www.melton.gov.uk,-0.92071000000000,LE14 4NG,2015-01-14,fhrs_5_en-GB,5,,FHRS,5
64928,11A Burton Street,Melton Mowbray,,,Peckish,Takeaway/sandwich shop,7844,5,,187517,5,,,11/00070/COMM,214,fhrs@melton.gov.uk,Melton,http://www.melton.gov.uk,,LE13 1AG,2013-10-15,fhrs_5_en-GB,5,,FHRS,5
64929,,,,,Perfect Candy,Mobile caterer,7846,,,688490,,,,14/00039/COMM,214,fhrs@melton.gov.uk,Melton,http://www.melton.gov.uk,,,2014-07-30,fhrs_exempt_en-GB,Exempt,,FHRS,
64930,St Marys Church Of England Primary,Brampton Road,Melton Mowbray,,Phoenix Pre-School,Hospitals/Childcare/Caring Premises,5,5,,21268,5,,,07/00004/COMM,214,fhrs@melton.gov.uk,Melton,http://www.melton.gov.uk,,,2013-10-14,fhrs_5_en-GB,5,,FHRS,0
64931,Colles Hall,Burton Street,Melton Mowbray,,Pizza Express,Restaurant/Cafe/Canteen,1,0,,9867,0,,52.76373900000000,04/00077/COMM,214,fhrs@melton.gov.uk,Melton,http://www.melton.gov.uk,-0.88523700000000,LE13 1AE,2014-06-05,fhrs_5_en-GB,5,,FHRS,0
64932,5 High Street,Bottesford,Nottingham,,Pizzini,Restaurant/Cafe/Canteen,1,0,,33601,5,,52.94172900000000,10/00054/COMM,214,fhrs@melton.gov.uk,Melton,http://www.melton.gov.uk,-0.80563700000000,NG13 0AA,2014-04-10,fhrs_5_en-GB,5,,FHRS,5
64933,Glebe Farm,Main Street,Saxelby,,Planet Pony Party,Restaurant/Cafe/Canteen,1,5,,657253,5,,52.78265400000000,14/00017/COMM,214,fhrs@melton.gov.uk,Melton,http://www.melton.gov.uk,-0.96266800000000,LE14 3PQ,2014-04-16,fhrs_5_en-GB,5,,FHRS,5
64934,Village Hall,Frog Lane,Plungar,Nottingham,Plungar Village Hall,Other catering premises,7841,,,482790,,,,03370/6000/2/000,214,fhrs@melton.gov.uk,Melton,http://www.melton.gov.uk,,,2013-05-16,fhrs_exempt_en-GB,Exempt,,FHRS,
64935,Sandy Lane,Melton Mowbray,,,Polish Club,Other catering premises,7841,5,,24413,5,,52.75180900000000,07710/0084/0/000,214,fhrs@melton.gov.uk,Melton,http://www.melton.gov.uk,-0.88429600000000,LE13 0AW,2012-11-13,fhrs_5_en-GB,5,,FHRS,5
64936,43 Nottingham Street,Melton Mowbray,,,Polish Grocery Shop,Retailers - other,4613,10,,45332,10,,52.76577200000000,11/00001/COMM,214,fhrs@melton.gov.uk,Melton,http://www.melton.gov.uk,-0.88825300000000,LE13 1NN,2014-12-04,fhrs_3_en-GB,3,,FHRS,10
64937,Asfordby News And Post Office,3 Bradgate Lane,Asfordby,,Post Office Counters Ltd,Retailers - other,4613,5,,2389,5,,52.76445300000000,00890/0003/2/000,214,fhrs@melton.gov.uk,Melton,http://www.melton.gov.uk,-0.95177700000000,LE14 3YD,2012-11-01,fhrs_5_en-GB,5,,FHRS,5
64938,Poundland,23 Sherrard Street,Melton Mowbray,Leicestershire,Poundland,Retailers - other,4613,5,,627059,5,,52.76439400000000,08090/0023/2/000,214,fhrs@melton.gov.uk,Melton,http://www.melton.gov.uk,-0.88416800000000,LE13 1XJ,2014-03-31,fhrs_4_en-GB,4,,FHRS,10
64939,70 Barker Crescent,Melton Mowbray,,,Premier Harveens Convenience Store,Retailers - other,4613,20,,33939,10,,52.75293600000000,10/00077/COMM,214,fhrs@melton.gov.uk,Melton,http://www.melton.gov.uk,-0.88850500000000,LE13 0QW,2013-03-11,fhrs_1_en-GB,1,,FHRS,5
64940,7A Park Road,Melton Mowbray,,,Prima Pizza,Takeaway/sandwich shop,7844,5,,21204,5,,52.76703300000000,06950/0007/A/000,214,fhrs@melton.gov.uk,Melton,http://www.melton.gov.uk,-0.88954000000000,LE13 1TT,2015-01-14,fhrs_5_en-GB,5,,FHRS,0
64941,Queen Pizza,26 Burton Street,Melton Mowbray,,Queens Pizza,Takeaway/sandwich shop,7844,10,,550810,10,,52.76261700000000,13/00035/COMM,214,fhrs@melton.gov.uk,Melton,http://www.melton.gov.uk,-0.88452400000000,LE13 1AF,2014-10-01,fhrs_3_en-GB,3,,FHRS,10
64942,46 Asfordby Road,Melton Mowbray,,,Quorn Lodge Hotel,Hotel/bed & breakfast/guest house,7842,5,,1340,0,,52.76695500000000,00140/0046/2/000,214,fhrs@melton.gov.uk,Melton,http://www.melton.gov.uk,-0.89269900000000,LE13 0HR,2015-01-21,fhrs_5_en-GB,5,,FHRS,5
64943,Ragdale Hall,The Driveway,Ragdale,,Ragdale Hall Health Hydro And Thermal Spa,Restaurant/Cafe/Canteen,1,5,,31949,5,,52.77537200000000,09080/2000/2/000,214,fhrs@melton.gov.uk,Melton,http://www.melton.gov.uk,-1.03070600000000,LE14 3PB,2015-01-14,fhrs_5_en-GB,5,,FHRS,5
64944,Redmile Church Of England Primary S,6 Belvoir Road,Redmile,Nottingham,Redmile School,School/college/university,7845,5,,9748,5,,52.91018800000000,04/00056/COMM,214,fhrs@melton.gov.uk,Melton,http://www.melton.gov.uk,-0.81327100000000,NG13 0GL,2013-06-07,fhrs_5_en-GB,5,,FHRS,0
64945,Regal Cinema,King Street,Melton Mowbray,Leicestershire,Regal Cinema,Retailers - other,4613,0,,14074,5,,52.76524700000000,04640/2001/2/000,214,fhrs@melton.gov.uk,Melton,http://www.melton.gov.uk,-0.88595400000000,LE13 1XA,2013-05-14,fhrs_5_en-GB,5,,FHRS,0
64946,Market 12 - Reynolds Cheese Stall,Market Place,Melton Mowbray,,Reynolds Cheese Stall,Retailers - other,4613,10,,371470,10,,,06/00048/COMM,214,fhrs@melton.gov.uk,Melton,http://www.melton.gov.uk,,,2014-06-24,fhrs_3_en-GB,3,,FHRS,5
64947,Riverside Day Nursery,Asfordby Road,Melton Mowbray,,Riverbank Day Nursery,Hospitals/Childcare/Caring Premises,5,5,,29088,0,,52.76674100000000,09/00052/COMM,214,fhrs@melton.gov.uk,Melton,http://www.melton.gov.uk,-0.89578700000000,LE13 0HN,2014-05-29,fhrs_5_en-GB,5,,FHRS,5
64948,Sir John Sedley Community Centre,3 Glebe Road,Wymondham,Melton Mowbray,Roots To Wings,Hospitals/Childcare/Caring Premises,5,5,,371471,5,,52.76054300000000,11/00056/COMM,214,fhrs@melton.gov.uk,Melton,http://www.melton.gov.uk,-0.74866900000000,LE14 2AF,2014-07-09,fhrs_5_en-GB,5,,FHRS,0
64949,The Rose And Crown,43 Bolton Lane,Hose,,Rose And Crown,Pub/bar/nightclub,7843,5,,2312,5,,52.85595300000000,00800/0043/2/000,214,fhrs@melton.gov.uk,Melton,http://www.melton.gov.uk,-0.90797500000000,LE14 4JE,2013-10-22,fhrs_5_en-GB,5,,FHRS,5
64950,Cadet Centre,Saxby Road,Melton Mowbray,,Rosebuds Preschool,Hospitals/Childcare/Caring Premises,5,5,,710423,0,,52.76479700000000,14/00052/COMM,214,fhrs@melton.gov.uk,Melton,http://www.melton.gov.uk,-0.87735500000000,LE13 1BW,2014-10-29,fhrs_5_en-GB,5,,FHRS,5
64951,Royal Horse Shoes,4 Melton Road,Waltham On The Wolds,,Royal Horseshoes,Pub/bar/nightclub,7843,10,,20509,10,,52.81345200000000,06070/2036/2/000,214,fhrs@melton.gov.uk,Melton,http://www.melton.gov.uk,-0.81366600000000,LE14 4AJ,2014-01-15,fhrs_3_en-GB,3,,FHRS,10
64952,St Marys Hospital,Thorpe Road,Melton Mowbray,,Royal Voluntary Services Melton Mowbray Trolley Service,Retailers - other,4613,,,558448,,,52.76594700000000,13/00044/COMM,214,fhrs@melton.gov.uk,Melton,http://www.melton.gov.uk,-0.87731000000000,LE13 1SJ,2013-06-04,fhrs_exempt_en-GB,Exempt,,FHRS,
64953,The Rutland Arms,2 High Street,Bottesford,,Rutland Arms,Pub/bar/nightclub,7843,5,,13529,5,,52.94172900000000,04200/2003/2/000,214,fhrs@melton.gov.uk,Melton,http://www.melton.gov.uk,-0.80563700000000,NG13 0AA,2014-10-01,fhrs_4_en-GB,4,,FHRS,10
64954,Sage Cross (Melton Central) Methodi,Sage Cross Street,Melton Mowbray,Leicestershire,Sage Cross Methodist Church,Other catering premises,7841,0,,24355,0,,,07650/2001/2/000,214,fhrs@melton.gov.uk,Melton,http://www.melton.gov.uk,,LE13 1QT,2014-06-06,fhrs_5_en-GB,5,,FHRS,5
64955,Nottingham Road,MELTON MOWBRAY,Melton Mowbray,,Sainsbury's,Retailers - supermarkets/hypermarkets,7840,0,,605714,0,,,13/00073/COMM,214,fhrs@melton.gov.uk,Melton,http://www.melton.gov.uk,,LE13 0GP,2013-12-05,fhrs_5_en-GB,5,,FHRS,0
64956,,,,,Sans Souci Catering,Other catering premises,7841,0,,14574,0,,,05/00022/COMM,214,fhrs@melton.gov.uk,Melton,http://www.melton.gov.uk,,,2013-09-23,fhrs_5_en-GB,5,,FHRS,0
64957,Freemasons Hall,27 Burton Road,Melton Mowbray,,Sara Groom Catering,Other catering premises,7841,5,,4724,5,,52.75575600000000,01310/2001/2/000,214,fhrs@melton.gov.uk,Melton,http://www.melton.gov.uk,-0.88047600000000,LE13 1DL,2014-10-20,fhrs_5_en-GB,5,,FHRS,5
64958,,,,,Sarah & Nat's Country Nik Naks,Manufacturers/packers,7839,5,,482834,5,,,12/00049/COMM,214,fhrs@melton.gov.uk,Melton,http://www.melton.gov.uk,,,2012-09-26,fhrs_5_en-GB,5,,FHRS,5
64959,Savers,10 - 11 The Bell Centre,Nottingham Street,Melton Mowbray,Savers Health & Beauty,Retailers - other,4613,,,482799,,,52.76541000000000,06650/1011/0/000,214,fhrs@melton.gov.uk,Melton,http://www.melton.gov.uk,-0.88701700000000,LE13 1PJ,2012-05-15,fhrs_exempt_en-GB,Exempt,,FHRS,
64960,Manor Farm,Church Lane,Saxby,,Saxby Rare Breeds,Mobile caterer,7846,5,,33618,0,,52.77127600000000,10/00055/COMM,214,fhrs@melton.gov.uk,Melton,http://www.melton.gov.uk,-0.78661900000000,LE14 2RR,2014-08-22,fhrs_5_en-GB,5,,FHRS,5
64961,Scalford C Of E Primary School,School Lane,Scalford,Melton Mowbray,Scalford C Of E Primary School,School/college/university,7845,0,,24600,5,,52.80824400000000,07960/2003/2/000,214,fhrs@melton.gov.uk,Melton,http://www.melton.gov.uk,-0.86966400000000,LE14 4DT,2014-04-30,fhrs_5_en-GB,5,,FHRS,5
64962,Scalford Court Nursing Home,Melton Road,Scalford,Melton Mowbray,Scalford Court Residential Care Home,Hospitals/Childcare/Caring Premises,5,0,,20499,0,,52.80218800000000,06060/2008/2/000,214,fhrs@melton.gov.uk,Melton,http://www.melton.gov.uk,-0.88711700000000,LE14 4UB,2013-12-04,fhrs_5_en-GB,5,,FHRS,5
64963,Scalford Hall,Melton Road,Scalford,Melton Mowbray,Scalford Hall Hotel,Hotel/bed & breakfast/guest house,7842,10,,709187,10,,52.80218800000000,14/00058/COMM,214,fhrs@melton.gov.uk,Melton,http://www.melton.gov.uk,-0.88711700000000,LE14 4UB,2014-10-20,fhrs_3_en-GB,3,,FHRS,10
64964,Scalford Village Hall,Sandy Lane,Scalford,Melton Mowbray,Scalford Village Hall,Other catering premises,7841,,,482671,,,52.81096400000000,07720/2002/2/000,214,fhrs@melton.gov.uk,Melton,http://www.melton.gov.uk,-0.86827300000000,LE14 4DS,2013-08-19,fhrs_exempt_en-GB,Exempt,,FHRS,
64965,54 Sherrard Street,Melton Mowbray,,,Scarborough Fare,Retailers - other,4613,10,,27524,10,,52.76439400000000,08090/0054/0/000,214,fhrs@melton.gov.uk,Melton,http://www.melton.gov.uk,-0.88416800000000,LE13 1XJ,2014-01-23,fhrs_3_en-GB,3,,FHRS,10
64966,Unit 1 Farmers Market,Scalford Road,Melton Mowbray,,Scarborough Fare Market Stall,Retailers - other,4613,5,,482827,5,,,12/00004/COMM,214,fhrs@melton.gov.uk,Melton,http://www.melton.gov.uk,,,2014-01-07,fhrs_4_en-GB,4,,FHRS,10
64967,,,,,Scrummy Yummys,Retailers - other,4613,5,,689927,0,,,14/00043/COMM,214,fhrs@melton.gov.uk,Melton,http://www.melton.gov.uk,,,2014-08-07,fhrs_5_en-GB,5,,FHRS,5
64968,The Edge,Dalby Road,Melton Mowbray,,Seniors' Lunch Club,Restaurant/Cafe/Canteen,1,10,,29201,5,,,09/00061/COMM,214,fhrs@melton.gov.uk,Melton,http://www.melton.gov.uk,,,2012-12-07,fhrs_4_en-GB,4,,FHRS,5
64969,Village Hall,Lag Lane,Thorpe Arnold,,Seniors' Luncheon Club At Thorpe Arnold Village Hall,Hospitals/Childcare/Caring Premises,5,0,,484863,0,,52.77246800000000,11/00018/COMM,214,fhrs@melton.gov.uk,Melton,http://www.melton.gov.uk,-0.85877600000000,LE14 4RU,2013-01-11,fhrs_5_en-GB,5,,FHRS,0
64970,,,,,Sensation Infusion,Manufacturers/packers,7839,5,,492904,5,,,12/00050/COMM,214,fhrs@melton.gov.uk,Melton,http://www.melton.gov.uk,,,2013-01-09,fhrs_5_en-GB,5,,FHRS,5
64971,Sherrard School,Grange Drive,Melton Mowbray,,Sherard Pre-School Playgroup,Hospitals/Childcare/Caring Premises,5,0,,466637,5,,52.75737500000000,10/00064/COMM,214,fhrs@melton.gov.uk,Melton,http://www.melton.gov.uk,-0.86917300000000,LE13 1HA,2014-11-10,fhrs_5_en-GB,5,,FHRS,5
64972,Sherard School,Grange Drive,Melton Mowbray,Leicestershire,Sherard School,School/college/university,7845,0,,9167,5,,52.75737500000000,03730/0000/2/000,214,fhrs@melton.gov.uk,Melton,http://www.melton.gov.uk,-0.86917300000000,LE13 1HA,2014-11-10,fhrs_5_en-GB,5,,FHRS,0
64973,Shoby Lodge Farm,Loughborough Road,Shoby,Melton Mowbray,Shoby Lodge Farmhouse Bed And Breakfast,Hotel/bed & breakfast/guest house,7842,5,,16573,5,,,05100/2004/2/000,214,fhrs@melton.gov.uk,Melton,http://www.melton.gov.uk,,,2012-12-17,fhrs_5_en-GB,5,,FHRS,5
64974,,,,,Shuffle Truffles,Manufacturers/packers,7839,5,,46377,0,,,11/00062/COMM,214,fhrs@melton.gov.uk,Melton,http://www.melton.gov.uk,,,2011-11-08,fhrs_5_en-GB,5,,FHRS,5
64975,14 Queen Street,Bottesford,Nottingham,,Sid's Fruit & Veg,Retailers - other,4613,5,,24009,0,,52.94210000000000,07240/0014/0/000,214,fhrs@melton.gov.uk,Melton,http://www.melton.gov.uk,-0.80320100000000,NG13 0AH,2012-01-13,fhrs_5_en-GB,5,,FHRS,5
64976,22 Leicester Street,Melton Mowbray,,,Simla,Restaurant/Cafe/Canteen,1,20,,29068,10,,52.76416000000000,09/00050/COMM,214,fhrs@melton.gov.uk,Melton,http://www.melton.gov.uk,-0.88799700000000,LE13 0PP,2013-08-05,fhrs_1_en-GB,1,,FHRS,10
64977,,,,,Simply Delicious,Manufacturers/packers,7839,5,,365262,5,,,08/00088/COMM,214,fhrs@melton.gov.uk,Melton,http://www.melton.gov.uk,,,2013-12-09,fhrs_5_en-GB,5,,FHRS,5
64978,Sit And Settle,36 - 38 Nottingham Street,Melton Mowbray,,Sit & Settle,Restaurant/Cafe/Canteen,1,5,,45892,0,,52.76582600000000,11/00034/COMM,214,fhrs@melton.gov.uk,Melton,http://www.melton.gov.uk,-0.88728800000000,LE13 1NW,2015-01-07,fhrs_5_en-GB,5,,FHRS,5
64979,Fosse Way,Six Hills,,,Six Hills Service Station,Retailers - other,4613,10,,8791,0,,52.78051900000000,03300/2007/2/000,214,fhrs@melton.gov.uk,Melton,http://www.melton.gov.uk,-1.04676700000000,LE14 3PD,2012-01-05,fhrs_4_en-GB,4,,FHRS,0
64980,Waterfield Swimming Baths,Dalby Road,Melton Mowbray,,SLM Ltd - Waterfield Baths,Retailers - other,4613,,,482788,,,52.75953900000000,02640/2016/2/000,214,fhrs@melton.gov.uk,Melton,http://www.melton.gov.uk,-0.88891500000000,LE13 0BG,2012-01-09,fhrs_exempt_en-GB,Exempt,,FHRS,
64981,Somerby County School,High Street,Somerby,Melton Mowbray,Somerby Primary School,School/college/university,7845,0,,13603,0,,52.68720900000000,04220/2001/2/000,214,fhrs@melton.gov.uk,Melton,http://www.melton.gov.uk,-0.84883900000000,LE14 2PZ,2013-02-01,fhrs_5_en-GB,5,,FHRS,5
64982,,,,,Southfields,Manufacturers/packers,7839,10,,28996,5,,,09/00044/COMM,214,fhrs@melton.gov.uk,Melton,http://www.melton.gov.uk,,,2013-02-05,fhrs_4_en-GB,4,,FHRS,5
64983,Soya Foods,66 - 68 Snow Hill,Melton Mowbray,,Soyfoods,Manufacturers/packers,7839,5,,27789,5,,52.76884900000000,08210/0066/0/000,214,fhrs@melton.gov.uk,Melton,http://www.melton.gov.uk,-0.88372800000000,LE13 1PH,2014-03-25,fhrs_2_en-GB,2,,FHRS,15
64984,20 High Street,Bottesford,,,SPAR,Retailers - other,4613,5,,13520,5,,52.94172800000000,04200/0020/0/000,214,fhrs@melton.gov.uk,Melton,http://www.melton.gov.uk,-0.80563700000000,NG13 0AA,2015-01-20,fhrs_5_en-GB,5,,FHRS,5
64985,Spar Store And Post Office,52 - 54 Valley Road,Melton Mowbray,,SPAR & Subway,Retailers - supermarkets/hypermarkets,7840,0,,32451,0,,52.75447800000000,09640/0052/0/000,214,fhrs@melton.gov.uk,Melton,http://www.melton.gov.uk,-0.89276300000000,LE13 0DX,2014-10-10,fhrs_5_en-GB,5,,FHRS,5
64986,22 Burton Street,Melton Mowbray,,,Spice Club,Restaurant/Cafe/Canteen,1,5,,4747,5,,52.76261700000000,01320/0022/0/000,214,fhrs@melton.gov.uk,Melton,http://www.melton.gov.uk,-0.88452400000000,LE13 1AF,2015-01-14,fhrs_4_en-GB,4,,FHRS,10
64987,The Rutland Arms,2 High Street,Bottesford,,Spice India,Restaurant/Cafe/Canteen,1,5,,46044,10,,52.94172900000000,11/00043/COMM,214,fhrs@melton.gov.uk,Melton,http://www.melton.gov.uk,-0.80563700000000,NG13 0AA,2014-02-10,fhrs_4_en-GB,4,,FHRS,5
64988,St Francis Roman Catholic Primary S,Dalby Road,Melton Mowbray,Leicestershire,St Francis Primary School,School/college/university,7845,0,,6906,0,,52.75970900000000,02640/2020/2/000,214,fhrs@melton.gov.uk,Melton,http://www.melton.gov.uk,-0.88975500000000,LE13 0BP,2013-11-18,fhrs_5_en-GB,5,,FHRS,5
64989,St John's Drive Convenience Store,24 - 26 St Johns Drive,Melton Mowbray,,St Johns Drive Convenience Store,Retailers - other,4613,5,,27996,5,,52.77438600000000,08460/0024/0/000,214,fhrs@melton.gov.uk,Melton,http://www.melton.gov.uk,-0.88555800000000,LE13 1JX,2014-03-03,fhrs_5_en-GB,5,,FHRS,5
64990,St Marys Church Of England School,Brampton Road,Melton Mowbray,,St Mary's C Of E School,School/college/university,7845,5,,9734,5,,,04/00054/COMM,214,fhrs@melton.gov.uk,Melton,http://www.melton.gov.uk,,,2012-09-28,fhrs_5_en-GB,5,,FHRS,5
64991,St Peters C Of E Aided Primary Scho,Glebe Road,Wymondham,Melton Mowbray,St Peters Primary School,School/college/university,7845,5,,376464,0,,52.76054300000000,03630/2003/2/000,214,fhrs@melton.gov.uk,Melton,http://www.melton.gov.uk,-0.74866900000000,LE14 2AF,2012-05-31,fhrs_5_en-GB,5,,FHRS,5
64992,Long Clawson Dairy Ltd,28 West End,Long Clawson,,Staff Restaurant,Restaurant/Cafe/Canteen,1,0,,7403,5,,52.83608400000000,03/00014/COMM,214,fhrs@melton.gov.uk,Melton,http://www.melton.gov.uk,-0.93155700000000,LE14 4PE,2013-09-25,fhrs_5_en-GB,5,,FHRS,5
64993,Stapleford Road,Stapleford,,,Stapleford Park Country House Hotel,Hotel/bed & breakfast/guest house,7842,5,,28070,5,,52.75652300000000,08550/0000/2/000,214,fhrs@melton.gov.uk,Melton,http://www.melton.gov.uk,-0.79986200000000,LE14 2SF,2014-03-17,fhrs_4_en-GB,4,,FHRS,10
64994,Stapleford Park,Stapleford Road,Stapleford,Melton Mowbray,Stapleford Park Pavillion Golf Club,Restaurant/Cafe/Canteen,1,5,,447941,5,,52.75652300000000,04/00034/COMM,214,fhrs@melton.gov.uk,Melton,http://www.melton.gov.uk,-0.79986200000000,LE14 2SF,2014-03-17,fhrs_5_en-GB,5,,FHRS,5
64995,Stathern County Primary School,Water Lane,Stathern,Melton Mowbray,Stathern County Primary School,School/college/university,7845,5,,32619,0,,52.87059600000000,09880/0000/2/000,214,fhrs@melton.gov.uk,Melton,http://www.melton.gov.uk,-0.85445000000000,LE14 4HX,2013-12-16,fhrs_5_en-GB,5,,FHRS,5
64996,Stathern Stores,37 Main Street,Stathern,Melton Mowbray,Stathern Store,Retailers - other,4613,10,,7349,5,,52.87201000000000,03/00001/COMM,214,fhrs@melton.gov.uk,Melton,http://www.melton.gov.uk,-0.85468000000000,LE14 4HW,2013-06-26,fhrs_3_en-GB,3,,FHRS,10
64997,24 Staveley Road,Melton Mowbray,,,Staveley Road Stores,Retailers - other,4613,20,,28207,10,,52.77071900000000,08730/0024/0/000,214,fhrs@melton.gov.uk,Melton,http://www.melton.gov.uk,-0.89626400000000,LE13 0LN,2013-11-14,fhrs_1_en-GB,1,,FHRS,5
64998,The Stilton Cheese,55 High Street,Somerby,,Stilton Cheese Inn,Pub/bar/nightclub,7843,5,,13605,5,,52.68720900000000,04220/2020/2/000,214,fhrs@melton.gov.uk,Melton,http://www.melton.gov.uk,-0.84883900000000,LE14 2PZ,2013-05-10,fhrs_5_en-GB,5,,FHRS,5
64999,Pickards Lane,Wycomb,,,Stonepits Farm,Hotel/bed & breakfast/guest house,7842,5,,482813,5,,52.81625300000000,10/00052/COMM,214,fhrs@melton.gov.uk,Melton,http://www.melton.gov.uk,-0.85166500000000,LE14 4QH,2013-10-01,fhrs_5_en-GB,5,,FHRS,5
65000,Stop N Snack Catering Unit,Crown Business Park,Station Road,Old Dalby,Stop N Snack,Restaurant/Cafe/Canteen,1,10,,29020,5,,,09/00046/COMM,214,fhrs@melton.gov.uk,Melton,http://www.melton.gov.uk,,,2013-11-26,fhrs_3_en-GB,3,,FHRS,10
65001,Tresillian House,67 Dalby Road,Melton Mowbray,,Students International Limited,Hotel/bed & breakfast/guest house,7842,,,627066,,,52.75343000000000,11/00037/COMM,214,fhrs@melton.gov.uk,Melton,http://www.melton.gov.uk,-0.88942600000000,LE13 0BQ,2013-07-22,fhrs_exempt_en-GB,Exempt,,FHRS,
65002,4 High Street,Melton Mowbray,,,Subway,Takeaway/sandwich shop,7844,10,,688491,5,,52.76508000000000,14/00040/COMM,214,fhrs@melton.gov.uk,Melton,http://www.melton.gov.uk,-0.88830000000000,LE13 0TR,2014-11-05,fhrs_4_en-GB,4,,FHRS,5
65003,,,,,Sucre Dente Patisserie,Other catering premises,7841,5,,722648,5,,,14/00069/COMM,214,fhrs@melton.gov.uk,Melton,http://www.melton.gov.uk,,,2014-12-05,fhrs_5_en-GB,5,,FHRS,5
65004,9 Firwood Road,Melton Mowbray,,,Sue Dawson,Retailers - other,4613,5,,221618,0,,52.77475100000000,12/00011/COMM,214,fhrs@melton.gov.uk,Melton,http://www.melton.gov.uk,-0.87282900000000,LE13 1SA,2012-03-16,fhrs_5_en-GB,5,,FHRS,0
65005,,,,,Sugar Daisy's,Manufacturers/packers,7839,0,,482808,0,,,10/00007/COMM,214,fhrs@melton.gov.uk,Melton,http://www.melton.gov.uk,,,2013-06-06,fhrs_5_en-GB,5,,FHRS,0
65006,Superdrug,1 Sherrard Street,Melton Mowbray,,Superdrug Stores Plc,Retailers - other,4613,,,27515,,,52.76473600000000,08090/0001/0/000,214,fhrs@melton.gov.uk,Melton,http://www.melton.gov.uk,-0.88421800000000,LE13 1XH,2013-01-28,fhrs_exempt_en-GB,Exempt,,FHRS,
65007,Dalby Road,Melton Mowbray,,,Swallowdale Primary School,School/college/university,7845,0,,6905,5,,52.75462000000000,02640/2014/2/000,214,fhrs@melton.gov.uk,Melton,http://www.melton.gov.uk,-0.88969200000000,LE13 0BJ,2014-09-29,fhrs_5_en-GB,5,,FHRS,0
65008,,,,,Sweet Tooth Fairy,Retailers - other,4613,5,,707695,0,,,14/00057/COMM,214,fhrs@melton.gov.uk,Melton,http://www.melton.gov.uk,,,2014-10-15,fhrs_5_en-GB,5,,FHRS,0
65009,Pavillion,Asfordby Road Sports Ground,Asfordby Road,Melton Mowbray,Sysonby Acres,Retailers - other,4613,5,,482393,5,,,00140/2014/2/000,214,fhrs@melton.gov.uk,Melton,http://www.melton.gov.uk,,,2013-01-21,fhrs_5_en-GB,5,,FHRS,5
65010,Asfordby Road,Melton Mowbray,,,Sysonby Knoll Hotel,Hotel/bed & breakfast/guest house,7842,5,,1346,0,,52.76578400000000,00140/2000/2/000,214,fhrs@melton.gov.uk,Melton,http://www.melton.gov.uk,-0.90505900000000,LE13 0HP,2014-08-13,fhrs_5_en-GB,5,,FHRS,5
65011,Tandoori Knights,33 Burton Street,Melton Mowbray,,Tandoori Knights Restaurant,Restaurant/Cafe/Canteen,1,10,,4750,10,,52.76261700000000,01320/0033/0/000,214,fhrs@melton.gov.uk,Melton,http://www.melton.gov.uk,-0.88452400000000,LE13 1AF,2014-01-23,fhrs_3_en-GB,3,,FHRS,10
65012,,,,,Taste Of Belvoir,Farmers/growers,7838,0,,482810,5,,,10/00020/COMM,214,fhrs@melton.gov.uk,Melton,http://www.melton.gov.uk,,,2012-05-16,fhrs_5_en-GB,5,,FHRS,5
65013,Dalby Road,Melton Mowbray,,,Terminal 1,Restaurant/Cafe/Canteen,1,5,,674919,5,,52.74139200000000,14/00028/COMM,214,fhrs@melton.gov.uk,Melton,http://www.melton.gov.uk,-0.89217600000000,LE13 0BL,2014-06-25,fhrs_5_en-GB,5,,FHRS,5
65014,Nottingham Road,Melton Mowbray,,,Tesco Express,Retailers - supermarkets/hypermarkets,7840,10,,20949,5,,52.77375000000000,06630/2011/2/000,214,fhrs@melton.gov.uk,Melton,http://www.melton.gov.uk,-0.89448200000000,LE13 0NR,2014-01-15,fhrs_4_en-GB,4,,FHRS,5
65015,Thorpe Road,Melton Mowbray,,,Tesco Stores Ltd,Retailers - supermarkets/hypermarkets,7840,0,,32197,0,,52.76722100000000,09330/2006/2/000,214,fhrs@melton.gov.uk,Melton,http://www.melton.gov.uk,-0.87601800000000,LE13 1SQ,2015-01-14,fhrs_5_en-GB,5,,FHRS,0
65016,The Anchor Inn,52 Main Road,Nether Broughton,,The Anchor,Pub/bar/nightclub,7843,5,,734176,5,,52.82372300000000,14/00065/COMM,214,fhrs@melton.gov.uk,Melton,http://www.melton.gov.uk,-0.97129200000000,LE14 3HB,2015-01-13,fhrs_5_en-GB,5,,FHRS,5
65017,1 Granby Lane,Plungar,,,The Anchor Inn,Pub/bar/nightclub,7843,5,,482791,5,,52.89888000000000,03710/0001/2/000,214,fhrs@melton.gov.uk,Melton,http://www.melton.gov.uk,-0.86021600000000,NG13 0JJ,2011-10-19,fhrs_5_en-GB,5,,FHRS,5
65018,Baptist Church,Bowling Green,Melton Mowbray,,The Baptist Church,Other catering premises,7841,,,637942,,,52.75734000000000,00870/0000/2/000,214,fhrs@melton.gov.uk,Melton,http://www.melton.gov.uk,-0.90189200000000,LE13 0FA,2014-03-10,fhrs_exempt_en-GB,Exempt,,FHRS,
65019,Village Hall,19 Main Street,Stathern,,The Base,Other catering premises,7841,0,,482814,0,,52.87201000000000,10/00063/COMM,214,fhrs@melton.gov.uk,Melton,http://www.melton.gov.uk,-0.85468000000000,LE14 4HW,2013-10-02,fhrs_5_en-GB,5,,FHRS,5
65020,The Bell Inn,2 Main Street,Frisby On The Wreake,,The Bell And Brasserie,Pub/bar/nightclub,7843,20,,16964,15,,52.75260700000000,05410/0002/2/000,214,fhrs@melton.gov.uk,Melton,http://www.melton.gov.uk,-0.97157500000000,LE14 2NJ,2015-01-06,fhrs_0_en-GB,0,,FHRS,20
65021,Berkeley Arms,59 Main Street,Wymondham,,The Berkeley Arms,Pub/bar/nightclub,7843,5,,17272,5,,52.76035600000000,05790/0059/2/000,214,fhrs@melton.gov.uk,Melton,http://www.melton.gov.uk,-0.74119000000000,LE14 2AG,2014-10-30,fhrs_5_en-GB,5,,FHRS,5
65022,3 Main Street,Grimston,,,The Black Horse,Pub/bar/nightclub,7843,5,,17006,5,,52.79025300000000,05450/2002/2/000,214,fhrs@melton.gov.uk,Melton,http://www.melton.gov.uk,-0.98370800000000,LE14 3BZ,2014-02-11,fhrs_5_en-GB,5,,FHRS,5
65023,26 Sherrard Street,Melton Mowbray,,,The Black Swan,Pub/bar/nightclub,7843,5,,647338,5,,52.76439400000000,14/00016/COMM,214,fhrs@melton.gov.uk,Melton,http://www.melton.gov.uk,-0.88416800000000,LE13 1XJ,2014-04-02,fhrs_5_en-GB,5,,FHRS,5
65024,36 Main Street,Hoby,,,The Blue Bell Inn,Pub/bar/nightclub,7843,0,,17032,0,,52.75075400000000,05480/2028/2/000,214,fhrs@melton.gov.uk,Melton,http://www.melton.gov.uk,-1.00848000000000,LE14 3DT,2013-10-22,fhrs_5_en-GB,5,,FHRS,0
65025,The Blue Dog,46 Main Street,Sewstern,,The Blue Dog Inn,Pub/bar/nightclub,7843,,,17153,,,52.78583100000000,05600/0046/0/000,214,fhrs@melton.gov.uk,Melton,http://www.melton.gov.uk,-0.68458300000000,NG33 5RQ,2014-03-04,fhrs_5_en-GB,5,,FHRS,
65026,57 Burton Street,Melton Mowbray,,,The Boat Inn,Pub/bar/nightclub,7843,5,,4754,5,,52.76261700000000,01320/0057/2/000,214,fhrs@melton.gov.uk,Melton,http://www.melton.gov.uk,-0.88452400000000,LE13 1AF,2014-05-29,fhrs_5_en-GB,5,,FHRS,5
65027,5 Market Street,Bottesford,,,The Bull Inn,Pub/bar/nightclub,7843,5,,17380,5,,52.94169400000000,05900/0005/2/000,214,fhrs@melton.gov.uk,Melton,http://www.melton.gov.uk,-0.80220000000000,NG13 0BW,2012-03-28,fhrs_5_en-GB,5,,FHRS,5
65028,2 Rearsby Lane,Gaddesby,,,The Cheney Arms,Pub/bar/nightclub,7843,10,,24073,15,,52.71092500000000,07320/0002/2/000,214,fhrs@melton.gov.uk,Melton,http://www.melton.gov.uk,-0.98777200000000,LE7 4XE,2014-01-21,fhrs_2_en-GB,2,,FHRS,15
65029,The Chocolate Shop,3 Bell Centre,Melton Mowbray,Leicestershire,The Chocolate Shop,Retailers - other,4613,5,,20959,5,,52.76541000000000,06650/0003/0/000,214,fhrs@melton.gov.uk,Melton,http://www.melton.gov.uk,-0.88701700000000,LE13 1PJ,2012-07-24,fhrs_5_en-GB,5,,FHRS,5
65030,Pharmacy,4 Albert Street,Bottesford,Nottingham,The Co-operative Pharmacy,Retailers - other,4613,,,730981,,,52.94247400000000,15/00004/COMM,214,fhrs@melton.gov.uk,Melton,http://www.melton.gov.uk,-0.80558600000000,NG13 0AJ,2015-01-19,fhrs_exempt_en-GB,Exempt,,FHRS,
65031,55 Main Street,Wymondham,,,The Cottage Stores,Retailers - other,4613,5,,17271,5,,52.76035600000000,05790/0055/2/000,214,fhrs@melton.gov.uk,Melton,http://www.melton.gov.uk,-0.74119000000000,LE14 2AG,2011-10-06,fhrs_5_en-GB,5,,FHRS,5
65032,1 Coston Road,Sproxton,,,The Crown Inn,Pub/bar/nightclub,7843,5,,734178,5,,52.80747500000000,15/00013/COMM,214,fhrs@melton.gov.uk,Melton,http://www.melton.gov.uk,-0.73296100000000,LE14 4QB,2015-02-05,fhrs_5_en-GB,5,,FHRS,5
65033,10 Burton Street,Melton Mowbray,,,The Crown Inn,Pub/bar/nightclub,7843,,,707694,,,52.76373900000000,14/00045/COMM,214,fhrs@melton.gov.uk,Melton,http://www.melton.gov.uk,-0.88523700000000,LE13 1AE,2014-11-06,fhrs_4_en-GB,4,,FHRS,
65034,106 Main Street,Asfordby,,,The Crown Inn,Pub/bar/nightclub,7843,5,,16761,10,,52.76457000000000,05270/0106/0/000,214,fhrs@melton.gov.uk,Melton,http://www.melton.gov.uk,-0.94869200000000,LE14 3SA,2014-10-15,fhrs_4_en-GB,4,,FHRS,5
65035,7 Debdale Hill,Old Dalby,,,The Crown Inn,Pub/bar/nightclub,7843,10,,7116,10,,52.80829700000000,02690/0007/2/000,214,fhrs@melton.gov.uk,Melton,http://www.melton.gov.uk,-1.00616300000000,LE14 3LF,2014-03-04,fhrs_3_en-GB,3,,FHRS,10
65036,52 King Street,Melton Mowbray,,,The Curry Hut,Takeaway/sandwich shop,7844,20,,14070,15,,52.76499700000000,04640/0052/0/000,214,fhrs@melton.gov.uk,Melton,http://www.melton.gov.uk,-0.88612300000000,LE13 1XB,2014-09-18,fhrs_1_en-GB,1,,FHRS,15
65037,2 St Marys Way,Melton Mowbray,,,The Cutting Room,Pub/bar/nightclub,7843,10,,627071,5,,52.76571200000000,13/00079/COMM,214,fhrs@melton.gov.uk,Melton,http://www.melton.gov.uk,-0.88576400000000,LE13 1YE,2013-12-03,fhrs_3_en-GB,3,,FHRS,10
65038,Dalby Road,Melton Mowbray,,,The Edge,Restaurant/Cafe/Canteen,1,,,482809,,,52.75343000000000,10/00017/COMM,214,fhrs@melton.gov.uk,Melton,http://www.melton.gov.uk,-0.88942600000000,LE13 0BQ,2012-05-23,fhrs_exempt_en-GB,Exempt,,FHRS,
65039,52 Sherrard Street,Melton Mowbray,,,The Elms Cafe,Restaurant/Cafe/Canteen,1,5,,27522,0,,52.76439400000000,08090/0052/0/000,214,fhrs@melton.gov.uk,Melton,http://www.melton.gov.uk,-0.88416800000000,LE13 1XJ,2013-08-15,fhrs_5_en-GB,5,,FHRS,0
65040,Gap Inn,Church Lane,Muston,,The Gap Inn,Restaurant/Cafe/Canteen,1,0,,5474,0,,52.93223000000000,01880/2001/2/000,214,fhrs@melton.gov.uk,Melton,http://www.melton.gov.uk,-0.76900100000000,NG13 0FD,2014-06-30,fhrs_5_en-GB,5,,FHRS,5
65041,11 King Street,Melton Mowbray,,,The Generous Briton,Pub/bar/nightclub,7843,10,,14068,0,,52.76524700000000,04640/0011/2/000,214,fhrs@melton.gov.uk,Melton,http://www.melton.gov.uk,-0.88595400000000,LE13 1XA,2014-09-11,fhrs_4_en-GB,4,,FHRS,0
65042,Cross Roads Farm,Scalford Road,Eastwell,Melton Mowbray,The Good Grub Company Farm Shop And Tea Room,Retailers - other,4613,5,,516544,5,,52.84131200000000,13/00004/COMM,214,fhrs@melton.gov.uk,Melton,http://www.melton.gov.uk,-0.86148600000000,LE14 4EF,2014-09-16,fhrs_5_en-GB,5,,FHRS,5
65043,Grange Mews,32 New Road,Burton Lazars,Melton Mowbray,The Grange Country Guest House,Hotel/bed & breakfast/guest house,7842,5,,20784,5,,52.74504000000000,06450/0032/2/000,214,fhrs@melton.gov.uk,Melton,http://www.melton.gov.uk,-0.85973000000000,LE14 2UU,2012-06-19,fhrs_5_en-GB,5,,FHRS,5
65044,Alpine Restaurant,The Grange Garden Centre,Melton Road,Asfordby Hill,The Grange Garden Centre And Alpine Restaurant,Restaurant/Cafe/Canteen,1,5,,20462,0,,52.76451300000000,06010/4001/2/000,214,fhrs@melton.gov.uk,Melton,http://www.melton.gov.uk,-0.91835600000000,LE14 3QU,2014-04-30,fhrs_5_en-GB,5,,FHRS,5
65045,The Grapes Inn,19 Market Place,Melton Mowbray,,The Grapes,Pub/bar/nightclub,7843,5,,627057,10,,52.76440400000000,05890/0019/2/000,214,fhrs@melton.gov.uk,Melton,http://www.melton.gov.uk,-0.88621300000000,LE13 1XD,2013-08-13,fhrs_4_en-GB,4,,FHRS,5
65046,The Grove Primary School,Asfordby Road,Melton Mowbray,,The Grove School,School/college/university,7845,0,,1347,0,,52.76674100000000,00140/2011/2/000,214,fhrs@melton.gov.uk,Melton,http://www.melton.gov.uk,-0.89578700000000,LE13 0HN,2014-01-15,fhrs_5_en-GB,5,,FHRS,5
65047,Whitegates,3 Melton Road,Burton Lazars,,The Gud Fud Company,Retailers - other,4613,10,,504249,5,,52.74420000000000,12/00048/COMM,214,fhrs@melton.gov.uk,Melton,http://www.melton.gov.uk,-0.86398900000000,LE14 2UR,2012-10-15,fhrs_3_en-GB,3,,FHRS,10
65048,6 Nottingham Street,Melton Mowbray,,,The Half Moon,Pub/bar/nightclub,7843,5,,20967,5,,52.76582600000000,06660/0006/2/000,214,fhrs@melton.gov.uk,Melton,http://www.melton.gov.uk,-0.88728800000000,LE13 1NW,2013-07-05,fhrs_5_en-GB,5,,FHRS,5
65049,49 Burton Street,Melton Mowbray,,,The Harboro Hotel,Hotel/bed & breakfast/guest house,7842,5,,4752,5,,52.76261700000000,01320/0049/2/000,214,fhrs@melton.gov.uk,Melton,http://www.melton.gov.uk,-0.88452400000000,LE13 1AF,2014-02-18,fhrs_4_en-GB,4,,FHRS,10
65050,,,,,The Haven Bakery,Retailers - other,4613,5,,732572,5,,,15/00010/COMM,214,fhrs@melton.gov.uk,Melton,http://www.melton.gov.uk,,,2014-11-18,fhrs_5_en-GB,5,,FHRS,5
65051,,,,,The Health Shack,Mobile caterer,7846,5,,433148,0,,,12/00041/COMM,214,fhrs@melton.gov.uk,Melton,http://www.melton.gov.uk,,,2012-07-27,fhrs_5_en-GB,5,,FHRS,0
65052,128 Main Street,Asfordby,,,The Horse Shoes,Pub/bar/nightclub,7843,10,,16762,5,,52.76457000000000,05270/0128/2/000,214,fhrs@melton.gov.uk,Melton,http://www.melton.gov.uk,-0.94869200000000,LE14 3SA,2014-01-30,fhrs_4_en-GB,4,,FHRS,5
65053,2 Rutland Square,Barkestone Le Vale,Nottingham,,The John Dory,Takeaway/sandwich shop,7844,5,,669719,0,,52.90509200000000,14/00023/COMM,214,fhrs@melton.gov.uk,Melton,http://www.melton.gov.uk,-0.83978700000000,NG13 0HN,2014-06-05,fhrs_5_en-GB,5,,FHRS,5
65054,Wilton Road,Melton Mowbray,,,The Kettleby Cross,Pub/bar/nightclub,7843,0,,23058,0,,52.76618700000000,07/00475/COMM,214,fhrs@melton.gov.uk,Melton,http://www.melton.gov.uk,-0.88939800000000,LE13 0UJ,2013-03-06,fhrs_5_en-GB,5,,FHRS,0
65055,Kings Arms,7 King Street,Scalford,,The Kings Arms,Pub/bar/nightclub,7843,10,,14101,5,,52.81053700000000,04660/2010/2/000,214,fhrs@melton.gov.uk,Melton,http://www.melton.gov.uk,-0.87061300000000,LE14 4DW,2014-06-30,fhrs_4_en-GB,4,,FHRS,5
65056,The Kings Head Hotel,54 Nottingham Street,Melton Mowbray,,The Kings Head,Pub/bar/nightclub,7843,10,,20975,10,,52.76582600000000,06660/1048/1/000,214,fhrs@melton.gov.uk,Melton,http://www.melton.gov.uk,-0.88728800000000,LE13 1NW,2014-10-08,fhrs_2_en-GB,2,,FHRS,15
65057,,,,,The Little Miss Cake Co,Manufacturers/packers,7839,5,,29372,5,,,09/00076/COMM,214,fhrs@melton.gov.uk,Melton,http://www.melton.gov.uk,,,2011-12-19,fhrs_5_en-GB,5,,FHRS,0
65058,The Lodge,Melton Road,Scalford,Melton Mowbray,The Lodge B & B,Hotel/bed & breakfast/guest house,7842,5,,23055,5,,52.80218800000000,07/00473/COMM,214,fhrs@melton.gov.uk,Melton,http://www.melton.gov.uk,-0.88711700000000,LE14 4UB,2012-10-11,fhrs_5_en-GB,5,,FHRS,5
65059,The Cattle Market Restaurant,Scalford Road,Melton Mowbray,,The Market Tavern And Exhibition Hall,Restaurant/Cafe/Canteen,1,5,,9685,5,,52.76923200000000,04/00047/COMM,214,fhrs@melton.gov.uk,Melton,http://www.melton.gov.uk,-0.88817900000000,LE13 1JY,2015-01-27,fhrs_5_en-GB,5,,FHRS,5
65060,58 Nottingham Street,Melton Mowbray,,,The Mash Tub,Pub/bar/nightclub,7843,5,,20973,5,,52.76582600000000,06660/0058/2/000,214,fhrs@melton.gov.uk,Melton,http://www.melton.gov.uk,-0.88728800000000,LE13 1NW,2014-04-08,fhrs_5_en-GB,5,,FHRS,5
65061,8 Windsor Street,Melton Mowbray,,,The Melton Cheese Board,Retailers - other,4613,0,,41211,0,,52.76490600000000,10230/0008/0/000,214,fhrs@melton.gov.uk,Melton,http://www.melton.gov.uk,-0.88513300000000,LE13 1BU,2013-08-14,fhrs_5_en-GB,5,,FHRS,0
65062,Melton Cheese Board,Unit 5b Farmers Market,Scalford Road,Melton Mowbray,The Melton Cheese Board,Retailers - other,4613,5,,482828,5,,,12/00006/COMM,214,fhrs@melton.gov.uk,Melton,http://www.melton.gov.uk,,,2015-01-27,fhrs_5_en-GB,5,,FHRS,5
65063,34 Dalby Road,Melton Mowbray,,,The Melton Mowbray Nursery School,Hospitals/Childcare/Caring Premises,5,5,,6902,5,,52.75927800000000,02640/0034/0/000,214,fhrs@melton.gov.uk,Melton,http://www.melton.gov.uk,-0.88988500000000,LE13 0BH,2013-11-20,fhrs_5_en-GB,5,,FHRS,5
65064,66 Dalby Road,Melton Mowbray,,,The Melton Project,Hospitals/Childcare/Caring Premises,5,5,,25153,10,,52.75927800000000,08/00049/COMM,214,fhrs@melton.gov.uk,Melton,http://www.melton.gov.uk,-0.88988500000000,LE13 0BH,2012-10-12,fhrs_4_en-GB,4,,FHRS,0
65065,Hudson Road,Melton Mowbray,,,The Munch Box,Mobile caterer,7846,10,,18060,10,,,06/00064/COMM,214,fhrs@melton.gov.uk,Melton,http://www.melton.gov.uk,,,2014-04-10,fhrs_3_en-GB,3,,FHRS,10
65066,1 Back Street,Saltby,,,The Nags Head,Pub/bar/nightclub,7843,5,,1633,0,,52.82649900000000,00310/0001/2/000,214,fhrs@melton.gov.uk,Melton,http://www.melton.gov.uk,-0.73901200000000,LE14 4RN,2015-01-22,fhrs_5_en-GB,5,,FHRS,5
65067,Nags Head Inn,20 Main Street,Harby,,The Nags Head,Pub/bar/nightclub,7843,20,,683001,15,,52.87159800000000,14/00027/COMM,214,fhrs@melton.gov.uk,Melton,http://www.melton.gov.uk,-0.89566700000000,LE14 4BN,2014-07-10,fhrs_1_en-GB,1,,FHRS,15
65068,The Forge,1 Main Street,Muston,,The Old Forge Tea Rooms,Restaurant/Cafe/Canteen,1,0,,14968,5,,52.93404100000000,05/00078/COMM,214,fhrs@melton.gov.uk,Melton,http://www.melton.gov.uk,-0.76935100000000,NG13 0FB,2014-03-19,fhrs_5_en-GB,5,,FHRS,5
65069,,,,,The Old Restaurant Bakery,Manufacturers/packers,7839,0,,624286,0,,,14/00002/COMM,214,fhrs@melton.gov.uk,Melton,http://www.melton.gov.uk,,,2014-01-13,fhrs_5_en-GB,5,,FHRS,5
65070,Croxton Park Cottage,Croxton Park,Croxton Kerrial,,The Place,Hospitals/Childcare/Caring Premises,5,,,637944,,,52.83974000000000,13/00078/COMM,214,fhrs@melton.gov.uk,Melton,http://www.melton.gov.uk,-0.78014000000000,NG32 1QY,2014-03-21,fhrs_exempt_en-GB,Exempt,,FHRS,
65071,High Leys Farm,Eastwell Road,Knipton,Grantham,The Place,Hospitals/Childcare/Caring Premises,5,5,,715391,5,,52.87874100000000,14/00053/COMM,214,fhrs@melton.gov.uk,Melton,http://www.melton.gov.uk,-0.80510900000000,NG32 1EZ,2014-11-11,fhrs_5_en-GB,5,,FHRS,5
65072,12 Main Street,Stathern,Melton Mowbray,,The Plough Inn,Pub/bar/nightclub,7843,20,,17184,10,,52.87201000000000,05650/0012/2/000,214,fhrs@melton.gov.uk,Melton,http://www.melton.gov.uk,-0.85468000000000,LE14 4HW,2014-09-01,fhrs_1_en-GB,1,,FHRS,15
65073,Grantham Road,Bottesford,,,The Red Lion,Pub/bar/nightclub,7843,5,,7357,10,,52.94166000000000,03/00003/COMM,214,fhrs@melton.gov.uk,Melton,http://www.melton.gov.uk,-0.80065400000000,NG13 0DF,2013-02-26,fhrs_3_en-GB,3,,FHRS,10
65074,Red Lion Inn,2 Red Lion Street,Stathern,,The Red Lion,Pub/bar/nightclub,7843,10,,24115,10,,52.87172100000000,07390/0002/2/000,214,fhrs@melton.gov.uk,Melton,http://www.melton.gov.uk,-0.85363300000000,LE14 4HS,2014-04-29,fhrs_3_en-GB,3,,FHRS,10
65075,1 Park Road,Melton Mowbray,,,The Roadhouse,Pub/bar/nightclub,7843,20,,150701,10,,52.76703300000000,99/00001/COMM,214,fhrs@melton.gov.uk,Melton,http://www.melton.gov.uk,-0.88954000000000,LE13 1TT,2014-10-02,fhrs_1_en-GB,1,,FHRS,5
65076,Green Acres Poultry,Unit 2 Farmers Market,Scalford Road,Melton Mowbray,The Roosterman,Mobile caterer,7846,20,,33382,5,,,10/00041/COMM,214,fhrs@melton.gov.uk,Melton,http://www.melton.gov.uk,,,2013-10-22,fhrs_1_en-GB,1,,FHRS,10
65077,Thorpe End,Melton Mowbray,,,The Royal British Legion,Pub/bar/nightclub,7843,5,,32154,5,,52.76454000000000,09310/2002/2/000,214,fhrs@melton.gov.uk,Melton,http://www.melton.gov.uk,-0.88151100000000,LE13 1RB,2013-09-05,fhrs_4_en-GB,4,,FHRS,10
65078,18 Main Street,Great Dalby,,,The Royal Oak,Pub/bar/nightclub,7843,0,,16985,5,,52.72150700000000,05440/0018/2/000,214,fhrs@melton.gov.uk,Melton,http://www.melton.gov.uk,-0.90193400000000,LE14 2ET,2013-10-02,fhrs_5_en-GB,5,,FHRS,5
65079,10 Main Street,Twyford,,,The Saddle Inn,Pub/bar/nightclub,7843,10,,703590,5,,52.68378000000000,14/00055/COMM,214,fhrs@melton.gov.uk,Melton,http://www.melton.gov.uk,-0.92209600000000,LE14 2HU,2014-08-26,fhrs_3_en-GB,3,,FHRS,10
65080,8A Burton Street,Melton Mowbray,,,The Samworth Centre,Restaurant/Cafe/Canteen,1,5,,4745,5,,52.76373900000000,01320/0008/0/000,214,fhrs@melton.gov.uk,Melton,http://www.melton.gov.uk,-0.88523700000000,LE13 1AE,2014-01-08,fhrs_5_en-GB,5,,FHRS,5
65081,The Fox Hotel,9 Leicester Street,Melton Mowbray,,The Storehouse At The Fox,Restaurant/Cafe/Canteen,1,,,14349,,,52.76416000000000,04920/0009/0/000,214,fhrs@melton.gov.uk,Melton,http://www.melton.gov.uk,-0.88799700000000,LE13 0PP,2013-08-02,fhrs_exempt_en-GB,Exempt,,FHRS,
65082,2 Nottingham Road,Ab Kettleby,Melton Mowbray,,The Sugar Loaf,Pub/bar/nightclub,7843,5,,730982,5,,52.80647000000000,15/00009/COMM,214,fhrs@melton.gov.uk,Melton,http://www.melton.gov.uk,-0.92853000000000,LE14 3JB,2015-01-14,fhrs_4_en-GB,4,,FHRS,10
65083,The Thatch Restaurant,26 High Street,Bottesford,,The Thatch Restaurant With Rooms,Restaurant/Cafe/Canteen,1,5,,13521,5,,52.94172900000000,04200/0028/0/000,214,fhrs@melton.gov.uk,Melton,http://www.melton.gov.uk,-0.80563700000000,NG13 0AA,2014-04-16,fhrs_5_en-GB,5,,FHRS,5
65084,Village Hall,5 Main Street,Croxton Kerrial,Grantham,The Village Hall,Other catering premises,7841,,,16884,,,52.85290600000000,05360/0005/0/000,214,fhrs@melton.gov.uk,Melton,http://www.melton.gov.uk,-0.76062800000000,NG32 1QF,2013-01-15,fhrs_exempt_en-GB,Exempt,,FHRS,
65085,Nottingham Road,Melton Mowbray,,,The Welby,Pub/bar/nightclub,7843,10,,32651,0,,52.76821100000000,09930/2000/2/000,214,fhrs@melton.gov.uk,Melton,http://www.melton.gov.uk,-0.89145100000000,LE13 0NP,2014-02-17,fhrs_4_en-GB,4,,FHRS,10
65086,13 Main Street,Branston,,,The Wheel Inn,Pub/bar/nightclub,7843,5,,16801,5,,52.85699500000000,05300/0013/2/000,214,fhrs@melton.gov.uk,Melton,http://www.melton.gov.uk,-0.79805800000000,NG32 1RU,2014-04-01,fhrs_5_en-GB,5,,FHRS,5
65087,Admiral Taverns Ltd,2 Thorpe End,Melton Mowbray,,The White Hart,Pub/bar/nightclub,7843,10,,617611,5,,52.76439400000000,13/00081/COMM,214,fhrs@melton.gov.uk,Melton,http://www.melton.gov.uk,-0.88416800000000,LE13 1XJ,2014-03-10,fhrs_4_en-GB,4,,FHRS,5
65088,20 Nottingham Street,Melton Mowbray,,,The White Lion,Pub/bar/nightclub,7843,5,,20970,5,,52.76582600000000,06660/0020/2/000,214,fhrs@melton.gov.uk,Melton,http://www.melton.gov.uk,-0.88728800000000,LE13 1NW,2014-02-18,fhrs_5_en-GB,5,,FHRS,5
65089,4 Main Street,Redmile,,,The Windmill Inn,Pub/bar/nightclub,7843,5,,17131,5,,52.91057100000000,05560/2001/2/000,214,fhrs@melton.gov.uk,Melton,http://www.melton.gov.uk,-0.81558000000000,NG13 0GA,2014-10-01,fhrs_5_en-GB,5,,FHRS,5
65090,Wymondham Mill House,Butt Lane,Wymondham,,The Windmill Tea Rooms,Restaurant/Cafe/Canteen,1,0,,4776,0,,52.76262200000000,01330/2001/2/000,214,fhrs@melton.gov.uk,Melton,http://www.melton.gov.uk,-0.74038400000000,LE14 2BU,2014-12-18,fhrs_5_en-GB,5,,FHRS,5
65091,Asfordby Road Sports Ground,Asfordby Road,Melton Mowbray,,The Woodlands,Hospitals/Childcare/Caring Premises,5,5,,365264,5,,52.76674100000000,12/00023/COMM,214,fhrs@melton.gov.uk,Melton,http://www.melton.gov.uk,-0.89578700000000,LE13 0HN,2014-05-12,fhrs_5_en-GB,5,,FHRS,5
65092,3 South Parade,Melton Mowbray,,,Thorntons,Retailers - other,4613,0,,27924,0,,52.76486100000000,08340/0003/0/000,214,fhrs@melton.gov.uk,Melton,http://www.melton.gov.uk,-0.88701600000000,LE13 0PU,2014-09-11,fhrs_5_en-GB,5,,FHRS,0
65093,Waltham Road,Thorpe Arnold,Melton Mowbray,,Thorpe Arnold Cricket Club,Other catering premises,7841,10,,43620,0,,52.77732200000000,10608/6000/2/000,214,fhrs@melton.gov.uk,Melton,http://www.melton.gov.uk,-0.85214100000000,LE14 4SD,2013-02-19,fhrs_4_en-GB,4,,FHRS,5
65094,91 Thorpe Road,Melton Mowbray,,,Thorpe Road Convenience Store,Retailers - other,4613,5,,685693,0,,52.76645800000000,14/00036/COMM,214,fhrs@melton.gov.uk,Melton,http://www.melton.gov.uk,-0.87808200000000,LE13 1SE,2014-07-23,fhrs_5_en-GB,5,,FHRS,0
65095,Village Hall,3 Main Street,Thorpe Satchville,,Thorpe Satchville Village Hall,Other catering premises,7841,,,484857,,,52.69770200000000,06/00072/COMM,214,fhrs@melton.gov.uk,Melton,http://www.melton.gov.uk,-0.91670800000000,LE14 2DQ,2013-05-07,fhrs_exempt_en-GB,Exempt,,FHRS,
65096,16 The Bell Centre,Nottingham Street,Melton Mowbray,,Time Out,Restaurant/Cafe/Canteen,1,10,,20963,0,,52.76541000000000,06650/0016/0/000,214,fhrs@melton.gov.uk,Melton,http://www.melton.gov.uk,-0.88701700000000,LE13 1PJ,2014-07-22,fhrs_4_en-GB,4,,FHRS,5
65097,48 Main Street,Buckminster,,,Tollemache Arms,Pub/bar/nightclub,7843,5,,710424,5,,52.79649100000000,14/00059/COMM,214,fhrs@melton.gov.uk,Melton,http://www.melton.gov.uk,-0.69577100000000,NG33 5SA,2014-10-28,fhrs_4_en-GB,4,,FHRS,10
65098,Play Close,Park Lane,Melton Mowbray,,Town Estate Kiosk,Retailers - other,4613,10,,691128,5,,,14/00044/COMM,214,fhrs@melton.gov.uk,Melton,http://www.melton.gov.uk,,,2014-08-08,fhrs_3_en-GB,3,,FHRS,10
65099,2 Pate Road,Melton Mowbray,,,Travis Perkins,Retailers - other,4613,,,693120,,,52.75172200000000,14/00046/COMM,214,fhrs@melton.gov.uk,Melton,http://www.melton.gov.uk,-0.91068600000000,LE13 0RG,2014-08-18,fhrs_exempt_en-GB,Exempt,,FHRS,
65100,St Marys Way,Melton Mowbray,,,Tubes Nightspot,Pub/bar/nightclub,7843,5,,43639,5,,52.76571200000000,10610/0003/2/000,214,fhrs@melton.gov.uk,Melton,http://www.melton.gov.uk,-0.88576400000000,LE13 1YE,2011-10-03,fhrs_5_en-GB,5,,FHRS,5
65101,,,,,Tuesday's Pancakes,Mobile caterer,7846,5,,29125,0,,,09/00055/COMM,214,fhrs@melton.gov.uk,Melton,http://www.melton.gov.uk,,,2014-06-30,fhrs_5_en-GB,5,,FHRS,0
65102,Twin Lakes Leisure Park,Melton Spinney Road,Thorpe Arnold,Melton Mowbray,Twinlakes Park,Restaurant/Cafe/Canteen,1,10,,9802,10,,52.79877300000000,04/00067/COMM,214,fhrs@melton.gov.uk,Melton,http://www.melton.gov.uk,-0.85783600000000,LE14 4SB,2014-03-18,fhrs_2_en-GB,2,,FHRS,15
65103,,,,,Two Counties Hog Roast,Mobile caterer,7846,0,,14872,0,,,05/00064/COMM,214,fhrs@melton.gov.uk,Melton,http://www.melton.gov.uk,,,2013-10-23,fhrs_5_en-GB,5,,FHRS,0
65104,,,,,Uncle Dave's Ice Cream Van,Mobile caterer,7846,0,,28002,5,,,08470/0023/0/000,214,fhrs@melton.gov.uk,Melton,http://www.melton.gov.uk,,,2014-03-31,fhrs_5_en-GB,5,,FHRS,5
65105,Melton Mowbray United Reformed Chur,Chapel Street,Melton Mowbray,Leicestershire,United Reformed Church,Other catering premises,7841,10,,5206,5,,,01630/6000/0/000,214,fhrs@melton.gov.uk,Melton,http://www.melton.gov.uk,,,2013-08-20,fhrs_4_en-GB,4,,FHRS,5
65106,17 Beler Way,Melton Mowbray,,,Upstairs Cafe,Restaurant/Cafe/Canteen,1,0,,32944,5,,52.75260800000000,10/00015/COMM,214,fhrs@melton.gov.uk,Melton,http://www.melton.gov.uk,-0.90827900000000,LE13 0DG,2013-04-23,fhrs_5_en-GB,5,,FHRS,0
65107,USA Chicken,7 Leicester Street,Melton Mowbray,,USA Pizza,Takeaway/sandwich shop,7844,10,,14348,10,,52.76416000000000,04920/0007/0/000,214,fhrs@melton.gov.uk,Melton,http://www.melton.gov.uk,-0.88799700000000,LE13 0PP,2015-01-14,fhrs_3_en-GB,3,,FHRS,10
65108,Woolsthorpe Road,Belvoir,,,Vale House,Hotel/bed & breakfast/guest house,7842,5,,657255,5,,52.89614600000000,14/00019/COMM,214,fhrs@melton.gov.uk,Melton,http://www.melton.gov.uk,-0.78312000000000,NG32 1PA,2014-04-28,fhrs_4_en-GB,4,,FHRS,10
65109,Belvoir High School,Barkestone Lane,Bottesford,Nottingham,Vale Of Belvoir Out Of School Club,Hospitals/Childcare/Caring Premises,5,5,,687755,5,,52.93719800000000,14/00038/COMM,214,fhrs@melton.gov.uk,Melton,http://www.melton.gov.uk,-0.80748800000000,NG13 0AX,2014-07-28,fhrs_5_en-GB,5,,FHRS,0
65110,Vale View Farm,Nottingham Lane,Old Dalby,,Vale View Equestrian,Restaurant/Cafe/Canteen,1,10,,17548,5,,52.80668900000000,06/00008/COMM,214,fhrs@melton.gov.uk,Melton,http://www.melton.gov.uk,-1.01174800000000,LE14 3LX,2014-06-29,fhrs_4_en-GB,4,,FHRS,5
65111,Asfordby Road,Melton Mowbray,,,Venture House Youth Centre,Other catering premises,7841,5,,1349,5,,52.76674100000000,00140/2013/2/000,214,fhrs@melton.gov.uk,Melton,http://www.melton.gov.uk,-0.89578700000000,LE13 0HN,2012-06-14,fhrs_5_en-GB,5,,FHRS,5
65112,82 Main Street,Asfordby,Melton Mowbray,,Vinny's Of Asfordby,Retailers - other,4613,0,,16760,0,,52.76418800000000,05270/0082/0/000,214,fhrs@melton.gov.uk,Melton,http://www.melton.gov.uk,-0.94825700000000,LE14 3RZ,2014-09-30,fhrs_5_en-GB,5,,FHRS,0
65113,44 Thorpe End,Melton Mowbray,,,Wah Ying,Takeaway/sandwich shop,7844,5,,32151,10,,52.76454000000000,09310/0044/0/000,214,fhrs@melton.gov.uk,Melton,http://www.melton.gov.uk,-0.88151100000000,LE13 1RB,2013-07-03,fhrs_3_en-GB,3,,FHRS,10
65114,Waltham On The Wolds Church Of Engl,Melton Road,Waltham On The Wolds,Melton Mowbray,Waltham C Of E School,School/college/university,7845,5,,20508,0,,52.81345200000000,06070/2017/2/000,214,fhrs@melton.gov.uk,Melton,http://www.melton.gov.uk,-0.81366600000000,LE14 4AJ,2013-01-16,fhrs_5_en-GB,5,,FHRS,5
65115,The Cottage,21 High Street,Waltham On The Wolds,,Waltham Deli,Restaurant/Cafe/Canteen,1,5,,1292,5,,52.81594500000000,00110/0021/0/000,214,fhrs@melton.gov.uk,Melton,http://www.melton.gov.uk,-0.80681700000000,LE14 4AH,2014-07-31,fhrs_4_en-GB,4,,FHRS,10
65116,Waltham Hall Home,87 Melton Road,Waltham On The Wolds,,Waltham Hall Private Nursing And Residential Home,Hospitals/Childcare/Caring Premises,5,0,,20507,5,,52.81345200000000,06070/2010/2/000,214,fhrs@melton.gov.uk,Melton,http://www.melton.gov.uk,-0.81366600000000,LE14 4AJ,2014-08-26,fhrs_4_en-GB,4,,FHRS,10
65117,Waltham On The Wolds Church Of Engl,Melton Road,Waltham On The Wolds,Melton Mowbray,Waltham Pre-School,Hospitals/Childcare/Caring Premises,5,5,,14735,5,,52.81345200000000,05/00046/COMM,214,fhrs@melton.gov.uk,Melton,http://www.melton.gov.uk,-0.81366600000000,LE14 4AJ,2014-04-30,fhrs_5_en-GB,5,,FHRS,5
65118,15 High Street,Waltham On The Wolds,Melton Mowbray,,Waltham Village Stores & Post Office,Retailers - other,4613,5,,1291,5,,52.81594500000000,00110/0015/0/000,214,fhrs@melton.gov.uk,Melton,http://www.melton.gov.uk,-0.80681700000000,LE14 4AH,2013-11-13,fhrs_4_en-GB,4,,FHRS,10
65119,60 Welby Lane,Melton Mowbray,,,Welby Lane Mission Church,Other catering premises,7841,5,,25257,5,,52.77318000000000,08/00061/COMM,214,fhrs@melton.gov.uk,Melton,http://www.melton.gov.uk,-0.89697300000000,LE13 0TB,2013-05-23,fhrs_5_en-GB,5,,FHRS,5
65120,Post Office,73 Welby Lane,Melton Mowbray,,Welby Lane Post Office,Retailers - other,4613,10,,32648,10,,52.77278100000000,09930/0073/2/000,214,fhrs@melton.gov.uk,Melton,http://www.melton.gov.uk,-0.89665700000000,LE13 0ST,2014-02-10,fhrs_3_en-GB,3,,FHRS,10
65121,70 Burton Road,Melton Mowbray,,,Wexford House,Hospitals/Childcare/Caring Premises,5,0,,4721,0,,52.75575600000000,01310/0070/0/000,214,fhrs@melton.gov.uk,Melton,http://www.melton.gov.uk,-0.88047600000000,LE13 1DL,2014-10-29,fhrs_5_en-GB,5,,FHRS,5
65122,,,,,Wheel Gate Farm,Retailers - other,4613,10,,466636,5,,,10/00060/COMM,214,fhrs@melton.gov.uk,Melton,http://www.melton.gov.uk,,,2012-11-05,fhrs_4_en-GB,4,,FHRS,5
65123,,,,,White Dove Bakery,Manufacturers/packers,7839,5,,365265,0,,,12/00024/COMM,214,fhrs@melton.gov.uk,Melton,http://www.melton.gov.uk,,,2012-05-11,fhrs_5_en-GB,5,,FHRS,5
65124,Pera Innovation Park,Nottingham Road,Melton Mowbray,,Wild Fig Catering,Restaurant/Cafe/Canteen,1,0,,33539,5,,52.76821100000000,10/00050/COMM,214,fhrs@melton.gov.uk,Melton,http://www.melton.gov.uk,-0.89145100000000,LE13 0NP,2013-10-22,fhrs_5_en-GB,5,,FHRS,5
65125,Wilkinson Store,33-35 Nottingham Street,Melton Mowbray,Leicestershire,Wilkinson Home & Garden,Retailers - other,4613,,,20981,,,52.76577200000000,06660/3335/0/000,214,fhrs@melton.gov.uk,Melton,http://www.melton.gov.uk,-0.88825300000000,LE13 1NN,2013-07-23,fhrs_exempt_en-GB,Exempt,,FHRS,
65126,56 Sherrard Street,Melton Mowbray,,,Wise Plaice,Takeaway/sandwich shop,7844,5,,27525,5,,52.76439400000000,08090/0056/0/000,214,fhrs@melton.gov.uk,Melton,http://www.melton.gov.uk,-0.88416800000000,LE13 1XJ,2014-07-02,fhrs_4_en-GB,4,,FHRS,10
65127,Old Chapel Cottage,24 Main Street,Eaton,,With...Chocolate,Manufacturers/packers,7839,0,,627067,0,,52.85278500000000,11/00048/COMM,214,fhrs@melton.gov.uk,Melton,http://www.melton.gov.uk,-0.81660400000000,NG32 1SE,2014-01-13,fhrs_5_en-GB,5,,FHRS,5
65128,3 Sherrard Street,Melton Mowbray,,,Yorkshire Trading Co,Retailers - other,4613,,,484862,,,52.76473600000000,10/00011/COMM,214,fhrs@melton.gov.uk,Melton,http://www.melton.gov.uk,-0.88421800000000,LE13 1XH,2013-03-19,fhrs_exempt_en-GB,Exempt,,FHRS,
65129,Boots PLC,5 Bradgate Lane,Asfordby,Melton Mowbray,Your Local Boots,Retailers - other,4613,,,2390,,,52.76445200000000,00890/0005/0/000,214,fhrs@melton.gov.uk,Melton,http://www.melton.gov.uk,-0.95177700000000,LE14 3YD,2013-06-12,fhrs_exempt_en-GB,Exempt,,FHRS,
65130,5 South Parade,Melton Mowbray,,,Yum Yum Sweet Co.,Retailers - other,4613,10,,33501,10,,52.76486100000000,10/00048/COMM,214,fhrs@melton.gov.uk,Melton,http://www.melton.gov.uk,-0.88701600000000,LE13 0PU,2014-02-13,fhrs_2_en-GB,2,,FHRS,15
65131,12 Queen Street,Bottesford,Nottingham,,Zaro's,Restaurant/Cafe/Canteen,1,5,,24008,5,,52.94210000000000,07240/0012/0/000,214,fhrs@melton.gov.uk,Melton,http://www.melton.gov.uk,-0.80320100000000,NG13 0AH,2014-10-08,fhrs_5_en-GB,5,,FHRS,5
