,addressline1,addressline2,addressline3,addressline4,businessname,businesstype,businesstypeid,confidenceinmanagement,extractdate,fhrsid,hygiene,itemcount,latitude,localauthoritybusinessid,localauthoritycode,localauthorityemailaddress,localauthorityname,localauthoritywebsite,longitude,postcode,ratingdate,ratingkey,ratingvalue,returncode,schemetype,structural
72820,2 Station Road,Wigston,Leicestershire,,1852 Brewery Co,Pub/bar/nightclub,7843,10,,23944,10,,52.58187900000000,07140/0002/0/000,216,env.health@oadby-wigston.gov.uk,Oadby and Wigston,http://www.oadby-wigston.gov.uk,-1.12158300000000,LE18 2DH,2014-05-09,fhrs_3_en-GB,3,,FHRS,5
72821,The Scout Hut,Central Avenue,Wigston,Leicestershire,28 Leicester (Wigston) Scout Group,Restaurant/Cafe/Canteen,1,5,,486150,5,,52.58480700000000,01500/2000/0/000,216,env.health@oadby-wigston.gov.uk,Oadby and Wigston,http://www.oadby-wigston.gov.uk,-1.11510400000000,LE18 2EA,2012-12-13,fhrs_5_en-GB,5,,FHRS,5
72822,60 Rosemead Drive,Oadby,Leicestershire,,6 Cuisines,Takeaway/sandwich shop,7844,10,,666994,5,,52.59309500000000,14/00018/COMM,216,env.health@oadby-wigston.gov.uk,Oadby and Wigston,http://www.oadby-wigston.gov.uk,-1.07850300000000,LE2 5SF,2014-03-14,fhrs_4_en-GB,4,,FHRS,5
72823,,,,,A Haq Ltd,Mobile caterer,7846,5,,33050,5,,,10/00021/OTHBUS,216,env.health@oadby-wigston.gov.uk,Oadby and Wigston,http://www.oadby-wigston.gov.uk,,,2013-12-03,fhrs_5_en-GB,5,,FHRS,5
72824,Station Road,Wigston,Leicestershire,,Abington High School,School/college/university,7845,0,,23951,0,,52.58136600000000,07140/2007/2/000,216,env.health@oadby-wigston.gov.uk,Oadby and Wigston,http://www.oadby-wigston.gov.uk,-1.12143100000000,LE18 2DP,2014-10-03,fhrs_5_en-GB,5,,FHRS,0
72825,Glen Gorse Golf Club,Glen Road,Oadby,Leicester,Access Catering (Glen Gorse Golof Club),Pub/bar/nightclub,7843,5,,706601,0,,52.58919000000000,14/00033/COMM,216,env.health@oadby-wigston.gov.uk,Oadby and Wigston,http://www.oadby-wigston.gov.uk,-1.06428100000000,LE2 4RF,2014-09-24,fhrs_5_en-GB,5,,FHRS,0
72826,Meadow Community Primary School,Meadow Way,Wigston,Leicestershire,Acorn Pre-school,Hospitals/Childcare/Caring Premises,5,5,,481896,5,,52.58623700000000,06/00026/COMM,216,env.health@oadby-wigston.gov.uk,Oadby and Wigston,http://www.oadby-wigston.gov.uk,-1.09739200000000,LE18 3QZ,2012-11-27,fhrs_5_en-GB,5,,FHRS,5
72827,51 Paddock Street,Wigston,Leicestershire,,Age Concern,Restaurant/Cafe/Canteen,1,5,,17188,5,,52.58470100000000,05650/2000/3/000,216,env.health@oadby-wigston.gov.uk,Oadby and Wigston,http://www.oadby-wigston.gov.uk,-1.10580700000000,LE18 2AN,2014-08-14,fhrs_5_en-GB,5,,FHRS,0
72828,St Peters Church Hall,Wigston Road,Oadby,Leicestershire,Age Concern Lunch Club,Other catering premises,7841,5,,24731,5,,52.59693800000000,08/00007/MULTI,216,env.health@oadby-wigston.gov.uk,Oadby and Wigston,http://www.oadby-wigston.gov.uk,-1.08013500000000,LE2 5QE,2013-08-16,fhrs_5_en-GB,5,,FHRS,5
72829,21 Manor Road,Oadby,Leicestershire,,Aigburth RH,Hospitals/Childcare/Caring Premises,5,0,,14273,0,,52.60947200000000,04890/0021/2/000,216,env.health@oadby-wigston.gov.uk,Oadby and Wigston,http://www.oadby-wigston.gov.uk,-1.08037500000000,LE2 2LL,2014-09-26,fhrs_5_en-GB,5,,FHRS,0
72830,Bull Head Street,Wigston,Leicestershire,,Aldi Foodstore Ltd,Retailers - supermarkets/hypermarkets,7840,0,,4587,0,,52.58410500000000,01210/2002/2/000,216,env.health@oadby-wigston.gov.uk,Oadby and Wigston,http://www.oadby-wigston.gov.uk,-1.10304500000000,LE18 1PA,2011-11-01,fhrs_5_en-GB,5,,FHRS,5
72831,Long Street,Wigston,Leicestershire,,All Saints Church Of England Primary School,School/college/university,7845,5,,14123,0,,52.58521300000000,04690/2001/2/000,216,env.health@oadby-wigston.gov.uk,Oadby and Wigston,http://www.oadby-wigston.gov.uk,-1.10693300000000,LE18 2AH,2014-09-18,fhrs_5_en-GB,5,,FHRS,5
72832,The Royal British Legion,Bushloe End,Wigston,Leicestershire,Allen Mulkerrins (mobile Butcher),Mobile caterer,7846,5,,14120,10,,52.58337800000000,04690/0039/A/000,216,env.health@oadby-wigston.gov.uk,Oadby and Wigston,http://www.oadby-wigston.gov.uk,-1.11160500000000,LE18 2BA,2013-09-27,fhrs_4_en-GB,4,,FHRS,5
72833,218 Aylestone Lane,Wigston,Leicestershire,,Amberwood Residential Home,Hospitals/Childcare/Caring Premises,5,5,,1652,5,,52.59096000000000,00330/0218/0/000,216,env.health@oadby-wigston.gov.uk,Oadby and Wigston,http://www.oadby-wigston.gov.uk,-1.12047100000000,LE18 1BD,2014-03-20,fhrs_4_en-GB,4,,FHRS,10
72834,108 Countesthorpe Road,Wigston,Leicestershire,,American Candy Store,Retailers - other,4613,5,,632373,5,,52.57605700000000,13/00025/COMM,216,env.health@oadby-wigston.gov.uk,Oadby and Wigston,http://www.oadby-wigston.gov.uk,-1.13419800000000,LE18 4PG,2014-01-28,fhrs_5_en-GB,5,,FHRS,5
72835,55 - 57 Queens Drive,Wigston,Leicestershire,,Andy's Fry Pan,Takeaway/sandwich shop,7844,10,,20504,10,,52.58492600000000,06070/0057/0/000,216,env.health@oadby-wigston.gov.uk,Oadby and Wigston,http://www.oadby-wigston.gov.uk,-1.11901300000000,LE18 2DG,2014-10-22,fhrs_2_en-GB,2,,FHRS,15
72836,Leicester Racecourse,Leicester Road,Oadby,Leicestershire,Angus Beef Bar,Other catering premises,7841,5,,610711,10,,52.60320700000000,12/00040/MULTI,216,env.health@oadby-wigston.gov.uk,Oadby and Wigston,http://www.oadby-wigston.gov.uk,-1.09689600000000,LE2 4AL,2013-08-20,fhrs_4_en-GB,4,,FHRS,5
72837,16 - 22 Bushloe End,Wigston,Leicestershire,,Apple House,Hospitals/Childcare/Caring Premises,5,5,,4697,5,,52.58337800000000,01290/1618/0/000,216,env.health@oadby-wigston.gov.uk,Oadby and Wigston,http://www.oadby-wigston.gov.uk,-1.11160500000000,LE18 2BA,2013-10-04,fhrs_5_en-GB,5,,FHRS,5
72838,Asda,Leicester Road,Oadby,Leicestershire,Asda Retail Colleague Canteen,Restaurant/Cafe/Canteen,1,0,,591440,5,,52.60312500000000,13/00060/COMM,216,env.health@oadby-wigston.gov.uk,Oadby and Wigston,http://www.oadby-wigston.gov.uk,-1.08620700000000,LE2 4AH,2013-09-25,fhrs_4_en-GB,4,,FHRS,10
72839,Asda,Leicester Road,Oadby,Leicestershire,Asda Stores Ltd,Retailers - supermarkets/hypermarkets,7840,0,,13888,0,,52.60312500000000,04510/2004/2/000,216,env.health@oadby-wigston.gov.uk,Oadby and Wigston,http://www.oadby-wigston.gov.uk,-1.08620700000000,LE2 4AH,2013-10-10,fhrs_5_en-GB,5,,FHRS,5
72840,49 Canal Street,Wigston,Leicestershire,,B And S News,Retailers - other,4613,0,,4867,0,,52.57636200000000,01370/0049/0/000,216,env.health@oadby-wigston.gov.uk,Oadby and Wigston,http://www.oadby-wigston.gov.uk,-1.13296700000000,LE18 4PN,2014-11-13,fhrs_5_en-GB,5,,FHRS,5
72841,Brocks Hill Primary School,Howdon Road,Oadby,Leicestershire,Badgers Rest Childrens Club,Hospitals/Childcare/Caring Premises,5,5,,371136,5,,52.58856400000000,09/00004/SCHCLU,216,env.health@oadby-wigston.gov.uk,Oadby and Wigston,http://www.oadby-wigston.gov.uk,-1.07728400000000,LE2 5WP,2013-05-22,fhrs_5_en-GB,5,,FHRS,5
72842,51 Leicester Road,Wigston,Leicestershire,,Bargain Booze,Retailers - other,4613,5,,13913,5,,52.58693000000000,04530/0051/0/000,216,env.health@oadby-wigston.gov.uk,Oadby and Wigston,http://www.oadby-wigston.gov.uk,-1.10573200000000,LE18 1NR,2013-11-05,fhrs_5_en-GB,5,,FHRS,5
72843,3 Stoughton Road,Oadby,Leicestershire,,Barkby Superstore,Retailers - other,4613,5,,434253,5,,52.60176100000000,12/00038/COMM,216,env.health@oadby-wigston.gov.uk,Oadby and Wigston,http://www.oadby-wigston.gov.uk,-1.08300200000000,LE2 4DS,2014-09-24,fhrs_4_en-GB,4,,FHRS,10
72844,Beauchamp College,Ridge Way,Oadby,Leicestershire,Beauchamp School And Community College,School/college/university,7845,5,,20691,5,,52.58822300000000,06310/2001/2/000,216,env.health@oadby-wigston.gov.uk,Oadby and Wigston,http://www.oadby-wigston.gov.uk,-1.07283400000000,LE2 5TP,2013-03-22,fhrs_5_en-GB,5,,FHRS,5
72845,Beaumont Hall,Stoughton Drive South,Oadby,Leicester,Beaumont Hall - Halls Of Residence,Hotel/bed & breakfast/guest house,7842,10,,24013,10,,52.60929100000000,07240/2000/2/000,216,env.health@oadby-wigston.gov.uk,Oadby and Wigston,http://www.oadby-wigston.gov.uk,-1.09073100000000,LE2 2NA,2014-10-16,fhrs_2_en-GB,2,,FHRS,15
72846,92 Leicester Road,Wigston,Leicestershire,,Best Kebab House,Takeaway/sandwich shop,7844,10,,13921,10,,52.58697900000000,04530/0092/0/000,216,env.health@oadby-wigston.gov.uk,Oadby and Wigston,http://www.oadby-wigston.gov.uk,-1.10626300000000,LE18 1DR,2014-05-29,fhrs_3_en-GB,3,,FHRS,10
72847,Burleigh Avenue,Wigston,Leicestershire,,Bethel Free Evangelical Church,Restaurant/Cafe/Canteen,1,10,,4628,5,,52.59364600000000,01230/2000/0/000,216,env.health@oadby-wigston.gov.uk,Oadby and Wigston,http://www.oadby-wigston.gov.uk,-1.11173700000000,LE18 1FH,2013-10-17,fhrs_4_en-GB,4,,FHRS,5
72848,35 Blaby Road,Wigston,Leicestershire,,Big China,Takeaway/sandwich shop,7844,10,,2211,10,,52.57957200000000,00740/0035/0/000,216,env.health@oadby-wigston.gov.uk,Oadby and Wigston,http://www.oadby-wigston.gov.uk,-1.13426100000000,LE18 4PA,2013-11-25,fhrs_2_en-GB,2,,FHRS,15
72849,Launceston Road,Wigston,Leicestershire,,Birkett House School,School/college/university,7845,5,,13807,0,,52.58046400000000,04420/2005/2/000,216,env.health@oadby-wigston.gov.uk,Oadby and Wigston,http://www.oadby-wigston.gov.uk,-1.11142800000000,LE18 2FZ,2014-09-19,fhrs_5_en-GB,5,,FHRS,0
72850,40 London Road,Oadby,Leicestershire,,Blueberry Bush Nursery,Hospitals/Childcare/Caring Premises,5,5,,14093,5,,52.59683400000000,04660/0038/0/000,216,env.health@oadby-wigston.gov.uk,Oadby and Wigston,http://www.oadby-wigston.gov.uk,-1.07715500000000,LE2 5DH,2014-02-13,fhrs_5_en-GB,5,,FHRS,5
72851,11C - 11D Leicester Road,Oadby,Leicestershire,,Boots Chemist,Retailers - other,4613,,,371120,,,52.59817700000000,04510/0011/C/000,216,env.health@oadby-wigston.gov.uk,Oadby and Wigston,http://www.oadby-wigston.gov.uk,-1.08225000000000,LE2 5BD,2014-11-13,fhrs_exempt_en-GB,Exempt,,FHRS,
72852,35 The Parade,Oadby,Leicestershire,,Boots The Chemist,Retailers - other,4613,,,371132,,,52.60002800000000,07520/0035/0/000,216,env.health@oadby-wigston.gov.uk,Oadby and Wigston,http://www.oadby-wigston.gov.uk,-1.08334800000000,LE2 5BB,2013-05-13,fhrs_exempt_en-GB,Exempt,,FHRS,
72853,27 Bell Street,Wigston,Leicestershire,,Boots The Chemist Ltd,Retailers - other,4613,,,371114,,,52.58553800000000,00620/0027/0/000,216,env.health@oadby-wigston.gov.uk,Oadby and Wigston,http://www.oadby-wigston.gov.uk,-1.10472700000000,LE18 1AD,2014-10-31,fhrs_exempt_en-GB,Exempt,,FHRS,
72854,Botanical Gardens,Stoughton Drive South,Oadby,Leicester,Botanical Gardens Cafe,Restaurant/Cafe/Canteen,1,5,,45577,5,,52.60687200000000,11/00015/COMM,216,env.health@oadby-wigston.gov.uk,Oadby and Wigston,http://www.oadby-wigston.gov.uk,-1.09184400000000,LE2 2NE,2013-08-07,fhrs_4_en-GB,4,,FHRS,10
72855,Oadby Filling Station,1 Harborough Road,Oadby,Leicestershire,BP Garage,Retailers - other,4613,10,,8865,5,,52.60176100000000,03410/0002/2/000,216,env.health@oadby-wigston.gov.uk,Oadby and Wigston,http://www.oadby-wigston.gov.uk,-1.08300200000000,LE2 4DS,2014-09-11,fhrs_4_en-GB,4,,FHRS,0
72856,St Pauls Church Hall,Hamble Road,Oadby,Leicestershire,Breakfast At Barneys,Restaurant/Cafe/Canteen,1,0,,21291,0,,,07/00006/COMM,216,env.health@oadby-wigston.gov.uk,Oadby and Wigston,http://www.oadby-wigston.gov.uk,,,2014-11-20,fhrs_5_en-GB,5,,FHRS,0
72857,St John Fisher Roman Catholic Prima,Shenley Road,Wigston,Leicestershire,Breakfast Club,Hospitals/Childcare/Caring Premises,5,5,,14836,5,,52.59127700000000,05/00059/COMM,216,env.health@oadby-wigston.gov.uk,Oadby and Wigston,http://www.oadby-wigston.gov.uk,-1.09683100000000,LE18 3QL,2014-09-11,fhrs_5_en-GB,5,,FHRS,5
72858,Pavillion,Howdon Road,Oadby,Leicestershire,Briarmeads Bowls Club,Pub/bar/nightclub,7843,5,,14421,5,,,04Y/01296/COMM,216,env.health@oadby-wigston.gov.uk,Oadby and Wigston,http://www.oadby-wigston.gov.uk,,,2013-10-14,fhrs_5_en-GB,5,,FHRS,5
72859,182 Oadby Road,Wigston,Leicestershire,,Brobat Petroleum Ltd,Retailers - other,4613,5,,17064,5,,52.59062600000000,05510/2000/2/000,216,env.health@oadby-wigston.gov.uk,Oadby and Wigston,http://www.oadby-wigston.gov.uk,-1.09523500000000,LE18 3PW,2014-10-28,fhrs_5_en-GB,5,,FHRS,5
72860,Howdon Road,Oadby,Leicestershire,,Brocks Hill Primary School,School/college/university,7845,0,,9271,0,,52.58793000000000,03910/2001/2/000,216,env.health@oadby-wigston.gov.uk,Oadby and Wigston,http://www.oadby-wigston.gov.uk,-1.07667800000000,LE2 5WP,2013-06-04,fhrs_5_en-GB,5,,FHRS,5
72861,Brockshill Woodland Residential Hom,Briar Walk,Oadby,Leicestershire,Brockshill Woodlands Residential Home,Hospitals/Childcare/Caring Premises,5,5,,2945,5,,52.59089000000000,01000/2002/2/000,216,env.health@oadby-wigston.gov.uk,Oadby and Wigston,http://www.oadby-wigston.gov.uk,-1.07815100000000,LE2 5UF,2014-03-31,fhrs_5_en-GB,5,,FHRS,5
72862,Copse Close,Oadby,Leicestershire,,Brookside County Primary School,School/college/university,7845,0,,5381,5,,52.60148800000000,01790/2000/2/000,216,env.health@oadby-wigston.gov.uk,Oadby and Wigston,http://www.oadby-wigston.gov.uk,-1.06195200000000,LE2 4FU,2014-10-29,fhrs_5_en-GB,5,,FHRS,0
72863,66 Boulter Crescent,Wigston,Leicestershire,,Build A Better Boulter,Restaurant/Cafe/Canteen,1,10,,574007,10,,52.58545200000000,13/00024/COMM,216,env.health@oadby-wigston.gov.uk,Oadby and Wigston,http://www.oadby-wigston.gov.uk,-1.10174800000000,LE18 3WY,2013-07-25,fhrs_3_en-GB,3,,FHRS,5
72864,Station Road,Wigston,Leicestershire,,Bushloe High School,School/college/university,7845,5,,23950,5,,52.58106800000000,07140/2002/2/000,216,env.health@oadby-wigston.gov.uk,Oadby and Wigston,http://www.oadby-wigston.gov.uk,-1.11641900000000,LE18 2DT,2014-02-06,fhrs_5_en-GB,5,,FHRS,5
72865,South Wigston Methodist Church,Blaby Road,Wigston,Leicestershire,Busy Bugs,Hospitals/Childcare/Caring Premises,5,5,,486151,5,,52.57979900000000,07/00032/COMM,216,env.health@oadby-wigston.gov.uk,Oadby and Wigston,http://www.oadby-wigston.gov.uk,-1.13202900000000,LE18 4PB,2012-11-22,fhrs_5_en-GB,5,,FHRS,5
72866,Stoughton Farm Park,Gartree Road,Oadby,Leicester,Cafe In The Barn,Restaurant/Cafe/Canteen,1,,,576695,,,52.61314400000000,13/00035/COMM,216,env.health@oadby-wigston.gov.uk,Oadby and Wigston,http://www.oadby-wigston.gov.uk,-1.07168700000000,LE2 2FB,2013-12-17,fhrs_4_en-GB,4,,FHRS,
72867,26 The Parade,Oadby,Leicestershire,,Cafe Maromme,Restaurant/Cafe/Canteen,1,10,,24211,10,,52.59966500000000,07520/0026/0/000,216,env.health@oadby-wigston.gov.uk,Oadby and Wigston,http://www.oadby-wigston.gov.uk,-1.08403500000000,LE2 5BF,2014-03-06,fhrs_3_en-GB,3,,FHRS,10
72868,,,,,Cafe Razz,Other catering premises,7841,5,,550882,5,,,12/00079/FODBUS,216,env.health@oadby-wigston.gov.uk,Oadby and Wigston,http://www.oadby-wigston.gov.uk,,,2013-05-22,fhrs_5_en-GB,5,,FHRS,5
72869,20 Bell Street,Wigston,Leicestershire,,Card Factory,Retailers - other,4613,,,434239,,,52.58553800000000,00620/0020/0/000,216,env.health@oadby-wigston.gov.uk,Oadby and Wigston,http://www.oadby-wigston.gov.uk,-1.10472700000000,LE18 1AD,2012-06-25,fhrs_exempt_en-GB,Exempt,,FHRS,
72870,1 Carlton Drive,Wigston,Leicestershire,,Carlton Drive Short Stay Breaks,Hospitals/Childcare/Caring Premises,5,0,,33447,0,,52.59109700000000,10/00045/COMM,216,env.health@oadby-wigston.gov.uk,Oadby and Wigston,http://www.oadby-wigston.gov.uk,-1.11116800000000,LE18 1DF,2013-10-07,fhrs_5_en-GB,5,,FHRS,0
72871,South Leicestershire College,Blaby Road,Wigston,Leicestershire,Catering Academy,Restaurant/Cafe/Canteen,1,5,,607048,5,,52.58291200000000,13/00078/COMM,216,env.health@oadby-wigston.gov.uk,Oadby and Wigston,http://www.oadby-wigston.gov.uk,-1.11660300000000,LE18 4PH,2013-10-31,fhrs_5_en-GB,5,,FHRS,5
72872,36 Newton Lane,Wigston,Leicestershire,,Cave's Fast Food,Mobile caterer,7846,10,,632377,5,,52.58142500000000,13/00115/COMM,216,env.health@oadby-wigston.gov.uk,Oadby and Wigston,http://www.oadby-wigston.gov.uk,-1.10062000000000,LE18 3SE,2014-02-06,fhrs_4_en-GB,4,,FHRS,5
72873,27 - 29 Long Street,Wigston,Leicestershire,,Cedar Court Care Home- HC-One,Hospitals/Childcare/Caring Premises,5,5,,14128,5,,52.58304300000000,04690/2729/0/000,216,env.health@oadby-wigston.gov.uk,Oadby and Wigston,http://www.oadby-wigston.gov.uk,-1.10889600000000,LE18 2BP,2014-03-21,fhrs_5_en-GB,5,,FHRS,5
72874,102 Central Avenue,Wigston,Leicestershire,,Central Avenue Christian Church,Restaurant/Cafe/Canteen,1,5,,4998,5,,52.58452500000000,01500/0102/0/000,216,env.health@oadby-wigston.gov.uk,Oadby and Wigston,http://www.oadby-wigston.gov.uk,-1.11260600000000,,2013-04-17,fhrs_5_en-GB,5,,FHRS,5
72875,167 Uplands Road,Oadby,Leicestershire,,Central England Co-operative,Retailers - supermarkets/hypermarkets,7840,0,,715493,0,,52.59882000000000,14/00038/COMM,216,env.health@oadby-wigston.gov.uk,Oadby and Wigston,http://www.oadby-wigston.gov.uk,-1.06558200000000,LE2 4NW,2014-11-13,fhrs_5_en-GB,5,,FHRS,0
72876,Chartwell Drive,Wigston,Leicestershire,,Chartwell Arms,Hospitals/Childcare/Caring Premises,5,5,,587171,5,,52.58964700000000,13/00053/COMM,216,env.health@oadby-wigston.gov.uk,Oadby and Wigston,http://www.oadby-wigston.gov.uk,-1.12283000000000,LE18 2FB,2013-09-20,fhrs_4_en-GB,4,,FHRS,10
72877,Unit 6,West House,West Avenue,Wigston,Chartwell Cafe,Restaurant/Cafe/Canteen,1,5,,27433,5,,52.58964700000000,08020/0130/3/007,216,env.health@oadby-wigston.gov.uk,Oadby and Wigston,http://www.oadby-wigston.gov.uk,-1.12283000000000,LE18 2FB,2013-09-13,fhrs_5_en-GB,5,,FHRS,5
72878,9 Leicester Road,Oadby,Leicestershire,,Cheikhos,Restaurant/Cafe/Canteen,1,10,,13881,5,,52.59817700000000,04510/0009/0/000,216,env.health@oadby-wigston.gov.uk,Oadby and Wigston,http://www.oadby-wigston.gov.uk,-1.08225000000000,LE2 5BD,2014-08-06,fhrs_3_en-GB,3,,FHRS,10
72879,44 Pullman Road,Wigston,Leicestershire,,Cherry Stores,Retailers - other,4613,5,,20491,5,,52.58262800000000,06050/0044/0/000,216,env.health@oadby-wigston.gov.uk,Oadby and Wigston,http://www.oadby-wigston.gov.uk,-1.12074100000000,LE18 2DA,2012-11-01,fhrs_5_en-GB,5,,FHRS,5
72880,14 Dunton Street,Wigston,Leicestershire,,China Garden,Takeaway/sandwich shop,7844,10,,6548,10,,52.57899500000000,02280/0014/0/000,216,env.health@oadby-wigston.gov.uk,Oadby and Wigston,http://www.oadby-wigston.gov.uk,-1.13273800000000,LE18 4PU,2014-03-27,fhrs_3_en-GB,3,,FHRS,10
72881,50B Blaby Road,Wigston,Leicestershire,,Chip Stop,Takeaway/sandwich shop,7844,10,,2217,10,,52.58012000000000,00740/0050/B/000,216,env.health@oadby-wigston.gov.uk,Oadby and Wigston,http://www.oadby-wigston.gov.uk,-1.13171200000000,LE18 4SD,2013-11-05,fhrs_3_en-GB,3,,FHRS,10
72882,,,,,Chris Taylor - Artisan Bakers,Restaurant/Cafe/Canteen,1,10,,188126,0,,,11/00057/FODBUS,216,env.health@oadby-wigston.gov.uk,Oadby and Wigston,http://www.oadby-wigston.gov.uk,,,2014-10-06,fhrs_4_en-GB,4,,FHRS,5
72883,,,,,Claire Bakes,Restaurant/Cafe/Canteen,1,5,,335127,5,,,12/00011/FODBUS,216,env.health@oadby-wigston.gov.uk,Oadby and Wigston,http://www.oadby-wigston.gov.uk,,,2012-04-23,fhrs_5_en-GB,5,,FHRS,5
72884,Leicester Racecourse,Leicester Road,Oadby,Leicestershire,Club Kitchen,Pub/bar/nightclub,7843,,,610714,,,52.60320700000000,13/00116/MULTI,216,env.health@oadby-wigston.gov.uk,Oadby and Wigston,http://www.oadby-wigston.gov.uk,-1.09689600000000,LE2 4AL,2014-06-02,fhrs_5_en-GB,5,,FHRS,
72885,35A - 37 The Parade,Oadby,Leicestershire,,Co Op Extra Store,Retailers - supermarkets/hypermarkets,7840,5,,24216,5,,52.60002800000000,07520/0037/0/000,216,env.health@oadby-wigston.gov.uk,Oadby and Wigston,http://www.oadby-wigston.gov.uk,-1.08334800000000,LE2 5BB,2012-12-17,fhrs_5_en-GB,5,,FHRS,5
72886,Texaco Petrol Station,Bull Head Street,Wigston,Leicestershire,Co Op Wigston Moat,Retailers - other,4613,5,,4591,5,,52.58410500000000,01210/2008/2/000,216,env.health@oadby-wigston.gov.uk,Oadby and Wigston,http://www.oadby-wigston.gov.uk,-1.10304500000000,LE18 1PA,2014-09-25,fhrs_5_en-GB,5,,FHRS,5
72887,53 Brambling Way,Oadby,Leicestershire,,Community Care Solutions Ltd,Hospitals/Childcare/Caring Premises,5,5,,2444,5,,52.59412000000000,00910/0053/0/000,216,env.health@oadby-wigston.gov.uk,Oadby and Wigston,http://www.oadby-wigston.gov.uk,-1.08198000000000,LE2 5PB,2012-12-31,fhrs_5_en-GB,5,,FHRS,5
72888,Jacobs Bakery Ltd,Canal Street,Wigston,Leicestershire,Company Shop,Retailers - other,4613,5,,28809,5,,52.57718200000000,09/00028/COMM,216,env.health@oadby-wigston.gov.uk,Oadby and Wigston,http://www.oadby-wigston.gov.uk,-1.13190300000000,LE18 4PQ,2013-01-07,fhrs_5_en-GB,5,,FHRS,5
72889,33 Aylestone Lane,Wigston,Leicestershire,,Conifer Lodge RH,Hospitals/Childcare/Caring Premises,5,0,,1648,0,,52.58728100000000,00330/0033/0/000,216,env.health@oadby-wigston.gov.uk,Oadby and Wigston,http://www.oadby-wigston.gov.uk,-1.11176200000000,LE18 1AB,2014-09-19,fhrs_5_en-GB,5,,FHRS,0
72890,38 Long Street,Wigston,Leicestershire,,Conservative Club,Pub/bar/nightclub,7843,5,,14119,5,,52.58521300000000,04690/0038/0/000,216,env.health@oadby-wigston.gov.uk,Oadby and Wigston,http://www.oadby-wigston.gov.uk,-1.10693300000000,LE18 2AH,2013-10-04,fhrs_4_en-GB,4,,FHRS,10
72891,50 Blaby Road,Wigston,Leicestershire,,Conservative Club,Pub/bar/nightclub,7843,5,,2216,10,,52.58012000000000,00740/0050/0/000,216,env.health@oadby-wigston.gov.uk,Oadby and Wigston,http://www.oadby-wigston.gov.uk,-1.13171200000000,LE18 4SD,2014-11-06,fhrs_4_en-GB,4,,FHRS,5
72892,106 Aylestone Lane,Wigston,Leicestershire,,Convenience Store,Retailers - other,4613,10,,1650,10,,52.58892700000000,00330/0106/0/000,216,env.health@oadby-wigston.gov.uk,Oadby and Wigston,http://www.oadby-wigston.gov.uk,-1.11670300000000,LE18 1BA,2013-07-04,fhrs_3_en-GB,3,,FHRS,10
72893,Cromwell,65 Chartwell Drive,Wigston,Leicestershire,Coombs Catering Partnership,Restaurant/Cafe/Canteen,1,5,,674309,5,,52.58729700000000,14/00016/COMM,216,env.health@oadby-wigston.gov.uk,Oadby and Wigston,http://www.oadby-wigston.gov.uk,-1.12484000000000,LE18 2FL,2014-06-18,fhrs_5_en-GB,5,,FHRS,5
72894,79 Blaby Road,Wigston,Leicestershire,,Co-operative Retail Services Ltd,Retailers - supermarkets/hypermarkets,7840,5,,2224,5,,52.57979900000000,00740/0079/0/000,216,env.health@oadby-wigston.gov.uk,Oadby and Wigston,http://www.oadby-wigston.gov.uk,-1.13202900000000,LE18 4PB,2013-11-20,fhrs_5_en-GB,5,,FHRS,5
72895,Co-Operative Supermarket,15 Bell Street,Wigston,Leicestershire,Co-operative Supermarket,Retailers - other,4613,0,,580302,5,,52.58553800000000,00620/1525/0/000,216,env.health@oadby-wigston.gov.uk,Oadby and Wigston,http://www.oadby-wigston.gov.uk,-1.10472700000000,LE18 1AD,2013-08-19,fhrs_4_en-GB,4,,FHRS,10
72896,Launceston Road,Wigston,Leicestershire,,Co-Operative Supermarket,Retailers - other,4613,0,,468178,5,,52.57605300000000,12/00006/COMM,216,env.health@oadby-wigston.gov.uk,Oadby and Wigston,http://www.oadby-wigston.gov.uk,-1.11060200000000,LE18 2GL,2014-11-27,fhrs_5_en-GB,5,,FHRS,5
72897,29 - 31 The Parade,Oadby,Leicestershire,,Costa Coffee,Restaurant/Cafe/Canteen,1,0,,24230,5,,52.60002800000000,07520/2931/0/000,216,env.health@oadby-wigston.gov.uk,Oadby and Wigston,http://www.oadby-wigston.gov.uk,-1.08334800000000,LE2 5BB,2014-11-19,fhrs_5_en-GB,5,,FHRS,5
72898,35 Bell Street,Wigston,Leicestershire,,Costa Coffee,Restaurant/Cafe/Canteen,1,5,,554676,5,,52.58553800000000,13/00027/COMM,216,env.health@oadby-wigston.gov.uk,Oadby and Wigston,http://www.oadby-wigston.gov.uk,-1.10472700000000,LE18 1AD,2014-10-15,fhrs_5_en-GB,5,,FHRS,5
72899,1 Chapel Street,Oadby,Leicester,Leicestershire,Costas Fish And Chip Shop,Takeaway/sandwich shop,7844,5,,5033,5,,52.59773700000000,01520/0001/0/000,216,env.health@oadby-wigston.gov.uk,Oadby and Wigston,http://www.oadby-wigston.gov.uk,-1.08231800000000,LE2 5AD,2014-10-01,fhrs_4_en-GB,4,,FHRS,10
72900,Gartree Road,Oadby,Leicester,Leicestershire,Cow And Plough Public House,Pub/bar/nightclub,7843,10,,7302,5,,52.61314400000000,02930/2005/2/000,216,env.health@oadby-wigston.gov.uk,Oadby and Wigston,http://www.oadby-wigston.gov.uk,-1.07168700000000,LE2 2FB,2014-11-19,fhrs_2_en-GB,2,,FHRS,15
72901,9 The Crescent,Wigston,Leicestershire,,Crescent Stores,Retailers - other,4613,5,,24153,5,,52.59414600000000,07450/0009/0/000,216,env.health@oadby-wigston.gov.uk,Oadby and Wigston,http://www.oadby-wigston.gov.uk,-1.11374900000000,LE18 1HW,2012-07-19,fhrs_5_en-GB,5,,FHRS,5
72902,,,,,Crown Ice's - Y781PJW,Other catering premises,7841,10,,371141,5,,,11/00016/COMM,216,env.health@oadby-wigston.gov.uk,Oadby and Wigston,http://www.oadby-wigston.gov.uk,,,2013-05-16,fhrs_4_en-GB,4,,FHRS,5
72903,,,,,Crumbs,Restaurant/Cafe/Canteen,1,10,,550884,5,,,13/00003/FODBUS,216,env.health@oadby-wigston.gov.uk,Oadby and Wigston,http://www.oadby-wigston.gov.uk,,,2013-05-09,fhrs_4_en-GB,4,,FHRS,5
72904,Kelmarsh Avenue,Wigston,Leicestershire,,Cuisine Of India,Restaurant/Cafe/Canteen,1,5,,13421,5,,52.58343400000000,04070/0000/2/000,216,env.health@oadby-wigston.gov.uk,Oadby and Wigston,http://www.oadby-wigston.gov.uk,-1.09998800000000,LE18 3QW,2014-03-27,fhrs_5_en-GB,5,,FHRS,5
72905,Aylestone Lane,Wigston,Leicestershire,,Curtis Weston House,Hospitals/Childcare/Caring Premises,5,10,,1653,5,,52.58728100000000,00330/2001/2/000,216,env.health@oadby-wigston.gov.uk,Oadby and Wigston,http://www.oadby-wigston.gov.uk,-1.11176200000000,LE18 1AB,2014-04-17,fhrs_4_en-GB,4,,FHRS,5
72906,41 The Parade,Oadby,Leicestershire,,Da Romi's Italiano,Other catering premises,7841,10,,632374,5,,52.60002800000000,13/00089/COMM,216,env.health@oadby-wigston.gov.uk,Oadby and Wigston,http://www.oadby-wigston.gov.uk,-1.08334800000000,LE2 5BB,2014-01-29,fhrs_4_en-GB,4,,FHRS,5
72907,84 Station Road,Wigston,Leicestershire,,Daisy Chain,Hospitals/Childcare/Caring Premises,5,5,,23948,5,,52.58212400000000,07140/0084/0/000,216,env.health@oadby-wigston.gov.uk,Oadby and Wigston,http://www.oadby-wigston.gov.uk,-1.11942300000000,LE18 2DJ,2014-06-10,fhrs_5_en-GB,5,,FHRS,5
72908,4 Selbury Drive,Oadby,Leicestershire,,Deans Mobile,Mobile caterer,7846,10,,20931,10,,52.59786800000000,06610/1000/0/000,216,env.health@oadby-wigston.gov.uk,Oadby and Wigston,http://www.oadby-wigston.gov.uk,-1.08997800000000,LE2 5NG,2014-10-06,fhrs_3_en-GB,3,,FHRS,10
72909,15 Stoughton Road,Oadby,Leicestershire,,Desi Meat Shop Ltd,Retailers - other,4613,5,,24046,5,,52.60176100000000,07270/0015/0/000,216,env.health@oadby-wigston.gov.uk,Oadby and Wigston,http://www.oadby-wigston.gov.uk,-1.08300200000000,LE2 4DS,2013-10-09,fhrs_5_en-GB,5,,FHRS,5
72910,Howdon Road,Oadby,Leicestershire,,Devonshire Court Residential Home,Hospitals/Childcare/Caring Premises,5,0,,9272,0,,52.58941100000000,03910/2003/2/000,216,env.health@oadby-wigston.gov.uk,Oadby and Wigston,http://www.oadby-wigston.gov.uk,-1.07639600000000,LE2 5WQ,2014-11-07,fhrs_5_en-GB,5,,FHRS,0
72911,73 Leicester Road,Wigston,Leicestershire,,Dominos Pizza,Takeaway/sandwich shop,7844,0,,13918,5,,52.58693000000000,04530/0073/0/000,216,env.health@oadby-wigston.gov.uk,Oadby and Wigston,http://www.oadby-wigston.gov.uk,-1.10573200000000,LE18 1NR,2014-07-03,fhrs_5_en-GB,5,,FHRS,5
72912,Leicester Racecourse,Leicester Road,Oadby,Leicestershire,Donut Delight,Mobile caterer,7846,10,,610709,10,,52.60320700000000,12/00026/MULTI,216,env.health@oadby-wigston.gov.uk,Oadby and Wigston,http://www.oadby-wigston.gov.uk,-1.09689600000000,LE2 4AL,2014-06-02,fhrs_3_en-GB,3,,FHRS,10
72913,45 Blaby Road,Wigston,Leicestershire,,Doridos,Takeaway/sandwich shop,7844,5,,2214,5,,52.57957200000000,00740/0045/0/000,216,env.health@oadby-wigston.gov.uk,Oadby and Wigston,http://www.oadby-wigston.gov.uk,-1.13426100000000,LE18 4PA,2013-03-21,fhrs_5_en-GB,5,,FHRS,5
72914,47 Blaby Road,Wigston,Leicestershire,,Drink & Co,Retailers - other,4613,10,,632380,5,,52.57957200000000,14/00004/COMM,216,env.health@oadby-wigston.gov.uk,Oadby and Wigston,http://www.oadby-wigston.gov.uk,-1.13426100000000,LE18 4PA,2014-01-28,fhrs_3_en-GB,3,,FHRS,10
72915,3 Spring Lane,Wigston,Leicestershire,,El Cafe,Restaurant/Cafe/Canteen,1,5,,710417,0,,52.58670700000000,14/00047/COMM,216,env.health@oadby-wigston.gov.uk,Oadby and Wigston,http://www.oadby-wigston.gov.uk,-1.10361100000000,LE18 1LW,2014-10-29,fhrs_5_en-GB,5,,FHRS,0
72916,31 Bell Street,Wigston,Leicestershire,,Every Occasion,Retailers - other,4613,5,,550880,5,,52.58553800000000,00620/0031/0/000,216,env.health@oadby-wigston.gov.uk,Oadby and Wigston,http://www.oadby-wigston.gov.uk,-1.10472700000000,LE18 1AD,2014-10-31,fhrs_5_en-GB,5,,FHRS,5
72917,Leicester Racecourse,Leicester Road,Oadby,Leicestershire,Excutive Boxes (x2 Kitchen),Pub/bar/nightclub,7843,,,610717,,,52.60320700000000,13/00119/MULTI,216,env.health@oadby-wigston.gov.uk,Oadby and Wigston,http://www.oadby-wigston.gov.uk,-1.09689600000000,LE2 4AL,2014-06-02,fhrs_5_en-GB,5,,FHRS,
72918,211 Gloucester Crescent,Wigston,Leicestershire,,Fairfield Cafe,Restaurant/Cafe/Canteen,1,5,,434251,5,,52.58950700000000,11/00060/COMM,216,env.health@oadby-wigston.gov.uk,Oadby and Wigston,http://www.oadby-wigston.gov.uk,-1.12823500000000,LE18 4YH,2013-05-16,fhrs_5_en-GB,5,,FHRS,5
72919,Cheshire Drive,Wigston,Leicestershire,,Fairfield Community Primary School,School/college/university,7845,5,,5147,5,,52.58870000000000,01590/0000/2/000,216,env.health@oadby-wigston.gov.uk,Oadby and Wigston,http://www.oadby-wigston.gov.uk,-1.12972700000000,LE18 4WA,2014-01-16,fhrs_5_en-GB,5,,FHRS,5
72920,Fairfield Community Primary School,Cheshire Drive,Wigston,Leicestershire,Fairfield Little Learners,Hospitals/Childcare/Caring Premises,5,,,371130,,,52.58870000000000,07/00033/COMM,216,env.health@oadby-wigston.gov.uk,Oadby and Wigston,http://www.oadby-wigston.gov.uk,-1.12972700000000,LE18 4WA,2010-08-05,fhrs_exempt_en-GB,Exempt,,FHRS,
72921,Fairfield PH,Gloucester Crescent,Wigston,Leicestershire,Fairfield Public House,Restaurant/Cafe/Canteen,1,10,,535072,10,,52.58669100000000,13/00010/COMM,216,env.health@oadby-wigston.gov.uk,Oadby and Wigston,http://www.oadby-wigston.gov.uk,-1.13289600000000,LE18 4YE,2014-09-18,fhrs_3_en-GB,3,,FHRS,10
72922,44 - 46 Bell Street,Wigston,Leicestershire,,Farmfoods Ltd,Retailers - other,4613,5,,2077,5,,52.58553800000000,00620/0046/0/000,216,env.health@oadby-wigston.gov.uk,Oadby and Wigston,http://www.oadby-wigston.gov.uk,-1.10472700000000,LE18 1AD,2013-03-31,fhrs_5_en-GB,5,,FHRS,5
72923,Glen Gorse Golf Club,Glen Road,Oadby,Leicester,Festival House,Restaurant/Cafe/Canteen,1,5,,462584,5,,52.58919000000000,12/00051/COMM,216,env.health@oadby-wigston.gov.uk,Oadby and Wigston,http://www.oadby-wigston.gov.uk,-1.06428100000000,LE2 4RF,2014-07-01,fhrs_5_en-GB,5,,FHRS,5
72924,52 London Road,Oadby,Leicestershire,,Fiery Feast,Takeaway/sandwich shop,7844,10,,632376,5,,52.59683400000000,13/00114/COMM,216,env.health@oadby-wigston.gov.uk,Oadby and Wigston,http://www.oadby-wigston.gov.uk,-1.07715500000000,LE2 5DH,2014-01-22,fhrs_3_en-GB,3,,FHRS,10
72925,43 Blaby Road,Wigston,Leicestershire,,Flavaz,Restaurant/Cafe/Canteen,1,,,225475,,,52.57957200000000,12/00007/COMM,216,env.health@oadby-wigston.gov.uk,Oadby and Wigston,http://www.oadby-wigston.gov.uk,-1.13426100000000,LE18 4PA,2014-06-05,fhrs_4_en-GB,4,,FHRS,
72926,21 London Road,Oadby,Leicestershire,,Fox Inn PH,Pub/bar/nightclub,7843,5,,14089,5,,52.59779700000000,04660/0021/0/000,216,env.health@oadby-wigston.gov.uk,Oadby and Wigston,http://www.oadby-wigston.gov.uk,-1.07970400000000,LE2 5DL,2014-09-11,fhrs_5_en-GB,5,,FHRS,5
72927,,,,,Fruitparadise,Importers/Exporters,14,,,568362,,,,13/00045/COMM,216,env.health@oadby-wigston.gov.uk,Oadby and Wigston,http://www.oadby-wigston.gov.uk,,,2013-07-09,fhrs_exempt_en-GB,Exempt,,FHRS,
72928,,,,,G B Ices (Mobile) KS03 XZB,Mobile caterer,7846,10,,194487,0,,,08460/0032/0/000,216,env.health@oadby-wigston.gov.uk,Oadby and Wigston,http://www.oadby-wigston.gov.uk,,,2013-02-19,fhrs_4_en-GB,4,,FHRS,0
72929,Ridge Way,Oadby,Leicester,Leicestershire,Gartree High School,School/college/university,7845,5,,20690,5,,52.58761400000000,06310/2000/2/000,216,env.health@oadby-wigston.gov.uk,Oadby and Wigston,http://www.oadby-wigston.gov.uk,-1.07426400000000,LE2 5TQ,2014-03-12,fhrs_5_en-GB,5,,FHRS,5
72930,15 Canal Street,Wigston,Leicestershire,,Gaynors Cob Shop Cafe,Restaurant/Cafe/Canteen,1,5,,4866,5,,52.57727500000000,01370/0015/0/000,216,env.health@oadby-wigston.gov.uk,Oadby and Wigston,http://www.oadby-wigston.gov.uk,-1.13243300000000,LE18 4PL,2014-02-12,fhrs_5_en-GB,5,,FHRS,5
72931,,,,,Gelatila Rossa,Mobile caterer,7846,,,574008,,,,13/00036/COMM,216,env.health@oadby-wigston.gov.uk,Oadby and Wigston,http://www.oadby-wigston.gov.uk,,,2013-07-26,fhrs_exempt_en-GB,Exempt,,FHRS,
72932,50 London Road,Oadby,Leicestershire,,Ginger Bread Cottage,Retailers - other,4613,5,,14095,5,,52.59683400000000,04660/0050/0/000,216,env.health@oadby-wigston.gov.uk,Oadby and Wigston,http://www.oadby-wigston.gov.uk,-1.07715500000000,LE2 5DH,2014-05-29,fhrs_4_en-GB,4,,FHRS,10
72933,Launde Primary School,New Street,Oadby,Leicester,Gingerbread 2 Nursery,Hospitals/Childcare/Caring Premises,5,0,,194486,0,,52.60071300000000,05380/2004/2/000,216,env.health@oadby-wigston.gov.uk,Oadby and Wigston,http://www.oadby-wigston.gov.uk,-1.07894900000000,LE2 4LJ,2014-09-11,fhrs_5_en-GB,5,,FHRS,0
72934,Estoril Avenue,Wigston,Leicestershire,,Glenmere Community Primary School,School/college/university,7845,0,,6810,5,,52.58971900000000,02540/2001/2/000,216,env.health@oadby-wigston.gov.uk,Oadby and Wigston,http://www.oadby-wigston.gov.uk,-1.09293700000000,LE18 3RD,2014-10-29,fhrs_5_en-GB,5,,FHRS,0
72935,The Manse,47 Long Street,Wigston,Leicestershire,Gooseberry Bush Nursery,Hospitals/Childcare/Caring Premises,5,0,,14126,0,,52.58469900000000,04690/2005/2/000,216,env.health@oadby-wigston.gov.uk,Oadby and Wigston,http://www.oadby-wigston.gov.uk,-1.10669300000000,LE18 2AJ,2014-10-15,fhrs_5_en-GB,5,,FHRS,0
72936,Little Hill House,107 Moat Street,Wigston,Leicestershire,Green Gate Childrens Home,Hospitals/Childcare/Caring Premises,5,5,,16648,5,,52.58180200000000,05170/0107/0/000,216,env.health@oadby-wigston.gov.uk,Oadby and Wigston,http://www.oadby-wigston.gov.uk,-1.10527600000000,LE18 2GE,2011-03-22,fhrs_5_en-GB,5,,FHRS,5
72937,23 Leicester Road,Wigston,Leicestershire,,Greggs,Takeaway/sandwich shop,7844,0,,13908,0,,52.58693000000000,04530/0023/0/000,216,env.health@oadby-wigston.gov.uk,Oadby and Wigston,http://www.oadby-wigston.gov.uk,-1.10573200000000,LE18 1NR,2014-07-03,fhrs_5_en-GB,5,,FHRS,5
72938,28 The Parade,Oadby,Leicestershire,,Greggs,Takeaway/sandwich shop,7844,5,,24213,5,,52.59966500000000,07520/0028/0/000,216,env.health@oadby-wigston.gov.uk,Oadby and Wigston,http://www.oadby-wigston.gov.uk,-1.08403500000000,LE2 5BF,2014-01-10,fhrs_5_en-GB,5,,FHRS,5
72939,Station Road,Wigston,Leicestershire,,Guthlaxton College,School/college/university,7845,,,23949,,,52.58147500000000,07140/2001/2/000,216,env.health@oadby-wigston.gov.uk,Oadby and Wigston,http://www.oadby-wigston.gov.uk,-1.11925900000000,LE18 2DS,2014-12-05,fhrs_5_en-GB,5,,FHRS,
72940,11 Canal Street,Wigston,Leicestershire,,Hams Plaice/Chick King,Takeaway/sandwich shop,7844,5,,4865,10,,52.57727500000000,01370/0011/0/000,216,env.health@oadby-wigston.gov.uk,Oadby and Wigston,http://www.oadby-wigston.gov.uk,-1.13243300000000,LE18 4PL,2013-12-17,fhrs_4_en-GB,4,,FHRS,5
72941,Brookside County Primary School,Copse Close,Oadby,Leicestershire,Headstart Day Nursery,Hospitals/Childcare/Caring Premises,5,5,,5382,0,,52.60148800000000,01790/2001/2/000,216,env.health@oadby-wigston.gov.uk,Oadby and Wigston,http://www.oadby-wigston.gov.uk,-1.06195200000000,LE2 4FU,2014-01-10,fhrs_5_en-GB,5,,FHRS,5
72942,69 Long Street,Wigston,Leicestershire,,Heards Butchers,Retailers - other,4613,10,,14121,10,,52.58469900000000,04690/0069/0/000,216,env.health@oadby-wigston.gov.uk,Oadby and Wigston,http://www.oadby-wigston.gov.uk,-1.10669300000000,LE18 2AJ,2014-03-27,fhrs_3_en-GB,3,,FHRS,10
72943,103 Foxhunter Drive,Oadby,Leicestershire,,Heathcotes Care Residential Home,Hospitals/Childcare/Caring Premises,5,10,,24819,5,,52.60064000000000,08/00017/COMM,216,env.health@oadby-wigston.gov.uk,Oadby and Wigston,http://www.oadby-wigston.gov.uk,-1.09277000000000,LE2 5FH,2013-01-07,fhrs_4_en-GB,4,,FHRS,5
72944,The Vicarage,Bushloe End,Wigston,Leicestershire,Heathcotes Care Wigston,Hospitals/Childcare/Caring Premises,5,5,,584396,5,,52.58337800000000,13/00026/COMM,216,env.health@oadby-wigston.gov.uk,Oadby and Wigston,http://www.oadby-wigston.gov.uk,-1.11160500000000,LE18 2BA,2013-09-02,fhrs_5_en-GB,5,,FHRS,5
72945,5 Stoughton Farm Park,Gartree Road,Oadby,Leicestershire,Henley's,Retailers - other,4613,10,,706599,10,,52.61314400000000,14/00014/COMM,216,env.health@oadby-wigston.gov.uk,Oadby and Wigston,http://www.oadby-wigston.gov.uk,-1.07168700000000,LE2 2FB,2014-09-25,fhrs_3_en-GB,3,,FHRS,10
72946,Mobile Food Unit,Chartwell Drive,Wigston,Leicestershire,HF Catering Mobile,Mobile caterer,7846,5,,5064,5,,,01540/2033/2/000,216,env.health@oadby-wigston.gov.uk,Oadby and Wigston,http://www.oadby-wigston.gov.uk,,,2013-04-09,fhrs_5_en-GB,5,,FHRS,5
72947,71 Leicester Road,Wigston,Leicestershire,,High Gain House,Takeaway/sandwich shop,7844,5,,13917,10,,52.58693000000000,04530/0071/0/000,216,env.health@oadby-wigston.gov.uk,Oadby and Wigston,http://www.oadby-wigston.gov.uk,-1.10573200000000,LE18 1NR,2013-10-02,fhrs_4_en-GB,4,,FHRS,5
72948,Highfield House,Newton Lane,Wigston,Leicestershire,Highfield House - Farm Shop,Farmers/growers,7838,5,,16949,5,,52.57591400000000,05390/2006/2/000,216,env.health@oadby-wigston.gov.uk,Oadby and Wigston,http://www.oadby-wigston.gov.uk,-1.08069300000000,LE18 3SH,2012-08-06,fhrs_5_en-GB,5,,FHRS,5
72949,Kenilworth Road,Wigston,Leicestershire,,Holmes House,Hospitals/Childcare/Caring Premises,5,5,,13445,5,,52.58331600000000,04100/0000/2/000,216,env.health@oadby-wigston.gov.uk,Oadby and Wigston,http://www.oadby-wigston.gov.uk,-1.13474900000000,LE18 4UF,2014-01-28,fhrs_5_en-GB,5,,FHRS,5
72950,Bull Head Street,Wigston,Leicestershire,,Horse & Trumpet,Pub/bar/nightclub,7843,5,,4589,5,,52.58232300000000,01210/2005/2/000,216,env.health@oadby-wigston.gov.uk,Oadby and Wigston,http://www.oadby-wigston.gov.uk,-1.10287400000000,LE18 1PB,2014-02-12,fhrs_4_en-GB,4,,FHRS,10
72951,10 - 14 Bell Street,Wigston,Leicestershire,,Iceland Foods Ltd,Retailers - supermarkets/hypermarkets,7840,5,,2079,5,,52.58553800000000,00620/1014/0/000,216,env.health@oadby-wigston.gov.uk,Oadby and Wigston,http://www.oadby-wigston.gov.uk,-1.10472700000000,LE18 1AD,2014-11-13,fhrs_5_en-GB,5,,FHRS,5
72952,,,,,Inspirations Leicestershire Ltd,Hospitals/Childcare/Caring Premises,5,5,,535066,5,,,08/00025/OTHBUS,216,env.health@oadby-wigston.gov.uk,Oadby and Wigston,http://www.oadby-wigston.gov.uk,,,2013-03-27,fhrs_5_en-GB,5,,FHRS,5
72953,Unit 5,Shire Court,Gloucester Crescent,Wigston,J F Milner Bakers Ltd,Retailers - other,4613,5,,8648,0,,52.58718200000000,03120/4031/3/005,216,env.health@oadby-wigston.gov.uk,Oadby and Wigston,http://www.oadby-wigston.gov.uk,-1.13476100000000,LE18 4XJ,2013-10-23,fhrs_5_en-GB,5,,FHRS,5
72954,50C Blaby Road,Wigston,Leicestershire,,J F Milners,Retailers - other,4613,5,,2218,5,,52.58012000000000,00740/0050/C/000,216,env.health@oadby-wigston.gov.uk,Oadby and Wigston,http://www.oadby-wigston.gov.uk,-1.13171200000000,LE18 4SD,2013-10-23,fhrs_5_en-GB,5,,FHRS,5
72955,29 Carlton Drive,Wigston,Leicestershire,,J Master & Son,Retailers - other,4613,10,,4948,5,,52.59109700000000,01470/0003/0/000,216,env.health@oadby-wigston.gov.uk,Oadby and Wigston,http://www.oadby-wigston.gov.uk,-1.11116800000000,LE18 1DF,2014-09-11,fhrs_4_en-GB,4,,FHRS,5
72956,22 Bell Street,Wigston,Leicestershire,,J Sainsbury Plc,Retailers - supermarkets/hypermarkets,7840,0,,17658,5,,52.58553800000000,06/00018/COMM,216,env.health@oadby-wigston.gov.uk,Oadby and Wigston,http://www.oadby-wigston.gov.uk,-1.10472700000000,LE18 1AD,2013-08-23,fhrs_5_en-GB,5,,FHRS,5
72957,Glen Road,Oadby,Leicestershire,,J Sainsbury Plc,Retailers - supermarkets/hypermarkets,7840,0,,8621,5,,52.59391800000000,03100/2001/2/000,216,env.health@oadby-wigston.gov.uk,Oadby and Wigston,http://www.oadby-wigston.gov.uk,-1.06871300000000,LE2 4PE,2013-07-24,fhrs_5_en-GB,5,,FHRS,5
72958,Jacobs Bakery Ltd,Canal Street,Wigston,Leicestershire,Jacobs Bakery (canteen),Restaurant/Cafe/Canteen,1,0,,4869,0,,52.57718200000000,01370/2005/3/000,216,env.health@oadby-wigston.gov.uk,Oadby and Wigston,http://www.oadby-wigston.gov.uk,-1.13190300000000,LE18 4PQ,2014-01-09,fhrs_5_en-GB,5,,FHRS,5
72959,3 Elizabeth Business Park,Tigers Close,Wigston,Leicestershire,Jam Gourmet Foods Ltd,Manufacturers/packers,7839,5,,559656,5,,52.57436700000000,13/00017/COMM,216,env.health@oadby-wigston.gov.uk,Oadby and Wigston,http://www.oadby-wigston.gov.uk,-1.13423100000000,LE18 4AE,2013-06-19,fhrs_5_en-GB,5,,FHRS,5
72960,B & Q Plc,Bull Head Street,Wigston,Leicestershire,Jandy's,Mobile caterer,7846,5,,535070,10,,52.58410500000000,13/00002/COMM,216,env.health@oadby-wigston.gov.uk,Oadby and Wigston,http://www.oadby-wigston.gov.uk,-1.10304500000000,LE18 1PA,2014-09-26,fhrs_4_en-GB,4,,FHRS,5
72961,Unit 7,Shire Court,Gloucester Crescent,Wigston,Jannines,Restaurant/Cafe/Canteen,1,10,,8650,5,,52.58718200000000,03120/4031/3/007,216,env.health@oadby-wigston.gov.uk,Oadby and Wigston,http://www.oadby-wigston.gov.uk,-1.13476100000000,LE18 4XJ,2014-10-23,fhrs_4_en-GB,4,,FHRS,5
72962,Gibbs And Dandy,St Thomas Road,Wigston,Leicestershire,Jay D's,Hospitals/Childcare/Caring Premises,5,10,,580304,5,,52.57965700000000,13/00047/FODBUS,216,env.health@oadby-wigston.gov.uk,Oadby and Wigston,http://www.oadby-wigston.gov.uk,-1.13724100000000,LE18 4TA,2013-08-20,fhrs_4_en-GB,4,,FHRS,5
72963,115 - 117 Blaby Road,Wigston,Leicestershire,,Jhoots Chemist,Retailers - other,4613,,,371116,,,52.57979900000000,00740/0117/0/000,216,env.health@oadby-wigston.gov.uk,Oadby and Wigston,http://www.oadby-wigston.gov.uk,-1.13202900000000,LE18 4PB,2013-07-15,fhrs_exempt_en-GB,Exempt,,FHRS,
72964,Unit C1,Chartwell Point,Wigston,Leicestershire,Johal Dairies,Distributors/Transporters,7,10,,14545,5,,52.58810000000000,05/00018/COMM,216,env.health@oadby-wigston.gov.uk,Oadby and Wigston,http://www.oadby-wigston.gov.uk,-1.12396800000000,LE18 2FT,2014-10-06,fhrs_4_en-GB,4,,FHRS,0
72965,15 Manor Road,Oadby,Leicestershire,,John Foster Hall,Hotel/bed & breakfast/guest house,7842,10,,14271,10,,52.61028500000000,04890/0015/2/000,216,env.health@oadby-wigston.gov.uk,Oadby and Wigston,http://www.oadby-wigston.gov.uk,-1.08554100000000,LE2 2LG,2014-10-16,fhrs_3_en-GB,3,,FHRS,10
72966,33 Kenilworth Drive,Oadby,Leicestershire,,Jolly Vending Services Ltd,Distributors/Transporters,7,,,502238,,,52.59597400000000,05/00046/COMM,216,env.health@oadby-wigston.gov.uk,Oadby and Wigston,http://www.oadby-wigston.gov.uk,-1.09150800000000,LE2 5LT,2013-01-07,fhrs_exempt_en-GB,Exempt,,FHRS,
72967,2 Newton Lane,Wigston,Leicestershire,,Joseph Morris Butchers,Retailers - other,4613,5,,16941,10,,52.58142500000000,05390/0002/0/000,216,env.health@oadby-wigston.gov.uk,Oadby and Wigston,http://www.oadby-wigston.gov.uk,-1.10062000000000,LE18 3SE,2014-03-20,fhrs_3_en-GB,3,,FHRS,10
72968,Glenmere Community Primary School,Estoril Avenue,Wigston,Leicestershire,Kiddy Kapers Daycare,Hospitals/Childcare/Caring Premises,5,5,,14420,5,,52.58971900000000,04Y/01246/COMM,216,env.health@oadby-wigston.gov.uk,Oadby and Wigston,http://www.oadby-wigston.gov.uk,-1.09293700000000,LE18 3RD,2014-03-18,fhrs_5_en-GB,5,,FHRS,5
72969,Long Street,Wigston,Leicestershire,,Kingswood Lodge,Hospitals/Childcare/Caring Premises,5,0,,14125,0,,52.58304300000000,04690/2004/2/000,216,env.health@oadby-wigston.gov.uk,Oadby and Wigston,http://www.oadby-wigston.gov.uk,-1.10889600000000,LE18 2BP,2014-10-03,fhrs_5_en-GB,5,,FHRS,0
72970,97 Briar Meads,Oadby,Leicestershire,,Kiran Convenience,Retailers - other,4613,10,,2552,10,,52.58878200000000,00990/0097/0/000,216,env.health@oadby-wigston.gov.uk,Oadby and Wigston,http://www.oadby-wigston.gov.uk,-1.07984800000000,LE2 5WE,2014-10-15,fhrs_2_en-GB,2,,FHRS,15
72971,Langmoor Primary School,Kenilworth Drive,Oadby,Leicester,Langmoor After School Kids Club,Other catering premises,7841,5,,637960,5,,52.59496200000000,08/00004/SCHCLU,216,env.health@oadby-wigston.gov.uk,Oadby and Wigston,http://www.oadby-wigston.gov.uk,-1.08853200000000,LE2 5HS,2014-03-03,fhrs_5_en-GB,5,,FHRS,5
72972,Langmoor Primary School,Kenilworth Drive,Oadby,Leicester,Langmoor Breakfast Club& Preschool,Hospitals/Childcare/Caring Premises,5,5,,637959,5,,52.59496200000000,08/00003/SCHCLU,216,env.health@oadby-wigston.gov.uk,Oadby and Wigston,http://www.oadby-wigston.gov.uk,-1.08853200000000,LE2 5HS,2014-02-28,fhrs_5_en-GB,5,,FHRS,5
72973,Kenilworth Drive,Oadby,Leicester,Leicestershire,Langmoor Primary School,School/college/university,7845,5,,13440,5,,52.59496200000000,04090/2000/2/000,216,env.health@oadby-wigston.gov.uk,Oadby and Wigston,http://www.oadby-wigston.gov.uk,-1.08853200000000,LE2 5HS,2013-11-14,fhrs_4_en-GB,4,,FHRS,10
72974,11 The Arcade,Wigston,Leicestershire,,Largescale Ltd,Retailers - other,4613,5,,13898,10,,52.58687400000000,04520/0011/0/000,216,env.health@oadby-wigston.gov.uk,Oadby and Wigston,http://www.oadby-wigston.gov.uk,-1.10548300000000,LE18 1NZ,2014-01-14,fhrs_3_en-GB,3,,FHRS,10
72975,New Street,Oadby,Leicester,Leicestershire,Launde Primary School,School/college/university,7845,5,,16907,5,,52.60071300000000,05380/2002/2/000,216,env.health@oadby-wigston.gov.uk,Oadby and Wigston,http://www.oadby-wigston.gov.uk,-1.07894900000000,LE2 4LJ,2013-09-24,fhrs_4_en-GB,4,,FHRS,10
72976,1 Knighton Rise,Oadby,Leicestershire,,Lawns Residential Home,Hospitals/Childcare/Caring Premises,5,0,,13737,5,,52.61254500000000,04320/0001/0/000,216,env.health@oadby-wigston.gov.uk,Oadby and Wigston,http://www.oadby-wigston.gov.uk,-1.09414900000000,LE2 2RF,2014-06-18,fhrs_5_en-GB,5,,FHRS,0
72977,First Floor,13 The Parade,Oadby,Leicestershire,Leeja Palace,Restaurant/Cafe/Canteen,1,10,,24205,10,,52.60002800000000,07520/0013/0/000,216,env.health@oadby-wigston.gov.uk,Oadby and Wigston,http://www.oadby-wigston.gov.uk,-1.08334800000000,LE2 5BB,2014-11-14,fhrs_3_en-GB,3,,FHRS,10
72978,Oval Park,Wigston Road,Oadby,Leicestershire,Leicester Tigers,Pub/bar/nightclub,7843,10,,14415,5,,52.59499200000000,04Y/00004/COMM,216,env.health@oadby-wigston.gov.uk,Oadby and Wigston,http://www.oadby-wigston.gov.uk,-1.08576500000000,,2014-10-31,fhrs_4_en-GB,4,,FHRS,5
72979,Frederick Street,Wigston,Leicestershire,,Life Church,Restaurant/Cafe/Canteen,1,10,,7209,5,,52.58652500000000,02830/0000/2/000,216,env.health@oadby-wigston.gov.uk,Oadby and Wigston,http://www.oadby-wigston.gov.uk,-1.10571100000000,LE18 1PJ,2013-10-17,fhrs_4_en-GB,4,,FHRS,5
72980,Old Barracks,Tigers Road,Wigston,Leicestershire,Lilac Bush,Hospitals/Childcare/Caring Premises,5,5,,403134,5,,52.58398300000000,12/00004/COMM,216,env.health@oadby-wigston.gov.uk,Oadby and Wigston,http://www.oadby-wigston.gov.uk,-1.14120000000000,LE18 4WS,2014-06-11,fhrs_5_en-GB,5,,FHRS,0
72981,Pavilion,Horsewell Lane,Wigston,Leicestershire,Little Fishes Pre-School,Hospitals/Childcare/Caring Premises,5,5,,9257,5,,52.58067500000000,03880/2003/2/001,216,env.health@oadby-wigston.gov.uk,Oadby and Wigston,http://www.oadby-wigston.gov.uk,-1.10479700000000,LE18 2HQ,2012-06-27,fhrs_5_en-GB,5,,FHRS,5
72982,23 East Street,Oadby,Leicestershire,,Little Foxes Day Nursery,Hospitals/Childcare/Caring Premises,5,5,,6625,5,,52.60083700000000,02330/0023/0/000,216,env.health@oadby-wigston.gov.uk,Oadby and Wigston,http://www.oadby-wigston.gov.uk,-1.08336100000000,LE2 5AF,2014-03-11,fhrs_5_en-GB,5,,FHRS,5
72983,Launceston Road,Wigston,Leicestershire,,Little Hill Church,Restaurant/Cafe/Canteen,1,10,,13804,5,,52.57802000000000,04420/2002/2/000,216,env.health@oadby-wigston.gov.uk,Oadby and Wigston,http://www.oadby-wigston.gov.uk,-1.11312700000000,,2013-03-28,fhrs_4_en-GB,4,,FHRS,5
72984,Launceston Road,Wigston,Leicestershire,,Little Hill County Primary School,School/college/university,7845,5,,13808,0,,52.58174400000000,04420/2007/2/000,216,env.health@oadby-wigston.gov.uk,Oadby and Wigston,http://www.oadby-wigston.gov.uk,-1.11190400000000,LE18 2GZ,2014-11-28,fhrs_5_en-GB,5,,FHRS,0
72985,9 Launceston House,Launceston Road,Wigston,Leicestershire,Little Hill Fish Bar,Takeaway/sandwich shop,7844,20,,584397,15,,52.57605300000000,13/00052/COMM,216,env.health@oadby-wigston.gov.uk,Oadby and Wigston,http://www.oadby-wigston.gov.uk,-1.11060200000000,LE18 2GL,2014-09-19,fhrs_1_en-GB,1,,FHRS,15
72986,Unit 4,Launceston House,Launceston Road,Wigston,Little Hill Pharmacy,Retailers - other,4613,,,371119,,,52.57605300000000,04420/2012/2/000,216,env.health@oadby-wigston.gov.uk,Oadby and Wigston,http://www.oadby-wigston.gov.uk,-1.11060200000000,LE18 2GL,2012-08-09,fhrs_exempt_en-GB,Exempt,,FHRS,
72987,Launceston Road,Wigston,Leicestershire,,Little Hill Store And Off Licence,Retailers - other,4613,0,,13810,0,,52.57605300000000,04420/2010/2/000,216,env.health@oadby-wigston.gov.uk,Oadby and Wigston,http://www.oadby-wigston.gov.uk,-1.11060200000000,LE18 2GL,2014-12-05,fhrs_5_en-GB,5,,FHRS,0
72988,9 The Parade,Oadby,Leicestershire,,Lloyds Chemist,Retailers - other,4613,,,371131,,,52.60002800000000,07520/0009/0/000,216,env.health@oadby-wigston.gov.uk,Oadby and Wigston,http://www.oadby-wigston.gov.uk,-1.08334800000000,LE2 5BB,2013-06-06,fhrs_exempt_en-GB,Exempt,,FHRS,
72989,9 Stoughton Farm Park,Gartree Road,Oadby,Leicestershire,Lollipops Pottery And Painting,Restaurant/Cafe/Canteen,1,10,,647353,5,,52.61314400000000,14/00003/COMM,216,env.health@oadby-wigston.gov.uk,Oadby and Wigston,http://www.oadby-wigston.gov.uk,-1.07168700000000,LE2 2FB,2014-03-26,fhrs_3_en-GB,3,,FHRS,10
72990,47 - 49 Queens Drive,Wigston,Leicestershire,,Londis,Retailers - other,4613,10,,20503,5,,52.58492600000000,06070/0047/2/000,216,env.health@oadby-wigston.gov.uk,Oadby and Wigston,http://www.oadby-wigston.gov.uk,-1.11901300000000,LE18 2DG,2013-04-09,fhrs_3_en-GB,3,,FHRS,10
72991,Old Wyggestonians Sports Club,Wigston Road,Oadby,Leicester,Lyons Catering/ Old Wyggestonians Sport Club,Pub/bar/nightclub,7843,0,,27791,0,,52.59442300000000,08210/2005/2/000,216,env.health@oadby-wigston.gov.uk,Oadby and Wigston,http://www.oadby-wigston.gov.uk,-1.08860200000000,LE2 5JD,2014-11-21,fhrs_5_en-GB,5,,FHRS,0
72992,Fairfield Community Primary School,Cheshire Drive,Wigston,Leicestershire,Maggie's Den,School/college/university,7845,10,,632378,5,,52.58870000000000,13/00120/COMM,216,env.health@oadby-wigston.gov.uk,Oadby and Wigston,http://www.oadby-wigston.gov.uk,-1.12972700000000,LE18 4WA,2014-01-30,fhrs_4_en-GB,4,,FHRS,5
72993,13 Blaby Road,Wigston,Leicestershire,,Magic Moments,Retailers - other,4613,0,,2208,5,,52.57957200000000,00740/0013/0/000,216,env.health@oadby-wigston.gov.uk,Oadby and Wigston,http://www.oadby-wigston.gov.uk,-1.13426100000000,LE18 4PA,2012-11-16,fhrs_4_en-GB,4,,FHRS,10
72994,27 - 29 Long Street,Wigston,Leicestershire,,Magna  Care Home- HC-One,Hospitals/Childcare/Caring Premises,5,0,,14118,0,,52.58304300000000,04690/0027/0/000,216,env.health@oadby-wigston.gov.uk,Oadby and Wigston,http://www.oadby-wigston.gov.uk,-1.10889600000000,LE18 2BP,2014-09-19,fhrs_5_en-GB,5,,FHRS,0
72995,Copse Close,Oadby,Leicestershire,,Manor High School,School/college/university,7845,5,,5379,5,,52.60148800000000,01790/0065/2/000,216,env.health@oadby-wigston.gov.uk,Oadby and Wigston,http://www.oadby-wigston.gov.uk,-1.06195200000000,LE2 4FU,2014-11-13,fhrs_5_en-GB,5,,FHRS,0
72996,27 The Parade,Oadby,Leicestershire,,Marks And Spencers Simply Food,Retailers - supermarkets/hypermarkets,7840,0,,24212,5,,52.60002800000000,07520/0027/0/000,216,env.health@oadby-wigston.gov.uk,Oadby and Wigston,http://www.oadby-wigston.gov.uk,-1.08334800000000,LE2 5BB,2014-09-26,fhrs_5_en-GB,5,,FHRS,0
72997,St Peters Path,Oadby,Leicestershire,,Marriott House,Restaurant/Cafe/Canteen,1,10,,632379,5,,52.59631900000000,13/00122/COMM,216,env.health@oadby-wigston.gov.uk,Oadby and Wigston,http://www.oadby-wigston.gov.uk,-1.08386800000000,LE2 5PR,2014-01-22,fhrs_3_en-GB,3,,FHRS,10
72998,60 Leicester Road,Wigston,Leicestershire,,Marta Shop,Retailers - other,4613,20,,647355,15,,52.58697900000000,14/00008/COMM,216,env.health@oadby-wigston.gov.uk,Oadby and Wigston,http://www.oadby-wigston.gov.uk,-1.10626300000000,LE18 1DR,2014-03-13,fhrs_1_en-GB,1,,FHRS,10
72999,59 Blaby Road,Wigston,Leicestershire,,Martins,Retailers - other,4613,5,,2221,5,,52.57957200000000,00740/0059/0/000,216,env.health@oadby-wigston.gov.uk,Oadby and Wigston,http://www.oadby-wigston.gov.uk,-1.13426100000000,LE18 4PA,2012-11-01,fhrs_4_en-GB,4,,FHRS,10
73000,Unit 5 Launceston House,Launceston Road,Wigston,Leicestershire,Martins Newsagents,Retailers - other,4613,5,,13811,5,,52.57605300000000,04420/2011/2/000,216,env.health@oadby-wigston.gov.uk,Oadby and Wigston,http://www.oadby-wigston.gov.uk,-1.11060200000000,LE18 2GL,2011-09-13,fhrs_4_en-GB,4,,FHRS,10
73001,,,,,Mashed,Mobile caterer,7846,5,,434243,5,,,06/00099/COMM,216,env.health@oadby-wigston.gov.uk,Oadby and Wigston,http://www.oadby-wigston.gov.uk,,,2014-10-03,fhrs_5_en-GB,5,,FHRS,5
73002,Wakes Road,Wigston,Leicestershire,,McDonalds Restaurants Ltd,Restaurant/Cafe/Canteen,1,0,,28081,5,,52.58863900000000,08556/0001/0/000,216,env.health@oadby-wigston.gov.uk,Oadby and Wigston,http://www.oadby-wigston.gov.uk,-1.10348300000000,LE18 1PD,2014-03-10,fhrs_5_en-GB,5,,FHRS,5
73003,Meadow Way,Wigston,Leicestershire,,Meadow Community Primary School,School/college/university,7845,5,,16408,5,,52.58623700000000,05020/2001/2/000,216,env.health@oadby-wigston.gov.uk,Oadby and Wigston,http://www.oadby-wigston.gov.uk,-1.09739200000000,LE18 3QZ,2013-05-01,fhrs_5_en-GB,5,,FHRS,5
73004,Launceston Road,Wigston,Leicestershire,,Menphys Centre,School/college/university,7845,5,,13791,5,,52.58046400000000,04410/0011/2/000,216,env.health@oadby-wigston.gov.uk,Oadby and Wigston,http://www.oadby-wigston.gov.uk,-1.11142800000000,LE18 2FZ,2014-03-17,fhrs_5_en-GB,5,,FHRS,0
73005,86 Welford Road,Wigston,Leicestershire,,Mercer News,Retailers - other,4613,20,,24630,5,,52.57846800000000,07980/0086/0/000,216,env.health@oadby-wigston.gov.uk,Oadby and Wigston,http://www.oadby-wigston.gov.uk,-1.10062100000000,LE18 3SN,2013-03-07,fhrs_1_en-GB,1,,FHRS,5
73006,33 Bell Street,Wigston,Leicestershire,,Mercury News,Retailers - other,4613,0,,2074,0,,52.58553800000000,00620/0033/0/000,216,env.health@oadby-wigston.gov.uk,Oadby and Wigston,http://www.oadby-wigston.gov.uk,-1.10472700000000,LE18 1AD,2014-10-31,fhrs_5_en-GB,5,,FHRS,0
73007,62 London Road,Oadby,Leicestershire,,Mercury News,Retailers - other,4613,10,,14097,10,,52.59683400000000,04660/0062/0/000,216,env.health@oadby-wigston.gov.uk,Oadby and Wigston,http://www.oadby-wigston.gov.uk,-1.07715500000000,LE2 5DH,2014-02-27,fhrs_3_en-GB,3,,FHRS,5
73008,Ground Floor,55 Leicester Road,Wigston,Leicestershire,Milan Coffee Shop,Restaurant/Cafe/Canteen,1,10,,13914,5,,52.58693000000000,04530/0055/0/000,216,env.health@oadby-wigston.gov.uk,Oadby and Wigston,http://www.oadby-wigston.gov.uk,-1.10573200000000,LE18 1NR,2014-03-13,fhrs_4_en-GB,4,,FHRS,5
73009,306 - 308 Leicester Road,Wigston,Leicestershire,,Monkey Puzzle Wigston Day Nursery,Hospitals/Childcare/Caring Premises,5,5,,335126,5,,52.59631300000000,12/00005/COMM,216,env.health@oadby-wigston.gov.uk,Oadby and Wigston,http://www.oadby-wigston.gov.uk,-1.11256900000000,LE18 1JX,2014-04-10,fhrs_5_en-GB,5,,FHRS,5
73010,11 - 13 Bell Street,Wigston,Leicestershire,,Mr Beanbags Cafe,Restaurant/Cafe/Canteen,1,5,,2071,5,,52.58553800000000,00620/0013/0/000,216,env.health@oadby-wigston.gov.uk,Oadby and Wigston,http://www.oadby-wigston.gov.uk,-1.10472700000000,LE18 1AD,2014-09-25,fhrs_5_en-GB,5,,FHRS,5
73011,,,,,Mr Whippy,Restaurant/Cafe/Canteen,1,5,,28758,10,,,09/00024/COMM,216,env.health@oadby-wigston.gov.uk,Oadby and Wigston,http://www.oadby-wigston.gov.uk,,,2013-05-28,fhrs_4_en-GB,4,,FHRS,5
73012,98 - 100 Leicester Road,Wigston,Leicestershire,,Mughal Crown,Restaurant/Cafe/Canteen,1,10,,13922,10,,52.58697900000000,04530/0098/0/000,216,env.health@oadby-wigston.gov.uk,Oadby and Wigston,http://www.oadby-wigston.gov.uk,-1.10626300000000,LE18 1DR,2014-01-15,fhrs_2_en-GB,2,,FHRS,15
73013,Aylestone Lane,Wigston,Leicestershire,,Nautical William,Other catering premises,7841,5,,550883,5,,52.58892700000000,12/00081/COMM,216,env.health@oadby-wigston.gov.uk,Oadby and Wigston,http://www.oadby-wigston.gov.uk,-1.11670300000000,LE18 1BA,2013-05-01,fhrs_5_en-GB,5,,FHRS,5
73014,Leicester Racecourse,Leicester Road,Oadby,Leicestershire,Nelson Cafe And Bar,Takeaway/sandwich shop,7844,5,,610710,5,,52.60320700000000,12/00039/MULTI,216,env.health@oadby-wigston.gov.uk,Oadby and Wigston,http://www.oadby-wigston.gov.uk,-1.09689600000000,LE2 4AL,2013-12-05,fhrs_5_en-GB,5,,FHRS,5
73015,Leicester Racecourse,Leicester Road,Oadby,Leicestershire,Nelson Suite,Pub/bar/nightclub,7843,,,610715,,,52.60320700000000,13/00117/MULTI,216,env.health@oadby-wigston.gov.uk,Oadby and Wigston,http://www.oadby-wigston.gov.uk,-1.09689600000000,LE2 4AL,2014-06-02,fhrs_5_en-GB,5,,FHRS,
73016,50A Blaby Road,Wigston,Leicestershire,,New Garden,Takeaway/sandwich shop,7844,10,,708140,5,,52.58012000000000,14/00036/COMM,216,env.health@oadby-wigston.gov.uk,Oadby and Wigston,http://www.oadby-wigston.gov.uk,-1.13171200000000,LE18 4SD,2014-10-15,fhrs_4_en-GB,4,,FHRS,5
73017,11 Stoughton Road,Oadby,Leicester,Leicestershire,New Lucky House,Takeaway/sandwich shop,7844,5,,24043,5,,52.60176100000000,07270/0011/0/000,216,env.health@oadby-wigston.gov.uk,Oadby and Wigston,http://www.oadby-wigston.gov.uk,-1.08300200000000,LE2 4DS,2014-01-08,fhrs_5_en-GB,5,,FHRS,5
73018,Unit 3,Shire Court,Gloucester Crescent,Wigston,News And Booze,Retailers - other,4613,5,,8647,5,,52.58718200000000,03120/4031/3/003,216,env.health@oadby-wigston.gov.uk,Oadby and Wigston,http://www.oadby-wigston.gov.uk,-1.13476100000000,LE18 4XJ,2013-02-26,fhrs_4_en-GB,4,,FHRS,10
73019,34 - 36 Kelmarsh Avenue,Wigston,Leicestershire,,News And Food,Retailers - other,4613,5,,520727,5,,52.58343400000000,13/00011/COMM,216,env.health@oadby-wigston.gov.uk,Oadby and Wigston,http://www.oadby-wigston.gov.uk,-1.09998800000000,LE18 3QW,2014-11-13,fhrs_5_en-GB,5,,FHRS,5
73020,35 - 37 Aylestone Lane,Wigston,Leicestershire,,Nightingale Nursing Home,Hospitals/Childcare/Caring Premises,5,5,,1649,5,,52.58728100000000,00330/0035/0/000,216,env.health@oadby-wigston.gov.uk,Oadby and Wigston,http://www.oadby-wigston.gov.uk,-1.11176200000000,LE18 1AB,2014-06-12,fhrs_5_en-GB,5,,FHRS,5
73021,2A Radnor Road,Wigston,Leicestershire,,O A D Discount Ltd,Retailers - other,4613,5,,559655,5,,52.58596000000000,12/00028/COMM,216,env.health@oadby-wigston.gov.uk,Oadby and Wigston,http://www.oadby-wigston.gov.uk,-1.12758200000000,LE18 4XY,2013-05-11,fhrs_4_en-GB,4,,FHRS,10
73022,Wigston Road,Oadby,Leicester,Leicestershire,Oadby Boys Club,Restaurant/Cafe/Canteen,1,0,,27790,0,,52.59639700000000,08210/2002/2/000,216,env.health@oadby-wigston.gov.uk,Oadby and Wigston,http://www.oadby-wigston.gov.uk,-1.08225700000000,LE2 5QB,2014-11-12,fhrs_5_en-GB,5,,FHRS,0
73023,7 Stoughton Road,Oadby,Leicestershire,,Oadby Chippy,Takeaway/sandwich shop,7844,20,,610713,10,,52.60176100000000,13/00081/COMM,216,env.health@oadby-wigston.gov.uk,Oadby and Wigston,http://www.oadby-wigston.gov.uk,-1.08300200000000,LE2 4DS,2014-10-16,fhrs_1_en-GB,1,,FHRS,15
73024,Stoughton Road,Oadby,Leicestershire,,Oadby Evangelical Free Church,Restaurant/Cafe/Canteen,1,,,24053,,,52.61457200000000,07270/2068/2/000,216,env.health@oadby-wigston.gov.uk,Oadby and Wigston,http://www.oadby-wigston.gov.uk,-1.10293000000000,,2013-03-31,fhrs_exempt_en-GB,Exempt,,FHRS,
73025,81 Highcroft Avenue,Oadby,Leicester,Leicestershire,Oadby Fish Bar,Takeaway/sandwich shop,7844,10,,9093,10,,52.59293100000000,03640/0081/0/000,216,env.health@oadby-wigston.gov.uk,Oadby and Wigston,http://www.oadby-wigston.gov.uk,-1.07124300000000,LE2 5UH,2013-10-23,fhrs_3_en-GB,3,,FHRS,10
73026,85 The Parade,Oadby,Leicestershire,,Oadby Garden,Takeaway/sandwich shop,7844,5,,24223,5,,52.60002800000000,07520/0085/0/000,216,env.health@oadby-wigston.gov.uk,Oadby and Wigston,http://www.oadby-wigston.gov.uk,-1.08334800000000,LE2 5BB,2014-10-02,fhrs_5_en-GB,5,,FHRS,5
73027,71 The Parade,Oadby,Leicestershire,,Oadby Kebab House,Restaurant/Cafe/Canteen,1,5,,535068,5,,52.60002800000000,12/00059/COMM,216,env.health@oadby-wigston.gov.uk,Oadby and Wigston,http://www.oadby-wigston.gov.uk,-1.08334800000000,LE2 5BB,2013-03-21,fhrs_5_en-GB,5,,FHRS,5
73028,34 The Parade,Oadby,Leicestershire,,Oadby News Ltd,Retailers - other,4613,5,,462585,5,,52.59966500000000,12/00056/COMM,216,env.health@oadby-wigston.gov.uk,Oadby and Wigston,http://www.oadby-wigston.gov.uk,-1.08403500000000,LE2 5BF,2012-10-31,fhrs_5_en-GB,5,,FHRS,5
73029,John Monks Pavilion,Coombe Park,Coombe Rise,Oadby,Oadby Owls Football Club,Pub/bar/nightclub,7843,5,,5336,5,,,01760/4000/0/000,216,env.health@oadby-wigston.gov.uk,Oadby and Wigston,http://www.oadby-wigston.gov.uk,,,2014-01-08,fhrs_5_en-GB,5,,FHRS,5
73030,Oadby Tennis & Social Club,Leicester Road,Oadby,Leicestershire,Oadby Tennis And Social Club,Pub/bar/nightclub,7843,10,,13889,5,,52.60382500000000,04510/2005/2/000,216,env.health@oadby-wigston.gov.uk,Oadby and Wigston,http://www.oadby-wigston.gov.uk,-1.08958900000000,LE2 4AB,2013-07-01,fhrs_4_en-GB,4,,FHRS,5
73031,Wigston Road,Oadby,Leicester,Leicestershire,Oadby Town Football Club,Pub/bar/nightclub,7843,20,,27792,5,,52.59468900000000,08210/2006/2/000,216,env.health@oadby-wigston.gov.uk,Oadby and Wigston,http://www.oadby-wigston.gov.uk,-1.08576200000000,LE2 5QG,2013-09-13,fhrs_1_en-GB,1,,FHRS,10
73032,46 Moat Street,Wigston,Leicestershire,,Old Crown Inn,Pub/bar/nightclub,7843,10,,16647,5,,52.58224300000000,05170/0046/0/000,216,env.health@oadby-wigston.gov.uk,Oadby and Wigston,http://www.oadby-wigston.gov.uk,-1.10773200000000,LE18 2GD,2012-03-30,fhrs_4_en-GB,4,,FHRS,5
73033,46 Chestnut Avenue,Oadby,Leicestershire,,Olivers,Retailers - other,4613,,,5162,,,52.59843500000000,01600/0046/0/000,216,env.health@oadby-wigston.gov.uk,Oadby and Wigston,http://www.oadby-wigston.gov.uk,-1.08537400000000,LE2 5JG,2012-12-31,fhrs_exempt_en-GB,Exempt,,FHRS,
73034,Unit 1,Shire Court,Gloucester Crescent,Wigston,Olympus Fish Bar,Takeaway/sandwich shop,7844,10,,8646,5,,52.58718200000000,03120/4031/3/001,216,env.health@oadby-wigston.gov.uk,Oadby and Wigston,http://www.oadby-wigston.gov.uk,-1.13476100000000,LE18 4XJ,2013-11-21,fhrs_3_en-GB,3,,FHRS,10
73035,234 Aylestone Lane,Wigston,Leicestershire,,One Stop Shop,Retailers - other,4613,5,,1654,5,,52.59096000000000,00330/4005/2/000,216,env.health@oadby-wigston.gov.uk,Oadby and Wigston,http://www.oadby-wigston.gov.uk,-1.12047100000000,LE18 1BD,2013-08-20,fhrs_5_en-GB,5,,FHRS,5
73036,18 Pullman Road,Wigston,Leicestershire,,Orchards News,Retailers - other,4613,20,,20489,5,,52.58262800000000,06050/0018/2/000,216,env.health@oadby-wigston.gov.uk,Oadby and Wigston,http://www.oadby-wigston.gov.uk,-1.12074100000000,LE18 2DA,2013-10-14,fhrs_1_en-GB,1,,FHRS,5
73037,54 Rosemead Drive,Oadby,Leicestershire,,Oriental Chef,Takeaway/sandwich shop,7844,0,,20776,0,,52.59309500000000,06440/0054/0/000,216,env.health@oadby-wigston.gov.uk,Oadby and Wigston,http://www.oadby-wigston.gov.uk,-1.07850300000000,LE2 5SF,2014-09-25,fhrs_5_en-GB,5,,FHRS,0
73038,61 Leicester Road,Oadby,Leicestershire,,Oriental Star,Takeaway/sandwich shop,7844,10,,13883,10,,52.60135500000000,04510/0061/0/000,216,env.health@oadby-wigston.gov.uk,Oadby and Wigston,http://www.oadby-wigston.gov.uk,-1.08522500000000,LE2 4DF,2014-10-01,fhrs_3_en-GB,3,,FHRS,10
73039,Woodland Grange Primary School,Beaufort Way,Oadby,Leicestershire,Owls Hoot Childrens Club,Hospitals/Childcare/Caring Premises,5,5,,371138,5,,52.59166800000000,09/00006/SCHCLU,216,env.health@oadby-wigston.gov.uk,Oadby and Wigston,http://www.oadby-wigston.gov.uk,-1.05814700000000,LE2 4TY,2012-06-27,fhrs_5_en-GB,5,,FHRS,5
73040,3 Bell Street,Wigston,Leicestershire,,Oxfam,Retailers - other,4613,,,371111,,,52.58553800000000,00620/0003/0/000,216,env.health@oadby-wigston.gov.uk,Oadby and Wigston,http://www.oadby-wigston.gov.uk,-1.10472700000000,LE18 1AD,2012-04-25,fhrs_exempt_en-GB,Exempt,,FHRS,
73041,90 The Parade,Oadby,Leicestershire,,Papa Johns Pizza,Takeaway/sandwich shop,7844,5,,24224,5,,52.59966500000000,07520/0090/0/000,216,env.health@oadby-wigston.gov.uk,Oadby and Wigston,http://www.oadby-wigston.gov.uk,-1.08403500000000,LE2 5BF,2013-07-04,fhrs_4_en-GB,4,,FHRS,10
73042,St Thomas Road,Wigston,Leicestershire,,Parkland County Primary School,School/college/university,7845,5,,23908,5,,52.57965700000000,07080/2004/2/000,216,env.health@oadby-wigston.gov.uk,Oadby and Wigston,http://www.oadby-wigston.gov.uk,-1.13724100000000,LE18 4TA,2014-11-05,fhrs_5_en-GB,5,,FHRS,0
73043,18 Leicester Road,Wigston,Leicestershire,,Patson News,Retailers - other,4613,5,,434254,10,,52.58697900000000,12/00048/COMM,216,env.health@oadby-wigston.gov.uk,Oadby and Wigston,http://www.oadby-wigston.gov.uk,-1.10626300000000,LE18 1DR,2014-02-06,fhrs_4_en-GB,4,,FHRS,5
73044,9 The Arcade,Wigston,Leicestershire,,PDA Quality Food,Retailers - other,4613,5,,647354,5,,52.58687400000000,14/00005/COMM,216,env.health@oadby-wigston.gov.uk,Oadby and Wigston,http://www.oadby-wigston.gov.uk,-1.10548300000000,LE18 1NZ,2014-03-28,fhrs_4_en-GB,4,,FHRS,10
73045,48 - 50 The Parade,Oadby,Leicestershire,,Penmark Cards Ltds,Retailers - other,4613,,,24218,,,52.59966500000000,07520/0050/0/000,216,env.health@oadby-wigston.gov.uk,Oadby and Wigston,http://www.oadby-wigston.gov.uk,-1.08403500000000,LE2 5BF,2013-01-04,fhrs_exempt_en-GB,Exempt,,FHRS,
73046,42 Bell Street,Wigston,Leicestershire,,Pennywise Discount,Retailers - other,4613,5,,2076,5,,52.58553800000000,00620/0044/0/000,216,env.health@oadby-wigston.gov.uk,Oadby and Wigston,http://www.oadby-wigston.gov.uk,-1.10472700000000,LE18 1AD,2013-08-19,fhrs_4_en-GB,4,,FHRS,10
73047,15 Leicester Road,Wigston,Leicestershire,,Perfect Pizza,Takeaway/sandwich shop,7844,5,,13906,10,,52.58693000000000,04530/0015/0/000,216,env.health@oadby-wigston.gov.uk,Oadby and Wigston,http://www.oadby-wigston.gov.uk,-1.10573200000000,LE18 1NR,2013-09-24,fhrs_3_en-GB,3,,FHRS,10
73048,4 The Parade,Oadby,Leicestershire,,Pizza Mondo,Takeaway/sandwich shop,7844,10,,647351,10,,52.59966500000000,13/00062/COMM,216,env.health@oadby-wigston.gov.uk,Oadby and Wigston,http://www.oadby-wigston.gov.uk,-1.08403500000000,LE2 5BF,2013-11-27,fhrs_3_en-GB,3,,FHRS,5
73049,33 Canal Street,Wigston,Leicestershire,,Pizza Oven,Restaurant/Cafe/Canteen,1,20,,591438,10,,52.57727500000000,13/00016/COMM,216,env.health@oadby-wigston.gov.uk,Oadby and Wigston,http://www.oadby-wigston.gov.uk,-1.13243300000000,LE18 4PL,2014-10-06,fhrs_1_en-GB,1,,FHRS,20
73050,Thythorn Field County Primary Schoo,Bideford Close,Wigston,Leicestershire,Play And Learn,Hospitals/Childcare/Caring Premises,5,,,371124,,,52.57115800000000,05/00060/COMM,216,env.health@oadby-wigston.gov.uk,Oadby and Wigston,http://www.oadby-wigston.gov.uk,-1.10524200000000,LE18 2QU,2013-10-03,fhrs_exempt_en-GB,Exempt,,FHRS,
73051,Water Leys Primary School,Guilford Drive,Wigston,Leicestershire,Poplars Club And Pre-School,Hospitals/Childcare/Caring Premises,5,5,,371125,5,,52.59555200000000,06/00077/COMM,216,env.health@oadby-wigston.gov.uk,Oadby and Wigston,http://www.oadby-wigston.gov.uk,-1.11899100000000,LE18 1HG,2013-11-06,fhrs_5_en-GB,5,,FHRS,5
73052,104 The Parade,Oadby,Leicestershire,,Poundstretcher,Retailers - other,4613,5,,24226,5,,52.59966500000000,07520/0104/0/000,216,env.health@oadby-wigston.gov.uk,Oadby and Wigston,http://www.oadby-wigston.gov.uk,-1.08403500000000,LE2 5BF,2012-12-21,fhrs_5_en-GB,5,,FHRS,5
73053,58 Chestnut Avenue,Oadby,Leicestershire,,Price Freeze Ltd,Other catering premises,7841,5,,5163,10,,52.59843500000000,01600/0058/0/000,216,env.health@oadby-wigston.gov.uk,Oadby and Wigston,http://www.oadby-wigston.gov.uk,-1.08537400000000,LE2 5JG,2014-10-22,fhrs_3_en-GB,3,,FHRS,10
73054,105 - 107 Lansdowne Grove,Wigston,Leicestershire,,Pride Super Store,Retailers - other,4613,20,,580305,5,,52.57728400000000,13/00048/COMM,216,env.health@oadby-wigston.gov.uk,Oadby and Wigston,http://www.oadby-wigston.gov.uk,-1.12751800000000,LE18 4LX,2013-08-14,fhrs_1_en-GB,1,,FHRS,10
73055,Ground Floor,Publicity House,55 Kenilworth Drive,Oadby,R And G Masons,Retailers - other,4613,10,,28558,5,,52.59625200000000,09/00008/COMM,216,env.health@oadby-wigston.gov.uk,Oadby and Wigston,http://www.oadby-wigston.gov.uk,-1.09147300000000,LE2 5LT,2013-03-25,fhrs_4_en-GB,4,,FHRS,5
73056,10 - 11 Branston House,West Avenue,Wigston,Leicestershire,R.J. Cake Designs,Other catering premises,7841,10,,15120,5,,52.58964700000000,05/00111/COMM,216,env.health@oadby-wigston.gov.uk,Oadby and Wigston,http://www.oadby-wigston.gov.uk,-1.12283000000000,LE18 2FB,2013-03-26,fhrs_3_en-GB,3,,FHRS,10
73057,64 The Parade,Oadby,Leicestershire,,Ratcliffe Fruitiers,Retailers - other,4613,5,,24220,5,,52.59966500000000,07520/0064/0/000,216,env.health@oadby-wigston.gov.uk,Oadby and Wigston,http://www.oadby-wigston.gov.uk,-1.08403500000000,LE2 5BF,2012-07-12,fhrs_4_en-GB,4,,FHRS,10
73058,56A Blaby Road,Wigston,Leicestershire,,Red Lantern,Restaurant/Cafe/Canteen,1,30,,550886,20,,52.58012000000000,13/00021/COMM,216,env.health@oadby-wigston.gov.uk,Oadby and Wigston,http://www.oadby-wigston.gov.uk,-1.13171200000000,LE18 4SD,2014-10-23,fhrs_0_en-GB,0,,FHRS,25
73059,4A Wigston Road,Oadby,Leicestershire,,Royal British Legion,Pub/bar/nightclub,7843,5,,27779,5,,52.59761000000000,08210/0004/A/000,216,env.health@oadby-wigston.gov.uk,Oadby and Wigston,http://www.oadby-wigston.gov.uk,-1.08100700000000,LE2 5QA,2013-01-25,fhrs_5_en-GB,5,,FHRS,5
73060,Unit 6,Shire Court,Gloucester Crescent,Wigston,Royal Garden,Takeaway/sandwich shop,7844,10,,8649,10,,52.58718200000000,03120/4031/3/006,216,env.health@oadby-wigston.gov.uk,Oadby and Wigston,http://www.oadby-wigston.gov.uk,-1.13476100000000,LE18 4XJ,2013-09-04,fhrs_3_en-GB,3,,FHRS,10
73061,56 Brabazon Road,Oadby,Leicestershire,,S P News,Retailers - other,4613,20,,2382,5,,52.59744700000000,00880/0056/0/000,216,env.health@oadby-wigston.gov.uk,Oadby and Wigston,http://www.oadby-wigston.gov.uk,-1.08675300000000,LE2 5HD,2014-01-08,fhrs_1_en-GB,1,,FHRS,15
73062,2 Clifford Street,Wigston,Leicestershire,,S W Wines,Retailers - other,4613,5,,5246,5,,52.58073800000000,01680/0002/0/000,216,env.health@oadby-wigston.gov.uk,Oadby and Wigston,http://www.oadby-wigston.gov.uk,-1.13512400000000,LE18 4SH,2014-09-25,fhrs_4_en-GB,4,,FHRS,10
73063,53 Leicester Road,Wigston,Leicestershire,,Saabs Grill Ltd,Restaurant/Cafe/Canteen,1,0,,715492,0,,52.58693000000000,14/00037/COMM,216,env.health@oadby-wigston.gov.uk,Oadby and Wigston,http://www.oadby-wigston.gov.uk,-1.10573200000000,LE18 1NR,2014-11-07,fhrs_5_en-GB,5,,FHRS,0
73064,Unit 8,Shire Court,Gloucester Crescent,Wigston,Sainsburys,Retailers - supermarkets/hypermarkets,7840,5,,8651,5,,52.58718200000000,03120/4031/3/008,216,env.health@oadby-wigston.gov.uk,Oadby and Wigston,http://www.oadby-wigston.gov.uk,-1.13476100000000,LE18 4XJ,2013-08-05,fhrs_5_en-GB,5,,FHRS,5
73065,Royal Oak,Leicester Road,Wigston,Leicestershire,Sainsbury's,Retailers - other,4613,0,,647352,0,,52.59631300000000,14/00002/COMM,216,env.health@oadby-wigston.gov.uk,Oadby and Wigston,http://www.oadby-wigston.gov.uk,-1.11256900000000,LE18 1JX,2014-03-07,fhrs_5_en-GB,5,,FHRS,0
73066,J Sainsbury Plc,Glen Road,Oadby,Leicestershire,Sainsburys Customer Restaurant,Restaurant/Cafe/Canteen,1,0,,21644,0,,52.59391800000000,07/00047/COMM,216,env.health@oadby-wigston.gov.uk,Oadby and Wigston,http://www.oadby-wigston.gov.uk,-1.06871300000000,LE2 4PE,2013-04-25,fhrs_5_en-GB,5,,FHRS,5
73067,J Sainsbury Plc,Glen Road,Oadby,Leicestershire,Sainsburys Service Station,Retailers - other,4613,0,,21529,0,,52.59391800000000,07/00034/COMM,216,env.health@oadby-wigston.gov.uk,Oadby and Wigston,http://www.oadby-wigston.gov.uk,-1.06871300000000,LE2 4PE,2012-04-25,fhrs_5_en-GB,5,,FHRS,0
73068,Staff Canteen,J Sainsbury Plc,Glen Road,Oadby,Sainsburys Staff Canteen,Restaurant/Cafe/Canteen,1,,,17558,,,52.59410800000000,06/00009/COMM,216,env.health@oadby-wigston.gov.uk,Oadby and Wigston,http://www.oadby-wigston.gov.uk,-1.06894500000000,LE2 4PE,2013-07-24,fhrs_exempt_en-GB,Exempt,,FHRS,
73069,51 Saffron Road,Wigston,Leicestershire,,Sandwich Bar At RRD Ltd,Restaurant/Cafe/Canteen,1,5,,45538,5,,52.58237100000000,11/00013/COMM,216,env.health@oadby-wigston.gov.uk,Oadby and Wigston,http://www.oadby-wigston.gov.uk,-1.13962300000000,LE18 4US,2014-06-17,fhrs_4_en-GB,4,,FHRS,10
73070,29A - 31A The Parade,Oadby,Leicestershire,,Satya Banqueting Ltd,Restaurant/Cafe/Canteen,1,20,,335125,15,,52.60002800000000,11/00071/COMM,216,env.health@oadby-wigston.gov.uk,Oadby and Wigston,http://www.oadby-wigston.gov.uk,-1.08334800000000,LE2 5BB,2013-11-13,fhrs_1_en-GB,1,,FHRS,15
73071,St Peters Church Hall,Wigston Road,Oadby,Leicestershire,Savek Samaji Lunch Club,Other catering premises,7841,10,,24723,5,,52.59693800000000,08/00006/MULTI,216,env.health@oadby-wigston.gov.uk,Oadby and Wigston,http://www.oadby-wigston.gov.uk,-1.08013500000000,LE2 5QE,2014-03-06,fhrs_3_en-GB,3,,FHRS,10
73072,40 Severn Road,Oadby,Leicestershire,,Severn Pharmacy,Retailers - other,4613,,,371129,,,52.60108000000000,06620/0040/0/000,216,env.health@oadby-wigston.gov.uk,Oadby and Wigston,http://www.oadby-wigston.gov.uk,-1.06262500000000,LE2 4FY,2012-12-31,fhrs_exempt_en-GB,Exempt,,FHRS,
73073,44 - 48 Severn Road,Oadby,Leicestershire,,Severn Road Stores,Retailers - other,4613,5,,20940,5,,52.60108000000000,06620/0044/2/000,216,env.health@oadby-wigston.gov.uk,Oadby and Wigston,http://www.oadby-wigston.gov.uk,-1.06262500000000,LE2 4FY,2014-10-03,fhrs_5_en-GB,5,,FHRS,5
73074,Units 3 To 4,9 - 13 Saffron Road,Wigston,Leicestershire,Shane Varney Karate School,Pub/bar/nightclub,7843,10,,17952,5,,52.58012400000000,06/00051/COMM,216,env.health@oadby-wigston.gov.uk,Oadby and Wigston,http://www.oadby-wigston.gov.uk,-1.13720200000000,LE18 4TE,2014-10-23,fhrs_4_en-GB,4,,FHRS,5
73075,Shell Service Station,London Road,Oadby,Leicestershire,Shell UK Ltd,Retailers - other,4613,5,,14104,5,,52.60765700000000,04660/4018/2/000,216,env.health@oadby-wigston.gov.uk,Oadby and Wigston,http://www.oadby-wigston.gov.uk,-1.09689300000000,LE2 3JW,2013-07-29,fhrs_5_en-GB,5,,FHRS,5
73076,Brocks Hill Visitor Centre And Coun,Washbrook Lane,Oadby,Leicestershire,SLM Food And Beverage,Restaurant/Cafe/Canteen,1,5,,706600,5,,52.59100600000000,14/00027/COMM,216,env.health@oadby-wigston.gov.uk,Oadby and Wigston,http://www.oadby-wigston.gov.uk,-1.08737400000000,LE2 5JJ,2014-10-02,fhrs_4_en-GB,4,,FHRS,10
73077,Welford Road,Wigston,Leicestershire,,South Leicester Rugby Club,Pub/bar/nightclub,7843,5,,24636,5,,52.56839700000000,07980/2008/2/000,216,env.health@oadby-wigston.gov.uk,Oadby and Wigston,http://www.oadby-wigston.gov.uk,-1.10045800000000,LE18 3TE,2013-08-14,fhrs_5_en-GB,5,,FHRS,5
73078,Bobbin Factory,Canal Street,Wigston,Leicestershire,South Leicestershire College Day Nursery,Restaurant/Cafe/Canteen,1,5,,33235,0,,52.57727500000000,10/00032/SCHCLU,216,env.health@oadby-wigston.gov.uk,Oadby and Wigston,http://www.oadby-wigston.gov.uk,-1.13243300000000,LE18 4PL,2014-01-14,fhrs_5_en-GB,5,,FHRS,5
73079,35 Long Street,Wigston,Leicestershire,,South Leicestershire Community Opportunities,School/college/university,7845,5,,14422,0,,52.58304300000000,04Y/01332/COMM,216,env.health@oadby-wigston.gov.uk,Oadby and Wigston,http://www.oadby-wigston.gov.uk,-1.10889600000000,LE18 2BP,2011-01-21,fhrs_5_en-GB,5,,FHRS,0
73080,St Peters Church Hall,Wigston Road,Oadby,Leicestershire,South Leicestershire Community Opportunities,Restaurant/Cafe/Canteen,1,5,,15007,5,,52.59693800000000,05/00086/COMM,216,env.health@oadby-wigston.gov.uk,Oadby and Wigston,http://www.oadby-wigston.gov.uk,-1.08013500000000,LE2 5QE,2013-10-15,fhrs_5_en-GB,5,,FHRS,5
73081,St Thomas Road,Wigston,Leicestershire,,South Wigston High School,School/college/university,7845,0,,23907,0,,52.57965700000000,07080/2003/2/000,216,env.health@oadby-wigston.gov.uk,Oadby and Wigston,http://www.oadby-wigston.gov.uk,-1.13724100000000,LE18 4TA,2013-02-25,fhrs_5_en-GB,5,,FHRS,0
73082,9 Canal Street,Wigston,Leicestershire,,South Wigston Post Office,Retailers - other,4613,,,4864,,,52.57727500000000,01370/0009/2/000,216,env.health@oadby-wigston.gov.uk,Oadby and Wigston,http://www.oadby-wigston.gov.uk,-1.13243300000000,LE18 4PL,2013-10-18,fhrs_exempt_en-GB,Exempt,,FHRS,
73083,Blaby Road,Wigston,Leicestershire,,South Wigston Working Mens Club,Pub/bar/nightclub,7843,10,,2226,10,,52.57979900000000,00740/2002/2/000,216,env.health@oadby-wigston.gov.uk,Oadby and Wigston,http://www.oadby-wigston.gov.uk,-1.13202900000000,LE18 4PB,2014-03-07,fhrs_3_en-GB,3,,FHRS,10
73084,67 Blaby Road,Wigston,Leicestershire,,Spice Of India,Restaurant/Cafe/Canteen,1,10,,2222,10,,52.57957200000000,00740/0067/0/000,216,env.health@oadby-wigston.gov.uk,Oadby and Wigston,http://www.oadby-wigston.gov.uk,-1.13426100000000,LE18 4PA,2014-10-15,fhrs_2_en-GB,2,,FHRS,15
73085,Gartree Road,Oadby,Leicestershire,,Spire Leicester Hospital,Hospitals/Childcare/Caring Premises,5,5,,7303,0,,52.60446300000000,02930/2006/2/000,216,env.health@oadby-wigston.gov.uk,Oadby and Wigston,http://www.oadby-wigston.gov.uk,-1.04827400000000,LE2 2FG,2014-03-24,fhrs_5_en-GB,5,,FHRS,5
73086,Spire Playgroup,All Saints Church Rooms,Bushloe End,Wigston,Spire Playschool,Hospitals/Childcare/Caring Premises,5,5,,481895,5,,52.58337800000000,04/00006/COMM,216,env.health@oadby-wigston.gov.uk,Oadby and Wigston,http://www.oadby-wigston.gov.uk,-1.11160500000000,LE18 2BA,2012-11-07,fhrs_5_en-GB,5,,FHRS,5
73087,Leisurextra Ltd,Parklands Leisure Centre,Washbrook Lane,Oadby,Sports Cafe,Restaurant/Cafe/Canteen,1,5,,27793,5,,52.59100600000000,08210/2009/2/000,216,env.health@oadby-wigston.gov.uk,Oadby and Wigston,http://www.oadby-wigston.gov.uk,-1.08737400000000,LE2 5JJ,2013-10-09,fhrs_4_en-GB,4,,FHRS,10
73088,41A Manor Street,Wigston,Leicestershire,,Spring House Chinese Takeaway,Takeaway/sandwich shop,7844,5,,535067,5,,52.58305700000000,12/00049/COMM,216,env.health@oadby-wigston.gov.uk,Oadby and Wigston,http://www.oadby-wigston.gov.uk,-1.11797300000000,LE18 2BS,2014-09-17,fhrs_5_en-GB,5,,FHRS,5
73089,33 - 37 Wigston Road,Oadby,Leicestershire,,St Georges Nursery School,Hospitals/Childcare/Caring Premises,5,0,,225474,0,,52.59569600000000,08210/3337/0/000,216,env.health@oadby-wigston.gov.uk,Oadby and Wigston,http://www.oadby-wigston.gov.uk,-1.08343800000000,LE2 5QF,2014-10-02,fhrs_5_en-GB,5,,FHRS,0
73090,Shenley Road,Wigston,Leicestershire,,St John Fisher Roman Catholic Primary School,School/college/university,7845,5,,20998,0,,52.59127700000000,06690/0000/2/000,216,env.health@oadby-wigston.gov.uk,Oadby and Wigston,http://www.oadby-wigston.gov.uk,-1.09683100000000,LE18 3QL,2013-06-14,fhrs_4_en-GB,4,,FHRS,10
73091,Hamble Road,Oadby,Leicestershire,,St Pauls Church,Restaurant/Cafe/Canteen,1,,,535063,,,,03370/0000/0/000,216,env.health@oadby-wigston.gov.uk,Oadby and Wigston,http://www.oadby-wigston.gov.uk,,,2010-01-19,fhrs_exempt_en-GB,Exempt,,FHRS,
73092,Wigston Road,Oadby,Leicestershire,,St Peters Church Hall,Restaurant/Cafe/Canteen,1,,,371123,,,52.59693800000000,04Y/01390/COMM,216,env.health@oadby-wigston.gov.uk,Oadby and Wigston,http://www.oadby-wigston.gov.uk,-1.08013500000000,LE2 5QE,2014-07-17,fhrs_exempt_en-GB,Exempt,,FHRS,
73093,St. Thomas Service Station And Stor,2 St Thomas Road,Wigston,Leicestershire,St Thomas Petrol Station And Store,Retailers - other,4613,10,,23909,5,,52.57965700000000,07080/2005/2/000,216,env.health@oadby-wigston.gov.uk,Oadby and Wigston,http://www.oadby-wigston.gov.uk,-1.13724100000000,LE18 4TA,2013-03-07,fhrs_4_en-GB,4,,FHRS,5
73094,St Thomass Church Hall,Blaby Road,Wigston,Leicestershire,St Thomas's Church Hall,Restaurant/Cafe/Canteen,1,,,568361,,,52.57988000000000,07080/2006/2/000,216,env.health@oadby-wigston.gov.uk,Oadby and Wigston,http://www.oadby-wigston.gov.uk,-1.13458000000000,LE18 4SB,2013-06-20,fhrs_exempt_en-GB,Exempt,,FHRS,
73095,St Thomass Church Hall,Blaby Road,Wigston,Leicestershire,St Thomass Playgroup,Hospitals/Childcare/Caring Premises,5,5,,434242,5,,52.57988000000000,04Y/00702/COMM,216,env.health@oadby-wigston.gov.uk,Oadby and Wigston,http://www.oadby-wigston.gov.uk,-1.13458000000000,LE18 4SB,2013-06-10,fhrs_5_en-GB,5,,FHRS,5
73096,Leicester Racecourse,Leicester Road,Oadby,Leicestershire,Stable Boys Hostel,Pub/bar/nightclub,7843,,,610716,,,52.60320700000000,13/00118/MULTI,216,env.health@oadby-wigston.gov.uk,Oadby and Wigston,http://www.oadby-wigston.gov.uk,-1.09689600000000,LE2 4AL,2014-06-02,fhrs_5_en-GB,5,,FHRS,
73097,Best Western,297 - 299 Leicester Road,Wigston,Leicestershire,Stage Hotel Restaurant,Hotel/bed & breakfast/guest house,7842,5,,13930,5,,52.59595000000000,04530/2001/2/000,216,env.health@oadby-wigston.gov.uk,Oadby and Wigston,http://www.oadby-wigston.gov.uk,-1.11093700000000,LE18 1JW,2014-10-03,fhrs_4_en-GB,4,,FHRS,10
73098,Stoughton Drive South,Oadby,Leicester,Leicestershire,Stamford Hall,Hotel/bed & breakfast/guest house,7842,10,,24016,10,,52.60827400000000,07240/2002/2/000,216,env.health@oadby-wigston.gov.uk,Oadby and Wigston,http://www.oadby-wigston.gov.uk,-1.08937800000000,LE2 2NG,2014-10-16,fhrs_3_en-GB,3,,FHRS,5
73099,71 Long Street,Wigston,Leicestershire,,Subway,Takeaway/sandwich shop,7844,0,,14122,0,,52.58469900000000,04690/0071/0/000,216,env.health@oadby-wigston.gov.uk,Oadby and Wigston,http://www.oadby-wigston.gov.uk,-1.10669300000000,LE18 2AJ,2014-10-29,fhrs_5_en-GB,5,,FHRS,0
73100,76 The Parade,Oadby,Leicestershire,,Subway,Takeaway/sandwich shop,7844,5,,610712,5,,52.59966500000000,13/00063/COMM,216,env.health@oadby-wigston.gov.uk,Oadby and Wigston,http://www.oadby-wigston.gov.uk,-1.08403500000000,LE2 5BF,2013-11-13,fhrs_5_en-GB,5,,FHRS,5
73101,Parkland County Primary School,St Thomas Road,Wigston,Leicestershire,Sunbeam Club,School/college/university,7845,0,,715494,0,,52.57965700000000,14/00049/COMM,216,env.health@oadby-wigston.gov.uk,Oadby and Wigston,http://www.oadby-wigston.gov.uk,-1.13724100000000,LE18 4TA,2014-11-07,fhrs_5_en-GB,5,,FHRS,0
73102,18 Bell Street,Wigston,Leicestershire,,Superdrug Stores Plc,Retailers - other,4613,,,371113,,,52.58553800000000,00620/0018/0/000,216,env.health@oadby-wigston.gov.uk,Oadby and Wigston,http://www.oadby-wigston.gov.uk,-1.10472700000000,LE18 1AD,2013-03-20,fhrs_exempt_en-GB,Exempt,,FHRS,
73103,30 Long Street,Wigston,Leicestershire,,Sure Start Childrens Centre,Hospitals/Childcare/Caring Premises,5,,,434246,,,52.58521300000000,08/00039/COMM,216,env.health@oadby-wigston.gov.uk,Oadby and Wigston,http://www.oadby-wigston.gov.uk,-1.10693300000000,LE18 2AH,2011-10-31,fhrs_exempt_en-GB,Exempt,,FHRS,
73104,Bobbin Factory,Canal Street,Wigston,Leicestershire,Sure Start Childrens Centre,School/college/university,7845,5,,434250,5,,52.57727500000000,11/00009/SCHCLU,216,env.health@oadby-wigston.gov.uk,Oadby and Wigston,http://www.oadby-wigston.gov.uk,-1.13243300000000,LE18 4PL,2014-05-02,fhrs_5_en-GB,5,,FHRS,0
73105,Brookside County Primary School,Copse Close,Oadby,Leicestershire,Swans Nest Childrens Club,Hospitals/Childcare/Caring Premises,5,,,371137,,,52.60148800000000,09/00005/SCHCLU,216,env.health@oadby-wigston.gov.uk,Oadby and Wigston,http://www.oadby-wigston.gov.uk,-1.06195200000000,LE2 4FU,2012-04-25,fhrs_exempt_en-GB,Exempt,,FHRS,
73106,38 London Road,Oadby,Leicestershire,,Swatlands,Restaurant/Cafe/Canteen,1,10,,14103,10,,52.59683400000000,04660/3840/0/000,216,env.health@oadby-wigston.gov.uk,Oadby and Wigston,http://www.oadby-wigston.gov.uk,-1.07715500000000,LE2 5DH,2014-10-02,fhrs_3_en-GB,3,,FHRS,10
73107,Ground Floor,21 The Parade,Oadby,Leicestershire,Sweet Tooth,Retailers - other,4613,5,,24207,5,,52.60002800000000,07520/0021/0/000,216,env.health@oadby-wigston.gov.uk,Oadby and Wigston,http://www.oadby-wigston.gov.uk,-1.08334800000000,LE2 5BB,2012-04-25,fhrs_5_en-GB,5,,FHRS,5
73108,14 Harborough Road,Oadby,Leicestershire,,Sycamore Cottage,Hospitals/Childcare/Caring Premises,5,,,8869,,,52.60023800000000,03410/0014/0/000,216,env.health@oadby-wigston.gov.uk,Oadby and Wigston,http://www.oadby-wigston.gov.uk,-1.08139500000000,LE2 4LA,2013-07-17,fhrs_4_en-GB,4,,FHRS,
73109,62B London Road,Oadby,Leicestershire,,Taks House,Takeaway/sandwich shop,7844,10,,14098,10,,52.59683400000000,04660/0062/B/000,216,env.health@oadby-wigston.gov.uk,Oadby and Wigston,http://www.oadby-wigston.gov.uk,-1.07715500000000,LE2 5DH,2014-10-02,fhrs_3_en-GB,3,,FHRS,10
73110,87 Blaby Road,Wigston,Leicestershire,,Tandoori Kitchen,Takeaway/sandwich shop,7844,10,,2225,5,,52.57979900000000,00740/0087/0/000,216,env.health@oadby-wigston.gov.uk,Oadby and Wigston,http://www.oadby-wigston.gov.uk,-1.13202900000000,LE18 4PB,2014-09-24,fhrs_2_en-GB,2,,FHRS,15
73111,69 Leicester Road,Wigston,Leicestershire,,Tartan Cafe,Restaurant/Cafe/Canteen,1,5,,13916,5,,52.58693000000000,04530/0069/0/000,216,env.health@oadby-wigston.gov.uk,Oadby and Wigston,http://www.oadby-wigston.gov.uk,-1.10573200000000,LE18 1NR,2014-06-12,fhrs_5_en-GB,5,,FHRS,5
73112,,,,,Tasty Foods,Restaurant/Cafe/Canteen,1,5,,462583,5,,,12/00014/FODBUS,216,env.health@oadby-wigston.gov.uk,Oadby and Wigston,http://www.oadby-wigston.gov.uk,,,2012-10-16,fhrs_4_en-GB,4,,FHRS,10
73113,Blaby Road,Wigston,Leicestershire,,Tesco Stores Ltd,Retailers - supermarkets/hypermarkets,7840,0,,14956,0,,52.68526077270508,05/00076/COMM,216,env.health@oadby-wigston.gov.uk,Oadby and Wigston,http://www.oadby-wigston.gov.uk,-1.13088500499725,LE18 4SG,2014-02-12,fhrs_5_en-GB,5,,FHRS,0
73114,Staff Canteen And Customer Restaura,Tesco Stores Ltd,Blaby Road,Wigston,Tesco Stores Staff Canteen And Customer Restaurant,Restaurant/Cafe/Canteen,1,0,,15223,5,,52.57144200000000,05/00138/COMM,216,env.health@oadby-wigston.gov.uk,Oadby and Wigston,http://www.oadby-wigston.gov.uk,-1.10647100000000,LE18 4SG,2012-12-13,fhrs_4_en-GB,4,,FHRS,10
73115,Day Nursery,Beauchamp College,Ridge Way,Oadby,The Beauchamp Childcare Centre,Hospitals/Childcare/Caring Premises,5,10,,14418,5,,52.58822300000000,04Y/01204/COMM,216,env.health@oadby-wigston.gov.uk,Oadby and Wigston,http://www.oadby-wigston.gov.uk,-1.07284800000000,LE2 5TP,2014-09-24,fhrs_4_en-GB,4,,FHRS,0
73116,51 Bell Street,Wigston,Leicestershire,,The Bell Fountain,Pub/bar/nightclub,7843,5,,2078,0,,52.58553800000000,00620/0049/0/000,216,env.health@oadby-wigston.gov.uk,Oadby and Wigston,http://www.oadby-wigston.gov.uk,-1.10472700000000,LE18 1AD,2014-10-22,fhrs_4_en-GB,4,,FHRS,10
73117,Black Dog Public House,23 London Road,Oadby,Leicestershire,The Black Dog,Pub/bar/nightclub,7843,10,,674310,5,,52.59779700000000,14/00025/COMM,216,env.health@oadby-wigston.gov.uk,Oadby and Wigston,http://www.oadby-wigston.gov.uk,-1.07970400000000,LE2 5DL,2014-06-12,fhrs_4_en-GB,4,,FHRS,5
73118,Meadow Community Primary School,Meadow Way,Wigston,Leicestershire,The Breakfast Club,Hospitals/Childcare/Caring Premises,5,5,,371127,5,,52.58623700000000,06/00118/COMM,216,env.health@oadby-wigston.gov.uk,Oadby and Wigston,http://www.oadby-wigston.gov.uk,-1.09739200000000,LE18 3QZ,2014-10-03,fhrs_5_en-GB,5,,FHRS,5
73119,64 Blaby Road,Wigston,Leicestershire,,The Co-operative Pharmacy,Retailers - other,4613,,,371115,,,52.58012000000000,00740/0064/0/000,216,env.health@oadby-wigston.gov.uk,Oadby and Wigston,http://www.oadby-wigston.gov.uk,-1.13171200000000,LE18 4SD,2014-11-27,fhrs_exempt_en-GB,Exempt,,FHRS,
73120,10 Abington Close,Wigston,Leicestershire,,The Co-operative Pharmacy Two Steeples Medical Centre,Retailers - other,4613,,,708141,,,,14/00048/COMM,216,env.health@oadby-wigston.gov.uk,Oadby and Wigston,http://www.oadby-wigston.gov.uk,,,2014-10-16,fhrs_exempt_en-GB,Exempt,,FHRS,
73121,Unit 3,Cornwall Business Centre,Cornwall Road,Wigston,The Fitness Bank,Other catering premises,7841,10,,710416,5,,52.58353700000000,14/00017/COMM,216,env.health@oadby-wigston.gov.uk,Oadby and Wigston,http://www.oadby-wigston.gov.uk,-1.13055300000000,LE18 4XH,2014-03-13,fhrs_4_en-GB,4,,FHRS,5
73122,The Grange Farm Public House,Florence Wragg Way,Oadby,Leicestershire,The Grange Farm PH,Pub/bar/nightclub,7843,5,,7178,5,,52.59088300000000,02760/0000/2/000,216,env.health@oadby-wigston.gov.uk,Oadby and Wigston,http://www.oadby-wigston.gov.uk,-1.06237000000000,LE2 4QZ,2014-11-05,fhrs_5_en-GB,5,,FHRS,0
73123,17 Leicester Road,Wigston,Leicestershire,,The Health Store,Retailers - other,4613,5,,13907,5,,52.58693000000000,04530/0017/0/000,216,env.health@oadby-wigston.gov.uk,Oadby and Wigston,http://www.oadby-wigston.gov.uk,-1.10573200000000,LE18 1NR,2014-10-31,fhrs_4_en-GB,4,,FHRS,10
73124,Little Hill County Primary School,Launceston Road,Wigston,Leicestershire,The Hunnypot Day Nursery,Hospitals/Childcare/Caring Premises,5,0,,13809,0,,52.58174400000000,04420/2008/2/000,216,env.health@oadby-wigston.gov.uk,Oadby and Wigston,http://www.oadby-wigston.gov.uk,-1.11190400000000,LE18 2GZ,2013-11-20,fhrs_5_en-GB,5,,FHRS,5
73125,The Hunnypot Day Nursery,Little Hill County Primary School,Launceston Road,Wigston,The Hunnypot Pre School,Restaurant/Cafe/Canteen,1,0,,452601,0,,52.58174400000000,12/00067/COMM,216,env.health@oadby-wigston.gov.uk,Oadby and Wigston,http://www.oadby-wigston.gov.uk,-1.11190400000000,LE18 2GZ,2013-11-20,fhrs_5_en-GB,5,,FHRS,5
73126,56 Bull Head Street,Wigston,Leicestershire,,The Kings Centre,Restaurant/Cafe/Canteen,1,,,371117,,,52.58410500000000,01210/0056/0/000,216,env.health@oadby-wigston.gov.uk,Oadby and Wigston,http://www.oadby-wigston.gov.uk,-1.10304500000000,LE18 1PA,2012-12-20,fhrs_exempt_en-GB,Exempt,,FHRS,
73127,The Kings Centre,56 Bull Head Street,Wigston,Leicestershire,The Lighthouse Day Nursery,Hospitals/Childcare/Caring Premises,5,5,,4583,0,,52.58410500000000,01210/0056/0/001,216,env.health@oadby-wigston.gov.uk,Oadby and Wigston,http://www.oadby-wigston.gov.uk,-1.10304500000000,LE18 1PA,2014-10-07,fhrs_5_en-GB,5,,FHRS,0
73128,98 - 102 The Parade,Oadby,Leicestershire,,The Lord Keeper Of The Great Seal,Pub/bar/nightclub,7843,0,,24225,0,,52.59966500000000,07520/0096/0/000,216,env.health@oadby-wigston.gov.uk,Oadby and Wigston,http://www.oadby-wigston.gov.uk,-1.08403500000000,LE2 5BF,2014-10-23,fhrs_5_en-GB,5,,FHRS,0
73129,Welford Road,Wigston,Leicestershire,,The Navigation,Pub/bar/nightclub,7843,10,,24635,10,,52.56839700000000,07980/2005/2/000,216,env.health@oadby-wigston.gov.uk,Oadby and Wigston,http://www.oadby-wigston.gov.uk,-1.10045800000000,LE18 3TE,2014-09-18,fhrs_3_en-GB,3,,FHRS,10
73130,Trinity Methodist Church,Harborough Road,Oadby,Leicestershire,The Oadby Food Bank,Retailers - other,4613,0,,708139,0,,,14/00026/COMM,216,env.health@oadby-wigston.gov.uk,Oadby and Wigston,http://www.oadby-wigston.gov.uk,,,2014-10-17,fhrs_5_en-GB,5,,FHRS,0
73131,7 Glen Road,Oadby,Leicestershire,,The Oadby Owl,Pub/bar/nightclub,7843,0,,8618,5,,52.59391800000000,03100/0007/0/000,216,env.health@oadby-wigston.gov.uk,Oadby and Wigston,http://www.oadby-wigston.gov.uk,-1.06871300000000,LE2 4PE,2014-02-05,fhrs_4_en-GB,4,,FHRS,10
73132,Arriva Midlands,Station Street,Wigston,Leicestershire,The Oasis (Arriva Fox Bus Depot (Canteen)),Restaurant/Cafe/Canteen,1,10,,23952,10,,52.58092200000000,07150/2002/2/000,216,env.health@oadby-wigston.gov.uk,Oadby and Wigston,http://www.oadby-wigston.gov.uk,-1.13069300000000,LE18 4TH,2013-11-06,fhrs_3_en-GB,3,,FHRS,10
73133,46 Bushloe End,Wigston,Leicestershire,,The Plough,Pub/bar/nightclub,7843,10,,403136,10,,52.58337800000000,12/00033/COMM,216,env.health@oadby-wigston.gov.uk,Oadby and Wigston,http://www.oadby-wigston.gov.uk,-1.11160500000000,LE18 2BA,2013-07-22,fhrs_3_en-GB,3,,FHRS,10
73134,Bushloe End,Wigston,Leicestershire,,The Royal British Legion,Pub/bar/nightclub,7843,5,,4699,5,,52.58337800000000,01290/2001/2/000,216,env.health@oadby-wigston.gov.uk,Oadby and Wigston,http://www.oadby-wigston.gov.uk,-1.11160500000000,LE18 2BA,2013-04-11,fhrs_5_en-GB,5,,FHRS,5
73135,Ladysmith Road,Wigston,Leicestershire,,The Salvation Army Centre,Restaurant/Cafe/Canteen,1,5,,14828,5,,52.58630800000000,05/00058/COMM,216,env.health@oadby-wigston.gov.uk,Oadby and Wigston,http://www.oadby-wigston.gov.uk,-1.14078600000000,LE18 4UZ,2013-09-11,fhrs_5_en-GB,5,,FHRS,5
73136,62 Blaby Road,Wigston,Leicestershire,,The Sandwich Bar,Restaurant/Cafe/Canteen,1,5,,32982,5,,52.58012000000000,10/00017/COMM,216,env.health@oadby-wigston.gov.uk,Oadby and Wigston,http://www.oadby-wigston.gov.uk,-1.13171200000000,LE18 4SD,2013-09-12,fhrs_4_en-GB,4,,FHRS,10
73137,114 Leicester Road,Wigston,Leicestershire,,The Star And Garter,Hospitals/Childcare/Caring Premises,5,10,,647350,5,,52.59017400000000,13/00056/COMM,216,env.health@oadby-wigston.gov.uk,Oadby and Wigston,http://www.oadby-wigston.gov.uk,-1.10678800000000,LE18 1DS,2014-03-25,fhrs_3_en-GB,3,,FHRS,10
73138,Thythorn Field County Primary Schoo,Bideford Close,Wigston,Leicestershire,Thythorn Field Cp School,School/college/university,7845,5,,2176,5,,52.57115800000000,00700/0000/2/000,216,env.health@oadby-wigston.gov.uk,Oadby and Wigston,http://www.oadby-wigston.gov.uk,-1.10524200000000,LE18 2QU,2013-10-31,fhrs_4_en-GB,4,,FHRS,10
73139,Abington House,85 Station Road,Wigston,Leicestershire,Tiger Tots,Hospitals/Childcare/Caring Premises,5,5,,624844,5,,52.58136600000000,06/00028/COMM,216,env.health@oadby-wigston.gov.uk,Oadby and Wigston,http://www.oadby-wigston.gov.uk,-1.12143100000000,LE18 2DP,2014-01-16,fhrs_5_en-GB,5,,FHRS,5
73140,38B Kenilworth Drive,Oadby,Leicestershire,,Tigers Rolls,Restaurant/Cafe/Canteen,1,10,,550885,5,,52.59587500000000,13/00012/COMM,216,env.health@oadby-wigston.gov.uk,Oadby and Wigston,http://www.oadby-wigston.gov.uk,-1.09041800000000,LE2 5LG,2014-10-31,fhrs_4_en-GB,4,,FHRS,5
73141,49 Blaby Road,Wigston,Leicestershire,,TJ's,Takeaway/sandwich shop,7844,20,,2215,5,,52.57957200000000,00740/0049/0/000,216,env.health@oadby-wigston.gov.uk,Oadby and Wigston,http://www.oadby-wigston.gov.uk,-1.13426100000000,LE18 4PA,2014-02-11,fhrs_1_en-GB,1,,FHRS,10
73142,23 Blaby Road,Wigston,Leicestershire,,Tree House Cafe,Restaurant/Cafe/Canteen,1,10,,2210,10,,52.57957200000000,00740/0023/0/000,216,env.health@oadby-wigston.gov.uk,Oadby and Wigston,http://www.oadby-wigston.gov.uk,-1.13426100000000,LE18 4PA,2014-11-14,fhrs_3_en-GB,3,,FHRS,10
73143,Harborough Road,Oadby,Leicestershire,,Trinity Methodist Church And Hall,Restaurant/Cafe/Canteen,1,,,535064,,,,03410/2000/2/000,216,env.health@oadby-wigston.gov.uk,Oadby and Wigston,http://www.oadby-wigston.gov.uk,,,2013-03-27,fhrs_exempt_en-GB,Exempt,,FHRS,
73144,17 Chartwell Drive,Wigston,Leicestershire,,Unique Catering Delifrance Canteen,Restaurant/Cafe/Canteen,1,5,,14419,0,,52.58729700000000,04Y/01206/COMM,216,env.health@oadby-wigston.gov.uk,Oadby and Wigston,http://www.oadby-wigston.gov.uk,-1.12484000000000,LE18 2FL,2014-03-12,fhrs_5_en-GB,5,,FHRS,5
73145,Belvoir House,30 Paddock Street,Wigston,Leicestershire,Unique Physique,Restaurant/Cafe/Canteen,1,,,17187,,,52.58470100000000,05650/2000/2/000,216,env.health@oadby-wigston.gov.uk,Oadby and Wigston,http://www.oadby-wigston.gov.uk,-1.10580700000000,LE18 2AN,2014-11-19,fhrs_exempt_en-GB,Exempt,,FHRS,
73146,Rosemead Drive,Oadby,Leicestershire,,United Reformed Church,Restaurant/Cafe/Canteen,1,10,,535065,5,,,06440/2000/2/000,216,env.health@oadby-wigston.gov.uk,Oadby and Wigston,http://www.oadby-wigston.gov.uk,,,2013-03-28,fhrs_4_en-GB,4,,FHRS,5
73147,2 Leicester Road,Wigston,Leicestershire,,W H Cox Greengrocers,Retailers - other,4613,5,,13904,5,,52.58697900000000,04530/0002/0/000,216,env.health@oadby-wigston.gov.uk,Oadby and Wigston,http://www.oadby-wigston.gov.uk,-1.10626300000000,LE18 1DR,2013-11-11,fhrs_4_en-GB,4,,FHRS,10
73148,36 Harborough Road,Oadby,Leicestershire,,Waitrose Cafe,Restaurant/Cafe/Canteen,1,0,,535073,0,,52.60023800000000,13/00014/COMM,216,env.health@oadby-wigston.gov.uk,Oadby and Wigston,http://www.oadby-wigston.gov.uk,-1.08139500000000,LE2 4LA,2013-03-21,fhrs_5_en-GB,5,,FHRS,0
73149,36 Harborough Road,Oadby,Leicestershire,,Waitrose Partner Dining Room,Restaurant/Cafe/Canteen,1,0,,535074,0,,52.60023800000000,13/00015/COMM,216,env.health@oadby-wigston.gov.uk,Oadby and Wigston,http://www.oadby-wigston.gov.uk,-1.08139500000000,LE2 4LA,2013-03-21,fhrs_5_en-GB,5,,FHRS,0
73150,36 Harborough Road,Oadby,Leicestershire,,Waitrose Supermarket,Retailers - other,4613,0,,33117,0,,52.60023800000000,10/00026/COMM,216,env.health@oadby-wigston.gov.uk,Oadby and Wigston,http://www.oadby-wigston.gov.uk,-1.08139500000000,LE2 4LA,2013-03-21,fhrs_5_en-GB,5,,FHRS,0
73151,16 Blaby Road,Wigston,Leicestershire,,Wans Kitchen,Takeaway/sandwich shop,7844,10,,2209,10,,52.57988000000000,00740/0016/0/000,216,env.health@oadby-wigston.gov.uk,Oadby and Wigston,http://www.oadby-wigston.gov.uk,-1.13458000000000,LE18 4SB,2014-10-22,fhrs_3_en-GB,3,,FHRS,10
73152,Guilford Drive,Wigston,Leicestershire,,Water Leys Primary School,School/college/university,7845,5,,8793,5,,52.59555200000000,03310/0000/2/000,216,env.health@oadby-wigston.gov.uk,Oadby and Wigston,http://www.oadby-wigston.gov.uk,-1.11899100000000,LE18 1HG,2012-05-16,fhrs_5_en-GB,5,,FHRS,5
73153,271 Leicester Road,Wigston,Leicestershire,,Welford Wines,Retailers - other,4613,5,,13927,10,,52.59595000000000,04530/0271/0/000,216,env.health@oadby-wigston.gov.uk,Oadby and Wigston,http://www.oadby-wigston.gov.uk,-1.11093700000000,LE18 1JW,2013-08-07,fhrs_3_en-GB,3,,FHRS,10
73154,The Wheel Inn,99 London Road,Oadby,Leicestershire,Wheel Inn,Hotel/bed & breakfast/guest house,7842,5,,620855,5,,52.59669800000000,13/00042/COMM,216,env.health@oadby-wigston.gov.uk,Oadby and Wigston,http://www.oadby-wigston.gov.uk,-1.07478100000000,LE2 5DP,2013-12-05,fhrs_5_en-GB,5,,FHRS,5
73155,27 Leicester Road,Wigston,Leicestershire,,Wiggy's Cafe,Restaurant/Cafe/Canteen,1,5,,666996,5,,,14/00020/COMM,216,env.health@oadby-wigston.gov.uk,Oadby and Wigston,http://www.oadby-wigston.gov.uk,,LE18 1LT,2014-03-31,fhrs_4_en-GB,4,,FHRS,10
73156,The Sheila Mitchell Pavilion,Peace Memorial Park,Long Street,Wigston,Wigston Bowls Club,Pub/bar/nightclub,7843,10,,666995,5,,,14/00019/COMM,216,env.health@oadby-wigston.gov.uk,Oadby and Wigston,http://www.oadby-wigston.gov.uk,,,2014-04-09,fhrs_4_en-GB,4,,FHRS,5
73157,Texaco Star Petrol Station,Saffron Road,Wigston,Leicestershire,Wigston Car Wash,Retailers - other,4613,5,,591439,5,,52.58746300000000,13/00057/COMM,216,env.health@oadby-wigston.gov.uk,Oadby and Wigston,http://www.oadby-wigston.gov.uk,-1.14009900000000,LE18 4UP,2013-10-08,fhrs_4_en-GB,4,,FHRS,10
73158,45 Leicester Road,Wigston,Leicestershire,,Wigston Chinese,Takeaway/sandwich shop,7844,5,,13911,10,,52.58693000000000,04530/0045/0/000,216,env.health@oadby-wigston.gov.uk,Oadby and Wigston,http://www.oadby-wigston.gov.uk,-1.10573200000000,LE18 1NR,2014-07-02,fhrs_4_en-GB,4,,FHRS,5
73159,56 Leicester Road,Wigston,Leicestershire,,Wigston Fish Bar Ltd,Takeaway/sandwich shop,7844,10,,695847,5,,52.58697900000000,14/00024/COMM,216,env.health@oadby-wigston.gov.uk,Oadby and Wigston,http://www.oadby-wigston.gov.uk,-1.10626300000000,LE18 1DR,2014-08-05,fhrs_4_en-GB,4,,FHRS,5
73160,82 Bull Head Street,Wigston,Leicestershire,,Wigston Liberal Club,Pub/bar/nightclub,7843,5,,4585,5,,52.58410500000000,01210/0082/0/000,216,env.health@oadby-wigston.gov.uk,Oadby and Wigston,http://www.oadby-wigston.gov.uk,-1.10304500000000,LE18 1PA,2012-12-14,fhrs_4_en-GB,4,,FHRS,10
73161,Wigston Magna Library,Bull Head Street,Wigston,Leicestershire,Wigston Library Luncheon Club,Other catering premises,7841,5,,550881,5,,52.58410500000000,08/00037/MULTI,216,env.health@oadby-wigston.gov.uk,Oadby and Wigston,http://www.oadby-wigston.gov.uk,-1.10304500000000,LE18 1PA,2013-05-09,fhrs_4_en-GB,4,,FHRS,10
73162,Cross Street,Wigston,Leicestershire,,Wigston Magna Methodist Church,Restaurant/Cafe/Canteen,1,10,,584395,5,,,01990/2008/2/000,216,env.health@oadby-wigston.gov.uk,Oadby and Wigston,http://www.oadby-wigston.gov.uk,,,2013-09-04,fhrs_4_en-GB,4,,FHRS,5
73163,36 Leicester Road,Wigston,Leicestershire,,Wigston Pharmacy,Retailers - other,4613,,,13909,,,52.58697900000000,04530/0036/0/000,216,env.health@oadby-wigston.gov.uk,Oadby and Wigston,http://www.oadby-wigston.gov.uk,-1.10626300000000,LE18 1DR,2012-11-28,fhrs_exempt_en-GB,Exempt,,FHRS,
73164,12 The Arcade,Wigston,Leicestershire,,Wilkinson Hardware Stores,Retailers - other,4613,5,,13899,5,,52.58687400000000,04520/0012/1/000,216,env.health@oadby-wigston.gov.uk,Oadby and Wigston,http://www.oadby-wigston.gov.uk,-1.10548300000000,LE18 1NZ,2012-12-07,fhrs_5_en-GB,5,,FHRS,5
73165,William Peardon Court,Kings Drive,Wigston,Leicestershire,William Pearson Court,Hospitals/Childcare/Caring Premises,5,10,,632375,5,,52.58764200000000,13/00113/COMM,216,env.health@oadby-wigston.gov.uk,Oadby and Wigston,http://www.oadby-wigston.gov.uk,-1.10958500000000,LE18 1AQ,2014-01-22,fhrs_4_en-GB,4,,FHRS,5
73166,The William Wygston,84 Leicester Road,Wigston,Leicestershire,William Wygston Pub,Pub/bar/nightclub,7843,0,,13920,0,,52.58697900000000,04530/0084/0/000,216,env.health@oadby-wigston.gov.uk,Oadby and Wigston,http://www.oadby-wigston.gov.uk,-1.10626300000000,LE18 1DR,2014-10-23,fhrs_5_en-GB,5,,FHRS,0
73167,107 Leicester Road,Wigston,Leicestershire,,Willows Court,Hospitals/Childcare/Caring Premises,5,10,,13923,10,,52.58958000000000,04530/0107/0/000,216,env.health@oadby-wigston.gov.uk,Oadby and Wigston,http://www.oadby-wigston.gov.uk,-1.10541300000000,LE18 1NS,2014-04-15,fhrs_3_en-GB,3,,FHRS,10
73168,24 London Road,Oadby,Leicestershire,,Wilson B Ragg,Retailers - other,4613,10,,14091,5,,52.59734400000000,04660/0024/0/000,216,env.health@oadby-wigston.gov.uk,Oadby and Wigston,http://www.oadby-wigston.gov.uk,-1.07916700000000,LE2 5DG,2014-04-30,fhrs_4_en-GB,4,,FHRS,5
73169,2 Central Avenue,Wigston,Leicestershire,,Winchester Snooker Club,Pub/bar/nightclub,7843,20,,4996,10,,52.58410900000000,01500/0002/0/000,216,env.health@oadby-wigston.gov.uk,Oadby and Wigston,http://www.oadby-wigston.gov.uk,-1.11074900000000,LE18 2AA,2013-12-02,fhrs_1_en-GB,1,,FHRS,5
73170,79 The Parade,Oadby,Leicestershire,,Wok In Wok Out (Oadby) Ltd,Takeaway/sandwich shop,7844,10,,666997,10,,52.60002800000000,14/00023/COMM,216,env.health@oadby-wigston.gov.uk,Oadby and Wigston,http://www.oadby-wigston.gov.uk,-1.08334800000000,LE2 5BB,2014-05-30,fhrs_3_en-GB,3,,FHRS,10
73171,Beaufort Way,Oadby,Leicestershire,,Woodland Grange Primary School,School/college/university,7845,5,,2022,5,,52.59166800000000,00570/2000/2/000,216,env.health@oadby-wigston.gov.uk,Oadby and Wigston,http://www.oadby-wigston.gov.uk,-1.05814700000000,LE2 4TY,2013-09-30,fhrs_5_en-GB,5,,FHRS,5
73172,11 Leicester Road,Oadby,Leicestershire,,Yum Sing,Restaurant/Cafe/Canteen,1,5,,13882,0,,52.60002800000000,04510/0011/0/000,216,env.health@oadby-wigston.gov.uk,Oadby and Wigston,http://www.oadby-wigston.gov.uk,-1.08334800000000,LE2 5BB,2013-03-20,fhrs_5_en-GB,5,,FHRS,5
73173,Trinity Methodist Church,Harborough Road,Oadby,Leicestershire,Zaks Cafe,Restaurant/Cafe/Canteen,1,5,,535071,0,,,13/00009/COMM,216,env.health@oadby-wigston.gov.uk,Oadby and Wigston,http://www.oadby-wigston.gov.uk,,,2013-03-21,fhrs_5_en-GB,5,,FHRS,0
