,addressline1,addressline2,addressline3,addressline4,businessname,businesstype,businesstypeid,confidenceinmanagement,extractdate,fhrsid,hygiene,itemcount,latitude,localauthoritybusinessid,localauthoritycode,localauthorityemailaddress,localauthorityname,localauthoritywebsite,longitude,postcode,ratingdate,ratingkey,ratingvalue,returncode,schemetype,structural
46640,,161 Tattershall Road,,Boston,A Taste of Thailand,Mobile caterer,7846,10,,713523,5,,52.99216300000000,39249,219,env.serv@boston.gov.uk,Boston,http://www.boston.gov.uk,-0.03501200000000,PE21 9LR,2014-10-28,fhrs_4_en-GB,4,,FHRS,5
46641,Curtis,4 Strait Bargate,,Boston,A W Curtis and Sons,Retailers - other,4613,5,,231746,5,,52.97896600000000,4946,219,env.serv@boston.gov.uk,Boston,http://www.boston.gov.uk,-0.02373900000000,PE21 6LR,2014-08-04,fhrs_5_en-GB,5,,FHRS,5
46642,,23 West Street,,Boston,A W Curtis and Sons Limited,Retailers - other,4613,5,,231783,5,,52.97643300000000,6693,219,env.serv@boston.gov.uk,Boston,http://www.boston.gov.uk,-0.02765300000000,PE21 8QN,2013-08-13,fhrs_5_en-GB,5,,FHRS,5
46643,The Abattoir,Nursery Road,,Boston,A Wright and Son,Retailers - other,4613,,,729267,,,52.96431500000000,39264,219,env.serv@boston.gov.uk,Boston,http://www.boston.gov.uk,-0.01155700000000,PE21 7TN,,fhrs_awaitinginspection_en-GB,AwaitingInspection,,FHRS,
46644,,Hoffleet Stow,,"Bicker, Boston",A17 Lay by Snack Bar,Mobile caterer,7846,5,,231624,5,,52.91789500000000,304,219,env.serv@boston.gov.uk,Boston,http://www.boston.gov.uk,-0.14630600000000,,2013-08-30,fhrs_4_en-GB,4,,FHRS,10
46645,,Market Place,,Boston,ABC Butchers,Retailers - other,4613,,,231876,,,52.97765800000000,308,219,env.serv@boston.gov.uk,Boston,http://www.boston.gov.uk,-0.02396500000000,,2014-05-06,fhrs_exempt_en-GB,Exempt,,FHRS,
46646,A B C Day Nursery,43 Main Ridge East,,Boston,ABC Day Nursery,Other catering premises,7841,5,,231579,5,,52.97801400000000,4611,219,env.serv@boston.gov.uk,Boston,http://www.boston.gov.uk,-0.01785400000000,PE21 6ST,2014-03-11,fhrs_5_en-GB,5,,FHRS,5
46647,Abc Market,18 Fenside Road,,Boston,ABC Market,Retailers - other,4613,10,,427181,10,,52.98304300000000,8512,219,env.serv@boston.gov.uk,Boston,http://www.boston.gov.uk,-0.04242700000000,PE21 8HY,2014-11-27,fhrs_3_en-GB,3,,FHRS,10
46648,Acorn Day Centre,24b Horncastle Road,,Boston,Acorn Day Centre,Hospitals/Childcare/Caring Premises,5,,,231771,,,52.98439700000000,320,219,env.serv@boston.gov.uk,Boston,http://www.boston.gov.uk,-0.01891800000000,PE21 9BU,2010-01-25,fhrs_exempt_en-GB,Exempt,,FHRS,
46649,Park Farm Cottage,Dozens Bank,,West Pinchbeck,ADL Dairy Products Ltd,Retailers - other,4613,,,551508,,,52.79242300000000,8794,219,env.serv@boston.gov.uk,Boston,http://www.boston.gov.uk,-0.20932300000000,PE11 3ND,2013-08-07,fhrs_exempt_en-GB,Exempt,,FHRS,
46650,Admiral Nelson,Main Road,,Benington,Admiral Nelson,Pub/bar/nightclub,7843,5,,232051,5,,52.99788000000000,764,219,env.serv@boston.gov.uk,Boston,http://www.boston.gov.uk,0.08126100000000,PE22 0BT,2014-02-12,fhrs_5_en-GB,5,,FHRS,5
46651,,Craythorne Lane,,Boston,After Dark and Dream Girls,Pub/bar/nightclub,7843,5,,231899,5,,52.97723400000000,4162,219,env.serv@boston.gov.uk,Boston,http://www.boston.gov.uk,-0.02228400000000,PE21 6HA,2013-07-01,fhrs_5_en-GB,5,,FHRS,5
46652,,Boston Airfield,,Boardsides,Airfield Cafe,Restaurant/Cafe/Canteen,1,5,,231414,5,,52.97332200000000,8411,219,env.serv@boston.gov.uk,Boston,http://www.boston.gov.uk,-0.07426500000000,,2013-11-27,fhrs_4_en-GB,4,,FHRS,10
46653,,Queen Street,,Boston,Aldi,Retailers - supermarkets/hypermarkets,7840,5,,231649,5,,52.97569000000000,2686,219,env.serv@boston.gov.uk,Boston,http://www.boston.gov.uk,-0.03164800000000,PE21 8XZ,2014-02-26,fhrs_5_en-GB,5,,FHRS,5
46654,,Market Place,,Boston,Alford Fish Sales,Retailers - other,4613,5,,231822,5,,52.97765800000000,2053,219,env.serv@boston.gov.uk,Boston,http://www.boston.gov.uk,-0.02396500000000,,2014-05-06,fhrs_5_en-GB,5,,FHRS,5
46655,,95 West Street,,Boston,Ali Baba Restaurant,Restaurant/Cafe/Canteen,1,10,,564584,15,,52.97636600000000,8951,219,env.serv@boston.gov.uk,Boston,http://www.boston.gov.uk,-0.03014300000000,PE21 8RE,2013-10-31,fhrs_2_en-GB,2,,FHRS,10
46656,Ali's Food Store,104 Freiston Road,,Boston,Ali's Food Store,Retailers - other,4613,10,,232038,10,,52.97814900000000,155,219,env.serv@boston.gov.uk,Boston,http://www.boston.gov.uk,-0.01245600000000,PE21 0JL,2014-02-04,fhrs_3_en-GB,3,,FHRS,10
46657,Amber Land,1 James Street,,Boston,Amber Land,Importers/Exporters,14,10,,231697,15,,52.97714500000000,8012,219,env.serv@boston.gov.uk,Boston,http://www.boston.gov.uk,-0.02994400000000,PE21 8RD,2013-02-18,fhrs_2_en-GB,2,,FHRS,10
46658,Kamila Foods Ltd,92 High Street,,Boston,Ambersea,Retailers - other,4613,5,,231729,10,,52.97337000000000,7114,219,env.serv@boston.gov.uk,Boston,http://www.boston.gov.uk,-0.02512600000000,PE21 8TA,2014-04-28,fhrs_4_en-GB,4,,FHRS,5
46659,European Beer,15 Witham Place,,Boston,Ambersea Ltd,Retailers - other,4613,10,,231961,10,,52.98067900000000,3038,219,env.serv@boston.gov.uk,Boston,http://www.boston.gov.uk,-0.02723600000000,PE21 6LG,2013-10-16,fhrs_3_en-GB,3,,FHRS,10
46660,Beesons Butchers,2 Eastwood Road,,Fishtoft,Andrew Beeson Butchers,Retailers - other,4613,0,,231651,0,,52.97690800000000,1356,219,env.serv@boston.gov.uk,Boston,http://www.boston.gov.uk,-0.00120800000000,PE21 0PH,2013-03-06,fhrs_5_en-GB,5,,FHRS,0
46661,Andys,14 Tattershall Road,,Boston,Andys Fish & Chip Shop,Takeaway/sandwich shop,7844,5,,231791,5,,52.98211000000000,569,219,env.serv@boston.gov.uk,Boston,http://www.boston.gov.uk,-0.02897300000000,PE21 9JG,2014-11-24,fhrs_5_en-GB,5,,FHRS,5
46662,,Fishtoft Road,,Boston,Ann's Fish & Chip Shop,Takeaway/sandwich shop,7844,10,,231659,10,,52.97018600000000,168,219,env.serv@boston.gov.uk,Boston,http://www.boston.gov.uk,-0.01048300000000,PE21 0AL,2014-12-03,fhrs_3_en-GB,3,,FHRS,10
46663,,,,,Antonia Jane Cakes,Other catering premises,7841,,,633937,,,,9209,219,env.serv@boston.gov.uk,Boston,http://www.boston.gov.uk,,,,fhrs_awaitinginspection_en-GB,AwaitingInspection,,FHRS,
46664,Applegreen,118 Sleaford Road,,Boston,Applegreen Boston,Retailers - other,4613,5,,231376,5,,52.97594400000000,513,219,env.serv@boston.gov.uk,Boston,http://www.boston.gov.uk,-0.04541400000000,PE21 7PE,2014-05-03,fhrs_4_en-GB,4,,FHRS,10
46665,Archie Hardwick,17 Dolphin Lane,,Boston,Archie Hardwick,Retailers - other,4613,5,,231449,10,,52.97479100000000,7621,219,env.serv@boston.gov.uk,Boston,http://www.boston.gov.uk,-0.02620900000000,PE21 6EX,2014-08-28,fhrs_4_en-GB,4,,FHRS,5
46666,Artisan,9 Emery Lane,,Boston,Artisan,Takeaway/sandwich shop,7844,5,,231802,5,,52.97664700000000,8205,219,env.serv@boston.gov.uk,Boston,http://www.boston.gov.uk,-0.02537900000000,PE21 8QA,2013-11-19,fhrs_5_en-GB,5,,FHRS,5
46667,,Sleaford Road,,Boston,Asda,Retailers - supermarkets/hypermarkets,7840,5,,231787,5,,52.97714600000000,5061,219,env.serv@boston.gov.uk,Boston,http://www.boston.gov.uk,-0.03380200000000,PE21 8EQ,2014-06-23,fhrs_5_en-GB,5,,FHRS,5
46668,Holy Trinity Church,Spilsby Road,,Boston,Ashlawn Kids Club,School/college/university,7845,,,231578,,,52.98218900000000,3569,219,env.serv@boston.gov.uk,Boston,http://www.boston.gov.uk,-0.01802100000000,PE21 9DA,2013-02-07,fhrs_exempt_en-GB,Exempt,,FHRS,
46669,Ashridge,14 Tower Road,,Boston,Ashridge,Hospitals/Childcare/Caring Premises,5,0,,232046,0,,52.98097800000000,656,219,env.serv@boston.gov.uk,Boston,http://www.boston.gov.uk,-0.01441100000000,PE21 9AD,2014-12-19,fhrs_5_en-GB,5,,FHRS,0
46670,,Market Place,,Boston,Assembly Rooms,Pub/bar/nightclub,7843,10,,231584,0,,52.97738700000000,351,219,env.serv@boston.gov.uk,Boston,http://www.boston.gov.uk,-0.02445200000000,PE21 6NN,2014-12-21,fhrs_4_en-GB,4,,FHRS,10
46671,,16 West Street,,Boston,Axe & Cleaver,Pub/bar/nightclub,7843,5,,231533,5,,52.97602900000000,606,219,env.serv@boston.gov.uk,Boston,http://www.boston.gov.uk,-0.02549700000000,PE21 8QH,2013-05-31,fhrs_4_en-GB,4,,FHRS,10
46672,,Lawrence Lane,,Boston,B & M,Retailers - other,4613,5,,427184,5,,52.97693200000000,8522,219,env.serv@boston.gov.uk,Boston,http://www.boston.gov.uk,-0.02628900000000,PE21 8QD,2014-05-07,fhrs_5_en-GB,5,,FHRS,5
46673,Baltic Food & Grocery Ltd,101 West Street,,Boston,Baltic Food and Grocery Ltd,Retailers - other,4613,10,,231969,5,,52.97636600000000,7826,219,env.serv@boston.gov.uk,Boston,http://www.boston.gov.uk,-0.03014300000000,PE21 8RE,2014-05-06,fhrs_4_en-GB,4,,FHRS,5
46674,,97 West Street,,Boston,Baltic Foods,Retailers - other,4613,20,,232022,15,,52.97636600000000,5933,219,env.serv@boston.gov.uk,Boston,http://www.boston.gov.uk,-0.03014300000000,PE21 8RE,2014-10-22,fhrs_1_en-GB,1,,FHRS,10
46675,Baltic Food,87 Norfolk Street,,Boston,Baltic Foods,Retailers - other,4613,5,,231630,5,,52.98489900000000,5345,219,env.serv@boston.gov.uk,Boston,http://www.boston.gov.uk,-0.02153100000000,PE21 9HG,2014-05-06,fhrs_5_en-GB,5,,FHRS,5
46676,Baltic Shop,67-69 Main Ridge East,,Boston,Baltic Shop Limited,Retailers - other,4613,20,,232094,10,,52.97823100000000,8240,219,env.serv@boston.gov.uk,Boston,http://www.boston.gov.uk,-0.01684600000000,PE21 6SY,2013-07-18,fhrs_1_en-GB,1,,FHRS,5
46677,Baltic Shop Ltd,13 Carlton Road,,Boston,Baltic Shop Limited,Retailers - other,4613,10,,232034,10,,52.97823300000000,5872,219,env.serv@boston.gov.uk,Boston,http://www.boston.gov.uk,-0.03536100000000,PE21 8NS,2014-08-20,fhrs_3_en-GB,3,,FHRS,5
46678,Peter Paine Sports Centre,Rosebery Avenue,,Boston,Bar & Club Room Peter Paine Sports Centre,Restaurant/Cafe/Canteen,1,0,,232009,5,,52.97878200000000,1343,219,env.serv@boston.gov.uk,Boston,http://www.boston.gov.uk,-0.04792300000000,PE21 7QR,2012-10-09,fhrs_5_en-GB,5,,FHRS,0
46679,,Rosegarth Street,,Boston,Bargain Buys,Retailers - other,4613,5,,231894,5,,52.97643300000000,455,219,env.serv@boston.gov.uk,Boston,http://www.boston.gov.uk,-0.02765300000000,PE21 8QN,2014-04-25,fhrs_5_en-GB,5,,FHRS,5
46680,Basiaâs Pantry,28-29 Horncastle Road,,Boston,Basia's Pantry,Retailers - other,4613,10,,231592,10,,52.98439700000000,8286,219,env.serv@boston.gov.uk,Boston,http://www.boston.gov.uk,-0.01891800000000,PE21 9BU,2013-06-26,fhrs_3_en-GB,3,,FHRS,10
46681,,,,,Becky Griemink Catering,Other catering premises,7841,,,231906,,,,7320,219,env.serv@boston.gov.uk,Boston,http://www.boston.gov.uk,,,,fhrs_awaitinginspection_en-GB,AwaitingInspection,,FHRS,
46682,,,,,Beckys Cupcake Corner,Other catering premises,7841,,,516504,,,,8717,219,env.serv@boston.gov.uk,Boston,http://www.boston.gov.uk,,,,fhrs_awaitinginspection_en-GB,AwaitingInspection,,FHRS,
46683,Beesons Butchers,24 High Street,,Kirton,Beesons Butchers,Retailers - other,4613,5,,231942,5,,52.92815300000000,4284,219,env.serv@boston.gov.uk,Boston,http://www.boston.gov.uk,-0.05878600000000,PE20 1EG,2014-12-10,fhrs_5_en-GB,5,,FHRS,5
46684,,18 West Street,,Boston,Beira Alta Deli,Restaurant/Cafe/Canteen,1,10,,231974,5,,52.97602900000000,7813,219,env.serv@boston.gov.uk,Boston,http://www.boston.gov.uk,-0.02549700000000,PE21 8QH,2014-05-01,fhrs_4_en-GB,4,,FHRS,5
46685,Berry's News,108-110 Fydell Street,,Boston,Berry's Newsagents,Retailers - other,4613,5,,231811,5,,52.98118300000000,1310,219,env.serv@boston.gov.uk,Boston,http://www.boston.gov.uk,-0.03485500000000,PE21 8LF,2013-04-25,fhrs_4_en-GB,4,,FHRS,10
46686,Fairview,Lound,,Bourne,Best of British Bakery,Retailers - other,4613,,,499720,,,52.75848200000000,8677,219,env.serv@boston.gov.uk,Boston,http://www.boston.gov.uk,-0.40384400000000,PE10 0JY,,fhrs_awaitinginspection_en-GB,AwaitingInspection,,FHRS,
46687,White Hart Hotel,1-5 High Street,,Boston,Best Western White Hart Hotel & Eatery,Hotel/bed & breakfast/guest house,7842,5,,231701,5,,52.97637600000000,175,219,env.serv@boston.gov.uk,Boston,http://www.boston.gov.uk,-0.02421500000000,PE21 8SH,2014-01-06,fhrs_5_en-GB,5,,FHRS,5
46688,Bluu Monkey,2-4 Bridge Street,,Boston,Beyond,Pub/bar/nightclub,7843,5,,231805,10,,52.97644500000000,208,219,env.serv@boston.gov.uk,Boston,http://www.boston.gov.uk,-0.02512000000000,PE21 8QF,2013-07-01,fhrs_3_en-GB,3,,FHRS,10
46689,Esso Service Station,Donington Road,,Bicker,Bicker Bar Service Station,Takeaway/sandwich shop,7844,10,,231424,10,,52.93044400000000,938,219,env.serv@boston.gov.uk,Boston,http://www.boston.gov.uk,-0.15805800000000,PE20 3AN,2014-02-27,fhrs_3_en-GB,3,,FHRS,10
46690,,35 Wide Bargate,,Boston,Bismillah Foods,Retailers - other,4613,10,,231973,10,,52.97985300000000,8003,219,env.serv@boston.gov.uk,Boston,http://www.boston.gov.uk,-0.02083800000000,PE21 6SR,2014-12-08,fhrs_3_en-GB,3,,FHRS,5
46691,Bizzarro,23 Wormgate,,Boston,Bizzarro,Restaurant/Cafe/Canteen,1,5,,231861,5,,52.97955400000000,4342,219,env.serv@boston.gov.uk,Boston,http://www.boston.gov.uk,-0.02612500000000,PE21 6NR,2014-02-05,fhrs_5_en-GB,5,,FHRS,5
46692,Blackfriars Art Centre,11 Spain Lane,,Boston,Blackfriars,Pub/bar/nightclub,7843,5,,231512,5,,52.97612600000000,525,219,env.serv@boston.gov.uk,Boston,http://www.boston.gov.uk,-0.02272200000000,PE21 6HP,2014-05-13,fhrs_5_en-GB,5,,FHRS,5
46693,Parish Office,1 Wormgate,,Boston,Blenkin Memorial Hall,Other catering premises,7841,,,231526,,,52.97907300000000,741,219,env.serv@boston.gov.uk,Boston,http://www.boston.gov.uk,-0.02581900000000,PE21 6NP,2014-09-16,fhrs_exempt_en-GB,Exempt,,FHRS,
46694,,22 High Street,,Boston,Boina Verde Ltd,Restaurant/Cafe/Canteen,1,10,,231825,5,,52.97637600000000,6706,219,env.serv@boston.gov.uk,Boston,http://www.boston.gov.uk,-0.02421500000000,PE21 8SH,2014-02-13,fhrs_4_en-GB,4,,FHRS,5
46695,Bombay Brasserie,53 West Street,,Boston,Bombay Brasserie,Restaurant/Cafe/Canteen,1,10,,231638,10,,52.97643300000000,615,219,env.serv@boston.gov.uk,Boston,http://www.boston.gov.uk,-0.02765300000000,PE21 8QN,2014-12-16,fhrs_3_en-GB,3,,FHRS,10
46696,,Witham Green,,Boston,Booker Wholesale,Distributors/Transporters,7,0,,231416,5,,52.98337400000000,1492,219,env.serv@boston.gov.uk,Boston,http://www.boston.gov.uk,-0.02767900000000,PE21 9JR,2013-05-08,fhrs_5_en-GB,5,,FHRS,5
46697,Boots The Chemist,26 Market Place,,Boston,Boots The Chemist,Retailers - other,4613,0,,231588,5,,52.97763100000000,356,219,env.serv@boston.gov.uk,Boston,http://www.boston.gov.uk,-0.02292100000000,PE21 6EH,2014-05-06,fhrs_5_en-GB,5,,FHRS,5
46698,,Park Gate,,Boston,Boston & County Club Ltd,Pub/bar/nightclub,7843,5,,231911,5,,52.97479100000000,403,219,env.serv@boston.gov.uk,Boston,http://www.boston.gov.uk,-0.02620900000000,PE21 6AY,2014-05-16,fhrs_5_en-GB,5,,FHRS,5
46699,,Marsh Lane,,Boston,Boston Baltic Bakery,Manufacturers/packers,7839,10,,584085,10,,52.96450700000000,8990,219,env.serv@boston.gov.uk,Boston,http://www.boston.gov.uk,-0.02250700000000,PE21 7RJ,2013-09-13,fhrs_3_en-GB,3,,FHRS,5
46700,Boston Bowl,Rochford Tower Lane,,Fishtoft,Boston Bowl & Playtowers,Pub/bar/nightclub,7843,5,,231837,5,,52.98060300000000,924,219,env.serv@boston.gov.uk,Boston,http://www.boston.gov.uk,0.01058200000000,PE21 9RH,2013-09-19,fhrs_4_en-GB,4,,FHRS,10
46701,,Robin Hoods Walk,,Boston,Boston Bowling Club,Pub/bar/nightclub,7843,,,232091,,,52.98402900000000,1473,219,env.serv@boston.gov.uk,Boston,http://www.boston.gov.uk,-0.02431200000000,PE21 9EP,2009-07-24,fhrs_exempt_en-GB,Exempt,,FHRS,
46702,Boston Central Racing Pigeon Club,91 Field Street,,Boston,Boston Central Racing Pigeon,Pub/bar/nightclub,7843,5,,231776,5,,52.97930500000000,161,219,env.serv@boston.gov.uk,Boston,http://www.boston.gov.uk,-0.01708000000000,PE21 6TR,2014-05-28,fhrs_5_en-GB,5,,FHRS,5
46703,Boston Christian Fellowship,Station Street,,Boston,Boston Christian Fellowship,Other catering premises,7841,5,,611263,5,,52.97780200000000,2069,219,env.serv@boston.gov.uk,Boston,http://www.boston.gov.uk,-0.02994400000000,PE21 8RL,2013-11-13,fhrs_5_en-GB,5,,FHRS,5
46704,,Skirbeck Road,,Boston,Boston College,School/college/university,7845,5,,232049,0,,52.97331400000000,2113,219,env.serv@boston.gov.uk,Boston,http://www.boston.gov.uk,-0.01473300000000,PE21 6JF,2012-02-21,fhrs_5_en-GB,5,,FHRS,0
46705,,16b Main Ridge West,,Boston,Boston Conservative Club,Pub/bar/nightclub,7843,5,,231941,5,,52.97813800000000,276,219,env.serv@boston.gov.uk,Boston,http://www.boston.gov.uk,-0.02097600000000,PE21 6QQ,2014-07-04,fhrs_4_en-GB,4,,FHRS,10
46706,Boston Corner Shop,44 West Street,,Boston,Boston Corner Shop,Retailers - other,4613,10,,231558,10,,52.97602900000000,8200,219,env.serv@boston.gov.uk,Boston,http://www.boston.gov.uk,-0.02549700000000,PE21 8QH,2014-06-26,fhrs_3_en-GB,3,,FHRS,5
46707,,,,,Boston Cupcakes,Other catering premises,7841,,,235110,,,,8415,219,env.serv@boston.gov.uk,Boston,http://www.boston.gov.uk,,,,fhrs_awaitinginspection_en-GB,AwaitingInspection,,FHRS,
46708,Boston Deli,102 Skirbeck Road,,Boston,Boston Delicatessen,Retailers - other,4613,10,,231902,10,,52.97084000000000,4670,219,env.serv@boston.gov.uk,Boston,http://www.boston.gov.uk,-0.01518900000000,PE21 6DG,2013-07-30,fhrs_3_en-GB,3,,FHRS,10
46709,Boston Delight,35 Market Place,,Boston,Boston Delight,Takeaway/sandwich shop,7844,20,,231832,15,,52.97717900000000,347,219,env.serv@boston.gov.uk,Boston,http://www.boston.gov.uk,-0.02382100000000,PE21 6NH,2014-10-02,fhrs_1_en-GB,1,,FHRS,10
46710,Lcc Boston Family Centre,64 Fenside Road,,Boston,Boston Family Centre,Hospitals/Childcare/Caring Premises,5,5,,232081,5,,52.98538300000000,146,219,env.serv@boston.gov.uk,Boston,http://www.boston.gov.uk,-0.04422800000000,PE21 8JH,2014-04-28,fhrs_5_en-GB,5,,FHRS,5
46711,Boston Grammar School,South End,,Boston,Boston Grammar School,School/college/university,7845,0,,231552,0,,52.97478200000000,509,219,env.serv@boston.gov.uk,Boston,http://www.boston.gov.uk,-0.02026600000000,PE21 6JY,2014-04-30,fhrs_5_en-GB,5,,FHRS,0
46712,,Spilsby Road,,Boston,Boston High School,School/college/university,7845,0,,232041,0,,52.98853700000000,545,219,env.serv@boston.gov.uk,Boston,http://www.boston.gov.uk,-0.01054900000000,PE21 9PF,2014-05-06,fhrs_5_en-GB,5,,FHRS,5
46713,,Rosebery Avenue,,Boston,Boston Indoor Bowling Club,Restaurant/Cafe/Canteen,1,5,,231807,5,,52.97671900000000,1665,219,env.serv@boston.gov.uk,Boston,http://www.boston.gov.uk,-0.04882000000000,PE21 7QF,2014-01-10,fhrs_5_en-GB,5,,FHRS,5
46714,Boston Kebab House,8 High Street,,Boston,Boston Kebab,Takeaway/sandwich shop,7844,10,,231555,10,,52.97637600000000,1491,219,env.serv@boston.gov.uk,Boston,http://www.boston.gov.uk,-0.02421500000000,PE21 8SH,2013-09-09,fhrs_3_en-GB,3,,FHRS,10
46715,Boston Lawn Tennis Club,125 Sleaford Road,,Boston,Boston Lawn Tennis Club,Pub/bar/nightclub,7843,5,,232010,5,,52.97662000000000,515,219,env.serv@boston.gov.uk,Boston,http://www.boston.gov.uk,-0.04274700000000,PE21 8EY,2013-01-31,fhrs_5_en-GB,5,,FHRS,5
46716,Boston Lodge,Browns Drove,,Swineshead,Boston Lodge,Hotel/bed & breakfast/guest house,7842,5,,231538,5,,52.97448500000000,1319,219,env.serv@boston.gov.uk,Boston,http://www.boston.gov.uk,-0.18765600000000,PE20 3PX,2014-02-27,fhrs_4_en-GB,4,,FHRS,10
46717,Janda Newsagents,60-62 Freiston Road,,Boston,Boston News,Retailers - other,4613,5,,231918,5,,52.97906100000000,445,219,env.serv@boston.gov.uk,Boston,http://www.boston.gov.uk,-0.01432100000000,PE21 0JH,2014-04-25,fhrs_5_en-GB,5,,FHRS,5
46718,Boston Nursery School,Church Road,,Boston,Boston Nursery School,School/college/university,7845,5,,231913,5,,52.97331400000000,6698,219,env.serv@boston.gov.uk,Boston,http://www.boston.gov.uk,-0.01203700000000,PE21 0LJ,2013-10-02,fhrs_5_en-GB,5,,FHRS,5
46719,,Fydell Crescent,,Boston,Boston Pioneers Free School Academy,School/college/university,7845,,,736130,,,52.97527100000000,39272,219,env.serv@boston.gov.uk,Boston,http://www.boston.gov.uk,-0.02697500000000,PE21 8SS,,fhrs_exempt_en-GB,Exempt,,FHRS,
46720,,Carlton Road,,Boston,Boston Rowing Club,Pub/bar/nightclub,7843,0,,231454,5,,52.98379300000000,101,219,env.serv@boston.gov.uk,Boston,http://www.boston.gov.uk,-0.03670300000000,PE21 8LL,2014-04-30,fhrs_5_en-GB,5,,FHRS,5
46721,Princess Royal Arena,Great Fen Road,,Wyberton Fen,Boston Rugby Club,Restaurant/Cafe/Canteen,1,5,,231955,5,,52.97501000000000,7264,219,env.serv@boston.gov.uk,Boston,http://www.boston.gov.uk,-0.06745500000000,PE21 7PB,2013-03-13,fhrs_5_en-GB,5,,FHRS,5
46722,Boston Sausage,13 High Street,,Boston,Boston Sausage,Retailers - other,4613,0,,231583,0,,52.97637600000000,176,219,env.serv@boston.gov.uk,Boston,http://www.boston.gov.uk,-0.02421500000000,PE21 8SH,2014-04-08,fhrs_5_en-GB,5,,FHRS,0
46723,Boston Sausage,13 High Street,,Boston,Boston Sausage (Hot Dog Stall),Mobile caterer,7846,5,,584089,5,,52.97637600000000,9104,219,env.serv@boston.gov.uk,Boston,http://www.boston.gov.uk,-0.02421500000000,PE21 8SH,2013-09-10,fhrs_5_en-GB,5,,FHRS,5
46724,Boston Snooker Centre,Artillery Row,,Boston,Boston Snooker Centre,Pub/bar/nightclub,7843,5,,231599,5,,52.97781100000000,675,219,env.serv@boston.gov.uk,Boston,http://www.boston.gov.uk,-0.01862300000000,PE21 6TY,2014-02-04,fhrs_4_en-GB,4,,FHRS,10
46725,,Rasons Court,,Boston,Boston Social Pigeon Club,Pub/bar/nightclub,7843,5,,231372,5,,52.97830700000000,492,219,env.serv@boston.gov.uk,Boston,http://www.boston.gov.uk,-0.01921100000000,PE21 6TH,2014-05-01,fhrs_4_en-GB,4,,FHRS,10
46726,Boston Spice,14 South Street,,Boston,Boston Spice,Restaurant/Cafe/Canteen,1,5,,231801,5,,52.97658700000000,6211,219,env.serv@boston.gov.uk,Boston,http://www.boston.gov.uk,-0.02285000000000,PE21 6HE,2013-07-03,fhrs_5_en-GB,5,,FHRS,5
46727,Boston Squash Rackets Club,Rosebery Avenue,,Boston,Boston Squash Club,Pub/bar/nightclub,7843,10,,231571,10,,52.97878200000000,493,219,env.serv@boston.gov.uk,Boston,http://www.boston.gov.uk,-0.04792300000000,PE21 7QR,2014-02-11,fhrs_3_en-GB,3,,FHRS,5
46728,Boston F C,Tattershall Road,,Boston,Boston Town Football Club,Pub/bar/nightclub,7843,,,231508,,,52.99216300000000,573,219,env.serv@boston.gov.uk,Boston,http://www.boston.gov.uk,-0.03501200000000,PE21 9LR,2014-07-20,fhrs_exempt_en-GB,Exempt,,FHRS,
46729,,York Street,,Boston,Boston United Snack Bars,Takeaway/sandwich shop,7844,5,,231542,5,,52.97745200000000,778,219,env.serv@boston.gov.uk,Boston,http://www.boston.gov.uk,-0.01704600000000,PE21 6JN,2012-08-21,fhrs_5_en-GB,5,,FHRS,5
46730,,Sussex Avenue,,Boston,Boston West Children's Centre,Hospitals/Childcare/Caring Premises,5,,,231681,,,52.97758300000000,3887,219,env.serv@boston.gov.uk,Boston,http://www.boston.gov.uk,-0.04992800000000,PE21 7QG,,fhrs_awaitinginspection_en-GB,AwaitingInspection,,FHRS,
46731,Boston West End Bowling Club,Princess Street,,Boston,Boston West End Bowling Club,Pub/bar/nightclub,7843,5,,231775,10,,52.97805400000000,495,219,env.serv@boston.gov.uk,Boston,http://www.boston.gov.uk,-0.04085100000000,PE21 8HE,2014-05-01,fhrs_3_en-GB,3,,FHRS,10
46732,,Langrick Road,,Boston,Boston West Golf Centre,Pub/bar/nightclub,7843,5,,232033,5,,52.97606400000000,766,219,env.serv@boston.gov.uk,Boston,http://www.boston.gov.uk,-0.11574000000000,PE20 3QX,2014-06-18,fhrs_5_en-GB,5,,FHRS,5
46733,,Sussex Avenue,,Boston,Boston West School,School/college/university,7845,,,492608,,,,689,219,env.serv@boston.gov.uk,Boston,http://www.boston.gov.uk,,,,fhrs_exempt_en-GB,Exempt,,FHRS,
46734,,Peck Avenue,,Boston,Boston Witham Academies Federation,School/college/university,7845,0,,231511,5,,52.97370300000000,7355,219,env.serv@boston.gov.uk,Boston,http://www.boston.gov.uk,-0.03708600000000,PE21 8DF,2015-02-04,fhrs_5_en-GB,5,,FHRS,0
46735,,Market Place,,Boston,Brackenside Poultry,Retailers - other,4613,5,,231953,5,,52.97765800000000,6629,219,env.serv@boston.gov.uk,Boston,http://www.boston.gov.uk,-0.02396500000000,,2012-06-20,fhrs_5_en-GB,5,,FHRS,5
46736,,Station Road,,Sutterton,Bramble Hall,School/college/university,7845,5,,231786,0,,52.90140100000000,1038,219,env.serv@boston.gov.uk,Boston,http://www.boston.gov.uk,-0.09123600000000,PE20 2JH,2015-02-09,fhrs_5_en-GB,5,,FHRS,5
46737,Bramley House,267 Sleaford Road,,Boston,Bramley House,Hotel/bed & breakfast/guest house,7842,10,,231450,5,,52.97282700000000,512,219,env.serv@boston.gov.uk,Boston,http://www.boston.gov.uk,-0.05601000000000,PE21 7PQ,2014-02-27,fhrs_4_en-GB,4,,FHRS,5
46738,Brians Fish Shop,55-56 Liquorpond Street,,Boston,Brian's Fish & Chip Shop,Takeaway/sandwich shop,7844,5,,231864,5,,52.97454500000000,260,219,env.serv@boston.gov.uk,Boston,http://www.boston.gov.uk,-0.02818600000000,PE21 8UJ,2014-07-04,fhrs_4_en-GB,4,,FHRS,10
46739,,Wainfleet Road,,Boston,Bricklayers Arms,Pub/bar/nightclub,7843,5,,231418,5,,53.02692300000000,1013,219,env.serv@boston.gov.uk,Boston,http://www.boston.gov.uk,0.09542500000000,PE22 9LH,2013-07-22,fhrs_5_en-GB,5,,FHRS,5
46740,Bridge House Training Centre,Grantham Road,,Boston,Bridge House Training Centre,Other catering premises,7841,5,,231606,5,,52.97158000000000,6913,219,env.serv@boston.gov.uk,Boston,http://www.boston.gov.uk,-0.05833000000000,PE21 7NL,2013-01-16,fhrs_5_en-GB,5,,FHRS,5
46741,Brothertoft Hall,Main Road,,Brothertoft,Brothertoft Village Hall,Other catering premises,7841,,,231536,,,52.99971200000000,927,219,env.serv@boston.gov.uk,Boston,http://www.boston.gov.uk,-0.10350400000000,PE20 3SW,2014-03-05,fhrs_exempt_en-GB,Exempt,,FHRS,
46742,The Bull And Dog,Church Road,,Freiston,Bull & Dog,Pub/bar/nightclub,7843,10,,231441,10,,52.97465100000000,957,219,env.serv@boston.gov.uk,Boston,http://www.boston.gov.uk,0.04640900000000,PE22 0LA,2010-05-19,fhrs_3_en-GB,3,,FHRS,10
46743,White Hart Hotel,1-5 High Street,,Boston,Bulldog Pub Co,Retailers - other,4613,,,231752,,,52.97637600000000,1119,219,env.serv@boston.gov.uk,Boston,http://www.boston.gov.uk,-0.02421500000000,PE21 8SH,,fhrs_awaitinginspection_en-GB,AwaitingInspection,,FHRS,
46744,Burger King,Holbeach Road,,Sutterton,Burger King,Restaurant/Cafe/Canteen,1,0,,619738,5,,52.88848800000000,526,219,env.serv@boston.gov.uk,Boston,http://www.boston.gov.uk,-0.08047700000000,PE20 2LG,2014-03-26,fhrs_5_en-GB,5,,FHRS,0
46745,Kimjoy,Chapel Road,,Old Leake,Burger-Licious Catering Co Ltd,Mobile caterer,7846,,,719281,,,53.05063900000000,39255,219,env.serv@boston.gov.uk,Boston,http://www.boston.gov.uk,0.08375800000000,PE22 9PP,,fhrs_awaitinginspection_en-GB,AwaitingInspection,,FHRS,
46746,Kimjoy,Chapel Road,,Old Leake,Burger-Licious Catering Co Ltd,Mobile caterer,7846,,,719282,,,53.05063900000000,39256,219,env.serv@boston.gov.uk,Boston,http://www.boston.gov.uk,0.08375800000000,PE22 9PP,,fhrs_awaitinginspection_en-GB,AwaitingInspection,,FHRS,
46747,Kimjoy,Chapel Road,,Old Leake,Burger-Licious Catering Co Ltd,Mobile caterer,7846,,,719283,,,53.05063900000000,39257,219,env.serv@boston.gov.uk,Boston,http://www.boston.gov.uk,0.08375800000000,PE22 9PP,,fhrs_awaitinginspection_en-GB,AwaitingInspection,,FHRS,
46748,Kimjoy,Chapel Road,,Old Leake,Burger-Licious Catering Company Ltd (Event 1),Mobile caterer,7846,5,,633935,5,,53.05063900000000,9192,219,env.serv@boston.gov.uk,Boston,http://www.boston.gov.uk,0.08375800000000,PE22 9PP,2014-02-18,fhrs_5_en-GB,5,,FHRS,5
46749,Kimjoy,Chapel Road,,Old Leake,Burger-Licious Catering Company Ltd (Event 2),Mobile caterer,7846,5,,633936,5,,53.05063900000000,9193,219,env.serv@boston.gov.uk,Boston,http://www.boston.gov.uk,0.08375800000000,PE22 9PP,2014-02-18,fhrs_5_en-GB,5,,FHRS,5
46750,,Wainfleet Road,,Boston,Burton House & Premier Inn,Restaurant/Cafe/Canteen,1,0,,231983,5,,52.98770100000000,1134,219,env.serv@boston.gov.uk,Boston,http://www.boston.gov.uk,-0.00196100000000,PE21 9RW,2014-01-24,fhrs_5_en-GB,5,,FHRS,5
46751,,Wainfleet Road,,Boston,Burton House Bowling Club,Pub/bar/nightclub,7843,,,231833,,,52.98770100000000,926,219,env.serv@boston.gov.uk,Boston,http://www.boston.gov.uk,-0.00196100000000,PE21 9RW,2014-05-12,fhrs_exempt_en-GB,Exempt,,FHRS,
46752,,2 Pipe Office Lane,,Boston,Bus Station Cafe,Restaurant/Cafe/Canteen,1,5,,231443,5,,52.98351700000000,4288,219,env.serv@boston.gov.uk,Boston,http://www.boston.gov.uk,-0.04391100000000,PE21 8JB,2014-01-28,fhrs_4_en-GB,4,,FHRS,10
46753,The Butchers Arms,Common Lane,,Old Leake,Butchers Arms,Pub/bar/nightclub,7843,5,,231900,5,,53.05271300000000,1164,219,env.serv@boston.gov.uk,Boston,http://www.boston.gov.uk,0.08291800000000,PE22 9PR,2013-07-22,fhrs_5_en-GB,5,,FHRS,5
46754,Butterfly Hospice,Rowan Way,,Boston,Butterfly Hospice Trust,Hospitals/Childcare/Caring Premises,5,0,,231908,0,,52.98986500000000,8171,219,env.serv@boston.gov.uk,Boston,http://www.boston.gov.uk,-0.01574700000000,PE21 9DH,2015-02-10,fhrs_5_en-GB,5,,FHRS,0
46755,Butterwick Fryer,3 Brand End Road,,Butterwick,Butterwick Fryer,Takeaway/sandwich shop,7844,0,,231393,0,,52.98470900000000,913,219,env.serv@boston.gov.uk,Boston,http://www.boston.gov.uk,0.06525400000000,PE22 0ET,2014-12-19,fhrs_5_en-GB,5,,FHRS,0
46756,,School Lane,,"Butterwick, Boston",Butterwick Pre-School Playgroup,Hospitals/Childcare/Caring Premises,5,5,,231702,5,,52.98235600000000,7305,219,env.serv@boston.gov.uk,Boston,http://www.boston.gov.uk,0.06149200000000,PE22 0HU,2014-03-24,fhrs_5_en-GB,5,,FHRS,5
46757,,School Lane,,"Butterwick, Boston",Butterwick Primary School,School/college/university,7845,5,,232064,5,,52.98235600000000,893,219,env.serv@boston.gov.uk,Boston,http://www.boston.gov.uk,0.06149200000000,PE22 0HU,2014-09-21,fhrs_5_en-GB,5,,FHRS,5
46758,,Church Road,,Boston,Butterwick Village Hall,Other catering premises,7841,,,231394,,,52.98348800000000,914,219,env.serv@boston.gov.uk,Boston,http://www.boston.gov.uk,0.06619400000000,PE22 0HT,2014-07-08,fhrs_exempt_en-GB,Exempt,,FHRS,
46759,Bycroft Butchers,7 Dolphin Lane,,Boston,Bycrofts of Boston,Retailers - other,4613,5,,231400,5,,52.97800400000000,136,219,env.serv@boston.gov.uk,Boston,http://www.boston.gov.uk,-0.02265100000000,PE21 6EU,2014-09-24,fhrs_4_en-GB,4,,FHRS,10
46760,,Main Road,,"Wrangle, Boston",By-Pass Nurseries,Farmers/growers,7838,5,,231501,10,,53.03747900000000,1082,219,env.serv@boston.gov.uk,Boston,http://www.boston.gov.uk,0.12025000000000,PE22 9AD,2014-05-06,fhrs_3_en-GB,3,,FHRS,10
46761,Cremorne,Marsh Lane,,Boston,C & D Marketing Boston,Retailers - other,4613,10,,706002,10,,52.96138300000000,39244,219,env.serv@boston.gov.uk,Boston,http://www.boston.gov.uk,-0.01414800000000,PE21 7SJ,2014-09-08,fhrs_3_en-GB,3,,FHRS,10
46762,,17 London Road,,Boston,C Dunham,Retailers - other,4613,5,,231643,5,,52.96971800000000,266,219,env.serv@boston.gov.uk,Boston,http://www.boston.gov.uk,-0.02660300000000,PE21 8AG,2014-12-02,fhrs_4_en-GB,4,,FHRS,10
46763,,109 High Street,,Boston,Cafe Europa,Restaurant/Cafe/Canteen,1,,,576532,,,52.97255000000000,8960,219,env.serv@boston.gov.uk,Boston,http://www.boston.gov.uk,-0.02498500000000,PE21 8TG,,fhrs_awaitinginspection_en-GB,AwaitingInspection,,FHRS,
46764,Caffe Nero,12 Strait Bargate,,Boston,Caffe Nero,Restaurant/Cafe/Canteen,1,5,,231867,5,,52.97896600000000,8154,219,env.serv@boston.gov.uk,Boston,http://www.boston.gov.uk,-0.02373900000000,PE21 6LR,2014-07-14,fhrs_5_en-GB,5,,FHRS,5
46765,,Maud Street,,Boston,Capital Dairy (Lincs) Limited,Distributors/Transporters,7,5,,231799,5,,52.98013000000000,7888,219,env.serv@boston.gov.uk,Boston,http://www.boston.gov.uk,-0.01802500000000,PE21 6TP,2013-01-11,fhrs_4_en-GB,4,,FHRS,10
46766,Card Factory,19 Strait Bargate,,Boston,Card Factory,Retailers - other,4613,,,231646,,,52.97893900000000,7063,219,env.serv@boston.gov.uk,Boston,http://www.boston.gov.uk,-0.02314400000000,PE21 6EE,,fhrs_exempt_en-GB,Exempt,,FHRS,
46767,"Unit 2C, Boston Shopping Park",Horncastle Road,,Boston,Card Factory,Retailers - other,4613,0,,576534,5,,52.98235300000000,8962,219,env.serv@boston.gov.uk,Boston,http://www.boston.gov.uk,-0.01977100000000,PE21 9BD,2014-04-30,fhrs_5_en-GB,5,,FHRS,5
46768,,Carlton Road,,Boston,Carlton Road Academy,School/college/university,7845,5,,231540,0,,52.97899800000000,1580,219,env.serv@boston.gov.uk,Boston,http://www.boston.gov.uk,-0.03377700000000,PE21 8QX,2013-01-09,fhrs_5_en-GB,5,,FHRS,0
46769,Carpenters Arms Inn,Witham Street,,Boston,Carpenters Arms,Pub/bar/nightclub,7843,5,,231709,5,,52.98065000000000,771,219,env.serv@boston.gov.uk,Boston,http://www.boston.gov.uk,-0.02656700000000,PE21 6PU,2014-04-28,fhrs_5_en-GB,5,,FHRS,5
46770,Centenary Methodist Church,Red Lion Street,,Boston,Centenary Methodist Church,Other catering premises,7841,5,,231455,5,,52.97996900000000,481,219,env.serv@boston.gov.uk,Boston,http://www.boston.gov.uk,-0.02455700000000,PE21 6NY,2014-04-30,fhrs_5_en-GB,5,,FHRS,5
46771,,20 West Street,,Boston,Central Food and Wine,Retailers - other,4613,20,,231489,15,,52.97602900000000,8251,219,env.serv@boston.gov.uk,Boston,http://www.boston.gov.uk,-0.02549700000000,PE21 8QH,2013-07-29,fhrs_1_en-GB,1,,FHRS,10
46772,Belmont House,15 Red Lion Street,,Boston,Centrepoint Outreach Shop,Retailers - other,4613,5,,231881,5,,52.98015000000000,482,219,env.serv@boston.gov.uk,Boston,http://www.boston.gov.uk,-0.02574100000000,PE21 6PZ,2014-04-28,fhrs_5_en-GB,5,,FHRS,5
46773,Stoke Priory,Fishtoft Road,,Fishtoft,Charlie's Ice Cream,Retailers - other,4613,,,231658,,,52.96130400000000,8376,219,env.serv@boston.gov.uk,Boston,http://www.boston.gov.uk,0.02621400000000,PE21 0RR,,fhrs_awaitinginspection_en-GB,AwaitingInspection,,FHRS,
46774,Mayfair,Homers Lane,,Butterwick,Charlton Chance Preserves,Retailers - other,4613,,,406958,,,52.98689700000000,8491,219,env.serv@boston.gov.uk,Boston,http://www.boston.gov.uk,0.05469100000000,PE22 0PB,,fhrs_awaitinginspection_en-GB,AwaitingInspection,,FHRS,
46775,The Chestnuts,Hardwick Estate,,Kirton,Chestnuts,Other catering premises,7841,,,231487,,,52.93158700000000,1747,219,env.serv@boston.gov.uk,Boston,http://www.boston.gov.uk,-0.05760600000000,PE20 1HE,2013-12-04,fhrs_exempt_en-GB,Exempt,,FHRS,
46776,,17 High Street,,Boston,Chicken Place,Restaurant/Cafe/Canteen,1,,,231949,,,52.97637600000000,2114,219,env.serv@boston.gov.uk,Boston,http://www.boston.gov.uk,-0.02421500000000,PE21 8SH,2014-10-16,fhrs_awaitinginspection_en-GB,AwaitingInspection,,FHRS,
46777,Acorn House,Holme Road,,Kirton Holme,Chocolate Fairy,Other catering premises,7841,,,531211,,,52.95934700000000,8732,219,env.serv@boston.gov.uk,Boston,http://www.boston.gov.uk,-0.12007000000000,PE20 1SY,,fhrs_awaitinginspection_en-GB,AwaitingInspection,,FHRS,
46778,Church Hall,Main Road,,Leverton,Church Hall,Other catering premises,7841,,,231897,,,53.00844800000000,204,219,env.serv@boston.gov.uk,Boston,http://www.boston.gov.uk,0.08667400000000,PE22 0AZ,2014-02-17,fhrs_exempt_en-GB,Exempt,,FHRS,
46779,Churches,14 Church Street,,Boston,Churches,Restaurant/Cafe/Canteen,1,5,,232060,5,,52.97776500000000,1490,219,env.serv@boston.gov.uk,Boston,http://www.boston.gov.uk,-0.02500000000000,PE21 6NW,2013-09-23,fhrs_5_en-GB,5,,FHRS,5
46780,,,,,Claire Fairman,Other catering premises,7841,,,231745,,,,6863,219,env.serv@boston.gov.uk,Boston,http://www.boston.gov.uk,,,,fhrs_awaitinginspection_en-GB,AwaitingInspection,,FHRS,
46781,Jamaican Rain,3 Sandholme Lane,,Frampton,Clip Clop Deliveries,Retailers - other,4613,,,729266,,,52.91635700000000,39263,219,env.serv@boston.gov.uk,Boston,http://www.boston.gov.uk,-0.00554400000000,PE20 1NG,,fhrs_awaitinginspection_en-GB,AwaitingInspection,,FHRS,
46782,,Dowdyke Road,,"Sutterton, Boston",Clockhouse Tea Room,Restaurant/Cafe/Canteen,1,5,,231371,5,,52.88607900000000,4612,219,env.serv@boston.gov.uk,Boston,http://www.boston.gov.uk,-0.09837500000000,PE20 2LB,2014-03-26,fhrs_5_en-GB,5,,FHRS,5
46783,Coach And Horses,86 Main Ridge East,,Boston,Coach & Horses,Pub/bar/nightclub,7843,5,,231717,5,,52.97823100000000,295,219,env.serv@boston.gov.uk,Boston,http://www.boston.gov.uk,-0.01684600000000,PE21 6SY,2014-07-18,fhrs_5_en-GB,5,,FHRS,5
46784,,Boston Road,,"Swineshead, Boston",Concreation Patio and Garden Centre,Restaurant/Cafe/Canteen,1,5,,231895,5,,52.95715600000000,5975,219,env.serv@boston.gov.uk,Boston,http://www.boston.gov.uk,-0.14197600000000,PE20 3HB,2013-10-29,fhrs_5_en-GB,5,,FHRS,5
46785,Continental Restaurant,8 Red Lion Street,,Boston,Continental Restaurant,Restaurant/Cafe/Canteen,1,10,,232082,10,,52.97996900000000,2220,219,env.serv@boston.gov.uk,Boston,http://www.boston.gov.uk,-0.02455700000000,PE21 6NY,2014-01-09,fhrs_2_en-GB,2,,FHRS,15
46786,,14-16 Eastwood Road,,Boston,Co-op,Retailers - supermarkets/hypermarkets,7840,5,,231725,5,,52.97657701000000,3747,219,env.serv@boston.gov.uk,Boston,http://www.boston.gov.uk,-0.00252542000000,PE21 OPH,2014-04-28,fhrs_5_en-GB,5,,FHRS,5
46787,Co-Operative Retails,16-18 Station Road,,Kirton,Co-op,Retailers - supermarkets/hypermarkets,7840,5,,231404,5,,52.92872100000000,1009,219,env.serv@boston.gov.uk,Boston,http://www.boston.gov.uk,-0.05773400000000,PE20 1EE,2014-05-28,fhrs_5_en-GB,5,,FHRS,5
46788,,12 Wide Bargate,,Boston,Co-operative,Retailers - supermarkets/hypermarkets,7840,5,,231357,5,,52.97991900000000,7010,219,env.serv@boston.gov.uk,Boston,http://www.boston.gov.uk,-0.02263800000000,PE21 6RF,2014-02-13,fhrs_5_en-GB,5,,FHRS,5
46789,Co Op Stores,46-56 West Street,,Boston,Co-operative Food,Retailers - supermarkets/hypermarkets,7840,5,,231653,5,,52.97602900000000,618,219,env.serv@boston.gov.uk,Boston,http://www.boston.gov.uk,-0.02549700000000,PE21 8QH,2013-10-22,fhrs_5_en-GB,5,,FHRS,5
46790,,47 London Road,,Kirton,Coopers,Retailers - other,4613,5,,669351,5,,52.92585200000000,9277,219,env.serv@boston.gov.uk,Boston,http://www.boston.gov.uk,-0.06323300000000,PE20 1JG,2014-10-24,fhrs_5_en-GB,5,,FHRS,5
46791,Cooplands Bakery,9 Strait Bargate,,Boston,Cooplands,Retailers - other,4613,5,,445703,5,,52.97893900000000,8537,219,env.serv@boston.gov.uk,Boston,http://www.boston.gov.uk,-0.02314400000000,PE21 6EE,2014-02-06,fhrs_5_en-GB,5,,FHRS,5
46792,Wilkinsons,2 Pescod Square,,Boston,Costa Coffee,Restaurant/Cafe/Canteen,1,5,,232068,5,,52.97865300000000,5063,219,env.serv@boston.gov.uk,Boston,http://www.boston.gov.uk,-0.02165300000000,PE21 6QX,2014-07-03,fhrs_5_en-GB,5,,FHRS,5
46793,Costcutter And Post Office,17-19 Boston Road,,Kirton,Costcutters,Retailers - other,4613,5,,232070,5,,52.92979800000000,971,219,env.serv@boston.gov.uk,Boston,http://www.boston.gov.uk,-0.05764100000000,PE20 1DT,2014-05-06,fhrs_5_en-GB,5,,FHRS,5
46794,Marsh Farm,Sea Lane,,Wrangle,Country Canteen at Staples Vegetables,Other catering premises,7841,,,647357,,,53.03361100000000,9247,219,env.serv@boston.gov.uk,Boston,http://www.boston.gov.uk,0.15634800000000,PE22 9HE,,fhrs_awaitinginspection_en-GB,AwaitingInspection,,FHRS,
46795,Cowbridge House Inn,Horncastle Road,,Cowbridge,Cowbridge House Inn,Pub/bar/nightclub,7843,10,,231836,5,,53.00537800000000,195,219,env.serv@boston.gov.uk,Boston,http://www.boston.gov.uk,-0.02303900000000,PE22 7AX,2013-08-30,fhrs_3_en-GB,3,,FHRS,10
46796,,Church Lane,,Swineshead,Crafty Coffee,Restaurant/Cafe/Canteen,1,,,736131,,,,39275,219,env.serv@boston.gov.uk,Boston,http://www.boston.gov.uk,,,,fhrs_awaitinginspection_en-GB,AwaitingInspection,,FHRS,
46797,,York Street,,Boston,Cropley Lounge,Pub/bar/nightclub,7843,0,,231800,0,,52.97745200000000,3015,219,env.serv@boston.gov.uk,Boston,http://www.boston.gov.uk,-0.01704600000000,PE21 6JN,2014-12-19,fhrs_5_en-GB,5,,FHRS,0
46798,,8 Dolphin Lane,,Boston,Crumbs,Restaurant/Cafe/Canteen,1,5,,231472,5,,52.97800400000000,135,219,env.serv@boston.gov.uk,Boston,http://www.boston.gov.uk,-0.02265100000000,PE21 6EU,2015-02-10,fhrs_5_en-GB,5,,FHRS,0
46799,Curry King,4 Station Road,,Kirton,Curry King,Takeaway/sandwich shop,7844,10,,231987,10,,52.92872100000000,7429,219,env.serv@boston.gov.uk,Boston,http://www.boston.gov.uk,-0.05773400000000,PE20 1EE,2014-09-04,fhrs_3_en-GB,3,,FHRS,10
46800,,8 Red Cap Lane,,Boston,D & D Catering,Mobile caterer,7846,5,,576535,5,,52.99173100000000,8963,219,env.serv@boston.gov.uk,Boston,http://www.boston.gov.uk,-0.03394400000000,PE21 9LL,2013-10-23,fhrs_4_en-GB,4,,FHRS,10
46801,,22 Saundergate Lane,,Wyberton,Daisy,Other catering premises,7841,,,736129,,,52.95101000000000,39269,219,env.serv@boston.gov.uk,Boston,http://www.boston.gov.uk,-0.03864900000000,PE21 7BZ,,fhrs_awaitinginspection_en-GB,AwaitingInspection,,FHRS,
46802,,9 Bramley Lane,,Boston,Danguole and Ramute,Mobile caterer,7846,,,555230,,,52.97462900000000,8942,219,env.serv@boston.gov.uk,Boston,http://www.boston.gov.uk,-0.03272400000000,PE21 8EZ,,fhrs_awaitinginspection_en-GB,AwaitingInspection,,FHRS,
46803,De Niro's,2a Tawney Street,,Boston,De Niros,Restaurant/Cafe/Canteen,1,10,,231967,10,,52.98207800000000,1466,219,env.serv@boston.gov.uk,Boston,http://www.boston.gov.uk,-0.02163100000000,PE21 6PA,2013-11-13,fhrs_3_en-GB,3,,FHRS,10
46804,Fashion Wear,45a West Street,,Boston,Delight Pub,Restaurant/Cafe/Canteen,1,10,,231600,10,,52.97643300000000,3718,219,env.serv@boston.gov.uk,Boston,http://www.boston.gov.uk,-0.02765300000000,PE21 8QN,2013-11-12,fhrs_3_en-GB,3,,FHRS,10
46805,Deyncourt,Lighton Avenue,,Kirton,D'Eyn Court,Other catering premises,7841,,,231562,,,52.93085800000000,1748,219,env.serv@boston.gov.uk,Boston,http://www.boston.gov.uk,-0.05263900000000,PE20 1HP,2013-12-04,fhrs_exempt_en-GB,Exempt,,FHRS,
46806,The Icing Cabin,75 West Street,,Boston,Diva's Cakes,Retailers - other,4613,5,,231779,5,,52.97605100000000,2687,219,env.serv@boston.gov.uk,Boston,http://www.boston.gov.uk,-0.02956200000000,PE21 8QZ,2014-01-29,fhrs_5_en-GB,5,,FHRS,5
46807,"Unit 2, Skirbeck Road Retail D",Skirbeck Road,,Boston,Domino's Pizza,Takeaway/sandwich shop,7844,5,,231377,5,,52.97206300000000,8314,219,env.serv@boston.gov.uk,Boston,http://www.boston.gov.uk,-0.01732200000000,PE21 6AQ,2013-05-01,fhrs_5_en-GB,5,,FHRS,0
46808,,107 Wyberton West Road,,Boston,Dora's,Mobile caterer,7846,,,231384,,,52.96669200000000,8221,219,env.serv@boston.gov.uk,Boston,http://www.boston.gov.uk,-0.03823700000000,PE21 7JU,,fhrs_awaitinginspection_en-GB,AwaitingInspection,,FHRS,
46809,,18 Liquorpond Street,,Boston,Dragon Garden,Restaurant/Cafe/Canteen,1,5,,231435,5,,52.97374400000000,4957,219,env.serv@boston.gov.uk,Boston,http://www.boston.gov.uk,-0.02650900000000,PE21 8UF,2014-12-22,fhrs_5_en-GB,5,,FHRS,5
46810,"Centrepoint Outreach, Belmont House",15 Red Lion Street,,Boston,Drop-In Centre,Restaurant/Cafe/Canteen,1,5,,231821,5,,52.98015000000000,3947,219,env.serv@boston.gov.uk,Boston,http://www.boston.gov.uk,-0.02574100000000,PE21 6PZ,2014-05-07,fhrs_5_en-GB,5,,FHRS,5
46811,,Dudley Close,,Boston,Dudley Close,Other catering premises,7841,,,231844,,,52.97257100000000,3944,219,env.serv@boston.gov.uk,Boston,http://www.boston.gov.uk,-0.01223500000000,PE21 0LP,2014-05-09,fhrs_exempt_en-GB,Exempt,,FHRS,
46812,,7 Lincoln Lane,,Boston,Duke Of York,Pub/bar/nightclub,7843,5,,232078,5,,52.97803000000000,419,219,env.serv@boston.gov.uk,Boston,http://www.boston.gov.uk,-0.02854800000000,PE21 8RU,2013-12-04,fhrs_4_en-GB,4,,FHRS,10
46813,,,,,Dunmores Catering,Other catering premises,7841,5,,231726,5,,,5874,219,env.serv@boston.gov.uk,Boston,http://www.boston.gov.uk,,,2013-04-26,fhrs_5_en-GB,5,,FHRS,5
46814,Eagles Fish Restaurant,52-56 Main Ridge East,,Boston,Eagles Fish Restaurant,Takeaway/sandwich shop,7844,5,,231398,5,,52.97801400000000,299,219,env.serv@boston.gov.uk,Boston,http://www.boston.gov.uk,-0.01785400000000,PE21 6ST,2013-01-23,fhrs_5_en-GB,5,,FHRS,5
46815,East Lincs Seafoods,London Road,,Boston,East Lincs Seafoods,Retailers - other,4613,0,,231471,0,,52.96898300000000,1453,219,env.serv@boston.gov.uk,Boston,http://www.boston.gov.uk,-0.02677100000000,PE21 8AF,2013-04-30,fhrs_5_en-GB,5,,FHRS,0
46816,Eclipse Nightclub,5 Sibsey Lane,,Boston,Eclipse Nightclub,Pub/bar/nightclub,7843,,,231458,,,52.97710700000000,478,219,env.serv@boston.gov.uk,Boston,http://www.boston.gov.uk,-0.02220000000000,PE21 6HB,,fhrs_awaitinginspection_en-GB,AwaitingInspection,,FHRS,
46817,,113 Fydell Street,,Boston,Edite Morais,Hospitals/Childcare/Caring Premises,5,,,231956,,,52.98141100000000,7609,219,env.serv@boston.gov.uk,Boston,http://www.boston.gov.uk,-0.03396500000000,PE21 8LG,,fhrs_exempt_en-GB,Exempt,,FHRS,
46818,Elmwood House,90 Sleaford Road,,Boston,Elmwood House Nursing Home,Hospitals/Childcare/Caring Premises,5,5,,231965,5,,52.97662000000000,514,219,env.serv@boston.gov.uk,Boston,http://www.boston.gov.uk,-0.04274700000000,PE21 8EY,2014-11-21,fhrs_5_en-GB,5,,FHRS,5
46819,,85 West Street,,Boston,Euro Booze and Foods,Retailers - other,4613,10,,231577,5,,52.97636600000000,5590,219,env.serv@boston.gov.uk,Boston,http://www.boston.gov.uk,-0.03014300000000,PE21 8RE,2013-06-18,fhrs_4_en-GB,4,,FHRS,5
46820,,111 High Street,,Boston,Euro Int Foods,Retailers - other,4613,5,,232030,10,,52.97255000000000,5266,219,env.serv@boston.gov.uk,Boston,http://www.boston.gov.uk,-0.02498500000000,PE21 8TG,2014-08-27,fhrs_4_en-GB,4,,FHRS,5
46821,Every Day,63 West Street,,Boston,Europe Express,Retailers - other,4613,10,,231947,5,,52.97643300000000,6869,219,env.serv@boston.gov.uk,Boston,http://www.boston.gov.uk,-0.02765300000000,PE21 8QN,2014-02-13,fhrs_4_en-GB,4,,FHRS,5
46822,Collections London,43 Wide Bargate,,Boston,European Food,Retailers - other,4613,10,,607121,10,,52.97985300000000,9133,219,env.serv@boston.gov.uk,Boston,http://www.boston.gov.uk,-0.02083800000000,PE21 6SR,2013-11-22,fhrs_3_en-GB,3,,FHRS,10
46823,European Food And Wine,15 High Street,,Boston,European Food and Wine,Retailers - other,4613,10,,231629,10,,52.97637600000000,7829,219,env.serv@boston.gov.uk,Boston,http://www.boston.gov.uk,-0.02421500000000,PE21 8SH,2013-07-16,fhrs_3_en-GB,3,,FHRS,5
46824,European Food Store,101 Fydell Street,,Boston,European Food Store,Retailers - other,4613,5,,231389,5,,52.98141100000000,8342,219,env.serv@boston.gov.uk,Boston,http://www.boston.gov.uk,-0.03396500000000,PE21 8LG,2014-09-11,fhrs_4_en-GB,4,,FHRS,10
46825,,10 Red Lion Street,,Boston,European Foods,Retailers - other,4613,10,,231855,10,,52.97996900000000,5259,219,env.serv@boston.gov.uk,Boston,http://www.boston.gov.uk,-0.02455700000000,PE21 6NY,2013-08-20,fhrs_3_en-GB,3,,FHRS,10
46826,European Market 2,47 West Street,,Boston,European Market 2,Retailers - other,4613,10,,231820,10,,52.97643300000000,8393,219,env.serv@boston.gov.uk,Boston,http://www.boston.gov.uk,-0.02765300000000,PE21 8QN,2014-07-16,fhrs_3_en-GB,3,,FHRS,10
46827,,Market Place,,Boston,Evans Fruit & Veg,Retailers - other,4613,5,,231970,5,,52.97794400000000,6245,219,env.serv@boston.gov.uk,Boston,http://www.boston.gov.uk,-0.02442600000000,PE21 6NF,2014-08-04,fhrs_5_en-GB,5,,FHRS,5
46828,,7 Lenton Way,,Frampton,Evelyn Ruby Cakes,Other catering premises,7841,,,516508,,,52.93339800000000,8724,219,env.serv@boston.gov.uk,Boston,http://www.boston.gov.uk,-0.04526400000000,PE20 1AU,2014-06-04,fhrs_exempt_en-GB,Exempt,,FHRS,
46829,The Evergreens,School Lane,,Butterwick,Evergreens,Other catering premises,7841,5,,231731,5,,52.98255400000000,1749,219,env.serv@boston.gov.uk,Boston,http://www.boston.gov.uk,0.06352700000000,PE22 0HF,2013-03-12,fhrs_4_en-GB,4,,FHRS,10
46830,Fairfield Guest House,101 London Road,,Boston,Fairfield,Hotel/bed & breakfast/guest house,7842,5,,231392,10,,52.96454100000000,270,219,env.serv@boston.gov.uk,Boston,http://www.boston.gov.uk,-0.03053200000000,PE21 7EN,2013-04-16,fhrs_3_en-GB,3,,FHRS,10
46831,St Nicholas C Of E Primary School,Woad Farm Road,,Boston,Feast Centre at St Nicholas School,School/college/university,7845,0,,232100,0,,52.97409400000000,7999,219,env.serv@boston.gov.uk,Boston,http://www.boston.gov.uk,-0.00652100000000,PE21 0EF,2014-12-15,fhrs_5_en-GB,5,,FHRS,5
46832,,,,,Featherstones,Other catering premises,7841,5,,231645,5,,,8374,219,env.serv@boston.gov.uk,Boston,http://www.boston.gov.uk,,,2013-09-09,fhrs_5_en-GB,5,,FHRS,5
46833,,Market Place,,Boston,Fen Farm Venison,Retailers - other,4613,,,231998,,,52.97765800000000,4655,219,env.serv@boston.gov.uk,Boston,http://www.boston.gov.uk,-0.02396500000000,,2014-11-19,fhrs_exempt_en-GB,Exempt,,FHRS,
46834,The Maltings,Church Lane,,Swineshead,Fenland Catering Ltd - Catering Trailer,Mobile caterer,7846,5,,555228,5,,52.94556200000000,8940,219,env.serv@boston.gov.uk,Boston,http://www.boston.gov.uk,-0.16188100000000,PE20 3HY,2014-04-28,fhrs_5_en-GB,5,,FHRS,5
46835,The Maltings,Church Lane,,Swineshead,Fenland Catering Ltd - Doughnuts,Mobile caterer,7846,5,,555229,5,,52.94556200000000,8941,219,env.serv@boston.gov.uk,Boston,http://www.boston.gov.uk,-0.16188100000000,PE20 3HY,2013-05-20,fhrs_5_en-GB,5,,FHRS,5
46836,,Taverner Road,,Boston,Fenside Community Centre,Other catering premises,7841,10,,231979,5,,52.98320200000000,566,219,env.serv@boston.gov.uk,Boston,http://www.boston.gov.uk,-0.03953000000000,PE21 8NL,2013-05-09,fhrs_4_en-GB,4,,FHRS,5
46837,,Shaw Road,,Boston,Fenside Manor,Other catering premises,7841,,,231981,,,52.98638900000000,1750,219,env.serv@boston.gov.uk,Boston,http://www.boston.gov.uk,-0.04308100000000,PE21 8NN,2014-01-23,fhrs_exempt_en-GB,Exempt,,FHRS,
46838,Johnson's Garden Centre,Wainfleet Road,,"Fishtoft, Boston",Fine Foods Supermarket & Cafe Bar,Retailers - other,4613,0,,231857,0,,52.98490600000000,6935,219,env.serv@boston.gov.uk,Boston,http://www.boston.gov.uk,0.02031600000000,PE21 9RZ,2014-04-28,fhrs_5_en-GB,5,,FHRS,0
46839,,Fountain Lane,,Boston,Finns Coffee Bar,Restaurant/Cafe/Canteen,1,10,,231597,10,,52.97965200000000,8230,219,env.serv@boston.gov.uk,Boston,http://www.boston.gov.uk,-0.02443800000000,PE21 6NX,2015-01-13,fhrs_3_en-GB,3,,FHRS,10
46840,,Far Drove,,Hubberts Bridge,First Steps Vocational Training Centre,School/college/university,7845,5,,232084,0,,52.97167300000000,7513,219,env.serv@boston.gov.uk,Boston,http://www.boston.gov.uk,-0.11608000000000,PE20 3QT,2015-02-09,fhrs_5_en-GB,5,,FHRS,5
46841,Unity House,Wigtoft Road,,Sutterton,Fishes Galore,Retailers - other,4613,,,231945,,,52.90527400000000,1046,219,env.serv@boston.gov.uk,Boston,http://www.boston.gov.uk,-0.10681400000000,PE20 2EL,2014-04-28,fhrs_exempt_en-GB,Exempt,,FHRS,
46842,Fishtoft Primary School,Gaysfield Road,,Fishtoft,Fishtoft Academy,School/college/university,7845,,,619740,,,52.95988800000000,9163,219,env.serv@boston.gov.uk,Boston,http://www.boston.gov.uk,0.02805400000000,PE21 0SF,,fhrs_awaitinginspection_en-GB,AwaitingInspection,,FHRS,
46843,,Church Road,,Boston,Five Bells,Pub/bar/nightclub,7843,5,,231749,5,,52.98348800000000,735,219,env.serv@boston.gov.uk,Boston,http://www.boston.gov.uk,0.06619400000000,PE22 0HT,2014-01-16,fhrs_5_en-GB,5,,FHRS,5
46844,Home Farm,Sea Lane,,Old Leake,Fixters Sweets and Treats,Mobile caterer,7846,5,,455907,5,,53.02756700000000,8597,219,env.serv@boston.gov.uk,Boston,http://www.boston.gov.uk,0.12954600000000,PE22 9JJ,2014-04-28,fhrs_5_en-GB,5,,FHRS,5
46845,,Mill Road,,Boston,Focus One Youth Club,Other catering premises,7841,,,231497,,,52.97083200000000,368,219,env.serv@boston.gov.uk,Boston,http://www.boston.gov.uk,-0.00667100000000,PE21 0HF,2014-05-14,fhrs_exempt_en-GB,Exempt,,FHRS,
46846,,1 Vauxhall Road,,Boston,Food Stop,Retailers - other,4613,20,,584084,5,,52.97819500000000,8983,219,env.serv@boston.gov.uk,Boston,http://www.boston.gov.uk,-0.01412200000000,PE21 0JB,2013-08-20,fhrs_1_en-GB,1,,FHRS,15
46847,,Park Avenue,,Sutterton,Fourfields Primary School,School/college/university,7845,,,231537,,,52.90134800000000,3369,219,env.serv@boston.gov.uk,Boston,http://www.boston.gov.uk,-0.08793800000000,PE20 2JN,2014-05-20,fhrs_exempt_en-GB,Exempt,,FHRS,
46848,Frampton House Residential Care Home,71 West End Road,,Frampton,Frampton House Res. Home,Hospitals/Childcare/Caring Premises,5,5,,231827,5,,52.93923800000000,949,219,env.serv@boston.gov.uk,Boston,http://www.boston.gov.uk,-0.06259100000000,PE20 1BT,2015-01-20,fhrs_5_en-GB,5,,FHRS,5
46849,Bolle Cottage,Hoffleet Road,,Bicker,Fred & Bex Flavoured Vinegars,Other catering premises,7841,5,,445707,5,,52.92451300000000,8571,219,env.serv@boston.gov.uk,Boston,http://www.boston.gov.uk,-0.15067900000000,PE20 3AJ,2014-05-02,fhrs_5_en-GB,5,,FHRS,0
46850,,Church Road,,Boston,Freiston Centre for Environmental Education,School/college/university,7845,5,,232017,5,,52.98319600000000,961,219,env.serv@boston.gov.uk,Boston,http://www.boston.gov.uk,0.04092900000000,PE22 0NX,2014-01-08,fhrs_5_en-GB,5,,FHRS,5
46851,,Church Road,,Boston,Freiston PCC,Other catering premises,7841,,,231721,,,,5842,219,env.serv@boston.gov.uk,Boston,http://www.boston.gov.uk,,,,fhrs_awaitinginspection_en-GB,AwaitingInspection,,FHRS,
46852,,Church View,,"Freiston, Boston",Freiston Village Store,Retailers - other,4613,5,,231513,5,,52.97443000000000,956,219,env.serv@boston.gov.uk,Boston,http://www.boston.gov.uk,0.04931800000000,PE22 0LE,2014-04-24,fhrs_5_en-GB,5,,FHRS,5
46853,,3-3a Red Lion Street,,Boston,Fruit and Vegetable Shop,Retailers - other,4613,,,729265,,,52.97996900000000,39262,219,env.serv@boston.gov.uk,Boston,http://www.boston.gov.uk,-0.02455700000000,PE21 6NY,,fhrs_awaitinginspection_en-GB,AwaitingInspection,,FHRS,
46854,Woodville Road Chip Shop,88 Woodville Road,,Boston,Frydays,Takeaway/sandwich shop,7844,0,,232104,5,,52.97334200000000,740,219,env.serv@boston.gov.uk,Boston,http://www.boston.gov.uk,-0.03917200000000,PE21 8BB,2015-01-14,fhrs_5_en-GB,5,,FHRS,5
46855,Fydell House,South Street,,Boston,Fydell House,School/college/university,7845,5,,231593,5,,52.97584000000000,692,219,env.serv@boston.gov.uk,Boston,http://www.boston.gov.uk,-0.02282400000000,PE21 6HU,2014-04-28,fhrs_4_en-GB,4,,FHRS,10
46856,"Unit 5, Boston Shopping Park",Horncastle Road,,Boston,Gala Bingo Boston,Restaurant/Cafe/Canteen,1,5,,232050,5,,52.98133000000000,6297,219,env.serv@boston.gov.uk,Boston,http://www.boston.gov.uk,-0.01987700000000,PE21 6RY,2014-02-13,fhrs_5_en-GB,5,,FHRS,5
46857,Georgies Tea Room,37 Market Place,,Boston,Georgies Tearoom,Restaurant/Cafe/Canteen,1,5,,232037,5,,52.97717900000000,336,219,env.serv@boston.gov.uk,Boston,http://www.boston.gov.uk,-0.02382100000000,PE21 6NH,2014-04-08,fhrs_5_en-GB,5,,FHRS,5
46858,,Bicker Bar,,Bicker,Get Your Baps Out,Mobile caterer,7846,5,,713524,5,,52.93044400000000,39250,219,env.serv@boston.gov.uk,Boston,http://www.boston.gov.uk,-0.15805800000000,PE20 3AN,2014-10-29,fhrs_4_en-GB,4,,FHRS,10
46859,Giles Academy,Church Road,,Old Leake,Giles Academy,School/college/university,7845,0,,231874,5,,53.02957400000000,303,219,env.serv@boston.gov.uk,Boston,http://www.boston.gov.uk,0.09858000000000,PE22 9LD,2014-02-10,fhrs_5_en-GB,5,,FHRS,5
46860,,Spain Place,,Boston,Gliderdrome Catering,Pub/bar/nightclub,7843,5,,231474,5,,52.97649100000000,542,219,env.serv@boston.gov.uk,Boston,http://www.boston.gov.uk,-0.02085800000000,PE21 6HN,2014-07-01,fhrs_5_en-GB,5,,FHRS,5
46861,Golden Dragon,39 Market Place,,Boston,Golden Dragon,Restaurant/Cafe/Canteen,1,5,,231566,5,,52.97717900000000,334,219,env.serv@boston.gov.uk,Boston,http://www.boston.gov.uk,-0.02382100000000,PE21 6NH,2015-02-05,fhrs_5_en-GB,5,,FHRS,5
46862,,Main Road,,"Wigtoft, Boston",Golden Fleece,Pub/bar/nightclub,7843,0,,231652,10,,52.90811600000000,1074,219,env.serv@boston.gov.uk,Boston,http://www.boston.gov.uk,-0.12327100000000,PE20 2NJ,2014-04-30,fhrs_4_en-GB,4,,FHRS,10
46863,Golden Lion,46 High Street,,Boston,Golden Lion,Pub/bar/nightclub,7843,5,,231798,5,,52.97570600000000,217,219,env.serv@boston.gov.uk,Boston,http://www.boston.gov.uk,-0.02445400000000,PE21 8SP,2014-07-21,fhrs_5_en-GB,5,,FHRS,5
46864,Good Luck Chinese Take Away,30 High Street,,Boston,Good Luck,Takeaway/sandwich shop,7844,5,,231971,5,,52.97570600000000,211,219,env.serv@boston.gov.uk,Boston,http://www.boston.gov.uk,-0.02445400000000,PE21 8SP,2014-11-27,fhrs_5_en-GB,5,,FHRS,5
46865,Goodbarns Yard,8 Wormgate,,Boston,Goodbarns Yard,Pub/bar/nightclub,7843,0,,231968,5,,52.97907300000000,1203,219,env.serv@boston.gov.uk,Boston,http://www.boston.gov.uk,-0.02581900000000,PE21 6NP,2013-09-17,fhrs_5_en-GB,5,,FHRS,5
46866,Graves Park,Skeldyke Road,,Kirton,Graves Park Social Club,Pub/bar/nightclub,7843,5,,231412,5,,52.92372800000000,1002,219,env.serv@boston.gov.uk,Boston,http://www.boston.gov.uk,-0.04224800000000,PE20 1LR,2013-09-26,fhrs_5_en-GB,5,,FHRS,5
46867,,Station Street,,Boston,Great Northern,Pub/bar/nightclub,7843,5,,231706,10,,52.97780200000000,242,219,env.serv@boston.gov.uk,Boston,http://www.boston.gov.uk,-0.02994400000000,PE21 8RL,2009-09-14,fhrs_3_en-GB,3,,FHRS,10
46868,Greggs,17 Market Place,,Boston,Greggs,Takeaway/sandwich shop,7844,0,,232044,5,,52.97763100000000,8085,219,env.serv@boston.gov.uk,Boston,http://www.boston.gov.uk,-0.02292100000000,PE21 6EH,2015-01-05,fhrs_5_en-GB,5,,FHRS,5
46869,Greggs,1 Pescod Square,,Boston,Greggs East,Restaurant/Cafe/Canteen,1,5,,231914,5,,52.97865300000000,5114,219,env.serv@boston.gov.uk,Boston,http://www.boston.gov.uk,-0.02165300000000,PE21 6QX,2013-11-07,fhrs_5_en-GB,5,,FHRS,5
46870,Ship Inn,6 London Road,,Boston,Gurkha International Restaurant (h2o),Restaurant/Cafe/Canteen,1,10,,231972,5,,52.96971800000000,1135,219,env.serv@boston.gov.uk,Boston,http://www.boston.gov.uk,-0.02660300000000,PE21 8AG,2013-10-25,fhrs_4_en-GB,4,,FHRS,5
46871,H Dawson And Son,31 Market Place,,Boston,H Dawson & Sons,Retailers - other,4613,5,,231678,5,,52.97763100000000,353,219,env.serv@boston.gov.uk,Boston,http://www.boston.gov.uk,-0.02292100000000,PE21 6EH,2014-05-27,fhrs_4_en-GB,4,,FHRS,10
46872,Johnson's Garden Centre,Wainfleet Road,,"Fishtoft, Boston",Hambleton Farm Butchers,Retailers - other,4613,0,,231835,0,,52.98490600000000,6970,219,env.serv@boston.gov.uk,Boston,http://www.boston.gov.uk,0.02031600000000,PE21 9RZ,2014-12-22,fhrs_5_en-GB,5,,FHRS,5
46873,Hammer And Pincers,Swineshead Road,,Wyberton,Hammer & Pincers,Pub/bar/nightclub,7843,5,,231607,5,,52.96922200000000,1106,219,env.serv@boston.gov.uk,Boston,http://www.boston.gov.uk,-0.05986500000000,PE21 7JE,2013-12-02,fhrs_5_en-GB,5,,FHRS,5
46874,Haven Cottage,Kitwood Road,,Boston,Haven Cottage,Hospitals/Childcare/Caring Premises,5,5,,231927,5,,52.97239700000000,4418,219,env.serv@boston.gov.uk,Boston,http://www.boston.gov.uk,-0.01041100000000,PE21 0PX,2014-01-06,fhrs_5_en-GB,5,,FHRS,5
46875,,Marian Road,,Boston,Haven High,School/college/university,7845,0,,231713,0,,52.98757400000000,385,219,env.serv@boston.gov.uk,Boston,http://www.boston.gov.uk,-0.02722000000000,PE21 9HA,2014-04-23,fhrs_5_en-GB,5,,FHRS,0
46876,Haven High Academy,Tollfield Road,,Boston,Haven High Academy,School/college/university,7845,0,,231754,0,,52.98530200000000,1519,219,env.serv@boston.gov.uk,Boston,http://www.boston.gov.uk,-0.00689800000000,PE21 9PN,2014-12-19,fhrs_5_en-GB,5,,FHRS,0
46877,,Toot Lane,,Boston,Hawthorn Tree Community Children's Centre,Hospitals/Childcare/Caring Premises,5,,,231378,,,52.97193000000000,7360,219,env.serv@boston.gov.uk,Boston,http://www.boston.gov.uk,0.00533300000000,,,fhrs_awaitinginspection_en-GB,AwaitingInspection,,FHRS,
46878,Hawthorn Tree Corner School,Toot Lane,,Fishtoft,Hawthorn Tree County Primary,School/college/university,7845,5,,231879,5,,52.97536400000000,1441,219,env.serv@boston.gov.uk,Boston,http://www.boston.gov.uk,0.00931100000000,PE21 0PT,2014-05-09,fhrs_5_en-GB,5,,FHRS,5
46879,Carrianne,Wigtoft Road,,Sutterton,Heidi's Homemade Cakes,Other catering premises,7841,10,,445704,5,,52.90498200000000,8568,219,env.serv@boston.gov.uk,Boston,http://www.boston.gov.uk,-0.09809800000000,PE20 2EE,2014-05-09,fhrs_4_en-GB,4,,FHRS,5
46880,Heron Food Store,26a Wide Bargate,,Boston,Heron Frozen Foods,Retailers - other,4613,5,,231666,5,,52.98042800000000,5558,219,env.serv@boston.gov.uk,Boston,http://www.boston.gov.uk,-0.02134800000000,PE21 6RX,2014-04-30,fhrs_5_en-GB,5,,FHRS,5
46881,,148-150 High Street,,Boston,High Street Garage and Convenience Store,Retailers - other,4613,5,,231436,5,,52.97175500000000,427,219,env.serv@boston.gov.uk,Boston,http://www.boston.gov.uk,-0.02533400000000,PE21 8TJ,2013-01-09,fhrs_5_en-GB,5,,FHRS,0
46882,The Old School House,Highgate,,"Leverton, Boston",Highgate Day Care Nursery,School/college/university,7845,,,231657,,,53.00983100000000,1021,219,env.serv@boston.gov.uk,Boston,http://www.boston.gov.uk,0.10462800000000,PE22 0AW,2014-05-06,fhrs_exempt_en-GB,Exempt,,FHRS,
46883,,Market Place,,Boston,Hill Catering (Sausages),Retailers - other,4613,5,,231532,5,,52.97765800000000,7308,219,env.serv@boston.gov.uk,Boston,http://www.boston.gov.uk,-0.02396500000000,,2013-12-04,fhrs_5_en-GB,5,,FHRS,5
46884,Hinton Court,Fenside Road,,Boston,Hinton Court,Other catering premises,7841,5,,231840,5,,52.98589100000000,1751,219,env.serv@boston.gov.uk,Boston,http://www.boston.gov.uk,-0.04615700000000,PE21 8JW,2014-05-09,fhrs_5_en-GB,5,,FHRS,5
46885,,Hoffleet Stow,,"Bicker, Boston",Holdfast Haulage,Distributors/Transporters,7,,,232102,,,52.95226800000000,8013,219,env.serv@boston.gov.uk,Boston,http://www.boston.gov.uk,-0.09204800000000,PE20 3AQ,2015-01-06,fhrs_exempt_en-GB,Exempt,,FHRS,
46886,Holland And Barrett,47 Market Place,,Boston,Holland & Barrett,Retailers - other,4613,5,,231459,5,,52.97798900000000,369,219,env.serv@boston.gov.uk,Boston,http://www.boston.gov.uk,-0.02442400000000,PE21 6NF,2014-11-24,fhrs_5_en-GB,5,,FHRS,5
46887,,98 Carlton Road,,Boston,Holroyd Butchers Limited,Retailers - other,4613,5,,231476,5,,52.98102400000000,4585,219,env.serv@boston.gov.uk,Boston,http://www.boston.gov.uk,-0.03669400000000,PE21 8PQ,2014-02-25,fhrs_4_en-GB,4,,FHRS,10
46888,"Unit 2b, Boston Shopping Park",Horncastle Road,,Boston,Home Bargains,Retailers - other,4613,0,,231925,0,,52.98133000000000,6933,219,env.serv@boston.gov.uk,Boston,http://www.boston.gov.uk,-0.01987700000000,PE21 6RY,2014-05-01,fhrs_5_en-GB,5,,FHRS,0
46889,Hong Kong Restaurant,126-130 West Street,,Boston,Hong Kong Chinese Restaurant,Restaurant/Cafe/Canteen,1,5,,231758,5,,52.97605100000000,650,219,env.serv@boston.gov.uk,Boston,http://www.boston.gov.uk,-0.02956200000000,PE21 8QZ,2014-01-14,fhrs_5_en-GB,5,,FHRS,5
46890,,Norfolk Street,,Boston,Hospital Bridge,Other catering premises,7841,,,231619,,,52.98365600000000,1950,219,env.serv@boston.gov.uk,Boston,http://www.boston.gov.uk,-0.02084300000000,PE21 6AF,2013-04-29,fhrs_exempt_en-GB,Exempt,,FHRS,
46891,Mile End,Asperton Road,,Wigtoft,Hot Stuff,Mobile caterer,7846,5,,499721,5,,52.92036200000000,8681,219,env.serv@boston.gov.uk,Boston,http://www.boston.gov.uk,-0.12391700000000,PE20 2PS,2013-02-14,fhrs_5_en-GB,5,,FHRS,5
46892,,130 London Road,,Boston,Hunters Creek,Hospitals/Childcare/Caring Premises,5,5,,232032,5,,52.96307400000000,261,219,env.serv@boston.gov.uk,Boston,http://www.boston.gov.uk,-0.03153700000000,PE21 7HB,2014-12-15,fhrs_5_en-GB,5,,FHRS,5
46893,Iceland Frozen Foods,38a Wide Bargate,,Boston,Iceland Foods Ltd,Retailers - supermarkets/hypermarkets,7840,5,,231714,5,,52.98133000000000,717,219,env.serv@boston.gov.uk,Boston,http://www.boston.gov.uk,-0.01987700000000,PE21 6RY,2014-06-03,fhrs_4_en-GB,4,,FHRS,10
46894,Indian Queen & Three Kings,4 Dolphin Lane,,Boston,Indian Queen and 3 Kings,Pub/bar/nightclub,7843,10,,231797,0,,52.97800400000000,1130,219,env.serv@boston.gov.uk,Boston,http://www.boston.gov.uk,-0.02265100000000,PE21 6EU,2014-12-17,fhrs_4_en-GB,4,,FHRS,5
46895,,12 Red Lion Street,,Boston,International Food and Drink,Retailers - other,4613,10,,231853,10,,52.97996900000000,3995,219,env.serv@boston.gov.uk,Boston,http://www.boston.gov.uk,-0.02455700000000,PE21 6NY,2013-08-20,fhrs_3_en-GB,3,,FHRS,10
46896,International Food And Drink,13 Boston Road,,Kirton,International Food And Drink,Retailers - other,4613,5,,535965,5,,52.92979800000000,8753,219,env.serv@boston.gov.uk,Boston,http://www.boston.gov.uk,-0.05764100000000,PE20 1DT,2014-04-25,fhrs_5_en-GB,5,,FHRS,5
46897,,42a High Street,,Boston,International Mini Supermarket,Retailers - other,4613,10,,231591,10,,52.97570600000000,7855,219,env.serv@boston.gov.uk,Boston,http://www.boston.gov.uk,-0.02445400000000,PE21 8SP,2014-09-11,fhrs_3_en-GB,3,,FHRS,10
46898,,8-10 West Street,,Boston,Italian Connection,Restaurant/Cafe/Canteen,1,5,,231936,5,,52.97602900000000,602,219,env.serv@boston.gov.uk,Boston,http://www.boston.gov.uk,-0.02549700000000,PE21 8QH,2014-11-04,fhrs_4_en-GB,4,,FHRS,10
46899,J And A Damarex Ltd,43 West Street,,Boston,J & A Damarex Ltd,Retailers - other,4613,10,,478795,10,,52.97643300000000,8644,219,env.serv@boston.gov.uk,Boston,http://www.boston.gov.uk,-0.02765300000000,PE21 8QN,2014-12-08,fhrs_4_en-GB,4,,FHRS,0
46900,The Course,Tattershall Road,,Boston,J & A Tooley (Candy Floss Trailer),Mobile caterer,7846,5,,231601,5,,52.99508300000000,5623,219,env.serv@boston.gov.uk,Boston,http://www.boston.gov.uk,-0.03544600000000,PE21 9LU,2014-04-30,fhrs_5_en-GB,5,,FHRS,5
46901,Lovelace,2 Fish Hill,,Boston,J Clark and Son,Retailers - other,4613,5,,232008,5,,52.97738700000000,346,219,env.serv@boston.gov.uk,Boston,http://www.boston.gov.uk,-0.02445200000000,PE21 6NN,2014-04-28,fhrs_4_en-GB,4,,FHRS,10
46902,,,,,J S Trading,Mobile caterer,7846,5,,719284,5,,,39258,219,env.serv@boston.gov.uk,Boston,http://www.boston.gov.uk,,,2015-02-04,fhrs_5_en-GB,5,,FHRS,5
46903,,Market Place,,Boston,Jessops,Retailers - other,4613,5,,232090,5,,52.94558400000000,30,219,env.serv@boston.gov.uk,Boston,http://www.boston.gov.uk,-0.15921600000000,PE20 3LJ,2013-01-15,fhrs_5_en-GB,5,,FHRS,5
46904,Jessops Bakery,13 High Street,,Kirton,Jessops The Bakers,Retailers - other,4613,5,,231845,5,,52.92896500000000,1408,219,env.serv@boston.gov.uk,Boston,http://www.boston.gov.uk,-0.05836300000000,PE20 1DR,2014-03-06,fhrs_5_en-GB,5,,FHRS,5
46905,Jessops The Bakers,25 Bridge Street,,Boston,Jessops the Bakers,Retailers - other,4613,0,,232089,5,,52.97644500000000,69,219,env.serv@boston.gov.uk,Boston,http://www.boston.gov.uk,-0.02512000000000,PE21 8QF,2014-02-10,fhrs_5_en-GB,5,,FHRS,5
46906,Jhay Stores,8 High Street,,Kirton,Jhay Stores,Retailers - other,4613,10,,232085,10,,52.92815300000000,1352,219,env.serv@boston.gov.uk,Boston,http://www.boston.gov.uk,-0.05878600000000,PE20 1EG,2014-03-06,fhrs_3_en-GB,3,,FHRS,10
46907,Barr House,Sibsey Road,,Fishtoft,Joff's Hogs Ltd,Retailers - other,4613,,,544917,,,53.00485000000000,8760,219,env.serv@boston.gov.uk,Boston,http://www.boston.gov.uk,-0.00327000000000,PE22 0RL,2013-04-05,fhrs_exempt_en-GB,Exempt,,FHRS,
46908,John Fielding School,Ashlawn Drive,,Boston,John Fielding School,School/college/university,7845,,,231948,,,52.98297000000000,44,219,env.serv@boston.gov.uk,Boston,http://www.boston.gov.uk,-0.01095300000000,PE21 9PX,2015-01-15,fhrs_exempt_en-GB,Exempt,,FHRS,
46909,,Wainfleet Road,,Boston,Johnsons Garden Centre,Restaurant/Cafe/Canteen,1,5,,231633,5,,52.98490600000000,925,219,env.serv@boston.gov.uk,Boston,http://www.boston.gov.uk,0.02031600000000,PE21 9RZ,2014-04-15,fhrs_5_en-GB,5,,FHRS,5
46910,,West Street,,Boston,Jolly Crispin,Pub/bar/nightclub,7843,10,,231920,10,,52.97605800000000,601,219,env.serv@boston.gov.uk,Boston,http://www.boston.gov.uk,-0.02945700000000,PE21 8QZ,2013-09-17,fhrs_3_en-GB,3,,FHRS,10
46911,,65 Parthian Avenue,,Wyberton,Jolly Fryer,Takeaway/sandwich shop,7844,5,,231667,5,,52.95016800000000,1099,219,env.serv@boston.gov.uk,Boston,http://www.boston.gov.uk,-0.04215600000000,PE21 7DQ,2012-10-03,fhrs_5_en-GB,5,,FHRS,5
46912,Unit 16 Lealand Way,Marsh Lane,,Boston,Jordan Ayres,Retailers - other,4613,10,,584088,10,,52.96519700000000,8993,219,env.serv@boston.gov.uk,Boston,http://www.boston.gov.uk,-0.01107000000000,PE21 7SW,2013-08-30,fhrs_3_en-GB,3,,FHRS,5
46913,Jo's Salsa Bar,1 Red Lion Street,,Boston,Jo's Salsa Bar,Pub/bar/nightclub,7843,10,,231785,10,,52.97996900000000,6919,219,env.serv@boston.gov.uk,Boston,http://www.boston.gov.uk,-0.02455700000000,PE21 6NY,2014-07-31,fhrs_3_en-GB,3,,FHRS,10
46914,,28 Church Street,,Boston,JP & DJ Limited,Restaurant/Cafe/Canteen,1,,,736128,,,52.97776400000000,39268,219,env.serv@boston.gov.uk,Boston,http://www.boston.gov.uk,-0.02500000000000,PE21 6NW,,fhrs_awaitinginspection_en-GB,AwaitingInspection,,FHRS,
46915,,28 High Street,,Boston,Julia,Retailers - other,4613,5,,406957,5,,52.97637600000000,8490,219,env.serv@boston.gov.uk,Boston,http://www.boston.gov.uk,-0.02421500000000,PE21 8SH,2014-07-18,fhrs_5_en-GB,5,,FHRS,5
46916,,14 Hillcrest Gardens,,Swineshead,Just a Little Something,Other catering premises,7841,10,,544921,10,,52.94831500000000,8775,219,env.serv@boston.gov.uk,Boston,http://www.boston.gov.uk,-0.16311900000000,PE20 3UE,2013-04-30,fhrs_3_en-GB,3,,FHRS,10
46917,,,,,K P Kakes,Other catering premises,7841,,,438653,,,,8553,219,env.serv@boston.gov.uk,Boston,http://www.boston.gov.uk,,,,fhrs_awaitinginspection_en-GB,AwaitingInspection,,FHRS,
46918,Kebab A Way,70 Main Ridge East,,Boston,Kebab A Way,Takeaway/sandwich shop,7844,5,,231580,5,,52.97823100000000,194,219,env.serv@boston.gov.uk,Boston,http://www.boston.gov.uk,-0.01684600000000,PE21 6SY,2014-09-11,fhrs_5_en-GB,5,,FHRS,5
46919,Kfc,42-42a Market Place,,Boston,Kentucky Fried Chicken,Restaurant/Cafe/Canteen,1,5,,231859,5,,52.97717900000000,332,219,env.serv@boston.gov.uk,Boston,http://www.boston.gov.uk,-0.02382100000000,PE21 6NH,2014-01-07,fhrs_4_en-GB,4,,FHRS,10
46920,,Forbes Road,,Boston,Keshco Junior Convenience Store,Retailers - other,4613,5,,231828,10,,52.97530000000000,169,219,env.serv@boston.gov.uk,Boston,http://www.boston.gov.uk,-0.00609300000000,PE21 0PD,2014-05-12,fhrs_4_en-GB,4,,FHRS,5
46921,,Church Lane,,Boston,King Edwards,Takeaway/sandwich shop,7844,5,,231796,5,,52.97799400000000,80,219,env.serv@boston.gov.uk,Boston,http://www.boston.gov.uk,-0.02476600000000,PE21 6ND,2014-02-24,fhrs_5_en-GB,5,,FHRS,5
46922,Kings Arms,13 Horncastle Road,,Boston,Kings Arms,Pub/bar/nightclub,7843,5,,231644,5,,52.98439700000000,239,219,env.serv@boston.gov.uk,Boston,http://www.boston.gov.uk,-0.01891800000000,PE21 9BU,2014-05-01,fhrs_4_en-GB,4,,FHRS,10
46923,Kings Fish And Chips,35 Horncastle Road,,Boston,Kings Fish and Chip Shop,Takeaway/sandwich shop,7844,,,231727,,,52.98589800000000,240,219,env.serv@boston.gov.uk,Boston,http://www.boston.gov.uk,-0.01941500000000,PE21 9JA,2015-01-14,fhrs_4_en-GB,4,,FHRS,
46924,,Church Road,,Boston,Kings Head,Pub/bar/nightclub,7843,0,,231910,0,,52.97656500000000,953,219,env.serv@boston.gov.uk,Boston,http://www.boston.gov.uk,0.04593400000000,PE22 0NT,2014-12-22,fhrs_5_en-GB,5,,FHRS,0
46925,,Willington Road,,"Kirton, Boston",Kirton Bowling Club,Pub/bar/nightclub,7843,,,231946,,,52.92828000000000,1339,219,env.serv@boston.gov.uk,Boston,http://www.boston.gov.uk,-0.06104200000000,PE20 1EH,2014-06-24,fhrs_exempt_en-GB,Exempt,,FHRS,
46926,,Holme Road,,Kirton Holme,Kirton Holme Golf Club,Pub/bar/nightclub,7843,10,,231907,5,,52.95934700000000,2834,219,env.serv@boston.gov.uk,Boston,http://www.boston.gov.uk,-0.12007000000000,PE20 1SY,2014-09-22,fhrs_4_en-GB,4,,FHRS,5
46927,Kirton Kebab,22 Station Road,,Kirton,Kirton Kebab,Takeaway/sandwich shop,7844,10,,231852,10,,52.92761800000000,1007,219,env.serv@boston.gov.uk,Boston,http://www.boston.gov.uk,-0.05576000000000,PE20 1LD,2014-01-16,fhrs_3_en-GB,3,,FHRS,10
46928,Kirton Leisure Centre,31a Willington Road,,Kirton,Kirton Leisure Centre,Other catering premises,7841,5,,231411,10,,52.93148300000000,113,219,env.serv@boston.gov.uk,Boston,http://www.boston.gov.uk,-0.06228300000000,PE20 1EP,2014-02-24,fhrs_3_en-GB,3,,FHRS,10
46929,Kirton County Primary School,Station Road,,Kirton,Kirton Primary School,School/college/university,7845,5,,231434,5,,52.92872700000000,1718,219,env.serv@boston.gov.uk,Boston,http://www.boston.gov.uk,-0.05590400000000,PE20 1HY,2014-04-28,fhrs_5_en-GB,5,,FHRS,5
46930,,High Street,,Boston,Kirton Youth Centre,Other catering premises,7841,,,231943,,,52.92896500000000,85,219,env.serv@boston.gov.uk,Boston,http://www.boston.gov.uk,-0.05836300000000,PE20 1DR,2014-09-09,fhrs_exempt_en-GB,Exempt,,FHRS,
46931,Lec Supermarket,40-42 Shaw Road,,Boston,L & C Foodmarket,Retailers - other,4613,5,,231886,5,,52.98545100000000,523,219,env.serv@boston.gov.uk,Boston,http://www.boston.gov.uk,-0.04020300000000,PE21 8LZ,2014-02-14,fhrs_4_en-GB,4,,FHRS,10
46932,,240 Fishtoft Road,,Fishtoft,Laura's Piece of Cake,Other catering premises,7841,,,657257,,,52.96324700000000,9271,219,env.serv@boston.gov.uk,Boston,http://www.boston.gov.uk,0.00280800000000,PE21 0BJ,2014-04-02,fhrs_exempt_en-GB,Exempt,,FHRS,
46933,Leverton Leisure Centre,Main Road,,Leverton,Leverton Leisure Centre,Other catering premises,7841,,,231817,,,53.01490200000000,1024,219,env.serv@boston.gov.uk,Boston,http://www.boston.gov.uk,0.08831200000000,PE22 0AU,2014-04-30,fhrs_exempt_en-GB,Exempt,,FHRS,
46934,Leverton Stores,Main Road,,Leverton,Leverton Stores,Retailers - other,4613,5,,231628,10,,53.00844800000000,1317,219,env.serv@boston.gov.uk,Boston,http://www.boston.gov.uk,0.08667400000000,PE22 0AZ,2014-01-21,fhrs_4_en-GB,4,,FHRS,5
46935,,,,,Libaeration Ltd,Retailers - other,4613,,,633934,,,,9175,219,env.serv@boston.gov.uk,Boston,http://www.boston.gov.uk,,,,fhrs_awaitinginspection_en-GB,AwaitingInspection,,FHRS,
46936,,27 Church Close,,Wrangle,Lilianna's Snack Bar,Mobile caterer,7846,5,,231740,10,,53.03728000000000,7878,219,env.serv@boston.gov.uk,Boston,http://www.boston.gov.uk,0.12382000000000,PE22 9EL,2013-03-28,fhrs_3_en-GB,3,,FHRS,10
46937,Lilliput Day Nursery,Resolution Close,,Boston,Lilliput Day Nursery,Hospitals/Childcare/Caring Premises,5,5,,231763,5,,52.97549700000000,6246,219,env.serv@boston.gov.uk,Boston,http://www.boston.gov.uk,-0.06089500000000,PE21 7TT,2015-01-27,fhrs_5_en-GB,5,,FHRS,5
46938,,Skirbeck Road,,Boston,Lime Restaurant & Training Kitchens at Boston College,School/college/university,7845,10,,231410,0,,52.97331400000000,1508,219,env.serv@boston.gov.uk,Boston,http://www.boston.gov.uk,-0.01473300000000,PE21 6JF,2014-12-15,fhrs_4_en-GB,4,,FHRS,5
46939,Lincoln Co-op Pharmacy,8 Liquorpond Street,,Boston,Lincoln Co-op Society Ltd (Pharmacy),Retailers - other,4613,,,231739,,,52.97351800000000,256,219,env.serv@boston.gov.uk,Boston,http://www.boston.gov.uk,-0.02592400000000,PE21 8UE,,fhrs_awaitinginspection_en-GB,AwaitingInspection,,FHRS,
46940,,88 Woodville Road,,Boston,Lincoln Co-operative Society,Retailers - supermarkets/hypermarkets,7840,5,,231373,5,,52.97334200000000,1110,219,env.serv@boston.gov.uk,Boston,http://www.boston.gov.uk,-0.03917200000000,PE21 8BB,2014-09-25,fhrs_5_en-GB,5,,FHRS,5
46941,Lincoln Co-Operative,52-60 Argyle Street,,Boston,Lincoln Co-operative Society,Retailers - supermarkets/hypermarkets,7840,5,,231923,5,,52.98117100000000,3280,219,env.serv@boston.gov.uk,Boston,http://www.boston.gov.uk,-0.03850500000000,PE21 8PH,2014-06-27,fhrs_5_en-GB,5,,FHRS,5
46942,,29 Church Road,,Old Leake,Lincolnshire Co-operative Ltd,Retailers - other,4613,0,,231481,5,,53.03297300000000,1139,219,env.serv@boston.gov.uk,Boston,http://www.boston.gov.uk,0.09597100000000,PE22 9NS,2014-07-04,fhrs_5_en-GB,5,,FHRS,5
46943,,Skirbeck Road,,Boston,Lincolnshire Co-operative Ltd,Retailers - supermarkets/hypermarkets,7840,5,,231930,5,,52.97331400000000,7847,219,env.serv@boston.gov.uk,Boston,http://www.boston.gov.uk,-0.01473300000000,PE21 6JF,2014-04-30,fhrs_5_en-GB,5,,FHRS,5
46944,,Market Place,,Boston,Lincolnshire Poacher Cheese,Retailers - other,4613,,,231475,,,52.97479100000000,4066,219,env.serv@boston.gov.uk,Boston,http://www.boston.gov.uk,-0.02620900000000,PE21 6LY,2013-04-17,fhrs_exempt_en-GB,Exempt,,FHRS,
46945,,4 Lighton Avenue,,Frampton,Linda Favell,Hospitals/Childcare/Caring Premises,5,,,232087,,,52.93384400000000,7606,219,env.serv@boston.gov.uk,Boston,http://www.boston.gov.uk,-0.05326400000000,PE20 1BY,2014-06-25,fhrs_exempt_en-GB,Exempt,,FHRS,
46946,Car Park,Tawney Street,,Boston,Lithuanian Kebabs,Mobile caterer,7846,10,,693407,5,,52.98207800000000,39236,219,env.serv@boston.gov.uk,Boston,http://www.boston.gov.uk,-0.02163100000000,PE21 6PA,2014-07-10,fhrs_4_en-GB,4,,FHRS,5
46947,,Skirbeck Road,,Boston,Little Acorns Day Nursery,School/college/university,7845,0,,231724,5,,52.97355100000000,5902,219,env.serv@boston.gov.uk,Boston,http://www.boston.gov.uk,-0.02029200000000,PE21 6DH,2014-11-11,fhrs_5_en-GB,5,,FHRS,5
46948,Little Chef,London Road,,Sutterton,Little Chef,Restaurant/Cafe/Canteen,1,0,,231748,5,,52.88848800000000,1030,219,env.serv@boston.gov.uk,Boston,http://www.boston.gov.uk,-0.08047700000000,PE20 2LG,2014-02-06,fhrs_5_en-GB,5,,FHRS,5
46949,,22 Willington Road,,Kirton,Little Explorers Nurseries,Other catering premises,7841,5,,231632,5,,52.92828000000000,8252,219,env.serv@boston.gov.uk,Boston,http://www.boston.gov.uk,-0.06104200000000,PE20 1EH,2014-10-23,fhrs_5_en-GB,5,,FHRS,5
46950,Little French Bakery,13 Red Lion Street,,Boston,Little French Bakery,Retailers - other,4613,10,,231589,0,,52.97996900000000,463,219,env.serv@boston.gov.uk,Boston,http://www.boston.gov.uk,-0.02455700000000,PE21 6NY,2014-12-19,fhrs_4_en-GB,4,,FHRS,10
46951,Little Peacock,53 Wormgate,,Boston,Little Peacock,Pub/bar/nightclub,7843,10,,232080,10,,52.98008200000000,724,219,env.serv@boston.gov.uk,Boston,http://www.boston.gov.uk,-0.02650300000000,PE21 6NS,2014-01-08,fhrs_3_en-GB,3,,FHRS,10
46952,,Robin Hoods Walk,,Boston,Little Robins Pre-School,School/college/university,7845,0,,231570,5,,52.98652300000000,4583,219,env.serv@boston.gov.uk,Boston,http://www.boston.gov.uk,-0.03050000000000,PE21 9LQ,2014-08-13,fhrs_5_en-GB,5,,FHRS,5
46953,,OPD Pilgrim Hospital,,Sibsey Road,Lloydspharmacy,Retailers - other,4613,,,438650,,,52.99103300000000,8547,219,env.serv@boston.gov.uk,Boston,http://www.boston.gov.uk,-0.00980800000000,PE21 9QS,,fhrs_exempt_en-GB,Exempt,,FHRS,
46954,Lochiel Guest House,69 Horncastle Road,,Boston,Lochiel,Hotel/bed & breakfast/guest house,7842,10,,231888,10,,52.98867700000000,244,219,env.serv@boston.gov.uk,Boston,http://www.boston.gov.uk,-0.02052400000000,PE21 9HY,2013-02-18,fhrs_3_en-GB,3,,FHRS,10
46955,London Road Bakery,49-51 London Road,,Boston,London Road Bakery,Retailers - other,4613,5,,231462,10,,52.96608200000000,268,219,env.serv@boston.gov.uk,Boston,http://www.boston.gov.uk,-0.02694800000000,PE21 7RB,2014-01-15,fhrs_3_en-GB,3,,FHRS,10
46956,,Woodville Road,,Boston,Lord Nelson,Pub/bar/nightclub,7843,5,,231863,10,,52.97334200000000,772,219,env.serv@boston.gov.uk,Boston,http://www.boston.gov.uk,-0.03917200000000,PE21 8BB,2014-04-30,fhrs_3_en-GB,3,,FHRS,10
46957,,3 Church Street,,Boston,Los Burritos,Restaurant/Cafe/Canteen,1,,,607120,,,52.97776500000000,9127,219,env.serv@boston.gov.uk,Boston,http://www.boston.gov.uk,-0.02500000000000,PE21 6NW,,fhrs_awaitinginspection_en-GB,AwaitingInspection,,FHRS,
46958,"Unit 4, Skirbeck Road Retail D",Skirbeck Road,,Boston,Love Fish,Takeaway/sandwich shop,7844,5,,336094,5,,52.97278400000000,8422,219,env.serv@boston.gov.uk,Boston,http://www.boston.gov.uk,-0.01961300000000,PE21 6DA,2013-08-01,fhrs_5_en-GB,5,,FHRS,5
46959,F M Lyell And Son,33 Wide Bargate,,Boston,Lyells,Retailers - other,4613,0,,231603,0,,52.97985300000000,1513,219,env.serv@boston.gov.uk,Boston,http://www.boston.gov.uk,-0.02083800000000,PE21 6SR,2014-09-18,fhrs_5_en-GB,5,,FHRS,0
46960,Metsa Wood,Fishtoft Road,,Fishtoft,M & B Caterers at Metsa Wood,Restaurant/Cafe/Canteen,1,5,,232047,5,,52.96324700000000,1340,219,env.serv@boston.gov.uk,Boston,http://www.boston.gov.uk,0.00280800000000,PE21 0BJ,2014-05-19,fhrs_5_en-GB,5,,FHRS,5
46961,,Chain Bridge Road,,Boston,M & H Butchers @ Ashtons,Retailers - other,4613,5,,231490,10,,52.96964500000000,8048,219,env.serv@boston.gov.uk,Boston,http://www.boston.gov.uk,-0.05324900000000,PE21 7LE,2014-06-11,fhrs_4_en-GB,4,,FHRS,5
46962,,132 West Street,,Boston,M K Bakery Limited,Retailers - other,4613,20,,231451,10,,52.97605800000000,7011,219,env.serv@boston.gov.uk,Boston,http://www.boston.gov.uk,-0.02945700000000,PE21 8QZ,2014-04-15,fhrs_1_en-GB,1,,FHRS,10
46963,Magnet Tavern,South Square,,Boston,Magnet Tavern,Pub/bar/nightclub,7843,5,,231408,5,,52.97571800000000,540,219,env.serv@boston.gov.uk,Boston,http://www.boston.gov.uk,-0.02358900000000,PE21 6HX,2013-08-13,fhrs_4_en-GB,4,,FHRS,10
46964,Main Ridge Food Centre,71 Main Ridge East,,Boston,Main Ridge Food Centre,Takeaway/sandwich shop,7844,5,,231736,5,,52.97823100000000,188,219,env.serv@boston.gov.uk,Boston,http://www.boston.gov.uk,-0.01684600000000,PE21 6SY,2015-01-07,fhrs_4_en-GB,4,,FHRS,10
46965,,John Adams Way,,Boston,Malones,Pub/bar/nightclub,7843,,,232043,,,52.97736700000000,245,219,env.serv@boston.gov.uk,Boston,http://www.boston.gov.uk,-0.02004300000000,PE21 6TQ,2011-06-24,fhrs_awaitinginspection_en-GB,AwaitingInspection,,FHRS,
46966,Boston Shopping Park,Horncastle Road,,Boston,Mama's Grill,Mobile caterer,7846,5,,231521,5,,52.98133000000000,7421,219,env.serv@boston.gov.uk,Boston,http://www.boston.gov.uk,-0.01987700000000,PE21 6RY,2014-08-11,fhrs_5_en-GB,5,,FHRS,5
46967,Mamma Maria,4a Emery Lane,,Boston,Mamma Maria Deli,Retailers - other,4613,5,,232062,5,,52.97664700000000,8259,219,env.serv@boston.gov.uk,Boston,http://www.boston.gov.uk,-0.02537900000000,PE21 8QA,2014-03-27,fhrs_5_en-GB,5,,FHRS,5
46968,Mandy's Cafe,Tenens Way,,Boston,Mandy's Cafe,Restaurant/Cafe/Canteen,1,5,,231986,5,,52.96387000000000,8216,219,env.serv@boston.gov.uk,Boston,http://www.boston.gov.uk,-0.01394500000000,PE21 7ST,2013-07-31,fhrs_5_en-GB,5,,FHRS,5
46969,Man Flower Restaurant,23 Wide Bargate,,Boston,Manflower Restaurant,Restaurant/Cafe/Canteen,1,5,,231934,5,,52.97985300000000,739,219,env.serv@boston.gov.uk,Boston,http://www.boston.gov.uk,-0.02083800000000,PE21 6SR,2014-11-12,fhrs_4_en-GB,4,,FHRS,10
46970,Manor Farm Shop,Baythorpe,,Swineshead,Manor Farm Shop,Farmers/growers,7838,5,,232098,5,,52.95501100000000,3982,219,env.serv@boston.gov.uk,Boston,http://www.boston.gov.uk,-0.14793400000000,PE20 3EZ,2014-04-25,fhrs_5_en-GB,5,,FHRS,5
46971,,190 Causeway,,"Wyberton, Boston",Manor Gate,Hospitals/Childcare/Caring Premises,5,5,,231742,5,,52.95172500000000,3279,219,env.serv@boston.gov.uk,Boston,http://www.boston.gov.uk,-0.03675600000000,PE21 7BS,2015-01-09,fhrs_4_en-GB,4,,FHRS,10
46972,Maple Lodge,Toot Lane,,Fishtoft,Maple Lodge,Hospitals/Childcare/Caring Premises,5,5,,231495,5,,52.96979000000000,922,219,env.serv@boston.gov.uk,Boston,http://www.boston.gov.uk,0.00186000000000,PE21 0AX,2014-05-01,fhrs_5_en-GB,5,,FHRS,5
46973,,28 Bramley Lane,,Boston,Marco BBQ Food Stall,Mobile caterer,7846,20,,231420,10,,52.97462900000000,7919,219,env.serv@boston.gov.uk,Boston,http://www.boston.gov.uk,-0.03272400000000,PE21 8EZ,2012-12-05,fhrs_1_en-GB,1,,FHRS,10
46974,,49 James Street,,Boston,Maria Meira,Hospitals/Childcare/Caring Premises,5,,,231559,,,52.97714500000000,7617,219,env.serv@boston.gov.uk,Boston,http://www.boston.gov.uk,-0.02994400000000,PE21 8RD,2014-09-16,fhrs_exempt_en-GB,Exempt,,FHRS,
46975,,Market Place,,Boston,Mark Copper Quality Meats,Retailers - other,4613,,,647356,,,52.97765800000000,9244,219,env.serv@boston.gov.uk,Boston,http://www.boston.gov.uk,-0.02396500000000,,,fhrs_exempt_en-GB,Exempt,,FHRS,
46976,Market Cafe,43-44 Market Place,,Boston,Market cafe,Restaurant/Cafe/Canteen,1,20,,682771,10,,52.97798900000000,39232,219,env.serv@boston.gov.uk,Boston,http://www.boston.gov.uk,-0.02442400000000,PE21 6NF,2014-06-24,fhrs_1_en-GB,1,,FHRS,5
46977,,Market Place,,Boston,Market Snack Bar,Mobile caterer,7846,0,,232056,0,,52.97765800000000,186,219,env.serv@boston.gov.uk,Boston,http://www.boston.gov.uk,-0.02396500000000,,2014-12-17,fhrs_5_en-GB,5,,FHRS,0
46978,Marks & Spencer Plc,5-6 Market Place,,Boston,Marks & Spencer,Retailers - supermarkets/hypermarkets,7840,5,,231359,5,,52.97763100000000,386,219,env.serv@boston.gov.uk,Boston,http://www.boston.gov.uk,-0.02292100000000,PE21 6EH,2013-09-23,fhrs_5_en-GB,5,,FHRS,5
46979,Boston Masonic Hall,3 Main Ridge West,,Boston,Masonic Hall (Catering by Leanne),Pub/bar/nightclub,7843,5,,231586,5,,52.97813800000000,278,219,env.serv@boston.gov.uk,Boston,http://www.boston.gov.uk,-0.02097600000000,PE21 6QQ,2014-02-27,fhrs_5_en-GB,5,,FHRS,5
46980,Massama Zone,79 West Street,,Boston,Massama Zone,Restaurant/Cafe/Canteen,1,5,,231950,5,,52.97605100000000,5441,219,env.serv@boston.gov.uk,Boston,http://www.boston.gov.uk,-0.02956200000000,PE21 8QZ,2014-08-19,fhrs_5_en-GB,5,,FHRS,5
46981,Maud Foster Mill,16 Willoughby Road,,Fishtoft,Maud Foster Mill,Other catering premises,7841,,,231823,,,52.98386400000000,810,219,env.serv@boston.gov.uk,Boston,http://www.boston.gov.uk,-0.01764600000000,PE21 9EG,2014-04-28,fhrs_exempt_en-GB,Exempt,,FHRS,
46982,,,,,Maxo's Cakes,Other catering premises,7841,10,,232048,10,,,8369,219,env.serv@boston.gov.uk,Boston,http://www.boston.gov.uk,,,2012-01-26,fhrs_3_en-GB,3,,FHRS,10
46983,,Market Place,,Boston,May Fair,Mobile caterer,7846,,,551505,,,52.97765800000000,8791,219,env.serv@boston.gov.uk,Boston,http://www.boston.gov.uk,-0.02396500000000,,2013-05-09,fhrs_exempt_en-GB,Exempt,,FHRS,
46984,,Broadfield Lane,,Boston,Mayfields Extra Care,Other catering premises,7841,0,,231904,5,,52.97479100000000,1746,219,env.serv@boston.gov.uk,Boston,http://www.boston.gov.uk,-0.02620900000000,PE21 8DY,2014-03-18,fhrs_5_en-GB,5,,FHRS,0
46985,,Queen Street,,Boston,McDonald's Restaurants Ltd,Restaurant/Cafe/Canteen,1,5,,231369,5,,52.97569000000000,3886,219,env.serv@boston.gov.uk,Boston,http://www.boston.gov.uk,-0.03164800000000,PE21 8XZ,2014-03-31,fhrs_5_en-GB,5,,FHRS,5
46986,The Meadows,Meadow Way,,Old Leake,Meadows,Other catering premises,7841,,,231890,,,53.02988300000000,1752,219,env.serv@boston.gov.uk,Boston,http://www.boston.gov.uk,0.10090700000000,PE22 9LF,2012-02-15,fhrs_exempt_en-GB,Exempt,,FHRS,
46987,,Wyberton West Road,,Boston,Meadows Edge Care Home Ltd,Hospitals/Childcare/Caring Premises,5,0,,231922,5,,52.96669200000000,785,219,env.serv@boston.gov.uk,Boston,http://www.boston.gov.uk,-0.03823700000000,PE21 7JU,2014-08-21,fhrs_5_en-GB,5,,FHRS,5
46988,Merrimans Lounge And Restaurant,Great Fen Road,,Wyberton Fen,Merrimans,Restaurant/Cafe/Canteen,1,5,,231437,5,,52.97501000000000,1430,219,env.serv@boston.gov.uk,Boston,http://www.boston.gov.uk,-0.06745500000000,PE21 7PB,2013-10-29,fhrs_5_en-GB,5,,FHRS,5
46989,,,,,Meskutes Skanestai,Other catering premises,7841,,,231944,,,,8406,219,env.serv@boston.gov.uk,Boston,http://www.boston.gov.uk,,,,fhrs_awaitinginspection_en-GB,AwaitingInspection,,FHRS,
46990,The Middlecott Secondary School,Edinburgh Drive,,Kirton,Middlecott School,School/college/university,7845,5,,231819,5,,52.92396700000000,1443,219,env.serv@boston.gov.uk,Boston,http://www.boston.gov.uk,-0.05952400000000,PE20 1JS,2014-12-15,fhrs_5_en-GB,5,,FHRS,5
46991,,,,,Miss Christine Hodgson,Other catering premises,7841,,,376154,,,,8476,219,env.serv@boston.gov.uk,Boston,http://www.boston.gov.uk,,,,fhrs_awaitinginspection_en-GB,AwaitingInspection,,FHRS,
46992,,High Street,,Boston,Mon Ami Day Nursery,School/college/university,7845,5,,231531,5,,52.94742500000000,4265,219,env.serv@boston.gov.uk,Boston,http://www.boston.gov.uk,-0.16137100000000,PE20 3LH,2014-11-21,fhrs_5_en-GB,5,,FHRS,5
46993,Mon Ami Childrens Nursery,86 Woodville Road,,Boston,Mon Ami Day Nursery,Hospitals/Childcare/Caring Premises,5,5,,231385,5,,52.97334200000000,17,219,env.serv@boston.gov.uk,Boston,http://www.boston.gov.uk,-0.03917200000000,PE21 8BB,2013-09-17,fhrs_5_en-GB,5,,FHRS,5
46994,"Unit 1, Boston Shopping Park",Horncastle Road,,Boston,Morrisons,Retailers - supermarkets/hypermarkets,7840,5,,231397,5,,52.98235300000000,6174,219,env.serv@boston.gov.uk,Boston,http://www.boston.gov.uk,-0.01977100000000,PE21 9BD,2014-07-07,fhrs_5_en-GB,5,,FHRS,5
46995,,Market Place,,Boston,Mr A Brandon,Retailers - other,4613,,,231561,,,52.97765800000000,1582,219,env.serv@boston.gov.uk,Boston,http://www.boston.gov.uk,-0.02396500000000,,2015-02-11,fhrs_exempt_en-GB,Exempt,,FHRS,
46996,,,,,Mr Darren Smith,Other catering premises,7841,,,438652,,,,8552,219,env.serv@boston.gov.uk,Boston,http://www.boston.gov.uk,,,,fhrs_awaitinginspection_en-GB,AwaitingInspection,,FHRS,
46997,,1 Hurle Crescent,,Boston,Mr Roberts,Retailers - other,4613,,,231413,,,52.98612900000000,1571,219,env.serv@boston.gov.uk,Boston,http://www.boston.gov.uk,-0.04041100000000,PE21 8NA,2014-05-28,fhrs_exempt_en-GB,Exempt,,FHRS,
46998,,,,,Mrs Judy Wortley,Other catering premises,7841,10,,231569,10,,,7427,219,env.serv@boston.gov.uk,Boston,http://www.boston.gov.uk,,,2013-04-30,fhrs_3_en-GB,3,,FHRS,10
46999,,20 Norfolk Place,,Boston,Ms Angela Pereira,Hospitals/Childcare/Caring Premises,5,,,231990,,,52.98284000000000,8284,219,env.serv@boston.gov.uk,Boston,http://www.boston.gov.uk,-0.02691400000000,PE21 9JJ,2014-09-25,fhrs_exempt_en-GB,Exempt,,FHRS,
47000,,105 Norfolk Street,,Boston,Ms Diane Brotherton,Hospitals/Childcare/Caring Premises,5,,,231816,,,52.98489900000000,7804,219,env.serv@boston.gov.uk,Boston,http://www.boston.gov.uk,-0.02153100000000,PE21 9HG,2014-07-02,fhrs_exempt_en-GB,Exempt,,FHRS,
47001,,5 Rochford Crescent,,Boston,Ms Jane Spence,Hospitals/Childcare/Caring Premises,5,,,231383,,,52.98002800000000,7807,219,env.serv@boston.gov.uk,Boston,http://www.boston.gov.uk,-0.01301000000000,PE21 9AE,2014-05-16,fhrs_exempt_en-GB,Exempt,,FHRS,
47002,The Cottage,Friest Lane,,Bicker,Ms Karen Webb,Hospitals/Childcare/Caring Premises,5,,,408522,,,52.91900000000000,8506,219,env.serv@boston.gov.uk,Boston,http://www.boston.gov.uk,-0.18674600000000,PE20 3EA,2014-05-07,fhrs_exempt_en-GB,Exempt,,FHRS,
47003,,29 Rochford Crescent,,Boston,Ms Kim Susan Everitt,Hospitals/Childcare/Caring Premises,5,,,231780,,,52.98014600000000,7805,219,env.serv@boston.gov.uk,Boston,http://www.boston.gov.uk,-0.01147000000000,PE21 9AF,2014-07-09,fhrs_exempt_en-GB,Exempt,,FHRS,
47004,Pensioners House,Mitre Lane,,Boston,N F O A P A,Pub/bar/nightclub,7843,5,,231642,10,,52.97833300000000,496,219,env.serv@boston.gov.uk,Boston,http://www.boston.gov.uk,-0.02239700000000,PE21 6EB,2013-04-24,fhrs_4_en-GB,4,,FHRS,5
47005,Napoleon Inn,17 Fishtoft Road,,Boston,Napoleon Inn,Pub/bar/nightclub,7843,5,,231830,5,,52.97019000000000,166,219,env.serv@boston.gov.uk,Boston,http://www.boston.gov.uk,-0.01285100000000,PE21 0AA,2014-06-20,fhrs_4_en-GB,4,,FHRS,10
47006,New Castle Inn,36 Fydell Street,,Boston,New Castle Inn,Pub/bar/nightclub,7843,5,,376152,5,,52.98118300000000,162,219,env.serv@boston.gov.uk,Boston,http://www.boston.gov.uk,-0.03485500000000,PE21 8LF,2014-04-30,fhrs_5_en-GB,5,,FHRS,5
47007,New England Hotel,49 Wide Bargate,,Boston,New England Hotel,Hotel/bed & breakfast/guest house,7842,5,,231505,5,,52.98033700000000,12,219,env.serv@boston.gov.uk,Boston,http://www.boston.gov.uk,-0.01911800000000,PE21 6SH,2015-01-08,fhrs_4_en-GB,4,,FHRS,10
47008,New Four Seasons,10-12 Station Road,,Kirton,New Four Seasons Takeaway,Takeaway/sandwich shop,7844,10,,231718,5,,52.92872100000000,1489,219,env.serv@boston.gov.uk,Boston,http://www.boston.gov.uk,-0.05773400000000,PE20 1EE,2014-12-19,fhrs_4_en-GB,4,,FHRS,0
47009,New Taste,19 Bridge Street,,Boston,New Taste,Restaurant/Cafe/Canteen,1,5,,492609,5,,52.97644500000000,8657,219,env.serv@boston.gov.uk,Boston,http://www.boston.gov.uk,-0.02512000000000,PE21 8QF,2015-01-08,fhrs_5_en-GB,5,,FHRS,5
47010,,10 South End,,Boston,Nikita,Restaurant/Cafe/Canteen,1,5,,455908,10,,52.97406800000000,8600,219,env.serv@boston.gov.uk,Boston,http://www.boston.gov.uk,-0.02219000000000,PE21 6JX,2014-11-26,fhrs_3_en-GB,3,,FHRS,10
47011,,1 Cleymond Chase,,Kirton,Nikki Parsons Childminding,Hospitals/Childcare/Caring Premises,5,,,231700,,,52.93202800000000,7901,219,env.serv@boston.gov.uk,Boston,http://www.boston.gov.uk,-0.06041300000000,PE20 1DP,2014-09-23,fhrs_exempt_en-GB,Exempt,,FHRS,
47012,Butterwick Post Office,5-7 Brand End Road,,Butterwick,Nisa Local,Retailers - other,4613,5,,231679,5,,52.98470900000000,911,219,env.serv@boston.gov.uk,Boston,http://www.boston.gov.uk,0.06525400000000,PE22 0ET,2012-10-04,fhrs_5_en-GB,5,,FHRS,0
47013,North Sea Camp,Croppers Lane,,Freiston,North Sea Camp (Inmates Kitchen),Restaurant/Cafe/Canteen,1,0,,231491,0,,52.94101900000000,189,219,env.serv@boston.gov.uk,Boston,http://www.boston.gov.uk,0.06286000000000,PE22 0QX,2014-01-29,fhrs_5_en-GB,5,,FHRS,5
47014,,138a West Street,,Boston,NV Steak House and Bar,Restaurant/Cafe/Canteen,1,5,,231595,5,,52.97605100000000,7887,219,env.serv@boston.gov.uk,Boston,http://www.boston.gov.uk,-0.02956200000000,PE21 8QZ,2013-02-08,fhrs_5_en-GB,5,,FHRS,5
47015,,11 Witham Place,,Boston,O & M Market,Retailers - other,4613,20,,531212,10,,52.98067900000000,8735,219,env.serv@boston.gov.uk,Boston,http://www.boston.gov.uk,-0.02723600000000,PE21 6LG,2013-06-06,fhrs_1_en-GB,1,,FHRS,5
47016,Ocean Chinese Take Away,57 West Street,,Boston,Ocean,Takeaway/sandwich shop,7844,5,,231466,5,,52.97643300000000,1132,219,env.serv@boston.gov.uk,Boston,http://www.boston.gov.uk,-0.02765300000000,PE21 8QN,2014-08-06,fhrs_5_en-GB,5,,FHRS,5
47017,Community Centre,Furlongs Lane,,Old Leake,Old Leake Community Centre,Other catering premises,7841,5,,232023,5,,53.03597800000000,1010,219,env.serv@boston.gov.uk,Boston,http://www.boston.gov.uk,0.09998000000000,PE22 9NX,2014-01-26,fhrs_5_en-GB,5,,FHRS,5
47018,,Swineshead Road,,Wyberton,Old McDonalds Farm,Retailers - other,4613,0,,231793,0,,52.96922200000000,574,219,env.serv@boston.gov.uk,Boston,http://www.boston.gov.uk,-0.05986500000000,PE21 7JE,2015-02-10,fhrs_5_en-GB,5,,FHRS,0
47019,Oldhams Farm Shop,Main Road,,Wrangle,Oldhams Farm Shop,Retailers - other,4613,5,,232077,10,,53.04457000000000,7088,219,env.serv@boston.gov.uk,Boston,http://www.boston.gov.uk,0.14794300000000,PE22 9AT,2014-04-28,fhrs_3_en-GB,3,,FHRS,10
47020,,Grantham Road,,Boston,Oldrids Downtown,Restaurant/Cafe/Canteen,1,5,,231958,5,,52.97089200000000,439,219,env.serv@boston.gov.uk,Boston,http://www.boston.gov.uk,-0.05973100000000,PE21 7NL,2013-11-13,fhrs_5_en-GB,5,,FHRS,0
47021,Oldrid And Co Ltd,11-17 Strait Bargate,,Boston,Oldrids of Boston,Restaurant/Cafe/Canteen,1,0,,231705,0,,52.97893900000000,1663,219,env.serv@boston.gov.uk,Boston,http://www.boston.gov.uk,-0.02314400000000,PE21 6EE,2013-06-03,fhrs_5_en-GB,5,,FHRS,0
47022,One Stop,18 Kingsway,,Boston,One Stop,Retailers - other,4613,5,,232028,5,,52.97015100000000,527,219,env.serv@boston.gov.uk,Boston,http://www.boston.gov.uk,-0.00622500000000,PE21 0AN,2014-09-08,fhrs_5_en-GB,5,,FHRS,5
47023,,18a Eastwood Road,,Fishtoft,One Stop Shop/Post Office,Retailers - other,4613,10,,231878,10,,52.97690800000000,1434,219,env.serv@boston.gov.uk,Boston,http://www.boston.gov.uk,-0.00120800000000,PE21 0PH,2014-03-17,fhrs_3_en-GB,3,,FHRS,10
47024,One Stop,44-46 Wide Bargate,,Boston,One Stop Stores Ltd,Retailers - other,4613,5,,231782,5,,52.98133000000000,710,219,env.serv@boston.gov.uk,Boston,http://www.boston.gov.uk,-0.01987700000000,PE21 6RY,2014-04-28,fhrs_5_en-GB,5,,FHRS,5
47025,One Stop Stores Ltd,59-61 West Street,,Boston,One Stop Stores Ltd,Retailers - other,4613,5,,232018,5,,52.97643300000000,1133,219,env.serv@boston.gov.uk,Boston,http://www.boston.gov.uk,-0.02765300000000,PE21 8QN,2014-04-28,fhrs_5_en-GB,5,,FHRS,5
47026,,Causeway,,"Wyberton, Boston",Orchards,Other catering premises,7841,,,231543,,,52.95172500000000,1753,219,env.serv@boston.gov.uk,Boston,http://www.boston.gov.uk,-0.03675600000000,PE21 7BS,2007-02-16,fhrs_exempt_en-GB,Exempt,,FHRS,
47027,,138-142 West Street,,Boston,Oriental Palace,Restaurant/Cafe/Canteen,1,5,,231959,10,,52.97636600000000,6570,219,env.serv@boston.gov.uk,Boston,http://www.boston.gov.uk,-0.03014300000000,PE21 8RE,2014-06-13,fhrs_4_en-GB,4,,FHRS,5
47028,,Market Place,,Boston,Oslinc,Retailers - other,4613,,,232076,,,52.97479100000000,4067,219,env.serv@boston.gov.uk,Boston,http://www.boston.gov.uk,-0.02620900000000,PE21 6LY,2014-11-19,fhrs_exempt_en-GB,Exempt,,FHRS,
47029,Pilgrim Hospital,Sibsey Road,,"Fishtoft, Boston",Outpatients Coffee Shop,Restaurant/Cafe/Canteen,1,0,,231875,0,,52.99103300000000,1661,219,env.serv@boston.gov.uk,Boston,http://www.boston.gov.uk,-0.00980800000000,PE21 9QS,2013-06-17,fhrs_5_en-GB,5,,FHRS,0
47030,Bp Service Station,Station Road,,Sutterton,Pace Service Station TA BP,Retailers - other,4613,5,,231524,5,,52.88848800000000,1029,219,env.serv@boston.gov.uk,Boston,http://www.boston.gov.uk,-0.08047700000000,PE20 2LG,2013-09-02,fhrs_5_en-GB,5,,FHRS,5
47031,,Robin Hoods Walk,,Boston,Park Academy,School/college/university,7845,,,619742,,,52.98652300000000,9165,219,env.serv@boston.gov.uk,Boston,http://www.boston.gov.uk,-0.03050000000000,PE21 9LQ,,fhrs_awaitinginspection_en-GB,AwaitingInspection,,FHRS,
47032,Park Lea Guest House,85 Norfolk Street,,Boston,Park Lea Guest House,Hotel/bed & breakfast/guest house,7842,5,,232013,5,,52.98306900000000,408,219,env.serv@boston.gov.uk,Boston,http://www.boston.gov.uk,-0.02499700000000,PE21 6PE,2014-04-30,fhrs_5_en-GB,5,,FHRS,5
47033,,Tawney Street,,Boston,Parkside Pharmacy,Retailers - other,4613,,,231984,,,52.98207800000000,587,219,env.serv@boston.gov.uk,Boston,http://www.boston.gov.uk,-0.02163100000000,PE21 6PA,2014-04-28,fhrs_exempt_en-GB,Exempt,,FHRS,
47034,Orchard Park,Frampton Fen Lane,,Hubberts Bridge,Pauline's Cafe,Restaurant/Cafe/Canteen,1,5,,231991,5,,52.97200400000000,2636,219,env.serv@boston.gov.uk,Boston,http://www.boston.gov.uk,-0.11030200000000,PE20 3QU,2014-08-18,fhrs_5_en-GB,5,,FHRS,5
47035,,Church View,,"Freiston, Boston",Peter Stevens Butchers,Retailers - other,4613,5,,231417,5,,52.97443000000000,958,219,env.serv@boston.gov.uk,Boston,http://www.boston.gov.uk,0.04931800000000,PE22 0LE,2014-05-20,fhrs_5_en-GB,5,,FHRS,5
47036,,Central Park,,Boston,Picnic In The Park,Retailers - other,4613,10,,231484,5,,52.97468948364258,325,219,env.serv@boston.gov.uk,Boston,http://www.boston.gov.uk,-0.02912000007927,PE21 6AY,2014-07-04,fhrs_4_en-GB,4,,FHRS,5
47037,,Market Place,,Boston,Pig and Whistle,Pub/bar/nightclub,7843,5,,231503,0,,52.94558400000000,1432,219,env.serv@boston.gov.uk,Boston,http://www.boston.gov.uk,-0.15921600000000,PE20 3LJ,2014-12-22,fhrs_5_en-GB,5,,FHRS,5
47038,Pilgrim Hospital,Sibsey Road,,"Fishtoft, Boston",Pilgrim Hospital Day Nursery,School/college/university,7845,5,,231988,0,,52.99103300000000,7141,219,env.serv@boston.gov.uk,Boston,http://www.boston.gov.uk,-0.00980800000000,PE21 9QS,2014-08-27,fhrs_5_en-GB,5,,FHRS,0
47039,"The Pilgrim Lounge, Boston United F C",York Street,,Boston,Pilgrim Lounge,Pub/bar/nightclub,7843,5,,231507,5,,52.97745200000000,752,219,env.serv@boston.gov.uk,Boston,http://www.boston.gov.uk,-0.01704600000000,PE21 6JN,2014-04-23,fhrs_5_en-GB,5,,FHRS,5
47040,,Sibsey Road,,Boston,Pilgrim Pantry,Restaurant/Cafe/Canteen,1,0,,231868,0,,52.99103300000000,1659,219,env.serv@boston.gov.uk,Boston,http://www.boston.gov.uk,-0.00980800000000,PE21 9QS,2013-06-17,fhrs_5_en-GB,5,,FHRS,0
47041,Restaurant,Pilgrim Hospital,,Sibsey Road,Pilgrim Restaurant,Restaurant/Cafe/Canteen,1,0,,231447,0,,52.99103300000000,2096,219,env.serv@boston.gov.uk,Boston,http://www.boston.gov.uk,-0.00980800000000,PE21 9QS,2014-01-13,fhrs_5_en-GB,5,,FHRS,0
47042,Dauda Lodge,Church Lane,,Algarkirk,Pinchin's Farm Shop,Retailers - other,4613,5,,231858,5,,52.89385900000000,5942,219,env.serv@boston.gov.uk,Boston,http://www.boston.gov.uk,-0.07955600000000,PE20 2HN,2015-02-03,fhrs_5_en-GB,5,,FHRS,5
47043,Pincushion Inn,289 London Road,,Wyberton,Pincushion Inn,Pub/bar/nightclub,7843,5,,231485,5,,52.95242800000000,1095,219,env.serv@boston.gov.uk,Boston,http://www.boston.gov.uk,-0.04345300000000,PE21 7DD,2013-10-31,fhrs_5_en-GB,5,,FHRS,5
47044,Post Office,32 Granville Avenue,,Wyberton,Pincushion Post Office,Retailers - other,4613,5,,231438,5,,52.95084800000000,1096,219,env.serv@boston.gov.uk,Boston,http://www.boston.gov.uk,-0.04136600000000,PE21 7BY,2014-02-03,fhrs_4_en-GB,4,,FHRS,10
47045,,35 Fenside Road,,Boston,Pisces,Takeaway/sandwich shop,7844,,,406959,,,52.98304300000000,8498,219,env.serv@boston.gov.uk,Boston,http://www.boston.gov.uk,-0.04242700000000,PE21 8HY,2014-04-16,fhrs_awaitinginspection_en-GB,AwaitingInspection,,FHRS,
47046,Pizza Hut,108 West Street,,Boston,Pizza Hut,Restaurant/Cafe/Canteen,1,0,,231382,0,,52.97537400000000,4588,219,env.serv@boston.gov.uk,Boston,http://www.boston.gov.uk,-0.02941400000000,PE21 8XF,2014-12-08,fhrs_5_en-GB,5,,FHRS,0
47047,Pizza Perfection,5 Artillery Row,,Boston,Pizza Perfection,Takeaway/sandwich shop,7844,5,,231738,5,,52.97781100000000,35,219,env.serv@boston.gov.uk,Boston,http://www.boston.gov.uk,-0.01862300000000,PE21 6TY,2013-12-13,fhrs_4_en-GB,4,,FHRS,10
47048,Boston Playtowers Ltd,Rochford Tower Lane,,Fishtoft,Playtowers Ltd,Restaurant/Cafe/Canteen,1,5,,231673,5,,52.98060300000000,2311,219,env.serv@boston.gov.uk,Boston,http://www.boston.gov.uk,0.01058200000000,PE21 9RH,2014-07-04,fhrs_5_en-GB,5,,FHRS,5
47049,Plummers Place,Shore Road,,Freiston,Plummers Place Guest House,Hotel/bed & breakfast/guest house,7842,5,,231734,5,,52.96028500000000,5437,219,env.serv@boston.gov.uk,Boston,http://www.boston.gov.uk,0.07689400000000,PE22 0LY,2014-02-21,fhrs_4_en-GB,4,,FHRS,10
47050,The Poacher Country Hotel,Swineshead Road,,Kirton Holme,Poacher's Country Hotel,Pub/bar/nightclub,7843,0,,231419,5,,52.96552000000000,999,219,env.serv@boston.gov.uk,Boston,http://www.boston.gov.uk,-0.11077900000000,PE20 1SQ,2013-01-15,fhrs_5_en-GB,5,,FHRS,0
47051,The Post Office Store,Church End,,Wrangle,Post Office & General Store,Retailers - other,4613,10,,231442,5,,53.03795200000000,1085,219,env.serv@boston.gov.uk,Boston,http://www.boston.gov.uk,0.12197300000000,PE22 9EH,2014-12-19,fhrs_4_en-GB,4,,FHRS,5
47052,,Gauntlett Road,,Bicker,Post Office and General Store,Retailers - other,4613,5,,231429,5,,52.92453400000000,940,219,env.serv@boston.gov.uk,Boston,http://www.boston.gov.uk,-0.18120400000000,PE20 3BX,2014-04-28,fhrs_5_en-GB,5,,FHRS,5
47053,,6 Pescod Square,,Boston,Poundland,Retailers - other,4613,5,,231395,5,,52.97865300000000,6930,219,env.serv@boston.gov.uk,Boston,http://www.boston.gov.uk,-0.02165300000000,PE21 6QX,2014-09-24,fhrs_5_en-GB,5,,FHRS,5
47054,Poundstretchers,13 Market Place,,Boston,Poundstretcher,Retailers - other,4613,5,,231668,5,,52.97763100000000,341,219,env.serv@boston.gov.uk,Boston,http://www.boston.gov.uk,-0.02292100000000,PE21 6EH,2014-05-16,fhrs_4_en-GB,4,,FHRS,10
47055,Prezzo,20 Wide Bargate,,Boston,Prezzo,Restaurant/Cafe/Canteen,1,0,,231551,0,,52.97991900000000,6856,219,env.serv@boston.gov.uk,Boston,http://www.boston.gov.uk,-0.02263800000000,PE21 6RF,2014-12-08,fhrs_5_en-GB,5,,FHRS,5
47056,,Mill Lane,,Butterwick,Produce World Butterwick Limited,Restaurant/Cafe/Canteen,1,,,619739,,,52.98862700000000,9159,219,env.serv@boston.gov.uk,Boston,http://www.boston.gov.uk,0.05861700000000,PE22 0JQ,,fhrs_awaitinginspection_en-GB,AwaitingInspection,,FHRS,
47057,,Church End,,"Wrangle, Boston",Proposed Butchers Shop,Retailers - other,4613,,,231732,,,53.03795200000000,8409,219,env.serv@boston.gov.uk,Boston,http://www.boston.gov.uk,0.12197300000000,PE22 9EH,,fhrs_awaitinginspection_en-GB,AwaitingInspection,,FHRS,
47058,Qd Stores,22 Strait Bargate,,Boston,Q D Stores,Retailers - other,4613,5,,438648,5,,,8542,219,env.serv@boston.gov.uk,Boston,http://www.boston.gov.uk,,PE21 6LL,2013-06-05,fhrs_5_en-GB,5,,FHRS,5
47059,,Wellington Road,,Boston,Queen of Spades Public House,Pub/bar/nightclub,7843,5,,231660,5,,52.97524200000000,1321,219,env.serv@boston.gov.uk,Boston,http://www.boston.gov.uk,-0.00424800000000,PE21 0NX,2013-08-28,fhrs_4_en-GB,4,,FHRS,10
47060,Den Ric Meadows,Washdike Road,,Algarkirk,Quick Bites,Mobile caterer,7846,5,,564586,5,,52.89187400000000,8954,219,env.serv@boston.gov.uk,Boston,http://www.boston.gov.uk,-0.07191400000000,PE20 2AW,2014-10-20,fhrs_5_en-GB,5,,FHRS,5
47061,Railway Inn,84 London Road,,Boston,Railway Pub,Pub/bar/nightclub,7843,5,,478793,5,,52.96512500000000,8637,219,env.serv@boston.gov.uk,Boston,http://www.boston.gov.uk,-0.02776500000000,PE21 7EQ,2013-01-02,fhrs_5_en-GB,5,,FHRS,5
47062,,52 Saddlers Way,,Fishtoft,Rainbow Coffee Company,Mobile caterer,7846,,,706001,,,52.96421000000000,39243,219,env.serv@boston.gov.uk,Boston,http://www.boston.gov.uk,0.00218200000000,PE21 0BB,,fhrs_awaitinginspection_en-GB,AwaitingInspection,,FHRS,
47063,,London Road,,Boston,Rainbow Landscaping Centre,Restaurant/Cafe/Canteen,1,5,,231831,5,,52.91988800000000,6601,219,env.serv@boston.gov.uk,Boston,http://www.boston.gov.uk,-0.07575700000000,PE20 1PX,2013-11-18,fhrs_5_en-GB,5,,FHRS,5
47064,"Ralphlands, Hope Health Limited Care Home",Ralphs Lane,,Frampton,Ralphland Care Home,Hospitals/Childcare/Caring Premises,5,5,,231618,5,,52.95016100000000,7266,219,env.serv@boston.gov.uk,Boston,http://www.boston.gov.uk,-0.05101300000000,PE20 1QU,2014-07-22,fhrs_5_en-GB,5,,FHRS,5
47065,Red Cow Inn,Gaysfield Road,,Fishtoft,Red Cow,Pub/bar/nightclub,7843,5,,231374,5,,52.95988800000000,877,219,env.serv@boston.gov.uk,Boston,http://www.boston.gov.uk,0.02805400000000,PE21 0SF,2014-01-10,fhrs_5_en-GB,5,,FHRS,5
47066,Red Cow Hotel,48 Wide Bargate,,Boston,Red Cow Hotel,Pub/bar/nightclub,7843,5,,231747,5,,52.98133000000000,709,219,env.serv@boston.gov.uk,Boston,http://www.boston.gov.uk,-0.01987700000000,PE21 6RY,2014-07-30,fhrs_4_en-GB,4,,FHRS,10
47067,British Red Cross Society,Liquorpond Street,,Boston,Red Cross Hall,Other catering premises,7841,,,232006,,,52.97454500000000,442,219,env.serv@boston.gov.uk,Boston,http://www.boston.gov.uk,-0.02818600000000,PE21 8UJ,2014-05-06,fhrs_exempt_en-GB,Exempt,,FHRS,
47068,Westholme,6 Lowgate Lane,,Bicker,Rees,Hospitals/Childcare/Caring Premises,5,,,231935,,,52.92243300000000,7608,219,env.serv@boston.gov.uk,Boston,http://www.boston.gov.uk,-0.18078700000000,PE20 3DG,2014-05-07,fhrs_exempt_en-GB,Exempt,,FHRS,
47069,Rice & Spice,55 Wide Bargate,,Boston,Rice and Spice,Takeaway/sandwich shop,7844,5,,231486,5,,52.98028500000000,8029,219,env.serv@boston.gov.uk,Boston,http://www.boston.gov.uk,-0.01922500000000,PE21 6SH,2014-05-29,fhrs_5_en-GB,5,,FHRS,5
47070,,Sibsey Lane,,Boston,Ridlington Centre,Hospitals/Childcare/Caring Premises,5,,,508491,,,52.97710700000000,8704,219,env.serv@boston.gov.uk,Boston,http://www.boston.gov.uk,-0.02220000000000,PE21 6HB,,fhrs_awaitinginspection_en-GB,AwaitingInspection,,FHRS,
47071,,Skeldyke Road,,"Kirton, Boston",Ripe Now Ltd,Importers/Exporters,14,,,448468,,,52.92628300000000,8583,219,env.serv@boston.gov.uk,Boston,http://www.boston.gov.uk,-0.04503400000000,PE20 1LR,2014-04-28,fhrs_exempt_en-GB,Exempt,,FHRS,
47072,Riverside Play Group,Witham Bank East,,Boston,Riverside Early Years,School/college/university,7845,5,,231704,5,,52.98364200000000,906,219,env.serv@boston.gov.uk,Boston,http://www.boston.gov.uk,-0.03189800000000,PE21 9JU,2014-06-03,fhrs_5_en-GB,5,,FHRS,5
47073,Grove Lodge,Blackjack Road,,Swineshead,Roadrunner Pizza Delivery,Takeaway/sandwich shop,7844,5,,231769,5,,52.93826800000000,429,219,env.serv@boston.gov.uk,Boston,http://www.boston.gov.uk,-0.14717500000000,PE20 3JZ,2013-08-05,fhrs_4_en-GB,4,,FHRS,10
47074,,105 High Street,,Boston,Rob and Jan's Off Licence,Retailers - other,4613,5,,231366,5,,52.97255000000000,7062,219,env.serv@boston.gov.uk,Boston,http://www.boston.gov.uk,-0.02498500000000,PE21 8TG,2014-04-28,fhrs_5_en-GB,5,,FHRS,5
47075,Robin Hood,104 High Street,,Boston,Robin Hood Inn,Pub/bar/nightclub,7843,10,,232026,5,,52.97337000000000,230,219,env.serv@boston.gov.uk,Boston,http://www.boston.gov.uk,-0.02512600000000,PE21 8TA,2013-03-06,fhrs_4_en-GB,4,,FHRS,5
47076,Ropers Arms,34 Horncastle Road,,Boston,Ropers Arms,Pub/bar/nightclub,7843,5,,231921,5,,52.98439700000000,672,219,env.serv@boston.gov.uk,Boston,http://www.boston.gov.uk,-0.01891800000000,PE21 9BU,2014-04-30,fhrs_5_en-GB,5,,FHRS,5
47077,Rose Of Bengal,65-69 West Street,,Boston,Rose of Bengal,Restaurant/Cafe/Canteen,1,10,,231614,10,,52.97605100000000,1785,219,env.serv@boston.gov.uk,Boston,http://www.boston.gov.uk,-0.02956200000000,PE21 8QZ,2013-08-27,fhrs_3_en-GB,3,,FHRS,5
47078,,1 Lime Grove,,Fishtoft,Ross Family Caterers,Mobile caterer,7846,10,,231937,10,,52.96656300000000,8285,219,env.serv@boston.gov.uk,Boston,http://www.boston.gov.uk,-0.00137200000000,PE21 0BX,2013-11-11,fhrs_3_en-GB,3,,FHRS,10
47079,Rumblin Tum Cafe,3 Fish Hill,,Boston,Rumblin Tum,Restaurant/Cafe/Canteen,1,5,,231387,5,,52.97738700000000,7220,219,env.serv@boston.gov.uk,Boston,http://www.boston.gov.uk,-0.02445200000000,PE21 6NN,2015-01-15,fhrs_5_en-GB,5,,FHRS,5
47080,,Redstone Road,,Boston,Sack Store,Restaurant/Cafe/Canteen,1,10,,232039,10,,52.96916000000000,33,219,env.serv@boston.gov.uk,Boston,http://www.boston.gov.uk,-0.03145400000000,PE21 8EA,2013-10-03,fhrs_3_en-GB,3,,FHRS,10
47081,,High Street,,Boston,Salvation Army Citadel,Other catering premises,7841,5,,231639,5,,52.97479100000000,290,219,env.serv@boston.gov.uk,Boston,http://www.boston.gov.uk,-0.02516600000000,PE21 8ST,2014-02-05,fhrs_5_en-GB,5,,FHRS,0
47082,Samba Brazil,51 West Street,,Boston,Samba Brasil,Restaurant/Cafe/Canteen,1,10,,232004,10,,52.97643300000000,6866,219,env.serv@boston.gov.uk,Boston,http://www.boston.gov.uk,-0.02765300000000,PE21 8QN,2013-11-07,fhrs_3_en-GB,3,,FHRS,10
47083,,106 Fishtoft Road,,Boston,Sandwich Time,Retailers - other,4613,5,,682770,5,,52.96782400000000,39230,219,env.serv@boston.gov.uk,Boston,http://www.boston.gov.uk,-0.00636200000000,PE21 0DG,2014-08-06,fhrs_5_en-GB,5,,FHRS,5
47084,Scooby Doos,Rosegarth Street,,Boston,Scooby Doos,Retailers - other,4613,5,,231500,5,,52.97643300000000,2672,219,env.serv@boston.gov.uk,Boston,http://www.boston.gov.uk,-0.02765300000000,PE21 8QN,2014-05-01,fhrs_5_en-GB,5,,FHRS,5
47085,"See-Saw Day Nursery, Boston West Business Centre",Sleaford Road,,Boston,See Saw Day Nursery,Hospitals/Childcare/Caring Premises,5,10,,231677,5,,52.97539300000000,4631,219,env.serv@boston.gov.uk,Boston,http://www.boston.gov.uk,-0.03322600000000,PE21 8EG,2014-11-18,fhrs_4_en-GB,4,,FHRS,5
47086,Select and Save,One Way Street,,"Sutterton, Boston",Select and Save,Retailers - other,4613,5,,231494,5,,52.90343100000000,1037,219,env.serv@boston.gov.uk,Boston,http://www.boston.gov.uk,-0.09111700000000,PE20 2JQ,2013-05-15,fhrs_5_en-GB,5,,FHRS,5
47087,,50 Market Place,,Boston,Seventh Heaven,Restaurant/Cafe/Canteen,1,0,,231712,0,,52.97794400000000,4580,219,env.serv@boston.gov.uk,Boston,http://www.boston.gov.uk,-0.02442600000000,PE21 6NF,2015-02-10,fhrs_5_en-GB,5,,FHRS,5
47088,Sezam,7-9 Pen Street,,Boston,Sezam,Retailers - other,4613,5,,231838,5,,52.97943800000000,8002,219,env.serv@boston.gov.uk,Boston,http://www.boston.gov.uk,-0.01965100000000,PE21 6TJ,2013-07-30,fhrs_4_en-GB,4,,FHRS,10
47089,Sheena's,36 Shaw Road,,Boston,Sheena's,Takeaway/sandwich shop,7844,0,,232096,5,,52.98545100000000,457,219,env.serv@boston.gov.uk,Boston,http://www.boston.gov.uk,-0.04020300000000,PE21 8LZ,2014-12-19,fhrs_5_en-GB,5,,FHRS,0
47090,Sheepgate Equestrian,Sheepgate,,Leverton,Sheepgate Nursery,Restaurant/Cafe/Canteen,1,5,,231461,5,,53.01000100000000,1027,219,env.serv@boston.gov.uk,Boston,http://www.boston.gov.uk,0.09497700000000,PE22 0AS,2014-04-28,fhrs_5_en-GB,5,,FHRS,0
47091,Shephards,21 Wide Bargate,,Boston,Shephards,Restaurant/Cafe/Canteen,1,5,,231720,5,,52.97985300000000,1309,219,env.serv@boston.gov.uk,Boston,http://www.boston.gov.uk,-0.02083800000000,PE21 6SR,2014-08-04,fhrs_5_en-GB,5,,FHRS,5
47092,The Sidings,Station Road,,Swineshead,Sheppard's Delight,Mobile caterer,7846,,,492610,,,52.95189400000000,8668,219,env.serv@boston.gov.uk,Boston,http://www.boston.gov.uk,-0.16551300000000,PE20 3NX,,fhrs_awaitinginspection_en-GB,AwaitingInspection,,FHRS,
47093,The Ship Inn,Moulton Washway,,Fosdyke Bridge,Ship Inn,Pub/bar/nightclub,7843,5,,231568,5,,52.87095100000000,930,219,env.serv@boston.gov.uk,Boston,http://www.boston.gov.uk,-0.04162400000000,PE12 6LH,2014-12-30,fhrs_5_en-GB,5,,FHRS,5
47094,Ship Tavern,Customhouse Lane,,Boston,Ship Tavern,Pub/bar/nightclub,7843,5,,232099,5,,52.97659500000000,133,219,env.serv@boston.gov.uk,Boston,http://www.boston.gov.uk,-0.02277500000000,PE21 6HH,2014-01-27,fhrs_4_en-GB,4,,FHRS,10
47095,Singthai Market,140a West Street,,Boston,Singthai Market,Retailers - other,4613,5,,482041,5,,52.97636600000000,8656,219,env.serv@boston.gov.uk,Boston,http://www.boston.gov.uk,-0.03014300000000,PE21 8RE,2014-06-10,fhrs_5_en-GB,5,,FHRS,5
47096,Skinners Ice Cream,1 Kingsway,,Boston,Skinners Ice Cream,Manufacturers/packers,7839,5,,232007,5,,52.97015100000000,250,219,env.serv@boston.gov.uk,Boston,http://www.boston.gov.uk,-0.00622500000000,PE21 0AN,2013-07-24,fhrs_5_en-GB,5,,FHRS,5
47097,Skirbeck Court,55a Spilsby Road,,Boston,Skirbeck Court,Hospitals/Childcare/Caring Premises,5,5,,231929,5,,52.98345700000000,1124,219,env.serv@boston.gov.uk,Boston,http://www.boston.gov.uk,-0.01319500000000,PE21 9NU,2014-03-10,fhrs_5_en-GB,5,,FHRS,5
47098,Oldrid and Co Ltd,11 Strait Bargate,,Boston,Smoothy Bar (Oldrids),Restaurant/Cafe/Canteen,1,0,,231469,5,,52.97886900000000,4462,219,env.serv@boston.gov.uk,Boston,http://www.boston.gov.uk,-0.02277500000000,PE21 6UF,2013-01-16,fhrs_5_en-GB,5,,FHRS,0
47099,The Westbridge Centre,New Hammond Beck Road,,Wyberton Fen,Snak Shak,Mobile caterer,7846,5,,438649,5,,52.96919500000000,8544,219,env.serv@boston.gov.uk,Boston,http://www.boston.gov.uk,-0.07143800000000,PE21 7JD,2014-03-21,fhrs_5_en-GB,5,,FHRS,5
47100,Spar,6 Priory Road,,Fishtoft,Spar News Ltd,Retailers - other,4613,5,,232074,5,,52.97690900000000,918,219,env.serv@boston.gov.uk,Boston,http://www.boston.gov.uk,0.01632400000000,PE21 0RA,2014-04-28,fhrs_5_en-GB,5,,FHRS,5
47101,Wyberton Spar Stores,67 Parthian Avenue,,Wyberton,Spar Wyberton,Retailers - other,4613,5,,231612,5,,52.95016800000000,1098,219,env.serv@boston.gov.uk,Boston,http://www.boston.gov.uk,-0.04215600000000,PE21 7DQ,2014-02-03,fhrs_5_en-GB,5,,FHRS,5
47102,Sherwood House,Cowbroads Lane,,Old Leake,Special Moments,Retailers - other,4613,,,465664,,,53.04127600000000,8635,219,env.serv@boston.gov.uk,Boston,http://www.boston.gov.uk,0.07830900000000,PE22 9QU,,fhrs_awaitinginspection_en-GB,AwaitingInspection,,FHRS,
47103,,19 West Street,,Boston,Speedy Pepper,Takeaway/sandwich shop,7844,10,,231917,5,,52.97643300000000,1829,219,env.serv@boston.gov.uk,Boston,http://www.boston.gov.uk,-0.02765300000000,PE21 8QN,2014-08-06,fhrs_3_en-GB,3,,FHRS,10
47104,Wyberton Sports And Social Club,Causeway,,Wyberton,Sports & Social Club,Pub/bar/nightclub,7843,5,,231390,5,,52.95172500000000,1091,219,env.serv@boston.gov.uk,Boston,http://www.boston.gov.uk,-0.03675600000000,PE21 7BS,2013-12-20,fhrs_5_en-GB,5,,FHRS,5
47105,,Market Place,,Boston,St Botolphs Church,Restaurant/Cafe/Canteen,1,5,,231884,5,,52.97717900000000,2111,219,env.serv@boston.gov.uk,Boston,http://www.boston.gov.uk,-0.02382100000000,PE21 6NH,2014-06-19,fhrs_5_en-GB,5,,FHRS,5
47106,St Georges Preparatory School,126 London Road,,Boston,St George's Preparatory School,School/college/university,7845,,,544919,,,52.96307400000000,8769,219,env.serv@boston.gov.uk,Boston,http://www.boston.gov.uk,-0.03153700000000,PE21 7HB,,fhrs_exempt_en-GB,Exempt,,FHRS,
47107,St Johns Nursing Home,White House Lane,,Fishtoft,St Johns Nursing Home,Hospitals/Childcare/Caring Premises,5,0,,231650,0,,52.96877200000000,1202,219,env.serv@boston.gov.uk,Boston,http://www.boston.gov.uk,0.00091900000000,PE21 0BE,2014-04-03,fhrs_5_en-GB,5,,FHRS,5
47108,St Marys Rc Primary School,Ashlawn Drive,,Boston,St Mary's RC Primary School,School/college/university,7845,5,,231613,5,,52.98297000000000,43,219,env.serv@boston.gov.uk,Boston,http://www.boston.gov.uk,-0.01095300000000,PE21 9PX,2014-04-30,fhrs_5_en-GB,5,,FHRS,5
47109,,9-10 South Terrace,,Boston,St Matthew Society,Hospitals/Childcare/Caring Premises,5,5,,232025,5,,52.97207100000000,530,219,env.serv@boston.gov.uk,Boston,http://www.boston.gov.uk,-0.02211700000000,PE21 6BA,2014-05-06,fhrs_5_en-GB,5,,FHRS,5
47110,,Fishtoft Road,,Boston,St Nicholas Church and Community Hall,Other catering premises,7841,5,,231528,5,,52.97019000000000,167,219,env.serv@boston.gov.uk,Boston,http://www.boston.gov.uk,-0.01285100000000,PE21 0AA,2014-06-12,fhrs_5_en-GB,5,,FHRS,5
47111,St Nicholas C Of E Primary School,Woad Farm Road,,Boston,St Nicholas Primary School,School/college/university,7845,0,,231872,5,,52.97409400000000,690,219,env.serv@boston.gov.uk,Boston,http://www.boston.gov.uk,-0.00652100000000,PE21 0EF,2014-05-12,fhrs_5_en-GB,5,,FHRS,5
47112,,Cemetery Road,,Bicker,St Swithins Church,Other catering premises,7841,5,,231423,5,,52.92581000000000,964,219,env.serv@boston.gov.uk,Boston,http://www.boston.gov.uk,-0.18049500000000,,2013-09-07,fhrs_4_en-GB,4,,FHRS,10
47113,,Wyberton Low Road,,Boston,St Thomas' Childrens Centre,Hospitals/Childcare/Caring Premises,5,,,231576,,,52.95945300000000,3504,219,env.serv@boston.gov.uk,Boston,http://www.boston.gov.uk,-0.01920900000000,PE21 7SE,,fhrs_awaitinginspection_en-GB,AwaitingInspection,,FHRS,
47114,,London Road,,Boston,St Thomas Church and Church Hall,Other catering premises,7841,10,,231590,10,,52.96971800000000,263,219,env.serv@boston.gov.uk,Boston,http://www.boston.gov.uk,-0.02660300000000,PE21 8AG,2014-04-08,fhrs_3_en-GB,3,,FHRS,10
47115,Star Of India,110-112 West Street,,Boston,Star of India,Restaurant/Cafe/Canteen,1,20,,231826,15,,52.97643300000000,1341,219,env.serv@boston.gov.uk,Boston,http://www.boston.gov.uk,-0.02765300000000,PE21 8QN,2014-12-09,fhrs_1_en-GB,1,,FHRS,15
47116,,47 Wide Bargate,,Boston,Starrs Florist,Restaurant/Cafe/Canteen,1,5,,657258,5,,52.98033700000000,9273,219,env.serv@boston.gov.uk,Boston,http://www.boston.gov.uk,-0.01911800000000,PE21 6SH,2014-05-21,fhrs_5_en-GB,5,,FHRS,5
47117,Supreme Inns,Donington Road,,Bicker,Supreme Inns,Hotel/bed & breakfast/guest house,7842,5,,231966,5,,52.93044400000000,939,219,env.serv@boston.gov.uk,Boston,http://www.boston.gov.uk,-0.15805800000000,PE20 3AN,2013-08-02,fhrs_5_en-GB,5,,FHRS,5
47118,Lincolnshire Sure Start,27 Norfolk Street,,Boston,Sure Start,Hospitals/Childcare/Caring Premises,5,5,,231504,10,,52.98196000000000,4986,219,env.serv@boston.gov.uk,Boston,http://www.boston.gov.uk,-0.02749000000000,PE21 6PW,2014-05-12,fhrs_4_en-GB,4,,FHRS,5
47119,Sure Start,3 Fishtoft Road,,Boston,Sure Start - Boston,Other catering premises,7841,5,,231467,10,,52.97019000000000,4416,219,env.serv@boston.gov.uk,Boston,http://www.boston.gov.uk,-0.01285100000000,PE21 0AA,2014-04-28,fhrs_4_en-GB,4,,FHRS,5
47120,Sutterton Caravan And Camping Centre,Post Office Lane,,Sutterton,Sutterton Caravans Ltd,Other catering premises,7841,0,,231866,5,,52.90532600000000,1041,219,env.serv@boston.gov.uk,Boston,http://www.boston.gov.uk,-0.09488600000000,PE20 2EB,2014-04-29,fhrs_5_en-GB,5,,FHRS,5
47121,Fish And Chip Shop,Spalding Road,,Sutterton,Sutterton Fish and Chip Shop,Takeaway/sandwich shop,7844,5,,231498,5,,52.90175700000000,1044,219,env.serv@boston.gov.uk,Boston,http://www.boston.gov.uk,-0.09767400000000,PE20 2ET,2013-07-24,fhrs_5_en-GB,5,,FHRS,5
47122,,,,,Sweet Inspirations,Other catering premises,7841,,,584617,,,,9113,219,env.serv@boston.gov.uk,Boston,http://www.boston.gov.uk,,,,fhrs_awaitinginspection_en-GB,AwaitingInspection,,FHRS,
47123,,31 Horncastle Road,,Boston,Sweet Treats Cake Boutique,Restaurant/Cafe/Canteen,1,5,,336095,5,,52.98439700000000,8423,219,env.serv@boston.gov.uk,Boston,http://www.boston.gov.uk,-0.01891800000000,PE21 9BU,2014-05-06,fhrs_5_en-GB,5,,FHRS,5
47124,Edwards Emporium,9 Dolphin Lane,,Boston,Sweets and Treats,Retailers - other,4613,5,,564582,5,,52.97800400000000,8948,219,env.serv@boston.gov.uk,Boston,http://www.boston.gov.uk,-0.02265100000000,PE21 6EU,2014-04-25,fhrs_5_en-GB,5,,FHRS,5
47125,,South Street,,Swineshead,Swineshead Chippy,Takeaway/sandwich shop,7844,5,,231550,10,,52.94532300000000,29,219,env.serv@boston.gov.uk,Boston,http://www.boston.gov.uk,-0.14645700000000,PE20 3LB,2014-07-18,fhrs_3_en-GB,3,,FHRS,10
47126,Swineshead Pre-School Centre,North End,,"Swineshead, Boston",Swineshead Pre-School Centre,Hospitals/Childcare/Caring Premises,5,0,,231699,5,,52.95574100000000,7189,219,env.serv@boston.gov.uk,Boston,http://www.boston.gov.uk,-0.16898300000000,PE20 3LZ,2015-01-28,fhrs_5_en-GB,5,,FHRS,5
47127,,Market Place,,Boston,Swineshead Village Store,Retailers - other,4613,10,,232040,10,,52.94558400000000,1054,219,env.serv@boston.gov.uk,Boston,http://www.boston.gov.uk,-0.15921600000000,PE20 3LJ,2013-07-31,fhrs_3_en-GB,3,,FHRS,5
47128,Swinfields,Butlers Way,,Swineshead,Swinfields,Other catering premises,7841,,,231444,,,52.94423600000000,1756,219,env.serv@boston.gov.uk,Boston,http://www.boston.gov.uk,-0.15695200000000,PE20 3HD,2014-09-01,fhrs_exempt_en-GB,Exempt,,FHRS,
47129,,90 High Street,,Boston,Swojskie Jadlo,Takeaway/sandwich shop,7844,5,,729268,5,,52.97337000000000,39266,219,env.serv@boston.gov.uk,Boston,http://www.boston.gov.uk,-0.02512600000000,PE21 8TA,2015-01-22,fhrs_5_en-GB,5,,FHRS,5
47130,,15 Bridge Street,,Boston,Swojskie Jadlo U Heleny Ltd,Takeaway/sandwich shop,7844,5,,499724,5,,52.97644500000000,8692,219,env.serv@boston.gov.uk,Boston,http://www.boston.gov.uk,-0.02512000000000,PE21 8QF,2013-11-26,fhrs_4_en-GB,4,,FHRS,10
47131,The Sycamores,Scotia Road,,Fishtoft,Sycamores,Other catering premises,7841,10,,231976,5,,52.96326000000000,923,219,env.serv@boston.gov.uk,Boston,http://www.boston.gov.uk,0.02325300000000,PE21 0RL,2014-04-28,fhrs_4_en-GB,4,,FHRS,5
47132,,4 Rosegarth Street,,Boston,T & R Polish Butchers,Retailers - other,4613,,,611264,,,52.97662700000000,9145,219,env.serv@boston.gov.uk,Boston,http://www.boston.gov.uk,-0.02739100000000,PE21 8QU,,fhrs_awaitinginspection_en-GB,AwaitingInspection,,FHRS,
47133,,120 Windsor Bank,,Boston,Tasty Tates,Mobile caterer,7846,5,,371648,0,,52.97134100000000,8461,219,env.serv@boston.gov.uk,Boston,http://www.boston.gov.uk,-0.01339400000000,PE21 0HS,2012-05-09,fhrs_5_en-GB,5,,FHRS,0
47134,,,,,Tasty Tucker 1 (Event Cater),Mobile caterer,7846,5,,231518,5,,,3801,219,env.serv@boston.gov.uk,Boston,http://www.boston.gov.uk,,,2014-03-11,fhrs_5_en-GB,5,,FHRS,5
47135,,,,,Tasty Tucker DG I  Market Pl Site,Mobile caterer,7846,5,,231892,5,,,2092,219,env.serv@boston.gov.uk,Boston,http://www.boston.gov.uk,,,2014-02-26,fhrs_5_en-GB,5,,FHRS,5
47136,Tates Fish Restaurant,4-6 New Street,,Boston,Tates Fish & Chip Shop,Takeaway/sandwich shop,7844,5,,231703,0,,52.97928900000000,405,219,env.serv@boston.gov.uk,Boston,http://www.boston.gov.uk,-0.02366500000000,PE21 6LP,2014-12-08,fhrs_5_en-GB,5,,FHRS,5
47137,West Virginia,Lowfields Road,,Benington,Ted's Veg,Farmers/growers,7838,5,,232058,10,,53.00153200000000,5548,219,env.serv@boston.gov.uk,Boston,http://www.boston.gov.uk,0.06727900000000,PE22 0EJ,2014-04-28,fhrs_3_en-GB,3,,FHRS,10
47138,Westbridge Centre,New Hammond Beck Road,,Wyberton Fen,Tesco Staff Restaurant,Other catering premises,7841,,,231993,,,52.96919500000000,7551,219,env.serv@boston.gov.uk,Boston,http://www.boston.gov.uk,-0.07143800000000,PE21 7JD,2015-02-10,fhrs_exempt_en-GB,Exempt,,FHRS,
47139,Tesco Stores Ltd,Westbridge Road,,Wyberton,Tesco Stores,Retailers - supermarkets/hypermarkets,7840,5,,231715,5,,52.96919500000000,199,219,env.serv@boston.gov.uk,Boston,http://www.boston.gov.uk,-0.07143800000000,PE21 7JD,2014-11-25,fhrs_5_en-GB,5,,FHRS,5
47140,,Station Approach,,Boston,Thai House,Restaurant/Cafe/Canteen,1,5,,231813,5,,52.97812500000000,8151,219,env.serv@boston.gov.uk,Boston,http://www.boston.gov.uk,-0.03100200000000,PE21 8RN,2013-04-23,fhrs_5_en-GB,5,,FHRS,5
47141,Thatched Cottage Restaurant,Pools Lane,,Sutterton,Thatched Cottage,Restaurant/Cafe/Canteen,1,10,,231723,10,,52.90277000000000,898,219,env.serv@boston.gov.uk,Boston,http://www.boston.gov.uk,-0.09581500000000,PE20 2EZ,2014-12-02,fhrs_3_en-GB,3,,FHRS,10
47142,Angel Inn,Church End,,Wrangle,The Angel Inn,Pub/bar/nightclub,7843,5,,232005,5,,53.03561500000000,1086,219,env.serv@boston.gov.uk,Boston,http://www.boston.gov.uk,0.12144100000000,PE22 9EW,2013-07-12,fhrs_4_en-GB,4,,FHRS,10
47143,Arbor Club,10 South Street,,Boston,The Arbour Club,Pub/bar/nightclub,7843,,,231525,,,52.97658700000000,667,219,env.serv@boston.gov.uk,Boston,http://www.boston.gov.uk,-0.02285000000000,PE21 6HE,2014-07-01,fhrs_exempt_en-GB,Exempt,,FHRS,
47144,The Ball House,Wainfleet Road,,Boston,The Ball House Ltd,Pub/bar/nightclub,7843,5,,231544,5,,52.98615400000000,1518,219,env.serv@boston.gov.uk,Boston,http://www.boston.gov.uk,0.00872400000000,PE21 9RL,2014-06-16,fhrs_5_en-GB,5,,FHRS,5
47145,The Barge,Main Road,,Swineshead Bridge,The Barge Pub Restaurant,Pub/bar/nightclub,7843,5,,231735,5,,52.96995400000000,1077,219,env.serv@boston.gov.uk,Boston,http://www.boston.gov.uk,-0.18769700000000,PE20 3PT,2014-12-21,fhrs_5_en-GB,5,,FHRS,5
47146,The Black Bull,23 London Road,,Kirton,The Black Bull,Pub/bar/nightclub,7843,5,,232097,5,,52.92562900000000,1205,219,env.serv@boston.gov.uk,Boston,http://www.boston.gov.uk,-0.06276700000000,PE20 1JE,2014-07-28,fhrs_5_en-GB,5,,FHRS,5
47147,The Black Sluice Cafe,South Forty Foot Bank,,Boston,The Black Sluice Lock Cottage Cafe,Restaurant/Cafe/Canteen,1,10,,231539,10,,52.96635100000000,7538,219,env.serv@boston.gov.uk,Boston,http://www.boston.gov.uk,-0.02692000000000,PE21 7RA,2013-08-19,fhrs_3_en-GB,3,,FHRS,10
47148,The Boston Still,23 Market Place,,Boston,The Boston Still,Pub/bar/nightclub,7843,5,,232072,5,,52.97763100000000,329,219,env.serv@boston.gov.uk,Boston,http://www.boston.gov.uk,-0.02292100000000,PE21 6EH,2012-11-06,fhrs_4_en-GB,4,,FHRS,10
47149,The Britannia,4-8 Church Street,,Boston,The Britannia,Pub/bar/nightclub,7843,5,,231846,10,,52.97776500000000,130,219,env.serv@boston.gov.uk,Boston,http://www.boston.gov.uk,-0.02500000000000,PE21 6NW,2014-01-09,fhrs_4_en-GB,4,,FHRS,5
47150,,The Layby,,Main Road,The Burger Bar,Mobile caterer,7846,5,,231829,5,,53.04457000000000,6298,219,env.serv@boston.gov.uk,Boston,http://www.boston.gov.uk,0.14794300000000,PE22 9AT,2013-12-04,fhrs_4_en-GB,4,,FHRS,10
47151,The Castle Inn,Wainfleet Road,,Freiston,The Castle Inn,Pub/bar/nightclub,7843,5,,231741,5,,52.98594900000000,760,219,env.serv@boston.gov.uk,Boston,http://www.boston.gov.uk,0.03870500000000,PE22 0PF,2014-11-20,fhrs_5_en-GB,5,,FHRS,5
47152,The Codfather,2 Station Road,,Kirton,The Codfather,Takeaway/sandwich shop,7844,5,,231680,5,,52.92872100000000,1008,219,env.serv@boston.gov.uk,Boston,http://www.boston.gov.uk,-0.05773400000000,PE20 1EE,2013-11-21,fhrs_5_en-GB,5,,FHRS,5
47153,The Corner Shop,65 Tunnard Street,,Boston,The Corner Shop,Retailers - other,4613,10,,231514,0,,52.98143100000000,580,219,env.serv@boston.gov.uk,Boston,http://www.boston.gov.uk,-0.02541400000000,PE21 6PL,2014-12-17,fhrs_4_en-GB,4,,FHRS,0
47154,,32 Grosvenor Road,,Frampton,The Country Gourmet,Mobile caterer,7846,5,,231728,5,,52.93266200000000,6185,219,env.serv@boston.gov.uk,Boston,http://www.boston.gov.uk,-0.05138300000000,PE20 1DB,2012-12-05,fhrs_4_en-GB,4,,FHRS,10
47155,The Country Gourmet,4 Pen Street,,Boston,The Country Gourmet,Restaurant/Cafe/Canteen,1,10,,231530,10,,52.97943800000000,3953,219,env.serv@boston.gov.uk,Boston,http://www.boston.gov.uk,-0.01965100000000,PE21 6TJ,2014-01-23,fhrs_3_en-GB,3,,FHRS,10
47156,The Eagle,144 West Street,,Boston,The Eagle Public House,Pub/bar/nightclub,7843,5,,231430,5,,52.97636600000000,653,219,env.serv@boston.gov.uk,Boston,http://www.boston.gov.uk,-0.03014300000000,PE21 8RE,2014-10-21,fhrs_5_en-GB,5,,FHRS,5
47157,,89 London Road,,Boston,The Food Bar,Other catering premises,7841,,,682772,,,52.96422400000000,39233,219,env.serv@boston.gov.uk,Boston,http://www.boston.gov.uk,-0.02983200000000,PE21 7EW,,fhrs_awaitinginspection_en-GB,AwaitingInspection,,FHRS,
47158,Four Cross Roads Inn,Swineshead Road,,Frampton Holme,The Four Crossroads,Pub/bar/nightclub,7843,5,,231672,5,,52.96744000000000,955,219,env.serv@boston.gov.uk,Boston,http://www.boston.gov.uk,-0.08688400000000,PE20 1SF,2012-07-11,fhrs_5_en-GB,5,,FHRS,5
47159,The Garden Residential Care Home,88 Sleaford Road,,Boston,The Gardens Residential Home,Hospitals/Childcare/Caring Premises,5,5,,232002,5,,52.97662000000000,1735,219,env.serv@boston.gov.uk,Boston,http://www.boston.gov.uk,-0.04274700000000,PE21 8EY,2015-01-05,fhrs_5_en-GB,5,,FHRS,5
47160,The Georgians Nursing Home,50-52 Wide Bargate,,Boston,The Georgians,Hospitals/Childcare/Caring Premises,5,5,,231803,5,,52.98133000000000,708,219,env.serv@boston.gov.uk,Boston,http://www.boston.gov.uk,-0.01987700000000,PE21 6RY,2014-07-17,fhrs_5_en-GB,5,,FHRS,5
47161,,,,,The Good Life,Other catering premises,7841,5,,231903,10,,,7064,219,env.serv@boston.gov.uk,Boston,http://www.boston.gov.uk,,,2014-04-28,fhrs_3_en-GB,3,,FHRS,10
47162,The Elms,Boardsides,,Hubberts Bridge,The Granary,Other catering premises,7841,5,,231422,5,,52.97568100000000,8119,219,env.serv@boston.gov.uk,Boston,http://www.boston.gov.uk,-0.10637400000000,PE20 3QP,2014-05-06,fhrs_5_en-GB,5,,FHRS,5
47163,,Witham Bank East,,Boston,The Haven Cafe,Restaurant/Cafe/Canteen,1,,,637961,,,52.98364200000000,9115,219,env.serv@boston.gov.uk,Boston,http://www.boston.gov.uk,-0.03189800000000,PE21 9JU,,fhrs_awaitinginspection_en-GB,AwaitingInspection,,FHRS,
47164,,47-51 High Street,,Boston,The Home Nursery,School/college/university,7845,5,,607119,5,,52.97570600000000,9126,219,env.serv@boston.gov.uk,Boston,http://www.boston.gov.uk,-0.02445400000000,PE21 8SP,2014-10-23,fhrs_5_en-GB,5,,FHRS,5
47165,,Villa Lane,,Swineshead,The Ivy Farm Shop,Retailers - other,4613,10,,231560,5,,52.95150900000000,7361,219,env.serv@boston.gov.uk,Boston,http://www.boston.gov.uk,-0.17142400000000,PE20 3NG,2014-02-11,fhrs_4_en-GB,4,,FHRS,5
47166,The Junction Community Hall,Wash Road,,Kirton,The Junction,Other catering premises,7841,,,231765,,,52.92494700000000,7237,219,env.serv@boston.gov.uk,Boston,http://www.boston.gov.uk,-0.05296400000000,PE20 1QJ,2014-05-06,fhrs_exempt_en-GB,Exempt,,FHRS,
47167,The Limes,Horncastle Road,,Cowbridge,The Limes,Hotel/bed & breakfast/guest house,7842,,,231854,,,53.00459900000000,7633,219,env.serv@boston.gov.uk,Boston,http://www.boston.gov.uk,-0.02104800000000,PE22 7AY,,fhrs_awaitinginspection_en-GB,AwaitingInspection,,FHRS,
47168,,2 Red Lion Street,,Boston,The Little Kitchen,Restaurant/Cafe/Canteen,1,5,,231756,5,,52.97996900000000,673,219,env.serv@boston.gov.uk,Boston,http://www.boston.gov.uk,-0.02455700000000,PE21 6NY,2014-11-17,fhrs_5_en-GB,5,,FHRS,5
47169,,19 Abbey Crescent,,Swineshead,The Lunch Box,Manufacturers/packers,7839,5,,231761,5,,52.94498400000000,302,219,env.serv@boston.gov.uk,Boston,http://www.boston.gov.uk,-0.15299100000000,PE20 3ET,2013-06-03,fhrs_5_en-GB,5,,FHRS,5
47170,The Merry Monk,4-6 Willington Road,,Kirton,The Merry Monk,Restaurant/Cafe/Canteen,1,10,,231989,10,,52.92828000000000,998,219,env.serv@boston.gov.uk,Boston,http://www.boston.gov.uk,-0.06104200000000,PE20 1EH,2013-02-18,fhrs_3_en-GB,3,,FHRS,5
47171,The Mill Inn,148 Spilsby Road,,Boston,The Mill Inn,Pub/bar/nightclub,7843,0,,231856,5,,52.98811300000000,546,219,env.serv@boston.gov.uk,Boston,http://www.boston.gov.uk,-0.00724600000000,PE21 9QN,2014-02-10,fhrs_5_en-GB,5,,FHRS,5
47172,The Minstrels Care Home,Main Road,,Wrangle,The Minstrels,Hospitals/Childcare/Caring Premises,5,0,,231689,5,,53.03949100000000,1088,219,env.serv@boston.gov.uk,Boston,http://www.boston.gov.uk,0.12791100000000,PE22 9AJ,2014-06-11,fhrs_5_en-GB,5,,FHRS,5
47173,The Moon Under Water,6 High Street,,Boston,The Moon Under Water,Pub/bar/nightclub,7843,0,,231516,5,,52.97637600000000,109,219,env.serv@boston.gov.uk,Boston,http://www.boston.gov.uk,-0.02421500000000,PE21 8SH,2014-02-25,fhrs_5_en-GB,5,,FHRS,5
47174,"Cafe, The Moorings",Main Road,,Fosdyke,The Mooring's Cafe,Restaurant/Cafe/Canteen,1,5,,231722,5,,52.87592200000000,529,219,env.serv@boston.gov.uk,Boston,http://www.boston.gov.uk,-0.04538300000000,PE20 2DB,2014-05-30,fhrs_5_en-GB,5,,FHRS,5
47175,New Inn,Pen Street,,Boston,The New Inn,Pub/bar/nightclub,7843,5,,231647,5,,52.97863400000000,490,219,env.serv@boston.gov.uk,Boston,http://www.boston.gov.uk,-0.01888300000000,PE21 6TF,2013-09-16,fhrs_5_en-GB,5,,FHRS,5
47176,,Main Road,,"Wrangle, Boston",The Old Pottery,Restaurant/Cafe/Canteen,1,5,,231683,0,,53.03978800000000,1092,219,env.serv@boston.gov.uk,Boston,http://www.boston.gov.uk,0.13090900000000,PE22 9AW,2014-01-21,fhrs_5_en-GB,5,,FHRS,0
47177,Westside,Boston Road,,Sutterton,The Pig Issue,Mobile caterer,7846,5,,657256,5,,52.90607400000000,9249,219,env.serv@boston.gov.uk,Boston,http://www.boston.gov.uk,-0.08881500000000,PE20 2HD,2014-06-13,fhrs_5_en-GB,5,,FHRS,5
47178,,4 Cornhill Lane,,Boston,The Q Club,Pub/bar/nightclub,7843,10,,231707,15,,52.97769000000000,100,219,env.serv@boston.gov.uk,Boston,http://www.boston.gov.uk,-0.02268000000000,PE21 6EZ,2014-04-29,fhrs_2_en-GB,2,,FHRS,10
47179,,London Road,,Boston,The Range,Restaurant/Cafe/Canteen,1,5,,576533,5,,52.96787400000000,8961,219,env.serv@boston.gov.uk,Boston,http://www.boston.gov.uk,-0.02768500000000,PE21 8AH,2013-07-15,fhrs_5_en-GB,5,,FHRS,5
47180,,1 Seedlands Close,,Boston,The Ridge Rooms,Restaurant/Cafe/Canteen,1,10,,576531,10,,52.98755000000000,8957,219,env.serv@boston.gov.uk,Boston,http://www.boston.gov.uk,-0.00584100000000,PE21 9QE,2013-11-20,fhrs_3_en-GB,3,,FHRS,10
47181,,Skirbeck Road,,Boston,"The Rochford Diner, Boston College",School/college/university,7845,5,,231557,5,,52.97331400000000,1912,219,env.serv@boston.gov.uk,Boston,http://www.boston.gov.uk,-0.01473300000000,PE21 6JF,2013-10-14,fhrs_5_en-GB,5,,FHRS,5
47182,,Marsh Lane,,Boston,The Spirit of Endeavour,Pub/bar/nightclub,7843,5,,231757,5,,52.96435300000000,110,219,env.serv@boston.gov.uk,Boston,http://www.boston.gov.uk,-0.02410700000000,PE21 7QS,2014-06-26,fhrs_5_en-GB,5,,FHRS,5
47183,,Rosebery Avenue,,Boston,The Sportsman,Pub/bar/nightclub,7843,5,,231848,5,,52.97878200000000,454,219,env.serv@boston.gov.uk,Boston,http://www.boston.gov.uk,-0.04792300000000,PE21 7QR,2014-04-03,fhrs_5_en-GB,5,,FHRS,5
47184,,Market Place,,Boston,The Stump and Candle,Pub/bar/nightclub,7843,5,,231901,5,,52.97794400000000,388,219,env.serv@boston.gov.uk,Boston,http://www.boston.gov.uk,-0.02442600000000,PE21 6NF,2015-01-19,fhrs_4_en-GB,4,,FHRS,10
47185,Fenside Community Centre,Taverner Road,,Boston,The Trussell Trust,Distributors/Transporters,7,5,,478794,5,,52.98320200000000,8642,219,env.serv@boston.gov.uk,Boston,http://www.boston.gov.uk,-0.03953000000000,PE21 8NL,2014-04-29,fhrs_5_en-GB,5,,FHRS,5
47186,,15 High Street,,Kirton,The Villager,Retailers - other,4613,5,,231483,5,,52.92896500000000,1334,219,env.serv@boston.gov.uk,Boston,http://www.boston.gov.uk,-0.05836300000000,PE20 1DR,2014-06-30,fhrs_5_en-GB,5,,FHRS,5
47187,,33/34 Market Place,,Boston,The Waterfront,Pub/bar/nightclub,7843,5,,231631,10,,52.97717900000000,2813,219,env.serv@boston.gov.uk,Boston,http://www.boston.gov.uk,-0.02382100000000,PE21 6NH,2014-01-07,fhrs_3_en-GB,3,,FHRS,10
47188,Wheatsheaf Inn,Station Road,,Hubberts Bridge,The Wheatsheaf Inn,Pub/bar/nightclub,7843,5,,231575,5,,52.97418500000000,1759,219,env.serv@boston.gov.uk,Boston,http://www.boston.gov.uk,-0.11180100000000,PE20 3QR,2014-02-27,fhrs_4_en-GB,4,,FHRS,10
47189,The Wine Bar,7-11 Bridge Street,,Boston,The Wine Bar,Pub/bar/nightclub,7843,10,,231674,10,,52.97644500000000,67,219,env.serv@boston.gov.uk,Boston,http://www.boston.gov.uk,-0.02512000000000,PE21 8QF,2014-05-02,fhrs_3_en-GB,3,,FHRS,10
47190,The Three Horseshoes,Main Road,,Leverton,Three Horseshoes,Pub/bar/nightclub,7843,5,,231860,5,,53.01490200000000,1026,219,env.serv@boston.gov.uk,Boston,http://www.boston.gov.uk,0.08831200000000,PE22 0AU,2013-09-18,fhrs_5_en-GB,5,,FHRS,5
47191,,Station Road,,"Swineshead, Boston",Tican Chilled Ltd,Distributors/Transporters,7,0,,232014,0,,52.96058700000000,6922,219,env.serv@boston.gov.uk,Boston,http://www.boston.gov.uk,-0.17656500000000,PE20 3PN,2014-04-28,fhrs_5_en-GB,5,,FHRS,0
47192,Tom's Sandwich Shop,58 Pen Street,,Boston,Tom's Sandwich Shop,Other catering premises,7841,5,,231940,5,,52.97863400000000,446,219,env.serv@boston.gov.uk,Boston,http://www.boston.gov.uk,-0.01888300000000,PE21 6TF,2014-12-01,fhrs_5_en-GB,5,,FHRS,5
47193,The Lodge,Holmes Road,,Frampton,Totally Tasty,Mobile caterer,7846,5,,231565,10,,52.96524900000000,7667,219,env.serv@boston.gov.uk,Boston,http://www.boston.gov.uk,-0.09436600000000,PE20 1SJ,2012-10-20,fhrs_4_en-GB,4,,FHRS,5
47194,The Lodge,Holmes Road,,Frampton,Totally Tasty 2,Mobile caterer,7846,5,,231688,10,,52.96524900000000,8019,219,env.serv@boston.gov.uk,Boston,http://www.boston.gov.uk,-0.09436600000000,PE20 1SJ,2012-10-20,fhrs_4_en-GB,4,,FHRS,5
47195,,Ashlawn Drive,,Boston,Tower Road Academy,School/college/university,7845,0,,231608,5,,52.98297000000000,42,219,env.serv@boston.gov.uk,Boston,http://www.boston.gov.uk,-0.01095300000000,PE21 9PX,2015-02-06,fhrs_5_en-GB,5,,FHRS,5
47196,,3 Butlers Way,,Swineshead,Traditional Bread and Cakes,Retailers - other,4613,,,336096,,,52.94405300000000,8426,219,env.serv@boston.gov.uk,Boston,http://www.boston.gov.uk,-0.15669200000000,PE20 3ER,,fhrs_awaitinginspection_en-GB,AwaitingInspection,,FHRS,
47197,The Travellers Rest,Main Road,,Leverton,Travellers Rest,Takeaway/sandwich shop,7844,0,,231572,0,,53.01490200000000,1025,219,env.serv@boston.gov.uk,Boston,http://www.boston.gov.uk,0.08831200000000,PE22 0AU,2013-03-25,fhrs_5_en-GB,5,,FHRS,5
47198,,117a High Street,,Boston,Travis Perkins,Retailers - other,4613,,,693406,,,52.97175500000000,233,219,env.serv@boston.gov.uk,Boston,http://www.boston.gov.uk,-0.02533400000000,PE21 8TJ,2014-08-06,fhrs_exempt_en-GB,Exempt,,FHRS,
47199,,Sleaford Road,,Boston,Tru Gym,Restaurant/Cafe/Canteen,1,5,,231405,5,,52.97573500000000,3696,219,env.serv@boston.gov.uk,Boston,http://www.boston.gov.uk,-0.03273400000000,PE21 8EG,2014-07-03,fhrs_5_en-GB,5,,FHRS,5
47200,,73 West Street,,Boston,U Ani Polish Restaurant,Other catering premises,7841,10,,231744,10,,52.97605800000000,611,219,env.serv@boston.gov.uk,Boston,http://www.boston.gov.uk,-0.02945700000000,PE21 8QZ,2013-01-09,fhrs_4_en-GB,4,,FHRS,0
47201,The Unicorn Inn,18 Tattershall Road,,Boston,Unicorn,Pub/bar/nightclub,7843,5,,231850,5,,52.98308000000000,567,219,env.serv@boston.gov.uk,Boston,http://www.boston.gov.uk,-0.03000200000000,PE21 9JS,2014-04-30,fhrs_5_en-GB,5,,FHRS,5
47202,Unicorn Day Nursery,12 South Street,,Boston,Unicorn Day Nursery,School/college/university,7845,,,713522,,,52.97658700000000,39248,219,env.serv@boston.gov.uk,Boston,http://www.boston.gov.uk,-0.02285000000000,PE21 6HE,,fhrs_awaitinginspection_en-GB,AwaitingInspection,,FHRS,
47203,,Valentine Close,,Boston,Valentine Close,Other catering premises,7841,,,231598,,,52.97064300000000,1757,219,env.serv@boston.gov.uk,Boston,http://www.boston.gov.uk,-0.00511500000000,PE21 OHD,2014-05-09,fhrs_exempt_en-GB,Exempt,,FHRS,
47204,,Freiston Road,,Boston,Vauxhall Court,Hospitals/Childcare/Caring Premises,5,5,,231762,5,,52.97795700000000,151,219,env.serv@boston.gov.uk,Boston,http://www.boston.gov.uk,-0.01170500000000,PE21 0JW,2014-09-16,fhrs_5_en-GB,5,,FHRS,5
47205,,Church Road,,Boston,Vickers Fish and Chip Shop,Takeaway/sandwich shop,7844,10,,232088,10,,52.97497000000000,92,219,env.serv@boston.gov.uk,Boston,http://www.boston.gov.uk,-0.01262700000000,PE21 OLH,2014-05-07,fhrs_3_en-GB,3,,FHRS,10
47206,,Cemetery Road,,Bicker,Village Hall,Other catering premises,7841,,,231634,,,52.92669400000000,762,219,env.serv@boston.gov.uk,Boston,http://www.boston.gov.uk,-0.18019100000000,PE20 3BT,2014-05-02,fhrs_exempt_en-GB,Exempt,,FHRS,
47207,White House Farm,Wash Road,,"Algarkirk, Boston",W Dennis and Sons,Manufacturers/packers,7839,,,231427,,,52.90496800000000,1461,219,env.serv@boston.gov.uk,Boston,http://www.boston.gov.uk,-0.04352500000000,PE20 2DP,2014-07-03,fhrs_exempt_en-GB,Exempt,,FHRS,
47208,,Sibsey Road,,Boston,W H Smith (Pilgrim Hospital),Retailers - other,4613,,,231985,,,52.99135300000000,500,219,env.serv@boston.gov.uk,Boston,http://www.boston.gov.uk,-0.00742400000000,PE21 9QT,,fhrs_awaitinginspection_en-GB,AwaitingInspection,,FHRS,
47209,West End Cinema,32-44 West Street,,Boston,West End Cinema,Restaurant/Cafe/Canteen,1,10,,232012,10,,52.97602900000000,4051,219,env.serv@boston.gov.uk,Boston,http://www.boston.gov.uk,-0.02549700000000,PE21 8QH,2014-06-17,fhrs_3_en-GB,3,,FHRS,5
47210,,Carmel Green,,Boston,West Skirbeck Bowls and Table Tennis Club,Pub/bar/nightclub,7843,5,,232003,10,,52.96620300000000,1125,219,env.serv@boston.gov.uk,Boston,http://www.boston.gov.uk,-0.03371800000000,PE21 7JR,2014-04-28,fhrs_3_en-GB,3,,FHRS,10
47211,,31 High Street,,Boston,West Street Diner,Takeaway/sandwich shop,7844,20,,231871,15,,52.97580400000000,7380,219,env.serv@boston.gov.uk,Boston,http://www.boston.gov.uk,-0.02440500000000,PE21 8SP,2014-05-08,fhrs_1_en-GB,1,,FHRS,10
47212,Westfield Home,34 Sleaford Road,,Boston,Westfield Care Home,Hospitals/Childcare/Caring Premises,5,0,,231684,5,,52.97757700000000,1431,219,env.serv@boston.gov.uk,Boston,http://www.boston.gov.uk,-0.03647800000000,PE21 8EU,2014-08-05,fhrs_5_en-GB,5,,FHRS,5
47213,Wests Chip Shop,194 Eastwood Road,,Fishtoft,West's Chip Shop,Takeaway/sandwich shop,7844,0,,231582,0,,52.97711400000000,879,219,env.serv@boston.gov.uk,Boston,http://www.boston.gov.uk,0.01112000000000,PE21 0PP,2013-01-10,fhrs_5_en-GB,5,,FHRS,0
47214,Westwood Lakes Holiday Site,Five House Lane,,Wyberton,Westwood Lakes,Restaurant/Cafe/Canteen,1,,,232019,,,52.95642900000000,7536,219,env.serv@boston.gov.uk,Boston,http://www.boston.gov.uk,-0.05768400000000,PE21 7JA,2015-01-28,fhrs_5_en-GB,5,,FHRS,
47215,Wheatsheaf Inn,Market Place,,Swineshead,Wheatsheaf Hotel,Pub/bar/nightclub,7843,5,,231509,5,,52.94558400000000,1057,219,env.serv@boston.gov.uk,Boston,http://www.boston.gov.uk,-0.15921600000000,PE20 3LJ,2014-12-04,fhrs_5_en-GB,5,,FHRS,5
47216,White Gables,21 Willington Road,,Kirton,White Gables,Hospitals/Childcare/Caring Premises,5,5,,231367,10,,52.93148300000000,996,219,env.serv@boston.gov.uk,Boston,http://www.boston.gov.uk,-0.06228300000000,PE20 1EP,2014-09-08,fhrs_4_en-GB,4,,FHRS,5
47217,White Hart,31 Church Road,,Old Leake,White Hart,Pub/bar/nightclub,7843,5,,232021,5,,53.03297300000000,1058,219,env.serv@boston.gov.uk,Boston,http://www.boston.gov.uk,0.09597100000000,PE22 9NS,2014-11-17,fhrs_4_en-GB,4,,FHRS,10
47218,Wilkinsons,2 Pescod Square,,Boston,Wilkinson Stores Ltd,Retailers - other,4613,5,,231939,5,,52.97865300000000,5123,219,env.serv@boston.gov.uk,Boston,http://www.boston.gov.uk,-0.02165300000000,PE21 6QX,2014-04-30,fhrs_5_en-GB,5,,FHRS,5
47219,,Willoughby Road,,Fishtoft,Willoughby Grange Care Home,Hospitals/Childcare/Caring Premises,5,5,,231994,5,,52.98386400000000,792,219,env.serv@boston.gov.uk,Boston,http://www.boston.gov.uk,-0.01764600000000,PE21 9EG,2014-08-13,fhrs_5_en-GB,5,,FHRS,5
47220,,Freiston Road,,Boston,Wings Meadow,Restaurant/Cafe/Canteen,1,,,231766,,,52.97910800000000,201,219,env.serv@boston.gov.uk,Boston,http://www.boston.gov.uk,-0.01451700000000,,2014-05-06,fhrs_exempt_en-GB,Exempt,,FHRS,
47221,,Brady Street,,Boston,Witham Court,Other catering premises,7841,,,231774,,,52.98371500000000,1758,219,env.serv@boston.gov.uk,Boston,http://www.boston.gov.uk,-0.02870600000000,PE21 9LA,2014-05-09,fhrs_exempt_en-GB,Exempt,,FHRS,
47222,Witham Tavern,3 Witham Bank East,,Boston,Witham Tavern,Pub/bar/nightclub,7843,10,,231696,10,,52.98364200000000,982,219,env.serv@boston.gov.uk,Boston,http://www.boston.gov.uk,-0.03189800000000,PE21 9JU,2014-11-27,fhrs_3_en-GB,3,,FHRS,10
47223,,19 Forbes Road,,Boston,Woad Farm Chippy,Takeaway/sandwich shop,7844,5,,438651,5,,52.97530000000000,8548,219,env.serv@boston.gov.uk,Boston,http://www.boston.gov.uk,-0.00609300000000,PE21 0PD,2014-06-13,fhrs_4_en-GB,4,,FHRS,10
47224,The Woadman,Church Road,,Boston,Woad Man,Pub/bar/nightclub,7843,10,,231692,10,,52.97338700000000,91,219,env.serv@boston.gov.uk,Boston,http://www.boston.gov.uk,-0.01212300000000,PE21 0LJ,2013-07-02,fhrs_3_en-GB,3,,FHRS,10
47225,Woodcocks Butchers,Main Road,,Benington,Woodcock's Butcher,Retailers - other,4613,5,,231790,5,,52.99788000000000,763,219,env.serv@boston.gov.uk,Boston,http://www.boston.gov.uk,0.08126100000000,PE22 0BT,2014-12-03,fhrs_5_en-GB,5,,FHRS,5
47226,Woodlands Court Nursing Home,Boston Road,,Kirton,Woodlands Court,Hospitals/Childcare/Caring Premises,5,5,,231548,5,,52.93077500000000,969,219,env.serv@boston.gov.uk,Boston,http://www.boston.gov.uk,-0.05856500000000,PE20 1DS,2013-09-16,fhrs_5_en-GB,5,,FHRS,5
47227,Elms Farm,Elm Lane,,Algarkirk,Woodlands Farm,Manufacturers/packers,7839,10,,231847,5,,52.90774800000000,6365,219,env.serv@boston.gov.uk,Boston,http://www.boston.gov.uk,-0.04967600000000,PE20 2AH,2014-06-30,fhrs_4_en-GB,4,,FHRS,5
47228,,Church End,,"Wrangle, Boston",Wrangle Parish Hall,Other catering premises,7841,,,231770,,,53.03561500000000,674,219,env.serv@boston.gov.uk,Boston,http://www.boston.gov.uk,0.12144100000000,PE22 9EW,2014-09-30,fhrs_exempt_en-GB,Exempt,,FHRS,
47229,,Main Road,,"Wrangle, Boston",Wrangle Primary School,Hospitals/Childcare/Caring Premises,5,5,,231794,5,,53.03985000000000,3635,219,env.serv@boston.gov.uk,Boston,http://www.boston.gov.uk,0.13744600000000,PE22 9AS,2014-05-07,fhrs_5_en-GB,5,,FHRS,5
47230,,Church End,,"Wrangle, Boston",Wrangle Spice Takeaway,Takeaway/sandwich shop,7844,5,,232086,5,,53.03795200000000,8123,219,env.serv@boston.gov.uk,Boston,http://www.boston.gov.uk,0.12197300000000,PE22 9EH,2015-02-09,fhrs_5_en-GB,5,,FHRS,0
47231,,London Road,,Boston,Wyberton Parish Hall,Other catering premises,7841,,,232053,,,52.95073100000000,1094,219,env.serv@boston.gov.uk,Boston,http://www.boston.gov.uk,-0.04464600000000,PE21 7DE,2014-03-31,fhrs_exempt_en-GB,Exempt,,FHRS,
47232,Ye Olde Red Lion,Donington Road,,Bicker,Ye Olde Red Lion,Pub/bar/nightclub,7843,5,,232042,5,,52.91893300000000,943,219,env.serv@boston.gov.uk,Boston,http://www.boston.gov.uk,-0.17999600000000,PE20 3EF,2013-02-20,fhrs_5_en-GB,5,,FHRS,5
47233,Len Medlock Voluntary Centre,St Georges Road,,Boston,Your Day Your Say Ltd,Retailers - other,4613,,,657259,,,,9276,219,env.serv@boston.gov.uk,Boston,http://www.boston.gov.uk,,PE21 8YD,,fhrs_awaitinginspection_en-GB,AwaitingInspection,,FHRS,
47234,,2 Alfred Street,,Boston,Yummy House,Takeaway/sandwich shop,7844,5,,231932,5,,52.97015100000000,2072,219,env.serv@boston.gov.uk,Boston,http://www.boston.gov.uk,-0.01429700000000,PE21 6DN,2013-07-05,fhrs_5_en-GB,5,,FHRS,5
47235,,136 West Street,,Boston,Zhu Guang,Restaurant/Cafe/Canteen,1,5,,231893,5,,52.97636600000000,6569,219,env.serv@boston.gov.uk,Boston,http://www.boston.gov.uk,-0.03014300000000,PE21 8RE,2014-12-08,fhrs_5_en-GB,5,,FHRS,5
