,addressline1,addressline2,addressline3,addressline4,businessname,businesstype,businesstypeid,confidenceinmanagement,extractdate,fhrsid,hygiene,itemcount,latitude,localauthoritybusinessid,localauthoritycode,localauthorityemailaddress,localauthorityname,localauthoritywebsite,longitude,postcode,ratingdate,ratingkey,ratingvalue,returncode,schemetype,structural
74488,Red Lion Hotel,Market Place,Spalding,,1498 The Spice Affair,Restaurant/Cafe/Canteen,1,5,,636048,5,,52.78735800000000,36554,223,foodhs@sholland.gov.uk,South Holland,http://www.sholland.gov.uk,-0.15113200000000,PE11 1SU,2014-07-16,fhrs_5_en-GB,5,,FHRS,5
74489,,Monks House Lane,Spalding,Lincs,4th Spalding Scouts H Q,Other catering premises,7841,,,243298,,,52.78636100000000,3367,223,foodhs@sholland.gov.uk,South Holland,http://www.sholland.gov.uk,-0.17675500000000,PE11 3LH,2014-01-02,fhrs_exempt_en-GB,Exempt,,FHRS,
74490,,,,,A & M Fresh Produce,Retailers - other,4613,5,,243282,5,,,30567,223,foodhs@sholland.gov.uk,South Holland,http://www.sholland.gov.uk,,,2014-01-03,fhrs_5_en-GB,5,,FHRS,5
74491,,Minerva House,Holbeach Tech Park,Park Road,A Country Kitchen,Other catering premises,7841,5,,243150,5,,,32508,223,foodhs@sholland.gov.uk,South Holland,http://www.sholland.gov.uk,,,2014-02-25,fhrs_5_en-GB,5,,FHRS,5
74492,,Sholtsgate,Whaplode,"Spalding, Lincs",A Maze in Maize,Other catering premises,7841,5,,243648,5,,52.79808300000000,29114,223,foodhs@sholland.gov.uk,South Holland,http://www.sholland.gov.uk,-0.01739800000000,PE12 6TZ,2013-08-09,fhrs_4_en-GB,4,,FHRS,10
74493,Silverwood Centre,Brownsgate/St James Road,Sutton Crosses,Long Sutton,A Time to Remember,Restaurant/Cafe/Canteen,1,10,,668821,10,,52.77349600000000,36683,223,foodhs@sholland.gov.uk,South Holland,http://www.sholland.gov.uk,0.11463200000000,PE12 9AU,2014-09-23,fhrs_3_en-GB,3,,FHRS,10
74494,,25 Market Place,Spalding,Lincolnshire,A W Curtis & Sons Ltd,Retailers - other,4613,5,,243569,5,,52.78671100000000,26971,223,foodhs@sholland.gov.uk,South Holland,http://www.sholland.gov.uk,-0.15052200000000,PE11 1SS,2014-09-03,fhrs_5_en-GB,5,,FHRS,5
74495,,Postland Road,Crowland,Spalding,Abbey 345 Pre-School,Hospitals/Childcare/Caring Premises,5,,,619793,,,52.67829400000000,36477,223,foodhs@sholland.gov.uk,South Holland,http://www.sholland.gov.uk,-0.16525200000000,PE6 0JA,2015-01-09,fhrs_5_en-GB,5,,FHRS,
74496,,9 North Street,Crowland,"Spalding, Lincolnshire",Abbey Gate Residential Home,Hospitals/Childcare/Caring Premises,5,5,,242955,5,,52.67744400000000,119,223,foodhs@sholland.gov.uk,South Holland,http://www.sholland.gov.uk,-0.16897100000000,PE6 0EG,2014-12-16,fhrs_5_en-GB,5,,FHRS,5
74497,The Mill,High Street,Moulton,"Spalding, Lincolnshire",Abbeygate Rest Homes Ltd,Hospitals/Childcare/Caring Premises,5,5,,242927,5,,52.79764100000000,13818,223,foodhs@sholland.gov.uk,South Holland,http://www.sholland.gov.uk,-0.06303100000000,PE12 6QB,2014-11-28,fhrs_5_en-GB,5,,FHRS,5
74498,,101 Acacia Avenue,Spalding,Lincolnshire,Acacia Stores,Retailers - other,4613,10,,243154,5,,52.79334800000000,10948,223,foodhs@sholland.gov.uk,South Holland,http://www.sholland.gov.uk,-0.13803300000000,PE11 2LR,2014-02-10,fhrs_4_en-GB,4,,FHRS,5
74499,The Annexe,11 Cross Street,Spalding,Lincolnshire,Acorn Childcare,Hospitals/Childcare/Caring Premises,5,5,,243555,5,,52.78473200000000,28872,223,foodhs@sholland.gov.uk,South Holland,http://www.sholland.gov.uk,-0.15797500000000,PE11 2YG,2014-06-10,fhrs_5_en-GB,5,,FHRS,5
74500,,110 Bridge Road,Sutton Bridge,Spalding,Adams Fish and Pizza Bar,Takeaway/sandwich shop,7844,10,,552853,10,,52.76877100000000,35947,223,foodhs@sholland.gov.uk,South Holland,http://www.sholland.gov.uk,0.19019900000000,PE12 9SA,2014-10-29,fhrs_3_en-GB,3,,FHRS,10
74501,,23 London Road,Long Sutton,"Spalding, Lincs",Adderley House Rest Home,Hospitals/Childcare/Caring Premises,5,5,,243067,5,,52.78305300000000,5361,223,foodhs@sholland.gov.uk,South Holland,http://www.sholland.gov.uk,0.12522400000000,PE12 9EA,2014-11-18,fhrs_5_en-GB,5,,FHRS,5
74502,,,,,ADL Dairy Products Ltd,Retailers - other,4613,5,,478872,5,,,35386,223,foodhs@sholland.gov.uk,South Holland,http://www.sholland.gov.uk,,,2013-04-16,fhrs_5_en-GB,5,,FHRS,5
74503,,1 The Meadows,Spalding,Lincs,Age UK Spalding District,Hospitals/Childcare/Caring Premises,5,5,,243680,0,,52.79581600000000,19376,223,foodhs@sholland.gov.uk,South Holland,http://www.sholland.gov.uk,-0.15500000000000,PE11 1XR,2014-12-18,fhrs_5_en-GB,5,,FHRS,0
74504,,St. Thomas Road,Spalding,Lincs,Aldi Stores Limited,Retailers - supermarkets/hypermarkets,7840,0,,242989,0,,52.78618700000000,19027,223,foodhs@sholland.gov.uk,South Holland,http://www.sholland.gov.uk,-0.15789900000000,PE11 2XY,2011-11-25,fhrs_5_en-GB,5,,FHRS,5
74505,,,,,All About The Cakes,Other catering premises,7841,5,,574059,5,,,21877,223,foodhs@sholland.gov.uk,South Holland,http://www.sholland.gov.uk,,,2013-07-17,fhrs_4_en-GB,4,,FHRS,10
74506,,High Street,Holbeach,"Spalding, Lincs",All Saints Church,Other catering premises,7841,,,243364,,,52.80374800000000,28852,223,foodhs@sholland.gov.uk,South Holland,http://www.sholland.gov.uk,0.01600300000000,,2010-04-20,fhrs_exempt_en-GB,Exempt,,FHRS,
74507,Spalding Auction,Enterprise Way,Pinchbeck,"Spalding, Lincolnshire",Allen's Mobile Catering,Mobile caterer,7846,5,,243524,5,,52.80521200000000,24623,223,foodhs@sholland.gov.uk,South Holland,http://www.sholland.gov.uk,-0.14467700000000,PE11 3YR,2013-06-13,fhrs_5_en-GB,5,,FHRS,5
74508,,Vine Street,Spalding,Lincolnshire,Amici Italian Restaurant,Restaurant/Cafe/Canteen,1,5,,243612,5,,52.80580200000000,27046,223,foodhs@sholland.gov.uk,South Holland,http://www.sholland.gov.uk,-0.18989200000000,PE11 1AW,2013-07-30,fhrs_5_en-GB,5,,FHRS,5
74509,,,,,Andy's Good Food,Mobile caterer,7846,5,,442701,5,,,34896,223,foodhs@sholland.gov.uk,South Holland,http://www.sholland.gov.uk,,,2014-10-27,fhrs_5_en-GB,5,,FHRS,5
74510,,Washway Road,Holbeach,"Spalding, Lincs",Anglia Motel & Clubroom,Restaurant/Cafe/Canteen,1,5,,243226,5,,52.81078800000000,638,223,foodhs@sholland.gov.uk,South Holland,http://www.sholland.gov.uk,0.03929800000000,PE12 7PE,2013-05-29,fhrs_5_en-GB,5,,FHRS,5
74511,,,,,Apple and Hog,Mobile caterer,7846,5,,668817,5,,,36651,223,foodhs@sholland.gov.uk,South Holland,http://www.sholland.gov.uk,,,2014-07-10,fhrs_5_en-GB,5,,FHRS,5
74512,,Spalding Common,Spalding,Lincs,Ashwood Nursing Home,Hospitals/Childcare/Caring Premises,5,5,,243249,5,,52.76691500000000,2880,223,foodhs@sholland.gov.uk,South Holland,http://www.sholland.gov.uk,-0.17328300000000,PE11 3AS,2015-01-28,fhrs_5_en-GB,5,,FHRS,0
74513,,Churchgate,Spalding,Lincs,Ayscoughfee Cafe,Restaurant/Cafe/Canteen,1,10,,243140,5,,53.18334579467773,4037,223,foodhs@sholland.gov.uk,South Holland,http://www.sholland.gov.uk,-0.14031049609184,PE11 2RA,2013-10-21,fhrs_4_en-GB,4,,FHRS,5
74514,,38 London Road,Spalding,Lincs,Ayscoughfee Hall School,School/college/university,7845,5,,243072,5,,52.78239000000000,3280,223,foodhs@sholland.gov.uk,South Holland,http://www.sholland.gov.uk,-0.15193500000000,PE11 2TE,2010-02-23,fhrs_4_en-GB,4,,FHRS,10
74515,,12-18 Winsover Road,Spalding,,B&M Stores,Retailers - other,4613,10,,243420,5,,52.78721200000000,32177,223,foodhs@sholland.gov.uk,South Holland,http://www.sholland.gov.uk,-0.15730700000000,PE11 1EJ,2014-02-04,fhrs_4_en-GB,4,,FHRS,5
74516,,Sluice Road,Holbeach St. Marks,"Spalding, Lincs",Bakkavor Canteen - The Pizzeria,Restaurant/Cafe/Canteen,1,5,,243374,5,,52.84562500000000,24969,223,foodhs@sholland.gov.uk,South Holland,http://www.sholland.gov.uk,0.00413200000000,PE12 8BH,2013-11-22,fhrs_5_en-GB,5,,FHRS,5
74517,,West Marsh Road,Spalding,Lincs,Bakkavor/Staff Shop,Retailers - other,4613,5,,243616,5,,52.80379100000000,15699,223,foodhs@sholland.gov.uk,South Holland,http://www.sholland.gov.uk,-0.14752700000000,PE11 2AN,2014-12-19,fhrs_5_en-GB,5,,FHRS,5
74518,,3 Hawthorn Bank,Spalding,Lincs,Balls Newsagents,Retailers - other,4613,10,,243328,10,,52.78318400000000,12949,223,foodhs@sholland.gov.uk,South Holland,http://www.sholland.gov.uk,-0.16662600000000,PE11 1JJ,2013-03-08,fhrs_3_en-GB,3,,FHRS,10
74519,Unit 10,14-16 Winsover Road,Spalding,Lincs,Baltic Spalding Ltd,Retailers - other,4613,10,,517091,5,,52.78721200000000,35698,223,foodhs@sholland.gov.uk,South Holland,http://www.sholland.gov.uk,-0.15730700000000,PE11 1EJ,2014-08-26,fhrs_4_en-GB,4,,FHRS,5
74520,,Gosberton Bank,Gosberton,"Spalding, Lincs",Bank House Residential Home,Hospitals/Childcare/Caring Premises,5,5,,243344,5,,53.18334579467773,5366,223,foodhs@sholland.gov.uk,South Holland,http://www.sholland.gov.uk,-0.14031049609184,PE11 4PB,2014-02-15,fhrs_4_en-GB,4,,FHRS,10
74521,,Knight Street,Pinchbeck,"Spalding, Lincs",Baptist Church Hall,Other catering premises,7841,5,,243020,5,,52.81647900000000,5861,223,foodhs@sholland.gov.uk,South Holland,http://www.sholland.gov.uk,-0.16150100000000,PE11 3RB,2014-09-22,fhrs_5_en-GB,5,,FHRS,5
74522,,20-24 Bridge Road,Sutton Bridge,"Spalding, Lincs",Baxters Fish & Chips,Takeaway/sandwich shop,7844,5,,242847,5,,52.76809700000000,4342,223,foodhs@sholland.gov.uk,South Holland,http://www.sholland.gov.uk,0.19262600000000,PE12 9UA,2013-10-24,fhrs_5_en-GB,5,,FHRS,5
74523,,186 Bridge Road,Sutton Bridge,"Spalding, Lincolnshire",Baxters Fish & Chips,Takeaway/sandwich shop,7844,5,,242874,5,,52.77003200000000,4376,223,foodhs@sholland.gov.uk,South Holland,http://www.sholland.gov.uk,0.18568100000000,PE12 9SF,2013-10-24,fhrs_5_en-GB,5,,FHRS,5
74524,,High Road,Weston,"Spalding, Lincolnshire",Baytree Nursery & G Centre,Retailers - other,4613,10,,243127,5,,52.80420200000000,4880,223,foodhs@sholland.gov.uk,South Holland,http://www.sholland.gov.uk,-0.09290000000000,PE12 6JU,2014-01-02,fhrs_4_en-GB,4,,FHRS,5
74525,The Lodge,Frogs Abbey Gate,Holbeach St. Johns,Spalding,Beech Lodge,Hospitals/Childcare/Caring Premises,5,5,,242936,5,,52.77650000000000,5354,223,foodhs@sholland.gov.uk,South Holland,http://www.sholland.gov.uk,0.01330500000000,PE12 8QJ,2014-11-26,fhrs_5_en-GB,5,,FHRS,5
74526,,96 Main Road,Gedney,"Spalding, Lincs",Beijing Palace,Restaurant/Cafe/Canteen,1,,,243425,,,52.79985900000000,15921,223,foodhs@sholland.gov.uk,South Holland,http://www.sholland.gov.uk,0.08615300000000,PE12 0BW,2014-11-05,fhrs_3_en-GB,3,,FHRS,
74527,Marjoram Hall,62 Siltside,Gosberton Risegate,Spalding,Bells Day Nursery,Hospitals/Childcare/Caring Premises,5,10,,702317,5,,52.85416400000000,36825,223,foodhs@sholland.gov.uk,South Holland,http://www.sholland.gov.uk,-0.19524200000000,PE11 4ET,2014-09-08,fhrs_4_en-GB,4,,FHRS,5
74528,,241 Winsover Road,Spalding,Lincolnshire,Bennetts Butchers,Retailers - other,4613,5,,243533,5,,52.78473200000000,3951,223,foodhs@sholland.gov.uk,South Holland,http://www.sholland.gov.uk,-0.16553800000000,PE11 1HH,2014-11-12,fhrs_5_en-GB,5,,FHRS,5
74529,,Wisbech Road,Long Sutton,Spalding,Benny's Diner,Restaurant/Cafe/Canteen,1,5,,733831,5,,52.77644100000000,36812,223,foodhs@sholland.gov.uk,South Holland,http://www.sholland.gov.uk,0.13443500000000,PE12 9AG,2015-01-26,fhrs_5_en-GB,5,,FHRS,5
74530,,2 New Road,Spalding,Lincoknshire,Bentleys Bar,Pub/bar/nightclub,7843,5,,242834,5,,52.78811800000000,32217,223,foodhs@sholland.gov.uk,South Holland,http://www.sholland.gov.uk,-0.15255300000000,PE11 1BS,2013-02-12,fhrs_5_en-GB,5,,FHRS,0
74531,,1-3 Chapel Lane,Spalding,Lincolnshire,Bentleys Restaurant,Pub/bar/nightclub,7843,,,310223,,,52.78794400000000,31037,223,foodhs@sholland.gov.uk,South Holland,http://www.sholland.gov.uk,-0.15410300000000,PE11 1BP,2014-05-06,fhrs_4_en-GB,4,,FHRS,
74532,,Marsh Drove,Surfleet Marsh,"Spalding, Lincs",Big Tree Honey Farm,Retailers - other,4613,10,,243283,10,,52.85845700000000,31801,223,foodhs@sholland.gov.uk,South Holland,http://www.sholland.gov.uk,-0.09035900000000,PE11 4DW,2013-11-19,fhrs_3_en-GB,3,,FHRS,5
74533,,Surfleet Road,Pinchbeck,"Spalding, Lincolnshire",Birchgrove Garden Centre,Restaurant/Cafe/Canteen,1,5,,242871,5,,52.82301800000000,2438,223,foodhs@sholland.gov.uk,South Holland,http://www.sholland.gov.uk,-0.15419000000000,PE11 3XY,2013-03-05,fhrs_5_en-GB,5,,FHRS,5
74534,,66 Siltside,Gosberton Risegate,"Spalding, Lincolnshire",Black Horse Inn,Pub/bar/nightclub,7843,5,,243583,5,,52.85416400000000,12952,223,foodhs@sholland.gov.uk,South Holland,http://www.sholland.gov.uk,-0.19524200000000,PE11 4ET,2014-12-05,fhrs_5_en-GB,5,,FHRS,5
74535,,20 The Crescent,Spalding,Lincolnshire,Bookmark,Restaurant/Cafe/Canteen,1,5,,242851,5,,52.78621800000000,15515,223,foodhs@sholland.gov.uk,South Holland,http://www.sholland.gov.uk,-0.15298900000000,PE11 1AF,2013-03-18,fhrs_5_en-GB,5,,FHRS,5
74536,,Market Place Market,Spalding,Lincs,Booth Fruit & Veg,Retailers - other,4613,5,,243360,5,,52.78642600000000,5786,223,foodhs@sholland.gov.uk,South Holland,http://www.sholland.gov.uk,-0.15039200000000,,2014-01-03,fhrs_5_en-GB,5,,FHRS,5
74537,,34 New Road,Spalding,Lincolnshire,Booths Fruit & Vegetables,Retailers - other,4613,5,,243564,5,,52.78828600000000,3403,223,foodhs@sholland.gov.uk,South Holland,http://www.sholland.gov.uk,-0.15124100000000,PE11 1DN,2013-01-21,fhrs_5_en-GB,5,,FHRS,5
74538,,12-14 Hall Place,Spalding,Lincs,Boots the Chemist,Retailers - other,4613,5,,243624,5,,52.78728200000000,18405,223,foodhs@sholland.gov.uk,South Holland,http://www.sholland.gov.uk,-0.15255900000000,PE11 1SR,2014-12-17,fhrs_5_en-GB,5,,FHRS,5
74539,,27 High Street,Holbeach,"Spalding, Lincolnshire",Boots The Chemists,Retailers - other,4613,,,243477,,,52.80385100000000,21522,223,foodhs@sholland.gov.uk,South Holland,http://www.sholland.gov.uk,0.01594800000000,PE12 7DY,2014-01-03,fhrs_exempt_en-GB,Exempt,,FHRS,
74540,,Little London Bridge,Spalding,Lincolnshire,BP Malthurst,Retailers - other,4613,5,,243512,5,,53.18334579467773,3243,223,foodhs@sholland.gov.uk,South Holland,http://www.sholland.gov.uk,-0.14031049609184,PE11 2UA,2013-02-07,fhrs_4_en-GB,4,,FHRS,10
74541,,13 Winsover Road,Spalding,Lincolnshire,Brennans Bar,Pub/bar/nightclub,7843,10,,558599,5,,52.78688000000000,10539,223,foodhs@sholland.gov.uk,South Holland,http://www.sholland.gov.uk,-0.15680200000000,PE11 1EG,2014-12-22,fhrs_2_en-GB,2,,FHRS,15
74542,,31 Roman Road,Moulton Chapel,"Spalding, Lincolnshire",Brian Frisby Butchers,Retailers - other,4613,5,,243646,5,,52.74652300000000,2105,223,foodhs@sholland.gov.uk,South Holland,http://www.sholland.gov.uk,-0.07986300000000,PE12 0XQ,2012-10-25,fhrs_4_en-GB,4,,FHRS,10
74543,,138 Bridge Road,Sutton Bridge,"Spalding, Lincolnshire",Bridge Superstores,Retailers - other,4613,10,,242829,10,,52.77003200000000,4365,223,foodhs@sholland.gov.uk,South Holland,http://www.sholland.gov.uk,0.18568100000000,PE12 9SF,2014-09-17,fhrs_3_en-GB,3,,FHRS,10
74544,,Bourne Road,Pode Hole,Spalding,Bromley Memorial Hall,Other catering premises,7841,,,242853,,,52.78130100000000,2727,223,foodhs@sholland.gov.uk,South Holland,http://www.sholland.gov.uk,-0.19627200000000,PE11 3LW,2014-06-04,fhrs_exempt_en-GB,Exempt,,FHRS,
74545,Browntoft House,Browntoft Lane,Donington,"Spalding, Lincs",Browntoft House Bed & Breakfast,Hotel/bed & breakfast/guest house,7842,5,,243361,5,,52.90570400000000,25739,223,foodhs@sholland.gov.uk,South Holland,http://www.sholland.gov.uk,-0.19683300000000,PE11 4TQ,2014-08-18,fhrs_5_en-GB,5,,FHRS,0
74546,,21 Surfleet Road,Pinchbeck,"Spalding, Lincolnshire",Brun Lea Residential Home,Hospitals/Childcare/Caring Premises,5,5,,243531,5,,52.82301800000000,5369,223,foodhs@sholland.gov.uk,South Holland,http://www.sholland.gov.uk,-0.15419000000000,PE11 3XY,2015-01-30,fhrs_5_en-GB,5,,FHRS,5
74547,,Fleet Street,Holbeach,"Spalding, Lincolnshire",Budgens Stores Ltd,Retailers - supermarkets/hypermarkets,7840,5,,242831,5,,52.80351500000000,1186,223,foodhs@sholland.gov.uk,South Holland,http://www.sholland.gov.uk,0.02038300000000,PE12 7AD,2010-10-20,fhrs_4_en-GB,4,,FHRS,10
74548,,Burtey Fen Lane,Pinchbeck,"Spalding, Lincs",Burtey Fen Collection,Other catering premises,7841,,,243001,,,52.82474600000000,17567,223,foodhs@sholland.gov.uk,South Holland,http://www.sholland.gov.uk,-0.17290700000000,PE11 3SR,2014-06-04,fhrs_exempt_en-GB,Exempt,,FHRS,
74549,Parigo,Spalding Common,Spalding,Lincs,By George Catering,Other catering premises,7841,5,,243627,5,,52.76691500000000,26713,223,foodhs@sholland.gov.uk,South Holland,http://www.sholland.gov.uk,-0.17328300000000,PE11 3AS,2014-01-02,fhrs_5_en-GB,5,,FHRS,5
74550,,52 High Street,Holbeach,"Spalding, Lincolnshire",Cafe Aurora,Restaurant/Cafe/Canteen,1,5,,242959,5,,52.80341800000000,30826,223,foodhs@sholland.gov.uk,South Holland,http://www.sholland.gov.uk,0.01759000000000,PE12 7ED,2015-01-29,fhrs_5_en-GB,5,,FHRS,5
74551,,5 Bond Street Court,Spalding,Lincolnshire,Cafe Ink,Restaurant/Cafe/Canteen,1,5,,712332,5,,52.78739200000000,7602,223,foodhs@sholland.gov.uk,South Holland,http://www.sholland.gov.uk,-0.15615800000000,PE11 1DY,2014-10-30,fhrs_4_en-GB,4,,FHRS,10
74552,,7 Market Place,Spalding,Lincolnshire,Cafe Moda,Restaurant/Cafe/Canteen,1,0,,243098,5,,52.78674600000000,24988,223,foodhs@sholland.gov.uk,South Holland,http://www.sholland.gov.uk,-0.15109800000000,PE11 1SL,2013-09-26,fhrs_5_en-GB,5,,FHRS,0
74553,,,,,Cakes by Adele,Other catering premises,7841,5,,550471,5,,,35804,223,foodhs@sholland.gov.uk,South Holland,http://www.sholland.gov.uk,,,2013-04-18,fhrs_5_en-GB,5,,FHRS,5
74554,,Carrington Road,Spalding,Lincs,Calvary Baptist Church,Other catering premises,7841,,,693800,,,52.78598000000000,5885,223,foodhs@sholland.gov.uk,South Holland,http://www.sholland.gov.uk,-0.16776900000000,PE11 1LY,2014-08-15,fhrs_exempt_en-GB,Exempt,,FHRS,
74555,,88 East Gate,Fleet,"Spalding, Lincolnshire",Capricorn Cottage (Rest Home),Hospitals/Childcare/Caring Premises,5,5,,243241,5,,52.80158800000000,547,223,foodhs@sholland.gov.uk,South Holland,http://www.sholland.gov.uk,0.06441300000000,PE12 8ND,2014-05-12,fhrs_5_en-GB,5,,FHRS,5
74556,,26 Hall Place,Spalding,Lincolnshire,Card Factory,Retailers - other,4613,,,415274,,,52.78768000000000,24948,223,foodhs@sholland.gov.uk,South Holland,http://www.sholland.gov.uk,-0.15218600000000,PE11 1SG,2012-08-02,fhrs_exempt_en-GB,Exempt,,FHRS,
74557,,85 Halmer Gate,Spalding,Lincolnshire,Carlton Stores,Retailers - other,4613,5,,243243,5,,52.78908100000000,11889,223,foodhs@sholland.gov.uk,South Holland,http://www.sholland.gov.uk,-0.13766700000000,PE11 2EL,2014-01-02,fhrs_5_en-GB,5,,FHRS,5
74558,,Sluice Farm,Sluice Road,Holbeach St Marks,Carolan Catering,Other catering premises,7841,10,,478871,5,,52.86431000000000,35291,223,foodhs@sholland.gov.uk,South Holland,http://www.sholland.gov.uk,0.00237800000000,PE12 8HF,2014-01-22,fhrs_4_en-GB,4,,FHRS,5
74559,,17 Fleet Street,Holbeach,"Spalding, Lincolnshire",Carousel,Retailers - other,4613,,,243581,,,52.80351500000000,23201,223,foodhs@sholland.gov.uk,South Holland,http://www.sholland.gov.uk,0.02038300000000,PE12 7AD,,fhrs_exempt_en-GB,Exempt,,FHRS,
74560,,3 Boston Road South,Holbeach,Spalding,Cask In Hand,Pub/bar/nightclub,7843,10,,636047,10,,52.80513800000000,36553,223,foodhs@sholland.gov.uk,South Holland,http://www.sholland.gov.uk,0.01318900000000,PE12 7LR,2014-02-19,fhrs_3_en-GB,3,,FHRS,10
74561,South Holland Centre,Market Place,Spalding,Lincs,Caterwell East Anglian Ltd,Restaurant/Cafe/Canteen,1,10,,243222,10,,52.78735800000000,4143,223,foodhs@sholland.gov.uk,South Holland,http://www.sholland.gov.uk,-0.15113200000000,PE11 1SU,2013-09-26,fhrs_3_en-GB,3,,FHRS,5
74562,,17 St Johns Street,Holbeach,"Spalding, Lincolnshire",Chameli,Restaurant/Cafe/Canteen,1,5,,243411,10,,52.80297600000000,15335,223,foodhs@sholland.gov.uk,South Holland,http://www.sholland.gov.uk,0.01765800000000,PE12 7AB,2014-09-25,fhrs_4_en-GB,4,,FHRS,5
74563,,,,,Charlton Chance Preserves,Other catering premises,7841,5,,581750,10,,,36297,223,foodhs@sholland.gov.uk,South Holland,http://www.sholland.gov.uk,,,2013-08-15,fhrs_4_en-GB,4,,FHRS,5
74564,,,,,Cherry Tree Farm,Other catering premises,7841,5,,243445,5,,,14967,223,foodhs@sholland.gov.uk,South Holland,http://www.sholland.gov.uk,,,2011-03-03,fhrs_4_en-GB,4,,FHRS,10
74565,,12-14 Market Place,Long Sutton,"Spalding, Lincolnshire",Chilli Hut,Takeaway/sandwich shop,7844,20,,242907,15,,52.78488900000000,21418,223,foodhs@sholland.gov.uk,South Holland,http://www.sholland.gov.uk,0.12110200000000,PE12 9JF,2014-10-08,fhrs_0_en-GB,0,,FHRS,20
74566,,11 Winsover Road,Spalding,Lincs,Chilli Master,Takeaway/sandwich shop,7844,10,,243628,10,,52.78688000000000,3898,223,foodhs@sholland.gov.uk,South Holland,http://www.sholland.gov.uk,-0.15680200000000,PE11 1EG,2015-01-14,fhrs_3_en-GB,3,,FHRS,10
74567,,7 Fleet Street,Holbeach,"Spalding, Lincolnshire",Chilli Palace,Takeaway/sandwich shop,7844,10,,243536,10,,52.80351500000000,27694,223,foodhs@sholland.gov.uk,South Holland,http://www.sholland.gov.uk,0.02038300000000,PE12 7AD,2014-04-02,fhrs_3_en-GB,3,,FHRS,10
74568,,20 Winsover Road,Spalding,Lincolnshire,China City,Restaurant/Cafe/Canteen,1,10,,243487,10,,52.78721200000000,24120,223,foodhs@sholland.gov.uk,South Holland,http://www.sholland.gov.uk,-0.15730700000000,PE11 1EJ,2013-10-15,fhrs_3_en-GB,3,,FHRS,10
74569,,3A North Street,Crowland,"Spalding, Lincolnshire",China Palace,Takeaway/sandwich shop,7844,10,,243494,10,,52.67744400000000,16278,223,foodhs@sholland.gov.uk,South Holland,http://www.sholland.gov.uk,-0.16897100000000,PE6 0EG,2014-02-05,fhrs_3_en-GB,3,,FHRS,10
74570,,17-18 Little London,Spalding,Lincs,Chips Ahoy,Takeaway/sandwich shop,7844,5,,243409,10,,52.77478900000000,3248,223,foodhs@sholland.gov.uk,South Holland,http://www.sholland.gov.uk,-0.16155300000000,PE11 2UB,2013-09-05,fhrs_4_en-GB,4,,FHRS,5
74571,,Clough Road,Gosberton Clough,Spalding,Church Hall,Other catering premises,7841,,,243043,,,52.85147700000000,5876,223,foodhs@sholland.gov.uk,South Holland,http://www.sholland.gov.uk,-0.23120500000000,PE11 4JN,2014-01-02,fhrs_exempt_en-GB,Exempt,,FHRS,
74572,,Park Road,Long Sutton,"Spalding, Lincs",Cinder Ash Pre School,School/college/university,7845,5,,243540,5,,52.78690000000000,1754,223,foodhs@sholland.gov.uk,South Holland,http://www.sholland.gov.uk,0.12732400000000,PE12 9DJ,2012-08-01,fhrs_5_en-GB,5,,FHRS,5
74573,,110 Bridge Road,Sutton Bridge,"Spalding, Lincs",City Stores,Retailers - other,4613,10,,243650,10,,52.76877100000000,31482,223,foodhs@sholland.gov.uk,South Holland,http://www.sholland.gov.uk,0.19019900000000,PE12 9SA,2014-09-01,fhrs_3_en-GB,3,,FHRS,10
74574,,81A Hall Gate,Holbeach,"Spalding, Lincs",CJs General Store,Retailers - other,4613,5,,243681,10,,52.80107900000000,1231,223,foodhs@sholland.gov.uk,South Holland,http://www.sholland.gov.uk,-0.00199700000000,PE12 7HS,2011-01-26,fhrs_4_en-GB,4,,FHRS,5
74575,,17-18 Market Place,Spalding,Lincolnshire,Claires Accessories,Retailers - other,4613,,,243087,,,52.78735800000000,17496,223,foodhs@sholland.gov.uk,South Holland,http://www.sholland.gov.uk,-0.15113200000000,PE11 1SU,2012-01-16,fhrs_exempt_en-GB,Exempt,,FHRS,
74576,,7 Sheep Market,Spalding,Lincolnshire,Classic News,Retailers - other,4613,,,243060,,,52.78710400000000,3693,223,foodhs@sholland.gov.uk,South Holland,http://www.sholland.gov.uk,-0.15324800000000,PE11 1BH,2013-11-25,fhrs_3_en-GB,3,,FHRS,
74577,,22 High Street,Spalding,Lincolnshire,Cley Hall Hotel,Restaurant/Cafe/Canteen,1,5,,243590,5,,52.78963500000000,3145,223,foodhs@sholland.gov.uk,South Holland,http://www.sholland.gov.uk,-0.14492500000000,PE11 1TX,2014-08-11,fhrs_5_en-GB,5,,FHRS,5
74578,,Nene Court,Spalding,Lincs,Community Centre,Other catering premises,7841,,,242900,,,52.79301600000000,4146,223,foodhs@sholland.gov.uk,South Holland,http://www.sholland.gov.uk,-0.13349400000000,PE11 2JT,2014-01-17,fhrs_exempt_en-GB,Exempt,,FHRS,
74579,,Cecil Pywell Avenue,Holbeach,"Spalding, Lincs",Community Centre,Other catering premises,7841,,,243350,,,52.80805700000000,1558,223,foodhs@sholland.gov.uk,South Holland,http://www.sholland.gov.uk,0.00967400000000,PE12 7NA,2014-01-21,fhrs_exempt_en-GB,Exempt,,FHRS,
74580,,Spring Gardens,Long Sutton,"Spalding, Lincs",Community Centre,Other catering premises,7841,,,242939,,,52.78313446044922,1921,223,foodhs@sholland.gov.uk,South Holland,http://www.sholland.gov.uk,0.11619674414396,PE12 9HU,2014-09-23,fhrs_exempt_en-GB,Exempt,,FHRS,
74581,,11 Lyndis Walk,Holbeach,"Spalding, Lincolnshire",Community Centre,Other catering premises,7841,,,243212,,,52.80023800000000,1607,223,foodhs@sholland.gov.uk,South Holland,http://www.sholland.gov.uk,0.02112100000000,PE12 7DF,2012-08-01,fhrs_exempt_en-GB,Exempt,,FHRS,
74582,Trinity Court,Albion Street,Crowland,"Spalding, Lincolnshire",Community Centre,Hospitals/Childcare/Caring Premises,5,,,243231,,,52.67475900000000,5225,223,foodhs@sholland.gov.uk,South Holland,http://www.sholland.gov.uk,-0.16979400000000,PE6 0EA,2013-11-20,fhrs_exempt_en-GB,Exempt,,FHRS,
74583,,49 West Street,Long Sutton,"Spalding, Lincs",Conservative Club,Pub/bar/nightclub,7843,5,,243585,5,,52.78415500000000,1870,223,foodhs@sholland.gov.uk,South Holland,http://www.sholland.gov.uk,0.11943500000000,PE12 9BN,2014-01-02,fhrs_4_en-GB,4,,FHRS,10
74584,,4 New Road,Sutton Bridge,"Spalding, Lincolnshire",Constitutional Club,Pub/bar/nightclub,7843,10,,242930,5,,52.77008300000000,5410,223,foodhs@sholland.gov.uk,South Holland,http://www.sholland.gov.uk,0.18976100000000,PE12 9RA,2013-03-01,fhrs_4_en-GB,4,,FHRS,5
74585,,,,,Cook Catering,Mobile caterer,7846,,,243286,,,,31148,223,foodhs@sholland.gov.uk,South Holland,http://www.sholland.gov.uk,,,,fhrs_exempt_en-GB,Exempt,,FHRS,
74586,,5-6 Market Place,Donington,"Spalding, Lincs",Co-Op,Retailers - supermarkets/hypermarkets,7840,5,,243435,5,,52.90522400000000,428,223,foodhs@sholland.gov.uk,South Holland,http://www.sholland.gov.uk,-0.20494300000000,PE11 4ST,2013-03-14,fhrs_4_en-GB,4,,FHRS,10
74587,,15/16 Hall Place,Spalding,Lincs,Coral Racing Ltd,Retailers - other,4613,,,243252,,,52.78723400000000,3034,223,foodhs@sholland.gov.uk,South Holland,http://www.sholland.gov.uk,-0.15239800000000,PE11 1SA,2014-06-04,fhrs_exempt_en-GB,Exempt,,FHRS,
74588,,,,,Corner House Flowers,Other catering premises,7841,5,,243103,5,,,27889,223,foodhs@sholland.gov.uk,South Holland,http://www.sholland.gov.uk,,,2014-01-03,fhrs_5_en-GB,5,,FHRS,5
74589,,,,,Cornish Potato Company,Mobile caterer,7846,5,,442698,5,,,34893,223,foodhs@sholland.gov.uk,South Holland,http://www.sholland.gov.uk,,,2014-05-08,fhrs_5_en-GB,5,,FHRS,5
74590,,1-2 Hall Place,Spalding,,Costa Coffee,Restaurant/Cafe/Canteen,1,5,,584487,5,,52.78723400000000,36334,223,foodhs@sholland.gov.uk,South Holland,http://www.sholland.gov.uk,-0.15239800000000,PE11 1SA,2013-11-19,fhrs_5_en-GB,5,,FHRS,0
74591,Springfields Outlet Centre,Camel Gate,Spalding,Lincolnshire,Costa Coffee,Restaurant/Cafe/Canteen,1,5,,243163,5,,52.79939700000000,24980,223,foodhs@sholland.gov.uk,South Holland,http://www.sholland.gov.uk,-0.12936400000000,PE12 6ES,2014-01-02,fhrs_5_en-GB,5,,FHRS,5
74592,,12 High Street,Donington,"Spalding, Lincolnshire",Costcutter,Retailers - other,4613,5,,242993,5,,52.90492800000000,24153,223,foodhs@sholland.gov.uk,South Holland,http://www.sholland.gov.uk,-0.20257600000000,PE11 4TA,2014-09-08,fhrs_4_en-GB,4,,FHRS,10
74593,,,,,Country Kitchen Cakes,Other catering premises,7841,5,,243413,5,,,16221,223,foodhs@sholland.gov.uk,South Holland,http://www.sholland.gov.uk,,,2014-05-06,fhrs_5_en-GB,5,,FHRS,5
74594,,The Studio,Vine House Farm,Deeping St Nicholas,Couture Cakes,Other catering premises,7841,5,,242972,5,,52.72052100000000,29111,223,foodhs@sholland.gov.uk,South Holland,http://www.sholland.gov.uk,-0.21570500000000,PE11 3DG,2013-03-27,fhrs_5_en-GB,5,,FHRS,5
74595,,124 Barrier Bank,Cowbit,"Spalding, Lincs",Cowbit Village Hall,Other catering premises,7841,,,243383,,,52.74076300000000,18,223,foodhs@sholland.gov.uk,South Holland,http://www.sholland.gov.uk,-0.13073600000000,PE12 6AL,2014-06-04,fhrs_exempt_en-GB,Exempt,,FHRS,
74596,,102 Barrier Bank,Cowbit,"Spalding, Lincs",Cowbit Village Store,Retailers - other,4613,5,,442697,5,,52.74571500000000,14,223,foodhs@sholland.gov.uk,South Holland,http://www.sholland.gov.uk,-0.13919100000000,PE12 6AQ,2013-01-31,fhrs_5_en-GB,5,,FHRS,5
74597,Cranberry Farm,Jekils Bank,Moulton Eaugate,"Spalding, Lincs",Cranberry Farm,Retailers - other,4613,5,,243167,5,,52.74005900000000,23152,223,foodhs@sholland.gov.uk,South Holland,http://www.sholland.gov.uk,-0.05672600000000,PE12 0SY,2013-12-17,fhrs_5_en-GB,5,,FHRS,5
74598,,,,,Crowland Cake Creations,Other catering premises,7841,10,,243341,10,,,31408,223,foodhs@sholland.gov.uk,South Holland,http://www.sholland.gov.uk,,,2013-02-22,fhrs_3_en-GB,3,,FHRS,5
74599,,21 Broadway,Crowland,"Peterborough, Cambs",Crowland Cancer Fund,Other catering premises,7841,5,,242926,5,,52.67372300000000,11674,223,foodhs@sholland.gov.uk,South Holland,http://www.sholland.gov.uk,-0.17140500000000,PE6 0BJ,2014-01-02,fhrs_5_en-GB,5,,FHRS,5
74600,,44C North Street,Crowland,"Spalding, Lincolnshire",Crowland Community Childcare,Hospitals/Childcare/Caring Premises,5,5,,243489,0,,52.67726700000000,13891,223,foodhs@sholland.gov.uk,South Holland,http://www.sholland.gov.uk,-0.16974800000000,PE6 0EF,2014-01-03,fhrs_5_en-GB,5,,FHRS,5
74601,,Postland Road,Crowland,Peteborough,Crowland Garden Centre and Restaurant,Restaurant/Cafe/Canteen,1,5,,243553,5,,52.68006800000000,27027,223,foodhs@sholland.gov.uk,South Holland,http://www.sholland.gov.uk,-0.15960100000000,PE6 0JB,2014-04-15,fhrs_4_en-GB,4,,FHRS,10
74602,,Reform Street,Crowland,"Peterborough, Cambs",Crowland Methodist Chapel Hall,Other catering premises,7841,5,,242912,5,,52.67402100000000,16675,223,foodhs@sholland.gov.uk,South Holland,http://www.sholland.gov.uk,-0.16794600000000,PE6 0AN,2013-07-05,fhrs_5_en-GB,5,,FHRS,5
74603,,6 West Street,Crowland,Spalding,Crowland Mini Mart,Retailers - other,4613,10,,499258,5,,52.67518100000000,35564,223,foodhs@sholland.gov.uk,South Holland,http://www.sholland.gov.uk,-0.17032300000000,PE6 0ED,2013-01-31,fhrs_3_en-GB,3,,FHRS,10
74604,,128 Main Road. Quadring.Spalding.,,,Curry Inn,Restaurant/Cafe/Canteen,1,10,,243180,10,,52.88100000000000,27590,223,foodhs@sholland.gov.uk,South Holland,http://www.sholland.gov.uk,-0.17929600000000,PE11 4PW,2013-10-03,fhrs_3_en-GB,3,,FHRS,10
74605,,Fulney Lane,Spalding,Lincs,Dalehead Foods Staff Canteen,Restaurant/Cafe/Canteen,1,10,,581753,5,,52.79596600000000,36310,223,foodhs@sholland.gov.uk,South Holland,http://www.sholland.gov.uk,-0.12786500000000,PE12 6EP,2013-11-25,fhrs_4_en-GB,4,,FHRS,5
74606,,Main Road,Deeping St. Nicholas,"Spalding, Lincs",Deeping St Nicholas County Primary School,School/college/university,7845,5,,243475,5,,52.72052100000000,288,223,foodhs@sholland.gov.uk,South Holland,http://www.sholland.gov.uk,-0.21570500000000,PE11 3DG,2014-06-04,fhrs_5_en-GB,5,,FHRS,5
74607,,32 Market Place,Long Sutton,Spalding,Delicious Coffee Shop,Restaurant/Cafe/Canteen,1,10,,442703,10,,52.78488900000000,34910,223,foodhs@sholland.gov.uk,South Holland,http://www.sholland.gov.uk,0.12110200000000,PE12 9JF,2013-11-05,fhrs_3_en-GB,3,,FHRS,10
74608,,Unit 2 20 Westlode Street,Spalding,,Delicja,Retailers - other,4613,5,,243528,10,,52.78920600000000,32436,223,foodhs@sholland.gov.uk,South Holland,http://www.sholland.gov.uk,-0.14912500000000,PE11 2AF,2014-06-30,fhrs_3_en-GB,3,,FHRS,10
74609,,,,,Delish Cupcakes and Cakes,Other catering premises,7841,5,,574061,5,,,36107,223,foodhs@sholland.gov.uk,South Holland,http://www.sholland.gov.uk,,,2013-08-21,fhrs_5_en-GB,5,,FHRS,5
74610,,7 Winsover Road,Spalding,Lincolnshire,Domino's Pizza,Takeaway/sandwich shop,7844,0,,242854,0,,52.78688000000000,24132,223,foodhs@sholland.gov.uk,South Holland,http://www.sholland.gov.uk,-0.15680200000000,PE11 1EG,2014-07-22,fhrs_5_en-GB,5,,FHRS,0
74611,,Station Street,Donington,"Spalding, Lincs",Donington Christian Fellowship,Other catering premises,7841,,,243471,,,52.90277800000000,13842,223,foodhs@sholland.gov.uk,South Holland,http://www.sholland.gov.uk,-0.21383100000000,PE11 4UJ,2014-01-03,fhrs_exempt_en-GB,Exempt,,FHRS,
74612,Snooker Billiards & Social Clu,High Street,Donington,"Spalding, Lincs",Donington Club Ltd,Pub/bar/nightclub,7843,5,,242935,10,,52.90492800000000,13825,223,foodhs@sholland.gov.uk,South Holland,http://www.sholland.gov.uk,-0.20257600000000,PE11 4TA,2014-08-05,fhrs_4_en-GB,4,,FHRS,5
74613,,Towndam Lane,Donington,"Spalding, Lincs",Donington Cowley Primary,School/college/university,7845,5,,243151,5,,52.90164500000000,488,223,foodhs@sholland.gov.uk,South Holland,http://www.sholland.gov.uk,-0.20546200000000,PE11 4TR,2013-12-31,fhrs_5_en-GB,5,,FHRS,5
74614,,3 St Johns Street,Holbeach,"Spalding, Lincolnshire",Dragon Pearl Restaurant,Takeaway/sandwich shop,7844,10,,243482,10,,52.80297600000000,1407,223,foodhs@sholland.gov.uk,South Holland,http://www.sholland.gov.uk,0.01765800000000,PE12 7AB,2014-03-19,fhrs_3_en-GB,3,,FHRS,10
74615,Easter Lodge,200B Fleet Road,Fleet,"Spalding, Lincolnshire",Easter Cottage,Hospitals/Childcare/Caring Premises,5,,,243257,,,52.80410800000000,24730,223,foodhs@sholland.gov.uk,South Holland,http://www.sholland.gov.uk,0.05908800000000,PE12 8LE,2014-01-02,fhrs_exempt_en-GB,Exempt,,FHRS,
74616,,30 Westlode Street,Spalding,Lincolnshire,Eastern European Ltd,Retailers - other,4613,10,,243426,5,,52.78920600000000,27521,223,foodhs@sholland.gov.uk,South Holland,http://www.sholland.gov.uk,-0.14912500000000,PE11 2AF,2014-03-03,fhrs_3_en-GB,3,,FHRS,10
74617,,16 North Street,Crowland,"Spalding, Lincolnshire",Eastern Spice,Takeaway/sandwich shop,7844,10,,242840,10,,52.67726700000000,122,223,foodhs@sholland.gov.uk,South Holland,http://www.sholland.gov.uk,-0.16974800000000,PE6 0EF,2014-02-05,fhrs_3_en-GB,3,,FHRS,10
74618,,Parsons Lane,Whaplode Drove,"Spalding, Lincs",Elizabethan Centre,Other catering premises,7841,5,,242867,10,,,5140,223,foodhs@sholland.gov.uk,South Holland,http://www.sholland.gov.uk,,PE12 0GB,2013-11-05,fhrs_3_en-GB,3,,FHRS,10
74619,,,,,EMW Catering,Other catering premises,7841,5,,243375,5,,,4401,223,foodhs@sholland.gov.uk,South Holland,http://www.sholland.gov.uk,,,2013-04-16,fhrs_5_en-GB,5,,FHRS,5
74620,,,,,Enticing Cakes by Christine,Other catering premises,7841,5,,492839,5,,,35444,223,foodhs@sholland.gov.uk,South Holland,http://www.sholland.gov.uk,,,2012-11-20,fhrs_5_en-GB,5,,FHRS,5
74621,,46 Holbeach Road,Spalding,,Europe Store,Retailers - other,4613,10,,708527,10,,52.79551400000000,36836,223,foodhs@sholland.gov.uk,South Holland,http://www.sholland.gov.uk,-0.13851900000000,PE11 2HQ,2014-10-06,fhrs_3_en-GB,3,,FHRS,10
74622,,310 Broad Gate,Weston Hills,Spalding,Everso Farm,Retailers - other,4613,5,,558600,5,,52.76772600000000,35975,223,foodhs@sholland.gov.uk,South Holland,http://www.sholland.gov.uk,-0.10748000000000,PE12 6DA,2013-08-28,fhrs_5_en-GB,5,,FHRS,5
74623,,16 High Street,Holbeach,"Spalding, Lincolnshire",F. Maltby,Retailers - other,4613,,,243548,,,52.80385100000000,27836,223,foodhs@sholland.gov.uk,South Holland,http://www.sholland.gov.uk,0.01594800000000,PE12 7DY,2010-01-06,fhrs_exempt_en-GB,Exempt,,FHRS,
74624,,,,,Fabulously Floral Cakes,Other catering premises,7841,5,,704538,5,,,36719,223,foodhs@sholland.gov.uk,South Holland,http://www.sholland.gov.uk,,,2014-09-30,fhrs_5_en-GB,5,,FHRS,5
74625,,126 Bridge Road,Sutton Bridge,"Spalding, Lincolnshire",Family Kebab Pizza,Takeaway/sandwich shop,7844,,,243050,,,52.77003200000000,25573,223,foodhs@sholland.gov.uk,South Holland,http://www.sholland.gov.uk,0.18568100000000,PE12 9SF,2014-04-23,fhrs_5_en-GB,5,,FHRS,
74626,,Washway Road,Fleet,"Spalding, Lincs",Farm Cafe,Restaurant/Cafe/Canteen,1,10,,242892,5,,52.80856100000000,639,223,foodhs@sholland.gov.uk,South Holland,http://www.sholland.gov.uk,0.05429800000000,PE12 8LT,2014-09-08,fhrs_4_en-GB,4,,FHRS,5
74627,,,,,Fenbake,Other catering premises,7841,0,,243452,5,,,24997,223,foodhs@sholland.gov.uk,South Holland,http://www.sholland.gov.uk,,,2013-09-13,fhrs_5_en-GB,5,,FHRS,5
74628,Springfields Outlet Centre,Camel Gate,Spalding,,Fenland Catering Ltd,Mobile caterer,7846,,,243246,,,52.79866000000000,31708,223,foodhs@sholland.gov.uk,South Holland,http://www.sholland.gov.uk,-0.12820900000000,PE12 6ES,2014-07-28,fhrs_5_en-GB,5,,FHRS,
74629,Tydd Gote Centre,Station Road,Tydd Gote,"Wisbech, Cambs",Fenlands Church,Other catering premises,7841,10,,243588,10,,52.73986300000000,26959,223,foodhs@sholland.gov.uk,South Holland,http://www.sholland.gov.uk,0.14996500000000,PE13 5QA,2013-05-08,fhrs_3_en-GB,3,,FHRS,10
74630,,19 Westside,Spalding,Lincs,Fern Shaw Cakes,Other catering premises,7841,5,,242931,5,,52.77644100000000,29615,223,foodhs@sholland.gov.uk,South Holland,http://www.sholland.gov.uk,-0.17537500000000,PE11 3WG,2012-02-07,fhrs_4_en-GB,4,,FHRS,10
74631,,,,,Festival Food Service,Mobile caterer,7846,5,,554975,5,,,36001,223,foodhs@sholland.gov.uk,South Holland,http://www.sholland.gov.uk,,,2013-07-16,fhrs_5_en-GB,5,,FHRS,5
74632,,Camel Gate,Spalding,Lincolnshire,Festival Garden Centre Shop,Retailers - other,4613,5,,243610,5,,52.79934800000000,24951,223,foodhs@sholland.gov.uk,South Holland,http://www.sholland.gov.uk,-0.12739400000000,PE12 6EU,2014-03-12,fhrs_5_en-GB,5,,FHRS,5
74633,Festival Garden Centre,"Springfield Outlet, Camel Gate",Spalding,Lincs,Festival Restaurant,Restaurant/Cafe/Canteen,1,5,,242883,5,,52.79755000000000,26733,223,foodhs@sholland.gov.uk,South Holland,http://www.sholland.gov.uk,-0.12738200000000,PE12 6ET,2014-03-26,fhrs_4_en-GB,4,,FHRS,10
74634,,Old Main Road,Fleet Hargate,"Spalding, Lincs",Field House Residential Home,Hospitals/Childcare/Caring Premises,5,5,,243232,5,,52.80402700000000,5365,223,foodhs@sholland.gov.uk,South Holland,http://www.sholland.gov.uk,0.07200600000000,PE12 8LL,2014-11-25,fhrs_5_en-GB,5,,FHRS,0
74635,,4 Market Place,Donington,"Spalding, Lincolnshire",Flinders Fish & Chips,Restaurant/Cafe/Canteen,1,10,,242950,5,,52.90522400000000,25855,223,foodhs@sholland.gov.uk,South Holland,http://www.sholland.gov.uk,-0.20494300000000,PE11 4ST,2014-03-25,fhrs_4_en-GB,4,,FHRS,5
74636,,,,,Floppy Chicken Ltd,Retailers - other,4613,5,,464413,5,,,16249,223,foodhs@sholland.gov.uk,South Holland,http://www.sholland.gov.uk,,,2013-02-13,fhrs_4_en-GB,4,,FHRS,10
74637,,1-23 Red Lion Street,Spalding,Lincolnshire,Flowers N Things,Retailers - other,4613,10,,242976,10,,52.78782800000000,3591,223,foodhs@sholland.gov.uk,South Holland,http://www.sholland.gov.uk,-0.15185300000000,PE11 1SX,2014-08-11,fhrs_3_en-GB,3,,FHRS,10
74638,,,,,Four and 20 Blackbirds,Retailers - other,4613,5,,243424,5,,,31393,223,foodhs@sholland.gov.uk,South Holland,http://www.sholland.gov.uk,,,2014-10-14,fhrs_4_en-GB,4,,FHRS,10
74639,,54 Broadgate,Whaplode Drove,"Spalding, Lincs",Four Boys Village Store,Retailers - other,4613,5,,243062,10,,52.69935400000000,5114,223,foodhs@sholland.gov.uk,South Holland,http://www.sholland.gov.uk,-0.04998100000000,PE12 0TN,2011-02-09,fhrs_4_en-GB,4,,FHRS,5
74640,,Camel Gate,Spalding,Lincs,Frankie & Benny's,Restaurant/Cafe/Canteen,1,0,,243574,0,,52.80580200000000,28850,223,foodhs@sholland.gov.uk,South Holland,http://www.sholland.gov.uk,-0.18989200000000,PE11 6ES,2013-12-02,fhrs_5_en-GB,5,,FHRS,0
74641,,330 Bridge Road,Sutton Bridge,"Spalding, Lincolnshire",Frankies Cafe,Restaurant/Cafe/Canteen,1,5,,243307,10,,52.77349600000000,5501,223,foodhs@sholland.gov.uk,South Holland,http://www.sholland.gov.uk,0.17332700000000,PE12 9SH,2013-09-30,fhrs_4_en-GB,4,,FHRS,5
74642,,,,,Frans Fancy Frostings,Other catering premises,7841,5,,446832,5,,,34975,223,foodhs@sholland.gov.uk,South Holland,http://www.sholland.gov.uk,,,2013-02-01,fhrs_5_en-GB,5,,FHRS,5
74643,Cowbit St Mary's Primary School,116 Barrier Bank,Cowbit,Spalding,Friends of Cowbit School,Retailers - other,4613,5,,243603,10,,52.75389300000000,30722,223,foodhs@sholland.gov.uk,South Holland,http://www.sholland.gov.uk,-0.15680200000000,PE12 6AE,2009-10-09,fhrs_3_en-GB,3,,FHRS,10
74644,St John The Baptist School,Hawthorn Bank,Spalding,Lincolnshire,Friends of St John The Baptist School,Mobile caterer,7846,5,,242890,5,,53.18334579467770,31123,223,foodhs@sholland.gov.uk,South Holland,http://www.sholland.gov.uk,-0.14031049609184,PE11 1JQ,2013-11-02,fhrs_4_en-GB,4,,FHRS,10
74645,,10 North Street,Crowland,"Spalding, Lincolnshire",Frydays in Crowland,Takeaway/sandwich shop,7844,5,,243136,5,,52.67726700000000,121,223,foodhs@sholland.gov.uk,South Holland,http://www.sholland.gov.uk,-0.16974800000000,PE6 0EF,2014-03-20,fhrs_5_en-GB,5,,FHRS,5
74646,,,,,Full of Beans,Mobile caterer,7846,0,,550477,5,,,35941,223,foodhs@sholland.gov.uk,South Holland,http://www.sholland.gov.uk,,,2013-04-30,fhrs_5_en-GB,5,,FHRS,5
74647,,18 North Street,Crowland,"Spalding, Lincolnshire",G & M Frisby,Retailers - other,4613,5,,243571,5,,52.67726700000000,125,223,foodhs@sholland.gov.uk,South Holland,http://www.sholland.gov.uk,-0.16974800000000,PE6 0EF,2014-01-27,fhrs_5_en-GB,5,,FHRS,5
74648,,,,,G R Trading,Retailers - other,4613,5,,558601,10,,,36013,223,foodhs@sholland.gov.uk,South Holland,http://www.sholland.gov.uk,,,2013-07-26,fhrs_3_en-GB,3,,FHRS,10
74649,Highfield House,Dam Gate,Holbeach,"Spalding, Lincolnshire",G Shearer & Son,Retailers - other,4613,5,,243236,5,,52.79581100000000,1125,223,foodhs@sholland.gov.uk,South Holland,http://www.sholland.gov.uk,0.02185100000000,PE12 8PB,2014-02-14,fhrs_4_en-GB,4,,FHRS,10
74650,Garnsgate Hall,Lutton Garnsgate,Long Sutton,Spalding,Garnsgate Bed & Breakfast,Hotel/bed & breakfast/guest house,7842,5,,242945,5,,52.78015600000000,34141,223,foodhs@sholland.gov.uk,South Holland,http://www.sholland.gov.uk,0.10113500000000,PE12 9JP,2014-06-04,fhrs_5_en-GB,5,,FHRS,5
74651,,Pinchbeck Road,Spalding,Lincolnshire,Garth School,School/college/university,7845,5,,242864,5,,52.79229300000000,3528,223,foodhs@sholland.gov.uk,South Holland,http://www.sholland.gov.uk,-0.15105600000000,PE11 1QF,2014-11-05,fhrs_5_en-GB,5,,FHRS,5
74652,,25 Hall Place,Spalding,Lincolnshire,Gary Simpson Butchers,Retailers - other,4613,5,,242949,5,,52.78768000000000,3041,223,foodhs@sholland.gov.uk,South Holland,http://www.sholland.gov.uk,-0.15218600000000,PE11 1SG,2014-11-27,fhrs_5_en-GB,5,,FHRS,5
74653,,Main Road,Gedney Drove End,"Spalding, Lincs",Gedney Drove End Primary,School/college/university,7845,5,,243578,5,,52.83998700000000,686,223,foodhs@sholland.gov.uk,South Holland,http://www.sholland.gov.uk,0.16390600000000,PE12 9PD,2013-12-31,fhrs_5_en-GB,5,,FHRS,5
74654,,Dawsmere Road,Gedney Drove End,"Spalding, Lincs",Gedney Drove End Village Hall,Other catering premises,7841,,,243353,,,52.84357600000000,675,223,foodhs@sholland.gov.uk,South Holland,http://www.sholland.gov.uk,0.16484200000000,PE12 9NW,2015-01-27,fhrs_exempt_en-GB,Exempt,,FHRS,
74655,,Main Street,Gedney Dyke,"Spalding, Lincolnshire",Gedney Dyke Village Hall,Other catering premises,7841,,,242838,,,52.81317900000000,695,223,foodhs@sholland.gov.uk,South Holland,http://www.sholland.gov.uk,0.09355700000000,PE12 0AJ,2014-12-18,fhrs_exempt_en-GB,Exempt,,FHRS,
74656,,Hillgate,Gedney Hill,"Spalding, Lincs",Gedney Hill and District Memorial Hall,Other catering premises,7841,,,243203,,,52.68260500000000,779,223,foodhs@sholland.gov.uk,South Holland,http://www.sholland.gov.uk,-0.02184800000000,PE12 0NN,2014-06-04,fhrs_exempt_en-GB,Exempt,,FHRS,
74657,,North Road,Gedney Hill,"Spalding, Lincs",Gedney Hill Primary School,School/college/university,7845,5,,243079,5,,52.68638700000000,806,223,foodhs@sholland.gov.uk,South Holland,http://www.sholland.gov.uk,-0.01894000000000,PE12 0NL,2011-12-03,fhrs_5_en-GB,5,,FHRS,5
74658,,Church End,Gedney,"Spalding, Lincolnshire",Gedney Primary School,School/college/university,7845,5,,242980,5,,52.79782500000000,667,223,foodhs@sholland.gov.uk,South Holland,http://www.sholland.gov.uk,0.07754100000000,PE12 0BU,2009-12-01,fhrs_4_en-GB,4,,FHRS,10
74659,,Chapelgate,Gedney,"Spalding, Lincs",Gedney Victory Hall,Other catering premises,7841,,,242941,,,52.78118133544922,718,223,foodhs@sholland.gov.uk,South Holland,http://www.sholland.gov.uk,0.11011148989201,PE12 9BJ,2013-12-31,fhrs_exempt_en-GB,Exempt,,FHRS,
74660,,2 Station Street,Donington,"Spalding, Lincolnshire",Genesis Residential Home,Hospitals/Childcare/Caring Premises,5,10,,243188,5,,52.90471600000000,14407,223,foodhs@sholland.gov.uk,South Holland,http://www.sholland.gov.uk,-0.20762500000000,PE11 4UQ,2013-11-08,fhrs_4_en-GB,4,,FHRS,5
74661,,25-26 The Crescent,Spalding,Lincolnshire,Geo Adams & Sons Retail Ltd,Retailers - other,4613,5,,243607,5,,52.78588300000000,2944,223,foodhs@sholland.gov.uk,South Holland,http://www.sholland.gov.uk,-0.15282600000000,PE11 1AG,2014-10-02,fhrs_5_en-GB,5,,FHRS,5
74662,Grove Farm,Hurn Bank,Holbeach,Spalding,George Thompson Farms Ltd,Farmers/growers,7838,,,733815,,,52.83053700000000,36945,223,foodhs@sholland.gov.uk,South Holland,http://www.sholland.gov.uk,0.04997500000000,PE12 8JJ,2015-01-09,fhrs_exempt_en-GB,Exempt,,FHRS,
74663,,10 East Street,Crowland,"Spalding, Lincolnshire",Giuliano's Restaurant,Restaurant/Cafe/Canteen,1,5,,243486,5,,52.67602300000000,29946,223,foodhs@sholland.gov.uk,South Holland,http://www.sholland.gov.uk,-0.16719700000000,PE6 0EN,2014-04-09,fhrs_4_en-GB,4,,FHRS,10
74664,,152 Station Road,Surfleet,"Spalding, Lincolnshire",Glenside Stores,Retailers - other,4613,5,,243000,10,,52.84225700000000,4298,223,foodhs@sholland.gov.uk,South Holland,http://www.sholland.gov.uk,-0.12485000000000,PE11 4DG,2014-01-27,fhrs_3_en-GB,3,,FHRS,10
74665,Unit 2,2 Winsover Road,Spalding,Lincolnshire,Global Food World,Retailers - other,4613,10,,552851,10,,52.78754900000000,13717,223,foodhs@sholland.gov.uk,South Holland,http://www.sholland.gov.uk,-0.15586900000000,PE11 1EH,2014-10-27,fhrs_3_en-GB,3,,FHRS,10
74666,,High Road,Whaplode,"Spalding, Lincs",Golden Kitchen,Takeaway/sandwich shop,7844,5,,243440,10,,52.80031800000000,24932,223,foodhs@sholland.gov.uk,South Holland,http://www.sholland.gov.uk,-0.03067700000000,PE12 6TJ,2014-01-08,fhrs_3_en-GB,3,,FHRS,10
74667,,33 New Road,Spalding,Lincolnshire,Golden Lee,Takeaway/sandwich shop,7844,5,,243535,10,,52.78828600000000,16574,223,foodhs@sholland.gov.uk,South Holland,http://www.sholland.gov.uk,-0.15124100000000,PE11 1DN,2014-09-15,fhrs_4_en-GB,4,,FHRS,5
74668,,73 Seas End Road,Moulton Seas End,"Spalding, Lincolnshire",Golden Lion,Pub/bar/nightclub,7843,5,,243613,5,,52.82585300000000,21509,223,foodhs@sholland.gov.uk,South Holland,http://www.sholland.gov.uk,-0.03995700000000,PE12 6LD,2013-09-25,fhrs_5_en-GB,5,,FHRS,5
74669,,51 Winsover Road,Spalding,Lincolnshire,Golden Tree Chinese,Takeaway/sandwich shop,7844,5,,242916,5,,52.78688000000000,3922,223,foodhs@sholland.gov.uk,South Holland,http://www.sholland.gov.uk,-0.15680200000000,PE11 1EG,2014-03-19,fhrs_5_en-GB,5,,FHRS,5
74670,,24 High Street,Holbeach,"Spalding, Lincolnshire",Good Earth Chinese Takeaway,Takeaway/sandwich shop,7844,5,,243037,5,,52.80385100000000,1255,223,foodhs@sholland.gov.uk,South Holland,http://www.sholland.gov.uk,0.01594800000000,PE12 7DY,2013-10-09,fhrs_4_en-GB,4,,FHRS,10
74671,,,,,Gorgeous Cakes,Other catering premises,7841,5,,499257,5,,,35555,223,foodhs@sholland.gov.uk,South Holland,http://www.sholland.gov.uk,,,2013-02-21,fhrs_5_en-GB,5,,FHRS,5
74672,,6 High Street,Gosberton,"Spalding, Lincolnshire",Gosberton Academy,School/college/university,7845,5,,243264,5,,52.86716500000000,891,223,foodhs@sholland.gov.uk,South Holland,http://www.sholland.gov.uk,-0.15669900000000,PE11 4NW,2014-02-24,fhrs_4_en-GB,4,,FHRS,10
74673,,1 Spalding Road,Gosberton,Spalding,Gosberton Charcoal Grill Kebab,Takeaway/sandwich shop,7844,5,,242951,10,,52.86442100000000,34138,223,foodhs@sholland.gov.uk,South Holland,http://www.sholland.gov.uk,-0.15250700000000,PE11 4NP,2013-11-08,fhrs_4_en-GB,4,,FHRS,5
74674,,Clough Road,Gosberton Risegate,"Spalding, Lincs",Gosberton Clough/Risegate Primary School,School/college/university,7845,5,,439238,5,,52.85147700000000,876,223,foodhs@sholland.gov.uk,South Holland,http://www.sholland.gov.uk,-0.23120500000000,PE11 4JN,2013-11-11,fhrs_5_en-GB,5,,FHRS,5
74675,,11 Westhorpe Road,Gosberton,"Spalding, Lincolnshire",Gosberton House Nursing Home,Hospitals/Childcare/Caring Premises,5,5,,243363,5,,52.86922300000000,5212,223,foodhs@sholland.gov.uk,South Holland,http://www.sholland.gov.uk,-0.16242100000000,PE11 4EW,2013-08-12,fhrs_5_en-GB,5,,FHRS,0
74676,,11 Westhorpe Road,Gosberton,"Spalding, Lincolnshire",Gosberton House School,School/college/university,7845,5,,243647,0,,52.86922300000000,995,223,foodhs@sholland.gov.uk,South Holland,http://www.sholland.gov.uk,-0.16242100000000,PE11 4EW,2013-12-13,fhrs_5_en-GB,5,,FHRS,0
74677,,Spalding Road,Gosberton,Spalding,Gosberton Market,Retailers - other,4613,,,584484,,,52.86309600000000,34132,223,foodhs@sholland.gov.uk,South Holland,http://www.sholland.gov.uk,-0.14941400000000,PE11 4HL,2014-01-09,fhrs_3_en-GB,3,,FHRS,
74678,,55 High Street,Gosberton,"Spalding, Lincolnshire",Gosberton Public Hall,Other catering premises,7841,,,243668,,,52.86716500000000,898,223,foodhs@sholland.gov.uk,South Holland,http://www.sholland.gov.uk,-0.15669900000000,PE11 4NW,2013-12-31,fhrs_exempt_en-GB,Exempt,,FHRS,
74679,,2 Belchmire Lane,Gosberton,"Spalding, Lincolnshire",Gosberton Village Store,Retailers - other,4613,5,,243105,5,,52.86448400000000,832,223,foodhs@sholland.gov.uk,South Holland,http://www.sholland.gov.uk,-0.15715400000000,PE11 4HG,2014-02-24,fhrs_4_en-GB,4,,FHRS,10
74680,,High Street,Gosberton,"Spalding, Lincs",Gosberton Youth Club,Other catering premises,7841,5,,242897,5,,52.86716500000000,8508,223,foodhs@sholland.gov.uk,South Holland,http://www.sholland.gov.uk,-0.15669900000000,PE11 4NW,2011-02-07,fhrs_4_en-GB,4,,FHRS,10
74681,,Wardentree Lane,Pinchbeck,"Spalding, Lincs",Greencore Restaurant,Restaurant/Cafe/Canteen,1,0,,243092,0,,52.80797600000000,5430,223,foodhs@sholland.gov.uk,South Holland,http://www.sholland.gov.uk,-0.15181500000000,PE11 3UF,2014-03-28,fhrs_5_en-GB,5,,FHRS,0
74682,,8 Hall Place,Spalding,Lincolnshire,Greggs Bakery,Retailers - other,4613,5,,243111,5,,52.78723400000000,16263,223,foodhs@sholland.gov.uk,South Holland,http://www.sholland.gov.uk,-0.15239800000000,PE11 1SA,2013-10-21,fhrs_5_en-GB,5,,FHRS,5
74683,,12b Sheep Market,Spalding,,Gurkha Oven,Restaurant/Cafe/Canteen,1,5,,492838,5,,52.78759800000000,35019,223,foodhs@sholland.gov.uk,South Holland,http://www.sholland.gov.uk,-0.15380600000000,PE11 1BE,2014-09-24,fhrs_5_en-GB,5,,FHRS,5
74684,,,,,Halls Catering Services,Other catering premises,7841,5,,581752,5,,,36304,223,foodhs@sholland.gov.uk,South Holland,http://www.sholland.gov.uk,,,2014-11-07,fhrs_5_en-GB,5,,FHRS,5
74685,,,,,Heathers Cakes & Bakes,Retailers - other,4613,5,,243430,5,,,29618,223,foodhs@sholland.gov.uk,South Holland,http://www.sholland.gov.uk,,,2014-01-03,fhrs_5_en-GB,5,,FHRS,5
74686,,,,,Hedgemonkey,Retailers - other,4613,10,,243171,10,,,21323,223,foodhs@sholland.gov.uk,South Holland,http://www.sholland.gov.uk,,,2011-02-22,fhrs_3_en-GB,3,,FHRS,5
74687,,19 Market Place,Long Sutton,"Spalding, Lincolnshire",Henry's,Restaurant/Cafe/Canteen,1,5,,242920,10,,52.78499400000000,1770,223,foodhs@sholland.gov.uk,South Holland,http://www.sholland.gov.uk,0.12180400000000,PE12 9JA,2014-06-12,fhrs_3_en-GB,3,,FHRS,10
74688,,15A Sheep Market,Spalding,Lincolnshire,Heron Frozen Foods Ltd,Retailers - other,4613,5,,243162,5,,52.78759800000000,13694,223,foodhs@sholland.gov.uk,South Holland,http://www.sholland.gov.uk,-0.15380600000000,PE11 1BE,2011-07-25,fhrs_5_en-GB,5,,FHRS,5
74689,,9 London Road,Spalding,Lincolnshire,Highbridge Guest House,Hotel/bed & breakfast/guest house,7842,5,,242876,5,,52.78465500000000,3268,223,foodhs@sholland.gov.uk,South Holland,http://www.sholland.gov.uk,-0.15075700000000,PE11 2TA,2011-03-11,fhrs_4_en-GB,4,,FHRS,10
74690,,Boston Road North,Holbeach,"Spalding, Lincolnshire",Holbeach & East Elloe Hospital,Hospitals/Childcare/Caring Premises,5,5,,243560,5,,52.81689000000000,5339,223,foodhs@sholland.gov.uk,South Holland,http://www.sholland.gov.uk,0.00249800000000,PE12 8AQ,2014-11-24,fhrs_5_en-GB,5,,FHRS,0
74691,,20 High Street,Holbeach,"Spalding, Lincolnshire",Holbeach Bakery,Retailers - other,4613,10,,243433,5,,52.80385100000000,31599,223,foodhs@sholland.gov.uk,South Holland,http://www.sholland.gov.uk,0.01594800000000,PE12 7DY,2014-05-20,fhrs_4_en-GB,4,,FHRS,5
74692,,Roman Bank,Holbeach Bank,"Spalding, Lincs",Holbeach Bank Primary School,School/college/university,7845,5,,243275,5,,52.82914700000000,1303,223,foodhs@sholland.gov.uk,South Holland,http://www.sholland.gov.uk,0.01722300000000,PE12 8BX,2009-09-08,fhrs_4_en-GB,4,,FHRS,10
74693,,Fishpond Lane,Holbeach,"Spalding, Lincs",Holbeach Community Centre,Other catering premises,7841,,,243313,,,52.80134500000000,1184,223,foodhs@sholland.gov.uk,South Holland,http://www.sholland.gov.uk,0.02157300000000,PE12 7DQ,2014-09-09,fhrs_exempt_en-GB,Exempt,,FHRS,
74694,,Boston Road South,Holbeach,"Spalding, Lincs",Holbeach County Primary School,School/college/university,7845,5,,243233,5,,52.80866100000000,1086,223,foodhs@sholland.gov.uk,South Holland,http://www.sholland.gov.uk,0.01169000000000,PE12 7LZ,2012-02-02,fhrs_5_en-GB,5,,FHRS,5
74695,,24 Fleet Street,Holbeach,"Spalding, Lincolnshire",Holbeach Fish Bar,Takeaway/sandwich shop,7844,10,,243152,10,,52.80317900000000,1196,223,foodhs@sholland.gov.uk,South Holland,http://www.sholland.gov.uk,0.01949200000000,PE12 7AF,2014-06-10,fhrs_3_en-GB,3,,FHRS,5
74696,,Marsh Road,Holbeach Hurn,"Spalding, Lincs",Holbeach Hurn Village Hall,Other catering premises,7841,5,,243495,5,,52.82466600000000,1319,223,foodhs@sholland.gov.uk,South Holland,http://www.sholland.gov.uk,0.06760000000000,PE12 8JT,2009-10-01,fhrs_4_en-GB,4,,FHRS,10
74697,,34 High Street,Holbeach,"Spalding, Lincolnshire",Holbeach Pizza and Kebab House,Takeaway/sandwich shop,7844,5,,243661,5,,52.80385100000000,17684,223,foodhs@sholland.gov.uk,South Holland,http://www.sholland.gov.uk,0.01594800000000,PE12 7DY,2013-03-20,fhrs_5_en-GB,5,,FHRS,5
74698,,Joys Bank,Holbeach,"Spalding, Lincolnshire",Holbeach St Johns Village Hall,Other catering premises,7841,,,243192,,,52.74611800000000,5869,223,foodhs@sholland.gov.uk,South Holland,http://www.sholland.gov.uk,0.00008100000000,PE12 8SD,2014-01-02,fhrs_exempt_en-GB,Exempt,,FHRS,
74699,,Main Road,Holbeach St. Marks,"Spalding, Lincs",Holbeach St Marks Village Hall,Other catering premises,7841,,,243303,,,52.86223600000000,1415,223,foodhs@sholland.gov.uk,South Holland,http://www.sholland.gov.uk,0.03817400000000,PE12 8DZ,2014-03-12,fhrs_exempt_en-GB,Exempt,,FHRS,
74700,,Main Road,Holbeach St. Marks,"Spalding, Lincs",Holbeach St. Marks Primary,School/college/university,7845,5,,243301,5,,52.86223600000000,1412,223,foodhs@sholland.gov.uk,South Holland,http://www.sholland.gov.uk,0.03817400000000,PE12 8DZ,2011-07-21,fhrs_4_en-GB,4,,FHRS,10
74701,,8B Holbeach Road,Spalding,Lincolnshire,Holbeach Supermarket (Londis),Retailers - other,4613,5,,243164,5,,52.79440600000000,3157,223,foodhs@sholland.gov.uk,South Holland,http://www.sholland.gov.uk,-0.13954600000000,PE11 2HG,2011-07-19,fhrs_4_en-GB,4,,FHRS,10
74702,,Park Road,Holbeach,"Spalding, Lincolnshire",Holbeach United Football Social Club,Pub/bar/nightclub,7843,5,,243478,10,,52.80711600000000,1395,223,foodhs@sholland.gov.uk,South Holland,http://www.sholland.gov.uk,0.01691500000000,PE12 7PT,2010-09-14,fhrs_4_en-GB,4,,FHRS,5
74703,,52 Church Street,Holbeach,"Spalding, Lincs",Holbeach United Services Club,Pub/bar/nightclub,7843,10,,242841,10,,52.80246500000000,1109,223,foodhs@sholland.gov.uk,South Holland,http://www.sholland.gov.uk,0.01334700000000,PE12 7LL,2014-01-21,fhrs_3_en-GB,3,,FHRS,10
74704,,32 High Street,Holbeach,Spalding,Holbeach Wholefoods,Retailers - other,4613,10,,242887,10,,52.80385100000000,1263,223,foodhs@sholland.gov.uk,South Holland,http://www.sholland.gov.uk,0.01594800000000,PE12 7DY,2014-03-19,fhrs_3_en-GB,3,,FHRS,10
74705,,Francis Street,Spalding,Lincolnshire,Hole in the Wall,Pub/bar/nightclub,7843,10,,243044,10,,52.78627900000000,13003,223,foodhs@sholland.gov.uk,South Holland,http://www.sholland.gov.uk,-0.15169700000000,PE11 1AT,2013-06-12,fhrs_3_en-GB,3,,FHRS,5
74706,,35 Hall Place,Spalding,Lincolnshire,Holland & Barrett,Retailers - other,4613,5,,243104,5,,52.78768000000000,3049,223,foodhs@sholland.gov.uk,South Holland,http://www.sholland.gov.uk,-0.15218600000000,PE11 1SG,2011-12-19,fhrs_5_en-GB,5,,FHRS,5
74707,Springfield Shopping Outlet,Camel Gate,Spalding,,Holland and Barrett,Retailers - other,4613,5,,243200,5,,52.79755000000000,24731,223,foodhs@sholland.gov.uk,South Holland,http://www.sholland.gov.uk,-0.12738200000000,PE12 6ET,2014-01-02,fhrs_4_en-GB,4,,FHRS,10
74708,,46 Knight Street,Pinchbeck,"Spalding, Lincolnshire",Holmelea Bakery,Retailers - other,4613,5,,243446,5,,52.81647900000000,2298,223,foodhs@sholland.gov.uk,South Holland,http://www.sholland.gov.uk,-0.16150100000000,PE11 3RB,2014-09-22,fhrs_4_en-GB,4,,FHRS,10
74709,,70 Westlode Street,Spalding,Lincs,Homebase,Retailers - other,4613,,,243120,,,52.78920600000000,27112,223,foodhs@sholland.gov.uk,South Holland,http://www.sholland.gov.uk,-0.14912500000000,PE11 2AF,2015-01-28,fhrs_exempt_en-GB,Exempt,,FHRS,
74710,,,,,Honeypot Cupcakes,Retailers - other,4613,5,,590169,5,,,36359,223,foodhs@sholland.gov.uk,South Holland,http://www.sholland.gov.uk,,,2013-10-21,fhrs_5_en-GB,5,,FHRS,5
74711,,230 Broadgate,Weston Hills,"Spalding, Lincs",Honeypot Day Nurseries,Hospitals/Childcare/Caring Premises,5,5,,242983,5,,52.75620900000000,28042,223,foodhs@sholland.gov.uk,South Holland,http://www.sholland.gov.uk,-0.11144700000000,PE12 6DQ,2014-11-27,fhrs_5_en-GB,5,,FHRS,5
74712,,,,,Hooters Hall,Retailers - other,4613,10,,478869,5,,,23957,223,foodhs@sholland.gov.uk,South Holland,http://www.sholland.gov.uk,,,2013-12-19,fhrs_4_en-GB,4,,FHRS,5
74713,,High Road,Weston,"Spalding, Lincs",Hop In Restaurant,Restaurant/Cafe/Canteen,1,0,,242919,0,,52.80420200000000,4881,223,foodhs@sholland.gov.uk,South Holland,http://www.sholland.gov.uk,-0.09290000000000,PE12 6JU,2014-01-10,fhrs_5_en-GB,5,,FHRS,5
74714,,65 High Street,Holbeach,"Spalding, Lincolnshire",Horse & Groom,Pub/bar/nightclub,7843,5,,243239,5,,52.80341800000000,16181,223,foodhs@sholland.gov.uk,South Holland,http://www.sholland.gov.uk,0.01759000000000,PE12 7ED,2013-11-01,fhrs_5_en-GB,5,,FHRS,5
74715,,36 New Road,Spalding,Lincolnshire,Hot & Spicy,Takeaway/sandwich shop,7844,10,,243640,10,,52.78828600000000,20856,223,foodhs@sholland.gov.uk,South Holland,http://www.sholland.gov.uk,-0.15124100000000,PE11 1DN,2013-10-15,fhrs_3_en-GB,3,,FHRS,10
74716,,Lowgate,Fleet,"Spalding, Lincs",Hovenden House,Hospitals/Childcare/Caring Premises,5,5,,243675,5,,52.81462000000000,5370,223,foodhs@sholland.gov.uk,South Holland,http://www.sholland.gov.uk,0.07245000000000,PE12 8LP,2014-11-27,fhrs_5_en-GB,5,,FHRS,5
74717,,,,,Iced,Other catering premises,7841,5,,492841,5,,,35468,223,foodhs@sholland.gov.uk,South Holland,http://www.sholland.gov.uk,,,2013-07-02,fhrs_4_en-GB,4,,FHRS,10
74718,,,,,Iced Rose,Other catering premises,7841,5,,716359,5,,,9363,223,foodhs@sholland.gov.uk,South Holland,http://www.sholland.gov.uk,,,2014-11-06,fhrs_5_en-GB,5,,FHRS,5
74719,,Units B & C,Holland Market,Winfrey Avenue,Iceland Foods Ltd,Retailers - supermarkets/hypermarkets,7840,5,,590165,5,,52.78840500000000,36346,223,foodhs@sholland.gov.uk,South Holland,http://www.sholland.gov.uk,-0.15426100000000,PE11 1RQ,2013-10-17,fhrs_5_en-GB,5,,FHRS,5
74720,,20 Station Street,Spalding,Lincolnshire,Ilonas Baltic Restaurant,Restaurant/Cafe/Canteen,1,5,,243141,10,,52.78723600000000,31289,223,foodhs@sholland.gov.uk,South Holland,http://www.sholland.gov.uk,-0.15483000000000,PE11 1EB,2014-08-14,fhrs_3_en-GB,3,,FHRS,10
74721,,8-9 Station Street,Spalding,Lincolnshire,Indian Cottage,Restaurant/Cafe/Canteen,1,,,242828,,,52.78746900000000,22274,223,foodhs@sholland.gov.uk,South Holland,http://www.sholland.gov.uk,-0.15479000000000,PE11 1EF,2014-02-06,fhrs_3_en-GB,3,,FHRS,
74722,,9 Winsover Road,Spalding,Lincolnshire,Indus Indian Cuisine,Restaurant/Cafe/Canteen,1,,,243056,,,52.78688000000000,9799,223,foodhs@sholland.gov.uk,South Holland,http://www.sholland.gov.uk,-0.15680200000000,PE11 1EG,2014-12-03,fhrs_4_en-GB,4,,FHRS,
74723,,67 Albion Street,Spalding,Lincolnshire,Ivo Day Centre,Other catering premises,7841,,,243133,,,52.79182200000000,2637,223,foodhs@sholland.gov.uk,South Holland,http://www.sholland.gov.uk,-0.14446100000000,PE11 2AU,2014-05-01,fhrs_exempt_en-GB,Exempt,,FHRS,
74724,Providence House,North Drove,Quadring Fen,Spalding,J B Robinson & Son Ltd,Farmers/growers,7838,,,733817,,,52.88190000000000,36975,223,foodhs@sholland.gov.uk,South Holland,http://www.sholland.gov.uk,-0.22271400000000,PE11 4QS,2015-02-04,fhrs_exempt_en-GB,Exempt,,FHRS,
74725,Castle Sports Complex,Albion Street,Spalding,Lincolnshire,J2 Catering,Other catering premises,7841,10,,243267,5,,52.79009800000000,13863,223,foodhs@sholland.gov.uk,South Holland,http://www.sholland.gov.uk,-0.14579500000000,PE11 2AJ,2014-06-16,fhrs_4_en-GB,4,,FHRS,5
74726,,39B Holbeach Road,Spalding,Lincolnshire,Jacks Fish Bar,Takeaway/sandwich shop,7844,5,,243271,0,,52.79633400000000,13408,223,foodhs@sholland.gov.uk,South Holland,http://www.sholland.gov.uk,-0.13468700000000,PE11 2HX,2014-03-21,fhrs_5_en-GB,5,,FHRS,0
74727,,14 High Street,Donington,"Spalding, Lincolnshire",Jacks Fish Bar,Takeaway/sandwich shop,7844,5,,242909,5,,52.90492800000000,21360,223,foodhs@sholland.gov.uk,South Holland,http://www.sholland.gov.uk,-0.20257600000000,PE11 4TA,2013-09-11,fhrs_5_en-GB,5,,FHRS,5
74728,,,,,Jane L'Angellier,Other catering premises,7841,5,,243277,5,,,33909,223,foodhs@sholland.gov.uk,South Holland,http://www.sholland.gov.uk,,,2013-08-13,fhrs_5_en-GB,5,,FHRS,5
74729,,,,,JC & SC Mival,Retailers - other,4613,10,,243488,10,,,4265,223,foodhs@sholland.gov.uk,South Holland,http://www.sholland.gov.uk,,,2010-12-13,fhrs_3_en-GB,3,,FHRS,10
74730,,16 Market Place,Donington,"Spalding, Lincolnshire",Jessops Bakers,Retailers - other,4613,0,,243261,0,,52.90522400000000,431,223,foodhs@sholland.gov.uk,South Holland,http://www.sholland.gov.uk,-0.20494300000000,PE11 4ST,2013-11-27,fhrs_5_en-GB,5,,FHRS,0
74731,,,,,Jester King,Mobile caterer,7846,5,,243526,5,,,4644,223,foodhs@sholland.gov.uk,South Holland,http://www.sholland.gov.uk,,,2013-09-23,fhrs_5_en-GB,5,,FHRS,5
74732,,208 High Road,Whaplode,"Spalding, Lincolnshire",Jet Garage,Retailers - other,4613,5,,243032,10,,52.80031800000000,4999,223,foodhs@sholland.gov.uk,South Holland,http://www.sholland.gov.uk,-0.03067700000000,PE12 6TJ,2014-02-10,fhrs_3_en-GB,3,,FHRS,10
74733,,,,,JJeB Farm,Retailers - other,4613,20,,499254,10,,,35516,223,foodhs@sholland.gov.uk,South Holland,http://www.sholland.gov.uk,,,2013-11-29,fhrs_1_en-GB,1,,FHRS,10
74734,,,,,John's Fresh Veg,Retailers - other,4613,5,,733810,5,,,17152,223,foodhs@sholland.gov.uk,South Holland,http://www.sholland.gov.uk,,,2014-12-29,fhrs_5_en-GB,5,,FHRS,5
74735,,2 Spalding Road,Pinchbeck,Spalding,Johnson Community Hospital,Hospitals/Childcare/Caring Premises,5,0,,242872,0,,52.80174900000000,26875,223,foodhs@sholland.gov.uk,South Holland,http://www.sholland.gov.uk,-0.15029900000000,PE11 3DT,2013-08-17,fhrs_5_en-GB,5,,FHRS,0
74736,,10 High Street,Holbeach,Spalding,Julia Polish Shop,Retailers - other,4613,10,,565945,10,,52.80377600000000,36080,223,foodhs@sholland.gov.uk,South Holland,http://www.sholland.gov.uk,0.01612300000000,PE12 7DY,2014-01-15,fhrs_3_en-GB,3,,FHRS,5
74737,,206 Leamlands Lane,Lutton,Spalding,K Putterill Farms Ltd,Farmers/growers,7838,,,733818,,,52.81491400000000,36980,223,foodhs@sholland.gov.uk,South Holland,http://www.sholland.gov.uk,0.18821400000000,PE12 9NS,2015-01-19,fhrs_exempt_en-GB,Exempt,,FHRS,
74738,,14-16 Winsover Road,Spalding,Lincs,Kabanosik,Retailers - other,4613,10,,587419,5,,52.78721200000000,36342,223,foodhs@sholland.gov.uk,South Holland,http://www.sholland.gov.uk,-0.15730700000000,PE11 1EJ,2014-05-19,fhrs_4_en-GB,4,,FHRS,5
74739,,18 Fleet Street,Holbeach,"Spalding, Lincolnshire",Kan Ton,Takeaway/sandwich shop,7844,5,,243467,5,,52.80317900000000,1191,223,foodhs@sholland.gov.uk,South Holland,http://www.sholland.gov.uk,0.01949200000000,PE12 7AF,2014-11-28,fhrs_5_en-GB,5,,FHRS,5
74740,,,,,Kate's Cupcake Creations,Other catering premises,7841,5,,716356,5,,,36827,223,foodhs@sholland.gov.uk,South Holland,http://www.sholland.gov.uk,,,2014-11-11,fhrs_5_en-GB,5,,FHRS,5
74741,,,,,Katies Cakes,Other catering premises,7841,5,,243107,5,,,30277,223,foodhs@sholland.gov.uk,South Holland,http://www.sholland.gov.uk,,,2014-01-02,fhrs_4_en-GB,4,,FHRS,10
74742,Crescent House,Fulney Lane North,Spalding,Lincs,Kerry Foods (Canteen),Restaurant/Cafe/Canteen,1,10,,243456,5,,52.79563100000000,25015,223,foodhs@sholland.gov.uk,South Holland,http://www.sholland.gov.uk,-0.12599600000000,PE12 6EZ,2013-11-25,fhrs_4_en-GB,4,,FHRS,5
74743,Kimberley Nursing Home,21 London Road,Long Sutton,"Spalding, Lincs",Kimberley Nursing Home,Hospitals/Childcare/Caring Premises,5,10,,243657,5,,52.78314500000000,13263,223,foodhs@sholland.gov.uk,South Holland,http://www.sholland.gov.uk,0.12513900000000,PE12 9EA,2014-11-24,fhrs_4_en-GB,4,,FHRS,5
74744,Unit 5,Horseshoe Yard,Crowland,"Peterborough, Cambs",Kingfisher Foods,Mobile caterer,7846,20,,716354,10,,52.67389500000000,22560,223,foodhs@sholland.gov.uk,South Holland,http://www.sholland.gov.uk,-0.17145700000000,PE6 0BG,2014-11-03,fhrs_1_en-GB,1,,FHRS,10
74745,,,,,Kirsty's Cakes,Other catering premises,7841,5,,733813,5,,,36846,223,foodhs@sholland.gov.uk,South Holland,http://www.sholland.gov.uk,,,2014-12-09,fhrs_5_en-GB,5,,FHRS,5
74746,,6 Pinchbeck Road,Spalding,Lincs,Krautuvele,Retailers - other,4613,10,,456932,5,,52.78994800000000,33342,223,foodhs@sholland.gov.uk,South Holland,http://www.sholland.gov.uk,-0.15114100000000,PE11 1QD,2014-04-07,fhrs_4_en-GB,4,,FHRS,5
74747,,56 High Street,Holbeach,"Spalding, Lincolnshire",Krua Thai,Restaurant/Cafe/Canteen,1,5,,243437,0,,52.80341800000000,24622,223,foodhs@sholland.gov.uk,South Holland,http://www.sholland.gov.uk,0.01759000000000,PE12 7ED,2013-03-14,fhrs_5_en-GB,5,,FHRS,5
74748,,32 Church Street,Holbeach,"Spalding, Lincolnshire",Laddies Famous Ices,Retailers - other,4613,5,,243106,10,,52.80246500000000,1103,223,foodhs@sholland.gov.uk,South Holland,http://www.sholland.gov.uk,0.01334700000000,PE12 7LL,2013-03-26,fhrs_4_en-GB,4,,FHRS,5
74749,Fraiser Rooms,Gosberton Road,Surfleet,"Spalding, Lincolnshire",Lady Fraiser Charity No. 1 t/a Fraiser Rooms,Other catering premises,7841,5,,242947,5,,,30190,223,foodhs@sholland.gov.uk,South Holland,http://www.sholland.gov.uk,,,2014-03-11,fhrs_5_en-GB,5,,FHRS,5
74750,,Dozens Bank,West Pinchbeck,"Spalding, Lincs",Lake Ross,Pub/bar/nightclub,7843,10,,242937,5,,52.78419600000000,13400,223,foodhs@sholland.gov.uk,South Holland,http://www.sholland.gov.uk,-0.20393700000000,PE11 3NA,2014-05-14,fhrs_4_en-GB,4,,FHRS,5
74751,,226 High Road,Whaplode,"Spalding, Lincs",Lamb & Flag Inn,Pub/bar/nightclub,7843,10,,243631,10,,52.80580200000000,4997,223,foodhs@sholland.gov.uk,South Holland,http://www.sholland.gov.uk,-0.18989200000000,PE11 6TJ,2013-02-27,fhrs_3_en-GB,3,,FHRS,5
74752,,The Pyramid Building,The Green,Westlode Street,Laykonik,Retailers - other,4613,10,,242848,10,,52.79013000000000,33926,223,foodhs@sholland.gov.uk,South Holland,http://www.sholland.gov.uk,-0.14727700000000,PE11 2AG,2014-07-28,fhrs_2_en-GB,2,,FHRS,15
74753,,23 Winsover Road,Spalding,Lincolnshire,Leos Pizzeria,Takeaway/sandwich shop,7844,5,,243184,5,,52.78688000000000,3905,223,foodhs@sholland.gov.uk,South Holland,http://www.sholland.gov.uk,-0.15680200000000,PE11 1EG,2014-03-04,fhrs_5_en-GB,5,,FHRS,5
74754,,,,,Lewis Speciality Bread,Retailers - other,4613,10,,565944,10,,,36064,223,foodhs@sholland.gov.uk,South Holland,http://www.sholland.gov.uk,,,2013-08-23,fhrs_3_en-GB,3,,FHRS,10
74755,Winsover Centre,18 Winsover Road,Spalding,Lincolnshire,Lidl,Retailers - supermarkets/hypermarkets,7840,5,,243388,5,,52.78721200000000,19094,223,foodhs@sholland.gov.uk,South Holland,http://www.sholland.gov.uk,-0.15730700000000,PE11 1EJ,2014-01-02,fhrs_5_en-GB,5,,FHRS,5
74756,,12 High Street,Spalding,Lincs,Lilliput Day Nursery,Hospitals/Childcare/Caring Premises,5,5,,243206,5,,52.78686900000000,19059,223,foodhs@sholland.gov.uk,South Holland,http://www.sholland.gov.uk,-0.14858700000000,PE11 1TW,2014-06-30,fhrs_5_en-GB,5,,FHRS,5
74757,,31-33 Bridge Road,Sutton Bridge,"Spalding, Lincolnshire",Lincoln Co-op,Retailers - supermarkets/hypermarkets,7840,5,,243066,5,,52.76809700000000,17648,223,foodhs@sholland.gov.uk,South Holland,http://www.sholland.gov.uk,0.19262600000000,PE12 9UA,2014-10-31,fhrs_4_en-GB,4,,FHRS,10
74758,,54 High Street,Gosberton,"Spalding, Lincs",Lincoln Co-Op,Retailers - supermarkets/hypermarkets,7840,5,,243143,5,,52.86844900000000,911,223,foodhs@sholland.gov.uk,South Holland,http://www.sholland.gov.uk,-0.16062600000000,PE11 4NG,2013-12-31,fhrs_5_en-GB,5,,FHRS,5
74759,,High Road,Whaplode,"Spalding, Lincs",Lincoln co-op,Retailers - supermarkets/hypermarkets,7840,5,,243474,5,,52.80031800000000,5000,223,foodhs@sholland.gov.uk,South Holland,http://www.sholland.gov.uk,-0.03067700000000,PE12 6TJ,2014-07-07,fhrs_5_en-GB,5,,FHRS,5
74760,,1 Clover Way,Spalding,Lincs,Lincoln Co-op,Retailers - supermarkets/hypermarkets,7840,0,,243121,5,,52.79667200000000,7627,223,foodhs@sholland.gov.uk,South Holland,http://www.sholland.gov.uk,-0.16439800000000,PE11 3GD,2012-02-02,fhrs_5_en-GB,5,,FHRS,5
74761,Lincs Co-op Petrol Station,Holbeach Road,Spalding,Lincs,Lincoln Co-Op,Retailers - other,4613,5,,243466,5,,52.79835300000000,16365,223,foodhs@sholland.gov.uk,South Holland,http://www.sholland.gov.uk,-0.12076100000000,PE12 6JP,2014-01-02,fhrs_5_en-GB,5,,FHRS,5
74762,,The Chase,Long Sutton,"Spalding, Lincs",Lincoln Co-op (Butchery/Deli/Shop),Retailers - supermarkets/hypermarkets,7840,5,,243340,5,,52.78415500000000,13076,223,foodhs@sholland.gov.uk,South Holland,http://www.sholland.gov.uk,0.11943500000000,PE12 9BN,2013-09-12,fhrs_4_en-GB,4,,FHRS,10
74763,,The Chase,Long Sutton,"Spalding, Lincs",Lincoln Co-Op Garage,Retailers - other,4613,,,242985,,,52.78415500000000,1868,223,foodhs@sholland.gov.uk,South Holland,http://www.sholland.gov.uk,0.11943500000000,PE12 9BN,2014-01-03,fhrs_exempt_en-GB,Exempt,,FHRS,
74764,,8-12 West Street,Crowland,"Peterborough, Cambs",Lincoln Co-Op Society,Retailers - supermarkets/hypermarkets,7840,5,,243387,5,,52.67508800000000,209,223,foodhs@sholland.gov.uk,South Holland,http://www.sholland.gov.uk,-0.17068200000000,PE6 0ED,2014-02-10,fhrs_5_en-GB,5,,FHRS,5
74765,,The Chase,Long Sutton,"Spalding, Lincs",Lincoln Co-Op Store and Coffee Shop,Restaurant/Cafe/Canteen,1,5,,243620,5,,52.78415500000000,22332,223,foodhs@sholland.gov.uk,South Holland,http://www.sholland.gov.uk,0.11943500000000,PE12 9BN,2013-09-12,fhrs_4_en-GB,4,,FHRS,10
74766,,82 Holbeach Road,Spalding,Lincs,Lithuanian Grocery Ltd,Retailers - other,4613,5,,243115,5,,52.79633400000000,34137,223,foodhs@sholland.gov.uk,South Holland,http://www.sholland.gov.uk,-0.13468700000000,PE11 2HX,2014-11-19,fhrs_4_en-GB,4,,FHRS,10
74767,,Towndam Lane,Donington,"Spalding, Lincs",Little Dons Football Club,Other catering premises,7841,,,243036,,,52.90164500000000,12871,223,foodhs@sholland.gov.uk,South Holland,http://www.sholland.gov.uk,-0.20546200000000,PE11 4TR,2014-04-09,fhrs_exempt_en-GB,Exempt,,FHRS,
74768,Fulney Hall,69 Holbeach Road,Spalding,,Little Oaks Childcare,Hospitals/Childcare/Caring Premises,5,5,,612641,5,,52.79682200000000,36445,223,foodhs@sholland.gov.uk,South Holland,http://www.sholland.gov.uk,-0.12852600000000,PE12 6ER,2014-04-17,fhrs_5_en-GB,5,,FHRS,5
74769,Surfleet Primary School,Station Road,Surfleet,Spalding,Little Stars Pre-School,Hospitals/Childcare/Caring Premises,5,10,,704537,10,,52.84083300000000,36718,223,foodhs@sholland.gov.uk,South Holland,http://www.sholland.gov.uk,-0.13092500000000,PE11 4DB,2014-09-29,fhrs_3_en-GB,3,,FHRS,10
74770,,12 Haverfield Road,Spalding,Lincolnshire,Little Treasures Nurseries Ltd,Hospitals/Childcare/Caring Premises,5,5,,243505,5,,52.78388600000000,30820,223,foodhs@sholland.gov.uk,South Holland,http://www.sholland.gov.uk,-0.15274700000000,PE11 2XP,2015-01-27,fhrs_5_en-GB,5,,FHRS,5
74771,,57 High Street,Holbeach,"Spalding, Lincolnshire",Liudwal,Retailers - other,4613,10,,243181,5,,52.80385100000000,26712,223,foodhs@sholland.gov.uk,South Holland,http://www.sholland.gov.uk,0.01594800000000,PE12 7DY,2014-03-04,fhrs_3_en-GB,3,,FHRS,10
74772,,25 Little Common Lane,Holbeach Bank,,LIVES,Retailers - other,4613,,,242832,,,50.86011886596680,30721,223,foodhs@sholland.gov.uk,South Holland,http://www.sholland.gov.uk,-1.59259998798370,PE23 8BG,2011-12-03,fhrs_exempt_en-GB,Exempt,,FHRS,
74773,,7 Bridge Street,Spalding,Lincolnshire,Lloyds Chemist,Retailers - other,4613,,,243070,,,52.78606200000000,13001,223,foodhs@sholland.gov.uk,South Holland,http://www.sholland.gov.uk,-0.15047500000000,PE11 1XF,2014-01-03,fhrs_exempt_en-GB,Exempt,,FHRS,
74774,,9 North Street,Crowland,"Spalding, Lincolnshire",Lloyds Pharmacy,Retailers - other,4613,,,243130,,,52.67744400000000,28957,223,foodhs@sholland.gov.uk,South Holland,http://www.sholland.gov.uk,-0.16897100000000,PE6 0EG,2014-08-05,fhrs_exempt_en-GB,Exempt,,FHRS,
74775,,22 Westlode Street,Spalding,Lincs,Loaded and The Lounge,Pub/bar/nightclub,7843,10,,243378,10,,52.78920600000000,24916,223,foodhs@sholland.gov.uk,South Holland,http://www.sholland.gov.uk,-0.14912500000000,PE11 2AF,2014-03-13,fhrs_3_en-GB,3,,FHRS,10
74776,,Washway Road,Holbeach,"Spalding, Lincs",Lodge Farm Cafe,Restaurant/Cafe/Canteen,1,5,,243112,5,,52.80980100000000,1484,223,foodhs@sholland.gov.uk,South Holland,http://www.sholland.gov.uk,0.04180400000000,PE12 8JA,2013-11-08,fhrs_4_en-GB,4,,FHRS,10
74777,,West Street,Long Sutton,"Spalding, Lincs",Long Sutton Baptist Church Lunches,Other catering premises,7841,10,,243214,5,,52.78415500000000,22594,223,foodhs@sholland.gov.uk,South Holland,http://www.sholland.gov.uk,0.11943500000000,PE12 9BN,2013-04-26,fhrs_4_en-GB,4,,FHRS,5
74778,,Vicarage Lane,Long Sutton,Spalding,Long Sutton Barns,Other catering premises,7841,,,712331,,,52.77300100000000,36681,223,foodhs@sholland.gov.uk,South Holland,http://www.sholland.gov.uk,0.12974500000000,PE12 9AF,2014-10-31,fhrs_exempt_en-GB,Exempt,,FHRS,
74779,,Park Road,Long Sutton,Spalding,Long Sutton Cricket/Hockey,Pub/bar/nightclub,7843,10,,243469,5,,52.78690000000000,8603,223,foodhs@sholland.gov.uk,South Holland,http://www.sholland.gov.uk,0.12732400000000,PE12 9DJ,2011-03-30,fhrs_4_en-GB,4,,FHRS,5
74780,,The Chase (Off West Street),Long Sutton,"Spalding, Lincs",Long Sutton Indoor Bowls Club,Pub/bar/nightclub,7843,5,,243058,5,,52.78299900000000,1869,223,foodhs@sholland.gov.uk,South Holland,http://www.sholland.gov.uk,0.11973400000000,PE12 9BW,2014-02-24,fhrs_4_en-GB,4,,FHRS,10
74781,,14 Park Lane,Long Sutton,"Spalding, Lincs",Long Sutton Masonic Hall,Other catering premises,7841,,,243006,,,52.78653900000000,1805,223,foodhs@sholland.gov.uk,South Holland,http://www.sholland.gov.uk,0.12287200000000,PE12 9DH,2014-04-16,fhrs_exempt_en-GB,Exempt,,FHRS,
74782,,Trafalgar Square,Long Sutton,"Spalding, Lincs",Long Sutton Medical Centre,Retailers - other,4613,,,243074,,,52.78524600000000,15739,223,foodhs@sholland.gov.uk,South Holland,http://www.sholland.gov.uk,0.11827200000000,PE12 9HB,2014-06-04,fhrs_exempt_en-GB,Exempt,,FHRS,
74783,,Dick Turpin Way,Long Sutton,"Spalding, Lincs",Long Sutton Primary School,School/college/university,7845,5,,243027,5,,52.78691700000000,1678,223,foodhs@sholland.gov.uk,South Holland,http://www.sholland.gov.uk,0.11528300000000,PE12 9EP,2014-01-03,fhrs_5_en-GB,5,,FHRS,5
74784,,15 Park Lane,Long Sutton,"Spalding, Lincs",Long Sutton Scout Group,Other catering premises,7841,,,243682,,,52.78653900000000,1809,223,foodhs@sholland.gov.uk,South Holland,http://www.sholland.gov.uk,0.12287200000000,PE12 9DH,2014-06-04,fhrs_exempt_en-GB,Exempt,,FHRS,
74785,Unit 28,Springfields Outlet Centre,Camelgate,Spalding,Love Coffee,Restaurant/Cafe/Canteen,1,10,,576903,15,,52.79866000000000,36240,223,foodhs@sholland.gov.uk,South Holland,http://www.sholland.gov.uk,-0.12820900000000,PE12 6ES,2014-12-18,fhrs_2_en-GB,2,,FHRS,10
74786,,54 Fleet Road,Holbeach,Lincolnshire,Lucan Lodge,Hotel/bed & breakfast/guest house,7842,5,,243525,5,,52.80425300000000,30809,223,foodhs@sholland.gov.uk,South Holland,http://www.sholland.gov.uk,0.03240500000000,PE12 8LA,2014-01-03,fhrs_5_en-GB,5,,FHRS,5
74787,,,,,Lulu's Pantry,Other catering premises,7841,,,550480,,,,35944,223,foodhs@sholland.gov.uk,South Holland,http://www.sholland.gov.uk,,,2014-02-14,fhrs_4_en-GB,4,,FHRS,
74788,,School Lane,Lutton,"Spalding, Lincolnshire",Lutton Village Hall,Other catering premises,7841,,,243644,,,52.80690900000000,5874,223,foodhs@sholland.gov.uk,South Holland,http://www.sholland.gov.uk,0.12310800000000,PE12 9HW,2014-06-04,fhrs_exempt_en-GB,Exempt,,FHRS,
74789,,,,,LW Catering,Other catering premises,7841,5,,242924,10,,,9406,223,foodhs@sholland.gov.uk,South Holland,http://www.sholland.gov.uk,,,2013-09-05,fhrs_4_en-GB,4,,FHRS,5
74790,,,,,M D Catering,Mobile caterer,7846,5,,550478,5,,,35942,223,foodhs@sholland.gov.uk,South Holland,http://www.sholland.gov.uk,,,2013-07-30,fhrs_5_en-GB,5,,FHRS,5
74791,,,,,M&A Fab Cafe T/A Fowler Welch,Mobile caterer,7846,5,,242856,5,,,24732,223,foodhs@sholland.gov.uk,South Holland,http://www.sholland.gov.uk,,,2013-08-30,fhrs_5_en-GB,5,,FHRS,5
74792,Fleet Road Garage,36 Fleet Road,Holbeach,"Spalding, Lincolnshire",Mace Convenience Store,Retailers - other,4613,10,,242877,10,,52.80425300000000,14012,223,foodhs@sholland.gov.uk,South Holland,http://www.sholland.gov.uk,0.03240500000000,PE12 8LA,2013-02-18,fhrs_3_en-GB,3,,FHRS,5
74793,,42 Double Street,Spalding,Lincolnshire,Mai Thai,Restaurant/Cafe/Canteen,1,10,,243049,10,,52.78833600000000,29945,223,foodhs@sholland.gov.uk,South Holland,http://www.sholland.gov.uk,-0.14696800000000,PE11 2AB,2013-08-13,fhrs_3_en-GB,3,,FHRS,10
74794,Malthurst Limited,Wisbech Road,Long Sutton,"Spalding, Lincs",Malthurst Main Road,Retailers - other,4613,5,,243227,10,,52.77118400000000,16966,223,foodhs@sholland.gov.uk,South Holland,http://www.sholland.gov.uk,0.13531900000000,PE12 9AQ,2013-02-01,fhrs_3_en-GB,3,,FHRS,10
74795,,,,,Mama Lisa's Kitchen,Mobile caterer,7846,20,,243165,15,,,27927,223,foodhs@sholland.gov.uk,South Holland,http://www.sholland.gov.uk,,,2014-09-15,fhrs_1_en-GB,1,,FHRS,15
74796,,87 Gedney Road,Long Sutton,"Spalding, Lincs",Man Made Foods,Retailers - other,4613,5,,628110,10,,52.79238500000000,30039,223,foodhs@sholland.gov.uk,South Holland,http://www.sholland.gov.uk,0.10564000000000,PE12 9JU,2014-04-08,fhrs_4_en-GB,4,,FHRS,5
74797,,,,,Mandys Ices,Retailers - other,4613,10,,242820,10,,,31753,223,foodhs@sholland.gov.uk,South Holland,http://www.sholland.gov.uk,,,2013-08-07,fhrs_3_en-GB,3,,FHRS,5
74798,,19 Red Lion Street,Spalding,Lincolnshire,Marcos,Takeaway/sandwich shop,7844,5,,243337,5,,52.78782800000000,23166,223,foodhs@sholland.gov.uk,South Holland,http://www.sholland.gov.uk,-0.15185300000000,PE11 1SX,2014-04-30,fhrs_4_en-GB,4,,FHRS,10
74799,,,,,Maria's,Other catering premises,7841,5,,242882,5,,,27528,223,foodhs@sholland.gov.uk,South Holland,http://www.sholland.gov.uk,,,2013-03-20,fhrs_5_en-GB,5,,FHRS,5
74800,,Winfrey Avenue,Spalding,Lincs,Marks & Spencer (Simply Food),Retailers - supermarkets/hypermarkets,7840,0,,242904,5,,52.78910800000000,24695,223,foodhs@sholland.gov.uk,South Holland,http://www.sholland.gov.uk,-0.15205100000000,PE11 1DA,2014-03-12,fhrs_5_en-GB,5,,FHRS,5
74801,Springfields Outlet Centre,Camel Gate,Spalding,Lincolnshire,Marks & Spencer (Unit 32-34),Retailers - other,4613,,,243464,,,52.79939700000000,24991,223,foodhs@sholland.gov.uk,South Holland,http://www.sholland.gov.uk,-0.12936400000000,PE12 6ES,2014-01-03,fhrs_exempt_en-GB,Exempt,,FHRS,
74802,,13 High Street,Holbeach,"Spalding, Lincolnshire",Martins,Retailers - other,4613,0,,243323,0,,52.80408300000000,1246,223,foodhs@sholland.gov.uk,South Holland,http://www.sholland.gov.uk,0.01446000000000,PE12 7DU,2015-02-02,fhrs_5_en-GB,5,,FHRS,5
74803,,21 Pinchbeck Road,Spalding,Lincolnshire,Masonic Hall,Other catering premises,7841,10,,242836,5,,52.78994800000000,3511,223,foodhs@sholland.gov.uk,South Holland,http://www.sholland.gov.uk,-0.15114100000000,PE11 1QD,2011-01-11,fhrs_4_en-GB,4,,FHRS,5
74804,,Fleet Street,Holbeach,"Spalding, Lincs",Mayfield Residential Home,Hospitals/Childcare/Caring Premises,5,10,,243673,10,,52.80329400000000,1207,223,foodhs@sholland.gov.uk,South Holland,http://www.sholland.gov.uk,0.02173800000000,PE12 7AG,2014-11-26,fhrs_3_en-GB,3,,FHRS,5
74805,,Hillgate,Gedney Hill,"Spalding, Lincs",McColls,Retailers - other,4613,10,,243358,10,,52.68260500000000,787,223,foodhs@sholland.gov.uk,South Holland,http://www.sholland.gov.uk,-0.02184800000000,PE12 0NN,2013-07-17,fhrs_3_en-GB,3,,FHRS,10
74806,,Holbeach Road,Spalding,Lincs,McDonalds Restaurant,Restaurant/Cafe/Canteen,1,0,,242995,0,,52.79682200000000,15917,223,foodhs@sholland.gov.uk,South Holland,http://www.sholland.gov.uk,-0.12852600000000,PE12 6ER,2014-06-16,fhrs_5_en-GB,5,,FHRS,5
74807,,Vicarage Lane,Long Sutton,"Spalding, Lincs",McDonalds Restaurant,Restaurant/Cafe/Canteen,1,0,,243511,5,,52.77300100000000,19997,223,foodhs@sholland.gov.uk,South Holland,http://www.sholland.gov.uk,0.12974500000000,PE12 9AF,2014-06-12,fhrs_5_en-GB,5,,FHRS,5
74808,Clay Lake Farmhouse,Burr Lane,Spalding,,Mear Lodge,Hotel/bed & breakfast/guest house,7842,5,,668815,5,,52.76719000000000,26148,223,foodhs@sholland.gov.uk,South Holland,http://www.sholland.gov.uk,-0.15385400000000,PE12 6AZ,2014-09-04,fhrs_5_en-GB,5,,FHRS,5
74809,,Cranesgate,Whaplode St. Catherines,"Spalding, Lincs",Memorial Hall,Other catering premises,7841,5,,242929,5,,52.76785300000000,4960,223,foodhs@sholland.gov.uk,South Holland,http://www.sholland.gov.uk,-0.01346500000000,PE12 6SR,2011-02-01,fhrs_5_en-GB,5,,FHRS,5
74810,,Main Road,Hop Pole,Deeping St Nicholas,Methodist Chapel,Other catering premises,7841,10,,243602,5,,,25885,223,foodhs@sholland.gov.uk,South Holland,http://www.sholland.gov.uk,,PE11 3H1,2012-02-23,fhrs_4_en-GB,4,,FHRS,5
74811,,St. Thomas Road,Spalding,Lincs,Methodist Church,Other catering premises,7841,,,243314,,,52.78547600000000,5889,223,foodhs@sholland.gov.uk,South Holland,http://www.sholland.gov.uk,-0.15668300000000,PE11 2XX,2014-03-12,fhrs_exempt_en-GB,Exempt,,FHRS,
74812,,Broad Street,Spalding,Lincs,Methodist Church Hall,Other catering premises,7841,5,,243501,5,,52.78766100000000,5887,223,foodhs@sholland.gov.uk,South Holland,http://www.sholland.gov.uk,-0.15036300000000,PE11 1TB,2014-03-12,fhrs_4_en-GB,4,,FHRS,10
74813,Albert Street Methodist Church,Albert Street,Holbeach,"Spalding, Lincolnshire",Methodist Church Hall,Other catering premises,7841,,,243554,,,52.80192800000000,5868,223,foodhs@sholland.gov.uk,South Holland,http://www.sholland.gov.uk,0.01585900000000,PE12 7DR,2014-03-12,fhrs_exempt_en-GB,Exempt,,FHRS,
74814,,5 High Street,Long Sutton,Spalding,Miami,Takeaway/sandwich shop,7844,10,,683509,10,,52.78549400000000,36743,223,foodhs@sholland.gov.uk,South Holland,http://www.sholland.gov.uk,0.12249500000000,PE12 9DB,2014-10-01,fhrs_3_en-GB,3,,FHRS,10
74815,,,,,Michelle's Snack Bar,Mobile caterer,7846,5,,242823,0,,,26122,223,foodhs@sholland.gov.uk,South Holland,http://www.sholland.gov.uk,,,2013-05-14,fhrs_5_en-GB,5,,FHRS,5
74816,,6 East Street,Crowland,"Spalding, Lincolnshire",Millennium Kebabs,Takeaway/sandwich shop,7844,10,,243004,15,,52.67602300000000,31114,223,foodhs@sholland.gov.uk,South Holland,http://www.sholland.gov.uk,-0.16719700000000,PE6 0EN,2014-08-27,fhrs_2_en-GB,2,,FHRS,10
74817,,37l New Road,Spalding,,Mimi's,Restaurant/Cafe/Canteen,1,10,,439235,5,,52.78796700000000,34867,223,foodhs@sholland.gov.uk,South Holland,http://www.sholland.gov.uk,-0.15212900000000,PE11 1DW,2015-01-06,fhrs_4_en-GB,4,,FHRS,5
74818,,Unit 3 Merchant Mews,Park Road,Holbeach,Mini Europe,Retailers - other,4613,5,,243649,5,,52.80460200000000,31377,223,foodhs@sholland.gov.uk,South Holland,http://www.sholland.gov.uk,0.01562700000000,PE12 7EE,2014-06-04,fhrs_5_en-GB,5,,FHRS,5
74819,,,,,Mister Softee,Mobile caterer,7846,10,,243609,10,,,2845,223,foodhs@sholland.gov.uk,South Holland,http://www.sholland.gov.uk,,,2013-08-28,fhrs_3_en-GB,3,,FHRS,5
74820,,Pennygate,Spalding,Lincs,Monkshouse C P School,School/college/university,7845,5,,243594,5,,53.18334579467770,3486,223,foodhs@sholland.gov.uk,South Holland,http://www.sholland.gov.uk,-0.14031049609184,PE11 1LG,2014-07-23,fhrs_5_en-GB,5,,FHRS,5
74821,,West Drove,Gedney Hill,"Spalding, Lincolnshire",Monkswise Golf Club,Pub/bar/nightclub,7843,10,,243221,10,,52.69515500000000,5342,223,foodhs@sholland.gov.uk,South Holland,http://www.sholland.gov.uk,-0.01528700000000,PE12 0NT,2010-10-12,fhrs_3_en-GB,3,,FHRS,10
74822,,18 High Street,Moulton,"Spalding, Lincolnshire",Moulton Butchers,Retailers - other,4613,0,,243325,5,,52.79764100000000,26957,223,foodhs@sholland.gov.uk,South Holland,http://www.sholland.gov.uk,-0.06303100000000,PE12 6QB,2014-11-05,fhrs_5_en-GB,5,,FHRS,5
74823,,Eaugate Road,Moulton Chapel,"Spalding, Lincs",Moulton Chapel Primary School,School/college/university,7845,5,,243281,5,,52.78735500000000,2018,223,foodhs@sholland.gov.uk,South Holland,http://www.sholland.gov.uk,0.06023100000000,PE12 0XZ,2010-10-06,fhrs_4_en-GB,4,,FHRS,10
74824,Youth & Community Centre,17 Woodgate Road,Moulton Chapel,"Spalding, Lincolnshire",Moulton Chapel Youth and Community Centre,Other catering premises,7841,,,243349,,,52.74357000000000,31707,223,foodhs@sholland.gov.uk,South Holland,http://www.sholland.gov.uk,-0.08575600000000,PE12 0XF,2010-10-06,fhrs_exempt_en-GB,Exempt,,FHRS,
74825,,5 Broad Lane,Moulton,"Spalding, Lincolnshire",Moulton Community Centre,Other catering premises,7841,,,243638,,,52.79645200000000,1994,223,foodhs@sholland.gov.uk,South Holland,http://www.sholland.gov.uk,-0.06621300000000,PE12 6PN,2012-02-28,fhrs_exempt_en-GB,Exempt,,FHRS,
74826,,15 High Street,Moulton,"Spalding, Lincolnshire",Moulton Fish & Chips,Takeaway/sandwich shop,7844,5,,243219,5,,52.79764100000000,5473,223,foodhs@sholland.gov.uk,South Holland,http://www.sholland.gov.uk,-0.06303100000000,PE12 6QB,2014-06-17,fhrs_5_en-GB,5,,FHRS,5
74827,,Broad Lane,Moulton,"Spalding, Lincs",Moulton Harrox Pavillion,Other catering premises,7841,,,242992,,,52.79645200000000,1995,223,foodhs@sholland.gov.uk,South Holland,http://www.sholland.gov.uk,-0.06621300000000,PE12 6PN,2014-06-04,fhrs_exempt_en-GB,Exempt,,FHRS,
74828,,High Street,Moulton,Spalding,Moulton Mill,Restaurant/Cafe/Canteen,1,0,,243546,5,,52.79764100000000,25741,223,foodhs@sholland.gov.uk,South Holland,http://www.sholland.gov.uk,-0.06303100000000,PE12 6QB,2014-01-10,fhrs_5_en-GB,5,,FHRS,0
74829,,12-16 High Street,Moulton,"Spalding, Lincolnshire",Moulton Post Office,Retailers - other,4613,10,,242825,10,,52.79764100000000,2057,223,foodhs@sholland.gov.uk,South Holland,http://www.sholland.gov.uk,-0.06303100000000,PE12 6QB,2013-02-21,fhrs_3_en-GB,3,,FHRS,5
74830,,Seas End Road,Moulton Seas End,"Spalding, Lincs",Moulton Seas End Village Hall,Other catering premises,7841,,,243527,,,52.82585300000000,2124,223,foodhs@sholland.gov.uk,South Holland,http://www.sholland.gov.uk,-0.03995700000000,PE12 6LD,2012-08-01,fhrs_exempt_en-GB,Exempt,,FHRS,
74831,,10a Station Street,Spalding,,Mr Burger,Takeaway/sandwich shop,7844,5,,584485,5,,52.78723600000000,36319,223,foodhs@sholland.gov.uk,South Holland,http://www.sholland.gov.uk,-0.15483000000000,PE11 1EB,2014-02-10,fhrs_5_en-GB,5,,FHRS,5
74832,,2 Broad Street,Spalding,Lincolnshire,Mr Joseph Cifaldi t/a Spalding Club,Pub/bar/nightclub,7843,5,,243029,5,,52.78766100000000,2752,223,foodhs@sholland.gov.uk,South Holland,http://www.sholland.gov.uk,-0.15036300000000,PE11 1TB,2014-11-14,fhrs_5_en-GB,5,,FHRS,5
74833,,,,,Mr S M Mackman,Retailers - other,4613,5,,243336,5,,,5105,223,foodhs@sholland.gov.uk,South Holland,http://www.sholland.gov.uk,,,2014-01-03,fhrs_4_en-GB,4,,FHRS,10
74834,,,,,Mr Shine,Mobile caterer,7846,10,,683513,10,,,31591,223,foodhs@sholland.gov.uk,South Holland,http://www.sholland.gov.uk,,,2014-07-16,fhrs_3_en-GB,3,,FHRS,10
74835,,,,,Mrs Frances Tidswell t/a The Masonic,Other catering premises,7841,5,,243090,5,,,10304,223,foodhs@sholland.gov.uk,South Holland,http://www.sholland.gov.uk,,,2014-03-07,fhrs_5_en-GB,5,,FHRS,5
74836,,,,,Mrs Lisa Thomas,Other catering premises,7841,20,,243357,10,,,26791,223,foodhs@sholland.gov.uk,South Holland,http://www.sholland.gov.uk,,,2014-02-18,fhrs_1_en-GB,1,,FHRS,10
74837,The Beeches,Austendyke Road,Weston Hills,"Spalding, Lincolnshire",Mrs M Rawlings,Other catering premises,7841,5,,243405,10,,52.77799700000000,23982,223,foodhs@sholland.gov.uk,South Holland,http://www.sholland.gov.uk,-0.08024200000000,PE12 6BZ,2010-09-22,fhrs_3_en-GB,3,,FHRS,10
74838,Mulberrys Bar @ The Chequers Ltd,1 Swan Street,Spalding,Lincs,Mulberrys Bar @ The Chequers,Pub/bar/nightclub,7843,5,,242952,5,,,3774,223,foodhs@sholland.gov.uk,South Holland,http://www.sholland.gov.uk,,PE11 1BX,2014-02-21,fhrs_4_en-GB,4,,FHRS,10
74839,,12 Church Street,Holbeach,"Spalding, Lincolnshire",Munch Box,Takeaway/sandwich shop,7844,5,,242913,5,,52.80246500000000,25059,223,foodhs@sholland.gov.uk,South Holland,http://www.sholland.gov.uk,0.01334700000000,PE12 7LL,2015-02-02,fhrs_5_en-GB,5,,FHRS,5
74840,,,,,Munch Box,Mobile caterer,7846,5,,242865,10,,,20054,223,foodhs@sholland.gov.uk,South Holland,http://www.sholland.gov.uk,,,2014-09-29,fhrs_3_en-GB,3,,FHRS,10
74841,,,,,Munchies 4 You,Other catering premises,7841,5,,508811,5,,,35633,223,foodhs@sholland.gov.uk,South Holland,http://www.sholland.gov.uk,,,2013-07-08,fhrs_5_en-GB,5,,FHRS,5
74842,,Priory Road,Spalding,Lincs,Munchkins Kindergarten,Hospitals/Childcare/Caring Premises,5,5,,243186,5,,52.78405300000000,27526,223,foodhs@sholland.gov.uk,South Holland,http://www.sholland.gov.uk,-0.15420800000000,PE11 2XA,2014-06-16,fhrs_5_en-GB,5,,FHRS,5
74843,,46 Chapel Gate,Sutton St James,"Spalding, Lincolnshire",N W Roffe & Daughters,Retailers - other,4613,5,,243500,5,,52.74469800000000,28853,223,foodhs@sholland.gov.uk,South Holland,http://www.sholland.gov.uk,0.06665700000000,PE12 0EE,2014-07-25,fhrs_5_en-GB,5,,FHRS,5
74844,,25 Winsover Road,Spalding,Lincolnshire,Nanda's BBQ,Takeaway/sandwich shop,7844,10,,243667,10,,52.78688000000000,27923,223,foodhs@sholland.gov.uk,South Holland,http://www.sholland.gov.uk,-0.15680200000000,PE11 1EG,2015-01-14,fhrs_2_en-GB,2,,FHRS,15
74845,,10 -11 Sheep Market,Spalding,,Nasza Biedronka,Retailers - other,4613,20,,619794,15,,52.78759800000000,36478,223,foodhs@sholland.gov.uk,South Holland,http://www.sholland.gov.uk,-0.15380600000000,PE11 1BE,2014-04-01,fhrs_1_en-GB,1,,FHRS,15
74846,,,,,National Events Caterers,Mobile caterer,7846,5,,243262,5,,,34136,223,foodhs@sholland.gov.uk,South Holland,http://www.sholland.gov.uk,,,2013-07-21,fhrs_5_en-GB,5,,FHRS,5
74847,,224 Bridge Road,Sutton Bridge,"Spalding, Lincolnshire",Nene Lodge,Hospitals/Childcare/Caring Premises,5,0,,243215,5,,52.77145900000000,5357,223,foodhs@sholland.gov.uk,South Holland,http://www.sholland.gov.uk,0.18093500000000,PE12 9SG,2014-11-27,fhrs_5_en-GB,5,,FHRS,5
74848,,19 High Street,Holbeach,"Spalding, Lincolnshire",New Eastern Delight,Takeaway/sandwich shop,7844,10,,243625,10,,52.80408300000000,27570,223,foodhs@sholland.gov.uk,South Holland,http://www.sholland.gov.uk,0.01446000000000,PE12 7DU,2014-04-23,fhrs_3_en-GB,3,,FHRS,10
74849,,44 Knight Street,Pinchbeck,"Spalding, Lincolnshire",New Kamble House,Takeaway/sandwich shop,7844,10,,243372,10,,52.81647900000000,16273,223,foodhs@sholland.gov.uk,South Holland,http://www.sholland.gov.uk,-0.16150100000000,PE11 3RB,2014-02-26,fhrs_3_en-GB,3,,FHRS,10
74850,,10 Market Place,Spalding,Lincolnshire,New Look,Retailers - other,4613,,,243280,,,52.78674600000000,5672,223,foodhs@sholland.gov.uk,South Holland,http://www.sholland.gov.uk,-0.15109800000000,PE11 1SL,2014-06-04,fhrs_exempt_en-GB,Exempt,,FHRS,
74851,,1 Market Place,Donington,"Spalding, Lincs",New Sunlight,Takeaway/sandwich shop,7844,,,243035,,,52.90522400000000,27829,223,foodhs@sholland.gov.uk,South Holland,http://www.sholland.gov.uk,-0.20494300000000,PE11 4ST,2014-05-28,fhrs_5_en-GB,5,,FHRS,
74852,,21 High Street,Long Sutton,"Spalding, Lincolnshire",New Sutton House,Takeaway/sandwich shop,7844,10,,243258,10,,52.78549400000000,17314,223,foodhs@sholland.gov.uk,South Holland,http://www.sholland.gov.uk,0.12249500000000,PE12 9DB,2013-08-01,fhrs_3_en-GB,3,,FHRS,10
74853,,,,,Nice and Sweet Candy Floss,Mobile caterer,7846,5,,735097,5,,,36875,223,foodhs@sholland.gov.uk,South Holland,http://www.sholland.gov.uk,,,2015-02-10,fhrs_5_en-GB,5,,FHRS,5
74854,,8 Barrington Gate,Holbeach,"Spalding, Lincolnshire",Nicks Plaice,Takeaway/sandwich shop,7844,5,,243429,5,,52.80275100000000,1045,223,foodhs@sholland.gov.uk,South Holland,http://www.sholland.gov.uk,0.01718800000000,PE12 7DA,2013-03-05,fhrs_5_en-GB,5,,FHRS,5
74855,,84 West Street,Long Sutton,"Spalding, Lincolnshire",Nisa Late Shopper,Retailers - other,4613,20,,243679,10,,52.78415500000000,1877,223,foodhs@sholland.gov.uk,South Holland,http://www.sholland.gov.uk,0.11943500000000,PE12 9BN,2014-11-24,fhrs_1_en-GB,1,,FHRS,5
74856,,37 Holbeach Road,Spalding,Lincs,Nisa Lateshopper,Retailers - other,4613,10,,242954,5,,52.79633400000000,3164,223,foodhs@sholland.gov.uk,South Holland,http://www.sholland.gov.uk,-0.13468700000000,PE11 2HX,2014-03-25,fhrs_4_en-GB,4,,FHRS,5
74857,,,,,Northern Care,Hospitals/Childcare/Caring Premises,5,5,,242837,5,,,25110,223,foodhs@sholland.gov.uk,South Holland,http://www.sholland.gov.uk,,,2014-07-03,fhrs_5_en-GB,5,,FHRS,5
74858,,81 Boston Road South,Holbeach,"Spalding, Lincolnshire",Nutten Stoven,Hospitals/Childcare/Caring Premises,5,5,,243622,5,,52.80983600000000,15180,223,foodhs@sholland.gov.uk,South Holland,http://www.sholland.gov.uk,0.00975600000000,PE12 8AA,2014-09-08,fhrs_5_en-GB,5,,FHRS,5
74859,,10 Church Street,Holbeach,"Spalding, Lincolnshire",Ocean,Takeaway/sandwich shop,7844,10,,243376,10,,52.80246500000000,24968,223,foodhs@sholland.gov.uk,South Holland,http://www.sholland.gov.uk,0.01334700000000,PE12 7LL,2014-09-03,fhrs_3_en-GB,3,,FHRS,10
74860,,41 Alexandra Road,Spalding,Lincolnshire,Oh My Cod,Takeaway/sandwich shop,7844,10,,243354,5,,52.78215100000000,24975,223,foodhs@sholland.gov.uk,South Holland,http://www.sholland.gov.uk,-0.14525800000000,PE11 2PX,2013-08-02,fhrs_4_en-GB,4,,FHRS,5
74861,,Jekils Bank,Holbeach St. Johns,"Holbeach, Spalding, Lincs",OK Catering Fenland Airfield,Restaurant/Cafe/Canteen,1,5,,243669,5,,52.74195500000000,8442,223,foodhs@sholland.gov.uk,South Holland,http://www.sholland.gov.uk,-0.02885000000000,PE12 8RQ,2013-11-14,fhrs_5_en-GB,5,,FHRS,5
74862,,28 West End,Holbeach,"Spalding, Lincolnshire",One Stop,Retailers - other,4613,0,,242911,5,,52.80434700000000,13204,223,foodhs@sholland.gov.uk,South Holland,http://www.sholland.gov.uk,0.01269200000000,PE12 7LW,2015-01-26,fhrs_5_en-GB,5,,FHRS,5
74863,,5 Westlode Street,Spalding,Lincolnshire,Oriental Delight,Takeaway/sandwich shop,7844,5,,242910,5,,52.78920600000000,31477,223,foodhs@sholland.gov.uk,South Holland,http://www.sholland.gov.uk,-0.14912500000000,PE11 2AF,2014-03-04,fhrs_5_en-GB,5,,FHRS,5
74864,,31 High Street,Long Sutton,"Spalding, Lincolnshire",Othellos Bakery,Retailers - other,4613,5,,243523,5,,52.78549400000000,1711,223,foodhs@sholland.gov.uk,South Holland,http://www.sholland.gov.uk,0.12249500000000,PE12 9DB,2014-03-06,fhrs_5_en-GB,5,,FHRS,5
74865,,17 Station Street,Spalding,Lincolnshire,Oxfam Charity Shop,Retailers - other,4613,,,434261,,,52.78723600000000,3754,223,foodhs@sholland.gov.uk,South Holland,http://www.sholland.gov.uk,-0.15483000000000,PE11 1EB,2012-08-31,fhrs_exempt_en-GB,Exempt,,FHRS,
74866,Windcatch,11 Kellet Gate,Spalding,Lincolnshire,Parkers Pantry,Takeaway/sandwich shop,7844,10,,243176,10,,52.78257700000000,29068,223,foodhs@sholland.gov.uk,South Holland,http://www.sholland.gov.uk,-0.12031400000000,PE12 6EH,2010-10-20,fhrs_3_en-GB,3,,FHRS,10
74867,,,,,Party4Hire,Other catering premises,7841,10,,482457,5,,,35398,223,foodhs@sholland.gov.uk,South Holland,http://www.sholland.gov.uk,,,2013-05-16,fhrs_4_en-GB,4,,FHRS,5
74868,,Stukeley Road,Holbeach,"Spalding, Lincs",Patchett Lodge,Hospitals/Childcare/Caring Premises,5,5,,242824,5,,52.80468000000000,5368,223,foodhs@sholland.gov.uk,South Holland,http://www.sholland.gov.uk,0.00788600000000,PE12 7HG,2014-09-08,fhrs_5_en-GB,5,,FHRS,5
74869,,6 Market Place,Long Sutton,"Spalding, Lincolnshire",Pats Flowers,Retailers - other,4613,5,,243155,10,,52.78488900000000,1760,223,foodhs@sholland.gov.uk,South Holland,http://www.sholland.gov.uk,0.12110200000000,PE12 9JF,2009-07-06,fhrs_4_en-GB,4,,FHRS,5
74870,,84 Little London,Long Sutton,"Spalding, Lincolnshire",Peele Community College,School/college/university,7845,5,,242946,5,,52.79347600000000,1965,223,foodhs@sholland.gov.uk,South Holland,http://www.sholland.gov.uk,0.12862400000000,PE12 9LF,2014-06-12,fhrs_5_en-GB,5,,FHRS,5
74871,,Little London,Long Sutton,"Spalding, Lincs",Peele Leisure Centre,Other catering premises,7841,,,243088,,,52.79347610473633,26725,223,foodhs@sholland.gov.uk,South Holland,http://www.sholland.gov.uk,0.12862403690815,PE12 9LF,2014-05-02,fhrs_exempt_en-GB,Exempt,,FHRS,
74872,,201A Pennygate,Spalding,Lincolnshire,Pennygate Supermarket (Premier),Retailers - other,4613,0,,243042,5,,52.78749200000000,3474,223,foodhs@sholland.gov.uk,South Holland,http://www.sholland.gov.uk,-0.16788400000000,PE11 1LX,2015-01-30,fhrs_5_en-GB,5,,FHRS,5
74873,,10 Francis Street,Spalding,,Petals of Spalding,Retailers - other,4613,5,,243002,10,,52.78627900000000,34058,223,foodhs@sholland.gov.uk,South Holland,http://www.sholland.gov.uk,-0.15169700000000,PE11 1AT,2015-01-12,fhrs_3_en-GB,3,,FHRS,10
74874,,Spalding Road,Crowland,"Peterborough, Cambs",Peterborough & Spalding Gliding Club,Pub/bar/nightclub,7843,10,,243010,10,,52.71221300000000,15145,223,foodhs@sholland.gov.uk,South Holland,http://www.sholland.gov.uk,-0.13272600000000,PE6 0JW,2014-03-12,fhrs_3_en-GB,3,,FHRS,5
74875,,4 High Street,Donington,Spalding,Pets and Produce,Retailers - other,4613,5,,595993,5,,52.90492800000000,36373,223,foodhs@sholland.gov.uk,South Holland,http://www.sholland.gov.uk,-0.20257600000000,PE11 4TA,2013-11-27,fhrs_5_en-GB,5,,FHRS,5
74876,,18 Bridge Road,Sutton Bridge,"Spalding, Lincolnshire",Phoenix,Takeaway/sandwich shop,7844,5,,243175,10,,52.76809700000000,4341,223,foodhs@sholland.gov.uk,South Holland,http://www.sholland.gov.uk,0.19262600000000,PE12 9UA,2014-08-04,fhrs_4_en-GB,4,,FHRS,5
74877,,United Reformed Church,London Road,"Long Sutton, Spalding, Lincoln",Phoenix Montessori Nursery,Hospitals/Childcare/Caring Premises,5,10,,243211,10,,52.78305300000000,31752,223,foodhs@sholland.gov.uk,South Holland,http://www.sholland.gov.uk,0.12522400000000,PE12 9EA,2013-08-23,fhrs_3_en-GB,3,,FHRS,5
74878,,20 Sheep Market,Spalding,Lincolnshire,Pied Calf Inn,Pub/bar/nightclub,7843,5,,243094,5,,52.78759800000000,3704,223,foodhs@sholland.gov.uk,South Holland,http://www.sholland.gov.uk,-0.15380600000000,PE11 1BE,2013-02-11,fhrs_5_en-GB,5,,FHRS,5
74879,Pinchbeck East C Of E Primary School,Fennell Road,Pinchbeck,Spalding,Pinchbeck East Primary School,School/college/university,7845,5,,243621,5,,52.81401700000000,2250,223,foodhs@sholland.gov.uk,South Holland,http://www.sholland.gov.uk,-0.16335600000000,PE11 3RP,2015-01-13,fhrs_5_en-GB,5,,FHRS,0
74880,,27a Church Street,Pinchbeck,"Spalding, Lincolnshire",Pinchbeck Friar,Takeaway/sandwich shop,7844,5,,243457,10,,52.81446000000000,2210,223,foodhs@sholland.gov.uk,South Holland,http://www.sholland.gov.uk,-0.15947900000000,PE11 3UA,2013-06-13,fhrs_4_en-GB,4,,FHRS,5
74881,Pinchbeck East Primary School,Fennel Road,Pinchbeck,"Spalding, Lincs",Pinchbeck Kids Club,School/college/university,7845,0,,243101,5,,52.81401700000000,22712,223,foodhs@sholland.gov.uk,South Holland,http://www.sholland.gov.uk,-0.16335600000000,PE11 3RP,2014-01-03,fhrs_5_en-GB,5,,FHRS,5
74882,,32-34 Knight Street,Pinchbeck,"Spalding, Lincs",Pinchbeck News Food and Wine,Retailers - other,4613,5,,243183,5,,52.81647900000000,2288,223,foodhs@sholland.gov.uk,South Holland,http://www.sholland.gov.uk,-0.16150100000000,PE11 3RB,2015-01-30,fhrs_5_en-GB,5,,FHRS,5
74883,Baptist Church Hall,Knight Street,Pinchbeck,Spalding,Pinchbeck Penguins Playgroup,School/college/university,7845,5,,242973,5,,52.81682700000000,32233,223,foodhs@sholland.gov.uk,South Holland,http://www.sholland.gov.uk,-0.16311800000000,PE11 3RA,2012-08-09,fhrs_5_en-GB,5,,FHRS,5
74884,,,,,Pinchbeck Pig Roast Company,Mobile caterer,7846,5,,504941,5,,,35027,223,foodhs@sholland.gov.uk,South Holland,http://www.sholland.gov.uk,,,2013-07-11,fhrs_5_en-GB,5,,FHRS,5
74885,,Knight Street,Pinchbeck,Spalding,Pinchbeck Village Hall,Other catering premises,7841,,,243234,,,52.81647900000000,2314,223,foodhs@sholland.gov.uk,South Holland,http://www.sholland.gov.uk,-0.16150100000000,PE11 3RB,2012-01-24,fhrs_exempt_en-GB,Exempt,,FHRS,
74886,Pipwell Manor,Washway Road,Saracens Head,Spalding,Pipwell Manor,Hotel/bed & breakfast/guest house,7842,5,,243683,5,,52.82307300000000,5069,223,foodhs@sholland.gov.uk,South Holland,http://www.sholland.gov.uk,-0.00854200000000,PE12 8AL,2014-03-12,fhrs_5_en-GB,5,,FHRS,5
74887,"A P Nurseries, Angies Plant Ce",Weston Hills Road,Low Fulney,"Spalding, Lincs",Pit Stop Cafe,Restaurant/Cafe/Canteen,1,5,,243617,5,,52.77872800000000,26681,223,foodhs@sholland.gov.uk,South Holland,http://www.sholland.gov.uk,-0.11518700000000,PE12 6NE,2014-02-13,fhrs_5_en-GB,5,,FHRS,5
74888,,50 Market Place,Long Sutton,"Spalding, Lincolnshire",Pizza Perfection,Takeaway/sandwich shop,7844,10,,243658,15,,52.78488900000000,27396,223,foodhs@sholland.gov.uk,South Holland,http://www.sholland.gov.uk,0.12110200000000,PE12 9JF,2014-03-12,fhrs_2_en-GB,2,,FHRS,15
74889,,Enterprise Way,Pinchbeck,"Spalding, Lincs",Plantiflor Ltd,Restaurant/Cafe/Canteen,1,5,,242891,5,,52.80521200000000,17354,223,foodhs@sholland.gov.uk,South Holland,http://www.sholland.gov.uk,-0.14467700000000,PE11 3YR,2013-11-29,fhrs_5_en-GB,5,,FHRS,5
74890,,323 Bourne Road,Spalding,Lincolnshire,Pode Hole Post Office/Stores,Retailers - other,4613,,,243012,,,52.78130100000000,2719,223,foodhs@sholland.gov.uk,South Holland,http://www.sholland.gov.uk,-0.19627200000000,PE11 3LW,2014-03-25,fhrs_4_en-GB,4,,FHRS,
74891,,23 Roman Road,Moulton Chapel,"Spalding, Lincolnshire",Post Office Stores,Retailers - other,4613,5,,243674,5,,52.74652300000000,2102,223,foodhs@sholland.gov.uk,South Holland,http://www.sholland.gov.uk,-0.07986300000000,PE12 0XQ,2015-02-04,fhrs_5_en-GB,5,,FHRS,5
74892,,88 Little London,Spalding,Lincolnshire,Premier Stores,Retailers - other,4613,10,,243218,5,,52.77527600000000,3259,223,foodhs@sholland.gov.uk,South Holland,http://www.sholland.gov.uk,-0.16101400000000,PE11 2UJ,2014-02-17,fhrs_4_en-GB,4,,FHRS,5
74893,,45 Knight Street,Pinchbeck,"Spalding, Lincolnshire",Presleys,Takeaway/sandwich shop,7844,5,,243253,0,,52.81682700000000,21284,223,foodhs@sholland.gov.uk,South Holland,http://www.sholland.gov.uk,-0.16311800000000,PE11 3RA,2013-12-04,fhrs_5_en-GB,5,,FHRS,0
74894,Elsom House,1 Broad Street,Spalding,Lincs,Prezzo,Restaurant/Cafe/Canteen,1,0,,243677,0,,52.78766100000000,27918,223,foodhs@sholland.gov.uk,South Holland,http://www.sholland.gov.uk,-0.15036300000000,PE11 1TB,2014-01-29,fhrs_5_en-GB,5,,FHRS,5
74895,,Bridge Road,Little Sutton,"Spalding, Lincs",Princes Foods - Canteen,Restaurant/Cafe/Canteen,1,5,,242816,5,,52.77905400000000,1633,223,foodhs@sholland.gov.uk,South Holland,http://www.sholland.gov.uk,0.15207400000000,PE12 9EG,2013-11-22,fhrs_4_en-GB,4,,FHRS,10
74896,Solanum Ltd,East Bank,Sutton Bridge,Spalding,Produce World Sutton Bridge Canteen,Restaurant/Cafe/Canteen,1,5,,242857,5,,52.76072400000000,16575,223,foodhs@sholland.gov.uk,South Holland,http://www.sholland.gov.uk,0.19265600000000,PE12 9YB,2014-11-18,fhrs_4_en-GB,4,,FHRS,10
74897,Escallonia,3 Holland Road,Spalding,Lincolnshire,Puddle Ducks Day Nursery,Hospitals/Childcare/Caring Premises,5,5,,243174,0,,52.78649000000000,7505,223,foodhs@sholland.gov.uk,South Holland,http://www.sholland.gov.uk,-0.14620100000000,PE11 1UL,2015-01-28,fhrs_5_en-GB,5,,FHRS,5
74898,,1 High Street,Holbeach,"Spalding, Lincolnshire",QD Stores,Retailers - other,4613,,,242958,,,52.80408300000000,31233,223,foodhs@sholland.gov.uk,South Holland,http://www.sholland.gov.uk,0.01446000000000,PE12 7DU,2014-05-20,fhrs_exempt_en-GB,Exempt,,FHRS,
74899,,Church End,Donington,"Spalding, Lincs",Quadring Cowley & Browns School,School/college/university,7845,5,,243125,5,,52.88994400000000,2526,223,foodhs@sholland.gov.uk,South Holland,http://www.sholland.gov.uk,-0.18272700000000,PE11 4SQ,2014-01-02,fhrs_5_en-GB,5,,FHRS,5
74900,,105 Main Road,Quadring,"Spalding, Lincolnshire",Quadring Post Office,Retailers - other,4613,10,,243291,5,,52.88100000000000,2536,223,foodhs@sholland.gov.uk,South Holland,http://www.sholland.gov.uk,-0.17929600000000,PE11 4PW,2013-02-11,fhrs_3_en-GB,3,,FHRS,10
74901,,146 Bridge Road,Sutton Bridge,"Spalding, Lincs",R & W Butchers,Retailers - other,4613,5,,242933,5,,52.77003200000000,4366,223,foodhs@sholland.gov.uk,South Holland,http://www.sholland.gov.uk,0.18568100000000,PE12 9SF,2014-11-13,fhrs_5_en-GB,5,,FHRS,5
74902,Manor Farm,Langhole Drove,Pinchbeck,"Spalding, Lincolnshire",R. Rowell & Son,Farmers/growers,7838,,,718367,,,52.82292800000000,28034,223,foodhs@sholland.gov.uk,South Holland,http://www.sholland.gov.uk,-0.16459800000000,PE11 3XP,2014-11-20,fhrs_exempt_en-GB,Exempt,,FHRS,
74903,,28 Westlode Street,Spalding,,Rafael's Coffee Shop,Restaurant/Cafe/Canteen,1,10,,242852,5,,52.78920600000000,32179,223,foodhs@sholland.gov.uk,South Holland,http://www.sholland.gov.uk,-0.14912500000000,PE11 2AF,2014-03-03,fhrs_2_en-GB,2,,FHRS,15
74904,,196 Bridge Road,Sutton Bridge,"Spalding, Lincs",Railway Stores,Retailers - other,4613,5,,242879,5,,52.77003200000000,17967,223,foodhs@sholland.gov.uk,South Holland,http://www.sholland.gov.uk,0.18568100000000,PE12 9SF,2014-04-10,fhrs_5_en-GB,5,,FHRS,5
74905,Gosberton Youth Club,High Street,Gosberton,"Spalding, Lincs",Rainbow Playgroup,Hospitals/Childcare/Caring Premises,5,5,,243235,5,,52.86716500000000,26704,223,foodhs@sholland.gov.uk,South Holland,http://www.sholland.gov.uk,-0.15669900000000,PE11 4NW,2012-08-09,fhrs_4_en-GB,4,,FHRS,10
74906,,84 Little London,Long Sutton,"Spalding, Lincolnshire",Rainbow Pre School,Hospitals/Childcare/Caring Premises,5,5,,243230,5,,52.79347600000000,24166,223,foodhs@sholland.gov.uk,South Holland,http://www.sholland.gov.uk,0.12862400000000,PE12 9LF,2012-08-09,fhrs_5_en-GB,5,,FHRS,5
74907,,72 Church Street,Holbeach,"Spalding, Lincolnshire",Reading Room,Other catering premises,7841,,,243355,,,52.80246500000000,24941,223,foodhs@sholland.gov.uk,South Holland,http://www.sholland.gov.uk,0.01334700000000,PE12 7LL,2012-09-04,fhrs_exempt_en-GB,Exempt,,FHRS,
74908,,,,,Red Bus,Takeaway/sandwich shop,7844,5,,708528,5,,,36837,223,foodhs@sholland.gov.uk,South Holland,http://www.sholland.gov.uk,,,2014-09-23,fhrs_5_en-GB,5,,FHRS,5
74909,,34 Hillgate,Gedney Hill,"Spalding, Lincolnshire",Red Lion Public House,Pub/bar/nightclub,7843,10,,243309,10,,52.68260500000000,10509,223,foodhs@sholland.gov.uk,South Holland,http://www.sholland.gov.uk,-0.02184800000000,PE12 0NN,2011-07-08,fhrs_3_en-GB,3,,FHRS,10
74910,,Westlode Street,Spalding,Lincolnshire,Regent Bingo Club,Pub/bar/nightclub,7843,10,,243086,5,,52.78887300000000,3877,223,foodhs@sholland.gov.uk,South Holland,http://www.sholland.gov.uk,-0.14848700000000,PE11 2AE,2011-06-14,fhrs_4_en-GB,4,,FHRS,5
74911,,,,,Relishthethought,Other catering premises,7841,5,,636043,5,,,10983,223,foodhs@sholland.gov.uk,South Holland,http://www.sholland.gov.uk,,,2014-06-02,fhrs_5_en-GB,5,,FHRS,5
74912,Unit 1,22 Westlode Street,Spalding,Lincs,Reload,Takeaway/sandwich shop,7844,20,,242845,10,,52.78920600000000,27881,223,foodhs@sholland.gov.uk,South Holland,http://www.sholland.gov.uk,-0.14912500000000,PE11 2AF,2014-07-22,fhrs_1_en-GB,1,,FHRS,15
74913,,18-19 Broad Street,Spalding,Lincolnshire,River View Cafe(Hills),Restaurant/Cafe/Canteen,1,5,,242998,5,,52.78766100000000,2760,223,foodhs@sholland.gov.uk,South Holland,http://www.sholland.gov.uk,-0.15036300000000,PE11 1TB,2014-06-16,fhrs_5_en-GB,5,,FHRS,5
74914,,16 Bridge Road,Sutton Bridge,Spalding,Riverside Bed and Breakfast,Hotel/bed & breakfast/guest house,7842,5,,616976,5,,52.76795300000000,36467,223,foodhs@sholland.gov.uk,South Holland,http://www.sholland.gov.uk,0.19313700000000,PE12 9UA,2013-12-04,fhrs_4_en-GB,4,,FHRS,10
74915,,48 Holbeach Road,Spalding,Lincolnshire,Riverside Chinese,Takeaway/sandwich shop,7844,10,,243565,5,,52.79633400000000,16571,223,foodhs@sholland.gov.uk,South Holland,http://www.sholland.gov.uk,-0.13468700000000,PE11 2HX,2014-03-26,fhrs_4_en-GB,4,,FHRS,5
74916,,123 Station Road,Surfleet,"Spalding, Lincolnshire",Riverside Hotel,Pub/bar/nightclub,7843,10,,243619,10,,52.84225700000000,22821,223,foodhs@sholland.gov.uk,South Holland,http://www.sholland.gov.uk,-0.12485000000000,PE11 4DG,2014-02-13,fhrs_3_en-GB,3,,FHRS,10
74917,,16 Bridge Road,Sutton Bridge,"Spalding, Lincolnshire",Riverside Restaurant,Restaurant/Cafe/Canteen,1,5,,243053,5,,52.76809700000000,25052,223,foodhs@sholland.gov.uk,South Holland,http://www.sholland.gov.uk,0.19262600000000,PE12 9UA,2013-09-25,fhrs_4_en-GB,4,,FHRS,10
74918,,40A Cowbit Road,Spalding,Lincolnshire,Riverside Walk Guest House,Hotel/bed & breakfast/guest house,7842,5,,243030,5,,52.77996800000000,27964,223,foodhs@sholland.gov.uk,South Holland,http://www.sholland.gov.uk,-0.15344700000000,PE11 2RQ,2014-01-02,fhrs_5_en-GB,5,,FHRS,5
74919,,Bells Drove,Sutton St James,"Spalding, Lincolnshire",Roffes Catering Ltd,Retailers - other,4613,5,,243170,5,,52.74321600000000,30795,223,foodhs@sholland.gov.uk,South Holland,http://www.sholland.gov.uk,0.06965300000000,PE12 0JG,2014-07-29,fhrs_4_en-GB,4,,FHRS,10
74920,,Unit 7 Stumps Lane (off Roman Bank),Spalding,Lincs,Roots 'n' Fruits,Mobile caterer,7846,5,,581754,5,,52.80421300000000,36311,223,foodhs@sholland.gov.uk,South Holland,http://www.sholland.gov.uk,-0.12685800000000,PE12 6AT,2013-10-28,fhrs_5_en-GB,5,,FHRS,5
74921,Rose Tree House,132 Chapel Gate,Sutton St James,"Spalding, Lincolnshire",Rose Tree Farm Shop,Retailers - other,4613,10,,243073,5,,52.74469800000000,4719,223,foodhs@sholland.gov.uk,South Holland,http://www.sholland.gov.uk,0.06665700000000,PE12 0EE,2014-01-16,fhrs_3_en-GB,3,,FHRS,10
74922,,West Street,Long Sutton,"Spalding, Lincolnshire",Royal British Legion,Other catering premises,7841,,,242818,,,52.78415500000000,1878,223,foodhs@sholland.gov.uk,South Holland,http://www.sholland.gov.uk,0.11943500000000,PE12 9BN,2010-06-18,fhrs_exempt_en-GB,Exempt,,FHRS,
74923,,Malting Lane,Donington,"Spalding, Lincs",Royal British Legion Social Centre,Other catering premises,7841,,,242991,,,52.90144400000000,422,223,foodhs@sholland.gov.uk,South Holland,http://www.sholland.gov.uk,-0.20945500000000,PE11 4XA,2013-03-14,fhrs_exempt_en-GB,Exempt,,FHRS,
74924,End House,The Raceground,Spalding,Lincolnshire,RSPCA (Lincs East),Retailers - other,4613,,,243187,,,53.18334579467773,30723,223,foodhs@sholland.gov.uk,South Holland,http://www.sholland.gov.uk,-0.14031049609184,PE11 3AP,2009-10-09,fhrs_exempt_en-GB,Exempt,,FHRS,
74925,,Church Street,Donington,"Spalding, Lincolnshire",Ruby Hunt Centre,Other catering premises,7841,5,,243480,5,,52.90669300000000,26124,223,foodhs@sholland.gov.uk,South Holland,http://www.sholland.gov.uk,-0.20397500000000,PE11 4UA,2014-06-04,fhrs_5_en-GB,5,,FHRS,5
74926,,16 The Crescent,Spalding,Lincs,Rumblings,Restaurant/Cafe/Canteen,1,5,,243135,5,,52.78588300000000,2938,223,foodhs@sholland.gov.uk,South Holland,http://www.sholland.gov.uk,-0.15282600000000,PE11 1AG,2014-12-11,fhrs_4_en-GB,4,,FHRS,10
74927,,8 Francis Street,Spalding,Lincolnshire,Rumblings To Go,Takeaway/sandwich shop,7844,5,,242997,10,,52.78627900000000,31020,223,foodhs@sholland.gov.uk,South Holland,http://www.sholland.gov.uk,-0.15169700000000,PE11 1AT,2013-09-13,fhrs_4_en-GB,4,,FHRS,5
74928,,17 New Road,Spalding,,Russell's,Restaurant/Cafe/Canteen,1,5,,439234,5,,52.78857900000000,34855,223,foodhs@sholland.gov.uk,South Holland,http://www.sholland.gov.uk,-0.15159900000000,PE11 1DQ,2014-12-22,fhrs_5_en-GB,5,,FHRS,5
74929,,,,,Ruth's Catering,Other catering premises,7841,5,,729239,5,,,36856,223,foodhs@sholland.gov.uk,South Holland,http://www.sholland.gov.uk,,,2015-01-09,fhrs_5_en-GB,5,,FHRS,5
74930,,Sezanne Walk,Spalding,Lincs,S H D C (Sheltered Housing),Other catering premises,7841,,,243685,,,52.79480100000000,4218,223,foodhs@sholland.gov.uk,South Holland,http://www.sholland.gov.uk,-0.15623000000000,PE11 1RD,2014-02-10,fhrs_exempt_en-GB,Exempt,,FHRS,
74931,Sainsbury's Supermarket,Holland Market,Spalding,Lincs,Sainsbury's Petrol Station,Retailers - supermarkets/hypermarkets,7840,5,,243402,5,,52.78840500000000,25072,223,foodhs@sholland.gov.uk,South Holland,http://www.sholland.gov.uk,-0.15426100000000,PE11 1RQ,2014-01-02,fhrs_5_en-GB,5,,FHRS,5
74932,,Holland Market,Spalding,,Sainsbury's Supermarket,Retailers - supermarkets/hypermarkets,7840,0,,243418,0,,52.78840500000000,25074,223,foodhs@sholland.gov.uk,South Holland,http://www.sholland.gov.uk,-0.15426100000000,PE11 1RQ,2014-03-10,fhrs_5_en-GB,5,,FHRS,0
74933,,307 Bourne Road,Spalding,Lincolnshire,Saints and Sinners,Other catering premises,7841,5,,243462,5,,52.78130100000000,29107,223,foodhs@sholland.gov.uk,South Holland,http://www.sholland.gov.uk,-0.19627200000000,PE11 3LW,2014-01-02,fhrs_5_en-GB,5,,FHRS,5
74934,,,,,Sammy's Cakes,Other catering premises,7841,5,,554974,5,,,35993,223,foodhs@sholland.gov.uk,South Holland,http://www.sholland.gov.uk,,,2013-07-19,fhrs_4_en-GB,4,,FHRS,10
74935,,25 High Street,Long Sutton,"Spalding, Lincolnshire",San San,Takeaway/sandwich shop,7844,20,,243096,15,,52.78549400000000,24494,223,foodhs@sholland.gov.uk,South Holland,http://www.sholland.gov.uk,0.12249500000000,PE12 9DB,2014-10-01,fhrs_0_en-GB,0,,FHRS,20
74936,,Washway Road,Saracens Head,"Holbeach, Spalding, Lincs",Saracens Head Village Hall,Other catering premises,7841,,,242886,,,52.82476600000000,5066,223,foodhs@sholland.gov.uk,South Holland,http://www.sholland.gov.uk,-0.01190900000000,PE12 8AY,2014-06-04,fhrs_exempt_en-GB,Exempt,,FHRS,
74937,,,,,Scoobi Snax,Other catering premises,7841,5,,628111,5,,,36526,223,foodhs@sholland.gov.uk,South Holland,http://www.sholland.gov.uk,,,2014-06-09,fhrs_4_en-GB,4,,FHRS,10
74938,,,,,Scoobies Snack Bar,Mobile caterer,7846,5,,700735,5,,,6256,223,foodhs@sholland.gov.uk,South Holland,http://www.sholland.gov.uk,,,2014-09-15,fhrs_4_en-GB,4,,FHRS,10
74939,,C/o Mrs L Forth,10 Stricklands Drive,Crowland,Scout Hall/Guide Headquarters,Other catering premises,7841,,,243041,,,52.67221700000000,203,223,foodhs@sholland.gov.uk,South Holland,http://www.sholland.gov.uk,-0.16762200000000,PE6 0AS,2014-06-04,fhrs_exempt_en-GB,Exempt,,FHRS,
74940,,25 Market Place,Donington,Spalding,Seng House Chinese,Takeaway/sandwich shop,7844,10,,704539,10,,52.90522400000000,36787,223,foodhs@sholland.gov.uk,South Holland,http://www.sholland.gov.uk,-0.20494300000000,PE11 4ST,2014-09-24,fhrs_3_en-GB,3,,FHRS,10
74941,,,,,Sense East,Other catering premises,7841,5,,242898,5,,,26703,223,foodhs@sholland.gov.uk,South Holland,http://www.sholland.gov.uk,,,2012-08-01,fhrs_5_en-GB,5,,FHRS,5
74942,,,,,Sense East,Other catering premises,7841,5,,243178,5,,,22791,223,foodhs@sholland.gov.uk,South Holland,http://www.sholland.gov.uk,,,2014-01-03,fhrs_5_en-GB,5,,FHRS,5
74943,,,,,Sense East,Other catering premises,7841,5,,243399,5,,,20056,223,foodhs@sholland.gov.uk,South Holland,http://www.sholland.gov.uk,,,2012-08-01,fhrs_4_en-GB,4,,FHRS,10
74944,,10-11 Francis Street,Spalding,Lincs,Sergis Good Food Store,Restaurant/Cafe/Canteen,1,5,,243318,5,,52.78627900000000,25905,223,foodhs@sholland.gov.uk,South Holland,http://www.sholland.gov.uk,-0.15169700000000,PE11 1AT,2013-11-01,fhrs_5_en-GB,5,,FHRS,5
74945,,8 Rural Avenue,West Pinchbeck,Spalding,Shake Jacket 'n' Roll,Mobile caterer,7846,5,,606641,5,,52.81989300000000,36418,223,foodhs@sholland.gov.uk,South Holland,http://www.sholland.gov.uk,-0.22578000000000,PE11 3QH,2014-05-14,fhrs_4_en-GB,4,,FHRS,10
74946,,6 West End,Holbeach,"Spalding, Lincolnshire",Shanghai Garden,Takeaway/sandwich shop,7844,,,242968,,,52.80434700000000,22458,223,foodhs@sholland.gov.uk,South Holland,http://www.sholland.gov.uk,0.01269200000000,PE12 7LW,2014-12-03,fhrs_3_en-GB,3,,FHRS,
74947,Unit 1,Market Place,Spalding,Lincs,Shanghai Garden,Restaurant/Cafe/Canteen,1,10,,243089,10,,52.78735800000000,24685,223,foodhs@sholland.gov.uk,South Holland,http://www.sholland.gov.uk,-0.15113200000000,PE11 1SU,2013-09-17,fhrs_3_en-GB,3,,FHRS,10
74948,,Lime Court,Spalding,Lincs,SHDC (Sheltered Housing),Other catering premises,7841,,,243045,,,52.78302400000000,4132,223,foodhs@sholland.gov.uk,South Holland,http://www.sholland.gov.uk,-0.14646700000000,PE11 2PY,2014-01-08,fhrs_exempt_en-GB,Exempt,,FHRS,
74949,Glen Haven,Glen Avenue,Pinchbeck,"Spalding, Lincs",SHDC (Sheltered Housing),Hospitals/Childcare/Caring Premises,5,,,243269,,,52.78174100000000,2497,223,foodhs@sholland.gov.uk,South Holland,http://www.sholland.gov.uk,-0.17155000000000,PE11 3EF,2013-03-14,fhrs_exempt_en-GB,Exempt,,FHRS,
74950,,Hargate Close,Fleet,"Spalding, Lincs",Sheltered Housing,Hospitals/Childcare/Caring Premises,5,,,243417,,,52.80408900000000,649,223,foodhs@sholland.gov.uk,South Holland,http://www.sholland.gov.uk,0.06534800000000,PE12 8LU,2010-06-14,fhrs_exempt_en-GB,Exempt,,FHRS,
74951,,Arthurs Avenue,Holbeach,"Spalding, Lincs",Sheltered Housing,Other catering premises,7841,,,243404,,,52.80190900000000,1538,223,foodhs@sholland.gov.uk,South Holland,http://www.sholland.gov.uk,0.01063600000000,PE12 7LH,2014-02-11,fhrs_exempt_en-GB,Exempt,,FHRS,
74952,,Dowsdale Bank,Shepeau Stow,"Spalding, Lincs",Shepeau Stow CP School,School/college/university,7845,5,,243352,5,,52.68822100000000,5119,223,foodhs@sholland.gov.uk,South Holland,http://www.sholland.gov.uk,-0.07956600000000,PE12 0UA,2014-01-02,fhrs_5_en-GB,5,,FHRS,5
74953,,,,,Sileni,Other catering premises,7841,5,,731019,5,,,35329,223,foodhs@sholland.gov.uk,South Holland,http://www.sholland.gov.uk,,,2015-01-14,fhrs_5_en-GB,5,,FHRS,5
74954,,3 Westlode Street,Spalding,Lincs,Silk Rose Takeaway,Takeaway/sandwich shop,7844,10,,243643,10,,52.78920600000000,3861,223,foodhs@sholland.gov.uk,South Holland,http://www.sholland.gov.uk,-0.14912500000000,PE11 2AF,2014-08-20,fhrs_2_en-GB,2,,FHRS,15
74955,,,,,Simply Spongecakes,Other catering premises,7841,5,,668814,5,,,23541,223,foodhs@sholland.gov.uk,South Holland,http://www.sholland.gov.uk,,,2014-07-01,fhrs_5_en-GB,5,,FHRS,5
74956,,Peartree Hill Road,Whaplode,"Spalding, Lincolnshire",Sinclairs Shooting Ground,Restaurant/Cafe/Canteen,1,5,,243342,5,,52.72754800000000,5422,223,foodhs@sholland.gov.uk,South Holland,http://www.sholland.gov.uk,-0.04059200000000,PE12 0SL,2011-12-19,fhrs_4_en-GB,4,,FHRS,10
74957,Sir John Gleed School,Neville Avenue,Spalding,Lincolnshire,Sir John Gleed School,School/college/university,7845,5,,243416,5,,52.78575200000000,3371,223,foodhs@sholland.gov.uk,South Holland,http://www.sholland.gov.uk,-0.13749800000000,PE11 2EJ,2013-11-01,fhrs_5_en-GB,5,,FHRS,5
74958,,,,,SJA Produce,Retailers - other,4613,5,,464417,5,,,35252,223,foodhs@sholland.gov.uk,South Holland,http://www.sholland.gov.uk,,,2012-11-06,fhrs_5_en-GB,5,,FHRS,5
74959,,High Street,Holbeach,"Spalding, Lincs",Small Saints Pre School,Hospitals/Childcare/Caring Premises,5,5,,243687,5,,52.80341800000000,7756,223,foodhs@sholland.gov.uk,South Holland,http://www.sholland.gov.uk,0.01759000000000,PE12 7ED,2014-10-13,fhrs_5_en-GB,5,,FHRS,5
74960,,,,,Smiths Smokery,Retailers - other,4613,,,243604,,,,24719,223,foodhs@sholland.gov.uk,South Holland,http://www.sholland.gov.uk,,,,fhrs_exempt_en-GB,Exempt,,FHRS,
74961,,,,,Smokeys,Other catering premises,7841,10,,550473,5,,,35866,223,foodhs@sholland.gov.uk,South Holland,http://www.sholland.gov.uk,,,2013-11-20,fhrs_4_en-GB,4,,FHRS,5
74962,,,,,Snorky's Catering,Mobile caterer,7846,5,,637982,5,,,36588,223,foodhs@sholland.gov.uk,South Holland,http://www.sholland.gov.uk,,,2014-04-28,fhrs_5_en-GB,5,,FHRS,5
74963,,43 Winsover Road,Spalding,,Solens Off Licence and Convenience Store,Retailers - other,4613,10,,619791,10,,52.78688000000000,34580,223,foodhs@sholland.gov.uk,South Holland,http://www.sholland.gov.uk,-0.15680200000000,PE11 1EG,2014-02-18,fhrs_2_en-GB,2,,FHRS,15
74964,South Holland Centre,23 Market Place,Spalding,Lincolnshire,South Holland Centre Foyer,Retailers - other,4613,,,243322,,,52.78671100000000,31756,223,foodhs@sholland.gov.uk,South Holland,http://www.sholland.gov.uk,-0.15052200000000,PE11 1SS,2014-01-03,fhrs_exempt_en-GB,Exempt,,FHRS,
74965,,Pecks Drove,Spalding,Lincs,South Holland Pecks Drove Campsite,Other catering premises,7841,,,242923,,,52.80580200000000,5848,223,foodhs@sholland.gov.uk,South Holland,http://www.sholland.gov.uk,-0.18989200000000,PE11 6BH,2014-06-04,fhrs_exempt_en-GB,Exempt,,FHRS,
74966,,Matmore Gate,Spalding,Lincs,South Holland Post 16 Centre,Restaurant/Cafe/Canteen,1,5,,243586,5,,52.78216200000000,29860,223,foodhs@sholland.gov.uk,South Holland,http://www.sholland.gov.uk,-0.14137300000000,PE11 2PN,2013-09-23,fhrs_5_en-GB,5,,FHRS,5
74967,,Reform Street,Crowland,"Spalding, Lincolnshire",South View Primary School,School/college/university,7845,5,,243273,5,,52.67402100000000,67,223,foodhs@sholland.gov.uk,South Holland,http://www.sholland.gov.uk,-0.16794600000000,PE6 0AN,2013-12-31,fhrs_5_en-GB,5,,FHRS,5
74968,,20 Matmore Gate,Spalding,Lincolnshire,Southernwood House,Hospitals/Childcare/Caring Premises,5,5,,243459,5,,52.78216200000000,5355,223,foodhs@sholland.gov.uk,South Holland,http://www.sholland.gov.uk,-0.14137300000000,PE11 2PN,2014-09-29,fhrs_5_en-GB,5,,FHRS,5
74969,,Woolram Wygate,Spalding,Lincolnshire,Southfield House Residential Home,Hospitals/Childcare/Caring Premises,5,0,,243366,5,,52.79236400000000,5364,223,foodhs@sholland.gov.uk,South Holland,http://www.sholland.gov.uk,-0.16084200000000,PE11 1PS,2013-08-17,fhrs_5_en-GB,5,,FHRS,5
74970,,Swan Street,Spalding,Lincs,Spalding Baptist Church Hall,Other catering premises,7841,5,,243597,5,,52.78803600000000,5890,223,foodhs@sholland.gov.uk,South Holland,http://www.sholland.gov.uk,-0.15368300000000,PE11 1BT,2014-03-06,fhrs_5_en-GB,5,,FHRS,5
74971,,26 Spalding Common,Spalding,Lincolnshire,Spalding Common Community Hall,Other catering premises,7841,,,243684,,,52.76691500000000,2879,223,foodhs@sholland.gov.uk,South Holland,http://www.sholland.gov.uk,-0.17328300000000,PE11 3AS,2014-08-06,fhrs_exempt_en-GB,Exempt,,FHRS,
74972,,11 Broad Street,Spalding,Lincs,Spalding Constitutional Club,Pub/bar/nightclub,7843,10,,242967,5,,52.78766100000000,2757,223,foodhs@sholland.gov.uk,South Holland,http://www.sholland.gov.uk,-0.15036300000000,PE11 1TB,2014-01-02,fhrs_4_en-GB,4,,FHRS,5
74973,,25 Commercial Road,Spalding,Lincolnshire,Spalding Delicious,Takeaway/sandwich shop,7844,10,,243401,5,,52.79123700000000,2867,223,foodhs@sholland.gov.uk,South Holland,http://www.sholland.gov.uk,-0.14387800000000,PE11 2HA,2014-05-14,fhrs_4_en-GB,4,,FHRS,5
74974,,Scoldhall Lane,Surfleet,"Spalding, Lincs",Spalding Farm Shop Manna Cafe,Retailers - other,4613,5,,242938,10,,52.85087000000000,16214,223,foodhs@sholland.gov.uk,South Holland,http://www.sholland.gov.uk,-0.12767200000000,PE11 4BJ,2014-03-17,fhrs_4_en-GB,4,,FHRS,5
74975,Spalding Golf Club,Newlands Road,Surfleet,"Spalding, Lincolnshire",Spalding Golf Club,Pub/bar/nightclub,7843,5,,242981,5,,52.83978600000000,4305,223,foodhs@sholland.gov.uk,South Holland,http://www.sholland.gov.uk,-0.12207600000000,PE11 4EA,2013-09-05,fhrs_5_en-GB,5,,FHRS,5
74976,,Priory Road,Spalding,Lincs,Spalding Grammar School Canteen,School/college/university,7845,5,,243005,5,,52.78450600000000,3551,223,foodhs@sholland.gov.uk,South Holland,http://www.sholland.gov.uk,-0.15331400000000,PE11 2XF,2013-11-11,fhrs_5_en-GB,5,,FHRS,5
74977,,Unit 8 Cradge Bank,Spalding,Lincolnshire,Spalding Gymnastics,Restaurant/Cafe/Canteen,1,5,,504943,5,,52.77402200000000,35592,223,foodhs@sholland.gov.uk,South Holland,http://www.sholland.gov.uk,-0.16192600000000,PE11 3AB,2014-11-03,fhrs_5_en-GB,5,,FHRS,5
74978,Spalding High School,Stonegate,Spalding,Lincolnshire,Spalding High School For Girls,School/college/university,7845,5,,243114,5,,53.18334579467773,3768,223,foodhs@sholland.gov.uk,South Holland,http://www.sholland.gov.uk,-0.14031049609184,PE11 2PJ,2014-03-04,fhrs_5_en-GB,5,,FHRS,5
74979,,210 Spalding Road,Pinchbeck,"Spalding, Lincolnshire",Spalding Lifestyle & Garden,Retailers - other,4613,10,,243521,10,,52.80264900000000,23120,223,foodhs@sholland.gov.uk,South Holland,http://www.sholland.gov.uk,-0.15267900000000,PE11 3PB,2014-03-25,fhrs_3_en-GB,3,,FHRS,5
74980,,c/o 27 Park Close,Spalding,,Spalding Lions,Retailers - other,4613,,,243563,,,52.79556900000000,30709,223,foodhs@sholland.gov.uk,South Holland,http://www.sholland.gov.uk,-0.15938600000000,PE11 1PR,2014-01-03,fhrs_exempt_en-GB,Exempt,,FHRS,
74981,,13 Station Street,Spalding,Lincolnshire,Spalding Market,Retailers - other,4613,,,242970,,,52.78746900000000,30620,223,foodhs@sholland.gov.uk,South Holland,http://www.sholland.gov.uk,-0.15479000000000,PE11 1EF,2014-05-16,fhrs_2_en-GB,2,,FHRS,
74982,,78 Westlode Street,Spalding,Lincolnshire,Spalding Market 2,Retailers - other,4613,10,,243541,10,,52.78887300000000,31341,223,foodhs@sholland.gov.uk,South Holland,http://www.sholland.gov.uk,-0.14848700000000,PE11 2AE,2014-02-05,fhrs_3_en-GB,3,,FHRS,5
74983,,24 Market Place,Spalding,Lincolnshire,Spalding News,Retailers - other,4613,10,,243021,10,,52.78671100000000,3341,223,foodhs@sholland.gov.uk,South Holland,http://www.sholland.gov.uk,-0.15052200000000,PE11 1SS,2013-09-17,fhrs_3_en-GB,3,,FHRS,10
74984,,Clay Lake,Spalding,Lincs,Spalding Parish Day School,School/college/university,7845,5,,243653,5,,52.78048800000000,2837,223,foodhs@sholland.gov.uk,South Holland,http://www.sholland.gov.uk,-0.14300100000000,PE11 2QG,2012-02-08,fhrs_5_en-GB,5,,FHRS,5
74985,,Woolram Wygate,Spalding,Lincs,Spalding Primary School,School/college/university,7845,5,,243304,5,,52.79236900000000,3975,223,foodhs@sholland.gov.uk,South Holland,http://www.sholland.gov.uk,-0.16174600000000,PE11 1PB,2011-06-13,fhrs_4_en-GB,4,,FHRS,10
74986,,24 High Street,Spalding,Lincolnshire,Spalding Services Club,Pub/bar/nightclub,7843,5,,242875,5,,52.78963500000000,3146,223,foodhs@sholland.gov.uk,South Holland,http://www.sholland.gov.uk,-0.14492500000000,PE11 1TX,2014-03-17,fhrs_5_en-GB,5,,FHRS,5
74987,,St. Thomas Road,Spalding,Lincs,Spalding Sports Club,Pub/bar/nightclub,7843,5,,242889,10,,52.78154000000000,3669,223,foodhs@sholland.gov.uk,South Holland,http://www.sholland.gov.uk,-0.15624200000000,PE11 2TT,2011-03-24,fhrs_3_en-GB,3,,FHRS,10
74988,,Holyrood Walk,Spalding,Lincolnshire,Spalding Squash Club,Other catering premises,7841,,,243516,,,52.77880500000000,3183,223,foodhs@sholland.gov.uk,South Holland,http://www.sholland.gov.uk,-0.14344300000000,PE11 2RY,2012-01-16,fhrs_exempt_en-GB,Exempt,,FHRS,
74989,The Umbrella,Westlode Street,Spalding,Lincs,Spalding Youth Club,Other catering premises,7841,,,243040,,,52.78887300000000,3878,223,foodhs@sholland.gov.uk,South Holland,http://www.sholland.gov.uk,-0.14848700000000,PE11 2AE,2014-06-04,fhrs_exempt_en-GB,Exempt,,FHRS,
74990,,47-49 Knight Street,Pinchbeck,"Spalding, Lincolnshire",Spar Cross Bros Ltd,Retailers - other,4613,5,,243194,10,,52.81682700000000,2299,223,foodhs@sholland.gov.uk,South Holland,http://www.sholland.gov.uk,-0.16311800000000,PE11 3RA,2013-02-25,fhrs_4_en-GB,4,,FHRS,5
74991,,76 London Road,Long Sutton,"Spalding, Lincolnshire",Spar Long Sutton,Retailers - other,4613,5,,243084,5,,52.78142300000000,25099,223,foodhs@sholland.gov.uk,South Holland,http://www.sholland.gov.uk,0.12790200000000,PE12 9ED,2014-01-21,fhrs_5_en-GB,5,,FHRS,5
74992,,7 North Street,Crowland,"Spalding, Lincolnshire",Spar Shop,Retailers - other,4613,5,,243057,5,,52.67744400000000,13231,223,foodhs@sholland.gov.uk,South Holland,http://www.sholland.gov.uk,-0.16897100000000,PE6 0EG,2013-02-12,fhrs_5_en-GB,5,,FHRS,5
74993,,24 Church Street,Holbeach,"Spalding, Lincolnshire",Spice Express,Takeaway/sandwich shop,7844,10,,243197,5,,52.80246500000000,27424,223,foodhs@sholland.gov.uk,South Holland,http://www.sholland.gov.uk,0.01334700000000,PE12 7LL,2014-03-19,fhrs_4_en-GB,4,,FHRS,5
74994,,Camel Gate,Spalding,Lincs,Springfields Events and Conference Centre,Restaurant/Cafe/Canteen,1,5,,243666,5,,52.79755000000000,2767,223,foodhs@sholland.gov.uk,South Holland,http://www.sholland.gov.uk,-0.12738200000000,PE12 6ET,2014-06-09,fhrs_5_en-GB,5,,FHRS,5
74995,,2 Clover Way,Wygate Park,Spalding,St Barnabas Hospice Trust,Hospitals/Childcare/Caring Premises,5,,,243633,,,52.79675300000000,20337,223,foodhs@sholland.gov.uk,South Holland,http://www.sholland.gov.uk,-0.16442400000000,PE11 3GD,2014-12-31,fhrs_exempt_en-GB,Exempt,,FHRS,
74996,,,,,St Laurence Church Flower Fund,Retailers - other,4613,5,,242990,5,,,31383,223,foodhs@sholland.gov.uk,South Holland,http://www.sholland.gov.uk,,,2014-04-04,fhrs_5_en-GB,5,,FHRS,5
74997,,Kirkgate,Whaplode,"Spalding, Lincs",St Mary's Church,Other catering premises,7841,5,,243299,5,,52.79831900000000,25010,223,foodhs@sholland.gov.uk,South Holland,http://www.sholland.gov.uk,-0.03757600000000,PE12 6TE,2011-07-08,fhrs_5_en-GB,5,,FHRS,5
74998,Cowbit St Marys,118 Barrier Bank,Cowbit,"Spalding, Lincs",St Marys Primary School,School/college/university,7845,5,,243356,5,,52.74571500000000,16,223,foodhs@sholland.gov.uk,South Holland,http://www.sholland.gov.uk,-0.13919100000000,PE12 6AQ,2014-03-12,fhrs_5_en-GB,5,,FHRS,5
74999,,Main Road,Deeping St Nicholas,Spalding,St Nicholas House Bed & Breakfast,Hotel/bed & breakfast/guest house,7842,10,,726728,5,,52.73572300000000,19007,223,foodhs@sholland.gov.uk,South Holland,http://www.sholland.gov.uk,-0.19187300000000,PE11 3HA,2014-12-12,fhrs_4_en-GB,4,,FHRS,5
75000,New Village Hall,Westhorpe Road,Gosberton,"Spalding, Lincs",St Peters Church Hall,Other catering premises,7841,5,,243157,5,,52.86673600000000,7587,223,foodhs@sholland.gov.uk,South Holland,http://www.sholland.gov.uk,-0.17432200000000,PE11 4EN,2013-04-26,fhrs_4_en-GB,4,,FHRS,10
75001,,Hawthorn Bank,Spalding,Lincs,St. John Baptist School,School/college/university,7845,5,,243662,5,,52.77988000000000,3107,223,foodhs@sholland.gov.uk,South Holland,http://www.sholland.gov.uk,-0.16633500000000,PE11 1JQ,2014-06-06,fhrs_5_en-GB,5,,FHRS,5
75002,,Hawthorn Bank,Spalding,Lincs,St. Johns Baptist Church Hall,Other catering premises,7841,,,243605,,,52.77988000000000,5862,223,foodhs@sholland.gov.uk,South Holland,http://www.sholland.gov.uk,-0.16633500000000,PE11 1JQ,2012-01-16,fhrs_exempt_en-GB,Exempt,,FHRS,
75003,,66 Hawthorn Bank,Spalding,Lincs,St. Johns Care Home,Hospitals/Childcare/Caring Premises,5,5,,243615,5,,52.77988000000000,5374,223,foodhs@sholland.gov.uk,South Holland,http://www.sholland.gov.uk,-0.16633500000000,PE11 1JQ,2015-01-28,fhrs_5_en-GB,5,,FHRS,5
75004,,Main Road,Quadring,"Spalding, Lincs",St. Margarets Church Hall,Other catering premises,7841,,,242859,,,52.88100000000000,5875,223,foodhs@sholland.gov.uk,South Holland,http://www.sholland.gov.uk,-0.17929600000000,PE11 4PW,2014-03-12,fhrs_exempt_en-GB,Exempt,,FHRS,
75005,,Market Place,Long Sutton,"Spalding, Lincs",St. Marys Church Hall,Other catering premises,7841,,,243529,,,52.78735500000000,5873,223,foodhs@sholland.gov.uk,South Holland,http://www.sholland.gov.uk,0.06023100000000,PE12 9JZ,2014-11-25,fhrs_exempt_en-GB,Exempt,,FHRS,
75006,,Marriots Gate,Lutton,"Spalding, Lincs",St. Nicholas School,School/college/university,7845,5,,243670,10,,52.80466100000000,1954,223,foodhs@sholland.gov.uk,South Holland,http://www.sholland.gov.uk,0.12311700000000,PE12 9HN,2010-03-12,fhrs_3_en-GB,3,,FHRS,10
75007,,52 St Thomas Road,Spalding,Lincolnshire,St. Norberts Church and Church Hall,Other catering premises,7841,5,,243651,5,,52.78547600000000,5863,223,foodhs@sholland.gov.uk,South Holland,http://www.sholland.gov.uk,-0.15668300000000,PE11 2XX,2013-06-20,fhrs_5_en-GB,5,,FHRS,5
75008,,Tollgate,Spalding,,St. Norberts Primary School,School/college/university,7845,5,,243295,5,,52.78822500000000,3789,223,foodhs@sholland.gov.uk,South Holland,http://www.sholland.gov.uk,-0.16119400000000,PE11 1NJ,2014-03-04,fhrs_5_en-GB,5,,FHRS,5
75009,,Holbeach Road,Spalding,Lincs,St. Pauls Church Hall,Other catering premises,7841,5,,243077,10,,52.79682200000000,5884,223,foodhs@sholland.gov.uk,South Holland,http://www.sholland.gov.uk,-0.12852600000000,PE12 6ER,2011-09-02,fhrs_3_en-GB,3,,FHRS,10
75010,,Queens Road,Spalding,Lincolnshire,St. Pauls Primary School,School/college/university,7845,10,,243589,5,,52.79462300000000,3571,223,foodhs@sholland.gov.uk,South Holland,http://www.sholland.gov.uk,-0.13450800000000,PE11 2JQ,2010-12-01,fhrs_4_en-GB,4,,FHRS,5
75011,Pinchbeck Church Hall,Rose Lane,Pinchbeck,"Spalding, Lincolnshire",Stepping Stones Pre-School,School/college/university,7845,5,,242979,5,,52.81288000000000,31509,223,foodhs@sholland.gov.uk,South Holland,http://www.sholland.gov.uk,-0.16254300000000,PE11 3RN,2015-01-13,fhrs_4_en-GB,4,,FHRS,10
75012,,117 Main Road,Quadring,"Spalding, Lincolnshire",Stonehaven Residential Home,Hospitals/Childcare/Caring Premises,5,5,,243630,5,,52.88396200000000,5373,223,foodhs@sholland.gov.uk,South Holland,http://www.sholland.gov.uk,-0.18428500000000,PE11 4PJ,2014-08-04,fhrs_5_en-GB,5,,FHRS,5
75013,Springfields Outlet Centre,Camel Gate,Spalding,,Subway,Takeaway/sandwich shop,7844,5,,581755,5,,52.79866000000000,36313,223,foodhs@sholland.gov.uk,South Holland,http://www.sholland.gov.uk,-0.12820900000000,PE12 6ES,2013-11-26,fhrs_5_en-GB,5,,FHRS,5
75014,,16 Market Place,Long Sutton,"Spalding, Lincolnshire",Suckers,Retailers - other,4613,,,243515,,,52.78488900000000,26970,223,foodhs@sholland.gov.uk,South Holland,http://www.sholland.gov.uk,0.12110200000000,PE12 9JF,2012-01-16,fhrs_exempt_en-GB,Exempt,,FHRS,
75015,,55 High Street,Holbeach,Spalding,Sue Ryder,Retailers - other,4613,,,243207,,,52.78735500000000,32622,223,foodhs@sholland.gov.uk,South Holland,http://www.sholland.gov.uk,0.06023100000000,PE12 7HF,2014-03-12,fhrs_exempt_en-GB,Exempt,,FHRS,
75016,,6-7 Francis Street,Spalding,Lincolnshire,Sue Ryder Care,Retailers - other,4613,,,243532,,,52.78627900000000,26118,223,foodhs@sholland.gov.uk,South Holland,http://www.sholland.gov.uk,-0.15169700000000,PE11 1AT,2014-06-04,fhrs_exempt_en-GB,Exempt,,FHRS,
75017,,,,,Sugar Sugar,Other catering premises,7841,5,,590170,5,,,36360,223,foodhs@sholland.gov.uk,South Holland,http://www.sholland.gov.uk,,,2014-02-11,fhrs_5_en-GB,5,,FHRS,5
75018,Westmere Primary School,Anne Road,Sutton Bridge,"Spalding, Lincolnshire",Sunbeams Playgroup/afterschool,Hospitals/Childcare/Caring Premises,5,5,,242868,5,,52.77263000000000,18986,223,foodhs@sholland.gov.uk,South Holland,http://www.sholland.gov.uk,0.18330600000000,PE12 9TB,2014-01-02,fhrs_5_en-GB,5,,FHRS,5
75019,Apex Court,Elsoms Way,Pinchbeck,Spalding,Sunflower Lodge Ltd,Hospitals/Childcare/Caring Premises,5,5,,243051,5,,52.81174800000000,30783,223,foodhs@sholland.gov.uk,South Holland,http://www.sholland.gov.uk,-0.13264700000000,PE11 3UL,2014-12-16,fhrs_5_en-GB,5,,FHRS,5
75020,,20 Bridge Street,Spalding,Lincolnshire,Sunshine Cafe Restaurant,Restaurant/Cafe/Canteen,1,5,,243637,5,,52.78651200000000,24930,223,foodhs@sholland.gov.uk,South Holland,http://www.sholland.gov.uk,-0.15048500000000,PE11 1XG,2014-11-17,fhrs_5_en-GB,5,,FHRS,5
75021,,24 Commercial Road,Spalding,,Super Sam,Retailers - other,4613,20,,637980,10,,52.79123700000000,36569,223,foodhs@sholland.gov.uk,South Holland,http://www.sholland.gov.uk,-0.14387800000000,PE11 2HA,2014-10-17,fhrs_1_en-GB,1,,FHRS,10
75022,,,,,Supercakes,Other catering premises,7841,5,,700734,5,,,36673,223,foodhs@sholland.gov.uk,South Holland,http://www.sholland.gov.uk,,,2014-09-16,fhrs_5_en-GB,5,,FHRS,5
75023,,29 Hall Place,Spalding,Lincolnshire,Superdrug,Retailers - other,4613,,,243510,,,52.78768000000000,3045,223,foodhs@sholland.gov.uk,South Holland,http://www.sholland.gov.uk,-0.15218600000000,PE11 1SG,2012-08-01,fhrs_exempt_en-GB,Exempt,,FHRS,
75024,The Cafe,14-18 Gosberton Road,Surfleet,"Spalding, Lincolnshire",Surfleet Cafe,Restaurant/Cafe/Canteen,1,5,,511076,5,,52.83735900000000,25748,223,foodhs@sholland.gov.uk,South Holland,http://www.sholland.gov.uk,-0.14445100000000,PE11 4AB,2014-12-18,fhrs_4_en-GB,4,,FHRS,10
75025,,76 Station Road,Surfleet,"Spalding, Lincs",Surfleet Primary School,School/college/university,7845,5,,243007,5,,52.84083300000000,4291,223,foodhs@sholland.gov.uk,South Holland,http://www.sholland.gov.uk,-0.13092500000000,PE11 4DB,2014-03-10,fhrs_4_en-GB,4,,FHRS,10
75026,,Station Road,Surfleet,"Spalding, Lincs",Surfleet Village Hall,Other catering premises,7841,,,243160,,,52.84083300000000,4306,223,foodhs@sholland.gov.uk,South Holland,http://www.sholland.gov.uk,-0.13092500000000,PE11 4DB,2013-02-26,fhrs_exempt_en-GB,Exempt,,FHRS,
75027,,St. Matthews Drive,Sutton Bridge,Spalding,Sutton Bridge Day Care Centre,Other catering premises,7841,,,242873,,,52.77268800000000,4611,223,foodhs@sholland.gov.uk,South Holland,http://www.sholland.gov.uk,0.18695600000000,PE12 9RJ,2014-02-11,fhrs_exempt_en-GB,Exempt,,FHRS,
75028,,New Road,Sutton Bridge,"Spalding, Lincs",Sutton Bridge Golf Club,Pub/bar/nightclub,7843,10,,243614,5,,52.77270600000000,13000,223,foodhs@sholland.gov.uk,South Holland,http://www.sholland.gov.uk,0.19186400000000,PE12 9RQ,2013-10-24,fhrs_4_en-GB,4,,FHRS,5
75029,,Bells Drove,Sutton St. James,"Spalding, Lincs",Sutton St James Church Hall,Other catering premises,7841,,,243201,,,52.74321600000000,9042,223,foodhs@sholland.gov.uk,South Holland,http://www.sholland.gov.uk,0.06965300000000,PE12 0JG,2011-06-27,fhrs_exempt_en-GB,Exempt,,FHRS,
75030,,57-59 Chapel Gate,Sutton St James,"Spalding, Lincolnshire",Sutton St James Convenience Store,Retailers - other,4613,10,,243202,10,,52.74419000000000,4725,223,foodhs@sholland.gov.uk,South Holland,http://www.sholland.gov.uk,0.06540300000000,PE12 0EF,2013-03-05,fhrs_3_en-GB,3,,FHRS,10
75031,The Unit,Bells Drove,Sutton St James,Spalding,Sutton St James Pre School Playgroup,Hospitals/Childcare/Caring Premises,5,5,,243577,5,,52.74321600000000,31730,223,foodhs@sholland.gov.uk,South Holland,http://www.sholland.gov.uk,0.06965300000000,PE12 0JG,2014-06-04,fhrs_5_en-GB,5,,FHRS,5
75032,,Bells Drove,Sutton St. James,"Spalding, Lincs",Sutton St James Primary School,School/college/university,7845,5,,242961,5,,52.74321600000000,4700,223,foodhs@sholland.gov.uk,South Holland,http://www.sholland.gov.uk,0.06965300000000,PE12 0JG,2009-09-29,fhrs_4_en-GB,4,,FHRS,10
75033,,Broadgate,Sutton St. Edmund,"Spalding, Lincs",Sutton St. Edmund Village Hall,Other catering premises,7841,,,243530,,,52.68822800000000,4619,223,foodhs@sholland.gov.uk,South Holland,http://www.sholland.gov.uk,0.02161200000000,PE12 0LT,2011-10-18,fhrs_exempt_en-GB,Exempt,,FHRS,
75034,,Fishergate,Sutton St. James,"Spalding, Lincs",Sutton St. James Bowling Club,Other catering premises,7841,,,242971,,,52.74401200000000,6637,223,foodhs@sholland.gov.uk,South Holland,http://www.sholland.gov.uk,0.05443100000000,PE12 0EN,2014-01-02,fhrs_exempt_en-GB,Exempt,,FHRS,
75035,,Chapelgate,Sutton St. James,"Spalding, Lincs",Sutton St. James New Hall,Other catering premises,7841,,,243507,,,52.74469800000000,4723,223,foodhs@sholland.gov.uk,South Holland,http://www.sholland.gov.uk,0.06665700000000,PE12 0EE,2012-08-01,fhrs_exempt_en-GB,Exempt,,FHRS,
75036,,Railway Lane,Sutton Bridge,"Spalding, Lincs",Suttons Medical Group,Retailers - other,4613,,,242894,,,52.76605000000000,28715,223,foodhs@sholland.gov.uk,South Holland,http://www.sholland.gov.uk,0.18127200000000,PE12 9UZ,2014-06-04,fhrs_exempt_en-GB,Exempt,,FHRS,
75037,,85 Seas End Road,Moulton Seas End,"Spalding, Lincolnshire",Sweet 2 Eat,Mobile caterer,7846,5,,415273,5,,52.82585300000000,19793,223,foodhs@sholland.gov.uk,South Holland,http://www.sholland.gov.uk,-0.03995700000000,PE12 6LD,2014-12-22,fhrs_5_en-GB,5,,FHRS,5
75038,,,,,Sweet Bumble Bees,Other catering premises,7841,10,,637981,5,,,36579,223,foodhs@sholland.gov.uk,South Holland,http://www.sholland.gov.uk,,,2014-05-09,fhrs_4_en-GB,4,,FHRS,5
75039,,26-28 High Street,Holbeach,"Spalding, Lincs",Swepstones,Retailers - other,4613,5,,242815,5,,52.80385100000000,1257,223,foodhs@sholland.gov.uk,South Holland,http://www.sholland.gov.uk,0.01594800000000,PE12 7DY,2014-08-04,fhrs_5_en-GB,5,,FHRS,5
75040,Middle Crown Farm,Wingland,Terrington St Clements,,Sylvias Fruit & Veg,Retailers - other,4613,10,,242849,10,,52.82543900000000,19601,223,foodhs@sholland.gov.uk,South Holland,http://www.sholland.gov.uk,0.50899600000000,PE35 4HQ,2013-03-20,fhrs_3_en-GB,3,,FHRS,10
75041,,,,,T J Catering,Mobile caterer,7846,5,,242888,5,,,31759,223,foodhs@sholland.gov.uk,South Holland,http://www.sholland.gov.uk,,,2014-12-18,fhrs_5_en-GB,5,,FHRS,5
75042,,,,,T R Catering,Other catering premises,7841,5,,243498,5,,,374,223,foodhs@sholland.gov.uk,South Holland,http://www.sholland.gov.uk,,,2013-11-08,fhrs_5_en-GB,5,,FHRS,5
75043,,58A Bourne Road,Spalding,Lincolnshire,Tandoori Master Fry,Takeaway/sandwich shop,7844,,,243419,,,52.78406200000000,14819,223,foodhs@sholland.gov.uk,South Holland,http://www.sholland.gov.uk,-0.16986700000000,PE11 1JW,2014-10-24,fhrs_3_en-GB,3,,FHRS,
75044,Tanglewood Cedar Falls,Little London Bridge,Spalding,Lincolnshire,Tanglewood,Hospitals/Childcare/Caring Premises,5,5,,243198,5,,52.77361700000000,5594,223,foodhs@sholland.gov.uk,South Holland,http://www.sholland.gov.uk,-0.16710200000000,PE11 2UA,2014-06-10,fhrs_5_en-GB,5,,FHRS,5
75045,,21 Station Street,Spalding,,Taurus,Retailers - other,4613,10,,243365,10,,52.78723600000000,32636,223,foodhs@sholland.gov.uk,South Holland,http://www.sholland.gov.uk,-0.15483000000000,PE11 1EB,2013-11-12,fhrs_3_en-GB,3,,FHRS,10
75046,,17 Sheep Market,Spalding,,Taylor's Coffee House,Restaurant/Cafe/Canteen,1,5,,464414,5,,52.78759800000000,35123,223,foodhs@sholland.gov.uk,South Holland,http://www.sholland.gov.uk,-0.15380600000000,PE11 1BE,2015-01-28,fhrs_5_en-GB,5,,FHRS,5
75047,,Matmore Gate,Spalding,Lincolnshire,Tesco Matmore Express,Retailers - supermarkets/hypermarkets,7840,5,,243330,5,,52.78216200000000,24694,223,foodhs@sholland.gov.uk,South Holland,http://www.sholland.gov.uk,-0.14137300000000,PE11 2PN,2012-02-08,fhrs_5_en-GB,5,,FHRS,5
75048,,Boston Road South,Holbeach,"Spalding, Lincs",Tesco Stores Ltd,Retailers - supermarkets/hypermarkets,7840,0,,243216,0,,52.80513800000000,19348,223,foodhs@sholland.gov.uk,South Holland,http://www.sholland.gov.uk,0.01318900000000,PE12 7LR,2014-03-31,fhrs_5_en-GB,5,,FHRS,0
75049,,21 East Street,Crowland,"Spalding, Lincolnshire",The Abbey Hotel,Restaurant/Cafe/Canteen,1,,,243497,,,52.67602300000000,14187,223,foodhs@sholland.gov.uk,South Holland,http://www.sholland.gov.uk,-0.16719700000000,PE6 0EN,2014-02-04,fhrs_2_en-GB,2,,FHRS,
75050,Croyland Abbey,Church Lane,Crowland,"Peterborough, Cambs",The Abbey Pantry,Other catering premises,7841,10,,243245,10,,52.67759200000000,5880,223,foodhs@sholland.gov.uk,South Holland,http://www.sholland.gov.uk,-0.16344800000000,PE6 0ER,2009-07-01,fhrs_3_en-GB,3,,FHRS,10
75051,,3 New Road,Spalding,Lincolnshire,The American Burger Bar,Takeaway/sandwich shop,7844,10,,243642,10,,52.78811800000000,3376,223,foodhs@sholland.gov.uk,South Holland,http://www.sholland.gov.uk,-0.15255300000000,PE11 1BS,2014-02-19,fhrs_3_en-GB,3,,FHRS,10
75052,,280 Bridge Road,Sutton Bridge,"Spalding, Lincolnshire",The Anchor Inn,Pub/bar/nightclub,7843,5,,330802,5,,52.77349600000000,4402,223,foodhs@sholland.gov.uk,South Holland,http://www.sholland.gov.uk,0.17332700000000,PE12 9SH,2014-10-29,fhrs_5_en-GB,5,,FHRS,5
75053,,1 North Street,Crowland,"Spalding, Lincolnshire",The Bakery,Retailers - other,4613,10,,243572,10,,52.67744400000000,28847,223,foodhs@sholland.gov.uk,South Holland,http://www.sholland.gov.uk,-0.16897100000000,PE6 0EG,2014-11-17,fhrs_3_en-GB,3,,FHRS,10
75054,,50 Market Street,Long Sutton,"Spalding, Lincolnshire",The Bancroft Residential Home,Hospitals/Childcare/Caring Premises,5,5,,243017,5,,52.78648700000000,5356,223,foodhs@sholland.gov.uk,South Holland,http://www.sholland.gov.uk,0.12076400000000,PE12 9DF,2014-11-18,fhrs_5_en-GB,5,,FHRS,5
75055,,Baytree Nurseries Garden Centre,Weston,Spalding,The Baytree Coffee Lounge,Restaurant/Cafe/Canteen,1,5,,590166,5,,52.80424600000000,36347,223,foodhs@sholland.gov.uk,South Holland,http://www.sholland.gov.uk,-0.09279400000000,PE12 6JU,2013-11-26,fhrs_5_en-GB,5,,FHRS,5
75056,,69 Austendyke Road,Weston Hills,"Spalding, Lincolnshire",The Bell Inn,Pub/bar/nightclub,7843,5,,434260,5,,52.77917100000000,10917,223,foodhs@sholland.gov.uk,South Holland,http://www.sholland.gov.uk,-0.09621900000000,PE12 6BX,2014-02-11,fhrs_5_en-GB,5,,FHRS,5
75057,,85 High Street,Gosberton,"Spalding, Lincolnshire",The Bell Inn,Pub/bar/nightclub,7843,5,,242932,5,,52.86890600000000,905,223,foodhs@sholland.gov.uk,South Holland,http://www.sholland.gov.uk,-0.16056200000000,PE11 4NJ,2013-11-21,fhrs_5_en-GB,5,,FHRS,5
75058,The Birds,108 Halmer Gate,Spalding,Lincolnshire,The Birds Hungry Horse,Pub/bar/nightclub,7843,5,,243519,5,,52.78908100000000,18554,223,foodhs@sholland.gov.uk,South Holland,http://www.sholland.gov.uk,-0.13766700000000,PE11 2EL,2013-09-03,fhrs_4_en-GB,4,,FHRS,10
75059,,7 Market Place,Donington,"Spalding, Lincolnshire",The Black Bull,Pub/bar/nightclub,7843,5,,243608,5,,52.90522400000000,12374,223,foodhs@sholland.gov.uk,South Holland,http://www.sholland.gov.uk,-0.20494300000000,PE11 4ST,2014-05-22,fhrs_5_en-GB,5,,FHRS,5
75060,,72 Fleet Street,Holbeach,"Spalding, Lincolnshire",The Black Bull,Pub/bar/nightclub,7843,5,,242861,5,,52.80329400000000,1213,223,foodhs@sholland.gov.uk,South Holland,http://www.sholland.gov.uk,0.02173800000000,PE12 7AG,2013-08-22,fhrs_5_en-GB,5,,FHRS,5
75061,,12 New Road,Spalding,Lincolnshire,The Black Swan,Pub/bar/nightclub,7843,10,,243260,10,,52.78857900000000,10908,223,foodhs@sholland.gov.uk,South Holland,http://www.sholland.gov.uk,-0.15159900000000,PE11 1DQ,2013-07-12,fhrs_3_en-GB,3,,FHRS,5
75062,,Cranes Gate,Whaplode,"Spalding, Lincolnshire",The Blue Bell Inn,Pub/bar/nightclub,7843,5,,243024,5,,52.76054000000000,4963,223,foodhs@sholland.gov.uk,South Holland,http://www.sholland.gov.uk,-0.01544300000000,PE12 6SN,2013-11-21,fhrs_5_en-GB,5,,FHRS,5
75063,,46 Bridge Road,Sutton Bridge,Spalding,The Boat House,Pub/bar/nightclub,7843,5,,683508,5,,52.76795300000000,36742,223,foodhs@sholland.gov.uk,South Holland,http://www.sholland.gov.uk,0.19313700000000,PE12 9UA,2014-08-22,fhrs_4_en-GB,4,,FHRS,10
75064,,1 South Street,Crowland,"Spalding, Lincolnshire",The Bridge Cafe,Restaurant/Cafe/Canteen,1,,,499253,,,52.67481700000000,23993,223,foodhs@sholland.gov.uk,South Holland,http://www.sholland.gov.uk,-0.16652200000000,PE6 0AH,2014-04-09,fhrs_5_en-GB,5,,FHRS,
75065,,1 Knight Street,Pinchbeck,"Spalding, Lincolnshire",The Bull Inn,Pub/bar/nightclub,7843,10,,243343,10,,52.81682700000000,2283,223,foodhs@sholland.gov.uk,South Holland,http://www.sholland.gov.uk,-0.16311800000000,PE11 3RA,2013-06-13,fhrs_3_en-GB,3,,FHRS,10
75066,,Old Main Road,Fleet Hargate,Spalding,The Bull Inn,Pub/bar/nightclub,7843,10,,243254,10,,52.80402700000000,25879,223,foodhs@sholland.gov.uk,South Holland,http://www.sholland.gov.uk,0.07200600000000,PE12 8LL,2013-08-22,fhrs_3_en-GB,3,,FHRS,5
75067,,156 Park Road,Spalding,Lincolnshire,The Bungalow Rest Home,Hospitals/Childcare/Caring Premises,5,5,,243196,5,,52.79174800000000,5360,223,foodhs@sholland.gov.uk,South Holland,http://www.sholland.gov.uk,-0.15707100000000,PE11 1QZ,2014-11-03,fhrs_4_en-GB,4,,FHRS,10
75068,Sir Halley Stewart Playing Field,Winfrey Avenue,Spalding,,The Burger Bar,Restaurant/Cafe/Canteen,1,10,,511077,10,,52.77258200000000,35665,223,foodhs@sholland.gov.uk,South Holland,http://www.sholland.gov.uk,-0.20173200000000,PE11 3BE,2014-02-15,fhrs_3_en-GB,3,,FHRS,10
75069,,,,,The Cake Fairy,Other catering premises,7841,5,,550479,5,,,35943,223,foodhs@sholland.gov.uk,South Holland,http://www.sholland.gov.uk,,,2013-05-10,fhrs_5_en-GB,5,,FHRS,5
75070,,,,,The Cakery,Other catering premises,7841,5,,530796,5,,,35642,223,foodhs@sholland.gov.uk,South Holland,http://www.sholland.gov.uk,,,2013-03-18,fhrs_4_en-GB,4,,FHRS,10
75071,,15 The Crescent,Spalding,Lincs,The Candy Bar,Retailers - other,4613,5,,242964,5,,52.78621800000000,2936,223,foodhs@sholland.gov.uk,South Holland,http://www.sholland.gov.uk,-0.15298900000000,PE11 1AF,2014-03-12,fhrs_5_en-GB,5,,FHRS,5
75072,,67-69 High Street,Holbeach,"Spalding, Lincolnshire",The Central Fish Bar,Restaurant/Cafe/Canteen,1,5,,243407,5,,52.80341800000000,1284,223,foodhs@sholland.gov.uk,South Holland,http://www.sholland.gov.uk,0.01759000000000,PE12 7ED,2014-06-10,fhrs_5_en-GB,5,,FHRS,5
75073,,3 Main Street,Gedney Dyke,"Spalding, Lincolnshire",The Chequers,Restaurant/Cafe/Canteen,1,5,,310221,5,,52.81317900000000,16646,223,foodhs@sholland.gov.uk,South Holland,http://www.sholland.gov.uk,0.09355700000000,PE12 0AJ,2014-03-06,fhrs_5_en-GB,5,,FHRS,5
75074,,15 High Street,Holbeach,"Spalding, Lincolnshire",The Chequers Hotel,Pub/bar/nightclub,7843,10,,243380,15,,52.80408300000000,12950,223,foodhs@sholland.gov.uk,South Holland,http://www.sholland.gov.uk,0.01446000000000,PE12 7DU,2013-09-06,fhrs_2_en-GB,2,,FHRS,10
75075,,Topsgate,Gedney,"Spalding, Lincs",The Chestnuts,Retailers - other,4613,5,,243288,5,,52.79931800000000,16635,223,foodhs@sholland.gov.uk,South Holland,http://www.sholland.gov.uk,0.07601000000000,PE12 0BS,2014-11-24,fhrs_5_en-GB,5,,FHRS,5
75076,,,,,The Chocolate Pizza Company,Other catering premises,7841,5,,243636,5,,,30838,223,foodhs@sholland.gov.uk,South Holland,http://www.sholland.gov.uk,,,2014-03-05,fhrs_5_en-GB,5,,FHRS,5
75077,,7 Gosberton Road,Surfleet,"Spalding, Lincolnshire",The Cod Squad,Takeaway/sandwich shop,7844,5,,243284,5,,52.83741000000000,4257,223,foodhs@sholland.gov.uk,South Holland,http://www.sholland.gov.uk,-0.14479000000000,PE11 4AB,2014-09-15,fhrs_5_en-GB,5,,FHRS,5
75078,,,,,The Coffee Lounge (Lincs) Ltd,Mobile caterer,7846,5,,550474,5,,,35892,223,foodhs@sholland.gov.uk,South Holland,http://www.sholland.gov.uk,,,2013-06-18,fhrs_5_en-GB,5,,FHRS,5
75079,,2 Spalding Road,Pinchbeck,,"The Coffee Pot, Johnson Community Hospital",Restaurant/Cafe/Canteen,1,5,,243209,5,,52.80174900000000,30699,223,foodhs@sholland.gov.uk,South Holland,http://www.sholland.gov.uk,-0.15029900000000,PE11 3DT,2014-03-25,fhrs_5_en-GB,5,,FHRS,5
75080,,Market Place,Long Sutton,"Spalding, Lincs",The Cosy Cafe & Takeaway,Restaurant/Cafe/Canteen,1,5,,243442,5,,52.78499400000000,21517,223,foodhs@sholland.gov.uk,South Holland,http://www.sholland.gov.uk,0.12180400000000,PE12 9JA,2013-12-04,fhrs_5_en-GB,5,,FHRS,5
75081,,5 West End,Holbeach,"Spalding, Lincolnshire",The Crown Hotel,Pub/bar/nightclub,7843,,,243368,,,52.80434700000000,1494,223,foodhs@sholland.gov.uk,South Holland,http://www.sholland.gov.uk,0.01269200000000,PE12 7LW,2014-10-27,fhrs_3_en-GB,3,,FHRS,
75082,,6 Gosberton Road,Surfleet,"Spalding, Lincolnshire",The Crown Inn,Pub/bar/nightclub,7843,10,,242850,10,,52.83741000000000,4256,223,foodhs@sholland.gov.uk,South Holland,http://www.sholland.gov.uk,-0.14479000000000,PE11 4AB,2014-03-25,fhrs_3_en-GB,3,,FHRS,10
75083,,17 West Street,Crowland,"Spalding, Lincolnshire",The Crown Inn,Pub/bar/nightclub,7843,5,,242855,10,,52.67571700000000,217,223,foodhs@sholland.gov.uk,South Holland,http://www.sholland.gov.uk,-0.17123300000000,PE6 0EE,2014-02-17,fhrs_3_en-GB,3,,FHRS,10
75084,,5 Church Gate,Spalding,Lincolnshire,The Crystal Inn,Takeaway/sandwich shop,7844,10,,243671,5,,52.78483600000000,10482,223,foodhs@sholland.gov.uk,South Holland,http://www.sholland.gov.uk,-0.14910300000000,PE11 2RA,2014-02-19,fhrs_4_en-GB,4,,FHRS,5
75085,,44 Little London Bridge,Spalding,Lincolnshire,The Draymans Arms,Pub/bar/nightclub,7843,20,,243315,10,,52.77391100000000,3252,223,foodhs@sholland.gov.uk,South Holland,http://www.sholland.gov.uk,-0.16577100000000,PE11 2UE,2014-09-12,fhrs_1_en-GB,1,,FHRS,10
75086,,106 Risegate Road,Gosberton,"Spalding, Lincolnshire",The Duke of York,Pub/bar/nightclub,7843,5,,243158,5,,52.85462400000000,12987,223,foodhs@sholland.gov.uk,South Holland,http://www.sholland.gov.uk,-0.19180700000000,PE11 4EY,2013-08-30,fhrs_4_en-GB,4,,FHRS,10
75087,,51 Fleet Street,Holbeach,Spalding,The Factory Shop,Retailers - other,4613,,,243490,,,52.80404500000000,7693,223,foodhs@sholland.gov.uk,South Holland,http://www.sholland.gov.uk,0.02460600000000,PE12 7AU,2014-01-03,fhrs_exempt_en-GB,Exempt,,FHRS,
75088,,21 Cowbit Road,Spalding,Lincolnshire,The Fenway,Pub/bar/nightclub,7843,5,,243014,5,,52.78143900000000,19017,223,foodhs@sholland.gov.uk,South Holland,http://www.sholland.gov.uk,-0.15205000000000,PE11 2RD,2011-03-25,fhrs_4_en-GB,4,,FHRS,10
75089,,Common Way,Tydd St. Mary,"Wisbech, Cambs",The Five Bells Inn,Pub/bar/nightclub,7843,5,,243139,5,,52.74548900000000,4770,223,foodhs@sholland.gov.uk,South Holland,http://www.sholland.gov.uk,0.14018200000000,PE13 5QJ,2014-08-08,fhrs_5_en-GB,5,,FHRS,5
75090,,124 Siltside,Gosberton Risegate,"Spalding, Lincs",The Five Bells Inn,Pub/bar/nightclub,7843,10,,242956,5,,52.85416400000000,970,223,foodhs@sholland.gov.uk,South Holland,http://www.sholland.gov.uk,-0.19524200000000,PE11 4ET,2012-02-28,fhrs_4_en-GB,4,,FHRS,5
75091,,,,,The Flour Girl,Other catering premises,7841,5,,606638,5,,,18783,223,foodhs@sholland.gov.uk,South Holland,http://www.sholland.gov.uk,,,2014-02-19,fhrs_5_en-GB,5,,FHRS,5
75092,,,,,The Food Stall,Retailers - other,4613,5,,576898,5,,,1714,223,foodhs@sholland.gov.uk,South Holland,http://www.sholland.gov.uk,,,2013-10-14,fhrs_4_en-GB,4,,FHRS,10
75093,,High Road,Weston,Spalding,The Fun Farm,Restaurant/Cafe/Canteen,1,5,,243443,5,,52.80420200000000,12907,223,foodhs@sholland.gov.uk,South Holland,http://www.sholland.gov.uk,-0.09290000000000,PE12 6JU,2014-11-17,fhrs_5_en-GB,5,,FHRS,0
75094,,2 North Street,Crowland,"Spalding, Lincolnshire",The George & Angel,Pub/bar/nightclub,7843,10,,243048,5,,52.67726700000000,111,223,foodhs@sholland.gov.uk,South Holland,http://www.sholland.gov.uk,-0.16974800000000,PE6 0EF,2014-12-11,fhrs_4_en-GB,4,,FHRS,5
75095,,30 The Crescent,Spalding,Lincs,The Golden City,Restaurant/Cafe/Canteen,1,5,,243370,5,,52.78641400000000,2946,223,foodhs@sholland.gov.uk,South Holland,http://www.sholland.gov.uk,-0.15281800000000,PE11 1AE,2013-09-26,fhrs_5_en-GB,5,,FHRS,5
75096,Corn Exchange,5 Market Street,Long Sutton,"Spalding, Lincolnshire",The Granary,Pub/bar/nightclub,7843,,,243148,,,52.78646700000000,24709,223,foodhs@sholland.gov.uk,South Holland,http://www.sholland.gov.uk,0.11988800000000,PE12 9DD,2014-12-09,fhrs_3_en-GB,3,,FHRS,
75097,,202 Bridge Road,Sutton Bridge,Spalding,The Greyhound,Pub/bar/nightclub,7843,5,,243204,5,,52.77145900000000,4396,223,foodhs@sholland.gov.uk,South Holland,http://www.sholland.gov.uk,0.18093500000000,PE12 9SG,2014-06-04,fhrs_5_en-GB,5,,FHRS,5
75098,,54 Chapel Gate,Sutton St James,"Spalding, Lincolnshire",The Hat & Feathers,Pub/bar/nightclub,7843,5,,243591,5,,52.74469800000000,4732,223,foodhs@sholland.gov.uk,South Holland,http://www.sholland.gov.uk,0.06665700000000,PE12 0EE,2014-11-28,fhrs_5_en-GB,5,,FHRS,5
75099,,,,,The Hog Master of Spalding,Mobile caterer,7846,5,,243382,5,,,32419,223,foodhs@sholland.gov.uk,South Holland,http://www.sholland.gov.uk,,,2014-09-02,fhrs_5_en-GB,5,,FHRS,5
75100,,18-19 New Road,Spalding,Lincolnshire,The Ivy Wall,Pub/bar/nightclub,7843,5,,243392,5,,52.78857900000000,21628,223,foodhs@sholland.gov.uk,South Holland,http://www.sholland.gov.uk,-0.15159900000000,PE11 1DQ,2013-10-21,fhrs_5_en-GB,5,,FHRS,5
75101,,Broad Lane,Moulton,"Spalding, Lincolnshire",The John Harrox Primary School,School/college/university,7845,5,,243664,5,,52.79645200000000,1997,223,foodhs@sholland.gov.uk,South Holland,http://www.sholland.gov.uk,-0.06621300000000,PE12 6PN,2010-06-11,fhrs_4_en-GB,4,,FHRS,10
75102,,48 Marriots Gate,Lutton,"Spalding, Lincolnshire",The Jolly Crispin Inn,Pub/bar/nightclub,7843,,,243351,,,52.80466100000000,1952,223,foodhs@sholland.gov.uk,South Holland,http://www.sholland.gov.uk,0.12311700000000,PE12 9HN,2014-08-08,fhrs_4_en-GB,4,,FHRS,
75103,,28 Roman Road,Moulton Chapel,"Spalding, Lincolnshire",The Jolly Farmer,Pub/bar/nightclub,7843,5,,242921,5,,52.74652300000000,2103,223,foodhs@sholland.gov.uk,South Holland,http://www.sholland.gov.uk,-0.07986300000000,PE12 0XQ,2013-11-06,fhrs_4_en-GB,4,,FHRS,10
75104,Springfields,Camelgate,Spalding,Lincolnshire,The Kitchen,Pub/bar/nightclub,7843,5,,243576,10,,52.79934800000000,24724,223,foodhs@sholland.gov.uk,South Holland,http://www.sholland.gov.uk,-0.12739400000000,PE12 6EU,2014-09-03,fhrs_4_en-GB,4,,FHRS,5
75105,,10-16 Haverfield Road,Spalding,Lincs,The Lighthouse Church,Restaurant/Cafe/Canteen,1,10,,242902,5,,52.78388600000000,27310,223,foodhs@sholland.gov.uk,South Holland,http://www.sholland.gov.uk,-0.15274700000000,PE11 2XP,2014-09-26,fhrs_4_en-GB,4,,FHRS,5
75106,,4 Bridge Street,Spalding,Lincolnshire,The Lincoln Arms,Pub/bar/nightclub,7843,10,,242905,5,,52.78613400000000,2730,223,foodhs@sholland.gov.uk,South Holland,http://www.sholland.gov.uk,-0.15044200000000,PE11 1XA,2014-03-03,fhrs_3_en-GB,3,,FHRS,10
75107,,,,,The Lincolnshire Oven,Mobile caterer,7846,5,,576900,5,,,36214,223,foodhs@sholland.gov.uk,South Holland,http://www.sholland.gov.uk,,,2013-10-11,fhrs_5_en-GB,5,,FHRS,5
75108,,68 Swan Street,Spalding,Lincs,The Loft,Restaurant/Cafe/Canteen,1,5,,243672,5,,52.78803600000000,24970,223,foodhs@sholland.gov.uk,South Holland,http://www.sholland.gov.uk,-0.15368300000000,PE11 1BT,2013-03-25,fhrs_5_en-GB,5,,FHRS,5
75109,,45 High Street,Holbeach,"Spalding, Lincolnshire",The Mansion House,Restaurant/Cafe/Canteen,1,20,,243626,15,,52.80385100000000,1272,223,foodhs@sholland.gov.uk,South Holland,http://www.sholland.gov.uk,0.01594800000000,PE12 7DY,2014-11-25,fhrs_1_en-GB,1,,FHRS,15
75110,,2 Gosberton Road,Surfleet,"Spalding, Lincolnshire",The Mermaid Inn,Pub/bar/nightclub,7843,5,,243259,5,,52.83741000000000,4254,223,foodhs@sholland.gov.uk,South Holland,http://www.sholland.gov.uk,-0.14479000000000,PE11 4AB,2014-11-26,fhrs_5_en-GB,5,,FHRS,5
75111,,123 Commercial Road,Spalding,Lincolnshire,The Moorings,Pub/bar/nightclub,7843,5,,612640,5,,52.79227400000000,13424,223,foodhs@sholland.gov.uk,South Holland,http://www.sholland.gov.uk,-0.14232100000000,PE11 2HD,2014-01-16,fhrs_5_en-GB,5,,FHRS,5
75112,,St Marks Road,Holbeach,"Spalding, Lincolnshire",The New Inn,Pub/bar/nightclub,7843,5,,243270,5,,52.86223600000000,13586,223,foodhs@sholland.gov.uk,South Holland,http://www.sholland.gov.uk,0.03817400000000,PE12 8DZ,2011-07-21,fhrs_4_en-GB,4,,FHRS,10
75113,,Washway Road,Saracens Head,"Spalding, Lincs",The New Saracens Head Inn,Pub/bar/nightclub,7843,10,,242925,10,,52.82476600000000,5067,223,foodhs@sholland.gov.uk,South Holland,http://www.sholland.gov.uk,-0.01190900000000,PE12 8AY,2013-07-16,fhrs_3_en-GB,3,,FHRS,10
75114,,,,,The Nippy Chippy,Mobile caterer,7846,5,,243296,5,,,16269,223,foodhs@sholland.gov.uk,South Holland,http://www.sholland.gov.uk,,,2013-09-16,fhrs_5_en-GB,5,,FHRS,5
75115,Crossways,Hurdletree Bank,Whaplode St Catherine,"Spalding, Lincolnshire",The Old Coach House Bed & Breakfast,Hotel/bed & breakfast/guest house,7842,5,,243447,5,,52.77279900000000,30822,223,foodhs@sholland.gov.uk,South Holland,http://www.sholland.gov.uk,-0.02754600000000,PE12 6SA,2014-01-02,fhrs_4_en-GB,4,,FHRS,10
75116,,6 North Street,Crowland,Spalding,The Old Copper Kettle Tea Room,Restaurant/Cafe/Canteen,1,5,,243131,0,,52.67726700000000,26923,223,foodhs@sholland.gov.uk,South Holland,http://www.sholland.gov.uk,-0.16974800000000,PE6 0EF,2013-12-03,fhrs_5_en-GB,5,,FHRS,5
75117,,89 London Road,Long Sutton,"Spalding, Lincolnshire",The Olde Ship Inn,Pub/bar/nightclub,7843,20,,243013,10,,52.78044200000000,1747,223,foodhs@sholland.gov.uk,South Holland,http://www.sholland.gov.uk,0.13046400000000,PE12 9EE,2014-11-27,fhrs_1_en-GB,1,,FHRS,10
75118,,London Road,Long Sutton,"Spalding, Lincolnshire",The Parkside Club,Pub/bar/nightclub,7843,10,,243059,5,,52.78142300000000,26709,223,foodhs@sholland.gov.uk,South Holland,http://www.sholland.gov.uk,0.12790200000000,PE12 9ED,2013-11-01,fhrs_4_en-GB,4,,FHRS,5
75119,,26 West End,Holbeach,"Spalding, Lincolnshire",The Picnic Hamper,Takeaway/sandwich shop,7844,10,,243034,10,,52.80434700000000,14316,223,foodhs@sholland.gov.uk,South Holland,http://www.sholland.gov.uk,0.01269200000000,PE12 7LW,2014-07-07,fhrs_3_en-GB,3,,FHRS,10
75120,,Camel Gate,Spalding,Lincolnshire,The Play Barn,Restaurant/Cafe/Canteen,1,5,,243022,5,,52.79934800000000,24983,223,foodhs@sholland.gov.uk,South Holland,http://www.sholland.gov.uk,-0.12739400000000,PE12 6EU,2015-01-29,fhrs_5_en-GB,5,,FHRS,5
75121,,1 Jekils Bank,Holbeach St Johns,"Spalding, Lincolnshire",The Plough,Pub/bar/nightclub,7843,10,,243075,10,,52.74568200000000,16634,223,foodhs@sholland.gov.uk,South Holland,http://www.sholland.gov.uk,-0.00499100000000,PE12 8RE,2014-09-10,fhrs_3_en-GB,3,,FHRS,10
75122,Priors Oven,1 Sheep Market,Spalding,,The Priors Oven,Pub/bar/nightclub,7843,10,,716357,10,,52.78710400000000,36835,223,foodhs@sholland.gov.uk,South Holland,http://www.sholland.gov.uk,-0.15324800000000,PE11 1BH,2014-10-30,fhrs_3_en-GB,3,,FHRS,10
75123,,Neville Avenue,Spalding,Lincs,The Priory School,School/college/university,7845,5,,243421,5,,52.78748200000000,3372,223,foodhs@sholland.gov.uk,South Holland,http://www.sholland.gov.uk,-0.13775000000000,PE11 2EH,2013-10-30,fhrs_5_en-GB,5,,FHRS,5
75124,,37 New Road,Spalding,Lincolnshire,The Punchbowl,Pub/bar/nightclub,7843,5,,243083,5,,52.78828600000000,3406,223,foodhs@sholland.gov.uk,South Holland,http://www.sholland.gov.uk,-0.15124100000000,PE11 1DN,2014-03-25,fhrs_4_en-GB,4,,FHRS,10
75125,,Market Place,Spalding,Lincolnshire,The Red Lion Hotel,Pub/bar/nightclub,7843,10,,242942,5,,52.78735800000000,3335,223,foodhs@sholland.gov.uk,South Holland,http://www.sholland.gov.uk,-0.15113200000000,PE11 1SU,2013-09-26,fhrs_4_en-GB,4,,FHRS,5
75126,,Pit Lane,Gedney Drove End,Spalding,The Rising Sun,Pub/bar/nightclub,7843,,,576899,,,52.84047000000000,25859,223,foodhs@sholland.gov.uk,South Holland,http://www.sholland.gov.uk,0.17095400000000,PE12 9PG,2014-11-05,fhrs_4_en-GB,4,,FHRS,
75127,,1 Bourne Road,Spalding,Lincolnshire,The Robin Hood,Pub/bar/nightclub,7843,5,,243242,10,,52.78361300000000,12854,223,foodhs@sholland.gov.uk,South Holland,http://www.sholland.gov.uk,-0.16993000000000,PE11 1JN,2011-02-28,fhrs_4_en-GB,4,,FHRS,5
75128,,54 Pinchbeck Road,Spalding,Lincolnshire,The Ropewalk Bed & Breakfast,Hotel/bed & breakfast/guest house,7842,5,,243508,10,,52.79229300000000,30478,223,foodhs@sholland.gov.uk,South Holland,http://www.sholland.gov.uk,-0.15105600000000,PE11 1QF,2014-08-05,fhrs_4_en-GB,4,,FHRS,5
75129,,Old Main Road,Fleet Hargate,"Spalding, Lincs",The Rose & Crown,Pub/bar/nightclub,7843,5,,243272,5,,52.80446600000000,12985,223,foodhs@sholland.gov.uk,South Holland,http://www.sholland.gov.uk,0.06745700000000,PE12 8LH,2013-11-22,fhrs_5_en-GB,5,,FHRS,5
75130,,Marsh Road,Holbeach Hurn,"Spalding, Lincs",The Rose & Crown Inn,Pub/bar/nightclub,7843,5,,243172,10,,52.82466600000000,1332,223,foodhs@sholland.gov.uk,South Holland,http://www.sholland.gov.uk,0.06760000000000,PE12 8JT,2014-02-07,fhrs_4_en-GB,4,,FHRS,5
75131,,101 Pinchbeck Road,Spalding,Lincolnshire,The Royal Mail Cart,Pub/bar/nightclub,7843,5,,243470,5,,52.79650700000000,3534,223,foodhs@sholland.gov.uk,South Holland,http://www.sholland.gov.uk,-0.15261300000000,PE11 1QL,2014-03-20,fhrs_5_en-GB,5,,FHRS,5
75132,,34 Hall Street,Crowland,"Spalding, Lincolnshire",The Salvation Army,Other catering premises,7841,,,243575,,,52.67687900000000,30213,223,foodhs@sholland.gov.uk,South Holland,http://www.sholland.gov.uk,-0.16674700000000,PE6 0EW,2010-11-01,fhrs_exempt_en-GB,Exempt,,FHRS,
75133,,37 Albion Street,Spalding,Lincolnshire,The Ship Albion,Pub/bar/nightclub,7843,5,,243097,5,,52.79009800000000,2634,223,foodhs@sholland.gov.uk,South Holland,http://www.sholland.gov.uk,-0.14579500000000,PE11 2AJ,2013-10-21,fhrs_4_en-GB,4,,FHRS,10
75134,,154 Reservoir Road,Surfleet,"Spalding, Lincolnshire",The Ship Inn,Restaurant/Cafe/Canteen,1,5,,243534,5,,52.84445600000000,4275,223,foodhs@sholland.gov.uk,South Holland,http://www.sholland.gov.uk,-0.10594100000000,PE11 4DH,2014-09-15,fhrs_4_en-GB,4,,FHRS,10
75135,,Northgate,Pinchbeck,"Spalding, Lincs",The Ship Inn,Pub/bar/nightclub,7843,10,,726774,5,,52.81787872314453,2345,223,foodhs@sholland.gov.uk,South Holland,http://www.sholland.gov.uk,-0.17303165793419,PE11 3SE,2014-12-12,fhrs_4_en-GB,4,,FHRS,5
75136,,Drove Gate,Holbeach Drove,"Spalding, Lincs",The Stores & Filling Station,Retailers - other,4613,10,,243256,10,,52.69598300000000,5305,223,foodhs@sholland.gov.uk,South Holland,http://www.sholland.gov.uk,-0.03638300000000,PE12 0PX,2014-09-04,fhrs_3_en-GB,3,,FHRS,10
75137,,High Street,Moulton,"Spalding, Lincolnshire",The Swan,Pub/bar/nightclub,7843,10,,243302,5,,52.79764100000000,12755,223,foodhs@sholland.gov.uk,South Holland,http://www.sholland.gov.uk,-0.06303100000000,PE12 6QB,2013-10-31,fhrs_4_en-GB,4,,FHRS,5
75138,,1 Westlode Street,Spalding,Lincs,The Takeaway,Takeaway/sandwich shop,7844,10,,243046,10,,52.78920600000000,30187,223,foodhs@sholland.gov.uk,South Holland,http://www.sholland.gov.uk,-0.14912500000000,PE11 2AF,2014-05-14,fhrs_3_en-GB,3,,FHRS,10
75139,,31 High Street,Holbeach,Spalding,The Tea Room,Restaurant/Cafe/Canteen,1,5,,442699,5,,52.80385100000000,34894,223,foodhs@sholland.gov.uk,South Holland,http://www.sholland.gov.uk,0.01594800000000,PE12 7DY,2014-04-23,fhrs_4_en-GB,4,,FHRS,10
75140,,50 Cowbit Road,Spalding,,The Travel Stop,Hotel/bed & breakfast/guest house,7842,10,,243373,10,,52.77605400000000,7521,223,foodhs@sholland.gov.uk,South Holland,http://www.sholland.gov.uk,-0.15731900000000,PE11 2RJ,2014-03-04,fhrs_3_en-GB,3,,FHRS,10
75141,,21 Commercial Road,Spalding,Lincolnshire,The Vine,Pub/bar/nightclub,7843,10,,243431,10,,52.79123700000000,12855,223,foodhs@sholland.gov.uk,South Holland,http://www.sholland.gov.uk,-0.14387800000000,PE11 2HA,2010-09-07,fhrs_3_en-GB,3,,FHRS,10
75142,,Churchgate,Spalding,Lincs,The Vista St Mary and St Nicholas Catering Committee,Other catering premises,7841,5,,243451,5,,53.18334579467773,5882,223,foodhs@sholland.gov.uk,South Holland,http://www.sholland.gov.uk,-0.14031049609184,PE11 2RA,2014-01-03,fhrs_4_en-GB,4,,FHRS,10
75143,,Fen Gate,Moulton Chapel,"Spalding, Lincolnshire",The Wheatsheaf,Pub/bar/nightclub,7843,5,,243108,5,,52.75202300000000,16534,223,foodhs@sholland.gov.uk,South Holland,http://www.sholland.gov.uk,-0.08196200000000,PE12 0XL,2013-11-05,fhrs_4_en-GB,4,,FHRS,10
75144,The Willows Day Nursery,Old Main Road,Fleet Hargate,Spalding,The Willows Day Nursery,Hospitals/Childcare/Caring Premises,5,5,,451707,5,,52.80402700000000,35039,223,foodhs@sholland.gov.uk,South Holland,http://www.sholland.gov.uk,0.07200600000000,PE12 8LL,2014-07-28,fhrs_5_en-GB,5,,FHRS,5
75145,,80-84 Pinchbeck Road,Spalding,Lincolnshire,The Woodlands,Restaurant/Cafe/Canteen,1,10,,243316,10,,52.79229300000000,25877,223,foodhs@sholland.gov.uk,South Holland,http://www.sholland.gov.uk,-0.15105600000000,PE11 1QF,2014-04-16,fhrs_3_en-GB,3,,FHRS,10
75146,,School Lane,Donington,"Spalding, Lincolnshire",Thomas Cowley High School,School/college/university,7845,5,,243149,5,,52.90503500000000,6974,223,foodhs@sholland.gov.uk,South Holland,http://www.sholland.gov.uk,-0.19895800000000,PE11 4TF,2014-12-08,fhrs_5_en-GB,5,,FHRS,5
75147,,,,,Tillys Kitchen,Other catering premises,7841,10,,242922,5,,,21834,223,foodhs@sholland.gov.uk,South Holland,http://www.sholland.gov.uk,,,2014-03-27,fhrs_4_en-GB,4,,FHRS,5
75148,,,,,TJA's Fryday,Mobile caterer,7846,5,,733812,5,,,20748,223,foodhs@sholland.gov.uk,South Holland,http://www.sholland.gov.uk,,,2014-11-24,fhrs_5_en-GB,5,,FHRS,5
75149,,2A Westlode Street,Spalding,Lincolnshire,Toppings,Takeaway/sandwich shop,7844,10,,243100,10,,52.78920600000000,13633,223,foodhs@sholland.gov.uk,South Holland,http://www.sholland.gov.uk,-0.14912500000000,PE11 2AF,2014-12-01,fhrs_3_en-GB,3,,FHRS,10
75150,,,,,Totally Sweet,Mobile caterer,7846,5,,565946,5,,,36082,223,foodhs@sholland.gov.uk,South Holland,http://www.sholland.gov.uk,,,2013-07-11,fhrs_5_en-GB,5,,FHRS,5
75151,,Main Road,Long Sutton,"Spalding, Lincs",Travel Lodge Hotel,Hotel/bed & breakfast/guest house,7842,,,243502,,,52.78841000000000,5424,223,foodhs@sholland.gov.uk,South Holland,http://www.sholland.gov.uk,0.11882600000000,PE12 9EX,2014-01-03,fhrs_exempt_en-GB,Exempt,,FHRS,
75152,,Camel Gate,Spalding,Lincolnshire,Travelodge,Hotel/bed & breakfast/guest house,7842,,,243297,,,52.79934800000000,28983,223,foodhs@sholland.gov.uk,South Holland,http://www.sholland.gov.uk,-0.12739400000000,PE12 6EU,2011-07-13,fhrs_exempt_en-GB,Exempt,,FHRS,
75153,,43 High Street,Gosberton,"Spalding, Lincolnshire",Trevor Sharpe Butchers,Retailers - other,4613,5,,243656,5,,52.86716500000000,894,223,foodhs@sholland.gov.uk,South Holland,http://www.sholland.gov.uk,-0.15669900000000,PE11 4NW,2014-05-20,fhrs_5_en-GB,5,,FHRS,5
75154,,29 Winsover Road,Spalding,Lincs,Trios,Restaurant/Cafe/Canteen,1,5,,243369,5,,52.78688000000000,25117,223,foodhs@sholland.gov.uk,South Holland,http://www.sholland.gov.uk,-0.15680200000000,PE11 1EG,2014-09-22,fhrs_4_en-GB,4,,FHRS,10
75155,,,,,Truly Cupcake,Other catering premises,7841,0,,552854,5,,,35970,223,foodhs@sholland.gov.uk,South Holland,http://www.sholland.gov.uk,,,2013-10-21,fhrs_5_en-GB,5,,FHRS,5
75156,,,,,Truly Scrumptious Catering Co,Mobile caterer,7846,5,,243091,5,,,32113,223,foodhs@sholland.gov.uk,South Holland,http://www.sholland.gov.uk,,,2013-06-06,fhrs_5_en-GB,5,,FHRS,0
75157,,,,,Tulip Hill Cakery,Other catering premises,7841,5,,243479,5,,,34056,223,foodhs@sholland.gov.uk,South Holland,http://www.sholland.gov.uk,,,2015-01-06,fhrs_4_en-GB,4,,FHRS,10
75158,,2 Pinchbeck Road,Spalding,Lincolnshire,Tulip Tandoori,Restaurant/Cafe/Canteen,1,10,,243606,10,,52.78994800000000,31050,223,foodhs@sholland.gov.uk,South Holland,http://www.sholland.gov.uk,-0.15114100000000,PE11 1QD,2014-01-15,fhrs_3_en-GB,3,,FHRS,10
75159,,11 Market Place,Donington,"Spalding, Lincolnshire",Tulipland Foods,Retailers - other,4613,5,,242966,5,,52.90522400000000,18455,223,foodhs@sholland.gov.uk,South Holland,http://www.sholland.gov.uk,-0.20494300000000,PE11 4ST,2014-02-13,fhrs_5_en-GB,5,,FHRS,5
75160,The Vista,Church Gate,Spalding,Lincolnshire,Tulips Pre School,Hospitals/Childcare/Caring Premises,5,5,,243137,5,,52.78483600000000,31382,223,foodhs@sholland.gov.uk,South Holland,http://www.sholland.gov.uk,-0.14910300000000,PE11 2RA,2014-01-03,fhrs_5_en-GB,5,,FHRS,5
75161,,Winfrey Avenue,Spalding,Lincs,Tulips Social Club,Pub/bar/nightclub,7843,20,,243483,15,,52.78910800000000,21511,223,foodhs@sholland.gov.uk,South Holland,http://www.sholland.gov.uk,-0.15205100000000,PE11 1DA,2014-02-15,fhrs_1_en-GB,1,,FHRS,15
75162,,20 Red Lion Street,Spalding,Lincolnshire,Turners Fish Restaurant,Restaurant/Cafe/Canteen,1,10,,243634,5,,52.78782800000000,3597,223,foodhs@sholland.gov.uk,South Holland,http://www.sholland.gov.uk,-0.15185300000000,PE11 1SX,2014-03-26,fhrs_4_en-GB,4,,FHRS,5
75163,,16-17 Chapel Lane,Spalding,Lincs,Turners Fish Restaurant/Stores,Distributors/Transporters,7,5,,243415,5,,52.78794400000000,18434,223,foodhs@sholland.gov.uk,South Holland,http://www.sholland.gov.uk,-0.15410300000000,PE11 1BP,2014-01-07,fhrs_5_en-GB,5,,FHRS,5
75164,,46 Market Place,Long Sutton,"Spalding, Lincolnshire",Turpins Wine Bar,Pub/bar/nightclub,7843,10,,243019,10,,52.78488900000000,10713,223,foodhs@sholland.gov.uk,South Holland,http://www.sholland.gov.uk,0.12110200000000,PE12 9JF,2014-04-10,fhrs_3_en-GB,3,,FHRS,10
75165,,Branches Lane,Holbeach,"Spalding, Lincs",Twigglets Nursery,Hospitals/Childcare/Caring Premises,5,5,,243517,5,,52.79283200000000,12103,223,foodhs@sholland.gov.uk,South Holland,http://www.sholland.gov.uk,0.03206500000000,PE12 8PD,2014-09-08,fhrs_5_en-GB,5,,FHRS,5
75166,Trafford Room,Common Way,Tydd St Mary,"Wisbech, Cambridgeshire",Tydd St Mary Pre-School,Hospitals/Childcare/Caring Premises,5,5,,243026,5,,52.74641500000000,31395,223,foodhs@sholland.gov.uk,South Holland,http://www.sholland.gov.uk,0.13318900000000,PE13 5QY,2014-01-03,fhrs_5_en-GB,5,,FHRS,5
75167,,Common Way,Nr Wisbech,Cambs,Tydd St Mary Stores,Retailers - other,4613,5,,243654,5,,52.74577400000000,4771,223,foodhs@sholland.gov.uk,South Holland,http://www.sholland.gov.uk,0.13735100000000,PE13 5QH,2014-07-03,fhrs_4_en-GB,4,,FHRS,10
75168,,Wisbech Road,Tydd St Mary,Wisbech,Tydd St Mary Village Hall,Other catering premises,7841,,,243599,,,53.18099800000000,4810,223,foodhs@sholland.gov.uk,South Holland,http://www.sholland.gov.uk,0.09892900000000,PE23 7NH,2014-03-19,fhrs_exempt_en-GB,Exempt,,FHRS,
75169,,Church Way,Tydd St. Mary,"Wisbech, Cambs",Tydd St. Mary Primary School,School/college/university,7845,5,,243432,5,,52.74641500000000,4764,223,foodhs@sholland.gov.uk,South Holland,http://www.sholland.gov.uk,0.13318900000000,PE13 5QY,2014-01-02,fhrs_5_en-GB,5,,FHRS,5
75170,,13 New Road,Spalding,Lincolnshire,UK Pizza,Takeaway/sandwich shop,7844,10,,242814,10,,52.78857900000000,3384,223,foodhs@sholland.gov.uk,South Holland,http://www.sholland.gov.uk,-0.15159900000000,PE11 1DQ,2014-07-22,fhrs_3_en-GB,3,,FHRS,10
75171,,Unique Cottage Studios,Fulney Lane South,Spalding,Unique Cottage Cafe and Gallery,Restaurant/Cafe/Canteen,1,5,,606639,5,,52.78913000000000,36407,223,foodhs@sholland.gov.uk,South Holland,http://www.sholland.gov.uk,-0.12591900000000,PE12 6FA,2014-02-18,fhrs_5_en-GB,5,,FHRS,5
75172,,Pinchbeck Road,Spalding,Lincolnshire,United Reformed Church Hall,Other catering premises,7841,,,243663,,,52.79229300000000,5888,223,foodhs@sholland.gov.uk,South Holland,http://www.sholland.gov.uk,-0.15105600000000,PE11 1QF,2010-11-25,fhrs_exempt_en-GB,Exempt,,FHRS,
75173,,Park Road,Holbeach,"Spalding, Lincolnshire",University Academy Holbeach,School/college/university,7845,5,,243601,5,,52.80924700000000,1397,223,foodhs@sholland.gov.uk,South Holland,http://www.sholland.gov.uk,0.01634600000000,PE12 7PU,2013-03-01,fhrs_5_en-GB,5,,FHRS,5
75174,,25 New Road,Spalding,Lincolnshire,USA Chicken,Takeaway/sandwich shop,7844,5,,243596,5,,52.78857900000000,13219,223,foodhs@sholland.gov.uk,South Holland,http://www.sholland.gov.uk,-0.15159900000000,PE11 1DQ,2014-02-05,fhrs_5_en-GB,5,,FHRS,5
75175,,Trading at A52 Layby West of Donington,Spalding,Lincolnshire,V Grub Wagon Snack Bar,Mobile caterer,7846,10,,242984,10,,,25290,223,foodhs@sholland.gov.uk,South Holland,http://www.sholland.gov.uk,,,2013-02-25,fhrs_3_en-GB,3,,FHRS,10
75176,,54-56 Market Place,Long Sutton,"Spalding, Lincolnshire",V M Gedney,Retailers - other,4613,5,,243179,5,,52.78488900000000,1781,223,foodhs@sholland.gov.uk,South Holland,http://www.sholland.gov.uk,0.12110200000000,PE12 9JF,2014-03-12,fhrs_5_en-GB,5,,FHRS,5
75177,,Main Road,Deeping St. Nicholas,"Spalding, Lincolnshire",Vine House Farm Ltd.,Retailers - other,4613,5,,243031,5,,52.72052100000000,26371,223,foodhs@sholland.gov.uk,South Holland,http://www.sholland.gov.uk,-0.21570500000000,PE11 3DG,2014-12-17,fhrs_4_en-GB,4,,FHRS,10
75178,,,,,Vinteage,Other catering premises,7841,10,,716358,10,,,36869,223,foodhs@sholland.gov.uk,South Holland,http://www.sholland.gov.uk,,,2014-11-05,fhrs_3_en-GB,3,,FHRS,10
75179,,16 Boston Road South,Holbeach,"Spalding, Lincolnshire",W Boyes & Co Ltd,Retailers - other,4613,5,,242821,5,,52.80513800000000,25682,223,foodhs@sholland.gov.uk,South Holland,http://www.sholland.gov.uk,0.01318900000000,PE12 7LR,2014-03-12,fhrs_5_en-GB,5,,FHRS,5
75180,,53-55 Knight Street,Pinchbeck,"Spalding, Lincolnshire",W Hargrave & Son,Retailers - other,4613,5,,243191,5,,52.81682700000000,2301,223,foodhs@sholland.gov.uk,South Holland,http://www.sholland.gov.uk,-0.16311800000000,PE11 3RA,2014-02-26,fhrs_5_en-GB,5,,FHRS,5
75181,,53 London Road,Spalding,Lincolnshire,Welland Stores,Retailers - other,4613,10,,243427,5,,52.77922600000000,21208,223,foodhs@sholland.gov.uk,South Holland,http://www.sholland.gov.uk,-0.15542000000000,PE11 2TN,2010-12-20,fhrs_3_en-GB,3,,FHRS,10
75182,,River Bank,Spalding Common,"Spalding, Lincs",Welland Yacht Club,Pub/bar/nightclub,7843,0,,243138,0,,52.77360000000000,3618,223,foodhs@sholland.gov.uk,South Holland,http://www.sholland.gov.uk,-0.16080300000000,PE11 3AA,2012-03-21,fhrs_5_en-GB,5,,FHRS,5
75183,,West Elloe Avenue,Spalding,Lincolnshire,West Elloe Pharmacy,Retailers - other,4613,,,243611,,,52.79408500000000,8802,223,foodhs@sholland.gov.uk,South Holland,http://www.sholland.gov.uk,-0.14776100000000,PE11 2BY,2012-08-01,fhrs_exempt_en-GB,Exempt,,FHRS,
75184,,Leaveslake Drove,West Pinchbeck,"Spalding, Lincs",West Pinchbeck Primary School,School/college/university,7845,5,,243052,5,,52.80657900000000,2319,223,foodhs@sholland.gov.uk,South Holland,http://www.sholland.gov.uk,-0.24151400000000,PE11 3QJ,2012-08-01,fhrs_5_en-GB,5,,FHRS,5
75185,,Six House Bank,West Pinchbeck,"Spalding, Lincolnshire",West Pinchbeck Village Hall,Other catering premises,7841,,,243400,,,52.81391800000000,5878,223,foodhs@sholland.gov.uk,South Holland,http://www.sholland.gov.uk,-0.22419800000000,PE11 3QG,2014-01-02,fhrs_exempt_en-GB,Exempt,,FHRS,
75186,,71 Pinchbeck Road,Spalding,Lincolnshire,Westbrooke House,Hotel/bed & breakfast/guest house,7842,10,,243247,5,,52.79229300000000,3525,223,foodhs@sholland.gov.uk,South Holland,http://www.sholland.gov.uk,-0.15105600000000,PE11 1QF,2014-04-04,fhrs_4_en-GB,4,,FHRS,5
75187,Westfield Farm,Beck Bank,West Pinchbeck,"Spalding, Lincolnshire",Westfield Farm Day Nursery,Hospitals/Childcare/Caring Premises,5,5,,243472,5,,52.82509200000000,23203,223,foodhs@sholland.gov.uk,South Holland,http://www.sholland.gov.uk,-0.22892300000000,PE11 3QN,2014-03-17,fhrs_5_en-GB,5,,FHRS,5
75188,,Little Lane,Whaplode,"Spalding, Lincolnshire",Westgate House,Hotel/bed & breakfast/guest house,7842,5,,243393,5,,52.78505100000000,4988,223,foodhs@sholland.gov.uk,South Holland,http://www.sholland.gov.uk,-0.04370400000000,PE12 6RU,2014-01-03,fhrs_5_en-GB,5,,FHRS,5
75189,,50 Westlode Street,Spalding,Lincolnshire,Westlode Fisheries,Takeaway/sandwich shop,7844,5,,243166,10,,52.78933800000000,3869,223,foodhs@sholland.gov.uk,South Holland,http://www.sholland.gov.uk,-0.14664300000000,PE11 2AQ,2013-11-11,fhrs_4_en-GB,4,,FHRS,5
75190,,Anne Road,Sutton Bridge,"Spalding, Lincolnshire",Westmere Primary School,School/college/university,7845,5,,243255,10,,52.77263000000000,4334,223,foodhs@sholland.gov.uk,South Holland,http://www.sholland.gov.uk,0.18330600000000,PE12 9TB,2009-06-19,fhrs_4_en-GB,4,,FHRS,5
75191,,124 High Road,Weston,"Spalding, Lincolnshire",Weston Community Centre,Other catering premises,7841,,,243395,,,52.80754400000000,18670,223,foodhs@sholland.gov.uk,South Holland,http://www.sholland.gov.uk,-0.08431200000000,PE12 6RA,2011-12-19,fhrs_exempt_en-GB,Exempt,,FHRS,
75192,,Learning Lane,Weston Hills,"Spalding, Lincs  PE12 6DL",Weston Hills Primary School,School/college/university,7845,10,,243468,5,,52.76187000000000,4851,223,foodhs@sholland.gov.uk,South Holland,http://www.sholland.gov.uk,-0.11289100000000,PE12 6DL,2011-06-09,fhrs_4_en-GB,4,,FHRS,5
75193,,337 Broadgate,Weston Hills,"Spalding, Lincs",Weston Hills Village Hall,Other catering premises,7841,,,242813,,,52.80281800000000,4856,223,foodhs@sholland.gov.uk,South Holland,http://www.sholland.gov.uk,-0.09180300000000,PE12 6HY,2014-06-04,fhrs_exempt_en-GB,Exempt,,FHRS,
75194,,Small Drove,Weston,"Spalding, Lincolnshire",Weston St Marys Primary School,School/college/university,7845,5,,243306,5,,52.80391500000000,4900,223,foodhs@sholland.gov.uk,South Holland,http://www.sholland.gov.uk,-0.08619200000000,PE12 6HU,2012-02-03,fhrs_4_en-GB,4,,FHRS,10
75195,,Small Drove,Weston,"Spalding, Lincolnshire",Weston Village Hall,Other catering premises,7841,,,242953,,,52.80391500000000,16625,223,foodhs@sholland.gov.uk,South Holland,http://www.sholland.gov.uk,-0.08619200000000,PE12 6HU,2014-12-19,fhrs_exempt_en-GB,Exempt,,FHRS,
75196,,1 Small Drove,Weston,"Spalding, Lincs",Weston Village Stores,Retailers - other,4613,0,,242896,0,,52.80698700000000,4897,223,foodhs@sholland.gov.uk,South Holland,http://www.sholland.gov.uk,-0.08322300000000,PE12 6HS,2014-06-04,fhrs_5_en-GB,5,,FHRS,5
75197,,Mill Lane,Whaplode,"Spalding, Lincs",Whaplode C E Primary School,School/college/university,7845,5,,243142,5,,52.79963700000000,5018,223,foodhs@sholland.gov.uk,South Holland,http://www.sholland.gov.uk,-0.02866000000000,PE12 6TS,2009-09-07,fhrs_4_en-GB,4,,FHRS,10
75198,,Broadgate,Whaplode Drove,"Spalding, Lincs",Whaplode Drove Church Hall,Other catering premises,7841,,,243228,,,52.69678100000000,5864,223,foodhs@sholland.gov.uk,South Holland,http://www.sholland.gov.uk,-0.05202400000000,,2014-01-02,fhrs_exempt_en-GB,Exempt,,FHRS,
75199,,Washway Road,Saracens Head,"Spalding, Lincolnshire",Whaplode Manor,Hotel/bed & breakfast/guest house,7842,5,,242962,5,,52.83085900000000,5309,223,foodhs@sholland.gov.uk,South Holland,http://www.sholland.gov.uk,-0.01332300000000,PE12 8AZ,2014-06-30,fhrs_5_en-GB,5,,FHRS,5
75200,,Kirk Gate,Whaplode,"Spalding, Lincs",Whaplode Village Hall,Other catering premises,7841,,,243076,,,52.79831900000000,4987,223,foodhs@sholland.gov.uk,South Holland,http://www.sholland.gov.uk,-0.03757600000000,PE12 6TE,2014-08-18,fhrs_exempt_en-GB,Exempt,,FHRS,
75201,,7 Town Drove,Quadring,"Spalding, Lincolnshire",White Hart,Pub/bar/nightclub,7843,10,,243556,5,,52.88120700000000,13012,223,foodhs@sholland.gov.uk,South Holland,http://www.sholland.gov.uk,-0.18579700000000,PE11 4PU,2014-01-02,fhrs_4_en-GB,4,,FHRS,5
75202,,10 Halmer Gate,Spalding,Lincolnshire,White Lodge,Hotel/bed & breakfast/guest house,7842,5,,243015,5,,52.78555300000000,26895,223,foodhs@sholland.gov.uk,South Holland,http://www.sholland.gov.uk,-0.14546900000000,PE11 2DR,2012-08-01,fhrs_5_en-GB,5,,FHRS,5
75203,,1 Holland Market,Spalding,Lincs,Wilkinson Hardware Stores Ltd,Retailers - other,4613,5,,243210,5,,52.78840500000000,9366,223,foodhs@sholland.gov.uk,South Holland,http://www.sholland.gov.uk,-0.15426100000000,PE11 1RQ,2014-12-23,fhrs_5_en-GB,5,,FHRS,0
75204,,Spalding Road,Holbeach,"Spalding, Lincs",William Stukeley Primary Sch,School/college/university,7845,10,,243294,5,,52.80468000000000,9809,223,foodhs@sholland.gov.uk,South Holland,http://www.sholland.gov.uk,0.00788600000000,PE12 7HG,2012-02-03,fhrs_4_en-GB,4,,FHRS,5
75205,,Wimberley Hall,Weston,,Wimberley Hall Farm Shop and Cafe,Retailers - other,4613,,,243338,,,52.81072300000000,32642,223,foodhs@sholland.gov.uk,South Holland,http://www.sholland.gov.uk,-0.08077400000000,PE12 6HR,2014-02-11,fhrs_4_en-GB,4,,FHRS,
75206,,24 Winsover Road,Spalding,,Winsover Bakery Sofia,Retailers - other,4613,10,,243544,10,,52.78721200000000,33121,223,foodhs@sholland.gov.uk,South Holland,http://www.sholland.gov.uk,-0.15730700000000,PE11 1EJ,2013-03-07,fhrs_3_en-GB,3,,FHRS,10
75207,,Wardentree Lane,Pinchbeck,"Spalding, Lincs",Wm Morrisons Supermarket,Retailers - supermarkets/hypermarkets,7840,5,,243177,5,,52.80914900000000,19350,223,foodhs@sholland.gov.uk,South Holland,http://www.sholland.gov.uk,-0.13715100000000,PE11 3UG,2013-11-06,fhrs_5_en-GB,5,,FHRS,5
75208,,Unit 6 Holland Market,Spalding,,Wok Aroma UK,Takeaway/sandwich shop,7844,10,,716355,5,,52.78840500000000,36789,223,foodhs@sholland.gov.uk,South Holland,http://www.sholland.gov.uk,-0.15426100000000,PE11 1RQ,2014-10-27,fhrs_4_en-GB,4,,FHRS,5
75209,Holbeach W I Hall,24 Park Road,Holbeach,"Spalding, Lincolnshire",Womens Institute,Other catering premises,7841,,,243128,,,52.80460200000000,1392,223,foodhs@sholland.gov.uk,South Holland,http://www.sholland.gov.uk,0.01562700000000,PE12 7EE,2014-03-12,fhrs_exempt_en-GB,Exempt,,FHRS,
75210,,Wood Lane,Fleet,"Spalding, Lincs",Wood Lane County Primary,School/college/university,7845,10,,243208,5,,52.79416700000000,611,223,foodhs@sholland.gov.uk,South Holland,http://www.sholland.gov.uk,0.05633400000000,PE12 8NN,2010-02-26,fhrs_4_en-GB,4,,FHRS,5
75211,,Brunel Road,Pinchbeck,"Spalding, Lincolnshire",Woodhead Brothers Canteen,Restaurant/Cafe/Canteen,1,5,,242918,5,,52.80523700000000,31028,223,foodhs@sholland.gov.uk,South Holland,http://www.sholland.gov.uk,-0.14111600000000,PE11 3YY,2013-11-21,fhrs_5_en-GB,5,,FHRS,5
75212,,80 Station Road,Tydd Gote,"Spalding, Lincolnshire",Wrights Post Office & Stores,Retailers - other,4613,10,,242965,10,,52.73909400000000,5463,223,foodhs@sholland.gov.uk,South Holland,http://www.sholland.gov.uk,0.15417900000000,PE13 5RD,2010-08-19,fhrs_3_en-GB,3,,FHRS,10
75213,,5 Clover Way,Spalding,Lincolnshire,Wygate Fish Bar,Takeaway/sandwich shop,7844,,,243377,,,52.79667200000000,7626,223,foodhs@sholland.gov.uk,South Holland,http://www.sholland.gov.uk,-0.16439800000000,PE11 3GD,2014-08-06,fhrs_4_en-GB,4,,FHRS,
75214,Spalding Primary School,Woolram Wygate,Spalding,Lincolnshire,Wygate Foundation Nursery School,Hospitals/Childcare/Caring Premises,5,5,,242940,5,,52.79236900000000,30278,223,foodhs@sholland.gov.uk,South Holland,http://www.sholland.gov.uk,-0.16174600000000,PE11 1PB,2012-02-08,fhrs_5_en-GB,5,,FHRS,5
75215,,The Common,Crowland,"Peterborough, Cambs",Ye Olde Bridge Inn,Pub/bar/nightclub,7843,10,,243028,5,,52.67989200000000,16519,223,foodhs@sholland.gov.uk,South Holland,http://www.sholland.gov.uk,-0.18434300000000,PE6 0HJ,2013-12-12,fhrs_3_en-GB,3,,FHRS,10
75216,,2 Churchgate,Spalding,Lincs,Ye Olde White Horse,Pub/bar/nightclub,7843,10,,243123,10,,52.78483600000000,12756,223,foodhs@sholland.gov.uk,South Holland,http://www.sholland.gov.uk,-0.14910300000000,PE11 2RA,2014-08-04,fhrs_3_en-GB,3,,FHRS,10
75217,"Unit 6, Winsover Centre",14 - 16 Winsover Road,Spalding,Lincolnshire,Ze Spichrza,Retailers - other,4613,10,,243551,10,,52.78721200000000,31705,223,foodhs@sholland.gov.uk,South Holland,http://www.sholland.gov.uk,-0.15730700000000,PE11 1EJ,2011-03-21,fhrs_3_en-GB,3,,FHRS,5
75218,,27-29 Winsover Road,Spalding,Lincolnshire,Zorba Kebab 3,Takeaway/sandwich shop,7844,10,,243499,5,,52.78688000000000,20908,223,foodhs@sholland.gov.uk,South Holland,http://www.sholland.gov.uk,-0.15680200000000,PE11 1EG,2014-09-29,fhrs_4_en-GB,4,,FHRS,5
