,addressline1,addressline2,addressline3,addressline4,businessname,businesstype,businesstypeid,confidenceinmanagement,extractdate,fhrsid,hygiene,itemcount,latitude,localauthoritybusinessid,localauthoritycode,localauthorityemailaddress,localauthorityname,localauthoritywebsite,longitude,postcode,ratingdate,ratingkey,ratingvalue,returncode,schemetype,structural
6237,Murco Filling Station,Middletons Lane,,Hellesdon,A & F Engineering,Retailers - other,4613,10,,91237,10,,52.66587100000000,2511,228,environ.enforcement@broadland.gov.uk,Broadland,http://www.broadland.gov.uk,1.26697900000000,NR6 5NQ,2013-08-07,fhrs_3_en-GB,3,,FHRS,10
6238,,150 Reepham Road,,Hellesdon,A B Newsagents,Retailers - other,4613,10,,103868,10,,52.66450600000000,3509,228,environ.enforcement@broadland.gov.uk,Broadland,http://www.broadland.gov.uk,1.26427300000000,NR6 5NY,2013-02-15,fhrs_3_en-GB,3,,FHRS,10
6239,Manor Farm,Coxhill Road,,Beighton,A L Shearing,Retailers - other,4613,,,429543,,,52.61957400000000,93859,228,environ.enforcement@broadland.gov.uk,Broadland,http://www.broadland.gov.uk,1.51819100000000,NR13 3JX,2012-07-30,fhrs_exempt_en-GB,Exempt,,FHRS,
6240,The River Rooms,Church Street,,Coltishall,A Piece of Cake,Restaurant/Cafe/Canteen,1,5,,659035,5,,52.72787900000000,95847,228,environ.enforcement@broadland.gov.uk,Broadland,http://www.broadland.gov.uk,1.36060400000000,NR12 7DJ,2014-04-28,fhrs_5_en-GB,5,,FHRS,5
6241,,48a Salhouse Road,,Rackheath,Absolutely Ravishing,Retailers - other,4613,5,,659047,5,,52.66276900000000,96145,228,environ.enforcement@broadland.gov.uk,Broadland,http://www.broadland.gov.uk,1.37941800000000,NR13 6QH,2014-05-06,fhrs_5_en-GB,5,,FHRS,5
6242,,,,,Acacia Guest House,Hotel/bed & breakfast/guest house,7842,5,,690616,5,,,30152,228,environ.enforcement@broadland.gov.uk,Broadland,http://www.broadland.gov.uk,,,2014-07-31,fhrs_5_en-GB,5,,FHRS,5
6243,,5 Fletcher Way,,Acle,Acle Bed and Breakfast,Hotel/bed & breakfast/guest house,7842,5,,147026,0,,52.64190400000000,90696,228,environ.enforcement@broadland.gov.uk,Broadland,http://www.broadland.gov.uk,1.55530800000000,NR13 3RQ,2014-11-27,fhrs_5_en-GB,5,,FHRS,0
6244,,Old Road,,Acle,Acle Bridge Inn,Pub/bar/nightclub,7843,5,,41728,5,,52.64883200000000,1033,228,environ.enforcement@broadland.gov.uk,Broadland,http://www.broadland.gov.uk,1.56659200000000,NR13 3AS,2013-08-06,fhrs_5_en-GB,5,,FHRS,5
6245,Acle Fish And Chips,New Road,,Acle,Acle Fish & Chips,Takeaway/sandwich shop,7844,5,,142493,5,,52.63829100000000,793,228,environ.enforcement@broadland.gov.uk,Broadland,http://www.broadland.gov.uk,1.55072700000000,NR13 3BE,2013-02-21,fhrs_5_en-GB,5,,FHRS,5
6246,Fletcher Rooms,Fletcher Way,,Acle,Acle Pre-School Playgroup,School/college/university,7845,5,,124790,5,,52.64190400000000,53237,228,environ.enforcement@broadland.gov.uk,Broadland,http://www.broadland.gov.uk,1.55530800000000,NR13 3RQ,2014-01-21,fhrs_5_en-GB,5,,FHRS,0
6247,Old Bank House,The Street,,Acle,Acle Spice,Takeaway/sandwich shop,7844,10,,147090,15,,52.63853100000000,90995,228,environ.enforcement@broadland.gov.uk,Broadland,http://www.broadland.gov.uk,1.54781900000000,NR13 3DY,2012-11-28,fhrs_2_en-GB,2,,FHRS,10
6248,Acle Methodist Church,Bridewell Lane,,Acle,Acle Voluntary Aid Scheme,Other catering premises,7841,5,,62210,0,,52.64098000000000,1373,228,environ.enforcement@broadland.gov.uk,Broadland,http://www.broadland.gov.uk,1.54865400000000,NR13 3RA,2014-10-15,fhrs_5_en-GB,5,,FHRS,0
6249,Recreation Centre,Bridewell Lane,,Acle,Acle War Memorial Recreation Centre & Social Club,Other catering premises,7841,10,,50147,10,,52.64098000000000,1116,228,environ.enforcement@broadland.gov.uk,Broadland,http://www.broadland.gov.uk,1.54865400000000,NR13 3RA,2014-02-20,fhrs_2_en-GB,2,,FHRS,15
6250,,44 Jubilee Close,,Cawston,ACT Luncheon Club,Other catering premises,7841,5,,134099,5,,52.76762400000000,6724,228,environ.enforcement@broadland.gov.uk,Broadland,http://www.broadland.gov.uk,1.16720300000000,NR10 4AF,2013-06-06,fhrs_5_en-GB,5,,FHRS,0
6251,,,,,Adams Cafe,Mobile caterer,7846,10,,638009,5,,,95893,228,environ.enforcement@broadland.gov.uk,Broadland,http://www.broadland.gov.uk,,,2014-03-10,fhrs_4_en-GB,4,,FHRS,5
6252,Drayton Old Lodge,146 Drayton High Road,,Drayton,Alex Chef,Restaurant/Cafe/Canteen,1,5,,700840,5,,52.67252300000000,96572,228,environ.enforcement@broadland.gov.uk,Broadland,http://www.broadland.gov.uk,1.23233700000000,NR8 6AN,2014-09-11,fhrs_5_en-GB,5,,FHRS,0
6253,,28 High Street,,Coltishall,Ali Spice,Takeaway/sandwich shop,7844,10,,147379,15,,52.72872600000000,91773,228,environ.enforcement@broadland.gov.uk,Broadland,http://www.broadland.gov.uk,1.35739500000000,NR12 7AA,2014-12-04,fhrs_2_en-GB,2,,FHRS,15
6254,,,,,All Seasons Bed & Breakfast,Hotel/bed & breakfast/guest house,7842,5,,690614,0,,,13478,228,environ.enforcement@broadland.gov.uk,Broadland,http://www.broadland.gov.uk,,,2014-08-01,fhrs_5_en-GB,5,,FHRS,0
6255,,9 High Street,,Cawston,All Things Nice,Restaurant/Cafe/Canteen,1,5,,96132,10,,52.77044300000000,2900,228,environ.enforcement@broadland.gov.uk,Broadland,http://www.broadland.gov.uk,1.16368600000000,NR10 4AE,2014-02-07,fhrs_4_en-GB,4,,FHRS,5
6256,,,,,All Weather BBQ,Other catering premises,7841,5,,438546,5,,,93900,228,environ.enforcement@broadland.gov.uk,Broadland,http://www.broadland.gov.uk,,,2014-05-02,fhrs_5_en-GB,5,,FHRS,0
6257,,Homelea Crescent Luncheon Club,,Lingwood And Burlingham,Andrew Frederick Adult Support,Hospitals/Childcare/Caring Premises,5,5,,134089,5,,52.61940700000000,6722,228,environ.enforcement@broadland.gov.uk,Broadland,http://www.broadland.gov.uk,1.48708500000000,NR13 4BW,2015-01-23,fhrs_5_en-GB,5,,FHRS,0
6258,,,,,Andy Parle,Other catering premises,7841,5,,627812,5,,,92127,228,environ.enforcement@broadland.gov.uk,Broadland,http://www.broadland.gov.uk,,,2014-01-23,fhrs_5_en-GB,5,,FHRS,0
6259,,,,,Angry Onions Snack Bar,Mobile caterer,7846,5,,559048,5,,,14730,228,environ.enforcement@broadland.gov.uk,Broadland,http://www.broadland.gov.uk,,,2013-06-10,fhrs_5_en-GB,5,,FHRS,5
6260,Asda,Drayton High Road,,Hellesdon,Asda,Retailers - supermarkets/hypermarkets,7840,5,,95151,10,,52.65302800000000,2817,228,environ.enforcement@broadland.gov.uk,Broadland,http://www.broadland.gov.uk,1.26207200000000,NR6 5DT,2013-04-30,fhrs_4_en-GB,4,,FHRS,5
6261,Ashwood House,Coltishall Road,,Buxton,Ashwood House,Hospitals/Childcare/Caring Premises,5,5,,687691,10,,52.75446700000000,42936,228,environ.enforcement@broadland.gov.uk,Broadland,http://www.broadland.gov.uk,1.30872500000000,NR10 5HB,2014-07-24,fhrs_4_en-GB,4,,FHRS,5
6262,"The Stable, Church Farm",Old Fakenham Road,,Attlebridge,Attlebridge Montessori Nursery School,Hospitals/Childcare/Caring Premises,5,5,,731505,0,,52.70673700000000,93704,228,environ.enforcement@broadland.gov.uk,Broadland,http://www.broadland.gov.uk,1.15078100000000,NR9 5ST,2015-01-15,fhrs_5_en-GB,5,,FHRS,0
6263,,,,,Aunty's,Other catering premises,7841,5,,147434,5,,,91965,228,environ.enforcement@broadland.gov.uk,Broadland,http://www.broadland.gov.uk,,,2012-11-07,fhrs_5_en-GB,5,,FHRS,0
6264,,,,,Avi's Bread,Other catering premises,7841,5,,726226,5,,,96603,228,environ.enforcement@broadland.gov.uk,Broadland,http://www.broadland.gov.uk,,,2014-12-10,fhrs_5_en-GB,5,,FHRS,0
6265,,26 White Hart Street,,Aylsham,Aylsham & District Care Trust at Aylsham Methodist Church Hall,Other catering premises,7841,5,,62492,5,,52.79644300000000,1380,228,environ.enforcement@broadland.gov.uk,Broadland,http://www.broadland.gov.uk,1.25303800000000,NR11 6HG,2014-02-04,fhrs_5_en-GB,5,,FHRS,0
6266,Maingay House,Abbots Close,,Aylsham,Aylsham Care Trust Luncheon Club at Maingay House,Hospitals/Childcare/Caring Premises,5,5,,103450,5,,52.79701100000000,3477,228,environ.enforcement@broadland.gov.uk,Broadland,http://www.broadland.gov.uk,1.25463900000000,NR11 6HQ,2013-09-09,fhrs_5_en-GB,5,,FHRS,0
6267,,64 Hungate Street,,Aylsham,Aylsham Ex Service & Social C,Pub/bar/nightclub,7843,5,,731504,5,,52.79397200000000,1135,228,environ.enforcement@broadland.gov.uk,Broadland,http://www.broadland.gov.uk,1.25033100000000,NR11 6AA,2015-01-20,fhrs_5_en-GB,5,,FHRS,5
6268,,Norwich Road,,Aylsham,Aylsham Garden Centre Coffee Shop,Retailers - other,4613,10,,96629,5,,52.78148000000000,2954,228,environ.enforcement@broadland.gov.uk,Broadland,http://www.broadland.gov.uk,1.25591100000000,NR11 6UD,2014-06-26,fhrs_4_en-GB,4,,FHRS,5
6269,,149 Norwich Road,,Aylsham,Aylsham Lodge Hotel,Restaurant/Cafe/Canteen,1,5,,102017,5,,52.78727400000000,3363,228,environ.enforcement@broadland.gov.uk,Broadland,http://www.broadland.gov.uk,1.25484600000000,NR11 6JH,2013-10-09,fhrs_5_en-GB,5,,FHRS,5
6270,Aylsham Manor,Norwich Road,,Aylsham,Aylsham Manor Residential Home,Hospitals/Childcare/Caring Premises,5,5,,103331,5,,52.79412300000000,3470,228,environ.enforcement@broadland.gov.uk,Broadland,http://www.broadland.gov.uk,1.25172300000000,NR11 6BN,2014-06-11,fhrs_5_en-GB,5,,FHRS,5
6271,Town Hall,Market Place,,Aylsham,Aylsham Town Hall,Other catering premises,7841,,,64529,,,52.79548200000000,1436,228,environ.enforcement@broadland.gov.uk,Broadland,http://www.broadland.gov.uk,1.25136400000000,NR11 6EL,2013-03-08,fhrs_exempt_en-GB,Exempt,,FHRS,
6272,,Mile Cross Lane,,Hellesdon,B&M Stores Ltd,Retailers - other,4613,0,,659032,5,,52.65895400000000,94881,228,environ.enforcement@broadland.gov.uk,Broadland,http://www.broadland.gov.uk,1.28129700000000,NR6 6RY,2014-04-23,fhrs_5_en-GB,5,,FHRS,0
6273,,Boundary Road,,Hellesdon,B&Q cafe,Restaurant/Cafe/Canteen,1,5,,106908,5,,52.65438700000000,37468,228,environ.enforcement@broadland.gov.uk,Broadland,http://www.broadland.gov.uk,1.26856200000000,NR6 5JB,2014-06-13,fhrs_5_en-GB,5,,FHRS,5
6274,,18 Wendover Road,,Rackheath Industrial Estate,B24 Business Lounge,Restaurant/Cafe/Canteen,1,5,,482077,5,,,94205,228,environ.enforcement@broadland.gov.uk,Broadland,http://www.broadland.gov.uk,,NR13 6LR,2014-06-10,fhrs_5_en-GB,5,,FHRS,5
6275,Badgers Wood Nursing Home,29 School Road,,Drayton,Badgers Wood Residential Home,Hospitals/Childcare/Caring Premises,5,5,,102883,5,,52.67908900000000,3432,228,environ.enforcement@broadland.gov.uk,Broadland,http://www.broadland.gov.uk,1.22471300000000,NR8 6EF,2014-01-28,fhrs_5_en-GB,5,,FHRS,0
6276,,,,,Baileys Ice Creams,Mobile caterer,7846,5,,395949,5,,,93685,228,environ.enforcement@broadland.gov.uk,Broadland,http://www.broadland.gov.uk,,,2012-06-01,fhrs_5_en-GB,5,,FHRS,5
6277,St Andrews Business Park,Northside,,Thorpe St Andrew,Bannatynes Health Spa,Restaurant/Cafe/Canteen,1,5,,93942,5,,52.63240100000000,27140,228,environ.enforcement@broadland.gov.uk,Broadland,http://www.broadland.gov.uk,1.36854600000000,NR7 0HT,2014-03-04,fhrs_5_en-GB,5,,FHRS,5
6278,Heath Farm,Plumstead Road,,Little Plumstead,Barchester Healthcare Ltd,Hospitals/Childcare/Caring Premises,5,0,,117548,5,,52.66059100000000,4678,228,environ.enforcement@broadland.gov.uk,Broadland,http://www.broadland.gov.uk,1.40489800000000,NR13 5JG,2013-02-21,fhrs_5_en-GB,5,,FHRS,0
6279,,31 Salhouse Road,,Rackheath,Barchester Healthcare Ltd at Ashfields Residential Home,Hospitals/Childcare/Caring Premises,5,5,,103103,5,,52.66448200000000,3451,228,environ.enforcement@broadland.gov.uk,Broadland,http://www.broadland.gov.uk,1.38178400000000,NR13 6PD,2014-01-31,fhrs_5_en-GB,5,,FHRS,0
6280,Barnacres,3 Cromer Road,,Hainford,Barnacres,Other catering premises,7841,,,147350,,,52.71938300000000,91678,228,environ.enforcement@broadland.gov.uk,Broadland,http://www.broadland.gov.uk,1.27539300000000,NR10 3AT,2013-03-08,fhrs_exempt_en-GB,Exempt,,FHRS,
6281,,163 Reepham Road,,Hellesdon,Barretts Fish & Chip Shop,Takeaway/sandwich shop,7844,5,,94516,0,,52.66384200000000,2769,228,environ.enforcement@broadland.gov.uk,Broadland,http://www.broadland.gov.uk,1.26423800000000,NR6 5NZ,2014-07-10,fhrs_5_en-GB,5,,FHRS,5
6282,26 Horsbeck Industrial Estate,Horsbeck Way,,Horsford,Base Line Sporting Opportunities,Restaurant/Cafe/Canteen,1,5,,619179,0,,52.69491400000000,95170,228,environ.enforcement@broadland.gov.uk,Broadland,http://www.broadland.gov.uk,1.24263700000000,NR10 3SS,2014-11-27,fhrs_5_en-GB,5,,FHRS,5
6283,Cantley Sugar Factory,Staff Canteen,,Cantley,Baxter Storey,Restaurant/Cafe/Canteen,1,0,,112187,0,,53.50915145874023,4145,228,environ.enforcement@broadland.gov.uk,Broadland,http://www.broadland.gov.uk,-1.02828001976013,NR13 3ST,2010-12-07,fhrs_5_en-GB,5,,FHRS,5
6284,,,,,Beautiful Bakes,Other catering premises,7841,5,,147431,0,,,91943,228,environ.enforcement@broadland.gov.uk,Broadland,http://www.broadland.gov.uk,,,2013-05-17,fhrs_5_en-GB,5,,FHRS,0
6285,,105 Holt Road,,Horsford,Beckland Guest House,Hotel/bed & breakfast/guest house,7842,10,,102218,10,,52.69669500000000,3381,228,environ.enforcement@broadland.gov.uk,Broadland,http://www.broadland.gov.uk,1.24460500000000,NR10 3AB,2014-06-12,fhrs_4_en-GB,4,,FHRS,0
6286,Beehive Butchery,51 Cannerby Lane,,Sprowston,Beehive Butchery,Retailers - other,4613,5,,95826,5,,52.65447700000000,2876,228,environ.enforcement@broadland.gov.uk,Broadland,http://www.broadland.gov.uk,1.32348000000000,NR7 8NG,2014-08-04,fhrs_5_en-GB,5,,FHRS,0
6287,,81 Norwich Road,,Salhouse,Beeshaw Care Ltd,Hospitals/Childcare/Caring Premises,5,5,,146113,0,,52.66992700000000,88320,228,environ.enforcement@broadland.gov.uk,Broadland,http://www.broadland.gov.uk,1.39516500000000,NR13 6QQ,2011-01-26,fhrs_5_en-GB,5,,FHRS,0
6288,Foxhill,Bell Lane,,Salhouse,Beeshaw Care Ltd at Foxhill,Hospitals/Childcare/Caring Premises,5,5,,509104,0,,52.67762900000000,94515,228,environ.enforcement@broadland.gov.uk,Broadland,http://www.broadland.gov.uk,1.40881400000000,NR13 6RR,2013-02-06,fhrs_5_en-GB,5,,FHRS,0
6289,Farm Shop,North Walsham Road,,Crostwick,Beeston Farm Shop Limited,Retailers - other,4613,10,,96510,5,,52.67912200000000,2940,228,environ.enforcement@broadland.gov.uk,Broadland,http://www.broadland.gov.uk,1.33013200000000,NR12 7BY,2013-10-08,fhrs_4_en-GB,4,,FHRS,5
6290,,3 Lower Street,,Salhouse,Bell Inn,Pub/bar/nightclub,7843,10,,41143,10,,52.67774400000000,1022,228,environ.enforcement@broadland.gov.uk,Broadland,http://www.broadland.gov.uk,1.41170800000000,NR13 6RW,2014-07-31,fhrs_3_en-GB,3,,FHRS,10
6291,,16 Market Place,,Aylsham,Biddys Kitchen,Restaurant/Cafe/Canteen,1,5,,52162,5,,52.79530100000000,1175,228,environ.enforcement@broadland.gov.uk,Broadland,http://www.broadland.gov.uk,1.25075700000000,NR11 6EH,2015-01-13,fhrs_5_en-GB,5,,FHRS,5
6292,,8 School Lane,,Sprowston,Billys Fish & Chip Shop,Takeaway/sandwich shop,7844,5,,94425,5,,52.65609900000000,2761,228,environ.enforcement@broadland.gov.uk,Broadland,http://www.broadland.gov.uk,1.30635900000000,NR7 8TB,2013-02-07,fhrs_5_en-GB,5,,FHRS,5
6293,Bircham Centre,Market Place,,Reepham,Bircham Centre,Retailers - other,4613,,,726220,,,52.76269800000000,3024,228,environ.enforcement@broadland.gov.uk,Broadland,http://www.broadland.gov.uk,1.11073200000000,NR10 4JJ,2014-12-10,fhrs_exempt_en-GB,Exempt,,FHRS,
6294,Black Boys,Market Place,,Aylsham,Black Boys Public House,Pub/bar/nightclub,7843,5,,44514,5,,52.79530100000000,1080,228,environ.enforcement@broadland.gov.uk,Broadland,http://www.broadland.gov.uk,1.25075700000000,NR11 6EH,2014-01-28,fhrs_5_en-GB,5,,FHRS,5
6295,The Black Lion,Lion Road,,Buxton With Lamas,Black Lion Public House,Pub/bar/nightclub,7843,5,,729381,5,,52.75348200000000,1085,228,environ.enforcement@broadland.gov.uk,Broadland,http://www.broadland.gov.uk,1.29986000000000,NR10 5HH,2014-12-30,fhrs_5_en-GB,5,,FHRS,5
6296,,Norwich Road,,Horsham St Faith,Black Swan Public House,Pub/bar/nightclub,7843,5,,49602,10,,52.69111000000000,1101,228,environ.enforcement@broadland.gov.uk,Broadland,http://www.broadland.gov.uk,1.28245200000000,NR10 3HJ,2014-09-12,fhrs_4_en-GB,4,,FHRS,5
6297,Hobsons,Fox Lane,,Blofield,Blofield Day Nursery,School/college/university,7845,5,,125381,5,,52.63353500000000,5388,228,environ.enforcement@broadland.gov.uk,Broadland,http://www.broadland.gov.uk,1.45372100000000,NR13 4LW,2014-10-31,fhrs_5_en-GB,5,,FHRS,0
6298,The Leisure Village,58 Yarmouth Road,,Blofield,Blofield Farm Shop,Retailers - other,4613,5,,98899,5,,52.63602100000000,3120,228,environ.enforcement@broadland.gov.uk,Broadland,http://www.broadland.gov.uk,1.45637100000000,NR13 4LQ,2013-05-24,fhrs_5_en-GB,5,,FHRS,5
6299,,North Street,,Blofield,Blofield Fish Shop,Takeaway/sandwich shop,7844,10,,94443,5,,52.63454600000000,2763,228,environ.enforcement@broadland.gov.uk,Broadland,http://www.broadland.gov.uk,1.44370400000000,NR13 4JR,2013-07-05,fhrs_4_en-GB,4,,FHRS,5
6300,Blofield Heath Post Office,Woodbastwick Road,,Blofield,Blofield Heath P O Stores,Retailers - other,4613,10,,98445,5,,52.65102000000000,3102,228,environ.enforcement@broadland.gov.uk,Broadland,http://www.broadland.gov.uk,1.44102100000000,NR13 4AB,2011-10-19,fhrs_4_en-GB,4,,FHRS,0
6301,,Church Road,,Blofield,Blofield Parochial Church Council,Other catering premises,7841,5,,659030,0,,52.63062900000000,82764,228,environ.enforcement@broadland.gov.uk,Broadland,http://www.broadland.gov.uk,1.45095000000000,NR13 4NA,2014-02-05,fhrs_5_en-GB,5,,FHRS,5
6302,,The Street,,Blofield,Blofield Post Office & Stores,Retailers - other,4613,5,,97997,10,,52.63397200000000,3071,228,environ.enforcement@broadland.gov.uk,Broadland,http://www.broadland.gov.uk,1.44765000000000,NR13 4AA,2013-11-11,fhrs_4_en-GB,4,,FHRS,5
6303,,259 Wroxham Road,,Sprowston,Blue Boar Inn,Pub/bar/nightclub,7843,5,,40477,10,,52.66150100000000,1013,228,environ.enforcement@broadland.gov.uk,Broadland,http://www.broadland.gov.uk,1.33052200000000,NR7 8RL,2014-08-15,fhrs_4_en-GB,4,,FHRS,5
6304,,Layby on North Walsham Road,,Beeston St Andrew,Blues,Mobile caterer,7846,10,,591354,15,,52.67912200000000,95186,228,environ.enforcement@broadland.gov.uk,Broadland,http://www.broadland.gov.uk,1.33013200000000,NR12 7BY,2013-10-14,fhrs_2_en-GB,2,,FHRS,5
6305,,School Road,,Drayton,Bob Carter Leisure Centre Trust,Pub/bar/nightclub,7843,5,,50922,10,,52.67680000000000,1137,228,environ.enforcement@broadland.gov.uk,Broadland,http://www.broadland.gov.uk,1.22488500000000,NR8 6DN,2014-12-16,fhrs_4_en-GB,4,,FHRS,5
6306,Budgens,Norwich Road,,Acle,Bolster Ltd,Retailers - supermarkets/hypermarkets,7840,5,,93936,5,,52.63611500000000,27139,228,environ.enforcement@broadland.gov.uk,Broadland,http://www.broadland.gov.uk,1.54651500000000,NR13 3BY,2013-03-07,fhrs_5_en-GB,5,,FHRS,0
6307,,,,,Bon Bakery,Other catering premises,7841,5,,703911,0,,,95982,228,environ.enforcement@broadland.gov.uk,Broadland,http://www.broadland.gov.uk,,,2014-09-25,fhrs_5_en-GB,5,,FHRS,0
6308,,28 Red Lion Street,,Aylsham,Bonds Fish Shop,Retailers - other,4613,10,,94547,5,,52.79563000000000,2771,228,environ.enforcement@broadland.gov.uk,Broadland,http://www.broadland.gov.uk,1.25219100000000,NR11 6ER,2014-03-19,fhrs_3_en-GB,3,,FHRS,10
6309,Acle Service Station,New Road,,Acle,BP Acle Simply Food Connect,Retailers - other,4613,5,,729384,5,,52.63829100000000,97188,228,environ.enforcement@broadland.gov.uk,Broadland,http://www.broadland.gov.uk,1.55072700000000,NR13 3BE,2014-12-17,fhrs_5_en-GB,5,,FHRS,0
6310,Education Centre,Dog Lane,,Horsford,Bramley Lakes,Restaurant/Cafe/Canteen,1,5,,143759,5,,52.69445000000000,814,228,environ.enforcement@broadland.gov.uk,Broadland,http://www.broadland.gov.uk,1.23989400000000,NR10 3DH,2013-07-08,fhrs_5_en-GB,5,,FHRS,5
6311,,,,,Braydeston House B & B,Hotel/bed & breakfast/guest house,7842,10,,687690,10,,,3380,228,environ.enforcement@broadland.gov.uk,Broadland,http://www.broadland.gov.uk,,,2014-07-15,fhrs_3_en-GB,3,,FHRS,10
6312,,13 Red Lion Street,,Aylsham,Bread Source,Retailers - other,4613,0,,659028,0,,52.79563000000000,4221,228,environ.enforcement@broadland.gov.uk,Broadland,http://www.broadland.gov.uk,1.25219100000000,NR11 6ER,2014-04-02,fhrs_5_en-GB,5,,FHRS,5
6313,,Hungate Street,,Aylsham,Breakfast & Tea Clubs at Bure Valley Junior School,School/college/university,7845,10,,726225,15,,52.78860700000000,96542,228,environ.enforcement@broadland.gov.uk,Broadland,http://www.broadland.gov.uk,1.24988700000000,NR11 6JZ,2014-12-10,fhrs_2_en-GB,2,,FHRS,5
6314,Buxton County Primary School,Aylsham Road,,Buxton With Lamas,Breakfast Club at Buxton Primary School,School/college/university,7845,5,,638007,0,,52.75578600000000,95869,228,environ.enforcement@broadland.gov.uk,Broadland,http://www.broadland.gov.uk,1.30691300000000,NR10 5EZ,2014-03-03,fhrs_5_en-GB,5,,FHRS,0
6315,Broadland View,Old Chapel Way,,Postwick,Brewers Fayre,Restaurant/Cafe/Canteen,1,10,,145010,5,,52.62936800000000,84812,228,environ.enforcement@broadland.gov.uk,Broadland,http://www.broadland.gov.uk,1.37175700000000,NR7 0WG,2014-07-30,fhrs_2_en-GB,2,,FHRS,15
6316,Brick Kilns,Norwich Road,,Great Little Plumstead,Brick Kilns Public House,Pub/bar/nightclub,7843,5,,41628,5,,52.66206600000000,1031,228,environ.enforcement@broadland.gov.uk,Broadland,http://www.broadland.gov.uk,1.41863600000000,NR13 5JH,2014-03-20,fhrs_5_en-GB,5,,FHRS,5
6317,The Brambles,218 Holt Road,,Horsford,Brickmakers,Pub/bar/nightclub,7843,5,,45146,5,,52.70415900000000,1096,228,environ.enforcement@broadland.gov.uk,Broadland,http://www.broadland.gov.uk,1.23969500000000,NR10 3ER,2014-11-20,fhrs_5_en-GB,5,,FHRS,5
6318,,,,,Bridge House Bed & Breakfast,Hotel/bed & breakfast/guest house,7842,5,,682633,5,,,16405,228,environ.enforcement@broadland.gov.uk,Broadland,http://www.broadland.gov.uk,,,2014-06-18,fhrs_5_en-GB,5,,FHRS,5
6319,,232 Norwich Road,,Wroxham,Broadland Motor Co Ltd / TA Roys,Retailers - other,4613,5,,90772,0,,52.70184300000000,2488,228,environ.enforcement@broadland.gov.uk,Broadland,http://www.broadland.gov.uk,1.39902000000000,NR12 8SL,2012-08-29,fhrs_5_en-GB,5,,FHRS,0
6320,The Corner House,Back Lane,,Cawston,Broadland Veg Boxes,Retailers - other,4613,,,447479,,,52.76411000000000,94023,228,environ.enforcement@broadland.gov.uk,Broadland,http://www.broadland.gov.uk,1.18322700000000,NR10 4HL,2012-08-28,fhrs_exempt_en-GB,Exempt,,FHRS,
6321,,27 The Green,,Upton,Broadlands Park,Hospitals/Childcare/Caring Premises,5,,,103385,,,52.65772600000000,3473,228,environ.enforcement@broadland.gov.uk,Broadland,http://www.broadland.gov.uk,1.54447900000000,NR13 6BA,2014-06-03,fhrs_5_en-GB,5,,FHRS,
6322,Brooklands,Costessey Lane,,Drayton,Brooklands Care Home,Hospitals/Childcare/Caring Premises,5,5,,125021,0,,52.67379700000000,5352,228,environ.enforcement@broadland.gov.uk,Broadland,http://www.broadland.gov.uk,1.21890800000000,NR8 6HB,2013-08-27,fhrs_5_en-GB,5,,FHRS,5
6323,,5a The Street,,Brundall,Brundall Chip Shop Ltd,Takeaway/sandwich shop,7844,5,,95290,5,,52.62148000000000,2828,228,environ.enforcement@broadland.gov.uk,Broadland,http://www.broadland.gov.uk,1.44023900000000,NR13 5JY,2014-11-20,fhrs_5_en-GB,5,,FHRS,5
6324,,Units 2/3 Links Avenue,,Brundall,Brundall Home Hardware,Retailers - other,4613,0,,693906,0,,52.62526100000000,2916,228,environ.enforcement@broadland.gov.uk,Broadland,http://www.broadland.gov.uk,1.43296900000000,NR13 5LL,2014-08-08,fhrs_5_en-GB,5,,FHRS,0
6325,,Highfield Avenue,,Brundall,Brundall Luncheon Club,Other catering premises,7841,5,,63142,0,,52.62410000000000,1399,228,environ.enforcement@broadland.gov.uk,Broadland,http://www.broadland.gov.uk,1.43982400000000,NR13 5LE,2013-06-24,fhrs_5_en-GB,5,,FHRS,0
6326,Brundall Memorial Hall,Links Avenue,,Brundall,Brundall Memorial Hall,Other catering premises,7841,,,63905,,,52.62526100000000,1412,228,environ.enforcement@broadland.gov.uk,Broadland,http://www.broadland.gov.uk,1.43296900000000,NR13 5LL,2011-02-07,fhrs_exempt_en-GB,Exempt,,FHRS,
6327,Brundall Motor Company,122 The Street,,Brundall,Brundall Motor Company,Retailers - other,4613,,,80909,,,52.62541500000000,19674,228,environ.enforcement@broadland.gov.uk,Broadland,http://www.broadland.gov.uk,1.42766000000000,NR13 5LP,2011-03-14,fhrs_exempt_en-GB,Exempt,,FHRS,
6328,,Brundall Bay Marina,,Brundall,Brundall Motor Yacht Club,Restaurant/Cafe/Canteen,1,5,,323772,5,,52.61908600000000,1128,228,environ.enforcement@broadland.gov.uk,Broadland,http://www.broadland.gov.uk,1.43873600000000,NR13 5PL,2013-08-30,fhrs_5_en-GB,5,,FHRS,0
6329,,,,,Brush Strokes,Other catering premises,7841,5,,145354,0,,,85968,228,environ.enforcement@broadland.gov.uk,Broadland,http://www.broadland.gov.uk,,,2013-06-12,fhrs_5_en-GB,5,,FHRS,5
6330,Buckinghamshire Arms,Blickling Road,,Blickling,Buckinghamshire Arms,Pub/bar/nightclub,7843,5,,43675,10,,52.81064700000000,1062,228,environ.enforcement@broadland.gov.uk,Broadland,http://www.broadland.gov.uk,1.22858600000000,NR11 6NF,2013-07-31,fhrs_3_en-GB,3,,FHRS,10
6331,Brundall Post Office,49-53 The Street,,Brundall,Budgens,Retailers - supermarkets/hypermarkets,7840,10,,97815,15,,52.62344000000000,3056,228,environ.enforcement@broadland.gov.uk,Broadland,http://www.broadland.gov.uk,1.43621000000000,NR13 5AA,2013-08-28,fhrs_2_en-GB,2,,FHRS,10
6332,Budgen Plc,Norwich Road,,Aylsham,Budgens of Aylsham,Retailers - supermarkets/hypermarkets,7840,10,,95578,10,,52.79412300000000,2859,228,environ.enforcement@broadland.gov.uk,Broadland,http://www.broadland.gov.uk,1.25172300000000,NR11 6BN,2013-10-09,fhrs_3_en-GB,3,,FHRS,5
6333,The Bull,197 Reepham Road,,Hellesdon,Bull Public House,Pub/bar/nightclub,7843,10,,187566,10,,52.66542400000000,1055,228,environ.enforcement@broadland.gov.uk,Broadland,http://www.broadland.gov.uk,1.26166400000000,NR6 5QA,2014-04-02,fhrs_3_en-GB,3,,FHRS,5
6334,,Layby on Wroxham Road,,Sprowston,Burger Dan,Mobile caterer,7846,5,,588766,5,,52.66424500000000,95068,228,environ.enforcement@broadland.gov.uk,Broadland,http://www.broadland.gov.uk,1.34133700000000,NR7 8RP,2013-09-02,fhrs_5_en-GB,5,,FHRS,5
6335,,Church Lane,,Burgh Next Aylsham,Burgh Reading Rooms,Other catering premises,7841,10,,719659,5,,52.77793000000000,6341,228,environ.enforcement@broadland.gov.uk,Broadland,http://www.broadland.gov.uk,1.28840800000000,NR11 6TR,2014-10-28,fhrs_4_en-GB,4,,FHRS,0
6336,Burlingham House,Dell Corner Lane,,Lingwood And Burlingham,Burlingham House,Hospitals/Childcare/Caring Premises,5,5,,103167,5,,52.64344100000000,3457,228,environ.enforcement@broadland.gov.uk,Broadland,http://www.broadland.gov.uk,1.48487300000000,NR13 4EQ,2013-12-02,fhrs_5_en-GB,5,,FHRS,0
6337,St Andrews Business Park,North Side,,Thorpe St Andrew,Busy Bees Group,School/college/university,7845,5,,109342,0,,52.63240100000000,39453,228,environ.enforcement@broadland.gov.uk,Broadland,http://www.broadland.gov.uk,1.36854600000000,NR7 0HT,2014-10-01,fhrs_5_en-GB,5,,FHRS,5
6338,,Unit 5 Meridian Way,,Postwick,Busy Bees Group Ltd,School/college/university,7845,5,,126298,5,,52.62644600000000,55213,228,environ.enforcement@broadland.gov.uk,Broadland,http://www.broadland.gov.uk,1.37330600000000,NR7 0TA,2014-02-05,fhrs_5_en-GB,5,,FHRS,5
6339,Garden Farm,58 Yarmouth Road,,Blofield,Butterflies Coffee Shop,Restaurant/Cafe/Canteen,1,5,,118898,5,,52.63602100000000,48163,228,environ.enforcement@broadland.gov.uk,Broadland,http://www.broadland.gov.uk,1.45637100000000,NR13 4LQ,2013-11-11,fhrs_5_en-GB,5,,FHRS,0
6340,,,,,Cafe 2 U Norwich East,Mobile caterer,7846,5,,726221,5,,,88993,228,environ.enforcement@broadland.gov.uk,Broadland,http://www.broadland.gov.uk,,,2014-12-11,fhrs_5_en-GB,5,,FHRS,5
6341,,6 Drayton High Road,,Drayton,Cafe Francais Patisserie,Restaurant/Cafe/Canteen,1,,,124819,,,52.67539600000000,5327,228,environ.enforcement@broadland.gov.uk,Broadland,http://www.broadland.gov.uk,1.22525500000000,NR8 6AF,2014-01-08,fhrs_awaitinginspection_en-GB,AwaitingInspection,,FHRS,
6342,Kingfisher House,3 Central Avenue,,Thorpe St Andrew,Cafe Moments,Restaurant/Cafe/Canteen,1,5,,126097,5,,52.63030300000000,54930,228,environ.enforcement@broadland.gov.uk,Broadland,http://www.broadland.gov.uk,1.36545800000000,NR7 0HR,2013-01-22,fhrs_5_en-GB,5,,FHRS,5
6343,,17a South Hill Road,,Thorpe St Andrew,Cafe Roma,Other catering premises,7841,5,,543268,5,,52.63716000000000,94697,228,environ.enforcement@broadland.gov.uk,Broadland,http://www.broadland.gov.uk,1.35041800000000,NR7 0PQ,2013-04-26,fhrs_5_en-GB,5,,FHRS,5
6344,,,,,Cafe2U,Mobile caterer,7846,5,,552149,5,,,94454,228,environ.enforcement@broadland.gov.uk,Broadland,http://www.broadland.gov.uk,,,2013-05-23,fhrs_5_en-GB,5,,FHRS,0
6345,"Unit 1 &  2, Sprowston Retail",Salhouse Road,,Sprowston,Caffe Pausa,Restaurant/Cafe/Canteen,1,5,,146540,0,,52.64653100000000,89650,228,environ.enforcement@broadland.gov.uk,Broadland,http://www.broadland.gov.uk,1.32587900000000,NR7 9AZ,2014-10-27,fhrs_5_en-GB,5,,FHRS,0
6346,,,,,Cake Queen,Other catering premises,7841,5,,719662,5,,,97097,228,environ.enforcement@broadland.gov.uk,Broadland,http://www.broadland.gov.uk,,,2014-11-28,fhrs_5_en-GB,5,,FHRS,5
6347,,,,,Cakes for Community Cafe,Other catering premises,7841,5,,462875,5,,,94231,228,environ.enforcement@broadland.gov.uk,Broadland,http://www.broadland.gov.uk,,,2012-10-22,fhrs_5_en-GB,5,,FHRS,0
6348,,,,,Cakes for the Community Cafe,Other catering premises,7841,5,,565362,5,,,94880,228,environ.enforcement@broadland.gov.uk,Broadland,http://www.broadland.gov.uk,,,2013-06-25,fhrs_5_en-GB,5,,FHRS,0
6349,,,,,Callaway Catering,Other catering premises,7841,5,,700837,5,,,96212,228,environ.enforcement@broadland.gov.uk,Broadland,http://www.broadland.gov.uk,,,2014-09-15,fhrs_4_en-GB,4,,FHRS,10
6350,Callum House,234 Wroxham Road,,Sprowston,Callum House Residential Home,Hospitals/Childcare/Caring Premises,5,5,,149559,5,,52.66008900000000,9626,228,environ.enforcement@broadland.gov.uk,Broadland,http://www.broadland.gov.uk,1.32926100000000,NR7 8BE,2012-09-26,fhrs_5_en-GB,5,,FHRS,5
6351,Calthorpe Green,Old Road,,Acle,Candy Corner,Retailers - other,4613,20,,659045,10,,52.63984100000000,96143,228,environ.enforcement@broadland.gov.uk,Broadland,http://www.broadland.gov.uk,1.54944800000000,NR13 3QL,2014-04-03,fhrs_1_en-GB,1,,FHRS,15
6352,,School Lane,,Cantley,Cantley Primary School,School/college/university,7845,5,,145904,5,,52.58604200000000,877,228,environ.enforcement@broadland.gov.uk,Broadland,http://www.broadland.gov.uk,1.50764700000000,NR13 3SA,2013-02-04,fhrs_5_en-GB,5,,FHRS,0
6353,Village Hall,Manor Road,,Cantley,Cantley Village Hall,Other catering premises,7841,,,63518,,,52.59199900000000,1401,228,environ.enforcement@broadland.gov.uk,Broadland,http://www.broadland.gov.uk,1.51725000000000,NR13 3SF,2010-12-14,fhrs_exempt_en-GB,Exempt,,FHRS,
6354,,170 Salhouse Road,,Sprowston,Caplan Stores Ltd,Retailers - other,4613,10,,520824,10,,52.64978300000000,2787,228,environ.enforcement@broadland.gov.uk,Broadland,http://www.broadland.gov.uk,1.34165300000000,NR7 9AD,2013-03-08,fhrs_3_en-GB,3,,FHRS,5
6355,,193-195 Reepham Road,,Hellesdon,Cards `n' Things,Retailers - other,4613,,,535945,,,52.66384200000000,3208,228,environ.enforcement@broadland.gov.uk,Broadland,http://www.broadland.gov.uk,1.26423800000000,NR6 5NZ,2012-11-27,fhrs_exempt_en-GB,Exempt,,FHRS,
6356,,2 Cucumber Lane,,Brundall,Cards and Candy,Retailers - other,4613,5,,659040,5,,52.62666700000000,96092,228,environ.enforcement@broadland.gov.uk,Broadland,http://www.broadland.gov.uk,1.42604300000000,NR13 5QY,2014-04-09,fhrs_2_en-GB,2,,FHRS,15
6357,New Dawn,Dog Lane,,Horsford,Care Management Group,Hospitals/Childcare/Caring Premises,5,10,,103237,5,,52.69445000000000,3461,228,environ.enforcement@broadland.gov.uk,Broadland,http://www.broadland.gov.uk,1.23989400000000,NR10 3DH,2014-07-14,fhrs_4_en-GB,4,,FHRS,5
6358,Tamarisk,26 Holt Road,,Horsford,Care Management Group,Hospitals/Childcare/Caring Premises,5,5,,659025,5,,52.69292700000000,12592,228,environ.enforcement@broadland.gov.uk,Broadland,http://www.broadland.gov.uk,1.24656000000000,NR10 3DD,2014-05-06,fhrs_5_en-GB,5,,FHRS,5
6359,,26 Sydney Road,,Spixworth,Care Management Group Ltd,Restaurant/Cafe/Canteen,1,10,,559051,5,,52.68676400000000,57781,228,environ.enforcement@broadland.gov.uk,Broadland,http://www.broadland.gov.uk,1.32093100000000,NR10 3PG,2013-05-20,fhrs_4_en-GB,4,,FHRS,5
6360,,,,,Carmichaels Ltd,Retailers - other,4613,0,,143614,0,,,81120,228,environ.enforcement@broadland.gov.uk,Broadland,http://www.broadland.gov.uk,,,2012-11-05,fhrs_5_en-GB,5,,FHRS,0
6361,,,,,Carols Cakes and Bakes,Restaurant/Cafe/Canteen,1,5,,731507,5,,,96831,228,environ.enforcement@broadland.gov.uk,Broadland,http://www.broadland.gov.uk,,,2015-01-19,fhrs_5_en-GB,5,,FHRS,0
6362,,6 Red Lion Street,,Aylsham,Carousel Chocolates,Retailers - other,4613,5,,462877,5,,52.79563000000000,94234,228,environ.enforcement@broadland.gov.uk,Broadland,http://www.broadland.gov.uk,1.25219100000000,NR11 6ER,2014-11-13,fhrs_5_en-GB,5,,FHRS,0
6363,,,,,Carrello's Del Caffe,Mobile caterer,7846,5,,146476,0,,,89395,228,environ.enforcement@broadland.gov.uk,Broadland,http://www.broadland.gov.uk,,,2014-03-31,fhrs_5_en-GB,5,,FHRS,0
6364,,31 Old Road,,Acle,Carters Family Butchers,Retailers - other,4613,5,,96284,5,,52.63984100000000,2912,228,environ.enforcement@broadland.gov.uk,Broadland,http://www.broadland.gov.uk,1.54944800000000,NR13 3QL,2014-10-15,fhrs_5_en-GB,5,,FHRS,5
6365,,325 Reepham Road,,Hellesdon,Caseys Takeaway,Takeaway/sandwich shop,7844,5,,104536,5,,52.66897600000000,3566,228,environ.enforcement@broadland.gov.uk,Broadland,http://www.broadland.gov.uk,1.25579000000000,NR6 5AD,2013-12-20,fhrs_5_en-GB,5,,FHRS,5
6366,Catton Old Hall,20 Lodge Lane,,Old Catton,Catton Old Hall,Restaurant/Cafe/Canteen,1,5,,116591,5,,52.66670800000000,4579,228,environ.enforcement@broadland.gov.uk,Broadland,http://www.broadland.gov.uk,1.30389100000000,NR6 7HG,2015-01-22,fhrs_5_en-GB,5,,FHRS,0
6367,,Norwich Road,,Cawston,Cawston Bowls Club,Other catering premises,7841,,,51226,,,52.75864700000000,1146,228,environ.enforcement@broadland.gov.uk,Broadland,http://www.broadland.gov.uk,1.17802500000000,NR10 4HF,2010-12-23,fhrs_exempt_en-GB,Exempt,,FHRS,
6368,,2 Fairfields,,Cawston,Cawston Post Office,Retailers - other,4613,5,,98069,5,,52.77092900000000,3076,228,environ.enforcement@broadland.gov.uk,Broadland,http://www.broadland.gov.uk,1.16670200000000,NR10 4AS,2014-01-06,fhrs_5_en-GB,5,,FHRS,0
6369,,,,,Cedar House,Other catering premises,7841,5,,708902,0,,,96867,228,environ.enforcement@broadland.gov.uk,Broadland,http://www.broadland.gov.uk,,,2014-10-20,fhrs_5_en-GB,5,,FHRS,0
6370,Cedar Lodge,189b Drayton High Road,,Drayton,Cedar Lodge,Hospitals/Childcare/Caring Premises,5,5,,119333,5,,52.66992600000000,48530,228,environ.enforcement@broadland.gov.uk,Broadland,http://www.broadland.gov.uk,1.24739800000000,NR8 6BL,2013-08-20,fhrs_5_en-GB,5,,FHRS,5
6371,,41 Church Street,,Coltishall,Chang Thai,Restaurant/Cafe/Canteen,1,10,,51783,15,,52.72805300000000,1163,228,environ.enforcement@broadland.gov.uk,Broadland,http://www.broadland.gov.uk,1.36335800000000,NR12 7DW,2014-10-17,fhrs_2_en-GB,2,,FHRS,15
6372,Lodge Lane First School,Lodge Lane,,Old Catton,Cheeky Monkeys,Hospitals/Childcare/Caring Premises,5,5,,147213,0,,52.66770700000000,91150,228,environ.enforcement@broadland.gov.uk,Broadland,http://www.broadland.gov.uk,1.30225000000000,NR6 7HL,2014-03-18,fhrs_5_en-GB,5,,FHRS,0
6373,,,,,Chef2Dine4,Other catering premises,7841,5,,552150,5,,,94600,228,environ.enforcement@broadland.gov.uk,Broadland,http://www.broadland.gov.uk,,,2013-05-07,fhrs_5_en-GB,5,,FHRS,5
6374,,12 Alston Road,,Hellesdon,Chef's Fayre,Distributors/Transporters,7,5,,122447,5,,52.65076200000000,50950,228,environ.enforcement@broadland.gov.uk,Broadland,http://www.broadland.gov.uk,1.25587000000000,NR6 5DS,2013-03-25,fhrs_5_en-GB,5,,FHRS,0
6375,The Chequers,10 Stratton Road,,Hainford,Chequers Public House,Pub/bar/nightclub,7843,10,,43734,5,,52.72838100000000,1064,228,environ.enforcement@broadland.gov.uk,Broadland,http://www.broadland.gov.uk,1.29083800000000,NR10 3AY,2014-09-09,fhrs_4_en-GB,4,,FHRS,5
6376,,,,,Chic and Unique Catering,Other catering premises,7841,10,,146598,0,,,89820,228,environ.enforcement@broadland.gov.uk,Broadland,http://www.broadland.gov.uk,,,2014-03-31,fhrs_4_en-GB,4,,FHRS,0
6377,,104 Crostwick Lane,,Spixworth,China Inn - Chinese Takeaway,Takeaway/sandwich shop,7844,5,,101759,5,,52.68754900000000,3342,228,environ.enforcement@broadland.gov.uk,Broadland,http://www.broadland.gov.uk,1.32885000000000,NR10 3NQ,2014-12-04,fhrs_5_en-GB,5,,FHRS,5
6378,,10 Dixons Fold,,Old Catton,China Palace,Other catering premises,7841,5,,146621,10,,52.65791200000000,89905,228,environ.enforcement@broadland.gov.uk,Broadland,http://www.broadland.gov.uk,1.30614100000000,NR6 7QD,2015-01-13,fhrs_4_en-GB,4,,FHRS,5
6379,The Chocolate Box,The Street,,Acle,Chocolate Box,Retailers - other,4613,10,,96419,5,,52.63853100000000,2928,228,environ.enforcement@broadland.gov.uk,Broadland,http://www.broadland.gov.uk,1.54781900000000,NR13 3DY,2012-11-06,fhrs_4_en-GB,4,,FHRS,5
6380,,,,,Christophes,Mobile caterer,7846,5,,462880,5,,,94257,228,environ.enforcement@broadland.gov.uk,Broadland,http://www.broadland.gov.uk,,,2012-11-01,fhrs_5_en-GB,5,,FHRS,0
6381,,327 Reepham Road,,Hellesdon,Chung Hing Chinese Takeaway,Takeaway/sandwich shop,7844,5,,94575,10,,52.66897600000000,2775,228,environ.enforcement@broadland.gov.uk,Broadland,http://www.broadland.gov.uk,1.25579000000000,NR6 5AD,2013-08-02,fhrs_4_en-GB,4,,FHRS,5
6382,,,,,City View Shellfish,Mobile caterer,7846,10,,552153,5,,,94774,228,environ.enforcement@broadland.gov.uk,Broadland,http://www.broadland.gov.uk,,,2013-05-31,fhrs_4_en-GB,4,,FHRS,5
6383,,,,,Claridge Catering,Other catering premises,7841,5,,525909,5,,,94617,228,environ.enforcement@broadland.gov.uk,Broadland,http://www.broadland.gov.uk,,,2013-03-13,fhrs_5_en-GB,5,,FHRS,5
6384,Low Lane Farm,Low Lane,,Hevingham,Clarkes Meats & Country Kitchen,Retailers - other,4613,5,,96171,5,,52.75124400000000,2902,228,environ.enforcement@broadland.gov.uk,Broadland,http://www.broadland.gov.uk,1.25823400000000,NR10 5QY,2013-09-11,fhrs_5_en-GB,5,,FHRS,0
6385,,,,,Coffee 2 Go,Mobile caterer,7846,5,,146600,5,,,89831,228,environ.enforcement@broadland.gov.uk,Broadland,http://www.broadland.gov.uk,,,2014-12-09,fhrs_5_en-GB,5,,FHRS,5
6386,Church Room,Rectory Road,,Coltishall,Coltishall Community Lunch Club,Other catering premises,7841,5,,147087,5,,52.72951200000000,90989,228,environ.enforcement@broadland.gov.uk,Broadland,http://www.broadland.gov.uk,1.35693700000000,NR12 7HD,2013-06-19,fhrs_5_en-GB,5,,FHRS,5
6387,,High Street,,Coltishall,Coltishall Filling Station,Retailers - other,4613,5,,682643,5,,52.72814200000000,3274,228,environ.enforcement@broadland.gov.uk,Broadland,http://www.broadland.gov.uk,1.35829800000000,NR12 7DH,2014-06-18,fhrs_4_en-GB,4,,FHRS,10
6388,Coltishall Post Office,24 Wroxham Road,,Coltishall,Coltishall Post Office Stores,Retailers - other,4613,10,,98011,10,,52.72824500000000,3072,228,environ.enforcement@broadland.gov.uk,Broadland,http://www.broadland.gov.uk,1.36958000000000,NR12 7EA,2012-10-31,fhrs_4_en-GB,4,,FHRS,0
6389,,Laundry Lane,,Thorpe St Andrew,"Community Cafe, Morse Pavillion",Restaurant/Cafe/Canteen,1,10,,430869,5,,52.63580000000000,93873,228,environ.enforcement@broadland.gov.uk,Broadland,http://www.broadland.gov.uk,1.35210200000000,NR7 0XP,2014-06-18,fhrs_4_en-GB,4,,FHRS,5
6390,,,,,Copperfields Guest House,Hotel/bed & breakfast/guest house,7842,5,,117431,5,,,46683,228,environ.enforcement@broadland.gov.uk,Broadland,http://www.broadland.gov.uk,,,2014-07-11,fhrs_5_en-GB,5,,FHRS,5
6391,Coronation Hall,Hawthorn Avenue,,Hellesdon,Coronation Hall,Other catering premises,7841,,,64388,,,52.66353300000000,1430,228,environ.enforcement@broadland.gov.uk,Broadland,http://www.broadland.gov.uk,1.27118300000000,NR6 6LE,2010-12-20,fhrs_exempt_en-GB,Exempt,,FHRS,
6392,Tesco Stores Ltd,Blue Boar Lane,,Sprowston,Costa Ltd,Restaurant/Cafe/Canteen,1,5,,147027,5,,52.66005400000000,90699,228,environ.enforcement@broadland.gov.uk,Broadland,http://www.broadland.gov.uk,1.33527800000000,NR7 8AB,2014-02-12,fhrs_5_en-GB,5,,FHRS,5
6393,Homebase Ltd,Roundtree Way,,Sprowston,Costa Proud to Serve at Homebase,Other catering premises,7841,10,,682655,5,,52.64789500000000,96170,228,environ.enforcement@broadland.gov.uk,Broadland,http://www.broadland.gov.uk,1.32440000000000,NR7 8SH,2014-07-28,fhrs_4_en-GB,4,,FHRS,5
6394,,28 Mary Chapman Close,,Thorpe St Andrew,Countrywide Care Homes Limited,Hospitals/Childcare/Caring Premises,5,5,,81269,5,,52.63172900000000,19816,228,environ.enforcement@broadland.gov.uk,Broadland,http://www.broadland.gov.uk,1.36150300000000,NR7 0UD,2013-07-25,fhrs_5_en-GB,5,,FHRS,0
6395,,Plumstead Road East,,Thorpe St Andrew,County Arts Bowls Club,Pub/bar/nightclub,7843,10,,559047,5,,52.63734700000000,1125,228,environ.enforcement@broadland.gov.uk,Broadland,http://www.broadland.gov.uk,1.33170100000000,NR7 9ND,2013-06-18,fhrs_4_en-GB,4,,FHRS,5
6396,,11 Market Place,,Aylsham,Coxfords Butchers Ltd,Retailers - other,4613,5,,493557,5,,52.79530100000000,2886,228,environ.enforcement@broadland.gov.uk,Broadland,http://www.broadland.gov.uk,1.25075700000000,NR11 6EH,2014-06-10,fhrs_5_en-GB,5,,FHRS,5
6397,,Ollands Road,,Reepham,Crown Public House,Pub/bar/nightclub,7843,5,,49635,5,,52.76465600000000,1102,228,environ.enforcement@broadland.gov.uk,Broadland,http://www.broadland.gov.uk,1.11426700000000,NR10 4EJ,2014-03-26,fhrs_4_en-GB,4,,FHRS,10
6398,,,,,Crumb of Comfort,Other catering premises,7841,10,,700839,5,,,96541,228,environ.enforcement@broadland.gov.uk,Broadland,http://www.broadland.gov.uk,,,2014-09-02,fhrs_4_en-GB,4,,FHRS,5
6399,Act Centre,Saint Michaels Avenue,,Aylsham,Crumbs Cafe,Restaurant/Cafe/Canteen,1,5,,462873,5,,52.79246300000000,93243,228,environ.enforcement@broadland.gov.uk,Broadland,http://www.broadland.gov.uk,1.23780100000000,NR11 6YA,2014-11-17,fhrs_5_en-GB,5,,FHRS,5
6400,,,,,Cup Cakes For You,Other catering premises,7841,5,,708900,5,,,96847,228,environ.enforcement@broadland.gov.uk,Broadland,http://www.broadland.gov.uk,,,2014-10-13,fhrs_5_en-GB,5,,FHRS,0
6401,,,,,Cupcake Kisses,Other catering premises,7841,5,,147177,0,,,91026,228,environ.enforcement@broadland.gov.uk,Broadland,http://www.broadland.gov.uk,,,2014-12-03,fhrs_5_en-GB,5,,FHRS,0
6402,,48 Riverside,,Reedham,Cupcakes,Restaurant/Cafe/Canteen,1,5,,94752,5,,52.55942900000000,2791,228,environ.enforcement@broadland.gov.uk,Broadland,http://www.broadland.gov.uk,1.56688500000000,NR13 3TE,2013-10-22,fhrs_5_en-GB,5,,FHRS,5
6403,Dixon Centre,159 Reepham Road,,Hellesdon,D Cafe,Restaurant/Cafe/Canteen,1,5,,52128,5,,52.66287900000000,1174,228,environ.enforcement@broadland.gov.uk,Broadland,http://www.broadland.gov.uk,1.26554200000000,NR6 5PA,2012-12-07,fhrs_5_en-GB,5,,FHRS,0
6404,,16 The Street,,Felthorpe,Daniels Crab Processor,Manufacturers/packers,7839,10,,77975,5,,52.71448500000000,18449,228,environ.enforcement@broadland.gov.uk,Broadland,http://www.broadland.gov.uk,1.20392700000000,NR10 4DG,2012-03-28,fhrs_3_en-GB,3,,FHRS,10
6405,,,,,Debz Delightz,Retailers - other,4613,5,,731506,0,,,93709,228,environ.enforcement@broadland.gov.uk,Broadland,http://www.broadland.gov.uk,,,2015-01-22,fhrs_5_en-GB,5,,FHRS,0
6406,Aylsham Grain Ltd,Aylsham Industrial Estate,,Aylsham,Dewing Grain,Distributors/Transporters,7,,,146242,,,52.80376100000000,88725,228,environ.enforcement@broadland.gov.uk,Broadland,http://www.broadland.gov.uk,1.26229600000000,NR11 6LP,,fhrs_exempt_en-GB,Exempt,,FHRS,
6407,,8 Market Place,,Reepham,Dianes Pantry Limited,Retailers - other,4613,5,,96386,5,,52.76269800000000,2923,228,environ.enforcement@broadland.gov.uk,Broadland,http://www.broadland.gov.uk,1.11073200000000,NR10 4JJ,2014-04-24,fhrs_5_en-GB,5,,FHRS,0
6408,,22 Red Lion Street,,Aylsham,Digby's Bon Bons,Retailers - other,4613,5,,666562,0,,52.79563000000000,3149,228,environ.enforcement@broadland.gov.uk,Broadland,http://www.broadland.gov.uk,1.25219100000000,NR11 6ER,2014-05-29,fhrs_5_en-GB,5,,FHRS,0
6409,Hellesdon High School,Middletons Lane,,Hellesdon,Diner Mite at Hellesdon High School,School/college/university,7845,5,,144106,5,,52.66044300000000,822,228,environ.enforcement@broadland.gov.uk,Broadland,http://www.broadland.gov.uk,1.25635300000000,NR6 5SB,2014-01-27,fhrs_5_en-GB,5,,FHRS,5
6410,Unit 9,Mahoney Green,,Rackheath,Direct Catering,Manufacturers/packers,7839,,,122684,,,52.66658900000000,51134,228,environ.enforcement@broadland.gov.uk,Broadland,http://www.broadland.gov.uk,1.36907600000000,NR13 6JY,2014-02-25,fhrs_exempt_en-GB,Exempt,,FHRS,
6411,Unit 11,Beech Avenue,,Taverham,DND Childcare Ltd,Hospitals/Childcare/Caring Premises,5,5,,146959,5,,52.68444000000000,90349,228,environ.enforcement@broadland.gov.uk,Broadland,http://www.broadland.gov.uk,1.18415900000000,NR8 6HW,2014-07-16,fhrs_5_en-GB,5,,FHRS,0
6412,,65 Holt Road,,Horsford,Dog Public House,Pub/bar/nightclub,7843,,,43565,,,52.69394000000000,1060,228,environ.enforcement@broadland.gov.uk,Broadland,http://www.broadland.gov.uk,1.24570300000000,NR10 3DF,2011-12-09,fhrs_exempt_en-GB,Exempt,,FHRS,
6413,,,,,Donnellis Pizzas,Mobile caterer,7846,5,,552155,5,,,94814,228,environ.enforcement@broadland.gov.uk,Broadland,http://www.broadland.gov.uk,,,2013-05-22,fhrs_5_en-GB,5,,FHRS,5
6414,Unit 24G,Earl Road,,Rackheath Industrial Estate,Double Q Foods,Mobile caterer,7846,10,,543269,10,,,94731,228,environ.enforcement@broadland.gov.uk,Broadland,http://www.broadland.gov.uk,,NR13 2NT,2013-04-24,fhrs_3_en-GB,3,,FHRS,10
6415,,297a Fakenham Road,,Taverham,Dragon Palace Takeaway,Takeaway/sandwich shop,7844,20,,94556,15,,52.68606800000000,2773,228,environ.enforcement@broadland.gov.uk,Broadland,http://www.broadland.gov.uk,1.19750800000000,NR8 6LE,2014-03-12,fhrs_1_en-GB,1,,FHRS,15
6416,Drayton Old Lodge,146 Drayton High Road,,Drayton,Drayton Old Lodge,Restaurant/Cafe/Canteen,1,5,,128799,5,,52.67252300000000,59055,228,environ.enforcement@broadland.gov.uk,Broadland,http://www.broadland.gov.uk,1.23233700000000,NR8 6AN,2014-10-02,fhrs_5_en-GB,5,,FHRS,5
6417,,4-8 Fakenham Road,,Drayton,Drayton Stores,Retailers - other,4613,5,,98133,5,,52.67640600000000,3080,228,environ.enforcement@broadland.gov.uk,Broadland,http://www.broadland.gov.uk,1.22316900000000,NR8 6PW,2014-11-24,fhrs_5_en-GB,5,,FHRS,0
6418,Benell Care Services,189 Drayton High Road,,Drayton,Drayton Wood Residential Home,Hospitals/Childcare/Caring Premises,5,5,,54671,5,,52.66992600000000,12327,228,environ.enforcement@broadland.gov.uk,Broadland,http://www.broadland.gov.uk,1.24739800000000,NR8 6BL,2013-10-18,fhrs_5_en-GB,5,,FHRS,5
6419,,26 Mary Chapman Close,,Thorpe St Andrew,Dussindale Park Nursing Home,Hospitals/Childcare/Caring Premises,5,5,,115072,5,,52.63172900000000,4419,228,environ.enforcement@broadland.gov.uk,Broadland,http://www.broadland.gov.uk,1.36150300000000,NR7 0UD,2014-01-17,fhrs_5_en-GB,5,,FHRS,5
6420,,4 Drayton High Road,,Drayton,E Pratt & Co Butchers,Retailers - other,4613,5,,96015,5,,52.67539600000000,2896,228,environ.enforcement@broadland.gov.uk,Broadland,http://www.broadland.gov.uk,1.22525500000000,NR8 6AF,2013-11-01,fhrs_5_en-GB,5,,FHRS,5
6421,Earle Arms Inn,The Street,,Heydon,Earle Arms Inn,Pub/bar/nightclub,7843,5,,44425,10,,52.80247600000000,1078,228,environ.enforcement@broadland.gov.uk,Broadland,http://www.broadland.gov.uk,1.13357500000000,NR11 6AD,2013-10-04,fhrs_4_en-GB,4,,FHRS,5
6422,,12 Laundry Lane,,Thorpe St Andrew,East of England Co-op,Retailers - other,4613,5,,40327,5,,52.63493600000000,1011,228,environ.enforcement@broadland.gov.uk,Broadland,http://www.broadland.gov.uk,1.34701000000000,NR7 0XE,2013-08-30,fhrs_5_en-GB,5,,FHRS,0
6423,,The Street,,Acle,East of England Co-op,Retailers - supermarkets/hypermarkets,7840,0,,95450,0,,52.63983000000000,2843,228,environ.enforcement@broadland.gov.uk,Broadland,http://www.broadland.gov.uk,1.54798400000000,NR13 3QJ,2012-11-06,fhrs_5_en-GB,5,,FHRS,0
6424,,90-92 Middletons Lane,,Hellesdon,East of England Co-op,Retailers - supermarkets/hypermarkets,7840,5,,95534,0,,52.66540500000000,2852,228,environ.enforcement@broadland.gov.uk,Broadland,http://www.broadland.gov.uk,1.26431100000000,NR6 5NR,2013-03-25,fhrs_5_en-GB,5,,FHRS,0
6425,,115 Crostwick Lane,,Spixworth,East of England Co-op,Retailers - other,4613,5,,97826,5,,52.68774200000000,3057,228,environ.enforcement@broadland.gov.uk,Broadland,http://www.broadland.gov.uk,1.32614100000000,NR10 3AF,2013-08-23,fhrs_5_en-GB,5,,FHRS,0
6426,,149 Holt Road,,Horsford,East of England Co-op,Retailers - supermarkets/hypermarkets,7840,5,,98034,0,,52.69669500000000,3074,228,environ.enforcement@broadland.gov.uk,Broadland,http://www.broadland.gov.uk,1.24460500000000,NR10 3AB,2014-12-02,fhrs_5_en-GB,5,,FHRS,5
6427,,4 Blofield Road,,Brundall,Eastern Healthcare Ltd at Brundall Care Home,Hospitals/Childcare/Caring Premises,5,10,,102917,15,,52.62268000000000,3434,228,environ.enforcement@broadland.gov.uk,Broadland,http://www.broadland.gov.uk,1.44287500000000,NR13 5NN,2015-01-06,fhrs_2_en-GB,2,,FHRS,15
6428,,10 Norwich Road,,Aylsham,Eastern Sea Chinese Takeaway,Takeaway/sandwich shop,7844,10,,94502,5,,52.79412300000000,2768,228,environ.enforcement@broadland.gov.uk,Broadland,http://www.broadland.gov.uk,1.25172300000000,NR11 6BN,2011-03-25,fhrs_4_en-GB,4,,FHRS,5
6429,Buxton County Primary School,Aylsham Road,,Buxton With Lamas,Edwards & Blake at Buxton Primary School,School/college/university,7845,5,,323774,5,,52.75578600000000,828,228,environ.enforcement@broadland.gov.uk,Broadland,http://www.broadland.gov.uk,1.30691300000000,NR10 5EZ,2014-03-03,fhrs_5_en-GB,5,,FHRS,5
6430,,Mill Road,,Blofield,Edwards & Blake at Hemblington Primary School,School/college/university,7845,5,,145584,0,,52.65156900000000,867,228,environ.enforcement@broadland.gov.uk,Broadland,http://www.broadland.gov.uk,1.44257300000000,NR13 4QJ,2013-04-24,fhrs_5_en-GB,5,,FHRS,0
6431,Reepham C P School,School Road,,Reepham,Edwards & Blake at Reepham Primary School,School/college/university,7845,5,,146064,5,,52.76163900000000,882,228,environ.enforcement@broadland.gov.uk,Broadland,http://www.broadland.gov.uk,1.10964900000000,NR10 4JP,2014-04-03,fhrs_5_en-GB,5,,FHRS,0
6432,Thorpe St Andrew School,Laundry Lane,,Thorpe St Andrew,Edwards & Blake at Thorpe St Andrew and Sixth Form,School/college/university,7845,5,,145372,5,,52.63614700000000,860,228,environ.enforcement@broadland.gov.uk,Broadland,http://www.broadland.gov.uk,1.35572100000000,NR7 0XS,2014-07-22,fhrs_5_en-GB,5,,FHRS,5
6433,,Cannerby Lane,,Sprowston,Edwards & Blake Ltd at Sprowston Community High School,School/college/university,7845,5,,144524,5,,52.65165700000000,834,228,environ.enforcement@broadland.gov.uk,Broadland,http://www.broadland.gov.uk,1.32239400000000,NR7 8NE,2014-01-20,fhrs_5_en-GB,5,,FHRS,5
6434,Little Plumstead C Of E Primary School,Hospital Road,,Great Little Plumstead,Edwards and Blake at Little Plumstead Primary School,School/college/university,7845,5,,148345,0,,52.64406800000000,93105,228,environ.enforcement@broadland.gov.uk,Broadland,http://www.broadland.gov.uk,1.41054800000000,NR13 5EW,2013-12-03,fhrs_5_en-GB,5,,FHRS,5
6435,Cawston V C School,Aylsham Road,,Cawston,Edwards and Blake Cawston V. C. Primary School,School/college/university,7845,5,,144257,5,,52.76877000000000,827,228,environ.enforcement@broadland.gov.uk,Broadland,http://www.broadland.gov.uk,1.16908100000000,NR10 4AY,2014-01-23,fhrs_4_en-GB,4,,FHRS,10
6436,,High Street,,Marsham,Edwards and Blake Ltd at Marsham Primary School,School/college/university,7845,5,,726222,5,,52.76929500000000,891,228,environ.enforcement@broadland.gov.uk,Broadland,http://www.broadland.gov.uk,1.25163500000000,NR10 5AE,2014-12-10,fhrs_5_en-GB,5,,FHRS,5
6437,,39 Edwards Road,,Sprowston,Edwards Convenience Store,Retailers - other,4613,10,,99463,10,,52.65957100000000,3146,228,environ.enforcement@broadland.gov.uk,Broadland,http://www.broadland.gov.uk,1.31565800000000,NR7 8QW,2014-05-01,fhrs_3_en-GB,3,,FHRS,5
6438,,,,,Elisabeth Howard Pastries,Manufacturers/packers,7839,5,,693910,5,,,96255,228,environ.enforcement@broadland.gov.uk,Broadland,http://www.broadland.gov.uk,,,2014-08-11,fhrs_5_en-GB,5,,FHRS,0
6439,Elm Farm Country House,55 Norwich Road,,Horsham Newton St Faith,Elm Farm Country House B & B,Hotel/bed & breakfast/guest house,7842,,,102022,,,52.68963600000000,3364,228,environ.enforcement@broadland.gov.uk,Broadland,http://www.broadland.gov.uk,1.28081700000000,NR10 3HH,2014-09-02,fhrs_5_en-GB,5,,FHRS,
6440,,64 Old Road,,Acle,Embrujo,Pub/bar/nightclub,7843,5,,41674,5,,52.64110000000000,1032,228,environ.enforcement@broadland.gov.uk,Broadland,http://www.broadland.gov.uk,1.55842200000000,NR13 3QP,2014-12-10,fhrs_5_en-GB,5,,FHRS,5
6441,,Eurest Canteen,,North Site 1,Eurest Canteen at North Site 1,Restaurant/Cafe/Canteen,1,5,,110593,5,,52.72384400000000,4022,228,environ.enforcement@broadland.gov.uk,Broadland,http://www.broadland.gov.uk,1.12591700000000,NR9 5QD,2014-04-09,fhrs_5_en-GB,5,,FHRS,0
6442,,Broadland Business Park,,Old Chapel Way,Evander,Restaurant/Cafe/Canteen,1,5,,144902,0,,52.62936800000000,84562,228,environ.enforcement@broadland.gov.uk,Broadland,http://www.broadland.gov.uk,1.37175700000000,NR7 0WG,2013-06-20,fhrs_5_en-GB,5,,FHRS,0
6443,,Drayton High Road,,Hellesdon,Express By Holiday Inn,Restaurant/Cafe/Canteen,1,5,,144156,5,,52.65447300000000,82362,228,environ.enforcement@broadland.gov.uk,Broadland,http://www.broadland.gov.uk,1.26348100000000,NR6 5DU,2013-08-27,fhrs_5_en-GB,5,,FHRS,0
6444,,,,,Express Coffee Cars,Mobile caterer,7846,5,,144006,5,,,81900,228,environ.enforcement@broadland.gov.uk,Broadland,http://www.broadland.gov.uk,,,2014-11-27,fhrs_5_en-GB,5,,FHRS,5
6445,,31 Corner Lane,,Horsford,Fair View Farm Kindergarten,School/college/university,7845,5,,126405,0,,52.69762000000000,5542,228,environ.enforcement@broadland.gov.uk,Broadland,http://www.broadland.gov.uk,1.24200900000000,NR10 3DG,2014-07-07,fhrs_5_en-GB,5,,FHRS,0
6446,,School Road,,South Walsham,Fairhaven Garden Trust,Restaurant/Cafe/Canteen,1,5,,123886,5,,52.66592900000000,5231,228,environ.enforcement@broadland.gov.uk,Broadland,http://www.broadland.gov.uk,1.50672400000000,NR13 6DZ,2013-06-24,fhrs_5_en-GB,5,,FHRS,5
6447,,,,,Fancy Cakes,Retailers - other,4613,5,,520826,5,,,94584,228,environ.enforcement@broadland.gov.uk,Broadland,http://www.broadland.gov.uk,,,2013-01-20,fhrs_5_en-GB,5,,FHRS,5
6448,,Norwich Road,,Horstead With Stanninghall,Farm to Fork and Fish,Retailers - other,4613,5,,147286,10,,52.72751000000000,91405,228,environ.enforcement@broadland.gov.uk,Broadland,http://www.broadland.gov.uk,1.35299100000000,NR12 7EE,2014-04-25,fhrs_4_en-GB,4,,FHRS,5
6449,Fatsos,107 Salhouse Road,,Sprowston,Fatso's,Pub/bar/nightclub,7843,5,,44559,5,,52.64742100000000,1081,228,environ.enforcement@broadland.gov.uk,Broadland,http://www.broadland.gov.uk,1.33100400000000,NR7 9AW,2014-09-18,fhrs_4_en-GB,4,,FHRS,10
6450,,Crown Road,,Buxton With Lamas,Fish & Chip Shop,Takeaway/sandwich shop,7844,5,,94435,5,,52.75409000000000,2762,228,environ.enforcement@broadland.gov.uk,Broadland,http://www.broadland.gov.uk,1.30322700000000,NR10 5EN,2013-07-30,fhrs_5_en-GB,5,,FHRS,0
6451,,2 The Square,,Drayton,Fish Harbour,Takeaway/sandwich shop,7844,5,,114577,5,,52.68724500000000,43675,228,environ.enforcement@broadland.gov.uk,Broadland,http://www.broadland.gov.uk,1.21251300000000,NR8 6XE,2015-01-15,fhrs_4_en-GB,4,,FHRS,10
6452,Fishes Restaurant,315 Drayton High Road,,Hellesdon,Fishes Restaurant,Restaurant/Cafe/Canteen,1,5,,43439,5,,52.66029000000000,1058,228,environ.enforcement@broadland.gov.uk,Broadland,http://www.broadland.gov.uk,1.25276200000000,NR6 5AA,2014-09-19,fhrs_5_en-GB,5,,FHRS,5
6453,,140 Plumstead Road East,,Thorpe St Andrew,Fish's Newsagents,Retailers - other,4613,10,,103951,0,,52.64067700000000,3519,228,environ.enforcement@broadland.gov.uk,Broadland,http://www.broadland.gov.uk,1.34118000000000,NR7 9NG,2011-10-12,fhrs_4_en-GB,4,,FHRS,5
6454,Salhouse Primary School,Cheyney Avenue,,Salhouse,Fledglings,School/college/university,7845,5,,358800,0,,52.67722900000000,90754,228,environ.enforcement@broadland.gov.uk,Broadland,http://www.broadland.gov.uk,1.41520500000000,NR13 6RJ,2012-04-16,fhrs_5_en-GB,5,,FHRS,5
6455,,4-5 Market Place,,Aylsham,Flour & Bean,Manufacturers/packers,7839,5,,88894,5,,52.79530100000000,2354,228,environ.enforcement@broadland.gov.uk,Broadland,http://www.broadland.gov.uk,1.25075700000000,NR11 6EH,2013-03-05,fhrs_5_en-GB,5,,FHRS,5
6456,,3 Penfold Street,,Aylsham,Food Lovers,Retailers - other,4613,5,,145592,5,,52.79503200000000,86725,228,environ.enforcement@broadland.gov.uk,Broadland,http://www.broadland.gov.uk,1.24972800000000,NR11 6ET,2014-11-13,fhrs_5_en-GB,5,,FHRS,0
6457,,,,,For Goodness Cake,Manufacturers/packers,7839,5,,493558,5,,,94449,228,environ.enforcement@broadland.gov.uk,Broadland,http://www.broadland.gov.uk,,,2015-01-12,fhrs_5_en-GB,5,,FHRS,0
6458,,7-9 Norwich Road,,Great Witchingham,Forget Me Not Cafe,Restaurant/Cafe/Canteen,1,5,,52220,0,,52.72083200000000,1177,228,environ.enforcement@broadland.gov.uk,Broadland,http://www.broadland.gov.uk,1.11668100000000,NR9 5SH,2013-06-05,fhrs_5_en-GB,5,,FHRS,0
6459,,,,,Forget-me-not-Fayre,Other catering premises,7841,5,,145419,5,,,86172,228,environ.enforcement@broadland.gov.uk,Broadland,http://www.broadland.gov.uk,,,2012-11-26,fhrs_5_en-GB,5,,FHRS,0
6460,,,,,Fotoula's,Other catering premises,7841,5,,700843,5,,,96696,228,environ.enforcement@broadland.gov.uk,Broadland,http://www.broadland.gov.uk,,,2014-09-05,fhrs_5_en-GB,5,,FHRS,5
6461,Eastlands Residential Home,Beech Avenue,,Taverham,Four Seasons Eastlands Care Home,Hospitals/Childcare/Caring Premises,5,5,,103141,5,,52.68729900000000,3455,228,environ.enforcement@broadland.gov.uk,Broadland,http://www.broadland.gov.uk,1.18855600000000,NR8 6HP,2014-09-16,fhrs_5_en-GB,5,,FHRS,0
6462,St Marys Residential Home,North Walsham Road,,Crostwick,Four Seasons Health Care,Hospitals/Childcare/Caring Premises,5,5,,103291,5,,52.68687100000000,3466,228,environ.enforcement@broadland.gov.uk,Broadland,http://www.broadland.gov.uk,1.33248300000000,NR12 7BZ,2014-09-17,fhrs_5_en-GB,5,,FHRS,5
6463,3 Blithemeadow Court,Falcon Road East,,Sprowston,Foxwood,Hospitals/Childcare/Caring Premises,5,0,,143459,0,,52.65161500000000,80891,228,environ.enforcement@broadland.gov.uk,Broadland,http://www.broadland.gov.uk,1.32962200000000,NR7 8PU,2014-03-20,fhrs_5_en-GB,5,,FHRS,0
6464,,Blithemeadow Court,,Sprowston,Foxwood Den,Hospitals/Childcare/Caring Premises,5,5,,430868,5,,52.65161500000000,93872,228,environ.enforcement@broadland.gov.uk,Broadland,http://www.broadland.gov.uk,1.32962200000000,NR7 8PU,2012-08-02,fhrs_5_en-GB,5,,FHRS,5
6465,,6 Dixons Fold,,Old Catton,Fresh Bake,Manufacturers/packers,7839,10,,88802,10,,52.65791200000000,2347,228,environ.enforcement@broadland.gov.uk,Broadland,http://www.broadland.gov.uk,1.30614100000000,NR6 7QD,2014-07-18,fhrs_3_en-GB,3,,FHRS,10
6466,,319 Reepham Road,,Hellesdon,Fresh Fruity - Greengrocer,Retailers - other,4613,5,,682642,5,,52.66897600000000,3125,228,environ.enforcement@broadland.gov.uk,Broadland,http://www.broadland.gov.uk,1.25579000000000,NR6 5AD,2014-05-27,fhrs_4_en-GB,4,,FHRS,10
6467,Hill Farm,Norwich Road,,Horstead With Stanninghall,Fresh 'n' Fruity,Retailers - other,4613,5,,726223,5,,52.70206900000000,89900,228,environ.enforcement@broadland.gov.uk,Broadland,http://www.broadland.gov.uk,1.34274700000000,NR12 7BA,2014-11-27,fhrs_5_en-GB,5,,FHRS,5
6468,,16 Well Green,,Frettenham,Frettenham Residential Unit,Hospitals/Childcare/Caring Premises,5,,,114376,,,52.70690900000000,43410,228,environ.enforcement@broadland.gov.uk,Broadland,http://www.broadland.gov.uk,1.32638600000000,NR12 7LS,2014-08-14,fhrs_exempt_en-GB,Exempt,,FHRS,
6469,Jasmine Cottage,School Road,,Frettenham,Frettenham Under Five's,School/college/university,7845,5,,144335,0,,52.70923800000000,82824,228,environ.enforcement@broadland.gov.uk,Broadland,http://www.broadland.gov.uk,1.32577800000000,NR12 7LL,2011-06-08,fhrs_5_en-GB,5,,FHRS,5
6470,,Church Road,,Frettenham,Frettenham Village Hall,Other catering premises,7841,,,63647,,,52.71211800000000,1405,228,environ.enforcement@broadland.gov.uk,Broadland,http://www.broadland.gov.uk,1.31542400000000,NR12 7NN,2011-01-24,fhrs_exempt_en-GB,Exempt,,FHRS,
6471,,,,,Frier Tucks,Mobile caterer,7846,5,,456959,5,,,94224,228,environ.enforcement@broadland.gov.uk,Broadland,http://www.broadland.gov.uk,,,2014-11-27,fhrs_5_en-GB,5,,FHRS,0
6472,,,,,Fro-Yogi,Mobile caterer,7846,10,,520825,5,,,94425,228,environ.enforcement@broadland.gov.uk,Broadland,http://www.broadland.gov.uk,,,2013-02-13,fhrs_4_en-GB,4,,FHRS,5
6473,,Market Place,,Reepham,Fruit and Vegetable Stall,Retailers - other,4613,,,693907,,,52.76254000000000,2998,228,environ.enforcement@broadland.gov.uk,Broadland,http://www.broadland.gov.uk,1.11076700000000,,2014-08-20,fhrs_exempt_en-GB,Exempt,,FHRS,
6474,,156 Furze Road,,Thorpe St Andrew,Frying Machine,Takeaway/sandwich shop,7844,10,,565361,10,,52.63920500000000,2825,228,environ.enforcement@broadland.gov.uk,Broadland,http://www.broadland.gov.uk,1.34109700000000,NR7 0AU,2013-06-24,fhrs_3_en-GB,3,,FHRS,5
6475,Full River,The Street,,Acle,Full River Chinese Takeaway,Takeaway/sandwich shop,7844,5,,94468,10,,52.63853100000000,2765,228,environ.enforcement@broadland.gov.uk,Broadland,http://www.broadland.gov.uk,1.54781900000000,NR13 3DY,2014-03-06,fhrs_4_en-GB,4,,FHRS,5
6476,Blofield Primary School,North Street,,Blofield,Funtime Club at Blofield Primary School,Hospitals/Childcare/Caring Premises,5,5,,146856,0,,52.63739200000000,90037,228,environ.enforcement@broadland.gov.uk,Broadland,http://www.broadland.gov.uk,1.44757900000000,NR13 4RH,2014-06-17,fhrs_5_en-GB,5,,FHRS,5
6477,,Short Thorn Road,,Stratton Strawless,G & J Refreshments,Mobile caterer,7846,10,,145897,10,,52.72813500000000,87664,228,environ.enforcement@broadland.gov.uk,Broadland,http://www.broadland.gov.uk,1.24793300000000,NR10 5NU,2014-03-18,fhrs_3_en-GB,3,,FHRS,10
6478,,16 Red Lion Street,,Aylsham,G F White Traditional Butchers Ltd,Retailers - other,4613,5,,358797,5,,52.79563000000000,2891,228,environ.enforcement@broadland.gov.uk,Broadland,http://www.broadland.gov.uk,1.25219100000000,NR11 6ER,2014-03-19,fhrs_5_en-GB,5,,FHRS,5
6479,,The Street,,Acle,G Long Family Butcher,Retailers - other,4613,5,,95914,5,,52.63797700000000,2885,228,environ.enforcement@broadland.gov.uk,Broadland,http://www.broadland.gov.uk,1.54830700000000,NR13 3DX,2014-05-02,fhrs_5_en-GB,5,,FHRS,5
6480,,14 Market Place,,Aylsham,Gate of India Restaurant,Restaurant/Cafe/Canteen,1,5,,59590,5,,52.79530100000000,13098,228,environ.enforcement@broadland.gov.uk,Broadland,http://www.broadland.gov.uk,1.25075700000000,NR11 6EH,2013-03-26,fhrs_5_en-GB,5,,FHRS,0
6481,,88 Gordon Avenue,,Thorpe St Andrew,Gordon Public House,Pub/bar/nightclub,7843,5,,44618,5,,52.63440300000000,1082,228,environ.enforcement@broadland.gov.uk,Broadland,http://www.broadland.gov.uk,1.33882400000000,NR7 0DR,2012-02-17,fhrs_4_en-GB,4,,FHRS,10
6482,,5 Cawston Road,,Aylsham,Gottersons Fish Bar,Takeaway/sandwich shop,7844,10,,94536,15,,52.79493500000000,2770,228,environ.enforcement@broadland.gov.uk,Broadland,http://www.broadland.gov.uk,1.24899400000000,NR11 6BX,2013-09-09,fhrs_2_en-GB,2,,FHRS,5
6483,Pettitts Of Reedham Ltd,Church Road,,Reedham,Graham Kendrick Catering,Restaurant/Cafe/Canteen,1,10,,429542,5,,52.56683100000000,80892,228,environ.enforcement@broadland.gov.uk,Broadland,http://www.broadland.gov.uk,1.57848300000000,NR13 3UA,2014-04-10,fhrs_4_en-GB,4,,FHRS,5
6484,,Ranworth Staithe,,Ranworth,Granary Stores,Retailers - other,4613,5,,94778,5,,52.67734300000000,2794,228,environ.enforcement@broadland.gov.uk,Broadland,http://www.broadland.gov.uk,1.49088800000000,NR13 6HY,2012-04-23,fhrs_5_en-GB,5,,FHRS,5
6485,Granary Tearooms,,,Ranworth Staithe,Granary Tearooms,Retailers - other,4613,5,,358804,5,,52.67734300000000,93550,228,environ.enforcement@broadland.gov.uk,Broadland,http://www.broadland.gov.uk,1.49088800000000,NR13 6HY,2013-10-22,fhrs_5_en-GB,5,,FHRS,5
6486,,30 Red Lion Street,,Aylsham,Granville C Bond,Retailers - other,4613,10,,95998,15,,52.79563000000000,2894,228,environ.enforcement@broadland.gov.uk,Broadland,http://www.broadland.gov.uk,1.25219100000000,NR11 6ER,2014-11-07,fhrs_2_en-GB,2,,FHRS,10
6487,,Church Road,,Great Plumstead,Great Plumstead Bowls Club,Other catering premises,7841,,,50183,,,52.63917200000000,1117,228,environ.enforcement@broadland.gov.uk,Broadland,http://www.broadland.gov.uk,1.40004000000000,NR13 5AB,2011-03-14,fhrs_exempt_en-GB,Exempt,,FHRS,
6488,Parish Hall,Church Road,,Great Little Plumstead,Great Plumstead Village Hall,Other catering premises,7841,,,63571,,,52.63917200000000,1403,228,environ.enforcement@broadland.gov.uk,Broadland,http://www.broadland.gov.uk,1.40004000000000,NR13 5AB,2010-12-16,fhrs_exempt_en-GB,Exempt,,FHRS,
6489,,Church Road,,Great Plumstead,Great Plumstead Village Stores,Retailers - other,4613,10,,682638,0,,52.63917200000000,3063,228,environ.enforcement@broadland.gov.uk,Broadland,http://www.broadland.gov.uk,1.40004000000000,NR13 5AB,2014-06-12,fhrs_4_en-GB,4,,FHRS,0
6490,,,,,Greenfield Bakes,Other catering premises,7841,5,,682654,5,,,95977,228,environ.enforcement@broadland.gov.uk,Broadland,http://www.broadland.gov.uk,,,2014-06-17,fhrs_5_en-GB,5,,FHRS,0
6491,,,,,Greens Caravan,Mobile caterer,7846,10,,700841,10,,,96590,228,environ.enforcement@broadland.gov.uk,Broadland,http://www.broadland.gov.uk,,,2014-09-04,fhrs_3_en-GB,3,,FHRS,10
6492,,Horsbeck Way,,Horsford,Grenville Court Care Home,Hospitals/Childcare/Caring Premises,5,10,,74661,5,,52.69612700000000,17260,228,environ.enforcement@broadland.gov.uk,Broadland,http://www.broadland.gov.uk,1.24201600000000,NR10 3BB,2014-09-08,fhrs_4_en-GB,4,,FHRS,5
6493,,212 Yarmouth Road,,Thorpe St Andrew,Griffin Inn,Pub/bar/nightclub,7843,5,,358790,5,,52.62810700000000,1012,228,environ.enforcement@broadland.gov.uk,Broadland,http://www.broadland.gov.uk,1.36394400000000,NR7 0SN,2013-03-21,fhrs_5_en-GB,5,,FHRS,5
6494,,36 Wroxham Road,,Sprowston,Gryphon Place,Hospitals/Childcare/Caring Premises,5,5,,124406,5,,52.65404800000000,52919,228,environ.enforcement@broadland.gov.uk,Broadland,http://www.broadland.gov.uk,1.31600900000000,NR7 8TY,2013-05-07,fhrs_5_en-GB,5,,FHRS,0
6495,,Old School Road,,Guestwick,Guestwick Village Hall,Other catering premises,7841,,,520823,,,52.80446800000000,1428,228,environ.enforcement@broadland.gov.uk,Broadland,http://www.broadland.gov.uk,1.05968500000000,NR20 5QQ,2013-03-07,fhrs_exempt_en-GB,Exempt,,FHRS,
6496,Hainford Village Hall,Hall Road,,Hainford,Hainford Pre-School,School/college/university,7845,10,,729382,5,,52.71812700000000,82111,228,environ.enforcement@broadland.gov.uk,Broadland,http://www.broadland.gov.uk,1.30121700000000,NR10 3LX,2014-12-12,fhrs_4_en-GB,4,,FHRS,5
6497,,Marl Hill,,Weston Longville,Hall for All,Other catering premises,7841,10,,682632,5,,52.69893300000000,1440,228,environ.enforcement@broadland.gov.uk,Broadland,http://www.broadland.gov.uk,1.12557100000000,NR9 5JU,2014-06-18,fhrs_4_en-GB,4,,FHRS,5
6498,Beaver House,Norwich Road,,Reepham,Hamptons Home & Garden,Restaurant/Cafe/Canteen,1,10,,543264,5,,52.76283200000000,81786,228,environ.enforcement@broadland.gov.uk,Broadland,http://www.broadland.gov.uk,1.11418100000000,NR10 4JN,2013-04-25,fhrs_4_en-GB,4,,FHRS,0
6499,Harleys Cafe,77 Yarmouth Road,,Thorpe St Andrew,Harleys Cafe,Restaurant/Cafe/Canteen,1,5,,98325,5,,52.62854800000000,3096,228,environ.enforcement@broadland.gov.uk,Broadland,http://www.broadland.gov.uk,1.35852400000000,NR7 0SG,2014-07-22,fhrs_5_en-GB,5,,FHRS,5
6500,Great Hautbois House,5 Hautbois Road,,Coltishall,"Hautbois Activity Centre, Anglia Girl Guide Centre",Other catering premises,7841,10,,102143,5,,52.73168500000000,3375,228,environ.enforcement@broadland.gov.uk,Broadland,http://www.broadland.gov.uk,1.35611100000000,NR12 7JN,2014-05-29,fhrs_4_en-GB,4,,FHRS,5
6501,,,,,Hautbois Hall B&B,Hotel/bed & breakfast/guest house,7842,,,616010,,,,95471,228,environ.enforcement@broadland.gov.uk,Broadland,http://www.broadland.gov.uk,,,2013-11-28,fhrs_exempt_en-GB,Exempt,,FHRS,
6502,,21 High Street,,Foulsham,Hazeldown Residential Home,Hospitals/Childcare/Caring Premises,5,5,,103264,5,,52.78282300000000,3463,228,environ.enforcement@broadland.gov.uk,Broadland,http://www.broadland.gov.uk,1.01116400000000,NR20 5RT,2013-07-30,fhrs_5_en-GB,5,,FHRS,5
6503,,1A Corbet Avenue,,Sprowston,Hazels Butchers,Retailers - other,4613,5,,95820,10,,52.64858000000000,2875,228,environ.enforcement@broadland.gov.uk,Broadland,http://www.broadland.gov.uk,1.31762100000000,NR7 8HR,2014-08-18,fhrs_4_en-GB,4,,FHRS,5
6504,Hellesdon Community Centre,Wood View Road,,Hellesdon,Hellesdon Community Centre,Other catering premises,7841,5,,133935,5,,52.66529800000000,6695,228,environ.enforcement@broadland.gov.uk,Broadland,http://www.broadland.gov.uk,1.25937700000000,NR6 5QB,2012-08-15,fhrs_5_en-GB,5,,FHRS,0
6505,Heron Lea,Mill Lane,,Postwick,Heron Lea Residential Home,Hospitals/Childcare/Caring Premises,5,5,,103282,5,,52.62783500000000,3465,228,environ.enforcement@broadland.gov.uk,Broadland,http://www.broadland.gov.uk,1.41175300000000,NR13 5DS,2014-11-25,fhrs_5_en-GB,5,,FHRS,5
6506,,163 Norwich Road,,Wroxham,Heron Lodge,Hospitals/Childcare/Caring Premises,5,5,,103032,5,,52.70441500000000,3445,228,environ.enforcement@broadland.gov.uk,Broadland,http://www.broadland.gov.uk,1.40156000000000,NR12 8RZ,2014-11-21,fhrs_5_en-GB,5,,FHRS,5
6507,Hevingham Primary School,Westgate,,Hevingham,Hevingham Primary School,School/college/university,7845,,,145611,,,52.74369500000000,868,228,environ.enforcement@broadland.gov.uk,Broadland,http://www.broadland.gov.uk,1.24984600000000,NR10 5NH,2012-10-17,fhrs_5_en-GB,5,,FHRS,
6508,,21 High Street,,Coltishall,Hewitts Butchers,Retailers - other,4613,5,,95804,5,,52.72872600000000,2873,228,environ.enforcement@broadland.gov.uk,Broadland,http://www.broadland.gov.uk,1.35739500000000,NR12 7AA,2013-05-20,fhrs_5_en-GB,5,,FHRS,0
6509,,12 The Street,,Heydon,Heydon Village Tea Room & Shop,Restaurant/Cafe/Canteen,1,5,,543263,5,,52.80159900000000,3089,228,environ.enforcement@broadland.gov.uk,Broadland,http://www.broadland.gov.uk,1.13339300000000,NR11 6RQ,2013-04-26,fhrs_5_en-GB,5,,FHRS,5
6510,,,,,Hill House Bed & Breakfast,Hotel/bed & breakfast/guest house,7842,0,,690620,0,,,42631,228,environ.enforcement@broadland.gov.uk,Broadland,http://www.broadland.gov.uk,,,2014-07-25,fhrs_5_en-GB,5,,FHRS,0
6511,,Wroxham Road,,Rackheath,Hill Top Cafe,Restaurant/Cafe/Canteen,1,5,,52103,5,,52.67814200000000,1173,228,environ.enforcement@broadland.gov.uk,Broadland,http://www.broadland.gov.uk,1.36796800000000,NR13 6LX,2013-07-29,fhrs_5_en-GB,5,,FHRS,5
6512,St Williams Primary School,Williams Loke,,Thorpe St Andrew,Hillbillies,School/college/university,7845,5,,145446,0,,52.63726600000000,86249,228,environ.enforcement@broadland.gov.uk,Broadland,http://www.broadland.gov.uk,1.33712100000000,NR7 0AJ,2014-02-12,fhrs_5_en-GB,5,,FHRS,0
6513,Hillside Avenue Primary School,Hillside Avenue,,Thorpe St Andrew,Hilldale Breakfast and After School Club,Restaurant/Cafe/Canteen,1,5,,731508,0,,52.62892000000000,97175,228,environ.enforcement@broadland.gov.uk,Broadland,http://www.broadland.gov.uk,1.35015700000000,NR7 0QW,2015-01-22,fhrs_5_en-GB,5,,FHRS,0
6514,Hinks Meadow Village Hall,Kingswood Avenue,,Taverham,Hinks Hut - Taverham Football Club,Restaurant/Cafe/Canteen,1,5,,462874,5,,52.68984300000000,94228,228,environ.enforcement@broadland.gov.uk,Broadland,http://www.broadland.gov.uk,1.19627500000000,NR8 6GJ,2013-02-08,fhrs_5_en-GB,5,,FHRS,5
6515,Holly Lodge,189A Drayton High Road,,Drayton,Holly Lodge,Hospitals/Childcare/Caring Premises,5,5,,119334,5,,52.66992600000000,48531,228,environ.enforcement@broadland.gov.uk,Broadland,http://www.broadland.gov.uk,1.24739800000000,NR8 6BL,2013-08-20,fhrs_5_en-GB,5,,FHRS,0
6516,,Shop 1 Blofields Loke,,Aylsham,Homebake Bakery,Manufacturers/packers,7839,5,,88830,5,,52.79517700000000,2349,228,environ.enforcement@broadland.gov.uk,Broadland,http://www.broadland.gov.uk,1.25266200000000,NR11 6ES,2014-11-07,fhrs_4_en-GB,4,,FHRS,10
6517,,281 Saint Faiths Road,,Old Catton,Homestead House Residential Home,Hospitals/Childcare/Caring Premises,5,5,,103061,5,,52.66781300000000,3448,228,environ.enforcement@broadland.gov.uk,Broadland,http://www.broadland.gov.uk,1.29586700000000,NR6 7BQ,2013-10-25,fhrs_5_en-GB,5,,FHRS,5
6518,Honeysuckle Lodge,189C Drayton High Road,,Drayton,Honeysuckle Lodge,Hospitals/Childcare/Caring Premises,5,5,,143622,5,,52.66992600000000,81138,228,environ.enforcement@broadland.gov.uk,Broadland,http://www.broadland.gov.uk,1.24739800000000,NR8 6BL,2013-08-20,fhrs_5_en-GB,5,,FHRS,5
6519,,77 Holt Road,,Horsford,Hong Kong Chinese Takeaway,Takeaway/sandwich shop,7844,10,,124028,10,,52.69669500000000,52493,228,environ.enforcement@broadland.gov.uk,Broadland,http://www.broadland.gov.uk,1.24460500000000,NR10 3AB,2014-03-11,fhrs_3_en-GB,3,,FHRS,10
6520,Village Hall,Dereham Road,,Honingham,Honingham Village Hall,Other catering premises,7841,,,64294,,,52.66310400000000,1426,228,environ.enforcement@broadland.gov.uk,Broadland,http://www.broadland.gov.uk,1.10644600000000,NR9 5AP,2011-03-22,fhrs_exempt_en-GB,Exempt,,FHRS,
6521,,,,,Horizon Cakes,Other catering premises,7841,0,,700836,0,,,96086,228,environ.enforcement@broadland.gov.uk,Broadland,http://www.broadland.gov.uk,,,2014-09-08,fhrs_5_en-GB,5,,FHRS,0
6522,,Holt Road,,Horsford,Horsford Church Room,Other catering premises,7841,,,135860,,,52.69820800000000,6977,228,environ.enforcement@broadland.gov.uk,Broadland,http://www.broadland.gov.uk,1.24223000000000,NR10 3DQ,2011-01-24,fhrs_exempt_en-GB,Exempt,,FHRS,
6523,Horsford Fish Bar,165 Holt Road,,Horsford,Horsford Fish Bar Ltd,Takeaway/sandwich shop,7844,5,,94631,5,,52.69931300000000,2780,228,environ.enforcement@broadland.gov.uk,Broadland,http://www.broadland.gov.uk,1.24291900000000,NR10 3DN,2013-05-23,fhrs_5_en-GB,5,,FHRS,5
6524,,88-92 Holt Road,,Horsford,Horsford Kebab and Pizza House,Takeaway/sandwich shop,7844,,,146645,,,52.69717700000000,89977,228,environ.enforcement@broadland.gov.uk,Broadland,http://www.broadland.gov.uk,1.24538100000000,NR10 3DE,2014-10-14,fhrs_4_en-GB,4,,FHRS,
6525,,133 Holt Road,,Horsford,Horsford News,Retailers - other,4613,10,,666556,0,,52.69669500000000,2816,228,environ.enforcement@broadland.gov.uk,Broadland,http://www.broadland.gov.uk,1.24460500000000,NR10 3AB,2014-06-03,fhrs_4_en-GB,4,,FHRS,0
6526,,12 Back Street,,Horsham St Faith,Horsham St Faith Post Office,Retailers - other,4613,10,,682640,0,,52.68659100000000,3097,228,environ.enforcement@broadland.gov.uk,Broadland,http://www.broadland.gov.uk,1.27870900000000,NR10 3JP,2014-06-04,fhrs_4_en-GB,4,,FHRS,0
6527,Little Plumstead Hospital,Hospital Road,,Great Little Plumstead,HPFT Broadland Clinic at Little Plumstead Hospital,Hospitals/Childcare/Caring Premises,5,5,,659031,5,,52.64569400000000,84879,228,environ.enforcement@broadland.gov.uk,Broadland,http://www.broadland.gov.uk,1.40720000000000,NR13 5EW,2014-09-24,fhrs_5_en-GB,5,,FHRS,0
6528,,Fir Covert Road,,Taverham,Humpty Dumpty Kindergarden Ltd,Restaurant/Cafe/Canteen,1,5,,145121,5,,52.69339200000000,85131,228,environ.enforcement@broadland.gov.uk,Broadland,http://www.broadland.gov.uk,1.19170900000000,NR8 6HT,2013-07-30,fhrs_5_en-GB,5,,FHRS,0
6529,The Huntsman Public House,41 Norwich Road,,Strumpshaw,Huntsman Public House,Pub/bar/nightclub,7843,5,,41465,10,,52.61881500000000,1028,228,environ.enforcement@broadland.gov.uk,Broadland,http://www.broadland.gov.uk,1.47724000000000,NR13 4AG,2013-11-14,fhrs_4_en-GB,4,,FHRS,5
6530,,,,,Hushwing Cafe,Restaurant/Cafe/Canteen,1,5,,582904,5,,,94732,228,environ.enforcement@broadland.gov.uk,Broadland,http://www.broadland.gov.uk,,,2013-08-29,fhrs_5_en-GB,5,,FHRS,0
6531,,Wood Fired Bakery,,The Street,Husk,Retailers - other,4613,10,,147046,10,,52.80159900000000,90740,228,environ.enforcement@broadland.gov.uk,Broadland,http://www.broadland.gov.uk,1.13339300000000,NR11 6RQ,2014-07-17,fhrs_3_en-GB,3,,FHRS,10
6532,Wayside Garage,312 Holt Road,,Horsford,Hymer Catering,Mobile caterer,7846,5,,591353,0,,52.70981500000000,95172,228,environ.enforcement@broadland.gov.uk,Broadland,http://www.broadland.gov.uk,1.23447300000000,NR10 3EE,2014-01-06,fhrs_5_en-GB,5,,FHRS,5
6533,,,,,Inline Events,Other catering premises,7841,5,,659043,5,,,96098,228,environ.enforcement@broadland.gov.uk,Broadland,http://www.broadland.gov.uk,,,2014-04-08,fhrs_5_en-GB,5,,FHRS,5
6534,,Church Road,,Great Little Plumstead,Interserve FM Ltd at Astley Court at Little Plumstead Hospital,Hospitals/Childcare/Caring Premises,5,,,108682,,,52.64050700000000,38937,228,environ.enforcement@broadland.gov.uk,Broadland,http://www.broadland.gov.uk,1.39740800000000,NR13 5ER,2014-07-24,fhrs_5_en-GB,5,,FHRS,
6535,,155 Holt Road,,Horsford,J & J Keeler Butchers,Retailers - other,4613,10,,358796,5,,52.69931300000000,2889,228,environ.enforcement@broadland.gov.uk,Broadland,http://www.broadland.gov.uk,1.24291900000000,NR10 3DN,2013-10-28,fhrs_3_en-GB,3,,FHRS,10
6536,,8 Dixons Fold,,Old Catton,J & P Fish and Chips,Takeaway/sandwich shop,7844,10,,99582,5,,52.65791200000000,3157,228,environ.enforcement@broadland.gov.uk,Broadland,http://www.broadland.gov.uk,1.30614100000000,NR6 7QD,2014-03-17,fhrs_4_en-GB,4,,FHRS,5
6537,,,,,J Lenihan,Restaurant/Cafe/Canteen,1,5,,147430,5,,,91942,228,environ.enforcement@broadland.gov.uk,Broadland,http://www.broadland.gov.uk,,,2014-03-18,fhrs_5_en-GB,5,,FHRS,0
6538,Church Farm,Church Road,,Frettenham,J Norton & Sons,Farmers/growers,7838,,,535947,,,52.71211800000000,85640,228,environ.enforcement@broadland.gov.uk,Broadland,http://www.broadland.gov.uk,1.31542400000000,NR12 7NN,2013-10-01,fhrs_exempt_en-GB,Exempt,,FHRS,
6539,,35 Station Road,,Reedham,Jacmar Dairy Goats,Farmers/growers,7838,5,,114954,5,,52.56313800000000,44052,228,environ.enforcement@broadland.gov.uk,Broadland,http://www.broadland.gov.uk,1.56020500000000,NR13 3TB,2014-03-21,fhrs_5_en-GB,5,,FHRS,5
6540,,,,,Jakes Bakes,Retailers - other,4613,0,,659046,0,,,96144,228,environ.enforcement@broadland.gov.uk,Broadland,http://www.broadland.gov.uk,,,2014-04-11,fhrs_5_en-GB,5,,FHRS,0
6541,Cawston Park,Aylsham Road,,Cawston,Jeesal Akman Care Corporation Ltd.,Hospitals/Childcare/Caring Premises,5,10,,126827,5,,52.77555400000000,55920,228,environ.enforcement@broadland.gov.uk,Broadland,http://www.broadland.gov.uk,1.20575900000000,NR10 4JD,2014-04-09,fhrs_4_en-GB,4,,FHRS,0
6542,Casarita,270 Fakenham Road,,Taverham,Jeesal Residential Care Services Ltd,Hospitals/Childcare/Caring Premises,5,10,,559049,10,,52.68681400000000,30282,228,environ.enforcement@broadland.gov.uk,Broadland,http://www.broadland.gov.uk,1.19722300000000,NR8 6AD,2013-06-18,fhrs_4_en-GB,4,,FHRS,0
6543,,50 Red Lion Street,,Aylsham,Jenny's,Restaurant/Cafe/Canteen,1,,,128507,,,52.79563000000000,58507,228,environ.enforcement@broadland.gov.uk,Broadland,http://www.broadland.gov.uk,1.25219100000000,NR11 6ER,2014-07-08,fhrs_4_en-GB,4,,FHRS,
6544,,,,,JGLS Catering,Mobile caterer,7846,10,,682660,5,,,96278,228,environ.enforcement@broadland.gov.uk,Broadland,http://www.broadland.gov.uk,,,2014-06-19,fhrs_4_en-GB,4,,FHRS,5
6545,Norwich Union,Peachman Way,,Postwick,Jigsaw Cafe (Horizon),Restaurant/Cafe/Canteen,1,5,,142875,5,,52.63115200000000,79927,228,environ.enforcement@broadland.gov.uk,Broadland,http://www.broadland.gov.uk,1.37542700000000,NR7 0WF,2013-01-23,fhrs_5_en-GB,5,,FHRS,5
6546,Reed House,Horizon Business Park,,Postwick,Jigsaw Cafe (Reed House),Restaurant/Cafe/Canteen,1,5,,144364,5,,52.63115200000000,82928,228,environ.enforcement@broadland.gov.uk,Broadland,http://www.broadland.gov.uk,1.37542700000000,NR7 0WF,2013-01-23,fhrs_5_en-GB,5,,FHRS,0
6547,Willow House,Horizon Business Park,,Postwick,Jigsaw Cafe (Willow House),Restaurant/Cafe/Canteen,1,5,,144309,5,,52.63115200000000,82781,228,environ.enforcement@broadland.gov.uk,Broadland,http://www.broadland.gov.uk,1.37542700000000,NR7 0WF,2013-01-23,fhrs_5_en-GB,5,,FHRS,0
6548,John O Gaunt First School,Hungate Street,,Aylsham,John O'Gaunt Infant & Nursery School,School/college/university,7845,5,,145240,0,,52.78860700000000,856,228,environ.enforcement@broadland.gov.uk,Broadland,http://www.broadland.gov.uk,1.24988700000000,NR11 6JZ,2013-12-13,fhrs_5_en-GB,5,,FHRS,5
6549,Joseph House,1 Church Road,,Reedham,Joseph House,Hospitals/Childcare/Caring Premises,5,5,,103413,5,,52.56689600000000,3474,228,environ.enforcement@broadland.gov.uk,Broadland,http://www.broadland.gov.uk,1.57811900000000,NR13 3TZ,2014-05-13,fhrs_5_en-GB,5,,FHRS,0
6550,Units 1 - 7,Mahoney Green,,Rackheath,Jump for Joy,Restaurant/Cafe/Canteen,1,5,,123626,0,,52.66658900000000,52016,228,environ.enforcement@broadland.gov.uk,Broadland,http://www.broadland.gov.uk,1.36907600000000,NR13 6JY,2013-09-04,fhrs_5_en-GB,5,,FHRS,5
6551,,Salhouse Road,,Sprowston,Katies Cabin,Mobile caterer,7846,5,,552151,5,,,94687,228,environ.enforcement@broadland.gov.uk,Broadland,http://www.broadland.gov.uk,,,2013-05-22,fhrs_5_en-GB,5,,FHRS,5
6552,,,,,Keldas' Kitchen,Other catering premises,7841,5,,92612,5,,,26161,228,environ.enforcement@broadland.gov.uk,Broadland,http://www.broadland.gov.uk,,,2014-06-10,fhrs_5_en-GB,5,,FHRS,0
6553,,161 Holt Road,,Horsford,Kelly's Bakeries,Retailers - other,4613,5,,121781,5,,52.69931300000000,5041,228,environ.enforcement@broadland.gov.uk,Broadland,http://www.broadland.gov.uk,1.24291900000000,NR10 3DN,2014-07-07,fhrs_5_en-GB,5,,FHRS,0
6554,,22 Taverham Road,,Drayton,Kelly's Bakeries,Manufacturers/packers,7839,5,,88780,5,,52.67514100000000,2345,228,environ.enforcement@broadland.gov.uk,Broadland,http://www.broadland.gov.uk,1.21776400000000,NR8 6RY,2014-08-20,fhrs_5_en-GB,5,,FHRS,5
6555,,63A Fakenham Road,,Great Witchingham,Kelly's Bakeries,Manufacturers/packers,7839,5,,88814,5,,52.72239300000000,2348,228,environ.enforcement@broadland.gov.uk,Broadland,http://www.broadland.gov.uk,1.10381800000000,NR9 5AE,2013-05-30,fhrs_5_en-GB,5,,FHRS,5
6556,Old Station House,Station Road,,Reepham,"Kerri's Farmhouse Pine Ltd, Tea Room",Restaurant/Cafe/Canteen,1,10,,133394,5,,52.76246500000000,6603,228,environ.enforcement@broadland.gov.uk,Broadland,http://www.broadland.gov.uk,1.10969300000000,NR10 4LD,2014-04-25,fhrs_4_en-GB,4,,FHRS,5
6557,,Palmers Lane,,Aylsham,Keys Cafe,Restaurant/Cafe/Canteen,1,10,,52397,10,,52.79270300000000,1183,228,environ.enforcement@broadland.gov.uk,Broadland,http://www.broadland.gov.uk,1.25169100000000,NR11 6JA,2014-03-31,fhrs_3_en-GB,3,,FHRS,10
6558,,Mile Cross Lane,,Hellesdon,KFC,Restaurant/Cafe/Canteen,1,5,,358803,10,,52.65801100000000,93541,228,environ.enforcement@broadland.gov.uk,Broadland,http://www.broadland.gov.uk,1.28387400000000,NR6 6SD,2013-11-06,fhrs_4_en-GB,4,,FHRS,5
6559,,9-11 Hungate Street,,Aylsham,King Kebab and Pizza House,Takeaway/sandwich shop,7844,20,,358793,15,,52.79397200000000,1181,228,environ.enforcement@broadland.gov.uk,Broadland,http://www.broadland.gov.uk,1.25033200000000,NR11 6AA,2014-03-06,fhrs_1_en-GB,1,,FHRS,10
6560,,1 Panxworth Road,,South Walsham,Kings Arms Pub and Chinese and Thai Restaurant,Pub/bar/nightclub,7843,10,,40854,15,,52.66406800000000,1018,228,environ.enforcement@broadland.gov.uk,Broadland,http://www.broadland.gov.uk,1.48996200000000,NR13 6DY,2014-03-06,fhrs_2_en-GB,2,,FHRS,15
6561,,Market Place,,Reepham,Kings Arms Public House,Pub/bar/nightclub,7843,5,,44091,5,,52.76269800000000,1072,228,environ.enforcement@broadland.gov.uk,Broadland,http://www.broadland.gov.uk,1.11073200000000,NR10 4JJ,2014-03-26,fhrs_5_en-GB,5,,FHRS,0
6562,,127 Reepham Road,,Hellesdon,Kings Bed & Breakfast,Hotel/bed & breakfast/guest house,7842,10,,666564,5,,52.66193700000000,56834,228,environ.enforcement@broadland.gov.uk,Broadland,http://www.broadland.gov.uk,1.26743900000000,NR6 5LY,2014-05-27,fhrs_4_en-GB,4,,FHRS,5
6563,,24 Station Road,,Lingwood And Burlingham,Kings Head Public House,Pub/bar/nightclub,7843,10,,682628,15,,52.62143700000000,1090,228,environ.enforcement@broadland.gov.uk,Broadland,http://www.broadland.gov.uk,1.49052700000000,NR13 4AZ,2014-06-06,fhrs_2_en-GB,2,,FHRS,15
6564,Kings Head,Wroxham Road,,Coltishall,Kings Head Public House,Pub/bar/nightclub,7843,,,42583,,,52.72824500000000,1050,228,environ.enforcement@broadland.gov.uk,Broadland,http://www.broadland.gov.uk,1.36958000000000,NR12 7EA,2014-09-04,fhrs_5_en-GB,5,,FHRS,
6565,Kings Head,39 Yarmouth Road,,Blofield,Kings Head Public House,Pub/bar/nightclub,7843,10,,42676,10,,52.63334300000000,1052,228,environ.enforcement@broadland.gov.uk,Broadland,http://www.broadland.gov.uk,1.44825100000000,NR13 4LE,2014-08-01,fhrs_3_en-GB,3,,FHRS,10
6566,Kings Head,The Street,,Acle,Kings Head Public House,Pub/bar/nightclub,7843,10,,42368,10,,52.63853100000000,1045,228,environ.enforcement@broadland.gov.uk,Broadland,http://www.broadland.gov.uk,1.54781900000000,NR13 3DY,2013-08-06,fhrs_3_en-GB,3,,FHRS,10
6567,,Kinsale Avenue,,Hellesdon,Kinsale Infant School,School/college/university,7845,5,,116078,0,,52.66090100000000,45260,228,environ.enforcement@broadland.gov.uk,Broadland,http://www.broadland.gov.uk,1.25934500000000,NR6 5SG,2014-06-13,fhrs_5_en-GB,5,,FHRS,5
6568,Klair House Residential Home,236 Wroxham Road,,Sprowston,Klair House Residential Home,Hospitals/Childcare/Caring Premises,5,5,,125013,5,,52.66008900000000,5351,228,environ.enforcement@broadland.gov.uk,Broadland,http://www.broadland.gov.uk,1.32926100000000,NR7 8BE,2014-05-01,fhrs_5_en-GB,5,,FHRS,5
6569,Atlas Works,Norwich Road,,Great Witchingham,Kwik Snax,Mobile caterer,7846,5,,133759,5,,52.71426200000000,6669,228,environ.enforcement@broadland.gov.uk,Broadland,http://www.broadland.gov.uk,1.13525700000000,NR9 5SW,2013-06-05,fhrs_5_en-GB,5,,FHRS,5
6570,,4 High Street,,Coltishall,Landamores Fish & Chips,Takeaway/sandwich shop,7844,5,,94487,0,,52.72814200000000,2767,228,environ.enforcement@broadland.gov.uk,Broadland,http://www.broadland.gov.uk,1.35829800000000,NR12 7DH,2013-07-10,fhrs_5_en-GB,5,,FHRS,0
6571,,133 Yarmouth Road,,Thorpe St Andrew,Larchwood Residential Home,Hospitals/Childcare/Caring Premises,5,5,,102980,5,,52.62785200000000,3440,228,environ.enforcement@broadland.gov.uk,Broadland,http://www.broadland.gov.uk,1.35168700000000,NR7 0RF,2014-09-24,fhrs_4_en-GB,4,,FHRS,10
6572,,4 The Heath,,Hevingham,Laurel Club Meals on Wheels,Other catering premises,7841,5,,358802,0,,52.74794100000000,93518,228,environ.enforcement@broadland.gov.uk,Broadland,http://www.broadland.gov.uk,1.23469000000000,NR10 5QW,2014-06-12,fhrs_5_en-GB,5,,FHRS,0
6573,,Brick Kiln Road,,Hevingham,"Laurel Luncheon Club & Meals On Wheels, Hevingham Village Hall",Restaurant/Cafe/Canteen,1,5,,456958,5,,52.73934900000000,94223,228,environ.enforcement@broadland.gov.uk,Broadland,http://www.broadland.gov.uk,1.23974300000000,NR10 5NL,2014-02-26,fhrs_5_en-GB,5,,FHRS,0
6574,,,,,Lauren's Cakes and Bakes,Retailers - other,4613,5,,596060,0,,,94719,228,environ.enforcement@broadland.gov.uk,Broadland,http://www.broadland.gov.uk,,,2013-10-21,fhrs_5_en-GB,5,,FHRS,5
6575,,,,,Leeward Bed & Breakfast,Hotel/bed & breakfast/guest house,7842,5,,147202,5,,,91100,228,environ.enforcement@broadland.gov.uk,Broadland,http://www.broadland.gov.uk,,,2014-08-01,fhrs_5_en-GB,5,,FHRS,5
6576,,65 Fakenham Road,,Great Witchingham,Lenwade Butchers,Retailers - other,4613,5,,96033,5,,52.72239300000000,2898,228,environ.enforcement@broadland.gov.uk,Broadland,http://www.broadland.gov.uk,1.10381800000000,NR9 5AE,2013-07-03,fhrs_5_en-GB,5,,FHRS,0
6577,,67 Fakenham Road,,Great Witchingham,Lenwade Fish & Chip Shop,Takeaway/sandwich shop,7844,5,,94594,5,,52.72239300000000,2777,228,environ.enforcement@broadland.gov.uk,Broadland,http://www.broadland.gov.uk,1.10381800000000,NR9 5AE,2013-01-24,fhrs_5_en-GB,5,,FHRS,0
6578,"Lenwade House Hotel, Lenwade House Drive",Fakenham Road,,Great Witchingham,Lenwade House Hotel,Hotel/bed & breakfast/guest house,7842,10,,447477,15,,52.72033500000000,3359,228,environ.enforcement@broadland.gov.uk,Broadland,http://www.broadland.gov.uk,1.09927300000000,NR9 5QP,2013-12-11,fhrs_2_en-GB,2,,FHRS,10
6579,,3-5 Norwich Road,,Lenwade,Lenwade News,Retailers - other,4613,10,,682635,10,,52.72083200000000,2933,228,environ.enforcement@broadland.gov.uk,Broadland,http://www.broadland.gov.uk,1.11668100000000,NR9 5SH,2014-06-04,fhrs_3_en-GB,3,,FHRS,10
6580,Jordan Green Farm,Whitwell,,Reepham,Lilwalls Hog Roasts Ltd,Retailers - other,4613,5,,146031,0,,52.75330200000000,88090,228,environ.enforcement@broadland.gov.uk,Broadland,http://www.broadland.gov.uk,1.06335900000000,NR10 4RQ,2013-07-12,fhrs_5_en-GB,5,,FHRS,5
6581,,Norwich Road,,Lingwood And Burlingham,Lingwood Chippy,Takeaway/sandwich shop,7844,5,,94457,0,,52.61872600000000,2764,228,environ.enforcement@broadland.gov.uk,Broadland,http://www.broadland.gov.uk,1.48423800000000,NR13 4BH,2013-06-20,fhrs_5_en-GB,5,,FHRS,5
6582,,Post Office Road,,Lingwood,Lingwood Post Office,Retailers - other,4613,10,,687689,10,,52.62354200000000,3099,228,environ.enforcement@broadland.gov.uk,Broadland,http://www.broadland.gov.uk,1.49082800000000,NR13 4AD,2014-07-15,fhrs_4_en-GB,4,,FHRS,0
6583,,,,,Lingwood Village Hall Coffee Shop,Other catering premises,7841,10,,146594,10,,,89817,228,environ.enforcement@broadland.gov.uk,Broadland,http://www.broadland.gov.uk,,,2013-03-15,fhrs_3_en-GB,3,,FHRS,5
6584,,,,,Little Angel Cakes,Other catering premises,7841,5,,682656,5,,,96172,228,environ.enforcement@broadland.gov.uk,Broadland,http://www.broadland.gov.uk,,,2014-06-11,fhrs_5_en-GB,5,,FHRS,5
6585,Travelodge,New Road,,Acle,Little Chef Travelodge,Restaurant/Cafe/Canteen,1,0,,690617,0,,52.63829100000000,3367,228,environ.enforcement@broadland.gov.uk,Broadland,http://www.broadland.gov.uk,1.55072700000000,NR13 3BE,2014-07-30,fhrs_5_en-GB,5,,FHRS,0
6586,Reedham C P School,School Hill,,Reedham,Little Ducklings Pre-School,School/college/university,7845,5,,726229,5,,52.56012800000000,97108,228,environ.enforcement@broadland.gov.uk,Broadland,http://www.broadland.gov.uk,1.57113300000000,NR13 3TJ,2014-12-04,fhrs_5_en-GB,5,,FHRS,5
6587,,,,,Little Gems Cakes and Cupcakes,Other catering premises,7841,5,,726227,0,,,96760,228,environ.enforcement@broadland.gov.uk,Broadland,http://www.broadland.gov.uk,,,2014-12-08,fhrs_5_en-GB,5,,FHRS,5
6588,,Crowes Loke,,Little Plumstead,Little Plumstead Village Hall,Other catering premises,7841,,,63758,,,52.65888200000000,1408,228,environ.enforcement@broadland.gov.uk,Broadland,http://www.broadland.gov.uk,1.41800300000000,NR13 5JB,2011-04-13,fhrs_exempt_en-GB,Exempt,,FHRS,
6589,,6 Market Place,,Aylsham,Lloyds Chemist,Retailers - other,4613,,,647449,,,52.79523800000000,3605,228,environ.enforcement@broadland.gov.uk,Broadland,http://www.broadland.gov.uk,1.25076700000000,NR11 6EH,2014-02-04,fhrs_exempt_en-GB,Exempt,,FHRS,
6590,,School Road,,Drayton,Lloyds Pharmacy,Retailers - other,4613,,,647446,,,52.67680000000000,3141,228,environ.enforcement@broadland.gov.uk,Broadland,http://www.broadland.gov.uk,1.22488500000000,NR8 6DN,,fhrs_exempt_en-GB,Exempt,,FHRS,
6591,,94 The Paddocks,,Old Catton,Lloyds Pharmacy,Retailers - other,4613,,,647444,,,52.66973000000000,3134,228,environ.enforcement@broadland.gov.uk,Broadland,http://www.broadland.gov.uk,1.30710800000000,NR6 7HS,,fhrs_exempt_en-GB,Exempt,,FHRS,
6592,,81 Middletons Lane,,Hellesdon,Lloyds Pharmacy,Retailers - other,4613,,,647445,,,52.66366100000000,3137,228,environ.enforcement@broadland.gov.uk,Broadland,http://www.broadland.gov.uk,1.26230200000000,NR6 5SR,,fhrs_exempt_en-GB,Exempt,,FHRS,
6593,,43 Cannerby Lane,,Sprowston,Londis News,Retailers - other,4613,5,,99470,5,,52.65447700000000,3147,228,environ.enforcement@broadland.gov.uk,Broadland,http://www.broadland.gov.uk,1.32348000000000,NR7 8NG,2012-10-23,fhrs_5_en-GB,5,,FHRS,0
6594,,47 South Hill Road,,Thorpe St Andrew,Londis Store,Retailers - other,4613,10,,95667,10,,52.63864000000000,2865,228,environ.enforcement@broadland.gov.uk,Broadland,http://www.broadland.gov.uk,1.35025000000000,NR7 0NG,2013-10-17,fhrs_3_en-GB,3,,FHRS,10
6595,,10 High Street,,Coltishall,Londis-Coltishall,Retailers - other,4613,5,,90447,5,,52.72814200000000,2464,228,environ.enforcement@broadland.gov.uk,Broadland,http://www.broadland.gov.uk,1.35829800000000,NR12 7DH,2014-01-03,fhrs_4_en-GB,4,,FHRS,10
6596,Longe Arms Public House,1 Crostwick Lane,,Spixworth,Longe Arms Public House,Pub/bar/nightclub,7843,5,,41085,5,,52.68804800000000,1021,228,environ.enforcement@broadland.gov.uk,Broadland,http://www.broadland.gov.uk,1.31809800000000,NR10 3PE,2013-05-21,fhrs_5_en-GB,5,,FHRS,0
6597,,,,,Lucie Loves To Bake,Other catering premises,7841,0,,731509,0,,,97200,228,environ.enforcement@broadland.gov.uk,Broadland,http://www.broadland.gov.uk,,,2015-01-23,fhrs_5_en-GB,5,,FHRS,0
6598,,13a Victoria Road,,Taverham,Lucky House,Takeaway/sandwich shop,7844,5,,110581,15,,52.68089300000000,4021,228,environ.enforcement@broadland.gov.uk,Broadland,http://www.broadland.gov.uk,1.20165800000000,NR8 6NU,2014-03-11,fhrs_2_en-GB,2,,FHRS,5
6599,,Woodbastwick Road,,Blofield Heath,Luncheon Club at Heathlands Community Centre,Other catering premises,7841,5,,50780,0,,52.65290300000000,1133,228,environ.enforcement@broadland.gov.uk,Broadland,http://www.broadland.gov.uk,1.43966100000000,NR13 4QH,2015-01-12,fhrs_5_en-GB,5,,FHRS,0
6600,,Salle Street,,Salle,Lynton White Institute,Other catering premises,7841,,,116256,,,52.78214400000000,4543,228,environ.enforcement@broadland.gov.uk,Broadland,http://www.broadland.gov.uk,1.12327300000000,NR10 4SD,2011-01-21,fhrs_exempt_en-GB,Exempt,,FHRS,
6601,Taverham Garden Centre,Fir Covert Road,,Taverham,Magnolia's Restaurant Ltd,Restaurant/Cafe/Canteen,1,5,,130340,10,,52.69339200000000,6149,228,environ.enforcement@broadland.gov.uk,Broadland,http://www.broadland.gov.uk,1.19170900000000,NR8 6HT,2014-08-13,fhrs_4_en-GB,4,,FHRS,5
6602,Maids Head,85 Spixworth Road,,Old Catton,Maids Head Public House,Pub/bar/nightclub,7843,10,,41922,5,,52.65964800000000,1037,228,environ.enforcement@broadland.gov.uk,Broadland,http://www.broadland.gov.uk,1.30162800000000,NR6 7NH,2014-06-16,fhrs_4_en-GB,4,,FHRS,5
6603,,Cranley Road,,Postwick,Makro Self Service Wholesalers,Distributors/Transporters,7,5,,122888,5,,52.63438400000000,51346,228,environ.enforcement@broadland.gov.uk,Broadland,http://www.broadland.gov.uk,1.37502500000000,NR7 0WE,2013-08-07,fhrs_5_en-GB,5,,FHRS,5
6604,Maltsters,The Hill,,Ranworth,Maltsters Public House,Pub/bar/nightclub,7843,10,,42212,10,,52.67605200000000,1042,228,environ.enforcement@broadland.gov.uk,Broadland,http://www.broadland.gov.uk,1.48861000000000,NR13 6AB,2013-10-22,fhrs_3_en-GB,3,,FHRS,10
6605,,,,,Manor Barn House Bed and Breakfast,Hotel/bed & breakfast/guest house,7842,5,,687692,5,,,5804,228,environ.enforcement@broadland.gov.uk,Broadland,http://www.broadland.gov.uk,,,2014-07-08,fhrs_5_en-GB,5,,FHRS,5
6606,Manor House,18 Yarmouth Road,,Blofield,Manor House Residential Home,Hospitals/Childcare/Caring Premises,5,5,,103303,5,,52.63311000000000,3468,228,environ.enforcement@broadland.gov.uk,Broadland,http://www.broadland.gov.uk,1.44143300000000,NR13 4JS,2014-11-18,fhrs_5_en-GB,5,,FHRS,5
6607,,,,,Margaret & Tony,Retailers - other,4613,5,,147245,0,,,91244,228,environ.enforcement@broadland.gov.uk,Broadland,http://www.broadland.gov.uk,,,2012-10-31,fhrs_5_en-GB,5,,FHRS,5
6608,,Yarmouth Road,,Blofield,Margaret Harker Hall,Other catering premises,7841,,,64147,,,52.63317500000000,1420,228,environ.enforcement@broadland.gov.uk,Broadland,http://www.broadland.gov.uk,1.44506000000000,NR13 4JU,2011-03-23,fhrs_exempt_en-GB,Exempt,,FHRS,
6609,,,,,Maria Clouting,Manufacturers/packers,7839,5,,88694,5,,,2338,228,environ.enforcement@broadland.gov.uk,Broadland,http://www.broadland.gov.uk,,,2015-01-12,fhrs_5_en-GB,5,,FHRS,5
6610,,165 Reepham Road,,Hellesdon,Marinara Kebab & Pizza House,Takeaway/sandwich shop,7844,10,,95959,10,,52.66384200000000,2890,228,environ.enforcement@broadland.gov.uk,Broadland,http://www.broadland.gov.uk,1.26423800000000,NR6 5NZ,2014-11-25,fhrs_3_en-GB,3,,FHRS,10
6611,,Wroxham Road,,Sprowston,Marriott Sprowston Manor Hotel,Hotel/bed & breakfast/guest house,7842,5,,101939,5,,52.66424500000000,3356,228,environ.enforcement@broadland.gov.uk,Broadland,http://www.broadland.gov.uk,1.34133700000000,NR7 8RP,2013-04-22,fhrs_5_en-GB,5,,FHRS,5
6612,Marsham Arms,Holt Road,,Hevingham,Marsham Arms Inn,Pub/bar/nightclub,7843,5,,358792,5,,52.73349500000000,1069,228,environ.enforcement@broadland.gov.uk,Broadland,http://www.broadland.gov.uk,1.21958900000000,NR10 5NP,2013-11-05,fhrs_5_en-GB,5,,FHRS,0
6613,Village Hall,High Street,,Marsham,Marsham Village Hall,Other catering premises,7841,,,64736,,,52.76929500000000,1445,228,environ.enforcement@broadland.gov.uk,Broadland,http://www.broadland.gov.uk,1.25163500000000,NR10 5AE,2011-01-14,fhrs_exempt_en-GB,Exempt,,FHRS,
6614,,6 - 8 Norwich Road,,Aylsham,Martins,Retailers - other,4613,,,682636,,,52.79412300000000,2936,228,environ.enforcement@broadland.gov.uk,Broadland,http://www.broadland.gov.uk,1.25172300000000,NR11 6BN,2014-05-29,fhrs_exempt_en-GB,Exempt,,FHRS,
6615,,55 Fakenham Road,,Great Witchingham,Maxims Craft - Cafe,Restaurant/Cafe/Canteen,1,5,,51624,5,,52.72239300000000,1158,228,environ.enforcement@broadland.gov.uk,Broadland,http://www.broadland.gov.uk,1.10381800000000,NR9 5AE,2014-03-19,fhrs_4_en-GB,4,,FHRS,10
6616,Mazzonis Newsagents,79A Gordon Avenue,,Thorpe St Andrew,Mazzoni's Newsagents,Retailers - other,4613,0,,96489,0,,52.63440300000000,2938,228,environ.enforcement@broadland.gov.uk,Broadland,http://www.broadland.gov.uk,1.33882400000000,NR7 0DR,2014-08-14,fhrs_5_en-GB,5,,FHRS,0
6617,,154 Crown Road,,Buxton With Lamas,McColls,Retailers - other,4613,10,,95230,5,,52.75409000000000,2823,228,environ.enforcement@broadland.gov.uk,Broadland,http://www.broadland.gov.uk,1.30322700000000,NR10 5EN,2012-10-31,fhrs_4_en-GB,4,,FHRS,5
6618,,Yarmouth Road,,Blofield,McDonalds,Restaurant/Cafe/Canteen,1,5,,142396,5,,52.63193300000000,791,228,environ.enforcement@broadland.gov.uk,Broadland,http://www.broadland.gov.uk,1.42805100000000,NR13 5AR,2013-04-23,fhrs_5_en-GB,5,,FHRS,0
6619,,Drayton High Road,,Hellesdon,McDonalds Restaurants Ltd,Takeaway/sandwich shop,7844,5,,128960,5,,52.65302800000000,59280,228,environ.enforcement@broadland.gov.uk,Broadland,http://www.broadland.gov.uk,1.26207200000000,NR6 5DT,2013-03-21,fhrs_5_en-GB,5,,FHRS,0
6620,Mcdonalds Restaurants Ltd,Boundary Road,,Hellesdon,McDonalds Restaurants Ltd,Takeaway/sandwich shop,7844,0,,142995,5,,52.65438700000000,801,228,environ.enforcement@broadland.gov.uk,Broadland,http://www.broadland.gov.uk,1.26856200000000,NR6 5JB,2013-03-14,fhrs_5_en-GB,5,,FHRS,5
6621,Mead Lodge Residential Home,Crown Road,,Buxton With Lamas,Mead Lodge Residential Home,Hospitals/Childcare/Caring Premises,5,5,,103223,5,,52.75314500000000,3460,228,environ.enforcement@broadland.gov.uk,Broadland,http://www.broadland.gov.uk,1.30068000000000,NR10 5EH,2014-11-14,fhrs_5_en-GB,5,,FHRS,0
6622,,Chapel Court,,Hellesdon,Meadow Way Chapel,Other catering premises,7841,5,,113384,0,,52.66476400000000,4243,228,environ.enforcement@broadland.gov.uk,Broadland,http://www.broadland.gov.uk,1.26569800000000,NR6 5NW,2014-09-19,fhrs_5_en-GB,5,,FHRS,0
6623,Iona,Market Place,,Reepham,Meloncaulie Rose - Greengrocer,Retailers - other,4613,10,,666561,10,,52.76269800000000,3128,228,environ.enforcement@broadland.gov.uk,Broadland,http://www.broadland.gov.uk,1.11073200000000,NR10 4JJ,2014-05-23,fhrs_4_en-GB,4,,FHRS,0
6624,Merrywood House,Berrys Lane,,Honingham,Merrywood House,Hospitals/Childcare/Caring Premises,5,0,,75185,5,,52.66472400000000,175,228,environ.enforcement@broadland.gov.uk,Broadland,http://www.broadland.gov.uk,1.09678400000000,NR9 5AX,2013-04-03,fhrs_5_en-GB,5,,FHRS,0
6625,Adult Education Centre,Longfields Road,,Thorpe St Andrew,Messy Church,Other catering premises,7841,5,,462876,5,,52.63965300000000,94232,228,environ.enforcement@broadland.gov.uk,Broadland,http://www.broadland.gov.uk,1.35386100000000,NR7 0NB,2014-12-05,fhrs_5_en-GB,5,,FHRS,0
6626,Deighton Hills,Fakenham Road,,Taverham,Mid Norfolk Shooting School,Pub/bar/nightclub,7843,10,,693909,15,,52.69594400000000,57320,228,environ.enforcement@broadland.gov.uk,Broadland,http://www.broadland.gov.uk,1.17941600000000,NR8 6HS,2014-08-15,fhrs_2_en-GB,2,,FHRS,15
6627,,,,,Milestones Hospital,Hospitals/Childcare/Caring Premises,5,,,323773,,,,13204,228,environ.enforcement@broadland.gov.uk,Broadland,http://www.broadland.gov.uk,,,2012-03-26,fhrs_exempt_en-GB,Exempt,,FHRS,
6628,Mill House Nursing Home,Mill Road,,Horstead With Stanninghall,Mill House Nursing Home,Hospitals/Childcare/Caring Premises,5,10,,102941,5,,52.72489600000000,3436,228,environ.enforcement@broadland.gov.uk,Broadland,http://www.broadland.gov.uk,1.35351600000000,NR12 7AT,2014-01-27,fhrs_4_en-GB,4,,FHRS,5
6629,Mill House,Acle New Road,,Halvergate,Mill Tea Room,Restaurant/Cafe/Canteen,1,20,,700834,15,,52.62332900000000,19793,228,environ.enforcement@broadland.gov.uk,Broadland,http://www.broadland.gov.uk,1.60590000000000,NR13 3QE,2014-07-31,fhrs_1_en-GB,1,,FHRS,15
6630,Millovan Ltd.,236 Fakenham Road,,Taverham,Millavon Ltd,Retailers - other,4613,5,,552145,5,,52.68561500000000,2849,228,environ.enforcement@broadland.gov.uk,Broadland,http://www.broadland.gov.uk,1.20196000000000,NR8 6QW,2013-05-16,fhrs_5_en-GB,5,,FHRS,5
6631,Moorsticks,Buxton Road,,Spixworth,Moorsticks Jam Jar,Hotel/bed & breakfast/guest house,7842,5,,682658,0,,,96268,228,environ.enforcement@broadland.gov.uk,Broadland,http://www.broadland.gov.uk,,NR10 3FJ,2014-06-25,fhrs_5_en-GB,5,,FHRS,0
6632,Honingham Thorpe Farm,Norwich Road,,Honingham,Mr Alston,Distributors/Transporters,7,,,102240,,,52.64655900000000,33839,228,environ.enforcement@broadland.gov.uk,Broadland,http://www.broadland.gov.uk,1.11287200000000,NR9 5BZ,,fhrs_exempt_en-GB,Exempt,,FHRS,
6633,,,,,Mr Porky's,Mobile caterer,7846,10,,146252,15,,,88742,228,environ.enforcement@broadland.gov.uk,Broadland,http://www.broadland.gov.uk,,,2013-02-15,fhrs_2_en-GB,2,,FHRS,5
6634,,Blickling Hall,,Blickling,"Muddy Boots Cafe, Estate Barn",Restaurant/Cafe/Canteen,1,0,,148025,5,,52.81064700000000,92067,228,environ.enforcement@broadland.gov.uk,Broadland,http://www.broadland.gov.uk,1.22858600000000,NR11 6NF,2014-05-08,fhrs_4_en-GB,4,,FHRS,10
6635,,,,,Mumma Jubbz,Other catering premises,7841,5,,719661,5,,,96912,228,environ.enforcement@broadland.gov.uk,Broadland,http://www.broadland.gov.uk,,,2014-11-18,fhrs_5_en-GB,5,,FHRS,0
6636,,88-92 Holt Road,,Horsford,NAGA,Takeaway/sandwich shop,7844,5,,100250,5,,52.69717700000000,3213,228,environ.enforcement@broadland.gov.uk,Broadland,http://www.broadland.gov.uk,1.24538100000000,NR10 3DE,2014-12-11,fhrs_5_en-GB,5,,FHRS,5
6637,Blickling Hall,Blickling Road,,Blickling,National Trust Restaurant,Restaurant/Cafe/Canteen,1,10,,143109,5,,52.81064700000000,803,228,environ.enforcement@broadland.gov.uk,Broadland,http://www.broadland.gov.uk,1.22858600000000,NR11 6NF,2014-12-05,fhrs_2_en-GB,2,,FHRS,15
6638,,,,,Neil's Choice - Mobile,Retailers - other,4613,5,,726224,5,,,940,228,environ.enforcement@broadland.gov.uk,Broadland,http://www.broadland.gov.uk,,,2014-12-11,fhrs_4_en-GB,4,,FHRS,10
6639,,329 Fakenham Road,,Taverham,New Boundaries Community Services Ltd,Hospitals/Childcare/Caring Premises,5,5,,693905,5,,52.68743300000000,22898,228,environ.enforcement@broadland.gov.uk,Broadland,http://www.broadland.gov.uk,1.19325700000000,NR8 6LG,2014-08-15,fhrs_5_en-GB,5,,FHRS,5
6640,,331 Fakenham Road,,Taverham,New Boundaries Community Services Ltd,Hospitals/Childcare/Caring Premises,5,,,99435,,,52.68743300000000,31418,228,environ.enforcement@broadland.gov.uk,Broadland,http://www.broadland.gov.uk,1.19325700000000,NR8 6LG,2011-05-17,fhrs_4_en-GB,4,,FHRS,
6641,,27 Sutherland Avenue,,Hellesdon,New Boundaries Community Services Ltd,Hospitals/Childcare/Caring Premises,5,5,,118407,5,,52.65870900000000,47734,228,environ.enforcement@broadland.gov.uk,Broadland,http://www.broadland.gov.uk,1.26709500000000,NR6 5LN,2011-11-04,fhrs_5_en-GB,5,,FHRS,0
6642,,2 Lloyd Road,,Taverham,New Boundaries Community Services Ltd,Hospitals/Childcare/Caring Premises,5,5,,52007,5,,52.68502600000000,11700,228,environ.enforcement@broadland.gov.uk,Broadland,http://www.broadland.gov.uk,1.19312600000000,NR8 6LL,2011-03-29,fhrs_5_en-GB,5,,FHRS,0
6643,,45 Harlington Avenue,,Hellesdon,New Boundaries Community Services Ltd,Hospitals/Childcare/Caring Premises,5,5,,141275,0,,52.65944400000000,77688,228,environ.enforcement@broadland.gov.uk,Broadland,http://www.broadland.gov.uk,1.26880600000000,NR6 5LJ,2011-11-04,fhrs_5_en-GB,5,,FHRS,0
6644,Boundary House,Haveringland Road,,Felthorpe,New Boundaries Community Services Ltd,Hospitals/Childcare/Caring Premises,5,5,,103370,5,,52.71477800000000,3472,228,environ.enforcement@broadland.gov.uk,Broadland,http://www.broadland.gov.uk,1.22260800000000,NR10 4BZ,2013-11-04,fhrs_4_en-GB,4,,FHRS,10
6645,Pine Tops,66 The Street,,Felthorpe,New Boundaries Community Services Ltd,Hospitals/Childcare/Caring Premises,5,5,,682652,5,,52.71666800000000,93559,228,environ.enforcement@broadland.gov.uk,Broadland,http://www.broadland.gov.uk,1.20866300000000,NR10 4DQ,2014-07-04,fhrs_5_en-GB,5,,FHRS,5
6646,Shalimar,Beech Avenue,,Taverham,New Boundaries Community Services Ltd,Hospitals/Childcare/Caring Premises,5,5,,121054,5,,52.68729900000000,4984,228,environ.enforcement@broadland.gov.uk,Broadland,http://www.broadland.gov.uk,1.18855600000000,NR8 6HP,2012-04-17,fhrs_5_en-GB,5,,FHRS,5
6647,,204 Thunder Lane,,Thorpe St Andrew,New China,Takeaway/sandwich shop,7844,10,,94381,15,,52.63943800000000,2757,228,environ.enforcement@broadland.gov.uk,Broadland,http://www.broadland.gov.uk,1.34302200000000,NR7 0AB,2014-03-26,fhrs_2_en-GB,2,,FHRS,15
6648,,72 The Street,,Brundall,New World Takeaway,Takeaway/sandwich shop,7844,5,,95902,5,,52.62461600000000,2884,228,environ.enforcement@broadland.gov.uk,Broadland,http://www.broadland.gov.uk,1.43228200000000,NR13 5LH,2014-11-26,fhrs_5_en-GB,5,,FHRS,5
6649,Nightingale First School,Nightingale Drive,,Taverham,Nightingale First School,School/college/university,7845,5,,145685,0,,52.68223300000000,870,228,environ.enforcement@broadland.gov.uk,Broadland,http://www.broadland.gov.uk,1.19432800000000,NR8 6LA,2013-11-22,fhrs_5_en-GB,5,,FHRS,5
6650,,,,,Norfolk Bakes,Other catering premises,7841,5,,687693,5,,,95978,228,environ.enforcement@broadland.gov.uk,Broadland,http://www.broadland.gov.uk,,,2014-07-16,fhrs_5_en-GB,5,,FHRS,0
6651,Norfolk Broads Yacht Club,The Avenue,,Wroxham,Norfolk Broads Yacht Club,Pub/bar/nightclub,7843,5,,50745,5,,52.69987600000000,1132,228,environ.enforcement@broadland.gov.uk,Broadland,http://www.broadland.gov.uk,1.40927500000000,NR12 8TS,2013-05-08,fhrs_5_en-GB,5,,FHRS,5
6652,Next to Fire Station,Cawston Road,,Aylsham,Norfolk Civil Protection Volunteers,Other catering premises,7841,5,,222869,0,,52.79493500000000,1449,228,environ.enforcement@broadland.gov.uk,Broadland,http://www.broadland.gov.uk,1.24899400000000,NR11 6BX,2012-03-29,fhrs_5_en-GB,5,,FHRS,0
6653,,5 Mill Close,,Aylsham,Norfolk Community Health & Care NHS Trust Squirrels,Hospitals/Childcare/Caring Premises,5,,,552146,,,52.79405800000000,3488,228,environ.enforcement@broadland.gov.uk,Broadland,http://www.broadland.gov.uk,1.23900300000000,NR11 6LZ,2013-11-13,fhrs_5_en-GB,5,,FHRS,
6654,,Weston Park,,Weston Longville,Norfolk Dinosaur Park Limited,Restaurant/Cafe/Canteen,1,5,,95453,5,,52.71052400000000,28430,228,environ.enforcement@broadland.gov.uk,Broadland,http://www.broadland.gov.uk,1.12118800000000,NR9 5JW,2013-11-01,fhrs_5_en-GB,5,,FHRS,5
6655,"Unit 1, The Field",Fir Covert Road,,Taverham,Norfolk Farm Shop,Retailers - other,4613,10,,96340,5,,52.69365100000000,29189,228,environ.enforcement@broadland.gov.uk,Broadland,http://www.broadland.gov.uk,1.18978900000000,NR8 6HT,2014-06-04,fhrs_4_en-GB,4,,FHRS,5
6656,The Norfolk Mead Hotel,Church Loke,,Coltishall,Norfolk Mead Hotel,Restaurant/Cafe/Canteen,1,20,,101872,15,,52.72551100000000,3352,228,environ.enforcement@broadland.gov.uk,Broadland,http://www.broadland.gov.uk,1.36166600000000,NR12 7DN,2014-06-25,fhrs_1_en-GB,1,,FHRS,10
6657,,Broadland Conservation Centre,,Ranworth,Norfolk Wildlife Trust Visitors Centre,Retailers - other,4613,0,,690621,0,,52.67774600000000,5613,228,environ.enforcement@broadland.gov.uk,Broadland,http://www.broadland.gov.uk,1.48636200000000,NR13 6HT,2014-08-01,fhrs_5_en-GB,5,,FHRS,0
6658,,Cucumber Lane,,Brundall,Norse Care at Springdale Residential Home,Hospitals/Childcare/Caring Premises,5,5,,103519,5,,52.62666700000000,3482,228,environ.enforcement@broadland.gov.uk,Broadland,http://www.broadland.gov.uk,1.42604300000000,NR13 5QY,2014-10-29,fhrs_5_en-GB,5,,FHRS,0
6659,Acle St Edmund Primary School,Fletcher Way,,Acle,Norse Commercial Services at Acle St Edmund Primary School,School/college/university,7845,5,,109793,5,,52.64190400000000,3973,228,environ.enforcement@broadland.gov.uk,Broadland,http://www.broadland.gov.uk,1.55530800000000,NR13 3RQ,2013-11-15,fhrs_5_en-GB,5,,FHRS,5
6660,Arden Grove First School,Arden Grove,,Hellesdon,Norse Commercial Services at Arden Grove Infant & Nursery School,School/college/university,7845,5,,144223,0,,52.67085000000000,826,228,environ.enforcement@broadland.gov.uk,Broadland,http://www.broadland.gov.uk,1.25696500000000,NR6 6QA,2013-11-04,fhrs_5_en-GB,5,,FHRS,0
6661,Aylsham High School,Sir Williams Lane,,Aylsham,Norse Commercial Services at Aylsham High School,School/college/university,7845,10,,146134,5,,52.79615200000000,884,228,environ.enforcement@broadland.gov.uk,Broadland,http://www.broadland.gov.uk,1.25775000000000,NR11 6AN,2013-07-02,fhrs_4_en-GB,4,,FHRS,5
6662,Blofield C P School,North Street,,Blofield,Norse Commercial Services at Blofield Primary School,School/college/university,7845,5,,145714,5,,52.63739200000000,871,228,environ.enforcement@broadland.gov.uk,Broadland,http://www.broadland.gov.uk,1.44757900000000,NR13 4RH,2014-11-18,fhrs_5_en-GB,5,,FHRS,5
6663,Brundall County Primary School,Braydeston Avenue,,Brundall,Norse Commercial Services at Brundall County Primary School,School/college/university,7845,5,,144396,5,,52.62162700000000,830,228,environ.enforcement@broadland.gov.uk,Broadland,http://www.broadland.gov.uk,1.43856600000000,NR13 5JX,2013-11-08,fhrs_5_en-GB,5,,FHRS,5
6664,Bure Valley School,Hungate Street,,Aylsham,Norse Commercial Services at Bure Valley School,School/college/university,7845,5,,145208,0,,52.78860700000000,855,228,environ.enforcement@broadland.gov.uk,Broadland,http://www.broadland.gov.uk,1.24988700000000,NR11 6JZ,2013-11-08,fhrs_5_en-GB,5,,FHRS,0
6665,,Saint Faiths Road,,Old Catton,Norse Commercial Services at Catton Hall Special School,School/college/university,7845,5,,101988,5,,52.66078000000000,3360,228,environ.enforcement@broadland.gov.uk,Broadland,http://www.broadland.gov.uk,1.29585600000000,NR6 7AD,2013-10-24,fhrs_5_en-GB,5,,FHRS,5
6666,,Falcon Road West,,Sprowston,Norse Commercial Services at Cecil Gowing Infant School,School/college/university,7845,10,,144912,0,,52.65228700000000,846,228,environ.enforcement@broadland.gov.uk,Broadland,http://www.broadland.gov.uk,1.32844600000000,NR7 8NZ,2013-09-27,fhrs_4_en-GB,4,,FHRS,0
6667,Coltishall C P School,Saint Johns Close,,Coltishall,Norse Commercial Services at Coltishall Primary School,School/college/university,7845,5,,130621,5,,52.73076000000000,6191,228,environ.enforcement@broadland.gov.uk,Broadland,http://www.broadland.gov.uk,1.36335900000000,NR12 7HA,2013-11-08,fhrs_5_en-GB,5,,FHRS,5
6668,,School Road,,Drayton,Norse Commercial Services at Drayton Community Infant School,School/college/university,7845,5,,145930,5,,52.67908900000000,878,228,environ.enforcement@broadland.gov.uk,Broadland,http://www.broadland.gov.uk,1.22471300000000,NR8 6EF,2013-11-18,fhrs_5_en-GB,5,,FHRS,0
6669,Dussindale Primary School,Vane Close,,Thorpe St Andrew,Norse Commercial Services at Dussindale Primary School,School/college/university,7845,5,,145712,0,,52.63206400000000,87087,228,environ.enforcement@broadland.gov.uk,Broadland,http://www.broadland.gov.uk,1.36297700000000,NR7 0US,2013-11-08,fhrs_5_en-GB,5,,FHRS,5
6670,,School Road,,South Walsham,Norse Commercial Services at Fairhaven Primary School,School/college/university,7845,5,,146577,0,,52.66592900000000,898,228,environ.enforcement@broadland.gov.uk,Broadland,http://www.broadland.gov.uk,1.50672400000000,NR13 6DZ,2013-07-24,fhrs_5_en-GB,5,,FHRS,0
6671,,Falcon Road West,,Sprowston,Norse Commercial Services at Falcon Junior School,School/college/university,7845,5,,144827,5,,52.65133900000000,844,228,environ.enforcement@broadland.gov.uk,Broadland,http://www.broadland.gov.uk,1.32827000000000,NR7 8NT,2013-10-21,fhrs_5_en-GB,5,,FHRS,5
6672,Firside Junior School,Middletons Lane,,Hellesdon,Norse Commercial Services at Firside Junior School,School/college/university,7845,5,,145520,0,,52.66802300000000,865,228,environ.enforcement@broadland.gov.uk,Broadland,http://www.broadland.gov.uk,1.27012800000000,NR6 5NF,2013-07-22,fhrs_5_en-GB,5,,FHRS,5
6673,Foulsham C P School,5-7 High Street,,Foulsham,Norse Commercial Services at Foulsham Primary School,School/college/university,7845,5,,146346,0,,52.78282300000000,890,228,environ.enforcement@broadland.gov.uk,Broadland,http://www.broadland.gov.uk,1.01116400000000,NR20 5RT,2013-07-02,fhrs_5_en-GB,5,,FHRS,0
6674,,The Green,,Freethorpe,Norse Commercial Services at Freethorpe Primary School,School/college/university,7845,5,,146501,0,,52.58783600000000,895,228,environ.enforcement@broadland.gov.uk,Broadland,http://www.broadland.gov.uk,1.55960900000000,NR13 3NZ,2013-12-12,fhrs_5_en-GB,5,,FHRS,5
6675,,20 School Road,,Frettenham,Norse Commercial Services at Frettenham Primary Partnership School,School/college/university,7845,5,,145992,0,,52.70923800000000,880,228,environ.enforcement@broadland.gov.uk,Broadland,http://www.broadland.gov.uk,1.32577800000000,NR12 7LL,2013-10-24,fhrs_5_en-GB,5,,FHRS,0
6676,,Garrick Green,,Old Catton,Norse Commercial Services at Garrick Green Infant School,School/college/university,7845,5,,145034,0,,52.66324400000000,849,228,environ.enforcement@broadland.gov.uk,Broadland,http://www.broadland.gov.uk,1.29716500000000,NR6 7AL,2013-10-24,fhrs_5_en-GB,5,,FHRS,5
6677,Ghost Hill First And Nursery S,Eastfield,,Taverham,Norse Commercial Services at Ghost Hill First School,School/college/university,7845,5,,187651,0,,52.67917100000000,843,228,environ.enforcement@broadland.gov.uk,Broadland,http://www.broadland.gov.uk,1.20779100000000,NR8 6PJ,2013-07-24,fhrs_5_en-GB,5,,FHRS,0
6678,Hainford Vc First School,Newton Road,,Hainford,Norse Commercial Services at Hainford Primary Partnership School,School/college/university,7845,5,,145640,5,,52.72291400000000,869,228,environ.enforcement@broadland.gov.uk,Broadland,http://www.broadland.gov.uk,1.29079600000000,NR10 3BQ,2013-11-13,fhrs_5_en-GB,5,,FHRS,0
6679,Heather Avenue Infant School,Heather Avenue,,Hellesdon,Norse Commercial Services at Heather Avenue Infant Schoo,School/college/university,7845,5,,609521,5,,52.66055700000000,852,228,environ.enforcement@broadland.gov.uk,Broadland,http://www.broadland.gov.uk,1.27277900000000,NR6 6LS,2013-11-04,fhrs_5_en-GB,5,,FHRS,5
6680,Hillside Avenue School,Hillside Avenue,,Thorpe St Andrew,Norse Commercial Services at Hillside Avenue School,School/college/university,7845,5,,145158,5,,52.62892000000000,853,228,environ.enforcement@broadland.gov.uk,Broadland,http://www.broadland.gov.uk,1.35015700000000,NR7 0QW,2013-11-21,fhrs_5_en-GB,5,,FHRS,0
6681,Kinsale Middle School,Kinsale Avenue,,Hellesdon,Norse Commercial Services at Kinsale Junior School,School/college/university,7845,5,,145334,0,,52.66090100000000,859,228,environ.enforcement@broadland.gov.uk,Broadland,http://www.broadland.gov.uk,1.25934500000000,NR6 5SG,2013-11-04,fhrs_5_en-GB,5,,FHRS,5
6682,Lodge Lane Infant School,Lodge Lane,,Old Catton,Norse Commercial Services at Lodge Lane Infant School,School/college/university,7845,5,,145399,0,,52.66770700000000,861,228,environ.enforcement@broadland.gov.uk,Broadland,http://www.broadland.gov.uk,1.30225000000000,NR6 7HL,2013-07-22,fhrs_5_en-GB,5,,FHRS,0
6683,,Church Street,,Old Catton,Norse Commercial Services at Old Catton Junior School,School/college/university,7845,5,,144701,5,,52.66144000000000,840,228,environ.enforcement@broadland.gov.uk,Broadland,http://www.broadland.gov.uk,1.30157000000000,NR6 7DS,2013-10-24,fhrs_5_en-GB,5,,FHRS,0
6684,Rackheath Primary School,Willoughby Way,,Rackheath,Norse Commercial Services at Rackheath Primary School,School/college/university,7845,5,,127031,5,,52.66454400000000,56074,228,environ.enforcement@broadland.gov.uk,Broadland,http://www.broadland.gov.uk,1.37739500000000,NR13 6SL,2013-11-21,fhrs_5_en-GB,5,,FHRS,5
6685,Redmayne View,White Woman Lane,,Sprowston,Norse Commercial Services at Redmayne View,Hospitals/Childcare/Caring Premises,5,5,,122476,5,,52.66798200000000,50964,228,environ.enforcement@broadland.gov.uk,Broadland,http://www.broadland.gov.uk,1.31398800000000,NR6 7PX,2014-12-02,fhrs_5_en-GB,5,,FHRS,0
6686,Reedham C P School,School Hill,,Reedham,Norse Commercial Services at Reedham County Primary School,School/college/university,7845,5,,146033,5,,52.56012800000000,881,228,environ.enforcement@broadland.gov.uk,Broadland,http://www.broadland.gov.uk,1.57113300000000,NR13 3TJ,2013-07-16,fhrs_5_en-GB,5,,FHRS,0
6687,,Whitwell Road,,Reepham,Norse Commercial Services at Reepham High School & College,School/college/university,7845,5,,144432,5,,52.75413700000000,831,228,environ.enforcement@broadland.gov.uk,Broadland,http://www.broadland.gov.uk,1.18387800000000,NR10 4HB,2014-01-29,fhrs_5_en-GB,5,,FHRS,5
6688,Salhouse V C Primary School,Cheyney Avenue,,Salhouse,Norse Commercial Services at Salhouse V C Primary School,School/college/university,7845,5,,144611,0,,52.67722900000000,837,228,environ.enforcement@broadland.gov.uk,Broadland,http://www.broadland.gov.uk,1.41520500000000,NR13 6RJ,2013-11-21,fhrs_5_en-GB,5,,FHRS,0
6689,Sparhawk First School,Sparhawk Avenue,,Sprowston,Norse Commercial Services at Sparhawk Infant & Nursery School,School/college/university,7845,10,,146199,0,,52.65741200000000,886,228,environ.enforcement@broadland.gov.uk,Broadland,http://www.broadland.gov.uk,1.32720900000000,NR7 8BU,2013-09-30,fhrs_4_en-GB,4,,FHRS,0
6690,Spixworth First School,Ivy Road,,Spixworth,Norse Commercial Services at Spixworth Infant School,School/college/university,7845,5,,145305,0,,52.69050100000000,858,228,environ.enforcement@broadland.gov.uk,Broadland,http://www.broadland.gov.uk,1.31821000000000,NR10 3PX,2013-11-21,fhrs_5_en-GB,5,,FHRS,0
6691,Sprowston Infant School,Recreation Ground Road,,Sprowston,Norse Commercial Services at Sprowston Infant School,School/college/university,7845,5,,145767,5,,52.65623700000000,873,228,environ.enforcement@broadland.gov.uk,Broadland,http://www.broadland.gov.uk,1.31684000000000,NR7 8EW,2014-11-18,fhrs_5_en-GB,5,,FHRS,0
6692,Sprowston Junior School,Recreation Ground Road,,Sprowston,Norse Commercial Services at Sprowston Junior School,School/college/university,7845,5,,145739,5,,52.65623700000000,872,228,environ.enforcement@broadland.gov.uk,Broadland,http://www.broadland.gov.uk,1.31684000000000,NR7 8EW,2013-10-21,fhrs_5_en-GB,5,,FHRS,5
6693,,25 Manor Road,,Horsham St Faith,Norse Commercial Services at St Faiths Church of England VC Primary Sc,School/college/university,7845,5,,543265,5,,52.69523800000000,823,228,environ.enforcement@broadland.gov.uk,Broadland,http://www.broadland.gov.uk,1.28246600000000,NR10 3LF,2013-11-21,fhrs_5_en-GB,5,,FHRS,5
6694,St Williams Primary School,Williams Loke,,Thorpe St Andrew,Norse Commercial Services at St Williams Primary School,School/college/university,7845,5,,146304,5,,52.63726600000000,889,228,environ.enforcement@broadland.gov.uk,Broadland,http://www.broadland.gov.uk,1.33712100000000,NR7 0AJ,2013-12-03,fhrs_4_en-GB,4,,FHRS,10
6695,St Michaels V C First School,Schoolhouse Lane,,Aylsham,Norse Commercial Services at St. Michaels Infant & Nursery School,School/college/university,7845,10,,146094,0,,52.79650900000000,883,228,environ.enforcement@broadland.gov.uk,Broadland,http://www.broadland.gov.uk,1.24934900000000,NR11 6EX,2013-11-08,fhrs_4_en-GB,4,,FHRS,0
6696,,Taverham Road,,Taverham,Norse Commercial Services at Taverham Junior School,School/college/university,7845,5,,146226,0,,52.67846700000000,887,228,environ.enforcement@broadland.gov.uk,Broadland,http://www.broadland.gov.uk,1.19958700000000,NR8 6SX,2014-11-24,fhrs_5_en-GB,5,,FHRS,0
6697,White Woman Lane Junior School,White Woman Lane,,Sprowston,Norse Commercial Services at White Woman Lane Junior School,School/college/university,7845,5,,146868,5,,52.66633400000000,901,228,environ.enforcement@broadland.gov.uk,Broadland,http://www.broadland.gov.uk,1.30892200000000,NR6 7JA,2013-10-21,fhrs_5_en-GB,5,,FHRS,5
6698,Woodland View Junior School,Ivy Road,,Spixworth,Norse Commercial Services at Woodland View Junior School,School/college/university,7845,5,,145277,0,,52.69172400000000,857,228,environ.enforcement@broadland.gov.uk,Broadland,http://www.broadland.gov.uk,1.32076000000000,NR10 3PY,2013-11-21,fhrs_5_en-GB,5,,FHRS,0
6699,,Mill Lane,,Horsford,Norse Commercial Services for Horsford C of E Junior School,School/college/university,7845,10,,145552,0,,52.70419500000000,866,228,environ.enforcement@broadland.gov.uk,Broadland,http://www.broadland.gov.uk,1.24199300000000,NR10 3ES,2013-04-17,fhrs_4_en-GB,4,,FHRS,0
6700,,Holt Road,,Horsford,Norse Commercial Services Ltd at Horsford  C E Infant School,School/college/university,7845,5,,145183,0,,52.69931300000000,854,228,environ.enforcement@broadland.gov.uk,Broadland,http://www.broadland.gov.uk,1.24291900000000,NR10 3DN,2013-11-21,fhrs_5_en-GB,5,,FHRS,0
6701,Drayton Middle School,School Road,,Drayton,Norse Commercial Services Ltd for Drayton Junior School,School/college/university,7845,5,,145953,5,,52.67908900000000,879,228,environ.enforcement@broadland.gov.uk,Broadland,http://www.broadland.gov.uk,1.22471300000000,NR8 6EF,2013-11-18,fhrs_5_en-GB,5,,FHRS,5
6702,Green Lane View,Saint Michaels Avenue,,Aylsham,Norse Commerical Services,Restaurant/Cafe/Canteen,1,5,,358805,5,,,93561,228,environ.enforcement@broadland.gov.uk,Broadland,http://www.broadland.gov.uk,,NR11 6GA,2013-12-13,fhrs_5_en-GB,5,,FHRS,0
6703,,Station Road,,Lingwood,Norse Commerical Services at Lingwood Primary School,School/college/university,7845,5,,729383,5,,52.61961600000000,96725,228,environ.enforcement@broadland.gov.uk,Broadland,http://www.broadland.gov.uk,1.48274200000000,NR13 4NX,2014-12-16,fhrs_5_en-GB,5,,FHRS,5
6704,,Lenwade Street,,Great Witchingham,Norse Commerical Services Ltd at Great Witchingham Primary School,School/college/university,7845,5,,552148,5,,52.72125900000000,893,228,environ.enforcement@broadland.gov.uk,Broadland,http://www.broadland.gov.uk,1.10727700000000,NR9 5SD,2013-11-29,fhrs_5_en-GB,5,,FHRS,5
6705,,2 Links Avenue,,Hellesdon,Northgate House Residential Home,Hospitals/Childcare/Caring Premises,5,20,,103094,15,,52.66295100000000,3450,228,environ.enforcement@broadland.gov.uk,Broadland,http://www.broadland.gov.uk,1.26325500000000,NR6 5PE,2014-08-12,fhrs_1_en-GB,1,,FHRS,15
6706,Norvic Clinic,Northside,,Thorpe St Andrew,Norvic Clinic,Hospitals/Childcare/Caring Premises,5,5,,188424,5,,52.63240100000000,43861,228,environ.enforcement@broadland.gov.uk,Broadland,http://www.broadland.gov.uk,1.36854600000000,NR7 0HT,2013-08-01,fhrs_5_en-GB,5,,FHRS,0
6707,Sports Pavilion,Ferry Lane,,Postwick,Norwich Cricket Club,Other catering premises,7841,,,51463,,,52.61966100000000,1153,228,environ.enforcement@broadland.gov.uk,Broadland,http://www.broadland.gov.uk,1.39261500000000,NR13 5HL,2010-12-14,fhrs_exempt_en-GB,Exempt,,FHRS,
6708,Norwich Rugby Football Club,North Walsham Road,,Beeston St Andrew,Norwich Rugby Football Club,Other catering premises,7841,20,,596059,5,,52.67272900000000,1149,228,environ.enforcement@broadland.gov.uk,Broadland,http://www.broadland.gov.uk,1.32303200000000,NR12 7BW,2013-10-15,fhrs_1_en-GB,1,,FHRS,10
6709,,321 Fakenham Road,,Taverham,Oak Court,Hospitals/Childcare/Caring Premises,5,5,,700835,5,,52.68662600000000,2514,228,environ.enforcement@broadland.gov.uk,Broadland,http://www.broadland.gov.uk,1.19583300000000,NR8 6LF,2014-09-12,fhrs_5_en-GB,5,,FHRS,5
6710,Oak House,17 High Street,,Cawston,Oak House Bed and Breakfast,Hotel/bed & breakfast/guest house,7842,5,,703913,0,,52.77044300000000,96602,228,environ.enforcement@broadland.gov.uk,Broadland,http://www.broadland.gov.uk,1.16368600000000,NR10 4AE,2014-09-18,fhrs_5_en-GB,5,,FHRS,0
6711,,89 Yarmouth Road,,Thorpe St Andrew,Oaklands Hotel,Hotel/bed & breakfast/guest house,7842,5,,101861,5,,52.62683500000000,3351,228,environ.enforcement@broadland.gov.uk,Broadland,http://www.broadland.gov.uk,1.34374600000000,NR7 0HH,2014-02-27,fhrs_4_en-GB,4,,FHRS,10
6712,Oasis Sport & Leisure Centre,Pound Lane,,Thorpe St Andrew,Oasis Sport & Leisure Club Resturant,Restaurant/Cafe/Canteen,1,5,,142714,5,,52.64144500000000,797,228,environ.enforcement@broadland.gov.uk,Broadland,http://www.broadland.gov.uk,1.35979400000000,NR7 0UB,2013-08-02,fhrs_5_en-GB,5,,FHRS,0
6713,,295 Fakenham Road,,Taverham,Ocean Fish Bar,Takeaway/sandwich shop,7844,5,,94551,5,,52.68606800000000,2772,228,environ.enforcement@broadland.gov.uk,Broadland,http://www.broadland.gov.uk,1.19750800000000,NR8 6LE,2013-12-30,fhrs_4_en-GB,4,,FHRS,10
6714,Lodge Lane First School,Lodge Lane,,Old Catton,Old Catton Pre-School,School/college/university,7845,0,,509102,0,,52.66770700000000,94400,228,environ.enforcement@broadland.gov.uk,Broadland,http://www.broadland.gov.uk,1.30225000000000,NR6 7HL,2013-02-08,fhrs_5_en-GB,5,,FHRS,5
6715,Old Mill House,Cawston Road,,Aylsham,Old Mill House Bed & Breakfast,Hotel/bed & breakfast/guest house,7842,5,,666565,10,,52.79170200000000,6966,228,environ.enforcement@broadland.gov.uk,Broadland,http://www.broadland.gov.uk,1.24261100000000,NR11 6NB,2014-05-29,fhrs_4_en-GB,4,,FHRS,5
6716,,Cromer Road,,Hevingham,Old Rectory Residential Home,Hospitals/Childcare/Caring Premises,5,5,,552147,5,,52.75446400000000,6789,228,environ.enforcement@broadland.gov.uk,Broadland,http://www.broadland.gov.uk,1.25952700000000,NR10 5QU,2013-05-03,fhrs_5_en-GB,5,,FHRS,0
6717,St Andrews House,North Side,,Thorpe St Andrew,Olive Catering (Archant),Restaurant/Cafe/Canteen,1,5,,116315,0,,52.63240100000000,45501,228,environ.enforcement@broadland.gov.uk,Broadland,http://www.broadland.gov.uk,1.36854600000000,NR7 0HT,2013-12-23,fhrs_5_en-GB,5,,FHRS,0
6718,Thorpe Lodge,Yarmouth Road,,Thorpe St Andrew,Olive Catering Services Ltd,Restaurant/Cafe/Canteen,1,,,146907,,,52.62723200000000,902,228,environ.enforcement@broadland.gov.uk,Broadland,http://www.broadland.gov.uk,1.32710400000000,NR7 0DU,2014-05-16,fhrs_5_en-GB,5,,FHRS,
6719,,23 Old Road,,Acle,Olive Tree,Restaurant/Cafe/Canteen,1,5,,143705,5,,52.63984100000000,813,228,environ.enforcement@broadland.gov.uk,Broadland,http://www.broadland.gov.uk,1.54944800000000,NR13 3QL,2013-07-03,fhrs_5_en-GB,5,,FHRS,5
6720,,170 Wroxham Road,,Sprowston,Once upon a Time Nursery School,School/college/university,7845,5,,144967,0,,52.65857800000000,84727,228,environ.enforcement@broadland.gov.uk,Broadland,http://www.broadland.gov.uk,1.32669100000000,NR7 8DE,2014-06-17,fhrs_5_en-GB,5,,FHRS,5
6721,,5-7 Victoria Road,,Taverham,One Stop,Retailers - other,4613,5,,98145,0,,52.68089300000000,3081,228,environ.enforcement@broadland.gov.uk,Broadland,http://www.broadland.gov.uk,1.20165800000000,NR8 6NU,2011-07-07,fhrs_5_en-GB,5,,FHRS,5
6722,Nursery Bungalow,Fir Covert Road,,Taverham,Orchidale Childrens Nursery,School/college/university,7845,0,,119773,0,,52.69339200000000,48895,228,environ.enforcement@broadland.gov.uk,Broadland,http://www.broadland.gov.uk,1.19170900000000,NR8 6HT,2011-03-10,fhrs_5_en-GB,5,,FHRS,5
6723,The Otter,12 The Square,,Drayton,Otter Public House,Pub/bar/nightclub,7843,5,,43631,5,,52.68724500000000,1061,228,environ.enforcement@broadland.gov.uk,Broadland,http://www.broadland.gov.uk,1.21251300000000,NR8 6XE,2013-01-16,fhrs_5_en-GB,5,,FHRS,0
6724,,9 Staitheway Road,,Wroxham,Overbury House Nursing Home,Hospitals/Childcare/Caring Premises,5,5,,102947,5,,52.70822600000000,3437,228,environ.enforcement@broadland.gov.uk,Broadland,http://www.broadland.gov.uk,1.40634300000000,NR12 8TH,2014-02-19,fhrs_5_en-GB,5,,FHRS,5
6725,,317 Reepham Road,,Hellesdon,P & S News,Retailers - other,4613,10,,103928,10,,52.66897600000000,3516,228,environ.enforcement@broadland.gov.uk,Broadland,http://www.broadland.gov.uk,1.25579000000000,NR6 5AD,2013-02-19,fhrs_3_en-GB,3,,FHRS,10
6726,,,,,Park Lodge Bed & Breakfast,Hotel/bed & breakfast/guest house,7842,5,,690618,5,,,3392,228,environ.enforcement@broadland.gov.uk,Broadland,http://www.broadland.gov.uk,,,2014-08-01,fhrs_5_en-GB,5,,FHRS,5
6727,The Parson Woodforde,Church Street,,Weston Longville,Parson Woodforde Public House,Pub/bar/nightclub,7843,5,,44274,5,,52.69893300000000,1075,228,environ.enforcement@broadland.gov.uk,Broadland,http://www.broadland.gov.uk,1.12557100000000,NR9 5JU,2013-01-03,fhrs_5_en-GB,5,,FHRS,5
6728,,,,,Peggy Little's Products,Other catering premises,7841,5,,700838,5,,,96531,228,environ.enforcement@broadland.gov.uk,Broadland,http://www.broadland.gov.uk,,,2014-09-02,fhrs_5_en-GB,5,,FHRS,0
6729,,Bullocks Hill,,Horsham St Faith,Petans Ltd.,School/college/university,7845,5,,144464,0,,52.68417700000000,832,228,environ.enforcement@broadland.gov.uk,Broadland,http://www.broadland.gov.uk,1.28924200000000,NR10 3HT,2013-12-19,fhrs_5_en-GB,5,,FHRS,5
6730,,Church Road,,Reedham,Pettitts Animal Adventure,Other catering premises,7841,0,,147089,0,,52.56683100000000,90992,228,environ.enforcement@broadland.gov.uk,Broadland,http://www.broadland.gov.uk,1.57848300000000,NR13 3UA,2010-04-13,fhrs_5_en-GB,5,,FHRS,0
6731,,54 Station Road,,Foulsham,Peverell Residential Home,Hospitals/Childcare/Caring Premises,5,5,,60766,10,,52.78063500000000,13281,228,environ.enforcement@broadland.gov.uk,Broadland,http://www.broadland.gov.uk,1.00987100000000,NR20 5RD,2013-06-04,fhrs_4_en-GB,4,,FHRS,5
6732,,56 Red Lion Street,,Aylsham,Pickle Food & Drink,Restaurant/Cafe/Canteen,1,5,,123087,5,,52.79563000000000,51560,228,environ.enforcement@broadland.gov.uk,Broadland,http://www.broadland.gov.uk,1.25219100000000,NR11 6ER,2015-01-07,fhrs_5_en-GB,5,,FHRS,5
6733,,16-22 Linacre Avenue,,Sprowston,PJ's,Retailers - other,4613,5,,94702,5,,52.65392600000000,2788,228,environ.enforcement@broadland.gov.uk,Broadland,http://www.broadland.gov.uk,1.32963500000000,NR7 8PF,2014-08-14,fhrs_5_en-GB,5,,FHRS,5
6734,Freethorpe Post Office,87 The Green,,Freethorpe,Post Office Stores,Retailers - other,4613,10,,94801,5,,52.59030900000000,2797,228,environ.enforcement@broadland.gov.uk,Broadland,http://www.broadland.gov.uk,1.55694500000000,NR13 3NY,2014-05-13,fhrs_4_en-GB,4,,FHRS,5
6735,Potters Cottage,4 Danesbower Lane,,Blofield,Potters Cottage B&B,Hotel/bed & breakfast/guest house,7842,10,,147315,0,,52.63286600000000,91540,228,environ.enforcement@broadland.gov.uk,Broadland,http://www.broadland.gov.uk,1.45257500000000,NR13 4LP,2011-04-13,fhrs_4_en-GB,4,,FHRS,0
6736,,282 St Faiths Road,,Old Catton,Premier,Retailers - other,4613,10,,98560,5,,52.66628700000000,3107,228,environ.enforcement@broadland.gov.uk,Broadland,http://www.broadland.gov.uk,1.29672900000000,NR6 7BJ,2014-03-11,fhrs_4_en-GB,4,,FHRS,0
6737,,128-132 Meadow Way,,Hellesdon,Premier Convenience Store,Retailers - supermarkets/hypermarkets,7840,10,,95467,10,,52.66664600000000,2845,228,environ.enforcement@broadland.gov.uk,Broadland,http://www.broadland.gov.uk,1.27113400000000,NR6 6XU,2013-08-19,fhrs_3_en-GB,3,,FHRS,10
6738,,171 North Walsham Road,,Sprowston,Progress Fuels,Retailers - other,4613,10,,690615,5,,52.66249900000000,2517,228,environ.enforcement@broadland.gov.uk,Broadland,http://www.broadland.gov.uk,1.31386800000000,NR6 7QN,2014-07-31,fhrs_4_en-GB,4,,FHRS,5
6739,Woodgate,Cawston Road,,Aylsham,Purdys Tea Room,Restaurant/Cafe/Canteen,1,5,,358801,5,,52.78928700000000,92253,228,environ.enforcement@broadland.gov.uk,Broadland,http://www.broadland.gov.uk,1.23422800000000,NR11 6UH,2012-03-28,fhrs_5_en-GB,5,,FHRS,0
6740,Queens Head,2 High Street,,Foulsham,Queens Head Public House,Pub/bar/nightclub,7843,5,,44390,5,,52.78181500000000,1077,228,environ.enforcement@broadland.gov.uk,Broadland,http://www.broadland.gov.uk,1.01051600000000,NR20 5AD,2014-01-22,fhrs_5_en-GB,5,,FHRS,5
6741,,,,,Quintessence,Other catering premises,7841,10,,478338,5,,,93204,228,environ.enforcement@broadland.gov.uk,Broadland,http://www.broadland.gov.uk,,,2012-11-16,fhrs_4_en-GB,4,,FHRS,5
6742,King George V Play Field,Drayton High Road,,Drayton,R G Carter Bowls Club,Other catering premises,7841,,,51005,,,52.67539300000000,1139,228,environ.enforcement@broadland.gov.uk,Broadland,http://www.broadland.gov.uk,1.22701500000000,NR8 6AH,2011-04-11,fhrs_exempt_en-GB,Exempt,,FHRS,
6743,,,,,Rachels African Cuisine,Other catering premises,7841,10,,455755,5,,,93901,228,environ.enforcement@broadland.gov.uk,Broadland,http://www.broadland.gov.uk,,,2012-10-10,fhrs_4_en-GB,4,,FHRS,0
6744,,50 Salhouse Road,,Rackheath,Rackheath Stores,Retailers - other,4613,10,,682639,5,,52.66469200000000,3094,228,environ.enforcement@broadland.gov.uk,Broadland,http://www.broadland.gov.uk,1.38357500000000,NR13 6AA,2014-06-11,fhrs_4_en-GB,4,,FHRS,5
6745,Rackheath Village Hall,Green Lane West,,Rackheath,Rackheath Village Hall,Other catering premises,7841,,,63798,,,52.67391100000000,1409,228,environ.enforcement@broadland.gov.uk,Broadland,http://www.broadland.gov.uk,1.37061700000000,NR13 6LT,2011-02-16,fhrs_exempt_en-GB,Exempt,,FHRS,
6746,,,,,Radleys,Restaurant/Cafe/Canteen,1,,,708901,,,,96850,228,environ.enforcement@broadland.gov.uk,Broadland,http://www.broadland.gov.uk,,,2014-10-15,fhrs_exempt_en-GB,Exempt,,FHRS,
6747,Radleys,82b Lower Street,,Salhouse,Radley's,Restaurant/Cafe/Canteen,1,5,,690623,5,,52.68223900000000,96269,228,environ.enforcement@broadland.gov.uk,Broadland,http://www.broadland.gov.uk,1.42423800000000,NR13 6AD,2014-12-08,fhrs_5_en-GB,5,,FHRS,0
6748,,127 Yarmouth Road,,Thorpe St Andrew,Raj of India,Takeaway/sandwich shop,7844,20,,40271,15,,52.62712300000000,1010,228,environ.enforcement@broadland.gov.uk,Broadland,http://www.broadland.gov.uk,1.34820200000000,NR7 0QY,2014-11-25,fhrs_1_en-GB,1,,FHRS,10
6749,Rampant Horse,2 Chapelfield,,Freethorpe,Rampant Horse Public House,Pub/bar/nightclub,7843,10,,42110,10,,52.58788900000000,1040,228,environ.enforcement@broadland.gov.uk,Broadland,http://www.broadland.gov.uk,1.55425300000000,NR13 3LY,2014-08-21,fhrs_3_en-GB,3,,FHRS,10
6750,,Norwich Road,,Horstead With Stanninghall,Recruiting Sergeant,Pub/bar/nightclub,7843,5,,41410,5,,52.72751000000000,1027,228,environ.enforcement@broadland.gov.uk,Broadland,http://www.broadland.gov.uk,1.35299100000000,NR12 7EE,2013-09-18,fhrs_4_en-GB,4,,FHRS,10
6751,,Fakenham Road,,Drayton,Red Lion Public House,Pub/bar/nightclub,7843,,,323771,,,52.67640600000000,1057,228,environ.enforcement@broadland.gov.uk,Broadland,http://www.broadland.gov.uk,1.22316900000000,NR8 6PW,2013-09-24,fhrs_awaitinginspection_en-GB,AwaitingInspection,,FHRS,
6752,Red Lion,Marsh Road,,Halvergate,Red Lion Public House,Pub/bar/nightclub,7843,5,,41197,5,,52.60615400000000,1023,228,environ.enforcement@broadland.gov.uk,Broadland,http://www.broadland.gov.uk,1.57553000000000,NR13 3QB,2014-01-02,fhrs_5_en-GB,5,,FHRS,5
6753,,2 Boundary Road,,Hellesdon,Red Mango Restaurant,Restaurant/Cafe/Canteen,1,20,,99552,15,,52.65677500000000,3154,228,environ.enforcement@broadland.gov.uk,Broadland,http://www.broadland.gov.uk,1.27684500000000,NR6 5LA,2014-12-11,fhrs_1_en-GB,1,,FHRS,15
6754,Coltishall Primary School,St Johns Close,,Coltishall,Red Robins After School Club,School/college/university,7845,5,,145333,0,,52.73076000000000,85896,228,environ.enforcement@broadland.gov.uk,Broadland,http://www.broadland.gov.uk,1.36335900000000,NR12 7HA,2013-04-15,fhrs_5_en-GB,5,,FHRS,0
6755,Redlands,134 Reepham Road,,Hellesdon,Redlands House Residential Home,Hospitals/Childcare/Caring Premises,5,5,,102989,5,,52.66365600000000,3441,228,environ.enforcement@broadland.gov.uk,Broadland,http://www.broadland.gov.uk,1.26574800000000,NR6 5PB,2014-06-04,fhrs_5_en-GB,5,,FHRS,5
6756,Spa Farm House,Spa Lane,,Aylsham,Redwings Enterprises Limited,Restaurant/Cafe/Canteen,1,10,,485291,5,,52.78256100000000,81897,228,environ.enforcement@broadland.gov.uk,Broadland,http://www.broadland.gov.uk,1.24569800000000,NR11 6UE,2012-12-13,fhrs_4_en-GB,4,,FHRS,0
6757,,Station Road,,Cantley,Reedcutter Public House,Pub/bar/nightclub,7843,20,,41982,15,,52.57860800000000,1038,228,environ.enforcement@broadland.gov.uk,Broadland,http://www.broadland.gov.uk,1.51207200000000,NR13 3SH,2014-03-06,fhrs_1_en-GB,1,,FHRS,10
6758,The Ferry Inn,Ferry Road,,Reedham,Reedham Ferry Inn,Other catering premises,7841,5,,43903,5,,52.55849600000000,1068,228,environ.enforcement@broadland.gov.uk,Broadland,http://www.broadland.gov.uk,1.55035400000000,NR13 3HA,2014-04-02,fhrs_5_en-GB,5,,FHRS,0
6759,,23A The Hills,,Reedham,Reedham Fish & Chip Shop,Takeaway/sandwich shop,7844,5,,94390,0,,52.56024100000000,2758,228,environ.enforcement@broadland.gov.uk,Broadland,http://www.broadland.gov.uk,1.57006500000000,NR13 3TN,2013-01-31,fhrs_5_en-GB,5,,FHRS,5
6760,,40 Riverside,,Reedham,Reedham Post Office,Retailers - other,4613,10,,687688,10,,52.55942900000000,3059,228,environ.enforcement@broadland.gov.uk,Broadland,http://www.broadland.gov.uk,1.56688500000000,NR13 3TE,2014-06-17,fhrs_3_en-GB,3,,FHRS,10
6761,,25 The Hills,,Reedham,Reedham Stores,Retailers - other,4613,10,,94713,10,,52.56024100000000,2789,228,environ.enforcement@broadland.gov.uk,Broadland,http://www.broadland.gov.uk,1.57006500000000,NR13 3TN,2014-06-17,fhrs_3_en-GB,3,,FHRS,10
6762,St Michaels Church Hall,Church Plain,,Reepham,Reepham & District Day Centre,Other catering premises,7841,5,,62381,5,,52.76269912719730,1378,228,environ.enforcement@broadland.gov.uk,Broadland,http://www.broadland.gov.uk,1.11073231697083,NR10 4JJ,2014-01-22,fhrs_5_en-GB,5,,FHRS,0
6763,"Unit 1, Sun House",Market Place,,Reepham,Reepham Diner,Restaurant/Cafe/Canteen,1,5,,96219,5,,52.76269800000000,2906,228,environ.enforcement@broadland.gov.uk,Broadland,http://www.broadland.gov.uk,1.11073200000000,NR10 4JJ,2014-11-25,fhrs_5_en-GB,5,,FHRS,0
6764,Reepham Fish Bar,Back Street,,Reepham,Reepham Fish Bar & Chinese T'way,Takeaway/sandwich shop,7844,5,,94569,5,,52.76188900000000,2774,228,environ.enforcement@broadland.gov.uk,Broadland,http://www.broadland.gov.uk,1.11141600000000,NR10 4SJ,2014-10-09,fhrs_5_en-GB,5,,FHRS,5
6765,Reepham Post Office,Market Place,,Reepham,Reepham Post Office,Retailers - other,4613,10,,98174,15,,52.76267700000000,3084,228,environ.enforcement@broadland.gov.uk,Broadland,http://www.broadland.gov.uk,1.11190200000000,NR10 4AD,2014-05-23,fhrs_2_en-GB,2,,FHRS,5
6766,,Back Street,,Reepham,Reepham Town Hall,Other catering premises,7841,,,64219,,,52.76417300000000,1423,228,environ.enforcement@broadland.gov.uk,Broadland,http://www.broadland.gov.uk,1.11448500000000,NR10 4NG,2011-03-11,fhrs_exempt_en-GB,Exempt,,FHRS,
6767,,28 Wroxham Road,,Coltishall,Rising Sun Public House,Pub/bar/nightclub,7843,5,,358791,10,,52.72824500000000,1049,228,environ.enforcement@broadland.gov.uk,Broadland,http://www.broadland.gov.uk,1.36958000000000,NR12 7EA,2013-10-29,fhrs_4_en-GB,4,,FHRS,5
6768,,Market Place,,Reepham,Robertsons Family Butchers,Retailers - other,4613,5,,96188,5,,52.76269800000000,2903,228,environ.enforcement@broadland.gov.uk,Broadland,http://www.broadland.gov.uk,1.11073200000000,NR10 4JJ,2015-01-22,fhrs_5_en-GB,5,,FHRS,5
6769,The Royal Bengal,Tills Road,,Sprowston,Royal Bengal,Restaurant/Cafe/Canteen,1,10,,44982,10,,52.66277400000000,1091,228,environ.enforcement@broadland.gov.uk,Broadland,http://www.broadland.gov.uk,1.31337100000000,NR6 7QZ,2014-07-09,fhrs_3_en-GB,3,,FHRS,10
6770,Royal Norwich Golf Club,Drayton High Road,,Hellesdon,Royal Norwich Golf Club,Restaurant/Cafe/Canteen,1,10,,50970,10,,52.65560000000000,1138,228,environ.enforcement@broadland.gov.uk,Broadland,http://www.broadland.gov.uk,1.25652500000000,NR6 5AH,2014-06-12,fhrs_3_en-GB,3,,FHRS,10
6771,Norvic Clinic,Northside,,Thorpe St Andrew,Royal Voluntary Service Retail Shop,Retailers - other,4613,5,,578634,0,,52.63240100000000,94964,228,environ.enforcement@broadland.gov.uk,Broadland,http://www.broadland.gov.uk,1.36854600000000,NR7 0HT,2013-08-01,fhrs_5_en-GB,5,,FHRS,0
6772,Runwood Homes,St Michaels Court,,St Michaels Avenue,Runwood Homes,Hospitals/Childcare/Caring Premises,5,10,,147325,10,,52.79188700000000,91582,228,environ.enforcement@broadland.gov.uk,Broadland,http://www.broadland.gov.uk,1.23781800000000,NR11 6YA,2014-06-06,fhrs_3_en-GB,3,,FHRS,10
6773,,46 Yarmouth Road,,Thorpe St Andrew,Rushcutters Arms,Pub/bar/nightclub,7843,5,,42729,5,,52.62577800000000,1053,228,environ.enforcement@broadland.gov.uk,Broadland,http://www.broadland.gov.uk,1.34360600000000,NR7 0HE,2014-09-23,fhrs_5_en-GB,5,,FHRS,5
6774,,12 Norwich Road,,Aylsham,S & M Brett Greengrocer,Retailers - other,4613,10,,682641,10,,52.79412300000000,3122,228,environ.enforcement@broadland.gov.uk,Broadland,http://www.broadland.gov.uk,1.25172300000000,NR11 6BN,2014-05-29,fhrs_3_en-GB,3,,FHRS,10
6775,Taverham Nursery Centre,Fir Covert Road,,Taverham,Saffire Handmade Chocolates,Retailers - other,4613,5,,147140,5,,52.69339200000000,91012,228,environ.enforcement@broadland.gov.uk,Broadland,http://www.broadland.gov.uk,1.19170900000000,NR8 6HT,2014-10-22,fhrs_5_en-GB,5,,FHRS,0
6776,,Pound Lane,,Thorpe St Andrew,Sainsbury's Cafe,Restaurant/Cafe/Canteen,1,5,,147039,5,,52.63085000000000,90700,228,environ.enforcement@broadland.gov.uk,Broadland,http://www.broadland.gov.uk,1.36140600000000,NR7 0SR,2013-01-18,fhrs_5_en-GB,5,,FHRS,0
6777,,Pound Lane,,Thorpe St Andrew,Sainsburys Supermarkets Ltd,Retailers - supermarkets/hypermarkets,7840,0,,95400,5,,52.63085000000000,2839,228,environ.enforcement@broadland.gov.uk,Broadland,http://www.broadland.gov.uk,1.36140600000000,NR7 0SR,2014-03-12,fhrs_5_en-GB,5,,FHRS,5
6778,,Market Place,,Aylsham,Salad Days,Retailers - other,4613,,,97455,,,52.79548200000000,3025,228,environ.enforcement@broadland.gov.uk,Broadland,http://www.broadland.gov.uk,1.25136400000000,NR11 6EL,2010-05-17,fhrs_exempt_en-GB,Exempt,,FHRS,
6779,Howlett & Edrich,The Street,,Acle,Saleground Cafe,Restaurant/Cafe/Canteen,1,5,,97512,5,,52.63611500000000,3030,228,environ.enforcement@broadland.gov.uk,Broadland,http://www.broadland.gov.uk,1.54651500000000,NR13 3BY,2014-11-06,fhrs_5_en-GB,5,,FHRS,5
6780,,Honeycombe Road,,Salhouse,Salhouse Garden Centre,Retailers - other,4613,5,,96588,5,,52.66787400000000,2950,228,environ.enforcement@broadland.gov.uk,Broadland,http://www.broadland.gov.uk,1.41401600000000,NR13 6JP,2013-01-24,fhrs_5_en-GB,5,,FHRS,5
6781,,37 Lower Street,,Salhouse,Salhouse Jubilee Village Hall (new),Other catering premises,7841,,,123684,,,52.67857000000000,52088,228,environ.enforcement@broadland.gov.uk,Broadland,http://www.broadland.gov.uk,1.41488000000000,NR13 6RH,2011-03-02,fhrs_exempt_en-GB,Exempt,,FHRS,
6782,,24 Boundary Road,,Hellesdon,Salvation Army,Hospitals/Childcare/Caring Premises,5,5,,93847,5,,52.65630400000000,2706,228,environ.enforcement@broadland.gov.uk,Broadland,http://www.broadland.gov.uk,1.27568600000000,NR6 5HT,2013-12-04,fhrs_5_en-GB,5,,FHRS,0
6783,,,,,Sara's Homemade Kitchen,Other catering premises,7841,10,,700842,5,,,96684,228,environ.enforcement@broadland.gov.uk,Broadland,http://www.broadland.gov.uk,,,2014-09-01,fhrs_4_en-GB,4,,FHRS,5
6784,,,,,Scoops,Mobile caterer,7846,5,,659037,5,,,95980,228,environ.enforcement@broadland.gov.uk,Broadland,http://www.broadland.gov.uk,,,2014-04-16,fhrs_5_en-GB,5,,FHRS,5
6785,Fern House,The Street,,Acle,Scooters Cafe,Restaurant/Cafe/Canteen,1,5,,63879,5,,52.63983000000000,14109,228,environ.enforcement@broadland.gov.uk,Broadland,http://www.broadland.gov.uk,1.54798400000000,NR13 3QJ,2013-08-08,fhrs_5_en-GB,5,,FHRS,5
6786,,187 Reepham Road,,Hellesdon,Seasons,Retailers - other,4613,5,,88769,5,,52.66384200000000,2344,228,environ.enforcement@broadland.gov.uk,Broadland,http://www.broadland.gov.uk,1.26423800000000,NR6 5NZ,2012-11-27,fhrs_5_en-GB,5,,FHRS,5
6787,Oak Farm Clinic,276 Fakenham Road,,Taverham,Select Healthcare,Hospitals/Childcare/Caring Premises,5,5,,65113,5,,52.68681300000000,1459,228,environ.enforcement@broadland.gov.uk,Broadland,http://www.broadland.gov.uk,1.19722200000000,NR8 6AD,2015-01-20,fhrs_5_en-GB,5,,FHRS,5
6788,Oak Lodge,274 Fakenham Road,,Taverham,Select Healthcare,Hospitals/Childcare/Caring Premises,5,10,,56716,10,,52.68681400000000,12832,228,environ.enforcement@broadland.gov.uk,Broadland,http://www.broadland.gov.uk,1.19722300000000,NR8 6AD,2013-04-17,fhrs_3_en-GB,3,,FHRS,5
6789,,147 Yarmouth Road,,Thorpe St Andrew,Shalom Residential Home,Hospitals/Childcare/Caring Premises,5,5,,102996,0,,52.62830700000000,3442,228,environ.enforcement@broadland.gov.uk,Broadland,http://www.broadland.gov.uk,1.35593400000000,NR7 0SA,2014-10-31,fhrs_5_en-GB,5,,FHRS,5
6790,,236 Fakenham Road,,Taverham,Shaney's Grill,Takeaway/sandwich shop,7844,5,,647461,0,,52.68561500000000,95997,228,environ.enforcement@broadland.gov.uk,Broadland,http://www.broadland.gov.uk,1.20196000000000,NR8 6QW,2014-03-12,fhrs_5_en-GB,5,,FHRS,5
6791,37 Bure Valley House,Station Road,,Aylsham,Sheltered H'sing Luncheon Club,Other catering premises,7841,5,,134083,5,,52.79130500000000,6721,228,environ.enforcement@broadland.gov.uk,Broadland,http://www.broadland.gov.uk,1.25674900000000,NR11 6HU,2014-01-16,fhrs_5_en-GB,5,,FHRS,0
6792,Shiels Court,4 Braydeston Avenue,,Brundall,Shiels Court,School/college/university,7845,5,,103161,10,,52.62162700000000,3456,228,environ.enforcement@broadland.gov.uk,Broadland,http://www.broadland.gov.uk,1.43856600000000,NR13 5JX,2014-11-20,fhrs_4_en-GB,4,,FHRS,5
6793,Shoulder Of Mutton,Norwich Road,,Strumpshaw,Shoulder of Mutton Public House,Pub/bar/nightclub,7843,5,,44842,5,,52.61736800000000,1087,228,environ.enforcement@broadland.gov.uk,Broadland,http://www.broadland.gov.uk,1.46984000000000,NR13 4NT,2013-08-28,fhrs_4_en-GB,4,,FHRS,10
6794,Silver Fox,264 Fakenham Road,,Taverham,Silver Fox Public House,Pub/bar/nightclub,7843,10,,40039,10,,52.68681400000000,1007,228,environ.enforcement@broadland.gov.uk,Broadland,http://www.broadland.gov.uk,1.19722300000000,NR8 6AD,2014-07-30,fhrs_3_en-GB,3,,FHRS,10
6795,,126 The Street,,Felthorpe,Silvertones Lodge,Hotel/bed & breakfast/guest house,7842,5,,134014,0,,52.71867400000000,6707,228,environ.enforcement@broadland.gov.uk,Broadland,http://www.broadland.gov.uk,1.21396400000000,NR10 4DH,2013-10-16,fhrs_5_en-GB,5,,FHRS,0
6796,,,,,Simons Home Deliveries,Retailers - other,4613,10,,616009,15,,,95454,228,environ.enforcement@broadland.gov.uk,Broadland,http://www.broadland.gov.uk,,,2013-11-13,fhrs_2_en-GB,2,,FHRS,5
6797,,Salhouse Road,,Sprowston,Sir Juiced Catering Ltd at Ardagh Group,Restaurant/Cafe/Canteen,1,10,,53265,15,,52.64747300000000,1200,228,environ.enforcement@broadland.gov.uk,Broadland,http://www.broadland.gov.uk,1.32981000000000,NR7 9AT,2014-02-12,fhrs_2_en-GB,2,,FHRS,10
6798,,A47 North Burlingham,,,Snack Attack,Mobile caterer,7846,5,,146564,10,,52.63645400000000,89724,228,environ.enforcement@broadland.gov.uk,Broadland,http://www.broadland.gov.uk,1.47740200000000,,2013-08-05,fhrs_4_en-GB,4,,FHRS,5
6799,Taverham High School,Beech Avenue,,Taverham,Sodexo at Taverham High School,School/college/university,7845,5,,144350,0,,52.68729900000000,829,228,environ.enforcement@broadland.gov.uk,Broadland,http://www.broadland.gov.uk,1.18855600000000,NR8 6HP,2013-11-28,fhrs_5_en-GB,5,,FHRS,5
6800,Acle Academy,South Walsham Road,,Acle,Sodexo Ltd Catering at Acle Academy,School/college/university,7845,5,,146174,5,,52.64220800000000,885,228,environ.enforcement@broadland.gov.uk,Broadland,http://www.broadland.gov.uk,1.54127100000000,NR13 3ER,2014-11-21,fhrs_4_en-GB,4,,FHRS,10
6801,,,,,Solange's Cakes,Other catering premises,7841,5,,703912,5,,,96596,228,environ.enforcement@broadland.gov.uk,Broadland,http://www.broadland.gov.uk,,,2014-09-23,fhrs_5_en-GB,5,,FHRS,0
6802,Sole And Heel,Salhouse Road,,Rackheath,Sole & Heel,Pub/bar/nightclub,7843,5,,44899,5,,52.66276900000000,1089,228,environ.enforcement@broadland.gov.uk,Broadland,http://www.broadland.gov.uk,1.37941800000000,NR13 6QH,2014-02-03,fhrs_4_en-GB,4,,FHRS,10
6803,,,,,South Hill Catering,Manufacturers/packers,7839,5,,88871,5,,,2352,228,environ.enforcement@broadland.gov.uk,Broadland,http://www.broadland.gov.uk,,,2013-07-19,fhrs_5_en-GB,5,,FHRS,0
6804,South Walsham Post Office,3 The Street,,South Walsham,South Walsham Post Office and Stores,Retailers - other,4613,10,,97986,5,,52.66414400000000,3070,228,environ.enforcement@broadland.gov.uk,Broadland,http://www.broadland.gov.uk,1.49377000000000,NR13 6AH,2012-10-31,fhrs_4_en-GB,4,,FHRS,0
6805,,School Road,,South Walsham,South Walsham Village Hall,Other catering premises,7841,,,50628,,,52.66592900000000,1129,228,environ.enforcement@broadland.gov.uk,Broadland,http://www.broadland.gov.uk,1.50672400000000,NR13 6DZ,2011-01-21,fhrs_exempt_en-GB,Exempt,,FHRS,
6806,Southwood Hall,Coronation Barn,,Southwood,Southwood Hall,Other catering premises,7841,5,,147370,5,,52.59290900000000,91743,228,environ.enforcement@broadland.gov.uk,Broadland,http://www.broadland.gov.uk,1.53832500000000,NR13 3LR,2014-11-06,fhrs_5_en-GB,5,,FHRS,5
6807,,Ollands Road,,Reepham,Spar Stores,Retailers - other,4613,5,,659027,5,,52.76465600000000,4032,228,environ.enforcement@broadland.gov.uk,Broadland,http://www.broadland.gov.uk,1.11426700000000,NR10 4EJ,2014-05-02,fhrs_5_en-GB,5,,FHRS,5
6808,Spice Of India,2 Holt Road,,Horsford,Spice of India,Restaurant/Cafe/Canteen,1,5,,143313,10,,52.69292700000000,806,228,environ.enforcement@broadland.gov.uk,Broadland,http://www.broadland.gov.uk,1.24656000000000,NR10 3DD,2014-12-11,fhrs_4_en-GB,4,,FHRS,5
6809,Spixworth Methodist Church,11 Godfrey Road,,Spixworth,Spixworth Dining Club,Other catering premises,7841,5,,94683,0,,52.69035000000000,27840,228,environ.enforcement@broadland.gov.uk,Broadland,http://www.broadland.gov.uk,1.32807100000000,NR10 3NJ,2014-06-02,fhrs_5_en-GB,5,,FHRS,0
6810,Woodland View Junior School,Ivy Road,,Spixworth,Spixworth Kidz Club,Hospitals/Childcare/Caring Premises,5,0,,146519,5,,52.69172400000000,89582,228,environ.enforcement@broadland.gov.uk,Broadland,http://www.broadland.gov.uk,1.32076000000000,NR10 3PY,2012-10-01,fhrs_5_en-GB,5,,FHRS,0
6811,,145 Crostwick Lane,,Spixworth,Spixworth Motel,Hotel/bed & breakfast/guest house,7842,5,,101792,0,,52.68754900000000,3346,228,environ.enforcement@broadland.gov.uk,Broadland,http://www.broadland.gov.uk,1.32885000000000,NR10 3NQ,2014-10-28,fhrs_5_en-GB,5,,FHRS,0
6812,,106 Crostwick Lane,,Spixworth,Spixworth News,Retailers - other,4613,5,,128208,0,,52.68754900000000,58052,228,environ.enforcement@broadland.gov.uk,Broadland,http://www.broadland.gov.uk,1.32885000000000,NR10 3NQ,2014-10-17,fhrs_5_en-GB,5,,FHRS,0
6813,Sprowston Cricket Club,Barkers Lane,,Sprowston,Sprowston Cricket Club,Other catering premises,7841,,,552144,,,52.66176900000000,1114,228,environ.enforcement@broadland.gov.uk,Broadland,http://www.broadland.gov.uk,1.32225900000000,NR7 8QZ,2013-05-17,fhrs_exempt_en-GB,Exempt,,FHRS,
6814,Church Hall Adjacent St Cuthbe,Wroxham Road,,Sprowston,Sprowston Day Centre Luncheon Club,Other catering premises,7841,5,,62314,5,,52.65273300000000,1376,228,environ.enforcement@broadland.gov.uk,Broadland,http://www.broadland.gov.uk,1.31318800000000,NR7 8TZ,2014-06-11,fhrs_5_en-GB,5,,FHRS,5
6815,Sprowston Youth Centre,School Lane,,Sprowston,Sprowston Diamond Centre,School/college/university,7845,,,63008,,,52.65255900000000,1395,228,environ.enforcement@broadland.gov.uk,Broadland,http://www.broadland.gov.uk,1.30977400000000,NR7 8TR,2013-10-29,fhrs_exempt_en-GB,Exempt,,FHRS,
6816,Cecil Gowing First School,Falcon Road West,,Sprowston,Sprowston Out of  School Club,School/college/university,7845,5,,124601,5,,52.65228700000000,53110,228,environ.enforcement@broadland.gov.uk,Broadland,http://www.broadland.gov.uk,1.32844600000000,NR7 8NZ,2011-12-05,fhrs_5_en-GB,5,,FHRS,5
6817,The Sports Ground,Blue Boar Lane,,Sprowston,Sprowston Sports & Social Club,Other catering premises,7841,10,,659024,5,,52.65464100000000,1115,228,environ.enforcement@broadland.gov.uk,Broadland,http://www.broadland.gov.uk,1.33908100000000,NR7 8RJ,2014-04-16,fhrs_4_en-GB,4,,FHRS,5
6818,,169 North Walsham Road,,Sprowston,Sprowston Stores Nisa Local,Retailers - other,4613,5,,94694,5,,52.66085600000000,2786,228,environ.enforcement@broadland.gov.uk,Broadland,http://www.broadland.gov.uk,1.31183600000000,NR6 7QL,2012-09-12,fhrs_5_en-GB,5,,FHRS,0
6819,Spruce Lodge,189D Drayton High Road,,Drayton,Spruce Lodge,Hospitals/Childcare/Caring Premises,5,5,,143628,5,,52.66910200000000,81166,228,environ.enforcement@broadland.gov.uk,Broadland,http://www.broadland.gov.uk,1.24167100000000,NR8 6BN,2013-08-20,fhrs_5_en-GB,5,,FHRS,5
6820,Squirrel View Cottage,Wood Lane,,Strumpshaw,Squirrel View Cottage B & B,Hotel/bed & breakfast/guest house,7842,5,,570487,5,,52.60815400000000,94941,228,environ.enforcement@broadland.gov.uk,Broadland,http://www.broadland.gov.uk,1.48589400000000,NR13 4HG,2013-06-25,fhrs_5_en-GB,5,,FHRS,0
6821,St Andrews Social Club,Yarmouth Road,,Thorpe St Andrew,St Andrews Hospital Staff Social Club,Pub/bar/nightclub,7843,5,,49898,5,,52.62901400000000,1109,228,environ.enforcement@broadland.gov.uk,Broadland,http://www.broadland.gov.uk,1.36144200000000,NR7 0SQ,2014-11-27,fhrs_4_en-GB,4,,FHRS,10
6822,Hinks Meadow Hall,Kingswood Avenue,,Taverham,St Edmunds Community Cafe,Restaurant/Cafe/Canteen,1,5,,543267,0,,52.68662200000000,94522,228,environ.enforcement@broadland.gov.uk,Broadland,http://www.broadland.gov.uk,1.20665100000000,NR8 6UW,2013-04-24,fhrs_5_en-GB,5,,FHRS,0
6823,,Manor Road,,Horsham St Faith,St Faiths Centre,Other catering premises,7841,5,,51048,0,,52.69523800000000,1140,228,environ.enforcement@broadland.gov.uk,Broadland,http://www.broadland.gov.uk,1.28246600000000,NR10 3LF,2014-10-27,fhrs_5_en-GB,5,,FHRS,5
6824,,adj Ranworth Church,,Ranworth,St Helen's Visitor's Centre,Restaurant/Cafe/Canteen,1,5,,358799,5,,52.67774600000000,3930,228,environ.enforcement@broadland.gov.uk,Broadland,http://www.broadland.gov.uk,1.48636200000000,NR13 6HT,2013-10-22,fhrs_5_en-GB,5,,FHRS,0
6825,Squirrel View Cottage,Wood Lane,,Strumpshaw,Star Value Catering,Mobile caterer,7846,5,,565360,0,,52.60815400000000,19604,228,environ.enforcement@broadland.gov.uk,Broadland,http://www.broadland.gov.uk,1.48589400000000,NR13 4HG,2013-06-25,fhrs_5_en-GB,5,,FHRS,0
6826,,Station Road,,Lingwood,Station House Bed & Breakfast,Hotel/bed & breakfast/guest house,7842,10,,130225,10,,52.62143700000000,6130,228,environ.enforcement@broadland.gov.uk,Broadland,http://www.broadland.gov.uk,1.49052700000000,NR13 4AZ,2014-07-25,fhrs_3_en-GB,3,,FHRS,10
6827,Red Lion,77 Church Street,,Coltishall,STB Getley Trading Ltd T/A The Red Lion Public House,Pub/bar/nightclub,7843,,,40931,,,52.72805300000000,1019,228,environ.enforcement@broadland.gov.uk,Broadland,http://www.broadland.gov.uk,1.36335800000000,NR12 7DW,2014-07-23,fhrs_5_en-GB,5,,FHRS,
6828,,School Road,,Drayton,Stower Grange Hotel,Hotel/bed & breakfast/guest house,7842,5,,102032,5,,52.67908900000000,3365,228,environ.enforcement@broadland.gov.uk,Broadland,http://www.broadland.gov.uk,1.22471300000000,NR8 6EF,2013-05-08,fhrs_5_en-GB,5,,FHRS,5
6829,,110 Boundary Road,,Hellesdon,Subway,Takeaway/sandwich shop,7844,5,,708899,0,,52.65389200000000,2418,228,environ.enforcement@broadland.gov.uk,Broadland,http://www.broadland.gov.uk,1.26726800000000,NR6 5JE,2014-10-21,fhrs_5_en-GB,5,,FHRS,5
6830,,3 Fakenham Road,,Drayton,Subway (Applegreen),Retailers - other,4613,10,,100960,5,,52.67578900000000,3275,228,environ.enforcement@broadland.gov.uk,Broadland,http://www.broadland.gov.uk,1.22305000000000,NR8 6PL,2014-08-07,fhrs_4_en-GB,4,,FHRS,5
6831,,115 Fakenham Road,,Taverham,Sunnycroft Nursing Home     **,Hospitals/Childcare/Caring Premises,5,5,,112614,5,,52.68017200000000,4179,228,environ.enforcement@broadland.gov.uk,Broadland,http://www.broadland.gov.uk,1.21169700000000,NR8 6QB,2015-01-16,fhrs_5_en-GB,5,,FHRS,5
6832,,,,,Supersoft Ice Cream(Mousehold),Mobile caterer,7846,5,,430867,5,,,93869,228,environ.enforcement@broadland.gov.uk,Broadland,http://www.broadland.gov.uk,,,2012-08-02,fhrs_5_en-GB,5,,FHRS,0
6833,7 Santa Lucia Court,38 Yarmouth Road,,Thorpe St Andrew,Swan House,Hotel/bed & breakfast/guest house,7842,5,,659038,0,,52.62622600000000,96026,228,environ.enforcement@broadland.gov.uk,Broadland,http://www.broadland.gov.uk,1.33632400000000,NR7 0EQ,2014-04-08,fhrs_5_en-GB,5,,FHRS,0
6834,,1 The Square,,Drayton,Tai Yin Peking & Cantonese Takeaway,Takeaway/sandwich shop,7844,10,,94584,10,,52.68724500000000,2776,228,environ.enforcement@broadland.gov.uk,Broadland,http://www.broadland.gov.uk,1.21251300000000,NR8 6XE,2014-01-23,fhrs_3_en-GB,3,,FHRS,10
6835,,Woodbastwick Road,,Blofield,Tamarind Indian Restaurant,Pub/bar/nightclub,7843,5,,45061,10,,52.65102000000000,1093,228,environ.enforcement@broadland.gov.uk,Broadland,http://www.broadland.gov.uk,1.44102100000000,NR13 4AB,2014-04-02,fhrs_4_en-GB,4,,FHRS,5
6836,,102 Crostwick Lane,,Spixworth,Tasty Bites,Takeaway/sandwich shop,7844,20,,94346,15,,52.68754900000000,2753,228,environ.enforcement@broadland.gov.uk,Broadland,http://www.broadland.gov.uk,1.32885000000000,NR10 3NQ,2014-12-04,fhrs_1_en-GB,1,,FHRS,15
6837,,2 Norwich Road,,Lingwood,Tates Spar,Retailers - other,4613,5,,95394,0,,52.61872600000000,2838,228,environ.enforcement@broadland.gov.uk,Broadland,http://www.broadland.gov.uk,1.48423800000000,NR13 4BH,2012-11-06,fhrs_5_en-GB,5,,FHRS,5
6838,,Sandy Lane,,Taverham,Taverham Day Care Centre,Hospitals/Childcare/Caring Premises,5,5,,64669,0,,52.68150000000000,1442,228,environ.enforcement@broadland.gov.uk,Broadland,http://www.broadland.gov.uk,1.19616800000000,NR8 6JR,2014-06-05,fhrs_5_en-GB,5,,FHRS,5
6839,,Ringland Road,,Taverham,Taverham Hall School,School/college/university,7845,5,,145836,5,,52.68067500000000,875,228,environ.enforcement@broadland.gov.uk,Broadland,http://www.broadland.gov.uk,1.18205000000000,NR8 6HU,2014-05-13,fhrs_5_en-GB,5,,FHRS,5
6840,Taverham Village Hall,Sandy Lane,,Taverham,Taverham Out of School Club,Hospitals/Childcare/Caring Premises,5,5,,147244,5,,52.68150000000000,91239,228,environ.enforcement@broadland.gov.uk,Broadland,http://www.broadland.gov.uk,1.19616800000000,NR8 6JR,2013-11-28,fhrs_5_en-GB,5,,FHRS,5
6841,Unit 3 Taverham Craft Centre,Fir Covert Road,,Taverham,Tea and Bunns Tea Room,Restaurant/Cafe/Canteen,1,5,,100671,5,,52.69339200000000,3249,228,environ.enforcement@broadland.gov.uk,Broadland,http://www.broadland.gov.uk,1.19170900000000,NR8 6HT,2014-06-13,fhrs_5_en-GB,5,,FHRS,5
6842,Ground Floor,69 Plumstead Road,,Great Little Plumstead,"Tea, Bags and Shoes",Restaurant/Cafe/Canteen,1,5,,659042,5,,52.64999300000000,96095,228,environ.enforcement@broadland.gov.uk,Broadland,http://www.broadland.gov.uk,1.36948500000000,NR13 5AJ,2014-04-15,fhrs_5_en-GB,5,,FHRS,5
6843,Tesco Express,262 Fakenham Road,,Taverham,Tesco Express,Retailers - supermarkets/hypermarkets,7840,5,,95077,5,,52.68681400000000,2806,228,environ.enforcement@broadland.gov.uk,Broadland,http://www.broadland.gov.uk,1.19722300000000,NR8 6AD,2013-04-05,fhrs_5_en-GB,5,,FHRS,5
6844,The Square,Acres Way,,Drayton,Tesco Express,Retailers - supermarkets/hypermarkets,7840,5,,95569,0,,52.68675100000000,2858,228,environ.enforcement@broadland.gov.uk,Broadland,http://www.broadland.gov.uk,1.21382300000000,NR8 6UT,2014-11-24,fhrs_5_en-GB,5,,FHRS,0
6845,,28 Norwich Road,,Aylsham,Tesco Stores,Retailers - supermarkets/hypermarkets,7840,5,,145709,0,,52.79113900000000,87080,228,environ.enforcement@broadland.gov.uk,Broadland,http://www.broadland.gov.uk,1.25460100000000,NR11 6BW,2013-08-23,fhrs_5_en-GB,5,,FHRS,5
6846,,Fakenham Road,,Drayton,Tesco Stores Ltd,Retailers - supermarkets/hypermarkets,7840,5,,462872,0,,52.67822800000000,2856,228,environ.enforcement@broadland.gov.uk,Broadland,http://www.broadland.gov.uk,1.21967800000000,NR8 6PT,2013-11-07,fhrs_5_en-GB,5,,FHRS,5
6847,Compass Staff Canteen,Fakenham Road,,Drayton,Tesco Stores Ltd,Restaurant/Cafe/Canteen,1,5,,462878,0,,52.67701100000000,94240,228,environ.enforcement@broadland.gov.uk,Broadland,http://www.broadland.gov.uk,1.22012100000000,NR8 6PS,2014-05-21,fhrs_5_en-GB,5,,FHRS,5
6848,Tesco Stores Ltd,Blue Boar Lane,,Sprowston,Tesco Stores Ltd,Retailers - supermarkets/hypermarkets,7840,5,,95735,10,,52.66005400000000,2866,228,environ.enforcement@broadland.gov.uk,Broadland,http://www.broadland.gov.uk,1.33527800000000,NR7 8AB,2013-07-23,fhrs_4_en-GB,4,,FHRS,5
6849,,201 Wroxham Road,,Sprowston,Tesco Wroxham Road Express,Retailers - supermarkets/hypermarkets,7840,5,,99618,5,,52.65828200000000,3160,228,environ.enforcement@broadland.gov.uk,Broadland,http://www.broadland.gov.uk,1.32410900000000,NR7 8AG,2012-08-30,fhrs_5_en-GB,5,,FHRS,0
6850,,164 Cromer Road,,Hellesdon,Tescos Express,Retailers - supermarkets/hypermarkets,7840,10,,148028,5,,52.66522500000000,92078,228,environ.enforcement@broadland.gov.uk,Broadland,http://www.broadland.gov.uk,1.27311400000000,NR6 6XA,2014-04-28,fhrs_4_en-GB,4,,FHRS,0
6851,,9 Ring Road,,Thorpe St Andrew,Thailand Thai Cuisine,Restaurant/Cafe/Canteen,1,5,,143062,5,,52.63484100000000,802,228,environ.enforcement@broadland.gov.uk,Broadland,http://www.broadland.gov.uk,1.34559900000000,NR7 0XJ,2015-01-22,fhrs_5_en-GB,5,,FHRS,5
6852,,19 High Street,,Cawston,The Bell Inn,Pub/bar/nightclub,7843,,,45120,,,52.77044300000000,1095,228,environ.enforcement@broadland.gov.uk,Broadland,http://www.broadland.gov.uk,1.16368600000000,NR10 4AE,2014-05-07,fhrs_5_en-GB,5,,FHRS,
6853,Best Kebab Pizza House,5a Cawston Road,,Aylsham,The Best Kebab and Pizza,Takeaway/sandwich shop,7844,20,,146953,15,,52.79493500000000,90308,228,environ.enforcement@broadland.gov.uk,Broadland,http://www.broadland.gov.uk,1.24899400000000,NR11 6BX,2014-03-06,fhrs_1_en-GB,1,,FHRS,15
6854,Bridge Inn,2 Fakenham Road,,Great Witchingham,The Bridge Inn,Pub/bar/nightclub,7843,10,,43867,10,,52.72147100000000,1067,228,environ.enforcement@broadland.gov.uk,Broadland,http://www.broadland.gov.uk,1.10844700000000,NR9 5SE,2013-08-14,fhrs_3_en-GB,3,,FHRS,10
6855,The Bridge Restaurant,Norwich Road,,Wroxham,The Bridge Restaurant,Restaurant/Cafe/Canteen,1,20,,142608,10,,52.71021900000000,795,228,environ.enforcement@broadland.gov.uk,Broadland,http://www.broadland.gov.uk,1.40396600000000,NR12 8RX,2014-05-22,fhrs_1_en-GB,1,,FHRS,5
6856,The Buck,55 Yarmouth Road,,Thorpe St Andrew,The Buck Inn,Pub/bar/nightclub,7843,5,,40709,5,,52.62654100000000,1016,228,environ.enforcement@broadland.gov.uk,Broadland,http://www.broadland.gov.uk,1.33824000000000,NR7 0EW,2014-12-17,fhrs_5_en-GB,5,,FHRS,5
6857,,,,,The Cake Boutique,Other catering premises,7841,5,,731510,0,,,97213,228,environ.enforcement@broadland.gov.uk,Broadland,http://www.broadland.gov.uk,,,2015-01-23,fhrs_5_en-GB,5,,FHRS,0
6858,,,,,The Catering Experience,Other catering premises,7841,10,,147273,5,,,91370,228,environ.enforcement@broadland.gov.uk,Broadland,http://www.broadland.gov.uk,,,2013-09-17,fhrs_4_en-GB,4,,FHRS,5
6859,,11 Radcliffe Road,,Drayton,The Clean Agencies Ltd Postwick NNDR Hub,Mobile caterer,7846,10,,687694,10,,52.68814100000000,96277,228,environ.enforcement@broadland.gov.uk,Broadland,http://www.broadland.gov.uk,1.21362900000000,NR8 6XZ,2014-07-15,fhrs_3_en-GB,3,,FHRS,10
6860,,1 Drayton High Road,,Drayton,The Cock Inn,Pub/bar/nightclub,7843,5,,43773,10,,52.67590100000000,1065,228,environ.enforcement@broadland.gov.uk,Broadland,http://www.broadland.gov.uk,1.22487800000000,NR8 6AE,2013-12-19,fhrs_3_en-GB,3,,FHRS,10
6861,The Cock Tavern,Manor Road,,Cantley,The Cock Tavern,Pub/bar/nightclub,7843,5,,41018,0,,52.59796500000000,1020,228,environ.enforcement@broadland.gov.uk,Broadland,http://www.broadland.gov.uk,1.51263200000000,NR13 3JQ,2014-04-02,fhrs_5_en-GB,5,,FHRS,5
6862,,20-22 Market Place,,Aylsham,The Co-Operative Group,Retailers - supermarkets/hypermarkets,7840,10,,95496,5,,52.79548200000000,2848,228,environ.enforcement@broadland.gov.uk,Broadland,http://www.broadland.gov.uk,1.25136400000000,NR11 6EL,2014-09-15,fhrs_3_en-GB,3,,FHRS,10
6863,,129 Constitution Hill,,Old Catton,The Corner Shop,Retailers - other,4613,5,,95935,0,,52.65591000000000,2888,228,environ.enforcement@broadland.gov.uk,Broadland,http://www.broadland.gov.uk,1.30378600000000,NR6 7RN,2013-10-25,fhrs_5_en-GB,5,,FHRS,5
6864,The Cottage,148 Thunder Lane,,Thorpe St Andrew,The Cottage Public House,Pub/bar/nightclub,7843,5,,42453,5,,52.63821600000000,1047,228,environ.enforcement@broadland.gov.uk,Broadland,http://www.broadland.gov.uk,1.34522100000000,NR7 0JD,2014-09-25,fhrs_5_en-GB,5,,FHRS,5
6865,,55 Keys Drive,,Wroxham,The Daily Grind,Mobile caterer,7846,5,,552152,0,,52.70122800000000,94690,228,environ.enforcement@broadland.gov.uk,Broadland,http://www.broadland.gov.uk,1.40385800000000,NR12 8SS,2013-05-03,fhrs_5_en-GB,5,,FHRS,0
6866,The Dial House,Market Place,,Reepham,The Dial House,Pub/bar/nightclub,7843,5,,102001,5,,52.76269800000000,3361,228,environ.enforcement@broadland.gov.uk,Broadland,http://www.broadland.gov.uk,1.11073200000000,NR10 4JJ,2014-11-06,fhrs_5_en-GB,5,,FHRS,5
6867,The Feathers,54 Cawston Road,,Aylsham,The Feathers Public House,Pub/bar/nightclub,7843,0,,45230,5,,52.79422800000000,1098,228,environ.enforcement@broadland.gov.uk,Broadland,http://www.broadland.gov.uk,1.24787300000000,NR11 6EB,2014-05-29,fhrs_5_en-GB,5,,FHRS,0
6868,,162 Cromer Road,,Hellesdon,"The Firs, Petrogas Group UK Ltd",Retailers - other,4613,10,,117257,5,,52.66522500000000,4649,228,environ.enforcement@broadland.gov.uk,Broadland,http://www.broadland.gov.uk,1.27311400000000,NR6 6XA,2014-11-20,fhrs_4_en-GB,4,,FHRS,0
6869,,48 Salhouse Road,,Rackheath,The Fish & Chip Company,Takeaway/sandwich shop,7844,5,,94399,0,,52.66276900000000,2759,228,environ.enforcement@broadland.gov.uk,Broadland,http://www.broadland.gov.uk,1.37941800000000,NR13 6QH,2014-05-27,fhrs_5_en-GB,5,,FHRS,5
6870,The Fox,Cromer Road,,Hevingham,The Fox Public House,Pub/bar/nightclub,7843,5,,43998,5,,52.74073800000000,1070,228,environ.enforcement@broadland.gov.uk,Broadland,http://www.broadland.gov.uk,1.26448900000000,NR10 5LY,2014-12-09,fhrs_4_en-GB,4,,FHRS,10
6871,Fur & Feather Inn,Slad Lane,,Woodbastiwck,The Fur & Feather Inn,Pub/bar/nightclub,7843,5,,110826,10,,52.68215800000000,4040,228,environ.enforcement@broadland.gov.uk,Broadland,http://www.broadland.gov.uk,1.43912000000000,NR13 6HQ,2014-07-29,fhrs_4_en-GB,4,,FHRS,5
6872,Sapphire House,Roundtree Way,,Sprowston,The Gas Club,Pub/bar/nightclub,7843,,,93860,,,52.64968300000000,27078,228,environ.enforcement@broadland.gov.uk,Broadland,http://www.broadland.gov.uk,1.32767100000000,NR7 8SS,2011-02-09,fhrs_exempt_en-GB,Exempt,,FHRS,
6873,,197 Wroxham Road,,Sprowston,The Golden Plaice,Takeaway/sandwich shop,7844,10,,94370,15,,52.65828200000000,2756,228,environ.enforcement@broadland.gov.uk,Broadland,http://www.broadland.gov.uk,1.32410900000000,NR7 8AG,2014-11-13,fhrs_2_en-GB,2,,FHRS,10
6874,Moulton Nurseries,Acle Road,,Beighton,The Greenhouse Coffee Shop,Restaurant/Cafe/Canteen,1,5,,95094,5,,52.61419400000000,28085,228,environ.enforcement@broadland.gov.uk,Broadland,http://www.broadland.gov.uk,1.54146100000000,NR13 3AP,2013-05-15,fhrs_5_en-GB,5,,FHRS,5
6875,Horstead Centre,Rectory Road,,Horstead With Stanninghall,The Horstead Centre,Other catering premises,7841,5,,146656,5,,52.72806900000000,900,228,environ.enforcement@broadland.gov.uk,Broadland,http://www.broadland.gov.uk,1.35073700000000,NR12 7EP,2013-04-19,fhrs_5_en-GB,5,,FHRS,5
6876,,Buxton,,Norfolk,The Huntercombe Hospital Norwich,Hospitals/Childcare/Caring Premises,5,5,,105356,5,,52.76104600000000,36198,228,environ.enforcement@broadland.gov.uk,Broadland,http://www.broadland.gov.uk,1.28107100000000,NR10 5RH,2013-02-28,fhrs_5_en-GB,5,,FHRS,5
6877,Green Man,Wroxham Road,,Rackheath,The Jefferson Partnership t/a Green Man Public House,Pub/bar/nightclub,7843,20,,41509,15,,52.68349200000000,1029,228,environ.enforcement@broadland.gov.uk,Broadland,http://www.broadland.gov.uk,1.37273100000000,NR13 6NQ,2014-04-15,fhrs_1_en-GB,1,,FHRS,10
6878,,Field Lane,,Blofield,The Kitchen at Imagine Spa,Restaurant/Cafe/Canteen,1,5,,148171,5,,52.64640900000000,92621,228,environ.enforcement@broadland.gov.uk,Broadland,http://www.broadland.gov.uk,1.44555400000000,NR13 4RP,2013-07-08,fhrs_5_en-GB,5,,FHRS,5
6879,,39 The Street,,Brundall,The Lavender House,Restaurant/Cafe/Canteen,1,5,,142787,5,,52.62344000000000,798,228,environ.enforcement@broadland.gov.uk,Broadland,http://www.broadland.gov.uk,1.43621000000000,NR13 5AA,2013-04-05,fhrs_5_en-GB,5,,FHRS,0
6880,,16A Drayton Wood Road,,Hellesdon,The Limes Residential Home,Hospitals/Childcare/Caring Premises,5,5,,103040,5,,52.66674500000000,3446,228,environ.enforcement@broadland.gov.uk,Broadland,http://www.broadland.gov.uk,1.24957300000000,NR6 5BY,2013-10-02,fhrs_5_en-GB,5,,FHRS,5
6881,,,,,The Little Baking Station,Other catering premises,7841,0,,659034,0,,,95780,228,environ.enforcement@broadland.gov.uk,Broadland,http://www.broadland.gov.uk,,,2014-04-29,fhrs_5_en-GB,5,,FHRS,0
6882,Little Chef,New Road,,Acle,The Little Chef,Restaurant/Cafe/Canteen,1,10,,143646,15,,52.63829100000000,812,228,environ.enforcement@broadland.gov.uk,Broadland,http://www.broadland.gov.uk,1.55072700000000,NR13 3BE,2014-02-20,fhrs_2_en-GB,2,,FHRS,15
6883,"The Lodge, Country House",Vicarage Road,,Salhouse,The Lodge Country House    **,Hotel/bed & breakfast/guest house,7842,5,,42497,10,,52.68800800000000,1048,228,environ.enforcement@broadland.gov.uk,Broadland,http://www.broadland.gov.uk,1.40975600000000,NR13 6HD,2014-09-22,fhrs_3_en-GB,3,,FHRS,10
6884,The Mount,Heydon Road,,Aylsham,The Mount Residential Home,Hospitals/Childcare/Caring Premises,5,5,,103253,5,,52.79722000000000,3462,228,environ.enforcement@broadland.gov.uk,Broadland,http://www.broadland.gov.uk,1.24239900000000,NR11 6QT,2014-01-30,fhrs_5_en-GB,5,,FHRS,5
6885,,,,,The Norfolk Sausage Company,Retailers - other,4613,,,535948,,,,94347,228,environ.enforcement@broadland.gov.uk,Broadland,http://www.broadland.gov.uk,,,2013-03-27,fhrs_exempt_en-GB,Exempt,,FHRS,
6886,The Old Pump House,2 Holman Road,,Aylsham,The Old Pump House B & B,Hotel/bed & breakfast/guest house,7842,10,,104999,5,,52.79527400000000,3597,228,environ.enforcement@broadland.gov.uk,Broadland,http://www.broadland.gov.uk,1.24746100000000,NR11 6BY,2011-01-28,fhrs_4_en-GB,4,,FHRS,0
6887,,103 Yarmouth Road,,Thorpe St Andrew,The Old Rectory,Hotel/bed & breakfast/guest house,7842,5,,682644,0,,52.62620400000000,3345,228,environ.enforcement@broadland.gov.uk,Broadland,http://www.broadland.gov.uk,1.34380100000000,NR7 0HF,2014-11-04,fhrs_5_en-GB,5,,FHRS,0
6888,The Old Rectory,Norwich Road,,Acle,The Old Rectory,Hospitals/Childcare/Caring Premises,5,5,,103315,5,,52.63799400000000,3469,228,environ.enforcement@broadland.gov.uk,Broadland,http://www.broadland.gov.uk,1.54592800000000,NR13 3BX,2014-02-18,fhrs_5_en-GB,5,,FHRS,5
6889,,North Walsham Road,,Crostwick,The Old Rectory Hotel,Hotel/bed & breakfast/guest house,7842,5,,102056,0,,52.69208300000000,3368,228,environ.enforcement@broadland.gov.uk,Broadland,http://www.broadland.gov.uk,1.33775100000000,NR12 7BG,2013-01-22,fhrs_5_en-GB,5,,FHRS,5
6890,,18a Red Lion Street,,Aylsham,The Old Tea Rooms,Restaurant/Cafe/Canteen,1,5,,99748,5,,52.79563000000000,3170,228,environ.enforcement@broadland.gov.uk,Broadland,http://www.broadland.gov.uk,1.25219100000000,NR11 6ER,2013-09-05,fhrs_5_en-GB,5,,FHRS,5
6891,,,,,The Partea Hut,Other catering premises,7841,5,,647462,5,,,96004,228,environ.enforcement@broadland.gov.uk,Broadland,http://www.broadland.gov.uk,,,2014-03-25,fhrs_5_en-GB,5,,FHRS,5
6892,The Sports Pavilion,Beech Avenue,,Taverham,The Pavilion,Retailers - other,4613,5,,482076,0,,52.68729900000000,80954,228,environ.enforcement@broadland.gov.uk,Broadland,http://www.broadland.gov.uk,1.18855600000000,NR8 6HP,2014-09-16,fhrs_5_en-GB,5,,FHRS,0
6893,,61 Spinney Road,,Thorpe St Andrew,The Place,Restaurant/Cafe/Canteen,1,10,,659041,10,,52.63802900000000,96094,228,environ.enforcement@broadland.gov.uk,Broadland,http://www.broadland.gov.uk,1.34863600000000,NR7 0PL,2014-04-09,fhrs_2_en-GB,2,,FHRS,15
6894,The Plough Inn,Norwich Road,,Marsham,The Plough Inn,Pub/bar/nightclub,7843,5,,102010,5,,52.77006700000000,3362,228,environ.enforcement@broadland.gov.uk,Broadland,http://www.broadland.gov.uk,1.25594900000000,NR10 5PS,2013-01-04,fhrs_5_en-GB,5,,FHRS,5
6895,,108 The Street,,Brundall,The Ram Public House,Pub/bar/nightclub,7843,5,,455753,5,,52.62541500000000,1046,228,environ.enforcement@broadland.gov.uk,Broadland,http://www.broadland.gov.uk,1.42766000000000,NR13 5LP,2012-10-03,fhrs_4_en-GB,4,,FHRS,10
6896,The River Garden,36 Yarmouth Road,,Thorpe St Andrew,The Rivergarden,Pub/bar/nightclub,7843,10,,40638,5,,52.62622600000000,1015,228,environ.enforcement@broadland.gov.uk,Broadland,http://www.broadland.gov.uk,1.33632400000000,NR7 0EQ,2012-12-17,fhrs_4_en-GB,4,,FHRS,5
6897,,,,,The Rooster,Mobile caterer,7846,5,,520827,5,,,94607,228,environ.enforcement@broadland.gov.uk,Broadland,http://www.broadland.gov.uk,,,2013-03-12,fhrs_5_en-GB,5,,FHRS,0
6898,Point House,5 High Street,,Coltishall,The Royal Blossom,Restaurant/Cafe/Canteen,1,5,,64280,10,,52.72872600000000,14253,228,environ.enforcement@broadland.gov.uk,Broadland,http://www.broadland.gov.uk,1.35739500000000,NR12 7AA,2013-07-18,fhrs_4_en-GB,4,,FHRS,5
6899,The Ship,18 The Street,,South Walsham,The Ship Inn,Pub/bar/nightclub,7843,5,,42311,5,,52.66484900000000,1044,228,environ.enforcement@broadland.gov.uk,Broadland,http://www.broadland.gov.uk,1.49671100000000,NR13 6DQ,2014-11-03,fhrs_4_en-GB,4,,FHRS,10
6900,The Ship,Riverside,,Reedham,The Ship Public House,Pub/bar/nightclub,7843,5,,41776,5,,52.55874200000000,1034,228,environ.enforcement@broadland.gov.uk,Broadland,http://www.broadland.gov.uk,1.57442900000000,NR13 3TQ,2014-03-19,fhrs_5_en-GB,5,,FHRS,5
6901,,,,,The Snack Stop,Mobile caterer,7846,5,,148173,5,,,92629,228,environ.enforcement@broadland.gov.uk,Broadland,http://www.broadland.gov.uk,,,2013-03-15,fhrs_5_en-GB,5,,FHRS,0
6902,,,,,The Studio,Other catering premises,7841,5,,146208,5,,,88623,228,environ.enforcement@broadland.gov.uk,Broadland,http://www.broadland.gov.uk,,,2013-05-28,fhrs_5_en-GB,5,,FHRS,0
6903,,40 Station Road,,Salhouse,The Swallows Day Care Centre,Hospitals/Childcare/Caring Premises,5,5,,143995,5,,52.67277500000000,81898,228,environ.enforcement@broadland.gov.uk,Broadland,http://www.broadland.gov.uk,1.39152400000000,NR13 6NY,2013-11-15,fhrs_5_en-GB,5,,FHRS,5
6904,,1 The Street,,Ringland,The Swan Inn,Pub/bar/nightclub,7843,5,,40096,5,,52.68088100000000,1008,228,environ.enforcement@broadland.gov.uk,Broadland,http://www.broadland.gov.uk,1.16194100000000,NR8 6AB,2014-12-17,fhrs_5_en-GB,5,,FHRS,5
6905,,Central Avenue,,Thorpe St Andrew,The Terrace Cafe,Restaurant/Cafe/Canteen,1,5,,64752,10,,52.62907700000000,14458,228,environ.enforcement@broadland.gov.uk,Broadland,http://www.broadland.gov.uk,1.36524600000000,NR7 0HS,2014-04-02,fhrs_4_en-GB,4,,FHRS,5
6906,,157A Wroxham Road,,Sprowston,The Warren Residential Home,Hospitals/Childcare/Caring Premises,5,0,,103007,5,,52.65704400000000,3443,228,environ.enforcement@broadland.gov.uk,Broadland,http://www.broadland.gov.uk,1.32141200000000,NR7 8AF,2014-03-05,fhrs_5_en-GB,5,,FHRS,5
6907,The Whitwell & Reepham Station,Whitwell Road,,Reepham,The Whitwell & Reepham Station,Restaurant/Cafe/Canteen,1,5,,146213,5,,52.75173900000000,88657,228,environ.enforcement@broadland.gov.uk,Broadland,http://www.broadland.gov.uk,1.09754600000000,NR10 4GA,2014-11-26,fhrs_5_en-GB,5,,FHRS,5
6908,,,,,The Yare Public House,Pub/bar/nightclub,7843,5,,42047,10,,,1039,228,environ.enforcement@broadland.gov.uk,Broadland,http://www.broadland.gov.uk,,,2014-02-07,fhrs_4_en-GB,4,,FHRS,5
6909,,156 Yarmouth Road,,Thorpe St Andrew,Thorpe Butchers,Retailers - other,4613,0,,96238,0,,52.62835400000000,2908,228,environ.enforcement@broadland.gov.uk,Broadland,http://www.broadland.gov.uk,1.35904100000000,NR7 0AD,2014-11-27,fhrs_5_en-GB,5,,FHRS,0
6910,,159 Thunder Lane,,Thorpe St Andrew,Thorpe Convenience Stores,Retailers - other,4613,,,99520,,,52.63353000000000,3150,228,environ.enforcement@broadland.gov.uk,Broadland,http://www.broadland.gov.uk,1.34332600000000,NR7 0JG,2014-09-04,fhrs_5_en-GB,5,,FHRS,
6911,,65 Plumstead Road,,Thorpe End,Thorpe End Post Office Stores,Retailers - other,4613,10,,97871,5,,52.64999300000000,3060,228,environ.enforcement@broadland.gov.uk,Broadland,http://www.broadland.gov.uk,1.36948500000000,NR13 5AJ,2014-03-18,fhrs_2_en-GB,2,,FHRS,15
6912,,188 Yarmouth Road,,Thorpe St Andrew,Thorpe Fish Bar,Takeaway/sandwich shop,7844,5,,94362,10,,52.62845846000000,2755,228,environ.enforcement@broadland.gov.uk,Broadland,http://www.broadland.gov.uk,1.35887561000000,NR7 OAD,2014-03-07,fhrs_4_en-GB,4,,FHRS,5
6913,,7 Yarmouth Road,,Thorpe St Andrew,Thorpe House Langley Preparatory School,School/college/university,7845,5,,144190,5,,52.62803200000000,825,228,environ.enforcement@broadland.gov.uk,Broadland,http://www.broadland.gov.uk,1.33000300000000,NR7 0EA,2013-09-25,fhrs_5_en-GB,5,,FHRS,0
6914,,Yarmouth Road,,Thorpe St Andrew,Thorpe St Andrew Village Hall (Roxley),Other catering premises,7841,,,64108,,,52.62685600000000,1419,228,environ.enforcement@broadland.gov.uk,Broadland,http://www.broadland.gov.uk,1.33179100000000,NR7 OQF,2011-01-10,fhrs_exempt_en-GB,Exempt,,FHRS,
6915,,160 Plumstead Road East,,Thorpe St Andrew,Thunder Lane Garage Ltd,Retailers - other,4613,5,,90401,0,,52.64156600000000,2460,228,environ.enforcement@broadland.gov.uk,Broadland,http://www.broadland.gov.uk,1.34442700000000,NR7 9NQ,2012-08-29,fhrs_5_en-GB,5,,FHRS,0
6916,Sprowston Community Hub,Aslake Close,,Sprowston,TLC Dinner Choices at Sprowston Community Hub,Hospitals/Childcare/Caring Premises,5,5,,106735,0,,52.66115100000000,37277,228,environ.enforcement@broadland.gov.uk,Broadland,http://www.broadland.gov.uk,1.32762600000000,NR7 8ET,2014-10-08,fhrs_5_en-GB,5,,FHRS,5
6917,,88 The Paddocks,,Old Catton,Tongs,Takeaway/sandwich shop,7844,10,,94599,10,,52.66973000000000,2778,228,environ.enforcement@broadland.gov.uk,Broadland,http://www.broadland.gov.uk,1.30710800000000,NR6 7HS,2013-11-28,fhrs_4_en-GB,4,,FHRS,0
6918,,315 Reepham Road,,Hellesdon,Toombs Butchers Ltd,Retailers - other,4613,5,,96004,5,,52.66897600000000,2895,228,environ.enforcement@broadland.gov.uk,Broadland,http://www.broadland.gov.uk,1.25579000000000,NR6 5AD,2014-09-12,fhrs_5_en-GB,5,,FHRS,0
6919,,161 Thunder Lane,,Thorpe St Andrew,Top Chef,Takeaway/sandwich shop,7844,5,,94354,5,,52.63353000000000,2754,228,environ.enforcement@broadland.gov.uk,Broadland,http://www.broadland.gov.uk,1.34332600000000,NR7 0JG,2015-01-13,fhrs_4_en-GB,4,,FHRS,10
6920,,Ringland Estate,,Ringland,Top Dog Paintballing (Mobile),Mobile caterer,7846,5,,462879,5,,52.68267200000000,94252,228,environ.enforcement@broadland.gov.uk,Broadland,http://www.broadland.gov.uk,1.15345800000000,NR8 6JJ,2013-10-23,fhrs_5_en-GB,5,,FHRS,0
6921,Top of the Crop,26 High Street,,Coltishall,Top of the Crop,Retailers - other,4613,10,,110553,15,,52.72814200000000,40194,228,environ.enforcement@broadland.gov.uk,Broadland,http://www.broadland.gov.uk,1.35829800000000,NR12 7DH,2014-06-18,fhrs_2_en-GB,2,,FHRS,15
6922,,18/22 Yarmouth Road,,Thorpe St Andrew,Town House Hotel,Pub/bar/nightclub,7843,5,,101808,5,,52.62659100000000,3347,228,environ.enforcement@broadland.gov.uk,Broadland,http://www.broadland.gov.uk,1.33326300000000,NR7 0EF,2013-12-10,fhrs_5_en-GB,5,,FHRS,5
6923,,,,,Tracy's Tasty Cake Creations,Retailers - other,4613,5,,682653,5,,,95867,228,environ.enforcement@broadland.gov.uk,Broadland,http://www.broadland.gov.uk,,,2014-06-19,fhrs_5_en-GB,5,,FHRS,5
6924,Sapphire Business Park,Roundtree Way,,Sprowston,Truly Scrumptious,Mobile caterer,7846,5,,145355,5,,52.64968300000000,85972,228,environ.enforcement@broadland.gov.uk,Broadland,http://www.broadland.gov.uk,1.32767100000000,NR7 8SQ,2013-11-26,fhrs_5_en-GB,5,,FHRS,5
6925,,,,,Twinkles Sprinkles,Other catering premises,7841,5,,726228,5,,,96870,228,environ.enforcement@broadland.gov.uk,Broadland,http://www.broadland.gov.uk,,,2014-12-02,fhrs_5_en-GB,5,,FHRS,5
6926,,212-216 Fakenham Road,,Taverham,Two Acres Care Home,Hospitals/Childcare/Caring Premises,5,5,,102870,5,,52.68447000000000,3431,228,environ.enforcement@broadland.gov.uk,Broadland,http://www.broadland.gov.uk,1.20341500000000,NR8 6QN,2014-01-31,fhrs_5_en-GB,5,,FHRS,5
6927,The Unicorn Inn,10 Hungate Street,,Aylsham,Unicorn Public House,Pub/bar/nightclub,7843,5,,44041,0,,52.79397200000000,1071,228,environ.enforcement@broadland.gov.uk,Broadland,http://www.broadland.gov.uk,1.25033200000000,NR11 6AA,2014-11-13,fhrs_5_en-GB,5,,FHRS,5
6928,Roundwood Bowls Club,44 Ringland Road,,Taverham,United Business & Leisure (Roundwood),Pub/bar/nightclub,7843,5,,143463,5,,52.68314100000000,809,228,environ.enforcement@broadland.gov.uk,Broadland,http://www.broadland.gov.uk,1.17863400000000,NR8 6HY,2013-07-29,fhrs_5_en-GB,5,,FHRS,5
6929,U C P Zeller Plastik,Salhouse Road,,Sprowston,United Closures & Plastics,Restaurant/Cafe/Canteen,1,10,,53390,10,,52.64955900000000,1203,228,environ.enforcement@broadland.gov.uk,Broadland,http://www.broadland.gov.uk,1.33399100000000,NR7 9AL,2014-03-04,fhrs_3_en-GB,3,,FHRS,10
6930,,,,,Unwind,Other catering premises,7841,5,,478341,5,,,94329,228,environ.enforcement@broadland.gov.uk,Broadland,http://www.broadland.gov.uk,,,2014-05-13,fhrs_5_en-GB,5,,FHRS,5
6931,,,,,Urban Soul Kitchen,Restaurant/Cafe/Canteen,1,10,,147425,10,,,91900,228,environ.enforcement@broadland.gov.uk,Broadland,http://www.broadland.gov.uk,,,2014-03-27,fhrs_3_en-GB,3,,FHRS,10
6932,,,,,Vanilla Chilli,Other catering premises,7841,5,,570486,5,,,94342,228,environ.enforcement@broadland.gov.uk,Broadland,http://www.broadland.gov.uk,,,2013-07-11,fhrs_5_en-GB,5,,FHRS,5
6933,,,,,Vanilla Kisses Cakery,Other catering premises,7841,5,,666569,5,,,96204,228,environ.enforcement@broadland.gov.uk,Broadland,http://www.broadland.gov.uk,,,2014-05-16,fhrs_5_en-GB,5,,FHRS,5
6934,,33 High Street,,Foulsham,Village Stores,Retailers - other,4613,10,,666557,0,,52.78282300000000,2857,228,environ.enforcement@broadland.gov.uk,Broadland,http://www.broadland.gov.uk,1.01116400000000,NR20 5RT,2014-05-23,fhrs_4_en-GB,4,,FHRS,0
6935,,Drayton High Road,,Hellesdon,Virgin Active Norfolk Health and Racquets Club,Restaurant/Cafe/Canteen,1,10,,144340,10,,52.65447300000000,82838,228,environ.enforcement@broadland.gov.uk,Broadland,http://www.broadland.gov.uk,1.26348100000000,NR6 5DU,2013-08-08,fhrs_3_en-GB,3,,FHRS,10
6936,Townsend Corner,Station Road,,Reepham,V's Cafe,Restaurant/Cafe/Canteen,1,5,,143672,5,,52.76246500000000,81230,228,environ.enforcement@broadland.gov.uk,Broadland,http://www.broadland.gov.uk,1.10969300000000,NR10 4LD,2014-04-03,fhrs_5_en-GB,5,,FHRS,5
6937,Walnut Tree Cottage,56 The Street,,Ringland,Walnut Tree Catering,Other catering premises,7841,5,,146498,5,,52.68088100000000,89496,228,environ.enforcement@broadland.gov.uk,Broadland,http://www.broadland.gov.uk,1.16194100000000,NR8 6AB,2014-02-20,fhrs_5_en-GB,5,,FHRS,0
6938,,Old Chapel Way,,Postwick,Waterside Cafe,Restaurant/Cafe/Canteen,1,5,,147214,5,,52.62936800000000,91151,228,environ.enforcement@broadland.gov.uk,Broadland,http://www.broadland.gov.uk,1.37175700000000,NR7 0WG,2013-02-18,fhrs_5_en-GB,5,,FHRS,0
6939,Wensum Valley Golf Club,Beech Avenue,,Taverham,"Wensum Valley Hotel, Golf & Country Club",Restaurant/Cafe/Canteen,1,5,,50889,5,,52.68729900000000,1136,228,environ.enforcement@broadland.gov.uk,Broadland,http://www.broadland.gov.uk,1.18855600000000,NR8 6HP,2014-02-14,fhrs_5_en-GB,5,,FHRS,5
6940,,Weston Park,,Weston Longville,Weston Park Golf Club & Restaurant,Pub/bar/nightclub,7843,5,,114345,5,,52.70619200000000,4337,228,environ.enforcement@broadland.gov.uk,Broadland,http://www.broadland.gov.uk,1.12076000000000,NR9 5JN,2013-09-19,fhrs_5_en-GB,5,,FHRS,5
6941,,Norwich Road,,Wroxham,Wherryman Restaurant,Restaurant/Cafe/Canteen,1,5,,682650,5,,52.71021900000000,794,228,environ.enforcement@broadland.gov.uk,Broadland,http://www.broadland.gov.uk,1.40396600000000,NR12 8RX,2014-06-12,fhrs_5_en-GB,5,,FHRS,5
6942,The Whiffler,Boundary Road,,Hellesdon,Whiffler Public House,Pub/bar/nightclub,7843,5,,43707,5,,52.65452300000000,1063,228,environ.enforcement@broadland.gov.uk,Broadland,http://www.broadland.gov.uk,1.26919300000000,NR6 5JB,2014-08-19,fhrs_5_en-GB,5,,FHRS,5
6943,,Norwich Road,,Aylsham,Whistlestop Restaurant,Restaurant/Cafe/Canteen,1,10,,143369,5,,52.79113900000000,807,228,environ.enforcement@broadland.gov.uk,Broadland,http://www.broadland.gov.uk,1.25460100000000,NR11 6BW,2013-04-09,fhrs_4_en-GB,4,,FHRS,5
6944,White Horse,17 Chapel Road,,Upton,White Horse,Pub/bar/nightclub,7843,5,,49577,5,,52.65843100000000,11003,228,environ.enforcement@broadland.gov.uk,Broadland,http://www.broadland.gov.uk,1.54196300000000,NR13 6BT,2014-02-25,fhrs_4_en-GB,4,,FHRS,10
6945,White Horse,North Walsham Road,,Crostwick,White Horse Public House & B&B,Hotel/bed & breakfast/guest house,7842,5,,41356,5,,52.69769100000000,1026,228,environ.enforcement@broadland.gov.uk,Broadland,http://www.broadland.gov.uk,1.34109500000000,NR12 7BD,2013-11-18,fhrs_5_en-GB,5,,FHRS,5
6946,,100 The Paddocks,,Old Catton,William Morrisons Supermarkets Plc,Retailers - supermarkets/hypermarkets,7840,5,,95160,5,,52.66973000000000,2818,228,environ.enforcement@broadland.gov.uk,Broadland,http://www.broadland.gov.uk,1.30710800000000,NR6 7HS,2013-11-27,fhrs_5_en-GB,5,,FHRS,0
6947,,Norton Corner,,Wood Dalling,Wood Dalling Post Office Store,Retailers - other,4613,5,,666558,10,,52.81221500000000,3085,228,environ.enforcement@broadland.gov.uk,Broadland,http://www.broadland.gov.uk,1.10658100000000,NR11 6AQ,2014-06-04,fhrs_4_en-GB,4,,FHRS,5
6948,,189 Woodland Road,,Hellesdon,Woodland Care Home,Hospitals/Childcare/Caring Premises,5,5,,102893,5,,52.66757200000000,3433,228,environ.enforcement@broadland.gov.uk,Broadland,http://www.broadland.gov.uk,1.25419100000000,NR6 5RQ,2015-01-15,fhrs_5_en-GB,5,,FHRS,5
6949,,196 Middletons Lane,,Hellesdon,Woodland Stores Spar,Retailers - other,4613,5,,95487,0,,52.66042900000000,2847,228,environ.enforcement@broadland.gov.uk,Broadland,http://www.broadland.gov.uk,1.25522800000000,NR6 5SA,2014-10-21,fhrs_5_en-GB,5,,FHRS,0
6950,,North Walsham Road,,Old Catton,Woodman Public House,Pub/bar/nightclub,7843,5,,41262,5,,52.65734500000000,1024,228,environ.enforcement@broadland.gov.uk,Broadland,http://www.broadland.gov.uk,1.30618700000000,NR6 7QA,2013-08-21,fhrs_5_en-GB,5,,FHRS,5
6951,Woodmans Farm,Cromer Road,,Stratton Strawless,Woodman's Farm B & B,Hotel/bed & breakfast/guest house,7842,0,,105766,0,,52.73288400000000,36460,228,environ.enforcement@broadland.gov.uk,Broadland,http://www.broadland.gov.uk,1.27047900000000,NR10 5LU,2014-03-31,fhrs_5_en-GB,5,,FHRS,0
6952,,129 Woodside Road,,Thorpe St. Andrew,Woodside Snooker Centre,Pub/bar/nightclub,7843,5,,659023,0,,52.64282500000000,1111,228,environ.enforcement@broadland.gov.uk,Broadland,http://www.broadland.gov.uk,1.34218700000000,NR7 9HA,2014-10-29,fhrs_5_en-GB,5,,FHRS,0
6953,,1 Bernard Close,,Rackheath,Wright Way,Retailers - other,4613,5,,719658,5,,52.65999700000000,3514,228,environ.enforcement@broadland.gov.uk,Broadland,http://www.broadland.gov.uk,1.38137800000000,NR13 6QS,2014-11-21,fhrs_5_en-GB,5,,FHRS,5
6954,Wroxham Football Club,35 Skinners Lane,,Wroxham,Wroxham Football Club,Pub/bar/nightclub,7843,5,,372169,5,,52.70247500000000,1130,228,environ.enforcement@broadland.gov.uk,Broadland,http://www.broadland.gov.uk,1.39769300000000,NR12 8SJ,2013-11-26,fhrs_5_en-GB,5,,FHRS,5
6955,,90 Norwich Road,,Wroxham,Wroxham Social Club,Other catering premises,7841,,,63117,,,52.70794600000000,1398,228,environ.enforcement@broadland.gov.uk,Broadland,http://www.broadland.gov.uk,1.40260500000000,NR12 8RY,2011-01-14,fhrs_exempt_en-GB,Exempt,,FHRS,
6956,"Express Stores, 3 Shopping Centre",Corbet Avenue,,Sprowston,Xpress Stores,Retailers - other,4613,10,,95347,15,,52.64894700000000,2833,228,environ.enforcement@broadland.gov.uk,Broadland,http://www.broadland.gov.uk,1.31829900000000,NR7 8HN,2014-11-05,fhrs_2_en-GB,2,,FHRS,10
6957,,,,,Yew Tree House Bed & Breakfast,Hotel/bed & breakfast/guest house,7842,5,,130238,10,,,6134,228,environ.enforcement@broadland.gov.uk,Broadland,http://www.broadland.gov.uk,,,2014-07-28,fhrs_4_en-GB,4,,FHRS,5
