,addressline1,addressline2,addressline3,addressline4,businessname,businesstype,businesstypeid,confidenceinmanagement,extractdate,fhrsid,hygiene,itemcount,latitude,localauthoritybusinessid,localauthoritycode,localauthorityemailaddress,localauthorityname,localauthoritywebsite,longitude,postcode,ratingdate,ratingkey,ratingvalue,returncode,schemetype,structural
17936,,Unit 6 Regent Road,Market Gates Shopping Centre,Great Yarmouth,99p Store,Retailers - other,4613,,,693990,,,52.60687200000000,37277,229,health@great-yarmouth.gov.uk,Great Yarmouth,http://www.great-yarmouth.gov.uk/live/index.htm,1.72597800000000,NR30 1RN,2014-07-23,fhrs_4_en-GB,4,,FHRS,
17937,,,,,A Slice of Heaven,Retailers - other,4613,5,,621827,0,,,42064,229,health@great-yarmouth.gov.uk,Great Yarmouth,http://www.great-yarmouth.gov.uk/live/index.htm,,,2013-01-24,fhrs_5_en-GB,5,,FHRS,0
17938,,Abbeville Sands Care Home,10-11 Sandown Road,Great Yarmouth,Abbeville Sands,Hospitals/Childcare/Caring Premises,5,10,,723601,10,,52.61382200000000,44056,229,health@great-yarmouth.gov.uk,Great Yarmouth,http://www.great-yarmouth.gov.uk/live/index.htm,1.73550900000000,NR301EY,2014-12-08,fhrs_3_en-GB,3,,FHRS,5
17939,,104 Beach Road,Scratby,Ormesby St Margaret W Scratby,Abigails Tea Rooms,Restaurant/Cafe/Canteen,1,5,,664619,5,,52.67837600000000,26064,229,health@great-yarmouth.gov.uk,Great Yarmouth,http://www.great-yarmouth.gov.uk/live/index.htm,1.71667600000000,NR29 3PG,2014-06-03,fhrs_5_en-GB,5,,FHRS,5
17940,,Main Road A1064,Acle Bridge,Fleggburgh,Acle Bridge Stores,Restaurant/Cafe/Canteen,1,5,,664626,0,,52.64832800000000,43014,229,health@great-yarmouth.gov.uk,Great Yarmouth,http://www.great-yarmouth.gov.uk/live/index.htm,1.56810400000000,NR13 3AT,2014-05-20,fhrs_5_en-GB,5,,FHRS,0
17941,,26-27 Mill Road,Great Yarmouth,Norfolk,AJ's Convenience Store / Premier,Retailers - other,4613,5,,621804,5,,52.60673100000000,38237,229,health@great-yarmouth.gov.uk,Great Yarmouth,http://www.great-yarmouth.gov.uk/live/index.htm,1.71788400000000,NR31 0AA,2013-12-17,fhrs_5_en-GB,5,,FHRS,5
17942,,70 Regent Road,Great Yarmouth,Norfolk,Albatross Restaurant,Restaurant/Cafe/Canteen,1,10,,621767,5,,52.60765600000000,26362,229,health@great-yarmouth.gov.uk,Great Yarmouth,http://www.great-yarmouth.gov.uk/live/index.htm,1.73423000000000,NR30 2AJ,2014-07-02,fhrs_2_en-GB,2,,FHRS,15
17943,,Albert Tavern,20-21 Southgates Rd,Great Yarmouth,Albert Tavern,Pub/bar/nightclub,7843,5,,621744,0,,52.59706600000000,19021,229,health@great-yarmouth.gov.uk,Great Yarmouth,http://www.great-yarmouth.gov.uk/live/index.htm,1.72832100000000,NR30 3LJ,2013-01-15,fhrs_5_en-GB,5,,FHRS,0
17944,,North Quay,Great Yarmouth,Norfolk,Aldi,Retailers - supermarkets/hypermarkets,7840,5,,635357,5,,52.61142400000000,27451,229,health@great-yarmouth.gov.uk,Great Yarmouth,http://www.great-yarmouth.gov.uk/live/index.htm,1.72255300000000,NR30 1JT,2014-02-14,fhrs_5_en-GB,5,,FHRS,0
17945,,38 Southgates Road,Great Yarmouth,Norfolk,All Fed Up,Restaurant/Cafe/Canteen,1,5,,664629,5,,52.59590300000000,43056,229,health@great-yarmouth.gov.uk,Great Yarmouth,http://www.great-yarmouth.gov.uk/live/index.htm,1.72839900000000,NR30 3LL,2014-05-01,fhrs_5_en-GB,5,,FHRS,0
17946,,55-56 Clarence Road,Gorleston,Great Yarmouth,All Seasons Lodge Hotel,Hotel/bed & breakfast/guest house,7842,10,,731248,0,,52.56929400000000,6587,229,health@great-yarmouth.gov.uk,Great Yarmouth,http://www.great-yarmouth.gov.uk/live/index.htm,1.72847100000000,NR31 6DR,2015-01-13,fhrs_4_en-GB,4,,FHRS,5
17947,,4 Greyfriars Way,Great Yarmouth,Norfolk,Allens Bar,Pub/bar/nightclub,7843,,,621747,,,52.60591100000000,19154,229,health@great-yarmouth.gov.uk,Great Yarmouth,http://www.great-yarmouth.gov.uk/live/index.htm,1.72622200000000,NR30 2QE,2013-08-15,fhrs_5_en-GB,5,,FHRS,
17948,,153 King Street,"Great Yarmouth,",Norfolk,Almis,Retailers - other,4613,10,,703652,15,,52.60578500000000,38452,229,health@great-yarmouth.gov.uk,Great Yarmouth,http://www.great-yarmouth.gov.uk/live/index.htm,1.72795400000000,NR30 2PA,2014-09-10,fhrs_2_en-GB,2,,FHRS,5
17949,,65a King Street,Great Yarmouth,Norfolk,Almis Supermarket,Retailers - other,4613,5,,708293,10,,52.60181100000000,43698,229,health@great-yarmouth.gov.uk,Great Yarmouth,http://www.great-yarmouth.gov.uk/live/index.htm,1.72989100000000,NR30 2PP,2014-10-01,fhrs_4_en-GB,4,,FHRS,5
17950,,,,,Alta Bothas Rusk,Retailers - other,4613,5,,621828,0,,,42065,229,health@great-yarmouth.gov.uk,Great Yarmouth,http://www.great-yarmouth.gov.uk/live/index.htm,,,2013-03-08,fhrs_5_en-GB,5,,FHRS,0
17951,,68-70 Avondale Road,Gorleston,"Great Yarmouth, Norfolk",Amber House,Hotel/bed & breakfast/guest house,7842,0,,711783,5,,52.56992500000000,6803,229,health@great-yarmouth.gov.uk,Great Yarmouth,http://www.great-yarmouth.gov.uk/live/index.htm,1.72988300000000,NR31 6DJ,2014-10-16,fhrs_5_en-GB,5,,FHRS,5
17952,,Amber Lodge,21 Princes Rd,Great Yarmouth,Amber Lodge,Hotel/bed & breakfast/guest house,7842,5,,688981,5,,52.60896300000000,18168,229,health@great-yarmouth.gov.uk,Great Yarmouth,http://www.great-yarmouth.gov.uk/live/index.htm,1.73583400000000,NR30 2DG,2014-07-30,fhrs_5_en-GB,5,,FHRS,0
17953,,Marine Parade,Great Yarmouth,Norfolk,Anchor Cafe,Restaurant/Cafe/Canteen,1,,,621829,,,52.60431600000000,42066,229,health@great-yarmouth.gov.uk,Great Yarmouth,http://www.great-yarmouth.gov.uk/live/index.htm,1.73716600000000,NR30 2ER,2013-07-02,fhrs_5_en-GB,5,,FHRS,
17954,,Marine Parade,Great Yarmouth,Norfolk,Anchor Gardens Cafe,Restaurant/Cafe/Canteen,1,10,,621957,5,,52.60431600000000,42307,229,health@great-yarmouth.gov.uk,Great Yarmouth,http://www.great-yarmouth.gov.uk/live/index.htm,1.73716600000000,NR30 2ER,2014-05-13,fhrs_4_en-GB,4,,FHRS,5
17955,,28-30 Camperdown,Great Yarmouth,Norfolk,Andover House,Hotel/bed & breakfast/guest house,7842,5,,719513,10,,52.60038800000000,37587,229,health@great-yarmouth.gov.uk,Great Yarmouth,http://www.great-yarmouth.gov.uk/live/index.htm,1.73395100000000,NR30 3JB,2014-11-18,fhrs_4_en-GB,4,,FHRS,5
17956,,26 High Street,Caister-On-Sea,Norfolk,Andrews Traditional Fish&Chips,Takeaway/sandwich shop,7844,,,699983,,,52.64697500000000,4349,229,health@great-yarmouth.gov.uk,Great Yarmouth,http://www.great-yarmouth.gov.uk/live/index.htm,1.72871000000000,NR30 5EP,2014-12-09,fhrs_5_en-GB,5,,FHRS,
17957,,Beach Road,Hemsby,Great Yarmouth,Andy's Fish and Chip Shop,Restaurant/Cafe/Canteen,1,10,,664625,10,,52.69576500000000,42970,229,health@great-yarmouth.gov.uk,Great Yarmouth,http://www.great-yarmouth.gov.uk/live/index.htm,1.70426800000000,NR294HS,2014-05-09,fhrs_3_en-GB,3,,FHRS,5
17958,,,,,Annes Cakes for all Occasions,Other catering premises,7841,5,,671763,0,,,33322,229,health@great-yarmouth.gov.uk,Great Yarmouth,http://www.great-yarmouth.gov.uk/live/index.htm,,,2014-06-04,fhrs_5_en-GB,5,,FHRS,0
17959,,2 St Peters Road,Great Yarmouth,Norfolk,Antonio's Bar,Pub/bar/nightclub,7843,5,,621810,0,,52.60284600000000,40501,229,health@great-yarmouth.gov.uk,Great Yarmouth,http://www.great-yarmouth.gov.uk/live/index.htm,1.73017100000000,NR30 3AU,2013-03-18,fhrs_5_en-GB,5,,FHRS,0
17960,,,,,Appetites 4 Occasions,Other catering premises,7841,0,,621830,0,,,42067,229,health@great-yarmouth.gov.uk,Great Yarmouth,http://www.great-yarmouth.gov.uk/live/index.htm,,,2013-04-15,fhrs_5_en-GB,5,,FHRS,0
17961,,Bath Hill Terrace,Great Yarmouth,Norfolk,Appleton Lodge,Hospitals/Childcare/Caring Premises,5,5,,621754,5,,52.60494100000000,22020,229,health@great-yarmouth.gov.uk,Great Yarmouth,http://www.great-yarmouth.gov.uk/live/index.htm,1.73447200000000,NR30 2LF,2013-04-30,fhrs_5_en-GB,5,,FHRS,5
17962,,61-69 Lowestoft Road,Gorleston,"Great Yarmouth, Norfolk",Arcadian Club,Pub/bar/nightclub,7843,5,,693998,0,,52.57394000000000,6808,229,health@great-yarmouth.gov.uk,Great Yarmouth,http://www.great-yarmouth.gov.uk/live/index.htm,1.72576600000000,NR31 6SH,2014-08-19,fhrs_5_en-GB,5,,FHRS,0
17963,,93/94 North Denes Road,Great Yarmouth,,Arden Court Hotel,Hotel/bed & breakfast/guest house,7842,5,,683102,5,,52.61913000000000,43227,229,health@great-yarmouth.gov.uk,Great Yarmouth,http://www.great-yarmouth.gov.uk/live/index.htm,1.73346400000000,NR30 4LW,2014-06-20,fhrs_5_en-GB,5,,FHRS,5
17964,,Vauxhall Station,Great Yarmouth,Norfolk,Asda Great Yarmouth,Retailers - supermarkets/hypermarkets,7840,0,,622032,0,,52.61356500000000,887,229,health@great-yarmouth.gov.uk,Great Yarmouth,http://www.great-yarmouth.gov.uk/live/index.htm,1.71880300000000,NR30 1SF,2013-02-01,fhrs_5_en-GB,5,,FHRS,5
17965,,60 Marine Parade,Great Yarmouth,Norfolk,Atlantis Fish & Chip Restaurant,Restaurant/Cafe/Canteen,1,20,,688987,20,,52.60687300000000,43345,229,health@great-yarmouth.gov.uk,Great Yarmouth,http://www.great-yarmouth.gov.uk/live/index.htm,1.73621700000000,NR30 2EJ,2014-07-18,fhrs_1_en-GB,1,,FHRS,5
17966,,93 Southtown Road,Great Yarmouth,Norfolk,Avery Lodge,Hospitals/Childcare/Caring Premises,5,5,,621750,5,,52.59581700000000,21970,229,health@great-yarmouth.gov.uk,Great Yarmouth,http://www.great-yarmouth.gov.uk/live/index.htm,1.72486200000000,NR31 0JX,2014-11-19,fhrs_5_en-GB,5,,FHRS,5
17967,,Pasteur Road,Great Yarmouth,Norfolk,B & M,Retailers - other,4613,0,,621831,0,,52.60479000000000,42069,229,health@great-yarmouth.gov.uk,Great Yarmouth,http://www.great-yarmouth.gov.uk/live/index.htm,1.71841400000000,NR31 0DW,2014-08-28,fhrs_5_en-GB,5,,FHRS,0
17968,,Thamesfield Way,Great Yarmouth,Norfolk,B & Q Cafe,Restaurant/Cafe/Canteen,1,10,,731240,10,,52.59923100000000,41991,229,health@great-yarmouth.gov.uk,Great Yarmouth,http://www.great-yarmouth.gov.uk/live/index.htm,1.71785400000000,NR31 0DH,2015-01-06,fhrs_3_en-GB,3,,FHRS,10
17969,,,,,Baked From The Heart,Retailers - other,4613,5,,621863,0,,,42143,229,health@great-yarmouth.gov.uk,Great Yarmouth,http://www.great-yarmouth.gov.uk/live/index.htm,,,2013-09-12,fhrs_5_en-GB,5,,FHRS,0
17970,,36 Regent Road,Great Yarmouth,Norfolk,Bakers Retail,Restaurant/Cafe/Canteen,1,5,,671755,5,,52.60765600000000,27063,229,health@great-yarmouth.gov.uk,Great Yarmouth,http://www.great-yarmouth.gov.uk/live/index.htm,1.73423000000000,NR30 2AJ,2014-06-12,fhrs_5_en-GB,5,,FHRS,0
17971,,,,,Baking with Beryl,School/college/university,7845,0,,621866,0,,,42149,229,health@great-yarmouth.gov.uk,Great Yarmouth,http://www.great-yarmouth.gov.uk/live/index.htm,,,2013-09-04,fhrs_5_en-GB,5,,FHRS,0
17972,,42 Lancaster Road,Great Yarmouth,Norfolk,Baleal Pizza,Restaurant/Cafe/Canteen,1,10,,621832,10,,52.60340500000000,42070,229,health@great-yarmouth.gov.uk,Great Yarmouth,http://www.great-yarmouth.gov.uk/live/index.htm,1.73552300000000,NR30 2NG,2015-01-20,fhrs_3_en-GB,3,,FHRS,5
17973,,182 Church Road,Gorleston,"Great Yarmouth, Norfolk",Bamboo Garden Takeaway,Takeaway/sandwich shop,7844,,,622006,,,52.58237100000000,6611,229,health@great-yarmouth.gov.uk,Great Yarmouth,http://www.great-yarmouth.gov.uk/live/index.htm,1.72626000000000,NR31 6NN,2013-11-18,fhrs_5_en-GB,5,,FHRS,
17974,,12 Lowestoft Road,Gorleston,"Great Yarmouth, Norfolk",Bangla Nite Restaurant,Restaurant/Cafe/Canteen,1,,,688984,,,52.57708100000000,35093,229,health@great-yarmouth.gov.uk,Great Yarmouth,http://www.great-yarmouth.gov.uk/live/index.htm,1.72656400000000,NR31 6LY,2014-10-31,fhrs_3_en-GB,3,,FHRS,
17975,,18 Nelson Road Central,Great Yarmouth,Norfolk,Bar Bistro & Chicken BBQ,Restaurant/Cafe/Canteen,1,0,,727740,5,,52.60577000000000,19058,229,health@great-yarmouth.gov.uk,Great Yarmouth,http://www.great-yarmouth.gov.uk/live/index.htm,1.73299100000000,NR30 2JL,2014-12-18,fhrs_5_en-GB,5,,FHRS,5
17976,,40 Baker Street,Gorleston,"Great Yarmouth, Norfolk",Bar-B-Q House,Takeaway/sandwich shop,7844,10,,622007,10,,52.57752200000000,6615,229,health@great-yarmouth.gov.uk,Great Yarmouth,http://www.great-yarmouth.gov.uk/live/index.htm,1.72828500000000,NR31 6QT,2014-09-03,fhrs_3_en-GB,3,,FHRS,5
17977,,2 Barnard Crescent,Great Yarmouth,Norfolk,Barnard House,Hotel/bed & breakfast/guest house,7842,5,,671751,0,,52.62344700000000,18286,229,health@great-yarmouth.gov.uk,Great Yarmouth,http://www.great-yarmouth.gov.uk/live/index.htm,1.72864400000000,NR30 4DR,2014-06-04,fhrs_5_en-GB,5,,FHRS,5
17978,,5 Norfolk Square,Great Yarmouth,Norfolk,Barons Court Hotel,Hotel/bed & breakfast/guest house,7842,0,,664609,0,,52.61096300000000,18132,229,health@great-yarmouth.gov.uk,Great Yarmouth,http://www.great-yarmouth.gov.uk/live/index.htm,1.73631500000000,NR30 1EE,2014-05-20,fhrs_5_en-GB,5,,FHRS,0
17979,,Market Place,Great Yarmouth,,Barries Tea Stall,Takeaway/sandwich shop,7844,5,,691330,5,,52.60888000000000,43419,229,health@great-yarmouth.gov.uk,Great Yarmouth,http://www.great-yarmouth.gov.uk/live/index.htm,1.72592700000000,NR30 1LY,2014-07-29,fhrs_5_en-GB,5,,FHRS,0
17980,,130 King Street,Great Yarmouth,Norfolk,BBQ Chicken House,Takeaway/sandwich shop,7844,20,,708294,20,,52.60393600000000,43700,229,health@great-yarmouth.gov.uk,Great Yarmouth,http://www.great-yarmouth.gov.uk/live/index.htm,1.72926000000000,NR30 2PQ,2014-09-24,fhrs_0_en-GB,0,,FHRS,20
17981,,Beach Road,Hemsby,Norfolk,Beach Cafe,Restaurant/Cafe/Canteen,1,10,,621821,5,,52.69718500000000,42003,229,health@great-yarmouth.gov.uk,Great Yarmouth,http://www.great-yarmouth.gov.uk/live/index.htm,1.69449900000000,NR29 4HJ,2013-07-25,fhrs_4_en-GB,4,,FHRS,5
17982,,61-62 Marine Parade,Great Yarmouth,Norfolk,Beach House Cafe,Restaurant/Cafe/Canteen,1,0,,621941,0,,52.60687300000000,42274,229,health@great-yarmouth.gov.uk,Great Yarmouth,http://www.great-yarmouth.gov.uk/live/index.htm,1.73621700000000,NR30 2EJ,2014-05-19,fhrs_5_en-GB,5,,FHRS,0
17983,,10 Beach Road,Caister-On-Sea,Norfolk,Beach Road Chippy,Restaurant/Cafe/Canteen,1,5,,671754,5,,52.64759700000000,23397,229,health@great-yarmouth.gov.uk,Great Yarmouth,http://www.great-yarmouth.gov.uk/live/index.htm,1.72867400000000,NR30 5ER,2014-06-13,fhrs_5_en-GB,5,,FHRS,0
17984,,California Rd,California,Great Yarmouth,Beachcomber Bar,Pub/bar/nightclub,7843,5,,622001,5,,52.67144100000000,4467,229,health@great-yarmouth.gov.uk,Great Yarmouth,http://www.great-yarmouth.gov.uk/live/index.htm,1.72239100000000,NR29 3QW,2013-05-13,fhrs_5_en-GB,5,,FHRS,5
17985,,Corner of Esplanade,Sandown Road,Great Yarmouth,Beachside Snacks,Restaurant/Cafe/Canteen,1,5,,621939,5,,52.61301100000000,42268,229,health@great-yarmouth.gov.uk,Great Yarmouth,http://www.great-yarmouth.gov.uk/live/index.htm,1.73724300000000,NR30 1EQ,2013-08-05,fhrs_5_en-GB,5,,FHRS,0
17986,,59 Beccles Road,Gorleston,"Great Yarmouth, Norfolk",Beccles Road Supermarket / Premier,Retailers - other,4613,10,,622004,0,,52.58654300000000,6490,229,health@great-yarmouth.gov.uk,Great Yarmouth,http://www.great-yarmouth.gov.uk/live/index.htm,1.72459100000000,NR31 0PS,2013-01-09,fhrs_4_en-GB,4,,FHRS,0
17987,,7 Nelson Road North,Great Yarmouth,Norfolk,Bellas B&B,Hotel/bed & breakfast/guest house,7842,10,,711777,10,,52.60818200000000,43836,229,health@great-yarmouth.gov.uk,Great Yarmouth,http://www.great-yarmouth.gov.uk/live/index.htm,1.73322600000000,NR30 2AS,2014-10-17,fhrs_4_en-GB,4,,FHRS,0
17988,,155 Bells Road,Gorleston,Great Yarmouth,Benges Bakery,Retailers - other,4613,,,621964,,,52.57219800000000,42346,229,health@great-yarmouth.gov.uk,Great Yarmouth,http://www.great-yarmouth.gov.uk/live/index.htm,1.72854100000000,NR31 6AN,2013-11-19,fhrs_4_en-GB,4,,FHRS,
17989,,Beach Road,Hemsby,,Benny's,Takeaway/sandwich shop,7844,5,,664630,5,,52.69576500000000,43057,229,health@great-yarmouth.gov.uk,Great Yarmouth,http://www.great-yarmouth.gov.uk/live/index.htm,1.70426800000000,NR294HS,2014-04-30,fhrs_5_en-GB,5,,FHRS,0
17990,,9 Salk Road,Gorleston,Great Yarmouth,Bernies Bites,Mobile caterer,7846,10,,621860,5,,52.55947100000000,42140,229,health@great-yarmouth.gov.uk,Great Yarmouth,http://www.great-yarmouth.gov.uk/live/index.htm,1.71509300000000,NR31 7RL,2014-10-22,fhrs_4_en-GB,4,,FHRS,5
17991,,93 High Street,Gorleston,"Great Yarmouth, Norfolk",Berrys,Restaurant/Cafe/Canteen,1,5,,635368,0,,52.57944800000000,6595,229,health@great-yarmouth.gov.uk,Great Yarmouth,http://www.great-yarmouth.gov.uk/live/index.htm,1.72824200000000,NR31 6RF,2014-02-05,fhrs_5_en-GB,5,,FHRS,5
17992,,83 Burgh Road,Gorleston,"Great Yarmouth, Norfolk",Big Bite Snack Bar,Mobile caterer,7846,5,,699985,0,,52.58613700000000,6688,229,health@great-yarmouth.gov.uk,Great Yarmouth,http://www.great-yarmouth.gov.uk/live/index.htm,1.71777800000000,NR31 8BD,2014-09-06,fhrs_5_en-GB,5,,FHRS,0
17993,,39-40 Marine Parade,Great Yarmouth,Norfolk,Bistro Cafe,Restaurant/Cafe/Canteen,1,10,,621822,10,,52.60687300000000,42005,229,health@great-yarmouth.gov.uk,Great Yarmouth,http://www.great-yarmouth.gov.uk/live/index.htm,1.73621700000000,NR30 2EJ,2013-04-15,fhrs_3_en-GB,3,,FHRS,5
17994,,,,,Bitter Sweet,Retailers - other,4613,5,,688991,0,,,43369,229,health@great-yarmouth.gov.uk,Great Yarmouth,http://www.great-yarmouth.gov.uk/live/index.htm,,,2014-06-28,fhrs_5_en-GB,5,,FHRS,0
17995,,Beach Rd,Hemsby,Great Yarmouth,Blue Dolphin Fish & Chips,Takeaway/sandwich shop,7844,0,,691338,0,,52.69576500000000,7744,229,health@great-yarmouth.gov.uk,Great Yarmouth,http://www.great-yarmouth.gov.uk/live/index.htm,1.70426800000000,NR29 4HS,2014-06-02,fhrs_4_en-GB,4,,FHRS,10
17996,,Beach Road,Hemsby,Norfolk,Bobbys Diner,Mobile caterer,7846,0,,671770,5,,52.69651800000000,43148,229,health@great-yarmouth.gov.uk,Great Yarmouth,http://www.great-yarmouth.gov.uk/live/index.htm,1.70376900000000,NR29 4HT,2014-05-30,fhrs_5_en-GB,5,,FHRS,5
17997,,25A King Street,Great Yarmouth,,Bombay Nite,Restaurant/Cafe/Canteen,1,20,,711768,20,,52.60628100000000,18423,229,health@great-yarmouth.gov.uk,Great Yarmouth,http://www.great-yarmouth.gov.uk/live/index.htm,1.72820300000000,NR30 2NZ,2014-08-29,fhrs_0_en-GB,0,,FHRS,20
17998,,Tolhouse Street,Great Yarmouth,Norfolk,Books and Beans Cafe,Restaurant/Cafe/Canteen,1,5,,621965,5,,52.60431800000000,42353,229,health@great-yarmouth.gov.uk,Great Yarmouth,http://www.great-yarmouth.gov.uk/live/index.htm,1.72740100000000,NR30 2SH,2013-11-20,fhrs_5_en-GB,5,,FHRS,0
17999,,3 Market Gates Shopping Centre,Great Yarmouth,Norfolk,Boots the Chemist,Retailers - other,4613,0,,621719,0,,52.60754300000000,17199,229,health@great-yarmouth.gov.uk,Great Yarmouth,http://www.great-yarmouth.gov.uk/live/index.htm,1.72866500000000,NR30 2AX,2013-01-18,fhrs_5_en-GB,5,,FHRS,0
18000,,6 Crab Lane,Bradwell,Norfolk,Bradwell Butchery,Retailers - other,4613,10,,723589,10,,52.57824900000000,3799,229,health@great-yarmouth.gov.uk,Great Yarmouth,http://www.great-yarmouth.gov.uk/live/index.htm,1.70745400000000,NR31 8DJ,2014-12-02,fhrs_4_en-GB,4,,FHRS,0
18001,,Market Place,Great Yarmouth,,Brewers Chip Saloon,Takeaway/sandwich shop,7844,5,,691328,5,,52.60794300000000,43417,229,health@great-yarmouth.gov.uk,Great Yarmouth,http://www.great-yarmouth.gov.uk/live/index.htm,1.72626100000000,NR30 1LX,2014-07-29,fhrs_5_en-GB,5,,FHRS,0
18002,,4 Tan Lane,Caister-On-Sea,Norfolk,Brill Fish,Retailers - other,4613,10,,688988,15,,52.64587400000000,43360,229,health@great-yarmouth.gov.uk,Great Yarmouth,http://www.great-yarmouth.gov.uk/live/index.htm,1.72940000000000,NR30 5DN,2014-07-08,fhrs_2_en-GB,2,,FHRS,0
18003,,Main Rd,Ormseby St. Michael,Great Yarmouth,Broadland Nursery,Restaurant/Cafe/Canteen,1,5,,621711,0,,52.67813100000000,10721,229,health@great-yarmouth.gov.uk,Great Yarmouth,http://www.great-yarmouth.gov.uk/live/index.htm,1.64646500000000,NR29 3LS,2013-04-25,fhrs_5_en-GB,5,,FHRS,5
18004,,Mill Road,Great Yarmouth,Norfolk,Broadland Rugby Club,Other catering premises,7841,5,,621833,5,,52.60718400000000,42071,229,health@great-yarmouth.gov.uk,Great Yarmouth,http://www.great-yarmouth.gov.uk/live/index.htm,1.71149600000000,NR31 0AY,2013-06-28,fhrs_4_en-GB,4,,FHRS,10
18005,,King Street,Winterton-On-Sea,Norfolk,Broadview,Hospitals/Childcare/Caring Premises,5,0,,735018,0,,52.71505900000000,44382,229,health@great-yarmouth.gov.uk,Great Yarmouth,http://www.great-yarmouth.gov.uk/live/index.htm,1.69415800000000,NR29 4AT,2014-09-16,fhrs_4_en-GB,4,,FHRS,10
18006,,63 Apsley Road,Great Yarmouth,Norfolk,Bromley Hotel,Hotel/bed & breakfast/guest house,7842,5,,621952,5,,52.60696900000000,42297,229,health@great-yarmouth.gov.uk,Great Yarmouth,http://www.great-yarmouth.gov.uk/live/index.htm,1.73545700000000,NR30 2HG,2013-05-16,fhrs_5_en-GB,5,,FHRS,0
18007,,Warren Road,Hopton,,Bubbles Takeaway & Cafe,Takeaway/sandwich shop,7844,10,,671761,20,,52.54216400000000,31073,229,health@great-yarmouth.gov.uk,Great Yarmouth,http://www.great-yarmouth.gov.uk/live/index.htm,1.73167300000000,NR31 9BN,2014-05-19,fhrs_1_en-GB,1,,FHRS,20
18008,,12a Regent Road,Great Yarmouth,Norfolk,Buddha Buffet,Restaurant/Cafe/Canteen,1,,,621816,,,52.60748800000000,41815,229,health@great-yarmouth.gov.uk,Great Yarmouth,http://www.great-yarmouth.gov.uk/live/index.htm,1.73041900000000,NR30 2AF,2013-10-10,fhrs_5_en-GB,5,,FHRS,
18009,,,,,Bulleys Traditional Catering,Mobile caterer,7846,5,,621834,5,,,42072,229,health@great-yarmouth.gov.uk,Great Yarmouth,http://www.great-yarmouth.gov.uk/live/index.htm,,,2013-07-03,fhrs_5_en-GB,5,,FHRS,5
18010,,59 Bells Road,Gorleston,"Great Yarmouth, Norfolk",Burdens Wet Fish Limited,Retailers - other,4613,5,,671760,5,,52.57119900000000,31051,229,health@great-yarmouth.gov.uk,Great Yarmouth,http://www.great-yarmouth.gov.uk/live/index.htm,1.72796900000000,NR31 6AG,2014-06-10,fhrs_4_en-GB,4,,FHRS,10
18011,,20-22 Market Gates Shopping Centre,Great Yarmouth,Norfolk,Burger King,Restaurant/Cafe/Canteen,1,0,,621976,0,,52.60754300000000,42420,229,health@great-yarmouth.gov.uk,Great Yarmouth,http://www.great-yarmouth.gov.uk/live/index.htm,1.72866500000000,NR30 2AX,2013-11-29,fhrs_5_en-GB,5,,FHRS,0
18012,,South Beach Parade,Great Yarmouth,Norfolk,Burgers & Fries,Takeaway/sandwich shop,7844,,,621910,,,52.59450700000000,42224,229,health@great-yarmouth.gov.uk,Great Yarmouth,http://www.great-yarmouth.gov.uk/live/index.htm,1.73615300000000,NR30 3EH,2013-10-01,fhrs_4_en-GB,4,,FHRS,
18013,,Lords Lane,Burgh Castle,Norfolk,Burgh Hall,Restaurant/Cafe/Canteen,1,5,,621888,0,,52.58192500000000,42180,229,health@great-yarmouth.gov.uk,Great Yarmouth,http://www.great-yarmouth.gov.uk/live/index.htm,1.68220400000000,NR31 9EP,2014-12-17,fhrs_5_en-GB,5,,FHRS,5
18014,,High Road,Burgh Castle,Norfolk,Burgh House Residential Home,Hospitals/Childcare/Caring Premises,5,10,,621942,5,,52.58846500000000,42278,229,health@great-yarmouth.gov.uk,Great Yarmouth,http://www.great-yarmouth.gov.uk/live/index.htm,1.67173600000000,NR31 9QL,2015-01-20,fhrs_4_en-GB,4,,FHRS,5
18015,,9-12 North Drive,Great Yarmouth,Norfolk,Burlington/Palm Court Hotel,Hotel/bed & breakfast/guest house,7842,5,,621721,0,,52.61281100000000,18144,229,health@great-yarmouth.gov.uk,Great Yarmouth,http://www.great-yarmouth.gov.uk/live/index.htm,1.73732900000000,NR30 1EG,2013-09-19,fhrs_5_en-GB,5,,FHRS,5
18016,,99 Magdalen Way,Gorleston,"Great Yarmouth, Norfolk",Bushell's Bakery,Retailers - other,4613,5,,622003,5,,52.57371500000000,6483,229,health@great-yarmouth.gov.uk,Great Yarmouth,http://www.great-yarmouth.gov.uk/live/index.htm,1.71463000000000,NR31 7AA,2013-04-24,fhrs_5_en-GB,5,,FHRS,0
18017,,Lowestoft Road,Gorleston,Great Yarmouth,Busy Bees,Hospitals/Childcare/Caring Premises,5,5,,621835,5,,52.56168300000000,42073,229,health@great-yarmouth.gov.uk,Great Yarmouth,http://www.great-yarmouth.gov.uk/live/index.htm,1.71796600000000,NR31 6LA,2014-11-24,fhrs_5_en-GB,5,,FHRS,5
18018,,Market Place,Great Yarmouth,Norfolk,C & J Chips,Takeaway/sandwich shop,7844,,,621836,,,52.60868500000000,42074,229,health@great-yarmouth.gov.uk,Great Yarmouth,http://www.great-yarmouth.gov.uk/live/index.htm,1.72727000000000,NR30 1NU,2013-02-04,fhrs_5_en-GB,5,,FHRS,
18019,,29 Hall Plain,Great Yarmouth,Norfolk,Cafe 'g's,Restaurant/Cafe/Canteen,1,10,,691326,10,,52.60629100000000,43408,229,health@great-yarmouth.gov.uk,Great Yarmouth,http://www.great-yarmouth.gov.uk/live/index.htm,1.72557400000000,NR30 2QD,2014-08-06,fhrs_4_en-GB,4,,FHRS,0
18020,,Beach Rd,Caister On Sea,Great Yarmouth,Caister Community Centre,Other catering premises,7841,,,621999,,,52.64759700000000,4399,229,health@great-yarmouth.gov.uk,Great Yarmouth,http://www.great-yarmouth.gov.uk/live/index.htm,1.72867400000000,NR30 5ER,2013-11-18,fhrs_5_en-GB,5,,FHRS,
18021,,High Street,Caister-On-Sea,Norfolk,Caister Day Services,Hospitals/Childcare/Caring Premises,5,10,,621987,5,,52.64832700000000,42454,229,health@great-yarmouth.gov.uk,Great Yarmouth,http://www.great-yarmouth.gov.uk/live/index.htm,1.72662100000000,NR30 5EH,2013-12-09,fhrs_4_en-GB,4,,FHRS,0
18022,,Kingston Avenue,Caister On Sea,Great Yarmouth,Caister Infant School,School/college/university,7845,5,,621997,5,,52.64866000000000,4395,229,health@great-yarmouth.gov.uk,Great Yarmouth,http://www.great-yarmouth.gov.uk/live/index.htm,1.72860200000000,NR30 5ET,2014-07-02,fhrs_5_en-GB,5,,FHRS,5
18023,,,,,Cake and Bake,Retailers - other,4613,5,,621837,0,,,42075,229,health@great-yarmouth.gov.uk,Great Yarmouth,http://www.great-yarmouth.gov.uk/live/index.htm,,,2013-01-11,fhrs_5_en-GB,5,,FHRS,0
18024,,Cherry Tree Lodge,Low Road,"Repps with Bastwick, Gt Yarmou",Cakes 4 you,Retailers - other,4613,10,,631438,0,,52.70225900000000,33291,229,health@great-yarmouth.gov.uk,Great Yarmouth,http://www.great-yarmouth.gov.uk/live/index.htm,1.58531300000000,NR29 5AH,2013-02-06,fhrs_4_en-GB,4,,FHRS,0
18025,,Beccles Road,Fritton,Fritton And St Olaves,Caldecott Hall Golf Club House,Restaurant/Cafe/Canteen,1,10,,731245,5,,52.55441600000000,44227,229,health@great-yarmouth.gov.uk,Great Yarmouth,http://www.great-yarmouth.gov.uk/live/index.htm,1.65035400000000,NR31 9EY,2015-01-05,fhrs_3_en-GB,3,,FHRS,10
18026,,Rottenstone Lane,Scratby,Ormesby St Margaret W Scratby,California Cliffs,Retailers - other,4613,0,,621785,5,,52.67560400000000,33156,229,health@great-yarmouth.gov.uk,Great Yarmouth,http://www.great-yarmouth.gov.uk/live/index.htm,1.71874900000000,NR29 3QU,2013-04-24,fhrs_5_en-GB,5,,FHRS,5
18027,,California Road,California,Great Yarmouth,California Tavern,Pub/bar/nightclub,7843,,,621779,,,52.67144100000000,31079,229,health@great-yarmouth.gov.uk,Great Yarmouth,http://www.great-yarmouth.gov.uk/live/index.htm,1.72239100000000,NR29 3QW,2014-01-22,fhrs_5_en-GB,5,,FHRS,
18028,,Camden Road,Great Yarmouth,,Camden Road Chippy,Takeaway/sandwich shop,7844,5,,708287,10,,52.59866400000000,36949,229,health@great-yarmouth.gov.uk,Great Yarmouth,http://www.great-yarmouth.gov.uk/live/index.htm,1.73043600000000,NR30 3AB,2014-10-03,fhrs_3_en-GB,3,,FHRS,10
18029,,97 Blackfriars Road,Great Yarmouth,Norfolk,Camden Road Supermarket,Retailers - other,4613,10,,621823,0,,52.59919400000000,42006,229,health@great-yarmouth.gov.uk,Great Yarmouth,http://www.great-yarmouth.gov.uk/live/index.htm,1.72986100000000,NR30 3BZ,2013-03-04,fhrs_4_en-GB,4,,FHRS,5
18030,,47a Camden Road,Great Yarmouth,Norfolk,Camden Road Supermarket / Premier,Retailers - other,4613,10,,621774,0,,52.59866400000000,29716,229,health@great-yarmouth.gov.uk,Great Yarmouth,http://www.great-yarmouth.gov.uk/live/index.htm,1.73043600000000,NR30 3AB,2013-03-04,fhrs_4_en-GB,4,,FHRS,5
18031,,152 King Street,Great Yarmouth,Norfolk,Capital Kebab House,Takeaway/sandwich shop,7844,,,631437,,,52.60578500000000,30625,229,health@great-yarmouth.gov.uk,Great Yarmouth,http://www.great-yarmouth.gov.uk/live/index.htm,1.72795400000000,NR30 2PA,2013-02-05,fhrs_4_en-GB,4,,FHRS,
18032,,1-7 Kimberley Terrace,Great Yarmouth,Norfolk,Carlton Hotel,Hotel/bed & breakfast/guest house,7842,0,,638010,0,,52.60007700000000,18149,229,health@great-yarmouth.gov.uk,Great Yarmouth,http://www.great-yarmouth.gov.uk/live/index.htm,1.73495900000000,NR30 3JE,2014-02-28,fhrs_5_en-GB,5,,FHRS,5
18033,,Bermuda Holiday Park,Newport Road,"Hemsby, Great Yarmouth",Carousel Amusements,Restaurant/Cafe/Canteen,1,5,,621789,5,,52.69161500000000,33983,229,health@great-yarmouth.gov.uk,Great Yarmouth,http://www.great-yarmouth.gov.uk/live/index.htm,1.69543400000000,NR29 4NN,2013-08-05,fhrs_5_en-GB,5,,FHRS,0
18034,,Stall 2 Great Yarmouth Market Place,Great Yarmouth,Norfolk,Carrs Chip Salon,Takeaway/sandwich shop,7844,5,,638013,0,,,30913,229,health@great-yarmouth.gov.uk,Great Yarmouth,http://www.great-yarmouth.gov.uk/live/index.htm,,,2014-02-28,fhrs_5_en-GB,5,,FHRS,5
18035,,Norwich Road,Caister-On-Sea,Norfolk,Castle Carvery,Restaurant/Cafe/Canteen,1,5,,624713,5,,52.64945600000000,42553,229,health@great-yarmouth.gov.uk,Great Yarmouth,http://www.great-yarmouth.gov.uk/live/index.htm,1.72275400000000,NR30 5JN,2014-01-09,fhrs_5_en-GB,5,,FHRS,5
18036,,,,,Catdelicious,Retailers - other,4613,5,,621838,5,,,42076,229,health@great-yarmouth.gov.uk,Great Yarmouth,http://www.great-yarmouth.gov.uk/live/index.htm,,,2013-03-19,fhrs_5_en-GB,5,,FHRS,5
18037,,19-20 Princes Road,Great Yarmouth,Norfolk,Cavendish House Hotel,Hotel/bed & breakfast/guest house,7842,5,,708277,5,,52.60896300000000,18151,229,health@great-yarmouth.gov.uk,Great Yarmouth,http://www.great-yarmouth.gov.uk/live/index.htm,1.73583400000000,NR30 2DG,2014-10-08,fhrs_4_en-GB,4,,FHRS,10
18038,,47 King Street,Great Yarmouth,Norfolk,Cekesabe V,Retailers - other,4613,10,,621990,5,,52.60419700000000,42471,229,health@great-yarmouth.gov.uk,Great Yarmouth,http://www.great-yarmouth.gov.uk/live/index.htm,1.72981400000000,NR30 2PN,2013-12-13,fhrs_4_en-GB,4,,FHRS,5
18039,,Tarworks Rd,Great Yarmouth,,Centre 81,Hospitals/Childcare/Caring Premises,5,10,,680764,5,,52.62056500000000,22155,229,health@great-yarmouth.gov.uk,Great Yarmouth,http://www.great-yarmouth.gov.uk/live/index.htm,1.72502900000000,NR30 1QR,2014-06-23,fhrs_4_en-GB,4,,FHRS,0
18040,,68 Lowestoft Road,Gorleston,Great Yarmouth,Chalet Coffee Bar,Restaurant/Cafe/Canteen,1,10,,671765,5,,52.57432400000000,43140,229,health@great-yarmouth.gov.uk,Great Yarmouth,http://www.great-yarmouth.gov.uk/live/index.htm,1.72529700000000,NR31 6NA,2014-06-10,fhrs_4_en-GB,4,,FHRS,5
18041,,26 The Green,Martham,Norfolk,Chapmans Butchers,Retailers - other,4613,10,,621763,5,,52.70339200000000,24014,229,health@great-yarmouth.gov.uk,Great Yarmouth,http://www.great-yarmouth.gov.uk/live/index.htm,1.63548400000000,NR29 4PA,2015-01-07,fhrs_4_en-GB,4,,FHRS,5
18042,,63 Marine Parade,Great Yarmouth,Norfolk,Charcoal Grill Restaurant,Restaurant/Cafe/Canteen,1,5,,621730,5,,52.60687300000000,18441,229,health@great-yarmouth.gov.uk,Great Yarmouth,http://www.great-yarmouth.gov.uk/live/index.htm,1.73621700000000,NR30 2EJ,2013-09-19,fhrs_4_en-GB,4,,FHRS,10
18043,,72 Nelson Road North,Great Yarmouth,Norfolk,Charlies Fish & Chips,Takeaway/sandwich shop,7844,20,,693992,20,,52.60818200000000,42077,229,health@great-yarmouth.gov.uk,Great Yarmouth,http://www.great-yarmouth.gov.uk/live/index.htm,1.73322600000000,NR30 2AS,2014-07-30,fhrs_1_en-GB,1,,FHRS,5
18044,,1 North Drive,Great Yarmouth,Norfolk,Chateau Hotel,Hotel/bed & breakfast/guest house,7842,5,,621726,5,,52.61184100000000,18234,229,health@great-yarmouth.gov.uk,Great Yarmouth,http://www.great-yarmouth.gov.uk/live/index.htm,1.73726100000000,NR30 1ED,2013-05-24,fhrs_5_en-GB,5,,FHRS,0
18045,,Beccles Road,Belton,Belton With Browston,Cherry Lane Garden Centre,Retailers - other,4613,5,,647475,0,,52.55255600000000,6197,229,health@great-yarmouth.gov.uk,Great Yarmouth,http://www.great-yarmouth.gov.uk/live/index.htm,1.66284600000000,NR31 9EU,2014-03-26,fhrs_5_en-GB,5,,FHRS,0
18046,,129 Nelson Rd Central,Great Yarmouth,,Child's Newsagents,Retailers - other,4613,10,,723583,0,,52.60408400000000,17663,229,health@great-yarmouth.gov.uk,Great Yarmouth,http://www.great-yarmouth.gov.uk/live/index.htm,1.73255200000000,NR30 2JY,2014-12-09,fhrs_4_en-GB,4,,FHRS,0
18047,,132 Lowestoft Road,Gorleston,"Great Yarmouth, Norfolk",China Garden Chinese Takeaway,Takeaway/sandwich shop,7844,10,,621792,10,,52.57214000000000,34093,229,health@great-yarmouth.gov.uk,Great Yarmouth,http://www.great-yarmouth.gov.uk/live/index.htm,1.72466800000000,NR31 6ND,2013-04-25,fhrs_3_en-GB,3,,FHRS,10
18048,,27 Northgate Street,Great Yarmouth,Norfolk,China Inn,Takeaway/sandwich shop,7844,10,,621738,10,,52.61226100000000,18814,229,health@great-yarmouth.gov.uk,Great Yarmouth,http://www.great-yarmouth.gov.uk/live/index.htm,1.72594900000000,NR30 1BA,2014-07-17,fhrs_2_en-GB,2,,FHRS,15
18049,,24 Market Gates Shopping Centre,Great Yarmouth,Norfolk,Chopstix Noodle Bar,Takeaway/sandwich shop,7844,0,,661376,0,,52.60754300000000,42946,229,health@great-yarmouth.gov.uk,Great Yarmouth,http://www.great-yarmouth.gov.uk/live/index.htm,1.72866500000000,NR30 2AX,2014-04-29,fhrs_5_en-GB,5,,FHRS,0
18050,,98 - 99 Regent Road,Great Yarmouth,Norfolk,Chris and Ivana (Pancakes),Takeaway/sandwich shop,7844,5,,621839,15,,52.60733700000000,42078,229,health@great-yarmouth.gov.uk,Great Yarmouth,http://www.great-yarmouth.gov.uk/live/index.htm,1.73179500000000,NR30 2AH,2013-04-05,fhrs_2_en-GB,2,,FHRS,0
18051,,King Street,Great Yarmouth,Norfolk,Christchurch Coffee Shop,Restaurant/Cafe/Canteen,1,,,621978,,,52.60628100000000,42431,229,health@great-yarmouth.gov.uk,Great Yarmouth,http://www.great-yarmouth.gov.uk/live/index.htm,1.72820300000000,NR30 2NZ,2013-12-12,fhrs_4_en-GB,4,,FHRS,
18052,,Yarmouth Rd,Hemsby,Great Yarmouth,Church Farm Residential Home,Hospitals/Childcare/Caring Premises,5,0,,647476,0,,52.69311200000000,7779,229,health@great-yarmouth.gov.uk,Great Yarmouth,http://www.great-yarmouth.gov.uk/live/index.htm,1.69072000000000,NR29 4NJ,2014-10-20,fhrs_5_en-GB,5,,FHRS,5
18053,,20a Yarmouth Road,Caister-On-Sea,Norfolk,Claremont Nursing Home,Hospitals/Childcare/Caring Premises,5,0,,621998,0,,52.64485600000000,4398,229,health@great-yarmouth.gov.uk,Great Yarmouth,http://www.great-yarmouth.gov.uk/live/index.htm,1.72888400000000,NR30 5AA,2013-10-22,fhrs_5_en-GB,5,,FHRS,5
18054,,49-50 Clarence Road,Gorleston,"Great Yarmouth, Norfolk",Clarence Lodge Residential Care,Hospitals/Childcare/Caring Premises,5,10,,622024,0,,52.56929500000000,6805,229,health@great-yarmouth.gov.uk,Great Yarmouth,http://www.great-yarmouth.gov.uk/live/index.htm,1.72847200000000,NR31 6DR,2014-11-27,fhrs_4_en-GB,4,,FHRS,10
18055,,Cliff Hill,Gorleston,Great Yarmouth,Cliff Hotel,Hotel/bed & breakfast/guest house,7842,10,,621977,0,,52.57087900000000,42426,229,health@great-yarmouth.gov.uk,Great Yarmouth,http://www.great-yarmouth.gov.uk/live/index.htm,1.73099800000000,NR31 6DH,2013-11-29,fhrs_4_en-GB,4,,FHRS,5
18056,,Orde Avenue,Gorleston,Great Yarmouth,Cliff Park Community Middle School,School/college/university,7845,0,,622016,0,,52.56320300000000,6768,229,health@great-yarmouth.gov.uk,Great Yarmouth,http://www.great-yarmouth.gov.uk/live/index.htm,1.72426500000000,NR31 6SZ,2013-01-10,fhrs_5_en-GB,5,,FHRS,5
18057,,19 Friars Lane,Great Yarmouth,Norfolk,Clipper Schooner Public House,Pub/bar/nightclub,7843,5,,621865,5,,52.60070500000000,42148,229,health@great-yarmouth.gov.uk,Great Yarmouth,http://www.great-yarmouth.gov.uk/live/index.htm,1.72843800000000,NR30 2RP,2013-09-05,fhrs_5_en-GB,5,,FHRS,0
18058,,Owen Road,Great Yarmouth,Norfolk,Clover's Cuppas,Mobile caterer,7846,5,,621824,5,,52.59498900000000,42007,229,health@great-yarmouth.gov.uk,Great Yarmouth,http://www.great-yarmouth.gov.uk/live/index.htm,1.71801200000000,NR31 0NA,2014-09-30,fhrs_5_en-GB,5,,FHRS,5
18059,,Pasteur Road,Great Yarmouth,Norfolk,Cobholm and Litchfield Childcare Centre,Hospitals/Childcare/Caring Premises,5,5,,621969,0,,52.60479000000000,42382,229,health@great-yarmouth.gov.uk,Great Yarmouth,http://www.great-yarmouth.gov.uk/live/index.htm,1.71841400000000,NR31 0DW,2013-05-20,fhrs_5_en-GB,5,,FHRS,0
18060,,St.Lukes Terrace,Cobholm,Great Yarmouth,Cobholm Community Centre,Other catering premises,7841,10,,691337,5,,52.60783000000000,4831,229,health@great-yarmouth.gov.uk,Great Yarmouth,http://www.great-yarmouth.gov.uk/live/index.htm,1.71641100000000,NR31 0AP,2014-07-28,fhrs_4_en-GB,4,,FHRS,5
18061,,Mill Rd,Great Yarmouth,,Cobholm Primary Academy,School/college/university,7845,5,,647464,10,,52.60759900000000,21591,229,health@great-yarmouth.gov.uk,Great Yarmouth,http://www.great-yarmouth.gov.uk/live/index.htm,1.71518000000000,NR31 0BA,2014-12-10,fhrs_4_en-GB,4,,FHRS,5
18062,,Lichfield Road,Great Yarmouth,Norfolk,Coffee Shop/Ambitions Restaurant,Restaurant/Cafe/Canteen,1,0,,621993,0,,52.59799600000000,42481,229,health@great-yarmouth.gov.uk,Great Yarmouth,http://www.great-yarmouth.gov.uk/live/index.htm,1.72136900000000,NR31 0ED,2013-12-18,fhrs_5_en-GB,5,,FHRS,0
18063,,Thamesfield Way,Great Yarmouth,Norfolk,Come Dine with Me,Mobile caterer,7846,0,,621819,5,,52.59923100000000,41993,229,health@great-yarmouth.gov.uk,Great Yarmouth,http://www.great-yarmouth.gov.uk/live/index.htm,1.71785400000000,NR31 0DH,2015-01-14,fhrs_5_en-GB,5,,FHRS,0
18064,,Bessemer Way,Great Yarmouth,Norfolk,Come Dine With Me,Mobile caterer,7846,10,,621820,5,,52.59287800000000,41994,229,health@great-yarmouth.gov.uk,Great Yarmouth,http://www.great-yarmouth.gov.uk/live/index.htm,1.71362300000000,NR31 0LX,2015-01-14,fhrs_4_en-GB,4,,FHRS,5
18065,,14-15 Albert Square,Great Yarmouth,Norfolk,Comfort Hotel,Hotel/bed & breakfast/guest house,7842,5,,703657,10,,52.59994400000000,43667,229,health@great-yarmouth.gov.uk,Great Yarmouth,http://www.great-yarmouth.gov.uk/live/index.htm,1.73375100000000,NR30 3JH,2014-09-05,fhrs_4_en-GB,4,,FHRS,5
18066,,34 Pier Plain,Gorleston,"Great Yarmouth, Norfolk",Conservative Club,Pub/bar/nightclub,7843,5,,638024,10,,52.57694900000000,6809,229,health@great-yarmouth.gov.uk,Great Yarmouth,http://www.great-yarmouth.gov.uk/live/index.htm,1.72906300000000,NR31 6PE,2014-02-28,fhrs_4_en-GB,4,,FHRS,0
18067,,68 Regent Road,Great Yarmouth,Norfolk,Continental Candyman,Retailers - other,4613,5,,708291,0,,52.60821500000000,43669,229,health@great-yarmouth.gov.uk,Great Yarmouth,http://www.great-yarmouth.gov.uk/live/index.htm,1.73559300000000,NR30 2AL,2014-09-03,fhrs_5_en-GB,5,,FHRS,0
18068,,Howards Common,Belton,Belton With Browston,Cooks Fish and Chips,Takeaway/sandwich shop,7844,5,,621872,0,,52.56397900000000,42156,229,health@great-yarmouth.gov.uk,Great Yarmouth,http://www.great-yarmouth.gov.uk/live/index.htm,1.65209400000000,NR31 9NE,2013-08-23,fhrs_5_en-GB,5,,FHRS,0
18069,,63 High Street,Gorleston,"Great Yarmouth, Norfolk",Copland Family Bakers,Retailers - other,4613,20,,671772,20,,52.58115000000000,6486,229,health@great-yarmouth.gov.uk,Great Yarmouth,http://www.great-yarmouth.gov.uk/live/index.htm,1.72902100000000,NR31 6RQ,2014-06-05,fhrs_0_en-GB,0,,FHRS,20
18070,,12 Nelson Road North,Great Yarmouth,Norfolk,Corner Shop,Retailers - other,4613,10,,621803,10,,52.60928500000000,37958,229,health@great-yarmouth.gov.uk,Great Yarmouth,http://www.great-yarmouth.gov.uk/live/index.htm,1.73333500000000,NR30 2AT,2013-08-15,fhrs_4_en-GB,4,,FHRS,0
18071,,2 Theatre Plain,Great Yarmouth,Norfolk,Costa Coffee,Restaurant/Cafe/Canteen,1,10,,621981,0,,52.60725500000000,42445,229,health@great-yarmouth.gov.uk,Great Yarmouth,http://www.great-yarmouth.gov.uk/live/index.htm,1.72753200000000,NR30 2BE,2013-11-28,fhrs_4_en-GB,4,,FHRS,10
18072,,134-136 High Street,Gorleston,Great Yarmouth,Costa Coffee,Restaurant/Cafe/Canteen,1,5,,719521,5,,52.57823400000000,43917,229,health@great-yarmouth.gov.uk,Great Yarmouth,http://www.great-yarmouth.gov.uk/live/index.htm,1.72707500000000,NR31 6QX,2014-11-07,fhrs_5_en-GB,5,,FHRS,5
18073,,62 Crown Road,Great Yarmouth,Norfolk,Crown Road Supermarket / Premier Store,Retailers - other,4613,10,,711773,10,,52.60596200000000,38238,229,health@great-yarmouth.gov.uk,Great Yarmouth,http://www.great-yarmouth.gov.uk/live/index.htm,1.73486900000000,NR30 2JQ,2014-10-17,fhrs_4_en-GB,4,,FHRS,0
18074,,Admiralty Road,Great Yarmouth,Norfolk,Crows Nest,Restaurant/Cafe/Canteen,1,5,,735007,0,,52.59199600000000,19997,229,health@great-yarmouth.gov.uk,Great Yarmouth,http://www.great-yarmouth.gov.uk/live/index.htm,1.73077000000000,NR30 3NG,2015-01-29,fhrs_5_en-GB,5,,FHRS,5
18075,,1a Fullers Hill,Great Yarmouth,Norfolk,Crystal Fish Bar,Takeaway/sandwich shop,7844,10,,631450,5,,52.61130900000000,42629,229,health@great-yarmouth.gov.uk,Great Yarmouth,http://www.great-yarmouth.gov.uk/live/index.htm,1.72533600000000,NR30 1PR,2014-01-23,fhrs_4_en-GB,4,,FHRS,0
18076,,Scratby Road,Ormesby St Margaret W Scratby,Norfolk,Dabs and Crabs,Retailers - other,4613,10,,621861,5,,52.67896800000000,42141,229,health@great-yarmouth.gov.uk,Great Yarmouth,http://www.great-yarmouth.gov.uk/live/index.htm,1.70064000000000,NR29 3PQ,2013-09-19,fhrs_4_en-GB,4,,FHRS,5
18077,,Market Place,Great Yarmouth,,Dearno's Chip Saloon,Takeaway/sandwich shop,7844,5,,691332,0,,52.60732300000000,43421,229,health@great-yarmouth.gov.uk,Great Yarmouth,http://www.great-yarmouth.gov.uk/live/index.htm,1.73279800000000,NR30 2JA,2014-07-25,fhrs_5_en-GB,5,,FHRS,0
18078,,Beccles Road,Fritton,Fritton And St Olaves,Decoy Barn,Hotel/bed & breakfast/guest house,7842,10,,723602,0,,52.54037700000000,44057,229,health@great-yarmouth.gov.uk,Great Yarmouth,http://www.great-yarmouth.gov.uk/live/index.htm,1.63310900000000,NR31 9AB,2014-12-01,fhrs_4_en-GB,4,,FHRS,0
18079,,Browston Lane,Browston Green,Belton With Browston,Decoy Farm,Hospitals/Childcare/Caring Premises,5,5,,621842,10,,52.55400200000000,42082,229,health@great-yarmouth.gov.uk,Great Yarmouth,http://www.great-yarmouth.gov.uk/live/index.htm,1.68231300000000,NR31 9DP,2013-03-25,fhrs_4_en-GB,4,,FHRS,5
18080,,Beccles Road,Fritton,Fritton And St Olaves,Decoy Tavern,Pub/bar/nightclub,7843,10,,621841,0,,52.54037700000000,42081,229,health@great-yarmouth.gov.uk,Great Yarmouth,http://www.great-yarmouth.gov.uk/live/index.htm,1.63310900000000,NR31 9AB,2014-12-09,fhrs_4_en-GB,4,,FHRS,0
18081,,170 King Street,Great Yarmouth,Norfolk,Delicious Snacks,Takeaway/sandwich shop,7844,0,,664621,5,,52.60578500000000,42840,229,health@great-yarmouth.gov.uk,Great Yarmouth,http://www.great-yarmouth.gov.uk/live/index.htm,1.72795400000000,NR30 2PA,2014-05-20,fhrs_5_en-GB,5,,FHRS,0
18082,,81 Regent Road,Great Yarmouth,Norfolk,Delilah Supermarket,Retailers - other,4613,,,621971,,,52.60733700000000,42396,229,health@great-yarmouth.gov.uk,Great Yarmouth,http://www.great-yarmouth.gov.uk/live/index.htm,1.73179500000000,NR30 2AH,2013-12-03,fhrs_4_en-GB,4,,FHRS,
18083,,,,,Devine Cakes,Retailers - other,4613,10,,621843,0,,,42083,229,health@great-yarmouth.gov.uk,Great Yarmouth,http://www.great-yarmouth.gov.uk/live/index.htm,,,2013-02-18,fhrs_4_en-GB,4,,FHRS,0
18084,,94-95 High Street,Gorleston,Great Yarmouth,Diamond Kebab,Takeaway/sandwich shop,7844,20,,680769,20,,52.57944800000000,43229,229,health@great-yarmouth.gov.uk,Great Yarmouth,http://www.great-yarmouth.gov.uk/live/index.htm,1.72824200000000,NR31 6RF,2014-06-06,fhrs_1_en-GB,1,,FHRS,5
18085,,Market Place,Great Yarmouth,,Docwras Original Chip Stall,Takeaway/sandwich shop,7844,0,,691331,0,,52.60732300000000,43420,229,health@great-yarmouth.gov.uk,Great Yarmouth,http://www.great-yarmouth.gov.uk/live/index.htm,1.73279800000000,NR30 2JA,2014-07-25,fhrs_5_en-GB,5,,FHRS,0
18086,,13 Regent Road,Great Yarmouth,Norfolk,Docwras Rock Shop,Retailers - other,4613,20,,703653,5,,52.60836800000000,39797,229,health@great-yarmouth.gov.uk,Great Yarmouth,http://www.great-yarmouth.gov.uk/live/index.htm,1.73446800000000,NR30 2AP,2014-09-16,fhrs_1_en-GB,1,,FHRS,15
18087,,21  Ormesby Road,Caister-on-Sea,Norfolk,Doggers Plaice,Takeaway/sandwich shop,7844,10,,727743,5,,52.66011400000000,44089,229,health@great-yarmouth.gov.uk,Great Yarmouth,http://www.great-yarmouth.gov.uk/live/index.htm,1.71990300000000,NR305QJ,2014-12-05,fhrs_4_en-GB,4,,FHRS,5
18088,,59-61 Beccles Road,Gorleston,"Great Yarmouth, Norfolk",Dolphin Fish Bar,Takeaway/sandwich shop,7844,5,,719512,5,,52.58654300000000,37070,229,health@great-yarmouth.gov.uk,Great Yarmouth,http://www.great-yarmouth.gov.uk/live/index.htm,1.72459100000000,NR31 0PS,2014-11-07,fhrs_5_en-GB,5,,FHRS,5
18089,,149-150 King Street,Great Yarmouth,Norfolk,Dominoâs Pizza,Takeaway/sandwich shop,7844,0,,621815,0,,52.60578500000000,41796,229,health@great-yarmouth.gov.uk,Great Yarmouth,http://www.great-yarmouth.gov.uk/live/index.htm,1.72795400000000,NR30 2PA,2013-01-10,fhrs_5_en-GB,5,,FHRS,0
18090,,Beach Road,Winterton-On-Sea,Norfolk,Dunes Cafe,Restaurant/Cafe/Canteen,1,5,,664632,0,,52.71589900000000,43064,229,health@great-yarmouth.gov.uk,Great Yarmouth,http://www.great-yarmouth.gov.uk/live/index.htm,1.69346000000000,NR29 4AJ,2014-05-01,fhrs_5_en-GB,5,,FHRS,5
18091,,8/10 Tan Lane,Caister on Sea,Great Yarmouth,DWT Supermarket,Retailers - other,4613,10,,621757,5,,52.64587400000000,23394,229,health@great-yarmouth.gov.uk,Great Yarmouth,http://www.great-yarmouth.gov.uk/live/index.htm,1.72940000000000,NR30 5DN,2013-02-27,fhrs_4_en-GB,4,,FHRS,5
18092,,86 Repps Road,Martham,Norfolk,Ealing House,Hospitals/Childcare/Caring Premises,5,10,,647477,5,,52.70057200000000,9539,229,health@great-yarmouth.gov.uk,Great Yarmouth,http://www.great-yarmouth.gov.uk/live/index.htm,1.62186400000000,NR29 4QZ,2014-04-16,fhrs_4_en-GB,4,,FHRS,5
18093,,Scratby Road,Scratby,Great Yarmouth,East Coast  Family Restaurant,Restaurant/Cafe/Canteen,1,5,,621714,5,,52.67253600000000,11794,229,health@great-yarmouth.gov.uk,Great Yarmouth,http://www.great-yarmouth.gov.uk/live/index.htm,1.71072000000000,NR29 3QJ,2013-07-25,fhrs_5_en-GB,5,,FHRS,0
18094,,27 Regent Street,Great Yarmouth,Norfolk,East Coast Cafe,Restaurant/Cafe/Canteen,1,5,,661375,5,,52.60635400000000,42915,229,health@great-yarmouth.gov.uk,Great Yarmouth,http://www.great-yarmouth.gov.uk/live/index.htm,1.72558000000000,NR30 1RL,2014-05-02,fhrs_5_en-GB,5,,FHRS,0
18095,,Church Lane,Gorleston,Great Yarmouth,East Norfolk Sixth Form College,School/college/university,7845,5,,622017,0,,52.57858400000000,6771,229,health@great-yarmouth.gov.uk,Great Yarmouth,http://www.great-yarmouth.gov.uk/live/index.htm,1.71995900000000,NR31 7BQ,2013-11-29,fhrs_5_en-GB,5,,FHRS,0
18096,,88 Repps Road,Matham,Norfolk,East of England Co-Op,Retailers - supermarkets/hypermarkets,7840,0,,680767,0,,52.70057200000000,40918,229,health@great-yarmouth.gov.uk,Great Yarmouth,http://www.great-yarmouth.gov.uk/live/index.htm,1.62186400000000,NR29 4QZ,2014-06-27,fhrs_5_en-GB,5,,FHRS,5
18097,,26 Beresford Road,Great Yarmouth,Norfolk,East of England Co-Op,Retailers - other,4613,5,,719505,10,,,16219,229,health@great-yarmouth.gov.uk,Great Yarmouth,http://www.great-yarmouth.gov.uk/live/index.htm,,NR30 6AB,2014-11-25,fhrs_4_en-GB,4,,FHRS,5
18098,,73-75 Magdalen Way,Gorleston,Great Yarmouth,East of England Co-Op,Retailers - supermarkets/hypermarkets,7840,5,,723604,0,,52.57371500000000,6488,229,health@great-yarmouth.gov.uk,Great Yarmouth,http://www.great-yarmouth.gov.uk/live/index.htm,1.71463000000000,NR31 7AA,2014-12-04,fhrs_5_en-GB,5,,FHRS,5
18099,,Caister Road,Great Yarmouth,Norfolk,Eastern Counties Canteen and Social Club,Restaurant/Cafe/Canteen,1,10,,635363,5,,52.61933400000000,42746,229,health@great-yarmouth.gov.uk,Great Yarmouth,http://www.great-yarmouth.gov.uk/live/index.htm,1.72786500000000,NR30 4DA,2014-02-17,fhrs_3_en-GB,3,,FHRS,10
18100,,Lords Lane,Bradwell,Great Yarmouth,Edwards and Blake,School/college/university,7845,5,,731238,5,,52.57788200000000,3843,229,health@great-yarmouth.gov.uk,Great Yarmouth,http://www.great-yarmouth.gov.uk/live/index.htm,1.69127000000000,NR31 8PA,2015-01-19,fhrs_5_en-GB,5,,FHRS,5
18101,,10 Yarmouth Road,Caister-On-Sea,Norfolk,Elaine's Diner Ltd,Restaurant/Cafe/Canteen,1,5,,723588,0,,52.64485600000000,34284,229,health@great-yarmouth.gov.uk,Great Yarmouth,http://www.great-yarmouth.gov.uk/live/index.htm,1.72888400000000,NR30 5AA,2014-12-15,fhrs_5_en-GB,5,,FHRS,5
18102,,Unit 16,Market Gates  Precinct,Great Yarmouth,Ellie Moos,Restaurant/Cafe/Canteen,1,10,,719522,10,,52.60784700000000,43918,229,health@great-yarmouth.gov.uk,Great Yarmouth,http://www.great-yarmouth.gov.uk/live/index.htm,1.72903100000000,NR30 2BG,2014-10-24,fhrs_3_en-GB,3,,FHRS,10
18103,,34 Elmgrove Road,Gorleston,"Great Yarmouth, Norfolk",Elms Residential Home,Hospitals/Childcare/Caring Premises,5,5,,622025,0,,52.57055100000000,6806,229,health@great-yarmouth.gov.uk,Great Yarmouth,http://www.great-yarmouth.gov.uk/live/index.htm,1.72229000000000,NR31 7PP,2014-11-18,fhrs_5_en-GB,5,,FHRS,5
18104,,1-2 Pier Gardens,Gorleston,Great Yarmouth,Embassy China,Takeaway/sandwich shop,7844,,,621846,,,52.57089400000000,42086,229,health@great-yarmouth.gov.uk,Great Yarmouth,http://www.great-yarmouth.gov.uk/live/index.htm,1.73195900000000,NR31 6BU,2013-04-04,fhrs_4_en-GB,4,,FHRS,
18105,,36 Marine Parade,Great Yarmouth,Norfolk,Energy Chinese Buffet,Restaurant/Cafe/Canteen,1,20,,661373,20,,52.60687300000000,32179,229,health@great-yarmouth.gov.uk,Great Yarmouth,http://www.great-yarmouth.gov.uk/live/index.htm,1.73621700000000,NR30 2EJ,2014-10-09,fhrs_0_en-GB,0,,FHRS,20
18106,,Marine Parade,Great Yarmouth,Norfolk,Esplanade Cafe,Restaurant/Cafe/Canteen,1,5,,621890,5,,52.60431600000000,42185,229,health@great-yarmouth.gov.uk,Great Yarmouth,http://www.great-yarmouth.gov.uk/live/index.htm,1.73716600000000,NR30 2ER,2013-05-14,fhrs_5_en-GB,5,,FHRS,0
18107,,56 Marine Parade,Great Yarmouth,Norfolk,Europa Restaurant,Restaurant/Cafe/Canteen,1,20,,683097,20,,52.60687300000000,18457,229,health@great-yarmouth.gov.uk,Great Yarmouth,http://www.great-yarmouth.gov.uk/live/index.htm,1.73621700000000,NR30 2EJ,2014-07-10,fhrs_1_en-GB,1,,FHRS,5
18108,,95-96 North Denes Road,Great Yarmouth,Norfolk,Eversley Nursing Home,Hospitals/Childcare/Caring Premises,5,0,,671753,10,,52.61913000000000,21919,229,health@great-yarmouth.gov.uk,Great Yarmouth,http://www.great-yarmouth.gov.uk/live/index.htm,1.73346400000000,NR30 4LW,2014-06-19,fhrs_4_en-GB,4,,FHRS,10
18109,,29 St Peters Road,Great Yarmouth,Norfolk,Express Stores,Retailers - other,4613,10,,621796,0,,52.60268200000000,35051,229,health@great-yarmouth.gov.uk,Great Yarmouth,http://www.great-yarmouth.gov.uk/live/index.htm,1.73393900000000,NR30 3BQ,2013-03-06,fhrs_4_en-GB,4,,FHRS,0
18110,,,,,F T Caterers,Other catering premises,7841,5,,727748,10,,,44136,229,health@great-yarmouth.gov.uk,Great Yarmouth,http://www.great-yarmouth.gov.uk/live/index.htm,,,2014-11-06,fhrs_4_en-GB,4,,FHRS,5
18111,,,,,Fancy Fruit Bouquets,Retailers - other,4613,5,,621891,0,,,42187,229,health@great-yarmouth.gov.uk,Great Yarmouth,http://www.great-yarmouth.gov.uk/live/index.htm,,,2013-01-21,fhrs_5_en-GB,5,,FHRS,0
18112,,South Market Road,Great Yarmouth,Norfolk,Fantasia,Retailers - other,4613,,,621765,,,52.60785700000000,25393,229,health@great-yarmouth.gov.uk,Great Yarmouth,http://www.great-yarmouth.gov.uk/live/index.htm,1.73127700000000,NR30 2BU,2013-01-24,fhrs_exempt_en-GB,Exempt,,FHRS,
18113,,The Green,"Martham, Great Yarmouth",Norfolk,Fantasia Newsagent,Retailers - other,4613,5,,621759,0,,52.70342700000000,23581,229,health@great-yarmouth.gov.uk,Great Yarmouth,http://www.great-yarmouth.gov.uk/live/index.htm,1.63319100000000,NR29 4AH,2013-01-24,fhrs_5_en-GB,5,,FHRS,0
18114,,High Street,Gorleston,Great Yarmouth,Farm Foods,Retailers - supermarkets/hypermarkets,7840,10,,621955,10,,52.58084500000000,42302,229,health@great-yarmouth.gov.uk,Great Yarmouth,http://www.great-yarmouth.gov.uk/live/index.htm,1.72815400000000,NR31 6RL,2013-12-09,fhrs_4_en-GB,4,,FHRS,0
18115,,33-34 King Street,Great Yarmouth,Norfolk,Fatso's,Restaurant/Cafe/Canteen,1,5,,723584,5,,52.60419700000000,18460,229,health@great-yarmouth.gov.uk,Great Yarmouth,http://www.great-yarmouth.gov.uk/live/index.htm,1.72981400000000,NR30 2PN,2014-12-04,fhrs_5_en-GB,5,,FHRS,5
18116,,Main Rd,Filby,Great Yarmouth,Filby Bridge Restaurant,Restaurant/Cafe/Canteen,1,10,,635366,10,,52.66245900000000,5980,229,health@great-yarmouth.gov.uk,Great Yarmouth,http://www.great-yarmouth.gov.uk/live/index.htm,1.64394600000000,NR29 3AA,2014-02-12,fhrs_3_en-GB,3,,FHRS,10
18117,,Newport Road,Hemsby,,Fish & Chip Shop,Takeaway/sandwich shop,7844,0,,671769,0,,52.69161500000000,43147,229,health@great-yarmouth.gov.uk,Great Yarmouth,http://www.great-yarmouth.gov.uk/live/index.htm,1.69543400000000,NR29 4NN,2014-05-27,fhrs_4_en-GB,4,,FHRS,10
18118,,24 Marine Parade,Great Yarmouth,Norfolk,Fish and Grill,Restaurant/Cafe/Canteen,1,5,,711774,5,,52.60326700000000,42407,229,health@great-yarmouth.gov.uk,Great Yarmouth,http://www.great-yarmouth.gov.uk/live/index.htm,1.73675200000000,NR30 2ES,2014-06-23,fhrs_5_en-GB,5,,FHRS,5
18119,,Marina Shops,Marine Parade,Great Yarmouth,Fish Chips and More,Takeaway/sandwich shop,7844,5,,621892,5,,52.60326700000000,42188,229,health@great-yarmouth.gov.uk,Great Yarmouth,http://www.great-yarmouth.gov.uk/live/index.htm,1.73675200000000,NR30 2ES,2013-04-18,fhrs_5_en-GB,5,,FHRS,0
18120,,The Lane,Winterton-On-Sea,Great Yarmouth,Fishermans Return,Pub/bar/nightclub,7843,5,,621716,5,,52.71480500000000,14912,229,health@great-yarmouth.gov.uk,Great Yarmouth,http://www.great-yarmouth.gov.uk/live/index.htm,1.69221200000000,NR29 4BN,2013-03-25,fhrs_5_en-GB,5,,FHRS,5
18121,,Church Lane,Gorleston,Great Yarmouth,Flames,Restaurant/Cafe/Canteen,1,30,,683099,20,,52.57912000000000,27418,229,health@great-yarmouth.gov.uk,Great Yarmouth,http://www.great-yarmouth.gov.uk/live/index.htm,1.71836500000000,NR31 7BJ,2014-07-11,fhrs_0_en-GB,0,,FHRS,20
18122,,75 High Street,Gorleston,"Great Yarmouth, Norfolk",Fleetwoods,Retailers - other,4613,0,,703659,0,,52.58115000000000,6476,229,health@great-yarmouth.gov.uk,Great Yarmouth,http://www.great-yarmouth.gov.uk/live/index.htm,1.72902100000000,NR31 6RQ,2014-09-15,fhrs_5_en-GB,5,,FHRS,0
18123,,Somerton Road,Martham,Great Yarmouth,Flegg High School,School/college/university,7845,0,,680771,0,,52.71134100000000,9535,229,health@great-yarmouth.gov.uk,Great Yarmouth,http://www.great-yarmouth.gov.uk/live/index.htm,1.63935900000000,NR29 4QD,2014-07-02,fhrs_5_en-GB,5,,FHRS,0
18124,,Main Road A1064,Fleggburgh,Norfolk,Fleggburgh Village Hall,Restaurant/Cafe/Canteen,1,0,,621893,5,,52.66870000000000,42189,229,health@great-yarmouth.gov.uk,Great Yarmouth,http://www.great-yarmouth.gov.uk/live/index.htm,1.61641400000000,NR29 3AG,2013-02-12,fhrs_5_en-GB,5,,FHRS,0
18125,,29-32 St Georges Road,Great Yarmouth,Norfolk,Florence House,Hospitals/Childcare/Caring Premises,5,5,,621880,5,,52.60342100000000,42169,229,health@great-yarmouth.gov.uk,Great Yarmouth,http://www.great-yarmouth.gov.uk/live/index.htm,1.73531700000000,NR30 2JX,2015-01-08,fhrs_5_en-GB,5,,FHRS,0
18126,,122 High Street,Gorleston,"Great Yarmouth, Norfolk",Flour & Bean,Retailers - other,4613,5,,631456,5,,52.57853300000000,6484,229,health@great-yarmouth.gov.uk,Great Yarmouth,http://www.great-yarmouth.gov.uk/live/index.htm,1.72788300000000,NR31 6RE,2014-02-04,fhrs_5_en-GB,5,,FHRS,5
18127,,3 St Peters Road,Great Yarmouth,Norfolk,Forum Coffee House,Restaurant/Cafe/Canteen,1,20,,688982,15,,52.60284600000000,30447,229,health@great-yarmouth.gov.uk,Great Yarmouth,http://www.great-yarmouth.gov.uk/live/index.htm,1.73017100000000,NR30 3AU,2014-07-29,fhrs_1_en-GB,1,,FHRS,15
18128,,31 Regent Road,Great Yarmouth,Norfolk,Four Brothers Restaurant,Restaurant/Cafe/Canteen,1,10,,621826,15,,52.60748800000000,42037,229,health@great-yarmouth.gov.uk,Great Yarmouth,http://www.great-yarmouth.gov.uk/live/index.htm,1.73041900000000,NR30 2AF,2014-10-31,fhrs_1_en-GB,1,,FHRS,20
18129,,57 Lowestoft Road,Gorleston,"Great Yarmouth, Norfolk",Four Seasons,Takeaway/sandwich shop,7844,,,622008,,,52.57394000000000,6616,229,health@great-yarmouth.gov.uk,Great Yarmouth,http://www.great-yarmouth.gov.uk/live/index.htm,1.72576600000000,NR31 6SH,2013-11-18,fhrs_5_en-GB,5,,FHRS,
18130,,1 Mitchell Drive,Great Yarmouth,Norfolk,Frankie and Bennys,Restaurant/Cafe/Canteen,1,0,,735017,0,,,44327,229,health@great-yarmouth.gov.uk,Great Yarmouth,http://www.great-yarmouth.gov.uk/live/index.htm,,NR31 0GB,2015-01-14,fhrs_5_en-GB,5,,FHRS,5
18131,,Vauxhall Station,Great Yarmouth,Norfolk,Frankies,Takeaway/sandwich shop,7844,5,,621943,5,,52.61206900000000,42280,229,health@great-yarmouth.gov.uk,Great Yarmouth,http://www.great-yarmouth.gov.uk/live/index.htm,1.72061300000000,NR30 1SD,2013-02-21,fhrs_5_en-GB,5,,FHRS,0
18132,,123a King Street,Great Yarmouth,Norfolk,Fresh Halal Meat Shop,Retailers - other,4613,10,,719510,5,,52.60419700000000,26929,229,health@great-yarmouth.gov.uk,Great Yarmouth,http://www.great-yarmouth.gov.uk/live/index.htm,1.72981400000000,NR30 2PN,2014-10-31,fhrs_4_en-GB,4,,FHRS,5
18133,,55 Deneside,Great Yarmouth,Norfolk,Friends Bistro,Restaurant/Cafe/Canteen,1,,,621731,,,52.60620600000000,18466,229,health@great-yarmouth.gov.uk,Great Yarmouth,http://www.great-yarmouth.gov.uk/live/index.htm,1.72886200000000,NR30 2HL,2014-01-17,fhrs_5_en-GB,5,,FHRS,
18134,,Church Lane,Fritton,Fritton And St Olaves,Fritton Lake Coffee Shop,Restaurant/Cafe/Canteen,1,5,,621895,5,,52.54273100000000,42191,229,health@great-yarmouth.gov.uk,Great Yarmouth,http://www.great-yarmouth.gov.uk/live/index.htm,1.65012200000000,NR31 9HA,2013-07-13,fhrs_5_en-GB,5,,FHRS,5
18135,,19/20 North Drive,Great Yarmouth,,Furzedown Hotel,Hotel/bed & breakfast/guest house,7842,0,,719506,0,,52.61492800000000,18166,229,health@great-yarmouth.gov.uk,Great Yarmouth,http://www.great-yarmouth.gov.uk/live/index.htm,1.73751000000000,NR30 4EW,2014-11-26,fhrs_5_en-GB,5,,FHRS,0
18136,,30 North Drive,Great Yarmouth,Norfolk,Gable End Hotel,Hotel/bed & breakfast/guest house,7842,10,,708278,0,,52.61492800000000,18167,229,health@great-yarmouth.gov.uk,Great Yarmouth,http://www.great-yarmouth.gov.uk/live/index.htm,1.73751000000000,NR30 4EW,2014-10-01,fhrs_4_en-GB,4,,FHRS,5
18137,,6 Marine Parade,Gorleston,Great Yarmouth,Gables Residential Home,Hospitals/Childcare/Caring Premises,5,5,,691325,5,,52.56836600000000,42281,229,health@great-yarmouth.gov.uk,Great Yarmouth,http://www.great-yarmouth.gov.uk/live/index.htm,1.72969200000000,NR31 6DU,2014-08-07,fhrs_5_en-GB,5,,FHRS,5
18138,,1-2 Market Place,Great Yarmouth,Norfolk,Gallon Pot,Pub/bar/nightclub,7843,10,,735006,5,,52.60982000000000,18956,229,health@great-yarmouth.gov.uk,Great Yarmouth,http://www.great-yarmouth.gov.uk/live/index.htm,1.72605100000000,NR30 1NB,2015-01-06,fhrs_2_en-GB,2,,FHRS,15
18139,,4-5 Beach Road,Gorleston,Great Yarmouth,Gambas Seafood & Grill,Restaurant/Cafe/Canteen,1,,,621972,,,52.57362500000000,42411,229,health@great-yarmouth.gov.uk,Great Yarmouth,http://www.great-yarmouth.gov.uk/live/index.htm,1.73062600000000,NR31 6BH,2014-03-19,fhrs_4_en-GB,4,,FHRS,
18140,,33 St Georges Road,Great Yarmouth,Norfolk,Garemms Cafe,Restaurant/Cafe/Canteen,1,5,,638019,0,,52.60342100000000,42795,229,health@great-yarmouth.gov.uk,Great Yarmouth,http://www.great-yarmouth.gov.uk/live/index.htm,1.73531700000000,NR30 2JX,2014-03-11,fhrs_5_en-GB,5,,FHRS,5
18141,,45 Albion Road,Great Yarmouth,Norfolk,Gemini Day Care Centre,Hospitals/Childcare/Caring Premises,5,5,,719516,0,,52.60693700000000,43838,229,health@great-yarmouth.gov.uk,Great Yarmouth,http://www.great-yarmouth.gov.uk/live/index.htm,1.73447900000000,NR30 2JD,2014-09-30,fhrs_5_en-GB,5,,FHRS,0
18142,,44 Crown Road,Great Yarmouth,Norfolk,Georgina House Care Home,Hospitals/Childcare/Caring Premises,5,0,,621793,0,,52.60627700000000,34210,229,health@great-yarmouth.gov.uk,Great Yarmouth,http://www.great-yarmouth.gov.uk/live/index.htm,1.73374300000000,NR30 2JH,2014-12-03,fhrs_5_en-GB,5,,FHRS,5
18143,,52 Regent Road,Great Yarmouth,Norfolk,Gilfreds,Restaurant/Cafe/Canteen,1,5,,708281,0,,52.60821500000000,18413,229,health@great-yarmouth.gov.uk,Great Yarmouth,http://www.great-yarmouth.gov.uk/live/index.htm,1.73559300000000,NR30 2AL,2014-09-26,fhrs_5_en-GB,5,,FHRS,0
18144,,63a-64 High Street,Gorleston,Great Yarmouth,Golden City,Takeaway/sandwich shop,7844,10,,735012,10,,52.58115000000000,44312,229,health@great-yarmouth.gov.uk,Great Yarmouth,http://www.great-yarmouth.gov.uk/live/index.htm,1.72902100000000,NR31 6RQ,2015-01-13,fhrs_3_en-GB,3,,FHRS,10
18145,,Beach Road,Hemsby,Norfolk,Golden Dragon Takeaway,Takeaway/sandwich shop,7844,5,,723595,0,,52.69576500000000,43989,229,health@great-yarmouth.gov.uk,Great Yarmouth,http://www.great-yarmouth.gov.uk/live/index.htm,1.70426800000000,NR29 4HS,2014-10-23,fhrs_5_en-GB,5,,FHRS,0
18146,,Butt Lane,Burgh Castle,Great Yarmouth,Golden Fish Restaurant,Restaurant/Cafe/Canteen,1,5,,621783,5,,52.57984900000000,32087,229,health@great-yarmouth.gov.uk,Great Yarmouth,http://www.great-yarmouth.gov.uk/live/index.htm,1.65893700000000,NR31 9AJ,2014-06-10,fhrs_4_en-GB,4,,FHRS,10
18147,,8 Baker Street,Gorleston,"Great Yarmouth, Norfolk",Good Luck,Takeaway/sandwich shop,7844,5,,622009,5,,52.57752200000000,6618,229,health@great-yarmouth.gov.uk,Great Yarmouth,http://www.great-yarmouth.gov.uk/live/index.htm,1.72828500000000,NR31 6QT,2013-03-21,fhrs_5_en-GB,5,,FHRS,5
18148,,105 High Street,Gorleston,Great Yarmouth,Gorleston Spice,Takeaway/sandwich shop,7844,5,,631455,0,,52.57944800000000,42662,229,health@great-yarmouth.gov.uk,Great Yarmouth,http://www.great-yarmouth.gov.uk/live/index.htm,1.72824200000000,NR31 6RF,2014-01-30,fhrs_5_en-GB,5,,FHRS,5
18149,,,,,Gourmet Dounts,Mobile caterer,7846,5,,688990,5,,,43368,229,health@great-yarmouth.gov.uk,Great Yarmouth,http://www.great-yarmouth.gov.uk/live/index.htm,,,2014-06-28,fhrs_5_en-GB,5,,FHRS,0
18150,,155 Nelson Road Central,Great Yarmouth,Norfolk,Great Eastern Public House,Pub/bar/nightclub,7843,10,,621896,10,,52.60663900000000,42193,229,health@great-yarmouth.gov.uk,Great Yarmouth,http://www.great-yarmouth.gov.uk/live/index.htm,1.73309500000000,NR30 2HZ,2014-12-16,fhrs_3_en-GB,3,,FHRS,10
18151,,144 King Street,Great Yarmouth,Norfolk,Great International Food Store,Retailers - other,4613,5,,621814,0,,52.60393600000000,41787,229,health@great-yarmouth.gov.uk,Great Yarmouth,http://www.great-yarmouth.gov.uk/live/index.htm,1.72926000000000,NR30 2PQ,2013-05-16,fhrs_5_en-GB,5,,FHRS,0
18152,,Lichfield Road,Great Yarmouth,Norfolk,Great Yarmouth College,Restaurant/Cafe/Canteen,1,0,,621992,0,,52.59799600000000,42480,229,health@great-yarmouth.gov.uk,Great Yarmouth,http://www.great-yarmouth.gov.uk/live/index.htm,1.72136900000000,NR31 0ED,2013-12-18,fhrs_5_en-GB,5,,FHRS,0
18153,,29 Salisbury Road,Great Yarmouth,Norfolk,Great Yarmouth Kebab and Pizza,Takeaway/sandwich shop,7844,,,631434,,,52.61969000000000,27821,229,health@great-yarmouth.gov.uk,Great Yarmouth,http://www.great-yarmouth.gov.uk/live/index.htm,1.72996500000000,NR30 4LF,2014-07-23,fhrs_4_en-GB,4,,FHRS,
18154,,Albert Square,Great Yarmouth,Norfolk,Great Yarmouth Masonic Associa,Pub/bar/nightclub,7843,5,,621755,5,,52.59994400000000,22045,229,health@great-yarmouth.gov.uk,Great Yarmouth,http://www.great-yarmouth.gov.uk/live/index.htm,1.73375100000000,NR30 3JH,2014-07-03,fhrs_5_en-GB,5,,FHRS,0
18155,,Dickens Avenue,Great Yarmouth,,Great Yarmouth Primary Academy,School/college/university,7845,5,,621749,10,,52.59510600000000,21624,229,health@great-yarmouth.gov.uk,Great Yarmouth,http://www.great-yarmouth.gov.uk/live/index.htm,1.73199500000000,NR30 3DT,2014-12-17,fhrs_4_en-GB,4,,FHRS,5
18156,,Beach Rd,Scratby,Great Yarmouth,Green Farm Fish & Chip shop,Takeaway/sandwich shop,7844,10,,719504,0,,52.67807100000000,11795,229,health@great-yarmouth.gov.uk,Great Yarmouth,http://www.great-yarmouth.gov.uk/live/index.htm,1.71178200000000,NR29 3NW,2014-09-30,fhrs_4_en-GB,4,,FHRS,10
18157,,High Street,Caister-On-Sea,Norfolk,Green Gate Inn,Pub/bar/nightclub,7843,10,,723591,15,,52.64728000000000,42683,229,health@great-yarmouth.gov.uk,Great Yarmouth,http://www.great-yarmouth.gov.uk/live/index.htm,1.72787800000000,NR30 5EL,2014-12-03,fhrs_2_en-GB,2,,FHRS,5
18158,,182 King Street,Great Yarmouth,Norfolk,Greggs,Restaurant/Cafe/Canteen,1,5,,621764,5,,52.60726600000000,24537,229,health@great-yarmouth.gov.uk,Great Yarmouth,http://www.great-yarmouth.gov.uk/live/index.htm,1.72660300000000,NR30 1LS,2013-04-24,fhrs_5_en-GB,5,,FHRS,5
18159,,147 High Street,Gorleston,Great Yarmouth,Greggs,Takeaway/sandwich shop,7844,0,,731247,0,,52.57909800000000,44273,229,health@great-yarmouth.gov.uk,Great Yarmouth,http://www.great-yarmouth.gov.uk/live/index.htm,1.72763600000000,NR31 6RB,2015-01-13,fhrs_5_en-GB,5,,FHRS,0
18160,,49 John Road,Gorleston,"Great Yarmouth, Norfolk",Gresham Nursing Home,Hospitals/Childcare/Caring Premises,5,10,,622023,0,,52.58000300000000,6801,229,health@great-yarmouth.gov.uk,Great Yarmouth,http://www.great-yarmouth.gov.uk/live/index.htm,1.72719600000000,NR31 6LJ,2014-11-18,fhrs_4_en-GB,4,,FHRS,0
18161,,Marine Parade,Great Yarmouth,Norfolk,Grosvenor Casino,Restaurant/Cafe/Canteen,1,0,,693995,5,,52.59855400000000,43507,229,health@great-yarmouth.gov.uk,Great Yarmouth,http://www.great-yarmouth.gov.uk/live/index.htm,1.73618800000000,NR30 3JG,2014-08-08,fhrs_5_en-GB,5,,FHRS,0
18162,,6-7 North Drive,Great Yarmouth,Norfolk,Hadleigh Gables,Hotel/bed & breakfast/guest house,7842,5,,621809,5,,52.61184100000000,40163,229,health@great-yarmouth.gov.uk,Great Yarmouth,http://www.great-yarmouth.gov.uk/live/index.htm,1.73726100000000,NR30 1ED,2014-08-20,fhrs_5_en-GB,5,,FHRS,5
18163,,48/51 Regent Rd,Great Yarmouth,Norfolk,Hamburger Snack Bar,Restaurant/Cafe/Canteen,1,5,,621734,5,,52.60821500000000,18604,229,health@great-yarmouth.gov.uk,Great Yarmouth,http://www.great-yarmouth.gov.uk/live/index.htm,1.73559300000000,NR30 2AL,2014-10-15,fhrs_5_en-GB,5,,FHRS,5
18164,,54 Deneside,Great Yarmouth,Norfolk,Happy View,Takeaway/sandwich shop,7844,20,,711770,10,,52.60620600000000,18809,229,health@great-yarmouth.gov.uk,Great Yarmouth,http://www.great-yarmouth.gov.uk/live/index.htm,1.72886200000000,NR30 2HL,2014-10-15,fhrs_1_en-GB,1,,FHRS,20
18165,,11-12 Marine Parade,Great Yarmouth,,Harry Ramsdens,Restaurant/Cafe/Canteen,1,10,,631433,5,,52.60143100000000,22304,229,health@great-yarmouth.gov.uk,Great Yarmouth,http://www.great-yarmouth.gov.uk/live/index.htm,1.73566500000000,NR30 3AH,2014-01-22,fhrs_4_en-GB,4,,FHRS,5
18166,,102 Hawkins Close,Great Yarmouth,Norfolk,Hawkins Close Communal Rooms,Restaurant/Cafe/Canteen,1,5,,631442,0,,52.62490300000000,42163,229,health@great-yarmouth.gov.uk,Great Yarmouth,http://www.great-yarmouth.gov.uk/live/index.htm,1.72867900000000,NR30 4AZ,2013-08-15,fhrs_5_en-GB,5,,FHRS,0
18167,,2 Trafalgar Road,Great Yarmouth,Norfolk,Helm House,Hotel/bed & breakfast/guest house,7842,5,,621897,15,,52.60549500000000,42196,229,health@great-yarmouth.gov.uk,Great Yarmouth,http://www.great-yarmouth.gov.uk/live/index.htm,1.73429700000000,NR30 2LD,2013-01-18,fhrs_2_en-GB,2,,FHRS,5
18168,,The Street,Hemsby,Great Yarmouth,Hemsby Fish and Chips,Takeaway/sandwich shop,7844,10,,622026,0,,52.69630500000000,7745,229,health@great-yarmouth.gov.uk,Great Yarmouth,http://www.great-yarmouth.gov.uk/live/index.htm,1.68927200000000,NR29 4EU,2013-11-27,fhrs_4_en-GB,4,,FHRS,5
18169,,,,,Hemsby Herring,Mobile caterer,7846,10,,699984,5,,,43618,229,health@great-yarmouth.gov.uk,Great Yarmouth,http://www.great-yarmouth.gov.uk/live/index.htm,,,2014-09-06,fhrs_4_en-GB,4,,FHRS,5
18170,,Seadell Holiday Estate,Beach Road,Hemsby,Hemsby Kebab,Takeaway/sandwich shop,7844,10,,664633,0,,52.69587100000000,43065,229,health@great-yarmouth.gov.uk,Great Yarmouth,http://www.great-yarmouth.gov.uk/live/index.htm,1.70087200000000,NR294HU,2014-05-01,fhrs_4_en-GB,4,,FHRS,10
18171,,Ormesby Road,Hemsby,Norfolk,Hemsby Post Office,Retailers - other,4613,5,,727749,10,,52.69467600000000,7740,229,health@great-yarmouth.gov.uk,Great Yarmouth,http://www.great-yarmouth.gov.uk/live/index.htm,1.68728400000000,NR29 4AA,2014-12-15,fhrs_4_en-GB,4,,FHRS,5
18172,,Hemsby,Great Yarmouth,Norfolk,Hemsby Primary School,School/college/university,7845,0,,622029,0,,52.69648600000000,7777,229,health@great-yarmouth.gov.uk,Great Yarmouth,http://www.great-yarmouth.gov.uk/live/index.htm,1.68751100000000,NR29 4LH,2013-01-31,fhrs_5_en-GB,5,,FHRS,0
18173,,6-7 Broad Row,Great Yarmouth,Norfolk,Herois do Mar,Retailers - other,4613,10,,621800,0,,52.60805600000000,37538,229,health@great-yarmouth.gov.uk,Great Yarmouth,http://www.great-yarmouth.gov.uk/live/index.htm,1.72380300000000,NR30 1HT,2013-02-08,fhrs_4_en-GB,4,,FHRS,0
18174,,Hermanus Drive,Winterton On Sea,Great Yarmouth,Highwayman Restaurant,Restaurant/Cafe/Canteen,1,5,,621715,5,,52.71385400000000,14901,229,health@great-yarmouth.gov.uk,Great Yarmouth,http://www.great-yarmouth.gov.uk/live/index.htm,1.69558300000000,NR29 4BP,2013-09-19,fhrs_5_en-GB,5,,FHRS,5
18175,,6 Marine Parade,Great Yarmouth,Norfolk,HMS Hinchinbrook Restaurant,Restaurant/Cafe/Canteen,1,,,647463,,,52.60143100000000,18507,229,health@great-yarmouth.gov.uk,Great Yarmouth,http://www.great-yarmouth.gov.uk/live/index.htm,1.73566500000000,NR30 3AH,2014-07-18,fhrs_5_en-GB,5,,FHRS,
18176,,Newport Road,"Hemsby, Great Yarmouth",Norfolk,Holiday Diner,Restaurant/Cafe/Canteen,1,5,,664598,0,,52.69028200000000,1291,229,health@great-yarmouth.gov.uk,Great Yarmouth,http://www.great-yarmouth.gov.uk/live/index.htm,1.70559500000000,NR29 4NW,2014-05-27,fhrs_5_en-GB,5,,FHRS,0
18177,,Beach Road,Hemsby,Norfolk,Hollywood Diner,Restaurant/Cafe/Canteen,1,,,680770,,,52.69576500000000,43250,229,health@great-yarmouth.gov.uk,Great Yarmouth,http://www.great-yarmouth.gov.uk/live/index.htm,1.70426800000000,NR29 4HS,2014-09-23,fhrs_5_en-GB,5,,FHRS,
18178,,Black Street,Winterton-On-Sea,Norfolk,Holy Trinity and All Saints Church,Restaurant/Cafe/Canteen,1,5,,631441,0,,52.71451100000000,42161,229,health@great-yarmouth.gov.uk,Great Yarmouth,http://www.great-yarmouth.gov.uk/live/index.htm,1.68460400000000,NR29 4AW,2013-08-19,fhrs_5_en-GB,5,,FHRS,0
18179,,Thamesfield Way,Great Yarmouth,Norfolk,Home Bargains,Retailers - other,4613,10,,723594,10,,52.59923100000000,43359,229,health@great-yarmouth.gov.uk,Great Yarmouth,http://www.great-yarmouth.gov.uk/live/index.htm,1.71785400000000,NR31 0DH,2014-12-01,fhrs_4_en-GB,4,,FHRS,0
18180,,71 Marine Parade,Great Yarmouth,Norfolk,Hooray Henrys Shabby Chic,Hotel/bed & breakfast/guest house,7842,10,,621953,5,,52.60848600000000,42298,229,health@great-yarmouth.gov.uk,Great Yarmouth,http://www.great-yarmouth.gov.uk/live/index.htm,1.73641400000000,NR30 2DQ,2013-09-20,fhrs_4_en-GB,4,,FHRS,5
18181,,Coast Road,Hopton,Great Yarmouth,Hopton C Of E First School,School/college/university,7845,0,,635372,0,,52.53770900000000,8284,229,health@great-yarmouth.gov.uk,Great Yarmouth,http://www.great-yarmouth.gov.uk/live/index.htm,1.72977500000000,NR31 9BT,2014-02-05,fhrs_5_en-GB,5,,FHRS,0
18182,,,,,Hot Fresh Donuts,Mobile caterer,7846,5,,664622,0,,,42861,229,health@great-yarmouth.gov.uk,Great Yarmouth,http://www.great-yarmouth.gov.uk/live/index.htm,,,2014-05-28,fhrs_5_en-GB,5,,FHRS,0
18183,,Kings Road,Great Yarmouth,,Hotel Victoria,Hotel/bed & breakfast/guest house,7842,0,,664610,0,,52.59869900000000,18176,229,health@great-yarmouth.gov.uk,Great Yarmouth,http://www.great-yarmouth.gov.uk/live/index.htm,1.73501900000000,NR30 3JW,2014-05-07,fhrs_5_en-GB,5,,FHRS,5
18184,,Longs Industrial Estate,Englands Lane,Gorleston,House of Fun Nursery,Restaurant/Cafe/Canteen,1,0,,683098,0,,52.57447300000000,26269,229,health@great-yarmouth.gov.uk,Great Yarmouth,http://www.great-yarmouth.gov.uk/live/index.htm,1.72826200000000,NR31 6BE,2014-07-08,fhrs_5_en-GB,5,,FHRS,5
18185,,South Beach Parade,Great Yarmouth,Norfolk,Hungry Horse,Takeaway/sandwich shop,7844,10,,621909,0,,52.59450700000000,42222,229,health@great-yarmouth.gov.uk,Great Yarmouth,http://www.great-yarmouth.gov.uk/live/index.htm,1.73615300000000,NR30 3EH,2013-09-18,fhrs_4_en-GB,4,,FHRS,0
18186,,138c High Street,Gorleston,Great Yarmouth,Iceland,Retailers - other,4613,0,,638023,0,,52.57823400000000,6496,229,health@great-yarmouth.gov.uk,Great Yarmouth,http://www.great-yarmouth.gov.uk/live/index.htm,1.72707500000000,NR31 6QX,2014-02-27,fhrs_5_en-GB,5,,FHRS,0
18187,,90-92 South Market Road,Great Yarmouth,Norfolk,Iceland,Retailers - supermarkets/hypermarkets,7840,,,621980,,,52.60826500000000,42444,229,health@great-yarmouth.gov.uk,Great Yarmouth,http://www.great-yarmouth.gov.uk/live/index.htm,1.73058800000000,NR30 2BQ,2014-02-27,fhrs_5_en-GB,5,,FHRS,
18188,,6-7 Quay Road,Gorleston,"Great Yarmouth, Norfolk",International Breakfast Bars,Restaurant/Cafe/Canteen,1,10,,719524,5,,52.57162300000000,6597,229,health@great-yarmouth.gov.uk,Great Yarmouth,http://www.great-yarmouth.gov.uk/live/index.htm,1.73249300000000,NR31 6PJ,2014-11-17,fhrs_2_en-GB,2,,FHRS,15
18189,,46-47 St Nicholas Road,Great Yarmouth,Norfolk,Istanbul Kebab,Takeaway/sandwich shop,7844,10,,708282,10,,52.61015800000000,18818,229,health@great-yarmouth.gov.uk,Great Yarmouth,http://www.great-yarmouth.gov.uk/live/index.htm,1.73275900000000,NR30 1NR,2014-10-09,fhrs_3_en-GB,3,,FHRS,5
18190,,76 Regent Road,Great Yarmouth,Norfolk,Istanbul kebab,Takeaway/sandwich shop,7844,20,,621877,20,,52.60765600000000,42165,229,health@great-yarmouth.gov.uk,Great Yarmouth,http://www.great-yarmouth.gov.uk/live/index.htm,1.73423000000000,NR30 2AJ,2014-10-08,fhrs_1_en-GB,1,,FHRS,5
18191,,1 Station Road,Ormesby St Margaret W Scratby,Norfolk,Ivydene Residential Home,Hospitals/Childcare/Caring Premises,5,10,,635365,0,,52.67330200000000,42756,229,health@great-yarmouth.gov.uk,Great Yarmouth,http://www.great-yarmouth.gov.uk/live/index.htm,1.69285100000000,NR29 3PU,2014-02-19,fhrs_4_en-GB,4,,FHRS,5
18192,,21 Northgate Street,Great Yarmouth,Norfolk,J D Bales & Son,Retailers - other,4613,10,,727738,10,,52.61226100000000,16089,229,health@great-yarmouth.gov.uk,Great Yarmouth,http://www.great-yarmouth.gov.uk/live/index.htm,1.72594900000000,NR30 1BA,2015-01-06,fhrs_3_en-GB,3,,FHRS,5
18193,,Marine Parade,Great Yarmouth,Norfolk,Jackie's Beach Hut,Takeaway/sandwich shop,7844,5,,727746,10,,52.60143100000000,44098,229,health@great-yarmouth.gov.uk,Great Yarmouth,http://www.great-yarmouth.gov.uk/live/index.htm,1.73566500000000,NR30 3AH,2014-10-28,fhrs_4_en-GB,4,,FHRS,5
18194,,"Shop Unit 3 ""The Jetty""",Marine Parade,Great Yarmouth,Jacks Jetty Snacks,Takeaway/sandwich shop,7844,5,,621825,5,,52.60143100000000,42013,229,health@great-yarmouth.gov.uk,Great Yarmouth,http://www.great-yarmouth.gov.uk/live/index.htm,1.73566500000000,NR30 3AH,2013-09-04,fhrs_5_en-GB,5,,FHRS,5
18195,,,Beach Road,Hemsby,Jack'sTakeaway and Seafood Stall,Takeaway/sandwich shop,7844,5,,664631,0,,52.69576500000000,43058,229,health@great-yarmouth.gov.uk,Great Yarmouth,http://www.great-yarmouth.gov.uk/live/index.htm,1.70426800000000,NR294HS,2014-04-30,fhrs_5_en-GB,5,,FHRS,5
18196,,32a King Street,Great Yarmouth,Norfolk,Jade Palace,Takeaway/sandwich shop,7844,20,,661370,20,,52.60628100000000,24056,229,health@great-yarmouth.gov.uk,Great Yarmouth,http://www.great-yarmouth.gov.uk/live/index.htm,1.72820300000000,NR30 2NZ,2014-04-30,fhrs_0_en-GB,0,,FHRS,20
18197,,158 King Street,Great Yarmouth,Norfolk,Jaipur Indian Restaurant & Ta*,Restaurant/Cafe/Canteen,1,5,,719509,0,,52.60578500000000,18501,229,health@great-yarmouth.gov.uk,Great Yarmouth,http://www.great-yarmouth.gov.uk/live/index.htm,1.72795400000000,NR30 2PA,2014-11-06,fhrs_5_en-GB,5,,FHRS,5
18198,,Lowestoft Road,Gorleston,Great Yarmouth,James Paget Hospital,Other catering premises,7841,0,,622022,0,,52.56168300000000,6787,229,health@great-yarmouth.gov.uk,Great Yarmouth,http://www.great-yarmouth.gov.uk/live/index.htm,1.71796600000000,NR31 6LA,2013-11-26,fhrs_5_en-GB,5,,FHRS,0
18199,,Lower Esplanade,Gorleston,Great Yarmouth,JayJay's@ The beach cafe,Restaurant/Cafe/Canteen,1,5,,671767,0,,52.56146800000000,43145,229,health@great-yarmouth.gov.uk,Great Yarmouth,http://www.great-yarmouth.gov.uk/live/index.htm,1.73049400000000,NR31 6EY,2014-05-21,fhrs_5_en-GB,5,,FHRS,5
18200,,Pit Road,Hemsby,Norfolk,Jayne's Celebration Cakes,Retailers - other,4613,5,,621873,0,,52.69709900000000,42158,229,health@great-yarmouth.gov.uk,Great Yarmouth,http://www.great-yarmouth.gov.uk/live/index.htm,1.68775500000000,NR29 4LG,2013-08-23,fhrs_5_en-GB,5,,FHRS,0
18201,,8 High Street,Caister-On-Sea,Norfolk,Jayne's Snack Bar,Restaurant/Cafe/Canteen,1,10,,731243,10,,52.64697400000000,44099,229,health@great-yarmouth.gov.uk,Great Yarmouth,http://www.great-yarmouth.gov.uk/live/index.htm,1.72870900000000,NR30 5EP,2015-01-07,fhrs_3_en-GB,3,,FHRS,5
18202,,63 Avondale Road,Gorleston,"Great Yarmouth, Norfolk",Jennis Lodge,Hotel/bed & breakfast/guest house,7842,5,,711780,0,,52.56992500000000,6594,229,health@great-yarmouth.gov.uk,Great Yarmouth,http://www.great-yarmouth.gov.uk/live/index.htm,1.72988300000000,NR31 6DJ,2014-10-22,fhrs_5_en-GB,5,,FHRS,0
18203,,Morton Peto Rd,Great Yarmouth,Norfolk,Jesters Diner,Restaurant/Cafe/Canteen,1,0,,621732,0,,52.59139600000000,18474,229,health@great-yarmouth.gov.uk,Great Yarmouth,http://www.great-yarmouth.gov.uk/live/index.htm,1.71098700000000,NR31 0LT,2013-09-16,fhrs_5_en-GB,5,,FHRS,5
18204,,The Conge,Great Yarmouth,,Jims Butcher,Manufacturers/packers,7839,10,,708285,5,,52.60964600000000,32264,229,health@great-yarmouth.gov.uk,Great Yarmouth,http://www.great-yarmouth.gov.uk/live/index.htm,1.72444100000000,NR30 1PJ,2013-10-17,fhrs_2_en-GB,2,,FHRS,15
18205,,81 Magdalen Way,Gorleston,Great Yarmouth,Joe's Chippy,Takeaway/sandwich shop,7844,10,,708297,5,,52.57371500000000,43735,229,health@great-yarmouth.gov.uk,Great Yarmouth,http://www.great-yarmouth.gov.uk/live/index.htm,1.71463000000000,NR31 7AA,2014-09-30,fhrs_4_en-GB,4,,FHRS,5
18206,,Market Place,Great Yarmouth,Norfolk,Joes Hog Roast,Takeaway/sandwich shop,7844,10,,635361,10,,52.60868500000000,42714,229,health@great-yarmouth.gov.uk,Great Yarmouth,http://www.great-yarmouth.gov.uk/live/index.htm,1.72727000000000,NR30 1NU,2014-02-05,fhrs_3_en-GB,3,,FHRS,5
18207,,Caister-On-Sea,Great Yarmouth,,John Grant Sports College,School/college/university,7845,5,,647474,0,,52.65730000000000,4443,229,health@great-yarmouth.gov.uk,Great Yarmouth,http://www.great-yarmouth.gov.uk/live/index.htm,1.71843600000000,NR30 5QW,2014-03-25,fhrs_5_en-GB,5,,FHRS,0
18208,,Marine Parade,Great Yarmouth,Norfolk,Joyland Diner,Restaurant/Cafe/Canteen,1,10,,621948,10,,52.60824000000000,42290,229,health@great-yarmouth.gov.uk,Great Yarmouth,http://www.great-yarmouth.gov.uk/live/index.htm,1.73792900000000,NR30 2EH,2013-10-31,fhrs_4_en-GB,4,,FHRS,0
18209,,9 Stonecutters Way,Great Yarmouth,Norfolk,Juicy Lucys,Takeaway/sandwich shop,7844,,,621995,,,52.60795500000000,42488,229,health@great-yarmouth.gov.uk,Great Yarmouth,http://www.great-yarmouth.gov.uk/live/index.htm,1.72388300000000,NR30 1HF,2014-05-09,fhrs_5_en-GB,5,,FHRS,
18210,,Site 32 Market Place,Great Yarmouth,Norfolk,Julie's Tea Stall,Takeaway/sandwich shop,7844,5,,621769,5,,52.60868500000000,26776,229,health@great-yarmouth.gov.uk,Great Yarmouth,http://www.great-yarmouth.gov.uk/live/index.htm,1.72727000000000,NR30 1NU,2014-11-25,fhrs_5_en-GB,5,,FHRS,5
18211,,134 Mill Road,Great Yarmouth,Norfolk,Kazzies Cafe,Restaurant/Cafe/Canteen,1,10,,711769,10,,52.60649900000000,18635,229,health@great-yarmouth.gov.uk,Great Yarmouth,http://www.great-yarmouth.gov.uk/live/index.htm,1.71926800000000,NR31 0HS,2014-10-28,fhrs_3_en-GB,3,,FHRS,5
18212,,29 North Drive,Great Yarmouth,Norfolk,Kensington Hotel,Hotel/bed & breakfast/guest house,7842,5,,621770,5,,52.61492800000000,27037,229,health@great-yarmouth.gov.uk,Great Yarmouth,http://www.great-yarmouth.gov.uk/live/index.htm,1.73751000000000,NR30 4EW,2013-09-05,fhrs_5_en-GB,5,,FHRS,0
18213,,5 Kent Square,Great Yarmouth,Norfolk,Kentville Guesthouse,Hotel/bed & breakfast/guest house,7842,0,,683101,5,,52.60425200000000,43226,229,health@great-yarmouth.gov.uk,Great Yarmouth,http://www.great-yarmouth.gov.uk/live/index.htm,1.73521100000000,NR30 2EX,2014-06-20,fhrs_5_en-GB,5,,FHRS,5
18214,,6-7 Quay Road,Gorleston,"Great Yarmouth, Norfolk",Key Largo,Restaurant/Cafe/Canteen,1,5,,708298,0,,52.57162300000000,6598,229,health@great-yarmouth.gov.uk,Great Yarmouth,http://www.great-yarmouth.gov.uk/live/index.htm,1.73249300000000,NR31 6PJ,2014-10-01,fhrs_5_en-GB,5,,FHRS,5
18215,,113a High Street,Gorleston,"Great Yarmouth, Norfolk",KFC,Takeaway/sandwich shop,7844,0,,622010,0,,52.57853300000000,6619,229,health@great-yarmouth.gov.uk,Great Yarmouth,http://www.great-yarmouth.gov.uk/live/index.htm,1.72788300000000,NR31 6RE,2014-12-04,fhrs_5_en-GB,5,,FHRS,5
18216,,114a Regent Road,Great Yarmouth,Norfolk,KFC,Takeaway/sandwich shop,7844,0,,727739,0,,52.60680500000000,18829,229,health@great-yarmouth.gov.uk,Great Yarmouth,http://www.great-yarmouth.gov.uk/live/index.htm,1.72867600000000,NR30 2AB,2014-12-18,fhrs_5_en-GB,5,,FHRS,0
18217,,33 Marine Parade,Great Yarmouth,Norfolk,KFC,Takeaway/sandwich shop,7844,10,,671756,5,,52.60448200000000,29378,229,health@great-yarmouth.gov.uk,Great Yarmouth,http://www.great-yarmouth.gov.uk/live/index.htm,1.73589500000000,NR30 2EN,2014-06-20,fhrs_4_en-GB,4,,FHRS,5
18218,,14 Trafalgar Road,Great Yarmouth,Norfolk,Kilbrannan Guest House,Hotel/bed & breakfast/guest house,7842,5,,621986,0,,52.60549500000000,42450,229,health@great-yarmouth.gov.uk,Great Yarmouth,http://www.great-yarmouth.gov.uk/live/index.htm,1.73429700000000,NR30 2LD,2013-11-27,fhrs_5_en-GB,5,,FHRS,0
18219,,23 King Street,Great Yarmouth,Norfolk,King Street Food and Wine,Retailers - other,4613,20,,621808,15,,52.60628100000000,38821,229,health@great-yarmouth.gov.uk,Great Yarmouth,http://www.great-yarmouth.gov.uk/live/index.htm,1.72820300000000,NR30 2NZ,2013-11-27,fhrs_1_en-GB,1,,FHRS,15
18220,,164 King Street,Great Yarmouth,Norfolk,King Street Mini Market,Retailers - other,4613,10,,723590,5,,52.60578500000000,38804,229,health@great-yarmouth.gov.uk,Great Yarmouth,http://www.great-yarmouth.gov.uk/live/index.htm,1.72795400000000,NR30 2PA,2014-12-09,fhrs_4_en-GB,4,,FHRS,0
18221,,Quay Road,Gorleston,Great Yarmouth,King William IV,Pub/bar/nightclub,7843,5,,621966,5,,52.57347100000000,42362,229,health@great-yarmouth.gov.uk,Great Yarmouth,http://www.great-yarmouth.gov.uk/live/index.htm,1.73180900000000,NR31 6PH,2013-11-13,fhrs_5_en-GB,5,,FHRS,5
18222,,West Road,Caister-On-Sea,Norfolk,Kings Arms West Rd Caister,Pub/bar/nightclub,7843,5,,621900,5,,52.64758000000000,42204,229,health@great-yarmouth.gov.uk,Great Yarmouth,http://www.great-yarmouth.gov.uk/live/index.htm,1.72491600000000,NR30 5AQ,2013-04-03,fhrs_5_en-GB,5,,FHRS,0
18223,,42 King Street,Great Yarmouth,Norfolk,Kings Wine Bar,Pub/bar/nightclub,7843,10,,621748,15,,52.60419700000000,19207,229,health@great-yarmouth.gov.uk,Great Yarmouth,http://www.great-yarmouth.gov.uk/live/index.htm,1.72981400000000,NR30 2PN,2013-08-15,fhrs_2_en-GB,2,,FHRS,0
18224,,26 Church Plain,Great Yarmouth,Norfolk,Kirstys Cakery,Restaurant/Cafe/Canteen,1,5,,635364,10,,52.61099300000000,42752,229,health@great-yarmouth.gov.uk,Great Yarmouth,http://www.great-yarmouth.gov.uk/live/index.htm,1.72650600000000,NR30 1NE,2014-02-11,fhrs_4_en-GB,4,,FHRS,0
18225,,28 St Peters Road,Great Yarmouth,Norfolk,Kittanda,Retailers - other,4613,10,,621818,5,,52.60268200000000,41982,229,health@great-yarmouth.gov.uk,Great Yarmouth,http://www.great-yarmouth.gov.uk/live/index.htm,1.73393900000000,NR30 3BQ,2013-09-16,fhrs_4_en-GB,4,,FHRS,5
18226,,22 North Drive,Great Yarmouth,Norfolk,Knights Court Hotel,Hotel/bed & breakfast/guest house,7842,10,,647470,10,,52.61492800000000,42859,229,health@great-yarmouth.gov.uk,Great Yarmouth,http://www.great-yarmouth.gov.uk/live/index.htm,1.73751000000000,NR30 4EW,2014-03-25,fhrs_2_en-GB,2,,FHRS,15
18227,,8 Marine Parade,Great Yarmouth,Norfolk,KPF Restaurant Takeaway,Restaurant/Cafe/Canteen,1,5,,621949,5,,52.60143100000000,42293,229,health@great-yarmouth.gov.uk,Great Yarmouth,http://www.great-yarmouth.gov.uk/live/index.htm,1.73566500000000,NR30 3AH,2014-05-19,fhrs_4_en-GB,4,,FHRS,10
18228,,31 Nelson Road North,Great Yarmouth,Norfolk,Kuk Chunas,Restaurant/Cafe/Canteen,1,5,,631451,5,,52.61110800000000,42633,229,health@great-yarmouth.gov.uk,Great Yarmouth,http://www.great-yarmouth.gov.uk/live/index.htm,1.73313500000000,NR30 1EN,2013-04-10,fhrs_5_en-GB,5,,FHRS,0
18229,,117 Wellesley Road,Great Yarmouth,Norfolk,Lea-Hurst Guest House,Hotel/bed & breakfast/guest house,7842,0,,664613,0,,52.60836800000000,18331,229,health@great-yarmouth.gov.uk,Great Yarmouth,http://www.great-yarmouth.gov.uk/live/index.htm,1.73446800000000,NR30 2AP,2014-05-20,fhrs_5_en-GB,5,,FHRS,0
18230,,116-117 Lichfield Road,Great Yarmouth,Norfolk,Lichfield Arms Public House,Pub/bar/nightclub,7843,10,,621901,0,,52.60078100000000,42206,229,health@great-yarmouth.gov.uk,Great Yarmouth,http://www.great-yarmouth.gov.uk/live/index.htm,1.72119100000000,NR31 0AB,2013-04-18,fhrs_4_en-GB,4,,FHRS,5
18231,,39 Lichfield Road,Great Yarmouth,Norfolk,Lichfield Chippy,Takeaway/sandwich shop,7844,,,621736,,,52.60078100000000,18732,229,health@great-yarmouth.gov.uk,Great Yarmouth,http://www.great-yarmouth.gov.uk/live/index.htm,1.72119100000000,NR31 0AB,2013-11-27,fhrs_4_en-GB,4,,FHRS,
18232,,Yarmouth Road,West Caister,Norfolk,Light Bites,Takeaway/sandwich shop,7844,5,,621947,5,,52.63709000000000,42287,229,health@great-yarmouth.gov.uk,Great Yarmouth,http://www.great-yarmouth.gov.uk/live/index.htm,1.72641900000000,NR30 5TE,2013-10-14,fhrs_5_en-GB,5,,FHRS,0
18233,,,,,Lisa Trett Cakes,Retailers - other,4613,5,,621902,0,,,42207,229,health@great-yarmouth.gov.uk,Great Yarmouth,http://www.great-yarmouth.gov.uk/live/index.htm,,,2013-12-12,fhrs_5_en-GB,5,,FHRS,0
18234,,53 Marine Parade,Great Yarmouth,Norfolk,Lisbon Seafood Restaurant,Restaurant/Cafe/Canteen,1,10,,621817,5,,52.60687300000000,41919,229,health@great-yarmouth.gov.uk,Great Yarmouth,http://www.great-yarmouth.gov.uk/live/index.htm,1.73621700000000,NR30 2EJ,2013-04-11,fhrs_4_en-GB,4,,FHRS,5
18235,,Castle Green,Gorleston,Great Yarmouth,Little Acorns,Hospitals/Childcare/Caring Premises,5,5,,664624,0,,52.58798400000000,42968,229,health@great-yarmouth.gov.uk,Great Yarmouth,http://www.great-yarmouth.gov.uk/live/index.htm,1.71396200000000,NR31 8TJ,2014-04-20,fhrs_5_en-GB,5,,FHRS,0
18236,,2 Nelson Road Central,Great Yarmouth,Norfolk,London Best Kebab and Pizza,Takeaway/sandwich shop,7844,10,,731244,10,,52.60732300000000,44226,229,health@great-yarmouth.gov.uk,Great Yarmouth,http://www.great-yarmouth.gov.uk/live/index.htm,1.73279800000000,NR30 2JA,2015-01-07,fhrs_3_en-GB,3,,FHRS,5
18237,,130 Ormesby Road,Caister-On-Sea,Norfolk,Lotus House,Takeaway/sandwich shop,7844,20,,711779,10,,52.66062500000000,4430,229,health@great-yarmouth.gov.uk,Great Yarmouth,http://www.great-yarmouth.gov.uk/live/index.htm,1.72055300000000,NR30 5NJ,2014-10-14,fhrs_1_en-GB,1,,FHRS,10
18238,,Market Place,Great Yarmouth,Norfolk,Lucky House,Takeaway/sandwich shop,7844,20,,621878,20,,52.60868500000000,42167,229,health@great-yarmouth.gov.uk,Great Yarmouth,http://www.great-yarmouth.gov.uk/live/index.htm,1.72727000000000,NR30 1NU,2014-07-01,fhrs_0_en-GB,0,,FHRS,20
18239,,155 King Street,Great Yarmouth,Norfolk,Lusa,Retailers - other,4613,0,,719511,0,,52.60393600000000,27387,229,health@great-yarmouth.gov.uk,Great Yarmouth,http://www.great-yarmouth.gov.uk/live/index.htm,1.72926000000000,NR30 2PQ,2014-10-23,fhrs_4_en-GB,4,,FHRS,10
18240,,94 St Peters Road,Great Yarmouth,Norfolk,Lusa Mini Market,Retailers - other,4613,5,,621795,5,,52.60284600000000,34894,229,health@great-yarmouth.gov.uk,Great Yarmouth,http://www.great-yarmouth.gov.uk/live/index.htm,1.73017100000000,NR30 3AU,2014-10-23,fhrs_4_en-GB,4,,FHRS,10
18241,,Peterhouse Avenue,Gorleston,Great Yarmouth,Lydia Eva Court Main Kitchen,Hospitals/Childcare/Caring Premises,5,5,,703655,5,,52.57202300000000,43655,229,health@great-yarmouth.gov.uk,Great Yarmouth,http://www.great-yarmouth.gov.uk/live/index.htm,1.71980100000000,NR31 7PZ,2014-09-10,fhrs_5_en-GB,5,,FHRS,0
18242,,Peterhouse Avenue,Gorleston,Great Yarmouth,Lydia Eva Court Satellite Kitchens,Hospitals/Childcare/Caring Premises,5,10,,703656,15,,52.57202300000000,43657,229,health@great-yarmouth.gov.uk,Great Yarmouth,http://www.great-yarmouth.gov.uk/live/index.htm,1.71980100000000,NR31 7PZ,2014-09-10,fhrs_2_en-GB,2,,FHRS,15
18243,,61 Middleton Road,Gorleston,Great Yarmouth,Lyndas Cakes,Retailers - other,4613,5,,621985,0,,52.57299800000000,42449,229,health@great-yarmouth.gov.uk,Great Yarmouth,http://www.great-yarmouth.gov.uk/live/index.htm,1.72170000000000,NR31 7PG,2013-11-27,fhrs_5_en-GB,5,,FHRS,0
18244,,Back Road,Winterton-On-Sea,Norfolk,Mace,Retailers - other,4613,10,,621799,5,,52.71588900000000,37307,229,health@great-yarmouth.gov.uk,Great Yarmouth,http://www.great-yarmouth.gov.uk/live/index.htm,1.69262900000000,NR29 4BE,2013-09-19,fhrs_4_en-GB,4,,FHRS,0
18245,,92-102 Regent Road,Great Yarmouth,Norfolk,Madisons Bar and Diner,Restaurant/Cafe/Canteen,1,0,,631452,0,,52.60733700000000,42648,229,health@great-yarmouth.gov.uk,Great Yarmouth,http://www.great-yarmouth.gov.uk/live/index.htm,1.73179500000000,NR30 2AH,2014-11-11,fhrs_5_en-GB,5,,FHRS,0
18246,,100 High Street,Gorleston,Great Yarmouth,Magic City,Restaurant/Cafe/Canteen,1,10,,621903,5,,52.57944800000000,42215,229,health@great-yarmouth.gov.uk,Great Yarmouth,http://www.great-yarmouth.gov.uk/live/index.htm,1.72824200000000,NR31 6RF,2015-01-14,fhrs_4_en-GB,4,,FHRS,0
18247,,,,,Maisies Snack Shack,Mobile caterer,7846,5,,621871,5,,,42155,229,health@great-yarmouth.gov.uk,Great Yarmouth,http://www.great-yarmouth.gov.uk/live/index.htm,,,2013-08-22,fhrs_4_en-GB,4,,FHRS,10
18248,,60 Bells Road,Gorleston,"Great Yarmouth, Norfolk",Mandarin,Takeaway/sandwich shop,7844,0,,622011,5,,52.57119900000000,6620,229,health@great-yarmouth.gov.uk,Great Yarmouth,http://www.great-yarmouth.gov.uk/live/index.htm,1.72796900000000,NR31 6AG,2013-02-19,fhrs_5_en-GB,5,,FHRS,5
18249,,58 Bells Road,Gorleston,,Margo's,Restaurant/Cafe/Canteen,1,0,,723593,0,,52.57119900000000,43142,229,health@great-yarmouth.gov.uk,Great Yarmouth,http://www.great-yarmouth.gov.uk/live/index.htm,1.72796900000000,NR31 6AG,2014-12-05,fhrs_5_en-GB,5,,FHRS,5
18250,,Beach Road,Hemsby,Norfolk,Marias Family Restaurant,Restaurant/Cafe/Canteen,1,10,,621956,15,,52.69576500000000,42303,229,health@great-yarmouth.gov.uk,Great Yarmouth,http://www.great-yarmouth.gov.uk/live/index.htm,1.70426800000000,NR29 4HS,2014-06-20,fhrs_2_en-GB,2,,FHRS,5
18251,,7-11 Lower Esplanade,Gorleston,Great Yarmouth,Marina Bay Cafe,Takeaway/sandwich shop,7844,10,,680766,5,,52.57002300000000,40415,229,health@great-yarmouth.gov.uk,Great Yarmouth,http://www.great-yarmouth.gov.uk/live/index.htm,1.73161900000000,NR31 6BT,2014-06-25,fhrs_4_en-GB,4,,FHRS,5
18252,,25 North Drive,Great Yarmouth,Norfolk,Marine Court Residential Home,Hospitals/Childcare/Caring Premises,5,0,,621751,0,,52.61492800000000,21990,229,health@great-yarmouth.gov.uk,Great Yarmouth,http://www.great-yarmouth.gov.uk/live/index.htm,1.73751000000000,NR30 4EW,2014-09-23,fhrs_5_en-GB,5,,FHRS,0
18253,,19-20 Euston Road,Great Yarmouth,Norfolk,Marine Lodge,Hotel/bed & breakfast/guest house,7842,5,,664611,0,,52.61015800000000,18184,229,health@great-yarmouth.gov.uk,Great Yarmouth,http://www.great-yarmouth.gov.uk/live/index.htm,1.73702900000000,NR30 1EB,2014-05-28,fhrs_5_en-GB,5,,FHRS,5
18254,,69 Howard Street South,Great Yarmouth,Norfolk,Mariners Tavern Public House,Pub/bar/nightclub,7843,,,621904,,,52.60721000000000,42216,229,health@great-yarmouth.gov.uk,Great Yarmouth,http://www.great-yarmouth.gov.uk/live/index.htm,1.72469200000000,NR30 1LN,2013-04-19,fhrs_5_en-GB,5,,FHRS,
18255,,30 Market Row,Great Yarmouth,Norfolk,Market Row Cafe,Restaurant/Cafe/Canteen,1,5,,621772,5,,52.60825300000000,28773,229,health@great-yarmouth.gov.uk,Great Yarmouth,http://www.great-yarmouth.gov.uk/live/index.htm,1.72554900000000,NR30 1PB,2013-12-16,fhrs_5_en-GB,5,,FHRS,0
18256,,34 Market Row,Great Yarmouth,Norfolk,Mark's Pantry,Restaurant/Cafe/Canteen,1,10,,621735,5,,52.60825300000000,18614,229,health@great-yarmouth.gov.uk,Great Yarmouth,http://www.great-yarmouth.gov.uk/live/index.htm,1.72554900000000,NR30 1PB,2015-01-07,fhrs_4_en-GB,4,,FHRS,5
18257,,Market Place,Great Yarmouth,,Marsdens Chip Stall,Takeaway/sandwich shop,7844,5,,691329,5,,52.60794300000000,43418,229,health@great-yarmouth.gov.uk,Great Yarmouth,http://www.great-yarmouth.gov.uk/live/index.htm,1.72626100000000,NR30 1LX,2014-07-29,fhrs_5_en-GB,5,,FHRS,0
18258,,34 The Green,Martham,Norfolk,Martham Lodge Residential Home,Hospitals/Childcare/Caring Premises,5,5,,621848,5,,52.70339200000000,42114,229,health@great-yarmouth.gov.uk,Great Yarmouth,http://www.great-yarmouth.gov.uk/live/index.htm,1.63548400000000,NR29 4PA,2013-09-20,fhrs_5_en-GB,5,,FHRS,0
18259,,Black Street,Martham,Great Yarmouth,Martham Primary and Nursery School,School/college/university,7845,5,,621960,5,,52.70739200000000,42325,229,health@great-yarmouth.gov.uk,Great Yarmouth,http://www.great-yarmouth.gov.uk/live/index.htm,1.63204000000000,NR29 4PR,2015-01-07,fhrs_5_en-GB,5,,FHRS,5
18260,,86 Salisbury Road,Great Yarmouth,Norfolk,Martin McColl,Retailers - other,4613,10,,638014,5,,52.61999000000000,33682,229,health@great-yarmouth.gov.uk,Great Yarmouth,http://www.great-yarmouth.gov.uk/live/index.htm,1.73443900000000,NR30 4AA,2014-02-21,fhrs_4_en-GB,4,,FHRS,5
18261,,37-39 The Boulevard,Market Gates Shopping Centre,Great Yarmouth,Martin McColl,Retailers - other,4613,10,,693991,10,,52.60784700000000,40811,229,health@great-yarmouth.gov.uk,Great Yarmouth,http://www.great-yarmouth.gov.uk/live/index.htm,1.72903100000000,NR30 2BG,2014-08-15,fhrs_3_en-GB,3,,FHRS,5
18262,,65-67 Lowestoft Road,Gorleston,"Great Yarmouth, Norfolk",Martin McColl,Retailers - other,4613,5,,727742,10,,52.57394000000000,34218,229,health@great-yarmouth.gov.uk,Great Yarmouth,http://www.great-yarmouth.gov.uk/live/index.htm,1.72576600000000,NR31 6SH,2014-12-03,fhrs_4_en-GB,4,,FHRS,5
18263,,39-40 Barkis Road,Great Yarmouth,Norfolk,Martin McColl,Retailers - other,4613,10,,703648,15,,,16209,229,health@great-yarmouth.gov.uk,Great Yarmouth,http://www.great-yarmouth.gov.uk/live/index.htm,,NR31 3ED,2014-09-23,fhrs_2_en-GB,2,,FHRS,15
18264,,Beach Road,Hemsby,Great Yarmouth,MB Funhouse,Pub/bar/nightclub,7843,5,,621788,0,,52.69576500000000,33926,229,health@great-yarmouth.gov.uk,Great Yarmouth,http://www.great-yarmouth.gov.uk/live/index.htm,1.70426800000000,NR29 4HS,2013-04-12,fhrs_5_en-GB,5,,FHRS,0
18265,,35 Station Road,Hopton-On-Sea,Norfolk,McColls,Retailers - other,4613,5,,708286,5,,52.53950300000000,33570,229,health@great-yarmouth.gov.uk,Great Yarmouth,http://www.great-yarmouth.gov.uk/live/index.htm,1.72792100000000,NR31 9BH,2014-10-17,fhrs_4_en-GB,4,,FHRS,10
18266,,6 St Peters Road,Great Yarmouth,Norfolk,McColls,Retailers - other,4613,10,,664620,5,,52.60276500000000,33547,229,health@great-yarmouth.gov.uk,Great Yarmouth,http://www.great-yarmouth.gov.uk/live/index.htm,1.73215900000000,NR30 3AY,2014-06-02,fhrs_4_en-GB,4,,FHRS,0
18267,,87-89 Magdalen Way,Gorleston,"Great Yarmouth, Norfolk",McColls Magdalen Way,Retailers - other,4613,10,,621797,5,,52.57371500000000,35123,229,health@great-yarmouth.gov.uk,Great Yarmouth,http://www.great-yarmouth.gov.uk/live/index.htm,1.71463000000000,NR31 7AA,2013-04-23,fhrs_4_en-GB,4,,FHRS,0
18268,,Somerton Road,Winterton-On-Sea,Norfolk,Mencap Old Rectory,Hospitals/Childcare/Caring Premises,5,5,,621912,5,,52.71451100000000,42227,229,health@great-yarmouth.gov.uk,Great Yarmouth,http://www.great-yarmouth.gov.uk/live/index.htm,1.68460400000000,NR29 4AW,2013-02-21,fhrs_5_en-GB,5,,FHRS,5
18269,,38 Apsley Road,Great Yarmouth,Norfolk,Merlin's 147 Snooker & Pool Cl,Pub/bar/nightclub,7843,5,,711771,10,,52.60696900000000,22250,229,health@great-yarmouth.gov.uk,Great Yarmouth,http://www.great-yarmouth.gov.uk/live/index.htm,1.73545700000000,NR30 2HG,2014-09-24,fhrs_4_en-GB,4,,FHRS,5
18270,,Marine Parade,Great Yarmouth,Norfolk,Merrivale Ice Cream,Takeaway/sandwich shop,7844,5,,621940,5,,52.59855400000000,42271,229,health@great-yarmouth.gov.uk,Great Yarmouth,http://www.great-yarmouth.gov.uk/live/index.htm,1.73618800000000,NR30 3JG,2013-08-05,fhrs_5_en-GB,5,,FHRS,0
18271,,Marine Parade,Great Yarmouth,Norfolk,Merrivale Tea Rooms,Restaurant/Cafe/Canteen,1,5,,621862,10,,52.59855400000000,42142,229,health@great-yarmouth.gov.uk,Great Yarmouth,http://www.great-yarmouth.gov.uk/live/index.htm,1.73618800000000,NR30 3JG,2013-09-16,fhrs_4_en-GB,4,,FHRS,5
18272,,52 Marine Parade,Great Yarmouth,Norfolk,Metropole Restaurant,Restaurant/Cafe/Canteen,1,10,,719508,15,,52.60687300000000,18497,229,health@great-yarmouth.gov.uk,Great Yarmouth,http://www.great-yarmouth.gov.uk/live/index.htm,1.73621700000000,NR30 2EJ,2014-10-29,fhrs_2_en-GB,2,,FHRS,15
18273,,1 Nelson Road North,Great Yarmouth,Norfolk,MFC Fried Chicken and Pizza,Takeaway/sandwich shop,7844,,,621913,,,52.60818200000000,42228,229,health@great-yarmouth.gov.uk,Great Yarmouth,http://www.great-yarmouth.gov.uk/live/index.htm,1.73322600000000,NR30 2AS,2014-12-18,fhrs_2_en-GB,2,,FHRS,
18274,,7-9 Wellesley Road,Great Yarmouth,Norfolk,Midland Hotel,Hotel/bed & breakfast/guest house,7842,10,,621722,10,,52.60836800000000,18188,229,health@great-yarmouth.gov.uk,Great Yarmouth,http://www.great-yarmouth.gov.uk/live/index.htm,1.73446800000000,NR30 2AP,2014-05-15,fhrs_2_en-GB,2,,FHRS,15
18275,,Lawn Avenue,Great Yarmouth,Norfolk,Mildred Stone House,Hospitals/Childcare/Caring Premises,5,5,,621870,5,,52.61674700000000,42154,229,health@great-yarmouth.gov.uk,Great Yarmouth,http://www.great-yarmouth.gov.uk/live/index.htm,1.72402400000000,NR30 1QS,2013-01-29,fhrs_5_en-GB,5,,FHRS,5
18276,,Beach Road,Hemsby,,Milk & Cookies Sandwich Bar & Bakery,Retailers - other,4613,0,,688985,0,,52.69576500000000,40125,229,health@great-yarmouth.gov.uk,Great Yarmouth,http://www.great-yarmouth.gov.uk/live/index.htm,1.70426800000000,NR29 4HS,2014-07-23,fhrs_5_en-GB,5,,FHRS,5
18277,,,,,Mill Barn Foods/Allergy Free Cottage Baking,Other catering premises,7841,10,,647468,5,,,38788,229,health@great-yarmouth.gov.uk,Great Yarmouth,http://www.great-yarmouth.gov.uk/live/index.htm,,,2014-03-12,fhrs_4_en-GB,4,,FHRS,5
18278,,4 West Road,Ormesby St Margaret W Scratby,Norfolk,Mini Mart - Fletchers Grocery,Retailers - other,4613,5,,621982,0,,52.67402800000000,42446,229,health@great-yarmouth.gov.uk,Great Yarmouth,http://www.great-yarmouth.gov.uk/live/index.htm,1.68659400000000,NR29 3RJ,2013-11-06,fhrs_5_en-GB,5,,FHRS,0
18279,,Brandford Road,Caister-on-Sea,,Minimart,Retailers - other,4613,5,,691334,0,,52.65782300000000,43425,229,health@great-yarmouth.gov.uk,Great Yarmouth,http://www.great-yarmouth.gov.uk/live/index.htm,1.72669000000000,NR30 5NG,2014-06-30,fhrs_5_en-GB,5,,FHRS,0
18280,,34 Regent Street,Great Yarmouth,Norfolk,Mocha,Restaurant/Cafe/Canteen,1,5,,621761,0,,52.60667100000000,23957,229,health@great-yarmouth.gov.uk,Great Yarmouth,http://www.great-yarmouth.gov.uk/live/index.htm,1.72637500000000,NR30 1RR,2014-11-25,fhrs_5_en-GB,5,,FHRS,5
18281,,Beach Road,Scratby,Great Yarmouth,Moments Restaurant,Restaurant/Cafe/Canteen,1,10,,671759,10,,52.67807100000000,30930,229,health@great-yarmouth.gov.uk,Great Yarmouth,http://www.great-yarmouth.gov.uk/live/index.htm,1.71178200000000,NR29 3NW,2014-06-05,fhrs_3_en-GB,3,,FHRS,5
18282,,Moorland Way,Belton,Belton With Browston,Moorlands CE Primary School,School/college/university,7845,0,,621847,0,,52.56680900000000,42108,229,health@great-yarmouth.gov.uk,Great Yarmouth,http://www.great-yarmouth.gov.uk/live/index.htm,1.66381300000000,NR31 9PA,2013-02-06,fhrs_5_en-GB,5,,FHRS,0
18283,,65 High Street,Gorleston,Great Yarmouth,Mr Chips,Takeaway/sandwich shop,7844,5,,731241,5,,52.58115000000000,42230,229,health@great-yarmouth.gov.uk,Great Yarmouth,http://www.great-yarmouth.gov.uk/live/index.htm,1.72902100000000,NR31 6RQ,2015-01-22,fhrs_5_en-GB,5,,FHRS,5
18284,,94 Blackfriars Road,Great Yarmouth,Norfolk,Mr D Reece,Pub/bar/nightclub,7843,,,621741,,,52.59919400000000,18924,229,health@great-yarmouth.gov.uk,Great Yarmouth,http://www.great-yarmouth.gov.uk/live/index.htm,1.72986100000000,NR30 3BZ,2013-06-04,fhrs_4_en-GB,4,,FHRS,
18285,,Homefield Avenue,Bradwell,Great Yarmouth,Mr Freeman,School/college/university,7845,5,,731239,5,,52.57674500000000,3844,229,health@great-yarmouth.gov.uk,Great Yarmouth,http://www.great-yarmouth.gov.uk/live/index.htm,1.69770000000000,NR31 8NS,2015-01-14,fhrs_5_en-GB,5,,FHRS,5
18286,,163 Admiralty Rd,Great Yarmouth,,Mr J Strachan,Distributors/Transporters,7,0,,727737,0,,52.58890500000000,15821,229,health@great-yarmouth.gov.uk,Great Yarmouth,http://www.great-yarmouth.gov.uk/live/index.htm,1.73267800000000,NR30 3PU,2014-12-18,fhrs_5_en-GB,5,,FHRS,0
18287,,Site 19 Market Place,Great Yarmouth,Norfolk,Mr S Chips,Takeaway/sandwich shop,7844,10,,621849,10,,52.60825300000000,42115,229,health@great-yarmouth.gov.uk,Great Yarmouth,http://www.great-yarmouth.gov.uk/live/index.htm,1.72554900000000,NR30 1PB,2013-01-25,fhrs_4_en-GB,4,,FHRS,0
18288,,,,,Mrs Jayne Larman,Retailers - other,4613,5,,621899,5,,,42198,229,health@great-yarmouth.gov.uk,Great Yarmouth,http://www.great-yarmouth.gov.uk/live/index.htm,,,2013-06-10,fhrs_5_en-GB,5,,FHRS,0
18289,,23 Euston Road,Great Yarmouth,Norfolk,Mrs P Garvan,Hospitals/Childcare/Caring Premises,5,10,,708283,10,,52.61016100000000,21913,229,health@great-yarmouth.gov.uk,Great Yarmouth,http://www.great-yarmouth.gov.uk/live/index.htm,1.73664500000000,NR30 1DZ,2014-09-25,fhrs_3_en-GB,3,,FHRS,5
18290,,North Drive,Great Yarmouth,Norfolk,Munchies,Restaurant/Cafe/Canteen,1,5,,671764,5,,52.62094700000000,43129,229,health@great-yarmouth.gov.uk,Great Yarmouth,http://www.great-yarmouth.gov.uk/live/index.htm,1.73746100000000,NR30 4EU,2014-06-09,fhrs_5_en-GB,5,,FHRS,5
18291,,45 Baker Street,Gorleston,Great Yarmouth,My Plaice Fish and Chips,Takeaway/sandwich shop,7844,5,,719523,0,,52.57752200000000,43926,229,health@great-yarmouth.gov.uk,Great Yarmouth,http://www.great-yarmouth.gov.uk/live/index.htm,1.72828500000000,NR31 6QT,2014-11-07,fhrs_5_en-GB,5,,FHRS,5
18292,,,,,Nettys Sweet Treats,Retailers - other,4613,5,,638018,5,,,42793,229,health@great-yarmouth.gov.uk,Great Yarmouth,http://www.great-yarmouth.gov.uk/live/index.htm,,,2014-03-06,fhrs_5_en-GB,5,,FHRS,5
18293,,67 Marine Parade,Great Yarmouth,Norfolk,New Beach Hotel,Hotel/bed & breakfast/guest house,7842,5,,621944,5,,52.60687300000000,42282,229,health@great-yarmouth.gov.uk,Great Yarmouth,http://www.great-yarmouth.gov.uk/live/index.htm,1.73621700000000,NR30 2EJ,2013-06-18,fhrs_5_en-GB,5,,FHRS,5
18294,,22-23 Northgate Street,Great Yarmouth,Norfolk,New Norfolk Kitchen,Restaurant/Cafe/Canteen,1,,,647465,,,52.61226100000000,30618,229,health@great-yarmouth.gov.uk,Great Yarmouth,http://www.great-yarmouth.gov.uk/live/index.htm,1.72594900000000,NR30 1BA,2014-10-08,fhrs_3_en-GB,3,,FHRS,
18295,,44 Hamilton Road,Great Yarmouth,Norfolk,New Norfolk Oven,Retailers - other,4613,5,,727744,10,,52.62137700000000,44090,229,health@great-yarmouth.gov.uk,Great Yarmouth,http://www.great-yarmouth.gov.uk/live/index.htm,1.73095100000000,NR30 4NA,2014-12-03,fhrs_3_en-GB,3,,FHRS,10
18296,,2 Wapping,Ormesby St Margaret W Scratby,Norfolk,New Sage,Takeaway/sandwich shop,7844,,,621708,,,52.67391500000000,10695,229,health@great-yarmouth.gov.uk,Great Yarmouth,http://www.great-yarmouth.gov.uk/live/index.htm,1.68847800000000,NR29 3JY,2015-01-14,fhrs_3_en-GB,3,,FHRS,
18297,,9-11 Yarmouth Road,Caister-On-Sea,Norfolk,Nisa,Retailers - other,4613,5,,703658,0,,52.64469100000000,43670,229,health@great-yarmouth.gov.uk,Great Yarmouth,http://www.great-yarmouth.gov.uk/live/index.htm,1.72981700000000,NR30 5DL,2014-08-28,fhrs_5_en-GB,5,,FHRS,0
18298,,1 Pier Walk,Gorleston,Great Yarmouth,No. 1 Bar & Kitchen,Pub/bar/nightclub,7843,5,,621914,5,,52.57414000000000,42231,229,health@great-yarmouth.gov.uk,Great Yarmouth,http://www.great-yarmouth.gov.uk/live/index.htm,1.73055200000000,NR31 6DA,2013-08-01,fhrs_5_en-GB,5,,FHRS,0
18299,,24-25 Northgate Street,Great Yarmouth,Norfolk,Noble House,Restaurant/Cafe/Canteen,1,10,,671757,5,,52.61226100000000,29930,229,health@great-yarmouth.gov.uk,Great Yarmouth,http://www.great-yarmouth.gov.uk/live/index.htm,1.72594900000000,NR30 1BA,2014-06-16,fhrs_2_en-GB,2,,FHRS,15
18300,,,,,Norfolk Sausage Company,Mobile caterer,7846,5,,699982,0,,,35242,229,health@great-yarmouth.gov.uk,Great Yarmouth,http://www.great-yarmouth.gov.uk/live/index.htm,,,2014-09-06,fhrs_5_en-GB,5,,FHRS,0
18301,,Thrigby Rd,Great Yarmouth,,Norse,School/college/university,7845,0,,680761,5,,52.66004100000000,21620,229,health@great-yarmouth.gov.uk,Great Yarmouth,http://www.great-yarmouth.gov.uk/live/index.htm,1.64302000000000,NR29 3HJ,2014-06-20,fhrs_5_en-GB,5,,FHRS,5
18302,,Tamworth Lane,Great Yarmouth,,Norse,School/college/university,7845,10,,680763,5,,52.60213900000000,21680,229,health@great-yarmouth.gov.uk,Great Yarmouth,http://www.great-yarmouth.gov.uk/live/index.htm,1.71833700000000,NR31 0HJ,2014-06-23,fhrs_4_en-GB,4,,FHRS,5
18303,,Jellicoe Road,Great Yarmouth,Norfolk,Norse,School/college/university,7845,0,,680762,0,,52.62823900000000,21653,229,health@great-yarmouth.gov.uk,Great Yarmouth,http://www.great-yarmouth.gov.uk/live/index.htm,1.73725600000000,NR30 4HF,2014-06-25,fhrs_5_en-GB,5,,FHRS,0
18304,,Northgate Street,Great Yarmouth,,Norse,School/college/university,7845,5,,735008,10,,52.61714700000000,21659,229,health@great-yarmouth.gov.uk,Great Yarmouth,http://www.great-yarmouth.gov.uk/live/index.htm,1.72788600000000,NR30 1BP,2015-01-02,fhrs_4_en-GB,4,,FHRS,5
18305,,186 Northgate Street,Great Yarmouth,Norfolk,Northgate Filling Station,Retailers - other,4613,10,,621780,10,,52.61477000000000,31204,229,health@great-yarmouth.gov.uk,Great Yarmouth,http://www.great-yarmouth.gov.uk/live/index.htm,1.72768400000000,NR30 1DA,2013-05-29,fhrs_4_en-GB,4,,FHRS,0
18306,,17 Northgate Street,Great Yarmouth,Norfolk,Northgate Fish,Retailers - other,4613,20,,638015,15,,52.61226100000000,37518,229,health@great-yarmouth.gov.uk,Great Yarmouth,http://www.great-yarmouth.gov.uk/live/index.htm,1.72594900000000,NR30 1BA,2014-03-07,fhrs_1_en-GB,1,,FHRS,15
18307,,226 Northgate Street,Great Yarmouth,Norfolk,Northgate Food and Wine,Retailers - other,4613,20,,624712,0,,52.61247400000000,42519,229,health@great-yarmouth.gov.uk,Great Yarmouth,http://www.great-yarmouth.gov.uk/live/index.htm,1.72661700000000,NR30 1BG,2014-01-08,fhrs_1_en-GB,1,,FHRS,20
18308,,20-21 Nelson Road North,Great Yarmouth,Norfolk,Norwood House,Hotel/bed & breakfast/guest house,7842,10,,693994,10,,52.60928500000000,43505,229,health@great-yarmouth.gov.uk,Great Yarmouth,http://www.great-yarmouth.gov.uk/live/index.htm,1.73333500000000,NR30 2AT,2014-08-11,fhrs_4_en-GB,4,,FHRS,0
18309,,Beach Road,Hemsby,Norfolk,Oasis Cafe,Restaurant/Cafe/Canteen,1,5,,621915,5,,52.69576500000000,42232,229,health@great-yarmouth.gov.uk,Great Yarmouth,http://www.great-yarmouth.gov.uk/live/index.htm,1.70426800000000,NR29 4HS,2013-04-29,fhrs_5_en-GB,5,,FHRS,0
18310,,64 Cliff Hill,Gorleston,Great Yarmouth,Ocean Express Kebabs,Takeaway/sandwich shop,7844,5,,621853,10,,52.57369400000000,42127,229,health@great-yarmouth.gov.uk,Great Yarmouth,http://www.great-yarmouth.gov.uk/live/index.htm,1.72986400000000,NR31 6DG,2014-07-30,fhrs_4_en-GB,4,,FHRS,0
18311,,5 Thurne Way,Ormesby St Margaret W Scratby,Norfolk,Ocean Fresh,Mobile caterer,7846,5,,708288,0,,52.67572500000000,39697,229,health@great-yarmouth.gov.uk,Great Yarmouth,http://www.great-yarmouth.gov.uk/live/index.htm,1.69330700000000,NR29 3SQ,2014-09-16,fhrs_5_en-GB,5,,FHRS,5
18312,,Warren Rd,Hopton On Sea,Great Yarmouth,Old Vicarage Nursing & Residential Home,Hospitals/Childcare/Caring Premises,5,5,,622031,10,,52.54216400000000,8297,229,health@great-yarmouth.gov.uk,Great Yarmouth,http://www.great-yarmouth.gov.uk/live/index.htm,1.73167300000000,NR31 9BN,2014-08-22,fhrs_4_en-GB,4,,FHRS,5
18313,,42 Regent Road,Great Yarmouth,Norfolk,Olive Garden Restaurant,Restaurant/Cafe/Canteen,1,,,671758,,,52.60765600000000,30187,229,health@great-yarmouth.gov.uk,Great Yarmouth,http://www.great-yarmouth.gov.uk/live/index.htm,1.73423000000000,NR30 2AJ,2014-11-19,fhrs_4_en-GB,4,,FHRS,
18314,,49 Marine Parade,Great Yarmouth,Norfolk,Olive Tree Restaurant,Restaurant/Cafe/Canteen,1,10,,631447,5,,52.60687300000000,42414,229,health@great-yarmouth.gov.uk,Great Yarmouth,http://www.great-yarmouth.gov.uk/live/index.htm,1.73621700000000,NR30 2EJ,2014-01-23,fhrs_4_en-GB,4,,FHRS,5
18315,,31 King Street,Great Yarmouth,Norfolk,Oporto Cafe,Restaurant/Cafe/Canteen,1,10,,631435,5,,52.60628100000000,29412,229,health@great-yarmouth.gov.uk,Great Yarmouth,http://www.great-yarmouth.gov.uk/live/index.htm,1.72820300000000,NR30 2NZ,2013-01-07,fhrs_4_en-GB,4,,FHRS,0
18316,,2 Rottenstone Lane,Scratby,Great Yarmouth,Orchid House,Takeaway/sandwich shop,7844,5,,671766,5,,52.67629900000000,43143,229,health@great-yarmouth.gov.uk,Great Yarmouth,http://www.great-yarmouth.gov.uk/live/index.htm,1.71950400000000,NR29 3QT,2014-05-28,fhrs_5_en-GB,5,,FHRS,5
18317,,74 St Nicholas Road,Great Yarmouth,Norfolk,Oriental Chef,Restaurant/Cafe/Canteen,1,10,,635360,15,,52.60984300000000,42675,229,health@great-yarmouth.gov.uk,Great Yarmouth,http://www.great-yarmouth.gov.uk/live/index.htm,1.73019100000000,NR30 1NN,2014-01-30,fhrs_2_en-GB,2,,FHRS,10
18318,,Main Road,Ormesby St Michael,,Ormesby St Michael Village Hall,Other catering premises,7841,5,,683100,0,,52.67662800000000,43225,229,health@great-yarmouth.gov.uk,Great Yarmouth,http://www.great-yarmouth.gov.uk/live/index.htm,1.65467100000000,NR29 3LW,2014-06-10,fhrs_5_en-GB,5,,FHRS,0
18319,,Spruce Avenue,Ormesby St. Marg,Great Yarmouth,Ormesby Village Infant School,School/college/university,7845,5,,621710,5,,52.67690400000000,10715,229,health@great-yarmouth.gov.uk,Great Yarmouth,http://www.great-yarmouth.gov.uk/live/index.htm,1.68347700000000,NR29 3RY,2015-02-04,fhrs_5_en-GB,5,,FHRS,5
18320,,North Rd,Ormesby,Great Yarmouth,Ormesby Village Junior School,School/college/university,7845,0,,621709,0,,52.67683500000000,10703,229,health@great-yarmouth.gov.uk,Great Yarmouth,http://www.great-yarmouth.gov.uk/live/index.htm,1.68801400000000,NR29 3LA,2013-02-05,fhrs_5_en-GB,5,,FHRS,5
18321,,Oriel Avenue,Gorleston,Great Yarmouth,Ormiston Herman Academy,School/college/university,7845,5,,635369,0,,52.56877700000000,6772,229,health@great-yarmouth.gov.uk,Great Yarmouth,http://www.great-yarmouth.gov.uk/live/index.htm,1.70830700000000,NR31 7JL,2014-02-05,fhrs_5_en-GB,5,,FHRS,5
18322,,Ormiston Venture Academy,Gorleston,Great Yarmouth,Ormiston Venture Academy,School/college/university,7845,5,,708299,0,,52.57084000000000,6775,229,health@great-yarmouth.gov.uk,Great Yarmouth,http://www.great-yarmouth.gov.uk/live/index.htm,1.70792100000000,NR31 7JJ,2014-10-14,fhrs_5_en-GB,5,,FHRS,0
18323,,,,,P & N Catering,Mobile caterer,7846,10,,647469,5,,,42856,229,health@great-yarmouth.gov.uk,Great Yarmouth,http://www.great-yarmouth.gov.uk/live/index.htm,,,2014-03-24,fhrs_4_en-GB,4,,FHRS,5
18324,,Church Plain,Great Yarmouth,Norfolk,Palace Bingo and Casino Club,Restaurant/Cafe/Canteen,1,5,,631449,5,,,42506,229,health@great-yarmouth.gov.uk,Great Yarmouth,http://www.great-yarmouth.gov.uk/live/index.htm,,NR31 1PL,2014-01-23,fhrs_5_en-GB,5,,FHRS,0
18325,,6 Alexandra Road,Great Yarmouth,Norfolk,Park House,Hospitals/Childcare/Caring Premises,5,0,,621916,0,,52.60627800000000,42233,229,health@great-yarmouth.gov.uk,Great Yarmouth,http://www.great-yarmouth.gov.uk/live/index.htm,1.72914800000000,NR30 2HW,2014-04-11,fhrs_5_en-GB,5,,FHRS,5
18326,,14a Crown Road,Great Yarmouth,Norfolk,Park Play group,School/college/university,7845,0,,708290,0,,52.60656100000000,42308,229,health@great-yarmouth.gov.uk,Great Yarmouth,http://www.great-yarmouth.gov.uk/live/index.htm,1.73130000000000,NR30 2JN,2014-09-25,fhrs_5_en-GB,5,,FHRS,5
18327,,Stepshort,Belton,Belton With Browston,Peaches Cafe,Restaurant/Cafe/Canteen,1,5,,621917,5,,52.57141600000000,42234,229,health@great-yarmouth.gov.uk,Great Yarmouth,http://www.great-yarmouth.gov.uk/live/index.htm,1.66868600000000,NR31 9JS,2013-05-23,fhrs_5_en-GB,5,,FHRS,0
18328,,Peggotty Road,Great Yarmouth,Norfolk,Peggotty Nursery,Hospitals/Childcare/Caring Premises,5,5,,621918,5,,52.59262800000000,42235,229,health@great-yarmouth.gov.uk,Great Yarmouth,http://www.great-yarmouth.gov.uk/live/index.htm,1.73271400000000,NR30 3EF,2013-05-14,fhrs_5_en-GB,5,,FHRS,0
18329,,162 King Street,Great Yarmouth,Norfolk,Peggottys,Pub/bar/nightclub,7843,,,621743,,,,18994,229,health@great-yarmouth.gov.uk,Great Yarmouth,http://www.great-yarmouth.gov.uk/live/index.htm,,NR31 2PA,2013-03-28,fhrs_5_en-GB,5,,FHRS,
18330,,Caister Road,Great Yarmouth,Norfolk,Penguin Playgroup,Hospitals/Childcare/Caring Premises,5,0,,621850,0,,52.61933400000000,42117,229,health@great-yarmouth.gov.uk,Great Yarmouth,http://www.great-yarmouth.gov.uk/live/index.htm,1.72870800000000,NR30 4DB,2013-01-31,fhrs_5_en-GB,5,,FHRS,0
18331,,,,,Perfect Snacks,Retailers - other,4613,20,,621919,20,,,42236,229,health@great-yarmouth.gov.uk,Great Yarmouth,http://www.great-yarmouth.gov.uk/live/index.htm,,,2013-07-16,fhrs_1_en-GB,1,,FHRS,0
18332,,32 Elsie Road,Great Yarmouth,Norfolk,Perrys Butcher,Retailers - other,4613,0,,723582,0,,52.60536100000000,16015,229,health@great-yarmouth.gov.uk,Great Yarmouth,http://www.great-yarmouth.gov.uk/live/index.htm,1.71711800000000,NR31 0BN,2014-12-04,fhrs_5_en-GB,5,,FHRS,5
18333,,Marina Centre,Marine Parade,,Perry's Ice Cream Kiosk,Takeaway/sandwich shop,7844,0,,719519,0,,52.60431600000000,43915,229,health@great-yarmouth.gov.uk,Great Yarmouth,http://www.great-yarmouth.gov.uk/live/index.htm,1.73716600000000,NR30 2ER,2014-09-16,fhrs_5_en-GB,5,,FHRS,5
18334,,Magdalen Square,Gorleston,Great Yarmouth,Peterhouse Primary School,School/college/university,7845,5,,622018,10,,52.57292600000000,6776,229,health@great-yarmouth.gov.uk,Great Yarmouth,http://www.great-yarmouth.gov.uk/live/index.htm,1.71539000000000,NR31 7BY,2014-12-09,fhrs_4_en-GB,4,,FHRS,5
18335,,30 Almond Road,Gorleston,Great Yarmouth,Pete's Plaice,Takeaway/sandwich shop,7844,0,,731246,0,,52.58049400000000,44272,229,health@great-yarmouth.gov.uk,Great Yarmouth,http://www.great-yarmouth.gov.uk/live/index.htm,1.71183700000000,NR31 8AA,2015-01-09,fhrs_5_en-GB,5,,FHRS,0
18336,,175 High Street,Gorleston,Great Yarmouth,Picassos,Restaurant/Cafe/Canteen,1,10,,621854,5,,52.58007500000000,42129,229,health@great-yarmouth.gov.uk,Great Yarmouth,http://www.great-yarmouth.gov.uk/live/index.htm,1.72802900000000,NR31 6RG,2014-12-10,fhrs_4_en-GB,4,,FHRS,5
18337,,Market Place,Great Yarmouth,,Pie and Pea Stall,Takeaway/sandwich shop,7844,20,,691327,15,,52.60794300000000,43416,229,health@great-yarmouth.gov.uk,Great Yarmouth,http://www.great-yarmouth.gov.uk/live/index.htm,1.72626100000000,NR30 1LX,2014-07-25,fhrs_1_en-GB,1,,FHRS,0
18338,,6-7 Pier Gardens,Gorleston,"Great Yarmouth, Norfolk",Pier Garden Restaurant,Restaurant/Cafe/Canteen,1,10,,664636,10,,52.57089400000000,6599,229,health@great-yarmouth.gov.uk,Great Yarmouth,http://www.great-yarmouth.gov.uk/live/index.htm,1.73195900000000,NR31 6BU,2014-05-15,fhrs_3_en-GB,3,,FHRS,5
18339,,Gapton Hall Road,Great Yarmouth,Norfolk,Pizza Hut,Restaurant/Cafe/Canteen,1,0,,731237,0,,52.59295800000000,34090,229,health@great-yarmouth.gov.uk,Great Yarmouth,http://www.great-yarmouth.gov.uk/live/index.htm,1.70707200000000,NR31 0NL,2015-01-08,fhrs_5_en-GB,5,,FHRS,0
18340,,14b Southtown Road,Great Yarmouth,Norfolk,Pizza Hut Delivery,Takeaway/sandwich shop,7844,5,,621778,0,,52.60624200000000,30921,229,health@great-yarmouth.gov.uk,Great Yarmouth,http://www.great-yarmouth.gov.uk/live/index.htm,1.72115200000000,NR31 0HU,2013-01-18,fhrs_5_en-GB,5,,FHRS,0
18341,,34 Bells Road,Gorleston,Great Yarmouth,Pizza Plus,Takeaway/sandwich shop,7844,5,,735016,5,,52.57217000000000,44316,229,health@great-yarmouth.gov.uk,Great Yarmouth,http://www.great-yarmouth.gov.uk/live/index.htm,1.72855300000000,NR31 6AN,2015-01-22,fhrs_5_en-GB,5,,FHRS,5
18342,,Main Cross Road,Great Yarmouth,Norfolk,PJs,Restaurant/Cafe/Canteen,1,10,,621989,5,,52.59099100000000,42460,229,health@great-yarmouth.gov.uk,Great Yarmouth,http://www.great-yarmouth.gov.uk/live/index.htm,1.73301800000000,NR30 3NZ,2013-12-09,fhrs_3_en-GB,3,,FHRS,10
18343,,202 Northgate Street,Great Yarmouth,Norfolk,PJ's,Takeaway/sandwich shop,7844,10,,727741,0,,52.61390900000000,29924,229,health@great-yarmouth.gov.uk,Great Yarmouth,http://www.great-yarmouth.gov.uk/live/index.htm,1.72731500000000,NR30 1DB,2014-12-09,fhrs_4_en-GB,4,,FHRS,5
18344,,5 Marine Parade,Great Yarmouth,Norfolk,Planet Papadum Indian Restaurant,Restaurant/Cafe/Canteen,1,10,,671762,5,,52.60143100000000,32500,229,health@great-yarmouth.gov.uk,Great Yarmouth,http://www.great-yarmouth.gov.uk/live/index.htm,1.73566500000000,NR30 3AH,2014-06-12,fhrs_4_en-GB,4,,FHRS,0
18345,,2 Filby Lane,Ormesby St Margaret,Great Yarmouth,Planet Spice,Restaurant/Cafe/Canteen,1,20,,693993,20,,52.67279800000000,42747,229,health@great-yarmouth.gov.uk,Great Yarmouth,http://www.great-yarmouth.gov.uk/live/index.htm,1.68564700000000,NR29 3JR,2014-08-21,fhrs_0_en-GB,0,,FHRS,20
18346,,Beccles Road,Belton,Belton With Browston,Plantation,Restaurant/Cafe/Canteen,1,5,,664623,0,,52.55255600000000,42862,229,health@great-yarmouth.gov.uk,Great Yarmouth,http://www.great-yarmouth.gov.uk/live/index.htm,1.66284600000000,NR31 9EU,2014-05-23,fhrs_5_en-GB,5,,FHRS,0
18347,,Englands Lane,Gorleston,Great Yarmouth,Playstax,Restaurant/Cafe/Canteen,1,0,,683103,0,,52.57447300000000,43285,229,health@great-yarmouth.gov.uk,Great Yarmouth,http://www.great-yarmouth.gov.uk/live/index.htm,1.72826200000000,NR31 6BE,2014-07-08,fhrs_5_en-GB,5,,FHRS,5
18348,,South Beach Parade,Great Yarmouth,Norfolk,Pleasure Beach Gardens Golf Kiosk,Restaurant/Cafe/Canteen,1,5,,621967,10,,52.59450700000000,42365,229,health@great-yarmouth.gov.uk,Great Yarmouth,http://www.great-yarmouth.gov.uk/live/index.htm,1.73615300000000,NR30 3EH,2013-09-18,fhrs_4_en-GB,4,,FHRS,5
18349,,South Beach Parade,Great Yarmouth,Norfolk,Pleasure Beach Inn,Restaurant/Cafe/Canteen,1,5,,621962,10,,52.59450700000000,42332,229,health@great-yarmouth.gov.uk,Great Yarmouth,http://www.great-yarmouth.gov.uk/live/index.htm,1.73615300000000,NR30 3EH,2013-09-18,fhrs_4_en-GB,4,,FHRS,5
18350,,7-8 Victoria Arcade,Great Yarmouth,Norfolk,Pop-In Cafe,Restaurant/Cafe/Canteen,1,0,,631446,5,,52.60653000000000,42284,229,health@great-yarmouth.gov.uk,Great Yarmouth,http://www.great-yarmouth.gov.uk/live/index.htm,1.72658400000000,NR30 2NU,2013-04-09,fhrs_5_en-GB,5,,FHRS,5
18351,,Pavilion Road,Gorleston,Great Yarmouth,Pops Meadow Cafe,Restaurant/Cafe/Canteen,1,5,,621931,0,,,42255,229,health@great-yarmouth.gov.uk,Great Yarmouth,http://www.great-yarmouth.gov.uk/live/index.htm,,NR31 4BY,2013-08-22,fhrs_5_en-GB,5,,FHRS,5
18352,,23-24 Market Place,Great Yarmouth,Norfolk,Poundland,Retailers - other,4613,10,,719517,5,,52.60888000000000,43840,229,health@great-yarmouth.gov.uk,Great Yarmouth,http://www.great-yarmouth.gov.uk/live/index.htm,1.72592700000000,NR30 1LY,2014-10-23,fhrs_4_en-GB,4,,FHRS,0
18353,,Purley Court,Gapton Hall Road,Great Yarmouth,Poundland,Retailers - other,4613,5,,723592,0,,52.59781600000000,43109,229,health@great-yarmouth.gov.uk,Great Yarmouth,http://www.great-yarmouth.gov.uk/live/index.htm,1.71107200000000,NR31 0LZ,2014-12-02,fhrs_5_en-GB,5,,FHRS,5
18354,,Regent St,Great Yarmouth,Norfolk,Poundstretcher,Retailers - other,4613,0,,621712,0,,52.60687200000000,11345,229,health@great-yarmouth.gov.uk,Great Yarmouth,http://www.great-yarmouth.gov.uk/live/index.htm,1.72597800000000,NR30 1RN,2013-01-18,fhrs_5_en-GB,5,,FHRS,0
18355,,43 Church Lane,Bradwell,Norfolk,Prajco Convenience / Premier Stores,Retailers - other,4613,10,,723586,10,,52.57534500000000,23664,229,health@great-yarmouth.gov.uk,Great Yarmouth,http://www.great-yarmouth.gov.uk/live/index.htm,1.69647500000000,NR31 8QN,2014-12-02,fhrs_4_en-GB,4,,FHRS,0
18356,,84 St Nicholas Road,Great Yarmouth,Norfolk,Prax Petroleum Ltd Forecourt Shop,Retailers - other,4613,10,,699978,0,,52.60984300000000,12668,229,health@great-yarmouth.gov.uk,Great Yarmouth,http://www.great-yarmouth.gov.uk/live/index.htm,1.73019100000000,NR30 1NN,2014-08-27,fhrs_4_en-GB,4,,FHRS,0
18357,,28 Salisbury Road,Great Yarmouth,Norfolk,Premier Evan Food Stores,Retailers - other,4613,,,621718,,,52.61977300000000,16188,229,health@great-yarmouth.gov.uk,Great Yarmouth,http://www.great-yarmouth.gov.uk/live/index.htm,1.73077000000000,NR30 4LE,2013-09-24,fhrs_1_en-GB,1,,FHRS,
18358,,33-34 Regent Road,Great Yarmouth,Norfolk,Prince Regent Public House,Farmers/growers,7838,0,,621920,0,,52.60765600000000,42237,229,health@great-yarmouth.gov.uk,Great Yarmouth,http://www.great-yarmouth.gov.uk/live/index.htm,1.73423000000000,NR30 2AJ,2014-12-16,fhrs_5_en-GB,5,,FHRS,0
18359,,Priory Centre,Priory Plain,Great Yarmouth,Priory Cafe Restaurant,Restaurant/Cafe/Canteen,1,5,,661372,0,,52.62065500000000,30966,229,health@great-yarmouth.gov.uk,Great Yarmouth,http://www.great-yarmouth.gov.uk/live/index.htm,1.68045700000000,NR30,2014-04-30,fhrs_5_en-GB,5,,FHRS,5
18360,,South Pier,Gorleston,Great Yarmouth,Pub on the Pier,Hotel/bed & breakfast/guest house,7842,,,621979,,,52.57106200000000,42432,229,health@great-yarmouth.gov.uk,Great Yarmouth,http://www.great-yarmouth.gov.uk/live/index.htm,1.73374500000000,NR31 6PL,2013-12-02,fhrs_4_en-GB,4,,FHRS,
18361,,Hawthorn Road,Gorleston,Great Yarmouth,Pub on the Shrubs,Pub/bar/nightclub,7843,10,,621886,10,,52.57974700000000,42177,229,health@great-yarmouth.gov.uk,Great Yarmouth,http://www.great-yarmouth.gov.uk/live/index.htm,1.71158200000000,NR31 8ET,2013-04-25,fhrs_4_en-GB,4,,FHRS,0
18362,,143-146 High Street,Gorleston,Great Yarmouth,QD,Retailers - supermarkets/hypermarkets,7840,0,,621760,0,,52.57909800000000,23746,229,health@great-yarmouth.gov.uk,Great Yarmouth,http://www.great-yarmouth.gov.uk/live/index.htm,1.72763600000000,NR31 6RB,2013-02-07,fhrs_5_en-GB,5,,FHRS,0
18363,,45-46 Camden Road,Great Yarmouth,Norfolk,Queen News,Retailers - other,4613,10,,621720,5,,52.59866400000000,17664,229,health@great-yarmouth.gov.uk,Great Yarmouth,http://www.great-yarmouth.gov.uk/live/index.htm,1.73043600000000,NR30 3AB,2013-12-17,fhrs_4_en-GB,4,,FHRS,0
18364,,9/10 Morton Peto Estate,Morton Peto Road,Great Yarmouth,Raw Creation,Importers/Exporters,14,0,,621784,0,,52.59139600000000,32155,229,health@great-yarmouth.gov.uk,Great Yarmouth,http://www.great-yarmouth.gov.uk/live/index.htm,1.71098700000000,NR31 0LT,2015-01-21,fhrs_5_en-GB,5,,FHRS,0
18365,,50-51 Marine Parade,Great Yarmouth,Norfolk,Red Mossala,Restaurant/Cafe/Canteen,1,,,621881,,,52.60687300000000,42170,229,health@great-yarmouth.gov.uk,Great Yarmouth,http://www.great-yarmouth.gov.uk/live/index.htm,1.73621700000000,NR30 2EJ,2013-07-22,fhrs_3_en-GB,3,,FHRS,
18366,,71 Regent Road,Great Yarmouth,Norfolk,Regent Restaurant,Restaurant/Cafe/Canteen,1,,,719514,,,52.60765600000000,42541,229,health@great-yarmouth.gov.uk,Great Yarmouth,http://www.great-yarmouth.gov.uk/live/index.htm,1.73423000000000,NR30 2AJ,,fhrs_awaitinginspection_en-GB,AwaitingInspection,,FHRS,
18367,,High Road,Bastwick,Repps With Bastwick,Repps Service Station,Retailers - other,4613,5,,621937,5,,52.70239400000000,42266,229,health@great-yarmouth.gov.uk,Great Yarmouth,http://www.great-yarmouth.gov.uk/live/index.htm,1.58711600000000,NR29 5JH,2013-07-31,fhrs_5_en-GB,5,,FHRS,0
18368,,Marine Parade,Great Yarmouth,Norfolk,Retroskate,Restaurant/Cafe/Canteen,1,0,,621885,0,,52.60431600000000,42176,229,health@great-yarmouth.gov.uk,Great Yarmouth,http://www.great-yarmouth.gov.uk/live/index.htm,1.73716600000000,NR30 2ER,2013-04-02,fhrs_5_en-GB,5,,FHRS,5
18369,,49-52 Victoria Arcade,Great Yarmouth,Norfolk,Revival,Restaurant/Cafe/Canteen,1,5,,621856,5,,52.60653000000000,42132,229,health@great-yarmouth.gov.uk,Great Yarmouth,http://www.great-yarmouth.gov.uk/live/index.htm,1.72658400000000,NR30 2NU,2013-04-09,fhrs_5_en-GB,5,,FHRS,0
18370,,110-111 Wellesley Road,Great Yarmouth,Norfolk,Rhondean Guest House,Hotel/bed & breakfast/guest house,7842,5,,708279,0,,52.60929300000000,18202,229,health@great-yarmouth.gov.uk,Great Yarmouth,http://www.great-yarmouth.gov.uk/live/index.htm,1.73451700000000,NR30 2AR,2014-10-01,fhrs_4_en-GB,4,,FHRS,10
18371,,88 Church Lane,Gorleston,"Great Yarmouth, Norfolk",Richmond Oriental,Takeaway/sandwich shop,7844,5,,711781,5,,52.57912000000000,6600,229,health@great-yarmouth.gov.uk,Great Yarmouth,http://www.great-yarmouth.gov.uk/live/index.htm,1.71836500000000,NR31 7BJ,2014-10-16,fhrs_2_en-GB,2,,FHRS,15
18372,,Lowestoft Road,Hopton-On-Sea,Norfolk,Ritson Lodge,Hospitals/Childcare/Caring Premises,5,0,,621922,0,,52.53928900000000,42239,229,health@great-yarmouth.gov.uk,Great Yarmouth,http://www.great-yarmouth.gov.uk/live/index.htm,1.72188400000000,NR31 9AH,2015-01-29,fhrs_5_en-GB,5,,FHRS,0
18373,,South Beach Parade,Great Yarmouth,Norfolk,Rock Shop & Candy Floss,Retailers - other,4613,20,,621768,20,,52.59450700000000,26422,229,health@great-yarmouth.gov.uk,Great Yarmouth,http://www.great-yarmouth.gov.uk/live/index.htm,1.73615300000000,NR30 3EH,2013-09-18,fhrs_1_en-GB,1,,FHRS,5
18374,,43 St Peters Road,Great Yarmouth,Norfolk,Rogers Fish and Chips,Takeaway/sandwich shop,7844,,,621869,,,52.60262300000000,42152,229,health@great-yarmouth.gov.uk,Great Yarmouth,http://www.great-yarmouth.gov.uk/live/index.htm,1.73522000000000,NR30 3AA,2013-08-14,fhrs_4_en-GB,4,,FHRS,
18375,,Main Road,Rollesby,Norfolk,Rollesby Primary School,School/college/university,7845,0,,621857,0,,52.68434700000000,42133,229,health@great-yarmouth.gov.uk,Great Yarmouth,http://www.great-yarmouth.gov.uk/live/index.htm,1.63326300000000,NR29 5EH,2015-01-27,fhrs_5_en-GB,5,,FHRS,0
18376,,48 Wellesley Road,Great Yarmouth,Norfolk,Roseland Lodge,Hospitals/Childcare/Caring Premises,5,5,,719515,10,,52.61240000000000,43427,229,health@great-yarmouth.gov.uk,Great Yarmouth,http://www.great-yarmouth.gov.uk/live/index.htm,1.73467900000000,NR30 1EX,2014-11-19,fhrs_4_en-GB,4,,FHRS,5
18377,,77 Caister Road,Great Yarmouth,Norfolk,Rossi Ices,Mobile caterer,7846,5,,631444,5,,52.62196200000000,42240,229,health@great-yarmouth.gov.uk,Great Yarmouth,http://www.great-yarmouth.gov.uk/live/index.htm,1.72724600000000,NR30 4DG,2013-05-30,fhrs_5_en-GB,5,,FHRS,0
18378,,18 St Peters Road,Great Yarmouth,Norfolk,Roundabout Stores,Retailers - other,4613,,,621876,,,52.60268200000000,42164,229,health@great-yarmouth.gov.uk,Great Yarmouth,http://www.great-yarmouth.gov.uk/live/index.htm,1.73393900000000,NR30 3BQ,2013-11-18,fhrs_4_en-GB,4,,FHRS,
18379,,Route 66 Diner,The Crescent,Beach Road,Route 66 Diner,Restaurant/Cafe/Canteen,1,10,,723600,5,,52.69455500000000,44055,229,health@great-yarmouth.gov.uk,Great Yarmouth,http://www.great-yarmouth.gov.uk/live/index.htm,1.70669700000000,NR294JF,2014-12-03,fhrs_4_en-GB,4,,FHRS,5
18380,,11 The Green,Martham,Norfolk,Royal China Take-Away,Takeaway/sandwich shop,7844,30,,711784,20,,52.70390700000000,9516,229,health@great-yarmouth.gov.uk,Great Yarmouth,http://www.great-yarmouth.gov.uk/live/index.htm,1.63511200000000,NR29 4PL,2014-10-23,fhrs_0_en-GB,0,,FHRS,20
18381,,North Drive,Great Yarmnouth,,Royalty Newsagents,Retailers - other,4613,10,,691322,15,,52.62354400000000,17701,229,health@great-yarmouth.gov.uk,Great Yarmouth,http://www.great-yarmouth.gov.uk/live/index.htm,1.73781600000000,NR30 4EX,2014-08-04,fhrs_2_en-GB,2,,FHRS,10
18382,,11 Euston Road,Great Yarmouth,Norfolk,Royston Hotel,Hotel/bed & breakfast/guest house,7842,5,,621723,5,,52.60974000000000,18204,229,health@great-yarmouth.gov.uk,Great Yarmouth,http://www.great-yarmouth.gov.uk/live/index.htm,1.73545700000000,NR30 1DY,2013-08-01,fhrs_5_en-GB,5,,FHRS,5
18383,,,,,Ruby and Nellys,Other catering premises,7841,,,621921,,,,42238,229,health@great-yarmouth.gov.uk,Great Yarmouth,http://www.great-yarmouth.gov.uk/live/index.htm,,,2014-05-23,fhrs_5_en-GB,5,,FHRS,
18384,,107 Southtown Road,Great Yarmouth,Norfolk,Rumbold Arms,Pub/bar/nightclub,7843,,,621923,,,52.59581700000000,42241,229,health@great-yarmouth.gov.uk,Great Yarmouth,http://www.great-yarmouth.gov.uk/live/index.htm,1.72486200000000,NR31 0JX,2013-11-28,fhrs_2_en-GB,2,,FHRS,
18385,,121 Mill Road,Great Yarmouth,Norfolk,Rusty's Plaice,Takeaway/sandwich shop,7844,10,,693997,10,,52.60673100000000,43521,229,health@great-yarmouth.gov.uk,Great Yarmouth,http://www.great-yarmouth.gov.uk/live/index.htm,1.71788400000000,NR31 0AA,2014-08-14,fhrs_4_en-GB,4,,FHRS,0
18386,,36-38 Nelson Road South,Great Yarmouth,Norfolk,Saint Davids Residential Care,Hospitals/Childcare/Caring Premises,5,10,,621752,5,,52.60026800000000,22000,229,health@great-yarmouth.gov.uk,Great Yarmouth,http://www.great-yarmouth.gov.uk/live/index.htm,1.73289200000000,NR30 3JA,2014-11-17,fhrs_4_en-GB,4,,FHRS,0
18387,,20 Marine Crescent,Great Yarmouth,Norfolk,Salisbury Residential Home,Hospitals/Childcare/Caring Premises,5,5,,703650,5,,52.61900900000000,22001,229,health@great-yarmouth.gov.uk,Great Yarmouth,http://www.great-yarmouth.gov.uk/live/index.htm,1.73700000000000,NR30 4ET,2013-09-16,fhrs_5_en-GB,5,,FHRS,5
18388,,17 Trafalgar Road,Great Yarmouth,Norfolk,Sandcastles Guest House,Hotel/bed & breakfast/guest house,7842,5,,621991,0,,52.60549500000000,42473,229,health@great-yarmouth.gov.uk,Great Yarmouth,http://www.great-yarmouth.gov.uk/live/index.htm,1.73429700000000,NR30 2LD,2014-02-28,fhrs_5_en-GB,5,,FHRS,5
18389,,Marine Parade,Great Yarmouth,Norfolk,Sands Cafe,Restaurant/Cafe/Canteen,1,5,,671771,5,,52.60824000000000,43149,229,health@great-yarmouth.gov.uk,Great Yarmouth,http://www.great-yarmouth.gov.uk/live/index.htm,1.73792900000000,NR30 2EH,2014-05-27,fhrs_5_en-GB,5,,FHRS,5
18390,,80-81 Salisbury Road,Great Yarmouth,Norfolk,Sandy Acres,Hotel/bed & breakfast/guest house,7842,0,,693989,0,,52.61964600000000,18354,229,health@great-yarmouth.gov.uk,Great Yarmouth,http://www.great-yarmouth.gov.uk/live/index.htm,1.73337500000000,NR30 4LB,2014-08-11,fhrs_5_en-GB,5,,FHRS,0
18391,,127 King Street,Great Yarmouth,Norfolk,Santimar,Takeaway/sandwich shop,7844,5,,723596,5,,52.60393600000000,43990,229,health@great-yarmouth.gov.uk,Great Yarmouth,http://www.great-yarmouth.gov.uk/live/index.htm,1.72926000000000,NR30 2PQ,2014-11-25,fhrs_5_en-GB,5,,FHRS,0
18392,,Saras Tearooms,Pleasure Beach Gardens,South  Beach Parade,Sara's Tearooms,Restaurant/Cafe/Canteen,1,0,,647472,0,,52.59450700000000,42908,229,health@great-yarmouth.gov.uk,Great Yarmouth,http://www.great-yarmouth.gov.uk/live/index.htm,1.73615300000000,NR30 3EH,2014-04-08,fhrs_5_en-GB,5,,FHRS,5
18393,,Nelson Yard,South Denes Road,Yarmouth,Savoy Catering Supplies,Distributors/Transporters,7,10,,691324,10,,52.58590500000000,38976,229,health@great-yarmouth.gov.uk,Great Yarmouth,http://www.great-yarmouth.gov.uk/live/index.htm,1.73141900000000,NR30 3PR,2014-08-07,fhrs_3_en-GB,3,,FHRS,5
18394,,79 Regent Road,Great Yarmouth,Norfolk,Savoy Tandoori,Restaurant/Cafe/Canteen,1,0,,631443,5,,52.60765600000000,42166,229,health@great-yarmouth.gov.uk,Great Yarmouth,http://www.great-yarmouth.gov.uk/live/index.htm,1.73423000000000,NR30 2AJ,2014-11-19,fhrs_5_en-GB,5,,FHRS,0
18395,,Throughfare Lane,Scratby,Great Yarmouth,Scratby Hall Caravan Park,Retailers - other,4613,5,,711772,0,,,33490,229,health@great-yarmouth.gov.uk,Great Yarmouth,http://www.great-yarmouth.gov.uk/live/index.htm,,,2014-06-19,fhrs_5_en-GB,5,,FHRS,0
18396,,Britannia Pier,Marine Parade,Great Yarmouth,Sea Chef,Restaurant/Cafe/Canteen,1,20,,621802,15,,52.60824000000000,37891,229,health@great-yarmouth.gov.uk,Great Yarmouth,http://www.great-yarmouth.gov.uk/live/index.htm,1.73792900000000,NR30 2EH,2014-09-25,fhrs_1_en-GB,1,,FHRS,15
18397,,Beach Road,Hemsby,Norfolk,Seacroft Holiday Village,Retailers - other,4613,0,,622028,0,,52.69644500000000,7757,229,health@great-yarmouth.gov.uk,Great Yarmouth,http://www.great-yarmouth.gov.uk/live/index.htm,1.69803400000000,NR29 4HR,2013-04-30,fhrs_5_en-GB,5,,FHRS,5
18398,,St. Thomass Rd,Hemsby,Great Yarmouth,Seadell Club,Pub/bar/nightclub,7843,5,,688993,0,,52.69405300000000,7782,229,health@great-yarmouth.gov.uk,Great Yarmouth,http://www.great-yarmouth.gov.uk/live/index.htm,1.70550000000000,NR29 4JE,2014-07-30,fhrs_5_en-GB,5,,FHRS,0
18399,,85 North Quay,Great Yarmouth,Norfolk,Seafood Restaurant,Restaurant/Cafe/Canteen,1,10,,621733,5,,52.60967800000000,18533,229,health@great-yarmouth.gov.uk,Great Yarmouth,http://www.great-yarmouth.gov.uk/live/index.htm,1.72141500000000,NR30 1JF,2013-11-28,fhrs_4_en-GB,4,,FHRS,5
18400,,Magdalen Way,Gorleston,Great Yarmouth,Seagulls Childrens Centre,Hospitals/Childcare/Caring Premises,5,0,,621924,0,,52.57672200000000,42242,229,health@great-yarmouth.gov.uk,Great Yarmouth,http://www.great-yarmouth.gov.uk/live/index.htm,1.71482500000000,NR31 7BP,2014-07-01,fhrs_5_en-GB,5,,FHRS,5
18401,,8 Park Road,Gorleston,"Great Yarmouth, Norfolk",Seahorses Nursing Home,Hospitals/Childcare/Caring Premises,5,10,,635370,15,,52.56826300000000,6802,229,health@great-yarmouth.gov.uk,Great Yarmouth,http://www.great-yarmouth.gov.uk/live/index.htm,1.72839900000000,NR31 6EJ,2014-06-26,fhrs_2_en-GB,2,,FHRS,0
18402,,South Beach Parade,Great Yarmouth,Norfolk,Seajacks UK Ltd,Restaurant/Cafe/Canteen,1,10,,621950,0,,52.58566900000000,42294,229,health@great-yarmouth.gov.uk,Great Yarmouth,http://www.great-yarmouth.gov.uk/live/index.htm,1.73461800000000,NR30 3QR,2013-06-19,fhrs_4_en-GB,4,,FHRS,0
18403,,116 Wellesley Road,Great Yarmouth,Norfolk,Seamore Guest House,Hotel/bed & breakfast/guest house,7842,,,621729,,,52.60929300000000,18357,229,health@great-yarmouth.gov.uk,Great Yarmouth,http://www.great-yarmouth.gov.uk/live/index.htm,1.73451700000000,NR30 2AR,2013-11-18,fhrs_4_en-GB,4,,FHRS,
18404,,116 Wellesley Road,Great Yarmouth,Norfolk,Seamore Guest House,Hotel/bed & breakfast/guest house,7842,0,,735011,0,,52.60929300000000,42243,229,health@great-yarmouth.gov.uk,Great Yarmouth,http://www.great-yarmouth.gov.uk/live/index.htm,1.73451700000000,NR30 2AR,2015-02-09,fhrs_5_en-GB,5,,FHRS,0
18405,,256 Southtown Road,Great Yarmouth,Norfolk,Seaquest Petrol Station,Retailers - other,4613,20,,621781,15,,52.60110400000000,31227,229,health@great-yarmouth.gov.uk,Great Yarmouth,http://www.great-yarmouth.gov.uk/live/index.htm,1.72350800000000,NR31 0JJ,2014-12-10,fhrs_1_en-GB,1,,FHRS,15
18406,,57 Nelson Road North,Great Yarmouth,Norfolk,Seashells Guest House,Hotel/bed & breakfast/guest house,7842,10,,708295,15,,52.60928500000000,43701,229,health@great-yarmouth.gov.uk,Great Yarmouth,http://www.great-yarmouth.gov.uk/live/index.htm,1.73333500000000,NR30 2AT,2014-09-10,fhrs_2_en-GB,2,,FHRS,15
18407,,156 Northgate Street,Great Yarmouth,,Shauns Family Butcher Ltd,Retailers - other,4613,10,,664608,5,,52.61597300000000,16023,229,health@great-yarmouth.gov.uk,Great Yarmouth,http://www.great-yarmouth.gov.uk/live/index.htm,1.72805200000000,NR30 1BY,2014-05-20,fhrs_4_en-GB,4,,FHRS,5
18408,,,,,Shetland Sun,Mobile caterer,7846,5,,621925,0,,,42244,229,health@great-yarmouth.gov.uk,Great Yarmouth,http://www.great-yarmouth.gov.uk/live/index.htm,,,2013-04-26,fhrs_5_en-GB,5,,FHRS,0
18409,,47 High Street,Gorleston,"Great Yarmouth, Norfolk",Short Blue,Pub/bar/nightclub,7843,5,,622013,0,,52.58291500000000,6631,229,health@great-yarmouth.gov.uk,Great Yarmouth,http://www.great-yarmouth.gov.uk/live/index.htm,1.72896400000000,NR31 6RR,2015-01-08,fhrs_5_en-GB,5,,FHRS,5
18410,,17-18 Camperdown,Great Yarmouth,Norfolk,Sienna Lodge Hotel,Hotel/bed & breakfast/guest house,7842,5,,671749,0,,52.60038800000000,18215,229,health@great-yarmouth.gov.uk,Great Yarmouth,http://www.great-yarmouth.gov.uk/live/index.htm,1.73395100000000,NR30 3JB,2014-06-20,fhrs_5_en-GB,5,,FHRS,5
18411,,16 Blackfriars Road,Great Yarmouth,Norfolk,Silver Darlings Cafe (Time & Tide Museum),Restaurant/Cafe/Canteen,1,10,,723603,0,,52.60215300000000,44058,229,health@great-yarmouth.gov.uk,Great Yarmouth,http://www.great-yarmouth.gov.uk/live/index.htm,1.73129400000000,NR30 3BX,2014-12-03,fhrs_4_en-GB,4,,FHRS,10
18412,,36/37 Marine Parade,Great Yarmouth,Norfolk,Silver Sands Fast Foods,Takeaway/sandwich shop,7844,,,621737,,,52.60687300000000,18761,229,health@great-yarmouth.gov.uk,Great Yarmouth,http://www.great-yarmouth.gov.uk/live/index.htm,1.73621700000000,NR30 2EJ,2013-06-04,fhrs_4_en-GB,4,,FHRS,
18413,,29 Wellesley Road,Great Yarmouth,Norfolk,Silverstone House,Hotel/bed & breakfast/guest house,7842,5,,647473,5,,52.61069400000000,42914,229,health@great-yarmouth.gov.uk,Great Yarmouth,http://www.great-yarmouth.gov.uk/live/index.htm,1.73457800000000,NR30 1EU,2014-04-16,fhrs_5_en-GB,5,,FHRS,0
18414,,79 Magdalen Way,Gorleston,"Great Yarmouth, Norfolk",Simon's Family Butcher,Retailers - other,4613,10,,621739,5,,52.57371500000000,1882,229,health@great-yarmouth.gov.uk,Great Yarmouth,http://www.great-yarmouth.gov.uk/live/index.htm,1.71463000000000,NR31 7AA,2013-11-21,fhrs_3_en-GB,3,,FHRS,10
18415,,148 King Street,Great Yarmouth,Norfolk,Slice of Heaven Tea Room,Restaurant/Cafe/Canteen,1,5,,735015,0,,52.60578400000000,44315,229,health@great-yarmouth.gov.uk,Great Yarmouth,http://www.great-yarmouth.gov.uk/live/index.htm,1.72795400000000,NR30 2PA,2015-01-16,fhrs_5_en-GB,5,,FHRS,5
18416,,,,,Sophies Cakes,Retailers - other,4613,5,,621926,5,,,42245,229,health@great-yarmouth.gov.uk,Great Yarmouth,http://www.great-yarmouth.gov.uk/live/index.htm,,,2013-03-26,fhrs_5_en-GB,5,,FHRS,0
18417,,51 South Beach Parade,Great Yarmouth,Norfolk,South Beach Kebab,Takeaway/sandwich shop,7844,10,,680768,15,,52.59352100000000,43043,229,health@great-yarmouth.gov.uk,Great Yarmouth,http://www.great-yarmouth.gov.uk/live/index.htm,1.73462200000000,NR30 3EQ,2014-06-24,fhrs_2_en-GB,2,,FHRS,5
18418,,Southgates Road,Great Yarmouth,Norfolk,South Quay Services - premier,Retailers - other,4613,5,,631436,0,,52.59590300000000,30223,229,health@great-yarmouth.gov.uk,Great Yarmouth,http://www.great-yarmouth.gov.uk/live/index.htm,1.72839900000000,NR30 3LL,2014-01-16,fhrs_5_en-GB,5,,FHRS,0
18419,,1 Yarmouth Road,Ormesby St Margaret W Scratby,Norfolk,Spar,Retailers - other,4613,0,,723587,0,,52.67205200000000,31923,229,health@great-yarmouth.gov.uk,Great Yarmouth,http://www.great-yarmouth.gov.uk/live/index.htm,1.69197600000000,NR29 3QB,2014-12-15,fhrs_5_en-GB,5,,FHRS,5
18420,,6 Tan Lane,Caister-On-Sea,Norfolk,Spicy Papadum,Takeaway/sandwich shop,7844,,,621996,,,52.64587400000000,4366,229,health@great-yarmouth.gov.uk,Great Yarmouth,http://www.great-yarmouth.gov.uk/live/index.htm,1.72940000000000,NR30 5DN,2014-09-18,fhrs_1_en-GB,1,,FHRS,
18421,,83-84 Northgate Street,Great Yarmouth,Norfolk,Sportsmans Arms,Pub/bar/nightclub,7843,5,,621852,0,,52.61547300000000,42122,229,health@great-yarmouth.gov.uk,Great Yarmouth,http://www.great-yarmouth.gov.uk/live/index.htm,1.72734500000000,NR30 1BN,2013-03-20,fhrs_5_en-GB,5,,FHRS,0
18422,,114a Regent Road,Great Yarmouth,Norfolk,Spud-U-Like,Takeaway/sandwich shop,7844,0,,638011,0,,52.60680500000000,18881,229,health@great-yarmouth.gov.uk,Great Yarmouth,http://www.great-yarmouth.gov.uk/live/index.htm,1.72867600000000,NR30 2AB,2014-03-05,fhrs_5_en-GB,5,,FHRS,5
18423,,King Street,Great Yarmouth,Norfolk,St Georges Theatre Cafe,Restaurant/Cafe/Canteen,1,10,,621756,5,,52.60521900000000,22196,229,health@great-yarmouth.gov.uk,Great Yarmouth,http://www.great-yarmouth.gov.uk/live/index.htm,1.72935400000000,NR30 2PG,2013-10-18,fhrs_4_en-GB,4,,FHRS,0
18424,,58 North Quay,Great Yarmouth,Norfolk,St Johns Head Public House,Pub/bar/nightclub,7843,,,621963,,,52.60804900000000,42344,229,health@great-yarmouth.gov.uk,Great Yarmouth,http://www.great-yarmouth.gov.uk/live/index.htm,1.72231000000000,NR30 1JB,2013-11-13,fhrs_4_en-GB,4,,FHRS,
18425,,Magdalen Square,Gorleston,Norfolk,St Mary Magdalen Church,Restaurant/Cafe/Canteen,1,0,,621927,5,,52.57145900000000,42246,229,health@great-yarmouth.gov.uk,Great Yarmouth,http://www.great-yarmouth.gov.uk/live/index.htm,1.71458700000000,NR31 7BZ,2013-01-22,fhrs_5_en-GB,5,,FHRS,0
18426,,East Anglian Way Off Church Rd,Gorleston,Great Yarmouth,St Mary's RC VA Primary School,School/college/university,7845,5,,622019,0,,52.58200700000000,6777,229,health@great-yarmouth.gov.uk,Great Yarmouth,http://www.great-yarmouth.gov.uk/live/index.htm,1.72439800000000,NR31 6QY,2015-01-09,fhrs_5_en-GB,5,,FHRS,5
18427,,4-5 Marine Parade,Gorleston,"Great Yarmouth, Norfolk",St. Edmunds Residential Home,Hospitals/Childcare/Caring Premises,5,5,,635371,0,,52.56945000000000,6807,229,health@great-yarmouth.gov.uk,Great Yarmouth,http://www.great-yarmouth.gov.uk/live/index.htm,1.72982800000000,NR31 6DP,2014-02-19,fhrs_5_en-GB,5,,FHRS,5
18428,,83 St Nicholas Road,Great Yarmouth,Norfolk,St. Nicholas Children's Centre,School/college/university,7845,0,,671752,0,,52.60984300000000,21538,229,health@great-yarmouth.gov.uk,Great Yarmouth,http://www.great-yarmouth.gov.uk/live/index.htm,1.73019100000000,NR30 1NN,2014-06-11,fhrs_5_en-GB,5,,FHRS,0
18429,,24 Hall Quay,Great Yarmouth,Norfolk,Star Hotel,Hotel/bed & breakfast/guest house,7842,20,,621725,15,,52.60728800000000,18219,229,health@great-yarmouth.gov.uk,Great Yarmouth,http://www.great-yarmouth.gov.uk/live/index.htm,1.72419600000000,NR30 1HP,2014-10-10,fhrs_1_en-GB,1,,FHRS,15
18430,,31 Market Gates Shopping Centre,Great Yarmouth,Norfolk,Starbucks,Restaurant/Cafe/Canteen,1,0,,621883,0,,52.60754300000000,42174,229,health@great-yarmouth.gov.uk,Great Yarmouth,http://www.great-yarmouth.gov.uk/live/index.htm,1.72866500000000,NR30 2AX,2013-04-23,fhrs_5_en-GB,5,,FHRS,0
18431,,,,,Stephanie Ross Cakes,Retailers - other,4613,5,,621930,5,,,42253,229,health@great-yarmouth.gov.uk,Great Yarmouth,http://www.great-yarmouth.gov.uk/live/index.htm,,,2013-10-23,fhrs_5_en-GB,5,,FHRS,0
18432,,Thrigby Road,Filby,Norfolk,Stepping Stones Day Nursery,Hospitals/Childcare/Caring Premises,5,5,,638020,0,,52.66004100000000,42797,229,health@great-yarmouth.gov.uk,Great Yarmouth,http://www.great-yarmouth.gov.uk/live/index.htm,1.64302000000000,NR29 3HJ,2014-03-11,fhrs_5_en-GB,5,,FHRS,0
18433,,Lowestoft Road,Gorleston,Great Yarmouth,Stradbroke Primary School,School/college/university,7845,5,,622020,0,,52.57612200000000,6779,229,health@great-yarmouth.gov.uk,Great Yarmouth,http://www.great-yarmouth.gov.uk/live/index.htm,1.72617300000000,NR31 6LZ,2015-01-09,fhrs_5_en-GB,5,,FHRS,5
18434,,174b King Street,Great Yarmouth,Norfolk,Subway,Restaurant/Cafe/Canteen,1,0,,621882,0,,52.60684300000000,42173,229,health@great-yarmouth.gov.uk,Great Yarmouth,http://www.great-yarmouth.gov.uk/live/index.htm,1.72718700000000,NR30 2NY,2013-04-23,fhrs_5_en-GB,5,,FHRS,5
18435,,Beach Rd,Scratby,Great Yarmouth,Summerfields Holiday Park,Hotel/bed & breakfast/guest house,7842,5,,680760,5,,52.67807100000000,11798,229,health@great-yarmouth.gov.uk,Great Yarmouth,http://www.great-yarmouth.gov.uk/live/index.htm,1.71178200000000,NR29 3NW,2014-06-25,fhrs_5_en-GB,5,,FHRS,0
18436,,121 High Street,Gorleston,Great Yarmouth,Sunrise Cafe,Restaurant/Cafe/Canteen,1,10,,621988,10,,52.57853300000000,42456,229,health@great-yarmouth.gov.uk,Great Yarmouth,http://www.great-yarmouth.gov.uk/live/index.htm,1.72788300000000,NR31 6RE,2013-12-09,fhrs_4_en-GB,4,,FHRS,0
18437,,7 Marine Parade,Great Yarmouth,Norfolk,Sunshine Cafe,Restaurant/Cafe/Canteen,1,5,,680765,5,,52.60143100000000,31066,229,health@great-yarmouth.gov.uk,Great Yarmouth,http://www.great-yarmouth.gov.uk/live/index.htm,1.73566500000000,NR30 3AH,2014-06-23,fhrs_4_en-GB,4,,FHRS,10
18438,,25 Bridge Road,Runham Vauxhall,Great Yarmouth,Suspension Bridge Tavern,Pub/bar/nightclub,7843,10,,621946,0,,52.61288300000000,42286,229,health@great-yarmouth.gov.uk,Great Yarmouth,http://www.great-yarmouth.gov.uk/live/index.htm,1.72218900000000,NR30 1JU,2013-01-23,fhrs_4_en-GB,4,,FHRS,5
18439,,,,,Sweet Temptations,Retailers - other,4613,5,,621928,5,,,42248,229,health@great-yarmouth.gov.uk,Great Yarmouth,http://www.great-yarmouth.gov.uk/live/index.htm,,,2013-03-22,fhrs_5_en-GB,5,,FHRS,0
18440,,31 North Drive,Great Yarmouth,Norfolk,Swiss Cottage,Hotel/bed & breakfast/guest house,7842,0,,647471,0,,52.61492800000000,42893,229,health@great-yarmouth.gov.uk,Great Yarmouth,http://www.great-yarmouth.gov.uk/live/index.htm,1.73751000000000,NR30 4EW,2014-04-03,fhrs_5_en-GB,5,,FHRS,0
18441,,4 Yarmouth Road,Caister-On-Sea,Norfolk,Tasty House,Takeaway/sandwich shop,7844,0,,711775,5,,52.64485600000000,4368,229,health@great-yarmouth.gov.uk,Great Yarmouth,http://www.great-yarmouth.gov.uk/live/index.htm,1.72888400000000,NR30 5AA,2014-10-23,fhrs_5_en-GB,5,,FHRS,5
18442,,7 The Green,Martham,Norfolk,Taylor Made Cakes,Retailers - other,4613,10,,621874,5,,52.70342700000000,42160,229,health@great-yarmouth.gov.uk,Great Yarmouth,http://www.great-yarmouth.gov.uk/live/index.htm,1.63319100000000,NR29 4AH,2013-08-19,fhrs_4_en-GB,4,,FHRS,5
18443,,53 The Green,Martham,Norfolk,Taylors Quality Fish and Chips,Takeaway/sandwich shop,7844,5,,621859,5,,52.70431200000000,42139,229,health@great-yarmouth.gov.uk,Great Yarmouth,http://www.great-yarmouth.gov.uk/live/index.htm,1.63715900000000,NR29 4PF,2013-09-20,fhrs_5_en-GB,5,,FHRS,0
18444,,43 Regent Road,Great Yarmouth,Norfolk,T-Bone Steak House,Restaurant/Cafe/Canteen,1,,,621776,,,52.60765600000000,30267,229,health@great-yarmouth.gov.uk,Great Yarmouth,http://www.great-yarmouth.gov.uk/live/index.htm,1.73423000000000,NR30 2AJ,2013-11-07,fhrs_4_en-GB,4,,FHRS,
18445,,26-28 Southgates Road,Great Yarmouth,Norfolk,Teds Cafe,Restaurant/Cafe/Canteen,1,,,631448,,,52.59590300000000,42477,229,health@great-yarmouth.gov.uk,Great Yarmouth,http://www.great-yarmouth.gov.uk/live/index.htm,1.72839900000000,NR30 3LL,2014-10-02,fhrs_5_en-GB,5,,FHRS,
18446,,Pasteur Road,Great Yarmouth,Norfolk,Tesco Cafe,Restaurant/Cafe/Canteen,1,10,,621994,5,,52.60479000000000,42483,229,health@great-yarmouth.gov.uk,Great Yarmouth,http://www.great-yarmouth.gov.uk/live/index.htm,1.71841400000000,NR31 0DW,2013-12-10,fhrs_4_en-GB,4,,FHRS,5
18447,,59 Wellesley Road,Great Yarmouth,Norfolk,The Abbeville,Hospitals/Childcare/Caring Premises,5,5,,621753,10,,52.61240000000000,22008,229,health@great-yarmouth.gov.uk,Great Yarmouth,http://www.great-yarmouth.gov.uk/live/index.htm,1.73467900000000,NR30 1EX,2014-06-03,fhrs_4_en-GB,4,,FHRS,5
18448,,8 Nelson Road Central,Great Yarmouth,Norfolk,The Albion,Pub/bar/nightclub,7843,10,,621782,0,,52.60732300000000,31680,229,health@great-yarmouth.gov.uk,Great Yarmouth,http://www.great-yarmouth.gov.uk/live/index.htm,1.73279800000000,NR30 2JA,2013-04-02,fhrs_4_en-GB,4,,FHRS,0
18449,,12 Regent Road,Great Yarmouth,Norfolk,The Alexandra Restaurant,Restaurant/Cafe/Canteen,1,20,,708280,15,,52.60748800000000,18406,229,health@great-yarmouth.gov.uk,Great Yarmouth,http://www.great-yarmouth.gov.uk/live/index.htm,1.73041900000000,NR30 2AF,2014-10-01,fhrs_0_en-GB,0,,FHRS,20
18450,,14-15 Sandown Road,Great Yarmouth,Norfolk,The Arona Hotel,Hotel/bed & breakfast/guest house,7842,0,,664612,0,,52.61382200000000,18229,229,health@great-yarmouth.gov.uk,Great Yarmouth,http://www.great-yarmouth.gov.uk/live/index.htm,1.73550900000000,NR30 1EY,2014-05-20,fhrs_4_en-GB,4,,FHRS,10
18451,,34 Beatty Road,Great Yarmouth,Norfolk,The Avenue Public House,Pub/bar/nightclub,7843,30,,621983,25,,52.62624700000000,42447,229,health@great-yarmouth.gov.uk,Great Yarmouth,http://www.great-yarmouth.gov.uk/live/index.htm,1.73367100000000,NR30 4BQ,2013-08-08,fhrs_0_en-GB,0,,FHRS,20
18452,,The Street,Hemsby,Great Yarmouth,The Bakery Hemsby,Retailers - other,4613,5,,735019,5,,52.69630500000000,7730,229,health@great-yarmouth.gov.uk,Great Yarmouth,http://www.great-yarmouth.gov.uk/live/index.htm,1.68927200000000,NR29 4EU,2015-02-03,fhrs_5_en-GB,5,,FHRS,5
18453,,16 Marine Parade,Great Yarmouth,Norfolk,The Barking Smack,Pub/bar/nightclub,7843,,,664617,,,52.60143100000000,19028,229,health@great-yarmouth.gov.uk,Great Yarmouth,http://www.great-yarmouth.gov.uk/live/index.htm,1.73566500000000,NR30 3AH,2014-08-19,fhrs_3_en-GB,3,,FHRS,
18454,,The Street,Hemsby,Great Yarmouth,The Bell Public House,Pub/bar/nightclub,7843,10,,621775,0,,52.69630500000000,30139,229,health@great-yarmouth.gov.uk,Great Yarmouth,http://www.great-yarmouth.gov.uk/live/index.htm,1.68927200000000,NR29 4EU,2014-11-20,fhrs_4_en-GB,4,,FHRS,5
18455,,Beach Road,Hemsby,Norfolk,The Belle Aire Pantry,Restaurant/Cafe/Canteen,1,5,,693996,0,,52.69537000000000,43520,229,health@great-yarmouth.gov.uk,Great Yarmouth,http://www.great-yarmouth.gov.uk/live/index.htm,1.70365700000000,NR29 4HZ,2014-07-29,fhrs_5_en-GB,5,,FHRS,5
18456,,Eels Foot Road,Ormesby St Michael,Norfolk,The Boat House,Pub/bar/nightclub,7843,5,,688986,5,,52.67610800000000,42851,229,health@great-yarmouth.gov.uk,Great Yarmouth,http://www.great-yarmouth.gov.uk/live/index.htm,1.65313300000000,NR29 3LP,2014-08-05,fhrs_5_en-GB,5,,FHRS,5
18457,,22 Euston Road,Great Yarmouth,Norfolk,The Boat House,Hospitals/Childcare/Caring Premises,5,5,,719520,0,,52.61016700000000,43916,229,health@great-yarmouth.gov.uk,Great Yarmouth,http://www.great-yarmouth.gov.uk/live/index.htm,1.73617300000000,NR301EA,2014-10-31,fhrs_5_en-GB,5,,FHRS,0
18458,,Market Gates Shopping Centre,Great Yarmouth,,The Boulevard Restaurant,Restaurant/Cafe/Canteen,1,10,,727751,10,,52.60754300000000,9396,229,health@great-yarmouth.gov.uk,Great Yarmouth,http://www.great-yarmouth.gov.uk/live/index.htm,1.72866500000000,NR30 2AX,2014-12-18,fhrs_3_en-GB,3,,FHRS,5
18459,,,,,The Cake Box,Retailers - other,4613,10,,621717,0,,,16127,229,health@great-yarmouth.gov.uk,Great Yarmouth,http://www.great-yarmouth.gov.uk/live/index.htm,,,2013-05-31,fhrs_4_en-GB,4,,FHRS,0
18460,,132 Ormesby Road,Caister-On-Sea,Norfolk,The Centurion Public House,Pub/bar/nightclub,7843,,,621879,,,52.66062500000000,42168,229,health@great-yarmouth.gov.uk,Great Yarmouth,http://www.great-yarmouth.gov.uk/live/index.htm,1.72055300000000,NR30 5NJ,2013-12-19,fhrs_5_en-GB,5,,FHRS,
18461,,Yarmouth Road,"Hemsby, Great Yarmouth",Norfolk,The Coach House,Hospitals/Childcare/Caring Premises,5,0,,703651,0,,52.69311200000000,24015,229,health@great-yarmouth.gov.uk,Great Yarmouth,http://www.great-yarmouth.gov.uk/live/index.htm,1.69072000000000,NR29 4NJ,2014-09-25,fhrs_5_en-GB,5,,FHRS,5
18462,,The Esplanade,North Drive,Great Yarmouth,The Coffee Shack,Restaurant/Cafe/Canteen,1,0,,621791,0,,52.61492800000000,34076,229,health@great-yarmouth.gov.uk,Great Yarmouth,http://www.great-yarmouth.gov.uk/live/index.htm,1.73751000000000,NR30 4EW,2013-09-02,fhrs_5_en-GB,5,,FHRS,0
18463,,The Street,Hemsby,Norfolk,The Coffee Station,Restaurant/Cafe/Canteen,1,0,,691335,0,,52.69630500000000,43426,229,health@great-yarmouth.gov.uk,Great Yarmouth,http://www.great-yarmouth.gov.uk/live/index.htm,1.68927200000000,NR29 4EU,2014-07-24,fhrs_5_en-GB,5,,FHRS,5
18464,,25 Princes Road,Great Yarmouth,Norfolk,The Collingwood,Hotel/bed & breakfast/guest house,7842,0,,708292,0,,52.60896300000000,43672,229,health@great-yarmouth.gov.uk,Great Yarmouth,http://www.great-yarmouth.gov.uk/live/index.htm,1.73583400000000,NR30 2DG,2014-08-21,fhrs_5_en-GB,5,,FHRS,0
18465,,Burgh Road,Bradwell,"Great Yarmouth, Norfolk",The Co-Operative Food,Retailers - supermarkets/hypermarkets,7840,0,,621758,0,,52.58572700000000,23485,229,health@great-yarmouth.gov.uk,Great Yarmouth,http://www.great-yarmouth.gov.uk/live/index.htm,1.70675700000000,NR31 9ER,2013-04-03,fhrs_5_en-GB,5,,FHRS,5
18466,,Howard Street South,Great Yarmouth,Norfolk,The Courtyard,Restaurant/Cafe/Canteen,1,5,,664627,0,,52.60610700000000,43035,229,health@great-yarmouth.gov.uk,Great Yarmouth,http://www.great-yarmouth.gov.uk/live/index.htm,1.72601600000000,NR30 2PU,2014-05-21,fhrs_5_en-GB,5,,FHRS,5
18467,,26 Princes Road,Great Yarmouth,Norfolk,The Delft,Hotel/bed & breakfast/guest house,7842,5,,621929,5,,52.60896300000000,42251,229,health@great-yarmouth.gov.uk,Great Yarmouth,http://www.great-yarmouth.gov.uk/live/index.htm,1.73583400000000,NR30 2DG,2013-05-30,fhrs_5_en-GB,5,,FHRS,0
18468,,68 Marine Parade,Great Yarmouth,Norfolk,The Dining Room,Restaurant/Cafe/Canteen,1,10,,621844,10,,52.60848600000000,42084,229,health@great-yarmouth.gov.uk,Great Yarmouth,http://www.great-yarmouth.gov.uk/live/index.htm,1.73641400000000,NR30 2DQ,2013-07-02,fhrs_4_en-GB,4,,FHRS,0
18469,,Long Beach,Hemsby,Great Yarmouth,The Dolphin (AND SITE SHOP),Pub/bar/nightclub,7843,5,,708284,0,,52.70189200000000,31006,229,health@great-yarmouth.gov.uk,Great Yarmouth,http://www.great-yarmouth.gov.uk/live/index.htm,1.70277400000000,NR29 4JD,2014-09-25,fhrs_5_en-GB,5,,FHRS,5
18470,,37 St Peters Road,Great Yarmouth,Norfolk,The Duke Of Wellington,Pub/bar/nightclub,7843,,,621745,,,52.60262300000000,19064,229,health@great-yarmouth.gov.uk,Great Yarmouth,http://www.great-yarmouth.gov.uk/live/index.htm,1.73522000000000,NR30 3AA,2013-07-09,fhrs_4_en-GB,4,,FHRS,
18471,,Lichfield Road,Great Yarmouth,Norfolk,The Eating House,School/college/university,7845,0,,621790,0,,52.59799600000000,34069,229,health@great-yarmouth.gov.uk,Great Yarmouth,http://www.great-yarmouth.gov.uk/live/index.htm,1.72136900000000,NR31 0ED,2014-12-04,fhrs_5_en-GB,5,,FHRS,0
18472,,18-20 Crown Road,Great Yarmouth,Norfolk,The Edwardian Hotel,Hotel/bed & breakfast/guest house,7842,5,,621845,5,,52.60656100000000,42085,229,health@great-yarmouth.gov.uk,Great Yarmouth,http://www.great-yarmouth.gov.uk/live/index.htm,1.73130000000000,NR30 2JN,2013-05-14,fhrs_5_en-GB,5,,FHRS,0
18473,,38 Wellesley Road,Great Yarmouth,Norfolk,The Elmfield,Hotel/bed & breakfast/guest house,7842,5,,621954,0,,52.61069400000000,42299,229,health@great-yarmouth.gov.uk,Great Yarmouth,http://www.great-yarmouth.gov.uk/live/index.htm,1.73457800000000,NR30 1EU,2013-09-23,fhrs_5_en-GB,5,,FHRS,0
18474,,38-41 Camperdown,Great Yarmouth,Norfolk,The Embassy Hotel,Hotel/bed & breakfast/guest house,7842,10,,719507,5,,52.60038800000000,18240,229,health@great-yarmouth.gov.uk,Great Yarmouth,http://www.great-yarmouth.gov.uk/live/index.htm,1.73395100000000,NR30 3JB,2014-11-26,fhrs_4_en-GB,4,,FHRS,5
18475,,22 Broom Gardens,Belton,Belton With Browston,The Fameille kitchen,Other catering premises,7841,0,,708289,0,,52.56695500000000,42301,229,health@great-yarmouth.gov.uk,Great Yarmouth,http://www.great-yarmouth.gov.uk/live/index.htm,1.66258600000000,NR31 9PB,2014-10-02,fhrs_5_en-GB,5,,FHRS,0
18476,,60-61 Apsley Road,Great Yarmouth,Norfolk,The Fawlty Towers,Hotel/bed & breakfast/guest house,7842,10,,621724,5,,52.60696900000000,18207,229,health@great-yarmouth.gov.uk,Great Yarmouth,http://www.great-yarmouth.gov.uk/live/index.htm,1.73545700000000,NR30 2HG,2013-06-12,fhrs_4_en-GB,4,,FHRS,5
18477,,128 High Street,Gorleston,"Great Yarmouth, Norfolk",The Feathers Inn,Pub/bar/nightclub,7843,10,,631457,15,,52.57853300000000,6632,229,health@great-yarmouth.gov.uk,Great Yarmouth,http://www.great-yarmouth.gov.uk/live/index.htm,1.72788300000000,NR31 6RE,2014-01-08,fhrs_2_en-GB,2,,FHRS,5
18478,,Stokesby,Great Yarmouth,,The Ferry Inn,Pub/bar/nightclub,7843,20,,693988,20,,52.63825700000000,12988,229,health@great-yarmouth.gov.uk,Great Yarmouth,http://www.great-yarmouth.gov.uk/live/index.htm,1.59151600000000,NR29 3EX,2014-08-26,fhrs_0_en-GB,0,,FHRS,20
18479,,South Beach Parade,Great Yarmouth,Norfolk,The Finer Diner,Restaurant/Cafe/Canteen,1,10,,621911,5,,52.59450700000000,42225,229,health@great-yarmouth.gov.uk,Great Yarmouth,http://www.great-yarmouth.gov.uk/live/index.htm,1.73615300000000,NR30 3EH,2013-09-18,fhrs_4_en-GB,4,,FHRS,5
18480,,Beach Road,Hemsby,Norfolk,The Food Palace,Takeaway/sandwich shop,7844,10,,621894,5,,52.69576500000000,42190,229,health@great-yarmouth.gov.uk,Great Yarmouth,http://www.great-yarmouth.gov.uk/live/index.htm,1.70426800000000,NR29 4HS,2013-04-22,fhrs_4_en-GB,4,,FHRS,0
18481,,The Fritton Arms,Beccles Road,Fritton,The Fritton Arms,Hotel/bed & breakfast/guest house,7842,5,,727745,5,,52.54273100000000,44093,229,health@great-yarmouth.gov.uk,Great Yarmouth,http://www.great-yarmouth.gov.uk/live/index.htm,1.65012200000000,NR319HA,2014-12-10,fhrs_5_en-GB,5,,FHRS,5
18482,,Yarmouth Road,Ormesby St Margaret W Scratby,Norfolk,The Grange Hotel,Hotel/bed & breakfast/guest house,7842,,,621811,,,52.66814300000000,41399,229,health@great-yarmouth.gov.uk,Great Yarmouth,http://www.great-yarmouth.gov.uk/live/index.htm,1.71113200000000,NR29 3QG,2014-10-14,fhrs_4_en-GB,4,,FHRS,
18483,,3 Mitchell Drive,Jones Way,Great Yarmouth,The Grayling,Pub/bar/nightclub,7843,0,,731242,0,,52.60478900000000,42794,229,health@great-yarmouth.gov.uk,Great Yarmouth,http://www.great-yarmouth.gov.uk/live/index.htm,1.71841400000000,NR31 0DW,2015-01-16,fhrs_5_en-GB,5,,FHRS,0
18484,,86 Church Lane,Gorleston,"Great Yarmouth, Norfolk",The Happy Shopper,Retailers - other,4613,5,,622005,0,,52.57912000000000,6493,229,health@great-yarmouth.gov.uk,Great Yarmouth,http://www.great-yarmouth.gov.uk/live/index.htm,1.71836500000000,NR31 7BJ,2013-04-25,fhrs_5_en-GB,5,,FHRS,0
18485,,50 Beccles Road,Bradwell,Norfolk,The Heathers Nursing Home,Hospitals/Childcare/Caring Premises,5,0,,621806,5,,52.58010500000000,3849,229,health@great-yarmouth.gov.uk,Great Yarmouth,http://www.great-yarmouth.gov.uk/live/index.htm,1.70676900000000,NR31 8DQ,2014-11-20,fhrs_5_en-GB,5,,FHRS,5
18486,,Main Road,Fleggburgh,Great Yarmouth,The Kings Arms,Pub/bar/nightclub,7843,10,,631459,5,,52.66870000000000,9363,229,health@great-yarmouth.gov.uk,Great Yarmouth,http://www.great-yarmouth.gov.uk/live/index.htm,1.61641400000000,NR29 3AG,2014-01-30,fhrs_4_en-GB,4,,FHRS,5
18487,,15 The Green,Martham,Norfolk,The Kings Arms,Pub/bar/nightclub,7843,10,,622033,10,,52.70390700000000,9517,229,health@great-yarmouth.gov.uk,Great Yarmouth,http://www.great-yarmouth.gov.uk/live/index.htm,1.63511200000000,NR29 4PL,2013-08-12,fhrs_4_en-GB,4,,FHRS,0
18488,,St.Johns Rd,Belton,Great Yarmouth,The Kings Head,Pub/bar/nightclub,7843,10,,621787,0,,52.57049100000000,3391,229,health@great-yarmouth.gov.uk,Great Yarmouth,http://www.great-yarmouth.gov.uk/live/index.htm,1.66515400000000,NR31 9JT,2013-02-06,fhrs_2_en-GB,2,,FHRS,15
18489,,Main Road,"Filby, Great Yarmouth",Norfolk,The Kings Head,Pub/bar/nightclub,7843,,,622002,,,52.66000900000000,5982,229,health@great-yarmouth.gov.uk,Great Yarmouth,http://www.great-yarmouth.gov.uk/live/index.htm,1.67143400000000,NR29 3HY,2013-05-01,fhrs_4_en-GB,4,,FHRS,
18490,,Sea View Road,Hemsby,Great Yarmouth,The Lacon Arms,Pub/bar/nightclub,7843,5,,622027,5,,52.69446000000000,7750,229,health@great-yarmouth.gov.uk,Great Yarmouth,http://www.great-yarmouth.gov.uk/live/index.htm,1.70745900000000,NR29 4JG,2014-10-23,fhrs_4_en-GB,4,,FHRS,10
18491,,Caister Road,Great Yarmouth,Norfolk,The Lawns Care Centre,Hospitals/Childcare/Caring Premises,5,10,,621959,10,,52.62098800000000,42324,229,health@great-yarmouth.gov.uk,Great Yarmouth,http://www.great-yarmouth.gov.uk/live/index.htm,1.72704500000000,NR30 4DQ,2014-08-08,fhrs_3_en-GB,3,,FHRS,10
18492,,1 Euston Road,Great Yarmouth,Norfolk,The Lion,Pub/bar/nightclub,7843,10,,723585,5,,52.60979800000000,19101,229,health@great-yarmouth.gov.uk,Great Yarmouth,http://www.great-yarmouth.gov.uk/live/index.htm,1.73389500000000,NR30 1DX,2014-12-01,fhrs_4_en-GB,4,,FHRS,5
18493,,The Street,Thurne,Great Yarmouth,The Lion Inn,Pub/bar/nightclub,7843,5,,661369,10,,52.68878600000000,13891,229,health@great-yarmouth.gov.uk,Great Yarmouth,http://www.great-yarmouth.gov.uk/live/index.htm,1.55488600000000,NR29 3AP,2014-05-09,fhrs_4_en-GB,4,,FHRS,5
18494,,Martham Road,West Somerton,Somerton,The Lion Public House,Pub/bar/nightclub,7843,10,,735014,0,,52.71886400000000,44314,229,health@great-yarmouth.gov.uk,Great Yarmouth,http://www.great-yarmouth.gov.uk/live/index.htm,1.65617500000000,NR29 4DP,2015-01-14,fhrs_4_en-GB,4,,FHRS,0
18495,,101 Magdalen Way,Gorleston,"Great Yarmouth, Norfolk",The Majestic Chinese Takeaway,Takeaway/sandwich shop,7844,10,,711782,10,,52.57371500000000,6607,229,health@great-yarmouth.gov.uk,Great Yarmouth,http://www.great-yarmouth.gov.uk/live/index.htm,1.71463000000000,NR31 7AA,2014-10-15,fhrs_3_en-GB,3,,FHRS,5
18496,,15 Marine Parade,Great Yarmouth,Norfolk,The Marine Public House,Pub/bar/nightclub,7843,5,,621742,5,,52.60143100000000,18987,229,health@great-yarmouth.gov.uk,Great Yarmouth,http://www.great-yarmouth.gov.uk/live/index.htm,1.73566500000000,NR30 3AH,2013-05-22,fhrs_5_en-GB,5,,FHRS,5
18497,,17 Market Place,Great Yarmouth,Norfolk,The Market Tavern,Pub/bar/nightclub,7843,10,,621746,10,,52.60888000000000,19111,229,health@great-yarmouth.gov.uk,Great Yarmouth,http://www.great-yarmouth.gov.uk/live/index.htm,1.72592700000000,NR30 1LY,2014-12-18,fhrs_3_en-GB,3,,FHRS,10
18498,,58 Marine Parade,Great Yarmouth,Norfolk,The Monte Carlo,Restaurant/Cafe/Canteen,1,5,,664615,0,,52.60687300000000,18559,229,health@great-yarmouth.gov.uk,Great Yarmouth,http://www.great-yarmouth.gov.uk/live/index.htm,1.73621700000000,NR30 2EJ,2014-05-19,fhrs_5_en-GB,5,,FHRS,5
18499,,80 Pier Plain,Gorleston,"Great Yarmouth, Norfolk",The New Entertainer,Pub/bar/nightclub,7843,0,,621773,10,,52.57517800000000,29095,229,health@great-yarmouth.gov.uk,Great Yarmouth,http://www.great-yarmouth.gov.uk/live/index.htm,1.72931100000000,NR31 6PG,2013-02-13,fhrs_4_en-GB,4,,FHRS,0
18500,,High Street,Caister-On-Sea,Norfolk,The Old Hall Restaurant,Restaurant/Cafe/Canteen,1,10,,727747,10,,52.64843500000000,44102,229,health@great-yarmouth.gov.uk,Great Yarmouth,http://www.great-yarmouth.gov.uk/live/index.htm,1.72433800000000,NR30 5JL,2014-12-16,fhrs_2_en-GB,2,,FHRS,15
18501,,62-63 North Market Road,Great Yarmouth,Norfolk,The Oliver Twist,Pub/bar/nightclub,7843,5,,621945,5,,52.60908000000000,42283,229,health@great-yarmouth.gov.uk,Great Yarmouth,http://www.great-yarmouth.gov.uk/live/index.htm,1.72956400000000,NR30 2DX,2013-05-31,fhrs_5_en-GB,5,,FHRS,0
18502,,Mill Lane,Bradwell,Norfolk,The Orchards Residential Care Home,Hospitals/Childcare/Caring Premises,5,0,,635362,5,,52.58485500000000,42728,229,health@great-yarmouth.gov.uk,Great Yarmouth,http://www.great-yarmouth.gov.uk/live/index.htm,1.69839800000000,NR31 8HS,2014-02-11,fhrs_5_en-GB,5,,FHRS,0
18503,,Main Cross Road,Great Yarmouth,Norfolk,The Park,Restaurant/Cafe/Canteen,1,20,,638016,15,,52.59099100000000,42768,229,health@great-yarmouth.gov.uk,Great Yarmouth,http://www.great-yarmouth.gov.uk/live/index.htm,1.73301800000000,NR30 3NZ,2014-02-20,fhrs_1_en-GB,1,,FHRS,10
18504,,Rottenstone Lane,California,Great Yarmouth,The Pink Palace,Takeaway/sandwich shop,7844,5,,664635,0,,52.67629900000000,4468,229,health@great-yarmouth.gov.uk,Great Yarmouth,http://www.great-yarmouth.gov.uk/live/index.htm,1.71950400000000,NR29 3QT,2014-05-28,fhrs_5_en-GB,5,,FHRS,0
18505,,Beach Road,Hemsby,Norfolk,The Pit Stop,Takeaway/sandwich shop,7844,0,,691336,0,,,43428,229,health@great-yarmouth.gov.uk,Great Yarmouth,http://www.great-yarmouth.gov.uk/live/index.htm,,,2014-08-01,fhrs_5_en-GB,5,,FHRS,0
18506,,High Road,Burgh Castle,Great Yarmouth,The Queens Head,Pub/bar/nightclub,7843,5,,635359,5,,52.58713400000000,4191,229,health@great-yarmouth.gov.uk,Great Yarmouth,http://www.great-yarmouth.gov.uk/live/index.htm,1.66128700000000,NR31 9QQ,2013-09-17,fhrs_5_en-GB,5,,FHRS,5
18507,,33 Alma Road,Great Yarmouth,Norfolk,The Recruit,Pub/bar/nightclub,7843,5,,621807,0,,52.60142400000000,38659,229,health@great-yarmouth.gov.uk,Great Yarmouth,http://www.great-yarmouth.gov.uk/live/index.htm,1.73018300000000,NR30 3HB,2013-01-21,fhrs_5_en-GB,5,,FHRS,0
18508,,4 Marine Parade,Great Yarmouth,Norfolk,The Royal Hotel,Hotel/bed & breakfast/guest house,7842,10,,621884,5,,52.60125600000000,42175,229,health@great-yarmouth.gov.uk,Great Yarmouth,http://www.great-yarmouth.gov.uk/live/index.htm,1.73522200000000,NR30 3AE,2013-07-19,fhrs_3_en-GB,3,,FHRS,10
18509,,Tolhouse Street,Great Yarmouth,Norfolk,The Salvation Army,Restaurant/Cafe/Canteen,1,5,,621867,5,,52.60439700000000,42150,229,health@great-yarmouth.gov.uk,Great Yarmouth,http://www.great-yarmouth.gov.uk/live/index.htm,1.72804300000000,NR30 2SQ,2013-08-02,fhrs_5_en-GB,5,,FHRS,5
18510,,Thamesfield Way,Great Yarmouth,Norfolk,The Sausage Stops,Mobile caterer,7846,5,,621813,0,,52.59923100000000,41758,229,health@great-yarmouth.gov.uk,Great Yarmouth,http://www.great-yarmouth.gov.uk/live/index.htm,1.71785400000000,NR31 0DH,2013-04-23,fhrs_5_en-GB,5,,FHRS,5
18511,,Great Yarmouth,,,The Sea Life Centre,Restaurant/Cafe/Canteen,1,0,,699979,0,,52.60143100000000,22262,229,health@great-yarmouth.gov.uk,Great Yarmouth,http://www.great-yarmouth.gov.uk/live/index.htm,1.73566500000000,NR30 3AH,2014-09-01,fhrs_5_en-GB,5,,FHRS,0
18512,,154 Beccles Road,Bradwell,Norfolk,The Sun Inn,Pub/bar/nightclub,7843,10,,621777,10,,52.57408200000000,30507,229,health@great-yarmouth.gov.uk,Great Yarmouth,http://www.great-yarmouth.gov.uk/live/index.htm,1.69918900000000,NR31 8PS,2013-11-28,fhrs_3_en-GB,3,,FHRS,5
18513,,39 St Peters Road,Great Yarmouth,Norfolk,The Tea Shop,Restaurant/Cafe/Canteen,1,5,,631453,5,,52.60262300000000,42649,229,health@great-yarmouth.gov.uk,Great Yarmouth,http://www.great-yarmouth.gov.uk/live/index.htm,1.73522000000000,NR30 3AA,2014-01-29,fhrs_5_en-GB,5,,FHRS,5
18514,,247 High Street,Gorleston,"Great Yarmouth, Norfolk",The Three Tuns,Pub/bar/nightclub,7843,5,,622014,0,,52.58435700000000,6635,229,health@great-yarmouth.gov.uk,Great Yarmouth,http://www.great-yarmouth.gov.uk/live/index.htm,1.72831900000000,NR31 6RT,2013-03-18,fhrs_5_en-GB,5,,FHRS,0
18515,,Winterton Road,Hemsby,Great Yarmouth,The Vineries,Hospitals/Childcare/Caring Premises,5,0,,622030,0,,52.69964300000000,7780,229,health@great-yarmouth.gov.uk,Great Yarmouth,http://www.great-yarmouth.gov.uk/live/index.htm,1.69270700000000,NR29 4HH,2014-01-22,fhrs_5_en-GB,5,,FHRS,5
18516,,49 Northgate Street,Great Yarmouth,Norfolk,The Wanger,Restaurant/Cafe/Canteen,1,10,,723598,5,,52.61414700000000,44051,229,health@great-yarmouth.gov.uk,Great Yarmouth,http://www.great-yarmouth.gov.uk/live/index.htm,1.72690700000000,NR30 1BJ,2014-12-02,fhrs_4_en-GB,4,,FHRS,5
18517,,19 Trafalgar Road,Great Yarmouth,Norfolk,The Warren,Hotel/bed & breakfast/guest house,7842,0,,647466,0,,52.60549500000000,32648,229,health@great-yarmouth.gov.uk,Great Yarmouth,http://www.great-yarmouth.gov.uk/live/index.htm,1.73429700000000,NR30 2LD,2014-04-03,fhrs_5_en-GB,5,,FHRS,0
18518,,32-37 Princes Road,Great Yarmouth,Norfolk,The Waverley Hotel,Hotel/bed & breakfast/guest house,7842,10,,671750,5,,52.60896300000000,18265,229,health@great-yarmouth.gov.uk,Great Yarmouth,http://www.great-yarmouth.gov.uk/live/index.htm,1.73583400000000,NR30 2DG,2014-06-05,fhrs_4_en-GB,4,,FHRS,5
18519,,Lowestoft Road,Hopton-On-Sea,Norfolk,The White Hart Public House,Pub/bar/nightclub,7843,0,,723599,5,,52.53928900000000,44052,229,health@great-yarmouth.gov.uk,Great Yarmouth,http://www.great-yarmouth.gov.uk/live/index.htm,1.72188400000000,NR31 9AH,2014-12-04,fhrs_5_en-GB,5,,FHRS,5
18520,,36-37 King Street,Great Yarmouth,Norfolk,The Yankee Traveller,Restaurant/Cafe/Canteen,1,10,,664616,5,,52.60419700000000,18569,229,health@great-yarmouth.gov.uk,Great Yarmouth,http://www.great-yarmouth.gov.uk/live/index.htm,1.72981400000000,NR30 2PN,2014-05-20,fhrs_4_en-GB,4,,FHRS,5
18521,,Market Place,Great Yarmouth,,Thompsons Chip Saloon,Takeaway/sandwich shop,7844,5,,691333,5,,52.60868500000000,43423,229,health@great-yarmouth.gov.uk,Great Yarmouth,http://www.great-yarmouth.gov.uk/live/index.htm,1.72727000000000,NR30 1NU,2014-07-25,fhrs_5_en-GB,5,,FHRS,5
18522,,26-28 Southgates Road,Great Yarmouth,Norfolk,Thompsons Food |Service,Retailers - other,4613,10,,708296,10,,52.59590300000000,43727,229,health@great-yarmouth.gov.uk,Great Yarmouth,http://www.great-yarmouth.gov.uk/live/index.htm,1.72839900000000,NR30 3LL,2014-10-02,fhrs_3_en-GB,3,,FHRS,5
18523,,,,,Thurne Sailing Regatta,Other catering premises,7841,,,621932,,,,42256,229,health@great-yarmouth.gov.uk,Great Yarmouth,http://www.great-yarmouth.gov.uk/live/index.htm,,,2013-05-24,fhrs_exempt_en-GB,Exempt,,FHRS,
18524,,68 High Street,Gorleston,Great Yarmouth,Tides Steakhouse and Grill,Restaurant/Cafe/Canteen,1,,,621907,,,52.58115000000000,42219,229,health@great-yarmouth.gov.uk,Great Yarmouth,http://www.great-yarmouth.gov.uk/live/index.htm,1.72902100000000,NR31 6RQ,2013-11-18,fhrs_5_en-GB,5,,FHRS,
18525,,Gapton Hall Road,Great Yarmouth,Norfolk,Tk Maxx,Retailers - other,4613,,,621933,,,52.59295800000000,42259,229,health@great-yarmouth.gov.uk,Great Yarmouth,http://www.great-yarmouth.gov.uk/live/index.htm,1.70707200000000,NR31 0NL,2013-06-10,fhrs_exempt_en-GB,Exempt,,FHRS,
18526,,81 Lower Cliff Road,Gorleston,Great Yarmouth,Tonys Fish Bar,Takeaway/sandwich shop,7844,10,,711778,5,,52.57280000000000,43837,229,health@great-yarmouth.gov.uk,Great Yarmouth,http://www.great-yarmouth.gov.uk/live/index.htm,1.72770700000000,NR31 6AZ,2014-10-27,fhrs_4_en-GB,4,,FHRS,5
18527,,5 St Peters Road,Great Yarmouth,Norfolk,Top Gem,Takeaway/sandwich shop,7844,5,,719518,5,,52.60284600000000,43886,229,health@great-yarmouth.gov.uk,Great Yarmouth,http://www.great-yarmouth.gov.uk/live/index.htm,1.73017100000000,NR30 3AU,2014-10-27,fhrs_4_en-GB,4,,FHRS,10
18528,,15 Trafalgar Road,Great Yarmouth,Norfolk,Trafalgar Lodge,Hotel/bed & breakfast/guest house,7842,5,,664614,0,,52.60549500000000,18389,229,health@great-yarmouth.gov.uk,Great Yarmouth,http://www.great-yarmouth.gov.uk/live/index.htm,1.73429700000000,NR30 2LD,2014-05-07,fhrs_5_en-GB,5,,FHRS,0
18529,,Guinevere Road,Gorleston,Great Yarmouth,Travelodge Great Yarmouth,Hotel/bed & breakfast/guest house,7842,0,,621934,0,,52.55628100000000,42260,229,health@great-yarmouth.gov.uk,Great Yarmouth,http://www.great-yarmouth.gov.uk/live/index.htm,1.71584100000000,NR31 7RW,2013-02-08,fhrs_5_en-GB,5,,FHRS,0
18530,,7-9 Regent Road,Great Yarmouth,Norfolk,Troll Cart,Pub/bar/nightclub,7843,0,,664618,0,,52.60748800000000,19182,229,health@great-yarmouth.gov.uk,Great Yarmouth,http://www.great-yarmouth.gov.uk/live/index.htm,1.73041900000000,NR30 2AF,2014-04-29,fhrs_5_en-GB,5,,FHRS,0
18531,,128-129 King Street,Great Yarmouth,Norfolk,Tropical Cafe,Restaurant/Cafe/Canteen,1,,,638017,,,52.60393600000000,42785,229,health@great-yarmouth.gov.uk,Great Yarmouth,http://www.great-yarmouth.gov.uk/live/index.htm,1.72926000000000,NR30 2PQ,2014-11-13,fhrs_4_en-GB,4,,FHRS,
18532,,2 North Drive,Great Yarmouth,Norfolk,Trotwood Private Hotel,Hotel/bed & breakfast/guest house,7842,5,,621727,5,,52.61184100000000,18269,229,health@great-yarmouth.gov.uk,Great Yarmouth,http://www.great-yarmouth.gov.uk/live/index.htm,1.73726100000000,NR30 1ED,2013-06-21,fhrs_5_en-GB,5,,FHRS,0
18533,,11 Trafalgar Road,Great Yarmouth,Norfolk,Tudor Guest House,Hotel/bed & breakfast/guest house,7842,5,,691323,5,,52.60549500000000,18392,229,health@great-yarmouth.gov.uk,Great Yarmouth,http://www.great-yarmouth.gov.uk/live/index.htm,1.73429700000000,NR30 2LD,2014-08-04,fhrs_5_en-GB,5,,FHRS,5
18534,,72 St Peters Road,Great Yarmouth,Norfolk,Tudor Takeaway,Restaurant/Cafe/Canteen,1,10,,621740,10,,52.60276500000000,18902,229,health@great-yarmouth.gov.uk,Great Yarmouth,http://www.great-yarmouth.gov.uk/live/index.htm,1.73215900000000,NR30 3AY,2013-03-22,fhrs_3_en-GB,3,,FHRS,10
18535,,64 Marine Parade,Great Yarmouth,Norfolk,UK Express Kebab,Takeaway/sandwich shop,7844,10,,621858,5,,52.60687300000000,42134,229,health@great-yarmouth.gov.uk,Great Yarmouth,http://www.great-yarmouth.gov.uk/live/index.htm,1.73621700000000,NR30 2EJ,2013-01-15,fhrs_4_en-GB,4,,FHRS,5
18536,,32-33 St Peters Road,Great Yarmouth,Norfolk,V-Namese Restaurant,Restaurant/Cafe/Canteen,1,10,,621812,15,,52.60268200000000,41414,229,health@great-yarmouth.gov.uk,Great Yarmouth,http://www.great-yarmouth.gov.uk/live/index.htm,1.73393900000000,NR30 3BQ,2013-09-26,fhrs_2_en-GB,2,,FHRS,15
18537,,38-39 Trafalgar Road East,Gorleston,Great Yarmouth,Waterloo Stores,Retailers - other,4613,10,,631454,15,,52.59300300000000,42659,229,health@great-yarmouth.gov.uk,Great Yarmouth,http://www.great-yarmouth.gov.uk/live/index.htm,1.73051600000000,NR30 3DY,2014-01-08,fhrs_2_en-GB,2,,FHRS,5
18538,,62 Wellesley Road,Great Yarmouth,Norfolk,Wellesley Park Hotel,Hotel/bed & breakfast/guest house,7842,10,,621935,5,,52.61240000000000,42261,229,health@great-yarmouth.gov.uk,Great Yarmouth,http://www.great-yarmouth.gov.uk/live/index.htm,1.73467900000000,NR30 1EX,2013-07-22,fhrs_4_en-GB,4,,FHRS,5
18539,,Howard Street South,Great Yarmouth,Norfolk,Westwick Coffee Shop,Restaurant/Cafe/Canteen,1,5,,661374,0,,52.60610700000000,42796,229,health@great-yarmouth.gov.uk,Great Yarmouth,http://www.great-yarmouth.gov.uk/live/index.htm,1.72601600000000,NR30 2PU,2014-03-11,fhrs_5_en-GB,5,,FHRS,0
18540,,South Beach Parade,Great Yarmouth,Norfolk,Wharfe Restaurant,Restaurant/Cafe/Canteen,1,10,,621961,5,,52.59450700000000,42329,229,health@great-yarmouth.gov.uk,Great Yarmouth,http://www.great-yarmouth.gov.uk/live/index.htm,1.73615300000000,NR30 3EH,2013-09-18,fhrs_4_en-GB,4,,FHRS,0
18541,,Beccles Road,Gorleston,Great Yarmouth,White Horse Service Station,Retailers - other,4613,0,,631432,0,,52.58494200000000,1333,229,health@great-yarmouth.gov.uk,Great Yarmouth,http://www.great-yarmouth.gov.uk/live/index.htm,1.72287500000000,NR31 8BL,2014-02-04,fhrs_5_en-GB,5,,FHRS,5
18542,,1 North Quay,Great Yarmouth,Norfolk,White Swan,Pub/bar/nightclub,7843,5,,624710,0,,52.61435600000000,19197,229,health@great-yarmouth.gov.uk,Great Yarmouth,http://www.great-yarmouth.gov.uk/live/index.htm,1.72426500000000,NR30 1PU,2014-01-08,fhrs_5_en-GB,5,,FHRS,0
18543,,Howards Common,Belton,Great Yarmouth,Wild Duck Holiday Park,Restaurant/Cafe/Canteen,1,0,,688983,10,,52.56397900000000,33492,229,health@great-yarmouth.gov.uk,Great Yarmouth,http://www.great-yarmouth.gov.uk/live/index.htm,1.65209400000000,NR31 9NE,2014-07-23,fhrs_4_en-GB,4,,FHRS,0
18544,,High Street,Gorleston,"Great Yarmouth, Norfolk",Wilko Gorleston,Retailers - other,4613,0,,621798,0,,52.58084500000000,35558,229,health@great-yarmouth.gov.uk,Great Yarmouth,http://www.great-yarmouth.gov.uk/live/index.htm,1.72815400000000,NR31 6RL,2013-01-07,fhrs_5_en-GB,5,,FHRS,0
18545,,26 Trafalgar Road,Great Yarmouth,Norfolk,Willow Guest House,Hotel/bed & breakfast/guest house,7842,5,,703649,0,,52.60549500000000,18384,229,health@great-yarmouth.gov.uk,Great Yarmouth,http://www.great-yarmouth.gov.uk/live/index.htm,1.73429700000000,NR30 2LD,2014-09-05,fhrs_5_en-GB,5,,FHRS,5
18546,,13 Sandown Road,Great Yarmouth,,Willow Tree Lodge,Hotel/bed & breakfast/guest house,7842,5,,671768,5,,52.61382200000000,43146,229,health@great-yarmouth.gov.uk,Great Yarmouth,http://www.great-yarmouth.gov.uk/live/index.htm,1.73550900000000,NR30 1EY,2014-05-20,fhrs_5_en-GB,5,,FHRS,5
18547,,12 Euston Road,Great Yarmouth,Norfolk,Winchester Private Hotel,Hotel/bed & breakfast/guest house,7842,0,,621728,5,,52.60974000000000,18276,229,health@great-yarmouth.gov.uk,Great Yarmouth,http://www.great-yarmouth.gov.uk/live/index.htm,1.73545700000000,NR30 1DY,2013-08-12,fhrs_5_en-GB,5,,FHRS,0
18548,,190 Northgate Street,Great Yarmouth,Norfolk,Windmill Chinese Takeaway,Takeaway/sandwich shop,7844,10,,638012,5,,52.61477000000000,18907,229,health@great-yarmouth.gov.uk,Great Yarmouth,http://www.great-yarmouth.gov.uk/live/index.htm,1.72768400000000,NR30 1DA,2014-03-06,fhrs_2_en-GB,2,,FHRS,15
18549,,Main Rd,Rollesby,Great Yarmouth,Windmill Nursing Home,Hospitals/Childcare/Caring Premises,5,10,,621713,5,,52.68737600000000,11460,229,health@great-yarmouth.gov.uk,Great Yarmouth,http://www.great-yarmouth.gov.uk/live/index.htm,1.62308000000000,NR29 5ER,2014-10-08,fhrs_4_en-GB,4,,FHRS,5
18550,,30-32 King Street,Great Yarmouth,,Wing Li Takeaway,Takeaway/sandwich shop,7844,5,,661371,15,,52.60628100000000,24057,229,health@great-yarmouth.gov.uk,Great Yarmouth,http://www.great-yarmouth.gov.uk/live/index.htm,1.72820300000000,NR30 2NZ,2014-04-30,fhrs_2_en-GB,2,,FHRS,5
18551,,Beach Road,Winterton-On-Sea,Norfolk,Winterton Fish Bar,Takeaway/sandwich shop,7844,0,,711776,0,,52.71589900000000,43835,229,health@great-yarmouth.gov.uk,Great Yarmouth,http://www.great-yarmouth.gov.uk/live/index.htm,1.69346000000000,NR29 4AJ,2014-10-23,fhrs_5_en-GB,5,,FHRS,5
18552,,Church Walk,Bradwell,Great Yarmouth,Woodlands Primary School,School/college/university,7845,0,,621805,0,,52.57425400000000,3845,229,health@great-yarmouth.gov.uk,Great Yarmouth,http://www.great-yarmouth.gov.uk/live/index.htm,1.69165900000000,NR31 8QQ,2013-03-25,fhrs_5_en-GB,5,,FHRS,5
18553,,49 Wellesley Road,Great Yarmouth,Norfolk,Woods End Hotel,Hotel/bed & breakfast/guest house,7842,5,,711767,5,,52.61240000000000,18399,229,health@great-yarmouth.gov.uk,Great Yarmouth,http://www.great-yarmouth.gov.uk/live/index.htm,1.73467900000000,NR30 1EX,2014-10-17,fhrs_5_en-GB,5,,FHRS,5
18554,,,,,Wright Start Childminding,Hospitals/Childcare/Caring Premises,5,5,,664628,0,,,43052,229,health@great-yarmouth.gov.uk,Great Yarmouth,http://www.great-yarmouth.gov.uk/live/index.htm,,,2014-05-21,fhrs_5_en-GB,5,,FHRS,0
18555,,Beccles Road,Gorleston,Great Yarmouth,Wroughton Infant School,School/college/university,7845,0,,622021,0,,52.58358500000000,6780,229,health@great-yarmouth.gov.uk,Great Yarmouth,http://www.great-yarmouth.gov.uk/live/index.htm,1.71682400000000,NR31 8AH,2013-03-25,fhrs_5_en-GB,5,,FHRS,0
18556,,The Crescent,Hemsby,Great Yarmouth,Xiu Yan Wu,Takeaway/sandwich shop,7844,5,,708300,10,,52.69455500000000,7742,229,health@great-yarmouth.gov.uk,Great Yarmouth,http://www.great-yarmouth.gov.uk/live/index.htm,1.70669700000000,NR29 4JF,2014-10-15,fhrs_4_en-GB,4,,FHRS,5
18557,,Fishers Opening,Great Yarmouth,Norfolk,Yarmouth Meat Traders,Retailers - other,4613,0,,621970,0,,52.60885500000000,42384,229,health@great-yarmouth.gov.uk,Great Yarmouth,http://www.great-yarmouth.gov.uk/live/index.htm,1.72842200000000,NR30 2EY,2015-02-05,fhrs_5_en-GB,5,,FHRS,0
18558,,Yarmouth Road,West Caister,Norfolk,Yarmouth Stadium,Restaurant/Cafe/Canteen,1,,,664634,,,52.63709000000000,4448,229,health@great-yarmouth.gov.uk,Great Yarmouth,http://www.great-yarmouth.gov.uk/live/index.htm,1.72641900000000,NR30 5TE,2014-11-26,fhrs_5_en-GB,5,,FHRS,
18559,,147 King Street,Great Yarmouth,Norfolk,Yarmouth Way Stores,Retailers - other,4613,20,,624711,15,,52.60578500000000,38395,229,health@great-yarmouth.gov.uk,Great Yarmouth,http://www.great-yarmouth.gov.uk/live/index.htm,1.72795400000000,NR30 2PA,2014-01-14,fhrs_1_en-GB,1,,FHRS,0
18560,,39 High Street,Caister-On-Sea,Norfolk,Ye Olde Bakery,Retailers - other,4613,,,622000,,,52.64728000000000,4419,229,health@great-yarmouth.gov.uk,Great Yarmouth,http://www.great-yarmouth.gov.uk/live/index.htm,1.72787800000000,NR30 5EL,2013-11-19,fhrs_4_en-GB,4,,FHRS,
18561,,34 Marine Parade,Great Yarmouth,Norfolk,Yesterday's World,Restaurant/Cafe/Canteen,1,5,,699980,10,,52.60448200000000,34465,229,health@great-yarmouth.gov.uk,Great Yarmouth,http://www.great-yarmouth.gov.uk/live/index.htm,1.73589500000000,NR30 2EN,2014-09-01,fhrs_4_en-GB,4,,FHRS,5
18562,,4 Bell Lane,Belton,"Belton With Browston, Norfolk",Youngs Chinese Takeaway,Takeaway/sandwich shop,7844,10,,647467,10,,52.56829700000000,3390,229,health@great-yarmouth.gov.uk,Great Yarmouth,http://www.great-yarmouth.gov.uk/live/index.htm,1.66570900000000,NR31 9LD,2014-04-09,fhrs_3_en-GB,3,,FHRS,5
18563,,93 Magdalen Way,Gorleston,"Great Yarmouth, Norfolk",Yummies Kebab,Takeaway/sandwich shop,7844,,,621771,,,52.57371500000000,27421,229,health@great-yarmouth.gov.uk,Great Yarmouth,http://www.great-yarmouth.gov.uk/live/index.htm,1.71463000000000,NR31 7AA,2013-06-03,fhrs_4_en-GB,4,,FHRS,
