,addressline1,addressline2,addressline3,addressline4,businessname,businesstype,businesstypeid,confidenceinmanagement,extractdate,fhrsid,hygiene,itemcount,latitude,localauthoritybusinessid,localauthoritycode,localauthorityemailaddress,localauthorityname,localauthoritywebsite,longitude,postcode,ratingdate,ratingkey,ratingvalue,returncode,schemetype,structural
50244,Seven Day Catering,Corus Tubes,Weldon Road,Corby,7 Day Catering Ltd,Restaurant/Cafe/Canteen,1,0,,404323,5,,52.49476800000000,11/00059/FOODHS,235,env.health@corby.gov.uk,Corby,http://www.corby.gov.uk/Pages/Welcome.aspx,-0.67798000000000,NN17 5UA,2013-06-14,fhrs_5_en-GB,5,,FHRS,5
50245,Stuart Road,Corby,Northamptonshire,,A B C Nursery,Restaurant/Cafe/Canteen,1,10,,10982,10,,52.48760200000000,04/00393/FOODHS,235,env.health@corby.gov.uk,Corby,http://www.corby.gov.uk/Pages/Welcome.aspx,-0.69657500000000,NN17 1RL,2014-08-27,fhrs_3_en-GB,3,,FHRS,10
50246,Gospoda U Braci,95 Occupation Road,Corby,Northamptonshire,A Taste Of Poland,Restaurant/Cafe/Canteen,1,10,,404341,10,,52.49542200000000,12/00001/FOODHS,235,env.health@corby.gov.uk,Corby,http://www.corby.gov.uk/Pages/Welcome.aspx,-0.69730100000000,NN17 1EE,2013-08-15,fhrs_3_en-GB,3,,FHRS,10
50247,Commercial Road,Corby,Northamptonshire,,AAA Leisure Zone,Restaurant/Cafe/Canteen,1,10,,589423,10,,52.49048500000000,13/00044/FOODHS,235,env.health@corby.gov.uk,Corby,http://www.corby.gov.uk/Pages/Welcome.aspx,-0.67688600000000,NN17 5XG,2013-09-16,fhrs_4_en-GB,4,,FHRS,0
50248,Arnsley Road,Corby,Northamptonshire,,Adrenalin Alley,Restaurant/Cafe/Canteen,1,0,,30136,0,,52.50236500000000,09/00150/FOODHS,235,env.health@corby.gov.uk,Corby,http://www.corby.gov.uk/Pages/Welcome.aspx,-0.64775700000000,NN17 5JG,2013-02-26,fhrs_4_en-GB,4,,FHRS,10
50249,Aldi Foodstore Ltd,Dalton Road,Corby,Northamptonshire,Aldi,Retailers - other,4613,0,,10102,0,,52.50703900000000,04/00124/FOODHS,235,env.health@corby.gov.uk,Corby,http://www.corby.gov.uk/Pages/Welcome.aspx,-0.70395700000000,NN17 4AE,2011-09-02,fhrs_5_en-GB,5,,FHRS,0
50250,Alis Balti,9 Pytchley Court,Corby,Northamptonshire,Ali's Balti,Restaurant/Cafe/Canteen,1,10,,10049,5,,52.49779200000000,04/00114/FOODHS,235,env.health@corby.gov.uk,Corby,http://www.corby.gov.uk/Pages/Welcome.aspx,-0.72165500000000,NN17 2QD,2014-06-04,fhrs_4_en-GB,4,,FHRS,5
50251,AAA Leisure Zone,Commercial Road,Corby,Northamptonshire,Alpha Bravo Paintball,Restaurant/Cafe/Canteen,1,5,,621303,5,,52.49048500000000,13/00043/FOODHS,235,env.health@corby.gov.uk,Corby,http://www.corby.gov.uk/Pages/Welcome.aspx,-0.67688600000000,NN17 5XG,2013-10-22,fhrs_5_en-GB,5,,FHRS,0
50252,The Paper Shop,10 New Post Office Square,Corby,Northamptonshire,Amanda,Retailers - other,4613,5,,589426,5,,52.48829200000000,13/00052/FOODHS,235,env.health@corby.gov.uk,Corby,http://www.corby.gov.uk/Pages/Welcome.aspx,-0.70050200000000,NN17 1PB,2013-08-21,fhrs_4_en-GB,4,,FHRS,10
50253,84 - 86 Stephenson Way,Corby,Northamptonshire,,Ann Tee-Boon,Restaurant/Cafe/Canteen,1,5,,621304,5,,52.49680200000000,13/00063/FOODC,235,env.health@corby.gov.uk,Corby,http://www.corby.gov.uk/Pages/Welcome.aspx,-0.68381100000000,NN17 1DB,2013-10-11,fhrs_5_en-GB,5,,FHRS,0
50254,Asda Superstore,Phoenix Park Way,Corby,Northamptonshire,Asda Staff Canteen,Restaurant/Cafe/Canteen,1,10,,492755,10,,52.49542600000000,12/00093/FOODHS,235,env.health@corby.gov.uk,Corby,http://www.corby.gov.uk/Pages/Welcome.aspx,-0.68221700000000,NN17 5DT,2014-08-29,fhrs_3_en-GB,3,,FHRS,10
50255,Asda Superstore,Phoenix Park Way,Corby,Northamptonshire,Asda Superstore (Fresh Goods),Retailers - other,4613,5,,404312,5,,52.49542600000000,11/00024/FOODHS,235,env.health@corby.gov.uk,Corby,http://www.corby.gov.uk/Pages/Welcome.aspx,-0.68221700000000,NN17 5DT,2013-08-23,fhrs_5_en-GB,5,,FHRS,5
50256,Asda Superstore,Phoenix Park Way,Corby,Northamptonshire,Asda Superstores Ltd (Store),Retailers - other,4613,0,,11409,0,,52.49542600000000,04/00632/FOODHS,235,env.health@corby.gov.uk,Corby,http://www.corby.gov.uk/Pages/Welcome.aspx,-0.68221700000000,NN17 5DT,2011-03-09,fhrs_5_en-GB,5,,FHRS,0
50257,Exeter Community Centre,Counts Farm Road,Corby,Northamptonshire,Autumn Centre,Restaurant/Cafe/Canteen,1,0,,17936,5,,52.48238900000000,06/00048/FOODHS,235,env.health@corby.gov.uk,Corby,http://www.corby.gov.uk/Pages/Welcome.aspx,-0.69836400000000,NN18 8BJ,2013-11-28,fhrs_5_en-GB,5,,FHRS,0
50258,Kingswood Primary School,Southbrook,Corby,Northamptonshire,Avenue Nurseries,Restaurant/Cafe/Canteen,1,0,,536960,0,,52.47824700000000,12/00085/FOODHS,235,env.health@corby.gov.uk,Corby,http://www.corby.gov.uk/Pages/Welcome.aspx,-0.72254600000000,NN18 9BE,2013-01-15,fhrs_5_en-GB,5,,FHRS,0
50259,Corby Indoor Market,Deene House,New Post Office Square,Corby,Azima Afro Caribbean Products,Retailers - other,4613,5,,33037,5,,52.48829200000000,10/00020/FOODHS,235,env.health@corby.gov.uk,Corby,http://www.corby.gov.uk/Pages/Welcome.aspx,-0.70050200000000,NN17 1PB,2010-02-02,fhrs_5_en-GB,5,,FHRS,5
50260,,,,,B & J's Catering,Restaurant/Cafe/Canteen,1,5,,18012,5,,,06/00058/FOODHS,235,env.health@corby.gov.uk,Corby,http://www.corby.gov.uk/Pages/Welcome.aspx,,,2011-01-18,fhrs_4_en-GB,4,,FHRS,10
50261,B And P Off Licence,6 Pytchley Court,Corby,Northamptonshire,B & P Off Licence,Retailers - other,4613,5,,11344,5,,52.49779200000000,04/00579/FOODHS,235,env.health@corby.gov.uk,Corby,http://www.corby.gov.uk/Pages/Welcome.aspx,-0.72165500000000,NN17 2QD,2010-02-18,fhrs_4_en-GB,4,,FHRS,10
50262,Lloyds Road,Corby,Northamptonshire,,B And M Stores,Retailers - other,4613,5,,574034,5,,52.49251700000000,13/00042/FOODHS,235,env.health@corby.gov.uk,Corby,http://www.corby.gov.uk/Pages/Welcome.aspx,-0.68258400000000,NN17 1AP,2013-06-25,fhrs_5_en-GB,5,,FHRS,5
50263,19 High Street,Corby,Northamptonshire,,Bannigans,Restaurant/Cafe/Canteen,1,0,,9870,0,,52.49039200000000,04/00077/FOODHS,235,env.health@corby.gov.uk,Corby,http://www.corby.gov.uk/Pages/Welcome.aspx,-0.68468000000000,NN17 1UX,2013-09-11,fhrs_5_en-GB,5,,FHRS,0
50264,The Village Inn,Lloyds Road,Corby,Northamptonshire,Barny Sarny,Restaurant/Cafe/Canteen,1,10,,684089,5,,52.49251700000000,14/00034/FOODHS,235,env.health@corby.gov.uk,Corby,http://www.corby.gov.uk/Pages/Welcome.aspx,-0.68258400000000,NN17 1AP,2014-02-26,fhrs_3_en-GB,3,,FHRS,10
50265,The Oakley Hay,2 Little Colliers Field,Corby,Northamptonshire,Beefeater Oakley Hay,Restaurant/Cafe/Canteen,1,5,,25114,0,,52.45913800000000,08/00045/FOODHS,235,env.health@corby.gov.uk,Corby,http://www.corby.gov.uk/Pages/Welcome.aspx,-0.73553500000000,NN18 8TJ,2013-11-20,fhrs_5_en-GB,5,,FHRS,5
50266,The Best Western Rockingham Forest,Rockingham Road,Corby,Northamptonshire,Best Western Rockingham Forest Hotel,Restaurant/Cafe/Canteen,1,20,,11334,15,,52.49672500000000,04/00573/FOODHS,235,env.health@corby.gov.uk,Corby,http://www.corby.gov.uk/Pages/Welcome.aspx,-0.68745200000000,NN17 1AE,2014-03-05,fhrs_1_en-GB,1,,FHRS,15
50267,,,,,Betty Bakes,Restaurant/Cafe/Canteen,1,5,,404318,5,,,11/00050/FOODC,235,env.health@corby.gov.uk,Corby,http://www.corby.gov.uk/Pages/Welcome.aspx,,,2011-12-16,fhrs_5_en-GB,5,,FHRS,0
50268,47 Queens Square,Corby,Northamptonshire,,Bewitched,Restaurant/Cafe/Canteen,1,5,,696612,0,,52.48658500000000,14/00072/FOODHS,235,env.health@corby.gov.uk,Corby,http://www.corby.gov.uk/Pages/Welcome.aspx,-0.70061100000000,NN17 1PD,2014-08-04,fhrs_5_en-GB,5,,FHRS,5
50269,Max Park Unit A,Bangrave Road South,Weldon,Corby,Bibby Distribution,Distributors/Transporters,7,5,,629200,5,,52.49081700000000,13/00056/FOODHS,235,env.health@corby.gov.uk,Corby,http://www.corby.gov.uk/Pages/Welcome.aspx,-0.65054100000000,NN17 1NN,2013-12-18,fhrs_5_en-GB,5,,FHRS,5
50270,,,,,Big Bs Ices,Restaurant/Cafe/Canteen,1,0,,33232,0,,,10/00032/FOODHS,235,env.health@corby.gov.uk,Corby,http://www.corby.gov.uk/Pages/Welcome.aspx,,,2010-09-07,fhrs_5_en-GB,5,,FHRS,0
50271,,,,,Big John's Catering,Restaurant/Cafe/Canteen,1,5,,17886,5,,,06/00043/FOODHS,235,env.health@corby.gov.uk,Corby,http://www.corby.gov.uk/Pages/Welcome.aspx,,,2011-01-18,fhrs_5_en-GB,5,,FHRS,5
50272,Gefco Uk Ltd,2 Geddington Road,Corby,Northamptonshire,Big Jon's Catering,Restaurant/Cafe/Canteen,1,10,,536961,15,,52.48535500000000,13/00004/FOODHS,235,env.health@corby.gov.uk,Corby,http://www.corby.gov.uk/Pages/Welcome.aspx,-0.66521400000000,NN18 8EZ,2013-01-07,fhrs_2_en-GB,2,,FHRS,5
50273,Corby Road,Cottingham,Market Harborough,Leicestershire,Blackthorn Wood Golf Complex,Restaurant/Cafe/Canteen,1,5,,29094,5,,52.49594300000000,09/00052/FOODHS,235,env.health@corby.gov.uk,Corby,http://www.corby.gov.uk/Pages/Welcome.aspx,-0.74214000000000,LE16 8XJ,2014-02-06,fhrs_5_en-GB,5,,FHRS,0
50274,The Blue Bell Inn,90 High Street,Gretton,Corby,Bluebell Public House,Restaurant/Cafe/Canteen,1,5,,10584,0,,52.53716400000000,04/00243/FOODHS,235,env.health@corby.gov.uk,Corby,http://www.corby.gov.uk/Pages/Welcome.aspx,-0.67535100000000,NN17 3DF,2011-11-15,fhrs_5_en-GB,5,,FHRS,5
50275,Boating Lake Cafe,Cottingham Road,Corby,Northamptonshire,Boating Lake,Restaurant/Cafe/Canteen,1,5,,9975,5,,52.53004600000000,04/00098/FOODHS,235,env.health@corby.gov.uk,Corby,http://www.corby.gov.uk/Pages/Welcome.aspx,-0.64309900000000,NN17 1QQ,2014-11-29,fhrs_5_en-GB,5,,FHRS,5
50276,76 George Street,Corby,Northamptonshire,,Bombay Dynasty,Restaurant/Cafe/Canteen,1,5,,9547,5,,52.48929300000000,04/00026/FOODHS,235,env.health@corby.gov.uk,Corby,http://www.corby.gov.uk/Pages/Welcome.aspx,-0.70405100000000,NN17 1QE,2013-06-25,fhrs_5_en-GB,5,,FHRS,5
50277,3 The Peel Centre,Phoenix Park Way,Corby,Northamptonshire,Boots,Retailers - other,4613,0,,492751,0,,52.49542600000000,12/00086/FOODHS,235,env.health@corby.gov.uk,Corby,http://www.corby.gov.uk/Pages/Welcome.aspx,-0.68221700000000,NN17 5DT,2012-10-30,fhrs_5_en-GB,5,,FHRS,0
50278,Lloyds Pharmacy Ltd,4 Charter Court,Corby,Northamptonshire,Boots,Retailers - other,4613,0,,21767,5,,52.47343900000000,07/00064/HS,235,env.health@corby.gov.uk,Corby,http://www.corby.gov.uk/Pages/Welcome.aspx,-0.70702000000000,NN18 8QT,2011-04-14,fhrs_5_en-GB,5,,FHRS,5
50279,Boots The Chemist,44 Queens Square,Corby,Northamptonshire,Boots Chemists,Retailers - other,4613,,,11384,,,52.48672400000000,04/00610/FOODHS,235,env.health@corby.gov.uk,Corby,http://www.corby.gov.uk/Pages/Welcome.aspx,-0.70013600000000,NN17 1PD,2012-03-28,fhrs_exempt_en-GB,Exempt,,FHRS,
50280,113 Welland Vale Road,Corby,Northamptonshire,,BoozeBuster,Retailers - other,4613,5,,10921,5,,52.50193000000000,04/00364/FOODHS,235,env.health@corby.gov.uk,Corby,http://www.corby.gov.uk/Pages/Welcome.aspx,-0.70867400000000,NN17 2AW,2010-03-15,fhrs_4_en-GB,4,,FHRS,10
50281,183 Farmstead Road,Corby,Northamptonshire,,BoozeBuster,Retailers - other,4613,5,,10918,5,,52.48806000000000,04/00363/FOODHS,235,env.health@corby.gov.uk,Corby,http://www.corby.gov.uk/Pages/Welcome.aspx,-0.72541300000000,NN18 0LL,2010-12-08,fhrs_5_en-GB,5,,FHRS,5
50282,Fourways Filling Station,Cottingham Road,Corby,Northamptonshire,BP Express Shopping Ltd,Retailers - other,4613,0,,10782,0,,52.49248500000000,04/00306/FOODHS,235,env.health@corby.gov.uk,Corby,http://www.corby.gov.uk/Pages/Welcome.aspx,-0.72646400000000,NN18 0TW,2014-12-22,fhrs_5_en-GB,5,,FHRS,0
50283,28 Corporation Street,Corby,Northamptonshire,,Bradburys Family Butchers,Manufacturers/packers,7839,5,,30141,5,,52.48794200000000,09/00151/FOODHS,235,env.health@corby.gov.uk,Corby,http://www.corby.gov.uk/Pages/Welcome.aspx,-0.70135100000000,NN17 1NJ,2014-10-30,fhrs_4_en-GB,4,,FHRS,10
50284,15 The Avenue,Weldon,Corby,Northamptonshire,Bridget Watts Coffee Ltd,Restaurant/Cafe/Canteen,1,5,,684093,5,,52.50590100000000,14/00043/FOODC,235,env.health@corby.gov.uk,Corby,http://www.corby.gov.uk/Pages/Welcome.aspx,-0.63861600000000,NN17 5EP,2014-04-24,fhrs_5_en-GB,5,,FHRS,0
50285,30 Little Colliers Field,Corby,Northamptonshire,,Brobot Petroleum Ltd,Retailers - other,4613,5,,492741,0,,52.45913800000000,12/00027/FOODHS,235,env.health@corby.gov.uk,Corby,http://www.corby.gov.uk/Pages/Welcome.aspx,-0.73553500000000,NN18 8TJ,2014-12-15,fhrs_5_en-GB,5,,FHRS,5
50286,27 Willow Place,Corby,Northamptonshire,,Burger King,Restaurant/Cafe/Canteen,1,0,,33895,0,,52.48672500000000,10/00073/FOODHS,235,env.health@corby.gov.uk,Corby,http://www.corby.gov.uk/Pages/Welcome.aspx,-0.70187300000000,NN17 1BH,2014-12-15,fhrs_5_en-GB,5,,FHRS,0
50287,,,,,Burger Me,Restaurant/Cafe/Canteen,1,10,,29260,10,,,09/00066/FOODHS,235,env.health@corby.gov.uk,Corby,http://www.corby.gov.uk/Pages/Welcome.aspx,,,2013-08-29,fhrs_4_en-GB,4,,FHRS,0
50288,1 Charter Court,Corby,Northamptonshire,,Busy Bee Nursery,Restaurant/Cafe/Canteen,1,5,,17988,5,,52.47343900000000,06/00055/FOODHS,235,env.health@corby.gov.uk,Corby,http://www.corby.gov.uk/Pages/Welcome.aspx,-0.70702000000000,NN18 8QT,2013-08-28,fhrs_5_en-GB,5,,FHRS,5
50289,,,,,Butterscotch Pattisserie,Restaurant/Cafe/Canteen,1,5,,684092,5,,,14/00042/FOODC,235,env.health@corby.gov.uk,Corby,http://www.corby.gov.uk/Pages/Welcome.aspx,,,2014-01-21,fhrs_5_en-GB,5,,FHRS,5
50290,40 George Street,Corby,Northamptonshire,,Cabbies,Retailers - other,4613,5,,9437,5,,52.48803300000000,04/00012/FOODHS,235,env.health@corby.gov.uk,Corby,http://www.corby.gov.uk/Pages/Welcome.aspx,-0.70314600000000,NN17 1QD,2011-03-08,fhrs_4_en-GB,4,,FHRS,10
50291,10 Spencer Court,Corby,Northamptonshire,,Cafe Con Leche,Restaurant/Cafe/Canteen,1,20,,560429,10,,52.48736600000000,13/00038/FOODHS,235,env.health@corby.gov.uk,Corby,http://www.corby.gov.uk/Pages/Welcome.aspx,-0.70135400000000,NN17 1NU,2014-09-25,fhrs_1_en-GB,1,,FHRS,10
50292,Corby Indoor Market,Deene House,New Post Office Square,Corby,Cafe Mitchell,Restaurant/Cafe/Canteen,1,5,,684085,5,,52.48829200000000,14/00020/FOODHS,235,env.health@corby.gov.uk,Corby,http://www.corby.gov.uk/Pages/Welcome.aspx,-0.70050200000000,NN17 1PB,2014-02-12,fhrs_5_en-GB,5,,FHRS,5
50293,1A Wood Street,Corby,Northamptonshire,,Cafe Mozart,Restaurant/Cafe/Canteen,1,10,,29467,5,,52.48934400000000,09/00083/FOODHS,235,env.health@corby.gov.uk,Corby,http://www.corby.gov.uk/Pages/Welcome.aspx,-0.70379900000000,NN17 1PT,2013-12-09,fhrs_3_en-GB,3,,FHRS,10
50294,13 Corporation Street,Corby,Northamptonshire,,Cafe Royale Bistro,Restaurant/Cafe/Canteen,1,5,,30108,5,,52.48749200000000,09/00147/FOODHS,235,env.health@corby.gov.uk,Corby,http://www.corby.gov.uk/Pages/Welcome.aspx,-0.70054000000000,NN17 1NG,2014-12-08,fhrs_5_en-GB,5,,FHRS,5
50295,,,,,Cakes By Kate,Restaurant/Cafe/Canteen,1,10,,435360,0,,,12/00021/FOODC,235,env.health@corby.gov.uk,Corby,http://www.corby.gov.uk/Pages/Welcome.aspx,,,2012-05-17,fhrs_4_en-GB,4,,FHRS,0
50296,182 Gainsborough Road,Corby,Northamptonshire,,Cardamon,Restaurant/Cafe/Canteen,1,10,,404342,10,,52.48386500000000,12/00002/FOODHS,235,env.health@corby.gov.uk,Corby,http://www.corby.gov.uk/Pages/Welcome.aspx,-0.70915900000000,NN18 0RQ,2014-02-24,fhrs_3_en-GB,3,,FHRS,10
50297,The Cardigan Arms,9 The Jamb,Corby,Northamptonshire,Cardigan Arms Public House,Restaurant/Cafe/Canteen,1,5,,10431,5,,52.49097900000000,04/00196/FOODHS,235,env.health@corby.gov.uk,Corby,http://www.corby.gov.uk/Pages/Welcome.aspx,-0.68330800000000,NN17 1AY,2013-04-17,fhrs_5_en-GB,5,,FHRS,5
50298,,,,,Carol Amos,Restaurant/Cafe/Canteen,1,0,,684090,0,,,14/00039/FOODC,235,env.health@corby.gov.uk,Corby,http://www.corby.gov.uk/Pages/Welcome.aspx,,,2014-01-17,fhrs_5_en-GB,5,,FHRS,0
50299,Burghley Drive Post Office,44 - 46 Burghley Drive,Corby,Northamptonshire,Cash Stores,Retailers - other,4613,10,,9857,10,,52.48180200000000,04/00075/FOODHS,235,env.health@corby.gov.uk,Corby,http://www.corby.gov.uk/Pages/Welcome.aspx,-0.69487600000000,NN18 8EB,2013-05-29,fhrs_3_en-GB,3,,FHRS,10
50300,Buckingham Bingo,George Street,Corby,Northamptonshire,Castle Bingo,Restaurant/Cafe/Canteen,1,5,,9617,0,,52.48938300000000,04/00035/FOODHS,235,env.health@corby.gov.uk,Corby,http://www.corby.gov.uk/Pages/Welcome.aspx,-0.70406300000000,NN17 1QE,2013-10-31,fhrs_5_en-GB,5,,FHRS,5
50301,83 Occupation Road,Corby,Northamptonshire,,Castle Kebab House,Restaurant/Cafe/Canteen,1,,,18223,,,52.49542200000000,06/00089/FOODHS,235,env.health@corby.gov.uk,Corby,http://www.corby.gov.uk/Pages/Welcome.aspx,-0.69730100000000,NN17 1EE,2014-08-15,fhrs_5_en-GB,5,,FHRS,
50302,Avon Cosmetics Ltd,Earlstrees Road,Earlstrees Industrial Estate,Corby,Catermaster,Restaurant/Cafe/Canteen,1,5,,33064,5,,52.50772600000000,10/00022/FOODHS,235,env.health@corby.gov.uk,Corby,http://www.corby.gov.uk/Pages/Welcome.aspx,-0.69362200000000,NN17 4AZ,2014-08-15,fhrs_5_en-GB,5,,FHRS,0
50303,Joules Clothing,Saxon Way West,Corby,Northamptonshire,Catermaster,Restaurant/Cafe/Canteen,1,5,,11154,5,,52.46849600000000,04/00469/FOODC,235,env.health@corby.gov.uk,Corby,http://www.corby.gov.uk/Pages/Welcome.aspx,-0.73796100000000,NN18 9ES,2013-01-15,fhrs_5_en-GB,5,,FHRS,5
50304,RS Components,Birchington Road,Corby,Northamptonshire,Catermaster,Restaurant/Cafe/Canteen,1,0,,536964,5,,52.49476800000000,13/00011/FOODHS,235,env.health@corby.gov.uk,Corby,http://www.corby.gov.uk/Pages/Welcome.aspx,-0.67798000000000,NN17 9RS,2013-01-31,fhrs_5_en-GB,5,,FHRS,5
50305,Swan Gardens,School Place,Corby,Northamptonshire,Caterplus Services,Restaurant/Cafe/Canteen,1,0,,11613,0,,52.48451500000000,04/00761/FOODHS,235,env.health@corby.gov.uk,Corby,http://www.corby.gov.uk/Pages/Welcome.aspx,-0.71192300000000,NN18 0QP,2013-09-09,fhrs_5_en-GB,5,,FHRS,0
50306,CEVA Logistics,Earlstrees Road,Earlstrees Industrial Estate,Corby,Ceva Logistics,Distributors/Transporters,7,0,,28540,0,,52.50772600000000,09/00006/FOODHS,235,env.health@corby.gov.uk,Corby,http://www.corby.gov.uk/Pages/Welcome.aspx,-0.69362200000000,NN17 4AZ,2014-06-06,fhrs_5_en-GB,5,,FHRS,0
50307,2 Curie Courtyard,Cockerell Road,Corby,Northamptonshire,Cheeky Monkees (Corby) Limited,Restaurant/Cafe/Canteen,1,5,,14761,5,,52.49809000000000,05/00049/FOODC,235,env.health@corby.gov.uk,Corby,http://www.corby.gov.uk/Pages/Welcome.aspx,-0.67839600000000,NN17 5DU,2014-06-03,fhrs_5_en-GB,5,,FHRS,0
50308,Causeway Road,Earlstrees Industrial Estate,Corby,Northamptonshire,Chequered Flag,Restaurant/Cafe/Canteen,1,5,,536963,5,,52.50832400000000,13/00006/FOODHS,235,env.health@corby.gov.uk,Corby,http://www.corby.gov.uk/Pages/Welcome.aspx,-0.69974900000000,NN17 4DU,2013-01-23,fhrs_5_en-GB,5,,FHRS,0
50309,Jasmine House,105 Welland Vale Road,Corby,Northamptonshire,China Village,Restaurant/Cafe/Canteen,1,10,,621307,10,,52.50193000000000,13/00079/FOODHS,235,env.health@corby.gov.uk,Corby,http://www.corby.gov.uk/Pages/Welcome.aspx,-0.70867400000000,NN17 2AW,2013-10-14,fhrs_3_en-GB,3,,FHRS,10
50310,Corby Fish Bar,92 Rockingham Road,Corby,Northamptonshire,Chip Stop,Restaurant/Cafe/Canteen,1,20,,33659,10,,52.49672500000000,10/00057/FOODHS,235,env.health@corby.gov.uk,Corby,http://www.corby.gov.uk/Pages/Welcome.aspx,-0.68745200000000,NN17 1AE,2013-12-11,fhrs_1_en-GB,1,,FHRS,10
50311,Corby Indoor Market,Deene House,New Post Office Square,Corby,Chockoholicks World,Retailers - other,4613,5,,32813,5,,52.48829200000000,10/00006/FOODHS,235,env.health@corby.gov.uk,Corby,http://www.corby.gov.uk/Pages/Welcome.aspx,-0.70050200000000,NN17 1PB,2010-03-01,fhrs_5_en-GB,5,,FHRS,5
50312,The Chocolate Shop,20 The Jamb,Corby,Northamptonshire,Chocolate Shop,Retailers - other,4613,5,,10844,5,,52.49097900000000,04/00333/FOODHS,235,env.health@corby.gov.uk,Corby,http://www.corby.gov.uk/Pages/Welcome.aspx,-0.68330800000000,NN17 1AY,2012-02-15,fhrs_4_en-GB,4,,FHRS,10
50313,Parish Church Of The Epiphany,Elizabeth Street,Corby,Northamptonshire,Church Of The Epiphany,Restaurant/Cafe/Canteen,1,10,,11039,10,,52.48864300000000,04/00418/FOODHS,235,env.health@corby.gov.uk,Corby,http://www.corby.gov.uk/Pages/Welcome.aspx,-0.69887100000000,NN17 1TU,2013-09-05,fhrs_3_en-GB,3,,FHRS,5
50314,,,,,Clairey Fairy Cakes,Restaurant/Cafe/Canteen,1,5,,404313,10,,,11/00036/FOODC,235,env.health@corby.gov.uk,Corby,http://www.corby.gov.uk/Pages/Welcome.aspx,,,2011-06-20,fhrs_4_en-GB,4,,FHRS,5
50315,23 Minden Close,Corby,Northamptonshire,,Classic Catering,Restaurant/Cafe/Canteen,1,0,,11477,0,,52.46991700000000,04/00682/FOODC,235,env.health@corby.gov.uk,Corby,http://www.corby.gov.uk/Pages/Welcome.aspx,-0.73967300000000,NN18 9EW,2014-03-28,fhrs_5_en-GB,5,,FHRS,0
50316,Club 2000,Counts Farm Road,Corby,Northamptonshire,Club 2000 Corby Ltd,Restaurant/Cafe/Canteen,1,10,,10806,10,,52.48210500000000,04/00315/FOODHS,235,env.health@corby.gov.uk,Corby,http://www.corby.gov.uk/Pages/Welcome.aspx,-0.69629600000000,NN18 8BL,2013-08-14,fhrs_2_en-GB,2,,FHRS,15
50317,Wincanton Logistics,Long Croft Road,Corby,Northamptonshire,Compact Catering,Restaurant/Cafe/Canteen,1,0,,11646,5,,52.48067300000000,04/00776/FOODHS,235,env.health@corby.gov.uk,Corby,http://www.corby.gov.uk/Pages/Welcome.aspx,-0.68707600000000,NN18 8EY,2013-01-24,fhrs_5_en-GB,5,,FHRS,5
50318,7 Princewood Road,Earlstrees Industrial Estate,Corby,Northamptonshire,Company Shop,Retailers - other,4613,5,,404324,5,,52.51178300000000,11/00061/FOODHS,235,env.health@corby.gov.uk,Corby,http://www.corby.gov.uk/Pages/Welcome.aspx,-0.70116500000000,NN17 4AP,2011-10-03,fhrs_5_en-GB,5,,FHRS,5
50319,Cottingham Road,Corby,Northamptonshire,,Conservative Club,Restaurant/Cafe/Canteen,1,5,,10775,0,,52.49098100000000,04/00303/FOODHS,235,env.health@corby.gov.uk,Corby,http://www.corby.gov.uk/Pages/Welcome.aspx,-0.69243900000000,NN17 1SZ,2011-03-11,fhrs_4_en-GB,4,,FHRS,10
50320,3 - 4 Boden Close,Corby,Northamptonshire,,Convenience Express,Retailers - other,4613,5,,9659,10,,52.47003500000000,04/00043/FOODHS,235,env.health@corby.gov.uk,Corby,http://www.corby.gov.uk/Pages/Welcome.aspx,-0.73389800000000,NN18 9BT,2010-03-23,fhrs_4_en-GB,4,,FHRS,5
50321,57 Occupation Road,Corby,Northamptonshire,,Co-op,Retailers - other,4613,5,,11517,5,,52.49663200000000,04/00706/FOODHS,235,env.health@corby.gov.uk,Corby,http://www.corby.gov.uk/Pages/Welcome.aspx,-0.69533600000000,NN17 1ED,2010-01-25,fhrs_5_en-GB,5,,FHRS,5
50322,Woodsend Medical Centre,School Place,Corby,Northamptonshire,Co-op Chemist,Retailers - other,4613,,,18005,,,52.48451500000000,06/00057/FOODHS,235,env.health@corby.gov.uk,Corby,http://www.corby.gov.uk/Pages/Welcome.aspx,-0.71192300000000,NN18 0QP,2009-07-14,fhrs_exempt_en-GB,Exempt,,FHRS,
50323,Rowlett Road,Corby,Northamptonshire,,Corby Baptist Church,Restaurant/Cafe/Canteen,1,5,,11078,5,,52.49828100000000,04/00434/FOODHS,235,env.health@corby.gov.uk,Corby,http://www.corby.gov.uk/Pages/Welcome.aspx,-0.70788200000000,NN17 2BT,2010-11-24,fhrs_5_en-GB,5,,FHRS,5
50324,The Corby Candle,1 New Post Office Square,Corby,Northamptonshire,Corby Candle,Restaurant/Cafe/Canteen,1,5,,11657,5,,52.48829200000000,04/00781/FOODHS,235,env.health@corby.gov.uk,Corby,http://www.corby.gov.uk/Pages/Welcome.aspx,-0.70050200000000,NN17 1PB,2010-09-03,fhrs_5_en-GB,5,,FHRS,5
50325,54 Burghley Drive,Corby,Northamptonshire,,Corby Cod,Restaurant/Cafe/Canteen,1,0,,621305,5,,52.48180200000000,13/00064/FOODHS,235,env.health@corby.gov.uk,Corby,http://www.corby.gov.uk/Pages/Welcome.aspx,-0.69487600000000,NN18 8EB,2013-11-12,fhrs_5_en-GB,5,,FHRS,5
50326,Cottingham Road,Corby,Northamptonshire,,Corby Community Hospital,Restaurant/Cafe/Canteen,1,0,,10772,0,,52.49128300000000,04/00302/FOODC,235,env.health@corby.gov.uk,Corby,http://www.corby.gov.uk/Pages/Welcome.aspx,-0.71087100000000,NN17 2UN,2013-03-27,fhrs_5_en-GB,5,,FHRS,5
50327,Forest Bowls Club,Rockingham Road,Corby,Northamptonshire,Corby Forest Bowling Club,Restaurant/Cafe/Canteen,1,5,,10080,5,,52.49936300000000,04/00119/FOODHS,235,env.health@corby.gov.uk,Corby,http://www.corby.gov.uk/Pages/Welcome.aspx,-0.68939200000000,NN17 1AG,2010-11-22,fhrs_5_en-GB,5,,FHRS,5
50328,Patrick Road,Corby,Northamptonshire,,Corby Irish Centre,Restaurant/Cafe/Canteen,1,10,,11403,5,,52.47865400000000,04/00625/FOODHS,235,env.health@corby.gov.uk,Corby,http://www.corby.gov.uk/Pages/Welcome.aspx,-0.71032700000000,NN18 9NT,2014-03-21,fhrs_4_en-GB,4,,FHRS,5
50329,177 Farmstead Road,Corby,Northamptonshire,,Corby Kebab House,Restaurant/Cafe/Canteen,1,10,,17673,10,,52.48806000000000,06/00019/FOODHS,235,env.health@corby.gov.uk,Corby,http://www.corby.gov.uk/Pages/Welcome.aspx,-0.72541300000000,NN18 0LL,2013-10-15,fhrs_3_en-GB,3,,FHRS,10
50330,Corby Legion Locomotives FC,Cottingham Road,Corby,Northamptonshire,Corby Legion Locomotives,Restaurant/Cafe/Canteen,1,5,,33625,10,,52.49000000000000,10/00055/FOODHS,235,env.health@corby.gov.uk,Corby,http://www.corby.gov.uk/Pages/Welcome.aspx,-0.69148200000000,NN17 1TD,2009-09-29,fhrs_4_en-GB,4,,FHRS,5
50331,111 Welland Vale Road,Corby,Northamptonshire,,Corby News,Retailers - other,4613,5,,24815,5,,52.50193000000000,08/00016/FOODHS,235,env.health@corby.gov.uk,Corby,http://www.corby.gov.uk/Pages/Welcome.aspx,-0.70867400000000,NN17 2AW,2010-03-15,fhrs_5_en-GB,5,,FHRS,5
50332,36 Elizabeth Street,Corby,Northamptonshire,,Corby News And Wine,Retailers - other,4613,10,,684080,10,,52.48872400000000,13/00073/FOODHS,235,env.health@corby.gov.uk,Corby,http://www.corby.gov.uk/Pages/Welcome.aspx,-0.69970800000000,NN17 1PN,2014-02-26,fhrs_3_en-GB,3,,FHRS,10
50333,Corby Rugby And Cricket Club,Rockingham Road,Corby,Northamptonshire,Corby Rugby Club,Restaurant/Cafe/Canteen,1,5,,11322,5,,52.50708700000000,04/00567/FOODHS,235,env.health@corby.gov.uk,Corby,http://www.corby.gov.uk/Pages/Welcome.aspx,-0.70834600000000,NN17 2AE,2010-11-30,fhrs_5_en-GB,5,,FHRS,5
50334,Corby Snooker And Social Club,Everest Lane,Corby,Northamptonshire,Corby Snooker & Pool Club,Restaurant/Cafe/Canteen,1,5,,11104,5,,52.48853400000000,04/00445/FOODHS,235,env.health@corby.gov.uk,Corby,http://www.corby.gov.uk/Pages/Welcome.aspx,-0.70043600000000,NN17 1PP,2010-11-25,fhrs_4_en-GB,4,,FHRS,10
50335,Corby Social And Ex Servicemans Clu,Lloyds Road,Corby,Northamptonshire,Corby Social And Ex-Servicemens Club,Restaurant/Cafe/Canteen,1,5,,11445,10,,52.49251700000000,04/00658/FOODHS,235,env.health@corby.gov.uk,Corby,http://www.corby.gov.uk/Pages/Welcome.aspx,-0.68258400000000,NN17 1AP,2010-02-08,fhrs_3_en-GB,3,,FHRS,10
50336,3 New Post Office Square,Corby,Northamptonshire,,Corby Supermarket,Retailers - other,4613,0,,589420,5,,52.48829200000000,12/00019/FOODHS,235,env.health@corby.gov.uk,Corby,http://www.corby.gov.uk/Pages/Welcome.aspx,-0.70050200000000,NN17 1PB,2013-03-08,fhrs_5_en-GB,5,,FHRS,5
50337,Corby Teamwork (Mind),Unit O,St Marks Road,St James Industrial Estate,Corby Teamwork,Restaurant/Cafe/Canteen,1,5,,11133,5,,52.48565600000000,04/00458/FOODHS,235,env.health@corby.gov.uk,Corby,http://www.corby.gov.uk/Pages/Welcome.aspx,-0.68407000000000,NN18 8AN,2009-12-11,fhrs_5_en-GB,5,,FHRS,5
50338,Firdale Professional Development Ce,Cottingham Road,Corby,Northamptonshire,Corby Technology School,Restaurant/Cafe/Canteen,1,0,,492748,0,,52.49000000000000,12/00074/FOODC,235,env.health@corby.gov.uk,Corby,http://www.corby.gov.uk/Pages/Welcome.aspx,-0.69148200000000,NN17 1TD,2012-09-24,fhrs_5_en-GB,5,,FHRS,0
50339,Corby Football Club,Rockingham Road,Corby,Northamptonshire,Corby Town Football Club (Snack Bar),Restaurant/Cafe/Canteen,1,0,,404316,0,,52.50708700000000,11/00045/FOODHS,235,env.health@corby.gov.uk,Corby,http://www.corby.gov.uk/Pages/Welcome.aspx,-0.70834600000000,NN17 2AE,2013-04-17,fhrs_5_en-GB,5,,FHRS,0
50340,117 Welland Vale Road,Corby,Northamptonshire,,Corby Town Friar,Restaurant/Cafe/Canteen,1,5,,24719,5,,52.50193000000000,08/00006/HS,235,env.health@corby.gov.uk,Corby,http://www.corby.gov.uk/Pages/Welcome.aspx,-0.70867400000000,NN17 2AW,2014-08-29,fhrs_5_en-GB,5,,FHRS,5
50341,Corby Trades And Labour Club,Stuart Road,Corby,Northamptonshire,Corby Trades & Labour,Restaurant/Cafe/Canteen,1,5,,10980,5,,52.48760200000000,04/00391/FOODHS,235,env.health@corby.gov.uk,Corby,http://www.corby.gov.uk/Pages/Welcome.aspx,-0.69657500000000,NN17 1RL,2014-11-21,fhrs_4_en-GB,4,,FHRS,10
50342,The Corinthian,23 Market Walk,Queens Square,Corby,Corinthian Public House,Restaurant/Cafe/Canteen,1,5,,11369,5,,52.48672400000000,04/00596/FOODHS,235,env.health@corby.gov.uk,Corby,http://www.corby.gov.uk/Pages/Welcome.aspx,-0.70013600000000,NN17 1PD,2012-09-18,fhrs_4_en-GB,4,,FHRS,10
50343,1 Willow Place,Corby,Northamptonshire,,Costa Coffee,Restaurant/Cafe/Canteen,1,0,,34120,0,,52.48672500000000,10/00090/FOODHS,235,env.health@corby.gov.uk,Corby,http://www.corby.gov.uk/Pages/Welcome.aspx,-0.70187300000000,NN17 1BH,2013-08-29,fhrs_5_en-GB,5,,FHRS,0
50344,47 - 48 Causeway Road,Earlstrees Industrial Estate,Corby,Northamptonshire,Creative Tops,Retailers - other,4613,10,,589419,0,,52.50832400000000,08/00042/HS,235,env.health@corby.gov.uk,Corby,http://www.corby.gov.uk/Pages/Welcome.aspx,-0.69974900000000,NN17 4DU,2013-01-22,fhrs_4_en-GB,4,,FHRS,0
50345,D And L Hadden Family Butchers,22 The Jamb,Corby,Northamptonshire,D & L Hadden (Family Butchers),Retailers - other,4613,10,,10845,5,,52.49097900000000,04/00334/FOODHS,235,env.health@corby.gov.uk,Corby,http://www.corby.gov.uk/Pages/Welcome.aspx,-0.68330800000000,NN17 1AY,2013-05-31,fhrs_4_en-GB,4,,FHRS,5
50346,7 Boden Close,Corby,Northamptonshire,,Danesholme Patisserie,Retailers - other,4613,10,,9664,5,,52.47003500000000,04/00044/FOODHS,235,env.health@corby.gov.uk,Corby,http://www.corby.gov.uk/Pages/Welcome.aspx,-0.73389800000000,NN18 9BT,2013-07-05,fhrs_3_en-GB,3,,FHRS,10
50347,Corby Enterprise Centre,London Road,Weldon,Corby,DDW Catering,Restaurant/Cafe/Canteen,1,5,,492752,0,,52.50589200000000,12/00087/FOODHS,235,env.health@corby.gov.uk,Corby,http://www.corby.gov.uk/Pages/Welcome.aspx,-0.64177000000000,NN17 5EU,2014-04-28,fhrs_5_en-GB,5,,FHRS,0
50348,61 - 63 Occupation Road,Corby,Northamptonshire,,DDW Catering Limited,Restaurant/Cafe/Canteen,1,5,,33513,0,,52.49672500000000,10/00048/FOODHS,235,env.health@corby.gov.uk,Corby,http://www.corby.gov.uk/Pages/Welcome.aspx,-0.68745200000000,NN17 1AE,2014-04-23,fhrs_5_en-GB,5,,FHRS,0
50349,,,,,Delight,Restaurant/Cafe/Canteen,1,0,,32955,0,,,10/00015/FOODHS,235,env.health@corby.gov.uk,Corby,http://www.corby.gov.uk/Pages/Welcome.aspx,,,2010-02-04,fhrs_5_en-GB,5,,FHRS,0
50350,,,,,Derek Robertson,Restaurant/Cafe/Canteen,1,5,,404333,0,,,11/00079/FOODC,235,env.health@corby.gov.uk,Corby,http://www.corby.gov.uk/Pages/Welcome.aspx,,,2013-05-22,fhrs_5_en-GB,5,,FHRS,0
50351,2 Hatfield Close,Corby,Northamptonshire,,Designmeacake,Restaurant/Cafe/Canteen,1,0,,556076,0,,52.47384400000000,12/00045/FOODC,235,env.health@corby.gov.uk,Corby,http://www.corby.gov.uk/Pages/Welcome.aspx,-0.70129500000000,NN18 8QB,2013-04-22,fhrs_5_en-GB,5,,FHRS,0
50352,3 Princewood Court,Corby,Northamptonshire,,Dominos Pizza,Restaurant/Cafe/Canteen,1,0,,33978,0,,52.50845800000000,10/00079/FOODHS,235,env.health@corby.gov.uk,Corby,http://www.corby.gov.uk/Pages/Welcome.aspx,-0.70543300000000,NN17 4BH,2013-01-29,fhrs_5_en-GB,5,,FHRS,5
50353,East Carlton Park,East Carlton,Market Harborough,Leicestershire,East Carlton Cricket Club,Restaurant/Cafe/Canteen,1,5,,9951,5,,52.49617500000000,04/00092/FOODHS,235,env.health@corby.gov.uk,Corby,http://www.corby.gov.uk/Pages/Welcome.aspx,-0.77446600000000,LE16 8YF,2010-03-18,fhrs_4_en-GB,4,,FHRS,10
50354,Tesco Extra,St Marks Road,St James Industrial Estate,Corby,Elior Catering,Restaurant/Cafe/Canteen,1,5,,556081,5,,52.48572900000000,13/00025/FOODHS,235,env.health@corby.gov.uk,Corby,http://www.corby.gov.uk/Pages/Welcome.aspx,-0.68496700000000,NN18 8AN,2013-03-13,fhrs_5_en-GB,5,,FHRS,0
50355,Maplefields School,Tower Hill Road,Corby,Northamptonshire,Essence Catering,Restaurant/Cafe/Canteen,1,5,,492739,5,,52.48326900000000,12/00010/FOODC,235,env.health@corby.gov.uk,Corby,http://www.corby.gov.uk/Pages/Welcome.aspx,-0.73138300000000,NN18 0TH,2013-09-23,fhrs_5_en-GB,5,,FHRS,0
50356,Weetabix,Works 1,Earlstrees Road,Earlstrees Industrial Estate,Eurest,Restaurant/Cafe/Canteen,1,5,,9723,5,,52.50772600000000,04/00052/FOODHS,235,env.health@corby.gov.uk,Corby,http://www.corby.gov.uk/Pages/Welcome.aspx,-0.69362200000000,NN17 4AZ,2014-02-19,fhrs_5_en-GB,5,,FHRS,5
50357,Weetabix,Site 2,Earlstrees Road,Earlstrees Industrial Estate,Eurest,Restaurant/Cafe/Canteen,1,0,,9701,5,,52.50772600000000,04/00049/FOODHS,235,env.health@corby.gov.uk,Corby,http://www.corby.gov.uk/Pages/Welcome.aspx,-0.69362200000000,NN17 4AZ,2010-05-20,fhrs_5_en-GB,5,,FHRS,0
50358,B A T UK And Export Ltd,Headway,Corby,Northamptonshire,Eurest Catering,Restaurant/Cafe/Canteen,1,5,,9745,5,,52.45934300000000,04/00055/FOODHS,235,env.health@corby.gov.uk,Corby,http://www.corby.gov.uk/Pages/Welcome.aspx,-0.72700800000000,NN18 8HT,2013-02-23,fhrs_5_en-GB,5,,FHRS,5
50359,Cottingham Road,Corby,Northamptonshire,,Everard Arms,Restaurant/Cafe/Canteen,1,0,,10790,5,,52.49143800000000,04/00308/FOODHS,235,env.health@corby.gov.uk,Corby,http://www.corby.gov.uk/Pages/Welcome.aspx,-0.70124900000000,NN17 1SY,2013-03-04,fhrs_5_en-GB,5,,FHRS,5
50360,Farmfoods Ltd,4 Alexandra Road,Corby,Northamptonshire,Farm Foods Limited,Retailers - other,4613,5,,9919,5,,52.48864300000000,04/00087/FOODHS,235,env.health@corby.gov.uk,Corby,http://www.corby.gov.uk/Pages/Welcome.aspx,-0.70137500000000,NN17 1RA,2011-08-24,fhrs_5_en-GB,5,,FHRS,5
50361,3 Studfall Court,Corby,Northamptonshire,,First Class Day Nursery,Restaurant/Cafe/Canteen,1,0,,9820,0,,52.49589200000000,04/00069/FOODC,235,env.health@corby.gov.uk,Corby,http://www.corby.gov.uk/Pages/Welcome.aspx,-0.70482900000000,NN17 1QP,2013-08-02,fhrs_5_en-GB,5,,FHRS,0
50362,Sports Pavillion,Burghley Drive,Corby,Northamptonshire,Fisher Football Club,Restaurant/Cafe/Canteen,1,5,,9928,5,,52.48424200000000,04/00088/FOODHS,235,env.health@corby.gov.uk,Corby,http://www.corby.gov.uk/Pages/Welcome.aspx,-0.69479900000000,,2010-11-15,fhrs_5_en-GB,5,,FHRS,5
50363,Flames,66 George Street,Corby,Northamptonshire,Flames Grill,Restaurant/Cafe/Canteen,1,10,,9482,5,,52.48929300000000,04/00018/FOODHS,235,env.health@corby.gov.uk,Corby,http://www.corby.gov.uk/Pages/Welcome.aspx,-0.70405100000000,NN17 1QE,2013-08-19,fhrs_4_en-GB,4,,FHRS,5
50364,Priors Hall Golf Club,Stamford Road,Weldon,Corby,Four Ball Catering,Restaurant/Cafe/Canteen,1,5,,404347,5,,52.51240100000000,12/00016/FOODHS,235,env.health@corby.gov.uk,Corby,http://www.corby.gov.uk/Pages/Welcome.aspx,-0.61532400000000,NN17 3JH,2013-09-20,fhrs_5_en-GB,5,,FHRS,5
50365,169 Farmstead Road,Corby,Northamptonshire,,Four Seasons Takeaway,Restaurant/Cafe/Canteen,1,10,,21406,5,,52.48806000000000,07/00018/FOODHS,235,env.health@corby.gov.uk,Corby,http://www.corby.gov.uk/Pages/Welcome.aspx,-0.72541300000000,NN18 0LL,2014-03-17,fhrs_3_en-GB,3,,FHRS,10
50366,,,,,Fretcobs Cakes,Restaurant/Cafe/Canteen,1,5,,404348,0,,,12/00018/FOODC,235,env.health@corby.gov.uk,Corby,http://www.corby.gov.uk/Pages/Welcome.aspx,,,2012-05-02,fhrs_5_en-GB,5,,FHRS,0
50367,99 - 101 Welland Vale Road,Corby,Northamptonshire,,Galaxy Indian Restaurant,Restaurant/Cafe/Canteen,1,10,,684083,10,,52.50193000000000,13/00089/FOODHS,235,env.health@corby.gov.uk,Corby,http://www.corby.gov.uk/Pages/Welcome.aspx,-0.70867400000000,NN17 2AW,2014-01-08,fhrs_3_en-GB,3,,FHRS,10
50368,The Nosh Pot,4 Danesholme Centre,Corby,Northamptonshire,Gallery Of Taste,Restaurant/Cafe/Canteen,1,10,,684088,10,,52.47075400000000,14/00030/FOODHS,235,env.health@corby.gov.uk,Corby,http://www.corby.gov.uk/Pages/Welcome.aspx,-0.73384800000000,NN18 9EJ,2014-01-10,fhrs_3_en-GB,3,,FHRS,10
50369,The George,5 Stamford Road,Weldon,Corby,George,Restaurant/Cafe/Canteen,1,10,,10300,15,,52.49717900000000,04/00165/FOODHS,235,env.health@corby.gov.uk,Corby,http://www.corby.gov.uk/Pages/Welcome.aspx,-0.63383300000000,NN17 3JL,2014-02-11,fhrs_2_en-GB,2,,FHRS,10
50370,Glenmoor House Residential Home,25 Rockingham Road,Corby,Northamptonshire,Glenmoor House Care Home - HC-One,Restaurant/Cafe/Canteen,1,0,,11336,0,,52.49531900000000,04/00574/FOODHS,235,env.health@corby.gov.uk,Corby,http://www.corby.gov.uk/Pages/Welcome.aspx,-0.68631600000000,NN17 1AD,2013-05-17,fhrs_5_en-GB,5,,FHRS,5
50371,52 Burghley Drive,Corby,Northamptonshire,,Golden Chois,Restaurant/Cafe/Canteen,1,20,,696611,20,,52.48180200000000,14/00021/FOODHS,235,env.health@corby.gov.uk,Corby,http://www.corby.gov.uk/Pages/Welcome.aspx,-0.69487600000000,NN18 8EB,2014-07-21,fhrs_1_en-GB,1,,FHRS,10
50372,109 Welland Vale Road,Corby,Northamptonshire,,Golden Top,Restaurant/Cafe/Canteen,1,5,,18215,5,,52.50193000000000,06/00088/FOODHS,235,env.health@corby.gov.uk,Corby,http://www.corby.gov.uk/Pages/Welcome.aspx,-0.70867400000000,NN17 2AW,2014-04-09,fhrs_5_en-GB,5,,FHRS,5
50373,6 Kettering Road,Weldon,Corby,Northamptonshire,Gourmet Spice Company,Manufacturers/packers,7839,10,,45915,5,,52.49428700000000,11/00035/FOODC,235,env.health@corby.gov.uk,Corby,http://www.corby.gov.uk/Pages/Welcome.aspx,-0.63879800000000,NN17 3JQ,2011-06-03,fhrs_4_en-GB,4,,FHRS,5
50374,Patrick Road,Corby,Northamptonshire,,Grampian Association,Restaurant/Cafe/Canteen,1,5,,11401,5,,52.47865400000000,04/00624/FOODHS,235,env.health@corby.gov.uk,Corby,http://www.corby.gov.uk/Pages/Welcome.aspx,-0.71032700000000,NN18 9NT,2011-02-10,fhrs_4_en-GB,4,,FHRS,10
50375,Lewin Road,Corby,Northamptonshire,,Great Oakley Cricket Club,Restaurant/Cafe/Canteen,1,5,,11435,5,,52.46869600000000,04/00655/FOODHS,235,env.health@corby.gov.uk,Corby,http://www.corby.gov.uk/Pages/Welcome.aspx,-0.71889200000000,NN18 8JS,2009-12-10,fhrs_4_en-GB,4,,FHRS,10
50376,Greenhill Rise Post Office,65 Greenhill Rise,Corby,Northamptonshire,Greenhill News,Retailers - other,4613,5,,10137,10,,52.48223400000000,04/00130/FOODHS,235,env.health@corby.gov.uk,Corby,http://www.corby.gov.uk/Pages/Welcome.aspx,-0.72291600000000,NN18 0LR,2013-03-26,fhrs_3_en-GB,3,,FHRS,10
50377,180 Gainsborough Road,Corby,Northamptonshire,,Greens,Retailers - other,4613,5,,684086,5,,52.48386500000000,14/00025/FOODHS,235,env.health@corby.gov.uk,Corby,http://www.corby.gov.uk/Pages/Welcome.aspx,-0.70915900000000,NN18 0RQ,2014-02-25,fhrs_5_en-GB,5,,FHRS,0
50378,1 Princewood Court,Corby,Northamptonshire,,Greggs,Restaurant/Cafe/Canteen,1,0,,29172,0,,52.50845800000000,09/00058/FOODHS,235,env.health@corby.gov.uk,Corby,http://www.corby.gov.uk/Pages/Welcome.aspx,-0.70543300000000,NN17 4BH,2013-06-14,fhrs_5_en-GB,5,,FHRS,0
50379,30 Corporation Street,Corby,Northamptonshire,,Greggs,Retailers - other,4613,5,,9878,5,,52.48794200000000,04/00079/FOODHS,235,env.health@corby.gov.uk,Corby,http://www.corby.gov.uk/Pages/Welcome.aspx,-0.70135100000000,NN17 1NJ,2014-02-11,fhrs_5_en-GB,5,,FHRS,0
50380,74 High Street,Gretton,Corby,Northamptonshire,Gretton Garden Cottage,Restaurant/Cafe/Canteen,1,10,,612623,10,,52.53716400000000,13/00053/FOODHS,235,env.health@corby.gov.uk,Corby,http://www.corby.gov.uk/Pages/Welcome.aspx,-0.67535100000000,NN17 3DF,2013-10-16,fhrs_3_en-GB,3,,FHRS,10
50381,High Street,Gretton,Corby,Northamptonshire,Gretton House,Restaurant/Cafe/Canteen,1,0,,10586,5,,52.53963600000000,04/00244/FOODHS,235,env.health@corby.gov.uk,Corby,http://www.corby.gov.uk/Pages/Welcome.aspx,-0.67527600000000,NN17 3DE,2013-05-16,fhrs_5_en-GB,5,,FHRS,0
50382,48 High Street,Gretton,Corby,Northamptonshire,Gretton Post Office,Retailers - other,4613,5,,10580,5,,52.53963600000000,04/00242/FOODHS,235,env.health@corby.gov.uk,Corby,http://www.corby.gov.uk/Pages/Welcome.aspx,-0.67527600000000,NN17 3DE,2009-12-04,fhrs_5_en-GB,5,,FHRS,5
50383,5 Princewood Court,Corby,Northamptonshire,,Hampton By Hilton,Restaurant/Cafe/Canteen,1,0,,33961,0,,52.50845800000000,10/00078/HS,235,env.health@corby.gov.uk,Corby,http://www.corby.gov.uk/Pages/Welcome.aspx,-0.70543300000000,NN17 4BH,2012-03-08,fhrs_5_en-GB,5,,FHRS,5
50384,Charter Court,Corby,Northamptonshire,,Harpers Brook,Restaurant/Cafe/Canteen,1,,,14793,,,52.47096100000000,05/00053/FOODHS,235,env.health@corby.gov.uk,Corby,http://www.corby.gov.uk/Pages/Welcome.aspx,-0.71975300000000,NN18 8LH,2014-11-03,fhrs_5_en-GB,5,,FHRS,
50385,14 Arnhill Road,Gretton,Corby,Northamptonshire,Hatton Arms,Restaurant/Cafe/Canteen,1,0,,32775,10,,52.53745800000000,10/00004/FOODHS,235,env.health@corby.gov.uk,Corby,http://www.corby.gov.uk/Pages/Welcome.aspx,-0.67913100000000,NN17 3DN,2012-12-05,fhrs_4_en-GB,4,,FHRS,10
50386,Hazel Leys Junior And Infant School,Gainsborough Road,Corby,Northamptonshire,Hazel Leys Primary School,Restaurant/Cafe/Canteen,1,5,,404307,5,,52.48320800000000,04/00508/HS,235,env.health@corby.gov.uk,Corby,http://www.corby.gov.uk/Pages/Welcome.aspx,-0.71322800000000,NN18 0QF,2014-10-23,fhrs_5_en-GB,5,,FHRS,5
50387,The Hazel Tree,Greenhill Rise,Corby,Northamptonshire,Hazel Tree Public House,Restaurant/Cafe/Canteen,1,5,,11277,10,,52.48223400000000,04/00533/FOODHS,235,env.health@corby.gov.uk,Corby,http://www.corby.gov.uk/Pages/Welcome.aspx,-0.72291600000000,NN18 0LR,2009-12-07,fhrs_3_en-GB,3,,FHRS,10
50388,The Heritage Centre,East Carlton Park,East Carlton,Market Harborough,Heritage Centre Cafe,Restaurant/Cafe/Canteen,1,5,,9623,5,,52.49548500000000,04/00036/FOODHS,235,env.health@corby.gov.uk,Corby,http://www.corby.gov.uk/Pages/Welcome.aspx,-0.77732900000000,LE16 8YA,2013-11-14,fhrs_5_en-GB,5,,FHRS,5
50389,174 Studfall Avenue,Corby,Northamptonshire,,High Street Bakery,Retailers - other,4613,5,,10989,5,,52.49610900000000,04/00396/FOODHS,235,env.health@corby.gov.uk,Corby,http://www.corby.gov.uk/Pages/Welcome.aspx,-0.70660500000000,NN17 1LJ,2014-09-05,fhrs_5_en-GB,5,,FHRS,5
50390,55 Occupation Road,Corby,Northamptonshire,,High Street Bakery,Retailers - other,4613,10,,11510,5,,52.49663200000000,04/00702/FOODHS,235,env.health@corby.gov.uk,Corby,http://www.corby.gov.uk/Pages/Welcome.aspx,-0.69533600000000,NN17 1ED,2013-08-05,fhrs_3_en-GB,3,,FHRS,10
50391,Dereks Bakery,5 Pytchley Court,Corby,Northamptonshire,High Street Bakery,Retailers - other,4613,5,,11342,5,,52.49779200000000,04/00578/FOODHS,235,env.health@corby.gov.uk,Corby,http://www.corby.gov.uk/Pages/Welcome.aspx,-0.72165500000000,NN17 2QD,2014-08-18,fhrs_5_en-GB,5,,FHRS,0
50392,55 Geddington Road,Corby,Northamptonshire,,Holiday Inn,Restaurant/Cafe/Canteen,1,0,,11582,5,,52.48591300000000,04/00741/FOODHS,235,env.health@corby.gov.uk,Corby,http://www.corby.gov.uk/Pages/Welcome.aspx,-0.66606600000000,NN18 8AA,2013-09-24,fhrs_4_en-GB,4,,FHRS,10
50393,43 Queens Square,Corby,Northamptonshire,,Holland & Barrett,Retailers - other,4613,0,,11383,5,,52.48672400000000,04/00609/FOODHS,235,env.health@corby.gov.uk,Corby,http://www.corby.gov.uk/Pages/Welcome.aspx,-0.70013600000000,NN17 1PD,2009-11-30,fhrs_5_en-GB,5,,FHRS,5
50394,Home Bargains,10 Alexandra Road,Corby,Northamptonshire,Homebargains,Retailers - other,4613,5,,33816,5,,52.48864300000000,10/00068/FOODHS,235,env.health@corby.gov.uk,Corby,http://www.corby.gov.uk/Pages/Welcome.aspx,-0.70137500000000,NN17 1RA,2010-09-30,fhrs_5_en-GB,5,,FHRS,5
50395,Hong Kong Take Away,60 George Street,Corby,Northamptonshire,Hong Kong Chinese Take Away,Restaurant/Cafe/Canteen,1,0,,18192,0,,52.48929300000000,06/00085/FOODHS,235,env.health@corby.gov.uk,Corby,http://www.corby.gov.uk/Pages/Welcome.aspx,-0.70405100000000,NN17 1QE,2013-10-28,fhrs_5_en-GB,5,,FHRS,0
50396,Dale Street,Corby,Northamptonshire,,Hungry Hossee,Restaurant/Cafe/Canteen,1,5,,404310,0,,52.49624100000000,07/00013/FOODHS,235,env.health@corby.gov.uk,Corby,http://www.corby.gov.uk/Pages/Welcome.aspx,-0.70717600000000,NN17 2BQ,2013-10-07,fhrs_5_en-GB,5,,FHRS,5
50397,59 Corporation Street,Corby,Northamptonshire,,Iceland Frozen Foods Plc,Retailers - other,4613,0,,10725,0,,52.48743600000000,04/00286/FOODHS,235,env.health@corby.gov.uk,Corby,http://www.corby.gov.uk/Pages/Welcome.aspx,-0.70198500000000,NN17 1NQ,2009-07-17,fhrs_5_en-GB,5,,FHRS,5
50398,Lodge Park Sports Centre,Shetland Way,Corby,Northamptonshire,Incuisine (LPSC),Restaurant/Cafe/Canteen,1,5,,45959,5,,52.50052200000000,11/00038/FOODHS,235,env.health@corby.gov.uk,Corby,http://www.corby.gov.uk/Pages/Welcome.aspx,-0.72303500000000,NN17 2SG,2014-11-11,fhrs_5_en-GB,5,,FHRS,5
50399,Corby East Midlands International P,Parkland Gateway,George Street,Corby,Incuisine (Swimming Pool),Restaurant/Cafe/Canteen,1,5,,30122,0,,52.48741800000000,09/00149/FOODHS,235,env.health@corby.gov.uk,Corby,http://www.corby.gov.uk/Pages/Welcome.aspx,-0.70443000000000,NN17 1QG,2014-12-30,fhrs_5_en-GB,5,,FHRS,5
50400,19-21 High Street,Weldon Village,Corby,Northants,J Ds,Restaurant/Cafe/Canteen,1,5,,21296,5,,52.49575400000000,07/00006/FOODHS,235,env.health@corby.gov.uk,Corby,http://www.corby.gov.uk/Pages/Welcome.aspx,-0.63658800000000,NN17 3JJ,2014-02-12,fhrs_5_en-GB,5,,FHRS,0
50401,Corby Indoor Market,Deene House,New Post Office Square,Corby,Jans Sweet Shop,Retailers - other,4613,5,,492745,5,,52.48829200000000,12/00044/FOODC,235,env.health@corby.gov.uk,Corby,http://www.corby.gov.uk/Pages/Welcome.aspx,-0.70050200000000,NN17 1PB,2012-11-08,fhrs_5_en-GB,5,,FHRS,5
50402,,,,,Jans Traditional Homemade Cakes,Restaurant/Cafe/Canteen,1,5,,34029,5,,,10/00083/FOODHS,235,env.health@corby.gov.uk,Corby,http://www.corby.gov.uk/Pages/Welcome.aspx,,,2010-08-18,fhrs_5_en-GB,5,,FHRS,5
50403,,,,,Jill's Childminding,Restaurant/Cafe/Canteen,1,0,,684095,0,,,14/00061/FOODC,235,env.health@corby.gov.uk,Corby,http://www.corby.gov.uk/Pages/Welcome.aspx,,,2014-07-02,fhrs_5_en-GB,5,,FHRS,0
50404,69 Occupation Road,Corby,Northamptonshire,,Johnny Wong,Restaurant/Cafe/Canteen,1,10,,11538,5,,52.49542200000000,04/00717/FOODHS,235,env.health@corby.gov.uk,Corby,http://www.corby.gov.uk/Pages/Welcome.aspx,-0.69730100000000,NN17 1EE,2013-08-14,fhrs_4_en-GB,4,,FHRS,5
50405,71 Greenhill Rise,Corby,Northamptonshire,,Keiths Plaice,Restaurant/Cafe/Canteen,1,10,,11269,10,,52.48223400000000,04/00529/FOODHS,235,env.health@corby.gov.uk,Corby,http://www.corby.gov.uk/Pages/Welcome.aspx,-0.72291600000000,NN18 0LR,2014-10-16,fhrs_3_en-GB,3,,FHRS,10
50406,K F C,Oakley Road,Corby,Northamptonshire,Kentucky Fried Chicken,Restaurant/Cafe/Canteen,1,0,,9709,5,,52.48434200000000,04/00050/FOODHS,235,env.health@corby.gov.uk,Corby,http://www.corby.gov.uk/Pages/Welcome.aspx,-0.69771700000000,NN18 8AR,2014-03-26,fhrs_5_en-GB,5,,FHRS,5
50407,85 Occupation Road,Corby,Northamptonshire,,King Hong Takeaway,Restaurant/Cafe/Canteen,1,10,,9454,10,,52.49542200000000,04/00014/FOODHS,235,env.health@corby.gov.uk,Corby,http://www.corby.gov.uk/Pages/Welcome.aspx,-0.69730100000000,NN17 1EE,2014-03-12,fhrs_3_en-GB,3,,FHRS,10
50408,The Kingfisher,Fotheringhay Road,Corby,Northamptonshire,Kingfisher Public House,Restaurant/Cafe/Canteen,1,5,,11199,10,,52.49841600000000,04/00497/FOODHS,235,env.health@corby.gov.uk,Corby,http://www.corby.gov.uk/Pages/Welcome.aspx,-0.72367000000000,NN17 2RG,2010-03-15,fhrs_3_en-GB,3,,FHRS,10
50409,Kingswood Primary School,Southbrook,Corby,Northamptonshire,Kingswood Catering,Restaurant/Cafe/Canteen,1,5,,492740,0,,52.47824700000000,12/00022/HS,235,env.health@corby.gov.uk,Corby,http://www.corby.gov.uk/Pages/Welcome.aspx,-0.72254600000000,NN18 9BE,2014-02-27,fhrs_5_en-GB,5,,FHRS,0
50410,4 Fleming Road,Earlstrees Industrial Estate,Corby,Northamptonshire,Kingswood Catering Company,Restaurant/Cafe/Canteen,1,5,,33671,5,,52.50767400000000,10/00058/FOODHS,235,env.health@corby.gov.uk,Corby,http://www.corby.gov.uk/Pages/Welcome.aspx,-0.68890900000000,NN17 4SW,2013-11-18,fhrs_5_en-GB,5,,FHRS,0
50411,Cottingham Primary School,Berryfield Road,Cottingham,Market Harborough,Kingswood Catering Services,Restaurant/Cafe/Canteen,1,5,,492738,0,,52.50343200000000,04/00222/HS,235,env.health@corby.gov.uk,Corby,http://www.corby.gov.uk/Pages/Welcome.aspx,-0.76165300000000,LE16 8XB,2014-02-25,fhrs_5_en-GB,5,,FHRS,5
50412,Danesholme County Infants School,Motala Close,Corby,Northamptonshire,Kingswood Catering Services,Restaurant/Cafe/Canteen,1,5,,45456,0,,52.47189800000000,11/00008/FOODC,235,env.health@corby.gov.uk,Corby,http://www.corby.gov.uk/Pages/Welcome.aspx,-0.73322600000000,NN18 9DT,2014-02-24,fhrs_5_en-GB,5,,FHRS,5
50413,Danesholme County Junior School,Motala Close,Corby,Northamptonshire,Kingswood Catering Services,Restaurant/Cafe/Canteen,1,5,,45470,5,,52.47189800000000,11/00009/FOODC,235,env.health@corby.gov.uk,Corby,http://www.corby.gov.uk/Pages/Welcome.aspx,-0.73322600000000,NN18 9DT,2013-02-25,fhrs_5_en-GB,5,,FHRS,0
50414,Exeter Infants School,Brayford Avenue,Corby,Northamptonshire,Kingswood Catering Services,Restaurant/Cafe/Canteen,1,5,,11618,0,,52.48358400000000,04/00763/FOODHS,235,env.health@corby.gov.uk,Corby,http://www.corby.gov.uk/Pages/Welcome.aspx,-0.69584000000000,NN18 8DL,2010-03-15,fhrs_5_en-GB,5,,FHRS,0
50415,Lodge Park School,Shetland Way,Corby,Northamptonshire,Kingswood Catering Services,Restaurant/Cafe/Canteen,1,5,,11170,5,,52.50190600000000,04/00482/FOODC,235,env.health@corby.gov.uk,Corby,http://www.corby.gov.uk/Pages/Welcome.aspx,-0.72130000000000,NN17 2JH,2013-05-15,fhrs_5_en-GB,5,,FHRS,5
50416,Our Ladys Roman Catholic Infant Sch,Occupation Road,Corby,Northamptonshire,Kingswood Catering Services,Restaurant/Cafe/Canteen,1,0,,45373,0,,52.49542200000000,11/00003/FOODC,235,env.health@corby.gov.uk,Corby,http://www.corby.gov.uk/Pages/Welcome.aspx,-0.69730100000000,NN17 1EE,2014-02-14,fhrs_5_en-GB,5,,FHRS,0
50417,St Brendans Infant School,Beanfield Avenue,Corby,Northamptonshire,Kingswood Catering Services,Restaurant/Cafe/Canteen,1,0,,536955,0,,52.49073900000000,06/00039/HS,235,env.health@corby.gov.uk,Corby,http://www.corby.gov.uk/Pages/Welcome.aspx,-0.72290500000000,NN18 0BA,2012-09-21,fhrs_5_en-GB,5,,FHRS,0
50418,St Patricks Roman Catholic Primary,Patrick Road,Corby,Northamptonshire,Kingswood Catering Services,Restaurant/Cafe/Canteen,1,0,,492749,5,,52.47865400000000,12/00081/FOODHS,235,env.health@corby.gov.uk,Corby,http://www.corby.gov.uk/Pages/Welcome.aspx,-0.71032700000000,NN18 9NT,2014-04-29,fhrs_5_en-GB,5,,FHRS,0
50419,Studfall Infants School,Rowlett Road,Corby,Northamptonshire,Kingswood Catering Services,Restaurant/Cafe/Canteen,1,0,,11593,0,,52.49991300000000,04/00746/FOODHS,235,env.health@corby.gov.uk,Corby,http://www.corby.gov.uk/Pages/Welcome.aspx,-0.70264900000000,NN17 2BP,2012-11-23,fhrs_5_en-GB,5,,FHRS,0
50420,Alberta Close,Corby,Northamptonshire,,Kingswood Neighbourhood Centre,Restaurant/Cafe/Canteen,1,5,,9681,5,,52.47551400000000,04/00046/FOODHS,235,env.health@corby.gov.uk,Corby,http://www.corby.gov.uk/Pages/Welcome.aspx,-0.72093200000000,NN18 9HU,2014-08-12,fhrs_5_en-GB,5,,FHRS,5
50421,Kirby Hall,Road To Kirby Hall Deene,Gretton,Corby,Kirby Hall Gift Shop,Retailers - other,4613,0,,556078,5,,52.52429400000000,12/00070/FOODHS,235,env.health@corby.gov.uk,Corby,http://www.corby.gov.uk/Pages/Welcome.aspx,-0.63686900000000,NN17 3EN,2013-04-03,fhrs_5_en-GB,5,,FHRS,0
50422,Knights Lodge,Tower Hill Road,Corby,Northamptonshire,Knights Lodge Public House,Restaurant/Cafe/Canteen,1,0,,10870,0,,52.48326900000000,04/00344/FOODHS,235,env.health@corby.gov.uk,Corby,http://www.corby.gov.uk/Pages/Welcome.aspx,-0.73138300000000,NN18 0TH,2013-04-24,fhrs_5_en-GB,5,,FHRS,5
50423,42 George Street,Corby,Northamptonshire,,La Fonte,Restaurant/Cafe/Canteen,1,5,,404329,5,,52.48803300000000,11/00073/FOODHS,235,env.health@corby.gov.uk,Corby,http://www.corby.gov.uk/Pages/Welcome.aspx,-0.70314600000000,NN17 1QD,2013-04-29,fhrs_5_en-GB,5,,FHRS,0
50424,Butland Road,Corby,Northamptonshire,,Lakelands Daycare Hospice,Restaurant/Cafe/Canteen,1,0,,28461,0,,52.47085700000000,09/00001/FOODHS,235,env.health@corby.gov.uk,Corby,http://www.corby.gov.uk/Pages/Welcome.aspx,-0.71258700000000,NN18 8LX,2013-03-13,fhrs_5_en-GB,5,,FHRS,0
50425,Lakelands Hospice,Deene House,New Post Office Square,Corby,Lakelands Hospice Emporium,Retailers - other,4613,0,,29905,0,,52.53004600000000,09/00124/FOODHS,235,env.health@corby.gov.uk,Corby,http://www.corby.gov.uk/Pages/Welcome.aspx,-0.64309900000000,NN17 1AA,2014-11-25,fhrs_5_en-GB,5,,FHRS,0
50426,Lidl Uk,Gainsborough Road,Corby,Northamptonshire,Lidl (UK) GmbH,Retailers - other,4613,5,,11202,0,,52.48379600000000,04/00498/FOODHS,235,env.health@corby.gov.uk,Corby,http://www.corby.gov.uk/Pages/Welcome.aspx,-0.70290200000000,NN18 0RG,2012-06-29,fhrs_5_en-GB,5,,FHRS,5
50427,The Lincoln,114 Lincoln Way,Corby,Northamptonshire,Lincoln,Restaurant/Cafe/Canteen,1,5,,11438,10,,52.47955300000000,04/00656/FOODHS,235,env.health@corby.gov.uk,Corby,http://www.corby.gov.uk/Pages/Welcome.aspx,-0.71776600000000,NN18 9HN,2011-01-18,fhrs_4_en-GB,4,,FHRS,5
50428,32 Cupar Crescent,Corby,Northamptonshire,,Little Inspirations,Restaurant/Cafe/Canteen,1,5,,560428,5,,52.48612900000000,13/00037/FOODC,235,env.health@corby.gov.uk,Corby,http://www.corby.gov.uk/Pages/Welcome.aspx,-0.69508700000000,NN17 1RF,2012-02-24,fhrs_5_en-GB,5,,FHRS,0
50429,Nisa Local,75 Occupation Road,Corby,Northamptonshire,Loco,Retailers - other,4613,10,,11529,5,,52.49542200000000,04/00714/FOODHS,235,env.health@corby.gov.uk,Corby,http://www.corby.gov.uk/Pages/Welcome.aspx,-0.69730100000000,NN17 1EE,2013-08-22,fhrs_4_en-GB,4,,FHRS,0
50430,Corby Railway Station,Station Road,Corby,Northamptonshire,Loco Coco Coffee Shop,Restaurant/Cafe/Canteen,1,0,,404334,0,,52.48895100000000,11/00081/FOODHS,235,env.health@corby.gov.uk,Corby,http://www.corby.gov.uk/Pages/Welcome.aspx,-0.68610800000000,NN17 1UJ,2013-04-03,fhrs_5_en-GB,5,,FHRS,5
50431,60 Rockingham Road,Corby,Northamptonshire,,Londis,Retailers - other,4613,5,,11189,10,,52.49672500000000,04/00492/FOODHS,235,env.health@corby.gov.uk,Corby,http://www.corby.gov.uk/Pages/Welcome.aspx,-0.68745200000000,NN17 1AE,2009-07-23,fhrs_4_en-GB,4,,FHRS,5
50432,Lord Nelson,4 Brigstock Road,Stanion,Kettering,Lord Nelson Public House,Restaurant/Cafe/Canteen,1,10,,10415,5,,52.47314100000000,04/00193/FOODHS,235,env.health@corby.gov.uk,Corby,http://www.corby.gov.uk/Pages/Welcome.aspx,-0.65367300000000,NN14 1BU,2011-01-24,fhrs_4_en-GB,4,,FHRS,5
50433,11 Boden Close,Corby,Northamptonshire,,Lotus House,Restaurant/Cafe/Canteen,1,10,,9737,10,,52.47003500000000,04/00054/FOODHS,235,env.health@corby.gov.uk,Corby,http://www.corby.gov.uk/Pages/Welcome.aspx,-0.73389800000000,NN18 9BT,2014-02-27,fhrs_3_en-GB,3,,FHRS,10
50434,Street Record,Tyson Courtyard,Weldon South Industrial Estate,Corby,LouLou's Yum Yums,Restaurant/Cafe/Canteen,1,5,,588706,10,,52.49335300000000,13/00059/FOODHS,235,env.health@corby.gov.uk,Corby,http://www.corby.gov.uk/Pages/Welcome.aspx,-0.65507300000000,,2013-07-29,fhrs_4_en-GB,4,,FHRS,5
50435,194 Studfall Avenue,Corby,Northamptonshire,,Lucky House Chinese Takeaway,Restaurant/Cafe/Canteen,1,10,,9467,10,,52.49610900000000,04/00016/FOODHS,235,env.health@corby.gov.uk,Corby,http://www.corby.gov.uk/Pages/Welcome.aspx,-0.70660500000000,NN17 1LJ,2013-12-12,fhrs_3_en-GB,3,,FHRS,10
50436,30 High Street,Gretton,Corby,Northamptonshire,Lydias Coffee Shop,Restaurant/Cafe/Canteen,1,5,,404331,5,,52.53963600000000,11/00077/FOODHS,235,env.health@corby.gov.uk,Corby,http://www.corby.gov.uk/Pages/Welcome.aspx,-0.67527600000000,NN17 3DE,2013-04-26,fhrs_5_en-GB,5,,FHRS,0
50437,,,,,Made With Love Cup Cakes,Restaurant/Cafe/Canteen,1,0,,33931,0,,,10/00076/FOODHS,235,env.health@corby.gov.uk,Corby,http://www.corby.gov.uk/Pages/Welcome.aspx,,,2010-08-27,fhrs_5_en-GB,5,,FHRS,0
50438,Madisons,Rockingham Road,Corby,Northamptonshire,Madison's + Morgans,Restaurant/Cafe/Canteen,1,5,,11319,10,,52.49289100000000,04/00565/FOODHS,235,env.health@corby.gov.uk,Corby,http://www.corby.gov.uk/Pages/Welcome.aspx,-0.68385400000000,NN17 1AL,2009-06-18,fhrs_4_en-GB,4,,FHRS,5
50439,Manor Farm,58 Main Street,Middleton,Market Harborough,Manor House,Restaurant/Cafe/Canteen,1,5,,10800,0,,52.50126600000000,04/00312/FOODHS,235,env.health@corby.gov.uk,Corby,http://www.corby.gov.uk/Pages/Welcome.aspx,-0.76262800000000,LE16 8YU,2013-11-18,fhrs_5_en-GB,5,,FHRS,5
50440,Corby Masonic Club,27 Rockingham Road,Corby,Northamptonshire,Masonic Lodge,Restaurant/Cafe/Canteen,1,0,,9790,5,,52.49531900000000,04/00064/HS,235,env.health@corby.gov.uk,Corby,http://www.corby.gov.uk/Pages/Welcome.aspx,-0.68631600000000,NN17 1AD,2012-09-17,fhrs_5_en-GB,5,,FHRS,5
50441,51 High Street,Corby,Northamptonshire,,Maxim Supermarket,Retailers - other,4613,5,,684084,5,,52.49084500000000,14/00001/FOODHS,235,env.health@corby.gov.uk,Corby,http://www.corby.gov.uk/Pages/Welcome.aspx,-0.68178000000000,NN17 1UU,2014-08-20,fhrs_5_en-GB,5,,FHRS,5
50442,65 Occupation Road,Corby,Northamptonshire,,Mazza,Restaurant/Cafe/Canteen,1,10,,492753,10,,52.49542200000000,12/00091/FOODHS,235,env.health@corby.gov.uk,Corby,http://www.corby.gov.uk/Pages/Welcome.aspx,-0.69730100000000,NN17 1EE,2012-12-10,fhrs_3_en-GB,3,,FHRS,5
50443,13 Danesholme Centre,Corby,Northamptonshire,,McColls,Retailers - other,4613,5,,17664,5,,52.47075400000000,06/00018/FOODHS,235,env.health@corby.gov.uk,Corby,http://www.corby.gov.uk/Pages/Welcome.aspx,-0.73384800000000,NN18 9EJ,2011-08-23,fhrs_5_en-GB,5,,FHRS,5
50444,165 - 167 Farmstead Road,Corby,Northamptonshire,,McColls,Retailers - other,4613,0,,11106,5,,52.48806000000000,04/00446/FOODHS,235,env.health@corby.gov.uk,Corby,http://www.corby.gov.uk/Pages/Welcome.aspx,-0.72541300000000,NN18 0LL,2012-08-29,fhrs_4_en-GB,4,,FHRS,10
50445,McDonalds,65 Corporation Street,Corby,Northamptonshire,McDonalds Restaurant,Restaurant/Cafe/Canteen,1,5,,10750,5,,52.48743600000000,04/00293/FOODHS,235,env.health@corby.gov.uk,Corby,http://www.corby.gov.uk/Pages/Welcome.aspx,-0.70198500000000,NN17 1NQ,2014-02-26,fhrs_5_en-GB,5,,FHRS,5
50446,Mcdonalds Restaurants,Phoenix Park Way,Corby,Northamptonshire,McDonalds Restaurant,Restaurant/Cafe/Canteen,1,5,,10128,0,,52.49542600000000,04/00129/FOODHS,235,env.health@corby.gov.uk,Corby,http://www.corby.gov.uk/Pages/Welcome.aspx,-0.68221700000000,NN17 5DT,2014-01-16,fhrs_5_en-GB,5,,FHRS,5
50447,The Woolpack,21 Stamford Road,Weldon,Corby,Meal Of The Day,Restaurant/Cafe/Canteen,1,5,,404336,5,,52.49717900000000,11/00083/FOODHS,235,env.health@corby.gov.uk,Corby,http://www.corby.gov.uk/Pages/Welcome.aspx,-0.63383300000000,NN17 3JL,2013-06-11,fhrs_4_en-GB,4,,FHRS,10
50448,2 Saxon Park,Saxon Way East,Corby,Northamptonshire,Meals On Wheels,Restaurant/Cafe/Canteen,1,0,,11665,0,,52.46473100000000,04/00786/FOODHS,235,env.health@corby.gov.uk,Corby,http://www.corby.gov.uk/Pages/Welcome.aspx,-0.73565500000000,NN18 9EY,2013-04-19,fhrs_5_en-GB,5,,FHRS,0
50449,Miahs,64 George Street,Corby,Northamptonshire,Mias Fast Food,Restaurant/Cafe/Canteen,1,10,,9415,5,,52.48929300000000,04/00009/FOODHS,235,env.health@corby.gov.uk,Corby,http://www.corby.gov.uk/Pages/Welcome.aspx,-0.70405100000000,NN17 1QE,2014-11-13,fhrs_4_en-GB,4,,FHRS,5
50450,Co Operative Retail Services Ltd,Alexandra Road,Corby,Northamptonshire,Midlands Co Op Society,Retailers - other,4613,5,,9630,5,,52.48931500000000,04/00038/FOODHS,235,env.health@corby.gov.uk,Corby,http://www.corby.gov.uk/Pages/Welcome.aspx,-0.70279900000000,NN17 1PE,2011-12-05,fhrs_5_en-GB,5,,FHRS,5
50451,121 Welland Vale Road,Corby,Northamptonshire,,Midlands Co-op Society,Retailers - other,4613,0,,10933,5,,52.50193000000000,04/00368/FOODHS,235,env.health@corby.gov.uk,Corby,http://www.corby.gov.uk/Pages/Welcome.aspx,-0.70867400000000,NN17 2AW,2012-06-27,fhrs_4_en-GB,4,,FHRS,10
50452,97 Welland Vale Road,Corby,Northamptonshire,,Millennium Pizza,Restaurant/Cafe/Canteen,1,20,,45808,10,,52.50193000000000,11/00028/FOODHS,235,env.health@corby.gov.uk,Corby,http://www.corby.gov.uk/Pages/Welcome.aspx,-0.70867400000000,NN17 2AW,2014-01-07,fhrs_1_en-GB,1,,FHRS,10
50453,18 Argyll Street,Corby,Northamptonshire,,Mind Day Centre,Restaurant/Cafe/Canteen,1,5,,9371,5,,52.48853000000000,04/00004/FOODHS,235,env.health@corby.gov.uk,Corby,http://www.corby.gov.uk/Pages/Welcome.aspx,-0.69756400000000,NN17 1RU,2013-07-17,fhrs_5_en-GB,5,,FHRS,5
50454,80 - 82 Rockingham Road,Corby,Northamptonshire,,Mini Sam,Retailers - other,4613,10,,34374,10,,52.49672500000000,10/00111/FOODHS,235,env.health@corby.gov.uk,Corby,http://www.corby.gov.uk/Pages/Welcome.aspx,-0.68745200000000,NN17 1AE,2013-10-09,fhrs_3_en-GB,3,,FHRS,5
50455,Wincanton (Matalan),Curver Way,Corby,Northamptonshire,Mitie Catering,Restaurant/Cafe/Canteen,1,0,,45490,0,,52.50244200000000,11/00010/FOODHS,235,env.health@corby.gov.uk,Corby,http://www.corby.gov.uk/Pages/Welcome.aspx,-0.66561000000000,NN17 5XN,2014-03-17,fhrs_5_en-GB,5,,FHRS,5
50456,Corby Indoor Market,Deene House,New Post Office Square,Corby,Moji Minimart,Restaurant/Cafe/Canteen,1,5,,33139,10,,52.48829200000000,10/00027/FOODHS,235,env.health@corby.gov.uk,Corby,http://www.corby.gov.uk/Pages/Welcome.aspx,-0.70050200000000,NN17 1PB,2010-03-02,fhrs_4_en-GB,4,,FHRS,5
50457,Morrisons Supermarket,Oakley Road,Corby,Northamptonshire,Morrisons,Retailers - other,4613,5,,11607,5,,52.47317900000000,04/00757/FOODHS,235,env.health@corby.gov.uk,Corby,http://www.corby.gov.uk/Pages/Welcome.aspx,-0.70269000000000,NN18 9NR,2014-02-21,fhrs_5_en-GB,5,,FHRS,5
50458,Wm Morrison Supermarkets Plc,2 Halley Road,Corby,Northamptonshire,Morrisons Warehouse,Distributors/Transporters,7,0,,18056,0,,52.50629300000000,06/00063/FOODHS,235,env.health@corby.gov.uk,Corby,http://www.corby.gov.uk/Pages/Welcome.aspx,-0.64849100000000,NN17 5AN,2014-03-04,fhrs_5_en-GB,5,,FHRS,0
50459,5 Willow Place,Corby,Northamptonshire,,Mothercare,Retailers - other,4613,0,,45759,5,,52.48672500000000,11/00025/FOODHS,235,env.health@corby.gov.uk,Corby,http://www.corby.gov.uk/Pages/Welcome.aspx,-0.70187300000000,NN17 1BH,2013-02-11,fhrs_5_en-GB,5,,FHRS,0
50460,J B S Roofing Ltd,Gretton Brook Road,Earlstrees Industrial Estate,Corby,MR Catering (Anitas Cafe),Restaurant/Cafe/Canteen,1,0,,556080,0,,52.51122000000000,13/00022/FOODHS,235,env.health@corby.gov.uk,Corby,http://www.corby.gov.uk/Pages/Welcome.aspx,-0.68444200000000,NN17 4BA,2013-01-17,fhrs_5_en-GB,5,,FHRS,0
50461,105 Rockingham Road,Corby,Northamptonshire,,Mr Chois,Restaurant/Cafe/Canteen,1,0,,11248,5,,52.50156400000000,04/00520/FOODHS,235,env.health@corby.gov.uk,Corby,http://www.corby.gov.uk/Pages/Welcome.aspx,-0.69333400000000,NN17 1JW,2013-06-11,fhrs_5_en-GB,5,,FHRS,5
50462,7 New Post Office Square,Corby,Northamptonshire,,MROZ Butcher Shop,Manufacturers/packers,7839,10,,621306,10,,52.48829200000000,13/00069/FOODHS,235,env.health@corby.gov.uk,Corby,http://www.corby.gov.uk/Pages/Welcome.aspx,-0.70050200000000,NN17 1PB,2013-10-19,fhrs_3_en-GB,3,,FHRS,5
50463,20 Courteenhall Drive,Weldon,Corby,Northamptonshire,Mrs Heath's Cakes,Restaurant/Cafe/Canteen,1,0,,727768,5,,,14/00077/FOODHS,235,env.health@corby.gov.uk,Corby,http://www.corby.gov.uk/Pages/Welcome.aspx,,NN17 5FE,2014-09-09,fhrs_5_en-GB,5,,FHRS,0
50464,102 Kettering Road,Weldon,Corby,Northamptonshire,Mucky Pups Childminding,Restaurant/Cafe/Canteen,1,0,,718838,0,,52.48868200000000,14/00125/FOODHS,235,env.health@corby.gov.uk,Corby,http://www.corby.gov.uk/Pages/Welcome.aspx,-0.64627600000000,NN17 3JG,2014-11-19,fhrs_5_en-GB,5,,FHRS,0
50465,,,,,MuckyPups Childminding,Restaurant/Cafe/Canteen,1,0,,718836,0,,,14/00048/FOODC,235,env.health@corby.gov.uk,Corby,http://www.corby.gov.uk/Pages/Welcome.aspx,,,2014-05-06,fhrs_5_en-GB,5,,FHRS,5
50466,Geddington Road,Corby,Northamptonshire,,Murco Service Station,Retailers - other,4613,5,,29084,0,,51.53539900000000,09/00051/FOODHS,235,env.health@corby.gov.uk,Corby,http://www.corby.gov.uk/Pages/Welcome.aspx,-0.09891100000000,N18 8ET,2011-04-06,fhrs_5_en-GB,5,,FHRS,0
50467,72 Rockingham Road,Corby,Northamptonshire,,Neha Convenience Store,Retailers - other,4613,10,,727771,10,,52.49672500000000,14/00091/FOODHS,235,env.health@corby.gov.uk,Corby,http://www.corby.gov.uk/Pages/Welcome.aspx,-0.68745200000000,NN17 1AE,2014-12-16,fhrs_3_en-GB,3,,FHRS,10
50468,21A High Street,Weldon,Corby,Northamptonshire,Neil House,Restaurant/Cafe/Canteen,1,5,,28525,5,,52.49575400000000,09/00005/FOODHS,235,env.health@corby.gov.uk,Corby,http://www.corby.gov.uk/Pages/Welcome.aspx,-0.63658800000000,NN17 3JJ,2013-01-28,fhrs_5_en-GB,5,,FHRS,5
50469,13A Pytchley Court,Corby,Northamptonshire,,New Chois,Restaurant/Cafe/Canteen,1,10,,17622,10,,52.49779200000000,06/00015/FOODHS,235,env.health@corby.gov.uk,Corby,http://www.corby.gov.uk/Pages/Welcome.aspx,-0.72165500000000,NN17 2QD,2013-10-23,fhrs_3_en-GB,3,,FHRS,10
50470,4 New Post Office Square,Corby,Northamptonshire,,New Corby Cafe,Restaurant/Cafe/Canteen,1,10,,30086,10,,52.48829200000000,09/00145/FOODHS,235,env.health@corby.gov.uk,Corby,http://www.corby.gov.uk/Pages/Welcome.aspx,-0.70050200000000,NN17 1PB,2013-03-06,fhrs_3_en-GB,3,,FHRS,10
50471,178 Studfall Avenue,Corby,Northamptonshire,,Newscentre,Retailers - other,4613,5,,11034,5,,52.49610900000000,04/00416/FOODHS,235,env.health@corby.gov.uk,Corby,http://www.corby.gov.uk/Pages/Welcome.aspx,-0.70660500000000,NN17 1LJ,2010-04-21,fhrs_5_en-GB,5,,FHRS,5
50472,Unit 14,The Peel Centre,Phoenix Park Way,Corby,Next,Retailers - other,4613,0,,21654,5,,52.49542600000000,07/00048/HS,235,env.health@corby.gov.uk,Corby,http://www.corby.gov.uk/Pages/Welcome.aspx,-0.68221700000000,NN17 5DT,2011-04-14,fhrs_5_en-GB,5,,FHRS,5
50473,3 - 5 Corporation Street,Corby,Northamptonshire,,Noodle Express,Restaurant/Cafe/Canteen,1,10,,589424,10,,52.48749200000000,13/00045/FOODHS,235,env.health@corby.gov.uk,Corby,http://www.corby.gov.uk/Pages/Welcome.aspx,-0.70054000000000,NN17 1NG,2013-09-02,fhrs_4_en-GB,4,,FHRS,0
50474,Northlands Veterinary Hospital,Unit 3,86 George Street,Corby,Northlands Vetinery Clinic,Retailers - other,4613,0,,404328,0,,52.48929300000000,11/00070/FOODC,235,env.health@corby.gov.uk,Corby,http://www.corby.gov.uk/Pages/Welcome.aspx,-0.70405100000000,NN17 1QE,2011-10-05,fhrs_5_en-GB,5,,FHRS,0
50475,Beanfield Junior And Infant School,Farmstead Road,Corby,Northamptonshire,Nourish,Restaurant/Cafe/Canteen,1,0,,727772,5,,52.48725100000000,14/00115/FOODC,235,env.health@corby.gov.uk,Corby,http://www.corby.gov.uk/Pages/Welcome.aspx,-0.72716000000000,NN18 0LJ,2014-10-14,fhrs_5_en-GB,5,,FHRS,0
50476,Stanion Church Of England Primary S,Cardigan Road,Stanion,Kettering,Nourish,Restaurant/Cafe/Canteen,1,5,,536965,5,,52.47258000000000,13/00014/FOODC,235,env.health@corby.gov.uk,Corby,http://www.corby.gov.uk/Pages/Welcome.aspx,-0.65732700000000,NN14 1BY,2014-11-06,fhrs_4_en-GB,4,,FHRS,10
50477,Danesholme Out Of School Club,9 Danesholme Centre,Corby,Northamptonshire,Oakey Dokey Childcare,Restaurant/Cafe/Canteen,1,0,,536956,0,,52.47075400000000,12/00047/FOODHS,235,env.health@corby.gov.uk,Corby,http://www.corby.gov.uk/Pages/Welcome.aspx,-0.73384800000000,NN18 9EJ,2014-03-04,fhrs_5_en-GB,5,,FHRS,0
50478,5 Charter Court,Corby,Northamptonshire,,Oakley Fish Bar,Restaurant/Cafe/Canteen,1,5,,17969,5,,52.47343900000000,06/00053/FOODHS,235,env.health@corby.gov.uk,Corby,http://www.corby.gov.uk/Pages/Welcome.aspx,-0.70702000000000,NN18 8QT,2014-12-09,fhrs_5_en-GB,5,,FHRS,5
50479,Cheltenham Road,Corby,Northamptonshire,,Oakley Vale Primary School,Restaurant/Cafe/Canteen,1,5,,45552,0,,52.46675300000000,11/00013/HS,235,env.health@corby.gov.uk,Corby,http://www.corby.gov.uk/Pages/Welcome.aspx,-0.70318200000000,NN18 8RH,2013-09-16,fhrs_5_en-GB,5,,FHRS,5
50480,11 Pytchley Court,Corby,Northamptonshire,,Ocean Fish Bar,Restaurant/Cafe/Canteen,1,0,,11348,0,,52.49779200000000,04/00581/FOODHS,235,env.health@corby.gov.uk,Corby,http://www.corby.gov.uk/Pages/Welcome.aspx,-0.72165500000000,NN17 2QD,2014-08-29,fhrs_5_en-GB,5,,FHRS,0
50481,Solway Foods Limited,1 - 2 Godwin Road,Corby,Northamptonshire,OCS,Restaurant/Cafe/Canteen,1,5,,560430,0,,52.51267100000000,13/00040/FOODHS,235,env.health@corby.gov.uk,Corby,http://www.corby.gov.uk/Pages/Welcome.aspx,-0.69125100000000,NN17 4DS,2013-12-03,fhrs_5_en-GB,5,,FHRS,5
50482,High Street,Corby,Northamptonshire,,Old Village Primary School,Restaurant/Cafe/Canteen,1,0,,404309,0,,52.49084500000000,04/00552/HS,235,env.health@corby.gov.uk,Corby,http://www.corby.gov.uk/Pages/Welcome.aspx,-0.68178000000000,NN17 1UU,2014-11-24,fhrs_5_en-GB,5,,FHRS,0
50483,One Stop Convenience Stores,200 - 202 Studfall Avenue,Corby,Northamptonshire,One Stop Stores Ltd,Retailers - other,4613,0,,727769,0,,52.49610900000000,14/00082/FOODHS,235,env.health@corby.gov.uk,Corby,http://www.corby.gov.uk/Pages/Welcome.aspx,-0.70660500000000,NN17 1LJ,2014-09-12,fhrs_5_en-GB,5,,FHRS,0
50484,97 Rockingham Road,Corby,Northamptonshire,,Oriental Fusions,Restaurant/Cafe/Canteen,1,10,,21624,5,,52.50156400000000,07/00044/FOODHS,235,env.health@corby.gov.uk,Corby,http://www.corby.gov.uk/Pages/Welcome.aspx,-0.69333400000000,NN17 1JW,2013-09-20,fhrs_3_en-GB,3,,FHRS,10
50485,C And Ds Diner,Kemp House,Brunel Road,Earlstrees Industrial Estate,Ozy's Diner,Restaurant/Cafe/Canteen,1,10,,727766,10,,52.50996900000000,14/00063/FOODHS,235,env.health@corby.gov.uk,Corby,http://www.corby.gov.uk/Pages/Welcome.aspx,-0.69317300000000,NN17 4AU,2014-08-13,fhrs_3_en-GB,3,,FHRS,5
50486,Papa Johns,35 - 37 Everest Lane,Corby,Northamptonshire,Papa John's,Restaurant/Cafe/Canteen,1,0,,706920,0,,52.48814700000000,14/00073/FOODHS,235,env.health@corby.gov.uk,Corby,http://www.corby.gov.uk/Pages/Welcome.aspx,-0.70286200000000,NN17 1PS,2014-09-25,fhrs_5_en-GB,5,,FHRS,0
50487,Brooke Weston City Technology Colle,Coomb Road,Corby,Northamptonshire,Partnership Catering,Restaurant/Cafe/Canteen,1,0,,32937,0,,52.46744700000000,10/00014/FOODC,235,env.health@corby.gov.uk,Corby,http://www.corby.gov.uk/Pages/Welcome.aspx,-0.71237700000000,NN18 8LA,2013-09-27,fhrs_5_en-GB,5,,FHRS,0
50488,Oakley Grange Adult Training Centre,Patrick Road,Corby,Northamptonshire,Patrick Road Resource Centre,Restaurant/Cafe/Canteen,1,5,,14632,5,,52.48181000000000,05/00030/FOODHS,235,env.health@corby.gov.uk,Corby,http://www.corby.gov.uk/Pages/Welcome.aspx,-0.70293100000000,NN18 9NP,2014-10-20,fhrs_5_en-GB,5,,FHRS,5
50489,Pen Green Lane,Corby,Northamptonshire,,Pen Green Nursery,Restaurant/Cafe/Canteen,1,0,,17794,0,,52.49904300000000,06/00033/FOODHS,235,env.health@corby.gov.uk,Corby,http://www.corby.gov.uk/Pages/Welcome.aspx,-0.68730900000000,NN17 1BJ,2013-11-20,fhrs_5_en-GB,5,,FHRS,0
50490,Perfect Pizza,66A George Street,Corby,Northamptonshire,Pepper Pizza,Restaurant/Cafe/Canteen,1,5,,9495,5,,52.48929300000000,04/00020/FOODHS,235,env.health@corby.gov.uk,Corby,http://www.corby.gov.uk/Pages/Welcome.aspx,-0.70405100000000,NN17 1QE,2013-02-12,fhrs_4_en-GB,4,,FHRS,10
50491,The Phoenix,129 Beanfield Avenue,Corby,Northamptonshire,Phoenix Public House,Restaurant/Cafe/Canteen,1,5,,17690,10,,52.48907900000000,06/00021/FOODHS,235,env.health@corby.gov.uk,Corby,http://www.corby.gov.uk/Pages/Welcome.aspx,-0.72404300000000,NN18 0AY,2010-03-16,fhrs_3_en-GB,3,,FHRS,10
50492,37 High Street,Corby,Northamptonshire,,Picnic Lounge,Restaurant/Cafe/Canteen,1,10,,684094,10,,52.49084500000000,14/00056/FOODHS,235,env.health@corby.gov.uk,Corby,http://www.corby.gov.uk/Pages/Welcome.aspx,-0.68178000000000,NN17 1UU,2014-06-18,fhrs_3_en-GB,3,,FHRS,5
50493,Pill Box Ltd,188 Studfall Avenue,Corby,Northamptonshire,Pill Box,Retailers - other,4613,,,11061,,,52.49610900000000,04/00426/FOODHS,235,env.health@corby.gov.uk,Corby,http://www.corby.gov.uk/Pages/Welcome.aspx,-0.70660500000000,NN17 1LJ,2012-06-26,fhrs_exempt_en-GB,Exempt,,FHRS,
50494,,,,,Pink Cupcakery,Manufacturers/packers,7839,5,,404322,5,,,11/00058/FOODC,235,env.health@corby.gov.uk,Corby,http://www.corby.gov.uk/Pages/Welcome.aspx,,,2011-09-14,fhrs_5_en-GB,5,,FHRS,0
50495,8 Charter Court,Corby,Northamptonshire,,Pizza Hut,Restaurant/Cafe/Canteen,1,0,,14902,0,,52.47343900000000,05/00067/FOODHS,235,env.health@corby.gov.uk,Corby,http://www.corby.gov.uk/Pages/Welcome.aspx,-0.70702000000000,NN18 8QT,2014-01-31,fhrs_5_en-GB,5,,FHRS,0
50496,15 Henley House,Corporation Street,Corby,Northamptonshire,Planet Coffee,Retailers - other,4613,10,,14672,10,,52.48800600000000,05/00035/FOODHS,235,env.health@corby.gov.uk,Corby,http://www.corby.gov.uk/Pages/Welcome.aspx,-0.70230700000000,NN17 1NL,2014-02-13,fhrs_3_en-GB,3,,FHRS,10
50497,46 - 48 Corporation Street,Corby,Northamptonshire,,Poundland,Retailers - other,4613,5,,21262,5,,52.48807300000000,07/00003/FOODHS,235,env.health@corby.gov.uk,Corby,http://www.corby.gov.uk/Pages/Welcome.aspx,-0.70261400000000,NN17 1NH,2012-09-14,fhrs_5_en-GB,5,,FHRS,5
50498,5 The Peel Centre,Phoenix Park Way,Corby,Northamptonshire,Poundland,Retailers - other,4613,0,,536966,0,,52.49542600000000,13/00018/FOODHS,235,env.health@corby.gov.uk,Corby,http://www.corby.gov.uk/Pages/Welcome.aspx,-0.68221700000000,NN17 5DT,2013-02-15,fhrs_5_en-GB,5,,FHRS,5
50499,40 Corporation Street,Corby,Northamptonshire,,Poundworld,Retailers - other,4613,20,,404337,15,,52.48794200000000,11/00089/FOODHS,235,env.health@corby.gov.uk,Corby,http://www.corby.gov.uk/Pages/Welcome.aspx,-0.70135100000000,NN17 1NJ,2013-05-29,fhrs_1_en-GB,1,,FHRS,15
50500,Londis,1 Pytchley Court,Corby,Northamptonshire,Premier Stores,Retailers - other,4613,20,,11427,15,,52.49779200000000,04/00650/FOODHS,235,env.health@corby.gov.uk,Corby,http://www.corby.gov.uk/Pages/Welcome.aspx,-0.72165500000000,NN17 2QD,2013-10-11,fhrs_0_en-GB,0,,FHRS,20
50501,Stamford Road,Weldon,Northamptonshire,,Priors Hall Golf Club,Restaurant/Cafe/Canteen,1,10,,10311,5,,52.51240100000000,04/00167/FOODC,235,env.health@corby.gov.uk,Corby,http://www.corby.gov.uk/Pages/Welcome.aspx,-0.61532400000000,NN17 3JH,2012-04-26,fhrs_4_en-GB,4,,FHRS,5
50502,56 - 58 Burghley Drive,Corby,Northamptonshire,,Purple Mango,Restaurant/Cafe/Canteen,1,30,,33094,20,,52.48180200000000,10/00024/FOODHS,235,env.health@corby.gov.uk,Corby,http://www.corby.gov.uk/Pages/Welcome.aspx,-0.69487600000000,NN18 8EB,2014-10-01,fhrs_0_en-GB,0,,FHRS,25
50503,Raffertys,67 Occupation Road,Corby,Northamptonshire,Rafferty's,Restaurant/Cafe/Canteen,1,10,,11532,10,,52.49542200000000,04/00715/FOODHS,235,env.health@corby.gov.uk,Corby,http://www.corby.gov.uk/Pages/Welcome.aspx,-0.69730100000000,NN17 1EE,2014-12-04,fhrs_4_en-GB,4,,FHRS,0
50504,The Raven Hotel,Rockingham Road,Corby,Northamptonshire,Raven Hotel (inc. SergeantPepper's Bar & Restaurant),Restaurant/Cafe/Canteen,1,10,,11329,10,,52.49936300000000,04/00571/FOODHS,235,env.health@corby.gov.uk,Corby,http://www.corby.gov.uk/Pages/Welcome.aspx,-0.68939200000000,NN17 1AG,2014-02-27,fhrs_3_en-GB,3,,FHRS,10
50505,72 Blackbird Road,Corby,Northamptonshire,,RB Boutique Sweet Treats,Restaurant/Cafe/Canteen,1,0,,589427,0,,52.47550800000000,13/00057/FOODHS,235,env.health@corby.gov.uk,Corby,http://www.corby.gov.uk/Pages/Welcome.aspx,-0.70139400000000,NN18 8FE,2013-08-05,fhrs_5_en-GB,5,,FHRS,0
50506,Red Fort Indian Restaurant,54 Rockingham Road,Corby,Northamptonshire,Red Fort,Restaurant/Cafe/Canteen,1,10,,33609,10,,52.49672500000000,10/00054/FOODHS,235,env.health@corby.gov.uk,Corby,http://www.corby.gov.uk/Pages/Welcome.aspx,-0.68745200000000,NN17 1AE,2013-09-03,fhrs_3_en-GB,3,,FHRS,10
50507,Claires Accessories,53 Corporation Street,Corby,Northamptonshire,Reids Sweet Emporium,Retailers - other,4613,0,,589428,0,,52.48743600000000,13/00060/FOODHS,235,env.health@corby.gov.uk,Corby,http://www.corby.gov.uk/Pages/Welcome.aspx,-0.70198500000000,NN17 1NQ,2013-08-15,fhrs_5_en-GB,5,,FHRS,0
50508,13 Jay Road,Corby,Northamptonshire,,Rigo's Ices,Restaurant/Cafe/Canteen,1,0,,589429,0,,52.47625900000000,13/00061/FOODHS,235,env.health@corby.gov.uk,Corby,http://www.corby.gov.uk/Pages/Welcome.aspx,-0.70509700000000,NN18 8RP,2013-08-12,fhrs_5_en-GB,5,,FHRS,0
50509,7 Princewood Court,Corby,Northamptonshire,,Rockafellas,Restaurant/Cafe/Canteen,1,5,,30098,5,,52.50845800000000,09/00146/FOODHS,235,env.health@corby.gov.uk,Corby,http://www.corby.gov.uk/Pages/Welcome.aspx,-0.70543300000000,NN17 4BH,2009-12-14,fhrs_5_en-GB,5,,FHRS,0
50510,Rockingham Arms,Studfall Avenue,Corby,Northamptonshire,Rockingham Arms Public House,Restaurant/Cafe/Canteen,1,5,,11071,5,,52.49435800000000,04/00431/FOODHS,235,env.health@corby.gov.uk,Corby,http://www.corby.gov.uk/Pages/Welcome.aspx,-0.70677500000000,NN17 1LQ,2011-03-10,fhrs_5_en-GB,5,,FHRS,0
50511,Rockingham Castle,Rockingham Castle And Park,Rockingham,Market Harborough,Rockingham Castle T/Rooms,Restaurant/Cafe/Canteen,1,0,,10891,0,,52.51074000000000,04/00352/FOODC,235,env.health@corby.gov.uk,Corby,http://www.corby.gov.uk/Pages/Welcome.aspx,-0.72186900000000,LE16 8TH,2014-08-13,fhrs_5_en-GB,5,,FHRS,0
50512,107 Rockingham Road,Corby,Northamptonshire,,Rockingham Fish And Chips,Restaurant/Cafe/Canteen,1,10,,11296,10,,52.50156400000000,04/00548/FOODHS,235,env.health@corby.gov.uk,Corby,http://www.corby.gov.uk/Pages/Welcome.aspx,-0.69333400000000,NN17 1JW,2014-08-14,fhrs_3_en-GB,3,,FHRS,10
50513,Rockingham Road,Corby,Northamptonshire,,Rockingham Primary School,Restaurant/Cafe/Canteen,1,5,,9990,5,,52.49661400000000,04/00100/HS,235,env.health@corby.gov.uk,Corby,http://www.corby.gov.uk/Pages/Welcome.aspx,-0.68795600000000,NN17 1AJ,2014-01-14,fhrs_5_en-GB,5,,FHRS,0
50514,15 The Jamb,Corby,Northamptonshire,,Rockingham Road Post Office,Retailers - other,4613,5,,10840,5,,52.49139000000000,04/00331/FOODHS,235,env.health@corby.gov.uk,Corby,http://www.corby.gov.uk/Pages/Welcome.aspx,-0.68388500000000,NN17 1AB,2010-04-21,fhrs_5_en-GB,5,,FHRS,5
50515,Sondes Barn,Main Street,Rockingham,Market Harborough,Rockingham Village Shop And Tea Rooms,Restaurant/Cafe/Canteen,1,10,,14596,10,,52.51665700000000,05/00025/FOODHS,235,env.health@corby.gov.uk,Corby,http://www.corby.gov.uk/Pages/Welcome.aspx,-0.72440900000000,LE16 8TG,2013-10-15,fhrs_3_en-GB,3,,FHRS,10
50516,Rocky Express,74 George Street,Corby,Northamptonshire,Rocky Express Ltd,Retailers - other,4613,10,,589425,5,,52.48938300000000,13/00047/FOODHS,235,env.health@corby.gov.uk,Corby,http://www.corby.gov.uk/Pages/Welcome.aspx,-0.70406300000000,NN17 1QE,2013-07-17,fhrs_4_en-GB,4,,FHRS,0
50517,58 Rockingham Road,Corby,Northamptonshire,,Rocky Fried Chicken,Restaurant/Cafe/Canteen,1,10,,492746,10,,52.49672500000000,12/00067/FOODHS,235,env.health@corby.gov.uk,Corby,http://www.corby.gov.uk/Pages/Welcome.aspx,-0.68745200000000,NN17 1AE,2013-08-27,fhrs_3_en-GB,3,,FHRS,5
50518,Royal George,4 Blind Lane,Cottingham,Market Harborough,Royal George Public House,Restaurant/Cafe/Canteen,1,10,,10531,10,,52.50286200000000,04/00225/FOODHS,235,env.health@corby.gov.uk,Corby,http://www.corby.gov.uk/Pages/Welcome.aspx,-0.75367000000000,LE16 8XE,2013-11-04,fhrs_3_en-GB,3,,FHRS,10
50519,399 Cottingham Road,Corby,Northamptonshire,,Royal Mencap Society,Restaurant/Cafe/Canteen,1,10,,589418,10,,52.49248500000000,04/00297/FOODHS,235,env.health@corby.gov.uk,Corby,http://www.corby.gov.uk/Pages/Welcome.aspx,-0.72646400000000,NN18 0TW,2013-04-15,fhrs_3_en-GB,3,,FHRS,5
50520,88 - 90 Rockingham Road,Corby,Northamptonshire,,Royal Tandoori,Restaurant/Cafe/Canteen,1,10,,45721,10,,52.49672500000000,11/00023/FOODHS,235,env.health@corby.gov.uk,Corby,http://www.corby.gov.uk/Pages/Welcome.aspx,-0.68745200000000,NN17 1AE,2013-11-05,fhrs_3_en-GB,3,,FHRS,10
50521,66 Corporation Street,Corby,Northamptonshire,,Rubix,Restaurant/Cafe/Canteen,1,5,,589422,0,,52.48807300000000,13/00030/FOODHS,235,env.health@corby.gov.uk,Corby,http://www.corby.gov.uk/Pages/Welcome.aspx,-0.70261400000000,NN17 1NH,2013-09-10,fhrs_5_en-GB,5,,FHRS,5
50522,Occupation Road,Corby,Northamptonshire,,S & L Bowling Club,Restaurant/Cafe/Canteen,1,5,,11521,5,,52.49923200000000,04/00707/FOODHS,235,env.health@corby.gov.uk,Corby,http://www.corby.gov.uk/Pages/Welcome.aspx,-0.69141400000000,NN17 1EH,2010-11-24,fhrs_5_en-GB,5,,FHRS,5
50523,S And L Football Club,Occupation Road,Corby,Northamptonshire,S & L Football Club,Restaurant/Cafe/Canteen,1,5,,11478,10,,52.49701400000000,04/00684/FOODHS,235,env.health@corby.gov.uk,Corby,http://www.corby.gov.uk/Pages/Welcome.aspx,-0.69324700000000,NN17 1EB,2011-03-28,fhrs_4_en-GB,4,,FHRS,5
50524,S And L Rugby Club Pavilion,Occupation Road,Corby,Northamptonshire,S & L Rugby Club,Restaurant/Cafe/Canteen,1,5,,11500,5,,52.49923200000000,04/00698/FOODHS,235,env.health@corby.gov.uk,Corby,http://www.corby.gov.uk/Pages/Welcome.aspx,-0.69141400000000,NN17 1EH,2009-05-29,fhrs_4_en-GB,4,,FHRS,10
50525,S And S Stores,176 - 178 Gainsborough Road,Corby,Northamptonshire,S & S Stores,Retailers - other,4613,20,,435361,10,,52.48386500000000,12/00025/FOODHS,235,env.health@corby.gov.uk,Corby,http://www.corby.gov.uk/Pages/Welcome.aspx,-0.70915900000000,NN18 0RQ,2013-10-31,fhrs_1_en-GB,1,,FHRS,5
50526,The Samuel Lloyd,4 Princewood Court,Corby,Northamptonshire,Samuel Lloyd,Restaurant/Cafe/Canteen,1,5,,28803,5,,52.50845800000000,09/00027/FOODHS,235,env.health@corby.gov.uk,Corby,http://www.corby.gov.uk/Pages/Welcome.aspx,-0.70543300000000,NN17 4BH,2014-08-29,fhrs_5_en-GB,5,,FHRS,5
50527,Savers Ltd,41 Corporation Street,Corby,Northamptonshire,Savers Health & Beauty Plc,Retailers - other,4613,0,,10693,5,,52.48743600000000,04/00275/HS,235,env.health@corby.gov.uk,Corby,http://www.corby.gov.uk/Pages/Welcome.aspx,-0.70198500000000,NN17 1NQ,2012-09-14,fhrs_5_en-GB,5,,FHRS,5
50528,8 New Post Office Square,Corby,Northamptonshire,,Schooner Ltd,Restaurant/Cafe/Canteen,1,5,,9789,5,,52.48829200000000,04/00064/FOODHS,235,env.health@corby.gov.uk,Corby,http://www.corby.gov.uk/Pages/Welcome.aspx,-0.70050200000000,NN17 1PB,2014-02-26,fhrs_5_en-GB,5,,FHRS,5
50529,Seagrave House,Occupation Road,Corby,Northamptonshire,Seagrave House Care Home,Restaurant/Cafe/Canteen,1,0,,45416,0,,52.49923200000000,11/00006/FOODHS,235,env.health@corby.gov.uk,Corby,http://www.corby.gov.uk/Pages/Welcome.aspx,-0.69141400000000,NN17 1EH,2013-11-27,fhrs_5_en-GB,5,,FHRS,0
50530,Sandalwood Court,2 Dunnock Road,Corby,Northamptonshire,Shaw Health Care,Restaurant/Cafe/Canteen,1,0,,28509,0,,52.47540400000000,09/00004/FOODHS,235,env.health@corby.gov.uk,Corby,http://www.corby.gov.uk/Pages/Welcome.aspx,-0.70008600000000,NN18 8FP,2014-01-01,fhrs_5_en-GB,5,,FHRS,0
50531,Thackley Green Special Care Centre,Lewin Road,Corby,Northamptonshire,Shaw HealthCare (Homes) Limited,Restaurant/Cafe/Canteen,1,5,,14722,0,,52.46869600000000,05/00044/FOODHS,235,env.health@corby.gov.uk,Corby,http://www.corby.gov.uk/Pages/Welcome.aspx,-0.71889200000000,NN18 8JS,2013-11-08,fhrs_5_en-GB,5,,FHRS,5
50532,Cottingham Road,Corby,Northamptonshire,,Shell Garage,Retailers - other,4613,5,,684081,0,,52.48967500000000,13/00076/FOODHS,235,env.health@corby.gov.uk,Corby,http://www.corby.gov.uk/Pages/Welcome.aspx,-0.71678000000000,NN17 2UL,2014-02-13,fhrs_5_en-GB,5,,FHRS,0
50533,The Shire Horse,Willow Brook Road,Corby,Northamptonshire,Shire Horse Public House,Restaurant/Cafe/Canteen,1,10,,11494,10,,52.50519900000000,04/00695/FOODHS,235,env.health@corby.gov.uk,Corby,http://www.corby.gov.uk/Pages/Welcome.aspx,-0.70339200000000,NN17 2EB,2013-03-07,fhrs_3_en-GB,3,,FHRS,5
50534,Shire Lodge Nursing Home,Rockingham Road,Corby,Northamptonshire,Shire Lodge Care Home,Restaurant/Cafe/Canteen,1,5,,11309,5,,52.50708700000000,04/00558/FOODHS,235,env.health@corby.gov.uk,Corby,http://www.corby.gov.uk/Pages/Welcome.aspx,-0.70834600000000,NN17 2AE,2014-01-22,fhrs_5_en-GB,5,,FHRS,0
50535,The Shoulder Of Mutton,12 Chapel Road,Weldon,Corby,Shoulder Of Mutton,Restaurant/Cafe/Canteen,1,5,,492754,5,,52.49710600000000,12/00092/FOODHS,235,env.health@corby.gov.uk,Corby,http://www.corby.gov.uk/Pages/Welcome.aspx,-0.63999300000000,NN17 3HP,2014-07-21,fhrs_4_en-GB,4,,FHRS,10
50536,Corby Silver Band Club,Denford Road,Corby,Northamptonshire,Silver Band,Restaurant/Cafe/Canteen,1,0,,14808,0,,52.49845900000000,05/00055/FOODHS,235,env.health@corby.gov.uk,Corby,http://www.corby.gov.uk/Pages/Welcome.aspx,-0.72266700000000,NN17 2QW,2012-06-25,fhrs_5_en-GB,5,,FHRS,5
50537,171 Farmstead Road,Corby,Northamptonshire,,Sizzler,Restaurant/Cafe/Canteen,1,10,,404339,5,,52.48806000000000,11/00092/FOODHS,235,env.health@corby.gov.uk,Corby,http://www.corby.gov.uk/Pages/Welcome.aspx,-0.72541300000000,NN18 0LL,2013-08-23,fhrs_4_en-GB,4,,FHRS,5
50538,Sondes Arms,Main Street,Rockingham,Market Harborough,Sondes Arms Public House,Restaurant/Cafe/Canteen,1,0,,10409,0,,52.51665700000000,04/00191/FOODHS,235,env.health@corby.gov.uk,Corby,http://www.corby.gov.uk/Pages/Welcome.aspx,-0.72440900000000,LE16 8TG,2013-04-23,fhrs_5_en-GB,5,,FHRS,0
50539,9 Blenheim Walk,Corby,Northamptonshire,,Sood Food,Retailers - other,4613,10,,21253,10,,52.47777600000000,07/00002/FOODHS,235,env.health@corby.gov.uk,Corby,http://www.corby.gov.uk/Pages/Welcome.aspx,-0.71478500000000,NN18 9HA,2013-01-24,fhrs_2_en-GB,2,,FHRS,15
50540,Wessington Jewellers,2 Spencer Court,Corby,Northamptonshire,Spencer Court News,Retailers - other,4613,5,,17635,5,,52.48736600000000,06/00016/FOODHS,235,env.health@corby.gov.uk,Corby,http://www.corby.gov.uk/Pages/Welcome.aspx,-0.70135400000000,NN17 1NU,2010-09-29,fhrs_5_en-GB,5,,FHRS,5
50541,Oakley Road,Corby,Northamptonshire,,Spread Eagle,Restaurant/Cafe/Canteen,1,0,,10539,5,,52.46337700000000,04/00228/FOODHS,235,env.health@corby.gov.uk,Corby,http://www.corby.gov.uk/Pages/Welcome.aspx,-0.73179300000000,NN18 8HW,2013-03-06,fhrs_5_en-GB,5,,FHRS,5
50542,Hazelwood Neighbourhood Centre,Gainsborough Road,Corby,Northamptonshire,Squirrels Day Nursery,Restaurant/Cafe/Canteen,1,5,,9966,5,,52.48016000000000,04/00095/FOODHS,235,env.health@corby.gov.uk,Corby,http://www.corby.gov.uk/Pages/Welcome.aspx,-0.72815900000000,NN18 0QD,2014-12-04,fhrs_5_en-GB,5,,FHRS,5
50543,St Andrew's Church Of Scotland,Occupation Road,Corby,Northamptonshire,St Andrews Church Of Scotland,Restaurant/Cafe/Canteen,1,5,,14451,5,,52.49701400000000,05/00003/FOODHS,235,env.health@corby.gov.uk,Corby,http://www.corby.gov.uk/Pages/Welcome.aspx,-0.69324700000000,NN17 1EB,2011-03-29,fhrs_5_en-GB,5,,FHRS,5
50544,St James Snooker Club,4 St James Road,St James Industrial Estate,Corby,St James Leisure Club,Restaurant/Cafe/Canteen,1,0,,9610,5,,52.48713700000000,04/00034/FOODHS,235,env.health@corby.gov.uk,Corby,http://www.corby.gov.uk/Pages/Welcome.aspx,-0.68306900000000,NN18 8AL,2009-10-28,fhrs_5_en-GB,5,,FHRS,5
50545,Brigstock Road,Stanion,Kettering,Northamptonshire,Stanion Village Hall,Restaurant/Cafe/Canteen,1,5,,10420,5,,52.47314100000000,04/00194/FOODHS,235,env.health@corby.gov.uk,Corby,http://www.corby.gov.uk/Pages/Welcome.aspx,-0.65367300000000,NN14 1BU,2011-12-13,fhrs_5_en-GB,5,,FHRS,5
50546,206 Studfall Avenue,Corby,Northamptonshire,,Strides Cafe,Restaurant/Cafe/Canteen,1,5,,9811,0,,52.49610900000000,04/00068/FOODC,235,env.health@corby.gov.uk,Corby,http://www.corby.gov.uk/Pages/Welcome.aspx,-0.70660500000000,NN17 1LJ,2014-09-08,fhrs_5_en-GB,5,,FHRS,5
50547,Central Health Clinic,Stuart Road,Corby,Northamptonshire,Stuart Road Centre,Restaurant/Cafe/Canteen,1,10,,404319,10,,52.48783400000000,11/00051/FOODHS,235,env.health@corby.gov.uk,Corby,http://www.corby.gov.uk/Pages/Welcome.aspx,-0.69804100000000,NN17 1RJ,2013-06-14,fhrs_3_en-GB,3,,FHRS,10
50548,184 Studfall Avenue,Corby,Northamptonshire,,Studfall Chippy,Restaurant/Cafe/Canteen,1,,,11050,,,52.49610900000000,04/00421/FOODHS,235,env.health@corby.gov.uk,Corby,http://www.corby.gov.uk/Pages/Welcome.aspx,-0.70660500000000,NN17 1LJ,2014-07-11,fhrs_5_en-GB,5,,FHRS,
50549,Rowlett Road,Corby,Northamptonshire,,Studfall Junior School,Restaurant/Cafe/Canteen,1,5,,404306,5,,52.49828100000000,04/00441/HS,235,env.health@corby.gov.uk,Corby,http://www.corby.gov.uk/Pages/Welcome.aspx,-0.70788200000000,NN17 2BT,2014-10-15,fhrs_5_en-GB,5,,FHRS,5
50550,2 Princewood Court,Corby,Northamptonshire,,Subway,Restaurant/Cafe/Canteen,1,5,,24804,5,,52.50845800000000,08/00015/FOODHS,235,env.health@corby.gov.uk,Corby,http://www.corby.gov.uk/Pages/Welcome.aspx,-0.70543300000000,NN17 4BH,2013-10-22,fhrs_5_en-GB,5,,FHRS,5
50551,62 Corporation Street,Corby,Northamptonshire,,Subways,Restaurant/Cafe/Canteen,1,0,,17597,0,,52.48807300000000,06/00012/FOODHS,235,env.health@corby.gov.uk,Corby,http://www.corby.gov.uk/Pages/Welcome.aspx,-0.70261400000000,NN17 1NH,2014-08-05,fhrs_5_en-GB,5,,FHRS,0
50552,Subway,13 Charter Court,Corby,Northamptonshire,Subways,Restaurant/Cafe/Canteen,1,5,,17944,0,,52.47343900000000,06/00049/FOODHS,235,env.health@corby.gov.uk,Corby,http://www.corby.gov.uk/Pages/Welcome.aspx,-0.70702000000000,NN18 8QT,2014-03-12,fhrs_5_en-GB,5,,FHRS,5
50553,Supa Cigs,23 Corporation Street,Corby,Northamptonshire,Supanews,Retailers - other,4613,5,,10659,5,,52.48749200000000,04/00264/FOODHS,235,env.health@corby.gov.uk,Corby,http://www.corby.gov.uk/Pages/Welcome.aspx,-0.70054000000000,NN17 1NG,2010-04-09,fhrs_5_en-GB,5,,FHRS,5
50554,11 Willow Place,Corby,Northamptonshire,,Superdrug Plc,Retailers - other,4613,5,,21687,5,,52.31091308593750,07/00052/HS,235,env.health@corby.gov.uk,Corby,http://www.corby.gov.uk/Pages/Welcome.aspx,-0.83607500791550,NN17 1BM,2010-08-03,fhrs_5_en-GB,5,,FHRS,5
50555,The Kingswood School,Gainsborough Road,Corby,Northamptonshire,T (n) S Catering C/o Kingswood School,Restaurant/Cafe/Canteen,1,0,,536962,5,,52.47809400000000,13/00005/FOODC,235,env.health@corby.gov.uk,Corby,http://www.corby.gov.uk/Pages/Welcome.aspx,-0.73340200000000,NN18 9NS,2014-07-17,fhrs_5_en-GB,5,,FHRS,5
50556,The Talbot Inn,33 High Street,Gretton,Corby,Talbot Inn,Restaurant/Cafe/Canteen,1,5,,10578,5,,52.53963600000000,04/00241/FOODHS,235,env.health@corby.gov.uk,Corby,http://www.corby.gov.uk/Pages/Welcome.aspx,-0.67527600000000,NN17 3DE,2013-04-15,fhrs_5_en-GB,5,,FHRS,5
50557,The Talisman,Danesholme Centre,Corby,Northamptonshire,Talisman Public House,Restaurant/Cafe/Canteen,1,5,,9728,5,,52.47075400000000,04/00053/FOODHS,235,env.health@corby.gov.uk,Corby,http://www.corby.gov.uk/Pages/Welcome.aspx,-0.73384800000000,NN18 9EJ,2011-08-11,fhrs_5_en-GB,5,,FHRS,5
50558,91 Occupation Road,Corby,Northamptonshire,,Taste Of Chilli,Restaurant/Cafe/Canteen,1,5,,17735,5,,52.49542200000000,06/00025/FOODHS,235,env.health@corby.gov.uk,Corby,http://www.corby.gov.uk/Pages/Welcome.aspx,-0.69730100000000,NN17 1EE,2014-10-20,fhrs_4_en-GB,4,,FHRS,10
50559,43 Sycamore Close,Corby,Northamptonshire,,Tea 2 U,Restaurant/Cafe/Canteen,1,0,,706919,0,,52.50385900000000,14/00047/FOODC,235,env.health@corby.gov.uk,Corby,http://www.corby.gov.uk/Pages/Welcome.aspx,-0.70092700000000,NN17 2YB,2014-09-09,fhrs_5_en-GB,5,,FHRS,0
50560,6 Irving Grove,Corby,Northamptonshire,,Tea 2 U,Restaurant/Cafe/Canteen,1,0,,706921,0,,52.50031900000000,14/00085/FOODC,235,env.health@corby.gov.uk,Corby,http://www.corby.gov.uk/Pages/Welcome.aspx,-0.69946900000000,NN17 2BL,2014-09-09,fhrs_5_en-GB,5,,FHRS,0
50561,5 High Street,Corby,Northamptonshire,,Tea Jenny Cottage,Restaurant/Cafe/Canteen,1,10,,684087,5,,52.49039200000000,14/00029/FOODHS,235,env.health@corby.gov.uk,Corby,http://www.corby.gov.uk/Pages/Welcome.aspx,-0.68468000000000,NN17 1UX,2014-02-24,fhrs_4_en-GB,4,,FHRS,5
50562,Temptations,87 Occupation Road,Corby,Northamptonshire,Temptations Atasca,Restaurant/Cafe/Canteen,1,,,21416,,,52.49542200000000,07/00020/FOODHS,235,env.health@corby.gov.uk,Corby,http://www.corby.gov.uk/Pages/Welcome.aspx,-0.69730100000000,NN17 1EE,2014-08-20,fhrs_4_en-GB,4,,FHRS,
50563,Tesco Extra,St Marks Road,St James Industrial Estate,Corby,Tesco Extra Supermarket,Retailers - other,4613,5,,536967,5,,52.48572900000000,13/00019/FOODHS,235,env.health@corby.gov.uk,Corby,http://www.corby.gov.uk/Pages/Welcome.aspx,-0.68496700000000,NN18 8AN,2013-02-27,fhrs_5_en-GB,5,,FHRS,5
50564,Tesco Express,11 Charter Court,Corby,Northamptonshire,Tesco Supermarket,Retailers - other,4613,0,,14911,0,,52.47343900000000,05/00068/FOODHS,235,env.health@corby.gov.uk,Corby,http://www.corby.gov.uk/Pages/Welcome.aspx,-0.70702000000000,NN18 8QT,2011-11-24,fhrs_5_en-GB,5,,FHRS,0
50565,Texaco Service Station,Oakley Road,Corby,Northamptonshire,Texaco Roundabout Service Station,Retailers - other,4613,5,,11473,5,,52.48434200000000,04/00680/FOODHS,235,env.health@corby.gov.uk,Corby,http://www.corby.gov.uk/Pages/Welcome.aspx,-0.69771700000000,NN18 8AR,2012-03-06,fhrs_5_en-GB,5,,FHRS,5
50566,Best Kebab House,50 Burghley Drive,Corby,Northamptonshire,The Best Kebab House,Restaurant/Cafe/Canteen,1,10,,45389,10,,52.48180200000000,11/00004/FOODHS,235,env.health@corby.gov.uk,Corby,http://www.corby.gov.uk/Pages/Welcome.aspx,-0.69487600000000,NN18 8EB,2013-08-14,fhrs_3_en-GB,3,,FHRS,10
50567,The Core,The Corby Cube,Parkland Gateway,George Street,The Corby Cube,Restaurant/Cafe/Canteen,1,0,,492743,0,,52.48741800000000,12/00035/FOODC,235,env.health@corby.gov.uk,Corby,http://www.corby.gov.uk/Pages/Welcome.aspx,-0.70443000000000,NN17 1QG,2012-10-19,fhrs_5_en-GB,5,,FHRS,0
50568,The Corby Cube,Parkland Gateway,George Street,Corby,The Core,Restaurant/Cafe/Canteen,1,5,,589421,5,,52.48741800000000,12/00034/FOODHS,235,env.health@corby.gov.uk,Corby,http://www.corby.gov.uk/Pages/Welcome.aspx,-0.70443000000000,NN17 1QG,2013-02-06,fhrs_5_en-GB,5,,FHRS,5
50569,64A High Street,Corby,Northamptonshire,,The Good Bean,Restaurant/Cafe/Canteen,1,5,,684091,5,,52.49084500000000,14/00041/FOODHS,235,env.health@corby.gov.uk,Corby,http://www.corby.gov.uk/Pages/Welcome.aspx,-0.68178000000000,NN17 1UU,2014-04-24,fhrs_5_en-GB,5,,FHRS,0
50570,8 Princewood Road,Earlstrees Industrial Estate,Corby,Northamptonshire,The Hope Centre,Distributors/Transporters,7,5,,404330,5,,52.51178300000000,11/00076/FOODHS,235,env.health@corby.gov.uk,Corby,http://www.corby.gov.uk/Pages/Welcome.aspx,-0.70116500000000,NN17 4AP,2011-10-03,fhrs_5_en-GB,5,,FHRS,5
50571,The Hope Centre,8 Princewood Road,Earlstrees Industrial Estate,Corby,The Hope Centre Kitchen,Restaurant/Cafe/Canteen,1,0,,404346,0,,52.51178300000000,12/00015/FOODHS,235,env.health@corby.gov.uk,Corby,http://www.corby.gov.uk/Pages/Welcome.aspx,-0.70116500000000,NN17 4AP,2012-03-14,fhrs_5_en-GB,5,,FHRS,0
50572,Units 1 & 4,Howitts Garden Village,Rockingham Road,Corby,The Sugarsmith,Retailers - other,4613,0,,11314,0,,52.50708700000000,04/00561/HS,235,env.health@corby.gov.uk,Corby,http://www.corby.gov.uk/Pages/Welcome.aspx,-0.70834600000000,NN17 2AE,2010-12-08,fhrs_5_en-GB,5,,FHRS,0
50573,2A Corby Road,Cottingham,Market Harborough,Leicestershire,The Village Store & Cafe,Restaurant/Cafe/Canteen,1,5,,404327,5,,52.50218800000000,11/00068/FOODHS,235,env.health@corby.gov.uk,Corby,http://www.corby.gov.uk/Pages/Welcome.aspx,-0.75449900000000,LE16 8XH,2013-02-26,fhrs_5_en-GB,5,,FHRS,0
50574,63 Corporation Street,Corby,Northamptonshire,,Thursfield & Co Ltd,Retailers - other,4613,0,,10745,0,,52.48743600000000,04/00291/FOODHS,235,env.health@corby.gov.uk,Corby,http://www.corby.gov.uk/Pages/Welcome.aspx,-0.70198500000000,NN17 1NQ,2012-02-23,fhrs_5_en-GB,5,,FHRS,5
50575,Tip Top Chinese Restaurant,24 The Jamb,Corby,Northamptonshire,Tip Top Takeaway,Restaurant/Cafe/Canteen,1,5,,10849,5,,52.49097900000000,04/00336/FOODHS,235,env.health@corby.gov.uk,Corby,http://www.corby.gov.uk/Pages/Welcome.aspx,-0.68330800000000,NN17 1AY,2013-09-20,fhrs_5_en-GB,5,,FHRS,5
50576,T K Maxx,2 Willow Place,Corby,Northamptonshire,TK Maxx,Retailers - other,4613,0,,21698,5,,52.48672500000000,07/00054/HS,235,env.health@corby.gov.uk,Corby,http://www.corby.gov.uk/Pages/Welcome.aspx,-0.70187300000000,NN17 1BH,2010-10-27,fhrs_5_en-GB,5,,FHRS,0
50577,The Manor House,Cottingham Road,Corby,Northamptonshire,Tresham College (Manor House),Restaurant/Cafe/Canteen,1,5,,404340,5,,52.49000000000000,11/00093/FOODC,235,env.health@corby.gov.uk,Corby,http://www.corby.gov.uk/Pages/Welcome.aspx,-0.69148200000000,NN17 1TD,2013-10-02,fhrs_5_en-GB,5,,FHRS,5
50578,E1,Priors Court,Priors Haw Road,Corby,Tuckers Catering,Restaurant/Cafe/Canteen,1,5,,24965,5,,52.50236500000000,08/00030/FOODHS,235,env.health@corby.gov.uk,Corby,http://www.corby.gov.uk/Pages/Welcome.aspx,-0.64775700000000,NN17 5JG,2014-09-05,fhrs_5_en-GB,5,,FHRS,5
50579,V And G Foodstores,350 Willow Brook Road,Corby,Northamptonshire,V G Foodstores,Retailers - other,4613,5,,11493,5,,52.49420100000000,04/00694/FOODHS,235,env.health@corby.gov.uk,Corby,http://www.corby.gov.uk/Pages/Welcome.aspx,-0.71962400000000,NN17 2TR,2012-02-29,fhrs_5_en-GB,5,,FHRS,5
50580,The Viking Club,5 Danesholme Centre,Corby,Northamptonshire,Viking Club,Restaurant/Cafe/Canteen,1,5,,10857,5,,52.47075400000000,04/00339/FOODHS,235,env.health@corby.gov.uk,Corby,http://www.corby.gov.uk/Pages/Welcome.aspx,-0.73384800000000,NN18 9EJ,2011-01-19,fhrs_5_en-GB,5,,FHRS,5
50581,Viking Fish And Chips,187 Farmstead Road,Corby,Northamptonshire,Viking Fish & Chips,Restaurant/Cafe/Canteen,1,5,,11159,5,,52.48806000000000,04/00474/FOODHS,235,env.health@corby.gov.uk,Corby,http://www.corby.gov.uk/Pages/Welcome.aspx,-0.72541300000000,NN18 0LL,2013-02-14,fhrs_4_en-GB,4,,FHRS,10
50582,The Village Inn,Lloyds Road,Corby,Northamptonshire,Village Inn,Restaurant/Cafe/Canteen,1,10,,11449,10,,52.49251700000000,04/00660/FOODHS,235,env.health@corby.gov.uk,Corby,http://www.corby.gov.uk/Pages/Welcome.aspx,-0.68258400000000,NN17 1AP,2013-07-18,fhrs_3_en-GB,3,,FHRS,10
50583,Village News Food And Wine,69 - 71 High Street,Corby,Northamptonshire,Village News Food & Wine,Retailers - other,4613,5,,10112,5,,52.49084500000000,04/00126/FOODHS,235,env.health@corby.gov.uk,Corby,http://www.corby.gov.uk/Pages/Welcome.aspx,-0.68178000000000,NN17 1UU,2013-07-18,fhrs_5_en-GB,5,,FHRS,0
50584,101 Rockingham Road,Corby,Northamptonshire,,Voujon Corby Ltd,Restaurant/Cafe/Canteen,1,10,,684079,5,,52.50156400000000,13/00065/FOODHS,235,env.health@corby.gov.uk,Corby,http://www.corby.gov.uk/Pages/Welcome.aspx,-0.69333400000000,NN17 1JW,2014-03-27,fhrs_4_en-GB,4,,FHRS,5
50585,1 George Hattersley Court,Occupation Road,Corby,Northamptonshire,Voyage Care,Restaurant/Cafe/Canteen,1,0,,34293,5,,52.49866500000000,10/00105/FOODHS,235,env.health@corby.gov.uk,Corby,http://www.corby.gov.uk/Pages/Welcome.aspx,-0.69048800000000,NN17 1EA,2013-10-04,fhrs_5_en-GB,5,,FHRS,0
50586,3 George Hattersley Court,Occupation Road,Corby,Northamptonshire,Voyage Care,Restaurant/Cafe/Canteen,1,0,,34048,5,,52.49866500000000,10/00084/FOODHS,235,env.health@corby.gov.uk,Corby,http://www.corby.gov.uk/Pages/Welcome.aspx,-0.69048800000000,NN17 1EA,2013-10-09,fhrs_5_en-GB,5,,FHRS,5
50587,Weldon Church Of England Controlled,Chapel Road,Weldon,Corby,Weldon C Of E Primary Sch,Restaurant/Cafe/Canteen,1,5,,404305,5,,52.49710600000000,04/00207/HS,235,env.health@corby.gov.uk,Corby,http://www.corby.gov.uk/Pages/Welcome.aspx,-0.63999300000000,NN17 3HP,2013-11-04,fhrs_5_en-GB,5,,FHRS,0
50588,4 High Street,Weldon,Corby,Northamptonshire,Weldon Supermarket,Retailers - other,4613,5,,10259,0,,52.49575400000000,04/00157/FOODHS,235,env.health@corby.gov.uk,Corby,http://www.corby.gov.uk/Pages/Welcome.aspx,-0.63658800000000,NN17 3JJ,2009-07-13,fhrs_5_en-GB,5,,FHRS,5
50589,Village Hall,Bridge Street,Weldon,Corby,Weldon Village Hall,Restaurant/Cafe/Canteen,1,5,,11576,0,,52.49767000000000,04/00737/FOODHS,235,env.health@corby.gov.uk,Corby,http://www.corby.gov.uk/Pages/Welcome.aspx,-0.63663100000000,NN17 3HR,2010-11-30,fhrs_5_en-GB,5,,FHRS,0
50590,40 High Street,Corby,Northamptonshire,,Well Bread,Restaurant/Cafe/Canteen,1,5,,727770,5,,52.49084500000000,14/00083/FOODC,235,env.health@corby.gov.uk,Corby,http://www.corby.gov.uk/Pages/Welcome.aspx,-0.68178000000000,NN17 1UU,2014-09-12,fhrs_5_en-GB,5,,FHRS,5
50591,West Glebe Day Centre,Forest Gate Road,Corby,Northamptonshire,West Glebe Centre,Restaurant/Cafe/Canteen,1,0,,404332,0,,52.49106700000000,11/00078/FOODC,235,env.health@corby.gov.uk,Corby,http://www.corby.gov.uk/Pages/Welcome.aspx,-0.69772500000000,NN17 1TP,2013-05-08,fhrs_5_en-GB,5,,FHRS,0
50592,The White Hart,High Street,Corby,Northamptonshire,White Hart,Restaurant/Cafe/Canteen,1,10,,10011,5,,52.49039200000000,04/00106/FOODHS,235,env.health@corby.gov.uk,Corby,http://www.corby.gov.uk/Pages/Welcome.aspx,-0.68468000000000,NN17 1UX,2014-08-11,fhrs_3_en-GB,3,,FHRS,10
50593,41 Queens Square,Corby,Northamptonshire,,Wilkinsons,Retailers - other,4613,5,,17488,5,,52.48672400000000,06/00002/FOODHS,235,env.health@corby.gov.uk,Corby,http://www.corby.gov.uk/Pages/Welcome.aspx,-0.70013600000000,NN17 1PD,2012-02-23,fhrs_5_en-GB,5,,FHRS,5
50594,Willow Cottage,11 Main Street,Middleton,Market Harborough,Willow Cottage B & B,Restaurant/Cafe/Canteen,1,5,,536957,5,,52.50126600000000,12/00065/FOODHS,235,env.health@corby.gov.uk,Corby,http://www.corby.gov.uk/Pages/Welcome.aspx,-0.76262800000000,LE16 8YU,2013-02-13,fhrs_5_en-GB,5,,FHRS,5
50595,Kingfisher Nursing Home,77 South Road,Corby,Northamptonshire,Willowbrook House,Restaurant/Cafe/Canteen,1,0,,14433,10,,52.49012200000000,05/00001/FOODHS,235,env.health@corby.gov.uk,Corby,http://www.corby.gov.uk/Pages/Welcome.aspx,-0.68141900000000,NN17 1XD,2014-02-11,fhrs_2_en-GB,2,,FHRS,15
50596,Londis PO And News,356 Willow Brook Road,Corby,Northamptonshire,Willowbrook Post Office,Retailers - other,4613,5,,11497,5,,52.49420100000000,04/00696/FOODHS,235,env.health@corby.gov.uk,Corby,http://www.corby.gov.uk/Pages/Welcome.aspx,-0.71962400000000,NN17 2TR,2011-10-17,fhrs_5_en-GB,5,,FHRS,5
50597,70 Rockingham Road,Corby,Northamptonshire,,Wing Hing Takeaway,Restaurant/Cafe/Canteen,1,5,,18207,5,,52.49672500000000,06/00087/FOODHS,235,env.health@corby.gov.uk,Corby,http://www.corby.gov.uk/Pages/Welcome.aspx,-0.68745200000000,NN17 1AE,2014-10-13,fhrs_4_en-GB,4,,FHRS,10
50598,9A Charter Court,Corby,Northamptonshire,,Woks Wagon,Restaurant/Cafe/Canteen,1,10,,17955,5,,52.47343900000000,06/00051/FOODHS,235,env.health@corby.gov.uk,Corby,http://www.corby.gov.uk/Pages/Welcome.aspx,-0.70702000000000,NN18 8QT,2013-08-14,fhrs_3_en-GB,3,,FHRS,10
50599,Woodnewton Infants School,Rowlett Road,Corby,Northamptonshire,Woodnewton Primary Tea Time Club,Restaurant/Cafe/Canteen,1,5,,492750,5,,52.49720800000000,12/00083/FOODHS,235,env.health@corby.gov.uk,Corby,http://www.corby.gov.uk/Pages/Welcome.aspx,-0.71757700000000,NN17 2NU,2013-11-27,fhrs_5_en-GB,5,,FHRS,0
50600,The Woolpack,21 Stamford Road,Weldon,Corby,Woolpack Inn,Restaurant/Cafe/Canteen,1,5,,10307,5,,52.49717900000000,04/00166/FOODHS,235,env.health@corby.gov.uk,Corby,http://www.corby.gov.uk/Pages/Welcome.aspx,-0.63383300000000,NN17 3JL,2013-06-11,fhrs_4_en-GB,4,,FHRS,10
50601,104 - 106 Rockingham Road,Corby,Northamptonshire,,Ya Hao Chinese Restaurant,Restaurant/Cafe/Canteen,1,5,,29227,5,,52.49672500000000,09/00063/FOODHS,235,env.health@corby.gov.uk,Corby,http://www.corby.gov.uk/Pages/Welcome.aspx,-0.68745200000000,NN17 1AE,2014-09-01,fhrs_5_en-GB,5,,FHRS,5
