,addressline1,addressline2,addressline3,addressline4,businessname,businesstype,businesstypeid,confidenceinmanagement,extractdate,fhrsid,hygiene,itemcount,latitude,localauthoritybusinessid,localauthoritycode,localauthorityemailaddress,localauthorityname,localauthoritywebsite,longitude,postcode,ratingdate,ratingkey,ratingvalue,returncode,schemetype,structural
50602,101 Warwick Street,Town Centre,Daventry,Northamptonshire,101 Inn,Hotel/bed & breakfast/guest house,7842,10,,164254,0,,52.25631000000000,PI/000006006,236,healthimprovement@daventrydc.gov.uk,Daventry,http://www.daventrydc.gov.uk,-1.16714300000000,NN11 4AJ,2012-07-02,fhrs_4_en-GB,4,,FHRS,0
50603,Icon,Eastern Way,Town Centre,Daventry,1st Degree Facilities,Restaurant/Cafe/Canteen,1,5,,559547,5,,52.26672700000000,PI/000043156,236,healthimprovement@daventrydc.gov.uk,Daventry,http://www.daventrydc.gov.uk,-1.16419300000000,NN11 0QB,2013-06-24,fhrs_5_en-GB,5,,FHRS,5
50604,Moulton,Northamptonshire,,,2 Cross Street,Retailers - other,4613,,,166946,,,52.28855700000000,PI/000010510,236,healthimprovement@daventrydc.gov.uk,Daventry,http://www.daventrydc.gov.uk,-0.85443300000000,NN3 7RZ,2013-07-29,fhrs_exempt_en-GB,Exempt,,FHRS,
50605,Weedon,Northamptonshire,,,36 High Street,Takeaway/sandwich shop,7844,5,,168340,5,,52.23361600000000,PI/000012995,236,healthimprovement@daventrydc.gov.uk,Daventry,http://www.daventrydc.gov.uk,-1.07846600000000,NN7 4QD,2013-04-30,fhrs_5_en-GB,5,,FHRS,5
50606,The Acacias,Oxendon Road,Clipston,Northamptonshire,A Bit of a Do,Mobile caterer,7846,5,,466345,5,,52.42959200000000,PI/000035189,236,healthimprovement@daventrydc.gov.uk,Daventry,http://www.daventrydc.gov.uk,-0.93026300000000,LE16 9RP,2012-02-29,fhrs_5_en-GB,5,,FHRS,5
50607,26 High Street,Spratton,Northamptonshire,,Ab Fab Food,Other catering premises,7841,10,,591953,5,,52.32564900000000,PI/000021298,236,healthimprovement@daventrydc.gov.uk,Daventry,http://www.daventrydc.gov.uk,-0.95084900000000,NN6 8HZ,2013-10-11,fhrs_4_en-GB,4,,FHRS,0
50608,22A High Street,Town Centre,Daventry,Northamptonshire,Abdul's,Restaurant/Cafe/Canteen,1,5,,536504,5,,52.25798800000000,PI/000047900,236,healthimprovement@daventrydc.gov.uk,Daventry,http://www.daventrydc.gov.uk,-1.16281900000000,NN11 4HU,2014-10-31,fhrs_5_en-GB,5,,FHRS,5
50609,11 Old Forge Drive,West Haddon,Northamptonshire,,Adam Bradley Catering,Other catering premises,7841,5,,401788,5,,52.34107600000000,PI/000013996,236,healthimprovement@daventrydc.gov.uk,Daventry,http://www.daventrydc.gov.uk,-1.07108200000000,NN6 7ET,2014-04-24,fhrs_5_en-GB,5,,FHRS,5
50610,Chappell House,Northampton Lane North,Moulton,Northamptonshire,Age Concern,Hospitals/Childcare/Caring Premises,5,0,,167084,0,,52.28490500000000,PI/000010729,236,healthimprovement@daventrydc.gov.uk,Daventry,http://www.daventrydc.gov.uk,-0.85380200000000,,2012-01-09,fhrs_5_en-GB,5,,FHRS,0
50611,29 High Street,Town Centre,Daventry,Northamptonshire,Air Ambulance,Restaurant/Cafe/Canteen,1,5,,415288,5,,52.25797800000000,PI/000047452,236,healthimprovement@daventrydc.gov.uk,Daventry,http://www.daventrydc.gov.uk,-1.16142700000000,NN11 4BG,2014-08-01,fhrs_5_en-GB,5,,FHRS,0
50612,36-42 Sheaf Street,Town Centre,Daventry,Northamptonshire,Aldi Stores,Retailers - supermarkets/hypermarkets,7840,0,,170260,0,,52.25690800000000,PI/000017115,236,healthimprovement@daventrydc.gov.uk,Daventry,http://www.daventrydc.gov.uk,-1.16387900000000,NN11 4AB,2011-09-29,fhrs_5_en-GB,5,,FHRS,0
50613,18 Vernier Close,Timken,Daventry,Northamptonshire,AlfresGo,Mobile caterer,7846,5,,536472,0,,52.26599400000000,PI/000005893,236,healthimprovement@daventrydc.gov.uk,Daventry,http://www.daventrydc.gov.uk,-1.17491800000000,NN11 9FR,2013-07-18,fhrs_5_en-GB,5,,FHRS,0
50614,Althorp,Althorp,Northamptonshire,,Althorp House,Restaurant/Cafe/Canteen,1,5,,160409,0,,52.28020477294922,PI/000000010,236,healthimprovement@daventrydc.gov.uk,Daventry,http://www.daventrydc.gov.uk,-1.00209772586823,NN7 4HQ,2014-10-23,fhrs_5_en-GB,5,,FHRS,0
50615,Westfield House,High Street,Braunston,Northamptonshire,Amanda Jayne Pearse,Restaurant/Cafe/Canteen,1,5,,569424,5,,52.29069200000000,PI/000022941,236,healthimprovement@daventrydc.gov.uk,Daventry,http://www.daventrydc.gov.uk,-1.21200800000000,NN11 7HS,2013-02-20,fhrs_5_en-GB,5,,FHRS,5
50616,107 The Stour,The Grange,Daventry,Northamptonshire,Annes Home Baking,Retailers - other,4613,10,,466333,0,,52.25132700000000,PI/000016523,236,healthimprovement@daventrydc.gov.uk,Daventry,http://www.daventrydc.gov.uk,-1.17706600000000,NN11 4PT,2012-06-06,fhrs_4_en-GB,4,,FHRS,0
50617,14 Sutton Street,Flore,Northamptonshire,,Antony Garrett Game Dealers,Retailers - other,4613,5,,165571,10,,52.23616900000000,PI/000008186,236,healthimprovement@daventrydc.gov.uk,Daventry,http://www.daventrydc.gov.uk,-1.05682800000000,NN7 4LE,2014-09-02,fhrs_4_en-GB,4,,FHRS,5
50618,12 Farndon Road,Woodford Halse,Northamptonshire,,Apple Tree House,Hotel/bed & breakfast/guest house,7842,5,,718482,0,,52.16650100000000,PI/000021872,236,healthimprovement@daventrydc.gov.uk,Daventry,http://www.daventrydc.gov.uk,-1.22076800000000,NN11 3TT,2014-11-18,fhrs_5_en-GB,5,,FHRS,0
50619,Hmp Rye Hill,Onley Park,Barby,Northamptonshire,ARAMARK,Restaurant/Cafe/Canteen,1,0,,167415,0,,52.32752000000000,PI/000011395,236,healthimprovement@daventrydc.gov.uk,Daventry,http://www.daventrydc.gov.uk,-1.24277100000000,CV23 8SZ,2013-02-06,fhrs_5_en-GB,5,,FHRS,5
50620,Rainsbrook Secure Training Centre,Hmyoi Onley,Onley Park,Barby,ARAMARK PLC,Restaurant/Cafe/Canteen,1,0,,167410,0,,52.32602500000000,PI/000011390,236,healthimprovement@daventrydc.gov.uk,Daventry,http://www.daventrydc.gov.uk,-1.25074900000000,CV23 8SY,2013-08-27,fhrs_5_en-GB,5,,FHRS,0
50621,Ashby St Ledgers Village Hall,Main Street,Ashby St Ledgers,Northamptonshire,Ashby St Ledgers Village Hall Trust,Other catering premises,7841,5,,466305,5,,52.30849300000000,PI/000000057,236,healthimprovement@daventrydc.gov.uk,Daventry,http://www.daventrydc.gov.uk,-1.16487400000000,CV23 8UN,2012-12-17,fhrs_5_en-GB,5,,FHRS,0
50622,13 Ashworth Street,Town Centre,Daventry,,Ashdown House,Hospitals/Childcare/Caring Premises,5,5,,163222,0,,52.25414000000000,PI/000004366,236,healthimprovement@daventrydc.gov.uk,Daventry,http://www.daventrydc.gov.uk,-1.16409300000000,NN11 4AR,2014-09-05,fhrs_5_en-GB,5,,FHRS,5
50623,97 Warwick Street,Town Centre,Daventry,Northamptonshire,Asia,Restaurant/Cafe/Canteen,1,10,,209013,10,,52.25631000000000,PI/000047413,236,healthimprovement@daventrydc.gov.uk,Daventry,http://www.daventrydc.gov.uk,-1.16714300000000,NN11 4AJ,2014-07-30,fhrs_3_en-GB,3,,FHRS,10
50624,22 Dairy Close,Brixworth,Northamptonshire,,ATM Catering,Other catering premises,7841,5,,175583,5,,52.32485700000000,PI/000033020,236,healthimprovement@daventrydc.gov.uk,Daventry,http://www.daventrydc.gov.uk,-0.91105900000000,NN6 9DR,2013-10-15,fhrs_5_en-GB,5,,FHRS,0
50625,Oxhouse Farm,Brington Road,Flore,Northamptonshire,Aubergine Events Ltd,Mobile caterer,7846,5,,165458,0,,,PI/000008052,236,healthimprovement@daventrydc.gov.uk,Daventry,http://www.daventrydc.gov.uk,,,2010-11-23,fhrs_5_en-GB,5,,FHRS,0
50626,28 Alvis Way,Royal Oak,Daventry,Northamptonshire,Baan Howe,Retailers - other,4613,10,,499102,10,,52.26568800000000,PI/000003015,236,healthimprovement@daventrydc.gov.uk,Daventry,http://www.daventrydc.gov.uk,-1.18269000000000,NN11 8PG,2013-01-08,fhrs_3_en-GB,3,,FHRS,5
50627,Badby Road West,Stefen Hill,Daventry,Northamptonshire,Badby Park Rehabilitation Centre,Hospitals/Childcare/Caring Premises,5,5,,586830,0,,52.24668500000000,PI/000045528,236,healthimprovement@daventrydc.gov.uk,Daventry,http://www.daventrydc.gov.uk,-1.17539400000000,NN11 4NH,2014-09-09,fhrs_5_en-GB,5,,FHRS,0
50628,The Green,Badby,Northamptonshire,,Badby Village Hall,Other catering premises,7841,0,,160470,0,,52.22702100000000,PI/000000137,236,healthimprovement@daventrydc.gov.uk,Daventry,http://www.daventrydc.gov.uk,-1.18152600000000,NN11 3AF,2012-11-23,fhrs_5_en-GB,5,,FHRS,0
50629,Boddington Reservoir,Boddington Road,Byfield,Northamptonshire,Banbury Sailing Club,Other catering premises,7841,5,,161717,0,,52.17629400000000,PI/000001800,236,healthimprovement@daventrydc.gov.uk,Daventry,http://www.daventrydc.gov.uk,-1.26609200000000,NN11 6XU,2013-07-10,fhrs_5_en-GB,5,,FHRS,0
50630,Barby Lane,Barby,Northamptonshire,,Barby Sporting Club,Pub/bar/nightclub,7843,5,,160555,5,,52.34354900000000,PI/000000256,236,healthimprovement@daventrydc.gov.uk,Daventry,http://www.daventrydc.gov.uk,-1.21102500000000,CV23 8UX,2013-03-20,fhrs_5_en-GB,5,,FHRS,5
50631,5 Rugby Road,Barby,Northamptonshire,,BARBY VILLAGE STORES LTD,Retailers - other,4613,10,,160623,0,,52.32937500000000,PI/000000357,236,healthimprovement@daventrydc.gov.uk,Daventry,http://www.daventrydc.gov.uk,-1.20621500000000,CV23 8UA,2011-12-21,fhrs_4_en-GB,4,,FHRS,0
50632,Bay Tree Cottage,Pansion Row,Maidford Road,Farthingstone,Bay Tree Cottage Workshops,Other catering premises,7841,5,,536485,0,,52.18819200000000,PI/000020062,236,healthimprovement@daventrydc.gov.uk,Daventry,http://www.daventrydc.gov.uk,-1.10608600000000,NN12 8HE,2013-01-25,fhrs_5_en-GB,5,,FHRS,5
50633,Drayton Lodge,Staverton Road,The Grange,Daventry,Bed And Breakfast Accommodation,Hotel/bed & breakfast/guest house,7842,10,,178002,0,,,PI/000044737,236,healthimprovement@daventrydc.gov.uk,Daventry,http://www.daventrydc.gov.uk,,,2013-08-02,fhrs_4_en-GB,4,,FHRS,0
50634,25 Bell Lane,Byfield,Northamptonshire,,Bell Lodge Residential Home,Hospitals/Childcare/Caring Premises,5,5,,161688,0,,52.17364700000000,PI/000001775,236,healthimprovement@daventrydc.gov.uk,Daventry,http://www.daventrydc.gov.uk,-1.24969900000000,NN11 6US,2014-03-31,fhrs_5_en-GB,5,,FHRS,5
50635,23 Sheaf Street,Town Centre,Daventry,Northamptonshire,Berryburst,Retailers - other,4613,5,,733438,5,,52.25708500000000,PI/000050527,236,healthimprovement@daventrydc.gov.uk,Daventry,http://www.daventrydc.gov.uk,-1.16362700000000,NN11 4AA,2014-12-23,fhrs_5_en-GB,5,,FHRS,5
50636,"Unit 1, Grove Farm",15 Grove Farm Lane,Moulton,Northamptonshire,Bespoke Cake and Bake Company,Other catering premises,7841,5,,674913,0,,52.29238700000000,PI/000049695,236,healthimprovement@daventrydc.gov.uk,Daventry,http://www.daventrydc.gov.uk,-0.84890900000000,NN3 7TG,2014-05-14,fhrs_5_en-GB,5,,FHRS,0
50637,68 High Street,Town Centre,Daventry,Northamptonshire,Best Before it's Gone,Retailers - other,4613,5,,626227,10,,52.25798800000000,PI/000004082,236,healthimprovement@daventrydc.gov.uk,Daventry,http://www.daventrydc.gov.uk,-1.16281900000000,NN11 4HU,2013-11-26,fhrs_4_en-GB,4,,FHRS,5
50638,3-4 Edinburgh Square,Headlands,Daventry,Northamptonshire,Best One,Retailers - other,4613,10,,162804,5,,52.26439100000000,PI/000003678,236,healthimprovement@daventrydc.gov.uk,Daventry,http://www.daventrydc.gov.uk,-1.17075700000000,NN11 9BX,2014-03-07,fhrs_4_en-GB,4,,FHRS,0
50639,47 Oxford Street,Town Centre,Daventry,Northamptonshire,Best One,Retailers - other,4613,5,,163674,5,,52.25526600000000,PI/000005104,236,healthimprovement@daventrydc.gov.uk,Daventry,http://www.daventrydc.gov.uk,-1.16433500000000,NN11 4AD,2014-03-25,fhrs_5_en-GB,5,,FHRS,0
50640,36 Station Road,Woodford Halse,Northamptonshire,,BOBBYS NEWS,Retailers - other,4613,10,,169138,5,,52.16927600000000,PI/000014506,236,healthimprovement@daventrydc.gov.uk,Daventry,http://www.daventrydc.gov.uk,-1.20953400000000,NN11 3RB,2013-08-02,fhrs_4_en-GB,4,,FHRS,0
50641,11-12 Bowen Square,Town Centre,Daventry,Northamptonshire,BOOTS CHEMISTS,Retailers - other,4613,5,,162605,0,,52.25727800000000,PI/000003235,236,healthimprovement@daventrydc.gov.uk,Daventry,http://www.daventrydc.gov.uk,-1.16163100000000,NN11 4DR,2013-07-04,fhrs_5_en-GB,5,,FHRS,0
50642,3 Wimborne Place,Ashby Fields,Daventry,Northamptonshire,Boots Pharmacy,Retailers - other,4613,,,165148,,,52.27401200000000,PI/000007557,236,healthimprovement@daventrydc.gov.uk,Daventry,http://www.daventrydc.gov.uk,-1.15948300000000,NN11 0XY,2013-07-31,fhrs_exempt_en-GB,Exempt,,FHRS,
50643,32 High Street,Town Centre,Daventry,Northamptonshire,Bowan Chinese Take-Away,Takeaway/sandwich shop,7844,5,,162989,5,,52.25798800000000,PI/000004035,236,healthimprovement@daventrydc.gov.uk,Daventry,http://www.daventrydc.gov.uk,-1.16281900000000,NN11 4HU,2014-02-19,fhrs_4_en-GB,4,,FHRS,10
50644,Welford Road,Chapel Brampton,Northamptonshire,,Brampton Grange,Other catering premises,7841,5,,161952,5,,52.28392900000000,PI/000002075,236,healthimprovement@daventrydc.gov.uk,Daventry,http://www.daventrydc.gov.uk,-0.93043100000000,NN6 8AD,2013-03-06,fhrs_5_en-GB,5,,FHRS,0
50645,Brampton Halt,Pitsford Road,Chapel Brampton,Northamptonshire,Brampton Halt P.H.,Pub/bar/nightclub,7843,0,,161948,5,,52.28989000000000,PI/000002070,236,healthimprovement@daventrydc.gov.uk,Daventry,http://www.daventrydc.gov.uk,-0.92940800000000,NN6 8BA,2013-11-14,fhrs_5_en-GB,5,,FHRS,5
50646,Sandy Lane,Church Brampton,Northamptonshire,,Brampton Heath Golf Centre,Pub/bar/nightclub,7843,0,,162018,5,,52.28517900000000,PI/000002209,236,healthimprovement@daventrydc.gov.uk,Daventry,http://www.daventrydc.gov.uk,-0.94048700000000,NN6 8AX,2014-07-29,fhrs_5_en-GB,5,,FHRS,5
50647,The Kings Head,23 Brixworth Road,Spratton,Northamptonshire,Brasserie 23,Pub/bar/nightclub,7843,5,,167778,5,,52.32476700000000,PI/000012092,236,healthimprovement@daventrydc.gov.uk,Daventry,http://www.daventrydc.gov.uk,-0.94869800000000,NN6 8HH,2014-06-17,fhrs_5_en-GB,5,,FHRS,0
50648,Braunston C Of E Primary School,Barby Road,Braunston,Northamptonshire,Braunston After School Club,School/college/university,7845,5,,160796,5,,52.29307500000000,PI/000000634,236,healthimprovement@daventrydc.gov.uk,Daventry,http://www.daventrydc.gov.uk,-1.20532400000000,NN11 7HF,2012-11-29,fhrs_5_en-GB,5,,FHRS,0
50649,31 High Street,Braunston,Northamptonshire,,Braunston Community Cafe,Restaurant/Cafe/Canteen,1,10,,733441,5,,52.29163400000000,PI/000050578,236,healthimprovement@daventrydc.gov.uk,Daventry,http://www.daventrydc.gov.uk,-1.20776800000000,NN11 7HR,2014-12-18,fhrs_4_en-GB,4,,FHRS,5
50650,2 The Green,Braunston,Northamptonshire,,Braunston Fryer,Takeaway/sandwich shop,7844,5,,160934,0,,52.29202700000000,PI/000000813,236,healthimprovement@daventrydc.gov.uk,Daventry,http://www.daventrydc.gov.uk,-1.20455100000000,NN11 7HW,2013-05-23,fhrs_5_en-GB,5,,FHRS,5
50651,The Village Centre,The Green,Braunston,Northamptonshire,BRAUNSTON VILLAGE HALL,Other catering premises,7841,,,160941,,,52.31091308593750,PI/000000824,236,healthimprovement@daventrydc.gov.uk,Daventry,http://www.daventrydc.gov.uk,-0.83607500791550,NN11 7HW,2013-07-12,fhrs_exempt_en-GB,Exempt,,FHRS,
50652,6 Welford Road,Creaton,Northamptonshire,,Bricklayers Arms,Pub/bar/nightclub,7843,10,,162169,5,,52.33942400000000,PI/000002500,236,healthimprovement@daventrydc.gov.uk,Daventry,http://www.daventrydc.gov.uk,-0.96530400000000,NN6 8NH,2010-11-25,fhrs_4_en-GB,4,,FHRS,5
50653,47 Main Street,Great Brington,Northamptonshire,,Brington Post Office,Retailers - other,4613,0,,165665,0,,52.27847000000000,PI/000008335,236,healthimprovement@daventrydc.gov.uk,Daventry,http://www.daventrydc.gov.uk,-1.02475400000000,NN7 4JA,2012-01-18,fhrs_5_en-GB,5,,FHRS,0
50654,Brinjol Cuisine,Weedon House,High Street,Weedon,Brinjol Indian Cuisine,Restaurant/Cafe/Canteen,1,20,,695909,15,,52.23361600000000,PI/000050226,236,healthimprovement@daventrydc.gov.uk,Daventry,http://www.daventrydc.gov.uk,-1.07846600000000,NN7 4QD,2014-07-02,fhrs_1_en-GB,1,,FHRS,5
50655,St Davids Pavilion,St Davids Close,Brixworth,Northamptonshire,Brixworth Central Sports Club,Other catering premises,7841,10,,161579,0,,52.32471000000000,PI/000001611,236,healthimprovement@daventrydc.gov.uk,Daventry,http://www.daventrydc.gov.uk,-0.90488500000000,NN6 9EA,2013-06-12,fhrs_4_en-GB,4,,FHRS,0
50656,12 Church Street,Brixworth,Northamptonshire,,Brixworth Community Centre,Other catering premises,7841,,,161093,,,52.33311700000000,PI/000000991,236,healthimprovement@daventrydc.gov.uk,Daventry,http://www.daventrydc.gov.uk,-0.90498600000000,NN6 9BZ,2014-11-12,fhrs_exempt_en-GB,Exempt,,FHRS,
50657,1 Hunters Way,Brixworth,Northamptonshire,,Brixworth Fish Bar,Restaurant/Cafe/Canteen,1,5,,708959,5,,52.32841700000000,PI/000050466,236,healthimprovement@daventrydc.gov.uk,Daventry,http://www.daventrydc.gov.uk,-0.90611500000000,NN6 9EL,2014-10-16,fhrs_4_en-GB,4,,FHRS,10
50658,All Saints' Church,Church Street,Brixworth,Northamptonshire,Brixworth Heritage Centre,Restaurant/Cafe/Canteen,1,,,161106,,,,PI/000001000,236,healthimprovement@daventrydc.gov.uk,Daventry,http://www.daventrydc.gov.uk,,,2013-07-29,fhrs_exempt_en-GB,Exempt,,FHRS,
50659,90 Northampton Road,Brixworth,Northamptonshire,,BRIXWORTH STORES,Retailers - other,4613,10,,161334,10,,52.32643600000000,PI/000001324,236,healthimprovement@daventrydc.gov.uk,Daventry,http://www.daventrydc.gov.uk,-0.90383000000000,NN6 9DY,2013-07-29,fhrs_4_en-GB,4,,FHRS,0
50660,Holcot Road,Brixworth,Northamptonshire,,Brixworth Village Hall,Other catering premises,7841,5,,161198,0,,52.32955500000000,PI/000001163,236,healthimprovement@daventrydc.gov.uk,Daventry,http://www.daventrydc.gov.uk,-0.90089200000000,NN6 9BS,2012-10-31,fhrs_5_en-GB,5,,FHRS,0
50661,10-11 Ironstone Close,Brixworth Industrial Estate,Brixworth,Northamptonshire,Brixworth Youth Foundation,Other catering premises,7841,,,161233,,,52.33254300000000,PI/000001206,236,healthimprovement@daventrydc.gov.uk,Daventry,http://www.daventrydc.gov.uk,-0.89836700000000,NN6 9PD,2013-06-11,fhrs_exempt_en-GB,Exempt,,FHRS,
50662,2-6 High Street,Town Centre,Daventry,Northamptonshire,Buddies USA,Restaurant/Cafe/Canteen,1,5,,447868,5,,52.25847900000000,PI/000047459,236,healthimprovement@daventrydc.gov.uk,Daventry,http://www.daventrydc.gov.uk,-1.16105200000000,NN11 4HT,2014-09-18,fhrs_4_en-GB,4,,FHRS,10
50663,Kelmarsh Road,Arthingworth,Northamptonshire,,Bulls Head Inn,Pub/bar/nightclub,7843,0,,160425,5,,52.42444200000000,PI/000000041,236,healthimprovement@daventrydc.gov.uk,Daventry,http://www.daventrydc.gov.uk,-0.89226900000000,LE16 8JZ,2013-12-03,fhrs_5_en-GB,5,,FHRS,5
50664,Bunkers Hill House,Bunkers Hill,Badby,Northamptonshire,Bunkers Hill House B&B,Hotel/bed & breakfast/guest house,7842,5,,536468,5,,52.22456000000000,PI/000000101,236,healthimprovement@daventrydc.gov.uk,Daventry,http://www.daventrydc.gov.uk,-1.18451400000000,NN11 3AW,2013-03-05,fhrs_5_en-GB,5,,FHRS,0
50665,Day Nursery,Wimborne Place,Ashby Fields,Daventry,Busy Bees Childcare,School/college/university,7845,0,,165158,0,,52.27401200000000,PI/000007563,236,healthimprovement@daventrydc.gov.uk,Daventry,http://www.daventrydc.gov.uk,-1.15948300000000,NN11 0XY,2014-02-18,fhrs_5_en-GB,5,,FHRS,0
50666,25 Oak Street,Weedon,Northamptonshire,,Buttercup Tea & Cakes,Other catering premises,7841,5,,174259,0,,52.22534400000000,PI/000028549,236,healthimprovement@daventrydc.gov.uk,Daventry,http://www.daventrydc.gov.uk,-1.08764100000000,NN7 4RQ,2014-03-12,fhrs_5_en-GB,5,,FHRS,0
50667,West Haddon Endowed Primary School,The Green,West Haddon,Northamptonshire,Buzzie Beas Ltd,School/college/university,7845,5,,700860,5,,52.34162000000000,PI/000049650,236,healthimprovement@daventrydc.gov.uk,Daventry,http://www.daventrydc.gov.uk,-1.07857100000000,NN6 7AN,2014-03-06,fhrs_5_en-GB,5,,FHRS,5
50668,"Petrol Filling Station, Byfield Fiveways",1A High Street,Byfield,Northamptonshire,Byfield Fiveways,Retailers - other,4613,5,,161767,0,,52.17518300000000,PI/000001856,236,healthimprovement@daventrydc.gov.uk,Daventry,http://www.daventrydc.gov.uk,-1.24525700000000,NN11 6XQ,2014-04-04,fhrs_5_en-GB,5,,FHRS,0
50669,The Green,Byfield,Northamptonshire,,Byfield Village Hall,Other catering premises,7841,5,,161795,0,,52.17407500000000,PI/000001889,236,healthimprovement@daventrydc.gov.uk,Daventry,http://www.daventrydc.gov.uk,-1.24491000000000,NN11 6UT,2014-03-19,fhrs_5_en-GB,5,,FHRS,5
50670,7 St Catherines Close,Stefen Hill,Daventry,Northamptonshire,C D Matthews Cakes,Other catering premises,7841,10,,172682,0,,52.25168700000000,PI/000023746,236,healthimprovement@daventrydc.gov.uk,Daventry,http://www.daventrydc.gov.uk,-1.16813800000000,NN11 4SB,2014-04-17,fhrs_4_en-GB,4,,FHRS,0
50671,5 Ryngwell Close,Brixworth,Northamptonshire,,Caketrends,Other catering premises,7841,5,,161418,0,,52.32310100000000,PI/000001417,236,healthimprovement@daventrydc.gov.uk,Daventry,http://www.daventrydc.gov.uk,-0.90203500000000,NN6 9XG,2012-11-21,fhrs_5_en-GB,5,,FHRS,0
50672,Whilton Chandlery,Whilton Locks,Whilton,Northamptonshire,Canal Shop,Retailers - other,4613,5,,466355,5,,,PI/000047449,236,healthimprovement@daventrydc.gov.uk,Daventry,http://www.daventrydc.gov.uk,,NN11 5NH,2012-11-25,fhrs_5_en-GB,5,,FHRS,0
50673,Canal Cottage,Whilton Locks,Whilton,Northamptonshire,Canal Turn Farm Shop,Retailers - other,4613,10,,209016,5,,52.27566500000000,PI/000029096,236,healthimprovement@daventrydc.gov.uk,Daventry,http://www.daventrydc.gov.uk,-1.09711700000000,NN11 2NH,2013-08-09,fhrs_4_en-GB,4,,FHRS,5
50674,Newhaven,Brewhouse Lane,Long Buckby Wharf,Northamptonshire,Candyvan,Mobile caterer,7846,5,,174405,0,,52.28403700000000,PI/000029023,236,healthimprovement@daventrydc.gov.uk,Daventry,http://www.daventrydc.gov.uk,-1.11036000000000,NN6 7DW,2011-01-17,fhrs_5_en-GB,5,,FHRS,0
50675,Banbury Road,Canons Ashby,Northamptonshire,,Canons Ashby House,Restaurant/Cafe/Canteen,1,0,,161898,0,,52.15218600000000,PI/000001990,236,healthimprovement@daventrydc.gov.uk,Daventry,http://www.daventrydc.gov.uk,-1.16028800000000,NN11 3SD,2013-04-23,fhrs_5_en-GB,5,,FHRS,5
50676,22 High Street,Town Centre,Daventry,Northamptonshire,CANTON HOUSE,Takeaway/sandwich shop,7844,10,,162977,5,,52.25798800000000,PI/000004024,236,healthimprovement@daventrydc.gov.uk,Daventry,http://www.daventrydc.gov.uk,-1.16281900000000,NN11 4HU,2014-02-19,fhrs_4_en-GB,4,,FHRS,5
50677,6 Bowen Square,Town Centre,Daventry,Northamptonshire,Card Factory,Retailers - other,4613,,,499103,,,52.25727800000000,PI/000003268,236,healthimprovement@daventrydc.gov.uk,Daventry,http://www.daventrydc.gov.uk,-1.16163100000000,NN11 4DR,2013-01-04,fhrs_exempt_en-GB,Exempt,,FHRS,
50678,7 Stocks Hill,Moulton,Northamptonshire,,Cardigan Arms,Pub/bar/nightclub,7843,10,,167193,5,,52.28853600000000,PI/000010923,236,healthimprovement@daventrydc.gov.uk,Daventry,http://www.daventrydc.gov.uk,-0.85232200000000,NN3 7TB,2014-04-03,fhrs_4_en-GB,4,,FHRS,5
50679,West Street,Moulton,Northamptonshire,,Carey Baptist Church,Other catering premises,7841,0,,167235,5,,,PI/000011004,236,healthimprovement@daventrydc.gov.uk,Daventry,http://www.daventrydc.gov.uk,,,2014-03-14,fhrs_5_en-GB,5,,FHRS,0
50680,Arnex House,London Road,Town Centre,Daventry,CARING KINDERGARTEN,Hospitals/Childcare/Caring Premises,5,0,,163388,0,,52.25053800000000,PI/000004618,236,healthimprovement@daventrydc.gov.uk,Daventry,http://www.daventrydc.gov.uk,-1.15696800000000,NN11 4DS,2013-08-20,fhrs_5_en-GB,5,,FHRS,0
50681,23 Yelvertoft Road,Lilbourne,Northamptonshire,,Carol's Pantry,Retailers - other,4613,5,,536476,5,,52.38723300000000,PI/000009271,236,healthimprovement@daventrydc.gov.uk,Daventry,http://www.daventrydc.gov.uk,-1.17283700000000,CV23 0SY,2013-02-01,fhrs_5_en-GB,5,,FHRS,5
50682,Part First And Second Floor,1 Market Square,Town Centre,Daventry,Caseys Club,Pub/bar/nightclub,7843,10,,163465,5,,52.25863400000000,PI/000004782,236,healthimprovement@daventrydc.gov.uk,Daventry,http://www.daventrydc.gov.uk,-1.16011100000000,NN11 4BH,2014-09-19,fhrs_4_en-GB,4,,FHRS,5
50683,Mothercare Ltd,Daventry International Rail Freight Terminal,Danes Way,Dirft,Catermasters Contract Catering,Restaurant/Cafe/Canteen,1,0,,166090,5,,52.35191100000000,PI/000008969,236,healthimprovement@daventrydc.gov.uk,Daventry,http://www.daventrydc.gov.uk,-1.14774400000000,NN6 7XR,2015-01-26,fhrs_5_en-GB,5,,FHRS,5
50684,Catesby Barn Farm,Catesby Road,Staverton,Northamptonshire,Catesby Barn Farm B+B,Hotel/bed & breakfast/guest house,7842,10,,586839,5,,52.23502900000000,PI/000048848,236,healthimprovement@daventrydc.gov.uk,Daventry,http://www.daventrydc.gov.uk,-1.21973000000000,NN11 6LB,2013-09-03,fhrs_4_en-GB,4,,FHRS,5
50685,Moulton And District Co-Operative Society,Stocks Hill,Moulton,Northamptonshire,Central England Co-operative Society,Retailers - supermarkets/hypermarkets,7840,0,,674912,0,,52.28853600000000,PI/000049676,236,healthimprovement@daventrydc.gov.uk,Daventry,http://www.daventrydc.gov.uk,-0.85232200000000,NN3 7TB,2014-05-06,fhrs_5_en-GB,5,,FHRS,0
50686,105 Northampton Road,Brixworth,Northamptonshire,,Chambers Butchers,Retailers - other,4613,0,,161275,5,,52.32681100000000,PI/000001268,236,healthimprovement@daventrydc.gov.uk,Daventry,http://www.daventrydc.gov.uk,-0.90452500000000,NN6 9DX,2014-09-15,fhrs_5_en-GB,5,,FHRS,0
50687,Guilsborough School,West Haddon Road,Guilsborough,Northamptonshire,Chartwells,School/college/university,7845,0,,165812,0,,52.35457900000000,PI/000008545,236,healthimprovement@daventrydc.gov.uk,Daventry,http://www.daventrydc.gov.uk,-1.02636900000000,NN6 8QE,2011-10-11,fhrs_5_en-GB,5,,FHRS,0
50688,10 Parkfield Road,Brixworth,Northamptonshire,,Cheryls Mobile catering,Mobile caterer,7846,5,,536493,5,,52.32727300000000,PI/000033043,236,healthimprovement@daventrydc.gov.uk,Daventry,http://www.daventrydc.gov.uk,-0.91075000000000,NN6 9DT,2013-06-03,fhrs_5_en-GB,5,,FHRS,0
50689,19 Sheaf Street,Town Centre,Daventry,Northamptonshire,China House,Takeaway/sandwich shop,7844,10,,163908,10,,52.25708600000000,PI/000005537,236,healthimprovement@daventrydc.gov.uk,Daventry,http://www.daventrydc.gov.uk,-1.16362700000000,NN11 4AA,2013-07-11,fhrs_4_en-GB,4,,FHRS,0
50690,M1 Service Area Watford Gap Southbound,Station Road,Watford,Northamptonshire,Chozen Noodles,Restaurant/Cafe/Canteen,1,5,,682537,5,,,PI/000049692,236,healthimprovement@daventrydc.gov.uk,Daventry,http://www.daventrydc.gov.uk,,,2014-07-02,fhrs_5_en-GB,5,,FHRS,5
50691,Moulton School And Science College,Pound Lane,Moulton,Northamptonshire,Churchill Contract Cantering Ltd,School/college/university,7845,5,,626231,5,,52.28879700000000,PI/000048849,236,healthimprovement@daventrydc.gov.uk,Daventry,http://www.daventrydc.gov.uk,-0.85602500000000,NN3 7SD,2013-12-06,fhrs_5_en-GB,5,,FHRS,5
50692,34 High Street,Long Buckby,Northamptonshire,,Clarecroft Day Nursery,School/college/university,7845,0,,166433,0,,52.30261900000000,PI/000009573,236,healthimprovement@daventrydc.gov.uk,Daventry,http://www.daventrydc.gov.uk,-1.07746000000000,NN6 7RD,2014-12-19,fhrs_5_en-GB,5,,FHRS,0
50693,Clipston Endowed Primary School,High Street,Clipston,Northamptonshire,Clipston School Breakfast Club,School/college/university,7845,5,,700861,5,,52.42733500000000,PI/000049685,236,healthimprovement@daventrydc.gov.uk,Daventry,http://www.daventrydc.gov.uk,-0.95324600000000,LE16 9RU,2014-09-09,fhrs_5_en-GB,5,,FHRS,0
50694,The Red Lion Hotel,Harborough Road,Brixworth,Northamptonshire,CM Catering,Other catering premises,7841,10,,536495,5,,52.32982800000000,PI/000035128,236,healthimprovement@daventrydc.gov.uk,Daventry,http://www.daventrydc.gov.uk,-0.90314500000000,NN6 9BU,2013-07-11,fhrs_4_en-GB,4,,FHRS,5
50695,Moulton College Garden Centre,Holot Site Gate 3,Pitsford Road,Moulton,Coffee Shop,Restaurant/Cafe/Canteen,1,0,,415289,0,,52.29357700000000,PI/000047453,236,healthimprovement@daventrydc.gov.uk,Daventry,http://www.daventrydc.gov.uk,-0.86126900000000,NN3 7SX,2014-08-12,fhrs_5_en-GB,5,,FHRS,5
50696,Stanford Road,Cold Ashby,Northamptonshire,,Cold Ashby Golf Club,Pub/bar/nightclub,7843,5,,162121,5,,52.38689300000000,PI/000002403,236,healthimprovement@daventrydc.gov.uk,Daventry,http://www.daventrydc.gov.uk,-1.05538300000000,NN6 6EP,2014-03-31,fhrs_4_en-GB,4,,FHRS,10
50697,Colledges House,Oakham Lane,Staverton,Northamptonshire,Colledges House B&B,Hotel/bed & breakfast/guest house,7842,5,,168010,5,,52.24710500000000,PI/000012431,236,healthimprovement@daventrydc.gov.uk,Daventry,http://www.daventrydc.gov.uk,-1.21042200000000,NN11 6JQ,2012-08-14,fhrs_5_en-GB,5,,FHRS,0
50698,Parker E-Act Academy,Ashby Road,Ashby Fields,Daventry,Compass @ Parker E-Act Acadamy,School/college/university,7845,5,,648802,5,,52.26456100000000,PI/000049373,236,healthimprovement@daventrydc.gov.uk,Daventry,http://www.daventrydc.gov.uk,-1.16421900000000,NN11 0QF,2014-03-05,fhrs_5_en-GB,5,,FHRS,5
50699,High Street,Yelvertoft,Northamptonshire,,Congregational Church,Other catering premises,7841,,,178114,,,,PI/000045277,236,healthimprovement@daventrydc.gov.uk,Daventry,http://www.daventrydc.gov.uk,,,2013-08-05,fhrs_exempt_en-GB,Exempt,,FHRS,
50700,2 Westerburg Square,Stefen Hill,Daventry,Northamptonshire,Co-operative,Retailers - other,4613,0,,171059,0,,52.25001400000000,PI/000019403,236,healthimprovement@daventrydc.gov.uk,Daventry,http://www.daventrydc.gov.uk,-1.16415500000000,NN11 4TQ,2011-12-19,fhrs_5_en-GB,5,,FHRS,0
50701,Coop Foodstore,53 Ashby Road,Ashby Fields,Daventry,Co-operative Food,Retailers - other,4613,5,,536502,5,,52.26456100000000,PI/000047481,236,healthimprovement@daventrydc.gov.uk,Daventry,http://www.daventrydc.gov.uk,-1.16421900000000,NN11 0QF,2013-02-11,fhrs_5_en-GB,5,,FHRS,0
50702,3 Hunters Way,Brixworth,Northamptonshire,,Co-operative Group,Retailers - supermarkets/hypermarkets,7840,0,,161217,5,,52.32841700000000,PI/000001187,236,healthimprovement@daventrydc.gov.uk,Daventry,http://www.daventrydc.gov.uk,-0.90611500000000,NN6 9EL,2012-10-01,fhrs_5_en-GB,5,,FHRS,5
50703,1-2 Edinburgh Square,Headlands,Daventry,Northamptonshire,Cooperative Group (CWS) Ltd,Retailers - other,4613,5,,162800,0,,52.26434300000000,PI/000003674,236,healthimprovement@daventrydc.gov.uk,Daventry,http://www.daventrydc.gov.uk,-1.17028900000000,NN11 9BW,2013-06-04,fhrs_5_en-GB,5,,FHRS,0
50704,Byfield Post Office,29 High Street,Byfield,Northamptonshire,CO-OPERATIVE SOCIETY,Retailers - other,4613,5,,161772,0,,52.17518300000000,PI/000001862,236,healthimprovement@daventrydc.gov.uk,Daventry,http://www.daventrydc.gov.uk,-1.24525700000000,NN11 6XQ,2014-03-19,fhrs_5_en-GB,5,,FHRS,0
50705,The Top Farmhouse,7 Phipps Road,Woodford Halse,Northamptonshire,Co-operative Society,Retailers - supermarkets/hypermarkets,7840,5,,169112,0,,52.16889000000000,PI/000014453,236,healthimprovement@daventrydc.gov.uk,Daventry,http://www.daventrydc.gov.uk,-1.21503800000000,NN11 3TW,2014-07-01,fhrs_5_en-GB,5,,FHRS,0
50706,21-22 Bowen Square,Town Centre,Daventry,Northamptonshire,Costa Coffee,Restaurant/Cafe/Canteen,1,5,,733433,0,,52.25727800000000,PI/000049715,236,healthimprovement@daventrydc.gov.uk,Daventry,http://www.daventrydc.gov.uk,-1.16163100000000,NN11 4DR,2015-01-21,fhrs_5_en-GB,5,,FHRS,0
50707,Main Street,Cottesbrooke,Northamptonshire,,Cottesbrooke Hall,Restaurant/Cafe/Canteen,1,10,,162131,5,,52.35925200000000,PI/000002425,236,healthimprovement@daventrydc.gov.uk,Daventry,http://www.daventrydc.gov.uk,-0.95761600000000,NN6 8PF,2013-06-06,fhrs_4_en-GB,4,,FHRS,5
50708,Covey Farm Nurseries,Pitsford Road,Chapel Brampton,Northamptonshire,Covey Coffee Shop,Restaurant/Cafe/Canteen,1,5,,674917,5,,52.30016100000000,PI/000049722,236,healthimprovement@daventrydc.gov.uk,Daventry,http://www.daventrydc.gov.uk,-0.91118100000000,NN6 8BE,2014-05-09,fhrs_5_en-GB,5,,FHRS,0
50709,Walgrave Primary School,Kettering Road,Walgrave,Northamptonshire,Crack-a--Jacks out of school Club,School/college/university,7845,5,,209018,5,,52.34259300000000,PI/000047307,236,healthimprovement@daventrydc.gov.uk,Daventry,http://www.daventrydc.gov.uk,-0.81901100000000,NN6 9PH,2013-10-09,fhrs_5_en-GB,5,,FHRS,0
50710,Valley View,35 Welford Road,Creaton,Northamptonshire,Creaton Cuisine,Other catering premises,7841,5,,162166,0,,52.33942400000000,PI/000002496,236,healthimprovement@daventrydc.gov.uk,Daventry,http://www.daventrydc.gov.uk,-0.96530400000000,NN6 8NH,2013-07-02,fhrs_5_en-GB,5,,FHRS,0
50711,The Old School,Church Street,Crick,Northamptonshire,Crick Ex-Servicemen's Club,Pub/bar/nightclub,7843,0,,174174,0,,52.34835400000000,PI/000028216,236,healthimprovement@daventrydc.gov.uk,Daventry,http://www.daventrydc.gov.uk,-1.13819700000000,NN6 7TP,2014-04-01,fhrs_5_en-GB,5,,FHRS,5
50712,86 Main Road,Crick,Northamptonshire,,Crick Post Office,Retailers - other,4613,10,,162315,0,,52.34685300000000,PI/000002719,236,healthimprovement@daventrydc.gov.uk,Daventry,http://www.daventrydc.gov.uk,-1.13581800000000,NN6 7TX,2012-12-07,fhrs_4_en-GB,4,,FHRS,0
50713,Crick Primary School,Main Road,Crick,Northamptonshire,Crick Pre-School,School/college/university,7845,5,,209009,5,,52.34725600000000,PI/000047412,236,healthimprovement@daventrydc.gov.uk,Daventry,http://www.daventrydc.gov.uk,-1.13560500000000,NN6 7TU,2014-09-09,fhrs_5_en-GB,5,,FHRS,0
50714,Bucknills Lane,Crick,Northamptonshire,,Crick Village Hall,Other catering premises,7841,5,,162211,0,,52.34759800000000,PI/000002568,236,healthimprovement@daventrydc.gov.uk,Daventry,http://www.daventrydc.gov.uk,-1.14060400000000,NN6 7SX,2013-07-24,fhrs_5_en-GB,5,,FHRS,0
50715,Crockwell Farm,Eydon Road,Canons Ashby,Northamptonshire,Crockwell Farm B&B,Hotel/bed & breakfast/guest house,7842,5,,161896,5,,52.15231500000000,PI/000001989,236,healthimprovement@daventrydc.gov.uk,Daventry,http://www.daventrydc.gov.uk,-1.18637500000000,NN11 3QA,2011-10-07,fhrs_5_en-GB,5,,FHRS,5
50716,2 Banbury Road,Byfield,Northamptonshire,,Cross Tree Inn,Pub/bar/nightclub,7843,5,,161862,5,,52.17274800000000,PI/000001951,236,healthimprovement@daventrydc.gov.uk,Daventry,http://www.daventrydc.gov.uk,-1.24687700000000,NN11 6XL,2014-08-04,fhrs_5_en-GB,5,,FHRS,5
50717,High Street,Weedon,Northamptonshire,,Crossroads Hotel,Hotel/bed & breakfast/guest house,7842,5,,168354,5,,52.23288300000000,PI/000013018,236,healthimprovement@daventrydc.gov.uk,Daventry,http://www.daventrydc.gov.uk,-1.07564000000000,NN7 4PX,2013-01-11,fhrs_5_en-GB,5,,FHRS,5
50718,Stone House,Main Street,Watford,Northamptonshire,Cupcates,Other catering premises,7841,5,,466341,0,,52.31332700000000,PI/000029057,236,healthimprovement@daventrydc.gov.uk,Daventry,http://www.daventrydc.gov.uk,-1.11867800000000,NN6 7UY,2013-06-26,fhrs_5_en-GB,5,,FHRS,0
50719,Staverton Church Of England Primary School,Glebe Lane,Staverton,Northamptonshire,Cygnet@Staverton Church of England P,School/college/university,7845,5,,466336,0,,52.24789000000000,PI/000022993,236,healthimprovement@daventrydc.gov.uk,Daventry,http://www.daventrydc.gov.uk,-1.20961700000000,NN11 6JF,2014-07-22,fhrs_5_en-GB,5,,FHRS,5
50720,5 Sheaf Street,Town Centre,Daventry,Northamptonshire,DANETRE CHIPPY,Takeaway/sandwich shop,7844,5,,163930,5,,52.25708600000000,PI/000005576,236,healthimprovement@daventrydc.gov.uk,Daventry,http://www.daventrydc.gov.uk,-1.16362700000000,NN11 4AA,2013-06-06,fhrs_5_en-GB,5,,FHRS,5
50721,Heart Of The Shires Shopping Village,Watling Street,Norton,Northamptonshire,Darlingtons,Restaurant/Cafe/Canteen,1,5,,168503,0,,52.27846300000000,PI/000013308,236,healthimprovement@daventrydc.gov.uk,Daventry,http://www.daventrydc.gov.uk,-1.10799200000000,,2015-01-22,fhrs_5_en-GB,5,,FHRS,0
50722,49 Dixon Road,Boughton,Northamptonshire,,Darren Coombs Fresh Fruit & Veg,Mobile caterer,7846,10,,175930,0,,52.27684000000000,PI/000034615,236,healthimprovement@daventrydc.gov.uk,Daventry,http://www.daventrydc.gov.uk,-0.88519300000000,NN2 8XE,2010-05-17,fhrs_4_en-GB,4,,FHRS,0
50723,Stefan Hill Ground,Western Avenue,Town Centre,Daventry,Daventry & District Sports Club,Other catering premises,7841,10,,164314,0,,52.24837200000000,PI/000006095,236,healthimprovement@daventrydc.gov.uk,Daventry,http://www.daventrydc.gov.uk,-1.15831300000000,NN11 4ST,2014-09-22,fhrs_4_en-GB,4,,FHRS,5
50724,Norton Road,Town Centre,Daventry,Northamptonshire,Daventry And District Golf Club,Pub/bar/nightclub,7843,10,,163594,10,,52.26397500000000,PI/000004963,236,healthimprovement@daventrydc.gov.uk,Daventry,http://www.daventrydc.gov.uk,-1.14516700000000,NN11 2LS,2013-08-09,fhrs_3_en-GB,3,,FHRS,5
50725,Ashby Road,Ashby Fields,Daventry,Northamptonshire,Daventry Community Centre,Other catering premises,7841,,,466312,,,52.26305900000000,PI/000003072,236,healthimprovement@daventrydc.gov.uk,Daventry,http://www.daventrydc.gov.uk,-1.16413000000000,NN11 0QE,2013-08-05,fhrs_exempt_en-GB,Exempt,,FHRS,
50726,39 High Street,Town Centre,Daventry,Northamptonshire,Daventry Conservative Club,Pub/bar/nightclub,7843,5,,162997,0,,52.25759500000000,PI/000004045,236,healthimprovement@daventrydc.gov.uk,Daventry,http://www.daventrydc.gov.uk,-1.16322200000000,NN11 4BQ,2013-08-29,fhrs_5_en-GB,5,,FHRS,0
50727,United Reformed Church,Foundry Place,Town Centre,Daventry,Daventry Country Markets,Retailers - other,4613,10,,162905,5,,,PI/000003899,236,healthimprovement@daventrydc.gov.uk,Daventry,http://www.daventrydc.gov.uk,,,2013-03-19,fhrs_4_en-GB,4,,FHRS,5
50728,Sedgemoor Way,Lang Farm,Daventry,Northamptonshire,Daventry Court Hotel,Hotel/bed & breakfast/guest house,7842,0,,163854,5,,52.27787700000000,PI/000005437,236,healthimprovement@daventrydc.gov.uk,Daventry,http://www.daventrydc.gov.uk,-1.16435000000000,NN11 0SG,2012-11-06,fhrs_5_en-GB,5,,FHRS,0
50729,3 Browns Road,Royal Oak,Daventry,Northamptonshire,DAVENTRY INDOOR BOWLING CLUB,Other catering premises,7841,10,,163126,5,,,PI/000004231,236,healthimprovement@daventrydc.gov.uk,Daventry,http://www.daventrydc.gov.uk,,,2012-12-07,fhrs_4_en-GB,4,,FHRS,0
50730,Golding Close,Town Centre,Daventry,Northamptonshire,Daventry Methodist Church,Other catering premises,7841,0,,162936,5,,,PI/000003945,236,healthimprovement@daventrydc.gov.uk,Daventry,http://www.daventrydc.gov.uk,,,2013-11-11,fhrs_5_en-GB,5,,FHRS,0
50731,37-43 Sheaf Street,Town Centre,Daventry,Northamptonshire,Daventry Post Office,Retailers - other,4613,,,163927,,,52.25708600000000,PI/000005569,236,healthimprovement@daventrydc.gov.uk,Daventry,http://www.daventrydc.gov.uk,-1.16362700000000,NN11 4AA,2014-03-21,fhrs_exempt_en-GB,Exempt,,FHRS,
50732,Danetre and southbrook learning village,Hawke Road,Southbrook,Daventry,Daventry Schools Learning Village,School/college/university,7845,5,,466348,0,,,PI/000040889,236,healthimprovement@daventrydc.gov.uk,Daventry,http://www.daventrydc.gov.uk,,,2014-01-15,fhrs_5_en-GB,5,,FHRS,0
50733,Southbrook junior school,Danetre and southbrook learning village,Hawke Road,Southbrook,Daventry Schools Learning Village,School/college/university,7845,5,,164542,0,,52.25574400000000,PI/000006502,236,healthimprovement@daventrydc.gov.uk,Daventry,http://www.daventrydc.gov.uk,-1.14947100000000,NN11 4LB,2014-01-15,fhrs_5_en-GB,5,,FHRS,0
50734,Browns Road,Royal Oak,Daventry,Northamptonshire,Daventry Sports Park,Other catering premises,7841,,,172488,,,52.25624200000000,PI/000023250,236,healthimprovement@daventrydc.gov.uk,Daventry,http://www.daventrydc.gov.uk,-1.18701000000000,NN11 4NS,2014-07-21,fhrs_exempt_en-GB,Exempt,,FHRS,
50735,Stefan Hill Sports Ground,Western Avenue,Town Centre,Daventry,DAVENTRY TOWN BOWLING CLUB,Other catering premises,7841,5,,164315,0,,52.24837200000000,PI/000006096,236,healthimprovement@daventrydc.gov.uk,Daventry,http://www.daventrydc.gov.uk,-1.15831300000000,NN11 4ST,2013-08-30,fhrs_5_en-GB,5,,FHRS,0
50736,Communications Park,Browns Road,Royal Oak,Daventry,Daventry Town Football Club,Restaurant/Cafe/Canteen,1,5,,172501,10,,52.25624200000000,PI/000023301,236,healthimprovement@daventrydc.gov.uk,Daventry,http://www.daventrydc.gov.uk,-1.18701000000000,NN11 4NS,2013-10-11,fhrs_4_en-GB,4,,FHRS,5
50737,Unit 15,Abbey Retail Park,South Way,The Marches,Daventry Working Mens Club,Pub/bar/nightclub,7843,5,,178105,10,,52.25986600000000,PI/000045238,236,healthimprovement@daventrydc.gov.uk,Daventry,http://www.daventrydc.gov.uk,-1.15764100000000,NN11 4GL,2013-05-17,fhrs_4_en-GB,4,,FHRS,5
50738,Staverton Park Hotel,Daventry Road,Staverton,Northamptonshire,De Vere Venues,Hotel/bed & breakfast/guest house,7842,5,,167970,5,,52.24830900000000,PI/000012389,236,healthimprovement@daventrydc.gov.uk,Daventry,http://www.daventrydc.gov.uk,-1.19967900000000,NN11 6JT,2015-01-20,fhrs_5_en-GB,5,,FHRS,5
50739,Caravan,Newnham Turn Farm,Main Road,Dodford,Dodford Car Boot,Mobile caterer,7846,10,,708951,5,,,PI/000045205,236,healthimprovement@daventrydc.gov.uk,Daventry,http://www.daventrydc.gov.uk,,,2014-05-15,fhrs_4_en-GB,4,,FHRS,5
50740,London Road,Dodford,Northamptonshire,,Dodford Manor,Hotel/bed & breakfast/guest house,7842,0,,536503,5,,52.23672500000000,PI/000047609,236,healthimprovement@daventrydc.gov.uk,Daventry,http://www.daventrydc.gov.uk,-1.10274000000000,NN7 4SR,2013-07-19,fhrs_5_en-GB,5,,FHRS,5
50741,Weedon Lane,Dodford,Northamptonshire,,Dodmoor House,Other catering premises,7841,5,,165189,5,,52.24182800000000,PI/000007614,236,healthimprovement@daventrydc.gov.uk,Daventry,http://www.daventrydc.gov.uk,-1.08585300000000,NN7 4TA,2013-09-30,fhrs_5_en-GB,5,,FHRS,0
50742,Phoenix Centre,Ashby Road,Ashby Fields,Daventry,DOLPHIN DAY NURSERY,School/college/university,7845,5,,162534,0,,52.26305900000000,PI/000003074,236,healthimprovement@daventrydc.gov.uk,Daventry,http://www.daventrydc.gov.uk,-1.16413000000000,NN11 0QE,2010-10-22,fhrs_5_en-GB,5,,FHRS,5
50743,St Andrew's Church,Church Road,Spratton,Northamptonshire,Doris's Cafe,Restaurant/Cafe/Canteen,1,5,,536499,0,,,PI/000039105,236,healthimprovement@daventrydc.gov.uk,Daventry,http://www.daventrydc.gov.uk,,,2013-07-18,fhrs_5_en-GB,5,,FHRS,0
50744,Oriel House,School Road,Spratton,Northamptonshire,Dotty Delicious,Other catering premises,7841,5,,536491,0,,52.32537200000000,PI/000032823,236,healthimprovement@daventrydc.gov.uk,Daventry,http://www.daventrydc.gov.uk,-0.94806700000000,NN6 8HY,2013-07-30,fhrs_5_en-GB,5,,FHRS,0
50745,Jubilee Hall,Teeton Lane,Creaton,Northamptonshire,Ducklings Pre-School,Other catering premises,7841,10,,162153,5,,52.33830000000000,PI/000002470,236,healthimprovement@daventrydc.gov.uk,Daventry,http://www.daventrydc.gov.uk,-0.96528600000000,NN6 8NL,2010-10-21,fhrs_4_en-GB,4,,FHRS,5
50746,Brook Street,Town Centre,Daventry,Northamptonshire,Dun Cow Inn,Pub/bar/nightclub,7843,10,,733443,5,,52.25798200000000,PI/000050597,236,healthimprovement@daventrydc.gov.uk,Daventry,http://www.daventrydc.gov.uk,-1.16451900000000,NN11 4GG,2015-01-13,fhrs_4_en-GB,4,,FHRS,5
50747,Braunston C Of E Primary School,Barby Road,Braunston,Northamptonshire,Early Birds Breakfast Club,School/college/university,7845,5,,674911,0,,52.29307500000000,PI/000049675,236,healthimprovement@daventrydc.gov.uk,Daventry,http://www.daventrydc.gov.uk,-1.20532400000000,NN11 7HF,2014-06-04,fhrs_5_en-GB,5,,FHRS,0
50748,East Haddon Village Hall,Main Street,East Haddon,Northamptonshire,East Haddon Pre-school,School/college/university,7845,5,,165292,5,,52.30722400000000,PI/000007785,236,healthimprovement@daventrydc.gov.uk,Daventry,http://www.daventrydc.gov.uk,-1.02171700000000,NN6 8BU,2014-02-05,fhrs_5_en-GB,5,,FHRS,5
50749,The Elizabethan,6-8 High Street,Welford,Northamptonshire,Elevenses c/o,Restaurant/Cafe/Canteen,1,10,,733437,5,,52.41875800000000,PI/000050441,236,healthimprovement@daventrydc.gov.uk,Daventry,http://www.daventrydc.gov.uk,-1.05579100000000,NN6 6HT,2014-09-10,fhrs_4_en-GB,4,,FHRS,5
50750,Tesco Frozen Ltd,Daventry International Rail Freight Terminal,Danes Way,Dirft,Elior UK,Restaurant/Cafe/Canteen,1,5,,733436,5,,52.35562100000000,PI/000050402,236,healthimprovement@daventrydc.gov.uk,Daventry,http://www.daventrydc.gov.uk,-1.15977200000000,NN6 7FT,2014-11-26,fhrs_5_en-GB,5,,FHRS,5
50751,Cummins Engine Company Ltd,Royal Oak Way South,Royal Oak,Daventry,Eurest,Restaurant/Cafe/Canteen,1,0,,163782,0,,52.26198300000000,PI/000005309,236,healthimprovement@daventrydc.gov.uk,Daventry,http://www.daventrydc.gov.uk,-1.17730800000000,NN11 8NU,2013-08-30,fhrs_5_en-GB,5,,FHRS,0
50752,Ford Motor Company Ltd,Royal Oak Way South,Royal Oak,Daventry,Eurest,Restaurant/Cafe/Canteen,1,0,,163786,0,,52.26075900000000,PI/000005310,236,healthimprovement@daventrydc.gov.uk,Daventry,http://www.daventrydc.gov.uk,-1.18622400000000,NN11 8NT,2013-07-04,fhrs_5_en-GB,5,,FHRS,0
50753,The Old School House,The Green,Everdon,Northamptonshire,Everdon Activities Centre,School/college/university,7845,5,,165381,0,,52.21274800000000,PI/000007936,236,healthimprovement@daventrydc.gov.uk,Daventry,http://www.daventrydc.gov.uk,-1.13306500000000,NN11 3BL,2012-12-04,fhrs_5_en-GB,5,,FHRS,0
50754,30 Sheaf Street,Town Centre,Daventry,Northamptonshire,Evergreen Art Cafe,Restaurant/Cafe/Canteen,1,5,,177988,0,,52.25690800000000,PI/000044693,236,healthimprovement@daventrydc.gov.uk,Daventry,http://www.daventrydc.gov.uk,-1.16387900000000,NN11 4AB,2014-12-02,fhrs_5_en-GB,5,,FHRS,5
50755,Daventry Leisure Centre,Lodge Road,Town Centre,Daventry,Everyone Active,Restaurant/Cafe/Canteen,1,5,,163367,0,,52.25997100000000,PI/000004566,236,healthimprovement@daventrydc.gov.uk,Daventry,http://www.daventrydc.gov.uk,-1.15848900000000,NN11 4FP,2013-10-24,fhrs_5_en-GB,5,,FHRS,5
50756,Everdon Road,Farthingstone,Northamptonshire,,Farthingstone Hotel And Leisure Cent,Hotel/bed & breakfast/guest house,7842,5,,174238,5,,52.19093900000000,PI/000028476,236,healthimprovement@daventrydc.gov.uk,Daventry,http://www.daventrydc.gov.uk,-1.12000200000000,NN12 8HA,2012-12-07,fhrs_5_en-GB,5,,FHRS,5
50757,Boughton Fair Lane,Moulton,Northamptonshire,,Favours Day Nursery,School/college/university,7845,5,,167164,5,,52.29752900000000,PI/000010865,236,healthimprovement@daventrydc.gov.uk,Daventry,http://www.daventrydc.gov.uk,-0.86462800000000,NN3 7RS,2014-03-07,fhrs_5_en-GB,5,,FHRS,5
50758,Fawsley Road,Fawsley,Northamptonshire,,Fawsley Hall Hotel,Hotel/bed & breakfast/guest house,7842,0,,648807,0,,52.20788300000000,PI/000049649,236,healthimprovement@daventrydc.gov.uk,Daventry,http://www.daventrydc.gov.uk,-1.18714600000000,NN11 3BU,2014-03-19,fhrs_5_en-GB,5,,FHRS,5
50759,16 High Street,Byfield,Northamptonshire,,Flora Innes House,Hospitals/Childcare/Caring Premises,5,5,,161766,5,,52.17581700000000,PI/000001855,236,healthimprovement@daventrydc.gov.uk,Daventry,http://www.daventrydc.gov.uk,-1.24596300000000,NN11 6XH,2014-08-04,fhrs_5_en-GB,5,,FHRS,5
50760,50 High Street,Flore,Northamptonshire,,FLORE CONVENIENCE STORE,Retailers - other,4613,10,,165507,5,,52.23715500000000,PI/000008121,236,healthimprovement@daventrydc.gov.uk,Daventry,http://www.daventrydc.gov.uk,-1.05302900000000,NN7 4LW,2013-07-02,fhrs_4_en-GB,4,,FHRS,0
50761,23 Bricketts Lane,Flore,Northamptonshire,,Flore Cottage,Hotel/bed & breakfast/guest house,7842,0,,401791,0,,52.23564200000000,PI/000035351,236,healthimprovement@daventrydc.gov.uk,Daventry,http://www.daventrydc.gov.uk,-1.06070500000000,NN7 4LU,2013-03-22,fhrs_5_en-GB,5,,FHRS,0
50762,Valley View,35 Welford Road,Creaton,Northamptonshire,Flying Pig Roasts,Mobile caterer,7846,10,,733435,5,,52.33942400000000,PI/000050225,236,healthimprovement@daventrydc.gov.uk,Daventry,http://www.daventrydc.gov.uk,-0.96530400000000,NN6 8NH,2014-11-12,fhrs_4_en-GB,4,,FHRS,5
50763,Heart Of The Shires Shopping Village,Watling Street,Norton,Northamptonshire,Food for Thought,Retailers - other,4613,5,,674915,0,,52.27846300000000,PI/000049718,236,healthimprovement@daventrydc.gov.uk,Daventry,http://www.daventrydc.gov.uk,-1.10799200000000,,2014-04-28,fhrs_5_en-GB,5,,FHRS,0
50764,Foxhill Road,West Haddon,Northamptonshire,,Foxhill Manor Nursing Home,Hospitals/Childcare/Caring Premises,5,0,,169833,0,,52.32789700000000,PI/000016020,236,healthimprovement@daventrydc.gov.uk,Daventry,http://www.daventrydc.gov.uk,-1.07926700000000,NN6 7BG,2013-11-11,fhrs_5_en-GB,5,,FHRS,5
50765,Roadchef Ltd,M1 Service Area Watford Gap Northbound,Station Road,Watford,Fresh Food Cafe,Restaurant/Cafe/Canteen,1,5,,466347,5,,52.30555800000000,PI/000039324,236,healthimprovement@daventrydc.gov.uk,Daventry,http://www.daventrydc.gov.uk,-1.12216100000000,NN6 7UZ,2014-07-02,fhrs_5_en-GB,5,,FHRS,5
50766,M1 Service Area Watford Gap Southbound,Station Road,Watford,Northamptonshire,Fresh Food Co,Restaurant/Cafe/Canteen,1,5,,682538,5,,,PI/000049693,236,healthimprovement@daventrydc.gov.uk,Daventry,http://www.daventrydc.gov.uk,,,2014-07-02,fhrs_5_en-GB,5,,FHRS,5
50767,12 High Street,Town Centre,Daventry,Northamptonshire,Fridays,Pub/bar/nightclub,7843,5,,733444,10,,52.25847900000000,PI/000050615,236,healthimprovement@daventrydc.gov.uk,Daventry,http://www.daventrydc.gov.uk,-1.16105200000000,NN11 4HT,2015-01-20,fhrs_3_en-GB,3,,FHRS,10
50768,Ashby Farm House,Main Street,Ashby St Ledgers,Northamptonshire,From Farm to Fork,Other catering premises,7841,,,160443,,,52.30849300000000,PI/000000070,236,healthimprovement@daventrydc.gov.uk,Daventry,http://www.daventrydc.gov.uk,-1.16487400000000,CV23 8UN,2014-07-09,fhrs_exempt_en-GB,Exempt,,FHRS,
50769,Four Acres Farm,West Haddon Road,Crick,Northamptonshire,George Heath,Mobile caterer,7846,5,,162319,5,,52.34773000000000,PI/000002725,236,healthimprovement@daventrydc.gov.uk,Daventry,http://www.daventrydc.gov.uk,-1.12297100000000,NN6 7SQ,2014-03-06,fhrs_5_en-GB,5,,FHRS,5
50770,2A High Street,Long Buckby,Northamptonshire,,Goa,Takeaway/sandwich shop,7844,10,,610025,5,,52.30261900000000,PI/000049287,236,healthimprovement@daventrydc.gov.uk,Daventry,http://www.daventrydc.gov.uk,-1.07746000000000,NN6 7RD,2013-10-30,fhrs_4_en-GB,4,,FHRS,5
50771,Braunston Marina,Grand Union Canal,Braunston,Northamptonshire,GONGOOZLERS REST,Restaurant/Cafe/Canteen,1,5,,161035,5,,,PI/000000915,236,healthimprovement@daventrydc.gov.uk,Daventry,http://www.daventrydc.gov.uk,,,2014-09-17,fhrs_5_en-GB,5,,FHRS,0
50772,3 James Watt Close,Drayton Fields,Daventry,Northamptonshire,Graham's Mobile Grocer,Retailers - other,4613,,,163215,,,52.26902500000000,PI/000004361,236,healthimprovement@daventrydc.gov.uk,Daventry,http://www.daventrydc.gov.uk,-1.18027000000000,NN11 8RJ,2014-11-06,fhrs_exempt_en-GB,Exempt,,FHRS,
50773,Main Street,Great Oxendon,Northamptonshire,,Great Oxendon Village Hall,Other catering premises,7841,,,165740,,,52.44329500000000,PI/000008434,236,healthimprovement@daventrydc.gov.uk,Daventry,http://www.daventrydc.gov.uk,-0.92244200000000,LE16 8NE,2014-04-17,fhrs_exempt_en-GB,Exempt,,FHRS,
50774,Catesby Road,Staverton,Northamptonshire,,Green Acres,School/college/university,7845,5,,708953,5,,52.24487500000000,PI/000049378,236,healthimprovement@daventrydc.gov.uk,Daventry,http://www.daventrydc.gov.uk,-1.21308300000000,NN11 6JP,2014-09-30,fhrs_5_en-GB,5,,FHRS,0
50775,Ryehill Close,Long Buckby,Northamptonshire,,Greenhill Court,Hospitals/Childcare/Caring Premises,5,0,,166575,0,,52.30001700000000,PI/000009808,236,healthimprovement@daventrydc.gov.uk,Daventry,http://www.daventrydc.gov.uk,-1.08643400000000,,2009-09-16,fhrs_5_en-GB,5,,FHRS,0
50776,School House,The Green,Guilsborough,Northamptonshire,Guilsborough Pre School,School/college/university,7845,5,,715673,0,,52.35183200000000,PI/000030866,236,healthimprovement@daventrydc.gov.uk,Daventry,http://www.daventrydc.gov.uk,-1.01277500000000,NN6 8PT,2014-11-14,fhrs_5_en-GB,5,,FHRS,0
50777,Units 12-14,Abbey Retail Park,South Way,The Marches,Happy Chef,Other catering premises,7841,5,,177871,5,,52.21795000000000,PI/000044120,236,healthimprovement@daventrydc.gov.uk,Daventry,http://www.daventrydc.gov.uk,-1.18629400000000,NN11 4FD,2014-10-31,fhrs_5_en-GB,5,,FHRS,0
50778,Harlestone Road,Lower Harlestone,Northamptonshire,,Harlestone Heath Garden Centre,Restaurant/Cafe/Canteen,1,5,,166817,10,,52.26740500000000,PI/000010252,236,healthimprovement@daventrydc.gov.uk,Daventry,http://www.daventrydc.gov.uk,-0.95868600000000,NN5 6UJ,2014-02-03,fhrs_3_en-GB,3,,FHRS,10
50779,Harlestone Primary School,Church Lane,Lower Harlestone,Northamptonshire,Harlestone P. S. Breakfast Club,School/college/university,7845,0,,466322,0,,52.27437000000000,PI/000010243,236,healthimprovement@daventrydc.gov.uk,Daventry,http://www.daventrydc.gov.uk,-0.97276900000000,NN7 4EN,2013-06-07,fhrs_5_en-GB,5,,FHRS,0
50780,58 Duston Road,Upper Harlestone,Northamptonshire,,Harlestone Stores,Retailers - other,4613,10,,166838,5,,52.26866300000000,PI/000010299,236,healthimprovement@daventrydc.gov.uk,Daventry,http://www.daventrydc.gov.uk,-0.97923200000000,NN7 4EH,2014-04-03,fhrs_4_en-GB,4,,FHRS,0
50781,10 Station Road,Lilbourne,Northamptonshire,,Head of Steam,Pub/bar/nightclub,7843,5,,674904,0,,52.38914600000000,PI/000009240,236,healthimprovement@daventrydc.gov.uk,Daventry,http://www.daventrydc.gov.uk,-1.17384500000000,CV23 0SX,2014-06-03,fhrs_5_en-GB,5,,FHRS,0
50782,2 High Street,Crick,Northamptonshire,,Heart Of England Co-op,Retailers - other,4613,0,,174152,0,,52.34594500000000,PI/000028144,236,healthimprovement@daventrydc.gov.uk,Daventry,http://www.daventrydc.gov.uk,-1.13577700000000,NN6 7TS,2014-03-17,fhrs_5_en-GB,5,,FHRS,0
50783,Staverton park golf club,Daventry Road,Staverton,Northamptonshire,Heathers Halfway House,Restaurant/Cafe/Canteen,1,5,,167972,0,,52.24830900000000,PI/000012390,236,healthimprovement@daventrydc.gov.uk,Daventry,http://www.daventrydc.gov.uk,-1.19967900000000,NN11 6JT,2014-02-27,fhrs_5_en-GB,5,,FHRS,0
50784,Little Back Lane,Hellidon,Northamptonshire,,Hellidon Village Hall,Other catering premises,7841,,,165923,,,52.21829700000000,PI/000008733,236,healthimprovement@daventrydc.gov.uk,Daventry,http://www.daventrydc.gov.uk,-1.24593200000000,NN11 6GE,2013-08-19,fhrs_exempt_en-GB,Exempt,,FHRS,
50785,2 New Terrace,Byfield,Northamptonshire,,Herbal Fusions Ltd,Retailers - other,4613,5,,708946,0,,52.17409500000000,PI/000021537,236,healthimprovement@daventrydc.gov.uk,Daventry,http://www.daventrydc.gov.uk,-1.24665000000000,NN11 6UY,2014-05-09,fhrs_5_en-GB,5,,FHRS,0
50786,76 High Street,Town Centre,Daventry,Northamptonshire,Heron Foods,Retailers - supermarkets/hypermarkets,7840,0,,695907,5,,52.25798800000000,PI/000049587,236,healthimprovement@daventrydc.gov.uk,Daventry,http://www.daventrydc.gov.uk,-1.16281900000000,NN11 4HU,2014-02-26,fhrs_5_en-GB,5,,FHRS,0
50787,High Street,Town Centre,Daventry,Northamptonshire,Hickory House,Hospitals/Childcare/Caring Premises,5,5,,176838,0,,52.25797800000000,PI/000039244,236,healthimprovement@daventrydc.gov.uk,Daventry,http://www.daventrydc.gov.uk,-1.16142700000000,NN11 4BG,2014-06-04,fhrs_5_en-GB,5,,FHRS,0
50788,Highgate House,Grooms Lane,Creaton,Northamptonshire,Highgate House (Sundial Group Ltd),Hotel/bed & breakfast/guest house,7842,0,,162148,5,,52.33759600000000,PI/000002462,236,healthimprovement@daventrydc.gov.uk,Daventry,http://www.daventrydc.gov.uk,-0.95784600000000,NN6 8NN,2013-02-22,fhrs_5_en-GB,5,,FHRS,5
50789,Hmyoi Onley,Onley Park,Barby,Northamptonshire,HMP Onley,Restaurant/Cafe/Canteen,1,0,,167414,5,,52.32647300000000,PI/000011394,236,healthimprovement@daventrydc.gov.uk,Daventry,http://www.daventrydc.gov.uk,-1.24770400000000,CV23 8AP,2013-06-21,fhrs_5_en-GB,5,,FHRS,5
50790,1 Main Street,Dodford,Northamptonshire,,HOLBOURN HOUSE NURSERY,School/college/university,7845,5,,165178,0,,52.24083300000000,PI/000007599,236,healthimprovement@daventrydc.gov.uk,Daventry,http://www.daventrydc.gov.uk,-1.10268600000000,NN7 4SX,2014-06-05,fhrs_5_en-GB,5,,FHRS,0
50791,Rugby Road,Crick,Northamptonshire,,Holiday Inn,Hotel/bed & breakfast/guest house,7842,0,,162346,0,,52.35191100000000,PI/000002778,236,healthimprovement@daventrydc.gov.uk,Daventry,http://www.daventrydc.gov.uk,-1.14774400000000,NN6 7XR,2014-03-27,fhrs_5_en-GB,5,,FHRS,0
50792,Holiday Inn,High Street,Flore,Northamptonshire,Holiday Inn (Northampton West),Hotel/bed & breakfast/guest house,7842,0,,165520,5,,52.23715500000000,PI/000008136,236,healthimprovement@daventrydc.gov.uk,Daventry,http://www.daventrydc.gov.uk,-1.05302900000000,NN7 4LW,2013-04-26,fhrs_5_en-GB,5,,FHRS,5
50793,Guilsborough Hill,Hollowell,Northamptonshire,,Hollowell Sailing Club,Pub/bar/nightclub,7843,5,,166055,0,,52.34241000000000,PI/000008916,236,healthimprovement@daventrydc.gov.uk,Daventry,http://www.daventrydc.gov.uk,-0.98937100000000,,2014-08-07,fhrs_5_en-GB,5,,FHRS,0
50794,Spratton Village Hall,School Road,Spratton,Northamptonshire,Hopscotch Pre-School,Hospitals/Childcare/Caring Premises,5,5,,715680,0,,52.32548000000000,PI/000050546,236,healthimprovement@daventrydc.gov.uk,Daventry,http://www.daventrydc.gov.uk,-0.94803500000000,NN6 8HY,2013-10-11,fhrs_5_en-GB,5,,FHRS,0
50795,Icm Gerson Ltd,Stephenson Close,Drayton Fields,Daventry,Host with the Toast,Mobile caterer,7846,10,,559548,5,,52.26875500000000,PI/000048540,236,healthimprovement@daventrydc.gov.uk,Daventry,http://www.daventrydc.gov.uk,-1.18155000000000,NN11 8RF,2015-01-20,fhrs_4_en-GB,4,,FHRS,5
50796,Ibis Hotel (Rugby East),Parklands,Dirft,Crick,Hotel Ibis,Hotel/bed & breakfast/guest house,7842,5,,162266,5,,52.35208000000000,PI/000002658,236,healthimprovement@daventrydc.gov.uk,Daventry,http://www.daventrydc.gov.uk,-1.15997100000000,NN6 7EX,2015-01-27,fhrs_5_en-GB,5,,FHRS,5
50797,Hothorpe,Marston Trussell,Northamptonshire,,Hothorpe Hall,Hotel/bed & breakfast/guest house,7842,5,,166888,5,,52.46138000488281,PI/000010396,236,healthimprovement@daventrydc.gov.uk,Daventry,http://www.daventrydc.gov.uk,-1.01065051555634,LE17 6QX,2013-10-14,fhrs_5_en-GB,5,,FHRS,5
50798,33 Main Road,Kilsby,Northamptonshire,,Hunt House,Hotel/bed & breakfast/guest house,7842,5,,166149,0,,52.33607100000000,PI/000009056,236,healthimprovement@daventrydc.gov.uk,Daventry,http://www.daventrydc.gov.uk,-1.18093900000000,CV23 8XR,2014-03-17,fhrs_5_en-GB,5,,FHRS,0
50799,The Firs,19 Smarts Estate,Kilsby,Northamptonshire,Iced Delights,Other catering premises,7841,5,,174062,0,,52.33615800000000,PI/000027919,236,healthimprovement@daventrydc.gov.uk,Daventry,http://www.daventrydc.gov.uk,-1.17657900000000,CV23 8XY,2011-09-22,fhrs_5_en-GB,5,,FHRS,5
50800,28 Station Road,Woodford Halse,Northamptonshire,,Indian Chef,Takeaway/sandwich shop,7844,5,,171341,5,,52.16927600000000,PI/000020144,236,healthimprovement@daventrydc.gov.uk,Daventry,http://www.daventrydc.gov.uk,-1.20953400000000,NN11 3RB,2013-08-29,fhrs_5_en-GB,5,,FHRS,5
50801,Phoenix Centre,Ashby Road,Ashby Fields,Daventry,Indigo Youth Cafe,Restaurant/Cafe/Canteen,1,10,,162535,5,,52.26305900000000,PI/000003075,236,healthimprovement@daventrydc.gov.uk,Daventry,http://www.daventrydc.gov.uk,-1.16413000000000,NN11 0QE,2014-11-25,fhrs_4_en-GB,4,,FHRS,0
50802,37 High Street,Town Centre,Daventry,Northamptonshire,It`s a Gift,Retailers - other,4613,5,,162990,0,,52.25797800000000,PI/000004036,236,healthimprovement@daventrydc.gov.uk,Daventry,http://www.daventrydc.gov.uk,-1.16142700000000,NN11 4BG,2013-07-05,fhrs_5_en-GB,5,,FHRS,0
50803,Mobile Diner,Eldon Way,Crick,Northamptonshire,J18 Street Food Ltd,Mobile caterer,7846,10,,733432,5,,52.35020600000000,PI/000049335,236,healthimprovement@daventrydc.gov.uk,Daventry,http://www.daventrydc.gov.uk,-1.15062500000000,NN6 7SL,2014-12-10,fhrs_4_en-GB,4,,FHRS,5
50804,46-47 Hood Road,Southbrook,Daventry,Northamptonshire,JAFFS GROCERY,Retailers - other,4613,5,,163090,0,,52.25761800000000,PI/000004180,236,healthimprovement@daventrydc.gov.uk,Daventry,http://www.daventrydc.gov.uk,-1.14754500000000,NN11 4JT,2014-03-07,fhrs_5_en-GB,5,,FHRS,0
50805,Oxendon House,33 Main Street,Great Oxendon,Northamptonshire,Jasmine Health Care,Hospitals/Childcare/Caring Premises,5,5,,165727,5,,52.44329500000000,PI/000008421,236,healthimprovement@daventrydc.gov.uk,Daventry,http://www.daventrydc.gov.uk,-0.92244200000000,LE16 8NE,2014-08-08,fhrs_5_en-GB,5,,FHRS,0
50806,Hemploe Home Farm,Hemploe Road,Welford,Northamptonshire,JJ's Kiddycare,School/college/university,7845,0,,171422,0,,52.40443200000000,PI/000020364,236,healthimprovement@daventrydc.gov.uk,Daventry,http://www.daventrydc.gov.uk,-1.08155600000000,NN6 6HF,2014-08-08,fhrs_5_en-GB,5,,FHRS,0
50807,60 London Road,Town Centre,Daventry,Northamptonshire,John's News and Booze,Retailers - other,4613,5,,163383,0,,52.25023000000000,PI/000004604,236,healthimprovement@daventrydc.gov.uk,Daventry,http://www.daventrydc.gov.uk,-1.15788200000000,NN11 4EA,2014-03-25,fhrs_5_en-GB,5,,FHRS,0
50808,14 Syers Green Close,Long Buckby,Northamptonshire,,Just Yummy (Cakes),Other catering premises,7841,5,,415283,5,,52.30374000000000,PI/000010093,236,healthimprovement@daventrydc.gov.uk,Daventry,http://www.daventrydc.gov.uk,-1.08858300000000,NN6 7QW,2012-06-21,fhrs_5_en-GB,5,,FHRS,5
50809,6 Hunters Way,Brixworth,Northamptonshire,,K F TROOP & SON,Retailers - other,4613,5,,161221,5,,52.32841700000000,PI/000001190,236,healthimprovement@daventrydc.gov.uk,Daventry,http://www.daventrydc.gov.uk,-0.90611500000000,NN6 9EL,2014-04-30,fhrs_5_en-GB,5,,FHRS,5
50810,2 Church Close,Clipston,Northamptonshire,,Kelmarsh Fields Farm Lamb,Retailers - other,4613,5,,171198,0,,52.42848800000000,PI/000019767,236,healthimprovement@daventrydc.gov.uk,Daventry,http://www.daventrydc.gov.uk,-0.95051300000000,LE16 9RN,2010-04-19,fhrs_5_en-GB,5,,FHRS,0
50811,Main Road,Kelmarsh,Northamptonshire,,Kelmarsh Hall,Restaurant/Cafe/Canteen,1,5,,166073,5,,52.40765800000000,PI/000008944,236,healthimprovement@daventrydc.gov.uk,Daventry,http://www.daventrydc.gov.uk,-0.91772500000000,NN6 9LY,2012-10-09,fhrs_5_en-GB,5,,FHRS,5
50812,Kelmarsh House Office And Gardens,Kelmarsh Hall,Main Road,Kelmarsh,Kelmarsh Hall Tea Room,Restaurant/Cafe/Canteen,1,5,,708956,5,,52.40765800000000,PI/000049716,236,healthimprovement@daventrydc.gov.uk,Daventry,http://www.daventrydc.gov.uk,-0.91772500000000,NN6 9LY,2014-06-06,fhrs_5_en-GB,5,,FHRS,5
50813,Brownlands Nursing Home,34 London Road,Town Centre,Daventry,KENTBRIM LIMITED,Hospitals/Childcare/Caring Premises,5,5,,173522,5,,52.25525100000000,PI/000026032,236,healthimprovement@daventrydc.gov.uk,Daventry,http://www.daventrydc.gov.uk,-1.16234300000000,NN11 4BZ,2014-10-21,fhrs_5_en-GB,5,,FHRS,5
50814,The Old Vicarage,Church Street,Naseby,Northamptonshire,Key Cooking,Restaurant/Cafe/Canteen,1,10,,586820,5,,52.39573400000000,PI/000011094,236,healthimprovement@daventrydc.gov.uk,Daventry,http://www.daventrydc.gov.uk,-0.99051500000000,NN6 6DA,2013-09-06,fhrs_4_en-GB,4,,FHRS,5
50815,Kilsby House Residential Home,Rugby Road,Kilsby,Northamptonshire,Kilsby House Residential Care Home,Hospitals/Childcare/Caring Premises,5,5,,209008,0,,52.33740800000000,PI/000043846,236,healthimprovement@daventrydc.gov.uk,Daventry,http://www.daventrydc.gov.uk,-1.17799400000000,CV23 8XX,2013-06-12,fhrs_5_en-GB,5,,FHRS,0
50816,11 Independent Street,Kilsby,Northamptonshire,,Kilsby Post Office & Stores,Retailers - other,4613,5,,166140,0,,52.33502400000000,PI/000009033,236,healthimprovement@daventrydc.gov.uk,Daventry,http://www.daventrydc.gov.uk,-1.17770000000000,CV23 8XL,2014-09-08,fhrs_5_en-GB,5,,FHRS,0
50817,Great Creaton Primary School,18 Welford Road,Creaton,Northamptonshire,Kingswood @ Great Creaton Primary,School/college/university,7845,5,,162173,0,,52.33942400000000,PI/000002502,236,healthimprovement@daventrydc.gov.uk,Daventry,http://www.daventrydc.gov.uk,-0.96530400000000,NN6 8NH,2013-07-02,fhrs_5_en-GB,5,,FHRS,0
50818,Flore Church Of England Primary School,The Avenue,Flore,Northamptonshire,Kingswood Catering,School/college/university,7845,5,,174390,5,,52.23495200000000,PI/000028963,236,healthimprovement@daventrydc.gov.uk,Daventry,http://www.daventrydc.gov.uk,-1.06209600000000,NN7 4LZ,2014-03-03,fhrs_5_en-GB,5,,FHRS,5
50819,Newnham Primary School,School Hill,Newnham,Northamptonshire,Kingswood Catering (Newnham School),School/college/university,7845,5,,167336,0,,52.31091308593750,PI/000011223,236,healthimprovement@daventrydc.gov.uk,Daventry,http://www.daventrydc.gov.uk,-0.83607500791550,NN11 3HG,2014-04-04,fhrs_5_en-GB,5,,FHRS,0
50820,Clipston Endowed Primary School,High Street,Clipston,Northamptonshire,Kingswood Catering @ Clipston Primar,School/college/university,7845,5,,162067,5,,52.42733500000000,PI/000002298,236,healthimprovement@daventrydc.gov.uk,Daventry,http://www.daventrydc.gov.uk,-0.95324600000000,LE16 9RU,2014-09-09,fhrs_5_en-GB,5,,FHRS,0
50821,Overstone Primary School,Sywell Road,Overstone,Northamptonshire,Kingswood Catering @ Overstone Prima,School/college/university,7845,0,,167521,0,,52.28938200000000,PI/000011602,236,healthimprovement@daventrydc.gov.uk,Daventry,http://www.daventrydc.gov.uk,-0.82136500000000,NN6 0AG,2011-07-15,fhrs_5_en-GB,5,,FHRS,0
50822,Brixworth Voluntary Controlled Primary School,Froxhill Crescent,Brixworth,Northamptonshire,Kingswood Education Catering Ltd,School/college/university,7845,10,,733445,15,,52.32561200000000,PI/000050617,236,healthimprovement@daventrydc.gov.uk,Daventry,http://www.daventrydc.gov.uk,-0.90904500000000,NN6 9BG,2015-01-15,fhrs_2_en-GB,2,,FHRS,15
50823,49 High Street,Yelvertoft,Northamptonshire,,Knightley Arms,Pub/bar/nightclub,7843,5,,169274,10,,52.37304500000000,PI/000014801,236,healthimprovement@daventrydc.gov.uk,Daventry,http://www.daventrydc.gov.uk,-1.12039800000000,NN6 6LF,2014-09-17,fhrs_4_en-GB,4,,FHRS,5
50824,1 Bridge Street,Weedon,Northamptonshire,,Knights Pharmacy,Retailers - other,4613,,,168248,,,52.22873100000000,PI/000012810,236,healthimprovement@daventrydc.gov.uk,Daventry,http://www.daventrydc.gov.uk,-1.07811300000000,NN7 4PN,2014-03-12,fhrs_exempt_en-GB,Exempt,,FHRS,
50825,48 Hood Road,Southbrook,Daventry,Northamptonshire,Koon Wah,Takeaway/sandwich shop,7844,5,,163092,5,,52.25761800000000,PI/000004181,236,healthimprovement@daventrydc.gov.uk,Daventry,http://www.daventrydc.gov.uk,-1.14754500000000,NN11 4JT,2013-12-13,fhrs_5_en-GB,5,,FHRS,5
50826,Briarwood,5 London Road,Town Centre,Daventry,Kulcha Club,Mobile caterer,7846,5,,733430,5,,52.25476100000000,PI/000025748,236,healthimprovement@daventrydc.gov.uk,Daventry,http://www.daventrydc.gov.uk,-1.16040300000000,NN11 4DA,2014-11-25,fhrs_5_en-GB,5,,FHRS,5
50827,10 Bowen Square,Town Centre,Daventry,Northamptonshire,Kuni Coffee Ltd,Restaurant/Cafe/Canteen,1,5,,626238,5,,52.25727800000000,PI/000049376,236,healthimprovement@daventrydc.gov.uk,Daventry,http://www.daventrydc.gov.uk,-1.16163100000000,NN11 4DR,2013-12-19,fhrs_5_en-GB,5,,FHRS,0
50828,80 High Street,Town Centre,Daventry,Northamptonshire,LA PATISSERIE,Restaurant/Cafe/Canteen,1,10,,163023,5,,52.25798800000000,PI/000004091,236,healthimprovement@daventrydc.gov.uk,Daventry,http://www.daventrydc.gov.uk,-1.16281900000000,NN11 4HU,2014-02-26,fhrs_4_en-GB,4,,FHRS,5
50829,13A High Street,Town Centre,Daventry,Northamptonshire,LADBROKES,Retailers - other,4613,5,,569426,0,,52.25797800000000,PI/000025971,236,healthimprovement@daventrydc.gov.uk,Daventry,http://www.daventrydc.gov.uk,-1.16142700000000,NN11 4BG,2013-07-05,fhrs_5_en-GB,5,,FHRS,0
50830,Lamport Hall,Lamport,Lamport,Northamptonshire,LAMPORT ENTERPRISES LTD,Restaurant/Cafe/Canteen,1,5,,401782,0,,52.36335600000000,PI/000009220,236,healthimprovement@daventrydc.gov.uk,Daventry,http://www.daventrydc.gov.uk,-0.88705600000000,NN6 9HD,2013-06-06,fhrs_5_en-GB,5,,FHRS,0
50831,Kingsthorpe Bowls Club,Central Avenue,Boughton,Northamptonshire,LEB Catering Ltd,Other catering premises,7841,0,,170927,5,,52.27595800000000,PI/000019035,236,healthimprovement@daventrydc.gov.uk,Daventry,http://www.daventrydc.gov.uk,-0.90624800000000,NN2 8DZ,2013-09-24,fhrs_5_en-GB,5,,FHRS,0
50832,11 Staveley Way,Brixworth Industrial Estate,Brixworth,Northamptonshire,LEE EXPRESS,Takeaway/sandwich shop,7844,5,,161650,5,,52.33501300000000,PI/000001706,236,healthimprovement@daventrydc.gov.uk,Daventry,http://www.daventrydc.gov.uk,-0.89903900000000,NN6 9EU,2013-10-09,fhrs_4_en-GB,4,,FHRS,10
50833,2 Church Street,Long Buckby,Northamptonshire,,Lee Garden Chinese Takeaway,Takeaway/sandwich shop,7844,5,,166368,5,,52.30382600000000,PI/000009427,236,healthimprovement@daventrydc.gov.uk,Daventry,http://www.daventrydc.gov.uk,-1.08113000000000,NN6 7QH,2014-02-19,fhrs_5_en-GB,5,,FHRS,0
50834,Unit 4,Abbey Retail Park,South Way,The Marches,Leisure Lakes Cycle Cafe,Restaurant/Cafe/Canteen,1,5,,700859,5,,52.25986600000000,PI/000042551,236,healthimprovement@daventrydc.gov.uk,Daventry,http://www.daventrydc.gov.uk,-1.15764100000000,NN11 4GL,2014-01-29,fhrs_5_en-GB,5,,FHRS,5
50835,42 Ashby Road,Welton,Northamptonshire,,Letty's Diner,Mobile caterer,7846,10,,168707,5,,52.29234200000000,PI/000013683,236,healthimprovement@daventrydc.gov.uk,Daventry,http://www.daventrydc.gov.uk,-1.15168800000000,NN11 2JS,2013-02-13,fhrs_4_en-GB,4,,FHRS,5
50836,Unit 7 The Barn,Heart Of The Shires Shopping Village,Watling Street,Norton,Lewington Fine Foods,Retailers - other,4613,5,,708952,5,,52.25950500000000,PI/000048842,236,healthimprovement@daventrydc.gov.uk,Daventry,http://www.daventrydc.gov.uk,-1.09315200000000,NN7 4LB,2014-04-28,fhrs_5_en-GB,5,,FHRS,5
50837,Brixworth Village Hall,Holcot Road,Brixworth,Northamptonshire,Little Acorns Pre- School,School/college/university,7845,5,,171630,0,,52.32955500000000,PI/000020889,236,healthimprovement@daventrydc.gov.uk,Daventry,http://www.daventrydc.gov.uk,-0.90089200000000,NN6 9BS,2012-10-26,fhrs_5_en-GB,5,,FHRS,0
50838,4 St Johns Square,Town Centre,Daventry,Northamptonshire,Little India,Takeaway/sandwich shop,7844,10,,164645,5,,52.25939400000000,PI/000006685,236,healthimprovement@daventrydc.gov.uk,Daventry,http://www.daventrydc.gov.uk,-1.16082900000000,NN11 4FG,2014-10-01,fhrs_3_en-GB,3,,FHRS,10
50839,2 Sheaf Street,Town Centre,Daventry,Northamptonshire,Littleun's Daycare,Hospitals/Childcare/Caring Premises,5,5,,636181,5,,,PI/000049375,236,healthimprovement@daventrydc.gov.uk,Daventry,http://www.daventrydc.gov.uk,,,2014-02-04,fhrs_4_en-GB,4,,FHRS,10
50840,Stone Gnome Farm,West Haddon Road,Guilsborough,Northamptonshire,Local and Lovely Food Trader,Mobile caterer,7846,10,,636179,5,,52.35681500000000,PI/000049284,236,healthimprovement@daventrydc.gov.uk,Daventry,http://www.daventrydc.gov.uk,-1.03150300000000,NN6 8QE,2013-07-09,fhrs_4_en-GB,4,,FHRS,5
50841,Whilton Chandlery,Whilton Locks,Whilton,Northamptonshire,Lockgate Cafe,Restaurant/Cafe/Canteen,1,10,,466356,0,,,PI/000047450,236,healthimprovement@daventrydc.gov.uk,Daventry,http://www.daventrydc.gov.uk,,NN11 5NH,2013-03-20,fhrs_4_en-GB,4,,FHRS,0
50842,5 Stanford Mews,South Street,Weedon,Northamptonshire,Lonetree Cakes,Other catering premises,7841,5,,499104,5,,52.22721900000000,PI/000043083,236,healthimprovement@daventrydc.gov.uk,Daventry,http://www.daventrydc.gov.uk,-1.07796900000000,NN7 4GE,2012-10-12,fhrs_5_en-GB,5,,FHRS,0
50843,41 Station Road,Long Buckby,Northamptonshire,,Long Buckby Community Centre,Other catering premises,7841,,,166593,,,52.30052000000000,PI/000009846,236,healthimprovement@daventrydc.gov.uk,Daventry,http://www.daventrydc.gov.uk,-1.08257700000000,NN6 7QB,2014-11-12,fhrs_exempt_en-GB,Exempt,,FHRS,
50844,Station Road,Long Buckby,Northamptonshire,,Long Buckby Rugby Football Club,Pub/bar/nightclub,7843,5,,166612,5,,52.29740700000000,PI/000009877,236,healthimprovement@daventrydc.gov.uk,Daventry,http://www.daventrydc.gov.uk,-1.08586800000000,NN6 7QA,2012-04-16,fhrs_5_en-GB,5,,FHRS,0
50845,Clot Hill Cottage,Welford Road,Naseby,Northamptonshire,Lulu's Pantry,Other catering premises,7841,5,,401792,0,,52.39814000000000,PI/000041914,236,healthimprovement@daventrydc.gov.uk,Daventry,http://www.daventrydc.gov.uk,-0.99019500000000,NN6 6DF,2012-05-10,fhrs_5_en-GB,5,,FHRS,0
50846,30 Station Road,Woodford Halse,Northamptonshire,,LYNN'S,Takeaway/sandwich shop,7844,10,,169135,10,,52.16927600000000,PI/000014503,236,healthimprovement@daventrydc.gov.uk,Daventry,http://www.daventrydc.gov.uk,-1.20953400000000,NN11 3RB,2013-08-02,fhrs_3_en-GB,3,,FHRS,10
50847,9 Banbury Lane,Byfield,Northamptonshire,,MAD HATTER'S PANTRY,Other catering premises,7841,5,,161848,0,,52.17466400000000,PI/000001945,236,healthimprovement@daventrydc.gov.uk,Daventry,http://www.daventrydc.gov.uk,-1.24700600000000,NN11 6UX,2013-10-02,fhrs_5_en-GB,5,,FHRS,0
50848,20 West Street,Weedon,Northamptonshire,,Maltsters Arms,Pub/bar/nightclub,7843,10,,168512,5,,52.22841800000000,PI/000013318,236,healthimprovement@daventrydc.gov.uk,Daventry,http://www.daventrydc.gov.uk,-1.08180900000000,NN7 4QU,2012-01-17,fhrs_4_en-GB,4,,FHRS,5
50849,1 Tamar Square,The Grange,Daventry,Northamptonshire,MANCAIN,Takeaway/sandwich shop,7844,10,,164070,5,,52.25403200000000,PI/000005808,236,healthimprovement@daventrydc.gov.uk,Daventry,http://www.daventrydc.gov.uk,-1.17940300000000,NN11 4RB,2013-06-07,fhrs_4_en-GB,4,,FHRS,5
50850,Guilsborough Road,West Haddon,Northamptonshire,,Manor Farm,Retailers - other,4613,5,,168789,0,,52.34892100000000,PI/000013855,236,healthimprovement@daventrydc.gov.uk,Daventry,http://www.daventrydc.gov.uk,-1.04920400000000,NN6 7AQ,2010-07-28,fhrs_5_en-GB,5,,FHRS,0
50851,Manor Farm,Northampton Road,Brixworth,Northamptonshire,Manor Farm Shop,Retailers - other,4613,5,,178165,0,,52.31587100000000,PI/000045610,236,healthimprovement@daventrydc.gov.uk,Daventry,http://www.daventrydc.gov.uk,-0.89602300000000,NN6 9DG,2014-09-08,fhrs_5_en-GB,5,,FHRS,0
50852,Manvell Farm,Kettering Road,Walgrave,Northamptonshire,Manvell Farm Shop and Tea Room,Restaurant/Cafe/Canteen,1,5,,674905,10,,52.34259300000000,PI/000020243,236,healthimprovement@daventrydc.gov.uk,Daventry,http://www.daventrydc.gov.uk,-0.81901100000000,NN6 9PH,2014-06-03,fhrs_4_en-GB,4,,FHRS,5
50853,Braunston Road,Town Centre,Daventry,Northamptonshire,Maple Leaf Garage,Retailers - other,4613,5,,162646,0,,52.26249000000000,PI/000003309,236,healthimprovement@daventrydc.gov.uk,Daventry,http://www.daventrydc.gov.uk,-1.17265400000000,NN11 9DY,2014-03-24,fhrs_5_en-GB,5,,FHRS,0
50854,33 Wordsworth Road,Headlands,Daventry,Northamptonshire,Marias Kitchen,Mobile caterer,7846,5,,536505,5,,52.26496000000000,PI/000047921,236,healthimprovement@daventrydc.gov.uk,Daventry,http://www.daventrydc.gov.uk,-1.17364800000000,NN11 9BE,2013-07-25,fhrs_5_en-GB,5,,FHRS,5
50855,Harborough Road,Great Oxendon,Northamptonshire,,Market Harborough Golf Club,Pub/bar/nightclub,7843,5,,175857,5,,52.45161400000000,PI/000034285,236,healthimprovement@daventrydc.gov.uk,Daventry,http://www.daventrydc.gov.uk,-0.91005500000000,LE16 8NB,2013-09-02,fhrs_5_en-GB,5,,FHRS,0
50856,Banbury Road,Byfield,Northamptonshire,,Marley Farm,Retailers - other,4613,10,,161872,0,,52.16467100000000,PI/000001959,236,healthimprovement@daventrydc.gov.uk,Daventry,http://www.daventrydc.gov.uk,-1.25485000000000,NN11 6UA,2010-07-30,fhrs_4_en-GB,4,,FHRS,0
50857,32 Station Road,Woodford Halse,Northamptonshire,,MARRIOTT'S BUTCHERS,Retailers - other,4613,5,,169136,5,,52.16927600000000,PI/000014504,236,healthimprovement@daventrydc.gov.uk,Daventry,http://www.daventrydc.gov.uk,-1.20953400000000,NN11 3RB,2014-05-23,fhrs_5_en-GB,5,,FHRS,5
50858,Royal Star Drive,Timken,Daventry,Northamptonshire,Mayfield Park Sports Club,Other catering premises,7841,,,163850,,,52.26883100000000,PI/000005433,236,healthimprovement@daventrydc.gov.uk,Daventry,http://www.daventrydc.gov.uk,-1.17441200000000,NN11 9FZ,2014-11-12,fhrs_exempt_en-GB,Exempt,,FHRS,
50859,M1 Service Area Watford Gap Southbound,Station Road,Watford,Northamptonshire,McDonalds,Restaurant/Cafe/Canteen,1,5,,682539,5,,,PI/000049694,236,healthimprovement@daventrydc.gov.uk,Daventry,http://www.daventrydc.gov.uk,,,2014-07-02,fhrs_5_en-GB,5,,FHRS,5
50860,Vicar Lane,Town Centre,Daventry,Northamptonshire,Mcdonalds Restaurants Ltd,Restaurant/Cafe/Canteen,1,5,,164180,0,,52.25799900000000,PI/000005915,236,healthimprovement@daventrydc.gov.uk,Daventry,http://www.daventrydc.gov.uk,-1.15679700000000,NN11 4GD,2011-12-20,fhrs_5_en-GB,5,,FHRS,0
50861,Matts Lodge Farm,Grooms Lane,Creaton,Northamptonshire,Meat n Greet,Mobile caterer,7846,5,,162149,5,,52.33759600000000,PI/000002466,236,healthimprovement@daventrydc.gov.uk,Daventry,http://www.daventrydc.gov.uk,-0.95784600000000,NN6 8NN,2014-10-28,fhrs_5_en-GB,5,,FHRS,5
50862,90 Hemans Road,Headlands,Daventry,Northamptonshire,Michael's Golden Chippie,Takeaway/sandwich shop,7844,5,,164580,5,,52.26734100000000,PI/000006567,236,healthimprovement@daventrydc.gov.uk,Daventry,http://www.daventrydc.gov.uk,-1.16831400000000,NN11 9BB,2014-10-16,fhrs_5_en-GB,5,,FHRS,5
50863,Hidcote Way,Middlemore,Daventry,Northamptonshire,Middlemore Farm Pub & Restaurant,Pub/bar/nightclub,7843,5,,162518,5,,52.21795000000000,PI/000003057,236,healthimprovement@daventrydc.gov.uk,Daventry,http://www.daventrydc.gov.uk,-1.18629400000000,NN11 5JZ,2013-01-24,fhrs_5_en-GB,5,,FHRS,0
50864,10 High Street,Town Centre,Daventry,Northamptonshire,MILK BAR,Restaurant/Cafe/Canteen,1,5,,162962,5,,52.25847900000000,PI/000004004,236,healthimprovement@daventrydc.gov.uk,Daventry,http://www.daventrydc.gov.uk,-1.16105200000000,NN11 4HT,2013-09-03,fhrs_5_en-GB,5,,FHRS,0
50865,The Volvo Dealer Training Centre,Prospect Way,Royal Oak,Daventry,Mitie,Restaurant/Cafe/Canteen,1,0,,163692,5,,52.26591200000000,PI/000005137,236,healthimprovement@daventrydc.gov.uk,Daventry,http://www.daventrydc.gov.uk,-1.18122100000000,NN11 8QN,2013-06-14,fhrs_5_en-GB,5,,FHRS,0
50866,Fernlea,24 Staverton Road,The Grange,Daventry,MJP Chefs,Other catering premises,7841,5,,163876,0,,52.25459900000000,PI/000005487,236,healthimprovement@daventrydc.gov.uk,Daventry,http://www.daventrydc.gov.uk,-1.17438300000000,NN11 4HL,2012-11-20,fhrs_5_en-GB,5,,FHRS,0
50867,Long Buckby And Brington Baptist Church,Market Place,Long Buckby,Northamptonshire,MONDAY CLUB,Other catering premises,7841,5,,166528,0,,,PI/000009720,236,healthimprovement@daventrydc.gov.uk,Daventry,http://www.daventrydc.gov.uk,,,2014-11-19,fhrs_5_en-GB,5,,FHRS,5
50868,19 Market Place,Long Buckby,Northamptonshire,,"Moore & Son, Costcutter",Retailers - other,4613,0,,166518,0,,52.30266300000000,PI/000009710,236,healthimprovement@daventrydc.gov.uk,Daventry,http://www.daventrydc.gov.uk,-1.08070000000000,NN6 7RR,2012-01-03,fhrs_5_en-GB,5,,FHRS,0
50869,West Haddon Road,Crick,Northamptonshire,,Moorings Bar & Restaurant,Restaurant/Cafe/Canteen,1,5,,162333,5,,,PI/000002754,236,healthimprovement@daventrydc.gov.uk,Daventry,http://www.daventrydc.gov.uk,,,2013-05-16,fhrs_5_en-GB,5,,FHRS,5
50870,West Street,Moulton,Northamptonshire,,Moulton College Of Agriculture,School/college/university,7845,10,,166890,5,,52.28996500000000,PI/000010399,236,healthimprovement@daventrydc.gov.uk,Daventry,http://www.daventrydc.gov.uk,-0.85776900000000,NN3 7RR,2014-08-12,fhrs_4_en-GB,4,,FHRS,5
50871,Moulton College,West Street,Moulton,Northamptonshire,Moulton College Social Centre,School/college/university,7845,5,,415287,0,,52.28996500000000,PI/000047429,236,healthimprovement@daventrydc.gov.uk,Daventry,http://www.daventrydc.gov.uk,-0.85776900000000,NN3 7RR,2014-08-12,fhrs_5_en-GB,5,,FHRS,5
50872,Brunting Road,Moulton,Northamptonshire,,Moulton football club,Other catering premises,7841,5,,167249,0,,52.28517600000000,PI/000011028,236,healthimprovement@daventrydc.gov.uk,Daventry,http://www.daventrydc.gov.uk,-0.85713000000000,NN3 7QF,2012-03-12,fhrs_5_en-GB,5,,FHRS,0
50873,"Unit 1, Grove Farm",15 Grove Farm Lane,Moulton,Northamptonshire,Moulton Fruit and Veg,Retailers - other,4613,0,,708957,0,,52.29238700000000,PI/000050391,236,healthimprovement@daventrydc.gov.uk,Daventry,http://www.daventrydc.gov.uk,-0.84890900000000,NN3 7TG,2014-10-07,fhrs_5_en-GB,5,,FHRS,0
50874,Church Hill,Moulton,Northamptonshire,,Moulton Primary School,School/college/university,7845,0,,626233,5,,52.29011500000000,PI/000049274,236,healthimprovement@daventrydc.gov.uk,Daventry,http://www.daventrydc.gov.uk,-0.85380700000000,NN3 7SW,2013-11-22,fhrs_5_en-GB,5,,FHRS,5
50875,Pound Lane,Moulton,Northamptonshire,,Moulton Sports Complex,Pub/bar/nightclub,7843,5,,167117,10,,52.28879700000000,PI/000010788,236,healthimprovement@daventrydc.gov.uk,Daventry,http://www.daventrydc.gov.uk,-0.85602500000000,NN3 7SD,2013-11-15,fhrs_3_en-GB,3,,FHRS,10
50876,10 Cross Street,Moulton,Northamptonshire,,Moulton Theatre,Other catering premises,7841,5,,610022,0,,52.28855700000000,PI/000043716,236,healthimprovement@daventrydc.gov.uk,Daventry,http://www.daventrydc.gov.uk,-0.85443300000000,NN3 7RZ,2012-03-12,fhrs_5_en-GB,5,,FHRS,0
50877,2 Fuller Road,Moulton,Northamptonshire,,MOULTON VILLAGE STORES,Retailers - other,4613,10,,166965,5,,52.28473700000000,PI/000010544,236,healthimprovement@daventrydc.gov.uk,Daventry,http://www.daventrydc.gov.uk,-0.85642200000000,NN3 7QZ,2013-07-29,fhrs_4_en-GB,4,,FHRS,0
50878,15 High Street,Moulton,Northamptonshire,,Moulton Working Mens Club,Pub/bar/nightclub,7843,5,,175477,5,,52.28871000000000,PI/000032544,236,healthimprovement@daventrydc.gov.uk,Daventry,http://www.daventrydc.gov.uk,-0.85077900000000,NN3 7SR,2014-04-03,fhrs_5_en-GB,5,,FHRS,5
50879,55 Daventry Road,Norton,Northamptonshire,,Mrs J R Luck (Eggs),Retailers - other,4613,5,,466340,5,,52.26799500000000,PI/000029019,236,healthimprovement@daventrydc.gov.uk,Daventry,http://www.daventrydc.gov.uk,-1.12079300000000,NN11 2ND,2012-06-26,fhrs_5_en-GB,5,,FHRS,5
50880,Nagarjuna Buddhist Centre The Old Rectory,Haselbech Road,Kelmarsh,Northamptonshire,Nagarjuna Buddhist Centre,Restaurant/Cafe/Canteen,1,5,,166065,0,,52.40272200000000,PI/000008936,236,healthimprovement@daventrydc.gov.uk,Daventry,http://www.daventrydc.gov.uk,-0.92257800000000,NN6 9LZ,2013-05-13,fhrs_5_en-GB,5,,FHRS,0
50881,Haselbech Road,Naseby,Northamptonshire,,Naseby Village Hall,Other catering premises,7841,10,,167292,5,,52.39265600000000,PI/000011123,236,healthimprovement@daventrydc.gov.uk,Daventry,http://www.daventrydc.gov.uk,-0.98284000000000,NN6 6BT,2014-04-28,fhrs_4_en-GB,4,,FHRS,0
50882,Tamar Square,The Grange,Daventry,Northamptonshire,Nene Hall,Other catering premises,7841,5,,164077,5,,52.25403200000000,PI/000005812,236,healthimprovement@daventrydc.gov.uk,Daventry,http://www.daventrydc.gov.uk,-1.17940300000000,NN11 4RB,2013-02-27,fhrs_5_en-GB,5,,FHRS,0
50883,27 Bowen Square,Town Centre,Daventry,Northamptonshire,New Look,Retailers - other,4613,,,466313,,,52.25727800000000,PI/000003252,236,healthimprovement@daventrydc.gov.uk,Daventry,http://www.daventrydc.gov.uk,-1.16163100000000,NN11 4DR,2011-01-20,fhrs_exempt_en-GB,Exempt,,FHRS,
50884,74 High Street,Town Centre,Daventry,Northamptonshire,New Shahi Lounge,Restaurant/Cafe/Canteen,1,20,,163021,10,,52.25798800000000,PI/000004087,236,healthimprovement@daventrydc.gov.uk,Daventry,http://www.daventrydc.gov.uk,-1.16281900000000,NN11 4HU,2015-01-09,fhrs_1_en-GB,1,,FHRS,15
50885,The Green,Newnham,Northamptonshire,,Newnham Stores,Retailers - other,4613,5,,578106,0,,52.23123400000000,PI/000011232,236,healthimprovement@daventrydc.gov.uk,Daventry,http://www.daventrydc.gov.uk,-1.15550300000000,NN11 3HB,2013-08-08,fhrs_5_en-GB,5,,FHRS,0
50886,Pitsford And Brampton Station,Pitsford Road,Chapel Brampton,Northamptonshire,NORTHAMPTON & LAMPORT RAILWAY,Restaurant/Cafe/Canteen,1,5,,161951,5,,52.28989000000000,PI/000002074,236,healthimprovement@daventrydc.gov.uk,Daventry,http://www.daventrydc.gov.uk,-0.92940800000000,NN6 8BA,2014-10-13,fhrs_4_en-GB,4,,FHRS,10
50887,Badby Road West,Stefen Hill,Daventry,Northamptonshire,Northampton College,School/college/university,7845,5,,162599,0,,52.25112300000000,PI/000003216,236,healthimprovement@daventrydc.gov.uk,Daventry,http://www.daventrydc.gov.uk,-1.17104900000000,NN11 4HJ,2012-09-24,fhrs_5_en-GB,5,,FHRS,0
50888,Rugby Road,Lower Harlestone,Northamptonshire,,Northampton Golf Club,Pub/bar/nightclub,7843,5,,166824,10,,52.27361700000000,PI/000010275,236,healthimprovement@daventrydc.gov.uk,Daventry,http://www.daventrydc.gov.uk,-0.97504400000000,NN7 4EF,2014-05-01,fhrs_3_en-GB,3,,FHRS,10
50889,Northampton Road,Brixworth,Northamptonshire,,Northampton Sailing Club,Restaurant/Cafe/Canteen,1,10,,536469,5,,52.31396800000000,PI/000001347,236,healthimprovement@daventrydc.gov.uk,Daventry,http://www.daventrydc.gov.uk,-0.90603100000000,NN6 9DQ,2013-10-10,fhrs_4_en-GB,4,,FHRS,0
50890,Golf Lane,Church Brampton,Northamptonshire,,Northamptonshire County Golf Club,Pub/bar/nightclub,7843,0,,162000,0,,52.28195200000000,PI/000002181,236,healthimprovement@daventrydc.gov.uk,Daventry,http://www.daventrydc.gov.uk,-0.94254300000000,NN6 8AZ,2013-03-06,fhrs_5_en-GB,5,,FHRS,5
50891,Pitsford Hall,Moulton Road,Pitsford,Northamptonshire,Northamptonshire Grammar School,School/college/university,7845,5,,167612,5,,52.30419000000000,PI/000011789,236,healthimprovement@daventrydc.gov.uk,Daventry,http://www.daventrydc.gov.uk,-0.89005100000000,NN6 9AU,2013-12-09,fhrs_5_en-GB,5,,FHRS,5
50892,Barby C Of E Primary School,Daventry Road,Barby,Northamptonshire,Northants Kids Club,School/college/university,7845,5,,708958,5,,52.32525600000000,PI/000050401,236,healthimprovement@daventrydc.gov.uk,Daventry,http://www.daventrydc.gov.uk,-1.20606800000000,CV23 8TR,2014-10-06,fhrs_5_en-GB,5,,FHRS,0
50893,Staverton Church Of England Primary School,Glebe Lane,Staverton,Northamptonshire,Northants Kids Club,School/college/university,7845,5,,695908,0,,52.24789000000000,PI/000050167,236,healthimprovement@daventrydc.gov.uk,Daventry,http://www.daventrydc.gov.uk,-1.20961700000000,NN11 6JF,2014-07-14,fhrs_5_en-GB,5,,FHRS,5
50894,Southbrook infants school,Danetre and southbrook learning village,Hawke Road,Southbrook,NouDaventry Schools Learning Village,School/college/university,7845,5,,164541,0,,52.25702700000000,PI/000006501,236,healthimprovement@daventrydc.gov.uk,Daventry,http://www.daventrydc.gov.uk,-1.15038400000000,NN11 4LJ,2014-01-15,fhrs_5_en-GB,5,,FHRS,0
50895,Kilsby C Of E Junior School,Manor Road,Kilsby,Northamptonshire,Nourish,School/college/university,7845,5,,466317,5,,52.33481800000000,PI/000009064,236,healthimprovement@daventrydc.gov.uk,Daventry,http://www.daventrydc.gov.uk,-1.17657400000000,CV23 8XS,2012-11-09,fhrs_5_en-GB,5,,FHRS,0
50896,Badby Primary School,School Lane,Badby,Northamptonshire,Nourish @ Badby Primary School,School/college/university,7845,5,,160486,0,,52.22671000000000,PI/000000172,236,healthimprovement@daventrydc.gov.uk,Daventry,http://www.daventrydc.gov.uk,-1.18337700000000,NN11 3AJ,2014-05-06,fhrs_5_en-GB,5,,FHRS,0
50897,Barby C Of E Primary School,Daventry Road,Barby,Northamptonshire,Nourish @ Barby CoE Primary,School/college/university,7845,5,,160586,0,,52.32525600000000,PI/000000294,236,healthimprovement@daventrydc.gov.uk,Daventry,http://www.daventrydc.gov.uk,-1.20606800000000,CV23 8TR,2014-07-09,fhrs_5_en-GB,5,,FHRS,0
50898,Braunston C Of E Primary School,Barby Road,Braunston,Northamptonshire,Nourish @ Braunston CoE Primary Scho,School/college/university,7845,5,,466307,5,,52.29307500000000,PI/000000632,236,healthimprovement@daventrydc.gov.uk,Daventry,http://www.daventrydc.gov.uk,-1.20532400000000,NN11 7HF,2012-11-09,fhrs_5_en-GB,5,,FHRS,0
50899,Brington Primary School,Hall Lane,Little Brington,Northamptonshire,Nourish @ Brington Primary School,School/college/university,7845,0,,401783,5,,52.26996200000000,PI/000009340,236,healthimprovement@daventrydc.gov.uk,Daventry,http://www.daventrydc.gov.uk,-1.03090500000000,NN7 4HX,2015-01-20,fhrs_5_en-GB,5,,FHRS,0
50900,Byfield County Primary School,Bell Lane,Byfield,Northamptonshire,Nourish @ Byfield Primary School,School/college/university,7845,5,,466308,5,,52.17364700000000,PI/000001787,236,healthimprovement@daventrydc.gov.uk,Daventry,http://www.daventrydc.gov.uk,-1.24969900000000,NN11 6US,2013-10-23,fhrs_5_en-GB,5,,FHRS,5
50901,Crick Primary School,Main Road,Crick,Northamptonshire,Nourish @ CRICK PRIMARY SCHOOL,School/college/university,7845,5,,466310,0,,52.34725600000000,PI/000002722,236,healthimprovement@daventrydc.gov.uk,Daventry,http://www.daventrydc.gov.uk,-1.13560500000000,NN6 7TU,2013-06-28,fhrs_5_en-GB,5,,FHRS,0
50902,Falconers Hill Infants School,Ashby Road,Ashby Fields,Daventry,Nourish @ Falconers Hill School,School/college/university,7845,0,,162507,0,,52.26456100000000,PI/000003031,236,healthimprovement@daventrydc.gov.uk,Daventry,http://www.daventrydc.gov.uk,-1.16421900000000,NN11 0QF,2013-11-07,fhrs_5_en-GB,5,,FHRS,0
50903,Guilsborough C Of E Primary School,High Street,Guilsborough,Northamptonshire,Nourish @ Guilsborough CofE Primary,School/college/university,7845,0,,536497,0,,52.35183200000000,PI/000038434,236,healthimprovement@daventrydc.gov.uk,Daventry,http://www.daventrydc.gov.uk,-1.01277500000000,NN6 8PT,2013-02-19,fhrs_5_en-GB,5,,FHRS,0
50904,Long Buckby Infants School,High Street,Long Buckby,Northamptonshire,Nourish @ Long Buckby Infants School,School/college/university,7845,0,,466319,0,,52.30306300000000,PI/000009603,236,healthimprovement@daventrydc.gov.uk,Daventry,http://www.daventrydc.gov.uk,-1.07786100000000,NN6 7RE,2012-01-17,fhrs_5_en-GB,5,,FHRS,0
50905,Maidwell Primary School,Draughton Road,Maidwell,Northamptonshire,Nourish @ Maidwell Primary School,School/college/university,7845,5,,166863,0,,52.38616600000000,PI/000010339,236,healthimprovement@daventrydc.gov.uk,Daventry,http://www.daventrydc.gov.uk,-0.90060300000000,NN6 9JF,2013-10-24,fhrs_5_en-GB,5,,FHRS,0
50906,Naseby Church Of England Primary School,School Lane,Naseby,Northamptonshire,Nourish @ Naseby CoE Primary School,School/college/university,7845,0,,401785,0,,52.39551800000000,PI/000011158,236,healthimprovement@daventrydc.gov.uk,Daventry,http://www.daventrydc.gov.uk,-0.98950600000000,NN6 6BZ,2012-05-10,fhrs_5_en-GB,5,,FHRS,0
50907,Pitsford Primary School,Moulton Road,Pitsford,Northamptonshire,Nourish @ Pitsford Primary School,School/college/university,7845,0,,536478,5,,52.30419000000000,PI/000011752,236,healthimprovement@daventrydc.gov.uk,Daventry,http://www.daventrydc.gov.uk,-0.89005100000000,NN6 9AU,2013-02-25,fhrs_5_en-GB,5,,FHRS,5
50908,Spratton Church Of England Primary School,School Road,Spratton,Northamptonshire,Nourish @ SPRATTON C.E.,School/college/university,7845,0,,536492,0,,52.32537200000000,PI/000032834,236,healthimprovement@daventrydc.gov.uk,Daventry,http://www.daventrydc.gov.uk,-0.94806700000000,NN6 8HY,2012-11-20,fhrs_5_en-GB,5,,FHRS,5
50909,61 St James Street,Town Centre,Daventry,Northamptonshire,Nourish @ St James Infants School,School/college/university,7845,5,,164632,0,,52.25640200000000,PI/000006670,236,healthimprovement@daventrydc.gov.uk,Daventry,http://www.daventrydc.gov.uk,-1.16485600000000,NN11 4AG,2010-09-23,fhrs_5_en-GB,5,,FHRS,0
50910,The Abbey Junior School,Vicar Lane,Town Centre,Daventry,Nourish @ The Abbey Junior School,School/college/university,7845,0,,164174,0,,52.25799900000000,PI/000005912,236,healthimprovement@daventrydc.gov.uk,Daventry,http://www.daventrydc.gov.uk,-1.15679700000000,NN11 4GD,2013-05-08,fhrs_5_en-GB,5,,FHRS,0
50911,Weedon Bec Primary School,West Street,Weedon,Northamptonshire,Nourish @ Weedon Bec Primary School,School/college/university,7845,5,,466327,5,,52.22841800000000,PI/000013349,236,healthimprovement@daventrydc.gov.uk,Daventry,http://www.daventrydc.gov.uk,-1.08180900000000,NN7 4QU,2013-10-25,fhrs_5_en-GB,5,,FHRS,0
50912,Welford Sibbertoft And Sulby Endowed School,West Street,Welford,Northamptonshire,Nourish @ Welford&Sulby Endowed Scho,School/college/university,7845,5,,168662,0,,52.41968700000000,PI/000013599,236,healthimprovement@daventrydc.gov.uk,Daventry,http://www.daventrydc.gov.uk,-1.05735900000000,NN6 6HU,2012-03-21,fhrs_5_en-GB,5,,FHRS,0
50913,Welton Church Of England Primary School,Well Lane,Welton,Northamptonshire,NOURISH @ Welton CofE Primary Sch,School/college/university,7845,5,,401787,0,,52.29036600000000,PI/000013763,236,healthimprovement@daventrydc.gov.uk,Daventry,http://www.daventrydc.gov.uk,-1.14948300000000,NN11 2JZ,2014-03-14,fhrs_5_en-GB,5,,FHRS,0
50914,West Haddon Endowed Primary School,The Green,West Haddon,Northamptonshire,Nourish @ West Haddon Primary School,School/college/university,7845,0,,168828,0,,52.34162000000000,PI/000013929,236,healthimprovement@daventrydc.gov.uk,Daventry,http://www.daventrydc.gov.uk,-1.07857100000000,NN6 7AN,2012-02-01,fhrs_5_en-GB,5,,FHRS,0
50915,Yelvertoft County Primary School,School Lane,Yelvertoft,Northamptonshire,Nourish @ Yelvertoft County Primary,School/college/university,7845,5,,401789,0,,52.37587300000000,PI/000028468,236,healthimprovement@daventrydc.gov.uk,Daventry,http://www.daventrydc.gov.uk,-1.12583600000000,NN6 6LH,2012-05-21,fhrs_5_en-GB,5,,FHRS,0
50916,Ashby Fields Primary School,Wimborne Place,Ashby Fields,Daventry,Nourish@Ashby Fields Primary School,School/college/university,7845,0,,165155,0,,52.27407500000000,PI/000007562,236,healthimprovement@daventrydc.gov.uk,Daventry,http://www.daventrydc.gov.uk,-1.16069900000000,NN11 0YP,2013-11-28,fhrs_5_en-GB,5,,FHRS,0
50917,Boughton Primary School,Moulton Lane,Boughton,Northamptonshire,Nourish@Boughton Primary School,School/college/university,7845,0,,466306,0,,52.28513600000000,PI/000000525,236,healthimprovement@daventrydc.gov.uk,Daventry,http://www.daventrydc.gov.uk,-0.89354700000000,NN2 8RG,2013-12-17,fhrs_5_en-GB,5,,FHRS,0
50918,East Haddon C Of E Primary School,Church Lane,East Haddon,Northamptonshire,Nourish@East Haddon Primary School,School/college/university,7845,5,,466316,0,,52.30569000000000,PI/000007723,236,healthimprovement@daventrydc.gov.uk,Daventry,http://www.daventrydc.gov.uk,-1.02211700000000,NN6 8DB,2012-05-21,fhrs_5_en-GB,5,,FHRS,0
50919,Walgrave County Primary School,Kettering Road,Walgrave,Northamptonshire,Nourish@Walgrave Primary School,School/college/university,7845,5,,221739,0,,52.34259300000000,PI/000012645,236,healthimprovement@daventrydc.gov.uk,Daventry,http://www.daventrydc.gov.uk,-0.81901100000000,NN6 9PH,2013-10-11,fhrs_5_en-GB,5,,FHRS,0
50920,15 Bowen Square,Town Centre,Daventry,Northamptonshire,OLIVER ADAMS LTD,Retailers - other,4613,0,,162609,5,,52.25727800000000,PI/000003239,236,healthimprovement@daventrydc.gov.uk,Daventry,http://www.daventrydc.gov.uk,-1.16163100000000,NN11 4DR,2013-11-28,fhrs_5_en-GB,5,,FHRS,5
50921,32 Badby Road,Town Centre,Daventry,Northamptonshire,Olympus Care @ Evelyn Wright E.P.H,Hospitals/Childcare/Caring Premises,5,5,,162587,0,,52.25380700000000,PI/000003192,236,healthimprovement@daventrydc.gov.uk,Daventry,http://www.daventrydc.gov.uk,-1.16657500000000,NN11 4AP,2014-02-27,fhrs_5_en-GB,5,,FHRS,5
50922,Boniface House,Spratton Road,Brixworth,Northamptonshire,Olympus Care Services,Hospitals/Childcare/Caring Premises,5,5,,161419,5,,52.32774100000000,PI/000001418,236,healthimprovement@daventrydc.gov.uk,Daventry,http://www.daventrydc.gov.uk,-0.90886100000000,NN6 9DS,2014-06-05,fhrs_5_en-GB,5,,FHRS,5
50923,105B Northampton Road,Brixworth,Northamptonshire,,On The Bread Line,Takeaway/sandwich shop,7844,0,,161276,5,,52.31396800000000,PI/000001269,236,healthimprovement@daventrydc.gov.uk,Daventry,http://www.daventrydc.gov.uk,-0.90603100000000,NN6 9DQ,2013-02-26,fhrs_5_en-GB,5,,FHRS,5
50924,14-16 Church Street,Weedon,Northamptonshire,,ONE STOP COMMUNITY STORES,Retailers - other,4613,5,,168273,0,,52.22778400000000,PI/000012871,236,healthimprovement@daventrydc.gov.uk,Daventry,http://www.daventrydc.gov.uk,-1.07655100000000,NN7 4PL,2014-09-05,fhrs_5_en-GB,5,,FHRS,0
50925,Onley Grounds Equestrian Complex,Onley Grounds Farm,Barby,Northamptonshire,Onley Grounds Farm Shop & Butchery,Retailers - other,4613,5,,708960,5,,52.33102800000000,PI/000050467,236,healthimprovement@daventrydc.gov.uk,Daventry,http://www.daventrydc.gov.uk,-1.25863300000000,CV23 8AJ,2014-09-17,fhrs_5_en-GB,5,,FHRS,0
50926,11 Bell Lane,Byfield,Northamptonshire,,Orchard House B&B,Hotel/bed & breakfast/guest house,7842,5,,536484,0,,52.17364700000000,PI/000020047,236,healthimprovement@daventrydc.gov.uk,Daventry,http://www.daventrydc.gov.uk,-1.24969900000000,NN11 6US,2013-01-30,fhrs_5_en-GB,5,,FHRS,0
50927,Overstone Park,Overstone,Northamptonshire,,Overstone Park High School,School/college/university,7845,0,,167459,0,,52.28219900000000,PI/000011487,236,healthimprovement@daventrydc.gov.uk,Daventry,http://www.daventrydc.gov.uk,-0.81506100000000,NN6 0DT,2013-09-24,fhrs_5_en-GB,5,,FHRS,5
50928,Overstone Park,Overstone Park,Overstone,Northamptonshire,Overstone Park Hotel Golf & Leisure,Hotel/bed & breakfast/guest house,7842,5,,167547,5,,52.28146300000000,PI/000011662,236,healthimprovement@daventrydc.gov.uk,Daventry,http://www.daventrydc.gov.uk,-0.81519800000000,NN6 0AS,2013-04-30,fhrs_5_en-GB,5,,FHRS,5
50929,Billing Gate,Billing Lane,Overstone,Northamptonshire,Overstone Scout Activity Centre,Retailers - other,4613,,,177982,,,52.27506900000000,PI/000044667,236,healthimprovement@daventrydc.gov.uk,Daventry,http://www.daventrydc.gov.uk,-0.81506100000000,NN6 0AF,2013-09-10,fhrs_exempt_en-GB,Exempt,,FHRS,
50930,Overstone Post Office,66 Sywell Road,Overstone,Northamptonshire,Overstone Stores,Retailers - other,4613,5,,167509,0,,52.29297900000000,PI/000011582,236,healthimprovement@daventrydc.gov.uk,Daventry,http://www.daventrydc.gov.uk,-0.81153300000000,NN6 0AN,2014-03-26,fhrs_5_en-GB,5,,FHRS,0
50931,Sywell Road,Overstone,Northamptonshire,,Overstone Village Hall,Other catering premises,7841,,,167522,,,52.28938200000000,PI/000011603,236,healthimprovement@daventrydc.gov.uk,Daventry,http://www.daventrydc.gov.uk,-0.82136500000000,NN6 0AG,2013-08-06,fhrs_exempt_en-GB,Exempt,,FHRS,
50932,54 Daventry Road,Norton,Northamptonshire,,P A Cook,Mobile caterer,7846,5,,167384,0,,52.26794300000000,PI/000011321,236,healthimprovement@daventrydc.gov.uk,Daventry,http://www.daventrydc.gov.uk,-1.12104300000000,NN11 2ND,2014-05-07,fhrs_5_en-GB,5,,FHRS,0
50933,Garage,81 High Street,Flore,Northamptonshire,P J Green,Retailers - other,4613,5,,165518,0,,52.23715500000000,PI/000008133,236,healthimprovement@daventrydc.gov.uk,Daventry,http://www.daventrydc.gov.uk,-1.05302900000000,NN7 4LW,2014-03-19,fhrs_5_en-GB,5,,FHRS,0
50934,Moulton Village Hall,Church Hill,Moulton,Northamptonshire,Parish Church,Other catering premises,7841,,,176869,,,52.29011500000000,PI/000039434,236,healthimprovement@daventrydc.gov.uk,Daventry,http://www.daventrydc.gov.uk,-0.85380700000000,NN3 7SW,2013-09-02,fhrs_exempt_en-GB,Exempt,,FHRS,
50935,1 Westerburg Square,Stefen Hill,Daventry,Northamptonshire,Pep's Plaice,Takeaway/sandwich shop,7844,5,,178149,5,,52.25001400000000,PI/000045518,236,healthimprovement@daventrydc.gov.uk,Daventry,http://www.daventrydc.gov.uk,-1.16415500000000,NN11 4TQ,2013-04-04,fhrs_5_en-GB,5,,FHRS,0
50936,Bridge Street,Weedon,Northamptonshire,,Piglets of Weedon,School/college/university,7845,5,,169917,5,,52.22954600000000,PI/000016158,236,healthimprovement@daventrydc.gov.uk,Daventry,http://www.daventrydc.gov.uk,-1.07921300000000,,2014-11-11,fhrs_5_en-GB,5,,FHRS,5
50937,Whilton Marina,Whilton Locks,Whilton,Northamptonshire,Piri Piri Rotisserie,Mobile caterer,7846,0,,466328,0,,52.27566500000000,PI/000014093,236,healthimprovement@daventrydc.gov.uk,Daventry,http://www.daventrydc.gov.uk,-1.09711700000000,NN11 2NH,2014-04-28,fhrs_5_en-GB,5,,FHRS,0
50938,46 New Street,Town Centre,Daventry,Northamptonshire,Pizza Hot,Takeaway/sandwich shop,7844,10,,674906,10,,52.25648100000000,PI/000026105,236,healthimprovement@daventrydc.gov.uk,Daventry,http://www.daventrydc.gov.uk,-1.16202700000000,NN11 4BU,2014-05-12,fhrs_3_en-GB,3,,FHRS,10
50939,11 Market Place,Long Buckby,Northamptonshire,,PIZZAMAN,Takeaway/sandwich shop,7844,5,,166513,5,,52.30266300000000,PI/000009705,236,healthimprovement@daventrydc.gov.uk,Daventry,http://www.daventrydc.gov.uk,-1.08070000000000,NN6 7RR,2013-11-05,fhrs_5_en-GB,5,,FHRS,5
50940,Market Square,Town Centre,Daventry,Northamptonshire,Plume Of Feathers,Pub/bar/nightclub,7843,5,,163468,0,,52.25863400000000,PI/000004785,236,healthimprovement@daventrydc.gov.uk,Daventry,http://www.daventrydc.gov.uk,-1.16011100000000,NN11 4BH,2014-05-29,fhrs_5_en-GB,5,,FHRS,5
50941,31 Bell Lane,Byfield,Northamptonshire,,Pom's Kitchen,Retailers - other,4613,10,,447862,5,,52.17364700000000,PI/000001778,236,healthimprovement@daventrydc.gov.uk,Daventry,http://www.daventrydc.gov.uk,-1.24969900000000,NN11 6US,2012-09-17,fhrs_4_en-GB,4,,FHRS,5
50942,38-40 Station Road,Woodford Halse,Northamptonshire,,POPSONS CHEMIST,Retailers - other,4613,,,169140,,,52.16927600000000,PI/000014508,236,healthimprovement@daventrydc.gov.uk,Daventry,http://www.daventrydc.gov.uk,-1.20953400000000,NN11 3RB,2013-08-19,fhrs_exempt_en-GB,Exempt,,FHRS,
50943,Lamport Manor,Old Road,Lamport,Northamptonshire,Portfolio Foods,Other catering premises,7841,0,,221735,0,,52.36582400000000,PI/000043383,236,healthimprovement@daventrydc.gov.uk,Daventry,http://www.daventrydc.gov.uk,-0.88276400000000,NN6 9HF,2013-09-19,fhrs_5_en-GB,5,,FHRS,5
50944,Portley Ford,Northampton Road,Welford,Northamptonshire,PORTLY FORD CAFE,Restaurant/Cafe/Canteen,1,5,,168627,5,,52.39901100000000,PI/000013531,236,healthimprovement@daventrydc.gov.uk,Daventry,http://www.daventrydc.gov.uk,-1.03310700000000,NN6 6JF,2014-09-05,fhrs_4_en-GB,4,,FHRS,10
50945,10 High Street,Ravensthorpe,Northamptonshire,,POST OFFICE,Retailers - other,4613,10,,167679,0,,52.32556400000000,PI/000011900,236,healthimprovement@daventrydc.gov.uk,Daventry,http://www.daventrydc.gov.uk,-1.02165000000000,NN6 8EH,2014-03-24,fhrs_4_en-GB,4,,FHRS,0
50946,27 High Street,Creaton,Northamptonshire,,Post Office,Retailers - other,4613,0,,162143,0,,52.34086800000000,PI/000002452,236,healthimprovement@daventrydc.gov.uk,Daventry,http://www.daventrydc.gov.uk,-0.96389000000000,NN6 8NA,2012-01-09,fhrs_5_en-GB,5,,FHRS,0
50947,Pytchley Court Nursing Home,5A Northampton Road,Brixworth,Northamptonshire,Pytchley Court Care Home - HC-One,Hospitals/Childcare/Caring Premises,5,0,,161342,0,,52.32681100000000,PI/000001336,236,healthimprovement@daventrydc.gov.uk,Daventry,http://www.daventrydc.gov.uk,-0.90452500000000,NN6 9DX,2014-06-04,fhrs_5_en-GB,5,,FHRS,5
50948,Hellidon Lakes Hotel And Golf Club,Priors Marston Road,Hellidon,Northamptonshire,Q Hotels LTD,Hotel/bed & breakfast/guest house,7842,5,,170109,0,,52.21685100000000,PI/000016604,236,healthimprovement@daventrydc.gov.uk,Daventry,http://www.daventrydc.gov.uk,-1.25185500000000,NN11 6GG,2014-05-22,fhrs_5_en-GB,5,,FHRS,5
50949,Royal Mail Group Plc,Daventry International Rail Freight Terminal,Danes Way,Dirft,QUADRANT CATERING SERVICES LT,Restaurant/Cafe/Canteen,1,0,,166091,5,,52.35562100000000,PI/000008970,236,healthimprovement@daventrydc.gov.uk,Daventry,http://www.daventrydc.gov.uk,-1.15977200000000,NN6 7FT,2015-01-27,fhrs_5_en-GB,5,,FHRS,0
50950,Wimborne Place,Ashby Fields,Daventry,Northamptonshire,Queen Of Hearts,Pub/bar/nightclub,7843,5,,165153,5,,52.27401200000000,PI/000007561,236,healthimprovement@daventrydc.gov.uk,Daventry,http://www.daventrydc.gov.uk,-1.15948300000000,NN11 0XY,2013-11-04,fhrs_4_en-GB,4,,FHRS,10
50951,2-3 Tamar Square,The Grange,Daventry,Northamptonshire,Rakesh Stores,Retailers - other,4613,10,,164072,5,,52.25403200000000,PI/000005809,236,healthimprovement@daventrydc.gov.uk,Daventry,http://www.daventrydc.gov.uk,-1.17940300000000,NN11 4RB,2013-07-18,fhrs_4_en-GB,4,,FHRS,0
50952,1 High Street,Ravensthorpe,Northamptonshire,,Ravensthorpe Village Hall,Other catering premises,7841,,,167690,,,52.32556400000000,PI/000011923,236,healthimprovement@daventrydc.gov.uk,Daventry,http://www.daventrydc.gov.uk,-1.02165000000000,NN6 8EH,2013-08-12,fhrs_exempt_en-GB,Exempt,,FHRS,
50953,Main Street,East Haddon,Northamptonshire,,Red Lion Hotel,Hotel/bed & breakfast/guest house,7842,5,,165297,0,,52.30722400000000,PI/000007788,236,healthimprovement@daventrydc.gov.uk,Daventry,http://www.daventrydc.gov.uk,-1.02171700000000,NN6 8BU,2013-05-16,fhrs_5_en-GB,5,,FHRS,5
50954,52 Main Road,Crick,Northamptonshire,,Red Lion Inn,Pub/bar/nightclub,7843,5,,162322,5,,52.34685300000000,PI/000002727,236,healthimprovement@daventrydc.gov.uk,Daventry,http://www.daventrydc.gov.uk,-1.13581800000000,NN6 7TX,2013-06-06,fhrs_5_en-GB,5,,FHRS,5
50955,Cafe At,Daventry Country Park,Daventry,Northamptonshire,RESERVOIR CAFE,Takeaway/sandwich shop,7844,5,,164292,5,,52.27852500000000,PI/000006066,236,healthimprovement@daventrydc.gov.uk,Daventry,http://www.daventrydc.gov.uk,-1.15308100000000,NN11 2JD,2013-02-12,fhrs_5_en-GB,5,,FHRS,5
50956,High Street,Moulton,Northamptonshire,,Rochmills Dispensing Chemist Ltd,Retailers - other,4613,,,166999,,,52.28871000000000,PI/000010604,236,healthimprovement@daventrydc.gov.uk,Daventry,http://www.daventrydc.gov.uk,-0.85077900000000,NN3 7SR,2013-07-29,fhrs_exempt_en-GB,Exempt,,FHRS,
50957,1 Market Place,Long Buckby,Northamptonshire,,ROGER'S QUALITY FAMILY BUTCHERS,Retailers - other,4613,5,,166510,0,,52.30266300000000,PI/000009703,236,healthimprovement@daventrydc.gov.uk,Daventry,http://www.daventrydc.gov.uk,-1.08070000000000,NN6 7RR,2009-09-15,fhrs_5_en-GB,5,,FHRS,0
50958,Vicar Lane Service Station,Vicar Lane,Town Centre,Daventry,Rontec Watford Limited,Retailers - other,4613,5,,164173,0,,52.25799900000000,PI/000005911,236,healthimprovement@daventrydc.gov.uk,Daventry,http://www.daventrydc.gov.uk,-1.15679700000000,NN11 4GD,2014-04-11,fhrs_5_en-GB,5,,FHRS,0
50959,40 Morrison Park Road,West Haddon,Northamptonshire,,Rootline Pasta Co,Retailers - other,4613,5,,536488,5,,52.34414500000000,PI/000030507,236,healthimprovement@daventrydc.gov.uk,Daventry,http://www.daventrydc.gov.uk,-1.07263200000000,NN6 7BJ,2013-02-19,fhrs_5_en-GB,5,,FHRS,5
50960,4 Brooklands Close,Town Centre,Daventry,Northamptonshire,Roy Sturgess - Honey,Retailers - other,4613,5,,466332,0,,52.25360200000000,PI/000016125,236,healthimprovement@daventrydc.gov.uk,Daventry,http://www.daventrydc.gov.uk,-1.16171500000000,NN11 4AT,2012-06-12,fhrs_5_en-GB,5,,FHRS,0
50961,22 Church Street,Crick,Northamptonshire,,Royal Oak,Pub/bar/nightclub,7843,0,,162224,5,,52.34835400000000,PI/000002584,236,healthimprovement@daventrydc.gov.uk,Daventry,http://www.daventrydc.gov.uk,-1.13819700000000,NN6 7TP,2011-03-30,fhrs_5_en-GB,5,,FHRS,5
50962,2 Western Avenue,Town Centre,Daventry,Northamptonshire,ROYAL OAK NEWS,Retailers - other,4613,10,,164307,5,,52.25917800000000,PI/000006088,236,healthimprovement@daventrydc.gov.uk,Daventry,http://www.daventrydc.gov.uk,-1.17088400000000,NN11 9EY,2013-08-14,fhrs_4_en-GB,4,,FHRS,0
50963,Onley Grounds Farm,Barby,Northamptonshire,,Rugby Polo Club,Restaurant/Cafe/Canteen,1,5,,170035,0,,52.33102800000000,PI/000016444,236,healthimprovement@daventrydc.gov.uk,Daventry,http://www.daventrydc.gov.uk,-1.25863300000000,CV23 8AJ,2012-08-16,fhrs_5_en-GB,5,,FHRS,0
50964,Home Park,Upper Catesby Road,Lower Catesby,Northamptonshire,Ruth Thomson,Retailers - other,4613,10,,209010,0,,52.23184600000000,PI/000010219,236,healthimprovement@daventrydc.gov.uk,Daventry,http://www.daventrydc.gov.uk,-1.24447200000000,NN11 6LF,2012-02-22,fhrs_4_en-GB,4,,FHRS,0
50965,Four Acres Farm,West Haddon Road,Crick,Northamptonshire,Sara Jane Hart Heath,Mobile caterer,7846,5,,499106,5,,52.34773000000000,PI/000047773,236,healthimprovement@daventrydc.gov.uk,Daventry,http://www.daventrydc.gov.uk,-1.12297100000000,NN6 7SQ,2014-03-06,fhrs_5_en-GB,5,,FHRS,5
50966,Brook Street,Town Centre,Daventry,Northamptonshire,Saracens Head,Pub/bar/nightclub,7843,0,,176249,0,,52.25798200000000,PI/000036040,236,healthimprovement@daventrydc.gov.uk,Daventry,http://www.daventrydc.gov.uk,-1.16451900000000,NN11 4GG,2014-02-26,fhrs_5_en-GB,5,,FHRS,5
50967,Vicar Lane Service Station,Vicar Lane,Town Centre,Daventry,Satyam-v-Garages,Retailers - other,4613,5,,610023,5,,52.25799900000000,PI/000049265,236,healthimprovement@daventrydc.gov.uk,Daventry,http://www.daventrydc.gov.uk,-1.15679700000000,NN11 4GD,2013-11-07,fhrs_5_en-GB,5,,FHRS,5
50968,27 Brixworth Road,Spratton,Northamptonshire,,Sauls of Spratton Ltd,Retailers - other,4613,0,,167780,5,,52.32476700000000,PI/000012095,236,healthimprovement@daventrydc.gov.uk,Daventry,http://www.daventrydc.gov.uk,-0.94869800000000,NN6 8HH,2013-11-13,fhrs_5_en-GB,5,,FHRS,5
50969,24-25 Bowen Square,Town Centre,Daventry,Northamptonshire,Savers Ltd,Retailers - other,4613,5,,162619,0,,52.25727800000000,PI/000003249,236,healthimprovement@daventrydc.gov.uk,Daventry,http://www.daventrydc.gov.uk,-1.16163100000000,NN11 4DR,2013-07-04,fhrs_5_en-GB,5,,FHRS,0
50970,Brampton Way,Brixworth,Northamptonshire,,Saxon House,Hospitals/Childcare/Caring Premises,5,0,,161518,0,,52.32692600000000,PI/000001537,236,healthimprovement@daventrydc.gov.uk,Daventry,http://www.daventrydc.gov.uk,-0.90711300000000,,2011-06-27,fhrs_5_en-GB,5,,FHRS,0
50971,Brooklyn House,Whilton Locks,Whilton,Northamptonshire,Saywards of Whilton,Retailers - other,4613,0,,168903,5,,52.27566500000000,PI/000014079,236,healthimprovement@daventrydc.gov.uk,Daventry,http://www.daventrydc.gov.uk,-1.09711700000000,NN11 2NH,2012-02-07,fhrs_5_en-GB,5,,FHRS,0
50972,School Lane,Scaldwell,Northamptonshire,,Scaldwell Village Hall,Other catering premises,7841,5,,167733,0,,52.34592600000000,PI/000012005,236,healthimprovement@daventrydc.gov.uk,Daventry,http://www.daventrydc.gov.uk,-0.87030300000000,NN6 9LE,2014-03-26,fhrs_5_en-GB,5,,FHRS,5
50973,Long Buckby Junior School,South Close,Long Buckby,Northamptonshire,School Wrap,School/college/university,7845,5,,715672,5,,52.30022300000000,PI/000009833,236,healthimprovement@daventrydc.gov.uk,Daventry,http://www.daventrydc.gov.uk,-1.08149800000000,NN6 7PX,2014-11-04,fhrs_5_en-GB,5,,FHRS,5
50974,High Street,Guilsborough,Northamptonshire,,Seatons Village Store,Retailers - other,4613,10,,177692,5,,52.35108700000000,PI/000043372,236,healthimprovement@daventrydc.gov.uk,Daventry,http://www.daventrydc.gov.uk,-1.01070600000000,NN6 8PU,2014-02-27,fhrs_4_en-GB,4,,FHRS,0
50975,1 Market Square,Town Centre,Daventry,Northamptonshire,Secrets Health & Beauty Salon,Retailers - other,4613,,,170047,,,52.25863400000000,PI/000016464,236,healthimprovement@daventrydc.gov.uk,Daventry,http://www.daventrydc.gov.uk,-1.16011100000000,NN11 4BH,2013-07-12,fhrs_exempt_en-GB,Exempt,,FHRS,
50976,Pitsford Road,Chapel Brampton,Northamptonshire,,Sedgebrook Hall,Hotel/bed & breakfast/guest house,7842,0,,161950,0,,52.29549700000000,PI/000002073,236,healthimprovement@daventrydc.gov.uk,Daventry,http://www.daventrydc.gov.uk,-0.92022500000000,NN6 8BD,2014-03-25,fhrs_5_en-GB,5,,FHRS,0
50977,1 Hardwick Hall Way,Middlemore,Daventry,Northamptonshire,Select Convenience Store,Retailers - supermarkets/hypermarkets,7840,10,,170584,5,,52.28017000000000,PI/000017976,236,healthimprovement@daventrydc.gov.uk,Daventry,http://www.daventrydc.gov.uk,-1.17088800000000,NN11 8AQ,2013-06-13,fhrs_4_en-GB,4,,FHRS,0
50978,Daventry 1,Daventry International Rail Freight Terminal,Saxon Drive,Dirft,Servest Catering,Restaurant/Cafe/Canteen,1,0,,733434,5,,52.35599300000000,PI/000050170,236,healthimprovement@daventrydc.gov.uk,Daventry,http://www.daventrydc.gov.uk,-1.16913300000000,NN6 7GY,2015-01-26,fhrs_5_en-GB,5,,FHRS,0
50979,Moulton Service Station,45 Park View,Moulton,Northamptonshire,Shell U.K. Oil Products Limited,Retailers - other,4613,0,,167042,0,,52.30234400000000,PI/000010648,236,healthimprovement@daventrydc.gov.uk,Daventry,http://www.daventrydc.gov.uk,-0.82920400000000,NN3 7XA,2013-04-30,fhrs_5_en-GB,5,,FHRS,0
50980,Alan Pond Filling Station,Admirals Way,Southbrook,Daventry,Shell UK Oil Products Limited,Retailers - other,4613,5,,173804,0,,52.25175500000000,PI/000027032,236,healthimprovement@daventrydc.gov.uk,Daventry,http://www.daventrydc.gov.uk,-1.15117300000000,NN11 4QB,2013-05-07,fhrs_5_en-GB,5,,FHRS,0
50981,Shepherds Row,19-21 West End,West Haddon,Northamptonshire,Shepherds Row Bed & Breakfast,Hotel/bed & breakfast/guest house,7842,10,,168832,5,,52.34182700000000,PI/000013939,236,healthimprovement@daventrydc.gov.uk,Daventry,http://www.daventrydc.gov.uk,-1.07862600000000,NN6 7AY,2014-11-27,fhrs_4_en-GB,4,,FHRS,0
50982,3 Church Street,Sibbertoft,Northamptonshire,,Sibbertoft Manor Nursing Home,Hospitals/Childcare/Caring Premises,5,0,,167743,0,,52.43729800000000,PI/000012030,236,healthimprovement@daventrydc.gov.uk,Daventry,http://www.daventrydc.gov.uk,-0.99914200000000,LE16 9UA,2015-01-22,fhrs_5_en-GB,5,,FHRS,0
50983,Rectory Farm,East Farndon Road,Marston Trussell,Northamptonshire,Silver Lady Events Company,Mobile caterer,7846,5,,715675,0,,52.46036800000000,PI/000050475,236,healthimprovement@daventrydc.gov.uk,Daventry,http://www.daventrydc.gov.uk,-0.97615900000000,LE16 9TU,2014-11-03,fhrs_5_en-GB,5,,FHRS,0
50984,10 Breach Close,Brixworth,Northamptonshire,,SIMPLY PERFECT,Mobile caterer,7846,5,,161519,10,,52.32828800000000,PI/000001539,236,healthimprovement@daventrydc.gov.uk,Daventry,http://www.daventrydc.gov.uk,-0.89904500000000,NN6 9HT,2014-08-12,fhrs_4_en-GB,4,,FHRS,5
50985,First Floor,36-42 Sheaf Street,Town Centre,Daventry,Slim Jim's,Pub/bar/nightclub,7843,10,,176848,5,,52.25690800000000,PI/000039296,236,healthimprovement@daventrydc.gov.uk,Daventry,http://www.daventrydc.gov.uk,-1.16387900000000,NN11 4AB,2014-04-04,fhrs_4_en-GB,4,,FHRS,5
50986,11 Springfield,Flore,Northamptonshire,,smARTies (tea & cakes),Other catering premises,7841,5,,466342,0,,52.23594200000000,PI/000030004,236,healthimprovement@daventrydc.gov.uk,Daventry,http://www.daventrydc.gov.uk,-1.05995200000000,NN7 4LT,2012-06-11,fhrs_5_en-GB,5,,FHRS,0
50987,2 Maple Close,Woodford Halse,Northamptonshire,,Smillies Cakes N Pops,Other catering premises,7841,5,,466335,5,,52.16968200000000,PI/000022064,236,healthimprovement@daventrydc.gov.uk,Daventry,http://www.daventrydc.gov.uk,-1.22049300000000,NN11 3ND,2012-05-21,fhrs_5_en-GB,5,,FHRS,5
50988,41 Percy Road,Woodford Halse,Northamptonshire,,Smith and Millard,Other catering premises,7841,10,,466330,5,,52.17050200000000,PI/000014439,236,healthimprovement@daventrydc.gov.uk,Daventry,http://www.daventrydc.gov.uk,-1.20860500000000,NN11 3RN,2011-10-14,fhrs_4_en-GB,4,,FHRS,5
50989,Brampton Lane,Boughton,Northamptonshire,,Smiths Farm Shop,Retailers - other,4613,0,,161913,5,,52.27997200000000,PI/000002014,236,healthimprovement@daventrydc.gov.uk,Daventry,http://www.daventrydc.gov.uk,-0.91654200000000,NN6 8AA,2013-06-24,fhrs_5_en-GB,5,,FHRS,5
50990,47 Norton Road,Town Centre,Daventry,Northamptonshire,SNACKS N JACKS,Mobile caterer,7846,5,,163592,5,,52.26210500000000,PI/000004960,236,healthimprovement@daventrydc.gov.uk,Daventry,http://www.daventrydc.gov.uk,-1.15134200000000,NN11 4GX,2014-03-05,fhrs_5_en-GB,5,,FHRS,5
50991,Banbury Road,Byfield,Northamptonshire,,Solden Hill House,Hospitals/Childcare/Caring Premises,5,5,,161874,5,,52.16467100000000,PI/000001961,236,healthimprovement@daventrydc.gov.uk,Daventry,http://www.daventrydc.gov.uk,-1.25485000000000,NN11 6UA,2014-04-03,fhrs_5_en-GB,5,,FHRS,0
50992,Southbrook Community Centre,Hood Road,Southbrook,Daventry,Southbrook Community Association,Other catering premises,7841,0,,177807,5,,52.25673700000000,PI/000043780,236,healthimprovement@daventrydc.gov.uk,Daventry,http://www.daventrydc.gov.uk,-1.14759100000000,NN11 4JS,2012-11-14,fhrs_5_en-GB,5,,FHRS,0
50993,23-24 Nelson Close,Southbrook,Daventry,Northamptonshire,Southbrook Food and Wine,Retailers - other,4613,10,,163524,10,,52.26097300000000,PI/000004869,236,healthimprovement@daventrydc.gov.uk,Daventry,http://www.daventrydc.gov.uk,-1.14906300000000,NN11 4JE,2014-03-07,fhrs_4_en-GB,4,,FHRS,0
50994,Northampton Road,Chapel Brampton,Northamptonshire,,Spencer Arms,Pub/bar/nightclub,7843,0,,161935,5,,52.28916800000000,PI/000002056,236,healthimprovement@daventrydc.gov.uk,Daventry,http://www.daventrydc.gov.uk,-0.93012900000000,NN6 8AE,2014-03-25,fhrs_5_en-GB,5,,FHRS,0
50995,Daventry St James Infants School,St James Street,Town Centre,Daventry,SPENCER'S CLUB,School/college/university,7845,5,,164630,0,,52.25640200000000,PI/000006669,236,healthimprovement@daventrydc.gov.uk,Daventry,http://www.daventrydc.gov.uk,-1.16485600000000,NN11 4AG,2012-10-15,fhrs_5_en-GB,5,,FHRS,0
50996,Stanford Road,Cold Ashby,Northamptonshire,,Sports Ground And Premises,Other catering premises,7841,,,162119,,,,PI/000002402,236,healthimprovement@daventrydc.gov.uk,Daventry,http://www.daventrydc.gov.uk,,,2013-07-22,fhrs_exempt_en-GB,Exempt,,FHRS,
50997,Smith Street,Spratton,Northamptonshire,,Spratton Hall School,School/college/university,7845,0,,167884,0,,52.32703800000000,PI/000012235,236,healthimprovement@daventrydc.gov.uk,Daventry,http://www.daventrydc.gov.uk,-0.94934900000000,NN6 8HP,2013-10-09,fhrs_5_en-GB,5,,FHRS,5
50998,Brixworth Road,Spratton,Northamptonshire,,Spratton Stores,Retailers - other,4613,0,,167790,5,,52.32476700000000,PI/000012107,236,healthimprovement@daventrydc.gov.uk,Daventry,http://www.daventrydc.gov.uk,-0.94869800000000,NN6 8HH,2014-03-24,fhrs_5_en-GB,5,,FHRS,0
50999,Spring Gardens,Oxford Close,Town Centre,Daventry,Spring Gardens (SHELTERED HOUSING),Hospitals/Childcare/Caring Premises,5,5,,163666,0,,,PI/000005092,236,healthimprovement@daventrydc.gov.uk,Daventry,http://www.daventrydc.gov.uk,,,2011-02-16,fhrs_5_en-GB,5,,FHRS,0
51000,46 High Street,Yelvertoft,Northamptonshire,,Squisito,Retailers - other,4613,5,,682536,5,,52.37277900000000,PI/000049377,236,healthimprovement@daventrydc.gov.uk,Daventry,http://www.daventrydc.gov.uk,-1.12081500000000,NN6 6LQ,2014-06-14,fhrs_5_en-GB,5,,FHRS,5
51001,Harborough Road,Maidwell,Northamptonshire,,Stags Head,Pub/bar/nightclub,7843,5,,166872,5,,52.38721300000000,PI/000010362,236,healthimprovement@daventrydc.gov.uk,Daventry,http://www.daventrydc.gov.uk,-0.90592600000000,NN6 9JA,2014-12-22,fhrs_4_en-GB,4,,FHRS,10
51002,7 High Street,Town Centre,Daventry,Northamptonshire,Star Convenience Store,Retailers - other,4613,10,,636178,0,,52.25797800000000,PI/000048757,236,healthimprovement@daventrydc.gov.uk,Daventry,http://www.daventrydc.gov.uk,-1.16142700000000,NN11 4BG,2014-01-10,fhrs_4_en-GB,4,,FHRS,0
51003,Manor Road,Staverton,Northamptonshire,,Staverton Hall,Hotel/bed & breakfast/guest house,7842,5,,536480,0,,52.24771700000000,PI/000012422,236,healthimprovement@daventrydc.gov.uk,Daventry,http://www.daventrydc.gov.uk,-1.21192000000000,NN11 6JD,2013-01-30,fhrs_5_en-GB,5,,FHRS,5
51004,Stephenson Court,Devon Ox Road,Kilsby,Northamptonshire,Stephenson Court Sheltered Housing,Hospitals/Childcare/Caring Premises,5,5,,166120,0,,52.33278000000000,PI/000009008,236,healthimprovement@daventrydc.gov.uk,Daventry,http://www.daventrydc.gov.uk,-1.18205700000000,CV23 8YS,2012-09-20,fhrs_5_en-GB,5,,FHRS,0
51005,Clipston School,High Street,Clipston,Northamptonshire,Stepping Stones Pre-School,School/college/university,7845,5,,401794,5,,52.42733500000000,PI/000045801,236,healthimprovement@daventrydc.gov.uk,Daventry,http://www.daventrydc.gov.uk,-0.95324600000000,LE16 9RU,2013-11-25,fhrs_5_en-GB,5,,FHRS,5
51006,Truckstop,Watling Street,Lilbourne,Northamptonshire,Stobart Truckstops Ltd,Restaurant/Cafe/Canteen,1,0,,166263,0,,52.38194900000000,PI/000009267,236,healthimprovement@daventrydc.gov.uk,Daventry,http://www.daventrydc.gov.uk,-1.18880300000000,CV23 0AE,2014-11-05,fhrs_5_en-GB,5,,FHRS,5
51007,29 Fraser Close,Town Centre,Daventry,Northamptonshire,STREAT Food,Mobile caterer,7846,5,,466314,5,,52.26089100000000,PI/000003840,236,healthimprovement@daventrydc.gov.uk,Daventry,http://www.daventrydc.gov.uk,-1.15130700000000,NN11 4GZ,2014-02-12,fhrs_5_en-GB,5,,FHRS,5
51008,Unit 2,Regal Arcade,Bowen Square,Town Centre,SUBWAY,Takeaway/sandwich shop,7844,5,,162630,5,,52.25727800000000,PI/000003272,236,healthimprovement@daventrydc.gov.uk,Daventry,http://www.daventrydc.gov.uk,-1.16163100000000,NN11 4DR,2014-02-12,fhrs_5_en-GB,5,,FHRS,5
51009,Subway,Junction Services,London Road,Town Centre,Subway @ Junction Service Station,Takeaway/sandwich shop,7844,5,,447870,0,,52.25040100000000,PI/000047657,236,healthimprovement@daventrydc.gov.uk,Daventry,http://www.daventrydc.gov.uk,-1.15792300000000,NN11 4EA,2012-09-03,fhrs_5_en-GB,5,,FHRS,0
51010,Moulton Mill,Spectacle Lane,Moulton,Northamptonshire,Sueper Sweets,Other catering premises,7841,5,,466323,5,,52.28995600000000,PI/000010909,236,healthimprovement@daventrydc.gov.uk,Daventry,http://www.daventrydc.gov.uk,-0.87464500000000,NN3 7SH,2012-07-12,fhrs_5_en-GB,5,,FHRS,5
51011,50 Dennetts Close,Ashby Fields,Daventry,Northamptonshire,Sugar & Spice Cake Company,Other catering premises,7841,5,,171032,0,,52.27168600000000,PI/000019326,236,healthimprovement@daventrydc.gov.uk,Daventry,http://www.daventrydc.gov.uk,-1.16874600000000,NN11 9AE,2014-03-10,fhrs_5_en-GB,5,,FHRS,0
51012,79 Byfield Road,Woodford Halse,Northamptonshire,,Sugar and Spice,Other catering premises,7841,5,,536487,0,,52.17446200000000,PI/000022213,236,healthimprovement@daventrydc.gov.uk,Daventry,http://www.daventrydc.gov.uk,-1.22010200000000,NN11 3QS,2013-01-23,fhrs_5_en-GB,5,,FHRS,0
51013,Sunny Meadows,Three Bridges Road,Long Buckby Wharf,Northamptonshire,SUNNY MEADOW FARM B&B,Hotel/bed & breakfast/guest house,7842,0,,166791,5,,52.28365300000000,PI/000010201,236,healthimprovement@daventrydc.gov.uk,Daventry,http://www.daventrydc.gov.uk,-1.10359500000000,NN6 7PP,2014-03-10,fhrs_5_en-GB,5,,FHRS,0
51014,Park Farm,Spratton Road,Brixworth,,Sunny Socks Nursery,School/college/university,7845,0,,161439,5,,52.32774100000000,PI/000001441,236,healthimprovement@daventrydc.gov.uk,Daventry,http://www.daventrydc.gov.uk,-0.90886100000000,NN6 9DS,2014-06-03,fhrs_5_en-GB,5,,FHRS,5
51015,1-2 Foundry Walk,Town Centre,Daventry,Northamptonshire,SUPERDRUG STORES PLC,Retailers - other,4613,,,162906,,,52.25694600000000,PI/000003902,236,healthimprovement@daventrydc.gov.uk,Daventry,http://www.daventrydc.gov.uk,-1.16297000000000,NN11 4PN,2013-07-18,fhrs_exempt_en-GB,Exempt,,FHRS,
51016,6 Middleton Road,Middlemore,Daventry,Northamptonshire,Sweet Robot,Other catering premises,7841,5,,466349,5,,52.27982600000000,PI/000042768,236,healthimprovement@daventrydc.gov.uk,Daventry,http://www.daventrydc.gov.uk,-1.17428100000000,NN11 8BH,2012-02-09,fhrs_5_en-GB,5,,FHRS,0
51017,1B Kingsley Avenue,Town Centre,Daventry,Northamptonshire,Sweetie Cakes,Other catering premises,7841,10,,466338,0,,52.25529500000000,PI/000025878,236,healthimprovement@daventrydc.gov.uk,Daventry,http://www.daventrydc.gov.uk,-1.16720600000000,NN11 4AN,2012-03-16,fhrs_4_en-GB,4,,FHRS,0
51018,Boughton Primary School,Moulton Lane,Boughton,Northamptonshire,T J Daycare,School/college/university,7845,5,,674914,5,,52.28513600000000,PI/000049717,236,healthimprovement@daventrydc.gov.uk,Daventry,http://www.daventrydc.gov.uk,-0.89354700000000,NN2 8RG,2014-06-05,fhrs_5_en-GB,5,,FHRS,0
51019,Guilsborough School,West Haddon Road,Guilsborough,Northamptonshire,T(n)S CATERING MANAGEMENT LTD,School/college/university,7845,0,,165811,0,,52.35457900000000,PI/000008544,236,healthimprovement@daventrydc.gov.uk,Daventry,http://www.daventrydc.gov.uk,-1.02636900000000,NN6 8QE,2011-10-11,fhrs_5_en-GB,5,,FHRS,5
51020,13 Low March,The Marches,Daventry,Northamptonshire,Tasty Bites,Mobile caterer,7846,10,,674909,0,,52.24724100000000,PI/000049364,236,healthimprovement@daventrydc.gov.uk,Daventry,http://www.daventrydc.gov.uk,-1.15350000000000,NN11 4SE,2014-05-15,fhrs_4_en-GB,4,,FHRS,0
51021,Daventry utc,Ashby Road,Ashby Fields,Daventry,Taylor Shaw Limited,School/college/university,7845,5,,648803,0,,52.26305900000000,PI/000049374,236,healthimprovement@daventrydc.gov.uk,Daventry,http://www.daventrydc.gov.uk,-1.16413000000000,NN11 0QE,2014-03-05,fhrs_5_en-GB,5,,FHRS,0
51022,61 High Street,Town Centre,Daventry,Northamptonshire,Teresa-Deli,Retailers - other,4613,10,,177742,5,,52.25759500000000,PI/000043583,236,healthimprovement@daventrydc.gov.uk,Daventry,http://www.daventrydc.gov.uk,-1.16322200000000,NN11 4BQ,2014-09-02,fhrs_4_en-GB,4,,FHRS,0
51023,New Street,Town Centre,Daventry,Northamptonshire,Tesco,Retailers - supermarkets/hypermarkets,7840,5,,163547,5,,52.25773400000000,PI/000004901,236,healthimprovement@daventrydc.gov.uk,Daventry,http://www.daventrydc.gov.uk,-1.15995200000000,NN11 4BT,2006-03-21,fhrs_5_en-GB,5,,FHRS,5
51024,Unit D,Daventry International Rail Freight Terminal,Danes Way,Dirft,Tesco Direct,Restaurant/Cafe/Canteen,1,0,,166095,0,,52.35591100000000,PI/000008973,236,healthimprovement@daventrydc.gov.uk,Daventry,http://www.daventrydc.gov.uk,-1.16387800000000,NN6 7GX,2007-02-01,fhrs_5_en-GB,5,,FHRS,0
51025,6 Wimborne Place,Ashby Fields,Daventry,Northamptonshire,Tesco Express,Retailers - supermarkets/hypermarkets,7840,5,,165150,5,,52.27401200000000,PI/000007560,236,healthimprovement@daventrydc.gov.uk,Daventry,http://www.daventrydc.gov.uk,-1.15948300000000,NN11 0XY,2013-09-12,fhrs_5_en-GB,5,,FHRS,5
51026,15 High Street,Weedon,Northamptonshire,,Tesco Stores Ltd,Retailers - supermarkets/hypermarkets,7840,5,,674908,0,,52.23361600000000,PI/000047745,236,healthimprovement@daventrydc.gov.uk,Daventry,http://www.daventrydc.gov.uk,-1.07846600000000,NN7 4QD,2014-05-30,fhrs_5_en-GB,5,,FHRS,0
51027,Market Square,Town Centre,Daventry,Northamptonshire,The Abbey,Other catering premises,7841,,,163471,,,52.25905600000000,PI/000004787,236,healthimprovement@daventrydc.gov.uk,Daventry,http://www.daventrydc.gov.uk,-1.16004400000000,NN11 4XG,2013-08-14,fhrs_exempt_en-GB,Exempt,,FHRS,
51028,Dark Lane,Braunston,Northamptonshire,,The Admiral Nelson,Pub/bar/nightclub,7843,5,,160837,5,,52.28936000000000,PI/000000686,236,healthimprovement@daventrydc.gov.uk,Daventry,http://www.daventrydc.gov.uk,-1.19973100000000,NN11 7HJ,2013-10-30,fhrs_5_en-GB,5,,FHRS,5
51029,The Fox And Hounds,Main Street,Great Brington,Northamptonshire,The Althorp Coaching Inn,Pub/bar/nightclub,7843,5,,165673,5,,52.27847000000000,PI/000008343,236,healthimprovement@daventrydc.gov.uk,Daventry,http://www.daventrydc.gov.uk,-1.02475400000000,NN7 4JA,2013-03-20,fhrs_4_en-GB,4,,FHRS,10
51030,2 Ware Road,Barby,Northamptonshire,,The Arnold Arms,Pub/bar/nightclub,7843,10,,648806,5,,52.33077400000000,PI/000049630,236,healthimprovement@daventrydc.gov.uk,Daventry,http://www.daventrydc.gov.uk,-1.20307900000000,CV23 8UE,2014-03-19,fhrs_4_en-GB,4,,FHRS,5
51031,23 Church Street,Moulton,Northamptonshire,,The Artichoke Inn,Pub/bar/nightclub,7843,0,,166930,0,,52.28987000000000,PI/000010485,236,healthimprovement@daventrydc.gov.uk,Daventry,http://www.daventrydc.gov.uk,-0.85266900000000,NN3 7SP,2014-03-25,fhrs_5_en-GB,5,,FHRS,5
51032,The Old Dairy Farm Centre,Main Street,Upper Stowe,,The Barn Restaurant,Restaurant/Cafe/Canteen,1,5,,168102,0,,52.20545500000000,PI/000012565,236,healthimprovement@daventrydc.gov.uk,Daventry,http://www.daventrydc.gov.uk,-1.05768300000000,NN7 4SH,2013-06-18,fhrs_5_en-GB,5,,FHRS,5
51033,6 Brington Road,Long Buckby,Northamptonshire,,The Big Fryer,Takeaway/sandwich shop,7844,5,,166362,5,,52.30136900000000,PI/000009412,236,healthimprovement@daventrydc.gov.uk,Daventry,http://www.daventrydc.gov.uk,-1.07851200000000,NN6 7RW,2013-11-11,fhrs_5_en-GB,5,,FHRS,5
51034,6 Trent Walk,The Grange,Daventry,Northamptonshire,The Biscuiterie,Retailers - other,4613,10,,591952,0,,52.25337300000000,PI/000007013,236,healthimprovement@daventrydc.gov.uk,Daventry,http://www.daventrydc.gov.uk,-1.18165700000000,NN11 4QF,2013-09-20,fhrs_4_en-GB,4,,FHRS,0
51035,Main Street,Cold Ashby,Northamptonshire,,The Black Horse,Pub/bar/nightclub,7843,5,,162105,5,,52.38179200000000,PI/000002372,236,healthimprovement@daventrydc.gov.uk,Daventry,http://www.daventrydc.gov.uk,-1.03827300000000,NN6 6EL,2012-06-12,fhrs_5_en-GB,5,,FHRS,5
51036,Foxhills,Daventry Road,Norton,Northamptonshire,The Blissful Bakery,Other catering premises,7841,5,,174403,0,,52.26794300000000,PI/000029009,236,healthimprovement@daventrydc.gov.uk,Daventry,http://www.daventrydc.gov.uk,-1.12104300000000,NN11 2ND,2014-04-07,fhrs_5_en-GB,5,,FHRS,0
51037,Bottom Lock,Dark Lane,Braunston,Northamptonshire,The Boat Shop,Retailers - other,4613,5,,160804,5,,52.28936000000000,PI/000000640,236,healthimprovement@daventrydc.gov.uk,Daventry,http://www.daventrydc.gov.uk,-1.19973100000000,NN11 7HJ,2012-10-30,fhrs_5_en-GB,5,,FHRS,0
51038,London Road,Braunston,Northamptonshire,,The Boathouse,Pub/bar/nightclub,7843,0,,499101,0,,52.28985900000000,PI/000000784,236,healthimprovement@daventrydc.gov.uk,Daventry,http://www.daventrydc.gov.uk,-1.21931000000000,NN11 7HB,2014-03-20,fhrs_5_en-GB,5,,FHRS,0
51039,Manor Farm,Manor Road,Hanging Houghton,Northamptonshire,The Breadline,Other catering premises,7841,5,,175793,5,,52.35641600000000,PI/000033848,236,healthimprovement@daventrydc.gov.uk,Daventry,http://www.daventrydc.gov.uk,-0.89579100000000,NN6 9ES,2014-01-14,fhrs_5_en-GB,5,,FHRS,5
51040,14 The Beaver Centre,Great Central Way,Woodford Halse,Northamptonshire,The Buffet Company,Other catering premises,7841,5,,178098,5,,52.17393900000000,PI/000045202,236,healthimprovement@daventrydc.gov.uk,Daventry,http://www.daventrydc.gov.uk,-1.20899800000000,NN11 3PZ,2013-03-15,fhrs_5_en-GB,5,,FHRS,5
51041,10 Harborough Road,Clipston,Northamptonshire,,The Bulls Head,Restaurant/Cafe/Canteen,1,5,,162056,5,,52.43053900000000,PI/000002282,236,healthimprovement@daventrydc.gov.uk,Daventry,http://www.daventrydc.gov.uk,-0.95370000000000,LE16 9RT,2013-12-06,fhrs_5_en-GB,5,,FHRS,5
51042,25 West Street,Moulton,Northamptonshire,,The Cafe@JGallery,Restaurant/Cafe/Canteen,1,0,,415286,5,,52.28961900000000,PI/000032275,236,healthimprovement@daventrydc.gov.uk,Daventry,http://www.daventrydc.gov.uk,-0.85735300000000,NN3 7SB,2013-12-13,fhrs_5_en-GB,5,,FHRS,5
51043,63 Braunston Road,Town Centre,Daventry,Northamptonshire,The Cake Fairy,Other catering premises,7841,10,,466337,0,,52.25985500000000,PI/000024191,236,healthimprovement@daventrydc.gov.uk,Daventry,http://www.daventrydc.gov.uk,-1.16876200000000,NN11 9BY,2012-09-11,fhrs_4_en-GB,4,,FHRS,0
51044,38 Station Road,Watford,Northamptonshire,,The Cake Station,Other catering premises,7841,5,,536481,5,,52.31196100000000,PI/000012767,236,healthimprovement@daventrydc.gov.uk,Daventry,http://www.daventrydc.gov.uk,-1.11870500000000,NN6 7UX,2013-03-12,fhrs_5_en-GB,5,,FHRS,5
51045,Chequers Lane,Ravensthorpe,Northamptonshire,,The Chequers Inn,Pub/bar/nightclub,7843,5,,167703,5,,52.32658600000000,PI/000011949,236,healthimprovement@daventrydc.gov.uk,Daventry,http://www.daventrydc.gov.uk,-1.01914700000000,NN6 8ER,2013-06-20,fhrs_4_en-GB,4,,FHRS,10
51046,Coach And Horses,Harborough Road,Brixworth,Northamptonshire,The Coach and Horses,Pub/bar/nightclub,7843,5,,161182,5,,52.33301600000000,PI/000001127,236,healthimprovement@daventrydc.gov.uk,Daventry,http://www.daventrydc.gov.uk,-0.90086500000000,NN6 9BX,2014-10-15,fhrs_5_en-GB,5,,FHRS,5
51047,Cooperative Group Cws (Ltd),Church Street,Long Buckby,Northamptonshire,The Co-Operative,Retailers - supermarkets/hypermarkets,7840,5,,176794,5,,52.30382600000000,PI/000038955,236,healthimprovement@daventrydc.gov.uk,Daventry,http://www.daventrydc.gov.uk,-1.08113000000000,NN6 7QH,2013-03-13,fhrs_5_en-GB,5,,FHRS,5
51048,The Cottage,Road To Coton,Coton,Northamptonshire,"The Cottage Cafe, Coton Manor",Restaurant/Cafe/Canteen,1,5,,162125,5,,52.34041100000000,PI/000002415,236,healthimprovement@daventrydc.gov.uk,Daventry,http://www.daventrydc.gov.uk,-1.01232400000000,NN6 8RG,2013-05-13,fhrs_5_en-GB,5,,FHRS,5
51049,Daventry Road,Staverton,Northamptonshire,,The Countryman,Pub/bar/nightclub,7843,5,,167975,10,,52.24628300000000,PI/000012391,236,healthimprovement@daventrydc.gov.uk,Daventry,http://www.daventrydc.gov.uk,-1.20998300000000,NN11 6JH,2013-03-19,fhrs_4_en-GB,4,,FHRS,5
51050,Tom Thumb Cottage,Coxs Lane,Hellidon,Northamptonshire,The Countryside Catering Company,Mobile caterer,7846,5,,165953,0,,52.22046800000000,PI/000008762,236,healthimprovement@daventrydc.gov.uk,Daventry,http://www.daventrydc.gov.uk,-1.24797400000000,NN11 6LQ,2013-06-16,fhrs_5_en-GB,5,,FHRS,0
51051,6 Bishops Court,Town Centre,Daventry,Northamptonshire,The Courtyard Cafe,Restaurant/Cafe/Canteen,1,5,,164424,0,,52.25817400000000,PI/000006262,236,healthimprovement@daventrydc.gov.uk,Daventry,http://www.daventrydc.gov.uk,-1.16240500000000,NN11 4NP,2013-04-30,fhrs_5_en-GB,5,,FHRS,5
51052,12 High Street,Long Buckby,Northamptonshire,,THE DYNASTY,Restaurant/Cafe/Canteen,1,10,,166419,10,,52.30261900000000,PI/000009553,236,healthimprovement@daventrydc.gov.uk,Daventry,http://www.daventrydc.gov.uk,-1.07746000000000,NN6 7RD,2013-10-18,fhrs_3_en-GB,3,,FHRS,5
51053,6-8 High Street,Welford,Northamptonshire,,The Elizabethan,Restaurant/Cafe/Canteen,1,5,,168602,5,,52.41875800000000,PI/000013474,236,healthimprovement@daventrydc.gov.uk,Daventry,http://www.daventrydc.gov.uk,-1.05579100000000,NN6 6HT,2014-02-26,fhrs_4_en-GB,4,,FHRS,10
51054,Harlestone Road,Lower Harlestone,Northamptonshire,,The Fox & Hounds,Pub/bar/nightclub,7843,5,,166825,5,,52.27409200000000,PI/000010277,236,healthimprovement@daventrydc.gov.uk,Daventry,http://www.daventrydc.gov.uk,-0.96556500000000,NN7 4EW,2013-02-27,fhrs_5_en-GB,5,,FHRS,5
51055,Heart Of The Shires Shopping Village,Watling Street,Norton,Northamptonshire,THE GARDEN ROOM,Retailers - other,4613,5,,168484,0,,52.27846300000000,PI/000013280,236,healthimprovement@daventrydc.gov.uk,Daventry,http://www.daventrydc.gov.uk,-1.10799200000000,,2013-08-01,fhrs_5_en-GB,5,,FHRS,0
51056,George Hotel,11 Watling Street,Kilsby,Northamptonshire,THE GEORGE,Pub/bar/nightclub,7843,5,,166191,5,,52.33634600000000,PI/000009125,236,healthimprovement@daventrydc.gov.uk,Daventry,http://www.daventrydc.gov.uk,-1.17397700000000,CV23 8YE,2013-04-11,fhrs_5_en-GB,5,,FHRS,5
51057,Harborough Road,Great Oxendon,Northamptonshire,,The George,Restaurant/Cafe/Canteen,1,10,,165748,5,,52.44471500000000,PI/000008446,236,healthimprovement@daventrydc.gov.uk,Daventry,http://www.daventrydc.gov.uk,-0.91845000000000,LE16 8NA,2013-09-02,fhrs_4_en-GB,4,,FHRS,5
51058,55 St James Street,Town Centre,Daventry,,The George Inn,Pub/bar/nightclub,7843,5,,164634,0,,52.25640200000000,PI/000006671,236,healthimprovement@daventrydc.gov.uk,Daventry,http://www.daventrydc.gov.uk,-1.16485600000000,NN11 4AG,2014-04-02,fhrs_5_en-GB,5,,FHRS,0
51059,Northampton Road,Brixworth,Northamptonshire,,The George Inn,Pub/bar/nightclub,7843,5,,648801,5,,52.32982800000000,PI/000049280,236,healthimprovement@daventrydc.gov.uk,Daventry,http://www.daventrydc.gov.uk,-0.90314500000000,NN6 9BU,2014-02-26,fhrs_5_en-GB,5,,FHRS,5
51060,Fawsley Road,Fawsley,Northamptonshire,,The Granary,Hotel/bed & breakfast/guest house,7842,10,,177562,5,,52.20788300000000,PI/000042719,236,healthimprovement@daventrydc.gov.uk,Daventry,http://www.daventrydc.gov.uk,-1.18714600000000,NN11 3BU,2014-03-12,fhrs_4_en-GB,4,,FHRS,0
51061,63 The Wye,The Grange,Daventry,Northamptonshire,The Grange Convenience Store,Retailers - other,4613,5,,447866,0,,52.25022300000000,PI/000045646,236,healthimprovement@daventrydc.gov.uk,Daventry,http://www.daventrydc.gov.uk,-1.17597300000000,NN11 4PX,2012-08-22,fhrs_5_en-GB,5,,FHRS,0
51062,25 High Street,Pitsford,Northamptonshire,,The Griffin Inn,Pub/bar/nightclub,7843,0,,167585,5,,52.30355700000000,PI/000011754,236,healthimprovement@daventrydc.gov.uk,Daventry,http://www.daventrydc.gov.uk,-0.89728200000000,NN6 9AD,2010-08-19,fhrs_5_en-GB,5,,FHRS,0
51063,Naseby Road,Thornby,Northamptonshire,,The Hall,School/college/university,7845,5,,168072,0,,52.37525700000000,PI/000012521,236,healthimprovement@daventrydc.gov.uk,Daventry,http://www.daventrydc.gov.uk,-1.01542600000000,NN6 8SW,2012-02-02,fhrs_5_en-GB,5,,FHRS,0
51064,28 Sheaf Street,Town Centre,Daventry,Northamptonshire,The Hideout,Restaurant/Cafe/Canteen,1,5,,209019,5,,52.25690800000000,PI/000005556,236,healthimprovement@daventrydc.gov.uk,Daventry,http://www.daventrydc.gov.uk,-1.16387900000000,NN11 4AB,2013-04-05,fhrs_5_en-GB,5,,FHRS,5
51065,Field View Cottage,Watling Street,Kilsby,Northamptonshire,The Ice Cream Centre Ltd,Mobile caterer,7846,5,,536482,0,,52.32859900000000,PI/000016219,236,healthimprovement@daventrydc.gov.uk,Daventry,http://www.daventrydc.gov.uk,-1.15268300000000,CV23 8UW,2013-02-18,fhrs_5_en-GB,5,,FHRS,0
51066,Main Street,Farthingstone,Northamptonshire,,The Kings Arms,Pub/bar/nightclub,7843,10,,165424,5,,52.19067100000000,PI/000008000,236,healthimprovement@daventrydc.gov.uk,Daventry,http://www.daventrydc.gov.uk,-1.10230600000000,NN12 8EZ,2011-08-17,fhrs_4_en-GB,4,,FHRS,5
51067,Harborough Road,Lamport,Northamptonshire,,The Lamport Swan,Pub/bar/nightclub,7843,5,,166239,5,,52.36300300000000,PI/000009221,236,healthimprovement@daventrydc.gov.uk,Daventry,http://www.daventrydc.gov.uk,-0.89152900000000,NN6 9EZ,2012-06-19,fhrs_4_en-GB,4,,FHRS,10
51068,London Road,Town Centre,Daventry,Northamptonshire,The Longlands Specialist Care Centre,Hospitals/Childcare/Caring Premises,5,5,,163397,5,,52.25247700000000,PI/000004634,236,healthimprovement@daventrydc.gov.uk,Daventry,http://www.daventrydc.gov.uk,-1.16037400000000,NN11 4DY,2014-10-01,fhrs_5_en-GB,5,,FHRS,0
51069,Maltsters Arms,The Green,Badby,Northamptonshire,The Maltsters,Pub/bar/nightclub,7843,5,,170928,5,,52.22702100000000,PI/000019036,236,healthimprovement@daventrydc.gov.uk,Daventry,http://www.daventrydc.gov.uk,-1.18152600000000,NN11 3AF,2013-07-03,fhrs_5_en-GB,5,,FHRS,5
51070,West Haddon Road,Crick,Northamptonshire,,The Med Shed,Mobile caterer,7846,5,,700862,5,,,PI/000050074,236,healthimprovement@daventrydc.gov.uk,Daventry,http://www.daventrydc.gov.uk,,,2014-06-30,fhrs_5_en-GB,5,,FHRS,5
51071,34 Thorpeville,Moulton,Northamptonshire,,The Moulton Pie Company,Retailers - other,4613,0,,536490,5,,52.28255300000000,PI/000032566,236,healthimprovement@daventrydc.gov.uk,Daventry,http://www.daventrydc.gov.uk,-0.84268500000000,NN3 7TR,2014-08-12,fhrs_5_en-GB,5,,FHRS,5
51072,Watling Street,Long Buckby,Northamptonshire,,The New Inn,Pub/bar/nightclub,7843,10,,499105,5,,52.28583600000000,PI/000043890,236,healthimprovement@daventrydc.gov.uk,Daventry,http://www.daventrydc.gov.uk,-1.11418000000000,NN6 7PW,2013-09-03,fhrs_4_en-GB,4,,FHRS,5
51073,400 Obelisk Rise,Boughton,Northamptonshire,,THE OBELISK CENTRE,Restaurant/Cafe/Canteen,1,0,,160693,5,,52.27595800000000,PI/000000481,236,healthimprovement@daventrydc.gov.uk,Daventry,http://www.daventrydc.gov.uk,-0.90624800000000,NN2 8DZ,2013-11-15,fhrs_5_en-GB,5,,FHRS,5
51074,2 Harbidges Lane,Long Buckby,Northamptonshire,,The Old Kings Head,Pub/bar/nightclub,7843,10,,715679,5,,52.30300700000000,PI/000050545,236,healthimprovement@daventrydc.gov.uk,Daventry,http://www.daventrydc.gov.uk,-1.08567900000000,NN6 7QL,2014-11-04,fhrs_4_en-GB,4,,FHRS,5
51075,82 High Street,Braunston,Northamptonshire,,The Old Plough,Pub/bar/nightclub,7843,10,,160896,5,,52.29069200000000,PI/000000765,236,healthimprovement@daventrydc.gov.uk,Daventry,http://www.daventrydc.gov.uk,-1.21200800000000,NN11 7HS,2014-09-17,fhrs_4_en-GB,4,,FHRS,5
51076,Main Street,Ashby St Ledgers,Northamptonshire,,The Olde Coach House,Restaurant/Cafe/Canteen,1,0,,160452,0,,52.30849300000000,PI/000000085,236,healthimprovement@daventrydc.gov.uk,Daventry,http://www.daventrydc.gov.uk,-1.16487400000000,CV23 8UN,2013-07-09,fhrs_5_en-GB,5,,FHRS,5
51077,Northamptonshire county council,Spratton Road,Brixworth,Northamptonshire,The olive branch,Restaurant/Cafe/Canteen,1,5,,622814,5,,52.32774100000000,PI/000049413,236,healthimprovement@daventrydc.gov.uk,Daventry,http://www.daventrydc.gov.uk,-0.90886100000000,NN6 9DS,2013-06-04,fhrs_5_en-GB,5,,FHRS,0
51078,Ashton House,2 Malabar Fields,Stefen Hill,Daventry,The Original Pizza Box,Mobile caterer,7846,5,,695904,0,,52.25009700000000,PI/000021120,236,healthimprovement@daventrydc.gov.uk,Daventry,http://www.daventrydc.gov.uk,-1.17342600000000,NN11 4DP,2014-07-28,fhrs_5_en-GB,5,,FHRS,0
51079,40 Bliss Lane,Flore,Northamptonshire,,The Paddocks Tearoom,Restaurant/Cafe/Canteen,1,5,,170190,10,,52.23614000000000,PI/000016895,236,healthimprovement@daventrydc.gov.uk,Daventry,http://www.daventrydc.gov.uk,-1.05212800000000,NN7 4LJ,2012-12-07,fhrs_4_en-GB,4,,FHRS,5
51080,22 Market Place,Long Buckby,Northamptonshire,,The Peacock,Pub/bar/nightclub,7843,5,,166523,5,,52.30266300000000,PI/000009713,236,healthimprovement@daventrydc.gov.uk,Daventry,http://www.daventrydc.gov.uk,-1.08070000000000,NN6 7RR,2014-10-03,fhrs_5_en-GB,5,,FHRS,5
51081,Westerburg Square,Stefen Hill,Daventry,Northamptonshire,The Peppermill,Pub/bar/nightclub,7843,5,,648808,0,,52.25001400000000,PI/000049674,236,healthimprovement@daventrydc.gov.uk,Daventry,http://www.daventrydc.gov.uk,-1.16415500000000,NN11 4TQ,2014-04-03,fhrs_5_en-GB,5,,FHRS,0
51082,Tamar Square,The Grange,Daventry,Northamptonshire,The Pike And Eel,Pub/bar/nightclub,7843,10,,164082,5,,52.25403200000000,PI/000005814,236,healthimprovement@daventrydc.gov.uk,Daventry,http://www.daventrydc.gov.uk,-1.17940300000000,NN11 4RB,2012-08-31,fhrs_4_en-GB,4,,FHRS,5
51083,Mercedes-Benz High Performance Engines,Morgan Drive,Brixworth Industrial Estate,Brixworth,The Pitstop Restaurant,Restaurant/Cafe/Canteen,1,0,,171512,0,,52.33530600000000,PI/000020612,236,healthimprovement@daventrydc.gov.uk,Daventry,http://www.daventrydc.gov.uk,-0.89578800000000,NN6 9GZ,2012-10-09,fhrs_5_en-GB,5,,FHRS,0
51084,West Street,Weedon,Northamptonshire,,The Plume Of Feathers,Pub/bar/nightclub,7843,10,,168509,5,,52.22841800000000,PI/000013317,236,healthimprovement@daventrydc.gov.uk,Daventry,http://www.daventrydc.gov.uk,-1.08180900000000,NN7 4QU,2013-02-05,fhrs_4_en-GB,4,,FHRS,5
51085,The Poplars,33 Cross Street,Moulton,Northamptonshire,THE POPLARS HOTEL,Hotel/bed & breakfast/guest house,7842,5,,166947,5,,52.28855700000000,PI/000010511,236,healthimprovement@daventrydc.gov.uk,Daventry,http://www.daventrydc.gov.uk,-0.85443300000000,NN3 7RZ,2014-08-15,fhrs_5_en-GB,5,,FHRS,0
51086,The Avenue,Flore,Northamptonshire,,The real retreat company,Hotel/bed & breakfast/guest house,7842,0,,170106,5,,52.23495200000000,PI/000016601,236,healthimprovement@daventrydc.gov.uk,Daventry,http://www.daventrydc.gov.uk,-1.06209600000000,NN7 4LZ,2014-04-10,fhrs_5_en-GB,5,,FHRS,0
51087,134 Northampton Road,Brixworth,Northamptonshire,,THE RED LION,Pub/bar/nightclub,7843,5,,161346,5,,52.32982800000000,PI/000001340,236,healthimprovement@daventrydc.gov.uk,Daventry,http://www.daventrydc.gov.uk,-0.90314500000000,NN6 9BU,2013-07-10,fhrs_5_en-GB,5,,FHRS,5
51088,43 Welland Rise,Sibbertoft,Northamptonshire,,The Red Lion,Pub/bar/nightclub,7843,5,,167764,0,,52.43830900000000,PI/000012072,236,healthimprovement@daventrydc.gov.uk,Daventry,http://www.daventrydc.gov.uk,-1.00184100000000,LE16 9UD,2013-10-10,fhrs_5_en-GB,5,,FHRS,5
51089,Stockwell Lane,Hellidon,Northamptonshire,,The Red Lion,Pub/bar/nightclub,7843,10,,165928,5,,52.21899900000000,PI/000008737,236,healthimprovement@daventrydc.gov.uk,Daventry,http://www.daventrydc.gov.uk,-1.24460200000000,NN11 6LG,2014-02-27,fhrs_3_en-GB,3,,FHRS,10
51090,Welford Road,Thornby,Northamptonshire,,The Red Lion,Pub/bar/nightclub,7843,5,,168078,5,,52.37519400000000,PI/000012532,236,healthimprovement@daventrydc.gov.uk,Daventry,http://www.daventrydc.gov.uk,-1.01761600000000,NN6 8SJ,2013-10-09,fhrs_5_en-GB,5,,FHRS,5
51091,Church Street,Naseby,Northamptonshire,,The Royal Oak,Pub/bar/nightclub,7843,10,,167287,0,,52.39573400000000,PI/000011108,236,healthimprovement@daventrydc.gov.uk,Daventry,http://www.daventrydc.gov.uk,-0.99051500000000,NN6 6DA,2013-10-08,fhrs_4_en-GB,4,,FHRS,0
51092,Zion Hill,Walgrave,Northamptonshire,,The Royal Oak,Pub/bar/nightclub,7843,5,,168188,5,,52.34184000000000,PI/000012699,236,healthimprovement@daventrydc.gov.uk,Daventry,http://www.daventrydc.gov.uk,-0.82190800000000,NN6 9PN,2013-08-15,fhrs_5_en-GB,5,,FHRS,5
51093,Main Street,Little Brington,Northamptonshire,,The Saracens Head,Pub/bar/nightclub,7843,5,,166319,5,,52.26778400000000,PI/000009344,236,healthimprovement@daventrydc.gov.uk,Daventry,http://www.daventrydc.gov.uk,-1.03401500000000,NN7 4HS,2013-03-20,fhrs_5_en-GB,5,,FHRS,5
51094,Matts Lodge Farm,Grooms Lane,Creaton,Northamptonshire,The Seacow 16,Mobile caterer,7846,5,,715677,5,,52.33759600000000,PI/000050540,236,healthimprovement@daventrydc.gov.uk,Daventry,http://www.daventrydc.gov.uk,-0.95784600000000,NN6 8NN,2014-10-28,fhrs_5_en-GB,5,,FHRS,5
51095,Matts Lodge Farm,Grooms Lane,Creaton,Northamptonshire,The Seacow 18,Mobile caterer,7846,5,,715678,5,,52.33759600000000,PI/000050541,236,healthimprovement@daventrydc.gov.uk,Daventry,http://www.daventrydc.gov.uk,-0.95784600000000,NN6 8NN,2014-10-28,fhrs_5_en-GB,5,,FHRS,5
51096,Matts Lodge Farm,Grooms Lane,Creaton,Northamptonshire,The Seacow Pilot,Mobile caterer,7846,5,,715676,5,,52.33759600000000,PI/000050539,236,healthimprovement@daventrydc.gov.uk,Daventry,http://www.daventrydc.gov.uk,-0.95784600000000,NN6 8NN,2014-10-28,fhrs_5_en-GB,5,,FHRS,5
51097,29 Honey Holme,Brixworth,Northamptonshire,,The Snak Shak,Mobile caterer,7846,0,,161205,5,,52.32617400000000,PI/000001172,236,healthimprovement@daventrydc.gov.uk,Daventry,http://www.daventrydc.gov.uk,-0.90958900000000,NN6 9BQ,2014-08-12,fhrs_5_en-GB,5,,FHRS,5
51098,The Square Nightclub,Regal Arcade,Bowen Square,Town Centre,The Square,Pub/bar/nightclub,7843,10,,163798,10,,52.25727800000000,PI/000005324,236,healthimprovement@daventrydc.gov.uk,Daventry,http://www.daventrydc.gov.uk,-1.16163100000000,NN11 4DR,2007-11-02,fhrs_3_en-GB,3,,FHRS,10
51099,30 West Street,Moulton,Northamptonshire,,The Telegraph Inn,Pub/bar/nightclub,7843,5,,674918,0,,52.28961900000000,PI/000049752,236,healthimprovement@daventrydc.gov.uk,Daventry,http://www.daventrydc.gov.uk,-0.85735300000000,NN3 7SB,2014-05-14,fhrs_5_en-GB,5,,FHRS,5
51100,School Street,Woodford Halse,Northamptonshire,,The Village Centre,Other catering premises,7841,,,169186,,,52.17115800000000,PI/000014636,236,healthimprovement@daventrydc.gov.uk,Daventry,http://www.daventrydc.gov.uk,-1.20588900000000,NN11 3RL,2013-08-02,fhrs_exempt_en-GB,Exempt,,FHRS,
51101,Clipston Village Hall,High Street,Clipston,Northamptonshire,The Village Hall,Other catering premises,7841,5,,162068,0,,52.42733500000000,PI/000002299,236,healthimprovement@daventrydc.gov.uk,Daventry,http://www.daventrydc.gov.uk,-0.95324600000000,LE16 9RU,2013-07-15,fhrs_5_en-GB,5,,FHRS,0
51102,10 The Green,Braunston,Northamptonshire,,THE WHEATSHEAF,Pub/bar/nightclub,7843,10,,160932,0,,52.29202700000000,PI/000000810,236,healthimprovement@daventrydc.gov.uk,Daventry,http://www.daventrydc.gov.uk,-1.20455100000000,NN11 7HW,2012-09-03,fhrs_4_en-GB,4,,FHRS,0
51103,15 Main Road,Crick,Northamptonshire,,The Wheatsheaf,Pub/bar/nightclub,7843,5,,162324,5,,52.34725600000000,PI/000002728,236,healthimprovement@daventrydc.gov.uk,Daventry,http://www.daventrydc.gov.uk,-1.13560500000000,NN6 7TU,2013-10-14,fhrs_4_en-GB,4,,FHRS,10
51104,High Street,Weedon,Northamptonshire,,The Wheatsheaf,Pub/bar/nightclub,7843,5,,168360,0,,52.23361600000000,PI/000013025,236,healthimprovement@daventrydc.gov.uk,Daventry,http://www.daventrydc.gov.uk,-1.07846600000000,NN7 4QD,2012-06-15,fhrs_5_en-GB,5,,FHRS,5
51105,54 High Street,Flore,Northamptonshire,,The White Hart,Pub/bar/nightclub,7843,10,,733440,5,,52.23715500000000,PI/000050576,236,healthimprovement@daventrydc.gov.uk,Daventry,http://www.daventrydc.gov.uk,-1.05302900000000,NN7 4LW,2014-12-04,fhrs_4_en-GB,4,,FHRS,5
51106,Walgrave Road,Old,Northamptonshire,,The White Horse,Restaurant/Cafe/Canteen,1,5,,610024,5,,52.35025900000000,PI/000049277,236,healthimprovement@daventrydc.gov.uk,Daventry,http://www.daventrydc.gov.uk,-0.84607100000000,NN6 9QX,2013-10-24,fhrs_5_en-GB,5,,FHRS,5
51107,1 High Street,Moulton,Northamptonshire,,The White Lion Inn,Pub/bar/nightclub,7843,10,,166992,5,,52.28871000000000,PI/000010589,236,healthimprovement@daventrydc.gov.uk,Daventry,http://www.daventrydc.gov.uk,-0.85077900000000,NN3 7SR,2014-04-03,fhrs_4_en-GB,4,,FHRS,5
51108,Church Street,Boughton,Northamptonshire,,The Whyte Melville,Pub/bar/nightclub,7843,10,,160672,5,,52.28596400000000,PI/000000449,236,healthimprovement@daventrydc.gov.uk,Daventry,http://www.daventrydc.gov.uk,-0.89752800000000,NN2 8SG,2013-06-06,fhrs_4_en-GB,4,,FHRS,5
51109,Brixworth Country Park,Northampton Road,Brixworth,,The Willow Tree,Restaurant/Cafe/Canteen,1,0,,401797,5,,52.30688800000000,PI/000047565,236,healthimprovement@daventrydc.gov.uk,Daventry,http://www.daventrydc.gov.uk,-0.89975200000000,NN6 9AA,2013-03-12,fhrs_5_en-GB,5,,FHRS,0
51110,Barby Nurseries,Welton Road,Barby,Northamptonshire,The Willows Coffee Shop,Restaurant/Cafe/Canteen,1,5,,160585,5,,52.31836600000000,PI/000000292,236,healthimprovement@daventrydc.gov.uk,Daventry,http://www.daventrydc.gov.uk,-1.20412300000000,CV23 8TG,2014-03-14,fhrs_5_en-GB,5,,FHRS,5
51111,Brampton Lane,Boughton,Northamptonshire,,The Windhover,Pub/bar/nightclub,7843,0,,161914,0,,52.27997200000000,PI/000002015,236,healthimprovement@daventrydc.gov.uk,Daventry,http://www.daventrydc.gov.uk,-0.91654200000000,NN6 8AA,2013-11-12,fhrs_5_en-GB,5,,FHRS,5
51112,Unit 5 The Barn,Heart Of The Shires Shopping Village,Watling Street,Norton,The Wine Barn,Retailers - other,4613,5,,586822,0,,52.25950500000000,PI/000018320,236,healthimprovement@daventrydc.gov.uk,Daventry,http://www.daventrydc.gov.uk,-1.09315200000000,NN7 4LB,2013-08-20,fhrs_5_en-GB,5,,FHRS,0
51113,Church Lane,Thornby,Northamptonshire,,Thornby Village Hall,Other catering premises,7841,,,177932,,,52.37439000000000,PI/000044415,236,healthimprovement@daventrydc.gov.uk,Daventry,http://www.daventrydc.gov.uk,-1.01714900000000,NN6 8SN,2013-08-12,fhrs_exempt_en-GB,Exempt,,FHRS,
51114,27 Bowen Square,Town Centre,Daventry,Northamptonshire,THORNTONS,Retailers - other,4613,5,,162621,0,,52.25727800000000,PI/000003251,236,healthimprovement@daventrydc.gov.uk,Daventry,http://www.daventrydc.gov.uk,-1.16163100000000,NN11 4DR,2013-07-10,fhrs_5_en-GB,5,,FHRS,0
51115,1 Riley Close,Royal Oak,Daventry,Northamptonshire,Tigers Indoor Play LTD,Restaurant/Cafe/Canteen,1,5,,591955,0,,52.26774100000000,PI/000048826,236,healthimprovement@daventrydc.gov.uk,Daventry,http://www.daventrydc.gov.uk,-1.18436700000000,NN11 8QT,2013-10-15,fhrs_5_en-GB,5,,FHRS,5
51116,Business,Barby Lane,Barby,Northamptonshire,Tower Farm Saddlers,Retailers - other,4613,5,,160645,0,,52.34354900000000,PI/000000394,236,healthimprovement@daventrydc.gov.uk,Daventry,http://www.daventrydc.gov.uk,-1.21102500000000,CV23 8UX,2012-12-05,fhrs_5_en-GB,5,,FHRS,0
51117,2 Wimborne Place,Ashby Fields,Daventry,Northamptonshire,Trawlers,Takeaway/sandwich shop,7844,0,,165147,5,,52.27401200000000,PI/000007556,236,healthimprovement@daventrydc.gov.uk,Daventry,http://www.daventrydc.gov.uk,-1.15948300000000,NN11 0XY,2015-01-23,fhrs_5_en-GB,5,,FHRS,5
51118,Brooklyn,4 Bridge Street,Weedon,Northamptonshire,Tudor Greengrocers,Retailers - other,4613,10,,415284,5,,52.22873100000000,PI/000012809,236,healthimprovement@daventrydc.gov.uk,Daventry,http://www.daventrydc.gov.uk,-1.07811300000000,NN7 4PN,2012-10-23,fhrs_4_en-GB,4,,FHRS,5
51119,Butcher's Pet Care Ltd,Dockham Way,Crick,Northamptonshire,Unique Catering + Management Ltd,Restaurant/Cafe/Canteen,1,5,,682535,5,,52.35748300000000,PI/000019577,236,healthimprovement@daventrydc.gov.uk,Daventry,http://www.daventrydc.gov.uk,-1.14362800000000,NN6 7TZ,2014-07-02,fhrs_5_en-GB,5,,FHRS,5
51120,Chapel Street,Kilsby,Northamptonshire,,United Reformed Church,Restaurant/Cafe/Canteen,1,0,,166206,0,,,PI/000009158,236,healthimprovement@daventrydc.gov.uk,Daventry,http://www.daventrydc.gov.uk,,,2014-03-17,fhrs_5_en-GB,5,,FHRS,0
51121,High Street,Creaton,Northamptonshire,,United Reformed Church,Other catering premises,7841,5,,162142,0,,,PI/000002450,236,healthimprovement@daventrydc.gov.uk,Daventry,http://www.daventrydc.gov.uk,,,2013-07-22,fhrs_5_en-GB,5,,FHRS,0
51122,Cafe,Icon,Eastern Way,Town Centre,University of Northampton Enterprise,Restaurant/Cafe/Canteen,1,5,,178091,0,,52.26153900000000,PI/000045123,236,healthimprovement@daventrydc.gov.uk,Daventry,http://www.daventrydc.gov.uk,-1.15771200000000,NN11 0QB,2014-08-05,fhrs_5_en-GB,5,,FHRS,0
51123,11 Market Place,Long Buckby,Northamptonshire,,Verdes Sandwich Shop,Restaurant/Cafe/Canteen,1,5,,171110,5,,52.30266300000000,PI/000019557,236,healthimprovement@daventrydc.gov.uk,Daventry,http://www.daventrydc.gov.uk,-1.08070000000000,NN6 7RR,2013-09-18,fhrs_5_en-GB,5,,FHRS,5
51124,The Old School,Main Street,Marston Trussell,Northamptonshire,Village Hall,Other catering premises,7841,,,166881,,,52.46690800000000,PI/000010382,236,healthimprovement@daventrydc.gov.uk,Daventry,http://www.daventrydc.gov.uk,-0.98289700000000,LE16 9TY,2014-04-16,fhrs_exempt_en-GB,Exempt,,FHRS,
51125,20 Station Road,Woodford Halse,Northamptonshire,,VILLAGE MEATS,Retailers - other,4613,5,,169132,5,,52.16927600000000,PI/000014497,236,healthimprovement@daventrydc.gov.uk,Daventry,http://www.daventrydc.gov.uk,-1.20953400000000,NN11 3RB,2013-03-11,fhrs_5_en-GB,5,,FHRS,5
51126,25 High Street,Braunston,Northamptonshire,,VILLAGE MEATS,Retailers - other,4613,5,,160870,5,,52.29163500000000,PI/000000736,236,healthimprovement@daventrydc.gov.uk,Daventry,http://www.daventrydc.gov.uk,-1.20776900000000,NN11 7HR,2014-06-06,fhrs_5_en-GB,5,,FHRS,0
51127,3 Church Street,Long Buckby,Northamptonshire,,Voujon,Restaurant/Cafe/Canteen,1,5,,166372,5,,52.30382600000000,PI/000009435,236,healthimprovement@daventrydc.gov.uk,Daventry,http://www.daventrydc.gov.uk,-1.08113000000000,NN6 7QH,2014-02-19,fhrs_5_en-GB,5,,FHRS,0
51128,128 Lincoln Way,Stefen Hill,Daventry,Northamptonshire,W A Harris (Cakes),Other catering premises,7841,10,,163436,0,,52.24881300000000,PI/000004721,236,healthimprovement@daventrydc.gov.uk,Daventry,http://www.daventrydc.gov.uk,-1.16085300000000,NN11 4SU,2014-05-01,fhrs_4_en-GB,4,,FHRS,0
51129,13 Bowen Square,Town Centre,Daventry,Northamptonshire,Waitrose Ltd,Retailers - supermarkets/hypermarkets,7840,0,,162607,0,,52.25727800000000,PI/000003236,236,healthimprovement@daventrydc.gov.uk,Daventry,http://www.daventrydc.gov.uk,-1.16163100000000,NN11 4DR,2012-05-25,fhrs_5_en-GB,5,,FHRS,0
51130,Gold Street,Walgrave,Northamptonshire,,WALGRAVE BAPTIST CHURCH,Other catering premises,7841,,,168122,,,52.34259300000000,PI/000012595,236,healthimprovement@daventrydc.gov.uk,Daventry,http://www.daventrydc.gov.uk,-0.81901100000000,NN6 9PH,2013-08-22,fhrs_exempt_en-GB,Exempt,,FHRS,
51131,Gold Street,Walgrave,Northamptonshire,,Walgrave post office,Retailers - other,4613,,,586824,,,52.34156000000000,PI/000034545,236,healthimprovement@daventrydc.gov.uk,Daventry,http://www.daventrydc.gov.uk,-0.82449900000000,NN6 9QE,2013-08-07,fhrs_exempt_en-GB,Exempt,,FHRS,
51132,Warwick Court,Warwick Street,Town Centre,Daventry,Warwick Court Communal Kitchen,Hospitals/Childcare/Caring Premises,5,5,,164256,0,,52.25688500000000,PI/000006009,236,healthimprovement@daventrydc.gov.uk,Daventry,http://www.daventrydc.gov.uk,-1.16700000000000,NN11 4XB,2013-02-13,fhrs_5_en-GB,5,,FHRS,0
51133,70-72 High Street,Town Centre,Daventry,Northamptonshire,Water Margin,Restaurant/Cafe/Canteen,1,5,,163019,0,,52.25798800000000,PI/000004086,236,healthimprovement@daventrydc.gov.uk,Daventry,http://www.daventrydc.gov.uk,-1.16281900000000,NN11 4HU,2014-04-04,fhrs_5_en-GB,5,,FHRS,5
51134,Waterloo House,Harborough Road,Great Oxendon,Northamptonshire,Waterloo Cottage Foods,Retailers - other,4613,5,,175853,5,,52.45161400000000,PI/000034272,236,healthimprovement@daventrydc.gov.uk,Daventry,http://www.daventrydc.gov.uk,-0.91005500000000,LE16 8NB,2013-12-03,fhrs_4_en-GB,4,,FHRS,10
51135,Harborough Road,Great Oxendon,Northamptonshire,,Waterloo farm leisure,Hotel/bed & breakfast/guest house,7842,10,,170142,5,,52.45161400000000,PI/000016742,236,healthimprovement@daventrydc.gov.uk,Daventry,http://www.daventrydc.gov.uk,-0.91005500000000,LE16 8NB,2013-09-02,fhrs_4_en-GB,4,,FHRS,5
51136,Main Street,Watford,Northamptonshire,,Watford Village Hall,Other catering premises,7841,0,,466325,5,,52.31332700000000,PI/000012777,236,healthimprovement@daventrydc.gov.uk,Daventry,http://www.daventrydc.gov.uk,-1.11867800000000,NN6 7UY,2012-11-05,fhrs_5_en-GB,5,,FHRS,0
51137,Long Buckby And Brington Baptist Church,Market Place,Long Buckby,Northamptonshire,WEDNESDAY CLUB,Other catering premises,7841,5,,166530,0,,,PI/000009721,236,healthimprovement@daventrydc.gov.uk,Daventry,http://www.daventrydc.gov.uk,,,2014-11-19,fhrs_5_en-GB,5,,FHRS,5
51138,West Street,Weedon,Northamptonshire,,Weedon Bec Village Hall,Other catering premises,7841,,,168531,,,52.22841800000000,PI/000013350,236,healthimprovement@daventrydc.gov.uk,Daventry,http://www.daventrydc.gov.uk,-1.08180900000000,NN7 4QU,2013-08-14,fhrs_exempt_en-GB,Exempt,,FHRS,
51139,25-27 High Street,Weedon,Northamptonshire,,WEEDON HOUSE CHINESE,Takeaway/sandwich shop,7844,10,,168338,5,,52.23361600000000,PI/000012989,236,healthimprovement@daventrydc.gov.uk,Daventry,http://www.daventrydc.gov.uk,-1.07846600000000,NN7 4QD,2014-07-17,fhrs_4_en-GB,4,,FHRS,5
51140,Helios & Co,25-27 High Street,Weedon,Northamptonshire,WEEDON HOUSE CHIP SHOP,Takeaway/sandwich shop,7844,10,,415285,0,,52.23361600000000,PI/000017231,236,healthimprovement@daventrydc.gov.uk,Daventry,http://www.daventrydc.gov.uk,-1.07846600000000,NN7 4QD,2014-01-13,fhrs_4_en-GB,4,,FHRS,0
51141,11 Church Street,Weedon,Northamptonshire,,WEEDON POST OFFICE,Retailers - other,4613,,,168272,,,52.22778400000000,PI/000012870,236,healthimprovement@daventrydc.gov.uk,Daventry,http://www.daventrydc.gov.uk,-1.07655100000000,NN7 4PL,2013-08-14,fhrs_exempt_en-GB,Exempt,,FHRS,
51142,6 Northampton Road,Welford,Northamptonshire,,WELFORD GARAGE LTD,Retailers - other,4613,5,,168625,0,,52.41463900000000,PI/000013526,236,healthimprovement@daventrydc.gov.uk,Daventry,http://www.daventrydc.gov.uk,-1.05792200000000,NN6 6HP,2013-08-07,fhrs_5_en-GB,5,,FHRS,0
51143,3 Church Lane,Welford,Northamptonshire,,Welford Hog Roast,Other catering premises,7841,5,,626228,5,,52.41663300000000,PI/000013472,236,healthimprovement@daventrydc.gov.uk,Daventry,http://www.daventrydc.gov.uk,-1.05876200000000,NN6 6HB,2013-12-03,fhrs_4_en-GB,4,,FHRS,10
51144,West Street,Welford,Northamptonshire,,Welford Village Hall,Other catering premises,7841,,,168665,,,52.41663300000000,PI/000013600,236,healthimprovement@daventrydc.gov.uk,Daventry,http://www.daventrydc.gov.uk,-1.05876200000000,NN6 6HB,2013-08-07,fhrs_exempt_en-GB,Exempt,,FHRS,
51145,5 West End,West Haddon,Northamptonshire,,WEST END STORES Londis,Retailers - other,4613,5,,168836,5,,52.34182700000000,PI/000013950,236,healthimprovement@daventrydc.gov.uk,Daventry,http://www.daventrydc.gov.uk,-1.07862600000000,NN6 7AY,2014-01-29,fhrs_5_en-GB,5,,FHRS,5
51146,36 High Street,West Haddon,Northamptonshire,,West Haddon Post Office,Retailers - other,4613,0,,168795,0,,52.34093800000000,PI/000013868,236,healthimprovement@daventrydc.gov.uk,Daventry,http://www.daventrydc.gov.uk,-1.07526800000000,NN6 7AP,2013-06-13,fhrs_5_en-GB,5,,FHRS,5
51147,Northampton Road,West Haddon,Northamptonshire,,West Haddon Sports Pavillion,Other catering premises,7841,,,168817,,,52.33894100000000,PI/000013911,236,healthimprovement@daventrydc.gov.uk,Daventry,http://www.daventrydc.gov.uk,-1.06927200000000,,2013-08-30,fhrs_exempt_en-GB,Exempt,,FHRS,
51148,Whetherdays,Bunkers Hill,Badby,Northamptonshire,Wetherdays Nurseries,Restaurant/Cafe/Canteen,1,10,,177682,0,,52.31091308593750,PI/000043305,236,healthimprovement@daventrydc.gov.uk,Daventry,http://www.daventrydc.gov.uk,-0.83607500791550,NN11 3AW,2013-07-18,fhrs_4_en-GB,4,,FHRS,0
51149,44 Sheaf Street,Town Centre,Daventry,Northamptonshire,Wheatsheaf Court Nursing Home,Hospitals/Childcare/Caring Premises,5,0,,163941,0,,52.25690800000000,PI/000005589,236,healthimprovement@daventrydc.gov.uk,Daventry,http://www.daventrydc.gov.uk,-1.16387900000000,NN11 4AB,2014-02-05,fhrs_5_en-GB,5,,FHRS,0
51150,Daventry Road,Norton,Northamptonshire,,White Horse Inn,Pub/bar/nightclub,7843,10,,578108,5,,52.26794300000000,PI/000035654,236,healthimprovement@daventrydc.gov.uk,Daventry,http://www.daventrydc.gov.uk,-1.12104300000000,NN11 2ND,2013-05-30,fhrs_4_en-GB,4,,FHRS,5
51151,High Street,Welton,Northamptonshire,,White Horse Inn,Pub/bar/nightclub,7843,5,,168733,10,,52.29018100000000,PI/000013723,236,healthimprovement@daventrydc.gov.uk,Daventry,http://www.daventrydc.gov.uk,-1.14872400000000,NN11 2JP,2014-06-06,fhrs_3_en-GB,3,,FHRS,10
51152,Walgrave Road,Old,Northamptonshire,,White Horse Inn,Pub/bar/nightclub,7843,5,,626234,5,,52.35025900000000,PI/000049276,236,healthimprovement@daventrydc.gov.uk,Daventry,http://www.daventrydc.gov.uk,-0.84607100000000,NN6 9QX,2013-10-25,fhrs_5_en-GB,5,,FHRS,5
51153,Main Street,Badby,Northamptonshire,,Windmill Inn,Hotel/bed & breakfast/guest house,7842,10,,160471,10,,52.22537700000000,PI/000000140,236,healthimprovement@daventrydc.gov.uk,Daventry,http://www.daventrydc.gov.uk,-1.18300600000000,NN11 3AN,2014-08-28,fhrs_3_en-GB,3,,FHRS,5
51154,2 Orchard Street,Drayton,Daventry,Northamptonshire,Wisla (Orchard Stores),Retailers - other,4613,10,,636182,5,,52.25851000000000,PI/000049582,236,healthimprovement@daventrydc.gov.uk,Daventry,http://www.daventrydc.gov.uk,-1.17318200000000,NN11 9EX,2014-01-27,fhrs_4_en-GB,4,,FHRS,5
51155,57 High Street,Town Centre,Daventry,Northamptonshire,Wisla Polski,Retailers - other,4613,10,,733442,0,,52.25759500000000,PI/000050586,236,healthimprovement@daventrydc.gov.uk,Daventry,http://www.daventrydc.gov.uk,-1.16322100000000,NN11 4BQ,2014-12-04,fhrs_4_en-GB,4,,FHRS,0
51156,27 Harborough Road,Maidwell,Northamptonshire,,Wisteria Cottage,Retailers - other,4613,5,,166871,0,,52.38721300000000,PI/000010359,236,healthimprovement@daventrydc.gov.uk,Daventry,http://www.daventrydc.gov.uk,-0.90592600000000,NN6 9JA,2012-02-08,fhrs_5_en-GB,5,,FHRS,0
51157,8-10 Station Road,Woodford Halse,Northamptonshire,,Woodford Dynasty - Indian Cuisine,Restaurant/Cafe/Canteen,1,10,,169144,5,,52.16927600000000,PI/000014513,236,healthimprovement@daventrydc.gov.uk,Daventry,http://www.daventrydc.gov.uk,-1.20953400000000,NN11 3RB,2013-11-14,fhrs_4_en-GB,4,,FHRS,5
51158,Woodford Halse C Of E Primary School,High Street,Woodford Halse,Northamptonshire,Woodford Halse Children's Centre,Hospitals/Childcare/Caring Premises,5,10,,674916,0,,52.17028200000000,PI/000049720,236,healthimprovement@daventrydc.gov.uk,Daventry,http://www.daventrydc.gov.uk,-1.20539300000000,NN11 3RQ,2014-05-07,fhrs_4_en-GB,4,,FHRS,0
51159,12 Church Street,Woodford Halse,Northamptonshire,,Woodford Halse Post Office,Retailers - other,4613,,,168965,,,52.17067300000000,PI/000014196,236,healthimprovement@daventrydc.gov.uk,Daventry,http://www.daventrydc.gov.uk,-1.20737400000000,NN11 3RA,2013-08-02,fhrs_exempt_en-GB,Exempt,,FHRS,
51160,29 Hinton Road,Woodford Halse,Northamptonshire,,Woodford Halse Social Club,Pub/bar/nightclub,7843,10,,169030,0,,52.16800000000000,PI/000014331,236,healthimprovement@daventrydc.gov.uk,Daventry,http://www.daventrydc.gov.uk,-1.21637000000000,NN11 3TR,2014-07-01,fhrs_4_en-GB,4,,FHRS,0
51161,50 Overstone Road,Moulton,Northamptonshire,,YOGI STORE,Retailers - other,4613,10,,167101,0,,52.28901400000000,PI/000010757,236,healthimprovement@daventrydc.gov.uk,Daventry,http://www.daventrydc.gov.uk,-0.84594700000000,NN3 7UP,2013-07-29,fhrs_4_en-GB,4,,FHRS,0
