,addressline1,addressline2,addressline3,addressline4,businessname,businesstype,businesstypeid,confidenceinmanagement,extractdate,fhrsid,hygiene,itemcount,latitude,localauthoritybusinessid,localauthoritycode,localauthorityemailaddress,localauthorityname,localauthoritywebsite,longitude,postcode,ratingdate,ratingkey,ratingvalue,returncode,schemetype,structural
59787,,Newlands Shopping Centre,Kettering,Northamptonshire,99p Stores Ltd,Retailers - other,4613,10,,77360,10,,52.40021400000000,18158,238,fhrs@kettering.gov.uk,Kettering,http://www.kettering.gov.uk,-0.72891600000000,NN16 8HJ,2013-05-31,fhrs_4_en-GB,4,,FHRS,0
59788,,15 Queen Street,Geddington,Northamptonshire,A Country Garden Tea Room,Restaurant/Cafe/Canteen,1,10,,70074,5,,52.43558500000000,15853,238,fhrs@kettering.gov.uk,Kettering,http://www.kettering.gov.uk,-0.68871000000000,NN14 1AZ,2014-03-24,fhrs_4_en-GB,4,,FHRS,5
59789,,Cranford Hall,Cranford,Northamptonshire,A Country Kitchen,Restaurant/Cafe/Canteen,1,5,,70057,0,,52.38582300000000,15848,238,fhrs@kettering.gov.uk,Kettering,http://www.kettering.gov.uk,-0.64340000000000,NN14 4AL,2011-05-12,fhrs_5_en-GB,5,,FHRS,0
59790,,,,,A Country Kitchen,Other catering premises,7841,10,,69874,10,,,15790,238,fhrs@kettering.gov.uk,Kettering,http://www.kettering.gov.uk,,,2008-04-11,fhrs_3_en-GB,3,,FHRS,10
59791,,7 Cromwell Road,Kettering,Northamptonshire,A Rossi and Partners,Manufacturers/packers,7839,5,,115610,5,,52.39885700000000,448,238,fhrs@kettering.gov.uk,Kettering,http://www.kettering.gov.uk,-0.73143900000000,NN16 8DG,2014-03-31,fhrs_5_en-GB,5,,FHRS,5
59792,,Gold Street,Kettering,Northamptonshire,A. Rossi & Partners,Mobile caterer,7846,5,,111871,10,,52.40057600000000,4118,238,fhrs@kettering.gov.uk,Kettering,http://www.kettering.gov.uk,-0.72662700000000,NN16 8JB,2010-04-16,fhrs_4_en-GB,4,,FHRS,5
59793,,Dalkeith Place,Kettering,Northamptonshire,Abacus & Attica & B-Lo,Pub/bar/nightclub,7843,5,,56162,5,,52.39940300000000,12686,238,fhrs@kettering.gov.uk,Kettering,http://www.kettering.gov.uk,-0.72616100000000,NN16 0BS,2008-10-02,fhrs_5_en-GB,5,,FHRS,5
59794,Sarnia House,86 Rockingham Road,Kettering,Northamptonshire,Abbeyfield Society (UK),Hospitals/Childcare/Caring Premises,5,5,,110415,5,,52.40725500000000,401,238,fhrs@kettering.gov.uk,Kettering,http://www.kettering.gov.uk,-0.72731700000000,NN16 9AD,2013-01-03,fhrs_5_en-GB,5,,FHRS,5
59795,Barton Seagrave Primary,Belvoir Drive,Barton Seagrave,Northamptonshire,Acorn @ Barton Seagrave,Other catering premises,7841,,,733050,,,52.38039400000000,19537,238,fhrs@kettering.gov.uk,Kettering,http://www.kettering.gov.uk,-0.69222600000000,NN15 6QY,2014-11-12,fhrs_exempt_en-GB,Exempt,,FHRS,
59796,Barton Seagrave Primary School,Belvoir Drive,Barton Seagrave,Northamptonshire,Acorn at Barton Seagrave Primary School,School/college/university,7845,5,,69370,5,,52.38039400000000,15590,238,fhrs@kettering.gov.uk,Kettering,http://www.kettering.gov.uk,-0.69222600000000,NN15 6QY,2008-03-10,fhrs_5_en-GB,5,,FHRS,5
59797,Meadowside Infants School,Park Road,Burton Latimer,Northamptonshire,Acorn Breakfast & After School Club,School/college/university,7845,5,,61830,5,,52.36255800000000,13614,238,fhrs@kettering.gov.uk,Kettering,http://www.kettering.gov.uk,-0.68583600000000,NN15 5QY,2008-10-06,fhrs_5_en-GB,5,,FHRS,5
59798,Burton Park,Polwell Lane,Burton Latimer,Northamptonshire,Acorn Day Nursery,Hospitals/Childcare/Caring Premises,5,0,,64718,0,,52.36676000000000,14438,238,fhrs@kettering.gov.uk,Kettering,http://www.kettering.gov.uk,-0.69022000000000,NN15 5PS,2013-07-31,fhrs_5_en-GB,5,,FHRS,5
59799,,191 Havelock Street,Kettering,Northamptonshire,Agape Annexe,Hospitals/Childcare/Caring Premises,5,5,,144268,5,,52.40738500000000,8270,238,fhrs@kettering.gov.uk,Kettering,http://www.kettering.gov.uk,-0.71937500000000,NN16 9QB,2011-09-02,fhrs_4_en-GB,4,,FHRS,10
59800,,155 King Street,Kettering,Northamptonshire,Agape Homes,Hospitals/Childcare/Caring Premises,5,10,,127423,5,,52.40534100000000,5670,238,fhrs@kettering.gov.uk,Kettering,http://www.kettering.gov.uk,-0.72158000000000,NN16 8QR,2011-08-30,fhrs_3_en-GB,3,,FHRS,10
59801,,9 St. Stephens Road,Kettering,Northamptonshire,Al Amin Balti House,Takeaway/sandwich shop,7844,10,,143458,5,,52.39524700000000,8089,238,fhrs@kettering.gov.uk,Kettering,http://www.kettering.gov.uk,-0.68974400000000,NN15 5DS,2013-08-12,fhrs_4_en-GB,4,,FHRS,5
59802,Unit 7 Aldi  Food Store,Carina Road,Kettering,Northamptonshire,Aldi Stores GMBH,Retailers - supermarkets/hypermarkets,7840,5,,132004,5,,52.37486300000000,636,238,fhrs@kettering.gov.uk,Kettering,http://www.kettering.gov.uk,-0.71914000000000,NN15 6YA,2008-06-24,fhrs_5_en-GB,5,,FHRS,5
59803,,39 Victoria Street,Kettering,Northamptonshire,Alexandra Arms,Pub/bar/nightclub,7843,10,,41247,10,,52.40006500000000,10237,238,fhrs@kettering.gov.uk,Kettering,http://www.kettering.gov.uk,-0.72260000000000,NN16 0BU,2014-12-23,fhrs_2_en-GB,2,,FHRS,15
59804,Carey Baptist Church,Nelson Street,Kettering,Northamptonshire,All Sorts Pre-School Playgroup,Hospitals/Childcare/Caring Premises,5,5,,63872,0,,52.40489100000000,14106,238,fhrs@kettering.gov.uk,Kettering,http://www.kettering.gov.uk,-0.71991700000000,NN16 8QL,2012-07-13,fhrs_5_en-GB,5,,FHRS,5
59805,,,,,All things Food,Other catering premises,7841,5,,648820,0,,,19356,238,fhrs@kettering.gov.uk,Kettering,http://www.kettering.gov.uk,,,2014-03-06,fhrs_5_en-GB,5,,FHRS,0
59806,,51 Wood Street,Kettering,Northamptonshire,Allans Stores,Retailers - other,4613,10,,129347,5,,52.40628000000000,600,238,fhrs@kettering.gov.uk,Kettering,http://www.kettering.gov.uk,-0.72527200000000,NN16 9SG,2014-01-06,fhrs_4_en-GB,4,,FHRS,5
59807,,,,,Ana's Cakes,Other catering premises,7841,5,,626782,5,,,19260,238,fhrs@kettering.gov.uk,Kettering,http://www.kettering.gov.uk,,,2014-01-09,fhrs_5_en-GB,5,,FHRS,5
59808,St Clements Court,Highfield Road,Kettering,Northamptonshire,Anchor Trust,Retailers - other,4613,5,,73442,5,,52.38583700000000,16885,238,fhrs@kettering.gov.uk,Kettering,http://www.kettering.gov.uk,-0.72380400000000,NN15 6HW,2011-03-08,fhrs_5_en-GB,5,,FHRS,5
59809,,,,,Angels Horn,Mobile caterer,7846,10,,122150,10,,,5071,238,fhrs@kettering.gov.uk,Kettering,http://www.kettering.gov.uk,,,2009-05-18,fhrs_3_en-GB,3,,FHRS,10
59810,,113 London Road,Kettering,Northamptonshire,Angels Nursery Ltd,Hospitals/Childcare/Caring Premises,5,0,,146399,0,,52.39306400000000,8915,238,fhrs@kettering.gov.uk,Kettering,http://www.kettering.gov.uk,-0.72200800000000,NN15 7PH,2013-07-12,fhrs_5_en-GB,5,,FHRS,5
59811,,16 Station Road,Desborough,Northamptonshire,Anisa Spice ltd,Takeaway/sandwich shop,7844,5,,432640,0,,52.44253200000000,18320,238,fhrs@kettering.gov.uk,Kettering,http://www.kettering.gov.uk,-0.81990100000000,NN14 2RL,2014-10-03,fhrs_5_en-GB,5,,FHRS,0
59812,,,,,Ann Stockham,Other catering premises,7841,5,,432650,5,,,18444,238,fhrs@kettering.gov.uk,Kettering,http://www.kettering.gov.uk,,,2012-04-27,fhrs_5_en-GB,5,,FHRS,5
59813,,,,,AP Cakes,Other catering premises,7841,5,,371928,0,,,18290,238,fhrs@kettering.gov.uk,Kettering,http://www.kettering.gov.uk,,,2012-02-29,fhrs_5_en-GB,5,,FHRS,5
59814,,161 High Street,Burton Latimer,Northamptonshire,Apple Tree Day Nurseries (BL) Ltd,Hospitals/Childcare/Caring Premises,5,0,,61855,0,,52.36201300000000,13622,238,fhrs@kettering.gov.uk,Kettering,http://www.kettering.gov.uk,-0.67886200000000,NN15 5RL,2013-07-31,fhrs_5_en-GB,5,,FHRS,5
59815,East Lea St Marys Primary School,High Street,Burton Latimer,Northamptonshire,Apple Tree Day PresSchool and  Out of School Club,Hospitals/Childcare/Caring Premises,5,5,,77069,5,,52.36201300000000,18023,238,fhrs@kettering.gov.uk,Kettering,http://www.kettering.gov.uk,-0.67886200000000,NN15 5RL,2012-11-12,fhrs_5_en-GB,5,,FHRS,5
59816,,23 Scott Road,Kettering,Northamptonshire,Apple Tree Nurseries (Kettering) Ltd,Hospitals/Childcare/Caring Premises,5,5,,150168,5,,52.41283100000000,9749,238,fhrs@kettering.gov.uk,Kettering,http://www.kettering.gov.uk,-0.71751100000000,NN16 9JX,2014-10-10,fhrs_5_en-GB,5,,FHRS,0
59817,,8 Argyll Street,Kettering,Northamptonshire,Argyll Club,Pub/bar/nightclub,7843,5,,81513,5,,52.39228100000000,199,238,fhrs@kettering.gov.uk,Kettering,http://www.kettering.gov.uk,-0.72438200000000,NN15 7HG,2008-06-19,fhrs_5_en-GB,5,,FHRS,5
59818,,36 Stamford Road,Kettering,Northamptonshire,Arman Bros,Retailers - other,4613,5,,72872,10,,52.40262800000000,16631,238,fhrs@kettering.gov.uk,Kettering,http://www.kettering.gov.uk,-0.71679300000000,NN16 8LH,2014-01-07,fhrs_4_en-GB,4,,FHRS,5
59819,,,,,Artisan Cuisine Ltd,Other catering premises,7841,5,,452301,5,,,18590,238,fhrs@kettering.gov.uk,Kettering,http://www.kettering.gov.uk,,,2012-09-14,fhrs_5_en-GB,5,,FHRS,5
59820,7 Moorfields Farm Workshops,Warkton Lane,Warkton,Northamptonshire,Artisans Pantry (Artisan Cuisine Ltd),Takeaway/sandwich shop,7844,0,,73607,0,,52.41041800000000,16949,238,fhrs@kettering.gov.uk,Kettering,http://www.kettering.gov.uk,-0.68933900000000,NN16 9XJ,2010-04-01,fhrs_5_en-GB,5,,FHRS,5
59821,,Northfield Avenue,Kettering,Northamptonshire,Asda,Retailers - supermarkets/hypermarkets,7840,0,,74748,0,,52.41034800000000,17296,238,fhrs@kettering.gov.uk,Kettering,http://www.kettering.gov.uk,-0.73149100000000,NN16 9HU,2010-11-29,fhrs_5_en-GB,5,,FHRS,0
59822,,Northfield Avenue,Kettering,Northamptonshire,Asda Customer Cafe (compass),Restaurant/Cafe/Canteen,1,0,,75252,0,,,17527,238,fhrs@kettering.gov.uk,Kettering,http://www.kettering.gov.uk,,NN16 8HU,2012-06-19,fhrs_5_en-GB,5,,FHRS,0
59823,,Reservoir Road,Kettering,Northamptonshire,Ashley Court,Hospitals/Childcare/Caring Premises,5,5,,51848,0,,52.41035700000000,11652,238,fhrs@kettering.gov.uk,Kettering,http://www.kettering.gov.uk,-0.72565400000000,NN16 9QT,2014-08-29,fhrs_5_en-GB,5,,FHRS,0
59824,,45 Main Street,Ashley,Northamptonshire,Ashley Herb Farm and Butchers & Farm Shop,Retailers - other,4613,5,,68567,5,,52.51027400000000,15332,238,fhrs@kettering.gov.uk,Kettering,http://www.kettering.gov.uk,-0.82616300000000,LE16 8HG,2013-09-12,fhrs_5_en-GB,5,,FHRS,5
59825,Kettering General Hospital,Rothwell Road,Kettering,Northamptonshire,Aspens Coffee Shop,Restaurant/Cafe/Canteen,1,0,,139669,0,,52.40279200000000,7546,238,fhrs@kettering.gov.uk,Kettering,http://www.kettering.gov.uk,-0.74130700000000,NN16 8UZ,2015-01-14,fhrs_5_en-GB,5,,FHRS,5
59826,Kettering General Hospital,Rothwell Road,Kettering,Northamptonshire,Aspens Too,Restaurant/Cafe/Canteen,1,0,,371914,0,,52.40279200000000,18114,238,fhrs@kettering.gov.uk,Kettering,http://www.kettering.gov.uk,-0.74130700000000,NN16 8UZ,2013-04-23,fhrs_5_en-GB,5,,FHRS,0
59827,,234 Windmill Avenue,Kettering,Northamptonshire,Atlantis Fish Bar,Takeaway/sandwich shop,7844,10,,74591,5,,52.39431100000000,17231,238,fhrs@kettering.gov.uk,Kettering,http://www.kettering.gov.uk,-0.71258100000000,NN15 7DG,2014-11-10,fhrs_4_en-GB,4,,FHRS,5
59828,,14-15 Market Street,Kettering,Northamptonshire,Aura Bar,Pub/bar/nightclub,7843,5,,715523,5,,,19510,238,fhrs@kettering.gov.uk,Kettering,http://www.kettering.gov.uk,,NN16 OAH,2014-10-28,fhrs_5_en-GB,5,,FHRS,5
59829,,113 Avondale Road,Kettering,Northamptonshire,Avondale Fish Bar,Takeaway/sandwich shop,7844,10,,113751,10,,52.40574400000000,4275,238,fhrs@kettering.gov.uk,Kettering,http://www.kettering.gov.uk,-0.71402700000000,NN16 8PL,2014-01-09,fhrs_3_en-GB,3,,FHRS,10
59830,,165 Avondale Road,Kettering,Northamptonshire,"Avondale News, Food and Wine",Retailers - other,4613,10,,371943,5,,52.40551200000000,582,238,fhrs@kettering.gov.uk,Kettering,http://www.kettering.gov.uk,-0.71247600000000,NN16 8PN,2014-01-06,fhrs_4_en-GB,4,,FHRS,5
59831,Montsaye School,Greening Road,Rothwell,Northamptonshire,Aztec F.C.,Restaurant/Cafe/Canteen,1,5,,134879,5,,52.42425500000000,6839,238,fhrs@kettering.gov.uk,Kettering,http://www.kettering.gov.uk,-0.81096300000000,NN14 6BB,2008-02-15,fhrs_5_en-GB,5,,FHRS,5
59832,,,,,B A Evans,Other catering premises,7841,5,,432656,5,,,18451,238,fhrs@kettering.gov.uk,Kettering,http://www.kettering.gov.uk,,,2012-05-18,fhrs_5_en-GB,5,,FHRS,5
59833,,103 Rockingham Road,Kettering,Northamptonshire,B R Naclewat,Retailers - other,4613,5,,66677,10,,52.40601300000000,14973,238,fhrs@kettering.gov.uk,Kettering,http://www.kettering.gov.uk,-0.72722000000000,NN16 9HX,2007-08-08,fhrs_4_en-GB,4,,FHRS,5
59834,,24 High Street,Kettering,Northamptonshire,Baguettaway,Takeaway/sandwich shop,7844,5,,148939,0,,52.39853300000000,9481,238,fhrs@kettering.gov.uk,Kettering,http://www.kettering.gov.uk,-0.72806700000000,NN16 8ST,2014-03-28,fhrs_5_en-GB,5,,FHRS,5
59835,,,,,Baking From The Heart,Other catering premises,7841,5,,75702,5,,,17728,238,fhrs@kettering.gov.uk,Kettering,http://www.kettering.gov.uk,,,2011-02-28,fhrs_5_en-GB,5,,FHRS,0
59836,,64 Stamford Road,Kettering,Northamptonshire,Bann Thai,Restaurant/Cafe/Canteen,1,5,,618913,0,,52.38826500000000,19057,238,fhrs@kettering.gov.uk,Kettering,http://www.kettering.gov.uk,-0.72050100000000,NN15 6EA,2013-11-11,fhrs_5_en-GB,5,,FHRS,5
59837,,3 Silver Street,Kettering,Northamptonshire,Bar Sun,Pub/bar/nightclub,7843,10,,42098,5,,52.40033600000000,104,238,fhrs@kettering.gov.uk,Kettering,http://www.kettering.gov.uk,-0.72604600000000,NN16 0BN,2009-12-07,fhrs_3_en-GB,3,,FHRS,10
59838,,13 Belvoir Drive,Barton Seagrave,Northamptonshire,Barton Chippy,Takeaway/sandwich shop,7844,10,,63171,10,,52.37872700000000,13998,238,fhrs@kettering.gov.uk,Kettering,http://www.kettering.gov.uk,-0.69099700000000,NN15 6QZ,2014-08-07,fhrs_3_en-GB,3,,FHRS,10
59839,Barton Hall,Barton Road,Barton Seagrave,Northamptonshire,Barton Hall Ltd,Hotel/bed & breakfast/guest house,7842,5,,494269,0,,52.38659300000000,18566,238,fhrs@kettering.gov.uk,Kettering,http://www.kettering.gov.uk,-0.69743600000000,NN15 6SG,2012-12-21,fhrs_5_en-GB,5,,FHRS,5
59840,,Castle Way,Barton Seagrave,Northamptonshire,Barton Seagrave Community Cntr,Other catering premises,7841,5,,148615,5,,52.38263900000000,94,238,fhrs@kettering.gov.uk,Kettering,http://www.kettering.gov.uk,-0.69683200000000,NN15 6ST,2008-06-12,fhrs_4_en-GB,4,,FHRS,10
59841,,Belvoir Drive,Barton Seagrave,Northamptonshire,Barton Seagrave Primary School,School/college/university,7845,5,,77271,5,,52.38039400000000,18117,238,fhrs@kettering.gov.uk,Kettering,http://www.kettering.gov.uk,-0.69222600000000,NN15 6QY,2013-04-29,fhrs_5_en-GB,5,,FHRS,5
59842,,8 Gipsy Lane,Kettering,Northamptonshire,Beaumont Nursing Home,Hospitals/Childcare/Caring Premises,5,10,,53628,5,,52.39670300000000,12076,238,fhrs@kettering.gov.uk,Kettering,http://www.kettering.gov.uk,-0.74020100000000,NN16 8TY,2014-02-03,fhrs_4_en-GB,4,,FHRS,5
59843,,,,,Becca's Cakes,Other catering premises,7841,5,,494286,5,,,3272,238,fhrs@kettering.gov.uk,Kettering,http://www.kettering.gov.uk,,,2012-12-03,fhrs_5_en-GB,5,,FHRS,5
59844,,,,,Becky's Bakes,Other catering premises,7841,5,,683033,0,,,19491,238,fhrs@kettering.gov.uk,Kettering,http://www.kettering.gov.uk,,,2014-07-03,fhrs_5_en-GB,5,,FHRS,0
59845,,1-7 Beech Close,Desborough,Northamptonshire,Beeches,Hospitals/Childcare/Caring Premises,5,0,,55054,0,,52.43889500000000,12418,238,fhrs@kettering.gov.uk,Kettering,http://www.kettering.gov.uk,-0.82127800000000,NN14 2XQ,2013-04-30,fhrs_5_en-GB,5,,FHRS,5
59846,,53 Montagu Street,Kettering,Northamptonshire,Bella Sicilia,Restaurant/Cafe/Canteen,1,0,,61235,5,,52.40184700000000,13428,238,fhrs@kettering.gov.uk,Kettering,http://www.kettering.gov.uk,-0.72191600000000,NN16 8XQ,2011-08-04,fhrs_5_en-GB,5,,FHRS,0
59847,,Victoria Street,Desborough,Northamptonshire,Benels Club,Pub/bar/nightclub,7843,10,,70188,5,,52.44133300000000,159,238,fhrs@kettering.gov.uk,Kettering,http://www.kettering.gov.uk,-0.81956600000000,NN14 2LX,2011-09-07,fhrs_3_en-GB,3,,FHRS,10
59848,,42 Rockingham Road,Kettering,Northamptonshire,Berardi Ristorante,Restaurant/Cafe/Canteen,1,5,,64750,5,,52.40337800000000,14455,238,fhrs@kettering.gov.uk,Kettering,http://www.kettering.gov.uk,-0.72629700000000,NN16 8JS,2014-09-03,fhrs_5_en-GB,5,,FHRS,5
59849,,83 High Street,Desborough,Northamptonshire,Best Kebab and Pizza,Takeaway/sandwich shop,7844,0,,648825,0,,52.44226900000000,19382,238,fhrs@kettering.gov.uk,Kettering,http://www.kettering.gov.uk,-0.82143800000000,NN14 2ND,2014-04-07,fhrs_5_en-GB,5,,FHRS,0
59850,,147 Rockingham Road,Kettering,Northamptonshire,Bestone News and Booze,Retailers - other,4613,5,,132109,5,,52.40907300000000,638,238,fhrs@kettering.gov.uk,Kettering,http://www.kettering.gov.uk,-0.72914600000000,NN16 9JA,2008-11-24,fhrs_5_en-GB,5,,FHRS,5
59851,Unit 1 and 2 St Andrew's Retai,Eskdaill Street,Kettering,Northamptonshire,Bestpol Delicatessen,Retailers - other,4613,10,,570289,10,,52.40228000000000,18292,238,fhrs@kettering.gov.uk,Kettering,http://www.kettering.gov.uk,-0.72368200000000,NN16 8RA,2013-07-09,fhrs_3_en-GB,3,,FHRS,10
59852,Orton House,Harrington Road,Rothwell,Northamptonshire,Bettercare Keys Ltd,Hospitals/Childcare/Caring Premises,5,5,,69718,5,,52.41997000000000,15728,238,fhrs@kettering.gov.uk,Kettering,http://www.kettering.gov.uk,-0.80781300000000,NN14 6AP,2008-09-29,fhrs_5_en-GB,5,,FHRS,5
59853,,34-36 High Street,Kettering,Northamptonshire,Bewiched,Restaurant/Cafe/Canteen,1,10,,452297,5,,52.39883600000000,18477,238,fhrs@kettering.gov.uk,Kettering,http://www.kettering.gov.uk,-0.72861700000000,NN16 8SU,2014-03-10,fhrs_3_en-GB,3,,FHRS,10
59854,,1 Bignal Court,Kettering,Northamptonshire,Bignal Fish and Chips,Takeaway/sandwich shop,7844,5,,683021,5,,52.39148400000000,19390,238,fhrs@kettering.gov.uk,Kettering,http://www.kettering.gov.uk,-0.74655100000000,NN15 7RH,2014-04-24,fhrs_5_en-GB,5,,FHRS,5
59855,,,,,Birch Brownies,Other catering premises,7841,0,,74705,0,,,17277,238,fhrs@kettering.gov.uk,Kettering,http://www.kettering.gov.uk,,,2010-05-12,fhrs_5_en-GB,5,,FHRS,0
59856,,,,,Bonkers Cakes,Other catering premises,7841,5,,494283,5,,,18763,238,fhrs@kettering.gov.uk,Kettering,http://www.kettering.gov.uk,,,2012-12-18,fhrs_5_en-GB,5,,FHRS,5
59857,,,,,Bonnie Reed,Other catering premises,7841,5,,432654,5,,,18448,238,fhrs@kettering.gov.uk,Kettering,http://www.kettering.gov.uk,,,2012-02-17,fhrs_5_en-GB,5,,FHRS,5
59858,,16 Montagu Street,Kettering,Northamptonshire,Boston Diners,Restaurant/Cafe/Canteen,1,20,,62734,15,,52.40107500000000,13877,238,fhrs@kettering.gov.uk,Kettering,http://www.kettering.gov.uk,-0.72451100000000,NN16 8RU,2014-05-29,fhrs_1_en-GB,1,,FHRS,10
59859,,12a Market Street,Kettering,Northamptonshire,Bostons Brew,Retailers - other,4613,,,715533,,,52.39827200000000,19646,238,fhrs@kettering.gov.uk,Kettering,http://www.kettering.gov.uk,-0.72717800000000,NN16 0AH,2014-11-06,fhrs_exempt_en-GB,Exempt,,FHRS,
59860,,110 Finedon Road,Burton Latimer,Northamptonshire,Bosworths Garden Centre,Restaurant/Cafe/Canteen,1,5,,88561,0,,52.35577600000000,2327,238,fhrs@kettering.gov.uk,Kettering,http://www.kettering.gov.uk,-0.68313000000000,NN15 5QA,2014-12-23,fhrs_5_en-GB,5,,FHRS,5
59861,Brambleside Community Primary,Cleveland Avenue,Kettering,Northamptonshire,Brambleside Community Primary School,School/college/university,7845,5,,130833,5,,52.41820900000000,6217,238,fhrs@kettering.gov.uk,Kettering,http://www.kettering.gov.uk,-0.72010500000000,NN16 9NZ,2013-04-30,fhrs_5_en-GB,5,,FHRS,5
59862,Braybrooke Primary School,Church Close,Braybrooke,Northamptonshire,Braybrooke Primary School,School/college/university,7845,5,,150572,0,,52.45481000000000,9860,238,fhrs@kettering.gov.uk,Kettering,http://www.kettering.gov.uk,-0.87874800000000,LE16 8LD,2012-07-19,fhrs_5_en-GB,5,,FHRS,5
59863,,,,,Breakfast To Go,Other catering premises,7841,5,,570295,10,,,19021,238,fhrs@kettering.gov.uk,Kettering,http://www.kettering.gov.uk,,,2013-07-02,fhrs_4_en-GB,4,,FHRS,5
59864,Telford Lodge,Rothwell Road,Kettering,Northamptonshire,Brewers Fayre / Premier Travel Inn,Restaurant/Cafe/Canteen,1,5,,106185,5,,52.41187500000000,368,238,fhrs@kettering.gov.uk,Kettering,http://www.kettering.gov.uk,-0.76883500000000,NN16 8XF,2014-06-23,fhrs_4_en-GB,4,,FHRS,10
59865,,,,,Brian Neale Sweets,Retailers - other,4613,10,,618922,0,,,9006,238,fhrs@kettering.gov.uk,Kettering,http://www.kettering.gov.uk,,,2013-11-25,fhrs_4_en-GB,4,,FHRS,0
59866,,Newman Street,Burton Latimer,Northamptonshire,Britannia Working Mens Club,Pub/bar/nightclub,7843,5,,80975,5,,52.36111200000000,197,238,fhrs@kettering.gov.uk,Kettering,http://www.kettering.gov.uk,-0.68035700000000,NN15 5SH,2008-07-11,fhrs_5_en-GB,5,,FHRS,5
59867,,1 Broadway,Kettering,Northamptonshire,Broadway Stores,Retailers - other,4613,10,,64678,5,,52.39307000000000,14420,238,fhrs@kettering.gov.uk,Kettering,http://www.kettering.gov.uk,-0.72422700000000,NN15 6DD,2014-01-06,fhrs_4_en-GB,4,,FHRS,0
59868,,28 Kingsley Avenue,Kettering,Northamptonshire,Brooklyn House,Hotel/bed & breakfast/guest house,7842,5,,638078,5,,52.41234400000000,19341,238,fhrs@kettering.gov.uk,Kettering,http://www.kettering.gov.uk,-0.72739100000000,NN16 9EU,2014-02-28,fhrs_5_en-GB,5,,FHRS,5
59869,Brookside,Green Lane,Braybrooke,Northamptonshire,Brookside Residential Home,Hospitals/Childcare/Caring Premises,5,5,,74577,0,,52.45077700000000,17228,238,fhrs@kettering.gov.uk,Kettering,http://www.kettering.gov.uk,-0.87540700000000,LE16 8LQ,2014-11-25,fhrs_5_en-GB,5,,FHRS,0
59870,St Marys C Of E Va Primary School,Fuller Street,Kettering,Northamptonshire,Brookwood Partnership @ St Marys CEVA Primary School,School/college/university,7845,5,,552331,5,,52.40168600000000,18912,238,fhrs@kettering.gov.uk,Kettering,http://www.kettering.gov.uk,-0.71538000000000,NN16 0JH,2013-03-26,fhrs_5_en-GB,5,,FHRS,5
59871,,27 High Street,Broughton,Northamptonshire,Broughton & Cransley WMC,Pub/bar/nightclub,7843,5,,78283,5,,52.37452600000000,186,238,fhrs@kettering.gov.uk,Kettering,http://www.kettering.gov.uk,-0.77553000000000,NN14 1NF,2008-07-09,fhrs_5_en-GB,5,,FHRS,5
59872,,19a High Street,Broughton,Northamptonshire,Broughton Fish and Chips,Takeaway/sandwich shop,7844,5,,432636,5,,52.37452600000000,17671,238,fhrs@kettering.gov.uk,Kettering,http://www.kettering.gov.uk,-0.77553000000000,NN14 1NF,2015-01-26,fhrs_5_en-GB,5,,FHRS,0
59873,Broughton Primary School,Cransley Hill,Broughton,Northamptonshire,Broughton Primary School,School/college/university,7845,5,,105240,5,,52.37540100000000,3613,238,fhrs@kettering.gov.uk,Kettering,http://www.kettering.gov.uk,-0.77756200000000,NN14 1NB,2014-11-04,fhrs_5_en-GB,5,,FHRS,5
59874,,Violet lane,Glendon,Northamptonshire,Bruno Cottage,Hospitals/Childcare/Caring Premises,5,5,,75972,5,,52.41452200000000,17848,238,fhrs@kettering.gov.uk,Kettering,http://www.kettering.gov.uk,-0.75630800000000,NN14 1QL,2013-02-15,fhrs_5_en-GB,5,,FHRS,5
59875,,2 Bryant Road,Kettering,Northamptonshire,Bryant Road Stores,Retailers - other,4613,10,,132984,10,,52.38510400000000,653,238,fhrs@kettering.gov.uk,Kettering,http://www.kettering.gov.uk,-0.71669900000000,NN15 6JF,2014-10-06,fhrs_3_en-GB,3,,FHRS,10
59876,,57 Gotch Road,Barton Seagrave,Northamptonshire,Budgens Stores,Retailers - supermarkets/hypermarkets,7840,10,,54720,5,,52.37578100000000,12338,238,fhrs@kettering.gov.uk,Kettering,http://www.kettering.gov.uk,-0.69701900000000,NN15 6UF,2014-11-25,fhrs_3_en-GB,3,,FHRS,10
59877,,52 High Street,Burton Latimer,Northamptonshire,Burton Inn,Takeaway/sandwich shop,7844,20,,122348,15,,52.36436300000000,509,238,fhrs@kettering.gov.uk,Kettering,http://www.kettering.gov.uk,-0.67842400000000,NN15 5LB,2012-11-30,fhrs_1_en-GB,1,,FHRS,15
59878,,143 High Street,Burton Latimer,Northamptonshire,Burton Latimer Band Club,Pub/bar/nightclub,7843,5,,80746,5,,52.36201300000000,196,238,fhrs@kettering.gov.uk,Kettering,http://www.kettering.gov.uk,-0.67886200000000,NN15 5RL,2005-08-18,fhrs_4_en-GB,4,,FHRS,10
59879,Recreation Ground,Pioneer Avenue,Burton Latimer,Northamptonshire,Burton Latimer Community Centre,Other catering premises,7841,5,,148253,5,,52.36492700000000,93,238,fhrs@kettering.gov.uk,Kettering,http://www.kettering.gov.uk,-0.68162300000000,,2008-07-01,fhrs_5_en-GB,5,,FHRS,5
59880,,4 Church Street,Burton Latimer,Northamptonshire,Burton Latimer Conservative & Unionist Club Ltd,Pub/bar/nightclub,7843,5,,80226,5,,52.36601600000000,194,238,fhrs@kettering.gov.uk,Kettering,http://www.kettering.gov.uk,-0.67426300000000,NN15 5LU,2005-11-03,fhrs_5_en-GB,5,,FHRS,5
59881,,Kettering Road,Burton Latimer,Northamptonshire,Burton Latimer Cricket Club,Pub/bar/nightclub,7843,5,,147092,5,,52.36627800000000,91,238,fhrs@kettering.gov.uk,Kettering,http://www.kettering.gov.uk,-0.68002700000000,NN15 5LP,2008-10-06,fhrs_5_en-GB,5,,FHRS,5
59882,Site Of Bowls Pavillion,Churchill Way,Burton Latimer,Northamptonshire,Burton Latimer Town Bowls Club,Pub/bar/nightclub,7843,5,,146650,5,,52.36401400000000,90,238,fhrs@kettering.gov.uk,Kettering,http://www.kettering.gov.uk,-0.68100500000000,NN15 5RX,2006-09-18,fhrs_5_en-GB,5,,FHRS,5
59883,,Polwell Lane,Burton Latimer,Northamptonshire,Burton Park Wanderers FC,Pub/bar/nightclub,7843,10,,81219,10,,52.36676000000000,198,238,fhrs@kettering.gov.uk,Kettering,http://www.kettering.gov.uk,-0.69022000000000,NN15 5PS,2013-11-29,fhrs_3_en-GB,3,,FHRS,5
59884,Stoke Albany Village Hall,Green Lane,Stoke Albany,Northamptonshire,Busy Bees Playgroup,Hospitals/Childcare/Caring Premises,5,0,,71002,0,,52.48587300000000,16066,238,fhrs@kettering.gov.uk,Kettering,http://www.kettering.gov.uk,-0.81435300000000,LE16 8PZ,2014-11-07,fhrs_5_en-GB,5,,FHRS,5
59885,,Lamport Close,Kettering,Northamptonshire,Busy Bees Trading Ltd,Hospitals/Childcare/Caring Premises,5,0,,138387,0,,52.37612500000000,7369,238,fhrs@kettering.gov.uk,Kettering,http://www.kettering.gov.uk,-0.71698800000000,NN15 6XY,2015-01-20,fhrs_5_en-GB,5,,FHRS,0
59886,,,,,Buttercream,Other catering premises,7841,5,,77196,5,,,18086,238,fhrs@kettering.gov.uk,Kettering,http://www.kettering.gov.uk,,,2011-11-09,fhrs_5_en-GB,5,,FHRS,5
59887,,55 Field Street,Kettering,Northamptonshire,C C Catering,Retailers - other,4613,10,,494278,0,,52.40409100000000,18653,238,fhrs@kettering.gov.uk,Kettering,http://www.kettering.gov.uk,-0.72992200000000,NN16 8EN,2012-10-22,fhrs_4_en-GB,4,,FHRS,10
59888,,,,,C C Catering,Other catering premises,7841,5,,77180,5,,,18076,238,fhrs@kettering.gov.uk,Kettering,http://www.kettering.gov.uk,,,2013-04-03,fhrs_5_en-GB,5,,FHRS,5
59889,,11 Silver Street,Kettering,Northamptonshire,Cafe CULTURE,Restaurant/Cafe/Canteen,1,5,,64092,5,,52.40033600000000,14181,238,fhrs@kettering.gov.uk,Kettering,http://www.kettering.gov.uk,-0.72604600000000,NN16 0BN,2012-10-22,fhrs_5_en-GB,5,,FHRS,5
59890,,99 Rockingham Road,Kettering,Northamptonshire,Cafe Europa,Restaurant/Cafe/Canteen,1,5,,125496,5,,52.40601300000000,54,238,fhrs@kettering.gov.uk,Kettering,http://www.kettering.gov.uk,-0.72722000000000,NN16 9HX,2013-02-04,fhrs_5_en-GB,5,,FHRS,5
59891,,29 Gold Street,Kettering,Northamptonshire,Cafe Express,Restaurant/Cafe/Canteen,1,10,,648823,10,,52.40057600000000,19374,238,fhrs@kettering.gov.uk,Kettering,http://www.kettering.gov.uk,-0.72662700000000,NN16 8JB,2014-03-25,fhrs_4_en-GB,4,,FHRS,0
59892,,,,,Cake A licious,Other catering premises,7841,5,,73175,5,,,16771,238,fhrs@kettering.gov.uk,Kettering,http://www.kettering.gov.uk,,,2009-10-30,fhrs_4_en-GB,4,,FHRS,10
59893,,,,,Cake It Or Leave It,Other catering premises,7841,5,,570298,5,,,19055,238,fhrs@kettering.gov.uk,Kettering,http://www.kettering.gov.uk,,,2013-07-17,fhrs_5_en-GB,5,,FHRS,5
59894,,9 St Chads Close,Kettering,Northamptonshire,Cakes by Cara,Other catering premises,7841,5,,715522,5,,52.39310700000000,19507,238,fhrs@kettering.gov.uk,Kettering,http://www.kettering.gov.uk,-0.69379000000000,NN15 5HU,2014-10-21,fhrs_5_en-GB,5,,FHRS,5
59895,,,,,Cakes by Cheylene,Other catering premises,7841,,,683022,,,,19395,238,fhrs@kettering.gov.uk,Kettering,http://www.kettering.gov.uk,,,2014-05-12,fhrs_exempt_en-GB,Exempt,,FHRS,
59896,,,,,Cakes by Lucia,Other catering premises,7841,0,,607050,5,,,18584,238,fhrs@kettering.gov.uk,Kettering,http://www.kettering.gov.uk,,,2013-09-10,fhrs_5_en-GB,5,,FHRS,5
59897,,,,,Cakes by Nicole,Other catering premises,7841,5,,75080,5,,,17448,238,fhrs@kettering.gov.uk,Kettering,http://www.kettering.gov.uk,,,2011-02-09,fhrs_5_en-GB,5,,FHRS,0
59898,,37 Gold Street,Kettering,Northamptonshire,Card Factory,Retailers - other,4613,10,,432635,0,,52.40146600000000,12516,238,fhrs@kettering.gov.uk,Kettering,http://www.kettering.gov.uk,-0.72741000000000,NN16 8JL,2012-07-11,fhrs_4_en-GB,4,,FHRS,0
59899,,,,,Carla Roberts Nature and Nuture Childminding,Hospitals/Childcare/Caring Premises,5,5,,683019,5,,,19330,238,fhrs@kettering.gov.uk,Kettering,http://www.kettering.gov.uk,,,2014-04-15,fhrs_5_en-GB,5,,FHRS,5
59900,,76 St. Botolphs Road,Kettering,Northamptonshire,Castle House,Hospitals/Childcare/Caring Premises,5,5,,114992,5,,52.38319700000000,441,238,fhrs@kettering.gov.uk,Kettering,http://www.kettering.gov.uk,-0.69853500000000,NN15 6SS,2009-05-08,fhrs_5_en-GB,5,,FHRS,5
59901,Bishop Stopford C Of E School,Headlands,Kettering,Northamptonshire,Cater Link Ltd,School/college/university,7845,0,,75041,0,,52.38565100000000,17421,238,fhrs@kettering.gov.uk,Kettering,http://www.kettering.gov.uk,-0.72739400000000,NN15 6BJ,2012-06-21,fhrs_5_en-GB,5,,FHRS,0
59902,,73 Brambleside,Kettering,Northamptonshire,Chans Cantonese Take Away,Takeaway/sandwich shop,7844,10,,118268,5,,52.41675300000000,476,238,fhrs@kettering.gov.uk,Kettering,http://www.kettering.gov.uk,-0.72020600000000,NN16 9BP,2014-09-16,fhrs_4_en-GB,4,,FHRS,5
59903,,236 Windmill Avenue,Kettering,Northamptonshire,Chapmans Grocers,Retailers - other,4613,10,,65703,10,,52.39331000000000,14791,238,fhrs@kettering.gov.uk,Kettering,http://www.kettering.gov.uk,-0.71236000000000,NN15 7DQ,2012-11-27,fhrs_3_en-GB,3,,FHRS,10
59904,,,,,Charlie Brown Cupcakes and More,Other catering premises,7841,5,,505103,5,,,18813,238,fhrs@kettering.gov.uk,Kettering,http://www.kettering.gov.uk,,,2013-01-24,fhrs_5_en-GB,5,,FHRS,5
59905,,Harrington Road,Desborough,Northamptonshire,Cheeney Court Care Home,Hospitals/Childcare/Caring Premises,5,10,,64464,10,,52.44295400000000,14330,238,fhrs@kettering.gov.uk,Kettering,http://www.kettering.gov.uk,-0.82621600000000,NN14 2NH,2013-10-25,fhrs_3_en-GB,3,,FHRS,10
59906,Unit 1 Restaurant Quarter,Market Place,Kettering,Northamptonshire,Chimichanga,Restaurant/Cafe/Canteen,1,5,,618911,0,,52.39702600000000,19019,238,fhrs@kettering.gov.uk,Kettering,http://www.kettering.gov.uk,-0.72753800000000,NN16 0AQ,2013-11-01,fhrs_5_en-GB,5,,FHRS,5
59907,,,,,Chocapop,Other catering premises,7841,10,,76322,5,,,17980,238,fhrs@kettering.gov.uk,Kettering,http://www.kettering.gov.uk,,,2011-06-29,fhrs_4_en-GB,4,,FHRS,5
59908,,,,,Chris Corney Hogroast,Other catering premises,7841,10,,77158,5,,,18066,238,fhrs@kettering.gov.uk,Kettering,http://www.kettering.gov.uk,,,2013-07-25,fhrs_3_en-GB,3,,FHRS,10
59909,Christ The King Church,Deeble Road,Kettering,Northamptonshire,Christ the King Church,Other catering premises,7841,5,,81482,5,,52.39734300000000,1989,238,fhrs@kettering.gov.uk,Kettering,http://www.kettering.gov.uk,-0.71030300000000,NN15 7AA,2014-10-13,fhrs_5_en-GB,5,,FHRS,0
59910,,,,,Christine Holiday,Other catering premises,7841,0,,446100,0,,,18439,238,fhrs@kettering.gov.uk,Kettering,http://www.kettering.gov.uk,,,2012-04-24,fhrs_5_en-GB,5,,FHRS,0
59911,,,,,Christine Young.,Other catering premises,7841,5,,432645,5,,,18438,238,fhrs@kettering.gov.uk,Kettering,http://www.kettering.gov.uk,,,2012-04-24,fhrs_5_en-GB,5,,FHRS,5
59912,Chrysler Garage,Bayes Street,Kettering,Northamptonshire,Chrysler Garage,Retailers - other,4613,5,,55061,5,,52.40236300000000,1242,238,fhrs@kettering.gov.uk,Kettering,http://www.kettering.gov.uk,-0.73053000000000,NN16 8HR,2008-11-03,fhrs_5_en-GB,5,,FHRS,5
59913,Church Farm,High Street,Harrington,Northamptonshire,Church Farm Lodge,Hotel/bed & breakfast/guest house,7842,5,,43532,5,,52.41400200000000,10592,238,fhrs@kettering.gov.uk,Kettering,http://www.kettering.gov.uk,-0.85902300000000,NN6 9NT,2014-10-06,fhrs_5_en-GB,5,,FHRS,5
59914,,252 Bath Road,Kettering,Northamptonshire,Chu's Fish and Chips,Takeaway/sandwich shop,7844,5,,55232,0,,52.40982200000000,12467,238,fhrs@kettering.gov.uk,Kettering,http://www.kettering.gov.uk,-0.71858400000000,NN16 9LY,2011-06-22,fhrs_5_en-GB,5,,FHRS,0
59915,,,,,Claire Attley cakes,Other catering premises,7841,5,,579427,0,,,19078,238,fhrs@kettering.gov.uk,Kettering,http://www.kettering.gov.uk,,,2013-08-08,fhrs_5_en-GB,5,,FHRS,0
59916,Claremont Parkway Nursing Home,Pytchley Road,Kettering,Northamptonshire,Claremont Parkway Nursing Home,Hospitals/Childcare/Caring Premises,5,10,,118016,0,,52.37703800000000,4734,238,fhrs@kettering.gov.uk,Kettering,http://www.kettering.gov.uk,-0.71655100000000,NN15 6XE,2014-03-04,fhrs_4_en-GB,4,,FHRS,5
59917,,9 Barnwell Court,Mawsley,Northamptonshire,Coffee at Number 9,Restaurant/Cafe/Canteen,1,5,,452299,5,,52.37494100000000,18586,238,fhrs@kettering.gov.uk,Kettering,http://www.kettering.gov.uk,-0.81093600000000,NN14 1FG,2014-03-17,fhrs_5_en-GB,5,,FHRS,5
59918,,,,,Colettes Cakes and Cookie Creations,Other catering premises,7841,5,,75135,5,,,17470,238,fhrs@kettering.gov.uk,Kettering,http://www.kettering.gov.uk,,,2013-08-15,fhrs_5_en-GB,5,,FHRS,5
59919,,175 Polwell Lane,Kettering,Northamptonshire,Community Childrens Home,Hospitals/Childcare/Caring Premises,5,5,,119170,5,,52.37513400000000,4842,238,fhrs@kettering.gov.uk,Kettering,http://www.kettering.gov.uk,-0.69457000000000,NN15 6TE,2009-05-08,fhrs_5_en-GB,5,,FHRS,5
59920,,11 Queensberry Road,Kettering,Northamptonshire,Community Room,Other catering premises,7841,5,,54582,5,,52.39321400000000,12305,238,fhrs@kettering.gov.uk,Kettering,http://www.kettering.gov.uk,-0.72920500000000,NN15 7HL,2004-07-29,fhrs_5_en-GB,5,,FHRS,5
59921,The Henley Centre,Saunders Close,Kettering,Northamptonshire,Community Services,Other catering premises,7841,10,,505105,5,,52.39676700000000,3449,238,fhrs@kettering.gov.uk,Kettering,http://www.kettering.gov.uk,-0.73022000000000,NN16 0AP,2006-06-20,fhrs_4_en-GB,4,,FHRS,5
59922,Magnolia House,183-185 Rockingham Road,Kettering,Northamptonshire,Consensus Henson Court,Hospitals/Childcare/Caring Premises,5,5,,124429,5,,52.40907300000000,5294,238,fhrs@kettering.gov.uk,Kettering,http://www.kettering.gov.uk,-0.72914600000000,NN16 9JA,2012-04-19,fhrs_5_en-GB,5,,FHRS,5
59923,The Willands,121 Station Road,Burton Latimer,Northamptonshire,Consensus Support,Hospitals/Childcare/Caring Premises,5,5,,66521,5,,52.36541800000000,14955,238,fhrs@kettering.gov.uk,Kettering,http://www.kettering.gov.uk,-0.68677900000000,NN15 5PA,2010-06-17,fhrs_5_en-GB,5,,FHRS,5
59924,,78 Polwell Lane,Barton Seagrave,Northamptonshire,Consensus Support (HR Care),Hospitals/Childcare/Caring Premises,5,5,,68671,5,,52.37806100000000,15363,238,fhrs@kettering.gov.uk,Kettering,http://www.kettering.gov.uk,-0.69665800000000,NN15 6UB,2008-02-14,fhrs_5_en-GB,5,,FHRS,5
59925,,,,,Cookie Crazy,Other catering premises,7841,5,,537969,0,,,18924,238,fhrs@kettering.gov.uk,Kettering,http://www.kettering.gov.uk,,,2013-04-04,fhrs_5_en-GB,5,,FHRS,0
59926,,1 Northampton Road,Broughton,Northamptonshire,Corner Stores,Retailers - other,4613,10,,131228,5,,52.37074600000000,626,238,fhrs@kettering.gov.uk,Kettering,http://www.kettering.gov.uk,-0.77777900000000,NN14 1NR,2014-05-14,fhrs_4_en-GB,4,,FHRS,5
59927,,22 Montagu Street,Kettering,Northamptonshire,Cortado,Restaurant/Cafe/Canteen,1,5,,61336,5,,52.40107500000000,13461,238,fhrs@kettering.gov.uk,Kettering,http://www.kettering.gov.uk,-0.72451100000000,NN16 8RU,2014-02-03,fhrs_4_en-GB,4,,FHRS,10
59928,,32 High Street,Kettering,Northamptonshire,Costa Coffee,Restaurant/Cafe/Canteen,1,10,,494273,5,,52.39853300000000,18595,238,fhrs@kettering.gov.uk,Kettering,http://www.kettering.gov.uk,-0.72806700000000,NN16 8ST,2014-06-11,fhrs_3_en-GB,3,,FHRS,10
59929,,22 Gold Street,Kettering,Northamptonshire,Costa Coffee,Restaurant/Cafe/Canteen,1,5,,71795,0,,52.40057600000000,16317,238,fhrs@kettering.gov.uk,Kettering,http://www.kettering.gov.uk,-0.72662700000000,NN16 8JB,2014-08-29,fhrs_4_en-GB,4,,FHRS,10
59930,Tesco,Carina Road,Kettering,Northamptonshire,Costa Coffee,Restaurant/Cafe/Canteen,1,0,,71434,0,,52.37659700000000,16205,238,fhrs@kettering.gov.uk,Kettering,http://www.kettering.gov.uk,-0.72152900000000,NN15 6XB,2012-05-18,fhrs_5_en-GB,5,,FHRS,0
59931,,39 Broadlands,Desborough,Northamptonshire,Costcutter,Retailers - other,4613,10,,62711,5,,52.43808100000000,13867,238,fhrs@kettering.gov.uk,Kettering,http://www.kettering.gov.uk,-0.80726600000000,NN14 2TH,2013-03-08,fhrs_4_en-GB,4,,FHRS,5
59932,Corn Market Hall,London Road,Kettering,Northamptonshire,Country Fayre Ltd,Other catering premises,7841,5,,50863,5,,52.39577500000000,11347,238,fhrs@kettering.gov.uk,Kettering,http://www.kettering.gov.uk,-0.72494300000000,NN15 7QA,2008-07-10,fhrs_5_en-GB,5,,FHRS,5
59933,,Warkton Road,Kettering,Northamptonshire,Country View Nursing Home,Hospitals/Childcare/Caring Premises,5,5,,139644,10,,52.41260800000000,7542,238,fhrs@kettering.gov.uk,Kettering,http://www.kettering.gov.uk,-0.69711100000000,NN16 9XQ,2014-03-07,fhrs_4_en-GB,4,,FHRS,5
59934,St  Marys Hospital,77 London Road,Kettering,Northamptonshire,Cransley Hospice,Hospitals/Childcare/Caring Premises,5,0,,143162,0,,52.39410900000000,8035,238,fhrs@kettering.gov.uk,Kettering,http://www.kettering.gov.uk,-0.72221300000000,NN15 7PW,2008-06-05,fhrs_5_en-GB,5,,FHRS,0
59935,,Unit 2 Horsemarket,Kettering,Northamptonshire,Cransley Hospice Coffee Shop,Restaurant/Cafe/Canteen,1,5,,432642,5,,52.39881200000000,18372,238,fhrs@kettering.gov.uk,Kettering,http://www.kettering.gov.uk,-0.72645700000000,NN16 0DG,2013-11-29,fhrs_5_en-GB,5,,FHRS,0
59936,,,,,Cransley Hospice Coffee Shop Home Baker,Other catering premises,7841,5,,371931,5,,,18336,238,fhrs@kettering.gov.uk,Kettering,http://www.kettering.gov.uk,,,2012-03-15,fhrs_5_en-GB,5,,FHRS,5
59937,,,,,Crazy Cakes,Other catering premises,7841,10,,56197,0,,,12696,238,fhrs@kettering.gov.uk,Kettering,http://www.kettering.gov.uk,,,2011-05-09,fhrs_4_en-GB,4,,FHRS,0
59938,,,,,crazy daisy cake company,Other catering premises,7841,5,,71975,5,,,16375,238,fhrs@kettering.gov.uk,Kettering,http://www.kettering.gov.uk,,,2009-04-16,fhrs_5_en-GB,5,,FHRS,5
59939,Kettering General Hospital,Rothwell Road,Kettering,Northamptonshire,Crazy Hats Cafe,Restaurant/Cafe/Canteen,1,5,,68014,5,,52.40279200000000,15203,238,fhrs@kettering.gov.uk,Kettering,http://www.kettering.gov.uk,-0.74130700000000,NN16 8UZ,2008-02-29,fhrs_5_en-GB,5,,FHRS,5
59940,,,,,Creative Cuisine,Other catering premises,7841,10,,75878,5,,,17805,238,fhrs@kettering.gov.uk,Kettering,http://www.kettering.gov.uk,,,2013-04-23,fhrs_4_en-GB,4,,FHRS,0
59941,The Crescents Community Centre,Laburnum Crescent,Kettering,Northamptonshire,Crescents Community Centre,Other catering premises,7841,5,,140879,5,,52.40656500000000,77,238,fhrs@kettering.gov.uk,Kettering,http://www.kettering.gov.uk,-0.71093100000000,NN16 9PH,2008-06-30,fhrs_5_en-GB,5,,FHRS,5
59942,,23 Station Road,Desborough,Northamptonshire,Crumbs,Retailers - other,4613,10,,136274,10,,52.44253200000000,7051,238,fhrs@kettering.gov.uk,Kettering,http://www.kettering.gov.uk,-0.81990100000000,NN14 2RL,2014-07-04,fhrs_3_en-GB,3,,FHRS,10
59943,,16 Churchill Way,Burton Latimer,Northamptonshire,Crumbs,Restaurant/Cafe/Canteen,1,10,,50152,5,,52.36436300000000,11160,238,fhrs@kettering.gov.uk,Kettering,http://www.kettering.gov.uk,-0.68084800000000,NN15 5RU,2014-09-05,fhrs_4_en-GB,4,,FHRS,5
59944,,,,,Cupcake De-Lish by Mrs Smith,Other catering premises,7841,10,,537970,0,,,18928,238,fhrs@kettering.gov.uk,Kettering,http://www.kettering.gov.uk,,,2013-04-12,fhrs_4_en-GB,4,,FHRS,0
59945,,,,,Cupcakecokiewhoopido,Other catering premises,7841,0,,77467,0,,,18205,238,fhrs@kettering.gov.uk,Kettering,http://www.kettering.gov.uk,,,2011-11-29,fhrs_5_en-GB,5,,FHRS,5
59946,,,,,Daffodil Catering,Other catering premises,7841,10,,570290,10,,,18473,238,fhrs@kettering.gov.uk,Kettering,http://www.kettering.gov.uk,,,2013-06-25,fhrs_3_en-GB,3,,FHRS,10
59947,,24 New Street,Rothwell,Northamptonshire,Daffodil Catering/Victoria's Oven,Other catering premises,7841,5,,715524,5,,52.42387900000000,19562,238,fhrs@kettering.gov.uk,Kettering,http://www.kettering.gov.uk,-0.79872200000000,NN14 6EU,2014-09-29,fhrs_5_en-GB,5,,FHRS,5
59948,,10-11 Dalkeith Place,Kettering,Northamptonshire,Dalkeith Convenience Stores,Retailers - other,4613,10,,87525,10,,52.39940300000000,2265,238,fhrs@kettering.gov.uk,Kettering,http://www.kettering.gov.uk,-0.72616100000000,NN16 0BS,2013-07-15,fhrs_3_en-GB,3,,FHRS,5
59949,,7 Bell Hill,Rothwell,Northamptonshire,Danny's Pizza,Takeaway/sandwich shop,7844,10,,117170,5,,52.42307100000000,464,238,fhrs@kettering.gov.uk,Kettering,http://www.kettering.gov.uk,-0.79886200000000,NN14 6ET,2013-08-13,fhrs_3_en-GB,3,,FHRS,10
59950,,,,,Debra Bickle,Other catering premises,7841,5,,432646,5,,,18440,238,fhrs@kettering.gov.uk,Kettering,http://www.kettering.gov.uk,,,2012-04-24,fhrs_5_en-GB,5,,FHRS,5
59951,The Angel,8 Carrington Street,Kettering,Northamptonshire,Decades and Steps,Pub/bar/nightclub,7843,5,,74396,5,,52.39939000000000,17143,238,fhrs@kettering.gov.uk,Kettering,http://www.kettering.gov.uk,-0.72416300000000,NN16 0BY,2011-10-02,fhrs_4_en-GB,4,,FHRS,10
59952,,Victoria Street,Desborough,Northamptonshire,Desborough Conservative Club,Pub/bar/nightclub,7843,5,,69903,0,,52.44133300000000,158,238,fhrs@kettering.gov.uk,Kettering,http://www.kettering.gov.uk,-0.81956600000000,NN14 2LX,2011-07-29,fhrs_5_en-GB,5,,FHRS,0
59953,,68 Station Road,Desborough,Northamptonshire,Desborough Fish Bar,Takeaway/sandwich shop,7844,10,,149149,5,,52.44346100000000,9522,238,fhrs@kettering.gov.uk,Kettering,http://www.kettering.gov.uk,-0.81836100000000,NN14 2RS,2014-03-18,fhrs_4_en-GB,4,,FHRS,5
59954,,35 High Street (rear of),Desborough,Northamptonshire,Desborough Indoor Bowls Club,Pub/bar/nightclub,7843,5,,69642,5,,52.44133500000000,157,238,fhrs@kettering.gov.uk,Kettering,http://www.kettering.gov.uk,-0.82064000000000,NN14 2NB,2012-10-23,fhrs_5_en-GB,5,,FHRS,0
59955,Travellodge,Harborough Road,Desborough,Northamptonshire,Desborough Island Hotel,Hotel/bed & breakfast/guest house,7842,0,,61979,0,,52.45716400000000,13654,238,fhrs@kettering.gov.uk,Kettering,http://www.kettering.gov.uk,-0.83483100000000,NN14 2UG,2007-09-17,fhrs_5_en-GB,5,,FHRS,0
59956,,Lower Street,Desborough,Northamptonshire,Desborough Services Club,Pub/bar/nightclub,7843,10,,69399,5,,52.43994500000000,156,238,fhrs@kettering.gov.uk,Kettering,http://www.kettering.gov.uk,-0.82101500000000,NN14 2NP,2008-06-25,fhrs_4_en-GB,4,,FHRS,5
59957,Desborough Library,High Street,Desborough,Northamptonshire,Desborough Surestart Childrens Centre,Other catering premises,7841,5,,715538,5,,52.44161300000000,19676,238,fhrs@kettering.gov.uk,Kettering,http://www.kettering.gov.uk,-0.82153000000000,NN14 2QS,2014-11-03,fhrs_5_en-GB,5,,FHRS,5
59958,Recreation Ground,Dunkirk Avenue,Desborough,Northamptonshire,Desborough Town Bowls Club,Pub/bar/nightclub,7843,5,,68428,5,,52.44128400000000,153,238,fhrs@kettering.gov.uk,Kettering,http://www.kettering.gov.uk,-0.80659100000000,NN14 2PR,2011-09-07,fhrs_5_en-GB,5,,FHRS,5
59959,Dingley Lodge,47 Harborough Road,Brampton Ash,Northamptonshire,Dingley Lodge,Hotel/bed & breakfast/guest house,7842,5,,73714,5,,52.48099100000000,17,238,fhrs@kettering.gov.uk,Kettering,http://www.kettering.gov.uk,-0.87322300000000,LE16 8PJ,2011-05-04,fhrs_5_en-GB,5,,FHRS,5
59960,Midland Band Club,Hallwood Road,Kettering,Northamptonshire,Di's Kitchen,Pub/bar/nightclub,7843,10,,715536,5,,52.41149700000000,19655,238,fhrs@kettering.gov.uk,Kettering,http://www.kettering.gov.uk,-0.72213700000000,NN16 9RG,2014-10-21,fhrs_4_en-GB,4,,FHRS,5
59961,Belgrave Retail UK,Northfield Avenue,Kettering,Northamptonshire,Discount UK,Retailers - other,4613,5,,77295,0,,52.40289400000000,18129,238,fhrs@kettering.gov.uk,Kettering,http://www.kettering.gov.uk,-0.73648200000000,NN16 9TS,2011-10-18,fhrs_5_en-GB,5,,FHRS,0
59962,,58 Rockingham Road,Kettering,Northamptonshire,Domino's Pizza,Takeaway/sandwich shop,7844,5,,130367,5,,52.40431500000000,6153,238,fhrs@kettering.gov.uk,Kettering,http://www.kettering.gov.uk,-0.72653400000000,NN16 8JT,2013-01-10,fhrs_5_en-GB,5,,FHRS,5
59963,,,,,Door Step Sandwiches,Other catering premises,7841,10,,618915,5,,,19111,238,fhrs@kettering.gov.uk,Kettering,http://www.kettering.gov.uk,,,2013-11-25,fhrs_4_en-GB,4,,FHRS,5
59964,,,,,Doreen Hancock,Other catering premises,7841,5,,432649,5,,,18443,238,fhrs@kettering.gov.uk,Kettering,http://www.kettering.gov.uk,,,2012-04-19,fhrs_5_en-GB,5,,FHRS,5
59965,,,,,Doreen May Foulds,Other catering premises,7841,10,,371910,0,,,18054,238,fhrs@kettering.gov.uk,Kettering,http://www.kettering.gov.uk,,,2012-01-18,fhrs_4_en-GB,4,,FHRS,5
59966,The Crescents Community Centre,Laburnum Crescent,Kettering,Northamptonshire,Dostiyo Asian Community Org,Other catering premises,7841,10,,371927,5,,52.40656500000000,18288,238,fhrs@kettering.gov.uk,Kettering,http://www.kettering.gov.uk,-0.71093100000000,NN16 9PH,2012-02-02,fhrs_4_en-GB,4,,FHRS,5
59967,"Dovecote Buttery And Farm Shop, Dovecote Farm",Newton,Kettering,Northamptonshire,Dovecote Buttery & Farm Shop,Restaurant/Cafe/Canteen,1,5,,51906,5,,52.44176600000000,11666,238,fhrs@kettering.gov.uk,Kettering,http://www.kettering.gov.uk,-0.70538700000000,NN14 1BW,2014-03-31,fhrs_5_en-GB,5,,FHRS,5
59968,,79 High Street,Desborough,Northamptonshire,Dragon City Ltd,Takeaway/sandwich shop,7844,0,,71897,0,,52.44133500000000,16345,238,fhrs@kettering.gov.uk,Kettering,http://www.kettering.gov.uk,-0.82064000000000,NN14 2NB,2009-05-13,fhrs_5_en-GB,5,,FHRS,5
59969,Stanier Retail Park,Northfield Avenue,Kettering,Northamptonshire,Dunelm Soft Furnishings Ltd,Restaurant/Cafe/Canteen,1,0,,494272,0,,52.40451000000000,18572,238,fhrs@kettering.gov.uk,Kettering,http://www.kettering.gov.uk,-0.73624500000000,NN16 9XW,2012-11-09,fhrs_5_en-GB,5,,FHRS,5
59970,,13/15 Dalkeith Place,Kettering,Northamptonshire,Earl of Dalkeith,Pub/bar/nightclub,7843,0,,120369,5,,52.39940300000000,4934,238,fhrs@kettering.gov.uk,Kettering,http://www.kettering.gov.uk,-0.72616100000000,NN16 0BS,2013-11-14,fhrs_5_en-GB,5,,FHRS,0
59971,,21 Montagu Street,Kettering,Northamptonshire,Eden Centre,Other catering premises,7841,10,,494262,5,,52.40139600000000,16099,238,fhrs@kettering.gov.uk,Kettering,http://www.kettering.gov.uk,-0.72422200000000,NN16 8XG,2013-06-19,fhrs_3_en-GB,3,,FHRS,10
59972,,,,,Eileen Althorpe,Other catering premises,7841,10,,371908,5,,,18052,238,fhrs@kettering.gov.uk,Kettering,http://www.kettering.gov.uk,,,2012-01-18,fhrs_4_en-GB,4,,FHRS,5
59973,,,,,Elinor Brien,Other catering premises,7841,0,,74708,0,,,17278,238,fhrs@kettering.gov.uk,Kettering,http://www.kettering.gov.uk,,,2010-05-18,fhrs_5_en-GB,5,,FHRS,0
59974,Elm Bank Day Centre,Northampton Road,Kettering,Northamptonshire,Elm Bank Care Home,Hospitals/Childcare/Caring Premises,5,5,,71050,0,,52.39545400000000,16083,238,fhrs@kettering.gov.uk,Kettering,http://www.kettering.gov.uk,-0.73770900000000,NN15 7JZ,2013-03-14,fhrs_5_en-GB,5,,FHRS,0
59975,Elm House,81 Northampton Road,Kettering,Northamptonshire,Elmbank Care Home,Hospitals/Childcare/Caring Premises,5,5,,715535,5,,52.39598200000000,19654,238,fhrs@kettering.gov.uk,Kettering,http://www.kettering.gov.uk,-0.73080100000000,NN15 7JU,2014-10-27,fhrs_5_en-GB,5,,FHRS,5
59976,,Kettering Road,Rothwell,Northamptonshire,ESSO Rothwell,Retailers - other,4613,0,,683029,0,,52.41447700000000,19443,238,fhrs@kettering.gov.uk,Kettering,http://www.kettering.gov.uk,-0.79006800000000,NN14 1SS,2014-06-05,fhrs_5_en-GB,5,,FHRS,0
59977,,,,,Ettere Vellucci,Mobile caterer,7846,5,,145152,5,,,8527,238,fhrs@kettering.gov.uk,Kettering,http://www.kettering.gov.uk,,,2007-09-13,fhrs_5_en-GB,5,,FHRS,5
59978,Weetabix Ltd,Station Road,Burton Latimer,Northamptonshire,Eurest at Weetabix Canteen,Restaurant/Cafe/Canteen,1,,,89666,,,52.36453700000000,2405,238,fhrs@kettering.gov.uk,Kettering,http://www.kettering.gov.uk,-0.69566100000000,NN15 5JR,2014-03-18,fhrs_exempt_en-GB,Exempt,,FHRS,
59979,,Lindsay Street,Kettering,Northamptonshire,Euro Discount,Retailers - other,4613,10,,70211,15,,52.40314200000000,15904,238,fhrs@kettering.gov.uk,Kettering,http://www.kettering.gov.uk,-0.72358400000000,NN16 8RG,2013-08-01,fhrs_2_en-GB,2,,FHRS,10
59980,North Kettering Business Park,Weekley Wood Lane,Kettering,Northamptonshire,Eurogarage,Retailers - other,4613,10,,683034,5,,52.42566600000000,19495,238,fhrs@kettering.gov.uk,Kettering,http://www.kettering.gov.uk,-0.72715400000000,NN14 1UE,2014-07-07,fhrs_4_en-GB,4,,FHRS,5
59981,North Kettering Park,Weekley Wood Lane,Kettering,Northamptonshire,Eurogarage,Restaurant/Cafe/Canteen,1,5,,696163,5,,52.42566600000000,19542,238,fhrs@kettering.gov.uk,Kettering,http://www.kettering.gov.uk,-0.72715400000000,NN14 1UE,2014-07-07,fhrs_5_en-GB,5,,FHRS,5
59982,Eveden Ltd,Rothwell Road,Desborough,Northamptonshire,Eveden Ltd,Restaurant/Cafe/Canteen,1,,,116196,,,52.43805900000000,4538,238,fhrs@kettering.gov.uk,Kettering,http://www.kettering.gov.uk,-0.82305100000000,NN14 2PG,2014-10-28,fhrs_exempt_en-GB,Exempt,,FHRS,
59983,,,,,Excel Services,Mobile caterer,7846,5,,72671,5,,,16562,238,fhrs@kettering.gov.uk,Kettering,http://www.kettering.gov.uk,,,2009-06-25,fhrs_5_en-GB,5,,FHRS,5
59984,,3 Newland Street,Kettering,Northamptonshire,Exotic Dining Ltd,Restaurant/Cafe/Canteen,1,5,,74981,5,,52.40158300000000,17401,238,fhrs@kettering.gov.uk,Kettering,http://www.kettering.gov.uk,-0.72573100000000,NN16 8JH,2014-03-26,fhrs_5_en-GB,5,,FHRS,5
59985,Sunley Court,Pipers Hill Road,Kettering,Northamptonshire,Extra Care Charitable Trust,Hospitals/Childcare/Caring Premises,5,0,,143455,0,,52.39305900000000,8088,238,fhrs@kettering.gov.uk,Kettering,http://www.kettering.gov.uk,-0.71984800000000,NN15 7RJ,2014-12-23,fhrs_5_en-GB,5,,FHRS,5
59986,,80 High Street,Broughton,Northamptonshire,Far East,Takeaway/sandwich shop,7844,5,,579422,5,,52.37568100000000,18769,238,fhrs@kettering.gov.uk,Kettering,http://www.kettering.gov.uk,-0.77513100000000,NN14 1NQ,2013-08-15,fhrs_4_en-GB,4,,FHRS,10
59987,,,,,Fardy's,Mobile caterer,7846,5,,61930,5,,,13643,238,fhrs@kettering.gov.uk,Kettering,http://www.kettering.gov.uk,,,2007-10-26,fhrs_4_en-GB,4,,FHRS,10
59988,,51 Northall Street,Kettering,Northamptonshire,Farmfoods Freezer Centre,Retailers - supermarkets/hypermarkets,7840,5,,139758,5,,52.40205600000000,7559,238,fhrs@kettering.gov.uk,Kettering,http://www.kettering.gov.uk,-0.73046500000000,NN16 8DS,2006-03-29,fhrs_5_en-GB,5,,FHRS,5
59989,,36 Montagu Street,Kettering,Northamptonshire,Feast,Restaurant/Cafe/Canteen,1,10,,74572,10,,52.40107500000000,17224,238,fhrs@kettering.gov.uk,Kettering,http://www.kettering.gov.uk,-0.72451100000000,NN16 8RU,2013-10-16,fhrs_3_en-GB,3,,FHRS,10
59990,Latimer School,Castle Way,Kettering,Northamptonshire,FEAST,Other catering premises,7841,0,,71249,0,,52.38136500000000,16145,238,fhrs@kettering.gov.uk,Kettering,http://www.kettering.gov.uk,-0.69303500000000,NN15 6SW,2008-11-24,fhrs_5_en-GB,5,,FHRS,0
59991,Padders,Kettering Parkway East,Kettering,Northamptonshire,Feel Good Cafe,Restaurant/Cafe/Canteen,1,10,,55828,10,,52.37426800000000,12602,238,fhrs@kettering.gov.uk,Kettering,http://www.kettering.gov.uk,-0.70987300000000,NN15 6WY,2013-10-14,fhrs_4_en-GB,4,,FHRS,0
59992,,36 Wellington Street,Kettering,Northamptonshire,Fei's Happy Garden Chinese Takeaway,Takeaway/sandwich shop,7844,10,,77252,5,,52.40325500000000,18109,238,fhrs@kettering.gov.uk,Kettering,http://www.kettering.gov.uk,-0.72156700000000,NN16 8RQ,2014-08-14,fhrs_4_en-GB,4,,FHRS,5
59993,,21 Station Road,Desborough,Northamptonshire,Flaherty and Foye,Retailers - other,4613,5,,570299,5,,52.44253200000000,896,238,fhrs@kettering.gov.uk,Kettering,http://www.kettering.gov.uk,-0.81990100000000,NN14 2RL,2013-07-09,fhrs_5_en-GB,5,,FHRS,5
59994,,56 Rockingham Road,Kettering.,Northamptonshire,Flames Grill,Takeaway/sandwich shop,7844,10,,452303,10,,52.40431500000000,18604,238,fhrs@kettering.gov.uk,Kettering,http://www.kettering.gov.uk,-0.72653400000000,NN16 8JT,2014-03-17,fhrs_3_en-GB,3,,FHRS,5
59995,,,,,Flips Fabulous Cakes,Other catering premises,7841,5,,71797,5,,,16319,238,fhrs@kettering.gov.uk,Kettering,http://www.kettering.gov.uk,,,2009-03-17,fhrs_4_en-GB,4,,FHRS,10
59996,,,,,Fondant Fancies,Other catering premises,7841,10,,52867,5,,,11970,238,fhrs@kettering.gov.uk,Kettering,http://www.kettering.gov.uk,,,2011-05-11,fhrs_4_en-GB,4,,FHRS,5
59997,Four Seasons Day Centre,School Lane,Kettering,Northamptonshire,Four Seasons,Other catering premises,7841,5,,114832,5,,52.40029600000000,44,238,fhrs@kettering.gov.uk,Kettering,http://www.kettering.gov.uk,-0.72396000000000,NN16 0DH,2014-06-25,fhrs_5_en-GB,5,,FHRS,0
59998,Dove Court Residential And Nur,Albert Street,Kettering,Northamptonshire,Four Seasons Health Care,Hospitals/Childcare/Caring Premises,5,5,,146262,5,,52.39988300000000,8879,238,fhrs@kettering.gov.uk,Kettering,http://www.kettering.gov.uk,-0.71904800000000,NN16 0EB,2014-06-06,fhrs_4_en-GB,4,,FHRS,10
59999,,,,,Frances Kalidas,Other catering premises,7841,5,,696157,0,,,19519,238,fhrs@kettering.gov.uk,Kettering,http://www.kettering.gov.uk,,,2014-08-06,fhrs_5_en-GB,5,,FHRS,0
60000,,Pegasus Court,Pytchley,Northamptonshire,Frankie & Benny's,Restaurant/Cafe/Canteen,1,5,,127508,5,,52.37405200000000,5689,238,fhrs@kettering.gov.uk,Kettering,http://www.kettering.gov.uk,-0.71728300000000,NN15 6XS,2014-02-11,fhrs_5_en-GB,5,,FHRS,5
60001,,1 Market Hill,Rothwell,Northamptonshire,Franks Butchers,Retailers - other,4613,10,,133475,5,,52.42304900000000,662,238,fhrs@kettering.gov.uk,Kettering,http://www.kettering.gov.uk,-0.80021600000000,NN14 6EP,2014-03-20,fhrs_4_en-GB,4,,FHRS,5
60002,,155 Havelock Street,Kettering,Northamptonshire,Frank's Pizzeria,Restaurant/Cafe/Canteen,1,5,,150019,5,,52.40631600000000,971,238,fhrs@kettering.gov.uk,Kettering,http://www.kettering.gov.uk,-0.72275700000000,NN16 9QA,2012-11-29,fhrs_5_en-GB,5,,FHRS,5
60003,,,,,Fresh Fish To Go,Mobile caterer,7846,10,,537971,10,,,18931,238,fhrs@kettering.gov.uk,Kettering,http://www.kettering.gov.uk,,,2013-04-05,fhrs_3_en-GB,3,,FHRS,5
60004,Cranford C Of E Primary School,Church Lane,Cranford,Northamptonshire,Frolics After School Club,School/college/university,7845,5,,68861,5,,52.38350400000000,15416,238,fhrs@kettering.gov.uk,Kettering,http://www.kettering.gov.uk,-0.64031200000000,NN14 4AE,2014-04-27,fhrs_5_en-GB,5,,FHRS,0
60005,,27 Dalkeith Place,Kettering,Northamptonshire,Frydays,Restaurant/Cafe/Canteen,1,10,,494268,5,,52.39940300000000,18560,238,fhrs@kettering.gov.uk,Kettering,http://www.kettering.gov.uk,-0.72616100000000,NN16 0BS,2014-09-08,fhrs_4_en-GB,4,,FHRS,5
60006,,36 Newland Street,Kettering,Northamptonshire,Fuller Coffee House,Restaurant/Cafe/Canteen,1,5,,126923,0,,52.40158300000000,56,238,fhrs@kettering.gov.uk,Kettering,http://www.kettering.gov.uk,-0.72573100000000,NN16 8JH,2013-01-29,fhrs_5_en-GB,5,,FHRS,5
60007,,17-23 Broadway,Kettering,Northamptonshire,Gabriel Court,Hospitals/Childcare/Caring Premises,5,0,,61905,5,,52.39307000000000,13638,238,fhrs@kettering.gov.uk,Kettering,http://www.kettering.gov.uk,-0.72422700000000,NN15 6DD,2014-02-26,fhrs_5_en-GB,5,,FHRS,5
60008,,23 High Street,Kettering,Northamptonshire,Gala Club,Pub/bar/nightclub,7843,5,,117742,10,,52.42226300000000,47,238,fhrs@kettering.gov.uk,Kettering,http://www.kettering.gov.uk,-0.80339900000000,NN14 6AD,2014-07-14,fhrs_4_en-GB,4,,FHRS,5
60009,,,,,Gallones,Mobile caterer,7846,5,,70390,5,,,15982,238,fhrs@kettering.gov.uk,Kettering,http://www.kettering.gov.uk,,,2012-10-24,fhrs_5_en-GB,5,,FHRS,5
60010,,,,,Gallones,Mobile caterer,7846,5,,128150,5,,,5797,238,fhrs@kettering.gov.uk,Kettering,http://www.kettering.gov.uk,,,2012-10-24,fhrs_5_en-GB,5,,FHRS,5
60011,,,,,Gallones,Mobile caterer,7846,5,,73208,5,,,16786,238,fhrs@kettering.gov.uk,Kettering,http://www.kettering.gov.uk,,,2012-10-24,fhrs_5_en-GB,5,,FHRS,5
60012,,,,,Gallone's,Mobile caterer,7846,5,,144361,5,,,8291,238,fhrs@kettering.gov.uk,Kettering,http://www.kettering.gov.uk,,,2012-10-24,fhrs_5_en-GB,5,,FHRS,5
60013,,,,,Garley Catering Services,Other catering premises,7841,5,,77438,5,,,18198,238,fhrs@kettering.gov.uk,Kettering,http://www.kettering.gov.uk,,,2014-10-24,fhrs_4_en-GB,4,,FHRS,10
60014,,,,,Gayles (Buffets-cakes-gifts),Other catering premises,7841,5,,607060,5,,,19123,238,fhrs@kettering.gov.uk,Kettering,http://www.kettering.gov.uk,,,2013-09-27,fhrs_5_en-GB,5,,FHRS,5
60015,,Queen Street,Geddington,Northamptonshire,Geddington and Newton Bowls,Pub/bar/nightclub,7843,5,,138649,5,,52.43558500000000,74,238,fhrs@kettering.gov.uk,Kettering,http://www.kettering.gov.uk,-0.68871000000000,NN14 1AZ,2006-02-17,fhrs_5_en-GB,5,,FHRS,5
60016,,Wood Street,Kettering,Northamptonshire,Geddington Cof E Primary School,School/college/university,7845,0,,371930,5,,52.43918100000000,18313,238,fhrs@kettering.gov.uk,Kettering,http://www.kettering.gov.uk,-0.68221900000000,NN14 1BG,2012-04-24,fhrs_5_en-GB,5,,FHRS,0
60017,Geddington Church Of England I,Wood Street,Geddington,Northamptonshire,Geddington Primary School,School/college/university,7845,5,,72802,5,,52.43918100000000,16603,238,fhrs@kettering.gov.uk,Kettering,http://www.kettering.gov.uk,-0.68221900000000,NN14 1BG,2013-07-18,fhrs_5_en-GB,5,,FHRS,5
60018,,25 Blandford Avenue,Kettering,Northamptonshire,Gennaro Feola,Mobile caterer,7846,5,,145486,5,,52.41400300000000,8638,238,fhrs@kettering.gov.uk,Kettering,http://www.kettering.gov.uk,-0.72784300000000,NN16 9AR,2006-03-14,fhrs_5_en-GB,5,,FHRS,5
60019,,21 Hampden Crescent,Kettering,Northamptonshire,Geoff Towell & Sons,Retailers - other,4613,5,,133520,5,,52.40365700000000,663,238,fhrs@kettering.gov.uk,Kettering,http://www.kettering.gov.uk,-0.71220600000000,NN16 0LA,2008-05-20,fhrs_5_en-GB,5,,FHRS,5
60020,,79 High Street,Desborough,Northamptonshire,George Public House,Pub/bar/nightclub,7843,10,,715527,10,,,19566,238,fhrs@kettering.gov.uk,Kettering,http://www.kettering.gov.uk,,NN14 2HB,2014-09-02,fhrs_3_en-GB,3,,FHRS,10
60021,,,,,Gillian Brown,Other catering premises,7841,5,,618908,5,,,15075,238,fhrs@kettering.gov.uk,Kettering,http://www.kettering.gov.uk,,,2013-09-19,fhrs_5_en-GB,5,,FHRS,5
60022,,Rothwell Road,Kettering,Northamptonshire,Glebe Farm Shop,Restaurant/Cafe/Canteen,1,0,,131334,5,,52.41187500000000,6277,238,fhrs@kettering.gov.uk,Kettering,http://www.kettering.gov.uk,-0.76883500000000,NN16 8XF,2014-03-20,fhrs_5_en-GB,5,,FHRS,5
60023,,2 Glebe Road,Burton Latimer,Northamptonshire,Glebe Stores,Retailers - other,4613,5,,132370,5,,52.36464000000000,643,238,fhrs@kettering.gov.uk,Kettering,http://www.kettering.gov.uk,-0.68871100000000,NN15 5QU,2005-09-29,fhrs_5_en-GB,5,,FHRS,5
60024,,27 Harborough Road,Desborough,Northamptonshire,Glenkindie Lodge,Hospitals/Childcare/Caring Premises,5,0,,107387,0,,52.44386600000000,379,238,fhrs@kettering.gov.uk,Kettering,http://www.kettering.gov.uk,-0.82208700000000,NN14 2QX,2014-11-27,fhrs_5_en-GB,5,,FHRS,5
60025,,5 Brecon Close,Kettering,Northamptonshire,Global Wine Services,Retailers - other,4613,5,,62056,5,,52.42013400000000,13680,238,fhrs@kettering.gov.uk,Kettering,http://www.kettering.gov.uk,-0.72356400000000,NN16 9NH,2006-03-02,fhrs_4_en-GB,4,,FHRS,10
60026,,180 High Street,Burton Latimer,Northamptonshire,Golden Gate,Takeaway/sandwich shop,7844,5,,122548,5,,52.36053500000000,510,238,fhrs@kettering.gov.uk,Kettering,http://www.kettering.gov.uk,-0.67937600000000,NN15 5RJ,2013-08-12,fhrs_4_en-GB,4,,FHRS,10
60027,Grafton Underwood Post Office,31 Cranford Road,Grafton Underwood,Northamptonshire,Good Friends Bistro,Restaurant/Cafe/Canteen,1,5,,618910,5,,52.41285500000000,18761,238,fhrs@kettering.gov.uk,Kettering,http://www.kettering.gov.uk,-0.64398200000000,NN14 3AA,2014-12-09,fhrs_5_en-GB,5,,FHRS,5
60028,,53 Field Street,Kettering,Northamptonshire,Good World,Takeaway/sandwich shop,7844,10,,696162,10,,52.40409100000000,19540,238,fhrs@kettering.gov.uk,Kettering,http://www.kettering.gov.uk,-0.72992200000000,NN16 8EN,2014-12-10,fhrs_3_en-GB,3,,FHRS,10
60029,,53 Field Street,Kettering,Northamptonshire,Good World,Takeaway/sandwich shop,7844,5,,494277,5,,52.40409100000000,18640,238,fhrs@kettering.gov.uk,Kettering,http://www.kettering.gov.uk,-0.72992200000000,NN16 8EN,2013-05-21,fhrs_5_en-GB,5,,FHRS,5
60030,,146 Wellington Street,Kettering,Northamptonshire,Gosai Stores,Retailers - other,4613,5,,129255,5,,52.40593700000000,598,238,fhrs@kettering.gov.uk,Kettering,http://www.kettering.gov.uk,-0.72353300000000,NN16 8RN,2014-01-06,fhrs_5_en-GB,5,,FHRS,5
60031,Grange Primary School,Dorothy Road,Kettering,Northamptonshire,Grange Community School,Hospitals/Childcare/Caring Premises,5,5,,43574,5,,52.40569300000000,10600,238,fhrs@kettering.gov.uk,Kettering,http://www.kettering.gov.uk,-0.70600200000000,NN16 0PL,2014-09-09,fhrs_4_en-GB,4,,FHRS,10
60032,Grange Place Chippy,2 Grange Place,Kettering,Northamptonshire,Grange Fish Bar,Takeaway/sandwich shop,7844,5,,432663,5,,52.40727800000000,18493,238,fhrs@kettering.gov.uk,Kettering,http://www.kettering.gov.uk,-0.70707300000000,NN16 0NT,2014-01-20,fhrs_5_en-GB,5,,FHRS,5
60033,"Unit 1, North Kettering Business Park",Hipwell Road,Kettering,Northamptonshire,Graysons Hospitality Ltd,Restaurant/Cafe/Canteen,1,10,,733056,10,,52.42301900000000,19730,238,fhrs@kettering.gov.uk,Kettering,http://www.kettering.gov.uk,-0.73778900000000,NN14 1UA,2014-12-16,fhrs_3_en-GB,3,,FHRS,5
60034,,46-48 Station Road,Desborough,Northamptonshire,Great Wall,Takeaway/sandwich shop,7844,5,,715525,5,,52.44346100000000,19564,238,fhrs@kettering.gov.uk,Kettering,http://www.kettering.gov.uk,-0.81836100000000,NN14 2RS,2014-09-16,fhrs_4_en-GB,4,,FHRS,10
60035,,Loddington Road,Great Cransley,Northamptonshire,Green Trunks Garden Centre,Restaurant/Cafe/Canteen,1,10,,446098,10,,52.38484800000000,18111,238,fhrs@kettering.gov.uk,Kettering,http://www.kettering.gov.uk,-0.78348700000000,NN14 1PY,2013-02-28,fhrs_3_en-GB,3,,FHRS,10
60036,,Highfield Road,Kettering,Northamptonshire,Greenfields Primary School,School/college/university,7845,5,,139310,5,,52.38423100000000,7489,238,fhrs@kettering.gov.uk,Kettering,http://www.kettering.gov.uk,-0.72410000000000,NN15 6HY,2009-10-21,fhrs_5_en-GB,5,,FHRS,5
60037,"Bakers Oven, 15-17 The Mall",Gold Street,Kettering,Northamptonshire,Greggs,Restaurant/Cafe/Canteen,1,0,,141032,0,,52.40121400000000,7729,238,fhrs@kettering.gov.uk,Kettering,http://www.kettering.gov.uk,-0.72743200000000,NN16 8JL,2012-09-04,fhrs_5_en-GB,5,,FHRS,5
60038,,57 High Street,Kettering,Northamptonshire,Greggs of the Midlands plc,Takeaway/sandwich shop,7844,0,,40527,0,,52.39973400000000,10136,238,fhrs@kettering.gov.uk,Kettering,http://www.kettering.gov.uk,-0.72856200000000,NN16 8SY,2012-10-15,fhrs_5_en-GB,5,,FHRS,5
60039,,1 Henson Close,Kettering,Northamptonshire,Greggs Plc,Takeaway/sandwich shop,7844,5,,56904,5,,52.41239700000000,12875,238,fhrs@kettering.gov.uk,Kettering,http://www.kettering.gov.uk,-0.73904800000000,NN16 8PZ,2015-01-06,fhrs_5_en-GB,5,,FHRS,5
60040,,15 Silver Street,Kettering,Northamptonshire,Grillers Peri Peri,Takeaway/sandwich shop,7844,20,,537972,15,,,18934,238,fhrs@kettering.gov.uk,Kettering,http://www.kettering.gov.uk,,NN16OBN,2013-10-21,fhrs_1_en-GB,1,,FHRS,15
60041,,15a Silver Street,Kettering,Northamptonshire,Grosik,Retailers - other,4613,20,,76190,10,,52.40033600000000,17925,238,fhrs@kettering.gov.uk,Kettering,http://www.kettering.gov.uk,-0.72604600000000,NN16 0BN,2014-03-03,fhrs_1_en-GB,1,,FHRS,10
60042,,,,,Gwen's Cakes,Other catering premises,7841,5,,626781,5,,,19228,238,fhrs@kettering.gov.uk,Kettering,http://www.kettering.gov.uk,,,2014-01-14,fhrs_5_en-GB,5,,FHRS,5
60043,,109 Gipsy Lane,Kettering,Northamptonshire,Hainthorpe Guest Accomodation,Hotel/bed & breakfast/guest house,7842,5,,95079,5,,52.39817700000000,2807,238,fhrs@kettering.gov.uk,Kettering,http://www.kettering.gov.uk,-0.74354000000000,NN16 8TZ,2009-11-12,fhrs_5_en-GB,5,,FHRS,0
60044,Hall Meadow Primary School,Packer Road,Kettering,Northamptonshire,Hall Meadow School,School/college/university,7845,0,,65337,0,,52.38931500000000,14669,238,fhrs@kettering.gov.uk,Kettering,http://www.kettering.gov.uk,-0.74464400000000,NN15 7RP,2011-09-14,fhrs_5_en-GB,5,,FHRS,5
60045,,8 Hampden Crescent,Kettering,Northamptonshire,Hampden Stores,Retailers - other,4613,20,,733054,5,,52.40365700000000,19693,238,fhrs@kettering.gov.uk,Kettering,http://www.kettering.gov.uk,-0.71220600000000,NN16 0LA,2014-12-01,fhrs_1_en-GB,1,,FHRS,10
60046,Geddington Village Hall,Queen Street,Geddington,Northamptonshire,Happy Faces Pre-School,Hospitals/Childcare/Caring Premises,5,10,,149301,5,,52.43558500000000,9574,238,fhrs@kettering.gov.uk,Kettering,http://www.kettering.gov.uk,-0.68871000000000,NN14 1AZ,2007-09-29,fhrs_4_en-GB,4,,FHRS,5
60047,,136 Stamford Road,Kettering,Northamptonshire,Harlequin,Pub/bar/nightclub,7843,5,,187425,5,,52.40564500000000,18211,238,fhrs@kettering.gov.uk,Kettering,http://www.kettering.gov.uk,-0.70903200000000,NN16 9UA,2013-07-30,fhrs_5_en-GB,5,,FHRS,5
60048,,1 Harrington Road,Rothwell,Northamptonshire,Harrington Road Minimarket,Retailers - other,4613,10,,149335,0,,52.41997000000000,9586,238,fhrs@kettering.gov.uk,Kettering,http://www.kettering.gov.uk,-0.80781300000000,NN14 6AP,2011-07-28,fhrs_4_en-GB,4,,FHRS,0
60049,Harry Potter House,London Road,Kettering,Northamptonshire,Harry Potter House,Hospitals/Childcare/Caring Premises,5,20,,67753,5,,52.39425400000000,15139,238,fhrs@kettering.gov.uk,Kettering,http://www.kettering.gov.uk,-0.72398700000000,NN15 7QD,2014-06-02,fhrs_1_en-GB,1,,FHRS,5
60050,,77 Brambleside,Kettering,Northamptonshire,Harrys Fish And Chips,Takeaway/sandwich shop,7844,10,,626780,10,,52.41675300000000,19209,238,fhrs@kettering.gov.uk,Kettering,http://www.kettering.gov.uk,-0.72020600000000,NN16 9BP,2013-12-17,fhrs_3_en-GB,3,,FHRS,10
60051,Havelock Infant School,Havelock Street,Desborough,Northamptonshire,Havelock Infant School,School/college/university,7845,5,,68816,0,,52.44251900000000,15402,238,fhrs@kettering.gov.uk,Kettering,http://www.kettering.gov.uk,-0.81865100000000,NN14 2LU,2010-10-21,fhrs_5_en-GB,5,,FHRS,5
60052,Havelock Junior School,Havelock Street,Desborough,Northamptonshire,Havelock Junior and Infant School Breakfast Club,School/college/university,7845,0,,683027,0,,52.44251900000000,19430,238,fhrs@kettering.gov.uk,Kettering,http://www.kettering.gov.uk,-0.81865100000000,NN14 2LU,2014-04-29,fhrs_5_en-GB,5,,FHRS,0
60053,,Havelock Street,Desborough,Northamptonshire,Havelock Junior School,School/college/university,7845,5,,99319,0,,52.44251900000000,3134,238,fhrs@kettering.gov.uk,Kettering,http://www.kettering.gov.uk,-0.81865100000000,NN14 2LU,2013-06-20,fhrs_5_en-GB,5,,FHRS,5
60054,,2 Hawthorn Road,Kettering,Northamptonshire,Hawthorn Guest House,Hotel/bed & breakfast/guest house,7842,5,,106845,5,,52.39182400000000,374,238,fhrs@kettering.gov.uk,Kettering,http://www.kettering.gov.uk,-0.72283800000000,NN15 7HS,2011-09-07,fhrs_5_en-GB,5,,FHRS,5
60055,Hawthorn Primary School,Hawthorn Road,Kettering,Northamptonshire,Hawthorn Out of School Club,School/college/university,7845,5,,56565,5,,52.39152800000000,12798,238,fhrs@kettering.gov.uk,Kettering,http://www.kettering.gov.uk,-0.72459500000000,NN15 7HT,2008-10-01,fhrs_5_en-GB,5,,FHRS,5
60056,,56 Hawthorn Road,Kettering,Northamptonshire,Hawthorn Stores,Retailers - other,4613,5,,54117,5,,52.39182400000000,12195,238,fhrs@kettering.gov.uk,Kettering,http://www.kettering.gov.uk,-0.72283800000000,NN15 7HS,2007-10-29,fhrs_5_en-GB,5,,FHRS,5
60057,,89 Rockingham Road,Kettering,Northamptonshire,Haydock House,Hospitals/Childcare/Caring Premises,5,0,,146146,5,,52.40601300000000,8841,238,fhrs@kettering.gov.uk,Kettering,http://www.kettering.gov.uk,-0.72722000000000,NN16 9HX,2010-10-12,fhrs_5_en-GB,5,,FHRS,0
60058,,64 Rushton Road,Desborough,Northamptonshire,Heather Holmes,Hospitals/Childcare/Caring Premises,5,5,,117331,5,,52.44296700000000,4655,238,fhrs@kettering.gov.uk,Kettering,http://www.kettering.gov.uk,-0.80770800000000,NN14 2QD,2010-03-23,fhrs_5_en-GB,5,,FHRS,5
60059,,5 London Road,Kettering,Northamptonshire,Heatherington House,Hospitals/Childcare/Caring Premises,5,0,,143040,0,,52.39769700000000,8017,238,fhrs@kettering.gov.uk,Kettering,http://www.kettering.gov.uk,-0.72472600000000,NN16 0EF,2011-11-04,fhrs_5_en-GB,5,,FHRS,0
60060,,,,,Helen Margaret O'Neill,Other catering premises,7841,5,,65990,5,,,14865,238,fhrs@kettering.gov.uk,Kettering,http://www.kettering.gov.uk,,,2009-04-15,fhrs_5_en-GB,5,,FHRS,5
60061,,,,,Helen Wignell,Other catering premises,7841,5,,432647,5,,,18441,238,fhrs@kettering.gov.uk,Kettering,http://www.kettering.gov.uk,,,2012-04-24,fhrs_5_en-GB,5,,FHRS,5
60062,,,,,Helen Wilson,Other catering premises,7841,5,,432652,5,,,18446,238,fhrs@kettering.gov.uk,Kettering,http://www.kettering.gov.uk,,,2012-09-24,fhrs_5_en-GB,5,,FHRS,5
60063,,,,,Helen Worley,Other catering premises,7841,10,,432637,5,,,18055,238,fhrs@kettering.gov.uk,Kettering,http://www.kettering.gov.uk,,,2012-07-05,fhrs_3_en-GB,3,,FHRS,10
60064,Parish Hall,Market Place,Kettering,Northamptonshire,Henley Community Cafe,Other catering premises,7841,10,,144023,0,,52.39755300000000,82,238,fhrs@kettering.gov.uk,Kettering,http://www.kettering.gov.uk,-0.72718400000000,NN16 0AL,2014-05-30,fhrs_4_en-GB,4,,FHRS,5
60065,,4 Horsemarket,Kettering,Northamptonshire,Henry`s,Pub/bar/nightclub,7843,10,,80709,10,,52.39881200000000,1957,238,fhrs@kettering.gov.uk,Kettering,http://www.kettering.gov.uk,-0.72645700000000,NN16 0DG,2007-03-21,fhrs_3_en-GB,3,,FHRS,10
60066,Highfields Primary School,Highfield Road,Kettering,Northamptonshire,Highfield Childrens Centre,Hospitals/Childcare/Caring Premises,5,5,,71666,5,,52.38423100000000,16280,238,fhrs@kettering.gov.uk,Kettering,http://www.kettering.gov.uk,-0.72410000000000,NN15 6HY,2009-05-20,fhrs_5_en-GB,5,,FHRS,5
60067,,140 Highfield Road,Kettering,Northamptonshire,Highfield Convenience Store,Retailers - other,4613,5,,133138,5,,52.38423100000000,656,238,fhrs@kettering.gov.uk,Kettering,http://www.kettering.gov.uk,-0.72410000000000,NN15 6HY,2011-10-13,fhrs_5_en-GB,5,,FHRS,5
60068,,53 Park View North,Kettering,Northamptonshire,Highfields,Hospitals/Childcare/Caring Premises,5,10,,89820,0,,52.40985800000000,2418,238,fhrs@kettering.gov.uk,Kettering,http://www.kettering.gov.uk,-0.72356700000000,NN16 9RJ,2014-09-01,fhrs_4_en-GB,4,,FHRS,0
60069,Highfields Primary School,Highfield Road,Kettering,Northamptonshire,Highfields Nursery,School/college/university,7845,5,,61953,5,,52.38423100000000,13650,238,fhrs@kettering.gov.uk,Kettering,http://www.kettering.gov.uk,-0.72410000000000,NN15 6HY,2008-06-11,fhrs_5_en-GB,5,,FHRS,5
60070,,Pegasus Court,Pytchley,Northamptonshire,Hobsons Choice,Pub/bar/nightclub,7843,5,,43755,5,,52.37405200000000,10644,238,fhrs@kettering.gov.uk,Kettering,http://www.kettering.gov.uk,-0.71728300000000,NN15 6XS,2013-07-29,fhrs_5_en-GB,5,,FHRS,5
60071,,Weekly Wood Avenue,Kettering,Northamptonshire,Holiday Inn Express,Hotel/bed & breakfast/guest house,7842,10,,579421,10,,52.43322900000000,16323,238,fhrs@kettering.gov.uk,Kettering,http://www.kettering.gov.uk,-0.73407100000000,NN14 1QG,2013-08-02,fhrs_3_en-GB,3,,FHRS,5
60072,,79-83 London Road,Kettering,Northamptonshire,Holly House,Hospitals/Childcare/Caring Premises,5,10,,114740,5,,52.39306400000000,439,238,fhrs@kettering.gov.uk,Kettering,http://www.kettering.gov.uk,-0.72200800000000,NN15 7PH,2014-06-17,fhrs_4_en-GB,4,,FHRS,5
60073,52-54 The Mall,Newland Street,Kettering,Northamptonshire,Home Bargains,Retailers - other,4613,0,,55512,0,,52.40146600000000,12521,238,fhrs@kettering.gov.uk,Kettering,http://www.kettering.gov.uk,-0.72741000000000,NN16 8JL,2011-12-22,fhrs_5_en-GB,5,,FHRS,0
60074,,,,,Homebird's Kitchen,Other catering premises,7841,5,,74509,10,,,17193,238,fhrs@kettering.gov.uk,Kettering,http://www.kettering.gov.uk,,,2010-06-30,fhrs_4_en-GB,4,,FHRS,5
60075,,1 St Stephens Road,Kettering,Northamptonshire,Hong Kong Cuisine,Takeaway/sandwich shop,7844,10,,494284,10,,52.39524700000000,18767,238,fhrs@kettering.gov.uk,Kettering,http://www.kettering.gov.uk,-0.68974400000000,NN15 5DS,2014-10-13,fhrs_3_en-GB,3,,FHRS,10
60076,Gloucester Court,Evison Road,Rothwell,Northamptonshire,Housing 21,Hospitals/Childcare/Caring Premises,5,5,,107958,5,,52.41940400000000,383,238,fhrs@kettering.gov.uk,Kettering,http://www.kettering.gov.uk,-0.80518200000000,NN14 6BU,2008-09-10,fhrs_4_en-GB,4,,FHRS,10
60077,,2 Windsor Avenue,Desborough,Northamptonshire,HR Care Homes Ltd,Hospitals/Childcare/Caring Premises,5,10,,125328,5,,52.43535700000000,5383,238,fhrs@kettering.gov.uk,Kettering,http://www.kettering.gov.uk,-0.82984600000000,NN14 2SS,2010-03-22,fhrs_4_en-GB,4,,FHRS,5
60078,,52 High Street,Burton Latimer,Northamptonshire,Hungry Harrys,Takeaway/sandwich shop,7844,10,,648819,0,,52.36436300000000,19307,238,fhrs@kettering.gov.uk,Kettering,http://www.kettering.gov.uk,-0.67842400000000,NN15 5LB,2014-04-03,fhrs_4_en-GB,4,,FHRS,5
60079,,,,,Iced Gems,Other catering premises,7841,5,,74807,5,,,17332,238,fhrs@kettering.gov.uk,Kettering,http://www.kettering.gov.uk,,,2010-09-10,fhrs_5_en-GB,5,,FHRS,5
60080,,27 Newland Street,Kettering,Northamptonshire,Iceland,Retailers - supermarkets/hypermarkets,7840,5,,131761,0,,52.40158300000000,633,238,fhrs@kettering.gov.uk,Kettering,http://www.kettering.gov.uk,-0.72573100000000,NN16 8JH,2008-06-06,fhrs_5_en-GB,5,,FHRS,5
60081,,,,,Image Events,Mobile caterer,7846,5,,146275,0,,,8882,238,fhrs@kettering.gov.uk,Kettering,http://www.kettering.gov.uk,,,2013-05-10,fhrs_5_en-GB,5,,FHRS,5
60082,Unit 11,Moorfields Farm,Warkton,Northamptonshire,Incredible Bakery Company,Manufacturers/packers,7839,10,,683026,5,,52.41041800000000,19429,238,fhrs@kettering.gov.uk,Kettering,http://www.kettering.gov.uk,-0.68933900000000,NN16 9XJ,2014-06-03,fhrs_4_en-GB,4,,FHRS,5
60083,,Unit 2 Barnwell Court,Mawsley,Northamptonshire,India 2 Mawsley,Takeaway/sandwich shop,7844,10,,69704,10,,52.37494100000000,15720,238,fhrs@kettering.gov.uk,Kettering,http://www.kettering.gov.uk,-0.81093600000000,NN14 1FG,2013-12-04,fhrs_3_en-GB,3,,FHRS,5
60084,Ise Lodge Comm Residents Ass,St. Vincents Avenue,Kettering,Northamptonshire,Ise Lodge Community Centre,Other catering premises,7841,5,,144692,5,,52.39749800000000,84,238,fhrs@kettering.gov.uk,Kettering,http://www.kettering.gov.uk,-0.69740900000000,NN15 5DR,2008-07-09,fhrs_5_en-GB,5,,FHRS,5
60085,,Eastleigh Road,Kettering,Northamptonshire,Isebrook SEN College,Hospitals/Childcare/Caring Premises,5,5,,65344,5,,52.38846500000000,14670,238,fhrs@kettering.gov.uk,Kettering,http://www.kettering.gov.uk,-0.70834300000000,NN15 6PT,2014-06-24,fhrs_5_en-GB,5,,FHRS,5
60086,,,,,It's A Kind Of Magic,Mobile caterer,7846,5,,494263,10,,,16812,238,fhrs@kettering.gov.uk,Kettering,http://www.kettering.gov.uk,,,2013-05-08,fhrs_4_en-GB,4,,FHRS,5
60087,,57 Field Street,Kettering,Northamptonshire,J A Services,Retailers - other,4613,10,,73690,10,,52.40409100000000,16982,238,fhrs@kettering.gov.uk,Kettering,http://www.kettering.gov.uk,-0.72992200000000,NN16 8EN,2010-02-18,fhrs_3_en-GB,3,,FHRS,10
60088,,15 Stamford Road,Kettering,Northamptonshire,J P Newsagents,Retailers - other,4613,5,,129088,5,,52.40286700000000,595,238,fhrs@kettering.gov.uk,Kettering,http://www.kettering.gov.uk,-0.71725600000000,NN16 8XX,2014-01-07,fhrs_5_en-GB,5,,FHRS,5
60089,U S F Club & Institute,Meeting Lane,Kettering,Northamptonshire,Jaspers Bar,Pub/bar/nightclub,7843,10,,53801,0,,52.40014400000000,12110,238,fhrs@kettering.gov.uk,Kettering,http://www.kettering.gov.uk,-0.72737400000000,NN16 0BL,2014-04-24,fhrs_4_en-GB,4,,FHRS,5
60090,,28 High Street,Kettering,Northamptonshire,Jenny's Cafe,Restaurant/Cafe/Canteen,1,10,,570294,5,,52.39853300000000,19008,238,fhrs@kettering.gov.uk,Kettering,http://www.kettering.gov.uk,-0.72806700000000,NN16 8ST,2013-06-21,fhrs_4_en-GB,4,,FHRS,0
60091,,,,,Jenny's Cakes,Other catering premises,7841,10,,638076,5,,,19225,238,fhrs@kettering.gov.uk,Kettering,http://www.kettering.gov.uk,,,2014-02-10,fhrs_4_en-GB,4,,FHRS,5
60092,Post Office,38 Weekley,Kettering,Northamptonshire,Jessica's Teashop,Restaurant/Cafe/Canteen,1,5,,65876,5,,52.41779400000000,14833,238,fhrs@kettering.gov.uk,Kettering,http://www.kettering.gov.uk,-0.69776700000000,NN16 9UN,2012-10-18,fhrs_5_en-GB,5,,FHRS,5
60093,,16 Market Hill,Rothwell,Northamptonshire,Jess's Kebabs & Pizza,Takeaway/sandwich shop,7844,10,,44664,10,,52.42275600000000,10830,238,fhrs@kettering.gov.uk,Kettering,http://www.kettering.gov.uk,-0.79966500000000,NN14 6BW,2014-05-15,fhrs_3_en-GB,3,,FHRS,10
60094,,,,,Jill Wells - FBO,Other catering premises,7841,10,,371909,0,,,18053,238,fhrs@kettering.gov.uk,Kettering,http://www.kettering.gov.uk,,,2012-02-02,fhrs_4_en-GB,4,,FHRS,5
60095,St Thomas More Rc Primary Scho,Northampton Road,Kettering,Northamptonshire,JJ's After School Club,School/college/university,7845,10,,57020,10,,52.39545400000000,12888,238,fhrs@kettering.gov.uk,Kettering,http://www.kettering.gov.uk,-0.73770900000000,NN15 7JZ,2014-11-25,fhrs_3_en-GB,3,,FHRS,10
60096,,,,,Joanne Devine,Other catering premises,7841,5,,68057,5,,,15212,238,fhrs@kettering.gov.uk,Kettering,http://www.kettering.gov.uk,,,2011-11-24,fhrs_5_en-GB,5,,FHRS,0
60097,,193 St. Peters Avenue,Kettering,Northamptonshire,Joe's Fruit and Veg,Retailers - other,4613,10,,64689,5,,52.39816000000000,14428,238,fhrs@kettering.gov.uk,Kettering,http://www.kettering.gov.uk,-0.71687800000000,NN16 0HE,2013-07-30,fhrs_3_en-GB,3,,FHRS,10
60098,,77 St. Johns Road,Kettering,Northamptonshire,Joe's Traditional Fish & Chips,Takeaway/sandwich shop,7844,10,,143184,5,,52.39205600000000,8039,238,fhrs@kettering.gov.uk,Kettering,http://www.kettering.gov.uk,-0.70206600000000,NN15 5AZ,2014-01-09,fhrs_3_en-GB,3,,FHRS,10
60099,,,,,Josephine Marsh,Other catering premises,7841,5,,432644,5,,,18437,238,fhrs@kettering.gov.uk,Kettering,http://www.kettering.gov.uk,,,2012-05-08,fhrs_5_en-GB,5,,FHRS,5
60100,,11-13 St Stephens Road,Kettering,Northamptonshire,JPK Supermarkets Ltd,Retailers - supermarkets/hypermarkets,7840,10,,149887,5,,52.39524700000000,9686,238,fhrs@kettering.gov.uk,Kettering,http://www.kettering.gov.uk,-0.68974400000000,NN15 5DS,2012-09-06,fhrs_4_en-GB,4,,FHRS,5
60101,,,,,Judith Hobbs,Other catering premises,7841,10,,371911,10,,,18056,238,fhrs@kettering.gov.uk,Kettering,http://www.kettering.gov.uk,,,2012-01-19,fhrs_3_en-GB,3,,FHRS,5
60102,,,,,Julie Best,Other catering premises,7841,0,,432676,0,,,18546,238,fhrs@kettering.gov.uk,Kettering,http://www.kettering.gov.uk,,,2012-07-03,fhrs_5_en-GB,5,,FHRS,0
60103,,50 Montagu Street,Kettering,Northamptonshire,Julies Cafe,Restaurant/Cafe/Canteen,1,5,,67783,5,,52.40107500000000,15147,238,fhrs@kettering.gov.uk,Kettering,http://www.kettering.gov.uk,-0.72451100000000,NN16 8RU,2014-03-03,fhrs_4_en-GB,4,,FHRS,10
60104,,44 Station Road,Desborough,Northamptonshire,K P Wolfenden,Retailers - other,4613,20,,148731,10,,52.44253200000000,9410,238,fhrs@kettering.gov.uk,Kettering,http://www.kettering.gov.uk,-0.81990100000000,NN14 2RL,2014-12-01,fhrs_1_en-GB,1,,FHRS,10
60105,,,,,K. Muir,Other catering premises,7841,0,,432648,0,,,18442,238,fhrs@kettering.gov.uk,Kettering,http://www.kettering.gov.uk,,,2012-04-27,fhrs_5_en-GB,5,,FHRS,0
60106,,4 Piccadilly Buildings,Kettering,Northamptonshire,Kafe Bloc,Restaurant/Cafe/Canteen,1,5,,537959,5,,52.39629500000000,18745,238,fhrs@kettering.gov.uk,Kettering,http://www.kettering.gov.uk,-0.72813200000000,NN16 0AN,2013-02-14,fhrs_5_en-GB,5,,FHRS,5
60107,,,,,Karen Allworth,Other catering premises,7841,,,696164,,,,19545,238,fhrs@kettering.gov.uk,Kettering,http://www.kettering.gov.uk,,,2014-08-11,fhrs_exempt_en-GB,Exempt,,FHRS,
60108,,,,,Karina Lynch,Other catering premises,7841,5,,135348,10,,,6898,238,fhrs@kettering.gov.uk,Kettering,http://www.kettering.gov.uk,,,2010-02-05,fhrs_4_en-GB,4,,FHRS,5
60109,,,,,Karin's Kitchen,Other catering premises,7841,5,,144862,10,,,8446,238,fhrs@kettering.gov.uk,Kettering,http://www.kettering.gov.uk,,,2011-02-01,fhrs_4_en-GB,4,,FHRS,5
60110,,,,,Kay-Ks,Other catering premises,7841,10,,74800,0,,,17327,238,fhrs@kettering.gov.uk,Kettering,http://www.kettering.gov.uk,,,2010-08-09,fhrs_4_en-GB,4,,FHRS,0
60111,,7 High Street,Rothwell,Northamptonshire,Ken Sing,Takeaway/sandwich shop,7844,5,,74887,5,,52.42226300000000,17364,238,fhrs@kettering.gov.uk,Kettering,http://www.kettering.gov.uk,-0.80339900000000,NN14 6AD,2013-03-27,fhrs_4_en-GB,4,,FHRS,10
60112,,104 Rockingham Road,Kettering,Northamptonshire,Kettering Athletic Club,Pub/bar/nightclub,7843,5,,74753,5,,52.40764400000000,173,238,fhrs@kettering.gov.uk,Kettering,http://www.kettering.gov.uk,-0.72754100000000,NN16 9AE,2008-11-24,fhrs_5_en-GB,5,,FHRS,5
60113,Kingdom Hall,Field Street,Kettering,Northamptonshire,Kettering Bridge Club,Pub/bar/nightclub,7843,0,,124499,0,,52.40409100000000,5302,238,fhrs@kettering.gov.uk,Kettering,http://www.kettering.gov.uk,-0.72992200000000,NN16 8EN,2006-01-11,fhrs_5_en-GB,5,,FHRS,0
60114,Kettering Buccleuch Academy,Weekley Glebe Road,Kettering,Northamptonshire,Kettering Buccleuch Academy,School/college/university,7845,5,,149178,5,,52.41182700000000,9534,238,fhrs@kettering.gov.uk,Kettering,http://www.kettering.gov.uk,-0.71114500000000,NN16 9NS,2013-02-06,fhrs_4_en-GB,4,,FHRS,10
60115,Kettering Leisure Village,Thurston Drive,Kettering,Northamptonshire,Kettering Conference Centre,Other catering premises,7841,5,,64646,5,,52.38748400000000,1441,238,fhrs@kettering.gov.uk,Kettering,http://www.kettering.gov.uk,-0.73561500000000,NN15 6PB,2014-02-27,fhrs_5_en-GB,5,,FHRS,5
60116,,25 Montagu Street,Kettering,Northamptonshire,Kettering Conservative Club,Pub/bar/nightclub,7843,5,,74522,5,,52.40139600000000,172,238,fhrs@kettering.gov.uk,Kettering,http://www.kettering.gov.uk,-0.72422200000000,NN16 8XG,2010-12-14,fhrs_4_en-GB,4,,FHRS,10
60117,,A14,Kettering,Northamptonshire,Kettering East Service Station,Retailers - other,4613,0,,128933,0,,52.38063600000000,5923,238,fhrs@kettering.gov.uk,Kettering,http://www.kettering.gov.uk,-0.73088800000000,NN14 1RW,2013-07-29,fhrs_5_en-GB,5,,FHRS,5
60118,,34 Rockingham Road,Kettering,Northamptonshire,Kettering Food and Wine Centre,Retailers - other,4613,10,,75045,10,,52.40053700000000,17426,238,fhrs@kettering.gov.uk,Kettering,http://www.kettering.gov.uk,-0.72796600000000,NN16 8JA,2014-07-22,fhrs_3_en-GB,3,,FHRS,10
60119,,15b Silver Street,Kettering,Northamptonshire,Kettering Kebab House,Takeaway/sandwich shop,7844,5,,494261,10,,52.40033600000000,15707,238,fhrs@kettering.gov.uk,Kettering,http://www.kettering.gov.uk,-0.72604600000000,NN16 0BN,2014-08-26,fhrs_4_en-GB,4,,FHRS,5
60120,,15c Silver Street,Kettering,Northamptonshire,Kettering King Kebab,Takeaway/sandwich shop,7844,10,,75517,10,,52.40033600000000,17655,238,fhrs@kettering.gov.uk,Kettering,http://www.kettering.gov.uk,-0.72604600000000,NN16 0BN,2013-08-19,fhrs_3_en-GB,3,,FHRS,10
60121,Kettering Recreational Centre,15 Northampton Road,Kettering,Northamptonshire,Kettering Lodge Bowling Club,Pub/bar/nightclub,7843,5,,78879,5,,52.39598200000000,189,238,fhrs@kettering.gov.uk,Kettering,http://www.kettering.gov.uk,-0.73080100000000,NN15 7JU,2008-07-11,fhrs_5_en-GB,5,,FHRS,5
60122,,49-51 Russell Street,Kettering,Northamptonshire,Kettering Mind,Other catering premises,7841,5,,96480,5,,52.39837800000000,2937,238,fhrs@kettering.gov.uk,Kettering,http://www.kettering.gov.uk,-0.71956200000000,NN16 0EN,2008-06-04,fhrs_5_en-GB,5,,FHRS,5
60123,,123 Headlands,Kettering,Northamptonshire,Kettering Muslim Association,Other catering premises,7841,5,,69220,5,,52.38836700000000,15547,238,fhrs@kettering.gov.uk,Kettering,http://www.kettering.gov.uk,-0.72749300000000,NN15 6AD,2011-12-14,fhrs_5_en-GB,5,,FHRS,5
60124,,228 Bath Road,Kettering,Northamptonshire,Kettering News,Retailers - other,4613,5,,61990,5,,52.40912800000000,13659,238,fhrs@kettering.gov.uk,Kettering,http://www.kettering.gov.uk,-0.71844200000000,NN16 9LZ,2014-01-06,fhrs_5_en-GB,5,,FHRS,5
60125,Kettering Park Hotel,Kettering Parkway,Kettering,Northamptonshire,Kettering Park Hotel,Hotel/bed & breakfast/guest house,7842,5,,65490,5,,52.37290500000000,1472,238,fhrs@kettering.gov.uk,Kettering,http://www.kettering.gov.uk,-0.71186700000000,NN15 6XT,2014-11-14,fhrs_5_en-GB,5,,FHRS,5
60126,,82 Havelock Street,Kettering,Northamptonshire,Kettering Rifle Band Club,Pub/bar/nightclub,7843,5,,74047,5,,52.40631600000000,170,238,fhrs@kettering.gov.uk,Kettering,http://www.kettering.gov.uk,-0.72275700000000,NN16 9QA,2008-12-17,fhrs_4_en-GB,4,,FHRS,10
60127,Kettering Rugby Club,Waverley Road,Kettering,Northamptonshire,Kettering Rugby Football Club,Pub/bar/nightclub,7843,10,,77693,10,,52.39200400000000,183,238,fhrs@kettering.gov.uk,Kettering,http://www.kettering.gov.uk,-0.71460300000000,NN15 6NT,2013-12-16,fhrs_3_en-GB,3,,FHRS,10
60128,,Windmill Avenue,Kettering,Northamptonshire,Kettering Science Acadamy Junior Phase,School/college/university,7845,0,,44381,0,,52.39640400000000,10768,238,fhrs@kettering.gov.uk,Kettering,http://www.kettering.gov.uk,-0.71080100000000,NN15 7EA,2009-11-11,fhrs_5_en-GB,5,,FHRS,5
60129,Kettering Science Academy,Deeble Road,Kettering,Northamptonshire,Kettering Science Academy,School/college/university,7845,5,,715539,5,,52.39734300000000,19683,238,fhrs@kettering.gov.uk,Kettering,http://www.kettering.gov.uk,-0.71030300000000,NN15 7AA,2014-11-04,fhrs_5_en-GB,5,,FHRS,5
60130,Kettering Science Academy,Deeble Road,Kettering,Northamptonshire,Kettering Science Academy Primary Phase,School/college/university,7845,5,,715537,5,,52.39734300000000,19664,238,fhrs@kettering.gov.uk,Kettering,http://www.kettering.gov.uk,-0.71030300000000,NN15 7AA,2014-11-04,fhrs_5_en-GB,5,,FHRS,5
60131,,13 Market Street,Kettering,Northamptonshire,Kettering Spice,Takeaway/sandwich shop,7844,20,,75781,15,,52.39827200000000,17760,238,fhrs@kettering.gov.uk,Kettering,http://www.kettering.gov.uk,-0.72717800000000,NN16 0AH,2014-03-26,fhrs_1_en-GB,1,,FHRS,15
60132,,Montagu Street,Kettering,Northamptonshire,Kettering Sure Start Childrens Centre,Hospitals/Childcare/Caring Premises,5,5,,64519,0,,52.40187400000000,14354,238,fhrs@kettering.gov.uk,Kettering,http://www.kettering.gov.uk,-0.72024000000000,NN16 8RX,2008-01-02,fhrs_5_en-GB,5,,FHRS,0
60133,,Northampton Road,Kettering,Northamptonshire,Kettering Town Cricket & Sports Club,Pub/bar/nightclub,7843,5,,131250,5,,52.39310700000000,6264,238,fhrs@kettering.gov.uk,Kettering,http://www.kettering.gov.uk,-0.73351400000000,NN15 7JT,2011-06-09,fhrs_5_en-GB,5,,FHRS,5
60134,,Polwell Lane,Burton Latimer,Northamptonshire,Kettering Town Football Club,Pub/bar/nightclub,7843,5,,638077,10,,,19241,238,fhrs@kettering.gov.uk,Kettering,http://www.kettering.gov.uk,,,2014-02-24,fhrs_3_en-GB,3,,FHRS,10
60135,Prime Garages Ltd,A14,Kettering,Northamptonshire,Kettering West Service Station,Retailers - other,4613,5,,103062,0,,52.38063600000000,3448,238,fhrs@kettering.gov.uk,Kettering,http://www.kettering.gov.uk,-0.73088800000000,NN14 1RW,2013-10-17,fhrs_5_en-GB,5,,FHRS,5
60136,,97 Rockingham Road,Kettering,Northamptonshire,Keystone Escape Youth Centre,Other catering premises,7841,10,,52129,5,,52.40601300000000,1174,238,fhrs@kettering.gov.uk,Kettering,http://www.kettering.gov.uk,-0.72722000000000,NN16 9HX,2014-11-17,fhrs_4_en-GB,4,,FHRS,5
60137,,16-17 Silver Street,Kettering,Northamptonshire,KFC,Takeaway/sandwich shop,7844,5,,120986,5,,52.40033600000000,498,238,fhrs@kettering.gov.uk,Kettering,http://www.kettering.gov.uk,-0.72604600000000,NN16 0BN,2014-12-22,fhrs_5_en-GB,5,,FHRS,5
60138,"Kfc, Kettering Leisure Park",Pegasus Court,Pytchley,Northamptonshire,KFC,Restaurant/Cafe/Canteen,1,0,,58600,0,,52.37405200000000,13006,238,fhrs@kettering.gov.uk,Kettering,http://www.kettering.gov.uk,-0.71728300000000,NN15 6XS,2013-10-11,fhrs_5_en-GB,5,,FHRS,0
60139,Kettering General Hospital,Rothwell Road,Kettering,Northamptonshire,KGH Social Club,Pub/bar/nightclub,7843,5,,79658,5,,52.40279200000000,192,238,fhrs@kettering.gov.uk,Kettering,http://www.kettering.gov.uk,-0.74130700000000,NN16 8UZ,2006-01-11,fhrs_4_en-GB,4,,FHRS,10
60140,,51 Montagu Street,Kettering,Northamptonshire,Khwaja,Takeaway/sandwich shop,7844,10,,69484,10,,52.40184700000000,15625,238,fhrs@kettering.gov.uk,Kettering,http://www.kettering.gov.uk,-0.72191600000000,NN16 8XQ,2014-06-19,fhrs_3_en-GB,3,,FHRS,5
60141,Kettering Leisure Village,Thurston Drive,Kettering,Northamptonshire,Kids Play Ltd,Other catering premises,7841,5,,144338,5,,52.38748400000000,8283,238,fhrs@kettering.gov.uk,Kettering,http://www.kettering.gov.uk,-0.73561500000000,NN15 6PB,2014-06-09,fhrs_5_en-GB,5,,FHRS,5
60142,,,,,Kindred Cafe,Other catering premises,7841,5,,371920,5,,,18210,238,fhrs@kettering.gov.uk,Kettering,http://www.kettering.gov.uk,,,2012-01-11,fhrs_5_en-GB,5,,FHRS,5
60143,,111 High Street,Desborough,Northamptonshire,Kings Arms,Pub/bar/nightclub,7843,20,,683018,10,,52.44226900000000,19193,238,fhrs@kettering.gov.uk,Kettering,http://www.kettering.gov.uk,-0.82143800000000,NN14 2ND,2014-04-18,fhrs_1_en-GB,1,,FHRS,10
60144,,54 Rockingham Road,Kettering,Northamptonshire,Kings Chinese Takeaway,Takeaway/sandwich shop,7844,10,,50006,10,,52.40431500000000,11116,238,fhrs@kettering.gov.uk,Kettering,http://www.kettering.gov.uk,-0.72653400000000,NN16 8JT,2014-03-25,fhrs_3_en-GB,3,,FHRS,10
60145,,Churchill Way,Kettering,Northamptonshire,Kingsley Special Academy Trust,School/college/university,7845,5,,432662,5,,52.39395400000000,18491,238,fhrs@kettering.gov.uk,Kettering,http://www.kettering.gov.uk,-0.69808600000000,NN15 5DP,2013-10-04,fhrs_5_en-GB,5,,FHRS,5
60146,Old Corn Exchange,1-3 Market Place,Kettering,Northamptonshire,Kino Lounge,Pub/bar/nightclub,7843,10,,715520,5,,52.39755300000000,19448,238,fhrs@kettering.gov.uk,Kettering,http://www.kettering.gov.uk,-0.72718400000000,NN16 0AL,2014-09-16,fhrs_4_en-GB,4,,FHRS,5
60147,,31-33 High Street,Burton Latimer,Northamptonshire,Kushboo,Restaurant/Cafe/Canteen,1,10,,50643,10,,52.36436300000000,11293,238,fhrs@kettering.gov.uk,Kettering,http://www.kettering.gov.uk,-0.67842400000000,NN15 5LB,2014-05-08,fhrs_3_en-GB,3,,FHRS,10
60148,,26-28 Rockingham Road,Kettering,Northamptonshire,La Lucerna,Restaurant/Cafe/Canteen,1,10,,683032,5,,52.40337800000000,19488,238,fhrs@kettering.gov.uk,Kettering,http://www.kettering.gov.uk,-0.72629700000000,NN16 8JS,2014-06-25,fhrs_4_en-GB,4,,FHRS,5
60149,Latimer School,Castle Way,Barton Seagrave,Northamptonshire,Latimer Community Arts College,School/college/university,7845,5,,96870,5,,52.38263900000000,2981,238,fhrs@kettering.gov.uk,Kettering,http://www.kettering.gov.uk,-0.69683200000000,NN15 6ST,2013-03-21,fhrs_5_en-GB,5,,FHRS,5
60150,,119 Station Road,Burton Latimer,Northamptonshire,Latimer Grange,Hospitals/Childcare/Caring Premises,5,10,,114198,5,,52.36541800000000,432,238,fhrs@kettering.gov.uk,Kettering,http://www.kettering.gov.uk,-0.68677900000000,NN15 5PA,2014-10-13,fhrs_4_en-GB,4,,FHRS,5
60151,,46 High Street,Burton Latimer,Northamptonshire,Latimer Spice,Takeaway/sandwich shop,7844,5,,371936,10,,52.36436300000000,18376,238,fhrs@kettering.gov.uk,Kettering,http://www.kettering.gov.uk,-0.67842400000000,NN15 5LB,2013-08-01,fhrs_4_en-GB,4,,FHRS,5
60152,,28-30 Grange Road,Geddington,Northamptonshire,Lavender Blue Nursery,Hospitals/Childcare/Caring Premises,5,5,,371907,5,,52.43495000000000,18034,238,fhrs@kettering.gov.uk,Kettering,http://www.kettering.gov.uk,-0.69470100000000,NN14 1AL,2014-08-07,fhrs_5_en-GB,5,,FHRS,5
60153,,9 Kettonby Gardens,Kettering,Northamptonshire,Lavender House,Hospitals/Childcare/Caring Premises,5,5,,74403,5,,52.38857200000000,17147,238,fhrs@kettering.gov.uk,Kettering,http://www.kettering.gov.uk,-0.72898600000000,NN15 6BT,2010-05-26,fhrs_5_en-GB,5,,FHRS,5
60154,"Unit 7, Trafalgar Road Industrial Estate",Trafalgar Road,Kettering,Northamptonshire,Lazer Zap Attack Ltd,Restaurant/Cafe/Canteen,1,5,,683016,5,,52.40193400000000,18860,238,fhrs@kettering.gov.uk,Kettering,http://www.kettering.gov.uk,-0.72830800000000,NN16 8AQ,2014-05-13,fhrs_5_en-GB,5,,FHRS,5
60155,,2 Horsemarket,Kettering,Northamptonshire,Lee Garden,Restaurant/Cafe/Canteen,1,5,,95300,0,,52.39881200000000,2829,238,fhrs@kettering.gov.uk,Kettering,http://www.kettering.gov.uk,-0.72645700000000,NN16 0DG,2013-03-05,fhrs_5_en-GB,5,,FHRS,5
60156,,106 Lower Street,Kettering,Northamptonshire,Lets Go Express,Retailers - other,4613,10,,371924,10,,52.40154100000000,18269,238,fhrs@kettering.gov.uk,Kettering,http://www.kettering.gov.uk,-0.73355200000000,NN16 8DN,2012-02-07,fhrs_3_en-GB,3,,FHRS,5
60157,,,,,Lianna Lawrence,Other catering premises,7841,5,,552333,0,,,18944,238,fhrs@kettering.gov.uk,Kettering,http://www.kettering.gov.uk,,,2013-04-25,fhrs_5_en-GB,5,,FHRS,0
60158,,,,,Licky Lips Cupcakes,Other catering premises,7841,10,,74695,5,,,17273,238,fhrs@kettering.gov.uk,Kettering,http://www.kettering.gov.uk,,,2010-08-03,fhrs_3_en-GB,3,,FHRS,10
60159,Lidl Uk Gmbh,Northfield Avenue,Kettering,Northamptonshire,Lidl U.K. gmbH,Retailers - supermarkets/hypermarkets,7840,5,,102872,5,,52.41607500000000,3431,238,fhrs@kettering.gov.uk,Kettering,http://www.kettering.gov.uk,-0.68010000000000,NN16 8AL,2006-03-14,fhrs_4_en-GB,4,,FHRS,10
60160,,,,,Lilly Pickle,Other catering premises,7841,10,,494276,5,,,18635,238,fhrs@kettering.gov.uk,Kettering,http://www.kettering.gov.uk,,,2012-10-17,fhrs_3_en-GB,3,,FHRS,10
60161,,2 Sheep Street,Kettering,Northamptonshire,Linnetts Newsagents,Retailers - other,4613,10,,142716,10,,52.39637600000000,797,238,fhrs@kettering.gov.uk,Kettering,http://www.kettering.gov.uk,-0.72814400000000,NN16 0AN,2015-01-06,fhrs_3_en-GB,3,,FHRS,10
60162,Ise Valley Pavillion,Grantown Close,Kettering,Northamptonshire,Little Bears Pre-School,Hospitals/Childcare/Caring Premises,5,5,,74883,5,,52.38978000000000,17362,238,fhrs@kettering.gov.uk,Kettering,http://www.kettering.gov.uk,-0.70361700000000,NN15 5DJ,2010-09-16,fhrs_5_en-GB,5,,FHRS,0
60163,,28 Bridge Street,Rothwell,Northamptonshire,Little Blue Owl Cake Company,Retailers - other,4613,0,,505102,0,,52.42303300000000,18800,238,fhrs@kettering.gov.uk,Kettering,http://www.kettering.gov.uk,-0.80127500000000,NN14 6JW,2013-01-18,fhrs_5_en-GB,5,,FHRS,5
60164,,A14 Westbound,Kettering,Northamptonshire,Little Chef,Restaurant/Cafe/Canteen,1,5,,62067,5,,52.38063600000000,13682,238,fhrs@kettering.gov.uk,Kettering,http://www.kettering.gov.uk,-0.73088800000000,NN14 1RW,2012-07-29,fhrs_5_en-GB,5,,FHRS,5
60165,,A14 Eastbound,Kettering,Northamptonshire,Little Chef Kettering East,Restaurant/Cafe/Canteen,1,5,,62064,5,,52.41447700000000,13681,238,fhrs@kettering.gov.uk,Kettering,http://www.kettering.gov.uk,-0.79006800000000,NN14 1SS,2013-07-29,fhrs_5_en-GB,5,,FHRS,5
60166,Victoria Hall,School Lane,Rothwell,Northamptonshire,Little Leaders Daycare Ltd,Hospitals/Childcare/Caring Premises,5,10,,607054,5,,52.38308400000000,18977,238,fhrs@kettering.gov.uk,Kettering,http://www.kettering.gov.uk,-0.58691600000000,NN14 4HZ,2013-09-10,fhrs_4_en-GB,4,,FHRS,5
60167,Loatlands County Primary School,Harrington Road,Desborough,Northamptonshire,Loatlands Primary School,School/college/university,7845,5,,123942,0,,52.44248700000000,5239,238,fhrs@kettering.gov.uk,Kettering,http://www.kettering.gov.uk,-0.83074600000000,NN14 2NJ,2013-05-03,fhrs_5_en-GB,5,,FHRS,0
60168,,3 Dalkeith Place,Kettering,Northamptonshire,"Local News, Food & Wine",Retailers - other,4613,10,,371905,10,,52.39940300000000,17031,238,fhrs@kettering.gov.uk,Kettering,http://www.kettering.gov.uk,-0.72616100000000,NN16 0BS,2012-01-26,fhrs_4_en-GB,4,,FHRS,0
60169,Loddington C Of E Primary Scho,Main Street,Loddington,Northamptonshire,Loddington Primary School,School/college/university,7845,10,,145325,10,,52.39827500000000,8585,238,fhrs@kettering.gov.uk,Kettering,http://www.kettering.gov.uk,-0.80325400000000,NN14 1LA,2014-10-06,fhrs_3_en-GB,3,,FHRS,10
60170,,9 Cedar Road,Kettering,Northamptonshire,Londis Stores,Retailers - other,4613,5,,683031,5,,52.40843700000000,19468,238,fhrs@kettering.gov.uk,Kettering,http://www.kettering.gov.uk,-0.71605100000000,NN16 9PT,2014-06-16,fhrs_5_en-GB,5,,FHRS,5
60171,,45 Argyll Street,Kettering,Northamptonshire,Londis Stores,Retailers - other,4613,5,,132740,5,,52.39124200000000,649,238,fhrs@kettering.gov.uk,Kettering,http://www.kettering.gov.uk,-0.72389800000000,NN15 6DB,2005-05-06,fhrs_5_en-GB,5,,FHRS,5
60172,,9 Cedar Road,Kettering,Northamptonshire,Londis Stores,Retailers - supermarkets/hypermarkets,7840,20,,73002,15,,52.40843700000000,16699,238,fhrs@kettering.gov.uk,Kettering,http://www.kettering.gov.uk,-0.71605100000000,NN16 9PT,2012-11-27,fhrs_1_en-GB,1,,FHRS,10
60173,,1 Grange Road,Geddington,Northamptonshire,LovefoodJM Ltd,School/college/university,7845,5,,715531,5,,52.43495000000000,19621,238,fhrs@kettering.gov.uk,Kettering,http://www.kettering.gov.uk,-0.69470100000000,NN14 1AL,2014-09-29,fhrs_5_en-GB,5,,FHRS,5
60174,,135 Polwell Lane,Barton Seagrave,Northamptonshire,Lucerne House Childrens Home,Hospitals/Childcare/Caring Premises,5,0,,494265,0,,52.37513400000000,18433,238,fhrs@kettering.gov.uk,Kettering,http://www.kettering.gov.uk,-0.69457000000000,NN15 6TE,2013-01-16,fhrs_5_en-GB,5,,FHRS,0
60175,,81/81A High Street,Desborough,Northamptonshire,Lucy's Tea Room,Restaurant/Cafe/Canteen,1,5,,75704,5,,52.44226900000000,17729,238,fhrs@kettering.gov.uk,Kettering,http://www.kettering.gov.uk,-0.82143800000000,NN14 2ND,2014-03-11,fhrs_5_en-GB,5,,FHRS,5
60176,,98a Montagu Street,Kettering,Northamptonshire,Lunchbox,Takeaway/sandwich shop,7844,10,,52258,5,,52.40187400000000,11785,238,fhrs@kettering.gov.uk,Kettering,http://www.kettering.gov.uk,-0.72024000000000,NN16 8RX,2013-12-17,fhrs_4_en-GB,4,,FHRS,5
60177,,,,,Lymn Bank Farm Cheese,Mobile caterer,7846,0,,77251,0,,,18108,238,fhrs@kettering.gov.uk,Kettering,http://www.kettering.gov.uk,,,2011-09-08,fhrs_5_en-GB,5,,FHRS,0
60178,,,,,Lynn Dornan,Other catering premises,7841,5,,733057,5,,,19766,238,fhrs@kettering.gov.uk,Kettering,http://www.kettering.gov.uk,,,2014-12-09,fhrs_5_en-GB,5,,FHRS,5
60179,,70 Hawthorn Road,Kettering,Northamptonshire,M A Coales Family Butchers,Retailers - other,4613,5,,432641,5,,52.39152800000000,18332,238,fhrs@kettering.gov.uk,Kettering,http://www.kettering.gov.uk,-0.72459500000000,NN15 7HT,2013-07-30,fhrs_5_en-GB,5,,FHRS,5
60180,,147 London Road,Kettering,Northamptonshire,M D's Fish Bar,Takeaway/sandwich shop,7844,5,,49973,5,,52.39039200000000,11107,238,fhrs@kettering.gov.uk,Kettering,http://www.kettering.gov.uk,-0.71770600000000,NN15 6NQ,2013-05-09,fhrs_5_en-GB,5,,FHRS,5
60181,,27 Montagu Street,Kettering,Northamptonshire,MACS European & Caribbean Store,Retailers - other,4613,10,,51551,5,,52.40139600000000,11559,238,fhrs@kettering.gov.uk,Kettering,http://www.kettering.gov.uk,-0.72422200000000,NN16 8XG,2011-04-27,fhrs_4_en-GB,4,,FHRS,5
60182,,,,,Maggie Bacon,Other catering premises,7841,5,,432655,5,,,18449,238,fhrs@kettering.gov.uk,Kettering,http://www.kettering.gov.uk,,,2012-03-07,fhrs_5_en-GB,5,,FHRS,5
60183,,28a Rockingham Road,Kettering,Northamptonshire,Maja Sklep,Retailers - other,4613,20,,696155,10,,52.40337800000000,19381,238,fhrs@kettering.gov.uk,Kettering,http://www.kettering.gov.uk,-0.72629700000000,NN16 8JS,2014-07-28,fhrs_1_en-GB,1,,FHRS,10
60184,,45 Carlton Street,Kettering,Northamptonshire,Malbary,Hospitals/Childcare/Caring Premises,5,10,,56341,5,,52.40331000000000,12731,238,fhrs@kettering.gov.uk,Kettering,http://www.kettering.gov.uk,-0.73332500000000,NN16 8ED,2014-09-02,fhrs_4_en-GB,4,,FHRS,5
60185,,,,,Mandy's Pantry,Mobile caterer,7846,5,,74457,5,,,17170,238,fhrs@kettering.gov.uk,Kettering,http://www.kettering.gov.uk,,,2013-05-20,fhrs_5_en-GB,5,,FHRS,5
60186,,2 Market Street,Kettering,Northamptonshire,Mangiamo Pizza & Pasta Restaurant,Restaurant/Cafe/Canteen,1,10,,371921,10,,52.39827200000000,18233,238,fhrs@kettering.gov.uk,Kettering,http://www.kettering.gov.uk,-0.72717800000000,NN16 0AH,2013-08-16,fhrs_3_en-GB,3,,FHRS,10
60187,Manor Farm,Station Road,Rushton,Northamptonshire,Manor Farm Guesthouse,Hotel/bed & breakfast/guest house,7842,5,,141204,5,,52.43828100000000,7758,238,fhrs@kettering.gov.uk,Kettering,http://www.kettering.gov.uk,-0.76196500000000,NN14 1RL,2011-06-16,fhrs_5_en-GB,5,,FHRS,5
60188,,,,,Margaret Davies,Other catering premises,7841,0,,432675,0,,,18543,238,fhrs@kettering.gov.uk,Kettering,http://www.kettering.gov.uk,,,2012-08-02,fhrs_5_en-GB,5,,FHRS,0
60189,,45 High Street,Kettering,Northamptonshire,Marks & Spencer Plc,Retailers - supermarkets/hypermarkets,7840,0,,131577,0,,52.39883600000000,631,238,fhrs@kettering.gov.uk,Kettering,http://www.kettering.gov.uk,-0.72861700000000,NN16 8SU,2009-06-11,fhrs_5_en-GB,5,,FHRS,5
60190,,Gold Street,Desborough,Northamptonshire,Marlow House,Other catering premises,7841,5,,70425,5,,52.44261300000000,16,238,fhrs@kettering.gov.uk,Kettering,http://www.kettering.gov.uk,-0.82354800000000,NN14 2NQ,2014-12-23,fhrs_5_en-GB,5,,FHRS,5
60191,,,,,Mary and Georgie,Other catering premises,7841,5,,62750,5,,,13881,238,fhrs@kettering.gov.uk,Kettering,http://www.kettering.gov.uk,,,2006-04-26,fhrs_5_en-GB,5,,FHRS,5
60192,,,,,Marys Cakes,Other catering premises,7841,0,,74242,0,,,17089,238,fhrs@kettering.gov.uk,Kettering,http://www.kettering.gov.uk,,,2010-04-23,fhrs_5_en-GB,5,,FHRS,0
60193,Masonic Hall,York Road,Kettering,Northamptonshire,Masonic Lodge,Other catering premises,7841,5,,77877,5,,52.39801100000000,184,238,fhrs@kettering.gov.uk,Kettering,http://www.kettering.gov.uk,-0.72304100000000,NN16 0DB,2013-01-07,fhrs_5_en-GB,5,,FHRS,5
60194,,115 Montagu Street,Kettering,Northamptonshire,Master Chef,Takeaway/sandwich shop,7844,5,,118547,5,,52.40231700000000,479,238,fhrs@kettering.gov.uk,Kettering,http://www.kettering.gov.uk,-0.71966800000000,NN16 8XJ,2013-08-12,fhrs_5_en-GB,5,,FHRS,5
60195,,42 Queen Street,Kettering,Northamptonshire,Masti,Restaurant/Cafe/Canteen,1,10,,494280,10,,52.39893600000000,18673,238,fhrs@kettering.gov.uk,Kettering,http://www.kettering.gov.uk,-0.72379300000000,NN16 0BZ,2013-01-09,fhrs_3_en-GB,3,,FHRS,10
60196,Mawsley Community Primary Scho,Scholars Row,Mawsley,Northamptonshire,Mawsley Community Primary School,School/college/university,7845,5,,60315,0,,52.37550300000000,13173,238,fhrs@kettering.gov.uk,Kettering,http://www.kettering.gov.uk,-0.81225700000000,NN14 1GZ,2011-12-01,fhrs_5_en-GB,5,,FHRS,0
60197,,14 Barnwell Court,Mawsley,Northamptonshire,Mawsley Day Nursery,Hospitals/Childcare/Caring Premises,5,5,,69776,5,,52.37494100000000,15742,238,fhrs@kettering.gov.uk,Kettering,http://www.kettering.gov.uk,-0.81093600000000,NN14 1FG,2014-07-29,fhrs_5_en-GB,5,,FHRS,5
60198,,Stanier Road,Kettering,Northamptonshire,McDonalds,Restaurant/Cafe/Canteen,1,5,,618909,0,,52.40451000000000,18331,238,fhrs@kettering.gov.uk,Kettering,http://www.kettering.gov.uk,-0.73624500000000,NN16 9XW,2013-12-10,fhrs_5_en-GB,5,,FHRS,0
60199,,35 High Street,Kettering,Northamptonshire,McDonalds Restaurant Ltd,Restaurant/Cafe/Canteen,1,0,,61125,0,,52.39883600000000,13390,238,fhrs@kettering.gov.uk,Kettering,http://www.kettering.gov.uk,-0.72861700000000,NN16 8SU,2011-07-19,fhrs_5_en-GB,5,,FHRS,5
60200,,Orion Way,Pytchley,Northamptonshire,McDonalds Restaurants Limited,Takeaway/sandwich shop,7844,0,,151018,5,,52.37851200000000,9972,238,fhrs@kettering.gov.uk,Kettering,http://www.kettering.gov.uk,-0.72397100000000,NN15 6NL,2012-11-09,fhrs_5_en-GB,5,,FHRS,5
60201,,A14,Kettering,Northamptonshire,McDonalds Rothwell Ltd,Restaurant/Cafe/Canteen,1,0,,104153,5,,52.41447700000000,3537,238,fhrs@kettering.gov.uk,Kettering,http://www.kettering.gov.uk,-0.79006800000000,NN14 1SS,2013-07-29,fhrs_5_en-GB,5,,FHRS,5
60202,,116 Rockingham Road,Kettering,Northamptonshire,Meadhurst,Hospitals/Childcare/Caring Premises,5,20,,113681,10,,52.40851300000000,427,238,fhrs@kettering.gov.uk,Kettering,http://www.kettering.gov.uk,-0.72806000000000,NN16 9AF,2011-05-20,fhrs_1_en-GB,1,,FHRS,0
60203,,Park Road,Burton Latimer,Northamptonshire,Meadowside Childrens Centre,School/college/university,7845,5,,648822,0,,52.36255800000000,19372,238,fhrs@kettering.gov.uk,Kettering,http://www.kettering.gov.uk,-0.68583600000000,NN15 5QY,2014-03-24,fhrs_5_en-GB,5,,FHRS,0
60204,,12 Wales Street,Rothwell,Northamptonshire,Mencap Homes Foundation,Hospitals/Childcare/Caring Premises,5,5,,108181,0,,52.42208000000000,385,238,fhrs@kettering.gov.uk,Kettering,http://www.kettering.gov.uk,-0.80569800000000,NN14 6JL,2009-06-17,fhrs_5_en-GB,5,,FHRS,5
60205,,58 Park Road,Kettering,Northamptonshire,Mencap Homes Foundation,Hospitals/Childcare/Caring Premises,5,10,,98951,10,,52.40939000000000,3122,238,fhrs@kettering.gov.uk,Kettering,http://www.kettering.gov.uk,-0.72105100000000,NN16 9LL,2011-12-05,fhrs_3_en-GB,3,,FHRS,5
60206,,22 Queensberry Road,Kettering,Northamptonshire,Mencap Homes Foundation,Hospitals/Childcare/Caring Premises,5,5,,115087,5,,52.39321400000000,442,238,fhrs@kettering.gov.uk,Kettering,http://www.kettering.gov.uk,-0.72920500000000,NN15 7HL,2006-08-16,fhrs_5_en-GB,5,,FHRS,5
60207,,,,,Messy Cake company,Other catering premises,7841,5,,77125,0,,,18050,238,fhrs@kettering.gov.uk,Kettering,http://www.kettering.gov.uk,,,2011-10-27,fhrs_5_en-GB,5,,FHRS,0
60208,,2 Hallwood Road,Kettering,Northamptonshire,Midland Band Club,Pub/bar/nightclub,7843,5,,73479,5,,52.41149700000000,169,238,fhrs@kettering.gov.uk,Kettering,http://www.kettering.gov.uk,-0.72213700000000,NN16 9RG,2008-09-11,fhrs_5_en-GB,5,,FHRS,5
60209,,Hallwood Road,Kettering,Northamptonshire,Midlands Co-Op,Retailers - other,4613,5,,552330,5,,52.41047600000000,18478,238,fhrs@kettering.gov.uk,Kettering,http://www.kettering.gov.uk,-0.72253400000000,NN16 9RQ,2013-05-10,fhrs_5_en-GB,5,,FHRS,5
60210,,196 London Road,Kettering,Northamptonshire,Midlands Co-op,Retailers - supermarkets/hypermarkets,7840,5,,626778,0,,52.39062100000000,18539,238,fhrs@kettering.gov.uk,Kettering,http://www.kettering.gov.uk,-0.71887500000000,NN15 6DT,2014-01-13,fhrs_5_en-GB,5,,FHRS,0
60211,,Bell Hill,Rothwell,Northamptonshire,Midlands Co-op Society Ltd,Retailers - other,4613,5,,127515,5,,52.24776400000000,569,238,fhrs@kettering.gov.uk,Kettering,http://www.kettering.gov.uk,-0.87803000000000,NN14 2EE,2008-07-02,fhrs_5_en-GB,5,,FHRS,5
60212,,69 St. Johns Road,Kettering,Northamptonshire,Midlands Co-op Society Ltd,Retailers - other,4613,5,,130686,5,,52.39060100000000,620,238,fhrs@kettering.gov.uk,Kettering,http://www.kettering.gov.uk,-0.69730300000000,NN15 5AT,2008-05-21,fhrs_5_en-GB,5,,FHRS,5
60213,,60 Stamford Road,Kettering,Northamptonshire,Midlands Co-op Society Ltd,Retailers - other,4613,0,,130864,0,,52.40305600000000,622,238,fhrs@kettering.gov.uk,Kettering,http://www.kettering.gov.uk,-0.71487000000000,NN16 8LL,2014-10-06,fhrs_5_en-GB,5,,FHRS,5
60214,Co Operative Retail Services,1-5 Grange Place,Kettering,Northamptonshire,Midlands Co-op Society Ltd,Retailers - other,4613,0,,129819,5,,52.40727800000000,608,238,fhrs@kettering.gov.uk,Kettering,http://www.kettering.gov.uk,-0.70707300000000,NN16 0NT,2013-08-12,fhrs_5_en-GB,5,,FHRS,5
60215,Midlands Co Op Society Ltd,Gladstone Street,Desborough,Northamptonshire,Midlands Co-op Society Ltd,Retailers - supermarkets/hypermarkets,7840,5,,55302,0,,52.44440000000000,12485,238,fhrs@kettering.gov.uk,Kettering,http://www.kettering.gov.uk,-0.81967500000000,NN14 2QT,2008-05-15,fhrs_5_en-GB,5,,FHRS,0
60216,,113 Braybrooke Road,Desborough,Northamptonshire,Midlands Cooperative Society,Retailers - other,4613,5,,67701,0,,52.44353100000000,15121,238,fhrs@kettering.gov.uk,Kettering,http://www.kettering.gov.uk,-0.82631900000000,NN14 2LH,2007-12-18,fhrs_5_en-GB,5,,FHRS,0
60217,,3 Bignal Court,Kettering,Northamptonshire,Midlands Co-operative Society,Retailers - supermarkets/hypermarkets,7840,5,,51987,0,,52.39148400000000,11694,238,fhrs@kettering.gov.uk,Kettering,http://www.kettering.gov.uk,-0.74655100000000,NN15 7RH,2011-06-13,fhrs_5_en-GB,5,,FHRS,0
60218,,2 High Street,Desborough,Northamptonshire,Midlands Co-operative Society Ltd,Retailers - supermarkets/hypermarkets,7840,0,,65074,0,,52.44161300000000,14574,238,fhrs@kettering.gov.uk,Kettering,http://www.kettering.gov.uk,-0.82153000000000,NN14 2QS,2008-02-14,fhrs_5_en-GB,5,,FHRS,0
60219,,2 Highfield Crescent,Kettering,Northamptonshire,Mikado Pheasant,Pub/bar/nightclub,7843,5,,71567,10,,52.38239500000000,16241,238,fhrs@kettering.gov.uk,Kettering,http://www.kettering.gov.uk,-0.72312400000000,NN15 6JS,2011-09-26,fhrs_4_en-GB,4,,FHRS,5
60220,,175 Mill Road,Kettering,Northamptonshire,Mill Road Chippy,Takeaway/sandwich shop,7844,10,,71489,10,,52.40136000000000,16220,238,fhrs@kettering.gov.uk,Kettering,http://www.kettering.gov.uk,-0.71265500000000,NN16 0RH,2014-10-09,fhrs_3_en-GB,3,,FHRS,5
60221,Southleigh,31 London Road,Kettering,Northamptonshire,Minister Pathways Ltd,Hospitals/Childcare/Caring Premises,5,5,,63138,0,,52.39769700000000,13988,238,fhrs@kettering.gov.uk,Kettering,http://www.kettering.gov.uk,-0.72472600000000,NN16 0EF,2014-10-06,fhrs_5_en-GB,5,,FHRS,5
60222,,63 Stamford Road,Kettering,Northamptonshire,Mmmm...Sandwiches and Salads,Takeaway/sandwich shop,7844,5,,59523,5,,52.40322900000000,13091,238,fhrs@kettering.gov.uk,Kettering,http://www.kettering.gov.uk,-0.71584900000000,NN16 8XY,2013-07-30,fhrs_5_en-GB,5,,FHRS,0
60223,,,,,Monica Ozdemir,Other catering premises,7841,10,,371917,5,,,18195,238,fhrs@kettering.gov.uk,Kettering,http://www.kettering.gov.uk,,,2012-01-12,fhrs_4_en-GB,4,,FHRS,5
60224,,41 Weekley,Kettering,Northamptonshire,Montagu Club,Pub/bar/nightclub,7843,5,,72781,5,,52.41779400000000,166,238,fhrs@kettering.gov.uk,Kettering,http://www.kettering.gov.uk,-0.69776700000000,NN16 9UN,2006-03-27,fhrs_4_en-GB,4,,FHRS,10
60225,Montsaye School,Greening Road,Rothwell,Northamptonshire,Montsaye Academy,School/college/university,7845,0,,83383,5,,52.42425500000000,204,238,fhrs@kettering.gov.uk,Kettering,http://www.kettering.gov.uk,-0.81096300000000,NN14 6BB,2013-11-19,fhrs_5_en-GB,5,,FHRS,5
60226,Service Station,Northfield Avenue,Kettering,Northamptonshire,Morrisons Petrol Garage,Retailers - other,4613,5,,52318,5,,52.39676700000000,11802,238,fhrs@kettering.gov.uk,Kettering,http://www.kettering.gov.uk,-0.73355600000000,NN16 8TB,2005-09-21,fhrs_5_en-GB,5,,FHRS,5
60227,,,,,Mr G Fakhrai,Mobile caterer,7846,5,,140754,5,,,768,238,fhrs@kettering.gov.uk,Kettering,http://www.kettering.gov.uk,,,2013-08-02,fhrs_5_en-GB,5,,FHRS,5
60228,Dairy Farm,St Andrews Lane,Cranford St Andrew,Northamptonshire,Mr J & Mrs A Clarke,Hotel/bed & breakfast/guest house,7842,10,,120215,5,,52.38661500000000,4923,238,fhrs@kettering.gov.uk,Kettering,http://www.kettering.gov.uk,-0.64585900000000,NN14 4AQ,2011-12-13,fhrs_4_en-GB,4,,FHRS,5
60229,,,,,Mrs Annette Hill,Other catering premises,7841,5,,66251,5,,,14905,238,fhrs@kettering.gov.uk,Kettering,http://www.kettering.gov.uk,,,2007-12-18,fhrs_5_en-GB,5,,FHRS,5
60230,,,,,Mrs Shrene Valentine,Mobile caterer,7846,10,,74799,0,,,17326,238,fhrs@kettering.gov.uk,Kettering,http://www.kettering.gov.uk,,,2012-06-15,fhrs_4_en-GB,4,,FHRS,5
60231,,,Kettering,Northamptonshire,Mrs Sunshines Cakes,Other catering premises,7841,10,,77091,0,,52.40183000000000,18033,238,fhrs@kettering.gov.uk,Kettering,http://www.kettering.gov.uk,-0.70789400000000,NN16 0LH,2011-08-23,fhrs_4_en-GB,4,,FHRS,5
60232,,9 Silver Street,Kettering,Northamptonshire,Mugs Coffee House,Restaurant/Cafe/Canteen,1,5,,149782,5,,52.40033600000000,9664,238,fhrs@kettering.gov.uk,Kettering,http://www.kettering.gov.uk,-0.72604600000000,NN16 0BN,2013-04-05,fhrs_5_en-GB,5,,FHRS,5
60233,,42 Rockingham Road,Kettering,Northamptonshire,MuMu,Restaurant/Cafe/Canteen,1,5,,733059,5,,52.40337800000000,19775,238,fhrs@kettering.gov.uk,Kettering,http://www.kettering.gov.uk,-0.72629700000000,NN16 8JS,2014-11-14,fhrs_5_en-GB,5,,FHRS,5
60234,Church Of Christ The King,Deeble Road,Kettering,Northamptonshire,Muppet Pre-School,Hospitals/Childcare/Caring Premises,5,0,,56232,0,,52.39734300000000,12701,238,fhrs@kettering.gov.uk,Kettering,http://www.kettering.gov.uk,-0.71030300000000,NN15 7AA,2009-05-08,fhrs_5_en-GB,5,,FHRS,5
60235,,13-13a Market Place,Kettering,Northamptonshire,Mystic Diners,Takeaway/sandwich shop,7844,10,,145746,15,,52.39748100000000,8720,238,fhrs@kettering.gov.uk,Kettering,http://www.kettering.gov.uk,-0.72809800000000,NN16 0AJ,2014-06-25,fhrs_2_en-GB,2,,FHRS,5
60236,,,,,Nana Maria's,Other catering premises,7841,10,,683024,5,,,19402,238,fhrs@kettering.gov.uk,Kettering,http://www.kettering.gov.uk,,,2014-03-20,fhrs_4_en-GB,4,,FHRS,5
60237,Kettering Retail Park,Carina Road,Kettering,Northamptonshire,Nandos Chickenland Limited,Restaurant/Cafe/Canteen,1,0,,68061,0,,52.37486300000000,15214,238,fhrs@kettering.gov.uk,Kettering,http://www.kettering.gov.uk,-0.71914000000000,NN15 6YA,2012-08-21,fhrs_5_en-GB,5,,FHRS,5
60238,,Sheep Street,Kettering,Northamptonshire,Naseby Hotel,Hotel/bed & breakfast/guest house,7842,10,,74146,10,,52.39637600000000,17043,238,fhrs@kettering.gov.uk,Kettering,http://www.kettering.gov.uk,-0.72814400000000,NN16 0AN,2013-10-23,fhrs_2_en-GB,2,,FHRS,15
60239,,98 High Street,Burton Latimer,Northamptonshire,Nazreen,Restaurant/Cafe/Canteen,1,0,,618912,0,,52.36313600000000,19041,238,fhrs@kettering.gov.uk,Kettering,http://www.kettering.gov.uk,-0.67884300000000,NN15 5LA,2013-12-11,fhrs_5_en-GB,5,,FHRS,0
60240,,1 Granville Street,Kettering,Northamptonshire,New Village,Takeaway/sandwich shop,7844,10,,696158,10,,,19521,238,fhrs@kettering.gov.uk,Kettering,http://www.kettering.gov.uk,,NN16 OTA,2014-07-17,fhrs_3_en-GB,3,,FHRS,10
60241,,Rockingham Road,Kettering,Northamptonshire,New York Thunder Bowl,Other catering premises,7841,10,,60780,10,,52.41179600000000,13287,238,fhrs@kettering.gov.uk,Kettering,http://www.kettering.gov.uk,-0.72821500000000,NN16 9AW,2015-01-19,fhrs_3_en-GB,3,,FHRS,10
60242,,242 Mill Road,Kettering,Northamptonshire,News Food and Wine,Retailers - other,4613,10,,130415,5,,52.40117100000000,616,238,fhrs@kettering.gov.uk,Kettering,http://www.kettering.gov.uk,-0.71258700000000,NN16 0RW,2014-12-23,fhrs_3_en-GB,3,,FHRS,10
60243,,30 Station Road,Kettering,Northamptonshire,News Plus,Retailers - other,4613,,,683020,,,52.39384200000000,19373,238,fhrs@kettering.gov.uk,Kettering,http://www.kettering.gov.uk,-0.73077400000000,NN15 7HJ,2014-05-06,fhrs_exempt_en-GB,Exempt,,FHRS,
60244,,83 Rockingham Road,Kettering,Northamptonshire,Nicks Fish & Chips,Takeaway/sandwich shop,7844,5,,121887,10,,52.40489800000000,505,238,fhrs@kettering.gov.uk,Kettering,http://www.kettering.gov.uk,-0.72717900000000,NN16 8LA,2013-12-03,fhrs_4_en-GB,4,,FHRS,5
60245,,,,,Nicola's Pantry,Other catering premises,7841,5,,76264,5,,,17957,238,fhrs@kettering.gov.uk,Kettering,http://www.kettering.gov.uk,,,2011-07-25,fhrs_5_en-GB,5,,FHRS,5
60246,,,,,Nightingales,Other catering premises,7841,5,,77368,5,,,18160,238,fhrs@kettering.gov.uk,Kettering,http://www.kettering.gov.uk,,,2011-11-10,fhrs_5_en-GB,5,,FHRS,5
60247,,,,,Nikilicious Cakes,Other catering premises,7841,10,,494270,0,,,18569,238,fhrs@kettering.gov.uk,Kettering,http://www.kettering.gov.uk,,,2012-09-13,fhrs_4_en-GB,4,,FHRS,5
60248,,,,,Nina's Samosas,Other catering premises,7841,5,,67283,5,,,15004,238,fhrs@kettering.gov.uk,Kettering,http://www.kettering.gov.uk,,,2007-05-15,fhrs_5_en-GB,5,,FHRS,5
60249,,182 Kingsley Avenue,Kettering,Northamptonshire,Nisa,Retailers - supermarkets/hypermarkets,7840,5,,62144,5,,52.41347700000000,13705,238,fhrs@kettering.gov.uk,Kettering,http://www.kettering.gov.uk,-0.72321200000000,NN16 9EX,2011-06-14,fhrs_5_en-GB,5,,FHRS,5
60250,,23 Linden Avenue,Kettering,Northamptonshire,Nisa,Retailers - other,4613,10,,62703,5,,52.39989100000000,13863,238,fhrs@kettering.gov.uk,Kettering,http://www.kettering.gov.uk,-0.71559400000000,NN16 0EP,2009-04-23,fhrs_3_en-GB,3,,FHRS,10
60251,,3 Silver Street,Kettering,Northamptonshire,No 3,Pub/bar/nightclub,7843,5,,715521,5,,52.40033600000000,19467,238,fhrs@kettering.gov.uk,Kettering,http://www.kettering.gov.uk,-0.72604600000000,NN16 0BN,2014-09-03,fhrs_4_en-GB,4,,FHRS,10
60252,,Market Street,Kettering,Northamptonshire,Northern Lights Social Club-,Pub/bar/nightclub,7843,5,,75393,5,,52.39827200000000,176,238,fhrs@kettering.gov.uk,Kettering,http://www.kettering.gov.uk,-0.72717800000000,NN16 0AH,2006-03-08,fhrs_5_en-GB,5,,FHRS,5
60253,Northleigh,187 Rockingham Road,Kettering,Northamptonshire,Northleigh,Hospitals/Childcare/Caring Premises,5,5,,64255,5,,52.40907300000000,14243,238,fhrs@kettering.gov.uk,Kettering,http://www.kettering.gov.uk,-0.72914600000000,NN16 9JA,2007-12-28,fhrs_5_en-GB,5,,FHRS,5
60254,Cranford C Of E Primary School,Church Lane,Cranford,Northamptonshire,Nourish at Cranford Primary School,School/college/university,7845,5,,74424,0,,52.38350400000000,17157,238,fhrs@kettering.gov.uk,Kettering,http://www.kettering.gov.uk,-0.64031200000000,NN14 4AE,2014-03-25,fhrs_5_en-GB,5,,FHRS,0
60255,Kingsley Special Academy Trust,Churchill Way,Kettering,Northamptonshire,Nourish at Kingsley School,School/college/university,7845,0,,62681,0,,52.39395400000000,13855,238,fhrs@kettering.gov.uk,Kettering,http://www.kettering.gov.uk,-0.69808600000000,NN15 5DP,2013-10-04,fhrs_5_en-GB,5,,FHRS,0
60256,,Park Road,Burton Latimer,Northamptonshire,Nourish at Meadowside Primary School,School/college/university,7845,10,,63514,10,,52.36255800000000,14007,238,fhrs@kettering.gov.uk,Kettering,http://www.kettering.gov.uk,-0.68583600000000,NN15 5QY,2014-03-24,fhrs_3_en-GB,3,,FHRS,5
60257,Harris House,30 Cecil Street,Rothwell,Northamptonshire,Oak Tree Day Nursery,Hospitals/Childcare/Caring Premises,5,5,,683015,5,,52.42481600000000,15968,238,fhrs@kettering.gov.uk,Kettering,http://www.kettering.gov.uk,-0.79803500000000,NN14 6EZ,2014-07-15,fhrs_4_en-GB,4,,FHRS,10
60258,Youth Centre,Paddock Lane,Desborough,Northamptonshire,Oak Tree Out of School Club,Hospitals/Childcare/Caring Premises,5,5,,69339,5,,52.44062400000000,15583,238,fhrs@kettering.gov.uk,Kettering,http://www.kettering.gov.uk,-0.81883400000000,NN14 2LZ,2008-03-17,fhrs_4_en-GB,4,,FHRS,10
60259,,47 Gold Street,Desborough,Northamptonshire,Oaktree Stores,Retailers - other,4613,5,,60830,5,,52.44261300000000,13304,238,fhrs@kettering.gov.uk,Kettering,http://www.kettering.gov.uk,-0.82354800000000,NN14 2NQ,2008-06-02,fhrs_5_en-GB,5,,FHRS,5
60260,,35 Broadway,Kettering,Northamptonshire,Ocean Takeaway,Takeaway/sandwich shop,7844,5,,72026,10,,52.39307000000000,16388,238,fhrs@kettering.gov.uk,Kettering,http://www.kettering.gov.uk,-0.72422700000000,NN15 6DD,2014-06-30,fhrs_3_en-GB,3,,FHRS,10
60261,Odeon Cinema,Pegasus Court,Pytchley,Northamptonshire,Odeon Cinemas,Other catering premises,7841,10,,128838,5,,52.37405200000000,5912,238,fhrs@kettering.gov.uk,Kettering,http://www.kettering.gov.uk,-0.71728300000000,NN15 6XS,2014-10-06,fhrs_3_en-GB,3,,FHRS,10
60262,,20 Gold Street,Kettering,Northamptonshire,Oliver Adams,Retailers - other,4613,5,,69380,5,,52.40057600000000,15593,238,fhrs@kettering.gov.uk,Kettering,http://www.kettering.gov.uk,-0.72662700000000,NN16 8JB,2013-03-11,fhrs_5_en-GB,5,,FHRS,5
60263,,58 Hawthorn Road,Kettering,Northamptonshire,Oliver Adams Ltd,Retailers - other,4613,5,,129242,5,,52.39152800000000,5978,238,fhrs@kettering.gov.uk,Kettering,http://www.kettering.gov.uk,-0.72459500000000,NN15 7HT,2014-08-12,fhrs_4_en-GB,4,,FHRS,10
60264,,94 Saunders Close,Kettering,Northamptonshire,Olympus Care Services,Hospitals/Childcare/Caring Premises,5,10,,552335,10,,52.39676700000000,18947,238,fhrs@kettering.gov.uk,Kettering,http://www.kettering.gov.uk,-0.73022000000000,NN16 0AP,2013-05-17,fhrs_3_en-GB,3,,FHRS,10
60265,,2-6 Churchill Way,Burton Latimer,Northamptonshire,One Stop,Retailers - supermarkets/hypermarkets,7840,5,,371906,5,,52.36436300000000,17837,238,fhrs@kettering.gov.uk,Kettering,http://www.kettering.gov.uk,-0.68084800000000,NN15 5RU,2013-08-16,fhrs_5_en-GB,5,,FHRS,0
60266,,121-123 Windmill Avenue,Kettering,Northamptonshire,One Stop,Retailers - supermarkets/hypermarkets,7840,5,,696161,0,,52.39834200000000,19539,238,fhrs@kettering.gov.uk,Kettering,http://www.kettering.gov.uk,-0.71128800000000,NN15 7DZ,2014-08-18,fhrs_5_en-GB,5,,FHRS,0
60267,Unit 1,Barnwell Court,Mawlsey,Northamptonshire,One Stop Stores Ltd,Retailers - supermarkets/hypermarkets,7840,5,,69251,5,,52.37567000000000,15555,238,fhrs@kettering.gov.uk,Kettering,http://www.kettering.gov.uk,-0.81193000000000,NN14 1GY,2008-03-26,fhrs_5_en-GB,5,,FHRS,5
60268,,,,,Ooh Cupcake,Other catering premises,7841,5,,75989,10,,,17853,238,fhrs@kettering.gov.uk,Kettering,http://www.kettering.gov.uk,,,2011-04-13,fhrs_4_en-GB,4,,FHRS,5
60269,,155 Barton Road,Barton Seagrave,Northamptonshire,Orchard House,Hospitals/Childcare/Caring Premises,5,10,,111197,5,,52.38397600000000,407,238,fhrs@kettering.gov.uk,Kettering,http://www.kettering.gov.uk,-0.68684600000000,NN15 6RT,2014-05-21,fhrs_4_en-GB,4,,FHRS,5
60270,,21 Market Hill,Rothwell,Northamptonshire,Orient Express,Takeaway/sandwich shop,7844,10,,648824,10,,52.42275600000000,19379,238,fhrs@kettering.gov.uk,Kettering,http://www.kettering.gov.uk,-0.79966500000000,NN14 6BW,2014-03-25,fhrs_3_en-GB,3,,FHRS,10
60271,,Stringers Hill,Pytchley,Northamptonshire,Overstone Arms,Pub/bar/nightclub,7843,10,,579425,5,,52.36337300000000,19013,238,fhrs@kettering.gov.uk,Kettering,http://www.kettering.gov.uk,-0.73922500000000,NN14 1EU,2015-01-20,fhrs_4_en-GB,4,,FHRS,5
60272,,4 Grange Place,Kettering,Northamptonshire,P & J Stores Ltd,Retailers - other,4613,5,,56927,5,,52.40727800000000,12880,238,fhrs@kettering.gov.uk,Kettering,http://www.kettering.gov.uk,-0.70707300000000,NN16 0NT,2008-06-09,fhrs_5_en-GB,5,,FHRS,5
60273,,9 Gold Street,Kettering,Northamptonshire,Palmers Fruit & Veg Shop,Retailers - other,4613,10,,432665,5,,52.40053700000000,18498,238,fhrs@kettering.gov.uk,Kettering,http://www.kettering.gov.uk,-0.72796600000000,NN16 8JA,2014-07-29,fhrs_3_en-GB,3,,FHRS,10
60274,,11 Gold Street,Kettering,Northamptonshire,Palmers Quality Butchers,Retailers - other,4613,10,,131398,10,,52.40053700000000,6288,238,fhrs@kettering.gov.uk,Kettering,http://www.kettering.gov.uk,-0.72796600000000,NN16 8JA,2014-07-29,fhrs_3_en-GB,3,,FHRS,5
60275,,1a Kettering Road,Burton Latimer,Northamptonshire,Palmichael Restaurant,Restaurant/Cafe/Canteen,1,5,,129338,0,,52.36627800000000,60,238,fhrs@kettering.gov.uk,Kettering,http://www.kettering.gov.uk,-0.68002700000000,NN15 5LP,2013-03-22,fhrs_5_en-GB,5,,FHRS,0
60276,,93-97 Montagu Street,Kettering,Northamptonshire,Papa John Pizza,Takeaway/sandwich shop,7844,5,,72948,5,,52.40222500000000,16671,238,fhrs@kettering.gov.uk,Kettering,http://www.kettering.gov.uk,-0.72031800000000,NN16 8XH,2013-04-30,fhrs_4_en-GB,4,,FHRS,10
60277,,10 Bridge Street,Rothwell.,Northamptonshire,Paprika,Takeaway/sandwich shop,7844,20,,77246,15,,52.42304500000000,18103,238,fhrs@kettering.gov.uk,Kettering,http://www.kettering.gov.uk,-0.80245100000000,NN14 6EW,2014-08-06,fhrs_1_en-GB,1,,FHRS,10
60278,,20 Park Avenue,Kettering,Northamptonshire,Park Avenue Day Nursery,Hospitals/Childcare/Caring Premises,5,5,,84830,0,,52.40769100000000,211,238,fhrs@kettering.gov.uk,Kettering,http://www.kettering.gov.uk,-0.72277600000000,NN16 9RU,2013-09-24,fhrs_5_en-GB,5,,FHRS,5
60279,,Wood Street,Kettering,Northamptonshire,Park Junior & Infant School,School/college/university,7845,5,,64744,5,,52.40751600000000,14451,238,fhrs@kettering.gov.uk,Kettering,http://www.kettering.gov.uk,-0.72148800000000,NN16 9SE,2013-03-04,fhrs_5_en-GB,5,,FHRS,5
60280,,223 Rockingham Road,Kettering,Northamptonshire,Parvale House,Hospitals/Childcare/Caring Premises,5,0,,131207,0,,52.41174700000000,6255,238,fhrs@kettering.gov.uk,Kettering,http://www.kettering.gov.uk,-0.73034900000000,NN16 9JB,2011-05-03,fhrs_5_en-GB,5,,FHRS,0
60281,Kettering General Hospital,Rothwell Road,Kettering,Northamptonshire,Patient Food Service,Hospitals/Childcare/Caring Premises,5,0,,82728,0,,52.40279200000000,201,238,fhrs@kettering.gov.uk,Kettering,http://www.kettering.gov.uk,-0.74130700000000,NN16 8UZ,2014-08-20,fhrs_5_en-GB,5,,FHRS,0
60282,,54 Montagu Street,Kettering,Northamptonshire,Paul's,Retailers - other,4613,20,,53794,10,,52.40107500000000,12109,238,fhrs@kettering.gov.uk,Kettering,http://www.kettering.gov.uk,-0.72451100000000,NN16 8RU,2013-04-29,fhrs_1_en-GB,1,,FHRS,10
60283,,1 Cedar Road,Kettering,Northamptonshire,Peking House,Takeaway/sandwich shop,7844,10,,683030,0,,52.40843700000000,19444,238,fhrs@kettering.gov.uk,Kettering,http://www.kettering.gov.uk,-0.71605100000000,NN16 9PT,2014-07-01,fhrs_4_en-GB,4,,FHRS,5
60284,,78 Rockingham Road,Kettering,Northamptonshire,Perrywood House,Hospitals/Childcare/Caring Premises,5,0,,132840,0,,52.40578200000000,6502,238,fhrs@kettering.gov.uk,Kettering,http://www.kettering.gov.uk,-0.72662400000000,NN16 9AA,2008-09-08,fhrs_5_en-GB,5,,FHRS,5
60285,,16 Edgell Street,Kettering,Northamptonshire,Petite Pantry,Other catering premises,7841,5,,683028,5,,52.39891300000000,19432,238,fhrs@kettering.gov.uk,Kettering,http://www.kettering.gov.uk,-0.71991400000000,NN16 0TB,2014-04-08,fhrs_5_en-GB,5,,FHRS,0
60286,,13 Avondale Road,Kettering,Northamptonshire,Pietros,Mobile caterer,7846,5,,110222,5,,52.40679700000000,3997,238,fhrs@kettering.gov.uk,Kettering,http://www.kettering.gov.uk,-0.71658400000000,NN16 8PH,2009-04-14,fhrs_5_en-GB,5,,FHRS,5
60287,,52 Rockingham Road,Kettering,Northamptonshire,Pizza Hut,Takeaway/sandwich shop,7844,0,,61067,0,,52.40431500000000,13373,238,fhrs@kettering.gov.uk,Kettering,http://www.kettering.gov.uk,-0.72653400000000,NN16 8JT,2011-08-05,fhrs_5_en-GB,5,,FHRS,5
60288,Pizza Hut (Uk) Ltd,Carina Road,Kettering,Northamptonshire,Pizza Hut,Restaurant/Cafe/Canteen,1,5,,146144,5,,52.37486300000000,8840,238,fhrs@kettering.gov.uk,Kettering,http://www.kettering.gov.uk,-0.71914000000000,NN15 6YA,2014-09-23,fhrs_5_en-GB,5,,FHRS,5
60289,,25 Station Road,Desborough,Northamptonshire,Pizza Plus,Takeaway/sandwich shop,7844,10,,77373,10,,52.44253200000000,18162,238,fhrs@kettering.gov.uk,Kettering,http://www.kettering.gov.uk,-0.81990100000000,NN14 2RL,2012-06-27,fhrs_3_en-GB,3,,FHRS,10
60290,,14a High Street,Burton Latimer,Northamptonshire,Pizza Plus,Takeaway/sandwich shop,7844,10,,73263,10,,52.36436300000000,16804,238,fhrs@kettering.gov.uk,Kettering,http://www.kettering.gov.uk,-0.67842400000000,NN15 5LB,2013-08-01,fhrs_3_en-GB,3,,FHRS,10
60291,,5 St. Stephens Road,Kettering,Northamptonshire,Pizza-Licious,Takeaway/sandwich shop,7844,5,,570292,5,,52.39524700000000,18946,238,fhrs@kettering.gov.uk,Kettering,http://www.kettering.gov.uk,-0.68974400000000,NN15 5DS,2015-01-06,fhrs_5_en-GB,5,,FHRS,5
60292,,6 Market Hill,Rothwell,Northamptonshire,Plotters Table,Restaurant/Cafe/Canteen,1,5,,61383,5,,52.42304900000000,13478,238,fhrs@kettering.gov.uk,Kettering,http://www.kettering.gov.uk,-0.80021600000000,NN14 6EP,2013-07-30,fhrs_5_en-GB,5,,FHRS,5
60293,,,,,Polka Dot Cake Company,Other catering premises,7841,5,,76219,5,,,17939,238,fhrs@kettering.gov.uk,Kettering,http://www.kettering.gov.uk,,,2011-07-15,fhrs_5_en-GB,5,,FHRS,5
60294,,,,,Poppy's Pantry,Other catering premises,7841,5,,537960,5,,,18824,238,fhrs@kettering.gov.uk,Kettering,http://www.kettering.gov.uk,,,2013-03-28,fhrs_5_en-GB,5,,FHRS,5
60295,19 The Mall,Gold Street,Kettering,Northamptonshire,Poundland Ltd,Retailers - other,4613,5,,142377,0,,52.40146600000000,7907,238,fhrs@kettering.gov.uk,Kettering,http://www.kettering.gov.uk,-0.72741000000000,NN16 8JL,2011-06-22,fhrs_5_en-GB,5,,FHRS,0
60296,,8 Grange Place,Kettering,Northamptonshire,Presto Pizza,Takeaway/sandwich shop,7844,10,,141867,5,,52.40727800000000,7836,238,fhrs@kettering.gov.uk,Kettering,http://www.kettering.gov.uk,-0.70707300000000,NN16 0NT,2014-02-27,fhrs_4_en-GB,4,,FHRS,5
60297,Unit 2 Market Place Buildings,Sheep Street,Kettering,Northamptonshire,Prezzo Pizza,Restaurant/Cafe/Canteen,1,5,,494266,5,,52.39702600000000,18450,238,fhrs@kettering.gov.uk,Kettering,http://www.kettering.gov.uk,-0.72753800000000,NN16 0AQ,2012-10-17,fhrs_5_en-GB,5,,FHRS,5
60298,,15 Little Oakley,Corby,Northamptonshire,Primrose Cottage Bed & Breakfa,Hotel/bed & breakfast/guest house,7842,5,,40427,0,,52.46204700000000,10123,238,fhrs@kettering.gov.uk,Kettering,http://www.kettering.gov.uk,-0.68732100000000,NN18 8HA,2009-04-09,fhrs_5_en-GB,5,,FHRS,0
60299,Railway Station,Station Road,Kettering,Northamptonshire,Pumpkin,Restaurant/Cafe/Canteen,1,0,,42443,0,,52.39384200000000,10468,238,fhrs@kettering.gov.uk,Kettering,http://www.kettering.gov.uk,-0.73077400000000,NN15 7HJ,2011-12-23,fhrs_5_en-GB,5,,FHRS,5
60300,Pytchley Endowed C Of E Primar,High Street,Pytchley,Northamptonshire,Pytchley C of E Primary School,School/college/university,7845,5,,64543,5,,52.36356200000000,14366,238,fhrs@kettering.gov.uk,Kettering,http://www.kettering.gov.uk,-0.74095300000000,NN14 1EN,2015-01-06,fhrs_5_en-GB,5,,FHRS,5
60301,Pytchley Golf Lodge,Kettering Road,Pytchley,Northamptonshire,Pytchley Golf Lodge Ltd,Retailers - other,4613,5,,108480,0,,52.37416500000000,3873,238,fhrs@kettering.gov.uk,Kettering,http://www.kettering.gov.uk,-0.72524200000000,NN14 1EY,2014-10-06,fhrs_5_en-GB,5,,FHRS,0
60302,,High Street,Pytchley,Northamptonshire,Pytchley Primary School Breakfast Club,School/college/university,7845,5,,733061,5,,,19786,238,fhrs@kettering.gov.uk,Kettering,http://www.kettering.gov.uk,,,2015-01-06,fhrs_5_en-GB,5,,FHRS,5
60303,,122 Rockingham Road,Kettering,Northamptonshire,Queen of Hearts Nursery School Ltd,Hospitals/Childcare/Caring Premises,5,5,,114101,5,,52.40967000000000,4311,238,fhrs@kettering.gov.uk,Kettering,http://www.kettering.gov.uk,-0.72865900000000,NN16 9AG,2014-08-04,fhrs_5_en-GB,5,,FHRS,0
60304,,55 Queensway,Burton Latimer,Northamptonshire,Queensway Stores,Retailers - supermarkets/hypermarkets,7840,5,,145972,5,,52.35869300000000,8793,238,fhrs@kettering.gov.uk,Kettering,http://www.kettering.gov.uk,-0.68432000000000,NN15 5QH,2005-09-29,fhrs_5_en-GB,5,,FHRS,5
60305,,,,,Rachel Stevenson,Other catering premises,7841,10,,76317,0,,,17979,238,fhrs@kettering.gov.uk,Kettering,http://www.kettering.gov.uk,,,2011-07-01,fhrs_4_en-GB,4,,FHRS,0
60306,,61 Station Road,Kettering,Northamptonshire,Railway Children Nursery,Hospitals/Childcare/Caring Premises,5,5,,64393,0,,52.39384200000000,14300,238,fhrs@kettering.gov.uk,Kettering,http://www.kettering.gov.uk,-0.73077400000000,NN15 7HJ,2014-06-17,fhrs_5_en-GB,5,,FHRS,0
60307,,92 Field Street,Kettering,Northamptonshire,Rainbow News,Retailers - other,4613,5,,131475,10,,52.40450400000000,630,238,fhrs@kettering.gov.uk,Kettering,http://www.kettering.gov.uk,-0.72985100000000,NN16 8EW,2014-10-28,fhrs_4_en-GB,4,,FHRS,5
60308,,1-7 High Street,Rothwell,Northamptonshire,Rams Supermarket,Retailers - other,4613,5,,129002,5,,52.39853300000000,5935,238,fhrs@kettering.gov.uk,Kettering,http://www.kettering.gov.uk,-0.72806700000000,NN16 8ST,2004-09-06,fhrs_5_en-GB,5,,FHRS,5
60309,The Woodlands Hospital,Rothwell Road,Rothwell,Northamptonshire,Ramsay Healthcare Ltd,Hospitals/Childcare/Caring Premises,5,5,,141497,5,,52.41321000000000,7798,238,fhrs@kettering.gov.uk,Kettering,http://www.kettering.gov.uk,-0.77009200000000,NN16 8XF,2014-07-18,fhrs_5_en-GB,5,,FHRS,5
60310,,,,,Rebecca Plumpton,Other catering premises,7841,0,,49594,0,,,11008,238,fhrs@kettering.gov.uk,Kettering,http://www.kettering.gov.uk,,,2010-05-18,fhrs_5_en-GB,5,,FHRS,0
60311,,,,,Red Kite Management Services Ltd,Other catering premises,7841,5,,59533,5,,,13092,238,fhrs@kettering.gov.uk,Kettering,http://www.kettering.gov.uk,,,2006-04-26,fhrs_5_en-GB,5,,FHRS,5
60312,Red Lion,42 High Street,Cranford,Northamptonshire,Red Lion,Pub/bar/nightclub,7843,5,,715530,5,,52.38226400000000,19594,238,fhrs@kettering.gov.uk,Kettering,http://www.kettering.gov.uk,-0.64431700000000,NN14 4AA,2014-09-23,fhrs_4_en-GB,4,,FHRS,10
60313,,1 George Street,Kettering,Northamptonshire,Red Rose,Restaurant/Cafe/Canteen,1,10,,115802,10,,52.39659200000000,45,238,fhrs@kettering.gov.uk,Kettering,http://www.kettering.gov.uk,-0.72897600000000,NN16 0AW,2014-03-31,fhrs_3_en-GB,3,,FHRS,10
60314,,,,,Regent Chutney Company,Other catering premises,7841,5,,715529,0,,,19572,238,fhrs@kettering.gov.uk,Kettering,http://www.kettering.gov.uk,,,2014-09-08,fhrs_5_en-GB,5,,FHRS,0
60315,,142 Regent Street,Kettering,Northamptonshire,Regent Stores,Retailers - other,4613,5,,129024,5,,52.40674200000000,594,238,fhrs@kettering.gov.uk,Kettering,http://www.kettering.gov.uk,-0.71899600000000,NN16 8QH,2006-02-01,fhrs_4_en-GB,4,,FHRS,10
60316,Dalkeith House,Dalkeith Place,Kettering,Northamptonshire,Remis,Pub/bar/nightclub,7843,5,,371912,0,,52.39940300000000,18078,238,fhrs@kettering.gov.uk,Kettering,http://www.kettering.gov.uk,-0.72616100000000,NN16 0BS,2012-02-24,fhrs_5_en-GB,5,,FHRS,5
60317,,5 Gold Street,Kettering,Northamptonshire,Retro Shack and Cool Scoops,Restaurant/Cafe/Canteen,1,10,,607057,10,,52.40053700000000,19076,238,fhrs@kettering.gov.uk,Kettering,http://www.kettering.gov.uk,-0.72796600000000,NN16 8JA,2013-10-09,fhrs_3_en-GB,3,,FHRS,10
60318,,43a Station Road,Desborough,Northamptonshire,Revive,Restaurant/Cafe/Canteen,1,20,,607061,10,,52.44253200000000,19125,238,fhrs@kettering.gov.uk,Kettering,http://www.kettering.gov.uk,-0.81990100000000,NN14 2RL,2013-10-17,fhrs_1_en-GB,1,,FHRS,5
60319,,45 Boddington Road,Kettering,Northamptonshire,Rexhill,Retailers - other,4613,5,,132944,10,,52.38910600000000,652,238,fhrs@kettering.gov.uk,Kettering,http://www.kettering.gov.uk,-0.71844900000000,NN15 6DZ,2014-12-22,fhrs_3_en-GB,3,,FHRS,10
60320,,Churchill Way,Kettering,Northamptonshire,Rhymetime Nursery,Hospitals/Childcare/Caring Premises,5,0,,68610,0,,52.39403000000000,15343,238,fhrs@kettering.gov.uk,Kettering,http://www.kettering.gov.uk,-0.69930400000000,NN15 5BZ,2014-12-23,fhrs_5_en-GB,5,,FHRS,5
60321,,26-28 Rockingham Road,Kettering,Northamptonshire,Ristorante Azzurri Ltd,Restaurant/Cafe/Canteen,1,10,,65457,5,,52.40337800000000,14710,238,fhrs@kettering.gov.uk,Kettering,http://www.kettering.gov.uk,-0.72629700000000,NN16 8JS,2012-12-06,fhrs_3_en-GB,3,,FHRS,10
60322,The Ritz Ballroom,7-9 Station Road,Desborough,Northamptonshire,Ritz Conference & Banqueting Suites,Restaurant/Cafe/Canteen,1,0,,452296,0,,52.44253200000000,17999,238,fhrs@kettering.gov.uk,Kettering,http://www.kettering.gov.uk,-0.81990100000000,NN14 2RL,2012-09-04,fhrs_5_en-GB,5,,FHRS,0
60323,,2 Wilkie Close,Kettering,Northamptonshire,Ron & Sylvia Chuter B&B,Hotel/bed & breakfast/guest house,7842,5,,144423,5,,52.39126400000000,8307,238,fhrs@kettering.gov.uk,Kettering,http://www.kettering.gov.uk,-0.74026800000000,NN15 7RD,2006-07-20,fhrs_5_en-GB,5,,FHRS,5
60324,,Laburnum Crescent,Kettering,Northamptonshire,Ronald Tree Nursery School and Childrens Centre,Hospitals/Childcare/Caring Premises,5,5,,142858,0,,52.40656500000000,7990,238,fhrs@kettering.gov.uk,Kettering,http://www.kettering.gov.uk,-0.71093100000000,NN16 9PH,2014-12-23,fhrs_5_en-GB,5,,FHRS,0
60325,,5 Church Way,Thorpe Malsor,Northamptonshire,Rookery Cottage,Hospitals/Childcare/Caring Premises,5,5,,112127,5,,52.40280600000000,414,238,fhrs@kettering.gov.uk,Kettering,http://www.kettering.gov.uk,-0.77421800000000,NN14 1JS,2013-07-29,fhrs_5_en-GB,5,,FHRS,5
60326,,68 Rockingham Road,Kettering,Northamptonshire,Rosedale Residential Home,Hospitals/Childcare/Caring Premises,5,5,,140281,5,,52.40494400000000,7644,238,fhrs@kettering.gov.uk,Kettering,http://www.kettering.gov.uk,-0.72650100000000,NN16 8JU,2013-01-08,fhrs_5_en-GB,5,,FHRS,5
60327,,,,,Rossi,Mobile caterer,7846,5,,128132,5,,,5793,238,fhrs@kettering.gov.uk,Kettering,http://www.kettering.gov.uk,,,2014-03-13,fhrs_5_en-GB,5,,FHRS,0
60328,Conservative Club,Market Hill,Rothwell,Northamptonshire,Rothwell Conservative Club,Pub/bar/nightclub,7843,10,,71722,10,,52.42304900000000,163,238,fhrs@kettering.gov.uk,Kettering,http://www.kettering.gov.uk,-0.80021600000000,NN14 6EP,2011-10-13,fhrs_3_en-GB,3,,FHRS,5
60329,,63 Kettering Road,Rothwell,Northamptonshire,Rothwell Convenience Store,Retailers - other,4613,10,,683017,0,,52.41877300000000,18943,238,fhrs@kettering.gov.uk,Kettering,http://www.kettering.gov.uk,-0.80227300000000,NN14 6JR,2014-06-24,fhrs_4_en-GB,4,,FHRS,0
60330,Rothwell House Hotel,12a Bridge Street,Rothwell,Northamptonshire,Rothwell House Hotel,Hotel/bed & breakfast/guest house,7842,10,,75089,5,,52.42303300000000,17450,238,fhrs@kettering.gov.uk,Kettering,http://www.kettering.gov.uk,-0.80127500000000,NN14 6JW,2014-08-04,fhrs_3_en-GB,3,,FHRS,10
60331,Rothwell County Junior School,Gladstone Street,Rothwell,Northamptonshire,Rothwell Junior School,School/college/university,7845,5,,141286,5,,52.42438100000000,777,238,fhrs@kettering.gov.uk,Kettering,http://www.kettering.gov.uk,-0.80125300000000,NN14 6ER,2013-06-06,fhrs_5_en-GB,5,,FHRS,5
60332,Manor Park,Squires Hill,Rothwell,Northamptonshire,Rothwell Manor Park Bowls Club,Pub/bar/nightclub,7843,,,71387,,,52.42245700000000,162,238,fhrs@kettering.gov.uk,Kettering,http://www.kettering.gov.uk,-0.80296700000000,NN14 6BQ,2008-07-03,fhrs_exempt_en-GB,Exempt,,FHRS,
60333,,A14 Eastbound,Rothwell,Northamptonshire,Rothwell Service Station,Retailers - other,4613,0,,62625,0,,52.41447700000000,13836,238,fhrs@kettering.gov.uk,Kettering,http://www.kettering.gov.uk,-0.79006800000000,NN14 1SS,2010-10-14,fhrs_5_en-GB,5,,FHRS,0
60334,Town Friar,19 High Street,Rothwell,Northamptonshire,Rothwell Town Friar,Takeaway/sandwich shop,7844,5,,618917,5,,52.42234600000000,19158,238,fhrs@kettering.gov.uk,Kettering,http://www.kettering.gov.uk,-0.80361700000000,NN14 6AD,2013-11-07,fhrs_5_en-GB,5,,FHRS,5
60335,,School Lane,Rothwell,Northamptonshire,Rothwell Victoria Infant School,School/college/university,7845,5,,77268,5,,52.42331200000000,18116,238,fhrs@kettering.gov.uk,Kettering,http://www.kettering.gov.uk,-0.80215000000000,NN14 6HZ,2014-11-12,fhrs_5_en-GB,5,,FHRS,5
60336,,26 High Street,Rothwell,Northamptonshire,Rothwells Rolls,Restaurant/Cafe/Canteen,1,5,,607058,0,,52.42245700000000,19101,238,fhrs@kettering.gov.uk,Kettering,http://www.kettering.gov.uk,-0.80296700000000,NN14 6BQ,2013-10-01,fhrs_5_en-GB,5,,FHRS,5
60337,,1 Sun Hill,Rothwell,Northamptonshire,Rowell Charter Inn,Pub/bar/nightclub,7843,10,,505098,10,,52.42164000000000,18672,238,fhrs@kettering.gov.uk,Kettering,http://www.kettering.gov.uk,-0.80401800000000,NN14 6AB,2013-01-15,fhrs_3_en-GB,3,,FHRS,10
60338,,17/18 Market Hill,Rothwell,Northamptonshire,Rowell Fayre,Takeaway/sandwich shop,7844,10,,75934,5,,52.24776400000000,17833,238,fhrs@kettering.gov.uk,Kettering,http://www.kettering.gov.uk,-0.87803000000000,NN14 6RW,2014-03-20,fhrs_2_en-GB,2,,FHRS,15
60339,,64 Rockingham Road,Kettering,Northamptonshire,Royal Bengal,Restaurant/Cafe/Canteen,1,10,,97041,5,,52.40431500000000,30,238,fhrs@kettering.gov.uk,Kettering,http://www.kettering.gov.uk,-0.72653400000000,NN16 8JT,2013-08-12,fhrs_3_en-GB,3,,FHRS,10
60340,Rushton Cricket Pavilion,Station Road,Rushton,Northamptonshire,Rushton Cricket Club,Pub/bar/nightclub,7843,5,,72075,10,,52.43828100000000,164,238,fhrs@kettering.gov.uk,Kettering,http://www.kettering.gov.uk,-0.76196500000000,NN14 1RL,2005-03-16,fhrs_3_en-GB,3,,FHRS,10
60341,Rushton Hall,Desborough Road,Rushton,Northamptonshire,Rushton Hall Ltd,Hotel/bed & breakfast/guest house,7842,5,,51931,5,,52.43641500000000,11676,238,fhrs@kettering.gov.uk,Kettering,http://www.kettering.gov.uk,-0.77102000000000,NN14 1RR,2014-08-05,fhrs_5_en-GB,5,,FHRS,5
60342,,Station Road,Rushton,Northamptonshire,Rushton Primary School,School/college/university,7845,5,,371929,0,,52.43828100000000,18311,238,fhrs@kettering.gov.uk,Kettering,http://www.kettering.gov.uk,-0.76196500000000,NN14 1RL,2014-03-20,fhrs_5_en-GB,5,,FHRS,0
60343,,45 Russell Street,Kettering,Northamptonshire,Russell Street Off Licence,Retailers - other,4613,10,,45133,5,,52.39837800000000,10952,238,fhrs@kettering.gov.uk,Kettering,http://www.kettering.gov.uk,-0.71956200000000,NN16 0EN,2011-10-03,fhrs_4_en-GB,4,,FHRS,5
60344,,37 Newland Street,Kettering,Northamptonshire,S & S Newsagents,Retailers - other,4613,5,,131905,5,,52.40158300000000,635,238,fhrs@kettering.gov.uk,Kettering,http://www.kettering.gov.uk,-0.72573100000000,NN16 8JH,2014-10-06,fhrs_4_en-GB,4,,FHRS,10
60345,Petrol Station,Rockingham Road,Kettering,Northamptonshire,Sainsburys Petrol Station,Retailers - other,4613,5,,102826,5,,52.40282900000000,3427,238,fhrs@kettering.gov.uk,Kettering,http://www.kettering.gov.uk,-0.72712100000000,NN16 8JY,2007-10-11,fhrs_5_en-GB,5,,FHRS,5
60346,,High Street,Burton Latimer,Northamptonshire,Sainsburys Supermarkets Ltd,Retailers - supermarkets/hypermarkets,7840,0,,69217,0,,52.36201300000000,15545,238,fhrs@kettering.gov.uk,Kettering,http://www.kettering.gov.uk,-0.67886200000000,NN15 5RL,2011-04-14,fhrs_5_en-GB,5,,FHRS,5
60347,,1-3 Rockingham Road,Kettering,Northamptonshire,Sainsbury's Supermarkets Ltd,Retailers - supermarkets/hypermarkets,7840,0,,82556,0,,52.40282900000000,2005,238,fhrs@kettering.gov.uk,Kettering,http://www.kettering.gov.uk,-0.72712100000000,NN16 8JY,2007-07-04,fhrs_5_en-GB,5,,FHRS,0
60348,,1-3 Rockingham Road,Kettering,Northamptonshire,Sainsburys Superstore Staff Canteen,Restaurant/Cafe/Canteen,1,5,,62378,0,,52.40282900000000,13779,238,fhrs@kettering.gov.uk,Kettering,http://www.kettering.gov.uk,-0.72712100000000,NN16 8JY,2012-06-22,fhrs_5_en-GB,5,,FHRS,5
60349,,9 Bridge Street,Rothwell,Northamptonshire,Salvation Army Community Project,Restaurant/Cafe/Canteen,1,5,,432673,5,,52.42304500000000,18538,238,fhrs@kettering.gov.uk,Kettering,http://www.kettering.gov.uk,-0.80245100000000,NN14 6EW,2012-07-26,fhrs_5_en-GB,5,,FHRS,5
60350,Municipal Offices,Bowling Green Road,Kettering,Northamptonshire,Sam and Kellys Cafe,Restaurant/Cafe/Canteen,1,10,,144329,0,,52.39580800000000,8281,238,fhrs@kettering.gov.uk,Kettering,http://www.kettering.gov.uk,-0.72629400000000,NN15 7QX,2013-07-25,fhrs_4_en-GB,4,,FHRS,5
60351,,,,,Sams Kebab,Mobile caterer,7846,0,,618921,0,,,19232,238,fhrs@kettering.gov.uk,Kettering,http://www.kettering.gov.uk,,,2013-12-06,fhrs_5_en-GB,5,,FHRS,0
60352,,62 Rockingham Road,Kettering,Northamptonshire,Santoro's,Restaurant/Cafe/Canteen,1,5,,371918,5,,52.31091308593750,18203,238,fhrs@kettering.gov.uk,Kettering,http://www.kettering.gov.uk,-0.83607500791550,NN16 8GT,2014-06-02,fhrs_5_en-GB,5,,FHRS,5
60353,,,,,Sarah Platts,Other catering premises,7841,5,,432653,5,,,18447,238,fhrs@kettering.gov.uk,Kettering,http://www.kettering.gov.uk,,,2012-03-30,fhrs_5_en-GB,5,,FHRS,5
60354,Broughton Primary School,Cransley Hill,Broughton,Northamptonshire,School Friend,School/college/university,7845,5,,63971,5,,52.37540100000000,14140,238,fhrs@kettering.gov.uk,Kettering,http://www.kettering.gov.uk,-0.77756200000000,NN14 1NB,2006-06-08,fhrs_4_en-GB,4,,FHRS,10
60355,,69 Cranford Road,Burton Latimer,Northamptonshire,Seasons Garden Centre,Restaurant/Cafe/Canteen,1,5,,146078,0,,52.36953800000000,8823,238,fhrs@kettering.gov.uk,Kettering,http://www.kettering.gov.uk,-0.67163100000000,NN15 5LZ,2013-07-31,fhrs_5_en-GB,5,,FHRS,5
60356,,129 Neale Avenue,Kettering,Northamptonshire,Sense East,Hospitals/Childcare/Caring Premises,5,0,,43080,5,,52.41426900000000,10556,238,fhrs@kettering.gov.uk,Kettering,http://www.kettering.gov.uk,-0.72408600000000,NN16 9HG,2014-09-02,fhrs_5_en-GB,5,,FHRS,0
60357,,70 Station Road,Desborough,Northamptonshire,Serina Indian Restaurant & Takeaway,Takeaway/sandwich shop,7844,10,,117065,5,,52.44346100000000,463,238,fhrs@kettering.gov.uk,Kettering,http://www.kettering.gov.uk,-0.81836100000000,NN14 2RS,2013-01-10,fhrs_4_en-GB,4,,FHRS,0
60358,The Coach House,90g High Street,Burton Latimer,Northamptonshire,Shaad Restaurant,Restaurant/Cafe/Canteen,1,10,,71498,10,,52.36313600000000,16223,238,fhrs@kettering.gov.uk,Kettering,http://www.kettering.gov.uk,-0.67884300000000,NN15 5LA,2013-11-05,fhrs_3_en-GB,3,,FHRS,10
60359,The Royal Hotel,Market Place,Kettering,Northamptonshire,Shaans,Takeaway/sandwich shop,7844,30,,715519,10,,52.39748100000000,19359,238,fhrs@kettering.gov.uk,Kettering,http://www.kettering.gov.uk,-0.72809800000000,NN16 0AJ,2014-09-08,fhrs_0_en-GB,0,,FHRS,5
60360,,151 Barton Road,Barton Seagrave,Northamptonshire,Shell Service Station,Retailers - other,4613,5,,505099,5,,52.38397600000000,18730,238,fhrs@kettering.gov.uk,Kettering,http://www.kettering.gov.uk,-0.68684600000000,NN15 6RT,2013-01-17,fhrs_5_en-GB,5,,FHRS,5
60361,,,,,Shelly's Deli,Other catering premises,7841,10,,432661,5,,,18485,238,fhrs@kettering.gov.uk,Kettering,http://www.kettering.gov.uk,,,2012-07-20,fhrs_4_en-GB,4,,FHRS,5
60362,,Unit 1 St Andrew's Parade,Kettering,Northamptonshire,Simply Fish,Takeaway/sandwich shop,7844,10,,579426,5,,52.40228000000000,19075,238,fhrs@kettering.gov.uk,Kettering,http://www.kettering.gov.uk,-0.72368200000000,NN16 8RA,2013-08-12,fhrs_4_en-GB,4,,FHRS,5
60363,Sir John Lowther Training & Ac,Glendon Road,Rothwell,Northamptonshire,Sir John Lowther Scout Centre,Other catering premises,7841,5,,131180,5,,52.42380200000000,6250,238,fhrs@kettering.gov.uk,Kettering,http://www.kettering.gov.uk,-0.73270800000000,NN14 1QF,2006-02-10,fhrs_5_en-GB,5,,FHRS,5
60364,,,,,SK Catering Services,Other catering premises,7841,5,,66126,5,,,14888,238,fhrs@kettering.gov.uk,Kettering,http://www.kettering.gov.uk,,,2007-05-24,fhrs_5_en-GB,5,,FHRS,5
60365,,72 St. Peters Avenue,Kettering,Northamptonshire,Smythe House,Hospitals/Childcare/Caring Premises,5,0,,138821,0,,52.39725800000000,7414,238,fhrs@kettering.gov.uk,Kettering,http://www.kettering.gov.uk,-0.72156400000000,NN16 0HB,2014-10-06,fhrs_5_en-GB,5,,FHRS,5
60366,,,,,Something to Savour,Other catering premises,7841,5,,74637,5,,,17250,238,fhrs@kettering.gov.uk,Kettering,http://www.kettering.gov.uk,,,2010-07-16,fhrs_5_en-GB,5,,FHRS,5
60367,,,,,Something to Savour,Other catering premises,7841,0,,151116,0,,,9996,238,fhrs@kettering.gov.uk,Kettering,http://www.kettering.gov.uk,,,2009-07-13,fhrs_5_en-GB,5,,FHRS,0
60368,,,,,Sonia's Flour Power,Other catering premises,7841,5,,570293,5,,,18953,238,fhrs@kettering.gov.uk,Kettering,http://www.kettering.gov.uk,,,2013-06-04,fhrs_5_en-GB,5,,FHRS,5
60369,Southfield School For Girls,Lewis Road,Kettering,Northamptonshire,Southfield School for Girls,School/college/university,7845,5,,88339,5,,52.38715000000000,231,238,fhrs@kettering.gov.uk,Kettering,http://www.kettering.gov.uk,-0.71636000000000,NN15 6HE,2014-01-22,fhrs_5_en-GB,5,,FHRS,5
60370,,,,,Sparkles and Sprinkles,Other catering premises,7841,0,,75601,0,,,17699,238,fhrs@kettering.gov.uk,Kettering,http://www.kettering.gov.uk,,,2011-03-01,fhrs_5_en-GB,5,,FHRS,0
60371,,9 Montagu Street,Kettering,Northamptonshire,Spot on Leisure Ltd,Pub/bar/nightclub,7843,5,,74263,5,,52.40139600000000,171,238,fhrs@kettering.gov.uk,Kettering,http://www.kettering.gov.uk,-0.72422200000000,NN16 8XG,2008-07-04,fhrs_5_en-GB,5,,FHRS,5
60372,St Andrews C Of E Primary School,Grafton Street,Kettering,Northamptonshire,St Andrews CofE Primary School,School/college/university,7845,5,,148793,5,,52.40747000000000,9429,238,fhrs@kettering.gov.uk,Kettering,http://www.kettering.gov.uk,-0.72972200000000,NN16 9DF,2014-03-11,fhrs_5_en-GB,5,,FHRS,5
60373,,12 The Crescent,Kettering,Northamptonshire,St Anns Residential Home,Hospitals/Childcare/Caring Premises,5,5,,112621,5,,52.39250900000000,418,238,fhrs@kettering.gov.uk,Kettering,http://www.kettering.gov.uk,-0.72972500000000,NN15 7HW,2014-03-03,fhrs_5_en-GB,5,,FHRS,5
60374,St Edwards Rc Primary School,Eastleigh Road,Kettering,Northamptonshire,St Edwards R C Primary School,School/college/university,7845,5,,81424,5,,52.38846500000000,1987,238,fhrs@kettering.gov.uk,Kettering,http://www.kettering.gov.uk,-0.70834300000000,NN15 6PT,2013-05-08,fhrs_5_en-GB,5,,FHRS,5
60375,St Giles Community Centre,Lower Street,Desborough,Northamptonshire,St Giles Community Centre,Other catering premises,7841,5,,65609,10,,52.43994500000000,1476,238,fhrs@kettering.gov.uk,Kettering,http://www.kettering.gov.uk,-0.82101500000000,NN14 2NP,2013-04-16,fhrs_4_en-GB,4,,FHRS,5
60376,,4 Judes Court,Kettering,Northamptonshire,St Judes YMCA Drop In,Other catering premises,7841,10,,61114,10,,52.39557100000000,13385,238,fhrs@kettering.gov.uk,Kettering,http://www.kettering.gov.uk,-0.73101900000000,NN15 7JH,2014-11-25,fhrs_3_en-GB,3,,FHRS,5
60377,,High Street,Burton Latimer,Northamptonshire,St Marys C of E Primary Academy,School/college/university,7845,5,,62401,5,,52.36201300000000,13783,238,fhrs@kettering.gov.uk,Kettering,http://www.kettering.gov.uk,-0.67886200000000,NN15 5RL,2014-06-23,fhrs_5_en-GB,5,,FHRS,5
60378,St Marys C Of E Va Primary Sch,Fuller Street,Kettering,Northamptonshire,St Marys CofEVa Primary School,School/college/university,7845,10,,66725,5,,52.40172300000000,14980,238,fhrs@kettering.gov.uk,Kettering,http://www.kettering.gov.uk,-0.71539300000000,NN16 0JH,2013-04-23,fhrs_4_en-GB,4,,FHRS,5
60379,St  Marys Hospital,77 London Road,Kettering,Northamptonshire,St Marys Hospital,Hospitals/Childcare/Caring Premises,5,5,,82965,0,,52.39410900000000,202,238,fhrs@kettering.gov.uk,Kettering,http://www.kettering.gov.uk,-0.72221300000000,NN15 7PW,2014-08-04,fhrs_5_en-GB,5,,FHRS,0
60380,St  Marys Hospital,77 London Road,Kettering,Northamptonshire,St Mary's Hospital Wards,Hospitals/Childcare/Caring Premises,5,0,,145923,5,,52.39410900000000,8776,238,fhrs@kettering.gov.uk,Kettering,http://www.kettering.gov.uk,-0.72221300000000,NN15 7PW,2009-02-09,fhrs_5_en-GB,5,,FHRS,5
60381,,52 Headlands,Kettering,Northamptonshire,St Peters School,Hospitals/Childcare/Caring Premises,5,5,,86948,0,,52.39091100000000,223,238,fhrs@kettering.gov.uk,Kettering,http://www.kettering.gov.uk,-0.72827200000000,NN15 6DJ,2013-12-03,fhrs_5_en-GB,5,,FHRS,0
60382,St Thomas More Rc Primary School,Northampton Road,Kettering,Northamptonshire,St Thomas More RC School,School/college/university,7845,10,,432677,10,,52.39545400000000,207,238,fhrs@kettering.gov.uk,Kettering,http://www.kettering.gov.uk,-0.73770900000000,NN15 7JZ,2013-09-16,fhrs_3_en-GB,3,,FHRS,5
60383,Rothwell Community Centre,Well Lane,Rothwell,Northamptonshire,Stepping Stones parents toddler group,Hospitals/Childcare/Caring Premises,5,10,,74399,5,,52.42217000000000,17144,238,fhrs@kettering.gov.uk,Kettering,http://www.kettering.gov.uk,-0.79863700000000,NN14 6DQ,2010-05-25,fhrs_4_en-GB,4,,FHRS,5
60384,,Cross Street,Kettering,Northamptonshire,Stepping Stones Pre-School,Other catering premises,7841,5,,145676,0,,52.40598000000000,87,238,fhrs@kettering.gov.uk,Kettering,http://www.kettering.gov.uk,-0.73079300000000,NN16 9DH,2014-05-19,fhrs_5_en-GB,5,,FHRS,0
60385,Golf Course,Ashley Road,Stoke Albany,Northamptonshire,Stoke Albany Golf Course,Other catering premises,7841,5,,124539,5,,52.48499400000000,5305,238,fhrs@kettering.gov.uk,Kettering,http://www.kettering.gov.uk,-0.81542300000000,LE16 8PL,2013-07-16,fhrs_5_en-GB,5,,FHRS,5
60386,,24 Market Hill,Rothwell,Northamptonshire,Strawberry Fields Food Emporium Ltd,Restaurant/Cafe/Canteen,1,10,,77320,10,,52.42275600000000,18139,238,fhrs@kettering.gov.uk,Kettering,http://www.kettering.gov.uk,-0.79966500000000,NN14 6BW,2014-06-24,fhrs_3_en-GB,3,,FHRS,10
60387,,25 Dalkeith Place,Kettering,Northamptonshire,Stuffed Pizza and Grill,Takeaway/sandwich shop,7844,5,,65406,5,,52.39940300000000,14697,238,fhrs@kettering.gov.uk,Kettering,http://www.kettering.gov.uk,-0.72616100000000,NN16 0BS,2014-06-02,fhrs_5_en-GB,5,,FHRS,5
60388,Styles Lodge,Rothwell Road,Rothwell,Northamptonshire,Styles Lodge,Hotel/bed & breakfast/guest house,7842,5,,106045,5,,52.42908600000000,367,238,fhrs@kettering.gov.uk,Kettering,http://www.kettering.gov.uk,-0.78478500000000,NN14 6HN,2011-12-07,fhrs_5_en-GB,5,,FHRS,0
60389,,5-6 Silver Street,Kettering,Northamptonshire,Subway,Restaurant/Cafe/Canteen,1,5,,432643,5,,52.40033600000000,18383,238,fhrs@kettering.gov.uk,Kettering,http://www.kettering.gov.uk,-0.72604600000000,NN16 0BN,2013-08-02,fhrs_5_en-GB,5,,FHRS,5
60390,,15-17 High Street,Kettering,Northamptonshire,Subway,Restaurant/Cafe/Canteen,1,5,,618916,0,,52.39853300000000,19157,238,fhrs@kettering.gov.uk,Kettering,http://www.kettering.gov.uk,-0.72806700000000,NN16 8ST,2013-12-04,fhrs_5_en-GB,5,,FHRS,5
60391,,Unit 2 Mariners Way,Northfield Avenue,Northamptonshire,Subway,Restaurant/Cafe/Canteen,1,5,,733060,5,,,19784,238,fhrs@kettering.gov.uk,Kettering,http://www.kettering.gov.uk,,NN16 8AL,2015-01-12,fhrs_5_en-GB,5,,FHRS,5
60392,First West Business Centre Lin,Linnell Way,Kettering,Northamptonshire,Subway,Restaurant/Cafe/Canteen,1,5,,70416,5,,52.41009300000000,15997,238,fhrs@kettering.gov.uk,Kettering,http://www.kettering.gov.uk,-0.73959900000000,NN16 8PS,2014-07-08,fhrs_4_en-GB,4,,FHRS,10
60393,Unit 2 Mariners Way,Northfield Avenue,Kettering,Northamptonshire,Subway,Restaurant/Cafe/Canteen,1,5,,71596,0,,52.41607500000000,16257,238,fhrs@kettering.gov.uk,Kettering,http://www.kettering.gov.uk,-0.68010000000000,NN16 8AL,2013-09-30,fhrs_5_en-GB,5,,FHRS,0
60394,,38 Montagu Street,Kettering,Northamptonshire,Sultan Kebabs,Takeaway/sandwich shop,7844,10,,120441,10,,52.40107500000000,494,238,fhrs@kettering.gov.uk,Kettering,http://www.kettering.gov.uk,-0.72451100000000,NN16 8RU,2013-03-25,fhrs_3_en-GB,3,,FHRS,10
60395,North Kettering Business Park,Weekley Wood Avenue,Rockingham Road,Northamptonshire,Sundew,Pub/bar/nightclub,7843,5,,72468,5,,52.43322900000000,16509,238,fhrs@kettering.gov.uk,Kettering,http://www.kettering.gov.uk,-0.73407100000000,NN14 1QG,2014-12-01,fhrs_5_en-GB,5,,FHRS,5
60396,,34 High Street,Burton Latimer,Northamptonshire,Sunshine Pre-School,Hospitals/Childcare/Caring Premises,5,0,,75578,0,,52.36436300000000,17683,238,fhrs@kettering.gov.uk,Kettering,http://www.kettering.gov.uk,-0.67842400000000,NN15 5LB,2014-12-16,fhrs_5_en-GB,5,,FHRS,0
60397,,,,,Supreme,Other catering premises,7841,5,,59445,5,,,13083,238,fhrs@kettering.gov.uk,Kettering,http://www.kettering.gov.uk,,,2012-01-05,fhrs_5_en-GB,5,,FHRS,0
60398,The Lodge,Sutton Lane,Dingley,Northamptonshire,Sutton Lodge Bed & Breakfast,Hotel/bed & breakfast/guest house,7842,5,,55702,5,,52.49913800000000,12578,238,fhrs@kettering.gov.uk,Kettering,http://www.kettering.gov.uk,-0.86707300000000,LE16 8HL,2008-08-08,fhrs_5_en-GB,5,,FHRS,5
60399,,62 Broadlands,Desborough,Northamptonshire,T&W Associates T/As So Burrito,Mobile caterer,7846,5,,552334,5,,52.43808100000000,18945,238,fhrs@kettering.gov.uk,Kettering,http://www.kettering.gov.uk,-0.80726600000000,NN14 2TH,2014-11-03,fhrs_5_en-GB,5,,FHRS,0
60400,,85 High Street,Desborough,Northamptonshire,TA Bros Fish Bar,Takeaway/sandwich shop,7844,5,,56472,5,,52.44226900000000,12774,238,fhrs@kettering.gov.uk,Kettering,http://www.kettering.gov.uk,-0.82143800000000,NN14 2ND,2014-05-14,fhrs_4_en-GB,4,,FHRS,10
60401,,131 Bath Road,Kettering,Northamptonshire,Taggar Stores,Retailers - other,4613,10,,128399,10,,52.40531100000000,583,238,fhrs@kettering.gov.uk,Kettering,http://www.kettering.gov.uk,-0.71881700000000,NN16 8ND,2008-09-15,fhrs_3_en-GB,3,,FHRS,10
60402,"The Mall, Newlands Centre",Gold Street,Kettering,Northamptonshire,Tapri,Restaurant/Cafe/Canteen,1,5,,371902,5,,52.40146600000000,14811,238,fhrs@kettering.gov.uk,Kettering,http://www.kettering.gov.uk,-0.72741000000000,NN16 8JL,2014-10-20,fhrs_5_en-GB,5,,FHRS,0
60403,,13 Bridge Street,Rothwell,Northamptonshire,Taste of India,Restaurant/Cafe/Canteen,1,5,,446101,5,,52.42303300000000,18494,238,fhrs@kettering.gov.uk,Kettering,http://www.kettering.gov.uk,-0.80127500000000,NN14 6JW,2014-08-18,fhrs_4_en-GB,4,,FHRS,10
60404,,32 Linden Avenue,Kettering,Northamptonshire,Tasty Inn,Takeaway/sandwich shop,7844,10,,129211,10,,52.39863300000000,5972,238,fhrs@kettering.gov.uk,Kettering,http://www.kettering.gov.uk,-0.71573300000000,NN16 0ES,2014-01-13,fhrs_3_en-GB,3,,FHRS,10
60405,,,,,Tasty Tweets,Other catering premises,7841,5,,432674,5,,,18540,238,fhrs@kettering.gov.uk,Kettering,http://www.kettering.gov.uk,,,2014-07-01,fhrs_5_en-GB,5,,FHRS,0
60406,,79 Brambleside,Kettering,Northamptonshire,Tesco Express,Retailers - supermarkets/hypermarkets,7840,5,,52186,5,,52.41675300000000,11754,238,fhrs@kettering.gov.uk,Kettering,http://www.kettering.gov.uk,-0.72020600000000,NN16 9BP,2008-06-27,fhrs_5_en-GB,5,,FHRS,5
60407,,London Road,Kettering,Northamptonshire,Tesco Express,Retailers - supermarkets/hypermarkets,7840,5,,73043,5,,52.39425400000000,16716,238,fhrs@kettering.gov.uk,Kettering,http://www.kettering.gov.uk,-0.72398700000000,NN15 7QD,2013-02-26,fhrs_5_en-GB,5,,FHRS,5
60408,,92 Windmill Avenue,Kettering,Northamptonshire,Tesco Ridgeclose Kettering Express 5605,Retailers - other,4613,0,,71375,5,,52.40066300000000,16195,238,fhrs@kettering.gov.uk,Kettering,http://www.kettering.gov.uk,-0.71222000000000,NN16 0RD,2008-11-18,fhrs_5_en-GB,5,,FHRS,0
60409,,9 Market Hill,Rothwell,Northamptonshire,Tesco Rothwell Express,Retailers - supermarkets/hypermarkets,7840,5,,49637,5,,52.42304900000000,11020,238,fhrs@kettering.gov.uk,Kettering,http://www.kettering.gov.uk,-0.80021600000000,NN14 6EP,2008-10-17,fhrs_5_en-GB,5,,FHRS,0
60410,Tesco Stores Ltd,Carina Road,Kettering,Northamptonshire,Tesco Stores Ltd,Retailers - supermarkets/hypermarkets,7840,0,,82524,0,,52.37659700000000,2004,238,fhrs@kettering.gov.uk,Kettering,http://www.kettering.gov.uk,-0.72152900000000,NN15 6XB,2010-08-26,fhrs_5_en-GB,5,,FHRS,0
60411,,Carina Road,Kettering,Northamptonshire,Tesco Stores Ltd (petrol),Retailers - other,4613,0,,135628,0,,52.37659700000000,6944,238,fhrs@kettering.gov.uk,Kettering,http://www.kettering.gov.uk,-0.72152900000000,NN15 6XB,2008-06-27,fhrs_5_en-GB,5,,FHRS,0
60412,,71 Gold Street,Kettering,Northamptonshire,Texas Grill and Pancake House,Restaurant/Cafe/Canteen,1,5,,116761,5,,52.40057600000000,46,238,fhrs@kettering.gov.uk,Kettering,http://www.kettering.gov.uk,-0.72662700000000,NN16 8JB,2013-05-07,fhrs_5_en-GB,5,,FHRS,5
60413,,3 Market Hill,Rothwell,Northamptonshire,Thai Garden Cuisine,Restaurant/Cafe/Canteen,1,5,,81774,5,,52.42304900000000,20,238,fhrs@kettering.gov.uk,Kettering,http://www.kettering.gov.uk,-0.80021600000000,NN14 6EP,2014-08-08,fhrs_5_en-GB,5,,FHRS,5
60414,The Coach House,90g High Street,Burton Latimer,Northamptonshire,The Bar,Restaurant/Cafe/Canteen,1,5,,144940,5,,52.36313600000000,8465,238,fhrs@kettering.gov.uk,Kettering,http://www.kettering.gov.uk,-0.67884300000000,NN15 5LA,2007-01-10,fhrs_5_en-GB,5,,FHRS,5
60415,The Beeswing,226 Rockingham Road,Kettering,Northamptonshire,The Beeswing,Pub/bar/nightclub,7843,10,,494282,10,,52.40053700000000,18749,238,fhrs@kettering.gov.uk,Kettering,http://www.kettering.gov.uk,-0.72796600000000,NN16 8JA,2014-06-26,fhrs_3_en-GB,3,,FHRS,10
60416,,,,,The Blended butter company,Other catering premises,7841,5,,570297,0,,,19032,238,fhrs@kettering.gov.uk,Kettering,http://www.kettering.gov.uk,,,2013-07-05,fhrs_5_en-GB,5,,FHRS,5
60417,Coach House,56 Sheep Street,Kettering,Northamptonshire,The Blitz Tea Room and Jazz Lounge,Restaurant/Cafe/Canteen,1,5,,607056,5,,52.39640500000000,19074,238,fhrs@kettering.gov.uk,Kettering,http://www.kettering.gov.uk,-0.72746700000000,NN16 0AY,2013-09-11,fhrs_5_en-GB,5,,FHRS,5
60418,,Bell Hill,Rothwell,Northamptonshire,The Blue Bell,Pub/bar/nightclub,7843,5,,432659,5,,52.42274400000000,18471,238,fhrs@kettering.gov.uk,Kettering,http://www.kettering.gov.uk,-0.79845900000000,NN14 6BP,2013-07-30,fhrs_5_en-GB,5,,FHRS,5
60419,,71 Brambleside,Kettering,Northamptonshire,The Briars,Pub/bar/nightclub,7843,5,,56569,5,,52.41675300000000,128,238,fhrs@kettering.gov.uk,Kettering,http://www.kettering.gov.uk,-0.72020600000000,NN16 9BP,2013-01-28,fhrs_5_en-GB,5,,FHRS,5
60420,,,,,The Cakeologist,Other catering premises,7841,5,,432671,5,,,18528,238,fhrs@kettering.gov.uk,Kettering,http://www.kettering.gov.uk,,,2012-07-18,fhrs_5_en-GB,5,,FHRS,5
60421,,23 Eskdaill Street,Kettering,Northamptonshire,The Challenge Arms,Pub/bar/nightclub,7843,10,,432639,5,,52.40209900000000,18169,238,fhrs@kettering.gov.uk,Kettering,http://www.kettering.gov.uk,-0.72357000000000,NN16 8RA,2012-11-29,fhrs_4_en-GB,4,,FHRS,0
60422,,,,,The Cheese Store,Retailers - other,4613,5,,125473,5,,,5397,238,fhrs@kettering.gov.uk,Kettering,http://www.kettering.gov.uk,,,2014-08-26,fhrs_4_en-GB,4,,FHRS,10
60423,,Sheep Street,Kettering,Northamptonshire,The Cherry Tree,Pub/bar/nightclub,7843,5,,63928,5,,52.39637600000000,14126,238,fhrs@kettering.gov.uk,Kettering,http://www.kettering.gov.uk,-0.72814400000000,NN16 0AN,2009-02-18,fhrs_4_en-GB,4,,FHRS,10
60424,,,,,The Chilli Geeks,Other catering premises,7841,,,683023,,,,19396,238,fhrs@kettering.gov.uk,Kettering,http://www.kettering.gov.uk,,,2014-05-20,fhrs_exempt_en-GB,Exempt,,FHRS,
60425,,12 Lower Street,Kettering,Northamptonshire,The Coffee Place,Restaurant/Cafe/Canteen,1,10,,76009,5,,52.40049000000000,17862,238,fhrs@kettering.gov.uk,Kettering,http://www.kettering.gov.uk,-0.72864300000000,NN16 8DH,2014-07-29,fhrs_4_en-GB,4,,FHRS,5
60426,,Bath Road,Kettering,Northamptonshire,The Cordwainer,Pub/bar/nightclub,7843,10,,55657,10,,52.40861300000000,12562,238,fhrs@kettering.gov.uk,Kettering,http://www.kettering.gov.uk,-0.71819200000000,NN16 9NA,2014-10-14,fhrs_3_en-GB,3,,FHRS,10
60427,,Unit 2 1 Horsemarket,Kettering,Northamptonshire,The Corner Deli and Sandwich Shop,Retailers - other,4613,5,,683025,5,,52.39881200000000,19428,238,fhrs@kettering.gov.uk,Kettering,http://www.kettering.gov.uk,-0.72645700000000,NN16 0DG,2014-05-27,fhrs_5_en-GB,5,,FHRS,5
60428,,63 Loddington Road,Cransley,Northamptonshire,The Country House Hotel,Hotel/bed & breakfast/guest house,7842,5,,42700,5,,52.38484800000000,10527,238,fhrs@kettering.gov.uk,Kettering,http://www.kettering.gov.uk,-0.78348700000000,NN14 1PY,2007-10-24,fhrs_5_en-GB,5,,FHRS,5
60429,,119-121 High Street,Burton Latimer,Northamptonshire,The Diner,Restaurant/Cafe/Canteen,1,5,,505104,5,,52.36201300000000,18818,238,fhrs@kettering.gov.uk,Kettering,http://www.kettering.gov.uk,-0.67886200000000,NN15 5RL,2013-01-28,fhrs_5_en-GB,5,,FHRS,5
60430,,123 High Street,Burton Latimer,Northamptonshire,The Dukes Arms,Pub/bar/nightclub,7843,5,,76351,5,,52.36201300000000,17986,238,fhrs@kettering.gov.uk,Kettering,http://www.kettering.gov.uk,-0.67886200000000,NN15 5RL,2011-06-29,fhrs_4_en-GB,4,,FHRS,10
60431,,,,,The Fabulous Baking Birds,Other catering premises,7841,10,,648821,0,,,19364,238,fhrs@kettering.gov.uk,Kettering,http://www.kettering.gov.uk,,,2014-03-06,fhrs_4_en-GB,4,,FHRS,0
60432,,,,,The Flaming Chefs,Other catering premises,7841,5,,607052,5,,,18897,238,fhrs@kettering.gov.uk,Kettering,http://www.kettering.gov.uk,,,2013-09-06,fhrs_5_en-GB,5,,FHRS,5
60433,,8 Churchill Way,Burton Latimer,Northamptonshire,The Flying Fish,Takeaway/sandwich shop,7844,5,,62995,5,,52.36436300000000,13945,238,fhrs@kettering.gov.uk,Kettering,http://www.kettering.gov.uk,-0.68084800000000,NN15 5RU,2014-03-05,fhrs_5_en-GB,5,,FHRS,5
60434,,2 Church Street,Wilbarston,Northamptonshire,The Fox Inn,Pub/bar/nightclub,7843,5,,68906,5,,52.48691300000000,15433,238,fhrs@kettering.gov.uk,Kettering,http://www.kettering.gov.uk,-0.80417800000000,LE16 8QG,2013-08-13,fhrs_5_en-GB,5,,FHRS,5
60435,,21 Main Street,Ashley,Northamptonshire,The George,Pub/bar/nightclub,7843,5,,50275,5,,52.51050500000000,11196,238,fhrs@kettering.gov.uk,Kettering,http://www.kettering.gov.uk,-0.83132900000000,LE16 8HF,2010-10-21,fhrs_5_en-GB,5,,FHRS,5
60436,,81 High Street,Desborough,Northamptonshire,The George,Pub/bar/nightclub,7843,10,,52289,5,,52.44226900000000,118,238,fhrs@kettering.gov.uk,Kettering,http://www.kettering.gov.uk,-0.82143800000000,NN14 2ND,2014-09-02,fhrs_4_en-GB,4,,FHRS,5
60437,The Grange,Cranford Road,Kettering,Northamptonshire,The Grange Bed & Breakfast,Hotel/bed & breakfast/guest house,7842,5,,120231,5,,52.38626200000000,4924,238,fhrs@kettering.gov.uk,Kettering,http://www.kettering.gov.uk,-0.67093800000000,NN15 5JL,2011-06-16,fhrs_5_en-GB,5,,FHRS,5
60438,,46 Station Road,Desborough,Northamptonshire,The Great Wall,Takeaway/sandwich shop,7844,10,,116884,10,,52.44346100000000,461,238,fhrs@kettering.gov.uk,Kettering,http://www.kettering.gov.uk,-0.81836100000000,NN14 2RS,2013-08-13,fhrs_3_en-GB,3,,FHRS,10
60439,Allotments,Margaret Road,Kettering,Northamptonshire,The Green Patch,Other catering premises,7841,5,,446103,10,,,3299,238,fhrs@kettering.gov.uk,Kettering,http://www.kettering.gov.uk,,,2012-09-05,fhrs_4_en-GB,4,,FHRS,5
60440,,Harborough Road,Desborough,Northamptonshire,The Gurkhas,Restaurant/Cafe/Canteen,1,20,,67359,10,,52.45716400000000,15024,238,fhrs@kettering.gov.uk,Kettering,http://www.kettering.gov.uk,-0.83483100000000,NN14 2UG,2014-05-15,fhrs_1_en-GB,1,,FHRS,10
60441,,5 Main Street,Loddington,Northamptonshire,The Hare Public House,Pub/bar/nightclub,7843,5,,76314,5,,52.39827500000000,17975,238,fhrs@kettering.gov.uk,Kettering,http://www.kettering.gov.uk,-0.80325400000000,NN14 1LA,2012-12-17,fhrs_5_en-GB,5,,FHRS,5
60442,,74-76 Rockingham Road,Kettering,Northamptonshire,The Heathers,Hospitals/Childcare/Caring Premises,5,5,,146197,5,,52.40578200000000,8858,238,fhrs@kettering.gov.uk,Kettering,http://www.kettering.gov.uk,-0.72662400000000,NN16 9AA,2006-12-14,fhrs_5_en-GB,5,,FHRS,5
60443,Henley Adult Training Centre,Saunders Close,Kettering,Northamptonshire,The Henley Day Centre & Coffee Bar,Other catering premises,7841,5,,86628,5,,52.39676700000000,221,238,fhrs@kettering.gov.uk,Kettering,http://www.kettering.gov.uk,-0.73022000000000,NN16 0AP,2009-06-25,fhrs_5_en-GB,5,,FHRS,5
60444,,,,,The Jollypedlar,Mobile caterer,7846,0,,75920,0,,,17829,238,fhrs@kettering.gov.uk,Kettering,http://www.kettering.gov.uk,,,2011-03-24,fhrs_5_en-GB,5,,FHRS,5
60445,,St. Stephens Road,Kettering,Northamptonshire,The Leather Craftsman,Pub/bar/nightclub,7843,10,,56429,10,,52.39524700000000,12761,238,fhrs@kettering.gov.uk,Kettering,http://www.kettering.gov.uk,-0.68974400000000,NN15 5DS,2012-01-06,fhrs_3_en-GB,3,,FHRS,10
60446,,,,,The Little Cake Shop,Other catering premises,7841,5,,77090,5,,,18032,238,fhrs@kettering.gov.uk,Kettering,http://www.kettering.gov.uk,,,2011-08-19,fhrs_5_en-GB,5,,FHRS,0
60447,,236 Windmill Avenue,Kettering,Northamptonshire,The Little Sandwich Shop,Takeaway/sandwich shop,7844,5,,73649,0,,52.39331000000000,16962,238,fhrs@kettering.gov.uk,Kettering,http://www.kettering.gov.uk,-0.71236000000000,NN15 7DQ,2012-10-11,fhrs_5_en-GB,5,,FHRS,5
60448,,33 Melton Street,Kettering,Northamptonshire,The Melton Arms,Pub/bar/nightclub,7843,10,,64836,10,,52.40649000000000,145,238,fhrs@kettering.gov.uk,Kettering,http://www.kettering.gov.uk,-0.72972000000000,NN16 9DT,2014-10-06,fhrs_3_en-GB,3,,FHRS,10
60449,Unit 1a Market Street Mews,16-18 Market Street,Kettering,Northamptonshire,The Mews Cafe,Restaurant/Cafe/Canteen,1,10,,72999,10,,52.39827200000000,16696,238,fhrs@kettering.gov.uk,Kettering,http://www.kettering.gov.uk,-0.72717800000000,NN16 0AH,2014-04-28,fhrs_3_en-GB,3,,FHRS,10
60450,,75-83 Bath Road,Kettering,Northamptonshire,The Miniature,Pub/bar/nightclub,7843,10,,648817,10,,52.40531100000000,19030,238,fhrs@kettering.gov.uk,Kettering,http://www.kettering.gov.uk,-0.71881700000000,NN16 8ND,2014-03-10,fhrs_3_en-GB,3,,FHRS,5
60451,Rear Barn,Glendon Lodge Farm Complex,Kettering,Northamptonshire,The Music Lounge,Restaurant/Cafe/Canteen,1,,,733049,,,52.42380100000000,19351,238,fhrs@kettering.gov.uk,Kettering,http://www.kettering.gov.uk,-0.73270800000000,NN14 1 QF,2015-01-23,fhrs_exempt_en-GB,Exempt,,FHRS,
60452,,19 Market Hill,Rothwell,Northamptonshire,The Old Bakehouse,Restaurant/Cafe/Canteen,1,0,,69185,5,,52.42275600000000,15534,238,fhrs@kettering.gov.uk,Kettering,http://www.kettering.gov.uk,-0.79966500000000,NN14 6BW,2013-11-14,fhrs_4_en-GB,4,,FHRS,10
60453,,36 High Street,Rothwell,Northamptonshire,"The Old Bank, Turkish Cuisine",Restaurant/Cafe/Canteen,1,5,,552329,5,,52.42234600000000,18465,238,fhrs@kettering.gov.uk,Kettering,http://www.kettering.gov.uk,-0.80361700000000,NN14 6AD,2013-04-25,fhrs_5_en-GB,5,,FHRS,0
60454,The Old Smithy,Grafton Road,Cranford,Northamptonshire,The Old Forge Tea Room,Restaurant/Cafe/Canteen,1,5,,130666,5,,52.38738400000000,6198,238,fhrs@kettering.gov.uk,Kettering,http://www.kettering.gov.uk,-0.64783400000000,NN14 4AH,2014-08-12,fhrs_5_en-GB,5,,FHRS,5
60455,,17 Market Place,Kettering,Northamptonshire,The Old Market Inn,Pub/bar/nightclub,7843,10,,57229,10,,52.39748100000000,12904,238,fhrs@kettering.gov.uk,Kettering,http://www.kettering.gov.uk,-0.72809800000000,NN16 0AJ,2011-11-04,fhrs_3_en-GB,3,,FHRS,10
60456,,Weekley,Kettering,Northamptonshire,The Old Vicarage Care Home Ltd,Hospitals/Childcare/Caring Premises,5,5,,108551,5,,52.41685867309570,388,238,fhrs@kettering.gov.uk,Kettering,http://www.kettering.gov.uk,-0.69454449415207,NN16 9UP,2013-07-29,fhrs_5_en-GB,5,,FHRS,0
60457,,39 Bakehouse Lane,Burton Latimer,Northamptonshire,The Olde Victoria,Pub/bar/nightclub,7843,5,,607062,5,,52.36567100000000,19127,238,fhrs@kettering.gov.uk,Kettering,http://www.kettering.gov.uk,-0.67798900000000,NN15 5NJ,2013-07-31,fhrs_4_en-GB,4,,FHRS,10
60458,,19 Market Hill,Rothwell,Northamptonshire,The Olive Lounge,Pub/bar/nightclub,7843,0,,74088,0,,52.42275600000000,17012,238,fhrs@kettering.gov.uk,Kettering,http://www.kettering.gov.uk,-0.79966500000000,NN14 6BW,2010-04-30,fhrs_5_en-GB,5,,FHRS,0
60459,Parkhouse Milestone Restaurant,Holdenby,Kettering,Northamptonshire,The Park House,Restaurant/Cafe/Canteen,1,0,,113404,5,,52.37725700000000,4245,238,fhrs@kettering.gov.uk,Kettering,http://www.kettering.gov.uk,-0.71851300000000,NN15 6XE,2013-03-26,fhrs_4_en-GB,4,,FHRS,10
60460,,7 Lower Street,Kettering,Northamptonshire,The Peacock Inn,Pub/bar/nightclub,7843,5,,64137,0,,52.40049000000000,142,238,fhrs@kettering.gov.uk,Kettering,http://www.kettering.gov.uk,-0.72864300000000,NN16 8DH,2014-06-09,fhrs_5_en-GB,5,,FHRS,5
60461,,Windmill Avenue,Kettering,Northamptonshire,The Piper,Pub/bar/nightclub,7843,5,,62800,0,,52.38900100000000,139,238,fhrs@kettering.gov.uk,Kettering,http://www.kettering.gov.uk,-0.70963500000000,NN15 6PS,2013-01-03,fhrs_5_en-GB,5,,FHRS,5
60462,,Dalkeith Place,Kettering,Northamptonshire,The Prince Of Wales,Pub/bar/nightclub,7843,10,,60424,10,,52.39940300000000,132,238,fhrs@kettering.gov.uk,Kettering,http://www.kettering.gov.uk,-0.72616100000000,NN16 0BS,2008-10-29,fhrs_3_en-GB,3,,FHRS,10
60463,,Main Street,Sutton Bassett,Northamptonshire,The Queens Head,Pub/bar/nightclub,7843,20,,537962,15,,52.50505600000000,18836,238,fhrs@kettering.gov.uk,Kettering,http://www.kettering.gov.uk,-0.86544800000000,LE16 8HP,2013-07-31,fhrs_1_en-GB,1,,FHRS,15
60464,,46 Rockingham Road,Kettering,Northamptonshire,The Raj Restaurant,Restaurant/Cafe/Canteen,1,10,,94833,10,,52.40431500000000,28,238,fhrs@kettering.gov.uk,Kettering,http://www.kettering.gov.uk,-0.72653400000000,NN16 8JT,2013-10-15,fhrs_3_en-GB,3,,FHRS,10
60465,,23 Market Hill,Rothwell,Northamptonshire,The Red Lion,Pub/bar/nightclub,7843,5,,696156,5,,52.42275600000000,19480,238,fhrs@kettering.gov.uk,Kettering,http://www.kettering.gov.uk,-0.79966500000000,NN14 6BW,2014-07-30,fhrs_5_en-GB,5,,FHRS,5
60466,Red Lion,42 High Street,Cranford,Northamptonshire,The Red Lion,Pub/bar/nightclub,7843,10,,494281,5,,52.38226400000000,18739,238,fhrs@kettering.gov.uk,Kettering,http://www.kettering.gov.uk,-0.64431700000000,NN14 4AA,2012-12-06,fhrs_4_en-GB,4,,FHRS,5
60467,Red Lion Inn,7 High Street,Broughton,Northamptonshire,The Red Lion,Pub/bar/nightclub,7843,5,,73178,0,,52.37533800000000,16772,238,fhrs@kettering.gov.uk,Kettering,http://www.kettering.gov.uk,-0.77406800000000,NN14 1NF,2012-10-30,fhrs_4_en-GB,4,,FHRS,10
60468,,23 Market Hill,Rothwell,Northamptonshire,The Red Lion - Kitchen,Pub/bar/nightclub,7843,5,,77466,5,,52.42275600000000,18204,238,fhrs@kettering.gov.uk,Kettering,http://www.kettering.gov.uk,-0.79966500000000,NN14 6BW,2013-05-28,fhrs_5_en-GB,5,,FHRS,5
60469,,21 Market Hill,Rothwell,Northamptonshire,The Rice Bowl,Takeaway/sandwich shop,7844,10,,75160,10,,52.42275600000000,17485,238,fhrs@kettering.gov.uk,Kettering,http://www.kettering.gov.uk,-0.79966500000000,NN14 6BW,2012-08-08,fhrs_3_en-GB,3,,FHRS,10
60470,,11-15 Station Road,Desborough,Northamptonshire,The Ritz Inn,Hotel/bed & breakfast/guest house,7842,5,,733051,5,,52.44253100000000,19538,238,fhrs@kettering.gov.uk,Kettering,http://www.kettering.gov.uk,-0.81990100000000,NN14 2RL,2014-12-12,fhrs_5_en-GB,5,,FHRS,5
60471,,Market Place,Kettering,Northamptonshire,The Royal Hotel,Hotel/bed & breakfast/guest house,7842,5,,73640,5,,52.39748100000000,16960,238,fhrs@kettering.gov.uk,Kettering,http://www.kettering.gov.uk,-0.72809800000000,NN16 0AJ,2014-11-24,fhrs_5_en-GB,5,,FHRS,5
60472,,2 Bridge Street,Geddington,Northamptonshire,The Star Inn,Pub/bar/nightclub,7843,20,,607053,10,,52.43763200000000,18956,238,fhrs@kettering.gov.uk,Kettering,http://www.kettering.gov.uk,-0.68604600000000,NN14 1AD,2013-09-11,fhrs_1_en-GB,1,,FHRS,10
60473,,Woodland Avenue,Barton Seagrave,Northamptonshire,The Stirrup Cup,Pub/bar/nightclub,7843,5,,142452,0,,52.37804200000000,7920,238,fhrs@kettering.gov.uk,Kettering,http://www.kettering.gov.uk,-0.69170800000000,NN15 6QR,2013-05-20,fhrs_5_en-GB,5,,FHRS,5
60474,,4 Market Hill,Rothwell,Northamptonshire,The Store Coffee House,Restaurant/Cafe/Canteen,1,5,,55805,5,,52.42304900000000,12600,238,fhrs@kettering.gov.uk,Kettering,http://www.kettering.gov.uk,-0.80021600000000,NN14 6EP,2014-01-28,fhrs_5_en-GB,5,,FHRS,5
60475,,,,,The Sugar Fairy,Other catering premises,7841,5,,64924,5,,,14524,238,fhrs@kettering.gov.uk,Kettering,http://www.kettering.gov.uk,,,2007-01-11,fhrs_5_en-GB,5,,FHRS,5
60476,,Griffin Road,Braybrooke,Northamptonshire,The Swan Inn,Pub/bar/nightclub,7843,5,,505101,5,,52.44987400000000,18751,238,fhrs@kettering.gov.uk,Kettering,http://www.kettering.gov.uk,-0.87585700000000,LE16 8LH,2013-01-22,fhrs_5_en-GB,5,,FHRS,5
60477,,33 Meadow Road,Kettering,Northamptonshire,The Talbot Inn,Pub/bar/nightclub,7843,10,,50297,10,,52.39843200000000,112,238,fhrs@kettering.gov.uk,Kettering,http://www.kettering.gov.uk,-0.73037800000000,NN16 8TL,2013-01-04,fhrs_3_en-GB,3,,FHRS,10
60478,,2 Station Road,Rushton,Northamptonshire,The Thornhill Arms,Pub/bar/nightclub,7843,10,,72681,5,,52.43828100000000,16566,238,fhrs@kettering.gov.uk,Kettering,http://www.kettering.gov.uk,-0.76196500000000,NN14 1RL,2013-07-04,fhrs_3_en-GB,3,,FHRS,10
60479,Three Cocks Inn,48 Lower Street,Kettering,Northamptonshire,The Three Cocks,Pub/bar/nightclub,7843,5,,494271,5,,52.40137200000000,18571,238,fhrs@kettering.gov.uk,Kettering,http://www.kettering.gov.uk,-0.72951500000000,NN16 8DJ,2014-06-25,fhrs_4_en-GB,4,,FHRS,10
60480,,1 Loddington Road,Cransley,Northamptonshire,The Three Cranes,Pub/bar/nightclub,7843,0,,44509,5,,52.38484800000000,108,238,fhrs@kettering.gov.uk,Kettering,http://www.kettering.gov.uk,-0.78348700000000,NN14 1PY,2011-05-17,fhrs_5_en-GB,5,,FHRS,0
60481,,10 Bignal Court,Kettering,Northamptonshire,The Trading Post,Pub/bar/nightclub,7843,5,,133073,5,,52.39148400000000,6547,238,fhrs@kettering.gov.uk,Kettering,http://www.kettering.gov.uk,-0.74655100000000,NN15 7RH,2013-02-13,fhrs_5_en-GB,5,,FHRS,5
60482,Cobley Lodge Farm,Little Oakley,Corby,Northamptonshire,The Udder Pre-School Day Nursery,Hospitals/Childcare/Caring Premises,5,5,,140195,5,,52.45705800000000,7628,238,fhrs@kettering.gov.uk,Kettering,http://www.kettering.gov.uk,-0.68168500000000,NN18 8HE,2014-02-11,fhrs_5_en-GB,5,,FHRS,0
60483,,54 Gold street,Kettering,Northamptonshire,The Vintage Tearoom at Lolly Rocket,Restaurant/Cafe/Canteen,1,10,,579424,5,,52.40057600000000,18991,238,fhrs@kettering.gov.uk,Kettering,http://www.kettering.gov.uk,-0.72662700000000,NN168JB,2013-08-07,fhrs_4_en-GB,4,,FHRS,5
60484,The Gables,7,Warkton Village,Northamptonshire,The Warkton Pantry,Takeaway/sandwich shop,7844,5,,648818,5,,52.41041800000000,19177,238,fhrs@kettering.gov.uk,Kettering,http://www.kettering.gov.uk,-0.68933900000000,NN16 9XJ,2014-03-06,fhrs_5_en-GB,5,,FHRS,5
60485,,Stamford Road,Kettering,Northamptonshire,The Warren,Pub/bar/nightclub,7843,5,,146626,5,,52.40329100000000,8992,238,fhrs@kettering.gov.uk,Kettering,http://www.kettering.gov.uk,-0.71331900000000,NN16 8FD,2013-05-21,fhrs_4_en-GB,4,,FHRS,10
60486,,296 London Road,Kettering,Northamptonshire,The Wayfarers,Pub/bar/nightclub,7843,10,,696159,10,,52.38844700000000,19524,238,fhrs@kettering.gov.uk,Kettering,http://www.kettering.gov.uk,-0.71569100000000,NN15 6DX,2014-08-05,fhrs_3_en-GB,3,,FHRS,10
60487,,Valley Road,Weston-by-Welland,Northamptonshire,The Wheel and Compass,Pub/bar/nightclub,7843,5,,452300,5,,52.51670500000000,18587,238,fhrs@kettering.gov.uk,Kettering,http://www.kettering.gov.uk,-0.85668900000000,LE16 8HZ,2014-07-02,fhrs_5_en-GB,5,,FHRS,5
60488,,11 West Street,Geddington,Northamptonshire,The White Hart,Pub/bar/nightclub,7843,5,,145204,5,,52.43873100000000,8549,238,fhrs@kettering.gov.uk,Kettering,http://www.kettering.gov.uk,-0.68704300000000,NN14 1BD,2010-03-19,fhrs_5_en-GB,5,,FHRS,5
60489,,Harborough Road,Stoke Albany,Northamptonshire,The White Horse Inn,Pub/bar/nightclub,7843,5,,143485,5,,52.48126700000000,8095,238,fhrs@kettering.gov.uk,Kettering,http://www.kettering.gov.uk,-0.81584700000000,LE16 8PY,2014-02-25,fhrs_5_en-GB,5,,FHRS,5
60490,,38 Queen Street,Geddington,Northamptonshire,The White Lion,Pub/bar/nightclub,7843,20,,137583,10,,52.43558500000000,7258,238,fhrs@kettering.gov.uk,Kettering,http://www.kettering.gov.uk,-0.68871000000000,NN14 1AZ,2014-03-21,fhrs_1_en-GB,1,,FHRS,15
60491,Wok Inn Restaurant,4 Bignal Court,Kettering,Northamptonshire,The Wok Inn,Takeaway/sandwich shop,7844,10,,141475,5,,52.39148400000000,7794,238,fhrs@kettering.gov.uk,Kettering,http://www.kettering.gov.uk,-0.74655100000000,NN15 7RH,2015-01-12,fhrs_4_en-GB,4,,FHRS,5
60492,,73 Kettering Road,Burton Latimer,Northamptonshire,The Yews,Hospitals/Childcare/Caring Premises,5,5,,113999,5,,52.36627800000000,430,238,fhrs@kettering.gov.uk,Kettering,http://www.kettering.gov.uk,-0.68002700000000,NN15 5LP,2014-03-11,fhrs_5_en-GB,5,,FHRS,5
60493,,Malham Drive,Kettering,Northamptonshire,Thorndale,Hospitals/Childcare/Caring Premises,5,5,,68911,5,,52.41337900000000,15437,238,fhrs@kettering.gov.uk,Kettering,http://www.kettering.gov.uk,-0.73416900000000,NN16 9FS,2014-03-10,fhrs_5_en-GB,5,,FHRS,5
60494,,30 Church Way,Thorpe Malsor,Northamptonshire,Thorpe Malsor Social Club,Pub/bar/nightclub,7843,5,,78082,5,,52.40280600000000,185,238,fhrs@kettering.gov.uk,Kettering,http://www.kettering.gov.uk,-0.77421800000000,NN14 1JS,2006-09-06,fhrs_5_en-GB,5,,FHRS,5
60495,,,,,Tickerty Boo,Mobile caterer,7846,5,,371932,0,,,18354,238,fhrs@kettering.gov.uk,Kettering,http://www.kettering.gov.uk,,,2012-05-03,fhrs_5_en-GB,5,,FHRS,5
60496,,,,,Tilly Frilly Cupcake,Other catering premises,7841,5,,452298,5,,,18559,238,fhrs@kettering.gov.uk,Kettering,http://www.kettering.gov.uk,,,2012-09-20,fhrs_5_en-GB,5,,FHRS,0
60497,,,,,Timeless Teas and Treasures,Other catering premises,7841,10,,552332,5,,,18917,238,fhrs@kettering.gov.uk,Kettering,http://www.kettering.gov.uk,,,2013-04-26,fhrs_4_en-GB,4,,FHRS,5
60498,,,,,Tina Church,Other catering premises,7841,5,,432651,5,,,18445,238,fhrs@kettering.gov.uk,Kettering,http://www.kettering.gov.uk,,,2012-04-19,fhrs_5_en-GB,5,,FHRS,5
60499,,27 Crown Street,Kettering,Northamptonshire,Toddlerz Day Nursery,Hospitals/Childcare/Caring Premises,5,5,,733052,5,,52.40371500000000,19682,238,fhrs@kettering.gov.uk,Kettering,http://www.kettering.gov.uk,-0.72509600000000,NN16 8QA,2015-01-08,fhrs_5_en-GB,5,,FHRS,5
60500,,49 High Street,Harrington,Northamptonshire,Tollemache Arms,Pub/bar/nightclub,7843,10,,62744,10,,52.41267300000000,13880,238,fhrs@kettering.gov.uk,Kettering,http://www.kettering.gov.uk,-0.86377600000000,NN6 9NU,2014-03-12,fhrs_2_en-GB,2,,FHRS,15
60501,The Thai Orchid Restaurant,2 Bignal Court,Kettering,Northamptonshire,Tong Thai Restaurant,Restaurant/Cafe/Canteen,1,20,,143019,15,,52.39148400000000,8015,238,fhrs@kettering.gov.uk,Kettering,http://www.kettering.gov.uk,-0.74655100000000,NN15 7RH,2014-03-18,fhrs_1_en-GB,1,,FHRS,15
60502,,,,,Toni Morton,Other catering premises,7841,5,,579423,5,,,18809,238,fhrs@kettering.gov.uk,Kettering,http://www.kettering.gov.uk,,,2013-08-15,fhrs_5_en-GB,5,,FHRS,5
60503,,22 High Street,Rothwell,Northamptonshire,"Toro, Steak and Cocktail Bar",Restaurant/Cafe/Canteen,1,20,,446097,5,,52.42245700000000,18027,238,fhrs@kettering.gov.uk,Kettering,http://www.kettering.gov.uk,-0.80296700000000,NN14 6BQ,2013-10-14,fhrs_1_en-GB,1,,FHRS,5
60504,Total Service Station,151 Barton Road,Barton Seagrave,Northamptonshire,Total Service Station,Retailers - other,4613,5,,129435,5,,52.38397600000000,602,238,fhrs@kettering.gov.uk,Kettering,http://www.kettering.gov.uk,-0.68684600000000,NN15 6RT,2011-06-22,fhrs_5_en-GB,5,,FHRS,5
60505,,19 High Street,Rothwell,Northamptonshire,Town Friar,Takeaway/sandwich shop,7844,10,,715532,5,,52.42226300000000,19640,238,fhrs@kettering.gov.uk,Kettering,http://www.kettering.gov.uk,-0.80339900000000,NN14 6AD,2014-10-14,fhrs_4_en-GB,4,,FHRS,5
60506,Travel Lodge,A14,Kettering,Northamptonshire,Travelodge,Hotel/bed & breakfast/guest house,7842,,,43034,,,52.38063600000000,10554,238,fhrs@kettering.gov.uk,Kettering,http://www.kettering.gov.uk,-0.73088800000000,NN14 1RW,2006-07-26,fhrs_exempt_en-GB,Exempt,,FHRS,
60507,Tresham Institute Of Further A,Windmill Avenue,Kettering,Northamptonshire,Tresham Institute,School/college/university,7845,5,,86442,0,,52.38842200000000,220,238,fhrs@kettering.gov.uk,Kettering,http://www.kettering.gov.uk,-0.71175300000000,NN15 6ER,2012-05-18,fhrs_5_en-GB,5,,FHRS,5
60508,,88 Pipers Hill Road,Kettering,Northamptonshire,U Kuma,Retailers - other,4613,5,,505097,5,,52.39258500000000,18636,238,fhrs@kettering.gov.uk,Kettering,http://www.kettering.gov.uk,-0.71761300000000,NN15 7NH,2013-01-17,fhrs_5_en-GB,5,,FHRS,5
60509,,,,,Unique Pursuits,Mobile caterer,7846,5,,371899,10,,,11506,238,fhrs@kettering.gov.uk,Kettering,http://www.kettering.gov.uk,,,2012-04-04,fhrs_4_en-GB,4,,FHRS,5
60510,Kettering General Hospital,Rothwell Road,Kettering,Northamptonshire,Uppinghams Restaurant,Restaurant/Cafe/Canteen,1,0,,139676,0,,52.40279200000000,7547,238,fhrs@kettering.gov.uk,Kettering,http://www.kettering.gov.uk,-0.74130700000000,NN16 8UZ,2015-01-14,fhrs_5_en-GB,5,,FHRS,5
60511,,19 High Street,Broughton,Northamptonshire,Village Stores (MCS Ltd),Retailers - other,4613,5,,131281,0,,52.37452600000000,627,238,fhrs@kettering.gov.uk,Kettering,http://www.kettering.gov.uk,-0.77553000000000,NN14 1NF,2011-05-03,fhrs_5_en-GB,5,,FHRS,5
60512,,74 - 76 Station Road,Desborough,Northamptonshire,Vineyard,Pub/bar/nightclub,7843,10,,570291,10,,52.44346100000000,18811,238,fhrs@kettering.gov.uk,Kettering,http://www.kettering.gov.uk,-0.81836100000000,NN14 2RS,2013-07-02,fhrs_3_en-GB,3,,FHRS,5
60513,,54 Gold Street,Kettering,Northamptonshire,Vintage Fleur,Restaurant/Cafe/Canteen,1,10,,715526,10,,52.40057600000000,19565,238,fhrs@kettering.gov.uk,Kettering,http://www.kettering.gov.uk,-0.72662700000000,NN16 8JB,2014-10-01,fhrs_3_en-GB,3,,FHRS,10
60514,,96 High Street,Burton Latimer.,Northamptonshire,Vivo Italian Restaurant,Restaurant/Cafe/Canteen,1,5,,494285,5,,52.36313600000000,18799,238,fhrs@kettering.gov.uk,Kettering,http://www.kettering.gov.uk,-0.67884300000000,NN15 5LA,2013-01-03,fhrs_5_en-GB,5,,FHRS,5
60515,,51 Field Street,Kettering,Northamptonshire,Wais,Takeaway/sandwich shop,7844,10,,74541,5,,52.40409100000000,17209,238,fhrs@kettering.gov.uk,Kettering,http://www.kettering.gov.uk,-0.72992200000000,NN16 8EN,2014-06-04,fhrs_3_en-GB,3,,FHRS,10
60516,,131 Pioneer Avenue,Desborough,Northamptonshire,Well Burgered,Other catering premises,7841,5,,696154,5,,52.43537400000000,19082,238,fhrs@kettering.gov.uk,Kettering,http://www.kettering.gov.uk,-0.82791800000000,NN14 2PB,2014-07-15,fhrs_5_en-GB,5,,FHRS,5
60517,St  Marys Hospital,77 London Road,Kettering,Northamptonshire,Welland Centre,Hospitals/Childcare/Caring Premises,5,0,,62302,5,,52.39410900000000,13756,238,fhrs@kettering.gov.uk,Kettering,http://www.kettering.gov.uk,-0.72221300000000,NN15 7PW,2009-02-09,fhrs_5_en-GB,5,,FHRS,5
60518,,,,,Welland Ridge Coffee Company,Other catering premises,7841,10,,77072,0,,,18026,238,fhrs@kettering.gov.uk,Kettering,http://www.kettering.gov.uk,,,2011-09-08,fhrs_4_en-GB,4,,FHRS,10
60519,,63 Stamford Road,Kettering,Northamptonshire,Werringtons Fish and Chips,Takeaway/sandwich shop,7844,5,,118936,5,,52.40322900000000,482,238,fhrs@kettering.gov.uk,Kettering,http://www.kettering.gov.uk,-0.71584900000000,NN16 8XY,2013-07-30,fhrs_5_en-GB,5,,FHRS,0
60520,West Lodge Day Nursery,Pipewell Road,Desborough,Northamptonshire,West Lodge Day Nursery,Hospitals/Childcare/Caring Premises,5,5,,41876,5,,52.45667900000000,10359,238,fhrs@kettering.gov.uk,Kettering,http://www.kettering.gov.uk,-0.80878000000000,NN14 2SH,2014-03-19,fhrs_5_en-GB,5,,FHRS,5
60521,West Lodge Farm,Pipewell Road,Desborough,Northamptonshire,West Lodge Rural Centre,Restaurant/Cafe/Canteen,1,5,,123216,5,,52.45667900000000,5168,238,fhrs@kettering.gov.uk,Kettering,http://www.kettering.gov.uk,-0.80878000000000,NN14 2SH,2014-03-19,fhrs_4_en-GB,4,,FHRS,10
60522,,Wicksteed Park,Kettering,Northamptonshire,Wicksteed Park - Arcade Cafe,Retailers - other,4613,5,,67645,5,,52.38567400000000,15105,238,fhrs@kettering.gov.uk,Kettering,http://www.kettering.gov.uk,-0.70873300000000,NN15 6NJ,2013-05-23,fhrs_5_en-GB,5,,FHRS,5
60523,Wicksteed Park,Pytchley Road,Kettering,Northamptonshire,Wicksteed Park - Charlies Sweetshop,Retailers - other,4613,5,,67647,5,,52.38567400000000,15106,238,fhrs@kettering.gov.uk,Kettering,http://www.kettering.gov.uk,-0.70873300000000,NN15 6NJ,2011-05-19,fhrs_5_en-GB,5,,FHRS,5
60524,Wicksteed Park,Barton Road,Kettering,Northamptonshire,Wicksteed Park - Lakeside Diner,Restaurant/Cafe/Canteen,1,5,,54044,5,,52.38567400000000,12178,238,fhrs@kettering.gov.uk,Kettering,http://www.kettering.gov.uk,-0.70873300000000,NN15 6NJ,2013-05-23,fhrs_5_en-GB,5,,FHRS,5
60525,Wicksteed Park,Pytchley Road,Kettering,Northamptonshire,Wicksteed Park - Lakeside Tickets Sales,Retailers - other,4613,5,,67643,5,,52.38567400000000,15104,238,fhrs@kettering.gov.uk,Kettering,http://www.kettering.gov.uk,-0.70873300000000,NN15 6NJ,2012-02-13,fhrs_4_en-GB,4,,FHRS,10
60526,Wicksteed Park,Barton Road,Kettering,Northamptonshire,Wicksteed Park - Oaktree Outlet,Takeaway/sandwich shop,7844,5,,54029,5,,52.38567400000000,12173,238,fhrs@kettering.gov.uk,Kettering,http://www.kettering.gov.uk,-0.70873300000000,NN15 6NJ,2013-05-23,fhrs_5_en-GB,5,,FHRS,5
60527,Wicksteed Park,Barton Road,Kettering,Northamptonshire,Wicksteed Park - Precinct,Takeaway/sandwich shop,7844,5,,54039,5,,52.38567400000000,12177,238,fhrs@kettering.gov.uk,Kettering,http://www.kettering.gov.uk,-0.70873300000000,NN15 6NJ,2013-05-23,fhrs_5_en-GB,5,,FHRS,5
60528,Wicksteed Park,Barton Road,Kettering,Northamptonshire,Wicksteed Park - Sandcastle,Takeaway/sandwich shop,7844,5,,54023,10,,52.38567400000000,12172,238,fhrs@kettering.gov.uk,Kettering,http://www.kettering.gov.uk,-0.70873300000000,NN15 6NJ,2012-02-13,fhrs_4_en-GB,4,,FHRS,5
60529,Wicksteed Park,Barton Road,Kettering,Northamptonshire,Wicksteed Park - The Hexagon,Restaurant/Cafe/Canteen,1,5,,54036,5,,52.38567400000000,12175,238,fhrs@kettering.gov.uk,Kettering,http://www.kettering.gov.uk,-0.70873300000000,NN15 6NJ,2013-05-23,fhrs_5_en-GB,5,,FHRS,5
60530,Wicksteed Park,Barton Road,Kettering,Northamptonshire,Wicksteed Park -Jungle Reflections,Retailers - other,4613,5,,54034,5,,52.38567400000000,12174,238,fhrs@kettering.gov.uk,Kettering,http://www.kettering.gov.uk,-0.70873300000000,NN15 6NJ,2013-05-23,fhrs_5_en-GB,5,,FHRS,5
60531,Wicksteed Park,Barton Road,Kettering,Northamptonshire,Wicksteed Park Ltd - Main Record,Restaurant/Cafe/Canteen,1,5,,129976,5,,52.38567400000000,61,238,fhrs@kettering.gov.uk,Kettering,http://www.kettering.gov.uk,-0.70873300000000,NN15 6NJ,2014-01-10,fhrs_5_en-GB,5,,FHRS,5
60532,,School Lane,Wilbarston,Northamptonshire,Wilbarston Church Of England Primary School,School/college/university,7845,5,,371903,5,,52.48307000000000,15609,238,fhrs@kettering.gov.uk,Kettering,http://www.kettering.gov.uk,-0.80286900000000,LE16 8QR,2014-01-27,fhrs_5_en-GB,5,,FHRS,0
60533,,1 Main Street,Wilbarston,Northamptonshire,Wilbarston Post Office & Store,Retailers - other,4613,10,,146162,5,,52.48567900000000,8846,238,fhrs@kettering.gov.uk,Kettering,http://www.kettering.gov.uk,-0.80303400000000,LE16 8QQ,2014-11-25,fhrs_4_en-GB,4,,FHRS,5
60534,William Knibbs Centre,Montagu Street,Kettering,Northamptonshire,William Knibb Cafe,Restaurant/Cafe/Canteen,1,10,,143176,10,,52.40156300000000,8038,238,fhrs@kettering.gov.uk,Kettering,http://www.kettering.gov.uk,-0.72143900000000,NN16 8AE,2009-04-28,fhrs_3_en-GB,3,,FHRS,5
60535,Windermere Day Nursery,Haweswater Road,Kettering,Northamptonshire,Windermere Day Nursery,Hospitals/Childcare/Caring Premises,5,0,,147017,0,,52.40346500000000,9063,238,fhrs@kettering.gov.uk,Kettering,http://www.kettering.gov.uk,-0.74534500000000,NN16 8LX,2014-07-15,fhrs_5_en-GB,5,,FHRS,0
60536,,12 Edmund Street,Kettering,Northamptonshire,Windmill Club,Pub/bar/nightclub,7843,10,,77441,10,,52.40223800000000,182,238,fhrs@kettering.gov.uk,Kettering,http://www.kettering.gov.uk,-0.71398200000000,NN16 0HU,2013-06-04,fhrs_3_en-GB,3,,FHRS,5
60537,,2 Tresham Street,Kettering,Northamptonshire,Windmill Pre-School,Hospitals/Childcare/Caring Premises,5,0,,75456,5,,52.40335600000000,17625,238,fhrs@kettering.gov.uk,Kettering,http://www.kettering.gov.uk,-0.72096100000000,NN16 8RS,2011-01-27,fhrs_5_en-GB,5,,FHRS,5
60538,,Lower Street,Kettering,Northamptonshire,Wm Morrisons Supermarkets plc,Retailers - supermarkets/hypermarkets,7840,0,,144594,0,,52.40061700000000,8360,238,fhrs@kettering.gov.uk,Kettering,http://www.kettering.gov.uk,-0.73125600000000,NN16 8AN,2013-02-18,fhrs_5_en-GB,5,,FHRS,0
60539,Latimer Park RDC,Altendiez Way,Burton Latimer,Northamptonshire,WM Morrisons Supermarkets Plc (canteen),Restaurant/Cafe/Canteen,1,0,,62633,0,,52.37052300000000,13840,238,fhrs@kettering.gov.uk,Kettering,http://www.kettering.gov.uk,-0.68493800000000,NN15 5YT,2008-06-09,fhrs_5_en-GB,5,,FHRS,0
60540,,13 Station Road,Burton Latimer,Northamptonshire,Wongs,Takeaway/sandwich shop,7844,5,,117036,5,,52.36574000000000,4626,238,fhrs@kettering.gov.uk,Kettering,http://www.kettering.gov.uk,-0.68256900000000,NN15 5PB,2014-11-12,fhrs_4_en-GB,4,,FHRS,10
60541,Woodcroft Scout Centre,London Road,Kettering,Northamptonshire,Woodcroft Scout Centre,Other catering premises,7841,5,,79431,5,,52.39039200000000,1909,238,fhrs@kettering.gov.uk,Kettering,http://www.kettering.gov.uk,-0.71770600000000,NN15 6NQ,2004-12-13,fhrs_4_en-GB,4,,FHRS,10
60542,,St. Johns Road,Kettering,Northamptonshire,Woolcomber,Pub/bar/nightclub,7843,5,,141207,5,,52.39205600000000,7759,238,fhrs@kettering.gov.uk,Kettering,http://www.kettering.gov.uk,-0.70206600000000,NN15 5AZ,2014-07-31,fhrs_5_en-GB,5,,FHRS,5
60543,,Market Hill,Rothwell,Northamptonshire,Woolpack Inn,Pub/bar/nightclub,7843,5,,70297,0,,52.42275600000000,15944,238,fhrs@kettering.gov.uk,Kettering,http://www.kettering.gov.uk,-0.79966500000000,NN14 6BW,2014-08-04,fhrs_5_en-GB,5,,FHRS,5
60544,Wren Spinney School,Westover Road,Kettering,Northamptonshire,Wren Spinney School,Hospitals/Childcare/Caring Premises,5,5,,87272,5,,52.39721300000000,225,238,fhrs@kettering.gov.uk,Kettering,http://www.kettering.gov.uk,-0.74339100000000,NN15 7LB,2014-06-19,fhrs_5_en-GB,5,,FHRS,0
60545,,13 Gold Street,Kettering,Northamptonshire,Wren Spinney Shop,Retailers - other,4613,5,,73473,0,,52.40053700000000,16897,238,fhrs@kettering.gov.uk,Kettering,http://www.kettering.gov.uk,-0.72796600000000,NN16 8JA,2010-02-15,fhrs_5_en-GB,5,,FHRS,5
60546,,9 Grange Place,Kettering,Northamptonshire,Yum Yums Cafe @ Resource Centre,Restaurant/Cafe/Canteen,1,5,,151034,5,,52.40727800000000,9976,238,fhrs@kettering.gov.uk,Kettering,http://www.kettering.gov.uk,-0.70707300000000,NN16 0NT,2011-06-16,fhrs_5_en-GB,5,,FHRS,5
60547,,100-102 High Street,Burton Latimer,Northamptonshire,ZaZa's Lounge,Restaurant/Cafe/Canteen,1,5,,494274,5,,52.36313600000000,18596,238,fhrs@kettering.gov.uk,Kettering,http://www.kettering.gov.uk,-0.67884300000000,NN15 5LA,2013-01-08,fhrs_5_en-GB,5,,FHRS,0
60548,,,,,Za-Za's Pancake Heaven,Mobile caterer,7846,5,,618919,0,,,19191,238,fhrs@kettering.gov.uk,Kettering,http://www.kettering.gov.uk,,,2013-11-22,fhrs_5_en-GB,5,,FHRS,0
60549,,,,,Zebbets Scrummy Delights,Other catering premises,7841,5,,570296,0,,,19031,238,fhrs@kettering.gov.uk,Kettering,http://www.kettering.gov.uk,,,2013-06-21,fhrs_5_en-GB,5,,FHRS,0
60550,,56 Stamford Road,Kettering,Northamptonshire,Zen Spice,Restaurant/Cafe/Canteen,1,20,,150606,10,,52.40360700000000,9873,238,fhrs@kettering.gov.uk,Kettering,http://www.kettering.gov.uk,-0.71423600000000,NN16 8XZ,2014-10-28,fhrs_1_en-GB,1,,FHRS,10
60551,,7 Dalkeith Place,Kettering,Northamptonshire,ZoZo's,Restaurant/Cafe/Canteen,1,5,,71374,5,,52.39940300000000,16194,238,fhrs@kettering.gov.uk,Kettering,http://www.kettering.gov.uk,-0.72616100000000,NN16 0BS,2012-11-09,fhrs_5_en-GB,5,,FHRS,0
