,addressline1,addressline2,addressline3,addressline4,businessname,businesstype,businesstypeid,confidenceinmanagement,extractdate,fhrsid,hygiene,itemcount,latitude,localauthoritybusinessid,localauthoritycode,localauthorityemailaddress,localauthorityname,localauthoritywebsite,longitude,postcode,ratingdate,ratingkey,ratingvalue,returncode,schemetype,structural
390910,,,,,12 Sandfield Terrace,Other catering premises,7841,5,,648933,0,,,PI/000016525,256,info@selby.gov.uk,Selby,http://www.selby.gov.uk,,,2014-03-11,fhrs_5_en-GB,5,,FHRS,0
390911,Selby,North Yorkshire,,,16 Peppermint Way,Other catering premises,7841,5,,430331,5,,53.78445816040040,PI/000006071,256,info@selby.gov.uk,Selby,http://www.selby.gov.uk,-1.08769941329956,YO8 4QY,2012-07-10,fhrs_5_en-GB,5,,FHRS,5
390912,Church Fenton,Tadcaster,,,3 Dorts Crescent,Retailers - other,4613,5,,459909,5,,53.83709900000000,PI/000014672,256,info@selby.gov.uk,Selby,http://www.selby.gov.uk,-1.20720000000000,LS24 9RU,2012-10-16,fhrs_5_en-GB,5,,FHRS,0
390913,Skipwith Road,Escrick,York,,4 1949 Cottages,Other catering premises,7841,10,,638147,5,,,PI/000000266,256,info@selby.gov.uk,Selby,http://www.selby.gov.uk,,,2014-10-22,fhrs_4_en-GB,4,,FHRS,5
390914,2 Coney Hill,Kelfield,York,,4 Every Occasion Cakes & Cupcakes,Mobile caterer,7846,0,,434177,5,,53.84264900000000,PI/000000699,256,info@selby.gov.uk,Selby,http://www.selby.gov.uk,-1.09227200000000,YO19 6RL,2012-07-27,fhrs_5_en-GB,5,,FHRS,5
390915,Sherburn In Elmet,Leeds,North Yorkshire,,45 Copperfield Close,Mobile caterer,7846,0,,620972,0,,,PI/000014294,256,info@selby.gov.uk,Selby,http://www.selby.gov.uk,,,2013-12-18,fhrs_5_en-GB,5,,FHRS,0
390916,Back Micklegate,Selby,North Yorkshire,,A Tavola,Other catering premises,7841,20,,298787,10,,53.78490500000000,PI/000024791,256,info@selby.gov.uk,Selby,http://www.selby.gov.uk,-1.06958300000000,YO8 3GH,2014-10-08,fhrs_1_en-GB,1,,FHRS,10
390917,York Road,Steeton,Tadcaster,,Aagrah Restaurant,Other catering premises,7841,0,,298772,5,,53.89997500000000,PI/000016741,256,info@selby.gov.uk,Selby,http://www.selby.gov.uk,-1.20100400000000,LS24 8EG,2013-07-15,fhrs_4_en-GB,4,,FHRS,10
390918,61 Gowthorpe,Selby,North Yorkshire,,Abbey  Fisheries,Other catering premises,7841,0,,504352,0,,53.78357300000000,PI/000003420,256,info@selby.gov.uk,Selby,http://www.selby.gov.uk,-1.07173700000000,YO8 4HE,2013-04-26,fhrs_5_en-GB,5,,FHRS,5
390919,46 Micklegate,Selby,North Yorkshire,,Abbey Cafe,Restaurant/Cafe/Canteen,1,10,,430329,5,,53.80514200000000,PI/000003551,256,info@selby.gov.uk,Selby,http://www.selby.gov.uk,-1.04048100000000,YO8 5XG,2014-01-21,fhrs_4_en-GB,4,,FHRS,5
390920,Unit 4c,"Selby Business Park, Oakney Wood Road",Selby,North Yorkshire,Abbey Fields Day Care Nursery,Hospitals/Childcare/Caring Premises,5,0,,298710,0,,53.76988100000000,PI/000006231,256,info@selby.gov.uk,Selby,http://www.selby.gov.uk,-1.06551500000000,YO8 8NB,2013-07-22,fhrs_5_en-GB,5,,FHRS,0
390921,York Road,Barlby,Selby,North Yorkshire,Abbey Lea Care Home,Hospitals/Childcare/Caring Premises,5,5,,298674,5,,53.80330700000000,PI/000001946,256,info@selby.gov.uk,Selby,http://www.selby.gov.uk,-1.03923200000000,YO8 5JP,2014-11-21,fhrs_5_en-GB,5,,FHRS,5
390922,1 Church Avenue,Selby,North Yorkshire,,Abbey Place Day Nursery,Hospitals/Childcare/Caring Premises,5,5,,298683,5,,53.78157700000000,PI/000003022,256,info@selby.gov.uk,Selby,http://www.selby.gov.uk,-1.01086500000000,YO8 0PG,2014-09-02,fhrs_4_en-GB,4,,FHRS,10
390923,James Street,Selby,North Yorkshire,,Abbey Vaults,Other catering premises,7841,5,,338883,0,,53.78293700000000,PI/000003495,256,info@selby.gov.uk,Selby,http://www.selby.gov.uk,-1.06853400000000,YO8 4PY,2014-04-09,fhrs_4_en-GB,4,,FHRS,10
390924,Amber House,Mill Lane,Camblesforth,Selby,Acorn Montessori Nursery,Hospitals/Childcare/Caring Premises,5,5,,638195,5,,53.72531400000000,PI/000007379,256,info@selby.gov.uk,Selby,http://www.selby.gov.uk,-1.02015600000000,YO8 8HW,2014-07-24,fhrs_5_en-GB,5,,FHRS,5
390925,1 The Crescent,Selby,North Yorkshire,,Albion Vaults,Other catering premises,7841,10,,450081,0,,53.78384300000000,PI/000003059,256,info@selby.gov.uk,Selby,http://www.selby.gov.uk,-1.06591800000000,YO8 4PU,2014-03-17,fhrs_2_en-GB,2,,FHRS,15
390926,41 Denison Road,Selby,North Yorkshire,,Alcotraz,Retailers - other,4613,10,,555036,5,,53.77894900000000,PI/000004910,256,info@selby.gov.uk,Selby,http://www.selby.gov.uk,-1.05282400000000,YO8 8AN,2013-05-30,fhrs_3_en-GB,3,,FHRS,10
390927,Three Lakes Retail Park,Bawtry Road,Selby,,Aldi Stores Ltd,Retailers - other,4613,0,,638182,0,,53.76988100000000,PI/000005849,256,info@selby.gov.uk,Selby,http://www.selby.gov.uk,-1.06551500000000,YO8 8NB,2014-03-31,fhrs_5_en-GB,5,,FHRS,0
390928,Unit 14,Market Cross,Selby,North Yorkshire,Alliance Pharmacy,Retailers - other,4613,,,450089,,,53.78331200000000,PI/000005938,256,info@selby.gov.uk,Selby,http://www.selby.gov.uk,-1.06939000000000,YO8 4JS,2012-08-31,fhrs_exempt_en-GB,Exempt,,FHRS,
390929,Oxmoor Grange Farm,Oxmoor Lane,Biggin,Leeds,Alpaca Cream Tea's,Restaurant/Cafe/Canteen,1,10,,583996,5,,53.80675600000000,PI/000027363,256,info@selby.gov.uk,Selby,http://www.selby.gov.uk,-1.17398500000000,LS25 6HJ,2013-09-04,fhrs_4_en-GB,4,,FHRS,0
390930,Bridge Street,Tadcaster West,North Yorkshire,,Angel & White Horse,Other catering premises,7841,0,,298756,0,,53.88422400000000,PI/000015309,256,info@selby.gov.uk,Selby,http://www.selby.gov.uk,-1.26075800000000,LS24 9AW,2013-07-22,fhrs_5_en-GB,5,,FHRS,5
390931,Stable Lodge,Main Street,Great Heck,Goole,Anytime Cakes,Other catering premises,7841,5,,547939,5,,53.68230300000000,PI/000024438,256,info@selby.gov.uk,Selby,http://www.selby.gov.uk,-1.10993900000000,DN14 0BQ,2013-05-07,fhrs_5_en-GB,5,,FHRS,0
390932,Main Street,Appleton Roebuck,York,,Appleton Roebuck School,School/college/university,7845,10,,478919,10,,53.87426100000000,PI/000016903,256,info@selby.gov.uk,Selby,http://www.selby.gov.uk,-1.15770500000000,YO23 7DN,2014-05-13,fhrs_3_en-GB,3,,FHRS,10
390933,Scott Road Pharmacy,Scott Road,Selby,North Yorkshire,Arc Pharmacy,Retailers - other,4613,,,298696,,,53.78514400000000,PI/000003966,256,info@selby.gov.uk,Selby,http://www.selby.gov.uk,-1.07489000000000,YO8 4BL,2012-03-09,fhrs_exempt_en-GB,Exempt,,FHRS,
390934,18a Finkle Street,Selby,North Yorkshire,,Archway Diner,Takeaway/sandwich shop,7844,10,,580829,0,,53.90524700000000,PI/000033047,256,info@selby.gov.uk,Selby,http://www.selby.gov.uk,-1.36451400000000,LS23 6PL,2013-08-29,fhrs_4_en-GB,4,,FHRS,0
390935,London Road,Barkston Ash,Tadcaster,,Ash Tree Inn,Other catering premises,7841,5,,450101,10,,53.81728700000000,PI/000014851,256,info@selby.gov.uk,Selby,http://www.selby.gov.uk,-1.25885300000000,LS24 9PP,2014-02-06,fhrs_3_en-GB,3,,FHRS,10
390936,Rose Avenue,Sherburn In Elmet,Leeds,North Yorkshire,Athelstan C P School,School/college/university,7845,0,,504360,0,,53.78874400000000,PI/000013404,256,info@selby.gov.uk,Selby,http://www.selby.gov.uk,-1.25214600000000,LS25 6AY,2015-01-15,fhrs_5_en-GB,5,,FHRS,5
390937,Unit D,Bawtry Road,Selby,North Yorkshire,B&M Homestores,Retailers - other,4613,0,,442236,5,,53.76988100000000,PI/000025807,256,info@selby.gov.uk,Selby,http://www.selby.gov.uk,-1.06551500000000,YO8 8NB,2013-03-08,fhrs_5_en-GB,5,,FHRS,5
390938,33 Bridge Close,Church Fenton,Tadcaster,North Yorkshire,Bamforths,Other catering premises,7841,5,,576570,0,,53.82542100000000,PI/000018276,256,info@selby.gov.uk,Selby,http://www.selby.gov.uk,-1.22752000000000,LS24 9GZ,2013-07-25,fhrs_5_en-GB,5,,FHRS,0
390939,London Road,Barkston Ash,Tadcaster,,Barkston Ash R C School,School/college/university,7845,0,,531165,0,,53.81989800000000,PI/000014852,256,info@selby.gov.uk,Selby,http://www.selby.gov.uk,-1.25812300000000,LS24 9PS,2013-04-02,fhrs_5_en-GB,5,,FHRS,5
390940,Church Street,Barkston Ash,Tadcaster,,Barkston Ash Village Hall,Other catering premises,7841,5,,638261,5,,,PI/000014833,256,info@selby.gov.uk,Selby,http://www.selby.gov.uk,,,2014-11-05,fhrs_5_en-GB,5,,FHRS,5
390941,Barlby Road,Barlby,Selby,North Yorkshire,Barlby Bridge CP School,School/college/university,7845,0,,459893,5,,53.78633800000000,PI/000001281,256,info@selby.gov.uk,Selby,http://www.selby.gov.uk,-1.06202300000000,YO8 5AA,2014-04-29,fhrs_5_en-GB,5,,FHRS,0
390942,Hill Top,Barlby,Selby,North Yorkshire,Barlby C P School,School/college/university,7845,0,,384843,0,,53.79780300000000,PI/000001746,256,info@selby.gov.uk,Selby,http://www.selby.gov.uk,-1.04442900000000,YO8 5JQ,2013-10-21,fhrs_5_en-GB,5,,FHRS,5
390943,York Road,Barlby,Selby,North Yorkshire,Barlby High School,School/college/university,7845,0,,384844,0,,53.78157700000000,PI/000001950,256,info@selby.gov.uk,Selby,http://www.selby.gov.uk,-1.01086500000000,YO8 7JP,2013-10-21,fhrs_5_en-GB,5,,FHRS,5
390944,Barlby House,York Road,Barlby,Selby,Barlby House Day Nursery,Hospitals/Childcare/Caring Premises,5,5,,298675,5,,53.80330700000000,PI/000001952,256,info@selby.gov.uk,Selby,http://www.selby.gov.uk,-1.03923200000000,YO8 5JP,2014-12-18,fhrs_5_en-GB,5,,FHRS,0
390945,67 Sycamore Road,Barlby,Selby,North Yorkshire,Barlby Village Store,Retailers - other,4613,5,,450078,5,,53.80237800000000,PI/000001891,256,info@selby.gov.uk,Selby,http://www.selby.gov.uk,-1.03658100000000,YO8 5XD,2014-01-06,fhrs_5_en-GB,5,,FHRS,0
390946,Main Road,Barlow,Selby,,Barlow C E P School,School/college/university,7845,0,,298711,0,,53.75134100000000,PI/000007214,256,info@selby.gov.uk,Selby,http://www.selby.gov.uk,-1.02640500000000,YO8 8ES,2014-02-25,fhrs_5_en-GB,5,,FHRS,0
390947,Barwic Parade CP School,Barwic Parade,Selby,North Yorkshire,Barwick Parade CP School,School/college/university,7845,0,,454704,0,,53.77732300000000,PI/000004789,256,info@selby.gov.uk,Selby,http://www.selby.gov.uk,-1.05753500000000,YO8 8DJ,2014-05-13,fhrs_5_en-GB,5,,FHRS,5
390948,Commercial Street,Tadcaster,North Yorkshire,,Bay Horse Hotel,Other catering premises,7841,10,,638280,5,,53.88583200000000,PI/000016263,256,info@selby.gov.uk,Selby,http://www.selby.gov.uk,-1.25913200000000,LS24 8AB,2014-03-03,fhrs_3_en-GB,3,,FHRS,10
390949,57 Micklegate,Selby,North Yorkshire,,Bay Horse Inn,Pub/bar/nightclub,7843,10,,442215,5,,53.78536000000000,PI/000003561,256,info@selby.gov.uk,Selby,http://www.selby.gov.uk,-1.06807000000000,YO8 4EA,2014-09-05,fhrs_3_en-GB,3,,FHRS,10
390950,Main Street,Great Heck,Goole,,Bay Horse Inn,Other catering premises,7841,10,,459900,10,,,PI/000010764,256,info@selby.gov.uk,Selby,http://www.selby.gov.uk,,DN14 OBQ,2014-07-16,fhrs_3_en-GB,3,,FHRS,5
390951,York Road,Barlby,Selby,North Yorkshire,Bay Horse Inn,Pub/bar/nightclub,7843,5,,298676,0,,53.80019300000000,PI/000001955,256,info@selby.gov.uk,Selby,http://www.selby.gov.uk,-1.04094300000000,YO8 5JH,2012-01-12,fhrs_4_en-GB,4,,FHRS,10
390952,Main Street,Beal,Goole,,Beal Village Hall,Other catering premises,7841,5,,638230,5,,,PI/000011765,256,info@selby.gov.uk,Selby,http://www.selby.gov.uk,,,2014-11-05,fhrs_5_en-GB,5,,FHRS,5
390953,Unit 2,Aviation Road,Sherburn In Elmet,,Bean In,Takeaway/sandwich shop,7844,0,,531172,5,,53.79338900000000,PI/000032683,256,info@selby.gov.uk,Selby,http://www.selby.gov.uk,-1.22777500000000,LS25 6NB,2014-09-10,fhrs_5_en-GB,5,,FHRS,5
390954,"Layby, Loftsome Bridge",Brackenholme,Hemingbrough,Selby,Belly Busters,Mobile caterer,7846,20,,434180,10,,,PI/000002421,256,info@selby.gov.uk,Selby,http://www.selby.gov.uk,,,2014-01-21,fhrs_1_en-GB,1,,FHRS,10
390955,30 Field Lane,Thorpe Willoughby,Selby,,Best One Convenience Store,Retailers - other,4613,5,,520632,10,,53.76766800000000,PI/000032329,256,info@selby.gov.uk,Selby,http://www.selby.gov.uk,-1.12729700000000,YO8 9FL,2014-10-03,fhrs_3_en-GB,3,,FHRS,10
390956,28 Denison Road,Selby,North Yorkshire,,Betta Butties,Retailers - other,4613,10,,384845,10,,53.78012800000000,PI/000004893,256,info@selby.gov.uk,Selby,http://www.selby.gov.uk,-1.05870100000000,YO8 8BZ,2013-10-23,fhrs_2_en-GB,2,,FHRS,15
390957,A19 Caravan Storage,Hazel Old Lane,Hensall,Goole,Big Sizzle,Mobile caterer,7846,5,,430338,5,,53.70033200000000,PI/000029194,256,info@selby.gov.uk,Selby,http://www.selby.gov.uk,-1.12547900000000,DN14 0QA,2012-07-10,fhrs_5_en-GB,5,,FHRS,0
390958,FuelForce Limited,A64 Eastbound,Bilbrough,York,Bilbrough Filling Station,Retailers - other,4613,10,,638288,10,,53.90680900000000,PI/000017124,256,info@selby.gov.uk,Selby,http://www.selby.gov.uk,-1.18542400000000,YO23 3PP,2014-12-08,fhrs_4_en-GB,4,,FHRS,0
390959,Church Hill,Wistow,Selby,North Yorkshire,Black Swan Inn,Pub/bar/nightclub,7843,5,,434185,10,,53.81364700000000,PI/000009584,256,info@selby.gov.uk,Selby,http://www.selby.gov.uk,-1.10231500000000,YO8 3UU,2013-11-14,fhrs_4_en-GB,4,,FHRS,5
390960,Oxmoor Lane,Biggin,Leeds,North Yorkshire,Blacksmiths Arms,Pub/bar/nightclub,7843,5,,434195,10,,53.80675600000000,PI/000024078,256,info@selby.gov.uk,Selby,http://www.selby.gov.uk,-1.17398500000000,LS25 6HJ,2013-11-26,fhrs_3_en-GB,3,,FHRS,10
390961,Cornelius Causeway,North Duffield,Selby,North Yorkshire,Blackwood Hall,Hotel/bed & breakfast/guest house,7842,10,,298665,10,,53.82432900000000,PI/000000683,256,info@selby.gov.uk,Selby,http://www.selby.gov.uk,-0.98439400000000,YO8 5DD,2014-03-27,fhrs_4_en-GB,4,,FHRS,0
390962,Northfield Lane,Womersley,Doncaster,South Yorkshire,Blue Lagoon Cafe,Restaurant/Cafe/Canteen,1,0,,298723,0,,53.67560900000000,PI/000010442,256,info@selby.gov.uk,Selby,http://www.selby.gov.uk,-1.21018900000000,DN6 9BB,2013-07-29,fhrs_5_en-GB,5,,FHRS,0
390963,47 Micklegate,Selby,North Yorkshire,,Bodibitz,Pub/bar/nightclub,7843,,,450085,,,53.78536000000000,PI/000003552,256,info@selby.gov.uk,Selby,http://www.selby.gov.uk,-1.06807000000000,YO8 4EA,2012-08-31,fhrs_exempt_en-GB,Exempt,,FHRS,
390964,Kenmere,Ings Lane,Beal,Goole,Bon Apetit,Other catering premises,7841,5,,495694,0,,53.72237300000000,PI/000011752,256,info@selby.gov.uk,Selby,http://www.selby.gov.uk,-1.18974900000000,DN14 0SJ,2013-01-14,fhrs_5_en-GB,5,,FHRS,0
390965,Unit 20,Selby Iron Works,Ousegate,Selby,Boo Boo's Day Nursery,Hospitals/Childcare/Caring Premises,5,10,,700103,5,,53.78382400000000,PI/000034084,256,info@selby.gov.uk,Selby,http://www.selby.gov.uk,-1.06346000000000,YO8 4NN,2014-09-04,fhrs_4_en-GB,4,,FHRS,5
390966,Main Street,Barkston Ash,Tadcaster,,Boot & Shoe Inn,Other catering premises,7841,10,,450102,15,,53.81840600000000,PI/000014863,256,info@selby.gov.uk,Selby,http://www.selby.gov.uk,-1.25666100000000,LS24 9PR,2014-02-13,fhrs_2_en-GB,2,,FHRS,15
390967,Unit 3A,Blackwood Hall Business Park,Cornelius Causeway,North Duffield,Bouncing Hogs n Bars,Other catering premises,7841,0,,610544,0,,53.82432900000000,PI/000033480,256,info@selby.gov.uk,Selby,http://www.selby.gov.uk,-0.98439400000000,YO8 5DD,2014-06-16,fhrs_5_en-GB,5,,FHRS,0
390968,Brayton Lane,Brayton,Selby,North Yorkshire,Brayton C of E Primary School,School/college/university,7845,0,,478913,5,,53.76876600000000,PI/000006327,256,info@selby.gov.uk,Selby,http://www.selby.gov.uk,-1.08890400000000,YO8 9EG,2014-05-23,fhrs_4_en-GB,4,,FHRS,10
390969,Brayton College,Doncaster Road,Brayton,,Brayton Headstart Playgroup,Other catering premises,7841,,,423612,,,53.77428200000000,PI/000020427,256,info@selby.gov.uk,Selby,http://www.selby.gov.uk,-1.08379300000000,YO8 9QS,2012-03-16,fhrs_exempt_en-GB,Exempt,,FHRS,
390970,Brayton College,Doncaster Road,Brayton,Selby,Brayton High School,School/college/university,7845,0,,450090,0,,53.77428200000000,PI/000006379,256,info@selby.gov.uk,Selby,http://www.selby.gov.uk,-1.08379300000000,YO8 9QS,2014-03-25,fhrs_5_en-GB,5,,FHRS,5
390971,Brayton Lane,Brayton,Selby,North Yorkshire,Brayton Junior School,School/college/university,7845,0,,478914,0,,53.76876600000000,PI/000006330,256,info@selby.gov.uk,Selby,http://www.selby.gov.uk,-1.08890400000000,YO8 9EG,2014-05-23,fhrs_5_en-GB,5,,FHRS,5
390972,6 Barff Lane,Brayton,Selby,North Yorkshire,Brayton News,Retailers - other,4613,10,,442219,0,,53.76749300000000,PI/000006294,256,info@selby.gov.uk,Selby,http://www.selby.gov.uk,-1.09280100000000,YO8 9ER,2012-08-13,fhrs_4_en-GB,4,,FHRS,0
390973,21 Bridge Street,Tadcaster West,North Yorkshire,,Bridge Street News,Retailers - other,4613,10,,442234,5,,53.88422400000000,PI/000015291,256,info@selby.gov.uk,Selby,http://www.selby.gov.uk,-1.26075800000000,LS24 9AW,2014-09-02,fhrs_3_en-GB,3,,FHRS,10
390974,38 Ousegate,Selby,North Yorkshire,,Bridge View Tearoom,Other catering premises,7841,5,,578945,5,,53.78482900000000,PI/000033163,256,info@selby.gov.uk,Selby,http://www.selby.gov.uk,-1.06565400000000,YO8 4NH,2013-08-12,fhrs_5_en-GB,5,,FHRS,5
390975,Selby College,Abbots Road,Selby,,Bright Start Nursery,Hospitals/Childcare/Caring Premises,5,5,,430330,10,,,PI/000004775,256,info@selby.gov.uk,Selby,http://www.selby.gov.uk,,Y08 8AT,2014-06-13,fhrs_4_en-GB,4,,FHRS,5
390976,Commercial Street,Tadcaster,North Yorkshire,,Britannia Inn,Other catering premises,7841,5,,355594,0,,53.88593600000000,PI/000016265,256,info@selby.gov.uk,Selby,http://www.selby.gov.uk,-1.25856800000000,LS24 8AA,2013-11-12,fhrs_4_en-GB,4,,FHRS,10
390977,Fenton Lane,Sherburn In Elmet,Leeds,North Yorkshire,British Gypsum Limited,Restaurant/Cafe/Canteen,1,5,,406140,10,,53.80151400000000,PI/000013573,256,info@selby.gov.uk,Selby,http://www.selby.gov.uk,-1.22906800000000,LS25 6EZ,2014-02-20,fhrs_4_en-GB,4,,FHRS,0
390978,3 Brook Street,Selby,North Yorkshire,,Brook Street Deli,Retailers - other,4613,5,,355586,0,,53.78177800000000,PI/000002936,256,info@selby.gov.uk,Selby,http://www.selby.gov.uk,-1.07443300000000,YO8 4AL,2013-10-14,fhrs_4_en-GB,4,,FHRS,10
390979,Low Street,Brotherton,Knottingley,,Brotherton & Byram C P School,School/college/university,7845,0,,406137,5,,53.72358900000000,PI/000011280,256,info@selby.gov.uk,Selby,http://www.selby.gov.uk,-1.26982100000000,WF11 9HQ,2013-10-24,fhrs_5_en-GB,5,,FHRS,0
390980,The Rowans,Hull Road,Osgodby,Selby,Buckles Catering Ltd,Other catering premises,7841,5,,423600,5,,53.79654800000000,PI/000001484,256,info@selby.gov.uk,Selby,http://www.selby.gov.uk,-1.03137100000000,YO8 5HG,2014-06-20,fhrs_5_en-GB,5,,FHRS,5
390981,105 Doncaster Road,Selby,North Yorkshire.,,Burger Co Express,Retailers - other,4613,5,,371858,5,,53.77612800000000,PI/000602419,256,info@selby.gov.uk,Selby,http://www.selby.gov.uk,-1.07839600000000,YO8 9BU,2012-04-27,fhrs_5_en-GB,5,,FHRS,5
390982,York Road,Steeton,Tadcaster,,Burger King,Other catering premises,7841,0,,683433,5,,53.90282000000000,PI/000034254,256,info@selby.gov.uk,Selby,http://www.selby.gov.uk,-1.19773800000000,LS24 8EQ,2014-07-10,fhrs_5_en-GB,5,,FHRS,0
390983,Burton Salmon C P School,Ledgate Lane,Burton Salmon,Leeds,Burton Salmon CP School,School/college/university,7845,5,,459903,5,,53.74139600000000,PI/000012077,256,info@selby.gov.uk,Selby,http://www.selby.gov.uk,-1.25829300000000,LS25 5JY,2014-05-15,fhrs_5_en-GB,5,,FHRS,0
390984,Unit 12,"Selby Business Park, Oakney Wood Road",Selby,North Yorkshire,Butterfly's Day Nursery Ltd,Hospitals/Childcare/Caring Premises,5,5,,430332,5,,53.76988100000000,PI/000006224,256,info@selby.gov.uk,Selby,http://www.selby.gov.uk,-1.06551500000000,YO8 8NB,2014-12-16,fhrs_4_en-GB,4,,FHRS,10
390985,West Acres,Byram,Knottingley,,Byram Fisheries,Other catering premises,7841,5,,298733,5,,53.72337900000000,PI/000011636,256,info@selby.gov.uk,Selby,http://www.selby.gov.uk,-1.26490000000000,WF11 9DJ,2014-12-01,fhrs_5_en-GB,5,,FHRS,5
390986,Kirkthorne Wood,Old Great North Road,Brotherton,,Byram Park Social Club & Institiute,Pub/bar/nightclub,7843,20,,555038,5,,53.72352600000000,PI/000011406,256,info@selby.gov.uk,Selby,http://www.selby.gov.uk,-1.25813800000000,WF11 9DX,2014-12-23,fhrs_1_en-GB,1,,FHRS,0
390987,West Acres,Byram,Knottingley,,Byram Park Stores,Retailers - other,4613,10,,454706,5,,53.72440900000000,PI/000011637,256,info@selby.gov.uk,Selby,http://www.selby.gov.uk,-1.25998600000000,WF11 9DZ,2014-09-29,fhrs_4_en-GB,4,,FHRS,5
390988,3 Sutton Lane,Byram,Knottingley,,Byram Post Office,Retailers - other,4613,5,,355596,10,,53.72397100000000,PI/000024374,256,info@selby.gov.uk,Selby,http://www.selby.gov.uk,-1.26326800000000,WF11 9DL,2013-09-25,fhrs_3_en-GB,3,,FHRS,10
390989,C Dawson Butchers,Brayton Lane,Brayton,Selby,C Dawson + Sons Ltd,Retailers - other,4613,5,,371852,5,,,PI/000006332,256,info@selby.gov.uk,Selby,http://www.selby.gov.uk,,Y08 9DZ,2014-04-14,fhrs_4_en-GB,4,,FHRS,10
390990,14-16 The Crescent,Selby,North Yorkshire,,C E Wetherell & Sons Ltd,Restaurant/Cafe/Canteen,1,0,,298684,10,,53.78348200000000,PI/000003065,256,info@selby.gov.uk,Selby,http://www.selby.gov.uk,-1.06803600000000,YO8 4PD,2014-09-05,fhrs_4_en-GB,4,,FHRS,5
390991,8 Gowthorpe,Selby,North Yorkshire,,Cable's Butchers,Retailers - other,4613,10,,555043,5,,,PI/000032909,256,info@selby.gov.uk,Selby,http://www.selby.gov.uk,,YO8 0ET,2014-12-09,fhrs_4_en-GB,4,,FHRS,5
390992,Dower House,Chapel Street,Hillam,Leeds,Cake My Day,Retailers - other,4613,0,,298736,0,,53.75351200000000,PI/000012195,256,info@selby.gov.uk,Selby,http://www.selby.gov.uk,-1.22705000000000,LS25 5HP,2012-02-28,fhrs_5_en-GB,5,,FHRS,0
390993,Rose Lea Cottage,The Square,Hillam,Leeds,Cake My Day,Retailers - other,4613,0,,298812,0,,53.75340200000000,PI/000031290,256,info@selby.gov.uk,Selby,http://www.selby.gov.uk,-1.23078300000000,LS25 5HE,2012-02-28,fhrs_5_en-GB,5,,FHRS,5
390994,Field View,Meadow Croft,Brayton,Selby,Cake The Moment,Other catering premises,7841,0,,338888,0,,53.76928000000000,PI/000006525,256,info@selby.gov.uk,Selby,http://www.selby.gov.uk,-1.08557100000000,YO8 9EJ,2012-04-04,fhrs_5_en-GB,5,,FHRS,0
390995,4 Pasture Avenue,Sherburn In Elmet,Leeds,North Yorkshire,Cakes 4 You,Other catering premises,7841,10,,459908,0,,53.79611700000000,PI/000014114,256,info@selby.gov.uk,Selby,http://www.selby.gov.uk,-1.24111500000000,LS25 6LG,2012-10-15,fhrs_4_en-GB,4,,FHRS,0
390996,,,,,Cakes by Beverley Anne,Other catering premises,7841,0,,648934,0,,,PI/000033364,256,info@selby.gov.uk,Selby,http://www.selby.gov.uk,,,2014-03-10,fhrs_5_en-GB,5,,FHRS,0
390997,16 Plantation Drive,Barlby,Selby,North Yorkshire,Cakes by French Critter,Other catering premises,7841,5,,547940,5,,53.80186700000000,PI/000027373,256,info@selby.gov.uk,Selby,http://www.selby.gov.uk,-1.03786800000000,YO85EX,2013-05-09,fhrs_5_en-GB,5,,FHRS,0
390998,Brigg Lane,Camblesforth,Selby,North Yorkshire,Camblesforth Church,Pub/bar/nightclub,7843,,,355590,,,53.78356800000000,PI/000007274,256,info@selby.gov.uk,Selby,http://www.selby.gov.uk,-1.07100900000000,YO8 4HJ,2012-04-19,fhrs_exempt_en-GB,Exempt,,FHRS,
390999,Mill Lane,Camblesforth,Selby,,Camblesforth CP School,School/college/university,7845,0,,298712,0,,53.72531400000000,PI/000007380,256,info@selby.gov.uk,Selby,http://www.selby.gov.uk,-1.02015600000000,YO8 8HW,2014-01-07,fhrs_5_en-GB,5,,FHRS,0
391000,7 Croft Road,Camblesforth,Selby,North Yorkshire,Camblesforth Fisheries,Takeaway/sandwich shop,7844,5,,355599,0,,53.72693500000000,PI/000028082,256,info@selby.gov.uk,Selby,http://www.selby.gov.uk,-1.01617700000000,YO8 8JL,2013-09-04,fhrs_5_en-GB,5,,FHRS,5
391001,5 Croft Road,Camblesforth,Selby,North Yorkshire,Camblesforth Mini Market,Retailers - other,4613,0,,638194,5,,53.77073500000000,PI/000007309,256,info@selby.gov.uk,Selby,http://www.selby.gov.uk,-1.16546800000000,YO8 9JL,2014-02-25,fhrs_5_en-GB,5,,FHRS,0
391002,81 Brook Street,Selby,North Yorkshire,,Candy Convenience Store,Retailers - other,4613,0,,638167,0,,,PI/000002989,256,info@selby.gov.uk,Selby,http://www.selby.gov.uk,,,2014-10-07,fhrs_5_en-GB,5,,FHRS,5
391003,32 Barlby Road,Barlby,Selby,North Yorkshire,Canton Star,Other catering premises,7841,0,,423613,5,,53.78633800000000,PI/000021144,256,info@selby.gov.uk,Selby,http://www.selby.gov.uk,-1.06202300000000,YO8 5AA,2013-11-13,fhrs_5_en-GB,5,,FHRS,5
391004,4 Abbey Place,Selby,North Yorkshire,,Capri Restaurant,Other catering premises,7841,10,,298682,5,,53.78157700000000,PI/000002813,256,info@selby.gov.uk,Selby,http://www.selby.gov.uk,-1.01086500000000,YO8 0PF,2014-12-17,fhrs_4_en-GB,4,,FHRS,5
391005,16 Gowthorpe,Selby,North Yorkshire,,Card Factory,Retailers - other,4613,,,338902,,,53.78392500000000,PI/000031563,256,info@selby.gov.uk,Selby,http://www.selby.gov.uk,-1.07185100000000,YO8 4ET,2012-04-05,fhrs_exempt_en-GB,Exempt,,FHRS,
391006,Carentan House,Union Lane,Selby,North Yorkshire,Carentan House Residential Home,Hospitals/Childcare/Caring Premises,5,0,,459894,0,,,PI/000004002,256,info@selby.gov.uk,Selby,http://www.selby.gov.uk,,YO8 0AL,2014-04-29,fhrs_5_en-GB,5,,FHRS,5
391007,Station Road,Carlton,Goole,,Carlton Holy Family High School,School/college/university,7845,5,,450093,0,,53.71354800000000,PI/000008110,256,info@selby.gov.uk,Selby,http://www.selby.gov.uk,-1.01909600000000,DN14 9NS,2014-02-25,fhrs_5_en-GB,5,,FHRS,5
391008,Townend Avenue,Carlton,Goole,,Carlton in Snaith Primary School,School/college/university,7845,5,,450094,5,,53.71216600000000,PI/000008134,256,info@selby.gov.uk,Selby,http://www.selby.gov.uk,-1.01721900000000,DN14 9NR,2014-07-04,fhrs_4_en-GB,4,,FHRS,10
391009,High Street,Carlton,Goole,,Carlton Supermarket and Post Office,Retailers - other,4613,5,,442223,10,,53.70962000000000,PI/000007942,256,info@selby.gov.uk,Selby,http://www.selby.gov.uk,-1.02015600000000,DN14 9LY,2014-06-11,fhrs_4_en-GB,4,,FHRS,5
391010,7 Wistowgate,Cawood,Selby,North Yorkshire,Castle Inn,Other catering premises,7841,10,,550777,5,,,PI/000009484,256,info@selby.gov.uk,Selby,http://www.selby.gov.uk,,YO8 0SH,2014-10-30,fhrs_2_en-GB,2,,FHRS,15
391011,10 Finkle Street,Selby,North Yorkshire,,Castle Takeaway,Takeaway/sandwich shop,7844,0,,371850,5,,53.78453100000000,PI/000003144,256,info@selby.gov.uk,Selby,http://www.selby.gov.uk,-1.06884700000000,YO8 4DS,2013-10-21,fhrs_5_en-GB,5,,FHRS,5
391012,Cawood CEP School,Broad Lane,Cawood,Selby,Cawood C E Primary School,School/college/university,7845,5,,298719,0,,53.82953100000000,PI/000009233,256,info@selby.gov.uk,Selby,http://www.selby.gov.uk,-1.12810800000000,YO8 3SQ,2015-01-29,fhrs_5_en-GB,5,,FHRS,5
391013,Millfield Road,Chapel Haddlesey,Selby,North Yorkshire,Chapel Haddlesey Primary School,School/college/university,7845,0,,298717,0,,,PI/000008254,256,info@selby.gov.uk,Selby,http://www.selby.gov.uk,,YO8 8QS,2014-02-25,fhrs_5_en-GB,5,,FHRS,5
391014,9 St Leonards Avenue,Osgodby,Selby,North Yorkshire,Cherished Cake Creations,Other catering premises,7841,10,,547929,5,,,PI/000001526,256,info@selby.gov.uk,Selby,http://www.selby.gov.uk,,YO8 7RE,2013-04-30,fhrs_4_en-GB,4,,FHRS,5
391015,York Road,Cliffe,Selby,,Cherry Tree Stores,Retailers - other,4613,0,,298677,5,,53.78093600000000,PI/000002321,256,info@selby.gov.uk,Selby,http://www.selby.gov.uk,-0.99646000000000,YO8 6NN,2015-02-09,fhrs_5_en-GB,5,,FHRS,0
391016,London Road,South Milford,Leeds,North Yorkshire,China Palace Restaurant,Other catering premises,7841,5,,442228,5,,53.77344200000000,PI/000012991,256,info@selby.gov.uk,Selby,http://www.selby.gov.uk,-1.24867000000000,LS25 5DP,2014-02-25,fhrs_5_en-GB,5,,FHRS,5
391017,"Unit 23, 1st Floor",Market Cross,Selby,North Yorkshire,China Palace Restaurant,Other catering premises,7841,0,,355588,5,,54.13346481323242,PI/000005944,256,info@selby.gov.uk,Selby,http://www.selby.gov.uk,-1.31587803363800,YO8 4JS,2013-11-28,fhrs_5_en-GB,5,,FHRS,5
391018,Station Road,Selby,North Yorkshire,,Choo Chews Cafe,Restaurant/Cafe/Canteen,1,5,,671485,5,,53.78337400000000,PI/000034060,256,info@selby.gov.uk,Selby,http://www.selby.gov.uk,-1.06339400000000,YO8 4NW,2014-05-12,fhrs_5_en-GB,5,,FHRS,0
391019,Station Road,Church Fenton,Tadcaster,,Church Fenton Post Office,Retailers - other,4613,0,,638254,5,,53.82774500000000,PI/000014542,256,info@selby.gov.uk,Selby,http://www.selby.gov.uk,-1.21579400000000,LS24 9RH,2015-01-26,fhrs_5_en-GB,5,,FHRS,5
391020,3 Church Hill,Sherburn In Elmet,Leeds,North Yorkshire,Church Hill Guesthouse,Hotel/bed & breakfast/guest house,7842,5,,442229,0,,53.79477000000000,PI/000013483,256,info@selby.gov.uk,Selby,http://www.selby.gov.uk,-1.26016100000000,LS25 6AX,2012-08-24,fhrs_5_en-GB,5,,FHRS,0
391021,1 Market Cross,Selby,North Yorkshire,,CJ'S Cafe,Restaurant/Cafe/Canteen,1,5,,406141,5,,,PI/000025053,256,info@selby.gov.uk,Selby,http://www.selby.gov.uk,,YO8 0JS,2014-04-08,fhrs_5_en-GB,5,,FHRS,5
391022,30 Abbots Mews,Selby,North Yorkshire,,Claires Cakes,Other catering premises,7841,5,,547946,5,,53.77249200000000,PI/000032492,256,info@selby.gov.uk,Selby,http://www.selby.gov.uk,-1.06149700000000,YO8 8RS,2013-04-30,fhrs_5_en-GB,5,,FHRS,0
391023,Main Street,Cliffe,Selby,North Yorkshire,Cliffe C P School,School/college/university,7845,5,,406131,5,,53.77849500000000,PI/000002257,256,info@selby.gov.uk,Selby,http://www.selby.gov.uk,-0.99700400000000,YO8 6NL,2014-05-19,fhrs_5_en-GB,5,,FHRS,5
391024,16 Commercial Street,Tadcaster,North Yorkshire,,Coach & Horses,Other catering premises,7841,5,,355600,5,,53.88593600000000,PI/000029386,256,info@selby.gov.uk,Selby,http://www.selby.gov.uk,-1.25856800000000,LS24 8AA,2014-09-02,fhrs_4_en-GB,4,,FHRS,10
391025,The Cottage,Church Street,Barkston Ash,Tadcaster,Coffee Galore,Mobile caterer,7846,0,,595192,0,,53.81907700000000,PI/000014841,256,info@selby.gov.uk,Selby,http://www.selby.gov.uk,-1.25473500000000,LS24 9PJ,2013-10-18,fhrs_5_en-GB,5,,FHRS,0
391026,Kelcbar Close,Tadcaster West,North Yorkshire,,Community Centre,Other catering premises,7841,5,,638269,5,,,PI/000015592,256,info@selby.gov.uk,Selby,http://www.selby.gov.uk,,,2014-02-12,fhrs_5_en-GB,5,,FHRS,5
391027,31C Finkle Street,Selby,North Yorkshire,,Compass,Other catering premises,7841,10,,580830,10,,,PI/000033070,256,info@selby.gov.uk,Selby,http://www.selby.gov.uk,,YO8 0DS,2013-08-21,fhrs_3_en-GB,3,,FHRS,5
391028,Selby Road,Camblesforth,Selby,North Yorkshire,Comus Inn,Pub/bar/nightclub,7843,10,,688843,0,,53.72533600000000,PI/000007465,256,info@selby.gov.uk,Selby,http://www.selby.gov.uk,-1.02182200000000,YO8 8HR,2014-07-28,fhrs_4_en-GB,4,,FHRS,5
391029,58 Flaxley Road,Selby,North Yorkshire,,Co-op,Retailers - other,4613,0,,491847,0,,53.78594900000000,PI/000003252,256,info@selby.gov.uk,Selby,http://www.selby.gov.uk,-1.07672400000000,YO8 4BW,2015-01-13,fhrs_4_en-GB,4,,FHRS,10
391030,22 - 30 Finkle Hill,Sherburn In Elmet,Leeds,North Yorkshire,Co-Operative Group Ltd,Retailers - supermarkets/hypermarkets,7840,0,,298744,0,,53.79896300000000,PI/000013598,256,info@selby.gov.uk,Selby,http://www.selby.gov.uk,-1.25213100000000,LS25 6EA,2013-04-08,fhrs_5_en-GB,5,,FHRS,5
391031,Unit 6,Market Cross,Selby,North Yorkshire,Cooplands,Retailers - other,4613,0,,298707,0,,,PI/000005950,256,info@selby.gov.uk,Selby,http://www.selby.gov.uk,,YO8 OJS,2013-04-02,fhrs_5_en-GB,5,,FHRS,5
391032,17 Commercial Street,Tadcaster,North Yorkshire,,Costcutter,Retailers - supermarkets/hypermarkets,7840,10,,450103,5,,53.88593600000000,PI/000016249,256,info@selby.gov.uk,Selby,http://www.selby.gov.uk,-1.25856800000000,LS24 8AA,2014-03-27,fhrs_2_en-GB,2,,FHRS,15
391033,60 Stutton Road,Tadcaster West,North Yorkshire,,Costcutter,Retailers - other,4613,5,,298764,10,,53.87778400000000,PI/000015812,256,info@selby.gov.uk,Selby,http://www.selby.gov.uk,-1.27331400000000,LS24 9LN,2014-05-08,fhrs_3_en-GB,3,,FHRS,10
391034,North Duffield Post Office,Main Street,North Duffield,Selby,Costcutter,Retailers - other,4613,10,,298664,5,,53.78157700000000,PI/000000567,256,info@selby.gov.uk,Selby,http://www.selby.gov.uk,-1.01086500000000,YO8 7RG,2013-12-10,fhrs_4_en-GB,4,,FHRS,5
391035,40A Kirkgate,Tadcaster West,North Yorkshire,,Cottage of India,Takeaway/sandwich shop,7844,10,,298761,5,,53.88462800000000,PI/000015620,256,info@selby.gov.uk,Selby,http://www.selby.gov.uk,-1.26215100000000,LS24 9AD,2013-07-22,fhrs_3_en-GB,3,,FHRS,10
391036,Cranswick Gourmet Bacon Ltd,Seafox Court,Sherburn in Elmet,Leeds,Cranswick County Foods,Manufacturers/packers,7839,,,520630,,,53.79285500000000,PI/000020809,256,info@selby.gov.uk,Selby,http://www.selby.gov.uk,-1.22162100000000,LS25 6PL,2014-02-18,fhrs_exempt_en-GB,Exempt,,FHRS,
391037,53 Micklegate,Selby,North Yorkshire,,Creative Icing,Retailers - other,4613,10,,610538,5,,53.78536000000000,PI/000003559,256,info@selby.gov.uk,Selby,http://www.selby.gov.uk,-1.06807000000000,YO8 4EA,2013-11-18,fhrs_3_en-GB,3,,FHRS,10
391038,Market Place,Selby,North Yorkshire,,Cricketers Arms,Other catering premises,7841,5,,478912,10,,53.78365400000000,PI/000003536,256,info@selby.gov.uk,Selby,http://www.selby.gov.uk,-1.06933700000000,YO8 4PB,2014-05-06,fhrs_3_en-GB,3,,FHRS,10
391039,Wakefield Road,Saxton,Tadcaster,,Crooked Billet,Pub/bar/nightclub,7843,10,,464786,10,,53.82455200000000,PI/000027734,256,info@selby.gov.uk,Selby,http://www.selby.gov.uk,-1.29659800000000,LS24 9QN,2014-04-15,fhrs_2_en-GB,2,,FHRS,15
391040,Cawood Road,Stillingfleet,York,,Cross Keys,Other catering premises,7841,10,,298659,5,,53.85892800000000,PI/000000013,256,info@selby.gov.uk,Selby,http://www.selby.gov.uk,-1.09850300000000,YO19 6SB,2013-06-12,fhrs_3_en-GB,3,,FHRS,10
391041,Doncaster Road,Whitley,Goole,,Crown Garden Centre,Restaurant/Cafe/Canteen,1,5,,648932,5,,,PI/000010537,256,info@selby.gov.uk,Selby,http://www.selby.gov.uk,,DN14 OJW,2014-04-09,fhrs_5_en-GB,5,,FHRS,5
391042,Bolton Percy Village,Bolton Percy,York,,Crown Inn,Other catering premises,7841,0,,298774,5,,53.86457500000000,PI/000016835,256,info@selby.gov.uk,Selby,http://www.selby.gov.uk,-1.19355800000000,YO23 7AG,2013-05-13,fhrs_5_en-GB,5,,FHRS,0
391043,Main Street,Hemingbrough,Selby,North Yorkshire,Crown Inn,Other catering premises,7841,10,,406132,5,,53.76879900000000,PI/000002594,256,info@selby.gov.uk,Selby,http://www.selby.gov.uk,-0.97918100000000,YO8 6QE,2014-06-27,fhrs_4_en-GB,4,,FHRS,5
391044,"Unit 1, Aysgarth Place",Hut Green,Eggborough,,Crumbs,Restaurant/Cafe/Canteen,1,0,,442240,5,,53.70588700000000,PI/000031555,256,info@selby.gov.uk,Selby,http://www.selby.gov.uk,-1.14802700000000,DN14 0LX,2014-06-19,fhrs_5_en-GB,5,,FHRS,0
391045,5 Wolsey Parade,Sherburn In Elmet,Leeds,North Yorkshire,Crustys,Retailers - other,4613,10,,298748,5,,53.79670100000000,PI/000014169,256,info@selby.gov.uk,Selby,http://www.selby.gov.uk,-1.25113900000000,LS25 6BQ,2014-10-13,fhrs_4_en-GB,4,,FHRS,5
391046,28 Low Street,South Milford,Leeds,,Cumin Lounge,Other catering premises,7841,5,,606677,10,,53.77756400000000,PI/000032805,256,info@selby.gov.uk,Selby,http://www.selby.gov.uk,-1.24814100000000,LS25 5AS,2013-10-29,fhrs_3_en-GB,3,,FHRS,10
391047,Highfield Cottage,Doncaster Road,Whitley,Goole,Cute N Creepy,Other catering premises,7841,5,,442237,5,,53.66178100000000,PI/000027869,256,info@selby.gov.uk,Selby,http://www.selby.gov.uk,-1.14299900000000,DN14 0JW,2012-08-14,fhrs_5_en-GB,5,,FHRS,5
391048,Barnsdale Bar,Kirk Smeaton,Pontefract,,D D Services,Retailers - other,4613,10,,570125,10,,53.62655500000000,PI/000032894,256,info@selby.gov.uk,Selby,http://www.selby.gov.uk,-1.23741500000000,WF8 3JF,2015-01-05,fhrs_3_en-GB,3,,FHRS,10
391049,Three Lakes Retail Park,Bawtry Road,Selby,,D W Sports Fitness,Restaurant/Cafe/Canteen,1,5,,606678,5,,,PI/000601487,256,info@selby.gov.uk,Selby,http://www.selby.gov.uk,,YO8 ONA,2013-10-30,fhrs_5_en-GB,5,,FHRS,5
391050,Kelfield Road,Riccall,Selby,,Dairymans Cottage,Hotel/bed & breakfast/guest house,7842,0,,709123,0,,53.83366500000000,PI/000034522,256,info@selby.gov.uk,Selby,http://www.selby.gov.uk,-1.06244000000000,YO19 6PG,2014-10-22,fhrs_5_en-GB,5,,FHRS,0
391051,67 Micklegate,Selby,North Yorkshire,,Delilah's,Restaurant/Cafe/Canteen,1,5,,688844,5,,,PI/000033996,256,info@selby.gov.uk,Selby,http://www.selby.gov.uk,,YO8 0EA,2014-07-24,fhrs_5_en-GB,5,,FHRS,5
391052,3 Denison Road,Selby,North Yorkshire,,Denison House Nursing Home,Hospitals/Childcare/Caring Premises,5,10,,298699,5,,53.77943800000000,PI/000004896,256,info@selby.gov.uk,Selby,http://www.selby.gov.uk,-1.05786700000000,YO8 8DA,2014-05-30,fhrs_3_en-GB,3,,FHRS,10
391053,52 Stutton Road,Tadcaster West,North Yorkshire,,Devaney's Fish & Chip Shop,Takeaway/sandwich shop,7844,0,,511177,0,,53.87584400000000,PI/000015803,256,info@selby.gov.uk,Selby,http://www.selby.gov.uk,-1.27196400000000,LS24 9HJ,2013-02-19,fhrs_5_en-GB,5,,FHRS,5
391054,10 Bridge Street,Tadcaster West,North Yorkshire,,Devine Meats,Retailers - other,4613,5,,423617,10,,53.88450300000000,PI/000029108,256,info@selby.gov.uk,Selby,http://www.selby.gov.uk,-1.26087500000000,LS24 9AL,2013-12-17,fhrs_4_en-GB,4,,FHRS,5
391055,Dovecote Park,Bankwood Road,Stapleton,Pontefract,Dine Contract Catering,Restaurant/Cafe/Canteen,1,10,,628262,10,,53.67078500000000,PI/000031787,256,info@selby.gov.uk,Selby,http://www.selby.gov.uk,-1.23428600000000,WF8 3DD,2014-01-20,fhrs_3_en-GB,3,,FHRS,10
391056,"Greecore Ltd, Canteen",Barlby Road,Barlby,Selby,Dine Limited,Restaurant/Cafe/Canteen,1,0,,434179,0,,53.79092200000000,PI/000001285,256,info@selby.gov.uk,Selby,http://www.selby.gov.uk,-1.04148800000000,YO8 5BJ,2014-01-07,fhrs_5_en-GB,5,,FHRS,5
391057,Wood Cottage,Little Heck,Heck,Goole,Dinky Donuts,Mobile caterer,7846,0,,638222,0,,,PI/000010712,256,info@selby.gov.uk,Selby,http://www.selby.gov.uk,,,2014-05-15,fhrs_5_en-GB,5,,FHRS,0
391058,Scarthingwell Golf Club,Scarthingwell,Saxton,Tadcaster,Dintingdale Restaurant,Other catering premises,7841,0,,298753,5,,53.82202800000000,PI/000014985,256,info@selby.gov.uk,Selby,http://www.selby.gov.uk,-1.25377200000000,LS24 9PG,2014-01-23,fhrs_4_en-GB,4,,FHRS,10
391059,67 Gowthorpe,Selby,North Yorkshire,,Dixie Chicken,Takeaway/sandwich shop,7844,5,,298689,0,,53.78357300000000,PI/000003429,256,info@selby.gov.uk,Selby,http://www.selby.gov.uk,-1.07173700000000,YO8 4HE,2013-10-14,fhrs_5_en-GB,5,,FHRS,5
391060,James Street,Selby,North Yorkshire,,Doubtfires Icecream,Mobile caterer,7846,0,,298690,0,,53.76966700000000,PI/000003496,256,info@selby.gov.uk,Selby,http://www.selby.gov.uk,-0.97662600000000,YO8 6QL,2013-06-28,fhrs_5_en-GB,5,,FHRS,5
391061,Park Street,Selby,North Yorkshire,,Doubtfires Icecream,Mobile caterer,7846,0,,298695,0,,53.78268300000000,PI/000003848,256,info@selby.gov.uk,Selby,http://www.selby.gov.uk,-1.06709700000000,YO8 4PW,2013-06-28,fhrs_4_en-GB,4,,FHRS,10
391062,North House,Bolton Percy Village,Bolton Percy,York,D'Oyly's Tearoom,Restaurant/Cafe/Canteen,1,5,,511178,10,,53.86658400000000,PI/000016836,256,info@selby.gov.uk,Selby,http://www.selby.gov.uk,-1.19292700000000,YO23 7AN,2014-08-29,fhrs_4_en-GB,4,,FHRS,5
391063,Castle Hill Lane,Drax,Selby,,Drax CP School,School/college/university,7845,0,,638196,0,,,PI/000007576,256,info@selby.gov.uk,Selby,http://www.selby.gov.uk,,,2015-01-26,fhrs_5_en-GB,5,,FHRS,0
391064,New Road,Drax,Selby,North Yorkshire,Drax Sports & Social Club,Pub/bar/nightclub,7843,5,,298778,0,,53.73059500000000,PI/000017770,256,info@selby.gov.uk,Selby,http://www.selby.gov.uk,-0.99468800000000,YO8 8PJ,2014-12-12,fhrs_5_en-GB,5,,FHRS,5
391065,1 Barwic Parade,Selby,North Yorkshire,,East Common Post Office,Retailers - other,4613,0,,442217,5,,53.77626700000000,PI/000004783,256,info@selby.gov.uk,Selby,http://www.selby.gov.uk,-1.05801400000000,YO8 8DL,2014-03-17,fhrs_5_en-GB,5,,FHRS,5
391066,15 Duffield Crescent,Sherburn In Elmet,Leeds,North Yorkshire,EAT,Retailers - other,4613,10,,442243,5,,53.79891000000000,PI/000031791,256,info@selby.gov.uk,Selby,http://www.selby.gov.uk,-1.24794200000000,LS25 6DG,2012-08-21,fhrs_4_en-GB,4,,FHRS,0
391067,Sports & Social Club,Eggborough Power Station,Selby Road,Eggborough,Eggborough Club,Pub/bar/nightclub,7843,5,,371853,5,,53.71344100000000,PI/000009936,256,info@selby.gov.uk,Selby,http://www.selby.gov.uk,-1.12982800000000,DN14 0BS,2014-05-20,fhrs_4_en-GB,4,,FHRS,10
391068,Weeland Road,Eggborough,Goole,,Eggborough Fisheries,Takeaway/sandwich shop,7844,5,,671483,5,,53.70600500000000,PI/000033845,256,info@selby.gov.uk,Selby,http://www.selby.gov.uk,-1.15070600000000,DN14 0RX,2014-05-13,fhrs_4_en-GB,4,,FHRS,10
391069,Selby Road,Eggborough,Goole,,Eggborough Village Stores,Retailers - other,4613,10,,638216,10,,53.70380700000000,PI/000009937,256,info@selby.gov.uk,Selby,http://www.selby.gov.uk,-1.15131000000000,DN14 0LP,2014-09-09,fhrs_3_en-GB,3,,FHRS,5
391070,12 Low Street,Sherburn In Elmet,Leeds,North Yorkshire,Elmete Social Club,Pub/bar/nightclub,7843,0,,504358,5,,53.79723300000000,PI/000013264,256,info@selby.gov.uk,Selby,http://www.selby.gov.uk,-1.25143300000000,LS25 6BG,2013-01-24,fhrs_5_en-GB,5,,FHRS,5
391071,9 Westfield Grove,Eggborough,Goole,,Emma's,Other catering premises,7841,5,,298722,0,,53.70485100000000,PI/000010042,256,info@selby.gov.uk,Selby,http://www.selby.gov.uk,-1.15525800000000,DN14 0TL,2012-02-02,fhrs_5_en-GB,5,,FHRS,0
391072,12B Finkle Hill,Sherburn In Elmet,Leeds,North Yorkshire,Enam Tandoori,Takeaway/sandwich shop,7844,5,,495696,10,,53.79896300000000,PI/000013588,256,info@selby.gov.uk,Selby,http://www.selby.gov.uk,-1.25213100000000,LS25 6EA,2014-07-16,fhrs_3_en-GB,3,,FHRS,10
391073,63 Main Street,Escrick,York,,Escrick & Deighton Club,Pub/bar/nightclub,7843,10,,555033,0,,53.87802800000000,PI/000000208,256,info@selby.gov.uk,Selby,http://www.selby.gov.uk,-1.04386400000000,YO19 6LQ,2013-06-04,fhrs_4_en-GB,4,,FHRS,5
391074,56 Main Street,Escrick,York,,Escrick C of E Primary School,School/college/university,7845,0,,423597,0,,53.91258800000000,PI/000000205,256,info@selby.gov.uk,Selby,http://www.selby.gov.uk,-1.03317100000000,YO19 6UN,2013-12-10,fhrs_5_en-GB,5,,FHRS,5
391075,45 Main Street,Escrick,York,,Escrick General Store,Retailers - other,4613,0,,504351,0,,53.87802800000000,PI/000000219,256,info@selby.gov.uk,Selby,http://www.selby.gov.uk,-1.04386400000000,YO19 6LQ,2013-01-24,fhrs_5_en-GB,5,,FHRS,0
391076,Main Street,Escrick,York,,Escrick Village Hall,Other catering premises,7841,5,,638146,5,,,PI/000000220,256,info@selby.gov.uk,Selby,http://www.selby.gov.uk,,,2014-04-25,fhrs_5_en-GB,5,,FHRS,5
391077,47 Gowthorpe,Selby,North Yorkshire,,European Food and Drink,Retailers - other,4613,5,,430337,5,,53.78357300000000,PI/000022892,256,info@selby.gov.uk,Selby,http://www.selby.gov.uk,-1.07173700000000,YO8 4HE,2012-07-16,fhrs_5_en-GB,5,,FHRS,5
391078,Great North Road,Fairburn,Knottingley,,Fairburn Community Centre,Other catering premises,7841,,,355591,,,53.74348900000000,PI/000011113,256,info@selby.gov.uk,Selby,http://www.selby.gov.uk,-1.28324400000000,WF11 9LA,2012-04-16,fhrs_exempt_en-GB,Exempt,,FHRS,
391079,Fairburn C P School,North Road,Fairburn,Knottingley,Fairburn CP School,School/college/university,7845,0,,298731,10,,53.74424600000000,PI/000011149,256,info@selby.gov.uk,Selby,http://www.selby.gov.uk,-1.28355000000000,WF11 9JY,2013-07-15,fhrs_4_en-GB,4,,FHRS,5
391080,Main Street,Church Fenton,Tadcaster,,Fenton Flyer,Pub/bar/nightclub,7843,10,,442231,5,,53.82631200000000,PI/000014453,256,info@selby.gov.uk,Selby,http://www.selby.gov.uk,-1.21659600000000,LS24 9RF,2014-01-17,fhrs_3_en-GB,3,,FHRS,10
391081,Ferry Lane,Thorganby,York,,Ferry Boat Inn,Other catering premises,7841,5,,338878,0,,53.87591700000000,PI/000000429,256,info@selby.gov.uk,Selby,http://www.selby.gov.uk,-0.94019000000000,YO19 6DD,2012-03-29,fhrs_5_en-GB,5,,FHRS,0
391082,Field Lane,Thorpe Willoughby,Selby,North Yorkshire,Field Lane Sports Centre,Other catering premises,7841,5,,450096,0,,53.76766800000000,PI/000008882,256,info@selby.gov.uk,Selby,http://www.selby.gov.uk,-1.12729700000000,YO8 9FL,2012-09-14,fhrs_5_en-GB,5,,FHRS,5
391083,Fieldside,Main Street,Great Heck,Goole,Fieldside Day Nursery,Hospitals/Childcare/Caring Premises,5,0,,298726,5,,,PI/000010747,256,info@selby.gov.uk,Selby,http://www.selby.gov.uk,,DN14 OBQ,2014-12-01,fhrs_5_en-GB,5,,FHRS,5
391084,"18 Firth Mews, Millgate",Selby,North Yorkshire,,Firth House,Hospitals/Childcare/Caring Premises,5,10,,298709,10,,53.78157700000000,PI/000006063,256,info@selby.gov.uk,Selby,http://www.selby.gov.uk,-1.01086500000000,YO8 0FZ,2014-06-14,fhrs_3_en-GB,3,,FHRS,5
391085,70 Flaxley Road,Selby,North Yorkshire,,Flaxley Road News,Retailers - other,4613,5,,638169,10,,,PI/000003259,256,info@selby.gov.uk,Selby,http://www.selby.gov.uk,,,2014-02-18,fhrs_3_en-GB,3,,FHRS,10
391086,33/35 Kirkgate,Sherburn In Elmet,Leeds,North Yorkshire,Foresters Arms,Pub/bar/nightclub,7843,10,,459906,0,,53.79727100000000,PI/000013652,256,info@selby.gov.uk,Selby,http://www.selby.gov.uk,-1.25460600000000,LS25 6BH,2012-10-29,fhrs_4_en-GB,4,,FHRS,10
391087,Dacre,Cocksford,Stutton,Tadcaster,Forget me not,Other catering premises,7841,10,,547948,0,,53.85315400000000,PI/000032878,256,info@selby.gov.uk,Selby,http://www.selby.gov.uk,-1.28474700000000,LS24 9NG,2013-05-10,fhrs_4_en-GB,4,,FHRS,0
391088,Leeds Road,Tadcaster West,North Yorkshire,,Fox & Hounds,Pub/bar/nightclub,7843,0,,638273,5,,53.88244100000000,PI/000015658,256,info@selby.gov.uk,Selby,http://www.selby.gov.uk,-1.26612900000000,LS24 9HB,2014-03-27,fhrs_4_en-GB,4,,FHRS,10
391089,27 Fox Lane,Thorpe Willoughby,Selby,,Fox Lane Stores,Retailers - other,4613,0,,539556,0,,53.77110100000000,PI/000008924,256,info@selby.gov.uk,Selby,http://www.selby.gov.uk,-1.12487400000000,YO8 9NA,2013-04-16,fhrs_5_en-GB,5,,FHRS,0
391090,Unit F,Three Lakes Retail Park Bawtry Road,Selby,North Yorkshire,Frankie & Benny's,Other catering premises,7841,0,,539559,0,,53.77286900000000,PI/000021675,256,info@selby.gov.uk,Selby,http://www.selby.gov.uk,-1.06493300000000,YO8 8LY,2013-04-08,fhrs_5_en-GB,5,,FHRS,0
391091,5 Finkle Street,Selby,North Yorkshire,,Fresh 4 You,Restaurant/Cafe/Canteen,1,0,,338881,5,,53.78456900000000,PI/000003171,256,info@selby.gov.uk,Selby,http://www.selby.gov.uk,-1.06919600000000,YO8 4DT,2014-01-29,fhrs_4_en-GB,4,,FHRS,10
391092,High Street,Carlton,Goole,,Frying Nemo,Takeaway/sandwich shop,7844,0,,384850,5,,53.70962000000000,PI/000007951,256,info@selby.gov.uk,Selby,http://www.selby.gov.uk,-1.02015600000000,DN14 9LY,2013-11-12,fhrs_5_en-GB,5,,FHRS,5
391093,55 Coupland Road,Selby,North Yorkshire,,Fungry,Mobile caterer,7846,5,,688845,5,,53.78818200000000,PI/000034264,256,info@selby.gov.uk,Selby,http://www.selby.gov.uk,-1.07137700000000,YO8 3GE,2014-07-29,fhrs_5_en-GB,5,,FHRS,5
391094,49 York Road,Tadcaster,North Yorkshire,,G E Ward & Sons,Retailers - other,4613,5,,338894,5,,53.88784800000000,PI/000016624,256,info@selby.gov.uk,Selby,http://www.selby.gov.uk,-1.25523200000000,LS24 8AE,2014-04-25,fhrs_4_en-GB,4,,FHRS,10
391095,White House,Hull Road,Cliffe,,G F Senior & Sons,Retailers - other,4613,5,,520628,5,,53.77672700000000,PI/000002241,256,info@selby.gov.uk,Selby,http://www.selby.gov.uk,-0.99402700000000,YO8 6NH,2014-09-11,fhrs_4_en-GB,4,,FHRS,10
391096,Birkin Fisheries,Birkin Lane,Birkin,Knottingley,Gatehouse Coffee Shop,Restaurant/Cafe/Canteen,1,5,,539563,10,,53.72178300000000,PI/000032709,256,info@selby.gov.uk,Selby,http://www.selby.gov.uk,-1.26110800000000,WF11 9DT,2014-09-29,fhrs_4_en-GB,4,,FHRS,5
391097,The Avenue,West Haddlesey,Selby,,George & Dragon,Pub/bar/nightclub,7843,5,,298795,0,,53.73292700000000,PI/000028070,256,info@selby.gov.uk,Selby,http://www.selby.gov.uk,-1.14470600000000,YO8 8QA,2013-08-13,fhrs_4_en-GB,4,,FHRS,10
391098,Doncaster Road,Whitley,Goole,,George & Dragon Inn,Other catering premises,7841,5,,547936,5,,,PI/000010544,256,info@selby.gov.uk,Selby,http://www.selby.gov.uk,,DN14 OHY,2014-12-01,fhrs_4_en-GB,4,,FHRS,10
391099,Spring Cottage,Main Street,Bilbrough,York,Get-A-Gateau,Other catering premises,7841,0,,726997,5,,,PI/000017097,256,info@selby.gov.uk,Selby,http://www.selby.gov.uk,,,2014-12-08,fhrs_5_en-GB,5,,FHRS,0
391100,Unit 2 Prospect House,Hut Green,Eggborough,Goole,Gilmers Quality Farm Butchers,Retailers - other,4613,5,,539557,10,,53.70588700000000,PI/000009877,256,info@selby.gov.uk,Selby,http://www.selby.gov.uk,-1.14802700000000,DN14 0LX,2014-10-21,fhrs_4_en-GB,4,,FHRS,5
391101,52 Flaxley Road,Selby,North Yorkshire,,Golden Dragon,Takeaway/sandwich shop,7844,10,,495698,10,,53.78594900000000,PI/000600049,256,info@selby.gov.uk,Selby,http://www.selby.gov.uk,-1.07672400000000,YO8 4BW,2014-01-16,fhrs_3_en-GB,3,,FHRS,10
391102,51 Micklegate,Selby,North Yorkshire,,Golden Skewer Kebabs,Takeaway/sandwich shop,7844,5,,298692,5,,53.78536000000000,PI/000003558,256,info@selby.gov.uk,Selby,http://www.selby.gov.uk,-1.06807000000000,YO8 4EA,2014-11-27,fhrs_5_en-GB,5,,FHRS,5
391103,Grange Cottage,Thorpe Lane,Cawood,,Grange Side Nurseries,Retailers - other,4613,10,,504354,0,,53.83176200000000,PI/000009437,256,info@selby.gov.uk,Selby,http://www.selby.gov.uk,-1.12716600000000,YO8 3SG,2013-01-23,fhrs_4_en-GB,4,,FHRS,0
391104,12D Finkle Hill,Sherburn In Elmet,Leeds,North Yorkshire,Great Wall,Takeaway/sandwich shop,7844,5,,620973,5,,53.79896300000000,PI/000033312,256,info@selby.gov.uk,Selby,http://www.selby.gov.uk,-1.25213100000000,LS25 6EA,2014-05-12,fhrs_4_en-GB,4,,FHRS,10
391105,Unit 18,Market Cross,Selby,North Yorkshire,Greggs,Retailers - other,4613,0,,531162,0,,,PI/000005940,256,info@selby.gov.uk,Selby,http://www.selby.gov.uk,,YO8 0JS,2013-04-02,fhrs_5_en-GB,5,,FHRS,5
391106,Main Street,Kelfield,York,,Grey Horse,Other catering premises,7841,0,,508663,0,,,PI/000000720,256,info@selby.gov.uk,Selby,http://www.selby.gov.uk,,YO4 6RG,2014-07-28,fhrs_4_en-GB,4,,FHRS,10
391107,The Greyhound,82 Main Street,Riccall,York,Greyhound,Pub/bar/nightclub,7843,0,,450077,5,,53.83459100000000,PI/000000977,256,info@selby.gov.uk,Selby,http://www.selby.gov.uk,-1.05792100000000,YO19 6TE,2014-02-18,fhrs_4_en-GB,4,,FHRS,10
391108,Gateforth Lane,Hambleton,Selby,North Yorkshire,Hambleton C E School,School/college/university,7845,0,,495687,0,,53.76919300000000,PI/000008572,256,info@selby.gov.uk,Selby,http://www.selby.gov.uk,-1.16097700000000,YO8 9HP,2014-07-10,fhrs_5_en-GB,5,,FHRS,5
391109,19-21 Station Road,Hambleton,Selby,,Hambleton Court Care Home,Hospitals/Childcare/Caring Premises,5,5,,406143,10,,53.77149700000000,PI/000601954,256,info@selby.gov.uk,Selby,http://www.selby.gov.uk,-1.16392000000000,YO8 9HS,2013-11-07,fhrs_4_en-GB,4,,FHRS,5
391110,131 Main Road,Hambleton,Selby,North Yorkshire,Hambleton Stores,Retailers - other,4613,0,,298796,0,,53.76999400000000,PI/000028137,256,info@selby.gov.uk,Selby,http://www.selby.gov.uk,-1.16885100000000,YO8 9JH,2013-04-08,fhrs_5_en-GB,5,,FHRS,0
391111,Fernbank Court,Brayton,Selby,North Yorkshire,Hanover Care,Hospitals/Childcare/Caring Premises,5,10,,539562,10,,53.77175900000000,PI/000032420,256,info@selby.gov.uk,Selby,http://www.selby.gov.uk,-1.09008400000000,YO8 9RU,2014-04-17,fhrs_3_en-GB,3,,FHRS,5
391112,4 North Field Way,Appleton Roebuck,York,,Happy Tiers Yorkshire,Other catering premises,7841,0,,606675,0,,53.87433400000000,PI/000021573,256,info@selby.gov.uk,Selby,http://www.selby.gov.uk,-1.15924000000000,YO23 7EA,2013-10-31,fhrs_5_en-GB,5,,FHRS,0
391113,11 Bridge Street,Tadcaster West,North Yorkshire,,Happy Wok,Takeaway/sandwich shop,7844,5,,434192,10,,53.88422400000000,PI/000015280,256,info@selby.gov.uk,Selby,http://www.selby.gov.uk,-1.26075800000000,LS24 9AW,2014-06-24,fhrs_3_en-GB,3,,FHRS,10
391114,8 Silver Street,Riccall,York,,Hare & Hounds,Other catering premises,7841,5,,442213,5,,53.83386200000000,PI/000001094,256,info@selby.gov.uk,Selby,http://www.selby.gov.uk,-1.05888000000000,YO19 6PA,2014-03-11,fhrs_4_en-GB,4,,FHRS,10
391115,Manor Road,Stutton,Tadcaster,,Hare & Hounds Inn,Other catering premises,7841,10,,434191,0,,53.86718500000000,PI/000015095,256,info@selby.gov.uk,Selby,http://www.selby.gov.uk,-1.27140000000000,LS24 9BR,2014-01-07,fhrs_4_en-GB,4,,FHRS,10
391116,The Green,Stillingfleet,York,,Harmony House,Hotel/bed & breakfast/guest house,7842,0,,638143,0,,,PI/000000051,256,info@selby.gov.uk,Selby,http://www.selby.gov.uk,,,2015-01-05,fhrs_5_en-GB,5,,FHRS,0
391117,Paradise Lane,Stutton,Tadcaster,,Hazlewood Castle Hotel,Hotel/bed & breakfast/guest house,7842,10,,298755,10,,53.85826800000000,PI/000015163,256,info@selby.gov.uk,Selby,http://www.selby.gov.uk,-1.32519400000000,LS24 9NJ,2014-10-22,fhrs_3_en-GB,3,,FHRS,10
391118,Whitley Farm Cottages,Doncaster Road,Whitley,Goole,Heathcotes,Hospitals/Childcare/Caring Premises,5,5,,298725,0,,,PI/000010574,256,info@selby.gov.uk,Selby,http://www.selby.gov.uk,,DN14 OHZ,2012-02-03,fhrs_5_en-GB,5,,FHRS,5
391119,School Road,Hemingbrough,Selby,,Hemingbrough C P School,School/college/university,7845,0,,423601,0,,53.76646800000000,PI/000002722,256,info@selby.gov.uk,Selby,http://www.selby.gov.uk,-0.97356300000000,YO8 6QS,2013-12-10,fhrs_5_en-GB,5,,FHRS,5
391120,Finkle Street,Hemingbrough,Selby,North Yorkshire,Hemingbrough Village Institute,Other catering premises,7841,10,,638163,5,,,PI/000002511,256,info@selby.gov.uk,Selby,http://www.selby.gov.uk,,,2014-02-24,fhrs_4_en-GB,4,,FHRS,5
391121,Foresters Arms,High Street,Carlton,Goole,Henry UK,Hotel/bed & breakfast/guest house,7842,10,,638203,0,,53.70962000000000,PI/000007950,256,info@selby.gov.uk,Selby,http://www.selby.gov.uk,-1.02015600000000,DN14 9LY,2014-02-25,fhrs_4_en-GB,4,,FHRS,5
391122,Church Lane,Hensall,Goole,,Hensall CP School,School/college/university,7845,0,,495691,0,,53.70868300000000,PI/000010138,256,info@selby.gov.uk,Selby,http://www.selby.gov.uk,-1.02213300000000,DN14 9PB,2014-07-16,fhrs_4_en-GB,4,,FHRS,10
391123,Highfield Nursing Home,Scarthingwell Park,Barkston Ash,Tadcaster,Highfield Care Home,Hospitals/Childcare/Caring Premises,5,5,,454707,5,,53.82029900000000,PI/000014893,256,info@selby.gov.uk,Selby,http://www.selby.gov.uk,-1.25179700000000,LS24 9PQ,2014-04-07,fhrs_5_en-GB,5,,FHRS,5
391124,Two Otters,Highfield Lane,Womersley,Doncaster,Highfield Hog Roast,Other catering premises,7841,10,,583995,10,,53.65671800000000,PI/000021534,256,info@selby.gov.uk,Selby,http://www.selby.gov.uk,-1.16304500000000,DN6 9BP,2013-09-04,fhrs_2_en-GB,2,,FHRS,15
391125,15 Finkle Hill,Sherburn In Elmet,Leeds,North Yorkshire,Hill Top Manor Residential Care Home,Hospitals/Childcare/Caring Premises,5,5,,338892,0,,53.79838100000000,PI/000013592,256,info@selby.gov.uk,Selby,http://www.selby.gov.uk,-1.25243000000000,LS25 6EB,2014-05-06,fhrs_5_en-GB,5,,FHRS,5
391126,2 Portholme Drive,Selby,North Yorkshire,,Hins,Takeaway/sandwich shop,7844,10,,434183,5,,53.78066500000000,PI/000003868,256,info@selby.gov.uk,Selby,http://www.selby.gov.uk,-1.07225700000000,YO8 4QF,2013-11-06,fhrs_4_en-GB,4,,FHRS,5
391127,1 Low Street,South Milford,Leeds,,Hog Roast Yorkshire,Other catering premises,7841,0,,703678,5,,53.77900000000000,PI/000034464,256,info@selby.gov.uk,Selby,http://www.selby.gov.uk,-1.24782700000000,LS25 5AR,2014-09-24,fhrs_5_en-GB,5,,FHRS,0
391128,Unit 12/23,Market Cross,Selby,North Yorkshire,Home Bargains,Retailers - other,4613,5,,531167,5,,53.78357600000000,PI/000018189,256,info@selby.gov.uk,Selby,http://www.selby.gov.uk,-1.06977900000000,YO8 4QA,2013-03-15,fhrs_5_en-GB,5,,FHRS,0
391129,49 Micklegate,Selby,North Yorkshire,,Hope Yard Cafe,Restaurant/Cafe/Canteen,1,0,,535132,0,,53.78536000000000,PI/000029758,256,info@selby.gov.uk,Selby,http://www.selby.gov.uk,-1.06807000000000,YO8 4EA,2013-04-08,fhrs_5_en-GB,5,,FHRS,5
391130,Weeland Road,Eggborough,Goole,,Horse & Jockey,Other catering premises,7841,10,,298721,10,,53.70600500000000,PI/000009994,256,info@selby.gov.uk,Selby,http://www.selby.gov.uk,-1.15070600000000,DN14 0RX,2014-01-03,fhrs_2_en-GB,2,,FHRS,15
391131,High Street,Tadcaster West,North Yorkshire,,Howden Arms,Pub/bar/nightclub,7843,0,,638267,0,,53.88361500000000,PI/000015538,256,info@selby.gov.uk,Selby,http://www.selby.gov.uk,-1.26251900000000,LS24 9AT,2014-03-03,fhrs_5_en-GB,5,,FHRS,0
391132,82 Brook Street,Selby,North Yorkshire,,Hung Fong Chinese Takeaway,Takeaway/sandwich shop,7844,5,,410550,10,,53.78094300000000,PI/000002991,256,info@selby.gov.uk,Selby,http://www.selby.gov.uk,-1.07560400000000,YO8 4AR,2014-11-21,fhrs_3_en-GB,3,,FHRS,10
391133,48 Ousegate,Selby,North Yorkshire,,Hung Wan Chinese Takeaway,Takeaway/sandwich shop,7844,5,,371851,10,,54.13346481323242,PI/000003792,256,info@selby.gov.uk,Selby,http://www.selby.gov.uk,-1.31587803363800,YO8 4HN,2013-11-12,fhrs_3_en-GB,3,,FHRS,10
391134,Hut Green Stores,Hut Green,Eggborough,Goole,Hut Green Stores Ltd,Retailers - other,4613,5,,459899,5,,53.70588700000000,PI/000009874,256,info@selby.gov.uk,Selby,http://www.selby.gov.uk,-1.14802700000000,DN14 0LX,2012-10-23,fhrs_5_en-GB,5,,FHRS,5
391135,40 York Road,Tadcaster,North Yorkshire,,Imperial Takeaway,Takeaway/sandwich shop,7844,20,,555040,10,,53.88746500000000,PI/000030339,256,info@selby.gov.uk,Selby,http://www.selby.gov.uk,-1.25577200000000,LS24 8AF,2015-01-07,fhrs_1_en-GB,1,,FHRS,10
391136,Sainsbury's Supermarket,18A Abbey Walk,Selby,North Yorkshire,J Sainsbury PLC,Retailers - supermarkets/hypermarkets,7840,5,,298784,5,,53.78447700000000,PI/000024094,256,info@selby.gov.uk,Selby,http://www.selby.gov.uk,-1.07006300000000,YO8 4DZ,2014-03-04,fhrs_5_en-GB,5,,FHRS,0
391137,12 Finkle Street,Selby,North Yorkshire,,J T Mellanby's,Pub/bar/nightclub,7843,20,,338900,10,,53.78456900000000,PI/000026233,256,info@selby.gov.uk,Selby,http://www.selby.gov.uk,-1.06919600000000,YO8 4DT,2014-05-09,fhrs_1_en-GB,1,,FHRS,5
391138,Unit 8,Low Street,Sherburn In Elmet,,Jack Fultons,Retailers - other,4613,0,,478917,5,,53.79723300000000,PI/000013323,256,info@selby.gov.uk,Selby,http://www.selby.gov.uk,-1.25143300000000,LS25 6BG,2012-11-27,fhrs_5_en-GB,5,,FHRS,5
391139,7 Low Street,Sherburn In Elmet,Leeds,North Yorkshire,Jackson's,Retailers - other,4613,10,,298743,0,,53.79723300000000,PI/000013300,256,info@selby.gov.uk,Selby,http://www.selby.gov.uk,-1.25143300000000,LS25 6BG,2014-11-20,fhrs_4_en-GB,4,,FHRS,5
391140,Farmers Market,Market Place,Selby,North Yorkshire,Jeanettes Home Baking,Retailers - other,4613,10,,491849,10,,53.78420500000000,PI/000026635,256,info@selby.gov.uk,Selby,http://www.selby.gov.uk,-1.06858100000000,YO8 4NS,2014-12-08,fhrs_3_en-GB,3,,FHRS,10
391141,Howden Road,Barlby,Selby,North Yorkshire,Jenny's Fish & Chips,Takeaway/sandwich shop,7844,5,,410548,0,,53.79788800000000,PI/000002024,256,info@selby.gov.uk,Selby,http://www.selby.gov.uk,-1.04160300000000,YO8 5JE,2014-01-10,fhrs_5_en-GB,5,,FHRS,5
391142,Main Street,Church Fenton,Tadcaster,,Jigsaw's Childcare Ltd,Other catering premises,7841,,,298808,,,53.82631200000000,PI/000031009,256,info@selby.gov.uk,Selby,http://www.selby.gov.uk,-1.21659600000000,LS24 9RF,2014-05-06,fhrs_exempt_en-GB,Exempt,,FHRS,
391143,12a Park Street,Selby,North Yorkshire,,Jinnah Restaurant,Takeaway/sandwich shop,7844,5,,550779,5,,53.78268300000000,PI/000030927,256,info@selby.gov.uk,Selby,http://www.selby.gov.uk,-1.06709700000000,YO8 4PW,2014-12-01,fhrs_5_en-GB,5,,FHRS,5
391144,28 Sherburn Street,Cawood,Selby,North Yorkshire,Jodie Bakes Cakes,Manufacturers/packers,7839,0,,726998,0,,53.83196700000000,PI/000029249,256,info@selby.gov.uk,Selby,http://www.selby.gov.uk,-1.13191700000000,YO8 3SS,2014-12-09,fhrs_5_en-GB,5,,FHRS,0
391145,Hirst Road,Chapel Haddlesey,Selby,North Yorkshire,Jug Inn,Other catering premises,7841,5,,298716,5,,53.72855500000000,PI/000008242,256,info@selby.gov.uk,Selby,http://www.selby.gov.uk,-1.11928500000000,YO8 8QQ,2013-08-06,fhrs_4_en-GB,4,,FHRS,10
391146,16 Field Avenue,Thorpe Willoughby,Selby,North Yorkshire,K S Cakes,Other catering premises,7841,0,,703677,0,,,PI/000008833,256,info@selby.gov.uk,Selby,http://www.selby.gov.uk,,,2014-09-23,fhrs_5_en-GB,5,,FHRS,0
391147,Market Place,Selby,North Yorkshire,,Kans Discotheque,Pub/bar/nightclub,7843,5,,355587,0,,54.13346481323242,PI/000003539,256,info@selby.gov.uk,Selby,http://www.selby.gov.uk,-1.31587803363800,YO8 0NS,2012-04-13,fhrs_4_en-GB,4,,FHRS,10
391148,Roall Lane,Kellington,Goole,,Kellington C P School,School/college/university,7845,0,,565226,5,,,PI/000012012,256,info@selby.gov.uk,Selby,http://www.selby.gov.uk,,DN14 ONY,2014-12-01,fhrs_5_en-GB,5,,FHRS,0
391149,Corner Shop,Main Street,Kellington,Goole,Kellington Corner Shop,Retailers - other,4613,10,,406138,0,,53.71776300000000,PI/000011930,256,info@selby.gov.uk,Selby,http://www.selby.gov.uk,-1.16621300000000,DN14 0NH,2012-10-01,fhrs_4_en-GB,4,,FHRS,0
391150,Whales Lane,Kellington,Goole,,Kellington Manor Hotel,Other catering premises,7841,0,,478916,5,,,PI/000012045,256,info@selby.gov.uk,Selby,http://www.selby.gov.uk,,DN14 OSB,2014-06-10,fhrs_4_en-GB,4,,FHRS,10
391151,Main Street,North Duffield,Selby,North Yorkshire,Kings Arms,Other catering premises,7841,10,,338898,10,,53.82508000000000,PI/000018698,256,info@selby.gov.uk,Selby,http://www.selby.gov.uk,-0.96087400000000,YO8 5RG,2013-09-27,fhrs_3_en-GB,3,,FHRS,10
391152,New Lane,Selby,North Yorkshire,,Kings Church,Other catering premises,7841,10,,555041,5,,53.78299800000000,PI/000032092,256,info@selby.gov.uk,Selby,http://www.selby.gov.uk,-1.07052000000000,YO8 4QB,2013-05-29,fhrs_4_en-GB,4,,FHRS,5
391153,Main Street,Church Fenton,Tadcaster,,Kirk Fenton P School,School/college/university,7845,0,,531164,0,,53.82631200000000,PI/000014456,256,info@selby.gov.uk,Selby,http://www.selby.gov.uk,-1.21659600000000,LS24 9RF,2014-09-05,fhrs_5_en-GB,5,,FHRS,0
391154,Main Street,Kirk Smeaton,Pontefract,,Kirk Smeaton C of E Primary School,School/college/university,7845,0,,606671,0,,53.64364100000000,PI/000010854,256,info@selby.gov.uk,Selby,http://www.selby.gov.uk,-1.21630800000000,WF8 3JY,2013-11-07,fhrs_5_en-GB,5,,FHRS,5
391155,Travellers Rest,Main Street,Kirk Smeaton,Pontefract,Kirk Smeaton Store,Retailers - other,4613,5,,638224,5,,53.64364100000000,PI/000010855,256,info@selby.gov.uk,Selby,http://www.selby.gov.uk,-1.21630800000000,WF8 3JY,2014-03-11,fhrs_5_en-GB,5,,FHRS,5
391156,6 Kirkgate,Tadcaster West,North Yorkshire,,Kirkgate Fisheries,Other catering premises,7841,10,,355593,10,,53.88462800000000,PI/000015626,256,info@selby.gov.uk,Selby,http://www.selby.gov.uk,-1.26215100000000,LS24 9AD,2015-01-15,fhrs_3_en-GB,3,,FHRS,10
391157,Main Street,Hensall,Goole,,LA Anchor Pizzeria Ltd,Pub/bar/nightclub,7843,5,,495692,5,,,PI/000010200,256,info@selby.gov.uk,Selby,http://www.selby.gov.uk,,DN14 OQZ,2014-07-16,fhrs_5_en-GB,5,,FHRS,5
391158,8 Norfolk Close,Brotherton,Knottingley,,La Di Da Cakes and Bakes,Other catering premises,7841,5,,547938,5,,53.72772900000000,PI/000023090,256,info@selby.gov.uk,Selby,http://www.selby.gov.uk,-1.27223500000000,WF11 9LQ,2013-05-08,fhrs_5_en-GB,5,,FHRS,0
391159,Riccall Lane,Kelfield,York,,Lake and Orchard Care Centre,Hospitals/Childcare/Caring Premises,5,5,,434178,10,,53.83754100000000,PI/000000773,256,info@selby.gov.uk,Selby,http://www.selby.gov.uk,-1.08603000000000,YO19 6RE,2014-06-19,fhrs_3_en-GB,3,,FHRS,10
391160,Station Road Ind Est,Tadcaster West,North Yorkshire,,Lambert Engineering Ltd,Restaurant/Cafe/Canteen,1,10,,434193,10,,53.88250000000000,PI/000016163,256,info@selby.gov.uk,Selby,http://www.selby.gov.uk,-1.26834900000000,LS24 9SG,2014-01-29,fhrs_4_en-GB,4,,FHRS,0
391161,64-66 Ousegate,Selby,North Yorkshire,,Le Raj Restaurant,Takeaway/sandwich shop,7844,10,,298694,5,,53.78423600000000,PI/000003797,256,info@selby.gov.uk,Selby,http://www.selby.gov.uk,-1.06448300000000,YO8 4NJ,2014-10-13,fhrs_3_en-GB,3,,FHRS,10
391162,51 York Road,Tadcaster,North Yorkshire,,Leeds Arms,Other catering premises,7841,5,,298770,0,,53.88784800000000,PI/000016625,256,info@selby.gov.uk,Selby,http://www.selby.gov.uk,-1.25523200000000,LS24 8AE,2011-12-29,fhrs_5_en-GB,5,,FHRS,5
391163,32 Leeds Road,Tadcaster West,North Yorkshire,,Leeds Road Service Station,Retailers - other,4613,0,,298762,5,,53.88244100000000,PI/000015635,256,info@selby.gov.uk,Selby,http://www.selby.gov.uk,-1.26612900000000,LS24 9HB,2012-01-09,fhrs_5_en-GB,5,,FHRS,0
391164,58a Low Street,Sherburn In Elmet,Leeds,North Yorkshire,Lindas Pantry and Deli,Takeaway/sandwich shop,7844,5,,298809,10,,53.79570400000000,PI/000031107,256,info@selby.gov.uk,Selby,http://www.selby.gov.uk,-1.25126300000000,LS25 6BA,2014-01-14,fhrs_4_en-GB,4,,FHRS,5
391165,York Road,Steeton,Tadcaster,,Little Chef,Other catering premises,7841,5,,671486,5,,53.90282000000000,PI/000034255,256,info@selby.gov.uk,Selby,http://www.selby.gov.uk,-1.19773800000000,LS24 8EQ,2014-09-05,fhrs_5_en-GB,5,,FHRS,0
391166,21 Gowthorpe,Selby,North Yorkshire,,Little Miss Muffins,Takeaway/sandwich shop,7844,5,,683434,10,,53.78157700000000,PI/000034263,256,info@selby.gov.uk,Selby,http://www.selby.gov.uk,-1.01086500000000,YO8 0HE,2014-07-17,fhrs_4_en-GB,4,,FHRS,5
391167,8 Broadacres Avenue,Carlton,Goole,,Little Pickle's GF Kitchen,Other catering premises,7841,5,,732754,0,,53.71188000000000,PI/000034848,256,info@selby.gov.uk,Selby,http://www.selby.gov.uk,-1.01637600000000,DN14 9NE,2015-01-22,fhrs_5_en-GB,5,,FHRS,5
391168,Northcott,Old London Road,Stutton,Tadcaster,Little Yorkshire Cheese Stall,Retailers - other,4613,10,,617495,0,,53.85315400000000,PI/000017578,256,info@selby.gov.uk,Selby,http://www.selby.gov.uk,-1.28474700000000,LS24 9NG,2013-12-03,fhrs_4_en-GB,4,,FHRS,5
391169,56 Stutton Road,Tadcaster West,North Yorkshire,,LLL's Kitchen,Restaurant/Cafe/Canteen,1,5,,555042,5,,53.87584400000000,PI/000032757,256,info@selby.gov.uk,Selby,http://www.selby.gov.uk,-1.27196400000000,LS24 9HJ,2014-12-04,fhrs_5_en-GB,5,,FHRS,5
391170,Unit 2,Union Lane,Selby,North Yorkshire,Lo Cost Food,Retailers - other,4613,5,,683431,5,,53.78067800000000,PI/000034056,256,info@selby.gov.uk,Selby,http://www.selby.gov.uk,-1.07394100000000,YO8 4AU,2014-07-11,fhrs_4_en-GB,4,,FHRS,10
391171,York Road,Monk Fryston,Leeds,North Yorkshire,Lodge Farm,Farmers/growers,7838,10,,694038,0,,,PI/000012482,256,info@selby.gov.uk,Selby,http://www.selby.gov.uk,,,2014-08-07,fhrs_4_en-GB,4,,FHRS,0
391172,Station Road,Selby,North Yorkshire,,Lola's Garden,Restaurant/Cafe/Canteen,1,10,,298697,0,,53.77116000000000,PI/000003984,256,info@selby.gov.uk,Selby,http://www.selby.gov.uk,-1.12670800000000,YO8 9NW,2014-09-05,fhrs_4_en-GB,4,,FHRS,10
391173,Market Place,Selby,North Yorkshire,,Londesborough Arms Hotel,Hotel/bed & breakfast/guest house,7842,10,,454703,10,,54.13346481323242,PI/000003540,256,info@selby.gov.uk,Selby,http://www.selby.gov.uk,-1.31587803363800,YO8 0NS,2014-02-18,fhrs_3_en-GB,3,,FHRS,10
391174,Hemingbrough Stores,Main Street,Hemingbrough,Selby,Londis,Retailers - other,4613,5,,298679,0,,53.76879900000000,PI/000002603,256,info@selby.gov.uk,Selby,http://www.selby.gov.uk,-0.97918100000000,YO8 6QE,2013-04-10,fhrs_5_en-GB,5,,FHRS,0
391175,Myrtle Avenue,Selby,North Yorkshire,,Longmans Hill C P School,School/college/university,7845,0,,481726,0,,53.77364600000000,PI/000006643,256,info@selby.gov.uk,Selby,http://www.selby.gov.uk,-1.07582500000000,YO8 9BG,2014-06-10,fhrs_5_en-GB,5,,FHRS,5
391176,79 Brook Street,Selby,North Yorkshire,,Lonsdales Fish & Chips,Other catering premises,7841,5,,410549,10,,53.78157700000000,PI/000002985,256,info@selby.gov.uk,Selby,http://www.selby.gov.uk,-1.01086500000000,YO8 0AL,2015-01-19,fhrs_4_en-GB,4,,FHRS,5
391177,Moss Hagg Farm,Selby Common,Selby,North Yorkshire,Lovely Jubbly,Mobile caterer,7846,5,,583992,5,,53.79299000000000,PI/000004561,256,info@selby.gov.uk,Selby,http://www.selby.gov.uk,-1.12387200000000,YO8 3RE,2013-09-03,fhrs_5_en-GB,5,,FHRS,0
391178,35 Gowthorpe,Selby,North Yorkshire,,Lucky Horse,Takeaway/sandwich shop,7844,5,,298688,5,,53.78357300000000,PI/000003382,256,info@selby.gov.uk,Selby,http://www.selby.gov.uk,-1.07173700000000,YO8 4HE,2014-10-13,fhrs_5_en-GB,5,,FHRS,0
391179,2,Volta Street,Selby,,Lucky Star,Takeaway/sandwich shop,7844,5,,450105,10,,53.77848100000000,PI/000022576,256,info@selby.gov.uk,Selby,http://www.selby.gov.uk,-1.05846500000000,YO8 8DF,2014-01-13,fhrs_3_en-GB,3,,FHRS,10
391180,Hambleton Village Hall,Station Road,Hambleton,Selby,Luncheon Club,Other catering premises,7841,5,,459911,5,,53.77149700000000,PI/000017193,256,info@selby.gov.uk,Selby,http://www.selby.gov.uk,-1.16392000000000,YO8 9HS,2012-10-25,fhrs_5_en-GB,5,,FHRS,5
391181,Methodist Church,Church View,Sherburn In Elmet,Leeds,Luncheon Club,Other catering premises,7841,,,442230,,,53.79587700000000,PI/000013540,256,info@selby.gov.uk,Selby,http://www.selby.gov.uk,-1.25312700000000,LS25 6HZ,2012-08-09,fhrs_exempt_en-GB,Exempt,,FHRS,
391182,62 Flaxley Road,Selby,North Yorkshire,,Macca's Sandwich Shop,Takeaway/sandwich shop,7844,10,,520633,5,,,PI/000032392,256,info@selby.gov.uk,Selby,http://www.selby.gov.uk,,YO8 OBN,2014-10-03,fhrs_2_en-GB,2,,FHRS,15
391183,65 Gowthorpe,Selby,North Yorkshire,,Mama Mia Pizza Takeaway,Takeaway/sandwich shop,7844,0,,450084,5,,53.78357300000000,PI/000003426,256,info@selby.gov.uk,Selby,http://www.selby.gov.uk,-1.07173700000000,YO8 4HE,2014-02-18,fhrs_5_en-GB,5,,FHRS,5
391184,30 Kirkgate,Tadcaster West,North Yorkshire,,Mandarin Palace,Takeaway/sandwich shop,7844,5,,298760,10,,53.88462800000000,PI/000015616,256,info@selby.gov.uk,Selby,http://www.selby.gov.uk,-1.26215100000000,LS24 9AD,2013-07-15,fhrs_3_en-GB,3,,FHRS,10
391185,164 Main Road,Drax,Selby,North Yorkshire,Mansion House Care Home,Hospitals/Childcare/Caring Premises,5,5,,298713,0,,53.73109700000000,PI/000007606,256,info@selby.gov.uk,Selby,http://www.selby.gov.uk,-0.97542500000000,YO8 8NJ,2014-01-21,fhrs_5_en-GB,5,,FHRS,5
391186,9 Market Lane,Selby,North Yorkshire,,Market Lane Tea Rooms,Restaurant/Cafe/Canteen,1,0,,355589,0,,53.78357600000000,PI/000006114,256,info@selby.gov.uk,Selby,http://www.selby.gov.uk,-1.06977900000000,YO8 4QA,2013-10-14,fhrs_5_en-GB,5,,FHRS,5
391187,Hall Garth Farm,Main Street,Birkin,Knottingley,Martin Nunns Meat and Livestock,Retailers - other,4613,10,,610543,5,,53.73595800000000,PI/000033465,256,info@selby.gov.uk,Selby,http://www.selby.gov.uk,-1.19687000000000,WF11 9LP,2013-11-14,fhrs_4_en-GB,4,,FHRS,5
391188,MKM Building Supplies,"Selby Business Park, Oakney Wood Road",Selby,North Yorkshire,Ma's Kitchen,Mobile caterer,7846,10,,298797,10,,53.76670800000000,PI/000028339,256,info@selby.gov.uk,Selby,http://www.selby.gov.uk,-1.06666300000000,YO8 8LZ,2014-04-04,fhrs_3_en-GB,3,,FHRS,5
391189,Queen O'Towd Thatch,High Street,South Milford,Leeds,Masterplan Hospitality Ltd,Other catering premises,7841,10,,591043,10,,53.77791600000000,PI/000033247,256,info@selby.gov.uk,Selby,http://www.selby.gov.uk,-1.25548000000000,LS25 5AQ,2013-10-09,fhrs_3_en-GB,3,,FHRS,10
391190,Wistowgate,Cawood,Selby,North Yorkshire,Maypole Farm,Farmers/growers,7838,0,,508665,0,,,PI/000009490,256,info@selby.gov.uk,Selby,http://www.selby.gov.uk,,YO8 OSH,2013-01-29,fhrs_5_en-GB,5,,FHRS,0
391191,1 Barwic Parade,Selby,North Yorkshire,,McColls,Retailers - other,4613,0,,709124,10,,53.77626700000000,PI/000034578,256,info@selby.gov.uk,Selby,http://www.selby.gov.uk,-1.05801400000000,YO8 8DL,2014-10-21,fhrs_4_en-GB,4,,FHRS,5
391192,McDonald's Restaurants Ltd,Three Lakes Retail Park,Bawtry Road,Selby,McDonalds Restaurants Ltd,Takeaway/sandwich shop,7844,5,,384848,5,,53.76988100000000,PI/000005852,256,info@selby.gov.uk,Selby,http://www.selby.gov.uk,-1.06551500000000,YO8 8NB,2014-05-20,fhrs_5_en-GB,5,,FHRS,5
391193,Tadcaster Road,Bilbrough,York,North Yorkshire,McDonalds Restaurants Ltd,Other catering premises,7841,0,,539558,10,,53.90680900000000,PI/000017115,256,info@selby.gov.uk,Selby,http://www.selby.gov.uk,-1.18542400000000,YO23 3PP,2014-10-15,fhrs_4_en-GB,4,,FHRS,5
391194,Meadow Lodge Residential Home,Broach Lane,Kellington,Goole,Meadow Lodge Care Ltd,Hospitals/Childcare/Caring Premises,5,5,,459902,0,,53.71384100000000,PI/000011885,256,info@selby.gov.uk,Selby,http://www.selby.gov.uk,-1.16329100000000,DN14 0ND,2014-10-09,fhrs_5_en-GB,5,,FHRS,0
391195,24 -26 Church Hill,Selby,North Yorkshire,,Megna Takeaway & Restaurant,Other catering premises,7841,20,,450080,20,,,PI/000003039,256,info@selby.gov.uk,Selby,http://www.selby.gov.uk,,YO8 0LP,2015-01-09,fhrs_0_en-GB,0,,FHRS,20
391196,Great North Road,South Milford,Leeds,,Milford Hotel,Other catering premises,7841,5,,434188,0,,53.77790300000000,PI/000012602,256,info@selby.gov.uk,Selby,http://www.selby.gov.uk,-1.30892600000000,LS25 5LQ,2014-01-07,fhrs_5_en-GB,5,,FHRS,5
391197,Mill Lane,Barlow,Selby,North Yorkshire,Mill House Farm Barn,Mobile caterer,7846,0,,580828,0,,53.74865200000000,PI/000031496,256,info@selby.gov.uk,Selby,http://www.selby.gov.uk,-1.03060700000000,YO8 8EY,2013-08-29,fhrs_5_en-GB,5,,FHRS,0
391198,28 Church Hill,Selby,North Yorkshire,,Ming's Chinese,Takeaway/sandwich shop,7844,10,,434181,15,,53.78502200000000,PI/000003041,256,info@selby.gov.uk,Selby,http://www.selby.gov.uk,-1.06616500000000,YO8 4PL,2013-11-04,fhrs_2_en-GB,2,,FHRS,10
391199,Unit 7 Ousegate Mills,Ousegate,Selby,North Yorkshire,Mini Market Grosik Ltd,Retailers - other,4613,0,,578943,5,,53.78423600000000,PI/000032689,256,info@selby.gov.uk,Selby,http://www.selby.gov.uk,-1.06448300000000,YO8 4NJ,2013-08-08,fhrs_5_en-GB,5,,FHRS,5
391200,61-63 Micklegate,Selby,North Yorkshire,,Mister C's,Other catering premises,7841,0,,410552,0,,53.78536000000000,PI/000003562,256,info@selby.gov.uk,Selby,http://www.selby.gov.uk,-1.06807000000000,YO8 4EA,2013-10-28,fhrs_5_en-GB,5,,FHRS,5
391201,29 Fox Lane,Thorpe Willoughby,Selby,North Yorkshire,Mitchells Fisheries,Other catering premises,7841,5,,450097,5,,53.77172274000000,PI/000008926,256,info@selby.gov.uk,Selby,http://www.selby.gov.uk,-1.12551718000000,Y08 9NA,2014-02-27,fhrs_5_en-GB,5,,FHRS,5
391202,4 Garrick Close,Brayton,Selby,North Yorkshire,Mix and Make,Other catering premises,7841,5,,547933,0,,53.76682700000000,PI/000006924,256,info@selby.gov.uk,Selby,http://www.selby.gov.uk,-1.08092100000000,YO8 9RL,2013-04-30,fhrs_5_en-GB,5,,FHRS,5
391203,15 Finkle Street,Selby,North Yorkshire,,Mollie Sharp's,Retailers - other,4613,0,,338901,5,,53.78456900000000,PI/000028846,256,info@selby.gov.uk,Selby,http://www.selby.gov.uk,-1.06919600000000,YO8 4DT,2014-04-11,fhrs_5_en-GB,5,,FHRS,5
391204,Old Vicarage Lane,Monk Fryston,Leeds,North Yorkshire,"Monk Fryston & Hillam Community Centre,",Other catering premises,7841,10,,298781,0,,53.76027000000000,PI/000022509,256,info@selby.gov.uk,Selby,http://www.selby.gov.uk,-1.23379700000000,LS25 5EA,2012-02-01,fhrs_4_en-GB,4,,FHRS,5
391205,Water Lane,Monk Fryston,Leeds,North Yorkshire,Monk Fryston C E P School,School/college/university,7845,0,,298738,0,,53.76065900000000,PI/000012477,256,info@selby.gov.uk,Selby,http://www.selby.gov.uk,-1.23275900000000,LS25 5DZ,2013-11-18,fhrs_5_en-GB,5,,FHRS,5
391206,Main Street,Monk Fryston,Leeds,North Yorkshire,Monk Fryston Hall Hotel,Hotel/bed & breakfast/guest house,7842,10,,442227,5,,53.76239500000000,PI/000012411,256,info@selby.gov.uk,Selby,http://www.selby.gov.uk,-1.23588200000000,LS25 5DU,2014-01-27,fhrs_3_en-GB,3,,FHRS,10
391207,Church Hall,Church Lane,Monk Fryston,,Monk Fryston Pre-School,Hospitals/Childcare/Caring Premises,5,5,,565229,0,,53.76113600000000,PI/000032770,256,info@selby.gov.uk,Selby,http://www.selby.gov.uk,-1.23425200000000,LS25 5DY,2013-06-27,fhrs_5_en-GB,5,,FHRS,5
391208,41 Main Street,Monk Fryston,Leeds,North Yorkshire,Monk Fryston Store & Post Office,Retailers - other,4613,0,,406139,5,,53.76125900000000,PI/000012383,256,info@selby.gov.uk,Selby,http://www.selby.gov.uk,-1.23097300000000,LS25 5EG,2013-11-20,fhrs_4_en-GB,4,,FHRS,10
391209,Unit 4,Market Cross,Selby,North Yorkshire,Morley's Fine Foods,Retailers - other,4613,5,,298706,5,,53.78157700000000,PI/000005948,256,info@selby.gov.uk,Selby,http://www.selby.gov.uk,-1.01086500000000,YO8 0JS,2014-11-27,fhrs_5_en-GB,5,,FHRS,5
391210,Unit 6 Brackenholme Business Park,Brackenholme,Hemingbrough,Selby,Munchkins Day Nursery,Hospitals/Childcare/Caring Premises,5,0,,531161,0,,53.76219600000000,PI/000002430,256,info@selby.gov.uk,Selby,http://www.selby.gov.uk,-0.93921700000000,YO8 6EL,2014-10-03,fhrs_5_en-GB,5,,FHRS,0
391211,,,,,My Family Cakes,Hospitals/Childcare/Caring Premises,5,10,,703676,5,,,PI/000004943,256,info@selby.gov.uk,Selby,http://www.selby.gov.uk,,,2014-09-25,fhrs_4_en-GB,4,,FHRS,0
391212,North Duffield Village Hall,Back Lane,North Duffield,Selby,N Duffield & Skipwith Luncheon Club,Other catering premises,7841,5,,550776,0,,53.82492500000000,PI/000000518,256,info@selby.gov.uk,Selby,http://www.selby.gov.uk,-0.95852300000000,YO8 5RJ,2014-12-01,fhrs_5_en-GB,5,,FHRS,0
391213,Green Lane,Heck,Goole,,Nancy's Cafe,Takeaway/sandwich shop,7844,5,,434198,5,,53.68720300000000,PI/000029574,256,info@selby.gov.uk,Selby,http://www.selby.gov.uk,-1.08975600000000,DN14 OBZ,2014-01-21,fhrs_5_en-GB,5,,FHRS,0
391214,12A Finkle Hill,Sherburn In Elmet,Leeds,North Yorkshire,Narenos,Takeaway/sandwich shop,7844,20,,423606,5,,53.79896300000000,PI/000013587,256,info@selby.gov.uk,Selby,http://www.selby.gov.uk,-1.25213100000000,LS25 6EA,2014-05-07,fhrs_1_en-GB,1,,FHRS,10
391215,134 Ousegate,Selby,North Yorkshire,,Nelson Inn,Pub/bar/nightclub,7843,5,,298693,0,,53.78295400000000,PI/000003780,256,info@selby.gov.uk,Selby,http://www.selby.gov.uk,-1.06029200000000,YO8 8BL,2012-03-14,fhrs_5_en-GB,5,,FHRS,0
391216,Howden Road,Barlby,Selby,North Yorkshire,New Inn,Other catering premises,7841,10,,338879,10,,,PI/000002025,256,info@selby.gov.uk,Selby,http://www.selby.gov.uk,,YO8 7HJ,2014-07-29,fhrs_3_en-GB,3,,FHRS,10
391217,Main Street,Hemingbrough,Selby,North Yorkshire,New Mai Ling,Takeaway/sandwich shop,7844,20,,450079,10,,53.78157700000000,PI/000002617,256,info@selby.gov.uk,Selby,http://www.selby.gov.uk,-1.01086500000000,YO8 7QE,2014-07-28,fhrs_1_en-GB,1,,FHRS,10
391218,Doncaster Road,Selby,North Yorkshire.,,New Selby War Memorial,Hospitals/Childcare/Caring Premises,5,0,,430339,0,,53.77686900000000,PI/000030253,256,info@selby.gov.uk,Selby,http://www.selby.gov.uk,-1.07882000000000,YO8 9BX,2014-03-04,fhrs_5_en-GB,5,,FHRS,0
391219,52 Main Street,Riccall,York,,Nisa Local,Retailers - supermarkets/hypermarkets,7840,5,,430327,5,,53.83234200000000,PI/000000969,256,info@selby.gov.uk,Selby,http://www.selby.gov.uk,-1.05765300000000,YO19 6QA,2014-01-23,fhrs_5_en-GB,5,,FHRS,0
391220,19 Moor Lane,Sherburn In Elmet,Leeds,North Yorkshire,Nisa Stores,Retailers - other,4613,5,,298745,0,,53.79779900000000,PI/000013729,256,info@selby.gov.uk,Selby,http://www.selby.gov.uk,-1.24571500000000,LS25 6DZ,2015-01-28,fhrs_5_en-GB,5,,FHRS,5
391221,Abbeyside,Bawtry Road,Selby,North Yorkshire,NJB Services Ltd,Retailers - other,4613,5,,298705,5,,53.77370600000000,PI/000005829,256,info@selby.gov.uk,Selby,http://www.selby.gov.uk,-1.06509600000000,YO8 8NA,2012-01-16,fhrs_5_en-GB,5,,FHRS,5
391222,Eggborough Power Station,Selby Road,Eggborough,Goole,Norec,Restaurant/Cafe/Canteen,1,5,,504355,5,,53.71344100000000,PI/000009933,256,info@selby.gov.uk,Selby,http://www.selby.gov.uk,-1.12982800000000,DN14 0BS,2015-01-20,fhrs_5_en-GB,5,,FHRS,5
391223,Broadmanor,North Duffield,Selby,,North Duffield C P School,School/college/university,7845,0,,423598,0,,53.78157700000000,PI/000000535,256,info@selby.gov.uk,Selby,http://www.selby.gov.uk,-1.01086500000000,YO8 7RZ,2013-12-10,fhrs_5_en-GB,5,,FHRS,0
391224,8 Park Street,Selby,North Yorkshire,,Number 8,Takeaway/sandwich shop,7844,10,,504364,10,,,PI/000020818,256,info@selby.gov.uk,Selby,http://www.selby.gov.uk,,YO8 4NQ,2013-07-26,fhrs_3_en-GB,3,,FHRS,5
391225,40 Low Street,Sherburn In Elmet,Leeds,North Yorkshire,Oddfellows Arms,Other catering premises,7841,0,,430334,0,,53.79570400000000,PI/000013282,256,info@selby.gov.uk,Selby,http://www.selby.gov.uk,-1.25126300000000,LS25 6BA,2014-01-13,fhrs_5_en-GB,5,,FHRS,5
391226,High Street,Carlton,Goole,,Oddfellows Arms,Pub/bar/nightclub,7843,5,,384851,0,,53.70962000000000,PI/000007957,256,info@selby.gov.uk,Selby,http://www.selby.gov.uk,-1.02015600000000,DN14 9LY,2012-05-03,fhrs_4_en-GB,4,,FHRS,10
391227,28 Kirkgate,Tadcaster West,North Yorkshire,,Old Chocolate Box,Retailers - other,4613,0,,638270,0,,53.88462800000000,PI/000015614,256,info@selby.gov.uk,Selby,http://www.selby.gov.uk,-1.26215100000000,LS24 9AD,2015-02-02,fhrs_5_en-GB,5,,FHRS,5
391228,71-73 Gowthorpe,Selby,North Yorkshire,,Olives and Grill,Other catering premises,7841,10,,683430,10,,53.78357300000000,PI/000033511,256,info@selby.gov.uk,Selby,http://www.selby.gov.uk,-1.07173700000000,YO8 4HE,2014-07-11,fhrs_3_en-GB,3,,FHRS,5
391229,77 Barlby Road,Barlby,Selby,North Yorkshire,Olympia Hotel,Other catering premises,7841,10,,406130,5,,53.78690200000000,PI/000001274,256,info@selby.gov.uk,Selby,http://www.selby.gov.uk,-1.06178300000000,YO8 5AB,2014-05-20,fhrs_3_en-GB,3,,FHRS,10
391230,St Gobain Glass UK,Weeland Road,Eggborough,Goole,Optima Catering,Restaurant/Cafe/Canteen,1,10,,298790,10,,53.70557900000000,PI/000024912,256,info@selby.gov.uk,Selby,http://www.selby.gov.uk,-1.13883700000000,DN14 0FD,2013-12-11,fhrs_3_en-GB,3,,FHRS,5
391231,The Old Wood Yard,Main Street,Thorganby,York,Orchard Trees Day Nursery,Hospitals/Childcare/Caring Premises,5,5,,384856,5,,53.88285600000000,PI/000024759,256,info@selby.gov.uk,Selby,http://www.selby.gov.uk,-0.94734700000000,YO19 6DE,2014-09-26,fhrs_5_en-GB,5,,FHRS,0
391232,St Helens Farm,Rudgate,Newton Kyme,Tadcaster,Organic Pantry,Farmers/growers,7838,5,,459910,5,,53.89178600000000,PI/000015234,256,info@selby.gov.uk,Selby,http://www.selby.gov.uk,-1.30960600000000,LS24 9LY,2014-04-15,fhrs_4_en-GB,4,,FHRS,10
391233,Union Lane,Selby,North Yorkshire,,Osborne House,Hospitals/Childcare/Caring Premises,5,5,,620974,0,,53.78067800000000,PI/000033537,256,info@selby.gov.uk,Selby,http://www.selby.gov.uk,-1.07394100000000,YO8 4AU,2013-12-18,fhrs_5_en-GB,5,,FHRS,0
391234,Unit 11a-12a,Market Cross,Selby,,Osteria 23,Restaurant/Cafe/Canteen,1,10,,459913,10,,53.78357600000000,PI/000029819,256,info@selby.gov.uk,Selby,http://www.selby.gov.uk,-1.06977900000000,YO8 4QA,2014-04-11,fhrs_2_en-GB,2,,FHRS,15
391235,Main Road,Hambleton,Selby,North Yorkshire,Owl Hotel & Restaurant,Hotel/bed & breakfast/guest house,7842,5,,504353,10,,53.76999400000000,PI/000008633,256,info@selby.gov.uk,Selby,http://www.selby.gov.uk,-1.16885100000000,YO8 9JH,2014-07-25,fhrs_3_en-GB,3,,FHRS,10
391236,Leatherbelly Woods,Sutton Lane,Byram,Knottingley,Paintball Commando,Pub/bar/nightclub,7843,5,,338899,0,,53.71633600000000,PI/000019296,256,info@selby.gov.uk,Selby,http://www.selby.gov.uk,-1.24125900000000,WF11,2012-03-29,fhrs_2_en-GB,2,,FHRS,15
391237,Chylowen,Hillam Lane,Burton Salmon,Leeds,Park Vale Quality Foods,Mobile caterer,7846,5,,638236,5,,53.74450400000000,PI/000012067,256,info@selby.gov.uk,Selby,http://www.selby.gov.uk,-1.25946700000000,LS25 5JQ,2014-03-12,fhrs_5_en-GB,5,,FHRS,5
391238,20 Main Street,Riccall,York,,Park View Hotel,Hotel/bed & breakfast/guest house,7842,5,,298667,0,,53.83079700000000,PI/000000946,256,info@selby.gov.uk,Selby,http://www.selby.gov.uk,-1.05549900000000,YO19 6PX,2012-01-03,fhrs_4_en-GB,4,,FHRS,10
391239,Playing Fields,Skipwith Road,North Duffield,Selby,Pavilion,Pub/bar/nightclub,7843,10,,638150,5,,,PI/000000591,256,info@selby.gov.uk,Selby,http://www.selby.gov.uk,,,2014-02-26,fhrs_4_en-GB,4,,FHRS,5
391240,"Unit 18, Moor Lane Trading Est",Sherburn In Elmet,Leeds,North Yorkshire,Pecan Deluxe Candy,Manufacturers/packers,7839,0,,531168,0,,53.78862200000000,PI/000022300,256,info@selby.gov.uk,Selby,http://www.selby.gov.uk,-1.23147500000000,LS25 6ES,2013-03-18,fhrs_5_en-GB,5,,FHRS,0
391241,James Street,Selby,North Yorkshire,,Pedro's,Mobile caterer,7846,10,,355597,5,,53.78293700000000,PI/000025686,256,info@selby.gov.uk,Selby,http://www.selby.gov.uk,-1.06853400000000,YO8 4PY,2014-10-03,fhrs_4_en-GB,4,,FHRS,0
391242,Westbourne Grove,Selby,North Yorkshire.,,Pennyghael Residential Home,Hospitals/Childcare/Caring Premises,5,0,,442218,5,,53.77791700000000,PI/000005680,256,info@selby.gov.uk,Selby,http://www.selby.gov.uk,-1.07522500000000,Y08 9DG,2014-01-30,fhrs_5_en-GB,5,,FHRS,5
391243,7B Finkle Hill,Sherburn In Elmet,Leeds,North Yorkshire,Penny's,Retailers - other,4613,5,,504361,10,,53.79838100000000,PI/000013614,256,info@selby.gov.uk,Selby,http://www.selby.gov.uk,-1.25243000000000,LS25 6EB,2014-07-29,fhrs_4_en-GB,4,,FHRS,5
391244,20 Main Street,Riccall,York,,Per Bacco,Takeaway/sandwich shop,7844,10,,508666,10,,53.83079700000000,PI/000032103,256,info@selby.gov.uk,Selby,http://www.selby.gov.uk,-1.05549900000000,YO19 6PX,2014-07-28,fhrs_2_en-GB,2,,FHRS,15
391245,The Bungalow,North Crescent,Sherburn In Elmet,Leeds,Peter Pan Nursery,Hospitals/Childcare/Caring Premises,5,5,,298746,0,,53.79711100000000,PI/000013790,256,info@selby.gov.uk,Selby,http://www.selby.gov.uk,-1.24771600000000,LS25 6DP,2012-01-26,fhrs_5_en-GB,5,,FHRS,5
391246,Sherburn Aero Club,Lennerton Lane,Sherburn In Elmet,Leeds,Pilots Retreat,Other catering premises,7841,10,,298747,5,,53.78986500000000,PI/000014077,256,info@selby.gov.uk,Selby,http://www.selby.gov.uk,-1.20434200000000,LS25 6JE,2014-09-10,fhrs_3_en-GB,3,,FHRS,10
391247,45 Gowthorpe,Selby,North Yorkshire,,Pizza Callo,Takeaway/sandwich shop,7844,10,,706362,10,,53.78357300000000,PI/000034510,256,info@selby.gov.uk,Selby,http://www.selby.gov.uk,-1.07173700000000,YO8 4HE,2014-09-29,fhrs_2_en-GB,2,,FHRS,15
391248,50 Flaxley Road,Selby,North Yorkshire,,Pizza Roma,Takeaway/sandwich shop,7844,0,,410551,5,,,PI/000003246,256,info@selby.gov.uk,Selby,http://www.selby.gov.uk,,YO8 0BW,2013-10-27,fhrs_5_en-GB,5,,FHRS,5
391249,39 Denison Road,Selby,North Yorkshire,,Pizza Thyme,Restaurant/Cafe/Canteen,1,5,,298779,10,,53.77894900000000,PI/000018942,256,info@selby.gov.uk,Selby,http://www.selby.gov.uk,-1.05282400000000,YO8 8AN,2014-01-08,fhrs_4_en-GB,4,,FHRS,5
391250,"Moxon Way, Moor Lane Trading Estate",Sherburn In Elmet,Leeds,North Yorkshire,Pizzoz Ltd,Restaurant/Cafe/Canteen,1,5,,495697,0,,53.79457700000000,PI/000014322,256,info@selby.gov.uk,Selby,http://www.selby.gov.uk,-1.25788700000000,LS25 6NN,2014-07-28,fhrs_5_en-GB,5,,FHRS,5
391251,Children's Centre,Low Street,Brotherton,Knottingley,Playcare Day Nursery,Hospitals/Childcare/Caring Premises,5,10,,298732,10,,53.72358900000000,PI/000011388,256,info@selby.gov.uk,Selby,http://www.selby.gov.uk,-1.26982100000000,WF11 9HQ,2014-02-24,fhrs_3_en-GB,3,,FHRS,5
391252,Leeds Road,Tadcaster West,North Yorkshire,,Popplewell Springs,Restaurant/Cafe/Canteen,1,5,,355601,5,,53.88335300000000,PI/000029575,256,info@selby.gov.uk,Selby,http://www.selby.gov.uk,-1.27121000000000,LS24 9JR,2014-09-08,fhrs_5_en-GB,5,,FHRS,0
391253,20 Brigg Lane,Camblesforth,Selby,North Yorkshire,Post Office,Retailers - other,4613,,,450091,,,53.72775000000000,PI/000007243,256,info@selby.gov.uk,Selby,http://www.selby.gov.uk,-1.01915900000000,YO8 8HJ,2012-09-04,fhrs_exempt_en-GB,Exempt,,FHRS,
391254,Finkle Street,Hensall,Goole,,Post Office,Retailers - other,4613,10,,450098,0,,,PI/000010186,256,info@selby.gov.uk,Selby,http://www.selby.gov.uk,,DN14 OQY,2014-09-29,fhrs_4_en-GB,4,,FHRS,5
391255,2 High Street,Cawood,Selby,North Yorkshire,Post Office & General Store,Retailers - other,4613,10,,442224,0,,53.83312500000000,PI/000009309,256,info@selby.gov.uk,Selby,http://www.selby.gov.uk,-1.12917300000000,YO8 3TH,2012-08-20,fhrs_4_en-GB,4,,FHRS,5
391256,Main Road,Temple Hirst,Selby,,Preceptory Lodge,Hospitals/Childcare/Caring Premises,5,10,,298714,0,,,PI/000007766,256,info@selby.gov.uk,Selby,http://www.selby.gov.uk,,Y08 8QN,2013-12-10,fhrs_4_en-GB,4,,FHRS,5
391257,Tadcaster Road,Bilbrough,York,North Yorkshire,Premier Travel Inn,Hotel/bed & breakfast/guest house,7842,0,,371854,0,,53.90680900000000,PI/000017118,256,info@selby.gov.uk,Selby,http://www.selby.gov.uk,-1.18542400000000,YO23 3PP,2013-07-02,fhrs_5_en-GB,5,,FHRS,5
391258,A1 Southbound,South Milford,Leeds,North Yorkshire,Quality Hotels Leeds (Selby Fork),Hotel/bed & breakfast/guest house,7842,10,,504357,5,,53.76716000000000,PI/000012958,256,info@selby.gov.uk,Selby,http://www.selby.gov.uk,-1.29171600000000,LS25 5LF,2014-07-24,fhrs_3_en-GB,3,,FHRS,10
391259,Escrick Park,Escrick,York,,Queen Margaret's School,School/college/university,7845,5,,298660,10,,53.87292200000000,PI/000000145,256,info@selby.gov.uk,Selby,http://www.selby.gov.uk,-1.04042100000000,YO19 6EU,2013-09-24,fhrs_4_en-GB,4,,FHRS,5
391260,Selby Market,Selby,North Yorkshire,,R & L Snacks,Mobile caterer,7846,0,,338885,0,,53.78536000000000,PI/000006099,256,info@selby.gov.uk,Selby,http://www.selby.gov.uk,-1.06807000000000,YO8 4EA,2014-03-03,fhrs_5_en-GB,5,,FHRS,5
391261,Station Road,Selby,North Yorkshire,,Railway Sports & Social Club,Pub/bar/nightclub,7843,0,,298698,0,,53.78161600000000,PI/000003986,256,info@selby.gov.uk,Selby,http://www.selby.gov.uk,-1.06508700000000,YO8 4AA,2014-10-03,fhrs_5_en-GB,5,,FHRS,0
391262,Station Road,Hensall,Goole,,Railway Tavern,Other catering premises,7841,5,,338891,0,,,PI/000010253,256,info@selby.gov.uk,Selby,http://www.selby.gov.uk,,DN14 OQJ,2012-03-29,fhrs_4_en-GB,4,,FHRS,10
391263,Rainbow Nursery School,London Road,Barkston Ash,Tadcaster,Rainbow Private Nursery School Ltd,Hospitals/Childcare/Caring Premises,5,0,,298752,5,,53.81340400000000,PI/000014857,256,info@selby.gov.uk,Selby,http://www.selby.gov.uk,-1.25887600000000,LS24 9PW,2014-01-10,fhrs_5_en-GB,5,,FHRS,0
391264,Main Building,Main Road,Drax,,Read School,School/college/university,7845,10,,454705,5,,53.73232600000000,PI/000007639,256,info@selby.gov.uk,Selby,http://www.selby.gov.uk,-0.97518300000000,YO8 8NL,2014-02-07,fhrs_4_en-GB,4,,FHRS,5
391265,4 Low Street,Sherburn In Elmet,Leeds,North Yorkshire,Red Bear,Pub/bar/nightclub,7843,0,,547937,0,,53.79723300000000,PI/000013281,256,info@selby.gov.uk,Selby,http://www.selby.gov.uk,-1.25143300000000,LS25 6BG,2013-05-01,fhrs_4_en-GB,4,,FHRS,10
391266,24 Main Road,Hambleton,Selby,North Yorkshire,Red Lion,Pub/bar/nightclub,7843,5,,298718,0,,53.77073500000000,PI/000008634,256,info@selby.gov.uk,Selby,http://www.selby.gov.uk,-1.16546800000000,YO8 9JL,2012-01-12,fhrs_4_en-GB,4,,FHRS,10
391267,Selby  College,Abbots Road,Selby,North Yorkshire,Refectory,Restaurant/Cafe/Canteen,1,0,,508664,5,,53.77507400000000,PI/000004776,256,info@selby.gov.uk,Selby,http://www.selby.gov.uk,-1.05156100000000,YO8 8AT,2014-09-11,fhrs_5_en-GB,5,,FHRS,0
391268,77 Brook Street,Selby,North Yorkshire,,Reshma Spice,Takeaway/sandwich shop,7844,10,,617494,15,,,PI/000002983,256,info@selby.gov.uk,Selby,http://www.selby.gov.uk,,YO8 0AL,2014-10-23,fhrs_2_en-GB,2,,FHRS,10
391269,Healeys,2 Silver Street,Riccall,York,Riccall Butchers Ltd,Retailers - other,4613,10,,298668,10,,53.83386200000000,PI/000001090,256,info@selby.gov.uk,Selby,http://www.selby.gov.uk,-1.05888000000000,YO19 6PA,2013-11-21,fhrs_3_en-GB,3,,FHRS,10
391270,Coppergate,Riccall,York,,Riccall C P School,School/college/university,7845,5,,298666,5,,53.96658706665039,PI/000000852,256,info@selby.gov.uk,Selby,http://www.selby.gov.uk,-1.07468152046204,YO4 6PD,2015-02-11,fhrs_5_en-GB,5,,FHRS,5
391271,78 Main Street,Riccall,York,,Riccall House Care Home,Hospitals/Childcare/Caring Premises,5,5,,459892,5,,53.83346000000000,PI/000000975,256,info@selby.gov.uk,Selby,http://www.selby.gov.uk,-1.05815900000000,YO19 6QD,2014-09-15,fhrs_5_en-GB,5,,FHRS,0
391272,53 Main Street,Riccall,York,,Riccall Post Office,Retailers - other,4613,0,,442212,5,,53.83446800000000,PI/000000970,256,info@selby.gov.uk,Selby,http://www.selby.gov.uk,-1.05833400000000,YO19 6QE,2014-02-18,fhrs_4_en-GB,4,,FHRS,10
391273,Coppergate,Riccall,York,,Riccall Pre-School,School/college/university,7845,0,,638303,0,,53.83514900000000,PI/000028268,256,info@selby.gov.uk,Selby,http://www.selby.gov.uk,-1.06148000000000,YO19 6PF,2014-02-24,fhrs_5_en-GB,5,,FHRS,0
391274,3 Silver Street,Riccall,York,,Riccall Spice,Other catering premises,7841,10,,595197,10,,53.83386200000000,PI/000033115,256,info@selby.gov.uk,Selby,http://www.selby.gov.uk,-1.05888000000000,YO19 6PA,2013-10-24,fhrs_3_en-GB,3,,FHRS,10
391275,Station Road,Riccall,York,,Riccall Village Institute,Other catering premises,7841,5,,638155,5,,,PI/000001106,256,info@selby.gov.uk,Selby,http://www.selby.gov.uk,,,2014-11-17,fhrs_5_en-GB,5,,FHRS,5
391276,28 Westgate,Tadcaster,North Yorkshire,,Riley Smith Hall,Other catering premises,7841,5,,423609,0,,53.88506600000000,PI/000015927,256,info@selby.gov.uk,Selby,http://www.selby.gov.uk,-1.26476000000000,LS24 9JB,2014-01-13,fhrs_5_en-GB,5,,FHRS,5
391277,13A Finkle Street,Selby,North Yorkshire,,Rioco,Restaurant/Cafe/Canteen,1,0,,442214,0,,53.78456900000000,PI/000003148,256,info@selby.gov.uk,Selby,http://www.selby.gov.uk,-1.06919600000000,YO8 4DT,2014-01-29,fhrs_5_en-GB,5,,FHRS,5
391278,Wetherby Road,Tadcaster West,North Yorkshire,,Riverside C P School,School/college/university,7845,5,,583994,5,,53.88530000000000,PI/000015963,256,info@selby.gov.uk,Selby,http://www.selby.gov.uk,-1.26916800000000,LS24 9JN,2013-09-12,fhrs_5_en-GB,5,,FHRS,5
391279,13 High Street,Tadcaster West,North Yorkshire,,Robs Rolls,Other catering premises,7841,10,,430336,5,,53.88345000000000,PI/000021581,256,info@selby.gov.uk,Selby,http://www.selby.gov.uk,-1.26201900000000,LS24 9AP,2014-01-06,fhrs_3_en-GB,3,,FHRS,10
391280,,,,,Rosemarie's Cakes,Mobile caterer,7846,10,,638315,5,,,PI/000601267,256,info@selby.gov.uk,Selby,http://www.selby.gov.uk,,,2014-04-14,fhrs_4_en-GB,4,,FHRS,5
391281,Lodge Farm,Chantry Lane,Hazlewood,Tadcaster,Rosti Haus Limited,Mobile caterer,7846,10,,583993,10,,53.85179000000000,PI/000015132,256,info@selby.gov.uk,Selby,http://www.selby.gov.uk,-1.30205400000000,LS24 9NH,2013-09-03,fhrs_3_en-GB,3,,FHRS,10
391282,Manheim Auctions,Tadcaster Road,Brotherton,,Rostrum Cafe,Restaurant/Cafe/Canteen,1,10,,298782,0,,53.72779700000000,PI/000022844,256,info@selby.gov.uk,Selby,http://www.selby.gov.uk,-1.26573200000000,WF11 9EJ,2013-07-29,fhrs_4_en-GB,4,,FHRS,5
391283,The Rowans,Hull Road,Osgodby,Selby,Route 63 Spice House,Takeaway/sandwich shop,7844,10,,450107,10,,53.79654800000000,PI/000029304,256,info@selby.gov.uk,Selby,http://www.selby.gov.uk,-1.03137100000000,YO8 5HG,2015-01-13,fhrs_3_en-GB,3,,FHRS,10
391284,8 Wighill Lane,Tadcaster,North Yorkshire,,Royal Oak,Pub/bar/nightclub,7843,5,,638283,0,,53.88840500000000,PI/000016572,256,info@selby.gov.uk,Selby,http://www.selby.gov.uk,-1.25961900000000,LS24 8EX,2014-03-31,fhrs_4_en-GB,4,,FHRS,10
391285,Skipwith Village Hall,Back Lane,North Duffield,Selby,Royal Voluntary Service,Other catering premises,7841,5,,638313,5,,53.82492500000000,PI/000032912,256,info@selby.gov.uk,Selby,http://www.selby.gov.uk,-0.95852300000000,YO8 5RJ,2014-03-11,fhrs_5_en-GB,5,,FHRS,5
391286,9 Croft Road,Camblesforth,Selby,North Yorkshire,Ruchee Takeaway,Takeaway/sandwich shop,7844,5,,434184,5,,53.77073500000000,PI/000007321,256,info@selby.gov.uk,Selby,http://www.selby.gov.uk,-1.16546800000000,YO8 9JL,2014-01-06,fhrs_5_en-GB,5,,FHRS,0
391287,42 Low Street,Sherburn In Elmet,Leeds,North Yorkshire,Saffron,Other catering premises,7841,5,,434190,0,,53.79570400000000,PI/000013283,256,info@selby.gov.uk,Selby,http://www.selby.gov.uk,-1.25126300000000,LS25 6BA,2014-01-13,fhrs_5_en-GB,5,,FHRS,5
391288,Sainsbury's Supermarkets Ltd,Mill Lane,Tadcaster East,North Yorkshire,Sainsbury's,Retailers - supermarkets/hypermarkets,7840,5,,298771,5,,53.88637900000000,PI/000016671,256,info@selby.gov.uk,Selby,http://www.selby.gov.uk,-1.26044600000000,LS24 8EU,2014-12-04,fhrs_4_en-GB,4,,FHRS,10
391289,CANTEEN Bishopdyke Road,Sherburn In Elmet,Leeds,North Yorkshire,Sainsbury's RDC,Restaurant/Cafe/Canteen,1,5,,423614,5,,53.79456000000000,PI/000022740,256,info@selby.gov.uk,Selby,http://www.selby.gov.uk,-1.21576000000000,LS25 6JH,2014-12-02,fhrs_5_en-GB,5,,FHRS,5
391290,Three Lakes,Bawtry Road,Selby,North Yorkshire,Saltiz Snacks,Mobile caterer,7846,10,,384847,0,,53.76988100000000,PI/000005844,256,info@selby.gov.uk,Selby,http://www.selby.gov.uk,-1.06551500000000,YO8 8NB,2013-10-14,fhrs_4_en-GB,4,,FHRS,0
391291,77A Brook Street,Selby,North Yorkshire,,Sandwich Express,Restaurant/Cafe/Canteen,1,10,,617496,5,,53.77978600000000,PI/000033211,256,info@selby.gov.uk,Selby,http://www.selby.gov.uk,-1.07597900000000,YO8 4AT,2013-11-27,fhrs_4_en-GB,4,,FHRS,5
391292,16 Westgate,Tadcaster,North Yorkshire,,Sapori Di Napoli,Other catering premises,7841,5,,298767,10,,53.88502500000000,PI/000015911,256,info@selby.gov.uk,Selby,http://www.selby.gov.uk,-1.26395400000000,LS24 9AB,2013-07-02,fhrs_3_en-GB,3,,FHRS,10
391293,1 Eden Court,Selby,North Yorkshire,,Sarah's Cake Company,Other catering premises,7841,5,,298806,5,,53.78590300000000,PI/000030970,256,info@selby.gov.uk,Selby,http://www.selby.gov.uk,-1.07777200000000,YO8 4EL,2012-02-28,fhrs_5_en-GB,5,,FHRS,0
391294,Dam Lane,Saxton,Tadcaster,,Saxton C E P School,School/college/university,7845,0,,591040,0,,53.82632400000000,PI/000014929,256,info@selby.gov.uk,Selby,http://www.selby.gov.uk,-1.28019100000000,LS24 9QF,2013-10-11,fhrs_5_en-GB,5,,FHRS,0
391295,,,,,Say it with Cake,Other catering premises,7841,0,,700102,0,,,PI/000014113,256,info@selby.gov.uk,Selby,http://www.selby.gov.uk,,,2014-09-05,fhrs_5_en-GB,5,,FHRS,0
391296,Scalm Park,Wistow,Selby,North Yorkshire,Scalm Park Leisure,Pub/bar/nightclub,7843,10,,298720,10,,53.79089800000000,PI/000009711,256,info@selby.gov.uk,Selby,http://www.selby.gov.uk,-1.14289000000000,YO8 3RD,2015-01-12,fhrs_3_en-GB,3,,FHRS,10
391297,Tadcaster Road,Bilbrough,York,North Yorkshire,Scotts Fish and Chips,Takeaway/sandwich shop,7844,10,,298789,10,,54.29682300000000,PI/000024888,256,info@selby.gov.uk,Selby,http://www.selby.gov.uk,-0.41383600000000,YO12 6QR,2014-11-26,fhrs_3_en-GB,3,,FHRS,10
391298,Hirst Road,Carlton,Goole,,Seedlings,Retailers - other,4613,10,,720152,15,,53.70568000000000,PI/000033757,256,info@selby.gov.uk,Selby,http://www.selby.gov.uk,-1.03418500000000,DN14 9PX,2014-11-07,fhrs_2_en-GB,2,,FHRS,15
391299,New Lane,Selby,North Yorkshire,,Selby Abbey C E Primary School,School/college/university,7845,5,,450086,10,,53.78299800000000,PI/000003721,256,info@selby.gov.uk,Selby,http://www.selby.gov.uk,-1.07052000000000,YO8 4QB,2014-03-28,fhrs_4_en-GB,4,,FHRS,5
391300,Bawtry Road,Selby,North Yorkshire,,Selby Auction Market,Other catering premises,7841,0,,384846,5,,53.76988100000000,PI/000005839,256,info@selby.gov.uk,Selby,http://www.selby.gov.uk,-1.06551500000000,YO8 8NB,2014-10-15,fhrs_5_en-GB,5,,FHRS,5
391301,66 Flaxley Road,Selby,North Yorkshire,,Selby Balti House,Retailers - other,4613,10,,450082,10,,53.78594900000000,PI/000003257,256,info@selby.gov.uk,Selby,http://www.selby.gov.uk,-1.07672400000000,YO8 4BW,2014-09-17,fhrs_3_en-GB,3,,FHRS,10
391302,Selby Bowling Club,Baffam Lane,Brayton,Selby,Selby Bowling Club Ltd,Pub/bar/nightclub,7843,0,,547932,0,,53.77151300000000,PI/000006271,256,info@selby.gov.uk,Selby,http://www.selby.gov.uk,-1.07666100000000,YO8 9AZ,2013-05-07,fhrs_5_en-GB,5,,FHRS,5
391303,Scott Road,Selby,North Yorkshire,,Selby Community Centre,Other catering premises,7841,5,,633286,5,,53.78514400000000,PI/000003967,256,info@selby.gov.uk,Selby,http://www.selby.gov.uk,-1.07489000000000,YO8 4BL,2014-02-11,fhrs_5_en-GB,5,,FHRS,0
391304,"Community Centre, Scott Road",Selby,North Yorkshire,,Selby Community Pre-School,School/college/university,7845,5,,638297,5,,53.78514400000000,PI/000023751,256,info@selby.gov.uk,Selby,http://www.selby.gov.uk,-1.07489000000000,YO8 4BL,2014-02-11,fhrs_5_en-GB,5,,FHRS,0
391305,Flaxley Road,Selby,North Yorkshire,,Selby Community Primary School,School/college/university,7845,0,,298686,0,,53.78547200000000,PI/000003290,256,info@selby.gov.uk,Selby,http://www.selby.gov.uk,-1.08014900000000,YO8 4DL,2013-04-16,fhrs_5_en-GB,5,,FHRS,0
391306,Selby Golf Club Ltd,Mill Lane,Brayton,Selby,Selby Golf Club,Other catering premises,7841,5,,547943,5,,53.76045300000000,PI/000030149,256,info@selby.gov.uk,Selby,http://www.selby.gov.uk,-1.11905800000000,YO8 9LD,2014-12-12,fhrs_4_en-GB,4,,FHRS,10
391307,Leeds Road,Selby,North Yorkshire,,Selby High School,School/college/university,7845,0,,450088,0,,53.78072400000000,PI/000005528,256,info@selby.gov.uk,Selby,http://www.selby.gov.uk,-1.07867500000000,YO8 4HT,2014-02-10,fhrs_5_en-GB,5,,FHRS,5
391308,Sandhill Lane,Selby,North Yorkshire,,Selby R.U.F.C.,Pub/bar/nightclub,7843,10,,298704,0,,53.77768800000000,PI/000005628,256,info@selby.gov.uk,Selby,http://www.selby.gov.uk,-1.10027500000000,YO8 4JP,2013-08-06,fhrs_4_en-GB,4,,FHRS,10
391309,"The Maltings, Flaxley Road",Selby,North Yorkshire,,Selby Squash & Leisure Club,Other catering premises,7841,10,,298708,0,,53.78752600000000,PI/000006041,256,info@selby.gov.uk,Selby,http://www.selby.gov.uk,-1.07377500000000,YO8 4BG,2013-11-07,fhrs_4_en-GB,4,,FHRS,10
391310,5 Brook Street,Selby,North Yorkshire,,Selby Store,Retailers - other,4613,10,,547941,10,,53.78177800000000,PI/000028184,256,info@selby.gov.uk,Selby,http://www.selby.gov.uk,-1.07443300000000,YO8 4AL,2013-05-09,fhrs_4_en-GB,4,,FHRS,0
391311,Selby Super Bowl,Unit 1,Bawtry Road,Selby,Selby Superbowl,Restaurant/Cafe/Canteen,1,10,,355598,5,,53.77370600000000,PI/000026640,256,info@selby.gov.uk,Selby,http://www.selby.gov.uk,-1.06509600000000,YO8 8NA,2014-09-05,fhrs_4_en-GB,4,,FHRS,5
391312,Richard Street,Selby,North Yorkshire,,Selby Town Football Club,Retailers - other,4613,10,,464779,10,,,PI/000003939,256,info@selby.gov.uk,Selby,http://www.selby.gov.uk,,YO8 0BS,2014-11-25,fhrs_3_en-GB,3,,FHRS,5
391313,Unit 4 Hurricane Way South,Sherburn In Elmet,Leeds,North Yorkshire,Servest Catering DHL for Debenhams,Restaurant/Cafe/Canteen,1,5,,565228,5,,53.79037200000000,PI/000029913,256,info@selby.gov.uk,Selby,http://www.selby.gov.uk,-1.22276000000000,LS25 6PT,2014-12-11,fhrs_5_en-GB,5,,FHRS,5
391314,47 Kirkgate,Tadcaster West,North Yorkshire,,Shann House Hotel,Other catering premises,7841,10,,638271,0,,53.88431300000000,PI/000015624,256,info@selby.gov.uk,Selby,http://www.selby.gov.uk,-1.26212600000000,LS24 9AQ,2014-03-03,fhrs_4_en-GB,4,,FHRS,0
391315,121 Moat Way,Brayton,Selby,North Yorkshire,Shelley's Cupcakes,Other catering premises,7841,5,,547945,0,,53.77162400000000,PI/000032489,256,info@selby.gov.uk,Selby,http://www.selby.gov.uk,-1.09116400000000,YO8 9TB,2013-04-30,fhrs_5_en-GB,5,,FHRS,0
391316,108 Petre Avenue,Selby,North Yorkshire,,Shell's Bakes,Other catering premises,7841,0,,709121,0,,,PI/000005041,256,info@selby.gov.uk,Selby,http://www.selby.gov.uk,,,2014-10-13,fhrs_5_en-GB,5,,FHRS,0
391317,Garden Lane,Sherburn In Elmet,Leeds,North Yorkshire,Sherburn High School,School/college/university,7845,0,,459904,0,,53.79061800000000,PI/000013195,256,info@selby.gov.uk,Selby,http://www.selby.gov.uk,-1.25730400000000,LS25 6AS,2014-04-28,fhrs_5_en-GB,5,,FHRS,0
391318,North Crescent,Sherburn In Elmet,Leeds,North Yorkshire,Sherburn Hungate CP School,School/college/university,7845,0,,459907,5,,53.80020300000000,PI/000013798,256,info@selby.gov.uk,Selby,http://www.selby.gov.uk,-1.25063600000000,LS25 6DD,2014-04-23,fhrs_5_en-GB,5,,FHRS,5
391319,Spitfire Way,Sherburn In Elmet,Leeds,North Yorkshire,Sherburn Pizzas,Takeaway/sandwich shop,7844,0,,464787,5,,53.79292300000000,PI/000028124,256,info@selby.gov.uk,Selby,http://www.selby.gov.uk,-1.22796500000000,LS25 6NW,2013-08-06,fhrs_5_en-GB,5,,FHRS,5
391320,Chapel Green,Appleton Roebuck,York,,Shoulder of Mutton,Other catering premises,7841,10,,478918,10,,53.87608300000000,PI/000016875,256,info@selby.gov.uk,Selby,http://www.selby.gov.uk,-1.15610200000000,YO23 7DP,2014-05-13,fhrs_3_en-GB,3,,FHRS,10
391321,Main Street,Kirk Smeaton,Pontefract,,Shoulder of Mutton,Pub/bar/nightclub,7843,0,,638225,0,,53.64364100000000,PI/000010860,256,info@selby.gov.uk,Selby,http://www.selby.gov.uk,-1.21630800000000,WF8 3JY,2014-03-11,fhrs_5_en-GB,5,,FHRS,5
391322,11 Low Street,Sherburn In Elmet,Leeds,North Yorkshire,Shun Hing,Takeaway/sandwich shop,7844,0,,298741,5,,53.79723300000000,PI/000013263,256,info@selby.gov.uk,Selby,http://www.selby.gov.uk,-1.25143300000000,LS25 6BG,2014-11-26,fhrs_5_en-GB,5,,FHRS,5
391323,New Country Inns,The Wishing Well,Oakney Wood Road,Selby,Sleeptight Hotels,Hotel/bed & breakfast/guest house,7842,5,,442235,5,,53.76670800000000,PI/000021344,256,info@selby.gov.uk,Selby,http://www.selby.gov.uk,-1.06666300000000,YO8 8LZ,2014-01-15,fhrs_4_en-GB,4,,FHRS,10
391324,20 Bridge Street,Tadcaster West,North Yorkshire,,Sonali Restaurant,Takeaway/sandwich shop,7844,5,,434203,10,,53.88450300000000,PI/000601737,256,info@selby.gov.uk,Selby,http://www.selby.gov.uk,-1.26087500000000,LS24 9AL,2014-01-21,fhrs_3_en-GB,3,,FHRS,10
391325,Sand Lane,South Milford,Leeds,,South Milford C P School,School/college/university,7845,0,,495695,0,,53.77555400000000,PI/000012852,256,info@selby.gov.uk,Selby,http://www.selby.gov.uk,-1.25294200000000,LS25 5AU,2015-01-07,fhrs_5_en-GB,5,,FHRS,0
391326,Mill Lane,South Milford,Leeds,,South Milford Cricket Club,Other catering premises,7841,,,423605,,,53.77956500000000,PI/000012794,256,info@selby.gov.uk,Selby,http://www.selby.gov.uk,-1.24617800000000,LS25 5BL,2012-07-02,fhrs_exempt_en-GB,Exempt,,FHRS,
391327,Heck Basin.Gt.Heck,Heck,Goole,,South Yorkshire Boat Club,Pub/bar/nightclub,7843,5,,298727,5,,53.68097500000000,PI/000010780,256,info@selby.gov.uk,Selby,http://www.selby.gov.uk,-1.11750700000000,DN14 0BL,2014-03-22,fhrs_5_en-GB,5,,FHRS,5
391328,Southlands Service Centre,Low Street,South Milford,Leeds,Southlands Service Centre Ltd,Retailers - other,4613,0,,434189,0,,53.77753700000000,PI/000012741,256,info@selby.gov.uk,Selby,http://www.selby.gov.uk,-1.24814200000000,LS25 5AS,2012-08-03,fhrs_5_en-GB,5,,FHRS,0
391329,9 Low Street,Sherburn In Elmet,Leeds,North Yorkshire,Spar Shop,Retailers - supermarkets/hypermarkets,7840,5,,504359,5,,53.79723300000000,PI/000013304,256,info@selby.gov.uk,Selby,http://www.selby.gov.uk,-1.25143300000000,LS25 6BG,2014-01-07,fhrs_4_en-GB,4,,FHRS,10
391330,Howden Road,Babthorpe,Hemingbrough,Selby,Spuds & Berries,Retailers - other,4613,5,,298801,5,,53.76515500000000,PI/000030711,256,info@selby.gov.uk,Selby,http://www.selby.gov.uk,-0.95992600000000,YO8 6EH,2015-01-06,fhrs_5_en-GB,5,,FHRS,5
391331,Newthorpe,South Milford,Leeds,,Squires Cafe Bar,Restaurant/Cafe/Canteen,1,5,,298740,5,,53.78287506103516,PI/000012807,256,info@selby.gov.uk,Selby,http://www.selby.gov.uk,-1.28891718387604,LS25 5LX,2015-01-14,fhrs_4_en-GB,4,,FHRS,10
391332,Station Road,Tadcaster,North Yorkshire,,St Josephs R C P School,School/college/university,7845,0,,423608,0,,53.88486500000000,PI/000015760,256,info@selby.gov.uk,Selby,http://www.selby.gov.uk,-1.26712100000000,LS24 9JG,2012-06-25,fhrs_5_en-GB,5,,FHRS,0
391333,Baffam Lane,Brayton,Selby,North Yorkshire,St Mary's RCP School,School/college/university,7845,0,,459895,0,,53.77138700000000,PI/000006272,256,info@selby.gov.uk,Selby,http://www.selby.gov.uk,-1.08138300000000,YO8 9AX,2014-05-15,fhrs_5_en-GB,5,,FHRS,5
391334,Dovecote Park Ltd,Stapleton Park,Stapleton,Pontefract,Staff Canteen,Restaurant/Cafe/Canteen,1,10,,539565,5,,53.67078500000000,PI/000601630,256,info@selby.gov.uk,Selby,http://www.selby.gov.uk,-1.23428600000000,WF8 3DD,2014-09-29,fhrs_4_en-GB,4,,FHRS,5
391335,Wm Morrison Supermarkets plc,James Street,Selby,North Yorkshire,Staff Canteen,Restaurant/Cafe/Canteen,1,0,,434201,5,,53.78332200000000,PI/000031867,256,info@selby.gov.uk,Selby,http://www.selby.gov.uk,-1.06949600000000,YO8 4JS,2014-01-24,fhrs_5_en-GB,5,,FHRS,5
391336,John Smiths Brewery,High Street,Tadcaster West,,Staff Restaurant,Other catering premises,7841,5,,504363,5,,53.88236600000000,PI/000015539,256,info@selby.gov.uk,Selby,http://www.selby.gov.uk,-1.26415300000000,LS24 9SA,2015-02-16,fhrs_5_en-GB,5,,FHRS,5
391337,The Tower Brewery,Wetherby Road,Tadcaster West,North Yorkshire,Staff Restaurant,Restaurant/Cafe/Canteen,1,5,,531166,0,,,PI/000015965,256,info@selby.gov.uk,Selby,http://www.selby.gov.uk,,LS24 9SD,2013-04-02,fhrs_5_en-GB,5,,FHRS,0
391338,Audus Street,Selby,North Yorkshire,,Standering Hall,Other catering premises,7841,5,,338880,5,,53.77901300000000,PI/000002892,256,info@selby.gov.uk,Selby,http://www.selby.gov.uk,-1.09725700000000,YO8 4JH,2012-03-09,fhrs_5_en-GB,5,,FHRS,5
391339,8 Wolsey Parade,Sherburn In Elmet,Leeds,North Yorkshire,Starkeys,Retailers - other,4613,0,,384854,5,,53.79670100000000,PI/000014173,256,info@selby.gov.uk,Selby,http://www.selby.gov.uk,-1.25113900000000,LS25 6BQ,2013-12-03,fhrs_5_en-GB,5,,FHRS,5
391340,80 Ousegate,Selby,North Yorkshire,,Station Inn,Pub/bar/nightclub,7843,10,,410553,0,,53.78345800000000,PI/000003801,256,info@selby.gov.uk,Selby,http://www.selby.gov.uk,-1.06266400000000,YO8 8BH,2014-06-14,fhrs_4_en-GB,4,,FHRS,10
391341,Oakside Villa,17 Greenacres,Flaxley Road,Selby,Stephanie Turner,Manufacturers/packers,7839,0,,736127,5,,,PI/000034927,256,info@selby.gov.uk,Selby,http://www.selby.gov.uk,,,2015-02-09,fhrs_5_en-GB,5,,FHRS,0
391342,The School House,Learning Lane,Whitley Bridge,Goole,Sticky Fingers,Hospitals/Childcare/Caring Premises,5,0,,442225,5,,53.69258200000000,PI/000010695,256,info@selby.gov.uk,Selby,http://www.selby.gov.uk,-1.15659400000000,DN14 0WE,2014-03-03,fhrs_5_en-GB,5,,FHRS,5
391343,52 Barlby Road,Barlby,Selby,North Yorkshire,Stop n Shop,Retailers - other,4613,10,,298669,0,,53.78633800000000,PI/000001263,256,info@selby.gov.uk,Selby,http://www.selby.gov.uk,-1.06202300000000,YO8 5AA,2013-11-20,fhrs_4_en-GB,4,,FHRS,5
391344,33 Gowthorpe,Selby,North Yorkshire,,Subway,Retailers - other,4613,10,,423611,5,,53.78157700000000,PI/000018484,256,info@selby.gov.uk,Selby,http://www.selby.gov.uk,-1.01086500000000,YO8 0HE,2013-10-22,fhrs_3_en-GB,3,,FHRS,10
391345,Station Road,Church Fenton,Tadcaster,,Sunar Bangla,Other catering premises,7841,10,,442233,10,,53.82607700000000,PI/000014554,256,info@selby.gov.uk,Selby,http://www.selby.gov.uk,-1.22325400000000,LS24 9RA,2013-07-10,fhrs_2_en-GB,2,,FHRS,15
391346,40A Gowthorpe,Selby,North Yorkshire,,Super Fresh,Retailers - other,4613,10,,648935,10,,53.78392500000000,PI/000033441,256,info@selby.gov.uk,Selby,http://www.selby.gov.uk,-1.07185100000000,YO8 4ET,2014-03-07,fhrs_3_en-GB,3,,FHRS,5
391347,1 Low Street,South Milford,Leeds,,Swan Hotel,Other catering premises,7841,20,,384853,15,,53.77900000000000,PI/000012704,256,info@selby.gov.uk,Selby,http://www.selby.gov.uk,-1.24782700000000,LS25 5AR,2014-07-09,fhrs_1_en-GB,1,,FHRS,15
391348,Doncaster Road,Brayton,Selby,,Swan Inn,Pub/bar/nightclub,7843,5,,338887,5,,53.76849500000000,PI/000006406,256,info@selby.gov.uk,Selby,http://www.selby.gov.uk,-1.08895500000000,Y08 9EG,2015-01-21,fhrs_5_en-GB,5,,FHRS,5
391349,Ings Lane,Tadcaster West,North Yorkshire,,Tadcaster Albion F C,Retailers - other,4613,10,,520629,15,,53.88242500000000,PI/000016172,256,info@selby.gov.uk,Selby,http://www.selby.gov.uk,-1.25768700000000,LS24 9AY,2013-03-05,fhrs_2_en-GB,2,,FHRS,0
391350,St Josephs Street,Tadcaster West,Norths Yorkshire,,Tadcaster Bowling Club,Other catering premises,7841,10,,298766,0,,53.88409900000000,PI/000015847,256,info@selby.gov.uk,Selby,http://www.selby.gov.uk,-1.26523300000000,LS24 9HA,2012-03-14,fhrs_4_en-GB,4,,FHRS,5
391351,Grange Avenue,Tadcaster,North Yorkshire,,Tadcaster East C P School,School/college/university,7845,0,,423610,0,,53.88651900000000,PI/000016307,256,info@selby.gov.uk,Selby,http://www.selby.gov.uk,-1.25393200000000,LS24 8AN,2014-06-17,fhrs_5_en-GB,5,,FHRS,5
391352,Toulston Lane,Tadcaster West,North Yorkshire,,Tadcaster Grammar School,School/college/university,7845,0,,298768,0,,53.87786800000000,PI/000016109,256,info@selby.gov.uk,Selby,http://www.selby.gov.uk,-1.30735500000000,LS24 9NB,2014-01-06,fhrs_5_en-GB,5,,FHRS,5
391353,14 Oxton Drive,Tadcaster,North Yorkshire,,Tadcaster Ices,Mobile caterer,7846,5,,338893,0,,53.88440900000000,PI/000016420,256,info@selby.gov.uk,Selby,http://www.selby.gov.uk,-1.25290500000000,LS24 8AH,2012-03-29,fhrs_5_en-GB,5,,FHRS,0
391354,The Pavillion,Queens Gardens,Tadcaster West,North Yorkshire,Tadcaster Magnet Sports & Soc. Club,Pub/bar/nightclub,7843,5,,648938,5,,53.88123400000000,PI/000033931,256,info@selby.gov.uk,Selby,http://www.selby.gov.uk,-1.26720000000000,LS24 9HD,2014-03-27,fhrs_5_en-GB,5,,FHRS,5
391355,The Bungalow,Grange Avenue,Tadcaster,North Yorkshire,Taddy Tadpoles,School/college/university,7845,5,,648937,5,,53.88651900000000,PI/000033883,256,info@selby.gov.uk,Selby,http://www.selby.gov.uk,-1.25393200000000,LS24 8AN,2014-04-01,fhrs_4_en-GB,4,,FHRS,10
391356,4 Commercial Street,Tadcaster,North Yorkshire,,Tadkebab,Takeaway/sandwich shop,7844,5,,384855,10,,53.88593600000000,PI/000016266,256,info@selby.gov.uk,Selby,http://www.selby.gov.uk,-1.25856800000000,LS24 8AA,2013-10-14,fhrs_3_en-GB,3,,FHRS,10
391357,8 Templar Way,Brayton,Selby,North Yorkshire,Taste Sensation,Mobile caterer,7846,5,,732753,0,,53.77010700000000,PI/000028419,256,info@selby.gov.uk,Selby,http://www.selby.gov.uk,-1.07505300000000,YO8 9XH,2015-01-21,fhrs_5_en-GB,5,,FHRS,0
391358,44 Flaxley Road,Selby,North Yorkshire,,Tasty Hot Pizza,Takeaway/sandwich shop,7844,10,,491850,10,,53.78594900000000,PI/000028914,256,info@selby.gov.uk,Selby,http://www.selby.gov.uk,-1.07672400000000,YO8 4BW,2014-06-12,fhrs_3_en-GB,3,,FHRS,5
391359,Main Road,Temple Hirst,Selby,North Yorkshire,Temple Manor Nursing Home,Other catering premises,7841,0,,298799,0,,53.71787400000000,PI/000029946,256,info@selby.gov.uk,Selby,http://www.selby.gov.uk,-1.08653400000000,YO8 8QN,2014-09-29,fhrs_5_en-GB,5,,FHRS,5
391360,Unit 4,Low Street,Sherburn In Elmet,Leeds,Tesco,Retailers - supermarkets/hypermarkets,7840,0,,491848,5,,53.79723300000000,PI/000013322,256,info@selby.gov.uk,Selby,http://www.selby.gov.uk,-1.25143300000000,LS25 6BG,2012-12-17,fhrs_5_en-GB,5,,FHRS,0
391361,"Tesco Express, Doncaster Road",Brayton,Selby,North Yorkshire,Tesco Express,Retailers - supermarkets/hypermarkets,7840,5,,298783,0,,53.76876600000000,PI/000023476,256,info@selby.gov.uk,Selby,http://www.selby.gov.uk,-1.08890400000000,YO8 9EG,2015-02-10,fhrs_5_en-GB,5,,FHRS,0
391362,19 Portholme Road,Selby,North Yorkshire,,Tesco Stores Ltd,Retailers - supermarkets/hypermarkets,7840,0,,410554,5,,53.78081400000000,PI/000003888,256,info@selby.gov.uk,Selby,http://www.selby.gov.uk,-1.06712400000000,YO8 4QQ,2013-12-05,fhrs_5_en-GB,5,,FHRS,0
391363,3 Abbey Walk,Selby,North Yorkshire,,Thai Sunshine,Other catering premises,7841,5,,434197,10,,53.78447700000000,PI/000029291,256,info@selby.gov.uk,Selby,http://www.selby.gov.uk,-1.07006300000000,YO8 4DZ,2013-10-31,fhrs_3_en-GB,3,,FHRS,10
391364,Main Street,Escrick,York,,The Black Bull Inn,Other catering premises,7841,10,,384842,10,,,PI/000000215,256,info@selby.gov.uk,Selby,http://www.selby.gov.uk,,Y019 6JP,2014-06-30,fhrs_3_en-GB,3,,FHRS,10
391365,Black Dog Inn,Selby Road,Camblesforth,Selby,The Black Dog,Other catering premises,7841,10,,442221,5,,53.72747800000000,PI/000007458,256,info@selby.gov.uk,Selby,http://www.selby.gov.uk,-1.02876000000000,YO8 8HX,2014-10-15,fhrs_4_en-GB,4,,FHRS,5
391366,19 Low Street,Sherburn In Elmet,Leeds,North Yorkshire,The Bon,Other catering premises,7841,0,,298742,0,,53.79723300000000,PI/000013269,256,info@selby.gov.uk,Selby,http://www.selby.gov.uk,-1.25143300000000,LS25 6BG,2013-08-21,fhrs_5_en-GB,5,,FHRS,5
391367,Main Street,Hemingbrough,Selby,,The Bread Bin,Retailers - other,4613,5,,298680,5,,53.76879900000000,PI/000002629,256,info@selby.gov.uk,Selby,http://www.selby.gov.uk,-0.97918100000000,YO8 6QE,2014-12-16,fhrs_5_en-GB,5,,FHRS,5
391368,2 Mill Lane,Brayton,Selby,North Yorkshire,The Bumblebee Bakery,Other catering premises,7841,5,,298803,5,,53.76346500000000,PI/000030766,256,info@selby.gov.uk,Selby,http://www.selby.gov.uk,-1.09751400000000,YO8 9LB,2012-02-29,fhrs_5_en-GB,5,,FHRS,5
391369,New Selby War Memorial,Doncaster Road,Selby,North Yorkshire.,The Coffee Shop,Hospitals/Childcare/Caring Premises,5,0,,504366,0,,53.77768100000000,PI/000030313,256,info@selby.gov.uk,Selby,http://www.selby.gov.uk,-1.07808900000000,YO8 9BX,2014-08-08,fhrs_5_en-GB,5,,FHRS,0
391370,Selby Garden Centre,Hull Road,Osgodby,Selby,The Coffee Shop,Retailers - other,4613,5,,423599,0,,53.79654800000000,PI/000001482,256,info@selby.gov.uk,Selby,http://www.selby.gov.uk,-1.03137100000000,YO8 5HG,2014-06-19,fhrs_5_en-GB,5,,FHRS,5
391371,Park Lane,Womersley,Doncaster,,The Court Yard,Takeaway/sandwich shop,7844,0,,531169,0,,53.66691500000000,PI/000030020,256,info@selby.gov.uk,Selby,http://www.selby.gov.uk,-1.19912200000000,DN6 9BD,2014-10-13,fhrs_5_en-GB,5,,FHRS,0
391372,Cross Keys Inn,The Square,Hillam,Leeds,The Cross Keys,Other catering premises,7841,20,,298737,15,,53.75340200000000,PI/000012266,256,info@selby.gov.uk,Selby,http://www.selby.gov.uk,-1.23078300000000,LS25 5HE,2014-08-28,fhrs_1_en-GB,1,,FHRS,5
391373,75 Main Street,Monk Fryston,Leeds,,The Crown Inn,Other catering premises,7841,10,,442226,10,,53.76239500000000,PI/000012390,256,info@selby.gov.uk,Selby,http://www.selby.gov.uk,-1.23588200000000,LS25 5DU,2014-07-22,fhrs_3_en-GB,3,,FHRS,10
391374,Petre Avenue,Selby,North Yorkshire,,The Cunliffe Centre,Other catering premises,7841,5,,638180,5,,,PI/000005086,256,info@selby.gov.uk,Selby,http://www.selby.gov.uk,,,2014-02-12,fhrs_5_en-GB,5,,FHRS,5
391375,Drovers Arms,York Road,Skipwith,Selby,The Drovers Arms,Other catering premises,7841,10,,434176,10,,53.83964200000000,PI/000000407,256,info@selby.gov.uk,Selby,http://www.selby.gov.uk,-0.99261100000000,YO8 5SF,2014-01-30,fhrs_3_en-GB,3,,FHRS,10
391376,Fulham House Farm,Fulham Lane,Whitley Bridge,Goole,The Farm Cafe Ltd,Retailers - other,4613,10,,406136,15,,53.67295000000000,PI/000010585,256,info@selby.gov.uk,Selby,http://www.selby.gov.uk,-1.15903000000000,DN14 0JL,2014-05-16,fhrs_2_en-GB,2,,FHRS,10
391377,Brears Farm Nurseries,Kellingley Road,Knottingley,,The Farmers Kitchen,Restaurant/Cafe/Canteen,1,5,,700104,10,,53.70914700000000,PI/000034332,256,info@selby.gov.uk,Selby,http://www.selby.gov.uk,-1.20788000000000,WF11 8DL,2014-09-03,fhrs_4_en-GB,4,,FHRS,5
391378,Church Hill,Wistow,Selby,North Yorkshire,The Fish Shop,Other catering premises,7841,0,,464781,0,,53.81101600000000,PI/000009592,256,info@selby.gov.uk,Selby,http://www.selby.gov.uk,-1.10030500000000,YO8 3UT,2014-05-08,fhrs_5_en-GB,5,,FHRS,0
391379,Fox Inn,Leeds Road,Thorpe Willoughby,Selby,The Fox Inn,Other catering premises,7841,5,,495688,5,,53.77443100000000,PI/000008984,256,info@selby.gov.uk,Selby,http://www.selby.gov.uk,-1.12661000000000,YO8 9LX,2014-11-04,fhrs_5_en-GB,5,,FHRS,0
391380,47A Gowthorpe,Selby,North Yorkshire,,The Giant Bellflower,Other catering premises,7841,0,,531170,5,,53.78357300000000,PI/000031650,256,info@selby.gov.uk,Selby,http://www.selby.gov.uk,-1.07173700000000,YO8 4HE,2014-09-12,fhrs_5_en-GB,5,,FHRS,0
391381,28 Bridge Street,Tadcaster West,North Yorkshire,,The Granary,Other catering premises,7841,5,,454708,5,,53.88450300000000,PI/000019537,256,info@selby.gov.uk,Selby,http://www.selby.gov.uk,-1.26087500000000,LS24 9AL,2014-04-10,fhrs_4_en-GB,4,,FHRS,10
391382,28 Leeds Road,Selby,North Yorkshire,,The Grange Care Centre,Hospitals/Childcare/Caring Premises,5,10,,298703,10,,53.78062500000000,PI/000005484,256,info@selby.gov.uk,Selby,http://www.selby.gov.uk,-1.06595900000000,YO8 4NZ,2013-11-19,fhrs_3_en-GB,3,,FHRS,5
391383,Grey Horse,Doncaster Road,Brayton,Selby,The Grey Horse,Other catering premises,7841,10,,338886,5,,53.76644100000000,PI/000006389,256,info@selby.gov.uk,Selby,http://www.selby.gov.uk,-1.09156400000000,YO8 9HD,2014-10-13,fhrs_4_en-GB,4,,FHRS,5
391384,Main Street,Saxton,Tadcaster,,The Greyhound Inn,Pub/bar/nightclub,7843,5,,638263,5,,53.82496500000000,PI/000014949,256,info@selby.gov.uk,Selby,http://www.selby.gov.uk,-1.27843700000000,LS24 9PY,2014-03-03,fhrs_5_en-GB,5,,FHRS,0
391385,42 Micklegate,Selby,North Yorkshire,,The Griffin,Pub/bar/nightclub,7843,0,,481725,0,,,PI/000003548,256,info@selby.gov.uk,Selby,http://www.selby.gov.uk,,YO8 0EQ,2013-07-05,fhrs_5_en-GB,5,,FHRS,5
391386,34 Brook Street,Selby,North Yorkshire,,The Hazeldene Guest House,Hotel/bed & breakfast/guest house,7842,10,,638166,10,,53.78099600000000,PI/000002938,256,info@selby.gov.uk,Selby,http://www.selby.gov.uk,-1.07555800000000,YO8 4AR,2014-03-17,fhrs_4_en-GB,4,,FHRS,0
391387,105 Main Road,Drax,Selby,North Yorkshire,The Huntsman,Pub/bar/nightclub,7843,10,,442222,0,,53.72893200000000,PI/000007587,256,info@selby.gov.uk,Selby,http://www.selby.gov.uk,-0.97981300000000,YO8 8NT,2014-01-13,fhrs_4_en-GB,4,,FHRS,5
391388,Jackdaw,Stutton Road,Tadcaster West,North Yorkshire,The Jackdaw,Other catering premises,7841,10,,464789,10,,53.87584400000000,PI/000029658,256,info@selby.gov.uk,Selby,http://www.selby.gov.uk,-1.27196400000000,LS24 9HJ,2014-05-08,fhrs_2_en-GB,2,,FHRS,15
391389,Market Place,Cawood,Selby,North Yorkshire,The Jolly Sailor,Pub/bar/nightclub,7843,5,,442238,10,,53.83293400000000,PI/000028166,256,info@selby.gov.uk,Selby,http://www.selby.gov.uk,-1.13015000000000,YO8 3SR,2014-01-15,fhrs_3_en-GB,3,,FHRS,10
391390,Marsh Lane,Beal,Goole,,The Kings Arms,Other catering premises,7841,0,,683432,5,,53.72338700000000,PI/000034177,256,info@selby.gov.uk,Selby,http://www.selby.gov.uk,-1.19344200000000,DN14 0SL,2014-06-25,fhrs_5_en-GB,5,,FHRS,0
391391,8 Brook Street,Selby,North Yorkshire,,The Little Coffee House,Takeaway/sandwich shop,7844,5,,624486,10,,53.78099600000000,PI/000033346,256,info@selby.gov.uk,Selby,http://www.selby.gov.uk,-1.07555800000000,YO8 4AR,2014-01-02,fhrs_4_en-GB,4,,FHRS,5
391392,3 High Street,Tadcaster West,North Yorkshire,,The Little Delicatessen,Retailers - other,4613,0,,298757,0,,53.88345000000000,PI/000015528,256,info@selby.gov.uk,Selby,http://www.selby.gov.uk,-1.26201900000000,LS24 9AP,2013-04-02,fhrs_5_en-GB,5,,FHRS,5
391393,4 Gowthorpe,Selby,North Yorkshire,,The New Inn,Pub/bar/nightclub,7843,20,,511176,20,,53.78392500000000,PI/000003390,256,info@selby.gov.uk,Selby,http://www.selby.gov.uk,-1.07185100000000,YO8 4ET,2013-10-25,fhrs_0_en-GB,0,,FHRS,20
391394,York Road,Cliffe,Selby,North Yorkshire,The New Inn,Pub/bar/nightclub,7843,10,,555035,5,,53.78093600000000,PI/000002331,256,info@selby.gov.uk,Selby,http://www.selby.gov.uk,-0.99646000000000,YO8 6NN,2013-05-29,fhrs_3_en-GB,3,,FHRS,10
391395,Main Street,Hemingbrough,Selby,North Yorkshire,The Old Hall,Retailers - other,4613,0,,638164,0,,,PI/000002632,256,info@selby.gov.uk,Selby,http://www.selby.gov.uk,,,2014-03-04,fhrs_5_en-GB,5,,FHRS,0
391396,Ash Lane,Church Fenton,Tadcaster,,The Old Park Plantation,Mobile caterer,7846,0,,550778,10,,,PI/000029712,256,info@selby.gov.uk,Selby,http://www.selby.gov.uk,,,2013-05-13,fhrs_4_en-GB,4,,FHRS,5
391397,London Road,Saxton,Tadcaster,,The Old Presbytery,Hotel/bed & breakfast/guest house,7842,5,,638262,5,,53.82283200000000,PI/000014938,256,info@selby.gov.uk,Selby,http://www.selby.gov.uk,-1.25880100000000,LS24 9PU,2014-03-17,fhrs_5_en-GB,5,,FHRS,5
391398,The Old Vicarage,Main Street,Kellington,Goole,The Old Vicarage Guest House,Hotel/bed & breakfast/guest house,7842,10,,638233,5,,,PI/000011944,256,info@selby.gov.uk,Selby,http://www.selby.gov.uk,,,2014-03-11,fhrs_4_en-GB,4,,FHRS,5
391399,York Road,Escrick,York,,The Parsonage Country House Hotel,Hotel/bed & breakfast/guest house,7842,0,,531160,0,,53.87924700000000,PI/000000336,256,info@selby.gov.uk,Selby,http://www.selby.gov.uk,-1.04575300000000,YO19 6LF,2013-04-03,fhrs_5_en-GB,5,,FHRS,5
391400,Plough Inn,Main Street,Burton Salmon,Leeds,The Plough Inn,Other catering premises,7841,0,,555039,0,,53.74055400000000,PI/000012101,256,info@selby.gov.uk,Selby,http://www.selby.gov.uk,-1.25582200000000,LS25 5JS,2013-05-31,fhrs_5_en-GB,5,,FHRS,5
391401,Tadcaster West,North Yorkshire,,,The Queens High Street,Pub/bar/nightclub,7843,10,,371855,5,,53.88236618041992,PI/000018048,256,info@selby.gov.uk,Selby,http://www.selby.gov.uk,-1.26415300369263,LS24 9SA,2014-05-08,fhrs_2_en-GB,2,,FHRS,15
391402,Cliffe Common,Cliffe,Selby,North Yorkshire,The Ranch Caravan Park,Retailers - other,4613,10,,355585,0,,53.79561800000000,PI/000002184,256,info@selby.gov.uk,Selby,http://www.selby.gov.uk,-0.99800800000000,YO8 6PA,2014-01-13,fhrs_4_en-GB,4,,FHRS,5
391403,1 Ings Lane,Kellington,Goole,,The Red Lion,Pub/bar/nightclub,7843,10,,638232,10,,,PI/000011905,256,info@selby.gov.uk,Selby,http://www.selby.gov.uk,,DN14 ONT,2014-12-16,fhrs_3_en-GB,3,,FHRS,10
391404,Landing Lane,Riccall,York,,The Regen Centre,Other catering premises,7841,0,,430326,5,,53.83042900000000,PI/000000927,256,info@selby.gov.uk,Selby,http://www.selby.gov.uk,-1.06131200000000,YO19 6PW,2014-06-19,fhrs_5_en-GB,5,,FHRS,5
391405,Selby College,Abbots Road,Selby,North Yorkshire,The Restaurant,Other catering premises,7841,0,,511181,5,,53.77507400000000,PI/000032586,256,info@selby.gov.uk,Selby,http://www.selby.gov.uk,-1.05156100000000,YO8 8AT,2014-09-18,fhrs_5_en-GB,5,,FHRS,0
391406,70 Ousegate,Selby,North Yorkshire,,The Riverside,Pub/bar/nightclub,7843,0,,338884,0,,53.78423600000000,PI/000003800,256,info@selby.gov.uk,Selby,http://www.selby.gov.uk,-1.06448300000000,YO8 4NJ,2013-03-28,fhrs_4_en-GB,4,,FHRS,10
391407,Main Street,Towton,Tadcaster,,The Rockingham Arms,Pub/bar/nightclub,7843,5,,504365,10,,53.84989000000000,PI/000030164,256,info@selby.gov.uk,Selby,http://www.selby.gov.uk,-1.26384100000000,LS24 9PB,2014-09-16,fhrs_4_en-GB,4,,FHRS,0
391408,Main Street,Appleton Roebuck,York,,The Roebuck Inn,Other catering premises,7841,5,,450104,5,,53.87332200000000,PI/000016931,256,info@selby.gov.uk,Selby,http://www.selby.gov.uk,-1.16103900000000,YO23 7DG,2014-03-03,fhrs_5_en-GB,5,,FHRS,0
391409,Main Road,Hirst Courtney,Selby,North Yorkshire,The Royal Oak Inn,Other catering premises,7841,10,,450092,5,,53.71345200000000,PI/000007836,256,info@selby.gov.uk,Selby,http://www.selby.gov.uk,-1.07479600000000,YO8 8QT,2014-12-12,fhrs_3_en-GB,3,,FHRS,10
391410,Main Street,Ryther,Tadcaster,,The Rythre Arms,Other catering premises,7841,0,,504362,5,,53.84655200000000,PI/000014810,256,info@selby.gov.uk,Selby,http://www.selby.gov.uk,-1.16189400000000,LS24 9EE,2014-07-28,fhrs_5_en-GB,5,,FHRS,5
391411,25 Water Lane,Monk Fryston,Leeds,North Yorkshire,The School House,Other catering premises,7841,,,606673,,,53.76070100000000,PI/000018361,256,info@selby.gov.uk,Selby,http://www.selby.gov.uk,-1.23231800000000,LS25 5DZ,2013-10-23,fhrs_exempt_en-GB,Exempt,,FHRS,
391412,Sloop Inn,Main Road,Temple Hirst,Selby,The Sloop Inn,Other catering premises,7841,20,,459896,10,,53.71815900000000,PI/000007770,256,info@selby.gov.uk,Selby,http://www.selby.gov.uk,-1.08736100000000,YO8 8QN,2014-06-26,fhrs_1_en-GB,1,,FHRS,15
391413,Doncaster Road,Burn,Selby,North Yorkshire,The Snack Box,Other catering premises,7841,10,,706363,10,,53.75430900000000,PI/000034529,256,info@selby.gov.uk,Selby,http://www.selby.gov.uk,-1.09545100000000,YO8 8LA,2014-09-29,fhrs_3_en-GB,3,,FHRS,10
391414,The Windmill,Landing Lane,Riccall,York,The Spice Mill,Takeaway/sandwich shop,7844,10,,371856,5,,53.82882300000000,PI/000024805,256,info@selby.gov.uk,Selby,http://www.selby.gov.uk,-1.07210500000000,YO19 6TJ,2012-12-17,fhrs_3_en-GB,3,,FHRS,10
391415,1 Low Street,Sherburn In Elmet,Leeds,North Yorkshire,The Swan,Pub/bar/nightclub,7843,5,,430333,0,,53.79723300000000,PI/000013261,256,info@selby.gov.uk,Selby,http://www.selby.gov.uk,-1.25143300000000,LS25 6BG,2012-07-06,fhrs_4_en-GB,4,,FHRS,10
391416,17 Westgate,Tadcaster,North Yorkshire,,The Tea Lounge,Other catering premises,7841,5,,450106,10,,53.88506600000000,PI/000022832,256,info@selby.gov.uk,Selby,http://www.selby.gov.uk,-1.26476000000000,LS24 9JB,2014-03-27,fhrs_4_en-GB,4,,FHRS,5
391417,Old Great North Road,Brotherton,Knottingley,,The Thaal,Takeaway/sandwich shop,7844,5,,450109,10,,53.72742200000000,PI/000601964,256,info@selby.gov.uk,Selby,http://www.selby.gov.uk,-1.26754200000000,WF11 9EE,2014-07-16,fhrs_4_en-GB,4,,FHRS,5
391418,Lyngarth,28 Main Street,Escrick,York,The Thought of Food,Other catering premises,7841,0,,298661,5,,53.87748300000000,PI/000000191,256,info@selby.gov.uk,Selby,http://www.selby.gov.uk,-1.04427200000000,YO19 6UQ,2013-08-13,fhrs_5_en-GB,5,,FHRS,0
391419,23 Church Hill,Selby,North Yorkshire,,The Three Swans,Pub/bar/nightclub,7843,5,,491846,0,,53.78502200000000,PI/000003038,256,info@selby.gov.uk,Selby,http://www.selby.gov.uk,-1.06616500000000,YO8 4PL,2013-09-16,fhrs_5_en-GB,5,,FHRS,5
391420,1 Gowthorpe,Selby,North Yorkshire,,The Treehouse,Other catering premises,7841,10,,700105,10,,53.78357300000000,PI/000034509,256,info@selby.gov.uk,Selby,http://www.selby.gov.uk,-1.07173700000000,YO8 4HE,2014-09-01,fhrs_3_en-GB,3,,FHRS,5
391421,25 Sand Lane,South Milford,Leeds,,The Village Store,Retailers - other,4613,5,,355592,0,,53.77555400000000,PI/000012821,256,info@selby.gov.uk,Selby,http://www.selby.gov.uk,-1.25294200000000,LS25 5AU,2014-04-15,fhrs_5_en-GB,5,,FHRS,5
391422,Hull Road,Hemingbrough,Selby,North Yorkshire,The Yorkshire Fryer,Other catering premises,7841,20,,355602,10,,53.76863000000000,PI/000601321,256,info@selby.gov.uk,Selby,http://www.selby.gov.uk,-0.97197800000000,YO8 6QJ,2015-01-11,fhrs_1_en-GB,1,,FHRS,15
391423,22 Gowthorpe,Selby,North Yorkshire,,Thomas The Baker,Retailers - other,4613,5,,423602,5,,53.78392500000000,PI/000003366,256,info@selby.gov.uk,Selby,http://www.selby.gov.uk,-1.07185100000000,YO8 4ET,2013-11-20,fhrs_5_en-GB,5,,FHRS,5
391424,County Primary School,Londesborough Grove,Thorpe Willoughby,Selby,Thorpe Willoughby CP School,School/college/university,7845,0,,495689,0,,,PI/000009022,256,info@selby.gov.uk,Selby,http://www.selby.gov.uk,,Y08 9NX,2015-01-09,fhrs_5_en-GB,5,,FHRS,5
391425,Silver Street,Fairburn,Knottingley,,Three Horse Shoes,Other catering premises,7841,0,,495693,0,,53.74371800000000,PI/000011185,256,info@selby.gov.uk,Selby,http://www.selby.gov.uk,-1.28549900000000,WF11 9JA,2013-01-08,fhrs_5_en-GB,5,,FHRS,0
391426,High Street,Brotherton,Knottingley,,Three Horseshoes,Pub/bar/nightclub,7843,0,,610540,0,,53.72859100000000,PI/000011270,256,info@selby.gov.uk,Selby,http://www.selby.gov.uk,-1.27205400000000,WF11 9EY,2013-11-08,fhrs_5_en-GB,5,,FHRS,5
391427,107 High Street,South Milford,Leeds,,Tiffin Fodder,Other catering premises,7841,5,,384852,0,,53.78053900000000,PI/000012623,256,info@selby.gov.uk,Selby,http://www.selby.gov.uk,-1.25535700000000,LS25 5AG,2012-05-10,fhrs_5_en-GB,5,,FHRS,0
391428,Poplar House,The Maltings,Main Street,Appleton Roebuck,Tikk's Thai Kitchen,Takeaway/sandwich shop,7844,5,,628261,0,,53.87332200000000,PI/000016927,256,info@selby.gov.uk,Selby,http://www.selby.gov.uk,-1.16103900000000,YO23 7DG,2014-01-24,fhrs_5_en-GB,5,,FHRS,0
391429,4 Park Row,Selby,North Yorkshire,,Tiny Tots,Other catering premises,7841,10,,628264,0,,,PI/000033245,256,info@selby.gov.uk,Selby,http://www.selby.gov.uk,,,2014-01-21,fhrs_4_en-GB,4,,FHRS,5
391430,76 Moat Way,Brayton,Selby,North Yorkshire,TJ's Pic N Mix Catering,Other catering premises,7841,0,,464788,0,,53.77118000000000,PI/000029192,256,info@selby.gov.uk,Selby,http://www.selby.gov.uk,-1.09070300000000,YO8 9TE,2012-11-06,fhrs_5_en-GB,5,,FHRS,5
391431,32 Hudson Way,Tadcaster East,North Yorkshire,,Top Dogs Hot Dogs UK,Other catering premises,7841,10,,624485,0,,53.89003200000000,PI/000024186,256,info@selby.gov.uk,Selby,http://www.selby.gov.uk,-1.25810000000000,LS24 8JF,2014-01-13,fhrs_4_en-GB,4,,FHRS,0
391432,154 Springfield Road,Sherburn In Elmet,Leeds,North Yorkshire,Top Nosh,Other catering premises,7841,10,,706361,10,,53.80083700000000,PI/000019007,256,info@selby.gov.uk,Selby,http://www.selby.gov.uk,-1.24711800000000,LS25 6DE,2014-10-07,fhrs_3_en-GB,3,,FHRS,10
391433,12a Barff Grove,Barff Grove,Thorpe Willoughby,Selby,Top Table Catering,Other catering premises,7841,0,,555037,0,,53.77277500000000,PI/000008742,256,info@selby.gov.uk,Selby,http://www.selby.gov.uk,-1.12506600000000,YO8 9LZ,2013-05-31,fhrs_5_en-GB,5,,FHRS,5
391434,Wren Hall Farm,Wren Hall Lane,Drax,Selby,Truly Scrumptious,Retailers - other,4613,10,,709122,5,,,PI/000007681,256,info@selby.gov.uk,Selby,http://www.selby.gov.uk,,,2014-10-16,fhrs_3_en-GB,3,,FHRS,10
391435,12 Leeds Road,Selby,North Yorkshire,,Tudor House Care Home,Hospitals/Childcare/Caring Premises,5,20,,298702,15,,53.78149645000000,PI/000005455,256,info@selby.gov.uk,Selby,http://www.selby.gov.uk,-1.07937372000000,Y08 0JD,2014-11-18,fhrs_1_en-GB,1,,FHRS,10
391436,Salvation Army,12a Back Park Street,Selby,North Yorkshire,Tuesday Kitchen,Other catering premises,7841,10,,547947,10,,53.78268300000000,PI/000032595,256,info@selby.gov.uk,Selby,http://www.selby.gov.uk,-1.06709700000000,YO8 4PW,2013-05-14,fhrs_4_en-GB,4,,FHRS,0
391437,Whitley Lodge,Doncaster Road,Whitley,,Tunstall Telecom,Restaurant/Cafe/Canteen,1,20,,504356,15,,53.69140200000000,PI/000010576,256,info@selby.gov.uk,Selby,http://www.selby.gov.uk,-1.15493700000000,DN14 0HR,2014-07-29,fhrs_1_en-GB,1,,FHRS,5
391438,14-16 New Street,Selby,North Yorkshire,,Tutti's Pizza,Takeaway/sandwich shop,7844,10,,384857,5,,53.78435300000000,PI/000025051,256,info@selby.gov.uk,Selby,http://www.selby.gov.uk,-1.06567900000000,YO8 4PT,2013-10-21,fhrs_3_en-GB,3,,FHRS,10
391439,2 Doncaster Road,Selby,North Yorkshire.,,Two Stop Shop,Retailers - supermarkets/hypermarkets,7840,0,,298701,0,,53.77881600000000,PI/000005321,256,info@selby.gov.uk,Selby,http://www.selby.gov.uk,-1.07722900000000,YO8 9BY,2013-04-02,fhrs_5_en-GB,5,,FHRS,0
391440,18 High Street,Tadcaster West,North Yorkshire,,Tykes Tea Rooms,Restaurant/Cafe/Canteen,1,5,,338896,5,,53.88361500000000,PI/000017358,256,info@selby.gov.uk,Selby,http://www.selby.gov.uk,-1.26251900000000,LS24 9AT,2014-01-06,fhrs_4_en-GB,4,,FHRS,10
391441,Kellingley Colliery,Kellingley Road,Knottingley,,UK Coal Mining Limited,Restaurant/Cafe/Canteen,1,10,,298735,10,,53.70762600000000,PI/000011825,256,info@selby.gov.uk,Selby,http://www.selby.gov.uk,-1.20621200000000,WF11 8DT,2014-12-18,fhrs_3_en-GB,3,,FHRS,10
391442,Church Fenton Lane,Ulleskelf,Tadcaster,,Ulleskelf Arms,Pub/bar/nightclub,7843,20,,459912,5,,53.85311400000000,PI/000029604,256,info@selby.gov.uk,Selby,http://www.selby.gov.uk,-1.21232500000000,LS24 9DW,2014-04-22,fhrs_1_en-GB,1,,FHRS,5
391443,Main Street,Ulleskelf,Tadcaster,,Ulleskelf Post Office,Retailers - other,4613,5,,464783,0,,53.85465400000000,PI/000014697,256,info@selby.gov.uk,Selby,http://www.selby.gov.uk,-1.21003100000000,LS24 9DU,2012-11-09,fhrs_5_en-GB,5,,FHRS,5
391444,15 Bondgate,Selby,North Yorkshire,,Unicorn Inn,Pub/bar/nightclub,7843,10,,638178,5,,53.78936900000000,PI/000004037,256,info@selby.gov.uk,Selby,http://www.selby.gov.uk,-1.07382500000000,YO8 3LS,2014-03-20,fhrs_4_en-GB,4,,FHRS,5
391445,The Maltings Industrial Estate,Doncaster Road,Whitley,Goole,Unit 6,Takeaway/sandwich shop,7844,10,,671484,15,,53.69889000000000,PI/000033960,256,info@selby.gov.uk,Selby,http://www.selby.gov.uk,-1.16022400000000,DN14 0HH,2014-06-09,fhrs_2_en-GB,2,,FHRS,10
391446,,,,,Vee's Cakes,Retailers - other,4613,5,,628265,5,,,PI/000033421,256,info@selby.gov.uk,Selby,http://www.selby.gov.uk,,,2014-01-28,fhrs_5_en-GB,5,,FHRS,0
391447,5 Bridge Street,Tadcaster West,North Yorkshire,,Venice Pizza & Spice Garden,Takeaway/sandwich shop,7844,10,,410556,5,,53.88427700000000,PI/000015302,256,info@selby.gov.uk,Selby,http://www.selby.gov.uk,-1.26057500000000,LS24 9AW,2014-03-20,fhrs_3_en-GB,3,,FHRS,10
391448,Drax Power/Shepherd Construction,Brigg Lane,Camblesforth,,Victoria Site Catering,Restaurant/Cafe/Canteen,1,0,,430340,5,,53.73059500000000,PI/000031794,256,info@selby.gov.uk,Selby,http://www.selby.gov.uk,-0.99468800000000,YO8 8PH,2014-01-21,fhrs_5_en-GB,5,,FHRS,5
391449,11 Gowthorpe,Selby,North Yorkshire,,W H Smiths,Retailers - other,4613,,,450083,,,53.78357300000000,PI/000003325,256,info@selby.gov.uk,Selby,http://www.selby.gov.uk,-1.07173700000000,YO8 4HE,2012-08-31,fhrs_exempt_en-GB,Exempt,,FHRS,
391450,Cliffe Road Osgodby,Barlby,Selby,,Wadkin Arms,Pub/bar/nightclub,7843,5,,298671,10,,53.78157700000000,PI/000001453,256,info@selby.gov.uk,Selby,http://www.selby.gov.uk,-1.01086500000000,YO8 7HU,2013-07-22,fhrs_3_en-GB,3,,FHRS,10
391451,Wagon & Horses Inn,Great North Road,Fairburn,Knottingley,Wagon & Horses,Other catering premises,7841,5,,298730,5,,53.74424600000000,PI/000011118,256,info@selby.gov.uk,Selby,http://www.selby.gov.uk,-1.28355000000000,WF11 9JY,2013-07-15,fhrs_5_en-GB,5,,FHRS,5
391452,"Unit 15, Seafox Court",Sherburn in Elmet,Leeds,North Yorkshire,Walker Humphrey Ltd,Distributors/Transporters,7,,,606676,,,53.79211600000000,PI/000026257,256,info@selby.gov.uk,Selby,http://www.selby.gov.uk,-1.22133100000000,LS25 6PL,2013-10-29,fhrs_exempt_en-GB,Exempt,,FHRS,
391453,2A Denison Road,Selby,North Yorkshire,,Waterfront Express,Retailers - other,4613,10,,298786,0,,53.78012800000000,PI/000024687,256,info@selby.gov.uk,Selby,http://www.selby.gov.uk,-1.05870100000000,YO8 8BZ,2012-03-14,fhrs_4_en-GB,4,,FHRS,5
391454,Unit 14 Smeaton Industrial Park,Went Edge Road,Kirk Smeaton,Pontefract,Wentbridge Coffee Shop,Takeaway/sandwich shop,7844,10,,578944,10,,53.64854900000000,PI/000033091,256,info@selby.gov.uk,Selby,http://www.selby.gov.uk,-1.24721500000000,WF8 3LU,2013-08-16,fhrs_3_en-GB,3,,FHRS,10
391455,118 Westbourne Road,Selby,North Yorkshire,,Westbourne Stores,Retailers - other,4613,10,,638181,5,,53.77166800000000,PI/000005691,256,info@selby.gov.uk,Selby,http://www.selby.gov.uk,-1.07348700000000,YO8 9XD,2014-02-18,fhrs_4_en-GB,4,,FHRS,0
391456,21 Doncaster Road,Selby,North Yorkshire.,,Westwood Residential Care Home,Hospitals/Childcare/Caring Premises,5,0,,450087,0,,53.77790700000000,PI/000005323,256,info@selby.gov.uk,Selby,http://www.selby.gov.uk,-1.07711300000000,YO8 9BT,2014-02-07,fhrs_5_en-GB,5,,FHRS,0
391457,Main Road,Burn,Selby,North Yorkshire,Wheatsheaf Inn,Other catering premises,7841,5,,442220,0,,53.75024700000000,PI/000007044,256,info@selby.gov.uk,Selby,http://www.selby.gov.uk,-1.09916200000000,YO8 8LJ,2014-01-13,fhrs_5_en-GB,5,,FHRS,5
391458,Moor Lane,Sherburn In Elmet,Leeds,North Yorkshire,Wheatsheaf Inn,Other catering premises,7841,5,,423607,5,,53.79743100000000,PI/000013781,256,info@selby.gov.uk,Selby,http://www.selby.gov.uk,-1.23734000000000,LS25 6DX,2014-01-07,fhrs_4_en-GB,4,,FHRS,10
391459,7 Kirkgate,Sherburn In Elmet,Leeds,North Yorkshire,Wheelgate House,Hotel/bed & breakfast/guest house,7842,10,,638251,10,,53.79726200000000,PI/000013671,256,info@selby.gov.uk,Selby,http://www.selby.gov.uk,-1.25471200000000,LS25 6BH,2014-04-15,fhrs_4_en-GB,4,,FHRS,0
391460,Rythergate,Cawood,Selby,North Yorkshire,White Cross Ski Club,Pub/bar/nightclub,7843,10,,338897,0,,53.83401700000000,PI/000017856,256,info@selby.gov.uk,Selby,http://www.selby.gov.uk,-1.13076600000000,YO8 3TP,2012-03-29,fhrs_4_en-GB,4,,FHRS,5
391461,Main Street,Church Fenton,Tadcaster,,White Horse,Other catering premises,7841,5,,442232,5,,53.82631200000000,PI/000014466,256,info@selby.gov.uk,Selby,http://www.selby.gov.uk,-1.21659600000000,LS24 9RF,2014-01-31,fhrs_4_en-GB,4,,FHRS,10
391462,Finkle Hill,Sherburn In Elmet,Leeds,North Yorkshire,White Rose Sports & Social Club,Other catering premises,7841,10,,459905,0,,53.80310000000000,PI/000013624,256,info@selby.gov.uk,Selby,http://www.selby.gov.uk,-1.25394000000000,LS25 6EL,2014-11-05,fhrs_4_en-GB,4,,FHRS,5
391463,Ryther Road,Ulleskelf,Tadcaster,,Whitecote Caravan Park,Pub/bar/nightclub,7843,10,,638258,0,,53.85245400000000,PI/000014714,256,info@selby.gov.uk,Selby,http://www.selby.gov.uk,-1.20353600000000,LS24 9DY,2014-04-01,fhrs_4_en-GB,4,,FHRS,0
391464,Doncaster Road,Whitley,Goole,,Whitley & Eggborough C P School,School/college/university,7845,5,,298724,5,,53.69516300000000,PI/000010570,256,info@selby.gov.uk,Selby,http://www.selby.gov.uk,-1.15810300000000,DN14 0HP,2015-01-07,fhrs_5_en-GB,5,,FHRS,5
391465,Units 5-6,Abbey Walk,Selby,North Yorkshire,Wilkinson,Retailers - supermarkets/hypermarkets,7840,0,,547931,5,,53.78447700000000,PI/000006200,256,info@selby.gov.uk,Selby,http://www.selby.gov.uk,-1.07006300000000,YO8 4DZ,2013-05-07,fhrs_5_en-GB,5,,FHRS,0
391466,Too Hoots Nurseries,Hirst Road,Carlton,Goole,Wise Owl Tea Rooms,Retailers - other,4613,10,,547935,15,,53.70568000000000,PI/000007986,256,info@selby.gov.uk,Selby,http://www.selby.gov.uk,-1.03418500000000,DN14 9PX,2014-11-07,fhrs_2_en-GB,2,,FHRS,15
391467,Riverside,Newland,Selby,North Yorkshire,Wisteria House,Retailers - other,4613,10,,628263,10,,53.71423800000000,PI/000032733,256,info@selby.gov.uk,Selby,http://www.selby.gov.uk,-0.95195500000000,YO8 8PS,2014-01-15,fhrs_3_en-GB,3,,FHRS,10
391468,Church Hill,Wistow,Selby,,Wistow Parochial Primary School,School/college/university,7845,0,,406135,0,,53.81364700000000,PI/000009597,256,info@selby.gov.uk,Selby,http://www.selby.gov.uk,-1.10231500000000,YO8 3UU,2014-05-07,fhrs_5_en-GB,5,,FHRS,0
391469,James Street,Selby,North Yorkshire,,Wm Morrison Supermarkets Plc,Retailers - supermarkets/hypermarkets,7840,0,,430328,0,,53.78332200000000,PI/000003501,256,info@selby.gov.uk,Selby,http://www.selby.gov.uk,-1.06949600000000,YO8 4JS,2014-01-21,fhrs_5_en-GB,5,,FHRS,5
391470,6 Wolsey Parade,Sherburn In Elmet,Leeds,North Yorkshire,Wolsey Fisheries,Other catering premises,7841,0,,298749,0,,53.79670100000000,PI/000014171,256,info@selby.gov.uk,Selby,http://www.selby.gov.uk,-1.25113900000000,LS25 6BQ,2014-01-06,fhrs_5_en-GB,5,,FHRS,0
391471,58 Stutton Road,Tadcaster West,North Yorkshire,,Woodlands Post Office,Retailers - other,4613,0,,638277,0,,53.87584400000000,PI/000015808,256,info@selby.gov.uk,Selby,http://www.selby.gov.uk,-1.27196400000000,LS24 9HJ,2014-03-03,fhrs_5_en-GB,5,,FHRS,0
391472,Jubilee Hall,Lordship Lane,Wistow,Selby,WOOSH,Restaurant/Cafe/Canteen,1,5,,495690,5,,53.81478200000000,PI/000009679,256,info@selby.gov.uk,Selby,http://www.selby.gov.uk,-1.09787100000000,YO8 3YP,2013-01-17,fhrs_4_en-GB,4,,FHRS,10
391473,Doncaster Road,Selby,North Yorkshire.,,Worsley Court,Hospitals/Childcare/Caring Premises,5,5,,406134,0,,53.77686900000000,PI/000005358,256,info@selby.gov.uk,Selby,http://www.selby.gov.uk,-1.07882000000000,YO8 9BX,2013-11-14,fhrs_5_en-GB,5,,FHRS,5
391474,Main Street,Colton,Tadcaster,,Ye Old Sun Inn,Other catering premises,7841,5,,298773,5,,53.89665600000000,PI/000016775,256,info@selby.gov.uk,Selby,http://www.selby.gov.uk,-1.17539500000000,LS24 8EP,2013-12-12,fhrs_5_en-GB,5,,FHRS,0
391475,Skipwith Common,Skipwith,Selby,North Yorkshire,Yorkshire Paintball Centre,Pub/bar/nightclub,7843,5,,555034,0,,,PI/000000426,256,info@selby.gov.uk,Selby,http://www.selby.gov.uk,,,2015-01-10,fhrs_5_en-GB,5,,FHRS,0
391476,1 the Meadows,Riverside Close,West Haddlesey,Selby,Yorkshire Sweet Cart,Other catering premises,7841,5,,610541,0,,,PI/000033243,256,info@selby.gov.uk,Selby,http://www.selby.gov.uk,,,2013-11-08,fhrs_5_en-GB,5,,FHRS,0
391477,Unit 7,Escrick Business Park,York Road,Escrick,Young Discoverers Ltd,Hospitals/Childcare/Caring Premises,5,5,,464785,5,,53.85481500000000,PI/000024646,256,info@selby.gov.uk,Selby,http://www.selby.gov.uk,-1.05109700000000,YO19 6FD,2014-11-17,fhrs_5_en-GB,5,,FHRS,5
