,addressline1,addressline2,addressline3,addressline4,businessname,businesstype,businesstypeid,confidenceinmanagement,extractdate,fhrsid,hygiene,itemcount,latitude,localauthoritybusinessid,localauthoritycode,localauthorityemailaddress,localauthorityname,localauthoritywebsite,longitude,postcode,ratingdate,ratingkey,ratingvalue,returncode,schemetype,structural
56968,,,,,2 Cater,Other catering premises,7841,5,,409142,0,,,1932/959,262,foodsafety@gedling.gov.uk,Gedling,http://www.gedling.gov.uk/,,,2014-09-17,fhrs_5_en-GB,5,,FHRS,0
56969,6 Prior Road,Daybrook,Nottinghamshire,,A M Provisions,Retailers - other,4613,,,409143,,,52.99863700000000,1946/1096,262,foodsafety@gedling.gov.uk,Gedling,http://www.gedling.gov.uk/,-1.14271300000000,NG5 6AW,2014-07-10,fhrs_exempt_en-GB,Exempt,,FHRS,
56970,323 Carlton Hill,Carlton,Nottinghamshire,,Aarons Orchard,Retailers - other,4613,5,,504391,0,,52.96564300000000,83/033,262,foodsafety@gedling.gov.uk,Gedling,http://www.gedling.gov.uk/,-1.11047600000000,NG4 1JE,2015-02-06,fhrs_5_en-GB,5,,FHRS,5
56971,Vernon Crescent,Ravenshead,Nottinghamshire,,Abbey Gates Primary School,School/college/university,7845,0,,480000,0,,53.08368200000000,606/480,262,foodsafety@gedling.gov.uk,Gedling,http://www.gedling.gov.uk/,-1.16497200000000,NG15 9BN,2014-12-09,fhrs_5_en-GB,5,,FHRS,0
56972,Carnarvon House,8 Willow Wong,Burton Joyce,Nottinghamshire,Abbeyfield Nottingham Society,Restaurant/Cafe/Canteen,1,5,,583889,0,,52.98933900000000,1927/1091,262,foodsafety@gedling.gov.uk,Gedling,http://www.gedling.gov.uk/,-1.03660500000000,NG14 5FD,2013-09-13,fhrs_5_en-GB,5,,FHRS,0
56973,,,,,Adelaide's Handbag,Other catering premises,7841,0,,485219,0,,,2637,262,foodsafety@gedling.gov.uk,Gedling,http://www.gedling.gov.uk/,,,2014-12-15,fhrs_5_en-GB,5,,FHRS,0
56974,The Admiral Rodney,Main Street,Calverton,Nottinghamshire,Admiral Rodney,Other catering premises,7841,,,454990,,,53.03748200000000,1949/1929,262,foodsafety@gedling.gov.uk,Gedling,http://www.gedling.gov.uk/,-1.08962500000000,NG14 6FB,2014-08-21,fhrs_5_en-GB,5,,FHRS,
56975,Age Concern,352 - 356 Carlton Hill,Carlton,Nottinghamshire,Age Concern Day Centre,Restaurant/Cafe/Canteen,1,0,,553247,5,,52.96603900000000,92/039,262,foodsafety@gedling.gov.uk,Gedling,http://www.gedling.gov.uk/,-1.11061600000000,NG4 1JB,2013-06-03,fhrs_5_en-GB,5,,FHRS,5
56976,738 Mansfield Road,Woodthorpe,Nottinghamshire,,Albemarle Court Nursing Home,Hospitals/Childcare/Caring Premises,5,5,,349084,0,,52.98789700000000,2577,262,foodsafety@gedling.gov.uk,Gedling,http://www.gedling.gov.uk/,-1.14054200000000,NG5 3FY,2013-10-08,fhrs_5_en-GB,5,,FHRS,0
56977,The Albemarle Hall,4 Albemarle Road,Woodthorpe,Nottinghamshire,Albemarle Hall Nursing Home,Hospitals/Childcare/Caring Premises,5,5,,479992,0,,52.98878600000000,4/001,262,foodsafety@gedling.gov.uk,Gedling,http://www.gedling.gov.uk/,-1.13796200000000,NG5 4FE,2013-11-19,fhrs_5_en-GB,5,,FHRS,5
56978,98 Mansfield Road,Daybrook,Nottinghamshire,,Aldi,Retailers - supermarkets/hypermarkets,7840,0,,733106,5,,,2828,262,foodsafety@gedling.gov.uk,Gedling,http://www.gedling.gov.uk/,,NG5 6BJ,2015-01-26,fhrs_5_en-GB,5,,FHRS,0
56979,Kiosk,The Precinct,Plains Road,Woodthorpe,Alfresco,Restaurant/Cafe/Canteen,1,5,,590980,0,,52.98456000000000,2687,262,foodsafety@gedling.gov.uk,Gedling,http://www.gedling.gov.uk/,-1.12184000000000,NG3 5LG,2013-10-02,fhrs_5_en-GB,5,,FHRS,0
56980,,,,,Alicia's Bakes And Cakes,Other catering premises,7841,5,,583893,0,,,2704,262,foodsafety@gedling.gov.uk,Gedling,http://www.gedling.gov.uk/,,,2013-09-11,fhrs_5_en-GB,5,,FHRS,0
56981,243 Cavendish Road,Carlton,Nottinghamshire,,Amba News & Off Licence,Retailers - other,4613,10,,421829,0,,52.97270700000000,115/354,262,foodsafety@gedling.gov.uk,Gedling,http://www.gedling.gov.uk/,-1.09838800000000,NG4 3SA,2014-09-29,fhrs_4_en-GB,4,,FHRS,5
56982,130 Front Street,Arnold,Nottinghamshire,,Amico,Other catering premises,7841,5,,553238,0,,53.00513800000000,2531,262,foodsafety@gedling.gov.uk,Gedling,http://www.gedling.gov.uk/,-1.12681700000000,NG5 7EG,2013-05-04,fhrs_5_en-GB,5,,FHRS,0
56983,,,,,Amore Pizza,Mobile caterer,7846,5,,572028,5,,,2694,262,foodsafety@gedling.gov.uk,Gedling,http://www.gedling.gov.uk/,,,2013-07-30,fhrs_5_en-GB,5,,FHRS,5
56984,65 Gedling Road,Carlton,Nottinghamshire,,Amores,Restaurant/Cafe/Canteen,1,0,,710495,5,,52.97150600000000,2772,262,foodsafety@gedling.gov.uk,Gedling,http://www.gedling.gov.uk/,-1.08230100000000,NG4 3FG,2014-05-28,fhrs_5_en-GB,5,,FHRS,0
56985,The Bungalow,Moor Farm Caravan Park,Moor Lane,Woodborough,Angie's Place,Other catering premises,7841,0,,572022,5,,53.03433600000000,1889/1068,262,foodsafety@gedling.gov.uk,Gedling,http://www.gedling.gov.uk/,-1.05739100000000,NG14 6FZ,2013-07-17,fhrs_5_en-GB,5,,FHRS,0
56986,200B Porchester Road,Mapperley,Nottinghamshire,,Anjis Kitchen,Restaurant/Cafe/Canteen,1,10,,428987,10,,52.97277900000000,2593,262,foodsafety@gedling.gov.uk,Gedling,http://www.gedling.gov.uk/,-1.11997900000000,NG3 6LH,2014-01-20,fhrs_3_en-GB,3,,FHRS,10
56987,114 Burton Road,Carlton,Nottinghamshire,,Apollo Fish Bar,Takeaway/sandwich shop,7844,0,,504385,0,,52.97036600000000,53/517,262,foodsafety@gedling.gov.uk,Gedling,http://www.gedling.gov.uk/,-1.07672600000000,NG4 3GP,2014-07-08,fhrs_5_en-GB,5,,FHRS,5
56988,Unit 5B,Teal Close,Netherfield,Nottinghamshire,Argos Ltd,Retailers - other,4613,,,619353,,,,1963/1120,262,foodsafety@gedling.gov.uk,Gedling,http://www.gedling.gov.uk/,,,2013-11-19,fhrs_exempt_en-GB,Exempt,,FHRS,
56989,Arnbrook Primary And Nursery School,Bestwood Lodge Drive,Arnold,Nottinghamshire,Arnbrook Primary School,School/college/university,7845,0,,349081,0,,53.00653800000000,20/216,262,foodsafety@gedling.gov.uk,Gedling,http://www.gedling.gov.uk/,-1.14379300000000,NG5 8NE,2014-04-28,fhrs_5_en-GB,5,,FHRS,0
56990,Saville Road,Woodthorpe,Nottinghamshire,,Arno Vale Junior School,School/college/university,7845,0,,553245,0,,52.99342100000000,517/003,262,foodsafety@gedling.gov.uk,Gedling,http://www.gedling.gov.uk/,-1.12882600000000,NG5 4JF,2014-12-10,fhrs_5_en-GB,5,,FHRS,0
56991,Arnold And District Victory Club,Church Drive East,Daybrook,Nottinghamshire,Arnold & Dist. Leg Vic Club,Pub/bar/nightclub,7843,5,,624716,0,,53.00040700000000,124/734,262,foodsafety@gedling.gov.uk,Gedling,http://www.gedling.gov.uk/,-1.13382700000000,NG5 6JG,2014-01-08,fhrs_5_en-GB,5,,FHRS,0
56992,Arnold And District Liberal Club,1 West Street,Arnold,Nottinghamshire,Arnold & District Liberal Club,Pub/bar/nightclub,7843,0,,621654,0,,53.00240300000000,258/565,262,foodsafety@gedling.gov.uk,Gedling,http://www.gedling.gov.uk/,-1.13149200000000,NG5 7DB,2014-12-15,fhrs_5_en-GB,5,,FHRS,0
56993,Arnold And District Ex-Serv,Clinton Street,Arnold,Nottinghamshire,Arnold Ex Service Club,Pub/bar/nightclub,7843,5,,590975,0,,53.00299900000000,132/065,262,foodsafety@gedling.gov.uk,Gedling,http://www.gedling.gov.uk/,-1.13425200000000,NG5 6GR,2013-10-01,fhrs_5_en-GB,5,,FHRS,0
56994,Arnold Fish Bar,97 High Street,Arnold,Nottinghamshire,Arnold Fish Bar,Takeaway/sandwich shop,7844,5,,658636,5,,53.00502900000000,2760,262,foodsafety@gedling.gov.uk,Gedling,http://www.gedling.gov.uk/,-1.12914400000000,NG5 7DQ,2014-05-06,fhrs_5_en-GB,5,,FHRS,0
56995,Daybrook Baptist Church,Mansfield Road,Daybrook,Nottinghamshire,Arnold Foodbank,Distributors/Transporters,7,,,638356,,,,2641,262,foodsafety@gedling.gov.uk,Gedling,http://www.gedling.gov.uk/,,,2014-02-14,fhrs_exempt_en-GB,Exempt,,FHRS,
56996,Gedling Road,Arnold,Nottinghamshire,,Arnold Hill Academy,School/college/university,7845,0,,454992,0,,52.99749600000000,2612,262,foodsafety@gedling.gov.uk,Gedling,http://www.gedling.gov.uk/,-1.11691400000000,NG5 6NZ,2014-06-11,fhrs_5_en-GB,5,,FHRS,5
56997,68 Mansfield Road,Daybrook,Nottinghamshire,,Arnold House Day Nursery,Hospitals/Childcare/Caring Premises,5,5,,370860,10,,53.00121000000000,1798/976,262,foodsafety@gedling.gov.uk,Gedling,http://www.gedling.gov.uk/,-1.13804300000000,NG5 6HW,2014-05-16,fhrs_4_en-GB,4,,FHRS,5
56998,Arnold Labour Party Club,79 High Street,Arnold,Nottinghamshire,Arnold Labour Club,Pub/bar/nightclub,7843,10,,648989,5,,53.00444700000000,256/746,262,foodsafety@gedling.gov.uk,Gedling,http://www.gedling.gov.uk/,-1.12945400000000,NG5 7DN,2014-03-17,fhrs_3_en-GB,3,,FHRS,10
56999,High Street,Arnold,Nottinghamshire,,Arnold Leisure Centre,Other catering premises,7841,0,,624718,5,,53.00589700000000,255/129,262,foodsafety@gedling.gov.uk,Gedling,http://www.gedling.gov.uk/,-1.12742800000000,NG5 7EE,2014-01-09,fhrs_5_en-GB,5,,FHRS,0
57000,Cross Street,Arnold,Nottinghamshire,,Arnold Mill Primary School,School/college/university,7845,0,,572026,0,,53.00576000000000,2692,262,foodsafety@gedling.gov.uk,Gedling,http://www.gedling.gov.uk/,-1.13318300000000,NG5 7AX,2015-01-22,fhrs_5_en-GB,5,,FHRS,0
57001,Seely Church School,Burntstump Hill,Arnold,Nottinghamshire,Arnold Seely School,School/college/university,7845,0,,454994,0,,53.05174700000000,45/015,262,foodsafety@gedling.gov.uk,Gedling,http://www.gedling.gov.uk/,-1.13409600000000,NG5 8PQ,2014-11-28,fhrs_5_en-GB,5,,FHRS,0
57002,St Marys Family Centre,Church Lane,Arnold,Nottinghamshire,Arnold St Marys Pre-School,Hospitals/Childcare/Caring Premises,5,5,,553239,5,,,2679,262,foodsafety@gedling.gov.uk,Gedling,http://www.gedling.gov.uk/,,,2013-04-24,fhrs_5_en-GB,5,,FHRS,5
57003,Eagle Valley,Oxton Road,Arnold,Nottinghamshire,Arnold Town Football Club,Other catering premises,7841,10,,649010,5,,53.03677300000000,935,262,foodsafety@gedling.gov.uk,Gedling,http://www.gedling.gov.uk/,-1.12207700000000,NG5 8PS,2014-03-26,fhrs_4_en-GB,4,,FHRS,5
57004,Gedling Road,Arnold,Nottinghamshire,,Arnold View Primary School,School/college/university,7845,0,,370861,0,,53.00041500000000,228/246,262,foodsafety@gedling.gov.uk,Gedling,http://www.gedling.gov.uk/,-1.12394700000000,NG5 6NW,2012-05-15,fhrs_5_en-GB,5,,FHRS,0
57005,151 Front Street,Arnold,Nottinghamshire,,Arnold Working Mens Club,Pub/bar/nightclub,7843,0,,638354,5,,53.00529400000000,224/306,262,foodsafety@gedling.gov.uk,Gedling,http://www.gedling.gov.uk/,-1.12732100000000,NG5 7ED,2014-02-19,fhrs_4_en-GB,4,,FHRS,10
57006,The Arrow,Gedling Road,Arnold,Nottinghamshire,Arrow,Pub/bar/nightclub,7843,0,,548327,0,,52.99698400000000,229/121,262,foodsafety@gedling.gov.uk,Gedling,http://www.gedling.gov.uk/,-1.11820600000000,NG5 6NY,2014-11-18,fhrs_5_en-GB,5,,FHRS,5
57007,111 - 127 Front Street,Arnold,Nottinghamshire,,Asda,Retailers - supermarkets/hypermarkets,7840,0,,466754,5,,53.00529400000000,1810/116,262,foodsafety@gedling.gov.uk,Gedling,http://www.gedling.gov.uk/,-1.12732100000000,NG5 7ED,2014-06-06,fhrs_5_en-GB,5,,FHRS,5
57008,1 Carlton Square,Carlton,Nottinghamshire,,Asia Tandoori,Takeaway/sandwich shop,7844,10,,457387,10,,52.96689800000000,1741/938,262,foodsafety@gedling.gov.uk,Gedling,http://www.gedling.gov.uk/,-1.08631400000000,NG4 3BP,2013-10-29,fhrs_2_en-GB,2,,FHRS,15
57009,,,,,B& B Catering,Other catering premises,7841,0,,504373,0,,,1852,262,foodsafety@gedling.gov.uk,Gedling,http://www.gedling.gov.uk/,,,2013-11-19,fhrs_5_en-GB,5,,FHRS,0
57010,B And M Bargains,Unit 1,Madford Retail Park,Mansfield Road,B&M Bargains,Retailers - other,4613,5,,648993,0,,52.99511200000000,2719,262,foodsafety@gedling.gov.uk,Gedling,http://www.gedling.gov.uk/,-1.13876000000000,NG5 6AD,2014-03-21,fhrs_5_en-GB,5,,FHRS,0
57011,918 Woodborough Road,Mapperley,Nottinghamshire,,Baileys Foodmarket,Retailers - other,4613,0,,548342,0,,52.98370800000000,690/606,262,foodsafety@gedling.gov.uk,Gedling,http://www.gedling.gov.uk/,-1.12203600000000,NG3 5QR,2013-05-15,fhrs_5_en-GB,5,,FHRS,5
57012,,,,,Bake Me A Cake,Other catering premises,7841,5,,658640,0,,,2767,262,foodsafety@gedling.gov.uk,Gedling,http://www.gedling.gov.uk/,,,2014-05-06,fhrs_5_en-GB,5,,FHRS,0
57013,,,,,Bakesjust4u,Other catering premises,7841,0,,619360,0,,,2520,262,foodsafety@gedling.gov.uk,Gedling,http://www.gedling.gov.uk/,,,2013-12-16,fhrs_5_en-GB,5,,FHRS,0
57014,,,,,Baking For Brains,Other catering premises,7841,0,,710496,0,,,2796,262,foodsafety@gedling.gov.uk,Gedling,http://www.gedling.gov.uk/,,,2014-10-22,fhrs_5_en-GB,5,,FHRS,0
57015,,,,,Baking Madly,Other catering premises,7841,5,,664740,0,,,2769,262,foodsafety@gedling.gov.uk,Gedling,http://www.gedling.gov.uk/,,,2014-05-20,fhrs_5_en-GB,5,,FHRS,0
57016,117 High Street,Arnold,Nottinghamshire,,Balfour Conservative Club,Pub/bar/nightclub,7843,0,,648991,0,,53.00597300000000,261/134,262,foodsafety@gedling.gov.uk,Gedling,http://www.gedling.gov.uk/,-1.12912500000000,NG5 7DS,2014-03-06,fhrs_5_en-GB,5,,FHRS,0
57017,339 Westdale Lane West,Mapperley,Nottinghamshire,,Bargain Booze,Retailers - other,4613,5,,664741,5,,52.98154100000000,2774,262,foodsafety@gedling.gov.uk,Gedling,http://www.gedling.gov.uk/,-1.10746800000000,NG3 6EW,2014-06-03,fhrs_5_en-GB,5,,FHRS,0
57018,49 - 51 Victoria Road,Netherfield,Nottinghamshire,,Bargain Booze,Retailers - other,4613,0,,610840,0,,52.96433800000000,620/495,262,foodsafety@gedling.gov.uk,Gedling,http://www.gedling.gov.uk/,-1.07840300000000,NG4 2LA,2013-11-13,fhrs_5_en-GB,5,,FHRS,5
57019,72 Station Road,Carlton,Nottinghamshire,,Bayleaf,Takeaway/sandwich shop,7844,5,,682162,5,,52.96651700000000,2768,262,foodsafety@gedling.gov.uk,Gedling,http://www.gedling.gov.uk/,-1.08240600000000,NG4 3DB,2014-06-18,fhrs_5_en-GB,5,,FHRS,0
57020,,,,,Beccas Bakery,Other catering premises,7841,5,,457390,5,,,2611,262,foodsafety@gedling.gov.uk,Gedling,http://www.gedling.gov.uk/,,,2012-10-12,fhrs_5_en-GB,5,,FHRS,5
57021,222 Porchester Road,Mapperley,Nottinghamshire,,Beech Lodge,Hotel/bed & breakfast/guest house,7842,5,,624717,0,,52.97443900000000,1853/1022,262,foodsafety@gedling.gov.uk,Gedling,http://www.gedling.gov.uk/,-1.12072000000000,NG3 6HG,2014-01-07,fhrs_5_en-GB,5,,FHRS,0
57022,55 Furlong Street,Arnold,Nottinghamshire,,Beeches Care Home - HC-One,Hospitals/Childcare/Caring Premises,5,0,,376449,0,,53.00505500000000,1651/840,262,foodsafety@gedling.gov.uk,Gedling,http://www.gedling.gov.uk/,-1.13154300000000,NG5 7AJ,2013-10-04,fhrs_5_en-GB,5,,FHRS,0
57023,8 Beechwood Road,Arnold,Nottinghamshire,,Beechwood Butchers,Retailers - other,4613,5,,534316,5,,53.00632400000000,17/005,262,foodsafety@gedling.gov.uk,Gedling,http://www.gedling.gov.uk/,-1.11586900000000,NG5 8BA,2013-04-08,fhrs_4_en-GB,4,,FHRS,10
57024,5 Beechwood Road,Arnold,Nottinghamshire,,Beechwood News & Booze,Retailers - other,4613,10,,543124,10,,53.00632400000000,16/688,262,foodsafety@gedling.gov.uk,Gedling,http://www.gedling.gov.uk/,-1.11586900000000,NG5 8BA,2013-04-29,fhrs_3_en-GB,3,,FHRS,10
57025,Timmermans Garden Centre,Lowdham Lane,Woodborough,Nottinghamshire,Belle & Joes Kitchen,Other catering premises,7841,5,,428980,0,,53.02256100000000,1634/546,262,foodsafety@gedling.gov.uk,Gedling,http://www.gedling.gov.uk/,-1.03616400000000,NG14 6DN,2012-07-20,fhrs_5_en-GB,5,,FHRS,0
57026,Timmermans Garden Centre,Lowdham Lane,Woodborough,Nottinghamshire,Belle + Joe Kitchen Bus,Mobile caterer,7846,0,,578388,0,,53.02256100000000,2678,262,foodsafety@gedling.gov.uk,Gedling,http://www.gedling.gov.uk/,-1.03616400000000,NG14 6DN,2013-08-03,fhrs_5_en-GB,5,,FHRS,0
57027,Bestwood Lodge Drive,Bestwood,Nottinghamshire,,Bestwood Lodge Hotel,Restaurant/Cafe/Canteen,1,5,,553236,5,,53.00653800000000,22/007,262,foodsafety@gedling.gov.uk,Gedling,http://www.gedling.gov.uk/,-1.14379300000000,NG5 8NE,2015-01-06,fhrs_4_en-GB,4,,FHRS,10
57028,Bestwood Colliery Post Office,57 Park Road,Bestwood Village,Nottingham,Bestwood Post Office,Retailers - other,4613,5,,578395,10,,53.02273400000000,448/548,262,foodsafety@gedling.gov.uk,Gedling,http://www.gedling.gov.uk/,-1.17777800000000,NG6 8TQ,2013-08-05,fhrs_4_en-GB,4,,FHRS,5
57029,Big Wood Comprehensive School,Bewcastle Road,Bestwood,Nottinghamshire,Bigwood School,School/college/university,7845,0,,587212,0,,53.01409600000000,1386/787,262,foodsafety@gedling.gov.uk,Gedling,http://www.gedling.gov.uk/,-1.16254400000000,NG5 9PJ,2013-09-23,fhrs_5_en-GB,5,,FHRS,0
57030,90 Nottingham Road,Arnold,Nottinghamshire,,Birds Garden,Other catering premises,7841,,,439340,,,53.00084400000000,410/317,262,foodsafety@gedling.gov.uk,Gedling,http://www.gedling.gov.uk/,-1.13089700000000,NG5 6LF,2014-05-08,fhrs_4_en-GB,4,,FHRS,
57031,19 Plains Road,Woodthorpe,Nottinghamshire,,Birds The Confectioners,Restaurant/Cafe/Canteen,1,0,,587226,5,,52.98456000000000,467/380,262,foodsafety@gedling.gov.uk,Gedling,http://www.gedling.gov.uk/,-1.12184000000000,NG3 5LG,2013-09-20,fhrs_5_en-GB,5,,FHRS,0
57032,29 Front Street,Arnold,Nottinghamshire,,Birds The Confectioners,Restaurant/Cafe/Canteen,1,5,,610830,0,,53.00244700000000,195/098,262,foodsafety@gedling.gov.uk,Gedling,http://www.gedling.gov.uk/,-1.12891300000000,NG5 7EA,2013-11-18,fhrs_5_en-GB,5,,FHRS,5
57033,The Blacks Head,11 Burton Road,Carlton,Nottinghamshire,Blacks Head,Other catering premises,7841,10,,587225,10,,52.96744500000000,46/660,262,foodsafety@gedling.gov.uk,Gedling,http://www.gedling.gov.uk/,-1.08621300000000,NG4 3DT,2013-09-25,fhrs_2_en-GB,2,,FHRS,15
57034,Village Hall And Prems,Trent Lane,Burton Joyce,Nottinghamshire,Blackthorn Rare Breed,Other catering premises,7841,5,,485221,0,,,2640,262,foodsafety@gedling.gov.uk,Gedling,http://www.gedling.gov.uk/,,,2014-11-29,fhrs_5_en-GB,5,,FHRS,0
57035,Blue Circle,141 Front Street,Arnold,Nottinghamshire,Blue Circle Fish Bar,Takeaway/sandwich shop,7844,5,,463428,5,,53.00529400000000,219/117,262,foodsafety@gedling.gov.uk,Gedling,http://www.gedling.gov.uk/,-1.12732100000000,NG5 7ED,2014-05-12,fhrs_4_en-GB,4,,FHRS,10
57036,,,,,Bluebell Bakery,Other catering premises,7841,0,,421836,0,,,2024/1966,262,foodsafety@gedling.gov.uk,Gedling,http://www.gedling.gov.uk/,,,2014-10-31,fhrs_5_en-GB,5,,FHRS,0
57037,The Park Hospital,Sherwood Lodge Drive,Arnold,Nottinghamshire,BMI Park Hospital,Hospitals/Childcare/Caring Premises,5,0,,357095,0,,53.05010300000000,534/632,262,foodsafety@gedling.gov.uk,Gedling,http://www.gedling.gov.uk/,-1.14290100000000,NG5 8RX,2013-09-12,fhrs_5_en-GB,5,,FHRS,0
57038,Bombay Restaurant,39 Plains Road,Woodthorpe,Nottinghamshire,Bombay,Restaurant/Cafe/Canteen,1,10,,439341,10,,52.98538400000000,468/383,262,foodsafety@gedling.gov.uk,Gedling,http://www.gedling.gov.uk/,-1.12018500000000,NG3 5JU,2014-03-12,fhrs_3_en-GB,3,,FHRS,10
57039,36 - 38 Victoria Road,Netherfield,Nottinghamshire,,Bombay Spice,Restaurant/Cafe/Canteen,1,20,,376452,10,,52.96419700000000,2405,262,foodsafety@gedling.gov.uk,Gedling,http://www.gedling.gov.uk/,-1.07886700000000,NG4 2HE,2014-06-30,fhrs_1_en-GB,1,,FHRS,10
57040,26 Bonner Lane,Calverton,Nottinghamshire,,Bonner Lane Stores,Retailers - other,4613,10,,528772,10,,53.03512400000000,29/009,262,foodsafety@gedling.gov.uk,Gedling,http://www.gedling.gov.uk/,-1.07410600000000,NG14 6FY,2013-03-21,fhrs_3_en-GB,3,,FHRS,5
57041,944 Woodborough Road,Mapperley,Nottinghamshire,,Boots Chemist,Retailers - other,4613,,,428994,,,52.98482700000000,696/611,262,foodsafety@gedling.gov.uk,Gedling,http://www.gedling.gov.uk/,-1.12024100000000,NG3 5QS,2014-07-14,fhrs_exempt_en-GB,Exempt,,FHRS,
57042,19 Carlton Square,Carlton,Nottinghamshire,,Boots Pharmacy,Retailers - other,4613,,,479971,,,52.96689800000000,107/053,262,foodsafety@gedling.gov.uk,Gedling,http://www.gedling.gov.uk/,-1.08631400000000,NG4 3BP,2014-10-22,fhrs_exempt_en-GB,Exempt,,FHRS,
57043,Boots,85 Front Street,Arnold,Nottinghamshire,Boots The Chemist,Retailers - other,4613,0,,510848,0,,53.00355500000000,207/111,262,foodsafety@gedling.gov.uk,Gedling,http://www.gedling.gov.uk/,-1.12799600000000,NG5 7EB,2013-02-08,fhrs_5_en-GB,5,,FHRS,0
57044,Boots,Teal Close,Netherfield,Nottinghamshire,Boots UK Limited,Retailers - other,4613,0,,648985,0,,52.95874900000000,2117,262,foodsafety@gedling.gov.uk,Gedling,http://www.gedling.gov.uk/,-1.06378400000000,NG4 2PE,2014-03-28,fhrs_5_en-GB,5,,FHRS,0
57045,,,,,Borgia Bull,Other catering premises,7841,5,,648996,0,,,2756,262,foodsafety@gedling.gov.uk,Gedling,http://www.gedling.gov.uk/,,,2014-04-03,fhrs_5_en-GB,5,,FHRS,5
57046,Ramsdale Park Golf Centre,Oxton Road,Calverton,Nottinghamshire,Borhill Golf And Leisure,Restaurant/Cafe/Canteen,1,5,,421830,5,,53.04275400000000,1490/702,262,foodsafety@gedling.gov.uk,Gedling,http://www.gedling.gov.uk/,-1.11161900000000,NG14 6NU,2014-07-04,fhrs_5_en-GB,5,,FHRS,5
57047,,,,,Boulevard City Cakes,Other catering premises,7841,5,,553237,0,,,2518,262,foodsafety@gedling.gov.uk,Gedling,http://www.gedling.gov.uk/,,,2013-05-31,fhrs_5_en-GB,5,,FHRS,0
57048,,,,,Bouqcake Cupcakes,Other catering premises,7841,0,,510851,0,,,2654,262,foodsafety@gedling.gov.uk,Gedling,http://www.gedling.gov.uk/,,,2013-02-20,fhrs_5_en-GB,5,,FHRS,0
57049,6 Milton Court,Ravenshead,Nottinghamshire,,Bradbury's,Retailers - other,4613,5,,548330,5,,53.08550400000000,2526,262,foodsafety@gedling.gov.uk,Gedling,http://www.gedling.gov.uk/,-1.16586200000000,NG15 9BD,2014-10-21,fhrs_5_en-GB,5,,FHRS,5
57050,115 Church Road,Burton Joyce,Nottinghamshire,,Brambles,Restaurant/Cafe/Canteen,1,10,,409145,10,,52.98766900000000,2079,262,foodsafety@gedling.gov.uk,Gedling,http://www.gedling.gov.uk/,-1.03461600000000,NG14 5DJ,2014-06-12,fhrs_4_en-GB,4,,FHRS,0
57051,Millbrook Drive,Carlton,Nottinghamshire,,Braywood Gardens,Other catering premises,7841,5,,349080,0,,52.97341700000000,1902/1042,262,foodsafety@gedling.gov.uk,Gedling,http://www.gedling.gov.uk/,-1.10303400000000,NG4 3SR,2013-10-29,fhrs_5_en-GB,5,,FHRS,5
57052,80 Bridle Road,Burton Joyce,Nottinghamshire,,Bridle Lodge,Hospitals/Childcare/Caring Premises,5,0,,543129,0,,52.99399400000000,2086,262,foodsafety@gedling.gov.uk,Gedling,http://www.gedling.gov.uk/,-1.04760100000000,NG14 5FS,2013-04-30,fhrs_5_en-GB,5,,FHRS,0
57053,Broadmere Court,Arnold,Nottinghamshire,,Broadmere Court,Hospitals/Childcare/Caring Premises,5,,,548324,,,,1905,262,foodsafety@gedling.gov.uk,Gedling,http://www.gedling.gov.uk/,,,2013-05-16,fhrs_exempt_en-GB,Exempt,,FHRS,
57054,64 Phoenix Avenue,Gedling,Nottinghamshire,,Bruce's Spuds,Mobile caterer,7846,5,,624720,5,,52.97775700000000,2742,262,foodsafety@gedling.gov.uk,Gedling,http://www.gedling.gov.uk/,-1.08742500000000,NG4 4DT,2014-01-13,fhrs_5_en-GB,5,,FHRS,5
57055,58 Main Street,Calverton,Nottingham,Nottinghamshire,Brunches,Other catering premises,7841,10,,528752,0,,53.03734200000000,1519/924/C1,262,foodsafety@gedling.gov.uk,Gedling,http://www.gedling.gov.uk/,-1.08430400000000,NG14 6FN,2013-03-20,fhrs_2_en-GB,2,,FHRS,15
57056,Oxclose Lane,Arnold,Nottingham,Nottinghamshire,Burford Primary School,School/college/university,7845,0,,510860,0,,52.99753100000000,435/331,262,foodsafety@gedling.gov.uk,Gedling,http://www.gedling.gov.uk/,-1.14891800000000,NG5 6FX,2014-09-11,fhrs_5_en-GB,5,,FHRS,5
57057,Burrows And Close,3 - 5 St Wilfrids Square,Calverton,Nottinghamshire,Burrows Close Pharmacy,Retailers - other,4613,,,719336,,,53.03719800000000,554/450,262,foodsafety@gedling.gov.uk,Gedling,http://www.gedling.gov.uk/,-1.08190600000000,NG14 6FP,2014-11-03,fhrs_exempt_en-GB,Exempt,,FHRS,
57058,BJs Fish Bar,48 Main Street,Burton Joyce,Nottinghamshire,Burton Joyce Fish Bar,Takeaway/sandwich shop,7844,5,,528774,10,,52.98784700000000,310/261,262,foodsafety@gedling.gov.uk,Gedling,http://www.gedling.gov.uk/,-1.03662400000000,NG14 5DZ,2014-02-11,fhrs_4_en-GB,4,,FHRS,5
57059,24 Nottingham Road,Burton Joyce,Nottinghamshire,,Burton Joyce News,Retailers - other,4613,5,,447851,5,,52.98475300000000,416/316,262,foodsafety@gedling.gov.uk,Gedling,http://www.gedling.gov.uk/,-1.04195100000000,NG14 5AH,2014-09-17,fhrs_5_en-GB,5,,FHRS,5
57060,Padleys Lane,Burton Joyce,Nottinghamshire,,Burton Joyce Primary School,School/college/university,7845,0,,638361,5,,52.98858500000000,445/338,262,foodsafety@gedling.gov.uk,Gedling,http://www.gedling.gov.uk/,-1.03788800000000,NG14 5EB,2014-03-05,fhrs_5_en-GB,5,,FHRS,0
57061,Busy Bees Day Nursery,Sir John Robinson Way,Daybrook,Nottinghamshire,Busy Bees Childcare Ltd,Hospitals/Childcare/Caring Premises,5,0,,580862,5,,52.99857000000000,2560,262,foodsafety@gedling.gov.uk,Gedling,http://www.gedling.gov.uk/,-1.13591900000000,NG5 6BN,2013-08-23,fhrs_5_en-GB,5,,FHRS,5
57062,Mapperley Golf Club,Central Avenue,Mapperley,Nottinghamshire,C And D Catering,Restaurant/Cafe/Canteen,1,5,,648997,0,,52.98976000000000,2759,262,foodsafety@gedling.gov.uk,Gedling,http://www.gedling.gov.uk/,-1.11027800000000,NG3 5RH,2014-04-23,fhrs_5_en-GB,5,,FHRS,0
57063,118 Burton Road,Carlton,Nottinghamshire,,Cafe 118,Restaurant/Cafe/Canteen,1,5,,543135,0,,52.97036600000000,2606,262,foodsafety@gedling.gov.uk,Gedling,http://www.gedling.gov.uk/,-1.07672600000000,NG4 3GP,2014-10-14,fhrs_5_en-GB,5,,FHRS,5
57064,Road No 2,Colwick,Nottinghamshire,,Cafe 67,Restaurant/Cafe/Canteen,1,0,,587227,5,,52.95677000000000,485/398,262,foodsafety@gedling.gov.uk,Gedling,http://www.gedling.gov.uk/,-1.07981400000000,NG4 2JR,2013-09-25,fhrs_5_en-GB,5,,FHRS,5
57065,Newstead Abbey,Newstead Abbey Park,Station Avenue,Newstead,Cafe At The Abbey,Restaurant/Cafe/Canteen,1,0,,596054,0,,53.07943600000000,417/319/C1,262,foodsafety@gedling.gov.uk,Gedling,http://www.gedling.gov.uk/,-1.19588100000000,NG15 8GE,2013-10-28,fhrs_5_en-GB,5,,FHRS,5
57066,Brookfields Garden Centre,Mapperley Plains,Arnold,Nottinghamshire,Cafe B,Restaurant/Cafe/Canteen,1,5,,479996,0,,53.00437900000000,463/388,262,foodsafety@gedling.gov.uk,Gedling,http://www.gedling.gov.uk/,-1.10096200000000,NG3 5RW,2014-11-27,fhrs_5_en-GB,5,,FHRS,5
57067,BQ Cafe,18 Front Street,Arnold,Nottinghamshire,Cafe Zero,Restaurant/Cafe/Canteen,1,10,,572025,10,,53.00206000000000,2691,262,foodsafety@gedling.gov.uk,Gedling,http://www.gedling.gov.uk/,-1.12886100000000,NG5 7EL,2013-09-03,fhrs_3_en-GB,3,,FHRS,10
57068,,,,,Cake Away,Other catering premises,7841,0,,396046,0,,,2556,262,foodsafety@gedling.gov.uk,Gedling,http://www.gedling.gov.uk/,,,2013-10-29,fhrs_5_en-GB,5,,FHRS,5
57069,,,,,Cake It Or Leave It,Other catering premises,7841,5,,688996,5,,,2792,262,foodsafety@gedling.gov.uk,Gedling,http://www.gedling.gov.uk/,,,2014-07-25,fhrs_5_en-GB,5,,FHRS,0
57070,1 St Wilfrids Square,Calverton,Nottinghamshire,,Calverton Balti Takeaway,Takeaway/sandwich shop,7844,5,,439334,5,,53.03719800000000,1600/845,262,foodsafety@gedling.gov.uk,Gedling,http://www.gedling.gov.uk/,-1.08190600000000,NG14 6FP,2014-11-25,fhrs_4_en-GB,4,,FHRS,10
57071,Calverton Childrens Centre,Manor Park Infants And Nursery Scho,Flatts Lane,Calverton,Calverton Children's Centre,Hospitals/Childcare/Caring Premises,5,0,,596046,0,,53.04174100000000,2107,262,foodsafety@gedling.gov.uk,Gedling,http://www.gedling.gov.uk/,-1.08706000000000,NG14 6JZ,2013-10-17,fhrs_5_en-GB,5,,FHRS,0
57072,The Baptist Church,The Nook,Calverton,Nottinghamshire,Calverton Church Hall,Other catering premises,7841,0,,357097,0,,53.03728800000000,584,262,foodsafety@gedling.gov.uk,Gedling,http://www.gedling.gov.uk/,-1.08311200000000,NG14 6HJ,2012-05-09,fhrs_5_en-GB,5,,FHRS,5
57073,The Cricket Ground,Woods Lane,Calverton,Nottinghamshire,Calverton Cricket Club,Other catering premises,7841,,,439335,,,,1635/1089,262,foodsafety@gedling.gov.uk,Gedling,http://www.gedling.gov.uk/,,,2012-08-21,fhrs_exempt_en-GB,Exempt,,FHRS,
57074,64 Main Street,Calverton,Nottinghamshire,,Calverton Fish Bar,Takeaway/sandwich shop,7844,5,,572029,5,,53.03727000000000,323/183/1,262,foodsafety@gedling.gov.uk,Gedling,http://www.gedling.gov.uk/,-1.08426100000000,NG14 6FN,2013-07-15,fhrs_5_en-GB,5,,FHRS,5
57075,Calverton Road,Arnold,Nottinghamshire,,Calverton Hill,Other catering premises,7841,0,,583891,0,,53.03143500000000,245/128,262,foodsafety@gedling.gov.uk,Gedling,http://www.gedling.gov.uk/,-1.11150900000000,NG5 8PT,2013-09-04,fhrs_5_en-GB,5,,FHRS,0
57076,25 - 27 Calverton Road,Arnold,Nottinghamshire,,Calverton Road Stores,Retailers - other,4613,20,,430406,5,,53.00987300000000,62/519,262,foodsafety@gedling.gov.uk,Gedling,http://www.gedling.gov.uk/,-1.12535000000000,NG5 8FF,2014-07-22,fhrs_1_en-GB,1,,FHRS,10
57077,Pavilion,William Lee Recreation Ground,Park Road,Calverton,Calverton Supreme Home Care Ltd,Hospitals/Childcare/Caring Premises,5,5,,648980,5,,,2017/1961,262,foodsafety@gedling.gov.uk,Gedling,http://www.gedling.gov.uk/,,,2014-03-17,fhrs_4_en-GB,4,,FHRS,10
57078,Working Mens Club,Collyer Road,Calverton,Nottinghamshire,Calverton Working Mens Club,Pub/bar/nightclub,7843,0,,607412,0,,53.03827800000000,134/526,262,foodsafety@gedling.gov.uk,Gedling,http://www.gedling.gov.uk/,-1.08443300000000,NG14 6JX,2013-11-08,fhrs_5_en-GB,5,,FHRS,0
57079,109 Main Street,Calverton,Nottinghamshire,,Camellia House,Hospitals/Childcare/Caring Premises,5,5,,428983,5,,53.03656000000000,1966/1124,262,foodsafety@gedling.gov.uk,Gedling,http://www.gedling.gov.uk/,-1.08311300000000,NG14 6FG,2014-07-07,fhrs_5_en-GB,5,,FHRS,5
57080,,,,,Capstone Care Provider Ltd,Hospitals/Childcare/Caring Premises,5,,,607416,,,,2466,262,foodsafety@gedling.gov.uk,Gedling,http://www.gedling.gov.uk/,,,2013-11-05,fhrs_exempt_en-GB,Exempt,,FHRS,
57081,170 Porchester Road,Carlton,Nottinghamshire,,Capstone Care Providers,Hospitals/Childcare/Caring Premises,5,,,669548,,,52.97085300000000,2778,262,foodsafety@gedling.gov.uk,Gedling,http://www.gedling.gov.uk/,-1.11964600000000,NG3 6LG,2014-06-12,fhrs_exempt_en-GB,Exempt,,FHRS,
57082,Carlton And District Liberal Club,Over 333 To 335,Carlton Hill,Carlton,Carlton & Dist. Liberal Club,Pub/bar/nightclub,7843,5,,607423,5,,52.96564300000000,87/036,262,foodsafety@gedling.gov.uk,Gedling,http://www.gedling.gov.uk/,-1.11047600000000,NG4 1JE,2013-10-29,fhrs_5_en-GB,5,,FHRS,5
57083,Bearcare (Nottm) Ltd,37 Gedling Road,Carlton,Nottinghamshire,Carlton & Gedling Day Nursery,Hospitals/Childcare/Caring Premises,5,10,,479984,5,,52.97096800000000,242/103,262,foodsafety@gedling.gov.uk,Gedling,http://www.gedling.gov.uk/,-1.08258000000000,NG4 3FD,2014-10-02,fhrs_3_en-GB,3,,FHRS,10
57084,Coningswath Road,Carlton,Nottinghamshire,,Carlton Academy,School/college/university,7845,0,,457384,0,,52.97482800000000,136/663,262,foodsafety@gedling.gov.uk,Gedling,http://www.gedling.gov.uk/,-1.10422600000000,NG4 3SH,2014-04-24,fhrs_5_en-GB,5,,FHRS,5
57085,20 Carlton Square,Carlton,Nottinghamshire,,Carlton Cafe,Restaurant/Cafe/Canteen,1,5,,492560,5,,52.96689800000000,2578,262,foodsafety@gedling.gov.uk,Gedling,http://www.gedling.gov.uk/,-1.08631400000000,NG4 3BP,2014-02-24,fhrs_5_en-GB,5,,FHRS,5
57086,Carlton Nursing Home,398 Carlton Hill,Carlton,Nottinghamshire,Carlton Care Home,Hospitals/Childcare/Caring Premises,5,5,,565246,5,,52.96578300000000,99/047,262,foodsafety@gedling.gov.uk,Gedling,http://www.gedling.gov.uk/,-1.11358500000000,NG4 1JA,2013-07-05,fhrs_5_en-GB,5,,FHRS,5
57087,,,,,Carlton Creative Cakes,Other catering premises,7841,0,,578389,5,,,2681,262,foodsafety@gedling.gov.uk,Gedling,http://www.gedling.gov.uk/,,,2013-08-06,fhrs_5_en-GB,5,,FHRS,5
57088,Digby Avenue,Mapperley,Nottinghamshire,,Carlton Digby School,School/college/university,7845,5,,528754,5,,52.98319500000000,162/233,262,foodsafety@gedling.gov.uk,Gedling,http://www.gedling.gov.uk/,-1.10755300000000,NG3 6DS,2014-09-26,fhrs_5_en-GB,5,,FHRS,0
57089,299 Carlton Hill,Carlton,Nottinghamshire,,Carlton Fryer,Takeaway/sandwich shop,7844,5,,485226,0,,52.96586500000000,80/221,262,foodsafety@gedling.gov.uk,Gedling,http://www.gedling.gov.uk/,-1.10780600000000,NG4 1GP,2014-10-02,fhrs_5_en-GB,5,,FHRS,5
57090,359 Carlton Hill,Carlton,Nottinghamshire,,Carlton Hill Pharmacy,Retailers - other,4613,,,504393,,,52.96537500000000,94/044,262,foodsafety@gedling.gov.uk,Gedling,http://www.gedling.gov.uk/,-1.11317600000000,NG4 1HW,2015-01-16,fhrs_exempt_en-GB,Exempt,,FHRS,
57091,Sacred Heart Playgroup,Sacred Heart Church Hall,Carlton Hill,Carlton,Carlton Hill Pre School Playgroup,Hospitals/Childcare/Caring Premises,5,,,565238,,,52.96625600000000,2469,262,foodsafety@gedling.gov.uk,Gedling,http://www.gedling.gov.uk/,-1.09637800000000,NG4 1FP,2013-07-01,fhrs_exempt_en-GB,Exempt,,FHRS,
57092,10 Southcliffe Road,Carlton,Nottinghamshire,,Carlton House Comm Ctre,Other catering premises,7841,,,565245,,,52.96574100000000,541/438,262,foodsafety@gedling.gov.uk,Gedling,http://www.gedling.gov.uk/,-1.09492900000000,NG4 1EP,2013-06-27,fhrs_exempt_en-GB,Exempt,,FHRS,
57093,Carlton Town FC,Bill Stokeld Stadium,Stoke Lane,Gedling,Carlton Town Football Club,Other catering premises,7841,10,,333396,5,,,2387,262,foodsafety@gedling.gov.uk,Gedling,http://www.gedling.gov.uk/,,,2013-11-18,fhrs_3_en-GB,3,,FHRS,10
57094,914 Woodborough Road,Nottingham,Nottinghamshire,,Carters Butchers,Retailers - other,4613,5,,428993,5,,52.98370800000000,688/604,262,foodsafety@gedling.gov.uk,Gedling,http://www.gedling.gov.uk/,-1.12203600000000,NG3 5QR,2014-01-15,fhrs_5_en-GB,5,,FHRS,5
57095,10 Dover Beck Drive,Woodborough,Nottinghamshire,,Catherine Plant,Hospitals/Childcare/Caring Premises,5,,,658639,,,53.02531500000000,2766,262,foodsafety@gedling.gov.uk,Gedling,http://www.gedling.gov.uk/,-1.05450100000000,NG14 6ER,2014-05-06,fhrs_exempt_en-GB,Exempt,,FHRS,
57096,26A Bonner Lane,Calverton,Nottingham,Nottinghamshire,Catherines Bakery,Takeaway/sandwich shop,7844,10,,463433,10,,53.03512400000000,30/010,262,foodsafety@gedling.gov.uk,Gedling,http://www.gedling.gov.uk/,-1.07410600000000,NG14 6FY,2014-05-19,fhrs_2_en-GB,2,,FHRS,15
57097,Carlton Central Primary School,Foxhill Road East,Carlton,Nottinghamshire,Central Infants Sch,School/college/university,7845,0,,565237,0,,52.96839300000000,186/241,262,foodsafety@gedling.gov.uk,Gedling,http://www.gedling.gov.uk/,-1.09612500000000,NG4 1QS,2015-01-29,fhrs_5_en-GB,5,,FHRS,0
57098,Central Infant And Nursery School,Garden Avenue,Carlton,Nottinghamshire,Central Junior Sch,School/college/university,7845,0,,565236,5,,52.96839300000000,185/243,262,foodsafety@gedling.gov.uk,Gedling,http://www.gedling.gov.uk/,-1.09612500000000,NG4 1QS,2015-02-03,fhrs_5_en-GB,5,,FHRS,0
57099,Chambers,31 Front Street,Arnold,Nottinghamshire,Chambers Food Hall,Retailers - other,4613,0,,396043,5,,53.00244700000000,196/099,262,foodsafety@gedling.gov.uk,Gedling,http://www.gedling.gov.uk/,-1.12891300000000,NG5 7EA,2014-06-12,fhrs_5_en-GB,5,,FHRS,0
57100,Charnwood Nursing Home,24 Station Road,Carlton,Nottinghamshire,Charnwood Court Care Home,Hospitals/Childcare/Caring Premises,5,0,,510864,0,,52.96700000000000,565/629,262,foodsafety@gedling.gov.uk,Gedling,http://www.gedling.gov.uk/,-1.07979000000000,NG4 3AX,2014-09-18,fhrs_5_en-GB,5,,FHRS,0
57101,Charnwood House,Station Road,Carlton,Nottinghamshire,Charnwood House Residential Home,Hospitals/Childcare/Caring Premises,5,0,,510865,5,,52.96700000000000,568/629,262,foodsafety@gedling.gov.uk,Gedling,http://www.gedling.gov.uk/,-1.07979000000000,NG4 3AX,2014-09-23,fhrs_5_en-GB,5,,FHRS,0
57102,Chettles Ltd,Stoke Lane,Stoke Bardolph,Nottinghamshire,Chettles,Restaurant/Cafe/Canteen,1,20,,447841,10,,52.96827400000000,1803/988,262,foodsafety@gedling.gov.uk,Gedling,http://www.gedling.gov.uk/,-1.05081700000000,NG14 5HJ,2014-03-17,fhrs_1_en-GB,1,,FHRS,10
57103,,,,,Chezabelles,Other catering premises,7841,5,,504379,5,,,2648,262,foodsafety@gedling.gov.uk,Gedling,http://www.gedling.gov.uk/,,,2015-01-15,fhrs_5_en-GB,5,,FHRS,0
57104,302 Carlton Hill,Carlton,Nottinghamshire,,Chick Chick,Takeaway/sandwich shop,7844,5,,463431,5,,52.96626100000000,2605,262,foodsafety@gedling.gov.uk,Gedling,http://www.gedling.gov.uk/,-1.10785700000000,NG4 1GD,2012-10-30,fhrs_5_en-GB,5,,FHRS,5
57105,291 - 293 Carlton Hill,Carlton,Nottinghamshire,,China Town,Takeaway/sandwich shop,7844,10,,648978,10,,52.96586500000000,1957/1108,262,foodsafety@gedling.gov.uk,Gedling,http://www.gedling.gov.uk/,-1.10780600000000,NG4 1GP,2013-06-06,fhrs_3_en-GB,3,,FHRS,10
57106,Darlton Drive,Arnold,Nottinghamshire,,Christ The King Catholic Voluntary Academy,School/college/university,7845,0,,610828,0,,53.00063900000000,154/232,262,foodsafety@gedling.gov.uk,Gedling,http://www.gedling.gov.uk/,-1.11291600000000,NG5 7JZ,2013-11-22,fhrs_5_en-GB,5,,FHRS,0
57107,,,,,Christine Foster,Other catering premises,7841,5,,722808,0,,,2823,262,foodsafety@gedling.gov.uk,Gedling,http://www.gedling.gov.uk/,,,2014-12-11,fhrs_5_en-GB,5,,FHRS,0
57108,Street Record,Road No 1,Colwick,Nottinghamshire,Chubby's,Retailers - other,4613,5,,572021,5,,,1834/1014,262,foodsafety@gedling.gov.uk,Gedling,http://www.gedling.gov.uk/,,,2014-10-31,fhrs_4_en-GB,4,,FHRS,10
57109,3 Standhill Road,Carlton,Nottinghamshire,,Chucks Wagon,Other catering premises,7841,10,,528780,5,,52.96640900000000,557/444/C1,262,foodsafety@gedling.gov.uk,Gedling,http://www.gedling.gov.uk/,-1.11193400000000,NG4 1JL,2014-10-23,fhrs_2_en-GB,2,,FHRS,15
57110,946 Woodborough Road,Mapperley,Nottinghamshire,,Chungs Of Mapperley Ltd,Restaurant/Cafe/Canteen,1,5,,528755,5,,52.98482700000000,1714/1969,262,foodsafety@gedling.gov.uk,Gedling,http://www.gedling.gov.uk/,-1.12024100000000,NG3 5QS,2014-10-31,fhrs_5_en-GB,5,,FHRS,5
57111,157 Front Street,Arnold,Nottinghamshire,,Cinnamon Korner,Takeaway/sandwich shop,7844,0,,510841,0,,53.00529400000000,1948/676,262,foodsafety@gedling.gov.uk,Gedling,http://www.gedling.gov.uk/,-1.12732100000000,NG5 7ED,2014-08-13,fhrs_5_en-GB,5,,FHRS,5
57112,Bazar @ Coffee Arnold,133 Front Street,Arnold,Nottinghamshire,Coffee@Arnold,Restaurant/Cafe/Canteen,1,10,,528765,5,,53.00529400000000,2371,262,foodsafety@gedling.gov.uk,Gedling,http://www.gedling.gov.uk/,-1.12732100000000,NG5 7ED,2014-02-26,fhrs_4_en-GB,4,,FHRS,5
57113,Colonel Frank Seely Comprehensive S,Flatts Lane,Calverton,Nottinghamshire,Col. Frank Seely Comp.,Other catering premises,7841,0,,528756,0,,53.04174100000000,176/239,262,foodsafety@gedling.gov.uk,Gedling,http://www.gedling.gov.uk/,-1.08706000000000,NG14 6JZ,2013-03-14,fhrs_5_en-GB,5,,FHRS,5
57114,Vale Road,Colwick,Nottinghamshire,,Colwick Community Centre,Other catering premises,7841,,,619369,,,52.95700100000000,593/739,262,foodsafety@gedling.gov.uk,Gedling,http://www.gedling.gov.uk/,-1.08990200000000,NG4 2GP,2013-11-19,fhrs_exempt_en-GB,Exempt,,FHRS,
57115,161 Vale Road,Colwick,Nottinghamshire,,Colwick News,Retailers - other,4613,10,,610839,10,,52.95871800000000,597/474,262,foodsafety@gedling.gov.uk,Gedling,http://www.gedling.gov.uk/,-1.08633800000000,NG4 2GN,2013-11-13,fhrs_3_en-GB,3,,FHRS,5
57116,Newstead Miners Welfare,Tilford Road,Newstead,Nottinghamshire,Community Cafe,Other catering premises,7841,0,,504374,0,,53.07122100000000,1870,262,foodsafety@gedling.gov.uk,Gedling,http://www.gedling.gov.uk/,-1.22581000000000,NG15 0BU,2015-01-21,fhrs_5_en-GB,5,,FHRS,5
57117,Coronation Walk,Gedling,Nottinghamshire,,Community Centre,Other catering premises,7841,,,648973,,,52.97403000000000,148/668,262,foodsafety@gedling.gov.uk,Gedling,http://www.gedling.gov.uk/,-1.07288000000000,NG4 4AS,2014-03-06,fhrs_exempt_en-GB,Exempt,,FHRS,
57118,105 Front Street,Arnold,Nottinghamshire,,Connaught House,Retailers - other,4613,0,,510871,0,,53.00529400000000,902/1058,262,foodsafety@gedling.gov.uk,Gedling,http://www.gedling.gov.uk/,-1.12732100000000,NG5 7ED,2015-02-06,fhrs_5_en-GB,5,,FHRS,0
57119,107 Collyer Road,Calverton,Nottinghamshire,,CO-OP,Retailers - supermarkets/hypermarkets,7840,5,,430397,0,,53.03988500000000,135/067,262,foodsafety@gedling.gov.uk,Gedling,http://www.gedling.gov.uk/,-1.09000700000000,NG14 6LZ,2014-09-15,fhrs_5_en-GB,5,,FHRS,0
57120,930 Woodborough Road,Mapperley,Nottinghamshire,,Copper,Restaurant/Cafe/Canteen,1,5,,722807,5,,52.98482700000000,2820,262,foodsafety@gedling.gov.uk,Gedling,http://www.gedling.gov.uk/,-1.12024100000000,NG3 5QS,2014-12-04,fhrs_5_en-GB,5,,FHRS,5
57121,Coppice Farm Primary School,Laver Close,Arnold,Nottinghamshire,Coppice Farm School,School/college/university,7845,5,,587221,5,,53.00111400000000,281/643,262,foodsafety@gedling.gov.uk,Gedling,http://www.gedling.gov.uk/,-1.10797400000000,NG5 7LS,2015-02-05,fhrs_5_en-GB,5,,FHRS,5
57122,89 Coppice Road,Arnold,Nottinghamshire,,Coppice Road Spar,Retailers - other,4613,5,,553235,0,,53.00700500000000,2098,262,foodsafety@gedling.gov.uk,Gedling,http://www.gedling.gov.uk/,-1.12034100000000,NG5 7GE,2013-04-24,fhrs_5_en-GB,5,,FHRS,0
57123,40 Victoria Road,Netherfield,Nottinghamshire,,Corner Cafe,Restaurant/Cafe/Canteen,1,5,,565239,5,,52.96311600000000,2564,262,foodsafety@gedling.gov.uk,Gedling,http://www.gedling.gov.uk/,-1.07734200000000,NG4 2HG,2013-07-02,fhrs_4_en-GB,4,,FHRS,10
57124,4 Coronation Walk,Gedling,Nottinghamshire,,Coronation Stores,Retailers - other,4613,10,,479975,10,,52.97339300000000,149/940,262,foodsafety@gedling.gov.uk,Gedling,http://www.gedling.gov.uk/,-1.07182100000000,NG4 4AQ,2013-10-10,fhrs_3_en-GB,3,,FHRS,10
57125,Costa Coffee,Victoria Park Way,Netherfield,Nottinghamshire,Costa,Restaurant/Cafe/Canteen,1,5,,648992,0,,,2689,262,foodsafety@gedling.gov.uk,Gedling,http://www.gedling.gov.uk/,,,2013-07-15,fhrs_5_en-GB,5,,FHRS,0
57126,Tesco,Unit 2,40 Teal Close,Netherfield,Costa @ Tesco Homeplus,Restaurant/Cafe/Canteen,1,5,,578385,5,,,2075,262,foodsafety@gedling.gov.uk,Gedling,http://www.gedling.gov.uk/,,,2013-07-15,fhrs_5_en-GB,5,,FHRS,5
57127,37 Plains Road,Woodthorpe,Nottinghamshire,,Costa Coffee,Restaurant/Cafe/Canteen,1,0,,553240,0,,52.98538400000000,2680,262,foodsafety@gedling.gov.uk,Gedling,http://www.gedling.gov.uk/,-1.12018500000000,NG3 5JU,2014-11-05,fhrs_5_en-GB,5,,FHRS,5
57128,59 Front Street,Arnold,Nottinghamshire,,Costa Coffee,Restaurant/Cafe/Canteen,1,0,,719332,5,,53.00244700000000,2815,262,foodsafety@gedling.gov.uk,Gedling,http://www.gedling.gov.uk/,-1.12891300000000,NG5 7EA,2014-11-24,fhrs_5_en-GB,5,,FHRS,0
57129,,,,,Cottage Cakes And Catering,Other catering premises,7841,0,,719325,0,,,2736,262,foodsafety@gedling.gov.uk,Gedling,http://www.gedling.gov.uk/,,,2014-11-21,fhrs_5_en-GB,5,,FHRS,0
57130,Brook Farm,Main Street,Linby,Nottinghamshire,County Horticultural & Wk Training,Other catering premises,7841,0,,528759,0,,53.05422200000000,1792,262,foodsafety@gedling.gov.uk,Gedling,http://www.gedling.gov.uk/,-1.20269100000000,NG15 8AE,2015-01-14,fhrs_5_en-GB,5,,FHRS,5
57131,,,,,Creative Care (East Midlands) Ltd,Hospitals/Childcare/Caring Premises,5,5,,430401,5,,,2341,262,foodsafety@gedling.gov.uk,Gedling,http://www.gedling.gov.uk/,,,2014-08-07,fhrs_5_en-GB,5,,FHRS,5
57132,27 Tithe Gardens,Bestwood,Nottinghamshire,,Crest Mini Market,Retailers - other,4613,10,,607421,10,,53.01252400000000,591/469,262,foodsafety@gedling.gov.uk,Gedling,http://www.gedling.gov.uk/,-1.16645000000000,NG5 9PB,2013-11-08,fhrs_3_en-GB,3,,FHRS,10
57133,74 Front Street,Arnold,Nottinghamshire,,Cross Keys,Pub/bar/nightclub,7843,10,,619356,10,,53.00345000000000,204/101,262,foodsafety@gedling.gov.uk,Gedling,http://www.gedling.gov.uk/,-1.12717900000000,NG5 7EJ,2013-11-26,fhrs_3_en-GB,3,,FHRS,10
57134,Main Street,Burton Joyce,Nottinghamshire,,Cross Keys,Pub/bar/nightclub,7843,20,,510854,5,,52.98798400000000,316/367,262,foodsafety@gedling.gov.uk,Gedling,http://www.gedling.gov.uk/,-1.03799100000000,NG14 5DX,2014-09-23,fhrs_1_en-GB,1,,FHRS,10
57135,,,,,Cuppa Kaykes,Other catering premises,7841,5,,682163,0,,,2783,262,foodsafety@gedling.gov.uk,Gedling,http://www.gedling.gov.uk/,,,2014-06-25,fhrs_5_en-GB,5,,FHRS,0
57136,Daisies,Wood Lane,Gedling,Nottinghamshire,Daisies Day Nursery,Hospitals/Childcare/Caring Premises,5,0,,493279,0,,52.97813000000000,2420,262,foodsafety@gedling.gov.uk,Gedling,http://www.gedling.gov.uk/,-1.07175000000000,NG4 4AD,2015-02-05,fhrs_5_en-GB,5,,FHRS,0
57137,39 Mansfield Road,Daybrook,Nottinghamshire,,Daybrook Fish Bar,Takeaway/sandwich shop,7844,10,,596053,10,,52.99682400000000,361/207,262,foodsafety@gedling.gov.uk,Gedling,http://www.gedling.gov.uk/,-1.13816000000000,NG5 6BB,2014-02-18,fhrs_3_en-GB,3,,FHRS,10
57138,,,,,Deborah Penzer - Cakes,Other catering premises,7841,0,,457393,0,,,2616,262,foodsafety@gedling.gov.uk,Gedling,http://www.gedling.gov.uk/,,,2014-11-28,fhrs_5_en-GB,5,,FHRS,0
57139,Unit 1,Pintail Close,Netherfield,Nottinghamshire,Deli Continental Ltd,Manufacturers/packers,7839,,,649004,,,52.95874900000000,459/723,262,foodsafety@gedling.gov.uk,Gedling,http://www.gedling.gov.uk/,-1.06378400000000,NG4 2PE,2014-09-29,fhrs_exempt_en-GB,Exempt,,FHRS,
57140,53 Main Street,Burton Joyce,Nottinghamshire,,Delights,Retailers - other,4613,10,,516959,0,,52.98939500000000,317/181,262,foodsafety@gedling.gov.uk,Gedling,http://www.gedling.gov.uk/,-1.03468200000000,NG14 5ED,2014-09-24,fhrs_4_en-GB,4,,FHRS,5
57141,932 Woodborough Road,Mapperley,Nottinghamshire,,Deli-icious,Restaurant/Cafe/Canteen,1,0,,558779,0,,52.98482700000000,1910/609,262,foodsafety@gedling.gov.uk,Gedling,http://www.gedling.gov.uk/,-1.12024100000000,NG3 5QS,2015-01-13,fhrs_5_en-GB,5,,FHRS,5
57142,Churchmoor Lane,Redhill,Nottinghamshire,,Derrymount School,School/college/university,7845,5,,587211,10,,53.01256800000000,129/064,262,foodsafety@gedling.gov.uk,Gedling,http://www.gedling.gov.uk/,-1.12628000000000,NG5 8HN,2013-09-26,fhrs_4_en-GB,4,,FHRS,5
57143,91 Mansfield Road,Papplewick,Nottinghamshire,,Dinky Donuts,Other catering premises,7841,0,,580857,0,,53.05650900000000,1417,262,foodsafety@gedling.gov.uk,Gedling,http://www.gedling.gov.uk/,-1.15496400000000,NG15 8FJ,2013-08-21,fhrs_5_en-GB,5,,FHRS,0
57144,294 Carlton Hill,Carlton,Nottinghamshire,,Dolly's,Restaurant/Cafe/Canteen,1,5,,733103,5,,52.96626100000000,2810,262,foodsafety@gedling.gov.uk,Gedling,http://www.gedling.gov.uk/,-1.10785700000000,NG4 1GD,2015-01-21,fhrs_5_en-GB,5,,FHRS,5
57145,390 Carlton Hill,Carlton,Nottinghamshire,,Dominoes Pizzas,Takeaway/sandwich shop,7844,0,,733105,0,,52.96578200000000,2825,262,foodsafety@gedling.gov.uk,Gedling,http://www.gedling.gov.uk/,-1.11358400000000,NG4 1JA,2015-01-20,fhrs_5_en-GB,5,,FHRS,0
57146,6 Beechwood Road,Arnold,Nottinghamshire,,Dotties Tea Room,Restaurant/Cafe/Canteen,1,10,,610834,5,,53.00632400000000,2702,262,foodsafety@gedling.gov.uk,Gedling,http://www.gedling.gov.uk/,-1.11586900000000,NG5 8BA,2013-11-13,fhrs_3_en-GB,3,,FHRS,10
57147,1A Duncroft Avenue,Gedling,Nottinghamshire,,Duncroft Day Nursery,Hospitals/Childcare/Caring Premises,5,5,,504368,0,,52.97322600000000,1379/789,262,foodsafety@gedling.gov.uk,Gedling,http://www.gedling.gov.uk/,-1.07930100000000,NG4 3FY,2014-01-07,fhrs_5_en-GB,5,,FHRS,5
57148,D W Sports Ltd,Drake Road,Netherfield,Nottinghamshire,DW Sports Fitness Nottingham,Other catering premises,7841,0,,706216,0,,52.96091700000000,2043,262,foodsafety@gedling.gov.uk,Gedling,http://www.gedling.gov.uk/,-1.06515100000000,NG4 2PA,2014-10-01,fhrs_5_en-GB,5,,FHRS,5
57149,E Act Sherwood  Academy,Wollaton Avenue,Gedling,Nottinghamshire,E Act Sherwood Academy,School/college/university,7845,0,,430407,0,,52.98157000000000,672/590,262,foodsafety@gedling.gov.uk,Gedling,http://www.gedling.gov.uk/,-1.09355600000000,NG4 4HX,2014-10-16,fhrs_5_en-GB,5,,FHRS,5
57150,342 Carlton Hill,Carlton,Nottinghamshire,,E L Bond ( Butchers Shop & Pie Manufacture),Retailers - other,4613,5,,463438,5,,52.96614800000000,91/256,262,foodsafety@gedling.gov.uk,Gedling,http://www.gedling.gov.uk/,-1.10946800000000,NG4 1JD,2014-11-21,fhrs_5_en-GB,5,,FHRS,5
57151,Eagle Public House,50 Howbeck Road,Arnold,Nottinghamshire,Eagle,Other catering premises,7841,5,,439338,5,,53.00540400000000,267/154,262,foodsafety@gedling.gov.uk,Gedling,http://www.gedling.gov.uk/,-1.10934600000000,NG5 8AD,2015-02-05,fhrs_5_en-GB,5,,FHRS,0
57152,37 Carlton Hill,Carlton,Nottinghamshire,,Earl Of Chesterfield,Other catering premises,7841,0,,439343,0,,52.96611600000000,69/026,262,foodsafety@gedling.gov.uk,Gedling,http://www.gedling.gov.uk/,-1.09219700000000,NG4 1BG,2012-08-22,fhrs_5_en-GB,5,,FHRS,5
57153,Eden Lodge Nursing Home,Park Road,Bestwood,Nottinghamshire,Eden Lodge Nursing And Care Home,Other catering premises,7841,5,,528775,5,,53.02273400000000,449/549,262,foodsafety@gedling.gov.uk,Gedling,http://www.gedling.gov.uk/,-1.17777800000000,NG6 8TQ,2014-10-16,fhrs_5_en-GB,5,,FHRS,5
57154,10 Sandford Road,Mapperley,Nottinghamshire,,Elm House,Hospitals/Childcare/Caring Premises,5,0,,466755,0,,52.98027700000000,1839,262,foodsafety@gedling.gov.uk,Gedling,http://www.gedling.gov.uk/,-1.12372900000000,NG3 6AL,2014-11-25,fhrs_5_en-GB,5,,FHRS,0
57155,Elmbank Nursing Home,35 Robinson Road,Mapperley,Nottinghamshire,Elmbank N. Home,Hospitals/Childcare/Caring Premises,5,5,,492564,5,,52.98037100000000,503/414,262,foodsafety@gedling.gov.uk,Gedling,http://www.gedling.gov.uk/,-1.12176100000000,NG3 6BB,2014-07-08,fhrs_5_en-GB,5,,FHRS,5
57156,8 High Street Avenue,Arnold,Nottinghamshire,,Emilios,Other catering premises,7841,10,,610831,10,,53.00305400000000,2262,262,foodsafety@gedling.gov.uk,Gedling,http://www.gedling.gov.uk/,-1.13076400000000,NG5 7DF,2013-11-12,fhrs_3_en-GB,3,,FHRS,10
57157,,,,,Emily's Cupcakes,Other catering premises,7841,5,,578392,0,,,2697,262,foodsafety@gedling.gov.uk,Gedling,http://www.gedling.gov.uk/,,,2013-08-05,fhrs_5_en-GB,5,,FHRS,0
57158,Emmanuel Church,Church View Close,Bestwood,Nottinghamshire,Emmanuel Church & Church Hall,Other catering premises,7841,,,648974,,,53.01199900000000,1546/1080,262,foodsafety@gedling.gov.uk,Gedling,http://www.gedling.gov.uk/,-1.15827700000000,NG5 9QP,2014-03-24,fhrs_exempt_en-GB,Exempt,,FHRS,
57159,182A Porchester Road,Mapperley,Nottinghamshire,,Emma's,Other catering premises,7841,10,,439337,5,,52.97085300000000,2105,262,foodsafety@gedling.gov.uk,Gedling,http://www.gedling.gov.uk/,-1.11964600000000,NG3 6LG,2014-02-12,fhrs_4_en-GB,4,,FHRS,5
57160,7 Main Road,Gedling,Nottinghamshire,,Endos Place,Other catering premises,7841,10,,558782,5,,52.97287600000000,2051,262,foodsafety@gedling.gov.uk,Gedling,http://www.gedling.gov.uk/,-1.08160100000000,NG4 3HQ,2013-06-13,fhrs_4_en-GB,4,,FHRS,5
57161,Derwent Crescent,Arnold,Nottinghamshire,,Ernehale Infants School,School/college/university,7845,5,,565232,0,,52.99621600000000,159/078,262,foodsafety@gedling.gov.uk,Gedling,http://www.gedling.gov.uk/,-1.11775900000000,NG5 6TA,2015-01-12,fhrs_5_en-GB,5,,FHRS,5
57162,Derwent Crescent,Arnold,Nottinghamshire,,Ernehale Junior School,School/college/university,7845,0,,565233,0,,52.99621600000000,160/732,262,foodsafety@gedling.gov.uk,Gedling,http://www.gedling.gov.uk/,-1.11775900000000,NG5 6TA,2013-07-08,fhrs_5_en-GB,5,,FHRS,5
57163,Beck Meadow Daycare Centre,Howbeck Road,Arnold,Nottinghamshire,Ernehale Lea - Gedling Day Services,Other catering premises,7841,0,,510845,0,,53.00560500000000,2009/1954,262,foodsafety@gedling.gov.uk,Gedling,http://www.gedling.gov.uk/,-1.10983300000000,NG5 8AA,2013-02-21,fhrs_5_en-GB,5,,FHRS,0
57164,Ernehale Lodge Nursing Home,Furlong Street,Arnold,Nottinghamshire,Ernehale Lodge Care Home,Other catering premises,7841,0,,578386,0,,53.00615200000000,227/1035,262,foodsafety@gedling.gov.uk,Gedling,http://www.gedling.gov.uk/,-1.13026900000000,NG5 7BN,2013-08-07,fhrs_5_en-GB,5,,FHRS,5
57165,384 Carlton Hill,Carlton,Nottinghamshire,,Everest Bhansaghar,Other catering premises,7841,5,,466766,5,,52.96578300000000,97/046,262,foodsafety@gedling.gov.uk,Gedling,http://www.gedling.gov.uk/,-1.11358500000000,NG4 1JA,2014-05-15,fhrs_5_en-GB,5,,FHRS,5
57166,ADT Car Auctions,2 Teal Close,Netherfield,Nottinghamshire,Expedier Catering (British Car Auctions),Restaurant/Cafe/Canteen,1,10,,638352,5,,52.96246600000000,1383/786,262,foodsafety@gedling.gov.uk,Gedling,http://www.gedling.gov.uk/,-1.07239800000000,NG4 2HU,2014-03-04,fhrs_4_en-GB,4,,FHRS,0
57167,904 Woodborough Road,Mapperley,Nottinghamshire,,Expresso Pizza,Takeaway/sandwich shop,7844,20,,370866,15,,52.98370800000000,687/623,262,foodsafety@gedling.gov.uk,Gedling,http://www.gedling.gov.uk/,-1.12203600000000,NG3 5QR,2014-03-05,fhrs_0_en-GB,0,,FHRS,20
57168,1 Wensley Road,Woodthorpe,Nottinghamshire,,F & S Jackson & Son,Retailers - other,4613,10,,516962,5,,52.99124200000000,637/562,262,foodsafety@gedling.gov.uk,Gedling,http://www.gedling.gov.uk/,-1.13080700000000,NG5 4JW,2013-03-12,fhrs_3_en-GB,3,,FHRS,10
57169,St Marys Church,Church Lane,Arnold,Nottinghamshire,Family Centre/st Mary's Church,Other catering premises,7841,,,583885,,,,125/060,262,foodsafety@gedling.gov.uk,Gedling,http://www.gedling.gov.uk/,,,2013-05-22,fhrs_exempt_en-GB,Exempt,,FHRS,
57170,Farmfoods,8 - 10 Carlton Square,Carlton,Nottinghamshire,Farmfoods Ltd,Retailers - supermarkets/hypermarkets,7840,0,,510842,0,,52.96689700000000,1967/1125,262,foodsafety@gedling.gov.uk,Gedling,http://www.gedling.gov.uk/,-1.08631400000000,NG4 3BP,2013-02-25,fhrs_5_en-GB,5,,FHRS,5
57171,,137 Front Street,Arnold,Nottinghamshire,Fatboy Caffe Restaurant,Restaurant/Cafe/Canteen,1,0,,451481,5,,53.00529400000000,2596,262,foodsafety@gedling.gov.uk,Gedling,http://www.gedling.gov.uk/,-1.12732100000000,NG5 7ED,2014-02-04,fhrs_4_en-GB,4,,FHRS,10
57172,Riverside,Stoke Lane,Stoke Bardolph,Nottinghamshire,Ferry Boat Inn,Pub/bar/nightclub,7843,0,,510866,0,,52.97230400000000,575/460,262,foodsafety@gedling.gov.uk,Gedling,http://www.gedling.gov.uk/,-1.03777300000000,NG14 5HX,2015-02-06,fhrs_5_en-GB,5,,FHRS,0
57173,Novara Plc,Findel Education,Pintail Close,Netherfield,Findel Education,Restaurant/Cafe/Canteen,1,5,,580860,0,,52.95835800000000,1970/1930,262,foodsafety@gedling.gov.uk,Gedling,http://www.gedling.gov.uk/,-1.06554900000000,NG4 2SG,2015-02-12,fhrs_5_en-GB,5,,FHRS,0
57174,329 Mansfield Road,Redhill,Nottinghamshire,,First Redhill Scout Group,Other catering premises,7841,,,610835,,,53.01141700000000,373,262,foodsafety@gedling.gov.uk,Gedling,http://www.gedling.gov.uk/,-1.13481400000000,NG5 8JT,2013-11-18,fhrs_exempt_en-GB,Exempt,,FHRS,
57175,Calverton Miners Welfare,Hollinwood Lane,Calverton,Nottinghamshire,Flavours,Other catering premises,7841,0,,528768,5,,53.04200100000000,264/135,262,foodsafety@gedling.gov.uk,Gedling,http://www.gedling.gov.uk/,-1.10119400000000,NG14 6NR,2013-03-14,fhrs_5_en-GB,5,,FHRS,5
57176,Floralands Nursery,Catfoot Lane,Lambley,Nottinghamshire,Floralands Coffee Shop,Other catering premises,7841,0,,528750,5,,53.00546400000000,110/054,262,foodsafety@gedling.gov.uk,Gedling,http://www.gedling.gov.uk/,-1.08298200000000,NG4 4QL,2014-08-22,fhrs_5_en-GB,5,,FHRS,5
57177,83 High Street,Arnold,Nottinghamshire,,Flying Horse,Other catering premises,7841,10,,479985,10,,53.00502900000000,254/131,262,foodsafety@gedling.gov.uk,Gedling,http://www.gedling.gov.uk/,-1.12914400000000,NG5 7DQ,2013-11-14,fhrs_3_en-GB,3,,FHRS,10
57178,Richard Herrod Leisure Centre,Foxhill Road Central,Carlton,Nottinghamshire,Forum Suite & R Herrod Bowls Bar And Restauarant,Restaurant/Cafe/Canteen,1,0,,700371,0,,52.97011400000000,1564/090,262,foodsafety@gedling.gov.uk,Gedling,http://www.gedling.gov.uk/,-1.10018400000000,NG4 1RL,2014-09-10,fhrs_5_en-GB,5,,FHRS,5
57179,87 Main Street,Woodborough,Nottinghamshire,,Four Bells,Other catering premises,7841,5,,454993,5,,53.02389100000000,334/193,262,foodsafety@gedling.gov.uk,Gedling,http://www.gedling.gov.uk/,-1.06656400000000,NG14 6EA,2014-04-14,fhrs_4_en-GB,4,,FHRS,10
57180,,,,,Four Seasons,Other catering premises,7841,,,607417,,,,2725,262,foodsafety@gedling.gov.uk,Gedling,http://www.gedling.gov.uk/,,,2014-10-23,fhrs_exempt_en-GB,Exempt,,FHRS,
57181,Fox And Hounds Hotel,Station Road,Carlton,Nottinghamshire,Fox & Hounds,Pub/bar/nightclub,7843,10,,454998,10,,52.96635100000000,566/455,262,foodsafety@gedling.gov.uk,Gedling,http://www.gedling.gov.uk/,-1.07955100000000,NG4 3AT,2014-02-18,fhrs_3_en-GB,3,,FHRS,10
57182,Foxhill Court,Foxhill Road East,Carlton,Nottinghamshire,Foxhill Court Community Centre,Other catering premises,7841,5,,479978,0,,52.96777000000000,1874,262,foodsafety@gedling.gov.uk,Gedling,http://www.gedling.gov.uk/,-1.09101600000000,NG4 1SF,2014-11-20,fhrs_5_en-GB,5,,FHRS,0
57183,78 Foxhill Road East,Carlton,Nottinghamshire,,Foxhill News & Off Licence,Retailers - other,4613,10,,349079,5,,52.96811400000000,189/091,262,foodsafety@gedling.gov.uk,Gedling,http://www.gedling.gov.uk/,-1.09364400000000,NG4 1RT,2014-04-23,fhrs_3_en-GB,3,,FHRS,10
57184,Frankie And Bennys,Victoria Park Way,Netherfield,Nottinghamshire,Frankie & Benny's,Restaurant/Cafe/Canteen,1,0,,700372,0,,52.96091700000000,2667,262,foodsafety@gedling.gov.uk,Gedling,http://www.gedling.gov.uk/,-1.06515100000000,NG4 2PA,2014-09-04,fhrs_5_en-GB,5,,FHRS,0
57185,Fratelli Cafe,351 Carlton Hill,Carlton,Nottinghamshire,Fratelli,Other catering premises,7841,0,,357085,0,,52.96564300000000,1454/1101/C1,262,foodsafety@gedling.gov.uk,Gedling,http://www.gedling.gov.uk/,-1.11047600000000,NG4 1JE,2014-05-28,fhrs_5_en-GB,5,,FHRS,0
57186,Friar Tuck,Gedling Road,Arnold,Nottinghamshire,Friar Tuck Flaming Grill,Other catering premises,7841,0,,534319,5,,53.00041500000000,233/123,262,foodsafety@gedling.gov.uk,Gedling,http://www.gedling.gov.uk/,-1.12394700000000,NG5 6NW,2013-04-08,fhrs_5_en-GB,5,,FHRS,0
57187,257 Foxhill Road Central,Carlton,Nottinghamshire,,Friendly Stores,Retailers - other,4613,5,,648976,5,,52.97032400000000,190/900,262,foodsafety@gedling.gov.uk,Gedling,http://www.gedling.gov.uk/,-1.10418500000000,NG4 1PJ,2014-03-25,fhrs_5_en-GB,5,,FHRS,5
57188,271 Westdale Lane East,Carlton,Nottinghamshire,,G S Mann Chemist,Retailers - other,4613,,,504390,,,52.97985000000000,651/577,262,foodsafety@gedling.gov.uk,Gedling,http://www.gedling.gov.uk/,-1.10255800000000,NG4 4FG,2013-01-17,fhrs_exempt_en-GB,Exempt,,FHRS,
57189,66 Main Road,Gedling,Nottinghamshire,,Gedling Club & Institute,Pub/bar/nightclub,7843,5,,638359,5,,52.97527600000000,303/536,262,foodsafety@gedling.gov.uk,Gedling,http://www.gedling.gov.uk/,-1.07811000000000,NG4 3HG,2014-02-04,fhrs_5_en-GB,5,,FHRS,5
57190,9 Westdale Lane East,Carlton,Nottinghamshire,,Gedling Fish Bar (Phil's Plaice),Takeaway/sandwich shop,7844,0,,349087,0,,52.97210400000000,642/570,262,foodsafety@gedling.gov.uk,Gedling,http://www.gedling.gov.uk/,-1.08301800000000,NG4 3JF,2013-11-12,fhrs_5_en-GB,5,,FHRS,0
57191,Chesterfield Arms,50 Main Road,Gedling,Nottinghamshire,Gedling Inn,Pub/bar/nightclub,7843,10,,510853,10,,52.97486300000000,294/173,262,foodsafety@gedling.gov.uk,Gedling,http://www.gedling.gov.uk/,-1.08048700000000,NG4 3HL,2014-09-22,fhrs_3_en-GB,3,,FHRS,10
57192,Memorial Hall,Main Road,Gedling,Nottinghamshire,Gedling Memorial Church,Other catering premises,7841,,,624721,,,,302/966,262,foodsafety@gedling.gov.uk,Gedling,http://www.gedling.gov.uk/,,,2014-01-06,fhrs_exempt_en-GB,Exempt,,FHRS,
57193,Carlton Methodist Church,Gedling Road,Carlton,Nottinghamshire,Gedling Rd Methodist Churc,Other catering premises,7841,,,504392,,,52.96969900000000,937,262,foodsafety@gedling.gov.uk,Gedling,http://www.gedling.gov.uk/,-1.08238300000000,NG4 3EX,2015-01-29,fhrs_exempt_en-GB,Exempt,,FHRS,
57194,386 Gedling Road,Woodthorpe,Nottinghamshire,,Gedling Road News,Retailers - other,4613,10,,409148,0,,52.99347500000000,237/661,262,foodsafety@gedling.gov.uk,Gedling,http://www.gedling.gov.uk/,-1.11179600000000,NG5 6PD,2014-06-25,fhrs_4_en-GB,4,,FHRS,10
57195,,,,,Gift Wrapped Gifts,Other catering premises,7841,0,,396047,0,,,2588,262,foodsafety@gedling.gov.uk,Gedling,http://www.gedling.gov.uk/,,,2014-07-21,fhrs_5_en-GB,5,,FHRS,0
57196,133 Sherbrook Road,Daybrook,Nottinghamshire,,Gifto's Mini Market,Retailers - other,4613,10,,331363,5,,52.99829400000000,2084,262,foodsafety@gedling.gov.uk,Gedling,http://www.gedling.gov.uk/,-1.14504400000000,NG5 6AS,2014-04-30,fhrs_4_en-GB,4,,FHRS,0
57197,59 - 61 Gedling Road,Carlton,Nottinghamshire,,Gncs (Store 144),Retailers - other,4613,0,,543131,0,,52.97150600000000,243/126,262,foodsafety@gedling.gov.uk,Gedling,http://www.gedling.gov.uk/,-1.08230100000000,NG4 3FG,2013-04-16,fhrs_5_en-GB,5,,FHRS,5
57198,461 Westdale Lane West,Mapperley,Nottinghamshire,,Go Local Store,Retailers - other,4613,10,,682167,5,,52.98465400000000,2790,262,foodsafety@gedling.gov.uk,Gedling,http://www.gedling.gov.uk/,-1.11754800000000,NG3 6DH,2014-07-14,fhrs_4_en-GB,4,,FHRS,5
57199,322 Carlton Hill,Carlton,Nottinghamshire,,Golden Harvest,Takeaway/sandwich shop,7844,10,,357099,10,,52.96626100000000,82/303,262,foodsafety@gedling.gov.uk,Gedling,http://www.gedling.gov.uk/,-1.10785700000000,NG4 1GD,2013-11-07,fhrs_3_en-GB,3,,FHRS,10
57200,148 Front Street,Arnold,Nottinghamshire,,Golden Wok,Takeaway/sandwich shop,7844,10,,590979,5,,53.00513800000000,221/120,262,foodsafety@gedling.gov.uk,Gedling,http://www.gedling.gov.uk/,-1.12681700000000,NG5 7EG,2013-10-02,fhrs_4_en-GB,4,,FHRS,5
57201,81 Howbeck Road,Arnold,Nottinghamshire,,Good Food Il,Other catering premises,7841,10,,553243,5,,53.00560500000000,271/957,262,foodsafety@gedling.gov.uk,Gedling,http://www.gedling.gov.uk/,-1.10983400000000,NG5 8AA,2014-06-04,fhrs_4_en-GB,4,,FHRS,5
57202,Carlton Pentecostal Church Nursery,45 Station Road,Carlton,Nottinghamshire,Good Foundations Day Nursery,Restaurant/Cafe/Canteen,1,0,,454997,5,,52.96624700000000,1219,262,foodsafety@gedling.gov.uk,Gedling,http://www.gedling.gov.uk/,-1.08227800000000,NG4 3AR,2014-01-15,fhrs_5_en-GB,5,,FHRS,0
57203,The Good Shepherd Primary School,Somersby Road,Woodthorpe,Nottinghamshire,Good Shepherd Primary Sch,School/college/university,7845,0,,510862,0,,52.99207200000000,539/436,262,foodsafety@gedling.gov.uk,Gedling,http://www.gedling.gov.uk/,-1.12134500000000,NG5 4LT,2014-09-25,fhrs_5_en-GB,5,,FHRS,0
57204,Goosedale Lane,Bestwood,Nottinghamshire,,Goosedale Farm,Other catering premises,7841,5,,479979,5,,53.03446900000000,1954,262,foodsafety@gedling.gov.uk,Gedling,http://www.gedling.gov.uk/,-1.15778000000000,NG6 8UJ,2012-11-27,fhrs_5_en-GB,5,,FHRS,5
57205,Goosedale Sports Ground,Goosedale Lane,Bestwood,Nottinghamshire,Goosedale Sports Club,Other catering premises,7841,10,,649001,5,,53.03446900000000,400/362,262,foodsafety@gedling.gov.uk,Gedling,http://www.gedling.gov.uk/,-1.15778000000000,NG6 8UJ,2014-03-19,fhrs_4_en-GB,4,,FHRS,5
57206,10 St Wilfrids Square,Calverton,Nottinghamshire,,Greggs,Retailers - other,4613,0,,430402,0,,53.03719800000000,2429,262,foodsafety@gedling.gov.uk,Gedling,http://www.gedling.gov.uk/,-1.08190600000000,NG14 6FP,2014-11-03,fhrs_5_en-GB,5,,FHRS,0
57207,51 Front Street,Arnold,Nottinghamshire,,Greggs,Retailers - other,4613,0,,583890,5,,53.00244700000000,200/104,262,foodsafety@gedling.gov.uk,Gedling,http://www.gedling.gov.uk/,-1.12891300000000,NG5 7EA,2013-09-09,fhrs_5_en-GB,5,,FHRS,5
57208,922 Woodborough Road,Mapperley,Nottinghamshire,,Greggs Plc,Takeaway/sandwich shop,7844,0,,485215,0,,52.98482700000000,1350/276,262,foodsafety@gedling.gov.uk,Gedling,http://www.gedling.gov.uk/,-1.12024100000000,NG3 5QS,2015-01-13,fhrs_5_en-GB,5,,FHRS,0
57209,Greggs,Unit R1B,Victoria Park Way,Netherfield,Greggs Plc,Retailers - other,4613,0,,719326,0,,52.95874900000000,2757,262,foodsafety@gedling.gov.uk,Gedling,http://www.gedling.gov.uk/,-1.06378400000000,NG4 2PE,2014-11-03,fhrs_5_en-GB,5,,FHRS,5
57210,Moor Road,Papplewick,Nottinghamshire,,Griffins Head,Pub/bar/nightclub,7843,0,,528761,0,,53.04957700000000,181/298,262,foodsafety@gedling.gov.uk,Gedling,http://www.gedling.gov.uk/,-1.18193600000000,NG15 8EN,2013-03-19,fhrs_5_en-GB,5,,FHRS,0
57211,Haddon Close,Carlton,Nottinghamshire,,Haddon Primary School,School/college/university,7845,5,,376454,0,,52.97701100000000,249/248,262,foodsafety@gedling.gov.uk,Gedling,http://www.gedling.gov.uk/,-1.09567700000000,NG4 4GT,2012-05-25,fhrs_5_en-GB,5,,FHRS,5
57212,15 Flatts Lane,Calverton,Nottinghamshire,,Happy Seasons,Other catering premises,7841,5,,504372,10,,53.04129800000000,175/086,262,foodsafety@gedling.gov.uk,Gedling,http://www.gedling.gov.uk/,-1.08794900000000,NG14 6LA,2014-03-13,fhrs_4_en-GB,4,,FHRS,5
57213,16 Main Road,Gedling,Nottinghamshire,,Harrisons,Restaurant/Cafe/Canteen,1,10,,479981,10,,52.97270100000000,2022/1964,262,foodsafety@gedling.gov.uk,Gedling,http://www.gedling.gov.uk/,-1.08105400000000,NG4 3HP,2014-05-20,fhrs_4_en-GB,4,,FHRS,0
57214,School Walk,Bestwood,Nottinghamshire,,Hawthorne Nursing Home,Hospitals/Childcare/Caring Premises,5,0,,479997,5,,53.02476900000000,518/555,262,foodsafety@gedling.gov.uk,Gedling,http://www.gedling.gov.uk/,-1.17836500000000,NG6 8UU,2014-06-03,fhrs_5_en-GB,5,,FHRS,5
57215,School Walk,Bestwood,Nottinghamshire,,Hawthorne Primary School,School/college/university,7845,5,,357094,0,,53.02476900000000,519/425,262,foodsafety@gedling.gov.uk,Gedling,http://www.gedling.gov.uk/,-1.17836500000000,NG6 8UU,2014-05-13,fhrs_5_en-GB,5,,FHRS,0
57216,Community Centre,46 Haywood Road,Mapperley,Nottinghamshire,Haywood Road Community Centre,Other catering premises,7841,,,722806,,,52.98103600000000,252/148,262,foodsafety@gedling.gov.uk,Gedling,http://www.gedling.gov.uk/,-1.12428000000000,NG3 6AB,2014-12-15,fhrs_exempt_en-GB,Exempt,,FHRS,
57217,400 Westdale Lane West,Mapperley,Nottinghamshire,,Hazel Hurst School,School/college/university,7845,5,,454995,0,,52.98508400000000,668/585,262,foodsafety@gedling.gov.uk,Gedling,http://www.gedling.gov.uk/,-1.11734600000000,NG3 6DG,2013-10-07,fhrs_5_en-GB,5,,FHRS,0
57218,,,,,Helen's Cuppys And Cakes,Other catering premises,7841,0,,548333,0,,,2672,262,foodsafety@gedling.gov.uk,Gedling,http://www.gedling.gov.uk/,,,2013-05-10,fhrs_5_en-GB,5,,FHRS,0
57219,9 Milton Court,Arnold,Ravenshead,Nottinghamshire,Hoi Shan,Other catering premises,7841,10,,587224,5,,53.08550400000000,396/296,262,foodsafety@gedling.gov.uk,Gedling,http://www.gedling.gov.uk/,-1.16586200000000,NG15 9BD,2013-09-03,fhrs_4_en-GB,4,,FHRS,5
57220,11 Woodchurch Road,Bestwood,Nottinghamshire,,Hollies Country Park Day Nursery,Hospitals/Childcare/Caring Premises,5,5,,510838,10,,53.01087400000000,1587/920,262,foodsafety@gedling.gov.uk,Gedling,http://www.gedling.gov.uk/,-1.15429000000000,NG5 8NJ,2014-02-10,fhrs_4_en-GB,4,,FHRS,5
57221,Holly Lodge,Ricket Lane,Ravenshead,Nottinghamshire,Holly Lodge Country Guest House,Hotel/bed & breakfast/guest house,7842,5,,649006,5,,53.09592500000000,501/651,262,foodsafety@gedling.gov.uk,Gedling,http://www.gedling.gov.uk/,-1.17002200000000,NG21 0NQ,2014-04-03,fhrs_5_en-GB,5,,FHRS,5
57222,3 - 5 High Street,Arnold,Nottinghamshire,,HO-ME,Restaurant/Cafe/Canteen,1,5,,638357,5,,53.00196300000000,2740,262,foodsafety@gedling.gov.uk,Gedling,http://www.gedling.gov.uk/,-1.13026400000000,NG5 7DA,2015-01-28,fhrs_5_en-GB,5,,FHRS,5
57223,,,,,Home Caterer Bread Making,Other catering premises,7841,5,,466759,0,,,2625,262,foodsafety@gedling.gov.uk,Gedling,http://www.gedling.gov.uk/,,,2014-11-29,fhrs_5_en-GB,5,,FHRS,0
57224,2 Nottingham Road,Burton Joyce,Nottingham,Nottinghamshire,Honey Pot Private Day Nursery,Hospitals/Childcare/Caring Premises,5,0,,543125,0,,52.98637300000000,1805/993,262,foodsafety@gedling.gov.uk,Gedling,http://www.gedling.gov.uk/,-1.04002300000000,NG14 5AE,2014-10-14,fhrs_5_en-GB,5,,FHRS,5
57225,1 Old Brickyard,Carlton,Nottinghamshire,,Honeywood Stores,Retailers - other,4613,5,,528769,5,,52.96627300000000,2649,262,foodsafety@gedling.gov.uk,Gedling,http://www.gedling.gov.uk/,-1.11662700000000,NG3 6PB,2013-03-13,fhrs_5_en-GB,5,,FHRS,5
57226,902 Woodborough Road,Mapperley,Nottinghamshire,,Hoo Tak,Takeaway/sandwich shop,7844,5,,580859,10,,52.98370800000000,1880/1054,262,foodsafety@gedling.gov.uk,Gedling,http://www.gedling.gov.uk/,-1.12203600000000,NG3 5QR,2014-09-30,fhrs_4_en-GB,4,,FHRS,5
57227,Horse And Jockey,91 Front Street,Arnold,Nottinghamshire,Horse & Jockey,Pub/bar/nightclub,7843,10,,428985,10,,53.00355500000000,209/112,262,foodsafety@gedling.gov.uk,Gedling,http://www.gedling.gov.uk/,-1.12799700000000,NG5 7EB,2014-07-28,fhrs_3_en-GB,3,,FHRS,10
57228,12A Main Street,Linby,Nottinghamshire,,Horse And Groom,Pub/bar/nightclub,7843,20,,493281,10,,53.05422200000000,330/190,262,foodsafety@gedling.gov.uk,Gedling,http://www.gedling.gov.uk/,-1.20269100000000,NG15 8AE,2014-09-29,fhrs_1_en-GB,1,,FHRS,15
57229,Dorket Head Factory,Lime Lane,Arnold,Nottinghamshire,Ibstock Brick,Other catering premises,7841,5,,580865,5,,53.02217900000000,283/082,262,foodsafety@gedling.gov.uk,Gedling,http://www.gedling.gov.uk/,-1.11909400000000,NG5 8PZ,2013-08-29,fhrs_5_en-GB,5,,FHRS,5
57230,Iceland,Unit 1,303 - 305 Carlton Hill,Carlton,Iceland Foods Plc,Retailers - supermarkets/hypermarkets,7840,0,,528762,0,,,1934,262,foodsafety@gedling.gov.uk,Gedling,http://www.gedling.gov.uk/,,,2013-03-21,fhrs_5_en-GB,5,,FHRS,0
57231,77 Front Street,Arnold,Nottinghamshire,,Iceland Frozen Foods,Retailers - supermarkets/hypermarkets,7840,0,,433973,5,,53.00355500000000,205/109,262,foodsafety@gedling.gov.uk,Gedling,http://www.gedling.gov.uk/,-1.12799700000000,NG5 7EB,2014-08-11,fhrs_5_en-GB,5,,FHRS,5
57232,Coppice Lodge,117 Coppice Road,Arnold,Nottinghamshire,Ideal Care Homes Ltd,Hospitals/Childcare/Caring Premises,5,0,,428988,0,,53.00637200000000,2597,262,foodsafety@gedling.gov.uk,Gedling,http://www.gedling.gov.uk/,-1.11746300000000,NG5 7GS,2014-01-28,fhrs_5_en-GB,5,,FHRS,0
57233,,,,,In Ya Cake 'ole,Other catering premises,7841,5,,553242,5,,,2683,262,foodsafety@gedling.gov.uk,Gedling,http://www.gedling.gov.uk/,,,2013-06-03,fhrs_5_en-GB,5,,FHRS,5
57234,Indian Spice,133 Oxclose Lane,Arnold,Nottinghamshire,Indian  Spice,Takeaway/sandwich shop,7844,10,,558785,10,,52.99947600000000,2545,262,foodsafety@gedling.gov.uk,Gedling,http://www.gedling.gov.uk/,-1.14682400000000,NG5 6FN,2013-06-06,fhrs_3_en-GB,3,,FHRS,10
57235,884B Woodborough Road,Mapperley,Nottinghamshire,,Indigo,Takeaway/sandwich shop,7844,10,,669547,5,,52.98370800000000,1616/783,262,foodsafety@gedling.gov.uk,Gedling,http://www.gedling.gov.uk/,-1.12203600000000,NG3 5QR,2014-06-12,fhrs_4_en-GB,4,,FHRS,5
57236,146 Burton Road,Carlton,Nottinghamshire,,Inn For A Penny,Pub/bar/nightclub,7843,10,,543140,10,,52.97036600000000,56/020,262,foodsafety@gedling.gov.uk,Gedling,http://www.gedling.gov.uk/,-1.07672600000000,NG4 3GP,2014-10-14,fhrs_3_en-GB,3,,FHRS,10
57237,Carlton Le Willows Comprehensive Sc,Wood Lane,Gedling,Nottinghamshire,Innovate Services Ltd,School/college/university,7845,0,,485225,5,,52.97813000000000,678/593,262,foodsafety@gedling.gov.uk,Gedling,http://www.gedling.gov.uk/,-1.07175000000000,NG4 4AD,2014-06-13,fhrs_5_en-GB,5,,FHRS,5
57238,Its Inn The Bank,34 Victoria Road,Netherfield,Nottinghamshire,It's Inn The Bank,Other catering premises,7841,5,,587210,0,,52.96419700000000,1266/974,262,foodsafety@gedling.gov.uk,Gedling,http://www.gedling.gov.uk/,-1.07886700000000,NG4 2HE,2013-09-19,fhrs_5_en-GB,5,,FHRS,5
57239,57 Front Street,Arnold,Nottinghamshire,,J E M Amusements Ltd,Other catering premises,7841,10,,607414,5,,53.00244700000000,1542,262,foodsafety@gedling.gov.uk,Gedling,http://www.gedling.gov.uk/,-1.12891300000000,NG5 7EA,2013-11-11,fhrs_4_en-GB,4,,FHRS,0
57240,Lambley Village Hall,Catfoot Lane,Lambley,Nottinghamshire,J Pac Ltd,School/college/university,7845,,,648999,,,53.00248600000000,2761,262,foodsafety@gedling.gov.uk,Gedling,http://www.gedling.gov.uk/,-1.06762100000000,NG4 4QF,2014-03-24,fhrs_exempt_en-GB,Exempt,,FHRS,
57241,,,,,Jayne's Kitchen,Other catering premises,7841,5,,578391,0,,,2695,262,foodsafety@gedling.gov.uk,Gedling,http://www.gedling.gov.uk/,,,2013-08-06,fhrs_5_en-GB,5,,FHRS,0
57242,724 Mansfield Road,Woodthorpe,Nottinghamshire,,Jayplex Chemist Ltd,Retailers - other,4613,,,447849,,,52.98677900000000,375/211,262,foodsafety@gedling.gov.uk,Gedling,http://www.gedling.gov.uk/,-1.14127900000000,NG5 3FW,2014-09-19,fhrs_exempt_en-GB,Exempt,,FHRS,
57243,Forest Service Station,Ollerton Road,Calverton,Nottinghamshire,Jet Filling Station,Retailers - other,4613,5,,572030,5,,53.05742300000000,432/330,262,foodsafety@gedling.gov.uk,Gedling,http://www.gedling.gov.uk/,-1.11137700000000,NG14 6NW,2013-07-08,fhrs_5_en-GB,5,,FHRS,5
57244,17A Chaworth Road,Colwick,Nottinghamshire,,Joe's Cafe,Restaurant/Cafe/Canteen,1,10,,534325,10,,52.96016800000000,2661,262,foodsafety@gedling.gov.uk,Gedling,http://www.gedling.gov.uk/,-1.08212400000000,NG4 2FZ,2013-12-12,fhrs_3_en-GB,3,,FHRS,5
57245,Jessop & Son Ltd,Brookfield Road,Arnold,Nottinghamshire,John Lewis,Restaurant/Cafe/Canteen,1,0,,485223,0,,53.00289900000000,36/042,262,foodsafety@gedling.gov.uk,Gedling,http://www.gedling.gov.uk/,-1.11817500000000,NG5 7FH,2014-12-01,fhrs_5_en-GB,5,,FHRS,5
57246,3 Carlton Square,Carlton,Nottinghamshire,,Joy King House,Takeaway/sandwich shop,7844,10,,433971,10,,52.96689800000000,103/049,262,foodsafety@gedling.gov.uk,Gedling,http://www.gedling.gov.uk/,-1.08631400000000,NG4 3BP,2013-07-16,fhrs_2_en-GB,2,,FHRS,15
57247,13 Carlton Square,Carlton,Nottinghamshire,,Just Delicious,Other catering premises,7841,10,,479970,10,,52.96689800000000,100/051,262,foodsafety@gedling.gov.uk,Gedling,http://www.gedling.gov.uk/,-1.08631400000000,NG4 3BP,2012-11-28,fhrs_2_en-GB,2,,FHRS,15
57248,365 Carlton Hill,Carlton,Nottinghamshire,,Just Delicious,Other catering premises,7841,10,,510847,5,,52.96537500000000,2068,262,foodsafety@gedling.gov.uk,Gedling,http://www.gedling.gov.uk/,-1.11317600000000,NG4 1HW,2014-10-03,fhrs_4_en-GB,4,,FHRS,5
57249,776 Mansfield Road,Woodthorpe,Nottinghamshire,,K K S  Food And Wine,Retailers - other,4613,5,,558784,0,,52.99242600000000,2426,262,foodsafety@gedling.gov.uk,Gedling,http://www.gedling.gov.uk/,-1.13900700000000,NG5 3FH,2013-06-11,fhrs_5_en-GB,5,,FHRS,5
57250,9 Milton Court,Ravenshead,Nottinghamshire,,Kelvin's Fish Bar,Takeaway/sandwich shop,7844,10,,479976,10,,53.08550400000000,1722,262,foodsafety@gedling.gov.uk,Gedling,http://www.gedling.gov.uk/,-1.16586200000000,NG15 9BD,2012-11-26,fhrs_3_en-GB,3,,FHRS,10
57251,Kielys,308 Carlton Hill,Carlton,Nottinghamshire,Kieleys,Other catering premises,7841,5,,480006,5,,52.96626100000000,765/1119,262,foodsafety@gedling.gov.uk,Gedling,http://www.gedling.gov.uk/,-1.10785700000000,NG4 1GD,2013-11-14,fhrs_5_en-GB,5,,FHRS,5
57252,Community Centre,Killisick Road,Arnold,Nottinghamshire,Killisick Community Centre,Other catering premises,7841,,,548337,,,53.00782800000000,278/161,262,foodsafety@gedling.gov.uk,Gedling,http://www.gedling.gov.uk/,-1.11503400000000,NG5 8BD,2013-05-17,fhrs_exempt_en-GB,Exempt,,FHRS,
57253,Killisick Road,Arnold,Nottinghamshire,,Killisick Junior School,School/college/university,7845,0,,516957,0,,53.00695600000000,277/160,262,foodsafety@gedling.gov.uk,Gedling,http://www.gedling.gov.uk/,-1.11251800000000,NG5 8BY,2015-02-09,fhrs_5_en-GB,5,,FHRS,5
57254,150 - 152 Porchester Road,Carlton,Nottinghamshire,,Kingfisher Day Nursery,Hospitals/Childcare/Caring Premises,5,0,,504371,0,,52.96941400000000,1718/965,262,foodsafety@gedling.gov.uk,Gedling,http://www.gedling.gov.uk/,-1.11949600000000,NG3 6LB,2014-01-17,fhrs_5_en-GB,5,,FHRS,0
57255,Gedling Borough Council,Civic Centre,Arnot Hill Park,Arnold,Kiosk,Retailers - other,4613,5,,543126,0,,52.99618900000000,1929/,262,foodsafety@gedling.gov.uk,Gedling,http://www.gedling.gov.uk/,-1.13356800000000,NG5 6LU,2013-05-01,fhrs_5_en-GB,5,,FHRS,0
57256,62 Rolleston Drive,Arnold,Nottinghamshire,,K'S Pantry,Retailers - other,4613,5,,430398,5,,53.00139700000000,1437/750,262,foodsafety@gedling.gov.uk,Gedling,http://www.gedling.gov.uk/,-1.11687900000000,NG5 7JN,2014-01-16,fhrs_4_en-GB,4,,FHRS,10
57257,32 Front Street,Arnold,Nottinghamshire,,Kwik Tan,Retailers - other,4613,0,,534318,0,,53.00206000000000,197/224,262,foodsafety@gedling.gov.uk,Gedling,http://www.gedling.gov.uk/,-1.12886100000000,NG5 7EL,2014-09-19,fhrs_5_en-GB,5,,FHRS,0
57258,22 Carlton Square,Carlton,Nottinghamshire,,La Piazza,Other catering premises,7841,20,,583884,5,,52.96689800000000,101/628,262,foodsafety@gedling.gov.uk,Gedling,http://www.gedling.gov.uk/,-1.08631400000000,NG4 3BP,2013-09-05,fhrs_1_en-GB,1,,FHRS,10
57259,Mansfield Road,Bestwood,Nottinghamshire,,Lakeside,Other catering premises,7841,5,,463425,10,,53.03340800000000,1817/1003,262,foodsafety@gedling.gov.uk,Gedling,http://www.gedling.gov.uk/,-1.14019000000000,NG5 8PH,2013-10-25,fhrs_4_en-GB,4,,FHRS,5
57260,The Old School Room,Church Street,Lambley,Nottinghamshire,Lambley Day Nursery,Hospitals/Childcare/Caring Premises,5,5,,492559,0,,53.00266100000000,1492/800,262,foodsafety@gedling.gov.uk,Gedling,http://www.gedling.gov.uk/,-1.06009200000000,NG4 4QB,2014-10-31,fhrs_5_en-GB,5,,FHRS,5
57261,74 Main Street,Lambley,Nottinghamshire,,Lambley Motors Shop,Other catering premises,7841,,,466756,,,53.00071500000000,1938/1098,262,foodsafety@gedling.gov.uk,Gedling,http://www.gedling.gov.uk/,-1.06074500000000,NG4 4PP,2015-01-27,fhrs_exempt_en-GB,Exempt,,FHRS,
57262,Catfoot Lane,Lambley,Nottinghamshire,,Lambley Primary School,School/college/university,7845,0,,313101,5,,53.00248600000000,108/228,262,foodsafety@gedling.gov.uk,Gedling,http://www.gedling.gov.uk/,-1.06762100000000,NG4 4QF,2013-07-05,fhrs_5_en-GB,5,,FHRS,5
57263,The Larch Farm,2 Mansfield Road (north),Ravenshead,Nottinghamshire,Larch Farm Public House,Pub/bar/nightclub,7843,5,,457386,0,,53.09311800000000,1706/865,262,foodsafety@gedling.gov.uk,Gedling,http://www.gedling.gov.uk/,-1.17876700000000,NG15 9HA,2012-10-16,fhrs_4_en-GB,4,,FHRS,10
57264,Latvian Social Club,1A Standhill Road,Carlton,Nottinghamshire,Latvian Welfare Social Club,Pub/bar/nightclub,7843,,,463436,,,52.96640900000000,603,262,foodsafety@gedling.gov.uk,Gedling,http://www.gedling.gov.uk/,-1.11193400000000,NG4 1JL,2014-11-27,fhrs_exempt_en-GB,Exempt,,FHRS,
57265,Douro Drive,Arnold,Nottinghamshire,,Leivers Court,Other catering premises,7841,5,,318342,5,,53.00985200000000,164/234,262,foodsafety@gedling.gov.uk,Gedling,http://www.gedling.gov.uk/,-1.11268200000000,NG5 8AX,2013-10-11,fhrs_5_en-GB,5,,FHRS,0
57266,Leos Childrens Nurseries Ltd,66 St Albans Road,Arnold,Nottinghamshire,Leo's Childrens Day Nurseries Ltd,Hospitals/Childcare/Caring Premises,5,0,,444701,5,,53.00220800000000,545/441,262,foodsafety@gedling.gov.uk,Gedling,http://www.gedling.gov.uk/,-1.13428200000000,NG5 6GS,2014-02-10,fhrs_5_en-GB,5,,FHRS,0
57267,Arnold Mill Primary School,Cross Street,Arnold,Nottinghamshire,Leo's Den,Hospitals/Childcare/Caring Premises,5,,,648982,,,53.00576000000000,2039/1978,262,foodsafety@gedling.gov.uk,Gedling,http://www.gedling.gov.uk/,-1.13318300000000,NG5 7AX,2014-03-17,fhrs_exempt_en-GB,Exempt,,FHRS,
57268,Netherfield Youth & Community Centr,Ley Street,Netherfield,Nottinghamshire,Ley Street Day Service,Other catering premises,7841,,,619352,,,52.96525600000000,1941/162,262,foodsafety@gedling.gov.uk,Gedling,http://www.gedling.gov.uk/,-1.07284400000000,NG4 2PH,2013-12-12,fhrs_exempt_en-GB,Exempt,,FHRS,
57269,Lidl Uk Gmbh,2 - 8 Great Northern Way,Netherfield,Nottinghamshire,Lidl Ltd,Retailers - other,4613,0,,648979,0,,52.96314100000000,1974/1935,262,foodsafety@gedling.gov.uk,Gedling,http://www.gedling.gov.uk/,-1.06898900000000,NG4 2HD,2014-03-13,fhrs_5_en-GB,5,,FHRS,0
57270,Linby Cum Papplewick Church Of Engl,Quarry Lane,Linby,Nottinghamshire,Linby C E School,School/college/university,7845,0,,504383,0,,53.06270300000000,494/406,262,foodsafety@gedling.gov.uk,Gedling,http://www.gedling.gov.uk/,-1.20198200000000,NG15 8GA,2015-01-15,fhrs_5_en-GB,5,,FHRS,0
57271,Marshall Hill Drive,Carlton,Nottingham,Nottinghamshire,Lindsay Morgan Hall,Other catering premises,7841,,,447850,,,52.98049100000000,385/728,262,foodsafety@gedling.gov.uk,Gedling,http://www.gedling.gov.uk/,-1.10889000000000,NG3 6FY,2014-10-09,fhrs_exempt_en-GB,Exempt,,FHRS,
57272,,,,,Lisa's Pantry,Other catering premises,7841,5,,454991,0,,,2599,262,foodsafety@gedling.gov.uk,Gedling,http://www.gedling.gov.uk/,,,2014-04-23,fhrs_5_en-GB,5,,FHRS,5
57273,1A First Avenue,Carlton,Nottinghamshire,,Little Bears Day  Nursery,Hospitals/Childcare/Caring Premises,5,10,,572020,0,,52.96789600000000,170/731,262,foodsafety@gedling.gov.uk,Gedling,http://www.gedling.gov.uk/,-1.10642400000000,NG4 1PH,2014-06-10,fhrs_4_en-GB,4,,FHRS,5
57274,69 Sandford Road,Mapperley,Nottinghamshire,,Little Sunshines,Hospitals/Childcare/Caring Premises,5,,,548334,,,52.98278700000000,2673,262,foodsafety@gedling.gov.uk,Gedling,http://www.gedling.gov.uk/,-1.12032700000000,NG3 6AH,2013-05-13,fhrs_exempt_en-GB,Exempt,,FHRS,
57275,3 Flatts Lane,Calverton,Nottinghamshire,,Londis,Retailers - other,4613,5,,510840,5,,53.04129800000000,178/533,262,foodsafety@gedling.gov.uk,Gedling,http://www.gedling.gov.uk/,-1.08794900000000,NG14 6LA,2013-02-13,fhrs_5_en-GB,5,,FHRS,0
57276,London Midland Railway Club Associa,2 Victoria Park Way,Netherfield,Nottinghamshire,London Midland Railway Club,Other catering premises,7841,5,,649009,5,,52.96091700000000,609/505,262,foodsafety@gedling.gov.uk,Gedling,http://www.gedling.gov.uk/,-1.06515100000000,NG4 2PA,2014-03-21,fhrs_5_en-GB,5,,FHRS,5
57277,The Longbow,Calverton Road,Arnold,Nottinghamshire,Longbow,Other catering premises,7841,20,,430405,10,,53.01166600000000,61/023,262,foodsafety@gedling.gov.uk,Gedling,http://www.gedling.gov.uk/,-1.12334700000000,NG5 8FQ,2014-01-20,fhrs_1_en-GB,1,,FHRS,15
57278,Longdale Service Station,Longdale Lane,Ravenshead,Nottinghamshire,Longdale Lane Service Station,Retailers - other,4613,10,,433978,5,,53.08096500000000,289/165,262,foodsafety@gedling.gov.uk,Gedling,http://www.gedling.gov.uk/,-1.16598000000000,NG15 9AD,2014-10-06,fhrs_3_en-GB,3,,FHRS,10
57279,Longdale Lane,Ravenshead,Nottinghamshire,,Longdale Nursery School,Hospitals/Childcare/Caring Premises,5,,,428981,,,53.07235200000000,1682/862,262,foodsafety@gedling.gov.uk,Gedling,http://www.gedling.gov.uk/,-1.15044400000000,NG15 9AH,2014-06-16,fhrs_5_en-GB,5,,FHRS,
57280,Lord Nelson Inn,Chestnut Grove,Burton Joyce,Nottinghamshire,Lord Nelson,Pub/bar/nightclub,7843,5,,553230,5,,52.98666900000000,122/262,262,foodsafety@gedling.gov.uk,Gedling,http://www.gedling.gov.uk/,-1.03550300000000,NG14 5DN,2015-01-19,fhrs_4_en-GB,4,,FHRS,10
57281,Mapperley Plains,Lambley,Nottinghamshire,,Loreto Cottage,Hospitals/Childcare/Caring Premises,5,0,,510863,0,,53.00062100000000,544/378,262,foodsafety@gedling.gov.uk,Gedling,http://www.gedling.gov.uk/,-1.10096500000000,NG3 5RT,2013-02-25,fhrs_5_en-GB,5,,FHRS,0
57282,Nottinghamshire Fire And Rescue Hea,Bestwood Lodge Drive,Bestwood,Nottinghamshire,Lou Gourmand Ltd,Restaurant/Cafe/Canteen,1,0,,430403,0,,53.01509200000000,2546,262,foodsafety@gedling.gov.uk,Gedling,http://www.gedling.gov.uk/,-1.15215000000000,NG5 8PD,2014-05-13,fhrs_5_en-GB,5,,FHRS,0
57283,Carlton Community Church,Lowater Street,Carlton,Nottinghamshire,Lowater St Pre - School Group,Other catering premises,7841,,,528783,,,,988,262,foodsafety@gedling.gov.uk,Gedling,http://www.gedling.gov.uk/,,,2013-03-28,fhrs_exempt_en-GB,Exempt,,FHRS,
57284,10 Meadow Road,Netherfield,Nottinghamshire,,Lucky House,Takeaway/sandwich shop,7844,10,,444696,10,,52.96351700000000,2115,262,foodsafety@gedling.gov.uk,Gedling,http://www.gedling.gov.uk/,-1.07919400000000,NG4 2FF,2014-05-14,fhrs_2_en-GB,2,,FHRS,15
57285,70 Rolleston Drive,Arnold,Nottinghamshire,,Lucky World,Other catering premises,7841,5,,565243,5,,53.00139700000000,512/420/C1,262,foodsafety@gedling.gov.uk,Gedling,http://www.gedling.gov.uk/,-1.11687900000000,NG5 7JN,2015-01-29,fhrs_5_en-GB,5,,FHRS,5
57286,98 Nottingham Road,Arnold,Nottingham,Nottinghamshire,Luigi's,Other catering premises,7841,5,,444700,10,,53.00084400000000,413/371,262,foodsafety@gedling.gov.uk,Gedling,http://www.gedling.gov.uk/,-1.13089700000000,NG5 6LF,2014-02-20,fhrs_4_en-GB,4,,FHRS,5
57287,28A Regina Crescent,Ravenshead,Nottinghamshire,,Lukas At Work Ltd,Retailers - other,4613,,,587218,,,53.08027000000000,2706,262,foodsafety@gedling.gov.uk,Gedling,http://www.gedling.gov.uk/,-1.16675500000000,NG15 9AE,2013-09-17,fhrs_exempt_en-GB,Exempt,,FHRS,
57288,,,,,Lunch Munch,Other catering premises,7841,0,,591677,0,,,2724,262,foodsafety@gedling.gov.uk,Gedling,http://www.gedling.gov.uk/,,,2013-10-15,fhrs_5_en-GB,5,,FHRS,5
57289,70B Front Street,Arnold,Nottinghamshire,,Mac's Fish And Chips,Takeaway/sandwich shop,7844,5,,621655,5,,53.00345000000000,2668,262,foodsafety@gedling.gov.uk,Gedling,http://www.gedling.gov.uk/,-1.12717900000000,NG5 7EJ,2013-12-17,fhrs_5_en-GB,5,,FHRS,0
57290,79 Rolleston Drive,Arnold,Nottinghamshire,,Major Oak,Pub/bar/nightclub,7843,10,,433979,5,,53.00092500000000,506/417,262,foodsafety@gedling.gov.uk,Gedling,http://www.gedling.gov.uk/,-1.11879600000000,NG5 7JA,2014-01-16,fhrs_4_en-GB,4,,FHRS,5
57291,197 Standhill Road,Carlton,Nottinghamshire,,Mancinis,Retailers - other,4613,5,,648975,5,,52.97200300000000,1743/891,262,foodsafety@gedling.gov.uk,Gedling,http://www.gedling.gov.uk/,-1.11718000000000,NG4 1LE,2014-03-25,fhrs_5_en-GB,5,,FHRS,5
57292,Manns Pharmacy,852A Woodborough Road,Mapperley,Nottinghamshire,Manns Pharmacy Ltd,Retailers - other,4613,,,607422,,,52.98201700000000,681/597,262,foodsafety@gedling.gov.uk,Gedling,http://www.gedling.gov.uk/,-1.12443800000000,NG3 5QQ,2013-11-04,fhrs_exempt_en-GB,Exempt,,FHRS,
57293,Manor Filling Station,Main Street,Calverton,Nottinghamshire,Manor Fuel Station,Retailers - other,4613,0,,596052,0,,53.03731300000000,322/747,262,foodsafety@gedling.gov.uk,Gedling,http://www.gedling.gov.uk/,-1.08405100000000,NG14 6FN,2013-10-17,fhrs_5_en-GB,5,,FHRS,0
57294,18 Westdale Lane East,Gedling,Nottinghamshire,,Manor Pharmacy,Retailers - other,4613,,,428991,,,52.97254100000000,644/573,262,foodsafety@gedling.gov.uk,Gedling,http://www.gedling.gov.uk/,-1.08256200000000,NG4 3JA,2012-07-30,fhrs_exempt_en-GB,Exempt,,FHRS,
57295,Highcroft Surgery,High Street,Arnold,Nottinghamshire,Manor Pharmacy,Retailers - other,4613,,,504376,,,53.00306800000000,212/115,262,foodsafety@gedling.gov.uk,Gedling,http://www.gedling.gov.uk/,-1.12910900000000,NG5 7DZ,2015-01-06,fhrs_exempt_en-GB,Exempt,,FHRS,
57296,Manns Pharmacy,35 Plains Road,Woodthorpe,Nottinghamshire,Manor Pharmacy,Retailers - other,4613,,,447842,,,52.98533100000000,1898/1078,262,foodsafety@gedling.gov.uk,Gedling,http://www.gedling.gov.uk/,-1.12026000000000,NG3 5JU,2014-09-19,fhrs_exempt_en-GB,Exempt,,FHRS,
57297,The Manor Residential Home,28 Church Street,Arnold,Nottinghamshire,Manor Residential Home,Hospitals/Childcare/Caring Premises,5,5,,587213,0,,53.00720600000000,1668/847,262,foodsafety@gedling.gov.uk,Gedling,http://www.gedling.gov.uk/,-1.12692500000000,NG5 8FB,2013-09-17,fhrs_5_en-GB,5,,FHRS,0
57298,920 Woodborough Road,Nottingham,Nottinghamshire,,Mapperley News,Retailers - other,4613,,,463437,,,52.98482700000000,691/607,262,foodsafety@gedling.gov.uk,Gedling,http://www.gedling.gov.uk/,-1.12024100000000,NG3 5QS,2014-10-29,fhrs_exempt_en-GB,Exempt,,FHRS,
57299,Mapperley Plains Social Club,Plains Road,Mapperley,Nottinghamshire,Mapperley Plains Rec. & Social Club,Pub/bar/nightclub,7843,5,,629313,5,,52.98976000000000,461/350,262,foodsafety@gedling.gov.uk,Gedling,http://www.gedling.gov.uk/,-1.11027800000000,NG3 5RH,2014-01-29,fhrs_5_en-GB,5,,FHRS,5
57300,Marion Murdoch Court,Queens Avenue,Gedling,Nottinghamshire,Marion Murdock Court,Hospitals/Childcare/Caring Premises,5,,,648983,,,,2070,262,foodsafety@gedling.gov.uk,Gedling,http://www.gedling.gov.uk/,,,2014-03-12,fhrs_exempt_en-GB,Exempt,,FHRS,
57301,2A Hallams Lane,Arnold,Nottinghamshire,,Market Cafe,Restaurant/Cafe/Canteen,1,10,,607413,10,,53.00141100000000,1440/787,262,foodsafety@gedling.gov.uk,Gedling,http://www.gedling.gov.uk/,-1.12857600000000,NG5 6NE,2013-10-30,fhrs_3_en-GB,3,,FHRS,5
57302,Unit 2,Daybrook Business Centre,Sherbrook Road,Daybrook,Marks Munchies,Takeaway/sandwich shop,7844,0,,548336,0,,52.99727200000000,2677,262,foodsafety@gedling.gov.uk,Gedling,http://www.gedling.gov.uk/,-1.14043000000000,NG5 6AT,2014-04-30,fhrs_5_en-GB,5,,FHRS,0
57303,7 St Wilfrids Square,Calverton,Nottinghamshire,,Martins Newsagents,Retailers - other,4613,5,,596056,0,,53.03719800000000,550/447/1,262,foodsafety@gedling.gov.uk,Gedling,http://www.gedling.gov.uk/,-1.08190600000000,NG14 6FP,2013-10-28,fhrs_5_en-GB,5,,FHRS,5
57304,29 Gedling Road,Carlton,Nottinghamshire,,Mauri Care Ivy Leaf Rest Home,Hospitals/Childcare/Caring Premises,5,5,,485216,5,,52.96969900000000,241/125,262,foodsafety@gedling.gov.uk,Gedling,http://www.gedling.gov.uk/,-1.08238300000000,NG4 3EX,2014-07-07,fhrs_4_en-GB,4,,FHRS,10
57305,184 Westdale Lane East,Gedling,Nottinghamshire,,Mc Colls,Retailers - other,4613,,,624724,,,52.97757400000000,660/575/1,262,foodsafety@gedling.gov.uk,Gedling,http://www.gedling.gov.uk/,-1.09411600000000,NG4 4FP,2014-01-14,fhrs_exempt_en-GB,Exempt,,FHRS,
57306,Martin McColl,337 - 339 Carlton Hill,Carlton,Nottinghamshire,McColls,Retailers - other,4613,5,,510870,5,,52.96564200000000,89/038,262,foodsafety@gedling.gov.uk,Gedling,http://www.gedling.gov.uk/,-1.11047500000000,NG4 1JE,2013-02-22,fhrs_4_en-GB,4,,FHRS,10
57307,Mcdonalds Restaurants Ltd,Sir John Robinson Way,Daybrook,Nottinghamshire,McDonalds Restaurant,Restaurant/Cafe/Canteen,1,0,,428982,5,,52.99857000000000,1836,262,foodsafety@gedling.gov.uk,Gedling,http://www.gedling.gov.uk/,-1.13592000000000,NG5 6BN,2014-07-29,fhrs_5_en-GB,5,,FHRS,5
57308,Mcdonalds Restaurants Ltd,Victoria Park Way,Netherfield,Nottingham,McDonalds Restaurants Ltd,Restaurant/Cafe/Canteen,1,0,,565234,0,,52.96091700000000,1690/864,262,foodsafety@gedling.gov.uk,Gedling,http://www.gedling.gov.uk/,-1.06515100000000,NG4 2PA,2013-07-01,fhrs_5_en-GB,5,,FHRS,0
57309,Henry Mellish Rugby Football Club,Mapperley Plains,Arnold,Nottinghamshire,Mellish Rugby Football Club,Other catering premises,7841,5,,619367,0,,53.00437900000000,462/673,262,foodsafety@gedling.gov.uk,Gedling,http://www.gedling.gov.uk/,-1.10096200000000,NG3 5RW,2013-11-25,fhrs_5_en-GB,5,,FHRS,0
57310,156 Oxclose Lane,Daybrook,Nottinghamshire,,Mencap Homes Foundation,Hospitals/Childcare/Caring Premises,5,,,624722,,,53.00019000000000,442/337,262,foodsafety@gedling.gov.uk,Gedling,http://www.gedling.gov.uk/,-1.14493200000000,NG5 6FF,2014-01-15,fhrs_exempt_en-GB,Exempt,,FHRS,
57311,1 - 7 Valley Road,Carlton,Nottinghamshire,,Mencap Personal Support,Other catering premises,7841,0,,457395,0,,52.97198300000000,600/477,262,foodsafety@gedling.gov.uk,Gedling,http://www.gedling.gov.uk/,-1.10598200000000,NG4 1LS,2014-10-29,fhrs_5_en-GB,5,,FHRS,0
57312,49D Main Street,Burton Joyce,Nottinghamshire,,Middletons,Takeaway/sandwich shop,7844,0,,444699,5,,52.98798400000000,2595,262,foodsafety@gedling.gov.uk,Gedling,http://www.gedling.gov.uk/,-1.03799100000000,NG14 5DX,2014-02-10,fhrs_5_en-GB,5,,FHRS,5
57313,Midland Kebab,19 Front Street,Arnold,Nottinghamshire,Midland Kebab & Tandoori Takeaway,Takeaway/sandwich shop,7844,20,,376448,20,,53.00244700000000,1370/097,262,foodsafety@gedling.gov.uk,Gedling,http://www.gedling.gov.uk/,-1.12891300000000,NG5 7EA,2014-10-16,fhrs_0_en-GB,0,,FHRS,15
57314,The Cob Shop,109 Plains Road,Woodthorpe,Nottinghamshire,Mighty Bites,Takeaway/sandwich shop,7844,5,,331365,0,,52.98741000000000,471/386,262,foodsafety@gedling.gov.uk,Gedling,http://www.gedling.gov.uk/,-1.11697100000000,NG3 5QT,2015-01-26,fhrs_5_en-GB,5,,FHRS,5
57315,Oakdale Road,Arnold,Nottinghamshire,,Millbeck House,Other catering premises,7841,0,,466761,5,,53.00692200000000,421/542,262,foodsafety@gedling.gov.uk,Gedling,http://www.gedling.gov.uk/,-1.11403900000000,NG5 8BX,2014-05-01,fhrs_5_en-GB,5,,FHRS,5
57316,,,,,Mollies Cakes And Bakes,Other catering premises,7841,0,,516955,0,,,2652,262,foodsafety@gedling.gov.uk,Gedling,http://www.gedling.gov.uk/,,,2013-03-06,fhrs_5_en-GB,5,,FHRS,5
57317,14 Westdale Lane East,Gedling,Nottinghamshire,,Monaco Pizza And Pasta Takeaway,Takeaway/sandwich shop,7844,5,,466753,0,,52.97254100000000,1307/1067/C1,262,foodsafety@gedling.gov.uk,Gedling,http://www.gedling.gov.uk/,-1.08256200000000,NG4 3JA,2014-05-08,fhrs_5_en-GB,5,,FHRS,5
57318,153 - 157 Nottingham Road,Arnold,Nottinghamshire,,Moon Nights Restaurants Ltd,Restaurant/Cafe/Canteen,1,0,,619362,0,,53.00175700000000,2709,262,foodsafety@gedling.gov.uk,Gedling,http://www.gedling.gov.uk/,-1.13043200000000,NG5 6JN,2013-11-28,fhrs_5_en-GB,5,,FHRS,5
57319,Moreland Court,Off Dale Road,Carlton,Nottinghamshire,Moreland Court,Hospitals/Childcare/Caring Premises,5,5,,534315,0,,,153/074,262,foodsafety@gedling.gov.uk,Gedling,http://www.gedling.gov.uk/,,,2014-09-26,fhrs_5_en-GB,5,,FHRS,0
57320,Deep Furrow Avenue,Carlton,Nottinghamshire,,Moriah House,Other catering premises,7841,5,,583887,5,,52.96879000000000,158/077,262,foodsafety@gedling.gov.uk,Gedling,http://www.gedling.gov.uk/,-1.09398700000000,NG4 1RS,2013-09-05,fhrs_4_en-GB,4,,FHRS,10
57321,Morrisons,4 Victoria Park Way,Netherfield,Nottinghamshire,Morrisons Supermarkets,Retailers - supermarkets/hypermarkets,7840,0,,305350,0,,52.96246600000000,1504/806,262,foodsafety@gedling.gov.uk,Gedling,http://www.gedling.gov.uk/,-1.07239800000000,NG4 2HU,2014-03-11,fhrs_5_en-GB,5,,FHRS,0
57322,104 Victoria Road,Netherfield,Nottinghamshire,,Mo's Fish & Chips Ltd,Takeaway/sandwich shop,7844,5,,548341,0,,52.96272600000000,632/507,262,foodsafety@gedling.gov.uk,Gedling,http://www.gedling.gov.uk/,-1.07462600000000,NG4 2HH,2014-03-14,fhrs_5_en-GB,5,,FHRS,5
57323,10 Wollaton Avenue,Gedling,Nottinghamshire,,Mr Pizza,Other catering premises,7841,10,,428992,10,,52.98157000000000,675/954,262,foodsafety@gedling.gov.uk,Gedling,http://www.gedling.gov.uk/,-1.09355600000000,NG4 4HX,2014-01-21,fhrs_3_en-GB,3,,FHRS,10
57324,42 - 44 Edwin Street,Daybrook,Nottinghamshire,,Mr Tea's,Mobile caterer,7846,,,619364,,,52.99759700000000,2727,262,foodsafety@gedling.gov.uk,Gedling,http://www.gedling.gov.uk/,-1.13935100000000,NG5 6AZ,2013-11-28,fhrs_exempt_en-GB,Exempt,,FHRS,
57325,,,,,Mrs D's Delights,Other catering premises,7841,0,,485218,0,,,2628,262,foodsafety@gedling.gov.uk,Gedling,http://www.gedling.gov.uk/,,,2012-12-05,fhrs_5_en-GB,5,,FHRS,5
57326,MSR News Group,30 Front Street,Arnold,Nottinghamshire,MSR Newsgroup Ltd,Retailers - other,4613,,,457385,,,53.00206000000000,1590/1971,262,foodsafety@gedling.gov.uk,Gedling,http://www.gedling.gov.uk/,-1.12886100000000,NG5 7EL,2014-10-29,fhrs_exempt_en-GB,Exempt,,FHRS,
57327,,,,,Munch Box,Mobile caterer,7846,10,,583892,10,,,2703,262,foodsafety@gedling.gov.uk,Gedling,http://www.gedling.gov.uk/,,,2013-09-02,fhrs_3_en-GB,3,,FHRS,10
57328,265 Westdale Lane East,Carlton,Nottinghamshire,,Munchies Sandwich Bar,Takeaway/sandwich shop,7844,5,,510837,5,,52.97848700000000,1421/1063/C1,262,foodsafety@gedling.gov.uk,Gedling,http://www.gedling.gov.uk/,-1.09715000000000,NG4 4FL,2014-10-27,fhrs_4_en-GB,4,,FHRS,10
57329,2 Main Road,Carlton,Nottinghamshire,,Mustard Seed,Restaurant/Cafe/Canteen,1,20,,479989,5,,52.97270100000000,295/309,262,foodsafety@gedling.gov.uk,Gedling,http://www.gedling.gov.uk/,-1.08105400000000,NG4 3HP,2014-10-31,fhrs_1_en-GB,1,,FHRS,0
57330,,,,,Mutz Nutz Catering,Mobile caterer,7846,,,700373,,,,2803,262,foodsafety@gedling.gov.uk,Gedling,http://www.gedling.gov.uk/,,,2014-09-15,fhrs_exempt_en-GB,Exempt,,FHRS,
57331,24 Eastham Road,Arnold,Nottinghamshire,,MV Supermarket,Retailers - other,4613,10,,516953,5,,52.99868000000000,165/357,262,foodsafety@gedling.gov.uk,Gedling,http://www.gedling.gov.uk/,-1.10704100000000,NG5 6QX,2013-03-04,fhrs_4_en-GB,4,,FHRS,5
57332,Nags Head Inn,172 Main Street,Woodborough,Nottinghamshire,Nags Head,Pub/bar/nightclub,7843,5,,357092,5,,53.02345600000000,333/192,262,foodsafety@gedling.gov.uk,Gedling,http://www.gedling.gov.uk/,-1.05473500000000,NG14 6DD,2014-11-05,fhrs_4_en-GB,4,,FHRS,10
57333,12 Westdale Lane East,Gedling,Nottinghamshire,,Nan King Garden,Takeaway/sandwich shop,7844,5,,590982,5,,52.97254100000000,643/571,262,foodsafety@gedling.gov.uk,Gedling,http://www.gedling.gov.uk/,-1.08256200000000,NG4 3JA,2013-10-03,fhrs_4_en-GB,4,,FHRS,10
57334,49B Main Street,Burton Joyce,Nottinghamshire,,Nee How,Takeaway/sandwich shop,7844,20,,447839,15,,52.98798400000000,09/12742/FOOD,262,foodsafety@gedling.gov.uk,Gedling,http://www.gedling.gov.uk/,-1.03799100000000,NG14 5DX,2013-08-29,fhrs_1_en-GB,1,,FHRS,15
57335,139A Victoria Road,Netherfield,Nottinghamshire,,Netherfield Loco,Restaurant/Cafe/Canteen,1,5,,610829,5,,52.96297600000000,1928/953,262,foodsafety@gedling.gov.uk,Gedling,http://www.gedling.gov.uk/,-1.07441200000000,NG4 2PD,2013-06-28,fhrs_5_en-GB,5,,FHRS,5
57336,42 Victoria Road,Netherfield,Nottinghamshire,,Netherfield Post Office,Retailers - other,4613,,,543122,,,52.96311600000000,1272/960,262,foodsafety@gedling.gov.uk,Gedling,http://www.gedling.gov.uk/,-1.07734200000000,NG4 2HG,2013-04-18,fhrs_exempt_en-GB,Exempt,,FHRS,
57337,Amptron House,Meadow Road,Netherfield,Nottinghamshire,Netherfield Pre-School,Hospitals/Childcare/Caring Premises,5,,,648995,,,52.96351700000000,2735,262,foodsafety@gedling.gov.uk,Gedling,http://www.gedling.gov.uk/,-1.07919400000000,NG4 2FF,2014-02-05,fhrs_exempt_en-GB,Exempt,,FHRS,
57338,Netherfield Junior School,Chandos Street,Netherfield,Nottinghamshire,Netherfield Primary School,School/college/university,7845,0,,619350,0,,52.96650600000000,183/625,262,foodsafety@gedling.gov.uk,Gedling,http://www.gedling.gov.uk/,-1.07402400000000,NG4 2LR,2013-12-12,fhrs_5_en-GB,5,,FHRS,0
57339,129 Victoria Road,Netherfield,Nottinghamshire,,Nev's,Retailers - other,4613,5,,619372,5,,52.96297600000000,634/509,262,foodsafety@gedling.gov.uk,Gedling,http://www.gedling.gov.uk/,-1.07441200000000,NG4 2PD,2013-11-19,fhrs_5_en-GB,5,,FHRS,0
57340,386 Carlton Hill,Carlton,Nottinghamshire,,New Carlton Fish Bar,Takeaway/sandwich shop,7844,5,,706218,5,,52.96578300000000,2770,262,foodsafety@gedling.gov.uk,Gedling,http://www.gedling.gov.uk/,-1.11358500000000,NG4 1JA,2014-09-18,fhrs_5_en-GB,5,,FHRS,5
57341,The New Engine House,Old Brickyard,Carlton,Nottinghamshire,New Engine House,Pub/bar/nightclub,7843,5,,510859,0,,52.96627300000000,427/326,262,foodsafety@gedling.gov.uk,Gedling,http://www.gedling.gov.uk/,-1.11662700000000,NG3 6PB,2013-02-14,fhrs_5_en-GB,5,,FHRS,5
57342,120 Burton Road,Carlton,Nottingham,Nottinghamshire,Newscall,Retailers - other,4613,,,565244,,,52.97036600000000,54/019,262,foodsafety@gedling.gov.uk,Gedling,http://www.gedling.gov.uk/,-1.07672600000000,NG4 3GP,2013-07-02,fhrs_exempt_en-GB,Exempt,,FHRS,
57343,Newstead Childrens Centre,Tilford Road,Newstead,Nottinghamshire,Newstead Neighbourhood Nursery,Hospitals/Childcare/Caring Premises,5,0,,376450,0,,53.07122100000000,1940/1099,262,foodsafety@gedling.gov.uk,Gedling,http://www.gedling.gov.uk/,-1.22581000000000,NG15 0BU,2013-11-11,fhrs_5_en-GB,5,,FHRS,0
57344,Hucknall Road,Newstead,Nottinghamshire,,Newstead Primary School,School/college/university,7845,0,,648994,0,,53.06932400000000,273/743,262,foodsafety@gedling.gov.uk,Gedling,http://www.gedling.gov.uk/,-1.22856000000000,NG15 0BB,2014-03-06,fhrs_5_en-GB,5,,FHRS,0
57345,49 Tilford Road,Newstead,Nottingham,Nottinghamshire,Newstead Village Post Office,Retailers - other,4613,10,,504388,5,,53.07122100000000,588/468,262,foodsafety@gedling.gov.uk,Gedling,http://www.gedling.gov.uk/,-1.22581000000000,NG15 0BU,2015-01-14,fhrs_4_en-GB,4,,FHRS,5
57346,Next,Unit 5A,Teal Close,Netherfield,Next Retail Limited,Retailers - other,4613,,,619354,,,52.96246600000000,1965/1117,262,foodsafety@gedling.gov.uk,Gedling,http://www.gedling.gov.uk/,-1.07239800000000,NG4 2HU,2013-11-28,fhrs_exempt_en-GB,Exempt,,FHRS,
57347,Nibbles 1,129 Front Street,Arnold,Nottinghamshire,Nibbles,Takeaway/sandwich shop,7844,,,580864,,,53.00529400000000,2701,262,foodsafety@gedling.gov.uk,Gedling,http://www.gedling.gov.uk/,-1.12732100000000,NG5 7ED,2014-07-11,fhrs_4_en-GB,4,,FHRS,
57348,Supermarket,143 Oxclose Lane,Arnold,Nottinghamshire,Nisa Local,Retailers - other,4613,5,,610836,5,,52.99947600000000,441/336,262,foodsafety@gedling.gov.uk,Gedling,http://www.gedling.gov.uk/,-1.14682400000000,NG5 6FN,2013-11-13,fhrs_5_en-GB,5,,FHRS,5
57349,43 Victoria Road,Netherfield,Nottingham,Nottinghamshire,No1 Sandwich Bar,Takeaway/sandwich shop,7844,10,,543123,10,,52.96433800000000,1273/691,262,foodsafety@gedling.gov.uk,Gedling,http://www.gedling.gov.uk/,-1.07840300000000,NG4 2LA,2014-05-08,fhrs_3_en-GB,3,,FHRS,5
57350,748 Mansfield Road,Woodthorpe,Nottinghamshire,,Nottingham Woodthorpe Hospital,Restaurant/Cafe/Canteen,1,0,,463435,0,,52.99049000000000,376/279,262,foodsafety@gedling.gov.uk,Gedling,http://www.gedling.gov.uk/,-1.13864300000000,NG5 3FZ,2014-05-27,fhrs_5_en-GB,5,,FHRS,0
57351,Blenheim Avenue Care Home,9 Blenheim Avenue,Mapperley,Nottinghamshire,Notts Community Housing Assc./ncha,Hospitals/Childcare/Caring Premises,5,,,504378,,,52.98013800000000,26,262,foodsafety@gedling.gov.uk,Gedling,http://www.gedling.gov.uk/,-1.10629000000000,NG3 6GD,2013-01-30,fhrs_exempt_en-GB,Exempt,,FHRS,
57352,Nuffield Health Wellbeing Centre,Plains Road,Mapperley,Nottinghamshire,Nuffield Health,Restaurant/Cafe/Canteen,1,0,,510846,0,,52.98976000000000,2054,262,foodsafety@gedling.gov.uk,Gedling,http://www.gedling.gov.uk/,-1.11027800000000,NG3 5RH,2015-02-11,fhrs_5_en-GB,5,,FHRS,0
57353,,,,,Oak Catering,Mobile caterer,7846,,,516952,,,,1457/140,262,foodsafety@gedling.gov.uk,Gedling,http://www.gedling.gov.uk/,,,2014-10-08,fhrs_exempt_en-GB,Exempt,,FHRS,
57354,3 Church Drive,Ravenshead,Nottinghamshire,,Oak House,Hotel/bed & breakfast/guest house,7842,5,,587214,5,,53.08774300000000,2092,262,foodsafety@gedling.gov.uk,Gedling,http://www.gedling.gov.uk/,-1.16075800000000,NG15 9FG,2013-09-17,fhrs_5_en-GB,5,,FHRS,5
57355,,,,,Oakleigh Lodge,Hospitals/Childcare/Caring Premises,5,,,479986,,,,2630,262,foodsafety@gedling.gov.uk,Gedling,http://www.gedling.gov.uk/,,,2014-11-10,fhrs_exempt_en-GB,Exempt,,FHRS,
57356,94 Carlton Hill,Carlton,Nottinghamshire,,Oceans,Restaurant/Cafe/Canteen,1,5,,583897,5,,52.96648600000000,71/520/C1,262,foodsafety@gedling.gov.uk,Gedling,http://www.gedling.gov.uk/,-1.09354400000000,NG4 1EE,2013-09-12,fhrs_4_en-GB,4,,FHRS,10
57357,The Old Spot,Mansfield Road,Daybrook,Nottinghamshire,Old Spot,Pub/bar/nightclub,7843,0,,580866,5,,52.99858600000000,357/202,262,foodsafety@gedling.gov.uk,Gedling,http://www.gedling.gov.uk/,-1.13815400000000,NG5 6BH,2013-08-27,fhrs_4_en-GB,4,,FHRS,10
57358,35 Burton Road,Carlton,Nottinghamshire,,Old Volunteer,Pub/bar/nightclub,7843,5,,649005,5,,52.96779400000000,47/659,262,foodsafety@gedling.gov.uk,Gedling,http://www.gedling.gov.uk/,-1.08474700000000,NG4 3DQ,2014-03-13,fhrs_4_en-GB,4,,FHRS,10
57359,Olympic,17 Victoria Road,Netherfield,Nottinghamshire,Olympic Kebab House,Takeaway/sandwich shop,7844,5,,619370,10,,52.96433800000000,614/488,262,foodsafety@gedling.gov.uk,Gedling,http://www.gedling.gov.uk/,-1.07840300000000,NG4 2LA,2013-12-03,fhrs_4_en-GB,4,,FHRS,5
57360,378 Carlton Hill,Carlton,Nottinghamshire,,Orient Chef,Takeaway/sandwich shop,7844,5,,516963,5,,52.96578300000000,96/224,262,foodsafety@gedling.gov.uk,Gedling,http://www.gedling.gov.uk/,-1.11358500000000,NG4 1JA,2014-10-07,fhrs_4_en-GB,4,,FHRS,10
57361,10 Victoria Road,Netherfield,Nottingham,Nottinghamshire,Oriental House,Takeaway/sandwich shop,7844,5,,590976,5,,52.96419700000000,1491/898,262,foodsafety@gedling.gov.uk,Gedling,http://www.gedling.gov.uk/,-1.07886700000000,NG4 2HE,2013-10-08,fhrs_4_en-GB,4,,FHRS,10
57362,317 Mapperley Plains,Mapperley,Nottinghamshire,,Orla House,Hospitals/Childcare/Caring Premises,5,5,,629314,0,,52.99539800000000,475/379,262,foodsafety@gedling.gov.uk,Gedling,http://www.gedling.gov.uk/,-1.10445600000000,NG3 5RG,2014-01-30,fhrs_5_en-GB,5,,FHRS,0
57363,Oscars Lounge And Restaurant,Main Street,Calverton,Nottinghamshire,Oscars Lounge & Restaurant,Restaurant/Cafe/Canteen,1,,,331364,,,53.03656000000000,2367,262,foodsafety@gedling.gov.uk,Gedling,http://www.gedling.gov.uk/,-1.08311300000000,NG14 6FG,2014-01-23,fhrs_5_en-GB,5,,FHRS,
57364,Oxclose Lane,Arnold,Nottinghamshire,,Oxclose Hotel,Pub/bar/nightclub,7843,10,,409152,0,,52.99705000000000,434/333,262,foodsafety@gedling.gov.uk,Gedling,http://www.gedling.gov.uk/,-1.15211600000000,NG5 6FZ,2014-08-26,fhrs_4_en-GB,4,,FHRS,5
57365,25 - 25A Plains Road,Woodthorpe,Nottinghamshire,,Oxfam,Retailers - other,4613,,,558775,,,52.98456000000000,1158/1081,262,foodsafety@gedling.gov.uk,Gedling,http://www.gedling.gov.uk/,-1.12184000000000,NG3 5LG,2013-06-21,fhrs_exempt_en-GB,Exempt,,FHRS,
57366,106 Victoria Road,Netherfield,Nottinghamshire,,P P News,Retailers - other,4613,5,,619371,5,,52.96272600000000,633/701,262,foodsafety@gedling.gov.uk,Gedling,http://www.gedling.gov.uk/,-1.07462600000000,NG4 2HH,2013-11-13,fhrs_4_en-GB,4,,FHRS,10
57367,Crusty Corner,32 Mansfield Road,Daybrook,Nottinghamshire,Pam's Pantry,Takeaway/sandwich shop,7844,5,,619363,5,,52.99825900000000,2718,262,foodsafety@gedling.gov.uk,Gedling,http://www.gedling.gov.uk/,-1.13769900000000,NG5 6BD,2013-12-10,fhrs_5_en-GB,5,,FHRS,5
57368,Pappa Johns,6 Croft Road,Arnold,Nottinghamshire,Papa Johns,Takeaway/sandwich shop,7844,5,,553233,5,,53.00372300000000,1830/1010/C1,262,foodsafety@gedling.gov.uk,Gedling,http://www.gedling.gov.uk/,-1.12875300000000,NG5 7DX,2014-10-29,fhrs_5_en-GB,5,,FHRS,5
57369,Village Hall,Linby Lane,Papplewick,Nottinghamshire,Papplewick & Linby Village Inst.,Other catering premises,7841,,,607418,,,53.05377700000000,285,262,foodsafety@gedling.gov.uk,Gedling,http://www.gedling.gov.uk/,-1.18607900000000,NG15 8FB,2013-10-30,fhrs_exempt_en-GB,Exempt,,FHRS,
57370,Rigg Lane,Papplewick,Nottinghamshire,,Papplewick Pumping Station,Restaurant/Cafe/Canteen,1,10,,479993,5,,53.06293400000000,43/167,262,foodsafety@gedling.gov.uk,Gedling,http://www.gedling.gov.uk/,-1.12975300000000,NG15 9AJ,2012-11-18,fhrs_4_en-GB,4,,FHRS,5
57371,15 Main Road,Gedling,Nottinghamshire,,Paprika,Restaurant/Cafe/Canteen,1,10,,439339,10,,52.97287600000000,298/631/C1,262,foodsafety@gedling.gov.uk,Gedling,http://www.gedling.gov.uk/,-1.08160100000000,NG4 3HQ,2013-06-14,fhrs_3_en-GB,3,,FHRS,10
57372,314 Carlton Hill,Carlton,Nottinghamshire,,Paradise BBQ Island,Takeaway/sandwich shop,7844,20,,504370,25,,52.96626100000000,1624/969,262,foodsafety@gedling.gov.uk,Gedling,http://www.gedling.gov.uk/,-1.10785700000000,NG4 1GD,2015-01-15,fhrs_0_en-GB,0,,FHRS,15
57373,17 Front Street,Arnold,Nottinghamshire,,Paradise Cafe,Restaurant/Cafe/Canteen,1,5,,480007,5,,53.00244700000000,859/1020/C1,262,foodsafety@gedling.gov.uk,Gedling,http://www.gedling.gov.uk/,-1.12891300000000,NG5 7EA,2014-05-19,fhrs_5_en-GB,5,,FHRS,5
57374,Parkdale Road,Carlton,Nottinghamshire,,Parkdale Primary School,School/college/university,7845,0,,565241,0,,52.96202900000000,454/650,262,foodsafety@gedling.gov.uk,Gedling,http://www.gedling.gov.uk/,-1.10094700000000,NG4 1BX,2013-06-26,fhrs_5_en-GB,5,,FHRS,5
57375,Parker House Private Nursing Home,6 Albemarle Road,Woodthorpe,Nottinghamshire,Parker House N. Home,Hospitals/Childcare/Caring Premises,5,5,,421841,0,,52.98878600000000,5/512,262,foodsafety@gedling.gov.uk,Gedling,http://www.gedling.gov.uk/,-1.13796200000000,NG5 4FE,2015-01-27,fhrs_5_en-GB,5,,FHRS,5
57376,Pastaland,85 Victoria Road,Netherfield,Nottinghamshire,Pasta Master,Takeaway/sandwich shop,7844,20,,444698,20,,52.96342500000000,2363,262,foodsafety@gedling.gov.uk,Gedling,http://www.gedling.gov.uk/,-1.07660600000000,NG4 2NN,2015-01-07,fhrs_1_en-GB,1,,FHRS,10
57377,Patchings Farm,Oxton Road,Calverton,Nottinghamshire,Patchings Farm & Art Centre,Restaurant/Cafe/Canteen,1,5,,583895,10,,53.04275400000000,444/373,262,foodsafety@gedling.gov.uk,Gedling,http://www.gedling.gov.uk/,-1.11161900000000,NG14 6NU,2013-09-02,fhrs_4_en-GB,4,,FHRS,5
57378,238 Carlton Hill,Carlton,Nottinghamshire,,Pat's Baps,Restaurant/Cafe/Canteen,1,10,,421834,5,,52.96650700000000,1944/1103,262,foodsafety@gedling.gov.uk,Gedling,http://www.gedling.gov.uk/,-1.10340000000000,NG4 1FY,2014-08-27,fhrs_4_en-GB,4,,FHRS,5
57379,Old Paviors Sports Club,Burntstump Hill,Arnold,Nottinghamshire,Paviors Rugby Football Club,Pub/bar/nightclub,7843,10,,649002,5,,53.04868200000000,44/639,262,foodsafety@gedling.gov.uk,Gedling,http://www.gedling.gov.uk/,-1.13284500000000,NG5 8PQ,2014-11-19,fhrs_4_en-GB,4,,FHRS,5
57380,295 Carlton Hill,Carlton,Nottinghamshire,,Peggy's Pantry,Restaurant/Cafe/Canteen,1,5,,580861,5,,52.96586500000000,2557,262,foodsafety@gedling.gov.uk,Gedling,http://www.gedling.gov.uk/,-1.10780600000000,NG4 1GP,2013-08-29,fhrs_5_en-GB,5,,FHRS,5
57381,9 Plains Road,Woodthorpe,Nottinghamshire,,Peking House,Takeaway/sandwich shop,7844,,,439333,,,52.98389100000000,1153/1019,262,foodsafety@gedling.gov.uk,Gedling,http://www.gedling.gov.uk/,-1.12258300000000,NG3 5JH,2014-05-28,fhrs_4_en-GB,4,,FHRS,
57382,24 St Wilfrids Square,Calverton,Nottinghamshire,,Pete's Fish Bar,Takeaway/sandwich shop,7844,20,,528751,15,,53.03719800000000,1390/559,262,foodsafety@gedling.gov.uk,Gedling,http://www.gedling.gov.uk/,-1.08190600000000,NG14 6FP,2014-02-10,fhrs_1_en-GB,1,,FHRS,10
57383,The Phoenix,Shelford Road,Gedling,Nottinghamshire,Phoenix Hotel,Pub/bar/nightclub,7843,10,,528778,10,,52.98239700000000,526/428,262,foodsafety@gedling.gov.uk,Gedling,http://www.gedling.gov.uk/,-1.09473000000000,NG4 4HU,2013-03-26,fhrs_2_en-GB,2,,FHRS,15
57384,Phoenix Infant School,Phoenix Avenue,Gedling,Nottinghamshire,Phoenix Infants School,School/college/university,7845,0,,370864,5,,52.97584600000000,456/347,262,foodsafety@gedling.gov.uk,Gedling,http://www.gedling.gov.uk/,-1.08561900000000,NG4 4EL,2014-06-12,fhrs_5_en-GB,5,,FHRS,0
57385,338 - 340 Carlton Hill,Carlton,Nottinghamshire,,Piggins Inn,Restaurant/Cafe/Canteen,1,5,,428986,5,,52.96614800000000,2418,262,foodsafety@gedling.gov.uk,Gedling,http://www.gedling.gov.uk/,-1.10946800000000,NG4 1JD,2014-01-15,fhrs_5_en-GB,5,,FHRS,5
57386,Pinewood Infant And Nursery School,Pinewood Avenue,Arnold,Nottinghamshire,Pinewood Infants,School/college/university,7845,0,,479995,0,,53.00939400000000,458/348,262,foodsafety@gedling.gov.uk,Gedling,http://www.gedling.gov.uk/,-1.11404800000000,NG5 8BU,2014-05-07,fhrs_5_en-GB,5,,FHRS,5
57387,139 Oxclose Lane,Arnold,Nottinghamshire,,Pizza Babylon,Takeaway/sandwich shop,7844,5,,553244,5,,52.99947600000000,440/921,262,foodsafety@gedling.gov.uk,Gedling,http://www.gedling.gov.uk/,-1.14682400000000,NG5 6FN,2014-11-27,fhrs_4_en-GB,4,,FHRS,10
57388,68 Rolleston Drive,Arnold,Nottinghamshire,,Pizza Exchange,Takeaway/sandwich shop,7844,10,,578383,0,,53.00139700000000,1189,262,foodsafety@gedling.gov.uk,Gedling,http://www.gedling.gov.uk/,-1.11687900000000,NG5 7JN,2013-08-08,fhrs_4_en-GB,4,,FHRS,5
57389,4 Coppice Road,Arnold,Nottinghamshire,,Pizza Rozza,Takeaway/sandwich shop,7844,5,,553231,5,,53.00625200000000,1583/849,262,foodsafety@gedling.gov.uk,Gedling,http://www.gedling.gov.uk/,-1.12558800000000,NG5 7GQ,2013-10-10,fhrs_4_en-GB,4,,FHRS,10
57390,916 Woodborough Road,Mapperley,Nottinghamshire,,Plains Fish Bar & Restaurant,Restaurant/Cafe/Canteen,1,5,,578397,5,,52.98370700000000,689/605,262,foodsafety@gedling.gov.uk,Gedling,http://www.gedling.gov.uk/,-1.12203500000000,NG3 5QR,2015-02-11,fhrs_5_en-GB,5,,FHRS,0
57391,The Plainsman,149 Woodthorpe Drive,Woodthorpe,Nottinghamshire,Plainsman,Pub/bar/nightclub,7843,5,,510868,5,,52.98421900000000,701/618,262,foodsafety@gedling.gov.uk,Gedling,http://www.gedling.gov.uk/,-1.12430500000000,NG3 5JL,2014-09-24,fhrs_5_en-GB,5,,FHRS,5
57392,13 St Wilfrids Square,Calverton,Nottinghamshire,,Planet Pizza,Takeaway/sandwich shop,7844,10,,558778,10,,53.03719800000000,1210/941,262,foodsafety@gedling.gov.uk,Gedling,http://www.gedling.gov.uk/,-1.08190600000000,NG14 6FP,2013-06-20,fhrs_3_en-GB,3,,FHRS,10
57393,56 Victoria Road,Netherfield,Nottinghamshire,,Polska Chata,Retailers - other,4613,10,,578390,15,,52.96311600000000,2690,262,foodsafety@gedling.gov.uk,Gedling,http://www.gedling.gov.uk/,-1.07734200000000,NG4 2HG,2013-07-23,fhrs_2_en-GB,2,,FHRS,10
57394,Pondhills Community Centre,Pond Hills Lane,Arnold,Nottinghamshire,Pondhills Lane Community Centre,Other catering premises,7841,,,624723,,,53.00922800000000,476/390,262,foodsafety@gedling.gov.uk,Gedling,http://www.gedling.gov.uk/,-1.12441000000000,NG5 8DR,2014-01-08,fhrs_exempt_en-GB,Exempt,,FHRS,
57395,Standhill Road,Carlton,Nottinghamshire,,Porchester Junior School,School/college/university,7845,5,,466763,0,,52.97293300000000,556/664,262,foodsafety@gedling.gov.uk,Gedling,http://www.gedling.gov.uk/,-1.11763800000000,NG4 1LF,2015-01-26,fhrs_5_en-GB,5,,FHRS,5
57396,200 Porchester Road,Mapperley,Nottinghamshire,,Porchester Wines,Retailers - other,4613,5,,548338,5,,52.97277900000000,479/756,262,foodsafety@gedling.gov.uk,Gedling,http://www.gedling.gov.uk/,-1.11997900000000,NG3 6LH,2013-05-15,fhrs_5_en-GB,5,,FHRS,0
57397,202 Porchester Road,Mapperley,Nottinghamshire,,Post Office,Retailers - other,4613,5,,682160,5,,52.97277900000000,1169/963,262,foodsafety@gedling.gov.uk,Gedling,http://www.gedling.gov.uk/,-1.11997900000000,NG3 6LH,2014-06-19,fhrs_5_en-GB,5,,FHRS,5
57398,47 Main Street,Burton Joyce,Nottinghamshire,,Post Office / Broadbent Newsagent,Retailers - other,4613,,,587222,,,52.98798400000000,314/179,262,foodsafety@gedling.gov.uk,Gedling,http://www.gedling.gov.uk/,-1.03799100000000,NG14 5DX,2013-09-25,fhrs_exempt_en-GB,Exempt,,FHRS,
57399,,,,,Pot Belly Hog Roast,Other catering premises,7841,5,,682166,0,,,2788,262,foodsafety@gedling.gov.uk,Gedling,http://www.gedling.gov.uk/,,,2014-07-10,fhrs_5_en-GB,5,,FHRS,0
57400,Priory Road,Gedling,Nottinghamshire,,Priory Junior School,School/college/university,7845,,,370865,,,52.97488200000000,481/393,262,foodsafety@gedling.gov.uk,Gedling,http://www.gedling.gov.uk/,-1.08304800000000,NG4 3LE,2014-01-08,fhrs_5_en-GB,5,,FHRS,
57401,Street Record,Lamins Lane,Bestwood,Nottinghamshire,Private Members Club,Pub/bar/nightclub,7843,,,463426,,,,1943/1102,262,foodsafety@gedling.gov.uk,Gedling,http://www.gedling.gov.uk/,,,2012-11-02,fhrs_exempt_en-GB,Exempt,,FHRS,
57402,The Punch Bowl,214 Porchester Road,Mapperley,Nottinghamshire,Punch Bowl,Pub/bar/nightclub,7843,0,,510861,0,,52.97443900000000,478/551,262,foodsafety@gedling.gov.uk,Gedling,http://www.gedling.gov.uk/,-1.12072000000000,NG3 6HG,2014-09-08,fhrs_5_en-GB,5,,FHRS,5
57403,,,,,R N B Catering,Other catering premises,7841,5,,619361,5,,,2554,262,foodsafety@gedling.gov.uk,Gedling,http://www.gedling.gov.uk/,,,2013-12-04,fhrs_5_en-GB,5,,FHRS,5
57404,150 Front Street,Arnold,Nottinghamshire,,R.M News And Food,Retailers - other,4613,,,706217,,,53.00513800000000,223/305,262,foodsafety@gedling.gov.uk,Gedling,http://www.gedling.gov.uk/,-1.12681700000000,NG5 7EG,2015-01-12,fhrs_4_en-GB,4,,FHRS,
57405,Rainbow Express Takeaway,73 Victoria Road,Netherfield,Nottinghamshire,Rainbow Express,Takeaway/sandwich shop,7844,0,,492561,0,,52.96342500000000,2623,262,foodsafety@gedling.gov.uk,Gedling,http://www.gedling.gov.uk/,-1.07660600000000,NG4 2NN,2013-01-03,fhrs_5_en-GB,5,,FHRS,0
57406,,,,,Ramsey House,Hospitals/Childcare/Caring Premises,5,0,,493277,0,,,2080,262,foodsafety@gedling.gov.uk,Gedling,http://www.gedling.gov.uk/,,,2013-01-10,fhrs_5_en-GB,5,,FHRS,5
57407,Ravenshead C Of E School,Swinton Rise,Ravenshead,Nottinghamshire,Ravenshead C Of E Primary School,School/college/university,7845,0,,376457,0,,53.08907600000000,578/463,262,foodsafety@gedling.gov.uk,Gedling,http://www.gedling.gov.uk/,-1.16380700000000,NG15 9FS,2014-05-14,fhrs_5_en-GB,5,,FHRS,0
57408,Ravenshead C Of E School,Swinton Rise,Ravenshead,Nottinghamshire,Ravenshead Out-of-School Club,Hospitals/Childcare/Caring Premises,5,,,548331,,,53.08907600000000,2536,262,foodsafety@gedling.gov.uk,Gedling,http://www.gedling.gov.uk/,-1.16380700000000,NG15 9FS,2011-10-18,fhrs_exempt_en-GB,Exempt,,FHRS,
57409,852 Woodborough Road,Mapperley,Nottinghamshire,,Razzle Dazzle Pots,Other catering premises,7841,0,,463429,0,,52.98201700000000,2380,262,foodsafety@gedling.gov.uk,Gedling,http://www.gedling.gov.uk/,-1.12443800000000,NG3 5QQ,2014-11-05,fhrs_5_en-GB,5,,FHRS,0
57410,,,,,Redhill Farm,Other catering premises,7841,,,706214,,,,1618/828,262,foodsafety@gedling.gov.uk,Gedling,http://www.gedling.gov.uk/,,,2014-09-24,fhrs_exempt_en-GB,Exempt,,FHRS,
57411,Redhill Academy,Redhill Road,Redhill,Nottinghamshire,Redhill School,Other catering premises,7841,5,,492563,5,,53.01003800000000,496/411,262,foodsafety@gedling.gov.uk,Gedling,http://www.gedling.gov.uk/,-1.13059300000000,NG5 8GX,2013-01-08,fhrs_5_en-GB,5,,FHRS,5
57412,69 Redhill Road,Redhill,Nottinghamshire,,Redhill Stores,Retailers - other,4613,10,,528777,5,,53.01003800000000,500/413,262,foodsafety@gedling.gov.uk,Gedling,http://www.gedling.gov.uk/,-1.13059300000000,NG5 8GX,2015-01-15,fhrs_4_en-GB,4,,FHRS,5
57413,Youth Club,Redhill Leisure Centre,Redhill Road,Redhill,Redhill Youth And Community Centre,Other catering premises,7841,5,,607420,0,,53.01003800000000,498/409,262,foodsafety@gedling.gov.uk,Gedling,http://www.gedling.gov.uk/,-1.13059300000000,NG5 8GX,2013-11-08,fhrs_5_en-GB,5,,FHRS,0
57414,4 Market Place,Arnold,Nottinghamshire,,Refresh,Restaurant/Cafe/Canteen,1,5,,580863,5,,53.00213700000000,2671,262,foodsafety@gedling.gov.uk,Gedling,http://www.gedling.gov.uk/,-1.12823400000000,NG5 6ND,2013-08-29,fhrs_5_en-GB,5,,FHRS,5
57415,Street Record,Quarry Lane,Linby,Nottinghamshire,Residential Girl Guides,Other catering premises,7841,,,596055,,,,493,262,foodsafety@gedling.gov.uk,Gedling,http://www.gedling.gov.uk/,,,2013-10-30,fhrs_exempt_en-GB,Exempt,,FHRS,
57416,Richard Bonington Primary School &,Calverton Road,Arnold,Nottinghamshire,Richard Bonnington Sch,School/college/university,7845,0,,479999,0,,53.01210200000000,59/220,262,foodsafety@gedling.gov.uk,Gedling,http://www.gedling.gov.uk/,-1.12286100000000,NG5 8FQ,2014-11-17,fhrs_5_en-GB,5,,FHRS,0
57417,95 Victoria Road,Netherfield,Nottinghamshire,,River Pearl,Takeaway/sandwich shop,7844,5,,480001,5,,52.96342500000000,630/504,262,foodsafety@gedling.gov.uk,Gedling,http://www.gedling.gov.uk/,-1.07660600000000,NG4 2NN,2014-06-18,fhrs_5_en-GB,5,,FHRS,5
57418,Robert Mellors Primary School,Bonington Drive,Arnold,Nottinghamshire,Robert Mellors School,School/college/university,7845,0,,447848,0,,53.00304800000000,32/647,262,foodsafety@gedling.gov.uk,Gedling,http://www.gedling.gov.uk/,-1.12264200000000,NG5 7EX,2014-02-13,fhrs_5_en-GB,5,,FHRS,0
57419,Robin Hood And Little John,Main Street,Lambley,Nottinghamshire,Robin Hood  Inn,School/college/university,7845,0,,510855,5,,53.00071500000000,326/263,262,foodsafety@gedling.gov.uk,Gedling,http://www.gedling.gov.uk/,-1.06074500000000,NG4 4PP,2013-05-15,fhrs_5_en-GB,5,,FHRS,5
57420,Church Street,Arnold,Nottinghamshire,,Robin Hood And Little John,Pub/bar/nightclub,7843,10,,719330,0,,53.00712000000000,2807,262,foodsafety@gedling.gov.uk,Gedling,http://www.gedling.gov.uk/,-1.12750700000000,NG5 8FD,2014-11-20,fhrs_4_en-GB,4,,FHRS,0
57421,Robin Hood Scout Camp,Ricket Lane,Ravenshead,Nottinghamshire,Robin Hood Scout & Guide Camp,Other catering premises,7841,,,708124,,,53.09886600000000,1415/759,262,foodsafety@gedling.gov.uk,Gedling,http://www.gedling.gov.uk/,-1.15622500000000,NG21 0NF,2014-10-13,fhrs_exempt_en-GB,Exempt,,FHRS,
57422,52 Victoria Road,Netherfield,Nottinghamshire,,Robinson's The Butchers,Retailers - other,4613,10,,485224,10,,52.96311600000000,621/496,262,foodsafety@gedling.gov.uk,Gedling,http://www.gedling.gov.uk/,-1.07734200000000,NG4 2HG,2014-09-17,fhrs_3_en-GB,3,,FHRS,10
57423,56 Rolleston Drive,Arnold,Nottinghamshire,,Rolleston Fish Bar - Harry The Fish,Restaurant/Cafe/Canteen,1,10,,638362,5,,53.00139700000000,509/419,262,foodsafety@gedling.gov.uk,Gedling,http://www.gedling.gov.uk/,-1.11687900000000,NG5 7JN,2014-02-18,fhrs_4_en-GB,4,,FHRS,0
57424,Unit 7,East Link Trade Estate,Road No 2,Colwick,Romano's Caterers Ltd & Romano's Coffee Ltd.,Takeaway/sandwich shop,7844,5,,534321,0,,52.95677000000000,2528,262,foodsafety@gedling.gov.uk,Gedling,http://www.gedling.gov.uk/,-1.07981400000000,NG4 2JR,2013-03-27,fhrs_5_en-GB,5,,FHRS,0
57425,72A Front Street,Arnold,Nottingham,Nottinghamshire,Rowbottoms,Retailers - other,4613,10,,543127,0,,53.00345000000000,203/107,262,foodsafety@gedling.gov.uk,Gedling,http://www.gedling.gov.uk/,-1.12717900000000,NG5 7EJ,2014-04-23,fhrs_4_en-GB,4,,FHRS,10
57426,Sacred Heart Primary School,Southcliffe Road,Carlton,Nottinghamshire,Sacred Heart R C School,School/college/university,7845,10,,516961,0,,52.96495200000000,540/437,262,foodsafety@gedling.gov.uk,Gedling,http://www.gedling.gov.uk/,-1.09515400000000,NG4 1EQ,2014-11-10,fhrs_4_en-GB,4,,FHRS,10
57427,1A Vale Road,Colwick,Nottinghamshire,,Sahota Stores,Retailers - other,4613,10,,610837,10,,52.95967100000000,595/470,262,foodsafety@gedling.gov.uk,Gedling,http://www.gedling.gov.uk/,-1.08404000000000,NG4 2GL,2013-11-11,fhrs_3_en-GB,3,,FHRS,10
57428,J Sainsbury Plc,Sir John Robinson Way,Daybrook,Nottinghamshire,Sainsburys,Retailers - supermarkets/hypermarkets,7840,5,,528760,5,,52.99857000000000,1795/967,262,foodsafety@gedling.gov.uk,Gedling,http://www.gedling.gov.uk/,-1.13592000000000,NG5 6BN,2014-10-01,fhrs_5_en-GB,5,,FHRS,5
57429,18 Arnold Lane,Gedling,Nottinghamshire,,Sainsbury's At Beaumonts,Retailers - supermarkets/hypermarkets,7840,0,,480004,0,,52.97881500000000,7/913/C1,262,foodsafety@gedling.gov.uk,Gedling,http://www.gedling.gov.uk/,-1.08357600000000,NG4 4HB,2014-11-05,fhrs_5_en-GB,5,,FHRS,0
57430,6 - 8 St Wilfrids Square,Calverton,Nottinghamshire,,Sainsburys Local,Retailers - supermarkets/hypermarkets,7840,0,,578396,0,,53.03719800000000,549/446,262,foodsafety@gedling.gov.uk,Gedling,http://www.gedling.gov.uk/,-1.08190600000000,NG14 6FP,2013-08-05,fhrs_5_en-GB,5,,FHRS,5
57431,Mapperley Breck Hill Road,5 Plains Road,Woodthorpe,Nottinghamshire,Sainsbury's Supermarkets Ltd,Retailers - supermarkets/hypermarkets,7840,0,,719331,5,,52.98389100000000,2809,262,foodsafety@gedling.gov.uk,Gedling,http://www.gedling.gov.uk/,-1.12258300000000,NG3 5JH,2014-11-03,fhrs_5_en-GB,5,,FHRS,0
57432,Savers,65 Front Street,Arnold,Nottinghamshire,Savers Health And Beauty,Retailers - other,4613,,,510869,,,53.00355500000000,879/1097,262,foodsafety@gedling.gov.uk,Gedling,http://www.gedling.gov.uk/,-1.12799600000000,NG5 7EB,2013-02-14,fhrs_exempt_en-GB,Exempt,,FHRS,
57433,163 Burton Road,Carlton,Nottinghamshire,,Scrumpy's,Retailers - other,4613,,,621657,,,52.97147200000000,57/021,262,foodsafety@gedling.gov.uk,Gedling,http://www.gedling.gov.uk/,-1.07445400000000,NG4 2QF,2014-01-02,fhrs_exempt_en-GB,Exempt,,FHRS,
57434,,,,,Seagrave Court,Hospitals/Childcare/Caring Premises,5,5,,619351,5,,,1867/1047,262,foodsafety@gedling.gov.uk,Gedling,http://www.gedling.gov.uk/,,,2013-11-28,fhrs_5_en-GB,5,,FHRS,5
57435,The Seven Mile Country Inn,Mansfield Road,Arnold,Nottinghamshire,Seven Mile Beefeater,Restaurant/Cafe/Canteen,1,5,,409151,5,,53.05650900000000,369/313,262,foodsafety@gedling.gov.uk,Gedling,http://www.gedling.gov.uk/,-1.15496400000000,NG15 8FJ,2013-10-18,fhrs_4_en-GB,4,,FHRS,10
57436,Leeways,53 Sherbrook Road,Arnold,Daybrook,Sharps Shop,Retailers - other,4613,10,,439342,5,,52.99664000000000,530/430,262,foodsafety@gedling.gov.uk,Gedling,http://www.gedling.gov.uk/,-1.14001100000000,NG5 6AL,2014-07-10,fhrs_3_en-GB,3,,FHRS,10
57437,67 - 69 Somersby Road,Woodthorpe,Nottinghamshire,,Sheila's Local Supermarket,Retailers - other,4613,,,638353,,,52.99168600000000,1854/434,262,foodsafety@gedling.gov.uk,Gedling,http://www.gedling.gov.uk/,-1.12142700000000,NG5 4LW,2014-07-11,fhrs_1_en-GB,1,,FHRS,
57438,62 Homefield Avenue,Arnold,Nottinghamshire,,Sher Gill Stores,Retailers - other,4613,5,,610833,5,,53.01226400000000,265/152,262,foodsafety@gedling.gov.uk,Gedling,http://www.gedling.gov.uk/,-1.11559900000000,NG5 8GA,2013-11-25,fhrs_5_en-GB,5,,FHRS,5
57439,Main Street,Linby,Nottinghamshire,,Sherwood House,Other catering premises,7841,0,,580858,0,,53.05422200000000,1821/1056,262,foodsafety@gedling.gov.uk,Gedling,http://www.gedling.gov.uk/,-1.20269100000000,NG15 8AE,2013-08-29,fhrs_5_en-GB,5,,FHRS,0
57440,67 - 69 Hallam Road,Mapperley,Nottinghamshire,,Shop Smart,Takeaway/sandwich shop,7844,10,,370862,5,,52.97558900000000,250/641,262,foodsafety@gedling.gov.uk,Gedling,http://www.gedling.gov.uk/,-1.11704800000000,NG3 6HR,2013-12-09,fhrs_3_en-GB,3,,FHRS,10
57441,218 Carlton Hill,Carlton,Nottinghamshire,,Silver Marlin,Takeaway/sandwich shop,7844,5,,583898,0,,52.96651500000000,75/029,262,foodsafety@gedling.gov.uk,Gedling,http://www.gedling.gov.uk/,-1.10100300000000,NG4 1FT,2013-09-12,fhrs_5_en-GB,5,,FHRS,5
57442,,,,,Silv's Ice Creams,Mobile caterer,7846,0,,447843,0,,,1996/1946,262,foodsafety@gedling.gov.uk,Gedling,http://www.gedling.gov.uk/,,,2014-10-08,fhrs_5_en-GB,5,,FHRS,0
57443,,,,,Simily Sue's Cake Pantry,Other catering premises,7841,5,,409150,5,,,2591,262,foodsafety@gedling.gov.uk,Gedling,http://www.gedling.gov.uk/,,,2012-06-21,fhrs_5_en-GB,5,,FHRS,5
57444,107 High Street,Arnold,Nottinghamshire,,Sitar Restaurant,Restaurant/Cafe/Canteen,1,5,,543133,10,,53.00597300000000,2519,262,foodsafety@gedling.gov.uk,Gedling,http://www.gedling.gov.uk/,-1.12912500000000,NG5 7DS,2014-06-12,fhrs_4_en-GB,4,,FHRS,5
57445,Family Butchers,17A Plains Road,Woodthorpe,Nottinghamshire,Smiths Butchers,Retailers - other,4613,10,,528776,5,,52.98456000000000,466/376,262,foodsafety@gedling.gov.uk,Gedling,http://www.gedling.gov.uk/,-1.12184000000000,NG3 5LG,2014-03-26,fhrs_4_en-GB,4,,FHRS,5
57446,,,,,So Let Them Eat Cake,Other catering premises,7841,0,,548329,0,,,2455,262,foodsafety@gedling.gov.uk,Gedling,http://www.gedling.gov.uk/,,,2013-05-15,fhrs_5_en-GB,5,,FHRS,0
57447,962 Woodborough Road,Mapperley,Nottinghamshire,,Somersby Chocolates,Retailers - other,4613,5,,558783,0,,52.98482700000000,2116,262,foodsafety@gedling.gov.uk,Gedling,http://www.gedling.gov.uk/,-1.12024100000000,NG3 5QS,2013-06-21,fhrs_5_en-GB,5,,FHRS,5
57448,12 Milton Court,Ravenshead,Nottinghamshire,,Spar Ravenshead,Retailers - other,4613,5,,376456,5,,53.08550400000000,397/297,262,foodsafety@gedling.gov.uk,Gedling,http://www.gedling.gov.uk/,-1.16586200000000,NG15 9BD,2014-05-01,fhrs_5_en-GB,5,,FHRS,5
57449,459 Westdale Lane West,Mapperley,Nottinghamshire,,Spice,Other catering premises,7841,10,,583886,0,,52.98465400000000,1320/977/C1,262,foodsafety@gedling.gov.uk,Gedling,http://www.gedling.gov.uk/,-1.11754800000000,NG3 6DH,2014-01-30,fhrs_4_en-GB,4,,FHRS,5
57450,The Poplars Sports Ground,Station Road,Burton Joyce,Nottinghamshire,Sports Pavillion,Other catering premises,7841,,,447840,,,52.98460200000000,1688/1084,262,foodsafety@gedling.gov.uk,Gedling,http://www.gedling.gov.uk/,-1.04001700000000,NG14 5AN,2014-10-13,fhrs_exempt_en-GB,Exempt,,FHRS,
57451,Spring Lane Farm,382 Spring Lane,Lambley,Nottinghamshire,Spring Lane Farm Shop,Retailers - other,4613,5,,479980,0,,52.99694600000000,1985,262,foodsafety@gedling.gov.uk,Gedling,http://www.gedling.gov.uk/,-1.09763000000000,NG3 5RQ,2014-06-11,fhrs_5_en-GB,5,,FHRS,5
57452,Springwater Cantonese Restaurant,Moor Lane,Woodborough,Nottinghamshire,Springwater Bar And Restaurant,Restaurant/Cafe/Canteen,1,0,,510857,5,,53.03433600000000,398/369,262,foodsafety@gedling.gov.uk,Gedling,http://www.gedling.gov.uk/,-1.05739100000000,NG14 6FZ,2014-09-02,fhrs_5_en-GB,5,,FHRS,5
57453,Moor Lane,Woodborough,Nottinghamshire,,Springwater Golf Club,Restaurant/Cafe/Canteen,1,10,,349085,10,,53.03433600000000,399/758,262,foodsafety@gedling.gov.uk,Gedling,http://www.gedling.gov.uk/,-1.05739100000000,NG14 6FZ,2013-10-14,fhrs_3_en-GB,3,,FHRS,10
57454,10 Smithy View,Calverton,Nottinghamshire,,Springwater Lodge Care Home - HC-One,Hospitals/Childcare/Caring Premises,5,5,,357096,5,,53.03653200000000,535/755,262,foodsafety@gedling.gov.uk,Gedling,http://www.gedling.gov.uk/,-1.08648400000000,NG14 6FA,2014-09-03,fhrs_5_en-GB,5,,FHRS,5
57455,91 Victoria Road,Netherfield,Nottingham,Nottinghamshire,St Georges Centre,Other catering premises,7841,5,,587209,5,,52.96342500000000,1247/1090,262,foodsafety@gedling.gov.uk,Gedling,http://www.gedling.gov.uk/,-1.07660600000000,NG4 2NN,2013-09-16,fhrs_5_en-GB,5,,FHRS,0
57456,Marshall Hill Drive,Mapperley,Nottinghamshire,,St James Church,Other catering premises,7841,,,719334,,,52.98049100000000,2817,262,foodsafety@gedling.gov.uk,Gedling,http://www.gedling.gov.uk/,-1.10889000000000,NG3 6FY,2014-11-14,fhrs_exempt_en-GB,Exempt,,FHRS,
57457,Marshall Hill Drive,Mapperley,Nottinghamshire,,St James Court,Hospitals/Childcare/Caring Premises,5,,,318348,,,52.97988600000000,384/287,262,foodsafety@gedling.gov.uk,Gedling,http://www.gedling.gov.uk/,-1.10996000000000,,2014-04-22,fhrs_exempt_en-GB,Exempt,,FHRS,
57458,St John The Baptist Church,Vale Road,Colwick,Nottinghamshire,St John The Baptist,Retailers - other,4613,,,648990,,,,2562,262,foodsafety@gedling.gov.uk,Gedling,http://www.gedling.gov.uk/,,,2014-03-25,fhrs_exempt_en-GB,Exempt,,FHRS,
57459,St John The Baptist Primary School,Vale Road,Colwick,Nottinghamshire,St John's Primary School,School/college/university,7845,5,,583896,5,,52.95625100000000,594/471,262,foodsafety@gedling.gov.uk,Gedling,http://www.gedling.gov.uk/,-1.09179300000000,NG4 2ED,2015-02-11,fhrs_5_en-GB,5,,FHRS,0
57460,De Vere Gardens,Woodthorpe,Nottinghamshire,,St Marks Church,Other catering premises,7841,,,528782,,,52.99045300000000,722/923,262,foodsafety@gedling.gov.uk,Gedling,http://www.gedling.gov.uk/,-1.12248000000000,NG5 4PH,2013-03-19,fhrs_exempt_en-GB,Exempt,,FHRS,
57461,St Marks Church,School Walk,Bestwood,Nottinghamshire,St Mark's Church,Other catering premises,7841,0,,409149,0,,53.02476900000000,2443,262,foodsafety@gedling.gov.uk,Gedling,http://www.gedling.gov.uk/,-1.17836500000000,NG6 8UU,2013-11-06,fhrs_5_en-GB,5,,FHRS,5
57462,St Wilfrids School,Main Street,Calverton,Nottinghamshire,St Wilfrids Primary School,School/college/university,7845,0,,638360,0,,53.03656000000000,321/451,262,foodsafety@gedling.gov.uk,Gedling,http://www.gedling.gov.uk/,-1.08311300000000,NG14 6FG,2014-02-24,fhrs_5_en-GB,5,,FHRS,0
57463,185 Standhill Road,Carlton,Nottinghamshire,,Standhill News,Retailers - other,4613,0,,534327,0,,52.96923800000000,559/452,262,foodsafety@gedling.gov.uk,Gedling,http://www.gedling.gov.uk/,-1.11406500000000,NG4 1JT,2013-04-09,fhrs_5_en-GB,5,,FHRS,0
57464,Stanhope Primary School,Shelford Road,Gedling,Nottingham,Stanhope Primary Sch,School/college/university,7845,5,,479998,0,,52.98187800000000,525/735,262,foodsafety@gedling.gov.uk,Gedling,http://www.gedling.gov.uk/,-1.09623100000000,NG4 4HW,2014-11-18,fhrs_5_en-GB,5,,FHRS,0
57465,54 Rolleston Drive,Arnold,Nottinghamshire,,Steve's News And Booze,Retailers - other,4613,10,,558786,5,,53.00139700000000,508/418,262,foodsafety@gedling.gov.uk,Gedling,http://www.gedling.gov.uk/,-1.11687900000000,NG5 7JN,2013-06-17,fhrs_4_en-GB,4,,FHRS,5
57466,Stoke House,24 - 26 Stoke Lane,Gedling,Nottinghamshire,Stoke House Nursing Home,Restaurant/Cafe/Canteen,1,5,,553246,5,,52.97190300000000,576/461,262,foodsafety@gedling.gov.uk,Gedling,http://www.gedling.gov.uk/,-1.06749000000000,NG4 2QP,2014-06-12,fhrs_5_en-GB,5,,FHRS,5
57467,Stoppards,48 Front Street,Arnold,Nottinghamshire,Stoppards Sandwich And Deli,Takeaway/sandwich shop,7844,10,,444703,10,,53.00206000000000,872/1066/C1,262,foodsafety@gedling.gov.uk,Gedling,http://www.gedling.gov.uk/,-1.12886100000000,NG5 7EL,2014-02-24,fhrs_3_en-GB,3,,FHRS,5
57468,3A Milton Court,Ravenshead,Nottinghamshire,,Strawberry Fayre 2,Other catering premises,7841,5,,733107,5,,53.08550400000000,392/293/C1,262,foodsafety@gedling.gov.uk,Gedling,http://www.gedling.gov.uk/,-1.16586200000000,NG15 9BD,2015-01-29,fhrs_5_en-GB,5,,FHRS,5
57469,80 Front Street,Arnold,Nottinghamshire,,Subway,Restaurant/Cafe/Canteen,1,0,,528766,0,,53.00345000000000,2521,262,foodsafety@gedling.gov.uk,Gedling,http://www.gedling.gov.uk/,-1.12717900000000,NG5 7EJ,2014-09-22,fhrs_5_en-GB,5,,FHRS,5
57470,R1A,Victoria Park Way,Netherfield,Nottinghamshire,Subway,Takeaway/sandwich shop,7844,5,,719327,0,,52.95874900000000,2758,262,foodsafety@gedling.gov.uk,Gedling,http://www.gedling.gov.uk/,-1.06378400000000,NG4 2PE,2014-11-25,fhrs_5_en-GB,5,,FHRS,0
57471,Unit 2,712 - 716 Mansfield Road,Woodthorpe,Nottinghamshire,Subway,Restaurant/Cafe/Canteen,1,,,583888,,,52.98677900000000,1672/1126,262,foodsafety@gedling.gov.uk,Gedling,http://www.gedling.gov.uk/,-1.14127900000000,NG5 3FW,2014-05-12,fhrs_5_en-GB,5,,FHRS,
57472,,,,,Sue's Bakery,Other catering premises,7841,5,,558780,5,,,1992/1941,262,foodsafety@gedling.gov.uk,Gedling,http://www.gedling.gov.uk/,,,2013-06-10,fhrs_5_en-GB,5,,FHRS,5
57473,296 Carlton Hill,Carlton,Nottinghamshire,,Summer Palace Cantonese Restaurant,Restaurant/Cafe/Canteen,1,,,578398,,,52.96626100000000,78/032,262,foodsafety@gedling.gov.uk,Gedling,http://www.gedling.gov.uk/,-1.10785700000000,NG4 1GD,2013-08-28,fhrs_1_en-GB,1,,FHRS,
57474,,,,,Summerby's Catering And Coco Falls,Other catering premises,7841,5,,596047,5,,,2111,262,foodsafety@gedling.gov.uk,Gedling,http://www.gedling.gov.uk/,,,2013-10-02,fhrs_5_en-GB,5,,FHRS,5
57475,310 Porchester Road,Mapperley,Nottinghamshire,,Sunnymount,Hotel/bed & breakfast/guest house,7842,20,,619359,10,,52.98079400000000,2490,262,foodsafety@gedling.gov.uk,Gedling,http://www.gedling.gov.uk/,-1.12558000000000,NG3 6GR,2013-12-02,fhrs_1_en-GB,1,,FHRS,15
57476,34 - 36 Front Street,Arnold,Nottinghamshire,,Superdrug,Retailers - other,4613,,,510844,,,53.00206000000000,198/100,262,foodsafety@gedling.gov.uk,Gedling,http://www.gedling.gov.uk/,-1.12886100000000,NG5 7EL,2013-02-14,fhrs_exempt_en-GB,Exempt,,FHRS,
57477,272 Longdale Lane,Ravenshead,Nottingham,Nottinghamshire,Sutherland House School,Other catering premises,7841,0,,516958,0,,53.07235200000000,292/721,262,foodsafety@gedling.gov.uk,Gedling,http://www.gedling.gov.uk/,-1.15044400000000,NG15 9AH,2014-10-02,fhrs_5_en-GB,5,,FHRS,5
57478,135 Oxclose Lane,Arnold,Nottinghamshire,,Tammy's,Takeaway/sandwich shop,7844,10,,439336,10,,52.99947600000000,1862/1040,262,foodsafety@gedling.gov.uk,Gedling,http://www.gedling.gov.uk/,-1.14682400000000,NG5 6FN,2014-02-03,fhrs_3_en-GB,3,,FHRS,10
57479,Taste Of Kasmir,Unit 1,Victoria Road,Netherfield,Taste Of Kashmir,Takeaway/sandwich shop,7844,10,,376458,15,,52.96433800000000,610/483,262,foodsafety@gedling.gov.uk,Gedling,http://www.gedling.gov.uk/,-1.07840300000000,NG4 2LA,2013-06-20,fhrs_2_en-GB,2,,FHRS,10
57480,91 Mansfield Road,Daybrook,Nottinghamshire,,Tasty Willows,Restaurant/Cafe/Canteen,1,10,,376453,10,,52.99858600000000,2449,262,foodsafety@gedling.gov.uk,Gedling,http://www.gedling.gov.uk/,-1.13815400000000,NG5 6BH,2015-01-08,fhrs_3_en-GB,3,,FHRS,10
57481,,29 Victoria Road,Netherfield,Nottinghamshire,Taylor's,Retailers - other,4613,5,,543137,5,,52.96433800000000,2665,262,foodsafety@gedling.gov.uk,Gedling,http://www.gedling.gov.uk/,-1.07840300000000,NG4 2LA,2013-04-19,fhrs_5_en-GB,5,,FHRS,0
57482,Tesco Express,Oxclose Lane,Arnold,Nottinghamshire,Tesco,Retailers - supermarkets/hypermarkets,7840,5,,624719,10,,,2686,262,foodsafety@gedling.gov.uk,Gedling,http://www.gedling.gov.uk/,,,2014-01-06,fhrs_4_en-GB,4,,FHRS,5
57483,Unit 2,40 Teal Close,Netherfield,Nottinghamshire,Tesco,Retailers - supermarkets/hypermarkets,7840,0,,619357,0,,,2048,262,foodsafety@gedling.gov.uk,Gedling,http://www.gedling.gov.uk/,,,2013-11-13,fhrs_5_en-GB,5,,FHRS,0
57484,305A Carlton Hill,Carlton,Nottinghamshire,,Tesco Express,Retailers - supermarkets/hypermarkets,7840,0,,430400,5,,52.96608299000000,1939/1100,262,foodsafety@gedling.gov.uk,Gedling,http://www.gedling.gov.uk/,-1.10799909000000,,2014-07-14,fhrs_5_en-GB,5,,FHRS,0
57485,Tesco Stores Ltd,Carlton Hill,Carlton,Nottinghamshire,Tesco Ltd,Retailers - supermarkets/hypermarkets,7840,10,,510867,10,,52.96655400000000,67/803,262,foodsafety@gedling.gov.uk,Gedling,http://www.gedling.gov.uk/,-1.08958200000000,NG4 1EB,2014-09-18,fhrs_3_en-GB,3,,FHRS,10
57486,75-79 Howbeck Road,Arnold,Nottinghamshire,,Tesco Stores Ltd,Retailers - supermarkets/hypermarkets,7840,0,,430404,5,,53.00560500000000,269/885,262,foodsafety@gedling.gov.uk,Gedling,http://www.gedling.gov.uk/,-1.10983400000000,NG5 8AA,2014-07-01,fhrs_5_en-GB,5,,FHRS,0
57487,Tesco,Unit 1,712 - 716 Mansfield Road,Woodthorpe,Tesco Stores Ltd,Retailers - supermarkets/hypermarkets,7840,0,,409144,0,,52.98677900000000,1968/1128,262,foodsafety@gedling.gov.uk,Gedling,http://www.gedling.gov.uk/,-1.14127900000000,NG5 3FW,2014-06-09,fhrs_5_en-GB,5,,FHRS,0
57488,38 Thackerays Lane,Woodthorpe,Nottinghamshire,,Thackerays,Takeaway/sandwich shop,7844,5,,534328,5,,52.99230300000000,582/710,262,foodsafety@gedling.gov.uk,Gedling,http://www.gedling.gov.uk/,-1.13568700000000,NG5 4HQ,2014-09-29,fhrs_5_en-GB,5,,FHRS,5
57489,89 Mansfield Road,Daybrook,Nottinghamshire,,The Abdication Micro Pub,Pub/bar/nightclub,7843,5,,708126,5,,52.99858600000000,2797,262,foodsafety@gedling.gov.uk,Gedling,http://www.gedling.gov.uk/,-1.13815400000000,NG5 6BH,2014-10-15,fhrs_5_en-GB,5,,FHRS,5
57490,Banyan Tree,520 Mansfield Road,Redhill,Nottinghamshire,The Banyan Tree Restaurant,Restaurant/Cafe/Canteen,1,5,,510856,10,,53.02133400000000,345/265/C1,262,foodsafety@gedling.gov.uk,Gedling,http://www.gedling.gov.uk/,-1.13136500000000,NG5 8PG,2014-08-27,fhrs_4_en-GB,4,,FHRS,5
57491,25 Front Street,Arnold,Nottinghamshire,,The Barley Twist,Retailers - other,4613,0,,543128,0,,53.00244700000000,2047,262,foodsafety@gedling.gov.uk,Gedling,http://www.gedling.gov.uk/,-1.12891300000000,NG5 7EA,2015-01-19,fhrs_5_en-GB,5,,FHRS,0
57492,69 Main Street,Burton Joyce,Nottinghamshire,,The Blue Bird Cafe,Restaurant/Cafe/Canteen,1,5,,696389,5,,52.98939500000000,2800,262,foodsafety@gedling.gov.uk,Gedling,http://www.gedling.gov.uk/,-1.03468200000000,NG14 5ED,2014-08-26,fhrs_5_en-GB,5,,FHRS,5
57493,Woodthorpe Drive,Woodthorpe,Nottinghamshire,,The Bread And Bitter,Pub/bar/nightclub,7843,,,421835,,,52.98602800000000,2015/1959,262,foodsafety@gedling.gov.uk,Gedling,http://www.gedling.gov.uk/,-1.13076600000000,,2014-09-22,fhrs_5_en-GB,5,,FHRS,
57494,Burntstump Inn,Burntstump Hill,Arnold,Nottinghamshire,The Burntstump,Pub/bar/nightclub,7843,5,,583894,10,,53.05174700000000,42/218,262,foodsafety@gedling.gov.uk,Gedling,http://www.gedling.gov.uk/,-1.13409600000000,NG5 8PQ,2013-09-02,fhrs_4_en-GB,4,,FHRS,5
57495,,,,,The Cake Den,Retailers - other,4613,0,,708125,5,,,2754,262,foodsafety@gedling.gov.uk,Gedling,http://www.gedling.gov.uk/,,,2014-10-15,fhrs_5_en-GB,5,,FHRS,5
57496,The Chattel House Cafe Bar And Bist,358 Carlton Hill,Carlton,Nottinghamshire,The Chattel House Cafe Bar & Bistro,Restaurant/Cafe/Canteen,1,5,,719328,5,,52.96603900000000,2799,262,foodsafety@gedling.gov.uk,Gedling,http://www.gedling.gov.uk/,-1.11061600000000,NG4 1JB,2014-11-17,fhrs_5_en-GB,5,,FHRS,5
57497,157 Woodthorpe Drive,Woodthorpe,Nottinghamshire,,The Cheesecake Shop,Restaurant/Cafe/Canteen,1,0,,528757,0,,52.98421900000000,1769/907,262,foodsafety@gedling.gov.uk,Gedling,http://www.gedling.gov.uk/,-1.12430500000000,NG3 5JL,2013-03-13,fhrs_5_en-GB,5,,FHRS,0
57498,36 Main Street,Burton Joyce,Nottinghamshire,,The Co-operative,Retailers - supermarkets/hypermarkets,7840,5,,543138,5,,52.98784700000000,313/178,262,foodsafety@gedling.gov.uk,Gedling,http://www.gedling.gov.uk/,-1.03662400000000,NG14 5DZ,2013-04-23,fhrs_5_en-GB,5,,FHRS,0
57499,Co-op,938-942 Woodborough Road,Mapperley,Nottinghamshire,The Co-operative Food,Retailers - supermarkets/hypermarkets,7840,0,,558787,0,,52.98482700000000,697/612,262,foodsafety@gedling.gov.uk,Gedling,http://www.gedling.gov.uk/,-1.12024100000000,NG3 5QS,2015-01-05,fhrs_5_en-GB,5,,FHRS,0
57500,G N C S Superstore,53 - 63 Victoria Road,Netherfield,Nottinghamshire,The Co-operative Food,Retailers - supermarkets/hypermarkets,7840,5,,580867,0,,52.96342500000000,623/499,262,foodsafety@gedling.gov.uk,Gedling,http://www.gedling.gov.uk/,-1.07660600000000,NG4 2NN,2013-08-19,fhrs_5_en-GB,5,,FHRS,5
57501,Scout Hut,Main Road,Ravenshead,Nottinghamshire,The Cornwater Club,Other catering premises,7841,,,706215,,,53.08245500000000,1904/1075,262,foodsafety@gedling.gov.uk,Gedling,http://www.gedling.gov.uk/,-1.15796400000000,NG15 9BU,2014-09-25,fhrs_exempt_en-GB,Exempt,,FHRS,
57502,58 Rolleston Drive,Arnold,Nottinghamshire,,The Curry Pot,Takeaway/sandwich shop,7844,10,,457394,5,,53.00139700000000,510/653,262,foodsafety@gedling.gov.uk,Gedling,http://www.gedling.gov.uk/,-1.11687900000000,NG5 7JN,2014-02-06,fhrs_4_en-GB,4,,FHRS,5
57503,326 Carlton Hill,Carlton,Nottinghamshire,,The Eatery,Restaurant/Cafe/Canteen,1,5,,572024,0,,52.96626100000000,2555,262,foodsafety@gedling.gov.uk,Gedling,http://www.gedling.gov.uk/,-1.10785700000000,NG4 1GD,2015-02-12,fhrs_5_en-GB,5,,FHRS,0
57504,Oakdale Road,Carlton,Nottinghamshire,,The Elwes Arms,Other catering premises,7841,0,,428990,0,,52.96284200000000,422/323,262,foodsafety@gedling.gov.uk,Gedling,http://www.gedling.gov.uk/,-1.08846900000000,NG4 1DH,2014-03-14,fhrs_5_en-GB,5,,FHRS,5
57505,The Ernhale,149 - 151 Nottingham Road,Arnold,Nottinghamshire,The Ernehale,Other catering premises,7841,0,,510839,5,,53.00175700000000,1657/997,262,foodsafety@gedling.gov.uk,Gedling,http://www.gedling.gov.uk/,-1.13043200000000,NG5 6JN,2014-08-19,fhrs_5_en-GB,5,,FHRS,5
57506,42 Main Road,Gedling,Nottinghamshire,,The Finishing Touch,Retailers - other,4613,0,,466757,0,,52.97486300000000,1952/1110,262,foodsafety@gedling.gov.uk,Gedling,http://www.gedling.gov.uk/,-1.08048700000000,NG4 3HL,2014-10-31,fhrs_5_en-GB,5,,FHRS,0
57507,86 Nottingham Road,Arnold,Nottinghamshire,,The Fish King,Other catering premises,7841,5,,534320,10,,53.00084400000000,2523,262,foodsafety@gedling.gov.uk,Gedling,http://www.gedling.gov.uk/,-1.13089700000000,NG5 6LF,2014-09-16,fhrs_4_en-GB,4,,FHRS,5
57508,334 - 336 Carlton Hill,Carlton,Nottinghamshire,,The Free Man,Other catering premises,7841,5,,572023,5,,52.96614700000000,2032/1976,262,foodsafety@gedling.gov.uk,Gedling,http://www.gedling.gov.uk/,-1.10946700000000,NG4 1JD,2013-07-25,fhrs_5_en-GB,5,,FHRS,5
57509,936 Woodborough Road,Mapperley,Nottinghamshire,,The Fruit Bowl,Retailers - other,4613,10,,421842,0,,52.98482700000000,694/816,262,foodsafety@gedling.gov.uk,Gedling,http://www.gedling.gov.uk/,-1.12024100000000,NG3 5QS,2014-06-10,fhrs_4_en-GB,4,,FHRS,5
57510,,,,,The Green Kitchen,Mobile caterer,7846,5,,493278,5,,,2362,262,foodsafety@gedling.gov.uk,Gedling,http://www.gedling.gov.uk/,,,2015-01-26,fhrs_5_en-GB,5,,FHRS,5
57511,133 Nottingham Road,Daybrook,Nottinghamshire,,The Greyhound,Pub/bar/nightclub,7843,10,,590981,5,,53.00035200000000,2714,262,foodsafety@gedling.gov.uk,Gedling,http://www.gedling.gov.uk/,-1.13251700000000,NG5 6LA,2013-09-18,fhrs_2_en-GB,2,,FHRS,15
57512,21 Plains Road,Woodthorpe,Nottinghamshire,,The Health Food Store,Retailers - other,4613,,,466762,,,52.98456000000000,465/882,262,foodsafety@gedling.gov.uk,Gedling,http://www.gedling.gov.uk/,-1.12184000000000,NG3 5LG,2014-10-29,fhrs_exempt_en-GB,Exempt,,FHRS,
57513,9 Mews Lane,Calverton,Nottinghamshire,,The Homestead,Hospitals/Childcare/Caring Premises,5,5,,565235,0,,53.03849000000000,1790/956,262,foodsafety@gedling.gov.uk,Gedling,http://www.gedling.gov.uk/,-1.08981300000000,NG14 6JW,2013-07-08,fhrs_5_en-GB,5,,FHRS,5
57514,Nottingham Road,Ravenshead,Nottingham,Nottinghamshire,The Hutt,Restaurant/Cafe/Canteen,1,5,,578394,5,,53.08142900000000,409/315,262,foodsafety@gedling.gov.uk,Gedling,http://www.gedling.gov.uk/,-1.16924000000000,NG15 9HJ,2013-08-13,fhrs_5_en-GB,5,,FHRS,5
57515,The Kings Church Arnold,Shirley Drive,Arnold,Nottinghamshire,The Kings Centre,Other catering premises,7841,5,,733101,0,,53.00242900000000,1202,262,foodsafety@gedling.gov.uk,Gedling,http://www.gedling.gov.uk/,-1.11188000000000,NG5 7JX,2015-01-20,fhrs_5_en-GB,5,,FHRS,0
57516,Main Street,Lambley,Nottinghamshire,,The Lambley Village Kitchen,Pub/bar/nightclub,7843,5,,706219,5,,53.00087500000000,2782,262,foodsafety@gedling.gov.uk,Gedling,http://www.gedling.gov.uk/,-1.06397500000000,NG4 4PN,2014-09-11,fhrs_5_en-GB,5,,FHRS,5
57517,The Blacks Head,11 Burton Road,Carlton,Nottinghamshire,The Little Flaming Kitchen,Pub/bar/nightclub,7843,0,,719335,0,,52.96744500000000,2818,262,foodsafety@gedling.gov.uk,Gedling,http://www.gedling.gov.uk/,-1.08621300000000,NG4 3DT,2014-11-24,fhrs_5_en-GB,5,,FHRS,5
57518,Little John Inn,177 Main Road,Ravenshead,Nottinghamshire,The Little John Inn,Pub/bar/nightclub,7843,10,,578384,10,,53.09364400000000,2066,262,foodsafety@gedling.gov.uk,Gedling,http://www.gedling.gov.uk/,-1.15005500000000,NG15 9GS,2014-02-11,fhrs_3_en-GB,3,,FHRS,10
57519,248 Oakdale Road,Carlton,Nottinghamshire,,The Little Oak,Retailers - other,4613,10,,510858,5,,52.96234900000000,424/931,262,foodsafety@gedling.gov.uk,Gedling,http://www.gedling.gov.uk/,-1.09211200000000,NG4 1BQ,2013-02-20,fhrs_4_en-GB,4,,FHRS,5
57520,Nags Head,106 Carlton Hill,Carlton,Nottinghamshire,The Nags Head (The Mermaid Bar And Restaurant),Pub/bar/nightclub,7843,5,,376459,5,,52.96673300000000,68/027,262,foodsafety@gedling.gov.uk,Gedling,http://www.gedling.gov.uk/,-1.09532600000000,NG4 1FN,2014-03-07,fhrs_4_en-GB,4,,FHRS,10
57521,,,,,The Old School Dining Room,Restaurant/Cafe/Canteen,1,5,,528758,0,,,1774,262,foodsafety@gedling.gov.uk,Gedling,http://www.gedling.gov.uk/,,,2013-03-27,fhrs_5_en-GB,5,,FHRS,0
57522,Old Volunteer,35 Burton Road,Carlton,Nottinghamshire,The Old Volunteer,Pub/bar/nightclub,7843,0,,733102,0,,52.96779300000000,2776,262,foodsafety@gedling.gov.uk,Gedling,http://www.gedling.gov.uk/,-1.08474600000000,NG4 3DQ,2015-01-15,fhrs_5_en-GB,5,,FHRS,0
57523,5 Marshall Hill Drive,Mapperley,Nottinghamshire,,The Orchards,Hospitals/Childcare/Caring Premises,5,0,,528764,0,,52.98049100000000,2071,262,foodsafety@gedling.gov.uk,Gedling,http://www.gedling.gov.uk/,-1.10889000000000,NG3 6FY,2013-03-14,fhrs_5_en-GB,5,,FHRS,0
57524,12 St Wilfrids Square,Calverton,Nottinghamshire,,The Pork Butchers,Retailers - other,4613,5,,444702,10,,53.03719800000000,553/558,262,foodsafety@gedling.gov.uk,Gedling,http://www.gedling.gov.uk/,-1.08190600000000,NG14 6FP,2013-11-13,fhrs_4_en-GB,4,,FHRS,0
57525,Cricket Pavilion,Burton Road,Gedling,Nottinghamshire,The Railway Children,Hospitals/Childcare/Caring Premises,5,,,658637,,,,2764,262,foodsafety@gedling.gov.uk,Gedling,http://www.gedling.gov.uk/,,,2014-04-28,fhrs_exempt_en-GB,Exempt,,FHRS,
57526,Ram Inn,Mansfield Road,Redhill,Nottinghamshire,The Ram,Pub/bar/nightclub,7843,5,,587223,0,,53.01269600000000,372/209,262,foodsafety@gedling.gov.uk,Gedling,http://www.gedling.gov.uk/,-1.13273100000000,NG5 8JY,2013-09-19,fhrs_5_en-GB,5,,FHRS,5
57527,Park House Health And Social Care C,61 Burton Road,Carlton,Nottinghamshire,The Sandwich Girl,Restaurant/Cafe/Canteen,1,0,,493280,0,,52.97098300000000,2645,262,foodsafety@gedling.gov.uk,Gedling,http://www.gedling.gov.uk/,-1.07632500000000,NG4 3GS,2015-01-23,fhrs_5_en-GB,5,,FHRS,0
57528,Chapel Lane,Ravenshead,Nottinghamshire,,The Sherwood Ranger,Pub/bar/nightclub,7843,0,,444695,0,,53.08398400000000,120/229,262,foodsafety@gedling.gov.uk,Gedling,http://www.gedling.gov.uk/,-1.15551600000000,NG15 9DH,2014-10-16,fhrs_5_en-GB,5,,FHRS,5
57529,B And Q Car Park,Mansfield Road,Daybrook,Nottinghamshire,The Sizzler Mobile Food Vehicle,Mobile caterer,7846,10,,658638,10,,,2765,262,foodsafety@gedling.gov.uk,Gedling,http://www.gedling.gov.uk/,,,2015-01-19,fhrs_4_en-GB,4,,FHRS,0
57530,Spinnies,Linby Lane,Linby,Nottinghamshire,The Spinnies,Hospitals/Childcare/Caring Premises,5,0,,510843,0,,53.05474800000000,1972/1933,262,foodsafety@gedling.gov.uk,Gedling,http://www.gedling.gov.uk/,-1.19941400000000,NG15 8AF,2013-02-13,fhrs_5_en-GB,5,,FHRS,0
57531,,,,,The Sweet Stall,Retailers - other,4613,5,,590978,5,,,2101,262,foodsafety@gedling.gov.uk,Gedling,http://www.gedling.gov.uk/,,,2013-09-23,fhrs_5_en-GB,5,,FHRS,5
57532,Wheatsheaf Inn,Church Road,Burton Joyce,Nottinghamshire,The Wheatsheaf,Pub/bar/nightclub,7843,0,,528753,0,,52.98882200000000,1529/176,262,foodsafety@gedling.gov.uk,Gedling,http://www.gedling.gov.uk/,-1.03386100000000,NG14 5GB,2013-03-18,fhrs_5_en-GB,5,,FHRS,5
57533,13 Main Road,Gedling,Nottinghamshire,,The Willowbrook,Pub/bar/nightclub,7843,5,,682165,5,,52.97287600000000,2786,262,foodsafety@gedling.gov.uk,Gedling,http://www.gedling.gov.uk/,-1.08160100000000,NG4 3HQ,2014-07-07,fhrs_5_en-GB,5,,FHRS,0
57534,Woodthorpe Top,151A Woodthorpe Drive,Woodthorpe,Nottinghamshire,The Woodthorpe Top,Pub/bar/nightclub,7843,5,,504369,0,,52.98421900000000,1399/902,262,foodsafety@gedling.gov.uk,Gedling,http://www.gedling.gov.uk/,-1.12430500000000,NG3 5JL,2015-02-03,fhrs_5_en-GB,5,,FHRS,5
57535,7 Albemarle Road,Woodthorpe,Nottinghamshire,,Thorpe House B& B,Hotel/bed & breakfast/guest house,7842,0,,648987,0,,52.98878600000000,2138,262,foodsafety@gedling.gov.uk,Gedling,http://www.gedling.gov.uk/,-1.13796200000000,NG5 4FE,2014-03-28,fhrs_5_en-GB,5,,FHRS,0
57536,Toby Carvery,Daleside Road East,Colwick,Nottinghamshire,Toby Carvery Colwick Park,Pub/bar/nightclub,7843,0,,534317,0,,52.95523500000000,1887/1062,262,foodsafety@gedling.gov.uk,Gedling,http://www.gedling.gov.uk/,-1.09526800000000,NG2 4BP,2014-10-07,fhrs_4_en-GB,4,,FHRS,10
57537,331 Carlton Hill,Carlton,Nottinghamshire,,Top Spot Snooker Club,Other catering premises,7841,20,,430409,10,,52.96564300000000,86/523,262,foodsafety@gedling.gov.uk,Gedling,http://www.gedling.gov.uk/,-1.11047600000000,NG4 1JE,2014-02-05,fhrs_1_en-GB,1,,FHRS,15
57538,501 Mansfield Road,Redhill,Nottinghamshire,,Total Service Station,Retailers - other,4613,0,,430399,0,,53.02133400000000,1626/836,262,foodsafety@gedling.gov.uk,Gedling,http://www.gedling.gov.uk/,-1.13136500000000,NG5 8PG,2014-09-11,fhrs_5_en-GB,5,,FHRS,0
57539,Touch Hair,45 Plains Road,Woodthorpe,Nottinghamshire,Touch Complete Beauty Ltd,Retailers - other,4613,,,558776,,,52.98538400000000,1163,262,foodsafety@gedling.gov.uk,Gedling,http://www.gedling.gov.uk/,-1.12018500000000,NG3 5JU,2013-06-11,fhrs_exempt_en-GB,Exempt,,FHRS,
57540,Travellers Rest,Mapperley Plains,Lambley,Nottinghamshire,Travellers Rest Inn,Other catering premises,7841,0,,516960,5,,53.00062100000000,460/349,262,foodsafety@gedling.gov.uk,Gedling,http://www.gedling.gov.uk/,-1.10096600000000,NG3 5RT,2014-10-15,fhrs_5_en-GB,5,,FHRS,5
57541,Unit 7,East Link Trade Estate,Road No 2,Colwick,Tree Top Catering,Mobile caterer,7846,5,,534322,5,,52.95677000000000,2558,262,foodsafety@gedling.gov.uk,Gedling,http://www.gedling.gov.uk/,-1.07981400000000,NG4 2JR,2013-04-02,fhrs_5_en-GB,5,,FHRS,5
57542,Tree Tops Hotel,187 Plains Road,Woodthorpe,Nottinghamshire,Treetops Public House,Pub/bar/nightclub,7843,5,,565242,5,,52.99046700000000,473/187,262,foodsafety@gedling.gov.uk,Gedling,http://www.gedling.gov.uk/,-1.11234900000000,NG3 5RF,2015-01-26,fhrs_5_en-GB,5,,FHRS,5
57543,Tumble Town,107B High Street,Arnold,Nottinghamshire,Tumbletown Play Centre Ltd,Other catering premises,7841,0,,433977,0,,53.00597300000000,260/971,262,foodsafety@gedling.gov.uk,Gedling,http://www.gedling.gov.uk/,-1.12912500000000,NG5 7DS,2014-12-09,fhrs_5_en-GB,5,,FHRS,0
57544,40 Valley Road,Carlton,Nottinghamshire,,Tung Kong Valley,Takeaway/sandwich shop,7844,5,,590977,10,,52.97295100000000,1936/478,262,foodsafety@gedling.gov.uk,Gedling,http://www.gedling.gov.uk/,-1.10807700000000,NG4 1LT,2013-10-02,fhrs_4_en-GB,4,,FHRS,5
57545,,,,,Turner's Treats,Other catering premises,7841,5,,510852,0,,,2655,262,foodsafety@gedling.gov.uk,Gedling,http://www.gedling.gov.uk/,,,2013-02-19,fhrs_5_en-GB,5,,FHRS,0
57546,22 Victoria Road,Netherfield,Nottingham,Nottinghamshire,Tuxfords Butchers,Retailers - other,4613,,,543141,,,52.96419700000000,615/489,262,foodsafety@gedling.gov.uk,Gedling,http://www.gedling.gov.uk/,-1.07886700000000,NG4 2HE,2014-09-03,fhrs_4_en-GB,4,,FHRS,
57547,Mansfield Road,Daybrook,Nottinghamshire,,Vale Hotel,Pub/bar/nightclub,7843,5,,485222,5,,52.99454700000000,350/201,262,foodsafety@gedling.gov.uk,Gedling,http://www.gedling.gov.uk/,-1.13772800000000,NG5 3GG,2013-12-06,fhrs_5_en-GB,5,,FHRS,5
57548,66 Vale Road,Colwick,Nottinghamshire,,Vale Pharmacy,Retailers - other,4613,5,,610838,5,,52.95547300000000,596/473/C1,262,foodsafety@gedling.gov.uk,Gedling,http://www.gedling.gov.uk/,-1.09341700000000,NG4 2EB,2013-11-13,fhrs_5_en-GB,5,,FHRS,0
57549,54 Vale Road,Colwick,Nottinghamshire,,Vale Social Club,Other catering premises,7841,0,,619368,5,,52.95625100000000,592/472,262,foodsafety@gedling.gov.uk,Gedling,http://www.gedling.gov.uk/,-1.09179300000000,NG4 2ED,2013-11-15,fhrs_5_en-GB,5,,FHRS,0
57550,145 Woodthorpe Drive,Woodthorpe,Nottinghamshire,,Valmarys Childrens Centre,Hospitals/Childcare/Caring Premises,5,5,,480005,0,,52.98421900000000,702/760,262,foodsafety@gedling.gov.uk,Gedling,http://www.gedling.gov.uk/,-1.12430500000000,NG3 5JL,2014-11-11,fhrs_4_en-GB,4,,FHRS,10
57551,The Sherwood Ranger,Chapel Lane,Ravenshead,Nottinghamshire,Ve Raj,Restaurant/Cafe/Canteen,1,10,,578387,10,,53.08415500000000,2360,262,foodsafety@gedling.gov.uk,Gedling,http://www.gedling.gov.uk/,-1.15561700000000,NG15 9DH,2013-08-06,fhrs_3_en-GB,3,,FHRS,10
57552,Vegas Fast Food Takeaway,324 Carlton Hill,Carlton,Nottinghamshire,Vegas,Takeaway/sandwich shop,7844,,,430408,,,52.96626100000000,84/973/C2,262,foodsafety@gedling.gov.uk,Gedling,http://www.gedling.gov.uk/,-1.10785700000000,NG4 1GD,2014-10-14,fhrs_4_en-GB,4,,FHRS,
57553,7 Milton Court,Ravenshead,Nottinghamshire,,Viksun News,Retailers - other,4613,,,504382,,,53.08550400000000,395/295,262,foodsafety@gedling.gov.uk,Gedling,http://www.gedling.gov.uk/,-1.16586200000000,NG15 9BD,2015-01-29,fhrs_exempt_en-GB,Exempt,,FHRS,
57554,131 Sherbrook Road,Daybrook,Nottinghamshire,,W E Berry & Son Post Office,Retailers - other,4613,10,,548339,0,,52.99829400000000,529/431,262,foodsafety@gedling.gov.uk,Gedling,http://www.gedling.gov.uk/,-1.14504400000000,NG5 6AS,2013-04-24,fhrs_4_en-GB,4,,FHRS,10
57555,Waggon And Horses,260 Mansfield Road,Redhill,Nottinghamshire,Waggon & Horses,Pub/bar/nightclub,7843,5,,357093,5,,53.01269600000000,370/203,262,foodsafety@gedling.gov.uk,Gedling,http://www.gedling.gov.uk/,-1.13273100000000,NG5 8JY,2014-03-19,fhrs_4_en-GB,4,,FHRS,10
57556,136 Burton Road,Carlton,Nottinghamshire,,Walkers Of Carlton Ltd,Retailers - other,4613,10,,528779,5,,52.97036600000000,55/043,262,foodsafety@gedling.gov.uk,Gedling,http://www.gedling.gov.uk/,-1.07672600000000,NG4 3GP,2014-09-19,fhrs_4_en-GB,4,,FHRS,5
57557,772 Mansfield Road,Woodthorpe,Nottinghamshire,,Wandering Dragon,Takeaway/sandwich shop,7844,10,,463434,10,,52.99242600000000,365/280,262,foodsafety@gedling.gov.uk,Gedling,http://www.gedling.gov.uk/,-1.13900700000000,NG5 3FH,2013-10-30,fhrs_3_en-GB,3,,FHRS,10
57558,Warren Primary School,Bewcastle Road,Bestwood,Nottinghamshire,Warren Primary Academy,School/college/university,7845,0,,463424,0,,53.01409600000000,1534/784,262,foodsafety@gedling.gov.uk,Gedling,http://www.gedling.gov.uk/,-1.16254400000000,NG5 9PJ,2014-12-05,fhrs_5_en-GB,5,,FHRS,0
57559,Weaverthorpe Pre School Centre,Derwent Crescent,Arnold,Nottinghamshire,Weaverthorpe Pre-School Centre,Hospitals/Childcare/Caring Premises,5,,,516954,,,52.99621600000000,2064,262,foodsafety@gedling.gov.uk,Gedling,http://www.gedling.gov.uk/,-1.11775900000000,NG5 6TA,2015-02-12,fhrs_exempt_en-GB,Exempt,,FHRS,
57560,Unit 32 Lower Ground Basement,Byron Industrial Estate,Brookfield Road,Arnold,Wentworth Sporting Supplies,Restaurant/Cafe/Canteen,1,5,,719329,5,,53.00214800000000,2802,262,foodsafety@gedling.gov.uk,Gedling,http://www.gedling.gov.uk/,-1.12239200000000,NG5 7ER,2014-11-28,fhrs_5_en-GB,5,,FHRS,5
57561,16 Westdale Lane East,Gedling,Nottinghamshire,,Westdale Balti House,Takeaway/sandwich shop,7844,10,,565231,10,,52.97254100000000,1308/1057,262,foodsafety@gedling.gov.uk,Gedling,http://www.gedling.gov.uk/,-1.08256200000000,NG4 3JA,2014-09-11,fhrs_3_en-GB,3,,FHRS,10
57562,Westdale Lane West,Mapperley,Nottinghamshire,,Westdale Junior School,School/college/university,7845,,,480002,,,52.98187900000000,663/081,262,foodsafety@gedling.gov.uk,Gedling,http://www.gedling.gov.uk/,-1.10698500000000,NG3 6ET,2014-09-10,fhrs_5_en-GB,5,,FHRS,
57563,Westdale Community Centre,Westdale Lane West,Mapperley,Nottinghamshire,Westdale Lane Community Centre,Other catering premises,7841,,,624725,,,,665/566,262,foodsafety@gedling.gov.uk,Gedling,http://www.gedling.gov.uk/,,,2014-01-07,fhrs_exempt_en-GB,Exempt,,FHRS,
57564,Co-op,320 Westdale Lane West,Gedling,Nottinghamshire,Westdale Lane Co-Operative Store,Retailers - supermarkets/hypermarkets,7840,5,,528781,0,,52.98043100000000,661/578,262,foodsafety@gedling.gov.uk,Gedling,http://www.gedling.gov.uk/,-1.10342500000000,NG3 6EU,2015-02-09,fhrs_5_en-GB,5,,FHRS,5
57565,70 Westdale Lane East,Gedling,Nottinghamshire,,Westdale Tavern,Pub/bar/nightclub,7843,10,,349088,15,,52.97323700000000,656/579,262,foodsafety@gedling.gov.uk,Gedling,http://www.gedling.gov.uk/,-1.08534600000000,NG4 3NA,2014-06-26,fhrs_2_en-GB,2,,FHRS,10
57566,Westwolds Residential Home,Park Avenue,Burton Joyce,Nottinghamshire,Westwolds Care Centre,Hospitals/Childcare/Caring Premises,5,5,,479994,0,,52.98601300000000,447/932,262,foodsafety@gedling.gov.uk,Gedling,http://www.gedling.gov.uk/,-1.04102900000000,NG14 5AF,2013-11-12,fhrs_5_en-GB,5,,FHRS,0
57567,Mansfield Road,Daybrook,Nottinghamshire,,Wickes,Retailers - other,4613,,,708127,,,,2811,262,foodsafety@gedling.gov.uk,Gedling,http://www.gedling.gov.uk/,,NG5 6BU,2014-10-15,fhrs_exempt_en-GB,Exempt,,FHRS,
57568,2 - 16 Front Street,Arnold,Nottingham,Nottinghamshire,Wilkinson's,Retailers - other,4613,0,,621658,0,,53.00206000000000,867/1013,262,foodsafety@gedling.gov.uk,Gedling,http://www.gedling.gov.uk/,-1.12886100000000,NG5 7EL,2014-01-03,fhrs_5_en-GB,5,,FHRS,0
57569,Willow Farm Primary School,Willow Lane,Gedling,Nottinghamshire,Willow Farm Primary & Junior School,School/college/university,7845,0,,466764,0,,52.97778400000000,670/587,262,foodsafety@gedling.gov.uk,Gedling,http://www.gedling.gov.uk/,-1.07579300000000,NG4 4BN,2014-11-11,fhrs_5_en-GB,5,,FHRS,0
57570,Willowbrook Nursing Home,112 Burton Road,Carlton,Nottinghamshire,Willowbrook Nursing And Residential Home,Hospitals/Childcare/Caring Premises,5,0,,534314,0,,52.96930800000000,1468/1046,262,foodsafety@gedling.gov.uk,Gedling,http://www.gedling.gov.uk/,-1.07832700000000,NG4 3BG,2014-09-30,fhrs_5_en-GB,5,,FHRS,5
57571,Morrisons,330 - 332 Carlton Hill,Carlton,Nottinghamshire,Wm Morrisons Supermarket PLC,Retailers - supermarkets/hypermarkets,7840,5,,638358,0,,52.96614800000000,2753,262,foodsafety@gedling.gov.uk,Gedling,http://www.gedling.gov.uk/,-1.10946800000000,NG4 1JD,2014-02-17,fhrs_5_en-GB,5,,FHRS,0
57572,Bank Hill,Woodborough,Nottinghamshire,,Woodborough Hall,Other catering premises,7841,10,,558777,5,,53.02212200000000,12/626/C1,262,foodsafety@gedling.gov.uk,Gedling,http://www.gedling.gov.uk/,-1.07256500000000,NG14 6EF,2015-01-07,fhrs_4_en-GB,4,,FHRS,5
57573,137 Main Street,Woodborough,Nottinghamshire,,Woodborough Post Office And News,Retailers - other,4613,5,,492562,5,,53.02345600000000,337/195,262,foodsafety@gedling.gov.uk,Gedling,http://www.gedling.gov.uk/,-1.05473500000000,NG14 6DD,2012-12-28,fhrs_5_en-GB,5,,FHRS,5
57574,Village Hall,Lingwood Lane,Woodborough,Nottinghamshire,Woodborough Village Hall,Other catering premises,7841,,,607419,,,53.02234200000000,287/1105,262,foodsafety@gedling.gov.uk,Gedling,http://www.gedling.gov.uk/,-1.06049900000000,NG14 6DX,2013-11-05,fhrs_exempt_en-GB,Exempt,,FHRS,
57575,Church Street,Lambley,Nottinghamshire,,Woodlark Inn,Pub/bar/nightclub,7843,10,,619366,5,,53.00266100000000,2737,262,foodsafety@gedling.gov.uk,Gedling,http://www.gedling.gov.uk/,-1.06009200000000,NG4 4QB,2013-12-05,fhrs_3_en-GB,3,,FHRS,10
57576,Lingwood Lane,Woodborough,Nottinghamshire,,Woods Foundation School,School/college/university,7845,5,,596051,0,,53.02234200000000,286/258,262,foodsafety@gedling.gov.uk,Gedling,http://www.gedling.gov.uk/,-1.06049900000000,NG14 6DX,2013-10-18,fhrs_5_en-GB,5,,FHRS,0
57577,1 Albemarle Road,Woodthorpe,Nottinghamshire,,Woodthorpe Day Nursery,Hospitals/Childcare/Caring Premises,5,5,,504380,5,,52.98878600000000,3/766,262,foodsafety@gedling.gov.uk,Gedling,http://www.gedling.gov.uk/,-1.13796200000000,NG5 4FE,2014-07-09,fhrs_5_en-GB,5,,FHRS,0
57578,Woodthorpe Infants School,Arno Vale Road,Woodthorpe,Nottinghamshire,Woodthorpe Infants Sch,School/college/university,7845,0,,548340,0,,52.99299600000000,6/002,262,foodsafety@gedling.gov.uk,Gedling,http://www.gedling.gov.uk/,-1.12841800000000,NG5 4JG,2013-05-07,fhrs_5_en-GB,5,,FHRS,5
57579,Woodthorpe Tennis Club,Albemarle Road,Woodthorpe,Nottinghamshire,Woodthorpe Lawn Tennis Club,Retailers - other,4613,,,558781,,,52.98878600000000,2/253,262,foodsafety@gedling.gov.uk,Gedling,http://www.gedling.gov.uk/,-1.13796200000000,NG5 4FE,2013-06-10,fhrs_exempt_en-GB,Exempt,,FHRS,
57580,1 Egerton Road,Woodthorpe,Nottinghamshire,,Woodthorpe Manor Nursing Home,Hospitals/Childcare/Caring Premises,5,5,,421831,0,,52.98925000000000,167/083,262,foodsafety@gedling.gov.uk,Gedling,http://www.gedling.gov.uk/,-1.13750600000000,NG5 4FF,2014-01-22,fhrs_5_en-GB,5,,FHRS,0
57581,774 Mansfield Road,Woodthorpe,Nottinghamshire,,Woodthorpe Tandoori,Restaurant/Cafe/Canteen,1,0,,479991,0,,52.99242600000000,377/281,262,foodsafety@gedling.gov.uk,Gedling,http://www.gedling.gov.uk/,-1.13900700000000,NG5 3FH,2014-06-25,fhrs_5_en-GB,5,,FHRS,5
57582,53 Woodthorpe Drive,Woodthorpe,Nottinghamshire,,Woodthorpe View Rest Home,Hospitals/Childcare/Caring Premises,5,5,,451484,5,,52.98621700000000,703/617,262,foodsafety@gedling.gov.uk,Gedling,http://www.gedling.gov.uk/,-1.13078900000000,NG5 4GY,2015-02-06,fhrs_5_en-GB,5,,FHRS,5
57583,,,,,Woodview,Hospitals/Childcare/Caring Premises,5,10,,553234,5,,,2067,262,foodsafety@gedling.gov.uk,Gedling,http://www.gedling.gov.uk/,,,2013-05-02,fhrs_4_en-GB,4,,FHRS,0
57584,Wrangler Ltd,Park Road East,Calverton,Nottinghamshire,Wranglers Ltd,Restaurant/Cafe/Canteen,1,5,,543139,0,,53.04326400000000,453/346,262,foodsafety@gedling.gov.uk,Gedling,http://www.gedling.gov.uk/,-1.08283600000000,NG14 6GD,2015-01-13,fhrs_4_en-GB,4,,FHRS,10
57585,122 Burton Road,Carlton,Nottinghamshire,,Yau's Takeaway,Takeaway/sandwich shop,7844,,,479977,,,52.97036600000000,1729/885,262,foodsafety@gedling.gov.uk,Gedling,http://www.gedling.gov.uk/,-1.07672600000000,NG4 3GP,2014-07-31,fhrs_4_en-GB,4,,FHRS,
57586,3 Robinson Road,Mapperley,Nottinghamshire,,Zymo Foods,Manufacturers/packers,7839,5,,572027,0,,52.98157600000000,2693,262,foodsafety@gedling.gov.uk,Gedling,http://www.gedling.gov.uk/,-1.12304700000000,NG3 6BA,2013-07-11,fhrs_5_en-GB,5,,FHRS,5
