,addressline1,addressline2,addressline3,addressline4,businessname,businesstype,businesstypeid,confidenceinmanagement,extractdate,fhrsid,hygiene,itemcount,latitude,localauthoritybusinessid,localauthoritycode,localauthorityemailaddress,localauthorityname,localauthoritywebsite,longitude,postcode,ratingdate,ratingkey,ratingvalue,returncode,schemetype,structural
73174,33a Abbey Road,West Bridgford,Nottinghamshire,,A Arnold And Son,Retailers - other,4613,10,,265955,5,,52.92988600000000,55014/0033/A/000,266,envhealth@rushcliffe.gov.uk,Rushcliffe,http://www.rushcliffe.gov.uk/,-1.12065500000000,NG2 5NG,2014-04-04,fhrs_4_en-GB,4,,FHRS,5
73175,52 Radcliffe Road,West Bridgford,Nottinghamshire,,A La Carte,Other catering premises,7841,0,,266307,5,,52.93785700000000,56616/0052/0/000,266,envhealth@rushcliffe.gov.uk,Rushcliffe,http://www.rushcliffe.gov.uk/,-1.12631200000000,NG2 5HH,2013-08-12,fhrs_5_en-GB,5,,FHRS,0
73176,Abbey Park Community Centre,Bolton Close,West Bridgford,Nottinghamshire,Abbey Park Community Centre,Other catering premises,7841,,,266149,,,53.14605712890625,55122/0550/2/000,266,envhealth@rushcliffe.gov.uk,Rushcliffe,http://www.rushcliffe.gov.uk/,-0.99268501996994,NG2 6LN,2011-05-09,fhrs_exempt_en-GB,Exempt,,FHRS,
73177,Abbey Road,West Bridgford,Nottinghamshire,,Abbey Road Primary School,School/college/university,7845,5,,266367,5,,52.92598500000000,55014/0601/2/000,266,envhealth@rushcliffe.gov.uk,Rushcliffe,http://www.rushcliffe.gov.uk/,-1.11954400000000,NG2 5ND,2014-09-05,fhrs_5_en-GB,5,,FHRS,0
73178,,,,,Abigails Delights,Other catering premises,7841,5,,624272,5,,,13/00035/FOOD,266,envhealth@rushcliffe.gov.uk,Rushcliffe,http://www.rushcliffe.gov.uk/,,,2013-07-23,fhrs_5_en-GB,5,,FHRS,5
73179,4-6 Radcliffe Road,West Bridgford,Nottinghamshire,,Acorn Hotel,Hotel/bed & breakfast/guest house,7842,,,265755,,,52.93235800000000,56616/0004/0/000,266,envhealth@rushcliffe.gov.uk,Rushcliffe,http://www.rushcliffe.gov.uk/,-1.11334500000000,NG2 5HE,2013-07-23,fhrs_4_en-GB,4,,FHRS,
73180,Adbolton Lane,Holme Pierrepont,Nottinghamshire,,Adbolton Hall Care Home,Hospitals/Childcare/Caring Premises,5,10,,265858,5,,52.93996100000000,24016/0543/2/000,266,envhealth@rushcliffe.gov.uk,Rushcliffe,http://www.rushcliffe.gov.uk/,-1.10710400000000,NG2 5AS,2014-09-23,fhrs_4_en-GB,4,,FHRS,5
73181,Rushcliffe Arena After School,Rugby Road,West Bridgford,Nottinghamshire,After School Club,Hospitals/Childcare/Caring Premises,5,0,,265726,0,,52.92244900000000,56724/0905/2/001,266,envhealth@rushcliffe.gov.uk,Rushcliffe,http://www.rushcliffe.gov.uk/,-1.13873000000000,NG2 7HY,2010-03-25,fhrs_5_en-GB,5,,FHRS,0
73182,,,,,Alan Oxby,Retailers - other,4613,10,,265926,5,,,27096/0651/2/000,266,envhealth@rushcliffe.gov.uk,Rushcliffe,http://www.rushcliffe.gov.uk/,,,2010-03-22,fhrs_4_en-GB,4,,FHRS,0
73183,Food Kiosk,Bridgford Road,West Bridgford,Nottinghamshire,Alfresco Caffe,Takeaway/sandwich shop,7844,5,,266318,5,,52.93382600000000,11/00028/FOOD,266,envhealth@rushcliffe.gov.uk,Rushcliffe,http://www.rushcliffe.gov.uk/,-1.12701800000000,NG2 6AT,2013-09-12,fhrs_5_en-GB,5,,FHRS,0
73184,,,,,All Terrain Caffeine Co,Mobile caterer,7846,5,,730960,5,,,14/00109/FOOD,266,envhealth@rushcliffe.gov.uk,Rushcliffe,http://www.rushcliffe.gov.uk/,,,2014-12-09,fhrs_5_en-GB,5,,FHRS,0
73185,Adbolton Lane,Holme Pierrepont,Nottinghamshire,,Alphabet House,Hospitals/Childcare/Caring Premises,5,0,,265771,0,,52.93996100000000,24016/0541/2/000,266,envhealth@rushcliffe.gov.uk,Rushcliffe,http://www.rushcliffe.gov.uk/,-1.10710400000000,NG2 5AS,2014-05-15,fhrs_5_en-GB,5,,FHRS,0
73186,7 Ridgeway Close,West Bridgford,Nottinghamshire,,Aprons And Waistcoats (2 Soil 2 Oil),Other catering premises,7841,5,,682693,5,,52.91911000000000,13/00011/FOOD,266,envhealth@rushcliffe.gov.uk,Rushcliffe,http://www.rushcliffe.gov.uk/,-1.10646200000000,NG2 6HL,2014-07-11,fhrs_5_en-GB,5,,FHRS,5
73187,Abbey Lane,Aslockton,Nottinghamshire,,Archbishop Cranmer Primary School,School/college/university,7845,5,,266018,5,,52.95341200000000,01014/0520/2/000,266,envhealth@rushcliffe.gov.uk,Rushcliffe,http://www.rushcliffe.gov.uk/,-0.90224800000000,NG13 9AE,2014-09-19,fhrs_5_en-GB,5,,FHRS,5
73188,Asda,184 Loughborough Road,West Bridgford,Nottinghamshire,Asda,Retailers - supermarkets/hypermarkets,7840,0,,266309,5,,52.92331200000000,56202/0184/0/000,266,envhealth@rushcliffe.gov.uk,Rushcliffe,http://www.rushcliffe.gov.uk/,-1.13993200000000,NG2 7JA,2014-10-14,fhrs_5_en-GB,5,,FHRS,5
73189,159 Musters Road,West Bridgford,Nottinghamshire,,Ash Villa Nursing Home,Hospitals/Childcare/Caring Premises,5,5,,266151,5,,52.92654300000000,56418/0159/2/000,266,envhealth@rushcliffe.gov.uk,Rushcliffe,http://www.rushcliffe.gov.uk/,-1.13185000000000,NG2 7AF,2014-04-25,fhrs_5_en-GB,5,,FHRS,5
73190,Owthorpe Road,Cotgrave,Nottinghamshire,,Ashlea Special School,School/college/university,7845,0,,266105,0,,52.90598300000000,11519/0559/2/000,266,envhealth@rushcliffe.gov.uk,Rushcliffe,http://www.rushcliffe.gov.uk/,-1.03934700000000,NG12 3PA,2014-01-09,fhrs_5_en-GB,5,,FHRS,0
73191,1 Bingham Road,Radcliffe On Trent,Nottinghamshire,,Ashmores,Restaurant/Cafe/Canteen,1,5,,266218,5,,52.94745900000000,35042/0001/0/001,266,envhealth@rushcliffe.gov.uk,Rushcliffe,http://www.rushcliffe.gov.uk/,-1.03464800000000,NG12 2FY,2014-10-16,fhrs_5_en-GB,5,,FHRS,5
73192,New Lane,Aslockton,Nottinghamshire,,Aslockton Hall,Hospitals/Childcare/Caring Premises,5,5,,266095,5,,52.95227200000000,01122/0670/2/000,266,envhealth@rushcliffe.gov.uk,Rushcliffe,http://www.rushcliffe.gov.uk/,-0.91324600000000,NG13 9AH,2015-02-05,fhrs_5_en-GB,5,,FHRS,5
73193,Archbishop Cranmer School,Abbey Lane,Aslockton,Nottinghamshire,"Aslockton, Orston, Flintham Kids Club",School/college/university,7845,5,,266266,0,,52.95341200000000,01014/0520/2/001,266,envhealth@rushcliffe.gov.uk,Rushcliffe,http://www.rushcliffe.gov.uk/,-0.90224800000000,NG13 9AE,2014-02-28,fhrs_5_en-GB,5,,FHRS,0
73194,Unit 12 Shopping Centre,Compton Acres,West Bridgford,Nottinghamshire,Aziz Khan,Takeaway/sandwich shop,7844,5,,266273,10,,52.91868500000000,10/00050/FOOD,266,envhealth@rushcliffe.gov.uk,Rushcliffe,http://www.rushcliffe.gov.uk/,-1.15274000000000,NG2 7RS,2013-07-23,fhrs_4_en-GB,4,,FHRS,5
73195,96 Trent Boulevard,West Bridgford,Nottinghamshire,,B & H News,Retailers - other,4613,,,266173,,,52.93818300000000,57003/0096/2/000,266,envhealth@rushcliffe.gov.uk,Rushcliffe,http://www.rushcliffe.gov.uk/,-1.11934200000000,NG2 5BL,2014-03-28,fhrs_exempt_en-GB,Exempt,,FHRS,
73196,,,,,Baked (West Bridgford),Other catering premises,7841,0,,266325,0,,,11/00082/FOOD,266,envhealth@rushcliffe.gov.uk,Rushcliffe,http://www.rushcliffe.gov.uk/,,,2011-09-08,fhrs_5_en-GB,5,,FHRS,0
73197,245-247 Loughborough Road,Ruddington,Nottinghamshire,,Balmore Country House Care Home,Hospitals/Childcare/Caring Premises,5,5,,265913,5,,52.89015600000000,39401/0247/2/000,266,envhealth@rushcliffe.gov.uk,Rushcliffe,http://www.rushcliffe.gov.uk/,-1.14207500000000,NG11 6NY,2014-08-13,fhrs_5_en-GB,5,,FHRS,5
73198,19A Market Place,Bingham,Nottinghamshire,,Balti Corner,Takeaway/sandwich shop,7844,10,,624269,10,,52.95266200000000,03583/0019/A/000,266,envhealth@rushcliffe.gov.uk,Rushcliffe,http://www.rushcliffe.gov.uk/,-0.95166900000000,NG13 8AP,2014-05-01,fhrs_3_en-GB,3,,FHRS,5
73199,7-9 High Street,Ruddington,Nottinghamshire,,Barclay And Cook,Retailers - other,4613,5,,265867,5,,52.89214000000000,39338/0007/2/000,266,envhealth@rushcliffe.gov.uk,Rushcliffe,http://www.rushcliffe.gov.uk/,-1.14918500000000,NG11 6DT,2013-01-16,fhrs_5_en-GB,5,,FHRS,5
73200,,,,,Barneys Brownies,Other catering premises,7841,0,,265998,0,,,10/00067/FOOD,266,envhealth@rushcliffe.gov.uk,Rushcliffe,http://www.rushcliffe.gov.uk/,,,2014-05-01,fhrs_5_en-GB,5,,FHRS,0
73201,14 Market Street,Bingham,Nottinghamshire,,Barolo,Takeaway/sandwich shop,7844,10,,265877,5,,52.95186200000000,10/00069/FOOD,266,envhealth@rushcliffe.gov.uk,Rushcliffe,http://www.rushcliffe.gov.uk/,-0.95268600000000,NG13 8AB,2014-02-12,fhrs_4_en-GB,4,,FHRS,5
73202,Moor Lane,Bingham,Nottinghamshire,,Beauvale,Hospitals/Childcare/Caring Premises,5,0,,265824,0,,52.95346900000000,03619/0550/2/000,266,envhealth@rushcliffe.gov.uk,Rushcliffe,http://www.rushcliffe.gov.uk/,-0.95340600000000,NG13 8AS,2015-01-16,fhrs_5_en-GB,5,,FHRS,5
73203,33 Central Avenue,West Bridgford,Nottinghamshire,,Belle And Jerome,Restaurant/Cafe/Canteen,1,5,,266357,5,,52.93186000000000,08/00014/COMMER,266,envhealth@rushcliffe.gov.uk,Rushcliffe,http://www.rushcliffe.gov.uk/,-1.12620900000000,NG2 5GQ,2014-09-17,fhrs_5_en-GB,5,,FHRS,5
73204,Sharp And Son Nottingham Limited,Unit 5,Canalside Industrial Park,Kinoulton Road,Belvoir Bakery,Other catering premises,7841,5,,591950,5,,52.90765400000000,13/00032/COMMER,266,envhealth@rushcliffe.gov.uk,Rushcliffe,http://www.rushcliffe.gov.uk/,-0.99045000000000,NG12 3BE,2013-10-09,fhrs_5_en-GB,5,,FHRS,0
73205,Belvoir Vale Rest Home,Old Melton Road,Widmerpool,Nottinghamshire,Belvoir Vale Care Home,Hospitals/Childcare/Caring Premises,5,5,,266354,5,,52.85371500000000,90056/0102/2/000,266,envhealth@rushcliffe.gov.uk,Rushcliffe,http://www.rushcliffe.gov.uk/,-1.03249700000000,NG12 5QL,2013-11-27,fhrs_5_en-GB,5,,FHRS,0
73206,38 Gordon Road,West Bridgford,Nottinghamshire,,Big BambooTakeaway,Takeaway/sandwich shop,7844,5,,266071,5,,52.92993200000000,55788/0038/2/000,266,envhealth@rushcliffe.gov.uk,Rushcliffe,http://www.rushcliffe.gov.uk/,-1.12565300000000,NG2 5LN,2013-07-22,fhrs_5_en-GB,5,,FHRS,5
73207,The Dovecote,Long Acre,Bingham,Nottinghamshire,Bingham Bowling Club,Other catering premises,7841,,,266369,,,52.95080500000000,03538/0557/2/000,266,envhealth@rushcliffe.gov.uk,Rushcliffe,http://www.rushcliffe.gov.uk/,-0.95103000000000,NG13 8AH,2012-03-28,fhrs_exempt_en-GB,Exempt,,FHRS,
73208,55 Long Acre,Bingham,Nottinghamshire,,Bingham Day Nursery/Long Acre Preparatory School,Hospitals/Childcare/Caring Premises,5,5,,266090,0,,52.95148800000000,03538/0055/2/000,266,envhealth@rushcliffe.gov.uk,Rushcliffe,http://www.rushcliffe.gov.uk/,-0.95104300000000,NG13 8AG,2014-08-14,fhrs_5_en-GB,5,,FHRS,0
73209,12 Market Street,Bingham,Nottinghamshire,,Bingham Fish Bar,Takeaway/sandwich shop,7844,5,,266346,5,,52.95186200000000,03592/0012/0/000,266,envhealth@rushcliffe.gov.uk,Rushcliffe,http://www.rushcliffe.gov.uk/,-0.95268600000000,NG13 8AB,2015-01-20,fhrs_5_en-GB,5,,FHRS,5
73210,The Banks,Bingham,Nottinghamshire,,Bingham Leisure Centre,Retailers - other,4613,,,266150,,,52.94935900000000,03934/0588/2/000,266,envhealth@rushcliffe.gov.uk,Rushcliffe,http://www.rushcliffe.gov.uk/,-0.95427900000000,NG13 8BL,2012-03-28,fhrs_exempt_en-GB,Exempt,,FHRS,
73211,Union Street,Bingham,Nottinghamshire,,Bingham Methodist Church,Other catering premises,7841,0,,265901,0,,52.95168100000000,03970/0905/2/000,266,envhealth@rushcliffe.gov.uk,Rushcliffe,http://www.rushcliffe.gov.uk/,-0.95361300000000,NG13 8AD,2012-01-18,fhrs_5_en-GB,5,,FHRS,0
73212,11 Eaton Place,Bingham,Nottinghamshire,,Bingham Natural Food And Therapy Centre,Retailers - other,4613,0,,266328,5,,52.95220000000000,05/00045/COMMER,266,envhealth@rushcliffe.gov.uk,Rushcliffe,http://www.rushcliffe.gov.uk/,-0.95333300000000,NG13 8BD,2013-01-07,fhrs_5_en-GB,5,,FHRS,5
73213,4 To 6,Eaton Place,Bingham,Nottinghamshire,Bingham News & Card Centre,Retailers - other,4613,,,266035,,,52.95220000000000,03331/0006/0/000,266,envhealth@rushcliffe.gov.uk,Rushcliffe,http://www.rushcliffe.gov.uk/,-0.95333300000000,NG13 8BD,2014-12-08,fhrs_exempt_en-GB,Exempt,,FHRS,
73214,1 Market Place,Bingham,Nottinghamshire,,Birds,Retailers - other,4613,5,,266297,5,,52.95249600000000,03583/0001/0/000,266,envhealth@rushcliffe.gov.uk,Rushcliffe,http://www.rushcliffe.gov.uk/,-0.95326600000000,NG13 8AR,2014-08-14,fhrs_5_en-GB,5,,FHRS,5
73215,14-18 Central Avenue,West Bridgford,Nottinghamshire,,Birds The Confectioners,Retailers - other,4613,5,,266187,5,,52.93199300000000,55311/0014/2/000,266,envhealth@rushcliffe.gov.uk,Rushcliffe,http://www.rushcliffe.gov.uk/,-1.12715900000000,NG2 5GR,2015-02-03,fhrs_5_en-GB,5,,FHRS,0
73216,7 Main Road,Radcliffe On Trent,Nottinghamshire,,Birds The Confectioners,Retailers - other,4613,0,,265975,5,,52.94661600000000,10/00076/FOOD,266,envhealth@rushcliffe.gov.uk,Rushcliffe,http://www.rushcliffe.gov.uk/,-1.03935500000000,NG12 2FD,2013-07-01,fhrs_5_en-GB,5,,FHRS,0
73217,8 Gotham Road,East Leake,Nottinghamshire,,Birds The Confectioners,Restaurant/Cafe/Canteen,1,,,283351,,,52.83406600000000,11/00121/FOOD,266,envhealth@rushcliffe.gov.uk,Rushcliffe,http://www.rushcliffe.gov.uk/,-1.17711300000000,LE12 6JG,2013-10-04,fhrs_5_en-GB,5,,FHRS,
73218,Adbolton Lane,Holme Pierrepont,Nottinghamshire,,Blotts Country Club,Pub/bar/nightclub,7843,5,,265837,5,,52.92805000000000,24016/0545/2/000,266,envhealth@rushcliffe.gov.uk,Rushcliffe,http://www.rushcliffe.gov.uk/,-1.06161900000000,NG12 3HB,2013-10-30,fhrs_5_en-GB,5,,FHRS,5
73219,1 Radcliffe Road,West Bridgford,Nottinghamshire,,Bombay Bridgford,Restaurant/Cafe/Canteen,1,5,,265873,5,,52.93810200000000,56616/0001/A/000,266,envhealth@rushcliffe.gov.uk,Rushcliffe,http://www.rushcliffe.gov.uk/,-1.13275000000000,NG2 5FF,2014-09-30,fhrs_5_en-GB,5,,FHRS,5
73220,16 The Square,Keyworth,Nottinghamshire,,Bombay Keyworth,Restaurant/Cafe/Canteen,1,,,579500,,,,13/00047/FOOD,266,envhealth@rushcliffe.gov.uk,Rushcliffe,http://www.rushcliffe.gov.uk/,,,2014-01-15,fhrs_4_en-GB,4,,FHRS,
73221,Church Street,Granby,Nottinghamshire,,Boot And Shoe,Pub/bar/nightclub,7843,5,,266041,5,,52.91805100000000,21035/0517/2/000,266,envhealth@rushcliffe.gov.uk,Rushcliffe,http://www.rushcliffe.gov.uk/,-0.88632100000000,NG13 9PU,2014-02-11,fhrs_5_en-GB,5,,FHRS,5
73222,Main Street,Flintham,Nottinghamshire,,Boot And Shoe Inn,Pub/bar/nightclub,7843,5,,266147,0,,53.00559100000000,18050/0538/2/000,266,envhealth@rushcliffe.gov.uk,Rushcliffe,http://www.rushcliffe.gov.uk/,-0.89488900000000,NG23 5LA,2013-10-11,fhrs_5_en-GB,5,,FHRS,5
73223,24 Central Avenue,West Bridgford,Nottinghamshire,,Boots The Chemists,Retailers - other,4613,5,,266319,5,,52.93199300000000,55311/0024/2/000,266,envhealth@rushcliffe.gov.uk,Rushcliffe,http://www.rushcliffe.gov.uk/,-1.12715900000000,NG2 5GR,2009-09-11,fhrs_5_en-GB,5,,FHRS,0
73224,75 Boundary Road,West Bridgford,Nottinghamshire,,Boundary News,Retailers - other,4613,,,265832,,,52.91473100000000,55131/0075/0/000,266,envhealth@rushcliffe.gov.uk,Rushcliffe,http://www.rushcliffe.gov.uk/,-1.13303800000000,NG2 7DB,2010-12-16,fhrs_exempt_en-GB,Exempt,,FHRS,
73225,73 Boundary Road,West Bridgford,Nottinghamshire,,Boundary Road Stores,Retailers - other,4613,5,,266232,5,,52.91473100000000,55131/0073/0/000,266,envhealth@rushcliffe.gov.uk,Rushcliffe,http://www.rushcliffe.gov.uk/,-1.13303800000000,NG2 7DB,2014-03-06,fhrs_5_en-GB,5,,FHRS,0
73226,Radcliffe Road,Holme Pierrepont,Nottinghamshire,,BP Pierrepont,Retailers - other,4613,20,,266109,15,,52.93455900000000,24097/0632/2/000,266,envhealth@rushcliffe.gov.uk,Rushcliffe,http://www.rushcliffe.gov.uk/,-1.08003200000000,NG12 2LF,2014-09-23,fhrs_1_en-GB,1,,FHRS,10
73227,Farmer Street,Bradmore,Nottinghamshire,,Bradmore Community Hall,Other catering premises,7841,5,,265977,5,,52.87466000000000,03/00031/MIXED,266,envhealth@rushcliffe.gov.uk,Rushcliffe,http://www.rushcliffe.gov.uk/,-1.13242600000000,NG11 6PE,2013-03-26,fhrs_5_en-GB,5,,FHRS,0
73228,,,,,Bridgford Cakes,Retailers - other,4613,5,,465661,5,,,12/00120/FOOD,266,envhealth@rushcliffe.gov.uk,Rushcliffe,http://www.rushcliffe.gov.uk/,,,2012-10-03,fhrs_5_en-GB,5,,FHRS,5
73229,3 Gordon Square,West Bridgford,Nottinghamshire,,Bridgford Chippy,Takeaway/sandwich shop,7844,5,,265942,5,,52.92877000000000,55797/0003/0/000,266,envhealth@rushcliffe.gov.uk,Rushcliffe,http://www.rushcliffe.gov.uk/,-1.12531900000000,NG2 5LP,2013-11-06,fhrs_5_en-GB,5,,FHRS,5
73230,Fosse Way,East Bridgford,Nottinghamshire,,Bridgford Garden Centre,Restaurant/Cafe/Canteen,1,5,,427356,5,,52.97384500000000,09/00110/FOOD,266,envhealth@rushcliffe.gov.uk,Rushcliffe,http://www.rushcliffe.gov.uk/,-0.95208000000000,NG13 8LA,2014-02-06,fhrs_5_en-GB,5,,FHRS,5
73231,39 Radcliffe Road,West Bridgford,Nottinghamshire,,Bridgford Restaurant & Fish Bar,Takeaway/sandwich shop,7844,10,,266332,10,,52.93810200000000,56616/0039/2/001,266,envhealth@rushcliffe.gov.uk,Rushcliffe,http://www.rushcliffe.gov.uk/,-1.13275000000000,NG2 5FF,2015-01-14,fhrs_3_en-GB,3,,FHRS,10
73232,Kingsley Dunham Centre,Nicker Hill,Keyworth,Nottinghamshire,British Geological Survey Staff Restaurant,Restaurant/Cafe/Canteen,1,5,,266142,5,,52.87900600000000,25395/0633/2/000,266,envhealth@rushcliffe.gov.uk,Rushcliffe,http://www.rushcliffe.gov.uk/,-1.07810200000000,NG12 5GG,2014-06-11,fhrs_5_en-GB,5,,FHRS,5
73233,Gotham Road,East Leake,Nottinghamshire,,British Gypsum Ltd - Head Office Restaurant,Restaurant/Cafe/Canteen,1,0,,266029,0,,52.84398600000000,15213/0911/2/003,266,envhealth@rushcliffe.gov.uk,Rushcliffe,http://www.rushcliffe.gov.uk/,-1.17778700000000,LE12 6JQ,2013-06-18,fhrs_5_en-GB,5,,FHRS,5
73234,Gotham Road,East Leake,Nottinghamshire,,British Gypsum Ltd- Works Canteen,Restaurant/Cafe/Canteen,1,0,,265835,0,,52.84398600000000,15213/0911/2/001,266,envhealth@rushcliffe.gov.uk,Rushcliffe,http://www.rushcliffe.gov.uk/,-1.17778700000000,LE12 6JQ,2014-06-23,fhrs_5_en-GB,5,,FHRS,0
73235,Parachute School Langar Airfield,Coachgap Lane,Langar,Nottinghamshire,British Parachute School,Restaurant/Cafe/Canteen,1,5,,266205,5,,52.88984900000000,29080/0681/2/000,266,envhealth@rushcliffe.gov.uk,Rushcliffe,http://www.rushcliffe.gov.uk/,-0.90658900000000,NG13 9HY,2014-03-06,fhrs_5_en-GB,5,,FHRS,5
73236,Broadlands Residential Home,28-28A Shelford Road,Radcliffe On Trent,Nottinghamshire,Broadlands Residential Care Home,Hospitals/Childcare/Caring Premises,5,5,,266114,5,,52.94974100000000,35834/0028/2/000,266,envhealth@rushcliffe.gov.uk,Rushcliffe,http://www.rushcliffe.gov.uk/,-1.03561000000000,NG12 1AF,2014-01-23,fhrs_4_en-GB,4,,FHRS,10
73237,Fosse Way,East Bridgford,Nottinghamshire,,Brobot (Pylon) Petroleum Ltd,Retailers - other,4613,5,,266022,10,,52.97384500000000,14122/0528/2/000,266,envhealth@rushcliffe.gov.uk,Rushcliffe,http://www.rushcliffe.gov.uk/,-0.95208000000000,NG13 8LA,2013-03-19,fhrs_4_en-GB,4,,FHRS,5
73238,School Green,East Leake,Nottinghamshire,,Brookside Primary School,School/college/university,7845,5,,265973,5,,52.83011500000000,15087/0901/2/000,266,envhealth@rushcliffe.gov.uk,Rushcliffe,http://www.rushcliffe.gov.uk/,-1.18037900000000,LE12 6LG,2014-10-22,fhrs_5_en-GB,5,,FHRS,5
73239,3 Plumtree Road,Cotgrave,Nottinghamshire,,Brumptons  Butchers Ltd,Manufacturers/packers,7839,5,,266127,5,,52.91082900000000,11546/0003/2/000,266,envhealth@rushcliffe.gov.uk,Rushcliffe,http://www.rushcliffe.gov.uk/,-1.04503900000000,NG12 3HT,2014-03-31,fhrs_4_en-GB,4,,FHRS,10
73240,13 Gotham Road,East Leake,Nottinghamshire,,Bryer's,Restaurant/Cafe/Canteen,1,0,,465656,0,,52.83406600000000,12/00059/FOOD,266,envhealth@rushcliffe.gov.uk,Rushcliffe,http://www.rushcliffe.gov.uk/,-1.17711300000000,LE12 6JG,2014-04-24,fhrs_5_en-GB,5,,FHRS,0
73241,110 Wolds Drive,Keyworth,Nottinghamshire,,Budgens,Retailers - other,4613,10,,265737,5,,52.87495900000000,25584/0666/2/000,266,envhealth@rushcliffe.gov.uk,Rushcliffe,http://www.rushcliffe.gov.uk/,-1.08362600000000,NG12 5FS,2014-01-09,fhrs_4_en-GB,4,,FHRS,5
73242,Bunny Hill,Costock,Nottinghamshire,,Bunny Hill Riding Centre,Other catering premises,7841,,,265995,,,52.84659000000000,10014/0916/2/000,266,envhealth@rushcliffe.gov.uk,Rushcliffe,http://www.rushcliffe.gov.uk/,-1.14303700000000,LE12 6XN,2010-11-25,fhrs_exempt_en-GB,Exempt,,FHRS,
73243,Church Street,Bunny,Nottinghamshire,,Bunny Primary School,School/college/university,7845,0,,265861,0,,52.86112700000000,06023/0904/2/000,266,envhealth@rushcliffe.gov.uk,Rushcliffe,http://www.rushcliffe.gov.uk/,-1.13562200000000,NG11 6QW,2014-01-08,fhrs_5_en-GB,5,,FHRS,0
73244,Village Hall,Church Street,Bunny,Nottinghamshire,Bunny Village Hall,Other catering premises,7841,5,,265752,5,,52.85966800000000,06023/0905/2/000,266,envhealth@rushcliffe.gov.uk,Rushcliffe,http://www.rushcliffe.gov.uk/,-1.13526400000000,NG11 6QS,2012-03-28,fhrs_5_en-GB,5,,FHRS,5
73245,6 The Square,Keyworth,Nottinghamshire,,Burns's,Restaurant/Cafe/Canteen,1,5,,266182,5,,52.87116300000000,11/00019/FOOD,266,envhealth@rushcliffe.gov.uk,Rushcliffe,http://www.rushcliffe.gov.uk/,-1.09034700000000,NG12 5JT,2014-09-22,fhrs_5_en-GB,5,,FHRS,5
73246,School Lane,Bingham,Nottinghamshire,,Buttercross Pre-School,School/college/university,7845,5,,265933,5,,52.95268500000000,10/00080/COMMER,266,envhealth@rushcliffe.gov.uk,Rushcliffe,http://www.rushcliffe.gov.uk/,-0.95729500000000,NG13 8FE,2014-02-26,fhrs_5_en-GB,5,,FHRS,5
73247,73 Melton Road,West Bridgford,Nottinghamshire,,C Brumpton Butchers,Retailers - other,4613,5,,638381,5,,52.92738000000000,14/00014/FOOD,266,envhealth@rushcliffe.gov.uk,Rushcliffe,http://www.rushcliffe.gov.uk/,-1.12951300000000,NG2 6EN,2014-02-18,fhrs_5_en-GB,5,,FHRS,5
73248,3 Radcliffe Road,West Bridgford,Nottinghamshire,,Cafe Olive,Restaurant/Cafe/Canteen,1,5,,266360,5,,52.93810200000000,06/00026/COMMER,266,envhealth@rushcliffe.gov.uk,Rushcliffe,http://www.rushcliffe.gov.uk/,-1.13275000000000,NG2 5FF,2014-03-17,fhrs_5_en-GB,5,,FHRS,5
73249,3 To 4 Trent Bridge Building,Trent Bridge,West Bridgford,Nottinghamshire,Cafe Pizza,Restaurant/Cafe/Canteen,1,5,,265880,5,,52.93780100000000,57012/0003/2/001,266,envhealth@rushcliffe.gov.uk,Rushcliffe,http://www.rushcliffe.gov.uk/,-1.13472000000000,NG2 5FB,2012-01-26,fhrs_5_en-GB,5,,FHRS,5
73250,2 Central Avenue,West Bridgford,Nottinghamshire,,Caffe`  Nero,Restaurant/Cafe/Canteen,1,5,,266338,5,,52.93199300000000,05/00035/COMMER,266,envhealth@rushcliffe.gov.uk,Rushcliffe,http://www.rushcliffe.gov.uk/,-1.12715900000000,NG2 5GR,2013-06-27,fhrs_5_en-GB,5,,FHRS,5
73251,,,,,Cake Craft By Design,Restaurant/Cafe/Canteen,1,5,,734851,5,,,12/00032/COMMER,266,envhealth@rushcliffe.gov.uk,Rushcliffe,http://www.rushcliffe.gov.uk/,,,2012-02-07,fhrs_5_en-GB,5,,FHRS,5
73252,,,,,Cake-on-the-Wolds,Manufacturers/packers,7839,5,,706365,5,,,14/00085/FOOD,266,envhealth@rushcliffe.gov.uk,Rushcliffe,http://www.rushcliffe.gov.uk/,,,2014-10-07,fhrs_5_en-GB,5,,FHRS,0
73253,,,,,Canterburys,Other catering premises,7841,5,,716615,5,,,14/00116/FOOD,266,envhealth@rushcliffe.gov.uk,Rushcliffe,http://www.rushcliffe.gov.uk/,,,2014-11-12,fhrs_5_en-GB,5,,FHRS,0
73254,93A Melton Road,West Bridgford,Nottinghamshire,,Canterbury's Deli,Retailers - other,4613,5,,265694,10,,52.92738000000000,56337/0093/A/000,266,envhealth@rushcliffe.gov.uk,Rushcliffe,http://www.rushcliffe.gov.uk/,-1.12951300000000,NG2 6EN,2014-08-05,fhrs_3_en-GB,3,,FHRS,10
73255,4A Main Street,Keyworth,Nottinghamshire,,Canterburys Of Keyworth Ltd,Takeaway/sandwich shop,7844,5,,266251,5,,52.86964300000000,09/00059/FOOD,266,envhealth@rushcliffe.gov.uk,Rushcliffe,http://www.rushcliffe.gov.uk/,-1.09031900000000,NG12 5AD,2013-11-28,fhrs_5_en-GB,5,,FHRS,5
73256,7 Cotgrave Shopping Centre,Candleby Lane,Cotgrave,Nottinghamshire,Canton Express,Takeaway/sandwich shop,7844,5,,266320,10,,52.91061500000000,11690/0007/0/000,266,envhealth@rushcliffe.gov.uk,Rushcliffe,http://www.rushcliffe.gov.uk/,-1.03749000000000,NG12 3JQ,2013-04-18,fhrs_4_en-GB,4,,FHRS,5
73257,Capita,Discovery House,Ruddington Fields Business Park,Mere Way,Capita IT Services,Restaurant/Cafe/Canteen,1,0,,265972,5,,52.88100500000000,11/00049/FOOD,266,envhealth@rushcliffe.gov.uk,Rushcliffe,http://www.rushcliffe.gov.uk/,-1.14215100000000,NG11 6JW,2013-01-23,fhrs_5_en-GB,5,,FHRS,0
73258,Fosse Way,Car Colston,Nottinghamshire,,Car Colston Service Station,Retailers - other,4613,20,,265798,5,,52.97167000000000,07006/0506/2/000,266,envhealth@rushcliffe.gov.uk,Rushcliffe,http://www.rushcliffe.gov.uk/,-0.95205800000000,NG13 8JA,2014-10-27,fhrs_1_en-GB,1,,FHRS,5
73259,20 Central Avenue,West Bridgford,Nottinghamshire,,Carluccio's,Restaurant/Cafe/Canteen,1,0,,676416,0,,52.93199300000000,14/00025/FOOD,266,envhealth@rushcliffe.gov.uk,Rushcliffe,http://www.rushcliffe.gov.uk/,-1.12715900000000,NG2 5GR,2014-06-09,fhrs_5_en-GB,5,,FHRS,0
73260,Carnarvon Primary School,Nursery Road,Bingham,Nottinghamshire,Carnarvon Kids Club,School/college/university,7845,5,,266100,5,,52.95260600000000,04/00062/COMMER,266,envhealth@rushcliffe.gov.uk,Rushcliffe,http://www.rushcliffe.gov.uk/,-0.93622000000000,NG13 8EH,2014-12-18,fhrs_5_en-GB,5,,FHRS,5
73261,Carnarvon Primary School,Nursery Road,Bingham,Nottinghamshire,Carnarvon Pre School,School/college/university,7845,5,,266337,5,,52.95260600000000,06/00030/COMMER,266,envhealth@rushcliffe.gov.uk,Rushcliffe,http://www.rushcliffe.gov.uk/,-0.93622000000000,NG13 8EH,2012-07-02,fhrs_5_en-GB,5,,FHRS,5
73262,Nursery Road,Bingham,Nottinghamshire,,Carnarvon Primary School,School/college/university,7845,5,,266111,5,,52.95260600000000,03691/0577/2/000,266,envhealth@rushcliffe.gov.uk,Rushcliffe,http://www.rushcliffe.gov.uk/,-0.93622000000000,NG13 8EH,2014-12-18,fhrs_5_en-GB,5,,FHRS,5
73263,Mobile Food Business Southbound Lay,Gamston Lings Bar Road,Gamston,Nottinghamshire,Caroline's Cafe,Mobile caterer,7846,5,,447946,5,,52.92846800000000,10/00059/FOOD,266,envhealth@rushcliffe.gov.uk,Rushcliffe,http://www.rushcliffe.gov.uk/,-1.09907300000000,,2014-03-25,fhrs_5_en-GB,5,,FHRS,5
73264,82 Radcliffe Road,West Bridgford,Nottinghamshire,,Castle Hotel,Hotel/bed & breakfast/guest house,7842,5,,266011,5,,52.93785700000000,56616/0082/0/000,266,envhealth@rushcliffe.gov.uk,Rushcliffe,http://www.rushcliffe.gov.uk/,-1.12631200000000,NG2 5HH,2010-11-09,fhrs_5_en-GB,5,,FHRS,5
73265,,,,,Cathy's Chocolates And Cakes,Restaurant/Cafe/Canteen,1,5,,716614,5,,,14/00099/FOOD,266,envhealth@rushcliffe.gov.uk,Rushcliffe,http://www.rushcliffe.gov.uk/,,,2014-10-29,fhrs_5_en-GB,5,,FHRS,0
73266,93 Kneeton Road,East Bridgford,Nottinghamshire,,Cedar Vale,Hospitals/Childcare/Caring Premises,5,5,,266358,5,,52.98654900000000,14158/0093/2/000,266,envhealth@rushcliffe.gov.uk,Rushcliffe,http://www.rushcliffe.gov.uk/,-0.96248300000000,NG13 8PJ,2013-07-17,fhrs_5_en-GB,5,,FHRS,5
73267,Greythorn Drive,West Bridgford,Nottinghamshire,,Central College Nottingham,School/college/university,7845,0,,266243,5,,52.91926200000000,55851/0815/0/000,266,envhealth@rushcliffe.gov.uk,Rushcliffe,http://www.rushcliffe.gov.uk/,-1.14426600000000,NG2 7GA,2013-10-29,fhrs_5_en-GB,5,,FHRS,0
73268,30A Central Avenue,West Bridgford,Nottinghamshire,,Central News And Cards,Retailers - other,4613,,,265945,,,52.93199300000000,55311/0030/A/000,266,envhealth@rushcliffe.gov.uk,Rushcliffe,http://www.rushcliffe.gov.uk/,-1.12715900000000,NG2 5GR,2012-03-28,fhrs_exempt_en-GB,Exempt,,FHRS,
73269,38 Earlswood Drive,Edwalton,Nottinghamshire,,Chai N Coffee House,Restaurant/Cafe/Canteen,1,30,,266219,20,,52.91324800000000,11/00045/FOOD,266,envhealth@rushcliffe.gov.uk,Rushcliffe,http://www.rushcliffe.gov.uk/,-1.11354200000000,NG12 4AZ,2014-08-05,fhrs_0_en-GB,0,,FHRS,5
73270,97 Melton Road,Tollerton,Nottinghamshire,,Charde Restaurant,Restaurant/Cafe/Canteen,1,5,,266316,10,,52.89872600000000,53124/0097/2/000,266,envhealth@rushcliffe.gov.uk,Rushcliffe,http://www.rushcliffe.gov.uk/,-1.09880900000000,NG12 4EN,2014-06-19,fhrs_3_en-GB,3,,FHRS,10
73271,6 Gotham Road,East Leake,Nottinghamshire,,Chef's Cafe,Restaurant/Cafe/Canteen,1,0,,505308,5,,52.83406600000000,12/00127/FOOD,266,envhealth@rushcliffe.gov.uk,Rushcliffe,http://www.rushcliffe.gov.uk/,-1.17711300000000,LE12 6JG,2014-10-02,fhrs_5_en-GB,5,,FHRS,5
73272,Wood Farm,Barton Lane,Thrumpton,Nottinghamshire,Cherry Tree Derbyshire,Mobile caterer,7846,0,,726528,0,,52.87542700000000,14/00117/FOOD,266,envhealth@rushcliffe.gov.uk,Rushcliffe,http://www.rushcliffe.gov.uk/,-1.23221200000000,NG11 0AU,2014-12-09,fhrs_5_en-GB,5,,FHRS,0
73273,Cherrytree Lodge,34-36 Holme Road,West Bridgford,Nottinghamshire,Cherry Tree Lodge,Hospitals/Childcare/Caring Premises,5,5,,266201,5,,52.93933100000000,56022/0034/2/000,266,envhealth@rushcliffe.gov.uk,Rushcliffe,http://www.rushcliffe.gov.uk/,-1.12512100000000,NG2 5AA,2014-05-01,fhrs_5_en-GB,5,,FHRS,5
73274,Community Centre,Chestnut Avenue,Bingham,Nottinghamshire,Chestnut Avenue Community Centre,Other catering premises,7841,5,,266310,5,,52.95176600000000,03223/0100/2/000,266,envhealth@rushcliffe.gov.uk,Rushcliffe,http://www.rushcliffe.gov.uk/,-0.95710900000000,NG13 8AU,2012-06-25,fhrs_5_en-GB,5,,FHRS,5
73275,Station Road,Plumtree,Nottinghamshire,,Children1st@Plumtree,Hospitals/Childcare/Caring Premises,5,5,,266290,5,,52.88844900000000,11/00025/FOOD,266,envhealth@rushcliffe.gov.uk,Rushcliffe,http://www.rushcliffe.gov.uk/,-1.08786000000000,NG12 5NA,2014-03-13,fhrs_5_en-GB,5,,FHRS,5
73276,3 Johns Road,Radcliffe On Trent,Nottinghamshire,,Chilli Fundamentals,Retailers - other,4613,5,,586764,5,,52.94719100000000,13/00003/FOOD,266,envhealth@rushcliffe.gov.uk,Rushcliffe,http://www.rushcliffe.gov.uk/,-1.02606700000000,NG12 2GW,2013-09-20,fhrs_5_en-GB,5,,FHRS,5
73277,100 Trent Boulevard,West Bridgford,Nottinghamshire,,Chillis,Takeaway/sandwich shop,7844,5,,465657,5,,52.93818300000000,12/00073/FOOD,266,envhealth@rushcliffe.gov.uk,Rushcliffe,http://www.rushcliffe.gov.uk/,-1.11934200000000,NG2 5BL,2014-05-14,fhrs_5_en-GB,5,,FHRS,5
73278,181b Loughborough Road,West Bridgford,Nottinghamshire,,China Garden,Takeaway/sandwich shop,7844,5,,265991,10,,52.92312000000000,10/00056/FOOD,266,envhealth@rushcliffe.gov.uk,Rushcliffe,http://www.rushcliffe.gov.uk/,-1.13577100000000,NG2 7JR,2013-09-06,fhrs_4_en-GB,4,,FHRS,5
73279,Nottingham City Airport,Tollerton Lane,Tollerton,Nottinghamshire,Chocks Away,Restaurant/Cafe/Canteen,1,5,,465660,5,,52.91190900000000,12/00113/FOOD,266,envhealth@rushcliffe.gov.uk,Rushcliffe,http://www.rushcliffe.gov.uk/,-1.08406600000000,NG12 4GA,2014-03-13,fhrs_5_en-GB,5,,FHRS,5
73280,56 Main Street,East Leake,Nottinghamshire,,Chopsticks House,Takeaway/sandwich shop,7844,10,,265690,10,,52.83129800000000,15276/0056/0/000,266,envhealth@rushcliffe.gov.uk,Rushcliffe,http://www.rushcliffe.gov.uk/,-1.17726900000000,LE12 6PG,2014-01-28,fhrs_3_en-GB,3,,FHRS,10
73281,Community Centre,Church Croft,West Bridgford,Nottinghamshire,Church Croft Community Centre,Other catering premises,7841,10,,266327,10,,52.93258300000000,55372/0500/2/000,266,envhealth@rushcliffe.gov.uk,Rushcliffe,http://www.rushcliffe.gov.uk/,-1.13040500000000,NG2 6BQ,2015-02-03,fhrs_3_en-GB,3,,FHRS,5
73282,Skylarks,Adbolton Lane,Holme Pierrepont,Nottinghamshire,Church Farm At Skylarks,Hospitals/Childcare/Caring Premises,5,5,,590860,5,,52.93996100000000,13/00057/FOOD,266,envhealth@rushcliffe.gov.uk,Rushcliffe,http://www.rushcliffe.gov.uk/,-1.10710400000000,NG2 5AS,2013-09-28,fhrs_5_en-GB,5,,FHRS,5
73283,Church Lane,Cotgrave,Nottinghamshire,,Church Farm Nursing Home,Hospitals/Childcare/Caring Premises,5,0,,266276,5,,52.91170600000000,11141/0514/2/000,266,envhealth@rushcliffe.gov.uk,Rushcliffe,http://www.rushcliffe.gov.uk/,-1.04455900000000,NG12 3HR,2014-11-07,fhrs_5_en-GB,5,,FHRS,0
73284,1 Eaton Place,Bingham,Nottinghamshire,,Clive Lancaster Butchers,Retailers - other,4613,0,,265776,0,,52.95220000000000,03331/0001/0/000,266,envhealth@rushcliffe.gov.uk,Rushcliffe,http://www.rushcliffe.gov.uk/,-0.95333300000000,NG13 8BD,2011-05-11,fhrs_5_en-GB,5,,FHRS,0
73285,52-66 Bridgford Road,West Bridgford,Nottinghamshire,,Co Op,Retailers - supermarkets/hypermarkets,7840,5,,265778,10,,,55185/0052/2/000,266,envhealth@rushcliffe.gov.uk,Rushcliffe,http://www.rushcliffe.gov.uk/,,NG66 6BS,2014-10-09,fhrs_4_en-GB,4,,FHRS,5
73286,Harby Lane,Colston Bassett,Nottinghamshire,,Colston Bassett Dairy Ltd,Manufacturers/packers,7839,0,,266135,0,,52.89157000000000,09044/0545/2/000,266,envhealth@rushcliffe.gov.uk,Rushcliffe,http://www.rushcliffe.gov.uk/,-0.95702300000000,NG12 3FN,2014-03-24,fhrs_5_en-GB,5,,FHRS,0
73287,School Lane,Colston Bassett,Nottinghamshire,,Colston Bassett Preparatory School,School/college/university,7845,5,,265828,5,,52.89071000000000,09062/0556/2/000,266,envhealth@rushcliffe.gov.uk,Rushcliffe,http://www.rushcliffe.gov.uk/,-0.96456500000000,NG12 3FD,2013-02-05,fhrs_5_en-GB,5,,FHRS,0
73288,6 Gardens Court,West Bridgford,Nottinghamshire,,Communal Kitchen 9 Gardens Court,Other catering premises,7841,5,,266225,5,,52.92888000000000,55735/0006/2/000,266,envhealth@rushcliffe.gov.uk,Rushcliffe,http://www.rushcliffe.gov.uk/,-1.11588600000000,NG2 5LF,2013-12-12,fhrs_5_en-GB,5,,FHRS,0
73289,42 Gordon Road,West Bridgford,Nottinghamshire,,Cook,Retailers - other,4613,5,,706152,5,,52.92993200000000,14/00020/FOOD,266,envhealth@rushcliffe.gov.uk,Rushcliffe,http://www.rushcliffe.gov.uk/,-1.12565300000000,NG2 5LN,2014-06-10,fhrs_5_en-GB,5,,FHRS,0
73290,32 Main Road,Radcliffe On Trent,Nottinghamshire,,Co-op,Retailers - supermarkets/hypermarkets,7840,0,,265937,0,,52.94710700000000,35492/0032/0/000,266,envhealth@rushcliffe.gov.uk,Rushcliffe,http://www.rushcliffe.gov.uk/,-1.03897200000000,NG12 2FH,2012-12-12,fhrs_5_en-GB,5,,FHRS,5
73291,38 Church Street,Ruddington,Nottinghamshire,,Co-op,Retailers - supermarkets/hypermarkets,7840,5,,265963,5,,52.89159800000000,39167/0038/0/000,266,envhealth@rushcliffe.gov.uk,Rushcliffe,http://www.rushcliffe.gov.uk/,-1.15138100000000,NG11 6HD,2013-05-07,fhrs_5_en-GB,5,,FHRS,5
73292,8 Bridgford Road,West Bridgford,Nottinghamshire,,Co-op,Retailers - supermarkets/hypermarkets,7840,5,,266304,5,,52.93519100000000,55185/0008/0/000,266,envhealth@rushcliffe.gov.uk,Rushcliffe,http://www.rushcliffe.gov.uk/,-1.13179600000000,NG2 6AB,2013-10-31,fhrs_5_en-GB,5,,FHRS,5
73293,Church Street,Cropwell Bishop,Nottinghamshire,,Co-op,Retailers - supermarkets/hypermarkets,7840,5,,265779,5,,52.91421000000000,12016/0520/2/000,266,envhealth@rushcliffe.gov.uk,Rushcliffe,http://www.rushcliffe.gov.uk/,-0.98235600000000,NG12 3DB,2013-08-07,fhrs_5_en-GB,5,,FHRS,5
73294,Main Street,East Leake,Nottinghamshire,,Co-op,Retailers - supermarkets/hypermarkets,7840,5,,265931,5,,52.83158900000000,15276/0085/0/000,266,envhealth@rushcliffe.gov.uk,Rushcliffe,http://www.rushcliffe.gov.uk/,-1.17637300000000,LE12 6PF,2012-06-12,fhrs_5_en-GB,5,,FHRS,5
73295,35 Market Place,Bingham,Nottinghamshire,,Co-op Late Shop,Retailers - supermarkets/hypermarkets,7840,5,,266236,5,,52.95200900000000,03583/0035/0/000,266,envhealth@rushcliffe.gov.uk,Rushcliffe,http://www.rushcliffe.gov.uk/,-0.95199800000000,NG13 8AN,2014-08-14,fhrs_5_en-GB,5,,FHRS,5
73296,6 - 14 Hilton Crescent,West Bridgford,Nottinghamshire,,Co-op Lateshop,Retailers - supermarkets/hypermarkets,7840,0,,266275,5,,52.92061000000000,55995/0001/0/000,266,envhealth@rushcliffe.gov.uk,Rushcliffe,http://www.rushcliffe.gov.uk/,-1.11117500000000,NG2 6HT,2013-01-04,fhrs_5_en-GB,5,,FHRS,5
73297,21-23 Central Avenue,West Bridgford,Nottinghamshire,,Copper,Restaurant/Cafe/Canteen,1,10,,266223,10,,52.93186000000000,09/00063/FOOD,266,envhealth@rushcliffe.gov.uk,Rushcliffe,http://www.rushcliffe.gov.uk/,-1.12620900000000,NG2 5GQ,2013-08-15,fhrs_3_en-GB,3,,FHRS,10
73298,48-50 Bridgford Road,West Bridgford,Nottinghamshire,,Costa Coffee,Restaurant/Cafe/Canteen,1,0,,585470,5,,52.93357200000000,13/00034/FOOD,266,envhealth@rushcliffe.gov.uk,Rushcliffe,http://www.rushcliffe.gov.uk/,-1.12925500000000,NG2 6AP,2013-09-12,fhrs_5_en-GB,5,,FHRS,0
73299,Main Street,Costock,Nottinghamshire,,Costock Church Of England School,School/college/university,7845,5,,265847,5,,52.83153300000000,10059/0903/2/000,266,envhealth@rushcliffe.gov.uk,Rushcliffe,http://www.rushcliffe.gov.uk/,-1.15066600000000,LE12 6XD,2014-02-12,fhrs_5_en-GB,5,,FHRS,5
73300,The Cross,Cotgrave,Nottinghamshire,,Cotgrave Church Of England School,School/college/university,7845,5,,266329,0,,52.91208300000000,11654/0585/2/000,266,envhealth@rushcliffe.gov.uk,Rushcliffe,http://www.rushcliffe.gov.uk/,-1.04221600000000,NG12 3HS,2014-11-07,fhrs_5_en-GB,5,,FHRS,5
73301,10 Cotgrave Shopping Centre,Candleby Lane,Cotgrave,Nottinghamshire,Cotgrave Fish Bar,Takeaway/sandwich shop,7844,5,,265970,5,,52.91061500000000,11690/0010/0/000,266,envhealth@rushcliffe.gov.uk,Rushcliffe,http://www.rushcliffe.gov.uk/,-1.03749000000000,NG12 3JQ,2014-10-10,fhrs_5_en-GB,5,,FHRS,5
73302,Woodview,Cotgrave,Nottinghamshire,,Cotgrave Leisure Centre,Other catering premises,7841,,,266287,,,53.14605712890630,11807/0593/2/000,266,envhealth@rushcliffe.gov.uk,Rushcliffe,http://www.rushcliffe.gov.uk/,-0.99268501996994,NG12 3PJ,2012-03-26,fhrs_exempt_en-GB,Exempt,,FHRS,
73303,Main Road,Cotgrave,Nottinghamshire,,Cotgrave Service Station,Retailers - other,4613,5,,266093,5,,52.91401400000000,11438/0802/0/000,266,envhealth@rushcliffe.gov.uk,Rushcliffe,http://www.rushcliffe.gov.uk/,-1.04430000000000,NG12 3HQ,2013-03-11,fhrs_5_en-GB,5,,FHRS,5
73304,27 West Furlong,Cotgrave,Nottinghamshire,,Cotgrave Village Stores,Retailers - other,4613,5,,266207,5,,52.90371000000000,11735/0027/0/000,266,envhealth@rushcliffe.gov.uk,Rushcliffe,http://www.rushcliffe.gov.uk/,-1.03288500000000,NG12 3NL,2012-03-28,fhrs_5_en-GB,5,,FHRS,5
73305,Woodview,Cotgrave,Nottinghamshire,,Cotgrave Welfare Scheme - Easi-eats,Pub/bar/nightclub,7843,5,,265706,5,,53.14605712890630,11807/0592/2/000,266,envhealth@rushcliffe.gov.uk,Rushcliffe,http://www.rushcliffe.gov.uk/,-0.99268501996994,NG12 3PJ,2014-01-23,fhrs_5_en-GB,5,,FHRS,5
73306,Radcliffe On Trent Golf Club,Dewberry Lane,Radcliffe On Trent,Nottinghamshire,Country Club Caterers,Pub/bar/nightclub,7843,5,,638380,5,,52.94192700000000,14/00006/COMMER,266,envhealth@rushcliffe.gov.uk,Rushcliffe,http://www.rushcliffe.gov.uk/,-1.02547100000000,NG12 2JH,2014-03-05,fhrs_5_en-GB,5,,FHRS,0
73307,,,,,Country Kitchen,Mobile caterer,7846,5,,726525,5,,,14/00016/FOOD,266,envhealth@rushcliffe.gov.uk,Rushcliffe,http://www.rushcliffe.gov.uk/,,,2014-12-18,fhrs_5_en-GB,5,,FHRS,5
73308,,,,,Country Lane Fudge,Other catering premises,7841,5,,610545,0,,,12/00091/FOOD,266,envhealth@rushcliffe.gov.uk,Rushcliffe,http://www.rushcliffe.gov.uk/,,,2013-11-12,fhrs_5_en-GB,5,,FHRS,5
73309,Rushcliffe Country Park,Mere Way,Ruddington,Nottinghamshire,Country Park Kiosk,Retailers - other,4613,,,265716,,,52.88372000000000,03/00018/COMMER,266,envhealth@rushcliffe.gov.uk,Rushcliffe,http://www.rushcliffe.gov.uk/,-1.14441300000000,,2015-01-24,fhrs_exempt_en-GB,Exempt,,FHRS,
73310,33 Long Acre,Bingham,Nottinghamshire,,Courtyard Catering,Takeaway/sandwich shop,7844,10,,624270,10,,52.95146700000000,09/00003/FOOD,266,envhealth@rushcliffe.gov.uk,Rushcliffe,http://www.rushcliffe.gov.uk/,-0.95482400000000,NG13 8AF,2014-10-13,fhrs_3_en-GB,3,,FHRS,5
73311,Queens Road,Radcliffe On Trent,Nottinghamshire,,Craig Moray Community Centre,Other catering premises,7841,5,,265705,5,,52.95073400000000,35204/0000/2/000,266,envhealth@rushcliffe.gov.uk,Rushcliffe,http://www.rushcliffe.gov.uk/,-1.03389100000000,NG12 1AP,2010-12-02,fhrs_5_en-GB,5,,FHRS,5
73312,Main Street,Aslockton,Nottinghamshire,,Cranmer News,Retailers - other,4613,5,,265717,5,,52.95416600000000,01086/0649/2/000,266,envhealth@rushcliffe.gov.uk,Rushcliffe,http://www.rushcliffe.gov.uk/,-0.89637900000000,NG13 9AL,2013-03-19,fhrs_5_en-GB,5,,FHRS,5
73313,14 Nottingham Road,Cropwell Bishop,Nottinghamshire,,Cropwell Bishop Creamery Ltd,Manufacturers/packers,7839,0,,266006,0,,52.91264600000000,12178/0014/0/000,266,envhealth@rushcliffe.gov.uk,Rushcliffe,http://www.rushcliffe.gov.uk/,-0.98759700000000,NG12 3BQ,2014-03-21,fhrs_5_en-GB,5,,FHRS,0
73314,Stockwell Lane,Cropwell Bishop,Nottinghamshire,,Cropwell Bishop Primary School,School/college/university,7845,5,,265745,0,,52.91323500000000,12232/0572/2/000,266,envhealth@rushcliffe.gov.uk,Rushcliffe,http://www.rushcliffe.gov.uk/,-0.98185800000000,NG12 3BX,2013-09-18,fhrs_5_en-GB,5,,FHRS,5
73315,Village Hall,Main Street,Cropwell Butler,Nottinghamshire,Cropwell Butler And Tythby Village Hall,Other catering premises,7841,,,265762,,,52.92626200000000,13080/0588/2/000,266,envhealth@rushcliffe.gov.uk,Rushcliffe,http://www.rushcliffe.gov.uk/,-0.98302500000000,NG12 3AB,2012-03-28,fhrs_exempt_en-GB,Exempt,,FHRS,
73316,Crossdale Drive Primary School,Crossdale Drive,Keyworth,Nottinghamshire,Crossdale Busy Bees Preschool,School/college/university,7845,5,,266120,5,,52.87883400000000,11/00058/FOOD,266,envhealth@rushcliffe.gov.uk,Rushcliffe,http://www.rushcliffe.gov.uk/,-1.08953300000000,NG12 5HP,2014-09-22,fhrs_5_en-GB,5,,FHRS,5
73317,Crossdale Drive,Keyworth,Nottinghamshire,,Crossdale Primary School,School/college/university,7845,5,,265721,0,,52.87883400000000,25158/0501/2/000,266,envhealth@rushcliffe.gov.uk,Rushcliffe,http://www.rushcliffe.gov.uk/,-1.08953300000000,NG12 5HP,2015-01-09,fhrs_5_en-GB,5,,FHRS,0
73318,5 Radcliffe Road,West Bridgford,Nottinghamshire,,Crumbs,Takeaway/sandwich shop,7844,5,,265939,0,,52.93810200000000,56616/0005/0/002,266,envhealth@rushcliffe.gov.uk,Rushcliffe,http://www.rushcliffe.gov.uk/,-1.13275000000000,NG2 5FF,2014-12-03,fhrs_5_en-GB,5,,FHRS,5
73319,11B Nottingham Road,Cropwell Bishop,Nottinghamshire,,Crumbz,Takeaway/sandwich shop,7844,5,,265903,5,,52.91229700000000,06/00035/COMMER,266,envhealth@rushcliffe.gov.uk,Rushcliffe,http://www.rushcliffe.gov.uk/,-0.98675800000000,NG12 3BP,2014-09-09,fhrs_5_en-GB,5,,FHRS,5
73320,16 Shelford Road,Radcliffe On Trent,Nottinghamshire,,Crystal Lillies,Takeaway/sandwich shop,7844,5,,266056,5,,52.94819200000000,11/00080/FOOD,266,envhealth@rushcliffe.gov.uk,Rushcliffe,http://www.rushcliffe.gov.uk/,-1.03859100000000,NG12 2AG,2014-09-17,fhrs_5_en-GB,5,,FHRS,5
73321,Gotham Primary School,Kegworth Road,Gotham,Nottinghamshire,Cuckoo's Nest Childcare Ltd,Hospitals/Childcare/Caring Premises,5,0,,427358,5,,52.86671900000000,12/00004/FOOD,266,envhealth@rushcliffe.gov.uk,Rushcliffe,http://www.rushcliffe.gov.uk/,-1.20801800000000,NG11 0JS,2013-07-03,fhrs_5_en-GB,5,,FHRS,5
73322,,,,,Cup-Cakeilicious,Restaurant/Cafe/Canteen,1,10,,266192,5,,,10/00078/FOOD,266,envhealth@rushcliffe.gov.uk,Rushcliffe,http://www.rushcliffe.gov.uk/,,,2013-10-18,fhrs_4_en-GB,4,,FHRS,0
73323,14 Musters Road,West Bridgford,Nottinghamshire,,Curry 2 Night,Takeaway/sandwich shop,7844,5,,266091,5,,52.93532900000000,56418/0014/0/000,266,envhealth@rushcliffe.gov.uk,Rushcliffe,http://www.rushcliffe.gov.uk/,-1.13340000000000,NG2 7PL,2014-09-17,fhrs_5_en-GB,5,,FHRS,5
73324,,,,,D And S Seafoods,Mobile caterer,7846,10,,265829,5,,,04/00005/COMMER,266,envhealth@rushcliffe.gov.uk,Rushcliffe,http://www.rushcliffe.gov.uk/,,,2014-10-02,fhrs_4_en-GB,4,,FHRS,5
73325,Rugby Road,West Bridgford,Nottinghamshire,,David Lloyd Leisure  Ltd,Restaurant/Cafe/Canteen,1,0,,265943,5,,52.92181400000000,56724/0911/2/000,266,envhealth@rushcliffe.gov.uk,Rushcliffe,http://www.rushcliffe.gov.uk/,-1.13909900000000,NG2 7HX,2015-01-08,fhrs_5_en-GB,5,,FHRS,0
73326,,,,,Delicious Dishes Takeaway,Other catering premises,7841,5,,664749,5,,,13/00083/FOOD,266,envhealth@rushcliffe.gov.uk,Rushcliffe,http://www.rushcliffe.gov.uk/,,,2014-01-21,fhrs_5_en-GB,5,,FHRS,5
73327,Station Road,East Leake,Nottinghamshire,,Derbyshire House,Hospitals/Childcare/Caring Premises,5,5,,266009,5,,52.83118300000000,15501/0007/2/003,266,envhealth@rushcliffe.gov.uk,Rushcliffe,http://www.rushcliffe.gov.uk/,-1.18665200000000,LE12 6LQ,2014-02-17,fhrs_5_en-GB,5,,FHRS,5
73328,8 Wilford Road,Ruddington,Nottinghamshire,,Diamond City,Takeaway/sandwich shop,7844,10,,266032,5,,52.89348300000000,10/00052/FOOD,266,envhealth@rushcliffe.gov.uk,Rushcliffe,http://www.rushcliffe.gov.uk/,-1.14964900000000,NG11 6EN,2014-10-21,fhrs_4_en-GB,4,,FHRS,5
73329,11 Market Street,Bingham,Nottinghamshire,,Diamond Pizza And Kebab,Restaurant/Cafe/Canteen,1,10,,726526,5,,52.95186200000000,14/00083/FOOD,266,envhealth@rushcliffe.gov.uk,Rushcliffe,http://www.rushcliffe.gov.uk/,-0.95268600000000,NG13 8AB,2014-12-10,fhrs_4_en-GB,4,,FHRS,5
73330,Unit 7 Shopping Centre,Compton Acres,West Bridgford,Nottinghamshire,Dibleys,Restaurant/Cafe/Canteen,1,5,,266258,5,,52.91868500000000,55405/0507/0/000,266,envhealth@rushcliffe.gov.uk,Rushcliffe,http://www.rushcliffe.gov.uk/,-1.15274000000000,NG2 7RS,2014-10-23,fhrs_4_en-GB,4,,FHRS,10
73331,2 Little Hayes,West Bridgford,Nottinghamshire,,Dinky Donuts,Mobile caterer,7846,0,,586765,0,,52.91690200000000,13/00048/FOOD,266,envhealth@rushcliffe.gov.uk,Rushcliffe,http://www.rushcliffe.gov.uk/,-1.15116900000000,NG2 7RT,2013-09-17,fhrs_5_en-GB,5,,FHRS,0
73332,,,,,Dinkydoodle Designs,Retailers - other,4613,5,,265767,5,,,10/00057/FOOD,266,envhealth@rushcliffe.gov.uk,Rushcliffe,http://www.rushcliffe.gov.uk/,,,2014-09-29,fhrs_5_en-GB,5,,FHRS,5
73333,Brookside House,Brookside Road,Ruddington,Nottinghamshire,Dizzy's Bistro,Restaurant/Cafe/Canteen,1,5,,722528,5,,52.89774500000000,14/00015/FOOD,266,envhealth@rushcliffe.gov.uk,Rushcliffe,http://www.rushcliffe.gov.uk/,-1.15609200000000,NG11 6AT,2014-12-04,fhrs_5_en-GB,5,,FHRS,5
73334,21 Radcliffe Road,West Bridgford,Nottinghamshire,,Dominos Pizzas,Takeaway/sandwich shop,7844,0,,266066,5,,52.93810200000000,56616/0021/2/000,266,envhealth@rushcliffe.gov.uk,Rushcliffe,http://www.rushcliffe.gov.uk/,-1.13275000000000,NG2 5FF,2014-10-09,fhrs_5_en-GB,5,,FHRS,5
73335,,,,,Double Decker Bus Bar,Mobile caterer,7846,5,,676415,5,,,14/00022/FOOD,266,envhealth@rushcliffe.gov.uk,Rushcliffe,http://www.rushcliffe.gov.uk/,,,2014-05-15,fhrs_5_en-GB,5,,FHRS,0
73336,Dovecote Farm Shop,Manor Road,Barton In Fabis,Nottinghamshire,Dovecote Deli And Cafe,Restaurant/Cafe/Canteen,1,5,,537773,5,,52.88958800000000,13/00015/FOOD,266,envhealth@rushcliffe.gov.uk,Rushcliffe,http://www.rushcliffe.gov.uk/,-1.22420300000000,NG11 0AA,2013-04-16,fhrs_5_en-GB,5,,FHRS,5
73337,Dovecoat Farm Shop,Manor Farm,21 Manor Road,Barton In Fabis,Dovecote Farm Shop,Restaurant/Cafe/Canteen,1,10,,375200,10,,52.88958800000000,12/00064/FOOD,266,envhealth@rushcliffe.gov.uk,Rushcliffe,http://www.rushcliffe.gov.uk/,-1.22420300000000,NG11 0AA,2014-12-04,fhrs_3_en-GB,3,,FHRS,10
73338,Church Street,Orston,Nottinghamshire,,Durham Ox,Pub/bar/nightclub,7843,10,,266128,10,,52.96294900000000,32043/0522/2/000,266,envhealth@rushcliffe.gov.uk,Rushcliffe,http://www.rushcliffe.gov.uk/,-0.85455700000000,NG13 9NS,2013-02-28,fhrs_3_en-GB,3,,FHRS,10
73339,Manor Lane,Shelford,Nottinghamshire,,Earl Of Chesterfield Arms,Pub/bar/nightclub,7843,5,,579501,5,,52.97617100000000,43059/0565/2/001,266,envhealth@rushcliffe.gov.uk,Rushcliffe,http://www.rushcliffe.gov.uk/,-1.01266800000000,NG12 1EQ,2013-08-21,fhrs_5_en-GB,5,,FHRS,0
73340,50 Main Street,East Bridgford,Nottinghamshire,,East Bridgford News,Retailers - other,4613,,,266050,,,52.97962300000000,14203/0050/0/000,266,envhealth@rushcliffe.gov.uk,Rushcliffe,http://www.rushcliffe.gov.uk/,-0.96507700000000,NG13 8NH,2011-01-17,fhrs_exempt_en-GB,Exempt,,FHRS,
73341,Womens Institute,Kneeton Road,East Bridgford,Nottinghamshire,East Bridgford St Peters Pre-school,Hospitals/Childcare/Caring Premises,5,5,,716613,5,,52.98189600000000,14/00091/FOOD,266,envhealth@rushcliffe.gov.uk,Rushcliffe,http://www.rushcliffe.gov.uk/,-0.97010200000000,NG13 8PW,2014-11-03,fhrs_5_en-GB,5,,FHRS,5
73342,Village Hall,Main Street,East Bridgford,Nottinghamshire,East Bridgford Village Hall,Other catering premises,7841,,,265808,,,52.97962300000000,14203/0592/1/000,266,envhealth@rushcliffe.gov.uk,Rushcliffe,http://www.rushcliffe.gov.uk/,-0.96507700000000,NG13 8NH,2012-03-27,fhrs_exempt_en-GB,Exempt,,FHRS,
73343,Lantern Lane,East Leake,Nottinghamshire,,East Leake Academy,School/college/university,7845,5,,265852,0,,52.83573900000000,15258/0900/2/001,266,envhealth@rushcliffe.gov.uk,Rushcliffe,http://www.rushcliffe.gov.uk/,-1.17592400000000,LE12 6QG,2014-06-04,fhrs_5_en-GB,5,,FHRS,0
73344,Lantern Lane,East Leake,Nottinghamshire,,East Leake Leisure Centre,Other catering premises,7841,,,266262,,,52.83573900000000,15258/0899/2/000,266,envhealth@rushcliffe.gov.uk,Rushcliffe,http://www.rushcliffe.gov.uk/,-1.17592400000000,LE12 6QG,2014-02-17,fhrs_exempt_en-GB,Exempt,,FHRS,
73345,64 Main Street,East Leake,Nottinghamshire,,East Leake Post Office,Retailers - other,4613,5,,266259,5,,52.83129800000000,04/00011/COMMER,266,envhealth@rushcliffe.gov.uk,Rushcliffe,http://www.rushcliffe.gov.uk/,-1.17726900000000,LE12 6PG,2012-06-25,fhrs_5_en-GB,5,,FHRS,5
73346,8 Eaton Place,Bingham,Nottinghamshire,,Eaton Place Fish Bar,Takeaway/sandwich shop,7844,5,,265961,5,,52.95220000000000,03331/0008/0/000,266,envhealth@rushcliffe.gov.uk,Rushcliffe,http://www.rushcliffe.gov.uk/,-0.95333300000000,NG13 8BD,2014-07-30,fhrs_5_en-GB,5,,FHRS,5
73347,Bridgford Garden Centre,Fosse Way,East Bridgford,Nottinghamshire,Ed's Playbarn,Restaurant/Cafe/Canteen,1,5,,726527,5,,52.97384500000000,14/00101/FOOD,266,envhealth@rushcliffe.gov.uk,Rushcliffe,http://www.rushcliffe.gov.uk/,-0.95208000000000,NG13 8LA,2014-12-18,fhrs_5_en-GB,5,,FHRS,5
73348,Wellin Lane,Edwalton,Nottinghamshire,,Edwalton Golf Course,Restaurant/Cafe/Canteen,1,5,,266347,5,,52.91303200000000,57219/0500/2/000,266,envhealth@rushcliffe.gov.uk,Rushcliffe,http://www.rushcliffe.gov.uk/,-1.11000700000000,NG12 4AS,2014-11-05,fhrs_5_en-GB,5,,FHRS,5
73349,Edwalton Newsbar,42 Earlswood Drive,Edwalton,Nottinghamshire,Edwalton News Bar,Retailers - other,4613,,,266019,,,52.91324800000000,55536/0042/0/000,266,envhealth@rushcliffe.gov.uk,Rushcliffe,http://www.rushcliffe.gov.uk/,-1.11354200000000,NG12 4AZ,2012-03-22,fhrs_exempt_en-GB,Exempt,,FHRS,
73350,227 Melton Road,Edwalton,Nottinghamshire,,Edwalton Nursery Ltd,Hospitals/Childcare/Caring Premises,5,0,,266222,0,,52.90684100000000,90057/0227/0/000,266,envhealth@rushcliffe.gov.uk,Rushcliffe,http://www.rushcliffe.gov.uk/,-1.11881700000000,NG12 4DB,2015-01-09,fhrs_5_en-GB,5,,FHRS,0
73351,Wellin Lane,Edwalton,Nottinghamshire,,Edwalton Primary School,School/college/university,7845,5,,266265,5,,52.91303200000000,57219/0612/2/000,266,envhealth@rushcliffe.gov.uk,Rushcliffe,http://www.rushcliffe.gov.uk/,-1.11000700000000,NG12 4AS,2015-01-16,fhrs_5_en-GB,5,,FHRS,5
73352,44 Earlswood Drive,Edwalton,Nottinghamshire,,Edwalton Stores,Retailers - other,4613,5,,266125,5,,52.91324800000000,55536/0044/0/000,266,envhealth@rushcliffe.gov.uk,Rushcliffe,http://www.rushcliffe.gov.uk/,-1.11354200000000,NG12 4AZ,2012-08-30,fhrs_5_en-GB,5,,FHRS,5
73353,33 Nottingham Road,Bingham,Nottinghamshire,,Elm Tree Cakes,Retailers - other,4613,0,,612354,0,,52.95056000000000,11/00089/COMMER,266,envhealth@rushcliffe.gov.uk,Rushcliffe,http://www.rushcliffe.gov.uk/,-0.95797100000000,NG13 8BH,2012-01-24,fhrs_5_en-GB,5,,FHRS,0
73354,Ruddington Fields Business Park,Mere Way,Ruddington,Nottinghamshire,Emcat,Restaurant/Cafe/Canteen,1,0,,266124,5,,52.88253300000000,65000/0008/2/000,266,envhealth@rushcliffe.gov.uk,Rushcliffe,http://www.rushcliffe.gov.uk/,-1.14334000000000,NG11 6JS,2013-10-15,fhrs_5_en-GB,5,,FHRS,5
73355,5 Tudor Square,West Bridgford,Nottinghamshire,,Emm Dee Stores,Retailers - other,4613,5,,266226,5,,52.93131300000000,09/00064/FOOD,266,envhealth@rushcliffe.gov.uk,Rushcliffe,http://www.rushcliffe.gov.uk/,-1.12645800000000,NG2 6BT,2015-01-16,fhrs_5_en-GB,5,,FHRS,0
73356,Ratcliffe On Soar Power Station,Green Street,Ratcliffe On Soar,Nottinghamshire,EON  Power Technology,Restaurant/Cafe/Canteen,1,5,,266176,5,,52.86341300000000,90005/0500/2/002,266,envhealth@rushcliffe.gov.uk,Rushcliffe,http://www.rushcliffe.gov.uk/,-1.25275900000000,NG11 0EE,2013-12-10,fhrs_5_en-GB,5,,FHRS,0
73357,Ratcliffe On Soar,Nottinghamshire,,,Eon Engineering Academy Restaurant,Restaurant/Cafe/Canteen,1,0,,266051,5,,52.86341300000000,09/00082/FOOD,266,envhealth@rushcliffe.gov.uk,Rushcliffe,http://www.rushcliffe.gov.uk/,-1.25275900000000,NG11 0EG,2014-10-01,fhrs_5_en-GB,5,,FHRS,5
73358,Ratcliffe On Soar Power Station,Green Street,Ratcliffe On Soar,Nottinghamshire,Eon Main Canteen,Restaurant/Cafe/Canteen,1,0,,266229,0,,52.87489000000000,90005/0500/2/004,266,envhealth@rushcliffe.gov.uk,Rushcliffe,http://www.rushcliffe.gov.uk/,-1.24228000000000,NG11 0AW,2015-02-11,fhrs_5_en-GB,5,,FHRS,0
73359,25-27 Bridgford Road,West Bridgford,Nottinghamshire,,Escabeche,Restaurant/Cafe/Canteen,1,5,,265811,5,,52.93224800000000,11/00009/FOOD,266,envhealth@rushcliffe.gov.uk,Rushcliffe,http://www.rushcliffe.gov.uk/,-1.12760000000000,NG2 6AU,2013-10-22,fhrs_5_en-GB,5,,FHRS,5
73360,Owthorpe Road,Cotgrave,Nottinghamshire,,Eton Park Care Home,Hospitals/Childcare/Caring Premises,5,5,,265982,5,,52.89808800000000,11519/0550/2/002,266,envhealth@rushcliffe.gov.uk,Rushcliffe,http://www.rushcliffe.gov.uk/,-1.03023000000000,NG12 3PU,2014-06-12,fhrs_5_en-GB,5,,FHRS,0
73361,Ratcliffe On Soar Power Station,Green Street,Ratcliffe On Soar,Nottinghamshire,Excel Vending Services Limited,Restaurant/Cafe/Canteen,1,5,,266339,5,,,08/00052/COMMER,266,envhealth@rushcliffe.gov.uk,Rushcliffe,http://www.rushcliffe.gov.uk/,,NG66 6BS,2014-10-01,fhrs_5_en-GB,5,,FHRS,5
73362,Station Road,Upper Broughton,Nottinghamshire,,F Bailey And Son (Family Butchers) Ltd,Manufacturers/packers,7839,5,,266152,10,,52.82771600000000,54089/0604/2/000,266,envhealth@rushcliffe.gov.uk,Rushcliffe,http://www.rushcliffe.gov.uk/,-0.99559800000000,LE14 3BQ,2013-03-26,fhrs_4_en-GB,4,,FHRS,0
73363,,,,,Farah's Cheesecake,Other catering premises,7841,5,,586766,5,,,13/00055/FOOD,266,envhealth@rushcliffe.gov.uk,Rushcliffe,http://www.rushcliffe.gov.uk/,,,2013-09-24,fhrs_5_en-GB,5,,FHRS,0
73364,11 Main Road,Radcliffe On Trent,Nottinghamshire,,Field House Nursing Home,Hospitals/Childcare/Caring Premises,5,5,,265960,5,,52.94661600000000,35492/0011/2/000,266,envhealth@rushcliffe.gov.uk,Rushcliffe,http://www.rushcliffe.gov.uk/,-1.03935500000000,NG12 2FD,2014-12-22,fhrs_5_en-GB,5,,FHRS,5
73365,40 Bridgford Road,West Bridgford,Nottinghamshire,,Fire And Ice Limited,Restaurant/Cafe/Canteen,1,5,,266163,5,,52.93357200000000,55185/0040/0/002,266,envhealth@rushcliffe.gov.uk,Rushcliffe,http://www.rushcliffe.gov.uk/,-1.12925500000000,NG2 6AP,2014-12-05,fhrs_4_en-GB,4,,FHRS,10
73366,40 Gordon Road,West Bridgford,Nottinghamshire,,Five Rivers,Restaurant/Cafe/Canteen,1,5,,265734,5,,52.92993200000000,05/00056/COMMER,266,envhealth@rushcliffe.gov.uk,Rushcliffe,http://www.rushcliffe.gov.uk/,-1.12565300000000,NG2 5LN,2014-03-26,fhrs_5_en-GB,5,,FHRS,5
73367,Community Shop,Inholms Road,Flintham,Nottinghamshire,Flintham Community Shop,Retailers - other,4613,10,,266062,5,,53.00719800000000,10/00051/FOOD,266,envhealth@rushcliffe.gov.uk,Rushcliffe,http://www.rushcliffe.gov.uk/,-0.89846900000000,NG23 5LG,2010-07-08,fhrs_4_en-GB,4,,FHRS,0
73368,Inholms Road,Flintham,Nottinghamshire,,Flintham Primary School,School/college/university,7845,0,,265746,5,,53.00754800000000,18041/0520/2/000,266,envhealth@rushcliffe.gov.uk,Rushcliffe,http://www.rushcliffe.gov.uk/,-0.89749200000000,NG23 5LF,2014-01-10,fhrs_5_en-GB,5,,FHRS,5
73369,,,,,Food Solutions,Mobile caterer,7846,5,,537768,5,,,12/00107/FOOD,266,envhealth@rushcliffe.gov.uk,Rushcliffe,http://www.rushcliffe.gov.uk/,,,2013-04-10,fhrs_5_en-GB,5,,FHRS,0
73370,Musters Road,West Bridgford,Nottinghamshire,,Friary Church Hall,Other catering premises,7841,,,265791,,,52.93369500000000,56418/0921/2/000,266,envhealth@rushcliffe.gov.uk,Rushcliffe,http://www.rushcliffe.gov.uk/,-1.13254000000000,NG2 7PQ,2012-06-25,fhrs_exempt_en-GB,Exempt,,FHRS,
73371,Musters Road,West Bridgford,Nottinghamshire,,Friary Drop In Centre,Other catering premises,7841,5,,266186,5,,52.93369500000000,56418/0036/2/000,266,envhealth@rushcliffe.gov.uk,Rushcliffe,http://www.rushcliffe.gov.uk/,-1.13254000000000,NG2 7PQ,2013-11-05,fhrs_4_en-GB,4,,FHRS,10
73372,4 Main Road,Radcliffe On Trent,Nottinghamshire,,Fruiticious,Retailers - other,4613,5,,266164,5,,52.94710700000000,35492/0004/0/000,266,envhealth@rushcliffe.gov.uk,Rushcliffe,http://www.rushcliffe.gov.uk/,-1.03897200000000,NG12 2FH,2012-03-28,fhrs_5_en-GB,5,,FHRS,5
73373,51 Nottingham Road,Gotham,Nottinghamshire,,Frydays,Takeaway/sandwich shop,7844,5,,266177,5,,52.86968200000000,20205/0051/0/000,266,envhealth@rushcliffe.gov.uk,Rushcliffe,http://www.rushcliffe.gov.uk/,-1.20474000000000,NG11 0HE,2013-11-08,fhrs_5_en-GB,5,,FHRS,5
73374,,,,,Fundamentally Cake,Other catering premises,7841,5,,586767,5,,,13/00060/FOOD,266,envhealth@rushcliffe.gov.uk,Rushcliffe,http://www.rushcliffe.gov.uk/,,,2013-09-20,fhrs_5_en-GB,5,,FHRS,5
73375,8 Shelford Road,Radcliffe On Trent,Nottinghamshire,,Fusion,Takeaway/sandwich shop,7844,10,,266136,10,,52.94819200000000,05/00009/COMMER,266,envhealth@rushcliffe.gov.uk,Rushcliffe,http://www.rushcliffe.gov.uk/,-1.03859100000000,NG12 2AG,2013-03-25,fhrs_3_en-GB,3,,FHRS,10
73376,8-10 Radcliffe Road,West Bridgford,Nottinghamshire,,Gallery Hotel,Hotel/bed & breakfast/guest house,7842,5,,265708,5,,52.93837800000000,56616/0010/0/000,266,envhealth@rushcliffe.gov.uk,Rushcliffe,http://www.rushcliffe.gov.uk/,-1.12880100000000,NG2 5FW,2014-06-26,fhrs_4_en-GB,4,,FHRS,10
73377,Radcliffe Road,Gamston,Nottinghamshire,,Gamston Lock,Pub/bar/nightclub,7843,5,,266361,5,,52.93207200000000,19096/0590/2/000,266,envhealth@rushcliffe.gov.uk,Rushcliffe,http://www.rushcliffe.gov.uk/,-1.10036300000000,NG2 6NP,2014-12-11,fhrs_5_en-GB,5,,FHRS,0
73378,,,,,Gardner Cakes,Retailers - other,4613,0,,680968,0,,,13/00002/FOOD,266,envhealth@rushcliffe.gov.uk,Rushcliffe,http://www.rushcliffe.gov.uk/,,,2014-06-27,fhrs_5_en-GB,5,,FHRS,0
73379,95 Melton Road,West Bridgford,Nottinghamshire,,George's Tradition,Takeaway/sandwich shop,7844,0,,266058,5,,52.92738000000000,07/00021/COMMER,266,envhealth@rushcliffe.gov.uk,Rushcliffe,http://www.rushcliffe.gov.uk/,-1.12951300000000,NG2 6EN,2013-02-19,fhrs_5_en-GB,5,,FHRS,0
73380,36 Gordon Road,West Bridgford,Nottinghamshire,,Ghandhi Take Away,Takeaway/sandwich shop,7844,5,,266278,5,,52.92993200000000,55788/0036/0/000,266,envhealth@rushcliffe.gov.uk,Rushcliffe,http://www.rushcliffe.gov.uk/,-1.12565300000000,NG2 5LN,2014-11-12,fhrs_5_en-GB,5,,FHRS,5
73381,,,,,Gluten Free Food Nottingham,Restaurant/Cafe/Canteen,1,5,,627787,5,,,13/00076/FOOD,266,envhealth@rushcliffe.gov.uk,Rushcliffe,http://www.rushcliffe.gov.uk/,,,2014-01-15,fhrs_5_en-GB,5,,FHRS,5
73382,2 High Street,Ruddington,Nottinghamshire,,Glyn Thomas Ltd,Retailers - other,4613,0,,266113,0,,52.89196300000000,39338/0002/0/000,266,envhealth@rushcliffe.gov.uk,Rushcliffe,http://www.rushcliffe.gov.uk/,-1.14956000000000,NG11 6EH,2014-03-28,fhrs_5_en-GB,5,,FHRS,5
73383,79 Main Street,East Leake,Nottinghamshire,,Golden Star Chinese Take-away,Takeaway/sandwich shop,7844,10,,265840,5,,52.83158900000000,15276/0079/0/000,266,envhealth@rushcliffe.gov.uk,Rushcliffe,http://www.rushcliffe.gov.uk/,-1.17637300000000,LE12 6PF,2013-11-14,fhrs_4_en-GB,4,,FHRS,5
73384,Unit 3,Gamston District Shopping Centre,Ambleside,Gamston,Good Food Gamston,Takeaway/sandwich shop,7844,20,,265883,15,,52.92714400000000,19010/0999/C/001,266,envhealth@rushcliffe.gov.uk,Rushcliffe,http://www.rushcliffe.gov.uk/,-1.10375300000000,NG2 6NA,2015-01-22,fhrs_1_en-GB,1,,FHRS,15
73385,15 Nottingham Road,Gotham,Nottinghamshire,,Gotham And District Royal British Legion Club Ltd,Other catering premises,7841,,,265918,,,52.86968200000000,20205/0015/0/000,266,envhealth@rushcliffe.gov.uk,Rushcliffe,http://www.rushcliffe.gov.uk/,-1.20474000000000,NG11 0HE,2010-11-08,fhrs_exempt_en-GB,Exempt,,FHRS,
73386,Gotham Primary School,Kegworth Road,Gotham,Nottinghamshire,Gotham Playgroup,School/college/university,7845,0,,266053,5,,52.86671900000000,12/00005/FOOD,266,envhealth@rushcliffe.gov.uk,Rushcliffe,http://www.rushcliffe.gov.uk/,-1.20801800000000,NG11 0JS,2013-07-03,fhrs_5_en-GB,5,,FHRS,5
73387,Kegworth Road,Gotham,Nottinghamshire,,Gotham Primary School,School/college/university,7845,5,,265756,5,,52.86671900000000,20142/0901/2/000,266,envhealth@rushcliffe.gov.uk,Rushcliffe,http://www.rushcliffe.gov.uk/,-1.20801800000000,NG11 0JS,2014-12-08,fhrs_5_en-GB,5,,FHRS,0
73388,3 Nottingham Road,Gotham,Nottinghamshire,,Gotham Spar,Retailers - other,4613,5,,266196,5,,52.86968200000000,20205/0003/0/000,266,envhealth@rushcliffe.gov.uk,Rushcliffe,http://www.rushcliffe.gov.uk/,-1.20474000000000,NG11 0HE,2008-12-05,fhrs_5_en-GB,5,,FHRS,5
73389,Village Hall,Nottingham Road,Gotham,Nottinghamshire,Gotham Village Memorial Hall,Other catering premises,7841,,,265999,,,52.86968200000000,20205/0900/2/000,266,envhealth@rushcliffe.gov.uk,Rushcliffe,http://www.rushcliffe.gov.uk/,-1.20474000000000,NG11 0HE,2009-12-14,fhrs_exempt_en-GB,Exempt,,FHRS,
73390,Unit 8,High Hazles Road,Cotgrave,Nottinghamshire,Gourmet Chocolate Pizzas,Manufacturers/packers,7839,5,,265782,5,,52.91449400000000,11385/0008/0/000,266,envhealth@rushcliffe.gov.uk,Rushcliffe,http://www.rushcliffe.gov.uk/,-1.03468200000000,NG12 3GZ,2013-07-16,fhrs_5_en-GB,5,,FHRS,5
73391,Village Coffee Shop,14 High Street,Ruddington,Nottinghamshire,Gracies Cafe,Restaurant/Cafe/Canteen,1,10,,634039,5,,52.89196300000000,13/00081/COMMER,266,envhealth@rushcliffe.gov.uk,Rushcliffe,http://www.rushcliffe.gov.uk/,-1.14956000000000,NG11 6EH,2014-02-18,fhrs_4_en-GB,4,,FHRS,5
73392,Belvoir Vale Residential Home,Old Melton Road,Widmerpool,Nottinghamshire,Granby Court,Hospitals/Childcare/Caring Premises,5,5,,266283,5,,52.85371500000000,90056/0102/0/001,266,envhealth@rushcliffe.gov.uk,Rushcliffe,http://www.rushcliffe.gov.uk/,-1.03249700000000,NG12 5QL,2013-11-26,fhrs_5_en-GB,5,,FHRS,0
73393,18 High Street,Ruddington,Nottinghamshire,,Grange Bakery,Restaurant/Cafe/Canteen,1,5,,649017,5,,52.89196300000000,14/00030/FOOD,266,envhealth@rushcliffe.gov.uk,Rushcliffe,http://www.rushcliffe.gov.uk/,-1.14956000000000,NG11 6EH,2014-04-16,fhrs_5_en-GB,5,,FHRS,5
73394,The Grange,Vicarage Lane,Radcliffe On Trent,Nottinghamshire,Grange Hall,Other catering premises,7841,,,265749,,,52.94546300000000,35987/0001/2/000,266,envhealth@rushcliffe.gov.uk,Rushcliffe,http://www.rushcliffe.gov.uk/,-1.04127100000000,NG12 2FB,2014-10-14,fhrs_exempt_en-GB,Exempt,,FHRS,
73395,4-6 Church Street,Ruddington,Nottinghamshire,,Grange News,Retailers - other,4613,,,265713,,,52.89228900000000,39167/0004/0/000,266,envhealth@rushcliffe.gov.uk,Rushcliffe,http://www.rushcliffe.gov.uk/,-1.14997000000000,NG11 6HA,2015-02-09,fhrs_exempt_en-GB,Exempt,,FHRS,
73396,3 Bingham Road,Cotgrave,Nottinghamshire,,Grannies Tea Room And Gift Shop,Restaurant/Cafe/Canteen,1,0,,265793,5,,52.91241700000000,05/00051/COMMER,266,envhealth@rushcliffe.gov.uk,Rushcliffe,http://www.rushcliffe.gov.uk/,-1.03908600000000,NG12 3JS,2014-12-16,fhrs_5_en-GB,5,,FHRS,5
73397,61 Main Street,East Leake,Nottinghamshire,,Great British Invention,Takeaway/sandwich shop,7844,5,,266363,5,,52.83158900000000,15276/0061/0/000,266,envhealth@rushcliffe.gov.uk,Rushcliffe,http://www.rushcliffe.gov.uk/,-1.17637300000000,LE12 6PF,2014-01-28,fhrs_5_en-GB,5,,FHRS,5
73398,Ruddington Fields Business Park,Mere Way,Ruddington,Nottinghamshire,Greene Tweed,Restaurant/Cafe/Canteen,1,5,,266214,0,,52.88253300000000,65000/0006/2/000,266,envhealth@rushcliffe.gov.uk,Rushcliffe,http://www.rushcliffe.gov.uk/,-1.14334000000000,NG11 6JS,2013-01-22,fhrs_5_en-GB,5,,FHRS,5
73399,14 The Square,Keyworth,Nottinghamshire,,Greens Butchers,Retailers - other,4613,5,,266359,5,,52.87116300000000,25521/0014/0/000,266,envhealth@rushcliffe.gov.uk,Rushcliffe,http://www.rushcliffe.gov.uk/,-1.09034700000000,NG12 5JT,2014-10-21,fhrs_5_en-GB,5,,FHRS,5
73400,Greenwood Lodge,49-55 Gotham Lane,Bunny,Nottinghamshire,Greenwood Lodge  Nursing Home,Hospitals/Childcare/Caring Premises,5,0,,265797,5,,52.85540900000000,06032/0049/2/000,266,envhealth@rushcliffe.gov.uk,Rushcliffe,http://www.rushcliffe.gov.uk/,-1.13935900000000,NG11 6QJ,2014-02-12,fhrs_5_en-GB,5,,FHRS,5
73401,28 Central Avenue,West Bridgford,Nottinghamshire,,Greggs,Takeaway/sandwich shop,7844,0,,266073,0,,52.93199300000000,55311/0028/2/000,266,envhealth@rushcliffe.gov.uk,Rushcliffe,http://www.rushcliffe.gov.uk/,-1.12715900000000,NG2 5GR,2014-09-17,fhrs_5_en-GB,5,,FHRS,5
73402,9 Eaton Place,Bingham,Nottinghamshire,,Greggs,Takeaway/sandwich shop,7844,0,,265730,0,,52.95220000000000,11/00092/FOOD,266,envhealth@rushcliffe.gov.uk,Rushcliffe,http://www.rushcliffe.gov.uk/,-0.95333300000000,NG13 8BD,2014-09-17,fhrs_5_en-GB,5,,FHRS,5
73403,Greythorn Drive,West Bridgford,Nottinghamshire,,Greythorn Primary School,School/college/university,7845,0,,265891,5,,52.92098600000000,55851/0605/2/000,266,envhealth@rushcliffe.gov.uk,Rushcliffe,http://www.rushcliffe.gov.uk/,-1.14397900000000,NG2 7GH,2014-06-18,fhrs_5_en-GB,5,,FHRS,0
73404,218 Melton Road,Edwalton,Nottinghamshire,,Grosvenor School Ltd,School/college/university,7845,5,,266000,5,,52.91578800000000,56337/0218/0/000,266,envhealth@rushcliffe.gov.uk,Rushcliffe,http://www.rushcliffe.gov.uk/,-1.12031600000000,NG12 4BS,2013-02-26,fhrs_5_en-GB,5,,FHRS,5
73405,Main Street,Rempstone,Nottinghamshire,,Guest House At Rempstone,Hotel/bed & breakfast/guest house,7842,5,,266252,5,,52.81360700000000,38053/0955/2/000,266,envhealth@rushcliffe.gov.uk,Rushcliffe,http://www.rushcliffe.gov.uk/,-1.13926400000000,LE12 6RN,2014-03-27,fhrs_5_en-GB,5,,FHRS,5
73406,Highthorn Farm,Leake Road,Gotham,Nottinghamshire,Gunn Farm Shop,Retailers - other,4613,0,,265935,0,,52.85117100000000,20151/0325/2/001,266,envhealth@rushcliffe.gov.uk,Rushcliffe,http://www.rushcliffe.gov.uk/,-1.18859500000000,NG11 0LE,2010-02-19,fhrs_5_en-GB,5,,FHRS,0
73407,11 Nottingham Road,Cropwell Bishop,Nottinghamshire,,H A Barlow And Son,Manufacturers/packers,7839,10,,265833,5,,52.91229700000000,12178/0011/0/001,266,envhealth@rushcliffe.gov.uk,Rushcliffe,http://www.rushcliffe.gov.uk/,-0.98675800000000,NG12 3BP,2013-09-10,fhrs_4_en-GB,4,,FHRS,5
73408,101 Melton Road,West Bridgford,Nottinghamshire,,Hambleton Bakery,Retailers - other,4613,10,,680969,0,,52.92592000000000,14/00033/FOOD,266,envhealth@rushcliffe.gov.uk,Rushcliffe,http://www.rushcliffe.gov.uk/,-1.12772700000000,NG2 6ET,2014-07-03,fhrs_4_en-GB,4,,FHRS,5
73409,29 Church Street,Ruddington,Nottinghamshire,,Happy Garden,Takeaway/sandwich shop,7844,5,,265822,10,,52.89228900000000,39167/0029/0/000,266,envhealth@rushcliffe.gov.uk,Rushcliffe,http://www.rushcliffe.gov.uk/,-1.14997000000000,NG11 6HA,2014-08-28,fhrs_4_en-GB,4,,FHRS,5
73410,24 Hilton Crescent,West Bridgford,Nottinghamshire,,Harringtons Fine Foods,Retailers - other,4613,5,,633500,5,,52.92061000000000,13/00036/FOOD,266,envhealth@rushcliffe.gov.uk,Rushcliffe,http://www.rushcliffe.gov.uk/,-1.11117500000000,NG2 6HT,2014-02-13,fhrs_5_en-GB,5,,FHRS,5
73411,Unit 18,Manvers Business Park,High Hazles Road,Cotgrave,Hartland Pies Ltd,Manufacturers/packers,7839,5,,576852,5,,52.91449400000000,12/00042/FOOD,266,envhealth@rushcliffe.gov.uk,Rushcliffe,http://www.rushcliffe.gov.uk/,-1.03468200000000,NG12 3GZ,2013-07-30,fhrs_5_en-GB,5,,FHRS,0
73412,Radcliffe Road,Holme Pierrepont,Nottinghamshire,,Haveli,Restaurant/Cafe/Canteen,1,10,,664748,5,,52.93455900000000,13/00080/FOOD,266,envhealth@rushcliffe.gov.uk,Rushcliffe,http://www.rushcliffe.gov.uk/,-1.08003200000000,NG12 2LF,2013-12-12,fhrs_4_en-GB,4,,FHRS,5
73413,Grantham Road,Whatton,Nottinghamshire,,Haven In The Vale Hotel,Hotel/bed & breakfast/guest house,7842,5,,265885,5,,52.94457000000000,16001/0576/2/000,266,envhealth@rushcliffe.gov.uk,Rushcliffe,http://www.rushcliffe.gov.uk/,-0.89014900000000,NG13 9EU,2014-05-15,fhrs_5_en-GB,5,,FHRS,5
73414,5 Gotham Road,East Leake,Nottinghamshire,,Heat Restaurant,Restaurant/Cafe/Canteen,1,5,,265850,5,,52.83406600000000,08/00033/COMMER,266,envhealth@rushcliffe.gov.uk,Rushcliffe,http://www.rushcliffe.gov.uk/,-1.17711300000000,LE12 6JG,2015-01-14,fhrs_5_en-GB,5,,FHRS,5
73415,,,,,Hey Pesto Nottingham Ltd,Other catering premises,7841,10,,266106,5,,,11/00005/FOOD,266,envhealth@rushcliffe.gov.uk,Rushcliffe,http://www.rushcliffe.gov.uk/,,,2013-04-15,fhrs_4_en-GB,4,,FHRS,5
73416,Waddington Drive,West Bridgford,Nottinghamshire,,Heymann Primary School,School/college/university,7845,5,,266362,5,,52.91755000000000,57165/0602/2/000,266,envhealth@rushcliffe.gov.uk,Rushcliffe,http://www.rushcliffe.gov.uk/,-1.14244100000000,NG2 7GX,2015-01-09,fhrs_5_en-GB,5,,FHRS,5
73417,Main Street,Hickling,Melton Mowbray,Leicstershire,Hickling Village Hall,Other catering premises,7841,,,266333,,,52.85305500000000,23069/0584/2/000,266,envhealth@rushcliffe.gov.uk,Rushcliffe,http://www.rushcliffe.gov.uk/,-0.97520300000000,LE14 3AJ,2012-03-27,fhrs_exempt_en-GB,Exempt,,FHRS,
73418,66-68 Loughborough Road,West Bridgford,Nottinghamshire,,Hickory House Day Nursery,Hospitals/Childcare/Caring Premises,5,0,,266344,5,,52.93084800000000,56202/0068/2/000,266,envhealth@rushcliffe.gov.uk,Rushcliffe,http://www.rushcliffe.gov.uk/,-1.13783400000000,NG2 7JJ,2014-06-18,fhrs_5_en-GB,5,,FHRS,0
73419,,,,,Higglers House,Retailers - other,4613,,,465663,,,,12/00130/FOOD,266,envhealth@rushcliffe.gov.uk,Rushcliffe,http://www.rushcliffe.gov.uk/,,,2012-11-05,fhrs_exempt_en-GB,Exempt,,FHRS,
73420,24b High Street,Ruddington,Nottinghamshire,,High Spirits,Retailers - other,4613,,,266274,,,52.89134100000000,39338/0024/B/000,266,envhealth@rushcliffe.gov.uk,Rushcliffe,http://www.rushcliffe.gov.uk/,-1.14940900000000,NG11 6EA,2012-03-22,fhrs_exempt_en-GB,Exempt,,FHRS,
73421,Bunny Hill,Bunny,Nottinghamshire,,Hillside Farm,Hospitals/Childcare/Caring Premises,5,5,,265872,0,,52.84827600000000,06014/0904/2/000,266,envhealth@rushcliffe.gov.uk,Rushcliffe,http://www.rushcliffe.gov.uk/,-1.14247000000000,NG11 6QQ,2013-07-12,fhrs_5_en-GB,5,,FHRS,0
73422,New Lane,Whatton,Nottinghamshire,,HMP Whatton,Other catering premises,7841,,,265987,,,52.94678500000000,59079/0801/2/000,266,envhealth@rushcliffe.gov.uk,Rushcliffe,http://www.rushcliffe.gov.uk/,-0.91189600000000,NG13 9FQ,2014-03-28,fhrs_exempt_en-GB,Exempt,,FHRS,
73423,,,,,Holly's Chalming Cakes,Other catering premises,7841,10,,505307,5,,,12/00085/FOOD,266,envhealth@rushcliffe.gov.uk,Rushcliffe,http://www.rushcliffe.gov.uk/,,,2012-08-03,fhrs_4_en-GB,4,,FHRS,0
73424,Victoria Road,West Bridgford,Nottinghamshire,,Holy Spirit Catholic Social Club,Other catering premises,7841,,,265936,,,52.92994100000000,57120/0100/2/000,266,envhealth@rushcliffe.gov.uk,Rushcliffe,http://www.rushcliffe.gov.uk/,-1.13676600000000,NG2 7JW,2012-03-28,fhrs_exempt_en-GB,Exempt,,FHRS,
73425,25 Long Acre,Bingham,Nottinghamshire,,Horse And Plough,Pub/bar/nightclub,7843,5,,265788,5,,52.95141000000000,03538/0025/0/000,266,envhealth@rushcliffe.gov.uk,Rushcliffe,http://www.rushcliffe.gov.uk/,-0.95440900000000,NG13 8AF,2014-08-28,fhrs_5_en-GB,5,,FHRS,5
73426,Unit 9,Cotgrave Shopping Centre,Candleby Lane,Cotgrave,Hot Pots Cafe,Restaurant/Cafe/Canteen,1,10,,266365,5,,52.91061500000000,10/00108/FOOD,266,envhealth@rushcliffe.gov.uk,Rushcliffe,http://www.rushcliffe.gov.uk/,-1.03749000000000,NG12 3JQ,2014-09-18,fhrs_4_en-GB,4,,FHRS,5
73427,11 Shelford Road,Radcliffe On Trent,Nottinghamshire,,Humble Cat,Restaurant/Cafe/Canteen,1,5,,265993,5,,52.94769700000000,05/00015/COMMER,266,envhealth@rushcliffe.gov.uk,Rushcliffe,http://www.rushcliffe.gov.uk/,-1.03970300000000,NG12 2AE,2014-09-05,fhrs_4_en-GB,4,,FHRS,10
73428,26 Tudor Square,West Bridgford,Nottinghamshire,,Iceland,Retailers - supermarkets/hypermarkets,7840,5,,266055,5,,52.93131300000000,57075/0026/0/000,266,envhealth@rushcliffe.gov.uk,Rushcliffe,http://www.rushcliffe.gov.uk/,-1.12645800000000,NG2 6BT,2013-03-04,fhrs_5_en-GB,5,,FHRS,5
73429,7 Eaton Place,Bingham,Nottinghamshire,,India,Takeaway/sandwich shop,7844,,,266204,,,52.95220000000000,05/00022/COMMER,266,envhealth@rushcliffe.gov.uk,Rushcliffe,http://www.rushcliffe.gov.uk/,-0.95333300000000,NG13 8BD,2013-09-17,fhrs_5_en-GB,5,,FHRS,
73430,10 Main Road,Radcliffe On Trent,Nottinghamshire,,Indian Nights,Takeaway/sandwich shop,7844,5,,265868,5,,52.94710700000000,09/00023/FOOD,266,envhealth@rushcliffe.gov.uk,Rushcliffe,http://www.rushcliffe.gov.uk/,-1.03897200000000,NG12 2FH,2013-08-28,fhrs_5_en-GB,5,,FHRS,5
73431,75 Fosse Way,East Bridgford,Nottinghamshire,,Indian Nights,Other catering premises,7841,5,,265965,5,,52.97384500000000,11/00002/FOOD,266,envhealth@rushcliffe.gov.uk,Rushcliffe,http://www.rushcliffe.gov.uk/,-0.95208000000000,NG13 8LA,2014-02-18,fhrs_5_en-GB,5,,FHRS,5
73432,77 Melton Road,West Bridgford,Nottinghamshire,,Indian Nights,Takeaway/sandwich shop,7844,5,,265748,5,,52.92738000000000,56337/0077/0/000,266,envhealth@rushcliffe.gov.uk,Rushcliffe,http://www.rushcliffe.gov.uk/,-1.12951300000000,NG2 6EN,2013-12-11,fhrs_5_en-GB,5,,FHRS,5
73433,The Hall,Nottingham Road,Keyworth,Nottinghamshire,Indian Nights,Restaurant/Cafe/Canteen,1,5,,266118,5,,52.87353600000000,25404/0609/2/000,266,envhealth@rushcliffe.gov.uk,Rushcliffe,http://www.rushcliffe.gov.uk/,-1.08915300000000,NG12 5FD,2014-02-27,fhrs_5_en-GB,5,,FHRS,5
73434,16 Main Street,East Bridgford,Nottinghamshire,,Inskips,Retailers - other,4613,5,,265753,5,,52.98025500000000,14203/0016/0/000,266,envhealth@rushcliffe.gov.uk,Rushcliffe,http://www.rushcliffe.gov.uk/,-0.96954500000000,NG13 8PA,2012-03-26,fhrs_5_en-GB,5,,FHRS,5
73435,,,,,Its All Greek To Me,Mobile caterer,7846,0,,265887,5,,,09/00054/FOOD,266,envhealth@rushcliffe.gov.uk,Rushcliffe,http://www.rushcliffe.gov.uk/,,,2013-06-03,fhrs_5_en-GB,5,,FHRS,0
73436,Snack Bar At Lay By,Melton Road,Widmerpool,Nottinghamshire,J D Catering Gourmet Grill,Mobile caterer,7846,5,,265699,0,,53.14605712890625,12/00001/FOOD,266,envhealth@rushcliffe.gov.uk,Rushcliffe,http://www.rushcliffe.gov.uk/,-0.99268501996994,NG12 5QH,2014-03-28,fhrs_5_en-GB,5,,FHRS,0
73437,Manor Park,Ruddington,Nottinghamshire,,James Peacock Infant And Nursery School,School/college/university,7845,5,,265806,5,,52.89396286010742,39428/0916/2/000,266,envhealth@rushcliffe.gov.uk,Rushcliffe,http://www.rushcliffe.gov.uk/,-1.15288019180298,NG11 6DS,2014-03-05,fhrs_5_en-GB,5,,FHRS,5
73438,Manor Park,Ruddington,Nottinghamshire,,James Peacock Infant And Nursery School Extended Care,School/college/university,7845,10,,266249,5,,52.89396286010742,04/00039/COMMER,266,envhealth@rushcliffe.gov.uk,Rushcliffe,http://www.rushcliffe.gov.uk/,-1.15288019180298,NG11 6DS,2010-03-09,fhrs_4_en-GB,4,,FHRS,0
73439,Redmile Lane,Elton,Nottinghamshire,,Jansons Fishery,Takeaway/sandwich shop,7844,5,,266098,0,,52.94071200000000,10/00096/FOOD,266,envhealth@rushcliffe.gov.uk,Rushcliffe,http://www.rushcliffe.gov.uk/,-0.85960800000000,NG13 9LA,2014-03-20,fhrs_5_en-GB,5,,FHRS,0
73440,87 Wolds Drive,Keyworth,Nottinghamshire,,Jasmine House,Takeaway/sandwich shop,7844,5,,266153,5,,52.87489100000000,25584/0087/2/000,266,envhealth@rushcliffe.gov.uk,Rushcliffe,http://www.rushcliffe.gov.uk/,-1.08306300000000,NG12 5FT,2014-02-13,fhrs_4_en-GB,4,,FHRS,10
73441,,,,,JD Catering,Mobile caterer,7846,5,,704086,5,,,14/00053/FOOD,266,envhealth@rushcliffe.gov.uk,Rushcliffe,http://www.rushcliffe.gov.uk/,,,2014-09-23,fhrs_5_en-GB,5,,FHRS,5
73442,Fosse Way,Stanton On The Wolds,Nottinghamshire,,Jerico Farm,Hotel/bed & breakfast/guest house,7842,0,,265831,0,,52.88631300000000,47037/0502/2/000,266,envhealth@rushcliffe.gov.uk,Rushcliffe,http://www.rushcliffe.gov.uk/,-1.03153300000000,NG12 3HG,2013-03-27,fhrs_5_en-GB,5,,FHRS,0
73443,Musters Road,West Bridgford,Nottinghamshire,,Jesse Gray Primary School,School/college/university,7845,5,,265920,5,,52.91804800000000,56418/0259/2/000,266,envhealth@rushcliffe.gov.uk,Rushcliffe,http://www.rushcliffe.gov.uk/,-1.13059200000000,NG2 7DD,2013-11-27,fhrs_5_en-GB,5,,FHRS,5
73444,Loughborough Road,Bunny,Nottinghamshire,,Jet Service Station,Retailers - other,4613,,,266280,,,52.86068100000000,06050/0904/2/000,266,envhealth@rushcliffe.gov.uk,Rushcliffe,http://www.rushcliffe.gov.uk/,-1.13369900000000,NG11 6QT,2010-11-08,fhrs_exempt_en-GB,Exempt,,FHRS,
73445,Langar Industrial Estate,Harby Road,Langar,Nottinghamshire,John Deere Limited,Restaurant/Cafe/Canteen,1,0,,266083,5,,52.88984900000000,29087/0501/2/000,266,envhealth@rushcliffe.gov.uk,Rushcliffe,http://www.rushcliffe.gov.uk/,-0.90658900000000,NG13 9HY,2013-08-29,fhrs_5_en-GB,5,,FHRS,0
73446,89 Wolds Drive,Keyworth,Nottinghamshire,,Johnson's Butchers,Retailers - other,4613,5,,265695,5,,52.87489100000000,25584/0089/0/000,266,envhealth@rushcliffe.gov.uk,Rushcliffe,http://www.rushcliffe.gov.uk/,-1.08306300000000,NG12 5FT,2013-12-18,fhrs_5_en-GB,5,,FHRS,5
73447,9 Church Street,Ruddington,Nottinghamshire,,Julia's Kitchen,Restaurant/Cafe/Canteen,1,10,,480315,10,,,12/00119/FOOD,266,envhealth@rushcliffe.gov.uk,Rushcliffe,http://www.rushcliffe.gov.uk/,,,2014-05-07,fhrs_3_en-GB,3,,FHRS,10
73448,,,,,Kate's Catering,Restaurant/Cafe/Canteen,1,5,,447948,0,,,12/00088/FOOD,266,envhealth@rushcliffe.gov.uk,Rushcliffe,http://www.rushcliffe.gov.uk/,,,2014-02-20,fhrs_5_en-GB,5,,FHRS,5
73449,Bunny Lane,Keyworth,Nottinghamshire,,Key VI Fitness,Other catering premises,7841,0,,266356,5,,52.87143000000000,25089/0526/2/000,266,envhealth@rushcliffe.gov.uk,Rushcliffe,http://www.rushcliffe.gov.uk/,-1.09361000000000,NG12 5JU,2014-03-11,fhrs_5_en-GB,5,,FHRS,5
73450,79 Wolds Drive,Keyworth,Nottinghamshire,,Keyworth Fish Bar,Takeaway/sandwich shop,7844,5,,465651,5,,52.87489100000000,09/00094/FOOD,266,envhealth@rushcliffe.gov.uk,Rushcliffe,http://www.rushcliffe.gov.uk/,-1.08306300000000,NG12 5FT,2014-05-14,fhrs_5_en-GB,5,,FHRS,5
73451,Church Drive,Keyworth,Nottinghamshire,,Keyworth Leisure Centre,Retailers - other,4613,,,265946,,,52.87401400000000,25125/0529/2/000,266,envhealth@rushcliffe.gov.uk,Rushcliffe,http://www.rushcliffe.gov.uk/,-1.08698900000000,NG12 5FF,2012-06-13,fhrs_exempt_en-GB,Exempt,,FHRS,
73452,Methodist Church,Selby Lane,Keyworth,Nottinghamshire,Keyworth Methodist Church,Other catering premises,7841,,,266148,,,52.87074000000000,25494/0633/2/000,266,envhealth@rushcliffe.gov.uk,Rushcliffe,http://www.rushcliffe.gov.uk/,-1.08567600000000,NG12 5AH,2012-03-22,fhrs_exempt_en-GB,Exempt,,FHRS,
73453,Nottingham Road,Keyworth,Nottinghamshire,,Keyworth Primary And Nursery School,School/college/university,7845,5,,266078,5,,52.87305800000000,25404/0607/2/000,266,envhealth@rushcliffe.gov.uk,Rushcliffe,http://www.rushcliffe.gov.uk/,-1.09018800000000,NG12 5FB,2015-02-04,fhrs_5_en-GB,5,,FHRS,0
73454,Willoughby Road,Widmerpool,Nottinghamshire,,Keyworth Rugby Football Club Limited,Pub/bar/nightclub,7843,5,,265890,10,,52.84791300000000,60098/0567/2/000,266,envhealth@rushcliffe.gov.uk,Rushcliffe,http://www.rushcliffe.gov.uk/,-1.06224900000000,NG12 5PQ,2010-12-17,fhrs_4_en-GB,4,,FHRS,0
73455,Fairway,Keyworth,Nottinghamshire,,Keyworth Tavern,Pub/bar/nightclub,7843,5,,266371,5,,53.14605712890625,25215/0547/2/000,266,envhealth@rushcliffe.gov.uk,Rushcliffe,http://www.rushcliffe.gov.uk/,-0.99268501996994,NG12 5DW,2013-09-10,fhrs_5_en-GB,5,,FHRS,0
73456,Playing Fields And Pavilion,Platt Lane,Keyworth,Nottinghamshire,Keyworth United Community Football Club,Other catering premises,7841,0,,265707,0,,52.88844900000000,25443/0646/2/000,266,envhealth@rushcliffe.gov.uk,Rushcliffe,http://www.rushcliffe.gov.uk/,-1.08786000000000,NG12 5NA,2011-03-24,fhrs_5_en-GB,5,,FHRS,5
73457,Village Hall,Village Hall,Elm Avenue,Keyworth,Keyworth Village Hall,Other catering premises,7841,5,,266315,5,,52.87206300000000,25188/0676/2/000,266,envhealth@rushcliffe.gov.uk,Rushcliffe,http://www.rushcliffe.gov.uk/,-1.08704500000000,NG12 5AN,2010-12-13,fhrs_5_en-GB,5,,FHRS,5
73458,Church Drive,Keyworth,Nottinghamshire,,Keyworth Young Peoples Centre,Restaurant/Cafe/Canteen,1,5,,265919,5,,52.87401400000000,09/00089/FOOD,266,envhealth@rushcliffe.gov.uk,Rushcliffe,http://www.rushcliffe.gov.uk/,-1.08698900000000,NG12 5FF,2012-06-25,fhrs_5_en-GB,5,,FHRS,5
73459,Community Centre,Kingfishers Court,West Bridgford,Nottinghamshire,Kingfisher Court Community Centre,Other catering premises,7841,,,266264,,,52.91680300000000,04/00013/COMMER,266,envhealth@rushcliffe.gov.uk,Rushcliffe,http://www.rushcliffe.gov.uk/,-1.10820500000000,NG2 6QF,2012-02-08,fhrs_exempt_en-GB,Exempt,,FHRS,
73460,Longhedge Lane,Sibthorpe,Nottinghamshire,,Kingfisher Lodge Portland Fishing Lakes Limited,Restaurant/Cafe/Canteen,1,5,,265709,5,,53.00085600000000,08/00050/COMMER,266,envhealth@rushcliffe.gov.uk,Rushcliffe,http://www.rushcliffe.gov.uk/,-0.86358300000000,NG23 5PN,2015-01-22,fhrs_5_en-GB,5,,FHRS,5
73461,Grantham Road,Bingham,Nottinghamshire,,Kings Service Station (St Albans Operating Company Ltd),Retailers - other,4613,5,,265732,5,,52.94832800000000,03439/0537/2/000,266,envhealth@rushcliffe.gov.uk,Rushcliffe,http://www.rushcliffe.gov.uk/,-0.93937600000000,NG13 8DF,2012-03-22,fhrs_5_en-GB,5,,FHRS,5
73462,Main Street,Kinoulton,Nottinghamshire,,Kinoulton Primary School,School/college/university,7845,0,,266306,5,,52.86832400000000,27096/0583/2/000,266,envhealth@rushcliffe.gov.uk,Rushcliffe,http://www.rushcliffe.gov.uk/,-1.00000900000000,NG12 3EL,2014-03-07,fhrs_5_en-GB,5,,FHRS,5
73463,Village Hall,Main Street,Kinoulton,Nottinghamshire,Kinoulton Village Hall,Other catering premises,7841,5,,265884,5,,52.86832400000000,27096/0582/2/000,266,envhealth@rushcliffe.gov.uk,Rushcliffe,http://www.rushcliffe.gov.uk/,-1.00000900000000,NG12 3EL,2012-03-28,fhrs_5_en-GB,5,,FHRS,5
73464,Compton Acres Shopping Centre,Compton Acres,West Bridgford,Nottinghamshire,L P Pharmacy,Retailers - other,4613,,,266193,,,52.91868500000000,55405/0503/2/000,266,envhealth@rushcliffe.gov.uk,Rushcliffe,http://www.rushcliffe.gov.uk/,-1.15274000000000,NG2 7RS,2014-03-17,fhrs_exempt_en-GB,Exempt,,FHRS,
73465,37 Long Acre,Bingham,Nottinghamshire,,La  Coquette,Restaurant/Cafe/Canteen,1,5,,704085,5,,52.95141000000000,13/00041/FOOD,266,envhealth@rushcliffe.gov.uk,Rushcliffe,http://www.rushcliffe.gov.uk/,-0.95440900000000,NG13 8AF,2014-08-15,fhrs_5_en-GB,5,,FHRS,5
73466,147 Trent Boulevard,West Bridgford,Nottinghamshire,,Lady Bay Cafe,Restaurant/Cafe/Canteen,1,5,,266028,10,,52.93830000000000,57003/0147/2/002,266,envhealth@rushcliffe.gov.uk,Rushcliffe,http://www.rushcliffe.gov.uk/,-1.11581300000000,NG2 5BX,2013-08-20,fhrs_3_en-GB,3,,FHRS,10
73467,108 Trent Boulevard,West Bridgford,Nottinghamshire,,Lady Bay Fish And Chips,Takeaway/sandwich shop,7844,5,,266145,5,,52.93818300000000,57003/0108/2/000,266,envhealth@rushcliffe.gov.uk,Rushcliffe,http://www.rushcliffe.gov.uk/,-1.11934200000000,NG2 5BL,2014-02-13,fhrs_5_en-GB,5,,FHRS,0
73468,All Hallows Church And Hall,Pierrepont Road,West Bridgford,Nottinghamshire,Lady Bay Out Of School Club,School/college/university,7845,5,,265906,5,,52.93932400000000,56571/0505/2/000,266,envhealth@rushcliffe.gov.uk,Rushcliffe,http://www.rushcliffe.gov.uk/,-1.11922900000000,NG2 5BP,2010-03-30,fhrs_5_en-GB,5,,FHRS,5
73469,Trent Boulevard,West Bridgford,Nottinghamshire,,Lady Bay Primary School,School/college/university,7845,5,,265796,5,,52.93837000000000,57003/0607/2/000,266,envhealth@rushcliffe.gov.uk,Rushcliffe,http://www.rushcliffe.gov.uk/,-1.12274500000000,NG2 5BD,2013-03-18,fhrs_4_en-GB,4,,FHRS,10
73470,89 Trent Boulevard,West Bridgford,Nottinghamshire,,Lady Bay Public House,Pub/bar/nightclub,7843,5,,265864,5,,52.93865300000000,57003/0089/2/000,266,envhealth@rushcliffe.gov.uk,Rushcliffe,http://www.rushcliffe.gov.uk/,-1.12211500000000,NG2 5BE,2014-09-15,fhrs_5_en-GB,5,,FHRS,5
73471,Barnstone Road,Langar,Nottinghamshire,,Langar Church Of England School,School/college/university,7845,5,,586763,5,,52.90493300000000,09/00036/FOOD,266,envhealth@rushcliffe.gov.uk,Rushcliffe,http://www.rushcliffe.gov.uk/,-0.92518100000000,NG13 9HH,2013-09-13,fhrs_5_en-GB,5,,FHRS,0
73472,Church Lane,Langar,Nottinghamshire,,Langar Hall,Hotel/bed & breakfast/guest house,7842,10,,265927,5,,52.90431700000000,29035/0513/2/000,266,envhealth@rushcliffe.gov.uk,Rushcliffe,http://www.rushcliffe.gov.uk/,-0.92759000000000,NG13 9HG,2014-12-10,fhrs_4_en-GB,4,,FHRS,5
73473,Lantern Lane,East Leake,Nottinghamshire,,Lantern Lane Primary School,School/college/university,7845,5,,265735,0,,52.83648900000000,15258/0901/2/000,266,envhealth@rushcliffe.gov.uk,Rushcliffe,http://www.rushcliffe.gov.uk/,-1.17524100000000,LE12 6QN,2014-01-22,fhrs_5_en-GB,5,,FHRS,0
73474,Fox Road,West Bridgford,Nottinghamshire,,Larwood And Voce Tavern,Pub/bar/nightclub,7843,10,,265870,5,,52.93727500000000,55725/0500/2/000,266,envhealth@rushcliffe.gov.uk,Rushcliffe,http://www.rushcliffe.gov.uk/,-1.13029600000000,NG2 6AJ,2013-12-04,fhrs_4_en-GB,4,,FHRS,5
73475,Hilton Crescent,West Bridgford,Nottinghamshire,,Leawood Manor,Other catering premises,7841,0,,265711,5,,52.92116500000000,06/00058/COMMER,266,envhealth@rushcliffe.gov.uk,Rushcliffe,http://www.rushcliffe.gov.uk/,-1.10960200000000,NG2 6HY,2014-09-18,fhrs_5_en-GB,5,,FHRS,5
73476,,,,,Leighs Snack Bar,Mobile caterer,7846,5,,266074,5,,,10/00095/FOOD,266,envhealth@rushcliffe.gov.uk,Rushcliffe,http://www.rushcliffe.gov.uk/,,,2014-08-14,fhrs_5_en-GB,5,,FHRS,5
73477,1 Julian Road,West Bridgford,Nottinghamshire,,Leonard Cheshire Holme Lodge,Hospitals/Childcare/Caring Premises,5,5,,266048,5,,52.94033500000000,56040/0001/0/000,266,envhealth@rushcliffe.gov.uk,Rushcliffe,http://www.rushcliffe.gov.uk/,-1.11501200000000,NG2 5AQ,2014-07-02,fhrs_5_en-GB,5,,FHRS,0
73478,16 Albert Road,West Bridgford,Nottinghamshire,,Leo's Children's Nursery Ltd,Restaurant/Cafe/Canteen,1,5,,265830,5,,52.93272500000000,11/00046/FOOD,266,envhealth@rushcliffe.gov.uk,Rushcliffe,http://www.rushcliffe.gov.uk/,-1.12402000000000,NG2 5GS,2014-09-17,fhrs_5_en-GB,5,,FHRS,5
73479,Leys Court Community Centre,Leys Court,Ruddington,Nottinghamshire,Leys Court Community Centre,Other catering premises,7841,,,265701,,,52.88859700000000,39382/0098/1/000,266,envhealth@rushcliffe.gov.uk,Rushcliffe,http://www.rushcliffe.gov.uk/,-1.14901600000000,NG11 6JR,2012-01-31,fhrs_exempt_en-GB,Exempt,,FHRS,
73480,,,,,Linds Lane Larder,Other catering premises,7841,5,,265751,5,,,12/00035/FOOD,266,envhealth@rushcliffe.gov.uk,Rushcliffe,http://www.rushcliffe.gov.uk/,,,2012-03-08,fhrs_5_en-GB,5,,FHRS,5
73481,Tarkwa,Adbolton Lane,Holme Pierrepont,Nottinghamshire,Little Friends Nottingham Limited,Hospitals/Childcare/Caring Premises,5,5,,266146,5,,52.93996100000000,06/00048/COMMER,266,envhealth@rushcliffe.gov.uk,Rushcliffe,http://www.rushcliffe.gov.uk/,-1.10710400000000,NG2 5AS,2015-02-06,fhrs_5_en-GB,5,,FHRS,5
73482,Manor Arms,Main Road,Elton,Nottinghamshire,Little India,Restaurant/Cafe/Canteen,1,10,,266267,10,,52.94240700000000,08/00040/COMMER,266,envhealth@rushcliffe.gov.uk,Rushcliffe,http://www.rushcliffe.gov.uk/,-0.86008400000000,NG13 9LB,2014-03-05,fhrs_3_en-GB,3,,FHRS,10
73483,University Of Nottingham Londis Sho,College Road,Sutton Bonington,Nottinghamshire,Londis Shop,Retailers - other,4613,5,,266107,5,,52.83039700000000,07/00017/COMMER,266,envhealth@rushcliffe.gov.uk,Rushcliffe,http://www.rushcliffe.gov.uk/,-1.25173700000000,LE12 5NT,2014-10-22,fhrs_5_en-GB,5,,FHRS,0
73484,,,,,M C Catering,Mobile caterer,7846,5,,265979,0,,,08/00100/FOOD,266,envhealth@rushcliffe.gov.uk,Rushcliffe,http://www.rushcliffe.gov.uk/,,,2013-03-07,fhrs_5_en-GB,5,,FHRS,0
73485,75a Main Street,East Leake,Nottinghamshire,,Manhattan Pizzas,Takeaway/sandwich shop,7844,10,,265912,10,,52.83158900000000,15276/0075/A/000,266,envhealth@rushcliffe.gov.uk,Rushcliffe,http://www.rushcliffe.gov.uk/,-1.17637300000000,LE12 6PF,2013-06-04,fhrs_3_en-GB,3,,FHRS,10
73486,Manor Farm,Castle Hill,East Leake,Nottinghamshire,Manor Farm Animal Centre And East Leake Day Nursery,School/college/university,7845,5,,266112,5,,52.82779300000000,15132/0901/2/000,266,envhealth@rushcliffe.gov.uk,Rushcliffe,http://www.rushcliffe.gov.uk/,-1.17350600000000,LE12 6LU,2015-01-21,fhrs_5_en-GB,5,,FHRS,5
73487,185 Loughborough Road,West Bridgford,Nottinghamshire,,Manor Pharmacy,Retailers - other,4613,,,266326,,,52.92312000000000,56202/0185/0/000,266,envhealth@rushcliffe.gov.uk,Rushcliffe,http://www.rushcliffe.gov.uk/,-1.13577100000000,NG2 7JR,2014-03-28,fhrs_exempt_en-GB,Exempt,,FHRS,
73488,97A Melton Road,West Bridgford,Nottinghamshire,,Manor Pharmacy,Retailers - other,4613,,,266161,,,52.92738000000000,56337/0097/A/000,266,envhealth@rushcliffe.gov.uk,Rushcliffe,http://www.rushcliffe.gov.uk/,-1.12951300000000,NG2 6EN,2014-03-28,fhrs_exempt_en-GB,Exempt,,FHRS,
73489,93 Wolds Drive,Keyworth,Nottinghamshire,,Mario's Pizza,Takeaway/sandwich shop,7844,5,,265836,5,,52.87489100000000,05/00050/COMMER,266,envhealth@rushcliffe.gov.uk,Rushcliffe,http://www.rushcliffe.gov.uk/,-1.08306300000000,NG12 5FT,2013-10-09,fhrs_4_en-GB,4,,FHRS,10
73490,1A Albert Road,West Bridgford,Nottinghamshire,,Marks And Spencer,Retailers - other,4613,0,,266322,0,,52.93272500000000,05/00048/COMMER,266,envhealth@rushcliffe.gov.uk,Rushcliffe,http://www.rushcliffe.gov.uk/,-1.12402000000000,NG2 5GS,2013-08-20,fhrs_5_en-GB,5,,FHRS,0
73491,3 The Square,Keyworth,Nottinghamshire,,Martins,Retailers - other,4613,0,,265952,0,,52.87116300000000,06/00031/COMMER,266,envhealth@rushcliffe.gov.uk,Rushcliffe,http://www.rushcliffe.gov.uk/,-1.09034700000000,NG12 5JT,2014-03-28,fhrs_5_en-GB,5,,FHRS,5
73492,3 Melton Road,West Bridgford,Nottinghamshire,,Mastersons,Hotel/bed & breakfast/guest house,7842,5,,265750,5,,52.93151000000000,56337/0003/0/000,266,envhealth@rushcliffe.gov.uk,Rushcliffe,http://www.rushcliffe.gov.uk/,-1.13611000000000,NG2 7NW,2012-03-26,fhrs_5_en-GB,5,,FHRS,5
73493,24D High Street,Ruddington,Nottinghamshire,,Mathews Cafe & Deli,Restaurant/Cafe/Canteen,1,5,,624271,5,,52.89134100000000,13/00020/FOOD,266,envhealth@rushcliffe.gov.uk,Rushcliffe,http://www.rushcliffe.gov.uk/,-1.14940900000000,NG11 6EA,2014-12-10,fhrs_5_en-GB,5,,FHRS,5
73494,,,,,Maurish Celebration Cakes,Retailers - other,4613,0,,584081,0,,,13/00050/COMMER,266,envhealth@rushcliffe.gov.uk,Rushcliffe,http://www.rushcliffe.gov.uk/,,,2013-09-10,fhrs_5_en-GB,5,,FHRS,0
73495,12 The Square,Keyworth,Nottinghamshire,,Mayflower,Takeaway/sandwich shop,7844,5,,265764,5,,52.87116300000000,08/00034/COMMER,266,envhealth@rushcliffe.gov.uk,Rushcliffe,http://www.rushcliffe.gov.uk/,-1.09034700000000,NG12 5JT,2013-02-13,fhrs_5_en-GB,5,,FHRS,5
73496,6 Wilford Road,Ruddington,Nottinghamshire,,McArtney's,Restaurant/Cafe/Canteen,1,0,,664744,5,,52.89348300000000,13/00008/FOOD,266,envhealth@rushcliffe.gov.uk,Rushcliffe,http://www.rushcliffe.gov.uk/,-1.14964900000000,NG11 6EN,2014-10-15,fhrs_5_en-GB,5,,FHRS,0
73497,55A Radcliffe Road,West Bridgford,Nottinghamshire,,McDonalds Restaurants Ltd,Restaurant/Cafe/Canteen,1,0,,265957,0,,52.93871400000000,56616/0055/2/000,266,envhealth@rushcliffe.gov.uk,Rushcliffe,http://www.rushcliffe.gov.uk/,-1.12924100000000,NG2 5FX,2014-02-14,fhrs_5_en-GB,5,,FHRS,5
73498,Rushcliffe School,Boundary Road,West Bridgford,Nottinghamshire,Mellors Catering Ltd,School/college/university,7845,5,,265810,0,,52.91710100000000,55131/0017/2/000,266,envhealth@rushcliffe.gov.uk,Rushcliffe,http://www.rushcliffe.gov.uk/,-1.12406700000000,NG2 7BW,2014-02-11,fhrs_5_en-GB,5,,FHRS,0
73499,Miahs Restaurant,Nottingham Airport,Tollerton Lane,Tollerton,Miahs,Restaurant/Cafe/Canteen,1,,,579499,,,52.91190900000000,13/00025/FOOD,266,envhealth@rushcliffe.gov.uk,Rushcliffe,http://www.rushcliffe.gov.uk/,-1.08406600000000,NG12 4GA,2013-05-21,fhrs_3_en-GB,3,,FHRS,
73500,Millfield House,Tithby Road,Cropwell Butler,Nottinghamshire,Millfield Nursery School Tythby Road Cropwell Butler,School/college/university,7845,5,,266342,5,,52.92434300000000,13107/0650/2/001,266,envhealth@rushcliffe.gov.uk,Rushcliffe,http://www.rushcliffe.gov.uk/,-0.97310400000000,NG12 3AJ,2014-10-09,fhrs_5_en-GB,5,,FHRS,0
73501,12 Musters Road,West Bridgford,Nottinghamshire,,Mister Pizza,Restaurant/Cafe/Canteen,1,10,,266291,10,,52.93532900000000,56418/0012/0/001,266,envhealth@rushcliffe.gov.uk,Rushcliffe,http://www.rushcliffe.gov.uk/,-1.13340000000000,NG2 7PL,2015-01-13,fhrs_3_en-GB,3,,FHRS,10
73502,,,,,Mobile Candy Floss Van,Mobile caterer,7846,5,,265881,5,,,10037/0906/2/000,266,envhealth@rushcliffe.gov.uk,Rushcliffe,http://www.rushcliffe.gov.uk/,,,2012-03-22,fhrs_5_en-GB,5,,FHRS,5
73503,Moores Nursery,156 Melton Road,Stanton On The Wolds,Nottinghamshire,Moores Nurseries And Garden Centre (Cafe),Restaurant/Cafe/Canteen,1,10,,265696,5,,52.87211400000000,08/00078/FOOD,266,envhealth@rushcliffe.gov.uk,Rushcliffe,http://www.rushcliffe.gov.uk/,-1.05101500000000,NG12 5BQ,2013-09-06,fhrs_4_en-GB,4,,FHRS,5
73504,Moor Lane,Bingham,Nottinghamshire,,Moorlands Day Centre,Hospitals/Childcare/Caring Premises,5,0,,265692,0,,52.95346900000000,09/00071/FOOD,266,envhealth@rushcliffe.gov.uk,Rushcliffe,http://www.rushcliffe.gov.uk/,-0.95340600000000,NG13 8AS,2012-02-15,fhrs_5_en-GB,5,,FHRS,0
73505,,,,,More Than A Cake,Other catering premises,7841,5,,505305,5,,,10/00029/COMMER,266,envhealth@rushcliffe.gov.uk,Rushcliffe,http://www.rushcliffe.gov.uk/,,,2013-02-04,fhrs_5_en-GB,5,,FHRS,5
73506,Ambleside,Gamston,Nottinghamshire,,Morrisons,Retailers - supermarkets/hypermarkets,7840,5,,265825,10,,53.14605712890625,05/00026/COMMER,266,envhealth@rushcliffe.gov.uk,Rushcliffe,http://www.rushcliffe.gov.uk/,-0.99268501996994,NG2 6PT,2013-07-23,fhrs_4_en-GB,4,,FHRS,5
73507,,,,,Mr C Armitage,Other catering premises,7841,,,480317,,,,12/00132/FOOD,266,envhealth@rushcliffe.gov.uk,Rushcliffe,http://www.rushcliffe.gov.uk/,,,2014-07-09,fhrs_exempt_en-GB,Exempt,,FHRS,
73508,Blackberry Farm,Wolds Lane,Clipston On The Wolds,Nottinghamshire,Mr T D Harker Harkers Farm Shop,Retailers - other,4613,5,,266211,5,,52.90010600000000,08034/0524/2/000,266,envhealth@rushcliffe.gov.uk,Rushcliffe,http://www.rushcliffe.gov.uk/,-1.05648400000000,NG12 5PB,2013-10-17,fhrs_5_en-GB,5,,FHRS,0
73509,112 Melton Road,West Bridgford,Nottinghamshire,,MRH Retail,Retailers - other,4613,0,,266121,5,,52.92694100000000,56337/0112/0/000,266,envhealth@rushcliffe.gov.uk,Rushcliffe,http://www.rushcliffe.gov.uk/,-1.12973000000000,NG2 6EP,2014-09-17,fhrs_5_en-GB,5,,FHRS,5
73510,28 Musters Road,West Bridgford,Nottinghamshire,,Mrs Bunns,Takeaway/sandwich shop,7844,10,,265909,10,,52.93532900000000,56418/0028/0/000,266,envhealth@rushcliffe.gov.uk,Rushcliffe,http://www.rushcliffe.gov.uk/,-1.13340000000000,NG2 7PL,2013-05-31,fhrs_3_en-GB,3,,FHRS,10
73511,,,,,Mrs Pugh's Preserves,Other catering premises,7841,,,266043,,,,11/00098/FOOD,266,envhealth@rushcliffe.gov.uk,Rushcliffe,http://www.rushcliffe.gov.uk/,,,2011-10-18,fhrs_exempt_en-GB,Exempt,,FHRS,
73512,1A Radcliffe Road,West Bridgford,Nottinghamshire,,MSR News,Retailers - other,4613,,,265801,,,52.93810200000000,56616/0001/A/001,266,envhealth@rushcliffe.gov.uk,Rushcliffe,http://www.rushcliffe.gov.uk/,-1.13275000000000,NG2 5FF,2010-11-08,fhrs_exempt_en-GB,Exempt,,FHRS,
73513,3 Central Avenue,West Bridgford,Nottinghamshire,,Mud Crab Pacifico,Restaurant/Cafe/Canteen,1,5,,265698,5,,52.93186000000000,08/00007/COMMER,266,envhealth@rushcliffe.gov.uk,Rushcliffe,http://www.rushcliffe.gov.uk/,-1.12620900000000,NG2 5GQ,2013-10-22,fhrs_5_en-GB,5,,FHRS,0
73514,45 St Marys Road,Bingham,Nottinghamshire,,Munchies,Mobile caterer,7846,5,,266233,5,,52.95341900000000,03/00024/FOOD,266,envhealth@rushcliffe.gov.uk,Rushcliffe,http://www.rushcliffe.gov.uk/,-0.94580100000000,NG13 8DX,2014-02-12,fhrs_5_en-GB,5,,FHRS,5
73515,Owthorpe Lane,Kinoulton,Nottinghamshire,,Neville Arms,Pub/bar/nightclub,7843,10,,265849,5,,52.87341900000000,09/00068/FOOD,266,envhealth@rushcliffe.gov.uk,Rushcliffe,http://www.rushcliffe.gov.uk/,-0.99123000000000,NG12 3EH,2014-09-24,fhrs_4_en-GB,4,,FHRS,5
73516,75 Melton Road,West Bridgford,Nottinghamshire,,Nimboo,Takeaway/sandwich shop,7844,5,,266110,5,,52.92738000000000,11/00054/FOOD,266,envhealth@rushcliffe.gov.uk,Rushcliffe,http://www.rushcliffe.gov.uk/,-1.12951300000000,NG2 6EN,2013-08-21,fhrs_5_en-GB,5,,FHRS,5
73517,29 Station Terrace,Radcliffe On Trent,Nottinghamshire,,No 29,Restaurant/Cafe/Canteen,1,5,,730961,5,,52.94765100000000,15/00004/FOOD,266,envhealth@rushcliffe.gov.uk,Rushcliffe,http://www.rushcliffe.gov.uk/,-1.03838000000000,NG12 2AH,2015-01-14,fhrs_5_en-GB,5,,FHRS,5
73518,8 Gordon Road,West Bridgford,Nottinghamshire,,No 8 Deli,Takeaway/sandwich shop,7844,5,,266027,5,,52.92993200000000,255788/0008/0/000,266,envhealth@rushcliffe.gov.uk,Rushcliffe,http://www.rushcliffe.gov.uk/,-1.12565300000000,NG2 5LN,2013-11-14,fhrs_5_en-GB,5,,FHRS,5
73519,Main Street,Normanton On Soar,Nottinghamshire,,Normanton On Soar Primary School,School/college/university,7845,0,,266368,5,,52.80381700000000,30050/0906/2/000,266,envhealth@rushcliffe.gov.uk,Rushcliffe,http://www.rushcliffe.gov.uk/,-1.23513500000000,LE12 5HB,2014-11-10,fhrs_5_en-GB,5,,FHRS,0
73520,Trent Side North,West Bridgford,Nottinghamshire,,Nottingham And Union Rowing Club,Other catering premises,7841,,,265978,,,52.94086200000000,57030/0618/2/000,266,envhealth@rushcliffe.gov.uk,Rushcliffe,http://www.rushcliffe.gov.uk/,-1.13290300000000,NG2 5FA,2012-03-27,fhrs_exempt_en-GB,Exempt,,FHRS,
73521,West Bridgford,Nottinghamshire,,,Nottingham Emmanuel School,School/college/university,7845,5,,627785,5,,52.93424200000000,07/00039/COMMER,266,envhealth@rushcliffe.gov.uk,Rushcliffe,http://www.rushcliffe.gov.uk/,-1.15481700000000,NG11 7AB,2014-01-29,fhrs_5_en-GB,5,,FHRS,0
73522,Nottingham Forest Football Club,Pavilion Road,Nottingham,,Nottingham Forest - Fast Food Outlets,Takeaway/sandwich shop,7844,5,,266067,5,,52.93946200000000,56544/0603/2/000,266,envhealth@rushcliffe.gov.uk,Rushcliffe,http://www.rushcliffe.gov.uk/,-1.13321400000000,NG2 5FJ,2013-10-14,fhrs_5_en-GB,5,,FHRS,0
73523,Pavilion Road,Nottingham,,,Nottingham Forest Football Club Executive Suite,Restaurant/Cafe/Canteen,1,5,,266104,5,,52.93894500000000,56544/0603/2/003,266,envhealth@rushcliffe.gov.uk,Rushcliffe,http://www.rushcliffe.gov.uk/,-1.13124500000000,NG2 5FR,2014-03-18,fhrs_5_en-GB,5,,FHRS,5
73524,Pavilion Road,Nottingham,,,Nottingham Forest Football Club Robin Hood Suite,Restaurant/Cafe/Canteen,1,5,,265760,5,,52.93946200000000,56544/0601/2/000,266,envhealth@rushcliffe.gov.uk,Rushcliffe,http://www.rushcliffe.gov.uk/,-1.13321400000000,NG2 5FJ,2014-03-18,fhrs_5_en-GB,5,,FHRS,5
73525,6 Pavilion Road,Nottingham,,,Nottingham Forest Sportsmans Social Club,Pub/bar/nightclub,7843,10,,266189,10,,52.93826700000000,56544/0006/2/000,266,envhealth@rushcliffe.gov.uk,Rushcliffe,http://www.rushcliffe.gov.uk/,-1.13326700000000,NG2 5FG,2013-03-27,fhrs_3_en-GB,3,,FHRS,10
73526,Nottingham Knight,Loughborough Road,West Bridgford,Nottinghamshire,Nottingham Knight,Pub/bar/nightclub,7843,0,,409200,5,,52.90807100000000,56202/0408/2/000,266,envhealth@rushcliffe.gov.uk,Rushcliffe,http://www.rushcliffe.gov.uk/,-1.14569100000000,NG11 6LS,2014-01-28,fhrs_5_en-GB,5,,FHRS,0
73527,Fosse Karting Centre Broughton Lodg,Fosse Way,Upper Broughton,Nottinghamshire,Nottingham Raceway Karting,Restaurant/Cafe/Canteen,1,10,,537766,15,,52.82324900000000,12/00071/FOOD,266,envhealth@rushcliffe.gov.uk,Rushcliffe,http://www.rushcliffe.gov.uk/,-1.02484800000000,LE14 3BH,2014-02-18,fhrs_2_en-GB,2,,FHRS,15
73528,4-6 Nottingham Road,Bingham,Nottinghamshire,,Nottingham Road Store,Retailers - other,4613,5,,266160,5,,52.95040900000000,09/00122/FOOD,266,envhealth@rushcliffe.gov.uk,Rushcliffe,http://www.rushcliffe.gov.uk/,-0.96025200000000,NG13 8AT,2014-10-13,fhrs_5_en-GB,5,,FHRS,5
73529,The Nottingham Sailing Club,Adbolton Lane,Holme Pierrepont,Nottinghamshire,Nottingham Sailing Club,Pub/bar/nightclub,7843,5,,266079,5,,52.93996100000000,24016/0508/0/000,266,envhealth@rushcliffe.gov.uk,Rushcliffe,http://www.rushcliffe.gov.uk/,-1.10710400000000,NG2 5AS,2014-04-02,fhrs_5_en-GB,5,,FHRS,5
73530,Station Road,Plumtree,Nottinghamshire,,Nottingham School Of Cookery,Restaurant/Cafe/Canteen,1,0,,265803,0,,52.88844900000000,08/00051/COMMER,266,envhealth@rushcliffe.gov.uk,Rushcliffe,http://www.rushcliffe.gov.uk/,-1.08786000000000,NG12 5NA,2012-02-10,fhrs_5_en-GB,5,,FHRS,0
73531,County Hall,Loughborough Road,West Bridgford,Nottinghamshire,Nottinghamshire County Council,Restaurant/Cafe/Canteen,1,5,,266016,5,,52.93653200000000,56202/0000/2/000,266,envhealth@rushcliffe.gov.uk,Rushcliffe,http://www.rushcliffe.gov.uk/,-1.13574200000000,NG2 7QP,2013-08-13,fhrs_5_en-GB,5,,FHRS,0
73532,Bridgford Road,West Bridgford,Nottinghamshire,,Nottinghamshire County Cricket Club - Banqueting,Restaurant/Cafe/Canteen,1,0,,266312,0,,52.93598300000000,55185/0601/2/000,266,envhealth@rushcliffe.gov.uk,Rushcliffe,http://www.rushcliffe.gov.uk/,-1.13185500000000,NG2 6AG,2010-11-01,fhrs_5_en-GB,5,,FHRS,5
73533,Unit 1 Shopping Centre,Compton Acres,West Bridgford,Nottinghamshire,Number 1 Fish Bar,Takeaway/sandwich shop,7844,10,,266130,5,,52.91868500000000,55405/0501/0/000,266,envhealth@rushcliffe.gov.uk,Rushcliffe,http://www.rushcliffe.gov.uk/,-1.15274000000000,NG2 7RS,2014-08-29,fhrs_4_en-GB,4,,FHRS,5
73534,76 Manor Road,Keyworth,Nottinghamshire,,Ode's Store,Retailers - other,4613,10,,265892,5,,52.87348900000000,25359/0076/0/000,266,envhealth@rushcliffe.gov.uk,Rushcliffe,http://www.rushcliffe.gov.uk/,-1.09239300000000,NG12 5GL,2014-09-22,fhrs_3_en-GB,3,,FHRS,10
73535,Adbolton Lane,Holme Pierrepont,Nottinghamshire,,Old Nottinghamians Society Sports And Social Club,Pub/bar/nightclub,7843,5,,265785,5,,52.93996100000000,24016/0548/2/000,266,envhealth@rushcliffe.gov.uk,Rushcliffe,http://www.rushcliffe.gov.uk/,-1.10710400000000,NG2 5AS,2014-05-09,fhrs_5_en-GB,5,,FHRS,5
73536,Ruddington Hall,Loughborough Road,Ruddington,Nottinghamshire,Olive Catering Ltd@Ruddington Hall,Restaurant/Cafe/Canteen,1,5,,266089,5,,52.90374000000000,39401/0800/2/000,266,envhealth@rushcliffe.gov.uk,Rushcliffe,http://www.rushcliffe.gov.uk/,-1.14223800000000,NG11 6LL,2014-12-10,fhrs_5_en-GB,5,,FHRS,5
73537,Britannia House,Ruddington Fields Business Park,Mere Way,Ruddington,Olive Catering Services Ltd,Restaurant/Cafe/Canteen,1,5,,265930,5,,52.88253300000000,04/00008/COMMER,266,envhealth@rushcliffe.gov.uk,Rushcliffe,http://www.rushcliffe.gov.uk/,-1.14334000000000,NG11 6JS,2014-01-28,fhrs_5_en-GB,5,,FHRS,5
73538,6 And 7,Gordon Square,West Bridgford,Nottinghamshire,One Stop,Retailers - other,4613,5,,266013,0,,52.92877000000000,10/00055/FOOD,266,envhealth@rushcliffe.gov.uk,Rushcliffe,http://www.rushcliffe.gov.uk/,-1.12531900000000,NG2 5LP,2010-09-22,fhrs_5_en-GB,5,,FHRS,0
73539,Lingsbar House,Ambleside,Gamston,Nottinghamshire,Options-Lings Bar Hospital,Hospitals/Childcare/Caring Premises,5,5,,266298,5,,52.92215600000000,19010/0998/2/000,266,envhealth@rushcliffe.gov.uk,Rushcliffe,http://www.rushcliffe.gov.uk/,-1.10269500000000,NG2 6RR,2014-03-05,fhrs_5_en-GB,5,,FHRS,0
73540,,,,,Orchard Bank Bakery,Other catering premises,7841,0,,265967,0,,,09/00043/FOOD,266,envhealth@rushcliffe.gov.uk,Rushcliffe,http://www.rushcliffe.gov.uk/,,,2013-01-07,fhrs_5_en-GB,5,,FHRS,0
73541,46 Easthorpe Street,Ruddington,Nottinghamshire,,Orchard House,Hospitals/Childcare/Caring Premises,5,5,,266084,5,,52.89289900000000,39248/0046/2/001,266,envhealth@rushcliffe.gov.uk,Rushcliffe,http://www.rushcliffe.gov.uk/,-1.14717800000000,NG11 6LA,2014-02-14,fhrs_5_en-GB,5,,FHRS,5
73542,1 Trent Boulevard,West Bridgford,Nottinghamshire,,Orient Express (Notts) Ltd,Takeaway/sandwich shop,7844,20,,266081,15,,52.93883800000000,07/00096/COMMER,266,envhealth@rushcliffe.gov.uk,Rushcliffe,http://www.rushcliffe.gov.uk/,-1.12534000000000,NG2 5BB,2014-12-03,fhrs_1_en-GB,1,,FHRS,15
73543,Unit 10 Shopping Centre,Compton Acres,West Bridgford,Nottinghamshire,Oriental Express,Takeaway/sandwich shop,7844,0,,266311,5,,52.91868500000000,55405/0510/0/000,266,envhealth@rushcliffe.gov.uk,Rushcliffe,http://www.rushcliffe.gov.uk/,-1.15274000000000,NG2 7RS,2013-09-11,fhrs_5_en-GB,5,,FHRS,5
73544,The Pearl,42 - 44 Bridgford Road,West Bridgford,Nottinghamshire,Oriental Pearl,Restaurant/Cafe/Canteen,1,,,265860,,,52.93357200000000,55185/0042/0/000,266,envhealth@rushcliffe.gov.uk,Rushcliffe,http://www.rushcliffe.gov.uk/,-1.12925500000000,NG2 6AP,2013-12-09,fhrs_4_en-GB,4,,FHRS,
73545,Church Street,Orston,Nottinghamshire,,Orston Primary School,School/college/university,7845,5,,266075,5,,52.96294900000000,32043/0529/2/000,266,envhealth@rushcliffe.gov.uk,Rushcliffe,http://www.rushcliffe.gov.uk/,-0.85455700000000,NG13 9NS,2014-06-16,fhrs_5_en-GB,5,,FHRS,0
73546,Village Hall,Lombard Street,Orston,Nottinghamshire,Orston Village Hall,Other catering premises,7841,5,,265823,5,,52.95931000000000,32079/0572/2/000,266,envhealth@rushcliffe.gov.uk,Rushcliffe,http://www.rushcliffe.gov.uk/,-0.85563500000000,NG13 9NG,2010-12-20,fhrs_5_en-GB,5,,FHRS,5
73547,Village Hall,Main Street,Kinoulton,Nottinghamshire,Out Of School Hideaway Club,Other catering premises,7841,5,,265754,5,,52.86832400000000,05/00033/COMMER,266,envhealth@rushcliffe.gov.uk,Rushcliffe,http://www.rushcliffe.gov.uk/,-1.00000900000000,NG12 3EL,2014-03-17,fhrs_5_en-GB,5,,FHRS,5
73548,Tollerton Hall,Tollerton Lane,Tollerton,Nottinghamshire,Oval Insurance Broking Limited,Other catering premises,7841,,,266198,,,52.90803100000000,53214/0528/2/000,266,envhealth@rushcliffe.gov.uk,Rushcliffe,http://www.rushcliffe.gov.uk/,-1.08712200000000,NG12 4FT,2009-12-21,fhrs_exempt_en-GB,Exempt,,FHRS,
73549,Sutton Bonington Primary School,Park Lane,Sutton Bonington,Nottinghamshire,Owls Kids Club,Hospitals/Childcare/Caring Premises,5,,,265954,,,52.81447400000000,06/00022/COMMER,266,envhealth@rushcliffe.gov.uk,Rushcliffe,http://www.rushcliffe.gov.uk/,-1.24558600000000,LE12 5NH,2014-05-16,fhrs_exempt_en-GB,Exempt,,FHRS,
73550,23 Tudor Square,West Bridgford,Nottinghamshire,,Oxfam,Retailers - other,4613,,,266210,,,52.93131300000000,57075/0023/0/000,266,envhealth@rushcliffe.gov.uk,Rushcliffe,http://www.rushcliffe.gov.uk/,-1.12645800000000,NG2 6BT,2012-06-25,fhrs_exempt_en-GB,Exempt,,FHRS,
73551,,,,,Pancakes And Pasties,Mobile caterer,7846,0,,265722,0,,,06/00010/COMMER,266,envhealth@rushcliffe.gov.uk,Rushcliffe,http://www.rushcliffe.gov.uk/,,,2013-11-04,fhrs_5_en-GB,5,,FHRS,5
73552,97 Melton Road,West Bridgford,Nottinghamshire,,Paolo's Seafood Ltd,Other catering premises,7841,5,,266049,5,,52.92738000000000,09/00104/FOOD,266,envhealth@rushcliffe.gov.uk,Rushcliffe,http://www.rushcliffe.gov.uk/,-1.12951300000000,NG2 6EN,2014-02-11,fhrs_4_en-GB,4,,FHRS,10
73553,Papa Johns Takeaway,114 - 116 Melton Road,West Bridgford,Nottinghamshire,Papa Johns Pizza,Takeaway/sandwich shop,7844,0,,633501,0,,52.92709600000000,14/00003/COMMER,266,envhealth@rushcliffe.gov.uk,Rushcliffe,http://www.rushcliffe.gov.uk/,-1.12998000000000,NG2 6EP,2014-02-11,fhrs_5_en-GB,5,,FHRS,5
73554,Ambleside,Gamston,Nottinghamshire,,Papermoon Day Nursery,Hospitals/Childcare/Caring Premises,5,5,,265775,5,,53.14605712890625,11/00024/FOOD,266,envhealth@rushcliffe.gov.uk,Rushcliffe,http://www.rushcliffe.gov.uk/,-0.99268501996994,NG2 6PS,2015-01-19,fhrs_5_en-GB,5,,FHRS,5
73555,Compton Acres,West Bridgford,Nottinghamshire,,Papermoon Nurseries,Hospitals/Childcare/Caring Premises,5,,,266088,,,52.92332300000000,55405/0922/2/001,266,envhealth@rushcliffe.gov.uk,Rushcliffe,http://www.rushcliffe.gov.uk/,-1.15400300000000,NG2 7PA,2013-08-30,fhrs_5_en-GB,5,,FHRS,
73556,2 Pasture Lane,Sutton Bonington,Nottinghamshire,,Pasture Lane Stores,Retailers - other,4613,5,,266108,5,,52.81997300000000,48150/0002/0/000,266,envhealth@rushcliffe.gov.uk,Rushcliffe,http://www.rushcliffe.gov.uk/,-1.25231700000000,LE12 5PQ,2013-02-06,fhrs_5_en-GB,5,,FHRS,5
73557,53 St Marys Crescent,East Leake,Nottinghamshire,,Pav's Premier,Retailers - other,4613,5,,265900,5,,52.83901300000000,09/00114/FOOD,266,envhealth@rushcliffe.gov.uk,Rushcliffe,http://www.rushcliffe.gov.uk/,-1.17624800000000,LE12 6QR,2013-03-27,fhrs_5_en-GB,5,,FHRS,5
73558,Nottingham Transport Heritage Centr,Mere Way,Ruddington,Nottinghamshire,PDGibson Catering,Restaurant/Cafe/Canteen,1,5,,266323,5,,52.88932600000000,65000/0002/0/000,266,envhealth@rushcliffe.gov.uk,Rushcliffe,http://www.rushcliffe.gov.uk/,-1.14284900000000,NG11 6NX,2015-01-24,fhrs_5_en-GB,5,,FHRS,5
73559,Temples Cottage,Melton Road,Hickling Pastures,Nottinghamshire,Pea Pod Day Nursery,Hospitals/Childcare/Caring Premises,5,5,,265904,5,,52.84704600000000,23087/0643/2/000,266,envhealth@rushcliffe.gov.uk,Rushcliffe,http://www.rushcliffe.gov.uk/,-1.02170100000000,LE14 3QG,2014-09-09,fhrs_5_en-GB,5,,FHRS,5
73560,,,,,Peacock Cottage Delights,Farmers/growers,7838,5,,710386,5,,,14/00066/FOOD,266,envhealth@rushcliffe.gov.uk,Rushcliffe,http://www.rushcliffe.gov.uk/,,,2014-09-25,fhrs_5_en-GB,5,,FHRS,5
73561,Station Road,Plumtree,Nottinghamshire,,Perkins Restaurant And Bar,Restaurant/Cafe/Canteen,1,5,,265770,5,,52.88844900000000,34095/0584/2/000,266,envhealth@rushcliffe.gov.uk,Rushcliffe,http://www.rushcliffe.gov.uk/,-1.08786000000000,NG12 5NA,2013-03-25,fhrs_5_en-GB,5,,FHRS,5
73562,Musters Road,West Bridgford,Nottinghamshire,,Peveril Court,Other catering premises,7841,5,,265859,5,,52.92902400000000,56553/0032/0/000,266,envhealth@rushcliffe.gov.uk,Rushcliffe,http://www.rushcliffe.gov.uk/,-1.13294600000000,NG2 7PB,2012-03-22,fhrs_5_en-GB,5,,FHRS,5
73563,2a High Street,Ruddington,Nottinghamshire,,Philos,Restaurant/Cafe/Canteen,1,5,,265763,5,,52.89196300000000,08/00003/COMMER,266,envhealth@rushcliffe.gov.uk,Rushcliffe,http://www.rushcliffe.gov.uk/,-1.14956000000000,NG11 6EH,2014-10-02,fhrs_4_en-GB,4,,FHRS,10
73564,22 Tudor Square,West Bridgford,Nottinghamshire,,Philo's,Takeaway/sandwich shop,7844,5,,265959,5,,52.93131300000000,08/00087/FOOD,266,envhealth@rushcliffe.gov.uk,Rushcliffe,http://www.rushcliffe.gov.uk/,-1.12645800000000,NG2 6BT,2014-08-27,fhrs_5_en-GB,5,,FHRS,5
73565,7a Main Road,Radcliffe On Trent,Nottinghamshire,,Piano,Restaurant/Cafe/Canteen,1,5,,265772,5,,52.94661600000000,04/00042/COMMER,266,envhealth@rushcliffe.gov.uk,Rushcliffe,http://www.rushcliffe.gov.uk/,-1.03935500000000,NG12 2FD,2014-03-14,fhrs_5_en-GB,5,,FHRS,5
73566,Coledale,West Bridgford,Nottinghamshire,,Pierrepont Gamston Primary School,School/college/university,7845,0,,265944,5,,52.92402600000000,10/00025/COMMER,266,envhealth@rushcliffe.gov.uk,Rushcliffe,http://www.rushcliffe.gov.uk/,-1.10637500000000,NG2 6TH,2014-02-12,fhrs_5_en-GB,5,,FHRS,5
73567,72 Bridgford Road,West Bridgford,Nottinghamshire,,Pizza Express,Restaurant/Cafe/Canteen,1,0,,265894,5,,52.93357200000000,06/00023/COMMER,266,envhealth@rushcliffe.gov.uk,Rushcliffe,http://www.rushcliffe.gov.uk/,-1.12925500000000,NG2 6AP,2014-01-08,fhrs_5_en-GB,5,,FHRS,0
73568,1 Gordon Road,West Bridgford,Nottinghamshire,,Pizza Hut UK Ltd,Takeaway/sandwich shop,7844,0,,266195,0,,52.92998200000000,55788/0001/0/000,266,envhealth@rushcliffe.gov.uk,Rushcliffe,http://www.rushcliffe.gov.uk/,-1.12514600000000,NG2 5LL,2014-09-19,fhrs_5_en-GB,5,,FHRS,5
73569,7 Union Street,Bingham,Nottinghamshire,,Pizza Pasta,Takeaway/sandwich shop,7844,10,,265818,5,,53.14605712890625,03970/0007/0/000,266,envhealth@rushcliffe.gov.uk,Rushcliffe,http://www.rushcliffe.gov.uk/,-0.99268501996994,NG66 6BS,2013-07-16,fhrs_4_en-GB,4,,FHRS,0
73570,5 Shelford Road,Radcliffe On Trent,Nottinghamshire,,Pizza Time,Takeaway/sandwich shop,7844,10,,265947,5,,52.94769700000000,35834/0005/0/000,266,envhealth@rushcliffe.gov.uk,Rushcliffe,http://www.rushcliffe.gov.uk/,-1.03970300000000,NG12 2AE,2014-03-25,fhrs_4_en-GB,4,,FHRS,5
73571,99 Nottingham Road,Keyworth,Nottinghamshire,,Plumtrees,Takeaway/sandwich shop,7844,5,,265739,0,,52.87566100000000,25404/0099/0/000,266,envhealth@rushcliffe.gov.uk,Rushcliffe,http://www.rushcliffe.gov.uk/,-1.08961400000000,NG12 5GS,2013-11-07,fhrs_5_en-GB,5,,FHRS,5
73572,Pierrepont Road,West Bridgford,Nottinghamshire,,Poppy And Pint,Pub/bar/nightclub,7843,5,,505306,5,,52.93651000000000,12/00069/FOOD,266,envhealth@rushcliffe.gov.uk,Rushcliffe,http://www.rushcliffe.gov.uk/,-1.11924200000000,NG2 5DX,2014-12-02,fhrs_5_en-GB,5,,FHRS,5
73573,Trent Bridge House,Fox Road,West Bridgford,Nottinghamshire,Porthole Cafe,Takeaway/sandwich shop,7844,5,,266154,5,,52.93778600000000,55725/0906/2/000,266,envhealth@rushcliffe.gov.uk,Rushcliffe,http://www.rushcliffe.gov.uk/,-1.13132800000000,NG2 6BJ,2013-03-26,fhrs_5_en-GB,5,,FHRS,0
73574,Stainmore Court,Bowland Road,Bingham,Nottinghamshire,Post News Group,Retailers - other,4613,20,,265857,5,,52.95073400000000,03897/0003/0/000,266,envhealth@rushcliffe.gov.uk,Rushcliffe,http://www.rushcliffe.gov.uk/,-0.97075300000000,NG13 8RW,2014-10-06,fhrs_1_en-GB,1,,FHRS,5
73575,8 Bingham Road,Cotgrave,Nottinghamshire,,Post News Shop,Retailers - other,4613,,,266293,,,52.91181400000000,11033/0008/0/000,266,envhealth@rushcliffe.gov.uk,Rushcliffe,http://www.rushcliffe.gov.uk/,-1.03901000000000,NG12 3JR,2012-03-28,fhrs_exempt_en-GB,Exempt,,FHRS,
73576,Unit 2 Shopping Centre,Compton Acres,West Bridgford,Nottinghamshire,Post News Shop,Retailers - other,4613,,,266141,,,52.91868500000000,55405/0502/0/000,266,envhealth@rushcliffe.gov.uk,Rushcliffe,http://www.rushcliffe.gov.uk/,-1.15274000000000,NG2 7RS,2014-03-26,fhrs_exempt_en-GB,Exempt,,FHRS,
73577,93-95 Trent Boulevard,West Bridgford,Nottinghamshire,,Post Office,Retailers - other,4613,,,266345,,,52.93865300000000,57003/0093/2/000,266,envhealth@rushcliffe.gov.uk,Rushcliffe,http://www.rushcliffe.gov.uk/,-1.12211500000000,NG2 5BE,2014-03-28,fhrs_exempt_en-GB,Exempt,,FHRS,
73578,Rivermead,Wilford Lane,West Bridgford,Nottinghamshire,Premier Convenience Store,Retailers - other,4613,20,,266015,5,,52.93150300000000,56670/0609/2/000,266,envhealth@rushcliffe.gov.uk,Rushcliffe,http://www.rushcliffe.gov.uk/,-1.14134700000000,NG2 7RB,2014-10-14,fhrs_1_en-GB,1,,FHRS,5
73579,104 Trent Boulevard,West Bridgford,Nottinghamshire,,Pricewise,Retailers - other,4613,20,,266286,20,,52.93818300000000,57003/0104/2/000,266,envhealth@rushcliffe.gov.uk,Rushcliffe,http://www.rushcliffe.gov.uk/,-1.11934200000000,NG2 5BL,2014-10-13,fhrs_0_en-GB,0,,FHRS,20
73580,18 Scrimshire Lane,Cotgrave,Nottinghamshire,,Primrose House,Hotel/bed & breakfast/guest house,7842,10,,266366,5,,52.91008100000000,08/00004/COMMER,266,envhealth@rushcliffe.gov.uk,Rushcliffe,http://www.rushcliffe.gov.uk/,-1.04367300000000,NG12 3JD,2010-11-18,fhrs_4_en-GB,4,,FHRS,0
73581,Lime House,Ruddington Fields Business Park,Mere Way,Ruddington,Quotient Clinical,Hospitals/Childcare/Caring Premises,5,5,,696358,5,,52.88253300000000,14/00064/FOOD,266,envhealth@rushcliffe.gov.uk,Rushcliffe,http://www.rushcliffe.gov.uk/,-1.14334000000000,NG11 6JZ,2014-08-12,fhrs_5_en-GB,5,,FHRS,5
73582,,,,,R L Turner Greengrocer Limited,Retailers - other,4613,10,,266351,0,,,08/00053/COMMER,266,envhealth@rushcliffe.gov.uk,Rushcliffe,http://www.rushcliffe.gov.uk/,,,2011-06-20,fhrs_4_en-GB,4,,FHRS,0
73583,15 Main Road,Radcliffe On Trent,Nottinghamshire,,Radcliffe Day Nursery,Hospitals/Childcare/Caring Premises,5,5,,266017,5,,52.94661600000000,03/00020/COMMER,266,envhealth@rushcliffe.gov.uk,Rushcliffe,http://www.rushcliffe.gov.uk/,-1.03935500000000,NG12 2FD,2013-08-14,fhrs_5_en-GB,5,,FHRS,0
73584,2 Main Road,Radcliffe On Trent,Nottinghamshire,,Radcliffe Fish Bar,Takeaway/sandwich shop,7844,5,,265766,5,,52.94710700000000,35492/0002/0/000,266,envhealth@rushcliffe.gov.uk,Rushcliffe,http://www.rushcliffe.gov.uk/,-1.03897200000000,NG12 2FH,2014-10-27,fhrs_5_en-GB,5,,FHRS,5
73585,The Manor House,52 Main Road,Radcliffe On Trent,Nottinghamshire,Radcliffe Manor House,Hospitals/Childcare/Caring Premises,5,0,,265889,5,,52.94699600000000,35492/0052/2/000,266,envhealth@rushcliffe.gov.uk,Rushcliffe,http://www.rushcliffe.gov.uk/,-1.04074600000000,NG12 2AA,2013-09-13,fhrs_5_en-GB,5,,FHRS,0
73586,Shelford Road,Radcliffe On Trent,Nottinghamshire,,Radcliffe On Trent  Methodist Church Hall,Other catering premises,7841,,,265821,,,52.94819200000000,09/00100/FOOD,266,envhealth@rushcliffe.gov.uk,Rushcliffe,http://www.rushcliffe.gov.uk/,-1.03859100000000,NG12 2AG,2014-03-19,fhrs_exempt_en-GB,Exempt,,FHRS,
73587,Bingham Road,Radcliffe On Trent,Nottinghamshire,,Radcliffe On Trent Infant And Nursery School,School/college/university,7845,5,,265765,5,,52.94702600000000,35042/0526/2/000,266,envhealth@rushcliffe.gov.uk,Rushcliffe,http://www.rushcliffe.gov.uk/,-1.03445000000000,NG12 2FU,2014-09-23,fhrs_5_en-GB,5,,FHRS,5
73588,Cropwell Road,Radcliffe On Trent,Nottinghamshire,,Radcliffe On Trent Junior School,School/college/university,7845,5,,266353,5,,52.94505900000000,35222/0536/2/000,266,envhealth@rushcliffe.gov.uk,Rushcliffe,http://www.rushcliffe.gov.uk/,-1.03580300000000,NG12 2FS,2013-12-20,fhrs_5_en-GB,5,,FHRS,5
73589,South Nottinghamshire Academy,Cropwell Road,Radcliffe On Trent,Nottinghamshire,Radcliffe On Trent Pre-School Playgroup,School/college/university,7845,5,,266068,5,,52.94503100000000,09/00078/FOOD,266,envhealth@rushcliffe.gov.uk,Rushcliffe,http://www.rushcliffe.gov.uk/,-1.03462800000000,NG12 2FQ,2012-03-26,fhrs_5_en-GB,5,,FHRS,5
73590,33 Radcliffe Road,West Bridgford,Nottinghamshire,,Radcliffe Road Convenience Store,Retailers - other,4613,5,,266167,5,,52.93810200000000,10/00004/COMMER,266,envhealth@rushcliffe.gov.uk,Rushcliffe,http://www.rushcliffe.gov.uk/,-1.13275000000000,NG2 5FF,2012-06-12,fhrs_5_en-GB,5,,FHRS,0
73591,,,,,Rally,Other catering premises,7841,,,465662,,,,12/00123/FOOD,266,envhealth@rushcliffe.gov.uk,Rushcliffe,http://www.rushcliffe.gov.uk/,,,2012-10-17,fhrs_exempt_en-GB,Exempt,,FHRS,
73592,139 Loughborough Road,Bunny,Nottinghamshire,,Rancliffe Arms,Pub/bar/nightclub,7843,10,,266096,10,,52.86068100000000,06050/0139/2/000,266,envhealth@rushcliffe.gov.uk,Rushcliffe,http://www.rushcliffe.gov.uk/,-1.13369900000000,NG11 6QT,2014-04-23,fhrs_3_en-GB,3,,FHRS,10
73593,14 Market Place,Bingham,Nottinghamshire,,Raw,Retailers - other,4613,5,,266094,0,,52.95266200000000,03583/0014/0/000,266,envhealth@rushcliffe.gov.uk,Rushcliffe,http://www.rushcliffe.gov.uk/,-0.95166900000000,NG13 8AP,2014-12-08,fhrs_5_en-GB,5,,FHRS,5
73594,Community Centre,Rawlings Court,Springfield Close,Cropwell Bishop,Rawlings Court Community Centre,Other catering premises,7841,5,,266302,5,,52.91435800000000,12190/0100/2/000,266,envhealth@rushcliffe.gov.uk,Rushcliffe,http://www.rushcliffe.gov.uk/,-0.98171300000000,NG12 3GL,2012-03-22,fhrs_5_en-GB,5,,FHRS,5
73595,16 Rectory Road,West Bridgford,Nottinghamshire,,Rectory Fish Bar,Takeaway/sandwich shop,7844,5,,266364,5,,52.92959500000000,56634/0016/2/000,266,envhealth@rushcliffe.gov.uk,Rushcliffe,http://www.rushcliffe.gov.uk/,-1.12997400000000,NG2 6BG,2015-01-13,fhrs_4_en-GB,4,,FHRS,10
73596,16 Musters Road,West Bridgford,Nottinghamshire,,Red Cap,Takeaway/sandwich shop,7844,5,,266203,5,,52.93532900000000,56418/0016/0/000,266,envhealth@rushcliffe.gov.uk,Rushcliffe,http://www.rushcliffe.gov.uk/,-1.13340000000000,NG2 7PL,2014-08-06,fhrs_5_en-GB,5,,FHRS,5
73597,Unit 5 Trent House,Trent Bridge,West Bridgford,Nottinghamshire,Relish,Retailers - other,4613,5,,266355,5,,52.93806400000000,11/00060/FOOD,266,envhealth@rushcliffe.gov.uk,Rushcliffe,http://www.rushcliffe.gov.uk/,-1.13496800000000,NG2 5GN,2014-03-19,fhrs_5_en-GB,5,,FHRS,5
73598,,,,,Richard J Carter,Farmers/growers,7838,10,,265895,5,,,09/00025/FOOD,266,envhealth@rushcliffe.gov.uk,Rushcliffe,http://www.rushcliffe.gov.uk/,,,2013-12-06,fhrs_3_en-GB,3,,FHRS,10
73599,90 Melton Road,West Bridgford,Nottinghamshire,,Richmand House Residential Home,Hospitals/Childcare/Caring Premises,5,0,,265838,0,,52.92887000000000,56337/0090/2/000,266,envhealth@rushcliffe.gov.uk,Rushcliffe,http://www.rushcliffe.gov.uk/,-1.13402000000000,NG2 7NF,2014-01-15,fhrs_5_en-GB,5,,FHRS,0
73600,School Lane,Bingham,Nottinghamshire,,Robert Miles Bingham Infant School,School/college/university,7845,0,,265807,0,,52.95268500000000,03853/0579/2/000,266,envhealth@rushcliffe.gov.uk,Rushcliffe,http://www.rushcliffe.gov.uk/,-0.95729500000000,NG13 8FE,2014-02-26,fhrs_5_en-GB,5,,FHRS,0
73601,Market Place,Bingham,Nottinghamshire,,Robert Miles Junior School,School/college/university,7845,10,,266064,10,,52.95249600000000,03583/0100/2/000,266,envhealth@rushcliffe.gov.uk,Rushcliffe,http://www.rushcliffe.gov.uk/,-0.95326600000000,NG13 8AR,2013-09-24,fhrs_3_en-GB,3,,FHRS,10
73602,Wilford Lane,West Bridgford,Nottinghamshire,,Roko Nottingham Ltd,Restaurant/Cafe/Canteen,1,5,,266174,10,,52.92918800000000,57255/0606/3/000,266,envhealth@rushcliffe.gov.uk,Rushcliffe,http://www.rushcliffe.gov.uk/,-1.14570700000000,NG2 7RN,2014-08-05,fhrs_4_en-GB,4,,FHRS,5
73603,,,,,Roos,Other catering premises,7841,5,,266244,5,,,06/00056/COMMER,266,envhealth@rushcliffe.gov.uk,Rushcliffe,http://www.rushcliffe.gov.uk/,,,2012-03-22,fhrs_5_en-GB,5,,FHRS,5
73604,Main Road,Cotgrave,Nottinghamshire,,Rose And Crown,Pub/bar/nightclub,7843,,,265712,,,52.91401400000000,11438/0529/2/000,266,envhealth@rushcliffe.gov.uk,Rushcliffe,http://www.rushcliffe.gov.uk/,-1.04430000000000,NG12 3HQ,2014-12-23,fhrs_5_en-GB,5,,FHRS,
73605,Rose Lodge Nursing Home,88 Musters Road,West Bridgford,Nottinghamshire,Rose Lodge Retirement Home,Hospitals/Childcare/Caring Premises,5,10,,265922,15,,52.93170300000000,56418/0088/2/000,266,envhealth@rushcliffe.gov.uk,Rushcliffe,http://www.rushcliffe.gov.uk/,-1.13301200000000,NG2 7PS,2014-09-25,fhrs_2_en-GB,2,,FHRS,5
73606,73 Loughborough Road,West Bridgford,Nottinghamshire,,Roselea  Residential Home,Hospitals/Childcare/Caring Premises,5,5,,266271,10,,52.93094200000000,56202/0073/2/000,266,envhealth@rushcliffe.gov.uk,Rushcliffe,http://www.rushcliffe.gov.uk/,-1.13717700000000,NG2 7JX,2013-11-29,fhrs_4_en-GB,4,,FHRS,5
73607,17 Main Road,Radcliffe On Trent,Nottinghamshire,,Royal British Legion Club,Other catering premises,7841,,,265742,,,52.94661600000000,35492/0017/2/000,266,envhealth@rushcliffe.gov.uk,Rushcliffe,http://www.rushcliffe.gov.uk/,-1.03935500000000,NG12 2FD,2013-03-28,fhrs_exempt_en-GB,Exempt,,FHRS,
73608,Main Street,East Bridgford,Nottinghamshire,,Royal Oak,Pub/bar/nightclub,7843,0,,638376,10,,52.98025500000000,09/00037/FOOD,266,envhealth@rushcliffe.gov.uk,Rushcliffe,http://www.rushcliffe.gov.uk/,-0.96954500000000,NG13 8PA,2014-03-06,fhrs_4_en-GB,4,,FHRS,10
73609,193 Loughborough Road,West Bridgford,Nottinghamshire,,Ruby's News,Retailers - other,4613,10,,266227,10,,52.92312000000000,56202/0193/0/000,266,envhealth@rushcliffe.gov.uk,Rushcliffe,http://www.rushcliffe.gov.uk/,-1.13577100000000,NG2 7JR,2013-03-11,fhrs_3_en-GB,3,,FHRS,5
73610,Grange House,Wilford Road,Ruddington,Nottinghamshire,Ruddington  Day Nursery,Hospitals/Childcare/Caring Premises,5,5,,265980,5,,52.90539700000000,39770/0919/2/001,266,envhealth@rushcliffe.gov.uk,Rushcliffe,http://www.rushcliffe.gov.uk/,-1.15128900000000,NG11 6NB,2014-08-28,fhrs_4_en-GB,4,,FHRS,10
73611,1 Kempson Street,Ruddington,Nottinghamshire,,Ruddington Conservative Club Ltd,Pub/bar/nightclub,7843,5,,266123,5,,52.89131000000000,39356/0001/2/000,266,envhealth@rushcliffe.gov.uk,Rushcliffe,http://www.rushcliffe.gov.uk/,-1.14881500000000,NG11 6DX,2013-03-25,fhrs_5_en-GB,5,,FHRS,5
73612,Ruddington Estates Club 1 To 3,Abingdon Drive,Ruddington,Nottinghamshire,Ruddington Estates Social Club,Pub/bar/nightclub,7843,5,,266250,5,,52.89691800000000,39005/0001/0/000,266,envhealth@rushcliffe.gov.uk,Rushcliffe,http://www.rushcliffe.gov.uk/,-1.14485500000000,NG11 6FX,2012-03-22,fhrs_5_en-GB,5,,FHRS,5
73613,2 Church Street,Ruddington,Nottinghamshire,,Ruddington Fish Bar,Takeaway/sandwich shop,7844,5,,265981,5,,52.89228900000000,39167/0002/0/000,266,envhealth@rushcliffe.gov.uk,Rushcliffe,http://www.rushcliffe.gov.uk/,-1.14997000000000,NG11 6HA,2015-02-10,fhrs_5_en-GB,5,,FHRS,5
73614,Chapel Street,Ruddington,Nottinghamshire,,Ruddington Framework Knitters Museum,Other catering premises,7841,,,266350,,,52.89122400000000,39140/0904/2/000,266,envhealth@rushcliffe.gov.uk,Rushcliffe,http://www.rushcliffe.gov.uk/,-1.15184900000000,NG11 6HE,2012-06-13,fhrs_exempt_en-GB,Exempt,,FHRS,
73615,Wilford Road,Ruddington,Nottinghamshire,,Ruddington Grange Golf Club,Restaurant/Cafe/Canteen,1,5,,266069,5,,52.90539700000000,39770/0916/2/000,266,envhealth@rushcliffe.gov.uk,Rushcliffe,http://www.rushcliffe.gov.uk/,-1.15128900000000,NG11 6NB,2013-07-24,fhrs_5_en-GB,5,,FHRS,5
73616,Ruddington Village Hall,Wilford Road,Ruddington,Nottinghamshire,Ruddington Parish Council,Other catering premises,7841,5,,266137,5,,52.89598900000000,39770/0001/2/000,266,envhealth@rushcliffe.gov.uk,Rushcliffe,http://www.rushcliffe.gov.uk/,-1.15061100000000,NG11 6BN,2012-03-28,fhrs_5_en-GB,5,,FHRS,5
73617,St Peters Rooms,Church Street,Ruddington,Nottinghamshire,Ruddington Parish Council,Other catering premises,7841,,,265878,,,52.89159800000000,39167/0903/2/000,266,envhealth@rushcliffe.gov.uk,Rushcliffe,http://www.rushcliffe.gov.uk/,-1.15138100000000,NG11 6HD,2014-03-28,fhrs_exempt_en-GB,Exempt,,FHRS,
73618,Loughborough Road,Ruddington,Nottinghamshire,,Ruddington Service Station (PVR2),Retailers - other,4613,,,266171,,,52.89559900000000,39401/0900/2/000,266,envhealth@rushcliffe.gov.uk,Rushcliffe,http://www.rushcliffe.gov.uk/,-1.14262100000000,NG11 6LJ,2012-03-22,fhrs_exempt_en-GB,Exempt,,FHRS,
73619,15 Church Street,Ruddington,Nottinghamshire,,Ruddington Village Butchers Ltd,Retailers - other,4613,10,,265989,10,,52.89228900000000,11/00066/FOOD,266,envhealth@rushcliffe.gov.uk,Rushcliffe,http://www.rushcliffe.gov.uk/,-1.14997000000000,NG11 6HA,2014-03-19,fhrs_3_en-GB,3,,FHRS,10
73620,Community Centre,Rugby Road,West Bridgford,Nottinghamshire,Rugby Road Sheltered Scheme,Other catering premises,7841,5,,266372,5,,52.91926200000000,56724/0902/2/000,266,envhealth@rushcliffe.gov.uk,Rushcliffe,http://www.rushcliffe.gov.uk/,-1.14426600000000,NG2 7GA,2012-03-27,fhrs_5_en-GB,5,,FHRS,5
73621,Rugby Road,West Bridgford,Nottinghamshire,,Rushcliffe Arena,Restaurant/Cafe/Canteen,1,0,,266020,0,,52.92244900000000,56724/0905/2/000,266,envhealth@rushcliffe.gov.uk,Rushcliffe,http://www.rushcliffe.gov.uk/,-1.13873000000000,NG2 7HY,2014-12-18,fhrs_5_en-GB,5,,FHRS,0
73622,Stocking Lane,East Leake,Nottinghamshire,,Rushcliffe Golf Club,Restaurant/Cafe/Canteen,1,5,,265792,5,,52.84227600000000,15510/0500/2/000,266,envhealth@rushcliffe.gov.uk,Rushcliffe,http://www.rushcliffe.gov.uk/,-1.18791500000000,LE12 5RL,2015-01-21,fhrs_5_en-GB,5,,FHRS,5
73623,Boundary Road,West Bridgford,Nottinghamshire,,Rushcliffe Leisure Centre,Restaurant/Cafe/Canteen,1,5,,265924,5,,52.91710100000000,55131/0017/2/001,266,envhealth@rushcliffe.gov.uk,Rushcliffe,http://www.rushcliffe.gov.uk/,-1.12406700000000,NG2 7BW,2014-10-03,fhrs_5_en-GB,5,,FHRS,0
73624,160 Rutland Road,West Bridgford,Nottinghamshire,,Rutland Stores,Retailers - other,4613,10,,266220,5,,52.93444000000000,56751/0160/0/000,266,envhealth@rushcliffe.gov.uk,Rushcliffe,http://www.rushcliffe.gov.uk/,-1.11894100000000,NG2 5DZ,2009-08-20,fhrs_4_en-GB,4,,FHRS,5
73625,129 Exchange Road,West Bridgford,Nottinghamshire,,S And K Off Licence,Retailers - other,4613,,,265733,,,52.92911600000000,55662/0129/0/000,266,envhealth@rushcliffe.gov.uk,Rushcliffe,http://www.rushcliffe.gov.uk/,-1.12593700000000,NG2 6BX,2012-03-27,fhrs_exempt_en-GB,Exempt,,FHRS,
73626,Home Farm,Main Street,Screveton,Nottinghamshire,S.Clarke Farms,Other catering premises,7841,5,,551523,5,,52.98879900000000,13/00007/FOOD,266,envhealth@rushcliffe.gov.uk,Rushcliffe,http://www.rushcliffe.gov.uk/,-0.92834500000000,NG13 8JB,2013-05-28,fhrs_5_en-GB,5,,FHRS,5
73627,100-102 Nottingham Road,Keyworth,Nottinghamshire,,Sainsburys,Retailers - supermarkets/hypermarkets,7840,5,,265839,5,,52.87559400000000,05/00024/COMMER,266,envhealth@rushcliffe.gov.uk,Rushcliffe,http://www.rushcliffe.gov.uk/,-1.08908000000000,NG12 5GT,2015-02-06,fhrs_5_en-GB,5,,FHRS,5
73628,8 Market Street,Bingham,Nottinghamshire,,Sainsburys,Retailers - supermarkets/hypermarkets,7840,0,,266085,0,,52.95186200000000,03592/0008/0/000,266,envhealth@rushcliffe.gov.uk,Rushcliffe,http://www.rushcliffe.gov.uk/,-0.95268600000000,NG13 8AB,2014-03-11,fhrs_5_en-GB,5,,FHRS,5
73629,10-14 Wilford Road,Ruddington,Nottinghamshire,,Sainsbury's,Retailers - supermarkets/hypermarkets,7840,0,,266188,0,,52.89348300000000,11/00070/FOOD,266,envhealth@rushcliffe.gov.uk,Rushcliffe,http://www.rushcliffe.gov.uk/,-1.14964900000000,NG11 6EN,2013-05-30,fhrs_5_en-GB,5,,FHRS,0
73630,3 Bingham Road,Cotgrave,Nottinghamshire,,Sainsbury's,Retailers - supermarkets/hypermarkets,7840,0,,266299,0,,52.91241700000000,05/00044/COMMER,266,envhealth@rushcliffe.gov.uk,Rushcliffe,http://www.rushcliffe.gov.uk/,-1.03908600000000,NG12 3JS,2013-01-03,fhrs_5_en-GB,5,,FHRS,0
73631,Site Of Mobile Snack Bar Eastbound,Rempstone Road,East Leake,Nottinghamshire,Sala Catering Ltd,Mobile caterer,7846,20,,579498,15,,52.82465900000000,12/00046/FOOD,266,envhealth@rushcliffe.gov.uk,Rushcliffe,http://www.rushcliffe.gov.uk/,-1.18959400000000,LE12 6PW,2014-10-22,fhrs_1_en-GB,1,,FHRS,15
73632,Orston Shooting Ground Limited,Bottesford Lane,Orston,Nottinghamshire,Sallys Kitchen(Orston Gun Club),Restaurant/Cafe/Canteen,1,5,,266101,5,,52.97132300000000,32016/0508/2/000,266,envhealth@rushcliffe.gov.uk,Rushcliffe,http://www.rushcliffe.gov.uk/,-0.82094900000000,NG13 9PB,2013-11-20,fhrs_5_en-GB,5,,FHRS,0
73633,Main Street,Keyworth,Nottinghamshire,,Salutation Inn,Pub/bar/nightclub,7843,5,,266215,5,,52.86964300000000,25350/0569/2/000,266,envhealth@rushcliffe.gov.uk,Rushcliffe,http://www.rushcliffe.gov.uk/,-1.09031900000000,NG12 5AD,2015-01-07,fhrs_5_en-GB,5,,FHRS,5
73634,,,,,Sauce Shop,Other catering premises,7841,5,,716608,5,,,14/00002/FOOD,266,envhealth@rushcliffe.gov.uk,Rushcliffe,http://www.rushcliffe.gov.uk/,,,2014-07-23,fhrs_5_en-GB,5,,FHRS,5
73635,Mobile Food Vehicle A52 Eastbound,Radcliffe Road,Holme Pierrepont,Nottinghamshire,Scoobie Snax,Mobile caterer,7846,5,,530906,5,,,12/00102/FOOD,266,envhealth@rushcliffe.gov.uk,Rushcliffe,http://www.rushcliffe.gov.uk/,,,2013-03-04,fhrs_5_en-GB,5,,FHRS,0
73636,28 Hilton Crescent,West Bridgford,Nottinghamshire,,Scotts News,Retailers - other,4613,,,266116,,,52.92061000000000,55995/0028/2/000,266,envhealth@rushcliffe.gov.uk,Rushcliffe,http://www.rushcliffe.gov.uk/,-1.11117500000000,NG2 6HT,2012-04-20,fhrs_exempt_en-GB,Exempt,,FHRS,
73637,99a Melton Road,West Bridgford,Nottinghamshire,,Scotts News,Retailers - other,4613,,,265736,,,52.92592000000000,56337/0099/A/000,266,envhealth@rushcliffe.gov.uk,Rushcliffe,http://www.rushcliffe.gov.uk/,-1.12772700000000,NG2 6ET,2014-03-28,fhrs_exempt_en-GB,Exempt,,FHRS,
73638,1 Selby Road,West Bridgford,Nottinghamshire,,Scotts Wood Day Nursery,Hospitals/Childcare/Caring Premises,5,5,,265804,10,,52.92263400000000,56769/0001/0/000,266,envhealth@rushcliffe.gov.uk,Rushcliffe,http://www.rushcliffe.gov.uk/,-1.12953400000000,NG2 7BP,2014-09-26,fhrs_3_en-GB,3,,FHRS,10
73639,69 Musters Road,West Bridgford,Nottinghamshire,,Secret Garden Childcare Ltd,Hospitals/Childcare/Caring Premises,5,5,,266144,5,,52.93136500000000,56418/0069/2/009,266,envhealth@rushcliffe.gov.uk,Rushcliffe,http://www.rushcliffe.gov.uk/,-1.13234900000000,NG2 7PY,2014-05-08,fhrs_5_en-GB,5,,FHRS,5
73640,32 Nottingham Road,Bingham,Nottinghamshire,,Serendipity's Day Nursery,Hospitals/Childcare/Caring Premises,5,5,,265907,5,,52.95056000000000,03682/0032/0/000,266,envhealth@rushcliffe.gov.uk,Rushcliffe,http://www.rushcliffe.gov.uk/,-0.95797100000000,NG13 8BH,2014-11-12,fhrs_5_en-GB,5,,FHRS,5
73641,Cotgrave Future Community Centre,Candleby Lane,Cotgrave,Nottinghamshire,Serendipity's Nursery Childcare Services Ltd,Hospitals/Childcare/Caring Premises,5,5,,547377,5,,52.91022400000000,10/00021/COMMER,266,envhealth@rushcliffe.gov.uk,Rushcliffe,http://www.rushcliffe.gov.uk/,-1.03916400000000,NG12 3JG,2014-11-11,fhrs_5_en-GB,5,,FHRS,0
73642,Unit 8 Cotgrave Shopping Centre,Candleby Lane,Cotgrave,Nottinghamshire,Shalimar Express,Takeaway/sandwich shop,7844,10,,266039,15,,52.91061500000000,09/00086/FOOD,266,envhealth@rushcliffe.gov.uk,Rushcliffe,http://www.rushcliffe.gov.uk/,-1.03749000000000,NG12 3JQ,2013-03-26,fhrs_2_en-GB,2,,FHRS,10
73643,26A Tudor Square,West Bridgford,Nottinghamshire,,Shalimar Tandoori,Restaurant/Cafe/Canteen,1,5,,266277,10,,52.93131300000000,57075/0026/0/001,266,envhealth@rushcliffe.gov.uk,Rushcliffe,http://www.rushcliffe.gov.uk/,-1.12645800000000,NG2 6BT,2014-08-05,fhrs_4_en-GB,4,,FHRS,5
73644,Village Hall,Church Street,Shelford,Nottinghamshire,Shelford Village Hall,Other catering premises,7841,,,266230,,,52.97472800000000,43014/0515/2/000,266,envhealth@rushcliffe.gov.uk,Rushcliffe,http://www.rushcliffe.gov.uk/,-1.01429400000000,NG12 1EN,2009-01-05,fhrs_exempt_en-GB,Exempt,,FHRS,
73645,Grantham Road,Saxondale,Nottinghamshire,,Shell Saxondale,Retailers - other,4613,5,,266296,5,,52.95173200000000,40006/0507/2/000,266,envhealth@rushcliffe.gov.uk,Rushcliffe,http://www.rushcliffe.gov.uk/,-0.98534600000000,NG13 8AY,2014-10-03,fhrs_5_en-GB,5,,FHRS,5
73646,95 Melton Road,Tollerton,Nottinghamshire,,Shell Tollerton,Retailers - other,4613,5,,265768,5,,52.89872600000000,53124/0095/2/000,266,envhealth@rushcliffe.gov.uk,Rushcliffe,http://www.rushcliffe.gov.uk/,-1.09880900000000,NG12 4EN,2015-02-06,fhrs_5_en-GB,5,,FHRS,5
73647,Main Road,Cotgrave,Nottinghamshire,,Shepherds Restaurant,Pub/bar/nightclub,7843,5,,265953,5,,52.93155300000000,11438/0540/2/001,266,envhealth@rushcliffe.gov.uk,Rushcliffe,http://www.rushcliffe.gov.uk/,-1.05548900000000,NG12 2JZ,2013-01-08,fhrs_5_en-GB,5,,FHRS,5
73648,195 Loughborough Road,West Bridgford,Nottinghamshire,,Siam House Thai Restaurant,Restaurant/Cafe/Canteen,1,5,,265853,5,,52.93204300000000,07/00023/COMMER,266,envhealth@rushcliffe.gov.uk,Rushcliffe,http://www.rushcliffe.gov.uk/,-1.12929100000000,NG2 7PF,2015-01-16,fhrs_5_en-GB,5,,FHRS,5
73649,100 Melton Road,West Bridgford,Nottinghamshire,,Signature,Restaurant/Cafe/Canteen,1,,,265976,,,52.92694100000000,10/00064/FOOD,266,envhealth@rushcliffe.gov.uk,Rushcliffe,http://www.rushcliffe.gov.uk/,-1.12973000000000,NG2 6EP,2013-07-18,fhrs_4_en-GB,4,,FHRS,
73650,19 Market Place,Bingham,Nottinghamshire,,Signor Pepper,Takeaway/sandwich shop,7844,10,,266102,5,,52.95266200000000,03583/0019/0/000,266,envhealth@rushcliffe.gov.uk,Rushcliffe,http://www.rushcliffe.gov.uk/,-0.95166900000000,NG13 8AP,2013-07-16,fhrs_4_en-GB,4,,FHRS,0
73651,,,,,Simply The Best,Other catering premises,7841,5,,266129,5,,,04/00049/COMMER,266,envhealth@rushcliffe.gov.uk,Rushcliffe,http://www.rushcliffe.gov.uk/,,,2013-11-01,fhrs_5_en-GB,5,,FHRS,0
73652,,,,,Simply The Best,Other catering premises,7841,0,,265844,0,,,25386/0013/0/000,266,envhealth@rushcliffe.gov.uk,Rushcliffe,http://www.rushcliffe.gov.uk/,,,2014-01-21,fhrs_5_en-GB,5,,FHRS,0
73653,79 Melton Road,West Bridgford,Nottinghamshire,,Slades,Retailers - other,4613,5,,266025,5,,52.92738000000000,56337/0079/2/001,266,envhealth@rushcliffe.gov.uk,Rushcliffe,http://www.rushcliffe.gov.uk/,-1.12951300000000,NG2 6EN,2014-09-25,fhrs_5_en-GB,5,,FHRS,5
73654,25 Radcliffe Road,West Bridgford,Nottinghamshire,,Slumdog,Restaurant/Cafe/Canteen,1,10,,548846,15,,52.93810200000000,13/00033/FOOD,266,envhealth@rushcliffe.gov.uk,Rushcliffe,http://www.rushcliffe.gov.uk/,-1.13275000000000,NG2 5FF,2014-11-05,fhrs_2_en-GB,2,,FHRS,15
73655,50 Bingham Road,Radcliffe On Trent,Nottinghamshire,,Snack Stop,Takeaway/sandwich shop,7844,5,,266209,5,,52.94702600000000,35042/0050/0/000,266,envhealth@rushcliffe.gov.uk,Rushcliffe,http://www.rushcliffe.gov.uk/,-1.03445000000000,NG12 2FU,2014-03-14,fhrs_5_en-GB,5,,FHRS,5
73656,Bonington Hall,College Road,Sutton Bonington,Nottinghamshire,Sodexho,Restaurant/Cafe/Canteen,1,5,,266216,5,,52.83039700000000,48042/0502/2/000,266,envhealth@rushcliffe.gov.uk,Rushcliffe,http://www.rushcliffe.gov.uk/,-1.25173700000000,LE12 5RD,2014-03-27,fhrs_5_en-GB,5,,FHRS,5
73657,77 Wolds Drive,Keyworth,Nottinghamshire,,Sophia's,Restaurant/Cafe/Canteen,1,5,,576853,0,,52.87489100000000,12/00114/FOOD,266,envhealth@rushcliffe.gov.uk,Rushcliffe,http://www.rushcliffe.gov.uk/,-1.08306300000000,NG12 5FT,2015-02-10,fhrs_5_en-GB,5,,FHRS,5
73658,Glebe Lane,Radcliffe On Trent,Nottinghamshire,,South Nottinghamshire Academy,School/college/university,7845,5,,266165,10,,52.94503100000000,35285/0545/2/000,266,envhealth@rushcliffe.gov.uk,Rushcliffe,http://www.rushcliffe.gov.uk/,-1.03462800000000,NG12 2FQ,2013-11-27,fhrs_4_en-GB,4,,FHRS,0
73659,Church Drive,Keyworth,Nottinghamshire,,South Wolds Academy And Sixth Form,School/college/university,7845,5,,266070,5,,52.87401400000000,25125/0527/2/000,266,envhealth@rushcliffe.gov.uk,Rushcliffe,http://www.rushcliffe.gov.uk/,-1.08698900000000,NG12 5FF,2014-09-23,fhrs_5_en-GB,5,,FHRS,5
73660,Trent Bridge,West Bridgford,Nottinghamshire,,Southbank Bar,Pub/bar/nightclub,7843,5,,265941,5,,52.93827100000000,57012/0108/2/000,266,envhealth@rushcliffe.gov.uk,Rushcliffe,http://www.rushcliffe.gov.uk/,-1.13508200000000,NG2 5GJ,2013-03-21,fhrs_5_en-GB,5,,FHRS,5
73661,3 Main Road,Radcliffe On Trent,Nottinghamshire,,Spar,Retailers - other,4613,5,,265917,5,,52.94661600000000,35492/0003/0/000,266,envhealth@rushcliffe.gov.uk,Rushcliffe,http://www.rushcliffe.gov.uk/,-1.03935500000000,NG12 2FD,2013-01-09,fhrs_5_en-GB,5,,FHRS,5
73662,15 Eaton Place,Bingham,Nottinghamshire,,Spring,Takeaway/sandwich shop,7844,10,,265914,5,,52.95220000000000,07/00081/COMMER,266,envhealth@rushcliffe.gov.uk,Rushcliffe,http://www.rushcliffe.gov.uk/,-0.95333300000000,NG13 8BD,2014-02-25,fhrs_4_en-GB,4,,FHRS,5
73663,Tewkesbury Close,West Bridgford,Nottinghamshire,,St Edmund Campion Catholic Primary School,School/college/university,7845,5,,265851,5,,52.92589900000000,56958/0100/2/000,266,envhealth@rushcliffe.gov.uk,Rushcliffe,http://www.rushcliffe.gov.uk/,-1.11874300000000,NG2 5NH,2014-12-11,fhrs_5_en-GB,5,,FHRS,0
73664,Stratford Road,West Bridgford,Nottinghamshire,,St Giles Church Hall,Other catering premises,7841,,,265886,,,52.93171500000000,56904/0510/2/000,266,envhealth@rushcliffe.gov.uk,Rushcliffe,http://www.rushcliffe.gov.uk/,-1.12976800000000,NG2 6AZ,2012-03-27,fhrs_exempt_en-GB,Exempt,,FHRS,
73665,Leake Road,Gotham,Nottinghamshire,,St Lawrence Church Hall,Other catering premises,7841,5,,265950,5,,52.86582300000000,20151/0002/2/000,266,envhealth@rushcliffe.gov.uk,Rushcliffe,http://www.rushcliffe.gov.uk/,-1.20564300000000,NG11 0JQ,2012-03-22,fhrs_5_en-GB,5,,FHRS,5
73666,Leahurst Road,West Bridgford,Nottinghamshire,,St Lukes Church,Other catering premises,7841,5,,266268,5,,52.92198100000000,56175/0823/2/000,266,envhealth@rushcliffe.gov.uk,Rushcliffe,http://www.rushcliffe.gov.uk/,-1.10937700000000,NG2 6GL,2012-05-22,fhrs_5_en-GB,5,,FHRS,5
73667,Church House,East Street,Bingham,Nottinghamshire,St Mary And All Saints Church Hall,Other catering premises,7841,,,266270,,,52.95151700000000,03322/0519/2/000,266,envhealth@rushcliffe.gov.uk,Rushcliffe,http://www.rushcliffe.gov.uk/,-0.94624900000000,NG13 8DR,2012-03-28,fhrs_exempt_en-GB,Exempt,,FHRS,
73668,Brookside,East Leake,Nottinghamshire,,St Marys Hall,Other catering premises,7841,,,266305,,,52.82909300000000,15087/0908/2/000,266,envhealth@rushcliffe.gov.uk,Rushcliffe,http://www.rushcliffe.gov.uk/,-1.18336700000000,LE12 6PB,2012-03-28,fhrs_exempt_en-GB,Exempt,,FHRS,
73669,Boundary Road,West Bridgford,Nottinghamshire,,St Pauls Church Hall,Other catering premises,7841,,,265996,,,52.92035500000000,55131/0085/2/000,266,envhealth@rushcliffe.gov.uk,Rushcliffe,http://www.rushcliffe.gov.uk/,-1.13011500000000,NG2 7BD,2013-11-21,fhrs_exempt_en-GB,Exempt,,FHRS,
73670,Kneeton Road,East Bridgford,Nottinghamshire,,St Peters Church Of England Primary School,School/college/university,7845,0,,265787,0,,52.98228800000000,14158/0549/2/000,266,envhealth@rushcliffe.gov.uk,Rushcliffe,http://www.rushcliffe.gov.uk/,-0.97080700000000,NG13 8PG,2013-09-17,fhrs_5_en-GB,5,,FHRS,0
73671,Ashworth Avenue,Ruddington,Nottinghamshire,,St Peter's Church Of England School,School/college/university,7845,0,,265741,5,,52.89799600000000,39023/0905/2/001,266,envhealth@rushcliffe.gov.uk,Rushcliffe,http://www.rushcliffe.gov.uk/,-1.14351000000000,NG11 6GB,2014-09-05,fhrs_5_en-GB,5,,FHRS,0
73672,St Peters C Of E Primary School,Kneeton Road,East Bridgford,Nottinghamshire,St Peters Out Of School Club,School/college/university,7845,0,,266221,5,,52.98228800000000,11/00056/FOOD,266,envhealth@rushcliffe.gov.uk,Rushcliffe,http://www.rushcliffe.gov.uk/,-0.97080700000000,NG13 8PG,2014-01-16,fhrs_4_en-GB,4,,FHRS,10
73673,Vicarage Lane,Ruddington,Nottinghamshire,,St Peters Rest Home,Hospitals/Childcare/Caring Premises,5,5,,266321,0,,52.89217300000000,39725/0900/2/001,266,envhealth@rushcliffe.gov.uk,Rushcliffe,http://www.rushcliffe.gov.uk/,-1.15261800000000,NG11 6HB,2014-09-18,fhrs_5_en-GB,5,,FHRS,0
73674,St Peters Junior School,Ashworth Avenue,Ruddington,Nottinghamshire,St. Peters Breakfast And Afterschool Club,Hospitals/Childcare/Caring Premises,5,0,,569532,5,,52.89799600000000,10/00107/FOOD,266,envhealth@rushcliffe.gov.uk,Rushcliffe,http://www.rushcliffe.gov.uk/,-1.14351000000000,NG11 6GB,2013-07-10,fhrs_4_en-GB,4,,FHRS,10
73675,Club House,Golf Course Road,Stanton On The Wolds,Nottinghamshire,Stanton On The Wolds Golf Club Stanton Lane,Restaurant/Cafe/Canteen,1,5,,265819,5,,52.87100300000000,47014/0509/2/000,266,envhealth@rushcliffe.gov.uk,Rushcliffe,http://www.rushcliffe.gov.uk/,-1.06750100000000,NG12 5BH,2015-02-02,fhrs_5_en-GB,5,,FHRS,5
73676,Melton Lane,Sutton Bonington,Nottinghamshire,,Star Inn,Pub/bar/nightclub,7843,5,,357051,5,,52.83216700000000,12/00030/FOOD,266,envhealth@rushcliffe.gov.uk,Rushcliffe,http://www.rushcliffe.gov.uk/,-1.23600300000000,LE12 5RQ,2013-12-11,fhrs_4_en-GB,4,,FHRS,10
73677,Flat 2 Trent Bridge Buildings,Pavilion Road,West Bridgford,Nottinghamshire,Strawberry Cupcakes,Other catering premises,7841,5,,664743,5,,52.93780100000000,12/00072/FOOD,266,envhealth@rushcliffe.gov.uk,Rushcliffe,http://www.rushcliffe.gov.uk/,-1.13472000000000,NG2 5FB,2013-08-14,fhrs_5_en-GB,5,,FHRS,5
73678,130 - 132 Loughborough Road,Ruddington,Nottinghamshire,,Subway At Esso Petrol Station,Takeaway/sandwich shop,7844,10,,701037,5,,52.89559900000000,14/00084/FOOD,266,envhealth@rushcliffe.gov.uk,Rushcliffe,http://www.rushcliffe.gov.uk/,-1.14262100000000,NG11 6LJ,2014-09-08,fhrs_4_en-GB,4,,FHRS,5
73679,26 Main Road,Radcliffe On Trent,Nottinghamshire,,SuperNews And Cards,Retailers - other,4613,5,,265728,5,,52.94710700000000,35492/0026/0/000,266,envhealth@rushcliffe.gov.uk,Rushcliffe,http://www.rushcliffe.gov.uk/,-1.03897200000000,NG12 2FH,2014-09-30,fhrs_5_en-GB,5,,FHRS,5
73680,1 Landcroft Lane,Sutton Bonington,Nottinghamshire,,Sutton Bonington Bowls Club,Other catering premises,7841,,,266021,,,52.82995900000000,09/00062/FOOD,266,envhealth@rushcliffe.gov.uk,Rushcliffe,http://www.rushcliffe.gov.uk/,-1.23509100000000,LE12 5PD,2012-06-25,fhrs_exempt_en-GB,Exempt,,FHRS,
73681,Park Lane,Sutton Bonington,Nottinghamshire,,Sutton Bonington County Primary School,School/college/university,7845,0,,265948,5,,52.81447400000000,48141/0902/2/000,266,envhealth@rushcliffe.gov.uk,Rushcliffe,http://www.rushcliffe.gov.uk/,-1.24558600000000,LE12 5NH,2014-05-16,fhrs_5_en-GB,5,,FHRS,5
73682,28 Main Street,Sutton Bonington,Nottinghamshire,,Sutton Bonington Post Office,Retailers - other,4613,,,265773,,,52.81878600000000,48096/0028/0/000,266,envhealth@rushcliffe.gov.uk,Rushcliffe,http://www.rushcliffe.gov.uk/,-1.24800400000000,LE12 5NE,2012-03-28,fhrs_exempt_en-GB,Exempt,,FHRS,
73683,17 Bucks Lane,Sutton Bonington,Nottinghamshire,,Sutton Bonington Pre School Play Group,Hospitals/Childcare/Caring Premises,5,5,,266080,5,,52.82387500000000,03/00016/COMMER,266,envhealth@rushcliffe.gov.uk,Rushcliffe,http://www.rushcliffe.gov.uk/,-1.25236900000000,LE12 5PB,2013-06-10,fhrs_5_en-GB,5,,FHRS,5
73684,,,,,SWALC,Other catering premises,7841,5,,664750,5,,,14/00007/FOOD,266,envhealth@rushcliffe.gov.uk,Rushcliffe,http://www.rushcliffe.gov.uk/,,,2014-01-28,fhrs_5_en-GB,5,,FHRS,0
73685,84-90 Radcliffe Road,West Bridgford,Nottinghamshire,,Swans Hotel,Hotel/bed & breakfast/guest house,7842,5,,266248,5,,52.93785700000000,08/00085/FOOD,266,envhealth@rushcliffe.gov.uk,Rushcliffe,http://www.rushcliffe.gov.uk/,-1.12631200000000,NG2 5HH,2013-03-12,fhrs_5_en-GB,5,,FHRS,5
73686,Unit 22,Manvers Business Park,High Hazles Road,Cotgrave,Sweet Surrender,Manufacturers/packers,7839,0,,266202,0,,52.91449400000000,11385/0022/0/000,266,envhealth@rushcliffe.gov.uk,Rushcliffe,http://www.rushcliffe.gov.uk/,-1.03468200000000,NG12 3GZ,2015-02-12,fhrs_5_en-GB,5,,FHRS,0
73687,19 Radcliffe Road,West Bridgford,Nottinghamshire,,Taj Lounge,Restaurant/Cafe/Canteen,1,5,,610546,5,,52.93810200000000,13/00061/FOOD,266,envhealth@rushcliffe.gov.uk,Rushcliffe,http://www.rushcliffe.gov.uk/,-1.13275000000000,NG2 5FF,2013-11-12,fhrs_5_en-GB,5,,FHRS,5
73688,99 Melton Road,West Bridgford,Nottinghamshire,,Tall Frog,Retailers - other,4613,5,,266237,0,,52.92592000000000,56337/0099/2/000,266,envhealth@rushcliffe.gov.uk,Rushcliffe,http://www.rushcliffe.gov.uk/,-1.12772700000000,NG2 6ET,2014-02-19,fhrs_5_en-GB,5,,FHRS,5
73689,65 Clumber Road,West Bridgford,Nottinghamshire,,Taste,Restaurant/Cafe/Canteen,1,5,,266370,5,,52.92730700000000,04/00069/COMMER,266,envhealth@rushcliffe.gov.uk,Rushcliffe,http://www.rushcliffe.gov.uk/,-1.12688100000000,NG2 6DP,2014-03-12,fhrs_5_en-GB,5,,FHRS,5
73690,56 Grantham Road,Radcliffe On Trent,Nottinghamshire,,Tea At Marias,Restaurant/Cafe/Canteen,1,0,,638379,0,,52.94919200000000,14/00001/FOOD,266,envhealth@rushcliffe.gov.uk,Rushcliffe,http://www.rushcliffe.gov.uk/,-1.02014300000000,NG12 2HS,2014-03-05,fhrs_5_en-GB,5,,FHRS,0
73691,1 Main Road,Cotgrave,Nottinghamshire,,Tea For Two,Restaurant/Cafe/Canteen,1,5,,357050,5,,52.91401400000000,11/00094/FOOD,266,envhealth@rushcliffe.gov.uk,Rushcliffe,http://www.rushcliffe.gov.uk/,-1.04430000000000,NG12 3HQ,2015-02-10,fhrs_5_en-GB,5,,FHRS,0
73692,Ruddington Grange Golf Course,Wilford Road,Ruddington,Nottinghamshire,Tee And Sandwedge Shop,Takeaway/sandwich shop,7844,5,,265879,5,,52.90539700000000,12/00037/FOOD,266,envhealth@rushcliffe.gov.uk,Rushcliffe,http://www.rushcliffe.gov.uk/,-1.15128900000000,NG11 6NB,2013-07-24,fhrs_5_en-GB,5,,FHRS,5
73693,Unit 2,Old Post Office Yard,Long Acre,Bingham,Tempted By Chocolate Ltd,Retailers - other,4613,5,,716612,5,,52.95146700000000,14/00089/FOOD,266,envhealth@rushcliffe.gov.uk,Rushcliffe,http://www.rushcliffe.gov.uk/,-0.95482400000000,NG13 8AF,2014-11-04,fhrs_5_en-GB,5,,FHRS,5
73694,Former Canteen Building Hathernware,Rempstone Road,Sutton Bonington,Nottinghamshire,Terra-Cotta Cafe,Restaurant/Cafe/Canteen,1,5,,716609,5,,52.81326300000000,14/00057/FOOD,266,envhealth@rushcliffe.gov.uk,Rushcliffe,http://www.rushcliffe.gov.uk/,-1.23768400000000,LE12 5EH,2014-10-20,fhrs_5_en-GB,5,,FHRS,5
73695,Unit 8 Shopping Centre,Compton Acres,West Bridgford,Nottinghamshire,Tesco,Retailers - other,4613,0,,265723,0,,52.91868500000000,55405/0508/0/000,266,envhealth@rushcliffe.gov.uk,Rushcliffe,http://www.rushcliffe.gov.uk/,-1.15274000000000,NG2 7RS,2013-01-04,fhrs_5_en-GB,5,,FHRS,0
73696,Stanstead Avenue,Tollerton,Nottinghamshire,,The Air Hostess,Pub/bar/nightclub,7843,10,,266340,10,,52.90037100000000,53178/0522/2/000,266,envhealth@rushcliffe.gov.uk,Rushcliffe,http://www.rushcliffe.gov.uk/,-1.09877400000000,NG12 4EA,2013-11-20,fhrs_3_en-GB,3,,FHRS,5
73697,16 Bollards Lane,Sutton Bonington,Nottinghamshire,,The Anchor Inn,Pub/bar/nightclub,7843,0,,266087,0,,52.82450000000000,48006/0016/2/000,266,envhealth@rushcliffe.gov.uk,Rushcliffe,http://www.rushcliffe.gov.uk/,-1.25317400000000,LE12 5PA,2014-03-27,fhrs_5_en-GB,5,,FHRS,5
73698,Compton Acres,West Bridgford,Nottinghamshire,,The Apple Tree,Pub/bar/nightclub,7843,0,,265815,0,,52.92332300000000,90019/0899/2/000,266,envhealth@rushcliffe.gov.uk,Rushcliffe,http://www.rushcliffe.gov.uk/,-1.15400300000000,NG2 7PA,2013-10-16,fhrs_5_en-GB,5,,FHRS,0
73699,The Becket Way,West Bridgford,Nottinghamshire,,The Beckett School,School/college/university,7845,5,,265697,10,,52.93225000000000,11/00118/FOOD,266,envhealth@rushcliffe.gov.uk,Rushcliffe,http://www.rushcliffe.gov.uk/,-1.13895200000000,NG2 7QY,2015-01-13,fhrs_4_en-GB,4,,FHRS,5
73700,65 Wilford Lane,West Bridgford,Nottinghamshire,,The Beeches Hotel,Hotel/bed & breakfast/guest house,7842,5,,266103,5,,52.92918800000000,57255/0065/2/000,266,envhealth@rushcliffe.gov.uk,Rushcliffe,http://www.rushcliffe.gov.uk/,-1.14570700000000,NG2 7RN,2014-03-14,fhrs_5_en-GB,5,,FHRS,5
73701,23 High Street,Ruddington,Nottinghamshire,,The Bricklayers Arms,Pub/bar/nightclub,7843,5,,266253,5,,52.89214000000000,39338/0900/2/000,266,envhealth@rushcliffe.gov.uk,Rushcliffe,http://www.rushcliffe.gov.uk/,-1.14918500000000,NG11 6DT,2013-01-16,fhrs_5_en-GB,5,,FHRS,5
73702,78 Main Street,East Leake,Nottinghamshire,,The Bulls Head,Pub/bar/nightclub,7843,10,,266184,5,,52.83129800000000,15276/0078/2/000,266,envhealth@rushcliffe.gov.uk,Rushcliffe,http://www.rushcliffe.gov.uk/,-1.17726900000000,LE12 6PG,2013-11-22,fhrs_3_en-GB,3,,FHRS,10
73703,J D Wetherspoons PLC,The Butter Cross,Market Place,Bingham,The Butter Cross,Pub/bar/nightclub,7843,0,,537769,0,,52.95266200000000,12/00122/FOOD,266,envhealth@rushcliffe.gov.uk,Rushcliffe,http://www.rushcliffe.gov.uk/,-0.95166900000000,NG13 8AP,2013-04-16,fhrs_5_en-GB,5,,FHRS,0
73704,11 Church Street,Cropwell Bishop,Nottinghamshire,,The Cabin,Retailers - other,4613,,,266038,,,52.91229700000000,12016/0011/0/000,266,envhealth@rushcliffe.gov.uk,Rushcliffe,http://www.rushcliffe.gov.uk/,-0.98675800000000,NG12 3BP,2014-03-21,fhrs_exempt_en-GB,Exempt,,FHRS,
73705,Church Street,Cropwell Bishop,Nottinghamshire,,The Chequers Inn,Pub/bar/nightclub,7843,5,,265893,5,,52.91421000000000,12016/0519/2/000,266,envhealth@rushcliffe.gov.uk,Rushcliffe,http://www.rushcliffe.gov.uk/,-0.98235600000000,NG12 3DB,2012-03-13,fhrs_5_en-GB,5,,FHRS,5
73706,The Chesterfield,Church Street,Bingham,Nottinghamshire,The Chesterfield Arms,Pub/bar/nightclub,7843,20,,266228,5,,52.95233200000000,03250/0506/2/000,266,envhealth@rushcliffe.gov.uk,Rushcliffe,http://www.rushcliffe.gov.uk/,-0.94993600000000,NG13 8AL,2014-12-11,fhrs_1_en-GB,1,,FHRS,10
73707,103 Loughborough Road,West Bridgford,Nottinghamshire,,The Childrens Corner,Hospitals/Childcare/Caring Premises,5,5,,265789,5,,52.93094200000000,56202/0103/2/000,266,envhealth@rushcliffe.gov.uk,Rushcliffe,http://www.rushcliffe.gov.uk/,-1.13717700000000,NG2 7JX,2014-12-17,fhrs_5_en-GB,5,,FHRS,5
73708,1 Walkers Yard,Radcliffe On Trent,Nottinghamshire,,The Chocolate Box,Retailers - other,4613,5,,265994,5,,52.94645000000000,07/00087/COMMER,266,envhealth@rushcliffe.gov.uk,Rushcliffe,http://www.rushcliffe.gov.uk/,-1.03778100000000,NG12 2FF,2012-03-22,fhrs_5_en-GB,5,,FHRS,5
73709,Cafe Piano Limited,7 Market Place,Bingham,Nottinghamshire,The Circle Eatery,Restaurant/Cafe/Canteen,1,5,,638378,5,,52.95266200000000,13/00079/FOOD,266,envhealth@rushcliffe.gov.uk,Rushcliffe,http://www.rushcliffe.gov.uk/,-0.95166900000000,NG13 8AP,2014-03-18,fhrs_5_en-GB,5,,FHRS,5
73710,Thurlby Farm,Thurlby Lane,Stanton On The Wolds,Nottinghamshire,The Coffee Bean - ONE OF TWO PREMISES HERE,Mobile caterer,7846,5,,696357,5,,52.86033700000000,13/00009/FOOD,266,envhealth@rushcliffe.gov.uk,Rushcliffe,http://www.rushcliffe.gov.uk/,-1.06351100000000,NG12 5BS,2013-03-13,fhrs_5_en-GB,5,,FHRS,0
73711,22a Main Road,Radcliffe On Trent,Nottinghamshire,,The Co-Operative,Retailers - supermarkets/hypermarkets,7840,0,,649016,0,,52.94710700000000,09/00018/COMMER,266,envhealth@rushcliffe.gov.uk,Rushcliffe,http://www.rushcliffe.gov.uk/,-1.03897200000000,NG12 2FH,2014-03-19,fhrs_5_en-GB,5,,FHRS,0
73712,4 Cotgrave Shopping Centre,Candleby Lane,Cotgrave,Nottinghamshire,The Co-operative,Retailers - supermarkets/hypermarkets,7840,5,,465650,5,,52.91061500000000,09/00004/FOOD,266,envhealth@rushcliffe.gov.uk,Rushcliffe,http://www.rushcliffe.gov.uk/,-1.03749000000000,NG12 3JQ,2014-08-05,fhrs_5_en-GB,5,,FHRS,5
73713,18 The Square,Keyworth,Nottinghamshire,,The Co-Operative Group,Retailers - supermarkets/hypermarkets,7840,5,,266178,5,,52.87116300000000,25521/0018/0/000,266,envhealth@rushcliffe.gov.uk,Rushcliffe,http://www.rushcliffe.gov.uk/,-1.09034700000000,NG12 5JT,2013-07-04,fhrs_5_en-GB,5,,FHRS,5
73714,2-4 The Square,Keyworth,Nottinghamshire,,The Co-operative Pharmacy,Retailers - other,4613,,,266157,,,52.87116300000000,25521/0002/0/000,266,envhealth@rushcliffe.gov.uk,Rushcliffe,http://www.rushcliffe.gov.uk/,-1.09034700000000,NG12 5JT,2014-03-28,fhrs_exempt_en-GB,Exempt,,FHRS,
73715,21 Ashworth Avenue,Ruddington,Nottinghamshire,,The Corner Shop,Retailers - other,4613,5,,265929,5,,52.89779600000000,39023/0021/0/000,266,envhealth@rushcliffe.gov.uk,Rushcliffe,http://www.rushcliffe.gov.uk/,-1.14690400000000,NG11 6GD,2014-01-31,fhrs_5_en-GB,5,,FHRS,5
73716,Candleby Lane,Cotgrave,Nottinghamshire,,The Cotgrave Candleby Lane School,School/college/university,7845,0,,266348,5,,52.91022400000000,07/00038/COMMER,266,envhealth@rushcliffe.gov.uk,Rushcliffe,http://www.rushcliffe.gov.uk/,-1.03916400000000,NG12 3JG,2015-02-06,fhrs_5_en-GB,5,,FHRS,0
73717,52 Main Street,East Leake,Nottinghamshire,,The Cottage,Restaurant/Cafe/Canteen,1,20,,265848,10,,52.83129800000000,04/00006/COMMER,266,envhealth@rushcliffe.gov.uk,Rushcliffe,http://www.rushcliffe.gov.uk/,-1.17726900000000,LE12 6PG,2013-03-04,fhrs_1_en-GB,1,,FHRS,5
73718,Easthorpe Street,Ruddington,Nottinghamshire,,The Country Cottage Hotel,Hotel/bed & breakfast/guest house,7842,10,,266281,10,,52.89289900000000,39248/0012/0/000,266,envhealth@rushcliffe.gov.uk,Rushcliffe,http://www.rushcliffe.gov.uk/,-1.14717800000000,NG11 6LA,2014-08-13,fhrs_3_en-GB,3,,FHRS,10
73719,Main Street,Aslockton,Nottinghamshire,,The Cranmer Arms,Pub/bar/nightclub,7843,0,,266341,5,,52.95416600000000,01086/0646/2/000,266,envhealth@rushcliffe.gov.uk,Rushcliffe,http://www.rushcliffe.gov.uk/,-0.89637900000000,NG13 9AL,2013-10-09,fhrs_5_en-GB,5,,FHRS,5
73720,Leake Road,Gotham,Nottinghamshire,,The Cuckoo Bush,Pub/bar/nightclub,7843,20,,266308,15,,52.86637900000000,20151/0900/2/000,266,envhealth@rushcliffe.gov.uk,Rushcliffe,http://www.rushcliffe.gov.uk/,-1.20555800000000,NG11 0JL,2014-11-11,fhrs_1_en-GB,1,,FHRS,10
73721,29 Station Terrace,Radcliffe On Trent,Nottinghamshire,,The Deli @ Radcliffe,Restaurant/Cafe/Canteen,1,5,,516047,5,,52.94765100000000,12/00128/FOOD,266,envhealth@rushcliffe.gov.uk,Rushcliffe,http://www.rushcliffe.gov.uk/,-1.03838000000000,NG12 2AH,2013-02-11,fhrs_5_en-GB,5,,FHRS,0
73722,Nottingham Road,Keyworth,Nottinghamshire,,The Fairway Public House,Pub/bar/nightclub,7843,5,,266042,5,,52.87721600000000,25404/0555/2/000,266,envhealth@rushcliffe.gov.uk,Rushcliffe,http://www.rushcliffe.gov.uk/,-1.08732300000000,NG12 5GW,2013-04-30,fhrs_4_en-GB,4,,FHRS,10
73723,Main Street,Sibthorpe,Nottinghamshire,,The Firs Bed And Breakfast,Hotel/bed & breakfast/guest house,7842,5,,266026,5,,53.00085600000000,08/00083/FOOD,266,envhealth@rushcliffe.gov.uk,Rushcliffe,http://www.rushcliffe.gov.uk/,-0.86358300000000,NG23 5PN,2015-01-22,fhrs_5_en-GB,5,,FHRS,0
73724,4 Gordon Road,West Bridgford,Nottinghamshire,,The Fruit Basket,Retailers - other,4613,5,,266314,5,,52.92993200000000,55788/0004/0/000,266,envhealth@rushcliffe.gov.uk,Rushcliffe,http://www.rushcliffe.gov.uk/,-1.12565300000000,NG2 5LN,2013-03-19,fhrs_5_en-GB,5,,FHRS,5
73725,Six Acre Nurseries  Garden Centre,Loughborough Road,Costock,Nottinghamshire,The Garden Deli And Coffee Shop,Restaurant/Cafe/Canteen,1,0,,530905,5,,52.82335300000000,08/00062/COMMER,266,envhealth@rushcliffe.gov.uk,Rushcliffe,http://www.rushcliffe.gov.uk/,-1.14698200000000,LE12 6XB,2013-03-19,fhrs_5_en-GB,5,,FHRS,0
73726,14 Main Street,Costock,Nottinghamshire,,The Generous Briton,Pub/bar/nightclub,7843,5,,266159,5,,52.83153300000000,10059/0014/2/000,266,envhealth@rushcliffe.gov.uk,Rushcliffe,http://www.rushcliffe.gov.uk/,-1.15066600000000,LE12 6XD,2014-01-15,fhrs_4_en-GB,4,,FHRS,10
73727,Main Road,Upper Broughton,Nottinghamshire,,The Golden Fleece,Pub/bar/nightclub,7843,10,,266158,10,,52.82893400000000,54071/0562/2/000,266,envhealth@rushcliffe.gov.uk,Rushcliffe,http://www.rushcliffe.gov.uk/,-0.98764400000000,LE14 3BG,2014-03-13,fhrs_3_en-GB,3,,FHRS,10
73728,Ambleside,Gamston,Nottinghamshire,,The Goose At Gamston,Pub/bar/nightclub,7843,,,265969,,,53.14605712890625,19010/1004/2/000,266,envhealth@rushcliffe.gov.uk,Rushcliffe,http://www.rushcliffe.gov.uk/,-0.99268501996994,NG2 6NA,2014-11-20,fhrs_5_en-GB,5,,FHRS,
73729,Main Road,Plumtree,Nottinghamshire,,The Griffin Inn,Pub/bar/nightclub,7843,20,,265720,15,,52.89240800000000,34068/0541/2/000,266,envhealth@rushcliffe.gov.uk,Rushcliffe,http://www.rushcliffe.gov.uk/,-1.09073500000000,NG12 5NB,2014-04-02,fhrs_1_en-GB,1,,FHRS,15
73730,29-30 Central Avenue,West Bridgford,Nottinghamshire,,The Health Store,Retailers - other,4613,5,,265951,5,,52.93186000000000,55311/0029/2/001,266,envhealth@rushcliffe.gov.uk,Rushcliffe,http://www.rushcliffe.gov.uk/,-1.12620900000000,NG2 5GQ,2012-06-25,fhrs_5_en-GB,5,,FHRS,5
73731,20 Gotham Road,East Leake,Nottinghamshire,,The Honey Bee Day Nursery,Hospitals/Childcare/Caring Premises,5,0,,265703,0,,52.84398600000000,15213/0020/0/000,266,envhealth@rushcliffe.gov.uk,Rushcliffe,http://www.rushcliffe.gov.uk/,-1.17778700000000,LE12 6JQ,2014-03-10,fhrs_5_en-GB,5,,FHRS,5
73732,3 Church Street,Ruddington,Nottinghamshire,,The Honeycomb Christian Charity Shop,Retailers - other,4613,,,265968,,,52.89228900000000,39167/0003/2/000,266,envhealth@rushcliffe.gov.uk,Rushcliffe,http://www.rushcliffe.gov.uk/,-1.14997000000000,NG11 6HA,2012-03-27,fhrs_exempt_en-GB,Exempt,,FHRS,
73733,Main Road,Radcliffe On Trent,Nottinghamshire,,The Horse Chestnut,Pub/bar/nightclub,7843,10,,266061,10,,52.94646700000000,06/00055/COMMER,266,envhealth@rushcliffe.gov.uk,Rushcliffe,http://www.rushcliffe.gov.uk/,-1.04431400000000,NG12 2BE,2013-11-27,fhrs_2_en-GB,2,,FHRS,15
73734,4C Cotgrave Shopping Centre,Candleby Lane,Cotgrave,Nottinghamshire,The Hot Bread Shop,Retailers - other,4613,5,,266292,5,,52.91061500000000,11690/0004/C/000,266,envhealth@rushcliffe.gov.uk,Rushcliffe,http://www.rushcliffe.gov.uk/,-1.03749000000000,NG12 3JQ,2014-09-18,fhrs_5_en-GB,5,,FHRS,5
73735,81 Wolds Drive,Keyworth,Nottinghamshire,,The Hot Bread Shop,Retailers - other,4613,5,,265908,5,,52.87489100000000,25584/0081/0/000,266,envhealth@rushcliffe.gov.uk,Rushcliffe,http://www.rushcliffe.gov.uk/,-1.08306300000000,NG12 5FT,2013-08-13,fhrs_5_en-GB,5,,FHRS,5
73736,75 Main Street,Sutton Bonington,Nottinghamshire,,The Kings Head,Pub/bar/nightclub,7843,5,,265817,5,,52.82326200000000,48096/0075/2/000,266,envhealth@rushcliffe.gov.uk,Rushcliffe,http://www.rushcliffe.gov.uk/,-1.25356600000000,LE12 5PE,2014-03-14,fhrs_5_en-GB,5,,FHRS,5
73737,Colston Road,Cropwell Bishop,Nottinghamshire,,The Lime Kiln,Pub/bar/nightclub,7843,0,,265744,5,,52.90624900000000,12133/0555/2/000,266,envhealth@rushcliffe.gov.uk,Rushcliffe,http://www.rushcliffe.gov.uk/,-0.99970100000000,NG12 3BN,2014-02-20,fhrs_5_en-GB,5,,FHRS,0
73738,Oddhouse Farm,Colston Bassett Lane,Owthorpe,Nottinghamshire,The Little Retreat,Other catering premises,7841,5,,730959,5,,52.88930700000000,14/00079/FOOD,266,envhealth@rushcliffe.gov.uk,Rushcliffe,http://www.rushcliffe.gov.uk/,-0.98953800000000,NG12 3SF,2014-12-12,fhrs_5_en-GB,5,,FHRS,0
73739,12 Church Street,Ruddington,Nottinghamshire,,The Lovely Little Wool Shop,Other catering premises,7841,5,,722529,5,,52.89228900000000,14/00065/FOOD,266,envhealth@rushcliffe.gov.uk,Rushcliffe,http://www.rushcliffe.gov.uk/,-1.14997000000000,NG11 6HA,2014-08-13,fhrs_5_en-GB,5,,FHRS,5
73740,80 Manor Road,Keyworth,Nottinghamshire,,The Manor House,Takeaway/sandwich shop,7844,20,,266349,20,,52.87348900000000,25359/0080/0/000,266,envhealth@rushcliffe.gov.uk,Rushcliffe,http://www.rushcliffe.gov.uk/,-1.09239300000000,NG12 5GL,2014-09-10,fhrs_0_en-GB,0,,FHRS,20
73741,Main Road,Radcliffe On Trent,Nottinghamshire,,The Manvers Arms,Pub/bar/nightclub,7843,5,,427359,5,,52.94699600000000,35492/0609/2/000,266,envhealth@rushcliffe.gov.uk,Rushcliffe,http://www.rushcliffe.gov.uk/,-1.04074600000000,NG12 2AA,2014-03-24,fhrs_5_en-GB,5,,FHRS,5
73742,The Cross,Cotgrave,Nottinghamshire,,The Manvers Arms,Pub/bar/nightclub,7843,5,,265866,5,,52.91208300000000,11654/0584/2/000,266,envhealth@rushcliffe.gov.uk,Rushcliffe,http://www.rushcliffe.gov.uk/,-1.04221600000000,NG12 3HS,2014-03-27,fhrs_5_en-GB,5,,FHRS,5
73743,Dragon Street,Granby,Nottinghamshire,,The Marquis Of Granby,Pub/bar/nightclub,7843,5,,266092,5,,52.91876400000000,21044/0506/2/000,266,envhealth@rushcliffe.gov.uk,Rushcliffe,http://www.rushcliffe.gov.uk/,-0.88662900000000,NG13 9PN,2014-09-23,fhrs_5_en-GB,5,,FHRS,5
73744,School Lane,Colston Bassett,Nottinghamshire,,The Martins Arms,Pub/bar/nightclub,7843,10,,265827,5,,52.89071000000000,09062/0558/2/000,266,envhealth@rushcliffe.gov.uk,Rushcliffe,http://www.rushcliffe.gov.uk/,-0.96456500000000,NG12 3FD,2012-05-10,fhrs_4_en-GB,4,,FHRS,5
73745,Alford Road,Edwalton,Nottinghamshire,,The Meadow Covert,Pub/bar/nightclub,7843,0,,266212,5,,52.91483500000000,55050/0145/2/000,266,envhealth@rushcliffe.gov.uk,Rushcliffe,http://www.rushcliffe.gov.uk/,-1.10820000000000,NG12 4AT,2014-10-20,fhrs_5_en-GB,5,,FHRS,5
73746,83 Wolds Drive,Keyworth,Nottinghamshire,,The Moghul,Takeaway/sandwich shop,7844,5,,266239,5,,52.87489100000000,25584/0083/0/000,266,envhealth@rushcliffe.gov.uk,Rushcliffe,http://www.rushcliffe.gov.uk/,-1.08306300000000,NG12 5FT,2015-02-10,fhrs_5_en-GB,5,,FHRS,5
73747,70 Bridgford Road,West Bridgford,Nottinghamshire,,The Monkey Tree,Pub/bar/nightclub,7843,10,,266224,15,,52.93357200000000,55185/0070/0/000,266,envhealth@rushcliffe.gov.uk,Rushcliffe,http://www.rushcliffe.gov.uk/,-1.12925500000000,NG2 6AP,2014-12-05,fhrs_2_en-GB,2,,FHRS,10
73748,14 Main Street,East Leake,Nottinghamshire,,The Nags Head,Pub/bar/nightclub,7843,5,,266242,5,,52.83129800000000,15276/0014/2/000,266,envhealth@rushcliffe.gov.uk,Rushcliffe,http://www.rushcliffe.gov.uk/,-1.17726900000000,LE12 6PG,2013-03-25,fhrs_5_en-GB,5,,FHRS,5
73749,Stragglethorpe Road,Stragglethorpe,Nottinghamshire,,The Nottinghamshire Golf And Country Club Ltd,Restaurant/Cafe/Canteen,1,10,,266170,5,,52.92327400000000,11645/0600/2/000,266,envhealth@rushcliffe.gov.uk,Rushcliffe,http://www.rushcliffe.gov.uk/,-1.01782800000000,NG12 2JW,2014-06-12,fhrs_4_en-GB,4,,FHRS,5
73750,2 Brookside,East Leake,Nottinghamshire,,The Offy,Retailers - other,4613,5,,266246,5,,52.82909300000000,08/00088/FOOD,266,envhealth@rushcliffe.gov.uk,Rushcliffe,http://www.rushcliffe.gov.uk/,-1.18336700000000,LE12 6PB,2014-10-22,fhrs_5_en-GB,5,,FHRS,5
73751,58 Church Street,Ruddington,Nottinghamshire,,The Old Bakehouse And Tea Room,Restaurant/Cafe/Canteen,1,5,,447947,5,,52.89159800000000,12/00079/FOOD,266,envhealth@rushcliffe.gov.uk,Rushcliffe,http://www.rushcliffe.gov.uk/,-1.15138100000000,NG11 6HD,2014-03-10,fhrs_5_en-GB,5,,FHRS,5
73752,Compton Acres,West Bridgford,Nottinghamshire,,The Old Colonial,Pub/bar/nightclub,7843,0,,265689,0,,52.91868500000000,55405/0898/2/000,266,envhealth@rushcliffe.gov.uk,Rushcliffe,http://www.rushcliffe.gov.uk/,-1.15274000000000,NG2 7RS,2014-05-21,fhrs_5_en-GB,5,,FHRS,0
73753,7-9 Wallace Street,Gotham,Nottinghamshire,,The Old Co-operative Day Nursery Limited,Hospitals/Childcare/Caring Premises,5,0,,266261,5,,52.86947100000000,20268/0007/0/000,266,envhealth@rushcliffe.gov.uk,Rushcliffe,http://www.rushcliffe.gov.uk/,-1.20272400000000,NG11 0HJ,2013-11-08,fhrs_5_en-GB,5,,FHRS,5
73754,The Olde Bakehouse Shoppe,1 The Green,East Leake,Nottinghamshire,The Olde Bakehouse Pet Shoppe,Retailers - other,4613,,,266047,,,52.83082300000000,15564/0001/0/001,266,envhealth@rushcliffe.gov.uk,Rushcliffe,http://www.rushcliffe.gov.uk/,-1.18000900000000,LE12 6LD,2014-10-02,fhrs_exempt_en-GB,Exempt,,FHRS,
73755,6 Trent Bridge,West Bridgford,Nottinghamshire,,The Orchid Restaurant,Restaurant/Cafe/Canteen,1,10,,266117,10,,52.93806400000000,06/00060/COMMER,266,envhealth@rushcliffe.gov.uk,Rushcliffe,http://www.rushcliffe.gov.uk/,-1.13496800000000,NG2 5GN,2014-01-08,fhrs_3_en-GB,3,,FHRS,10
73756,26 Gordon Road,West Bridgford,Nottinghamshire,,The Orient,Takeaway/sandwich shop,7844,10,,265855,10,,52.92993200000000,55788/0026/0/000,266,envhealth@rushcliffe.gov.uk,Rushcliffe,http://www.rushcliffe.gov.uk/,-1.12565300000000,NG2 5LN,2014-02-27,fhrs_3_en-GB,3,,FHRS,5
73757,14 Rectory Road,West Bridgford,Nottinghamshire,,The Oriental Takeaway,Takeaway/sandwich shop,7844,5,,265729,5,,52.92959500000000,09/00041/FOOD,266,envhealth@rushcliffe.gov.uk,Rushcliffe,http://www.rushcliffe.gov.uk/,-1.12997400000000,NG2 6BG,2014-02-17,fhrs_5_en-GB,5,,FHRS,5
73758,92A Main Street,Sutton Bonington,Nottinghamshire,,The Pantry,Manufacturers/packers,7839,5,,716610,5,,52.82202700000000,14/00061/FOOD,266,envhealth@rushcliffe.gov.uk,Rushcliffe,http://www.rushcliffe.gov.uk/,-1.25167300000000,LE12 5PF,2014-10-29,fhrs_5_en-GB,5,,FHRS,5
73759,48 - 50 Bridgford Road,West Bridgford,Nottinghamshire,,The Parlour,Restaurant/Cafe/Canteen,1,,,689591,,,,14/00038/FOOD,266,envhealth@rushcliffe.gov.uk,Rushcliffe,http://www.rushcliffe.gov.uk/,,,2014-12-10,fhrs_5_en-GB,5,,FHRS,
73760,Town Pavilion,Brendon Grove,Bingham,Nottinghamshire,The Pavilion @ Bingham,Restaurant/Cafe/Canteen,1,,,266200,,,52.95366400000000,03110/0100/0/000,266,envhealth@rushcliffe.gov.uk,Rushcliffe,http://www.rushcliffe.gov.uk/,-0.97062400000000,NG13 8TN,2012-03-28,fhrs_exempt_en-GB,Exempt,,FHRS,
73761,16 Market Place,Bingham,Nottinghamshire,,The Picture Cafe,Restaurant/Cafe/Canteen,1,5,,265990,5,,52.95266200000000,11/00051/FOOD,266,envhealth@rushcliffe.gov.uk,Rushcliffe,http://www.rushcliffe.gov.uk/,-0.95166900000000,NG13 8AP,2013-09-09,fhrs_5_en-GB,5,,FHRS,5
73762,Nottingham Forest Football Club,Pavilion Road,Nottingham,,The Pitch,Restaurant/Cafe/Canteen,1,5,,266213,5,,52.94086200000000,56544/0601/2/001,266,envhealth@rushcliffe.gov.uk,Rushcliffe,http://www.rushcliffe.gov.uk/,-1.13290300000000,NG2 5FA,2014-03-18,fhrs_5_en-GB,5,,FHRS,5
73763,70 Musters Road,West Bridgford,Nottinghamshire,,The Playroom,Hospitals/Childcare/Caring Premises,5,0,,265843,5,,52.93343900000000,56418/0070/0/000,266,envhealth@rushcliffe.gov.uk,Rushcliffe,http://www.rushcliffe.gov.uk/,-1.13321500000000,NG2 7PR,2014-10-28,fhrs_5_en-GB,5,,FHRS,0
73764,Old Melton Road,Normanton On The Wolds,Nottinghamshire,,The Plough,Pub/bar/nightclub,7843,5,,266126,5,,52.88974100000000,31258/0605/2/000,266,envhealth@rushcliffe.gov.uk,Rushcliffe,http://www.rushcliffe.gov.uk/,-1.07588300000000,NG12 5NN,2013-09-04,fhrs_5_en-GB,5,,FHRS,5
73765,66 Main Street,Normanton On Soar,Nottinghamshire,,The Plough Inn,Pub/bar/nightclub,7843,0,,266045,5,,52.80381700000000,30050/0066/2/000,266,envhealth@rushcliffe.gov.uk,Rushcliffe,http://www.rushcliffe.gov.uk/,-1.23513500000000,LE12 5HB,2013-10-04,fhrs_5_en-GB,5,,FHRS,5
73766,Keyworth Road,Wysall,Nottinghamshire,,The Plough Inn,Pub/bar/nightclub,7843,10,,265988,10,,52.84208200000000,63034/0901/0/000,266,envhealth@rushcliffe.gov.uk,Rushcliffe,http://www.rushcliffe.gov.uk/,-1.10350000000000,NG12 5QQ,2013-09-16,fhrs_4_en-GB,4,,FHRS,0
73767,Main Street,Cropwell Butler,Nottinghamshire,,The Plough Inn,Pub/bar/nightclub,7843,5,,266012,5,,52.92626200000000,13080/0598/2/000,266,envhealth@rushcliffe.gov.uk,Rushcliffe,http://www.rushcliffe.gov.uk/,-0.98302500000000,NG12 3AB,2013-08-07,fhrs_5_en-GB,5,,FHRS,5
73768,Plough Inn,Main Street,Hickling,Nottinghamshire,The Plough Inn,Pub/bar/nightclub,7843,10,,537772,10,,52.85818500000000,13/00013/FOOD,266,envhealth@rushcliffe.gov.uk,Rushcliffe,http://www.rushcliffe.gov.uk/,-0.97589900000000,LE14 3AH,2014-09-24,fhrs_3_en-GB,3,,FHRS,10
73769,Selby Lane,Keyworth,Nottinghamshire,,The Plough Inn,Pub/bar/nightclub,7843,5,,266134,5,,52.87074000000000,25494/0619/2/000,266,envhealth@rushcliffe.gov.uk,Rushcliffe,http://www.rushcliffe.gov.uk/,-1.08567600000000,NG12 5AH,2014-09-15,fhrs_5_en-GB,5,,FHRS,5
73770,Easthorpe Street,Ruddington,Nottinghamshire,,The Red Heart,Pub/bar/nightclub,7843,10,,265710,5,,52.89350100000000,39248/0901/2/000,266,envhealth@rushcliffe.gov.uk,Rushcliffe,http://www.rushcliffe.gov.uk/,-1.14591800000000,NG11 6LB,2013-09-11,fhrs_3_en-GB,3,,FHRS,10
73771,1 Easthorpe Street,Ruddington,Nottinghamshire,,The Red Lion,Pub/bar/nightclub,7843,5,,265862,5,,52.89350100000000,39248/0900/2/000,266,envhealth@rushcliffe.gov.uk,Rushcliffe,http://www.rushcliffe.gov.uk/,-1.14591800000000,NG11 6LB,2013-02-12,fhrs_4_en-GB,4,,FHRS,10
73772,Reindeer Inn,Kneeton Road,East Bridgford,Nottinghamshire,The Reindeer Inn,Pub/bar/nightclub,7843,5,,627786,5,,52.98401000000000,13/00074/FOOD,266,envhealth@rushcliffe.gov.uk,Rushcliffe,http://www.rushcliffe.gov.uk/,-0.96823400000000,NG13 8PH,2014-01-16,fhrs_5_en-GB,5,,FHRS,5
73773,East Street,Bingham,Nottinghamshire,,The Rosary Community Centre,Other catering premises,7841,0,,265956,0,,52.93701000000000,03322/0012/2/001,266,envhealth@rushcliffe.gov.uk,Rushcliffe,http://www.rushcliffe.gov.uk/,-1.13966100000000,NG2 2JY,2010-01-11,fhrs_5_en-GB,5,,FHRS,0
73774,6 Main Street,Zouch,Nottinghamshire,,The Rose And Crown,Pub/bar/nightclub,7843,10,,265915,10,,52.80581500000000,48105/0006/2/000,266,envhealth@rushcliffe.gov.uk,Rushcliffe,http://www.rushcliffe.gov.uk/,-1.24957800000000,LE12 5EQ,2013-10-01,fhrs_3_en-GB,3,,FHRS,10
73775,The Green,Car Colston,Nottinghamshire,,The Royal Oak,Pub/bar/nightclub,7843,10,,266317,5,,52.97772700000000,07042/0559/2/000,266,envhealth@rushcliffe.gov.uk,Rushcliffe,http://www.rushcliffe.gov.uk/,-0.93071800000000,NG13 8JE,2015-01-08,fhrs_4_en-GB,4,,FHRS,5
73776,Main Road,Radcliffe On Trent,Nottinghamshire,,The Royal Oak  Pub And Kitchen,Pub/bar/nightclub,7843,10,,265780,5,,52.94661600000000,35492/0593/2/000,266,envhealth@rushcliffe.gov.uk,Rushcliffe,http://www.rushcliffe.gov.uk/,-1.03935500000000,NG12 2FD,2014-10-27,fhrs_4_en-GB,4,,FHRS,5
73777,12 Tudor Square,West Bridgford,Nottinghamshire,,The Salad Bowl,Retailers - other,4613,0,,266155,0,,52.93131300000000,57075/0012/0/000,266,envhealth@rushcliffe.gov.uk,Rushcliffe,http://www.rushcliffe.gov.uk/,-1.12645800000000,NG2 6BT,2014-03-28,fhrs_5_en-GB,5,,FHRS,5
73778,,,,,The Smoothie Bike Company,Mobile caterer,7846,5,,664747,5,,,13/00059/FOOD,266,envhealth@rushcliffe.gov.uk,Rushcliffe,http://www.rushcliffe.gov.uk/,,,2013-09-20,fhrs_5_en-GB,5,,FHRS,5
73779,35 Long Acre,Bingham,Nottinghamshire,,The Snack Shop,Takeaway/sandwich shop,7844,10,,265974,5,,52.95141000000000,03538/0035/0/000,266,envhealth@rushcliffe.gov.uk,Rushcliffe,http://www.rushcliffe.gov.uk/,-0.95440900000000,NG13 8AF,2013-09-23,fhrs_4_en-GB,4,,FHRS,5
73780,70 Nottingham Road,Gotham,Nottinghamshire,,The Star Inn,Pub/bar/nightclub,7843,10,,265826,5,,52.86942700000000,20205/0070/2/000,266,envhealth@rushcliffe.gov.uk,Rushcliffe,http://www.rushcliffe.gov.uk/,-1.20422500000000,NG11 0HG,2013-10-24,fhrs_4_en-GB,4,,FHRS,5
73781,2 Stratford Road,West Bridgford,Nottinghamshire,,The Stratford Haven,Pub/bar/nightclub,7843,5,,266033,5,,52.93124200000000,6904/0002/0/000,266,envhealth@rushcliffe.gov.uk,Rushcliffe,http://www.rushcliffe.gov.uk/,-1.13022400000000,NG2 6BA,2014-09-23,fhrs_5_en-GB,5,,FHRS,5
73782,Landmere Lane,Edwalton,Nottinghamshire,,The Street Kitchen,Restaurant/Cafe/Canteen,1,5,,266119,5,,52.90372100000000,56139/0002/0/000,266,envhealth@rushcliffe.gov.uk,Rushcliffe,http://www.rushcliffe.gov.uk/,-1.12482800000000,NG12 4DE,2014-10-03,fhrs_5_en-GB,5,,FHRS,0
73783,1 The Square,Gotham,Nottinghamshire,,The Sun Inn,Pub/bar/nightclub,7843,5,,266005,5,,52.86604700000000,20250/0001/2/000,266,envhealth@rushcliffe.gov.uk,Rushcliffe,http://www.rushcliffe.gov.uk/,-1.20416800000000,NG11 0HX,2013-10-24,fhrs_5_en-GB,5,,FHRS,0
73784,Gordon Square,West Bridgford,Nottinghamshire,,The Test Match,Pub/bar/nightclub,7843,10,,266282,10,,52.92877000000000,55797/0201/2/000,266,envhealth@rushcliffe.gov.uk,Rushcliffe,http://www.rushcliffe.gov.uk/,-1.12531900000000,NG2 5LP,2014-10-07,fhrs_3_en-GB,3,,FHRS,10
73785,Radcliffe On Trent,Nottinghamshire,,,The Trent Hotel,Pub/bar/nightclub,7843,5,,265966,10,,52.95267486572266,35834/0064/2/000,266,envhealth@rushcliffe.gov.uk,Rushcliffe,http://www.rushcliffe.gov.uk/,-1.03143632411957,NG12 1AW,2013-09-13,fhrs_4_en-GB,4,,FHRS,5
73786,,,,,The Village Kitchen,Other catering premises,7841,10,,633498,5,,,08/00035/COMMER,266,envhealth@rushcliffe.gov.uk,Rushcliffe,http://www.rushcliffe.gov.uk/,,,2013-11-06,fhrs_4_en-GB,4,,FHRS,0
73787,Loughborough Road,West Bridgford,Nottinghamshire,,The West Bridgford School,School/college/university,7845,5,,265902,5,,52.91788800000000,56202/0256/2/000,266,envhealth@rushcliffe.gov.uk,Rushcliffe,http://www.rushcliffe.gov.uk/,-1.13702000000000,NG2 7FA,2014-02-04,fhrs_5_en-GB,5,,FHRS,5
73788,11 Nottingham Road,Cropwell Bishop,Nottinghamshire,,The Wheatsheaf Inn,Pub/bar/nightclub,7843,5,,265816,5,,52.91229700000000,12178/0011/2/000,266,envhealth@rushcliffe.gov.uk,Rushcliffe,http://www.rushcliffe.gov.uk/,-0.98675800000000,NG12 3BP,2012-06-13,fhrs_5_en-GB,5,,FHRS,5
73789,60 Church Street,Ruddington,Nottinghamshire,,The White Horse Inn,Pub/bar/nightclub,7843,5,,266199,5,,52.89159800000000,39167/0060/2/000,266,envhealth@rushcliffe.gov.uk,Rushcliffe,http://www.rushcliffe.gov.uk/,-1.15138100000000,NG11 6HD,2014-08-19,fhrs_5_en-GB,5,,FHRS,5
73790,23 Main Street,Rempstone,Nottinghamshire,,The White Lion,Pub/bar/nightclub,7843,5,,265916,5,,52.81339500000000,38053/0023/2/000,266,envhealth@rushcliffe.gov.uk,Rushcliffe,http://www.rushcliffe.gov.uk/,-1.14481800000000,LE12 6RH,2012-03-06,fhrs_4_en-GB,4,,FHRS,10
73791,Nottingham Road,Bingham,Nottinghamshire,,The White Lion,Pub/bar/nightclub,7843,20,,266060,15,,52.95040900000000,03682/0566/2/000,266,envhealth@rushcliffe.gov.uk,Rushcliffe,http://www.rushcliffe.gov.uk/,-0.96025200000000,NG13 8AT,2014-03-28,fhrs_1_en-GB,1,,FHRS,10
73792,41 Bridgford Road,West Bridgford,Nottinghamshire,,The Whitehouse Day Nursery (Notts) Ltd,Hospitals/Childcare/Caring Premises,5,0,,266131,0,,52.93224800000000,55185/0041/2/000,266,envhealth@rushcliffe.gov.uk,Rushcliffe,http://www.rushcliffe.gov.uk/,-1.12760000000000,NG2 6AU,2014-02-26,fhrs_5_en-GB,5,,FHRS,0
73793,Rufford Way,West Bridgford,Nottinghamshire,,The Willow Tree,Pub/bar/nightclub,7843,5,,266336,5,,52.92467700000000,56850/0522/2/000,266,envhealth@rushcliffe.gov.uk,Rushcliffe,http://www.rushcliffe.gov.uk/,-1.11156800000000,NG2 6LS,2014-06-18,fhrs_5_en-GB,5,,FHRS,0
73794,2 Oakfields Road,West Bridgford,Nottinghamshire,,The Wishing Well Day Nursery,Hospitals/Childcare/Caring Premises,5,5,,266331,5,,52.93761800000000,56481/0002/0/000,266,envhealth@rushcliffe.gov.uk,Rushcliffe,http://www.rushcliffe.gov.uk/,-1.12203100000000,NG2 5DN,2014-08-20,fhrs_5_en-GB,5,,FHRS,5
73795,Loughborough Road,West Bridgford,Nottinghamshire,,The Wolds,Pub/bar/nightclub,7843,5,,266143,5,,52.92490700000000,56202/0198/2/000,266,envhealth@rushcliffe.gov.uk,Rushcliffe,http://www.rushcliffe.gov.uk/,-1.13796700000000,NG2 7HZ,2014-08-19,fhrs_5_en-GB,5,,FHRS,5
73796,The Wolds Nursery,Old Melton Road,Normanton On The Wolds,Nottinghamshire,The Wolds Day Nursery,Hospitals/Childcare/Caring Premises,5,5,,465655,5,,52.89156100000000,12/00051/FOOD,266,envhealth@rushcliffe.gov.uk,Rushcliffe,http://www.rushcliffe.gov.uk/,-1.08115000000000,NG12 5NH,2013-11-28,fhrs_5_en-GB,5,,FHRS,0
73797,Stragglethorpe Road,Stragglethorpe,Nottinghamshire,,Thornton's Holt,Retailers - other,4613,,,265715,,,52.92327400000000,11645/0567/2/000,266,envhealth@rushcliffe.gov.uk,Rushcliffe,http://www.rushcliffe.gov.uk/,-1.01782800000000,NG12 2JW,2014-03-21,fhrs_exempt_en-GB,Exempt,,FHRS,
73798,23 Easthorpe Street,Ruddington,Nottinghamshire,,Three Crowns Gallery Restaurant,Restaurant/Cafe/Canteen,1,5,,266247,5,,52.89350100000000,09/00074/FOOD,266,envhealth@rushcliffe.gov.uk,Rushcliffe,http://www.rushcliffe.gov.uk/,-1.14591800000000,NG11 6LB,2012-07-17,fhrs_5_en-GB,5,,FHRS,5
73799,Brookside,East Leake,Nottinghamshire,,Three Horseshoes,Pub/bar/nightclub,7843,10,,265834,5,,52.82909300000000,15087/0902/2/000,266,envhealth@rushcliffe.gov.uk,Rushcliffe,http://www.rushcliffe.gov.uk/,-1.18336700000000,LE12 6PB,2014-03-27,fhrs_4_en-GB,4,,FHRS,5
73800,23 Easthorpe Street,Ruddington,Nottinghamshire,,Three Spices,Restaurant/Cafe/Canteen,1,5,,266065,10,,52.89350100000000,11/00035/FOOD,266,envhealth@rushcliffe.gov.uk,Rushcliffe,http://www.rushcliffe.gov.uk/,-1.14591800000000,NG11 6LB,2013-01-29,fhrs_4_en-GB,4,,FHRS,5
73801,35 Abbey Road,West Bridgford,Nottinghamshire,,Tiffin,Restaurant/Cafe/Canteen,1,5,,409198,5,,52.92988600000000,11/00115/FOOD,266,envhealth@rushcliffe.gov.uk,Rushcliffe,http://www.rushcliffe.gov.uk/,-1.12065500000000,NG2 5NG,2013-09-24,fhrs_5_en-GB,5,,FHRS,5
73802,9 Musters Road,West Bridgford,Nottinghamshire,,Tiny Talkers Day Nursery,Hospitals/Childcare/Caring Premises,5,5,,710387,5,,52.93512600000000,14/00092/FOOD,266,envhealth@rushcliffe.gov.uk,Rushcliffe,http://www.rushcliffe.gov.uk/,-1.13269000000000,NG2 7PP,2014-10-20,fhrs_5_en-GB,5,,FHRS,5
73803,Roko Health And Fitness Club,Wilford Lane,West Bridgford,Nottinghamshire,Tiny Teddies Day Nursery,Hospitals/Childcare/Caring Premises,5,5,,548845,5,,52.92918800000000,13/00029/FOOD,266,envhealth@rushcliffe.gov.uk,Rushcliffe,http://www.rushcliffe.gov.uk/,-1.14570700000000,NG2 7RN,2014-10-21,fhrs_5_en-GB,5,,FHRS,5
73804,Bingham Leisure Centre,The Banks,Bingham,Nottinghamshire,Togs Cafe,Restaurant/Cafe/Canteen,1,5,,537770,5,,52.94935900000000,12/00129/FOOD,266,envhealth@rushcliffe.gov.uk,Rushcliffe,http://www.rushcliffe.gov.uk/,-0.95427900000000,NG13 8BL,2013-03-11,fhrs_5_en-GB,5,,FHRS,0
73805,45 Melton Road,Tollerton,Nottinghamshire,,Tollerton Post Office And Stores,Retailers - other,4613,,,266183,,,52.90083500000000,53124/0045/2/000,266,envhealth@rushcliffe.gov.uk,Rushcliffe,http://www.rushcliffe.gov.uk/,-1.10428000000000,NG12 4EL,2013-07-16,fhrs_exempt_en-GB,Exempt,,FHRS,
73806,Burnside Grove,Tollerton,Nottinghamshire,,Tollerton Primary School,School/college/university,7845,10,,266004,10,,52.90169000000000,53016/0501/2/000,266,envhealth@rushcliffe.gov.uk,Rushcliffe,http://www.rushcliffe.gov.uk/,-1.09599700000000,NG12 4ET,2014-09-17,fhrs_3_en-GB,3,,FHRS,5
73807,,,,,Tom And Simon's Kitchen,Takeaway/sandwich shop,7844,5,,433755,5,,,09/00072/FOOD,266,envhealth@rushcliffe.gov.uk,Rushcliffe,http://www.rushcliffe.gov.uk/,,,2014-02-26,fhrs_5_en-GB,5,,FHRS,0
73808,The Butchers Block UK Limited,40-42 Main Road,Radcliffe On Trent,Nottinghamshire,Tomkins Of Radcliffe Ltd,Retailers - other,4613,5,,717490,5,,,14/00024/FOOD,266,envhealth@rushcliffe.gov.uk,Rushcliffe,http://www.rushcliffe.gov.uk/,,,2014-05-28,fhrs_5_en-GB,5,,FHRS,5
73809,73a Main Street,East Leake,Nottinghamshire,,Tony's,Retailers - other,4613,10,,265738,5,,52.83158900000000,15276/0073/2/000,266,envhealth@rushcliffe.gov.uk,Rushcliffe,http://www.rushcliffe.gov.uk/,-1.17637300000000,LE12 6PF,2014-07-22,fhrs_4_en-GB,4,,FHRS,5
73810,Toothill Comprehensive School,The Banks,Bingham,Nottinghamshire,Toothill Canteen,School/college/university,7845,0,,265986,5,,52.94935900000000,03934/0589/2/000,266,envhealth@rushcliffe.gov.uk,Rushcliffe,http://www.rushcliffe.gov.uk/,-0.95427900000000,NG13 8BL,2013-05-02,fhrs_5_en-GB,5,,FHRS,0
73811,Unit 3 To 4 Bridgford House,Trent Bridge,West Bridgford,Nottinghamshire,Trattoria Antonio,Restaurant/Cafe/Canteen,1,5,,265863,5,,52.93810200000000,57012/0217/2/000,266,envhealth@rushcliffe.gov.uk,Rushcliffe,http://www.rushcliffe.gov.uk/,-1.13275000000000,NG2 5FF,2014-03-12,fhrs_5_en-GB,5,,FHRS,5
73812,2 Radcliffe Road,West Bridgford,Nottinghamshire,,Trent Bridge Inn,Pub/bar/nightclub,7843,0,,266260,0,,52.93719500000000,11/00015/FOOD,266,envhealth@rushcliffe.gov.uk,Rushcliffe,http://www.rushcliffe.gov.uk/,-1.13418100000000,NG2 6AA,2013-08-06,fhrs_5_en-GB,5,,FHRS,0
73813,7 Radcliffe Road,West Bridgford,Nottinghamshire,,Trent Bridge Pantry,Takeaway/sandwich shop,7844,10,,265911,10,,52.93810200000000,56616/0007/2/000,266,envhealth@rushcliffe.gov.uk,Rushcliffe,http://www.rushcliffe.gov.uk/,-1.13275000000000,NG2 5FF,2014-03-27,fhrs_3_en-GB,3,,FHRS,10
73814,23 Radcliffe Road,West Bridgford,Nottinghamshire,,Trent Bridge Spice,Takeaway/sandwich shop,7844,10,,265971,10,,52.93810200000000,04/00014/COMMER,266,envhealth@rushcliffe.gov.uk,Rushcliffe,http://www.rushcliffe.gov.uk/,-1.13275000000000,NG2 5FF,2013-11-27,fhrs_3_en-GB,3,,FHRS,10
73815,101 Melton Road,West Bridgford,Nottinghamshire,,Trio Island,Takeaway/sandwich shop,7844,5,,548843,5,,52.92592000000000,12/00094/FOOD,266,envhealth@rushcliffe.gov.uk,Rushcliffe,http://www.rushcliffe.gov.uk/,-1.12772700000000,NG2 6ET,2013-04-29,fhrs_5_en-GB,5,,FHRS,5
73816,36 Burnside Grove,Tollerton,Nottinghamshire,,Truely Scrumptious,Restaurant/Cafe/Canteen,1,10,,266044,5,,52.90246200000000,09/00028/FOOD,266,envhealth@rushcliffe.gov.uk,Rushcliffe,http://www.rushcliffe.gov.uk/,-1.10069400000000,NG12 4EB,2013-11-13,fhrs_4_en-GB,4,,FHRS,5
73817,Tudor Grange Residential Home,54 Main Road,Radcliffe On Trent,Nottinghamshire,Tudor Grange,Hospitals/Childcare/Caring Premises,5,5,,265932,5,,52.94682900000000,35492/0054/2/000,266,envhealth@rushcliffe.gov.uk,Rushcliffe,http://www.rushcliffe.gov.uk/,-1.04466400000000,NG12 2BP,2014-09-22,fhrs_5_en-GB,5,,FHRS,5
73818,Unit 18 Canalside Industrial Park,Kinoulton Road,Cropwell Bishop,Nottinghamshire,Turners Quality Bakery,Manufacturers/packers,7839,5,,595468,5,,52.90765400000000,12/00086/FOOD,266,envhealth@rushcliffe.gov.uk,Rushcliffe,http://www.rushcliffe.gov.uk/,-0.99045000000000,NG12 3BE,2014-03-26,fhrs_5_en-GB,5,,FHRS,5
73819,Main Street,Langar,Nottinghamshire,,Unicorns Head,Pub/bar/nightclub,7843,10,,605708,5,,52.90408200000000,10/00036/FOOD,266,envhealth@rushcliffe.gov.uk,Rushcliffe,http://www.rushcliffe.gov.uk/,-0.92554400000000,NG13 9HE,2013-10-24,fhrs_4_en-GB,4,,FHRS,5
73820,40 Wilford Road,Ruddington,Nottinghamshire,,Victoria Tavern,Pub/bar/nightclub,7843,10,,266008,10,,52.89484100000000,39770/0903/2/000,266,envhealth@rushcliffe.gov.uk,Rushcliffe,http://www.rushcliffe.gov.uk/,-1.14977100000000,NG11 6EQ,2014-10-16,fhrs_3_en-GB,3,,FHRS,10
73821,4 Main Street,Keyworth,Nottinghamshire,,Village Cafe And Bistro,Restaurant/Cafe/Canteen,1,0,,537765,0,,52.86964300000000,11/00064/FOOD,266,envhealth@rushcliffe.gov.uk,Rushcliffe,http://www.rushcliffe.gov.uk/,-1.09031900000000,NG12 5AD,2013-04-03,fhrs_5_en-GB,5,,FHRS,0
73822,Village Hall,Manor Road,Barton In Fabis,Nottinghamshire,Village Hall,Other catering premises,7841,,,266300,,,52.88958800000000,02078/0900/2/000,266,envhealth@rushcliffe.gov.uk,Rushcliffe,http://www.rushcliffe.gov.uk/,-1.22420300000000,NG11 0AA,2010-11-08,fhrs_exempt_en-GB,Exempt,,FHRS,
73823,8 Highbury Road,Keyworth,Nottinghamshire,,Vine Lodge,Hotel/bed & breakfast/guest house,7842,5,,265928,5,,52.87874300000000,03/00023/FOOD,266,envhealth@rushcliffe.gov.uk,Rushcliffe,http://www.rushcliffe.gov.uk/,-1.09292200000000,NG12 5JB,2012-03-22,fhrs_5_en-GB,5,,FHRS,5
73824,Pelham Lodge,Clifton Lane,Ruddington,Nottinghamshire,Voyage Ltd,Hospitals/Childcare/Caring Premises,5,10,,265923,10,,52.89651900000000,04/00007/COMMER,266,envhealth@rushcliffe.gov.uk,Rushcliffe,http://www.rushcliffe.gov.uk/,-1.16325100000000,NG11 6AB,2014-12-10,fhrs_3_en-GB,3,,FHRS,5
73825,Community Centre,Walcote Drive,West Bridgford,Nottinghamshire,Walcote Drive Community Centre,Other catering premises,7841,,,265691,,,52.91926200000000,57174/0916/2/000,266,envhealth@rushcliffe.gov.uk,Rushcliffe,http://www.rushcliffe.gov.uk/,-1.14426600000000,NG2 7GA,2009-10-28,fhrs_exempt_en-GB,Exempt,,FHRS,
73826,Redhill Marina,Redhill Lock,Ratcliffe On Soar,Nottinghamshire,Waterside Cafe,Restaurant/Cafe/Canteen,1,0,,427357,5,,52.86357700000000,11/00014/FOOD,266,envhealth@rushcliffe.gov.uk,Rushcliffe,http://www.rushcliffe.gov.uk/,-1.26738700000000,NG11 0EB,2014-01-29,fhrs_5_en-GB,5,,FHRS,0
73827,Cherry Lane Garden Centre,Pendock Lane,Bradmore,Nottinghamshire,Wellingtons Cafe,Restaurant/Cafe/Canteen,1,5,,548844,5,,52.87217400000000,13/00016/FOOD,266,envhealth@rushcliffe.gov.uk,Rushcliffe,http://www.rushcliffe.gov.uk/,-1.12567100000000,NG11 6PQ,2014-10-07,fhrs_5_en-GB,5,,FHRS,0
73828,Welbeck Road,West Bridgford,Nottinghamshire,,West Bridgford  Freemasons Hall,Pub/bar/nightclub,7843,0,,266285,5,,52.93204300000000,57192/0601/2/000,266,envhealth@rushcliffe.gov.uk,Rushcliffe,http://www.rushcliffe.gov.uk/,-1.12929100000000,NG2 7WQ,2014-10-29,fhrs_5_en-GB,5,,FHRS,5
73829,Community Centre,Church Drive,West Bridgford,Nottinghamshire,West Bridgford Community Hall,Other catering premises,7841,0,,266180,0,,52.93156700000000,55374/0605/2/000,266,envhealth@rushcliffe.gov.uk,Rushcliffe,http://www.rushcliffe.gov.uk/,-1.12914600000000,NG2 6AY,2011-02-15,fhrs_5_en-GB,5,,FHRS,0
73830,Rectory Road,West Bridgford,Nottinghamshire,,West Bridgford Conservative Club,Pub/bar/nightclub,7843,5,,266343,5,,52.92959500000000,56634/0028/2/000,266,envhealth@rushcliffe.gov.uk,Rushcliffe,http://www.rushcliffe.gov.uk/,-1.12997400000000,NG2 6BG,2013-10-30,fhrs_5_en-GB,5,,FHRS,5
73831,George Road,West Bridgford,Nottinghamshire,,West Bridgford Infant School,School/college/university,7845,0,,726524,0,,52.92972800000000,13/00045/COMMER,266,envhealth@rushcliffe.gov.uk,Rushcliffe,http://www.rushcliffe.gov.uk/,-1.13217300000000,NG2 7PX,2014-12-11,fhrs_5_en-GB,5,,FHRS,5
73832,Street Record,George Road,West Bridgford,Nottinghamshire,West Bridgford Infant School Out Of School Care,School/college/university,7845,0,,664742,0,,,09/00079/FOOD,266,envhealth@rushcliffe.gov.uk,Rushcliffe,http://www.rushcliffe.gov.uk/,,,2013-06-12,fhrs_5_en-GB,5,,FHRS,0
73833,Exchange Road,West Bridgford,Nottinghamshire,,West Bridgford Junior School,School/college/university,7845,5,,265693,0,,52.92586000000000,55662/0602/2/000,266,envhealth@rushcliffe.gov.uk,Rushcliffe,http://www.rushcliffe.gov.uk/,-1.12441100000000,NG2 6DB,2014-01-24,fhrs_5_en-GB,5,,FHRS,5
73834,Wilford Lane,West Bridgford,Nottinghamshire,,West Bridgford Lawn Tennis Club,Pub/bar/nightclub,7843,5,,265882,5,,52.93080200000000,57255/0602/2/000,266,envhealth@rushcliffe.gov.uk,Rushcliffe,http://www.rushcliffe.gov.uk/,-1.13889100000000,NG2 7QA,2014-11-03,fhrs_5_en-GB,5,,FHRS,5
73835,16 Gordon Road,West Bridgford,Nottinghamshire,,West Bridgford Local News Shop,Retailers - other,4613,,,265702,,,52.92993200000000,55788/0016/0/000,266,envhealth@rushcliffe.gov.uk,Rushcliffe,http://www.rushcliffe.gov.uk/,-1.12565300000000,NG2 5LN,2012-03-27,fhrs_exempt_en-GB,Exempt,,FHRS,
73836,Musters Road,West Bridgford,Nottinghamshire,,West Bridgford Methodist Church,Other catering premises,7841,,,265800,,,52.93369500000000,56418/0057/0/000,266,envhealth@rushcliffe.gov.uk,Rushcliffe,http://www.rushcliffe.gov.uk/,-1.13254000000000,NG2 7PQ,2012-03-28,fhrs_exempt_en-GB,Exempt,,FHRS,
73837,West Bridgford Junior School,Tudor Road,West Bridgford,Nottinghamshire,West Bridgford Out Of School Care,School/college/university,7845,0,,682692,5,,52.92863200000000,09/00080/FOOD,266,envhealth@rushcliffe.gov.uk,Rushcliffe,http://www.rushcliffe.gov.uk/,-1.12859500000000,NG2 6DX,2014-06-13,fhrs_5_en-GB,5,,FHRS,0
73838,14 - 18 Central Avenue,West Bridgford,Nottinghamshire,,West End Cabaret Restaurant Ltd.,Restaurant/Cafe/Canteen,1,5,,265802,5,,52.93199300000000,55311/0014/0/000,266,envhealth@rushcliffe.gov.uk,Rushcliffe,http://www.rushcliffe.gov.uk/,-1.12715900000000,NG2 5GR,2014-08-07,fhrs_4_en-GB,4,,FHRS,10
73839,Westcliffe Court,78 Shelford Road,Radcliffe On Trent,Nottinghamshire,Westcliffe Care Home,Hospitals/Childcare/Caring Premises,5,5,,266288,5,,52.95267400000000,35834/0078/2/000,266,envhealth@rushcliffe.gov.uk,Rushcliffe,http://www.rushcliffe.gov.uk/,-1.03143600000000,NG12 1AW,2015-02-06,fhrs_5_en-GB,5,,FHRS,5
73840,129 Melton Road,West Bridgford,Nottinghamshire,,Westdale Home For The Elderly,Hospitals/Childcare/Caring Premises,5,5,,266217,5,,52.92371000000000,56337/0129/2/000,266,envhealth@rushcliffe.gov.uk,Rushcliffe,http://www.rushcliffe.gov.uk/,-1.12548100000000,NG2 6FG,2013-12-09,fhrs_5_en-GB,5,,FHRS,5
73841,The Village Hall,Church Street,Whatton,Nottinghamshire,Whatton Jubilee Hall,Other catering premises,7841,5,,266303,5,,52.94865300000000,26265/0098/2/000,266,envhealth@rushcliffe.gov.uk,Rushcliffe,http://www.rushcliffe.gov.uk/,-0.89217300000000,NG13 9EL,2010-03-10,fhrs_5_en-GB,5,,FHRS,5
73842,,,,,Wilford Fisheries,Mobile caterer,7846,10,,265869,15,,,11/00069/FOOD,266,envhealth@rushcliffe.gov.uk,Rushcliffe,http://www.rushcliffe.gov.uk/,,,2014-10-16,fhrs_2_en-GB,2,,FHRS,5
73843,140 Wilford Lane,West Bridgford,Nottinghamshire,,Wilford Lane Stores,Retailers - other,4613,5,,265845,5,,52.92820000000000,57255/0140/0/000,266,envhealth@rushcliffe.gov.uk,Rushcliffe,http://www.rushcliffe.gov.uk/,-1.14828500000000,NG2 7RL,2014-03-12,fhrs_5_en-GB,5,,FHRS,0
73844,Church Lane,Willoughby On The Wolds,Nottinghamshire,,Willoughby On The Wolds Primary School,School/college/university,7845,5,,266030,5,,52.82231900000000,61023/0900/2/000,266,envhealth@rushcliffe.gov.uk,Rushcliffe,http://www.rushcliffe.gov.uk/,-1.05998000000000,LE12 6SS,2014-03-28,fhrs_5_en-GB,5,,FHRS,5
73845,Willow Brook,Keyworth,Nottinghamshire,,Willow Brook Primary School,School/college/university,7845,0,,266254,5,,52.87133700000000,25575/0653/2/000,266,envhealth@rushcliffe.gov.uk,Rushcliffe,http://www.rushcliffe.gov.uk/,-1.07337700000000,NG12 5BB,2013-12-19,fhrs_5_en-GB,5,,FHRS,0
73846,Woodley Street,Ruddington,Nottinghamshire,,Woodley House,Hospitals/Childcare/Caring Premises,5,5,,265846,5,,52.89485500000000,39788/0901/2/000,266,envhealth@rushcliffe.gov.uk,Rushcliffe,http://www.rushcliffe.gov.uk/,-1.14916200000000,NG11 6EP,2014-10-15,fhrs_5_en-GB,5,,FHRS,5
73847,50 Grantham Road,Radcliffe On Trent,Nottinghamshire,,Woodside Stores,Retailers - other,4613,5,,265898,5,,52.94919200000000,35321/0050/0/000,266,envhealth@rushcliffe.gov.uk,Rushcliffe,http://www.rushcliffe.gov.uk/,-1.02014300000000,NG12 2HS,2013-01-03,fhrs_5_en-GB,5,,FHRS,5
73848,,,,,Wurst Class,Mobile caterer,7846,5,,638377,5,,,12/00044/FOOD,266,envhealth@rushcliffe.gov.uk,Rushcliffe,http://www.rushcliffe.gov.uk/,,,2014-03-31,fhrs_5_en-GB,5,,FHRS,0
73849,Wynhill Court,Forest Road,Bingham,Nottinghamshire,Wynhill Lodge,Other catering premises,7841,0,,265985,5,,52.95314200000000,03376/0901/2/000,266,envhealth@rushcliffe.gov.uk,Rushcliffe,http://www.rushcliffe.gov.uk/,-0.96751000000000,NG13 8TE,2013-05-22,fhrs_5_en-GB,5,,FHRS,0
73850,Unit 44,Nottingham South & Wilford Industri,Ruddington Lane,West Bridgford,XMA Staff Cafe,Restaurant/Cafe/Canteen,1,5,,265958,5,,52.91524300000000,57246/0950/2/000,266,envhealth@rushcliffe.gov.uk,Rushcliffe,http://www.rushcliffe.gov.uk/,-1.15670400000000,NG11 7EP,2014-02-18,fhrs_5_en-GB,5,,FHRS,0
73851,Yaadgaar Tandoori Restaurant,18A Shelford Road,Radcliffe On Trent,Nottinghamshire,Yaadgaar,Restaurant/Cafe/Canteen,1,20,,505309,20,,52.94819200000000,12/00137/FOOD,266,envhealth@rushcliffe.gov.uk,Rushcliffe,http://www.rushcliffe.gov.uk/,-1.03859100000000,NG12 2AG,2014-09-24,fhrs_1_en-GB,1,,FHRS,10
73852,13 Market Street,Bingham,Nottinghamshire,,Yeung Sing Restaurant,Restaurant/Cafe/Canteen,1,5,,266335,5,,52.95186200000000,03592/0013/2/000,266,envhealth@rushcliffe.gov.uk,Rushcliffe,http://www.rushcliffe.gov.uk/,-0.95268600000000,NG13 8AB,2014-06-19,fhrs_5_en-GB,5,,FHRS,5
73853,17 - 19 Central Avenue,West Bridgford,Nottinghamshire,,Yumacha,Other catering premises,7841,5,,706154,5,,52.93186000000000,14/00095/FOOD,266,envhealth@rushcliffe.gov.uk,Rushcliffe,http://www.rushcliffe.gov.uk/,-1.12620900000000,NG2 5GQ,2014-09-30,fhrs_5_en-GB,5,,FHRS,5
73854,22 Main Road,Radcliffe On Trent,Nottinghamshire,,Zhans,Takeaway/sandwich shop,7844,5,,265747,5,,52.94710700000000,35492/0022/2/000,266,envhealth@rushcliffe.gov.uk,Rushcliffe,http://www.rushcliffe.gov.uk/,-1.03897200000000,NG12 2FH,2013-07-10,fhrs_5_en-GB,5,,FHRS,5
