,addressline1,addressline2,addressline3,addressline4,businessname,businesstype,businesstypeid,confidenceinmanagement,extractdate,fhrsid,hygiene,itemcount,latitude,localauthoritybusinessid,localauthoritycode,localauthorityemailaddress,localauthorityname,localauthoritywebsite,longitude,postcode,ratingdate,ratingkey,ratingvalue,returncode,schemetype,structural
327780,1 Walsall Road,,,Cannock,1st Choice Pizza/Fish & Chips,Takeaway/sandwich shop,7844,20,,387502,15,,52.68795600000000,735,287,environmentalhealth@cannockchasedc.gov.uk,Cannock Chase,http://www.cannockchasedc.gov.uk,-2.02831700000000,WS11 0HG,2014-12-12,fhrs_1_en-GB,1,,FHRS,5
327781,20 Talbot Street,,,Rugeley,20 Talbot Street,Hospitals/Childcare/Caring Premises,5,0,,387400,0,,52.75815700000000,6311,287,environmentalhealth@cannockchasedc.gov.uk,Cannock Chase,http://www.cannockchasedc.gov.uk,-1.93172100000000,WS15 2EQ,2011-06-16,fhrs_5_en-GB,5,,FHRS,0
327782,250 Cannock Road,Chadsmoor,,Cannock,2k's Convenience Store,Retailers - other,4613,10,,387106,10,,52.70294400000000,292,287,environmentalhealth@cannockchasedc.gov.uk,Cannock Chase,http://www.cannockchasedc.gov.uk,-2.01465200000000,WS11 5DB,2012-02-29,fhrs_3_en-GB,3,,FHRS,5
327783,Kingswood Lakeside,Hickling Road,,Cannock,3663 (Staff Canteen),Restaurant/Cafe/Canteen,1,5,,387184,0,,52.67673100000000,402,287,environmentalhealth@cannockchasedc.gov.uk,Cannock Chase,http://www.cannockchasedc.gov.uk,-2.00551800000000,WS11 8JH,2013-07-16,fhrs_5_en-GB,5,,FHRS,5
327784,Staff Canteen,J Sainsbury Plc,Voyager Drive,Cannock,7 Day Catering @ Sainsbury Plc,Restaurant/Cafe/Canteen,1,0,,387393,0,,52.67495800000000,6222,287,environmentalhealth@cannockchasedc.gov.uk,Cannock Chase,http://www.cannockchasedc.gov.uk,-2.01894600000000,WS11 8XP,2012-09-27,fhrs_5_en-GB,5,,FHRS,0
327785,Unit 15,Cannock Chase Shopping Centre,Market Hall Street,Cannock,99p Stores,Retailers - other,4613,0,,387430,0,,52.69027400000000,6598,287,environmentalhealth@cannockchasedc.gov.uk,Cannock Chase,http://www.cannockchasedc.gov.uk,-2.03052200000000,WS11 1WS,2011-10-26,fhrs_5_en-GB,5,,FHRS,0
327786,Unit 49 Cannock Shopping Centre,Market Hall Street,,Cannock,A Sweet Surprise,Retailers - other,4613,0,,439570,0,,52.68949200000000,38046,287,environmentalhealth@cannockchasedc.gov.uk,Cannock Chase,http://www.cannockchasedc.gov.uk,-2.03012200000000,WS11 1EB,2012-08-16,fhrs_5_en-GB,5,,FHRS,0
327787,,,,,A Taste Of Happiness,Other catering premises,7841,5,,465195,0,,,39410,287,environmentalhealth@cannockchasedc.gov.uk,Cannock Chase,http://www.cannockchasedc.gov.uk,,,2012-11-01,fhrs_5_en-GB,5,,FHRS,0
327788,Heath Way,Heath Hayes,,Cannock,Abbey Court Nursing Home,Hospitals/Childcare/Caring Premises,5,0,,387013,5,,52.69284900000000,135,287,environmentalhealth@cannockchasedc.gov.uk,Cannock Chase,http://www.cannockchasedc.gov.uk,-1.99824000000000,WS11 7AD,2014-07-14,fhrs_5_en-GB,5,,FHRS,0
327789,6 - 8 Rosehill,,,Cannock,Abc Nursery,Hospitals/Childcare/Caring Premises,5,0,,482876,10,,52.71942100000000,40006,287,environmentalhealth@cannockchasedc.gov.uk,Cannock Chase,http://www.cannockchasedc.gov.uk,-2.01656700000000,WS12 4RT,2013-10-16,fhrs_4_en-GB,4,,FHRS,0
327790,@ Cross Keys Inn,42 Hill Street,Hednesford,Cannock,Aj's Catering & Events,Other catering premises,7841,0,,730000,5,,52.70046300000000,50261,287,environmentalhealth@cannockchasedc.gov.uk,Cannock Chase,http://www.cannockchasedc.gov.uk,-1.99715900000000,WS12 2DN,2014-12-03,fhrs_5_en-GB,5,,FHRS,0
327791,37 Albion Street,,,Rugeley,Albion Chippy,Farmers/growers,7838,10,,387295,10,,52.75988500000000,52,287,environmentalhealth@cannockchasedc.gov.uk,Cannock Chase,http://www.cannockchasedc.gov.uk,-1.93406000000000,WS15 2BY,2013-08-19,fhrs_4_en-GB,4,,FHRS,0
327792,The Albion Inn,17 Albion Street,,Rugeley,Albion Inn,Pub/bar/nightclub,7843,10,,387483,10,,52.75988500000000,7002,287,environmentalhealth@cannockchasedc.gov.uk,Cannock Chase,http://www.cannockchasedc.gov.uk,-1.93406000000000,WS15 2BY,2012-03-01,fhrs_3_en-GB,3,,FHRS,10
327793,,,,,Albrighton House,Hospitals/Childcare/Caring Premises,5,5,,621614,0,,,44317,287,environmentalhealth@cannockchasedc.gov.uk,Cannock Chase,http://www.cannockchasedc.gov.uk,,,2013-09-30,fhrs_5_en-GB,5,,FHRS,0
327794,Chase Gateway,Victoria Street,Hednesford,Staffs,Aldi,Retailers - supermarkets/hypermarkets,7840,0,,609281,0,,,43513,287,environmentalhealth@cannockchasedc.gov.uk,Cannock Chase,http://www.cannockchasedc.gov.uk,,WS12 1DU,2013-09-30,fhrs_5_en-GB,5,,FHRS,0
327795,Aldi Stores Ltd. ,Market Street,,Rugeley,Aldi Stores,Retailers - supermarkets/hypermarkets,7840,0,,387542,0,,52.76083700000000,863,287,environmentalhealth@cannockchasedc.gov.uk,Cannock Chase,http://www.cannockchasedc.gov.uk,-1.93419200000000,WS15 2JT,2011-01-19,fhrs_5_en-GB,5,,FHRS,0
327796,Aldi,Walsall Road,,Cannock,Aldi Stores Ltd.,Retailers - supermarkets/hypermarkets,7840,5,,387572,5,,52.68482000000000,943,287,environmentalhealth@cannockchasedc.gov.uk,Cannock Chase,http://www.cannockchasedc.gov.uk,-2.02387200000000,WS11 0HJ,2012-01-13,fhrs_5_en-GB,5,,FHRS,5
327797,,,,,All The Best Hampers,Other catering premises,7841,0,,700971,0,,,48241,287,environmentalhealth@cannockchasedc.gov.uk,Cannock Chase,http://www.cannockchasedc.gov.uk,,,2014-08-11,fhrs_5_en-GB,5,,FHRS,0
327798,2 Redbrook Lane,,,Rugeley,Andy's Kitchen,Takeaway/sandwich shop,7844,0,,387382,5,,52.74795100000000,615,287,environmentalhealth@cannockchasedc.gov.uk,Cannock Chase,http://www.cannockchasedc.gov.uk,-1.92598900000000,WS15 1AB,2013-06-05,fhrs_5_en-GB,5,,FHRS,5
327799,160 Walsall Road,Norton Canes,,Cannock,Ann's Cafe & Catering,Restaurant/Cafe/Canteen,1,5,,520642,0,,52.67289800000000,41025,287,environmentalhealth@cannockchasedc.gov.uk,Cannock Chase,http://www.cannockchasedc.gov.uk,-1.97261200000000,WS11 9RB,2013-02-27,fhrs_5_en-GB,5,,FHRS,5
327800,Unit 5,Longford Industrial Estate,Longford Road,Cannock,Anthony Foods,Mobile caterer,7846,5,,691605,5,,52.67612400000000,47973,287,environmentalhealth@cannockchasedc.gov.uk,Cannock Chase,http://www.cannockchasedc.gov.uk,-2.03258300000000,WS11 0DD,2014-08-15,fhrs_5_en-GB,5,,FHRS,5
327801,Orbital 7 Site,Orbital Way,,Cannock,Aramark (Briggs Equipment UK) Staffs Canteen,Other catering premises,7841,0,,387304,0,,52.67681900000000,527,287,environmentalhealth@cannockchasedc.gov.uk,Cannock Chase,http://www.cannockchasedc.gov.uk,-2.01903600000000,WS11 8XW,2010-08-02,fhrs_5_en-GB,5,,FHRS,5
327802,The Arcade,Brewery Street,,Rugeley,Arcade Cafe,Restaurant/Cafe/Canteen,1,0,,387528,0,,52.75919300000000,81,287,environmentalhealth@cannockchasedc.gov.uk,Cannock Chase,http://www.cannockchasedc.gov.uk,-1.93468300000000,WS15 2DY,2012-01-04,fhrs_5_en-GB,5,,FHRS,5
327803,,,,,Arnold Foods,Distributors/Transporters,7,0,,387003,0,,,119,287,environmentalhealth@cannockchasedc.gov.uk,Cannock Chase,http://www.cannockchasedc.gov.uk,,,2010-02-02,fhrs_5_en-GB,5,,FHRS,5
327804,Longford Road,,,Cannock,Ascot Tavern,Pub/bar/nightclub,7843,5,,387236,5,,52.68628800000000,462,287,environmentalhealth@cannockchasedc.gov.uk,Cannock Chase,http://www.cannockchasedc.gov.uk,-2.04327200000000,WS11 1NE,2014-12-22,fhrs_5_en-GB,5,,FHRS,5
327805,Avon Road,,,Cannock,Asda (Customer Restaurant),Restaurant/Cafe/Canteen,1,0,,387173,0,,52.68296400000000,388,287,environmentalhealth@cannockchasedc.gov.uk,Cannock Chase,http://www.cannockchasedc.gov.uk,-2.03565000000000,WS11 1LH,2012-04-19,fhrs_5_en-GB,5,,FHRS,5
327806,Avon Road,,,Cannock,Asda (Staff Canteen),Restaurant/Cafe/Canteen,1,0,,387172,0,,52.68296400000000,387,287,environmentalhealth@cannockchasedc.gov.uk,Cannock Chase,http://www.cannockchasedc.gov.uk,-2.03565000000000,WS11 1LH,2013-08-14,fhrs_5_en-GB,5,,FHRS,0
327807,Lichfield Road,,,Cannock,Asda Supermarket,Retailers - supermarkets/hypermarkets,7840,0,,387420,0,,52.68600700000000,6505,287,environmentalhealth@cannockchasedc.gov.uk,Cannock Chase,http://www.cannockchasedc.gov.uk,-2.01764900000000,WS11 8UF,2013-07-29,fhrs_5_en-GB,5,,FHRS,0
327808,Avon Road,,,Cannock,Avon Business & Leisure Centre,Other catering premises,7841,0,,387024,0,,52.68296400000000,1431,287,environmentalhealth@cannockchasedc.gov.uk,Cannock Chase,http://www.cannockchasedc.gov.uk,-2.03565000000000,WS11 1LH,2010-01-20,fhrs_5_en-GB,5,,FHRS,5
327809,Unit 2,The Chase Centre,Church Street,Cannock,B  & M Homestore,Retailers - other,4613,0,,578471,0,,52.68947500000000,43093,287,environmentalhealth@cannockchasedc.gov.uk,Cannock Chase,http://www.cannockchasedc.gov.uk,-2.02583200000000,WS11 1DH,2013-08-09,fhrs_5_en-GB,5,,FHRS,0
327810,22-26 Market Street,Hednesford,,Cannock,B & M Retail,Retailers - other,4613,0,,387084,0,,52.70807800000000,2635,287,environmentalhealth@cannockchasedc.gov.uk,Cannock Chase,http://www.cannockchasedc.gov.uk,-1.99767700000000,WS12 1AF,2011-02-21,fhrs_5_en-GB,5,,FHRS,0
327811,Fashion Factory,"Unit 5a, Wyrley Brook Retail Park",Vine Lane,Cannock,Balcony Cafe,Restaurant/Cafe/Canteen,1,0,,387497,0,,52.67445100000000,724,287,environmentalhealth@cannockchasedc.gov.uk,Cannock Chase,http://www.cannockchasedc.gov.uk,-2.03558400000000,WS11 0XF,2012-02-21,fhrs_5_en-GB,5,,FHRS,0
327812,21-23 Wolverhampton Road,,,Cannock,Bank Bar,Pub/bar/nightclub,7843,0,,387575,0,,52.68754100000000,951,287,environmentalhealth@cannockchasedc.gov.uk,Cannock Chase,http://www.cannockchasedc.gov.uk,-2.03155600000000,WS11 1AP,2011-11-04,fhrs_5_en-GB,5,,FHRS,0
327813,77 High Green,,,Cannock,Bar 77,Pub/bar/nightclub,7843,5,,387061,0,,52.68927600000000,183,287,environmentalhealth@cannockchasedc.gov.uk,Cannock Chase,http://www.cannockchasedc.gov.uk,-2.03192700000000,WS11 1BN,2011-08-25,fhrs_5_en-GB,5,,FHRS,0
327814,85 High Green,,,Cannock,Bar Sport & Premier Suite,Pub/bar/nightclub,7843,10,,387062,5,,,184,287,environmentalhealth@cannockchasedc.gov.uk,Cannock Chase,http://www.cannockchasedc.gov.uk,,WS11 1BNJ,2013-02-26,fhrs_4_en-GB,4,,FHRS,5
327815,159 Longford Road,,,Cannock,Bargain Booze,Retailers - other,4613,10,,387269,0,,52.68027600000000,4970,287,environmentalhealth@cannockchasedc.gov.uk,Cannock Chase,http://www.cannockchasedc.gov.uk,-2.03564800000000,WS11 0LG,2010-03-18,fhrs_4_en-GB,4,,FHRS,0
327816,19A Horse Fair,,,Rugeley,Bargain Stores,Retailers - other,4613,0,,735703,0,,52.75744800000000,50510,287,environmentalhealth@cannockchasedc.gov.uk,Cannock Chase,http://www.cannockchasedc.gov.uk,-1.93484800000000,WS15 2EJ,2015-02-09,fhrs_5_en-GB,5,,FHRS,0
327817,19A Horse Fair,,,Rugeley,Bargain Stores,Retailers - other,4613,0,,735704,0,,52.75744800000000,50514,287,environmentalhealth@cannockchasedc.gov.uk,Cannock Chase,http://www.cannockchasedc.gov.uk,-1.93484800000000,WS15 2EJ,2015-02-09,fhrs_5_en-GB,5,,FHRS,0
327818,"Unit 6, Aml Industrial Estate",Station Road,Hednesford,Cannock,Barrington Meats Retail Shop,Distributors/Transporters,7,10,,387354,5,,52.71926600000000,5800,287,environmentalhealth@cannockchasedc.gov.uk,Cannock Chase,http://www.cannockchasedc.gov.uk,-1.99980500000000,WS12 5QW,2012-06-27,fhrs_4_en-GB,4,,FHRS,5
327819,Barton House Nursing,68 Cemetery Road,West Chadsmoor,Cannock,Barton House Nursing Home,Hospitals/Childcare/Caring Premises,5,5,,386989,0,,52.70035400000000,101,287,environmentalhealth@cannockchasedc.gov.uk,Cannock Chase,http://www.cannockchasedc.gov.uk,-2.02253900000000,WS11 5QH,2013-01-10,fhrs_5_en-GB,5,,FHRS,0
327820,2A Queensway,,,Rugeley,Bas's Peartree Chippy,Takeaway/sandwich shop,7844,0,,387381,5,,52.75172500000000,611,287,environmentalhealth@cannockchasedc.gov.uk,Cannock Chase,http://www.cannockchasedc.gov.uk,-1.93955400000000,WS15 1NN,2013-10-21,fhrs_5_en-GB,5,,FHRS,5
327821,7 Orbital Way,,,Cannock,Baxter Storey Limited,Restaurant/Cafe/Canteen,1,0,,445995,0,,52.67681900000000,38278,287,environmentalhealth@cannockchasedc.gov.uk,Cannock Chase,http://www.cannockchasedc.gov.uk,-2.01903600000000,WS11 8XW,2012-08-29,fhrs_5_en-GB,5,,FHRS,0
327822,8 Queensway,,,Rugeley,Bazda Price Ltd,Retailers - other,4613,5,,387356,0,,52.75172500000000,5900,287,environmentalhealth@cannockchasedc.gov.uk,Cannock Chase,http://www.cannockchasedc.gov.uk,-1.93955400000000,WS15 1NN,2013-02-22,fhrs_5_en-GB,5,,FHRS,0
327823,Beau Desert Golf Club,Rugeley Road,Hazelslade,Cannock,Beaudesert Golf Club Restaurant,Restaurant/Cafe/Canteen,1,0,,387565,5,,52.72075500000000,928,287,environmentalhealth@cannockchasedc.gov.uk,Cannock Chase,http://www.cannockchasedc.gov.uk,-1.95977600000000,WS12 0PJ,2014-06-04,fhrs_5_en-GB,5,,FHRS,5
327824,,,,,Beautiful Bakes By Laura,Other catering premises,7841,0,,702456,0,,,48301,287,environmentalhealth@cannockchasedc.gov.uk,Cannock Chase,http://www.cannockchasedc.gov.uk,,,2014-09-24,fhrs_5_en-GB,5,,FHRS,0
327825,,,,,Beckys Cakes,Retailers - other,4613,0,,683964,0,,,47753,287,environmentalhealth@cannockchasedc.gov.uk,Cannock Chase,http://www.cannockchasedc.gov.uk,,,2014-07-22,fhrs_5_en-GB,5,,FHRS,0
327826,42 Mount Street,Hednesford,,Cannock,Bell And Bottle,Pub/bar/nightclub,7843,5,,387416,0,,52.71521600000000,650,287,environmentalhealth@cannockchasedc.gov.uk,Cannock Chase,http://www.cannockchasedc.gov.uk,-1.99935000000000,WS12 4DE,2011-10-29,fhrs_5_en-GB,5,,FHRS,0
327827,31 Pye Green Road,,,Cannock,Bella's Baps,Mobile caterer,7846,5,,524934,10,,,41161,287,environmentalhealth@cannockchasedc.gov.uk,Cannock Chase,http://www.cannockchasedc.gov.uk,,,2013-03-12,fhrs_4_en-GB,4,,FHRS,5
327828,Unit 1 The Lightworks,75-79 Market Street,Hedensford,Cannock,Bella's Coffee House,Restaurant/Cafe/Canteen,1,0,,387317,0,,52.70911200000000,5383,287,environmentalhealth@cannockchasedc.gov.uk,Cannock Chase,http://www.cannockchasedc.gov.uk,-1.99970500000000,WS12 1AD,2012-08-17,fhrs_5_en-GB,5,,FHRS,0
327829,Beecroft Road,,,Cannock,Benefits Agency (Eurest),Restaurant/Cafe/Canteen,1,0,,387175,0,,52.69115600000000,390,287,environmentalhealth@cannockchasedc.gov.uk,Cannock Chase,http://www.cannockchasedc.gov.uk,-2.02982800000000,WS11 1JR,2013-02-25,fhrs_5_en-GB,5,,FHRS,0
327830,8 Devon Court,Bideford Way,,Cannock,Bideford Way Fish Bar,Takeaway/sandwich shop,7844,5,,387406,5,,52.68700600000000,64,287,environmentalhealth@cannockchasedc.gov.uk,Cannock Chase,http://www.cannockchasedc.gov.uk,-2.04555000000000,WS11 1NP,2013-07-25,fhrs_5_en-GB,5,,FHRS,5
327831,2 Bow Street,,,Rugeley,Bilash (Rugeley)  Limited,Restaurant/Cafe/Canteen,1,5,,458094,5,,52.76054200000000,39154,287,environmentalhealth@cannockchasedc.gov.uk,Cannock Chase,http://www.cannockchasedc.gov.uk,-1.93640000000000,WS15 2BT,2012-10-04,fhrs_5_en-GB,5,,FHRS,5
327832,Lady Hill,Birches Valley,,Rugeley,Birches Valley Visitors Centre CafÃ©,Restaurant/Cafe/Canteen,1,5,,387415,5,,52.75089300000000,65,287,environmentalhealth@cannockchasedc.gov.uk,Cannock Chase,http://www.cannockchasedc.gov.uk,-1.97515600000000,WS15 2UQ,2014-04-17,fhrs_5_en-GB,5,,FHRS,5
327833,95 High Green,,,Cannock,Bistro 95,Restaurant/Cafe/Canteen,1,5,,486746,0,,52.69040800000000,40102,287,environmentalhealth@cannockchasedc.gov.uk,Cannock Chase,http://www.cannockchasedc.gov.uk,-2.03321500000000,WS11 1BE,2012-12-07,fhrs_4_en-GB,4,,FHRS,10
327834,Wyrley Brook Park ,Vine Lane,Bridgtown,Cannock,BJ's Burger Bar,Mobile caterer,7846,0,,387571,5,,52.67445100000000,940,287,environmentalhealth@cannockchasedc.gov.uk,Cannock Chase,http://www.cannockchasedc.gov.uk,-2.03558400000000,WS11 0XF,2011-08-02,fhrs_5_en-GB,5,,FHRS,0
327835,View Street,Hednesford,,Cannock,Blakeways Youth Centre,Other catering premises,7841,5,,387282,5,,52.71085400000000,5093,287,environmentalhealth@cannockchasedc.gov.uk,Cannock Chase,http://www.cannockchasedc.gov.uk,-2.01711200000000,WS12 4JH,2010-04-28,fhrs_5_en-GB,5,,FHRS,5
327836,19b Horse Fair,,,Rugeley,Blue Ocean Fish Bar,Takeaway/sandwich shop,7844,0,,387065,0,,52.75759300000000,189,287,environmentalhealth@cannockchasedc.gov.uk,Cannock Chase,http://www.cannockchasedc.gov.uk,-1.93504100000000,WS15 2EJ,2015-01-16,fhrs_5_en-GB,5,,FHRS,0
327837,13 Albion Street,,,Rugeley,Bo Jollys,Pub/bar/nightclub,7843,10,,387157,5,,52.75988500000000,372,287,environmentalhealth@cannockchasedc.gov.uk,Cannock Chase,http://www.cannockchasedc.gov.uk,-1.93406000000000,WS15 2BY,2012-03-01,fhrs_3_en-GB,3,,FHRS,10
327838,Unit 9,Orbital Retail Centre,Voyager Drive,Cannock,Boots,Retailers - supermarkets/hypermarkets,7840,0,,387455,5,,52.67495800000000,6720,287,environmentalhealth@cannockchasedc.gov.uk,Cannock Chase,http://www.cannockchasedc.gov.uk,-2.01894600000000,WS11 8XP,2011-12-19,fhrs_5_en-GB,5,,FHRS,0
327839,Boots the Chemist Ltd. ,1 Church Street ,,Cannock,Boots the Chemist,Retailers - other,4613,0,,387119,0,,52.68898000000000,317,287,environmentalhealth@cannockchasedc.gov.uk,Cannock Chase,http://www.cannockchasedc.gov.uk,-2.02970800000000,WS11 1DE,2009-04-07,fhrs_5_en-GB,5,,FHRS,0
327840,53-55 Market Street,Hednesford,,Cannock,Booze 4 Less,Retailers - other,4613,10,,387268,0,,52.70911200000000,497,287,environmentalhealth@cannockchasedc.gov.uk,Cannock Chase,http://www.cannockchasedc.gov.uk,-1.99970500000000,WS12 1AD,2012-08-17,fhrs_4_en-GB,4,,FHRS,0
327841,87 Fernwood Drive,,,Rugeley,Booze 4 Less,Retailers - other,4613,0,,387241,0,,52.76587000000000,4641,287,environmentalhealth@cannockchasedc.gov.uk,Cannock Chase,http://www.cannockchasedc.gov.uk,-1.94856000000000,WS15 2PY,2010-01-19,fhrs_5_en-GB,5,,FHRS,5
327842,1 Mill Street,,,Cannock,Booze Stop,Retailers - other,4613,0,,511458,0,,52.68824300000000,40769,287,environmentalhealth@cannockchasedc.gov.uk,Cannock Chase,http://www.cannockchasedc.gov.uk,-2.02825800000000,WS11 0DL,2013-02-25,fhrs_5_en-GB,5,,FHRS,0
327843,T/o Wickes Car-park,Lichfield Road,,Cannock,Born To Grill,Mobile caterer,7846,10,,387021,5,,,1428,287,environmentalhealth@cannockchasedc.gov.uk,Cannock Chase,http://www.cannockchasedc.gov.uk,,,2013-10-03,fhrs_3_en-GB,3,,FHRS,10
327844,Hednesford Road,Heath Hayes,,Cannock,Bourne Methodist Church  'Open Door',Restaurant/Cafe/Canteen,1,0,,387145,0,,52.68880300000000,355,287,environmentalhealth@cannockchasedc.gov.uk,Cannock Chase,http://www.cannockchasedc.gov.uk,-1.98103500000000,WS12 3HL,2013-09-13,fhrs_5_en-GB,5,,FHRS,0
327845,Old Council Chambers,Anson Street,,Cannock,Bow Peeps Pre-school,Hospitals/Childcare/Caring Premises,5,5,,387094,5,,52.58549600000000,2743,287,environmentalhealth@cannockchasedc.gov.uk,Cannock Chase,http://www.cannockchasedc.gov.uk,-1.98089200000000,WS11,2008-04-08,fhrs_5_en-GB,5,,FHRS,5
327846,21 Bradbury Lane,Hednesford,,Cannock,Bradbury Lane Off Licence & Stores,Retailers - other,4613,10,,609284,5,,52.71791200000000,43721,287,environmentalhealth@cannockchasedc.gov.uk,Cannock Chase,http://www.cannockchasedc.gov.uk,-1.99961600000000,WS12 4EL,2013-10-09,fhrs_3_en-GB,3,,FHRS,10
327847,Western Springs Community Primary School,School Road,,Rugeley,Breakfast Club @ Western Springs Primary School,School/college/university,7845,5,,387445,5,,52.75877100000000,6692,287,environmentalhealth@cannockchasedc.gov.uk,Cannock Chase,http://www.cannockchasedc.gov.uk,-1.93604700000000,WS15 2DP,2011-11-22,fhrs_5_en-GB,5,,FHRS,5
327848,Main Road,Brereton,,Rugeley,Brereton and Ravenhill Parish Hall,Pub/bar/nightclub,7843,0,,387254,0,,52.75073800000000,478,287,environmentalhealth@cannockchasedc.gov.uk,Cannock Chase,http://www.cannockchasedc.gov.uk,-1.92770300000000,WS15 1DS,2009-07-22,fhrs_5_en-GB,5,,FHRS,0
327849,Main Road,Brereton,,Rugeley,Brereton Fish Shop,Takeaway/sandwich shop,7844,5,,387251,5,,52.74723000000000,476,287,environmentalhealth@cannockchasedc.gov.uk,Cannock Chase,http://www.cannockchasedc.gov.uk,-1.92439100000000,WS15 1DU,2013-02-08,fhrs_5_en-GB,5,,FHRS,5
327850,Armitage Lane,Brereton ,,Rugeley,Brereton Sports & Social Club ,Pub/bar/nightclub,7843,10,,387163,0,,52.74365700000000,381,287,environmentalhealth@cannockchasedc.gov.uk,Cannock Chase,http://www.cannockchasedc.gov.uk,-1.91669400000000,WS15 1ED,2010-03-02,fhrs_4_en-GB,4,,FHRS,10
327851,Main Road,Brereton,,Rugeley,Brereton Town Football Club,Pub/bar/nightclub,7843,5,,387252,10,,52.74690500000000,477,287,environmentalhealth@cannockchasedc.gov.uk,Cannock Chase,http://www.cannockchasedc.gov.uk,-1.92153200000000,WS15 1HG,2010-05-12,fhrs_4_en-GB,4,,FHRS,5
327852,51 Attlee Crescent,,,Rugeley,Briar Hill House,Hospitals/Childcare/Caring Premises,5,0,,387168,5,,52.75446200000000,384,287,environmentalhealth@cannockchasedc.gov.uk,Cannock Chase,http://www.cannockchasedc.gov.uk,-1.93034900000000,WS15 1BP,2014-06-05,fhrs_5_en-GB,5,,FHRS,5
327853,Burntwood Road,,Norton Canes,Cannock,Bridge Fish Bar,Takeaway/sandwich shop,7844,10,,387557,5,,52.67389600000000,91,287,environmentalhealth@cannockchasedc.gov.uk,Cannock Chase,http://www.cannockchasedc.gov.uk,-1.97156100000000,WS11 9RE,2012-09-27,fhrs_4_en-GB,4,,FHRS,0
327854,387 Cannock Road,Chadsmoor,,Cannock,Bridge Inn,Pub/bar/nightclub,7843,5,,387378,10,,52.70651300000000,6051,287,environmentalhealth@cannockchasedc.gov.uk,Cannock Chase,http://www.cannockchasedc.gov.uk,-2.00817100000000,WS11 5TD,2013-03-07,fhrs_3_en-GB,3,,FHRS,10
327855,1 North Street,,,Cannock,Bridgtown Chippy,Takeaway/sandwich shop,7844,5,,387315,5,,52.67575600000000,5355,287,environmentalhealth@cannockchasedc.gov.uk,Cannock Chase,http://www.cannockchasedc.gov.uk,-2.03015700000000,WS11 0BB,2014-07-24,fhrs_5_en-GB,5,,FHRS,5
327856,North Street,,,Cannock,Bridgtown Primary School,School/college/university,7845,0,,387437,0,,52.67730300000000,662,287,environmentalhealth@cannockchasedc.gov.uk,Cannock Chase,http://www.cannockchasedc.gov.uk,-2.02752600000000,WS11 0AZ,2013-10-24,fhrs_5_en-GB,5,,FHRS,5
327857,Bridgtown Social Club,170 Walsall Road,,Cannock,Bridgtown Social Working Mens Club & Institute,Pub/bar/nightclub,7843,5,,387504,0,,52.68000900000000,738,287,environmentalhealth@cannockchasedc.gov.uk,Cannock Chase,http://www.cannockchasedc.gov.uk,-2.02692100000000,WS11 0JB,2010-02-08,fhrs_5_en-GB,5,,FHRS,0
327858,50 Broadway,Pye Green,,Cannock,Broadway Convenience Store,Retailers - other,4613,5,,486748,5,,52.71432400000000,40110,287,environmentalhealth@cannockchasedc.gov.uk,Cannock Chase,http://www.cannockchasedc.gov.uk,-2.02133200000000,WS12 4HP,2012-12-03,fhrs_5_en-GB,5,,FHRS,0
327859,50b Broadway,Pye Green,,Cannock,Broadway Spice,Takeaway/sandwich shop,7844,5,,387543,10,,52.71432400000000,87,287,environmentalhealth@cannockchasedc.gov.uk,Cannock Chase,http://www.cannockchasedc.gov.uk,-2.02133200000000,WS12 4HP,2013-11-19,fhrs_4_en-GB,4,,FHRS,5
327860,193 Cemetery Road,West Chadsmoor,,Cannock,Broomhill Albion Working Mens Club,Pub/bar/nightclub,7843,5,,387115,5,,52.70109900000000,310,287,environmentalhealth@cannockchasedc.gov.uk,Cannock Chase,http://www.cannockchasedc.gov.uk,-2.02554300000000,WS11 5QG,2010-04-07,fhrs_5_en-GB,5,,FHRS,5
327861,5 Ashworth House,Cannock Road,Chadsmoor,Cannock,Brooms Drinks Store,Retailers - other,4613,5,,494295,5,,52.70242200000000,40338,287,environmentalhealth@cannockchasedc.gov.uk,Cannock Chase,http://www.cannockchasedc.gov.uk,-2.01551000000000,WS11 5DZ,2013-01-07,fhrs_4_en-GB,4,,FHRS,10
327862,Pye Green Road,,,Cannock,Brunswick House,Hospitals/Childcare/Caring Premises,5,5,,387556,5,,52.69485000000000,90,287,environmentalhealth@cannockchasedc.gov.uk,Cannock Chase,http://www.cannockchasedc.gov.uk,-2.03147300000000,WS11 5RZ,2013-09-30,fhrs_5_en-GB,5,,FHRS,5
327863,Burger King Uk Ltd.,Western Springs Road,,Rugeley,Burger King,Restaurant/Cafe/Canteen,1,5,,387516,0,,52.75876300000000,761,287,environmentalhealth@cannockchasedc.gov.uk,Cannock Chase,http://www.cannockchasedc.gov.uk,-1.93804800000000,WS15 2AS,2013-08-28,fhrs_5_en-GB,5,,FHRS,5
327864,27 Newhall Street,,,Cannock,Butterflies Nursery,Hospitals/Childcare/Caring Premises,5,0,,716184,0,,52.68843100000000,49397,287,environmentalhealth@cannockchasedc.gov.uk,Cannock Chase,http://www.cannockchasedc.gov.uk,-2.03380500000000,WS11 1AB,2014-11-07,fhrs_5_en-GB,5,,FHRS,5
327865,Civic Centre,Beecroft Road,,Cannock,C M Leisure - Civic Ballroom,Pub/bar/nightclub,7843,0,,387432,0,,52.69194700000000,6601,287,environmentalhealth@cannockchasedc.gov.uk,Cannock Chase,http://www.cannockchasedc.gov.uk,-2.02842300000000,WS11 1BG,2011-10-19,fhrs_5_en-GB,5,,FHRS,0
327866,Unit 5b To 5c,Wyrley Brook Retail Park,Vine Lane,Cannock,Cafe Moda @ The Fashion Factory,Restaurant/Cafe/Canteen,1,0,,508679,0,,52.67445100000000,40581,287,environmentalhealth@cannockchasedc.gov.uk,Cannock Chase,http://www.cannockchasedc.gov.uk,-2.03558400000000,WS11 0XF,2013-02-08,fhrs_5_en-GB,5,,FHRS,0
327867,4 High Green Court,Newhall Street,,Cannock,Caffe Del Nino,Restaurant/Cafe/Canteen,1,0,,445990,5,,52.68868300000000,38186,287,environmentalhealth@cannockchasedc.gov.uk,Cannock Chase,http://www.cannockchasedc.gov.uk,-2.03195600000000,WS11 1GR,2014-05-01,fhrs_5_en-GB,5,,FHRS,0
327868,Linkway Retail Park,Watling Street,,Cannock,Caffe Pausa Inside Dunelm,Restaurant/Cafe/Canteen,1,0,,702455,0,,52.67813300000000,48293,287,environmentalhealth@cannockchasedc.gov.uk,Cannock Chase,http://www.cannockchasedc.gov.uk,-2.04768600000000,WS11 1TD,2014-09-16,fhrs_5_en-GB,5,,FHRS,5
327869,,,,,Cake Creations Retail,Other catering premises,7841,5,,455298,0,,,38965,287,environmentalhealth@cannockchasedc.gov.uk,Cannock Chase,http://www.cannockchasedc.gov.uk,,,2012-10-08,fhrs_5_en-GB,5,,FHRS,0
327870,,,,,Cakebee,Other catering premises,7841,0,,542912,0,,,41789,287,environmentalhealth@cannockchasedc.gov.uk,Cannock Chase,http://www.cannockchasedc.gov.uk,,,2013-04-17,fhrs_5_en-GB,5,,FHRS,0
327871,,,,,Cakes 4 All Occasions,Other catering premises,7841,5,,387166,5,,,3825,287,environmentalhealth@cannockchasedc.gov.uk,Cannock Chase,http://www.cannockchasedc.gov.uk,,,2009-01-26,fhrs_5_en-GB,5,,FHRS,5
327872,,,,,Cakes And Sugarcraft By Maria Jane,Other catering premises,7841,10,,387349,5,,,5781,287,environmentalhealth@cannockchasedc.gov.uk,Cannock Chase,http://www.cannockchasedc.gov.uk,,,2010-12-06,fhrs_4_en-GB,4,,FHRS,0
327873,,,,,Cakes By Emma,Other catering premises,7841,5,,553104,0,,,42185,287,environmentalhealth@cannockchasedc.gov.uk,Cannock Chase,http://www.cannockchasedc.gov.uk,,,2013-05-09,fhrs_5_en-GB,5,,FHRS,0
327874,,,,,Cakes by Kate,Other catering premises,7841,5,,387143,0,,,3534,287,environmentalhealth@cannockchasedc.gov.uk,Cannock Chase,http://www.cannockchasedc.gov.uk,,,2008-11-11,fhrs_5_en-GB,5,,FHRS,0
327875,,,,,Cakes By Rachel,Other catering premises,7841,5,,462598,0,,,39278,287,environmentalhealth@cannockchasedc.gov.uk,Cannock Chase,http://www.cannockchasedc.gov.uk,,,2012-10-29,fhrs_5_en-GB,5,,FHRS,0
327876,Ground Floor,178 Hednesford Road,Heath Hayes,Cannock,Cakes For Occasions & Sugarcraft Centre,Retailers - other,4613,5,,578470,0,,52.69062800000000,43053,287,environmentalhealth@cannockchasedc.gov.uk,Cannock Chase,http://www.cannockchasedc.gov.uk,-1.98356400000000,WS12 3DZ,2013-08-08,fhrs_5_en-GB,5,,FHRS,0
327877,18 Upper Brook Street,,,Rugeley,Caketins,Restaurant/Cafe/Canteen,1,5,,659065,10,,52.75896900000000,45741,287,environmentalhealth@cannockchasedc.gov.uk,Cannock Chase,http://www.cannockchasedc.gov.uk,-1.93631400000000,WS15 2DN,2014-03-20,fhrs_4_en-GB,4,,FHRS,5
327878,Old Youth Hostel,Wandon,,Rugeley,Camping & Caravanning Club,Retailers - other,4613,0,,387440,0,,52.72844400000000,666,287,environmentalhealth@cannockchasedc.gov.uk,Cannock Chase,http://www.cannockchasedc.gov.uk,-1.94306600000000,WS15 1QW,2009-06-03,fhrs_5_en-GB,5,,FHRS,0
327879,100 Market Street,Hednesford,,Cannock,Candy Stall,Retailers - other,4613,0,,387460,0,,52.70929100000000,6725,287,environmentalhealth@cannockchasedc.gov.uk,Cannock Chase,http://www.cannockchasedc.gov.uk,-1.99908300000000,WS12 1AG,2015-01-06,fhrs_5_en-GB,5,,FHRS,0
327880,Littleworth Road,,,Cannock,Cannock & Rugeley Colliery Cricket Club,Pub/bar/nightclub,7843,0,,387228,0,,52.70854900000000,453,287,environmentalhealth@cannockchasedc.gov.uk,Cannock Chase,http://www.cannockchasedc.gov.uk,-1.96518900000000,WS12 1QQ,2014-01-27,fhrs_5_en-GB,5,,FHRS,0
327881,"Unit 3, Cannock Shopping Centre",Market Hall Street,,Cannock,Cannock Butchers,Retailers - other,4613,0,,387330,0,,52.68949200000000,556,287,environmentalhealth@cannockchasedc.gov.uk,Cannock Chase,http://www.cannockchasedc.gov.uk,-2.03012200000000,WS11 1EB,2014-03-19,fhrs_5_en-GB,5,,FHRS,5
327882,Hednesford Road,,,Cannock,Cannock Chase High School,School/college/university,7845,5,,387144,5,,52.69421300000000,354,287,environmentalhealth@cannockchasedc.gov.uk,Cannock Chase,http://www.cannockchasedc.gov.uk,-2.02373400000000,WS11 1JT,2013-01-23,fhrs_5_en-GB,5,,FHRS,5
327883,Cannock Chase Hospital,Brunswick Road,,Cannock,Cannock Chase Hospital Catering Department,Hospitals/Childcare/Caring Premises,5,0,,387091,5,,52.69325000000000,271,287,environmentalhealth@cannockchasedc.gov.uk,Cannock Chase,http://www.cannockchasedc.gov.uk,-2.03062800000000,WS11 5XY,2014-12-08,fhrs_5_en-GB,5,,FHRS,0
327884,Marquis Drive,,,Cannock,Cannock Chase Visitors Centre,Restaurant/Cafe/Canteen,1,0,,387399,0,,52.73539700000000,630,287,environmentalhealth@cannockchasedc.gov.uk,Cannock Chase,http://www.cannockchasedc.gov.uk,-1.99404800000000,WS12 4PW,2013-01-28,fhrs_5_en-GB,5,,FHRS,5
327885,92 High Green,,,Cannock,Cannock Conservative Club,Pub/bar/nightclub,7843,5,,387185,0,,52.69040800000000,403,287,environmentalhealth@cannockchasedc.gov.uk,Cannock Chase,http://www.cannockchasedc.gov.uk,-2.03321500000000,WS11 1BE,2012-03-27,fhrs_5_en-GB,5,,FHRS,0
327886,"Unit 55, In Shops",Market Hall Street,,Cannock,Cannock Copper Kettle,Restaurant/Cafe/Canteen,1,10,,387331,10,,52.68949200000000,558,287,environmentalhealth@cannockchasedc.gov.uk,Cannock Chase,http://www.cannockchasedc.gov.uk,-2.03012200000000,WS11 1EB,2013-08-21,fhrs_3_en-GB,3,,FHRS,10
327887,Unit 1,Conduit Road,Norton Canes,Cannock,Cannock Dairies   Vans,Mobile caterer,7846,5,,585692,0,,52.66831300000000,43306,287,environmentalhealth@cannockchasedc.gov.uk,Cannock Chase,http://www.cannockchasedc.gov.uk,-1.97122500000000,WS11 9TJ,2013-09-12,fhrs_5_en-GB,5,,FHRS,0
327888,21-23 Walsall Road,,,Cannock,Cannock Ex Servicemen ,Pub/bar/nightclub,7843,10,,387503,5,,52.68795600000000,737,287,environmentalhealth@cannockchasedc.gov.uk,Cannock Chase,http://www.cannockchasedc.gov.uk,-2.02831700000000,WS11 0HG,2012-04-17,fhrs_3_en-GB,3,,FHRS,10
327889,78 Wolverhampton Road,,,Cannock,Cannock Fish Bar,Takeaway/sandwich shop,7844,5,,387179,5,,52.68615600000000,396,287,environmentalhealth@cannockchasedc.gov.uk,Cannock Chase,http://www.cannockchasedc.gov.uk,-2.03367100000000,WS11 1AS,2013-03-27,fhrs_4_en-GB,4,,FHRS,10
327890,Stall 14 Cannock Indoor Market,Market Hall Street,,Cannock,Cannock Polish Deli,Retailers - other,4613,5,,387458,10,,52.68949200000000,6723,287,environmentalhealth@cannockchasedc.gov.uk,Cannock Chase,http://www.cannockchasedc.gov.uk,-2.03012200000000,WS11 1EB,2011-11-25,fhrs_4_en-GB,4,,FHRS,0
327891,119 Walsall Road,,,Cannock,Cannock Resource Centre,Hospitals/Childcare/Caring Premises,5,0,,387127,0,,52.68000900000000,3279,287,environmentalhealth@cannockchasedc.gov.uk,Cannock Chase,http://www.cannockchasedc.gov.uk,-2.02692100000000,WS11 0JB,2012-01-09,fhrs_5_en-GB,5,,FHRS,0
327892,67 Wolverhampton Road,,,Cannock,Cannock Social Working Mens Club,Pub/bar/nightclub,7843,0,,387178,0,,52.68754100000000,395,287,environmentalhealth@cannockchasedc.gov.uk,Cannock Chase,http://www.cannockchasedc.gov.uk,-2.03155600000000,WS11 1AP,2010-02-17,fhrs_5_en-GB,5,,FHRS,5
327893,Avon Road,,,Cannock,Cannock Youth Centre,Retailers - other,4613,5,,387170,5,,52.68482000000000,385,287,environmentalhealth@cannockchasedc.gov.uk,Cannock Chase,http://www.cannockchasedc.gov.uk,-2.02387200000000,WS11 1LG,2010-01-20,fhrs_5_en-GB,5,,FHRS,0
327894,12 Market Hall Street,,,Cannock,Card Factory,Retailers - other,4613,0,,454428,0,,52.68949200000000,38669,287,environmentalhealth@cannockchasedc.gov.uk,Cannock Chase,http://www.cannockchasedc.gov.uk,-2.03012200000000,WS11 1EB,2012-09-11,fhrs_5_en-GB,5,,FHRS,5
327895,3 Lower Brook Street,,,Rugeley,Card Factory,Retailers - other,4613,,,458092,,,52.75990300000000,39057,287,environmentalhealth@cannockchasedc.gov.uk,Cannock Chase,http://www.cannockchasedc.gov.uk,-1.93555700000000,WS15 2BZ,,fhrs_exempt_en-GB,Exempt,,FHRS,
327896,184 Stafford Road,,,Cannock,Cardinal Fish Bar,Takeaway/sandwich shop,7844,10,,387277,10,,52.69768100000000,5024,287,environmentalhealth@cannockchasedc.gov.uk,Cannock Chase,http://www.cannockchasedc.gov.uk,-2.03453800000000,WS11 4AP,2013-04-18,fhrs_3_en-GB,3,,FHRS,10
327897,Cardinal Way,,,Cannock,Cardinal Griffin Rc High School,School/college/university,7845,0,,387113,0,,52.69670900000000,305,287,environmentalhealth@cannockchasedc.gov.uk,Cannock Chase,http://www.cannockchasedc.gov.uk,-2.03613500000000,WS11 4AW,2013-04-25,fhrs_5_en-GB,5,,FHRS,5
327898,,,,,Carol's Catering,Other catering premises,7841,5,,387351,0,,,5795,287,environmentalhealth@cannockchasedc.gov.uk,Cannock Chase,http://www.cannockchasedc.gov.uk,,,2012-05-29,fhrs_5_en-GB,5,,FHRS,0
327899,"Unit 6,",Longford Industrial Estate,Longford Road,Cannock,Carousel Catering & Penny's CafÃ©,Restaurant/Cafe/Canteen,1,10,,387238,10,,52.67706800000000,463,287,environmentalhealth@cannockchasedc.gov.uk,Cannock Chase,http://www.cannockchasedc.gov.uk,-2.03079400000000,WS11 0DG,2014-07-03,fhrs_3_en-GB,3,,FHRS,5
327900,Dhl Exec - Unilever,Hickling Road,,Cannock,Catermasters,Restaurant/Cafe/Canteen,1,5,,387357,0,,52.67673100000000,5921,287,environmentalhealth@cannockchasedc.gov.uk,Cannock Chase,http://www.cannockchasedc.gov.uk,-2.00551800000000,WS11 8JH,2011-02-09,fhrs_5_en-GB,5,,FHRS,5
327901,118 Main Road,Brereton,,Rugeley,Cedar Tree Hotel,Farmers/growers,7838,10,,387326,10,,52.74431600000000,550,287,environmentalhealth@cannockchasedc.gov.uk,Cannock Chase,http://www.cannockchasedc.gov.uk,-1.92187700000000,WS15 1DY,2013-10-17,fhrs_3_en-GB,3,,FHRS,10
327902,Centenary Hall,Uxbridge Street,Littleworth,Cannock,Centenary Hall,Restaurant/Cafe/Canteen,1,10,,520646,0,,52.70573100000000,41045,287,environmentalhealth@cannockchasedc.gov.uk,Cannock Chase,http://www.cannockchasedc.gov.uk,-1.99755900000000,WS12 1DB,2013-03-08,fhrs_4_en-GB,4,,FHRS,5
327903,Kingsway,Chadsmoor,,Cannock,Chadsmoor Community Infants & Nursery School,School/college/university,7845,0,,387218,0,,52.70509300000000,440,287,environmentalhealth@cannockchasedc.gov.uk,Cannock Chase,http://www.cannockchasedc.gov.uk,-2.00993200000000,WS11 6EU,2013-04-18,fhrs_5_en-GB,5,,FHRS,0
327904,252 Cannock Road,Chadsmoor,,Cannock,Chadsmoor Fish Bar,Takeaway/sandwich shop,7844,0,,387577,0,,52.70294400000000,98,287,environmentalhealth@cannockchasedc.gov.uk,Cannock Chase,http://www.cannockchasedc.gov.uk,-2.01465200000000,WS11 5DB,2014-04-07,fhrs_5_en-GB,5,,FHRS,5
327905,Burns Street,Chadsmoor,,Cannock,Chadsmoor Junior School,School/college/university,7845,0,,387093,0,,52.70049800000000,274,287,environmentalhealth@cannockchasedc.gov.uk,Cannock Chase,http://www.cannockchasedc.gov.uk,-2.01601300000000,WS11 6DR,2011-05-12,fhrs_5_en-GB,5,,FHRS,0
327906,18 Burns Street,Blackfords,Chadsmoor,Cannock,Chadsmoor Progressive Working Mens Club,Pub/bar/nightclub,7843,5,,387095,0,,52.70049800000000,275,287,environmentalhealth@cannockchasedc.gov.uk,Cannock Chase,http://www.cannockchasedc.gov.uk,-2.01601300000000,WS11 6DR,2010-03-22,fhrs_5_en-GB,5,,FHRS,5
327907,207 Cannock Road,Chadsmoor,,Cannock,Chadsmoor Stores & Post Office (Nisa),Retailers - other,4613,10,,387105,5,,52.70292600000000,290,287,environmentalhealth@cannockchasedc.gov.uk,Cannock Chase,http://www.cannockchasedc.gov.uk,-2.01555500000000,WS11 5DD,2013-05-31,fhrs_3_en-GB,3,,FHRS,10
327908,The Cancel County Infants School,Wolseley Road,,Rugeley,Chancel Primary School,School/college/university,7845,5,,387522,0,,52.76604400000000,775,287,environmentalhealth@cannockchasedc.gov.uk,Cannock Chase,http://www.cannockchasedc.gov.uk,-1.93732600000000,WS15 2EW,2012-02-08,fhrs_5_en-GB,5,,FHRS,0
327909,3.12 and 3.13,Cannock Chase Enterprise Centre,Walkers Rise,Cannock,Chase Cafe,Restaurant/Cafe/Canteen,1,5,,609285,10,,52.72527500000000,43821,287,environmentalhealth@cannockchasedc.gov.uk,Cannock Chase,http://www.cannockchasedc.gov.uk,-1.99033300000000,WS12 0QW,2013-10-14,fhrs_4_en-GB,4,,FHRS,0
327910,,,,,Chase Cakes,Other catering premises,7841,0,,387385,5,,,6184,287,environmentalhealth@cannockchasedc.gov.uk,Cannock Chase,http://www.cannockchasedc.gov.uk,,,2011-05-10,fhrs_5_en-GB,5,,FHRS,0
327911,165 Longford Road,,,Cannock,Chase Day Service,Hospitals/Childcare/Caring Premises,5,0,,387248,0,,52.68027600000000,470,287,environmentalhealth@cannockchasedc.gov.uk,Cannock Chase,http://www.cannockchasedc.gov.uk,-2.03564800000000,WS11 0LG,2012-10-12,fhrs_5_en-GB,5,,FHRS,0
327912,5 Festival Court,Pye Green Road,,Cannock,Chase Frozen Foods,Retailers - other,4613,0,,387362,0,,52.70978300000000,595,287,environmentalhealth@cannockchasedc.gov.uk,Cannock Chase,http://www.cannockchasedc.gov.uk,-2.02566700000000,WS11 5RP,2014-01-22,fhrs_5_en-GB,5,,FHRS,0
327913,Lyncroft House,Convent Close,,Cannock,Chase Grammar,School/college/university,7845,0,,387123,0,,52.68453000000000,325,287,environmentalhealth@cannockchasedc.gov.uk,Cannock Chase,http://www.cannockchasedc.gov.uk,-2.02995600000000,WS11 0UR,2013-05-23,fhrs_4_en-GB,4,,FHRS,10
327914,Cannock Road Filling Station,478 Cannock Road,Hednesford,Cannock,Chase Service Station,Retailers - other,4613,0,,387110,0,,52.70910300000000,298,287,environmentalhealth@cannockchasedc.gov.uk,Cannock Chase,http://www.cannockchasedc.gov.uk,-2.00414500000000,WS12 4AA,2012-03-07,fhrs_5_en-GB,5,,FHRS,0
327915,Hillary Crest,,,Rugeley,Chase View C.P,School/college/university,7845,0,,387188,0,,52.74781400000000,406,287,environmentalhealth@cannockchasedc.gov.uk,Cannock Chase,http://www.cannockchasedc.gov.uk,-1.93918900000000,WS15 1NE,2011-12-14,fhrs_5_en-GB,5,,FHRS,0
327916,848 Pye Green Road,,,Cannock,Chase Workers Social Club,Pub/bar/nightclub,7843,5,,387379,0,,52.72445500000000,609,287,environmentalhealth@cannockchasedc.gov.uk,Cannock Chase,http://www.cannockchasedc.gov.uk,-2.01845000000000,WS12 4LN,2012-03-22,fhrs_5_en-GB,5,,FHRS,5
327917,12 High Green Court,Newhall Street,,Cannock,China Garden,Restaurant/Cafe/Canteen,1,20,,387422,15,,52.68868300000000,653,287,environmentalhealth@cannockchasedc.gov.uk,Cannock Chase,http://www.cannockchasedc.gov.uk,-2.03195600000000,WS11 1GR,2014-09-23,fhrs_1_en-GB,1,,FHRS,15
327918,The Chase Centre,Church Street,,Cannock,China Garden Express,Takeaway/sandwich shop,7844,5,,386993,10,,52.68947500000000,105,287,environmentalhealth@cannockchasedc.gov.uk,Cannock Chase,http://www.cannockchasedc.gov.uk,-2.02583200000000,WS11 1DH,2013-05-15,fhrs_4_en-GB,4,,FHRS,5
327919,,,,,Chloes Munchbox,Mobile caterer,7846,0,,442771,0,,,38134,287,environmentalhealth@cannockchasedc.gov.uk,Cannock Chase,http://www.cannockchasedc.gov.uk,,,2012-06-14,fhrs_5_en-GB,5,,FHRS,0
327920,3 Walsall Road,,,Cannock,Chop Chop Noodle & Salad Bar,Takeaway/sandwich shop,7844,0,,609292,5,,52.68795600000000,43906,287,environmentalhealth@cannockchasedc.gov.uk,Cannock Chase,http://www.cannockchasedc.gov.uk,-2.02831700000000,WS11 0HG,2014-03-13,fhrs_5_en-GB,5,,FHRS,5
327921,116 Church Hill,Littleworth,,Cannock,Church Hill Victoria Working Mens Club,Pub/bar/nightclub,7843,5,,387118,5,,52.70486800000000,315,287,environmentalhealth@cannockchasedc.gov.uk,Cannock Chase,http://www.cannockchasedc.gov.uk,-1.99240900000000,WS12 1BQ,2010-04-15,fhrs_5_en-GB,5,,FHRS,5
327922,Sandy Lane,,,Rugeley,Churchfield Primary School,School/college/university,7845,0,,387442,0,,52.75662300000000,669,287,environmentalhealth@cannockchasedc.gov.uk,Cannock Chase,http://www.cannockchasedc.gov.uk,-1.93722100000000,WS15 2LB,2013-10-22,fhrs_5_en-GB,5,,FHRS,5
327923,73 Broadhurst Green,Pye Green,,Cannock,Clive Liley Butchers,Retailers - other,4613,0,,387560,5,,52.72367400000000,92,287,environmentalhealth@cannockchasedc.gov.uk,Cannock Chase,http://www.cannockchasedc.gov.uk,-2.01420000000000,WS12 4LA,2013-12-09,fhrs_5_en-GB,5,,FHRS,5
327924,Cross Keys Hotel,Hill Street,Hednesford,Cannock,Coachouse Restaurant,Restaurant/Cafe/Canteen,1,10,,387418,5,,52.70046400000000,6502,287,environmentalhealth@cannockchasedc.gov.uk,Cannock Chase,http://www.cannockchasedc.gov.uk,-1.99716000000000,WS12 2DN,2011-08-12,fhrs_4_en-GB,4,,FHRS,0
327925,Conduit Road,Norton Canes,,Cannock,Conduit Road Cafe,Restaurant/Cafe/Canteen,1,0,,387249,5,,52.66831300000000,4733,287,environmentalhealth@cannockchasedc.gov.uk,Cannock Chase,http://www.cannockchasedc.gov.uk,-1.97122500000000,WS11 9TJ,2013-11-14,fhrs_5_en-GB,5,,FHRS,0
327926,23c Horse Fair ,,,Rugeley,Cooks Newsagents ,Retailers - other,4613,0,,387553,0,,52.75759300000000,895,287,environmentalhealth@cannockchasedc.gov.uk,Cannock Chase,http://www.cannockchasedc.gov.uk,-1.93504100000000,WS15 2EJ,2009-07-16,fhrs_5_en-GB,5,,FHRS,0
327927,Hill Top,,Hednesford,Cannock,Co-op Petrol Station,Retailers - other,4613,5,,387055,0,,52.71926600000000,1701,287,environmentalhealth@cannockchasedc.gov.uk,Cannock Chase,http://www.cannockchasedc.gov.uk,-1.99980500000000,WS12 5DE,2012-02-23,fhrs_5_en-GB,5,,FHRS,0
327928,4-6 Redbrook Lane,,Brereton,Rugeley,Co-operative Food,Retailers - other,4613,0,,387562,0,,52.74795100000000,923,287,environmentalhealth@cannockchasedc.gov.uk,Cannock Chase,http://www.cannockchasedc.gov.uk,-1.92598900000000,WS15 1AB,2009-07-14,fhrs_5_en-GB,5,,FHRS,0
327929,30 Church Street,,,Rugeley,Copperdown Residential Home,Hospitals/Childcare/Caring Premises,5,5,,386996,0,,52.76198300000000,107,287,environmentalhealth@cannockchasedc.gov.uk,Cannock Chase,http://www.cannockchasedc.gov.uk,-1.94059200000000,WS15 2AH,2013-10-09,fhrs_5_en-GB,5,,FHRS,0
327930,6-8 Lower Brook Street,,,Rugeley,Costa Coffee,Restaurant/Cafe/Canteen,1,5,,387358,0,,52.76007400000000,5922,287,environmentalhealth@cannockchasedc.gov.uk,Cannock Chase,http://www.cannockchasedc.gov.uk,-1.93589700000000,WS15 2DF,2013-02-04,fhrs_5_en-GB,5,,FHRS,0
327931,Unit 23,Cannock Shopping Centre,Market Hall Street,Cannock,Costa Coffee,Restaurant/Cafe/Canteen,1,5,,482877,0,,52.68949200000000,40034,287,environmentalhealth@cannockchasedc.gov.uk,Cannock Chase,http://www.cannockchasedc.gov.uk,-2.03012200000000,WS11 1EB,2012-12-13,fhrs_5_en-GB,5,,FHRS,0
327932,Victoria Shopping Park,Victoria Street,,Hednesford,Costa Coffee,Restaurant/Cafe/Canteen,1,0,,511456,0,,52.70885100000000,40737,287,environmentalhealth@cannockchasedc.gov.uk,Cannock Chase,http://www.cannockchasedc.gov.uk,-2.00047500000000,WS12 1DN,2013-02-22,fhrs_5_en-GB,5,,FHRS,0
327933,37 Brownhills Road,Norton Canes,,Cannock,Crofts,Takeaway/sandwich shop,7844,10,,387087,10,,52.67398500000000,265,287,environmentalhealth@cannockchasedc.gov.uk,Cannock Chase,http://www.cannockchasedc.gov.uk,-1.97028900000000,WS11 9SE,2012-12-12,fhrs_3_en-GB,3,,FHRS,10
327934,42 Hill Street ,Hednesford,,Cannock,Cross Keys Hotel,Hotel/bed & breakfast/guest house,7842,5,,387189,5,,52.70046400000000,407,287,environmentalhealth@cannockchasedc.gov.uk,Cannock Chase,http://www.cannockchasedc.gov.uk,-1.99716000000000,WS12 2DN,2009-08-28,fhrs_5_en-GB,5,,FHRS,5
327935,1 Bow Street Chambers,Market Street,,Rugeley,Crumbs,Takeaway/sandwich shop,7844,5,,387427,5,,52.76047000000000,6560,287,environmentalhealth@cannockchasedc.gov.uk,Cannock Chase,http://www.cannockchasedc.gov.uk,-1.93610400000000,WS15 2AZ,2013-02-27,fhrs_5_en-GB,5,,FHRS,0
327936,23b Horse Fair,,,Rugeley,Crustys Bakery,Retailers - other,4613,0,,387388,0,,52.75759300000000,6201,287,environmentalhealth@cannockchasedc.gov.uk,Cannock Chase,http://www.cannockchasedc.gov.uk,-1.93504100000000,WS15 2EJ,2012-10-08,fhrs_5_en-GB,5,,FHRS,5
327937,35 St Johns Road,,,Cannock,Crystal Fountain,Pub/bar/nightclub,7843,10,,486751,10,,52.68253500000000,40142,287,environmentalhealth@cannockchasedc.gov.uk,Cannock Chase,http://www.cannockchasedc.gov.uk,-2.02952600000000,WS11 0AG,2012-12-18,fhrs_3_en-GB,3,,FHRS,10
327938,35 Market Street,Hednesford,,Cannock,Cuizine Restuarant,Restaurant/Cafe/Canteen,1,5,,726743,0,,52.70813200000000,50005,287,environmentalhealth@cannockchasedc.gov.uk,Cannock Chase,http://www.cannockchasedc.gov.uk,-1.99829900000000,WS12 1AY,2014-12-02,fhrs_5_en-GB,5,,FHRS,0
327939,,,,,D W Cope Partners,Mobile caterer,7846,5,,387022,0,,,1429,287,environmentalhealth@cannockchasedc.gov.uk,Cannock Chase,http://www.cannockchasedc.gov.uk,,,2012-02-21,fhrs_5_en-GB,5,,FHRS,0
327940,Market Square,,,Rugeley,D. Clapham Fruit & Veg,Retailers - other,4613,0,,387540,0,,52.76072100000000,861,287,environmentalhealth@cannockchasedc.gov.uk,Cannock Chase,http://www.cannockchasedc.gov.uk,-1.93576300000000,WS15 2BJ,2009-07-23,fhrs_5_en-GB,5,,FHRS,0
327941,,,,,Daisy Bank Delights,Other catering premises,7841,0,,468687,0,,,39770,287,environmentalhealth@cannockchasedc.gov.uk,Cannock Chase,http://www.cannockchasedc.gov.uk,,,2012-10-23,fhrs_5_en-GB,5,,FHRS,0
327942,Daisybrook House,49 Norton Green Lane,Norton Canes,Cannock,Daisybrook,Hospitals/Childcare/Caring Premises,5,0,,387298,0,,52.66805400000000,523,287,environmentalhealth@cannockchasedc.gov.uk,Cannock Chase,http://www.cannockchasedc.gov.uk,-1.97731700000000,WS11 9PR,2013-02-28,fhrs_5_en-GB,5,,FHRS,0
327943,Unit 1,9 Market Street,,Hednesford,Dawn Cafe Boogaloo,Restaurant/Cafe/Canteen,1,0,,387045,0,,52.70813200000000,16966,287,environmentalhealth@cannockchasedc.gov.uk,Cannock Chase,http://www.cannockchasedc.gov.uk,-1.99829900000000,WS12 1AY,2013-12-03,fhrs_5_en-GB,5,,FHRS,0
327944,39 Albion Street,,,Rugeley,De Raj,Restaurant/Cafe/Canteen,1,0,,387325,5,,52.75988500000000,55,287,environmentalhealth@cannockchasedc.gov.uk,Cannock Chase,http://www.cannockchasedc.gov.uk,-1.93406000000000,WS15 2BY,2013-05-31,fhrs_4_en-GB,4,,FHRS,10
327945,,,,,Debz Diner,Mobile caterer,7846,10,,387274,0,,,4999,287,environmentalhealth@cannockchasedc.gov.uk,Cannock Chase,http://www.cannockchasedc.gov.uk,,,2013-03-26,fhrs_4_en-GB,4,,FHRS,5
327946,,,,,Dee Cups,Other catering premises,7841,5,,433471,0,,,37782,287,environmentalhealth@cannockchasedc.gov.uk,Cannock Chase,http://www.cannockchasedc.gov.uk,,,2012-08-01,fhrs_5_en-GB,5,,FHRS,0
327947,62 Market Street,Hednesford,,Cannock,Dee Licious,Restaurant/Cafe/Canteen,1,5,,387276,0,,52.70929100000000,501,287,environmentalhealth@cannockchasedc.gov.uk,Cannock Chase,http://www.cannockchasedc.gov.uk,-1.99908300000000,WS12 1AG,2013-05-09,fhrs_5_en-GB,5,,FHRS,5
327948,6 Walsall Road,,,Cannock,Delhi 6,Other catering premises,7841,0,,735705,0,,52.68755100000000,50518,287,environmentalhealth@cannockchasedc.gov.uk,Cannock Chase,http://www.cannockchasedc.gov.uk,-2.02862700000000,WS11 0HE,2015-02-03,fhrs_5_en-GB,5,,FHRS,0
327949,Orbital Filling Station,Hawks Green Lane ,Hawks Green ,Cannock,Deol Fuels The Orbital,Retailers - other,4613,5,,387138,0,,52.69447600000000,348,287,environmentalhealth@cannockchasedc.gov.uk,Cannock Chase,http://www.cannockchasedc.gov.uk,-2.01025500000000,WS11 7LH,2010-02-03,fhrs_5_en-GB,5,,FHRS,0
327950,1 Buds Road,Cannock Wood,,Cannock,Dickinsons,Retailers - other,4613,0,,387092,0,,52.70682500000000,273,287,environmentalhealth@cannockchasedc.gov.uk,Cannock Chase,http://www.cannockchasedc.gov.uk,-1.92869300000000,WS15 4NB,2013-09-05,fhrs_4_en-GB,4,,FHRS,10
327951,1 Ashworth House,Cannock Road,Chadsmoor,Cannock,Dilshad Tandoori Restaurant,Restaurant/Cafe/Canteen,1,0,,387566,5,,52.70242200000000,93,287,environmentalhealth@cannockchasedc.gov.uk,Cannock Chase,http://www.cannockchasedc.gov.uk,-2.01551000000000,WS11 5DZ,2014-09-01,fhrs_5_en-GB,5,,FHRS,5
327952,Unit 3,Victoria Shopping Park,Victoria Street,Cannock,Discount Uk,Retailers - other,4613,5,,584031,0,,,43273,287,environmentalhealth@cannockchasedc.gov.uk,Cannock Chase,http://www.cannockchasedc.gov.uk,,WS12 5AF,2013-09-05,fhrs_5_en-GB,5,,FHRS,5
327953,14 High Green Court,Newhall Street,,Cannock,Dominos Pizza,Takeaway/sandwich shop,7844,0,,387423,0,,52.68868300000000,654,287,environmentalhealth@cannockchasedc.gov.uk,Cannock Chase,http://www.cannockchasedc.gov.uk,-2.03195600000000,WS11 1GR,2014-01-17,fhrs_5_en-GB,5,,FHRS,0
327954,Unit 1,The Pear Tree Shopping Centre,Queensway,Rugeley,Domino's Pizza,Takeaway/sandwich shop,7844,0,,387039,0,,52.75172500000000,16878,287,environmentalhealth@cannockchasedc.gov.uk,Cannock Chase,http://www.cannockchasedc.gov.uk,-1.93955400000000,WS15 1NN,2012-09-20,fhrs_5_en-GB,5,,FHRS,0
327955,147 Longford Road,,,Cannock,Dropped Scones @ Chase Day Service,Other catering premises,7841,,,458096,,,52.68027600000000,39162,287,environmentalhealth@cannockchasedc.gov.uk,Cannock Chase,http://www.cannockchasedc.gov.uk,-2.03564800000000,WS11 0LG,,fhrs_exempt_en-GB,Exempt,,FHRS,
327956,21 North Street,,,Cannock,Eastern Memories,Restaurant/Cafe/Canteen,1,5,,387283,5,,52.67575600000000,512,287,environmentalhealth@cannockchasedc.gov.uk,Cannock Chase,http://www.cannockchasedc.gov.uk,-2.03015700000000,WS11 0BB,2013-07-29,fhrs_4_en-GB,4,,FHRS,10
327957,151A Avon Road,,,Cannock,Eastern Spice,Takeaway/sandwich shop,7844,20,,445996,5,,52.68590500000000,38286,287,environmentalhealth@cannockchasedc.gov.uk,Cannock Chase,http://www.cannockchasedc.gov.uk,-2.03233900000000,WS11 1LF,2012-08-29,fhrs_1_en-GB,1,,FHRS,10
327958,101 Edward Street,West Chadsmoor,,Cannock,Edward Street Working Mens Club,Pub/bar/nightclub,7843,10,,387132,5,,52.70370600000000,333,287,environmentalhealth@cannockchasedc.gov.uk,Cannock Chase,http://www.cannockchasedc.gov.uk,-2.02535200000000,WS11 5JF,2010-02-17,fhrs_4_en-GB,4,,FHRS,5
327959,3 Ashworth House,Cannock Road,Chadsmoor,Cannock,Elaichi,Takeaway/sandwich shop,7844,0,,387197,5,,52.70242200000000,4243,287,environmentalhealth@cannockchasedc.gov.uk,Cannock Chase,http://www.cannockchasedc.gov.uk,-2.01551000000000,WS11 5DZ,2014-06-23,fhrs_5_en-GB,5,,FHRS,0
327960,Walsall Road,,,Cannock,Electric Palace Picture House,Retailers - other,4613,5,,387341,0,,52.68755100000000,5704,287,environmentalhealth@cannockchasedc.gov.uk,Cannock Chase,http://www.cannockchasedc.gov.uk,-2.02862700000000,WS11 0HE,2010-09-29,fhrs_5_en-GB,5,,FHRS,0
327961,,,,,Emily's Cupcakery,Other catering premises,7841,0,,649105,0,,,45553,287,environmentalhealth@cannockchasedc.gov.uk,Cannock Chase,http://www.cannockchasedc.gov.uk,,,2014-03-25,fhrs_5_en-GB,5,,FHRS,0
327962,58 School Road,Norton Canes,,Cannock,Entirely Yours Catering,Other catering premises,7841,0,,387051,10,,52.67546800000000,16994,287,environmentalhealth@cannockchasedc.gov.uk,Cannock Chase,http://www.cannockchasedc.gov.uk,-1.96577700000000,WS11 9SQ,2014-04-19,fhrs_4_en-GB,4,,FHRS,0
327963,171 Main Road,Brereton,,Rugeley,Esso Service Station,Retailers - other,4613,0,,387535,5,,52.74494500000000,848,287,environmentalhealth@cannockchasedc.gov.uk,Cannock Chase,http://www.cannockchasedc.gov.uk,-1.92149100000000,WS15 1DX,2014-08-20,fhrs_5_en-GB,5,,FHRS,0
327964,Penk Drive North,,,Rugeley,Etching Hill Primary School,School/college/university,7845,0,,387308,0,,52.76725800000000,532,287,environmentalhealth@cannockchasedc.gov.uk,Cannock Chase,http://www.cannockchasedc.gov.uk,-1.95777700000000,WS15 2XY,2012-12-05,fhrs_5_en-GB,5,,FHRS,5
327965,Penkridge Bank Road,,,Rugeley,Fair Oak Academy,School/college/university,7845,0,,387309,10,,52.75657800000000,533,287,environmentalhealth@cannockchasedc.gov.uk,Cannock Chase,http://www.cannockchasedc.gov.uk,-1.95792100000000,WS15 2UE,2013-11-05,fhrs_4_en-GB,4,,FHRS,5
327966,,,,,Fairview (Horizon Care Ltd),Hospitals/Childcare/Caring Premises,5,10,,387303,5,,,5266,287,environmentalhealth@cannockchasedc.gov.uk,Cannock Chase,http://www.cannockchasedc.gov.uk,,,2010-06-28,fhrs_4_en-GB,4,,FHRS,0
327967,St. Marys Rc Primary School,Hunter Road,,Cannock,Farlea Childcare,Hospitals/Childcare/Caring Premises,5,5,,387026,5,,52.68436900000000,1452,287,environmentalhealth@cannockchasedc.gov.uk,Cannock Chase,http://www.cannockchasedc.gov.uk,-2.02892100000000,WS11 0AE,2010-02-22,fhrs_5_en-GB,5,,FHRS,5
327968,"Unit 12, Cannock Shopping Centre",Market Hall Street,,Cannock,Farm Foods Freezer Centre,Retailers - other,4613,0,,387332,0,,52.69027400000000,559,287,environmentalhealth@cannockchasedc.gov.uk,Cannock Chase,http://www.cannockchasedc.gov.uk,-2.03052200000000,WS11 1WS,2009-07-16,fhrs_5_en-GB,5,,FHRS,0
327969,Kingswood Lakeside,Hickling Road,,Cannock,Farriers Fayre @ Dhl,Restaurant/Cafe/Canteen,1,0,,649104,5,,52.67673100000000,45389,287,environmentalhealth@cannockchasedc.gov.uk,Cannock Chase,http://www.cannockchasedc.gov.uk,-2.00551800000000,WS11 8JH,2014-03-10,fhrs_5_en-GB,5,,FHRS,5
327970,89 Fernwood Drive ,,,Rugeley,Fernwood Drive Pharmacy,Retailers - other,4613,0,,387136,0,,52.76587000000000,337,287,environmentalhealth@cannockchasedc.gov.uk,Cannock Chase,http://www.cannockchasedc.gov.uk,-1.94856000000000,WS15 2PY,2009-07-14,fhrs_5_en-GB,5,,FHRS,0
327971,6 Festival Court,Pye Green Road,,Cannock,Festival Fish Bar,Takeaway/sandwich shop,7844,0,,387363,5,,52.70978300000000,596,287,environmentalhealth@cannockchasedc.gov.uk,Cannock Chase,http://www.cannockchasedc.gov.uk,-2.02566700000000,WS11 5RP,2014-07-09,fhrs_5_en-GB,5,,FHRS,0
327972,Hednesford Road,Heath Hayes,,Cannock,Five Ways Inn,Pub/bar/nightclub,7843,10,,387015,5,,52.68763400000000,137,287,environmentalhealth@cannockchasedc.gov.uk,Cannock Chase,http://www.cannockchasedc.gov.uk,-1.97903800000000,WS12 3HU,2013-09-23,fhrs_4_en-GB,4,,FHRS,5
327973,Langholm Drive,Heath Hayes,,Cannock,Five Ways Primary School,School/college/university,7845,0,,387219,0,,52.69351400000000,441,287,environmentalhealth@cannockchasedc.gov.uk,Cannock Chase,http://www.cannockchasedc.gov.uk,-1.98461300000000,WS12 2EZ,2013-11-22,fhrs_5_en-GB,5,,FHRS,0
327974,,,,,Fizaan Super Ices Vehicle Registration Rx06 Axd,Mobile caterer,7846,5,,535314,10,,,41513,287,environmentalhealth@cannockchasedc.gov.uk,Cannock Chase,http://www.cannockchasedc.gov.uk,,,2014-05-16,fhrs_3_en-GB,3,,FHRS,10
327975,21c Horse Fair,,,Rugeley,Flames Takeaway,Takeaway/sandwich shop,7844,5,,387067,10,,52.75759300000000,193,287,environmentalhealth@cannockchasedc.gov.uk,Cannock Chase,http://www.cannockchasedc.gov.uk,-1.93504100000000,WS15 2EJ,2013-05-09,fhrs_4_en-GB,4,,FHRS,5
327976,9 Wolseley Road,,,Rugeley,Fluffy Bumpkins Day Nursery,Hospitals/Childcare/Caring Premises,5,5,,387242,5,,52.76368800000000,4648,287,environmentalhealth@cannockchasedc.gov.uk,Cannock Chase,http://www.cannockchasedc.gov.uk,-1.93620300000000,WS15 2QH,2014-09-01,fhrs_5_en-GB,5,,FHRS,5
327977,76 Market Street,Hednesford,,Cannock,Food Paradise,Takeaway/sandwich shop,7844,10,,387278,5,,52.70929100000000,503,287,environmentalhealth@cannockchasedc.gov.uk,Cannock Chase,http://www.cannockchasedc.gov.uk,-1.99908300000000,WS12 1AG,2013-03-19,fhrs_3_en-GB,3,,FHRS,10
327978,Unit 18,Brewery Street Arcade,14 - 16 Brewery Street,Rugeley,Food Store,Retailers - other,4613,5,,574496,10,,52.75919300000000,42921,287,environmentalhealth@cannockchasedc.gov.uk,Cannock Chase,http://www.cannockchasedc.gov.uk,-1.93468300000000,WS15 2DY,2013-07-18,fhrs_4_en-GB,4,,FHRS,0
327979,,,,,For Cakes Sake Co,Other catering premises,7841,0,,387040,0,,,16882,287,environmentalhealth@cannockchasedc.gov.uk,Cannock Chase,http://www.cannockchasedc.gov.uk,,,2012-04-19,fhrs_5_en-GB,5,,FHRS,0
327980,,,,,For Goodness Cakes   Hednesford,Other catering premises,7841,0,,715603,0,,,49125,287,environmentalhealth@cannockchasedc.gov.uk,Cannock Chase,http://www.cannockchasedc.gov.uk,,,2014-10-24,fhrs_5_en-GB,5,,FHRS,0
327981,,,,,Fountain Fun Events,Other catering premises,7841,0,,447080,0,,,38318,287,environmentalhealth@cannockchasedc.gov.uk,Cannock Chase,http://www.cannockchasedc.gov.uk,,,2012-09-06,fhrs_5_en-GB,5,,FHRS,0
327982,,,,,Freshly Made Doughnuts,Mobile caterer,7846,0,,626396,0,,,44545,287,environmentalhealth@cannockchasedc.gov.uk,Cannock Chase,http://www.cannockchasedc.gov.uk,,,2014-01-17,fhrs_5_en-GB,5,,FHRS,0
327983,44 North Street,,,Cannock,Funky Fairy Cake Shop,Other catering premises,7841,0,,633706,5,,52.67573800000000,44721,287,environmentalhealth@cannockchasedc.gov.uk,Cannock Chase,http://www.cannockchasedc.gov.uk,-2.02950700000000,WS11 0BA,2014-02-10,fhrs_5_en-GB,5,,FHRS,0
327984,St Barnabas Church,Hampton Street,,Cannock,Funstart Childcare,Hospitals/Childcare/Caring Premises,5,0,,701530,5,,52.68226400000000,48281,287,environmentalhealth@cannockchasedc.gov.uk,Cannock Chase,http://www.cannockchasedc.gov.uk,-2.03127100000000,WS11 0AW,2014-09-08,fhrs_5_en-GB,5,,FHRS,0
327985,262 Cannock Road,Chadsmoor,,Cannock,G Thomas Family Butchers,Retailers - other,4613,5,,387023,5,,52.70294400000000,1430,287,environmentalhealth@cannockchasedc.gov.uk,Cannock Chase,http://www.cannockchasedc.gov.uk,-2.01465200000000,WS11 5DB,2013-06-27,fhrs_5_en-GB,5,,FHRS,0
327986,,,,,Galaxy  Cakes,Other catering premises,7841,0,,505445,5,,,40513,287,environmentalhealth@cannockchasedc.gov.uk,Cannock Chase,http://www.cannockchasedc.gov.uk,,,2013-01-31,fhrs_5_en-GB,5,,FHRS,0
327987,,,,,Gandolfo Cakes,Other catering premises,7841,0,,700970,0,,,48237,287,environmentalhealth@cannockchasedc.gov.uk,Cannock Chase,http://www.cannockchasedc.gov.uk,,,2014-09-01,fhrs_5_en-GB,5,,FHRS,0
327988,2 Old Fallow Road,,,Cannock,Garam Masala,Restaurant/Cafe/Canteen,1,0,,387299,5,,52.69930200000000,525,287,environmentalhealth@cannockchasedc.gov.uk,Cannock Chase,http://www.cannockchasedc.gov.uk,-2.02213800000000,WS11 5QJ,2013-02-06,fhrs_5_en-GB,5,,FHRS,5
327989,3a Market Hall Street,,,Cannock,George & Berties,Restaurant/Cafe/Canteen,1,5,,387530,0,,52.68949200000000,830,287,environmentalhealth@cannockchasedc.gov.uk,Cannock Chase,http://www.cannockchasedc.gov.uk,-2.03012200000000,WS11 1EB,2013-06-03,fhrs_5_en-GB,5,,FHRS,0
327990,167 Main Road,Brereton,,Rugeley,Georges Fish Bar,Takeaway/sandwich shop,7844,0,,387328,5,,52.74494500000000,552,287,environmentalhealth@cannockchasedc.gov.uk,Cannock Chase,http://www.cannockchasedc.gov.uk,-1.92149100000000,WS15 1DX,2014-09-01,fhrs_5_en-GB,5,,FHRS,5
327991,Outdoor Market,Market Square,,Rugeley,Geraghty Meats,Retailers - other,4613,0,,387201,0,,52.69194700000000,4269,287,environmentalhealth@cannockchasedc.gov.uk,Cannock Chase,http://www.cannockchasedc.gov.uk,-2.02842300000000,WS11 1BG,2009-08-13,fhrs_5_en-GB,5,,FHRS,0
327992,211-223 St. Michaels Drive,,Breteton,Rugeley,Ghuman Stores,Retailers - other,4613,10,,387484,10,,52.74591800000000,701,287,environmentalhealth@cannockchasedc.gov.uk,Cannock Chase,http://www.cannockchasedc.gov.uk,-1.92374100000000,WS15 1EU,2013-11-06,fhrs_3_en-GB,3,,FHRS,5
327993,East Cannock Road ,Hednesford ,,Cannock,Globe,Pub/bar/nightclub,7843,5,,387005,0,,52.70050800000000,122,287,environmentalhealth@cannockchasedc.gov.uk,Cannock Chase,http://www.cannockchasedc.gov.uk,-2.00630500000000,WS12 1LZ,2010-03-02,fhrs_5_en-GB,5,,FHRS,5
327994,122 Hednesford Road,Heath Hayes,,Cannock,Golden Hayes Cantonese Takeaway,Takeaway/sandwich shop,7844,10,,387017,10,,52.68881100000000,139,287,environmentalhealth@cannockchasedc.gov.uk,Cannock Chase,http://www.cannockchasedc.gov.uk,-1.98036900000000,WS12 3EA,2013-10-02,fhrs_3_en-GB,3,,FHRS,10
327995,St Pauls Methodist Church,Lichfield Street,,Rugeley,Good Companions Group @ St Pauls Church,Other catering premises,7841,0,,609291,5,,52.75845500000000,43902,287,environmentalhealth@cannockchasedc.gov.uk,Cannock Chase,http://www.cannockchasedc.gov.uk,-1.93384000000000,WS15 2EH,2013-10-22,fhrs_5_en-GB,5,,FHRS,0
327996,,,,,Good Nosh Catering,Other catering premises,7841,5,,387174,5,,,3887,287,environmentalhealth@cannockchasedc.gov.uk,Cannock Chase,http://www.cannockchasedc.gov.uk,,,2009-03-16,fhrs_5_en-GB,5,,FHRS,5
327997,South Staffordshire College,The Green,,Cannock,Gordon's Restaurant,Restaurant/Cafe/Canteen,1,5,,387567,0,,52.69036400000000,935,287,environmentalhealth@cannockchasedc.gov.uk,Cannock Chase,http://www.cannockchasedc.gov.uk,-2.03185400000000,WS11 1UE,2012-04-20,fhrs_5_en-GB,5,,FHRS,0
327998,Gorsemoor Road,Heath Hayes,,Cannock,Gorsemoor Primary School,School/college/university,7845,0,,387548,0,,52.69062800000000,888,287,environmentalhealth@cannockchasedc.gov.uk,Cannock Chase,http://www.cannockchasedc.gov.uk,-1.98829800000000,WS12 3TG,2013-05-09,fhrs_5_en-GB,5,,FHRS,5
327999,,,,,Grandma Mellors Bakery,Other catering premises,7841,0,,682039,0,,,47613,287,environmentalhealth@cannockchasedc.gov.uk,Cannock Chase,http://www.cannockchasedc.gov.uk,,,2014-06-19,fhrs_5_en-GB,5,,FHRS,0
328000,21 Blewitt Street,Green Heath,Hednesford,Cannock,Greenheath Progressive Working Mens Club,Pub/bar/nightclub,7843,0,,387075,5,,52.71206000000000,234,287,environmentalhealth@cannockchasedc.gov.uk,Cannock Chase,http://www.cannockchasedc.gov.uk,-2.00525600000000,WS12 4AR,2009-10-20,fhrs_5_en-GB,5,,FHRS,0
328001,12- 14 Market Place,,,Cannock,Greggs,Retailers - other,4613,0,,387538,0,,52.68970800000000,851,287,environmentalhealth@cannockchasedc.gov.uk,Cannock Chase,http://www.cannockchasedc.gov.uk,-2.03109900000000,WS11 1BU,2013-04-16,fhrs_5_en-GB,5,,FHRS,0
328002,23 Lower Brook Street,,,Rugeley,Greggs,Retailers - other,4613,0,,387250,0,,52.75990300000000,475,287,environmentalhealth@cannockchasedc.gov.uk,Cannock Chase,http://www.cannockchasedc.gov.uk,-1.93555700000000,WS15 2BZ,2013-04-17,fhrs_5_en-GB,5,,FHRS,5
328003,7 Market Street,,,Rugeley,H K Cantonese,Restaurant/Cafe/Canteen,1,5,,542914,0,,52.76186200000000,41797,287,environmentalhealth@cannockchasedc.gov.uk,Cannock Chase,http://www.cannockchasedc.gov.uk,-1.93438300000000,WS15 2JH,2013-04-17,fhrs_5_en-GB,5,,FHRS,0
328004,2 Hagley Road,,,Rugeley,Hagley News,Retailers - other,4613,5,,387550,5,,52.76070700000000,890,287,environmentalhealth@cannockchasedc.gov.uk,Cannock Chase,http://www.cannockchasedc.gov.uk,-1.94345400000000,WS15 2AL,2012-12-05,fhrs_5_en-GB,5,,FHRS,0
328005,Burnthill Lane,,,Rugeley,Hagley Park Academy,School/college/university,7845,0,,387096,0,,52.75410900000000,276,287,environmentalhealth@cannockchasedc.gov.uk,Cannock Chase,http://www.cannockchasedc.gov.uk,-1.94340300000000,WS15 2HZ,2013-10-09,fhrs_5_en-GB,5,,FHRS,5
328006,,,,,Halls Catering,Other catering premises,7841,0,,387191,5,,,4123,287,environmentalhealth@cannockchasedc.gov.uk,Cannock Chase,http://www.cannockchasedc.gov.uk,,,2012-05-23,fhrs_5_en-GB,5,,FHRS,0
328007,1 Bridge Court,Orbital Plaza,,Cannock,Happy Tots Nursery,Hospitals/Childcare/Caring Premises,5,5,,387287,0,,52.67390500000000,5153,287,environmentalhealth@cannockchasedc.gov.uk,Cannock Chase,http://www.cannockchasedc.gov.uk,-2.02589700000000,WS11 0DQ,2013-04-12,fhrs_5_en-GB,5,,FHRS,0
328008,534 Littleworth Road,,,Cannock,Happy's,Retailers - other,4613,5,,387036,0,,52.70702200000000,16866,287,environmentalhealth@cannockchasedc.gov.uk,Cannock Chase,http://www.cannockchasedc.gov.uk,-1.97077000000000,WS12 1JD,2013-07-29,fhrs_5_en-GB,5,,FHRS,0
328009,,,,,Harry's Mom's Cake Kitchen,Other catering premises,7841,0,,387041,0,,,16886,287,environmentalhealth@cannockchasedc.gov.uk,Cannock Chase,http://www.cannockchasedc.gov.uk,,,2012-04-18,fhrs_5_en-GB,5,,FHRS,0
328010,,,,,Hayley's Bespoke Bakery,Other catering premises,7841,5,,447083,5,,,38370,287,environmentalhealth@cannockchasedc.gov.uk,Cannock Chase,http://www.cannockchasedc.gov.uk,,,2012-09-13,fhrs_5_en-GB,5,,FHRS,0
328011,Hazelslade Inn,Rugeley Road,Hazelslade,Cannock,Hazel Slade Inn,Pub/bar/nightclub,7843,10,,387441,10,,52.71390800000000,667,287,environmentalhealth@cannockchasedc.gov.uk,Cannock Chase,http://www.cannockchasedc.gov.uk,-1.96986300000000,WS12 0PQ,2013-06-20,fhrs_3_en-GB,3,,FHRS,5
328012,Cannock Wood Street,Hazelslade,,Cannock,Hazel Slade Primary School,School/college/university,7845,0,,387111,0,,52.71218100000000,299,287,environmentalhealth@cannockchasedc.gov.uk,Cannock Chase,http://www.cannockchasedc.gov.uk,-1.96665200000000,WS12 0PN,2011-11-21,fhrs_5_en-GB,5,,FHRS,5
328013,179 Hednesford Road,Heath Hayes,,Cannock,Heath Hayes Constitutional Club,Pub/bar/nightclub,7843,5,,387146,5,,52.69027700000000,356,287,environmentalhealth@cannockchasedc.gov.uk,Cannock Chase,http://www.cannockchasedc.gov.uk,-1.98371200000000,WS12 3HN,2011-11-21,fhrs_5_en-GB,5,,FHRS,5
328014,Heath Hayes Primary School,Wimblebury Road,Heath Hayes,Cannock,Heath Hayes Early Learners ,Hospitals/Childcare/Caring Premises,5,5,,387520,0,,52.69383600000000,772,287,environmentalhealth@cannockchasedc.gov.uk,Cannock Chase,http://www.cannockchasedc.gov.uk,-1.97758500000000,WS12 2EP,2012-02-23,fhrs_5_en-GB,5,,FHRS,0
328015,Newlands Lane,,,Cannock,Heath Hayes Fc Tuck Shop,Other catering premises,7841,5,,387134,5,,52.68659100000000,3345,287,environmentalhealth@cannockchasedc.gov.uk,Cannock Chase,http://www.cannockchasedc.gov.uk,-1.98313600000000,WS12 3HH,2008-10-01,fhrs_4_en-GB,4,,FHRS,10
328016,153 Hednesford Road,Heath Hayes,,Cannock,Heath Hayes Fish Bar,Takeaway/sandwich shop,7844,0,,387019,5,,52.69027700000000,141,287,environmentalhealth@cannockchasedc.gov.uk,Cannock Chase,http://www.cannockchasedc.gov.uk,-1.98371200000000,WS12 3HN,2014-09-09,fhrs_5_en-GB,5,,FHRS,5
328017,Wimblebury Road,Heath Hayes,,Cannock,Heath Hayes Primary School,School/college/university,7845,5,,387519,0,,52.69383600000000,771,287,environmentalhealth@cannockchasedc.gov.uk,Cannock Chase,http://www.cannockchasedc.gov.uk,-1.97758500000000,WS12 2EP,2010-03-05,fhrs_5_en-GB,5,,FHRS,0
328018,102 Hednesford Road,Heath Hayes,,Cannock,Heath Hayes Spice,Takeaway/sandwich shop,7844,0,,479400,0,,52.68881100000000,39866,287,environmentalhealth@cannockchasedc.gov.uk,Cannock Chase,http://www.cannockchasedc.gov.uk,-1.98036900000000,WS12 3EA,2015-01-12,fhrs_5_en-GB,5,,FHRS,0
328019,Hednesford Bingo Club,Chase Gateway,Victoria Street,Cannock,Hednesford Bingo Club,Pub/bar/nightclub,7843,5,,433472,5,,,37786,287,environmentalhealth@cannockchasedc.gov.uk,Cannock Chase,http://www.cannockchasedc.gov.uk,,WS12 1DU,2013-10-14,fhrs_5_en-GB,5,,FHRS,5
328020,Anglesey Street ,Hednesford,,Cannock,Hednesford Ex-service Mens Club,Pub/bar/nightclub,7843,10,,387158,0,,52.70873400000000,374,287,environmentalhealth@cannockchasedc.gov.uk,Cannock Chase,http://www.cannockchasedc.gov.uk,-2.00194000000000,WS12 1AB,2010-07-05,fhrs_4_en-GB,4,,FHRS,5
328021,17 Station Road,Hednesford,,Cannock,Hednesford News,Retailers - other,4613,20,,387478,0,,52.71239300000000,695,287,environmentalhealth@cannockchasedc.gov.uk,Cannock Chase,http://www.cannockchasedc.gov.uk,-2.00062300000000,WS12 4DH,2013-05-07,fhrs_1_en-GB,1,,FHRS,20
328022,15 Station Road,,Hednesford,Cannock,Hednesford News Trading As Alax's Convenience Store,Retailers - other,4613,5,,387367,5,,52.71239300000000,5983,287,environmentalhealth@cannockchasedc.gov.uk,Cannock Chase,http://www.cannockchasedc.gov.uk,-2.00062300000000,WS12 4DH,2015-01-06,fhrs_5_en-GB,5,,FHRS,0
328023,Hednesford Raceway,Reservoir Road,Littleworth,Cannock,Hednesford Raceway (Cafes),Other catering premises,7841,0,,387563,0,,52.70426600000000,924,287,environmentalhealth@cannockchasedc.gov.uk,Cannock Chase,http://www.cannockchasedc.gov.uk,-1.99041100000000,WS12 1BE,2012-10-14,fhrs_5_en-GB,5,,FHRS,5
328024,Keys Park,Hill Street,Hednesford,Cannock,Hednesford Town Football  Club,Pub/bar/nightclub,7843,0,,387190,0,,52.69736200000000,408,287,environmentalhealth@cannockchasedc.gov.uk,Cannock Chase,http://www.cannockchasedc.gov.uk,-1.98958400000000,WS12 2DZ,2014-08-12,fhrs_5_en-GB,5,,FHRS,5
328025,Stanley Road,,West Hill,Cannock,Hednesford Valley High School,School/college/university,7845,0,,387474,0,,52.71021700000000,691,287,environmentalhealth@cannockchasedc.gov.uk,Cannock Chase,http://www.cannockchasedc.gov.uk,-2.01308600000000,WS12 4JS,2012-03-22,fhrs_5_en-GB,5,,FHRS,5
328026,25a Horse Fair,,,Rugeley,Henry's Fish Bar,Takeaway/sandwich shop,7844,5,,386999,5,,52.75759300000000,1129,287,environmentalhealth@cannockchasedc.gov.uk,Cannock Chase,http://www.cannockchasedc.gov.uk,-1.93504100000000,WS15 2EJ,2014-10-10,fhrs_5_en-GB,5,,FHRS,5
328027,138 Hill Street,Hednesford,,Cannock,Hill's Off Licence,Retailers - other,4613,10,,387551,10,,52.69587900000000,893,287,environmentalhealth@cannockchasedc.gov.uk,Cannock Chase,http://www.cannockchasedc.gov.uk,-1.99282500000000,WS12 2DR,2012-11-30,fhrs_4_en-GB,4,,FHRS,0
328028,,,,,Hillside Bed & Breakfast,Hotel/bed & breakfast/guest house,7842,5,,387227,5,,,452,287,environmentalhealth@cannockchasedc.gov.uk,Cannock Chase,http://www.cannockchasedc.gov.uk,,,2010-02-22,fhrs_5_en-GB,5,,FHRS,5
328029,221 Hill Street,,Hednesford,Cannock,Hillview Farm Products Ltd,Mobile caterer,7846,0,,387086,0,,,2642,287,environmentalhealth@cannockchasedc.gov.uk,Cannock Chase,http://www.cannockchasedc.gov.uk,,,2012-07-27,fhrs_5_en-GB,5,,FHRS,5
328030,Armitage Lane,Brereton ,,Rugeley,Hob Hill CE/Methodist (VC) Primary School,School/college/university,7845,0,,387164,0,,52.74365700000000,382,287,environmentalhealth@cannockchasedc.gov.uk,Cannock Chase,http://www.cannockchasedc.gov.uk,-1.91669400000000,WS15 1ED,2011-10-14,fhrs_5_en-GB,5,,FHRS,5
328031,,,,,Hobby Cakes,Other catering premises,7841,0,,691604,0,,,47969,287,environmentalhealth@cannockchasedc.gov.uk,Cannock Chase,http://www.cannockchasedc.gov.uk,,,2014-08-12,fhrs_5_en-GB,5,,FHRS,0
328032,"Unit 21, Cannock Shopping Centre",Market Hall Street,,Cannock,Holland & Barrett,Retailers - other,4613,0,,387334,0,,52.69027400000000,561,287,environmentalhealth@cannockchasedc.gov.uk,Cannock Chase,http://www.cannockchasedc.gov.uk,-2.03052200000000,WS11 1WS,2009-04-07,fhrs_5_en-GB,5,,FHRS,0
328033,Unit 1-4 Rugeley Indoor Market,Elmore Lane,,Rugeley,Hollys Cafe,Restaurant/Cafe/Canteen,1,10,,673069,10,,52.76037100000000,47161,287,environmentalhealth@cannockchasedc.gov.uk,Cannock Chase,http://www.cannockchasedc.gov.uk,-1.93671200000000,WS15 2DJ,2014-12-04,fhrs_4_en-GB,4,,FHRS,0
328034,45 Mill Street,Rumer Hill,,Cannock,Hollywood Kebab House,Takeaway/sandwich shop,7844,5,,387409,5,,52.68812700000000,642,287,environmentalhealth@cannockchasedc.gov.uk,Cannock Chase,http://www.cannockchasedc.gov.uk,-2.02563900000000,WS11 0DR,2013-07-29,fhrs_5_en-GB,5,,FHRS,5
328035,Cannock Outdoor Market,Market Square,,Cannock,Hollywood Meats,Mobile caterer,7846,0,,668311,0,,,47005,287,environmentalhealth@cannockchasedc.gov.uk,Cannock Chase,http://www.cannockchasedc.gov.uk,,,2014-05-16,fhrs_5_en-GB,5,,FHRS,0
328036,Pointland Park,Wellington Drive,,Rugeley,Home Bargains,Retailers - other,4613,0,,387514,0,,52.75791600000000,759,287,environmentalhealth@cannockchasedc.gov.uk,Cannock Chase,http://www.cannockchasedc.gov.uk,-1.93453700000000,WS15 2JX,2009-07-16,fhrs_5_en-GB,5,,FHRS,0
328037,Unit 1-3 Cedars Business Centre,Avon Road,,Cannock,Home Xtra,Retailers - other,4613,5,,387070,5,,52.68041000000000,2143,287,environmentalhealth@cannockchasedc.gov.uk,Cannock Chase,http://www.cannockchasedc.gov.uk,-2.03936100000000,WS11 1QJ,2010-08-18,fhrs_5_en-GB,5,,FHRS,0
328038,177 Hednesford Road,Heath Hayes,,Cannock,Homestead Care Ltd,Hospitals/Childcare/Caring Premises,5,0,,428819,0,,52.69027700000000,37534,287,environmentalhealth@cannockchasedc.gov.uk,Cannock Chase,http://www.cannockchasedc.gov.uk,-1.98371200000000,WS12 3HN,2013-09-13,fhrs_5_en-GB,5,,FHRS,0
328039,,,,,Honey N Love Bakery,Other catering premises,7841,5,,387345,0,,,5732,287,environmentalhealth@cannockchasedc.gov.uk,Cannock Chase,http://www.cannockchasedc.gov.uk,,,2010-11-08,fhrs_5_en-GB,5,,FHRS,0
328040,155 Walsall Road,Norton Canes,,Cannock,Honeybuns Nursery,Hospitals/Childcare/Caring Premises,5,5,,387507,0,,52.67173000000000,744,287,environmentalhealth@cannockchasedc.gov.uk,Cannock Chase,http://www.cannockchasedc.gov.uk,-1.97352900000000,WS11 9QX,2013-10-31,fhrs_5_en-GB,5,,FHRS,5
328041,97 Fernwood Drive,,,Rugeley,Hong Kong Chinese Food Takeaway,Takeaway/sandwich shop,7844,0,,387009,0,,52.76587000000000,129,287,environmentalhealth@cannockchasedc.gov.uk,Cannock Chase,http://www.cannockchasedc.gov.uk,-1.94856000000000,WS15 2PY,2014-01-31,fhrs_5_en-GB,5,,FHRS,0
328042,27 Redbrook Lane,,,Rugeley,Hope & Anchor Inn,Pub/bar/nightclub,7843,5,,387383,5,,52.74795100000000,616,287,environmentalhealth@cannockchasedc.gov.uk,Cannock Chase,http://www.cannockchasedc.gov.uk,-1.92598900000000,WS15 1AB,2012-01-26,fhrs_4_en-GB,4,,FHRS,10
328043,Wharf Road,,,Rugeley,Horn End Nursery School,School/college/university,7845,5,,387517,10,,52.75539900000000,764,287,environmentalhealth@cannockchasedc.gov.uk,Cannock Chase,http://www.cannockchasedc.gov.uk,-1.93393300000000,WS15 1BL,2013-10-25,fhrs_4_en-GB,4,,FHRS,5
328044,The Horns,61 Slitting Mill Road,Slitting Mill,Rugeley,Horns Inn,Pub/bar/nightclub,7843,0,,387465,0,,52.75256900000000,679,287,environmentalhealth@cannockchasedc.gov.uk,Cannock Chase,http://www.cannockchasedc.gov.uk,-1.95973200000000,WS15 2UW,2015-02-13,fhrs_5_en-GB,5,,FHRS,0
328045,5 Devon Court,Bideford Way,,Cannock,Horobins,Retailers - other,4613,0,,387073,5,,52.68700600000000,228,287,environmentalhealth@cannockchasedc.gov.uk,Cannock Chase,http://www.cannockchasedc.gov.uk,-2.04555000000000,WS11 1NP,2014-06-05,fhrs_5_en-GB,5,,FHRS,5
328046,Horse Fair,,,Rugeley,Horse Fair Care Home,Hospitals/Childcare/Caring Premises,5,0,,387336,0,,52.75756600000000,5631,287,environmentalhealth@cannockchasedc.gov.uk,Cannock Chase,http://www.cannockchasedc.gov.uk,-1.93587100000000,WS15 2EL,2013-10-30,fhrs_5_en-GB,5,,FHRS,5
328047,,,,,House Of Coffee,Mobile caterer,7846,5,,387403,0,,,6324,287,environmentalhealth@cannockchasedc.gov.uk,Cannock Chase,http://www.cannockchasedc.gov.uk,,,2011-07-05,fhrs_5_en-GB,5,,FHRS,0
328048,The Chancel County Infants School,Wolseley Road,,Rugeley,Hummingbirds,School/college/university,7845,5,,387000,0,,52.76604400000000,1130,287,environmentalhealth@cannockchasedc.gov.uk,Cannock Chase,http://www.cannockchasedc.gov.uk,-1.93732600000000,WS15 2EW,2013-03-27,fhrs_5_en-GB,5,,FHRS,0
328049,Jubilee Inn,Pye Green Road,,Cannock,Hungry Monkey,Mobile caterer,7846,5,,511459,0,,,40773,287,environmentalhealth@cannockchasedc.gov.uk,Cannock Chase,http://www.cannockchasedc.gov.uk,,,2013-02-26,fhrs_5_en-GB,5,,FHRS,5
328050,"Unit 1-4, Lower Keys Business Park",Keys Park Road,Hednesford,Cannock,I Care,Other catering premises,7841,0,,387216,0,,52.69969000000000,438,287,environmentalhealth@cannockchasedc.gov.uk,Cannock Chase,http://www.cannockchasedc.gov.uk,-1.99233600000000,WS12 2FS,2013-11-07,fhrs_5_en-GB,5,,FHRS,0
328051,3b Market Place,,,Cannock,Iceland Frozen Foods,Retailers - supermarkets/hypermarkets,7840,0,,386998,0,,52.68844900000000,1111,287,environmentalhealth@cannockchasedc.gov.uk,Cannock Chase,http://www.cannockchasedc.gov.uk,-2.03041800000000,WS11 1BS,2010-08-17,fhrs_5_en-GB,5,,FHRS,5
328052,Market Square ,,,Rugeley,Iceland Frozen Foods,Retailers - supermarkets/hypermarkets,7840,5,,387257,5,,52.76093700000000,481,287,environmentalhealth@cannockchasedc.gov.uk,Cannock Chase,http://www.cannockchasedc.gov.uk,-1.93496200000000,WS15 2BS,2010-10-22,fhrs_5_en-GB,5,,FHRS,0
328053,44 Market Street ,Hednesford ,,Cannock,India Red,Restaurant/Cafe/Canteen,1,5,,387267,0,,52.70929100000000,495,287,environmentalhealth@cannockchasedc.gov.uk,Cannock Chase,http://www.cannockchasedc.gov.uk,-1.99908300000000,WS12 1AG,2012-04-18,fhrs_5_en-GB,5,,FHRS,0
328054,238 - 240 Cannock Road,Chadsmoor,,Cannock,Indulge,Restaurant/Cafe/Canteen,1,10,,430302,0,,52.70294400000000,37682,287,environmentalhealth@cannockchasedc.gov.uk,Cannock Chase,http://www.cannockchasedc.gov.uk,-2.01465200000000,WS11 5DB,2014-09-18,fhrs_4_en-GB,4,,FHRS,0
328055,Keys Park Road,,,Littleworth,J J Catering & Food4 U,Mobile caterer,7846,0,,387043,0,,52.70068900000000,16958,287,environmentalhealth@cannockchasedc.gov.uk,Cannock Chase,http://www.cannockchasedc.gov.uk,-1.98238500000000,,2011-11-21,fhrs_4_en-GB,4,,FHRS,10
328056,"Stall 13, Cannock Indoor Market",Market Hall Street,,Cannock,J L Jenkins,Retailers - other,4613,0,,387537,0,,52.68949200000000,850,287,environmentalhealth@cannockchasedc.gov.uk,Cannock Chase,http://www.cannockchasedc.gov.uk,-2.03012200000000,WS11 1EB,2012-03-02,fhrs_5_en-GB,5,,FHRS,0
328057,5 Wolseley Road,,,Rugeley,J S Pendlebury & Son,Retailers - other,4613,0,,387525,0,,52.76368800000000,778,287,environmentalhealth@cannockchasedc.gov.uk,Cannock Chase,http://www.cannockchasedc.gov.uk,-1.93620300000000,WS15 2QH,2009-07-13,fhrs_5_en-GB,5,,FHRS,0
328058,,,,,Jack Pot,Mobile caterer,7846,5,,715602,0,,,49121,287,environmentalhealth@cannockchasedc.gov.uk,Cannock Chase,http://www.cannockchasedc.gov.uk,,,2014-09-29,fhrs_5_en-GB,5,,FHRS,0
328059,85 Fernwood Drive,,,Rugeley,Jade City,Takeaway/sandwich shop,7844,10,,387256,10,,52.76587000000000,4794,287,environmentalhealth@cannockchasedc.gov.uk,Cannock Chase,http://www.cannockchasedc.gov.uk,-1.94856000000000,WS15 2PY,2013-03-06,fhrs_3_en-GB,3,,FHRS,10
328060,151 Longford Road,,,Cannock,Jade Garden,Takeaway/sandwich shop,7844,0,,387245,5,,52.68027600000000,467,287,environmentalhealth@cannockchasedc.gov.uk,Cannock Chase,http://www.cannockchasedc.gov.uk,-2.03564800000000,WS11 0LG,2014-02-06,fhrs_5_en-GB,5,,FHRS,5
328061,"Unit 28, Market Street,",Hednesford,,Cannock,Jaipur Restaurant,Restaurant/Cafe/Canteen,1,10,,387312,10,,52.70911200000000,5344,287,environmentalhealth@cannockchasedc.gov.uk,Cannock Chase,http://www.cannockchasedc.gov.uk,-1.99970500000000,WS12 1AD,2013-07-25,fhrs_4_en-GB,4,,FHRS,0
328062,81 Old Penkridge Road,,,Cannock,Jammiegifts,Retailers - other,4613,5,,445994,0,,52.69416400000000,38266,287,environmentalhealth@cannockchasedc.gov.uk,Cannock Chase,http://www.cannockchasedc.gov.uk,-2.04057200000000,WS11 1HY,2012-09-03,fhrs_5_en-GB,5,,FHRS,0
328063,,,,,Jans Victorian Pantry,Mobile caterer,7846,0,,387496,0,,,723,287,environmentalhealth@cannockchasedc.gov.uk,Cannock Chase,http://www.cannockchasedc.gov.uk,,,2014-05-02,fhrs_5_en-GB,5,,FHRS,0
328064,125 Hednesford Road,Heath Hayes,,Cannock,Jasmine Tandoori,Restaurant/Cafe/Canteen,1,20,,387151,10,,52.68880300000000,363,287,environmentalhealth@cannockchasedc.gov.uk,Cannock Chase,http://www.cannockchasedc.gov.uk,-1.98103500000000,WS12 3HL,2013-11-07,fhrs_1_en-GB,1,,FHRS,10
328065,Jcb Cab Systems Ltd.,Power Station Road,,Rugeley,Jcb Cab Systems Ltd (Staff Restaurant),Restaurant/Cafe/Canteen,1,0,,387311,0,,52.76284800000000,534,287,environmentalhealth@cannockchasedc.gov.uk,Cannock Chase,http://www.cannockchasedc.gov.uk,-1.92817200000000,WS15 2WA,2013-07-18,fhrs_5_en-GB,5,,FHRS,0
328066,Hussey Road,Norton Canes,,Cannock,Jerome Primary School,School/college/university,7845,0,,387198,5,,52.67209900000000,425,287,environmentalhealth@cannockchasedc.gov.uk,Cannock Chase,http://www.cannockchasedc.gov.uk,-1.97670900000000,WS11 9TP,2014-12-02,fhrs_5_en-GB,5,,FHRS,5
328067,13 Market Hall Precinct,Market Hall Street,,Cannock,Jessicas,Takeaway/sandwich shop,7844,0,,691123,0,,52.68979800000000,47881,287,environmentalhealth@cannockchasedc.gov.uk,Cannock Chase,http://www.cannockchasedc.gov.uk,-2.02925000000000,WS11 1EE,2014-08-11,fhrs_5_en-GB,5,,FHRS,0
328068,1a & 1b Market Hall Street,,,Cannock,Jessicas Fresh Foods,Takeaway/sandwich shop,7844,0,,387558,0,,52.68949200000000,913,287,environmentalhealth@cannockchasedc.gov.uk,Cannock Chase,http://www.cannockchasedc.gov.uk,-2.03012200000000,WS11 1EB,2014-09-12,fhrs_5_en-GB,5,,FHRS,5
328069,Western Springs Road,,,Rugeley,Jet Rugeley,Retailers - other,4613,0,,387568,0,,52.75876300000000,936,287,environmentalhealth@cannockchasedc.gov.uk,Cannock Chase,http://www.cannockchasedc.gov.uk,-1.93804800000000,WS15 2AS,2013-10-09,fhrs_5_en-GB,5,,FHRS,0
328070,,,,,Jj's Cakery,Other catering premises,7841,5,,505447,5,,,40521,287,environmentalhealth@cannockchasedc.gov.uk,Cannock Chase,http://www.cannockchasedc.gov.uk,,,2013-01-31,fhrs_5_en-GB,5,,FHRS,5
328071,,,,,Joes Ices,Mobile caterer,7846,5,,387128,0,,,328,287,environmentalhealth@cannockchasedc.gov.uk,Cannock Chase,http://www.cannockchasedc.gov.uk,,,2012-05-28,fhrs_5_en-GB,5,,FHRS,0
328072,,,,,Joes Ices ,Mobile caterer,7846,5,,387133,0,,,334,287,environmentalhealth@cannockchasedc.gov.uk,Cannock Chase,http://www.cannockchasedc.gov.uk,,,2011-08-05,fhrs_5_en-GB,5,,FHRS,0
328073,Crabtree Way,Etchinghill,,Rugeley,John Bamford Primary School,School/college/university,7845,0,,387125,0,,52.76447800000000,327,287,environmentalhealth@cannockchasedc.gov.uk,Cannock Chase,http://www.cannockchasedc.gov.uk,-1.95337800000000,WS15 2PA,2012-04-19,fhrs_5_en-GB,5,,FHRS,0
328074,Jolly Collier,222 Huntington Terrace Road,,Cannock,Jolly Collier,Pub/bar/nightclub,7843,0,,550821,0,,52.70645800000000,42061,287,environmentalhealth@cannockchasedc.gov.uk,Cannock Chase,http://www.cannockchasedc.gov.uk,-2.01866400000000,WS11 5HW,2014-09-03,fhrs_5_en-GB,5,,FHRS,0
328075,1 Hawks Green District Centre,Heath Way,Heath Hayes,Cannock,Jolly Friar,Takeaway/sandwich shop,7844,0,,387142,0,,52.68482000000000,353,287,environmentalhealth@cannockchasedc.gov.uk,Cannock Chase,http://www.cannockchasedc.gov.uk,-2.02387200000000,WS11 7XP,2014-09-01,fhrs_5_en-GB,5,,FHRS,0
328076,95 Fernwood Drive,,,Rugeley,Jolly Fryer,Takeaway/sandwich shop,7844,0,,387008,0,,52.76587000000000,128,287,environmentalhealth@cannockchasedc.gov.uk,Cannock Chase,http://www.cannockchasedc.gov.uk,-1.94856000000000,WS15 2PY,2013-02-22,fhrs_5_en-GB,5,,FHRS,0
328077,2 Uxbridge Street,Littleworth,,Cannock,Jumbo House,Takeaway/sandwich shop,7844,0,,387493,5,,52.70573100000000,719,287,environmentalhealth@cannockchasedc.gov.uk,Cannock Chase,http://www.cannockchasedc.gov.uk,-1.99755900000000,WS12 1DB,2012-04-11,fhrs_5_en-GB,5,,FHRS,0
328078,,,,,Just Cup Cakes,Other catering premises,7841,5,,486749,0,,,40126,287,environmentalhealth@cannockchasedc.gov.uk,Cannock Chase,http://www.cannockchasedc.gov.uk,,,2012-12-19,fhrs_5_en-GB,5,,FHRS,5
328079,,,,,Just Lush,Other catering premises,7841,0,,691603,0,,,47965,287,environmentalhealth@cannockchasedc.gov.uk,Cannock Chase,http://www.cannockchasedc.gov.uk,,,2014-07-30,fhrs_5_en-GB,5,,FHRS,5
328080,1-3 Wolverhampton Road,,,Cannock,Kao San Thai Restaurant,Restaurant/Cafe/Canteen,1,10,,387316,10,,52.68754100000000,5365,287,environmentalhealth@cannockchasedc.gov.uk,Cannock Chase,http://www.cannockchasedc.gov.uk,-2.03155600000000,WS11 1AP,2013-11-06,fhrs_3_en-GB,3,,FHRS,5
328081,Unit 49,Unit 49 Cannock Shopping Centre,Market Hall Street,Cannock,Katie's Candies,Other catering premises,7841,0,,722524,0,,52.68949200000000,49773,287,environmentalhealth@cannockchasedc.gov.uk,Cannock Chase,http://www.cannockchasedc.gov.uk,-2.03012200000000,WS11 1EB,2014-12-01,fhrs_5_en-GB,5,,FHRS,0
328082,Albion Works,Wolverhampton Road,,Cannock,Kays Kitchen ( Tallent Automotive Ltd),Restaurant/Cafe/Canteen,1,0,,418401,5,,52.68056200000000,37218,287,environmentalhealth@cannockchasedc.gov.uk,Cannock Chase,http://www.cannockchasedc.gov.uk,-2.04302900000000,WS11 1LY,2014-07-08,fhrs_5_en-GB,5,,FHRS,5
328083,Unit 8,Chasewood Business Park,Heath Hayes,Cannock,Kendras Tea Room,Restaurant/Cafe/Canteen,1,5,,387069,0,,52.68866800000000,2101,287,environmentalhealth@cannockchasedc.gov.uk,Cannock Chase,http://www.cannockchasedc.gov.uk,-1.98165600000000,WS12 3XR,2013-06-24,fhrs_5_en-GB,5,,FHRS,0
328084,East Cannock Road,Hednesford,,Cannock,Kfc,Restaurant/Cafe/Canteen,1,0,,499492,0,,52.69917800000000,40373,287,environmentalhealth@cannockchasedc.gov.uk,Cannock Chase,http://www.cannockchasedc.gov.uk,-2.00929400000000,WS12 1LU,2013-08-19,fhrs_5_en-GB,5,,FHRS,0
328085,Orbital Retail Centre,Voyager Drive,,Cannock,Kfc,Restaurant/Cafe/Canteen,1,0,,387498,0,,52.67495800000000,725,287,environmentalhealth@cannockchasedc.gov.uk,Cannock Chase,http://www.cannockchasedc.gov.uk,-2.01894600000000,WS11 8XP,2013-02-22,fhrs_5_en-GB,5,,FHRS,5
328086,"Unit 11&12, Lakeside Plaza",Walkmill Lane,,Cannock,Kidz2play,Restaurant/Cafe/Canteen,1,5,,387501,0,,52.67174600000000,732,287,environmentalhealth@cannockchasedc.gov.uk,Cannock Chase,http://www.cannockchasedc.gov.uk,-2.03398500000000,WS11 0XE,2012-01-24,fhrs_5_en-GB,5,,FHRS,0
328087,58 Brownhills Road,Norton Canes,,Cannock,Kings Wok,Takeaway/sandwich shop,7844,5,,387549,10,,52.67398500000000,89,287,environmentalhealth@cannockchasedc.gov.uk,Cannock Chase,http://www.cannockchasedc.gov.uk,-1.97028900000000,WS11 9SE,2013-10-17,fhrs_4_en-GB,4,,FHRS,0
328088,Kingsley Cottage,40 Uxbridge Street,Hednesford,Cannock,Kingsley Cottage Rest Home,Hospitals/Childcare/Caring Premises,5,5,,387494,5,,52.70573100000000,720,287,environmentalhealth@cannockchasedc.gov.uk,Cannock Chase,http://www.cannockchasedc.gov.uk,-1.99755900000000,WS12 1DB,2013-01-31,fhrs_5_en-GB,5,,FHRS,5
328089,Kings Avenue,Littleworth,,Cannock,Kingsmead Technology College,School/college/university,7845,0,,387217,0,,52.70228800000000,439,287,environmentalhealth@cannockchasedc.gov.uk,Cannock Chase,http://www.cannockchasedc.gov.uk,-1.99514700000000,WS12 1DH,2012-11-29,fhrs_5_en-GB,5,,FHRS,5
328090,Lanrick House,Wolseley Road,,Rugeley,Lanrick Cottage,Hospitals/Childcare/Caring Premises,5,10,,387523,0,,52.76602700000000,776,287,environmentalhealth@cannockchasedc.gov.uk,Cannock Chase,http://www.cannockchasedc.gov.uk,-1.93823000000000,WS15 2QJ,2009-07-09,fhrs_4_en-GB,4,,FHRS,0
328091,11 Wolseley Road,,,Rugeley,Lanrick House Residential Car Home,Hospitals/Childcare/Caring Premises,5,5,,387524,5,,52.76602700000000,777,287,environmentalhealth@cannockchasedc.gov.uk,Cannock Chase,http://www.cannockchasedc.gov.uk,-1.93823000000000,WS15 2QJ,2014-12-18,fhrs_5_en-GB,5,,FHRS,5
328092,Lea Hall Colliery Sports And Social Club,Sandy Lane,,Rugeley,Lea Hall Miners Welfare Centre,Pub/bar/nightclub,7843,5,,387447,5,,52.75662300000000,670,287,environmentalhealth@cannockchasedc.gov.uk,Cannock Chase,http://www.cannockchasedc.gov.uk,-1.93722100000000,WS15 2LB,2012-03-26,fhrs_5_en-GB,5,,FHRS,5
328093,Cannock Chase Hospital,Brunswick Road,,Cannock,League Of Hospital Friends Coffee Bar,Restaurant/Cafe/Canteen,1,5,,387265,0,,52.69325000000000,4911,287,environmentalhealth@cannockchasedc.gov.uk,Cannock Chase,http://www.cannockchasedc.gov.uk,-2.03062800000000,WS11 5XY,2012-08-07,fhrs_5_en-GB,5,,FHRS,0
328094,,,,,Leannes Cake House,Other catering premises,7841,0,,722209,0,,,49749,287,environmentalhealth@cannockchasedc.gov.uk,Cannock Chase,http://www.cannockchasedc.gov.uk,,,2014-11-24,fhrs_5_en-GB,5,,FHRS,0
328095,Bow Street,,,Rugeley,Libbys Bar,Pub/bar/nightclub,7843,0,,387077,0,,52.76069500000000,237,287,environmentalhealth@cannockchasedc.gov.uk,Cannock Chase,http://www.cannockchasedc.gov.uk,-1.93737800000000,WS15 2DG,2012-07-23,fhrs_5_en-GB,5,,FHRS,0
328096,58 School Road,Norton Canes,,Cannock,Lido Working Mens Club,Pub/bar/nightclub,7843,5,,387461,5,,52.67546800000000,673,287,environmentalhealth@cannockchasedc.gov.uk,Cannock Chase,http://www.cannockchasedc.gov.uk,-1.96577700000000,WS11 9SQ,2010-02-16,fhrs_5_en-GB,5,,FHRS,0
328097,,,,,Lifes Little Treats,Other catering premises,7841,0,,732902,0,,,50441,287,environmentalhealth@cannockchasedc.gov.uk,Cannock Chase,http://www.cannockchasedc.gov.uk,,,2015-01-28,fhrs_5_en-GB,5,,FHRS,0
328098,30 Stafford Road,,,Cannock,Liquorstop,Retailers - other,4613,20,,387288,0,,52.69250300000000,5154,287,environmentalhealth@cannockchasedc.gov.uk,Cannock Chase,http://www.cannockchasedc.gov.uk,-2.03201800000000,WS11 4AG,2013-05-01,fhrs_1_en-GB,1,,FHRS,5
328099,120 Watling Street,,,Cannock,Liquorstop Convenience Stores,Retailers - other,4613,20,,387396,0,,52.67359000000000,6259,287,environmentalhealth@cannockchasedc.gov.uk,Cannock Chase,http://www.cannockchasedc.gov.uk,-2.02727200000000,WS11 0BN,2013-04-12,fhrs_1_en-GB,1,,FHRS,5
328100,179 Hednesford Road,Heath Hayes,,Cannock,Lisa's Snacks @ Heath Hayes Constitutional Club,Other catering premises,7841,5,,387044,5,,52.69027700000000,16962,287,environmentalhealth@cannockchasedc.gov.uk,Cannock Chase,http://www.cannockchasedc.gov.uk,-1.98371200000000,WS12 3HN,2011-11-21,fhrs_5_en-GB,5,,FHRS,5
328101,Community Centre,John Street,Wimblebury,Cannock,Little Chimps Day Nursery,Hospitals/Childcare/Caring Premises,5,0,,387032,5,,52.70101000000000,16850,287,environmentalhealth@cannockchasedc.gov.uk,Cannock Chase,http://www.cannockchasedc.gov.uk,-1.97786300000000,WS12 2RJ,2014-03-21,fhrs_5_en-GB,5,,FHRS,0
328102,Girton Road,Rumer Hill,,Cannock,Little Friends Day Nursery,Hospitals/Childcare/Caring Premises,5,0,,387284,0,,52.68484600000000,5129,287,environmentalhealth@cannockchasedc.gov.uk,Cannock Chase,http://www.cannockchasedc.gov.uk,-2.02498600000000,WS11 0EB,2014-01-09,fhrs_5_en-GB,5,,FHRS,0
328103,Celcon House,Power Station Road,,Rugeley,Little Graduates Nursery,Hospitals/Childcare/Caring Premises,5,0,,387448,0,,52.76436000000000,6702,287,environmentalhealth@cannockchasedc.gov.uk,Cannock Chase,http://www.cannockchasedc.gov.uk,-1.93148900000000,WS15 2HS,2013-04-18,fhrs_5_en-GB,5,,FHRS,0
328104,,,,,Little Orchard,Hospitals/Childcare/Caring Premises,5,0,,638430,0,,,44965,287,environmentalhealth@cannockchasedc.gov.uk,Cannock Chase,http://www.cannockchasedc.gov.uk,,,2014-03-05,fhrs_5_en-GB,5,,FHRS,0
328105,37 North Street,,,Cannock,Little Pantry,Takeaway/sandwich shop,7844,0,,387286,0,,52.67575600000000,514,287,environmentalhealth@cannockchasedc.gov.uk,Cannock Chase,http://www.cannockchasedc.gov.uk,-2.03015700000000,WS11 0BB,2013-02-04,fhrs_5_en-GB,5,,FHRS,5
328106,Littleworth Road,,,Cannock,Little Potters Day Nursery,Hospitals/Childcare/Caring Premises,5,0,,468686,5,,52.70702200000000,39766,287,environmentalhealth@cannockchasedc.gov.uk,Cannock Chase,http://www.cannockchasedc.gov.uk,-1.97077000000000,WS12 1JD,2014-07-28,fhrs_5_en-GB,5,,FHRS,5
328107,,,,,Little Smurfs,Hospitals/Childcare/Caring Premises,5,5,,505444,0,,,40509,287,environmentalhealth@cannockchasedc.gov.uk,Cannock Chase,http://www.cannockchasedc.gov.uk,,,2013-01-31,fhrs_5_en-GB,5,,FHRS,0
328108,Western Springs Primary School,School Road,,Rugeley,Little Springs Early Years Academy,Hospitals/Childcare/Caring Premises,5,0,,387360,0,,52.76695700000000,5927,287,environmentalhealth@cannockchasedc.gov.uk,Cannock Chase,http://www.cannockchasedc.gov.uk,-1.94667700000000,WS15 2PD,2012-04-17,fhrs_5_en-GB,5,,FHRS,0
328109,Wimblebury Road,,Hednesford,Cannock,Littleworth Victory Working Mens Club,Pub/bar/nightclub,7843,5,,387521,0,,52.70469600000000,774,287,environmentalhealth@cannockchasedc.gov.uk,Cannock Chase,http://www.cannockchasedc.gov.uk,-1.97755000000000,WS12 2HU,2012-03-28,fhrs_5_en-GB,5,,FHRS,5
328110,,,,,Littlezoecakes,Other catering premises,7841,0,,722523,0,,,49769,287,environmentalhealth@cannockchasedc.gov.uk,Cannock Chase,http://www.cannockchasedc.gov.uk,,,2014-11-10,fhrs_5_en-GB,5,,FHRS,0
328111,,,,,Liz Fielding Cakes,Other catering premises,7841,5,,465196,0,,,39442,287,environmentalhealth@cannockchasedc.gov.uk,Cannock Chase,http://www.cannockchasedc.gov.uk,,,2012-11-06,fhrs_5_en-GB,5,,FHRS,0
328112,49B Horse Fair,,,Rugeley,Local Mini Market,Retailers - other,4613,5,,516553,5,,52.75759300000000,40929,287,environmentalhealth@cannockchasedc.gov.uk,Cannock Chase,http://www.cannockchasedc.gov.uk,-1.93504100000000,WS15 2EJ,2013-02-28,fhrs_4_en-GB,4,,FHRS,10
328113,Longford Farm House,Watling Street,,Cannock,Longford Farmhouse,Hotel/bed & breakfast/guest house,7842,10,,454429,5,,52.67993000000000,38705,287,environmentalhealth@cannockchasedc.gov.uk,Cannock Chase,http://www.cannockchasedc.gov.uk,-2.04927000000000,WS11 1SJ,2012-09-25,fhrs_4_en-GB,4,,FHRS,0
328114,155 Longford Road,,,Cannock,Longford Fish Bar,Takeaway/sandwich shop,7844,5,,387246,0,,52.68027600000000,468,287,environmentalhealth@cannockchasedc.gov.uk,Cannock Chase,http://www.cannockchasedc.gov.uk,-2.03564800000000,WS11 0LG,2013-03-26,fhrs_5_en-GB,5,,FHRS,5
328115,Longford House Beefeater,Watling Street,,Cannock,Longford House,Pub/bar/nightclub,7843,0,,387511,0,,52.67993000000000,751,287,environmentalhealth@cannockchasedc.gov.uk,Cannock Chase,http://www.cannockchasedc.gov.uk,-2.04927000000000,WS11 1SJ,2012-05-10,fhrs_5_en-GB,5,,FHRS,5
328116,Ascot Drive,,,Cannock,Longford Primary School,School/college/university,7845,0,,387167,0,,52.68439100000000,383,287,environmentalhealth@cannockchasedc.gov.uk,Cannock Chase,http://www.cannockchasedc.gov.uk,-2.04301800000000,WS11 1PD,2013-07-12,fhrs_5_en-GB,5,,FHRS,5
328117,,,,,Love Waffles,Mobile caterer,7846,0,,409247,0,,,36966,287,environmentalhealth@cannockchasedc.gov.uk,Cannock Chase,http://www.cannockchasedc.gov.uk,,,2012-04-16,fhrs_5_en-GB,5,,FHRS,0
328118,1 Shrewsbury Mall,Market Street,,Rugeley,Lowndes Fruits,Retailers - other,4613,0,,387280,0,,52.76083700000000,508,287,environmentalhealth@cannockchasedc.gov.uk,Cannock Chase,http://www.cannockchasedc.gov.uk,-1.93419200000000,WS15 2JT,2009-07-16,fhrs_5_en-GB,5,,FHRS,0
328119,204 Huntington Terrace Road,West Chadsmoor,,Cannock,Lychee Valley Cantonese Takeaway,Takeaway/sandwich shop,7844,5,,387196,5,,52.70503800000000,421,287,environmentalhealth@cannockchasedc.gov.uk,Cannock Chase,http://www.cannockchasedc.gov.uk,-2.01956600000000,WS11 5HJ,2014-12-12,fhrs_5_en-GB,5,,FHRS,5
328120,256 Cannock Road,Chadsmoor,,Cannock,Man Kwan Kitchen,Takeaway/sandwich shop,7844,0,,387107,0,,52.70294400000000,293,287,environmentalhealth@cannockchasedc.gov.uk,Cannock Chase,http://www.cannockchasedc.gov.uk,-2.01465200000000,WS11 5DB,2012-06-06,fhrs_5_en-GB,5,,FHRS,5
328121,Stall 7-9 Cannock Indoor Market,Market Hall Street,,Cannock,Market Cafe,Restaurant/Cafe/Canteen,1,5,,387539,5,,52.68949200000000,854,287,environmentalhealth@cannockchasedc.gov.uk,Cannock Chase,http://www.cannockchasedc.gov.uk,-2.03012200000000,WS11 1EB,2014-05-09,fhrs_5_en-GB,5,,FHRS,5
328122,30 Market Street,Hednesford,,Cannock,Market Street Fish Bar,Takeaway/sandwich shop,7844,0,,387264,0,,52.70807800000000,491,287,environmentalhealth@cannockchasedc.gov.uk,Cannock Chase,http://www.cannockchasedc.gov.uk,-1.99767700000000,WS12 1AF,2013-07-05,fhrs_4_en-GB,4,,FHRS,10
328123,Marlyn Rest Home,41 Cannock Road,Chadsmoor,Cannock,Marlyn House,Hospitals/Childcare/Caring Premises,5,5,,387102,0,,52.69785500000000,286,287,environmentalhealth@cannockchasedc.gov.uk,Cannock Chase,http://www.cannockchasedc.gov.uk,-2.02145700000000,WS11 5BU,2012-07-06,fhrs_5_en-GB,5,,FHRS,0
328124,25 Upper Brook Street,,,Rugeley,Marmaris,Restaurant/Cafe/Canteen,1,5,,387046,5,,52.75877100000000,16974,287,environmentalhealth@cannockchasedc.gov.uk,Cannock Chase,http://www.cannockchasedc.gov.uk,-1.93604700000000,WS15 2DP,2014-06-17,fhrs_5_en-GB,5,,FHRS,5
328125,The Towers,Power Station Road,,Rugeley,Mc Donalds,Restaurant/Cafe/Canteen,1,0,,479399,0,,52.75715600000000,39862,287,environmentalhealth@cannockchasedc.gov.uk,Cannock Chase,http://www.cannockchasedc.gov.uk,-1.92659600000000,WS15 1LX,2012-11-28,fhrs_5_en-GB,5,,FHRS,0
328126,Martin The Newsagent Ltd. ,8-10 Coppice Road,,Rugeley,Mccolls ,Retailers - other,4613,5,,387124,5,,52.75087200000000,326,287,environmentalhealth@cannockchasedc.gov.uk,Cannock Chase,http://www.cannockchasedc.gov.uk,-1.94085900000000,WS15 1LN,2011-06-17,fhrs_5_en-GB,5,,FHRS,5
328127,Linkway Retail Park,Watling Street,,Cannock,Mcdonalds,Restaurant/Cafe/Canteen,1,0,,387512,0,,52.67813300000000,752,287,environmentalhealth@cannockchasedc.gov.uk,Cannock Chase,http://www.cannockchasedc.gov.uk,-2.04768600000000,WS11 1TD,2013-10-17,fhrs_5_en-GB,5,,FHRS,0
328128,Mcdonalds Restaurants Ltd.,Hemlock Way,Hawks Green,Cannock,Mcdonalds,Restaurant/Cafe/Canteen,1,0,,387059,0,,52.69435900000000,180,287,environmentalhealth@cannockchasedc.gov.uk,Cannock Chase,http://www.cannockchasedc.gov.uk,-2.00833100000000,WS11 7GF,2013-10-16,fhrs_5_en-GB,5,,FHRS,0
328129,Mcdonalds Restaurants Ltd.,Church Street,,Cannock,Mcdonalds,Restaurant/Cafe/Canteen,1,0,,386991,0,,52.68947500000000,103,287,environmentalhealth@cannockchasedc.gov.uk,Cannock Chase,http://www.cannockchasedc.gov.uk,-2.02583200000000,WS11 1DH,2013-06-14,fhrs_5_en-GB,5,,FHRS,0
328130,Indoor Market,Elmore Lane,,Rugeley,Meat To Please You,Retailers - other,4613,0,,387006,0,,52.76037100000000,126,287,environmentalhealth@cannockchasedc.gov.uk,Cannock Chase,http://www.cannockchasedc.gov.uk,-1.93671200000000,WS15 2DJ,2013-12-19,fhrs_5_en-GB,5,,FHRS,0
328131,5 Market Hall Precinct,Market Hall Street,,Cannock,Melvyn's Butchers,Retailers - other,4613,5,,387482,5,,52.68979800000000,7001,287,environmentalhealth@cannockchasedc.gov.uk,Cannock Chase,http://www.cannockchasedc.gov.uk,-2.02925000000000,WS11 1EE,2014-05-15,fhrs_5_en-GB,5,,FHRS,5
328132,96 Hednesford Road,Heath Hayes,,Cannock,Melvyn's Butchers,Retailers - other,4613,10,,387147,0,,52.68881100000000,359,287,environmentalhealth@cannockchasedc.gov.uk,Cannock Chase,http://www.cannockchasedc.gov.uk,-1.98036900000000,WS12 3EA,2014-03-10,fhrs_4_en-GB,4,,FHRS,0
328133,,,,,Michelle Bradley,Hospitals/Childcare/Caring Premises,5,0,,387154,0,,,3674,287,environmentalhealth@cannockchasedc.gov.uk,Cannock Chase,http://www.cannockchasedc.gov.uk,,,2013-09-04,fhrs_5_en-GB,5,,FHRS,0
328134,Phoenix Road,Hawks Green,,Cannock,Mick's Munchies,Mobile caterer,7846,10,,387050,0,,52.69562658004150,16990,287,environmentalhealth@cannockchasedc.gov.uk,Cannock Chase,http://www.cannockchasedc.gov.uk,-2.01158031566078,,2012-03-06,fhrs_4_en-GB,4,,FHRS,5
328135,Queensway,,,Rugeley,Midlands Co Operative,Farmers/growers,7838,0,,387444,5,,52.75172500000000,6691,287,environmentalhealth@cannockchasedc.gov.uk,Cannock Chase,http://www.cannockchasedc.gov.uk,-1.93955400000000,WS15 1NN,2014-08-15,fhrs_5_en-GB,5,,FHRS,0
328136,Springfields Road,,,Rugeley,Midlands Co-operative ,Retailers - other,4613,5,,387467,0,,52.76990400000000,681,287,environmentalhealth@cannockchasedc.gov.uk,Cannock Chase,http://www.cannockchasedc.gov.uk,-1.94502800000000,WS15 2NH,2010-01-08,fhrs_5_en-GB,5,,FHRS,0
328137,Mill Farm,Lichfield Road,,Cannock,Mill Farm Crown Carvery,Restaurant/Cafe/Canteen,1,0,,387221,0,,52.68689700000000,443,287,environmentalhealth@cannockchasedc.gov.uk,Cannock Chase,http://www.cannockchasedc.gov.uk,-2.01767900000000,WS11 8EE,2013-07-29,fhrs_5_en-GB,5,,FHRS,5
328138,34 North Street,,,Cannock,Mims Cafe And Coffe Shop,Restaurant/Cafe/Canteen,1,5,,693465,5,,52.67573800000000,48013,287,environmentalhealth@cannockchasedc.gov.uk,Cannock Chase,http://www.cannockchasedc.gov.uk,-2.02950700000000,WS11 0BA,2014-08-21,fhrs_5_en-GB,5,,FHRS,0
328139,44 Main Road,Brereton,,Rugeley,Miners Arms ,Pub/bar/nightclub,7843,10,,387323,10,,52.74723000000000,548,287,environmentalhealth@cannockchasedc.gov.uk,Cannock Chase,http://www.cannockchasedc.gov.uk,-1.92439100000000,WS15 1DU,2010-01-19,fhrs_3_en-GB,3,,FHRS,5
328140,9-11 Market Place,,,Cannock,Missoula,Pub/bar/nightclub,7843,0,,387449,5,,52.68844900000000,6703,287,environmentalhealth@cannockchasedc.gov.uk,Cannock Chase,http://www.cannockchasedc.gov.uk,-2.03041800000000,WS11 1BS,2013-10-16,fhrs_5_en-GB,5,,FHRS,5
328141,Moorhill County Primary School,Moorland Road,West Chadsmoor,Cannock,Moorhill Infants School,School/college/university,7845,0,,387414,0,,52.70780500000000,645,287,environmentalhealth@cannockchasedc.gov.uk,Cannock Chase,http://www.cannockchasedc.gov.uk,-2.02819600000000,WS11 4NX,2013-06-07,fhrs_5_en-GB,5,,FHRS,5
328142,Pye Green Road,,,Cannock,Moorhill Junior School,School/college/university,7845,0,,387369,0,,52.70634000000000,599,287,environmentalhealth@cannockchasedc.gov.uk,Cannock Chase,http://www.cannockchasedc.gov.uk,-2.02684900000000,WS11 5RN,2013-10-21,fhrs_5_en-GB,5,,FHRS,5
328143,Moorhill Junior School,Pye Green Road,,Cannock,Moorhill Pre School,School/college/university,7845,5,,387373,5,,52.68482000000000,602,287,environmentalhealth@cannockchasedc.gov.uk,Cannock Chase,http://www.cannockchasedc.gov.uk,-2.02387200000000,WS11 4RN,2014-11-13,fhrs_5_en-GB,5,,FHRS,5
328144,Mill Street,Rumer Hill,,Cannock,Morrison,Retailers - supermarkets/hypermarkets,7840,0,,387404,0,,52.68812700000000,636,287,environmentalhealth@cannockchasedc.gov.uk,Cannock Chase,http://www.cannockchasedc.gov.uk,-2.02563900000000,WS11 0DR,2013-03-27,fhrs_5_en-GB,5,,FHRS,0
328145,Wm Morrison Supermarkets Plc,Market Street,,Rugeley,Morrison,Retailers - supermarkets/hypermarkets,7840,0,,387279,0,,52.76174500000000,507,287,environmentalhealth@cannockchasedc.gov.uk,Cannock Chase,http://www.cannockchasedc.gov.uk,-1.93379000000000,WS15 2JJ,2013-08-29,fhrs_5_en-GB,5,,FHRS,5
328146,Moss Farm,Watling Street,Norton Canes,Cannock,Moss Farm Shop,Retailers - other,4613,10,,387513,5,,52.66102300000000,757,287,environmentalhealth@cannockchasedc.gov.uk,Cannock Chase,http://www.cannockchasedc.gov.uk,-1.97368400000000,WS11 9ND,2011-06-14,fhrs_4_en-GB,4,,FHRS,0
328147,Mossley Tavern,95 Armitage Road,,Rugeley,Mossley Tavern,Pub/bar/nightclub,7843,10,,542913,10,,52.75547800000000,41793,287,environmentalhealth@cannockchasedc.gov.uk,Cannock Chase,http://www.cannockchasedc.gov.uk,-1.93065900000000,WS15 1DQ,2013-04-25,fhrs_3_en-GB,3,,FHRS,5
328148,72 Mount Street,Hednesford,,Cannock,Mount Street Food & Drink,Retailers - other,4613,10,,387421,10,,52.71590800000000,651,287,environmentalhealth@cannockchasedc.gov.uk,Cannock Chase,http://www.cannockchasedc.gov.uk,-2.00695900000000,WS12 4BD,2013-05-24,fhrs_4_en-GB,4,,FHRS,0
328149,,,,,Mr Simms,Mobile caterer,7846,5,,387365,5,,,5974,287,environmentalhealth@cannockchasedc.gov.uk,Cannock Chase,http://www.cannockchasedc.gov.uk,,,2011-03-10,fhrs_5_en-GB,5,,FHRS,5
328150,12 Mill Street,Rumer Hill,,Cannock,Mr Tangs Chinese Restaurant,Takeaway/sandwich shop,7844,10,,387407,10,,52.68824300000000,640,287,environmentalhealth@cannockchasedc.gov.uk,Cannock Chase,http://www.cannockchasedc.gov.uk,-2.02825800000000,WS11 0DL,2013-04-09,fhrs_3_en-GB,3,,FHRS,10
328151,,,,,Mrs Bumbles Baked Potatoes,Mobile caterer,7846,0,,387262,5,,,4903,287,environmentalhealth@cannockchasedc.gov.uk,Cannock Chase,http://www.cannockchasedc.gov.uk,,,2013-03-26,fhrs_5_en-GB,5,,FHRS,0
328152,,,,,Mrs Stevens Cakes,Other catering premises,7841,0,,520645,0,,,41041,287,environmentalhealth@cannockchasedc.gov.uk,Cannock Chase,http://www.cannockchasedc.gov.uk,,,2013-02-26,fhrs_5_en-GB,5,,FHRS,0
328153,,,,,Ms Carol Gregory,Other catering premises,7841,0,,387552,0,,,894,287,environmentalhealth@cannockchasedc.gov.uk,Cannock Chase,http://www.cannockchasedc.gov.uk,,,2009-07-16,fhrs_5_en-GB,5,,FHRS,0
328154,The Museum of Cannock Chase,Valley Road,Hednesford,Cannock,Museum of Cannock Chase Coffee Shop,Restaurant/Cafe/Canteen,1,0,,387495,0,,52.71307600000000,721,287,environmentalhealth@cannockchasedc.gov.uk,Cannock Chase,http://www.cannockchasedc.gov.uk,-1.99348800000000,WS12 1TD,2009-07-16,fhrs_5_en-GB,5,,FHRS,0
328155,Stafford Street,Heath Hayes,,Cannock,Needwood House,Hospitals/Childcare/Caring Premises,5,0,,387473,0,,52.69151700000000,690,287,environmentalhealth@cannockchasedc.gov.uk,Cannock Chase,http://www.cannockchasedc.gov.uk,-1.97875500000000,WS12 2EN,2014-02-28,fhrs_5_en-GB,5,,FHRS,0
328156,Nethermoor House,Chaseley Road,Etchinghill,Rugeley,Nethermoor House,Hospitals/Childcare/Caring Premises,5,0,,387116,5,,52.76039000000000,311,287,environmentalhealth@cannockchasedc.gov.uk,Cannock Chase,http://www.cannockchasedc.gov.uk,-1.95914700000000,WS15 2LQ,2014-07-30,fhrs_5_en-GB,5,,FHRS,5
328157,1 Rosehill Centre,Rose Hill,Pye Green,Cannock,New Dragon City,Takeaway/sandwich shop,7844,10,,387390,10,,52.71942100000000,621,287,environmentalhealth@cannockchasedc.gov.uk,Cannock Chase,http://www.cannockchasedc.gov.uk,-2.01656700000000,WS12 4RT,2013-02-07,fhrs_3_en-GB,3,,FHRS,5
328158,,,,,New England Bake Shop,Other catering premises,7841,0,,387237,0,,,4625,287,environmentalhealth@cannockchasedc.gov.uk,Cannock Chase,http://www.cannockchasedc.gov.uk,,,2009-11-23,fhrs_5_en-GB,5,,FHRS,0
328159,35 Albion Street,,,Rugeley,New Rajbari,Restaurant/Cafe/Canteen,1,5,,387386,5,,52.75988500000000,6187,287,environmentalhealth@cannockchasedc.gov.uk,Cannock Chase,http://www.cannockchasedc.gov.uk,-1.93406000000000,WS15 2BY,2013-04-30,fhrs_5_en-GB,5,,FHRS,5
328160,Lichfield Road,,,Cannock,Newhall Farm Inn,Restaurant/Cafe/Canteen,1,5,,387222,5,,52.68714100000000,444,287,environmentalhealth@cannockchasedc.gov.uk,Cannock Chase,http://www.cannockchasedc.gov.uk,-2.00156900000000,WS11 8NL,2013-11-14,fhrs_5_en-GB,5,,FHRS,5
328161,195 Pye Green Road,,,Cannock,News And Booze Express,Retailers - other,4613,20,,387377,5,,52.69981300000000,605,287,environmentalhealth@cannockchasedc.gov.uk,Cannock Chase,http://www.cannockchasedc.gov.uk,-2.02977500000000,WS11 5SB,2012-12-03,fhrs_1_en-GB,1,,FHRS,0
328162,"Unit 9, Lea Hall Enterprise",Wheelhouse Road,,Rugeley,Nine,Takeaway/sandwich shop,7844,0,,387518,0,,52.74974400000000,767,287,environmentalhealth@cannockchasedc.gov.uk,Cannock Chase,http://www.cannockchasedc.gov.uk,-1.91838600000000,WS15 1LH,2012-01-23,fhrs_5_en-GB,5,,FHRS,0
328163,3 - 4 Devon Court,Bideford Way,,Cannock,Nisa,Retailers - other,4613,20,,387035,5,,52.68700600000000,16862,287,environmentalhealth@cannockchasedc.gov.uk,Cannock Chase,http://www.cannockchasedc.gov.uk,-2.04555000000000,WS11 1NP,2012-01-30,fhrs_1_en-GB,1,,FHRS,0
328164,3-4 Festival Court,Pye Green Road,,Cannock,Nisa,Retailers - other,4613,5,,387374,0,,52.70978300000000,603,287,environmentalhealth@cannockchasedc.gov.uk,Cannock Chase,http://www.cannockchasedc.gov.uk,-2.02566700000000,WS11 5RP,2012-09-27,fhrs_4_en-GB,4,,FHRS,10
328165,1 Devon Court ,Bideford Way,,Cannock,Nisa Post Office,Retailers - other,4613,10,,387074,5,,52.68700600000000,230,287,environmentalhealth@cannockchasedc.gov.uk,Cannock Chase,http://www.cannockchasedc.gov.uk,-2.04555000000000,WS11 1NP,2010-10-19,fhrs_4_en-GB,4,,FHRS,0
328166,Burntwood Road,Norton Canes,,Cannock,Norton Canes High School,School/college/university,7845,0,,387098,0,,52.67836300000000,278,287,environmentalhealth@cannockchasedc.gov.uk,Cannock Chase,http://www.cannockchasedc.gov.uk,-1.96685500000000,WS11 9SP,2013-06-06,fhrs_5_en-GB,5,,FHRS,5
328167,School Road,Norton Canes,,Cannock,Norton Canes Primary School,School/college/university,7845,5,,387454,0,,52.67546800000000,672,287,environmentalhealth@cannockchasedc.gov.uk,Cannock Chase,http://www.cannockchasedc.gov.uk,-1.96577700000000,WS11 9SQ,2013-06-06,fhrs_5_en-GB,5,,FHRS,5
328168,192 Burntwood Road,Norton Canes,,Cannock,Norton East Working Mens Club,Pub/bar/nightclub,7843,5,,387544,5,,52.67944100000000,873,287,environmentalhealth@cannockchasedc.gov.uk,Cannock Chase,http://www.cannockchasedc.gov.uk,-1.96423600000000,WS11 9RL,2009-10-26,fhrs_5_en-GB,5,,FHRS,0
328169,19 Burntwood Road,Norton Canes,,Cannock,Norton Village Butchers,Retailers - other,4613,5,,486750,5,,52.67389600000000,40138,287,environmentalhealth@cannockchasedc.gov.uk,Cannock Chase,http://www.cannockchasedc.gov.uk,-1.97156100000000,WS11 9RE,2013-12-10,fhrs_5_en-GB,5,,FHRS,5
328170,East Cannock Road,Hednesford,,Cannock,Nuffield Fitness & Wellbeing Club,Restaurant/Cafe/Canteen,1,5,,387130,0,,52.69917800000000,331,287,environmentalhealth@cannockchasedc.gov.uk,Cannock Chase,http://www.cannockchasedc.gov.uk,-2.00929400000000,WS12 1LU,2012-09-10,fhrs_5_en-GB,5,,FHRS,0
328171,,,,,O So Sweet,Retailers - other,4613,5,,609288,0,,,43841,287,environmentalhealth@cannockchasedc.gov.uk,Cannock Chase,http://www.cannockchasedc.gov.uk,,,2013-09-12,fhrs_5_en-GB,5,,FHRS,0
328172,,,,,Oaktree House,Hospitals/Childcare/Caring Premises,5,0,,387068,0,,,2094,287,environmentalhealth@cannockchasedc.gov.uk,Cannock Chase,http://www.cannockchasedc.gov.uk,,,2010-11-05,fhrs_5_en-GB,5,,FHRS,0
328173,16 Holyoake Place,Etchinghill,,Rugeley,Oasis Kebab & Pizza,Takeaway/sandwich shop,7844,20,,387343,15,,52.76943900000000,5730,287,environmentalhealth@cannockchasedc.gov.uk,Cannock Chase,http://www.cannockchasedc.gov.uk,-1.94987500000000,WS15 2NP,2013-07-03,fhrs_1_en-GB,1,,FHRS,5
328174,249 - 251 Cannock Road,Chadsmoor,,Cannock,Off Licence,Retailers - other,4613,0,,455299,0,,52.70292600000000,38969,287,environmentalhealth@cannockchasedc.gov.uk,Cannock Chase,http://www.cannockchasedc.gov.uk,-2.01555500000000,WS11 5DD,2012-10-02,fhrs_4_en-GB,4,,FHRS,10
328175,110-118 Watling Street,,,Cannock,Ok Diner,Restaurant/Cafe/Canteen,1,0,,387027,0,,52.67359000000000,1453,287,environmentalhealth@cannockchasedc.gov.uk,Cannock Chase,http://www.cannockchasedc.gov.uk,-2.02727200000000,WS11 0BN,2013-11-14,fhrs_5_en-GB,5,,FHRS,0
328176,Watling Street,,,Cannock,Olive Catering @ Finning Uk Ltd,Restaurant/Cafe/Canteen,1,0,,387500,0,,52.67889800000000,730,287,environmentalhealth@cannockchasedc.gov.uk,Cannock Chase,http://www.cannockchasedc.gov.uk,-2.04486200000000,WS11 1SL,2012-04-11,fhrs_5_en-GB,5,,FHRS,5
328177,Kingswood Crescent,Kingswood Lakeside,,Cannock,Olive Catering @ Veolia,Restaurant/Cafe/Canteen,1,0,,387426,0,,52.69194700000000,6552,287,environmentalhealth@cannockchasedc.gov.uk,Cannock Chase,http://www.cannockchasedc.gov.uk,-2.02842300000000,WS11 1BG,2013-09-23,fhrs_5_en-GB,5,,FHRS,0
328178,34-36 Bow Street,,,Rugeley,Ollys Bar,Pub/bar/nightclub,7843,5,,387446,5,,52.76069500000000,67,287,environmentalhealth@cannockchasedc.gov.uk,Cannock Chase,http://www.cannockchasedc.gov.uk,-1.93737800000000,WS15 2DG,2011-03-10,fhrs_5_en-GB,5,,FHRS,0
328179,157 Longford Road,,,Cannock,One Stop,Retailers - other,4613,5,,387247,0,,52.68027600000000,469,287,environmentalhealth@cannockchasedc.gov.uk,Cannock Chase,http://www.cannockchasedc.gov.uk,-2.03564800000000,WS11 0LG,2012-05-21,fhrs_5_en-GB,5,,FHRS,0
328180,2 Elmore Lane ,,,Rugeley,One Stop,Retailers - other,4613,0,,387547,0,,52.75877100000000,886,287,environmentalhealth@cannockchasedc.gov.uk,Cannock Chase,http://www.cannockchasedc.gov.uk,-1.93604700000000,WS15 2DP,2009-07-16,fhrs_5_en-GB,5,,FHRS,0
328181,2-3 Sharon Way,Littleworth,,Cannock,One Stop,Retailers - other,4613,5,,387463,0,,52.70055300000000,676,287,environmentalhealth@cannockchasedc.gov.uk,Cannock Chase,http://www.cannockchasedc.gov.uk,-1.99365300000000,WS12 2NF,2011-10-10,fhrs_5_en-GB,5,,FHRS,0
328182,26 Norton East Road,,Norton Canes,Cannock,One Stop,Retailers - other,4613,10,,387296,0,,52.67160200000000,520,287,environmentalhealth@cannockchasedc.gov.uk,Cannock Chase,http://www.cannockchasedc.gov.uk,-1.96467100000000,WS11 9RT,2013-04-09,fhrs_4_en-GB,4,,FHRS,10
328183,4 Rosehill Centre,Rose Hill,Pye Green,Cannock,One Stop,Retailers - other,4613,0,,387564,0,,52.71942100000000,927,287,environmentalhealth@cannockchasedc.gov.uk,Cannock Chase,http://www.cannockchasedc.gov.uk,-2.01656700000000,WS12 4RT,2009-07-13,fhrs_5_en-GB,5,,FHRS,0
328184,,,,,Only Foods & Sauces,Mobile caterer,7846,5,,668310,5,,,46529,287,environmentalhealth@cannockchasedc.gov.uk,Cannock Chase,http://www.cannockchasedc.gov.uk,,,2014-05-23,fhrs_5_en-GB,5,,FHRS,0
328185,207 St Michaels Drive,,,Rugeley,P Follows Butchers,Retailers - other,4613,0,,386994,5,,52.74591800000000,1053,287,environmentalhealth@cannockchasedc.gov.uk,Cannock Chase,http://www.cannockchasedc.gov.uk,-1.92374100000000,WS15 1EU,2014-03-18,fhrs_5_en-GB,5,,FHRS,5
328186,8-9 High Green Court,Newhall Street,,Cannock,Padma Lounge Bar & Restaurant,Restaurant/Cafe/Canteen,1,0,,387271,5,,52.68868300000000,4996,287,environmentalhealth@cannockchasedc.gov.uk,Cannock Chase,http://www.cannockchasedc.gov.uk,-2.03195600000000,WS11 1GR,2014-12-12,fhrs_5_en-GB,5,,FHRS,5
328187,98 Hednesford Road,Heath Hayes,,Cannock,Papa's Pizza Company,Takeaway/sandwich shop,7844,5,,387149,10,,52.68881100000000,361,287,environmentalhealth@cannockchasedc.gov.uk,Cannock Chase,http://www.cannockchasedc.gov.uk,-1.98036900000000,WS12 3EA,2013-10-16,fhrs_3_en-GB,3,,FHRS,10
328188,58 Park Gate Road,Cannock Wood,,Cannock,Park Gate Inn,Restaurant/Cafe/Canteen,1,10,,387307,5,,52.70965000000000,530,287,environmentalhealth@cannockchasedc.gov.uk,Cannock Chase,http://www.cannockchasedc.gov.uk,-1.93302500000000,WS15 4RN,2013-03-04,fhrs_3_en-GB,3,,FHRS,10
328189,,,,,Party Sweets,Retailers - other,4613,5,,570012,0,,,42789,287,environmentalhealth@cannockchasedc.gov.uk,Cannock Chase,http://www.cannockchasedc.gov.uk,,,2013-07-16,fhrs_5_en-GB,5,,FHRS,0
328190,25 North Street,,,Cannock,Peaceful Chinese Takeaway,Takeaway/sandwich shop,7844,5,,387285,10,,52.67575600000000,513,287,environmentalhealth@cannockchasedc.gov.uk,Cannock Chase,http://www.cannockchasedc.gov.uk,-2.03015700000000,WS11 0BB,2013-08-29,fhrs_4_en-GB,4,,FHRS,0
328191,21 Market Square,,,Rugeley,Peak Health Foods Ltd,Retailers - other,4613,0,,387233,0,,52.76072100000000,4574,287,environmentalhealth@cannockchasedc.gov.uk,Cannock Chase,http://www.cannockchasedc.gov.uk,-1.93576300000000,WS15 2BJ,2009-11-10,fhrs_5_en-GB,5,,FHRS,0
328192,Pear Tree Working Mens Club,Hardie Avenue,,Rugeley,Pear Tree Working Mens Club,Pub/bar/nightclub,7843,0,,445991,5,,52.75171400000000,38214,287,environmentalhealth@cannockchasedc.gov.uk,Cannock Chase,http://www.cannockchasedc.gov.uk,-1.93625000000000,WS15 1NT,2014-07-01,fhrs_5_en-GB,5,,FHRS,5
328193,98 Belt Road,High Town,,Cannock,Pearl City Takeaway,Takeaway/sandwich shop,7844,5,,387380,0,,52.71016200000000,61,287,environmentalhealth@cannockchasedc.gov.uk,Cannock Chase,http://www.cannockchasedc.gov.uk,-2.01573500000000,WS12 4JJ,2012-05-02,fhrs_5_en-GB,5,,FHRS,0
328194,151 Avon Road,,,Cannock,Perfect Pizza,Takeaway/sandwich shop,7844,10,,387353,5,,52.68590500000000,58,287,environmentalhealth@cannockchasedc.gov.uk,Cannock Chase,http://www.cannockchasedc.gov.uk,-2.03233900000000,WS11 1LF,2013-05-08,fhrs_4_en-GB,4,,FHRS,5
328195,"Unit 2, Lea Hall Enterprise Park",Wheelhouse Road,,Rugeley,Perry's Fine Food,Other catering premises,7841,5,,729998,5,,52.74974300000000,50253,287,environmentalhealth@cannockchasedc.gov.uk,Cannock Chase,http://www.cannockchasedc.gov.uk,-1.91838600000000,WS15 1LH,2014-12-16,fhrs_5_en-GB,5,,FHRS,0
328196,27 Albion Street,,,Rugeley,Peters Kitchen,Takeaway/sandwich shop,7844,0,,387318,5,,52.75988500000000,54,287,environmentalhealth@cannockchasedc.gov.uk,Cannock Chase,http://www.cannockchasedc.gov.uk,-1.93406000000000,WS15 2BY,2014-09-24,fhrs_5_en-GB,5,,FHRS,5
328197,29A Horse Fair,,,Rugeley,Phat Pac's Diner,Restaurant/Cafe/Canteen,1,0,,659064,5,,52.75744900000000,45737,287,environmentalhealth@cannockchasedc.gov.uk,Cannock Chase,http://www.cannockchasedc.gov.uk,-1.93484900000000,WS15 2EJ,2014-05-01,fhrs_5_en-GB,5,,FHRS,5
328198,100 Pye Green Road,,,Cannock,Pied Piper Fish Bar,Takeaway/sandwich shop,7844,0,,387376,0,,52.69485000000000,604,287,environmentalhealth@cannockchasedc.gov.uk,Cannock Chase,http://www.cannockchasedc.gov.uk,-2.03147300000000,WS11 5RZ,2014-09-23,fhrs_5_en-GB,5,,FHRS,5
328199,10 High Green Court ,Newhall Street,,Cannock,Piques Wine Bar,Pub/bar/nightclub,7843,0,,387424,0,,52.68868300000000,655,287,environmentalhealth@cannockchasedc.gov.uk,Cannock Chase,http://www.cannockchasedc.gov.uk,-2.03195600000000,WS11 1GR,2010-03-24,fhrs_5_en-GB,5,,FHRS,0
328200,Arriva House,Delta Way,,Cannock,Pit Stop,Restaurant/Cafe/Canteen,1,5,,387131,0,,52.67677300000000,3320,287,environmentalhealth@cannockchasedc.gov.uk,Cannock Chase,http://www.cannockchasedc.gov.uk,-2.02675600000000,WS11 0BX,2013-07-29,fhrs_5_en-GB,5,,FHRS,0
328201,231 Cannock Road,Chadsmoor,,Cannock,Pizza Bella,Takeaway/sandwich shop,7844,10,,387435,10,,52.70292600000000,6610,287,environmentalhealth@cannockchasedc.gov.uk,Cannock Chase,http://www.cannockchasedc.gov.uk,-2.01555500000000,WS11 5DD,2011-10-13,fhrs_3_en-GB,3,,FHRS,10
328202,Unit 1,Chase Gateway,Rugeley Road,Cannock,Pizza Hut (Hednesford),Takeaway/sandwich shop,7844,0,,631778,0,,,44625,287,environmentalhealth@cannockchasedc.gov.uk,Cannock Chase,http://www.cannockchasedc.gov.uk,,WS12 1DU,2014-01-28,fhrs_5_en-GB,5,,FHRS,0
328203,Linkway Retail Park,Watling Street,,Cannock,Pizza Hut (Uk) Ltd.,Restaurant/Cafe/Canteen,1,0,,387509,0,,52.67813300000000,748,287,environmentalhealth@cannockchasedc.gov.uk,Cannock Chase,http://www.cannockchasedc.gov.uk,-2.04768600000000,WS11 1TD,2012-07-04,fhrs_5_en-GB,5,,FHRS,0
328204,Churchfield C E Primary School,Sandy Lane ,,Rugeley,Play & Learn Before & After School,Hospitals/Childcare/Caring Premises,5,5,,387028,5,,52.75662300000000,1550,287,environmentalhealth@cannockchasedc.gov.uk,Cannock Chase,http://www.cannockchasedc.gov.uk,-1.93722100000000,WS15 2LB,2010-02-24,fhrs_5_en-GB,5,,FHRS,5
328205,Unit 138/9 Anglesey Business Park,Littleworth Road,,Cannock,Playtime Cannock Ltd,Other catering premises,7841,10,,387402,5,,52.70407600000000,6322,287,environmentalhealth@cannockchasedc.gov.uk,Cannock Chase,http://www.cannockchasedc.gov.uk,-1.98191600000000,WS12 1NR,2014-06-09,fhrs_4_en-GB,4,,FHRS,5
328206,4 Mill Street,Rumer Hill,,Cannock,Plaza Restaurant,Restaurant/Cafe/Canteen,1,10,,387405,5,,52.68824300000000,639,287,environmentalhealth@cannockchasedc.gov.uk,Cannock Chase,http://www.cannockchasedc.gov.uk,-2.02825800000000,WS11 0DL,2014-05-14,fhrs_4_en-GB,4,,FHRS,5
328207,Uxbridge Street,Littleworth,,Cannock,Plough & Harrow,Pub/bar/nightclub,7843,5,,387492,5,,52.70573100000000,718,287,environmentalhealth@cannockchasedc.gov.uk,Cannock Chase,http://www.cannockchasedc.gov.uk,-1.99755900000000,WS12 1DB,2014-04-16,fhrs_5_en-GB,5,,FHRS,5
328208,26 Stafford Road,,,Cannock,Podge & Tin Eatery,Restaurant/Cafe/Canteen,1,0,,633707,0,,52.69558600000000,44725,287,environmentalhealth@cannockchasedc.gov.uk,Cannock Chase,http://www.cannockchasedc.gov.uk,-2.03342600000000,WS11 4AH,2014-02-07,fhrs_5_en-GB,5,,FHRS,0
328209,Stall 3,Cannock Indoor Market,Market Hall Street,Cannock,Pom Thai Products,Retailers - other,4613,0,,735706,0,,52.68949200000000,50522,287,environmentalhealth@cannockchasedc.gov.uk,Cannock Chase,http://www.cannockchasedc.gov.uk,-2.03012200000000,WS11 1EB,2015-02-10,fhrs_5_en-GB,5,,FHRS,0
328210,,,,,Poolside Cafe (Mobile),Restaurant/Cafe/Canteen,1,5,,387235,0,,,461,287,environmentalhealth@cannockchasedc.gov.uk,Cannock Chase,http://www.cannockchasedc.gov.uk,,,2012-10-23,fhrs_5_en-GB,5,,FHRS,0
328211,2 Upper Brook Street,,,Rugeley,Pound Foods,Retailers - other,4613,0,,387029,5,,52.75896900000000,1552,287,environmentalhealth@cannockchasedc.gov.uk,Cannock Chase,http://www.cannockchasedc.gov.uk,-1.93631400000000,WS15 2DN,2014-08-15,fhrs_5_en-GB,5,,FHRS,0
328212,16 - 18 Lower Brook Street,,,Rugeley,Poundland,Retailers - other,4613,0,,694000,0,,52.76007400000000,48029,287,environmentalhealth@cannockchasedc.gov.uk,Cannock Chase,http://www.cannockchasedc.gov.uk,-1.93589700000000,WS15 2DF,2014-08-15,fhrs_5_en-GB,5,,FHRS,0
328213,5 Market Place,,,Cannock,Poundland,Retailers - supermarkets/hypermarkets,7840,0,,387240,0,,52.68844900000000,4640,287,environmentalhealth@cannockchasedc.gov.uk,Cannock Chase,http://www.cannockchasedc.gov.uk,-2.03041800000000,WS11 1BS,2009-11-27,fhrs_5_en-GB,5,,FHRS,0
328214,52 Broadway,Pye Green,,Cannock,Prairie Farm,Pub/bar/nightclub,7843,0,,387079,0,,52.71427000000000,258,287,environmentalhealth@cannockchasedc.gov.uk,Cannock Chase,http://www.cannockchasedc.gov.uk,-2.01889000000000,WS12 4HW,2010-04-21,fhrs_5_en-GB,5,,FHRS,5
328215,71-75 Market Street,,,Hednesford,Precious Memories,Retailers - other,4613,0,,609294,0,,52.70737700000000,43914,287,environmentalhealth@cannockchasedc.gov.uk,Cannock Chase,http://www.cannockchasedc.gov.uk,-2.00197000000000,WS12 1AP,2013-11-11,fhrs_5_en-GB,5,,FHRS,5
328216,"27 Newhall Street,",,,Cannock,Precious Moments Day Nursery Ltd,Hospitals/Childcare/Caring Premises,5,0,,387253,10,,52.68843100000000,4774,287,environmentalhealth@cannockchasedc.gov.uk,Cannock Chase,http://www.cannockchasedc.gov.uk,-2.03380500000000,WS11 1AB,2010-01-20,fhrs_4_en-GB,4,,FHRS,5
328217,24-26 Hednesford Road,Heath Hayes,,Cannock,Premier,Retailers - other,4613,5,,387261,0,,52.68881100000000,4830,287,environmentalhealth@cannockchasedc.gov.uk,Cannock Chase,http://www.cannockchasedc.gov.uk,-1.98036900000000,WS12 3EA,2013-07-18,fhrs_5_en-GB,5,,FHRS,0
328218,61 - 63 Lodge Road,Brereton,,Rugeley,Premier Brereton Stores,Retailers - other,4613,0,,505446,0,,52.74530300000000,40517,287,environmentalhealth@cannockchasedc.gov.uk,Cannock Chase,http://www.cannockchasedc.gov.uk,-1.91882400000000,WS15 1HR,2014-09-19,fhrs_4_en-GB,4,,FHRS,10
328219,7 Ashworth House,Cannock Road,Chadsmoor,Cannock,Price Freeze,Retailers - other,4613,5,,387099,5,,52.70242200000000,282,287,environmentalhealth@cannockchasedc.gov.uk,Cannock Chase,http://www.cannockchasedc.gov.uk,-2.01551000000000,WS11 5DZ,2010-02-17,fhrs_5_en-GB,5,,FHRS,5
328220,Prince of Wales Centre,Church Street,,Cannock,Prince of Wales Centre ,Pub/bar/nightclub,7843,0,,386992,0,,52.68898000000000,104,287,environmentalhealth@cannockchasedc.gov.uk,Cannock Chase,http://www.cannockchasedc.gov.uk,-2.02970800000000,WS11 1DE,2009-08-14,fhrs_5_en-GB,5,,FHRS,0
328221,55 Church Street,Rugeley,,Rugeley,Prince Of Wales Pub,Pub/bar/nightclub,7843,5,,387122,5,,52.76198300000000,321,287,environmentalhealth@cannockchasedc.gov.uk,Cannock Chase,http://www.cannockchasedc.gov.uk,-1.94059200000000,WS15 2AH,2010-04-22,fhrs_5_en-GB,5,,FHRS,5
328222,34 Princess Street,West Chadsmoor,,Cannock,Princess Street Stores,Retailers - other,4613,0,,700117,5,,52.70753700000000,48181,287,environmentalhealth@cannockchasedc.gov.uk,Cannock Chase,http://www.cannockchasedc.gov.uk,-2.02029300000000,WS11 5JS,2014-09-02,fhrs_5_en-GB,5,,FHRS,0
328223,,,,,Pudding N Pie Limited,Other catering premises,7841,0,,579810,5,,,43125,287,environmentalhealth@cannockchasedc.gov.uk,Cannock Chase,http://www.cannockchasedc.gov.uk,,,2013-08-20,fhrs_5_en-GB,5,,FHRS,5
328224,11 Anglesey Street,Hednesford,,Cannock,Puddle Duck Day Nursery,Hospitals/Childcare/Caring Premises,5,0,,387161,0,,52.70873400000000,377,287,environmentalhealth@cannockchasedc.gov.uk,Cannock Chase,http://www.cannockchasedc.gov.uk,-2.00194000000000,WS12 1AB,2013-11-28,fhrs_5_en-GB,5,,FHRS,0
328225,The Chancel County Infants School,Wolseley Road,,Rugeley,Puffins Nursery,Hospitals/Childcare/Caring Premises,5,10,,387001,5,,52.76604400000000,1132,287,environmentalhealth@cannockchasedc.gov.uk,Cannock Chase,http://www.cannockchasedc.gov.uk,-1.93732600000000,WS15 2EW,2011-01-17,fhrs_4_en-GB,4,,FHRS,0
328226,74 Broadhurst Green,Pye Green,,Cannock,Pye Green Fish Bar,Takeaway/sandwich shop,7844,0,,387529,0,,52.72503100000000,83,287,environmentalhealth@cannockchasedc.gov.uk,Cannock Chase,http://www.cannockchasedc.gov.uk,-2.01673300000000,WS12 4LF,2012-08-13,fhrs_5_en-GB,5,,FHRS,0
328227,238 Pye Green Road,,,Cannock,Pye Green Garden,Takeaway/sandwich shop,7844,10,,553107,5,,52.70351700000000,42229,287,environmentalhealth@cannockchasedc.gov.uk,Cannock Chase,http://www.cannockchasedc.gov.uk,-2.02760200000000,WS11 5RL,2013-06-04,fhrs_4_en-GB,4,,FHRS,5
328228,Rose Hill,Pye Green,,Cannock,Pye Green Valley County Primary School,School/college/university,7845,5,,387438,5,,52.71942100000000,663,287,environmentalhealth@cannockchasedc.gov.uk,Cannock Chase,http://www.cannockchasedc.gov.uk,-2.01656700000000,WS12 4RT,2013-09-30,fhrs_5_en-GB,5,,FHRS,5
328229,Beecroft Road Car Park,Beecroft Road,,Cannock,Pye Green Youth & Community Services,Other catering premises,7841,5,,387270,5,,52.69115600000000,4979,287,environmentalhealth@cannockchasedc.gov.uk,Cannock Chase,http://www.cannockchasedc.gov.uk,-2.02982800000000,WS11 1JR,2014-10-31,fhrs_5_en-GB,5,,FHRS,5
328230,,,,,R & R Biscuiteers,Other catering premises,7841,0,,715604,0,,,49129,287,environmentalhealth@cannockchasedc.gov.uk,Cannock Chase,http://www.cannockchasedc.gov.uk,,,2014-10-23,fhrs_5_en-GB,5,,FHRS,0
328231,Railway Tavern,Norton Green Lane,Norton Canes,Cannock,Railway Tavern,Pub/bar/nightclub,7843,0,,387297,0,,52.66805400000000,521,287,environmentalhealth@cannockchasedc.gov.uk,Cannock Chase,http://www.cannockchasedc.gov.uk,-1.97731700000000,WS11 9PR,2013-10-11,fhrs_5_en-GB,5,,FHRS,0
328232,Lion Point,Orbital Plaza,Churchbridge,Cannock,Ramada   Birmingham North Cannock,Hotel/bed & breakfast/guest house,7842,0,,387300,0,,52.67312300000000,526,287,environmentalhealth@cannockchasedc.gov.uk,Cannock Chase,http://www.cannockchasedc.gov.uk,-2.02545300000000,WS11 0EL,2012-02-13,fhrs_5_en-GB,5,,FHRS,0
328233,Lakeside Plaza,Walkmill Lane,,Cannock,Rampz Skatepark,Retailers - other,4613,0,,516556,0,,52.67174600000000,40985,287,environmentalhealth@cannockchasedc.gov.uk,Cannock Chase,http://www.cannockchasedc.gov.uk,-2.03398500000000,WS11 0XE,2013-02-28,fhrs_5_en-GB,5,,FHRS,0
328234,,,,,Rebecca Ann Cakes Of Staffordshire,Other catering premises,7841,0,,715601,0,,,48789,287,environmentalhealth@cannockchasedc.gov.uk,Cannock Chase,http://www.cannockchasedc.gov.uk,,,2014-10-01,fhrs_5_en-GB,5,,FHRS,0
328235,Red Lion Inn,Main Road,Brereton,Rugeley,Red Lion,Pub/bar/nightclub,7843,5,,387255,0,,52.74249900000000,479,287,environmentalhealth@cannockchasedc.gov.uk,Cannock Chase,http://www.cannockchasedc.gov.uk,-1.91965900000000,WS15 1EB,2012-10-09,fhrs_4_en-GB,4,,FHRS,10
328236,19 Market Street,,,Rugeley,Red Lion (Mkt St),Pub/bar/nightclub,7843,5,,553106,5,,52.76186200000000,42225,287,environmentalhealth@cannockchasedc.gov.uk,Cannock Chase,http://www.cannockchasedc.gov.uk,-1.93438300000000,WS15 2JH,2013-06-04,fhrs_4_en-GB,4,,FHRS,10
328237,7 Horse Fair,,,Rugeley,Red Peppers,Restaurant/Cafe/Canteen,1,10,,387057,10,,52.75759300000000,17014,287,environmentalhealth@cannockchasedc.gov.uk,Cannock Chase,http://www.cannockchasedc.gov.uk,-1.93504100000000,WS15 2EJ,2013-08-20,fhrs_3_en-GB,3,,FHRS,10
328238,Talbot Road,,,Rugeley,Redbrook Hayes Primary School,School/college/university,7845,5,,387485,0,,52.74676600000000,703,287,environmentalhealth@cannockchasedc.gov.uk,Cannock Chase,http://www.cannockchasedc.gov.uk,-1.92951700000000,WS15 1AU,2013-06-04,fhrs_5_en-GB,5,,FHRS,0
328239,29 Redbrook Lane,,,Rugeley,Redbrook Stores Ltd,Retailers - other,4613,0,,387384,10,,52.74699900000000,617,287,environmentalhealth@cannockchasedc.gov.uk,Cannock Chase,http://www.cannockchasedc.gov.uk,-1.92722000000000,WS15 1AA,2012-02-08,fhrs_4_en-GB,4,,FHRS,5
328240,Wrights Avenue,West Chadsmoor,,Cannock,Redhill Community School,School/college/university,7845,0,,387182,0,,52.70621500000000,399,287,environmentalhealth@cannockchasedc.gov.uk,Cannock Chase,http://www.cannockchasedc.gov.uk,-2.02196400000000,WS11 5JR,2013-05-07,fhrs_5_en-GB,5,,FHRS,0
328241,Redhill Community Primary School,Wrights Avenue,West Chadsmoor,Cannock,Redhill Robins Daycare @ Redhill Primary School,Hospitals/Childcare/Caring Premises,5,0,,511457,5,,52.70621500000000,40765,287,environmentalhealth@cannockchasedc.gov.uk,Cannock Chase,http://www.cannockchasedc.gov.uk,-2.02196400000000,WS11 5JR,2013-02-25,fhrs_5_en-GB,5,,FHRS,0
328242,13 High Green,,,Cannock,Rileys Snooker Club,Pub/bar/nightclub,7843,10,,387186,5,,52.68957200000000,404,287,environmentalhealth@cannockchasedc.gov.uk,Cannock Chase,http://www.cannockchasedc.gov.uk,-2.03306700000000,WS11 1BJ,2012-12-07,fhrs_3_en-GB,3,,FHRS,10
328243,60 Market Street,Hednesford,,Cannock,Rimini Pizza,Takeaway/sandwich shop,7844,5,,387541,0,,52.70929100000000,862,287,environmentalhealth@cannockchasedc.gov.uk,Cannock Chase,http://www.cannockchasedc.gov.uk,-1.99908300000000,WS12 1AG,2014-12-08,fhrs_5_en-GB,5,,FHRS,0
328244,Bettys Lane,Norton Canes,,Cannock,Road Chef (Chasewater) Ltd. ,Restaurant/Cafe/Canteen,1,0,,387527,0,,52.66495000000000,80,287,environmentalhealth@cannockchasedc.gov.uk,Cannock Chase,http://www.cannockchasedc.gov.uk,-1.96763400000000,WS11 9UX,2011-09-21,fhrs_5_en-GB,5,,FHRS,0
328245,97 Broadhurst Green,Pye Green,,Cannock,Rose Cottage,Retailers - other,4613,20,,387037,0,,52.72503100000000,16870,287,environmentalhealth@cannockchasedc.gov.uk,Cannock Chase,http://www.cannockchasedc.gov.uk,-2.01673300000000,WS12 4LF,2012-01-09,fhrs_1_en-GB,1,,FHRS,5
328246,2 Rosehill,,,Cannock,Rose Hill Balti,Takeaway/sandwich shop,7844,10,,520641,10,,52.71942100000000,41013,287,environmentalhealth@cannockchasedc.gov.uk,Cannock Chase,http://www.cannockchasedc.gov.uk,-2.01656700000000,WS12 4RT,2013-02-28,fhrs_3_en-GB,3,,FHRS,5
328247,4 Albion Street,,,Rugeley,Rose's CafÃ©,Restaurant/Cafe/Canteen,1,10,,387305,5,,52.75988500000000,5286,287,environmentalhealth@cannockchasedc.gov.uk,Cannock Chase,http://www.cannockchasedc.gov.uk,-1.93406000000000,WS15 2BY,2013-07-18,fhrs_4_en-GB,4,,FHRS,5
328248,160 Walsall Road,Norton Canes,,Cannock,Rose's Snack Box,Takeaway/sandwich shop,7844,5,,387508,5,,52.67289800000000,745,287,environmentalhealth@cannockchasedc.gov.uk,Cannock Chase,http://www.cannockchasedc.gov.uk,-1.97261200000000,WS11 9RB,2012-05-25,fhrs_5_en-GB,5,,FHRS,5
328249,Bow Street ,,,Rugeley,Royal British Legion ,Pub/bar/nightclub,7843,5,,387076,5,,52.76069500000000,236,287,environmentalhealth@cannockchasedc.gov.uk,Cannock Chase,http://www.cannockchasedc.gov.uk,-1.93737800000000,WS15 2DG,2010-04-07,fhrs_5_en-GB,5,,FHRS,5
328250,19 - 20 Market Square,,,Rugeley,Royal Harris,Takeaway/sandwich shop,7844,0,,387394,5,,52.76072100000000,6223,287,environmentalhealth@cannockchasedc.gov.uk,Cannock Chase,http://www.cannockchasedc.gov.uk,-1.93576300000000,WS15 2BJ,2014-09-09,fhrs_5_en-GB,5,,FHRS,5
328251,Market Place,,,Cannock,Royal Oak,Pub/bar/nightclub,7843,0,,387350,0,,52.68970800000000,579,287,environmentalhealth@cannockchasedc.gov.uk,Cannock Chase,http://www.cannockchasedc.gov.uk,-2.03109900000000,WS11 1BU,2011-11-02,fhrs_5_en-GB,5,,FHRS,0
328252,21A Horse Fair,,,Rugeley,Ruby Express,Takeaway/sandwich shop,7844,10,,458088,0,,52.75759300000000,39041,287,environmentalhealth@cannockchasedc.gov.uk,Cannock Chase,http://www.cannockchasedc.gov.uk,-1.93504100000000,WS15 2EJ,2012-09-28,fhrs_4_en-GB,4,,FHRS,5
328253,105 Fernwood Drive,,,Rugeley,Rucci Indian Takeaway,Takeaway/sandwich shop,7844,0,,387011,5,,52.76587000000000,131,287,environmentalhealth@cannockchasedc.gov.uk,Cannock Chase,http://www.cannockchasedc.gov.uk,-1.94856000000000,WS15 2PY,2012-10-16,fhrs_5_en-GB,5,,FHRS,5
328254,Taylors Lane,,,Rugeley,Rugeley 6th Form Academy,School/college/university,7845,10,,387487,0,,52.76268200000000,707,287,environmentalhealth@cannockchasedc.gov.uk,Cannock Chase,http://www.cannockchasedc.gov.uk,-1.93693100000000,WS15 2AA,2009-06-09,fhrs_4_en-GB,4,,FHRS,0
328255,Heron Street,,,Rugeley,Rugeley Billiards & Snooker Club,Pub/bar/nightclub,7843,5,,387183,5,,52.75859700000000,400,287,environmentalhealth@cannockchasedc.gov.uk,Cannock Chase,http://www.cannockchasedc.gov.uk,-1.93111300000000,WS15 2DZ,2010-05-12,fhrs_5_en-GB,5,,FHRS,5
328256,Chaseley Road,Etchinghill,,Rugeley,Rugeley Cricket Club,Pub/bar/nightclub,7843,5,,387117,5,,52.76039000000000,312,287,environmentalhealth@cannockchasedc.gov.uk,Cannock Chase,http://www.cannockchasedc.gov.uk,-1.95914700000000,WS15 2LQ,2012-04-17,fhrs_5_en-GB,5,,FHRS,5
328257,14 Anson Street,,,Rugeley,Rugeley Kebab House,Takeaway/sandwich shop,7844,10,,387333,10,,52.76112600000000,56,287,environmentalhealth@cannockchasedc.gov.uk,Cannock Chase,http://www.cannockchasedc.gov.uk,-1.93583600000000,WS15 2BB,2013-08-06,fhrs_3_en-GB,3,,FHRS,10
328258,6 Anson Street,,,Rugeley,Rugeley Post Office,Retailers - other,4613,0,,387434,0,,52.76112600000000,6608,287,environmentalhealth@cannockchasedc.gov.uk,Cannock Chase,http://www.cannockchasedc.gov.uk,-1.93583600000000,WS15 2BB,2013-10-30,fhrs_5_en-GB,5,,FHRS,0
328259,Mansfield House,40 Market Street,,Rugeley,Rugeley Progressive Working Mens Club,Pub/bar/nightclub,7843,0,,387398,0,,52.76267100000000,629,287,environmentalhealth@cannockchasedc.gov.uk,Cannock Chase,http://www.cannockchasedc.gov.uk,-1.93364100000000,WS15 2JL,2013-01-09,fhrs_5_en-GB,5,,FHRS,0
328260,Taylors Lane,,,Rugeley,Rugeley Rose Theatre,Restaurant/Cafe/Canteen,1,5,,387488,0,,52.76268200000000,708,287,environmentalhealth@cannockchasedc.gov.uk,Cannock Chase,http://www.cannockchasedc.gov.uk,-1.93693100000000,WS15 2AA,2012-04-13,fhrs_5_en-GB,5,,FHRS,0
328261,St Augustines Field,Station Road,,Rugeley,Rugeley Rugby Club,Pub/bar/nightclub,7843,0,,505929,0,,52.76565600000000,40537,287,environmentalhealth@cannockchasedc.gov.uk,Cannock Chase,http://www.cannockchasedc.gov.uk,-1.93379900000000,WS15 2HE,2013-02-05,fhrs_5_en-GB,5,,FHRS,5
328262,Keyhouse,Brewery Street,,Rugeley,Rugeley Tandoori Takeaway,Takeaway/sandwich shop,7844,5,,387310,0,,52.75919300000000,5337,287,environmentalhealth@cannockchasedc.gov.uk,Cannock Chase,http://www.cannockchasedc.gov.uk,-1.93468300000000,WS15 2DY,2013-09-11,fhrs_5_en-GB,5,,FHRS,5
328263,Burnthill Lane,,,Rugeley,Rugeley Youth Centre,Other catering premises,7841,10,,387097,5,,52.75701100000000,277,287,environmentalhealth@cannockchasedc.gov.uk,Cannock Chase,http://www.cannockchasedc.gov.uk,-1.93966500000000,WS15 2HX,2010-02-15,fhrs_4_en-GB,4,,FHRS,0
328264,241 Cannock Road,Chadsmoor,,Cannock,Rupa's Balti,Takeaway/sandwich shop,7844,10,,387570,5,,52.70292600000000,94,287,environmentalhealth@cannockchasedc.gov.uk,Cannock Chase,http://www.cannockchasedc.gov.uk,-2.01555500000000,WS11 5DD,2013-05-08,fhrs_4_en-GB,4,,FHRS,5
328265,140 St. Johns Road,,,Cannock,Sahota Superstore,Retailers - other,4613,5,,387481,5,,52.68253500000000,699,287,environmentalhealth@cannockchasedc.gov.uk,Cannock Chase,http://www.cannockchasedc.gov.uk,-2.02952600000000,WS11 0AG,2009-12-14,fhrs_5_en-GB,5,,FHRS,5
328266,J Sainsbury Plc.,Voyager Drive,,Cannock,Sainsburys Plc,Retailers - supermarkets/hypermarkets,7840,0,,387499,0,,52.67495800000000,726,287,environmentalhealth@cannockchasedc.gov.uk,Cannock Chase,http://www.cannockchasedc.gov.uk,-2.01894600000000,WS11 8XP,2012-05-21,fhrs_5_en-GB,5,,FHRS,0
328267,Queens Square,Church Street,,Cannock,Saleem Bagh,Restaurant/Cafe/Canteen,1,5,,386990,10,,52.69026600000000,102,287,environmentalhealth@cannockchasedc.gov.uk,Cannock Chase,http://www.cannockchasedc.gov.uk,-2.02778500000000,WS11 1EA,2012-07-12,fhrs_4_en-GB,4,,FHRS,5
328268,Walhouse Street,Rumer Hill,,Cannock,Salvation Army Church,Other catering premises,7841,0,,387129,0,,52.68627500000000,3280,287,environmentalhealth@cannockchasedc.gov.uk,Cannock Chase,http://www.cannockchasedc.gov.uk,-2.02480900000000,WS11 0DY,2011-09-13,fhrs_5_en-GB,5,,FHRS,0
328269,100 Hednesford Road,Heath Hayes,,Cannock,Sammys Kitchen,Takeaway/sandwich shop,7844,5,,387016,10,,52.68881100000000,138,287,environmentalhealth@cannockchasedc.gov.uk,Cannock Chase,http://www.cannockchasedc.gov.uk,-1.98036900000000,WS12 3EA,2013-11-07,fhrs_4_en-GB,4,,FHRS,0
328270,Rose Hill,Pye Green,,Cannock,Samson Blewitt,Pub/bar/nightclub,7843,0,,387392,0,,52.71942100000000,622,287,environmentalhealth@cannockchasedc.gov.uk,Cannock Chase,http://www.cannockchasedc.gov.uk,-2.01656700000000,WS12 4RT,2014-05-16,fhrs_5_en-GB,5,,FHRS,0
328271,193 Cannock Road,Chadsmoor,,Cannock,Sanam Balti House,Restaurant/Cafe/Canteen,1,0,,387574,0,,52.70292600000000,95,287,environmentalhealth@cannockchasedc.gov.uk,Cannock Chase,http://www.cannockchasedc.gov.uk,-2.01555500000000,WS11 5DD,2013-02-28,fhrs_5_en-GB,5,,FHRS,5
328272,,,,,Say It With Flours,Other catering premises,7841,5,,387425,0,,,6551,287,environmentalhealth@cannockchasedc.gov.uk,Cannock Chase,http://www.cannockchasedc.gov.uk,,,2011-09-28,fhrs_5_en-GB,5,,FHRS,5
328273,West Hill Primary School,High Mount Street,West Hill,Cannock,Scallywags Playgroup,Hospitals/Childcare/Caring Premises,5,0,,387239,0,,52.71308500000000,4639,287,environmentalhealth@cannockchasedc.gov.uk,Cannock Chase,http://www.cannockchasedc.gov.uk,-2.00564100000000,WS12 4BH,2009-11-24,fhrs_5_en-GB,5,,FHRS,0
328274,Station Road,Hednesford,,Cannock,School Court,Hospitals/Childcare/Caring Premises,5,0,,387475,0,,52.71469400000000,692,287,environmentalhealth@cannockchasedc.gov.uk,Cannock Chase,http://www.cannockchasedc.gov.uk,-1.99767700000000,WS12 4UA,2014-04-02,fhrs_5_en-GB,5,,FHRS,5
328275,Mobile Unit at Unit 9,Cannock Wood Industrial Estate,Cannock Wood Street,Cannock,Scott Whitney,Mobile caterer,7846,5,,692422,5,,,47993,287,environmentalhealth@cannockchasedc.gov.uk,Cannock Chase,http://www.cannockchasedc.gov.uk,,,2014-08-19,fhrs_5_en-GB,5,,FHRS,5
328276,73 High Green,,,Cannock,Sea Line,Takeaway/sandwich shop,7844,0,,701278,0,,52.68927600000000,48265,287,environmentalhealth@cannockchasedc.gov.uk,Cannock Chase,http://www.cannockchasedc.gov.uk,-2.03192700000000,WS11 1BN,2014-09-15,fhrs_5_en-GB,5,,FHRS,0
328277,324 Cannock Road,Chadsmoor,,Cannock,Seabright Fish Bar,Takeaway/sandwich shop,7844,5,,387002,0,,52.70440900000000,118,287,environmentalhealth@cannockchasedc.gov.uk,Cannock Chase,http://www.cannockchasedc.gov.uk,-2.01194400000000,WS11 5TB,2012-05-10,fhrs_5_en-GB,5,,FHRS,5
328278,16 Common Lane,Blackfords ,,Cannock,Seasonal Flavours,Mobile caterer,7846,0,,387546,0,,52.69782000000000,877,287,environmentalhealth@cannockchasedc.gov.uk,Cannock Chase,http://www.cannockchasedc.gov.uk,-2.01422100000000,WS11 6LU,2011-05-06,fhrs_5_en-GB,5,,FHRS,0
328279,Power Station Road,,,Rugeley,Servest Catering @ Amazon,Restaurant/Cafe/Canteen,1,0,,638431,5,,52.75715600000000,45241,287,environmentalhealth@cannockchasedc.gov.uk,Cannock Chase,http://www.cannockchasedc.gov.uk,-1.92659600000000,WS15 1LX,2014-03-17,fhrs_5_en-GB,5,,FHRS,5
328280,47 Mill Street,Rumer Hill,,Cannock,Shabab Restaurant,Restaurant/Cafe/Canteen,1,5,,387411,0,,52.68812700000000,643,287,environmentalhealth@cannockchasedc.gov.uk,Cannock Chase,http://www.cannockchasedc.gov.uk,-2.02563900000000,WS11 0DR,2014-10-09,fhrs_5_en-GB,5,,FHRS,0
328281,614 Watling Street,,Norton Canes,Cannock,Shalimar,Restaurant/Cafe/Canteen,1,5,,387355,0,,52.65869300000000,5802,287,environmentalhealth@cannockchasedc.gov.uk,Cannock Chase,http://www.cannockchasedc.gov.uk,-1.96784500000000,WS11 9NA,2013-05-30,fhrs_5_en-GB,5,,FHRS,0
328282,,,,,Sharons Spuds,Mobile caterer,7846,0,,426694,0,,,37254,287,environmentalhealth@cannockchasedc.gov.uk,Cannock Chase,http://www.cannockchasedc.gov.uk,,,2014-04-14,fhrs_5_en-GB,5,,FHRS,0
328283,Watling Street,,,Cannock,Shell Longford,Retailers - other,4613,0,,387510,0,,52.67889800000000,749,287,environmentalhealth@cannockchasedc.gov.uk,Cannock Chase,http://www.cannockchasedc.gov.uk,-2.04486200000000,WS11 1SL,2010-11-02,fhrs_5_en-GB,5,,FHRS,5
328284,Beecroft Hill School,Brunswick Road,,Cannock,Sherbrook Primary School,School/college/university,7845,0,,387090,0,,52.69649600000000,269,287,environmentalhealth@cannockchasedc.gov.uk,Cannock Chase,http://www.cannockchasedc.gov.uk,-2.02888400000000,WS11 5SF,2013-11-07,fhrs_5_en-GB,5,,FHRS,0
328285,62 Brownhills Road,Norton Canes,,Cannock,Shop 4 Less,Retailers - other,4613,5,,387089,5,,52.67398500000000,268,287,environmentalhealth@cannockchasedc.gov.uk,Cannock Chase,http://www.cannockchasedc.gov.uk,-1.97028900000000,WS11 9SE,2010-02-09,fhrs_5_en-GB,5,,FHRS,5
328286,238a Pye Green Road,,,Cannock,Shop 4 U Ltd,Retailers - other,4613,0,,387211,0,,52.70351700000000,4308,287,environmentalhealth@cannockchasedc.gov.uk,Cannock Chase,http://www.cannockchasedc.gov.uk,-2.02760200000000,WS11 5RL,2014-01-28,fhrs_5_en-GB,5,,FHRS,0
328287,203 Hednesford Road,Norton Canes,,Cannock,Shop For Less,Retailers - other,4613,10,,387155,15,,52.67476800000000,368,287,environmentalhealth@cannockchasedc.gov.uk,Cannock Chase,http://www.cannockchasedc.gov.uk,-1.97289200000000,WS11 9RU,2013-04-09,fhrs_2_en-GB,2,,FHRS,0
328288,261 Huntington Terrace Road,West Chadsmoor,,Cannock,Sid's News,Retailers - other,4613,5,,387195,0,,52.70757300000000,420,287,environmentalhealth@cannockchasedc.gov.uk,Cannock Chase,http://www.cannockchasedc.gov.uk,-2.01873900000000,WS11 5HT,2013-06-03,fhrs_5_en-GB,5,,FHRS,0
328289,41-43 Mill Street,Rumer Hill,,Cannock,Silks,Pub/bar/nightclub,7843,0,,387408,0,,52.68812700000000,641,287,environmentalhealth@cannockchasedc.gov.uk,Cannock Chase,http://www.cannockchasedc.gov.uk,-2.02563900000000,WS11 0DR,2010-05-06,fhrs_5_en-GB,5,,FHRS,5
328290,21b Horsefair,,,Rugeley,Silsila,Restaurant/Cafe/Canteen,1,5,,387273,5,,52.75759300000000,4998,287,environmentalhealth@cannockchasedc.gov.uk,Cannock Chase,http://www.cannockchasedc.gov.uk,-1.93504100000000,WS15 2EJ,2013-09-05,fhrs_5_en-GB,5,,FHRS,0
328291,49 Brownhills Road,Norton Canes,,Cannock,Silver Pan,Takeaway/sandwich shop,7844,5,,387088,5,,52.67398500000000,267,287,environmentalhealth@cannockchasedc.gov.uk,Cannock Chase,http://www.cannockchasedc.gov.uk,-1.97028900000000,WS11 9SE,2012-11-22,fhrs_5_en-GB,5,,FHRS,5
328292,Unit 8 To 10,Lakeside Plaza,Walkmill Lane,Cannock,Silverblades Ice Rink,Hospitals/Childcare/Caring Premises,5,0,,493121,0,,52.67174600000000,40258,287,environmentalhealth@cannockchasedc.gov.uk,Cannock Chase,http://www.cannockchasedc.gov.uk,-2.03398500000000,WS11 0XE,2012-12-19,fhrs_5_en-GB,5,,FHRS,0
328293,154 Lime Lane ,Little Wyrley,,Cannock,SM Garages Ltd. (A5 Services),Retailers - other,4613,0,,387226,0,,52.62735600000000,450,287,environmentalhealth@cannockchasedc.gov.uk,Cannock Chase,http://www.cannockchasedc.gov.uk,-1.99432900000000,WS3 5AR,2009-07-14,fhrs_5_en-GB,5,,FHRS,0
328294,Norton Canes Community Centre,Brownhills Road,Norton Canes,Cannock,Smarties Pre-School,Hospitals/Childcare/Caring Premises,5,5,,387531,0,,52.67325700000000,831,287,environmentalhealth@cannockchasedc.gov.uk,Cannock Chase,http://www.cannockchasedc.gov.uk,-1.96987600000000,WS11 9UQ,2007-04-27,fhrs_5_en-GB,5,,FHRS,0
328295,Unit 28A Martindale Trading Estate,Martindale,Hawks Green,Cannock,Smiffys Cafe,Restaurant/Cafe/Canteen,1,5,,387412,5,,52.69403500000000,6440,287,environmentalhealth@cannockchasedc.gov.uk,Cannock Chase,http://www.cannockchasedc.gov.uk,-2.01213400000000,WS11 7XN,2013-02-25,fhrs_4_en-GB,4,,FHRS,10
328296,Bourne Methodist Church,Hednesford Road,Heath Hayes,Cannock,Smiley Faces,Hospitals/Childcare/Caring Premises,5,0,,387148,0,,52.68880300000000,360,287,environmentalhealth@cannockchasedc.gov.uk,Cannock Chase,http://www.cannockchasedc.gov.uk,-1.98103500000000,WS12 3HL,2008-11-13,fhrs_5_en-GB,5,,FHRS,5
328297,Anglesey Business Park,Littleworth Road,,Cannock,Snack Attack,Mobile caterer,7846,0,,458091,0,,,39053,287,environmentalhealth@cannockchasedc.gov.uk,Cannock Chase,http://www.cannockchasedc.gov.uk,,,2012-10-11,fhrs_5_en-GB,5,,FHRS,0
328298,Unit 2,Hyssop Close,Cannock,Staffs,Snack Shack,Restaurant/Cafe/Canteen,1,0,,387165,5,,52.69808100000000,3824,287,environmentalhealth@cannockchasedc.gov.uk,Cannock Chase,http://www.cannockchasedc.gov.uk,-2.00701500000000,WS11 7XB,2013-08-22,fhrs_5_en-GB,5,,FHRS,0
328299,26 Brook Square,,,Rugeley,Snacky's,Farmers/growers,7838,0,,387081,0,,52.75946300000000,261,287,environmentalhealth@cannockchasedc.gov.uk,Cannock Chase,http://www.cannockchasedc.gov.uk,-1.93635700000000,WS15 2DR,2013-01-29,fhrs_5_en-GB,5,,FHRS,0
328300,Blakeney Way,Kingswood Lakeside,Cannock,Cannock,Snax To Go @ Apc National Sortation,Mobile caterer,7846,0,,735354,0,,,50502,287,environmentalhealth@cannockchasedc.gov.uk,Cannock Chase,http://www.cannockchasedc.gov.uk,,,2015-02-11,fhrs_5_en-GB,5,,FHRS,0
328301,3 Anson Street,,,Rugeley,Snug Coffee And Tea Emporium,Restaurant/Cafe/Canteen,1,0,,703323,0,,52.76112600000000,48457,287,environmentalhealth@cannockchasedc.gov.uk,Cannock Chase,http://www.cannockchasedc.gov.uk,-1.93583600000000,WS15 2BB,2014-09-18,fhrs_5_en-GB,5,,FHRS,0
328302,Mill Street Methodist Church,Mill Street,,Cannock,Soup Kitchen Mill Street Methodist Church,Other catering premises,7841,5,,439571,5,,52.68812700000000,38050,287,environmentalhealth@cannockchasedc.gov.uk,Cannock Chase,http://www.cannockchasedc.gov.uk,-2.02563900000000,WS11 0DR,2014-09-03,fhrs_5_en-GB,5,,FHRS,0
328303,The Green,,,Cannock,South Staffordshire College Cannock Campus,School/college/university,7845,5,,387489,5,,52.69036400000000,709,287,environmentalhealth@cannockchasedc.gov.uk,Cannock Chase,http://www.cannockchasedc.gov.uk,-2.03185400000000,WS11 1UE,2015-01-21,fhrs_5_en-GB,5,,FHRS,0
328304,Progress Drive,Bridgtown,,Cannock,South Staffordshire College Progress Centre,Restaurant/Cafe/Canteen,1,5,,387433,0,,52.67896700000000,6607,287,environmentalhealth@cannockchasedc.gov.uk,Cannock Chase,http://www.cannockchasedc.gov.uk,-2.02345900000000,WS11 0JE,2014-12-09,fhrs_5_en-GB,5,,FHRS,0
328305,107 Fernwood Drive,,,Rugeley,Spar,Retailers - other,4613,5,,387137,0,,52.76587000000000,338,287,environmentalhealth@cannockchasedc.gov.uk,Cannock Chase,http://www.cannockchasedc.gov.uk,-1.94856000000000,WS15 2PY,2010-01-22,fhrs_5_en-GB,5,,FHRS,5
328306,158 Hednesford Road,Heath Hayes,,Cannock,Spar,Retailers - other,4613,0,,387153,5,,52.68881100000000,366,287,environmentalhealth@cannockchasedc.gov.uk,Cannock Chase,http://www.cannockchasedc.gov.uk,-1.98036900000000,WS12 3EA,2014-09-02,fhrs_5_en-GB,5,,FHRS,5
328307,,,,,Sparkling Sugar Cakes,Other catering premises,7841,5,,700972,5,,,48245,287,environmentalhealth@cannockchasedc.gov.uk,Cannock Chase,http://www.cannockchasedc.gov.uk,,,2014-09-08,fhrs_5_en-GB,5,,FHRS,0
328308,,,,,Spencer's Kitchen,Mobile caterer,7846,5,,609293,0,,,43910,287,environmentalhealth@cannockchasedc.gov.uk,Cannock Chase,http://www.cannockchasedc.gov.uk,,,2013-11-07,fhrs_5_en-GB,5,,FHRS,0
328309,172 Walsall Road,,,Cannock,Spice Bazaar,Restaurant/Cafe/Canteen,1,5,,387049,5,,52.68000900000000,16986,287,environmentalhealth@cannockchasedc.gov.uk,Cannock Chase,http://www.cannockchasedc.gov.uk,-2.02692100000000,WS11 0JB,2014-02-25,fhrs_5_en-GB,5,,FHRS,0
328310,13 Market Street,,Hednesford,Cannock,Spice Of Hednesford,Takeaway/sandwich shop,7844,0,,387199,5,,52.70813200000000,4252,287,environmentalhealth@cannockchasedc.gov.uk,Cannock Chase,http://www.cannockchasedc.gov.uk,-1.99829900000000,WS12 1AY,2014-11-17,fhrs_5_en-GB,5,,FHRS,0
328311,192 Walsall Road,,,Cannock,Spices,Other catering premises,7841,10,,536840,10,,52.67577500000000,41569,287,environmentalhealth@cannockchasedc.gov.uk,Cannock Chase,http://www.cannockchasedc.gov.uk,-2.02552800000000,WS11 0JL,2013-04-09,fhrs_3_en-GB,3,,FHRS,5
328312,,,,,Sponge A Lucious,Other catering premises,7841,0,,715600,0,,,48773,287,environmentalhealth@cannockchasedc.gov.uk,Cannock Chase,http://www.cannockchasedc.gov.uk,,,2014-10-03,fhrs_5_en-GB,5,,FHRS,5
328313,Albert Street,,,Cannock,St Aidan's Church Hall,Restaurant/Cafe/Canteen,1,5,,659063,10,,52.70296900000000,45729,287,environmentalhealth@cannockchasedc.gov.uk,Cannock Chase,http://www.cannockchasedc.gov.uk,-2.02609200000000,WS11 5JD,2014-04-30,fhrs_4_en-GB,4,,FHRS,0
328314,Hill Top,,Hednesford,Cannock,St Josephs Rc Primary School,School/college/university,7845,0,,387395,0,,52.70686400000000,6256,287,environmentalhealth@cannockchasedc.gov.uk,Cannock Chase,http://www.cannockchasedc.gov.uk,-1.99764800000000,WS12 1DE,2012-10-17,fhrs_5_en-GB,5,,FHRS,5
328315,St Marys Social Club,Hallcourt Lane,,Cannock,St Mary's Community Centre,Pub/bar/nightclub,7843,0,,482875,0,,52.68706600000000,39994,287,environmentalhealth@cannockchasedc.gov.uk,Cannock Chase,http://www.cannockchasedc.gov.uk,-2.02843400000000,WS11 0AA,2014-09-05,fhrs_5_en-GB,5,,FHRS,0
328316,223 St Michaels Drive,,,Rugeley,St Michael's Bar,Takeaway/sandwich shop,7844,5,,494296,5,,52.74591800000000,40342,287,environmentalhealth@cannockchasedc.gov.uk,Cannock Chase,http://www.cannockchasedc.gov.uk,-1.92374100000000,WS15 1EU,2014-11-27,fhrs_5_en-GB,5,,FHRS,0
328317,211 St Michaels Drive,,,Rugeley,St Michael's Fish Bar,Takeaway/sandwich shop,7844,5,,510018,5,,52.74591800000000,40625,287,environmentalhealth@cannockchasedc.gov.uk,Cannock Chase,http://www.cannockchasedc.gov.uk,-1.92374100000000,WS15 1EU,2014-11-14,fhrs_5_en-GB,5,,FHRS,5
328318,Newman Grove,,,Rugeley,St. Josephs Rc Primary School,School/college/university,7845,0,,387389,0,,52.75296200000000,6202,287,environmentalhealth@cannockchasedc.gov.uk,Cannock Chase,http://www.cannockchasedc.gov.uk,-1.93248500000000,WS15 1BN,2012-09-20,fhrs_5_en-GB,5,,FHRS,5
328319,New Penkridge Road,,,Cannock,St. Lukes Church Of England Primary School,School/college/university,7845,0,,387429,0,,52.69323700000000,659,287,environmentalhealth@cannockchasedc.gov.uk,Cannock Chase,http://www.cannockchasedc.gov.uk,-2.04336700000000,WS11 1HN,2013-04-16,fhrs_5_en-GB,5,,FHRS,0
328320,Hunter Road,,,Cannock,St. Marys Rc Primary School,School/college/university,7845,0,,387194,0,,52.68436900000000,419,287,environmentalhealth@cannockchasedc.gov.uk,Cannock Chase,http://www.cannockchasedc.gov.uk,-2.02892100000000,WS11 0AE,2013-09-25,fhrs_5_en-GB,5,,FHRS,0
328321,Reservoir Road,Littleworth,,Cannock,St. Peter's Primary Ce School,School/college/university,7845,0,,387387,0,,52.70426600000000,619,287,environmentalhealth@cannockchasedc.gov.uk,Cannock Chase,http://www.cannockchasedc.gov.uk,-1.99041100000000,WS12 1BE,2011-10-18,fhrs_5_en-GB,5,,FHRS,5
328322,St Stephens Church Hall,Bideford Way,,Cannock,St. Stephen's Church Hall,Other catering premises,7841,0,,624533,0,,52.68676300000000,44413,287,environmentalhealth@cannockchasedc.gov.uk,Cannock Chase,http://www.cannockchasedc.gov.uk,-2.04717800000000,WS11 1QD,2013-10-20,fhrs_5_en-GB,5,,FHRS,0
328323,72 Stafford Lane,Hednesford,,Cannock,Stafford Lane Stores,Retailers - other,4613,10,,387469,5,,52.70628900000000,683,287,environmentalhealth@cannockchasedc.gov.uk,Cannock Chase,http://www.cannockchasedc.gov.uk,-2.00362700000000,WS12 1LF,2014-07-15,fhrs_3_en-GB,3,,FHRS,10
328324,Blake County High School,Marston Road,High Town,Cannock,Staffordshire University Academy,School/college/university,7845,0,,387401,5,,52.71085400000000,632,287,environmentalhealth@cannockchasedc.gov.uk,Cannock Chase,http://www.cannockchasedc.gov.uk,-2.01711200000000,WS12 4JH,2014-06-24,fhrs_5_en-GB,5,,FHRS,5
328325,,,,,Staffordshire Wedding Cake Company,Other catering premises,7841,10,,387368,0,,,5984,287,environmentalhealth@cannockchasedc.gov.uk,Cannock Chase,http://www.cannockchasedc.gov.uk,,,2011-03-15,fhrs_4_en-GB,4,,FHRS,0
328326,13A Market Square,,,Rugeley,Star Burger,Takeaway/sandwich shop,7844,5,,387034,5,,52.76072100000000,16858,287,environmentalhealth@cannockchasedc.gov.uk,Cannock Chase,http://www.cannockchasedc.gov.uk,-1.93576300000000,WS15 2BJ,2014-11-07,fhrs_5_en-GB,5,,FHRS,5
328327,,,,,Stardust Cakes,Other catering premises,7841,5,,553105,0,,,42221,287,environmentalhealth@cannockchasedc.gov.uk,Cannock Chase,http://www.cannockchasedc.gov.uk,,,2013-06-06,fhrs_5_en-GB,5,,FHRS,0
328328,2 Devon Road,Rumer Hill,,Cannock,Starfish Chippy,Takeaway/sandwich shop,7844,10,,387004,10,,52.68568300000000,121,287,environmentalhealth@cannockchasedc.gov.uk,Cannock Chase,http://www.cannockchasedc.gov.uk,-2.01942400000000,WS11 8EH,2013-08-28,fhrs_3_en-GB,3,,FHRS,5
328329,105-107 Market Street,,Hednesford,Cannock,Station Cafe,Restaurant/Cafe/Canteen,1,5,,387258,0,,52.70911200000000,4818,287,environmentalhealth@cannockchasedc.gov.uk,Cannock Chase,http://www.cannockchasedc.gov.uk,-1.99970500000000,WS12 1AD,2013-01-10,fhrs_5_en-GB,5,,FHRS,5
328330,110 Station Road,Hednesford,,Cannock,Station Road Chippy,Farmers/growers,7838,0,,387479,5,,52.71427200000000,696,287,environmentalhealth@cannockchasedc.gov.uk,Cannock Chase,http://www.cannockchasedc.gov.uk,-1.99806200000000,WS12 4DN,2013-08-20,fhrs_5_en-GB,5,,FHRS,5
328331,Hayes Green Community Centre,Heath Way,Heath Hayes,Cannock,Stepping Stones Day Nursery,Hospitals/Childcare/Caring Premises,5,10,,387140,0,,52.69195900000000,350,287,environmentalhealth@cannockchasedc.gov.uk,Cannock Chase,http://www.cannockchasedc.gov.uk,-1.99961600000000,WS12 3XP,2013-06-21,fhrs_4_en-GB,4,,FHRS,10
328332,207 Cannock Road,,Chadsmoor,Cannock,Stews Fruit & Veg,Retailers - other,4613,5,,387397,5,,52.70292600000000,6269,287,environmentalhealth@cannockchasedc.gov.uk,Cannock Chase,http://www.cannockchasedc.gov.uk,-2.01555500000000,WS11 5DD,2011-06-14,fhrs_5_en-GB,5,,FHRS,5
328333,264 Walsall Road,,,Cannock,Stumble Inn,Pub/bar/nightclub,7843,5,,387505,0,,52.67577500000000,741,287,environmentalhealth@cannockchasedc.gov.uk,Cannock Chase,http://www.cannockchasedc.gov.uk,-2.02552800000000,WS11 0JL,2013-05-15,fhrs_5_en-GB,5,,FHRS,5
328334,@ Burger King Uk Ltd,Western Springs Road,,Rugeley,Subway,Restaurant/Cafe/Canteen,1,0,,730001,0,,52.75876300000000,50273,287,environmentalhealth@cannockchasedc.gov.uk,Cannock Chase,http://www.cannockchasedc.gov.uk,-1.93804800000000,WS15 2AS,2015-01-08,fhrs_5_en-GB,5,,FHRS,5
328335,4 Wolverhampton Road,,,Cannock,Subway,Takeaway/sandwich shop,7844,0,,387177,5,,52.68760400000000,393,287,environmentalhealth@cannockchasedc.gov.uk,Cannock Chase,http://www.cannockchasedc.gov.uk,-2.03192600000000,WS11 1AH,2012-07-24,fhrs_5_en-GB,5,,FHRS,0
328336,,,,,Sugar Sugar,Other catering premises,7841,0,,528976,5,,,41213,287,environmentalhealth@cannockchasedc.gov.uk,Cannock Chase,http://www.cannockchasedc.gov.uk,,,2013-03-22,fhrs_5_en-GB,5,,FHRS,0
328337,Station Road,,,Rugeley,Sunflowers Day Nursery,Hospitals/Childcare/Caring Premises,5,5,,387480,0,,52.76431600000000,697,287,environmentalhealth@cannockchasedc.gov.uk,Cannock Chase,http://www.cannockchasedc.gov.uk,-1.93414200000000,WS15 2HG,2012-11-30,fhrs_5_en-GB,5,,FHRS,5
328338,14 Exeter Road,,,Cannock,Suzie's Buffet Catering,Other catering premises,7841,0,,387135,0,,52.68732900000000,336,287,environmentalhealth@cannockchasedc.gov.uk,Cannock Chase,http://www.cannockchasedc.gov.uk,-2.04853900000000,WS11 1QE,2013-03-28,fhrs_5_en-GB,5,,FHRS,0
328339,,,,,Sweetopia Delights,Retailers - other,4613,5,,609289,0,,,43845,287,environmentalhealth@cannockchasedc.gov.uk,Cannock Chase,http://www.cannockchasedc.gov.uk,,,2013-09-12,fhrs_5_en-GB,5,,FHRS,0
328340,2 Bow St Chambers,Market Square,,Rugeley,Sweets For You,Retailers - other,4613,0,,458089,0,,52.76047000000000,39045,287,environmentalhealth@cannockchasedc.gov.uk,Cannock Chase,http://www.cannockchasedc.gov.uk,-1.93610400000000,WS15 2AZ,2012-10-11,fhrs_5_en-GB,5,,FHRS,0
328341,Brook House,Brook Square,,Rugeley,Sweets 'N' Treats,Retailers - other,4613,0,,426695,0,,52.75953500000000,37434,287,environmentalhealth@cannockchasedc.gov.uk,Cannock Chase,http://www.cannockchasedc.gov.uk,-1.93533500000000,WS15 2DT,2012-07-09,fhrs_5_en-GB,5,,FHRS,5
328342,272 Hednesford Road,Norton Canes,,Cannock,Sycamore Working Mens Club,Pub/bar/nightclub,7843,5,,387156,5,,52.67859800000000,369,287,environmentalhealth@cannockchasedc.gov.uk,Cannock Chase,http://www.cannockchasedc.gov.uk,-1.97314100000000,WS11 9SA,2010-04-12,fhrs_5_en-GB,5,,FHRS,5
328343,Taaj Fine Dining Watling Court,Orbital Plaza,Bridge Street,Cannock,Taaj Fine Dining,Restaurant/Cafe/Canteen,1,10,,454430,10,,52.67390500000000,38753,287,environmentalhealth@cannockchasedc.gov.uk,Cannock Chase,http://www.cannockchasedc.gov.uk,-2.02589700000000,WS11 0DQ,2013-10-20,fhrs_3_en-GB,3,,FHRS,10
328344,1 Bracken Close,Hednesford ,,Cannock,Tackeroo Public House,Pub/bar/nightclub,7843,5,,387078,5,,52.72213700000000,239,287,environmentalhealth@cannockchasedc.gov.uk,Cannock Chase,http://www.cannockchasedc.gov.uk,-1.99320500000000,WS12 4DU,2010-03-17,fhrs_5_en-GB,5,,FHRS,5
328345,31 Horse Fair,,,Rugeley,Taj Mahal,Takeaway/sandwich shop,7844,5,,387193,5,,52.75759300000000,416,287,environmentalhealth@cannockchasedc.gov.uk,Cannock Chase,http://www.cannockchasedc.gov.uk,-1.93504100000000,WS15 2EJ,2014-06-18,fhrs_5_en-GB,5,,FHRS,5
328346,28-30 Talbot Street,,,Rugeley,Talbot House Nursing Home,Hospitals/Childcare/Caring Premises,5,10,,387486,10,,52.75815700000000,706,287,environmentalhealth@cannockchasedc.gov.uk,Cannock Chase,http://www.cannockchasedc.gov.uk,-1.93172100000000,WS15 2EQ,2014-06-17,fhrs_4_en-GB,4,,FHRS,0
328347,60 John Street,Wimblebury,,Cannock,Tasty Bites,Takeaway/sandwich shop,7844,5,,387555,10,,52.70494800000000,898,287,environmentalhealth@cannockchasedc.gov.uk,Cannock Chase,http://www.cannockchasedc.gov.uk,-2.01453400000000,WS11 5HP,2013-05-20,fhrs_4_en-GB,4,,FHRS,5
328348,,,,,Taylor Made Cakes For All Occasions,Other catering premises,7841,5,,609295,0,,,43918,287,environmentalhealth@cannockchasedc.gov.uk,Cannock Chase,http://www.cannockchasedc.gov.uk,,,2013-10-25,fhrs_5_en-GB,5,,FHRS,5
328349,"3, Market Hall Street",,,Cannock,Taylors Restaurant,Restaurant/Cafe/Canteen,1,5,,387348,0,,52.68949200000000,576,287,environmentalhealth@cannockchasedc.gov.uk,Cannock Chase,http://www.cannockchasedc.gov.uk,-2.03012200000000,WS11 1EB,2012-06-25,fhrs_5_en-GB,5,,FHRS,5
328350,Magistrates Court,200a Wolverhampton Road,,Cannock,Tea Bar - Magistrates Court,Restaurant/Cafe/Canteen,1,0,,387180,0,,52.68472600000000,397,287,environmentalhealth@cannockchasedc.gov.uk,Cannock Chase,http://www.cannockchasedc.gov.uk,-2.03566600000000,WS11 1AT,2009-07-23,fhrs_5_en-GB,5,,FHRS,0
328351,157 Hednesford Road,Heath Hayes,,Cannock,Tennants Craft Bakery,Retailers - other,4613,0,,387152,0,,52.69027700000000,365,287,environmentalhealth@cannockchasedc.gov.uk,Cannock Chase,http://www.cannockchasedc.gov.uk,-1.98371200000000,WS12 3HN,2013-06-07,fhrs_5_en-GB,5,,FHRS,5
328352,195 Cannock Road,Chadsmoor,,Cannock,Tennants Craft Bakery,Farmers/growers,7838,0,,387104,0,,52.70292600000000,288,287,environmentalhealth@cannockchasedc.gov.uk,Cannock Chase,http://www.cannockchasedc.gov.uk,-2.01555500000000,WS11 5DD,2013-08-02,fhrs_5_en-GB,5,,FHRS,5
328353,58 Market Street,Hednesford,,Cannock,Tennants Craft Bakery,Retailers - other,4613,0,,387275,5,,52.70929100000000,500,287,environmentalhealth@cannockchasedc.gov.uk,Cannock Chase,http://www.cannockchasedc.gov.uk,-1.99908300000000,WS12 1AG,2012-09-20,fhrs_5_en-GB,5,,FHRS,0
328354,"Stall 49, Cannock Indoor Market",Market Hall Street,,Cannock,Tennants Craft Bakery,Retailers - other,4613,0,,387339,0,,52.68949200000000,567,287,environmentalhealth@cannockchasedc.gov.uk,Cannock Chase,http://www.cannockchasedc.gov.uk,-2.03012200000000,WS11 1EB,2013-10-08,fhrs_5_en-GB,5,,FHRS,0
328355,"Unit 22&23 InShops,Cannock Shopping Centre",Market Hall Street,,Cannock,Tennants Craft Bakery,Retailers - other,4613,0,,387338,5,,52.68949200000000,565,287,environmentalhealth@cannockchasedc.gov.uk,Cannock Chase,http://www.cannockchasedc.gov.uk,-2.03012200000000,WS11 1EB,2013-08-08,fhrs_5_en-GB,5,,FHRS,5
328356,10 Lichfield Street,,,Rugeley,Terrazza Restaurant,Restaurant/Cafe/Canteen,1,0,,387224,0,,52.75845500000000,447,287,environmentalhealth@cannockchasedc.gov.uk,Cannock Chase,http://www.cannockchasedc.gov.uk,-1.93384000000000,WS15 2EH,2012-10-10,fhrs_5_en-GB,5,,FHRS,0
328357,Tesco Stores Ltd.,Heath Way,Heath Hayes,Cannock,Tesco,Retailers - supermarkets/hypermarkets,7840,0,,387141,5,,52.69215700000000,352,287,environmentalhealth@cannockchasedc.gov.uk,Cannock Chase,http://www.cannockchasedc.gov.uk,-1.99896500000000,WS12 3YY,2014-03-06,fhrs_5_en-GB,5,,FHRS,5
328358,Victoria Shopping Park,Victoria Street,Hednesford,Cannock,Tesco,Retailers - supermarkets/hypermarkets,7840,0,,505448,10,,52.70885100000000,40533,287,environmentalhealth@cannockchasedc.gov.uk,Cannock Chase,http://www.cannockchasedc.gov.uk,-2.00047500000000,WS12 1DN,2013-02-01,fhrs_4_en-GB,4,,FHRS,5
328359,Power Station Road,,,Rugeley,Tesco Cafe & Canteen,Retailers - supermarkets/hypermarkets,7840,10,,609282,10,,52.76436000000000,43713,287,environmentalhealth@cannockchasedc.gov.uk,Cannock Chase,http://www.cannockchasedc.gov.uk,-1.93148900000000,WS15 2HS,2013-10-11,fhrs_3_en-GB,3,,FHRS,5
328360,Victoria Shopping Park,Victoria Street,,Hednesford,Tesco Customer Cafe,Restaurant/Cafe/Canteen,1,0,,510019,0,,52.70885100000000,40633,287,environmentalhealth@cannockchasedc.gov.uk,Cannock Chase,http://www.cannockchasedc.gov.uk,-2.00047500000000,WS12 1DN,2013-02-11,fhrs_5_en-GB,5,,FHRS,5
328361,147-155  Stafford Road,,,Cannock,Tesco Express,Retailers - supermarkets/hypermarkets,7840,0,,609286,0,,52.69558600000000,43825,287,environmentalhealth@cannockchasedc.gov.uk,Cannock Chase,http://www.cannockchasedc.gov.uk,-2.03342600000000,WS11 4AH,2013-10-03,fhrs_5_en-GB,5,,FHRS,0
328362,Victoria Shopping Park,Victoria Street,,Hednesford,Tesco Staff Canteen,Other catering premises,7841,0,,504309,0,,52.70885100000000,40477,287,environmentalhealth@cannockchasedc.gov.uk,Cannock Chase,http://www.cannockchasedc.gov.uk,-2.00047500000000,WS12 1DN,2013-01-23,fhrs_5_en-GB,5,,FHRS,0
328363,Power Station Road,,,Rugeley,Tesco Stores Ltd.,Retailers - supermarkets/hypermarkets,7840,0,,609283,0,,52.76436000000000,43717,287,environmentalhealth@cannockchasedc.gov.uk,Cannock Chase,http://www.cannockchasedc.gov.uk,-1.93148900000000,WS15 2HS,2013-10-11,fhrs_5_en-GB,5,,FHRS,0
328364,Celcon House,Power Station Road,,Rugeley,The Academy,Hospitals/Childcare/Caring Premises,5,5,,716186,5,,52.76436000000000,49405,287,environmentalhealth@cannockchasedc.gov.uk,Cannock Chase,http://www.cannockchasedc.gov.uk,-1.93148900000000,WS15 2HS,2014-11-04,fhrs_5_en-GB,5,,FHRS,5
328365,,,,,The Annie Grace Bakery,Other catering premises,7841,5,,387344,0,,,5731,287,environmentalhealth@cannockchasedc.gov.uk,Cannock Chase,http://www.cannockchasedc.gov.uk,,,2010-11-05,fhrs_5_en-GB,5,,FHRS,0
328366,Behind Toby Carvery,Watling Street,Norton Canes,Cannock,The Beach Hut,Restaurant/Cafe/Canteen,1,0,,616419,0,,52.66102300000000,44150,287,environmentalhealth@cannockchasedc.gov.uk,Cannock Chase,http://www.cannockchasedc.gov.uk,-1.97368400000000,WS11 9ND,2013-10-15,fhrs_5_en-GB,5,,FHRS,0
328367,Stall 5,Rugeley Indoor Market,Bees Lane,Rugeley,The Bread Basket,Retailers - other,4613,0,,387063,0,,52.76985000000000,1866,287,environmentalhealth@cannockchasedc.gov.uk,Cannock Chase,http://www.cannockchasedc.gov.uk,-1.94327900000000,WS15 2PE,2013-06-04,fhrs_5_en-GB,5,,FHRS,0
328368,Norton Canes Motorway Service,Bettys Lane,Norton Canes,Cannock,The Burger Company,Takeaway/sandwich shop,7844,0,,387319,0,,52.66495000000000,5424,287,environmentalhealth@cannockchasedc.gov.uk,Cannock Chase,http://www.cannockchasedc.gov.uk,-1.96763400000000,WS11 9UX,2011-09-22,fhrs_5_en-GB,5,,FHRS,0
328369,,,,,The Cake Company ,Other catering premises,7841,0,,387533,0,,,833,287,environmentalhealth@cannockchasedc.gov.uk,Cannock Chase,http://www.cannockchasedc.gov.uk,,,2010-08-10,fhrs_5_en-GB,5,,FHRS,5
328370,,,,,The Cake Fairy,Other catering premises,7841,0,,387200,0,,,4268,287,environmentalhealth@cannockchasedc.gov.uk,Cannock Chase,http://www.cannockchasedc.gov.uk,,,2009-08-18,fhrs_5_en-GB,5,,FHRS,0
328371,141 Main Road,,,Rugeley,The Castle,Pub/bar/nightclub,7843,10,,387327,0,,52.74494500000000,551,287,environmentalhealth@cannockchasedc.gov.uk,Cannock Chase,http://www.cannockchasedc.gov.uk,-1.92149100000000,WS15 1DX,2014-10-15,fhrs_4_en-GB,4,,FHRS,10
328372,62 North Street,,,Cannock,The Castle Inn,Pub/bar/nightclub,7843,10,,387290,5,,52.67730300000000,516,287,environmentalhealth@cannockchasedc.gov.uk,Cannock Chase,http://www.cannockchasedc.gov.uk,-2.02752600000000,WS11 0AZ,2010-02-24,fhrs_4_en-GB,4,,FHRS,5
328373,1 Huntington Terrace Road ,West Chadsmoor,,Cannock,The Central Store,Retailers - other,4613,10,,387554,0,,52.70091100000000,896,287,environmentalhealth@cannockchasedc.gov.uk,Cannock Chase,http://www.cannockchasedc.gov.uk,-2.02079300000000,WS11 5HA,2010-10-27,fhrs_4_en-GB,4,,FHRS,5
328374,Hagley Road,,,Rugeley,The Chase Inn,Pub/bar/nightclub,7843,10,,387012,10,,52.76070700000000,134,287,environmentalhealth@cannockchasedc.gov.uk,Cannock Chase,http://www.cannockchasedc.gov.uk,-1.94345400000000,WS15 2AL,2013-05-13,fhrs_3_en-GB,3,,FHRS,10
328375,42 Market Street,Hednesford,,Cannock,The Cobfather,Takeaway/sandwich shop,7844,5,,387223,5,,52.70929100000000,4445,287,environmentalhealth@cannockchasedc.gov.uk,Cannock Chase,http://www.cannockchasedc.gov.uk,-1.99908300000000,WS12 1AG,2013-10-02,fhrs_5_en-GB,5,,FHRS,5
328376,Towers Business Park,Power Station Road,,Rugeley,The Colliers,Pub/bar/nightclub,7843,0,,387370,0,,52.76017900000000,6002,287,environmentalhealth@cannockchasedc.gov.uk,Cannock Chase,http://www.cannockchasedc.gov.uk,-1.93005900000000,WS15 2HJ,2013-02-22,fhrs_5_en-GB,5,,FHRS,0
328377,83 High Green,,,Cannock,The Courtyard,Pub/bar/nightclub,7843,5,,387443,0,,52.68927600000000,6690,287,environmentalhealth@cannockchasedc.gov.uk,Cannock Chase,http://www.cannockchasedc.gov.uk,-2.03192700000000,WS11 1BN,2013-06-06,fhrs_5_en-GB,5,,FHRS,5
328378,Crown Inn,Upper Brook Street,,Rugeley,The Crown,Pub/bar/nightclub,7843,5,,387491,5,,52.75896900000000,714,287,environmentalhealth@cannockchasedc.gov.uk,Cannock Chase,http://www.cannockchasedc.gov.uk,-1.93631400000000,WS15 2DN,2013-02-22,fhrs_4_en-GB,4,,FHRS,10
328379,264 Cannock Road,Chadsmoor,,Cannock,The Flaggin Duck,Pub/bar/nightclub,7843,5,,387108,5,,52.69785500000000,295,287,environmentalhealth@cannockchasedc.gov.uk,Cannock Chase,http://www.cannockchasedc.gov.uk,-2.02145700000000,WS11 5BU,2010-11-04,fhrs_5_en-GB,5,,FHRS,0
328380,"Unit 106, Anglesey Court",Wheelhouse Road,,Rugeley,The Food Factory,Restaurant/Cafe/Canteen,1,10,,387083,5,,52.74953300000000,2634,287,environmentalhealth@cannockchasedc.gov.uk,Cannock Chase,http://www.cannockchasedc.gov.uk,-1.91283100000000,WS15 1UL,2013-02-27,fhrs_3_en-GB,3,,FHRS,10
328381,Brewery Street,,,Rugeley,The Glassworks,Pub/bar/nightclub,7843,0,,387085,5,,52.75919300000000,2639,287,environmentalhealth@cannockchasedc.gov.uk,Cannock Chase,http://www.cannockchasedc.gov.uk,-1.93468300000000,WS15 2DY,2012-04-19,fhrs_5_en-GB,5,,FHRS,0
328382,Cannock Wood Street,Rawnsley,,Cannock,The Grange Residential Home,Hospitals/Childcare/Caring Premises,5,0,,387112,5,,52.70989700000000,301,287,environmentalhealth@cannockchasedc.gov.uk,Cannock Chase,http://www.cannockchasedc.gov.uk,-1.96419700000000,WS12 0PW,2014-09-09,fhrs_5_en-GB,5,,FHRS,5
328383,330 Cannock Road,Heath Hayes,,Cannock,The Heathers Nursing Home,Hospitals/Childcare/Caring Premises,5,0,,386988,0,,52.70002200000000,100,287,environmentalhealth@cannockchasedc.gov.uk,Cannock Chase,http://www.cannockchasedc.gov.uk,-1.98703800000000,WS12 2HA,2012-05-22,fhrs_5_en-GB,5,,FHRS,5
328384,10 Eskrett Street,Hednesford,,Cannock,The Hen House,Pub/bar/nightclub,7843,5,,387007,5,,52.70759200000000,127,287,environmentalhealth@cannockchasedc.gov.uk,Cannock Chase,http://www.cannockchasedc.gov.uk,-1.99997100000000,WS12 1AR,2014-06-09,fhrs_5_en-GB,5,,FHRS,5
328385,10 Eskrett Street,Hednesford,,Cannock,The Henhouse - Kitchen,Pub/bar/nightclub,7843,5,,387375,5,,52.70759200000000,6031,287,environmentalhealth@cannockchasedc.gov.uk,Cannock Chase,http://www.cannockchasedc.gov.uk,-1.99997100000000,WS12 1AR,2011-03-03,fhrs_5_en-GB,5,,FHRS,5
328386,Jubilee Inn,Pye Green Road,,Cannock,The Jubilee,Pub/bar/nightclub,7843,5,,387364,5,,52.71141000000000,597,287,environmentalhealth@cannockchasedc.gov.uk,Cannock Chase,http://www.cannockchasedc.gov.uk,-2.02477900000000,WS11 5RS,2013-03-21,fhrs_5_en-GB,5,,FHRS,0
328387,74 Market Street,Hednesford,,Cannock,The Kitchen Cupboard,Retailers - other,4613,0,,387202,0,,52.70929100000000,4278,287,environmentalhealth@cannockchasedc.gov.uk,Cannock Chase,http://www.cannockchasedc.gov.uk,-1.99908300000000,WS12 1AG,2009-08-13,fhrs_4_en-GB,4,,FHRS,10
328388,The Flaggin Lamb,70 John Street,Wimblebury,Cannock,The Lamb & Flag,Pub/bar/nightclub,7843,0,,387214,0,,52.70085700000000,435,287,environmentalhealth@cannockchasedc.gov.uk,Cannock Chase,http://www.cannockchasedc.gov.uk,-1.97783300000000,WS12 2RJ,2013-08-29,fhrs_5_en-GB,5,,FHRS,5
328389,The Linford Arms,High Green,,Cannock,The Linford Arms   Wetherspoons,Pub/bar/nightclub,7843,0,,387060,0,,52.68927600000000,181,287,environmentalhealth@cannockchasedc.gov.uk,Cannock Chase,http://www.cannockchasedc.gov.uk,-2.03192700000000,WS11 1BN,2013-09-23,fhrs_5_en-GB,5,,FHRS,0
328390,4 Queensway,,,Rugeley,The Mayflower,Takeaway/sandwich shop,7844,10,,386997,15,,52.75172500000000,1108,287,environmentalhealth@cannockchasedc.gov.uk,Cannock Chase,http://www.cannockchasedc.gov.uk,-1.93955400000000,WS15 1NN,2013-05-08,fhrs_2_en-GB,2,,FHRS,5
328391,16 Brook Square,,,Rugeley,The Mediterranean,Takeaway/sandwich shop,7844,5,,387314,10,,52.75946300000000,5351,287,environmentalhealth@cannockchasedc.gov.uk,Cannock Chase,http://www.cannockchasedc.gov.uk,-1.93635700000000,WS15 2DR,2013-09-06,fhrs_3_en-GB,3,,FHRS,10
328392,83 Cannock Road,Chadsmoor,,Cannock,The Midcounties Co Operative,Retailers - supermarkets/hypermarkets,7840,0,,387103,0,,52.69785500000000,287,287,environmentalhealth@cannockchasedc.gov.uk,Cannock Chase,http://www.cannockchasedc.gov.uk,-2.02145700000000,WS11 5BU,2012-07-06,fhrs_5_en-GB,5,,FHRS,5
328393,West Midlands Co-operative,Anglesey Street,Hednesford,Cannock,The Midcounties Co Operative,Retailers - supermarkets/hypermarkets,7840,0,,387159,0,,52.70873400000000,375,287,environmentalhealth@cannockchasedc.gov.uk,Cannock Chase,http://www.cannockchasedc.gov.uk,-2.00194000000000,WS12 1AB,2013-10-18,fhrs_5_en-GB,5,,FHRS,0
328394,Co-operative Retail Services Ltd.,Brownhills Road,Norton Canes,Cannock,The Midcounties Co-operative,Retailers - supermarkets/hypermarkets,7840,5,,387082,0,,52.67398500000000,263,287,environmentalhealth@cannockchasedc.gov.uk,Cannock Chase,http://www.cannockchasedc.gov.uk,-1.97028900000000,WS11 9SE,2011-06-17,fhrs_5_en-GB,5,,FHRS,0
328395,Green Lane,Springfields,,Rugeley,The Moderation,Pub/bar/nightclub,7843,5,,387453,5,,52.76503400000000,6707,287,environmentalhealth@cannockchasedc.gov.uk,Cannock Chase,http://www.cannockchasedc.gov.uk,-1.94930200000000,WS15 2GS,2011-11-22,fhrs_5_en-GB,5,,FHRS,5
328396,4 John Street,Chadsmoor,,Cannock,The Nest,Pub/bar/nightclub,7843,0,,387212,0,,52.70494800000000,431,287,environmentalhealth@cannockchasedc.gov.uk,Cannock Chase,http://www.cannockchasedc.gov.uk,-2.01453400000000,WS11 5HP,2013-11-07,fhrs_5_en-GB,5,,FHRS,0
328397,The Orbital,Eastern Way,,Cannock,The Orbital,Restaurant/Cafe/Canteen,1,0,,387054,5,,52.67456200000000,17006,287,environmentalhealth@cannockchasedc.gov.uk,Cannock Chase,http://www.cannockchasedc.gov.uk,-2.02265800000000,WS11 8XR,2013-02-25,fhrs_5_en-GB,5,,FHRS,5
328398,70 John Street,Wimblebury,,Cannock,The Phoenix Takeaway,Takeaway/sandwich shop,7844,0,,387215,5,,52.69883500000000,436,287,environmentalhealth@cannockchasedc.gov.uk,Cannock Chase,http://www.cannockchasedc.gov.uk,-1.97931400000000,WS12 2RN,2013-03-27,fhrs_5_en-GB,5,,FHRS,5
328399,114 Pye Green Road,,,Cannock,The Pied Piper,Pub/bar/nightclub,7843,0,,387371,10,,52.69485000000000,601,287,environmentalhealth@cannockchasedc.gov.uk,Cannock Chase,http://www.cannockchasedc.gov.uk,-2.03147300000000,WS11 5RZ,2013-04-05,fhrs_4_en-GB,4,,FHRS,5
328400,The Plaza,Horse Fair,,Rugeley,The Plaza    Wetherspoons,Pub/bar/nightclub,7843,0,,387064,0,,52.75759300000000,187,287,environmentalhealth@cannockchasedc.gov.uk,Cannock Chase,http://www.cannockchasedc.gov.uk,-1.93504100000000,WS15 2EJ,2013-08-20,fhrs_5_en-GB,5,,FHRS,5
328401,The Plough Inn ,56 Main Road,Brereton,Rugeley,The Plough,Pub/bar/nightclub,7843,0,,387324,0,,52.74723000000000,549,287,environmentalhealth@cannockchasedc.gov.uk,Cannock Chase,http://www.cannockchasedc.gov.uk,-1.92439100000000,WS15 1DU,2009-08-27,fhrs_5_en-GB,5,,FHRS,0
328402,The Rag,Ironstone Road,,Cannock,The Rag,Restaurant/Cafe/Canteen,1,5,,458095,10,,52.70345500000000,39158,287,environmentalhealth@cannockchasedc.gov.uk,Cannock Chase,http://www.cannockchasedc.gov.uk,-1.94767100000000,WS12 0QD,2013-08-15,fhrs_4_en-GB,4,,FHRS,5
328403,Ironstone Road,,,Cannock,The Rag Shopery,Retailers - other,4613,0,,578473,0,,52.70345500000000,43101,287,environmentalhealth@cannockchasedc.gov.uk,Cannock Chase,http://www.cannockchasedc.gov.uk,-1.94767100000000,WS12 0QD,2013-08-15,fhrs_5_en-GB,5,,FHRS,5
328404,38 Longford Road,,,Cannock,The Rainbow Cafe,Restaurant/Cafe/Canteen,1,5,,387244,0,,52.67761700000000,466,287,environmentalhealth@cannockchasedc.gov.uk,Cannock Chase,http://www.cannockchasedc.gov.uk,-2.03082400000000,WS11 0DF,2013-02-08,fhrs_5_en-GB,5,,FHRS,5
328405,101 Fernwood Drive,,,Rugeley,The Raj,Takeaway/sandwich shop,7844,10,,387010,10,,52.76587000000000,130,287,environmentalhealth@cannockchasedc.gov.uk,Cannock Chase,http://www.cannockchasedc.gov.uk,-1.94856000000000,WS15 2PY,2013-01-31,fhrs_3_en-GB,3,,FHRS,10
328406,532 Littleworth Road,,,Cannock,The Redforte Tandoori Takeaway,Takeaway/sandwich shop,7844,10,,387030,10,,52.70702200000000,16838,287,environmentalhealth@cannockchasedc.gov.uk,Cannock Chase,http://www.cannockchasedc.gov.uk,-1.97077000000000,WS12 1JD,2013-03-06,fhrs_3_en-GB,3,,FHRS,10
328407,52-54 Stafford Road,,,Cannock,The Roebuck,Pub/bar/nightclub,7843,5,,387471,5,,52.69250300000000,688,287,environmentalhealth@cannockchasedc.gov.uk,Cannock Chase,http://www.cannockchasedc.gov.uk,-2.03201800000000,WS11 4AG,2013-03-19,fhrs_4_en-GB,4,,FHRS,10
328408,,,,,The Rustic Kitchen,Manufacturers/packers,7839,0,,387457,0,,,6722,287,environmentalhealth@cannockchasedc.gov.uk,Cannock Chase,http://www.cannockchasedc.gov.uk,,,2011-11-30,fhrs_5_en-GB,5,,FHRS,0
328409,7 Anglesey Street,Hednesford,,Cannock,The Salvation Army,Other catering premises,7841,0,,387160,5,,52.70873400000000,376,287,environmentalhealth@cannockchasedc.gov.uk,Cannock Chase,http://www.cannockchasedc.gov.uk,-2.00194000000000,WS12 1AB,2014-08-08,fhrs_5_en-GB,5,,FHRS,5
328410,,,,,The Shake Shack,Mobile caterer,7846,0,,633708,0,,,44729,287,environmentalhealth@cannockchasedc.gov.uk,Cannock Chase,http://www.cannockchasedc.gov.uk,,,2014-02-14,fhrs_5_en-GB,5,,FHRS,0
328411,1 Union Street,Bridgtown,,Cannock,The Shop,Retailers - other,4613,5,,571559,0,,52.67522600000000,42849,287,environmentalhealth@cannockchasedc.gov.uk,Cannock Chase,http://www.cannockchasedc.gov.uk,-2.02759800000000,WS11 0BY,2013-07-10,fhrs_4_en-GB,4,,FHRS,10
328412,The Shrew,2 Market Street,,Rugeley,The Shrew,Pub/bar/nightclub,7843,10,,387281,5,,52.76217649000000,509,287,environmentalhealth@cannockchasedc.gov.uk,Cannock Chase,http://www.cannockchasedc.gov.uk,-1.93373851000000,WS15 ,2010-07-21,fhrs_4_en-GB,4,,FHRS,5
328413,118 Wolseley Road,,,Rugeley,The Stag's Leap,Pub/bar/nightclub,7843,0,,387031,0,,52.76932700000000,16846,287,environmentalhealth@cannockchasedc.gov.uk,Cannock Chase,http://www.cannockchasedc.gov.uk,-1.94036000000000,WS15 2ET,2013-08-19,fhrs_5_en-GB,5,,FHRS,5
328414,123 Hednesford Road,Heath Hayes,,Cannock,The Talbot,Pub/bar/nightclub,7843,5,,387018,0,,52.68880300000000,140,287,environmentalhealth@cannockchasedc.gov.uk,Cannock Chase,http://www.cannockchasedc.gov.uk,-1.98103500000000,WS12 3HL,2011-08-17,fhrs_5_en-GB,5,,FHRS,0
328415,Littleworth Road,,,Cannock,The Trafalgar,Pub/bar/nightclub,7843,0,,387229,0,,52.70598200000000,454,287,environmentalhealth@cannockchasedc.gov.uk,Cannock Chase,http://www.cannockchasedc.gov.uk,-1.98107200000000,WS12 1HY,2014-03-03,fhrs_5_en-GB,5,,FHRS,0
328416,Market Square ,,,Rugeley,The Vaults ,Pub/bar/nightclub,7843,5,,387259,5,,52.76043400000000,482,287,environmentalhealth@cannockchasedc.gov.uk,Cannock Chase,http://www.cannockchasedc.gov.uk,-1.93597100000000,WS15 2BL,2012-01-23,fhrs_5_en-GB,5,,FHRS,5
328417,The Vine Inn,Sheep Fair ,,Rugeley,The Vine Inn,Pub/bar/nightclub,7843,10,,387464,10,,52.76052500000000,678,287,environmentalhealth@cannockchasedc.gov.uk,Cannock Chase,http://www.cannockchasedc.gov.uk,-1.93915700000000,WS15 2AT,2010-01-08,fhrs_3_en-GB,3,,FHRS,5
328418,,,,,Three Angels Cakes & Catering,Other catering premises,7841,0,,387391,5,,,6219,287,environmentalhealth@cannockchasedc.gov.uk,Cannock Chase,http://www.cannockchasedc.gov.uk,,,2011-05-05,fhrs_5_en-GB,5,,FHRS,0
328419,28-30 East Street,Bridgtown,,Cannock,Tiddlywinks Nursery (Cannock) Ltd,Hospitals/Childcare/Caring Premises,5,0,,387337,5,,52.67615200000000,5632,287,environmentalhealth@cannockchasedc.gov.uk,Cannock Chase,http://www.cannockchasedc.gov.uk,-2.02714000000000,WS11 0BU,2014-10-22,fhrs_5_en-GB,5,,FHRS,5
328420,61 Union Street,Bridgtown,,Cannock,Tiny Toez @ Nutwood Nursery,Hospitals/Childcare/Caring Premises,5,0,,387490,5,,52.67424700000000,712,287,environmentalhealth@cannockchasedc.gov.uk,Cannock Chase,http://www.cannockchasedc.gov.uk,-2.02610400000000,WS11 0BS,2014-09-24,fhrs_5_en-GB,5,,FHRS,0
328421,Cannock Road,Chadsmoor,,Cannock,Tiny Toez Children's Day Nurseries Ltd.,Hospitals/Childcare/Caring Premises,5,5,,387101,0,,52.69785500000000,284,287,environmentalhealth@cannockchasedc.gov.uk,Cannock Chase,http://www.cannockchasedc.gov.uk,-2.02145700000000,WS11 5BU,2013-11-07,fhrs_5_en-GB,5,,FHRS,5
328422,123 Walsall Road,Norton Canes,,Cannock,Tiwana Drinks Ltd.,Retailers - other,4613,0,,387506,0,,52.67173000000000,743,287,environmentalhealth@cannockchasedc.gov.uk,Cannock Chase,http://www.cannockchasedc.gov.uk,-1.97352900000000,WS11 9QX,2009-07-14,fhrs_5_en-GB,5,,FHRS,0
328423,The Turf Lodge,Watling Street,Norton Canes,Cannock,Toby Carvery,Pub/bar/nightclub,7843,0,,516555,0,,52.66102300000000,40965,287,environmentalhealth@cannockchasedc.gov.uk,Cannock Chase,http://www.cannockchasedc.gov.uk,-1.97368400000000,WS11 9ND,2013-02-28,fhrs_5_en-GB,5,,FHRS,5
328424,,,,,Tonkerbelle's Treats,Other catering premises,7841,0,,510020,0,,,40689,287,environmentalhealth@cannockchasedc.gov.uk,Cannock Chase,http://www.cannockchasedc.gov.uk,,,2013-02-15,fhrs_5_en-GB,5,,FHRS,5
328425,4 Arthur Street,Wimblebury,,Cannock,Top Nosh,Other catering premises,7841,5,,520644,0,,52.70129800000000,41037,287,environmentalhealth@cannockchasedc.gov.uk,Cannock Chase,http://www.cannockchasedc.gov.uk,-1.97909100000000,WS12 2RY,2013-03-01,fhrs_5_en-GB,5,,FHRS,0
328426,387-389 Pye Green Road,,,Cannock,Top Stop Services,Retailers - other,4613,10,,387561,0,,52.70841700000000,922,287,environmentalhealth@cannockchasedc.gov.uk,Cannock Chase,http://www.cannockchasedc.gov.uk,-2.02547300000000,WS11 5RW,2012-08-13,fhrs_4_en-GB,4,,FHRS,0
328427,Chase Leisure Centre,Stafford Road,,Cannock,Totally Delicious Ltd (Chase Leisure Centre),Restaurant/Cafe/Canteen,1,0,,535315,0,,52.69558600000000,41517,287,environmentalhealth@cannockchasedc.gov.uk,Cannock Chase,http://www.cannockchasedc.gov.uk,-2.03342600000000,WS11 4AH,2013-04-10,fhrs_5_en-GB,5,,FHRS,0
328428,,,,,Treat Time,Other catering premises,7841,5,,579811,0,,,43129,287,environmentalhealth@cannockchasedc.gov.uk,Cannock Chase,http://www.cannockchasedc.gov.uk,,,2013-08-13,fhrs_5_en-GB,5,,FHRS,0
328429,,,,,Treaty Time,Other catering premises,7841,0,,700969,0,,,48229,287,environmentalhealth@cannockchasedc.gov.uk,Cannock Chase,http://www.cannockchasedc.gov.uk,,,2014-09-03,fhrs_5_en-GB,5,,FHRS,0
328430,,,,,Trina's Tiny Tots,Hospitals/Childcare/Caring Premises,5,0,,520643,0,,,41033,287,environmentalhealth@cannockchasedc.gov.uk,Cannock Chase,http://www.cannockchasedc.gov.uk,,,2013-03-01,fhrs_5_en-GB,5,,FHRS,0
328431,Trinity Church,Station Road,Hednesford,Cannock,Trinity Pop In,Other catering premises,7841,5,,387476,0,,52.71427200000000,693,287,environmentalhealth@cannockchasedc.gov.uk,Cannock Chase,http://www.cannockchasedc.gov.uk,-1.99806200000000,WS12 4DN,2014-10-15,fhrs_5_en-GB,5,,FHRS,0
328432,1 Sharon Way,Littleworth,,Cannock,Trocadero Fish Bar,Takeaway/sandwich shop,7844,0,,387462,5,,52.70055300000000,675,287,environmentalhealth@cannockchasedc.gov.uk,Cannock Chase,http://www.cannockchasedc.gov.uk,-1.99365300000000,WS12 2NF,2014-12-10,fhrs_5_en-GB,5,,FHRS,0
328433,Marquis Court Nursing Home,Littleworth Road,,Cannock,Tudor House Nursing Home,Hospitals/Childcare/Caring Premises,5,10,,716185,0,,52.70598200000000,49401,287,environmentalhealth@cannockchasedc.gov.uk,Cannock Chase,http://www.cannockchasedc.gov.uk,-1.98107200000000,WS12 1HY,2014-10-07,fhrs_4_en-GB,4,,FHRS,5
328434,3 Church Street,,,Cannock,U Bar Cannock Ltd,Pub/bar/nightclub,7843,5,,386995,5,,52.68898000000000,106,287,environmentalhealth@cannockchasedc.gov.uk,Cannock Chase,http://www.cannockchasedc.gov.uk,-2.02970800000000,WS11 1DE,2010-02-02,fhrs_4_en-GB,4,,FHRS,10
328435,9 Market Street,Hednesford,,Cannock,Uxbridge Cantonese,Takeaway/sandwich shop,7844,0,,387272,0,,52.70813200000000,4997,287,environmentalhealth@cannockchasedc.gov.uk,Cannock Chase,http://www.cannockchasedc.gov.uk,-1.99829900000000,WS12 1AY,2013-02-26,fhrs_5_en-GB,5,,FHRS,5
328436,Venture Point,Towers Business Park,Wheelhouse Road,Rugeley,Venture Point Coffee Shop,Restaurant/Cafe/Canteen,1,5,,571558,0,,52.74917700000000,42845,287,environmentalhealth@cannockchasedc.gov.uk,Cannock Chase,http://www.cannockchasedc.gov.uk,-1.91764700000000,WS15 1UZ,2013-07-18,fhrs_5_en-GB,5,,FHRS,0
328437,Norton East Road,Norton Canes,,Cannock,Victoria Club,Pub/bar/nightclub,7843,10,,387294,10,,52.67160200000000,519,287,environmentalhealth@cannockchasedc.gov.uk,Cannock Chase,http://www.cannockchasedc.gov.uk,-1.96467100000000,WS11 9RT,2010-02-03,fhrs_3_en-GB,3,,FHRS,10
328438,111 Belt Road,High Town,,Cannock,Victoria Working Mens Club,Pub/bar/nightclub,7843,0,,387176,0,,52.71016200000000,392,287,environmentalhealth@cannockchasedc.gov.uk,Cannock Chase,http://www.cannockchasedc.gov.uk,-2.01573500000000,WS12 4JJ,2009-10-26,fhrs_5_en-GB,5,,FHRS,0
328439,197 Cannock Road,Chadsmoor,,Cannock,Village Cafe,Restaurant/Cafe/Canteen,1,0,,387576,0,,52.70292600000000,96,287,environmentalhealth@cannockchasedc.gov.uk,Cannock Chase,http://www.cannockchasedc.gov.uk,-2.01555500000000,WS11 5DD,2013-10-03,fhrs_5_en-GB,5,,FHRS,5
328440,71 Rugeley Road,Hazelslade,,Cannock,Village Food Store,Retailers - other,4613,5,,387038,10,,52.71390800000000,16874,287,environmentalhealth@cannockchasedc.gov.uk,Cannock Chase,http://www.cannockchasedc.gov.uk,-1.96986300000000,WS12 0PQ,2013-07-18,fhrs_4_en-GB,4,,FHRS,0
328441,Vine Court,Earlswood Way,,Cannock,Vine Court Restuarant,Other catering premises,7841,5,,458097,0,,52.67414600000000,39166,287,environmentalhealth@cannockchasedc.gov.uk,Cannock Chase,http://www.cannockchasedc.gov.uk,-2.03225600000000,WS11 0GQ,2014-08-28,fhrs_5_en-GB,5,,FHRS,0
328442,126 Cecil Street,Blackfords,,Cannock,Vine Store,Retailers - other,4613,5,,387058,5,,52.70382400000000,17018,287,environmentalhealth@cannockchasedc.gov.uk,Cannock Chase,http://www.cannockchasedc.gov.uk,-2.01719800000000,WS11 5HG,2012-03-07,fhrs_5_en-GB,5,,FHRS,5
328443,,,,,Vintage Cupcakes,Other catering premises,7841,5,,546137,0,,,41885,287,environmentalhealth@cannockchasedc.gov.uk,Cannock Chase,http://www.cannockchasedc.gov.uk,,,2013-05-01,fhrs_5_en-GB,5,,FHRS,0
328444,41-43 Brownhills Road,,,Norton Canes,Voujon,Restaurant/Cafe/Canteen,1,5,,387048,0,,52.67398500000000,16982,287,environmentalhealth@cannockchasedc.gov.uk,Cannock Chase,http://www.cannockchasedc.gov.uk,-1.97028900000000,WS11 9SE,2013-08-15,fhrs_5_en-GB,5,,FHRS,5
328445,"Unit 5, Green Industrial Estate",Station Road,Hednesford,Cannock,W E Pointon & Sons Ltd. ,Distributors/Transporters,7,5,,387477,0,,52.71427200000000,694,287,environmentalhealth@cannockchasedc.gov.uk,Cannock Chase,http://www.cannockchasedc.gov.uk,-1.99806200000000,WS12 4DN,2011-06-14,fhrs_5_en-GB,5,,FHRS,0
328446,Welcome Cafe,Redbrook Lane Industrial Estate,Redbrook Lane,Rugeley,Welcome Cafe,Restaurant/Cafe/Canteen,1,0,,442770,0,,52.74432900000000,38130,287,environmentalhealth@cannockchasedc.gov.uk,Cannock Chase,http://www.cannockchasedc.gov.uk,-1.92854300000000,WS15 1QU,2012-08-20,fhrs_5_en-GB,5,,FHRS,0
328447,32 Heath Gap Road,Blackfords,,Cannock,Welcome Working Mens Club,Pub/bar/nightclub,7843,5,,387139,5,,52.69787300000000,349,287,environmentalhealth@cannockchasedc.gov.uk,Cannock Chase,http://www.cannockchasedc.gov.uk,-2.01935600000000,WS11 6DY,2010-03-03,fhrs_5_en-GB,5,,FHRS,5
328448,43-45 Broad Street,Bridgtown,,Cannock,Wendys Place CafÃ©,Restaurant/Cafe/Canteen,1,5,,387536,0,,52.67473200000000,85,287,environmentalhealth@cannockchasedc.gov.uk,Cannock Chase,http://www.cannockchasedc.gov.uk,-2.02845600000000,WS11 0DA,2013-06-24,fhrs_5_en-GB,5,,FHRS,5
328449,98-100 Princess Street,West Chadsmoor,,Cannock,West Chadsmoor Family Centre,Hospitals/Childcare/Caring Premises,5,0,,387320,0,,52.70803900000000,544,287,environmentalhealth@cannockchasedc.gov.uk,Cannock Chase,http://www.cannockchasedc.gov.uk,-2.02329700000000,WS11 5JT,2012-05-22,fhrs_5_en-GB,5,,FHRS,0
328450,50 Anson Street,,,Rugeley,West End Wine Company,Retailers - other,4613,10,,387162,10,,52.76278900000000,380,287,environmentalhealth@cannockchasedc.gov.uk,Cannock Chase,http://www.cannockchasedc.gov.uk,-1.93587800000000,WS15 2BA,2014-06-24,fhrs_3_en-GB,3,,FHRS,5
328451,High Mount Street,West Hill,,Cannock,West Hill Primary School,School/college/university,7845,0,,387187,0,,52.71308500000000,405,287,environmentalhealth@cannockchasedc.gov.uk,Cannock Chase,http://www.cannockchasedc.gov.uk,-2.00564100000000,WS12 4BH,2012-10-17,fhrs_4_en-GB,4,,FHRS,10
328452,1 Westbourne Avenue,,,Cannock,Westbourne Food & Wine,Retailers - other,4613,0,,387515,5,,52.69712400000000,760,287,environmentalhealth@cannockchasedc.gov.uk,Cannock Chase,http://www.cannockchasedc.gov.uk,-2.03256900000000,WS11 4AN,2014-07-04,fhrs_5_en-GB,5,,FHRS,0
328453,School Road,,,Rugeley,Western Springs Primary School,School/college/university,7845,0,,387468,0,,52.76695700000000,682,287,environmentalhealth@cannockchasedc.gov.uk,Cannock Chase,http://www.cannockchasedc.gov.uk,-1.94667700000000,WS15 2PD,2013-10-09,fhrs_5_en-GB,5,,FHRS,5
328454,57 Wolverhampton Road,,,Cannock,White Hart Inn,Pub/bar/nightclub,7843,0,,387526,5,,52.68754100000000,782,287,environmentalhealth@cannockchasedc.gov.uk,Cannock Chase,http://www.cannockchasedc.gov.uk,-2.03155600000000,WS11 1AP,2014-06-16,fhrs_5_en-GB,5,,FHRS,5
328455,White House,Marquis Drive,,Cannock,White House Ministry Centre,Other catering premises,7841,5,,524935,0,,52.74242700000000,41165,287,environmentalhealth@cannockchasedc.gov.uk,Cannock Chase,http://www.cannockchasedc.gov.uk,-2.00899200000000,WS12 4PR,2013-03-19,fhrs_5_en-GB,5,,FHRS,0
328456,White Lion Inn,522 Stafford Road,,Cannock,White Lion,Pub/bar/nightclub,7843,10,,387472,5,,52.69558600000000,689,287,environmentalhealth@cannockchasedc.gov.uk,Cannock Chase,http://www.cannockchasedc.gov.uk,-2.03342600000000,WS11 4AH,2011-03-16,fhrs_4_en-GB,4,,FHRS,0
328457,2 Upper Brook Street,,,Rugeley,Whitehouse Brothers,Retailers - other,4613,0,,729999,0,,52.75896900000000,50257,287,environmentalhealth@cannockchasedc.gov.uk,Cannock Chase,http://www.cannockchasedc.gov.uk,-1.93631400000000,WS15 2DN,2014-11-11,fhrs_5_en-GB,5,,FHRS,0
328458,Unit 4,Rugeley Road,Hednesford,Cannock,Whitehouse Brothers Meat Market,Retailers - other,4613,5,,578472,0,,52.70993900000000,43097,287,environmentalhealth@cannockchasedc.gov.uk,Cannock Chase,http://www.cannockchasedc.gov.uk,-1.99806200000000,WS12 1BT,2013-08-16,fhrs_5_en-GB,5,,FHRS,0
328459,173 Walsall Road,,,Cannock,Whitehouse Food Ltd,Retailers - other,4613,5,,387053,5,,52.67823000000000,17002,287,environmentalhealth@cannockchasedc.gov.uk,Cannock Chase,http://www.cannockchasedc.gov.uk,-2.02504100000000,WS11 0JH,2013-07-30,fhrs_5_en-GB,5,,FHRS,0
328460,133 Belt Road,High Town,,Cannock,Why Not Off Licence,Retailers - other,4613,5,,387071,5,,52.71103400000000,222,287,environmentalhealth@cannockchasedc.gov.uk,Cannock Chase,http://www.cannockchasedc.gov.uk,-2.01982100000000,WS12 4JB,2012-02-12,fhrs_5_en-GB,5,,FHRS,0
328461,M6 Toll,Bettys Lane,Norton Canes,Cannock,Wild Bean @ Bp Service Station Norton Canes Connect Mwsa,Restaurant/Cafe/Canteen,1,0,,387289,0,,52.66495000000000,5155,287,environmentalhealth@cannockchasedc.gov.uk,Cannock Chase,http://www.cannockchasedc.gov.uk,-1.96763400000000,WS11 9UX,2012-05-31,fhrs_5_en-GB,5,,FHRS,0
328462,Quarry Close,Slitting Mill,,Rugeley,Willow End,Hotel/bed & breakfast/guest house,7842,5,,387313,5,,52.75516700000000,5350,287,environmentalhealth@cannockchasedc.gov.uk,Cannock Chase,http://www.cannockchasedc.gov.uk,-1.95884100000000,WS15 2YB,2013-05-01,fhrs_5_en-GB,5,,FHRS,0
328463,"Unit 5, Morgans Business Park",Bettys Lane,Norton Canes,Cannock,Wiltshire Farm Foods,Retailers - other,4613,0,,387072,0,,52.66575100000000,224,287,environmentalhealth@cannockchasedc.gov.uk,Cannock Chase,http://www.cannockchasedc.gov.uk,-1.97180300000000,WS11 9UH,2009-07-24,fhrs_5_en-GB,5,,FHRS,0
328464,66 John Street,Wimblebury,,Cannock,Wimblebury General Store,Retailers - other,4613,10,,387213,0,,52.70101000000000,434,287,environmentalhealth@cannockchasedc.gov.uk,Cannock Chase,http://www.cannockchasedc.gov.uk,-1.97786300000000,WS12 2RJ,2011-04-12,fhrs_4_en-GB,4,,FHRS,5
328465,Hawks Green District Centre,Heath Way,Heath Hayes,Cannock,Winding Wheel,Pub/bar/nightclub,7843,0,,387014,0,,52.69195900000000,136,287,environmentalhealth@cannockchasedc.gov.uk,Cannock Chase,http://www.cannockchasedc.gov.uk,-1.99961600000000,WS12 3XP,2013-06-07,fhrs_5_en-GB,5,,FHRS,0
328466,Wing Lea Takeaway,Main Road,Brereton,Rugeley,Wing Lea,Takeaway/sandwich shop,7844,5,,387321,5,,52.74494500000000,547,287,environmentalhealth@cannockchasedc.gov.uk,Cannock Chase,http://www.cannockchasedc.gov.uk,-1.92149100000000,WS15 1DX,2014-02-20,fhrs_5_en-GB,5,,FHRS,0
328467,19c Horse Fair,,,Rugeley,Wing Shun,Takeaway/sandwich shop,7844,0,,387066,0,,52.75759300000000,190,287,environmentalhealth@cannockchasedc.gov.uk,Cannock Chase,http://www.cannockchasedc.gov.uk,-1.93504100000000,WS15 2EJ,2015-02-03,fhrs_5_en-GB,5,,FHRS,0
328468,1 Market Street,Hednesford,,Cannock,Woody's Music Bar,Pub/bar/nightclub,7843,5,,387410,5,,52.70813200000000,6421,287,environmentalhealth@cannockchasedc.gov.uk,Cannock Chase,http://www.cannockchasedc.gov.uk,-1.99829900000000,WS12 1AY,2011-07-22,fhrs_5_en-GB,5,,FHRS,0
328469,21 Lower Brook Street,,,Rugeley,Wrights Pies,Takeaway/sandwich shop,7844,0,,387532,5,,52.75990300000000,832,287,environmentalhealth@cannockchasedc.gov.uk,Cannock Chase,http://www.cannockchasedc.gov.uk,-1.93555700000000,WS15 2BZ,2012-04-16,fhrs_5_en-GB,5,,FHRS,0
328470,Yates Bros Ltd.,Lime Lane,Little Wyrley,Cannock,Yates Club,Pub/bar/nightclub,7843,10,,387225,10,,52.65757100000000,449,287,environmentalhealth@cannockchasedc.gov.uk,Cannock Chase,http://www.cannockchasedc.gov.uk,-1.97232600000000,WS3 5AP,2012-12-13,fhrs_4_en-GB,4,,FHRS,0
328471,Jerome Road,Norton Canes,,Cannock,Yew Tree,Pub/bar/nightclub,7843,5,,387209,5,,52.67194500000000,429,287,environmentalhealth@cannockchasedc.gov.uk,Cannock Chase,http://www.cannockchasedc.gov.uk,-1.96983200000000,WS11 9TL,2014-11-28,fhrs_5_en-GB,5,,FHRS,5
328472,,,,,Yvonne Emmerson Occasion Cakes,Other catering premises,7841,5,,387459,0,,,6724,287,environmentalhealth@cannockchasedc.gov.uk,Cannock Chase,http://www.cannockchasedc.gov.uk,,,2014-01-09,fhrs_5_en-GB,5,,FHRS,0
