,addressline1,addressline2,addressline3,addressline4,businessname,businesstype,businesstypeid,confidenceinmanagement,extractdate,fhrsid,hygiene,itemcount,latitude,localauthoritybusinessid,localauthoritycode,localauthorityemailaddress,localauthorityname,localauthoritywebsite,longitude,postcode,ratingdate,ratingkey,ratingvalue,returncode,schemetype,structural
335723,15 Bore Street,,,Lichfield,15 On The Corner,Restaurant/Cafe/Canteen,1,10,,713459,5,,52.68277400000000,48993,289,food.safety@lichfielddc.gov.uk,Lichfield,http://www.lichfielddc.gov.uk,-1.82816000000000,WS13 6LZ,2014-05-30,fhrs_3_en-GB,3,,FHRS,10
335724,3-5 Lombard Street,,,Lichfield,1709 The Brasserie,Restaurant/Cafe/Canteen,1,10,,384689,10,,52.68469300000000,3954,289,food.safety@lichfielddc.gov.uk,Lichfield,http://www.lichfielddc.gov.uk,-1.82472000000000,WS13 6DP,2012-11-29,fhrs_3_en-GB,3,,FHRS,10
335725,20 - 22 Bird Street,,,Lichfield,3 Amigos Tapas,Restaurant/Cafe/Canteen,1,0,,418398,0,,52.68318200000000,37230,289,food.safety@lichfielddc.gov.uk,Lichfield,http://www.lichfielddc.gov.uk,-1.83046600000000,WS13 6PR,2014-03-18,fhrs_5_en-GB,5,,FHRS,5
335726,1 New Road,,,Armitage,A. Carthy General Stores,Retailers - other,4613,10,,384591,10,,52.74196000000000,2808,289,food.safety@lichfielddc.gov.uk,Lichfield,http://www.lichfielddc.gov.uk,-1.87806700000000,WS15 4AA,2013-03-19,fhrs_2_en-GB,2,,FHRS,15
335727,16 Cannock Road,,,Burntwood,Aashiqs,Restaurant/Cafe/Canteen,1,10,,384548,15,,52.67831400000000,2486,289,food.safety@lichfielddc.gov.uk,Lichfield,http://www.lichfielddc.gov.uk,-1.90884600000000,WS7 0BJ,2015-01-19,fhrs_2_en-GB,2,,FHRS,10
335728,Frank Halfpenny Hall,George Lane,,Lichfield,Abacus Day Nursery,Hospitals/Childcare/Caring Premises,5,,,713491,,,52.69260100000000,49245,289,food.safety@lichfielddc.gov.uk,Lichfield,http://www.lichfielddc.gov.uk,-1.81715800000000,WS13 6AX,,fhrs_exempt_en-GB,Exempt,,FHRS,
335729,Park Cottage,162 High Street,,Chasetown,Abacus Day Nursery,Hospitals/Childcare/Caring Premises,5,0,,384442,0,,52.67410500000000,1825,289,food.safety@lichfielddc.gov.uk,Lichfield,http://www.lichfielddc.gov.uk,-1.93375900000000,WS7 3XG,2014-02-12,fhrs_5_en-GB,5,,FHRS,0
335730,66 - 68 Bridge Cross Road,,,Burntwood,Abacus Early Learners,Hospitals/Childcare/Caring Premises,5,0,,649127,0,,52.68077300000000,45585,289,food.safety@lichfielddc.gov.uk,Lichfield,http://www.lichfielddc.gov.uk,-1.92839500000000,WS7 2BY,2014-04-17,fhrs_5_en-GB,5,,FHRS,0
335731,16-18 Tamworth Street,,,Lichfield,Acorn Inn,Pub/bar/nightclub,7843,0,,384597,0,,52.68374100000000,2818,289,food.safety@lichfielddc.gov.uk,Lichfield,http://www.lichfielddc.gov.uk,-1.82543400000000,WS13 6JJ,2014-11-06,fhrs_5_en-GB,5,,FHRS,5
335732,Whitemoor Lakes,Barley Green Lane,,Alrewas,Action Centres,Restaurant/Cafe/Canteen,1,0,,384771,0,,52.72068100000000,6567,289,food.safety@lichfielddc.gov.uk,Lichfield,http://www.lichfielddc.gov.uk,-1.73841100000000,WS13 8QT,2014-03-05,fhrs_5_en-GB,5,,FHRS,0
335733,Bridge Cross Road,,,Burntwood,Aldi,Retailers - supermarkets/hypermarkets,7840,5,,494292,0,,52.68131500000000,40317,289,food.safety@lichfielddc.gov.uk,Lichfield,http://www.lichfielddc.gov.uk,-1.93277300000000,WS7 2BX,2013-01-14,fhrs_5_en-GB,5,,FHRS,0
335734,Church Street,,,Lichfield,Aldi,Retailers - supermarkets/hypermarkets,7840,0,,384726,5,,52.68431600000000,4942,289,food.safety@lichfielddc.gov.uk,Lichfield,http://www.lichfielddc.gov.uk,-1.81911500000000,WS13 6EB,2013-03-18,fhrs_5_en-GB,5,,FHRS,0
335735,Furlong Close,,,Alrewas,All Saints Primary School,School/college/university,7845,5,,384467,0,,52.73098300000000,1899,289,food.safety@lichfielddc.gov.uk,Lichfield,http://www.lichfielddc.gov.uk,-1.74680500000000,DE13 7EF,2013-12-17,fhrs_5_en-GB,5,,FHRS,0
335736,Chase Terrace Technology College,Bridge Cross Road,Chase Terrace,Burntwood,Alliance In Partnership,School/college/university,7845,0,,528972,0,,52.68165200000000,41221,289,food.safety@lichfielddc.gov.uk,Lichfield,http://www.lichfielddc.gov.uk,-1.92598300000000,WS7 2DB,2013-03-26,fhrs_5_en-GB,5,,FHRS,0
335737,Stonneyland Drive,,,Lichfield,Alliance Pharmacy,Retailers - other,4613,,,717203,,,52.67489300000000,49541,289,food.safety@lichfielddc.gov.uk,Lichfield,http://www.lichfielddc.gov.uk,-1.84336500000000,WS13 6RX,,fhrs_exempt_en-GB,Exempt,,FHRS,
335738,Rykneld Street,,,Alrewas,Alrewas & District Royal British Legion Club,Pub/bar/nightclub,7843,0,,384772,5,,52.72983300000000,6585,289,food.safety@lichfielddc.gov.uk,Lichfield,http://www.lichfielddc.gov.uk,-1.74259200000000,DE13 7AX,2013-05-03,fhrs_5_en-GB,5,,FHRS,0
335739,86a Main Street,,,Alrewas,Alrewas Cantonese,Takeaway/sandwich shop,7844,0,,384616,5,,52.73250300000000,2985,289,food.safety@lichfielddc.gov.uk,Lichfield,http://www.lichfielddc.gov.uk,-1.74700400000000,DE13 7AE,2013-03-25,fhrs_4_en-GB,4,,FHRS,10
335740,Daisy Lane,,,Alrewas,Alrewas Cricket Club,Pub/bar/nightclub,7843,0,,722207,0,,52.72911000000000,49745,289,food.safety@lichfielddc.gov.uk,Lichfield,http://www.lichfielddc.gov.uk,-1.75361300000000,DE13 7EW,2014-12-09,fhrs_5_en-GB,5,,FHRS,0
335741,41 Main Street,,,Alrewas,Alrewas Fryer,Takeaway/sandwich shop,7844,0,,384574,0,,52.73250300000000,2725,289,food.safety@lichfielddc.gov.uk,Lichfield,http://www.lichfielddc.gov.uk,-1.74700400000000,DE13 7AE,2014-02-24,fhrs_5_en-GB,5,,FHRS,0
335742,Alrewas Hayes Farm,Alrewas Hayes,Orgreave,Burton Upon Trent,Alrewas Hayes,Restaurant/Cafe/Canteen,1,10,,649126,0,,52.72763200000000,45557,289,food.safety@lichfielddc.gov.uk,Lichfield,http://www.lichfielddc.gov.uk,-1.78936600000000,DE13 7DL,2014-02-12,fhrs_4_en-GB,4,,FHRS,10
335743,21 Shakespeare Avenue,,,Lichfield,Altair House B & B,Hotel/bed & breakfast/guest house,7842,,,726738,,,52.67501200000000,49997,289,food.safety@lichfielddc.gov.uk,Lichfield,http://www.lichfielddc.gov.uk,-1.82586800000000,WS14 9BE,,fhrs_exempt_en-GB,Exempt,,FHRS,
335744,Unit 1 & 2 Common Barn Farm,Tamworth Road,Whittington Heath,Lichfield,Amanda's Precious Bubbles Day Nursery,Hospitals/Childcare/Caring Premises,5,5,,669154,5,,52.64671000000000,45761,289,food.safety@lichfielddc.gov.uk,Lichfield,http://www.lichfielddc.gov.uk,-1.76655000000000,WS14 9PX,2014-03-26,fhrs_5_en-GB,5,,FHRS,5
335745,18 Burton Road,,,Alrewas,Amber House,Hotel/bed & breakfast/guest house,7842,,,729994,,,52.73246000000000,50265,289,food.safety@lichfielddc.gov.uk,Lichfield,http://www.lichfielddc.gov.uk,-1.73974700000000,DE13 7BB,,fhrs_exempt_en-GB,Exempt,,FHRS,
335746,15 St John Street,,,Lichfield,Angel House,Takeaway/sandwich shop,7844,10,,730953,5,,52.68169600000000,50333,289,food.safety@lichfielddc.gov.uk,Lichfield,http://www.lichfielddc.gov.uk,-1.82853400000000,WS13 6NU,2015-01-15,fhrs_3_en-GB,3,,FHRS,10
335747,4 Market Street,,,Lichfield,Angel Inn,Pub/bar/nightclub,7843,10,,730792,10,,52.68290900000000,50309,289,food.safety@lichfielddc.gov.uk,Lichfield,http://www.lichfielddc.gov.uk,-1.82878000000000,WS13 6LH,2015-01-06,fhrs_4_en-GB,4,,FHRS,0
335748,Sandy Hill Farm,,,Alrewas,Animal Crackers Childrens Nursery,Hospitals/Childcare/Caring Premises,5,0,,384422,5,,52.72478000000000,1638,289,food.safety@lichfielddc.gov.uk,Lichfield,http://www.lichfielddc.gov.uk,-1.78754400000000,DE13 7DW,2015-02-10,fhrs_5_en-GB,5,,FHRS,0
335749,Reindeer Lodge,New House Farm,Uttoxeter Road,Blithbury,Animal Enterprises (Uk) Limited,Restaurant/Cafe/Canteen,1,5,,384723,5,,52.77704000000000,4871,289,food.safety@lichfielddc.gov.uk,Lichfield,http://www.lichfielddc.gov.uk,-1.88060800000000,WS15 3HY,2013-05-21,fhrs_5_en-GB,5,,FHRS,5
335750,,,,,Anthony Harris Event Caterers,Mobile caterer,7846,0,,384472,0,,,1937,289,food.safety@lichfielddc.gov.uk,Lichfield,http://www.lichfielddc.gov.uk,,,2014-12-23,fhrs_5_en-GB,5,,FHRS,0
335751,13 Bird Street,,,Lichfield,Apres,Pub/bar/nightclub,7843,5,,384351,0,,52.68267800000000,1060,289,food.safety@lichfielddc.gov.uk,Lichfield,http://www.lichfielddc.gov.uk,-1.83030500000000,WS13 6PW,2013-10-24,fhrs_4_en-GB,4,,FHRS,10
335752,6 The Corn Exchange,Conduit Street,,Lichfield,Arco,Retailers - other,4613,5,,430291,10,,52.68364400000000,37642,289,food.safety@lichfielddc.gov.uk,Lichfield,http://www.lichfielddc.gov.uk,-1.82697300000000,WS13 6JU,2012-07-17,fhrs_4_en-GB,4,,FHRS,5
335753,10 New Road,,,Armitage,Armitage & District Royal British Legion,Pub/bar/nightclub,7843,0,,726928,0,,52.74174500000000,50017,289,food.safety@lichfielddc.gov.uk,Lichfield,http://www.lichfielddc.gov.uk,-1.87869000000000,WS15 4BN,2014-12-24,fhrs_5_en-GB,5,,FHRS,0
335754,73 New Road,,,Armitage,Armitage Post Office & Stores,Retailers - other,4613,20,,384670,10,,52.74191100000000,3435,289,food.safety@lichfielddc.gov.uk,Lichfield,http://www.lichfielddc.gov.uk,-1.87414200000000,WS15 4BH,2014-01-15,fhrs_1_en-GB,1,,FHRS,5
335755,27 Bird Street,,,Lichfield,Ask Italian,Restaurant/Cafe/Canteen,1,5,,384378,5,,52.68267800000000,1318,289,food.safety@lichfielddc.gov.uk,Lichfield,http://www.lichfielddc.gov.uk,-1.83030500000000,WS13 6PW,2014-06-18,fhrs_4_en-GB,4,,FHRS,10
335756,Springfields,Beacon Street,,Lichfield,Asquith Day Nursery,Hospitals/Childcare/Caring Premises,5,0,,384420,0,,52.68944400000000,1636,289,food.safety@lichfielddc.gov.uk,Lichfield,http://www.lichfielddc.gov.uk,-1.84100500000000,WS13 7BJ,2014-01-08,fhrs_5_en-GB,5,,FHRS,0
335757,Little Aston Hall Drive,,,Little Aston,Aston Court Nursing & Residential Home,Hospitals/Childcare/Caring Premises,5,0,,384515,0,,52.60098900000000,2246,289,food.safety@lichfielddc.gov.uk,Lichfield,http://www.lichfielddc.gov.uk,-1.87444200000000,B74 3BF,2014-04-23,fhrs_5_en-GB,5,,FHRS,0
335758,Blake Street,,,Little Aston,Aston Wood Golf Club,Pub/bar/nightclub,7843,5,,384375,10,,52.60361500000000,1294,289,food.safety@lichfielddc.gov.uk,Lichfield,http://www.lichfielddc.gov.uk,-1.85131200000000,B74 4EU,2015-01-28,fhrs_4_en-GB,4,,FHRS,5
335759,The Nurses Cottage,Lichfield Street,,Fazeley,Autumn Days,Hospitals/Childcare/Caring Premises,5,10,,384749,5,,52.61537800000000,5944,289,food.safety@lichfielddc.gov.uk,Lichfield,http://www.lichfielddc.gov.uk,-1.70474400000000,B78 3QE,2014-10-23,fhrs_3_en-GB,3,,FHRS,10
335760,1 - 3 Lawnswood Avenue,,,Burntwood,B & D Superstore,Retailers - supermarkets/hypermarkets,7840,0,,713468,0,,52.66958800000000,49057,289,food.safety@lichfielddc.gov.uk,Lichfield,http://www.lichfielddc.gov.uk,-1.92492300000000,WS7 4YD,2014-10-27,fhrs_5_en-GB,5,,FHRS,0
335761,25 - 27 Market Street,,,Lichfield,B & M Retail,Retailers - supermarkets/hypermarkets,7840,0,,384709,0,,52.68303600000000,4541,289,food.safety@lichfielddc.gov.uk,Lichfield,http://www.lichfielddc.gov.uk,-1.82916500000000,WS13 6JX,2014-01-31,fhrs_5_en-GB,5,,FHRS,0
335762,Lichfield Rugby Club,Tamworth Road,Freeford,Lichfield,B J's Cafe,Other catering premises,7841,0,,384737,5,,52.67162700000000,5417,289,food.safety@lichfielddc.gov.uk,Lichfield,http://www.lichfielddc.gov.uk,-1.79964700000000,WS14 9JE,2014-03-08,fhrs_5_en-GB,5,,FHRS,5
335763,21 Burntwood Town Shopping Centre,Cannock Road,,Burntwood,Bakeaway,Takeaway/sandwich shop,7844,10,,384734,5,,52.68218800000000,5334,289,food.safety@lichfielddc.gov.uk,Lichfield,http://www.lichfielddc.gov.uk,-1.93475300000000,WS7 1JR,2014-02-03,fhrs_3_en-GB,3,,FHRS,10
335764,1 Swan Corner Shopping Centre,Chase Road,,Burntwood,Bargain Booze,Retailers - other,4613,20,,428810,5,,52.67747700000000,37538,289,food.safety@lichfielddc.gov.uk,Lichfield,http://www.lichfielddc.gov.uk,-1.90688000000000,WS7 0DW,2014-06-25,fhrs_1_en-GB,1,,FHRS,10
335765,30-36 St John Street,,,Lichfield,Beatrice Court & Citygate Lodge Care Centre,Hospitals/Childcare/Caring Premises,5,5,,384563,5,,52.68092200000000,2662,289,food.safety@lichfielddc.gov.uk,Lichfield,http://www.lichfielddc.gov.uk,-1.82819700000000,WS13 6PB,2014-10-09,fhrs_4_en-GB,4,,FHRS,10
335766,Horsey Lane,,,Upper Longdon,Beaudesert Park Farm Education Centre,School/college/university,7845,0,,384742,0,,52.72146600000000,5522,289,food.safety@lichfielddc.gov.uk,Lichfield,http://www.lichfielddc.gov.uk,-1.91025200000000,WS15 4LN,2012-10-18,fhrs_5_en-GB,5,,FHRS,0
335767,c/o Harlaston Post Office & Stores,Main Road,,Harlaston,Bed & Breakfast,Hotel/bed & breakfast/guest house,7842,,,726739,,,52.69473600000000,50001,289,food.safety@lichfielddc.gov.uk,Lichfield,http://www.lichfielddc.gov.uk,-1.68287200000000,B79 9JU,,fhrs_exempt_en-GB,Exempt,,FHRS,
335768,1 Wissage Road,,,Lichfield,Beechfields Nursing Home,Hospitals/Childcare/Caring Premises,5,0,,384738,5,,52.68481900000000,542,289,food.safety@lichfielddc.gov.uk,Lichfield,http://www.lichfielddc.gov.uk,-1.81344800000000,WS13 6EJ,2014-11-24,fhrs_5_en-GB,5,,FHRS,5
335769,Unit 7b The Stirling Centre,Tye Road,,Fradley,Bilash,Restaurant/Cafe/Canteen,1,5,,384769,10,,52.71218600000000,6465,289,food.safety@lichfielddc.gov.uk,Lichfield,http://www.lichfielddc.gov.uk,-1.77820600000000,WS13 8ST,2014-03-20,fhrs_4_en-GB,4,,FHRS,5
335770,Soleco House,Wood End Lane,Fradley,Lichfield,Blue Apple Contract Catering,Restaurant/Cafe/Canteen,1,0,,447076,0,,52.71057400000000,38290,289,food.safety@lichfielddc.gov.uk,Lichfield,http://www.lichfielddc.gov.uk,-1.79129800000000,WS13 8NF,2014-10-30,fhrs_5_en-GB,5,,FHRS,5
335771,Plantation Lane,,,Hopwas,Bodnetts Farm Shop,Retailers - other,4613,5,,384645,10,,52.63298900000000,3175,289,food.safety@lichfielddc.gov.uk,Lichfield,http://www.lichfielddc.gov.uk,-1.73943600000000,B78 3AU,2012-08-20,fhrs_3_en-GB,3,,FHRS,10
335772,7 Boley Park Shopping Centre,,,Lichfield,Boley Park Community Hall,Other catering premises,7841,,,713503,,,52.68006900000000,49325,289,food.safety@lichfielddc.gov.uk,Lichfield,http://www.lichfielddc.gov.uk,-1.80565800000000,WS14 9XU,,fhrs_exempt_en-GB,Exempt,,FHRS,
335773,Boley Park Community Hall,7 Boley Park Shopping Centre,Ryknild Street,Lichfield,Boley Park Pre School,Hospitals/Childcare/Caring Premises,5,,,713504,,,52.68006900000000,49329,289,food.safety@lichfielddc.gov.uk,Lichfield,http://www.lichfielddc.gov.uk,-1.80565800000000,WS14 9XU,,fhrs_exempt_en-GB,Exempt,,FHRS,
335774,62 Park Lane,,,Bonehill,Bonehill Lodge Residential Home,Hospitals/Childcare/Caring Premises,5,0,,384374,0,,52.62109500000000,1293,289,food.safety@lichfielddc.gov.uk,Lichfield,http://www.lichfielddc.gov.uk,-1.71565100000000,B78 3HZ,2014-10-09,fhrs_5_en-GB,5,,FHRS,0
335775,Lichfield Street,,,Fazeley,Bonehill Mill Fishery,Restaurant/Cafe/Canteen,1,20,,430293,5,,52.61621800000000,37654,289,food.safety@lichfielddc.gov.uk,Lichfield,http://www.lichfielddc.gov.uk,-1.70659900000000,B78 3QS,2014-12-08,fhrs_1_en-GB,1,,FHRS,5
335776,Chorley Road,,Boney Hay,Burntwood,Boney Hay Primary School,School/college/university,7845,5,,384700,5,,52.69277200000000,4189,289,food.safety@lichfielddc.gov.uk,Lichfield,http://www.lichfielddc.gov.uk,-1.92584600000000,WS7 2PF,2014-01-27,fhrs_5_en-GB,5,,FHRS,5
335777,22 North Street,,,Burntwood,Boney Hay Working Mens Club,Pub/bar/nightclub,7843,0,,690095,0,,52.68927800000000,47853,289,food.safety@lichfielddc.gov.uk,Lichfield,http://www.lichfielddc.gov.uk,-1.93055600000000,WS7 2PB,2014-08-08,fhrs_5_en-GB,5,,FHRS,0
335778,4 - 8 Tamworth Street,,,Lichfield,Boots The Chemist,Retailers - other,4613,,,718177,,,52.68374100000000,49577,289,food.safety@lichfielddc.gov.uk,Lichfield,http://www.lichfielddc.gov.uk,-1.82543400000000,WS13 6JJ,,fhrs_exempt_en-GB,Exempt,,FHRS,
335779,63 Upper St John Street,,,Lichfield,Booze King Select,Retailers - other,4613,10,,578466,5,,52.67862600000000,43081,289,food.safety@lichfielddc.gov.uk,Lichfield,http://www.lichfielddc.gov.uk,-1.82575000000000,WS14 9DT,2013-08-15,fhrs_3_en-GB,3,,FHRS,10
335780,Bracken Close,,,Burntwood,Bracken House,Hospitals/Childcare/Caring Premises,5,0,,384367,0,,52.67976100000000,1118,289,food.safety@lichfielddc.gov.uk,Lichfield,http://www.lichfielddc.gov.uk,-1.90863600000000,WS7 9BD,2013-07-24,fhrs_5_en-GB,5,,FHRS,5
335781,Bleak House Farm,Ironstone Road,,Burntwood,Bradshaw Bros Ltd,Retailers - other,4613,10,,624045,10,,52.69259300000000,44401,289,food.safety@lichfielddc.gov.uk,Lichfield,http://www.lichfielddc.gov.uk,-1.94262400000000,WS7 1YL,2014-12-04,fhrs_3_en-GB,3,,FHRS,10
335782,Wissage Road,,,Lichfield,Bridge Short Stay School,School/college/university,7845,0,,384762,0,,52.68796300000000,6280,289,food.safety@lichfielddc.gov.uk,Lichfield,http://www.lichfielddc.gov.uk,-1.81790200000000,WS13 6SW,2013-02-26,fhrs_5_en-GB,5,,FHRS,0
335783,Shaw Lane,Riley Hill,,Kings Bromley,Bromley Hayes Restaurant,Restaurant/Cafe/Canteen,1,5,,384529,5,,52.73346700000000,2318,289,food.safety@lichfielddc.gov.uk,Lichfield,http://www.lichfielddc.gov.uk,-1.82840500000000,WS13 8HW,2014-12-04,fhrs_4_en-GB,4,,FHRS,10
335784,Located At Anglesey Sand Pit,Ogley Hay Road,,Brownhills,Brys Brunchies,Mobile caterer,7846,5,,384681,5,,52.66034500000000,3703,289,food.safety@lichfielddc.gov.uk,Lichfield,http://www.lichfielddc.gov.uk,-1.92185400000000,,2013-07-18,fhrs_5_en-GB,5,,FHRS,5
335785,Uttoxeter Road,,,Blithbury,Bull & Spectacles,Pub/bar/nightclub,7843,5,,384814,5,,52.77704000000000,807,289,food.safety@lichfielddc.gov.uk,Lichfield,http://www.lichfielddc.gov.uk,-1.88060800000000,WS15 3HY,2013-05-08,fhrs_4_en-GB,4,,FHRS,10
335786,High Street,,,Chasetown,Burntwood Leisure Centre,Restaurant/Cafe/Canteen,1,5,,384392,10,,52.67860900000000,1434,289,food.safety@lichfielddc.gov.uk,Lichfield,http://www.lichfielddc.gov.uk,-1.93363500000000,WS7 3XH,2013-09-16,fhrs_4_en-GB,4,,FHRS,5
335787,@ Chasetown Methodist Church,Lawnswood Avenue,,Chasetown,Burntwood Live At Home,Other catering premises,7841,,,727913,,,52.66981500000000,50093,289,food.safety@lichfielddc.gov.uk,Lichfield,http://www.lichfielddc.gov.uk,-1.92949200000000,WS7 4YE,,fhrs_exempt_en-GB,Exempt,,FHRS,
335788,@ Burntwood Methodist Church,Cannock Road,,Burntwood,Burntwood Live At Home Scheme,Other catering premises,7841,,,727915,,,52.67831400000000,50101,289,food.safety@lichfielddc.gov.uk,Lichfield,http://www.lichfielddc.gov.uk,-1.90884500000000,WS7 0BJ,,fhrs_exempt_en-GB,Exempt,,FHRS,
335789,The Old Mining College,Queen Street,Chasetown,Burntwood,Burntwood Live At Home Scheme,Other catering premises,7841,,,727914,,,52.67133600000000,50097,289,food.safety@lichfielddc.gov.uk,Lichfield,http://www.lichfielddc.gov.uk,-1.93193000000000,WS7 4QH,,fhrs_exempt_en-GB,Exempt,,FHRS,
335790,4 Cannock Road,,,Burntwood,Burntwood Newsagents,Retailers - other,4613,0,,713442,0,,52.67831400000000,48681,289,food.safety@lichfielddc.gov.uk,Lichfield,http://www.lichfielddc.gov.uk,-1.90884600000000,WS7 0BJ,2014-10-09,fhrs_5_en-GB,5,,FHRS,5
335791,1 Cannock Road,,,Burntwood,Burntwood Post Office,Retailers - other,4613,0,,692421,10,,52.67808100000000,47997,289,food.safety@lichfielddc.gov.uk,Lichfield,http://www.lichfielddc.gov.uk,-1.90961500000000,WS7 0BL,2014-08-21,fhrs_4_en-GB,4,,FHRS,0
335792,The Sportsway,,Chasetown,Burntwood,Burntwood Rugby Club,Pub/bar/nightclub,7843,0,,384559,0,,52.67208800000000,2618,289,food.safety@lichfielddc.gov.uk,Lichfield,http://www.lichfielddc.gov.uk,-1.94305000000000,WS7 3PH,2014-08-28,fhrs_5_en-GB,5,,FHRS,0
335793,,,,,Business Lunches.Com,Other catering premises,7841,10,,384729,10,,,5044,289,food.safety@lichfielddc.gov.uk,Lichfield,http://www.lichfielddc.gov.uk,,,2014-01-17,fhrs_3_en-GB,3,,FHRS,10
335794,Shaftsbury Drive,,,Burntwood,Busy Bees Nursery,Hospitals/Childcare/Caring Premises,5,0,,384527,0,,52.68254000000000,2286,289,food.safety@lichfielddc.gov.uk,Lichfield,http://www.lichfielddc.gov.uk,-1.88805400000000,WS7 9QP,2014-02-05,fhrs_5_en-GB,5,,FHRS,5
335795,,,,,Buttercreams,Retailers - other,4613,0,,608614,0,,,43641,289,food.safety@lichfielddc.gov.uk,Lichfield,http://www.lichfielddc.gov.uk,,,2013-10-10,fhrs_5_en-GB,5,,FHRS,0
335796,37 Shirrall Drive,,,Drayton Bassett,"Buzzard Valley Bistro, Bar & Shop",Restaurant/Cafe/Canteen,1,10,,384520,5,,52.59551300000000,2260,289,food.safety@lichfielddc.gov.uk,Lichfield,http://www.lichfielddc.gov.uk,-1.76632000000000,B78 3EQ,2013-10-15,fhrs_4_en-GB,4,,FHRS,5
335797,Chasetown Football Club,Church Street,,Chasetown,C & J Lesiure,Mobile caterer,7846,5,,520639,5,,52.67027700000000,41105,289,food.safety@lichfielddc.gov.uk,Lichfield,http://www.lichfielddc.gov.uk,-1.93811700000000,,2013-03-15,fhrs_5_en-GB,5,,FHRS,5
335798,2A Rugeley Road,,,Burntwood,C Robinson & Sons (Butchers) Ltd,Manufacturers/packers,7839,10,,720232,0,,52.67841100000000,49729,289,food.safety@lichfielddc.gov.uk,Lichfield,http://www.lichfielddc.gov.uk,-1.90640500000000,WS7 9BA,2014-11-04,fhrs_4_en-GB,4,,FHRS,0
335799,110 Rugeley Road,,,Chase Terrace,C. Robinson & Sons (Butchers) Ltd,Retailers - other,4613,20,,384446,15,,52.68854300000000,1831,289,food.safety@lichfielddc.gov.uk,Lichfield,http://www.lichfielddc.gov.uk,-1.93351600000000,WS7 1NR,2014-04-07,fhrs_1_en-GB,1,,FHRS,15
335800,Little Aston Golf Club,Roman Road,Streetly,Sutton Coldfield,C.L Catering,Restaurant/Cafe/Canteen,1,5,,384696,10,,52.59587300000000,4113,289,food.safety@lichfielddc.gov.uk,Lichfield,http://www.lichfielddc.gov.uk,-1.86559900000000,B74 3AN,2014-01-22,fhrs_4_en-GB,4,,FHRS,5
335801,@ Erasmus Darwin Academy,Pool Road,,Burntwood,Cafe Erasmus,Restaurant/Cafe/Canteen,1,0,,458078,0,,52.66830900000000,38985,289,food.safety@lichfielddc.gov.uk,Lichfield,http://www.lichfielddc.gov.uk,-1.93614900000000,WS7 3QW,2014-04-28,fhrs_5_en-GB,5,,FHRS,0
335802,The Cloisters,45a Bore Street,,Lichfield,Caffe Nero,Restaurant/Cafe/Canteen,1,0,,384622,0,,52.68344600000000,3045,289,food.safety@lichfielddc.gov.uk,Lichfield,http://www.lichfielddc.gov.uk,-1.82697400000000,WS13 6NB,2014-09-30,fhrs_5_en-GB,5,,FHRS,5
335803,61 Water Street,,,Burntwood,Cake Away,Other catering premises,7841,0,,657849,10,,52.68381600000000,45705,289,food.safety@lichfielddc.gov.uk,Lichfield,http://www.lichfielddc.gov.uk,-1.93590500000000,WS7 1AW,2014-04-17,fhrs_4_en-GB,4,,FHRS,5
335804,,,,,Cake Couture,Retailers - other,4613,0,,649116,0,,,45321,289,food.safety@lichfielddc.gov.uk,Lichfield,http://www.lichfielddc.gov.uk,,,2014-03-31,fhrs_5_en-GB,5,,FHRS,0
335805,,,,,Cake O' Clock,Other catering premises,7841,0,,638445,0,,,45105,289,food.safety@lichfielddc.gov.uk,Lichfield,http://www.lichfielddc.gov.uk,,,2014-03-13,fhrs_5_en-GB,5,,FHRS,0
335806,,,,,Cake 'Ole,Retailers - other,4613,0,,638446,0,,,45149,289,food.safety@lichfielddc.gov.uk,Lichfield,http://www.lichfielddc.gov.uk,,,2014-03-18,fhrs_5_en-GB,5,,FHRS,0
335807,,,,,Cake Rattle & Roll,Other catering premises,7841,5,,548038,10,,,41945,289,food.safety@lichfielddc.gov.uk,Lichfield,http://www.lichfielddc.gov.uk,,,2013-05-14,fhrs_4_en-GB,4,,FHRS,5
335808,,,,,Cake Temptations,Other catering premises,7841,0,,384776,0,,,7670,289,food.safety@lichfielddc.gov.uk,Lichfield,http://www.lichfielddc.gov.uk,,,2012-04-11,fhrs_5_en-GB,5,,FHRS,0
335809,,,,,Cakeydora,Other catering premises,7841,5,,384430,10,,,16942,289,food.safety@lichfielddc.gov.uk,Lichfield,http://www.lichfielddc.gov.uk,,,2012-05-15,fhrs_4_en-GB,4,,FHRS,5
335810,Fradley Junction,,,Alrewas,Canalside Cafe,Restaurant/Cafe/Canteen,1,0,,384561,5,,52.72377400000000,2644,289,food.safety@lichfielddc.gov.uk,Lichfield,http://www.lichfielddc.gov.uk,-1.79351600000000,DE13 7DN,2013-04-24,fhrs_5_en-GB,5,,FHRS,0
335811,,,,,Candy Floss,Mobile caterer,7846,10,,578463,5,,,43033,289,food.safety@lichfielddc.gov.uk,Lichfield,http://www.lichfielddc.gov.uk,,,2013-08-06,fhrs_4_en-GB,4,,FHRS,5
335812,64 High Street,Chasetown,,Burntwood,Candy Galore,Retailers - other,4613,5,,671696,0,,52.67145400000000,47153,289,food.safety@lichfielddc.gov.uk,Lichfield,http://www.lichfielddc.gov.uk,-1.93395600000000,WS7 3XF,2014-05-30,fhrs_5_en-GB,5,,FHRS,5
335813,,,,,Candy Lane,Mobile caterer,7846,0,,734853,0,,,50478,289,food.safety@lichfielddc.gov.uk,Lichfield,http://www.lichfielddc.gov.uk,,,2015-02-06,fhrs_5_en-GB,5,,FHRS,0
335814,,,,,Cara Usher Cakes,Other catering premises,7841,5,,433464,10,,,37738,289,food.safety@lichfielddc.gov.uk,Lichfield,http://www.lichfielddc.gov.uk,,,2012-08-07,fhrs_4_en-GB,4,,FHRS,5
335815,,,,,Caring Candy Ltd,Retailers - other,4613,5,,433463,10,,,37734,289,food.safety@lichfielddc.gov.uk,Lichfield,http://www.lichfielddc.gov.uk,,,2012-08-03,fhrs_4_en-GB,4,,FHRS,5
335816,,,,,Carte Diem,Mobile caterer,7846,0,,732369,0,,,50401,289,food.safety@lichfielddc.gov.uk,Lichfield,http://www.lichfielddc.gov.uk,,,2015-01-27,fhrs_5_en-GB,5,,FHRS,0
335817,Church Hill,,,Longdon Green,Cathedral Badgers After School Club,Hospitals/Childcare/Caring Premises,5,,,726461,,,52.72083300000000,49941,289,food.safety@lichfielddc.gov.uk,Lichfield,http://www.lichfielddc.gov.uk,-1.87658600000000,WS15 4PU,,fhrs_exempt_en-GB,Exempt,,FHRS,
335818,,,,,Cathedral Cakes,Other catering premises,7841,5,,439565,10,,,38006,289,food.safety@lichfielddc.gov.uk,Lichfield,http://www.lichfielddc.gov.uk,,,2012-08-09,fhrs_4_en-GB,4,,FHRS,0
335819,62 Beacon Street,,,Lichfield,Cathedral Lodge Hotel,Hotel/bed & breakfast/guest house,7842,20,,384404,15,,52.68752200000000,1496,289,food.safety@lichfielddc.gov.uk,Lichfield,http://www.lichfielddc.gov.uk,-1.83576000000000,WS13 7AR,2013-11-07,fhrs_1_en-GB,1,,FHRS,15
335820,1 Boley Park Centre,Ryknild Street,,Lichfield,Central England Co Operative,Retailers - supermarkets/hypermarkets,7840,0,,384588,0,,52.68006900000000,2782,289,food.safety@lichfielddc.gov.uk,Lichfield,http://www.lichfielddc.gov.uk,-1.80565800000000,WS14 9XU,2014-02-17,fhrs_5_en-GB,5,,FHRS,0
335821,153 - 155 Cannock Road,,,Burntwood,Central England Co Operative,Retailers - supermarkets/hypermarkets,7840,0,,702454,0,,52.67927400000000,48297,289,food.safety@lichfielddc.gov.uk,Lichfield,http://www.lichfielddc.gov.uk,-1.91823600000000,WS7 0BB,2014-09-23,fhrs_5_en-GB,5,,FHRS,5
335822,43 Main Street,,,Alrewas,Central England Co Operative,Retailers - supermarkets/hypermarkets,7840,0,,384721,0,,52.73250300000000,4869,289,food.safety@lichfielddc.gov.uk,Lichfield,http://www.lichfielddc.gov.uk,-1.74700400000000,DE13 7AE,2014-02-24,fhrs_5_en-GB,5,,FHRS,0
335823,Curborough Road,,,Lichfield,Central England Co Operative,Retailers - supermarkets/hypermarkets,7840,0,,669156,0,,52.69360400000000,46573,289,food.safety@lichfielddc.gov.uk,Lichfield,http://www.lichfielddc.gov.uk,-1.82674100000000,WS13 7NR,2014-05-30,fhrs_5_en-GB,5,,FHRS,5
335824,Unit 1 Fradley Park Local Centre,Common Lane,,Fradley,Central England Co Operative,Retailers - supermarkets/hypermarkets,7840,0,,384719,5,,52.70870800000000,4805,289,food.safety@lichfielddc.gov.uk,Lichfield,http://www.lichfielddc.gov.uk,-1.77878600000000,WS13 8NQ,2013-03-14,fhrs_5_en-GB,5,,FHRS,5
335825,"Unit 1, 8 Highfields Road",,,Chasetown,Central England Co Operative,Retailers - supermarkets/hypermarkets,7840,5,,508674,0,,52.66829600000000,40601,289,food.safety@lichfielddc.gov.uk,Lichfield,http://www.lichfielddc.gov.uk,-1.92979100000000,WS7 4QU,2013-02-14,fhrs_5_en-GB,5,,FHRS,0
335826,Central House,Hermes Road,,Lichfield,Central England Co Operative / Colleague Cafe,Restaurant/Cafe/Canteen,1,0,,384827,0,,52.69165400000000,988,289,food.safety@lichfielddc.gov.uk,Lichfield,http://www.lichfielddc.gov.uk,-1.80930600000000,WS13 6RH,2014-03-26,fhrs_5_en-GB,5,,FHRS,0
335827,Friday Acre,,,Lichfield,Chadsmead Primary Academy,School/college/university,7845,0,,384524,0,,52.69231900000000,2265,289,food.safety@lichfielddc.gov.uk,Lichfield,http://www.lichfielddc.gov.uk,-1.83336000000000,WS13 7HJ,2013-12-20,fhrs_5_en-GB,5,,FHRS,5
335828,Uttoxeter Road,,,Hill Ridware,Chadwick Arms,Pub/bar/nightclub,7843,5,,384533,0,,52.75942400000000,2333,289,food.safety@lichfielddc.gov.uk,Lichfield,http://www.lichfielddc.gov.uk,-1.88382700000000,WS15 3QX,2014-06-19,fhrs_4_en-GB,4,,FHRS,10
335829,Beacon Park Pavillion,Swan Road,,Lichfield,Chandlers Lakeside Bistro & Kiosk,Other catering premises,7841,0,,558502,5,,52.68228500000000,42413,289,food.safety@lichfielddc.gov.uk,Lichfield,http://www.lichfielddc.gov.uk,-1.83223000000000,WS13 6QZ,2013-04-17,fhrs_5_en-GB,5,,FHRS,0
335830,,,,,Chapel Porth Cakes,Other catering premises,7841,0,,558503,0,,,42421,289,food.safety@lichfielddc.gov.uk,Lichfield,http://www.lichfielddc.gov.uk,,,2013-06-13,fhrs_5_en-GB,5,,FHRS,0
335831,19 The Close,,,Lichfield,Chapters Restaurant & Coffee Shop,Restaurant/Cafe/Canteen,1,10,,384585,10,,52.68491700000000,2778,289,food.safety@lichfielddc.gov.uk,Lichfield,http://www.lichfielddc.gov.uk,-1.83078500000000,WS13 7LD,2014-09-30,fhrs_3_en-GB,3,,FHRS,5
335832,Purcell Avenue,,,Lichfield,Charnwood Primary School,School/college/university,7845,5,,384535,5,,52.69597300000000,2342,289,food.safety@lichfielddc.gov.uk,Lichfield,http://www.lichfielddc.gov.uk,-1.82399500000000,WS13 7PH,2014-12-04,fhrs_4_en-GB,4,,FHRS,10
335833,50 High Street,,,Chasetown,Chase Balti,Takeaway/sandwich shop,7844,5,,384720,5,,52.67149900000000,4858,289,food.safety@lichfielddc.gov.uk,Lichfield,http://www.lichfielddc.gov.uk,-1.93377800000000,WS7 3XF,2013-03-25,fhrs_5_en-GB,5,,FHRS,5
335834,Unit 19 Burntwood Town Shopping Centre,Cannock Road,,Burntwood,Chase Butchers,Retailers - other,4613,10,,384481,0,,52.68218800000000,1997,289,food.safety@lichfielddc.gov.uk,Lichfield,http://www.lichfielddc.gov.uk,-1.93475300000000,WS7 1JR,2014-02-14,fhrs_4_en-GB,4,,FHRS,5
335835,Unit L20 Ring Road,Zone 2 Burntwood Business Park,,Burntwood,Chase Park Cafe,Restaurant/Cafe/Canteen,1,5,,384620,5,,52.68066400000000,3012,289,food.safety@lichfielddc.gov.uk,Lichfield,http://www.lichfielddc.gov.uk,-1.94318700000000,WS7 3JQ,2015-01-20,fhrs_5_en-GB,5,,FHRS,5
335836,164 High Street,Chasetown,,Burntwood,Chase Recreation Club,Pub/bar/nightclub,7843,0,,721747,0,,52.67410600000000,49733,289,food.safety@lichfielddc.gov.uk,Lichfield,http://www.lichfielddc.gov.uk,-1.93376000000000,WS7 3XG,2014-12-04,fhrs_5_en-GB,5,,FHRS,0
335837,Pool Road,,,Chasetown,Chase Sailing Club,Pub/bar/nightclub,7843,0,,384543,0,,52.66830900000000,2438,289,food.safety@lichfielddc.gov.uk,Lichfield,http://www.lichfielddc.gov.uk,-1.93614900000000,WS7 3QW,2014-03-12,fhrs_5_en-GB,5,,FHRS,0
335838,Rugeley Road,,,Chase Terrace,Chase Terrace Primary School,School/college/university,7845,5,,384357,5,,52.68308600000000,1084,289,food.safety@lichfielddc.gov.uk,Lichfield,http://www.lichfielddc.gov.uk,-1.93364300000000,WS7 1AH,2015-01-22,fhrs_5_en-GB,5,,FHRS,5
335839,21 High Street,,,Chasetown,Chasetown Bakery,Retailers - other,4613,20,,384387,15,,52.67146200000000,1371,289,food.safety@lichfielddc.gov.uk,Lichfield,http://www.lichfielddc.gov.uk,-1.93434000000000,WS7 3XE,2015-01-20,fhrs_1_en-GB,1,,FHRS,10
335840,Church Street,Chasetown,,Burntwood,Chasetown Football Club,Pub/bar/nightclub,7843,0,,384642,0,,52.66964800000000,3165,289,food.safety@lichfielddc.gov.uk,Lichfield,http://www.lichfielddc.gov.uk,-1.93647300000000,WS7 3QL,2014-12-04,fhrs_5_en-GB,5,,FHRS,0
335841,23 High Street,Chasetown,,Burntwood,Chasetown Pharmacy,Retailers - other,4613,,,729996,,,52.67146300000000,50277,289,food.safety@lichfielddc.gov.uk,Lichfield,http://www.lichfielddc.gov.uk,-1.93434000000000,WS7 3XE,,fhrs_exempt_en-GB,Exempt,,FHRS,
335842,57 High Street,,,Chasetown,Chasetown Post Office / Bargain Booze,Retailers - other,4613,10,,542906,10,,52.67146300000000,41737,289,food.safety@lichfielddc.gov.uk,Lichfield,http://www.lichfielddc.gov.uk,-1.93434000000000,WS7 3XE,2013-04-24,fhrs_3_en-GB,3,,FHRS,5
335843,Water Street,,,Burntwood,Chaseview Care Home   Hc One,Hospitals/Childcare/Caring Premises,5,5,,384793,0,,52.68381600000000,7746,289,food.safety@lichfielddc.gov.uk,Lichfield,http://www.lichfielddc.gov.uk,-1.93590500000000,WS7 1AW,2013-10-30,fhrs_5_en-GB,5,,FHRS,5
335844,Pool Road,,,Chasetown,Chasewater Outdoor Education Centre,School/college/university,7845,0,,384539,0,,52.66830900000000,2393,289,food.safety@lichfielddc.gov.uk,Lichfield,http://www.lichfielddc.gov.uk,-1.93614900000000,WS7 3QW,2013-03-05,fhrs_5_en-GB,5,,FHRS,0
335845,27 Sheriffs Close,,,Lichfield,Cheeky Chimps,Hospitals/Childcare/Caring Premises,5,,,717202,,,52.67830400000000,49537,289,food.safety@lichfielddc.gov.uk,Lichfield,http://www.lichfielddc.gov.uk,-1.80344700000000,WS14 9RZ,,fhrs_exempt_en-GB,Exempt,,FHRS,
335846,57 Upper Way,,,Upper Longdon,Chetwynd Arms,Pub/bar/nightclub,7843,5,,713469,10,,52.72858600000000,49081,289,food.safety@lichfielddc.gov.uk,Lichfield,http://www.lichfielddc.gov.uk,-1.91173300000000,WS15 1QB,2014-10-21,fhrs_4_en-GB,4,,FHRS,5
335847,127 High Street,,,Chasetown,China Chef,Takeaway/sandwich shop,7844,30,,384505,20,,52.67585000000000,2195,289,food.safety@lichfielddc.gov.uk,Lichfield,http://www.lichfielddc.gov.uk,-1.93433400000000,WS7 3XL,2014-11-25,fhrs_0_en-GB,0,,FHRS,20
335848,112 Netherstowe,,,Lichfield,China King,Takeaway/sandwich shop,7844,20,,384487,5,,52.69438400000000,2027,289,food.safety@lichfielddc.gov.uk,Lichfield,http://www.lichfielddc.gov.uk,-1.81929600000000,WS13 6TS,2014-03-25,fhrs_1_en-GB,1,,FHRS,5
335849,,,,,Chocolate Pizzaz,Retailers - other,4613,0,,736065,0,,,50558,289,food.safety@lichfielddc.gov.uk,Lichfield,http://www.lichfielddc.gov.uk,,,2015-02-16,fhrs_5_en-GB,5,,FHRS,0
335850,Layby On A515,,,Kings Bromley,Choppy's Food Bar,Mobile caterer,7846,10,,384815,5,,52.75173900000000,810,289,food.safety@lichfielddc.gov.uk,Lichfield,http://www.lichfielddc.gov.uk,-1.82097500000000,,2014-11-04,fhrs_3_en-GB,3,,FHRS,10
335851,Christchurch Lane,,,Lichfield,Christ Church Ce(C) Primary School,School/college/university,7845,5,,384819,0,,52.68065300000000,865,289,food.safety@lichfielddc.gov.uk,Lichfield,http://www.lichfielddc.gov.uk,-1.84192400000000,WS13 8AY,2013-12-18,fhrs_5_en-GB,5,,FHRS,5
335852,,,,,Churros Factory,Mobile caterer,7846,5,,713463,5,,,49009,289,food.safety@lichfielddc.gov.uk,Lichfield,http://www.lichfielddc.gov.uk,,,2014-07-25,fhrs_5_en-GB,5,,FHRS,5
335853,,,,,Claire's Kitchen,Other catering premises,7841,0,,649131,0,,,45621,289,food.safety@lichfielddc.gov.uk,Lichfield,http://www.lichfielddc.gov.uk,,,2014-04-23,fhrs_5_en-GB,5,,FHRS,5
335854,46 - 48 Thornhill Road,,,Streetly,Co Operative Food,Retailers - supermarkets/hypermarkets,7840,5,,579807,5,,52.58556100000000,43133,289,food.safety@lichfielddc.gov.uk,Lichfield,http://www.lichfielddc.gov.uk,-1.87237500000000,B74 3EN,2013-08-22,fhrs_4_en-GB,4,,FHRS,10
335855,46 - 48 Thornhill Road,,,Streetly,Co Operative Food,Retailers - supermarkets/hypermarkets,7840,5,,384638,5,,52.58672800000000,3088,289,food.safety@lichfielddc.gov.uk,Lichfield,http://www.lichfielddc.gov.uk,-1.87129400000000,B74 3EH,2011-08-18,fhrs_4_en-GB,4,,FHRS,10
335856,7-13 Morley Road,,,Burntwood,Co Operative Food,Retailers - supermarkets/hypermarkets,7840,0,,384612,0,,52.68077600000000,2976,289,food.safety@lichfielddc.gov.uk,Lichfield,http://www.lichfielddc.gov.uk,-1.91977200000000,WS7 9AZ,2014-11-06,fhrs_5_en-GB,5,,FHRS,0
335857,The Plough & Harrow Fazeley Ltd,Atherstone Street,,Fazeley,Coffee Cats @ The Plough & Harrow,Mobile caterer,7846,10,,713461,10,,,49001,289,food.safety@lichfielddc.gov.uk,Lichfield,http://www.lichfielddc.gov.uk,,,2014-05-28,fhrs_3_en-GB,3,,FHRS,5
335858,College Hall,The Close,,Lichfield,College Hall,Other catering premises,7841,,,713479,,,52.68491700000000,49165,289,food.safety@lichfielddc.gov.uk,Lichfield,http://www.lichfielddc.gov.uk,-1.83078500000000,WS13 7LD,,fhrs_exempt_en-GB,Exempt,,FHRS,
335859,Bellamour Way,,,Colton,Colton House,Hotel/bed & breakfast/guest house,7842,0,,384618,0,,52.78168000000000,2994,289,food.safety@lichfielddc.gov.uk,Lichfield,http://www.lichfielddc.gov.uk,-1.92627300000000,WS15 3LL,2014-11-18,fhrs_5_en-GB,5,,FHRS,0
335860,Unit 1 Blewitt Court,Bore Street,,Lichfield,Comfortin' Food,Restaurant/Cafe/Canteen,1,0,,384419,0,,52.68249500000000,1635,289,food.safety@lichfielddc.gov.uk,Lichfield,http://www.lichfielddc.gov.uk,-1.82810200000000,WS13 6LL,2014-01-08,fhrs_5_en-GB,5,,FHRS,5
335861,Common Farm,Lichfield Road,,Riley Hill,Common Farm (Bed & Breakfast),Hotel/bed & breakfast/guest house,7842,0,,649118,0,,52.73010800000000,45405,289,food.safety@lichfielddc.gov.uk,Lichfield,http://www.lichfielddc.gov.uk,-1.82440500000000,WS13 8JE,2014-04-03,fhrs_5_en-GB,5,,FHRS,0
335862,17 Burnett Road,,,Streetly,Coogee Nursery,Hospitals/Childcare/Caring Premises,5,,,713448,,,52.58656900000000,48737,289,food.safety@lichfielddc.gov.uk,Lichfield,http://www.lichfielddc.gov.uk,-1.87405500000000,B74 3EL,,fhrs_exempt_en-GB,Exempt,,FHRS,
335863,Unit 10,Heart Of The Country Shopping Village,Swinfen,Lichfield,Cooks At Heart,Retailers - other,4613,,,713446,,,52.65003900000000,48729,289,food.safety@lichfielddc.gov.uk,Lichfield,http://www.lichfielddc.gov.uk,-1.80855500000000,WS14 9QR,,fhrs_exempt_en-GB,Exempt,,FHRS,
335864,Walsall Road,Muckley Corner,,Lichfield,Copper's End Guest House,Hotel/bed & breakfast/guest house,7842,10,,524931,10,,52.65785400000000,41137,289,food.safety@lichfielddc.gov.uk,Lichfield,http://www.lichfielddc.gov.uk,-1.87840400000000,WS14 0BG,2014-10-14,fhrs_3_en-GB,3,,FHRS,5
335865,Coppice Lane Fishery,Coppice Lane,,Hammerwich,Coppice Cafe,Restaurant/Cafe/Canteen,1,5,,447073,10,,52.66227900000000,38250,289,food.safety@lichfielddc.gov.uk,Lichfield,http://www.lichfielddc.gov.uk,-1.88095000000000,WS7 0JY,2014-02-24,fhrs_4_en-GB,4,,FHRS,5
335866,150 Rugeley Road,,,Chase Terrace,Corner Stores,Retailers - other,4613,10,,384657,10,,52.69086200000000,3289,289,food.safety@lichfielddc.gov.uk,Lichfield,http://www.lichfielddc.gov.uk,-1.93324600000000,WS7 1NT,2014-11-13,fhrs_3_en-GB,3,,FHRS,5
335867,66 Dimbles Lane,,,Lichfield,Cost Cutter,Retailers - supermarkets/hypermarkets,7840,20,,466460,0,,52.69275500000000,39566,289,food.safety@lichfielddc.gov.uk,Lichfield,http://www.lichfielddc.gov.uk,-1.83020700000000,WS13 7HL,2014-11-03,fhrs_1_en-GB,1,,FHRS,5
335868,50 Chorley Road,,,Burntwood,Cost Cutter   Dehal Superstore,Retailers - other,4613,5,,384633,10,,52.68993500000000,3072,289,food.safety@lichfielddc.gov.uk,Lichfield,http://www.lichfielddc.gov.uk,-1.93212300000000,WS7 2NU,2014-12-06,fhrs_4_en-GB,4,,FHRS,0
335869,28 Chapel Lane,,,Lichfield,Cost Cutter  Dulai Convenience Store,Retailers - other,4613,20,,428812,10,,52.67593000000000,37550,289,food.safety@lichfielddc.gov.uk,Lichfield,http://www.lichfielddc.gov.uk,-1.82602700000000,WS14 9BA,2014-06-17,fhrs_1_en-GB,1,,FHRS,15
335870,at Tesco,Church Street,,Lichfield,Costa,Restaurant/Cafe/Canteen,1,5,,384713,5,,52.68431000000000,4650,289,food.safety@lichfielddc.gov.uk,Lichfield,http://www.lichfielddc.gov.uk,-1.82164500000000,WS13 6DZ,2014-02-10,fhrs_4_en-GB,4,,FHRS,10
335871,43 Bakers Lane,,,Lichfield,Costa Coffee,Restaurant/Cafe/Canteen,1,0,,384511,5,,52.68244600000000,2212,289,food.safety@lichfielddc.gov.uk,Lichfield,http://www.lichfielddc.gov.uk,-1.82502500000000,WS13 6NG,2013-03-18,fhrs_5_en-GB,5,,FHRS,0
335872,School Lane,,,Hopwas,Coton & Hopwas Social Club,Pub/bar/nightclub,7843,5,,649122,0,,52.64378000000000,45529,289,food.safety@lichfielddc.gov.uk,Lichfield,http://www.lichfielddc.gov.uk,-1.73684500000000,B78 3AD,2014-03-17,fhrs_4_en-GB,4,,FHRS,10
335873,New Mill Lane,,,Fazeley,Coton Green Football Club,Pub/bar/nightclub,7843,0,,713495,0,,52.61094300000000,49261,289,food.safety@lichfielddc.gov.uk,Lichfield,http://www.lichfielddc.gov.uk,-1.70006200000000,B78 3RX,2014-11-01,fhrs_5_en-GB,5,,FHRS,5
335874,Queen Street,,,Chasetown,Cottage Of Content,Pub/bar/nightclub,7843,20,,384830,5,,52.67271900000000,991,289,food.safety@lichfielddc.gov.uk,Lichfield,http://www.lichfielddc.gov.uk,-1.92935500000000,WS7 4QE,2014-01-17,fhrs_1_en-GB,1,,FHRS,15
335875,Croft Farm,Birmingham Road,,Shenstone Woodend,Croft Farm Shop,Retailers - other,4613,10,,649124,5,,52.62443700000000,45537,289,food.safety@lichfielddc.gov.uk,Lichfield,http://www.lichfielddc.gov.uk,-1.83877300000000,WS14 0LF,2014-03-11,fhrs_3_en-GB,3,,FHRS,10
335876,Rugeley Road,,,Armitage,Croft Primary School,School/college/university,7845,0,,384599,0,,52.74518900000000,2868,289,food.safety@lichfielddc.gov.uk,Lichfield,http://www.lichfielddc.gov.uk,-1.88862000000000,WS15 4AZ,2015-02-11,fhrs_5_en-GB,5,,FHRS,5
335877,Stowe Street,,,Lichfield,Cruck House,Other catering premises,7841,,,717204,,,52.68689300000000,49545,289,food.safety@lichfielddc.gov.uk,Lichfield,http://www.lichfielddc.gov.uk,-1.82309900000000,WS13 6BP,,fhrs_exempt_en-GB,Exempt,,FHRS,
335878,Reynolds Close,,,Lichfield,Curborough Community Centre,Restaurant/Cafe/Canteen,1,10,,434846,10,,52.69520000000000,37866,289,food.safety@lichfielddc.gov.uk,Lichfield,http://www.lichfielddc.gov.uk,-1.82979800000000,WS13 7NY,2014-02-25,fhrs_3_en-GB,3,,FHRS,5
335879,Unit 1 Curborough Hall Farm,Watery Lane,Curborough,Lichfield,Curborough Hall Farm Shop,Retailers - other,4613,10,,384560,10,,52.70555400000000,2640,289,food.safety@lichfielddc.gov.uk,Lichfield,http://www.lichfielddc.gov.uk,-1.81639300000000,WS13 8ES,2014-05-22,fhrs_3_en-GB,3,,FHRS,5
335880,Rear of 50 High Street,,,Chasetown,D & P Rogers Catering,Other catering premises,7841,5,,384740,5,,52.67149900000000,5481,289,food.safety@lichfielddc.gov.uk,Lichfield,http://www.lichfielddc.gov.uk,-1.93377800000000,WS7 3XF,2015-01-20,fhrs_5_en-GB,5,,FHRS,5
335881,14 Burnett Road,,,Streetly,Da Gino,Restaurant/Cafe/Canteen,1,5,,384525,10,,52.58665800000000,2266,289,food.safety@lichfielddc.gov.uk,Lichfield,http://www.lichfielddc.gov.uk,-1.87305100000000,B74 3EJ,2013-09-30,fhrs_4_en-GB,4,,FHRS,5
335882,Unit 5,Burntwood Business Park Zone 3,Cannel Road,Burntwood,Dairy Crest,Distributors/Transporters,7,0,,535308,5,,52.67830900000000,41417,289,food.safety@lichfielddc.gov.uk,Lichfield,http://www.lichfielddc.gov.uk,-1.94373700000000,WS7 3FU,2013-04-09,fhrs_5_en-GB,5,,FHRS,5
335883,16 Bird Street,,,Lichfield,Damn Fine Cafe,Restaurant/Cafe/Canteen,1,5,,384722,0,,52.68318200000000,4870,289,food.safety@lichfielddc.gov.uk,Lichfield,http://www.lichfielddc.gov.uk,-1.83046600000000,WS13 6PR,2013-08-14,fhrs_5_en-GB,5,,FHRS,0
335884,Darnford Moors Golf Club,Darnford Lane,,Lichfield,Darnford Moors Golf Club & Restaurant,Pub/bar/nightclub,7843,5,,384449,5,,52.67558800000000,1837,289,food.safety@lichfielddc.gov.uk,Lichfield,http://www.lichfielddc.gov.uk,-1.79776500000000,WS14 9JG,2014-03-05,fhrs_4_en-GB,4,,FHRS,10
335885,Wissage Road,,,Lichfield,Darwin Court Care Centre,Hospitals/Childcare/Caring Premises,5,5,,493108,5,,52.68705200000000,40274,289,food.safety@lichfielddc.gov.uk,Lichfield,http://www.lichfielddc.gov.uk,-1.81583500000000,WS13 6SP,2014-06-17,fhrs_5_en-GB,5,,FHRS,5
335886,46 Bakers Lane,,,Lichfield,Debenhams Cafe,Restaurant/Cafe/Canteen,1,0,,609270,0,,52.68244600000000,43942,289,food.safety@lichfielddc.gov.uk,Lichfield,http://www.lichfielddc.gov.uk,-1.82502500000000,WS13 6NG,2013-11-18,fhrs_5_en-GB,5,,FHRS,0
335887,12a Burnett Road,,,Streetly,Delhi 6,Restaurant/Cafe/Canteen,1,0,,384752,0,,52.58665800000000,6148,289,food.safety@lichfielddc.gov.uk,Lichfield,http://www.lichfielddc.gov.uk,-1.87305100000000,B74 3EJ,2013-11-05,fhrs_5_en-GB,5,,FHRS,0
335888,68 Dimbles Lane,,,Lichfield,Dimbles Fish Bar,Takeaway/sandwich shop,7844,0,,384635,0,,52.69275500000000,3075,289,food.safety@lichfielddc.gov.uk,Lichfield,http://www.lichfielddc.gov.uk,-1.83020700000000,WS13 7HL,2014-05-21,fhrs_5_en-GB,5,,FHRS,0
335889,Curborough Sprint Course,,,Curborough,Dinner Jackets,Mobile caterer,7846,5,,384567,5,,52.69682100000000,2691,289,food.safety@lichfielddc.gov.uk,Lichfield,http://www.lichfielddc.gov.uk,-1.82809000000000,,2013-05-04,fhrs_4_en-GB,4,,FHRS,10
335890,,,,,Dinner Party Chef,Other catering premises,7841,10,,608621,5,,,43857,289,food.safety@lichfielddc.gov.uk,Lichfield,http://www.lichfielddc.gov.uk,,,2013-11-04,fhrs_4_en-GB,4,,FHRS,0
335891,Unit 6 Collis Timber Yard,Queens Drive Industrial Estate,Queens Drive,Burntwood,Dippers Diner,Restaurant/Cafe/Canteen,1,0,,691121,0,,52.67142400000000,47873,289,food.safety@lichfielddc.gov.uk,Lichfield,http://www.lichfielddc.gov.uk,-1.92901700000000,WS7 4QF,2014-08-12,fhrs_5_en-GB,5,,FHRS,0
335892,189 - 191 High Street,Chasetown,,Burntwood,Dmr   Children's Services,Hospitals/Childcare/Caring Premises,5,5,,524930,10,,52.67585000000000,41121,289,food.safety@lichfielddc.gov.uk,Lichfield,http://www.lichfielddc.gov.uk,-1.93433400000000,WS7 3XL,2014-12-23,fhrs_4_en-GB,4,,FHRS,5
335893,Lichfield College Campus,The Friary,,Lichfield,Dolce Vita Coffee Bar,Restaurant/Cafe/Canteen,1,10,,384604,5,,52.67969300000000,2879,289,food.safety@lichfielddc.gov.uk,Lichfield,http://www.lichfielddc.gov.uk,-1.82999100000000,WS13 6QG,2015-01-19,fhrs_4_en-GB,4,,FHRS,5
335894,,,,,Dollhouse Bakery Ltd,Other catering premises,7841,0,,670221,0,,,47137,289,food.safety@lichfielddc.gov.uk,Lichfield,http://www.lichfielddc.gov.uk,,,2014-06-20,fhrs_5_en-GB,5,,FHRS,0
335895,13b St John Street,,,Lichfield,Dominos Pizza,Takeaway/sandwich shop,7844,0,,384632,0,,52.68169600000000,3071,289,food.safety@lichfielddc.gov.uk,Lichfield,http://www.lichfielddc.gov.uk,-1.82853400000000,WS13 6NU,2013-12-12,fhrs_5_en-GB,5,,FHRS,0
335896,269 High Street,,Chasetown,Burntwood,Dominos Pizza,Takeaway/sandwich shop,7844,0,,384750,5,,52.68069500000000,5947,289,food.safety@lichfielddc.gov.uk,Lichfield,http://www.lichfielddc.gov.uk,-1.93426700000000,WS7 3XJ,2014-10-08,fhrs_5_en-GB,5,,FHRS,5
335897,46b Main Street,,,Whittington,Doughnuts & Dollars,Restaurant/Cafe/Canteen,1,5,,384690,10,,52.67511000000000,3955,289,food.safety@lichfielddc.gov.uk,Lichfield,http://www.lichfielddc.gov.uk,-1.76283500000000,WS14 9NH,2014-02-25,fhrs_4_en-GB,4,,FHRS,0
335898,Netherstowe,,,Lichfield,Dr Johnson,Pub/bar/nightclub,7843,20,,384470,10,,52.69441986083984,1906,289,food.safety@lichfielddc.gov.uk,Lichfield,http://www.lichfielddc.gov.uk,-1.81928098201752,WS13 6TS,2014-10-01,fhrs_1_en-GB,1,,FHRS,15
335899,Drayton Bassett Working Mens Club,Drayton Lane,,Drayton Bassett,Drayton Bassett Club,Pub/bar/nightclub,7843,,,727023,,,52.59904300000000,50045,289,food.safety@lichfielddc.gov.uk,Lichfield,http://www.lichfielddc.gov.uk,-1.71563100000000,B78 3TX,,fhrs_exempt_en-GB,Exempt,,FHRS,
335900,65 Coleshill Street,,,Fazeley,Drayton Court Hotel,Hotel/bed & breakfast/guest house,7842,5,,384651,5,,52.61336800000000,3232,289,food.safety@lichfielddc.gov.uk,Lichfield,http://www.lichfielddc.gov.uk,-1.69932200000000,B78 3RG,2015-01-19,fhrs_5_en-GB,5,,FHRS,0
335901,Fallow Road,,,Fazeley,Drayton Manor Cricket & Social Club,Pub/bar/nightclub,7843,0,,649114,0,,52.61602400000000,45305,289,food.safety@lichfielddc.gov.uk,Lichfield,http://www.lichfielddc.gov.uk,-1.70781100000000,B78 3SJ,2014-03-29,fhrs_5_en-GB,5,,FHRS,0
335902,Drayton Manor Drive,Fazeley,,Tamworth,Drayton Manor Hotel,Hotel/bed & breakfast/guest house,7842,0,,608612,5,,52.61205400000000,43497,289,food.safety@lichfielddc.gov.uk,Lichfield,http://www.lichfielddc.gov.uk,-1.71291800000000,B78 3TW,2013-09-26,fhrs_5_en-GB,5,,FHRS,5
335903,Drayton Manor Drive,,,Tamworth,Drayton Manor Theme Park,Restaurant/Cafe/Canteen,1,0,,384447,0,,52.61205400000000,1835,289,food.safety@lichfielddc.gov.uk,Lichfield,http://www.lichfielddc.gov.uk,-1.71291800000000,B78 3TW,2013-09-26,fhrs_5_en-GB,5,,FHRS,5
335904,Centenary Drive,,,Fazeley,Drayton Park Golf Club (Bars Only),Pub/bar/nightclub,7843,0,,384397,0,,52.60800800000000,1441,289,food.safety@lichfielddc.gov.uk,Lichfield,http://www.lichfielddc.gov.uk,-1.71282600000000,B78 3TN,2013-09-26,fhrs_5_en-GB,5,,FHRS,5
335905,Blithbury Road,,,Blithbury,Duchy Catering @ Priory Horizon School,School/college/university,7845,5,,384598,5,,52.77671800000000,2821,289,food.safety@lichfielddc.gov.uk,Lichfield,http://www.lichfielddc.gov.uk,-1.87381900000000,WS15 3JQ,2013-06-06,fhrs_5_en-GB,5,,FHRS,0
335906,149 Birmingham Road,,,Lichfield,Duke Of Wellington,Pub/bar/nightclub,7843,10,,384580,10,,52.67289000000000,27546,289,food.safety@lichfielddc.gov.uk,Lichfield,http://www.lichfielddc.gov.uk,-1.83157000000000,WS14 9BJ,2014-02-28,fhrs_3_en-GB,3,,FHRS,10
335907,23 -25 Greenhill,,,Lichfield,Duke Of York,Pub/bar/nightclub,7843,5,,384716,5,,52.68384500000000,4790,289,food.safety@lichfielddc.gov.uk,Lichfield,http://www.lichfielddc.gov.uk,-1.82274200000000,WS13 6DY,2013-08-01,fhrs_5_en-GB,5,,FHRS,0
335908,8 Conduit Street,,,Lichfield,Earl Of Lichfield,Pub/bar/nightclub,7843,0,,638444,0,,52.68389600000000,45085,289,food.safety@lichfielddc.gov.uk,Lichfield,http://www.lichfielddc.gov.uk,-1.82694300000000,WS13 6JR,2015-01-17,fhrs_5_en-GB,5,,FHRS,0
335909,Sunnydale,Norrington Lane,Whittington,Lichfield,Earth Life Company,Restaurant/Cafe/Canteen,1,5,,538580,10,,52.67800700000000,41641,289,food.safety@lichfielddc.gov.uk,Lichfield,http://www.lichfielddc.gov.uk,-1.75969800000000,WS14 9NX,2013-04-12,fhrs_4_en-GB,4,,FHRS,5
335910,19 Bird Street,,,Lichfield,Eastern Eye,Restaurant/Cafe/Canteen,1,5,,384366,5,,52.68267800000000,1117,289,food.safety@lichfielddc.gov.uk,Lichfield,http://www.lichfielddc.gov.uk,-1.83030500000000,WS13 6PW,2014-02-03,fhrs_5_en-GB,5,,FHRS,5
335911,24-26 Eastgate Street,,,Burntwood,Eastgate Stores,Retailers - other,4613,5,,384380,5,,52.68655000000000,1337,289,food.safety@lichfielddc.gov.uk,Lichfield,http://www.lichfielddc.gov.uk,-1.93930300000000,WS7 1JJ,2013-12-17,fhrs_4_en-GB,4,,FHRS,10
335912,,,,,Eat Home Made,Other catering premises,7841,5,,538579,5,,,41637,289,food.safety@lichfielddc.gov.uk,Lichfield,http://www.lichfielddc.gov.uk,,,2014-11-05,fhrs_4_en-GB,4,,FHRS,10
335913,Moore Croft,Edingale,,Tamworth,Edingale Village Hall,Pub/bar/nightclub,7843,,,736210,,,52.70650700000000,50582,289,food.safety@lichfielddc.gov.uk,Lichfield,http://www.lichfielddc.gov.uk,-1.68762700000000,B79 9LJ,,fhrs_exempt_en-GB,Exempt,,FHRS,
335914,New Minster House,Bird Street,,Lichfield,Ego Restaurants,Restaurant/Cafe/Canteen,1,0,,384582,0,,52.68267800000000,2760,289,food.safety@lichfielddc.gov.uk,Lichfield,http://www.lichfielddc.gov.uk,-1.83030500000000,WS13 6PW,2014-08-14,fhrs_5_en-GB,5,,FHRS,0
335915,2 Rangifer Road,,,Fazeley,Eight 2 Late,Retailers - other,4613,10,,384777,10,,52.61550900000000,7674,289,food.safety@lichfielddc.gov.uk,Lichfield,http://www.lichfielddc.gov.uk,-1.71065100000000,B78 3ST,2014-05-08,fhrs_3_en-GB,3,,FHRS,5
335916,Elford Hall Garden Project,Old Hall Drive,,Elford,Elford Hall Garden Project,Other catering premises,7841,,,736064,,,52.69233100000000,50550,289,food.safety@lichfielddc.gov.uk,Lichfield,http://www.lichfielddc.gov.uk,-1.72786800000000,B79 9BZ,,fhrs_exempt_en-GB,Exempt,,FHRS,
335917,13 The Beck,,,Elford,Elford Sports & Social Club,Pub/bar/nightclub,7843,0,,649115,0,,52.69203400000000,45313,289,food.safety@lichfielddc.gov.uk,Lichfield,http://www.lichfielddc.gov.uk,-1.71989600000000,B79 9BT,2014-03-29,fhrs_5_en-GB,5,,FHRS,0
335918,Church Road,,,Tamworth,Elford Village Hall,Pub/bar/nightclub,7843,,,732901,,,52.69210500000000,50445,289,food.safety@lichfielddc.gov.uk,Lichfield,http://www.lichfielddc.gov.uk,-1.72372700000000,B79 9DA,,fhrs_exempt_en-GB,Exempt,,FHRS,
335919,Meerash Lane,,,Hammerwich,Elias Ashmole Club & Institute,Pub/bar/nightclub,7843,0,,721748,0,,52.66582200000000,49737,289,food.safety@lichfielddc.gov.uk,Lichfield,http://www.lichfielddc.gov.uk,-1.90233600000000,WS7 0LF,2014-12-08,fhrs_5_en-GB,5,,FHRS,0
335920,Fisherwick Road,,,Whittington,Elswick House Nursery School,Hospitals/Childcare/Caring Premises,5,0,,384490,0,,52.67123600000000,2035,289,food.safety@lichfielddc.gov.uk,Lichfield,http://www.lichfielddc.gov.uk,-1.76301800000000,WS14 9LH,2014-10-23,fhrs_5_en-GB,5,,FHRS,0
335921,,,,,English Indian,Other catering premises,7841,5,,713484,0,,,49205,289,food.safety@lichfielddc.gov.uk,Lichfield,http://www.lichfielddc.gov.uk,,,2014-10-24,fhrs_5_en-GB,5,,FHRS,0
335922,All Saints Church Of England Primary School,Furlong Close,Alrewas,Burton Upon Trent,Extra Time Club,School/college/university,7845,,,734056,,,52.73098300000000,50458,289,food.safety@lichfielddc.gov.uk,Lichfield,http://www.lichfielddc.gov.uk,-1.74680500000000,DE13 7EF,,fhrs_exempt_en-GB,Exempt,,FHRS,
335923,17 - 19 Coleshill Street,,,Fazeley,Fazeley Fish Bar,Takeaway/sandwich shop,7844,0,,384365,5,,52.61411300000000,1115,289,food.safety@lichfielddc.gov.uk,Lichfield,http://www.lichfielddc.gov.uk,-1.69884400000000,B78 3RB,2013-07-25,fhrs_5_en-GB,5,,FHRS,0
335924,10-12 Atherstone Street,,,Fazeley,Fazeley Park Contemporary Indian Cuisine,Restaurant/Cafe/Canteen,1,10,,384629,10,,52.61418000000000,3068,289,food.safety@lichfielddc.gov.uk,Lichfield,http://www.lichfielddc.gov.uk,-1.69695400000000,B78 3RF,2013-03-07,fhrs_3_en-GB,3,,FHRS,10
335925,St Pauls Church,Coleshill Street,,Fazeley,Fazeley Pre School,Hospitals/Childcare/Caring Premises,5,0,,542907,0,,52.61384500000000,41745,289,food.safety@lichfielddc.gov.uk,Lichfield,http://www.lichfielddc.gov.uk,-1.69949600000000,B78 3RA,2013-04-17,fhrs_5_en-GB,5,,FHRS,5
335926,4 Coleshill Street,,,Fazeley,Fazeley Victory Club,Pub/bar/nightclub,7843,5,,713441,10,,52.61384500000000,48649,289,food.safety@lichfielddc.gov.uk,Lichfield,http://www.lichfielddc.gov.uk,-1.69949600000000,B78 3RA,2014-09-23,fhrs_3_en-GB,3,,FHRS,10
335927,Bakers Lane,,,Lichfield,Fieldings Baked Potatoes,Mobile caterer,7846,10,,384674,10,,52.68275600000000,3499,289,food.safety@lichfielddc.gov.uk,Lichfield,http://www.lichfielddc.gov.uk,-1.82509100000000,,2013-06-25,fhrs_3_en-GB,3,,FHRS,5
335928,The Firs Club And Institute,Rugeley Road,Chase Terrace,Burntwood,Firs Club & Institute,Pub/bar/nightclub,7843,0,,717518,0,,52.68410200000000,49557,289,food.safety@lichfielddc.gov.uk,Lichfield,http://www.lichfielddc.gov.uk,-1.93408500000000,WS7 1AG,2014-11-24,fhrs_5_en-GB,5,,FHRS,0
335929,Shell Stonnall,Chester Road,,Stonnall,First Stop Trading Limited,Retailers - other,4613,5,,430294,5,,52.62345800000000,37662,289,food.safety@lichfielddc.gov.uk,Lichfield,http://www.lichfielddc.gov.uk,-1.89643300000000,WS9 9HJ,2012-07-23,fhrs_5_en-GB,5,,FHRS,5
335930,Fisherwick Wood Lane,,,Whittington,Fisherwick Lakes,Restaurant/Cafe/Canteen,1,0,,384757,0,,52.68220800000000,6198,289,food.safety@lichfielddc.gov.uk,Lichfield,http://www.lichfielddc.gov.uk,-1.75223500000000,WS13 8QF,2013-06-10,fhrs_5_en-GB,5,,FHRS,0
335931,,,,,Flavours Best Of British,Retailers - other,4613,5,,384764,5,,,6341,289,food.safety@lichfielddc.gov.uk,Lichfield,http://www.lichfielddc.gov.uk,,,2013-02-25,fhrs_5_en-GB,5,,FHRS,5
335932,,,,,Fluffy Delights,Retailers - other,4613,0,,700792,0,,,48217,289,food.safety@lichfielddc.gov.uk,Lichfield,http://www.lichfielddc.gov.uk,,,2014-09-16,fhrs_5_en-GB,5,,FHRS,0
335933,Footherley Lane,,,Shenstone,Footherley Hall,Hospitals/Childcare/Caring Premises,5,0,,384652,0,,52.63101800000000,3255,289,food.safety@lichfielddc.gov.uk,Lichfield,http://www.lichfielddc.gov.uk,-1.85380400000000,WS14 0HG,2014-06-11,fhrs_5_en-GB,5,,FHRS,0
335934,Footherley Lane,,,Footherley,Footherley Working Mens Club,Pub/bar/nightclub,7843,,,732900,,,52.62702400000000,50437,289,food.safety@lichfielddc.gov.uk,Lichfield,http://www.lichfielddc.gov.uk,-1.85146800000000,WS14 0HQ,,fhrs_exempt_en-GB,Exempt,,FHRS,
335935,Hawthorne House,Walsall Road,,Lichfield,Footsteps Nursery & Pre School,Hospitals/Childcare/Caring Premises,5,0,,504306,5,,52.67551800000000,40453,289,food.safety@lichfielddc.gov.uk,Lichfield,http://www.lichfielddc.gov.uk,-1.85414400000000,WS13 8JL,2014-06-12,fhrs_5_en-GB,5,,FHRS,0
335936,London Road,,,Canwell,Footsteps Nursery & Pre School,Hospitals/Childcare/Caring Premises,5,0,,384794,0,,52.59370500000000,7750,289,food.safety@lichfielddc.gov.uk,Lichfield,http://www.lichfielddc.gov.uk,-1.78509200000000,B75 5SD,2013-11-18,fhrs_5_en-GB,5,,FHRS,0
335937,11a Coleshill Street,,,Fazeley,Fortune Garden,Takeaway/sandwich shop,7844,0,,384474,5,,52.61411300000000,1947,289,food.safety@lichfielddc.gov.uk,Lichfield,http://www.lichfielddc.gov.uk,-1.69884400000000,B78 3RB,2014-04-29,fhrs_4_en-GB,4,,FHRS,10
335938,Ryecroft Shopping Centre,1 Parkhill Road,,Burntwood,Fown Lin Chinese Takeaway,Takeaway/sandwich shop,7844,10,,384499,10,,52.68589600000000,2131,289,food.safety@lichfielddc.gov.uk,Lichfield,http://www.lichfielddc.gov.uk,-1.92610900000000,WS7 2ER,2014-03-12,fhrs_3_en-GB,3,,FHRS,10
335939,44 Main Street,,,Shenstone,Fox & Hounds,Pub/bar/nightclub,7843,0,,384452,0,,52.63916400000000,18402,289,food.safety@lichfielddc.gov.uk,Lichfield,http://www.lichfielddc.gov.uk,-1.84067000000000,WS14 0NB,2014-08-20,fhrs_5_en-GB,5,,FHRS,0
335940,A38 Westbound,Rykneld Street,,Fradley,Fradley Arms Hotel,Pub/bar/nightclub,7843,0,,384821,0,,52.71680400000000,867,289,food.safety@lichfielddc.gov.uk,Lichfield,http://www.lichfielddc.gov.uk,-1.75844900000000,WS13 8RD,2013-07-30,fhrs_5_en-GB,5,,FHRS,5
335941,50 Church Lane,,,Fradley,Fradley Post Office & Stores,Retailers - other,4613,10,,384423,5,,52.72010000000000,1639,289,food.safety@lichfielddc.gov.uk,Lichfield,http://www.lichfielddc.gov.uk,-1.76134700000000,WS13 8NP,2014-11-04,fhrs_4_en-GB,4,,FHRS,5
335942,Birmingham Road,Wall Island,,Lichfield,Frankie & Benny's,Restaurant/Cafe/Canteen,1,0,,384682,0,,52.65265000000000,3714,289,food.safety@lichfielddc.gov.uk,Lichfield,http://www.lichfielddc.gov.uk,-1.83482600000000,WS14 0QP,2014-09-24,fhrs_5_en-GB,5,,FHRS,5
335943,,,,,Fred Butlins Jolly Roger Fish Chips,Mobile caterer,7846,5,,700793,5,,,48221,289,food.safety@lichfielddc.gov.uk,Lichfield,http://www.lichfielddc.gov.uk,,,2014-09-15,fhrs_5_en-GB,5,,FHRS,0
335944,Eastern Avenue,,,Lichfield,Friary Grange Leisure Centre,Retailers - other,4613,,,713486,,,52.69470900000000,49225,289,food.safety@lichfielddc.gov.uk,Lichfield,http://www.lichfielddc.gov.uk,-1.84564700000000,WS13 7SQ,,fhrs_exempt_en-GB,Exempt,,FHRS,
335945,Rugeley Road,,,Burntwood,Fulfen Primary School,School/college/university,7845,5,,384570,5,,52.68082800000000,2715,289,food.safety@lichfielddc.gov.uk,Lichfield,http://www.lichfielddc.gov.uk,-1.90501000000000,WS7 9BJ,2014-01-27,fhrs_5_en-GB,5,,FHRS,0
335946,,,,,G. Smith   Event Caterers,Mobile caterer,7846,0,,384699,0,,,4161,289,food.safety@lichfielddc.gov.uk,Lichfield,http://www.lichfielddc.gov.uk,,,2014-12-23,fhrs_5_en-GB,5,,FHRS,0
335947,Marine Services,Fradley Junction,,Fradley,Gallery Junction,Retailers - other,4613,0,,638443,5,,52.72377400000000,45021,289,food.safety@lichfielddc.gov.uk,Lichfield,http://www.lichfielddc.gov.uk,-1.79351600000000,DE13 7DN,2014-03-11,fhrs_5_en-GB,5,,FHRS,0
335948,Packington Moor Farm,Jerrys Lane,,Lichfield,Galloping Gourmet @ Packington Moor Farm,Restaurant/Cafe/Canteen,1,20,,535309,15,,52.64911400000000,41421,289,food.safety@lichfielddc.gov.uk,Lichfield,http://www.lichfielddc.gov.uk,-1.78291400000000,WS14 9QB,2014-03-03,fhrs_1_en-GB,1,,FHRS,10
335949,26 Bakers Lane,,,Lichfield,Game,Retailers - other,4613,,,713471,,,52.68306700000000,49133,289,food.safety@lichfielddc.gov.uk,Lichfield,http://www.lichfielddc.gov.uk,-1.82574800000000,WS13 6NF,,fhrs_exempt_en-GB,Exempt,,FHRS,
335950,Charnwood Childrens Centre,Purcell Avenue,,Lichfield,Gateway Nursery & Community Kitchen,Hospitals/Childcare/Caring Premises,5,,,713483,,,52.69597300000000,49201,289,food.safety@lichfielddc.gov.uk,Lichfield,http://www.lichfielddc.gov.uk,-1.82399500000000,WS13 7PH,,fhrs_exempt_en-GB,Exempt,,FHRS,
335951,Darlings Lane,,,Gentleshaw,Gentleshaw Primary School,School/college/university,7845,0,,384824,0,,52.70604100000000,870,289,food.safety@lichfielddc.gov.uk,Lichfield,http://www.lichfielddc.gov.uk,-1.92628200000000,WS15 4LY,2014-02-11,fhrs_5_en-GB,5,,FHRS,5
335952,120 Main Street,,,Alrewas,George & Dragon,Pub/bar/nightclub,7843,10,,384353,5,,52.73250300000000,1063,289,food.safety@lichfielddc.gov.uk,Lichfield,http://www.lichfielddc.gov.uk,-1.74700400000000,DE13 7AE,2014-06-24,fhrs_4_en-GB,4,,FHRS,5
335953,28 Beacon Street,,,Lichfield,George & Dragon,Pub/bar/nightclub,7843,5,,384589,5,,52.68672000000000,2805,289,food.safety@lichfielddc.gov.uk,Lichfield,http://www.lichfielddc.gov.uk,-1.83456500000000,WS13 7AJ,2014-01-08,fhrs_4_en-GB,4,,FHRS,10
335954,34 Bore Street,,,Lichfield,George Iv,Pub/bar/nightclub,7843,0,,508673,0,,52.68314900000000,40577,289,food.safety@lichfielddc.gov.uk,Lichfield,http://www.lichfielddc.gov.uk,-1.82685700000000,WS13 6LU,2014-08-18,fhrs_5_en-GB,5,,FHRS,0
335955,Wickes Car Park,Eastern Avenue,,Lichfield,Get Stuffed,Mobile caterer,7846,5,,384756,10,,52.69264500000000,6195,289,food.safety@lichfielddc.gov.uk,Lichfield,http://www.lichfielddc.gov.uk,-1.81439000000000,,2014-08-12,fhrs_3_en-GB,3,,FHRS,10
335956,Unit 11 Smiths Close,Zone 3 Burntwood Business Park,,Burntwood,Go Bananas Burntwood Ltd,Restaurant/Cafe/Canteen,1,0,,689035,0,,52.67829100000000,47825,289,food.safety@lichfielddc.gov.uk,Lichfield,http://www.lichfielddc.gov.uk,-1.94321900000000,WS7 3FT,2014-08-05,fhrs_5_en-GB,5,,FHRS,0
335957,Unit 1 Tuppenhurst Lane,Handsacre,,Nr Rugeley,Good View Cantonese Takeaway,Takeaway/sandwich shop,7844,5,,384576,10,,52.74030100000000,2727,289,food.safety@lichfielddc.gov.uk,Lichfield,http://www.lichfielddc.gov.uk,-1.86502300000000,WS15 4EH,2013-03-27,fhrs_4_en-GB,4,,FHRS,5
335958,110 Cannock Road,,,Burntwood,Grangemoor House Nursing Home,Hospitals/Childcare/Caring Premises,5,5,,384553,5,,52.67961500000000,2573,289,food.safety@lichfielddc.gov.uk,Lichfield,http://www.lichfielddc.gov.uk,-1.91789500000000,WS7 0BG,2014-12-03,fhrs_5_en-GB,5,,FHRS,5
335959,112 Cannock Road,,,Burntwood,Grangemoor Working Mens Club,Pub/bar/nightclub,7843,0,,384747,0,,52.67961500000000,5835,289,food.safety@lichfielddc.gov.uk,Lichfield,http://www.lichfielddc.gov.uk,-1.91789500000000,WS7 0BG,2014-03-19,fhrs_5_en-GB,5,,FHRS,5
335960,Lichfield Road,,,Brownhills,Grasmere Garden Centre,Restaurant/Cafe/Canteen,1,5,,656740,5,,52.65244500000000,45681,289,food.safety@lichfielddc.gov.uk,Lichfield,http://www.lichfielddc.gov.uk,-1.91337800000000,WS8 6LL,2014-04-29,fhrs_5_en-GB,5,,FHRS,5
335961,3 Bird Street,,,Lichfield,Green T,Takeaway/sandwich shop,7844,10,,384693,10,,52.68267800000000,4022,289,food.safety@lichfielddc.gov.uk,Lichfield,http://www.lichfielddc.gov.uk,-1.83030500000000,WS13 6PW,2012-12-11,fhrs_3_en-GB,3,,FHRS,10
335962,30 Market Street,,,Lichfield,Greggs,Retailers - other,4613,0,,384725,0,,52.68291000000000,4908,289,food.safety@lichfielddc.gov.uk,Lichfield,http://www.lichfielddc.gov.uk,-1.82878100000000,WS13 6LH,2014-02-11,fhrs_5_en-GB,5,,FHRS,0
335963,9 Bakers Lane,,,Lichfield,Greggs,Retailers - other,4613,0,,384358,0,,52.68306700000000,109,289,food.safety@lichfielddc.gov.uk,Lichfield,http://www.lichfielddc.gov.uk,-1.82574800000000,WS13 6NF,2013-04-15,fhrs_5_en-GB,5,,FHRS,5
335964,Barnes Road,,,Shenstone,Greysbrooke Primary School,School/college/university,7845,0,,384368,0,,52.63921300000000,112,289,food.safety@lichfielddc.gov.uk,Lichfield,http://www.lichfielddc.gov.uk,-1.83666500000000,WS14 0LT,2013-12-11,fhrs_5_en-GB,5,,FHRS,5
335965,Bore Street,,,Lichfield,Guildhall,Other catering premises,7841,,,713475,,,52.68290700000000,49149,289,food.safety@lichfielddc.gov.uk,Lichfield,http://www.lichfielddc.gov.uk,-1.82696100000000,WS13 6LX,,fhrs_exempt_en-GB,Exempt,,FHRS,
335966,Stockhay Lane,,,Hammerwich,Hammerwich Cricket Club,Pub/bar/nightclub,7843,5,,384614,5,,52.67047700000000,2981,289,food.safety@lichfielddc.gov.uk,Lichfield,http://www.lichfielddc.gov.uk,-1.90010800000000,WS7 0JQ,2012-08-31,fhrs_5_en-GB,5,,FHRS,0
335967,105 Burntwood Road,,,Hammerwich,Hammerwich Hall Nursing Home,Hospitals/Childcare/Caring Premises,5,5,,384828,5,,52.66831100000000,989,289,food.safety@lichfielddc.gov.uk,Lichfield,http://www.lichfielddc.gov.uk,-1.90071900000000,WS7 0JL,2014-11-20,fhrs_5_en-GB,5,,FHRS,5
335968,15 Hall Lane,,,Hammerwich,Hammerwich Post Office & Village Stores,Retailers - other,4613,,,726736,,,52.66556000000000,49989,289,food.safety@lichfielddc.gov.uk,Lichfield,http://www.lichfielddc.gov.uk,-1.89982300000000,WS7 0JP,,fhrs_exempt_en-GB,Exempt,,FHRS,
335969,Hamstall Fishery - Office,Yoxall Road,,Hamstall Ridware,Hamstall Fishery,Retailers - other,4613,10,,555684,10,,52.76833600000000,42237,289,food.safety@lichfielddc.gov.uk,Lichfield,http://www.lichfielddc.gov.uk,-1.84052600000000,WS15 3RZ,2013-06-11,fhrs_3_en-GB,3,,FHRS,10
335970,Lichfield & Burntwood Vocational Centre,Chase Terrace Technology College,Bridgecross Road,Burntwood,Happy Food,Other catering premises,7841,5,,384788,5,,52.68165200000000,7726,289,food.safety@lichfielddc.gov.uk,Lichfield,http://www.lichfielddc.gov.uk,-1.92598300000000,WS7 2DB,2013-09-23,fhrs_5_en-GB,5,,FHRS,0
335971,Unit 1 Bonehill Mews,Lichfield Street,,Fazeley,Happy Tots Nursery,Hospitals/Childcare/Caring Premises,5,0,,384817,0,,52.61621800000000,817,289,food.safety@lichfielddc.gov.uk,Lichfield,http://www.lichfielddc.gov.uk,-1.70659900000000,B78 3QS,2014-02-07,fhrs_5_en-GB,5,,FHRS,0
335972,Main Road,,,Harlaston,Harlaston Post Office & Stores,Retailers - other,4613,,,726737,,,52.69473600000000,49993,289,food.safety@lichfielddc.gov.uk,Lichfield,http://www.lichfielddc.gov.uk,-1.68287200000000,B79 9JU,,fhrs_exempt_en-GB,Exempt,,FHRS,
335973,Bassetts Pole,London Road,,Canwell,Harvester,Restaurant/Cafe/Canteen,1,5,,384434,0,,52.59100900000000,1715,289,food.safety@lichfielddc.gov.uk,Lichfield,http://www.lichfielddc.gov.uk,-1.78057400000000,B75 5SA,2013-07-29,fhrs_5_en-GB,5,,FHRS,5
335974,Haunton,,,Nr Tamworth,Haunton Hall Care Home,Hospitals/Childcare/Caring Premises,5,0,,384621,0,,52.69476318359375,3021,289,food.safety@lichfielddc.gov.uk,Lichfield,http://www.lichfielddc.gov.uk,-1.65404939651489,B79 9HW,2013-11-20,fhrs_5_en-GB,5,,FHRS,5
335975,Armitage Park,Armitage Lane,,Rugeley,Hawkesyard Estate,Pub/bar/nightclub,7843,5,,384643,5,,52.74437400000000,3173,289,food.safety@lichfielddc.gov.uk,Lichfield,http://www.lichfielddc.gov.uk,-1.90279800000000,WS15 1PU,2015-01-22,fhrs_5_en-GB,5,,FHRS,5
335976,Armitage Lane,,,Armitage,Hawksyard Priory Nursing Home,Hospitals/Childcare/Caring Premises,5,5,,384512,5,,52.74354700000000,2218,289,food.safety@lichfielddc.gov.uk,Lichfield,http://www.lichfielddc.gov.uk,-1.90306700000000,WS15 1PT,2015-01-22,fhrs_5_en-GB,5,,FHRS,5
335977,Hawthorn Close,,,Lichfield,Hawthorn House,Hospitals/Childcare/Caring Premises,5,0,,384502,0,,52.68429600000000,2172,289,food.safety@lichfielddc.gov.uk,Lichfield,http://www.lichfielddc.gov.uk,-1.81216300000000,WS13 6EN,2012-12-28,fhrs_5_en-GB,5,,FHRS,0
335978,Spode Avenue,,,Handsacre,Hayes Meadow Primary School,School/college/university,7845,0,,384663,0,,52.73930900000000,3316,289,food.safety@lichfielddc.gov.uk,Lichfield,http://www.lichfielddc.gov.uk,-1.86225600000000,WS15 4EU,2013-12-13,fhrs_5_en-GB,5,,FHRS,5
335979,128 Ironstone Road,,,Chase Terrace,Hazelwood House Club,Pub/bar/nightclub,7843,5,,384463,5,,52.68572400000000,1895,289,food.safety@lichfielddc.gov.uk,Lichfield,http://www.lichfielddc.gov.uk,-1.94050300000000,WS7 1LY,2014-02-27,fhrs_5_en-GB,5,,FHRS,5
335980,School Lane,,,Hill Ridware,Henry Chadwick Primary School,School/college/university,7845,5,,384810,5,,52.75748500000000,795,289,food.safety@lichfielddc.gov.uk,Lichfield,http://www.lichfielddc.gov.uk,-1.87832000000000,WS15 3QN,2014-07-09,fhrs_5_en-GB,5,,FHRS,5
335981,Unit 1 St Johns Business Centre,Upper St John Street,,Lichfield,Here 2 Help,Other catering premises,7841,,,713506,,,52.67862600000000,49337,289,food.safety@lichfielddc.gov.uk,Lichfield,http://www.lichfielddc.gov.uk,-1.82575000000000,WS14 9DT,,fhrs_exempt_en-GB,Exempt,,FHRS,
335982,1 Burntwood Town Shopping Centre,Cannock Road,,Burntwood,Heron Foods,Retailers - supermarkets/hypermarkets,7840,0,,669158,0,,52.68218800000000,47009,289,food.safety@lichfielddc.gov.uk,Lichfield,http://www.lichfielddc.gov.uk,-1.93475300000000,WS7 1JR,2014-06-11,fhrs_5_en-GB,5,,FHRS,5
335983,Elder Lane,,,Burntwood,Highfields Primary School,School/college/university,7845,5,,384395,5,,52.68060800000000,144,289,food.safety@lichfielddc.gov.uk,Lichfield,http://www.lichfielddc.gov.uk,-1.91055700000000,WS7 9BT,2013-06-13,fhrs_5_en-GB,5,,FHRS,5
335984,Birmingham Road,Wall Island,,Lichfield,Holiday Inn Express Lichfield,Hotel/bed & breakfast/guest house,7842,0,,632728,0,,52.64006100000000,4489,289,food.safety@lichfielddc.gov.uk,Lichfield,http://www.lichfielddc.gov.uk,-1.80874600000000,WS14 0PQ,2014-02-12,fhrs_5_en-GB,5,,FHRS,0
335985,41 Market Street,,,Lichfield,Holland & Barrett,Retailers - other,4613,5,,683963,5,,52.68360100000000,47757,289,food.safety@lichfielddc.gov.uk,Lichfield,http://www.lichfielddc.gov.uk,-1.82821600000000,WS13 6LA,2014-07-14,fhrs_4_en-GB,4,,FHRS,10
335986,Little Hay Lane,,,Little Hay,Holly Bush,Pub/bar/nightclub,7843,0,,384360,0,,52.62341300000000,1096,289,food.safety@lichfielddc.gov.uk,Lichfield,http://www.lichfielddc.gov.uk,-1.82074000000000,WS14 0QA,2014-03-11,fhrs_5_en-GB,5,,FHRS,5
335987,Holly Grove Lane,,,Burntwood,Holly Grove Primary School,School/college/university,7845,0,,384399,0,,52.68860000000000,145,289,food.safety@lichfielddc.gov.uk,Lichfield,http://www.lichfielddc.gov.uk,-1.93943400000000,WS7 1LU,2013-06-24,fhrs_5_en-GB,5,,FHRS,0
335988,11 Daisy Lane,,,Alrewas,Holly Tree Cottage,Hotel/bed & breakfast/guest house,7842,10,,551658,5,,52.72911000000000,42085,289,food.safety@lichfielddc.gov.uk,Lichfield,http://www.lichfielddc.gov.uk,-1.75361300000000,DE13 7EW,2013-05-28,fhrs_4_en-GB,4,,FHRS,5
335989,36 Swallow Croft,,,Lichfield,Hong Kong Cantonese Takeaway,Takeaway/sandwich shop,7844,0,,736066,0,,52.69052800000000,50562,289,food.safety@lichfielddc.gov.uk,Lichfield,http://www.lichfielddc.gov.uk,-1.83827900000000,WS13 7HF,2015-02-16,fhrs_5_en-GB,5,,FHRS,0
335990,,,,,Horizon Care,Hospitals/Childcare/Caring Premises,5,0,,426692,5,,,37262,289,food.safety@lichfielddc.gov.uk,Lichfield,http://www.lichfielddc.gov.uk,,,2014-01-17,fhrs_5_en-GB,5,,FHRS,5
335991,10 Sandford Street,,,Lichfield,Horse & Jockey,Pub/bar/nightclub,7843,10,,384806,10,,52.68213100000000,7818,289,food.safety@lichfielddc.gov.uk,Lichfield,http://www.lichfielddc.gov.uk,-1.83094300000000,WS13 6QA,2014-03-04,fhrs_3_en-GB,3,,FHRS,10
335992,Tamworth Road,,,Freeford,Horse & Jockey,Pub/bar/nightclub,7843,0,,384362,5,,52.67162700000000,1101,289,food.safety@lichfielddc.gov.uk,Lichfield,http://www.lichfielddc.gov.uk,-1.79964700000000,WS14 9JE,2014-03-05,fhrs_5_en-GB,5,,FHRS,5
335993,The Square,,,Elford,Howard Primary School,School/college/university,7845,0,,384593,0,,52.69212900000000,2810,289,food.safety@lichfielddc.gov.uk,Lichfield,http://www.lichfielddc.gov.uk,-1.72221800000000,B79 9DB,2014-03-18,fhrs_5_en-GB,5,,FHRS,5
335994,St Michaels Primary School,Sturgeons Hill,,Lichfield,Humpty Dumpty After School Club,School/college/university,7845,,,719951,,,52.68203000000000,49709,289,food.safety@lichfielddc.gov.uk,Lichfield,http://www.lichfielddc.gov.uk,-1.81764600000000,WS14 9AW,,fhrs_exempt_en-GB,Exempt,,FHRS,
335995,Trent Valley Road,,,Lichfield,Humpty Dumpty Day Nursery & Pre School,Hospitals/Childcare/Caring Premises,5,5,,384800,5,,52.68759300000000,7774,289,food.safety@lichfielddc.gov.uk,Lichfield,http://www.lichfielddc.gov.uk,-1.80519600000000,WS13 6HB,2013-11-04,fhrs_5_en-GB,5,,FHRS,0
335996,,,,,Hunnypot Cottage Designs,Other catering premises,7841,0,,638447,0,,,45177,289,food.safety@lichfielddc.gov.uk,Lichfield,http://www.lichfielddc.gov.uk,,,2014-03-20,fhrs_5_en-GB,5,,FHRS,0
335997,,,,,I.L.N Catering,Mobile caterer,7846,10,,384379,5,,,1319,289,food.safety@lichfielddc.gov.uk,Lichfield,http://www.lichfielddc.gov.uk,,,2014-06-30,fhrs_4_en-GB,4,,FHRS,5
335998,19 Market Street,,,Lichfield,Iceland,Retailers - supermarkets/hypermarkets,7840,5,,528971,0,,52.68303600000000,41205,289,food.safety@lichfielddc.gov.uk,Lichfield,http://www.lichfielddc.gov.uk,-1.82916500000000,WS13 6JX,2013-03-18,fhrs_5_en-GB,5,,FHRS,0
335999,,,,,Icing Delights,Other catering premises,7841,5,,615860,0,,,44106,289,food.safety@lichfielddc.gov.uk,Lichfield,http://www.lichfielddc.gov.uk,,,2013-12-03,fhrs_5_en-GB,5,,FHRS,0
336000,Old Road,Armitage,,Rugeley,Ideal Standards International Uk Ltd,Retailers - other,4613,,,719952,,,52.74225900000000,49713,289,food.safety@lichfielddc.gov.uk,Lichfield,http://www.lichfielddc.gov.uk,-1.87982900000000,WS15 4BS,,fhrs_exempt_en-GB,Exempt,,FHRS,
336001,,,,,In A Jam,Other catering premises,7841,5,,384735,5,,,5361,289,food.safety@lichfielddc.gov.uk,Lichfield,http://www.lichfielddc.gov.uk,,,2014-12-23,fhrs_5_en-GB,5,,FHRS,5
336002,Unit 17 Burntwood Town Shopping Centre,Cannock Road,,Burntwood,India Spice,Restaurant/Cafe/Canteen,1,20,,384831,15,,52.68218800000000,994,289,food.safety@lichfielddc.gov.uk,Lichfield,http://www.lichfielddc.gov.uk,-1.93475300000000,WS7 1JR,2014-12-01,fhrs_1_en-GB,1,,FHRS,15
336003,8 Lombard Street,,,Lichfield,Indian Village,Restaurant/Cafe/Canteen,1,5,,384755,5,,52.68480000000000,6182,289,food.safety@lichfielddc.gov.uk,Lichfield,http://www.lichfielddc.gov.uk,-1.82423200000000,WS13 6DR,2013-01-29,fhrs_5_en-GB,5,,FHRS,5
336004,Stowe House,Netherstowe,,Lichfield,Institute Of Leadership & Management,Other catering premises,7841,,,713498,,,52.68949400000000,49285,289,food.safety@lichfielddc.gov.uk,Lichfield,http://www.lichfielddc.gov.uk,-1.81936000000000,WS13 6TJ,,fhrs_exempt_en-GB,Exempt,,FHRS,
336005,23 Coleshill Street,,,Fazeley,Ivory Tusk,Restaurant/Cafe/Canteen,1,10,,384550,15,,52.61336800000000,2493,289,food.safety@lichfielddc.gov.uk,Lichfield,http://www.lichfielddc.gov.uk,-1.69932200000000,B78 3RG,2013-11-05,fhrs_2_en-GB,2,,FHRS,15
336006,J T Leavesley Ltd - Ivy Garage,Ryknield House,Ryknild Street,Alrewas,Ivy Garage,Retailers - other,4613,,,727024,,,52.72487200000000,50049,289,food.safety@lichfielddc.gov.uk,Lichfield,http://www.lichfielddc.gov.uk,-1.74771400000000,DE13 7AB,,fhrs_exempt_en-GB,Exempt,,FHRS,
336007,28-30 Atherstone Street,,,Fazeley,Jackie's Cake Kitchen,Retailers - other,4613,5,,384564,5,,52.61418000000000,2680,289,food.safety@lichfielddc.gov.uk,Lichfield,http://www.lichfielddc.gov.uk,-1.69695400000000,B78 3RF,2013-01-28,fhrs_5_en-GB,5,,FHRS,5
336008,72 Main Street,,,Clifton Campville,Jacksons Nurseries,Retailers - other,4613,,,731208,,,52.69607700000000,50365,289,food.safety@lichfielddc.gov.uk,Lichfield,http://www.lichfielddc.gov.uk,-1.62475600000000,B79 0AP,,fhrs_exempt_en-GB,Exempt,,FHRS,
336009,205 Birmingham Road,,,Shenstone Wood End,Jelly Totz Nursery,Hospitals/Childcare/Caring Premises,5,0,,384692,0,,52.61086000000000,4015,289,food.safety@lichfielddc.gov.uk,Lichfield,http://www.lichfielddc.gov.uk,-1.83728700000000,WS14 0PA,2015-02-12,fhrs_5_en-GB,5,,FHRS,0
336010,Watling Street,,,Fazeley,Jet Garage,Retailers - other,4613,,,730955,,,52.61431700000000,50353,289,food.safety@lichfielddc.gov.uk,Lichfield,http://www.lichfielddc.gov.uk,-1.70127900000000,B78 3QA,,fhrs_exempt_en-GB,Exempt,,FHRS,
336011,Eastern Avenue,,,Lichfield,Jet Service Station,Retailers - other,4613,5,,384780,5,,52.69834800000000,7686,289,food.safety@lichfielddc.gov.uk,Lichfield,http://www.lichfielddc.gov.uk,-1.81898400000000,WS13 7SA,2012-04-24,fhrs_5_en-GB,5,,FHRS,5
336012,St Chads Stowe Primary School,St Michaels Road,,Lichfield,Jigsaws Pre School,Hospitals/Childcare/Caring Premises,5,,,717201,,,52.68644500000000,49533,289,food.safety@lichfielddc.gov.uk,Lichfield,http://www.lichfielddc.gov.uk,-1.81851500000000,WS13 6SN,,fhrs_exempt_en-GB,Exempt,,FHRS,
336013,,,,,Joanne Marie's Cup Cakes Joannes Ballon Parties,Retailers - other,4613,5,,617107,0,,,44169,289,food.safety@lichfielddc.gov.uk,Lichfield,http://www.lichfielddc.gov.uk,,,2013-12-10,fhrs_5_en-GB,5,,FHRS,0
336014,44 Bore Street,,,Lichfield,Joe Richards Limited,Retailers - other,4613,5,,426691,0,,52.68314900000000,37258,289,food.safety@lichfielddc.gov.uk,Lichfield,http://www.lichfielddc.gov.uk,-1.82685700000000,WS13 6LU,2014-06-18,fhrs_4_en-GB,4,,FHRS,10
336015,2 Lambourne House,Bridgecross Road,,Burntwood,Joe's Pizza Company,Takeaway/sandwich shop,7844,20,,384371,15,,52.68131500000000,1166,289,food.safety@lichfielddc.gov.uk,Lichfield,http://www.lichfielddc.gov.uk,-1.93277300000000,WS7 2BX,2014-12-01,fhrs_1_en-GB,1,,FHRS,15
336016,Lichfield Market,Market Square,,Lichfield,Johnboys Catering,Mobile caterer,7846,5,,582515,0,,,43193,289,food.safety@lichfielddc.gov.uk,Lichfield,http://www.lichfielddc.gov.uk,,,2013-09-05,fhrs_5_en-GB,5,,FHRS,0
336017,25 Burntwood Town Shopping Centre,Cannock Road,,Burntwood,Johnny Wongs Malaysian & Thai Cuisine,Restaurant/Cafe/Canteen,1,20,,384784,15,,52.68218800000000,7710,289,food.safety@lichfielddc.gov.uk,Lichfield,http://www.lichfielddc.gov.uk,-1.93475300000000,WS7 1JR,2014-03-12,fhrs_1_en-GB,1,,FHRS,15
336018,75 New Road,Armitage,,Rugeley,Johns News,Retailers - other,4613,,,730337,,,52.74190200000000,50293,289,food.safety@lichfielddc.gov.uk,Lichfield,http://www.lichfielddc.gov.uk,-1.87430400000000,WS15 4BH,,fhrs_exempt_en-GB,Exempt,,FHRS,
336019,,,,,Joyce's Pantry,Retailers - other,4613,0,,649129,0,,,45601,289,food.safety@lichfielddc.gov.uk,Lichfield,http://www.lichfielddc.gov.uk,,,2014-04-22,fhrs_5_en-GB,5,,FHRS,0
336020,Chadsmead Primary Academy,Friday Acre,,Lichfield,Jozone Kids Club,Hospitals/Childcare/Caring Premises,5,,,713490,,,52.69231900000000,49241,289,food.safety@lichfielddc.gov.uk,Lichfield,http://www.lichfielddc.gov.uk,-1.83336000000000,WS13 7HJ,,fhrs_exempt_en-GB,Exempt,,FHRS,
336021,Gentleshaw Primary School,Darlings Lane,,Gentleshaw,Jozone Kids Club,Other catering premises,7841,,,733914,,,52.70649900000000,50454,289,food.safety@lichfielddc.gov.uk,Lichfield,http://www.lichfielddc.gov.uk,-1.92607300000000,WS15 4LY,,fhrs_exempt_en-GB,Exempt,,FHRS,
336022,,,,,Juice Junky,Retailers - other,4613,0,,698643,0,,,48137,289,food.safety@lichfielddc.gov.uk,Lichfield,http://www.lichfielddc.gov.uk,,,2014-09-04,fhrs_5_en-GB,5,,FHRS,0
336023,,,,,Just Crepes,Mobile caterer,7846,5,,719169,0,,,49613,289,food.safety@lichfielddc.gov.uk,Lichfield,http://www.lichfielddc.gov.uk,,,2014-11-23,fhrs_5_en-GB,5,,FHRS,5
336024,40 Bore Street,,,Lichfield,K R Evans Butchers,Retailers - other,4613,10,,384494,5,,52.68314900000000,2053,289,food.safety@lichfielddc.gov.uk,Lichfield,http://www.lichfielddc.gov.uk,-1.82685700000000,WS13 6LU,2014-07-16,fhrs_4_en-GB,4,,FHRS,5
336025,,,,,Kathryn's Homemade Cakes,Retailers - other,4613,0,,631777,0,,,44617,289,food.safety@lichfielddc.gov.uk,Lichfield,http://www.lichfielddc.gov.uk,,,2014-02-06,fhrs_5_en-GB,5,,FHRS,0
336026,,,,,Katies Cakes & Bakes,Retailers - other,4613,5,,585689,5,,,43294,289,food.safety@lichfielddc.gov.uk,Lichfield,http://www.lichfielddc.gov.uk,,,2013-09-18,fhrs_5_en-GB,5,,FHRS,0
336027,Unit 4 - 5 Lambourne House,Bridgecross Road,,Burntwood,Khan's Kitchen,Restaurant/Cafe/Canteen,1,10,,384431,10,,52.68131500000000,16946,289,food.safety@lichfielddc.gov.uk,Lichfield,http://www.lichfielddc.gov.uk,-1.93277300000000,WS7 2BX,2014-08-19,fhrs_3_en-GB,3,,FHRS,10
336028,,,,,Kiddie Cupcakes,Retailers - other,4613,0,,700968,0,,,48225,289,food.safety@lichfielddc.gov.uk,Lichfield,http://www.lichfielddc.gov.uk,,,2014-09-18,fhrs_5_en-GB,5,,FHRS,0
336029,Kings Hill Road,,,Lichfield,King Edward Vi Leisure Centre,Restaurant/Cafe/Canteen,1,10,,626395,10,,52.67551600000000,44541,289,food.safety@lichfielddc.gov.uk,Lichfield,http://www.lichfielddc.gov.uk,-1.82014300000000,WS14 9DE,2014-01-09,fhrs_3_en-GB,3,,FHRS,10
336030,Upper St John Street,,,Lichfield,King Edward Vi School,School/college/university,7845,10,,384451,5,,52.67551600000000,18398,289,food.safety@lichfielddc.gov.uk,Lichfield,http://www.lichfielddc.gov.uk,-1.82014300000000,WS14 9DE,2014-01-09,fhrs_4_en-GB,4,,FHRS,5
336031,3 Parkhill Road,Chase Terrace,,Burntwood,King Of Spice,Restaurant/Cafe/Canteen,1,5,,649117,10,,52.68589600000000,45385,289,food.safety@lichfielddc.gov.uk,Lichfield,http://www.lichfielddc.gov.uk,-1.92610900000000,WS7 2ER,2014-03-12,fhrs_4_en-GB,4,,FHRS,0
336032,Kingfisher Holiday Park,Fradley Junction,,Alrewas,Kingfisher Cafe,Restaurant/Cafe/Canteen,1,0,,384562,0,,52.72377400000000,2645,289,food.safety@lichfielddc.gov.uk,Lichfield,http://www.lichfielddc.gov.uk,-1.79351600000000,DE13 7DN,2014-03-11,fhrs_5_en-GB,5,,FHRS,0
336033,Manor Park,,,Kings Bromley,Kings Bromley Bowling Club,Pub/bar/nightclub,7843,,,726465,,,52.74896400000000,49957,289,food.safety@lichfielddc.gov.uk,Lichfield,http://www.lichfielddc.gov.uk,-1.82816700000000,DE13 7JA,,fhrs_exempt_en-GB,Exempt,,FHRS,
336034,Crawley Lane,,,Kings Bromley,Kings Bromley Cricket Club,Pub/bar/nightclub,7843,,,713465,,,52.74319000000000,49021,289,food.safety@lichfielddc.gov.uk,Lichfield,http://www.lichfielddc.gov.uk,-1.82030900000000,DE13 7JF,,fhrs_exempt_en-GB,Exempt,,FHRS,
336035,Manor Park,,,Kings Bromley,Kings Bromley Nursing Home,Hospitals/Childcare/Caring Premises,5,0,,384509,5,,52.74896400000000,2210,289,food.safety@lichfielddc.gov.uk,Lichfield,http://www.lichfielddc.gov.uk,-1.82816700000000,DE13 7JA,2013-07-23,fhrs_5_en-GB,5,,FHRS,5
336036,Kings Bromley Village Hall,Alrewas Road,,Kings Bromley,Kings Bromley Pre School Nursery,Hospitals/Childcare/Caring Premises,5,,,726467,,,52.74828100000000,49965,289,food.safety@lichfielddc.gov.uk,Lichfield,http://www.lichfielddc.gov.uk,-1.81593300000000,DE13 7HW,,fhrs_exempt_en-GB,Exempt,,FHRS,
336037,Alrewas Road,,,Kings Bromley,Kings Bromley Village Hall,Other catering premises,7841,,,726466,,,52.74828100000000,49961,289,food.safety@lichfielddc.gov.uk,Lichfield,http://www.lichfielddc.gov.uk,-1.81593300000000,DE13 7HW,,fhrs_exempt_en-GB,Exempt,,FHRS,
336038,21 Bird Street,,,Lichfield,Kings Head,Pub/bar/nightclub,7843,10,,384822,5,,52.68267800000000,868,289,food.safety@lichfielddc.gov.uk,Lichfield,http://www.lichfielddc.gov.uk,-1.83030500000000,WS13 6PW,2014-08-15,fhrs_3_en-GB,3,,FHRS,10
336039,,,,,Kj's Cakes,Other catering premises,7841,0,,657848,5,,,45701,289,food.safety@lichfielddc.gov.uk,Lichfield,http://www.lichfielddc.gov.uk,,,2014-04-22,fhrs_5_en-GB,5,,FHRS,0
336040,9 Coleshill Street,,,Fazeley,Kudos,Restaurant/Cafe/Canteen,1,20,,384623,15,,52.61411300000000,3051,289,food.safety@lichfielddc.gov.uk,Lichfield,http://www.lichfielddc.gov.uk,-1.69884400000000,B78 3RB,2014-07-15,fhrs_1_en-GB,1,,FHRS,15
336041,Chasewater Sports Centre,Pool Road,,Burntwood,Lakeside Cafe N Bar,Pub/bar/nightclub,7843,5,,516550,0,,52.66174000000000,40921,289,food.safety@lichfielddc.gov.uk,Lichfield,http://www.lichfielddc.gov.uk,-1.94266400000000,WS8 7NL,2013-03-04,fhrs_5_en-GB,5,,FHRS,0
336042,9 Bird Street,,,Lichfield,Lal Bagh,Restaurant/Cafe/Canteen,1,10,,384551,10,,52.68267800000000,2502,289,food.safety@lichfielddc.gov.uk,Lichfield,http://www.lichfielddc.gov.uk,-1.83030500000000,WS13 6PW,2014-03-31,fhrs_3_en-GB,3,,FHRS,10
336043,33 - 37 Hill Top View,,,Handsacre,Langston Care Ltd,Hospitals/Childcare/Caring Premises,5,,,729737,,,52.73556500000000,50153,289,food.safety@lichfielddc.gov.uk,Lichfield,http://www.lichfielddc.gov.uk,-1.86681400000000,WS15 4DG,,fhrs_exempt_en-GB,Exempt,,FHRS,
336044,Zone 1 Burntwood Business Park,Cobbett Road,,Burntwood,Larnies,Mobile caterer,7846,5,,713466,10,,,49045,289,food.safety@lichfielddc.gov.uk,Lichfield,http://www.lichfielddc.gov.uk,,,2014-10-08,fhrs_4_en-GB,4,,FHRS,5
336045,Unit 23,Heart of The Country Shopping Village,London Road,Swinfen,Lazy Day Cup Cake Boutique,Retailers - other,4613,0,,571552,5,,52.65003900000000,42869,289,food.safety@lichfielddc.gov.uk,Lichfield,http://www.lichfielddc.gov.uk,-1.80855500000000,WS14 9QR,2013-07-26,fhrs_5_en-GB,5,,FHRS,0
336046,26 Bird Street,,,Lichfield,Le Reve,Pub/bar/nightclub,7843,0,,649119,0,,52.68318200000000,45441,289,food.safety@lichfielddc.gov.uk,Lichfield,http://www.lichfielddc.gov.uk,-1.83046600000000,WS13 6PR,2014-03-19,fhrs_5_en-GB,5,,FHRS,5
336047,50 Tamworth Street,,,Lichfield,Lee Garden Restaurant,Restaurant/Cafe/Canteen,1,0,,384813,0,,52.68374100000000,805,289,food.safety@lichfielddc.gov.uk,Lichfield,http://www.lichfielddc.gov.uk,-1.82543400000000,WS13 6JJ,2013-01-09,fhrs_5_en-GB,5,,FHRS,5
336048,Curborough Community Centre,Reynolds Close,,Lichfield,Lichfield & District Live At Home Scheme,Hospitals/Childcare/Caring Premises,5,,,713501,,,52.69520000000000,49317,289,food.safety@lichfielddc.gov.uk,Lichfield,http://www.lichfielddc.gov.uk,-1.82979800000000,WS13 7NY,,fhrs_exempt_en-GB,Exempt,,FHRS,
336049,Holy Cross Parish Hall,Upper St John Street,,Lichfield,Lichfield & District Live At Home Scheme,Other catering premises,7841,,,727912,,,52.67815000000000,50089,289,food.safety@lichfielddc.gov.uk,Lichfield,http://www.lichfielddc.gov.uk,-1.82588500000000,WS14 9DX,,fhrs_exempt_en-GB,Exempt,,FHRS,
336050,Mill Lane Community Centre,Mill Lane,,Fazeley,Lichfield & District Live At Home Scheme,Hospitals/Childcare/Caring Premises,5,0,,409229,0,,52.61394200000000,36994,289,food.safety@lichfielddc.gov.uk,Lichfield,http://www.lichfielddc.gov.uk,-1.70240500000000,B78 3QD,2014-02-24,fhrs_5_en-GB,5,,FHRS,0
336051,9 The Close,,,Lichfield,Lichfield Cathedral Bookshop,Retailers - other,4613,,,713481,,,52.68491700000000,49173,289,food.safety@lichfielddc.gov.uk,Lichfield,http://www.lichfielddc.gov.uk,-1.83078500000000,WS13 7LD,,fhrs_exempt_en-GB,Exempt,,FHRS,
336052,Church Hill,Longdon Green,,Longdon,Lichfield Cathedral School,School/college/university,7845,0,,384683,0,,52.72112000000000,3727,289,food.safety@lichfielddc.gov.uk,Lichfield,http://www.lichfielddc.gov.uk,-1.87609700000000,WS15 4PU,2014-01-28,fhrs_5_en-GB,5,,FHRS,0
336053,The Palace,The Close,,Lichfield,Lichfield Cathedral School,School/college/university,7845,0,,384608,0,,52.68626500000000,2956,289,food.safety@lichfielddc.gov.uk,Lichfield,http://www.lichfielddc.gov.uk,-1.83038000000000,WS13 7LH,2014-03-31,fhrs_5_en-GB,5,,FHRS,5
336054,Brownsfield Road,,,Lichfield,Lichfield City Football Club Social Club,Pub/bar/nightclub,7843,5,,384717,5,,52.69137500000000,4802,289,food.safety@lichfielddc.gov.uk,Lichfield,http://www.lichfielddc.gov.uk,-1.81500300000000,WS13 6BX,2014-11-11,fhrs_4_en-GB,4,,FHRS,10
336055,85 Birmingham Road,,,Lichfield,Lichfield Conservative Club,Pub/bar/nightclub,7843,0,,384433,0,,52.67812700000000,1714,289,food.safety@lichfielddc.gov.uk,Lichfield,http://www.lichfielddc.gov.uk,-1.82894700000000,WS13 6PG,2014-11-29,fhrs_5_en-GB,5,,FHRS,0
336056,Collins Hill,Eastern Avenue,,Lichfield,Lichfield Cricket & Hockey Club,Pub/bar/nightclub,7843,10,,384388,10,,52.68491700000000,1372,289,food.safety@lichfielddc.gov.uk,Lichfield,http://www.lichfielddc.gov.uk,-1.83078500000000,WS13 7LG,2014-05-30,fhrs_3_en-GB,3,,FHRS,5
336057,Braeburn Close,,,Lichfield,Lichfield Day Centre,Hospitals/Childcare/Caring Premises,5,0,,384516,5,,52.68771900000000,2247,289,food.safety@lichfielddc.gov.uk,Lichfield,http://www.lichfielddc.gov.uk,-1.81098000000000,WS13 6NY,2014-06-17,fhrs_5_en-GB,5,,FHRS,5
336058,Frog Lane,,,Lichfield,Lichfield Food Bank 2,Retailers - other,4613,,,713464,,,52.68154100000000,49013,289,food.safety@lichfielddc.gov.uk,Lichfield,http://www.lichfielddc.gov.uk,-1.82714400000000,WS13 6HS,,fhrs_exempt_en-GB,Exempt,,FHRS,
336059,Tewnalls Lane,,,Elmhurst,Lichfield Golf & Country Club,Pub/bar/nightclub,7843,0,,384644,0,,52.71996100000000,3174,289,food.safety@lichfielddc.gov.uk,Lichfield,http://www.lichfielddc.gov.uk,-1.84597200000000,WS13 8HQ,2014-11-10,fhrs_5_en-GB,5,,FHRS,5
336060,Lorne House,Rotten Row,,Lichfield,Lichfield Health & Fitness Club,Pub/bar/nightclub,7843,,,713500,,,52.68270800000000,49313,289,food.safety@lichfielddc.gov.uk,Lichfield,http://www.lichfielddc.gov.uk,-1.82039400000000,WS13 6JB,,fhrs_exempt_en-GB,Exempt,,FHRS,
336061,9 Sandford Street,,,Lichfield,Lichfield House,Takeaway/sandwich shop,7844,10,,384547,10,,52.68213100000000,2485,289,food.safety@lichfielddc.gov.uk,Lichfield,http://www.lichfielddc.gov.uk,-1.83094300000000,WS13 6QA,2015-01-06,fhrs_3_en-GB,3,,FHRS,10
336062,The Friary,,,Lichfield,Lichfield Library,Other catering premises,7841,,,713489,,,52.67969300000000,49237,289,food.safety@lichfielddc.gov.uk,Lichfield,http://www.lichfielddc.gov.uk,-1.82999100000000,WS13 6QG,,fhrs_exempt_en-GB,Exempt,,FHRS,
336063,St Chads Scout Hut,The Leasowe,,Lichfield,Lichfield Little Explorers,Hospitals/Childcare/Caring Premises,5,5,,481582,5,,52.69013500000000,39882,289,food.safety@lichfielddc.gov.uk,Lichfield,http://www.lichfielddc.gov.uk,-1.83335400000000,WS13 7HA,2014-07-08,fhrs_5_en-GB,5,,FHRS,5
336064,7 Bird Street,,,Lichfield,Lichfield Local,Retailers - other,4613,0,,730335,0,,52.68254200000000,50285,289,food.safety@lichfielddc.gov.uk,Lichfield,http://www.lichfielddc.gov.uk,-1.83005400000000,WS13 6PW,2015-01-17,fhrs_5_en-GB,5,,FHRS,0
336065,Backcester Lane,,,Lichfield,Lichfield Methodist Church Coffee Shop,Other catering premises,7841,,,732371,,,52.68377600000000,50421,289,food.safety@lichfielddc.gov.uk,Lichfield,http://www.lichfielddc.gov.uk,-1.82509300000000,WS13 6JH,,fhrs_exempt_en-GB,Exempt,,FHRS,
336066,5 Bird Street,,,Lichfield,Lichfield Pizza & Kebab House,Takeaway/sandwich shop,7844,10,,384538,15,,52.68267800000000,2387,289,food.safety@lichfielddc.gov.uk,Lichfield,http://www.lichfielddc.gov.uk,-1.83030500000000,WS13 6PW,2014-01-28,fhrs_2_en-GB,2,,FHRS,15
336067,Cooke Fields,Tamworth Road,,Lichfield,Lichfield Rugby Club,Pub/bar/nightclub,7843,0,,384485,0,,52.67162700000000,2024,289,food.safety@lichfielddc.gov.uk,Lichfield,http://www.lichfielddc.gov.uk,-1.79964700000000,WS14 9JE,2015-02-02,fhrs_5_en-GB,5,,FHRS,5
336068,Purcell Avenue,,,Lichfield,Lichfield Social Club,Pub/bar/nightclub,7843,10,,384684,5,,52.69442000000000,3729,289,food.safety@lichfielddc.gov.uk,Lichfield,http://www.lichfielddc.gov.uk,-1.81928100000000,WS13 6TS,2014-03-20,fhrs_3_en-GB,3,,FHRS,10
336069,19 Curborough Road,,,Lichfield,Lichfield Supermart,Retailers - other,4613,10,,571549,5,,52.69037500000000,42793,289,food.safety@lichfielddc.gov.uk,Lichfield,http://www.lichfielddc.gov.uk,-1.82548200000000,WS13 7NG,2013-07-19,fhrs_3_en-GB,3,,FHRS,10
336070,Netherstowe,,,Lichfield,Life Church,Other catering premises,7841,,,732370,,,52.69441986083984,50405,289,food.safety@lichfielddc.gov.uk,Lichfield,http://www.lichfielddc.gov.uk,-1.81928098201752,WS13 6TS,,fhrs_exempt_en-GB,Exempt,,FHRS,
336071,,,,,Lisa & Jo's Cakes,Takeaway/sandwich shop,7844,5,,713462,5,,,49005,289,food.safety@lichfielddc.gov.uk,Lichfield,http://www.lichfielddc.gov.uk,,,2014-04-25,fhrs_5_en-GB,5,,FHRS,5
336072,Oak Farm,Drayton Lane,,Drayton Bassett,Little Acorns Nursery,Hospitals/Childcare/Caring Premises,5,0,,384492,0,,52.59845900000000,2044,289,food.safety@lichfielddc.gov.uk,Lichfield,http://www.lichfielddc.gov.uk,-1.73949300000000,B78 3EF,2014-02-24,fhrs_5_en-GB,5,,FHRS,5
336073,Roman Road,Streetly,,Sutton Coldfield,Little Aston Golf Club,Pub/bar/nightclub,7843,5,,384483,5,,52.59587300000000,2008,289,food.safety@lichfielddc.gov.uk,Lichfield,http://www.lichfielddc.gov.uk,-1.86559900000000,B74 3AN,2012-05-30,fhrs_5_en-GB,5,,FHRS,5
336074,179 Rosemary Hill Road,,,Little Aston,Little Aston News,Retailers - other,4613,20,,683544,0,,52.60185600000000,47713,289,food.safety@lichfielddc.gov.uk,Lichfield,http://www.lichfielddc.gov.uk,-1.85441800000000,B74 4HS,2014-06-30,fhrs_1_en-GB,1,,FHRS,10
336075,Forge Lane,,,Little Aston,Little Aston Primary School,School/college/university,7845,0,,384595,0,,52.60399000000000,2814,289,food.safety@lichfielddc.gov.uk,Lichfield,http://www.lichfielddc.gov.uk,-1.86468800000000,B74 3BE,2014-06-30,fhrs_5_en-GB,5,,FHRS,5
336076,,,,,Little Bliss Bakery,Retailers - other,4613,0,,616414,0,,,44126,289,food.safety@lichfielddc.gov.uk,Lichfield,http://www.lichfielddc.gov.uk,,,2013-12-05,fhrs_5_en-GB,5,,FHRS,0
336077,Fulfen Primary School,Rugeley Road,,Burntwood,Little Owl Childcare,Hospitals/Childcare/Caring Premises,5,,,716778,,,52.68082800000000,49501,289,food.safety@lichfielddc.gov.uk,Lichfield,http://www.lichfielddc.gov.uk,-1.90500900000000,WS7 9BJ,,fhrs_exempt_en-GB,Exempt,,FHRS,
336078,Birmingham Road,,,Shenstone Wood End,Lodge Balti,Restaurant/Cafe/Canteen,1,5,,384549,0,,52.61980500000000,2492,289,food.safety@lichfielddc.gov.uk,Lichfield,http://www.lichfielddc.gov.uk,-1.83713600000000,WS14 0LQ,2014-02-03,fhrs_5_en-GB,5,,FHRS,5
336079,106 Cannock Road,,,Burntwood,Lodge Nursing Home,Hospitals/Childcare/Caring Premises,5,0,,384552,0,,52.67961500000000,2572,289,food.safety@lichfielddc.gov.uk,Lichfield,http://www.lichfielddc.gov.uk,-1.91789500000000,WS7 0BG,2014-06-05,fhrs_5_en-GB,5,,FHRS,5
336080,21 Rugeley Road,,,Armitage,Londis,Retailers - other,4613,0,,384352,5,,52.74161500000000,1062,289,food.safety@lichfielddc.gov.uk,Lichfield,http://www.lichfielddc.gov.uk,-1.88337100000000,WS15 4AR,2013-08-27,fhrs_5_en-GB,5,,FHRS,0
336081,6 Brook End,,,Longdon,Longdon Club & Institute,Pub/bar/nightclub,7843,,,726463,,,52.72618800000000,49949,289,food.safety@lichfielddc.gov.uk,Lichfield,http://www.lichfielddc.gov.uk,-1.88280500000000,WS15 4PA,,fhrs_exempt_en-GB,Exempt,,FHRS,
336082,Longdon Hall,Church Hill,Longdon Green,Lichfield,Longdon Hall School,School/college/university,7845,10,,384801,5,,52.72266900000000,7782,289,food.safety@lichfielddc.gov.uk,Lichfield,http://www.lichfielddc.gov.uk,-1.87849100000000,WS15 4PT,2012-03-19,fhrs_4_en-GB,4,,FHRS,5
336083,11 Brookend,,,Longdon,Longdon Post Office & Stores,Retailers - other,4613,10,,384671,5,,52.72654800000000,3436,289,food.safety@lichfielddc.gov.uk,Lichfield,http://www.lichfielddc.gov.uk,-1.88350000000000,WS15 4PB,2014-07-17,fhrs_4_en-GB,4,,FHRS,5
336084,Brook End,,,Longdon,Longdon Village Hall,Other catering premises,7841,,,726464,,,52.72875900000000,49953,289,food.safety@lichfielddc.gov.uk,Lichfield,http://www.lichfielddc.gov.uk,-1.88309400000000,WS15 4PN,,fhrs_exempt_en-GB,Exempt,,FHRS,
336085,Brook End,,,Longdon,Longdon Womens Institute,Other catering premises,7841,,,726462,,,52.72834400000000,49945,289,food.safety@lichfielddc.gov.uk,Lichfield,http://www.lichfielddc.gov.uk,-1.88155500000000,WS15 4PL,,fhrs_exempt_en-GB,Exempt,,FHRS,
336086,Allton Avenue,,,Mile Oak,Longwood Primary School,School/college/university,7845,5,,384443,5,,52.61884600000000,1826,289,food.safety@lichfielddc.gov.uk,Lichfield,http://www.lichfielddc.gov.uk,-1.72672900000000,B78 3NH,2014-12-18,fhrs_4_en-GB,4,,FHRS,10
336087,67 Tamworth Street,,,Lichfield,Lotus House,Takeaway/sandwich shop,7844,5,,384427,10,,52.68404400000000,1682,289,food.safety@lichfielddc.gov.uk,Lichfield,http://www.lichfielddc.gov.uk,-1.82417600000000,WS13 6JW,2014-03-11,fhrs_4_en-GB,4,,FHRS,5
336088,99 - 101 Trent Valley Road,,,Lichfield,Loughton Court,Hospitals/Childcare/Caring Premises,5,10,,384698,0,,52.68600300000000,4128,289,food.safety@lichfielddc.gov.uk,Lichfield,http://www.lichfielddc.gov.uk,-1.81153400000000,WS13 6EZ,2014-03-24,fhrs_4_en-GB,4,,FHRS,10
336089,62 Gable Croft,,,Lichfield,Lynne Mepham Catering,Other catering premises,7841,,,713493,,,52.67839000000000,49253,289,food.safety@lichfielddc.gov.uk,Lichfield,http://www.lichfielddc.gov.uk,-1.80145000000000,WS14 9RY,,fhrs_exempt_en-GB,Exempt,,FHRS,
336090,,,,,Lyn's Larder,Retailers - other,4613,0,,619748,0,,,44217,289,food.safety@lichfielddc.gov.uk,Lichfield,http://www.lichfielddc.gov.uk,,,2013-12-19,fhrs_5_en-GB,5,,FHRS,0
336091,Curborough Hall Farm,Watery Lane,Curborough,Lichfield,Mabels Tea Rooms,Restaurant/Cafe/Canteen,1,5,,384648,5,,52.70555400000000,3194,289,food.safety@lichfielddc.gov.uk,Lichfield,http://www.lichfielddc.gov.uk,-1.81639300000000,WS13 8ES,2014-12-03,fhrs_5_en-GB,5,,FHRS,5
336092,Unit 2,No1 the Works,Eastern Avenue,Lichfield,Majestic Wine,Retailers - other,4613,0,,658641,0,,52.68957500000000,45717,289,food.safety@lichfielddc.gov.uk,Lichfield,http://www.lichfielddc.gov.uk,-1.80795400000000,WS13 6UY,2014-04-29,fhrs_5_en-GB,5,,FHRS,0
336093,Beacon Park Pavillion,Beacon Park,Swan Road,Lichfield,Making Space   Lichfield Day Opportunity Centre,Other catering premises,7841,,,713473,,,52.68223100000000,49141,289,food.safety@lichfielddc.gov.uk,Lichfield,http://www.lichfielddc.gov.uk,-1.83215600000000,WS13 6QZ,,fhrs_exempt_en-GB,Exempt,,FHRS,
336094,Church Hill,,,Weeford,Manley's Brasserie @ The School House,Restaurant/Cafe/Canteen,1,5,,384636,5,,52.63299800000000,3076,289,food.safety@lichfielddc.gov.uk,Lichfield,http://www.lichfielddc.gov.uk,-1.79406100000000,WS14 0PW,2013-11-07,fhrs_4_en-GB,4,,FHRS,10
336095,74 Dimbles Lane,,,Lichfield,Mann News,Retailers - other,4613,0,,401593,5,,52.69275500000000,36654,289,food.safety@lichfielddc.gov.uk,Lichfield,http://www.lichfielddc.gov.uk,-1.83020700000000,WS13 7HL,2014-08-11,fhrs_5_en-GB,5,,FHRS,0
336096,Rugeley Road,,,Kings Bromley,Manor Park Sailing Club,Pub/bar/nightclub,7843,10,,442767,5,,52.74496400000000,38158,289,food.safety@lichfielddc.gov.uk,Lichfield,http://www.lichfielddc.gov.uk,-1.84121800000000,DE13 7JG,2014-10-04,fhrs_4_en-GB,4,,FHRS,5
336097,Drayton Lane,,,Drayton Bassett,Manor Primary School,School/college/university,7845,0,,384464,5,,52.59904300000000,1896,289,food.safety@lichfielddc.gov.uk,Lichfield,http://www.lichfielddc.gov.uk,-1.71563100000000,B78 3TX,2013-05-20,fhrs_5_en-GB,5,,FHRS,5
336098,Abnalls Lane,,,Lichfield,Maple Hayes School,School/college/university,7845,5,,384401,5,,52.68408100000000,1488,289,food.safety@lichfielddc.gov.uk,Lichfield,http://www.lichfielddc.gov.uk,-1.85839100000000,WS13 8BL,2013-11-07,fhrs_5_en-GB,5,,FHRS,5
336099,Bryn Hafod,Walsall Road,Muckley Corner,Lichfield,Margaret Phillips,Farmers/growers,7838,,,713453,,,52.65337500000000,48781,289,food.safety@lichfielddc.gov.uk,Lichfield,http://www.lichfielddc.gov.uk,-1.88605900000000,WS14 0BP,,fhrs_exempt_en-GB,Exempt,,FHRS,
336100,39B Tamworth Street,,,Lichfield,Margheri,Restaurant/Cafe/Canteen,1,0,,736067,0,,52.68404400000000,50566,289,food.safety@lichfielddc.gov.uk,Lichfield,http://www.lichfielddc.gov.uk,-1.82417500000000,WS13 6JW,2015-02-05,fhrs_5_en-GB,5,,FHRS,0
336101,9 Park End,,,Lichfield,Maria Credali,Other catering premises,7841,,,713499,,,52.68057700000000,49289,289,food.safety@lichfielddc.gov.uk,Lichfield,http://www.lichfielddc.gov.uk,-1.80266800000000,WS14 9US,,fhrs_exempt_en-GB,Exempt,,FHRS,
336102,163 Upper St John Street,,,Lichfield,Marko Life Limited,Retailers - other,4613,10,,433462,10,,52.67576400000000,37730,289,food.safety@lichfielddc.gov.uk,Lichfield,http://www.lichfielddc.gov.uk,-1.82361700000000,WS14 9ED,2012-09-04,fhrs_3_en-GB,3,,FHRS,5
336103,16 Bakers Lane,,,Lichfield,Marks & Spencer Simply Food,Retailers - supermarkets/hypermarkets,7840,0,,384437,0,,52.68306700000000,1754,289,food.safety@lichfielddc.gov.uk,Lichfield,http://www.lichfielddc.gov.uk,-1.82574800000000,WS13 6NF,2014-01-30,fhrs_5_en-GB,5,,FHRS,0
336104,Christchurch Lane,,,Lichfield,Martin Heath Hall,Other catering premises,7841,,,713478,,,52.68065300000000,49161,289,food.safety@lichfielddc.gov.uk,Lichfield,http://www.lichfielddc.gov.uk,-1.84192400000000,WS13 8AY,,fhrs_exempt_en-GB,Exempt,,FHRS,
336105,Unit 4,Boley Park Shopping Centre,,Lichfield,Martins,Retailers - other,4613,,,713502,,,52.68006900000000,49321,289,food.safety@lichfielddc.gov.uk,Lichfield,http://www.lichfielddc.gov.uk,-1.80565800000000,WS14 9XU,,fhrs_exempt_en-GB,Exempt,,FHRS,
336106,School Lane,,,Edingale,Mary Howard Primary School,School/college/university,7845,0,,384554,0,,52.70653800000000,2580,289,food.safety@lichfielddc.gov.uk,Lichfield,http://www.lichfielddc.gov.uk,-1.68906300000000,B79 9JJ,2015-01-26,fhrs_5_en-GB,5,,FHRS,0
336107,176 - 178 Main Street,,Stonnall,Walsall,Massala Club,Restaurant/Cafe/Canteen,1,0,,384783,0,,52.63181000000000,7706,289,food.safety@lichfielddc.gov.uk,Lichfield,http://www.lichfielddc.gov.uk,-1.89716600000000,WS9 9DY,2014-10-07,fhrs_5_en-GB,5,,FHRS,0
336108,Church Lane,,,Mavesyn Ridware,Mavesyn Ridware House Care Home For The Elderly,Hospitals/Childcare/Caring Premises,5,10,,384480,10,,52.74953400000000,1996,289,food.safety@lichfielddc.gov.uk,Lichfield,http://www.lichfielddc.gov.uk,-1.88238700000000,WS15 3QE,2013-05-23,fhrs_3_en-GB,3,,FHRS,10
336109,Uttoxeter Road,,,Hill Ridware,Mavesyn Ridware/Hill Ridware Village Hall,Pub/bar/nightclub,7843,,,732192,,,52.75594800000000,50389,289,food.safety@lichfielddc.gov.uk,Lichfield,http://www.lichfielddc.gov.uk,-1.87829400000000,WS15 3QR,,fhrs_exempt_en-GB,Exempt,,FHRS,
336110,4 Chase Road,Swan Island,,Burntwood,Mayflower Chinese & Cantonese Takeaway,Takeaway/sandwich shop,7844,20,,384676,15,,52.67657000000000,3622,289,food.safety@lichfielddc.gov.uk,Lichfield,http://www.lichfielddc.gov.uk,-1.90842100000000,WS7 0DP,2014-02-12,fhrs_1_en-GB,1,,FHRS,15
336111,12 Conduit Street,,,Lichfield,Mc Donald's,Restaurant/Cafe/Canteen,1,0,,384436,5,,52.68392200000000,1753,289,food.safety@lichfielddc.gov.uk,Lichfield,http://www.lichfielddc.gov.uk,-1.82679400000000,WS13 6JR,2014-02-26,fhrs_5_en-GB,5,,FHRS,5
336112,Birmingham Road,Wall Island,Shenstone,Lichfield,Mc Donald's,Restaurant/Cafe/Canteen,1,5,,384760,5,,52.65265000000000,6226,289,food.safety@lichfielddc.gov.uk,Lichfield,http://www.lichfielddc.gov.uk,-1.83482600000000,WS14 0QP,2014-11-13,fhrs_5_en-GB,5,,FHRS,5
336113,The Corn Exchange,Conduit Street,,Lichfield,Mc Kenzie's,Restaurant/Cafe/Canteen,1,5,,732899,5,,52.68364400000000,50433,289,food.safety@lichfielddc.gov.uk,Lichfield,http://www.lichfielddc.gov.uk,-1.82697300000000,WS13 6JU,2015-01-21,fhrs_5_en-GB,5,,FHRS,5
336114,112 Lawnswood Avenue,,,Burntwood,Mencap,Hospitals/Childcare/Caring Premises,5,5,,465192,5,,52.66981500000000,39438,289,food.safety@lichfielddc.gov.uk,Lichfield,http://www.lichfielddc.gov.uk,-1.92949200000000,WS7 4YE,2013-05-10,fhrs_5_en-GB,5,,FHRS,5
336115,18-20 The Green,,,Handsacre,Michaels Fish Bar,Takeaway/sandwich shop,7844,5,,384672,10,,52.74323300000000,3468,289,food.safety@lichfielddc.gov.uk,Lichfield,http://www.lichfielddc.gov.uk,-1.86611000000000,WS15 4DT,2014-07-09,fhrs_3_en-GB,3,,FHRS,10
336116,Wood End Lane,,,Fradley,Midland Karting Limited,Restaurant/Cafe/Canteen,1,10,,384482,10,,52.71057400000000,1999,289,food.safety@lichfielddc.gov.uk,Lichfield,http://www.lichfielddc.gov.uk,-1.79129800000000,WS13 8NF,2014-05-29,fhrs_3_en-GB,3,,FHRS,5
336117,545 Watling Street,Mile Oak,,Tamworth,Mile Oak Fish Bar,Takeaway/sandwich shop,7844,10,,384809,10,,52.61980200000000,794,289,food.safety@lichfielddc.gov.uk,Lichfield,http://www.lichfielddc.gov.uk,-1.72787500000000,B78 3NF,2015-01-15,fhrs_4_en-GB,4,,FHRS,0
336118,Price Avenue,,,Mile Oak,Mile Oak Rovers,Pub/bar/nightclub,7843,10,,384675,10,,52.61473000000000,3620,289,food.safety@lichfielddc.gov.uk,Lichfield,http://www.lichfielddc.gov.uk,-1.69737800000000,B78 3RE,2010-11-23,fhrs_3_en-GB,3,,FHRS,5
336119,Price Avenue,,,Mile Oak,Mile Oak Rovers Football Club,Pub/bar/nightclub,7843,,,713454,,,52.61822100000000,48785,289,food.safety@lichfielddc.gov.uk,Lichfield,http://www.lichfielddc.gov.uk,-1.72438400000000,B78 3NL,,fhrs_exempt_en-GB,Exempt,,FHRS,
336120,Coronation Avenue,,,Mile Oak,Mile Oak Village Hall & Community Centre,Other catering premises,7841,,,713456,,,52.61644900000000,48797,289,food.safety@lichfielddc.gov.uk,Lichfield,http://www.lichfielddc.gov.uk,-1.72421800000000,B78 3NN,,fhrs_exempt_en-GB,Exempt,,FHRS,
336121,2b  Bird Street,,,Lichfield,Millenium Fried Chicken,Takeaway/sandwich shop,7844,0,,608613,5,,52.68307400000000,43593,289,food.safety@lichfielddc.gov.uk,Lichfield,http://www.lichfielddc.gov.uk,-1.83040700000000,WS13 6PR,2013-09-18,fhrs_5_en-GB,5,,FHRS,5
336122,Coleshill Street,,,Fazeley,Millfield Primary School,School/college/university,7845,0,,384393,0,,52.61261600000000,1438,289,food.safety@lichfielddc.gov.uk,Lichfield,http://www.lichfielddc.gov.uk,-1.70056800000000,B78 3RQ,2014-02-10,fhrs_5_en-GB,5,,FHRS,5
336123,29 Highfields Road,,,Chasetown,Miners Rest,Pub/bar/nightclub,7843,10,,384349,10,,52.66851100000000,1058,289,food.safety@lichfielddc.gov.uk,Lichfield,http://www.lichfielddc.gov.uk,-1.92884400000000,WS7 4QS,2014-03-06,fhrs_3_en-GB,3,,FHRS,10
336124,11 Dam Street,,,Lichfield,Minster Coffee Shop,Restaurant/Cafe/Canteen,1,0,,384665,0,,52.68441900000000,3356,289,food.safety@lichfielddc.gov.uk,Lichfield,http://www.lichfielddc.gov.uk,-1.82825700000000,WS13 6AE,2014-01-28,fhrs_5_en-GB,5,,FHRS,0
336125,Layby at Junction of Tamworth Road and Whittington Common Road,,,Freeford,Mint Events,Mobile caterer,7846,5,,520637,10,,,41093,289,food.safety@lichfielddc.gov.uk,Lichfield,http://www.lichfielddc.gov.uk,,,2013-03-04,fhrs_4_en-GB,4,,FHRS,5
336126,8 Burnett Road,,,Streetly,Mocha Coffee Lounge Ltd,Restaurant/Cafe/Canteen,1,5,,384439,5,,52.58665800000000,18118,289,food.safety@lichfielddc.gov.uk,Lichfield,http://www.lichfielddc.gov.uk,-1.87305100000000,B74 3EJ,2014-01-22,fhrs_5_en-GB,5,,FHRS,5
336127,152 Hunslet Road,,,Burntwood,Mom'z Kitchen,Takeaway/sandwich shop,7844,5,,538581,5,,52.68450200000000,41645,289,food.safety@lichfielddc.gov.uk,Lichfield,http://www.lichfielddc.gov.uk,-1.91236800000000,WS7 9LF,2013-04-15,fhrs_5_en-GB,5,,FHRS,0
336128,Beacon Street,,,Lichfield,Morrisons,Retailers - supermarkets/hypermarkets,7840,0,,384685,5,,52.68807400000000,3831,289,food.safety@lichfielddc.gov.uk,Lichfield,http://www.lichfielddc.gov.uk,-1.83821400000000,WS13 7BG,2014-03-17,fhrs_5_en-GB,5,,FHRS,5
336129,High Street,,,Chasetown,Morrisons,Retailers - supermarkets/hypermarkets,7840,0,,384669,5,,52.67683000000000,3432,289,food.safety@lichfielddc.gov.uk,Lichfield,http://www.lichfielddc.gov.uk,-1.91697800000000,WS7 8XP,2014-03-17,fhrs_5_en-GB,5,,FHRS,5
336130,,,,,Mr P's Snack Bar,Mobile caterer,7846,10,,384528,10,,,2294,289,food.safety@lichfielddc.gov.uk,Lichfield,http://www.lichfielddc.gov.uk,,,2014-07-01,fhrs_4_en-GB,4,,FHRS,0
336131,55A Bore Street,,,Lichfield,Mr Simms Olde Sweet Shoppe,Retailers - other,4613,0,,673068,0,,52.68344600000000,47169,289,food.safety@lichfielddc.gov.uk,Lichfield,http://www.lichfielddc.gov.uk,-1.82697400000000,WS13 6NB,2014-06-18,fhrs_5_en-GB,5,,FHRS,5
336132,2 Burntwood Town Shopping Centre,Cannock Road,Chase Terrace,Burntwood,Munchies,Restaurant/Cafe/Canteen,1,0,,384766,0,,52.68218800000000,6398,289,food.safety@lichfielddc.gov.uk,Lichfield,http://www.lichfielddc.gov.uk,-1.93475300000000,WS7 1JR,2013-08-20,fhrs_5_en-GB,5,,FHRS,0
336133,8 The Stirling Centre,Tye Road,,Fradley,Munchies Cafe Limited,Restaurant/Cafe/Canteen,1,5,,384718,0,,52.71218600000000,4804,289,food.safety@lichfielddc.gov.uk,Lichfield,http://www.lichfielddc.gov.uk,-1.77820600000000,WS13 8ST,2013-09-02,fhrs_5_en-GB,5,,FHRS,0
336134,Unit 22a Zone 4 Burntwood Business Park,Milestone Way,,Burntwood,Murphy's Cafe,Restaurant/Cafe/Canteen,1,10,,384707,10,,52.67653500000000,4458,289,food.safety@lichfielddc.gov.uk,Lichfield,http://www.lichfielddc.gov.uk,-1.93848900000000,WS7 3XD,2014-09-17,fhrs_3_en-GB,3,,FHRS,10
336135,Unit 19a Trent Valley Trading Estate,Station Road,,Rugeley,Mushemi Fire,Manufacturers/packers,7839,0,,578465,0,,52.76939300000000,43077,289,food.safety@lichfielddc.gov.uk,Lichfield,http://www.lichfielddc.gov.uk,-1.93051800000000,WS15 2HQ,2013-08-14,fhrs_5_en-GB,5,,FHRS,0
336136,Brereton Hill,,,Rugeley,Must,Restaurant/Cafe/Canteen,1,20,,384403,15,,52.73621800000000,1495,289,food.safety@lichfielddc.gov.uk,Lichfield,http://www.lichfielddc.gov.uk,-1.91039900000000,WS15 4LA,2014-03-05,fhrs_1_en-GB,1,,FHRS,15
336137,39 New Road,,,Armitage,N.J & E.T Coles Butchers Ltd,Manufacturers/packers,7839,10,,479393,15,,52.74196000000000,39858,289,food.safety@lichfielddc.gov.uk,Lichfield,http://www.lichfielddc.gov.uk,-1.87806700000000,WS15 4AA,2014-03-31,fhrs_2_en-GB,2,,FHRS,0
336138,Rugeley Road,,,Burntwood,Nags Head,Pub/bar/nightclub,7843,5,,384462,0,,52.68697800000000,1893,289,food.safety@lichfielddc.gov.uk,Lichfield,http://www.lichfielddc.gov.uk,-1.90607600000000,WS7 9HA,2011-02-19,fhrs_5_en-GB,5,,FHRS,0
336139,13 Hospital Road,,,Chasetown,Naseeb Balti House,Restaurant/Cafe/Canteen,1,5,,384583,10,,52.66749900000000,2775,289,food.safety@lichfielddc.gov.uk,Lichfield,http://www.lichfielddc.gov.uk,-1.92049100000000,WS7 4SF,2013-04-10,fhrs_4_en-GB,4,,FHRS,5
336140,Unit 4 New Road,,,Burntwood,Neon Sound Studios   Humbuckers,Restaurant/Cafe/Canteen,1,0,,384426,0,,52.67714100000000,1680,289,food.safety@lichfielddc.gov.uk,Lichfield,http://www.lichfielddc.gov.uk,-1.91511900000000,WS7 0AZ,2014-01-21,fhrs_5_en-GB,5,,FHRS,0
336141,114 Netherstowe,,,Lichfield,Netherstowe Fish Shop,Takeaway/sandwich shop,7844,0,,384664,0,,52.69442000000000,3318,289,food.safety@lichfielddc.gov.uk,Lichfield,http://www.lichfielddc.gov.uk,-1.81928100000000,WS13 6TS,2014-01-14,fhrs_5_en-GB,5,,FHRS,0
336142,St Chads Road,,,Lichfield,Netherstowe High School,School/college/university,7845,0,,384421,0,,52.69063200000000,1637,289,food.safety@lichfielddc.gov.uk,Lichfield,http://www.lichfielddc.gov.uk,-1.82296600000000,WS13 7NB,2013-05-20,fhrs_5_en-GB,5,,FHRS,5
336143,Netherstowe Lane,,,Lichfield,Netherstowe House,Hotel/bed & breakfast/guest house,7842,5,,384744,0,,52.69480300000000,5607,289,food.safety@lichfielddc.gov.uk,Lichfield,http://www.lichfielddc.gov.uk,-1.81661600000000,WS13 6AY,2014-02-25,fhrs_5_en-GB,5,,FHRS,5
336144,St Chads Road,,,Lichfield,Netherstowe Youth Centre,Other catering premises,7841,,,713507,,,52.69063200000000,49341,289,food.safety@lichfielddc.gov.uk,Lichfield,http://www.lichfielddc.gov.uk,-1.82296600000000,WS13 7NB,,fhrs_exempt_en-GB,Exempt,,FHRS,
336145,@ Rawlins Garage,Lichfield Road,,Burntwood,Netty's Nosh,Mobile caterer,7846,0,,696998,0,,,48097,289,food.safety@lichfielddc.gov.uk,Lichfield,http://www.lichfielddc.gov.uk,,,2014-09-02,fhrs_5_en-GB,5,,FHRS,0
336146,21 - 23 Market Street,,,Lichfield,New Look,Retailers - other,4613,,,713496,,,52.68303600000000,49277,289,food.safety@lichfielddc.gov.uk,Lichfield,http://www.lichfielddc.gov.uk,-1.82916500000000,WS13 6JX,,fhrs_exempt_en-GB,Exempt,,FHRS,
336147,543 Watling Street,,,Mile Oak,Nisa Local,Retailers - supermarkets/hypermarkets,7840,10,,384383,0,,52.61980200000000,1341,289,food.safety@lichfielddc.gov.uk,Lichfield,http://www.lichfielddc.gov.uk,-1.72787500000000,B78 3NF,2014-09-23,fhrs_4_en-GB,4,,FHRS,0
336148,7D Bridge Cross Road,Chase Terrace,,Burntwood,No. 7s Night Club,Pub/bar/nightclub,7843,5,,418397,0,,52.68144000000000,37226,289,food.safety@lichfielddc.gov.uk,Lichfield,http://www.lichfielddc.gov.uk,-1.93084900000000,WS7 2BU,2014-09-10,fhrs_5_en-GB,5,,FHRS,0
336149,453 Watling Street,,,Mile Oak,Oak Tree Day Nursery,Hospitals/Childcare/Caring Premises,5,5,,384829,5,,52.61864500000000,990,289,food.safety@lichfielddc.gov.uk,Lichfield,http://www.lichfielddc.gov.uk,-1.72142700000000,B78 3ND,2014-12-08,fhrs_5_en-GB,5,,FHRS,5
336150,68 Hints Road,,,Hopwas,Oak Tree Farm B & B,Hotel/bed & breakfast/guest house,7842,5,,384355,5,,52.64124200000000,1065,289,food.safety@lichfielddc.gov.uk,Lichfield,http://www.lichfielddc.gov.uk,-1.73575200000000,B78 3AA,2014-01-14,fhrs_4_en-GB,4,,FHRS,10
336151,Sycamore Road,,,Burntwood,Oakdene Day Centre,Hospitals/Childcare/Caring Premises,5,0,,384384,0,,52.67835400000000,1346,289,food.safety@lichfielddc.gov.uk,Lichfield,http://www.lichfielddc.gov.uk,-1.92736400000000,WS7 4RR,2014-02-05,fhrs_5_en-GB,5,,FHRS,0
336152,Alrewas Road,,,Kings Bromley,Oaklands College,Hospitals/Childcare/Caring Premises,5,0,,384603,0,,52.74813600000000,2876,289,food.safety@lichfielddc.gov.uk,Lichfield,http://www.lichfielddc.gov.uk,-1.80409700000000,DE13 7HR,2013-04-30,fhrs_5_en-GB,5,,FHRS,0
336153,Walsall Road,,,Muckley Corner,Oddfellows   The Boat,Pub/bar/nightclub,7843,5,,384385,10,,52.65139200000000,1351,289,food.safety@lichfielddc.gov.uk,Lichfield,http://www.lichfielddc.gov.uk,-1.89017300000000,WS14 0BU,2013-09-10,fhrs_3_en-GB,3,,FHRS,10
336154,,,,,Oggys  Cakes,Other catering premises,7841,0,,649123,0,,,45533,289,food.safety@lichfielddc.gov.uk,Lichfield,http://www.lichfielddc.gov.uk,,,2014-03-17,fhrs_5_en-GB,5,,FHRS,0
336155,,,,,Old Windmill Bakery,Retailers - other,4613,0,,638448,0,,,45181,289,food.safety@lichfielddc.gov.uk,Lichfield,http://www.lichfielddc.gov.uk,,,2014-03-20,fhrs_5_en-GB,5,,FHRS,0
336156,21 - 23 Parkhill Road,Chase Terrace,,Burntwood,One  Stop Shop,Retailers - other,4613,0,,689034,0,,52.68589600000000,47821,289,food.safety@lichfielddc.gov.uk,Lichfield,http://www.lichfielddc.gov.uk,-1.92610900000000,WS7 2ER,2014-08-05,fhrs_5_en-GB,5,,FHRS,0
336157,4-6 High Street,,,Chasetown,One Stop Stores,Retailers - other,4613,5,,384391,5,,52.67149900000000,1406,289,food.safety@lichfielddc.gov.uk,Lichfield,http://www.lichfielddc.gov.uk,-1.93377800000000,WS7 3XF,2012-07-18,fhrs_5_en-GB,5,,FHRS,5
336158,Cawarden Springs Farm,Blithbury Road,,Rugeley,Owl Barn Interiors,Restaurant/Cafe/Canteen,1,5,,698979,10,,52.76071100000000,48149,289,food.safety@lichfielddc.gov.uk,Lichfield,http://www.lichfielddc.gov.uk,-1.90654100000000,WS15 3HL,2014-09-04,fhrs_4_en-GB,4,,FHRS,5
336159,16 Market Street,,,Lichfield,Oxfam,Retailers - other,4613,,,713488,,,52.68291000000000,49233,289,food.safety@lichfielddc.gov.uk,Lichfield,http://www.lichfielddc.gov.uk,-1.82878100000000,WS13 6LH,,fhrs_exempt_en-GB,Exempt,,FHRS,
336160,32 Market Street,,,Lichfield,Oxfam Lichfield Books & Music,Retailers - other,4613,,,713497,,,52.68291000000000,49281,289,food.safety@lichfielddc.gov.uk,Lichfield,http://www.lichfielddc.gov.uk,-1.82878100000000,WS13 6LH,,fhrs_exempt_en-GB,Exempt,,FHRS,
336161,Packington Moor Farm,Jerrys Lane,,Packington,Packington Moor Farm Shop & Cafe,Retailers - other,4613,5,,384557,5,,52.64911400000000,2600,289,food.safety@lichfielddc.gov.uk,Lichfield,http://www.lichfielddc.gov.uk,-1.78291400000000,WS14 9QB,2015-01-07,fhrs_5_en-GB,5,,FHRS,0
336162,65 Tamworth Street,,,Lichfield,Paprika Indian Takeaway,Takeaway/sandwich shop,7844,20,,384581,15,,52.68404400000000,2759,289,food.safety@lichfielddc.gov.uk,Lichfield,http://www.lichfielddc.gov.uk,-1.82417600000000,WS13 6JW,2014-03-13,fhrs_1_en-GB,1,,FHRS,10
336163,23-25 Sandford Street,,,Lichfield,Paradise Lounge,Pub/bar/nightclub,7843,5,,384418,5,,52.68213100000000,1633,289,food.safety@lichfielddc.gov.uk,Lichfield,http://www.lichfielddc.gov.uk,-1.83094300000000,WS13 6QA,2014-02-27,fhrs_4_en-GB,4,,FHRS,10
336164,Armitage Lane,,,Armitage,Park Farm B & B,Hotel/bed & breakfast/guest house,7842,5,,428811,5,,52.74304100000000,37546,289,food.safety@lichfielddc.gov.uk,Lichfield,http://www.lichfielddc.gov.uk,-1.91045900000000,WS15 1PS,2015-01-08,fhrs_4_en-GB,4,,FHRS,10
336165,17 Parkhill Road,,,Burntwood,Parkhill Fish Bar,Takeaway/sandwich shop,7844,10,,384634,5,,52.68589600000000,3074,289,food.safety@lichfielddc.gov.uk,Lichfield,http://www.lichfielddc.gov.uk,-1.92610900000000,WS7 2ER,2014-06-25,fhrs_4_en-GB,4,,FHRS,5
336166,1 Little Aston Lane,,,Little Aston,Pat's Butchers,Manufacturers/packers,7839,0,,384405,0,,52.60296400000000,1499,289,food.safety@lichfielddc.gov.uk,Lichfield,http://www.lichfielddc.gov.uk,-1.85595000000000,B74 3UA,2014-02-26,fhrs_5_en-GB,5,,FHRS,5
336167,@ Drayton Park Golf Club,Centenary Drive,,Fazeley,Pauls Catering Limited,Restaurant/Cafe/Canteen,1,5,,384450,10,,52.60800800000000,18370,289,food.safety@lichfielddc.gov.uk,Lichfield,http://www.lichfielddc.gov.uk,-1.71282600000000,B78 3TN,2014-03-03,fhrs_3_en-GB,3,,FHRS,10
336168,Heart Of The Country Village,,,Swinfen,Pear Tree Creperie,Restaurant/Cafe/Canteen,1,0,,384613,0,,52.64982300000000,2978,289,food.safety@lichfielddc.gov.uk,Lichfield,http://www.lichfielddc.gov.uk,-1.80834900000000,WS14 9QR,2013-06-25,fhrs_5_en-GB,5,,FHRS,5
336169,1 Coleshill Street,,,Fazeley,Peninsular,Restaurant/Cafe/Canteen,1,10,,384624,0,,52.61411300000000,3052,289,food.safety@lichfielddc.gov.uk,Lichfield,http://www.lichfielddc.gov.uk,-1.69884400000000,B78 3RB,2014-02-18,fhrs_4_en-GB,4,,FHRS,10
336170,100 Main Street,,,Alrewas,Peter Coates (Alrewas) Limited,Manufacturers/packers,7839,10,,669155,5,,52.73250300000000,45769,289,food.safety@lichfielddc.gov.uk,Lichfield,http://www.lichfielddc.gov.uk,-1.74700400000000,DE13 7AE,2014-03-19,fhrs_4_en-GB,4,,FHRS,5
336171,20 Tamworth Street,,,Lichfield,Pig & Truffle,Pub/bar/nightclub,7843,5,,384706,5,,52.68374100000000,4436,289,food.safety@lichfielddc.gov.uk,Lichfield,http://www.lichfielddc.gov.uk,-1.82543400000000,WS13 6JJ,2014-07-14,fhrs_4_en-GB,4,,FHRS,10
336172,Walsall Road,Pipehill,,Lichfield,Pipehill House,Hotel/bed & breakfast/guest house,7842,0,,384768,0,,52.66825900000000,6418,289,food.safety@lichfielddc.gov.uk,Lichfield,http://www.lichfielddc.gov.uk,-1.86570300000000,WS13 8JU,2014-11-17,fhrs_5_en-GB,5,,FHRS,0
336173,63 Tamworth Street,,,Lichfield,Pizza By Goli,Restaurant/Cafe/Canteen,1,5,,384573,5,,52.68404400000000,2724,289,food.safety@lichfielddc.gov.uk,Lichfield,http://www.lichfielddc.gov.uk,-1.82417600000000,WS13 6JW,2013-06-26,fhrs_5_en-GB,5,,FHRS,5
336174,Atherstone Street,Fazeley,,Tamworth,Plough & Harrow,Pub/bar/nightclub,7843,20,,384477,10,,52.61418000000000,1992,289,food.safety@lichfielddc.gov.uk,Lichfield,http://www.lichfielddc.gov.uk,-1.69695400000000,B78 3RF,2014-09-23,fhrs_1_en-GB,1,,FHRS,5
336175,,,,,Pop Up Joe's Mobile Coffee Bar,Mobile caterer,7846,10,,482872,10,,,39986,289,food.safety@lichfielddc.gov.uk,Lichfield,http://www.lichfielddc.gov.uk,,,2012-12-11,fhrs_3_en-GB,3,,FHRS,5
336176,25 Lichfield Road,,,Handsacre,Poppins Day Nursery,Hospitals/Childcare/Caring Premises,5,5,,384363,0,,52.73768600000000,1104,289,food.safety@lichfielddc.gov.uk,Lichfield,http://www.lichfielddc.gov.uk,-1.86551900000000,WS15 4DF,2015-01-27,fhrs_5_en-GB,5,,FHRS,5
336177,31 Admiral Parker Drive,,,Shenstone,Porkers Snack Foods Ltd,Manufacturers/packers,7839,0,,538582,0,,52.63731800000000,41649,289,food.safety@lichfielddc.gov.uk,Lichfield,http://www.lichfielddc.gov.uk,-1.84491700000000,WS14 0NS,2013-04-16,fhrs_5_en-GB,5,,FHRS,0
336178,46-48 Wheel Lane,,,Lichfield,Premier Express,Retailers - other,4613,0,,713458,0,,52.69072700000000,48977,289,food.safety@lichfielddc.gov.uk,Lichfield,http://www.lichfielddc.gov.uk,-1.83878100000000,WS13 7EA,2014-10-14,fhrs_5_en-GB,5,,FHRS,0
336179,Swan Road,,,Lichfield,Premier Inn / Thyme Restaurant,Hotel/bed & breakfast/guest house,7842,0,,693464,0,,52.68223100000000,48021,289,food.safety@lichfielddc.gov.uk,Lichfield,http://www.lichfielddc.gov.uk,-1.83215600000000,WS13 6QZ,2014-08-26,fhrs_5_en-GB,5,,FHRS,0
336180,National Memorial Arboretum,,,Alrewas,Premier Mobile Catering,Mobile caterer,7846,0,,384732,0,,,5226,289,food.safety@lichfielddc.gov.uk,Lichfield,http://www.lichfielddc.gov.uk,,,2013-06-26,fhrs_5_en-GB,5,,FHRS,0
336181,,,,,Pride Of Staffordshire,Retailers - other,4613,5,,585688,5,,,43286,289,food.safety@lichfielddc.gov.uk,Lichfield,http://www.lichfielddc.gov.uk,,,2013-09-17,fhrs_5_en-GB,5,,FHRS,0
336182,9-11 Highfields Road,,,Chasetown,Priory Education Services,Hospitals/Childcare/Caring Premises,5,0,,649121,5,,52.66940400000000,45513,289,food.safety@lichfielddc.gov.uk,Lichfield,http://www.lichfielddc.gov.uk,-1.93311600000000,WS7 4QR,2014-03-12,fhrs_5_en-GB,5,,FHRS,5
336183,c/o The Greyhound Inn,121 Upper St John Street,,Lichfield,Pub Spice,Takeaway/sandwich shop,7844,10,,384680,10,,52.67740200000000,36594,289,food.safety@lichfielddc.gov.uk,Lichfield,http://www.lichfielddc.gov.uk,-1.82479400000000,WS14 9EA,2012-07-31,fhrs_3_en-GB,3,,FHRS,10
336184,30-36 Bird Street,,,Lichfield,Qmin,Restaurant/Cafe/Canteen,1,10,,384506,10,,52.68318200000000,2196,289,food.safety@lichfielddc.gov.uk,Lichfield,http://www.lichfielddc.gov.uk,-1.83046600000000,WS13 6PR,2015-01-07,fhrs_2_en-GB,2,,FHRS,15
336185,Unit 4-5,Archers,Alrewas Road,Kings Bromley,Quartz Brewing Ltd,Manufacturers/packers,7839,0,,462597,0,,52.74872500000000,39386,289,food.safety@lichfielddc.gov.uk,Lichfield,http://www.lichfielddc.gov.uk,-1.81839000000000,DE13 7HW,2012-11-02,fhrs_5_en-GB,5,,FHRS,5
336186,Beacon Park Village,Lower Sanford Street,,Lichfield,Queen Of The Forest,Restaurant/Cafe/Canteen,1,5,,384592,0,,52.68199900000000,2809,289,food.safety@lichfielddc.gov.uk,Lichfield,http://www.lichfielddc.gov.uk,-1.83337000000000,WS13 6RB,2014-01-08,fhrs_5_en-GB,5,,FHRS,5
336187,Birmingham Road,,,Lichfield,Queens Croft High School,School/college/university,7845,5,,384356,5,,52.67717600000000,1082,289,food.safety@lichfielddc.gov.uk,Lichfield,http://www.lichfielddc.gov.uk,-1.83044500000000,WS13 6PJ,2013-06-18,fhrs_4_en-GB,4,,FHRS,10
336188,79 Queen Street,,,Burntwood,Queens Fish Bar,Takeaway/sandwich shop,7844,10,,384659,5,,52.67137200000000,3301,289,food.safety@lichfielddc.gov.uk,Lichfield,http://www.lichfielddc.gov.uk,-1.93243300000000,WS7 4QQ,2014-04-29,fhrs_3_en-GB,3,,FHRS,10
336189,4 Queen Street,,,Lichfield,Queens Head,Pub/bar/nightclub,7843,0,,736068,0,,52.68155700000000,50570,289,food.safety@lichfielddc.gov.uk,Lichfield,http://www.lichfielddc.gov.uk,-1.83236600000000,WS13 6QD,2015-02-12,fhrs_5_en-GB,5,,FHRS,0
336190,Bullock End Farm,Drayton Lane,,Drayton Bassett,R. K. Hemus & Sons,Farmers/growers,7838,0,,720231,0,,52.60314600000000,49725,289,food.safety@lichfielddc.gov.uk,Lichfield,http://www.lichfielddc.gov.uk,-1.70971300000000,B78 3TP,2014-12-04,fhrs_5_en-GB,5,,FHRS,0
336191,70 Dimbles Lane,,,Lichfield,R. Meehan Family Butchers,Retailers - other,4613,0,,384429,5,,52.69275500000000,1687,289,food.safety@lichfielddc.gov.uk,Lichfield,http://www.lichfielddc.gov.uk,-1.83020700000000,WS13 7HL,2014-03-21,fhrs_5_en-GB,5,,FHRS,5
336192,4 Main Street,,,Shenstone,Railway Inn,Pub/bar/nightclub,7843,0,,384386,0,,52.63933500000000,1359,289,food.safety@lichfielddc.gov.uk,Lichfield,http://www.lichfielddc.gov.uk,-1.84035900000000,WS14 0LZ,2014-10-28,fhrs_5_en-GB,5,,FHRS,0
336193,@ Greysbrooke Primary School,Barnes Road,,Shenstone,Rainbows Nursery,Hospitals/Childcare/Caring Premises,5,0,,465193,5,,52.63921300000000,39446,289,food.safety@lichfielddc.gov.uk,Lichfield,http://www.lichfielddc.gov.uk,-1.83666500000000,WS14 0LT,2012-11-08,fhrs_5_en-GB,5,,FHRS,0
336194,21 St. John Street,,,Lichfield,Raj Duth Restaurant,Restaurant/Cafe/Canteen,1,20,,384410,15,,52.68169600000000,1522,289,food.safety@lichfielddc.gov.uk,Lichfield,http://www.lichfielddc.gov.uk,-1.82853400000000,WS13 6NU,2014-11-10,fhrs_1_en-GB,1,,FHRS,10
336195,Comberford Road,,,Tamworth,Rawlett Community Sports Academy,School/college/university,7845,10,,384521,5,,52.65101100000000,2261,289,food.safety@lichfielddc.gov.uk,Lichfield,http://www.lichfielddc.gov.uk,-1.70398700000000,B79 9AA,2014-12-10,fhrs_4_en-GB,4,,FHRS,5
336196,9 Bore Street,,,Lichfield,Red Rose,Restaurant/Cafe/Canteen,1,20,,730336,15,,52.68242400000000,50289,289,food.safety@lichfielddc.gov.uk,Lichfield,http://www.lichfielddc.gov.uk,-1.82891500000000,WS13 6LJ,2015-01-12,fhrs_1_en-GB,1,,FHRS,15
336197,Aspen Grove,,,Burntwood,Redwood Park Community Centre,Other catering premises,7841,5,,384763,5,,52.68527700000000,6314,289,food.safety@lichfielddc.gov.uk,Lichfield,http://www.lichfielddc.gov.uk,-1.92840300000000,WS7 2AT,2013-03-13,fhrs_5_en-GB,5,,FHRS,0
336198,Lichfield Road,,,Kings Bromley,Richard Crosse Primary School,School/college/university,7845,5,,384504,5,,52.74746400000000,2190,289,food.safety@lichfielddc.gov.uk,Lichfield,http://www.lichfielddc.gov.uk,-1.82279500000000,DE13 7JE,2013-02-28,fhrs_5_en-GB,5,,FHRS,5
336199,Grange Road,,,Burntwood,Ridgeway Primary School,School/college/university,7845,0,,384495,0,,52.67187900000000,2087,289,food.safety@lichfielddc.gov.uk,Lichfield,http://www.lichfielddc.gov.uk,-1.92348500000000,WS7 4TU,2014-06-03,fhrs_5_en-GB,5,,FHRS,5
336200,80 Chorley Road,,Chase Terrace,Burntwood,Ring 'O' Bells,Pub/bar/nightclub,7843,0,,384619,0,,52.69077100000000,2995,289,food.safety@lichfielddc.gov.uk,Lichfield,http://www.lichfielddc.gov.uk,-1.93076100000000,WS7 2NX,2014-03-06,fhrs_5_en-GB,5,,FHRS,0
336201,@ Greysbrooke Primary School,Barnes Road,,Shenstone,Rise & Shine Breakfast Club,Hospitals/Childcare/Caring Premises,5,0,,479390,5,,52.63921300000000,39814,289,food.safety@lichfielddc.gov.uk,Lichfield,http://www.lichfielddc.gov.uk,-1.83666500000000,WS14 0LT,2012-11-08,fhrs_5_en-GB,5,,FHRS,0
336202,28 Bird Street,,,Lichfield,Ristorante Sorrento,Restaurant/Cafe/Canteen,1,10,,384565,5,,52.68318200000000,2682,289,food.safety@lichfielddc.gov.uk,Lichfield,http://www.lichfielddc.gov.uk,-1.83046600000000,WS13 6PR,2012-12-17,fhrs_4_en-GB,4,,FHRS,5
336203,Blackbrook Interiors,London Road,,Weeford,Riverside Cottage Eatery,Restaurant/Cafe/Canteen,1,10,,715589,5,,52.62980100000000,49377,289,food.safety@lichfielddc.gov.uk,Lichfield,http://www.lichfielddc.gov.uk,-1.80167000000000,WS14 0PS,2014-10-21,fhrs_4_en-GB,4,,FHRS,0
336204,Drayton Manor Theme Park Main Office And Reception,Drayton Manor Drive,,Tamworth,Rnli (Sales) Ltd,Mobile caterer,7846,,,730563,,,,50305,289,food.safety@lichfielddc.gov.uk,Lichfield,http://www.lichfielddc.gov.uk,,,,fhrs_exempt_en-GB,Exempt,,FHRS,
336205,Roddige Lane,,,Fradley,Roddige Farm,Retailers - other,4613,10,,384678,5,,52.72023200000000,3638,289,food.safety@lichfielddc.gov.uk,Lichfield,http://www.lichfielddc.gov.uk,-1.74676400000000,WS13 8QS,2013-02-04,fhrs_3_en-GB,3,,FHRS,10
336206,191 Walsall Road,,,Lichfield,Rosemary Lodge,Hospitals/Childcare/Caring Premises,5,0,,384377,5,,52.67710300000000,1314,289,food.safety@lichfielddc.gov.uk,Lichfield,http://www.lichfielddc.gov.uk,-1.84894800000000,WS13 8AQ,2013-08-14,fhrs_5_en-GB,5,,FHRS,5
336207,91 Main Street,,,Stonnall,Royal Oak,Pub/bar/nightclub,7843,5,,384753,5,,52.63171100000000,6154,289,food.safety@lichfielddc.gov.uk,Lichfield,http://www.lichfielddc.gov.uk,-1.89734400000000,WS9 9DY,2014-06-10,fhrs_4_en-GB,4,,FHRS,10
336208,Manor Road,,,Kings Bromley,Royal Oak,Pub/bar/nightclub,7843,10,,384411,10,,52.74904700000000,1531,289,food.safety@lichfielddc.gov.uk,Lichfield,http://www.lichfielddc.gov.uk,-1.82326300000000,DE13 7HZ,2014-01-15,fhrs_3_en-GB,3,,FHRS,10
336209,Uttoxeter Road,,,Hill Ridware,Royal Oak,Pub/bar/nightclub,7843,0,,384359,0,,52.75735200000000,1095,289,food.safety@lichfielddc.gov.uk,Lichfield,http://www.lichfielddc.gov.uk,-1.88027600000000,WS15 3QS,2015-01-13,fhrs_4_en-GB,4,,FHRS,10
336210,27-29 St John Street,,,Lichfield,Ruby Cantonese & Chinese Restaurant,Restaurant/Cafe/Canteen,1,20,,384546,15,,52.68169600000000,2484,289,food.safety@lichfielddc.gov.uk,Lichfield,http://www.lichfielddc.gov.uk,-1.82853400000000,WS13 6NU,2014-03-05,fhrs_1_en-GB,1,,FHRS,15
336211,5 The Corn Exchange,Conduit Street,,Lichfield,Ruby Express,Takeaway/sandwich shop,7844,0,,608622,5,,52.68364400000000,43869,289,food.safety@lichfielddc.gov.uk,Lichfield,http://www.lichfielddc.gov.uk,-1.82697300000000,WS13 6JU,2013-10-30,fhrs_5_en-GB,5,,FHRS,0
336212,1a Cannock Road,,,Burntwood,Ruby Takeaway,Takeaway/sandwich shop,7844,20,,384611,15,,52.67808100000000,2975,289,food.safety@lichfielddc.gov.uk,Lichfield,http://www.lichfielddc.gov.uk,-1.90961500000000,WS7 0BL,2014-03-03,fhrs_1_en-GB,1,,FHRS,15
336213,Rugeley Power Station Sports & Sport Club,Armitage Road,,Armitage,Rugeley Power Station Sports & Social Club,Pub/bar/nightclub,7843,0,,638442,0,,52.75392900000000,44953,289,food.safety@lichfielddc.gov.uk,Lichfield,http://www.lichfielddc.gov.uk,-1.91295600000000,WS15 1PR,2014-02-27,fhrs_5_en-GB,5,,FHRS,0
336214,25 Main Street,,,Shenstone,Russells Shenstone Ltd,Manufacturers/packers,7839,5,,531174,10,,52.63933500000000,41269,289,food.safety@lichfielddc.gov.uk,Lichfield,http://www.lichfielddc.gov.uk,-1.84035900000000,WS14 0LZ,2014-10-17,fhrs_4_en-GB,4,,FHRS,5
336215,Unit 10 Smiths Close,Zone 3 Burntwood Business Park,,Burntwood,S. Whitehouse Butchers,Retailers - other,4613,10,,384687,5,,52.67829100000000,3915,289,food.safety@lichfielddc.gov.uk,Lichfield,http://www.lichfielddc.gov.uk,-1.94321900000000,WS7 3FT,2014-03-10,fhrs_3_en-GB,3,,FHRS,10
336216,,,,,Sabun Nga Thai Catering,Other catering premises,7841,10,,564454,10,,,42529,289,food.safety@lichfielddc.gov.uk,Lichfield,http://www.lichfielddc.gov.uk,,,2013-06-24,fhrs_3_en-GB,3,,FHRS,10
336217,,,,,Sally's Sugar & Ice,Retailers - other,4613,0,,616947,0,,,44161,289,food.safety@lichfielddc.gov.uk,Lichfield,http://www.lichfielddc.gov.uk,,,2013-12-09,fhrs_5_en-GB,5,,FHRS,0
336218,Trent Valley Road,,,Lichfield,Samuel Johnson Community Hospital,Hospitals/Childcare/Caring Premises,5,0,,384673,5,,52.68526400000000,3498,289,food.safety@lichfielddc.gov.uk,Lichfield,http://www.lichfielddc.gov.uk,-1.81610900000000,WS13 6EF,2015-01-07,fhrs_5_en-GB,5,,FHRS,5
336219,1a Rugeley Road,,,Chase Terrace,Sankeys Fish Bar,Takeaway/sandwich shop,7844,5,,384402,5,,52.68410200000000,1489,289,food.safety@lichfielddc.gov.uk,Lichfield,http://www.lichfielddc.gov.uk,-1.93408500000000,WS7 1AG,2013-10-15,fhrs_5_en-GB,5,,FHRS,5
336220,4 The Corn Exchange,Conduit Street,,Lichfield,Sarans Of Lichfield,Retailers - other,4613,5,,719499,0,,52.68364400000000,49633,289,food.safety@lichfielddc.gov.uk,Lichfield,http://www.lichfielddc.gov.uk,-1.82697300000000,WS13 6JU,2014-11-29,fhrs_5_en-GB,5,,FHRS,0
336221,Saxon Hill School,Kings Hill Road,,Lichfield,Saxon Hill Community Cafe,Restaurant/Cafe/Canteen,1,0,,608619,0,,52.67551600000000,43697,289,food.safety@lichfielddc.gov.uk,Lichfield,http://www.lichfielddc.gov.uk,-1.82014300000000,WS14 9DE,2013-10-14,fhrs_5_en-GB,5,,FHRS,0
336222,Kings Hill Road,,,Lichfield,Saxon Hill Inclusive Pre School,Hospitals/Childcare/Caring Premises,5,,,716182,,,52.67551600000000,49385,289,food.safety@lichfielddc.gov.uk,Lichfield,http://www.lichfielddc.gov.uk,-1.82014300000000,WS14 9DE,,fhrs_exempt_en-GB,Exempt,,FHRS,
336223,King Hill Road,,,Lichfield,Saxon Hill School,School/college/university,7845,0,,384594,0,,52.67551600000000,2811,289,food.safety@lichfielddc.gov.uk,Lichfield,http://www.lichfielddc.gov.uk,-1.82014300000000,WS14 9DE,2013-07-10,fhrs_5_en-GB,5,,FHRS,5
336224,Stonneyland Drive,,,Lichfield,Saxon Penny,Pub/bar/nightclub,7843,0,,609563,0,,52.67489300000000,44002,289,food.safety@lichfielddc.gov.uk,Lichfield,http://www.lichfielddc.gov.uk,-1.84336500000000,WS13 6RX,2013-11-19,fhrs_5_en-GB,5,,FHRS,0
336225,The Kiosk,Levett Field Bus Station,Birmingham Road,Lichfield,Saxons Of Lichfield,Takeaway/sandwich shop,7844,5,,384691,5,,52.67987700000000,4001,289,food.safety@lichfielddc.gov.uk,Lichfield,http://www.lichfielddc.gov.uk,-1.82652900000000,WS13 6HU,2014-01-08,fhrs_5_en-GB,5,,FHRS,5
336226,Scotch Orchard,,,Lichfield,Scotch Orchard Primary School,School/college/university,7845,0,,384823,0,,52.68936600000000,869,289,food.safety@lichfielddc.gov.uk,Lichfield,http://www.lichfielddc.gov.uk,-1.81227400000000,WS13 6DE,2013-05-16,fhrs_5_en-GB,5,,FHRS,5
336227,1b & 1d Cannock Road,,,Burntwood,Sea Queen Fish Bar,Takeaway/sandwich shop,7844,5,,384350,10,,52.67808100000000,1059,289,food.safety@lichfielddc.gov.uk,Lichfield,http://www.lichfielddc.gov.uk,-1.90961500000000,WS7 0BL,2013-08-05,fhrs_3_en-GB,3,,FHRS,10
336228,50 Upper St John Street,,,Lichfield,Sefton Chip Shop T/A Chick King,Takeaway/sandwich shop,7844,10,,384640,5,,52.67808700000000,3131,289,food.safety@lichfielddc.gov.uk,Lichfield,http://www.lichfielddc.gov.uk,-1.82576700000000,WS14 9DX,2014-07-08,fhrs_4_en-GB,4,,FHRS,5
336229,Norgren Ltd,Eastern Avenue,,Lichfield,Selectra,Retailers - other,4613,,,713485,,,52.68495500000000,49221,289,food.safety@lichfielddc.gov.uk,Lichfield,http://www.lichfielddc.gov.uk,-1.80310700000000,WS13 6SB,,fhrs_exempt_en-GB,Exempt,,FHRS,
336230,Fradley Business Park,Halifax Avenue,,Fradley,Servest Ltd @ Tesco Distribution Centre,Restaurant/Cafe/Canteen,1,0,,384438,0,,52.71146300000000,1757,289,food.safety@lichfielddc.gov.uk,Lichfield,http://www.lichfielddc.gov.uk,-1.78125900000000,WS13 8SS,2014-02-26,fhrs_5_en-GB,5,,FHRS,0
336231,Rykneld Street,,,Fradley,Shell Fradley North,Retailers - other,4613,0,,535306,0,,52.71680400000000,41405,289,food.safety@lichfielddc.gov.uk,Lichfield,http://www.lichfielddc.gov.uk,-1.75844900000000,WS13 8RD,2013-03-27,fhrs_5_en-GB,5,,FHRS,0
336232,Rykneld Street,,,Fradley,Shell Fradley South,Retailers - other,4613,0,,535307,0,,52.71680400000000,41409,289,food.safety@lichfielddc.gov.uk,Lichfield,http://www.lichfielddc.gov.uk,-1.75844900000000,WS13 8RD,2013-03-27,fhrs_5_en-GB,5,,FHRS,0
336233,London Road,,,Lichfield,Shell London Road,Retailers - other,4613,0,,401592,0,,52.67141900000000,36650,289,food.safety@lichfielddc.gov.uk,Lichfield,http://www.lichfielddc.gov.uk,-1.82168300000000,WS14 9EQ,2012-06-11,fhrs_5_en-GB,5,,FHRS,5
336234,Birmingham Road,,,Shenstone,Shenstone Country Club,Pub/bar/nightclub,7843,10,,553102,10,,52.63897800000000,42165,289,food.safety@lichfielddc.gov.uk,Lichfield,http://www.lichfielddc.gov.uk,-1.83557200000000,WS14 0JR,2013-06-03,fhrs_3_en-GB,3,,FHRS,10
336235,13 Birmingham Road,,,Shenstone,Shenstone Hall Nursing Home,Hospitals/Childcare/Caring Premises,5,5,,638449,0,,52.63904800000000,45205,289,food.safety@lichfielddc.gov.uk,Lichfield,http://www.lichfielddc.gov.uk,-1.83443400000000,WS14 0JS,2014-03-21,fhrs_5_en-GB,5,,FHRS,5
336236,Main Street,,,Shenstone,Shenstone Library,Other catering premises,7841,,,713451,,,52.63933500000000,48749,289,food.safety@lichfielddc.gov.uk,Lichfield,http://www.lichfielddc.gov.uk,-1.84035900000000,WS14 0LZ,,fhrs_exempt_en-GB,Exempt,,FHRS,
336237,Birmingham Road,,,Shenstone Wood End,Shenstone Lodge School,School/college/university,7845,0,,384398,0,,52.62471400000000,1442,289,food.safety@lichfielddc.gov.uk,Lichfield,http://www.lichfielddc.gov.uk,-1.83764900000000,WS14 0LB,2013-12-16,fhrs_5_en-GB,5,,FHRS,0
336238,33B Main Street,,,Shenstone,Shenstone Pharmacy,Retailers - other,4613,,,713450,,,52.63933500000000,48745,289,food.safety@lichfielddc.gov.uk,Lichfield,http://www.lichfielddc.gov.uk,-1.84035900000000,WS14 0LZ,,fhrs_exempt_en-GB,Exempt,,FHRS,
336239,Birmingham Road,,,Shenstone,Shenstone Takeaway,Takeaway/sandwich shop,7844,10,,384488,10,,52.63897800000000,2028,289,food.safety@lichfielddc.gov.uk,Lichfield,http://www.lichfielddc.gov.uk,-1.83557200000000,WS14 0JR,2014-09-24,fhrs_3_en-GB,3,,FHRS,10
336240,@ Shenstone Village Hall,Barnes Road,,Shenstone,Shenstone Village Hall Luncheon Club,Other catering premises,7841,0,,486745,5,,52.63921300000000,40114,289,food.safety@lichfielddc.gov.uk,Lichfield,http://www.lichfielddc.gov.uk,-1.83666500000000,WS14 0LT,2014-10-10,fhrs_5_en-GB,5,,FHRS,5
336241,3-4 Tuppenhurst Lane,,,Handsacre,Shokar Supermarket,Retailers - supermarkets/hypermarkets,7840,5,,384731,10,,52.74030100000000,5186,289,food.safety@lichfielddc.gov.uk,Lichfield,http://www.lichfielddc.gov.uk,-1.86502300000000,WS15 4EH,2013-06-19,fhrs_3_en-GB,3,,FHRS,10
336242,Yoxall Road,,,Hamstall Ridware,Shoulder Of Mutton,Pub/bar/nightclub,7843,0,,384407,0,,52.76833600000000,1517,289,food.safety@lichfielddc.gov.uk,Lichfield,http://www.lichfielddc.gov.uk,-1.84052600000000,WS15 3RZ,2013-11-12,fhrs_5_en-GB,5,,FHRS,5
336243,17 Bird Street,,,Lichfield,Siam Corner Ma Ma Thai,Restaurant/Cafe/Canteen,1,10,,384461,5,,52.68267800000000,1872,289,food.safety@lichfielddc.gov.uk,Lichfield,http://www.lichfielddc.gov.uk,-1.83030500000000,WS13 6PW,2014-03-19,fhrs_3_en-GB,3,,FHRS,10
336244,Brownhills West Station,Chasewater Country Park,Pool Road,Burntwood,Sidings Tea Room,Restaurant/Cafe/Canteen,1,5,,384630,5,,52.66830900000000,3069,289,food.safety@lichfielddc.gov.uk,Lichfield,http://www.lichfielddc.gov.uk,-1.93614900000000,WS7 3QW,2013-05-30,fhrs_5_en-GB,5,,FHRS,5
336245,57 Shortbutts Lane,,,Lichfield,Simon Smith Chef,Other catering premises,7841,0,,482870,5,,52.67211300000000,39950,289,food.safety@lichfielddc.gov.uk,Lichfield,http://www.lichfielddc.gov.uk,-1.82917800000000,WS14 9BU,2014-02-14,fhrs_5_en-GB,5,,FHRS,5
336246,2 Stone Road,,,Stafford,Simply F Ine Dining Ltd,Pub/bar/nightclub,7843,0,,736069,0,,52.81493500000000,50574,289,food.safety@lichfielddc.gov.uk,Lichfield,http://www.lichfielddc.gov.uk,-2.12249600000000,ST16 2RQ,2015-02-10,fhrs_5_en-GB,5,,FHRS,0
336247,28 Queen Street,,,Burntwood,Simply Local,Retailers - other,4613,10,,439566,0,,52.67133600000000,38010,289,food.safety@lichfielddc.gov.uk,Lichfield,http://www.lichfielddc.gov.uk,-1.93193000000000,WS7 4QH,2014-10-08,fhrs_4_en-GB,4,,FHRS,10
336248,Rugeley Power Station Club,Armitage Road,,Armitage,Simply Snax,Restaurant/Cafe/Canteen,1,0,,638441,0,,52.75392900000000,44929,289,food.safety@lichfielddc.gov.uk,Lichfield,http://www.lichfielddc.gov.uk,-1.91295600000000,WS15 1PR,2014-02-27,fhrs_5_en-GB,5,,FHRS,0
336249,Plantation Lane,,,Mile Oak,Sir Robert Peel Community Hospital,Hospitals/Childcare/Caring Premises,5,0,,384476,0,,52.62066400000000,1991,289,food.safety@lichfielddc.gov.uk,Lichfield,http://www.lichfielddc.gov.uk,-1.72367400000000,B78 3NG,2014-01-28,fhrs_5_en-GB,5,,FHRS,5
336250,Prospect Drive,Britannia Enterprise Park,,Lichfield,Snack Attack,Mobile caterer,7846,5,,384605,5,,52.68413800000000,2880,289,food.safety@lichfielddc.gov.uk,Lichfield,http://www.lichfielddc.gov.uk,-1.79871100000000,,2014-07-10,fhrs_5_en-GB,5,,FHRS,5
336251,Trent Valley Trading Estate,Station Road,,Rugeley,Snack Stop Cafe,Restaurant/Cafe/Canteen,1,5,,384498,5,,52.76939300000000,2127,289,food.safety@lichfielddc.gov.uk,Lichfield,http://www.lichfielddc.gov.uk,-1.93051800000000,WS15 2HQ,2013-08-06,fhrs_5_en-GB,5,,FHRS,5
336252,Unit 7a & 7b,Plant Lane Business Park,Plant Lane,Burntwood,Snackaway,Manufacturers/packers,7839,0,,636640,0,,52.68066400000000,44917,289,food.safety@lichfielddc.gov.uk,Lichfield,http://www.lichfielddc.gov.uk,-1.94318700000000,WS7 3JQ,2014-02-11,fhrs_5_en-GB,5,,FHRS,0
336253,163 Upper St John Street,,,Lichfield,Snak Shak,Takeaway/sandwich shop,7844,0,,682351,0,,52.67576400000000,47625,289,food.safety@lichfielddc.gov.uk,Lichfield,http://www.lichfielddc.gov.uk,-1.82361700000000,WS14 9ED,2014-07-08,fhrs_5_en-GB,5,,FHRS,5
336254,Forest of Mercia Innovation Centre,Pool Road,,Burntwood,South Shore Cafe,Restaurant/Cafe/Canteen,1,0,,384607,0,,52.66174000000000,2890,289,food.safety@lichfielddc.gov.uk,Lichfield,http://www.lichfielddc.gov.uk,-1.94266400000000,WS8 7NL,2012-10-16,fhrs_5_en-GB,5,,FHRS,5
336255,17 Chase Road,,,Burntwood,South Winds,Hospitals/Childcare/Caring Premises,5,0,,384532,0,,52.67617400000000,2329,289,food.safety@lichfielddc.gov.uk,Lichfield,http://www.lichfielddc.gov.uk,-1.90802200000000,WS7 0DS,2013-12-18,fhrs_5_en-GB,5,,FHRS,0
336256,172A/174  Main Street,,,Stonnall,Spar,Retailers - other,4613,5,,551659,0,,52.63171100000000,42117,289,food.safety@lichfielddc.gov.uk,Lichfield,http://www.lichfielddc.gov.uk,-1.89734400000000,WS9 9DY,2013-05-29,fhrs_5_en-GB,5,,FHRS,0
336257,21 Coleshill Street,,,Fazeley,Spice Bangladeshi Takeaway,Takeaway/sandwich shop,7844,10,,384475,15,,52.61411300000000,1948,289,food.safety@lichfielddc.gov.uk,Lichfield,http://www.lichfielddc.gov.uk,-1.69884400000000,B78 3RB,2014-01-15,fhrs_2_en-GB,2,,FHRS,15
336258,1a High Street,,,Chasetown,Spice Lounge,Restaurant/Cafe/Canteen,1,20,,384705,15,,52.67146300000000,4389,289,food.safety@lichfielddc.gov.uk,Lichfield,http://www.lichfielddc.gov.uk,-1.93434000000000,WS7 3XE,2014-11-25,fhrs_1_en-GB,1,,FHRS,10
336259,Little Aston Hall Drive,,,Little Aston,Spire Little Aston Hospital,Hospitals/Childcare/Caring Premises,5,5,,384361,5,,52.59965100000000,110,289,food.safety@lichfielddc.gov.uk,Lichfield,http://www.lichfielddc.gov.uk,-1.87580400000000,B74 3UP,2015-01-28,fhrs_5_en-GB,5,,FHRS,5
336260,4 Friary Road,,,Lichfield,Spires View B & B,Hotel/bed & breakfast/guest house,7842,0,,384544,0,,52.67866700000000,2443,289,food.safety@lichfielddc.gov.uk,Lichfield,http://www.lichfielddc.gov.uk,-1.83539400000000,WS13 6QL,2014-04-02,fhrs_5_en-GB,5,,FHRS,0
336261,Rugeley Road,,,Armitage,Spode Cottage,Pub/bar/nightclub,7843,10,,406701,5,,52.74447200000000,36770,289,food.safety@lichfielddc.gov.uk,Lichfield,http://www.lichfielddc.gov.uk,-1.89164400000000,WS15 4AT,2014-01-15,fhrs_4_en-GB,4,,FHRS,5
336262,Mossbank Avenue,Burntwood,,Staffordshire,Springhill Primary School,School/college/university,7845,5,,384479,5,,52.67738800000000,1995,289,food.safety@lichfielddc.gov.uk,Lichfield,http://www.lichfielddc.gov.uk,-1.92124200000000,WS7 4UN,2013-05-22,fhrs_4_en-GB,4,,FHRS,10
336263,150 Cannock Road,,,Burntwood,Springhill Service Station,Retailers - other,4613,5,,384369,5,,52.67995800000000,1146,289,food.safety@lichfielddc.gov.uk,Lichfield,http://www.lichfielddc.gov.uk,-1.92003900000000,WS7 0BQ,2009-08-10,fhrs_5_en-GB,5,,FHRS,5
336264,,,,,Squiggles Entertainments,Retailers - other,4613,0,,608618,0,,,43693,289,food.safety@lichfielddc.gov.uk,Lichfield,http://www.lichfielddc.gov.uk,,,2013-10-15,fhrs_5_en-GB,5,,FHRS,0
336265,Main Street,,,Clifton Campville,St Andrews Primary School,School/college/university,7845,0,,384811,0,,52.69607700000000,797,289,food.safety@lichfielddc.gov.uk,Lichfield,http://www.lichfielddc.gov.uk,-1.62475600000000,B79 0AP,2014-02-24,fhrs_5_en-GB,5,,FHRS,0
336266,Church Street,,,Chasetown,St Anne's Church,Other catering premises,7841,,,732193,,,52.66964800000000,50393,289,food.safety@lichfielddc.gov.uk,Lichfield,http://www.lichfielddc.gov.uk,-1.93647200000000,WS7 3QL,,fhrs_exempt_en-GB,Exempt,,FHRS,
336267,Manor Road,,,Mile Oak,St Barnabas Church,Other catering premises,7841,,,713457,,,52.61772100000000,48801,289,food.safety@lichfielddc.gov.uk,Lichfield,http://www.lichfielddc.gov.uk,-1.72196500000000,B78 3NB,,fhrs_exempt_en-GB,Exempt,,FHRS,
336268,St Michael Road,,,Lichfield,St Chads C.E (V.C) Primary School,School/college/university,7845,5,,384617,5,,52.68644500000000,2993,289,food.safety@lichfielddc.gov.uk,Lichfield,http://www.lichfielddc.gov.uk,-1.81851500000000,WS13 6SN,2015-01-19,fhrs_5_en-GB,5,,FHRS,5
336269,The Leasowe,,,Lichfield,St Chads Church Hall,Other catering premises,7841,,,713487,,,52.69013500000000,49229,289,food.safety@lichfielddc.gov.uk,Lichfield,http://www.lichfielddc.gov.uk,-1.83335400000000,WS13 7HA,,fhrs_exempt_en-GB,Exempt,,FHRS,
336270,Fisherwick Road,,,Whittington,St Giles Hospice,Hospitals/Childcare/Caring Premises,5,0,,384493,0,,52.67123600000000,2046,289,food.safety@lichfielddc.gov.uk,Lichfield,http://www.lichfielddc.gov.uk,-1.76301800000000,WS14 9LH,2014-02-25,fhrs_5_en-GB,5,,FHRS,0
336271,St John Street,,,Lichfield,St Johns House,Hotel/bed & breakfast/guest house,7842,0,,384701,5,,52.68092200000000,4206,289,food.safety@lichfielddc.gov.uk,Lichfield,http://www.lichfielddc.gov.uk,-1.82819700000000,WS13 6PB,2013-07-31,fhrs_5_en-GB,5,,FHRS,0
336272,High Street,,,Chasetown,St Joseph & St Theresa Primary School,School/college/university,7845,0,,384826,0,,52.67585000000000,969,289,food.safety@lichfielddc.gov.uk,Lichfield,http://www.lichfielddc.gov.uk,-1.93433400000000,WS7 3XL,2013-06-06,fhrs_5_en-GB,5,,FHRS,5
336273,St Josephs RC Primary School,Cherry Orchard,,Lichfield,St Josephs Badgers,Hospitals/Childcare/Caring Premises,5,,,713477,,,52.68102400000000,49157,289,food.safety@lichfielddc.gov.uk,Lichfield,http://www.lichfielddc.gov.uk,-1.81828600000000,WS14 9AN,,fhrs_exempt_en-GB,Exempt,,FHRS,
336274,St Josephs School,High Street,,Chasetown,St Josephs Christian Nursery & Playgroup,Hospitals/Childcare/Caring Premises,5,0,,384602,5,,52.67585000000000,2875,289,food.safety@lichfielddc.gov.uk,Lichfield,http://www.lichfielddc.gov.uk,-1.93433400000000,WS7 3XL,2014-09-17,fhrs_5_en-GB,5,,FHRS,5
336275,Cherry Orchard,,,Lichfield,St Josephs Rc Primary School,School/college/university,7845,0,,384390,0,,52.68102400000000,1405,289,food.safety@lichfielddc.gov.uk,Lichfield,http://www.lichfielddc.gov.uk,-1.81828600000000,WS14 9AN,2014-02-11,fhrs_5_en-GB,5,,FHRS,5
336276,Market Square,,,Lichfield,St Mary's Coffee Shop,Restaurant/Cafe/Canteen,1,5,,384517,10,,52.68338500000000,2248,289,food.safety@lichfielddc.gov.uk,Lichfield,http://www.lichfielddc.gov.uk,-1.82790600000000,WS13 6LG,2014-07-14,fhrs_3_en-GB,3,,FHRS,10
336277,Bellamour Way,,,Colton,St Marys Primary School,School/college/university,7845,5,,384503,10,,52.78212900000000,2185,289,food.safety@lichfielddc.gov.uk,Lichfield,http://www.lichfielddc.gov.uk,-1.92655400000000,WS15 3LN,2013-05-23,fhrs_4_en-GB,4,,FHRS,0
336278,St Matthews Road,,,Burntwood,St Matthews Sports & Social Club,Pub/bar/nightclub,7843,0,,384382,0,,52.68078200000000,1339,289,food.safety@lichfielddc.gov.uk,Lichfield,http://www.lichfielddc.gov.uk,-1.89231900000000,WS7 9EP,2012-10-19,fhrs_5_en-GB,5,,FHRS,5
336279,Sturgeons Hill,,,Lichfield,St Michaels C.E(C) Primary School,School/college/university,7845,5,,384596,0,,52.68203000000000,2815,289,food.safety@lichfielddc.gov.uk,Lichfield,http://www.lichfielddc.gov.uk,-1.81764600000000,WS14 9AW,2013-12-19,fhrs_5_en-GB,5,,FHRS,0
336280,St Michaels Road,,,Lichfield,St Michael's Church Hall,Other catering premises,7841,,,717200,,,52.68644500000000,49529,289,food.safety@lichfielddc.gov.uk,Lichfield,http://www.lichfielddc.gov.uk,-1.81851500000000,WS13 6SN,,fhrs_exempt_en-GB,Exempt,,FHRS,
336281,Dimbles Hill,,,Lichfield,St Peter & St Paul Rc School,School/college/university,7845,5,,384478,5,,52.69161900000000,1994,289,food.safety@lichfielddc.gov.uk,Lichfield,http://www.lichfielddc.gov.uk,-1.82777000000000,WS13 7NH,2015-01-19,fhrs_4_en-GB,4,,FHRS,10
336282,Main Street,,,Stonnall,St Peter's Ce (Vc) Primary School,School/college/university,7845,0,,384396,5,,52.63276700000000,1440,289,food.safety@lichfielddc.gov.uk,Lichfield,http://www.lichfielddc.gov.uk,-1.89190400000000,WS9 9EE,2014-07-03,fhrs_5_en-GB,5,,FHRS,5
336283,Brook End,,,Longdon,St. James Ce(Vc) Primary School,School/college/university,7845,5,,384522,0,,52.72834400000000,2262,289,food.safety@lichfielddc.gov.uk,Lichfield,http://www.lichfielddc.gov.uk,-1.88155500000000,WS15 4PL,2013-05-23,fhrs_5_en-GB,5,,FHRS,5
336284,Syerscote Lane,,,Wigginton,St. Leonards C.E (A) Primary School,School/college/university,7845,0,,384558,0,,52.65605000000000,2603,289,food.safety@lichfielddc.gov.uk,Lichfield,http://www.lichfielddc.gov.uk,-1.69156400000000,B79 9DX,2015-01-09,fhrs_5_en-GB,5,,FHRS,5
336285,Church Lane,,,Fradley,St. Stephens Primary School,School/college/university,7845,0,,384468,0,,52.71816500000000,1900,289,food.safety@lichfielddc.gov.uk,Lichfield,http://www.lichfielddc.gov.uk,-1.76944100000000,WS13 8NL,2013-05-21,fhrs_5_en-GB,5,,FHRS,0
336286,Station Approach,,,Burntwood,Station Cafe,Restaurant/Cafe/Canteen,1,10,,384541,10,,52.67615300000000,2411,289,food.safety@lichfielddc.gov.uk,Lichfield,http://www.lichfielddc.gov.uk,-1.94683100000000,WS7 3PG,2014-11-11,fhrs_3_en-GB,3,,FHRS,10
336287,Alrewas Village Hall,Wellfield Road,,Alrewas,Stepping Stones Pre School Nursery,Hospitals/Childcare/Caring Premises,5,5,,447078,5,,52.73107000000000,38314,289,food.safety@lichfielddc.gov.uk,Lichfield,http://www.lichfielddc.gov.uk,-1.74532400000000,DE13 7HB,2014-01-15,fhrs_4_en-GB,4,,FHRS,10
336288,170 Main Street,,,Stonnall,Stonnall Fish Bar,Takeaway/sandwich shop,7844,5,,384590,5,,52.63171100000000,2806,289,food.safety@lichfielddc.gov.uk,Lichfield,http://www.lichfielddc.gov.uk,-1.89734400000000,WS9 9DY,2013-05-31,fhrs_5_en-GB,5,,FHRS,5
336289,114 Main Street,,,Stonnall,Stonnall Village Hall,Pub/bar/nightclub,7843,,,732191,,,52.63181000000000,50385,289,food.safety@lichfielddc.gov.uk,Lichfield,http://www.lichfielddc.gov.uk,-1.89716600000000,WS9 9DY,,fhrs_exempt_en-GB,Exempt,,FHRS,
336290,95 Stowe Street,,,Lichfield,Stowe View Stores,Retailers - other,4613,5,,384473,10,,52.68699000000000,1940,289,food.safety@lichfielddc.gov.uk,Lichfield,http://www.lichfielddc.gov.uk,-1.82240300000000,WS13 6AF,2014-11-29,fhrs_4_en-GB,4,,FHRS,5
336291,Burton Road,,,Lichfield,Streethay Wharf,Retailers - other,4613,,,726460,,,52.69450700000000,49937,289,food.safety@lichfielddc.gov.uk,Lichfield,http://www.lichfielddc.gov.uk,-1.78498300000000,WS13 8RJ,,fhrs_exempt_en-GB,Exempt,,FHRS,
336292,Thornhill Road,,,Streetly,Streetly Methodist Church,Other catering premises,7841,,,713447,,,52.58672800000000,48733,289,food.safety@lichfielddc.gov.uk,Lichfield,http://www.lichfielddc.gov.uk,-1.87129400000000,B74 3EH,,fhrs_exempt_en-GB,Exempt,,FHRS,
336293,Burnett Road,,,Streetly,Streetly Village Fish Bar,Takeaway/sandwich shop,7844,20,,724027,10,,52.58665800000000,49817,289,food.safety@lichfielddc.gov.uk,Lichfield,http://www.lichfielddc.gov.uk,-1.87305100000000,B74 3EJ,2014-12-09,fhrs_1_en-GB,1,,FHRS,10
336294,Fisherwick Road,,,Fisherwick,Stubby Leas Nursing Home,Hospitals/Childcare/Caring Premises,5,5,,384818,5,,52.68349600000000,818,289,food.safety@lichfielddc.gov.uk,Lichfield,http://www.lichfielddc.gov.uk,-1.72492000000000,WS13 8PT,2014-12-10,fhrs_5_en-GB,5,,FHRS,5
336295,153 - 155 Cannock Road,,,Burntwood,Subway,Takeaway/sandwich shop,7844,0,,703322,0,,52.67927400000000,48453,289,food.safety@lichfielddc.gov.uk,Lichfield,http://www.lichfielddc.gov.uk,-1.91823600000000,WS7 0BB,2014-09-23,fhrs_5_en-GB,5,,FHRS,5
336296,17 Market Street,,,Lichfield,Subway,Takeaway/sandwich shop,7844,5,,384571,0,,52.68303600000000,2716,289,food.safety@lichfielddc.gov.uk,Lichfield,http://www.lichfielddc.gov.uk,-1.82916500000000,WS13 6JX,2014-02-26,fhrs_5_en-GB,5,,FHRS,5
336297,Drayton Filling Station,Watling Street,,Fazeley,Subway,Takeaway/sandwich shop,7844,0,,384733,0,,52.61399100000000,5231,289,food.safety@lichfielddc.gov.uk,Lichfield,http://www.lichfielddc.gov.uk,-1.69308500000000,B78 3RN,2014-03-27,fhrs_5_en-GB,5,,FHRS,0
336298,Common Lane,,,Fradley,Sue's Snack Shack,Mobile caterer,7846,10,,384627,10,,52.71211700000000,3060,289,food.safety@lichfielddc.gov.uk,Lichfield,http://www.lichfielddc.gov.uk,-1.77718300000000,,2014-06-24,fhrs_3_en-GB,3,,FHRS,10
336299,129 Beacon Street,,,Lichfield,Sugar Surgeons,Retailers - other,4613,0,,384748,0,,52.68807400000000,5897,289,food.safety@lichfielddc.gov.uk,Lichfield,http://www.lichfielddc.gov.uk,-1.83821400000000,WS13 7BG,2014-02-27,fhrs_5_en-GB,5,,FHRS,0
336300,at Ridgeway Primary School,Grange Road,,Burntwood,Sunny Days Nursery,Hospitals/Childcare/Caring Premises,5,0,,384471,0,,52.67187900000000,1935,289,food.safety@lichfielddc.gov.uk,Lichfield,http://www.lichfielddc.gov.uk,-1.92348500000000,WS7 4TU,2014-06-03,fhrs_5_en-GB,5,,FHRS,0
336301,74 Princess Street,,,Burntwood,Superb Chinese Takeaway,Takeaway/sandwich shop,7844,5,,384807,10,,52.68554300000000,7822,289,food.safety@lichfielddc.gov.uk,Lichfield,http://www.lichfielddc.gov.uk,-1.93929000000000,WS7 1JN,2014-02-24,fhrs_4_en-GB,4,,FHRS,5
336302,16 - 18 Conduit Street,,,Lichfield,Superdrug,Retailers - other,4613,,,713480,,,52.68389600000000,49169,289,food.safety@lichfielddc.gov.uk,Lichfield,http://www.lichfielddc.gov.uk,-1.82694300000000,WS13 6JR,,fhrs_exempt_en-GB,Exempt,,FHRS,
336303,38 Bore Street,,,Lichfield,Supernewz,Retailers - other,4613,0,,718176,0,,52.68313200000000,49565,289,food.safety@lichfielddc.gov.uk,Lichfield,http://www.lichfielddc.gov.uk,-1.82694600000000,WS13 6LU,2014-11-25,fhrs_5_en-GB,5,,FHRS,0
336304,6 Cannock Road,,,Burntwood,Swan Island Fish Bar,Takeaway/sandwich shop,7844,0,,619087,10,,52.67831400000000,44197,289,food.safety@lichfielddc.gov.uk,Lichfield,http://www.lichfielddc.gov.uk,-1.90884600000000,WS7 0BJ,2013-11-25,fhrs_4_en-GB,4,,FHRS,5
336305,,,,,Sweet Creativity,Other catering premises,7841,0,,649130,0,,,45613,289,food.safety@lichfielddc.gov.uk,Lichfield,http://www.lichfielddc.gov.uk,,,2014-04-23,fhrs_5_en-GB,5,,FHRS,0
336306,,,,,Sweet Love,Retailers - other,4613,0,,610321,0,,,44022,289,food.safety@lichfielddc.gov.uk,Lichfield,http://www.lichfielddc.gov.uk,,,2013-11-21,fhrs_5_en-GB,5,,FHRS,0
336307,,,,,Sweet N Sweet Treats,Retailers - other,4613,0,,615859,0,,,44102,289,food.safety@lichfielddc.gov.uk,Lichfield,http://www.lichfielddc.gov.uk,,,2013-12-04,fhrs_5_en-GB,5,,FHRS,0
336308,,,,,Sweet Shack,Mobile caterer,7846,0,,608620,0,,,43801,289,food.safety@lichfielddc.gov.uk,Lichfield,http://www.lichfielddc.gov.uk,,,2013-10-28,fhrs_5_en-GB,5,,FHRS,0
336309,,,,,T Cakes,Retailers - other,4613,0,,638450,0,,,45273,289,food.safety@lichfielddc.gov.uk,Lichfield,http://www.lichfielddc.gov.uk,,,2014-03-26,fhrs_5_en-GB,5,,FHRS,0
336310,Crossfield Road,Crossfield Industrial Estate,,Lichfield,T.L.C Snacks,Mobile caterer,7846,10,,536838,10,,,41541,289,food.safety@lichfielddc.gov.uk,Lichfield,http://www.lichfielddc.gov.uk,,,2014-11-21,fhrs_3_en-GB,3,,FHRS,10
336311,75a Marks Walk,Eastern Avenue,,Lichfield,Tamworth Co Op Lichfield,Retailers - supermarkets/hypermarkets,7840,0,,384400,0,,52.69574900000000,147,289,food.safety@lichfielddc.gov.uk,Lichfield,http://www.lichfielddc.gov.uk,-1.83701700000000,WS13 7QG,2014-03-24,fhrs_5_en-GB,5,,FHRS,0
336312,,,,,Tart!,Retailers - other,4613,5,,608611,0,,,43454,289,food.safety@lichfielddc.gov.uk,Lichfield,http://www.lichfielddc.gov.uk,,,2013-09-26,fhrs_5_en-GB,5,,FHRS,0
336313,14 Conduit Street,,,Lichfield,Tasty Cafe,Restaurant/Cafe/Canteen,1,0,,673067,5,,52.68389600000000,47165,289,food.safety@lichfielddc.gov.uk,Lichfield,http://www.lichfielddc.gov.uk,-1.82694300000000,WS13 6JR,2014-06-18,fhrs_5_en-GB,5,,FHRS,5
336314,,,,,Tasty Treats,Other catering premises,7841,5,,418395,10,,,37198,289,food.safety@lichfielddc.gov.uk,Lichfield,http://www.lichfielddc.gov.uk,,,2012-07-04,fhrs_4_en-GB,4,,FHRS,5
336315,Erasmus Darwin Academy,Pool Road,Burntwood,Lichfield,Taylor Shaw,Other catering premises,7841,10,,384555,10,,52.66830900000000,2596,289,food.safety@lichfielddc.gov.uk,Lichfield,http://www.lichfielddc.gov.uk,-1.93614900000000,WS7 3QW,2011-05-18,fhrs_3_en-GB,3,,FHRS,10
336316,Tollgate House Farm,Blithbury Road,,Hamstall Ridware,Team Action,Takeaway/sandwich shop,7844,0,,491837,0,,52.77214700000000,40210,289,food.safety@lichfielddc.gov.uk,Lichfield,http://www.lichfielddc.gov.uk,-1.84727100000000,WS15 3RT,2014-08-29,fhrs_5_en-GB,5,,FHRS,0
336317,30 Birmingham Road,,,Shenstone,Tesco Express,Retailers - supermarkets/hypermarkets,7840,5,,384739,5,,52.63897800000000,5475,289,food.safety@lichfielddc.gov.uk,Lichfield,http://www.lichfielddc.gov.uk,-1.83557200000000,WS14 0JR,2013-08-13,fhrs_4_en-GB,4,,FHRS,10
336318,Netherstowe,,,Lichfield,Tesco Express,Retailers - supermarkets/hypermarkets,7840,0,,384712,5,,52.69466400146480,4637,289,food.safety@lichfielddc.gov.uk,Lichfield,http://www.lichfielddc.gov.uk,-1.81537377834320,WS13 6BA,2013-03-14,fhrs_5_en-GB,5,,FHRS,5
336319,13A - 15 Coleshill Street,Fazeley,,Tamworth,Tesco Express Fazeley,Retailers - other,4613,,,731209,,,52.61411300000000,50369,289,food.safety@lichfielddc.gov.uk,Lichfield,http://www.lichfielddc.gov.uk,-1.69884400000000,B78 3RB,,fhrs_exempt_en-GB,Exempt,,FHRS,
336320,Church Street,,,Lichfield,Tesco Extra Lichfield,Retailers - supermarkets/hypermarkets,7840,0,,384658,0,,52.68431000000000,3291,289,food.safety@lichfielddc.gov.uk,Lichfield,http://www.lichfielddc.gov.uk,-1.82164500000000,WS13 6DZ,2014-04-17,fhrs_5_en-GB,5,,FHRS,0
336321,A5 Watling Street,Muckley Corner,,Lichfield,Texaco Service Station With Co Op Store,Retailers - other,4613,0,,384765,0,,52.64379100000000,6362,289,food.safety@lichfielddc.gov.uk,Lichfield,http://www.lichfielddc.gov.uk,-1.90458700000000,WS14 0BH,2014-07-10,fhrs_5_en-GB,5,,FHRS,0
336322,52 Thornhill Road,,,Streetly,Thai Brasserie,Restaurant/Cafe/Canteen,1,20,,693999,10,,52.58672800000000,48037,289,food.safety@lichfielddc.gov.uk,Lichfield,http://www.lichfielddc.gov.uk,-1.87129400000000,B74 3EH,2014-08-27,fhrs_1_en-GB,1,,FHRS,10
336323,15 Bird Street,,,Lichfield,Thai Rainbow Restaurant,Restaurant/Cafe/Canteen,1,10,,384519,10,,52.68267800000000,2255,289,food.safety@lichfielddc.gov.uk,Lichfield,http://www.lichfielddc.gov.uk,-1.83030500000000,WS13 6PW,2014-03-19,fhrs_3_en-GB,3,,FHRS,10
336324,141 Burton Road,Streethay,,Lichfield,The Anchor,Pub/bar/nightclub,7843,20,,510015,15,,52.69163200000000,40681,289,food.safety@lichfielddc.gov.uk,Lichfield,http://www.lichfielddc.gov.uk,-1.79118200000000,WS13 8LS,2014-09-09,fhrs_1_en-GB,1,,FHRS,10
336325,The National Memorial Arboretum,Croxall Road,,Alrewas,The Arbor Restaurant,Restaurant/Cafe/Canteen,1,5,,426693,5,,52.72759600000000,37454,289,food.safety@lichfielddc.gov.uk,Lichfield,http://www.lichfielddc.gov.uk,-1.73133600000000,DE13 7AR,2014-01-15,fhrs_5_en-GB,5,,FHRS,5
336326,Armitage Road,,,Armitage,The Ash Tree,Pub/bar/nightclub,7843,0,,384647,5,,52.74642000000000,3192,289,food.safety@lichfielddc.gov.uk,Lichfield,http://www.lichfielddc.gov.uk,-1.91000800000000,WS15 1PL,2014-07-09,fhrs_5_en-GB,5,,FHRS,5
336327,Heart of The Country,London Road,,Swinfen,The Barn At Swinfen Limited,Restaurant/Cafe/Canteen,1,5,,384625,10,,52.64982300000000,3055,289,food.safety@lichfielddc.gov.uk,Lichfield,http://www.lichfielddc.gov.uk,-1.80834900000000,WS14 9QR,2014-03-04,fhrs_3_en-GB,3,,FHRS,10
336328,27 Main Street,,,Whittington,The Bell Inn,Pub/bar/nightclub,7843,5,,430295,10,,52.67393000000000,37674,289,food.safety@lichfielddc.gov.uk,Lichfield,http://www.lichfielddc.gov.uk,-1.76148000000000,WS14 9JR,2013-05-13,fhrs_4_en-GB,4,,FHRS,5
336329,42 Bore Street,,,Lichfield,The Bengal Restaurant,Restaurant/Cafe/Canteen,1,20,,649120,15,,52.68314900000000,45445,289,food.safety@lichfielddc.gov.uk,Lichfield,http://www.lichfielddc.gov.uk,-1.82685700000000,WS13 6LU,2014-11-10,fhrs_1_en-GB,1,,FHRS,10
336330,21 - 23 Dam Street,,,Lichfield,The Bogey Hole,Hotel/bed & breakfast/guest house,7842,,,713482,,,52.68441900000000,49177,289,food.safety@lichfielddc.gov.uk,Lichfield,http://www.lichfielddc.gov.uk,-1.82825700000000,WS13 6AE,,fhrs_exempt_en-GB,Exempt,,FHRS,
336331,Friary Road,,,Lichfield,The Bowling Green,Pub/bar/nightclub,7843,0,,384660,0,,52.67914200000000,3302,289,food.safety@lichfielddc.gov.uk,Lichfield,http://www.lichfielddc.gov.uk,-1.83459300000000,WS13 6QJ,2013-04-23,fhrs_5_en-GB,5,,FHRS,5
336332,Birmingham Road,,,Shenstone,The Bulls Head,Pub/bar/nightclub,7843,0,,384812,0,,52.63897800000000,801,289,food.safety@lichfielddc.gov.uk,Lichfield,http://www.lichfielddc.gov.uk,-1.83557200000000,WS14 0JR,2014-02-19,fhrs_5_en-GB,5,,FHRS,0
336333,The Square,Elford,,Tamworth,The Candle Room @ The Crown Inn,Restaurant/Cafe/Canteen,1,0,,608623,0,,52.69212900000000,43922,289,food.safety@lichfielddc.gov.uk,Lichfield,http://www.lichfielddc.gov.uk,-1.72221800000000,B79 9DB,2013-11-14,fhrs_5_en-GB,5,,FHRS,0
336334,15-17 Dam Street,,,Lichfield,The Causeway,Restaurant/Cafe/Canteen,1,0,,384376,0,,52.68441900000000,1310,289,food.safety@lichfielddc.gov.uk,Lichfield,http://www.lichfielddc.gov.uk,-1.82825700000000,WS13 6AE,2014-01-28,fhrs_5_en-GB,5,,FHRS,0
336335,7 Swan Corner Shopping Precinct,Chase Road,,Burntwood,The Co Operative Group,Retailers - supermarkets/hypermarkets,7840,0,,384804,0,,52.67747700000000,78,289,food.safety@lichfielddc.gov.uk,Lichfield,http://www.lichfielddc.gov.uk,-1.90688000000000,WS7 0DW,2013-04-24,fhrs_5_en-GB,5,,FHRS,5
336336,7 Breadmarket Street,,,Lichfield,The Coffee House,Restaurant/Cafe/Canteen,1,10,,430292,5,,52.68338500000000,37646,289,food.safety@lichfielddc.gov.uk,Lichfield,http://www.lichfielddc.gov.uk,-1.82790600000000,WS13 6LG,2014-02-26,fhrs_4_en-GB,4,,FHRS,5
336337,Coton Green Church,Comberford Road,,Tamworth,The Coton Centre,Other catering premises,7841,0,,384703,5,,52.65101100000000,4384,289,food.safety@lichfielddc.gov.uk,Lichfield,http://www.lichfielddc.gov.uk,-1.70398700000000,B79 9AA,2013-03-13,fhrs_5_en-GB,5,,FHRS,0
336338,50 Rykneld Street,,,Alrewas,The Creative Baking Co,Other catering premises,7841,,,729995,,,52.72983200000000,50269,289,food.safety@lichfielddc.gov.uk,Lichfield,http://www.lichfielddc.gov.uk,-1.74259100000000,DE13 7AX,,fhrs_exempt_en-GB,Exempt,,FHRS,
336339,12-14 Tamworth Street,,,Lichfield,The Crown,Pub/bar/nightclub,7843,10,,384575,5,,52.68374100000000,2726,289,food.safety@lichfielddc.gov.uk,Lichfield,http://www.lichfielddc.gov.uk,-1.82543400000000,WS13 6JJ,2014-02-26,fhrs_3_en-GB,3,,FHRS,10
336340,20 High Street,Chasetown,,Burntwood,The Crown,Pub/bar/nightclub,7843,10,,570007,5,,52.67145400000000,42749,289,food.safety@lichfielddc.gov.uk,Lichfield,http://www.lichfielddc.gov.uk,-1.93395600000000,WS7 3XF,2013-07-15,fhrs_3_en-GB,3,,FHRS,10
336341,24 The Green,,,Handsacre,The Crown Inn,Pub/bar/nightclub,7843,10,,619086,10,,52.74323300000000,44189,289,food.safety@lichfielddc.gov.uk,Lichfield,http://www.lichfielddc.gov.uk,-1.86611000000000,WS15 4DT,2013-11-28,fhrs_3_en-GB,3,,FHRS,10
336342,7 Post Office Road,,,Alrewas,The Crown Inn,Pub/bar/nightclub,7843,0,,384406,5,,52.73388300000000,1515,289,food.safety@lichfielddc.gov.uk,Lichfield,http://www.lichfielddc.gov.uk,-1.74930600000000,DE13 7BS,2014-04-15,fhrs_5_en-GB,5,,FHRS,0
336343,The Square,,,Elford,The Crown Inn,Pub/bar/nightclub,7843,0,,384743,0,,52.69212900000000,5600,289,food.safety@lichfielddc.gov.uk,Lichfield,http://www.lichfielddc.gov.uk,-1.72221800000000,B79 9DB,2013-11-14,fhrs_5_en-GB,5,,FHRS,0
336344,2 Main Street,,,Whittington,The Dog Inn,Pub/bar/nightclub,7843,0,,468681,0,,52.67270100000000,39598,289,food.safety@lichfielddc.gov.uk,Lichfield,http://www.lichfielddc.gov.uk,-1.76321700000000,WS14 9JU,2015-01-17,fhrs_5_en-GB,5,,FHRS,0
336345,33 Springlestyche Lane,,,Burntwood,The Drill Inn,Pub/bar/nightclub,7843,10,,384540,10,,52.68907700000000,2395,289,food.safety@lichfielddc.gov.uk,Lichfield,http://www.lichfielddc.gov.uk,-1.91099800000000,WS7 9HD,2013-12-04,fhrs_3_en-GB,3,,FHRS,10
336346,12 Greenhill Mews,,,Lichfield,The Duchess Bakery,Other catering premises,7841,,,713492,,,52.68406900000000,49249,289,food.safety@lichfielddc.gov.uk,Lichfield,http://www.lichfielddc.gov.uk,-1.82241500000000,WS13 6LF,,fhrs_exempt_en-GB,Exempt,,FHRS,
336347,118 Beacon Street,,,Lichfield,The Feathers Inn,Pub/bar/nightclub,7843,5,,384708,5,,52.68851500000000,4472,289,food.safety@lichfielddc.gov.uk,Lichfield,http://www.lichfielddc.gov.uk,-1.83855200000000,WS13 7BA,2013-02-13,fhrs_5_en-GB,5,,FHRS,5
336348,c/o Garlands Shooting Ground,Raddle Farm,,Edingale,The Field Kitchen,Restaurant/Cafe/Canteen,1,10,,730954,10,,52.72054300000000,50341,289,food.safety@lichfielddc.gov.uk,Lichfield,http://www.lichfielddc.gov.uk,-1.66555600000000,B79 9JR,2015-01-17,fhrs_3_en-GB,3,,FHRS,10
336349,St Marys Old School,Minster Pool Walk,,Lichfield,The Food Room,Restaurant/Cafe/Canteen,1,0,,384825,5,,52.68364100000000,967,289,food.safety@lichfielddc.gov.uk,Lichfield,http://www.lichfielddc.gov.uk,-1.83084900000000,WS13 6QT,2013-08-29,fhrs_5_en-GB,5,,FHRS,5
336350,68 Ogley Hay Road,Chase Terrace,,Burntwood,The Foresters Tavern,Pub/bar/nightclub,7843,5,,384500,5,,52.69171900000000,214,289,food.safety@lichfielddc.gov.uk,Lichfield,http://www.lichfielddc.gov.uk,-1.92324300000000,WS7 2PH,2013-08-28,fhrs_5_en-GB,5,,FHRS,5
336351,Unit 9 The Stirling Centre,Tye Road,,Fradley,The Fradley Fryer,Takeaway/sandwich shop,7844,5,,384441,5,,52.71218600000000,18174,289,food.safety@lichfielddc.gov.uk,Lichfield,http://www.lichfielddc.gov.uk,-1.77820600000000,WS13 8ST,2014-02-25,fhrs_5_en-GB,5,,FHRS,0
336352,Eastern Avenue,,,Lichfield,The Friary School,School/college/university,7845,5,,384348,5,,52.69455800000000,1024,289,food.safety@lichfielddc.gov.uk,Lichfield,http://www.lichfielddc.gov.uk,-1.84711200000000,WS13 7EW,2014-02-25,fhrs_5_en-GB,5,,FHRS,5
336353,14 Dam Street,,,Lichfield,The Garrick Coffee Shop,Restaurant/Cafe/Canteen,1,10,,384510,15,,52.68458100000000,2211,289,food.safety@lichfielddc.gov.uk,Lichfield,http://www.lichfielddc.gov.uk,-1.82819700000000,WS13 6AA,2014-07-14,fhrs_2_en-GB,2,,FHRS,15
336354,1 Bird Street,,,Lichfield,The Gatehouse,Pub/bar/nightclub,7843,0,,384641,0,,52.68267800000000,3132,289,food.safety@lichfielddc.gov.uk,Lichfield,http://www.lichfielddc.gov.uk,-1.83030500000000,WS13 6PW,2013-04-22,fhrs_5_en-GB,5,,FHRS,5
336355,12-14 Bird Street,,,Lichfield,The George Hotel,Hotel/bed & breakfast/guest house,7842,5,,384697,5,,52.68318200000000,4114,289,food.safety@lichfielddc.gov.uk,Lichfield,http://www.lichfielddc.gov.uk,-1.83046600000000,WS13 6PR,2014-10-22,fhrs_4_en-GB,4,,FHRS,10
336356,11 High Street,,,Chasetown,The Gourmet,Takeaway/sandwich shop,7844,0,,384694,0,,52.67146300000000,4033,289,food.safety@lichfielddc.gov.uk,Lichfield,http://www.lichfielddc.gov.uk,-1.93434000000000,WS7 3XE,2014-02-24,fhrs_5_en-GB,5,,FHRS,0
336357,Main Street,,,Clifton Campville,The Green Man,Pub/bar/nightclub,7843,5,,384491,5,,52.69633200000000,2042,289,food.safety@lichfielddc.gov.uk,Lichfield,http://www.lichfielddc.gov.uk,-1.62299300000000,B79 0AX,2014-03-04,fhrs_4_en-GB,4,,FHRS,10
336358,Lichfield Garrick Theatre,Castle Dyke,,Lichfield,The Green Room,Restaurant/Cafe/Canteen,1,5,,384536,5,,52.68246500000000,2383,289,food.safety@lichfielddc.gov.uk,Lichfield,http://www.lichfielddc.gov.uk,-1.82629700000000,WS13 6HR,2014-10-01,fhrs_5_en-GB,5,,FHRS,5
336359,Bellamour Way,,,Colton,The Greyhound,Pub/bar/nightclub,7843,0,,384610,0,,52.78212900000000,2974,289,food.safety@lichfielddc.gov.uk,Lichfield,http://www.lichfielddc.gov.uk,-1.92655400000000,WS15 3LN,2014-11-12,fhrs_4_en-GB,4,,FHRS,10
336360,121 Upper St John Street,,,Lichfield,The Greyhound Inn,Pub/bar/nightclub,7843,20,,384432,15,,52.67740200000000,16950,289,food.safety@lichfielddc.gov.uk,Lichfield,http://www.lichfielddc.gov.uk,-1.82479400000000,WS14 9EA,2012-05-17,fhrs_1_en-GB,1,,FHRS,15
336361,30 Norwich Close,,,Lichfield,The Hawthorns B & B,Hotel/bed & breakfast/guest house,7842,,,729997,,,52.69891100000000,50281,289,food.safety@lichfielddc.gov.uk,Lichfield,http://www.lichfielddc.gov.uk,-1.82276900000000,WS13 7SJ,,fhrs_exempt_en-GB,Exempt,,FHRS,
336362,44A Church Street,,,Whittington,The Hawthorns Bed & Breakfast,Hotel/bed & breakfast/guest house,7842,0,,638451,0,,52.67277900000000,45277,289,food.safety@lichfielddc.gov.uk,Lichfield,http://www.lichfielddc.gov.uk,-1.76624900000000,WS14 9JX,2014-03-27,fhrs_5_en-GB,5,,FHRS,0
336363,Stafford Road,,,Lichfield,The Hedgehog,Pub/bar/nightclub,7843,10,,384584,0,,52.69245800000000,2776,289,food.safety@lichfielddc.gov.uk,Lichfield,http://www.lichfielddc.gov.uk,-1.84970900000000,WS13 8JB,2015-01-16,fhrs_4_en-GB,4,,FHRS,10
336364,72 Atherstone Street,,,Fazeley,The Hollies Guest House,Hotel/bed & breakfast/guest house,7842,0,,571551,5,,52.61418000000000,42853,289,food.safety@lichfielddc.gov.uk,Lichfield,http://www.lichfielddc.gov.uk,-1.69695400000000,B78 3RF,2013-07-25,fhrs_5_en-GB,5,,FHRS,0
336365,56 New Road,,,Armitage,The Homestead Day Service,Hospitals/Childcare/Caring Premises,5,5,,384695,5,,52.74141700000000,4074,289,food.safety@lichfielddc.gov.uk,Lichfield,http://www.lichfielddc.gov.uk,-1.87433600000000,WS15 4BJ,2015-01-08,fhrs_5_en-GB,5,,FHRS,5
336366,1 Queen Street,Chasetown,,Burntwood,The Junction,Pub/bar/nightclub,7843,5,,524932,5,,52.67137200000000,41141,289,food.safety@lichfielddc.gov.uk,Lichfield,http://www.lichfielddc.gov.uk,-1.93243300000000,WS7 4QQ,2013-03-16,fhrs_4_en-GB,4,,FHRS,10
336367,7 Lombard Street,,,Lichfield,The Lombard,Takeaway/sandwich shop,7844,5,,384530,5,,52.68469300000000,2319,289,food.safety@lichfielddc.gov.uk,Lichfield,http://www.lichfielddc.gov.uk,-1.82472000000000,WS13 6DP,2014-03-24,fhrs_4_en-GB,4,,FHRS,10
336368,Deer Park Road,,,Fazeley,The Longwood,Pub/bar/nightclub,7843,5,,384656,5,,52.61729800000000,3274,289,food.safety@lichfielddc.gov.uk,Lichfield,http://www.lichfielddc.gov.uk,-1.71437600000000,B78 3QP,2014-07-16,fhrs_4_en-GB,4,,FHRS,10
336369,2 Market Street,,,Lichfield,The Lounge,Pub/bar/nightclub,7843,5,,384508,5,,52.68291000000000,2199,289,food.safety@lichfielddc.gov.uk,Lichfield,http://www.lichfielddc.gov.uk,-1.82878100000000,WS13 6LH,2014-11-06,fhrs_5_en-GB,5,,FHRS,5
336370,Trading at Tolsons Mill,Lichfield Street,,Fazeley,The Lunch Box,Mobile caterer,7846,10,,691122,10,,,47885,289,food.safety@lichfielddc.gov.uk,Lichfield,http://www.lichfielddc.gov.uk,,,2014-08-12,fhrs_3_en-GB,3,,FHRS,10
336371,55 Wade Street,,,Lichfield,The Malt Bar,Pub/bar/nightclub,7843,0,,384741,10,,52.68227000000000,5482,289,food.safety@lichfielddc.gov.uk,Lichfield,http://www.lichfielddc.gov.uk,-1.82761500000000,WS13 6HL,2014-07-16,fhrs_4_en-GB,4,,FHRS,10
336372,Malt Shovel At Chorley Ltd,Lower Lane,,Chorley,The Malt Shovel At Chorley Ltd,Pub/bar/nightclub,7843,0,,624532,0,,52.69776800000000,44405,289,food.safety@lichfielddc.gov.uk,Lichfield,http://www.lichfielddc.gov.uk,-1.89751500000000,WS13 8DD,2014-01-17,fhrs_5_en-GB,5,,FHRS,0
336373,White House Farm,Bangley Lane,,Hints,The Malted Waffle Company,Distributors/Transporters,7,5,,439564,0,,52.60740900000000,37994,289,food.safety@lichfielddc.gov.uk,Lichfield,http://www.lichfielddc.gov.uk,-1.76767400000000,B78 3EA,2014-10-02,fhrs_5_en-GB,5,,FHRS,0
336374,,,,,The Maples,Hotel/bed & breakfast/guest house,7842,5,,442768,5,,,38162,289,food.safety@lichfielddc.gov.uk,Lichfield,http://www.lichfielddc.gov.uk,,,2012-08-30,fhrs_5_en-GB,5,,FHRS,5
336375,,,,,The Midnight Bakery,Other catering premises,7841,0,,649128,0,,,45593,289,food.safety@lichfielddc.gov.uk,Lichfield,http://www.lichfielddc.gov.uk,,,2014-04-16,fhrs_5_en-GB,5,,FHRS,0
336376,Creswell Green,,,Burntwood,The Nelson Inn,Pub/bar/nightclub,7843,0,,384796,0,,52.69132700000000,7758,289,food.safety@lichfielddc.gov.uk,Lichfield,http://www.lichfielddc.gov.uk,-1.89338800000000,WS7 9HL,2013-11-05,fhrs_5_en-GB,5,,FHRS,0
336377,120 Main Road,,,Wigginton,The Old Crown Inn,Pub/bar/nightclub,7843,5,,384453,5,,52.65747100000000,18406,289,food.safety@lichfielddc.gov.uk,Lichfield,http://www.lichfielddc.gov.uk,-1.69214500000000,B79 9DW,2015-01-09,fhrs_5_en-GB,5,,FHRS,5
336378,Church Lane,,,Mavesyn Ridware,The Old Rectory,Hotel/bed & breakfast/guest house,7842,,,713455,,,52.74953400000000,48793,289,food.safety@lichfielddc.gov.uk,Lichfield,http://www.lichfielddc.gov.uk,-1.88238700000000,WS15 3QE,,fhrs_exempt_en-GB,Exempt,,FHRS,
336379,Main Street,,,Stonnall,The Old Swan,Pub/bar/nightclub,7843,10,,384456,5,,52.62949300000000,1842,289,food.safety@lichfielddc.gov.uk,Lichfield,http://www.lichfielddc.gov.uk,-1.89971300000000,WS9 9DX,2014-01-22,fhrs_4_en-GB,4,,FHRS,5
336380,The Green,,,Handsacre,The Olde Peculiar,Pub/bar/nightclub,7843,0,,384428,0,,52.74257800000000,1683,289,food.safety@lichfielddc.gov.uk,Lichfield,http://www.lichfielddc.gov.uk,-1.86731100000000,WS15 4DP,2013-11-04,fhrs_5_en-GB,5,,FHRS,5
336381,34 Tamworth Street,,,Lichfield,The Olive Tree,Restaurant/Cafe/Canteen,1,0,,384409,5,,52.68374100000000,1520,289,food.safety@lichfielddc.gov.uk,Lichfield,http://www.lichfielddc.gov.uk,-1.82543400000000,WS13 6JJ,2014-03-03,fhrs_5_en-GB,5,,FHRS,5
336382,The Owl,London Road,,Lichfield,The Owl,Pub/bar/nightclub,7843,5,,713470,5,,52.66832400000000,49113,289,food.safety@lichfielddc.gov.uk,Lichfield,http://www.lichfielddc.gov.uk,-1.81961000000000,WS14 9QH,2014-10-23,fhrs_5_en-GB,5,,FHRS,5
336383,The Plant Plot,Stafford Road,,Lichfield,The Pantry,Restaurant/Cafe/Canteen,1,0,,384507,5,,52.69602100000000,2198,289,food.safety@lichfielddc.gov.uk,Lichfield,http://www.lichfielddc.gov.uk,-1.85252300000000,WS13 8JA,2013-04-17,fhrs_5_en-GB,5,,FHRS,5
336384,Huddlesford Lane,,,Huddlesford,The Plough Inn,Pub/bar/nightclub,7843,10,,447077,5,,52.68278100000000,38298,289,food.safety@lichfielddc.gov.uk,Lichfield,http://www.lichfielddc.gov.uk,-1.77348800000000,WS13 8PY,2014-01-17,fhrs_3_en-GB,3,,FHRS,10
336385,Rugeley Road,,,Armitage,The Plum Pudding,Pub/bar/nightclub,7843,10,,384600,5,,52.74518900000000,2869,289,food.safety@lichfielddc.gov.uk,Lichfield,http://www.lichfielddc.gov.uk,-1.88862000000000,WS15 4AZ,2014-07-09,fhrs_4_en-GB,4,,FHRS,5
336386,169 Upper St John Street,,,Lichfield,The Polish Shop,Retailers - other,4613,30,,384455,20,,52.67576400000000,18414,289,food.safety@lichfielddc.gov.uk,Lichfield,http://www.lichfielddc.gov.uk,-1.82361700000000,WS14 9ED,2014-02-14,fhrs_0_en-GB,0,,FHRS,25
336387,Hay Lane,,,Longdon Green,The Red Lion,Pub/bar/nightclub,7843,0,,691841,0,,52.71764100000000,47981,289,food.safety@lichfielddc.gov.uk,Lichfield,http://www.lichfielddc.gov.uk,-1.87619500000000,WS15 4QF,2014-08-19,fhrs_5_en-GB,5,,FHRS,0
336388,Lichfield Road,,,Hopwas,The Red Lion,Pub/bar/nightclub,7843,5,,384628,5,,52.64261600000000,3067,289,food.safety@lichfielddc.gov.uk,Lichfield,http://www.lichfielddc.gov.uk,-1.73905400000000,B78 3AF,2014-10-27,fhrs_4_en-GB,4,,FHRS,10
336389,Hayfield Hill,,,Gentleshaw,The Redmore Inn,Pub/bar/nightclub,7843,0,,384417,5,,52.69800900000000,1632,289,food.safety@lichfielddc.gov.uk,Lichfield,http://www.lichfielddc.gov.uk,-1.93369400000000,WS15 4RU,2013-08-19,fhrs_5_en-GB,5,,FHRS,5
336390,Birmingham Road,,,Shenstone,The Restaurant At Shenstone Garden Centre,Restaurant/Cafe/Canteen,1,0,,384767,0,,52.64657300000000,6401,289,food.safety@lichfielddc.gov.uk,Lichfield,http://www.lichfielddc.gov.uk,-1.83496700000000,WS14 0QQ,2014-11-03,fhrs_5_en-GB,5,,FHRS,0
336391,C/o Florascape Limited,Bonehill Road,,Tamworth,The Retreat,Restaurant/Cafe/Canteen,1,5,,384728,5,,52.62567300000000,5025,289,food.safety@lichfielddc.gov.uk,Lichfield,http://www.lichfielddc.gov.uk,-1.72061400000000,B78 3HP,2014-07-16,fhrs_2_en-GB,2,,FHRS,15
336392,24 Market Street,,,Lichfield,The Scales,Pub/bar/nightclub,7843,0,,384415,0,,52.68291000000000,1620,289,food.safety@lichfielddc.gov.uk,Lichfield,http://www.lichfielddc.gov.uk,-1.82878100000000,WS13 6LH,2013-10-17,fhrs_5_en-GB,5,,FHRS,0
336393,A5,,,Weeford,The Shack,Mobile caterer,7846,20,,713494,15,,,49257,289,food.safety@lichfielddc.gov.uk,Lichfield,http://www.lichfielddc.gov.uk,,,2014-10-23,fhrs_1_en-GB,1,,FHRS,15
336394,19  Tamworth Street,,,Lichfield,The Spark   Lichfield,Restaurant/Cafe/Canteen,1,0,,384774,0,,52.68386700000000,6615,289,food.safety@lichfielddc.gov.uk,Lichfield,http://www.lichfielddc.gov.uk,-1.82608500000000,WS13 6JP,2014-02-07,fhrs_5_en-GB,5,,FHRS,0
336395,Lichfield Road,,,Burntwood,The Star Hotel,Pub/bar/nightclub,7843,0,,384445,0,,52.67697100000000,1830,289,food.safety@lichfielddc.gov.uk,Lichfield,http://www.lichfielddc.gov.uk,-1.90441200000000,WS7 0HJ,2014-06-03,fhrs_5_en-GB,5,,FHRS,0
336396,Lichfield City Railway Station,Station Road,,Lichfield,The Station Shop,Retailers - other,4613,10,,508675,10,,52.68121200000000,40609,289,food.safety@lichfielddc.gov.uk,Lichfield,http://www.lichfielddc.gov.uk,-1.82378800000000,WS13 6HX,2013-02-15,fhrs_3_en-GB,3,,FHRS,5
336397,Fradley Junction,,,Alrewas,The Swan,Pub/bar/nightclub,7843,20,,384568,15,,52.72377400000000,2692,289,food.safety@lichfielddc.gov.uk,Lichfield,http://www.lichfielddc.gov.uk,-1.79351600000000,DE13 7DN,2013-08-06,fhrs_1_en-GB,1,,FHRS,15
336398,19 Rugeley Road,Armitage,,Rugeley,The Swan Inn,Pub/bar/nightclub,7843,0,,384805,0,,52.74187400000000,7802,289,food.safety@lichfielddc.gov.uk,Lichfield,http://www.lichfielddc.gov.uk,-1.88145900000000,WS15 4AE,2014-02-25,fhrs_5_en-GB,5,,FHRS,0
336399,40 Brook End,,,Longdon,The Swan With Two Necks,Pub/bar/nightclub,7843,0,,520635,0,,52.72875900000000,41053,289,food.safety@lichfielddc.gov.uk,Lichfield,http://www.lichfielddc.gov.uk,-1.88309400000000,WS15 4PN,2014-10-22,fhrs_5_en-GB,5,,FHRS,0
336400,15 Rugeley Road,Chase Terrace,,Burntwood,The Sweet Shop,Retailers - other,4613,5,,384790,5,,52.68410200000000,7734,289,food.safety@lichfielddc.gov.uk,Lichfield,http://www.lichfielddc.gov.uk,-1.93408500000000,WS7 1AG,2014-01-22,fhrs_4_en-GB,4,,FHRS,10
336401,Hints Road,,,Hopwas,The Tame Otter,Pub/bar/nightclub,7843,0,,384412,0,,52.64261600000000,1539,289,food.safety@lichfielddc.gov.uk,Lichfield,http://www.lichfielddc.gov.uk,-1.73905400000000,B78 3AF,2014-01-14,fhrs_5_en-GB,5,,FHRS,5
336402,Lichfield Street,,,Fazeley,The Three Tuns,Pub/bar/nightclub,7843,0,,384792,0,,52.61543500000000,7742,289,food.safety@lichfielddc.gov.uk,Lichfield,http://www.lichfielddc.gov.uk,-1.70230600000000,B78 3QN,2014-10-29,fhrs_5_en-GB,5,,FHRS,0
336403,13 Hospital Road,,Chasetown,Burntwood,The Triangle Tavern,Pub/bar/nightclub,7843,5,,538577,5,,52.66749900000000,41605,289,food.safety@lichfielddc.gov.uk,Lichfield,http://www.lichfielddc.gov.uk,-1.92049100000000,WS7 4SF,2013-04-09,fhrs_4_en-GB,4,,FHRS,10
336404,166 Chase Road,,,Burntwood,The Trident,Pub/bar/nightclub,7843,10,,384579,10,,52.67432000000000,2736,289,food.safety@lichfielddc.gov.uk,Lichfield,http://www.lichfielddc.gov.uk,-1.91673700000000,WS7 0DX,2014-07-08,fhrs_3_en-GB,3,,FHRS,10
336405,Watling Street,Wall,,Lichfield,The Trooper,Restaurant/Cafe/Canteen,1,0,,384785,5,,52.65643700000000,7714,289,food.safety@lichfielddc.gov.uk,Lichfield,http://www.lichfielddc.gov.uk,-1.85722400000000,WS14 0AN,2013-12-06,fhrs_5_en-GB,5,,FHRS,5
336406,Lichfield House,Bore Street,,Lichfield,The Tudor Of Lichfield,Restaurant/Cafe/Canteen,1,5,,384639,5,,52.68249500000000,3128,289,food.safety@lichfielddc.gov.uk,Lichfield,http://www.lichfielddc.gov.uk,-1.82810200000000,WS13 6LL,2014-06-04,fhrs_5_en-GB,5,,FHRS,5
336407,6 Boley Park Centre,Ryknild Street,,Lichfield,The Turnpike,Pub/bar/nightclub,7843,5,,384425,0,,52.68006900000000,1646,289,food.safety@lichfielddc.gov.uk,Lichfield,http://www.lichfielddc.gov.uk,-1.80565800000000,WS14 9XU,2013-10-16,fhrs_4_en-GB,4,,FHRS,10
336408,7 Eastern Avenue,,,Lichfield,The Valley Fish Bar,Takeaway/sandwich shop,7844,5,,719170,0,,52.68948700000000,49617,289,food.safety@lichfielddc.gov.uk,Lichfield,http://www.lichfielddc.gov.uk,-1.80907800000000,WS13 6TE,2014-11-21,fhrs_5_en-GB,5,,FHRS,5
336409,15 Parkhill Road,Ryecroft Shopping Centre,Chase Terrace,Burntwood,The Village Balti,Takeaway/sandwich shop,7844,20,,384460,15,,52.68589600000000,1860,289,food.safety@lichfielddc.gov.uk,Lichfield,http://www.lichfielddc.gov.uk,-1.92610900000000,WS7 2ER,2013-11-19,fhrs_1_en-GB,1,,FHRS,15
336410,31C Main Street,,,Shenstone,The Village Shop,Retailers - other,4613,0,,384781,10,,52.63933500000000,7698,289,food.safety@lichfielddc.gov.uk,Lichfield,http://www.lichfielddc.gov.uk,-1.84035900000000,WS14 0LZ,2014-01-08,fhrs_4_en-GB,4,,FHRS,0
336411,21 Tamworth Street,,,Lichfield,The Whippet Inn,Pub/bar/nightclub,7843,10,,713460,10,,52.68388500000000,48997,289,food.safety@lichfielddc.gov.uk,Lichfield,http://www.lichfielddc.gov.uk,-1.82599600000000,WS13 6JP,2014-05-29,fhrs_3_en-GB,3,,FHRS,10
336412,2 Cannock Road,,,Burntwood,The White Swan,Pub/bar/nightclub,7843,5,,384666,10,,52.67831400000000,3357,289,food.safety@lichfielddc.gov.uk,Lichfield,http://www.lichfielddc.gov.uk,-1.90884600000000,WS7 0BJ,2012-11-16,fhrs_4_en-GB,4,,FHRS,5
336413,27 Bird Street,,,Lichfield,The Wine House,Restaurant/Cafe/Canteen,1,5,,384791,10,,52.68331700000000,7738,289,food.safety@lichfielddc.gov.uk,Lichfield,http://www.lichfielddc.gov.uk,-1.83108700000000,WS13 6NP,2014-03-10,fhrs_3_en-GB,3,,FHRS,10
336414,,,,,The Wright Manor Limited,Other catering premises,7841,5,,384761,5,,,6248,289,food.safety@lichfielddc.gov.uk,Lichfield,http://www.lichfielddc.gov.uk,,,2013-03-21,fhrs_5_en-GB,5,,FHRS,5
336415,Bridge Cross Road,,,Burntwood,The Wych Elm,Pub/bar/nightclub,7843,5,,384513,5,,52.68144000000000,2222,289,food.safety@lichfielddc.gov.uk,Lichfield,http://www.lichfielddc.gov.uk,-1.93084900000000,WS7 2BU,2014-01-17,fhrs_4_en-GB,4,,FHRS,10
336416,Colton Road,,,Rugeley,The Yorkshireman,Pub/bar/nightclub,7843,0,,384545,0,,52.77455100000000,2483,289,food.safety@lichfielddc.gov.uk,Lichfield,http://www.lichfielddc.gov.uk,-1.92624100000000,WS15 3HG,2014-08-04,fhrs_5_en-GB,5,,FHRS,0
336417,44 Bakers Lane,,,Lichfield,The Yum Yum Sweet Co,Retailers - other,4613,5,,481583,0,,52.68244600000000,39914,289,food.safety@lichfielddc.gov.uk,Lichfield,http://www.lichfielddc.gov.uk,-1.82502500000000,WS13 6NG,2014-11-29,fhrs_2_en-GB,2,,FHRS,15
336418,School Lane,,,Hopwas,Thomas Barnes Primary School,School/college/university,7845,0,,384730,0,,52.64378000000000,5136,289,food.safety@lichfielddc.gov.uk,Lichfield,http://www.lichfielddc.gov.uk,-1.73684500000000,B78 3AD,2014-07-03,fhrs_5_en-GB,5,,FHRS,5
336419,Church Street,,,Whittington,Thomas Spencer Hall,Other catering premises,7841,,,713445,,,52.67208600000000,48725,289,food.safety@lichfielddc.gov.uk,Lichfield,http://www.lichfielddc.gov.uk,-1.76558700000000,WS14 9LE,,fhrs_exempt_en-GB,Exempt,,FHRS,
336420,5 Bakers Lane,,,Lichfield,Thorntons,Retailers - other,4613,5,,455295,0,,52.68306700000000,38837,289,food.safety@lichfielddc.gov.uk,Lichfield,http://www.lichfielddc.gov.uk,-1.82574800000000,WS13 6NF,2012-10-10,fhrs_5_en-GB,5,,FHRS,0
336421,New Street,,,Fazeley,Three Horseshoes,Pub/bar/nightclub,7843,10,,524933,0,,52.61399500000000,41145,289,food.safety@lichfielddc.gov.uk,Lichfield,http://www.lichfielddc.gov.uk,-1.69815100000000,B78 3RD,2015-01-15,fhrs_4_en-GB,4,,FHRS,5
336422,10b Market Street,,,Lichfield,Three Spires Coffee Shop,Restaurant/Cafe/Canteen,1,5,,384364,5,,52.68291000000000,1105,289,food.safety@lichfielddc.gov.uk,Lichfield,http://www.lichfielddc.gov.uk,-1.82878100000000,WS13 6LH,2013-11-07,fhrs_4_en-GB,4,,FHRS,10
336423,,,,,Tina's Temptations Homemade Cakes & Bakes,Other catering premises,7841,0,,571550,0,,,42833,289,food.safety@lichfielddc.gov.uk,Lichfield,http://www.lichfielddc.gov.uk,,,2015-01-22,fhrs_5_en-GB,5,,FHRS,0
336424,11 Eastern Avenue,,,Lichfield,Toast Of The Town,Takeaway/sandwich shop,7844,5,,384370,10,,52.68948700000000,1159,289,food.safety@lichfielddc.gov.uk,Lichfield,http://www.lichfielddc.gov.uk,-1.80907800000000,WS13 6TE,2013-08-28,fhrs_4_en-GB,4,,FHRS,0
336425,,,,,Tobizzy2bake,Other catering premises,7841,0,,401595,0,,,36706,289,food.safety@lichfielddc.gov.uk,Lichfield,http://www.lichfielddc.gov.uk,,,2014-06-04,fhrs_5_en-GB,5,,FHRS,0
336426,Birmingham Road,,,Shenstone Wood End,Toby Carvery,Restaurant/Cafe/Canteen,1,0,,384646,0,,52.61086000000000,3181,289,food.safety@lichfielddc.gov.uk,Lichfield,http://www.lichfielddc.gov.uk,-1.83728700000000,WS14 0PA,2014-09-09,fhrs_5_en-GB,5,,FHRS,5
336427,5 Queen Street,,,Chasetown,Toms Chinese Takeaway,Takeaway/sandwich shop,7844,5,,384587,5,,52.67137200000000,2781,289,food.safety@lichfielddc.gov.uk,Lichfield,http://www.lichfielddc.gov.uk,-1.93243300000000,WS7 4QQ,2013-03-25,fhrs_4_en-GB,4,,FHRS,10
336428,Birmingham Road,,,Lichfield,Travis Perkins,Retailers - other,4613,,,713474,,,52.67289000000000,49145,289,food.safety@lichfielddc.gov.uk,Lichfield,http://www.lichfielddc.gov.uk,-1.83157000000000,WS14 9BJ,,fhrs_exempt_en-GB,Exempt,,FHRS,
336429,17 Eastern Avenue,,,Lichfield,Trent Valley Post Office,Retailers - other,4613,5,,719171,10,,52.68948700000000,49625,289,food.safety@lichfielddc.gov.uk,Lichfield,http://www.lichfielddc.gov.uk,-1.80907800000000,WS13 6TE,2014-11-29,fhrs_4_en-GB,4,,FHRS,0
336430,10A Dam Street,,,Lichfield,Truly Scrumptious,Retailers - other,4613,10,,384778,10,,52.68458100000000,7678,289,food.safety@lichfielddc.gov.uk,Lichfield,http://www.lichfielddc.gov.uk,-1.82819700000000,WS13 6AA,2014-01-08,fhrs_3_en-GB,3,,FHRS,10
336431,2 Church Street,,,Chasetown,Uxbridge Arms,Pub/bar/nightclub,7843,10,,384586,5,,52.66964800000000,2780,289,food.safety@lichfielddc.gov.uk,Lichfield,http://www.lichfielddc.gov.uk,-1.93647300000000,WS7 3QL,2014-12-03,fhrs_4_en-GB,4,,FHRS,5
336432,193 Chase Road,,,Burntwood,V N Best,Retailers - other,4613,20,,384454,5,,52.67407600000000,18410,289,food.safety@lichfielddc.gov.uk,Lichfield,http://www.lichfielddc.gov.uk,-1.91580600000000,WS7 0EB,2014-01-17,fhrs_1_en-GB,1,,FHRS,15
336433,160 High Street,,,Chasetown,Vicarage Court & Old Vicarage Nursing Home,Hospitals/Childcare/Caring Premises,5,5,,384466,5,,52.67410600000000,1898,289,food.safety@lichfielddc.gov.uk,Lichfield,http://www.lichfielddc.gov.uk,-1.93376000000000,WS7 3XG,2013-06-12,fhrs_5_en-GB,5,,FHRS,5
336434,158 Ironstone Road,,,Burntwood,Victoria Inn,Pub/bar/nightclub,7843,0,,384631,0,,52.68572400000000,3070,289,food.safety@lichfielddc.gov.uk,Lichfield,http://www.lichfielddc.gov.uk,-1.94050300000000,WS7 1LY,2014-12-06,fhrs_5_en-GB,5,,FHRS,0
336435,Unit 11a,Heart Of The Country Shopping Village,London Road,Lichfield,Victorias Speciality Foods,Retailers - other,4613,0,,622480,0,,52.64982300000000,44341,289,food.safety@lichfielddc.gov.uk,Lichfield,http://www.lichfielddc.gov.uk,-1.80834900000000,WS14 9QR,2014-01-07,fhrs_5_en-GB,5,,FHRS,0
336436,Birmingham Road,,,Wall,Virgin Active Health Club,Pub/bar/nightclub,7843,0,,384469,5,,52.65265000000000,1905,289,food.safety@lichfielddc.gov.uk,Lichfield,http://www.lichfielddc.gov.uk,-1.83482600000000,WS14 0QP,2014-02-24,fhrs_4_en-GB,4,,FHRS,10
336437,Chester Road,,,Stonnall,Voujon,Restaurant/Cafe/Canteen,1,10,,409230,10,,52.62345800000000,36998,289,food.safety@lichfielddc.gov.uk,Lichfield,http://www.lichfielddc.gov.uk,-1.89643300000000,WS9 9HJ,2014-03-03,fhrs_3_en-GB,3,,FHRS,10
336438,235 Rugeley Road,,,Burntwood,Voyage Care,Hospitals/Childcare/Caring Premises,5,0,,657280,0,,52.68999900000000,45689,289,food.safety@lichfielddc.gov.uk,Lichfield,http://www.lichfielddc.gov.uk,-1.93400200000000,WS7 1NS,2014-05-02,fhrs_5_en-GB,5,,FHRS,0
336439,25-27 Bakers Lane,,,Lichfield,W H Smith,Retailers - other,4613,,,713472,,,52.68306700000000,49137,289,food.safety@lichfielddc.gov.uk,Lichfield,http://www.lichfielddc.gov.uk,-1.82574800000000,WS13 6NF,,fhrs_exempt_en-GB,Exempt,,FHRS,
336440,Frog Lane,,,Lichfield,Wade Street Church,Other catering premises,7841,5,,384459,0,,52.68154100000000,18498,289,food.safety@lichfielddc.gov.uk,Lichfield,http://www.lichfielddc.gov.uk,-1.82714400000000,WS13 6HS,2014-03-03,fhrs_5_en-GB,5,,FHRS,0
336441,Stonnyland Drive,,,Lichfield,Waitrose,Retailers - supermarkets/hypermarkets,7840,0,,384435,0,,52.67489300000000,1751,289,food.safety@lichfielddc.gov.uk,Lichfield,http://www.lichfielddc.gov.uk,-1.84336500000000,WS13 6RX,2015-01-26,fhrs_5_en-GB,5,,FHRS,5
336442,31 Market Street,,,Lichfield,Walter Smith,Manufacturers/packers,7839,0,,535312,5,,52.68360100000000,41521,289,food.safety@lichfielddc.gov.uk,Lichfield,http://www.lichfielddc.gov.uk,-1.82821600000000,WS13 6LA,2014-10-23,fhrs_5_en-GB,5,,FHRS,5
336443,263 Birmingham Road,,,Shenstone Wood End,Watford House Residential Home,Hospitals/Childcare/Caring Premises,5,0,,384606,0,,52.60883700000000,2881,289,food.safety@lichfielddc.gov.uk,Lichfield,http://www.lichfielddc.gov.uk,-1.83742700000000,WS14 0PD,2014-06-11,fhrs_5_en-GB,5,,FHRS,0
336444,Trinity Methodist Church,New Road,,Shenstone,Wesley Hall Kitchen,Other catering premises,7841,,,713449,,,52.63850900000000,48741,289,food.safety@lichfielddc.gov.uk,Lichfield,http://www.lichfielddc.gov.uk,-1.84164700000000,WS14 0NQ,,fhrs_exempt_en-GB,Exempt,,FHRS,
336445,76 Dimbles Lane,,,Lichfield,Westy's,Restaurant/Cafe/Canteen,1,20,,713467,10,,52.69275500000000,49049,289,food.safety@lichfielddc.gov.uk,Lichfield,http://www.lichfielddc.gov.uk,-1.83020700000000,WS13 7HL,2014-10-09,fhrs_1_en-GB,1,,FHRS,15
336446,Main Road,,,Harlaston,White Lion,Pub/bar/nightclub,7843,10,,384413,5,,52.69595700000000,1540,289,food.safety@lichfielddc.gov.uk,Lichfield,http://www.lichfielddc.gov.uk,-1.68193200000000,B79 9HT,2013-10-03,fhrs_4_en-GB,4,,FHRS,5
336447,17a Main Street,,,Whittington,Whittington   Tamworth Co Operative,Retailers - supermarkets/hypermarkets,7840,5,,384615,5,,52.67393000000000,2984,289,food.safety@lichfielddc.gov.uk,Lichfield,http://www.lichfielddc.gov.uk,-1.76148000000000,WS14 9JR,2013-01-28,fhrs_5_en-GB,5,,FHRS,5
336448,Tamworth Road,,,Whittington,Whittington Arms,Pub/bar/nightclub,7843,0,,384489,5,,52.66522800000000,2029,289,food.safety@lichfielddc.gov.uk,Lichfield,http://www.lichfielddc.gov.uk,-1.79021300000000,WS14 9PS,2014-03-05,fhrs_5_en-GB,5,,FHRS,5
336449,13a Main Street,,,Whittington,Whittington Cantonese,Takeaway/sandwich shop,7844,10,,384531,10,,52.67270100000000,2322,289,food.safety@lichfielddc.gov.uk,Lichfield,http://www.lichfielddc.gov.uk,-1.76321700000000,WS14 9JU,2014-06-09,fhrs_3_en-GB,3,,FHRS,10
336450,Tamworth Road,,,Whittington,Whittington Heath Golf Club,Pub/bar/nightclub,7843,5,,384416,5,,52.66206800000000,1631,289,food.safety@lichfielddc.gov.uk,Lichfield,http://www.lichfielddc.gov.uk,-1.78273200000000,WS14 9PW,2014-03-03,fhrs_5_en-GB,5,,FHRS,5
336451,13B Main Street,,,Whittington,Whittington Pharmacy,Retailers - other,4613,,,713444,,,52.67270100000000,48721,289,food.safety@lichfielddc.gov.uk,Lichfield,http://www.lichfielddc.gov.uk,-1.76321700000000,WS14 9JU,,fhrs_exempt_en-GB,Exempt,,FHRS,
336452,13C Main Street,,,Whittington,Whittington Post Office,Retailers - other,4613,,,713443,,,52.67270100000000,48717,289,food.safety@lichfielddc.gov.uk,Lichfield,http://www.lichfielddc.gov.uk,-1.76321700000000,WS14 9JU,,fhrs_exempt_en-GB,Exempt,,FHRS,
336453,,,,,Whittington Pre School,Hospitals/Childcare/Caring Premises,5,0,,462596,5,,,39270,289,food.safety@lichfielddc.gov.uk,Lichfield,http://www.lichfielddc.gov.uk,,,2014-04-16,fhrs_5_en-GB,5,,FHRS,0
336454,Common Lane,,,Whittington,Whittington Primary School,School/college/university,7845,0,,384501,0,,52.66719500000000,2147,289,food.safety@lichfielddc.gov.uk,Lichfield,http://www.lichfielddc.gov.uk,-1.76542100000000,WS14 9LG,2013-05-22,fhrs_5_en-GB,5,,FHRS,0
336455,Fisherwick Road,,,Whittington,Whittington Social Club,Pub/bar/nightclub,7843,5,,447079,5,,52.67123600000000,38350,289,food.safety@lichfielddc.gov.uk,Lichfield,http://www.lichfielddc.gov.uk,-1.76301800000000,WS14 9LH,2012-09-12,fhrs_4_en-GB,4,,FHRS,10
336456,Whittington Village Hall,Langton Crescent,,Whittington,Whittington Village Hall,Other catering premises,7841,,,727554,,,52.67446200000000,50057,289,food.safety@lichfielddc.gov.uk,Lichfield,http://www.lichfielddc.gov.uk,-1.76227600000000,WS14 9LR,,fhrs_exempt_en-GB,Exempt,,FHRS,
336457,Unit E,Lichfield Retail Park,Vulcan Road,Lichfield,Wickes,Retailers - other,4613,,,730562,,,52.68967200000000,50301,289,food.safety@lichfielddc.gov.uk,Lichfield,http://www.lichfielddc.gov.uk,-1.80703500000000,WS13 6GB,,fhrs_exempt_en-GB,Exempt,,FHRS,
336458,12-14 Bore Street,,,Lichfield,Wilkinson,Retailers - other,4613,0,,384736,5,,52.68249500000000,5384,289,food.safety@lichfielddc.gov.uk,Lichfield,http://www.lichfielddc.gov.uk,-1.82810200000000,WS13 6LL,2013-08-12,fhrs_5_en-GB,5,,FHRS,0
336459,77 Upper St John Street,,,Lichfield,William Hill,Retailers - other,4613,,,713505,,,52.67862600000000,49333,289,food.safety@lichfielddc.gov.uk,Lichfield,http://www.lichfielddc.gov.uk,-1.82575000000000,WS14 9DT,,fhrs_exempt_en-GB,Exempt,,FHRS,
336460,William IV Road,,,Alrewas,William Iv Inn,Pub/bar/nightclub,7843,10,,520634,5,,52.73342000000000,41049,289,food.safety@lichfielddc.gov.uk,Lichfield,http://www.lichfielddc.gov.uk,-1.74711700000000,DE13 7AN,2013-03-05,fhrs_3_en-GB,3,,FHRS,10
336461,12 Willow Court,Tamworth Road,,Lichfield,Willow Court Wines,Retailers - other,4613,,,718178,,,52.67226100000000,49581,289,food.safety@lichfielddc.gov.uk,Lichfield,http://www.lichfielddc.gov.uk,-1.81943100000000,WS14 9HD,,fhrs_exempt_en-GB,Exempt,,FHRS,
336462,Anglesey Road,,,Lichfield,Willows Primary School,School/college/university,7845,5,,384816,0,,52.69482000000000,815,289,food.safety@lichfielddc.gov.uk,Lichfield,http://www.lichfielddc.gov.uk,-1.82812700000000,WS13 7NU,2013-12-10,fhrs_5_en-GB,5,,FHRS,5
336463,,,,,Will's Hog Roast,Mobile caterer,7846,10,,730793,10,,,50313,289,food.safety@lichfielddc.gov.uk,Lichfield,http://www.lichfielddc.gov.uk,,,2015-01-14,fhrs_3_en-GB,3,,FHRS,10
336464,14 Atherstone Street,,,Fazeley,Wongs Take Away,Takeaway/sandwich shop,7844,10,,384773,15,,52.61418000000000,6588,289,food.safety@lichfielddc.gov.uk,Lichfield,http://www.lichfielddc.gov.uk,-1.69695400000000,B78 3RF,2013-09-25,fhrs_2_en-GB,2,,FHRS,5
336465,Woodhouse Farm,Fisherwick Wood Lane,Fisherwick Wood,Lichfield,Wood House Farm And Garden Community Interest Company,Retailers - other,4613,20,,384803,10,,52.68682000000000,7798,289,food.safety@lichfielddc.gov.uk,Lichfield,http://www.lichfielddc.gov.uk,-1.74805200000000,WS13 8QG,2014-03-06,fhrs_1_en-GB,1,,FHRS,0
336466,Woodshoot Nurseries,Cockshut Lane,,Kings Bromley,Woodshoot B & B,Hotel/bed & breakfast/guest house,7842,5,,482873,5,,52.74546200000000,40010,289,food.safety@lichfielddc.gov.uk,Lichfield,http://www.lichfielddc.gov.uk,-1.81268600000000,DE13 7HN,2012-12-13,fhrs_4_en-GB,4,,FHRS,10
336467,Cathedral House,5 Beacon Street,,Lichfield,Worth Brothers   Wine Merchants,Retailers - other,4613,,,727072,,,52.68535300000000,50053,289,food.safety@lichfielddc.gov.uk,Lichfield,http://www.lichfielddc.gov.uk,-1.83357900000000,WS13 7AA,,fhrs_exempt_en-GB,Exempt,,FHRS,
336468,@ Greysbrooke Primary School,Barnes Road,,Shenstone,Wrens Nest,Hospitals/Childcare/Caring Premises,5,0,,479389,5,,52.63921300000000,39810,289,food.safety@lichfielddc.gov.uk,Lichfield,http://www.lichfielddc.gov.uk,-1.83666500000000,WS14 0LT,2012-11-08,fhrs_5_en-GB,5,,FHRS,0
336469,73 High Street,,,Colton,Ye Olde Dun Cow,Pub/bar/nightclub,7843,0,,384649,0,,52.78425800000000,3201,289,food.safety@lichfielddc.gov.uk,Lichfield,http://www.lichfielddc.gov.uk,-1.92348200000000,WS15 3LG,2014-12-06,fhrs_5_en-GB,5,,FHRS,0
336470,Windmill Lane,,,Gentleshaw,Ye Olde Windmill,Pub/bar/nightclub,7843,0,,384354,0,,52.70300100000000,1064,289,food.safety@lichfielddc.gov.uk,Lichfield,http://www.lichfielddc.gov.uk,-1.92390400000000,WS15 4NF,2014-01-08,fhrs_5_en-GB,5,,FHRS,0
