,addressline1,addressline2,addressline3,addressline4,businessname,businesstype,businesstypeid,confidenceinmanagement,extractdate,fhrsid,hygiene,itemcount,latitude,localauthoritybusinessid,localauthoritycode,localauthorityemailaddress,localauthorityname,localauthoritywebsite,longitude,postcode,ratingdate,ratingkey,ratingvalue,returncode,schemetype,structural
346633,85 High Street,,,Biddulph,A Barker Butchers,Retailers - other,4613,0,,389205,5,,53.11544100000000,5866,293,environmental.health@staffsmoorlands.gov.uk,Staffordshire Moorlands,http://www.staffsmoorlands.gov.uk,-2.17598600000000,ST8 6AB,2013-01-20,fhrs_5_en-GB,5,,FHRS,5
346634,Buxton Road,,,Leek,Abbey Court Nursing Home,Hospitals/Childcare/Caring Premises,5,5,,389113,0,,53.10994400000000,5447,293,environmental.health@staffsmoorlands.gov.uk,Staffordshire Moorlands,http://www.staffsmoorlands.gov.uk,-2.00913100000000,ST13 6NF,2015-02-09,fhrs_5_en-GB,5,,FHRS,5
346635,17 Sheepmarket,,,Leek,Abbies Pizza,Takeaway/sandwich shop,7844,10,,389204,10,,53.10595000000000,5863,293,environmental.health@staffsmoorlands.gov.uk,Staffordshire Moorlands,http://www.staffsmoorlands.gov.uk,-2.02630800000000,ST13 5HN,2014-12-15,fhrs_3_en-GB,3,,FHRS,5
346636,90-92 Southbank Street,,,Leek,Abc Conveneience Store,Retailers - other,4613,0,,389210,0,,53.10366800000000,5898,293,environmental.health@staffsmoorlands.gov.uk,Staffordshire Moorlands,http://www.staffsmoorlands.gov.uk,-2.02143700000000,ST13 5LN,2014-12-19,fhrs_5_en-GB,5,,FHRS,0
346637,41 Stockwell Street,,,Leek,Abdul Spice,Restaurant/Cafe/Canteen,1,20,,388863,15,,53.10721000000000,4432,293,environmental.health@staffsmoorlands.gov.uk,Staffordshire Moorlands,http://www.staffsmoorlands.gov.uk,-2.02236500000000,ST13 6DH,2014-04-24,fhrs_1_en-GB,1,,FHRS,10
346638,Bank View,Draycott Road,,Tean,Acorns Day Nursery,Hospitals/Childcare/Caring Premises,5,0,,388924,0,,52.95543000000000,4759,293,environmental.health@staffsmoorlands.gov.uk,Staffordshire Moorlands,http://www.staffsmoorlands.gov.uk,-2.00982700000000,ST10 4JJ,2014-08-06,fhrs_5_en-GB,5,,FHRS,0
346639,,,,,Aec Technical Services,Retailers - other,4613,0,,626398,0,,,44553,293,environmental.health@staffsmoorlands.gov.uk,Staffordshire Moorlands,http://www.staffsmoorlands.gov.uk,,,2014-01-21,fhrs_5_en-GB,5,,FHRS,0
346640,35 Novi Lane,,,Leek,Aeron House,Hospitals/Childcare/Caring Premises,5,0,,388930,0,,53.11169700000000,4783,293,environmental.health@staffsmoorlands.gov.uk,Staffordshire Moorlands,http://www.staffsmoorlands.gov.uk,-2.01197000000000,ST13 6NX,2014-02-24,fhrs_5_en-GB,5,,FHRS,0
346641,78 Ashbourne Road,,,Cheadle,Alis News,Retailers - other,4613,5,,389128,10,,52.98469900000000,5506,293,environmental.health@staffsmoorlands.gov.uk,Staffordshire Moorlands,http://www.staffsmoorlands.gov.uk,-1.98399100000000,ST101HQ,2014-02-14,fhrs_4_en-GB,4,,FHRS,5
346642,Cheddleton Road,,,Leek,All Saints Church Of England First School,School/college/university,7845,0,,389179,0,,53.09858000000000,5718,293,environmental.health@staffsmoorlands.gov.uk,Staffordshire Moorlands,http://www.staffsmoorlands.gov.uk,-2.02285400000000,ST13 5QY,2014-06-18,fhrs_5_en-GB,5,,FHRS,0
346643,Alton Bridge Hotel,Station Road,,Alton,Alton Bridge Hotel,Pub/bar/nightclub,7843,0,,699407,5,,52.97962900000000,48169,293,environmental.health@staffsmoorlands.gov.uk,Staffordshire Moorlands,http://www.staffsmoorlands.gov.uk,-1.89528800000000,ST10 4BX,2014-09-05,fhrs_5_en-GB,5,,FHRS,5
346644,Castle Hill Road,,,Alton,Alton Castle,Other catering premises,7841,0,,389189,0,,52.97963500000000,5780,293,environmental.health@staffsmoorlands.gov.uk,Staffordshire Moorlands,http://www.staffsmoorlands.gov.uk,-1.89254700000000,ST10 4TT,2014-11-18,fhrs_5_en-GB,5,,FHRS,0
346645,Alton Towers,Farley,,Alton,Alton Towers Hotel,Restaurant/Cafe/Canteen,1,0,,389260,0,,52.98662567138672,6132,293,environmental.health@staffsmoorlands.gov.uk,Staffordshire Moorlands,http://www.staffsmoorlands.gov.uk,-1.89874160289764,ST104BZ,2014-05-15,fhrs_5_en-GB,5,,FHRS,5
346646,Hurst Lane,,,Alton,Alton Village Hall,Other catering premises,7841,5,,389292,5,,52.97664100000000,6410,293,environmental.health@staffsmoorlands.gov.uk,Staffordshire Moorlands,http://www.staffsmoorlands.gov.uk,-1.89108000000000,ST10 4AP,2011-08-18,fhrs_4_en-GB,4,,FHRS,10
346647,Alverton Hotel,Denstone Lane,,Alton,Alverton Motel Ltd,Hotel/bed & breakfast/guest house,7842,0,,389370,0,,52.97298900000000,7302,293,environmental.health@staffsmoorlands.gov.uk,Staffordshire Moorlands,http://www.staffsmoorlands.gov.uk,-1.88930300000000,ST10 4AX,2011-12-07,fhrs_5_en-GB,5,,FHRS,0
346648,7 A Cheadle Shopping Centre,,,Cheadle,Angies Cafe,Restaurant/Cafe/Canteen,1,5,,388935,10,,52.98682000000000,4797,293,environmental.health@staffsmoorlands.gov.uk,Staffordshire Moorlands,http://www.staffsmoorlands.gov.uk,-1.98856300000000,ST10 1UY,2014-06-20,fhrs_4_en-GB,4,,FHRS,5
346649,83 St Johns Road,,,Biddulph,Archers Premier,Retailers - other,4613,5,,388875,5,,53.11164300000000,4511,293,environmental.health@staffsmoorlands.gov.uk,Staffordshire Moorlands,http://www.staffsmoorlands.gov.uk,-2.17308700000000,ST8 6LL,2013-04-15,fhrs_5_en-GB,5,,FHRS,5
346650,Ashbourne Road,,,Cheadle,Asda,Retailers - supermarkets/hypermarkets,7840,0,,389290,0,,52.98494100000000,6405,293,environmental.health@staffsmoorlands.gov.uk,Staffordshire Moorlands,http://www.staffsmoorlands.gov.uk,-1.98288900000000,ST10 1HF,2014-02-28,fhrs_5_en-GB,5,,FHRS,0
346651,Springfield Road,,,Leek,Asda,Retailers - supermarkets/hypermarkets,7840,0,,389276,5,,53.10613300000000,6279,293,environmental.health@staffsmoorlands.gov.uk,Staffordshire Moorlands,http://www.staffsmoorlands.gov.uk,-2.01255100000000,ST13 6EN,2014-11-25,fhrs_5_en-GB,5,,FHRS,0
346652,Ashbank Road,Ashbank,,Stoke On Trent,Ash Hall Nursing Home,Hospitals/Childcare/Caring Premises,5,10,,388861,10,,53.02146900000000,4418,293,environmental.health@staffsmoorlands.gov.uk,Staffordshire Moorlands,http://www.staffsmoorlands.gov.uk,-2.10917300000000,ST2 9DX,2014-09-22,fhrs_4_en-GB,4,,FHRS,0
346653,216 Ashbank Road,Bucknall,,Bucknall,Ashbank Fish Bar,Takeaway/sandwich shop,7844,5,,388958,5,,53.02183300000000,4847,293,environmental.health@staffsmoorlands.gov.uk,Staffordshire Moorlands,http://www.staffsmoorlands.gov.uk,-2.10352400000000,ST2 9EE,2013-12-17,fhrs_5_en-GB,5,,FHRS,5
346654,216 Ashbank Road,,,"Ashbank, Stoke On Trent",Ashbank Hotel,Restaurant/Cafe/Canteen,1,0,,389036,0,,53.02118400000000,5134,293,environmental.health@staffsmoorlands.gov.uk,Staffordshire Moorlands,http://www.staffsmoorlands.gov.uk,-2.10626500000000,ST2 9EB,2013-12-02,fhrs_5_en-GB,5,,FHRS,5
346655,Basford Bridge Lane,Cheddleton,,Leek,Ashcombe Park Cricket Club,Other catering premises,7841,20,,389073,5,,53.06379000000000,5296,293,environmental.health@staffsmoorlands.gov.uk,Staffordshire Moorlands,http://www.staffsmoorlands.gov.uk,-2.03453400000000,ST13 7EQ,2013-12-03,fhrs_1_en-GB,1,,FHRS,5
346656,Brookhouses Way,,,Cheadle,Aynsleys Chariot,Mobile caterer,7846,10,,389040,10,,,5151,293,environmental.health@staffsmoorlands.gov.uk,Staffordshire Moorlands,http://www.staffsmoorlands.gov.uk,,,2014-11-12,fhrs_3_en-GB,3,,FHRS,5
346657,B And M Retail,Tape Street,,Cheadle,B&M Retail (Cheadle),Retailers - other,4613,0,,428832,0,,52.98680200000000,37562,293,environmental.health@staffsmoorlands.gov.uk,Staffordshire Moorlands,http://www.staffsmoorlands.gov.uk,-1.98707400000000,ST10 1EU,2012-07-19,fhrs_5_en-GB,5,,FHRS,0
346658,B&M Retail,Barnfield Road,,Leek,B&M Retail Leek,Retailers - other,4613,0,,466475,0,,53.09628600000000,39534,293,environmental.health@staffsmoorlands.gov.uk,Staffordshire Moorlands,http://www.staffsmoorlands.gov.uk,-2.03088700000000,ST13 5QJ,2012-11-08,fhrs_5_en-GB,5,,FHRS,0
346659,9a High Street,Cheadle,,Stoke On Trent,Babylon,Takeaway/sandwich shop,7844,10,,388807,5,,52.98794400000000,4282,293,environmental.health@staffsmoorlands.gov.uk,Staffordshire Moorlands,http://www.staffsmoorlands.gov.uk,-1.98793700000000,ST10 1AA,2013-10-03,fhrs_4_en-GB,4,,FHRS,5
346660,Hazlewood Road,,,Swythamley,Back Dane Cottage,Hotel/bed & breakfast/guest house,7842,5,,389011,5,,53.18453800000000,5056,293,environmental.health@staffsmoorlands.gov.uk,Staffordshire Moorlands,http://www.staffsmoorlands.gov.uk,-2.03790900000000,SK11 0RF,2010-04-08,fhrs_4_en-GB,4,,FHRS,10
346661,The Butchers Shop,Lime Kiln Road,Butterton,Leek,Bagshaw And Sons,Retailers - other,4613,5,,389264,5,,53.10673400000000,6158,293,environmental.health@staffsmoorlands.gov.uk,Staffordshire Moorlands,http://www.staffsmoorlands.gov.uk,-1.89433800000000,ST13 7TD,2014-01-07,fhrs_4_en-GB,4,,FHRS,10
346662,3 High Street,,,Ipstones,Bagshaws Butchers,Retailers - other,4613,0,,388851,0,,53.04771800000000,4404,293,environmental.health@staffsmoorlands.gov.uk,Staffordshire Moorlands,http://www.staffsmoorlands.gov.uk,-1.96844000000000,ST10 2LU,2014-05-22,fhrs_5_en-GB,5,,FHRS,0
346663,123 Ball Haye Green,,,Leek,Ball Haye Green Fish And Chips,Takeaway/sandwich shop,7844,0,,388825,0,,53.11176800000000,4347,293,environmental.health@staffsmoorlands.gov.uk,Staffordshire Moorlands,http://www.staffsmoorlands.gov.uk,-2.01606300000000,ST13 6BH,2013-04-18,fhrs_5_en-GB,5,,FHRS,0
346664,Ball Haye Green,,,Leek,Ball Haye Green Working Mens Club,Pub/bar/nightclub,7843,5,,389079,5,,53.11176800000000,5317,293,environmental.health@staffsmoorlands.gov.uk,Staffordshire Moorlands,http://www.staffsmoorlands.gov.uk,-2.01606300000000,ST13 6BH,2012-07-18,fhrs_4_en-GB,4,,FHRS,10
346665,Ball Haye Tavern,89 - 91 Ball Haye Green,,Leek,Ball Haye Tavern,Pub/bar/nightclub,7843,5,,389344,5,,53.11176800000000,7166,293,environmental.health@staffsmoorlands.gov.uk,Staffordshire Moorlands,http://www.staffsmoorlands.gov.uk,-2.01606300000000,ST13 6BH,2012-04-18,fhrs_4_en-GB,4,,FHRS,10
346666,222 Uttoxeter Road,,,Blythe Bridge,Bambino Day Nursery,Hospitals/Childcare/Caring Premises,5,0,,715639,0,,52.96753000000000,48769,293,environmental.health@staffsmoorlands.gov.uk,Staffordshire Moorlands,http://www.staffsmoorlands.gov.uk,-2.06499400000000,ST11 9JR,2014-09-26,fhrs_5_en-GB,5,,FHRS,0
346667,222 Uttoxeter Road,,,Blythe Bridge,Bambino's,Hospitals/Childcare/Caring Premises,5,0,,456861,0,,52.96753000000000,38981,293,environmental.health@staffsmoorlands.gov.uk,Staffordshire Moorlands,http://www.staffsmoorlands.gov.uk,-2.06499400000000,ST11 9JR,2012-10-11,fhrs_5_en-GB,5,,FHRS,5
346668,20 -22 St Edwards Street,,,Leek,Bank House Day Care Centre,Hospitals/Childcare/Caring Premises,5,0,,388928,0,,53.10604900000000,4770,293,environmental.health@staffsmoorlands.gov.uk,Staffordshire Moorlands,http://www.staffsmoorlands.gov.uk,-2.02701000000000,ST13 5DS,2014-08-01,fhrs_5_en-GB,5,,FHRS,0
346669,Banks Farm,Cheadle Road,,Oakamoor,Banks Farm Pavillion,Pub/bar/nightclub,7843,5,,388782,0,,52.99743600000000,18110,293,environmental.health@staffsmoorlands.gov.uk,Staffordshire Moorlands,http://www.staffsmoorlands.gov.uk,-1.93191200000000,ST10 3AN,2013-11-11,fhrs_5_en-GB,5,,FHRS,5
346670,Church Road,Biddulph,,Stoke on Trent,Barley Mow,Pub/bar/nightclub,7843,10,,389327,10,,53.11117300000000,6708,293,environmental.health@staffsmoorlands.gov.uk,Staffordshire Moorlands,http://www.staffsmoorlands.gov.uk,-2.16830400000000,ST8 6NE,2013-07-09,fhrs_3_en-GB,3,,FHRS,10
346671,Unit 4,Abbey Units,Macclesfield Road,Leek,Barlows Dairy,Retailers - other,4613,0,,406712,5,,53.11038700000000,36794,293,environmental.health@staffsmoorlands.gov.uk,Staffordshire Moorlands,http://www.staffsmoorlands.gov.uk,-2.04063700000000,ST13 8LD,2012-06-21,fhrs_5_en-GB,5,,FHRS,0
346672,Reacliffe Road,Rudyard,,"Leek, Staffordshire Moorlands",Barnes Lea Farm,Mobile caterer,7846,5,,389241,0,,53.14045600000000,6075,293,environmental.health@staffsmoorlands.gov.uk,Staffordshire Moorlands,http://www.staffsmoorlands.gov.uk,-2.09944500000000,SK11 0QZ,2011-04-12,fhrs_5_en-GB,5,,FHRS,0
346673,Turners Croft ,Basford Green Road,Basford,Leek,Basford Shooting Grounds,Restaurant/Cafe/Canteen,1,5,,389316,10,,53.06743500000000,6633,293,environmental.health@staffsmoorlands.gov.uk,Staffordshire Moorlands,http://www.staffsmoorlands.gov.uk,-2.00795800000000,ST13 7ET,2011-11-08,fhrs_4_en-GB,4,,FHRS,5
346674,Island Works,Station Road,Cheddleton,Leek,Batemans Canteen,Restaurant/Cafe/Canteen,1,5,,389254,0,,53.07073900000000,6114,293,environmental.health@staffsmoorlands.gov.uk,Staffordshire Moorlands,http://www.staffsmoorlands.gov.uk,-2.03383800000000,ST13 7EE,2014-02-12,fhrs_5_en-GB,5,,FHRS,0
346675,56 Fountain Street,,,Leek,Battered Haddock,Takeaway/sandwich shop,7844,0,,388810,0,,53.10611400000000,4301,293,environmental.health@staffsmoorlands.gov.uk,Staffordshire Moorlands,http://www.staffsmoorlands.gov.uk,-2.01630000000000,ST13 6JY,2014-02-18,fhrs_5_en-GB,5,,FHRS,5
346676,Sainsburys,churnet Way,,Leek,"Baxter Storey, Sainsburys Supermarket",Restaurant/Cafe/Canteen,1,0,,505451,0,,53.10790800000000,38234,293,environmental.health@staffsmoorlands.gov.uk,Staffordshire Moorlands,http://www.staffsmoorlands.gov.uk,-2.03563000000000,ST13 8YG,2013-01-29,fhrs_5_en-GB,5,,FHRS,0
346677,Ashbourne Road,Bradnop,,Leek,Beaver Hall Esquestrian Centre,Restaurant/Cafe/Canteen,1,0,,389227,5,,53.07472900000000,6000,293,environmental.health@staffsmoorlands.gov.uk,Staffordshire Moorlands,http://www.staffsmoorlands.gov.uk,-1.96201700000000,ST13 7EZ,2014-10-08,fhrs_5_en-GB,5,,FHRS,0
346678,Rakeway Road,,,Cheadle,Beech Lodge Nursing Home,Hospitals/Childcare/Caring Premises,5,0,,388955,0,,52.97576100000000,4843,293,environmental.health@staffsmoorlands.gov.uk,Staffordshire Moorlands,http://www.staffsmoorlands.gov.uk,-1.97056100000000,ST101RA,2014-07-17,fhrs_5_en-GB,5,,FHRS,0
346679,Westwood Road,,,Leek,Beechdene Residential Home,Hospitals/Childcare/Caring Premises,5,10,,388920,5,,53.10513800000000,4729,293,environmental.health@staffsmoorlands.gov.uk,Staffordshire Moorlands,http://www.staffsmoorlands.gov.uk,-2.03813700000000,ST13 8DL,2014-02-03,fhrs_3_en-GB,3,,FHRS,10
346680,Beechenhill Farm,Ilam Moor Lane,,Ilam,Beechenhill Events Barn,Other catering premises,7841,0,,456862,0,,53.06220000000000,38993,293,environmental.health@staffsmoorlands.gov.uk,Staffordshire Moorlands,http://www.staffsmoorlands.gov.uk,-1.80124500000000,DE6 2BD,2012-10-12,fhrs_5_en-GB,5,,FHRS,5
346681,Ilam Moor Lane,Ilam,,Ashbourne,Beechenhill Farm ,Hotel/bed & breakfast/guest house,7842,0,,389300,0,,53.06220000000000,6496,293,environmental.health@staffsmoorlands.gov.uk,Staffordshire Moorlands,http://www.staffsmoorlands.gov.uk,-1.80124500000000,DE6 2BD,2011-09-20,fhrs_5_en-GB,5,,FHRS,0
346682,3 Churnet View,Churnet View Road,,Oakamoor,Beehive Guest House,Hotel/bed & breakfast/guest house,7842,0,,389342,5,,53.00260900000000,7154,293,environmental.health@staffsmoorlands.gov.uk,Staffordshire Moorlands,http://www.staffsmoorlands.gov.uk,-1.92412600000000,ST10 3AE,2012-04-24,fhrs_5_en-GB,5,,FHRS,5
346683,39 Stockwell Street,,,Leek,Benks,Pub/bar/nightclub,7843,5,,389008,5,,53.10721000000000,5052,293,environmental.health@staffsmoorlands.gov.uk,Staffordshire Moorlands,http://www.staffsmoorlands.gov.uk,-2.02236500000000,ST13 6DH,2010-04-12,fhrs_5_en-GB,5,,FHRS,5
346684,Novi Lane,,,Leek,Beresford Memorial C Of E First School,School/college/university,7845,0,,389045,0,,53.11154400000000,5167,293,environmental.health@staffsmoorlands.gov.uk,Staffordshire Moorlands,http://www.staffsmoorlands.gov.uk,-2.00769800000000,ST13 6NR,2013-06-18,fhrs_5_en-GB,5,,FHRS,5
346685,Green Farm,Roughcote Lane,Caverswall,Stoke On Trent,Bickerton Bros Ltd,Retailers - other,4613,10,,389092,10,,52.98937300000000,5342,293,environmental.health@staffsmoorlands.gov.uk,Staffordshire Moorlands,http://www.staffsmoorlands.gov.uk,-2.08114600000000,ST11 9EG,2014-05-01,fhrs_3_en-GB,3,,FHRS,10
346686,Biddulph Arms Hotel,169 Congleton Road,,Biddulph,Biddulph Arms,Pub/bar/nightclub,7843,10,,723800,10,,53.12283900000000,49809,293,environmental.health@staffsmoorlands.gov.uk,Staffordshire Moorlands,http://www.staffsmoorlands.gov.uk,-2.16972500000000,ST8 6QJ,2014-12-02,fhrs_3_en-GB,3,,FHRS,10
346687,71A High Street,,,Biddulph,Biddulph Cafe,Restaurant/Cafe/Canteen,1,10,,548065,0,,53.11589100000000,41961,293,environmental.health@staffsmoorlands.gov.uk,Staffordshire Moorlands,http://www.staffsmoorlands.gov.uk,-2.17591300000000,ST8 6AA,2013-04-30,fhrs_4_en-GB,4,,FHRS,0
346688,Biddulph Clinic,Princess Street,,Biddulph,Biddulph Day Unit,Hospitals/Childcare/Caring Premises,5,0,,389206,0,,53.11361500000000,5876,293,environmental.health@staffsmoorlands.gov.uk,Staffordshire Moorlands,http://www.staffsmoorlands.gov.uk,-2.17098800000000,ST8 6JN,2012-08-02,fhrs_5_en-GB,5,,FHRS,0
346689,2 King Street,,,Biddulph,Biddulph Fish Bar,Takeaway/sandwich shop,7844,0,,389156,5,,53.11606200000000,5629,293,environmental.health@staffsmoorlands.gov.uk,Staffordshire Moorlands,http://www.staffsmoorlands.gov.uk,-2.17546500000000,ST8 6AZ,2013-11-26,fhrs_5_en-GB,5,,FHRS,0
346690,Grange Road,,,Biddulph,Biddulph Grange Tea Rooms,Restaurant/Cafe/Canteen,1,10,,389106,10,,53.12991500000000,5398,293,environmental.health@staffsmoorlands.gov.uk,Staffordshire Moorlands,http://www.staffsmoorlands.gov.uk,-2.16199600000000,ST8 7SD,2014-04-22,fhrs_3_en-GB,3,,FHRS,5
346691,18 High Street,Biddulph,,Stoke On Trent,Biddulph Kebab And Pizza,Takeaway/sandwich shop,7844,10,,389102,10,,53.11769000000000,5394,293,environmental.health@staffsmoorlands.gov.uk,Staffordshire Moorlands,http://www.staffsmoorlands.gov.uk,-2.17512800000000,ST8 6AP,2014-07-29,fhrs_3_en-GB,3,,FHRS,10
346692,School Lane,Biddulph Moor,Biddulph,Stoke On Trent,Biddulph Moor First School,School/college/university,7845,5,,389063,10,,53.12291400000000,5253,293,environmental.health@staffsmoorlands.gov.uk,Staffordshire Moorlands,http://www.staffsmoorlands.gov.uk,-2.14000400000000,ST8 7HR,2013-12-11,fhrs_3_en-GB,3,,FHRS,10
346693,Newpool Road,,,Knypersley,Biddulph Pentecostal Church,Restaurant/Cafe/Canteen,1,5,,389328,5,,53.10846600000000,6709,293,environmental.health@staffsmoorlands.gov.uk,Staffordshire Moorlands,http://www.staffsmoorlands.gov.uk,-2.18166300000000,ST8 6NN,2011-12-13,fhrs_4_en-GB,4,,FHRS,10
346694,Biddulph Town Hall,High Street,,Biddulph,Biddulph Town Hall,Other catering premises,7841,5,,389337,0,,53.11664600000000,7134,293,environmental.health@staffsmoorlands.gov.uk,Staffordshire Moorlands,http://www.staffsmoorlands.gov.uk,-2.17605000000000,ST8 6AR,2012-04-27,fhrs_5_en-GB,5,,FHRS,5
346695,Thames Drive,,,Biddulph,Biddulph Valley Leisure Centre,Restaurant/Cafe/Canteen,1,10,,388826,5,,53.11726200000000,4348,293,environmental.health@staffsmoorlands.gov.uk,Staffordshire Moorlands,http://www.staffsmoorlands.gov.uk,-2.16608700000000,ST8 7HL,2010-08-24,fhrs_3_en-GB,3,,FHRS,10
346696,117 Tape Street,Cheadle,,Stoke On Trent,Bird In Hand,Pub/bar/nightclub,7843,5,,388985,5,,52.98450100000000,4945,293,environmental.health@staffsmoorlands.gov.uk,Staffordshire Moorlands,http://www.staffsmoorlands.gov.uk,-1.98546600000000,ST10 1ER,2012-01-04,fhrs_5_en-GB,5,,FHRS,5
346697,Lid Lane,,,Cheadle,Bishop Rawle Church Of England,School/college/university,7845,0,,389251,5,,52.98421400000000,6109,293,environmental.health@staffsmoorlands.gov.uk,Staffordshire Moorlands,http://www.staffsmoorlands.gov.uk,-1.99303200000000,ST10 1QA,2014-11-12,fhrs_5_en-GB,5,,FHRS,5
346698,Black Cock Inn,393 Uttoxeter Road,,Blythe Bridge,Black Cock Inn,Pub/bar/nightclub,7843,10,,439576,5,,52.96518000000000,38018,293,environmental.health@staffsmoorlands.gov.uk,Staffordshire Moorlands,http://www.staffsmoorlands.gov.uk,-2.05446500000000,ST11 9NT,2014-10-24,fhrs_3_en-GB,3,,FHRS,10
346699,Black Head Inn,High Street,,Upper Tean,Black Head Inn,Pub/bar/nightclub,7843,10,,409274,5,,52.95363200000000,36938,293,environmental.health@staffsmoorlands.gov.uk,Staffordshire Moorlands,http://www.staffsmoorlands.gov.uk,-1.98672600000000,ST10 4DY,2012-06-25,fhrs_3_en-GB,3,,FHRS,10
346700,Church Lane,,,Butterton,Black Lion Inn,Pub/bar/nightclub,7843,10,,389003,5,,53.10593700000000,5026,293,environmental.health@staffsmoorlands.gov.uk,Staffordshire Moorlands,http://www.staffsmoorlands.gov.uk,-1.88802200000000,ST13 7SP,2014-01-15,fhrs_4_en-GB,4,,FHRS,5
346701,Consall Forge,,,Consall,Black Lion Inn,Pub/bar/nightclub,7843,10,,389083,10,,53.03597400000000,5323,293,environmental.health@staffsmoorlands.gov.uk,Staffordshire Moorlands,http://www.staffsmoorlands.gov.uk,-2.00036100000000,ST9 0AJ,2013-10-09,fhrs_3_en-GB,3,,FHRS,10
346702,12 Sheepmarket,,,Leek,Black Swan,Pub/bar/nightclub,7843,5,,388805,5,,53.10595000000000,4274,293,environmental.health@staffsmoorlands.gov.uk,Staffordshire Moorlands,http://www.staffsmoorlands.gov.uk,-2.02630800000000,ST13 5HN,2013-09-03,fhrs_5_en-GB,5,,FHRS,5
346703,Buxton Road,,,Blackshaw Moor,Blackshaw Moor First School,School/college/university,7845,10,,389198,0,,53.13484400000000,5847,293,environmental.health@staffsmoorlands.gov.uk,Staffordshire Moorlands,http://www.staffsmoorlands.gov.uk,-1.98882400000000,ST13 8TW,2015-01-06,fhrs_4_en-GB,4,,FHRS,5
346704,Blacksmiths Arms,39 Shawe Park Road,,Kingsley Holt,Blacksmiths Arms,Pub/bar/nightclub,7843,5,,406709,5,,53.01058600000000,36754,293,environmental.health@staffsmoorlands.gov.uk,Staffordshire Moorlands,http://www.staffsmoorlands.gov.uk,-1.97590300000000,ST10 2DJ,2014-08-01,fhrs_5_en-GB,5,,FHRS,5
346705,New Close Fields,Adderley,,Cheadle,Blakehall Fishery,Restaurant/Cafe/Canteen,1,5,,388815,5,,52.98738700000000,4320,293,environmental.health@staffsmoorlands.gov.uk,Staffordshire Moorlands,http://www.staffsmoorlands.gov.uk,-2.01025200000000,ST10 2LT,2013-09-23,fhrs_5_en-GB,5,,FHRS,5
346706,Blore,,,Ashbourne,Blore Hall,Restaurant/Cafe/Canteen,1,10,,388980,0,,53.04016113281250,4939,293,environmental.health@staffsmoorlands.gov.uk,Staffordshire Moorlands,http://www.staffsmoorlands.gov.uk,-1.79667770862579,DE6 2BS,2014-02-28,fhrs_4_en-GB,4,,FHRS,0
346707,264 Uttoxeter Road,,,Blythe Bridge,Blythe Bridge Chinese Takeaway,Takeaway/sandwich shop,7844,5,,388977,5,,52.96579900000000,4936,293,environmental.health@staffsmoorlands.gov.uk,Staffordshire Moorlands,http://www.staffsmoorlands.gov.uk,-2.05823200000000,ST11 9LY,2013-08-15,fhrs_5_en-GB,5,,FHRS,5
346708,195 Uttoxeter Road,,,Blythe Bridge,Blythe Bridge Day Nursery,Hospitals/Childcare/Caring Premises,5,0,,454455,5,,52.96917200000000,38677,293,environmental.health@staffsmoorlands.gov.uk,Staffordshire Moorlands,http://www.staffsmoorlands.gov.uk,-2.07092300000000,ST11 9HQ,2014-09-08,fhrs_5_en-GB,5,,FHRS,0
346709,Cheadle Road,,,Blythe Bridge,Blythe Bridge High School,School/college/university,7845,0,,388896,0,,52.96812600000000,4580,293,environmental.health@staffsmoorlands.gov.uk,Staffordshire Moorlands,http://www.staffsmoorlands.gov.uk,-2.05965000000000,ST11 9PW,2014-01-29,fhrs_5_en-GB,5,,FHRS,5
346710,Cresswell Lane,,,Draycott,Blythe Cricket Club,Pub/bar/nightclub,7843,10,,389139,5,,52.95214400000000,5537,293,environmental.health@staffsmoorlands.gov.uk,Staffordshire Moorlands,http://www.staffsmoorlands.gov.uk,-2.03670700000000,ST11 9RE,2014-04-29,fhrs_3_en-GB,3,,FHRS,10
346711,Brown Lees Industrial Estate,,,Brown Lees,Bobby Dazzler,Mobile caterer,7846,0,,389087,0,,53.10234200000000,5327,293,environmental.health@staffsmoorlands.gov.uk,Staffordshire Moorlands,http://www.staffsmoorlands.gov.uk,-2.18725800000000,,2013-08-15,fhrs_5_en-GB,5,,FHRS,0
346712,Layby,Ashbourne Road,,Bottomhouses,Bottomhouses Cafe,Mobile caterer,7846,10,,389256,5,,,6123,293,environmental.health@staffsmoorlands.gov.uk,Staffordshire Moorlands,http://www.staffsmoorlands.gov.uk,,,2013-09-30,fhrs_2_en-GB,2,,FHRS,15
346713,,,,,Boundary Bangers,Manufacturers/packers,7839,5,,389375,5,,,7322,293,environmental.health@staffsmoorlands.gov.uk,Staffordshire Moorlands,http://www.staffsmoorlands.gov.uk,,,2013-09-26,fhrs_5_en-GB,5,,FHRS,5
346714,14 Stanley Street,,,Leek,Breckles Wholefoods,Retailers - other,4613,5,,524942,5,,53.10558200000000,41149,293,environmental.health@staffsmoorlands.gov.uk,Staffordshire Moorlands,http://www.staffsmoorlands.gov.uk,-2.02602400000000,ST13 5HG,2014-03-18,fhrs_5_en-GB,5,,FHRS,5
346715,23 Johnstone Avenue,,,Werrington,Brian Roberts Butchers,Retailers - other,4613,5,,388987,5,,53.02587300000000,4947,293,environmental.health@staffsmoorlands.gov.uk,Staffordshire Moorlands,http://www.staffsmoorlands.gov.uk,-2.08771500000000,ST90DY,2014-03-27,fhrs_5_en-GB,5,,FHRS,5
346716,89 St Johns Road,,,Biddulph,Bric Community Cafe,Restaurant/Cafe/Canteen,1,5,,388947,0,,53.10597700000000,4831,293,environmental.health@staffsmoorlands.gov.uk,Staffordshire Moorlands,http://www.staffsmoorlands.gov.uk,-2.18659700000000,ST8 6PS,2014-11-05,fhrs_5_en-GB,5,,FHRS,5
346717,Bridge End Coffee Shop,Macclesfield Road,,Leek,Bridge End Coffee Shop (A & J Catering),Restaurant/Cafe/Canteen,1,10,,388961,10,,53.11038700000000,4853,293,environmental.health@staffsmoorlands.gov.uk,Staffordshire Moorlands,http://www.staffsmoorlands.gov.uk,-2.04063700000000,ST13 8LD,2014-08-09,fhrs_3_en-GB,3,,FHRS,10
346718,Macclesfield Road,,,Leek,Bridge End Filling Station,Retailers - other,4613,5,,389313,5,,53.11038700000000,6623,293,environmental.health@staffsmoorlands.gov.uk,Staffordshire Moorlands,http://www.staffsmoorlands.gov.uk,-2.04063700000000,ST13 8LD,2011-11-08,fhrs_4_en-GB,4,,FHRS,10
346719,Leek Road,,,Kingsley Moor ,Broad Oaks ,Restaurant/Cafe/Canteen,1,5,,389289,5,,53.01998000000000,6404,293,environmental.health@staffsmoorlands.gov.uk,Staffordshire Moorlands,http://www.staffsmoorlands.gov.uk,-2.02334800000000,ST10 2EL,2011-08-16,fhrs_5_en-GB,5,,FHRS,5
346720,Ball Haye Road,,,Leek,Brough Park Leisure Centre Cafe,Restaurant/Cafe/Canteen,1,0,,389208,0,,53.11027500000000,5889,293,environmental.health@staffsmoorlands.gov.uk,Staffordshire Moorlands,http://www.staffsmoorlands.gov.uk,-2.01970800000000,ST13 6AT,2014-06-18,fhrs_5_en-GB,5,,FHRS,5
346721,17 Brown Lees Road,Brown Lees,,Biddulph,Brown Lees Post Office And Newsagent,Retailers - other,4613,5,,389234,0,,53.10150200000000,6047,293,environmental.health@staffsmoorlands.gov.uk,Staffordshire Moorlands,http://www.staffsmoorlands.gov.uk,-2.18578600000000,ST8 6PJ,2013-04-24,fhrs_5_en-GB,5,,FHRS,0
346722,Buxton Road,,,Leek,Buckinghams Day Nursery,School/college/university,7845,5,,388856,0,,53.10931500000000,4412,293,environmental.health@staffsmoorlands.gov.uk,Staffordshire Moorlands,http://www.staffsmoorlands.gov.uk,-2.00875800000000,ST13 6NE,2014-02-24,fhrs_5_en-GB,5,,FHRS,0
346723,Wallbridge Drive,,,Leek,Buckinghams Out Of School Club,School/college/university,7845,0,,389356,0,,53.10329900000000,7226,293,environmental.health@staffsmoorlands.gov.uk,Staffordshire Moorlands,http://www.staffsmoorlands.gov.uk,-2.02530600000000,ST13 5NH,2014-03-25,fhrs_5_en-GB,5,,FHRS,0
346724,Endon Layby,Newcastle Road,,Endon,Buffalo Grill,Mobile caterer,7846,0,,389062,5,,,5252,293,environmental.health@staffsmoorlands.gov.uk,Staffordshire Moorlands,http://www.staffsmoorlands.gov.uk,,,2014-06-30,fhrs_5_en-GB,5,,FHRS,5
346725,High Street ,,,Kingsley ,Bulls Head,Pub/bar/nightclub,7843,5,,389325,5,,53.01919000000000,6697,293,environmental.health@staffsmoorlands.gov.uk,Staffordshire Moorlands,http://www.staffsmoorlands.gov.uk,-1.98382900000000,ST10 2AE,2011-11-30,fhrs_4_en-GB,4,,FHRS,10
346726,High Street,,,Alton,Bulls Head Inn,Pub/bar/nightclub,7843,5,,389193,10,,52.97768500000000,5805,293,environmental.health@staffsmoorlands.gov.uk,Staffordshire Moorlands,http://www.staffsmoorlands.gov.uk,-1.89247800000000,ST10 4AQ,2014-05-15,fhrs_4_en-GB,4,,FHRS,5
346727,Gravenhurst,Leek Road,Waterhouses,Waterhouses,Bumble Bees Day Nursery,School/college/university,7845,0,,388816,0,,53.05182900000000,4321,293,environmental.health@staffsmoorlands.gov.uk,Staffordshire Moorlands,http://www.staffsmoorlands.gov.uk,-1.88471500000000,ST10 3HS,2012-01-27,fhrs_5_en-GB,5,,FHRS,0
346728,Forbidden Valley,Alton Towers,Farley Lane,Alton,Burger Kitchen The Valley,Takeaway/sandwich shop,7844,0,,388884,0,,52.98662500000000,4533,293,environmental.health@staffsmoorlands.gov.uk,Staffordshire Moorlands,http://www.staffsmoorlands.gov.uk,-1.89874200000000,ST10 4BZ,2013-04-09,fhrs_5_en-GB,5,,FHRS,0
346729,Cloud Cuckoo Land,Alton Towers,,Alton,"Burger Kitchen, Cloud Cuckoo Land",Takeaway/sandwich shop,7844,0,,389084,0,,52.98832400000000,5324,293,environmental.health@staffsmoorlands.gov.uk,Staffordshire Moorlands,http://www.staffsmoorlands.gov.uk,-1.88866800000000,ST104DB,2013-04-09,fhrs_5_en-GB,5,,FHRS,0
346730,Alton Towers,Alton,Staffs,Alton Towers,"Burger Kitchen, Mutiny Bay",Takeaway/sandwich shop,7844,0,,388874,0,,52.98662567138672,4510,293,environmental.health@staffsmoorlands.gov.uk,Staffordshire Moorlands,http://www.staffsmoorlands.gov.uk,-1.89874160289764,ST10 4BZ,2013-04-09,fhrs_5_en-GB,5,,FHRS,0
346731,Leek Road,,,Cellarhead,Burleigh House Residential Home,Hospitals/Childcare/Caring Premises,5,10,,389088,5,,53.01597700000000,5328,293,environmental.health@staffsmoorlands.gov.uk,Staffordshire Moorlands,http://www.staffsmoorlands.gov.uk,-2.07317600000000,st9 0DG,2014-03-10,fhrs_4_en-GB,4,,FHRS,0
346732,Butchers Arms,Cheadle Road,,Forsbrook,Butchers Arms,Pub/bar/nightclub,7843,10,,624536,5,,52.97175300000000,44425,293,environmental.health@staffsmoorlands.gov.uk,Staffordshire Moorlands,http://www.staffsmoorlands.gov.uk,-2.05021400000000,ST11 9AS,2014-01-08,fhrs_4_en-GB,4,,FHRS,5
346733,Butchers Arms,Moor Road,Reapsmoor,Longnor,Butchers Arms,Pub/bar/nightclub,7843,5,,428834,5,,53.14816500000000,37570,293,environmental.health@staffsmoorlands.gov.uk,Staffordshire Moorlands,http://www.staffsmoorlands.gov.uk,-1.87662400000000,SK17 0LL,2014-08-16,fhrs_4_en-GB,4,,FHRS,10
346734,,,,,Butties For You,Mobile caterer,7846,0,,388899,5,,,4583,293,environmental.health@staffsmoorlands.gov.uk,Staffordshire Moorlands,http://www.staffsmoorlands.gov.uk,,,2014-05-23,fhrs_4_en-GB,4,,FHRS,10
346735,Ipstones Memorial Hall,Church Lane,,Ipstones,Cafe Connect At Ipstones Memorial Hall,Restaurant/Cafe/Canteen,1,0,,538590,0,,53.04747700000000,41657,293,environmental.health@staffsmoorlands.gov.uk,Staffordshire Moorlands,http://www.staffsmoorlands.gov.uk,-1.97224300000000,ST10 2LD,2013-04-19,fhrs_5_en-GB,5,,FHRS,0
346736,75 Haywood Street,,,Leek,Cafe Delight,Restaurant/Cafe/Canteen,1,5,,388890,5,,53.10519600000000,4560,293,environmental.health@staffsmoorlands.gov.uk,Staffordshire Moorlands,http://www.staffsmoorlands.gov.uk,-2.02200600000000,ST13 5JH,2014-06-27,fhrs_5_en-GB,5,,FHRS,5
346737,,,,,Cakes And More By Diana Shaw,Other catering premises,7841,5,,520659,0,,,41089,293,environmental.health@staffsmoorlands.gov.uk,Staffordshire Moorlands,http://www.staffsmoorlands.gov.uk,,,2013-03-11,fhrs_5_en-GB,5,,FHRS,0
346738,,,,,Candytops,Other catering premises,7841,5,,388784,5,,,18418,293,environmental.health@staffsmoorlands.gov.uk,Staffordshire Moorlands,http://www.staffsmoorlands.gov.uk,,,2012-05-25,fhrs_5_en-GB,5,,FHRS,5
346739,64 High Street,,,Cheadle,Capuchino At The Summerhouse,Restaurant/Cafe/Canteen,1,10,,715650,0,,52.98669500000000,49197,293,environmental.health@staffsmoorlands.gov.uk,Staffordshire Moorlands,http://www.staffsmoorlands.gov.uk,-1.99052900000000,ST10 1AJ,2014-10-23,fhrs_4_en-GB,4,,FHRS,5
346740,,,,,Care Today,Hospitals/Childcare/Caring Premises,5,5,,388994,0,,,4989,293,environmental.health@staffsmoorlands.gov.uk,Staffordshire Moorlands,http://www.staffsmoorlands.gov.uk,,,2014-11-26,fhrs_5_en-GB,5,,FHRS,5
346741,Castern Hall,Ilam Moor Lane,,Ilam,Castern Hall,Hotel/bed & breakfast/guest house,7842,10,,617458,5,,53.06864400000000,44173,293,environmental.health@staffsmoorlands.gov.uk,Staffordshire Moorlands,http://www.staffsmoorlands.gov.uk,-1.81746700000000,DE6 2BA,2013-12-03,fhrs_4_en-GB,4,,FHRS,0
346742,11 Cheadle Road,Cheddleton,,Leek,Castros,Restaurant/Cafe/Canteen,1,5,,389127,5,,53.06677200000000,5502,293,environmental.health@staffsmoorlands.gov.uk,Staffordshire Moorlands,http://www.staffsmoorlands.gov.uk,-2.04202800000000,ST13 7HN,2014-09-25,fhrs_4_en-GB,4,,FHRS,10
346743,Uttoxeter Road,Draycott,,Stoke On Trent,Chandni Cottage,Restaurant/Cafe/Canteen,1,20,,388882,10,,52.97145600000000,4530,293,environmental.health@staffsmoorlands.gov.uk,Staffordshire Moorlands,http://www.staffsmoorlands.gov.uk,-2.05098800000000,ST11 9AR,2014-01-21,fhrs_1_en-GB,1,,FHRS,15
346744,Station Road,Cheadle,,Stoke On Trent,Cheadle Academy,School/college/university,7845,0,,388862,0,,52.98173300000000,4421,293,environmental.health@staffsmoorlands.gov.uk,Staffordshire Moorlands,http://www.staffsmoorlands.gov.uk,-1.98892200000000,ST10 1LH,2014-02-05,fhrs_5_en-GB,5,,FHRS,0
346745,2 High Street,Cheadle,,Stoke On Trent,Cheadle Chinese Takeaway,Takeaway/sandwich shop,7844,5,,388848,0,,52.98782700000000,4398,293,environmental.health@staffsmoorlands.gov.uk,Staffordshire Moorlands,http://www.staffsmoorlands.gov.uk,-1.98865200000000,ST10 1AF,2015-01-15,fhrs_5_en-GB,5,,FHRS,0
346746,Royal Walk,Cheadle,,Stoke On Trent,Cheadle Hospital,Hospitals/Childcare/Caring Premises,5,0,,389047,0,,52.98567000000000,5176,293,environmental.health@staffsmoorlands.gov.uk,Staffordshire Moorlands,http://www.staffsmoorlands.gov.uk,-1.99073800000000,ST10 1NR,2014-11-10,fhrs_5_en-GB,5,,FHRS,0
346747,42-44 Chapel Street,Cheadle,,Stoke On Trent,Cheadle Kebab And Pizza,Takeaway/sandwich shop,7844,10,,389110,10,,52.98592100000000,5411,293,environmental.health@staffsmoorlands.gov.uk,Staffordshire Moorlands,http://www.staffsmoorlands.gov.uk,-1.98689500000000,ST10 1DY,2014-03-19,fhrs_3_en-GB,3,,FHRS,5
346748,The Bethel,Tape Street,,Cheadle,Cheadle New Life Centre (Faith),Other catering premises,7841,10,,716187,0,,52.98727900000000,49393,293,environmental.health@staffsmoorlands.gov.uk,Staffordshire Moorlands,http://www.staffsmoorlands.gov.uk,-1.98659700000000,ST10 1BG,2014-11-13,fhrs_4_en-GB,4,,FHRS,0
346749,The Avenue,Cheadle,,Stoke On Trent,Cheadle Primary School,School/college/university,7845,0,,388827,0,,52.98398900000000,4349,293,environmental.health@staffsmoorlands.gov.uk,Staffordshire Moorlands,http://www.staffsmoorlands.gov.uk,-1.98843000000000,ST10 1EG,2013-09-30,fhrs_5_en-GB,5,,FHRS,5
346750,6 - 8 Queen Street,,,Cheadle,Cheadle Spice,Takeaway/sandwich shop,7844,10,,635856,10,,52.98858200000000,44885,293,environmental.health@staffsmoorlands.gov.uk,Staffordshire Moorlands,http://www.staffsmoorlands.gov.uk,-1.98500200000000,ST10 1BJ,2014-11-06,fhrs_3_en-GB,3,,FHRS,10
346751,Uttoxeter Road,Checkley,,Stoke on Trent,Checkley Cricket Club,Pub/bar/nightclub,7843,0,,389304,0,,52.94221200000000,6515,293,environmental.health@staffsmoorlands.gov.uk,Staffordshire Moorlands,http://www.staffsmoorlands.gov.uk,-1.96702800000000,ST10 4NA,2011-06-30,fhrs_5_en-GB,5,,FHRS,0
346752,Hollow Lane,Cheddleton,,Leek,Cheddleton Old School Tea Room,Restaurant/Cafe/Canteen,1,10,,388960,5,,53.06849700000000,4849,293,environmental.health@staffsmoorlands.gov.uk,Staffordshire Moorlands,http://www.staffsmoorlands.gov.uk,-2.04486500000000,ST13 7HP,2013-10-09,fhrs_4_en-GB,4,,FHRS,5
346753,,,,,Cheeky Cupcakes,Other catering premises,7841,5,,468708,0,,,39674,293,environmental.health@staffsmoorlands.gov.uk,Staffordshire Moorlands,http://www.staffsmoorlands.gov.uk,,,2012-11-15,fhrs_5_en-GB,5,,FHRS,0
346754,,,,,Chill Out L186  Rnv,Mobile caterer,7846,0,,439577,0,,,38022,293,environmental.health@staffsmoorlands.gov.uk,Staffordshire Moorlands,http://www.staffsmoorlands.gov.uk,,,2014-03-12,fhrs_5_en-GB,5,,FHRS,0
346755,,,,,Chilly Tilly C351 Srp,Mobile caterer,7846,10,,486758,0,,,40134,293,environmental.health@staffsmoorlands.gov.uk,Staffordshire Moorlands,http://www.staffsmoorlands.gov.uk,,,2014-07-16,fhrs_4_en-GB,4,,FHRS,5
346756,18 Haywood Street,,,Leek,China Garden,Takeaway/sandwich shop,7844,10,,388793,0,,53.10446800000000,4259,293,environmental.health@staffsmoorlands.gov.uk,Staffordshire Moorlands,http://www.staffsmoorlands.gov.uk,-2.02349900000000,ST13 5JX,2014-01-28,fhrs_4_en-GB,4,,FHRS,0
346757,9 Ball Haye Street,,,Leek,China Town,Takeaway/sandwich shop,7844,10,,389359,5,,53.10631100000000,7250,293,environmental.health@staffsmoorlands.gov.uk,Staffordshire Moorlands,http://www.staffsmoorlands.gov.uk,-2.02121500000000,ST13 6JN,2014-07-16,fhrs_4_en-GB,4,,FHRS,5
346758,121 Mill Street,,,Leek,Chinese Gourmet,Restaurant/Cafe/Canteen,1,0,,388794,0,,53.10869000000000,4260,293,environmental.health@staffsmoorlands.gov.uk,Staffordshire Moorlands,http://www.staffsmoorlands.gov.uk,-2.03321100000000,ST13 8EU,2014-06-17,fhrs_5_en-GB,5,,FHRS,5
346759,4 West Street,Biddulph,,Staffs,Choices Housing,Hospitals/Childcare/Caring Premises,5,0,,389237,5,,53.11237200000000,6065,293,environmental.health@staffsmoorlands.gov.uk,Staffordshire Moorlands,http://www.staffsmoorlands.gov.uk,-2.17833300000000,ST8 6HL,2011-04-11,fhrs_5_en-GB,5,,FHRS,5
346760,63 Junction Road,,,Leek,Choices Housing Association,Hospitals/Childcare/Caring Premises,5,5,,389306,0,,53.09945000000000,6545,293,environmental.health@staffsmoorlands.gov.uk,Staffordshire Moorlands,http://www.staffsmoorlands.gov.uk,-2.03053100000000,ST13 5QN,2011-10-05,fhrs_5_en-GB,5,,FHRS,5
346761,,,,,Chris Pye Chocolates,Other catering premises,7841,5,,409276,0,,,36946,293,environmental.health@staffsmoorlands.gov.uk,Staffordshire Moorlands,http://www.staffsmoorlands.gov.uk,,,2012-06-20,fhrs_5_en-GB,5,,FHRS,0
346762,18 The Terrace,Cheadle,,Stoke On Trent,Church Terrace Nursing Home,Hospitals/Childcare/Caring Premises,5,5,,388880,5,,52.98607500000000,4527,293,environmental.health@staffsmoorlands.gov.uk,Staffordshire Moorlands,http://www.staffsmoorlands.gov.uk,-1.99322600000000,ST10 1PA,2014-04-15,fhrs_5_en-GB,5,,FHRS,5
346763,Station Road,Cheddleton,,Leek,Churnet Vally Railway (1992) Plc,Restaurant/Cafe/Canteen,1,0,,389279,0,,53.10668182373047,6294,293,environmental.health@staffsmoorlands.gov.uk,Staffordshire Moorlands,http://www.staffsmoorlands.gov.uk,-2.02542996406555,ST13 1PA,2013-02-23,fhrs_5_en-GB,5,,FHRS,5
346764,Churnet View,,,Leek,Churnet View Middle School,School/college/university,7845,0,,388941,5,,53.11629900000000,4819,293,environmental.health@staffsmoorlands.gov.uk,Staffordshire Moorlands,http://www.staffsmoorlands.gov.uk,-2.01225500000000,ST13 6PU,2015-01-07,fhrs_5_en-GB,5,,FHRS,5
346765,Westwood Manor,Mill Lane,Wetley Rocks,Stoke On Trent,Cicely Haughton School,School/college/university,7845,5,,388903,0,,53.05283500000000,4632,293,environmental.health@staffsmoorlands.gov.uk,Staffordshire Moorlands,http://www.staffsmoorlands.gov.uk,-2.06822600000000,ST9 0BX,2014-02-12,fhrs_5_en-GB,5,,FHRS,0
346766,Ashbourne Road,,,Cheadle,"City Cafe, Breathe City Church",Restaurant/Cafe/Canteen,1,5,,389363,5,,52.98494100000000,7266,293,environmental.health@staffsmoorlands.gov.uk,Staffordshire Moorlands,http://www.staffsmoorlands.gov.uk,-1.98288900000000,ST10 1HF,2012-01-06,fhrs_5_en-GB,5,,FHRS,0
346767,1 High Street,,,Biddulph,Clockworks,Pub/bar/nightclub,7843,5,,703325,10,,53.11747400000000,48449,293,environmental.health@staffsmoorlands.gov.uk,Staffordshire Moorlands,http://www.staffsmoorlands.gov.uk,-2.17491800000000,ST8 6AW,2014-09-23,fhrs_4_en-GB,4,,FHRS,5
346768,Cloudside,,,Congleton,Cloudside Shooting Ground,Restaurant/Cafe/Canteen,1,0,,389117,0,,53.16715600000000,5462,293,environmental.health@staffsmoorlands.gov.uk,Staffordshire Moorlands,http://www.staffsmoorlands.gov.uk,-2.14116500000000,CW12 3QG,2013-10-01,fhrs_5_en-GB,5,,FHRS,5
346769,19 Bank Street,,,Cheadle,Club 19,Pub/bar/nightclub,7843,0,,410519,0,,52.98567000000000,37102,293,environmental.health@staffsmoorlands.gov.uk,Staffordshire Moorlands,http://www.staffsmoorlands.gov.uk,-1.99073800000000,ST10 1NR,2012-07-03,fhrs_5_en-GB,5,,FHRS,0
346770,44-46 Washerwall Lane,Werrington,,Stoke On Trent,Co Operative Food Store,Retailers - supermarkets/hypermarkets,7840,0,,389006,0,,53.02389900000000,5031,293,environmental.health@staffsmoorlands.gov.uk,Staffordshire Moorlands,http://www.staffsmoorlands.gov.uk,-2.09528400000000,ST9 0JU,2014-10-24,fhrs_5_en-GB,5,,FHRS,0
346771,,,,,Cobbles Home Caterer,Other catering premises,7841,0,,638492,0,,,45153,293,environmental.health@staffsmoorlands.gov.uk,Staffordshire Moorlands,http://www.staffsmoorlands.gov.uk,,,2014-03-14,fhrs_5_en-GB,5,,FHRS,0
346772,Bank House,Market Place,Longnor,Buxton,Cobbles Tea & Coffee Shop,Restaurant/Cafe/Canteen,1,10,,389305,5,,53.18150500000000,6521,293,environmental.health@staffsmoorlands.gov.uk,Staffordshire Moorlands,http://www.staffsmoorlands.gov.uk,-1.86849300000000,SK17 0NT,2014-02-14,fhrs_4_en-GB,4,,FHRS,0
346773,50 Cheadle Road,,,Forsbrook,Codswallop,Takeaway/sandwich shop,7844,10,,389136,10,,52.97061000000000,5528,293,environmental.health@staffsmoorlands.gov.uk,Staffordshire Moorlands,http://www.staffsmoorlands.gov.uk,-2.05456100000000,ST11 9BX,2014-09-16,fhrs_3_en-GB,3,,FHRS,10
346774,41 Derby Street,,,Leek,Coffee At Julies,Restaurant/Cafe/Canteen,1,5,,389100,5,,53.10594200000000,5391,293,environmental.health@staffsmoorlands.gov.uk,Staffordshire Moorlands,http://www.staffsmoorlands.gov.uk,-2.02239500000000,ST13 6HU,2014-12-12,fhrs_4_en-GB,4,,FHRS,10
346775,58-60 Derby Street,,,Leek,Coffee Beans,Restaurant/Cafe/Canteen,1,0,,389201,5,,53.10561000000000,5859,293,environmental.health@staffsmoorlands.gov.uk,Staffordshire Moorlands,http://www.staffsmoorlands.gov.uk,-2.02203600000000,ST13 5AJ,2013-12-10,fhrs_5_en-GB,5,,FHRS,5
346776,Colourmill,Ashbourne Road,,Winkhill,Colourmill Bed And Breakfast,Hotel/bed & breakfast/guest house,7842,5,,388785,0,,53.05842100000000,18422,293,environmental.health@staffsmoorlands.gov.uk,Staffordshire Moorlands,http://www.staffsmoorlands.gov.uk,-1.90903300000000,ST13 7PR,2012-05-23,fhrs_5_en-GB,5,,FHRS,0
346777,Consall Lane,,,Consall,Consall Hall,Restaurant/Cafe/Canteen,1,0,,389247,0,,53.03601700000000,6099,293,environmental.health@staffsmoorlands.gov.uk,Staffordshire Moorlands,http://www.staffsmoorlands.gov.uk,-2.01733200000000,ST9 0AG,2013-05-09,fhrs_5_en-GB,5,,FHRS,0
346778,321-325 Uttoxeter Road,Blythe Bridge,,Stoke On Trent,Co-operative,Retailers - supermarkets/hypermarkets,7840,0,,389293,0,,52.96624800000000,6436,293,environmental.health@staffsmoorlands.gov.uk,Staffordshire Moorlands,http://www.staffsmoorlands.gov.uk,-2.05905200000000,ST11 9QA,2011-08-30,fhrs_5_en-GB,5,,FHRS,5
346779,Alton Towers,Farley Lane,,Alton,Corner Coffee,Restaurant/Cafe/Canteen,1,0,,389125,0,,52.98662500000000,5493,293,environmental.health@staffsmoorlands.gov.uk,Staffordshire Moorlands,http://www.staffsmoorlands.gov.uk,-1.89874200000000,ST104BZ,2013-04-09,fhrs_5_en-GB,5,,FHRS,5
346780,26 - 28 Market Place,,,Leek,Costa Coffee,Restaurant/Cafe/Canteen,1,5,,679502,0,,53.10631900000000,47221,293,environmental.health@staffsmoorlands.gov.uk,Staffordshire Moorlands,http://www.staffsmoorlands.gov.uk,-2.02568100000000,ST13 5HJ,2014-06-25,fhrs_5_en-GB,5,,FHRS,0
346781,Alton Towers,Farley Lane,Alton,Alton,Courtyard Tavern Bbq,Restaurant/Cafe/Canteen,1,0,,389124,0,,52.98662500000000,5492,293,environmental.health@staffsmoorlands.gov.uk,Staffordshire Moorlands,http://www.staffsmoorlands.gov.uk,-1.89874200000000,ST104BZ,2013-04-09,fhrs_5_en-GB,5,,FHRS,5
346782,Croft Meadows,Horton,Leek,Stoke On Trent,Croft Meadows Farm B & B ,Restaurant/Cafe/Canteen,1,5,,389281,0,,53.11647300000000,6310,293,environmental.health@staffsmoorlands.gov.uk,Staffordshire Moorlands,http://www.staffsmoorlands.gov.uk,-2.11926000000000,ST13 8QE,2011-07-11,fhrs_5_en-GB,5,,FHRS,0
346783,33 Cheadle Road,,,Upper Tean,Cross Keys Inn,Pub/bar/nightclub,7843,20,,389352,10,,52.95696700000000,7202,293,environmental.health@staffsmoorlands.gov.uk,Staffordshire Moorlands,http://www.staffsmoorlands.gov.uk,-1.98976200000000,ST10 4DR,2014-02-07,fhrs_1_en-GB,1,,FHRS,15
346784,,,,,Crossroads Cafe,Restaurant/Cafe/Canteen,1,5,,482890,5,,,39982,293,environmental.health@staffsmoorlands.gov.uk,Staffordshire Moorlands,http://www.staffsmoorlands.gov.uk,,,2012-11-26,fhrs_5_en-GB,5,,FHRS,5
346785,7a Stanley Street,,,Leek,Cup Cake Cafe,Restaurant/Cafe/Canteen,1,0,,635641,5,,53.10558200000000,44877,293,environmental.health@staffsmoorlands.gov.uk,Staffordshire Moorlands,http://www.staffsmoorlands.gov.uk,-2.02602400000000,ST135HG,2014-02-15,fhrs_5_en-GB,5,,FHRS,0
346786,Leek Road,Cheadle,,Stoke On Trent,Daisy Bank Nursing Home,Hospitals/Childcare/Caring Premises,5,5,,388828,10,,52.99037100000000,4352,293,environmental.health@staffsmoorlands.gov.uk,Staffordshire Moorlands,http://www.staffsmoorlands.gov.uk,-1.98780200000000,ST10 1JE,2014-07-21,fhrs_4_en-GB,4,,FHRS,5
346787,39 B Tape Street,Cheadle,,Stoke On Trent,Daisy Chains Day Nursery,Hospitals/Childcare/Caring Premises,5,5,,389219,0,,52.98572300000000,5958,293,environmental.health@staffsmoorlands.gov.uk,Staffordshire Moorlands,http://www.staffsmoorlands.gov.uk,-1.98556900000000,ST10 1ET,2014-01-21,fhrs_5_en-GB,5,,FHRS,0
346788,Your Housing,Ball Haye Road,,Leek,Daisy Haye Bistro,Restaurant/Cafe/Canteen,1,0,,689587,0,,,47845,293,environmental.health@staffsmoorlands.gov.uk,Staffordshire Moorlands,http://www.staffsmoorlands.gov.uk,,ST13 6AU,2014-08-06,fhrs_5_en-GB,5,,FHRS,0
346789,,,,,Daisy's Vintage Tea Room,Other catering premises,7841,5,,494302,0,,,40322,293,environmental.health@staffsmoorlands.gov.uk,Staffordshire Moorlands,http://www.staffsmoorlands.gov.uk,,,2013-01-02,fhrs_5_en-GB,5,,FHRS,0
346790,2 Wallbridge Precinct,Wallbridge Drive,,Leek,Delilah's Sandwich Bar,Takeaway/sandwich shop,7844,10,,406710,10,,53.09956400000000,36758,293,environmental.health@staffsmoorlands.gov.uk,Staffordshire Moorlands,http://www.staffsmoorlands.gov.uk,-2.03994000000000,ST13 8JF,2013-07-04,fhrs_3_en-GB,3,,FHRS,10
346791,Roughcote Lane,Roughcote Lane,,Caverswall,Delmore,Other catering premises,7841,5,,389368,5,,52.98937300000000,7294,293,environmental.health@staffsmoorlands.gov.uk,Staffordshire Moorlands,http://www.staffsmoorlands.gov.uk,-2.08114600000000,ST11 9EG,2011-12-13,fhrs_5_en-GB,5,,FHRS,0
346792,11 - 13 Stanley Street,,,Leek,Den Engel Belgian Bar,Pub/bar/nightclub,7843,0,,388803,0,,53.10558200000000,4271,293,environmental.health@staffsmoorlands.gov.uk,Staffordshire Moorlands,http://www.staffsmoorlands.gov.uk,-2.02602400000000,ST13 5HG,2014-11-21,fhrs_5_en-GB,5,,FHRS,0
346793,1 Thomas Street,,,Biddulph,Dickinsons Emporium,Restaurant/Cafe/Canteen,1,5,,584039,0,,53.11926600000000,43253,293,environmental.health@staffsmoorlands.gov.uk,Staffordshire Moorlands,http://www.staffsmoorlands.gov.uk,-2.17258000000000,ST8 6EE,2013-09-12,fhrs_4_en-GB,4,,FHRS,10
346794,,,,,Dinahs Kitchen,Mobile caterer,7846,0,,486757,0,,,40130,293,environmental.health@staffsmoorlands.gov.uk,Staffordshire Moorlands,http://www.staffsmoorlands.gov.uk,,,2013-12-12,fhrs_5_en-GB,5,,FHRS,0
346795,c/o Klarius,Brookhouse Industrial Estate,"Huntly Lane, Cheedle",Stoke On Trent,Dine Ltd,Restaurant/Cafe/Canteen,1,5,,388898,5,,52.97678900000000,4582,293,environmental.health@staffsmoorlands.gov.uk,Staffordshire Moorlands,http://www.staffsmoorlands.gov.uk,-2.00470900000000,ST10 1UF,2012-11-22,fhrs_5_en-GB,5,,FHRS,5
346796,66 Beggars Lane,,,Leek,Divas Diner Home Caterer,Other catering premises,7841,5,,389067,5,,53.10046300000000,5257,293,environmental.health@staffsmoorlands.gov.uk,Staffordshire Moorlands,http://www.staffsmoorlands.gov.uk,-2.04107500000000,ST13 8JR,2013-07-02,fhrs_5_en-GB,5,,FHRS,0
346797,Uttoxeter Road,Lower Tean,,Stoke On Trent,Dog And Partridge,Pub/bar/nightclub,7843,5,,388829,10,,52.94417400000000,4353,293,environmental.health@staffsmoorlands.gov.uk,Staffordshire Moorlands,http://www.staffsmoorlands.gov.uk,-1.97491300000000,ST10 4LN,2013-10-01,fhrs_4_en-GB,4,,FHRS,5
346798,Dove Dale Car Park,Dove Dale,Ilam,Ashbourne,Dove Dale Cabin,Mobile caterer,7846,0,,548064,0,,,41941,293,environmental.health@staffsmoorlands.gov.uk,Staffordshire Moorlands,http://www.staffsmoorlands.gov.uk,,,2013-05-14,fhrs_5_en-GB,5,,FHRS,0
346799,Stepping Stones,Dove dale,,Ashbourne,Dove Dale Ice Cream Company Ltd,Takeaway/sandwich shop,7844,0,,389288,0,,53.05408700000000,6389,293,environmental.health@staffsmoorlands.gov.uk,Staffordshire Moorlands,http://www.staffsmoorlands.gov.uk,-1.78784000000000,DE6 2AY,2011-08-09,fhrs_5_en-GB,5,,FHRS,5
346800,Ilam Moor Lane,Ilam,,Ashbourne,Dovedale House,Other catering premises,7841,0,,388956,0,,53.05516100000000,4845,293,environmental.health@staffsmoorlands.gov.uk,Staffordshire Moorlands,http://www.staffsmoorlands.gov.uk,-1.80054600000000,DE6 2AZ,2015-01-20,fhrs_5_en-GB,5,,FHRS,0
346801,72 Buxton Road,,,Leek,Dragon Palace,Takeaway/sandwich shop,7844,0,,388802,10,,53.10733600000000,4270,293,environmental.health@staffsmoorlands.gov.uk,Staffordshire Moorlands,http://www.staffsmoorlands.gov.uk,-2.01803400000000,ST13 6EE,2014-06-17,fhrs_4_en-GB,4,,FHRS,0
346802,Draycott Arms,Cheadle Road,,Draycott In The Moors,Draycott Arms,Pub/bar/nightclub,7843,5,,504315,5,,52.96122600000000,40445,293,environmental.health@staffsmoorlands.gov.uk,Staffordshire Moorlands,http://www.staffsmoorlands.gov.uk,-2.02559400000000,ST11 9RQ,2013-01-28,fhrs_5_en-GB,5,,FHRS,5
346803,Draycott Old Road,Draycott In The Moors,,Stoke On Trent,Draycott Moor College,School/college/university,7845,5,,388817,5,,52.96199500000000,4326,293,environmental.health@staffsmoorlands.gov.uk,Staffordshire Moorlands,http://www.staffsmoorlands.gov.uk,-2.03970700000000,ST11 9AH,2014-01-27,fhrs_5_en-GB,5,,FHRS,0
346804,3 Macclesfield Road,,,Leek,Dyers Arms,Pub/bar/nightclub,7843,5,,388797,10,,53.11038700000000,4263,293,environmental.health@staffsmoorlands.gov.uk,Staffordshire Moorlands,http://www.staffsmoorlands.gov.uk,-2.04063700000000,ST13 8LD,2014-02-05,fhrs_4_en-GB,4,,FHRS,5
346805,Alton Towers,Farley Lane,,Alton,Eastern Express,Restaurant/Cafe/Canteen,1,5,,389081,5,,52.98662500000000,5321,293,environmental.health@staffsmoorlands.gov.uk,Staffordshire Moorlands,http://www.staffsmoorlands.gov.uk,-1.89874200000000,ST104BZ,2014-02-17,fhrs_5_en-GB,5,,FHRS,0
346806,5 Hugo Street,,,Leek,Edith Shaw Unit,Hospitals/Childcare/Caring Premises,5,0,,388830,0,,53.10269600000000,4354,293,environmental.health@staffsmoorlands.gov.uk,Staffordshire Moorlands,http://www.staffsmoorlands.gov.uk,-2.02820300000000,ST13 5PE,2010-08-12,fhrs_5_en-GB,5,,FHRS,0
346807,Hollybush Restaurant,1 Stanley Road,,Stockton Brook,Ego At The Hollybush,Retailers - other,4613,0,,728045,0,,53.06529300000000,50109,293,environmental.health@staffsmoorlands.gov.uk,Staffordshire Moorlands,http://www.staffsmoorlands.gov.uk,-2.12450600000000,ST9 9NL,2015-01-06,fhrs_5_en-GB,5,,FHRS,5
346808,Sandy Hill,Werrington,,Stoke On Trent,Elizabeth House,Hospitals/Childcare/Caring Premises,5,0,,389177,5,,53.02629500000000,5709,293,environmental.health@staffsmoorlands.gov.uk,Staffordshire Moorlands,http://www.staffsmoorlands.gov.uk,-2.08884900000000,ST9 0ET,2013-12-02,fhrs_5_en-GB,5,,FHRS,5
346809,72 West Street,,,Leek,Emperors Court,Takeaway/sandwich shop,7844,20,,466474,10,,53.10655100000000,39530,293,environmental.health@staffsmoorlands.gov.uk,Staffordshire Moorlands,http://www.staffsmoorlands.gov.uk,-2.03174600000000,ST13 8AG,2014-01-22,fhrs_1_en-GB,1,,FHRS,10
346810,28 Hillside Avenue,Endon,,Stoke On Trent,Endon Hall Primary School,School/college/university,7845,0,,389215,5,,53.07888900000000,5911,293,environmental.health@staffsmoorlands.gov.uk,Staffordshire Moorlands,http://www.staffsmoorlands.gov.uk,-2.11121400000000,ST9  9HH,2014-09-08,fhrs_5_en-GB,5,,FHRS,5
346811,Leek Road,Endon,,Stoke On Trent,Endon High School,School/college/university,7845,0,,389213,0,,53.07362500000000,5904,293,environmental.health@staffsmoorlands.gov.uk,Staffordshire Moorlands,http://www.staffsmoorlands.gov.uk,-2.11693200000000,ST9 9EE,2014-09-11,fhrs_5_en-GB,5,,FHRS,5
346812,Endon Methodist Church,Leek Road,,Endon,Endon Methodist Church Lunch Club,Other catering premises,7841,10,,668344,0,,53.07593000000000,45781,293,environmental.health@staffsmoorlands.gov.uk,Staffordshire Moorlands,http://www.staffsmoorlands.gov.uk,-2.11264000000000,ST9 9DY,2014-04-16,fhrs_4_en-GB,4,,FHRS,0
346813,Stanley Moss Lane,Endon,,Stoke On Trent,Endon Riding School,Restaurant/Cafe/Canteen,1,5,,389035,5,,53.06793700000000,5132,293,environmental.health@staffsmoorlands.gov.uk,Staffordshire Moorlands,http://www.staffsmoorlands.gov.uk,-2.11438000000000,ST9 9LR,2012-02-28,fhrs_5_en-GB,5,,FHRS,5
346814,35-37 Station Road,Endon,,Stoke On Trent,Endon Stores,Retailers - other,4613,10,,388923,10,,53.07593300000000,4734,293,environmental.health@staffsmoorlands.gov.uk,Staffordshire Moorlands,http://www.staffsmoorlands.gov.uk,-2.11025200000000,ST9 9DR,2014-02-25,fhrs_3_en-GB,3,,FHRS,5
346815,Trading In Biddulph Area,,,Stoke On Trent,Ernies Mr Softee,Mobile caterer,7846,0,,389168,0,,,5671,293,environmental.health@staffsmoorlands.gov.uk,Staffordshire Moorlands,http://www.staffsmoorlands.gov.uk,,,2014-04-22,fhrs_5_en-GB,5,,FHRS,0
346816,Station Road,Cheddleton,,Leek,Ernvale Nursing Home,Hospitals/Childcare/Caring Premises,5,10,,389093,5,,53.07073900000000,5348,293,environmental.health@staffsmoorlands.gov.uk,Staffordshire Moorlands,http://www.staffsmoorlands.gov.uk,-2.03383800000000,ST13 7EE,2015-01-13,fhrs_4_en-GB,4,,FHRS,5
346817,Brookview,School Road,,Bagnall,Everyday Delicious,Other catering premises,7841,0,,389253,0,,53.05519500000000,6113,293,environmental.health@staffsmoorlands.gov.uk,Staffordshire Moorlands,http://www.staffsmoorlands.gov.uk,-2.11018400000000,ST9 9JP,2014-03-03,fhrs_5_en-GB,5,,FHRS,0
346818,Alton Towers,Farley Lane,,Farley,Explorers Pizza And Pasta,Restaurant/Cafe/Canteen,1,0,,389303,0,,52.98832400000000,6514,293,environmental.health@staffsmoorlands.gov.uk,Staffordshire Moorlands,http://www.staffsmoorlands.gov.uk,-1.88866800000000,ST104DB,2013-03-20,fhrs_5_en-GB,5,,FHRS,0
346819,,,,,F J Grindey,Farmers/growers,7838,0,,584038,0,,,43229,293,environmental.health@staffsmoorlands.gov.uk,Staffordshire Moorlands,http://www.staffsmoorlands.gov.uk,,,2013-09-05,fhrs_5_en-GB,5,,FHRS,0
346820,63 High Street,Cheadle,,Stoke On Trent,Fantis Friendly Fryer,Takeaway/sandwich shop,7844,0,,388954,0,,52.98633500000000,4842,293,environmental.health@staffsmoorlands.gov.uk,Staffordshire Moorlands,http://www.staffsmoorlands.gov.uk,-1.99093200000000,ST10 1AN,2014-03-25,fhrs_5_en-GB,5,,FHRS,5
346821,70 Derby Street,,,Leek,Farm To Shop,Retailers - other,4613,5,,609352,10,,53.10561000000000,43890,293,environmental.health@staffsmoorlands.gov.uk,Staffordshire Moorlands,http://www.staffsmoorlands.gov.uk,-2.02203600000000,ST13 5AJ,2013-11-07,fhrs_3_en-GB,3,,FHRS,10
346822,12 Stockwell Street,,,Leek,Flaming Leek,Takeaway/sandwich shop,7844,0,,631779,5,,53.10696700000000,44629,293,environmental.health@staffsmoorlands.gov.uk,Staffordshire Moorlands,http://www.staffsmoorlands.gov.uk,-2.02278300000000,ST13 6DS,2014-02-06,fhrs_5_en-GB,5,,FHRS,5
346823,Buxton Road,,,Flash,Flash Bar Stores,Restaurant/Cafe/Canteen,1,10,,389197,5,,53.20886800000000,5828,293,environmental.health@staffsmoorlands.gov.uk,Staffordshire Moorlands,http://www.staffsmoorlands.gov.uk,-1.95565600000000,SK17 0TF,2014-07-04,fhrs_4_en-GB,4,,FHRS,5
346824,Moss Top Farm,Moss Top Lane,,Quarnford,Flash Brewery,Manufacturers/packers,7839,5,,661437,5,,53.18097100000000,45749,293,environmental.health@staffsmoorlands.gov.uk,Staffordshire Moorlands,http://www.staffsmoorlands.gov.uk,-1.96832800000000,SK17 0TA,2014-04-10,fhrs_5_en-GB,5,,FHRS,5
346825,5 Smithy Lane,Biddulph,,Stoke on Trent,Flavours Food And Wine,Retailers - other,4613,10,,389240,0,,53.12403800000000,6068,293,environmental.health@staffsmoorlands.gov.uk,Staffordshire Moorlands,http://www.staffsmoorlands.gov.uk,-2.16747300000000,ST8 7ET,2013-04-02,fhrs_4_en-GB,4,,FHRS,5
346826,Ugg Land,Alton Towers,Farley Lane,Alton Towers,Forest Feasts,Takeaway/sandwich shop,7844,0,,388885,5,,52.98662500000000,4534,293,environmental.health@staffsmoorlands.gov.uk,Staffordshire Moorlands,http://www.staffsmoorlands.gov.uk,-1.89874200000000,ST10 4BZ,2014-04-23,fhrs_5_en-GB,5,,FHRS,0
346827,Forsbrook Cricket Club,Dilhorne Lane,,Dilhorne,Forsbrook Cricket Club,Pub/bar/nightclub,7843,10,,456863,0,,52.98601900000000,38997,293,environmental.health@staffsmoorlands.gov.uk,Staffordshire Moorlands,http://www.staffsmoorlands.gov.uk,-2.06792700000000,ST11 9EZ,2012-10-11,fhrs_4_en-GB,4,,FHRS,5
346828,Cheadle Road,,,Blythe Bridge,Forsbrook Primary School,School/college/university,7845,0,,389220,0,,52.96812600000000,5959,293,environmental.health@staffsmoorlands.gov.uk,Staffordshire Moorlands,http://www.staffsmoorlands.gov.uk,-2.05965000000000,ST119PW,2013-01-16,fhrs_5_en-GB,5,,FHRS,0
346829,42-44 Cheadle Road,Forsbrook,,Stoke On Trent,Forsbrook Quality Meats,Retailers - other,4613,10,,389070,5,,52.97061000000000,5281,293,environmental.health@staffsmoorlands.gov.uk,Staffordshire Moorlands,http://www.staffsmoorlands.gov.uk,-2.05456100000000,ST11 9BX,2014-01-13,fhrs_4_en-GB,4,,FHRS,5
346830,29-31 Fountain Street,,,Leek,Fountain Guest House,Hotel/bed & breakfast/guest house,7842,0,,389209,0,,53.10603300000000,5890,293,environmental.health@staffsmoorlands.gov.uk,Staffordshire Moorlands,http://www.staffsmoorlands.gov.uk,-2.01816700000000,ST13 6JS,2014-12-19,fhrs_5_en-GB,5,,FHRS,0
346831,Fountain Inn  (WET SALES ONLY),14 Fountain Street,,Leek,Fountain Inn,Pub/bar/nightclub,7843,0,,635049,0,,53.10583500000000,44761,293,environmental.health@staffsmoorlands.gov.uk,Staffordshire Moorlands,http://www.staffsmoorlands.gov.uk,-2.01789800000000,ST13 6JR,2014-08-21,fhrs_5_en-GB,5,,FHRS,0
346832,Foxt Road,Foxt,,Stoke On Trent,Fox And Goose,Pub/bar/nightclub,7843,0,,388959,0,,53.03500100000000,4848,293,environmental.health@staffsmoorlands.gov.uk,Staffordshire Moorlands,http://www.staffsmoorlands.gov.uk,-1.94860000000000,ST102HN,2014-11-21,fhrs_4_en-GB,4,,FHRS,10
346833,The Foxlowe,Market Place,,Leek,Foxlowe Arts Centre,Restaurant/Cafe/Canteen,1,5,,451306,0,,53.10685900000000,38510,293,environmental.health@staffsmoorlands.gov.uk,Staffordshire Moorlands,http://www.staffsmoorlands.gov.uk,-2.02521800000000,ST13 6AD,2014-02-06,fhrs_5_en-GB,5,,FHRS,5
346834,Alton Towers,Farley Lane,Farley,Stoke On Trent,Fresh Fish And Chips Nemesis,Takeaway/sandwich shop,7844,0,,389246,0,,52.98832400000000,6085,293,environmental.health@staffsmoorlands.gov.uk,Staffordshire Moorlands,http://www.staffsmoorlands.gov.uk,-1.88866800000000,ST10 4DB,2014-04-29,fhrs_5_en-GB,5,,FHRS,5
346835,Alton Towers,Farley Lane,,Farley,Fried Chicken Company,Restaurant/Cafe/Canteen,1,0,,445999,0,,52.98832400000000,38270,293,environmental.health@staffsmoorlands.gov.uk,Staffordshire Moorlands,http://www.staffsmoorlands.gov.uk,-1.88866800000000,ST10 4DB,2012-08-30,fhrs_5_en-GB,5,,FHRS,0
346836,43A Barngate Street,,,Leek,Frydays,Mobile caterer,7846,0,,548063,5,,,41929,293,environmental.health@staffsmoorlands.gov.uk,Staffordshire Moorlands,http://www.staffsmoorlands.gov.uk,,,2013-04-18,fhrs_5_en-GB,5,,FHRS,0
346837,217 Ashbank Road,Werrington,,Stoke On Trent,Funky Fillerz,Takeaway/sandwich shop,7844,0,,389159,0,,53.02183300000000,5652,293,environmental.health@staffsmoorlands.gov.uk,Staffordshire Moorlands,http://www.staffsmoorlands.gov.uk,-2.10352400000000,ST2 9EE,2014-02-26,fhrs_5_en-GB,5,,FHRS,0
346838,Gap Farm,Leek Road,,Warslow,Gap Farm Shop & Village Store,Retailers - other,4613,0,,682691,10,,53.12602100000000,47669,293,environmental.health@staffsmoorlands.gov.uk,Staffordshire Moorlands,http://www.staffsmoorlands.gov.uk,-1.87280100000000,SK17 0JG,2014-07-16,fhrs_4_en-GB,4,,FHRS,0
346839,52 Broad Street,,,Leek,Georges Tradition,Takeaway/sandwich shop,7844,5,,389195,5,,53.10361300000000,5816,293,environmental.health@staffsmoorlands.gov.uk,Staffordshire Moorlands,http://www.staffsmoorlands.gov.uk,-2.02775500000000,ST13 5NS,2014-06-25,fhrs_5_en-GB,5,,FHRS,5
346840,,,,,Geraldine Shuttleworth,Other catering premises,7841,5,,546146,0,,,41901,293,environmental.health@staffsmoorlands.gov.uk,Staffordshire Moorlands,http://www.staffsmoorlands.gov.uk,,,2013-05-03,fhrs_5_en-GB,5,,FHRS,0
346841,,,,,Get Stuffed Catering,Mobile caterer,7846,10,,715646,10,,,49181,293,environmental.health@staffsmoorlands.gov.uk,Staffordshire Moorlands,http://www.staffsmoorlands.gov.uk,,,2014-10-20,fhrs_3_en-GB,3,,FHRS,5
346842,22 - 24 Getliffes Yard,Derby Street,,Leek,Getliffes,Other catering premises,7841,10,,609347,5,,53.10594200000000,43446,293,environmental.health@staffsmoorlands.gov.uk,Staffordshire Moorlands,http://www.staffsmoorlands.gov.uk,-2.02239500000000,ST13 6HU,2013-09-19,fhrs_4_en-GB,4,,FHRS,5
346843,Market Hall,High Street,,Cheadle,Gills Candy Stall,Retailers - other,4613,0,,389373,0,,52.98669500000000,7314,293,environmental.health@staffsmoorlands.gov.uk,Staffordshire Moorlands,http://www.staffsmoorlands.gov.uk,-1.99052900000000,ST10 1AJ,2011-11-22,fhrs_5_en-GB,5,,FHRS,0
346844,Victoria Cottage,Chapel Lane,Threapwood,Stoke On Trent,Good Taste,Other catering premises,7841,10,,389060,5,,52.98327500000000,5225,293,environmental.health@staffsmoorlands.gov.uk,Staffordshire Moorlands,http://www.staffsmoorlands.gov.uk,-1.94328400000000,ST10 4QZ,2011-12-15,fhrs_4_en-GB,4,,FHRS,5
346845,"Unit 3, Hillside Industrial Park",Draycott Cross Road,Brook Houses,Cheadle,Great British Cake Company,Manufacturers/packers,7839,10,,609351,0,,52.97841500000000,43873,293,environmental.health@staffsmoorlands.gov.uk,Staffordshire Moorlands,http://www.staffsmoorlands.gov.uk,-2.01254300000000,ST10 1AB,2013-10-24,fhrs_4_en-GB,4,,FHRS,10
346846,Hollington Road,,,Upper Tean,Great Wood Primary School,School/college/university,7845,0,,389038,0,,52.95285800000000,5149,293,environmental.health@staffsmoorlands.gov.uk,Staffordshire Moorlands,http://www.staffsmoorlands.gov.uk,-1.98090600000000,ST10 4JY,2014-01-29,fhrs_5_en-GB,5,,FHRS,5
346847,Springfield Road,,,Leek,Greenfield House,Hospitals/Childcare/Caring Premises,5,0,,388931,0,,53.10565600000000,4784,293,environmental.health@staffsmoorlands.gov.uk,Staffordshire Moorlands,http://www.staffsmoorlands.gov.uk,-2.01204300000000,ST13 6LQ,2010-01-18,fhrs_5_en-GB,5,,FHRS,0
346848,Greenway Hall,Greenway Hall Road,,Stoke-on-trent,Greenway Hall Farm,Other catering premises,7841,5,,389351,5,,53.05573500000000,7194,293,environmental.health@staffsmoorlands.gov.uk,Staffordshire Moorlands,http://www.staffsmoorlands.gov.uk,-2.12761100000000,ST2 7NA,2011-11-02,fhrs_5_en-GB,5,,FHRS,0
346849,Stanley Road,,,Stockton Brook,Greenway Hall Golf Club,Restaurant/Cafe/Canteen,1,10,,389046,0,,53.06469300000000,5175,293,environmental.health@staffsmoorlands.gov.uk,Staffordshire Moorlands,http://www.staffsmoorlands.gov.uk,-2.12268300000000,ST9 9LJ,2013-06-03,fhrs_4_en-GB,4,,FHRS,0
346850,1 Brookmills Cottage,Station Road,,Biddulph,Griddle And Grill,Mobile caterer,7846,20,,668347,5,,,46585,293,environmental.health@staffsmoorlands.gov.uk,Staffordshire Moorlands,http://www.staffsmoorlands.gov.uk,,,2014-05-19,fhrs_1_en-GB,1,,FHRS,0
346851,44 Queen Street,,,Leek,H Meakin And Sons Ltd,Retailers - other,4613,5,,649165,5,,53.10642000000000,45317,293,environmental.health@staffsmoorlands.gov.uk,Staffordshire Moorlands,http://www.staffsmoorlands.gov.uk,-2.01761500000000,ST13 6LP,2014-03-14,fhrs_5_en-GB,5,,FHRS,5
346852,54 Derby Street,,,Leek,H Meakin And Sons Ltd,Retailers - other,4613,0,,388795,0,,53.10561000000000,4261,293,environmental.health@staffsmoorlands.gov.uk,Staffordshire Moorlands,http://www.staffsmoorlands.gov.uk,-2.02203600000000,ST13 5AJ,2014-01-07,fhrs_5_en-GB,5,,FHRS,5
346853,20-21 Buttermarket,,,Leek,H Meakins And Sons Ltd,Retailers - other,4613,5,,388843,0,,53.10642000000000,4385,293,environmental.health@staffsmoorlands.gov.uk,Staffordshire Moorlands,http://www.staffsmoorlands.gov.uk,-2.01761500000000,ST13 6LP,2014-02-15,fhrs_5_en-GB,5,,FHRS,0
346854,55 Queen Drive,,,Leek,Haregate Fish Bar,Takeaway/sandwich shop,7844,0,,388971,0,,53.11433100000000,4910,293,environmental.health@staffsmoorlands.gov.uk,Staffordshire Moorlands,http://www.staffsmoorlands.gov.uk,-2.00759400000000,ST13 6QF,2013-11-07,fhrs_5_en-GB,5,,FHRS,0
346855,8a Market Place,,,Leek,Harrisons Fruit And Veg,Retailers - other,4613,5,,389308,5,,53.10617500000000,6556,293,environmental.health@staffsmoorlands.gov.uk,Staffordshire Moorlands,http://www.staffsmoorlands.gov.uk,-2.02512800000000,ST13 5HH,2014-02-15,fhrs_4_en-GB,4,,FHRS,10
346856,Caverswall Old Road,,,Forsbrook,Heath House Farm,Restaurant/Cafe/Canteen,1,5,,389013,0,,52.97440800000000,5076,293,environmental.health@staffsmoorlands.gov.uk,Staffordshire Moorlands,http://www.staffsmoorlands.gov.uk,-2.06296500000000,ST11 9BQ,2014-11-10,fhrs_5_en-GB,5,,FHRS,5
346857,Heathfield House,318 Uttoxeter Road,,Blythe Bridge,Heathfield House,Hospitals/Childcare/Caring Premises,5,10,,700414,5,,52.96576300000000,48201,293,environmental.health@staffsmoorlands.gov.uk,Staffordshire Moorlands,http://www.staffsmoorlands.gov.uk,-2.05812800000000,ST11 9LY,2014-09-08,fhrs_4_en-GB,4,,FHRS,5
346858,Meerbrook Road,,,Rushton Spencer,Heaton House Farm B&B + Events,Hotel/bed & breakfast/guest house,7842,5,,389277,0,,53.15545900000000,6282,293,environmental.health@staffsmoorlands.gov.uk,Staffordshire Moorlands,http://www.staffsmoorlands.gov.uk,-2.07488000000000,SK11 0RD,2014-03-07,fhrs_5_en-GB,5,,FHRS,0
346859,Froghall Road,,,Ipstones,Hermitage Farm Bed & Breakfast,Hotel/bed & breakfast/guest house,7842,10,,388913,5,,53.02586500000000,4682,293,environmental.health@staffsmoorlands.gov.uk,Staffordshire Moorlands,http://www.staffsmoorlands.gov.uk,-1.96484700000000,ST10 2HQ,2013-05-23,fhrs_4_en-GB,4,,FHRS,0
346860,High Ash Farm,Longnor,,Buxton,High Ash Farm,Other catering premises,7841,5,,389024,5,,53.17682900000000,5099,293,environmental.health@staffsmoorlands.gov.uk,Staffordshire Moorlands,http://www.staffsmoorlands.gov.uk,-1.93079200000000,SK17 0QY,2013-06-27,fhrs_5_en-GB,5,,FHRS,5
346861,66 Kingsfield Road,Biddulph,,Stoke On Trent,High Spirits,Retailers - other,4613,10,,388866,10,,53.11658300000000,4442,293,environmental.health@staffsmoorlands.gov.uk,Staffordshire Moorlands,http://www.staffsmoorlands.gov.uk,-2.16953600000000,ST8 6DR,2014-02-24,fhrs_3_en-GB,3,,FHRS,10
346862,Mount Road,,,Leek,Hillesden House Rest Home,Hospitals/Childcare/Caring Premises,5,5,,389069,0,,53.10954000000000,5273,293,environmental.health@staffsmoorlands.gov.uk,Staffordshire Moorlands,http://www.staffsmoorlands.gov.uk,-2.00586000000000,ST13 6NQ,2014-06-09,fhrs_5_en-GB,5,,FHRS,0
346863,Hillswood Lodge,9 The close,,Endon,Hillswood Care Ltd,Hospitals/Childcare/Caring Premises,5,0,,389274,0,,53.07845800000000,6239,293,environmental.health@staffsmoorlands.gov.uk,Staffordshire Moorlands,http://www.staffsmoorlands.gov.uk,-2.11124300000000,ST9 9JH,2014-12-05,fhrs_5_en-GB,5,,FHRS,0
346864,Ashbank Road,,,"Werrington, S-o-t",Hmyoi  Werrington,School/college/university,7845,0,,389009,0,,53.02258300000000,5053,293,environmental.health@staffsmoorlands.gov.uk,Staffordshire Moorlands,http://www.staffsmoorlands.gov.uk,-2.08855800000000,ST9 0DX,2014-02-18,fhrs_5_en-GB,5,,FHRS,0
346865,Hollington Village Hall,Main Road,,Hollington,Hollington Village Hall,Other catering premises,7841,5,,389350,5,,52.94876200000000,7190,293,environmental.health@staffsmoorlands.gov.uk,Staffordshire Moorlands,http://www.staffsmoorlands.gov.uk,-1.92170500000000,ST10 4HR,2011-11-16,fhrs_5_en-GB,5,,FHRS,5
346866,Hollinsclough School,Hollinsclough,,Hollinsclough,Hollinsclough C Of E Primary School,School/college/university,7845,5,,468705,5,,53.19616400000000,39594,293,environmental.health@staffsmoorlands.gov.uk,Staffordshire Moorlands,http://www.staffsmoorlands.gov.uk,-1.90414800000000,SK17 0RH,2012-11-12,fhrs_5_en-GB,5,,FHRS,5
346867,Home bargains,Wharf Road,,Biddulph,Home Bargains,Retailers - supermarkets/hypermarkets,7840,0,,701807,0,,53.11604800000000,48289,293,environmental.health@staffsmoorlands.gov.uk,Staffordshire Moorlands,http://www.staffsmoorlands.gov.uk,-2.17884200000000,ST8 6AG,2014-09-22,fhrs_5_en-GB,5,,FHRS,0
346868,Wall Lane House,Wall Lane Terrace,,Cheddleton,Hopedale House,School/college/university,7845,10,,451307,5,,53.07420600000000,38561,293,environmental.health@staffsmoorlands.gov.uk,Staffordshire Moorlands,http://www.staffsmoorlands.gov.uk,-2.04145300000000,ST13 7ED,2014-02-13,fhrs_4_en-GB,4,,FHRS,0
346869,Rudyard Road,,,Horton,Horton Lodge Community Special School,School/college/university,7845,0,,388970,0,,53.12439000000000,4909,293,environmental.health@staffsmoorlands.gov.uk,Staffordshire Moorlands,http://www.staffsmoorlands.gov.uk,-2.08020500000000,ST13 8RB,2013-03-11,fhrs_5_en-GB,5,,FHRS,0
346870,78 Kingsfield Road,,,Biddulph,Hosi Fish And Chip Shop,Takeaway/sandwich shop,7844,5,,388800,5,,53.11658300000000,4266,293,environmental.health@staffsmoorlands.gov.uk,Staffordshire Moorlands,http://www.staffsmoorlands.gov.uk,-2.16953600000000,ST8 6DR,2013-03-11,fhrs_5_en-GB,5,,FHRS,5
346871,Alton Towers,Alton,Staffordshire Moorlands,Alton,Hospitality Marquee,Restaurant/Cafe/Canteen,1,0,,389123,5,,52.98662567138672,5491,293,environmental.health@staffsmoorlands.gov.uk,Staffordshire Moorlands,http://www.staffsmoorlands.gov.uk,-1.89874160289764,ST104BZ,2012-08-15,fhrs_5_en-GB,5,,FHRS,5
346872,Visitors Centre,New Road,,Hulme End,Hulme End Tea Junction,Restaurant/Cafe/Canteen,1,5,,389212,5,,53.13094300000000,5902,293,environmental.health@staffsmoorlands.gov.uk,Staffordshire Moorlands,http://www.staffsmoorlands.gov.uk,-1.84646800000000,Sk17 0EZ,2014-03-06,fhrs_5_en-GB,5,,FHRS,5
346873,Uttoxeter Road,,,Cheadle,Hutchinson Memorial C Of E First School,School/college/university,7845,5,,389053,5,,52.93910800000000,5199,293,environmental.health@staffsmoorlands.gov.uk,Staffordshire Moorlands,http://www.staffsmoorlands.gov.uk,-1.95805800000000,ST10 4NB,2014-04-29,fhrs_5_en-GB,5,,FHRS,5
346874,Ilam,Ashbourne,,Derbyshire,Ilam Hall Youth Hostel,Restaurant/Cafe/Canteen,1,0,,389230,0,,53.05516052246094,6015,293,environmental.health@staffsmoorlands.gov.uk,Staffordshire Moorlands,http://www.staffsmoorlands.gov.uk,-1.80054593086243,DE6 2AZ,2013-05-14,fhrs_5_en-GB,5,,FHRS,0
346875,Ilam Moor Lane,,,Ilam,Ilam Primary School,School/college/university,7845,0,,388953,0,,53.05516100000000,4841,293,environmental.health@staffsmoorlands.gov.uk,Staffordshire Moorlands,http://www.staffsmoorlands.gov.uk,-1.80054600000000,DE6 2AZ,2014-02-28,fhrs_5_en-GB,5,,FHRS,0
346876,104 Well Street,,,Biddulph,Iona Care Home,Hospitals/Childcare/Caring Premises,5,5,,389107,5,,53.11394100000000,5399,293,environmental.health@staffsmoorlands.gov.uk,Staffordshire Moorlands,http://www.staffsmoorlands.gov.uk,-2.16937600000000,ST8 6EZ,2010-10-05,fhrs_5_en-GB,5,,FHRS,5
346877,Church Lane,,,Ipstones,Ipstones Tiny Tots,Hospitals/Childcare/Caring Premises,5,5,,388969,0,,53.04747700000000,4900,293,environmental.health@staffsmoorlands.gov.uk,Staffordshire Moorlands,http://www.staffsmoorlands.gov.uk,-1.97224300000000,ST10 2LD,2013-05-03,fhrs_5_en-GB,5,,FHRS,0
346878,Izaak Walton Hotel,Thorpe Road,,Ilam,Izzak Walton Hotel,Hotel/bed & breakfast/guest house,7842,10,,691842,10,,53.05408700000000,47977,293,environmental.health@staffsmoorlands.gov.uk,Staffordshire Moorlands,http://www.staffsmoorlands.gov.uk,-1.78784000000000,DE6 2AY,2014-08-18,fhrs_4_en-GB,4,,FHRS,0
346879,22 Buttermarket,,,Leek,J & M Sutton,Retailers - other,4613,10,,388988,10,,53.10617500000000,4951,293,environmental.health@staffsmoorlands.gov.uk,Staffordshire Moorlands,http://www.staffsmoorlands.gov.uk,-2.02512800000000,ST13 5HH,2014-08-01,fhrs_3_en-GB,3,,FHRS,10
346880,,,,,J & R Catering Limited,Mobile caterer,7846,0,,388870,0,,,4487,293,environmental.health@staffsmoorlands.gov.uk,Staffordshire Moorlands,http://www.staffsmoorlands.gov.uk,,,2014-03-25,fhrs_5_en-GB,5,,FHRS,0
346881,Unit 7,Buttermarket,,Leek,J B Market Stall,Retailers - other,4613,5,,389158,5,,53.10617500000000,5650,293,environmental.health@staffsmoorlands.gov.uk,Staffordshire Moorlands,http://www.staffsmoorlands.gov.uk,-2.02512800000000,ST13 5HH,2014-10-08,fhrs_5_en-GB,5,,FHRS,5
346882,23 High Street,,,Cheadle,J H Heath & Sons,Retailers - other,4613,10,,389033,5,,52.98794400000000,5116,293,environmental.health@staffsmoorlands.gov.uk,Staffordshire Moorlands,http://www.staffsmoorlands.gov.uk,-1.98793700000000,ST10 1AA,2014-11-20,fhrs_3_en-GB,3,,FHRS,10
346883,19-21 Ball Haye Street,,,Leek,J W Ash & Sons Butchers And Moorlands Hog Roast,Retailers - other,4613,10,,389059,5,,53.10631100000000,5224,293,environmental.health@staffsmoorlands.gov.uk,Staffordshire Moorlands,http://www.staffsmoorlands.gov.uk,-2.02121500000000,ST13 6JN,2014-10-06,fhrs_4_en-GB,4,,FHRS,5
346884,Thorney Edge Road,,,Bagnall,Jacksons Nurseries Uk Ltd,Restaurant/Cafe/Canteen,1,0,,389176,0,,53.05155500000000,5701,293,environmental.health@staffsmoorlands.gov.uk,Staffordshire Moorlands,http://www.staffsmoorlands.gov.uk,-2.09922400000000,ST9 9LE,2014-06-30,fhrs_5_en-GB,5,,FHRS,5
346885,Park Lane,Knypersley,,Knypersley Nr Biddulph,James Bateman Junior High,School/college/university,7845,0,,388812,0,,53.10784700000000,4310,293,environmental.health@staffsmoorlands.gov.uk,Staffordshire Moorlands,http://www.staffsmoorlands.gov.uk,-2.17484900000000,ST8 7AT,2013-11-05,fhrs_5_en-GB,5,,FHRS,5
346886,Leek Road,,,Cheadle,Jcb Compact Products,Restaurant/Cafe/Canteen,1,0,,389077,0,,52.99422800000000,5315,293,environmental.health@staffsmoorlands.gov.uk,Staffordshire Moorlands,http://www.staffsmoorlands.gov.uk,-2.00059900000000,ST10 2JU,2014-07-17,fhrs_5_en-GB,5,,FHRS,0
346887,Leek Road,,,Cheadle,Jcb Earthmovers,Restaurant/Cafe/Canteen,1,5,,389078,5,,52.99422800000000,5316,293,environmental.health@staffsmoorlands.gov.uk,Staffordshire Moorlands,http://www.staffsmoorlands.gov.uk,-2.00059900000000,ST10 2JU,2014-02-04,fhrs_5_en-GB,5,,FHRS,5
346888,,,,,Jenny's Homemade Buffets,Other catering premises,7841,0,,468707,5,,,39666,293,environmental.health@staffsmoorlands.gov.uk,Staffordshire Moorlands,http://www.staffsmoorlands.gov.uk,,,2012-11-16,fhrs_5_en-GB,5,,FHRS,0
346889,Onecote Road,Onecote,,Leek,Jervis Arms,Pub/bar/nightclub,7843,10,,388818,10,,53.09442600000000,4327,293,environmental.health@staffsmoorlands.gov.uk,Staffordshire Moorlands,http://www.staffsmoorlands.gov.uk,-1.92884800000000,ST13 7RU,2013-09-05,fhrs_3_en-GB,3,,FHRS,10
346890,10 Off Cross Street,,,Biddulph,Joannes Catering,Other catering premises,7841,0,,388950,0,,53.11797700000000,4838,293,environmental.health@staffsmoorlands.gov.uk,Staffordshire Moorlands,http://www.staffsmoorlands.gov.uk,-2.17523400000000,ST8 6BD,2013-02-13,fhrs_4_en-GB,4,,FHRS,10
346891,Horton Road,,,Rudyard,John Munroe Hospital,Hospitals/Childcare/Caring Premises,5,10,,388871,5,,53.12484500000000,4494,293,environmental.health@staffsmoorlands.gov.uk,Staffordshire Moorlands,http://www.staffsmoorlands.gov.uk,-2.08498800000000,ST13 8RU,2014-03-17,fhrs_4_en-GB,4,,FHRS,5
346892,Felthouse Lane,,,Cheddleton,John Pointons Sport And Recreational Facility,Other catering premises,7841,10,,676372,0,,53.05277300000000,47193,293,environmental.health@staffsmoorlands.gov.uk,Staffordshire Moorlands,http://www.staffsmoorlands.gov.uk,-2.04910100000000,ST13 7BP,2014-06-19,fhrs_4_en-GB,4,,FHRS,0
346893,60B St Edward Street,,,Leek,Jo's Cakes,Other catering premises,7841,5,,538591,5,,53.10465600000000,41661,293,environmental.health@staffsmoorlands.gov.uk,Staffordshire Moorlands,http://www.staffsmoorlands.gov.uk,-2.02639700000000,ST13 5DL,2013-04-22,fhrs_4_en-GB,4,,FHRS,10
346894,Amuzement Depot,Fairground,Congleton Road,Biddulph,Jr's Tasty Snax    ( Structural Inspection Only),Mobile caterer,7846,0,,406711,0,,,36786,293,environmental.health@staffsmoorlands.gov.uk,Staffordshire Moorlands,http://www.staffsmoorlands.gov.uk,,,2013-11-26,fhrs_5_en-GB,5,,FHRS,5
346895,72 High Street,Biddulph,,Biddulph,Just Healthy Whole Foods,Retailers - other,4613,5,,388831,0,,53.11559300000000,4355,293,environmental.health@staffsmoorlands.gov.uk,Staffordshire Moorlands,http://www.staffsmoorlands.gov.uk,-2.17640400000000,ST8 6AS,2013-01-31,fhrs_5_en-GB,5,,FHRS,0
346896,33A High Street,,,Upper Tean,Keith Mills Butchers,Retailers - other,4613,10,,715637,10,,52.95363200000000,48757,293,environmental.health@staffsmoorlands.gov.uk,Staffordshire Moorlands,http://www.staffsmoorlands.gov.uk,-1.98672600000000,ST10 4DY,2014-08-30,fhrs_3_en-GB,3,,FHRS,10
346897,199 High Lane,Brown Edge,,Stoke On Trent,Keiths Supermarket,Retailers - other,4613,5,,389116,5,,53.07655200000000,5457,293,environmental.health@staffsmoorlands.gov.uk,Staffordshire Moorlands,http://www.staffsmoorlands.gov.uk,-2.13733000000000,ST6 8QA,2013-09-30,fhrs_5_en-GB,5,,FHRS,5
346898,,,,,Kims Kitchen,Other catering premises,7841,5,,481591,5,,,39886,293,environmental.health@staffsmoorlands.gov.uk,Staffordshire Moorlands,http://www.staffsmoorlands.gov.uk,,,2012-11-06,fhrs_5_en-GB,5,,FHRS,5
346899,High Street,Kingsley,,Stoke On Trent,Kingley Village Hall,Other catering premises,7841,5,,389287,0,,53.01919000000000,6379,293,environmental.health@staffsmoorlands.gov.uk,Staffordshire Moorlands,http://www.staffsmoorlands.gov.uk,-1.98382900000000,ST10 2AE,2011-07-27,fhrs_5_en-GB,5,,FHRS,0
346900,Gunn Street,Biddulph,,Stoke On Trent,Kingsfield First School,School/college/university,7845,10,,388864,10,,53.11545400000000,4440,293,environmental.health@staffsmoorlands.gov.uk,Staffordshire Moorlands,http://www.staffsmoorlands.gov.uk,-2.17358000000000,ST8 6AY,2015-01-06,fhrs_4_en-GB,4,,FHRS,0
346901,Froghall Railway Station,Kingsley Bank,Froghall,Stoke On Trent,Kingsley And Froghall Tea Rooms,Restaurant/Cafe/Canteen,1,0,,388911,0,,53.02181100000000,4680,293,environmental.health@staffsmoorlands.gov.uk,Staffordshire Moorlands,http://www.staffsmoorlands.gov.uk,-1.96732500000000,ST10 2HA,2013-02-23,fhrs_5_en-GB,5,,FHRS,5
346902,Sprinks Lane,,,Kingsley,Kingsley Bird And Falconry Centre,Restaurant/Cafe/Canteen,1,10,,389283,5,,53.02225400000000,6327,293,environmental.health@staffsmoorlands.gov.uk,Staffordshire Moorlands,http://www.staffsmoorlands.gov.uk,-1.97443600000000,ST10 2BX,2011-07-12,fhrs_3_en-GB,3,,FHRS,10
346903,Knypersley Sports Club,Tunstall Road,,Biddulph,Knypersely Sport Club,Pub/bar/nightclub,7843,0,,649167,5,,53.10289500000000,45625,293,environmental.health@staffsmoorlands.gov.uk,Staffordshire Moorlands,http://www.staffsmoorlands.gov.uk,-2.18017600000000,ST8 7AQ,2014-04-24,fhrs_5_en-GB,5,,FHRS,0
346904,Knypersley Sports Club,Tunstall Road,,Biddulph,Knypersley Cricket Club,Other catering premises,7841,10,,555696,0,,53.10289500000000,42409,293,environmental.health@staffsmoorlands.gov.uk,Staffordshire Moorlands,http://www.staffsmoorlands.gov.uk,-2.18017600000000,ST8 7AQ,2013-06-07,fhrs_4_en-GB,4,,FHRS,5
346905,Newpool Road,Knypersley,Biddulph,Stoke On Trent,Knypersley First School,School/college/university,7845,0,,388964,0,,53.10846600000000,4873,293,environmental.health@staffsmoorlands.gov.uk,Staffordshire Moorlands,http://www.staffsmoorlands.gov.uk,-2.18166300000000,ST8 6NN,2015-02-04,fhrs_5_en-GB,5,,FHRS,5
346906,141 Tunstall Road,Biddulph,,Stoke On Trent,Knypersley Stores,Retailers - other,4613,10,,389270,5,,53.10685000000000,6207,293,environmental.health@staffsmoorlands.gov.uk,Staffordshire Moorlands,http://www.staffsmoorlands.gov.uk,-2.18020800000000,ST8 7AE,2014-03-23,fhrs_4_en-GB,4,,FHRS,0
346907,Knypersley Sports Club,Tunstall Road,,Biddulph,Knypersley Victoria Football Club,Other catering premises,7841,10,,574500,5,,53.10289500000000,42885,293,environmental.health@staffsmoorlands.gov.uk,Staffordshire Moorlands,http://www.staffsmoorlands.gov.uk,-2.18017600000000,ST8 7AQ,2013-07-19,fhrs_3_en-GB,3,,FHRS,10
346908,,,,,K's Snacks,Mobile caterer,7846,5,,494304,0,,,40354,293,environmental.health@staffsmoorlands.gov.uk,Staffordshire Moorlands,http://www.staffsmoorlands.gov.uk,,,2014-10-07,fhrs_5_en-GB,5,,FHRS,0
346909,Fynney Street,,,Leek,Ladydale Residential Home,Hospitals/Childcare/Caring Premises,5,0,,389037,5,,53.10257100000000,5142,293,environmental.health@staffsmoorlands.gov.uk,Staffordshire Moorlands,http://www.staffsmoorlands.gov.uk,-2.02248200000000,ST13 5LF,2014-06-17,fhrs_5_en-GB,5,,FHRS,0
346910,Well Street Shopping Centre,Well Street,Biddulph,Stoke On Trent,Lambert's Caf,Restaurant/Cafe/Canteen,1,10,,389071,10,,53.11488400000000,5289,293,environmental.health@staffsmoorlands.gov.uk,Staffordshire Moorlands,http://www.staffsmoorlands.gov.uk,-2.17599800000000,ST8 6HR,2014-11-08,fhrs_3_en-GB,3,,FHRS,10
346911,The Lamplighter,60 Tape Street,,Cheadle,Lamplighter,Pub/bar/nightclub,7843,10,,715649,0,,52.98464500000000,49193,293,environmental.health@staffsmoorlands.gov.uk,Staffordshire Moorlands,http://www.staffsmoorlands.gov.uk,-1.98580800000000,ST10 1ES,2014-10-22,fhrs_4_en-GB,4,,FHRS,10
346912,,,,,Lanza's Ice Cream,Mobile caterer,7846,0,,715644,0,,,49089,293,environmental.health@staffsmoorlands.gov.uk,Staffordshire Moorlands,http://www.staffsmoorlands.gov.uk,,,2014-10-22,fhrs_5_en-GB,5,,FHRS,0
346913,3 - 4 The Smithfield Centre,Ashbourne Road,,Leek,Laural Inn,Restaurant/Cafe/Canteen,1,10,,388786,10,,53.10517800000000,18426,293,environmental.health@staffsmoorlands.gov.uk,Staffordshire Moorlands,http://www.staffsmoorlands.gov.uk,-2.02143800000000,ST13 5JW,2014-02-26,fhrs_3_en-GB,3,,FHRS,5
346914,74 Derby Street,,,Leek,Lawtons Pies,Restaurant/Cafe/Canteen,1,5,,388906,10,,53.10561000000000,4646,293,environmental.health@staffsmoorlands.gov.uk,Staffordshire Moorlands,http://www.staffsmoorlands.gov.uk,-2.02203600000000,ST13 5AJ,2014-04-08,fhrs_4_en-GB,4,,FHRS,5
346915,Cross Street Mill,Cross Street,,Leek,Leaps And Bounds,Other catering premises,7841,0,,389192,5,,53.10520600000000,5803,293,environmental.health@staffsmoorlands.gov.uk,Staffordshire Moorlands,http://www.staffsmoorlands.gov.uk,-2.01770400000000,ST13 6BL,2014-01-08,fhrs_5_en-GB,5,,FHRS,5
346916,Manifold Valley Road,Waterhouses,,Stoke On Trent,Lee House Farm Tea Rooms,Restaurant/Cafe/Canteen,1,0,,389022,0,,53.05968000000000,5090,293,environmental.health@staffsmoorlands.gov.uk,Staffordshire Moorlands,http://www.staffsmoorlands.gov.uk,-1.86262600000000,ST10 3JE,2012-04-13,fhrs_5_en-GB,5,,FHRS,5
346917,Junction Road,,,Leek,Leek Cattle Market Cafe,Restaurant/Cafe/Canteen,1,5,,389149,10,,53.10033100000000,5573,293,environmental.health@staffsmoorlands.gov.uk,Staffordshire Moorlands,http://www.staffsmoorlands.gov.uk,-2.03114300000000,ST13 5QL,2013-10-08,fhrs_4_en-GB,4,,FHRS,5
346918,10 Stockwell Street,,,Leek,Leek College Of Further Education,School/college/university,7845,5,,388939,5,,53.10738900000000,4815,293,environmental.health@staffsmoorlands.gov.uk,Staffordshire Moorlands,http://www.staffsmoorlands.gov.uk,-2.02368000000000,ST13 6DP,2013-02-05,fhrs_5_en-GB,5,,FHRS,0
346919,69 Queens Drive,,,Leek,Leek Convenience Store,Retailers - other,4613,20,,389345,10,,53.11433100000000,7170,293,environmental.health@staffsmoorlands.gov.uk,Staffordshire Moorlands,http://www.staffsmoorlands.gov.uk,-2.00759400000000,ST13 6QF,2014-01-14,fhrs_1_en-GB,1,,FHRS,0
346920,East Street,,,Leek,Leek First School,School/college/university,7845,0,,388934,5,,53.46962800000000,4787,293,environmental.health@staffsmoorlands.gov.uk,Staffordshire Moorlands,http://www.staffsmoorlands.gov.uk,-1.89554100000000,SK13 6LF,2014-09-29,fhrs_5_en-GB,5,,FHRS,5
346921,Cheddleton Road,,,Leek,Leek Golf Club,Restaurant/Cafe/Canteen,1,10,,389120,5,,53.09558700000000,5468,293,environmental.health@staffsmoorlands.gov.uk,Staffordshire Moorlands,http://www.staffsmoorlands.gov.uk,-2.02368800000000,ST13 5RE,2015-01-13,fhrs_4_en-GB,4,,FHRS,5
346922,Springfield Road,,,Leek,Leek High School,School/college/university,7845,0,,389202,0,,53.10722000000000,5861,293,environmental.health@staffsmoorlands.gov.uk,Staffordshire Moorlands,http://www.staffsmoorlands.gov.uk,-2.00987800000000,ST13 6EU,2014-11-19,fhrs_5_en-GB,5,,FHRS,5
346923,Macclesfield Road,,,Leek,Leek Hockey Club,Other catering premises,7841,5,,388990,0,,53.11038700000000,4971,293,environmental.health@staffsmoorlands.gov.uk,Staffordshire Moorlands,http://www.staffsmoorlands.gov.uk,-2.04063700000000,ST13 8LD,2014-08-09,fhrs_4_en-GB,4,,FHRS,10
346924,2-4 King Street,,,Leek,Leek Masonic Club,Other catering premises,7841,0,,389089,0,,53.10312800000000,5335,293,environmental.health@staffsmoorlands.gov.uk,Staffordshire Moorlands,http://www.staffsmoorlands.gov.uk,-2.02623200000000,ST13 5NW,2013-09-09,fhrs_5_en-GB,5,,FHRS,5
346925,Ashbourne Road,,,Leek,Leek Moorlands Hospital,Hospitals/Childcare/Caring Premises,5,0,,389023,0,,53.10279800000000,5098,293,environmental.health@staffsmoorlands.gov.uk,Staffordshire Moorlands,http://www.staffsmoorlands.gov.uk,-2.00972700000000,ST13 5BQ,2013-11-18,fhrs_5_en-GB,5,,FHRS,0
346926,2 Haywood Street,,,Leek,Leek Oatcakes,Takeaway/sandwich shop,7844,5,,389182,5,,53.10446800000000,5742,293,environmental.health@staffsmoorlands.gov.uk,Staffordshire Moorlands,http://www.staffsmoorlands.gov.uk,-2.02349900000000,ST13 5JX,2013-12-10,fhrs_4_en-GB,4,,FHRS,10
346927,St Edwards Park,Cheddleton,,Leek,Leek Rugby Club,Pub/bar/nightclub,7843,0,,389249,0,,53.08703800000000,6102,293,environmental.health@staffsmoorlands.gov.uk,Staffordshire Moorlands,http://www.staffsmoorlands.gov.uk,-2.02202600000000,ST13 5RD,2014-12-12,fhrs_5_en-GB,5,,FHRS,0
346928,Macclesfield Road,,,Leek,Leek Town Football Club,Other catering premises,7841,10,,389091,5,,53.11038700000000,5338,293,environmental.health@staffsmoorlands.gov.uk,Staffordshire Moorlands,http://www.staffsmoorlands.gov.uk,-2.04063700000000,ST13 8LD,2013-07-26,fhrs_4_en-GB,4,,FHRS,5
346929,46 Cheadle Road,Forsbrook,,Stoke On Trent,Lesleys Lunch Box,Takeaway/sandwich shop,7844,0,,388921,5,,52.97061000000000,4730,293,environmental.health@staffsmoorlands.gov.uk,Staffordshire Moorlands,http://www.staffsmoorlands.gov.uk,-2.05456100000000,ST11 9BX,2014-02-12,fhrs_5_en-GB,5,,FHRS,0
346930,Various,,,Locations,Lets Go Mexicana,Mobile caterer,7846,10,,668345,5,,,45797,293,environmental.health@staffsmoorlands.gov.uk,Staffordshire Moorlands,http://www.staffsmoorlands.gov.uk,,,2013-11-20,fhrs_4_en-GB,4,,FHRS,5
346931,The Woodhouse Hospital,Lockwood Road,Cheadle,Stoke On Trent,Lighthouse Healthcare,Hospitals/Childcare/Caring Premises,5,5,,389167,5,,53.00029900000000,5670,293,environmental.health@staffsmoorlands.gov.uk,Staffordshire Moorlands,http://www.staffsmoorlands.gov.uk,-1.96243900000000,ST10 4QU,2014-11-06,fhrs_5_en-GB,5,,FHRS,5
346932,,,,,Little Bear's Bakery,Other catering premises,7841,5,,389339,5,,,7142,293,environmental.health@staffsmoorlands.gov.uk,Staffordshire Moorlands,http://www.staffsmoorlands.gov.uk,,,2012-04-25,fhrs_5_en-GB,5,,FHRS,5
346933,Alton Towers,Farley Lane,,Farley,Little Explorers,Restaurant/Cafe/Canteen,1,0,,668346,5,,52.98832400000000,46581,293,environmental.health@staffsmoorlands.gov.uk,Staffordshire Moorlands,http://www.staffsmoorlands.gov.uk,-1.88866800000000,ST10 4DB,2014-05-27,fhrs_5_en-GB,5,,FHRS,0
346934,,,,,Little House Catering,Mobile caterer,7846,0,,550825,0,,,42021,293,environmental.health@staffsmoorlands.gov.uk,Staffordshire Moorlands,http://www.staffsmoorlands.gov.uk,,,2013-05-07,fhrs_5_en-GB,5,,FHRS,5
346935,1-5 Russell Street,,,Leek,Little Poland,Restaurant/Cafe/Canteen,1,0,,388929,0,,53.10496200000000,4776,293,environmental.health@staffsmoorlands.gov.uk,Staffordshire Moorlands,http://www.staffsmoorlands.gov.uk,-2.02429100000000,ST13 5JF,2013-04-18,fhrs_5_en-GB,5,,FHRS,5
346936,3 Bath Street,,,Leek,Live Love Loaf,Retailers - other,4613,10,,700609,5,,53.10646400000000,48213,293,environmental.health@staffsmoorlands.gov.uk,Staffordshire Moorlands,http://www.staffsmoorlands.gov.uk,-2.02205100000000,ST13 6JQ,2014-09-12,fhrs_3_en-GB,3,,FHRS,10
346937,Mill Lane,,,Wetley Rocks,Lodge Farm Equestrian Centre,Restaurant/Cafe/Canteen,1,0,,389302,0,,53.04146900000000,6507,293,environmental.health@staffsmoorlands.gov.uk,Staffordshire Moorlands,http://www.staffsmoorlands.gov.uk,-2.05905100000000,ST9 0BN,2014-02-16,fhrs_5_en-GB,5,,FHRS,0
346938,Mill Farm,Gratton Lane,,Gratton,Lollapalooza,Mobile caterer,7846,0,,389250,0,,53.09407000000000,6103,293,environmental.health@staffsmoorlands.gov.uk,Staffordshire Moorlands,http://www.staffsmoorlands.gov.uk,-2.10359300000000,ST9 9AG,2013-11-11,fhrs_5_en-GB,5,,FHRS,5
346939,Smithy Bank,Alton,,Stoke On Trent,Londis,Retailers - other,4613,5,,389054,5,,53.01853561401367,5200,293,environmental.health@staffsmoorlands.gov.uk,Staffordshire Moorlands,http://www.staffsmoorlands.gov.uk,-2.15774989128113,ST10 4AD,2015-01-23,fhrs_5_en-GB,5,,FHRS,5
346940,The Market Hall,Longnor,,Staffordshire Moorlands,Longnor Craft Centre,Restaurant/Cafe/Canteen,1,0,,389151,5,,53.18150500000000,5597,293,environmental.health@staffsmoorlands.gov.uk,Staffordshire Moorlands,http://www.staffsmoorlands.gov.uk,-1.86849300000000,SK17 0NT,2013-10-15,fhrs_5_en-GB,5,,FHRS,5
346941,Market Place,,,Longnor,Longnor General Store,Retailers - other,4613,5,,389340,5,,53.18150500000000,7146,293,environmental.health@staffsmoorlands.gov.uk,Staffordshire Moorlands,http://www.staffsmoorlands.gov.uk,-1.86849300000000,SK17 0NT,2014-01-07,fhrs_4_en-GB,4,,FHRS,10
346942,Longnor Post Office,High Street,,Longnor,Longnor Post Office And General Store,Retailers - other,4613,10,,389335,5,,53.18100200000000,7122,293,environmental.health@staffsmoorlands.gov.uk,Staffordshire Moorlands,http://www.staffsmoorlands.gov.uk,-1.86833000000000,SK17 0NS,2014-04-15,fhrs_3_en-GB,3,,FHRS,10
346943,School Drive,Oakamoor,,Stoke On Trent,Lord Nelson Inn,Pub/bar/nightclub,7843,5,,389232,5,,53.00276000000000,6027,293,environmental.health@staffsmoorlands.gov.uk,Staffordshire Moorlands,http://www.staffsmoorlands.gov.uk,-1.92157800000000,ST10 3DQ,2014-10-31,fhrs_4_en-GB,4,,FHRS,10
346944,The Lord Shrewsbury,New Road,,Alton,Lord Shrewsbury,Restaurant/Cafe/Canteen,1,0,,717519,0,,52.97777500000000,49553,293,environmental.health@staffsmoorlands.gov.uk,Staffordshire Moorlands,http://www.staffsmoorlands.gov.uk,-1.89341600000000,ST10 4AF,2014-11-18,fhrs_5_en-GB,5,,FHRS,0
346945,,,,,Lorraine Fenton Cope,Other catering premises,7841,10,,632730,5,,,44697,293,environmental.health@staffsmoorlands.gov.uk,Staffordshire Moorlands,http://www.staffsmoorlands.gov.uk,,,2014-02-04,fhrs_4_en-GB,4,,FHRS,5
346946,Lower Hurst Farm,Mill Lane,,Hulme End,Lower Hurst Farm (Barn Events),Other catering premises,7841,5,,468706,0,,53.13340400000000,39662,293,environmental.health@staffsmoorlands.gov.uk,Staffordshire Moorlands,http://www.staffsmoorlands.gov.uk,-1.82553400000000,SK17 0HJ,2012-11-15,fhrs_5_en-GB,5,,FHRS,5
346947,41 High Street,,,Biddulph,Lucky Star,Takeaway/sandwich shop,7844,10,,481590,5,,53.11692500000000,39878,293,environmental.health@staffsmoorlands.gov.uk,Staffordshire Moorlands,http://www.staffsmoorlands.gov.uk,-2.17545400000000,ST8 6AD,2014-01-07,fhrs_4_en-GB,4,,FHRS,5
346948,9 Talbot Street,,,Leek,Maggie D's,Takeaway/sandwich shop,7844,10,,493127,5,,53.10476500000000,40278,293,environmental.health@staffsmoorlands.gov.uk,Staffordshire Moorlands,http://www.staffsmoorlands.gov.uk,-2.02009400000000,ST13 5JT,2014-06-27,fhrs_4_en-GB,4,,FHRS,5
346949,Alton Towers,Farley Lane,,Alton,Magic Hq,Restaurant/Cafe/Canteen,1,0,,388957,0,,52.98662500000000,4846,293,environmental.health@staffsmoorlands.gov.uk,Staffordshire Moorlands,http://www.staffsmoorlands.gov.uk,-1.89874200000000,ST104BZ,2013-03-20,fhrs_5_en-GB,5,,FHRS,5
346950,8 Cawdry Buildings,Fountain Street,,Leek,Mandys Greengrocers,Retailers - other,4613,0,,389347,5,,53.10592500000000,7178,293,environmental.health@staffsmoorlands.gov.uk,Staffordshire Moorlands,http://www.staffsmoorlands.gov.uk,-2.02049800000000,ST13 6JP,2012-04-18,fhrs_4_en-GB,4,,FHRS,10
346951,Fenns House,Wetton Road,,Butterton,Manifold Craft Barn,Restaurant/Cafe/Canteen,1,10,,574502,5,,53.10543500000000,42993,293,environmental.health@staffsmoorlands.gov.uk,Staffordshire Moorlands,http://www.staffsmoorlands.gov.uk,-1.87983700000000,ST13 7ST,2013-07-27,fhrs_4_en-GB,4,,FHRS,0
346952,Market Place,Longnor,,Staffordshire Moorlands,Manifold Fish And Chip Shop,Takeaway/sandwich shop,7844,0,,388892,0,,53.18150500000000,4576,293,environmental.health@staffsmoorlands.gov.uk,Staffordshire Moorlands,http://www.staffsmoorlands.gov.uk,-1.86849300000000,SK17 0NT,2013-06-25,fhrs_5_en-GB,5,,FHRS,0
346953,Leek Road,Warslow,,Staffordshire moorlands,Manifold Primary School,School/college/university,7845,0,,388978,0,,53.12532500000000,4937,293,environmental.health@staffsmoorlands.gov.uk,Staffordshire Moorlands,http://www.staffsmoorlands.gov.uk,-1.87791400000000,SK17 0JR,2014-03-18,fhrs_5_en-GB,5,,FHRS,0
346954,,,,,Manifold Valley Meats,Manufacturers/packers,7839,5,,433475,0,,,37722,293,environmental.health@staffsmoorlands.gov.uk,Staffordshire Moorlands,http://www.staffsmoorlands.gov.uk,,,2014-02-24,fhrs_5_en-GB,5,,FHRS,0
346955,,,,,Manor Cakes,Other catering premises,7841,10,,428830,5,,,37526,293,environmental.health@staffsmoorlands.gov.uk,Staffordshire Moorlands,http://www.staffsmoorlands.gov.uk,,,2012-07-23,fhrs_4_en-GB,4,,FHRS,5
346956,1-3 Tean Road,,,Cheadle,Marco Polo,Takeaway/sandwich shop,7844,5,,389007,10,,52.98317100000000,5032,293,environmental.health@staffsmoorlands.gov.uk,Staffordshire Moorlands,http://www.staffsmoorlands.gov.uk,-1.98574900000000,ST101LG,2013-07-10,fhrs_4_en-GB,4,,FHRS,5
346957,,,,,Marilyn Kirkby,Other catering premises,7841,5,,524943,0,,,41157,293,environmental.health@staffsmoorlands.gov.uk,Staffordshire Moorlands,http://www.staffsmoorlands.gov.uk,,,2013-03-18,fhrs_5_en-GB,5,,FHRS,0
346958,Church Lane,,,Ipstones,Marquis Of Granby,Pub/bar/nightclub,7843,0,,389272,0,,53.04747700000000,6227,293,environmental.health@staffsmoorlands.gov.uk,Staffordshire Moorlands,http://www.staffsmoorlands.gov.uk,-1.97224300000000,ST10 2LD,2014-05-22,fhrs_5_en-GB,5,,FHRS,0
346959,23-24 Buttermarket,,,Leek,Marys Snack Bar,Restaurant/Cafe/Canteen,1,10,,388986,5,,53.10754200000000,4946,293,environmental.health@staffsmoorlands.gov.uk,Staffordshire Moorlands,http://www.staffsmoorlands.gov.uk,-2.02426300000000,ST13 6HQ,2013-02-15,fhrs_3_en-GB,3,,FHRS,10
346960,100 Tean Road,Cheadle,,Cheadle,Master Potter   Hungry Horse,Pub/bar/nightclub,7843,5,,388868,0,,52.97640200000000,4451,293,environmental.health@staffsmoorlands.gov.uk,Staffordshire Moorlands,http://www.staffsmoorlands.gov.uk,-1.98861000000000,ST101LW,2013-04-09,fhrs_5_en-GB,5,,FHRS,0
346961,,,,,Mc Carthy Catering,Other catering premises,7841,10,,638493,0,,,45293,293,environmental.health@staffsmoorlands.gov.uk,Staffordshire Moorlands,http://www.staffsmoorlands.gov.uk,,,2014-02-07,fhrs_4_en-GB,4,,FHRS,0
346962,131 Tean Road,,,Cheadle,Mccolls,Retailers - other,4613,10,,389190,5,,52.97692300000000,5786,293,environmental.health@staffsmoorlands.gov.uk,Staffordshire Moorlands,http://www.staffsmoorlands.gov.uk,-1.98759800000000,ST10 1LS,2013-11-11,fhrs_3_en-GB,3,,FHRS,10
346963,Conway Road,Knypersley,Biddulph,Stoke On Trent,Mellors Catering Services At Biddulph High School,School/college/university,7845,5,,389143,5,,53.10559700000000,5548,293,environmental.health@staffsmoorlands.gov.uk,Staffordshire Moorlands,http://www.staffsmoorlands.gov.uk,-2.17074700000000,ST8 7AR,2014-11-06,fhrs_5_en-GB,5,,FHRS,5
346964,Mutiny Bay,Alton Towers,Farley Lane,Alton,Mexican Cantina,Restaurant/Cafe/Canteen,1,0,,389259,5,,52.98662500000000,6127,293,environmental.health@staffsmoorlands.gov.uk,Staffordshire Moorlands,http://www.staffsmoorlands.gov.uk,-1.89874200000000,ST104BZ,2014-04-29,fhrs_5_en-GB,5,,FHRS,0
346965,Vehicle Registered In Biddulph,Biddulph,,Stoke on Trent,Micky's Mister Softee,Takeaway/sandwich shop,7844,5,,389169,5,,53.11568000000000,5672,293,environmental.health@staffsmoorlands.gov.uk,Staffordshire Moorlands,http://www.staffsmoorlands.gov.uk,-2.17620000000000,,2010-10-29,fhrs_5_en-GB,5,,FHRS,5
346966,72 Mill Hayes Road,,,Knypersley,Mill Hayes Retirement Home,Hospitals/Childcare/Caring Premises,5,5,,389015,0,,53.09519300000000,5078,293,environmental.health@staffsmoorlands.gov.uk,Staffordshire Moorlands,http://www.staffsmoorlands.gov.uk,-2.17933700000000,ST8 7PS,2013-07-09,fhrs_5_en-GB,5,,FHRS,0
346967,,,,,Mills Kitchen,Other catering premises,7841,5,,409273,0,,,36922,293,environmental.health@staffsmoorlands.gov.uk,Staffordshire Moorlands,http://www.staffsmoorlands.gov.uk,,,2012-06-14,fhrs_5_en-GB,5,,FHRS,0
346968,,,,,Mojo Coffee Co,Other catering premises,7841,5,,494303,0,,,40326,293,environmental.health@staffsmoorlands.gov.uk,Staffordshire Moorlands,http://www.staffsmoorlands.gov.uk,,,2013-01-11,fhrs_5_en-GB,5,,FHRS,0
346969,,,,,Mojo Coffee Company,Mobile caterer,7846,0,,447096,0,,,38302,293,environmental.health@staffsmoorlands.gov.uk,Staffordshire Moorlands,http://www.staffsmoorlands.gov.uk,,,2012-09-04,fhrs_5_en-GB,5,,FHRS,0
346970,Various locations around Ilam,,,Ilam,Mollys Ices,Mobile caterer,7846,10,,389039,5,,,5150,293,environmental.health@staffsmoorlands.gov.uk,Staffordshire Moorlands,http://www.staffsmoorlands.gov.uk,,,2014-03-19,fhrs_4_en-GB,4,,FHRS,5
346971,9 Cawdry Buildings,Fountain Street,,Leek,Monrose,Takeaway/sandwich shop,7844,5,,388937,5,,53.10592500000000,4800,293,environmental.health@staffsmoorlands.gov.uk,Staffordshire Moorlands,http://www.staffsmoorlands.gov.uk,-2.02049800000000,ST13 6JP,2013-03-11,fhrs_4_en-GB,4,,FHRS,10
346972,Market Place,,,Leek,Montys,Takeaway/sandwich shop,7844,0,,389098,5,,53.10631900000000,5386,293,environmental.health@staffsmoorlands.gov.uk,Staffordshire Moorlands,http://www.staffsmoorlands.gov.uk,-2.02568100000000,ST13 5HJ,2014-01-20,fhrs_5_en-GB,5,,FHRS,5
346973,448 New Street,Biddulph,,Stoke On Trent,Moor Store,Retailers - other,4613,10,,388876,5,,53.12077400000000,4512,293,environmental.health@staffsmoorlands.gov.uk,Staffordshire Moorlands,http://www.staffsmoorlands.gov.uk,-2.14046000000000,ST8 7HZ,2014-05-13,fhrs_2_en-GB,2,,FHRS,15
346974,,,,,Moorland Fine Foods,Manufacturers/packers,7839,5,,388781,0,,,18078,293,environmental.health@staffsmoorlands.gov.uk,Staffordshire Moorlands,http://www.staffsmoorlands.gov.uk,,,2014-05-28,fhrs_5_en-GB,5,,FHRS,0
346975,Stuart Avenue,,,Draycott In The Moors,Moorland Munchies,Mobile caterer,7846,10,,388789,5,,52.96300400000000,18450,293,environmental.health@staffsmoorlands.gov.uk,Staffordshire Moorlands,http://www.staffsmoorlands.gov.uk,-2.04247300000000,,2012-05-31,fhrs_4_en-GB,4,,FHRS,5
346976,Trinity Court ,,,Stockton Brook,Moorland Nursery School,Hospitals/Childcare/Caring Premises,5,10,,389309,0,,53.06665400000000,6566,293,environmental.health@staffsmoorlands.gov.uk,Staffordshire Moorlands,http://www.staffsmoorlands.gov.uk,-2.12167400000000,ST9 9NH,2011-10-17,fhrs_4_en-GB,4,,FHRS,5
346977,School Road,,,Bagnall,Moorland Village Hall,Other catering premises,7841,0,,389144,0,,53.05787500000000,5557,293,environmental.health@staffsmoorlands.gov.uk,Staffordshire Moorlands,http://www.staffsmoorlands.gov.uk,-2.07966900000000,ST9 9RJ,2010-09-21,fhrs_5_en-GB,5,,FHRS,5
346978,Attlee Road,,,Cheadle,Moorlands 6th Form Centre,School/college/university,7845,10,,389252,0,,52.98013300000000,6112,293,environmental.health@staffsmoorlands.gov.uk,Staffordshire Moorlands,http://www.staffsmoorlands.gov.uk,-1.98869900000000,ST10 1LL,2014-04-29,fhrs_4_en-GB,4,,FHRS,5
346979,14 Moorhouse Street,,,Leek,Moorlands Balti,Takeaway/sandwich shop,7844,10,,388998,5,,53.10481000000000,5013,293,environmental.health@staffsmoorlands.gov.uk,Staffordshire Moorlands,http://www.staffsmoorlands.gov.uk,-2.01967500000000,ST13 5NB,2014-09-03,fhrs_3_en-GB,3,,FHRS,10
346980,Leek Road,,,Cheadle,Moorlands Day Centre,Hospitals/Childcare/Caring Premises,5,0,,389282,0,,52.98960700000000,6326,293,environmental.health@staffsmoorlands.gov.uk,Staffordshire Moorlands,http://www.staffsmoorlands.gov.uk,-1.98670000000000,ST10 1JF,2011-07-18,fhrs_5_en-GB,5,,FHRS,5
346981,Buxton Road,,,Leek,Moorlands Day Service,Hospitals/Childcare/Caring Premises,5,0,,389178,5,,53.10994400000000,5710,293,environmental.health@staffsmoorlands.gov.uk,Staffordshire Moorlands,http://www.staffsmoorlands.gov.uk,-2.00913100000000,ST13 6NF,2014-05-28,fhrs_5_en-GB,5,,FHRS,0
346982,Unit 2b,Moorlands Walk,,Cheadle,"Moorlands Fast Food, Cheadle",Takeaway/sandwich shop,7844,10,,388844,10,,52.98749500000000,4386,293,environmental.health@staffsmoorlands.gov.uk,Staffordshire Moorlands,http://www.staffsmoorlands.gov.uk,-1.98853300000000,ST10 1AY,2014-03-03,fhrs_3_en-GB,3,,FHRS,10
346983,Bridle Path,,,Werrington,Moorlands Home Link,Hospitals/Childcare/Caring Premises,5,5,,389362,0,,53.02273100000000,7262,293,environmental.health@staffsmoorlands.gov.uk,Staffordshire Moorlands,http://www.staffsmoorlands.gov.uk,-2.10458500000000,ST2 9EG,2013-09-04,fhrs_5_en-GB,5,,FHRS,0
346984,Cheadle Methodist Church,Chapel Street,,Cheadle,Moorlands Home Link,Other catering premises,7841,5,,389334,0,,52.98516600000000,7050,293,environmental.health@staffsmoorlands.gov.uk,Staffordshire Moorlands,http://www.staffsmoorlands.gov.uk,-1.98713400000000,ST10 1EE,2015-02-06,fhrs_5_en-GB,5,,FHRS,0
346985,Harewood Park,Leek Road,,Cheadle,Moorlands Rehabilitation (Staffs) Ltd,Hospitals/Childcare/Caring Premises,5,0,,388819,0,,52.99532500000000,4331,293,environmental.health@staffsmoorlands.gov.uk,Staffordshire Moorlands,http://www.staffsmoorlands.gov.uk,-1.99365600000000,ST10 2EE,2014-08-06,fhrs_5_en-GB,5,,FHRS,0
346986,Cellarhead Road,,,Cellarhead,Moorside High School,School/college/university,7845,5,,389255,5,,53.02735800000000,6121,293,environmental.health@staffsmoorlands.gov.uk,Staffordshire Moorlands,http://www.staffsmoorlands.gov.uk,-2.07139200000000,ST9 0HP,2014-03-05,fhrs_5_en-GB,5,,FHRS,5
346987,Leek Road,,,Werrington,Moorville Hall,Restaurant/Cafe/Canteen,1,10,,389186,5,,53.01597700000000,5771,293,environmental.health@staffsmoorlands.gov.uk,Staffordshire Moorlands,http://www.staffsmoorlands.gov.uk,-2.07317600000000,ST9 0DG,2013-12-02,fhrs_4_en-GB,4,,FHRS,5
346988,82 High Street,,,Biddulph,Morning Fresh,Retailers - other,4613,0,,388949,0,,53.11559300000000,4835,293,environmental.health@staffsmoorlands.gov.uk,Staffordshire Moorlands,http://www.staffsmoorlands.gov.uk,-2.17640400000000,ST8 6AS,2014-03-21,fhrs_5_en-GB,5,,FHRS,5
346989,Burton Street,,,Leek,Morrisons Petrol Station,Retailers - supermarkets/hypermarkets,7840,0,,389146,0,,53.10146300000000,5562,293,environmental.health@staffsmoorlands.gov.uk,Staffordshire Moorlands,http://www.staffsmoorlands.gov.uk,-2.03366800000000,ST13 8BU,2012-08-29,fhrs_5_en-GB,5,,FHRS,0
346990,Newcastle Road,,,Leek,Morrisons Supermarkets Plc,Retailers - supermarkets/hypermarkets,7840,0,,389147,5,,53.09963900000000,5563,293,environmental.health@staffsmoorlands.gov.uk,Staffordshire Moorlands,http://www.staffsmoorlands.gov.uk,-2.03186000000000,ST13 5QB,2014-09-04,fhrs_5_en-GB,5,,FHRS,5
346991,Well Street,,,Cheadle,Morrisons Supermarkets Plc,Retailers - supermarkets/hypermarkets,7840,5,,388919,5,,52.98637900000000,4698,293,environmental.health@staffsmoorlands.gov.uk,Staffordshire Moorlands,http://www.staffsmoorlands.gov.uk,-1.98378200000000,ST10 1EY,2014-11-13,fhrs_4_en-GB,4,,FHRS,10
346992,56b High Street,,,Cheadle,Moshi Coffee,Restaurant/Cafe/Canteen,1,10,,389175,0,,52.98782700000000,5698,293,environmental.health@staffsmoorlands.gov.uk,Staffordshire Moorlands,http://www.staffsmoorlands.gov.uk,-1.98865200000000,ST101AF,2013-11-12,fhrs_4_en-GB,4,,FHRS,5
346993,52 Derby Street,,,Leek,"Mr Simms Olde Sweet Shoppe, Leek",Retailers - other,4613,10,,389243,10,,53.10561000000000,6080,293,environmental.health@staffsmoorlands.gov.uk,Staffordshire Moorlands,http://www.staffsmoorlands.gov.uk,-2.02203600000000,St13 5AJ,2013-04-18,fhrs_3_en-GB,3,,FHRS,5
346994,48 Cheadle Road,,,Forsbrook,Mr Sims Oatcake Shop,Takeaway/sandwich shop,7844,10,,715643,0,,52.97061000000000,48813,293,environmental.health@staffsmoorlands.gov.uk,Staffordshire Moorlands,http://www.staffsmoorlands.gov.uk,-2.05456100000000,ST11 9BX,2014-10-14,fhrs_4_en-GB,4,,FHRS,5
346995,55 Stockwell Street,,,Leek,Mr Vongs,Takeaway/sandwich shop,7844,10,,389010,10,,53.10721000000000,5055,293,environmental.health@staffsmoorlands.gov.uk,Staffordshire Moorlands,http://www.staffsmoorlands.gov.uk,-2.02236500000000,ST13 6DH,2014-01-15,fhrs_3_en-GB,3,,FHRS,5
346996,Alton Towers,Farley Lane,,Alton,Mutiny Bay Donuts,Takeaway/sandwich shop,7844,5,,389082,5,,52.98832400000000,5322,293,environmental.health@staffsmoorlands.gov.uk,Staffordshire Moorlands,http://www.staffsmoorlands.gov.uk,-1.88866800000000,ST104DB,2014-02-17,fhrs_4_en-GB,4,,FHRS,10
346997,9 High Street,,,Leek,Napoli,Other catering premises,7841,10,,609349,10,,53.10578800000000,43633,293,environmental.health@staffsmoorlands.gov.uk,Staffordshire Moorlands,http://www.staffsmoorlands.gov.uk,-2.02726400000000,ST13 5DZ,2013-10-10,fhrs_3_en-GB,3,,FHRS,10
346998,Ilam Moor Lane,Ilam,,Staffordshire,National Trust Tea Room,Restaurant/Cafe/Canteen,1,0,,389231,0,,53.05516100000000,6016,293,environmental.health@staffsmoorlands.gov.uk,Staffordshire Moorlands,http://www.staffsmoorlands.gov.uk,-1.80054600000000,DE6 2AZ,2014-09-20,fhrs_5_en-GB,5,,FHRS,0
346999,16 Stockwell Street,,,Leek,Naz Restaurant,Restaurant/Cafe/Canteen,1,5,,433477,5,,53.10696700000000,37746,293,environmental.health@staffsmoorlands.gov.uk,Staffordshire Moorlands,http://www.staffsmoorlands.gov.uk,-2.02278300000000,ST13 6DS,2014-02-05,fhrs_5_en-GB,5,,FHRS,0
347000,118 Brown Lees Road,,,Brown Lees,Nelson Inn,Pub/bar/nightclub,7843,5,,389348,0,,53.09888100000000,7182,293,environmental.health@staffsmoorlands.gov.uk,Staffordshire Moorlands,http://www.staffsmoorlands.gov.uk,-2.18346000000000,ST8 6PW,2012-01-11,fhrs_4_en-GB,4,,FHRS,10
347001,270 Uttoxeter Road,,,Blythe Bridge,New Chips On The Block,Takeaway/sandwich shop,7844,5,,389095,5,,52.96567180000000,5369,293,environmental.health@staffsmoorlands.gov.uk,Staffordshire Moorlands,http://www.staffsmoorlands.gov.uk,-2.05723682000000,ST 11 9LY,2013-10-07,fhrs_4_en-GB,4,,FHRS,10
347002,27 High Street,,,Biddulph,New Lai Wah,Takeaway/sandwich shop,7844,10,,553112,5,,53.11747400000000,42209,293,environmental.health@staffsmoorlands.gov.uk,Staffordshire Moorlands,http://www.staffsmoorlands.gov.uk,-2.17491800000000,ST8 6AW,2012-04-25,fhrs_4_en-GB,4,,FHRS,5
347003,Tittesworth Visitors Centre,Tittesworth,,Leek,New Leaf Catering Partnership,Restaurant/Cafe/Canteen,1,5,,389150,5,,53.14096500000000,5595,293,environmental.health@staffsmoorlands.gov.uk,Staffordshire Moorlands,http://www.staffsmoorlands.gov.uk,-2.00251600000000,ST13 8SW,2014-02-14,fhrs_5_en-GB,5,,FHRS,0
347004,Royal Walk ,,,Cheadle,Newlands Residential Home,Hospitals/Childcare/Caring Premises,5,5,,388780,5,,52.98354000000000,18050,293,environmental.health@staffsmoorlands.gov.uk,Staffordshire Moorlands,http://www.staffsmoorlands.gov.uk,-1.99133400000000,ST10 1EH,2012-05-15,fhrs_5_en-GB,5,,FHRS,5
347005,No 16 Coffee House,16 Tape Street,,Cheadle,No 16 Coffee House,Restaurant/Cafe/Canteen,1,0,,631262,0,,52.98801600000000,44605,293,environmental.health@staffsmoorlands.gov.uk,Staffordshire Moorlands,http://www.staffsmoorlands.gov.uk,-1.98716300000000,ST10 1BD,2014-01-27,fhrs_5_en-GB,5,,FHRS,5
347006,1 Fynney Street,,,Leek,Norton House,Other catering premises,7841,0,,389326,0,,53.10257100000000,6701,293,environmental.health@staffsmoorlands.gov.uk,Staffordshire Moorlands,http://www.staffsmoorlands.gov.uk,-2.02248200000000,ST13 5LF,2014-12-19,fhrs_5_en-GB,5,,FHRS,0
347007,Craigside,,,Biddulph,Nursery Thymes,Hospitals/Childcare/Caring Premises,5,0,,389160,5,,53.11872800000000,5660,293,environmental.health@staffsmoorlands.gov.uk,Staffordshire Moorlands,http://www.staffsmoorlands.gov.uk,-2.17801600000000,ST8 6BN,2014-11-05,fhrs_5_en-GB,5,,FHRS,5
347008,12 Congleton Road,,,Biddulph,Old Sam's,Pub/bar/nightclub,7843,10,,524944,5,,53.11843900000000,41169,293,environmental.health@staffsmoorlands.gov.uk,Staffordshire Moorlands,http://www.staffsmoorlands.gov.uk,-2.17293500000000,ST8 6DX,2013-03-19,fhrs_4_en-GB,4,,FHRS,0
347009,Onecote Village Hall,Douse Lane,,Onecote,Onecote Village Hall,Other catering premises,7841,10,,511466,5,,53.09442600000000,40749,293,environmental.health@staffsmoorlands.gov.uk,Staffordshire Moorlands,http://www.staffsmoorlands.gov.uk,-1.92884800000000,ST13 7RU,2013-02-06,fhrs_4_en-GB,4,,FHRS,0
347010,Our Lady Of Grace Catholic Academy,Woodland Street,,Biddulph,Our Lady Of Grace Catholic Academy,School/college/university,7845,0,,701806,0,,53.11108700000000,48285,293,environmental.health@staffsmoorlands.gov.uk,Staffordshire Moorlands,http://www.staffsmoorlands.gov.uk,-2.17190400000000,ST8 6LW,2014-09-22,fhrs_5_en-GB,5,,FHRS,0
347011,76 High Street,,,Biddulph,Owens Family Butchers,Retailers - other,4613,10,,389148,5,,53.11559300000000,5564,293,environmental.health@staffsmoorlands.gov.uk,Staffordshire Moorlands,http://www.staffsmoorlands.gov.uk,-2.17640400000000,ST8 6AS,2014-02-06,fhrs_4_en-GB,4,,FHRS,0
347012,Pennine Way,,,Biddulph,Oxhey First School,School/college/university,7845,0,,389180,5,,53.12058100000000,5727,293,environmental.health@staffsmoorlands.gov.uk,Staffordshire Moorlands,http://www.staffsmoorlands.gov.uk,-2.15846500000000,ST8 7EB,2013-11-12,fhrs_5_en-GB,5,,FHRS,0
347013,Dunwood Farm,Dunwood Lane,,Longsdon,P & Pa Pearson,Retailers - other,4613,5,,389296,10,,53.09504100000000,6453,293,environmental.health@staffsmoorlands.gov.uk,Staffordshire Moorlands,http://www.staffsmoorlands.gov.uk,-2.07923900000000,ST9 9QW,2011-08-30,fhrs_4_en-GB,4,,FHRS,0
347014,13 The Green,,,Kingsley,P Shenton Ltd,Retailers - other,4613,10,,388865,10,,53.01999900000000,4441,293,environmental.health@staffsmoorlands.gov.uk,Staffordshire Moorlands,http://www.staffsmoorlands.gov.uk,-1.98818200000000,ST10 2AG,2013-02-21,fhrs_3_en-GB,3,,FHRS,10
347015,16 - 18 Ashbourne Road,,,Leek,Pabna,Other catering premises,7841,5,,732194,5,,53.10488200000000,50397,293,environmental.health@staffsmoorlands.gov.uk,Staffordshire Moorlands,http://www.staffsmoorlands.gov.uk,-2.01919700000000,ST13 5AS,2015-01-12,fhrs_5_en-GB,5,,FHRS,5
347016,Station Road,,,Cheadle,Painsley Academy,School/college/university,7845,0,,388820,0,,52.98173300000000,4332,293,environmental.health@staffsmoorlands.gov.uk,Staffordshire Moorlands,http://www.staffsmoorlands.gov.uk,-1.98892200000000,ST10 1LH,2014-02-05,fhrs_5_en-GB,5,,FHRS,0
347017,,,,,Pamela Ramsay,Other catering premises,7841,0,,538589,0,,,41653,293,environmental.health@staffsmoorlands.gov.uk,Staffordshire Moorlands,http://www.staffsmoorlands.gov.uk,,,2013-04-19,fhrs_5_en-GB,5,,FHRS,0
347018,,,,,Papillon Exclusive,Other catering premises,7841,0,,718181,0,,,49561,293,environmental.health@staffsmoorlands.gov.uk,Staffordshire Moorlands,http://www.staffsmoorlands.gov.uk,,,2014-11-24,fhrs_5_en-GB,5,,FHRS,0
347019,St Davids Way,,,Knypersley,Park Lane Nursing Home,Hospitals/Childcare/Caring Premises,5,5,,388991,0,,53.10697700000000,4973,293,environmental.health@staffsmoorlands.gov.uk,Staffordshire Moorlands,http://www.staffsmoorlands.gov.uk,-2.16709300000000,ST8 7BG,2014-08-14,fhrs_5_en-GB,5,,FHRS,5
347020,,,,,Pat Lockett Catering,Other catering premises,7841,5,,433479,5,,,37758,293,environmental.health@staffsmoorlands.gov.uk,Staffordshire Moorlands,http://www.staffsmoorlands.gov.uk,,,2012-08-01,fhrs_5_en-GB,5,,FHRS,0
347021,Cheadle Road,Alton,,Alton,Peakstones Inn,Pub/bar/nightclub,7843,0,,388821,0,,52.98145300000000,4333,293,environmental.health@staffsmoorlands.gov.uk,Staffordshire Moorlands,http://www.staffsmoorlands.gov.uk,-1.91683500000000,ST10 4DH,2014-11-28,fhrs_5_en-GB,5,,FHRS,0
347022,2 Church Street,,,Cheadle,Pearl Dragon,Takeaway/sandwich shop,7844,10,,389244,5,,52.98664100000000,6081,293,environmental.health@staffsmoorlands.gov.uk,Staffordshire Moorlands,http://www.staffsmoorlands.gov.uk,-1.99190000000000,ST10 1HU,2014-06-05,fhrs_4_en-GB,4,,FHRS,0
347023,5 High Street,,,Biddulph,Pedleys,Retailers - other,4613,5,,389355,0,,53.11747400000000,7222,293,environmental.health@staffsmoorlands.gov.uk,Staffordshire Moorlands,http://www.staffsmoorlands.gov.uk,-2.17491800000000,ST8 6AW,2014-03-21,fhrs_5_en-GB,5,,FHRS,5
347024,Market Hall,High Street,,Cheadle,Pick Of The Crop,Retailers - other,4613,0,,389374,0,,52.98669500000000,7318,293,environmental.health@staffsmoorlands.gov.uk,Staffordshire Moorlands,http://www.staffsmoorlands.gov.uk,-1.99052900000000,ST10 1AJ,2011-11-22,fhrs_5_en-GB,5,,FHRS,0
347025,158 Mill Street,,,Leek,Pickfords Pantry,Takeaway/sandwich shop,7844,0,,715641,0,,53.10932900000000,48805,293,environmental.health@staffsmoorlands.gov.uk,Staffordshire Moorlands,http://www.staffsmoorlands.gov.uk,-2.03333100000000,ST13 8ET,2014-10-14,fhrs_5_en-GB,5,,FHRS,0
347026,44 Picton Street,,,Leek,Picton Plaice,Takeaway/sandwich shop,7844,5,,388983,5,,53.10559900000000,4943,293,environmental.health@staffsmoorlands.gov.uk,Staffordshire Moorlands,http://www.staffsmoorlands.gov.uk,-2.03177500000000,ST13 8AX,2014-12-15,fhrs_4_en-GB,4,,FHRS,10
347027,Unit 6 ,Buttermarket,,Leek,Piece Of Cake,Retailers - other,4613,5,,389161,5,,53.10617500000000,5661,293,environmental.health@staffsmoorlands.gov.uk,Staffordshire Moorlands,http://www.staffsmoorlands.gov.uk,-2.02512800000000,ST13 5HH,2010-10-20,fhrs_5_en-GB,5,,FHRS,5
347028,Park Road,,,Leek,Pine Meadows Nursing Home,Hospitals/Childcare/Caring Premises,5,5,,388902,10,,53.11017500000000,4631,293,environmental.health@staffsmoorlands.gov.uk,Staffordshire Moorlands,http://www.staffsmoorlands.gov.uk,-2.02650500000000,ST13 8XP,2014-05-20,fhrs_4_en-GB,4,,FHRS,5
347029,,,,,Pinky's Hog Roast,Mobile caterer,7846,10,,682690,5,,,47661,293,environmental.health@staffsmoorlands.gov.uk,Staffordshire Moorlands,http://www.staffsmoorlands.gov.uk,,,2014-07-15,fhrs_4_en-GB,4,,FHRS,0
347030,9 Russell Street,,,Leek,Pit Stop,Takeaway/sandwich shop,7844,0,,388804,10,,53.10496200000000,4273,293,environmental.health@staffsmoorlands.gov.uk,Staffordshire Moorlands,http://www.staffsmoorlands.gov.uk,-2.02429100000000,ST13 5JF,2014-08-05,fhrs_4_en-GB,4,,FHRS,5
347031,11 St Edward Street,,,Leek,Pizza Line,Takeaway/sandwich shop,7844,20,,388809,15,,53.10617500000000,4300,293,environmental.health@staffsmoorlands.gov.uk,Staffordshire Moorlands,http://www.staffsmoorlands.gov.uk,-2.02668200000000,ST13 5DR,2014-02-25,fhrs_1_en-GB,1,,FHRS,10
347032,Rudyard Lake Steam Railway,Rudyard Road,,Rudyard,Platform 2,Takeaway/sandwich shop,7844,0,,388790,0,,53.12040100000000,36622,293,environmental.health@staffsmoorlands.gov.uk,Staffordshire Moorlands,http://www.staffsmoorlands.gov.uk,-2.06114700000000,ST13 8PF,2014-07-25,fhrs_5_en-GB,5,,FHRS,0
347033,26 Abbotts Road,,,Leek,Platinum Services For Children ,Hospitals/Childcare/Caring Premises,5,0,,388779,0,,53.11022300000000,18046,293,environmental.health@staffsmoorlands.gov.uk,Staffordshire Moorlands,http://www.staffsmoorlands.gov.uk,-2.01001300000000,ST13 6EZ,2012-05-21,fhrs_5_en-GB,5,,FHRS,5
347034,,,,,Polly Patch Wedding And Events,Other catering premises,7841,0,,401598,0,,,36710,293,environmental.health@staffsmoorlands.gov.uk,Staffordshire Moorlands,http://www.staffsmoorlands.gov.uk,,,2012-05-31,fhrs_5_en-GB,5,,FHRS,0
347035,Milldale,,,Alstonefield,Pollys Cottage,Takeaway/sandwich shop,7844,5,,389012,5,,53.08998489379883,5057,293,environmental.health@staffsmoorlands.gov.uk,Staffordshire Moorlands,http://www.staffsmoorlands.gov.uk,-1.79665243625641,DE6 2GB,2014-07-03,fhrs_5_en-GB,5,,FHRS,0
347036,38 Charles Street,,,Cheadle,Poppins Day Nursery,Hospitals/Childcare/Caring Premises,5,0,,388942,0,,52.98538200000000,4820,293,environmental.health@staffsmoorlands.gov.uk,Staffordshire Moorlands,http://www.staffsmoorlands.gov.uk,-1.98783400000000,ST10 1ED,2014-02-04,fhrs_5_en-GB,5,,FHRS,0
347037,33 High Street,,,Biddulph,Poveys Oatcakes,Retailers - other,4613,10,,389140,0,,53.11747400000000,5538,293,environmental.health@staffsmoorlands.gov.uk,Staffordshire Moorlands,http://www.staffsmoorlands.gov.uk,-2.17491800000000,ST8 6AW,2013-09-10,fhrs_4_en-GB,4,,FHRS,5
347038,524 Cheadle Road,,,Wetley Rocks,Powys Arms,Pub/bar/nightclub,7843,5,,389086,5,,53.04223700000000,5326,293,environmental.health@staffsmoorlands.gov.uk,Staffordshire Moorlands,http://www.staffsmoorlands.gov.uk,-2.05189300000000,ST9 0BA,2014-02-17,fhrs_5_en-GB,5,,FHRS,5
347039,Premier Inn,,Ashbourne Road,Leek,Premier Inn,Hotel/bed & breakfast/guest house,7842,0,,715647,0,,53.10488200000000,49185,293,environmental.health@staffsmoorlands.gov.uk,Staffordshire Moorlands,http://www.staffsmoorlands.gov.uk,-2.01919800000000,ST13 5AS,2014-11-03,fhrs_5_en-GB,5,,FHRS,0
347040,12 Sheepmarket,,,Leek,Primo Piano,Restaurant/Cafe/Canteen,1,5,,389153,5,,53.10610300000000,5602,293,environmental.health@staffsmoorlands.gov.uk,Staffordshire Moorlands,http://www.staffsmoorlands.gov.uk,-2.02620400000000,ST13 5HW,2013-11-18,fhrs_5_en-GB,5,,FHRS,5
347041,Fernwood Drive,,,Leek,Prince Of Wales,Pub/bar/nightclub,7843,10,,389108,5,,53.09777600000000,5400,293,environmental.health@staffsmoorlands.gov.uk,Staffordshire Moorlands,http://www.staffsmoorlands.gov.uk,-2.03980300000000,ST13 8JD,2013-11-12,fhrs_4_en-GB,4,,FHRS,5
347042,Abbotts Road,,,Leek,Priory Hotel,Pub/bar/nightclub,7843,5,,389048,5,,53.11022300000000,5181,293,environmental.health@staffsmoorlands.gov.uk,Staffordshire Moorlands,http://www.staffsmoorlands.gov.uk,-2.01001300000000,ST13 6EZ,2014-11-14,fhrs_4_en-GB,4,,FHRS,10
347043,10 Sheepmarket,,,Leek,Pronto,Retailers - other,4613,0,,388907,0,,53.10610300000000,4653,293,environmental.health@staffsmoorlands.gov.uk,Staffordshire Moorlands,http://www.staffsmoorlands.gov.uk,-2.02620400000000,ST13 5HW,2014-11-21,fhrs_5_en-GB,5,,FHRS,0
347044,Cross Street Mill,Cross Street,,Leek,Qarma,Restaurant/Cafe/Canteen,1,5,,389145,5,,53.10520600000000,5560,293,environmental.health@staffsmoorlands.gov.uk,Staffordshire Moorlands,http://www.staffsmoorlands.gov.uk,-2.01770400000000,ST13 6BL,2014-09-11,fhrs_5_en-GB,5,,FHRS,5
347045,Counslow Road,,,Freehay,"Queens Arms, Freehay",Restaurant/Cafe/Canteen,1,0,,388904,0,,52.97201100000000,4633,293,environmental.health@staffsmoorlands.gov.uk,Staffordshire Moorlands,http://www.staffsmoorlands.gov.uk,-1.96448900000000,ST10 1RF,2014-08-07,fhrs_5_en-GB,5,,FHRS,5
347046,Kingsley Bank,,,Froghall,Railway Inn,Pub/bar/nightclub,7843,5,,389275,5,,53.02181100000000,6265,293,environmental.health@staffsmoorlands.gov.uk,Staffordshire Moorlands,http://www.staffsmoorlands.gov.uk,-1.96732500000000,ST10 2HA,2014-12-04,fhrs_5_en-GB,5,,FHRS,5
347047,Mill Hayes Sports Club,Tunstall Road,,Knypersley,Raindrops Day Nursery,Hospitals/Childcare/Caring Premises,5,0,,553111,0,,53.10289500000000,42197,293,environmental.health@staffsmoorlands.gov.uk,Staffordshire Moorlands,http://www.staffsmoorlands.gov.uk,-2.18017600000000,ST8 7AQ,2014-05-13,fhrs_5_en-GB,5,,FHRS,5
347048,Knypersley Sports Club,Tunstall Road,,Biddulph,Raindrops Pre School,Hospitals/Childcare/Caring Premises,5,0,,555695,0,,53.10289500000000,42393,293,environmental.health@staffsmoorlands.gov.uk,Staffordshire Moorlands,http://www.staffsmoorlands.gov.uk,-2.18017600000000,ST8 7AQ,2014-11-05,fhrs_5_en-GB,5,,FHRS,0
347049,Red Road,,,Alton,Ramblers Retreat,Restaurant/Cafe/Canteen,1,0,,388914,0,,52.97962900000000,4683,293,environmental.health@staffsmoorlands.gov.uk,Staffordshire Moorlands,http://www.staffsmoorlands.gov.uk,-1.89528800000000,ST104BX,2013-12-10,fhrs_5_en-GB,5,,FHRS,0
347050,5 Rupert Street,,,Biddulph,Reach For The Stars,Hospitals/Childcare/Caring Premises,5,10,,625046,0,,53.11877900000000,44513,293,environmental.health@staffsmoorlands.gov.uk,Staffordshire Moorlands,http://www.staffsmoorlands.gov.uk,-2.17372800000000,ST8 6EB,2014-01-20,fhrs_4_en-GB,4,,FHRS,10
347051,Beresford Memorial Church Of England First School,Novi Lane,,Leek,"Reach For The Stars, Beresford",Hospitals/Childcare/Caring Premises,5,5,,730796,5,,53.11154400000000,50317,293,environmental.health@staffsmoorlands.gov.uk,Staffordshire Moorlands,http://www.staffsmoorlands.gov.uk,-2.00769700000000,ST13 6NR,2015-01-12,fhrs_5_en-GB,5,,FHRS,5
347052,Red Cow Inn,Ash Bank Road,,Werrington,Red Cow Inn,Pub/bar/nightclub,7843,0,,516561,5,,53.02557900000000,40961,293,environmental.health@staffsmoorlands.gov.uk,Staffordshire Moorlands,http://www.staffsmoorlands.gov.uk,-2.08407600000000,ST9 0DT,2014-11-04,fhrs_5_en-GB,5,,FHRS,5
347053,28 Church Lane,,,Checkley,Red Lion,Pub/bar/nightclub,7843,10,,389187,0,,52.93811000000000,5772,293,environmental.health@staffsmoorlands.gov.uk,Staffordshire Moorlands,http://www.staffsmoorlands.gov.uk,-1.95914500000000,ST10 4NJ,2013-01-10,fhrs_4_en-GB,4,,FHRS,5
347054,37 Cheadle Road,,,Cheddleton,Red Lion,Pub/bar/nightclub,7843,5,,389068,5,,53.06677200000000,5271,293,environmental.health@staffsmoorlands.gov.uk,Staffordshire Moorlands,http://www.staffsmoorlands.gov.uk,-2.04202800000000,ST13 7HN,2013-07-07,fhrs_4_en-GB,4,,FHRS,10
347055,7 Market Place,,,Leek,Red Lion,Pub/bar/nightclub,7843,5,,389185,5,,53.10617500000000,5770,293,environmental.health@staffsmoorlands.gov.uk,Staffordshire Moorlands,http://www.staffsmoorlands.gov.uk,-2.02512800000000,ST13 5HH,2013-11-25,fhrs_5_en-GB,5,,FHRS,5
347056,Town End lane,Waterfall,Waterhouses,Stoke On Trent,Red Lion Inn,Pub/bar/nightclub,7843,10,,388917,0,,53.06121000000000,4695,293,environmental.health@staffsmoorlands.gov.uk,Staffordshire Moorlands,http://www.staffsmoorlands.gov.uk,-1.88085600000000,ST10 3HZ,2014-10-08,fhrs_4_en-GB,4,,FHRS,5
347057,9 Wallbridge Precinct,Wallbridge Drive,,Leek,Rice N Spice,Takeaway/sandwich shop,7844,5,,389025,10,,53.09956400000000,5103,293,environmental.health@staffsmoorlands.gov.uk,Staffordshire Moorlands,http://www.staffsmoorlands.gov.uk,-2.03994000000000,ST13 8JF,2014-12-19,fhrs_4_en-GB,4,,FHRS,5
347058,2 Tunstall Road,,,Biddulph,Rijo,Restaurant/Cafe/Canteen,1,10,,388918,10,,53.11383900000000,4696,293,environmental.health@staffsmoorlands.gov.uk,Staffordshire Moorlands,http://www.staffsmoorlands.gov.uk,-2.17739800000000,ST8 6HH,2014-01-07,fhrs_3_en-GB,3,,FHRS,10
347059,Farley Lane,Farley,Stoke-on-trent,Staffordshire,Rip Saw Cafe Alton Towers,Restaurant/Cafe/Canteen,1,0,,389245,5,,52.97625800000000,6083,293,environmental.health@staffsmoorlands.gov.uk,Staffordshire Moorlands,http://www.staffsmoorlands.gov.uk,-1.89523600000000,ST10 4BW,2014-06-04,fhrs_4_en-GB,4,,FHRS,10
347060,Tunstall Road,,,Biddulph,Roaches Independent School,School/college/university,7845,0,,388974,0,,53.10922300000000,4933,293,environmental.health@staffsmoorlands.gov.uk,Staffordshire Moorlands,http://www.staffsmoorlands.gov.uk,-2.18050100000000,ST8 7AB,2013-04-24,fhrs_5_en-GB,5,,FHRS,0
347061,Paddock Farm,Upper Hulme,,Upper Hulme Nr Leek,Roaches Tearooms,Restaurant/Cafe/Canteen,1,5,,388811,10,,53.14588100000000,4309,293,environmental.health@staffsmoorlands.gov.uk,Staffordshire Moorlands,http://www.staffsmoorlands.gov.uk,-1.98306500000000,ST13 8TY,2013-09-30,fhrs_4_en-GB,4,,FHRS,5
347062,Endon Road,,,Brown Edge,Rock Cottage Care Services,Hospitals/Childcare/Caring Premises,5,5,,389133,5,,53.11664600000000,5517,293,environmental.health@staffsmoorlands.gov.uk,Staffordshire Moorlands,http://www.staffsmoorlands.gov.uk,-2.17605000000000,ST8 6AR,2014-06-03,fhrs_4_en-GB,4,,FHRS,10
347063,Roebuck Inn,Cheadle Road,,Forsbrook,Roebuck Inn,Pub/bar/nightclub,7843,5,,715640,5,,52.97061000000000,48777,293,environmental.health@staffsmoorlands.gov.uk,Staffordshire Moorlands,http://www.staffsmoorlands.gov.uk,-2.05456100000000,ST11 9BX,2014-10-14,fhrs_4_en-GB,4,,FHRS,10
347064,15 Wraggs Lane,,,Biddulph Moor,Rose  & Crown,Pub/bar/nightclub,7843,0,,715652,5,,53.11872600000000,49353,293,environmental.health@staffsmoorlands.gov.uk,Staffordshire Moorlands,http://www.staffsmoorlands.gov.uk,-2.13930300000000,ST8 7LX,2014-10-28,fhrs_4_en-GB,4,,FHRS,10
347065,Rose And Crown,Stanley Road,,Stockton Brook,Rose And Crown,Pub/bar/nightclub,7843,5,,627898,10,,53.06508900000000,44573,293,environmental.health@staffsmoorlands.gov.uk,Staffordshire Moorlands,http://www.staffsmoorlands.gov.uk,-2.11343200000000,ST9 9LL,2014-06-03,fhrs_4_en-GB,4,,FHRS,0
347066,Cheadle Road,,,Forsbrook,Roshni,Restaurant/Cafe/Canteen,1,10,,389130,5,,52.97061000000000,5510,293,environmental.health@staffsmoorlands.gov.uk,Staffordshire Moorlands,http://www.staffsmoorlands.gov.uk,-2.05456100000000,ST119BX,2013-11-14,fhrs_4_en-GB,4,,FHRS,5
347067,87-89 High Street,,,Biddulph,Roti,Restaurant/Cafe/Canteen,1,0,,388833,5,,53.11544100000000,4365,293,environmental.health@staffsmoorlands.gov.uk,Staffordshire Moorlands,http://www.staffsmoorlands.gov.uk,-2.17598600000000,ST8 6AB,2013-01-08,fhrs_5_en-GB,5,,FHRS,0
347068,High Street,,,Dilhorne,Royal Oak,Pub/bar/nightclub,7843,5,,389223,10,,52.99052700000000,5978,293,environmental.health@staffsmoorlands.gov.uk,Staffordshire Moorlands,http://www.staffsmoorlands.gov.uk,-2.03988300000000,ST10 2PE,2014-03-10,fhrs_4_en-GB,4,,FHRS,5
347069,Royal Oak,Cheadle Road,,Alton,Royal Oak,Restaurant/Cafe/Canteen,1,10,,619088,5,,52.97535900000000,44193,293,environmental.health@staffsmoorlands.gov.uk,Staffordshire Moorlands,http://www.staffsmoorlands.gov.uk,-1.89578900000000,ST10 4BH,2013-12-10,fhrs_4_en-GB,4,,FHRS,5
347070,Macclesfield Road,,,Rushton Spencer,Royal Oak  (Wet Sales Only),Pub/bar/nightclub,7843,5,,389191,5,,53.16021700000000,5793,293,environmental.health@staffsmoorlands.gov.uk,Staffordshire Moorlands,http://www.staffsmoorlands.gov.uk,-2.09516800000000,SK11 0SE,2012-04-23,fhrs_5_en-GB,5,,FHRS,5
347071,81 High Street,,,Biddulph,Ruby Chinese,Takeaway/sandwich shop,7844,5,,388852,5,,53.11544100000000,4407,293,environmental.health@staffsmoorlands.gov.uk,Staffordshire Moorlands,http://www.staffsmoorlands.gov.uk,-2.17598600000000,ST8 6AB,2014-11-08,fhrs_4_en-GB,4,,FHRS,10
347072,The Information Centre,Dam Head,Lake Road,Rudyard,Rudyard Lake Catering,Restaurant/Cafe/Canteen,1,10,,389032,10,,53.12231600000000,5115,293,environmental.health@staffsmoorlands.gov.uk,Staffordshire Moorlands,http://www.staffsmoorlands.gov.uk,-2.07540500000000,ST13 8XB,2014-04-14,fhrs_3_en-GB,3,,FHRS,5
347073,Reacliffe Road,,,Rudyard,Rudyard Lake Sailing Club,Other catering premises,7841,0,,388893,0,,53.12784000000000,4577,293,environmental.health@staffsmoorlands.gov.uk,Staffordshire Moorlands,http://www.staffsmoorlands.gov.uk,-2.08148200000000,ST13 8RS,2014-09-05,fhrs_5_en-GB,5,,FHRS,0
347074,10 Congleton Road,,,Biddulph,Rupeyal,Takeaway/sandwich shop,7844,10,,388932,10,,53.11843900000000,4785,293,environmental.health@staffsmoorlands.gov.uk,Staffordshire Moorlands,http://www.staffsmoorlands.gov.uk,-2.17293500000000,ST8 6DX,2014-10-28,fhrs_3_en-GB,3,,FHRS,10
347075,Sugar Street,,,Rushton Spencer,Rushton Primary School,School/college/university,7845,0,,388933,0,,53.15878300000000,4786,293,environmental.health@staffsmoorlands.gov.uk,Staffordshire Moorlands,http://www.staffsmoorlands.gov.uk,-2.09063400000000,SK11 0SG,2014-03-14,fhrs_5_en-GB,5,,FHRS,0
347076,Brownspit Farm,Warslow Road,,Longnor,S Kidd Farmers,Retailers - other,4613,10,,428831,5,,53.17379500000000,37530,293,environmental.health@staffsmoorlands.gov.uk,Staffordshire Moorlands,http://www.staffsmoorlands.gov.uk,-1.87094000000000,SK17 0LA,2012-07-23,fhrs_4_en-GB,4,,FHRS,0
347077,,,,,Sabora Dm Foods,Manufacturers/packers,7839,5,,632234,5,,,44693,293,environmental.health@staffsmoorlands.gov.uk,Staffordshire Moorlands,http://www.staffsmoorlands.gov.uk,,,2013-11-04,fhrs_5_en-GB,5,,FHRS,5
347078,Churnet Works,Macclesfield Road,,Leek,Sainsbury Supermarket,Retailers - supermarkets/hypermarkets,7840,0,,505452,5,,53.10790800000000,40493,293,environmental.health@staffsmoorlands.gov.uk,Staffordshire Moorlands,http://www.staffsmoorlands.gov.uk,-2.03563000000000,ST13 8YG,2015-01-07,fhrs_5_en-GB,5,,FHRS,0
347079,Wharf Road,,,Biddulph,Sainsburys Supermarkets Ltd,Retailers - supermarkets/hypermarkets,7840,0,,389183,0,,53.11362000000000,5744,293,environmental.health@staffsmoorlands.gov.uk,Staffordshire Moorlands,http://www.staffsmoorlands.gov.uk,-2.17926500000000,ST8 7PJ,2014-11-20,fhrs_5_en-GB,5,,FHRS,0
347080,10 Sandy Lane,Brown Edge,,Brown Edge,Sandy Lane Fish And Chip Shop,Takeaway/sandwich shop,7844,5,,388814,5,,53.07748800000000,4314,293,environmental.health@staffsmoorlands.gov.uk,Staffordshire Moorlands,http://www.staffsmoorlands.gov.uk,-2.13616900000000,ST6 8QJ,2013-11-08,fhrs_4_en-GB,4,,FHRS,10
347081,18 Market Place,,,Leek,Sarga Indian Takeaway,Takeaway/sandwich shop,7844,5,,389164,5,,53.10631900000000,5664,293,environmental.health@staffsmoorlands.gov.uk,Staffordshire Moorlands,http://www.staffsmoorlands.gov.uk,-2.02568100000000,ST13 5HJ,2013-11-12,fhrs_5_en-GB,5,,FHRS,5
347082,69 Haywood Street,,,Leek,Scorpio,Takeaway/sandwich shop,7844,5,,388946,5,,53.10519600000000,4828,293,environmental.health@staffsmoorlands.gov.uk,Staffordshire Moorlands,http://www.staffsmoorlands.gov.uk,-2.02200600000000,ST13 5JH,2014-09-02,fhrs_4_en-GB,4,,FHRS,10
347083,,,,,Seagraves Catering,Other catering premises,7841,0,,389211,0,,,5899,293,environmental.health@staffsmoorlands.gov.uk,Staffordshire Moorlands,http://www.staffsmoorlands.gov.uk,,,2014-02-24,fhrs_5_en-GB,5,,FHRS,5
347084,Buxton Road,,,Leek,Sera Cafe Bistro,Restaurant/Cafe/Canteen,1,10,,715648,10,,53.11218300000000,49189,293,environmental.health@staffsmoorlands.gov.uk,Staffordshire Moorlands,http://www.staffsmoorlands.gov.uk,-2.00484400000000,ST13 7LN,2014-10-21,fhrs_4_en-GB,4,,FHRS,0
347085,17 St Edward Street,Leek,Staffs,Leek,Shapla Tandoori,Restaurant/Cafe/Canteen,1,10,,388877,5,,53.10617500000000,4514,293,environmental.health@staffsmoorlands.gov.uk,Staffordshire Moorlands,http://www.staffsmoorlands.gov.uk,-2.02668200000000,ST13 5DR,2014-09-17,fhrs_4_en-GB,4,,FHRS,5
347086,,,,,Sheen Hog Roast,Mobile caterer,7846,5,,389236,0,,,6056,293,environmental.health@staffsmoorlands.gov.uk,Staffordshire Moorlands,http://www.staffsmoorlands.gov.uk,,,2014-03-24,fhrs_5_en-GB,5,,FHRS,0
347087,Old Leek Road,,,Rushton Spencer,Sheilas Restaurant And Tea Rooms,Restaurant/Cafe/Canteen,1,5,,388910,0,,53.15085300000000,4679,293,environmental.health@staffsmoorlands.gov.uk,Staffordshire Moorlands,http://www.staffsmoorlands.gov.uk,-2.08041900000000,SK11 0RB,2013-04-24,fhrs_5_en-GB,5,,FHRS,0
347088,18 Stanley Street,,,Leek,Shells Butty Shop,Takeaway/sandwich shop,7844,10,,388901,5,,53.10558200000000,4622,293,environmental.health@staffsmoorlands.gov.uk,Staffordshire Moorlands,http://www.staffsmoorlands.gov.uk,-2.02602400000000,ST13 5HG,2014-01-20,fhrs_3_en-GB,3,,FHRS,10
347089,23 Shepherd Street,,,Biddulph,Shepherd Street Chippy,Takeaway/sandwich shop,7844,5,,389295,0,,53.11294400000000,6450,293,environmental.health@staffsmoorlands.gov.uk,Staffordshire Moorlands,http://www.staffsmoorlands.gov.uk,-2.17445100000000,ST8 6HZ,2014-03-15,fhrs_5_en-GB,5,,FHRS,0
347090,123 Mill Street,,,Leek,Shiraz Pizza,Takeaway/sandwich shop,7844,10,,715635,5,,53.10869000000000,48689,293,environmental.health@staffsmoorlands.gov.uk,Staffordshire Moorlands,http://www.staffsmoorlands.gov.uk,-2.03321100000000,ST13 8EU,2014-09-08,fhrs_4_en-GB,4,,FHRS,5
347091,11 Johnstone Avenue,,,Werrington,Shopeezy,Retailers - other,4613,10,,389181,5,,53.02587300000000,5735,293,environmental.health@staffsmoorlands.gov.uk,Staffordshire Moorlands,http://www.staffsmoorlands.gov.uk,-2.08771500000000,ST9 0DY,2013-12-02,fhrs_4_en-GB,4,,FHRS,0
347092,Thornfield S Farm,Leek Road,,Weston Coyney,Shukers Farm Produce,Retailers - other,4613,0,,388849,0,,53.00808700000000,4401,293,environmental.health@staffsmoorlands.gov.uk,Staffordshire Moorlands,http://www.staffsmoorlands.gov.uk,-2.08271600000000,ST3 5BE,2013-07-25,fhrs_5_en-GB,5,,FHRS,0
347093,4 Market Hall,High Street,,Cheadle,Simons Cafe,Restaurant/Cafe/Canteen,1,10,,524941,5,,52.98669500000000,41133,293,environmental.health@staffsmoorlands.gov.uk,Staffordshire Moorlands,http://www.staffsmoorlands.gov.uk,-1.99052900000000,ST10 1AJ,2014-09-16,fhrs_4_en-GB,4,,FHRS,5
347094,13 The Smithfield Centre,Haywood Street,,Leek,Smithfield Fish Bar,Takeaway/sandwich shop,7844,5,,389114,5,,53.10517800000000,5448,293,environmental.health@staffsmoorlands.gov.uk,Staffordshire Moorlands,http://www.staffsmoorlands.gov.uk,-2.02143800000000,ST13 5JW,2013-09-23,fhrs_5_en-GB,5,,FHRS,5
347095,21 High Street,,,biddulph,Snappy Snax,Mobile caterer,7846,10,,418405,10,,53.11604260000000,37214,293,environmental.health@staffsmoorlands.gov.uk,Staffordshire Moorlands,http://www.staffsmoorlands.gov.uk,-2.17607995000000,,2014-02-04,fhrs_3_en-GB,3,,FHRS,10
347096,13 Cross Street,,,Cheadle,Snax,Takeaway/sandwich shop,7844,5,,388951,5,,52.98647000000000,4839,293,environmental.health@staffsmoorlands.gov.uk,Staffordshire Moorlands,http://www.staffsmoorlands.gov.uk,-1.98951700000000,ST101NP,2013-01-22,fhrs_4_en-GB,4,,FHRS,10
347097,77-79 Haywood Street,,,Leek,So Thai,Restaurant/Cafe/Canteen,1,10,,388796,10,,53.10519600000000,4262,293,environmental.health@staffsmoorlands.gov.uk,Staffordshire Moorlands,http://www.staffsmoorlands.gov.uk,-2.02200600000000,ST13 5JH,2014-02-18,fhrs_4_en-GB,4,,FHRS,0
347098,Newton House,Cheadle Road,,Leek,Sodexo Britannia,Restaurant/Cafe/Canteen,1,0,,388858,5,,53.09580200000000,4414,293,environmental.health@staffsmoorlands.gov.uk,Staffordshire Moorlands,http://www.staffsmoorlands.gov.uk,-2.02412100000000,ST13 5RG,2014-09-29,fhrs_5_en-GB,5,,FHRS,5
347099,13 Cheadle Road,,,Forsbrook,Spar,Retailers - other,4613,5,,389315,0,,52.97061000000000,6627,293,environmental.health@staffsmoorlands.gov.uk,Staffordshire Moorlands,http://www.staffsmoorlands.gov.uk,-2.05456100000000,ST11 9BX,2014-01-15,fhrs_5_en-GB,5,,FHRS,5
347100,8-10 High Street,,,Biddulph,Spar Express & Post Office,Retailers - other,4613,10,,715651,0,,53.11769000000000,49345,293,environmental.health@staffsmoorlands.gov.uk,Staffordshire Moorlands,http://www.staffsmoorlands.gov.uk,-2.17512800000000,ST8 6AP,2014-11-06,fhrs_4_en-GB,4,,FHRS,0
347101,Alton Towers,Alton,Staffs,Alton Towers,Splash Landings Hotel,Hotel/bed & breakfast/guest house,7842,0,,388872,0,,52.98832321166992,4508,293,environmental.health@staffsmoorlands.gov.uk,Staffordshire Moorlands,http://www.staffsmoorlands.gov.uk,-1.88866770267487,ST10 4DB,2013-05-07,fhrs_5_en-GB,5,,FHRS,5
347102,70 St Edward Street,,,Leek,Spout Coffee Shop,Restaurant/Cafe/Canteen,1,10,,715645,5,,53.10465600000000,49097,293,environmental.health@staffsmoorlands.gov.uk,Staffordshire Moorlands,http://www.staffsmoorlands.gov.uk,-2.02639700000000,ST13 5DL,2014-10-20,fhrs_4_en-GB,4,,FHRS,5
347103,Mill Hayes Road,,,Knypersley,Springbank Nursing Home,Hospitals/Childcare/Caring Premises,5,5,,388993,10,,53.08516300000000,4981,293,environmental.health@staffsmoorlands.gov.uk,Staffordshire Moorlands,http://www.staffsmoorlands.gov.uk,-2.17220400000000,ST8 7QS,2015-01-06,fhrs_4_en-GB,4,,FHRS,0
347104,Springfield Road,,,Leek,Springfield Community Special School,School/college/university,7845,0,,389218,0,,53.10565600000000,5918,293,environmental.health@staffsmoorlands.gov.uk,Staffordshire Moorlands,http://www.staffsmoorlands.gov.uk,-2.01204300000000,ST13 6LQ,2015-01-07,fhrs_5_en-GB,5,,FHRS,5
347105,Springfield Road,,,Biddulph,Squirrel Hayes First School,School/college/university,7845,5,,388992,0,,53.11129300000000,4980,293,environmental.health@staffsmoorlands.gov.uk,Staffordshire Moorlands,http://www.staffsmoorlands.gov.uk,-2.16673600000000,ST8 7DF,2014-03-26,fhrs_4_en-GB,4,,FHRS,10
347106,Ostlers Lane,,,Cheddleton,St Andrews Luncheon Club,Other catering premises,7841,5,,389163,5,,53.06536800000000,5663,293,environmental.health@staffsmoorlands.gov.uk,Staffordshire Moorlands,http://www.staffsmoorlands.gov.uk,-2.04645900000000,ST13 7HS,2010-10-29,fhrs_5_en-GB,5,,FHRS,5
347107,St Anne's Vale,,,Brown Edge,St Annes Primary School,School/college/university,7845,0,,388996,0,,53.08158100000000,5002,293,environmental.health@staffsmoorlands.gov.uk,Staffordshire Moorlands,http://www.staffsmoorlands.gov.uk,-2.14094400000000,ST6 8TA,2014-10-24,fhrs_5_en-GB,5,,FHRS,0
347108,Buxton Road,,,Longnor,St Bartholomews Primary School,School/college/university,7845,0,,389331,0,,53.18295400000000,7000,293,environmental.health@staffsmoorlands.gov.uk,Staffordshire Moorlands,http://www.staffsmoorlands.gov.uk,-1.87029900000000,SK17 0NZ,2014-03-19,fhrs_5_en-GB,5,,FHRS,5
347109,Westwood Road,,,Leek,St Edwards Academy C E,School/college/university,7845,0,,388938,0,,53.10352800000000,4801,293,environmental.health@staffsmoorlands.gov.uk,Staffordshire Moorlands,http://www.staffsmoorlands.gov.uk,-2.04201900000000,ST13 8DN,2014-03-14,fhrs_5_en-GB,5,,FHRS,0
347110,Hollow Lane,,,Cheddleton,St Edwards First School,School/college/university,7845,0,,389076,5,,53.06849700000000,5307,293,environmental.health@staffsmoorlands.gov.uk,Staffordshire Moorlands,http://www.staffsmoorlands.gov.uk,-2.04486500000000,ST13 7HP,2013-06-24,fhrs_5_en-GB,5,,FHRS,5
347111,Caverswall,,,Blythe Bridge,St Filumena's Roman Catholic Primary School,School/college/university,7845,0,,389020,0,,52.98133400000000,5088,293,environmental.health@staffsmoorlands.gov.uk,Staffordshire Moorlands,http://www.staffsmoorlands.gov.uk,-2.07189600000000,ST11 9EA,2014-01-29,fhrs_5_en-GB,5,,FHRS,5
347112,Charles Street,,,Cheadle,St Giles R C Primary School,School/college/university,7845,10,,389174,0,,52.98538200000000,5697,293,environmental.health@staffsmoorlands.gov.uk,Staffordshire Moorlands,http://www.staffsmoorlands.gov.uk,-1.98783400000000,ST10 1ED,2013-11-12,fhrs_4_en-GB,4,,FHRS,5
347113,Mill Lane,,,Wetley Rocks,"St Johns Primary School,",School/college/university,7845,5,,388859,0,,53.04146900000000,4415,293,environmental.health@staffsmoorlands.gov.uk,Staffordshire Moorlands,http://www.staffsmoorlands.gov.uk,-2.05905100000000,ST9 0BN,2014-02-12,fhrs_5_en-GB,5,,FHRS,0
347114,Brookfields Road,,,Ipstones,St Leonards (Ce) (Va) First School,School/college/university,7845,0,,388968,5,,53.04455400000000,4896,293,environmental.health@staffsmoorlands.gov.uk,Staffordshire Moorlands,http://www.staffsmoorlands.gov.uk,-1.96856100000000,ST10 2LY,2014-02-07,fhrs_5_en-GB,5,,FHRS,0
347115,Leek Road,,,Endon,St Lukes Primary School,School/college/university,7845,10,,389214,5,,53.07415700000000,5908,293,environmental.health@staffsmoorlands.gov.uk,Staffordshire Moorlands,http://www.staffsmoorlands.gov.uk,-2.11497900000000,ST9 9EB,2014-09-11,fhrs_4_en-GB,4,,FHRS,5
347116,Cruso Street,,,Leek,St Marys Catholic Primary School,School/college/university,7845,5,,388894,0,,53.10352200000000,4578,293,environmental.health@staffsmoorlands.gov.uk,Staffordshire Moorlands,http://www.staffsmoorlands.gov.uk,-2.03132500000000,ST13 8BW,2014-05-23,fhrs_5_en-GB,5,,FHRS,0
347117,Horton Road,,,Rudyard,St Michaels Ce (Vc) First School,School/college/university,7845,0,,388976,0,,53.12484500000000,4935,293,environmental.health@staffsmoorlands.gov.uk,Staffordshire Moorlands,http://www.staffsmoorlands.gov.uk,-2.08498800000000,ST13 8RU,2014-03-21,fhrs_5_en-GB,5,,FHRS,0
347118,St Pauls Church And Community Centre,Novi Lane,,Leek,St Paul's Community Centre,Other catering premises,7841,5,,455312,0,,53.11154400000000,38785,293,environmental.health@staffsmoorlands.gov.uk,Staffordshire Moorlands,http://www.staffsmoorlands.gov.uk,-2.00769800000000,ST13 6NR,2012-10-03,fhrs_5_en-GB,5,,FHRS,0
347119,Town Head,,,"Alton, Stoke On Trent",St Peters First School,School/college/university,7845,5,,388855,0,,52.97836600000000,4411,293,environmental.health@staffsmoorlands.gov.uk,Staffordshire Moorlands,http://www.staffsmoorlands.gov.uk,-1.89022700000000,ST10 4AW,2014-02-11,fhrs_5_en-GB,5,,FHRS,5
347120,School Lane,,,Caverswall,St Peters Primary School,School/college/university,7845,0,,388897,0,,52.98525600000000,4581,293,environmental.health@staffsmoorlands.gov.uk,Staffordshire Moorlands,http://www.staffsmoorlands.gov.uk,-2.08110800000000,ST11 9EN,2014-01-29,fhrs_5_en-GB,5,,FHRS,5
347121,St Thomas Road,,,Upper Tean,St Thomas Day Nursery,Hospitals/Childcare/Caring Premises,5,0,,389173,0,,52.95511500000000,5695,293,environmental.health@staffsmoorlands.gov.uk,Staffordshire Moorlands,http://www.staffsmoorlands.gov.uk,-1.98641300000000,ST104DS,2013-10-01,fhrs_5_en-GB,5,,FHRS,5
347122,Parklands Road,,,Upper Tean,St Thomas' R C School,School/college/university,7845,0,,389057,0,,52.95511500000000,5204,293,environmental.health@staffsmoorlands.gov.uk,Staffordshire Moorlands,http://www.staffsmoorlands.gov.uk,-1.98641300000000,ST10 4DS,2014-04-29,fhrs_5_en-GB,5,,FHRS,5
347123,Holt Lane,,,Kingsley,St. Werburghs Church Of England School,School/college/university,7845,0,,389273,5,,53.01746400000000,6228,293,environmental.health@staffsmoorlands.gov.uk,Staffordshire Moorlands,http://www.staffsmoorlands.gov.uk,-1.98071400000000,ST10 2BA,2014-02-07,fhrs_5_en-GB,5,,FHRS,0
347124,Cottage Delight Ltd,Brooklands Way,Leekbrook,Leek,Staff Canteen Cottage Delight,Other catering premises,7841,5,,676373,5,,53.08250900000000,47201,293,environmental.health@staffsmoorlands.gov.uk,Staffordshire Moorlands,http://www.staffsmoorlands.gov.uk,-2.01736600000000,ST13 7QF,2014-06-20,fhrs_4_en-GB,4,,FHRS,10
347125,The Green,,,Bagnall,Stafford Arms,Pub/bar/nightclub,7843,0,,388845,5,,53.05499900000000,4395,293,environmental.health@staffsmoorlands.gov.uk,Staffordshire Moorlands,http://www.staffsmoorlands.gov.uk,-2.10799000000000,ST9 9JR,2014-02-25,fhrs_5_en-GB,5,,FHRS,5
347126,Unit 2a,Churnetside Business Park,,Cheddleton,Staffordshire Brewery,Manufacturers/packers,7839,5,,389346,5,,53.06939900000000,7174,293,environmental.health@staffsmoorlands.gov.uk,Staffordshire Moorlands,http://www.staffsmoorlands.gov.uk,-2.03421000000000,ST13 7EF,2012-02-17,fhrs_5_en-GB,5,,FHRS,5
347127,Marshfield Lane,,Gillow Heath,Biddulph,Staffordshire Knot,Pub/bar/nightclub,7843,10,,389016,10,,53.12718800000000,5080,293,environmental.health@staffsmoorlands.gov.uk,Staffordshire Moorlands,http://www.staffsmoorlands.gov.uk,-2.17712500000000,ST8 6RG,2014-06-17,fhrs_3_en-GB,3,,FHRS,5
347128,10 St Edward Street,,,Leek,Stake Out,Takeaway/sandwich shop,7844,10,,673071,15,,53.10604900000000,47173,293,environmental.health@staffsmoorlands.gov.uk,Staffordshire Moorlands,http://www.staffsmoorlands.gov.uk,-2.02701000000000,ST13 5DS,2014-06-12,fhrs_2_en-GB,2,,FHRS,10
347129,Tomkin Lane,,,Stanley,Stanley Head Outdoor Education Centre,Other catering premises,7841,0,,388967,0,,53.06655400000000,4889,293,environmental.health@staffsmoorlands.gov.uk,Staffordshire Moorlands,http://www.staffsmoorlands.gov.uk,-2.09258800000000,ST9 9LY,2014-07-29,fhrs_5_en-GB,5,,FHRS,0
347130,Star Inn,Main Road,,Hollington,Star Inn,Pub/bar/nightclub,7843,5,,433478,0,,52.94733600000000,37750,293,environmental.health@staffsmoorlands.gov.uk,Staffordshire Moorlands,http://www.staffsmoorlands.gov.uk,-1.91334300000000,ST10 4HH,2012-08-01,fhrs_5_en-GB,5,,FHRS,0
347131,Stockton Brook Post Office,Leek Road,,Stockton Brook,Stockton Brook Post Office,Retailers - other,4613,10,,468704,0,,53.06665400000000,39582,293,environmental.health@staffsmoorlands.gov.uk,Staffordshire Moorlands,http://www.staffsmoorlands.gov.uk,-2.12167400000000,ST9 9NH,2015-01-06,fhrs_4_en-GB,4,,FHRS,5
347132,Endon Wharf,Post Lane,,Endon,Stoke On Trent Boat Club,Pub/bar/nightclub,7843,10,,389162,5,,53.07225900000000,5662,293,environmental.health@staffsmoorlands.gov.uk,Staffordshire Moorlands,http://www.staffsmoorlands.gov.uk,-2.10766000000000,ST9 9DU,2012-05-04,fhrs_4_en-GB,4,,FHRS,5
347133,32 Derby Street,,,Leek,Subway,Takeaway/sandwich shop,7844,0,,389155,0,,53.10561000000000,5619,293,environmental.health@staffsmoorlands.gov.uk,Staffordshire Moorlands,http://www.staffsmoorlands.gov.uk,-2.02203600000000,ST13 5AJ,2014-12-12,fhrs_5_en-GB,5,,FHRS,0
347134,21 High Street,,,Biddulph,Sukis Snax,Restaurant/Cafe/Canteen,1,5,,388808,10,,53.11747400000000,4298,293,environmental.health@staffsmoorlands.gov.uk,Staffordshire Moorlands,http://www.staffsmoorlands.gov.uk,-2.17491800000000,ST8 6AW,2014-03-13,fhrs_4_en-GB,4,,FHRS,5
347135,,,,,Summers Fayre,Mobile caterer,7846,0,,389017,5,,,5084,293,environmental.health@staffsmoorlands.gov.uk,Staffordshire Moorlands,http://www.staffsmoorlands.gov.uk,,,2014-08-13,fhrs_5_en-GB,5,,FHRS,5
347136,248 Uttoxeter Road,,,Blythe Bridge,Sums Chinese Takeaway,Takeaway/sandwich shop,7844,10,,465205,10,,52.96576300000000,39426,293,environmental.health@staffsmoorlands.gov.uk,Staffordshire Moorlands,http://www.staffsmoorlands.gov.uk,-2.05812800000000,ST11 9LY,2014-08-02,fhrs_3_en-GB,3,,FHRS,10
347137,,,,,Sweet Emily,Other catering premises,7841,5,,409275,0,,,36942,293,environmental.health@staffsmoorlands.gov.uk,Staffordshire Moorlands,http://www.staffsmoorlands.gov.uk,,,2012-06-25,fhrs_5_en-GB,5,,FHRS,0
347138,Horton Road,,,Horton,Tain Cottage Day Nursery,Hospitals/Childcare/Caring Premises,5,10,,388965,5,,53.12439000000000,4887,293,environmental.health@staffsmoorlands.gov.uk,Staffordshire Moorlands,http://www.staffsmoorlands.gov.uk,-2.08020500000000,ST13 8RB,2010-03-02,fhrs_4_en-GB,4,,FHRS,5
347139,80 West Street,,,Leek,Take A Break,Takeaway/sandwich shop,7844,10,,388801,10,,53.10655100000000,4267,293,environmental.health@staffsmoorlands.gov.uk,Staffordshire Moorlands,http://www.staffsmoorlands.gov.uk,-2.03174600000000,ST13 8AG,2014-05-20,fhrs_2_en-GB,2,,FHRS,15
347140,Grange Road,,,Biddulph,Talbot Inn,Pub/bar/nightclub,7843,0,,388857,0,,53.13484600000000,4413,293,environmental.health@staffsmoorlands.gov.uk,Staffordshire Moorlands,http://www.staffsmoorlands.gov.uk,-2.15872600000000,ST8 7RY,2014-10-28,fhrs_5_en-GB,5,,FHRS,0
347141,1165 Uttoxeter Road,Blythe Bridge,,Stoke On Trent,Talbot News,Retailers - other,4613,10,,389285,0,,52.97353000000000,6331,293,environmental.health@staffsmoorlands.gov.uk,Staffordshire Moorlands,http://www.staffsmoorlands.gov.uk,-2.08676000000000,ST3 6HJ,2011-07-18,fhrs_4_en-GB,4,,FHRS,10
347142,Charles Street,,,Biddulph,Tall Oaks Care Home,Hospitals/Childcare/Caring Premises,5,5,,388982,0,,53.11346800000000,4941,293,environmental.health@staffsmoorlands.gov.uk,Staffordshire Moorlands,http://www.staffsmoorlands.gov.uk,-2.17303400000000,ST8 6JB,2014-11-04,fhrs_5_en-GB,5,,FHRS,5
347143,,,,,Tammys,Mobile caterer,7846,10,,698646,0,,,48145,293,environmental.health@staffsmoorlands.gov.uk,Staffordshire Moorlands,http://www.staffsmoorlands.gov.uk,,,2014-09-02,fhrs_4_en-GB,4,,FHRS,0
347144,4 High Street,,,Biddulph,Tangs Dynasty,Takeaway/sandwich shop,7844,5,,389137,5,,53.11769000000000,5530,293,environmental.health@staffsmoorlands.gov.uk,Staffordshire Moorlands,http://www.staffsmoorlands.gov.uk,-2.17512800000000,ST8 6AP,2013-11-26,fhrs_4_en-GB,4,,FHRS,10
347145,Cauldon Low Quarry,Cauldon Low,,Waterhouses,Tarmac Staff Canteen,Restaurant/Cafe/Canteen,1,10,,388912,10,,53.03780200000000,4681,293,environmental.health@staffsmoorlands.gov.uk,Staffordshire Moorlands,http://www.staffsmoorlands.gov.uk,-1.89055400000000,ST10 3EW,2014-02-06,fhrs_3_en-GB,3,,FHRS,5
347146,,,,,Taste Buds,Other catering premises,7841,0,,389323,0,,,6689,293,environmental.health@staffsmoorlands.gov.uk,Staffordshire Moorlands,http://www.staffsmoorlands.gov.uk,,,2014-11-13,fhrs_5_en-GB,5,,FHRS,0
347147,3 High Street,,,Biddulph,Taste Of Paradise,Takeaway/sandwich shop,7844,20,,389138,15,,53.11747400000000,5531,293,environmental.health@staffsmoorlands.gov.uk,Staffordshire Moorlands,http://www.staffsmoorlands.gov.uk,-2.17491800000000,ST8 6AW,2014-05-06,fhrs_1_en-GB,1,,FHRS,10
347148,TCV Cafe,Biddulph Grange Country Park,Grange Road,Biddulph,Tcv Cafe At Biddulph Grange Country Park,Restaurant/Cafe/Canteen,1,5,,433476,5,,53.12991500000000,37742,293,environmental.health@staffsmoorlands.gov.uk,Staffordshire Moorlands,http://www.staffsmoorlands.gov.uk,-2.16199600000000,ST8 7SD,2012-07-30,fhrs_5_en-GB,5,,FHRS,0
347149,2 New Road,,,Tean,Tean Fish Bar,Takeaway/sandwich shop,7844,10,,388834,5,,52.95447700000000,4370,293,environmental.health@staffsmoorlands.gov.uk,Staffordshire Moorlands,http://www.staffsmoorlands.gov.uk,-1.98715700000000,ST10 4DX,2013-08-30,fhrs_4_en-GB,4,,FHRS,5
347150,East Drive,,,Cheddleton,Teddys Garden Day Nusrsery,Hospitals/Childcare/Caring Premises,5,0,,388823,0,,53.07788300000000,4338,293,environmental.health@staffsmoorlands.gov.uk,Staffordshire Moorlands,http://www.staffsmoorlands.gov.uk,-2.03963600000000,ST13 7DN,2013-09-13,fhrs_5_en-GB,5,,FHRS,0
347151,305 Uttoxeter Road,,,Blythe Bridge,Tesco Express Blythe Bridge,Retailers - supermarkets/hypermarkets,7840,0,,625045,5,,52.96624800000000,44509,293,environmental.health@staffsmoorlands.gov.uk,Staffordshire Moorlands,http://www.staffsmoorlands.gov.uk,-2.05905200000000,ST11 9QA,2014-01-15,fhrs_5_en-GB,5,,FHRS,0
347152,Abbey Green Road,,,Leek,The Abbey Inn,Pub/bar/nightclub,7843,0,,388962,0,,53.11563000000000,4865,293,environmental.health@staffsmoorlands.gov.uk,Staffordshire Moorlands,http://www.staffsmoorlands.gov.uk,-2.03093100000000,ST13 8SA,2014-02-19,fhrs_5_en-GB,5,,FHRS,5
347153,Auctioneers Arms,The Green,,Caverswall,The Auctioneers Arms,Pub/bar/nightclub,7843,5,,389369,5,,52.98830300000000,7298,293,environmental.health@staffsmoorlands.gov.uk,Staffordshire Moorlands,http://www.staffsmoorlands.gov.uk,-2.08193300000000,ST11 9EQ,2014-08-15,fhrs_4_en-GB,4,,FHRS,10
347154,The Avenue,,,Cheddleton,The Avenue Fish And Chip Shop,Takeaway/sandwich shop,7844,5,,388936,0,,53.06375200000000,4798,293,environmental.health@staffsmoorlands.gov.uk,Staffordshire Moorlands,http://www.staffsmoorlands.gov.uk,-2.04063700000000,ST13 7JB,2014-09-02,fhrs_4_en-GB,4,,FHRS,10
347155,17 Market Place,,,Leek,The Bird In Hand,Pub/bar/nightclub,7843,10,,389101,5,,53.10631900000000,5393,293,environmental.health@staffsmoorlands.gov.uk,Staffordshire Moorlands,http://www.staffsmoorlands.gov.uk,-2.02568100000000,ST13 5HJ,2012-07-23,fhrs_3_en-GB,3,,FHRS,10
347156,381 Leek Road,,,Endon,The Black Horse,Pub/bar/nightclub,7843,5,,388922,0,,53.08264500000000,4731,293,environmental.health@staffsmoorlands.gov.uk,Staffordshire Moorlands,http://www.staffsmoorlands.gov.uk,-2.10284900000000,ST9 9BA,2013-03-11,fhrs_5_en-GB,5,,FHRS,5
347157,Tythe Barn,,,"Alton, Stoke On Trent",The Blacksmiths Arms,Pub/bar/nightclub,7843,5,,388854,5,,52.97220100000000,4409,293,environmental.health@staffsmoorlands.gov.uk,Staffordshire Moorlands,http://www.staffsmoorlands.gov.uk,-1.89247600000000,ST10 4AZ,2015-01-22,fhrs_5_en-GB,5,,FHRS,5
347158,17 Osborne Street,,,Leek,The Blue  Mugge,Pub/bar/nightclub,7843,5,,389044,5,,53.10696800000000,5166,293,environmental.health@staffsmoorlands.gov.uk,Staffordshire Moorlands,http://www.staffsmoorlands.gov.uk,-2.01571800000000,ST13 6LJ,2013-06-25,fhrs_5_en-GB,5,,FHRS,5
347159,170 Basford Bridge Lane,,,Cheddleton,The Boat Inn,Pub/bar/nightclub,7843,5,,388925,10,,53.06624500000000,4766,293,environmental.health@staffsmoorlands.gov.uk,Staffordshire Moorlands,http://www.staffsmoorlands.gov.uk,-2.02953700000000,ST13 7EG,2014-06-20,fhrs_4_en-GB,4,,FHRS,5
347160,High Street,,,Biddulph,The Bradley Green,Pub/bar/nightclub,7843,0,,389376,5,,53.11559300000000,7326,293,environmental.health@staffsmoorlands.gov.uk,Staffordshire Moorlands,http://www.staffsmoorlands.gov.uk,-2.17640400000000,ST8 6AS,2013-12-11,fhrs_5_en-GB,5,,FHRS,0
347161,5 Cheadle Shopping Centre,,,Cheadle,The Bread Basket,Retailers - other,4613,0,,388835,5,,52.98682000000000,4371,293,environmental.health@staffsmoorlands.gov.uk,Staffordshire Moorlands,http://www.staffsmoorlands.gov.uk,-1.98856300000000,ST10 1UY,2014-07-22,fhrs_5_en-GB,5,,FHRS,0
347162,46 West Street,,,Leek,The Britannia Inn,Pub/bar/nightclub,7843,0,,389278,0,,53.10664200000000,6291,293,environmental.health@staffsmoorlands.gov.uk,Staffordshire Moorlands,http://www.staffsmoorlands.gov.uk,-2.02965400000000,ST13 8AA,2011-07-04,fhrs_5_en-GB,5,,FHRS,5
347163,32 Blythe Park,Creswswell Lane,,Cresswell,The Cake Station,Retailers - other,4613,5,,389312,0,,52.94917800000000,6612,293,environmental.health@staffsmoorlands.gov.uk,Staffordshire Moorlands,http://www.staffsmoorlands.gov.uk,-2.03505200000000,ST11 9RD,2011-11-03,fhrs_5_en-GB,5,,FHRS,0
347164,Cloves,Ashbourne Road,Bottomhouse,Leek,The Cloves,Restaurant/Cafe/Canteen,1,20,,623117,15,,53.07258900000000,44357,293,environmental.health@staffsmoorlands.gov.uk,Staffordshire Moorlands,http://www.staffsmoorlands.gov.uk,-1.94024200000000,ST13 7QN,2014-01-30,fhrs_1_en-GB,1,,FHRS,10
347165,Abbotts Road,,,Leek,The Co Operative,Retailers - supermarkets/hypermarkets,7840,0,,389031,0,,53.11194000000000,5113,293,environmental.health@staffsmoorlands.gov.uk,Staffordshire Moorlands,http://www.staffsmoorlands.gov.uk,-2.00904200000000,ST13 6PD,2014-02-21,fhrs_5_en-GB,5,,FHRS,0
347166,10 Derby Street,,,Leek,The Cock  Inn,Pub/bar/nightclub,7843,10,,388888,5,,53.10591500000000,4546,293,environmental.health@staffsmoorlands.gov.uk,Staffordshire Moorlands,http://www.staffsmoorlands.gov.uk,-2.02409700000000,ST13 6HN,2014-01-14,fhrs_4_en-GB,4,,FHRS,5
347167,High Street,,,Tean,The Cooperative,Retailers - other,4613,5,,389126,5,,52.95447700000000,5494,293,environmental.health@staffsmoorlands.gov.uk,Staffordshire Moorlands,http://www.staffsmoorlands.gov.uk,-1.98715700000000,ST104DX,2010-08-18,fhrs_5_en-GB,5,,FHRS,5
347168,The Cottage Kitchen,Ashbourne Road,Bottomhouse,Leek,The Cottage Kitchen,Restaurant/Cafe/Canteen,1,0,,728044,5,,53.06681800000000,50105,293,environmental.health@staffsmoorlands.gov.uk,Staffordshire Moorlands,http://www.staffsmoorlands.gov.uk,-1.92452100000000,ST13 7PN,2015-01-05,fhrs_5_en-GB,5,,FHRS,0
347169,Cross Inn,Ash Tree Road,Hoftens Cross,Cauldon Low,The Cross Inn,Pub/bar/nightclub,7843,5,,730797,5,,53.03147300000000,50329,293,environmental.health@staffsmoorlands.gov.uk,Staffordshire Moorlands,http://www.staffsmoorlands.gov.uk,-1.88992900000000,ST10 3EX,2015-01-20,fhrs_5_en-GB,5,,FHRS,0
347170,311 Uttoxeter Road,,,Blythe Bridge,The Deep Pan Man,Takeaway/sandwich shop,7844,20,,389378,5,,52.96624800000000,7662,293,environmental.health@staffsmoorlands.gov.uk,Staffordshire Moorlands,http://www.staffsmoorlands.gov.uk,-2.05905200000000,ST11 9QA,2013-11-14,fhrs_1_en-GB,1,,FHRS,15
347171,Unit 3,Moorlands Shopping Centre,Pickwood Road,Leek,The Diner,Restaurant/Cafe/Canteen,1,0,,388940,0,,53.10485400000000,4816,293,environmental.health@staffsmoorlands.gov.uk,Staffordshire Moorlands,http://www.staffsmoorlands.gov.uk,-2.02533600000000,ST13 5SN,2014-11-14,fhrs_5_en-GB,5,,FHRS,0
347172,Leekbrook Industrial Estate,Leekbrook Way,,Leek,The Divas Diner,Takeaway/sandwich shop,7844,5,,389042,10,,53.08346900000000,5164,293,environmental.health@staffsmoorlands.gov.uk,Staffordshire Moorlands,http://www.staffsmoorlands.gov.uk,-2.02421900000000,ST13 7AP,2013-07-01,fhrs_4_en-GB,4,,FHRS,5
347173,Town End lane,Swinscoe,,Ashbourne,The Dog And Partridge Inn,Pub/bar/nightclub,7843,5,,389266,10,,53.03010900000000,6179,293,environmental.health@staffsmoorlands.gov.uk,Staffordshire Moorlands,http://www.staffsmoorlands.gov.uk,-1.80139200000000,DE6 2HS,2014-01-09,fhrs_4_en-GB,4,,FHRS,5
347174,2-3 Market Place,,,Leek,The Engine Room,Pub/bar/nightclub,7843,5,,389200,0,,53.10617500000000,5856,293,environmental.health@staffsmoorlands.gov.uk,Staffordshire Moorlands,http://www.staffsmoorlands.gov.uk,-2.02512800000000,ST13 5HH,2014-01-14,fhrs_4_en-GB,4,,FHRS,10
347175,130 Ashbourne Road,,,Leek,The Flying Horse,Pub/bar/nightclub,7843,5,,389066,10,,53.10156600000000,5256,293,environmental.health@staffsmoorlands.gov.uk,Staffordshire Moorlands,http://www.staffsmoorlands.gov.uk,-2.00969700000000,ST13 5BJ,2013-08-06,fhrs_4_en-GB,4,,FHRS,5
347176,56 Hot Lane,,,Biddulph,The Foxhound,Pub/bar/nightclub,7843,5,,389235,5,,53.12412400000000,6055,293,environmental.health@staffsmoorlands.gov.uk,Staffordshire Moorlands,http://www.staffsmoorlands.gov.uk,-2.13549500000000,ST8 7JT,2011-03-11,fhrs_5_en-GB,5,,FHRS,5
347177,Brown Lees Road,,,Biddulph,The Gardeners Arms,Pub/bar/nightclub,7843,5,,389043,5,,53.10096300000000,5165,293,environmental.health@staffsmoorlands.gov.uk,Staffordshire Moorlands,http://www.staffsmoorlands.gov.uk,-2.18588800000000,ST8 6PH,2010-05-19,fhrs_5_en-GB,5,,FHRS,5
347178,Post Office Road,Alstonfield,,Ashbourne,The George Inn,Pub/bar/nightclub,7843,0,,389103,5,,53.09658000000000,5395,293,environmental.health@staffsmoorlands.gov.uk,Staffordshire Moorlands,http://www.staffsmoorlands.gov.uk,-1.80468600000000,DE6 2FX,2014-01-30,fhrs_5_en-GB,5,,FHRS,5
347179,40 Chapel Street,,,Cheadle,The Goldfish Bowl,Takeaway/sandwich shop,7844,5,,389233,0,,52.98592100000000,6034,293,environmental.health@staffsmoorlands.gov.uk,Staffordshire Moorlands,http://www.staffsmoorlands.gov.uk,-1.98689500000000,ST10 1DY,2013-01-22,fhrs_5_en-GB,5,,FHRS,0
347180,8-10 Ball Haye Street,,,Leek,The Green Ball Off Licence,Retailers - other,4613,20,,389119,5,,53.11067100000000,5464,293,environmental.health@staffsmoorlands.gov.uk,Staffordshire Moorlands,http://www.staffsmoorlands.gov.uk,-2.01825900000000,ST13 6AY,2014-07-14,fhrs_1_en-GB,1,,FHRS,5
347181,The Green Dragon,2 St Edward Street,,Leek,The Green Dragon,Pub/bar/nightclub,7843,0,,582521,0,,53.10604900000000,43173,293,environmental.health@staffsmoorlands.gov.uk,Staffordshire Moorlands,http://www.staffsmoorlands.gov.uk,-2.02701000000000,ST13 5DS,2013-09-03,fhrs_5_en-GB,5,,FHRS,0
347182,38 Compton,,,Leek,The Green Man At Compton,Hotel/bed & breakfast/guest house,7842,5,,388952,5,,53.10595000000000,4840,293,environmental.health@staffsmoorlands.gov.uk,Staffordshire Moorlands,http://www.staffsmoorlands.gov.uk,-2.02630800000000,ST13 5HN,2014-02-14,fhrs_5_en-GB,5,,FHRS,0
347183,Denford Road,Longsden,,Leek,The Hollybush Inn,Pub/bar/nightclub,7843,0,,388966,0,,53.07889500000000,4888,293,environmental.health@staffsmoorlands.gov.uk,Staffordshire Moorlands,http://www.staffsmoorlands.gov.uk,-2.06834200000000,ST13 7JT,2013-04-18,fhrs_5_en-GB,5,,FHRS,5
347184,20 Haywood Street,,,Leek,The Hungry Horse Cafe,Restaurant/Cafe/Canteen,1,10,,389099,10,,53.10446800000000,5390,293,environmental.health@staffsmoorlands.gov.uk,Staffordshire Moorlands,http://www.staffsmoorlands.gov.uk,-2.02349900000000,ST13 5JX,2012-02-20,fhrs_3_en-GB,3,,FHRS,10
347185,The Green,Cheadle,,Stoke On Trent,The Huntsman,Pub/bar/nightclub,7843,20,,388943,15,,52.98333300000000,4821,293,environmental.health@staffsmoorlands.gov.uk,Staffordshire Moorlands,http://www.staffsmoorlands.gov.uk,-2.00365200000000,ST10 1XS,2014-11-17,fhrs_1_en-GB,1,,FHRS,10
347186,19 The Smithfield Centre,Haywood Street,,Leek,The Indian In Leek,Takeaway/sandwich shop,7844,10,,719953,5,,53.10517800000000,49717,293,environmental.health@staffsmoorlands.gov.uk,Staffordshire Moorlands,http://www.staffsmoorlands.gov.uk,-2.02143800000000,ST13 5JW,2014-11-15,fhrs_4_en-GB,4,,FHRS,5
347187,The Izaak Walton Inn,Sandon Road,,Cresswell,The Izaak Walton Inn,Pub/bar/nightclub,7843,5,,723546,10,,52.95214400000000,49797,293,environmental.health@staffsmoorlands.gov.uk,Staffordshire Moorlands,http://www.staffsmoorlands.gov.uk,-2.03670700000000,ST11 9RE,2014-12-11,fhrs_4_en-GB,4,,FHRS,5
347188,Flash Bar,Quarnford,,Buxton,The Knights Table At The Travellers Rest,Pub/bar/nightclub,7843,0,,389058,0,,53.20626200000000,5205,293,environmental.health@staffsmoorlands.gov.uk,Staffordshire Moorlands,http://www.staffsmoorlands.gov.uk,-1.95682600000000,SK17 0SN,2014-11-19,fhrs_5_en-GB,5,,FHRS,0
347189,Station Lane,Rushton Spencer,,Macclesfield,The Knot Inn,Pub/bar/nightclub,7843,5,,388836,10,,53.15950500000000,4372,293,environmental.health@staffsmoorlands.gov.uk,Staffordshire Moorlands,http://www.staffsmoorlands.gov.uk,-2.09850200000000,SK11 0QU,2014-01-07,fhrs_4_en-GB,4,,FHRS,5
347190,Meerbrook,,,Leek,The Lazy Trout,Pub/bar/nightclub,7843,5,,389118,5,,53.14372253417969,5463,293,environmental.health@staffsmoorlands.gov.uk,Staffordshire Moorlands,http://www.staffsmoorlands.gov.uk,-2.01570177078247,ST13 8SN,2014-09-02,fhrs_4_en-GB,4,,FHRS,10
347191,Joliffe Street,,,Leek,The Learning Mill,Hospitals/Childcare/Caring Premises,5,0,,389152,0,,53.10436900000000,5598,293,environmental.health@staffsmoorlands.gov.uk,Staffordshire Moorlands,http://www.staffsmoorlands.gov.uk,-2.02439500000000,ST13 5JE,2013-10-14,fhrs_5_en-GB,5,,FHRS,5
347192,Mango Tree,56 Uttoxeter Road,,Draycott In The Moors,The Mango Garden,Restaurant/Cafe/Canteen,1,10,,722527,15,,52.96230800000000,49777,293,environmental.health@staffsmoorlands.gov.uk,Staffordshire Moorlands,http://www.staffsmoorlands.gov.uk,-2.04484400000000,ST11 9NR,2014-12-04,fhrs_2_en-GB,2,,FHRS,10
347193,Manifold Inn,Alstonfield Road,,Hulme End,The Manifold Inn,Pub/bar/nightclub,7843,10,,715638,10,,53.13107200000000,48765,293,environmental.health@staffsmoorlands.gov.uk,Staffordshire Moorlands,http://www.staffsmoorlands.gov.uk,-1.84201300000000,SK17 0EX,2014-08-01,fhrs_3_en-GB,3,,FHRS,10
347194,Watt Place,Cheadle,,Stoke On Trent,The Manor Hotel,Hotel/bed & breakfast/guest house,7842,5,,389030,0,,52.98593100000000,5111,293,environmental.health@staffsmoorlands.gov.uk,Staffordshire Moorlands,http://www.staffsmoorlands.gov.uk,-1.99216800000000,ST10 1NZ,2014-02-18,fhrs_5_en-GB,5,,FHRS,0
347195,1 Stanley Street,,,Leek,The Market Kitchen,Restaurant/Cafe/Canteen,1,0,,696674,0,,53.10558200000000,48069,293,environmental.health@staffsmoorlands.gov.uk,Staffordshire Moorlands,http://www.staffsmoorlands.gov.uk,-2.02602400000000,ST13 5HG,2014-06-18,fhrs_5_en-GB,5,,FHRS,0
347196,8 High Street,,,Cheadle,The Mughal,Restaurant/Cafe/Canteen,1,10,,389377,10,,52.98782700000000,7658,293,environmental.health@staffsmoorlands.gov.uk,Staffordshire Moorlands,http://www.staffsmoorlands.gov.uk,-1.98865200000000,ST10 1AF,2014-03-25,fhrs_3_en-GB,3,,FHRS,5
347197,12 Hollow Lane,,,Cheddleton,The New Black Lion,Pub/bar/nightclub,7843,10,,389318,5,,53.06849700000000,6653,293,environmental.health@staffsmoorlands.gov.uk,Staffordshire Moorlands,http://www.staffsmoorlands.gov.uk,-2.04486500000000,ST13 7HP,2014-03-12,fhrs_3_en-GB,3,,FHRS,10
347198,New Broom Inn,Uttoxeter Road,,Checkley,The New Broom,Pub/bar/nightclub,7843,0,,553110,0,,52.93911700000000,42193,293,environmental.health@staffsmoorlands.gov.uk,Staffordshire Moorlands,http://www.staffsmoorlands.gov.uk,-1.95725400000000,ST10 4NB,2014-11-13,fhrs_5_en-GB,5,,FHRS,5
347199,Flash,,,Buxton,The New Inn,Pub/bar/nightclub,7843,5,,388984,5,,53.20192337036133,4944,293,environmental.health@staffsmoorlands.gov.uk,Staffordshire Moorlands,http://www.staffsmoorlands.gov.uk,-1.96338737010956,SK17 0SW,2010-03-08,fhrs_5_en-GB,5,,FHRS,5
347200,Old Central Club,Market Street,,Leek,The Old Central Club,Pub/bar/nightclub,7843,0,,715642,0,,53.10645400000000,48809,293,environmental.health@staffsmoorlands.gov.uk,Staffordshire Moorlands,http://www.staffsmoorlands.gov.uk,-2.02353000000000,ST13 6HX,2014-10-08,fhrs_5_en-GB,5,,FHRS,5
347201,Froghall Road,Ipstones,,Stoke on Trent,The Old Red Lion,Pub/bar/nightclub,7843,0,,389121,0,,53.04387200000000,5470,293,environmental.health@staffsmoorlands.gov.uk,Staffordshire Moorlands,http://www.staffsmoorlands.gov.uk,-1.97136600000000,ST10 2NA,2014-11-28,fhrs_5_en-GB,5,,FHRS,0
347202,Vicarage Road,Upper Tean,,Stoke on Trent,The Old Vicarage Residential Home,Hospitals/Childcare/Caring Premises,5,10,,389019,5,,52.95191500000000,5087,293,environmental.health@staffsmoorlands.gov.uk,Staffordshire Moorlands,http://www.staffsmoorlands.gov.uk,-1.98174000000000,ST10 4LE,2014-06-30,fhrs_4_en-GB,4,,FHRS,5
347203,21 King Street,,,Leek,The Peak Weavers Hotel,Hotel/bed & breakfast/guest house,7842,5,,389041,0,,53.10312800000000,5162,293,environmental.health@staffsmoorlands.gov.uk,Staffordshire Moorlands,http://www.staffsmoorlands.gov.uk,-2.02623200000000,ST13 5NW,2013-04-29,fhrs_5_en-GB,5,,FHRS,5
347204,4 Sheep Market,,,Leek,The Penguin,Takeaway/sandwich shop,7844,10,,700608,5,,53.10610300000000,48209,293,environmental.health@staffsmoorlands.gov.uk,Staffordshire Moorlands,http://www.staffsmoorlands.gov.uk,-2.02620400000000,ST13 5HW,2014-09-08,fhrs_4_en-GB,4,,FHRS,5
347205,73 St Edward Street,,,Leek,The Quiet Woman,Pub/bar/nightclub,7843,10,,388927,10,,53.10492600000000,4768,293,environmental.health@staffsmoorlands.gov.uk,Staffordshire Moorlands,http://www.staffsmoorlands.gov.uk,-2.02608300000000,ST13 5DN,2014-08-01,fhrs_3_en-GB,3,,FHRS,5
347206,Quarry Bank,Hollington,,Stoke On Trent,The Raddle Inn,Pub/bar/nightclub,7843,5,,388909,0,,53.18774032592773,4675,293,environmental.health@staffsmoorlands.gov.uk,Staffordshire Moorlands,http://www.staffsmoorlands.gov.uk,-2.66707992553711,ST104HQ,2012-01-16,fhrs_4_en-GB,4,,FHRS,10
347207,High Street,,,Leek,The Rajah Tandoori,Restaurant/Cafe/Canteen,1,5,,388878,10,,53.10578800000000,4515,293,environmental.health@staffsmoorlands.gov.uk,Staffordshire Moorlands,http://www.staffsmoorlands.gov.uk,-2.02726400000000,ST13 5DZ,2014-08-20,fhrs_4_en-GB,4,,FHRS,5
347208,The Square,Caverswall,,Stoke on Trent,The Red House,Pub/bar/nightclub,7843,10,,388850,10,,52.98365100000000,4402,293,environmental.health@staffsmoorlands.gov.uk,Staffordshire Moorlands,http://www.staffsmoorlands.gov.uk,-2.07461100000000,ST11 9ED,2014-08-15,fhrs_3_en-GB,3,,FHRS,10
347209,Red Lion Inn,Ankors Lane,,Thorncliffe,The Red L Ion,Pub/bar/nightclub,7843,0,,696673,0,,53.12388500000000,48065,293,environmental.health@staffsmoorlands.gov.uk,Staffordshire Moorlands,http://www.staffsmoorlands.gov.uk,-1.97853100000000,ST13 7LP,2014-08-16,fhrs_5_en-GB,5,,FHRS,0
347210,Boundary Road,Boundary,,Cheadle,The Red Lion Inn,Pub/bar/nightclub,7843,0,,389319,5,,52.97970700000000,6654,293,environmental.health@staffsmoorlands.gov.uk,Staffordshire Moorlands,http://www.staffsmoorlands.gov.uk,-2.02830100000000,ST10 2NU,2015-02-12,fhrs_5_en-GB,5,,FHRS,5
347211,Red Lion Inn,Ankors Lane,,Thorncliffe,The Red Lion Inn,Pub/bar/nightclub,7843,0,,715636,0,,53.12388500000000,48753,293,environmental.health@staffsmoorlands.gov.uk,Staffordshire Moorlands,http://www.staffsmoorlands.gov.uk,-1.97853100000000,ST13 7LP,2014-08-16,fhrs_5_en-GB,5,,FHRS,0
347212,274 Ash Bank Road,,,Werrington,The Red Onion,Restaurant/Cafe/Canteen,1,10,,389332,5,,53.02169400000000,7045,293,environmental.health@staffsmoorlands.gov.uk,Staffordshire Moorlands,http://www.staffsmoorlands.gov.uk,-2.09803700000000,ST9 0JS,2014-01-09,fhrs_3_en-GB,3,,FHRS,10
347213,81-83 Mill Street,,,Leek,The Retreat,Other catering premises,7841,10,,389027,5,,53.10869000000000,5107,293,environmental.health@staffsmoorlands.gov.uk,Staffordshire Moorlands,http://www.staffsmoorlands.gov.uk,-2.03321100000000,ST13 8EU,2013-04-03,fhrs_4_en-GB,4,,FHRS,5
347214,Leek Road,Waterhouses,,Stoke on Trent,The Riverside Cafe,Restaurant/Cafe/Canteen,1,5,,389021,5,,53.04963900000000,5089,293,environmental.health@staffsmoorlands.gov.uk,Staffordshire Moorlands,http://www.staffsmoorlands.gov.uk,-1.87945500000000,ST103HN,2013-05-16,fhrs_5_en-GB,5,,FHRS,5
347215,The Roaring Meg,Pennine Way,,Biddulph,The Roaring Meg,Pub/bar/nightclub,7843,5,,486756,10,,53.12112600000000,40098,293,environmental.health@staffsmoorlands.gov.uk,Staffordshire Moorlands,http://www.staffsmoorlands.gov.uk,-2.16082700000000,ST8 7EA,2014-05-19,fhrs_4_en-GB,4,,FHRS,5
347216,18 Derby Street,,,Leek,The Roebuck,Pub/bar/nightclub,7843,10,,389115,0,,53.10560900000000,5452,293,environmental.health@staffsmoorlands.gov.uk,Staffordshire Moorlands,http://www.staffsmoorlands.gov.uk,-2.02388800000000,ST13 5AB,2013-11-18,fhrs_4_en-GB,4,,FHRS,5
347217,Macclesfield Road,Rushton Spencer,,Macclesfield,The Rushton Inn,Pub/bar/nightclub,7843,5,,388916,10,,53.16021700000000,4692,293,environmental.health@staffsmoorlands.gov.uk,Staffordshire Moorlands,http://www.staffsmoorlands.gov.uk,-2.09516800000000,SK11 0SE,2013-07-31,fhrs_4_en-GB,4,,FHRS,5
347218,Cheadle Road,Upper Tean,,Stoke on Trent,The Ship Inn,Pub/bar/nightclub,7843,0,,389294,0,,52.96433900000000,6438,293,environmental.health@staffsmoorlands.gov.uk,Staffordshire Moorlands,http://www.staffsmoorlands.gov.uk,-1.99069800000000,ST10 4ES,2013-01-17,fhrs_5_en-GB,5,,FHRS,0
347219,Pown Street,Sheen,,Buxton,The Staffordshire Knot,Pub/bar/nightclub,7843,5,,389216,0,,53.14524000000000,5916,293,environmental.health@staffsmoorlands.gov.uk,Staffordshire Moorlands,http://www.staffsmoorlands.gov.uk,-1.83626500000000,SK17 0ET,2013-04-24,fhrs_5_en-GB,5,,FHRS,5
347220,Caverswall Road Station,Caverswall Road,,Blythe Bridge,The Steaming Tea Pot Cafe,Restaurant/Cafe/Canteen,1,5,,430304,5,,52.97139500000000,37666,293,environmental.health@staffsmoorlands.gov.uk,Staffordshire Moorlands,http://www.staffsmoorlands.gov.uk,-2.06538700000000,ST11 9BG,2014-11-30,fhrs_4_en-GB,4,,FHRS,10
347221,Hill Top,Brown Edge,,Stoke On Trent,The Top Pub,Pub/bar/nightclub,7843,10,,389132,10,,53.08588200000000,5516,293,environmental.health@staffsmoorlands.gov.uk,Staffordshire Moorlands,http://www.staffsmoorlands.gov.uk,-2.13753900000000,ST6 8TX,2013-10-15,fhrs_3_en-GB,3,,FHRS,10
347222,Froghall Road,Ipstones,,Stoke on Trent,The Trading Post (Londis Shop),Retailers - other,4613,10,,389314,5,,53.04663100000000,6626,293,environmental.health@staffsmoorlands.gov.uk,Staffordshire Moorlands,http://www.staffsmoorlands.gov.uk,-1.97064800000000,ST10 2LA,2014-02-07,fhrs_4_en-GB,4,,FHRS,5
347223,3 Stanley Street,,,Leek,The Valiant Inn,Pub/bar/nightclub,7843,10,,389225,10,,53.10558200000000,5985,293,environmental.health@staffsmoorlands.gov.uk,Staffordshire Moorlands,http://www.staffsmoorlands.gov.uk,-2.02602400000000,ST13 5HG,2013-10-17,fhrs_3_en-GB,3,,FHRS,10
347224,School Drive,Oakamoor,,Stoke On Trent,The Valley Primary School,School/college/university,7845,5,,389299,0,,53.00276000000000,6484,293,environmental.health@staffsmoorlands.gov.uk,Staffordshire Moorlands,http://www.staffsmoorlands.gov.uk,-1.92157800000000,ST10 3DQ,2013-02-12,fhrs_5_en-GB,5,,FHRS,5
347225,33 High Street,Tean,,Stoke On Trent,The Village Bakehouse,Retailers - other,4613,5,,389131,0,,52.95363200000000,5511,293,environmental.health@staffsmoorlands.gov.uk,Staffordshire Moorlands,http://www.staffsmoorlands.gov.uk,-1.98672600000000,ST10 4DY,2014-01-29,fhrs_5_en-GB,5,,FHRS,0
347226,Hope Dale,Alstonfield,,Ashbourne,The Watts Russell Arms,Pub/bar/nightclub,7843,10,,388972,10,,53.09364700000000,4930,293,environmental.health@staffsmoorlands.gov.uk,Staffordshire Moorlands,http://www.staffsmoorlands.gov.uk,-1.81415100000000,DE6 2GD,2014-09-05,fhrs_3_en-GB,3,,FHRS,10
347227,Wheatsheaf Inn,High Street,,Cheadle,The Wheatsheaf (Jd Wetherspoons),Pub/bar/nightclub,7843,0,,439578,5,,52.98711700000000,38066,293,environmental.health@staffsmoorlands.gov.uk,Staffordshire Moorlands,http://www.staffsmoorlands.gov.uk,-1.98912900000000,ST10 1AR,2014-01-29,fhrs_5_en-GB,5,,FHRS,0
347228,Leek Road,Longsdon,,Stoke On Trent,The Wheel,Pub/bar/nightclub,7843,20,,388867,5,,53.08830100000000,4450,293,environmental.health@staffsmoorlands.gov.uk,Staffordshire Moorlands,http://www.staffsmoorlands.gov.uk,-2.06134000000000,ST9 9QF,2014-02-14,fhrs_1_en-GB,1,,FHRS,10
347229,16 St Edwards Street,,,Leek,The Wilkes Head,Pub/bar/nightclub,7843,5,,389217,5,,53.10604900000000,5917,293,environmental.health@staffsmoorlands.gov.uk,Staffordshire Moorlands,http://www.staffsmoorlands.gov.uk,-2.02701000000000,ST13 5DS,2011-02-07,fhrs_5_en-GB,5,,FHRS,5
347230,Buxton Road,Upper Hulme,,Leek,The Winking Man,Pub/bar/nightclub,7843,0,,388889,0,,53.16959000000000,4551,293,environmental.health@staffsmoorlands.gov.uk,Staffordshire Moorlands,http://www.staffsmoorlands.gov.uk,-1.96383300000000,ST13 8UH,2013-04-23,fhrs_5_en-GB,5,,FHRS,0
347231,16 - 18 Getliffes Yard,Derby Street,,Leek,The Yard Tearooms,Restaurant/Cafe/Canteen,1,0,,715634,5,,53.10594200000000,48665,293,environmental.health@staffsmoorlands.gov.uk,Staffordshire Moorlands,http://www.staffsmoorlands.gov.uk,-2.02239500000000,ST13 6HU,2014-10-03,fhrs_5_en-GB,5,,FHRS,0
347232,Lockwood Road,Kingsley Holt,,Stoke on Trent,Thornbury Hall Rasoi,Restaurant/Cafe/Canteen,1,0,,389301,0,,53.00592800000000,6501,293,environmental.health@staffsmoorlands.gov.uk,Staffordshire Moorlands,http://www.staffsmoorlands.gov.uk,-1.96826100000000,ST10 2DH,2014-03-01,fhrs_5_en-GB,5,,FHRS,0
347233,Three Horse Shoes,Buxton Road,,Leek,Three Horseshoes Inn,Restaurant/Cafe/Canteen,1,0,,389353,0,,53.13484400000000,7206,293,environmental.health@staffsmoorlands.gov.uk,Staffordshire Moorlands,http://www.staffsmoorlands.gov.uk,-1.98882400000000,ST13 8TW,2014-06-18,fhrs_5_en-GB,5,,FHRS,5
347234,The Old Barn,Knotbury Edge Lane,Flash,Buxton,Three Shires Chutneys,Manufacturers/packers,7839,5,,389064,5,,53.21092400000000,5254,293,environmental.health@staffsmoorlands.gov.uk,Staffordshire Moorlands,http://www.staffsmoorlands.gov.uk,-1.97520900000000,SK17 0TQ,2010-06-18,fhrs_5_en-GB,5,,FHRS,5
347235,2 Church Street,,,Leek,Time For Tea,Restaurant/Cafe/Canteen,1,0,,388979,0,,53.10679600000000,4938,293,environmental.health@staffsmoorlands.gov.uk,Staffordshire Moorlands,http://www.staffsmoorlands.gov.uk,-2.02562100000000,ST13 6AB,2014-02-28,fhrs_5_en-GB,5,,FHRS,0
347236,Staffordshire Moorlands Childrens Centre,Albert Street,,Biddulph,Tiny Toez@Biddulph,Hospitals/Childcare/Caring Premises,5,5,,389141,0,,53.11709200000000,5539,293,environmental.health@staffsmoorlands.gov.uk,Staffordshire Moorlands,http://www.staffsmoorlands.gov.uk,-2.17213800000000,ST8 6DT,2013-11-14,fhrs_5_en-GB,5,,FHRS,0
347237,Leek Road,Endon,,Stoke on Trent,Toby Carvery (Plough Inn),Restaurant/Cafe/Canteen,1,5,,389222,5,,53.08019700000000,5969,293,environmental.health@staffsmoorlands.gov.uk,Staffordshire Moorlands,http://www.staffsmoorlands.gov.uk,-2.10602300000000,ST9 9BE,2014-08-06,fhrs_4_en-GB,4,,FHRS,10
347238,6 Tuscan Close,,,Cheadle,Toft Brewing,Manufacturers/packers,7839,5,,389341,5,,52.97853300000000,7150,293,environmental.health@staffsmoorlands.gov.uk,Staffordshire Moorlands,http://www.staffsmoorlands.gov.uk,-1.99404600000000,ST10 1HS,2012-04-25,fhrs_5_en-GB,5,,FHRS,5
347239,Top Of The Trent,Woodland Street,,Biddulph,Top O'th Trent,Pub/bar/nightclub,7843,5,,649166,0,,53.11108700000000,45333,293,environmental.health@staffsmoorlands.gov.uk,Staffordshire Moorlands,http://www.staffsmoorlands.gov.uk,-2.17190400000000,ST8 6LW,2014-02-22,fhrs_4_en-GB,4,,FHRS,10
347240,Alton Towers,Farley Lane,,Farley,Towers Street Bar And Grill,Restaurant/Cafe/Canteen,1,10,,668348,10,,52.98832400000000,46589,293,environmental.health@staffsmoorlands.gov.uk,Staffordshire Moorlands,http://www.staffsmoorlands.gov.uk,-1.88866800000000,ST10 4DB,2014-05-27,fhrs_3_en-GB,3,,FHRS,10
347241,250 Uttoxeter Road,,,Blythe Bridge,Traditional Bakehouse,Takeaway/sandwich shop,7844,10,,718182,5,,52.96576300000000,49569,293,environmental.health@staffsmoorlands.gov.uk,Staffordshire Moorlands,http://www.staffsmoorlands.gov.uk,-2.05812800000000,ST11 9LY,2014-11-24,fhrs_4_en-GB,4,,FHRS,5
347242,Tompkin Road,,Stanley,Stoke on Trent,Travellers Rest,Pub/bar/nightclub,7843,0,,389280,5,,53.06777800000000,6295,293,environmental.health@staffsmoorlands.gov.uk,Staffordshire Moorlands,http://www.staffsmoorlands.gov.uk,-2.10227600000000,ST9 9LX,2014-06-30,fhrs_5_en-GB,5,,FHRS,0
347243,Travellers Rest,Leek Road,,Leekbrook,Travellers Rest,Pub/bar/nightclub,7843,10,,623605,5,,53.08192300000000,44381,293,environmental.health@staffsmoorlands.gov.uk,Staffordshire Moorlands,http://www.staffsmoorlands.gov.uk,-2.02351600000000,ST13 7DR,2014-01-06,fhrs_4_en-GB,4,,FHRS,5
347244,Derby Street,,,Leek,Trinity Church,Other catering premises,7841,5,,389268,0,,53.10594200000000,6197,293,environmental.health@staffsmoorlands.gov.uk,Staffordshire Moorlands,http://www.staffsmoorlands.gov.uk,-2.02239500000000,ST13 6HU,2012-09-26,fhrs_5_en-GB,5,,FHRS,0
347245,Heathyyhouse Corner Layby,Cheddleton Road,Cheddleton,Leek,Truckers Tucker,Mobile caterer,7846,10,,389050,5,,,5189,293,environmental.health@staffsmoorlands.gov.uk,Staffordshire Moorlands,http://www.staffsmoorlands.gov.uk,,,2013-04-29,fhrs_4_en-GB,4,,FHRS,0
347246,19 Garden Street,,,Leek,Truly Scrumptious,Takeaway/sandwich shop,7844,5,,389061,10,,53.10686600000000,5228,293,environmental.health@staffsmoorlands.gov.uk,Staffordshire Moorlands,http://www.staffsmoorlands.gov.uk,-2.03277600000000,ST13 8DY,2013-07-09,fhrs_4_en-GB,4,,FHRS,5
347247,77 High Street,Cheadle,,Stoke on Trent,Tudor House Tea Room,Restaurant/Cafe/Canteen,1,5,,389135,5,,52.98633500000000,5523,293,environmental.health@staffsmoorlands.gov.uk,Staffordshire Moorlands,http://www.staffsmoorlands.gov.uk,-1.99093200000000,ST10 1AN,2013-08-30,fhrs_4_en-GB,4,,FHRS,10
347248,17 Smithfield Centre,,,Leek,Turkish Delights,Takeaway/sandwich shop,7844,5,,388842,10,,53.10517800000000,4383,293,environmental.health@staffsmoorlands.gov.uk,Staffordshire Moorlands,http://www.staffsmoorlands.gov.uk,-2.02143800000000,ST13 5JW,2013-08-05,fhrs_4_en-GB,4,,FHRS,5
347249,,,,,Turnaround,School/college/university,7845,10,,570014,5,,,42741,293,environmental.health@staffsmoorlands.gov.uk,Staffordshire Moorlands,http://www.staffsmoorlands.gov.uk,,,2013-06-25,fhrs_3_en-GB,3,,FHRS,10
347250,"Unit 4, Alder House",Station Road,Endon,Stoke On Trent,Twinkle Tots Of Endon,Hospitals/Childcare/Caring Premises,5,5,,389265,0,,53.07593300000000,6177,293,environmental.health@staffsmoorlands.gov.uk,Staffordshire Moorlands,http://www.staffsmoorlands.gov.uk,-2.11025200000000,ST9 9DR,2014-04-16,fhrs_5_en-GB,5,,FHRS,5
347251,Tower Hill Road,Mow Cop,Biddulph,Stoke on Trent,Uk Event Catering,Mobile caterer,7846,0,,389075,0,,,5302,293,environmental.health@staffsmoorlands.gov.uk,Staffordshire Moorlands,http://www.staffsmoorlands.gov.uk,,,2014-02-07,fhrs_5_en-GB,5,,FHRS,0
347252,,,,,V147 Het Chilly Tilly,Mobile caterer,7846,5,,574501,5,,,42989,293,environmental.health@staffsmoorlands.gov.uk,Staffordshire Moorlands,http://www.staffsmoorlands.gov.uk,,,2013-07-26,fhrs_5_en-GB,5,,FHRS,5
347253,73 Portland Drive,,Forsbrook,Stoke on Trent,Victoria Baked Potatoes ,Takeaway/sandwich shop,7844,0,,388915,0,,52.97111500000000,4684,293,environmental.health@staffsmoorlands.gov.uk,Staffordshire Moorlands,http://www.staffsmoorlands.gov.uk,-2.05089900000000,ST11 9AN,2011-11-28,fhrs_5_en-GB,5,,FHRS,0
347254,5-6 Moorlands Walk,Cheadle,,Stoke On Trent,Victorian Tea Rooms,Restaurant/Cafe/Canteen,1,5,,388995,5,,52.98749500000000,5001,293,environmental.health@staffsmoorlands.gov.uk,Staffordshire Moorlands,http://www.staffsmoorlands.gov.uk,-1.98853300000000,ST10 1AY,2013-08-29,fhrs_5_en-GB,5,,FHRS,0
347255,453 New Street,,,Biddulph Moor,Village News and Garden Shop,Retailers - other,4613,5,,389166,5,,53.12035000000000,5667,293,environmental.health@staffsmoorlands.gov.uk,Staffordshire Moorlands,http://www.staffsmoorlands.gov.uk,-2.14154900000000,ST8 7LP,2010-10-21,fhrs_5_en-GB,5,,FHRS,5
347256,16 Market Place,,,Leek,Vom Fass,Retailers - other,4613,5,,726748,0,,53.10631900000000,49985,293,environmental.health@staffsmoorlands.gov.uk,Staffordshire Moorlands,http://www.staffsmoorlands.gov.uk,-2.02568100000000,ST13 5HJ,2014-12-17,fhrs_5_en-GB,5,,FHRS,0
347257,Alton Towers,Farley Lane,,Farley,Waffles And Ices,Retailers - other,4613,0,,389379,5,,52.98832400000000,7666,293,environmental.health@staffsmoorlands.gov.uk,Staffordshire Moorlands,http://www.staffsmoorlands.gov.uk,-1.88866800000000,ST10 4DB,2012-02-10,fhrs_5_en-GB,5,,FHRS,5
347258,Portland Street North,,,Leek,"Waitrose, Leek",Retailers - supermarkets/hypermarkets,7840,0,,673070,5,,53.10790300000000,47157,293,environmental.health@staffsmoorlands.gov.uk,Staffordshire Moorlands,http://www.staffsmoorlands.gov.uk,-2.01758600000000,ST13 6AH,2014-06-12,fhrs_5_en-GB,5,,FHRS,0
347259,1 Wallbridge Precinct,Wallbridge Drive,,Leek,Wallbridge Stores,Retailers - other,4613,10,,389026,5,,53.09956400000000,5105,293,environmental.health@staffsmoorlands.gov.uk,Staffordshire Moorlands,http://www.staffsmoorlands.gov.uk,-2.03994000000000,ST13 8JF,2012-03-26,fhrs_3_en-GB,3,,FHRS,10
347260,Broad Street,,,Leek,Wallhill Residential Home,Hospitals/Childcare/Caring Premises,5,5,,388891,5,,53.10100500000000,4561,293,environmental.health@staffsmoorlands.gov.uk,Staffordshire Moorlands,http://www.staffsmoorlands.gov.uk,-2.03169700000000,ST13 5QA,2014-06-26,fhrs_5_en-GB,5,,FHRS,0
347261,21 High Street,Upper Tean,,Stoke On Trent,Wans Garden,Takeaway/sandwich shop,7844,10,,388824,10,,52.95363200000000,4345,293,environmental.health@staffsmoorlands.gov.uk,Staffordshire Moorlands,http://www.staffsmoorlands.gov.uk,-1.98672600000000,ST10 4DY,2014-10-11,fhrs_3_en-GB,3,,FHRS,5
347262,Waterfall Lane,,,Waterfall,Waterfall Parochial Hall,Other catering premises,7841,5,,389291,5,,53.05795700000000,6409,293,environmental.health@staffsmoorlands.gov.uk,Staffordshire Moorlands,http://www.staffsmoorlands.gov.uk,-1.88246100000000,ST10 3HY,2011-08-17,fhrs_5_en-GB,5,,FHRS,0
347263,Waterfall Lane,,,Waterfall,Waterhouses Primary School,School/college/university,7845,0,,389257,5,,53.05795700000000,6124,293,environmental.health@staffsmoorlands.gov.uk,Staffordshire Moorlands,http://www.staffsmoorlands.gov.uk,-1.88246100000000,ST103HY,2014-09-24,fhrs_5_en-GB,5,,FHRS,5
347264,104 Strangman Street,,,Leek,Wellington Inn,Pub/bar/nightclub,7843,5,,388945,5,,53.10506900000000,4825,293,environmental.health@staffsmoorlands.gov.uk,Staffordshire Moorlands,http://www.staffsmoorlands.gov.uk,-2.02920500000000,ST13 5EF,2012-01-27,fhrs_4_en-GB,4,,FHRS,10
347265,425a Ash Bank Road,Werrington,,Stoke on Trent,Werrington Pizza And Grill,Takeaway/sandwich shop,7844,10,,389049,10,,53.02468700000000,5185,293,environmental.health@staffsmoorlands.gov.uk,Staffordshire Moorlands,http://www.staffsmoorlands.gov.uk,-2.08781700000000,ST9 0DU,2013-08-01,fhrs_4_en-GB,4,,FHRS,0
347266,Washerwall Lane,Werrington,,Stoke on Trent,Werrington Primary School,School/college/university,7845,0,,388997,5,,53.02389900000000,5003,293,environmental.health@staffsmoorlands.gov.uk,Staffordshire Moorlands,http://www.staffsmoorlands.gov.uk,-2.09528400000000,ST9 0JU,2014-02-26,fhrs_5_en-GB,5,,FHRS,0
347267,41 West Street,,,Leek,West Street Meats,Retailers - other,4613,5,,389366,10,,53.10643500000000,7282,293,environmental.health@staffsmoorlands.gov.uk,Staffordshire Moorlands,http://www.staffsmoorlands.gov.uk,-2.03076000000000,ST13 8AF,2013-08-28,fhrs_3_en-GB,3,,FHRS,10
347268,84 West Street,Leek,,Staff Moorlands,West Street News,Retailers - other,4613,5,,389238,5,,53.10633500000000,6066,293,environmental.health@staffsmoorlands.gov.uk,Staffordshire Moorlands,http://www.staffsmoorlands.gov.uk,-2.03262700000000,ST13 8DE,2014-04-10,fhrs_4_en-GB,4,,FHRS,10
347269,Westwood Park Drive,,,Leek,Westwood College,School/college/university,7845,0,,388853,0,,53.10409900000000,4408,293,environmental.health@staffsmoorlands.gov.uk,Staffordshire Moorlands,http://www.staffsmoorlands.gov.uk,-2.05252000000000,ST13 8NP,2014-11-07,fhrs_5_en-GB,5,,FHRS,0
347270,Westwood Road,,,Leek,Westwood County First School,School/college/university,7845,0,,389134,5,,53.10513800000000,5519,293,environmental.health@staffsmoorlands.gov.uk,Staffordshire Moorlands,http://www.staffsmoorlands.gov.uk,-2.03813700000000,ST13 8DL,2014-09-12,fhrs_5_en-GB,5,,FHRS,5
347271,Wallbridge,Newcastle Road,,Leek,Westwood Golf Club,Pub/bar/nightclub,7843,10,,388989,10,,53.09591500000000,4957,293,environmental.health@staffsmoorlands.gov.uk,Staffordshire Moorlands,http://www.staffsmoorlands.gov.uk,-2.03923400000000,ST13 7AA,2014-07-23,fhrs_3_en-GB,3,,FHRS,5
347272,Westwood Pre-school,Westwood Road,,Leek,Westwood Pre School,School/college/university,7845,0,,455311,0,,53.10513800000000,38781,293,environmental.health@staffsmoorlands.gov.uk,Staffordshire Moorlands,http://www.staffsmoorlands.gov.uk,-2.03813700000000,ST13 8DL,2014-05-09,fhrs_5_en-GB,5,,FHRS,0
347273,Abbey Road,Wetley Rocks,,Stoke on Trent,Wetley Manor Care Home,Hospitals/Childcare/Caring Premises,5,5,,389271,0,,53.03019800000000,6224,293,environmental.health@staffsmoorlands.gov.uk,Staffordshire Moorlands,http://www.staffsmoorlands.gov.uk,-2.05569500000000,ST9 0AS,2014-01-06,fhrs_5_en-GB,5,,FHRS,0
347274,Wettonmill Road,Wettonmill,,Ashbourne,Wetton Mill Cafe,Restaurant/Cafe/Canteen,1,5,,389165,5,,53.10203100000000,5666,293,environmental.health@staffsmoorlands.gov.uk,Staffordshire Moorlands,http://www.staffsmoorlands.gov.uk,-1.85834000000000,DE6 2AG,2014-02-17,fhrs_5_en-GB,5,,FHRS,5
347275,Bradeley Farm,Dilhorne Road,,Cheadle,Wheat Brothers Dairy,Manufacturers/packers,7839,5,,389364,0,,52.99084700000000,7270,293,environmental.health@staffsmoorlands.gov.uk,Staffordshire Moorlands,http://www.staffsmoorlands.gov.uk,-2.01344000000000,ST10 2NJ,2013-07-23,fhrs_5_en-GB,5,,FHRS,0
347276,Black Lane,,,Whiston,Whiston Hall Golf Ltd,Pub/bar/nightclub,7843,10,,389014,5,,53.02187400000000,5077,293,environmental.health@staffsmoorlands.gov.uk,Staffordshire Moorlands,http://www.staffsmoorlands.gov.uk,-1.94241400000000,ST10 2HZ,2012-12-05,fhrs_4_en-GB,4,,FHRS,5
347277,High Street,,,Tean,White Hart Inn,Pub/bar/nightclub,7843,0,,389242,0,,52.95363200000000,6079,293,environmental.health@staffsmoorlands.gov.uk,Staffordshire Moorlands,http://www.staffsmoorlands.gov.uk,-1.98672600000000,ST104DY,2014-10-11,fhrs_5_en-GB,5,,FHRS,0
347278,1-3 Stockwell Street,,,Leek,White Hart Tea Rooms,Restaurant/Cafe/Canteen,1,5,,388840,5,,53.10721000000000,4379,293,environmental.health@staffsmoorlands.gov.uk,Staffordshire Moorlands,http://www.staffsmoorlands.gov.uk,-2.02236500000000,ST13 6DH,2013-02-04,fhrs_5_en-GB,5,,FHRS,0
347279,Macclesfield Road,,,Leek,White Lion,Pub/bar/nightclub,7843,5,,389184,5,,53.11038700000000,5759,293,environmental.health@staffsmoorlands.gov.uk,Staffordshire Moorlands,http://www.staffsmoorlands.gov.uk,-2.04063700000000,ST13 8LD,2014-01-14,fhrs_4_en-GB,4,,FHRS,10
347280,Stallington Road,Blythe Bridge,,Stoke On Trent,William Amory Primary School,School/college/university,7845,10,,389194,5,,52.96591400000000,5806,293,environmental.health@staffsmoorlands.gov.uk,Staffordshire Moorlands,http://www.staffsmoorlands.gov.uk,-2.06205900000000,ST11 9PN,2014-01-21,fhrs_3_en-GB,3,,FHRS,10
347281,,,,,Williams Wonderful Catering,Other catering premises,7841,10,,688297,5,,,47813,293,environmental.health@staffsmoorlands.gov.uk,Staffordshire Moorlands,http://www.staffsmoorlands.gov.uk,,,2014-07-08,fhrs_4_en-GB,4,,FHRS,5
347282,41 Broad Streeet,,,Leek,Win Lee,Takeaway/sandwich shop,7844,10,,389028,5,,53.10305600000000,5109,293,environmental.health@staffsmoorlands.gov.uk,Staffordshire Moorlands,http://www.staffsmoorlands.gov.uk,-2.02838200000000,ST13 5NX,2013-07-02,fhrs_3_en-GB,3,,FHRS,10
347283,Ashbank Road,,Werrington,Stoke on Trent,Windmill Inn,Pub/bar/nightclub,7843,5,,389129,10,,53.02557900000000,5509,293,environmental.health@staffsmoorlands.gov.uk,Staffordshire Moorlands,http://www.staffsmoorlands.gov.uk,-2.08407600000000,ST9 0DT,2013-10-17,fhrs_4_en-GB,4,,FHRS,0
347284,Mettle House Farm,143 Ash Bank Road,Werrington,Stoke on Trent,Wise Owl Day Nursery,Hospitals/Childcare/Caring Premises,5,5,,389188,0,,53.02146900000000,5773,293,environmental.health@staffsmoorlands.gov.uk,Staffordshire Moorlands,http://www.staffsmoorlands.gov.uk,-2.10917300000000,ST2 9DX,2013-12-02,fhrs_5_en-GB,5,,FHRS,0
347285,Cred Street,Alton Towers,Farley Lane,Alton,Wobble World Cafe,Restaurant/Cafe/Canteen,1,0,,388887,0,,52.98662500000000,4538,293,environmental.health@staffsmoorlands.gov.uk,Staffordshire Moorlands,http://www.staffsmoorlands.gov.uk,-1.89874200000000,ST104BZ,2014-04-23,fhrs_5_en-GB,5,,FHRS,5
347286,Wallbridge Drive,,,Leek,Woodcroft County First School,School/college/university,7845,5,,389203,5,,53.10125300000000,5862,293,environmental.health@staffsmoorlands.gov.uk,Staffordshire Moorlands,http://www.staffsmoorlands.gov.uk,-2.04479500000000,ST13 8JG,2013-11-13,fhrs_5_en-GB,5,,FHRS,0
347287,Fountain Square,Alton Towers,Farley Lane,Alton,Woodcutters Bar & Grill,Restaurant/Cafe/Canteen,1,0,,388886,5,,52.98662500000000,4537,293,environmental.health@staffsmoorlands.gov.uk,Staffordshire Moorlands,http://www.staffsmoorlands.gov.uk,-1.89874200000000,ST10 4BZ,2014-04-23,fhrs_5_en-GB,5,,FHRS,0
347288,Woodhouse Lane,Biddulph,,Stoke On Trent,Woodhouse Middle School,School/college/university,7845,0,,388860,0,,53.12503300000000,4417,293,environmental.health@staffsmoorlands.gov.uk,Staffordshire Moorlands,http://www.staffsmoorlands.gov.uk,-2.16314300000000,ST8 7DR,2014-03-28,fhrs_5_en-GB,5,,FHRS,0
347289,20 High Street,,,Cheadle,Woods Pies Ltd T/A Wrights,Retailers - other,4613,5,,389229,10,,52.98782700000000,6013,293,environmental.health@staffsmoorlands.gov.uk,Staffordshire Moorlands,http://www.staffsmoorlands.gov.uk,-1.98865200000000,ST10 1AF,2014-06-19,fhrs_4_en-GB,4,,FHRS,5
347290,41 High Street,,,Cheadle,Woolliscroft Butchers,Retailers - other,4613,10,,695984,0,,52.98711700000000,48045,293,environmental.health@staffsmoorlands.gov.uk,Staffordshire Moorlands,http://www.staffsmoorlands.gov.uk,-1.98912900000000,ST10 1AR,2014-11-07,fhrs_4_en-GB,4,,FHRS,5
347291,50 Derby Street,,,Leek,Wrights Pies,Retailers - other,4613,5,,389111,10,,53.10594200000000,5421,293,environmental.health@staffsmoorlands.gov.uk,Staffordshire Moorlands,http://www.staffsmoorlands.gov.uk,-2.02239500000000,ST13 6HU,2013-07-08,fhrs_3_en-GB,3,,FHRS,10
347292,95 High Street,Biddulph,,Biddulph,Wrights Pies,Takeaway/sandwich shop,7844,5,,389298,10,,53.11544100000000,6472,293,environmental.health@staffsmoorlands.gov.uk,Staffordshire Moorlands,http://www.staffsmoorlands.gov.uk,-2.17598600000000,ST8 6AB,2014-08-12,fhrs_4_en-GB,4,,FHRS,0
347293,Ye Olde Cheshire Cheese,High Street,,Longnor,Ye Olde Cheshire Cheese,Pub/bar/nightclub,7843,5,,625047,10,,53.18100200000000,44525,293,environmental.health@staffsmoorlands.gov.uk,Staffordshire Moorlands,http://www.staffsmoorlands.gov.uk,-1.86833000000000,SK17 0NS,2014-01-16,fhrs_4_en-GB,4,,FHRS,5
347294,Ye Olde Crown Hotel,Leek Road,,Waterhouses,Ye Olde Crown Hotel,Pub/bar/nightclub,7843,0,,719954,5,,53.04906100000000,49721,293,environmental.health@staffsmoorlands.gov.uk,Staffordshire Moorlands,http://www.staffsmoorlands.gov.uk,-1.87626500000000,ST10 3HL,2014-11-28,fhrs_5_en-GB,5,,FHRS,0
347295,11 Cross Street,,,Cheadle,Ye Olde Oatcake Shoppe,Takeaway/sandwich shop,7844,10,,389052,5,,52.98647000000000,5195,293,environmental.health@staffsmoorlands.gov.uk,Staffordshire Moorlands,http://www.staffsmoorlands.gov.uk,-1.98951700000000,ST10 1NP,2013-07-19,fhrs_3_en-GB,3,,FHRS,10
347296,Old Buxton Road,Upper Hulme,,Leek,Ye Olde Rock Inn,Pub/bar/nightclub,7843,0,,389056,5,,53.14588100000000,5203,293,environmental.health@staffsmoorlands.gov.uk,Staffordshire Moorlands,http://www.staffsmoorlands.gov.uk,-1.98306500000000,ST13 8TY,2014-04-16,fhrs_5_en-GB,5,,FHRS,5
347297,Royal Oak Road,,Wetton,Ashbourne,Ye Olde Royal Oak Inn,Pub/bar/nightclub,7843,5,,388806,10,,53.09533600000000,4281,293,environmental.health@staffsmoorlands.gov.uk,Staffordshire Moorlands,http://www.staffsmoorlands.gov.uk,-1.83823100000000,DE6 2AF,2014-07-03,fhrs_4_en-GB,4,,FHRS,5
347298,Ye Olde Star Inn,Star Bank,,Oakamoor,Ye Olde Star Inn,Hotel/bed & breakfast/guest house,7842,0,,668349,0,,53.00745000000000,46625,293,environmental.health@staffsmoorlands.gov.uk,Staffordshire Moorlands,http://www.staffsmoorlands.gov.uk,-1.90542900000000,ST10 3DW,2014-06-04,fhrs_5_en-GB,5,,FHRS,0
347299,Church Lane,Cauldon Low,,Stoke on Trent,Yew Tree Inn,Pub/bar/nightclub,7843,10,,389085,0,,53.04203800000000,5325,293,environmental.health@staffsmoorlands.gov.uk,Staffordshire Moorlands,http://www.staffsmoorlands.gov.uk,-1.88298100000000,ST10 3EJ,2013-10-25,fhrs_4_en-GB,4,,FHRS,5
347300,Gradbach,Quarnford,,Buxton,Yha Gradbach Mill,Hotel/bed & breakfast/guest house,7842,0,,389207,0,,53.19204000000000,5888,293,environmental.health@staffsmoorlands.gov.uk,Staffordshire Moorlands,http://www.staffsmoorlands.gov.uk,-2.00236900000000,SK17 0SU,2013-01-03,fhrs_5_en-GB,5,,FHRS,5
347301,,,,,Yvonne Shaw,Other catering premises,7841,0,,482891,0,,,40022,293,environmental.health@staffsmoorlands.gov.uk,Staffordshire Moorlands,http://www.staffsmoorlands.gov.uk,,,2012-12-06,fhrs_5_en-GB,5,,FHRS,0
347302,Roche Villa,Buxton Road,,Leek,Zipadee Day Nursery,Hospitals/Childcare/Caring Premises,5,0,,389311,0,,53.10771400000000,6605,293,environmental.health@staffsmoorlands.gov.uk,Staffordshire Moorlands,http://www.staffsmoorlands.gov.uk,-2.01698800000000,ST13 6EG,2014-11-14,fhrs_5_en-GB,5,,FHRS,0
