,addressline1,addressline2,addressline3,addressline4,businessname,businesstype,businesstypeid,confidenceinmanagement,extractdate,fhrsid,hygiene,itemcount,latitude,localauthoritybusinessid,localauthoritycode,localauthorityemailaddress,localauthorityname,localauthoritywebsite,longitude,postcode,ratingdate,ratingkey,ratingvalue,returncode,schemetype,structural
350373,,,,,3 Little Cupcakes,Other catering premises,7841,0,,715633,0,,,49061,295,publicprotection@tamworth.gov.uk,Tamworth,http://www.tamworth.gov.uk,,,2014-10-13,fhrs_5_en-GB,5,,FHRS,0
350374,22 George Street,,,Tamworth,99p Cafe,Restaurant/Cafe/Canteen,1,10,,609329,5,,52.63300800000000,43473,295,publicprotection@tamworth.gov.uk,Tamworth,http://www.tamworth.gov.uk,-1.69465200000000,B79 7LL,2013-09-11,fhrs_4_en-GB,4,,FHRS,0
350375,"42, Watling Street",,,Tamworth,A5 News,Retailers - other,4613,10,,389942,5,,52.60828700000000,2148,295,publicprotection@tamworth.gov.uk,Tamworth,http://www.tamworth.gov.uk,-1.66511200000000,B77 5BP,2015-01-09,fhrs_4_en-GB,4,,FHRS,5
350376,Ankerside Shopping Centre,,,Tamworth,Ab's Coffee & Cakes,Restaurant/Cafe/Canteen,1,10,,389933,10,,52.63266300000000,1887,295,publicprotection@tamworth.gov.uk,Tamworth,http://www.tamworth.gov.uk,-1.69339800000000,B79 7LG,2014-07-30,fhrs_3_en-GB,3,,FHRS,10
350377,Olive House,Magnus,Tame Valley Industrial Estate,Tamworth,Adeli Foods,Manufacturers/packers,7839,0,,715629,0,,52.60424600000000,48617,295,publicprotection@tamworth.gov.uk,Tamworth,http://www.tamworth.gov.uk,-1.67296900000000,B77 5BY,2014-09-25,fhrs_5_en-GB,5,,FHRS,5
350378,Aldergate,,,Tamworth,Aldergate Preschool (Lunch Club),Hospitals/Childcare/Caring Premises,5,5,,389940,0,,52.63478600000000,2052,295,publicprotection@tamworth.gov.uk,Tamworth,http://www.tamworth.gov.uk,-1.69734300000000,B79 7DJ,2014-06-03,fhrs_5_en-GB,5,,FHRS,5
350379,Aldi Stores,Saxon Drive,,Tamworth,Aldi,Retailers - supermarkets/hypermarkets,7840,0,,390165,0,,52.63371800000000,7566,295,publicprotection@tamworth.gov.uk,Tamworth,http://www.tamworth.gov.uk,-1.68764300000000,B79 7HY,2014-01-07,fhrs_5_en-GB,5,,FHRS,0
350380,41 Hillman,Glascote,,Tamworth,Alexandra Cakes,Other catering premises,7841,5,,410518,5,,52.62379100000000,37182,295,publicprotection@tamworth.gov.uk,Tamworth,http://www.tamworth.gov.uk,-1.67357600000000,B77 2RG,2012-05-16,fhrs_5_en-GB,5,,FHRS,5
350381,3 Campbell Close,,,Tamworth,Alison Belt Childminder,Hospitals/Childcare/Caring Premises,5,,,697348,,,52.64790600000000,48125,295,publicprotection@tamworth.gov.uk,Tamworth,http://www.tamworth.gov.uk,-1.70984600000000,B79 8LU,,fhrs_exempt_en-GB,Exempt,,FHRS,
350382,246 Tamworth Road,Amington,Tamworth,Tamworth,Amington Fish Bar,Takeaway/sandwich shop,7844,5,,389951,5,,52.63596900000000,2431,295,publicprotection@tamworth.gov.uk,Tamworth,http://www.tamworth.gov.uk,-1.65949300000000,B77 3DQ,2012-09-25,fhrs_5_en-GB,5,,FHRS,5
350383,Quince,Amington,,Tamworth,Amington Heath Community School,School/college/university,7845,10,,555693,0,,52.62880900000000,42401,295,publicprotection@tamworth.gov.uk,Tamworth,http://www.tamworth.gov.uk,-1.65177700000000,B77 4EN,2014-11-25,fhrs_4_en-GB,4,,FHRS,5
350384,31 Kerria Centre,Kerria Road,Amington,Tamworth,Amington House,Takeaway/sandwich shop,7844,10,,535320,5,,52.63039000000000,41489,295,publicprotection@tamworth.gov.uk,Tamworth,http://www.tamworth.gov.uk,-1.65471900000000,B77 4EW,2013-10-23,fhrs_4_en-GB,4,,FHRS,5
350385,Kerria Community Hall,Kerria Road,Amington,Tamworth,Amington One Stop Community Centre,Other catering premises,7841,5,,635314,0,,52.63039000000000,44781,295,publicprotection@tamworth.gov.uk,Tamworth,http://www.tamworth.gov.uk,-1.65471900000000,B77 4EW,2014-02-10,fhrs_5_en-GB,5,,FHRS,0
350386,Anker Valley Football Pitches,Moor Lane,Amington,Tamworth,Anker Valley Football Pitches,Other catering premises,7841,,,669851,,,52.63940500000000,47125,295,publicprotection@tamworth.gov.uk,Tamworth,http://www.tamworth.gov.uk,-1.66013100000000,B77 3AX,,fhrs_exempt_en-GB,Exempt,,FHRS,
350387,Rene Road,,,Tamworth,Ankermoor County Primary School,School/college/university,7845,0,,390023,0,,52.63483400000000,4187,295,publicprotection@tamworth.gov.uk,Tamworth,http://www.tamworth.gov.uk,-1.67476500000000,B77 3NW,2012-07-17,fhrs_5_en-GB,5,,FHRS,0
350388,Arriva Bus Depot,Aldergate,,Tamworth,Arriva Staff Canteen,Restaurant/Cafe/Canteen,1,10,,390089,10,,52.63585000000000,7005,295,publicprotection@tamworth.gov.uk,Tamworth,http://www.tamworth.gov.uk,-1.69492700000000,B79 7DX,2013-01-29,fhrs_3_en-GB,3,,FHRS,5
350389,Asda Stores Plc,Ventura Park Road,,Tamworth,Asda,Retailers - supermarkets/hypermarkets,7840,5,,390137,5,,52.62746200000000,7454,295,publicprotection@tamworth.gov.uk,Tamworth,http://www.tamworth.gov.uk,-1.70182600000000,B78 3HB,2014-06-24,fhrs_5_en-GB,5,,FHRS,5
350390,Mildenhall,,,Tamworth,Ashcroft County Primary School,School/college/university,7845,0,,390061,0,,52.64695358276367,6107,295,publicprotection@tamworth.gov.uk,Tamworth,http://www.tamworth.gov.uk,-1.68828773498535,B79 8RU,2014-09-30,fhrs_5_en-GB,5,,FHRS,5
350391,"5, The Precinct",Fontenaye Road,,Tamworth,Atlantic Fish Bar,Takeaway/sandwich shop,7844,5,,390190,0,,52.64557700000000,840,295,publicprotection@tamworth.gov.uk,Tamworth,http://www.tamworth.gov.uk,-1.70958000000000,B79 8JT,2013-09-16,fhrs_5_en-GB,5,,FHRS,5
350392,Post Office,1 Willington Road,,Tamworth,B & G News,Retailers - other,4613,20,,674271,10,,52.64475800000000,47177,295,publicprotection@tamworth.gov.uk,Tamworth,http://www.tamworth.gov.uk,-1.69146600000000,B79 8AS,2014-06-18,fhrs_1_en-GB,1,,FHRS,5
350393,21 Napier,,,Tamworth,Bake 180 Cookies And Cupcakes,Other catering premises,7841,5,,390049,5,,52.62475500000000,5785,295,publicprotection@tamworth.gov.uk,Tamworth,http://www.tamworth.gov.uk,-1.67421900000000,B77 2RN,2010-11-24,fhrs_5_en-GB,5,,FHRS,5
350394,20 Ankerside Shopping Centre,George Street,,Tamworth,Bakers Oven,Restaurant/Cafe/Canteen,1,0,,447091,0,,52.63266300000000,38346,295,publicprotection@tamworth.gov.uk,Tamworth,http://www.tamworth.gov.uk,-1.69339800000000,B79 7LG,2012-09-11,fhrs_5_en-GB,5,,FHRS,0
350395,332a Tamworth Road,Kettlebrook,,Tamworth,Balti 2000,Takeaway/sandwich shop,7844,20,,390027,15,,52.62178100000000,46,295,publicprotection@tamworth.gov.uk,Tamworth,http://www.tamworth.gov.uk,-1.68498000000000,B77 1DH,2014-11-06,fhrs_1_en-GB,1,,FHRS,10
350396,1B East View,Glascote,,Tamworth,Baltic Food Store,Retailers - other,4613,10,,447092,0,,52.62752300000000,38374,295,publicprotection@tamworth.gov.uk,Tamworth,http://www.tamworth.gov.uk,-1.67378500000000,B77 2BQ,2012-08-14,fhrs_4_en-GB,4,,FHRS,10
350397,207a Bancroft,,,Tamworth,Bancroft Community Association (Croft CafÃ©),Restaurant/Cafe/Canteen,1,5,,390018,0,,52.62425200000000,3846,295,publicprotection@tamworth.gov.uk,Tamworth,http://www.tamworth.gov.uk,-1.66479800000000,B77 2EX,2013-01-10,fhrs_5_en-GB,5,,FHRS,5
350398,Bargain Booze,231 - 233 Glascote Road,,Tamworth,Bargain Booze,Retailers - other,4613,10,,390111,15,,52.62857000000000,7346,295,publicprotection@tamworth.gov.uk,Tamworth,http://www.tamworth.gov.uk,-1.67559400000000,B77 2AZ,2013-03-28,fhrs_2_en-GB,2,,FHRS,0
350399,"60, Raygill",,,Tamworth,Becky's Creative Cakes,Other catering premises,7841,0,,390064,0,,52.61227600000000,6142,295,publicprotection@tamworth.gov.uk,Tamworth,http://www.tamworth.gov.uk,-1.64876200000000,B77 4JY,2014-07-08,fhrs_5_en-GB,5,,FHRS,0
350400,305 Wilnecote Lane,Belgrave,,Tamworth,Belgrave Fish Bar,Takeaway/sandwich shop,7844,0,,479406,0,,52.61564600000000,39798,295,publicprotection@tamworth.gov.uk,Tamworth,http://www.tamworth.gov.uk,-1.67343000000000,B77 2LF,2014-11-26,fhrs_5_en-GB,5,,FHRS,5
350401,Belgrave Sports & Social Club,Wilnecote Lane,Belgrave,Tamworth,Belgrave Sports And Social Club,Pub/bar/nightclub,7843,5,,638504,0,,52.61564600000000,45249,295,publicprotection@tamworth.gov.uk,Tamworth,http://www.tamworth.gov.uk,-1.67343000000000,B77 2LF,2014-03-17,fhrs_5_en-GB,5,,FHRS,5
350402,"56, Upper Gungate",,,Tamworth,Belmont Guest House,Hotel/bed & breakfast/guest house,7842,5,,389923,5,,52.63971200000000,1457,295,publicprotection@tamworth.gov.uk,Tamworth,http://www.tamworth.gov.uk,-1.69380700000000,B79 8AA,2014-02-05,fhrs_5_en-GB,5,,FHRS,0
350403,Unit 19a,Beauchamp Industrial Park,Watling Street,Tamworth,Bengal Massala,Takeaway/sandwich shop,7844,10,,609328,10,,52.61140000000000,43461,295,publicprotection@tamworth.gov.uk,Tamworth,http://www.tamworth.gov.uk,-1.67894100000000,B77 5BZ,2014-12-22,fhrs_3_en-GB,3,,FHRS,10
350404,Brent House,Brent,Tame Valley Industrial Estate,Tamworth,Bfp Wholesale,Distributors/Transporters,7,,,638502,,,52.60784000000000,45229,295,publicprotection@tamworth.gov.uk,Tamworth,http://www.tamworth.gov.uk,-1.67545200000000,B77 5DF,,fhrs_exempt_en-GB,Exempt,,FHRS,
350405,Birds Bush Road,,,Tamworth,Birds Bush County Primary School,School/college/university,7845,0,,389987,5,,52.61440700000000,2941,295,publicprotection@tamworth.gov.uk,Tamworth,http://www.tamworth.gov.uk,-1.67079600000000,B77 2NE,2015-01-20,fhrs_5_en-GB,5,,FHRS,5
350406,5 Middle Entry,,,Tamworth,Birds The Confectioners,Retailers - other,4613,5,,454441,5,,52.63340500000000,38673,295,publicprotection@tamworth.gov.uk,Tamworth,http://www.tamworth.gov.uk,-1.69510700000000,B79 7NJ,2014-05-07,fhrs_5_en-GB,5,,FHRS,0
350407,4 Cedar Drive,,,Tamworth,Bite2 Go,Takeaway/sandwich shop,7844,20,,668328,0,,52.64782200000000,45821,295,publicprotection@tamworth.gov.uk,Tamworth,http://www.tamworth.gov.uk,-1.70127400000000,B79 8QL,2014-05-07,fhrs_1_en-GB,1,,FHRS,5
350408,5 Bitterscote Lane,,,Tamworth,Bitterscakes,Other catering premises,7841,10,,700974,10,,52.61814100000000,48249,295,publicprotection@tamworth.gov.uk,Tamworth,http://www.tamworth.gov.uk,-1.69892000000000,B78 3LG,2014-09-09,fhrs_3_en-GB,3,,FHRS,10
350409,Unit H,Ventura Retail Park,Ventura Park Road,Tamworth,Blacks Outdoor Retail,Retailers - other,4613,,,621617,,,52.62694600000000,44325,295,publicprotection@tamworth.gov.uk,Tamworth,http://www.tamworth.gov.uk,-1.70052900000000,B78 3JD,,fhrs_exempt_en-GB,Exempt,,FHRS,
350410,6 - 7 King Street,,,Tamworth,Blake's,Pub/bar/nightclub,7843,0,,697349,0,,52.63359700000000,48129,295,publicprotection@tamworth.gov.uk,Tamworth,http://www.tamworth.gov.uk,-1.69655400000000,B79 7DB,2014-08-27,fhrs_5_en-GB,5,,FHRS,0
350411,105 Amington Road,,,Tamworth,Bolehall Fishbar,Takeaway/sandwich shop,7844,0,,390019,0,,52.63315600000000,3898,295,publicprotection@tamworth.gov.uk,Tamworth,http://www.tamworth.gov.uk,-1.67925400000000,B77 3LN,2013-10-09,fhrs_5_en-GB,5,,FHRS,0
350412,137,Amington Road,,Tamworth,"Bolehall Food, News & Wine",Retailers - other,4613,10,,390109,0,,52.63320200000000,7338,295,publicprotection@tamworth.gov.uk,Tamworth,http://www.tamworth.gov.uk,-1.67625500000000,B77 3LW,2013-02-18,fhrs_4_en-GB,4,,FHRS,0
350413,Amington Rd,,,Tamworth,Bolehall Manor Club Ltd,Pub/bar/nightclub,7843,10,,390043,5,,52.63203700000000,5574,295,publicprotection@tamworth.gov.uk,Tamworth,http://www.tamworth.gov.uk,-1.68440400000000,B77 3LH,2013-10-07,fhrs_4_en-GB,4,,FHRS,5
350414,Rene Road,,,Tamworth,Bolehall Swifts 2010 Ltd,Restaurant/Cafe/Canteen,1,0,,390068,0,,52.63483400000000,6231,295,publicprotection@tamworth.gov.uk,Tamworth,http://www.tamworth.gov.uk,-1.67476500000000,B77 3NW,2013-01-13,fhrs_5_en-GB,5,,FHRS,5
350415,"12, Church Street",,,Tamworth,Bonds,Pub/bar/nightclub,7843,5,,389976,10,,52.63404700000000,2594,295,publicprotection@tamworth.gov.uk,Tamworth,http://www.tamworth.gov.uk,-1.69649100000000,B79 7DH,2014-10-07,fhrs_3_en-GB,3,,FHRS,10
350416,Apollo,Lichfield Road Industrial Estate,,Tamworth,Booker Cash & Carry,Retailers - supermarkets/hypermarkets,7840,0,,668329,5,,52.63870000000000,46501,295,publicprotection@tamworth.gov.uk,Tamworth,http://www.tamworth.gov.uk,-1.70579800000000,B79 7TS,2014-04-28,fhrs_5_en-GB,5,,FHRS,5
350417,Store A Boots The Chemists Plc,Ankerside Shopping Centre,,Tamworth,Boots,Retailers - other,4613,0,,390157,0,,52.63266300000000,7534,295,publicprotection@tamworth.gov.uk,Tamworth,http://www.tamworth.gov.uk,-1.69339800000000,B79 7LQ,2013-07-24,fhrs_5_en-GB,5,,FHRS,0
350418,Unit A,Ventura Retail Park,,Tamworth,Boots,Retailers - other,4613,0,,390161,0,,52.62694600000000,7550,295,publicprotection@tamworth.gov.uk,Tamworth,http://www.tamworth.gov.uk,-1.70052900000000,B78 3JD,2013-10-21,fhrs_5_en-GB,5,,FHRS,0
350419,7 Bowling Green Avenue,,Wilnecote,Tamworth,Bowling Green Stores,Retailers - other,4613,5,,426709,0,,52.60671700000000,37430,295,publicprotection@tamworth.gov.uk,Tamworth,http://www.tamworth.gov.uk,-1.66917000000000,B77 5ED,2012-07-10,fhrs_5_en-GB,5,,FHRS,0
350420,Upper Gungate,,,Tamworth,Bp Tamworth / Spar Shop,Retailers - other,4613,20,,390141,0,,52.63712600000000,7470,295,publicprotection@tamworth.gov.uk,Tamworth,http://www.tamworth.gov.uk,-1.69484500000000,B79 7NZ,2013-03-06,fhrs_1_en-GB,1,,FHRS,0
350421,Located at Topps Tiles car park,Forties,Tame Valley Indus Estate,Tamworth,Bubbly Baps,Mobile caterer,7846,20,,668331,5,,,46509,295,publicprotection@tamworth.gov.uk,Tamworth,http://www.tamworth.gov.uk,,,2014-05-08,fhrs_1_en-GB,1,,FHRS,0
350422,staff canteen c/o Buckingham Foods,Olive House,Magnus,Tamworth,Buckingham Foods Staff Canteen,Restaurant/Cafe/Canteen,1,0,,389935,0,,52.60431700000000,1931,295,publicprotection@tamworth.gov.uk,Tamworth,http://www.tamworth.gov.uk,-1.67252500000000,B77 5BY,2013-10-08,fhrs_5_en-GB,5,,FHRS,0
350423,Bullit Bar,13 Silver Street,,Tamworth,Bullit Bar,Pub/bar/nightclub,7843,5,,390133,5,,52.63345500000000,7438,295,publicprotection@tamworth.gov.uk,Tamworth,http://www.tamworth.gov.uk,-1.69732300000000,B79 7NH,2011-01-21,fhrs_4_en-GB,4,,FHRS,10
350424,Bolehall Swifts Supporters Club,Rene Road,Bolehall,Tamworth,C & M Catering,Restaurant/Cafe/Canteen,1,10,,499493,0,,52.63483400000000,40441,295,publicprotection@tamworth.gov.uk,Tamworth,http://www.tamworth.gov.uk,-1.67476500000000,B77 3NW,2013-01-13,fhrs_4_en-GB,4,,FHRS,5
350425,Marks & Spencer,Ventura Park Road,,Tamworth,Cafe Revive,Restaurant/Cafe/Canteen,1,0,,624845,5,,52.62694600000000,44505,295,publicprotection@tamworth.gov.uk,Tamworth,http://www.tamworth.gov.uk,-1.70052900000000,B78 3JD,2014-01-07,fhrs_5_en-GB,5,,FHRS,5
350426,5 Sunningdale,Amington,,Tamworth,Cake 4 Occasions,Other catering premises,7841,0,,629174,0,,52.63425800000000,44581,295,publicprotection@tamworth.gov.uk,Tamworth,http://www.tamworth.gov.uk,-1.64628100000000,B77 4NW,2014-01-24,fhrs_5_en-GB,5,,FHRS,0
350427,61 Browns Lane,,,Tamworth,Cakes By Kelly,Other catering premises,7841,0,,409270,0,,52.64913900000000,36978,295,publicprotection@tamworth.gov.uk,Tamworth,http://www.tamworth.gov.uk,-1.68905600000000,B79 8TA,2012-06-19,fhrs_5_en-GB,5,,FHRS,0
350428,,,,,Cakes By Lp,Other catering premises,7841,0,,621616,0,,,44321,295,publicprotection@tamworth.gov.uk,Tamworth,http://www.tamworth.gov.uk,,,2014-01-03,fhrs_5_en-GB,5,,FHRS,0
350429,61 Caledonian,Glascote,,Tamworth,Caledonian Fish Bar,Takeaway/sandwich shop,7844,5,,390004,5,,52.62197500000000,3270,295,publicprotection@tamworth.gov.uk,Tamworth,http://www.tamworth.gov.uk,-1.66382600000000,B77 2ED,2014-05-06,fhrs_5_en-GB,5,,FHRS,5
350430,14 Hopleys Close,,,Tamworth,Cameo Residential Home,Hospitals/Childcare/Caring Premises,5,5,,389973,10,,52.62954100000000,2568,295,publicprotection@tamworth.gov.uk,Tamworth,http://www.tamworth.gov.uk,-1.66896800000000,B77 3JU,2013-03-27,fhrs_4_en-GB,4,,FHRS,5
350431,Corporation Street,,,Tamworth,Carnegie Centre,Other catering premises,7841,0,,426713,0,,52.63476400000000,37462,295,publicprotection@tamworth.gov.uk,Tamworth,http://www.tamworth.gov.uk,-1.69568800000000,B79 7DN,2012-07-10,fhrs_5_en-GB,5,,FHRS,0
350432,Lower Gungate,,,Tamworth,Casa Bar,Pub/bar/nightclub,7843,5,,482889,5,,52.63524500000000,39990,295,publicprotection@tamworth.gov.uk,Tamworth,http://www.tamworth.gov.uk,-1.69395600000000,B79 7AT,2013-09-04,fhrs_5_en-GB,5,,FHRS,5
350433,Unit 3,39-41 Lower Gungate,,Tamworth,Celebration Cakes,Retailers - other,4613,0,,390058,0,,52.63579400000000,5970,295,publicprotection@tamworth.gov.uk,Tamworth,http://www.tamworth.gov.uk,-1.69424800000000,B79 7AS,2014-01-07,fhrs_5_en-GB,5,,FHRS,5
350434,Central Library,Corporation Street,,Tamworth,Central Library,Retailers - other,4613,,,390173,,,52.63479700000000,7598,295,publicprotection@tamworth.gov.uk,Tamworth,http://www.tamworth.gov.uk,-1.69483100000000,B79 7DW,2014-09-10,fhrs_exempt_en-GB,Exempt,,FHRS,
350435,Champagne Indian Fusion,7a Aldergate,Tamworth,Tamworth,Champagne Indian Fusion,Restaurant/Cafe/Canteen,1,0,,454443,5,,52.63560100000000,38693,295,publicprotection@tamworth.gov.uk,Tamworth,http://www.tamworth.gov.uk,-1.69615600000000,B79 7DL,2014-02-10,fhrs_5_en-GB,5,,FHRS,0
350436,"108, Glascote Road",,,Tamworth,Chefs Inn,Takeaway/sandwich shop,7844,10,,390071,15,,52.62902500000000,6364,295,publicprotection@tamworth.gov.uk,Tamworth,http://www.tamworth.gov.uk,-1.68070300000000,B77 2AF,2014-05-01,fhrs_2_en-GB,2,,FHRS,10
350437,188 Hockley Road,,,Tamworth,China Cottage,Takeaway/sandwich shop,7844,0,,389944,5,,52.60234300000000,2216,295,publicprotection@tamworth.gov.uk,Tamworth,http://www.tamworth.gov.uk,-1.66741600000000,B77 5EQ,2013-09-23,fhrs_5_en-GB,5,,FHRS,0
350438,65 High Street,Dosthill,,Tamworth,Cinnamon Indian Takeaway,Takeaway/sandwich shop,7844,5,,633710,10,,52.59945600000000,44733,295,publicprotection@tamworth.gov.uk,Tamworth,http://www.tamworth.gov.uk,-1.68367900000000,B77 1LG,2014-11-06,fhrs_4_en-GB,4,,FHRS,5
350439,15 Longfield Close,Amington,,Tamworth,Clare Sansom,Other catering premises,7841,10,,668341,5,,52.63243400000000,46597,295,publicprotection@tamworth.gov.uk,Tamworth,http://www.tamworth.gov.uk,-1.67484200000000,B77 3BJ,2012-02-08,fhrs_4_en-GB,4,,FHRS,5
350440,20 Field Close,Kettlebrook,,Tamworth,Clean Cut Catering,Other catering premises,7841,0,,390057,0,,52.62074500000000,5967,295,publicprotection@tamworth.gov.uk,Tamworth,http://www.tamworth.gov.uk,-1.68379100000000,B77 1BW,2013-02-25,fhrs_5_en-GB,5,,FHRS,0
350441,107A Amington Road,Bolehall,,Tamworth,Co Op  Bolehall,Retailers - other,4613,0,,390155,0,,52.63315600000000,7526,295,publicprotection@tamworth.gov.uk,Tamworth,http://www.tamworth.gov.uk,-1.67925400000000,B77 3LN,2013-07-17,fhrs_5_en-GB,5,,FHRS,0
350442,249 Glascote Road,Glascote,,Tamworth,Co Op  Glascote,Retailers - other,4613,10,,390185,10,,52.62828100000000,7650,295,publicprotection@tamworth.gov.uk,Tamworth,http://www.tamworth.gov.uk,-1.67485800000000,B77 2AU,2010-08-25,fhrs_3_en-GB,3,,FHRS,5
350443,264 Tamworth Road,Amington,,Tamworth,Co Op Amington,Retailers - supermarkets/hypermarkets,7840,0,,390148,0,,52.63596900000000,7498,295,publicprotection@tamworth.gov.uk,Tamworth,http://www.tamworth.gov.uk,-1.65949300000000,B77 3DQ,2013-08-28,fhrs_5_en-GB,5,,FHRS,0
350444,Midland Co-op Extra,Brent,,Tamworth,Co Op Superstore,Retailers - supermarkets/hypermarkets,7840,0,,390143,0,,52.60716900000000,7478,295,publicprotection@tamworth.gov.uk,Tamworth,http://www.tamworth.gov.uk,-1.67340500000000,B77 5DL,2013-10-23,fhrs_5_en-GB,5,,FHRS,5
350445,35 - 37 Upper Gungate,,,Tamworth,Co Operative Funeral Service,Other catering premises,7841,5,,390144,0,,52.63712600000000,7482,295,publicprotection@tamworth.gov.uk,Tamworth,http://www.tamworth.gov.uk,-1.69484500000000,B79 7NZ,2013-05-22,fhrs_5_en-GB,5,,FHRS,0
350446,5 Lower Gungate,,,Tamworth,Coates Of Alrewas,Retailers - other,4613,5,,390097,10,,52.67214500000000,7051,295,publicprotection@tamworth.gov.uk,Tamworth,http://www.tamworth.gov.uk,-1.64607700000000,B79 7AE,2014-02-06,fhrs_4_en-GB,4,,FHRS,0
350447,Colin Grazier Hotel,21 - 22 Church Street,,Tamworth,Colin Grazier Hotel,Pub/bar/nightclub,7843,10,,715632,10,,52.63412000000000,49025,295,publicprotection@tamworth.gov.uk,Tamworth,http://www.tamworth.gov.uk,-1.69372800000000,B79 7BX,2014-10-02,fhrs_3_en-GB,3,,FHRS,10
350448,Torc Campus,Silver Link Road,Glascote,Tamworth,Community Cafe,Restaurant/Cafe/Canteen,1,0,,409271,0,,52.61616500000000,36990,295,publicprotection@tamworth.gov.uk,Tamworth,http://www.tamworth.gov.uk,-1.66299900000000,B77 2HJ,2014-06-18,fhrs_5_en-GB,5,,FHRS,0
350449,Marlborough Way,,Belgrave,Tamworth,Community Cafe (Fire Station),Restaurant/Cafe/Canteen,1,0,,406750,0,,52.61778700000000,36782,295,publicprotection@tamworth.gov.uk,Tamworth,http://www.tamworth.gov.uk,-1.67404900000000,B77 2NW,2014-11-26,fhrs_5_en-GB,5,,FHRS,0
350450,Youth Centre,New Road,Wilnecote,Tamworth,Community Cafe Wilnecote,Restaurant/Cafe/Canteen,1,0,,406752,0,,52.60669800000000,36914,295,publicprotection@tamworth.gov.uk,Tamworth,http://www.tamworth.gov.uk,-1.66562600000000,B77 5DH,2014-03-11,fhrs_5_en-GB,5,,FHRS,0
350451,Hanson Building Products Ltd,Hedging Lane,Wilnecote,Tamworth,Compact (Dine) Catering,Restaurant/Cafe/Canteen,1,0,,454448,0,,52.60015500000000,38721,295,publicprotection@tamworth.gov.uk,Tamworth,http://www.tamworth.gov.uk,-1.67601100000000,B77 5EU,2012-09-24,fhrs_5_en-GB,5,,FHRS,0
350452,Orchard Street,,,Tamworth,Cornerpost Education Centre,Other catering premises,7841,20,,542920,0,,52.63569600000000,41749,295,publicprotection@tamworth.gov.uk,Tamworth,http://www.tamworth.gov.uk,-1.69809100000000,B79 7RH,2013-04-17,fhrs_1_en-GB,1,,FHRS,10
350453,69 - 70 Fazeley Road,,,Tamworth,Cost Cutter,Retailers - other,4613,10,,486755,5,,52.62326300000000,40150,295,publicprotection@tamworth.gov.uk,Tamworth,http://www.tamworth.gov.uk,-1.69813200000000,B78 3JN,2014-04-07,fhrs_4_en-GB,4,,FHRS,5
350454,479 Glascote Road,,,Tamworth,Cost Cutters,Retailers - other,4613,5,,390100,5,,52.62766900000000,7055,295,publicprotection@tamworth.gov.uk,Tamworth,http://www.tamworth.gov.uk,-1.66805200000000,B77 2BZ,2014-05-20,fhrs_5_en-GB,5,,FHRS,5
350455,14 George Street,,,Tamworth,Costa Coffee,Restaurant/Cafe/Canteen,1,5,,389945,10,,52.63266300000000,2323,295,publicprotection@tamworth.gov.uk,Tamworth,http://www.tamworth.gov.uk,-1.69339800000000,B79 7LQ,2013-12-04,fhrs_4_en-GB,4,,FHRS,0
350456,"Unit 2, Ventura Park Road",,,Tamworth,Costa Coffee,Restaurant/Cafe/Canteen,1,0,,390039,5,,52.62694600000000,5473,295,publicprotection@tamworth.gov.uk,Tamworth,http://www.tamworth.gov.uk,-1.70052900000000,B78 3JD,2013-07-24,fhrs_5_en-GB,5,,FHRS,0
350457,Costa Coffee,Unit 2 Bitterscote,Ventura Park Road,Tamworth,Costa Coffee B78 3 Hb,Restaurant/Cafe/Canteen,1,0,,736072,0,,52.62746100000000,50554,295,publicprotection@tamworth.gov.uk,Tamworth,http://www.tamworth.gov.uk,-1.70182500000000,B78 3HB,2015-02-02,fhrs_5_en-GB,5,,FHRS,0
350458,Coton Green Community Centre,Kipling Rise,,Tamworth,Coton Green Community Centre,Other catering premises,7841,,,638505,,,52.64826100000000,45253,295,publicprotection@tamworth.gov.uk,Tamworth,http://www.tamworth.gov.uk,-1.71144000000000,B79 8LX,,fhrs_exempt_en-GB,Exempt,,FHRS,
350459,Kipling Rise,,,Tamworth,Coton Green Pre School,Hospitals/Childcare/Caring Premises,5,0,,426715,0,,52.64826100000000,37470,295,publicprotection@tamworth.gov.uk,Tamworth,http://www.tamworth.gov.uk,-1.71144000000000,B79 8LX,2014-03-05,fhrs_5_en-GB,5,,FHRS,0
350460,Kipling Rise,,,Tamworth,Coton Green Primary School,School/college/university,7845,0,,389978,0,,52.64826100000000,2751,295,publicprotection@tamworth.gov.uk,Tamworth,http://www.tamworth.gov.uk,-1.71144000000000,B79 8LX,2013-06-13,fhrs_5_en-GB,5,,FHRS,0
350461,33 Kerria Centre,Kerria Road,,Tamworth,Cousins Kebab House,Takeaway/sandwich shop,7844,10,,390052,10,,52.63039000000000,5865,295,publicprotection@tamworth.gov.uk,Tamworth,http://www.tamworth.gov.uk,-1.65471900000000,B77 4EW,2014-11-06,fhrs_3_en-GB,3,,FHRS,10
350462,Crossfell Stores,47 Crossfell,,Tamworth,Crossfell Stores,Retailers - other,4613,10,,390110,10,,52.61854900000000,7342,295,publicprotection@tamworth.gov.uk,Tamworth,http://www.tamworth.gov.uk,-1.65420700000000,B77 4HG,2011-02-05,fhrs_4_en-GB,4,,FHRS,0
350463,7 Telford Road,,,Tamworth,Cupcake Comforts,Other catering premises,7841,0,,668338,0,,52.64721700000000,46553,295,publicprotection@tamworth.gov.uk,Tamworth,http://www.tamworth.gov.uk,-1.70760400000000,B79 8EZ,2014-05-16,fhrs_5_en-GB,5,,FHRS,0
350464,108 Gresley,Glascote,,Tamworth,Cupcakes And Sweet Treats By Debbie,Retailers - other,4613,5,,609326,0,,52.61933800000000,43394,295,publicprotection@tamworth.gov.uk,Tamworth,http://www.tamworth.gov.uk,-1.66278200000000,B77 2HW,2013-09-23,fhrs_5_en-GB,5,,FHRS,0
350465,8 Celandine,Kettlebrook,,Tamworth,Cupcakes By Charlie Anna,Other catering premises,7841,0,,548059,0,,52.62409600000000,41965,295,publicprotection@tamworth.gov.uk,Tamworth,http://www.tamworth.gov.uk,-1.68638200000000,B77 1BG,2013-04-29,fhrs_5_en-GB,5,,FHRS,0
350466,Newsagents,50 Beauchamp Road,Hockley,Tamworth,D I Wedge,Retailers - other,4613,5,,465204,0,,52.59955000000000,39458,295,publicprotection@tamworth.gov.uk,Tamworth,http://www.tamworth.gov.uk,-1.66548900000000,B77 5HR,2012-11-06,fhrs_5_en-GB,5,,FHRS,0
350467,15 Middle Entry,,,Tamworth,D J Stutt & Sons Limited,Retailers - other,4613,5,,390094,10,,52.63340500000000,7010,295,publicprotection@tamworth.gov.uk,Tamworth,http://www.tamworth.gov.uk,-1.69510700000000,B79 7NJ,2014-03-20,fhrs_4_en-GB,4,,FHRS,5
350468,3 Little Church Lane,,,Tamworth,D'aquinos,Restaurant/Cafe/Canteen,1,5,,390073,5,,52.63470500000000,6395,295,publicprotection@tamworth.gov.uk,Tamworth,http://www.tamworth.gov.uk,-1.69379800000000,B79 7AX,2013-11-19,fhrs_5_en-GB,5,,FHRS,5
350469,Bell House,18 Lower Gungate,,Tamworth,Delhi Divan Limited,Other catering premises,7841,10,,409619,10,,52.63508100000000,37086,295,publicprotection@tamworth.gov.uk,Tamworth,http://www.tamworth.gov.uk,-1.69338100000000,B79 7AL,2014-03-04,fhrs_3_en-GB,3,,FHRS,10
350470,39 Spruce,Amington,,Tamworth,Deli Licious,Other catering premises,7841,20,,723545,0,,52.63233000000000,49793,295,publicprotection@tamworth.gov.uk,Tamworth,http://www.tamworth.gov.uk,-1.65074400000000,B77 4ES,2014-11-27,fhrs_1_en-GB,1,,FHRS,0
350471,Dhillons Newsagents,31 Browning Close,,Tamworth,Dhillons News,Retailers - other,4613,20,,700973,15,,52.64861400000000,48233,295,publicprotection@tamworth.gov.uk,Tamworth,http://www.tamworth.gov.uk,-1.71239800000000,B79 8NB,2014-09-18,fhrs_1_en-GB,1,,FHRS,5
350472,,,,,Diane Gilbert,Other catering premises,7841,0,,732375,0,,,50413,295,publicprotection@tamworth.gov.uk,Tamworth,http://www.tamworth.gov.uk,,,2015-01-15,fhrs_5_en-GB,5,,FHRS,0
350473,"35, Sheepcote Lane",,,Tamworth,Dolly Mixtures,Hospitals/Childcare/Caring Premises,5,0,,389954,0,,52.62928900000000,2495,295,publicprotection@tamworth.gov.uk,Tamworth,http://www.tamworth.gov.uk,-1.66569000000000,B77 3JW,2014-09-11,fhrs_5_en-GB,5,,FHRS,0
350474,The Dolphin Inn,Glascote Road,Glascote,Tamworth,Dolphin Inn,Pub/bar/nightclub,7843,20,,410514,15,,52.62914400000000,37166,295,publicprotection@tamworth.gov.uk,Tamworth,http://www.tamworth.gov.uk,-1.67485200000000,B77 3EF,2013-03-19,fhrs_1_en-GB,1,,FHRS,0
350475,45 Victoria Road,,,Tamworth,Dominos Pizza,Takeaway/sandwich shop,7844,0,,668330,0,,52.63594200000000,46505,295,publicprotection@tamworth.gov.uk,Tamworth,http://www.tamworth.gov.uk,-1.68888300000000,B79 7HU,2014-04-29,fhrs_5_en-GB,5,,FHRS,0
350476,69 High Street,,,Tamworth,Dosthill Cosmopolitan Club & Institute,Pub/bar/nightclub,7843,10,,390108,10,,52.59945600000000,7334,295,publicprotection@tamworth.gov.uk,Tamworth,http://www.tamworth.gov.uk,-1.68367900000000,B77 1LG,2013-01-10,fhrs_3_en-GB,3,,FHRS,10
350477,67 High Street,Dosthill,,Tamworth,Dosthill Fish Bar,Takeaway/sandwich shop,7844,5,,389947,5,,52.59945600000000,2358,295,publicprotection@tamworth.gov.uk,Tamworth,http://www.tamworth.gov.uk,-1.68367900000000,B77 1LG,2013-10-09,fhrs_5_en-GB,5,,FHRS,5
350478,Dosthill Newsagents,63 High Street,,Tamworth,Dosthill News,Retailers - other,4613,10,,390087,5,,52.59945600000000,7003,295,publicprotection@tamworth.gov.uk,Tamworth,http://www.tamworth.gov.uk,-1.68367900000000,B77 1LG,2013-12-02,fhrs_2_en-GB,2,,FHRS,15
350479,Dosthill Boys Club,Cadogan Road,,Tamworth,Dosthill Old Boys Social Club,Pub/bar/nightclub,7843,5,,390177,5,,52.59862200000000,7614,295,publicprotection@tamworth.gov.uk,Tamworth,http://www.tamworth.gov.uk,-1.68104200000000,B77 1PQ,2012-02-07,fhrs_5_en-GB,5,,FHRS,5
350480,The Dorcas Centre,Blackwood Road,Dosthill,Tamworth,Dosthill Park Pre School,Hospitals/Childcare/Caring Premises,5,20,,454435,5,,52.60704200000000,38645,295,publicprotection@tamworth.gov.uk,Tamworth,http://www.tamworth.gov.uk,-1.68648900000000,B77 1JE,2014-10-02,fhrs_1_en-GB,1,,FHRS,0
350481,Dosthill Pharmacy,57 High Street,Dosthill,Tamworth,Dosthill Pharmacy,Retailers - other,4613,,,428829,,,52.59945600000000,37590,295,publicprotection@tamworth.gov.uk,Tamworth,http://www.tamworth.gov.uk,-1.68367900000000,B77 1LG,,fhrs_exempt_en-GB,Exempt,,FHRS,
350482,High Street,Dosthill,,Tamworth,Dosthill Primary School,School/college/university,7845,0,,390041,0,,52.59700600000000,5541,295,publicprotection@tamworth.gov.uk,Tamworth,http://www.tamworth.gov.uk,-1.68493600000000,B77 1LQ,2013-09-11,fhrs_5_en-GB,5,,FHRS,5
350483,Dosthill Quarry,Church Road,Dosthill,Tamworth,Dosthill Quarry Food Mobile,Mobile caterer,7846,20,,649168,5,,,45449,295,publicprotection@tamworth.gov.uk,Tamworth,http://www.tamworth.gov.uk,,,2014-03-29,fhrs_1_en-GB,1,,FHRS,5
350484,Dover Farm Close,Wilnecote,,Tamworth,Dover Cottage Rest Home,Hospitals/Childcare/Caring Premises,5,5,,390026,10,,52.61477800000000,4485,295,publicprotection@tamworth.gov.uk,Tamworth,http://www.tamworth.gov.uk,-1.64955500000000,B77 4AP,2013-09-25,fhrs_4_en-GB,4,,FHRS,0
350485,9 St Marys Way,,,Tamworth,Dragon Court,Takeaway/sandwich shop,7844,5,,389938,10,,52.63152100000000,2047,295,publicprotection@tamworth.gov.uk,Tamworth,http://www.tamworth.gov.uk,-1.66991400000000,B77 3EY,2013-10-16,fhrs_4_en-GB,4,,FHRS,5
350486,156 Masefield Drive,,,Tamworth,Dragon Express,Takeaway/sandwich shop,7844,5,,390012,5,,52.64349900000000,3676,295,publicprotection@tamworth.gov.uk,Tamworth,http://www.tamworth.gov.uk,-1.70170200000000,B79 8JA,2013-10-22,fhrs_5_en-GB,5,,FHRS,5
350487,"58, Ankerside Shopping Centre",,,Tamworth,Druckers,Restaurant/Cafe/Canteen,1,0,,389995,0,,52.63266300000000,3157,295,publicprotection@tamworth.gov.uk,Tamworth,http://www.tamworth.gov.uk,-1.69339800000000,B79 7LQ,2014-05-07,fhrs_5_en-GB,5,,FHRS,5
350488,461 Watling St,Two Gates,,Tamworth,Dug Out Fish Bar,Takeaway/sandwich shop,7844,20,,389971,5,,52.61108500000000,2565,295,publicprotection@tamworth.gov.uk,Tamworth,http://www.tamworth.gov.uk,-1.68198500000000,B77 1EL,2014-11-06,fhrs_1_en-GB,1,,FHRS,10
350489,156 Kettlebrook Road,Kettlebrook,,Tamworth,Eat Well,Takeaway/sandwich shop,7844,5,,609345,5,,52.62657700000000,43773,295,publicprotection@tamworth.gov.uk,Tamworth,http://www.tamworth.gov.uk,-1.68655600000000,B77 1AF,2013-10-17,fhrs_4_en-GB,4,,FHRS,10
350490,Units 14 And 15,Tamworth Business Centre,Amber Close,Tamworth,Eatwell Direct,Retailers - other,4613,10,,615863,5,,52.62675000000000,44082,295,publicprotection@tamworth.gov.uk,Tamworth,http://www.tamworth.gov.uk,-1.64891200000000,B77 4RP,2013-11-11,fhrs_4_en-GB,4,,FHRS,5
350491,55 Lower Gungate,,,Tamworth,Eleganto,Takeaway/sandwich shop,7844,20,,638501,20,,52.63579400000000,45225,295,publicprotection@tamworth.gov.uk,Tamworth,http://www.tamworth.gov.uk,-1.69424800000000,B79 7AS,2014-03-10,fhrs_1_en-GB,1,,FHRS,0
350492,111 Lichfield Street,,,Tamworth,Ems Bar,Pub/bar/nightclub,7843,10,,390116,10,,52.63409100000000,7366,295,publicprotection@tamworth.gov.uk,Tamworth,http://www.tamworth.gov.uk,-1.69984500000000,B79 7QB,2012-02-02,fhrs_3_en-GB,3,,FHRS,10
350493,11a Church Street,,,Tamworth,Ephesus Takeaway,Takeaway/sandwich shop,7844,10,,390188,10,,52.63404700000000,834,295,publicprotection@tamworth.gov.uk,Tamworth,http://www.tamworth.gov.uk,-1.69649100000000,B79 7DH,2014-03-20,fhrs_3_en-GB,3,,FHRS,5
350494,Brakes Food Services Employee Restaurant,Freshfield Centre,Bonehill Road,Tamworth,Eurest Uk Limited,Restaurant/Cafe/Canteen,1,0,,389961,0,,52.62862300000000,2521,295,publicprotection@tamworth.gov.uk,Tamworth,http://www.tamworth.gov.uk,-1.71715300000000,B78 3HJ,2014-02-20,fhrs_5_en-GB,5,,FHRS,5
350495,Lichfield Road,,,Tamworth,Evergreen House Residential Home,Hospitals/Childcare/Caring Premises,5,5,,389925,0,,52.63977700000000,1665,295,publicprotection@tamworth.gov.uk,Tamworth,http://www.tamworth.gov.uk,-1.71983000000000,B79 7SF,2014-11-11,fhrs_5_en-GB,5,,FHRS,5
350496,Unit 19a (Top floor),Beauchamp Industrial Park,Watling Street,Tamworth,Everyday Snacks,Other catering premises,7841,0,,609332,0,,52.61140000000000,43505,295,publicprotection@tamworth.gov.uk,Tamworth,http://www.tamworth.gov.uk,-1.67894100000000,B77 5BZ,2013-09-13,fhrs_5_en-GB,5,,FHRS,0
350497,5 Exley,Belgrave,,Tamworth,Exley Fish Bar,Takeaway/sandwich shop,7844,20,,550823,15,,52.61949400000000,42053,295,publicprotection@tamworth.gov.uk,Tamworth,http://www.tamworth.gov.uk,-1.68003400000000,B77 2LA,2014-04-29,fhrs_1_en-GB,1,,FHRS,10
350498,2 - 4 Middle Entry,,,Tamworth,Farmfoods,Retailers - supermarkets/hypermarkets,7840,20,,390127,0,,52.63340500000000,7414,295,publicprotection@tamworth.gov.uk,Tamworth,http://www.tamworth.gov.uk,-1.69510700000000,B79 7NJ,2015-01-07,fhrs_1_en-GB,1,,FHRS,0
350499,First Floor,4 - 5 Market Street,,Tamworth,Fast Eddies,Pub/bar/nightclub,7843,0,,447094,0,,52.63323700000000,38386,295,publicprotection@tamworth.gov.uk,Tamworth,http://www.tamworth.gov.uk,-1.69632000000000,B79 7LU,2012-09-06,fhrs_5_en-GB,5,,FHRS,0
350500,2 Little Church Lane,,,Tamworth,Feelin Peckish,Takeaway/sandwich shop,7844,5,,455308,5,,52.63473200000000,38821,295,publicprotection@tamworth.gov.uk,Tamworth,http://www.tamworth.gov.uk,-1.69370900000000,B79 7AX,2012-09-26,fhrs_5_en-GB,5,,FHRS,5
350501,Flaxhill County Junior School,Chestnut Avenue,,Tamworth,Flaxhill Badgers,Hospitals/Childcare/Caring Premises,5,0,,390168,0,,52.64605200000000,7578,295,publicprotection@tamworth.gov.uk,Tamworth,http://www.tamworth.gov.uk,-1.69453100000000,B79 8QZ,2011-01-21,fhrs_5_en-GB,5,,FHRS,0
350502,Chestnut Ave,,,Tamworth,Flaxhill Junior School,School/college/university,7845,0,,389975,0,,52.64605200000000,2571,295,publicprotection@tamworth.gov.uk,Tamworth,http://www.tamworth.gov.uk,-1.69453100000000,B79 8QZ,2013-01-28,fhrs_5_en-GB,5,,FHRS,0
350503,Florendine Street,,,Tamworth,Florendine Primary School,School/college/university,7845,0,,390006,0,,52.63445500000000,3376,295,publicprotection@tamworth.gov.uk,Tamworth,http://www.tamworth.gov.uk,-1.66148400000000,B77 3DD,2014-11-19,fhrs_5_en-GB,5,,FHRS,0
350504,Food For Thought,7 Tamworth Business Centre,Amber Close,Tamworth,Food For Thought,Other catering premises,7841,10,,724265,0,,52.62675000000000,49821,295,publicprotection@tamworth.gov.uk,Tamworth,http://www.tamworth.gov.uk,-1.64891200000000,B77 4RP,2014-12-04,fhrs_2_en-GB,2,,FHRS,15
350505,243 - 245 Glascote Rd,,,Tamworth,Food Paradise,Takeaway/sandwich shop,7844,10,,389937,15,,52.62828100000000,1962,295,publicprotection@tamworth.gov.uk,Tamworth,http://www.tamworth.gov.uk,-1.67485800000000,B77 2AU,2014-04-30,fhrs_2_en-GB,2,,FHRS,10
350506,Sherbourne,Old Hedging Lane,Dosthill,Tamworth,Footsteps Day Nursery,Hospitals/Childcare/Caring Premises,5,0,,426711,0,,52.60146800000000,37446,295,publicprotection@tamworth.gov.uk,Tamworth,http://www.tamworth.gov.uk,-1.68273400000000,B77 1LD,2014-02-03,fhrs_5_en-GB,5,,FHRS,0
350507,130,Lichfield Road,,Tamworth,Footsteps Nursery,Hospitals/Childcare/Caring Premises,5,0,,389931,5,,52.63977700000000,18482,295,publicprotection@tamworth.gov.uk,Tamworth,http://www.tamworth.gov.uk,-1.71983000000000,B79 7SF,2014-02-04,fhrs_5_en-GB,5,,FHRS,0
350508,Bolebridge Street,,,Tamworth,Frankie & Benny's,Restaurant/Cafe/Canteen,1,5,,390017,0,,52.67214500000000,3793,295,publicprotection@tamworth.gov.uk,Tamworth,http://www.tamworth.gov.uk,-1.64607700000000,B79 7PP,2013-10-01,fhrs_5_en-GB,5,,FHRS,0
350509,1 Springfield Road,Two Gates,,Tamworth,Fu House,Takeaway/sandwich shop,7844,0,,668336,5,,52.61500800000000,46545,295,publicprotection@tamworth.gov.uk,Tamworth,http://www.tamworth.gov.uk,-1.68331600000000,B77 1EB,2014-05-15,fhrs_5_en-GB,5,,FHRS,0
350510,1-2 Exley,,Belgrave,Tamworth,Funkyds,Hospitals/Childcare/Caring Premises,5,10,,441122,0,,52.61949400000000,38030,295,publicprotection@tamworth.gov.uk,Tamworth,http://www.tamworth.gov.uk,-1.68003400000000,B77 2LA,2012-08-07,fhrs_4_en-GB,4,,FHRS,0
350511,148 Masefield Drive,,,Tamworth,G & B Hunt,Retailers - other,4613,5,,390128,5,,52.64349900000000,7418,295,publicprotection@tamworth.gov.uk,Tamworth,http://www.tamworth.gov.uk,-1.70170200000000,B79 8JA,2014-09-30,fhrs_5_en-GB,5,,FHRS,0
350512,30 Pennymoor Road,Stonydelph,,Tamworth,G H Watson Newsagents,Retailers - other,4613,10,,638495,0,,52.61125000000000,45009,295,publicprotection@tamworth.gov.uk,Tamworth,http://www.tamworth.gov.uk,-1.65122200000000,B77 4LG,2014-02-25,fhrs_4_en-GB,4,,FHRS,5
350513,Spinning School Lane,,,Tamworth,Gala Bingo,Pub/bar/nightclub,7843,0,,389949,5,,52.63578200000000,2400,295,publicprotection@tamworth.gov.uk,Tamworth,http://www.tamworth.gov.uk,-1.69316900000000,B79 7BD,2014-02-27,fhrs_5_en-GB,5,,FHRS,5
350514,65 - 66 Caledonian,Glascote,,Tamworth,Galaxy News,Retailers - other,4613,10,,390095,5,,52.62197500000000,7011,295,publicprotection@tamworth.gov.uk,Tamworth,http://www.tamworth.gov.uk,-1.66382600000000,B77 2ED,2013-09-12,fhrs_2_en-GB,2,,FHRS,15
350515,32 Watling Street,Wilnecote,,Tamworth,Gee Spot Catering,Mobile caterer,7846,0,,550824,0,,,42069,295,publicprotection@tamworth.gov.uk,Tamworth,http://www.tamworth.gov.uk,,,2013-05-13,fhrs_5_en-GB,5,,FHRS,0
350516,1 Bell Chambers,39-41 Lower Gungate,,Tamworth,Gemini Cantonese Restaurant,Restaurant/Cafe/Canteen,1,5,,390033,10,,52.63579400000000,49,295,publicprotection@tamworth.gov.uk,Tamworth,http://www.tamworth.gov.uk,-1.69424800000000,B79 7AS,2014-02-26,fhrs_4_en-GB,4,,FHRS,5
350517,"11, Silver Street",,,Tamworth,Gemini Chinese Buffet Restaurant,Restaurant/Cafe/Canteen,1,10,,389924,10,,52.63345500000000,1595,295,publicprotection@tamworth.gov.uk,Tamworth,http://www.tamworth.gov.uk,-1.69732300000000,B79 7NH,2012-08-24,fhrs_3_en-GB,3,,FHRS,5
350518,25 Hamble,Belgrave,,Tamworth,Gifts With A Twist,Retailers - other,4613,0,,568263,0,,52.62150100000000,42729,295,publicprotection@tamworth.gov.uk,Tamworth,http://www.tamworth.gov.uk,-1.68093500000000,B77 2JE,2013-07-02,fhrs_5_en-GB,5,,FHRS,0
350519,360 Wilnecote Lane,Belgrave,,Tamworth,Gill`S Convience Store,Retailers - other,4613,5,,631976,5,,52.61524300000000,44677,295,publicprotection@tamworth.gov.uk,Tamworth,http://www.tamworth.gov.uk,-1.67383200000000,B77 2LG,2014-02-04,fhrs_5_en-GB,5,,FHRS,0
350520,Glascote Fish Bar,106 Glascote Road,Glascote,Tamworth,Glascote Fish Bar,Takeaway/sandwich shop,7844,20,,462602,15,,52.62902500000000,39262,295,publicprotection@tamworth.gov.uk,Tamworth,http://www.tamworth.gov.uk,-1.68070300000000,B77 2AF,2014-12-18,fhrs_1_en-GB,1,,FHRS,10
350521,Silver Link Road,Glascote,,Tamworth,Glascote Heath Pre School,School/college/university,7845,0,,510025,5,,52.62442300000000,40649,295,publicprotection@tamworth.gov.uk,Tamworth,http://www.tamworth.gov.uk,-1.66173900000000,B77 2EA,2014-05-01,fhrs_5_en-GB,5,,FHRS,0
350522,Silver Link Road,,,Tamworth,Glascote Heath Primary School,School/college/university,7845,0,,389943,5,,52.62442300000000,2200,295,publicprotection@tamworth.gov.uk,Tamworth,http://www.tamworth.gov.uk,-1.66173900000000,B77 2EA,2014-05-01,fhrs_5_en-GB,5,,FHRS,0
350523,Glascote Heath Library,80 Caledonian,Glascote,Tamworth,Glascote Library,School/college/university,7845,,,715628,,,52.62197500000000,48581,295,publicprotection@tamworth.gov.uk,Tamworth,http://www.tamworth.gov.uk,-1.66382600000000,B77 2ED,,fhrs_exempt_en-GB,Exempt,,FHRS,
350524,Jesmond House,Glascote Road,Glascote,Tamworth,Glascote Social Club,Pub/bar/nightclub,7843,0,,455309,0,,52.62740900000000,38825,295,publicprotection@tamworth.gov.uk,Tamworth,http://www.tamworth.gov.uk,-1.67173200000000,B77 2BS,2012-10-01,fhrs_5_en-GB,5,,FHRS,0
350525,William Macgregor County Junior School,Glascote Road,,Tamworth,Goldilocks Holiday Care,Hospitals/Childcare/Caring Premises,5,5,,390092,5,,52.62902500000000,7008,295,publicprotection@tamworth.gov.uk,Tamworth,http://www.tamworth.gov.uk,-1.68070300000000,B77 2AF,2013-10-10,fhrs_5_en-GB,5,,FHRS,5
350526,Levetts Road,Amington,,Tamworth,Greenacres Landau Academy,School/college/university,7845,0,,390002,0,,52.63703000000000,3228,295,publicprotection@tamworth.gov.uk,Tamworth,http://www.tamworth.gov.uk,-1.65330800000000,B77 4AB,2014-06-09,fhrs_5_en-GB,5,,FHRS,0
350527,37 Ankerside Shopping Centre,George Street,,Tamworth,Greggs,Restaurant/Cafe/Canteen,1,0,,700413,0,,52.63266300000000,48197,295,publicprotection@tamworth.gov.uk,Tamworth,http://www.tamworth.gov.uk,-1.69339800000000,B79 7LG,2014-09-10,fhrs_5_en-GB,5,,FHRS,0
350528,6 Middle Entry,,,Tamworth,Greggs Of The Midlands,Retailers - other,4613,0,,390015,0,,52.63340500000000,3746,295,publicprotection@tamworth.gov.uk,Tamworth,http://www.tamworth.gov.uk,-1.69510700000000,B79 7NJ,2013-10-09,fhrs_5_en-GB,5,,FHRS,0
350529,21 Lower Gungate,,,Tamworth,H & M Wyldes,Retailers - other,4613,0,,390164,0,,52.63529900000000,7562,295,publicprotection@tamworth.gov.uk,Tamworth,http://www.tamworth.gov.uk,-1.69391200000000,B79 7AT,2014-02-25,fhrs_5_en-GB,5,,FHRS,0
350530,Pharmacy,215A Watling Street,Wilnecote,Tamworth,H S Easons,Hospitals/Childcare/Caring Premises,5,,,571562,,,52.60895600000000,42801,295,publicprotection@tamworth.gov.uk,Tamworth,http://www.tamworth.gov.uk,-1.66956700000000,B77 5BB,,fhrs_exempt_en-GB,Exempt,,FHRS,
350531,Wet sales,4 - 5 Market Street,,Tamworth,Halls Snooker,Pub/bar/nightclub,7843,0,,609341,0,,52.63323700000000,43669,295,publicprotection@tamworth.gov.uk,Tamworth,http://www.tamworth.gov.uk,-1.69632000000000,B79 7LU,2013-10-10,fhrs_5_en-GB,5,,FHRS,0
350532,Wilnecote Lane,,Belgrave,Tamworth,Hanburys Farm Primary School,School/college/university,7845,5,,426708,5,,52.61872100000000,37426,295,publicprotection@tamworth.gov.uk,Tamworth,http://www.tamworth.gov.uk,-1.68002500000000,B77 2LB,2014-02-03,fhrs_4_en-GB,4,,FHRS,10
350533,Anker Valley Football Pitches,Amington,,Tamworth,Happy Daze Food Mobile,Mobile caterer,7846,0,,609340,0,,,43657,295,publicprotection@tamworth.gov.uk,Tamworth,http://www.tamworth.gov.uk,,,2013-10-05,fhrs_5_en-GB,5,,FHRS,0
350534,Newlands Farmhouse,Stonydelph Lane,,Tamworth,Happy Tots Nursery,Hospitals/Childcare/Caring Premises,5,5,,389939,0,,52.60795600000000,2049,295,publicprotection@tamworth.gov.uk,Tamworth,http://www.tamworth.gov.uk,-1.65931100000000,B77 5PJ,2013-09-18,fhrs_5_en-GB,5,,FHRS,5
350535,67 Caledonian,Glascote Heath,,Tamworth,Happy Valley Takeaway,Takeaway/sandwich shop,7844,10,,390031,15,,52.62197500000000,48,295,publicprotection@tamworth.gov.uk,Tamworth,http://www.tamworth.gov.uk,-1.66382600000000,B77 2ED,2014-12-03,fhrs_2_en-GB,2,,FHRS,5
350536,Overwoods Road,,,Tamworth,Heathfields Infant School,School/college/university,7845,0,,390005,0,,52.60252600000000,3361,295,publicprotection@tamworth.gov.uk,Tamworth,http://www.tamworth.gov.uk,-1.66236500000000,B77 5LU,2013-10-14,fhrs_5_en-GB,5,,FHRS,5
350537,103 Greenheart,Amington,,Tamworth,Heavens Cakes,Other catering premises,7841,0,,458110,0,,52.63022000000000,39190,295,publicprotection@tamworth.gov.uk,Tamworth,http://www.tamworth.gov.uk,-1.65807400000000,B77 4NQ,2012-10-18,fhrs_5_en-GB,5,,FHRS,0
350538,High Rise Social Club,Balfour,,Tamworth,High Rise Social Club,Other catering premises,7841,5,,638498,5,,52.63257600000000,45161,295,publicprotection@tamworth.gov.uk,Tamworth,http://www.tamworth.gov.uk,-1.70167300000000,B79 7BL,2014-03-03,fhrs_5_en-GB,5,,FHRS,0
350539,"194, Hockley Road",Wilnecote,,Tamworth,Hockley Fish And Chip Bar,Takeaway/sandwich shop,7844,10,,390189,10,,52.60234300000000,837,295,publicprotection@tamworth.gov.uk,Tamworth,http://www.tamworth.gov.uk,-1.66741600000000,B77 5EQ,2013-07-09,fhrs_3_en-GB,3,,FHRS,5
350540,Snowdome,River Drive,,Tamworth,Holiday Inn Express,Hotel/bed & breakfast/guest house,7842,0,,390028,0,,52.63029100000000,4614,295,publicprotection@tamworth.gov.uk,Tamworth,http://www.tamworth.gov.uk,-1.69378400000000,B79 7ND,2014-02-18,fhrs_5_en-GB,5,,FHRS,5
350541,Holland & Barrett Ltd,14A George Street,,Tamworth,Holland  & Barrett Tamworth,Retailers - other,4613,5,,668327,10,,52.63288000000000,45817,295,publicprotection@tamworth.gov.uk,Tamworth,http://www.tamworth.gov.uk,-1.69397300000000,B79 7LN,2014-05-07,fhrs_4_en-GB,4,,FHRS,5
350542,26 - 27 George Street,,,Tamworth,Home Bargains,Retailers - other,4613,5,,426704,0,,52.63300800000000,37290,295,publicprotection@tamworth.gov.uk,Tamworth,http://www.tamworth.gov.uk,-1.69465200000000,B79 7LL,2012-07-10,fhrs_5_en-GB,5,,FHRS,0
350543,"231a, Glascote Road",,,Tamworth,Hong Kong Island Chinese Takeaway,Takeaway/sandwich shop,7844,0,,390063,5,,52.62857000000000,6136,295,publicprotection@tamworth.gov.uk,Tamworth,http://www.tamworth.gov.uk,-1.67559400000000,B77 2AZ,2014-05-01,fhrs_5_en-GB,5,,FHRS,0
350544,50 Ankerside Shopping Centre,George Street,,Tamworth,Iceland,Retailers - supermarkets/hypermarkets,7840,0,,390166,0,,52.63266300000000,7570,295,publicprotection@tamworth.gov.uk,Tamworth,http://www.tamworth.gov.uk,-1.69339800000000,B79 7LQ,2013-12-02,fhrs_5_en-GB,5,,FHRS,0
350545,196 Hockley Road,Wilnecote,,Tamworth,In Spirit,Retailers - other,4613,0,,621618,0,,52.60234300000000,44329,295,publicprotection@tamworth.gov.uk,Tamworth,http://www.tamworth.gov.uk,-1.66741600000000,B77 5EQ,2013-12-12,fhrs_5_en-GB,5,,FHRS,0
350546,Centurion Court,Centurion Way,Wilnecote,Tamworth,Iss Food & Hospitality,Restaurant/Cafe/Canteen,1,0,,454449,0,,52.60428400000000,38725,295,publicprotection@tamworth.gov.uk,Tamworth,http://www.tamworth.gov.uk,-1.64850100000000,B77 5PN,2012-09-24,fhrs_5_en-GB,5,,FHRS,0
350547,Old Victoria Arcade Building,Aldergate,,Tamworth,Jalali International Restaurant,Restaurant/Cafe/Canteen,1,5,,389957,10,,52.63560100000000,2508,295,publicprotection@tamworth.gov.uk,Tamworth,http://www.tamworth.gov.uk,-1.69615600000000,B79 7DL,2014-02-10,fhrs_3_en-GB,3,,FHRS,10
350548,New-Road-Stores,New Road,Wilnecote,Tamworth,Jan's Tuck Shop,Restaurant/Cafe/Canteen,1,10,,434854,0,,52.60669800000000,37902,295,publicprotection@tamworth.gov.uk,Tamworth,http://www.tamworth.gov.uk,-1.66562600000000,B77 5DH,2014-01-31,fhrs_4_en-GB,4,,FHRS,0
350549,2 Cedar Drive,,,Tamworth,Jasmine House Takeaway,Takeaway/sandwich shop,7844,5,,389928,10,,52.64782200000000,1750,295,publicprotection@tamworth.gov.uk,Tamworth,http://www.tamworth.gov.uk,-1.70127400000000,B79 8QL,2014-03-19,fhrs_4_en-GB,4,,FHRS,5
350550,Ventura Retail Park,,Ventura Park Road,Tamworth,Jasons Jackets,Mobile caterer,7846,5,,426705,5,,52.62649100000000,37302,295,publicprotection@tamworth.gov.uk,Tamworth,http://www.tamworth.gov.uk,-1.70312800000000,,2014-02-06,fhrs_5_en-GB,5,,FHRS,0
350551,81b Bolebridge Street,,,Tamworth,Joba's Takeaway,Takeaway/sandwich shop,7844,20,,390069,15,,52.63498000000000,627,295,publicprotection@tamworth.gov.uk,Tamworth,http://www.tamworth.gov.uk,-1.69947000000000,B79 7RD,2014-12-22,fhrs_1_en-GB,1,,FHRS,10
350552,16 Middle Entry,,,Tamworth,Joe Richards Fruiterer And Greengrocer,Retailers - other,4613,0,,584037,0,,52.63340500000000,43269,295,publicprotection@tamworth.gov.uk,Tamworth,http://www.tamworth.gov.uk,-1.69510700000000,B79 7NJ,2013-09-12,fhrs_5_en-GB,5,,FHRS,0
350553,108 Tamworth Road,,Two Gates,Tamworth,Johals News Centre,Retailers - other,4613,20,,418404,10,,52.61336200000000,37238,295,publicprotection@tamworth.gov.uk,Tamworth,http://www.tamworth.gov.uk,-1.68306200000000,B77 1EG,2014-09-03,fhrs_1_en-GB,1,,FHRS,5
350554,Ventura Park,Bitterscote Drive,,Tamworth,John Lewis At Home,Restaurant/Cafe/Canteen,1,0,,390181,0,,52.62782500000000,7630,295,publicprotection@tamworth.gov.uk,Tamworth,http://www.tamworth.gov.uk,-1.70699400000000,B78 3HD,2014-02-06,fhrs_5_en-GB,5,,FHRS,0
350555,318 Glascote Road,,,Tamworth,Jolly Fryer,Takeaway/sandwich shop,7844,10,,389953,5,,52.62781200000000,2494,295,publicprotection@tamworth.gov.uk,Tamworth,http://www.tamworth.gov.uk,-1.67450700000000,B77 2AX,2013-10-09,fhrs_4_en-GB,4,,FHRS,5
350556,Community Centre,Masefield Drive,,Tamworth,Jolly Totz,Hospitals/Childcare/Caring Premises,5,0,,609339,0,,52.64472500000000,43645,295,publicprotection@tamworth.gov.uk,Tamworth,http://www.tamworth.gov.uk,-1.70286100000000,B79 8JB,2013-10-10,fhrs_5_en-GB,5,,FHRS,0
350557,Unit 1 Ninian Park,Ninian Way,,Tamworth,Jtf   The Country Kitchen (Carpark),Mobile caterer,7846,10,,390086,5,,52.60489500000000,6660,295,publicprotection@tamworth.gov.uk,Tamworth,http://www.tamworth.gov.uk,-1.67433800000000,,2012-07-06,fhrs_4_en-GB,4,,FHRS,5
350558,Unit 1,Ninian Park,Ninian Way,Tamworth,"Jtf Wholesale Ltd, Tamworth",Retailers - other,4613,0,,716476,0,,52.60177700000000,49421,295,publicprotection@tamworth.gov.uk,Tamworth,http://www.tamworth.gov.uk,-1.67750500000000,B77 5ES,2014-11-19,fhrs_5_en-GB,5,,FHRS,0
350559,3 Ankerside Shopping Centre,George Street,,Tamworth,Julian Graves,Retailers - other,4613,5,,390160,5,,52.63266300000000,7546,295,publicprotection@tamworth.gov.uk,Tamworth,http://www.tamworth.gov.uk,-1.69339800000000,B79 7LG,2010-11-04,fhrs_5_en-GB,5,,FHRS,5
350560,Kangs Supermarket,3 Lakenheath,,Tamworth,Kangs Supermarket,Retailers - other,4613,10,,390132,0,,52.64632800000000,7434,295,publicprotection@tamworth.gov.uk,Tamworth,http://www.tamworth.gov.uk,-1.69022800000000,B79 8AP,2014-02-05,fhrs_4_en-GB,4,,FHRS,0
350561,64 Caledonian,,,Tamworth,Karma Lounge,Takeaway/sandwich shop,7844,20,,390032,15,,52.62197500000000,4806,295,publicprotection@tamworth.gov.uk,Tamworth,http://www.tamworth.gov.uk,-1.66382600000000,B77 2ED,2014-05-07,fhrs_1_en-GB,1,,FHRS,10
350562,Ventura Retail Park,Ventura Park Road,,Tamworth,Kentucky Fried Chicken,Restaurant/Cafe/Canteen,1,0,,535316,0,,52.62694600000000,41301,295,publicprotection@tamworth.gov.uk,Tamworth,http://www.tamworth.gov.uk,-1.70052900000000,B78 3JD,2013-03-29,fhrs_5_en-GB,5,,FHRS,5
350563,Kettlebrook Newsagents,29 Cross Street,,Tamworth,Kettlebrook Newsagents,Retailers - other,4613,0,,390121,0,,52.62637200000000,7390,295,publicprotection@tamworth.gov.uk,Tamworth,http://www.tamworth.gov.uk,-1.68722200000000,B77 1AS,2014-02-03,fhrs_5_en-GB,5,,FHRS,0
350564,Tame Street,Kettlebrook,,Tamworth,Kettlebrook Pupil Referral Unit,School/college/university,7845,0,,510024,0,,52.62721100000000,40613,295,publicprotection@tamworth.gov.uk,Tamworth,http://www.tamworth.gov.uk,-1.68832500000000,B77 1AL,2013-02-06,fhrs_5_en-GB,5,,FHRS,0
350565,44 Greatmead,,Kettlebrook,Tamworth,Kettlebrook Store,Retailers - other,4613,10,,418403,0,,52.61969100000000,37234,295,publicprotection@tamworth.gov.uk,Tamworth,http://www.tamworth.gov.uk,-1.68672400000000,B77 1DL,2012-07-09,fhrs_4_en-GB,4,,FHRS,5
350566,122 Kettlebrook Road,Kettlebrook,,Tamworth,Kettlebrook Wmc & Institute,Pub/bar/nightclub,7843,0,,390186,0,,52.62727200000000,7654,295,publicprotection@tamworth.gov.uk,Tamworth,http://www.tamworth.gov.uk,-1.68743800000000,B77 1AH,2013-01-08,fhrs_5_en-GB,5,,FHRS,5
350567,Car Park,Central Car Wash,Marmion Street,Tamworth,King Kobs,Mobile caterer,7846,20,,715631,5,,,48685,295,publicprotection@tamworth.gov.uk,Tamworth,http://www.tamworth.gov.uk,,,2014-09-30,fhrs_1_en-GB,1,,FHRS,5
350568,Spinning School Lane,,,Tamworth,Kuda,Pub/bar/nightclub,7843,0,,390169,0,,52.63578200000000,7582,295,publicprotection@tamworth.gov.uk,Tamworth,http://www.tamworth.gov.uk,-1.69316900000000,B79 7BD,2014-02-27,fhrs_5_en-GB,5,,FHRS,0
350569,Leyland Road,,,Tamworth,Lakeside County Primary School,School/college/university,7845,0,,390194,0,,52.62373000000000,998,295,publicprotection@tamworth.gov.uk,Tamworth,http://www.tamworth.gov.uk,-1.67105100000000,B77 2SA,2015-01-28,fhrs_5_en-GB,5,,FHRS,5
350570,1 Swift,Glascote,,Tamworth,Lakeside Stores,Retailers - other,4613,10,,390101,0,,52.62506500000000,7057,295,publicprotection@tamworth.gov.uk,Tamworth,http://www.tamworth.gov.uk,-1.67265100000000,B77 2RP,2014-05-01,fhrs_4_en-GB,4,,FHRS,10
350571,Ashby Road,,,Tamworth,Landau Forte (Qems),School/college/university,7845,0,,511465,0,,52.64134500000000,40705,295,publicprotection@tamworth.gov.uk,Tamworth,http://www.tamworth.gov.uk,-1.69267200000000,B79 8AH,2013-02-13,fhrs_5_en-GB,5,,FHRS,5
350572,Ashby Road,,,Tamworth,Landau Forte 6th Form Academy,School/college/university,7845,5,,390083,5,,52.63971200000000,6629,295,publicprotection@tamworth.gov.uk,Tamworth,http://www.tamworth.gov.uk,-1.69380700000000,B79 8AA,2014-11-26,fhrs_5_en-GB,5,,FHRS,5
350573,Woodland Road,,,Tamworth,Landau Forte Academy Tamworth,School/college/university,7845,5,,390080,5,,52.59688300000000,6602,295,publicprotection@tamworth.gov.uk,Tamworth,http://www.tamworth.gov.uk,-1.65706400000000,B77 5NG,2013-07-02,fhrs_5_en-GB,5,,FHRS,0
350574,Clifton Avenue,,,Tamworth,Larkhall Primary School & Nursery Unit,School/college/university,7845,5,,389983,10,,52.64668100000000,2928,295,publicprotection@tamworth.gov.uk,Tamworth,http://www.tamworth.gov.uk,-1.70497600000000,B79 8EF,2014-05-02,fhrs_4_en-GB,4,,FHRS,5
350575,261 Tamworth Road,Amington,,Tamworth,Laura James Coffee Shop,Other catering premises,7841,0,,548056,0,,52.63614000000000,41921,295,publicprotection@tamworth.gov.uk,Tamworth,http://www.tamworth.gov.uk,-1.65956500000000,B77 3DG,2013-04-25,fhrs_5_en-GB,5,,FHRS,0
350576,142 Masefield Drive,,,Tamworth,Layfields Fish Bar,Takeaway/sandwich shop,7844,0,,535317,0,,52.64349900000000,41305,295,publicprotection@tamworth.gov.uk,Tamworth,http://www.tamworth.gov.uk,-1.70170200000000,B79 8JA,2015-01-20,fhrs_5_en-GB,5,,FHRS,0
350577,Lidl,Bolebridge Street,,Tamworth,Lidl,Retailers - supermarkets/hypermarkets,7840,0,,466469,0,,52.63579400000000,39498,295,publicprotection@tamworth.gov.uk,Tamworth,http://www.tamworth.gov.uk,-1.69448400000000,B79 7AG,2012-11-01,fhrs_5_en-GB,5,,FHRS,0
350578,11 Helmingham,,,Tamworth,Lily's Boutique Bakery,Other catering premises,7841,0,,406753,0,,52.64376700000000,36918,295,publicprotection@tamworth.gov.uk,Tamworth,http://www.tamworth.gov.uk,-1.72712000000000,B79 7UA,2012-06-20,fhrs_5_en-GB,5,,FHRS,0
350579,100 Furness,Glascote,,Tamworth,Lina`S Cakes Tortai,Other catering premises,7841,0,,584035,0,,52.62439800000000,43213,295,publicprotection@tamworth.gov.uk,Tamworth,http://www.tamworth.gov.uk,-1.67828400000000,B77 2QH,2013-09-09,fhrs_5_en-GB,5,,FHRS,0
350580,South Staffordshire College,Croft Street,,Tamworth,Little Learners Nursery,Hospitals/Childcare/Caring Premises,5,0,,390163,0,,52.63951000000000,7558,295,publicprotection@tamworth.gov.uk,Tamworth,http://www.tamworth.gov.uk,-1.69216800000000,B79 8AE,2014-02-25,fhrs_4_en-GB,4,,FHRS,10
350581,251 Hockley Road,Wilnecote,,Tamworth,Londis,Retailers - other,4613,10,,390125,10,,52.60307700000000,7406,295,publicprotection@tamworth.gov.uk,Tamworth,http://www.tamworth.gov.uk,-1.66659900000000,B77 5EG,2013-02-05,fhrs_4_en-GB,4,,FHRS,0
350582,42 Kerria Rd,Kerria Centre,Amington,Tamworth,Londis,Retailers - supermarkets/hypermarkets,7840,0,,609330,5,,52.63039000000000,43477,295,publicprotection@tamworth.gov.uk,Tamworth,http://www.tamworth.gov.uk,-1.65471900000000,B77 4EW,2013-09-24,fhrs_5_en-GB,5,,FHRS,0
350583,42,Kerria Centre,,Tamworth,"Londis, Tamworth",Retailers - other,4613,20,,390091,5,,52.63039000000000,7007,295,publicprotection@tamworth.gov.uk,Tamworth,http://www.tamworth.gov.uk,-1.65471900000000,B77 4EW,2012-03-19,fhrs_1_en-GB,1,,FHRS,5
350584,,,,,Loopy's Pickled,Other catering premises,7841,0,,695983,0,,,48053,295,publicprotection@tamworth.gov.uk,Tamworth,http://www.tamworth.gov.uk,,,2014-08-19,fhrs_5_en-GB,5,,FHRS,0
350585,29 Market Street,,,Tamworth,Lovecakes Boutique,Other catering premises,7841,20,,683965,10,,52.63298500000000,47749,295,publicprotection@tamworth.gov.uk,Tamworth,http://www.tamworth.gov.uk,-1.69620300000000,B79 7LR,2014-07-16,fhrs_1_en-GB,1,,FHRS,10
350586,CPR Automation,Lovell,Lichfield Road Industrial Estate,Tamworth,Lovell Lunch Box,Mobile caterer,7846,20,,727753,10,,,50085,295,publicprotection@tamworth.gov.uk,Tamworth,http://www.tamworth.gov.uk,,,2015-01-06,fhrs_1_en-GB,1,,FHRS,0
350587,46 Greatmead,Kettlebrook,,Tamworth,Lychee Gardens,Takeaway/sandwich shop,7844,5,,609343,15,,52.61969100000000,43733,295,publicprotection@tamworth.gov.uk,Tamworth,http://www.tamworth.gov.uk,-1.68672400000000,B77 1DL,2013-10-05,fhrs_2_en-GB,2,,FHRS,10
350588,Unit 5 Hedging Lane Industrial Estate,Tamworth,Staffordshire,Tamworth,M & N Meats Limited,Retailers - other,4613,5,,609346,5,,52.59930700000000,43817,295,publicprotection@tamworth.gov.uk,Tamworth,http://www.tamworth.gov.uk,-1.67508700000000,B77 5HH,2014-11-27,fhrs_5_en-GB,5,,FHRS,5
350589,Co-op Department Store,5 Colehill,,Tamworth,Mac Gregors,Restaurant/Cafe/Canteen,1,0,,447093,5,,52.63382300000000,38378,295,publicprotection@tamworth.gov.uk,Tamworth,http://www.tamworth.gov.uk,-1.69347900000000,B79 7HA,2014-09-10,fhrs_5_en-GB,5,,FHRS,5
350590,68 Caledonian,Glascote,,Tamworth,Magraths Pharmacy,Retailers - other,4613,,,548058,,,52.62197500000000,41953,295,publicprotection@tamworth.gov.uk,Tamworth,http://www.tamworth.gov.uk,-1.66382600000000,B77 2ED,,fhrs_exempt_en-GB,Exempt,,FHRS,
350591,Mandy's Baps,Tavern In The Town,,Tamworth,Mandy's Baps,Restaurant/Cafe/Canteen,1,5,,442776,5,,52.63476400000000,38142,295,publicprotection@tamworth.gov.uk,Tamworth,http://www.tamworth.gov.uk,-1.69568800000000,B79 7DN,2012-03-02,fhrs_5_en-GB,5,,FHRS,5
350592,258 - 264 Glascote Road,Glascote,,Tamworth,Manna House Coffee Shop/Primetime,Other catering premises,7841,0,,535319,5,,52.62831200000000,41413,295,publicprotection@tamworth.gov.uk,Tamworth,http://www.tamworth.gov.uk,-1.67635000000000,B77 2AY,2014-10-01,fhrs_5_en-GB,5,,FHRS,5
350593,Bamford Street,,,Tamworth,Manna House Day Nursery,Hospitals/Childcare/Caring Premises,5,5,,390029,0,,52.62692900000000,4630,295,publicprotection@tamworth.gov.uk,Tamworth,http://www.tamworth.gov.uk,-1.67689200000000,B77 2AT,2014-11-18,fhrs_5_en-GB,5,,FHRS,5
350594,Pioneer House,Apollo,Lichfield Road Industrial Estate,Tamworth,Manor Catering,Restaurant/Cafe/Canteen,1,5,,454434,5,,52.63755600000000,38641,295,publicprotection@tamworth.gov.uk,Tamworth,http://www.tamworth.gov.uk,-1.71239700000000,B79 7TF,2012-09-20,fhrs_5_en-GB,5,,FHRS,5
350595,Hockley Road,,,Tamworth,Manor House,Hospitals/Childcare/Caring Premises,5,0,,390082,0,,52.60506600000000,6619,295,publicprotection@tamworth.gov.uk,Tamworth,http://www.tamworth.gov.uk,-1.66741000000000,B77 5EE,2013-07-03,fhrs_5_en-GB,5,,FHRS,0
350596,3 Sorbus,Amington,,Tamworth,Marie's Cakes,Other catering premises,7841,0,,638494,0,,52.63117700000000,44957,295,publicprotection@tamworth.gov.uk,Tamworth,http://www.tamworth.gov.uk,-1.65020700000000,B77 4ER,2014-02-25,fhrs_5_en-GB,5,,FHRS,0
350597,"29a, Mica Close",Amington Industrial Estate,,Tamworth,Marina Cafe,Restaurant/Cafe/Canteen,1,5,,389985,10,,52.62145700000000,2937,295,publicprotection@tamworth.gov.uk,Tamworth,http://www.tamworth.gov.uk,-1.64629600000000,B77 4DR,2014-08-05,fhrs_4_en-GB,4,,FHRS,5
350598,Mariner,Lichfield Road Industrial Estate,,Tamworth,Mariner Snack Bar,Restaurant/Cafe/Canteen,1,0,,568264,0,,52.64388100000000,42733,295,publicprotection@tamworth.gov.uk,Tamworth,http://www.tamworth.gov.uk,-1.71819300000000,B79 7UL,2014-12-02,fhrs_5_en-GB,5,,FHRS,5
350599,Wet Sales only,7 Market Street,,Tamworth,Market Vaults,Pub/bar/nightclub,7843,5,,632729,0,,52.63323700000000,44701,295,publicprotection@tamworth.gov.uk,Tamworth,http://www.tamworth.gov.uk,-1.69632000000000,B79 7LU,2014-01-31,fhrs_5_en-GB,5,,FHRS,5
350600,Marks & Spencer,Ventura Park Road,,Tamworth,Marks & Spencer,Retailers - supermarkets/hypermarkets,7840,0,,390174,0,,52.62694600000000,7602,295,publicprotection@tamworth.gov.uk,Tamworth,http://www.tamworth.gov.uk,-1.70052900000000,B78 3JD,2014-09-29,fhrs_5_en-GB,5,,FHRS,0
350601,Marmion Nursing Home,17 Stretton Street,Glascote,Tamworth,Marmion Nursing Home,Hospitals/Childcare/Caring Premises,5,5,,635048,0,,52.62716600000000,44769,295,publicprotection@tamworth.gov.uk,Tamworth,http://www.tamworth.gov.uk,-1.67497000000000,B77 2BH,2014-02-03,fhrs_5_en-GB,5,,FHRS,5
350602,Service Station,"78, Glascote Road",,Tamworth,Martin Mccoll,Retailers - other,4613,0,,390048,0,,52.62902500000000,5729,295,publicprotection@tamworth.gov.uk,Tamworth,http://www.tamworth.gov.uk,-1.68070300000000,B77 2AF,2013-08-24,fhrs_5_en-GB,5,,FHRS,0
350603,21 Ellerbeck,Stonydelph,,Tamworth,Martins  ,Retailers - other,4613,5,,390178,5,,52.61756900000000,7618,295,publicprotection@tamworth.gov.uk,Tamworth,http://www.tamworth.gov.uk,-1.65090600000000,B77 4JA,2012-03-08,fhrs_5_en-GB,5,,FHRS,5
350604,Max's Food Service,Macgregor Tithe,,Tamworth,Max's Food Service,Other catering premises,7841,0,,609338,5,,52.63597000000000,43609,295,publicprotection@tamworth.gov.uk,Tamworth,http://www.tamworth.gov.uk,-1.69637500000000,B79 7EF,2013-10-08,fhrs_5_en-GB,5,,FHRS,0
350605,Bitterscote Drive,Ventura Park,,Tamworth,Mcdonalds,Restaurant/Cafe/Canteen,1,0,,389948,5,,52.62782500000000,2374,295,publicprotection@tamworth.gov.uk,Tamworth,http://www.tamworth.gov.uk,-1.70699400000000,B78 3HD,2014-11-04,fhrs_5_en-GB,5,,FHRS,0
350606,Watling Street,,,Tamworth,Mcdonalds,Takeaway/sandwich shop,7844,0,,441121,0,,52.61140000000000,37990,295,publicprotection@tamworth.gov.uk,Tamworth,http://www.tamworth.gov.uk,-1.67894100000000,B77 5BZ,2014-01-09,fhrs_5_en-GB,5,,FHRS,5
350607,Comberford Road,,,Tamworth,Meadowrythe,School/college/university,7845,0,,390193,5,,52.64464400000000,978,295,publicprotection@tamworth.gov.uk,Tamworth,http://www.tamworth.gov.uk,-1.69598900000000,B79 8PD,2014-05-02,fhrs_5_en-GB,5,,FHRS,5
350608,2-4 St Ives Close,,,Tamworth,Mencap,Hospitals/Childcare/Caring Premises,5,0,,390077,0,,52.64192300000000,6529,295,publicprotection@tamworth.gov.uk,Tamworth,http://www.tamworth.gov.uk,-1.69691000000000,B79 8HL,2013-02-14,fhrs_5_en-GB,5,,FHRS,5
350609,3 Victoria Road,,,Tamworth,Mercia News,Retailers - other,4613,5,,390014,0,,52.63373700000000,3726,295,publicprotection@tamworth.gov.uk,Tamworth,http://www.tamworth.gov.uk,-1.69142500000000,B79 7HL,2013-10-08,fhrs_5_en-GB,5,,FHRS,5
350610,Units 10 - 12,The Precinct,Fontenaye Road,Tamworth,Mid Counties Co Operative,Retailers - other,4613,0,,479405,5,,52.64557700000000,39790,295,publicprotection@tamworth.gov.uk,Tamworth,http://www.tamworth.gov.uk,-1.70958000000000,B79 8JT,2012-11-16,fhrs_5_en-GB,5,,FHRS,5
350611,Sheltered Housing,Shannon Mill,101 Lichfield Street,Tamworth,Midland Heart,Hospitals/Childcare/Caring Premises,5,0,,441120,0,,52.63409100000000,37986,295,publicprotection@tamworth.gov.uk,Tamworth,http://www.tamworth.gov.uk,-1.69984500000000,B79 7QB,2012-08-07,fhrs_5_en-GB,5,,FHRS,0
350612,4 Mitchells Court,,,Tamworth,Milk Shack,Retailers - other,4613,5,,494301,0,,52.63579400000000,40361,295,publicprotection@tamworth.gov.uk,Tamworth,http://www.tamworth.gov.uk,-1.69448400000000,B79 7AF,2013-01-09,fhrs_5_en-GB,5,,FHRS,0
350613,36 Market Street,,,Tamworth,Monsoon,Restaurant/Cafe/Canteen,1,0,,389934,5,,52.63301200000000,1902,295,publicprotection@tamworth.gov.uk,Tamworth,http://www.tamworth.gov.uk,-1.69633600000000,B79 7LR,2014-02-27,fhrs_5_en-GB,5,,FHRS,5
350614,Hospital Street,,,Tamworth,Moorgate Community Primary School,School/college/university,7845,10,,389917,10,,52.63617900000000,1012,295,publicprotection@tamworth.gov.uk,Tamworth,http://www.tamworth.gov.uk,-1.69730400000000,B79 7EE,2014-02-05,fhrs_3_en-GB,3,,FHRS,5
350615,Morrison Supermarkets Plc,Marlborough Way,,Tamworth,Morrisons,Retailers - supermarkets/hypermarkets,7840,5,,390171,0,,52.61109200000000,7590,295,publicprotection@tamworth.gov.uk,Tamworth,http://www.tamworth.gov.uk,-1.67479300000000,B77 2NY,2014-06-11,fhrs_5_en-GB,5,,FHRS,5
350616,Upper Gungate,,,Tamworth,Morrisons,Retailers - supermarkets/hypermarkets,7840,0,,390139,0,,52.63722300000000,7462,295,publicprotection@tamworth.gov.uk,Tamworth,http://www.tamworth.gov.uk,-1.69426800000000,B79 7NU,2014-11-17,fhrs_5_en-GB,5,,FHRS,0
350617,Victoria Court,5C Victoria Road,,Tamworth,Mr Chips,Takeaway/sandwich shop,7844,20,,616948,10,,52.63373700000000,44165,295,publicprotection@tamworth.gov.uk,Tamworth,http://www.tamworth.gov.uk,-1.69142500000000,B79 7HL,2014-12-04,fhrs_1_en-GB,1,,FHRS,5
350618,Market Delicatessen,St Georges Indoor Market,,Tamworth,Mr Jubilee,Retailers - other,4613,5,,390129,15,,52.63355700000000,7422,295,publicprotection@tamworth.gov.uk,Tamworth,http://www.tamworth.gov.uk,-1.69469200000000,B79 7DE,2014-03-13,fhrs_2_en-GB,2,,FHRS,5
350619,,,,,Mrs C Sandy,Hospitals/Childcare/Caring Premises,5,0,,551673,0,,,42105,295,publicprotection@tamworth.gov.uk,Tamworth,http://www.tamworth.gov.uk,,,2013-05-15,fhrs_5_en-GB,5,,FHRS,0
350620,,,,,Mrs Corinne King,Hospitals/Childcare/Caring Premises,5,,,620552,,,,44229,295,publicprotection@tamworth.gov.uk,Tamworth,http://www.tamworth.gov.uk,,,,fhrs_awaitinginspection_en-GB,AwaitingInspection,,FHRS,
350621,Marina,Lichfield Road Industrial Estate,,Tamworth,Munch Box,Mobile caterer,7846,0,,426710,0,,52.64368700000000,37438,295,publicprotection@tamworth.gov.uk,Tamworth,http://www.tamworth.gov.uk,-1.71692700000000,,2014-02-11,fhrs_4_en-GB,4,,FHRS,10
350622,First Floor,59 - 60 Church Street,,Tamworth,Nacro Cafe,Restaurant/Cafe/Canteen,1,0,,454436,0,,52.63375800000000,38649,295,publicprotection@tamworth.gov.uk,Tamworth,http://www.tamworth.gov.uk,-1.69599100000000,B79 7DF,2012-09-20,fhrs_5_en-GB,5,,FHRS,0
350623,River Drive,,,Tamworth,Namco Funscape,Restaurant/Cafe/Canteen,1,0,,389972,0,,52.63029100000000,2566,295,publicprotection@tamworth.gov.uk,Tamworth,http://www.tamworth.gov.uk,-1.69378400000000,B79 7ND,2013-03-06,fhrs_5_en-GB,5,,FHRS,0
350624,Nando's,Ventura Park Road,,Tamworth,Nando's,Restaurant/Cafe/Canteen,1,0,,718581,0,,52.62746200000000,49593,295,publicprotection@tamworth.gov.uk,Tamworth,http://www.tamworth.gov.uk,-1.70182600000000,B78 3HB,2014-11-26,fhrs_5_en-GB,5,,FHRS,0
350625,68-69 Church Street,,,Tamworth,New Mayflower,Takeaway/sandwich shop,7844,10,,389980,15,,52.63412000000000,2843,295,publicprotection@tamworth.gov.uk,Tamworth,http://www.tamworth.gov.uk,-1.69372800000000,B79 7BX,2014-02-06,fhrs_2_en-GB,2,,FHRS,10
350626,"8, Bolebridge Mews",,,Tamworth,New Tasty,Takeaway/sandwich shop,7844,5,,389979,5,,52.63333300000000,2779,295,publicprotection@tamworth.gov.uk,Tamworth,http://www.tamworth.gov.uk,-1.69179800000000,B79 7PA,2014-03-20,fhrs_5_en-GB,5,,FHRS,5
350627,17 Cottage Walk,Hockley,,Tamworth,News & Food,Retailers - other,4613,5,,466466,0,,52.60368700000000,39482,295,publicprotection@tamworth.gov.uk,Tamworth,http://www.tamworth.gov.uk,-1.66271100000000,B77 5NB,2012-11-08,fhrs_5_en-GB,5,,FHRS,0
350628,Unit F,Ventura Retail Park,Ventura Park Road,Tamworth,Next,Retailers - other,4613,,,615866,,,52.62746200000000,44094,295,publicprotection@tamworth.gov.uk,Tamworth,http://www.tamworth.gov.uk,-1.70182600000000,B78 3HB,,fhrs_exempt_en-GB,Exempt,,FHRS,
350629,"34, Market Street",,,Tamworth,Nibbles,Restaurant/Cafe/Canteen,1,0,,390042,0,,52.63301200000000,5561,295,publicprotection@tamworth.gov.uk,Tamworth,http://www.tamworth.gov.uk,-1.69633600000000,B79 7LR,2013-12-02,fhrs_5_en-GB,5,,FHRS,0
350630,,,,,Nightingales Residential Home,Hospitals/Childcare/Caring Premises,5,10,,390066,0,,,6151,295,publicprotection@tamworth.gov.uk,Tamworth,http://www.tamworth.gov.uk,,,2013-01-10,fhrs_4_en-GB,4,,FHRS,0
350631,Nijjar Food Store,360 Wilnecote Lane,,Tamworth,Nijjar Food Store,Retailers - other,4613,10,,390117,10,,52.61524300000000,7370,295,publicprotection@tamworth.gov.uk,Tamworth,http://www.tamworth.gov.uk,-1.67383200000000,B77 2LG,2012-02-28,fhrs_3_en-GB,3,,FHRS,5
350632,Lane House Rest Home,Lichfield Road,,Tamworth,Northgate Health Care Ltd,Hospitals/Childcare/Caring Premises,5,5,,451304,5,,52.63977700000000,38494,295,publicprotection@tamworth.gov.uk,Tamworth,http://www.tamworth.gov.uk,-1.71983000000000,B79 7SF,2014-02-04,fhrs_5_en-GB,5,,FHRS,5
350633,Kerria Road,,,Tamworth,Oak Tree Day Nursery,Hospitals/Childcare/Caring Premises,5,0,,389926,5,,52.63039000000000,1697,295,publicprotection@tamworth.gov.uk,Tamworth,http://www.tamworth.gov.uk,-1.65471900000000,B77 4EW,2014-05-02,fhrs_5_en-GB,5,,FHRS,5
350634,Hawksworth,,,Tamworth,Oakhill Primary School,School/college/university,7845,5,,389997,5,,52.62107086181640,3206,295,publicprotection@tamworth.gov.uk,Tamworth,http://www.tamworth.gov.uk,-1.66525077819824,B77 2HH,2012-03-05,fhrs_4_en-GB,4,,FHRS,10
350635,Seaton Hire (car park),Wilnecote Lane,Belgrave,Tamworth,On A Roll,Mobile caterer,7846,20,,538588,10,,,41693,295,publicprotection@tamworth.gov.uk,Tamworth,http://www.tamworth.gov.uk,,,2014-04-08,fhrs_1_en-GB,1,,FHRS,15
350636,Orchard House,Orchard Street,,Tamworth,Orchard House Nursery,Hospitals/Childcare/Caring Premises,5,0,,454453,5,,52.63434800000000,38741,295,publicprotection@tamworth.gov.uk,Tamworth,http://www.tamworth.gov.uk,-1.69839500000000,B79 7RE,2014-02-05,fhrs_5_en-GB,5,,FHRS,0
350637,Our Lady Of The Sacred Heart Church,Silver Link Road,,Tamworth,Our Lady Of The Sacred Heart Church,Restaurant/Cafe/Canteen,1,,,390153,,,52.62442300000000,7518,295,publicprotection@tamworth.gov.uk,Tamworth,http://www.tamworth.gov.uk,-1.66173900000000,B77 2EA,2013-07-16,fhrs_exempt_en-GB,Exempt,,FHRS,
350638,4 Bolebridge Mews,,,Tamworth,Our Shop,Retailers - other,4613,10,,448340,0,,52.63343200000000,38418,295,publicprotection@tamworth.gov.uk,Tamworth,http://www.tamworth.gov.uk,-1.69169400000000,B79 7PA,2014-09-30,fhrs_4_en-GB,4,,FHRS,0
350639,Unit D Ventura Park Shopping Centre,Ventura Park Road,,Tamworth,Outfit   Coffee Shop,Restaurant/Cafe/Canteen,1,0,,390051,0,,52.62694600000000,5843,295,publicprotection@tamworth.gov.uk,Tamworth,http://www.tamworth.gov.uk,-1.70052900000000,B78 3JD,2014-05-06,fhrs_5_en-GB,5,,FHRS,0
350640,63 Church Street,,,Tamworth,Papa G's,Takeaway/sandwich shop,7844,5,,389981,10,,52.63375800000000,2844,295,publicprotection@tamworth.gov.uk,Tamworth,http://www.tamworth.gov.uk,-1.69599100000000,B79 7DF,2014-02-05,fhrs_3_en-GB,3,,FHRS,10
350641,39 Aldergate,,,Tamworth,Papadom 4 U,Takeaway/sandwich shop,7844,5,,482888,5,,52.63452400000000,39946,295,publicprotection@tamworth.gov.uk,Tamworth,http://www.tamworth.gov.uk,-1.69703500000000,B79 7DD,2014-04-28,fhrs_4_en-GB,4,,FHRS,10
350642,Park Farm Kettlebrook Community Centre,Greatmead,,Tamworth,Park Farm Community Centre,Other catering premises,7841,10,,390122,5,,52.61969100000000,7394,295,publicprotection@tamworth.gov.uk,Tamworth,http://www.tamworth.gov.uk,-1.68672400000000,B77 1DL,2009-07-29,fhrs_4_en-GB,4,,FHRS,5
350643,Park Farm Road,,Kettlebrook,Tamworth,Park Farm Lodge Nursing Home,Hospitals/Childcare/Caring Premises,5,10,,454440,10,,52.61749000000000,38665,295,publicprotection@tamworth.gov.uk,Tamworth,http://www.tamworth.gov.uk,-1.68707900000000,B77 1DX,2014-05-01,fhrs_3_en-GB,3,,FHRS,5
350644,43 Hayle,Belgrave,,Tamworth,Party Cakes,Other catering premises,7841,0,,546141,0,,52.61967000000000,41821,295,publicprotection@tamworth.gov.uk,Tamworth,http://www.tamworth.gov.uk,-1.67852600000000,B77 2JS,2013-04-18,fhrs_5_en-GB,5,,FHRS,0
350645,Pauls Supermarket,8 Cedar Drive,,Tamworth,Pauls Supermarket,Retailers - other,4613,20,,390112,0,,52.64782200000000,7350,295,publicprotection@tamworth.gov.uk,Tamworth,http://www.tamworth.gov.uk,-1.70127400000000,B79 8QL,2013-03-29,fhrs_1_en-GB,1,,FHRS,0
350646,Castle Grounds,,,Tamworth,Pavillion CafÃ©,Restaurant/Cafe/Canteen,1,10,,390078,0,,52.63029100000000,6558,295,publicprotection@tamworth.gov.uk,Tamworth,http://www.tamworth.gov.uk,-1.69378400000000,B79 7ND,2014-12-02,fhrs_4_en-GB,4,,FHRS,10
350647,"12, Market Street",,,Tamworth,Peels Coffee Shop,Restaurant/Cafe/Canteen,1,10,,389982,5,,52.63323700000000,2927,295,publicprotection@tamworth.gov.uk,Tamworth,http://www.tamworth.gov.uk,-1.69632000000000,B79 7LU,2014-02-11,fhrs_2_en-GB,2,,FHRS,15
350648,Community Centre,26 Pennymoor Road,Stonydelph,Tamworth,Pennymoor Pre School,Hospitals/Childcare/Caring Premises,5,10,,426716,0,,52.61125000000000,37482,295,publicprotection@tamworth.gov.uk,Tamworth,http://www.tamworth.gov.uk,-1.65122200000000,B77 4LG,2014-02-04,fhrs_4_en-GB,4,,FHRS,5
350649,26 Balfour,,,Tamworth,Perry Bakeswell,Other catering premises,7841,0,,638496,0,,52.63232800000000,45109,295,publicprotection@tamworth.gov.uk,Tamworth,http://www.tamworth.gov.uk,-1.69953200000000,B79 7BH,2014-02-28,fhrs_5_en-GB,5,,FHRS,0
350650,Phillip Dix Centre,Corporation Street,,Tamworth,Phillip Dix Centre,Other catering premises,7841,5,,390145,5,,52.63476400000000,7486,295,publicprotection@tamworth.gov.uk,Tamworth,http://www.tamworth.gov.uk,-1.69568800000000,B79 7DN,2010-06-02,fhrs_5_en-GB,5,,FHRS,5
350651,"40, Burton Close",,,Tamworth,Piece Of Cake,Other catering premises,7841,5,,390070,0,,52.64428000000000,6271,295,publicprotection@tamworth.gov.uk,Tamworth,http://www.tamworth.gov.uk,-1.68746400000000,B79 8UB,2011-06-29,fhrs_5_en-GB,5,,FHRS,0
350652,Bus Depot,Aldergate,,Tamworth,Pit Stop 2 Arriva Bus Depot,Restaurant/Cafe/Canteen,1,0,,668326,5,,52.63585000000000,45813,295,publicprotection@tamworth.gov.uk,Tamworth,http://www.tamworth.gov.uk,-1.69492700000000,B79 7DX,2014-05-09,fhrs_5_en-GB,5,,FHRS,0
350653,Pizza Express,Ventura Park Road,,Tamworth,"Pizza Express, Tamworth",Restaurant/Cafe/Canteen,1,0,,718582,0,,52.62746200000000,49597,295,publicprotection@tamworth.gov.uk,Tamworth,http://www.tamworth.gov.uk,-1.70182600000000,B78 3HB,2014-11-26,fhrs_5_en-GB,5,,FHRS,0
350654,"37, Aldergate",,,Tamworth,Pizza Hut Delivery,Takeaway/sandwich shop,7844,0,,390054,0,,52.63452400000000,5874,295,publicprotection@tamworth.gov.uk,Tamworth,http://www.tamworth.gov.uk,-1.69703500000000,B79 7DD,2013-04-16,fhrs_5_en-GB,5,,FHRS,0
350655,241 Glascote Road,,,Tamworth,Pizza Paradise,Takeaway/sandwich shop,7844,10,,389929,10,,52.62828100000000,1774,295,publicprotection@tamworth.gov.uk,Tamworth,http://www.tamworth.gov.uk,-1.67485800000000,B77 2AU,2014-09-09,fhrs_3_en-GB,3,,FHRS,10
350656,The Players Lounge,79A Bolebridge Street,,Tamworth,Players Lounge,Pub/bar/nightclub,7843,10,,390098,10,,52.63303700000000,7052,295,publicprotection@tamworth.gov.uk,Tamworth,http://www.tamworth.gov.uk,-1.69208000000000,B79 7PD,2010-06-22,fhrs_3_en-GB,3,,FHRS,10
350657,6 Little Church Lane,,,Tamworth,Poachers Cafe Bistro,Restaurant/Cafe/Canteen,1,0,,390009,0,,52.63470500000000,3456,295,publicprotection@tamworth.gov.uk,Tamworth,http://www.tamworth.gov.uk,-1.69379800000000,B79 7AX,2011-06-26,fhrs_5_en-GB,5,,FHRS,0
350658,12 Silver Street,,,Tamworth,Portobello Ristorante,Restaurant/Cafe/Canteen,1,0,,390060,5,,52.63345500000000,6104,295,publicprotection@tamworth.gov.uk,Tamworth,http://www.tamworth.gov.uk,-1.69732300000000,B79 7NH,2012-08-24,fhrs_4_en-GB,4,,FHRS,10
350659,B & Q Car Park,Forties,(mobile 51 Brambling),Tamworth,Potters Catering,Mobile caterer,7846,10,,389930,15,,,1834,295,publicprotection@tamworth.gov.uk,Tamworth,http://www.tamworth.gov.uk,,,2012-03-06,fhrs_2_en-GB,2,,FHRS,10
350660,Unit 43,Ankerside Shopping Centre,,Tamworth,Poundland,Retailers - other,4613,0,,390074,0,,52.63266300000000,6407,295,publicprotection@tamworth.gov.uk,Tamworth,http://www.tamworth.gov.uk,-1.69339800000000,B79 7LG,2014-11-03,fhrs_5_en-GB,5,,FHRS,5
350661,Unit 3,Ventura Retail Park,Ventura Park Road,Tamworth,Poundstretcher,Retailers - other,4613,5,,668333,0,,52.62746200000000,46521,295,publicprotection@tamworth.gov.uk,Tamworth,http://www.tamworth.gov.uk,-1.70182600000000,B78 3HB,2014-05-06,fhrs_5_en-GB,5,,FHRS,0
350662,Dhillons Newsagents,20 Orchard Street,,Tamworth,Premier Dhillons Convenience Store,Retailers - other,4613,5,,390126,0,,52.63569600000000,7410,295,publicprotection@tamworth.gov.uk,Tamworth,http://www.tamworth.gov.uk,-1.69809100000000,B79 7RH,2013-03-28,fhrs_5_en-GB,5,,FHRS,0
350663,Premier Wines & Convenience Store,111 Glascote Road,,Tamworth,Premier Wines & Convenience Store,Retailers - other,4613,20,,390118,15,,52.62930400000000,7374,295,publicprotection@tamworth.gov.uk,Tamworth,http://www.tamworth.gov.uk,-1.68089300000000,B77 2AG,2013-09-24,fhrs_1_en-GB,1,,FHRS,5
350664,30 Hospital Street,,,Tamworth,Primary Care Pharmacy,Retailers - other,4613,,,625042,,,52.63678600000000,44517,295,publicprotection@tamworth.gov.uk,Tamworth,http://www.tamworth.gov.uk,-1.69567400000000,B79 7EB,,fhrs_exempt_en-GB,Exempt,,FHRS,
350665,5 Ravenstone,Stonydelph,,Tamworth,Rachel's Handcrafted Creations,Other catering premises,7841,10,,546142,0,,52.61160900000000,41825,295,publicprotection@tamworth.gov.uk,Tamworth,http://www.tamworth.gov.uk,-1.64798500000000,B77 4JZ,2013-04-18,fhrs_4_en-GB,4,,FHRS,0
350666,22 Lichfield Street,,,Tamworth,Raf Association Club,Pub/bar/nightclub,7843,10,,505450,10,,52.63381300000000,40529,295,publicprotection@tamworth.gov.uk,Tamworth,http://www.tamworth.gov.uk,-1.69999500000000,B79 7QD,2014-03-20,fhrs_3_en-GB,3,,FHRS,5
350667,"71, Church Street",,,Tamworth,Rainbow Cantonese,Takeaway/sandwich shop,7844,30,,389999,20,,52.63381400000000,3218,295,publicprotection@tamworth.gov.uk,Tamworth,http://www.tamworth.gov.uk,-1.69696600000000,B79 7DQ,2014-09-10,fhrs_0_en-GB,0,,FHRS,20
350668,7 Barlow Close,Glascote,,Tamworth,Rainbow Day Nursery,Hospitals/Childcare/Caring Premises,5,0,,426707,0,,52.63115300000000,37422,295,publicprotection@tamworth.gov.uk,Tamworth,http://www.tamworth.gov.uk,-1.67328500000000,B77 3ES,2014-02-04,fhrs_5_en-GB,5,,FHRS,0
350669,1a & 1b Felspar Road,,,Tamworth,Rainbow Playworld,Restaurant/Cafe/Canteen,1,5,,389963,0,,52.62486700000000,2545,295,publicprotection@tamworth.gov.uk,Tamworth,http://www.tamworth.gov.uk,-1.65341800000000,B77 4DP,2012-03-08,fhrs_5_en-GB,5,,FHRS,5
350670,110 - 112 Tamworth Road,Two Gates,,Tamworth,Red & White,Retailers - other,4613,0,,465203,0,,52.61587300000000,39450,295,publicprotection@tamworth.gov.uk,Tamworth,http://www.tamworth.gov.uk,-1.68397400000000,B77 1EA,2012-11-06,fhrs_5_en-GB,5,,FHRS,0
350671,"64, Church Street",,,Tamworth,Relish,Retailers - other,4613,10,,389955,5,,52.63375800000000,2500,295,publicprotection@tamworth.gov.uk,Tamworth,http://www.tamworth.gov.uk,-1.69599100000000,B79 7DF,2013-03-20,fhrs_3_en-GB,3,,FHRS,10
350672,First floor,79-80 Bolebridge Street,,Tamworth,Reminisce,Pub/bar/nightclub,7843,5,,481589,0,,52.63303700000000,39906,295,publicprotection@tamworth.gov.uk,Tamworth,http://www.tamworth.gov.uk,-1.69208000000000,B79 7PD,2012-11-22,fhrs_4_en-GB,4,,FHRS,10
350673,Corporation Street,,,Tamworth,Rio Cafe,Restaurant/Cafe/Canteen,1,10,,455307,10,,52.63476400000000,38817,295,publicprotection@tamworth.gov.uk,Tamworth,http://www.tamworth.gov.uk,-1.69568800000000,B79 7DN,2014-02-06,fhrs_3_en-GB,3,,FHRS,5
350674,95A Amington Road,Bolehall,,Tamworth,Rj & Ke Aspinall,Retailers - other,4613,5,,390179,5,,52.63315600000000,7622,295,publicprotection@tamworth.gov.uk,Tamworth,http://www.tamworth.gov.uk,-1.67925400000000,B77 3LN,2012-03-19,fhrs_5_en-GB,5,,FHRS,5
350675,35b George Street,,,Tamworth,Roasters,Restaurant/Cafe/Canteen,1,5,,389922,10,,52.63331000000000,1377,295,publicprotection@tamworth.gov.uk,Tamworth,http://www.tamworth.gov.uk,-1.69320100000000,B79 7LJ,2014-09-22,fhrs_4_en-GB,4,,FHRS,5
350676,Ventura Park Shopping Centre,Unit M Ventura Park Road,,Tamworth,Roasters Restaurant,Restaurant/Cafe/Canteen,1,0,,390079,0,,52.62694600000000,6600,295,publicprotection@tamworth.gov.uk,Tamworth,http://www.tamworth.gov.uk,-1.70052900000000,B78 3JD,2014-01-22,fhrs_5_en-GB,5,,FHRS,5
350677,The Studio,12B George Street,,Tamworth,Rowland & Sayers Dance Studio,Retailers - other,4613,,,551672,,,52.63290700000000,42097,295,publicprotection@tamworth.gov.uk,Tamworth,http://www.tamworth.gov.uk,-1.69379500000000,B79 7LN,,fhrs_exempt_en-GB,Exempt,,FHRS,
350678,Unitarian Building,Victoria Road,,Tamworth,Royal Naval Association,Restaurant/Cafe/Canteen,1,20,,520656,0,,52.63373700000000,41009,295,publicprotection@tamworth.gov.uk,Tamworth,http://www.tamworth.gov.uk,-1.69142500000000,B79 7HL,2013-02-25,fhrs_1_en-GB,1,,FHRS,0
350679,54 Comberford Road,,,Tamworth,Ruth's Cake House,Other catering premises,7841,0,,458106,0,,52.64639800000000,39174,295,publicprotection@tamworth.gov.uk,Tamworth,http://www.tamworth.gov.uk,-1.69974600000000,B79 8PF,2012-10-16,fhrs_5_en-GB,5,,FHRS,0
350680,J Sainsbury Plc,Bonehill Road,,Tamworth,Sainsburys,Retailers - supermarkets/hypermarkets,7840,0,,390138,0,,52.62782500000000,7458,295,publicprotection@tamworth.gov.uk,Tamworth,http://www.tamworth.gov.uk,-1.70699400000000,B78 3HD,2012-09-25,fhrs_5_en-GB,5,,FHRS,0
350681,Bonehill Road,,,Tamworth,Sainsburys Plc Staff Restaurant,Restaurant/Cafe/Canteen,1,0,,456859,0,,52.62782500000000,39109,295,publicprotection@tamworth.gov.uk,Tamworth,http://www.tamworth.gov.uk,-1.70699400000000,B78 3HD,2012-09-25,fhrs_5_en-GB,5,,FHRS,0
350682,Unit 5 Bolebridge Mews,Bolebridge Street,,Tamworth,Sandwich Express,Restaurant/Cafe/Canteen,1,20,,390013,0,,52.63333300000000,3725,295,publicprotection@tamworth.gov.uk,Tamworth,http://www.tamworth.gov.uk,-1.69179800000000,B79 7PA,2013-10-01,fhrs_1_en-GB,1,,FHRS,5
350683,13 - 14 Ankerside Shopping Centre,George Street,,Tamworth,Savers Health & Beauty,Retailers - other,4613,0,,390149,0,,52.63266300000000,7502,295,publicprotection@tamworth.gov.uk,Tamworth,http://www.tamworth.gov.uk,-1.69339800000000,B79 7LG,2013-07-24,fhrs_5_en-GB,5,,FHRS,0
350684,Unit 15,Tame Valley Business Park,Magnus,Tamworth,Saxon Bridge Dairies,Distributors/Transporters,7,0,,582519,0,,52.60424600000000,43189,295,publicprotection@tamworth.gov.uk,Tamworth,http://www.tamworth.gov.uk,-1.67296900000000,B77 5BY,2013-09-05,fhrs_5_en-GB,5,,FHRS,0
350685,152 - 154 Masefield Drive,,,Tamworth,Select And Save,Retailers - other,4613,5,,390093,5,,52.64349900000000,7009,295,publicprotection@tamworth.gov.uk,Tamworth,http://www.tamworth.gov.uk,-1.70170200000000,B79 8JA,2013-09-25,fhrs_5_en-GB,5,,FHRS,5
350686,Select & Save,44 Greatmead,,Tamworth,Select And Save,Retailers - other,4613,10,,390099,10,,52.61969100000000,7053,295,publicprotection@tamworth.gov.uk,Tamworth,http://www.tamworth.gov.uk,-1.68672400000000,B77 1DL,2010-07-20,fhrs_3_en-GB,3,,FHRS,5
350687,National Distrubution Centre,Relay Drive,Stonydelph,Tamworth,Servest,Restaurant/Cafe/Canteen,1,5,,455304,10,,52.60957100000000,38805,295,publicprotection@tamworth.gov.uk,Tamworth,http://www.tamworth.gov.uk,-1.64287700000000,B77 5PR,2014-07-14,fhrs_4_en-GB,4,,FHRS,5
350688,"29, Lower Gungate",,,Tamworth,Shapla Indian Takeaway,Takeaway/sandwich shop,7844,10,,390000,10,,52.63529900000000,3219,295,publicprotection@tamworth.gov.uk,Tamworth,http://www.tamworth.gov.uk,-1.69391200000000,B79 7AT,2014-02-13,fhrs_3_en-GB,3,,FHRS,5
350689,"21, Middle Entry",,,Tamworth,Sidewalk Cafe,Restaurant/Cafe/Canteen,1,0,,389994,10,,52.63340500000000,3156,295,publicprotection@tamworth.gov.uk,Tamworth,http://www.tamworth.gov.uk,-1.69510700000000,B79 7NJ,2014-02-11,fhrs_4_en-GB,4,,FHRS,10
350690,Church Street,,,Tamworth,Silk Kite,Pub/bar/nightclub,7843,0,,390059,0,,52.63454818725586,6023,295,publicprotection@tamworth.gov.uk,Tamworth,http://www.tamworth.gov.uk,-1.68716001510620,B79 7DG,2013-12-04,fhrs_5_en-GB,5,,FHRS,0
350691,68 Fazeley Road,,,Tamworth,Simply Chinese,Takeaway/sandwich shop,7844,10,,638503,10,,52.62326300000000,45245,295,publicprotection@tamworth.gov.uk,Tamworth,http://www.tamworth.gov.uk,-1.69813200000000,B78 3JN,2014-03-20,fhrs_4_en-GB,4,,FHRS,0
350692,Wet sales only,13 Lower Gungate,,Tamworth,Sir Robert Peel,Pub/bar/nightclub,7843,5,,609342,0,,,43673,295,publicprotection@tamworth.gov.uk,Tamworth,http://www.tamworth.gov.uk,,B79 7AE,2013-10-09,fhrs_5_en-GB,5,,FHRS,5
350693,Pharmacy,146 Masefield Drive,,Tamworth,Siswicks Pharmacy,Retailers - other,4613,,,625043,,,52.64349900000000,44529,295,publicprotection@tamworth.gov.uk,Tamworth,http://www.tamworth.gov.uk,-1.70170200000000,B79 8JA,,fhrs_exempt_en-GB,Exempt,,FHRS,
350694,44 - 46 Chartwell,,,Tamworth,Sk Stores T/A Mace Stores,Retailers - other,4613,5,,390115,0,,52.64384100000000,7362,295,publicprotection@tamworth.gov.uk,Tamworth,http://www.tamworth.gov.uk,-1.72422300000000,B79 7UG,2013-07-16,fhrs_5_en-GB,5,,FHRS,0
350695,1B East View,Glascote,,Tamworth,Slice Of Heaven,Other catering premises,7841,0,,700120,0,,52.62752300000000,48193,295,publicprotection@tamworth.gov.uk,Tamworth,http://www.tamworth.gov.uk,-1.67378500000000,B77 2BQ,2014-09-05,fhrs_5_en-GB,5,,FHRS,0
350696,1 Wardle Street,,,Tamworth,Smakolyk,Retailers - other,4613,20,,390090,5,,52.63444800000000,7006,295,publicprotection@tamworth.gov.uk,Tamworth,http://www.tamworth.gov.uk,-1.70250200000000,B79 7QH,2014-11-04,fhrs_1_en-GB,1,,FHRS,10
350697,146 Mildenhall,,,Tamworth,Snack Alley,Takeaway/sandwich shop,7844,5,,390034,5,,52.64816400000000,5145,295,publicprotection@tamworth.gov.uk,Tamworth,http://www.tamworth.gov.uk,-1.69077700000000,B79 8SL,2011-12-19,fhrs_5_en-GB,5,,FHRS,0
350698,Car park,Coop Superstore,Brent,Tamworth,Snack Attack,Mobile caterer,7846,10,,582520,0,,,43197,295,publicprotection@tamworth.gov.uk,Tamworth,http://www.tamworth.gov.uk,,,2013-08-08,fhrs_4_en-GB,4,,FHRS,0
350699,Tamworth Railway Station,Victoria Road,,Tamworth,Snack Masters,Mobile caterer,7846,0,,466468,5,,,39490,295,publicprotection@tamworth.gov.uk,Tamworth,http://www.tamworth.gov.uk,,,2014-12-02,fhrs_5_en-GB,5,,FHRS,0
350700,Leisure Island,River Drive,,Tamworth,Snowdome,Restaurant/Cafe/Canteen,1,0,,389992,0,,52.63029100000000,3026,295,publicprotection@tamworth.gov.uk,Tamworth,http://www.tamworth.gov.uk,-1.69378400000000,B79 7ND,2013-11-20,fhrs_5_en-GB,5,,FHRS,5
350701,"69, Caledonian",,,Tamworth,Spar,Retailers - other,4613,0,,390036,5,,52.62197500000000,5264,295,publicprotection@tamworth.gov.uk,Tamworth,http://www.tamworth.gov.uk,-1.66382600000000,B77 2ED,2013-07-11,fhrs_4_en-GB,4,,FHRS,10
350702,6 Exley,Belgrave,,Tamworth,Spar Supermarket,Retailers - other,4613,20,,390114,15,,52.61949400000000,7358,295,publicprotection@tamworth.gov.uk,Tamworth,http://www.tamworth.gov.uk,-1.68003400000000,B77 2LA,2014-07-14,fhrs_1_en-GB,1,,FHRS,10
350703,Spar,25 Ellerbeck,,Tamworth,Spar Supermarket,Retailers - other,4613,5,,390120,5,,52.61756900000000,7386,295,publicprotection@tamworth.gov.uk,Tamworth,http://www.tamworth.gov.uk,-1.65090600000000,B77 4JA,2013-12-05,fhrs_4_en-GB,4,,FHRS,10
350704,"157, Sandy Way",,,Tamworth,Spice Invaders,Takeaway/sandwich shop,7844,10,,389959,5,,52.62331800000000,2518,295,publicprotection@tamworth.gov.uk,Tamworth,http://www.tamworth.gov.uk,-1.64657600000000,B77 4ED,2013-09-12,fhrs_4_en-GB,4,,FHRS,5
350705,Spicy Affair,11 Church Street,,Tamworth,Spicy Affair,Takeaway/sandwich shop,7844,10,,718180,5,,52.63404700000000,49573,295,publicprotection@tamworth.gov.uk,Tamworth,http://www.tamworth.gov.uk,-1.69649100000000,B79 7DH,2014-11-06,fhrs_4_en-GB,4,,FHRS,5
350706,Wigginton Road,,,Tamworth,Spital Bowls & Tennis Club,Pub/bar/nightclub,7843,5,,638506,0,,52.64304700000000,45257,295,publicprotection@tamworth.gov.uk,Tamworth,http://www.tamworth.gov.uk,-1.69354700000000,B79 8RH,2014-03-20,fhrs_5_en-GB,5,,FHRS,0
350707,Tavern In The Town,Church Street,,Tamworth,Splash Cab,Takeaway/sandwich shop,7844,0,,724266,0,,52.63476400000000,49825,295,publicprotection@tamworth.gov.uk,Tamworth,http://www.tamworth.gov.uk,-1.69568800000000,B79 7DN,2014-12-08,fhrs_4_en-GB,4,,FHRS,10
350708,Market Street,,,Tamworth,Spoilt 4 Choice,Mobile caterer,7846,0,,390084,0,,,6643,295,publicprotection@tamworth.gov.uk,Tamworth,http://www.tamworth.gov.uk,,,2014-12-04,fhrs_5_en-GB,5,,FHRS,0
350709,433 Watling Street,Two Gates,,Tamworth,Spring Tree Care Home,Hospitals/Childcare/Caring Premises,5,0,,680658,0,,52.61144400000000,47265,295,publicprotection@tamworth.gov.uk,Tamworth,http://www.tamworth.gov.uk,-1.68187900000000,B77 1EL,2014-06-20,fhrs_5_en-GB,5,,FHRS,0
350710,Thackeray Drive,,,Tamworth,St Andrews Methodist Church,Other catering premises,7841,5,,680657,0,,52.64415600000000,47261,295,publicprotection@tamworth.gov.uk,Tamworth,http://www.tamworth.gov.uk,-1.69852000000000,B79 8HY,2014-06-20,fhrs_5_en-GB,5,,FHRS,0
350711,St Elizabeths Rc School,Claremont Road,,Tamworth,St Elizabeths Pre School,Hospitals/Childcare/Caring Premises,5,0,,389932,0,,52.64791200000000,18486,295,publicprotection@tamworth.gov.uk,Tamworth,http://www.tamworth.gov.uk,-1.70502700000000,B79 8EN,2012-07-11,fhrs_5_en-GB,5,,FHRS,0
350712,Claremont Road,,,Tamworth,St Elizabeth's Rc School,School/college/university,7845,5,,430806,5,,52.64791200000000,37606,295,publicprotection@tamworth.gov.uk,Tamworth,http://www.tamworth.gov.uk,-1.70502700000000,B79 8EN,2014-02-05,fhrs_4_en-GB,4,,FHRS,10
350713,St Gabriels Rc School,Wilnecote Lane,Belgrave,Tamworth,St Gabriel's Pre School,Hospitals/Childcare/Caring Premises,5,0,,430804,0,,52.61564600000000,37598,295,publicprotection@tamworth.gov.uk,Tamworth,http://www.tamworth.gov.uk,-1.67343000000000,B77 2LF,2014-02-03,fhrs_5_en-GB,5,,FHRS,0
350714,St Gabriels Rc School,Wilnecote Lane,Belgrave,Tamworth,St Gabriels Rc School,School/college/university,7845,0,,390047,0,,52.61564600000000,5589,295,publicprotection@tamworth.gov.uk,Tamworth,http://www.tamworth.gov.uk,-1.67343000000000,B77 2LF,2015-01-23,fhrs_5_en-GB,5,,FHRS,5
350715,St Georges Pre School,Bamford Street,,Tamworth,St Georges Pre School,Hospitals/Childcare/Caring Premises,5,0,,390136,0,,52.62692900000000,7450,295,publicprotection@tamworth.gov.uk,Tamworth,http://www.tamworth.gov.uk,-1.67689200000000,B77 2AT,2013-10-07,fhrs_5_en-GB,5,,FHRS,0
350716,St Martins Church And Community Centre,Ellerbeck,,Tamworth,St Martins Centre And Church,Restaurant/Cafe/Canteen,1,0,,390152,5,,52.61756900000000,7514,295,publicprotection@tamworth.gov.uk,Tamworth,http://www.tamworth.gov.uk,-1.65090600000000,B77 4JA,2013-09-30,fhrs_5_en-GB,5,,FHRS,0
350717,Hawksworth,,,Tamworth,St Peters Community Hall & Church,Other catering premises,7841,0,,390183,0,,52.62107086181640,7638,295,publicprotection@tamworth.gov.uk,Tamworth,http://www.tamworth.gov.uk,-1.66525077819824,B77 2HH,2013-07-16,fhrs_5_en-GB,5,,FHRS,0
350718,12 Ashby Road,,,Tamworth,Standon Care Home For The Elderly,Hospitals/Childcare/Caring Premises,5,5,,389969,5,,52.64201000000000,2563,295,publicprotection@tamworth.gov.uk,Tamworth,http://www.tamworth.gov.uk,-1.69232800000000,B79 8AG,2014-02-04,fhrs_5_en-GB,5,,FHRS,5
350719,Wilnecote Junior School,Smithy Lane,Wilnecote,Tamworth,Starburst After School Club,School/college/university,7845,0,,638497,0,,52.60684100000000,45121,295,publicprotection@tamworth.gov.uk,Tamworth,http://www.tamworth.gov.uk,-1.66540300000000,B77 5LA,2014-03-14,fhrs_5_en-GB,5,,FHRS,5
350720,35 Lower Gungate,,,Tamworth,Steves Fish Bar,Takeaway/sandwich shop,7844,10,,390016,5,,52.63529900000000,3790,295,publicprotection@tamworth.gov.uk,Tamworth,http://www.tamworth.gov.uk,-1.69391200000000,B79 7AT,2013-11-08,fhrs_4_en-GB,4,,FHRS,5
350721,22 Ellerbeck,Stonydelph,,Tamworth,Stonydelph Fish Bar,Takeaway/sandwich shop,7844,0,,462603,10,,52.61756900000000,39274,295,publicprotection@tamworth.gov.uk,Tamworth,http://www.tamworth.gov.uk,-1.65090600000000,B77 4JA,2014-04-29,fhrs_4_en-GB,4,,FHRS,10
350722,12a George Street,,,Tamworth,Subway,Takeaway/sandwich shop,7844,5,,389946,0,,52.63290700000000,2324,295,publicprotection@tamworth.gov.uk,Tamworth,http://www.tamworth.gov.uk,-1.69379500000000,B79 7LN,2014-02-11,fhrs_5_en-GB,5,,FHRS,5
350723,56 Church Street,,,Tamworth,Sue Ryder Care Shop,Retailers - other,4613,,,669850,,,52.63375800000000,47121,295,publicprotection@tamworth.gov.uk,Tamworth,http://www.tamworth.gov.uk,-1.69599100000000,B79 7DF,,fhrs_exempt_en-GB,Exempt,,FHRS,
350724,Hedging Lane Industrial Estate,Hedging Lane,Hockley,Tamworth,Sue's Snack Van,Mobile caterer,7846,10,,466467,10,,,39486,295,publicprotection@tamworth.gov.uk,Tamworth,http://www.tamworth.gov.uk,,,2014-12-09,fhrs_3_en-GB,3,,FHRS,10
350725,77 Wigginton Road,,,Tamworth,Suffield Lodge Club,Pub/bar/nightclub,7843,5,,390176,5,,52.64641400000000,7610,295,publicprotection@tamworth.gov.uk,Tamworth,http://www.tamworth.gov.uk,-1.69222300000000,B79 8RN,2012-01-26,fhrs_5_en-GB,5,,FHRS,5
350726,"87, Upper Gungate",,,Tamworth,Sunningdale Rest Home,Hospitals/Childcare/Caring Premises,5,5,,389952,5,,52.63949900000000,2449,295,publicprotection@tamworth.gov.uk,Tamworth,http://www.tamworth.gov.uk,-1.69462100000000,B79 8AX,2014-11-11,fhrs_5_en-GB,5,,FHRS,5
350727,20 Middle Entry,,,Tamworth,Super News,Retailers - other,4613,,,615867,,,52.63340500000000,44098,295,publicprotection@tamworth.gov.uk,Tamworth,http://www.tamworth.gov.uk,-1.69510700000000,B79 7NJ,,fhrs_exempt_en-GB,Exempt,,FHRS,
350728,20A,Market Place,,Tamworth,Supercigs,Retailers - other,4613,0,,390096,0,,52.63300800000000,7012,295,publicprotection@tamworth.gov.uk,Tamworth,http://www.tamworth.gov.uk,-1.69465200000000,B79 7LL,2012-03-19,fhrs_2_en-GB,2,,FHRS,15
350729,9 George Street,,,Tamworth,Superdrug,Retailers - other,4613,0,,548061,0,,52.63298600000000,41973,295,publicprotection@tamworth.gov.uk,Tamworth,http://www.tamworth.gov.uk,-1.69323300000000,B79 7LH,2013-04-30,fhrs_5_en-GB,5,,FHRS,0
350730,Exley Centre,Exley,Belgrave,Tamworth,Sure Start Childrens Centre,Hospitals/Childcare/Caring Premises,5,10,,441123,0,,52.61949400000000,38034,295,publicprotection@tamworth.gov.uk,Tamworth,http://www.tamworth.gov.uk,-1.68003400000000,B77 2LA,2012-08-07,fhrs_4_en-GB,4,,FHRS,0
350731,Surestart,Hawksworth,,Tamworth,Surestart,Hospitals/Childcare/Caring Premises,5,,,390150,,,52.62107100000000,7506,295,publicprotection@tamworth.gov.uk,Tamworth,http://www.tamworth.gov.uk,-1.66525100000000,B77 2HH,2013-07-16,fhrs_exempt_en-GB,Exempt,,FHRS,
350732,Swallow Chinese Takeaway,39A Aldergate,,Tamworth,Swallow Cantonese Take Away,Takeaway/sandwich shop,7844,10,,454445,5,,52.63452400000000,38701,295,publicprotection@tamworth.gov.uk,Tamworth,http://www.tamworth.gov.uk,-1.69703500000000,B79 7DD,2014-02-04,fhrs_4_en-GB,4,,FHRS,5
350733,13 Bridge Street,Amington,,Tamworth,Sweet Treats,Other catering premises,7841,5,,458109,0,,52.63394100000000,39186,295,publicprotection@tamworth.gov.uk,Tamworth,http://www.tamworth.gov.uk,-1.67042800000000,B77 3BX,2012-10-18,fhrs_5_en-GB,5,,FHRS,0
350734,Unit 5 Jolly Sailor Retail Park,Bonehill Road,,Tamworth,T K Maxx,Retailers - other,4613,0,,571561,0,,52.62782500000000,42797,295,publicprotection@tamworth.gov.uk,Tamworth,http://www.tamworth.gov.uk,-1.70699400000000,B78 3HD,2013-07-17,fhrs_5_en-GB,5,,FHRS,0
350735,118 Lichfield Street,,,Tamworth,Taco Mini Hut,Restaurant/Cafe/Canteen,1,0,,582518,5,,52.63409100000000,43185,295,publicprotection@tamworth.gov.uk,Tamworth,http://www.tamworth.gov.uk,-1.69984500000000,B79 7QB,2013-08-08,fhrs_5_en-GB,5,,FHRS,5
350736,Cedar Drive,,,Tamworth,Tam O' Shanter,Pub/bar/nightclub,7843,5,,454446,5,,52.64782200000000,38713,295,publicprotection@tamworth.gov.uk,Tamworth,http://www.tamworth.gov.uk,-1.70127400000000,B79 8QL,2014-08-12,fhrs_4_en-GB,4,,FHRS,10
350737,Castle Grounds,River Drive,,Tamworth,Tame Anker Bowls Club,Pub/bar/nightclub,7843,5,,455310,0,,52.63029100000000,38833,295,publicprotection@tamworth.gov.uk,Tamworth,http://www.tamworth.gov.uk,-1.69378400000000,B79 7ND,2012-09-25,fhrs_4_en-GB,4,,FHRS,10
350738,Solway Close,,,Tamworth,Tamworth & District Rugby Club,Pub/bar/nightclub,7843,10,,390040,0,,52.64426700000000,5503,295,publicprotection@tamworth.gov.uk,Tamworth,http://www.tamworth.gov.uk,-1.70678100000000,B79 8ED,2013-10-07,fhrs_4_en-GB,4,,FHRS,10
350739,The Tamworth Arms,71 Lichfield Street,,Tamworth,Tamworth Arms,Pub/bar/nightclub,7843,5,,454444,10,,52.63426100000000,38697,295,publicprotection@tamworth.gov.uk,Tamworth,http://www.tamworth.gov.uk,-1.70313900000000,B79 7QL,2014-02-11,fhrs_3_en-GB,3,,FHRS,10
350740,Corporation Street,,,Tamworth,Tamworth Assembly Rooms,Other catering premises,7841,0,,426706,0,,52.63476400000000,37310,295,publicprotection@tamworth.gov.uk,Tamworth,http://www.tamworth.gov.uk,-1.69568800000000,B79 7DN,2014-01-28,fhrs_5_en-GB,5,,FHRS,0
350741,Town Stadium,Marlborough Way,,Tamworth,Tamworth Athletic Club,Pub/bar/nightclub,7843,5,,668332,0,,52.64654800000000,46517,295,publicprotection@tamworth.gov.uk,Tamworth,http://www.tamworth.gov.uk,-1.69872500000000,B79 8QN,2014-04-29,fhrs_5_en-GB,5,,FHRS,5
350742,Derwent,Belgrave,,Tamworth,Tamworth Baptist Church,Restaurant/Cafe/Canteen,1,0,,426703,0,,52.61781311035160,37286,295,publicprotection@tamworth.gov.uk,Tamworth,http://www.tamworth.gov.uk,-1.68050384521484,B77 2LD,2012-07-10,fhrs_5_en-GB,5,,FHRS,0
350743,Castle Grounds,,,Tamworth,Tamworth Castle,Restaurant/Cafe/Canteen,1,0,,390065,0,,52.63259100000000,6150,295,publicprotection@tamworth.gov.uk,Tamworth,http://www.tamworth.gov.uk,-1.69688600000000,B79 7NA,2014-01-21,fhrs_5_en-GB,5,,FHRS,0
350744,2 The Green ,Ladybank,,Tamworth,Tamworth Castle Bowling Club,Pub/bar/nightclub,7843,0,,406751,0,,52.63280000000000,36790,295,publicprotection@tamworth.gov.uk,Tamworth,http://www.tamworth.gov.uk,-1.69784500000000,B79 7NB,2012-05-29,fhrs_5_en-GB,5,,FHRS,0
350745,Castle Grounds,Holloway,,Tamworth,Tamworth Castle Upper Lodge,Retailers - other,4613,0,,555692,0,,52.63029100000000,42397,295,publicprotection@tamworth.gov.uk,Tamworth,http://www.tamworth.gov.uk,-1.69378400000000,B79 7ND,2013-06-06,fhrs_5_en-GB,5,,FHRS,0
350746,1 - 5 Church Street,,,Tamworth,Tamworth Co Op,Retailers - supermarkets/hypermarkets,7840,0,,454452,0,,52.63404700000000,38737,295,publicprotection@tamworth.gov.uk,Tamworth,http://www.tamworth.gov.uk,-1.69649100000000,B79 7DH,2015-01-12,fhrs_5_en-GB,5,,FHRS,0
350747,5 Colehill,,,Tamworth,Tamworth Co Op ,Retailers - supermarkets/hypermarkets,7840,5,,390140,5,,52.63377500000000,7466,295,publicprotection@tamworth.gov.uk,Tamworth,http://www.tamworth.gov.uk,-1.69245900000000,B79 7HE,2011-01-10,fhrs_5_en-GB,5,,FHRS,5
350748,249 Glascote Road,Glascote,,Tamworth,Tamworth Co Operative Society Limited,Retailers - supermarkets/hypermarkets,7840,5,,434853,0,,52.62828100000000,37890,295,publicprotection@tamworth.gov.uk,Tamworth,http://www.tamworth.gov.uk,-1.67485800000000,B77 2AU,2012-08-10,fhrs_5_en-GB,5,,FHRS,5
350749,,,,,Tamworth Country Markets,Other catering premises,7841,0,,697346,0,,,48117,295,publicprotection@tamworth.gov.uk,Tamworth,http://www.tamworth.gov.uk,,,2014-08-21,fhrs_5_en-GB,5,,FHRS,0
350750,16a Silica Rd,Amington Ind Est,,Tamworth,Tamworth Day Service ,Hospitals/Childcare/Caring Premises,5,5,,389974,5,,52.62525100000000,2569,295,publicprotection@tamworth.gov.uk,Tamworth,http://www.tamworth.gov.uk,-1.64969300000000,B77 4DT,2012-03-14,fhrs_5_en-GB,5,,FHRS,5
350751,Philip Dix Centre,Corporation Street,,Tamworth,Tamworth Day Services,Takeaway/sandwich shop,7844,5,,560381,0,,52.63476400000000,42469,295,publicprotection@tamworth.gov.uk,Tamworth,http://www.tamworth.gov.uk,-1.69568800000000,B79 7DN,2013-05-21,fhrs_5_en-GB,5,,FHRS,5
350752,Deltic,Glascote,,Tamworth,Tamworth District Scout Centre,Other catering premises,7841,5,,551674,0,,52.61722800000000,42125,295,publicprotection@tamworth.gov.uk,Tamworth,http://www.tamworth.gov.uk,-1.66036200000000,B77 2DU,2013-05-20,fhrs_5_en-GB,5,,FHRS,0
350753,Birds Bush Road,Belgrave,,Tamworth,Tamworth Enterprise College,School/college/university,7845,0,,479404,0,,52.61440700000000,39786,295,publicprotection@tamworth.gov.uk,Tamworth,http://www.tamworth.gov.uk,-1.67079600000000,B77 2NE,2014-12-18,fhrs_5_en-GB,5,,FHRS,0
350754,The Lamb Ground,Kettlebrook Road,,Tamworth,Tamworth Football Club Bar,Pub/bar/nightclub,7843,0,,455302,0,,52.62887100000000,38797,295,publicprotection@tamworth.gov.uk,Tamworth,http://www.tamworth.gov.uk,-1.68714600000000,B77 1Aa,2012-09-20,fhrs_5_en-GB,5,,FHRS,5
350755,Eagle Drive,,,Tamworth,Tamworth Golf Centre,Retailers - other,4613,0,,390010,0,,52.62981700000000,3672,295,publicprotection@tamworth.gov.uk,Tamworth,http://www.tamworth.gov.uk,-1.64327400000000,B77 4EG,2013-06-27,fhrs_5_en-GB,5,,FHRS,0
350756,Eagle Drive,Amington,,Tamworth,Tamworth Indoor Bowls Club   Wickers Restaurant,Restaurant/Cafe/Canteen,1,0,,454450,0,,52.62981700000000,38729,295,publicprotection@tamworth.gov.uk,Tamworth,http://www.tamworth.gov.uk,-1.64327400000000,B77 4EG,2012-09-25,fhrs_5_en-GB,5,,FHRS,0
350757,Eagle Drive,Amington,,Tamworth,Tamworth Indoor Bowls Club Bar,Pub/bar/nightclub,7843,0,,468703,0,,52.62981700000000,39642,295,publicprotection@tamworth.gov.uk,Tamworth,http://www.tamworth.gov.uk,-1.64327400000000,B77 4EG,2012-09-25,fhrs_5_en-GB,5,,FHRS,0
350758,Philip Dix Centre,,Corporation Street,Tamworth,Tamworth Information Centre,Retailers - other,4613,,,551671,,,52.63476400000000,42093,295,publicprotection@tamworth.gov.uk,Tamworth,http://www.tamworth.gov.uk,-1.69568800000000,B79 7DN,,fhrs_exempt_en-GB,Exempt,,FHRS,
350759,29 Lichfield Street,,,Tamworth,Tamworth Masonic Rooms,Pub/bar/nightclub,7843,0,,520657,0,,52.63364400000000,41109,295,publicprotection@tamworth.gov.uk,Tamworth,http://www.tamworth.gov.uk,-1.70063100000000,B79 7QE,2013-02-22,fhrs_5_en-GB,5,,FHRS,0
350760,Unit 19,Beauchamp Industrial Park,Watling Street,Tamworth,Tamworth Pizza Company,Takeaway/sandwich shop,7844,10,,609327,0,,52.61140000000000,43402,295,publicprotection@tamworth.gov.uk,Tamworth,http://www.tamworth.gov.uk,-1.67894100000000,B77 5BZ,2013-09-16,fhrs_4_en-GB,4,,FHRS,10
350761,Tamworth Progressive Club,Halford Street,,Tamworth,Tamworth Progressive Club,Pub/bar/nightclub,7843,0,,390170,0,,52.63498000000000,7586,295,publicprotection@tamworth.gov.uk,Tamworth,http://www.tamworth.gov.uk,-1.69947000000000,B79 7RD,2014-01-31,fhrs_5_en-GB,5,,FHRS,0
350762,7 Aldergate,,,Tamworth,Tamworth Royal British Legion Club,Pub/bar/nightclub,7843,5,,390021,10,,52.63560100000000,4055,295,publicprotection@tamworth.gov.uk,Tamworth,http://www.tamworth.gov.uk,-1.69615600000000,B79 7DL,2012-06-22,fhrs_4_en-GB,4,,FHRS,5
350763,32 Victoria Rd,,,Tamworth,Tamworth Snooker Centre,Restaurant/Cafe/Canteen,1,10,,390055,10,,52.63497400000000,5877,295,publicprotection@tamworth.gov.uk,Tamworth,http://www.tamworth.gov.uk,-1.69019000000000,B79 7HS,2014-02-06,fhrs_3_en-GB,3,,FHRS,5
350764,Tamworth Travelodge,Green Lane,,Tamworth,Tamworth Travelodge,Hotel/bed & breakfast/guest house,7842,,,406749,,,52.60746800000000,36778,295,publicprotection@tamworth.gov.uk,Tamworth,http://www.tamworth.gov.uk,-1.64013300000000,B77 5PS,,fhrs_exempt_en-GB,Exempt,,FHRS,
350765,37 High Street,Dosthill,,Tamworth,Tasty House Chinese Take Away,Takeaway/sandwich shop,7844,10,,390187,10,,52.59945600000000,811,295,publicprotection@tamworth.gov.uk,Tamworth,http://www.tamworth.gov.uk,-1.68367900000000,B77 1LG,2014-02-03,fhrs_3_en-GB,3,,FHRS,10
350766,266 - 268 Tamworth Road,Amington,,Tamworth,Taylors Chemist,Retailers - other,4613,,,548057,,,52.63596900000000,41937,295,publicprotection@tamworth.gov.uk,Tamworth,http://www.tamworth.gov.uk,-1.65949300000000,B77 3DQ,,fhrs_exempt_en-GB,Exempt,,FHRS,
350767,284 Tamworth Road,Amington,,Tamworth,Tesco Express,Retailers - other,4613,0,,447090,0,,52.63732300000000,38330,295,publicprotection@tamworth.gov.uk,Tamworth,http://www.tamworth.gov.uk,-1.65538900000000,B77 3AB,2012-09-06,fhrs_5_en-GB,5,,FHRS,0
350768,Tamworth Express And Filling Station,High Street,,Tamworth,Tesco Express,Retailers - other,4613,0,,390151,0,,52.60095500000000,7510,295,publicprotection@tamworth.gov.uk,Tamworth,http://www.tamworth.gov.uk,-1.68251600000000,B77 1LE,2013-07-17,fhrs_5_en-GB,5,,FHRS,0
350769,Wilnecote Service Station,Watling Street,Two Gates,Tamworth,Texaco,Retailers - other,4613,5,,668342,5,,52.61024700000000,46605,295,publicprotection@tamworth.gov.uk,Tamworth,http://www.tamworth.gov.uk,-1.67481400000000,B77 5AB,2014-05-20,fhrs_4_en-GB,4,,FHRS,10
350770,St Martins Church And Community Centre,Ellerbeck,Stoneydelph,Tamworth,The Ark Nursery,Hospitals/Childcare/Caring Premises,5,0,,390046,0,,52.61756900000000,5588,295,publicprotection@tamworth.gov.uk,Tamworth,http://www.tamworth.gov.uk,-1.65090600000000,B77  4JA,2013-09-30,fhrs_5_en-GB,5,,FHRS,0
350771,The Blacksmiths Arms,Ellerbeck,,Tamworth,The Blacksmith Arms,Pub/bar/nightclub,7843,10,,390131,5,,52.61756900000000,7430,295,publicprotection@tamworth.gov.uk,Tamworth,http://www.tamworth.gov.uk,-1.65090600000000,B77 4JA,2010-09-08,fhrs_4_en-GB,4,,FHRS,5
350772,Ellerbeck,Stonydelph,,Tamworth,The Blacksmiths Arms,Pub/bar/nightclub,7843,10,,609333,5,,52.61756900000000,43525,295,publicprotection@tamworth.gov.uk,Tamworth,http://www.tamworth.gov.uk,-1.65090600000000,B77 4JA,2014-08-27,fhrs_4_en-GB,4,,FHRS,0
350773,22 Carnoustie,Amington,,Tamworth,The Blonde Bakery,Other catering premises,7841,0,,582517,0,,52.63377200000000,43181,295,publicprotection@tamworth.gov.uk,Tamworth,http://www.tamworth.gov.uk,-1.64604900000000,B77 4NN,2013-08-07,fhrs_5_en-GB,5,,FHRS,0
350774,The Bolebridge,10 Bolebridge Street,,Tamworth,The Bolebridge,Restaurant/Cafe/Canteen,1,5,,390180,5,,52.63333300000000,7626,295,publicprotection@tamworth.gov.uk,Tamworth,http://www.tamworth.gov.uk,-1.69179800000000,B79 7PA,2014-03-20,fhrs_5_en-GB,5,,FHRS,5
350775,Lichfield Street,,,Tamworth,The Boot Inn,Pub/bar/nightclub,7843,10,,508683,10,,52.63381300000000,40589,295,publicprotection@tamworth.gov.uk,Tamworth,http://www.tamworth.gov.uk,-1.69999500000000,B79 7QD,2014-09-30,fhrs_3_en-GB,3,,FHRS,5
350776,The Bulls Head Inn,446 Watling Street,Two Gates,Tamworth,The Bulls Head,Pub/bar/nightclub,7843,20,,615868,10,,52.61280100000000,44110,295,publicprotection@tamworth.gov.uk,Tamworth,http://www.tamworth.gov.uk,-1.68520700000000,B77 1HW,2014-11-28,fhrs_1_en-GB,1,,FHRS,15
350777,Ladybank,,,Tamworth,The Castle Hotel,Pub/bar/nightclub,7843,0,,390003,0,,52.63280000000000,3233,295,publicprotection@tamworth.gov.uk,Tamworth,http://www.tamworth.gov.uk,-1.69784500000000,B79 7NB,2013-03-20,fhrs_5_en-GB,5,,FHRS,5
350778,Watling Street,,,Tamworth,The Centurion,Restaurant/Cafe/Canteen,1,5,,390045,5,,52.60421900000000,5586,295,publicprotection@tamworth.gov.uk,Tamworth,http://www.tamworth.gov.uk,-1.65110100000000,B77 5PN,2014-05-08,fhrs_4_en-GB,4,,FHRS,10
350779,35 Medina,Tamworth,B77 2JL,Tamworth,The Codfather,Mobile caterer,7846,5,,445998,5,,52.61911900000000,38282,295,publicprotection@tamworth.gov.uk,Tamworth,http://www.tamworth.gov.uk,-1.67455600000000,,2012-09-06,fhrs_5_en-GB,5,,FHRS,5
350780,15 Hospital Street,,,Tamworth,The Corner Shop,Retailers - other,4613,20,,649169,0,,52.63617900000000,45617,295,publicprotection@tamworth.gov.uk,Tamworth,http://www.tamworth.gov.uk,-1.69730400000000,B79 7EE,2014-01-29,fhrs_1_en-GB,1,,FHRS,0
350781,Fontenaye Road,,,Tamworth,The Coton Arms,Pub/bar/nightclub,7843,10,,389936,10,,52.64557700000000,1954,295,publicprotection@tamworth.gov.uk,Tamworth,http://www.tamworth.gov.uk,-1.70958000000000,B79 8JT,2014-11-06,fhrs_3_en-GB,3,,FHRS,10
350782,7 Lower Gungate,,,Tamworth,The Deanery,Restaurant/Cafe/Canteen,1,0,,727025,0,,,50041,295,publicprotection@tamworth.gov.uk,Tamworth,http://www.tamworth.gov.uk,,B79 7AE,2014-12-11,fhrs_5_en-GB,5,,FHRS,0
350783,6 Ariane,Lichfield Road Industrial Estate,,Tamworth,The Fitness Hub,Retailers - other,4613,,,679802,,,52.64396300000000,47229,295,publicprotection@tamworth.gov.uk,Tamworth,http://www.tamworth.gov.uk,-1.71848800000000,B79 7XF,,fhrs_exempt_en-GB,Exempt,,FHRS,
350784,105 High Street,,Dosthill,Tamworth,The Fox Inn,Pub/bar/nightclub,7843,5,,390067,5,,52.59700600000000,6152,295,publicprotection@tamworth.gov.uk,Tamworth,http://www.tamworth.gov.uk,-1.68493600000000,B77 1LQ,2013-11-20,fhrs_5_en-GB,5,,FHRS,0
350785,Lichfield Road,,,Tamworth,The Fox Inn,Pub/bar/nightclub,7843,5,,389977,10,,52.64372600000000,2714,295,publicprotection@tamworth.gov.uk,Tamworth,http://www.tamworth.gov.uk,-1.72883500000000,B79 7SH,2014-02-05,fhrs_4_en-GB,4,,FHRS,5
350786,Tamworth Road,Amington,,Tamworth,The Gate Inn,Farmers/growers,7838,0,,389986,0,,52.63478000000000,2938,295,publicprotection@tamworth.gov.uk,Tamworth,http://www.tamworth.gov.uk,-1.66507200000000,B77 3BY,2013-10-02,fhrs_5_en-GB,5,,FHRS,5
350787,Lower Gungate,,,Tamworth,The Globe,Pub/bar/nightclub,7843,0,,535318,5,,52.63524500000000,41401,295,publicprotection@tamworth.gov.uk,Tamworth,http://www.tamworth.gov.uk,-1.69395600000000,B79 7AT,2014-08-12,fhrs_5_en-GB,5,,FHRS,5
350788,The Globe Inn,Watling Street,Two Gates,Tamworth,The Globe Inn,Pub/bar/nightclub,7843,5,,722526,5,,52.60823700000000,49765,295,publicprotection@tamworth.gov.uk,Tamworth,http://www.tamworth.gov.uk,-1.66629400000000,B77 5BA,2014-12-03,fhrs_5_en-GB,5,,FHRS,5
350789,Skills Tank Tamworth,Silica Road,Amington Industrial Estate,Tamworth,The Greenhouse Coffee Shop,Restaurant/Cafe/Canteen,1,0,,668335,0,,52.62530100000000,46541,295,publicprotection@tamworth.gov.uk,Tamworth,http://www.tamworth.gov.uk,-1.65115500000000,B77 4DT,2014-05-14,fhrs_5_en-GB,5,,FHRS,5
350790,62 Upper Gungate,,,Tamworth,The Gungate,Hotel/bed & breakfast/guest house,7842,5,,389990,0,,52.63971200000000,2962,295,publicprotection@tamworth.gov.uk,Tamworth,http://www.tamworth.gov.uk,-1.69380700000000,B79 8AA,2014-08-12,fhrs_5_en-GB,5,,FHRS,0
350791,1 Marmion Street,,,Tamworth,The Kitchen Cafe,Restaurant/Cafe/Canteen,1,5,,390030,0,,52.63489500000000,4687,295,publicprotection@tamworth.gov.uk,Tamworth,http://www.tamworth.gov.uk,-1.69087100000000,B79 7JG,2011-01-08,fhrs_5_en-GB,5,,FHRS,0
350792,Bonehill Road,,,Tamworth,The Ladybridge Beefeater,Restaurant/Cafe/Canteen,1,5,,455306,5,,52.62906600000000,38813,295,publicprotection@tamworth.gov.uk,Tamworth,http://www.tamworth.gov.uk,-1.70008600000000,B78 3HE,2014-11-06,fhrs_4_en-GB,4,,FHRS,10
350793,Exley,,Belgrave,Tamworth,The Mercian,Pub/bar/nightclub,7843,0,,454447,0,,52.61949400000000,38717,295,publicprotection@tamworth.gov.uk,Tamworth,http://www.tamworth.gov.uk,-1.68003400000000,B77 2LA,2012-09-25,fhrs_5_en-GB,5,,FHRS,0
350794,7 Bolebridge Mews,,,Tamworth,The Miah Tandoori,Restaurant/Cafe/Canteen,1,20,,482887,5,,52.63333300000000,39942,295,publicprotection@tamworth.gov.uk,Tamworth,http://www.tamworth.gov.uk,-1.69179800000000,B79 7PA,2014-04-28,fhrs_1_en-GB,1,,FHRS,10
350795,The Moat House,Lichfield Street,,Tamworth,The Moat House,Restaurant/Cafe/Canteen,1,0,,638507,0,,52.63388200000000,45265,295,publicprotection@tamworth.gov.uk,Tamworth,http://www.tamworth.gov.uk,-1.70244700000000,B79 7QQ,2014-03-19,fhrs_4_en-GB,4,,FHRS,10
350796,Tamworth,,,Tamworth,The Nosh Box,Mobile caterer,7846,5,,682040,0,,,47609,295,publicprotection@tamworth.gov.uk,Tamworth,http://www.tamworth.gov.uk,,Tamworth,2014-06-27,fhrs_5_en-GB,5,,FHRS,0
350797,50 Bolebridge Street,,,Tamworth,The Odeon,Restaurant/Cafe/Canteen,1,0,,390172,0,,52.63215200000000,7594,295,publicprotection@tamworth.gov.uk,Tamworth,http://www.tamworth.gov.uk,-1.69049100000000,B79 7PB,2014-04-30,fhrs_5_en-GB,5,,FHRS,0
350798,The Old Liberal House,Woodhouse Lane,,Tamworth,The Old Liberal House,Pub/bar/nightclub,7843,10,,390156,5,,52.63597900000000,7530,295,publicprotection@tamworth.gov.uk,Tamworth,http://www.tamworth.gov.uk,-1.65693600000000,B77 3AE,2015-01-16,fhrs_3_en-GB,3,,FHRS,10
350799,The Coffee Shop,Woodhouse Lane,Amington,Tamworth,The Old School House,Restaurant/Cafe/Canteen,1,0,,609335,0,,52.63597900000000,43541,295,publicprotection@tamworth.gov.uk,Tamworth,http://www.tamworth.gov.uk,-1.65693600000000,B77 3AE,2013-10-04,fhrs_5_en-GB,5,,FHRS,0
350800,33 Church St,,,Tamworth,The Old Stone Cross,Pub/bar/nightclub,7843,5,,390050,0,,52.63412000000000,5809,295,publicprotection@tamworth.gov.uk,Tamworth,http://www.tamworth.gov.uk,-1.69372800000000,B79 7BX,2012-07-01,fhrs_4_en-GB,4,,FHRS,10
350801,13-14b Aldergate,,,Tamworth,The Peel,Restaurant/Cafe/Canteen,1,5,,389988,5,,52.63560100000000,2955,295,publicprotection@tamworth.gov.uk,Tamworth,http://www.tamworth.gov.uk,-1.69615600000000,B79 7DL,2014-07-14,fhrs_5_en-GB,5,,FHRS,5
350802,32 - 34 George Street,,,Tamworth,The Phoenix,Pub/bar/nightclub,7843,5,,447095,5,,52.63331000000000,38402,295,publicprotection@tamworth.gov.uk,Tamworth,http://www.tamworth.gov.uk,-1.69320100000000,B79 7LJ,2014-06-03,fhrs_5_en-GB,5,,FHRS,5
350803,Shuttington Road,Alvecote,,Tamworth,The Pretty Pigs,Pub/bar/nightclub,7843,5,,389950,5,,52.63995200000000,2402,295,publicprotection@tamworth.gov.uk,Tamworth,http://www.tamworth.gov.uk,-1.64741800000000,B79 0ED,2014-04-07,fhrs_4_en-GB,4,,FHRS,10
350804,The Prince Of Wales Inn,70 Hockley Road,,Tamworth,The Prince Of Wales Inn,Pub/bar/nightclub,7843,0,,390158,0,,52.60506600000000,7538,295,publicprotection@tamworth.gov.uk,Tamworth,http://www.tamworth.gov.uk,-1.66741000000000,B77 5EE,2013-10-07,fhrs_5_en-GB,5,,FHRS,0
350805,18 Watling Street,Wilnecote,,Tamworth,The Queens Head,Pub/bar/nightclub,7843,0,,454437,0,,52.60828700000000,38653,295,publicprotection@tamworth.gov.uk,Tamworth,http://www.tamworth.gov.uk,-1.66511200000000,B77 5BP,2012-09-20,fhrs_5_en-GB,5,,FHRS,5
350806,The Red Lion Inn,Quarry Hill,Wilnecote,Tamworth,The Red Lion,Pub/bar/nightclub,7843,30,,619205,10,,52.60782100000000,44201,295,publicprotection@tamworth.gov.uk,Tamworth,http://www.tamworth.gov.uk,-1.66222100000000,B77 5BS,2013-12-04,fhrs_0_en-GB,0,,FHRS,10
350807,Comberford Road,,,Tamworth,The Riftswood,Pub/bar/nightclub,7843,0,,389998,0,,52.64327800000000,3208,295,publicprotection@tamworth.gov.uk,Tamworth,http://www.tamworth.gov.uk,-1.69610200000000,B79 8PB,2013-02-20,fhrs_5_en-GB,5,,FHRS,5
350808,The Riverside,18 Lichfield Street,,Tamworth,The Riverside,Takeaway/sandwich shop,7844,5,,454442,10,,52.63381300000000,38689,295,publicprotection@tamworth.gov.uk,Tamworth,http://www.tamworth.gov.uk,-1.69999500000000,B79 7QD,2012-09-24,fhrs_4_en-GB,4,,FHRS,5
350809,104A Lichfield Street,,,Tamworth,The Royal Bengal Restaurant,Restaurant/Cafe/Canteen,1,20,,389918,5,,52.63409100000000,1013,295,publicprotection@tamworth.gov.uk,Tamworth,http://www.tamworth.gov.uk,-1.69984500000000,B79 7QB,2014-02-12,fhrs_1_en-GB,1,,FHRS,10
350810,232 Hockley Road,Wilnecote,,Tamworth,The Sandyback Roasting Co.,Other catering premises,7841,0,,668343,0,,52.59956800000000,46621,295,publicprotection@tamworth.gov.uk,Tamworth,http://www.tamworth.gov.uk,-1.66853000000000,B77 5EY,2014-05-23,fhrs_5_en-GB,5,,FHRS,0
350811,Food Mobile Opposite 151 Kettlebrook Road,Kettlebrook Road,,Tamworth,The Snak Shak,Mobile caterer,7846,10,,389966,10,,52.62543600000000,2557,295,publicprotection@tamworth.gov.uk,Tamworth,http://www.tamworth.gov.uk,-1.68582000000000,,2014-02-03,fhrs_4_en-GB,4,,FHRS,0
350812,Wet Sales only,81 Caledonian,Glascote,Tamworth,The St George,Pub/bar/nightclub,7843,5,,542919,0,,52.62197500000000,41741,295,publicprotection@tamworth.gov.uk,Tamworth,http://www.tamworth.gov.uk,-1.66382600000000,B77 2ED,2013-04-16,fhrs_4_en-GB,4,,FHRS,10
350813,(Wet Sales),Church Street,,Tamworth,The Tavern In The Town,Pub/bar/nightclub,7843,10,,390104,5,,52.63476400000000,7060,295,publicprotection@tamworth.gov.uk,Tamworth,http://www.tamworth.gov.uk,-1.69568800000000,B79 7DN,2013-03-12,fhrs_3_en-GB,3,,FHRS,10
350814,Ankerside Shopping Centre,George Street,,Tamworth,The Terrace,Pub/bar/nightclub,7843,0,,479408,0,,52.63266300000000,39806,295,publicprotection@tamworth.gov.uk,Tamworth,http://www.tamworth.gov.uk,-1.69339800000000,B79 7LQ,2012-11-22,fhrs_5_en-GB,5,,FHRS,0
350815,Lichfield Street,,,Tamworth,The Three Tuns,Pub/bar/nightclub,7843,5,,389958,0,,52.63381300000000,2513,295,publicprotection@tamworth.gov.uk,Tamworth,http://www.tamworth.gov.uk,-1.69999500000000,B79 7QD,2013-11-26,fhrs_4_en-GB,4,,FHRS,10
350816,45 Victoria Road,,,Tamworth,The Tweedale Arms,Pub/bar/nightclub,7843,0,,479407,0,,52.63594200000000,39802,295,publicprotection@tamworth.gov.uk,Tamworth,http://www.tamworth.gov.uk,-1.68888300000000,B79 7HU,2012-11-22,fhrs_5_en-GB,5,,FHRS,0
350817,1 Aldergate,,,Tamworth,The White Lion,Pub/bar/nightclub,7843,5,,389956,5,,52.63478600000000,2506,295,publicprotection@tamworth.gov.uk,Tamworth,http://www.tamworth.gov.uk,-1.69734300000000,B79 7DJ,2014-04-28,fhrs_5_en-GB,5,,FHRS,5
350818,The Wigginton,Wigginton Road,,Tamworth,The Wiggington,Pub/bar/nightclub,7843,10,,390119,10,,52.64826600000000,7382,295,publicprotection@tamworth.gov.uk,Tamworth,http://www.tamworth.gov.uk,-1.69195900000000,B79 8RW,2013-11-18,fhrs_3_en-GB,3,,FHRS,5
350819,The Winning Post,Argyle Street,,Tamworth,The Winning Post    Wet Sales Only,Pub/bar/nightclub,7843,0,,390134,0,,52.63227400000000,7442,295,publicprotection@tamworth.gov.uk,Tamworth,http://www.tamworth.gov.uk,-1.67240500000000,B77 3EW,2014-07-23,fhrs_5_en-GB,5,,FHRS,0
350820,15A Ankerside Shopping Centre,George Street,,Tamworth,Thorntons,Retailers - other,4613,0,,548062,0,,52.63266300000000,41977,295,publicprotection@tamworth.gov.uk,Tamworth,http://www.tamworth.gov.uk,-1.69339800000000,B79 7LG,2013-04-30,fhrs_5_en-GB,5,,FHRS,0
350821,2 Fossdale Rd,,,Tamworth,Three Peaks Primary School,School/college/university,7845,0,,390044,0,,52.61276500000000,5577,295,publicprotection@tamworth.gov.uk,Tamworth,http://www.tamworth.gov.uk,-1.65283500000000,B77 4HN,2014-11-25,fhrs_5_en-GB,5,,FHRS,0
350822,48 Cleeve,Glascote,,Tamworth,Thyme To Eat,Other catering premises,7841,5,,390146,5,,52.62698000000000,7490,295,publicprotection@tamworth.gov.uk,Tamworth,http://www.tamworth.gov.uk,-1.67904800000000,B77 2QD,2012-01-18,fhrs_5_en-GB,5,,FHRS,5
350823,Basin Lane,Glascote,,Tamworth,Tiny Toez@Tamworth,Hospitals/Childcare/Caring Premises,5,0,,682356,5,,52.62673900000000,47617,295,publicprotection@tamworth.gov.uk,Tamworth,http://www.tamworth.gov.uk,-1.68303900000000,B77 2AH,2014-06-24,fhrs_5_en-GB,5,,FHRS,5
350824,15 Comberford Road,,,Tamworth,Tnp House,Hospitals/Childcare/Caring Premises,5,10,,609344,15,,52.64327800000000,43745,295,publicprotection@tamworth.gov.uk,Tamworth,http://www.tamworth.gov.uk,-1.69610200000000,B79 8PB,2013-10-03,fhrs_2_en-GB,2,,FHRS,10
350825,104 Lichfield Street,,,Tamworth,Tonys Fish Bar,Takeaway/sandwich shop,7844,20,,389921,10,,52.63409100000000,1353,295,publicprotection@tamworth.gov.uk,Tamworth,http://www.tamworth.gov.uk,-1.69984500000000,B79 7QB,2013-11-20,fhrs_1_en-GB,1,,FHRS,5
350826,23 St Marys Way,Glascote,,Tamworth,Tonys News & Off License,Retailers - other,4613,10,,390102,0,,52.63152100000000,7058,295,publicprotection@tamworth.gov.uk,Tamworth,http://www.tamworth.gov.uk,-1.66991400000000,B77 3EY,2012-08-07,fhrs_4_en-GB,4,,FHRS,0
350827,Childrens Services,Torc Campus,,Tamworth,Torc Campus Tamworth Nursery Special Needs,Hospitals/Childcare/Caring Premises,5,0,,390147,0,,52.61616500000000,7494,295,publicprotection@tamworth.gov.uk,Tamworth,http://www.tamworth.gov.uk,-1.66299900000000,B77 2HJ,2013-07-16,fhrs_5_en-GB,5,,FHRS,0
350828,Town Hall,Market Street,,Tamworth,Town Hall,Other catering premises,7841,5,,390130,5,,52.67214500000000,7426,295,publicprotection@tamworth.gov.uk,Tamworth,http://www.tamworth.gov.uk,-1.64607700000000,B79 7LY,2013-05-16,fhrs_2_en-GB,2,,FHRS,15
350829,Bolebridge Street,,,Tamworth,Travel Lodge,Hotel/bed & breakfast/guest house,7842,0,,466472,0,,,39526,295,publicprotection@tamworth.gov.uk,Tamworth,http://www.tamworth.gov.uk,,B79 7AG,2012-11-01,fhrs_5_en-GB,5,,FHRS,0
350830,57A  Lowes Drive,Belgrave,,Tamworth,Treasured Cakes,Other catering premises,7841,0,,631261,0,,52.61204700000000,44593,295,publicprotection@tamworth.gov.uk,Tamworth,http://www.tamworth.gov.uk,-1.67552500000000,B77 2TT,2014-01-27,fhrs_5_en-GB,5,,FHRS,0
350831,18 Monks Way,Amington,,Tamworth,Treats,Other catering premises,7841,5,,531178,0,,52.63369900000000,41289,295,publicprotection@tamworth.gov.uk,Tamworth,http://www.tamworth.gov.uk,-1.66413500000000,B77 3DB,2013-03-27,fhrs_5_en-GB,5,,FHRS,0
350832,3A Lower Gungate,,,Tamworth,Truckles Delicatessen,Retailers - other,4613,20,,390113,10,,52.63452400000000,7354,295,publicprotection@tamworth.gov.uk,Tamworth,http://www.tamworth.gov.uk,-1.69342900000000,B79 7BA,2014-07-15,fhrs_1_en-GB,1,,FHRS,10
350833,Tamworth Road,Two Gates,,Tamworth,Two Gates  Community Primary School,School/college/university,7845,5,,390011,5,,52.61511900000000,3673,295,publicprotection@tamworth.gov.uk,Tamworth,http://www.tamworth.gov.uk,-1.68448200000000,B77 1EN,2014-11-26,fhrs_5_en-GB,5,,FHRS,5
350834,Two Gates Working Mens Club,Wet Sales Only,Dosthill Road,Tamworth,Two Gates Club,Pub/bar/nightclub,7843,0,,609336,0,,52.61098000000000,43597,295,publicprotection@tamworth.gov.uk,Tamworth,http://www.tamworth.gov.uk,-1.68327100000000,B77 1HU,2013-10-07,fhrs_5_en-GB,5,,FHRS,0
350835,Quince,,,Tamworth,Two Rivers Primary School,School/college/university,7845,5,,389968,5,,52.63125400000000,2560,295,publicprotection@tamworth.gov.uk,Tamworth,http://www.tamworth.gov.uk,-1.65480100000000,B77 4EH,2014-04-08,fhrs_5_en-GB,5,,FHRS,5
350836,Torc Campus,Silver Link Road,Glascote,Tamworth,Two Rivers Upper School,School/college/university,7845,0,,390008,0,,52.61616500000000,3452,295,publicprotection@tamworth.gov.uk,Tamworth,http://www.tamworth.gov.uk,-1.66299900000000,B77 2HJ,2013-09-12,fhrs_5_en-GB,5,,FHRS,5
350837,17 Lower Gungate,,,Tamworth,Uk Fried Chicken,Takeaway/sandwich shop,7844,20,,441119,10,,52.63529900000000,37982,295,publicprotection@tamworth.gov.uk,Tamworth,http://www.tamworth.gov.uk,-1.69391200000000,B79 7AT,2014-04-29,fhrs_1_en-GB,1,,FHRS,10
350838,,,,,Valerie Lowe,Hospitals/Childcare/Caring Premises,5,0,,548060,0,,,41969,295,publicprotection@tamworth.gov.uk,Tamworth,http://www.tamworth.gov.uk,,,2013-04-30,fhrs_5_en-GB,5,,FHRS,0
350839,Unit 5,Claymore,Tame Valley Industrial Estate,Tamworth,Valley Cafe,Restaurant/Cafe/Canteen,1,5,,430808,0,,52.60736700000000,37678,295,publicprotection@tamworth.gov.uk,Tamworth,http://www.tamworth.gov.uk,-1.67691800000000,B77 5DQ,2012-07-10,fhrs_5_en-GB,5,,FHRS,0
350840,30 Victoria Road,,,Tamworth,Victoria Nursery,Hospitals/Childcare/Caring Premises,5,5,,389941,0,,52.63497400000000,2064,295,publicprotection@tamworth.gov.uk,Tamworth,http://www.tamworth.gov.uk,-1.69019000000000,B79 7HS,2013-10-04,fhrs_5_en-GB,5,,FHRS,0
350841,12 Signal Walk,Glascote,,Tamworth,Vintage Makes And Bakes,Other catering premises,7841,10,,668334,0,,52.62331900000000,46533,295,publicprotection@tamworth.gov.uk,Tamworth,http://www.tamworth.gov.uk,-1.65901500000000,B77 2DS,2014-05-14,fhrs_2_en-GB,2,,FHRS,15
350842,46 Church Street,,,Tamworth,Walter Smiths Fine Foods,Retailers - other,4613,0,,456860,0,,52.63357400000000,39113,295,publicprotection@tamworth.gov.uk,Tamworth,http://www.tamworth.gov.uk,-1.69452900000000,B79 7DE,2014-05-08,fhrs_5_en-GB,5,,FHRS,5
350843,Shop,112 Lichfield Street,,Tamworth,Watsons Newsagents,Retailers - other,4613,10,,390167,5,,52.63409100000000,7574,295,publicprotection@tamworth.gov.uk,Tamworth,http://www.tamworth.gov.uk,-1.69984500000000,B79 7QB,2014-02-10,fhrs_4_en-GB,4,,FHRS,0
350844,,,,,Wendelightful Cakes & Bakes,Other catering premises,7841,0,,690501,0,,,47861,295,publicprotection@tamworth.gov.uk,Tamworth,http://www.tamworth.gov.uk,,,2014-07-28,fhrs_5_en-GB,5,,FHRS,0
350845,Orchard Street,,,Tamworth,Wherever,Restaurant/Cafe/Canteen,1,10,,390085,5,,52.63434800000000,6649,295,publicprotection@tamworth.gov.uk,Tamworth,http://www.tamworth.gov.uk,-1.69839500000000,B79 7RE,2013-07-03,fhrs_4_en-GB,4,,FHRS,5
350846,,,,,Who Made The Cake,Other catering premises,7841,0,,390075,0,,,6467,295,publicprotection@tamworth.gov.uk,Tamworth,http://www.tamworth.gov.uk,,,2014-09-10,fhrs_5_en-GB,5,,FHRS,0
350847,1 - 3 Market Street,,,Tamworth,Wilkinson Hardware Stores,Retailers - other,4613,0,,390154,0,,52.63323700000000,7522,295,publicprotection@tamworth.gov.uk,Tamworth,http://www.tamworth.gov.uk,-1.69632000000000,B79 7LU,2013-07-24,fhrs_5_en-GB,5,,FHRS,0
350848,Glascote Road,,,Tamworth,William Macgregor Primary School,School/college/university,7845,0,,390001,0,,52.62902500000000,3227,295,publicprotection@tamworth.gov.uk,Tamworth,http://www.tamworth.gov.uk,-1.68070300000000,B77 2AF,2015-01-26,fhrs_5_en-GB,5,,FHRS,5
350849,1 Shelton Street,,,Tamworth,Wilnecote Fish Bar,Takeaway/sandwich shop,7844,10,,389919,10,,52.60697800000000,1087,295,publicprotection@tamworth.gov.uk,Tamworth,http://www.tamworth.gov.uk,-1.66304000000000,B77 5DB,2014-07-14,fhrs_3_en-GB,3,,FHRS,10
350850,Tinkers Green Road,,,Tamworth,Wilnecote High School,School/college/university,7845,0,,389962,0,,52.60524100000000,253,295,publicprotection@tamworth.gov.uk,Tamworth,http://www.tamworth.gov.uk,-1.66550400000000,B77 5LF,2014-11-25,fhrs_5_en-GB,5,,FHRS,0
350851,Wilnecote Junior School,Smithy Lane,,Tamworth,Wilnecote Junior After School Club,School/college/university,7845,0,,390162,5,,52.60684100000000,7554,295,publicprotection@tamworth.gov.uk,Tamworth,http://www.tamworth.gov.uk,-1.66540300000000,B77 5LA,2010-11-23,fhrs_5_en-GB,5,,FHRS,5
350852,Wilnecote Junior School,Smithy Lane,Wilnecote,Tamworth,Wilnecote Junior School,School/college/university,7845,5,,406748,0,,52.60684100000000,36774,295,publicprotection@tamworth.gov.uk,Tamworth,http://www.tamworth.gov.uk,-1.66540300000000,B77 5LA,2014-04-07,fhrs_5_en-GB,5,,FHRS,5
350853,Hockley Road,Wilnecote,,Tamworth,Wilnecote Rest Home,Hospitals/Childcare/Caring Premises,5,5,,390022,10,,52.60829500000000,4185,295,publicprotection@tamworth.gov.uk,Tamworth,http://www.tamworth.gov.uk,-1.66766700000000,B77 5EA,2014-09-24,fhrs_4_en-GB,4,,FHRS,5
350854,Sports Club & Social Club,Brook Avenue,,Tamworth,Wilnecote Sports & Recreation Association,Pub/bar/nightclub,7843,10,,390105,10,,52.60877100000000,7061,295,publicprotection@tamworth.gov.uk,Tamworth,http://www.tamworth.gov.uk,-1.66141600000000,B77 5BT,2010-11-09,fhrs_3_en-GB,3,,FHRS,10
350855,Brook Avenue,Wilnecote,,Tamworth,Wilnecote Sports & Social Club,Other catering premises,7841,10,,466473,0,,52.60877100000000,39538,295,publicprotection@tamworth.gov.uk,Tamworth,http://www.tamworth.gov.uk,-1.66141600000000,B77 5BT,2012-11-03,fhrs_4_en-GB,4,,FHRS,0
350856,Hockley Road,Wilnecote,,Tamworth,Wilnecote Working Mens Club,Pub/bar/nightclub,7843,5,,454433,5,,52.60829500000000,38637,295,publicprotection@tamworth.gov.uk,Tamworth,http://www.tamworth.gov.uk,-1.66766700000000,B77 5EA,2012-09-20,fhrs_5_en-GB,5,,FHRS,5
350857,Youth Centre,New Road,,Tamworth,Wilnecote Youth & Community Centre,Other catering premises,7841,5,,390159,5,,52.60669800000000,7542,295,publicprotection@tamworth.gov.uk,Tamworth,http://www.tamworth.gov.uk,-1.66562600000000,B77 5DH,2010-10-13,fhrs_5_en-GB,5,,FHRS,5
350858,8 Middle Entry,,,Tamworth,Wise Guys,Takeaway/sandwich shop,7844,10,,390088,10,,52.63340500000000,7004,295,publicprotection@tamworth.gov.uk,Tamworth,http://www.tamworth.gov.uk,-1.69510700000000,B79 7NJ,2014-09-12,fhrs_3_en-GB,3,,FHRS,10
350859,Canning Road,,,Tamworth,Woodlands Primary School,School/college/university,7845,0,,389996,0,,52.63043600000000,3205,295,publicprotection@tamworth.gov.uk,Tamworth,http://www.tamworth.gov.uk,-1.67060200000000,B77 3JX,2013-09-11,fhrs_5_en-GB,5,,FHRS,0
350860,2 Lower Gungate,,,Tamworth,Yates Wine Lodge,Pub/bar/nightclub,7843,5,,451303,5,,52.63508100000000,38490,295,publicprotection@tamworth.gov.uk,Tamworth,http://www.tamworth.gov.uk,-1.69338100000000,B79 7AL,2014-02-06,fhrs_4_en-GB,4,,FHRS,10
350861,South Staffordshire College,Croft Street,,Tamworth,Zest Cafe & The Croft Bar,School/college/university,7845,5,,430807,10,,52.63951000000000,37610,295,publicprotection@tamworth.gov.uk,Tamworth,http://www.tamworth.gov.uk,-1.69216800000000,B79 8AE,2014-04-28,fhrs_4_en-GB,4,,FHRS,0
