,addressline1,addressline2,addressline3,addressline4,businessname,businesstype,businesstypeid,confidenceinmanagement,extractdate,fhrsid,hygiene,itemcount,latitude,localauthoritybusinessid,localauthoritycode,localauthorityemailaddress,localauthorityname,localauthoritywebsite,longitude,postcode,ratingdate,ratingkey,ratingvalue,returncode,schemetype,structural
243565,52 The Street,52 The Street,,Charlwood,52 The Street,Restaurant/Cafe/Canteen,1,5,,618748,5,,51.15544100000000,94957,308,EnvHealth@molevalley.gov.uk,Mole Valley,http://www.molevalley.gov.uk,-0.22348600000000,RH6 0DF,2014-06-18,fhrs_5_en-GB,5,,FHRS,5
243566,,,,,A Little Slice of Happiness,Other catering premises,7841,,,688465,,,,96259,308,EnvHealth@molevalley.gov.uk,Mole Valley,http://www.molevalley.gov.uk,,,,fhrs_awaitinginspection_en-GB,AwaitingInspection,,FHRS,
243567,Dorking Halls,Reigate Road,,Dorking,A S Solutions,Restaurant/Cafe/Canteen,1,5,,617962,5,,51.23410300000000,87602,308,EnvHealth@molevalley.gov.uk,Mole Valley,http://www.molevalley.gov.uk,-0.32549900000000,RH4 1SG,2013-09-02,fhrs_5_en-GB,5,,FHRS,5
243568,Abinger Hammer Post Office,Guildford Road,,Abinger Hammer,Abinger Hammer Stores,Restaurant/Cafe/Canteen,1,0,,617978,0,,51.21612300000000,90007,308,EnvHealth@molevalley.gov.uk,Mole Valley,http://www.molevalley.gov.uk,-0.43233800000000,RH5 6RX,2013-09-06,fhrs_5_en-GB,5,,FHRS,5
243569,Village Hall,Felday Road,,Abinger Hammer,Abinger Hammer Village Hall,Other catering premises,7841,5,,617976,5,,51.21400900000000,90003,308,EnvHealth@molevalley.gov.uk,Mole Valley,http://www.molevalley.gov.uk,-0.43092100000000,RH5 6QX,2013-01-08,fhrs_5_en-GB,5,,FHRS,5
243570,Active Learning House,Moores Road,,Dorking,Active Learning,Other catering premises,7841,0,,618636,0,,51.23365000000000,92208,308,EnvHealth@molevalley.gov.uk,Mole Valley,http://www.molevalley.gov.uk,-0.32651800000000,RH4 2BG,2014-02-25,fhrs_5_en-GB,5,,FHRS,0
243571,,,,,Adventures With Cake,Other catering premises,7841,0,,617973,0,,,87888,308,EnvHealth@molevalley.gov.uk,Mole Valley,http://www.molevalley.gov.uk,,,2014-01-31,fhrs_5_en-GB,5,,FHRS,0
243572,Alexander Lodge,41 Skinners Lane,,Ashtead,Alexander Lodge Residential Home,Hospitals/Childcare/Caring Premises,5,5,,618044,5,,51.30870200000000,90546,308,EnvHealth@molevalley.gov.uk,Mole Valley,http://www.molevalley.gov.uk,-0.30832300000000,KT21 2NN,2014-07-24,fhrs_5_en-GB,5,,FHRS,5
243573,Ashtead Railway Station,Woodfield Lane,,Ashtead,Alfresco Coffee Co,Mobile caterer,7846,5,,660460,5,,51.31763700000000,76327,308,EnvHealth@molevalley.gov.uk,Mole Valley,http://www.molevalley.gov.uk,-0.30677500000000,KT21 2DR,2013-03-06,fhrs_5_en-GB,5,,FHRS,5
243574,Ali Raj Brasserie,Parkgate Road,,Newdigate,Ali Raj Restaurant,Restaurant/Cafe/Canteen,1,,,618444,,,51.17857100000000,91817,308,EnvHealth@molevalley.gov.uk,Mole Valley,http://www.molevalley.gov.uk,-0.27828100000000,RH5 5DZ,2014-06-18,fhrs_4_en-GB,4,,FHRS,
243575,"Mobile Caterer, Car Park",Headley Common Road,,Headley,Ali's Tea Shop,Mobile caterer,7846,0,,618329,5,,,91465,308,EnvHealth@molevalley.gov.uk,Mole Valley,http://www.molevalley.gov.uk,,,2012-11-30,fhrs_5_en-GB,5,,FHRS,5
243576,,153 Barnett Wood Lane,,Ashtead,"Allied Care Ltd, Ashtead House",Hospitals/Childcare/Caring Premises,5,5,,617994,5,,51.31090700000000,90030,308,EnvHealth@molevalley.gov.uk,Mole Valley,http://www.molevalley.gov.uk,-0.31713800000000,KT21 2LR,2013-02-28,fhrs_5_en-GB,5,,FHRS,5
243577,,19 Craddocks Parade,,Ashtead,Allisons Bakery,Other catering premises,7841,5,,617989,10,,51.31695000000000,90025,308,EnvHealth@molevalley.gov.uk,Mole Valley,http://www.molevalley.gov.uk,-0.30471900000000,KT21 1QJ,2014-11-05,fhrs_3_en-GB,3,,FHRS,10
243578,,,,,Amber Loves Cakes,Other catering premises,7841,0,,660515,5,,,85313,308,EnvHealth@molevalley.gov.uk,Mole Valley,http://www.molevalley.gov.uk,,,2012-07-12,fhrs_5_en-GB,5,,FHRS,5
243579,,18 High Street,,Leatherhead,Amici,Takeaway/sandwich shop,7844,5,,618665,5,,51.29517000000000,92277,308,EnvHealth@molevalley.gov.uk,Mole Valley,http://www.molevalley.gov.uk,-0.32849900000000,KT22 8AN,2013-08-12,fhrs_5_en-GB,5,,FHRS,5
243580,,,,,Amy's Bakes,Other catering premises,7841,0,,688451,0,,,84694,308,EnvHealth@molevalley.gov.uk,Mole Valley,http://www.molevalley.gov.uk,,,2012-03-26,fhrs_5_en-GB,5,,FHRS,5
243581,"Resource Centre, Keswick House",Eastwick Park Avenue,,Bookham,"Anchor Trust, Keswick",Hospitals/Childcare/Caring Premises,5,0,,618100,0,,51.28366700000000,90773,308,EnvHealth@molevalley.gov.uk,Mole Valley,http://www.molevalley.gov.uk,-0.37242400000000,KT23 3ND,2015-01-07,fhrs_5_en-GB,5,,FHRS,0
243582,,,,,Anise Catering Limited,Mobile caterer,7846,5,,618556,5,,,92039,308,EnvHealth@molevalley.gov.uk,Mole Valley,http://www.molevalley.gov.uk,,,2014-01-15,fhrs_5_en-GB,5,,FHRS,5
243583,,,,,Ann Plumley,Other catering premises,7841,5,,719528,0,,,97244,308,EnvHealth@molevalley.gov.uk,Mole Valley,http://www.molevalley.gov.uk,,,2015-01-29,fhrs_5_en-GB,5,,FHRS,0
243584,,37 High Street,,Leatherhead,Annies Tearoom,Restaurant/Cafe/Canteen,1,10,,680254,10,,51.29549500000000,37099,308,EnvHealth@molevalley.gov.uk,Mole Valley,http://www.molevalley.gov.uk,-0.32791400000000,KT22 8AE,2014-05-13,fhrs_3_en-GB,3,,FHRS,10
243585,,5-7 High Street,,Leatherhead,Argos Ltd.,Retailers - other,4613,,,618383,,,51.29545500000000,91645,308,EnvHealth@molevalley.gov.uk,Mole Valley,http://www.molevalley.gov.uk,-0.32953600000000,KT22 8AA,2013-07-31,fhrs_exempt_en-GB,Exempt,,FHRS,
243586,Arkle Manor (Ph),Reigate Road,,Brockham,Arkle Manor,Pub/bar/nightclub,7843,0,,667517,5,,51.24035100000000,75616,308,EnvHealth@molevalley.gov.uk,Mole Valley,http://www.molevalley.gov.uk,-0.28309600000000,RH3 7HB,2014-06-06,fhrs_5_en-GB,5,,FHRS,5
243587,Ashcombe School,Ashcombe Road,,Dorking,Ashcombe School,School/college/university,7845,5,,618169,5,,51.23970300000000,90936,308,EnvHealth@molevalley.gov.uk,Mole Valley,http://www.molevalley.gov.uk,-0.33035300000000,RH4 1LX,2013-11-20,fhrs_5_en-GB,5,,FHRS,0
243588,Cedar Lodge,Chapel Road,,Charlwood,Ashcroft Care Services,Hospitals/Childcare/Caring Premises,5,5,,618160,0,,51.15596500000000,90912,308,EnvHealth@molevalley.gov.uk,Mole Valley,http://www.molevalley.gov.uk,-0.22010600000000,RH6 0DA,2013-02-22,fhrs_5_en-GB,5,,FHRS,0
243589,Ashtead Baptist Church,192 Barnett Wood Lane,,Ashtead,Ashtead Baptist Church Hall,Other catering premises,7841,5,,617997,5,,51.31248900000000,90033,308,EnvHealth@molevalley.gov.uk,Mole Valley,http://www.molevalley.gov.uk,-0.31210100000000,KT21 2LW,2013-02-20,fhrs_5_en-GB,5,,FHRS,5
243590,Ashtead Cricket Club,Woodfield Lane,,Ashtead,Ashtead Bowling Club,Pub/bar/nightclub,7843,5,,618070,5,,51.31419000000000,90691,308,EnvHealth@molevalley.gov.uk,Mole Valley,http://www.molevalley.gov.uk,-0.30222400000000,KT21 2BJ,2014-12-22,fhrs_5_en-GB,5,,FHRS,5
243591,,22 Craddocks Parade,,Ashtead,Ashtead Cafe,Restaurant/Cafe/Canteen,1,10,,680304,5,,51.31695000000000,86361,308,EnvHealth@molevalley.gov.uk,Mole Valley,http://www.molevalley.gov.uk,-0.30471900000000,KT21 1QJ,2014-08-07,fhrs_4_en-GB,4,,FHRS,5
243592,Burgerland,21 The Street,,Ashtead,Ashtead Charcoal Grill,Restaurant/Cafe/Canteen,1,5,,680288,5,,51.31009900000000,78338,308,EnvHealth@molevalley.gov.uk,Mole Valley,http://www.molevalley.gov.uk,-0.29861500000000,KT21 1AA,2013-11-19,fhrs_5_en-GB,5,,FHRS,0
243593,,165 Barnett Wood Lane,,Ashtead,Ashtead Cottage,Hospitals/Childcare/Caring Premises,5,10,,617995,5,,51.31282000000000,90031,308,EnvHealth@molevalley.gov.uk,Mole Valley,http://www.molevalley.gov.uk,-0.31259100000000,KT21 2LP,2014-03-24,fhrs_4_en-GB,4,,FHRS,5
243594,,4 Rectory Lane,,Ashtead,Ashtead Fisheries,Retailers - other,4613,5,,660438,5,,51.30826200000000,611,308,EnvHealth@molevalley.gov.uk,Mole Valley,http://www.molevalley.gov.uk,-0.30024700000000,KT21 2BB,2014-01-09,fhrs_4_en-GB,4,,FHRS,10
243595,Ashtead Youth Centre,Barnett Wood Lane,,Ashtead,Ashtead Football Club,Pub/bar/nightclub,7843,10,,617982,10,,51.31459500000000,90016,308,EnvHealth@molevalley.gov.uk,Mole Valley,http://www.molevalley.gov.uk,-0.30726000000000,KT21 2BZ,2011-12-21,fhrs_3_en-GB,3,,FHRS,5
243596,,74 The Street,,Ashtead,Ashtead Fruiterers,Retailers - other,4613,5,,618061,5,,51.30983500000000,90667,308,EnvHealth@molevalley.gov.uk,Mole Valley,http://www.molevalley.gov.uk,-0.29836700000000,KT21 1AW,2013-08-28,fhrs_5_en-GB,5,,FHRS,5
243597,Ashtead Hospital,The Warren,,Ashtead,Ashtead Hospital,Hospitals/Childcare/Caring Premises,5,0,,660437,5,,51.30434900000000,60099,308,EnvHealth@molevalley.gov.uk,Mole Valley,http://www.molevalley.gov.uk,-0.30330400000000,KT21 2SB,2014-08-07,fhrs_5_en-GB,5,,FHRS,0
243598,,88 Woodfield Lane,,Ashtead,Ashtead Newsagents,Retailers - other,4613,,,660432,,,51.31564200000000,5111,308,EnvHealth@molevalley.gov.uk,Mole Valley,http://www.molevalley.gov.uk,-0.30439400000000,KT21 2BS,2012-09-24,fhrs_exempt_en-GB,Exempt,,FHRS,
243599,Ashtead Peace Memorial Hall,Woodfield Lane,,Ashtead,Ashtead Peace Memorial Hall,Other catering premises,7841,0,,680260,0,,51.31086800000000,46817,308,EnvHealth@molevalley.gov.uk,Mole Valley,http://www.molevalley.gov.uk,-0.30010800000000,KT21 2BE,2014-01-16,fhrs_5_en-GB,5,,FHRS,0
243600,,39 Skinners Lane,,Ashtead,Ashtead Squash & Tennis Club,Restaurant/Cafe/Canteen,1,10,,660449,5,,51.30870200000000,72311,308,EnvHealth@molevalley.gov.uk,Mole Valley,http://www.molevalley.gov.uk,-0.30832300000000,KT21 2NN,2014-02-07,fhrs_4_en-GB,4,,FHRS,5
243601,,46 The Street,,Ashtead,Ashtead Stores Ltd,Retailers - other,4613,5,,638653,5,,51.30923900000000,95286,308,EnvHealth@molevalley.gov.uk,Mole Valley,http://www.molevalley.gov.uk,-0.29945100000000,KT21 1AZ,2014-02-03,fhrs_5_en-GB,5,,FHRS,5
243602,Ashtead Tennis Club,Woodfield Lane,,Ashtead,Ashtead Tennis Players Club,Pub/bar/nightclub,7843,5,,618071,0,,51.31215800000000,90693,308,EnvHealth@molevalley.gov.uk,Mole Valley,http://www.molevalley.gov.uk,-0.30231300000000,KT21 2BQ,2013-03-05,fhrs_4_en-GB,4,,FHRS,10
243603,,104 The Street,,Ashtead,Ashtead Village Club,Pub/bar/nightclub,7843,20,,618051,0,,51.30983500000000,90557,308,EnvHealth@molevalley.gov.uk,Mole Valley,http://www.molevalley.gov.uk,-0.29836700000000,KT21 1AW,2011-10-25,fhrs_1_en-GB,1,,FHRS,0
243604,,,,,Ashtons Hospitality Services,Mobile caterer,7846,0,,618066,0,,,90682,308,EnvHealth@molevalley.gov.uk,Mole Valley,http://www.molevalley.gov.uk,,,2011-09-22,fhrs_5_en-GB,5,,FHRS,0
243605,,287 High Street,,Dorking,Ask,Restaurant/Cafe/Canteen,1,5,,660474,5,,51.23448100000000,80163,308,EnvHealth@molevalley.gov.uk,Mole Valley,http://www.molevalley.gov.uk,-0.32734800000000,RH4 1RL,2014-02-11,fhrs_5_en-GB,5,,FHRS,5
243606,"The White House, Dorking General Hospital",Horsham Road,,Dorking,Asquith Nurseries - West Dorking,School/college/university,7845,0,,618226,0,,51.22592800000000,91125,308,EnvHealth@molevalley.gov.uk,Mole Valley,http://www.molevalley.gov.uk,-0.33297100000000,RH4 2AA,2013-10-31,fhrs_5_en-GB,5,,FHRS,0
243607,,,,,Aubel Chocolate,Mobile caterer,7846,5,,660527,5,,,86804,308,EnvHealth@molevalley.gov.uk,Mole Valley,http://www.molevalley.gov.uk,,,2013-05-16,fhrs_5_en-GB,5,,FHRS,0
243608,,43 Woodfield Lane,,Ashtead,Avalon,Hospitals/Childcare/Caring Premises,5,5,,618068,5,,51.31527600000000,90684,308,EnvHealth@molevalley.gov.uk,Mole Valley,http://www.molevalley.gov.uk,-0.30459400000000,KT21 2BT,2014-01-24,fhrs_5_en-GB,5,,FHRS,5
243609,,46 High Street,,Leatherhead,Aziz,Restaurant/Cafe/Canteen,1,20,,711750,10,,51.29537200000000,97130,308,EnvHealth@molevalley.gov.uk,Mole Valley,http://www.molevalley.gov.uk,-0.32687100000000,KT22 8AJ,2014-11-25,fhrs_1_en-GB,1,,FHRS,10
243610,Balchins Stores,Guildford Road,,Westcott,Balchin's Stores,Retailers - other,4613,10,,660382,0,,51.22585500000000,1462,308,EnvHealth@molevalley.gov.uk,Mole Valley,http://www.molevalley.gov.uk,-0.36607100000000,RH4 3NG,2014-01-22,fhrs_4_en-GB,4,,FHRS,0
243611,,55 Ashcombe Road,,Dorking,Ballantrae,Hotel/bed & breakfast/guest house,7842,10,,618168,5,,51.23875300000000,90935,308,EnvHealth@molevalley.gov.uk,Mole Valley,http://www.molevalley.gov.uk,-0.33371100000000,RH4 1LZ,2014-12-11,fhrs_4_en-GB,4,,FHRS,5
243612,Dorking Rugby Football Club,Kiln Lane,,Brockham,Balsamic Fig Catering,Restaurant/Cafe/Canteen,1,5,,618708,5,,51.23508000000000,92339,308,EnvHealth@molevalley.gov.uk,Mole Valley,http://www.molevalley.gov.uk,-0.28546900000000,RH3 7LZ,2013-02-19,fhrs_5_en-GB,5,,FHRS,0
243613,,,,,Barista Bella,Mobile caterer,7846,5,,660532,0,,,95669,308,EnvHealth@molevalley.gov.uk,Mole Valley,http://www.molevalley.gov.uk,,,2014-05-14,fhrs_5_en-GB,5,,FHRS,0
243614,Barnett Wood Infant School,213 Barnett Wood Lane,,Ashtead,Barnett Wood Infant School,School/college/university,7845,0,,617981,10,,51.31398400000000,90014,308,EnvHealth@molevalley.gov.uk,Mole Valley,http://www.molevalley.gov.uk,-0.31036700000000,KT21 2DF,2013-02-13,fhrs_4_en-GB,4,,FHRS,5
243615,,,,,Barry Price Meats Ltd,Retailers - other,4613,0,,618542,0,,,92016,308,EnvHealth@molevalley.gov.uk,Mole Valley,http://www.molevalley.gov.uk,,,2012-12-07,fhrs_5_en-GB,5,,FHRS,0
243616,Esso House,Ermyn Way,,Ashtead,BaxterStorey,Restaurant/Cafe/Canteen,1,0,,618725,0,,51.29744600000000,92361,308,EnvHealth@molevalley.gov.uk,Mole Valley,http://www.molevalley.gov.uk,-0.30350100000000,KT22 8UX,2015-01-27,fhrs_5_en-GB,5,,FHRS,0
243617,The Cricketers (Ph),Guildford Road,,Westcott,Bay Leaf,Restaurant/Cafe/Canteen,1,20,,667520,15,,51.22459600000000,76796,308,EnvHealth@molevalley.gov.uk,Mole Valley,http://www.molevalley.gov.uk,-0.36800600000000,RH4 3NW,2014-11-12,fhrs_1_en-GB,1,,FHRS,10
243618,6 The Parade,Kingston Road,,Leatherhead,BB's Cafe & Sandwich Bar,Restaurant/Cafe/Canteen,1,5,,660475,5,,51.30221600000000,80231,308,EnvHealth@molevalley.gov.uk,Mole Valley,http://www.molevalley.gov.uk,-0.33006500000000,KT22 7SR,2012-12-12,fhrs_5_en-GB,5,,FHRS,0
243619,Beare Green Stores,Horsham Road,,Beare Green,Beare Green Stores,Retailers - other,4613,5,,667485,5,,51.17906100000000,1464,308,EnvHealth@molevalley.gov.uk,Mole Valley,http://www.molevalley.gov.uk,-0.31684900000000,RH5 4QU,2014-02-21,fhrs_5_en-GB,5,,FHRS,5
243620,Beare Green Village Hall,Merebank,,Beare Green,Beare Green Village Hall,Other catering premises,7841,5,,618077,5,,51.17992500000000,90706,308,EnvHealth@molevalley.gov.uk,Mole Valley,http://www.molevalley.gov.uk,-0.31880700000000,RH5 4RD,2013-05-08,fhrs_5_en-GB,5,,FHRS,5
243621,,,,,Beer Brothers LLP,Retailers - other,4613,10,,618715,10,,,92346,308,EnvHealth@molevalley.gov.uk,Mole Valley,http://www.molevalley.gov.uk,,,2013-03-28,fhrs_3_en-GB,3,,FHRS,5
243622,,112 The Street,,Ashtead,Beijing Palace,Restaurant/Cafe/Canteen,1,5,,660450,5,,51.31044700000000,72385,308,EnvHealth@molevalley.gov.uk,Mole Valley,http://www.molevalley.gov.uk,-0.29718200000000,KT21 1AL,2012-12-07,fhrs_5_en-GB,5,,FHRS,5
243623,Bellsgrove Nursing Home,250 Cobham Road,,Fetcham,Bellsgrove Residential Care,Hospitals/Childcare/Caring Premises,5,5,,618308,5,,51.29720500000000,91427,308,EnvHealth@molevalley.gov.uk,Mole Valley,http://www.molevalley.gov.uk,-0.35662600000000,KT22 9JF,2015-01-20,fhrs_5_en-GB,5,,FHRS,0
243624,Belmont School,Pasture Wood Road,,Abinger,Belmont School,School/college/university,7845,0,,618333,0,,51.18831300000000,91469,308,EnvHealth@molevalley.gov.uk,Mole Valley,http://www.molevalley.gov.uk,-0.40008300000000,RH5 6LQ,2014-03-03,fhrs_5_en-GB,5,,FHRS,0
243625,,Guildford Road,,Westcott,Bertram Bee's,Restaurant/Cafe/Canteen,1,5,,696648,10,,51.22525000000000,84995,308,EnvHealth@molevalley.gov.uk,Mole Valley,http://www.molevalley.gov.uk,-0.36586300000000,RH4 3NJ,2014-08-06,fhrs_4_en-GB,4,,FHRS,5
243626,Betchworth Park Golf Club,Coach Road,,Brockham,Betchworth Park Golf Club,Other catering premises,7841,0,,667486,0,,51.23662100000000,18205,308,EnvHealth@molevalley.gov.uk,Mole Valley,http://www.molevalley.gov.uk,-0.30548200000000,RH4 1NZ,2013-10-10,fhrs_5_en-GB,5,,FHRS,0
243627,Betchworth Post Office,Old Reigate Road,,Betchworth,Betchworth Post Office Stores,Retailers - other,4613,5,,660442,5,,51.24018100000000,68047,308,EnvHealth@molevalley.gov.uk,Mole Valley,http://www.molevalley.gov.uk,-0.26913400000000,RH3 7DE,2013-10-07,fhrs_5_en-GB,5,,FHRS,5
243628,Betchworth Village Hall,Station Road,,Betchworth,Betchworth Village Memorial Hall,Other catering premises,7841,5,,618085,5,,51.24285700000000,90719,308,EnvHealth@molevalley.gov.uk,Mole Valley,http://www.molevalley.gov.uk,-0.26890500000000,RH3 7DF,2012-04-19,fhrs_5_en-GB,5,,FHRS,5
243629,The White House,5b Rectory Lane,,Ashtead,Bike Beans Cycle Cafe LLP,Restaurant/Cafe/Canteen,1,0,,660511,0,,51.30821700000000,85077,308,EnvHealth@molevalley.gov.uk,Mole Valley,http://www.molevalley.gov.uk,-0.29967500000000,KT21 2BA,2014-07-29,fhrs_5_en-GB,5,,FHRS,5
243630,Cullompton House,16 Highfields,,Ashtead,Birdscroft Nursing Home,Hospitals/Childcare/Caring Premises,5,10,,618036,15,,51.30794300000000,90536,308,EnvHealth@molevalley.gov.uk,Mole Valley,http://www.molevalley.gov.uk,-0.31113400000000,KT21 2NL,2014-07-10,fhrs_2_en-GB,2,,FHRS,10
243631,,,,,Birthday Boxes,Other catering premises,7841,,,680311,,,,96068,308,EnvHealth@molevalley.gov.uk,Mole Valley,http://www.molevalley.gov.uk,,,,fhrs_awaitinginspection_en-GB,AwaitingInspection,,FHRS,
243632,The Black Horse (Ph),Reigate Road,,Hookwood,Black Horse,Pub/bar/nightclub,7843,5,,680248,5,,51.17869400000000,2821,308,EnvHealth@molevalley.gov.uk,Mole Valley,http://www.molevalley.gov.uk,-0.19453600000000,RH6 0HU,2012-11-30,fhrs_5_en-GB,5,,FHRS,5
243633,10 Beare Green Court,Old Horsham Road,,Beare Green,Blu Moon Cafe,Restaurant/Cafe/Canteen,1,20,,667567,15,,51.17968700000000,95949,308,EnvHealth@molevalley.gov.uk,Mole Valley,http://www.molevalley.gov.uk,-0.31791400000000,RH5 4SL,2014-07-31,fhrs_1_en-GB,1,,FHRS,15
243634,Wates House,Station Approach,,Leatherhead,Blue Apple,Restaurant/Cafe/Canteen,1,0,,618559,5,,51.29856400000000,92051,308,EnvHealth@molevalley.gov.uk,Mole Valley,http://www.molevalley.gov.uk,-0.33312400000000,KT22 7SQ,2013-11-26,fhrs_5_en-GB,5,,FHRS,5
243635,,52-56 Church Street,,Leatherhead,Blue Cafe,Restaurant/Cafe/Canteen,1,5,,680283,10,,51.29453400000000,76328,308,EnvHealth@molevalley.gov.uk,Mole Valley,http://www.molevalley.gov.uk,-0.32925400000000,KT22 8DW,2014-12-09,fhrs_4_en-GB,4,,FHRS,5
243636,Bocketts Farm,Young Street,,Leatherhead,Bocketts Farm Park Tea Room,Restaurant/Cafe/Canteen,1,5,,660473,5,,51.28437100000000,79434,308,EnvHealth@molevalley.gov.uk,Mole Valley,http://www.molevalley.gov.uk,-0.33421200000000,KT22 9BS,2014-06-17,fhrs_5_en-GB,5,,FHRS,0
243637,"Ken Barington Pavilion, Chrystie Recreation Ground",Dorking Road,,Bookham,Bookham Bowling Club,Pub/bar/nightclub,7843,0,,618097,0,,51.27646300000000,90767,308,EnvHealth@molevalley.gov.uk,Mole Valley,http://www.molevalley.gov.uk,-0.37102900000000,KT23 4PA,2014-10-28,fhrs_5_en-GB,5,,FHRS,0
243638,Old Barn Hall,Church Road,,Bookham,Bookham Community Association,Other catering premises,7841,10,,618095,5,,51.28046100000000,90755,308,EnvHealth@molevalley.gov.uk,Mole Valley,http://www.molevalley.gov.uk,-0.37663800000000,KT23 3PQ,2012-01-09,fhrs_4_en-GB,4,,FHRS,5
243639,Eastwick Road Church,Eastwick Road,,Bookham,Bookham United Reformed Church,Other catering premises,7841,5,,618596,5,,51.28079700000000,92138,308,EnvHealth@molevalley.gov.uk,Mole Valley,http://www.molevalley.gov.uk,-0.36776400000000,KT23 4BE,2013-01-15,fhrs_5_en-GB,5,,FHRS,5
243640,1-3 New Parade,Leatherhead Road,,Bookham,Bookham Wine Store,Retailers - other,4613,,,680301,,,51.27778200000000,85945,308,EnvHealth@molevalley.gov.uk,Mole Valley,http://www.molevalley.gov.uk,-0.36569200000000,KT23 4RL,2014-03-28,fhrs_exempt_en-GB,Exempt,,FHRS,
243641,,164 Lower Road,,Bookham,Bookham Youth & Community Centre,Pub/bar/nightclub,7843,10,,618123,5,,51.28257600000000,90840,308,EnvHealth@molevalley.gov.uk,Mole Valley,http://www.molevalley.gov.uk,-0.36765800000000,KT23 4AQ,2012-02-02,fhrs_4_en-GB,4,,FHRS,5
243642,,147 Cobham Road,,Fetcham,Boots,Retailers - other,4613,,,618302,,,51.29473100000000,91414,308,EnvHealth@molevalley.gov.uk,Mole Valley,http://www.molevalley.gov.uk,-0.35332900000000,KT22 9HX,2013-01-26,fhrs_exempt_en-GB,Exempt,,FHRS,
243643,,5 High Street,,Bookham,Boots,Retailers - other,4613,,,618112,,,51.27874300000000,90821,308,EnvHealth@molevalley.gov.uk,Mole Valley,http://www.molevalley.gov.uk,-0.37334300000000,KT23 4AA,2013-05-16,fhrs_exempt_en-GB,Exempt,,FHRS,
243644,,11 Swan Court,,Leatherhead,Boots,Retailers - other,4613,,,688444,,,51.29577000000000,4521,308,EnvHealth@molevalley.gov.uk,Mole Valley,http://www.molevalley.gov.uk,-0.32766000000000,KT22 8AH,2014-11-13,fhrs_exempt_en-GB,Exempt,,FHRS,
243645,,69-71 High Street,,Dorking,Boots the Chemist Ltd,Retailers - other,4613,,,667502,,,51.23213000000000,4523,308,EnvHealth@molevalley.gov.uk,Mole Valley,http://www.molevalley.gov.uk,-0.33211700000000,RH4 1AW,2014-09-03,fhrs_exempt_en-GB,Exempt,,FHRS,
243646,,13 Bridge Street,,Leatherhead,Botan Kebab,Restaurant/Cafe/Canteen,1,,,680250,,,51.29487800000000,35055,308,EnvHealth@molevalley.gov.uk,Mole Valley,http://www.molevalley.gov.uk,-0.33005900000000,KT22 8BL,2013-11-26,fhrs_5_en-GB,5,,FHRS,
243647,Boxhill Country Stores,Boxhill Road,,Boxhill,Boxhill Country Stores,Retailers - other,4613,5,,660466,10,,51.25334800000000,78068,308,EnvHealth@molevalley.gov.uk,Mole Valley,http://www.molevalley.gov.uk,-0.28021900000000,KT20 7JG,2013-10-29,fhrs_4_en-GB,4,,FHRS,5
243648,Village Hall,Boxhill Road,,Boxhill,Boxhill Village Hall,Other catering premises,7841,5,,618471,5,,51.24948500000000,91872,308,EnvHealth@molevalley.gov.uk,Mole Valley,http://www.molevalley.gov.uk,-0.29217000000000,KT20 7JS,2012-03-13,fhrs_4_en-GB,4,,FHRS,10
243649,Shell Service Station,20 Kingston Road,,Leatherhead,BP Leatherhead Service Station,Retailers - other,4613,0,,660389,0,,51.29806800000000,18196,308,EnvHealth@molevalley.gov.uk,Mole Valley,http://www.molevalley.gov.uk,-0.33050300000000,KT22 7BL,2013-02-05,fhrs_5_en-GB,5,,FHRS,0
243650,,94 South Street,,Dorking,Bradshaws Newsagent,Retailers - other,4613,,,660433,,,51.22978600000000,5112,308,EnvHealth@molevalley.gov.uk,Mole Valley,http://www.molevalley.gov.uk,-0.33492300000000,RH4 2EW,2012-10-05,fhrs_exempt_en-GB,Exempt,,FHRS,
243651,Bramley House,Westcott Street,,Westcott,Bramley House,Hospitals/Childcare/Caring Premises,5,0,,618487,0,,51.22620300000000,91906,308,EnvHealth@molevalley.gov.uk,Mole Valley,http://www.molevalley.gov.uk,-0.36910900000000,RH4 3NX,2013-07-09,fhrs_4_en-GB,4,,FHRS,10
243652,,,,,Bread & Cake,Other catering premises,7841,5,,667554,5,,,87369,308,EnvHealth@molevalley.gov.uk,Mole Valley,http://www.molevalley.gov.uk,,,2013-08-09,fhrs_5_en-GB,5,,FHRS,5
243653,Era Site,Cleeve Road,,Business Park 5  Research Area,Bright Stars,Hospitals/Childcare/Caring Premises,5,5,,719530,10,,51.30426500000000,97253,308,EnvHealth@molevalley.gov.uk,Mole Valley,http://www.molevalley.gov.uk,-0.33758000000000,KT22 7SA,2014-11-12,fhrs_3_en-GB,3,,FHRS,10
243654,Surrey Hills Hotel,Horsham Road,,Beare Green,British Raj,Restaurant/Cafe/Canteen,1,,,696655,,,51.16965900000000,96326,308,EnvHealth@molevalley.gov.uk,Mole Valley,http://www.molevalley.gov.uk,-0.31653400000000,RH5 4PG,2014-10-28,fhrs_3_en-GB,3,,FHRS,
243655,Christ Church,Brockham Green,,Brockham,Brockham Green Nursery,School/college/university,7845,0,,618143,0,,51.23296900000000,90882,308,EnvHealth@molevalley.gov.uk,Mole Valley,http://www.molevalley.gov.uk,-0.28567700000000,RH3 7JS,2014-03-31,fhrs_5_en-GB,5,,FHRS,0
243656,Village Hall,Brockham Green,,Brockham,Brockham Village Hall Club,Other catering premises,7841,,,729454,,,51.23188300000000,97494,308,EnvHealth@molevalley.gov.uk,Mole Valley,http://www.molevalley.gov.uk,-0.28703500000000,RH3 7JJ,,fhrs_awaitinginspection_en-GB,AwaitingInspection,,FHRS,
243657,Spar Stores,Brockham Green,,Brockham,Brocks Chocs,Retailers - other,4613,10,,688457,0,,51.23129800000000,86147,308,EnvHealth@molevalley.gov.uk,Mole Valley,http://www.molevalley.gov.uk,-0.28641200000000,RH3 7JR,2014-07-21,fhrs_4_en-GB,4,,FHRS,5
243658,Brook House Stores,Portland Road,,Dorking,Brookhouse Stores,Retailers - other,4613,10,,618243,5,,51.23404500000000,91170,308,EnvHealth@molevalley.gov.uk,Mole Valley,http://www.molevalley.gov.uk,-0.33653100000000,RH4 1EN,2014-01-08,fhrs_4_en-GB,4,,FHRS,5
243659,Broome Park,Station Road,,Betchworth,Broome Park Nursing Home,Hospitals/Childcare/Caring Premises,5,0,,618086,0,,51.24285700000000,90720,308,EnvHealth@molevalley.gov.uk,Mole Valley,http://www.molevalley.gov.uk,-0.26890500000000,RH3 7DF,2014-01-14,fhrs_5_en-GB,5,,FHRS,5
243660,Broomhill,15 Broomfield Park,,Westcott,Broomhill B&B,Hotel/bed & breakfast/guest house,7842,5,,618516,5,,51.22443800000000,91969,308,EnvHealth@molevalley.gov.uk,Mole Valley,http://www.molevalley.gov.uk,-0.36251200000000,RH4 3QQ,2014-11-28,fhrs_5_en-GB,5,,FHRS,5
243661,Dean House Farm,Church Lane,,Newdigate,Browns Kitchen,Other catering premises,7841,0,,667556,0,,51.16537000000000,95798,308,EnvHealth@molevalley.gov.uk,Mole Valley,http://www.molevalley.gov.uk,-0.28684000000000,RH5 5DL,2014-06-12,fhrs_5_en-GB,5,,FHRS,0
243662,The Old School House (Ph),Stane Street,,Ockley,Bryce's Restaurant & Bar,Restaurant/Cafe/Canteen,1,5,,667494,5,,51.14311400000000,2826,308,EnvHealth@molevalley.gov.uk,Mole Valley,http://www.molevalley.gov.uk,-0.36550600000000,RH5 5TH,2013-12-03,fhrs_5_en-GB,5,,FHRS,5
243663,Village Stores,Dungates Lane,,Buckland,Buckland Deli and Gifts,Retailers - other,4613,10,,688455,5,,51.24343400000000,85310,308,EnvHealth@molevalley.gov.uk,Mole Valley,http://www.molevalley.gov.uk,-0.25202000000000,RH3 7BB,2014-01-15,fhrs_4_en-GB,4,,FHRS,5
243664,,224 Barnett Wood Lane,,Ashtead,Buckley Pharmacy,Retailers - other,4613,,,660426,,,51.31346200000000,4646,308,EnvHealth@molevalley.gov.uk,Mole Valley,http://www.molevalley.gov.uk,-0.31034300000000,KT21 2DB,2014-02-14,fhrs_exempt_en-GB,Exempt,,FHRS,
243665,Bulmer Farm,Pasture Wood Road,,Abinger,Bulmer Farm Bed & Breakfast,Hotel/bed & breakfast/guest house,7842,10,,618334,5,,51.18450600000000,91470,308,EnvHealth@molevalley.gov.uk,Mole Valley,http://www.molevalley.gov.uk,-0.40642500000000,RH5 6LG,2014-02-04,fhrs_4_en-GB,4,,FHRS,5
243666,"Bungalow Stores/Post Office, 5 Beckley Parade",Leatherhead Road,,Bookham,Bungalow Stores,Retailers - other,4613,20,,660384,10,,51.27798100000000,1468,308,EnvHealth@molevalley.gov.uk,Mole Valley,http://www.molevalley.gov.uk,-0.36508300000000,KT23 4RQ,2014-03-07,fhrs_1_en-GB,1,,FHRS,10
243667,Burford Bridge Hotel,London Road,,Westhumble,Burford Bridge Hotel,Restaurant/Cafe/Canteen,1,5,,660424,10,,51.25435600000000,4336,308,EnvHealth@molevalley.gov.uk,Mole Valley,http://www.molevalley.gov.uk,-0.32179700000000,RH5 6BX,2012-12-10,fhrs_4_en-GB,4,,FHRS,5
243668,,12-13 St Martins Walk,,Dorking,Burgundy and Black,Restaurant/Cafe/Canteen,1,0,,680296,0,,51.23309800000000,81485,308,EnvHealth@molevalley.gov.uk,Mole Valley,http://www.molevalley.gov.uk,-0.33128000000000,RH4 1UT,2014-06-12,fhrs_5_en-GB,5,,FHRS,5
243669,Old Bury Hill Fisheries,,,Westcott,Bury Hill Enterprises Ltd,Restaurant/Cafe/Canteen,1,10,,618237,10,,51.22274300000000,91147,308,EnvHealth@molevalley.gov.uk,Mole Valley,http://www.molevalley.gov.uk,-0.35191800000000,RH4 3JU,2013-12-18,fhrs_3_en-GB,3,,FHRS,5
243670,Burys Court,Flanchford Road,,Leigh,Burys Court School,School/college/university,7845,0,,618428,0,,51.21499400000000,91791,308,EnvHealth@molevalley.gov.uk,Mole Valley,http://www.molevalley.gov.uk,-0.23972400000000,RH2 8RD,2013-02-28,fhrs_5_en-GB,5,,FHRS,5
243671,2 The Bungalows,Polesden Road,,Bookham,Bus Stop Pre-School,School/college/university,7845,0,,667568,5,,51.25932100000000,95950,308,EnvHealth@molevalley.gov.uk,Mole Valley,http://www.molevalley.gov.uk,-0.37477400000000,RH5 6BB,2014-07-30,fhrs_5_en-GB,5,,FHRS,0
243672,,,,,Busy Bee Cakes,Other catering premises,7841,5,,618709,5,,,92340,308,EnvHealth@molevalley.gov.uk,Mole Valley,http://www.molevalley.gov.uk,,,2013-02-15,fhrs_5_en-GB,5,,FHRS,5
243673,,86b South Street,,Dorking,Butterhill Studios,Restaurant/Cafe/Canteen,1,20,,667544,0,,51.22978600000000,83272,308,EnvHealth@molevalley.gov.uk,Mole Valley,http://www.molevalley.gov.uk,-0.33492300000000,RH4 2EW,2012-05-18,fhrs_1_en-GB,1,,FHRS,0
243674,,,,,Buttle Cakes,Other catering premises,7841,5,,617961,5,,,87461,308,EnvHealth@molevalley.gov.uk,Mole Valley,http://www.molevalley.gov.uk,,,2013-09-05,fhrs_5_en-GB,5,,FHRS,5
243675,,6 High Street,,Bookham,C L Pearce and Sons,Retailers - other,4613,5,,618115,5,,51.27842400000000,90825,308,EnvHealth@molevalley.gov.uk,Mole Valley,http://www.molevalley.gov.uk,-0.37369800000000,KT23 4AG,2014-09-01,fhrs_4_en-GB,4,,FHRS,10
243676,"Unit 1b, Gatwick Business Park",Reigate Road,,Hookwood,C2C Wholesalers Ltd,Other catering premises,7841,0,,618594,5,,51.16827600000000,92134,308,EnvHealth@molevalley.gov.uk,Mole Valley,http://www.molevalley.gov.uk,-0.19314100000000,RH6 0AH,2012-09-24,fhrs_5_en-GB,5,,FHRS,5
243677,,27 Church Street,,Leatherhead,Caesars Restaurant,Restaurant/Cafe/Canteen,1,20,,680251,15,,51.29464300000000,3535,308,EnvHealth@molevalley.gov.uk,Mole Valley,http://www.molevalley.gov.uk,-0.32870500000000,KT22 8DN,2014-08-07,fhrs_1_en-GB,1,,FHRS,15
243678,St George's Church,Barnett Wood Lane,,Ashtead,Cafe Aldag,Restaurant/Cafe/Canteen,1,5,,618652,5,,51.31421800000000,92253,308,EnvHealth@molevalley.gov.uk,Mole Valley,http://www.molevalley.gov.uk,-0.30791900000000,KT21 2DA,2013-03-05,fhrs_5_en-GB,5,,FHRS,0
243679,,203 High Street,,Dorking,Cafe Express Restaurant,Restaurant/Cafe/Canteen,1,5,,667548,5,,51.23328600000000,86369,308,EnvHealth@molevalley.gov.uk,Mole Valley,http://www.molevalley.gov.uk,-0.32935300000000,RH4 1RU,2014-01-24,fhrs_5_en-GB,5,,FHRS,5
243680,,,,,Cafe La Creme,Mobile caterer,7846,0,,638667,0,,,95582,308,EnvHealth@molevalley.gov.uk,Mole Valley,http://www.molevalley.gov.uk,,,2014-04-28,fhrs_5_en-GB,5,,FHRS,0
243681,Pixham School (St Martins),Pixham Lane,,Dorking,Cafe Mayo,Restaurant/Cafe/Canteen,1,5,,618695,5,,51.24255000000000,92323,308,EnvHealth@molevalley.gov.uk,Mole Valley,http://www.molevalley.gov.uk,-0.32062200000000,RH4 1PQ,2013-07-30,fhrs_4_en-GB,4,,FHRS,10
243682,Hill Park Court,Springfield Drive,,Business Park 5  Research Area,Cafe One,Restaurant/Cafe/Canteen,1,0,,618698,0,,51.30582200000000,92328,308,EnvHealth@molevalley.gov.uk,Mole Valley,http://www.molevalley.gov.uk,-0.34079500000000,KT22 7NL,2013-03-04,fhrs_5_en-GB,5,,FHRS,0
243683,,33 South Street,,Dorking,Cafe Rialto,Restaurant/Cafe/Canteen,1,5,,667507,10,,51.23014400000000,64787,308,EnvHealth@molevalley.gov.uk,Mole Valley,http://www.molevalley.gov.uk,-0.33415100000000,RH4 2JZ,2014-03-13,fhrs_4_en-GB,4,,FHRS,5
243684,,170 High Street,,Dorking,Cafe Rouge Restaurant,Restaurant/Cafe/Canteen,1,0,,680249,0,,51.23226900000000,31723,308,EnvHealth@molevalley.gov.uk,Mole Valley,http://www.molevalley.gov.uk,-0.33050700000000,RH4 1BG,2013-11-28,fhrs_5_en-GB,5,,FHRS,5
243685,,54-56 High Street,,Dorking,Caffe Creme,Restaurant/Cafe/Canteen,1,5,,667526,10,,51.23173900000000,78638,308,EnvHealth@molevalley.gov.uk,Mole Valley,http://www.molevalley.gov.uk,-0.33181600000000,RH4 1AY,2015-01-06,fhrs_4_en-GB,4,,FHRS,5
243686,,,,,Cake Diddly,Other catering premises,7841,5,,617957,0,,,87301,308,EnvHealth@molevalley.gov.uk,Mole Valley,http://www.molevalley.gov.uk,,,2013-08-30,fhrs_5_en-GB,5,,FHRS,0
243687,Lodgefield,Newdigate Road,,Beare Green,Cakeaway,Other catering premises,7841,10,,618078,0,,51.16724300000000,90707,308,EnvHealth@molevalley.gov.uk,Mole Valley,http://www.molevalley.gov.uk,-0.30927000000000,RH5 4QE,2012-10-23,fhrs_4_en-GB,4,,FHRS,0
243688,,,,,Cakes by Magda,Other catering premises,7841,0,,618557,0,,,92041,308,EnvHealth@molevalley.gov.uk,Mole Valley,http://www.molevalley.gov.uk,,,2014-11-05,fhrs_5_en-GB,5,,FHRS,0
243689,,17b Cannon Grove,,Fetcham,Cannon Court Pharmacy,Retailers - other,4613,,,660427,,,51.29548900000000,4648,308,EnvHealth@molevalley.gov.uk,Mole Valley,http://www.molevalley.gov.uk,-0.34967300000000,KT22 9LG,2014-04-14,fhrs_exempt_en-GB,Exempt,,FHRS,
243690,,,,,Capel Cookies,Other catering premises,7841,5,,660487,5,,,81879,308,EnvHealth@molevalley.gov.uk,Mole Valley,http://www.molevalley.gov.uk,,,2013-08-23,fhrs_5_en-GB,5,,FHRS,5
243691,"Sports Pavilion, Recreation Ground",59 The Street,,Capel,Capel Cricket Club,Pub/bar/nightclub,7843,10,,618504,5,,51.15652300000000,91948,308,EnvHealth@molevalley.gov.uk,Mole Valley,http://www.molevalley.gov.uk,-0.31985800000000,RH5 5LD,2012-04-18,fhrs_4_en-GB,4,,FHRS,5
243692,Capel Newsagency,138 The Street,,Capel,Capel News,Retailers - other,4613,10,,660420,5,,51.15046200000000,42531,308,EnvHealth@molevalley.gov.uk,Mole Valley,http://www.molevalley.gov.uk,-0.32298000000000,RH5 5EN,2014-03-12,fhrs_4_en-GB,4,,FHRS,5
243693,Capel Pre-School,89b The Street,,Capel,Capel Pre-School,School/college/university,7845,0,,618659,0,,51.15280700000000,92266,308,EnvHealth@molevalley.gov.uk,Mole Valley,http://www.molevalley.gov.uk,-0.31973500000000,RH5 5JX,2012-10-23,fhrs_5_en-GB,5,,FHRS,0
243694,Capel Village Hall,55 The Street,,Capel,Capel Village Memorial Hall,Other catering premises,7841,20,,618153,0,,51.15562900000000,90903,308,EnvHealth@molevalley.gov.uk,Mole Valley,http://www.molevalley.gov.uk,-0.31957500000000,RH5 5LB,2014-11-28,fhrs_1_en-GB,1,,FHRS,0
243695,,10 Craddocks Parade,,Ashtead,Cards,Retailers - other,4613,5,,680276,5,,51.31651400000000,73541,308,EnvHealth@molevalley.gov.uk,Mole Valley,http://www.molevalley.gov.uk,-0.30440500000000,KT21 1QL,2013-12-13,fhrs_5_en-GB,5,,FHRS,0
243696,4 Boxhill Farm Barns,Old Reigate Road,,Dorking,Carmelita Ltd,Importers/Exporters,14,,,660498,,,51.24138000000000,83303,308,EnvHealth@molevalley.gov.uk,Mole Valley,http://www.molevalley.gov.uk,-0.30622400000000,RH4 1NS,2014-10-21,fhrs_exempt_en-GB,Exempt,,FHRS,
243697,,,,,Caroline's Cakes,Other catering premises,7841,0,,617972,0,,,87853,308,EnvHealth@molevalley.gov.uk,Mole Valley,http://www.molevalley.gov.uk,,,2014-02-05,fhrs_5_en-GB,5,,FHRS,0
243698,Capel Post Office,87 The Street,,Capel,Carters of Capel,Retailers - other,4613,20,,667483,10,,51.15280700000000,13566,308,EnvHealth@molevalley.gov.uk,Mole Valley,http://www.molevalley.gov.uk,-0.31973500000000,RH5 5JX,2015-01-07,fhrs_1_en-GB,1,,FHRS,15
243699,Poplars,87 Povey Cross Road,,Hookwood,Cavendish Care,Hospitals/Childcare/Caring Premises,5,5,,618345,5,,51.16689600000000,91486,308,EnvHealth@molevalley.gov.uk,Mole Valley,http://www.molevalley.gov.uk,-0.18126500000000,RH6 0AE,2014-11-27,fhrs_5_en-GB,5,,FHRS,5
243700,The Briar House,89 Povey Cross Road,,Hookwood,Cavendish Care,Hospitals/Childcare/Caring Premises,5,0,,618346,5,,51.16689600000000,91487,308,EnvHealth@molevalley.gov.uk,Mole Valley,http://www.molevalley.gov.uk,-0.18126500000000,RH6 0AE,2013-12-16,fhrs_4_en-GB,4,,FHRS,10
243701,The Logans,93 Povey Cross Road,,Hookwood,Cavendish Care,Hospitals/Childcare/Caring Premises,5,5,,618350,5,,51.16689600000000,91492,308,EnvHealth@molevalley.gov.uk,Mole Valley,http://www.molevalley.gov.uk,-0.18126500000000,RH6 0AE,2012-09-24,fhrs_5_en-GB,5,,FHRS,5
243702,,53-55 South Street,,Dorking,Ceylon Tavern,Restaurant/Cafe/Canteen,1,10,,660504,20,,51.22962600000000,84027,308,EnvHealth@molevalley.gov.uk,Mole Valley,http://www.molevalley.gov.uk,-0.33437000000000,RH4 2JX,2013-10-23,fhrs_1_en-GB,1,,FHRS,5
243703,The Plough (Ph),93 Kingston Road,,Leatherhead,Chaba Thai,Restaurant/Cafe/Canteen,1,0,,660482,5,,51.30297000000000,81089,308,EnvHealth@molevalley.gov.uk,Mole Valley,http://www.molevalley.gov.uk,-0.32998100000000,KT22 7SP,2013-03-27,fhrs_5_en-GB,5,,FHRS,5
243704,,21 North Street,,Leatherhead,Channon News,Retailers - other,4613,10,,680261,0,,51.29554200000000,5089,308,EnvHealth@molevalley.gov.uk,Mole Valley,http://www.molevalley.gov.uk,-0.33058000000000,KT22 7AX,2014-01-13,fhrs_4_en-GB,4,,FHRS,0
243705,Street Record,Chapel Court,,Dorking,Chapel Court,Other catering premises,7841,5,,618177,5,,,90947,308,EnvHealth@molevalley.gov.uk,Mole Valley,http://www.molevalley.gov.uk,,,2014-03-25,fhrs_4_en-GB,4,,FHRS,10
243706,,58 The Street,,Charlwood,Charles Newsagents,Retailers - other,4613,,,660435,,,51.15544100000000,5122,308,EnvHealth@molevalley.gov.uk,Mole Valley,http://www.molevalley.gov.uk,-0.22348600000000,RH6 0DF,2014-01-24,fhrs_exempt_en-GB,Exempt,,FHRS,
243707,Charlwood County First School,Swan Lane,,Charlwood,Charlwood Village Infant School,School/college/university,7845,5,,617998,5,,51.15596500000000,90035,308,EnvHealth@molevalley.gov.uk,Mole Valley,http://www.molevalley.gov.uk,-0.22010600000000,RH6 0DA,2014-07-03,fhrs_5_en-GB,5,,FHRS,5
243708,Community Centre,Chart Downs,,Dorking,Chart Downs Community Assoc & Social,Pub/bar/nightclub,7843,10,,618172,5,,51.21793300000000,90940,308,EnvHealth@molevalley.gov.uk,Mole Valley,http://www.molevalley.gov.uk,-0.31722200000000,RH5 4DF,2012-03-15,fhrs_4_en-GB,4,,FHRS,5
243709,,213 Chart Downs,,Dorking,Chart Downs News,Retailers - other,4613,,,660434,,,51.22005900000000,5116,308,EnvHealth@molevalley.gov.uk,Mole Valley,http://www.molevalley.gov.uk,-0.31811800000000,RH5 4DD,2013-04-03,fhrs_exempt_en-GB,Exempt,,FHRS,
243710,,,,,Chart House B&B,Other catering premises,7841,0,,618173,0,,,90941,308,EnvHealth@molevalley.gov.uk,Mole Valley,http://www.molevalley.gov.uk,,,2014-10-08,fhrs_5_en-GB,5,,FHRS,0
243711,"Day Nursery, Ashcombe School",Ashcombe Road,,Dorking,Chatterbox Day Nursery,School/college/university,7845,0,,618682,5,,51.23970300000000,92305,308,EnvHealth@molevalley.gov.uk,Mole Valley,http://www.molevalley.gov.uk,-0.33035300000000,RH4 1LX,2014-12-04,fhrs_5_en-GB,5,,FHRS,5
243712,,,,,Cherry Orchard Bakes,Other catering premises,7841,0,,729452,0,,,97445,308,EnvHealth@molevalley.gov.uk,Mole Valley,http://www.molevalley.gov.uk,,,2015-01-21,fhrs_5_en-GB,5,,FHRS,0
243713,,8-10 Reigate Road,,Dorking,Chifan,Restaurant/Cafe/Canteen,1,20,,667524,20,,51.23410300000000,77666,308,EnvHealth@molevalley.gov.uk,Mole Valley,http://www.molevalley.gov.uk,-0.32549900000000,RH4 1SG,2014-10-22,fhrs_0_en-GB,0,,FHRS,20
243714,,84 South Street,,Dorking,Chilli & Spice,Restaurant/Cafe/Canteen,1,20,,667511,15,,51.22978600000000,72171,308,EnvHealth@molevalley.gov.uk,Mole Valley,http://www.molevalley.gov.uk,-0.33492300000000,RH4 2EW,2014-09-30,fhrs_1_en-GB,1,,FHRS,15
243715,,21a St Martins Walk,,Dorking,Chimes for Lunch,Takeaway/sandwich shop,7844,0,,680272,0,,51.23309800000000,71492,308,EnvHealth@molevalley.gov.uk,Mole Valley,http://www.molevalley.gov.uk,-0.33128000000000,RH4 1UT,2012-11-28,fhrs_5_en-GB,5,,FHRS,0
243716,,3 North Street,,Leatherhead,Chimes For Lunch,Takeaway/sandwich shop,7844,5,,680268,5,,51.29554200000000,67034,308,EnvHealth@molevalley.gov.uk,Mole Valley,http://www.molevalley.gov.uk,-0.33058000000000,KT22 7AX,2013-04-24,fhrs_5_en-GB,5,,FHRS,5
243717,,220 Barnett Wood Lane,,Ashtead,China Express,Takeaway/sandwich shop,7844,5,,660493,5,,51.31346200000000,83083,308,EnvHealth@molevalley.gov.uk,Mole Valley,http://www.molevalley.gov.uk,-0.31034300000000,KT21 2DB,2013-03-13,fhrs_5_en-GB,5,,FHRS,5
243718,City Of London Freemens School,Park Lane,,Ashtead,City of London Freemens School,School/college/university,7845,10,,617991,5,,51.30780000000000,90027,308,EnvHealth@molevalley.gov.uk,Mole Valley,http://www.molevalley.gov.uk,-0.28769600000000,KT21 1ET,2014-05-15,fhrs_4_en-GB,4,,FHRS,5
243719,2 Claremont,10 Rose Hill,,Dorking,Claremont Cottage Bed & Breakfast,Hotel/bed & breakfast/guest house,7842,10,,618256,0,,51.22823900000000,91194,308,EnvHealth@molevalley.gov.uk,Mole Valley,http://www.molevalley.gov.uk,-0.33358900000000,RH4 2ED,2014-01-24,fhrs_4_en-GB,4,,FHRS,5
243720,"Clarks Cafe, 1 Sunmead Parade",Guildford Road,,Fetcham,Clark's Cafe,Restaurant/Cafe/Canteen,1,5,,660458,10,,51.29203100000000,75490,308,EnvHealth@molevalley.gov.uk,Mole Valley,http://www.molevalley.gov.uk,-0.33729000000000,KT22 9AL,2014-11-12,fhrs_3_en-GB,3,,FHRS,10
243721,,36 Church Street,,Leatherhead,Cleaver,Restaurant/Cafe/Canteen,1,0,,638648,5,,51.29453400000000,91576,308,EnvHealth@molevalley.gov.uk,Mole Valley,http://www.molevalley.gov.uk,-0.32925400000000,KT22 8DW,2014-03-28,fhrs_5_en-GB,5,,FHRS,0
243722,,5,,Leatherhead,Clinton Cards,Retailers - other,4613,,,618409,,,51.29577000000000,91748,308,EnvHealth@molevalley.gov.uk,Mole Valley,http://www.molevalley.gov.uk,-0.32766000000000,KT22 8AH,2012-01-31,fhrs_exempt_en-GB,Exempt,,FHRS,
243723,,23 West Street,,Dorking,Cobbetts Real Ales Ltd,Retailers - other,4613,,,667539,,,51.23151000000000,81479,308,EnvHealth@molevalley.gov.uk,Mole Valley,http://www.molevalley.gov.uk,-0.33657900000000,RH4 1BY,2013-11-26,fhrs_exempt_en-GB,Exempt,,FHRS,
243724,"Unit 9, Brook Willow Farm",Woodlands Road,,Leatherhead,Cobham Area Foodbank,Retailers - other,4613,5,,660539,5,,51.30978700000000,95743,308,EnvHealth@molevalley.gov.uk,Mole Valley,http://www.molevalley.gov.uk,-0.35352200000000,KT22 0AN,2014-06-10,fhrs_5_en-GB,5,,FHRS,0
243725,,,,,Cobham Cakes,Other catering premises,7841,5,,696651,0,,,96290,308,EnvHealth@molevalley.gov.uk,Mole Valley,http://www.molevalley.gov.uk,,,2014-09-16,fhrs_5_en-GB,5,,FHRS,0
243726,Station Kiosk,Station Approach,,Dorking,Colairos,Restaurant/Cafe/Canteen,1,5,,618281,5,,51.24060300000000,91315,308,EnvHealth@molevalley.gov.uk,Mole Valley,http://www.molevalley.gov.uk,-0.32406000000000,RH4 1TF,2014-06-10,fhrs_5_en-GB,5,,FHRS,5
243727,Broome Hall,Broomehall Road,,Coldharbour,Coldharbour Parish Hall,Other catering premises,7841,10,,618179,5,,51.16545100000000,90950,308,EnvHealth@molevalley.gov.uk,Mole Valley,http://www.molevalley.gov.uk,-0.35775100000000,RH5 6HP,2011-12-12,fhrs_4_en-GB,4,,FHRS,0
243728,Tyrwhitt House,Oaklawn Road,,Leatherhead,Combat Stress,Hospitals/Childcare/Caring Premises,5,0,,696657,0,,51.31706300000000,96349,308,EnvHealth@molevalley.gov.uk,Mole Valley,http://www.molevalley.gov.uk,-0.34528300000000,KT22 0BX,2014-09-26,fhrs_5_en-GB,5,,FHRS,0
243729,Tesco Superstore,Reigate Road,,Hookwood,Compass,Restaurant/Cafe/Canteen,1,5,,618341,5,,51.16830800000000,91481,308,EnvHealth@molevalley.gov.uk,Mole Valley,http://www.molevalley.gov.uk,-0.18587300000000,RH6 0AT,2014-04-07,fhrs_4_en-GB,4,,FHRS,10
243730,"Chaucer House, The Office Park",Springfield Drive,,Business Park 5  Research Area,Compass at Logica,Other catering premises,7841,,,688456,,,51.30426500000000,85765,308,EnvHealth@molevalley.gov.uk,Mole Valley,http://www.molevalley.gov.uk,-0.33758000000000,KT22 7SA,2014-05-28,fhrs_5_en-GB,5,,FHRS,
243731,Denbies Wine Estate,Bradley Lane,,Dorking,Conservatory Restaurant,Restaurant/Cafe/Canteen,1,5,,680307,5,,51.24816000000000,94742,308,EnvHealth@molevalley.gov.uk,Mole Valley,http://www.molevalley.gov.uk,-0.33186600000000,RH5 6AA,2013-02-20,fhrs_5_en-GB,5,,FHRS,5
243732,,228 Cobham Road,,Fetcham,Contact,Retailers - other,4613,10,,618305,5,,51.29626100000000,91421,308,EnvHealth@molevalley.gov.uk,Mole Valley,http://www.molevalley.gov.uk,-0.35536800000000,KT22 9JQ,2014-12-03,fhrs_4_en-GB,4,,FHRS,5
243733,Vine Court,59-69 High Street,,Bookham,Co-op,Retailers - other,4613,5,,618118,5,,51.27814400000000,90831,308,EnvHealth@molevalley.gov.uk,Mole Valley,http://www.molevalley.gov.uk,-0.37293400000000,KT23 4AD,2013-04-03,fhrs_4_en-GB,4,,FHRS,10
243734,,8 High Street,,Bookham,Co-operative,Retailers - supermarkets/hypermarkets,7840,0,,660379,0,,51.27842400000000,1176,308,EnvHealth@molevalley.gov.uk,Mole Valley,http://www.molevalley.gov.uk,-0.37369800000000,KT23 4AG,2014-10-21,fhrs_5_en-GB,5,,FHRS,5
243735,Givons Grove Service Station,Dorking Road,,Leatherhead,Co-operative Leatherhead Service Station,Retailers - other,4613,5,,660387,5,,51.28276400000000,17969,308,EnvHealth@molevalley.gov.uk,Mole Valley,http://www.molevalley.gov.uk,-0.32684200000000,KT22 8JS,2014-02-03,fhrs_4_en-GB,4,,FHRS,10
243736,Corner House,Guildford Road,,Westcott,Corner House Guest House,Hotel/bed & breakfast/guest house,7842,5,,618482,5,,51.22587500000000,91896,308,EnvHealth@molevalley.gov.uk,Mole Valley,http://www.molevalley.gov.uk,-0.36296300000000,RH4 3QE,2012-02-03,fhrs_4_en-GB,4,,FHRS,10
243737,,2 High Street,,Dorking,Costa,Restaurant/Cafe/Canteen,1,0,,667521,0,,51.23493200000000,76801,308,EnvHealth@molevalley.gov.uk,Mole Valley,http://www.molevalley.gov.uk,-0.33563900000000,RH4 1AJ,2012-12-05,fhrs_5_en-GB,5,,FHRS,5
243738,County Garden Centre,Reigate Road,,Dorking,Costa,Restaurant/Cafe/Canteen,1,5,,719532,5,,51.23673500000000,97393,308,EnvHealth@molevalley.gov.uk,Mole Valley,http://www.molevalley.gov.uk,-0.31649300000000,RH4 1NP,2015-01-28,fhrs_5_en-GB,5,,FHRS,5
243739,,22-24 Swan Centre,,Leatherhead,Costa Coffee,Restaurant/Cafe/Canteen,1,20,,680275,0,,51.29577000000000,73304,308,EnvHealth@molevalley.gov.uk,Mole Valley,http://www.molevalley.gov.uk,-0.32766000000000,KT22 8AH,2013-11-26,fhrs_1_en-GB,1,,FHRS,10
243740,,2-3 St Martins Walk,,Dorking,Cote,Restaurant/Cafe/Canteen,1,,,667563,,,51.23309800000000,95930,308,EnvHealth@molevalley.gov.uk,Mole Valley,http://www.molevalley.gov.uk,-0.33128000000000,RH4 1UT,,fhrs_awaitinginspection_en-GB,AwaitingInspection,,FHRS,
243741,Crossways Community Baptist Church,Junction Road,,Dorking,Crossways Community Baptist Church,Other catering premises,7841,0,,618011,0,,51.23098200000000,90089,308,EnvHealth@molevalley.gov.uk,Mole Valley,http://www.molevalley.gov.uk,-0.33553800000000,RH4 3HB,2014-01-29,fhrs_5_en-GB,5,,FHRS,0
243742,"Crostinies, Queens Crescent",Horsham Road,,Dorking,Crostinies,Takeaway/sandwich shop,7844,10,,618643,10,,51.22707700000000,92227,308,EnvHealth@molevalley.gov.uk,Mole Valley,http://www.molevalley.gov.uk,-0.33476300000000,RH4 2JR,2014-03-25,fhrs_3_en-GB,3,,FHRS,10
243743,,,,,Crumbs,Retailers - other,4613,5,,667530,5,,,80411,308,EnvHealth@molevalley.gov.uk,Mole Valley,http://www.molevalley.gov.uk,,,2014-01-15,fhrs_5_en-GB,5,,FHRS,5
243744,Headley Court,Headley Road,,Headley,Cunliffe Club,Restaurant/Cafe/Canteen,1,0,,618331,0,,,91467,308,EnvHealth@molevalley.gov.uk,Mole Valley,http://www.molevalley.gov.uk,,KT18 6JN,2013-02-28,fhrs_4_en-GB,4,,FHRS,10
243745,,,,,Cupcakes Parties,Other catering premises,7841,0,,618721,0,,,92357,308,EnvHealth@molevalley.gov.uk,Mole Valley,http://www.molevalley.gov.uk,,,2013-09-09,fhrs_5_en-GB,5,,FHRS,0
243746,,,,,Cut and Dried,Retailers - other,4613,5,,660467,5,,,78081,308,EnvHealth@molevalley.gov.uk,Mole Valley,http://www.molevalley.gov.uk,,,2012-01-04,fhrs_5_en-GB,5,,FHRS,5
243747,,,,,Darcy's Cupcake Creations,Other catering premises,7841,5,,660507,0,,,84990,308,EnvHealth@molevalley.gov.uk,Mole Valley,http://www.molevalley.gov.uk,,,2012-04-30,fhrs_5_en-GB,5,,FHRS,5
243748,The Dawnay Primary School,Griffin Way,,Bookham,Dawnay School,School/college/university,7845,0,,618102,0,,51.27753200000000,90776,308,EnvHealth@molevalley.gov.uk,Mole Valley,http://www.molevalley.gov.uk,-0.37550800000000,KT23 4JJ,2014-03-12,fhrs_5_en-GB,5,,FHRS,0
243749,Leatherhead Trinity School,Aperdele Road,,Leatherhead,Day Care,School/college/university,7845,5,,618672,5,,,92287,308,EnvHealth@molevalley.gov.uk,Mole Valley,http://www.molevalley.gov.uk,,KT22 7PX,2014-02-18,fhrs_5_en-GB,5,,FHRS,5
243750,,209a-211 Kingston Road,,Leatherhead,Day Lewis Chemist,Retailers - other,4613,,,618393,,,51.30693900000000,91676,308,EnvHealth@molevalley.gov.uk,Mole Valley,http://www.molevalley.gov.uk,-0.33206000000000,KT22 7PB,2013-08-23,fhrs_exempt_en-GB,Exempt,,FHRS,
243751,Hartsfield Manor,Sandy Lane,,Buckland,De Vere Venues,Other catering premises,7841,5,,618084,5,,51.23837700000000,90718,308,EnvHealth@molevalley.gov.uk,Mole Valley,http://www.molevalley.gov.uk,-0.26087800000000,RH3 7AA,2014-05-30,fhrs_5_en-GB,5,,FHRS,5
243752,,,,,Debbie's,Other catering premises,7841,5,,618443,5,,,91816,308,EnvHealth@molevalley.gov.uk,Mole Valley,http://www.molevalley.gov.uk,,,2013-08-02,fhrs_5_en-GB,5,,FHRS,5
243753,Deepdene Care Centre,Hill View,,Dorking,Deepdene Care Centre,Hospitals/Childcare/Caring Premises,5,10,,618508,10,,51.23476200000000,91957,308,EnvHealth@molevalley.gov.uk,Mole Valley,http://www.molevalley.gov.uk,-0.32314000000000,RH4 1SY,2015-01-27,fhrs_3_en-GB,3,,FHRS,10
243754,,,,,Delicious Dishes,Other catering premises,7841,5,,618622,5,,,92176,308,EnvHealth@molevalley.gov.uk,Mole Valley,http://www.molevalley.gov.uk,,,2013-03-04,fhrs_5_en-GB,5,,FHRS,5
243755,Denbies Farm House,Bradley Lane,,Dorking,Denbies Farm House B&B,Hotel/bed & breakfast/guest house,7842,0,,660377,0,,51.24816000000000,10718,308,EnvHealth@molevalley.gov.uk,Mole Valley,http://www.molevalley.gov.uk,-0.33186600000000,RH5 6AA,2014-01-22,fhrs_5_en-GB,5,,FHRS,0
243756,,,,,Devereux Smallholding,Mobile caterer,7846,5,,711746,5,,,97126,308,EnvHealth@molevalley.gov.uk,Mole Valley,http://www.molevalley.gov.uk,,,2014-10-02,fhrs_5_en-GB,5,,FHRS,0
243757,,,,,Discerning Soups,Manufacturers/packers,7839,5,,660464,5,,,77919,308,EnvHealth@molevalley.gov.uk,Mole Valley,http://www.molevalley.gov.uk,,,2014-03-06,fhrs_5_en-GB,5,,FHRS,5
243758,Squires Garden Centre,Reigate Road,,Buckland,DJ Squire & Co Ltd,Restaurant/Cafe/Canteen,1,5,,680277,10,,51.24222900000000,74153,308,EnvHealth@molevalley.gov.uk,Mole Valley,http://www.molevalley.gov.uk,-0.23526000000000,RH2 9RE,2014-11-05,fhrs_3_en-GB,3,,FHRS,10
243759,8 Grove Corner,Lower Shott,,Bookham,Domestique Cycle Cafe,Restaurant/Cafe/Canteen,1,0,,638666,0,,51.27687200000000,95581,308,EnvHealth@molevalley.gov.uk,Mole Valley,http://www.molevalley.gov.uk,-0.37330900000000,KT23 4LP,2014-06-19,fhrs_5_en-GB,5,,FHRS,0
243760,,292-294 High Street,,Dorking,Domino's Pizza,Takeaway/sandwich shop,7844,,,667509,,,51.23373400000000,69888,308,EnvHealth@molevalley.gov.uk,Mole Valley,http://www.molevalley.gov.uk,-0.32799100000000,RH4 1QT,2014-08-13,fhrs_5_en-GB,5,,FHRS,
243761,"Dominos Pizza, 2 Sunmead Parade",Guildford Road,,Fetcham,Domino's Pizza,Takeaway/sandwich shop,7844,0,,660425,5,,51.29203100000000,45987,308,EnvHealth@molevalley.gov.uk,Mole Valley,http://www.molevalley.gov.uk,-0.33729000000000,KT22 9AL,2014-02-26,fhrs_5_en-GB,5,,FHRS,0
243762,Highland Cottage,Junction Road,,Dorking,Dorking Brasserie,Restaurant/Cafe/Canteen,1,,,667508,,,51.23098200000000,69351,308,EnvHealth@molevalley.gov.uk,Mole Valley,http://www.molevalley.gov.uk,-0.33553800000000,RH4 3HB,2015-01-07,fhrs_5_en-GB,5,,FHRS,
243763,"The Wardens Flat, Christian Centre",Church Street,,Dorking,Dorking Christian Centre - Servery,Other catering premises,7841,5,,618178,10,,51.23273900000000,90948,308,EnvHealth@molevalley.gov.uk,Mole Valley,http://www.molevalley.gov.uk,-0.33325500000000,RH4 1DW,2014-06-10,fhrs_4_en-GB,4,,FHRS,5
243764,The Hampstead Day Centre,26-28 Hampstead Road,,Dorking,Dorking Day Centre,Restaurant/Cafe/Canteen,1,5,,618716,5,,51.22441400000000,92347,308,EnvHealth@molevalley.gov.uk,Mole Valley,http://www.molevalley.gov.uk,-0.33401400000000,RH4 3AF,2014-02-06,fhrs_5_en-GB,5,,FHRS,5
243765,Dorking Garden Centre,Reigate Road,,Dorking,Dorking Garden Centre,Retailers - other,4613,5,,688436,5,,51.23866400000000,10242,308,EnvHealth@molevalley.gov.uk,Mole Valley,http://www.molevalley.gov.uk,-0.31183900000000,RH4 1NN,2012-04-18,fhrs_5_en-GB,5,,FHRS,5
243766,Dorking Golf Club,Deepdene Avenue,,Dorking,Dorking Golf Club,Restaurant/Cafe/Canteen,1,5,,667498,10,,51.22574100000000,39653,308,EnvHealth@molevalley.gov.uk,Mole Valley,http://www.molevalley.gov.uk,-0.31990200000000,RH5 4BX,2014-08-12,fhrs_4_en-GB,4,,FHRS,0
243767,Dorking General Hospital,Horsham Road,,Dorking,Dorking Hospital,Other catering premises,7841,0,,618224,0,,51.22592800000000,91123,308,EnvHealth@molevalley.gov.uk,Mole Valley,http://www.molevalley.gov.uk,-0.33297100000000,RH4 2AA,2014-05-09,fhrs_5_en-GB,5,,FHRS,0
243768,Dorking Lawn Tennis And Squash Club Ltd,Roman Road,,Dorking,Dorking Lawn Tennis & Squash Club,Pub/bar/nightclub,7843,20,,618253,0,,51.22095700000000,91191,308,EnvHealth@molevalley.gov.uk,Mole Valley,http://www.molevalley.gov.uk,-0.33315100000000,RH4 3ET,2011-10-25,fhrs_1_en-GB,1,,FHRS,0
243769,New Lodge School (Demol),Chichester Road,,Dorking,Dorking Major Minors Nursery,School/college/university,7845,5,,705356,5,,51.24267600000000,96408,308,EnvHealth@molevalley.gov.uk,Mole Valley,http://www.molevalley.gov.uk,-0.32633400000000,RH4 1LR,2014-10-22,fhrs_5_en-GB,5,,FHRS,0
243770,Nutcombe House,Westcott Road,,Dorking,Dorking Nursery Busy Bees,School/college/university,7845,0,,705357,0,,51.23186200000000,96409,308,EnvHealth@molevalley.gov.uk,Mole Valley,http://www.molevalley.gov.uk,-0.33923100000000,RH4 3DP,2014-10-21,fhrs_5_en-GB,5,,FHRS,5
243771,Dorking Nursery School,West Street,,Dorking,Dorking Nursery School Sure Start,School/college/university,7845,0,,618297,5,,51.23151000000000,91399,308,EnvHealth@molevalley.gov.uk,Mole Valley,http://www.molevalley.gov.uk,-0.33657900000000,RH4 1BY,2014-03-17,fhrs_5_en-GB,5,,FHRS,5
243772,Nower House,Coldharbour Lane,,Dorking,Dorking Residential Care Homes Ltd,Hospitals/Childcare/Caring Premises,5,0,,618181,5,,51.22329600000000,90952,308,EnvHealth@molevalley.gov.uk,Mole Valley,http://www.molevalley.gov.uk,-0.33696100000000,RH4 3BL,2014-12-09,fhrs_5_en-GB,5,,FHRS,0
243773,Dorking Service Centre,Reigate Road,,Dorking,Dorking Service Station,Retailers - other,4613,,,680244,,,51.23410300000000,17980,308,EnvHealth@molevalley.gov.uk,Mole Valley,http://www.molevalley.gov.uk,-0.32549900000000,RH4 1SG,2014-11-25,fhrs_exempt_en-GB,Exempt,,FHRS,
243774,,53 West Street,,Dorking,Dorking United Reformed Church,Other catering premises,7841,0,,618298,5,,51.23173400000000,91401,308,EnvHealth@molevalley.gov.uk,Mole Valley,http://www.molevalley.gov.uk,-0.33400700000000,RH4 1BS,2014-06-26,fhrs_5_en-GB,5,,FHRS,0
243775,"Galworthy House, 7-8 New Parade",London Road,,Dorking,Dos  Bandidos,Restaurant/Cafe/Canteen,1,20,,660516,20,,51.23480400000000,85379,308,EnvHealth@molevalley.gov.uk,Mole Valley,http://www.molevalley.gov.uk,-0.32669100000000,RH4 1RQ,2014-10-22,fhrs_0_en-GB,0,,FHRS,20
243776,,22 Oakfield Road,,Ashtead,Downsend School,School/college/university,7845,0,,696650,0,,51.31345400000000,96268,308,EnvHealth@molevalley.gov.uk,Mole Valley,http://www.molevalley.gov.uk,-0.30791900000000,KT21 2RE,2014-09-15,fhrs_5_en-GB,5,,FHRS,0
243777,Downsend School,1 Leatherhead Road,,Ashtead,Downsend School,School/college/university,7845,5,,618014,5,,51.30177900000000,90096,308,EnvHealth@molevalley.gov.uk,Mole Valley,http://www.molevalley.gov.uk,-0.30966800000000,KT21 2TW,2014-10-07,fhrs_5_en-GB,5,,FHRS,5
243778,The Rowans School,13 Epsom Road,,Leatherhead,Downsend School,School/college/university,7845,5,,688464,5,,51.29777900000000,96249,308,EnvHealth@molevalley.gov.uk,Mole Valley,http://www.molevalley.gov.uk,-0.32160600000000,KT22 8ST,2014-09-16,fhrs_5_en-GB,5,,FHRS,0
243779,,,,,Downside Cottage,Other catering premises,7841,0,,638650,0,,,95237,308,EnvHealth@molevalley.gov.uk,Mole Valley,http://www.molevalley.gov.uk,,,2014-02-04,fhrs_5_en-GB,5,,FHRS,0
243780,Downsvale Nursing Home,6-8 Pixham Lane,,Dorking,Downsvale Nursing Home,Hospitals/Childcare/Caring Premises,5,5,,618240,5,,51.23896500000000,91161,308,EnvHealth@molevalley.gov.uk,Mole Valley,http://www.molevalley.gov.uk,-0.31648400000000,RH4 1PT,2014-06-16,fhrs_5_en-GB,5,,FHRS,5
243781,,,,,Dreamy Teatimes,Other catering premises,7841,0,,660537,0,,,95740,308,EnvHealth@molevalley.gov.uk,Mole Valley,http://www.molevalley.gov.uk,,,2014-05-19,fhrs_5_en-GB,5,,FHRS,0
243782,,268 High Street,,Dorking,Eastern Fortune,Retailers - supermarkets/hypermarkets,7840,0,,711757,0,,51.23373400000000,97195,308,EnvHealth@molevalley.gov.uk,Mole Valley,http://www.molevalley.gov.uk,-0.32799100000000,RH4 1QT,2014-11-07,fhrs_5_en-GB,5,,FHRS,0
243783,Eastwick Infant School,Eastwick Drive,,Bookham,Eastwick Infants School,School/college/university,7845,0,,618098,5,,51.28411600000000,90771,308,EnvHealth@molevalley.gov.uk,Mole Valley,http://www.molevalley.gov.uk,-0.36784800000000,KT23 3PP,2014-11-18,fhrs_5_en-GB,5,,FHRS,5
243784,Eastwick County Junior School,Eastwick Drive,,Bookham,Eastwick Junior School,School/college/university,7845,0,,618099,0,,51.28411600000000,90772,308,EnvHealth@molevalley.gov.uk,Mole Valley,http://www.molevalley.gov.uk,-0.36784800000000,KT23 3PP,2014-02-04,fhrs_5_en-GB,5,,FHRS,0
243785,The Edmund Tylney (Ph),30-32 High Street,,Leatherhead,Edmund Tylney,Pub/bar/nightclub,7843,0,,680265,0,,51.29516600000000,55032,308,EnvHealth@molevalley.gov.uk,Mole Valley,http://www.molevalley.gov.uk,-0.32756700000000,KT22 8AW,2014-09-29,fhrs_5_en-GB,5,,FHRS,5
243786,Village Hall,Stane Street,,Ockley,Elderslie Nursery School,School/college/university,7845,5,,618462,0,,51.15179400000000,91857,308,EnvHealth@molevalley.gov.uk,Mole Valley,http://www.molevalley.gov.uk,-0.35792100000000,RH5 5SY,2014-12-09,fhrs_5_en-GB,5,,FHRS,0
243787,2 Shellwood Farm Cottages,Shellwood Road,,Leigh,Ellas Eggs & Produce,Retailers - other,4613,0,,618746,0,,51.20215800000000,94944,308,EnvHealth@molevalley.gov.uk,Mole Valley,http://www.molevalley.gov.uk,-0.27330800000000,RH2 8NX,2014-01-22,fhrs_5_en-GB,5,,FHRS,0
243788,Elm Croft,Woodfield,,Ashtead,Elmdon Nursery School,School/college/university,7845,5,,618065,5,,51.31589100000000,90681,308,EnvHealth@molevalley.gov.uk,Mole Valley,http://www.molevalley.gov.uk,-0.30982400000000,KT21 2RL,2013-12-03,fhrs_5_en-GB,5,,FHRS,5
243789,,,,,Emily Jane's Cookies,Other catering premises,7841,0,,660471,0,,,78982,308,EnvHealth@molevalley.gov.uk,Mole Valley,http://www.molevalley.gov.uk,,,2014-12-16,fhrs_5_en-GB,5,,FHRS,0
243790,Kingscroft Service Station,73 Kingston Road,,Leatherhead,Esso Kingscroft Service Station,Retailers - other,4613,0,,660392,0,,51.30297000000000,26337,308,EnvHealth@molevalley.gov.uk,Mole Valley,http://www.molevalley.gov.uk,-0.32998100000000,KT22 7SP,2013-06-03,fhrs_5_en-GB,5,,FHRS,0
243791,Pippbrook Service Station,London Road,,Dorking,Esso Pippbrook Service Station,Retailers - other,4613,10,,680243,10,,,17976,308,EnvHealth@molevalley.gov.uk,Mole Valley,http://www.molevalley.gov.uk,,,2013-11-19,fhrs_3_en-GB,3,,FHRS,5
243792,Tesco Stores Ltd,Oxshott Road,,Leatherhead,Euphorium (North London) Limited,Restaurant/Cafe/Canteen,1,0,,711755,0,,51.31231000000000,97190,308,EnvHealth@molevalley.gov.uk,Mole Valley,http://www.molevalley.gov.uk,-0.33605500000000,KT22 0EF,2014-12-12,fhrs_5_en-GB,5,,FHRS,0
243793,Tesco Superstore,Reigate Road,,Hookwood,Euphorium (North London) Limited,Restaurant/Cafe/Canteen,1,0,,711756,0,,51.16830800000000,97193,308,EnvHealth@molevalley.gov.uk,Mole Valley,http://www.molevalley.gov.uk,-0.18587300000000,RH6 0AT,2014-11-26,fhrs_5_en-GB,5,,FHRS,5
243794,,19-25,,Leatherhead,Eurest Sainsbury's Staff Restaurant,Restaurant/Cafe/Canteen,1,0,,618410,0,,51.29577000000000,91752,308,EnvHealth@molevalley.gov.uk,Mole Valley,http://www.molevalley.gov.uk,-0.32766000000000,KT22 8AH,2012-08-28,fhrs_5_en-GB,5,,FHRS,0
243795,Evelyn Hall,Abinger Lane,,Abinger,Evelyn Hall,Other catering premises,7841,5,,618165,5,,51.20346000000000,90922,308,EnvHealth@molevalley.gov.uk,Mole Valley,http://www.molevalley.gov.uk,-0.40426800000000,RH5 6HZ,2013-03-06,fhrs_5_en-GB,5,,FHRS,5
243796,,20 Craddocks Parade,,Ashtead,Ex Cellar,Retailers - other,4613,,,618031,,,51.31695000000000,90524,308,EnvHealth@molevalley.gov.uk,Mole Valley,http://www.molevalley.gov.uk,-0.30471900000000,KT21 1QJ,2014-04-15,fhrs_exempt_en-GB,Exempt,,FHRS,
243797,Barracks Farm,Cobham Road,,Fetcham,F Conisbee & Son,Retailers - other,4613,0,,618310,5,,51.30090100000000,91430,308,EnvHealth@molevalley.gov.uk,Mole Valley,http://www.molevalley.gov.uk,-0.35983600000000,KT22 9TP,2014-02-24,fhrs_5_en-GB,5,,FHRS,5
243798,Fairdene (Guest House),Moores Road,,Dorking,Fairdene Guest House,Hotel/bed & breakfast/guest house,7842,10,,667497,5,,51.23365000000000,37174,308,EnvHealth@molevalley.gov.uk,Mole Valley,http://www.molevalley.gov.uk,-0.32651800000000,RH4 2BG,2014-12-10,fhrs_4_en-GB,4,,FHRS,5
243799,Fairfield Day Centre,34,,Leatherhead,Fairfield Day Centre,Hospitals/Childcare/Caring Premises,5,0,,688445,0,,51.29577000000000,68099,308,EnvHealth@molevalley.gov.uk,Mole Valley,http://www.molevalley.gov.uk,-0.32766000000000,KT22 8AH,2013-08-30,fhrs_5_en-GB,5,,FHRS,0
243800,Falkland Arms (Ph),60 Falkland Road,,Dorking,Falkland Arms,Pub/bar/nightclub,7843,5,,667490,0,,51.22539100000000,2790,308,EnvHealth@molevalley.gov.uk,Mole Valley,http://www.molevalley.gov.uk,-0.33568300000000,RH4 3AD,2014-01-27,fhrs_5_en-GB,5,,FHRS,5
243801,,,,,Favours for Flavours,Other catering premises,7841,5,,705354,5,,,96403,308,EnvHealth@molevalley.gov.uk,Mole Valley,http://www.molevalley.gov.uk,,,2014-10-22,fhrs_5_en-GB,5,,FHRS,5
243802,Mill Cottage,Stane Street,,Ockley,Feel Good Farm,Retailers - other,4613,5,,660542,5,,51.13381900000000,95790,308,EnvHealth@molevalley.gov.uk,Mole Valley,http://www.molevalley.gov.uk,-0.36772100000000,RH5 5LY,2014-06-20,fhrs_5_en-GB,5,,FHRS,0
243803,,85 The Street,,Fetcham,Fetcham Fish Bar,Takeaway/sandwich shop,7844,5,,660418,10,,51.29615900000000,4077,308,EnvHealth@molevalley.gov.uk,Mole Valley,http://www.molevalley.gov.uk,-0.35702200000000,KT22 9RD,2014-07-30,fhrs_4_en-GB,4,,FHRS,5
243804,Fetcham Post Office,149 Cobham Road,,Fetcham,Fetcham Post Office,Retailers - other,4613,,,660430,,,51.29473100000000,5079,308,EnvHealth@molevalley.gov.uk,Mole Valley,http://www.molevalley.gov.uk,-0.35332900000000,KT22 9HX,2014-01-16,fhrs_exempt_en-GB,Exempt,,FHRS,
243805,,248a Cobham Road,,Fetcham,Fetcham Tandoori Restaurant,Restaurant/Cafe/Canteen,1,5,,705352,10,,51.29720500000000,3534,308,EnvHealth@molevalley.gov.uk,Mole Valley,http://www.molevalley.gov.uk,-0.35662600000000,KT22 9JF,2014-09-16,fhrs_4_en-GB,4,,FHRS,5
243806,Fetcham Village Hall,The Street,,Fetcham,Fetcham Village Hall,Other catering premises,7841,5,,618325,5,,51.29233200000000,91457,308,EnvHealth@molevalley.gov.uk,Mole Valley,http://www.molevalley.gov.uk,-0.35605400000000,KT22 9QS,2013-03-04,fhrs_5_en-GB,5,,FHRS,5
243807,Fetcham Village Infants School,School Lane,,Fetcham,Fetcham Village Infants School,School/college/university,7845,10,,618316,10,,51.29375400000000,91443,308,EnvHealth@molevalley.gov.uk,Mole Valley,http://www.molevalley.gov.uk,-0.35613200000000,KT22 9RF,2014-09-30,fhrs_3_en-GB,3,,FHRS,10
243808,"Fetcham Village Pre-School, Fetcham Village Infants School",School Lane,,Fetcham,Fetcham Village Pre-School,School/college/university,7845,5,,618649,0,,51.29375400000000,92240,308,EnvHealth@molevalley.gov.uk,Mole Valley,http://www.molevalley.gov.uk,-0.35613200000000,KT22 9RF,2013-12-02,fhrs_5_en-GB,5,,FHRS,5
243809,"Downlands, Juniper Hall (Field Centre)",Old London Road,,Mickleham,Field Studies Council,School/college/university,7845,5,,618436,5,,51.26152100000000,91802,308,EnvHealth@molevalley.gov.uk,Mole Valley,http://www.molevalley.gov.uk,-0.32104900000000,RH5 6DA,2014-01-23,fhrs_5_en-GB,5,,FHRS,0
243810,,12-14 Bridge Street,,Leatherhead,Five Rivers,Restaurant/Cafe/Canteen,1,5,,680290,5,,51.29487200000000,78978,308,EnvHealth@molevalley.gov.uk,Mole Valley,http://www.molevalley.gov.uk,-0.33150800000000,KT22 8BZ,2013-09-09,fhrs_5_en-GB,5,,FHRS,5
243811,,,,,Flour Patch Bakery,Manufacturers/packers,7839,5,,618740,0,,,94900,308,EnvHealth@molevalley.gov.uk,Mole Valley,http://www.molevalley.gov.uk,,,2014-02-27,fhrs_5_en-GB,5,,FHRS,0
243812,,45 Woodfield Lane,,Ashtead,Flying Start Day Nursery,School/college/university,7845,0,,618069,0,,51.31527600000000,90685,308,EnvHealth@molevalley.gov.uk,Mole Valley,http://www.molevalley.gov.uk,-0.30459400000000,KT21 2BT,2013-12-16,fhrs_5_en-GB,5,,FHRS,0
243813,,,,,Food Float Community Interest Co,Mobile caterer,7846,5,,618182,5,,,90953,308,EnvHealth@molevalley.gov.uk,Mole Valley,http://www.molevalley.gov.uk,,,2014-03-07,fhrs_5_en-GB,5,,FHRS,5
243814,,,,,Food for Occasions,Other catering premises,7841,0,,618523,0,,,91982,308,EnvHealth@molevalley.gov.uk,Mole Valley,http://www.molevalley.gov.uk,,,2013-03-15,fhrs_5_en-GB,5,,FHRS,0
243815,,,,,Food For Thought,Other catering premises,7841,10,,618442,5,,,91809,308,EnvHealth@molevalley.gov.uk,Mole Valley,http://www.molevalley.gov.uk,,,2014-01-13,fhrs_4_en-GB,4,,FHRS,5
243816,,,,,Food For Thought,Other catering premises,7841,10,,618445,5,,,91819,308,EnvHealth@molevalley.gov.uk,Mole Valley,http://www.molevalley.gov.uk,,,2014-01-21,fhrs_4_en-GB,4,,FHRS,5
243817,Fortyfoot Hall,Fortyfoot Road,,Leatherhead,Fortyfoot Playgroup,Other catering premises,7841,5,,618369,5,,51.29448800000000,91606,308,EnvHealth@molevalley.gov.uk,Mole Valley,http://www.molevalley.gov.uk,-0.31914400000000,KT22 8RY,2014-09-16,fhrs_2_en-GB,2,,FHRS,15
243818,,19 St Martins Walk,,Dorking,Fothergills Coffee Lounge,Restaurant/Cafe/Canteen,1,5,,680278,5,,51.23309800000000,74386,308,EnvHealth@molevalley.gov.uk,Mole Valley,http://www.molevalley.gov.uk,-0.33128000000000,RH4 1UT,2014-07-28,fhrs_5_en-GB,5,,FHRS,5
243819,"Four Gables, 3 Ashley Court",Ashtead Woods Road,,Ashtead,Four Gables Group,Other catering premises,7841,5,,688454,5,,51.31863400000000,85223,308,EnvHealth@molevalley.gov.uk,Mole Valley,http://www.molevalley.gov.uk,-0.32111700000000,KT21 2ET,2013-04-09,fhrs_5_en-GB,5,,FHRS,5
243820,,95 Povey Cross Road,,Hookwood,Four Seasons Guest House,Hotel/bed & breakfast/guest house,7842,5,,638656,0,,51.16689600000000,95359,308,EnvHealth@molevalley.gov.uk,Mole Valley,http://www.molevalley.gov.uk,-0.18126500000000,RH6 0AE,2014-05-28,fhrs_5_en-GB,5,,FHRS,0
243821,Frascati Restaurant,London Road,,Mickleham,Frascati,Restaurant/Cafe/Canteen,1,10,,660415,15,,51.27052400000000,3883,308,EnvHealth@molevalley.gov.uk,Mole Valley,http://www.molevalley.gov.uk,-0.32115100000000,RH5 6EH,2012-12-10,fhrs_2_en-GB,2,,FHRS,10
243822,Hoopwick Farm,Furzen Lane,,Wallis Wood,Free Range Hoopwick Meats,Retailers - other,4613,,,660536,,,51.11023400000000,95677,308,EnvHealth@molevalley.gov.uk,Mole Valley,http://www.molevalley.gov.uk,-0.41965200000000,RH12 3AW,,fhrs_awaitinginspection_en-GB,AwaitingInspection,,FHRS,
243823,Pixham End,Pixham Lane,,Dorking,Friends Provident Sports Club,Pub/bar/nightclub,7843,10,,618241,10,,51.24322900000000,91165,308,EnvHealth@molevalley.gov.uk,Mole Valley,http://www.molevalley.gov.uk,-0.32158600000000,RH4 1QA,2015-01-21,fhrs_3_en-GB,3,,FHRS,5
243824,"The Caravan, Aldhurst Farm",Temple Lane,,Capel,Fruit Booth,Mobile caterer,7846,,,638658,,,51.14796700000000,95363,308,EnvHealth@molevalley.gov.uk,Mole Valley,http://www.molevalley.gov.uk,-0.30464100000000,RH5 5HJ,,fhrs_awaitinginspection_en-GB,AwaitingInspection,,FHRS,
243825,Denbies Wine Estate,Bradley Lane,,Dorking,Gallery Restaurant,Restaurant/Cafe/Canteen,1,5,,680308,0,,51.24816000000000,94743,308,EnvHealth@molevalley.gov.uk,Mole Valley,http://www.molevalley.gov.uk,-0.33186600000000,RH5 6AA,2013-02-20,fhrs_5_en-GB,5,,FHRS,5
243826,,208a Barnett Wood Lane,,Ashtead,Garry's Greengrocers,Retailers - other,4613,5,,618010,0,,51.31346200000000,90057,308,EnvHealth@molevalley.gov.uk,Mole Valley,http://www.molevalley.gov.uk,-0.31034300000000,KT21 2DB,2014-02-24,fhrs_5_en-GB,5,,FHRS,0
243827,Gatton Manor Hotel And Country Club,Standon Lane,,Ockley,Gatton Manor Hotel,Restaurant/Cafe/Canteen,1,10,,667501,10,,51.13887400000000,4332,308,EnvHealth@molevalley.gov.uk,Mole Valley,http://www.molevalley.gov.uk,-0.38851300000000,RH5 5PQ,2014-08-28,fhrs_3_en-GB,3,,FHRS,5
243828,,25 South Street,,Dorking,Gelato Rialto,Restaurant/Cafe/Canteen,1,5,,667540,5,,51.23014400000000,81576,308,EnvHealth@molevalley.gov.uk,Mole Valley,http://www.molevalley.gov.uk,-0.33415100000000,RH4 2JZ,2013-10-22,fhrs_5_en-GB,5,,FHRS,5
243829,,,,,Gill Mills,Other catering premises,7841,5,,618595,5,,,92137,308,EnvHealth@molevalley.gov.uk,Mole Valley,http://www.molevalley.gov.uk,,,2013-03-04,fhrs_5_en-GB,5,,FHRS,5
243830,,,,,Gilly B Bakery,Other catering premises,7841,0,,660505,0,,,84389,308,EnvHealth@molevalley.gov.uk,Mole Valley,http://www.molevalley.gov.uk,,,2012-03-07,fhrs_5_en-GB,5,,FHRS,5
243831,,66 Kingston Road,,Leatherhead,Golden Plaice,Takeaway/sandwich shop,7844,5,,660417,10,,51.30071200000000,4076,308,EnvHealth@molevalley.gov.uk,Mole Valley,http://www.molevalley.gov.uk,-0.32991900000000,KT22 7BW,2014-03-14,fhrs_3_en-GB,3,,FHRS,10
243832,,,,,Good4uglutenfree Ltd,Other catering premises,7841,5,,711753,0,,,97136,308,EnvHealth@molevalley.gov.uk,Mole Valley,http://www.molevalley.gov.uk,,,2014-12-16,fhrs_5_en-GB,5,,FHRS,0
243833,Goodwyns Social And Community Centre,Trasher Mead,,Dorking,Goodwyns Club,Pub/bar/nightclub,7843,0,,618286,0,,51.21936400000000,91334,308,EnvHealth@molevalley.gov.uk,Mole Valley,http://www.molevalley.gov.uk,-0.32235400000000,RH4 2NB,2014-01-22,fhrs_5_en-GB,5,,FHRS,0
243834,,61 West Street,,Dorking,Gorgeous Gerties,Restaurant/Cafe/Canteen,1,5,,667551,5,,51.23173400000000,86876,308,EnvHealth@molevalley.gov.uk,Mole Valley,http://www.molevalley.gov.uk,-0.33400700000000,RH4 1BS,2013-05-17,fhrs_5_en-GB,5,,FHRS,0
243835,The Grange Centre,Rectory Lane,,Bookham,Grange Centre,Hospitals/Childcare/Caring Premises,5,0,,660523,0,,51.27482400000000,86272,308,EnvHealth@molevalley.gov.uk,Mole Valley,http://www.molevalley.gov.uk,-0.38647100000000,KT23 4DZ,2012-12-10,fhrs_5_en-GB,5,,FHRS,0
243836,Great Bookham Post Office,15 Church Road,,Bookham,Great Bookham Post Office,Retailers - other,4613,5,,660440,5,,51.27953300000000,6371,308,EnvHealth@molevalley.gov.uk,Mole Valley,http://www.molevalley.gov.uk,-0.37520800000000,KT23 3PF,2014-03-31,fhrs_5_en-GB,5,,FHRS,5
243837,,82 The Street,,Ashtead,Greg Johnson,Retailers - other,4613,10,,660409,5,,51.30983500000000,315,308,EnvHealth@molevalley.gov.uk,Mole Valley,http://www.molevalley.gov.uk,-0.29836700000000,KT21 1AW,2014-11-17,fhrs_4_en-GB,4,,FHRS,5
243838,,4 High Street,,Leatherhead,Greggs,Retailers - other,4613,5,,680285,5,,51.29517000000000,76690,308,EnvHealth@molevalley.gov.uk,Mole Valley,http://www.molevalley.gov.uk,-0.32849900000000,KT22 8AN,2013-07-26,fhrs_5_en-GB,5,,FHRS,5
243839,The Greville Cp School,Stonny Croft,,Ashtead,Greville Primary School,School/college/university,7845,0,,618047,0,,51.31457500000000,90549,308,EnvHealth@molevalley.gov.uk,Mole Valley,http://www.molevalley.gov.uk,-0.29596700000000,KT21 1SH,2013-11-04,fhrs_5_en-GB,5,,FHRS,5
243840,,47 West Street,,Dorking,Grove House Club,Other catering premises,7841,10,,667505,5,,51.23188000000000,49079,308,EnvHealth@molevalley.gov.uk,Mole Valley,http://www.molevalley.gov.uk,-0.33603600000000,RH4 1BU,2012-03-17,fhrs_4_en-GB,4,,FHRS,5
243841,4 Grove Corner,Lower Shott,,Bookham,Grove Pharmacy,Retailers - other,4613,,,618103,,,51.27624100000000,90782,308,EnvHealth@molevalley.gov.uk,Mole Valley,http://www.molevalley.gov.uk,-0.37386200000000,KT23 4LR,2013-05-15,fhrs_exempt_en-GB,Exempt,,FHRS,
243842,,190 High Street,,Dorking,Guardian Chinese Medical Centre,Retailers - other,4613,5,,618203,0,,51.23314500000000,91027,308,EnvHealth@molevalley.gov.uk,Mole Valley,http://www.molevalley.gov.uk,-0.32890000000000,RH4 1QR,2014-02-28,fhrs_5_en-GB,5,,FHRS,0
243843,The Oaks,Oak Ridge,,Dorking,H & K Supermarket,Retailers - other,4613,5,,667484,5,,51.21714400000000,1444,308,EnvHealth@molevalley.gov.uk,Mole Valley,http://www.molevalley.gov.uk,-0.32741700000000,RH4 2NJ,2014-04-10,fhrs_5_en-GB,5,,FHRS,0
243844,,202 Barnett Wood Lane,,Ashtead,Hammonds,Retailers - other,4613,0,,660406,5,,51.31346200000000,309,308,EnvHealth@molevalley.gov.uk,Mole Valley,http://www.molevalley.gov.uk,-0.31034300000000,KT21 2DB,2014-01-09,fhrs_5_en-GB,5,,FHRS,5
243845,,8 Hampstead Road,,Dorking,Hampstead Road Stores,Retailers - other,4613,5,,660383,5,,51.22441400000000,1463,308,EnvHealth@molevalley.gov.uk,Mole Valley,http://www.molevalley.gov.uk,-0.33401400000000,RH4 3AF,2013-01-30,fhrs_4_en-GB,4,,FHRS,10
243846,,27 The Street,,Ashtead,Handley's,Restaurant/Cafe/Canteen,1,10,,680309,10,,51.31009900000000,95994,308,EnvHealth@molevalley.gov.uk,Mole Valley,http://www.molevalley.gov.uk,-0.29861500000000,KT21 1AA,2014-07-29,fhrs_3_en-GB,3,,FHRS,10
243847,2 Beckley Parade,Leatherhead Road,,Bookham,Happy Diner,Takeaway/sandwich shop,7844,10,,660509,10,,51.27798100000000,84992,308,EnvHealth@molevalley.gov.uk,Mole Valley,http://www.molevalley.gov.uk,-0.36508300000000,KT23 4RQ,2014-01-22,fhrs_4_en-GB,4,,FHRS,0
243848,,72 South Street,,Dorking,Harleys Cafe 2,Restaurant/Cafe/Canteen,1,5,,667522,10,,51.23038000000000,76964,308,EnvHealth@molevalley.gov.uk,Mole Valley,http://www.molevalley.gov.uk,-0.33494400000000,RH4 2HD,2013-04-03,fhrs_4_en-GB,4,,FHRS,5
243849,,109 The Street,,Fetcham,Harrington's Sandwich Shop,Takeaway/sandwich shop,7844,10,,660478,5,,51.29615900000000,80953,308,EnvHealth@molevalley.gov.uk,Mole Valley,http://www.molevalley.gov.uk,-0.35702200000000,KT22 9RD,2014-01-20,fhrs_4_en-GB,4,,FHRS,5
243850,Barnett Wood Lane Post Office,230 Barnett Wood Lane,,Ashtead,Harris News & Post Office,Retailers - other,4613,,,660431,,,51.31346200000000,5090,308,EnvHealth@molevalley.gov.uk,Mole Valley,http://www.molevalley.gov.uk,-0.31034300000000,KT21 2DB,2014-03-31,fhrs_exempt_en-GB,Exempt,,FHRS,
243851,,7 Craddocks Parade,,Ashtead,Hartleys,Retailers - other,4613,,,680298,,,51.31651400000000,82650,308,EnvHealth@molevalley.gov.uk,Mole Valley,http://www.molevalley.gov.uk,-0.30440500000000,KT21 1QL,2012-08-13,fhrs_exempt_en-GB,Exempt,,FHRS,
243852,,37 High Street,,Bookham,Harts,Retailers - other,4613,10,,660381,5,,51.27814400000000,13561,308,EnvHealth@molevalley.gov.uk,Mole Valley,http://www.molevalley.gov.uk,-0.37293400000000,KT23 4AD,2013-08-07,fhrs_4_en-GB,4,,FHRS,5
243853,Headley Cricket Club,Headley Common Road,,Headley,Headley Cricket Club,Pub/bar/nightclub,7843,10,,618330,5,,51.27369400000000,91466,308,EnvHealth@molevalley.gov.uk,Mole Valley,http://www.molevalley.gov.uk,-0.26834800000000,KT18 6ND,2012-03-12,fhrs_4_en-GB,4,,FHRS,5
243854,Headley Hills,Church Lane,,Headley,Headley Hills Restaurant and Bar,Pub/bar/nightclub,7843,10,,680289,10,,51.27976800000000,78585,308,EnvHealth@molevalley.gov.uk,Mole Valley,http://www.molevalley.gov.uk,-0.27411300000000,KT18 6LE,2013-12-04,fhrs_3_en-GB,3,,FHRS,10
243855,Headley Village Hall,Church Lane,,Headley,Headley Village Hall,Other catering premises,7841,5,,618327,5,,51.27854800000000,91462,308,EnvHealth@molevalley.gov.uk,Mole Valley,http://www.molevalley.gov.uk,-0.27370000000000,KT18 6LD,2013-03-05,fhrs_5_en-GB,5,,FHRS,5
243856,,,,,Heather McCombe,Other catering premises,7841,5,,618488,5,,,91907,308,EnvHealth@molevalley.gov.uk,Mole Valley,http://www.molevalley.gov.uk,,,2013-03-14,fhrs_5_en-GB,5,,FHRS,5
243857,"Top Lodge, High Ashurst",Headley Lane,,Mickleham,High Ashurst Outdoor Activity Centre,Other catering premises,7841,0,,667542,5,,51.26467800000000,82367,308,EnvHealth@molevalley.gov.uk,Mole Valley,http://www.molevalley.gov.uk,-0.29186500000000,RH5 6DQ,2014-01-21,fhrs_5_en-GB,5,,FHRS,5
243858,,344-346 High Street,,Dorking,High Street Londis,Retailers - other,4613,10,,618217,5,,51.23429400000000,91088,308,EnvHealth@molevalley.gov.uk,Mole Valley,http://www.molevalley.gov.uk,-0.32689600000000,RH4 1RD,2014-12-02,fhrs_4_en-GB,4,,FHRS,5
243859,"Hilltop Stores, 3 Greentiles",Boxhill Road,,Boxhill,Hilltop Stores,Retailers - other,4613,10,,660465,10,,51.25301000000000,78067,308,EnvHealth@molevalley.gov.uk,Mole Valley,http://www.molevalley.gov.uk,-0.27924200000000,KT20 7JE,2013-12-04,fhrs_3_en-GB,3,,FHRS,10
243860,Holiday Inn Gatwick Airport,Povey Cross Road,,Hookwood,Holiday Inn Gatwick Airport,Restaurant/Cafe/Canteen,1,10,,680270,10,,51.16832800000000,68699,308,EnvHealth@molevalley.gov.uk,Mole Valley,http://www.molevalley.gov.uk,-0.18078000000000,RH6 0BA,2013-12-20,fhrs_3_en-GB,3,,FHRS,10
243861,5 Hazel Parade,Penrose Road,,Fetcham,Holiday News,Retailers - other,4613,,,660484,,,51.29353400000000,81092,308,EnvHealth@molevalley.gov.uk,Mole Valley,http://www.molevalley.gov.uk,-0.36543400000000,KT22 9PY,2013-07-09,fhrs_exempt_en-GB,Exempt,,FHRS,
243862,,14,,Leatherhead,Holland & Barrett,Retailers - other,4613,5,,660385,5,,51.29577000000000,1477,308,EnvHealth@molevalley.gov.uk,Mole Valley,http://www.molevalley.gov.uk,-0.32766000000000,KT22 8AH,2011-10-31,fhrs_5_en-GB,5,,FHRS,5
243863,,185 High Street,,Dorking,Holland & Barrett,Retailers - other,4613,0,,667487,0,,51.23328600000000,1906,308,EnvHealth@molevalley.gov.uk,Mole Valley,http://www.molevalley.gov.uk,-0.32935300000000,RH4 1RU,2013-02-27,fhrs_5_en-GB,5,,FHRS,0
243864,,,,,Holmwood Marketplace,Other catering premises,7841,,,618736,,,,94837,308,EnvHealth@molevalley.gov.uk,Mole Valley,http://www.molevalley.gov.uk,,,2013-11-08,fhrs_exempt_en-GB,Exempt,,FHRS,
243865,Holmwood Village Hall,Warwick Road,,South Holmwood,Holmwood Village Club,Other catering premises,7841,5,,618338,5,,51.19248200000000,91475,308,EnvHealth@molevalley.gov.uk,Mole Valley,http://www.molevalley.gov.uk,-0.32589200000000,RH5 4NP,2013-03-28,fhrs_5_en-GB,5,,FHRS,5
243866,The Manor House School,Manor House Lane,,Bookham,Holroyd Howe Independent,School/college/university,7845,0,,618127,0,,51.27381300000000,90849,308,EnvHealth@molevalley.gov.uk,Mole Valley,http://www.molevalley.gov.uk,-0.39139500000000,KT23 4EN,2014-01-10,fhrs_5_en-GB,5,,FHRS,0
243867,,,,,Home Cooking by Elizabeth Ltd,Other catering premises,7841,0,,638663,0,,,95448,308,EnvHealth@molevalley.gov.uk,Mole Valley,http://www.molevalley.gov.uk,,,2014-02-24,fhrs_5_en-GB,5,,FHRS,0
243868,Hookwood Memorial Hall,Withey Meadows,,Hookwood,Hookwood Memorial Hall,Other catering premises,7841,5,,618343,5,,51.16689600000000,91483,308,EnvHealth@molevalley.gov.uk,Mole Valley,http://www.molevalley.gov.uk,-0.18126500000000,RH6 0AE,2013-02-27,fhrs_5_en-GB,5,,FHRS,5
243869,"Atwood House Staff Flat, Box Hill School",Old London Road,,Mickleham,Host Contract Management,School/college/university,7845,0,,618433,0,,51.26890600000000,91799,308,EnvHealth@molevalley.gov.uk,Mole Valley,http://www.molevalley.gov.uk,-0.32495100000000,RH5 6EA,2013-01-10,fhrs_5_en-GB,5,,FHRS,0
243870,Hylands Garage,Leatherhead Road,,Bookham,Hylands Service Station,Retailers - other,4613,,,660401,,,51.27798100000000,28101,308,EnvHealth@molevalley.gov.uk,Mole Valley,http://www.molevalley.gov.uk,-0.36508300000000,KT23 4RQ,2014-11-05,fhrs_3_en-GB,3,,FHRS,
243871,The Dukes Head (Ph),Brockham Green,,Brockham,Inn on the Green,Restaurant/Cafe/Canteen,1,10,,667543,10,,51.23296900000000,82393,308,EnvHealth@molevalley.gov.uk,Mole Valley,http://www.molevalley.gov.uk,-0.28567700000000,RH3 7JS,2014-01-26,fhrs_3_en-GB,3,,FHRS,5
243872,Foresters House,Village Street,,Newdigate,J C Bettesworth,Retailers - other,4613,5,,618450,5,,51.16658000000000,91830,308,EnvHealth@molevalley.gov.uk,Mole Valley,http://www.molevalley.gov.uk,-0.28964100000000,RH5 5AA,2014-06-18,fhrs_4_en-GB,4,,FHRS,10
243873,Aberdeen House,10 Middle Street,,Brockham,J Chitty & Son,Retailers - other,4613,5,,660391,5,,51.22909300000000,217,308,EnvHealth@molevalley.gov.uk,Mole Valley,http://www.molevalley.gov.uk,-0.28441700000000,RH3 7JT,2014-08-11,fhrs_5_en-GB,5,,FHRS,5
243874,,30-38 High Street,,Dorking,J Sainsbury Plc,Retailers - supermarkets/hypermarkets,7840,0,,688437,0,,51.23173900000000,1174,308,EnvHealth@molevalley.gov.uk,Mole Valley,http://www.molevalley.gov.uk,-0.33181600000000,RH4 1AY,2013-12-05,fhrs_5_en-GB,5,,FHRS,5
243875,,19-25,,Leatherhead,J Sainsbury Plc,Retailers - supermarkets/hypermarkets,7840,0,,680241,0,,51.29577000000000,1179,308,EnvHealth@molevalley.gov.uk,Mole Valley,http://www.molevalley.gov.uk,-0.32766000000000,KT22 8AH,2014-01-28,fhrs_5_en-GB,5,,FHRS,0
243876,Etherley Farm,Leith Hill Lane,,Holmbury St Mary,J. A. Keen & Son,Farmers/growers,7838,5,,660378,0,,51.16260500000000,11448,308,EnvHealth@molevalley.gov.uk,Mole Valley,http://www.molevalley.gov.uk,-0.38582700000000,RH5 5PA,2012-09-20,fhrs_4_en-GB,4,,FHRS,10
243877,,28 The Crescent,,Leatherhead,J. P. Chef Take Away,Takeaway/sandwich shop,7844,10,,660441,10,,51.29519100000000,64592,308,EnvHealth@molevalley.gov.uk,Mole Valley,http://www.molevalley.gov.uk,-0.32614600000000,KT22 8ED,2013-11-13,fhrs_3_en-GB,3,,FHRS,10
243878,,,,,Janet Cassar,Other catering premises,7841,,,729455,,,,97710,308,EnvHealth@molevalley.gov.uk,Mole Valley,http://www.molevalley.gov.uk,,,,fhrs_awaitinginspection_en-GB,AwaitingInspection,,FHRS,
243879,,122 South Street,,Dorking,Jax,Takeaway/sandwich shop,7844,5,,618260,5,,51.22914700000000,91208,308,EnvHealth@molevalley.gov.uk,Mole Valley,http://www.molevalley.gov.uk,-0.33486000000000,RH4 2EU,2013-11-07,fhrs_4_en-GB,4,,FHRS,10
243880,,,,,Jess Hill Cake Company,Other catering premises,7841,0,,618499,5,,,91935,308,EnvHealth@molevalley.gov.uk,Mole Valley,http://www.molevalley.gov.uk,,,2013-02-05,fhrs_5_en-GB,5,,FHRS,0
243881,Builders Yard,Garlands Road,,Leatherhead,Jewson Ltd,Retailers - other,4613,,,660535,,,51.30067900000000,95676,308,EnvHealth@molevalley.gov.uk,Mole Valley,http://www.molevalley.gov.uk,-0.32256100000000,KT22 7ES,2014-05-14,fhrs_exempt_en-GB,Exempt,,FHRS,
243882,,,,,Joanna Gray,Other catering premises,7841,10,,618610,0,,,92163,308,EnvHealth@molevalley.gov.uk,Mole Valley,http://www.molevalley.gov.uk,,,2012-03-30,fhrs_4_en-GB,4,,FHRS,0
243883,"Site At, Johnson Engineering Ltd",2-3 Curtis Road,,Dorking,Johnston Cafe,Restaurant/Cafe/Canteen,1,20,,711744,10,,,97062,308,EnvHealth@molevalley.gov.uk,Mole Valley,http://www.molevalley.gov.uk,,,2014-11-13,fhrs_1_en-GB,1,,FHRS,5
243884,The Jolly Farmers,Reigate Road,,Buckland,Jolly Farmers Food Emporium,Pub/bar/nightclub,7843,10,,660397,5,,51.24328300000000,2788,308,EnvHealth@molevalley.gov.uk,Mole Valley,http://www.molevalley.gov.uk,-0.23954600000000,RH3 7BG,2014-01-21,fhrs_4_en-GB,4,,FHRS,5
243885,,61a The Street,,Ashtead,Joy,Restaurant/Cafe/Canteen,1,20,,638669,10,,51.31009900000000,95623,308,EnvHealth@molevalley.gov.uk,Mole Valley,http://www.molevalley.gov.uk,-0.29861500000000,KT21 1AA,2014-05-14,fhrs_1_en-GB,1,,FHRS,5
243886,St Mary's Church,Pixham Lane,,Dorking,Jubilee Nursery Pre School,School/college/university,7845,10,,618514,5,,51.23896500000000,91966,308,EnvHealth@molevalley.gov.uk,Mole Valley,http://www.molevalley.gov.uk,-0.31648400000000,RH4 1PT,2014-12-19,fhrs_4_en-GB,4,,FHRS,5
243887,"Unit 2, Chapel Lane Works",Chapel Lane,,Westcott,Julia Robinson Catering Ltd,Mobile caterer,7846,5,,667541,5,,51.22683700000000,81581,308,EnvHealth@molevalley.gov.uk,Mole Valley,http://www.molevalley.gov.uk,-0.36552100000000,RH4 3PJ,2014-05-19,fhrs_5_en-GB,5,,FHRS,5
243888,,,,,Julia Rudelli,Other catering premises,7841,5,,618611,5,,,92164,308,EnvHealth@molevalley.gov.uk,Mole Valley,http://www.molevalley.gov.uk,,,2012-08-24,fhrs_5_en-GB,5,,FHRS,5
243889,,1a St Martins Walk,,Dorking,Julian Graves Ltd,Retailers - other,4613,5,,680280,5,,51.23309800000000,74752,308,EnvHealth@molevalley.gov.uk,Mole Valley,http://www.molevalley.gov.uk,-0.33128000000000,RH4 1UT,2012-04-16,fhrs_5_en-GB,5,,FHRS,5
243890,,,,,Juliett's Pantry,Other catering premises,7841,5,,618743,5,,,94937,308,EnvHealth@molevalley.gov.uk,Mole Valley,http://www.molevalley.gov.uk,,,2014-02-20,fhrs_5_en-GB,5,,FHRS,0
243891,,26 The Crescent,,Leatherhead,Karahi House,Restaurant/Cafe/Canteen,1,10,,618414,5,,51.29519100000000,91767,308,EnvHealth@molevalley.gov.uk,Mole Valley,http://www.molevalley.gov.uk,-0.32614600000000,KT22 8ED,2013-11-28,fhrs_3_en-GB,3,,FHRS,10
243892,,,,,Kate's Kitchen,Other catering premises,7841,10,,618591,5,,,92120,308,EnvHealth@molevalley.gov.uk,Mole Valley,http://www.molevalley.gov.uk,,,2014-02-14,fhrs_4_en-GB,4,,FHRS,0
243893,,21 Church Road,,Bookham,KBR Davey,Retailers - other,4613,5,,660407,5,,51.27973500000000,310,308,EnvHealth@molevalley.gov.uk,Mole Valley,http://www.molevalley.gov.uk,-0.37547300000000,KT23 3PG,2013-03-12,fhrs_5_en-GB,5,,FHRS,5
243894,,348-350 High Street,,Dorking,Kentucky Fried Chicken,Takeaway/sandwich shop,7844,0,,667500,0,,51.23420700000000,4072,308,EnvHealth@molevalley.gov.uk,Mole Valley,http://www.molevalley.gov.uk,-0.32710000000000,RH4 1QX,2013-02-27,fhrs_4_en-GB,4,,FHRS,10
243895,Keystone House,Dorking Road,,Bookham,Keystone House Chrystie Recreation Ground,Other catering premises,7841,5,,618629,5,,51.27434800000000,92193,308,EnvHealth@molevalley.gov.uk,Mole Valley,http://www.molevalley.gov.uk,-0.36836600000000,KT23 4PB,2012-02-06,fhrs_5_en-GB,5,,FHRS,0
243896,,27 High Street,,Bookham,Kim's Cafe,Restaurant/Cafe/Canteen,1,20,,711754,10,,51.27874300000000,97176,308,EnvHealth@molevalley.gov.uk,Mole Valley,http://www.molevalley.gov.uk,-0.37334300000000,KT23 4AA,2014-12-02,fhrs_1_en-GB,1,,FHRS,10
243897,,,,,Kim's Cakepops,Other catering premises,7841,0,,660518,0,,,85460,308,EnvHealth@molevalley.gov.uk,Mole Valley,http://www.molevalley.gov.uk,,,2012-09-11,fhrs_5_en-GB,5,,FHRS,5
243898,Kingfisher Farm And Flower Shop,Guildford Road,,Abinger Hammer,Kingfisher Farm Shop,Retailers - other,4613,5,,617977,5,,51.21400900000000,90006,308,EnvHealth@molevalley.gov.uk,Mole Valley,http://www.molevalley.gov.uk,-0.43092100000000,RH5 6QX,2013-02-13,fhrs_5_en-GB,5,,FHRS,0
243899,1 Queens Crescent,Horsham Road,,Dorking,Kingz Traditional Fish and Chips,Takeaway/sandwich shop,7844,5,,667534,10,,51.22707700000000,80982,308,EnvHealth@molevalley.gov.uk,Mole Valley,http://www.molevalley.gov.uk,-0.33476300000000,RH4 2JR,2013-12-05,fhrs_4_en-GB,4,,FHRS,5
243900,Kuoni House,Deepdene Avenue,,Dorking,Kuoni Travel,Retailers - other,4613,,,618184,,,51.23049300000000,90961,308,EnvHealth@molevalley.gov.uk,Mole Valley,http://www.molevalley.gov.uk,-0.32266500000000,RH5 4AZ,2013-11-27,fhrs_exempt_en-GB,Exempt,,FHRS,
243901,,31 High Street,,Leatherhead,Lal Akash,Restaurant/Cafe/Canteen,1,5,,680267,10,,51.29543900000000,67032,308,EnvHealth@molevalley.gov.uk,Mole Valley,http://www.molevalley.gov.uk,-0.32838900000000,KT22 8AB,2014-03-18,fhrs_4_en-GB,4,,FHRS,5
243902,,,,,Lavish Habitat,Other catering premises,7841,5,,660500,0,,,83740,308,EnvHealth@molevalley.gov.uk,Mole Valley,http://www.molevalley.gov.uk,,,2013-09-06,fhrs_5_en-GB,5,,FHRS,0
243903,,55-57 High Street,,Bookham,Layton's Greengrocers & Fruiterers,Retailers - other,4613,10,,660479,5,,51.27814400000000,810,308,EnvHealth@molevalley.gov.uk,Mole Valley,http://www.molevalley.gov.uk,-0.37293400000000,KT23 4AD,2011-10-25,fhrs_4_en-GB,4,,FHRS,5
243904,,,,,LB Biscuits & Cakes,Other catering premises,7841,5,,667559,5,,,95802,308,EnvHealth@molevalley.gov.uk,Mole Valley,http://www.molevalley.gov.uk,,,2014-07-03,fhrs_5_en-GB,5,,FHRS,5
243905,Dorking General Hospital,Horsham Road,,Dorking,League of Friends Shop,Retailers - other,4613,20,,618225,5,,51.22592800000000,91124,308,EnvHealth@molevalley.gov.uk,Mole Valley,http://www.molevalley.gov.uk,-0.33297100000000,RH4 2AA,2015-01-27,fhrs_1_en-GB,1,,FHRS,0
243906,Conservative Club,13 Linden Road,,Leatherhead,Leatherhead Constitutional Club,Pub/bar/nightclub,7843,10,,618016,0,,51.29747200000000,90098,308,EnvHealth@molevalley.gov.uk,Mole Valley,http://www.molevalley.gov.uk,-0.32779900000000,KT22 7JB,2012-09-18,fhrs_4_en-GB,4,,FHRS,5
243907,Fetcham Grove,Guildford Road,,Fetcham,Leatherhead Football Club,Other catering premises,7841,10,,660436,10,,51.29172800000000,56506,308,EnvHealth@molevalley.gov.uk,Mole Valley,http://www.molevalley.gov.uk,-0.33301300000000,KT22 9AS,2014-03-12,fhrs_3_en-GB,3,,FHRS,10
243908,Leatherhead Golf Club,Kingston Road,,Leatherhead,Leatherhead Golf Club,Pub/bar/nightclub,7843,0,,618401,0,,51.32091000000000,91717,308,EnvHealth@molevalley.gov.uk,Mole Valley,http://www.molevalley.gov.uk,-0.33059200000000,KT22 0EE,2014-02-21,fhrs_5_en-GB,5,,FHRS,5
243909,The Royal British Legion,Upper Fairfield Road,,Leatherhead,Leatherhead Royal British Legion Clb,Pub/bar/nightclub,7843,5,,618422,5,,51.29717100000000,91784,308,EnvHealth@molevalley.gov.uk,Mole Valley,http://www.molevalley.gov.uk,-0.32940200000000,KT22 7HH,2013-04-03,fhrs_5_en-GB,5,,FHRS,0
243910,,3 Church Road,,Leatherhead,Leatherhead Start,Other catering premises,7841,5,,680299,0,,51.29496100000000,83273,308,EnvHealth@molevalley.gov.uk,Mole Valley,http://www.molevalley.gov.uk,-0.32576700000000,KT22 8AT,2013-11-26,fhrs_5_en-GB,5,,FHRS,0
243911,Leatherhead Trinity School,Woodvill Road,,Leatherhead,Leatherhead Trinity Primary School,School/college/university,7845,0,,618423,0,,51.30071200000000,91785,308,EnvHealth@molevalley.gov.uk,Mole Valley,http://www.molevalley.gov.uk,-0.32991900000000,KT22 7BW,2013-07-23,fhrs_5_en-GB,5,,FHRS,5
243912,All Saints Church,Kingston Road,,Leatherhead,Leatherhead Youth Project Ltd,Other catering premises,7841,,,618505,,,51.30256400000000,91950,308,EnvHealth@molevalley.gov.uk,Mole Valley,http://www.molevalley.gov.uk,-0.32926400000000,KT22 7PS,2013-02-19,fhrs_exempt_en-GB,Exempt,,FHRS,
243913,Leigh Cricket Club,Bunce Common Road,,Leigh,Leigh Cricket Club,Pub/bar/nightclub,7843,10,,618426,5,,51.20815300000000,91788,308,EnvHealth@molevalley.gov.uk,Mole Valley,http://www.molevalley.gov.uk,-0.26940400000000,RH2 8NS,2012-07-12,fhrs_4_en-GB,4,,FHRS,0
243914,Abbots Pass Hall,Bunce Common Road,,Leigh,Leigh Village Hall,Other catering premises,7841,0,,618425,0,,51.21024800000000,91787,308,EnvHealth@molevalley.gov.uk,Mole Valley,http://www.molevalley.gov.uk,-0.25847400000000,RH2 8NP,2013-02-08,fhrs_5_en-GB,5,,FHRS,5
243915,,108 Barnett Wood Lane,,Ashtead,Leonard Cheshire Disability,Hospitals/Childcare/Caring Premises,5,5,,618675,5,,51.30982400000000,92292,308,EnvHealth@molevalley.gov.uk,Mole Valley,http://www.molevalley.gov.uk,-0.31877000000000,KT21 2LS,2013-07-03,fhrs_5_en-GB,5,,FHRS,5
243916,Leylands Farm,Sheephouse Lane,,Abinger,Leylands Farm,Hotel/bed & breakfast/guest house,7842,10,,618166,5,,51.19173900000000,90923,308,EnvHealth@molevalley.gov.uk,Mole Valley,http://www.molevalley.gov.uk,-0.37914200000000,RH5 6JS,2014-02-18,fhrs_4_en-GB,4,,FHRS,5
243917,"Vincent House, Vincent Works",Vincent Lane,,Dorking,Lidl - Dorking,Retailers - supermarkets/hypermarkets,7840,0,,617956,0,,51.22934800000000,86808,308,EnvHealth@molevalley.gov.uk,Mole Valley,http://www.molevalley.gov.uk,-0.33758800000000,RH4 3JD,2013-09-30,fhrs_5_en-GB,5,,FHRS,0
243918,Lidl,North Street,,Leatherhead,Lidl - Leatherhead,Retailers - supermarkets/hypermarkets,7840,0,,660454,0,,,74155,308,EnvHealth@molevalley.gov.uk,Mole Valley,http://www.molevalley.gov.uk,,,2012-07-03,fhrs_5_en-GB,5,,FHRS,0
243919,,16 Dawnay Road,,Bookham,Like Media Limited,Retailers - other,4613,,,617965,,,51.27475300000000,87694,308,EnvHealth@molevalley.gov.uk,Mole Valley,http://www.molevalley.gov.uk,-0.36643000000000,KT23 4PE,2013-09-10,fhrs_exempt_en-GB,Exempt,,FHRS,
243920,Lime Tree Court,The Street,,Ashtead,Lime Tree Court,Other catering premises,7841,0,,618063,0,,,90678,308,EnvHealth@molevalley.gov.uk,Mole Valley,http://www.molevalley.gov.uk,,,2014-02-25,fhrs_5_en-GB,5,,FHRS,5
243921,"Limes Bistro, Limes Business Centre",8 The Street,,Charlwood,Limes Bistro,Restaurant/Cafe/Canteen,1,0,,618164,0,,51.15441400000000,90917,308,EnvHealth@molevalley.gov.uk,Mole Valley,http://www.molevalley.gov.uk,-0.22042300000000,RH6 0BY,2014-10-24,fhrs_5_en-GB,5,,FHRS,0
243922,,,,,Little Birds Bakery,Other catering premises,7841,5,,660526,5,,,86557,308,EnvHealth@molevalley.gov.uk,Mole Valley,http://www.molevalley.gov.uk,,,2013-03-13,fhrs_5_en-GB,5,,FHRS,0
243923,,77 South Street,,Dorking,Little Dudley House,Restaurant/Cafe/Canteen,1,10,,667532,5,,51.22831500000000,80551,308,EnvHealth@molevalley.gov.uk,Mole Valley,http://www.molevalley.gov.uk,-0.33448900000000,RH4 2JU,2014-03-11,fhrs_4_en-GB,4,,FHRS,5
243924,Christ Church United Reform Church,Epsom Road,,Leatherhead,Little Oaks Nursery,School/college/university,7845,5,,618364,0,,51.29777900000000,91598,308,EnvHealth@molevalley.gov.uk,Mole Valley,http://www.molevalley.gov.uk,-0.32160600000000,KT22 8ST,2012-06-28,fhrs_4_en-GB,4,,FHRS,10
243925,North Holmwood Cricket Club,Inholms Lane,,North Holmwood,Little Oaks Play Cafe,Restaurant/Cafe/Canteen,1,5,,638659,0,,51.21208700000000,95364,308,EnvHealth@molevalley.gov.uk,Mole Valley,http://www.molevalley.gov.uk,-0.32280400000000,RH5 4JH,2014-04-15,fhrs_4_en-GB,4,,FHRS,10
243926,,4 Craddocks Parade,,Ashtead,Lloyds Pharmacy,Retailers - other,4613,,,680259,,,51.31651400000000,4649,308,EnvHealth@molevalley.gov.uk,Mole Valley,http://www.molevalley.gov.uk,-0.30440500000000,KT21 1QL,2014-12-18,fhrs_exempt_en-GB,Exempt,,FHRS,
243927,,10 Linden Court,,Leatherhead,Loopsy's,Other catering premises,7841,5,,619345,5,,51.29646100000000,95094,308,EnvHealth@molevalley.gov.uk,Mole Valley,http://www.molevalley.gov.uk,-0.32568400000000,KT22 7JG,2014-01-27,fhrs_5_en-GB,5,,FHRS,5
243928,,7 Bridge Street,,Leatherhead,Los Amigos 2,Restaurant/Cafe/Canteen,1,10,,680286,5,,51.29487800000000,77286,308,EnvHealth@molevalley.gov.uk,Mole Valley,http://www.molevalley.gov.uk,-0.33005900000000,KT22 8BL,2014-09-04,fhrs_4_en-GB,4,,FHRS,5
243929,,,,,Love Every Bite,Other catering premises,7841,5,,667555,0,,,94203,308,EnvHealth@molevalley.gov.uk,Mole Valley,http://www.molevalley.gov.uk,,,2014-06-02,fhrs_5_en-GB,5,,FHRS,0
243930,Lower Gages Farm,Rusper Road,,Capel,Lower Gages Farm,Retailers - other,4613,5,,618150,5,,51.13247500000000,90898,308,EnvHealth@molevalley.gov.uk,Mole Valley,http://www.molevalley.gov.uk,-0.31226900000000,RH5 5HG,2013-12-17,fhrs_4_en-GB,4,,FHRS,10
243931,,34 The Street,,Ashtead,Lucky 7,Takeaway/sandwich shop,7844,10,,618719,10,,51.30862300000000,92355,308,EnvHealth@molevalley.gov.uk,Mole Valley,http://www.molevalley.gov.uk,-0.30099400000000,KT21 2AH,2014-10-07,fhrs_3_en-GB,3,,FHRS,5
243932,,,,,Luncheon Club,Other catering premises,7841,5,,618048,5,,,90550,308,EnvHealth@molevalley.gov.uk,Mole Valley,http://www.molevalley.gov.uk,,,2013-02-27,fhrs_5_en-GB,5,,FHRS,5
243933,,8 Ranmore Road,,Dorking,Mahe,Takeaway/sandwich shop,7844,5,,618700,5,,51.23490000000000,92331,308,EnvHealth@molevalley.gov.uk,Mole Valley,http://www.molevalley.gov.uk,-0.33655700000000,RH4 1HA,2013-02-12,fhrs_5_en-GB,5,,FHRS,0
243934,,100-102 Kingston Road,,Leatherhead,Majestic Wine Warehouse,Retailers - other,4613,,,660462,,,51.30190400000000,77724,308,EnvHealth@molevalley.gov.uk,Mole Valley,http://www.molevalley.gov.uk,-0.32960300000000,KT22 7BT,2015-01-14,fhrs_exempt_en-GB,Exempt,,FHRS,
243935,,,,,Marion Catering,Other catering premises,7841,0,,618013,0,,,90092,308,EnvHealth@molevalley.gov.uk,Mole Valley,http://www.molevalley.gov.uk,,,2013-09-04,fhrs_5_en-GB,5,,FHRS,5
243936,,21 St Martins Walk,,Dorking,Marks & Spencer Dorking,Retailers - supermarkets/hypermarkets,7840,5,,680253,5,,51.23310400000000,36813,308,EnvHealth@molevalley.gov.uk,Mole Valley,http://www.molevalley.gov.uk,-0.33168000000000,RH4 1UY,2012-01-12,fhrs_5_en-GB,5,,FHRS,0
243937,,1-3 High Street,,Leatherhead,Martin McColls Ltd,Retailers - other,4613,,,680266,,,51.29545500000000,67028,308,EnvHealth@molevalley.gov.uk,Mole Valley,http://www.molevalley.gov.uk,-0.32953600000000,KT22 8AA,2014-06-10,fhrs_exempt_en-GB,Exempt,,FHRS,
243938,,72 The Street,,Ashtead,Martins,Retailers - other,4613,,,660428,,,51.30983500000000,4838,308,EnvHealth@molevalley.gov.uk,Mole Valley,http://www.molevalley.gov.uk,-0.29836700000000,KT21 1AW,2014-07-03,fhrs_exempt_en-GB,Exempt,,FHRS,
243939,,,,,McCarthy's Country Store,Mobile caterer,7846,5,,618694,5,,,92322,308,EnvHealth@molevalley.gov.uk,Mole Valley,http://www.molevalley.gov.uk,,,2012-06-29,fhrs_5_en-GB,5,,FHRS,5
243940,The Cabin,Spook Hill,,North Holmwood,McColls,Retailers - other,4613,10,,680262,5,,51.21327700000000,5121,308,EnvHealth@molevalley.gov.uk,Mole Valley,http://www.molevalley.gov.uk,-0.32870300000000,RH5 4HH,2013-12-11,fhrs_3_en-GB,3,,FHRS,10
243941,,,,,Mead Cottage,Other catering premises,7841,5,,618599,5,,,92146,308,EnvHealth@molevalley.gov.uk,Mole Valley,http://www.molevalley.gov.uk,,,2013-08-23,fhrs_5_en-GB,5,,FHRS,5
243942,White Horse Hotel,High Street,,Dorking,Mercure White Horse Hotel,Hotel/bed & breakfast/guest house,7842,5,,618222,0,,51.23243500000000,91119,308,EnvHealth@molevalley.gov.uk,Mole Valley,http://www.molevalley.gov.uk,-0.33020100000000,RH4 1BE,2014-02-24,fhrs_5_en-GB,5,,FHRS,5
243943,,40 South Street,,Dorking,Michael Frith Pharmacy,Retailers - other,4613,,,667504,,,51.23123700000000,4647,308,EnvHealth@molevalley.gov.uk,Mole Valley,http://www.molevalley.gov.uk,-0.33388200000000,RH4 2HQ,2014-03-27,fhrs_exempt_en-GB,Exempt,,FHRS,
243944,5 New Parade,Leatherhead Road,,Bookham,Michaels Fish Bar,Takeaway/sandwich shop,7844,0,,618130,0,,51.27778200000000,90853,308,EnvHealth@molevalley.gov.uk,Mole Valley,http://www.molevalley.gov.uk,-0.36569200000000,KT23 4RL,2013-09-11,fhrs_5_en-GB,5,,FHRS,5
243945,Mickleham Village Hall,Dell Close,,Mickleham,Mickleham Village Hall & Nursery,Other catering premises,7841,5,,618432,5,,51.26889900000000,91798,308,EnvHealth@molevalley.gov.uk,Mole Valley,http://www.molevalley.gov.uk,-0.32254300000000,RH5 6EE,2013-04-25,fhrs_5_en-GB,5,,FHRS,5
243946,,,,,Mikaelas Cupcakes,Mobile caterer,7846,0,,667565,0,,,95946,308,EnvHealth@molevalley.gov.uk,Mole Valley,http://www.molevalley.gov.uk,,,2014-09-11,fhrs_5_en-GB,5,,FHRS,0
243947,Mill View,38 The Street,,Charlwood,Millview,Hospitals/Childcare/Caring Premises,5,5,,618007,5,,51.15544100000000,90051,308,EnvHealth@molevalley.gov.uk,Mole Valley,http://www.molevalley.gov.uk,-0.22348600000000,RH6 0DF,2011-10-25,fhrs_5_en-GB,5,,FHRS,0
243948,Milner House,Ermyn Way,,Ashtead,Milner House,Hospitals/Childcare/Caring Premises,5,10,,618366,10,,51.29786700000000,91601,308,EnvHealth@molevalley.gov.uk,Mole Valley,http://www.molevalley.gov.uk,-0.30654100000000,KT22 8TX,2014-02-25,fhrs_3_en-GB,3,,FHRS,5
243949,,41 South Street,,Dorking,Mirch Mahal,Restaurant/Cafe/Canteen,1,10,,719531,5,,51.22962600000000,97373,308,EnvHealth@molevalley.gov.uk,Mole Valley,http://www.molevalley.gov.uk,-0.33437000000000,RH4 2JX,2015-01-27,fhrs_4_en-GB,4,,FHRS,5
243950,,,,,Miss Sandy Moore,Other catering premises,7841,5,,660522,0,,,85662,308,EnvHealth@molevalley.gov.uk,Mole Valley,http://www.molevalley.gov.uk,,,2012-08-16,fhrs_5_en-GB,5,,FHRS,5
243951,,1 Craddocks Parade,,Ashtead,Mogul Dynasty,Restaurant/Cafe/Canteen,1,5,,680252,5,,51.31651400000000,3549,308,EnvHealth@molevalley.gov.uk,Mole Valley,http://www.molevalley.gov.uk,-0.30440500000000,KT21 1QL,2014-05-12,fhrs_5_en-GB,5,,FHRS,5
243952,,,,,Moss Greengrocer Stall,Retailers - other,4613,0,,618388,0,,,91657,308,EnvHealth@molevalley.gov.uk,Mole Valley,http://www.molevalley.gov.uk,,,2013-03-14,fhrs_5_en-GB,5,,FHRS,0
243953,,,,,Mrs Emma Macdonald,Other catering premises,7841,5,,618745,5,,,94940,308,EnvHealth@molevalley.gov.uk,Mole Valley,http://www.molevalley.gov.uk,,,2014-02-14,fhrs_5_en-GB,5,,FHRS,5
243954,,,,,Mrs Goody's Goodies,Other catering premises,7841,5,,667561,0,,,95882,308,EnvHealth@molevalley.gov.uk,Mole Valley,http://www.molevalley.gov.uk,,,2014-05-22,fhrs_5_en-GB,5,,FHRS,5
243955,,,,,Mrs Roberta Thompson,Other catering premises,7841,0,,618158,0,,,90910,308,EnvHealth@molevalley.gov.uk,Mole Valley,http://www.molevalley.gov.uk,,,2014-02-20,fhrs_5_en-GB,5,,FHRS,0
243956,,,,,Ms Claire Whittaker,Other catering premises,7841,5,,660502,0,,,83930,308,EnvHealth@molevalley.gov.uk,Mole Valley,http://www.molevalley.gov.uk,,,2012-02-29,fhrs_5_en-GB,5,,FHRS,5
243957,,,,,Ms Hayley Kiely,Other catering premises,7841,,,705360,,,,96428,308,EnvHealth@molevalley.gov.uk,Mole Valley,http://www.molevalley.gov.uk,,,2014-12-02,fhrs_exempt_en-GB,Exempt,,FHRS,
243958,,,,,Ms Jackie Cutler,Other catering premises,7841,10,,618314,5,,,91440,308,EnvHealth@molevalley.gov.uk,Mole Valley,http://www.molevalley.gov.uk,,,2014-01-15,fhrs_4_en-GB,4,,FHRS,5
243959,,,,,Ms Shelley Marie Davies,Other catering premises,7841,10,,667558,5,,,95801,308,EnvHealth@molevalley.gov.uk,Mole Valley,http://www.molevalley.gov.uk,,,2014-07-03,fhrs_4_en-GB,4,,FHRS,5
243960,,,,,Ms Vivienne Levy,Other catering premises,7841,5,,660512,0,,,85078,308,EnvHealth@molevalley.gov.uk,Mole Valley,http://www.molevalley.gov.uk,,,2014-03-10,fhrs_5_en-GB,5,,FHRS,0
243961,,,,,Ms Wendy Woods,Other catering premises,7841,10,,688453,0,,,84959,308,EnvHealth@molevalley.gov.uk,Mole Valley,http://www.molevalley.gov.uk,,,2012-05-10,fhrs_4_en-GB,4,,FHRS,5
243962,,58 West Street,,Dorking,Mullins Coffee Shop,Restaurant/Cafe/Canteen,1,5,,680310,10,,51.23173400000000,96039,308,EnvHealth@molevalley.gov.uk,Mole Valley,http://www.molevalley.gov.uk,-0.33400700000000,RH4 1BS,2014-11-04,fhrs_4_en-GB,4,,FHRS,5
243963,,37a The Street,,Ashtead,Munchies,Restaurant/Cafe/Canteen,1,0,,660485,0,,51.31009900000000,81095,308,EnvHealth@molevalley.gov.uk,Mole Valley,http://www.molevalley.gov.uk,-0.29861500000000,KT21 1AA,2014-05-28,fhrs_5_en-GB,5,,FHRS,5
243964,The Old Haunt,96 South Street,,Dorking,New Dorking Cantonese,Restaurant/Cafe/Canteen,1,10,,667512,10,,51.22978600000000,72388,308,EnvHealth@molevalley.gov.uk,Mole Valley,http://www.molevalley.gov.uk,-0.33492300000000,RH4 2EW,2015-01-27,fhrs_3_en-GB,3,,FHRS,10
243965,Newdigate School,Village Street,,Newdigate,Newdigate C of E Infant School,School/college/university,7845,0,,618451,5,,51.16627000000000,91831,308,EnvHealth@molevalley.gov.uk,Mole Valley,http://www.molevalley.gov.uk,-0.28872300000000,RH5 5DJ,2014-03-05,fhrs_5_en-GB,5,,FHRS,0
243966,Village Hall,Kingsland,,Newdigate,Newdigate Village Hall,Other catering premises,7841,5,,618449,0,,51.16630000000000,91829,308,EnvHealth@molevalley.gov.uk,Mole Valley,http://www.molevalley.gov.uk,-0.29266900000000,RH5 5DA,2013-03-28,fhrs_5_en-GB,5,,FHRS,5
243967,,,,,Nicola Knight Cakes,Other catering premises,7841,5,,696652,0,,,96291,308,EnvHealth@molevalley.gov.uk,Mole Valley,http://www.molevalley.gov.uk,,,2014-08-07,fhrs_5_en-GB,5,,FHRS,0
243968,3 Sunmead Parade,Guildford Road,,Fetcham,Nikki Newsagent,Retailers - other,4613,10,,618752,5,,51.29203100000000,95076,308,EnvHealth@molevalley.gov.uk,Mole Valley,http://www.molevalley.gov.uk,-0.33729000000000,KT22 9AL,2014-03-19,fhrs_4_en-GB,4,,FHRS,5
243969,Norfolk Court,Dukes Ride,,North Holmwood,Norfolk Court,Other catering premises,7841,0,,618453,5,,,91833,308,EnvHealth@molevalley.gov.uk,Mole Valley,http://www.molevalley.gov.uk,,,2014-02-20,fhrs_5_en-GB,5,,FHRS,5
243970,Leigh Primary School,Tapners Road,,Leigh,North Downs Primary School,School/college/university,7845,0,,618431,0,,51.20919700000000,91797,308,EnvHealth@molevalley.gov.uk,Mole Valley,http://www.molevalley.gov.uk,-0.25252900000000,RH2 8NN,2014-12-09,fhrs_5_en-GB,5,,FHRS,0
243971,The Acorns County First School,The Street,,Betchworth,North Downs Primary School,School/college/university,7845,0,,618087,0,,51.23802900000000,90723,308,EnvHealth@molevalley.gov.uk,Mole Valley,http://www.molevalley.gov.uk,-0.26775400000000,RH3 7DJ,2012-06-19,fhrs_5_en-GB,5,,FHRS,0
243972,Brockham School,Wheelers Lane,,Brockham,North Downs Primary School Brockham,School/college/university,7845,0,,667489,5,,51.22995300000000,19835,308,EnvHealth@molevalley.gov.uk,Mole Valley,http://www.molevalley.gov.uk,-0.28173500000000,RH3 7LA,2014-03-24,fhrs_4_en-GB,4,,FHRS,10
243973,North Holmwood Cricket Club,Inholms Lane,,North Holmwood,North Holmwood Sports Club,Restaurant/Cafe/Canteen,1,5,,667538,5,,51.21208700000000,81429,308,EnvHealth@molevalley.gov.uk,Mole Valley,http://www.molevalley.gov.uk,-0.32280400000000,RH5 4JH,2013-01-11,fhrs_5_en-GB,5,,FHRS,0
243974,Cannons House,3 The Crescent,,Leatherhead,Nuffield Health Fitness & Wellbeing,Pub/bar/nightclub,7843,5,,618416,5,,51.29485200000000,91771,308,EnvHealth@molevalley.gov.uk,Mole Valley,http://www.molevalley.gov.uk,-0.32760700000000,KT22 8DY,2013-12-18,fhrs_5_en-GB,5,,FHRS,5
243975,Oakfield County Junior School,Bell Lane,,Fetcham,Oakfield Junior School,School/college/university,7845,5,,688440,0,,51.28996100000000,19791,308,EnvHealth@molevalley.gov.uk,Mole Valley,http://www.molevalley.gov.uk,-0.35563600000000,KT22 9NF,2014-03-10,fhrs_4_en-GB,4,,FHRS,10
243976,Oakfield Nursing Home,30 Oakfield Road,,Ashtead,Oakfield Nursing Home,Hospitals/Childcare/Caring Premises,5,5,,618038,0,,51.31099600000000,90538,308,EnvHealth@molevalley.gov.uk,Mole Valley,http://www.molevalley.gov.uk,-0.30833900000000,KT21 2RD,2014-02-19,fhrs_5_en-GB,5,,FHRS,5
243977,"Nursery School, Okewood First School",Walliswood Green Road,,Wallis Wood,Oakwood First School,School/college/university,7845,5,,680245,0,,51.13296900000000,19832,308,EnvHealth@molevalley.gov.uk,Mole Valley,http://www.molevalley.gov.uk,-0.40186800000000,RH5 5RD,2012-11-29,fhrs_5_en-GB,5,,FHRS,0
243978,,,,,Occasionally Yours,Other catering premises,7841,10,,638660,0,,,95365,308,EnvHealth@molevalley.gov.uk,Mole Valley,http://www.molevalley.gov.uk,,,2014-05-14,fhrs_4_en-GB,4,,FHRS,0
243979,Ockley Service Station,Stane Street,,Ockley,Ockley Service Station,Retailers - other,4613,10,,667493,10,,51.14487700000000,28240,308,EnvHealth@molevalley.gov.uk,Mole Valley,http://www.molevalley.gov.uk,-0.36422800000000,RH5 5TP,2014-08-12,fhrs_2_en-GB,2,,FHRS,15
243980,Okewood Hill Village Hall,Honeywood Lane,,Okewood Hill,Okewood Hill Village Hall,Other catering premises,7841,10,,618236,10,,51.12475200000000,91146,308,EnvHealth@molevalley.gov.uk,Mole Valley,http://www.molevalley.gov.uk,-0.38241600000000,RH5 5PU,2015-01-29,fhrs_4_en-GB,4,,FHRS,0
243981,Pixham Sports Ground,Pixham Lane,,Dorking,Old Dorkinian Football & Cricket Clu,Pub/bar/nightclub,7843,10,,618242,15,,51.24255000000000,91166,308,EnvHealth@molevalley.gov.uk,Mole Valley,http://www.molevalley.gov.uk,-0.32062200000000,RH4 1PQ,2014-02-18,fhrs_2_en-GB,2,,FHRS,5
243982,,17 Church Road,,Bookham,Old Habits,Retailers - other,4613,5,,618717,5,,51.27973500000000,92348,308,EnvHealth@molevalley.gov.uk,Mole Valley,http://www.molevalley.gov.uk,-0.37547300000000,KT23 3PG,2013-07-09,fhrs_5_en-GB,5,,FHRS,0
243983,Old House At Home (Ph),24 West Street,,Dorking,Old House,Pub/bar/nightclub,7843,10,,667537,5,,51.23166700000000,81272,308,EnvHealth@molevalley.gov.uk,Mole Valley,http://www.molevalley.gov.uk,-0.33623000000000,RH4 1BY,2013-11-06,fhrs_4_en-GB,4,,FHRS,5
243984,Old Wall Cottage,Old Reigate Road,,Betchworth,Old Wall Cottage Nursing Home,Hospitals/Childcare/Caring Premises,5,0,,618082,0,,51.23978000000000,90714,308,EnvHealth@molevalley.gov.uk,Mole Valley,http://www.molevalley.gov.uk,-0.26515200000000,RH3 7DR,2014-01-20,fhrs_5_en-GB,5,,FHRS,0
243985,Marsden Nursery & Garden Centre,Pleasure Pit Road,,Ashtead,Olive Tree Cafe,Restaurant/Cafe/Canteen,1,0,,660480,10,,51.31176900000000,81066,308,EnvHealth@molevalley.gov.uk,Mole Valley,http://www.molevalley.gov.uk,-0.28364600000000,KT21 1HU,2014-02-07,fhrs_4_en-GB,4,,FHRS,5
243986,,,,,Olivia's Sweet Bakes,Other catering premises,7841,5,,617959,5,,,87396,308,EnvHealth@molevalley.gov.uk,Mole Valley,http://www.molevalley.gov.uk,,,2014-01-22,fhrs_5_en-GB,5,,FHRS,5
243987,Leith Hill Service Station,Horsham Road,,Beare Green,On the Run,Retailers - other,4613,0,,680284,0,,51.17906100000000,76599,308,EnvHealth@molevalley.gov.uk,Mole Valley,http://www.molevalley.gov.uk,-0.31684900000000,RH5 4QU,2014-04-17,fhrs_5_en-GB,5,,FHRS,0
243988,,,,,One Fat Lady Food,Mobile caterer,7846,20,,618604,0,,,92155,308,EnvHealth@molevalley.gov.uk,Mole Valley,http://www.molevalley.gov.uk,,,2014-03-20,fhrs_1_en-GB,1,,FHRS,0
243989,,209a-211 Kingston Road,,Leatherhead,One Stop Community Stores,Retailers - other,4613,0,,618581,0,,51.30693900000000,92092,308,EnvHealth@molevalley.gov.uk,Mole Valley,http://www.molevalley.gov.uk,-0.33206000000000,KT22 7PB,2014-01-22,fhrs_5_en-GB,5,,FHRS,0
243990,,242 High Street,,Dorking,Oriund Antiques and Coffee Shop Ltd,Restaurant/Cafe/Canteen,1,5,,667535,5,,51.23314500000000,80984,308,EnvHealth@molevalley.gov.uk,Mole Valley,http://www.molevalley.gov.uk,-0.32890000000000,RH4 1QR,2013-02-27,fhrs_5_en-GB,5,,FHRS,5
243991,,,,,Osbrooks Farm Shop,Other catering premises,7841,0,,696656,0,,,96348,308,EnvHealth@molevalley.gov.uk,Mole Valley,http://www.molevalley.gov.uk,,,2014-09-17,fhrs_5_en-GB,5,,FHRS,0
243992,,116 High Street,,Dorking,Oxfam,Retailers - other,4613,,,618196,,,51.23210500000000,90996,308,EnvHealth@molevalley.gov.uk,Mole Valley,http://www.molevalley.gov.uk,-0.33101500000000,RH4 1BA,2013-03-19,fhrs_exempt_en-GB,Exempt,,FHRS,
243993,St Andrews Rc School,Grange Road,,Ashtead,Pabulum,School/college/university,7845,5,,618373,5,,51.30220300000000,91612,308,EnvHealth@molevalley.gov.uk,Mole Valley,http://www.molevalley.gov.uk,-0.31599300000000,KT22 7JP,2014-11-05,fhrs_4_en-GB,4,,FHRS,10
243994,Pachesham Golf Centre,Oaklawn Road,,Leatherhead,Pachesham Golf Centre,Restaurant/Cafe/Canteen,1,0,,660421,0,,51.31096200000000,43188,308,EnvHealth@molevalley.gov.uk,Mole Valley,http://www.molevalley.gov.uk,-0.34883100000000,KT22 0BP,2014-03-19,fhrs_5_en-GB,5,,FHRS,5
243995,3 The Parade,Kingston Road,,Leatherhead,Papa Johns,Takeaway/sandwich shop,7844,10,,660533,10,,51.30221600000000,95673,308,EnvHealth@molevalley.gov.uk,Mole Valley,http://www.molevalley.gov.uk,-0.33006500000000,KT22 7SR,2014-06-18,fhrs_3_en-GB,3,,FHRS,10
243996,,42 Church Road,,Bookham,Park Corner Stores,Retailers - other,4613,,,660501,,,51.28015400000000,83841,308,EnvHealth@molevalley.gov.uk,Mole Valley,http://www.molevalley.gov.uk,-0.37522900000000,KT23 3PW,2013-04-03,fhrs_exempt_en-GB,Exempt,,FHRS,
243997,,,,,Pasturewood Pantry,Other catering premises,7841,0,,688452,0,,,84698,308,EnvHealth@molevalley.gov.uk,Mole Valley,http://www.molevalley.gov.uk,,,2012-02-21,fhrs_5_en-GB,5,,FHRS,0
243998,,,,,Patricia Talbot,Other catering premises,7841,0,,618565,5,,,92067,308,EnvHealth@molevalley.gov.uk,Mole Valley,http://www.molevalley.gov.uk,,,2013-01-29,fhrs_5_en-GB,5,,FHRS,5
243999,"Pavilion, King George V Playing Fields",Chart Gardens,,Dorking,Pavilion King George V Playing Fields,Pub/bar/nightclub,7843,5,,618680,5,,,92300,308,EnvHealth@molevalley.gov.uk,Mole Valley,http://www.molevalley.gov.uk,,,2012-08-07,fhrs_5_en-GB,5,,FHRS,5
244000,,272 High Street,,Dorking,Peking Restaurant,Restaurant/Cafe/Canteen,1,5,,667514,5,,51.23373400000000,73485,308,EnvHealth@molevalley.gov.uk,Mole Valley,http://www.molevalley.gov.uk,-0.32799100000000,RH4 1QT,2014-03-26,fhrs_5_en-GB,5,,FHRS,5
244001,Pelham Woods,Harrowlands Park,,Dorking,Pelham Woods,Hospitals/Childcare/Caring Premises,5,0,,618664,5,,51.22534100000000,92276,308,EnvHealth@molevalley.gov.uk,Mole Valley,http://www.molevalley.gov.uk,-0.32899600000000,RH4 2RA,2014-10-28,fhrs_5_en-GB,5,,FHRS,0
244002,The Penny Black (Ph),5 North Street,,Leatherhead,Penny Black,Pub/bar/nightclub,7843,5,,680271,5,,51.29554200000000,71411,308,EnvHealth@molevalley.gov.uk,Mole Valley,http://www.molevalley.gov.uk,-0.33058000000000,KT22 7AX,2013-11-26,fhrs_4_en-GB,4,,FHRS,10
244003,"Managers Rooms, The Atrium",Curtis Road,,Dorking,Peppes Cafe,Restaurant/Cafe/Canteen,1,10,,618515,10,,51.23411300000000,91968,308,EnvHealth@molevalley.gov.uk,Mole Valley,http://www.molevalley.gov.uk,-0.34195700000000,RH4 1XA,2014-02-25,fhrs_3_en-GB,3,,FHRS,10
244004,"Ground Floor, Cedar Court",Guildford Road,,Fetcham,Petrochem Carless Limited,Restaurant/Cafe/Canteen,1,5,,618312,0,,,91435,308,EnvHealth@molevalley.gov.uk,Mole Valley,http://www.molevalley.gov.uk,,KT22 9AF,2013-07-04,fhrs_5_en-GB,5,,FHRS,5
244005,B & Q Superstore,Kingston Road,,Leatherhead,Phil U Up,Takeaway/sandwich shop,7844,0,,618655,5,,51.30957200000000,92259,308,EnvHealth@molevalley.gov.uk,Mole Valley,http://www.molevalley.gov.uk,-0.33388700000000,KT22 7QB,2014-06-20,fhrs_5_en-GB,5,,FHRS,0
244006,Cygnet House,45-47 High Street,,Leatherhead,Piazza Firenze,Restaurant/Cafe/Canteen,1,0,,618381,5,,51.29561100000000,91640,308,EnvHealth@molevalley.gov.uk,Mole Valley,http://www.molevalley.gov.uk,-0.32725000000000,KT22 8AG,2013-01-29,fhrs_4_en-GB,4,,FHRS,10
244007,The Pilgrim,Station Road,,Dorking,Pilgrim,Pub/bar/nightclub,7843,5,,660404,5,,51.23616100000000,2828,308,EnvHealth@molevalley.gov.uk,Mole Valley,http://www.molevalley.gov.uk,-0.34055100000000,RH4 1HF,2013-03-21,fhrs_5_en-GB,5,,FHRS,5
244008,Boxhill And Westhumble Station,Westhumble Street,,Westhumble,Pilgrim Cycles Ltd,Takeaway/sandwich shop,7844,5,,667553,5,,51.25365900000000,87355,308,EnvHealth@molevalley.gov.uk,Mole Valley,http://www.molevalley.gov.uk,-0.32775500000000,RH5 6BT,2013-08-28,fhrs_5_en-GB,5,,FHRS,5
244009,Pinehurst (Rest Home),Old London Road,,Mickleham,Pinehurst Rest Home,Hospitals/Childcare/Caring Premises,5,0,,618475,0,,51.25818000000000,91882,308,EnvHealth@molevalley.gov.uk,Mole Valley,http://www.molevalley.gov.uk,-0.32260400000000,RH5 6BY,2015-01-28,fhrs_5_en-GB,5,,FHRS,5
244010,,235 High Street,,Dorking,Pizza Express,Restaurant/Cafe/Canteen,1,5,,667496,5,,51.23364500000000,3372,308,EnvHealth@molevalley.gov.uk,Mole Valley,http://www.molevalley.gov.uk,-0.32862400000000,RH4 1RT,2014-01-08,fhrs_5_en-GB,5,,FHRS,5
244011,,31 Archway Place,,Dorking,Pizzas Galore,Mobile caterer,7846,0,,638657,0,,51.23343100000000,95360,308,EnvHealth@molevalley.gov.uk,Mole Valley,http://www.molevalley.gov.uk,-0.33383100000000,RH4 1DR,2014-03-21,fhrs_5_en-GB,5,,FHRS,0
244012,The Plough Inn (Ph),Church Road,,Leigh,Plough,Pub/bar/nightclub,7843,5,,688443,5,,51.20857200000000,2810,308,EnvHealth@molevalley.gov.uk,Mole Valley,http://www.molevalley.gov.uk,-0.24980400000000,RH2 8NJ,2014-12-17,fhrs_4_en-GB,4,,FHRS,10
244013,Polesden Lacey House,Polesden Road,,Bookham,Polesden Lacey,Restaurant/Cafe/Canteen,1,5,,688439,10,,51.25761300000000,19239,308,EnvHealth@molevalley.gov.uk,Mole Valley,http://www.molevalley.gov.uk,-0.37354400000000,RH5 6BD,2014-05-28,fhrs_4_en-GB,4,,FHRS,5
244014,South Bookham School,Oakdene Close,,Bookham,Polesden Lacey Infant School,School/college/university,7845,0,,618131,0,,51.27268400000000,90854,308,EnvHealth@molevalley.gov.uk,Mole Valley,http://www.molevalley.gov.uk,-0.36570100000000,KT23 4PT,2013-11-27,fhrs_5_en-GB,5,,FHRS,0
244015,,207a Kingston Road,,Leatherhead,Pop in Cafe,Restaurant/Cafe/Canteen,1,5,,638654,10,,51.30693900000000,95349,308,EnvHealth@molevalley.gov.uk,Mole Valley,http://www.molevalley.gov.uk,-0.33206000000000,KT22 7PB,2014-04-14,fhrs_4_en-GB,4,,FHRS,5
244016,The Jolly Farmers,Reigate Road,,Buckland,Posh Plum,Other catering premises,7841,5,,660528,5,,51.24328300000000,86983,308,EnvHealth@molevalley.gov.uk,Mole Valley,http://www.molevalley.gov.uk,-0.23954600000000,RH3 7BG,2013-04-23,fhrs_5_en-GB,5,,FHRS,5
244017,Powell Corderoy Cp School,Longfield Road,,Dorking,Powell Corderoy School,School/college/university,7845,0,,618228,0,,51.22542600000000,91130,308,EnvHealth@molevalley.gov.uk,Mole Valley,http://www.molevalley.gov.uk,-0.34258500000000,RH4 3DF,2014-03-05,fhrs_5_en-GB,5,,FHRS,0
244018,,25 Church Street,,Leatherhead,Prezzo,Restaurant/Cafe/Canteen,1,5,,680287,5,,51.29464300000000,77608,308,EnvHealth@molevalley.gov.uk,Mole Valley,http://www.molevalley.gov.uk,-0.32870500000000,KT22 8DN,2013-02-11,fhrs_5_en-GB,5,,FHRS,5
244019,The Prince Of Wales (Ph),Guildford Road,,Westcott,Prince of Wales,Pub/bar/nightclub,7843,10,,696658,10,,51.22587500000000,96357,308,EnvHealth@molevalley.gov.uk,Mole Valley,http://www.molevalley.gov.uk,-0.36296300000000,RH4 3QE,2014-09-10,fhrs_3_en-GB,3,,FHRS,10
244020,Leatherhead Station,Station Approach,,Leatherhead,Pumpkin Cafe Shop,Restaurant/Cafe/Canteen,1,0,,680282,5,,51.29856400000000,75752,308,EnvHealth@molevalley.gov.uk,Mole Valley,http://www.molevalley.gov.uk,-0.33312400000000,KT22 7SQ,2013-02-08,fhrs_5_en-GB,5,,FHRS,5
244021,The Punchbowl Inn (Ph),Okewood Hill,,Okewood Hill,Punchbowl Inn,Pub/bar/nightclub,7843,,,680247,,,51.12475200000000,2817,308,EnvHealth@molevalley.gov.uk,Mole Valley,http://www.molevalley.gov.uk,-0.38241600000000,RH5 5PU,2014-10-28,fhrs_4_en-GB,4,,FHRS,
244022,Qetc Leatherhead Court,Woodlands Road,,Leatherhead,QEF Vocational Services,School/college/university,7845,0,,618627,0,,51.31584000000000,92184,308,EnvHealth@molevalley.gov.uk,Mole Valley,http://www.molevalley.gov.uk,-0.35551500000000,KT22 0BN,2012-12-07,fhrs_5_en-GB,5,,FHRS,0
244023,Queens Head (Ph),Horsham Road,,Dorking,Queens Head,Pub/bar/nightclub,7843,10,,660399,10,,51.22720400000000,2802,308,EnvHealth@molevalley.gov.uk,Mole Valley,http://www.molevalley.gov.uk,-0.33478700000000,RH4 2JS,2013-12-05,fhrs_3_en-GB,3,,FHRS,10
244024,,9 Grove Road,,Ashtead,Rancheros Mexican Grill,Takeaway/sandwich shop,7844,10,,618749,0,,51.30858700000000,94958,308,EnvHealth@molevalley.gov.uk,Mole Valley,http://www.molevalley.gov.uk,-0.29785400000000,KT21 1BE,2014-03-24,fhrs_4_en-GB,4,,FHRS,0
244025,,51 High Street,,Bookham,Rawlings & Kensett,Retailers - other,4613,10,,660408,5,,51.27814400000000,312,308,EnvHealth@molevalley.gov.uk,Mole Valley,http://www.molevalley.gov.uk,-0.37293400000000,KT23 4AD,2014-03-07,fhrs_4_en-GB,4,,FHRS,5
244026,,45 Dene Street,,Dorking,Red Bar & Lounge,Pub/bar/nightclub,7843,0,,618677,5,,51.23180000000000,92297,308,EnvHealth@molevalley.gov.uk,Mole Valley,http://www.molevalley.gov.uk,-0.32851900000000,RH4 2DW,2013-02-27,fhrs_5_en-GB,5,,FHRS,5
244027,Red Chilli,Horsham Road,,Mid Holmwood,Red Chilli Restaurant,Restaurant/Cafe/Canteen,1,5,,680273,5,,51.20624800000000,72172,308,EnvHealth@molevalley.gov.uk,Mole Valley,http://www.molevalley.gov.uk,-0.33142000000000,RH5 4EH,2014-05-28,fhrs_5_en-GB,5,,FHRS,5
244028,,24 High Street,,Leatherhead,Rialto Lounge,Restaurant/Cafe/Canteen,1,10,,696659,10,,51.29517000000000,96362,308,EnvHealth@molevalley.gov.uk,Mole Valley,http://www.molevalley.gov.uk,-0.32849900000000,KT22 8AN,2014-10-29,fhrs_3_en-GB,3,,FHRS,10
244029,Gadbrook Old Farm,Wellhouse Lane,,Brockham,Riot Grrrill,Mobile caterer,7846,,,729453,,,51.22344300000000,97471,308,EnvHealth@molevalley.gov.uk,Mole Valley,http://www.molevalley.gov.uk,-0.27140900000000,RH3 7HH,,fhrs_awaitinginspection_en-GB,AwaitingInspection,,FHRS,
244030,Robins Farm,Russ Hill,,Charlwood,Robins Farm Bed and Breakfast,Hotel/bed & breakfast/guest house,7842,10,,618003,5,,51.15532100000000,90046,308,EnvHealth@molevalley.gov.uk,Mole Valley,http://www.molevalley.gov.uk,-0.23042700000000,RH6 0EJ,2012-01-04,fhrs_4_en-GB,4,,FHRS,5
244031,6-7 Grove Corner,Lower Shott,,Bookham,Ron Fowler & Son,Retailers - other,4613,5,,660439,5,,51.27687200000000,612,308,EnvHealth@molevalley.gov.uk,Mole Valley,http://www.molevalley.gov.uk,-0.37330900000000,KT23 4LP,2013-07-31,fhrs_5_en-GB,5,,FHRS,0
244032,Rose Hill Nursing Home,9 Rose Hill,,Dorking,Rose Hill Nursing Home,Hospitals/Childcare/Caring Premises,5,5,,618255,5,,51.22908000000000,91193,308,EnvHealth@molevalley.gov.uk,Mole Valley,http://www.molevalley.gov.uk,-0.33141100000000,RH4 2EG,2014-03-18,fhrs_4_en-GB,4,,FHRS,10
244033,Roses Stores,Old London Road,,Mickleham,Roses Stores,Retailers - other,4613,0,,667519,5,,51.26749300000000,75931,308,EnvHealth@molevalley.gov.uk,Mole Valley,http://www.molevalley.gov.uk,-0.32420000000000,RH5 6DU,2014-01-23,fhrs_5_en-GB,5,,FHRS,5
244034,,,,,Rosie Whicher,Other catering premises,7841,10,,660483,5,,,81091,308,EnvHealth@molevalley.gov.uk,Mole Valley,http://www.molevalley.gov.uk,,,2012-01-03,fhrs_4_en-GB,4,,FHRS,5
244035,The Pharmacy,Brockham Green,,Brockham,Rowlands Pharmacy,Retailers - other,4613,,,618632,,,51.23129800000000,92196,308,EnvHealth@molevalley.gov.uk,Mole Valley,http://www.molevalley.gov.uk,-0.28641200000000,RH3 7JR,2011-10-25,fhrs_exempt_en-GB,Exempt,,FHRS,
244036,,12 North Street,,Leatherhead,Royal Chicken and Pizza,Takeaway/sandwich shop,7844,5,,680263,10,,51.29548500000000,51413,308,EnvHealth@molevalley.gov.uk,Mole Valley,http://www.molevalley.gov.uk,-0.32975000000000,KT22 7AW,2014-02-12,fhrs_4_en-GB,4,,FHRS,5
244037,The Royal Oak,12-16 High Street,,Bookham,Royal Oak,Pub/bar/nightclub,7843,5,,660476,5,,51.27842400000000,80242,308,EnvHealth@molevalley.gov.uk,Mole Valley,http://www.molevalley.gov.uk,-0.37369800000000,KT23 4AG,2014-11-05,fhrs_5_en-GB,5,,FHRS,5
244038,The Running Horses,Old London Road,,Mickleham,Running Horses,Pub/bar/nightclub,7843,20,,660402,15,,51.26749300000000,2818,308,EnvHealth@molevalley.gov.uk,Mole Valley,http://www.molevalley.gov.uk,-0.32420000000000,RH5 6DU,2014-09-23,fhrs_1_en-GB,1,,FHRS,15
244039,Rusper Golf Club,Rusper Road,,Newdigate,Rusper Golf Club,Pub/bar/nightclub,7843,5,,618447,10,,51.14456200000000,91827,308,EnvHealth@molevalley.gov.uk,Mole Valley,http://www.molevalley.gov.uk,-0.28327800000000,RH5 5BX,2014-03-13,fhrs_4_en-GB,4,,FHRS,5
244040,Rykas,Old London Road,,Mickleham,Rykas Cafe,Takeaway/sandwich shop,7844,5,,667499,5,,51.25818000000000,4010,308,EnvHealth@molevalley.gov.uk,Mole Valley,http://www.molevalley.gov.uk,-0.32260400000000,RH5 6BY,2013-06-12,fhrs_5_en-GB,5,,FHRS,0
244041,,246a Cobham Road,,Fetcham,Sainsburys Local,Retailers - supermarkets/hypermarkets,7840,0,,617967,0,,51.29626100000000,87719,308,EnvHealth@molevalley.gov.uk,Mole Valley,http://www.molevalley.gov.uk,-0.35536800000000,KT22 9JQ,2014-01-16,fhrs_5_en-GB,5,,FHRS,0
244042,,,,,Sandwich Caterers,Other catering premises,7841,0,,618342,5,,,91482,308,EnvHealth@molevalley.gov.uk,Mole Valley,http://www.molevalley.gov.uk,,,2014-01-21,fhrs_5_en-GB,5,,FHRS,0
244043,,274-276 High Street,,Dorking,Sang Thai,Restaurant/Cafe/Canteen,1,10,,660443,10,,51.23373400000000,68709,308,EnvHealth@molevalley.gov.uk,Mole Valley,http://www.molevalley.gov.uk,-0.32799100000000,RH4 1QT,2014-02-14,fhrs_3_en-GB,3,,FHRS,5
244044,,,,,Sara O'Shea,Other catering premises,7841,5,,618521,0,,,91980,308,EnvHealth@molevalley.gov.uk,Mole Valley,http://www.molevalley.gov.uk,,,2012-10-16,fhrs_5_en-GB,5,,FHRS,0
244045,,23 High Street,,Bookham,Scoffers Deli & Kitchen Ltd,Restaurant/Cafe/Canteen,1,0,,660524,0,,51.27874300000000,86367,308,EnvHealth@molevalley.gov.uk,Mole Valley,http://www.molevalley.gov.uk,-0.37334300000000,KT23 4AA,2013-03-01,fhrs_4_en-GB,4,,FHRS,10
244046,Scott Broadwood School,The Street,,Capel,Scott Broadwood C of E Infant School,School/college/university,7845,0,,618156,0,,51.15280700000000,90907,308,EnvHealth@molevalley.gov.uk,Mole Valley,http://www.molevalley.gov.uk,-0.31973500000000,RH5 5JX,2014-11-26,fhrs_5_en-GB,5,,FHRS,0
244047,Scott Broadwood School,,,Ockley,Scott-Broadwood School,School/college/university,7845,0,,618467,0,,51.14956600000000,91863,308,EnvHealth@molevalley.gov.uk,Mole Valley,http://www.molevalley.gov.uk,-0.36193200000000,RH5 5TR,2013-07-24,fhrs_5_en-GB,5,,FHRS,5
244048,,59 Dene Street,,Dorking,Sea Breeze,Takeaway/sandwich shop,7844,5,,688448,5,,51.23226900000000,76963,308,EnvHealth@molevalley.gov.uk,Mole Valley,http://www.molevalley.gov.uk,-0.32927600000000,RH4 2DP,2014-12-03,fhrs_5_en-GB,5,,FHRS,5
244049,Seeability Office,3 Wesley Road,,Leatherhead,Seeability,Hospitals/Childcare/Caring Premises,5,0,,618500,0,,51.29062300000000,91937,308,EnvHealth@molevalley.gov.uk,Mole Valley,http://www.molevalley.gov.uk,-0.31924200000000,KT22 8ET,2014-10-23,fhrs_5_en-GB,5,,FHRS,0
244050,Leatherhead Trinity School,Aperdele Road,,Leatherhead,Servery,School/college/university,7845,5,,618669,5,,,92284,308,EnvHealth@molevalley.gov.uk,Mole Valley,http://www.molevalley.gov.uk,,KT22 7PX,2014-02-18,fhrs_5_en-GB,5,,FHRS,5
244051,,Bunce Common Road,,Leigh,Seven Stars,Pub/bar/nightclub,7843,20,,705361,15,,51.21024800000000,96686,308,EnvHealth@molevalley.gov.uk,Mole Valley,http://www.molevalley.gov.uk,-0.25847400000000,RH2 8NP,2014-12-09,fhrs_1_en-GB,1,,FHRS,15
244052,,204 Barnett Wood Lane,,Ashtead,Shakespeare & Co Coffee Shop,Restaurant/Cafe/Canteen,1,5,,696653,5,,51.31346200000000,96297,308,EnvHealth@molevalley.gov.uk,Mole Valley,http://www.molevalley.gov.uk,-0.31034300000000,KT21 2DB,2014-09-30,fhrs_5_en-GB,5,,FHRS,0
244053,Shardeloes,Ashtead Woods Road,,Ashtead,Shardeloes,Hospitals/Childcare/Caring Premises,5,10,,617993,5,,51.31848700000000,90029,308,EnvHealth@molevalley.gov.uk,Mole Valley,http://www.molevalley.gov.uk,-0.31333000000000,KT21 2EQ,2011-12-06,fhrs_4_en-GB,4,,FHRS,5
244054,,9 Craddocks Parade,,Ashtead,Shehnai Indian Restaurant,Restaurant/Cafe/Canteen,1,10,,618517,10,,51.31651400000000,91971,308,EnvHealth@molevalley.gov.uk,Mole Valley,http://www.molevalley.gov.uk,-0.30440500000000,KT21 1QL,2014-03-26,fhrs_3_en-GB,3,,FHRS,5
244055,,3-7 The Street,,Ashtead,Shell Ashtead Park Filling Station,Retailers - other,4613,5,,660386,5,,51.30931100000000,17967,308,EnvHealth@molevalley.gov.uk,Mole Valley,http://www.molevalley.gov.uk,-0.30065300000000,KT21 2AD,2013-04-03,fhrs_5_en-GB,5,,FHRS,5
244056,Buckland Garage,Reigate Road,,Buckland,Shell Buckland,Retailers - other,4613,0,,660390,5,,51.24554900000000,18204,308,EnvHealth@molevalley.gov.uk,Mole Valley,http://www.molevalley.gov.uk,-0.25878800000000,RH3 7ED,2014-03-24,fhrs_5_en-GB,5,,FHRS,0
244057,Shirley Garage,Guildford Road,,Bookham,Shirley Filling Station,Retailers - other,4613,0,,660388,5,,,17971,308,EnvHealth@molevalley.gov.uk,Mole Valley,http://www.molevalley.gov.uk,,KT23 4HX,2012-03-20,fhrs_5_en-GB,5,,FHRS,0
244058,Queen Elizabeths Foundation Development Centre,Oaklawn Road,,Leatherhead,Showgreen Ltd,School/college/university,7845,0,,618022,0,,51.31439900000000,90129,308,EnvHealth@molevalley.gov.uk,Mole Valley,http://www.molevalley.gov.uk,-0.34636900000000,KT22 0BT,2013-04-26,fhrs_5_en-GB,5,,FHRS,5
244059,Silver Court,Cressall Close,,Leatherhead,Silver Court,Other catering premises,7841,0,,618589,0,,,92113,308,EnvHealth@molevalley.gov.uk,Mole Valley,http://www.molevalley.gov.uk,,,2013-08-29,fhrs_5_en-GB,5,,FHRS,0
244060,,101 The Street,,Fetcham,Sky Newsagent,Retailers - other,4613,,,660429,,,51.29615900000000,5075,308,EnvHealth@molevalley.gov.uk,Mole Valley,http://www.molevalley.gov.uk,-0.35702200000000,KT22 9RD,2014-03-04,fhrs_exempt_en-GB,Exempt,,FHRS,
244061,Zig Zags Restaurant,Boxhill Road,,Boxhill,Smith & Western,Restaurant/Cafe/Canteen,1,5,,618473,5,,51.24926700000000,91876,308,EnvHealth@molevalley.gov.uk,Mole Valley,http://www.molevalley.gov.uk,-0.31311300000000,KT20 7LB,2014-10-07,fhrs_5_en-GB,5,,FHRS,0
244062,,,,,Snack Attack,Mobile caterer,7846,20,,618670,15,,,92285,308,EnvHealth@molevalley.gov.uk,Mole Valley,http://www.molevalley.gov.uk,,,2014-01-29,fhrs_1_en-GB,1,,FHRS,0
244063,Friends Life Office (Sodexo),Pixham Lane,,Dorking,Sodexo,Other catering premises,7841,0,,680300,0,,51.24322900000000,83741,308,EnvHealth@molevalley.gov.uk,Mole Valley,http://www.molevalley.gov.uk,-0.32158600000000,RH4 1QA,2013-02-28,fhrs_5_en-GB,5,,FHRS,5
244064,"Defence Services, Headley Court",Headley Road,,Headley,Sodexo Defence,Other catering premises,7841,0,,688450,5,,,81883,308,EnvHealth@molevalley.gov.uk,Mole Valley,http://www.molevalley.gov.uk,,KT18 6JN,2014-03-06,fhrs_5_en-GB,5,,FHRS,0
244065,Alpha Bilton Centre,Springfield Drive,,Business Park 5  Research Area,Sodexo Ltd,Restaurant/Cafe/Canteen,1,0,,618560,0,,51.30403100000000,92052,308,EnvHealth@molevalley.gov.uk,Mole Valley,http://www.molevalley.gov.uk,-0.33502100000000,KT22 7NH,2013-04-30,fhrs_5_en-GB,5,,FHRS,0
244066,,,,,Soul Street Kitchen,Mobile caterer,7846,5,,688463,0,,,96235,308,EnvHealth@molevalley.gov.uk,Mole Valley,http://www.molevalley.gov.uk,,,2014-08-21,fhrs_5_en-GB,5,,FHRS,5
244067,Street Record,Southey Court,,Bookham,Southey Court,Restaurant/Cafe/Canteen,1,0,,618101,0,,,90774,308,EnvHealth@molevalley.gov.uk,Mole Valley,http://www.molevalley.gov.uk,,,2013-12-17,fhrs_5_en-GB,5,,FHRS,5
244068,Spar Stores,Brockham Green,,Brockham,Spar Foodstore,Retailers - supermarkets/hypermarkets,7840,20,,618631,10,,51.23129800000000,92195,308,EnvHealth@molevalley.gov.uk,Mole Valley,http://www.molevalley.gov.uk,-0.28641200000000,RH3 7JR,2014-11-18,fhrs_1_en-GB,1,,FHRS,5
244069,,,,,Sparkly Sprinkles,Other catering premises,7841,5,,688461,0,,,96160,308,EnvHealth@molevalley.gov.uk,Mole Valley,http://www.molevalley.gov.uk,,,2014-09-17,fhrs_5_en-GB,5,,FHRS,0
244070,Gatwick Park Hospital,Povey Cross Road,,Hookwood,Spire Gatwick Park Hospital,Hospitals/Childcare/Caring Premises,5,5,,618348,10,,51.16769400000000,91490,308,EnvHealth@molevalley.gov.uk,Mole Valley,http://www.molevalley.gov.uk,-0.18340800000000,RH6 0BB,2014-03-04,fhrs_4_en-GB,4,,FHRS,0
244071,St George's Church,Barnett Wood Lane,,Ashtead,St George's Christian Centre,Other catering premises,7841,,,617983,,,51.31421800000000,90017,308,EnvHealth@molevalley.gov.uk,Mole Valley,http://www.molevalley.gov.uk,-0.30791900000000,KT21 2DA,2014-05-20,fhrs_5_en-GB,5,,FHRS,
244072,St Giles C Of E Infant School,Dene Road,,Ashtead,St Giles C of E Infant School,School/college/university,7845,5,,618034,5,,51.30856500000000,90530,308,EnvHealth@molevalley.gov.uk,Mole Valley,http://www.molevalley.gov.uk,-0.29574500000000,KT21 1EA,2013-11-19,fhrs_5_en-GB,5,,FHRS,0
244073,"St Giles Hall, St Giles Church",Dene Road,,Ashtead,St Giles Hall,Other catering premises,7841,10,,617992,5,,51.30837600000000,90028,308,EnvHealth@molevalley.gov.uk,Mole Valley,http://www.molevalley.gov.uk,-0.29324100000000,KT21 1EJ,2013-12-23,fhrs_4_en-GB,4,,FHRS,5
244074,Redlands Junior School,Goodwyns Road,,Dorking,St Johns C of E Community Primary Sc,School/college/university,7845,5,,618193,5,,51.21666600000000,90983,308,EnvHealth@molevalley.gov.uk,Mole Valley,http://www.molevalley.gov.uk,-0.32674700000000,RH4 2LR,2014-03-06,fhrs_4_en-GB,4,,FHRS,10
244075,St Josephs Rc Primary School,Norfolk Road,,Dorking,St Josephs R C School,School/college/university,7845,5,,618234,0,,51.22902700000000,91142,308,EnvHealth@molevalley.gov.uk,Mole Valley,http://www.molevalley.gov.uk,-0.33592400000000,RH4 3JA,2013-11-28,fhrs_5_en-GB,5,,FHRS,0
244076,St Martins C Of E School,Ranmore Road,,Dorking,St Martins C of E Primary School,School/college/university,7845,0,,618247,0,,51.23647800000000,91182,308,EnvHealth@molevalley.gov.uk,Mole Valley,http://www.molevalley.gov.uk,-0.34134200000000,RH4 1HW,2014-01-28,fhrs_5_en-GB,5,,FHRS,5
244077,St Michaels Cofe Primary School,School Lane,,Mickleham,St Michaels C of E Infant School,School/college/university,7845,0,,667488,0,,51.27042800000000,19825,308,EnvHealth@molevalley.gov.uk,Mole Valley,http://www.molevalley.gov.uk,-0.32007900000000,RH5 6EW,2013-01-08,fhrs_5_en-GB,5,,FHRS,5
244078,"Church Hall, Catholic Church Of St Michael",40 Woodfield Lane,,Ashtead,St Michaels Church Hall,Other catering premises,7841,,,618585,,,51.31255100000000,92097,308,EnvHealth@molevalley.gov.uk,Mole Valley,http://www.molevalley.gov.uk,-0.30082100000000,KT21 1RS,2014-04-02,fhrs_exempt_en-GB,Exempt,,FHRS,
244079,St Paul's Church School,St Pauls Road West,,Dorking,St Paul's C of E Primary School,School/college/university,7845,5,,618498,5,,51.22746000000000,91930,308,EnvHealth@molevalley.gov.uk,Mole Valley,http://www.molevalley.gov.uk,-0.32943500000000,RH4 2HS,2014-03-25,fhrs_5_en-GB,5,,FHRS,5
244080,St Peters Rc Primary School,Grange Road,,Ashtead,St Peter's Catholic Primary School,School/college/university,7845,0,,618374,0,,51.30268800000000,91613,308,EnvHealth@molevalley.gov.uk,Mole Valley,http://www.molevalley.gov.uk,-0.31779700000000,KT22 7JN,2013-12-13,fhrs_5_en-GB,5,,FHRS,5
244081,St Johns School,Epsom Road,,Leatherhead,St. John's School,School/college/university,7845,5,,680264,5,,51.29733700000000,52872,308,EnvHealth@molevalley.gov.uk,Mole Valley,http://www.molevalley.gov.uk,-0.32281200000000,KT22 8SP,2013-02-26,fhrs_5_en-GB,5,,FHRS,5
244082,Stanecroft,Spook Hill,,North Holmwood,Stanecroft Care Home,Hospitals/Childcare/Caring Premises,5,5,,618456,5,,51.20989800000000,91840,308,EnvHealth@molevalley.gov.uk,Mole Valley,http://www.molevalley.gov.uk,-0.33075800000000,RH5 4EG,2015-01-28,fhrs_2_en-GB,2,,FHRS,15
244083,Stanhill Court Hotel,Stan Hill,,Charlwood,Stanhill Court Hotel,Restaurant/Cafe/Canteen,1,0,,680258,15,,51.16279300000000,4414,308,EnvHealth@molevalley.gov.uk,Mole Valley,http://www.molevalley.gov.uk,-0.23275800000000,RH6 0EP,2014-09-11,fhrs_2_en-GB,2,,FHRS,10
244084,Starhurst School,Chart Lane South,,North Holmwood,Starhurst School,School/college/university,7845,0,,618174,0,,51.22155300000000,90942,308,EnvHealth@molevalley.gov.uk,Mole Valley,http://www.molevalley.gov.uk,-0.31820700000000,RH5 4DA,2013-10-11,fhrs_5_en-GB,5,,FHRS,0
244085,,,,,Streateat Ltd,Mobile caterer,7846,0,,618728,0,,,92366,308,EnvHealth@molevalley.gov.uk,Mole Valley,http://www.molevalley.gov.uk,,,2013-06-17,fhrs_5_en-GB,5,,FHRS,0
244086,,9 South Street,,Dorking,Stuart Pearce,Retailers - other,4613,5,,660410,5,,51.23132400000000,316,308,EnvHealth@molevalley.gov.uk,Mole Valley,http://www.molevalley.gov.uk,-0.33297700000000,RH4 2DY,2014-01-09,fhrs_5_en-GB,5,,FHRS,5
244087,Stylehurst Farm House,Weare Street,,Capel,Stylehurst Farm B&B,Hotel/bed & breakfast/guest house,7842,0,,618159,0,,51.14598900000000,90911,308,EnvHealth@molevalley.gov.uk,Mole Valley,http://www.molevalley.gov.uk,-0.33784000000000,RH5 5JA,2015-01-14,fhrs_5_en-GB,5,,FHRS,0
244088,,182 High Street,,Dorking,Subway,Takeaway/sandwich shop,7844,0,,667518,0,,51.23314500000000,75682,308,EnvHealth@molevalley.gov.uk,Mole Valley,http://www.molevalley.gov.uk,-0.32890000000000,RH4 1QR,2013-06-20,fhrs_5_en-GB,5,,FHRS,0
244089,,16 High Street,,Leatherhead,Subway,Takeaway/sandwich shop,7844,0,,680274,0,,51.29517000000000,72827,308,EnvHealth@molevalley.gov.uk,Mole Valley,http://www.molevalley.gov.uk,-0.32849900000000,KT22 8AN,2014-02-25,fhrs_5_en-GB,5,,FHRS,0
244090,,55 High Street,,Leatherhead,Sunshine Cafe,Restaurant/Cafe/Canteen,1,20,,660540,10,,51.29561100000000,95782,308,EnvHealth@molevalley.gov.uk,Mole Valley,http://www.molevalley.gov.uk,-0.32725000000000,KT22 8AG,2014-05-06,fhrs_1_en-GB,1,,FHRS,5
244091,,245 High Street,,Dorking,Superdish,Restaurant/Cafe/Canteen,1,0,,660412,0,,51.23364500000000,3533,308,EnvHealth@molevalley.gov.uk,Mole Valley,http://www.molevalley.gov.uk,-0.32862400000000,RH4 1RT,2013-11-28,fhrs_5_en-GB,5,,FHRS,5
244092,,150-154 High Street,,Dorking,Superdrug,Retailers - other,4613,0,,618198,0,,51.23226900000000,91009,308,EnvHealth@molevalley.gov.uk,Mole Valley,http://www.molevalley.gov.uk,-0.33050700000000,RH4 1BG,2014-02-05,fhrs_5_en-GB,5,,FHRS,5
244093,,28a High Street,,Leatherhead,Superdrug Stores plc,Retailers - other,4613,0,,618530,0,,51.29516600000000,91992,308,EnvHealth@molevalley.gov.uk,Mole Valley,http://www.molevalley.gov.uk,-0.32756700000000,KT22 8AW,2012-09-24,fhrs_5_en-GB,5,,FHRS,0
244094,,2-4 Woodfield Lane,,Ashtead,Superfish,Takeaway/sandwich shop,7844,5,,680255,5,,51.31086800000000,37103,308,EnvHealth@molevalley.gov.uk,Mole Valley,http://www.molevalley.gov.uk,-0.30010800000000,KT21 2BE,2014-02-19,fhrs_5_en-GB,5,,FHRS,0
244095,April Cottage,Farmfield Drive,,Charlwood,Surrey and Borders Partnership Trust,Hospitals/Childcare/Caring Premises,5,0,,618540,0,,51.16638000000000,92014,308,EnvHealth@molevalley.gov.uk,Mole Valley,http://www.molevalley.gov.uk,-0.20198300000000,RH6 0BN,2013-10-28,fhrs_5_en-GB,5,,FHRS,0
244096,Farmfield Hospital,Farmfield Drive,,Charlwood,Surrey and Borders Partnership Trust,Hospitals/Childcare/Caring Premises,5,0,,617999,0,,51.16638000000000,90036,308,EnvHealth@molevalley.gov.uk,Mole Valley,http://www.molevalley.gov.uk,-0.20198300000000,RH6 0BN,2013-06-18,fhrs_5_en-GB,5,,FHRS,5
244097,Larkfield,Farmfield Drive,,Charlwood,Surrey and Borders Partnership Trust,Hospitals/Childcare/Caring Premises,5,0,,618000,0,,51.16638000000000,90037,308,EnvHealth@molevalley.gov.uk,Mole Valley,http://www.molevalley.gov.uk,-0.20198300000000,RH6 0BN,2014-03-06,fhrs_5_en-GB,5,,FHRS,0
244098,Rosewood,Farmfield Drive,,Charlwood,Surrey and Borders Partnership Trust,Hospitals/Childcare/Caring Premises,5,0,,618001,0,,51.16638000000000,90038,308,EnvHealth@molevalley.gov.uk,Mole Valley,http://www.molevalley.gov.uk,-0.20198300000000,RH6 0BN,2013-10-02,fhrs_5_en-GB,5,,FHRS,0
244099,Old Barn Hall,Church Road,,Bookham,Surrey Country Markets Ltd,Retailers - other,4613,0,,618357,5,,51.28046100000000,91563,308,EnvHealth@molevalley.gov.uk,Mole Valley,http://www.molevalley.gov.uk,-0.37663800000000,KT23 3PQ,2014-12-08,fhrs_5_en-GB,5,,FHRS,0
244100,Westcott School (Cofe),School Lane,,Westcott,Surrey Hills (C of E) Primary School,School/college/university,7845,0,,618486,0,,51.22491600000000,91905,308,EnvHealth@molevalley.gov.uk,Mole Valley,http://www.molevalley.gov.uk,-0.36063400000000,RH4 3QF,2014-09-12,fhrs_5_en-GB,5,,FHRS,0
244101,,7 Townfield Road,,Dorking,Surrey Hills Bakery,Mobile caterer,7846,0,,618577,0,,51.22714000000000,92088,308,EnvHealth@molevalley.gov.uk,Mole Valley,http://www.molevalley.gov.uk,-0.33411600000000,RH4 2HX,2012-03-13,fhrs_5_en-GB,5,,FHRS,5
244102,Abinger Common School,Abinger Lane,,Abinger,Surrey Hills C of E Primary School,School/college/university,7845,5,,617974,5,,51.20346000000000,90001,308,EnvHealth@molevalley.gov.uk,Mole Valley,http://www.molevalley.gov.uk,-0.40426800000000,RH5 6HZ,2014-03-05,fhrs_4_en-GB,4,,FHRS,10
244103,Surrey Hills Hotel,Horsham Road,,Beare Green,Surrey Hills Hotel,Restaurant/Cafe/Canteen,1,5,,660422,5,,51.16965900000000,4326,308,EnvHealth@molevalley.gov.uk,Mole Valley,http://www.molevalley.gov.uk,-0.31653400000000,RH5 4PG,2013-11-12,fhrs_5_en-GB,5,,FHRS,5
244104,The Surrey Oaks (Ph),Parkgate Road,,Newdigate,Surrey Oaks,Pub/bar/nightclub,7843,20,,667495,10,,51.17857100000000,3298,308,EnvHealth@molevalley.gov.uk,Mole Valley,http://www.molevalley.gov.uk,-0.27828100000000,RH5 5DZ,2013-11-20,fhrs_1_en-GB,1,,FHRS,15
244105,Store,Mill Lane,,Fetcham,Surrey Society of Model Engineers Ltd,Restaurant/Cafe/Canteen,1,0,,667557,5,,51.29423900000000,95800,308,EnvHealth@molevalley.gov.uk,Mole Valley,http://www.molevalley.gov.uk,-0.33701000000000,KT22 9AA,2014-05-07,fhrs_5_en-GB,5,,FHRS,0
244106,,87 The Street,,Fetcham,Surrey Spice,Takeaway/sandwich shop,7844,10,,660455,5,,51.29615900000000,74317,308,EnvHealth@molevalley.gov.uk,Mole Valley,http://www.molevalley.gov.uk,-0.35702200000000,KT22 9RD,2014-12-17,fhrs_4_en-GB,4,,FHRS,5
244107,The Surrey Yeoman (Ph),220-222 High Street,,Dorking,Surrey Yeoman,Pub/bar/nightclub,7843,5,,667515,5,,51.23314500000000,73901,308,EnvHealth@molevalley.gov.uk,Mole Valley,http://www.molevalley.gov.uk,-0.32890000000000,RH4 1QR,2013-12-05,fhrs_5_en-GB,5,,FHRS,5
244108,,,,,Susan Higham,Other catering premises,7841,0,,660525,0,,,86470,308,EnvHealth@molevalley.gov.uk,Mole Valley,http://www.molevalley.gov.uk,,,2013-01-31,fhrs_5_en-GB,5,,FHRS,0
244109,,46 Barn Meadow Lane,,Bookham,Susans Bed and Breakfast,Hotel/bed & breakfast/guest house,7842,10,,618616,5,,51.28384600000000,92169,308,EnvHealth@molevalley.gov.uk,Mole Valley,http://www.molevalley.gov.uk,-0.38275600000000,KT23 3HA,2013-12-06,fhrs_4_en-GB,4,,FHRS,0
244110,,297 High Street,,Dorking,Sweetiebag,Retailers - other,4613,0,,618687,0,,51.23474200000000,92312,308,EnvHealth@molevalley.gov.uk,Mole Valley,http://www.molevalley.gov.uk,-0.32677900000000,RH4 1RE,2014-08-11,fhrs_5_en-GB,5,,FHRS,0
244111,,,,,T Cakes,Other catering premises,7841,20,,618252,0,,,91190,308,EnvHealth@molevalley.gov.uk,Mole Valley,http://www.molevalley.gov.uk,,,2011-10-25,fhrs_1_en-GB,1,,FHRS,0
244112,"Galsworthy House, 5-6 New Parade",London Road,,Dorking,Tandoori Nights,Restaurant/Cafe/Canteen,1,0,,660499,5,,51.23480400000000,83554,308,EnvHealth@molevalley.gov.uk,Mole Valley,http://www.molevalley.gov.uk,-0.32669100000000,RH4 1RQ,2014-10-09,fhrs_5_en-GB,5,,FHRS,5
244113,Leith Hill Tower,Abinger Road,,Leith Hill,Tanhouse Farm Shop,Takeaway/sandwich shop,7844,5,,688460,0,,51.17337100000000,87405,308,EnvHealth@molevalley.gov.uk,Mole Valley,http://www.molevalley.gov.uk,-0.37622400000000,RH5 6LX,2013-06-04,fhrs_5_en-GB,5,,FHRS,5
244114,Tanhouse Farm,Rusper Road,,Newdigate,Tanhouse Farm Shop,Retailers - other,4613,0,,660461,0,,51.14456200000000,76702,308,EnvHealth@molevalley.gov.uk,Mole Valley,http://www.molevalley.gov.uk,-0.28327800000000,RH5 5BX,2013-10-03,fhrs_5_en-GB,5,,FHRS,5
244115,Leatherhead Leisure Centre,Guildford Road,,Fetcham,Terrace Cafe,Restaurant/Cafe/Canteen,1,,,688458,,,51.28991100000000,86356,308,EnvHealth@molevalley.gov.uk,Mole Valley,http://www.molevalley.gov.uk,-0.33426900000000,KT22 9BL,2014-09-29,fhrs_3_en-GB,3,,FHRS,
244116,,14-17 Craddocks Parade,,Ashtead,Tesco Ashtead Express,Retailers - other,4613,5,,680281,5,,51.31695000000000,75243,308,EnvHealth@molevalley.gov.uk,Mole Valley,http://www.molevalley.gov.uk,-0.30471900000000,KT21 1QJ,2014-06-26,fhrs_4_en-GB,4,,FHRS,10
244117,,Reigate Road,,Dorking,Tesco Express,Retailers - other,4613,0,,617960,5,,51.23614900000000,87422,308,EnvHealth@molevalley.gov.uk,Mole Valley,http://www.molevalley.gov.uk,-0.31892100000000,RH4 1QB,2013-11-15,fhrs_5_en-GB,5,,FHRS,5
244118,Tesco Superstore,Reigate Road,,Hookwood,Tesco Gatwick Extra Colleague Room,Restaurant/Cafe/Canteen,1,5,,711751,5,,51.16830800000000,97131,308,EnvHealth@molevalley.gov.uk,Mole Valley,http://www.molevalley.gov.uk,-0.18587300000000,RH6 0AT,2014-11-26,fhrs_5_en-GB,5,,FHRS,0
244119,Tesco Superstore,Reigate Road,,Hookwood,Tesco Gatwick Extra Customer Cafe,Restaurant/Cafe/Canteen,1,5,,711752,5,,51.16830800000000,97132,308,EnvHealth@molevalley.gov.uk,Mole Valley,http://www.molevalley.gov.uk,-0.18587300000000,RH6 0AT,2014-11-26,fhrs_5_en-GB,5,,FHRS,5
244120,Tesco Stores Ltd,Oxshott Road,,Leatherhead,Tesco Leatherhead,Retailers - supermarkets/hypermarkets,7840,0,,660380,0,,51.31231000000000,1177,308,EnvHealth@molevalley.gov.uk,Mole Valley,http://www.molevalley.gov.uk,-0.33605500000000,KT22 0EF,2014-10-15,fhrs_5_en-GB,5,,FHRS,0
244121,Tesco Superstore,Reigate Road,,Hookwood,Tesco Stores Limited,Retailers - supermarkets/hypermarkets,7840,0,,688438,0,,51.16830800000000,1178,308,EnvHealth@molevalley.gov.uk,Mole Valley,http://www.molevalley.gov.uk,-0.18587300000000,RH6 0AT,2014-01-29,fhrs_5_en-GB,5,,FHRS,0
244122,,36-38 High Street,,Leatherhead,Thai Pinto Restaurants Ltd,Restaurant/Cafe/Canteen,1,0,,680295,10,,51.29537200000000,80985,308,EnvHealth@molevalley.gov.uk,Mole Valley,http://www.molevalley.gov.uk,-0.32687100000000,KT22 8AJ,2013-02-26,fhrs_4_en-GB,4,,FHRS,5
244123,Abinger Hatch Hotel,Abinger Lane,,Abinger,The Abinger Hatch,Pub/bar/nightclub,7843,5,,660489,10,,51.20346000000000,82901,308,EnvHealth@molevalley.gov.uk,Mole Valley,http://www.molevalley.gov.uk,-0.40426800000000,RH5 6HZ,2014-05-27,fhrs_4_en-GB,4,,FHRS,5
244124,The Anchor (Ph),161 Lower Road,,Bookham,The Anchor,Pub/bar/nightclub,7843,10,,660486,10,,51.28254300000000,81428,308,EnvHealth@molevalley.gov.uk,Mole Valley,http://www.molevalley.gov.uk,-0.36598200000000,KT23 4AH,2013-12-10,fhrs_3_en-GB,3,,FHRS,10
244125,,76 The Street,,Ashtead,The Bakery,Retailers - other,4613,5,,660495,5,,51.30983500000000,83200,308,EnvHealth@molevalley.gov.uk,Mole Valley,http://www.molevalley.gov.uk,-0.29836700000000,KT21 1AW,2013-02-07,fhrs_5_en-GB,5,,FHRS,5
244126,,58 High Street,,Dorking,The Bakery,Retailers - other,4613,5,,660496,5,,51.23173900000000,83201,308,EnvHealth@molevalley.gov.uk,Mole Valley,http://www.molevalley.gov.uk,-0.33181600000000,RH4 1AY,2015-01-13,fhrs_4_en-GB,4,,FHRS,10
244127,,216 Cobham Road,,Fetcham,The Bakery Shop,Retailers - other,4613,10,,660494,15,,51.29626100000000,83194,308,EnvHealth@molevalley.gov.uk,Mole Valley,http://www.molevalley.gov.uk,-0.35536800000000,KT22 9JQ,2014-01-20,fhrs_2_en-GB,2,,FHRS,10
244128,,33 High Street,,Bookham,The Bakery Shops Ltd,Other catering premises,7841,10,,618110,10,,51.27874300000000,90814,308,EnvHealth@molevalley.gov.uk,Mole Valley,http://www.molevalley.gov.uk,-0.37334300000000,KT23 4AA,2014-01-28,fhrs_3_en-GB,3,,FHRS,10
244129,,1-5 Rectory Lane,,Ashtead,The Balti House,Restaurant/Cafe/Canteen,1,10,,618040,15,,51.30821700000000,90541,308,EnvHealth@molevalley.gov.uk,Mole Valley,http://www.molevalley.gov.uk,-0.29967500000000,KT21 2BA,2013-12-04,fhrs_2_en-GB,2,,FHRS,10
244130,The Beeches Care Home,Fortyfoot Road,,Leatherhead,The Beeches,Hospitals/Childcare/Caring Premises,5,5,,618370,10,,51.29683900000000,91608,308,EnvHealth@molevalley.gov.uk,Mole Valley,http://www.molevalley.gov.uk,-0.31940200000000,KT22 8RZ,2015-01-22,fhrs_4_en-GB,4,,FHRS,5
244131,The Bell (Ph),Bell Lane,,Fetcham,The Bell,Pub/bar/nightclub,7843,5,,618501,5,,51.29033700000000,91940,308,EnvHealth@molevalley.gov.uk,Mole Valley,http://www.molevalley.gov.uk,-0.35613900000000,KT22 9ND,2014-01-09,fhrs_5_en-GB,5,,FHRS,5
244132,,,,,The Blue Moon Cake Company,Other catering premises,7841,0,,667566,0,,,95948,308,EnvHealth@molevalley.gov.uk,Mole Valley,http://www.molevalley.gov.uk,,,2014-06-25,fhrs_5_en-GB,5,,FHRS,0
244133,Old Barn Hall,Church Road,,Bookham,The Bookham & Horsley Rotary Club,Pub/bar/nightclub,7843,5,,618526,5,,51.28046100000000,91986,308,EnvHealth@molevalley.gov.uk,Mole Valley,http://www.molevalley.gov.uk,-0.37663800000000,KT23 3PQ,2013-04-03,fhrs_5_en-GB,5,,FHRS,0
244134,The Box Tree Cafe,Boxhill Road,,Boxhill,The Box Tree Cafe,Takeaway/sandwich shop,7844,0,,680305,5,,51.24926700000000,87318,308,EnvHealth@molevalley.gov.uk,Mole Valley,http://www.molevalley.gov.uk,-0.31311300000000,KT20 7LB,2014-11-12,fhrs_5_en-GB,5,,FHRS,5
244135,The Brewery Inn (Ph),15 The Street,,Ashtead,The Brewery Inn,Pub/bar/nightclub,7843,5,,660447,5,,51.30931100000000,71633,308,EnvHealth@molevalley.gov.uk,Mole Valley,http://www.molevalley.gov.uk,-0.30065300000000,KT21 2AD,2014-03-17,fhrs_4_en-GB,4,,FHRS,10
244136,The Bridge Youth Centre,Kingston Road,,Leatherhead,The Bridge Youth Centre,Restaurant/Cafe/Canteen,1,0,,618587,5,,51.30764900000000,92100,308,EnvHealth@molevalley.gov.uk,Mole Valley,http://www.molevalley.gov.uk,-0.32955300000000,KT22 7RB,2014-02-27,fhrs_4_en-GB,4,,FHRS,10
244137,Bulls Head (Ph),11 South Street,,Dorking,The Bulls Head,Pub/bar/nightclub,7843,0,,623689,0,,51.23132400000000,95189,308,EnvHealth@molevalley.gov.uk,Mole Valley,http://www.molevalley.gov.uk,-0.33297700000000,RH4 2DY,2013-01-08,fhrs_5_en-GB,5,,FHRS,0
244138,The Parrot Inn (Ph),Horsham Road,,Forest Green,The Butchers Hall Country Grocer,Retailers - other,4613,10,,688459,15,,51.15779300000000,86368,308,EnvHealth@molevalley.gov.uk,Mole Valley,http://www.molevalley.gov.uk,-0.39427500000000,RH5 5RZ,2014-08-15,fhrs_2_en-GB,2,,FHRS,5
244139,,,,,The Cake House,Other catering premises,7841,5,,660468,5,,,78368,308,EnvHealth@molevalley.gov.uk,Mole Valley,http://www.molevalley.gov.uk,,,2013-08-02,fhrs_5_en-GB,5,,FHRS,5
244140,,38 Stonny Croft,,Ashtead,The Candy Store,Retailers - other,4613,,,660514,,,51.31457500000000,85263,308,EnvHealth@molevalley.gov.uk,Mole Valley,http://www.molevalley.gov.uk,-0.29596700000000,KT21 1SH,2013-02-27,fhrs_exempt_en-GB,Exempt,,FHRS,
244141,,,,,The Chimney Cake House,Mobile caterer,7846,5,,618642,0,,,92220,308,EnvHealth@molevalley.gov.uk,Mole Valley,http://www.molevalley.gov.uk,,,2013-01-24,fhrs_5_en-GB,5,,FHRS,0
244142,The Leatherhead Theatre,7 Church Street,,Leatherhead,The Circle Cafe,Restaurant/Cafe/Canteen,1,10,,618662,5,,51.29464300000000,92274,308,EnvHealth@molevalley.gov.uk,Mole Valley,http://www.molevalley.gov.uk,-0.32870500000000,KT22 8DN,2012-02-07,fhrs_4_en-GB,4,,FHRS,5
244143,3 Old Kings Head Court,11 High Street,,Dorking,The Courtyard Cafe Bar,Restaurant/Cafe/Canteen,1,5,,667533,5,,51.23179800000000,80590,308,EnvHealth@molevalley.gov.uk,Mole Valley,http://www.molevalley.gov.uk,-0.33283000000000,RH4 1AR,2014-01-30,fhrs_4_en-GB,4,,FHRS,10
244144,,24 Church Road,,Bookham,The Cova Coffee House,Restaurant/Cafe/Canteen,1,0,,696654,5,,51.28015400000000,96301,308,EnvHealth@molevalley.gov.uk,Mole Valley,http://www.molevalley.gov.uk,-0.37522900000000,KT23 3PW,2014-09-23,fhrs_5_en-GB,5,,FHRS,0
244145,The Cricketers (Ph),81 South Street,,Dorking,The Cricketers,Pub/bar/nightclub,7843,5,,667527,5,,51.22831500000000,78981,308,EnvHealth@molevalley.gov.uk,Mole Valley,http://www.molevalley.gov.uk,-0.33448900000000,RH4 2JU,2014-01-13,fhrs_5_en-GB,5,,FHRS,5
244146,The Cricketers Arms (Ph),Stane Street,,Ockley,The Cricketers Arms,Pub/bar/nightclub,7843,0,,660403,0,,51.14487700000000,2824,308,EnvHealth@molevalley.gov.uk,Mole Valley,http://www.molevalley.gov.uk,-0.36422800000000,RH5 5TP,2014-06-23,fhrs_4_en-GB,4,,FHRS,10
244147,The Crown Inn (Ph),98 The Street,,Capel,The Crown,Pub/bar/nightclub,7843,5,,667528,5,,51.15269800000000,79123,308,EnvHealth@molevalley.gov.uk,Mole Valley,http://www.molevalley.gov.uk,-0.32028200000000,RH5 5JY,2013-11-12,fhrs_4_en-GB,4,,FHRS,10
244148,The Dolphin Inn (Ph),The Street,,Betchworth,The Dolphin,Pub/bar/nightclub,7843,0,,660405,5,,51.23356000000000,2835,308,EnvHealth@molevalley.gov.uk,Mole Valley,http://www.molevalley.gov.uk,-0.26657500000000,RH3 7DW,2013-03-21,fhrs_5_en-GB,5,,FHRS,5
244149,,,,,The Dorking Cake Cupboard,Other catering premises,7841,5,,660520,0,,,85495,308,EnvHealth@molevalley.gov.uk,Mole Valley,http://www.molevalley.gov.uk,,,2012-07-18,fhrs_5_en-GB,5,,FHRS,5
244150,,37 West Street,,Dorking,The Dorking Deli,Takeaway/sandwich shop,7844,5,,618293,5,,51.23188000000000,91367,308,EnvHealth@molevalley.gov.uk,Mole Valley,http://www.molevalley.gov.uk,-0.33603600000000,RH4 1BU,2013-03-21,fhrs_5_en-GB,5,,FHRS,5
244151,The Dukes Head,Horsham Road,,Beare Green,The Dukes Head,Restaurant/Cafe/Canteen,1,0,,680302,0,,51.17500400000000,86074,308,EnvHealth@molevalley.gov.uk,Mole Valley,http://www.molevalley.gov.uk,-0.31556700000000,RH5 4QP,2013-01-15,fhrs_4_en-GB,4,,FHRS,10
244152,The Dukes Head (Ph),57 High Street,,Leatherhead,The Dukes Head,Pub/bar/nightclub,7843,10,,680246,15,,51.29561100000000,2798,308,EnvHealth@molevalley.gov.uk,Mole Valley,http://www.molevalley.gov.uk,-0.32725000000000,KT22 8AG,2014-07-29,fhrs_2_en-GB,2,,FHRS,15
244153,,11 West Street,,Dorking,The Fig Tree Coffee Lounge & Tea Roo,Restaurant/Cafe/Canteen,1,5,,618289,5,,51.23159500000000,91354,308,EnvHealth@molevalley.gov.uk,Mole Valley,http://www.molevalley.gov.uk,-0.33432700000000,RH4 1BL,2015-01-13,fhrs_4_en-GB,4,,FHRS,10
244154,The Flower Box,Stane Street,,Ockley,The Flower Box,Restaurant/Cafe/Canteen,1,5,,618726,5,,51.14893600000000,92363,308,EnvHealth@molevalley.gov.uk,Mole Valley,http://www.molevalley.gov.uk,-0.36062500000000,RH5 5TD,2013-04-26,fhrs_5_en-GB,5,,FHRS,5
244155,The Fox Revived (Ph),Norwood Hill,,Charlwood,The Fox Revived,Restaurant/Cafe/Canteen,1,0,,680293,5,,51.17410500000000,80578,308,EnvHealth@molevalley.gov.uk,Mole Valley,http://www.molevalley.gov.uk,-0.23143900000000,RH6 0ET,2013-05-15,fhrs_5_en-GB,5,,FHRS,5
244156,9 Grove Corner,Lower Shott,,Bookham,The Fruit Grove,Retailers - other,4613,0,,680297,0,,51.27687200000000,815,308,EnvHealth@molevalley.gov.uk,Mole Valley,http://www.molevalley.gov.uk,-0.37330900000000,KT23 4LP,2014-08-28,fhrs_5_en-GB,5,,FHRS,0
244157,The Garth Nursing Home,Tower Hill Road,,Dorking,The Garth Nursing Home,Hospitals/Childcare/Caring Premises,5,0,,618644,5,,51.22260400000000,92233,308,EnvHealth@molevalley.gov.uk,Mole Valley,http://www.molevalley.gov.uk,-0.33065700000000,RH4 2AY,2014-01-14,fhrs_5_en-GB,5,,FHRS,5
244158,,4 Ranmore Road,,Dorking,The Golden Palace,Takeaway/sandwich shop,7844,20,,618245,15,,51.23585700000000,91178,308,EnvHealth@molevalley.gov.uk,Mole Valley,http://www.molevalley.gov.uk,-0.33683800000000,RH4 1HD,2014-05-20,fhrs_1_en-GB,1,,FHRS,10
244159,The Mayflower Day Centre,Lyons Court,,Dorking,The Grange,Restaurant/Cafe/Canteen,1,0,,638649,0,,51.23172400000000,92354,308,EnvHealth@molevalley.gov.uk,Mole Valley,http://www.molevalley.gov.uk,-0.33077100000000,RH4 1AB,2013-11-29,fhrs_5_en-GB,5,,FHRS,0
244160,The Greyhound (Ph),12 The Street,,Charlwood,The Greyhound Public House,Pub/bar/nightclub,7843,,,618006,,,51.15441400000000,90049,308,EnvHealth@molevalley.gov.uk,Mole Valley,http://www.molevalley.gov.uk,-0.22042300000000,RH6 0BY,2013-08-27,fhrs_3_en-GB,3,,FHRS,
244161,The Half Moon (Ph),73 The Street,,Charlwood,The Half Moon,Takeaway/sandwich shop,7844,5,,680306,5,,51.15564300000000,87367,308,EnvHealth@molevalley.gov.uk,Mole Valley,http://www.molevalley.gov.uk,-0.22552400000000,RH6 0DS,2013-07-08,fhrs_5_en-GB,5,,FHRS,0
244162,,,,,The Hand Painted Cake,Other catering premises,7841,0,,638661,0,,,95366,308,EnvHealth@molevalley.gov.uk,Mole Valley,http://www.molevalley.gov.uk,,,2014-05-21,fhrs_5_en-GB,5,,FHRS,0
244163,The Inn On The Green (Ph),Stane Street,,Ockley,The Inn on the Green,Pub/bar/nightclub,7843,0,,688446,5,,51.14893600000000,72390,308,EnvHealth@molevalley.gov.uk,Mole Valley,http://www.molevalley.gov.uk,-0.36062500000000,RH5 5TD,2014-11-13,fhrs_5_en-GB,5,,FHRS,5
244164,,6 Ranmore Road,,Dorking,The Jam Pot,Restaurant/Cafe/Canteen,1,10,,660521,10,,51.23585700000000,85579,308,EnvHealth@molevalley.gov.uk,Mole Valley,http://www.molevalley.gov.uk,-0.33683800000000,RH4 1HD,2013-11-20,fhrs_2_en-GB,2,,FHRS,15
244165,,,,,The Joyful Cook,Other catering premises,7841,10,,618497,5,,,91929,308,EnvHealth@molevalley.gov.uk,Mole Valley,http://www.molevalley.gov.uk,,,2014-02-21,fhrs_4_en-GB,4,,FHRS,5
244166,King William Iv (Ph),Byttom Hill,,Mickleham,The King William IV,Pub/bar/nightclub,7843,,,667492,,,51.27176100000000,2812,308,EnvHealth@molevalley.gov.uk,Mole Valley,http://www.molevalley.gov.uk,-0.31960000000000,RH5 6EL,2014-12-15,fhrs_4_en-GB,4,,FHRS,
244167,The Kings Arms (Ph),45 West Street,,Dorking,The Kings Arms,Pub/bar/nightclub,7843,10,,617958,5,,51.23188000000000,87320,308,EnvHealth@molevalley.gov.uk,Mole Valley,http://www.molevalley.gov.uk,-0.33603600000000,RH4 1BU,2013-11-06,fhrs_4_en-GB,4,,FHRS,5
244168,,39 Bridge Street,,Leatherhead,The Lantern House,Takeaway/sandwich shop,7844,10,,680256,5,,51.29458100000000,4073,308,EnvHealth@molevalley.gov.uk,Mole Valley,http://www.molevalley.gov.uk,-0.33127500000000,KT22 8BN,2013-11-13,fhrs_4_en-GB,4,,FHRS,5
244169,"Ground Floor Studio, Leatherhead Club House",23 The Crescent,,Leatherhead,The Leatherhead Clubhouse,Restaurant/Cafe/Canteen,1,0,,618413,0,,51.29062300000000,91765,308,EnvHealth@molevalley.gov.uk,Mole Valley,http://www.molevalley.gov.uk,-0.31924200000000,KT22 8ET,2015-01-29,fhrs_5_en-GB,5,,FHRS,0
244170,"Caretakers Quarters, Leatherhead Institute",67 High Street,,Leatherhead,The Leatherhead Institute Caretaker's Quarters,Other catering premises,7841,5,,618386,5,,51.29577000000000,91652,308,EnvHealth@molevalley.gov.uk,Mole Valley,http://www.molevalley.gov.uk,-0.32766000000000,KT22 8AH,2014-11-27,fhrs_5_en-GB,5,,FHRS,5
244171,,209 Kingston Road,,Leatherhead,The Lemon Plaice,Takeaway/sandwich shop,7844,5,,618392,5,,51.30693900000000,91675,308,EnvHealth@molevalley.gov.uk,Mole Valley,http://www.molevalley.gov.uk,-0.33206000000000,KT22 7PB,2013-07-10,fhrs_5_en-GB,5,,FHRS,5
244172,The Lincoln Arms Hotel,Station Approach,,Dorking,The Lincoln Arms Hotel,Restaurant/Cafe/Canteen,1,20,,667510,10,,51.24060300000000,70943,308,EnvHealth@molevalley.gov.uk,Mole Valley,http://www.molevalley.gov.uk,-0.32406000000000,RH4 1TF,2014-03-19,fhrs_1_en-GB,1,,FHRS,10
244173,,,,,The Little Mixing Factory,Mobile caterer,7846,0,,660457,0,,,75329,308,EnvHealth@molevalley.gov.uk,Mole Valley,http://www.molevalley.gov.uk,,,2015-01-06,fhrs_5_en-GB,5,,FHRS,0
244174,1 The Circus,Kingston Road,,Leatherhead,The Lunch Box,Takeaway/sandwich shop,7844,,,660416,,,51.30327600000000,4069,308,EnvHealth@molevalley.gov.uk,Mole Valley,http://www.molevalley.gov.uk,-0.32873600000000,KT22 7BZ,2014-05-13,fhrs_5_en-GB,5,,FHRS,
244175,,,,,The Meadow Kitchen,Other catering premises,7841,0,,660513,5,,,85225,308,EnvHealth@molevalley.gov.uk,Mole Valley,http://www.molevalley.gov.uk,,,2012-09-07,fhrs_5_en-GB,5,,FHRS,0
244176,Bookham Baptist Church,Lower Road,,Bookham,The Meeting Place - Bookham,Other catering premises,7841,0,,618124,5,,51.27830500000000,90843,308,EnvHealth@molevalley.gov.uk,Mole Valley,http://www.molevalley.gov.uk,-0.37680000000000,KT23 4DH,2012-05-17,fhrs_5_en-GB,5,,FHRS,5
244177,,16 West Street,,Dorking,The New Fountain Garden,Restaurant/Cafe/Canteen,1,5,,660488,10,,51.23159500000000,82305,308,EnvHealth@molevalley.gov.uk,Mole Valley,http://www.molevalley.gov.uk,-0.33432700000000,RH4 1BL,2014-05-02,fhrs_4_en-GB,4,,FHRS,5
244178,The Old Crown,1 High Street,,Bookham,The Old Crown,Pub/bar/nightclub,7843,5,,660398,5,,51.27874300000000,2799,308,EnvHealth@molevalley.gov.uk,Mole Valley,http://www.molevalley.gov.uk,-0.37334300000000,KT23 4AA,2014-03-25,fhrs_4_en-GB,4,,FHRS,10
244179,,222 Kingston Road,,Leatherhead,The Olive,Restaurant/Cafe/Canteen,1,0,,618750,5,,51.30904500000000,95040,308,EnvHealth@molevalley.gov.uk,Mole Valley,http://www.molevalley.gov.uk,-0.33218500000000,KT22 7PZ,2015-01-06,fhrs_5_en-GB,5,,FHRS,5
244180,,145 High Street,,Dorking,The Original Factory Shop,Retailers - other,4613,,,618676,,,,92295,308,EnvHealth@molevalley.gov.uk,Mole Valley,http://www.molevalley.gov.uk,,RH4 1AG,2013-12-02,fhrs_exempt_en-GB,Exempt,,FHRS,
244181,The Pantiles,67 Harriotts Lane,,Ashtead,The Pantiles Care Home Ltd,Hospitals/Childcare/Caring Premises,5,5,,618035,5,,51.30466300000000,90535,308,EnvHealth@molevalley.gov.uk,Mole Valley,http://www.molevalley.gov.uk,-0.31382300000000,KT21 2QE,2014-03-11,fhrs_4_en-GB,4,,FHRS,10
244182,The Parrot Inn (Ph),Horsham Road,,Forest Green,The Parrot,Pub/bar/nightclub,7843,10,,688447,5,,51.15779300000000,75491,308,EnvHealth@molevalley.gov.uk,Mole Valley,http://www.molevalley.gov.uk,-0.39427500000000,RH5 5RZ,2013-07-18,fhrs_4_en-GB,4,,FHRS,5
244183,,,,,The Piping Bag,Other catering premises,7841,0,,660477,0,,,80672,308,EnvHealth@molevalley.gov.uk,Mole Valley,http://www.molevalley.gov.uk,,,2013-02-12,fhrs_5_en-GB,5,,FHRS,5
244184,The Plough (Ph),93 Kingston Road,,Leatherhead,The Plough,Pub/bar/nightclub,7843,5,,660481,0,,51.30297000000000,81088,308,EnvHealth@molevalley.gov.uk,Mole Valley,http://www.molevalley.gov.uk,-0.32998100000000,KT22 7SP,2014-02-04,fhrs_5_en-GB,5,,FHRS,0
244185,The Plough Inn (Ph),Abinger Road,,Coldharbour,The Plough Inn,Pub/bar/nightclub,7843,10,,688442,5,,51.18443000000000,2789,308,EnvHealth@molevalley.gov.uk,Mole Valley,http://www.molevalley.gov.uk,-0.35352800000000,RH5 6HD,2014-01-14,fhrs_3_en-GB,3,,FHRS,10
244186,Prince Of Wales (Ph),55 Hampstead Road,,Dorking,The Prince of Wales,Pub/bar/nightclub,7843,5,,667491,10,,51.22469000000000,2796,308,EnvHealth@molevalley.gov.uk,Mole Valley,http://www.molevalley.gov.uk,-0.33381800000000,RH4 3AH,2014-09-30,fhrs_3_en-GB,3,,FHRS,10
244187,The Priory School,West Bank,,Dorking,The Priory School,School/college/university,7845,0,,667506,0,,51.22705900000000,50744,308,EnvHealth@molevalley.gov.uk,Mole Valley,http://www.molevalley.gov.uk,-0.34168100000000,RH4 3DG,2013-05-07,fhrs_5_en-GB,5,,FHRS,0
244188,,,,,The Quinnell School of Blacksmithing,Other catering premises,7841,5,,618362,0,,,91595,308,EnvHealth@molevalley.gov.uk,Mole Valley,http://www.molevalley.gov.uk,,,2014-01-31,fhrs_5_en-GB,5,,FHRS,5
244189,,,,,The Rather Tasty Tea People,Mobile caterer,7846,0,,638665,0,,,95577,308,EnvHealth@molevalley.gov.uk,Mole Valley,http://www.molevalley.gov.uk,,,2014-04-25,fhrs_5_en-GB,5,,FHRS,0
244190,The Red House,43 Skinners Lane,,Ashtead,The Red House Care Home,Hospitals/Childcare/Caring Premises,5,0,,618045,5,,51.30870200000000,90547,308,EnvHealth@molevalley.gov.uk,Mole Valley,http://www.molevalley.gov.uk,-0.30832300000000,KT21 2NN,2013-12-03,fhrs_5_en-GB,5,,FHRS,5
244191,The Red Lion (Ph),Old Road,,Buckland,The Red Lion,Pub/bar/nightclub,7843,0,,660469,0,,51.24003000000000,78484,308,EnvHealth@molevalley.gov.uk,Mole Valley,http://www.molevalley.gov.uk,-0.26316600000000,RH3 7DS,2014-01-07,fhrs_5_en-GB,5,,FHRS,5
244192,,45 South Street,,Dorking,The Roast Office,Takeaway/sandwich shop,7844,0,,618696,0,,51.22962600000000,92326,308,EnvHealth@molevalley.gov.uk,Mole Valley,http://www.molevalley.gov.uk,-0.33437000000000,RH4 2JX,2013-03-07,fhrs_5_en-GB,5,,FHRS,5
244193,Royal Oak (Ph),265 Kingston Road,,Leatherhead,The Royal Oak,Pub/bar/nightclub,7843,5,,660400,5,,51.30921600000000,2806,308,EnvHealth@molevalley.gov.uk,Mole Valley,http://www.molevalley.gov.uk,-0.33282400000000,KT22 7PJ,2013-01-10,fhrs_5_en-GB,5,,FHRS,5
244194,The Royal Oak (Ph),Brockham Green,,Brockham,The Royal Oak,Pub/bar/nightclub,7843,20,,667536,10,,51.23296900000000,81016,308,EnvHealth@molevalley.gov.uk,Mole Valley,http://www.molevalley.gov.uk,-0.28567700000000,RH3 7JS,2014-05-08,fhrs_1_en-GB,1,,FHRS,10
244195,The Royal Oak (Ph),Chart Lane South,,North Holmwood,The Royal Oak,Restaurant/Cafe/Canteen,1,5,,667545,5,,51.21852700000000,84685,308,EnvHealth@molevalley.gov.uk,Mole Valley,http://www.molevalley.gov.uk,-0.31539600000000,RH5 4DJ,2013-11-12,fhrs_4_en-GB,4,,FHRS,10
244196,The Running Horse (Ph),38 Bridge Street,,Leatherhead,The Running Horse,Restaurant/Cafe/Canteen,1,5,,680303,5,,51.29487200000000,86158,308,EnvHealth@molevalley.gov.uk,Mole Valley,http://www.molevalley.gov.uk,-0.33150800000000,KT22 8BZ,2015-01-20,fhrs_5_en-GB,5,,FHRS,5
244197,Russ Hill Hotel,Russ Hill,,Charlwood,The Russ Hill Hotel,Hotel/bed & breakfast/guest house,7842,,,638652,,,51.14921000000000,95270,308,EnvHealth@molevalley.gov.uk,Mole Valley,http://www.molevalley.gov.uk,-0.23906800000000,RH6 0EL,2014-08-05,fhrs_4_en-GB,4,,FHRS,
244198,Dorking Rugby Football Club,Kiln Lane,,Brockham,The Scallywag Club,Other catering premises,7841,5,,618138,10,,51.23508000000000,90868,308,EnvHealth@molevalley.gov.uk,Mole Valley,http://www.molevalley.gov.uk,-0.28546900000000,RH3 7LZ,2014-06-16,fhrs_4_en-GB,4,,FHRS,5
244199,The Scarlett Arms (Ph),Walliswood Green Road,,Wallis Wood,The Scarlett Arms,Pub/bar/nightclub,7843,5,,660470,5,,51.13296900000000,78856,308,EnvHealth@molevalley.gov.uk,Mole Valley,http://www.molevalley.gov.uk,-0.40186800000000,RH5 5RD,2013-01-16,fhrs_5_en-GB,5,,FHRS,5
244200,,1 Tynedale Road,,Strood Green,The Shop at Strood Green,Restaurant/Cafe/Canteen,1,5,,618469,5,,51.21972000000000,91867,308,EnvHealth@molevalley.gov.uk,Mole Valley,http://www.molevalley.gov.uk,-0.28360600000000,RH3 7JD,2012-08-06,fhrs_5_en-GB,5,,FHRS,5
244201,Six Bells,Village Street,,Newdigate,The Six Bells,Pub/bar/nightclub,7843,0,,667552,0,,51.16568900000000,86988,308,EnvHealth@molevalley.gov.uk,Mole Valley,http://www.molevalley.gov.uk,-0.28960300000000,RH5 5DH,2014-03-05,fhrs_5_en-GB,5,,FHRS,5
244202,,43 South Street,,Dorking,The South Street Wine Bar,Restaurant/Cafe/Canteen,1,0,,667525,0,,51.22962600000000,77849,308,EnvHealth@molevalley.gov.uk,Mole Valley,http://www.molevalley.gov.uk,-0.33437000000000,RH4 2JX,2013-10-30,fhrs_5_en-GB,5,,FHRS,0
244203,The Spotted Dog (Ph),42-46 South Street,,Dorking,The Spotted Dog,Restaurant/Cafe/Canteen,1,10,,667529,10,,51.23123700000000,80207,308,EnvHealth@molevalley.gov.uk,Mole Valley,http://www.molevalley.gov.uk,-0.33388200000000,RH4 2HQ,2014-01-06,fhrs_2_en-GB,2,,FHRS,15
244204,The Star (Ph),36 West Street,,Dorking,The Star,Pub/bar/nightclub,7843,0,,660393,0,,51.23188000000000,2774,308,EnvHealth@molevalley.gov.uk,Mole Valley,http://www.molevalley.gov.uk,-0.33603600000000,RH4 1BU,2014-02-03,fhrs_5_en-GB,5,,FHRS,0
244205,Stephen Langton Inn (Ph),Friday Street Road,,Abinger,The Stephan Langton,Pub/bar/nightclub,7843,10,,617975,0,,51.20038500000000,90002,308,EnvHealth@molevalley.gov.uk,Mole Valley,http://www.molevalley.gov.uk,-0.38724100000000,RH5 6JR,2013-12-18,fhrs_4_en-GB,4,,FHRS,10
244206,,4 Friday Street Road,,Abinger,The Stephan Langton Inn,Pub/bar/nightclub,7843,,,729450,,,51.20038500000000,80812,308,EnvHealth@molevalley.gov.uk,Mole Valley,http://www.molevalley.gov.uk,-0.38724100000000,RH5 6JR,,fhrs_awaitinginspection_en-GB,AwaitingInspection,,FHRS,
244207,The Stepping Stones (Ph),Westhumble Street,,Westhumble,The Stepping Stones,Pub/bar/nightclub,7843,5,,667546,10,,51.25329800000000,84994,308,EnvHealth@molevalley.gov.uk,Mole Valley,http://www.molevalley.gov.uk,-0.32455800000000,RH5 6BS,2014-12-04,fhrs_3_en-GB,3,,FHRS,10
244208,,41 Church Road,,Bookham,The Sultan Grill,Restaurant/Cafe/Canteen,1,,,696660,,,51.27973500000000,96385,308,EnvHealth@molevalley.gov.uk,Mole Valley,http://www.molevalley.gov.uk,-0.37547300000000,KT23 3PG,,fhrs_awaitinginspection_en-GB,AwaitingInspection,,FHRS,
244209,"Unit 2, Tanners Court",Tanners Meadow,,Strood Green,The Surrey Gourmet,Retailers - other,4613,0,,680269,0,,51.22131500000000,67555,308,EnvHealth@molevalley.gov.uk,Mole Valley,http://www.molevalley.gov.uk,-0.28265800000000,RH3 7NH,2014-03-19,fhrs_5_en-GB,5,,FHRS,0
244210,,,,,The Surrey Kitchen,Other catering premises,7841,,,688462,,,,96191,308,EnvHealth@molevalley.gov.uk,Mole Valley,http://www.molevalley.gov.uk,,,,fhrs_awaitinginspection_en-GB,AwaitingInspection,,FHRS,
244211,Leatherhead Golf Club,Kingston Road,,Leatherhead,The Tee House,Restaurant/Cafe/Canteen,1,10,,618657,5,,51.32091000000000,92263,308,EnvHealth@molevalley.gov.uk,Mole Valley,http://www.molevalley.gov.uk,-0.33059200000000,KT22 0EE,2014-03-14,fhrs_4_en-GB,4,,FHRS,5
244212,,,,,The Village Cake Station,Other catering premises,7841,5,,660492,0,,,83076,308,EnvHealth@molevalley.gov.uk,Mole Valley,http://www.molevalley.gov.uk,,,2014-09-11,fhrs_5_en-GB,5,,FHRS,0
244213,,76 South Street,,Dorking,The Vineyard,Retailers - other,4613,10,,618268,5,,51.23038000000000,91268,308,EnvHealth@molevalley.gov.uk,Mole Valley,http://www.molevalley.gov.uk,-0.33494400000000,RH4 2HD,2012-05-08,fhrs_4_en-GB,4,,FHRS,5
244214,The Volunteer (Ph),Water Lane,,Abinger Hammer,The Volunteer,Pub/bar/nightclub,7843,10,,660445,5,,51.20091200000000,70802,308,EnvHealth@molevalley.gov.uk,Mole Valley,http://www.molevalley.gov.uk,-0.41596400000000,RH5 6PR,2013-12-18,fhrs_4_en-GB,4,,FHRS,5
244215,,5 Rose Hill,,Dorking,The Waltons,Hotel/bed & breakfast/guest house,7842,10,,618254,5,,51.22908000000000,91192,308,EnvHealth@molevalley.gov.uk,Mole Valley,http://www.molevalley.gov.uk,-0.33141100000000,RH4 2EG,2014-01-29,fhrs_4_en-GB,4,,FHRS,5
244216,The Weald C Of E Middle School,Horsham Road,,Beare Green,The Weald C of E School,School/college/university,7845,0,,618079,0,,51.17462400000000,90709,308,EnvHealth@molevalley.gov.uk,Mole Valley,http://www.molevalley.gov.uk,-0.31472200000000,RH5 4QW,2014-06-11,fhrs_5_en-GB,5,,FHRS,5
244217,The White Hart Inn (Ph),5 Dene Street,,Dorking,The White Hart,Pub/bar/nightclub,7843,0,,660394,0,,51.23259000000000,2778,308,EnvHealth@molevalley.gov.uk,Mole Valley,http://www.molevalley.gov.uk,-0.32912100000000,RH4 2DR,2014-02-11,fhrs_5_en-GB,5,,FHRS,0
244218,,,,,The Wood Fired Pizza Company,Mobile caterer,7846,0,,705358,0,,,96415,308,EnvHealth@molevalley.gov.uk,Mole Valley,http://www.molevalley.gov.uk,,,2014-10-30,fhrs_5_en-GB,5,,FHRS,5
244219,The Woodman (Ph),238 Barnett Wood Lane,,Ashtead,The Woodman,Pub/bar/nightclub,7843,0,,660395,5,,51.31421800000000,2781,308,EnvHealth@molevalley.gov.uk,Mole Valley,http://www.molevalley.gov.uk,-0.30791900000000,KT21 2DA,2012-10-15,fhrs_5_en-GB,5,,FHRS,0
244220,Ye Olde Windsor Castle (Ph),25 Little Bookham Street,,Bookham,The Ye Olde Windsor Castle,Pub/bar/nightclub,7843,0,,618121,10,,51.27972400000000,90838,308,EnvHealth@molevalley.gov.uk,Mole Valley,http://www.molevalley.gov.uk,-0.38771900000000,KT23 3AA,2014-11-18,fhrs_4_en-GB,4,,FHRS,10
244221,Therfield County Secondary School,Dilston Road,,Leatherhead,Therfield School,School/college/university,7845,0,,618363,0,,51.30580900000000,91596,308,EnvHealth@molevalley.gov.uk,Mole Valley,http://www.molevalley.gov.uk,-0.33479800000000,KT22 7NZ,2013-12-11,fhrs_5_en-GB,5,,FHRS,0
244222,,,,,Thyme and Plaice,Other catering premises,7841,10,,618477,5,,,91884,308,EnvHealth@molevalley.gov.uk,Mole Valley,http://www.molevalley.gov.uk,,,2014-02-12,fhrs_4_en-GB,4,,FHRS,5
244223,,,,,Top Banana,Other catering premises,7841,10,,667531,5,,,80476,308,EnvHealth@molevalley.gov.uk,Mole Valley,http://www.molevalley.gov.uk,,,2014-04-16,fhrs_4_en-GB,4,,FHRS,5
244224,,46a High Street,,Leatherhead,Tops Pizza Ltd,Takeaway/sandwich shop,7844,10,,618382,10,,51.29537200000000,91643,308,EnvHealth@molevalley.gov.uk,Mole Valley,http://www.molevalley.gov.uk,-0.32687100000000,KT22 8AJ,2014-03-27,fhrs_3_en-GB,3,,FHRS,10
244225,,103 The Street,,Fetcham,Trattoria Da Carlo,Restaurant/Cafe/Canteen,1,5,,660414,0,,51.29615900000000,3875,308,EnvHealth@molevalley.gov.uk,Mole Valley,http://www.molevalley.gov.uk,-0.35702200000000,KT22 9RD,2014-11-25,fhrs_5_en-GB,5,,FHRS,0
244226,,9-11 High Street,,Leatherhead,Travelodge,Hotel/bed & breakfast/guest house,7842,0,,680279,0,,51.29545500000000,74388,308,EnvHealth@molevalley.gov.uk,Mole Valley,http://www.molevalley.gov.uk,-0.32953600000000,KT22 8AA,2015-01-20,fhrs_5_en-GB,5,,FHRS,0
244227,Travel Lodge,Reigate Road,,Dorking,Travelodge Dorking,Hotel/bed & breakfast/guest house,7842,0,,667513,0,,51.23614900000000,72469,308,EnvHealth@molevalley.gov.uk,Mole Valley,http://www.molevalley.gov.uk,-0.31892100000000,RH4 1QB,2014-09-29,fhrs_5_en-GB,5,,FHRS,0
244228,Station News,Station Approach,,Dorking,Treats Express,Retailers - other,4613,20,,618283,5,,51.24060300000000,91317,308,EnvHealth@molevalley.gov.uk,Mole Valley,http://www.molevalley.gov.uk,-0.32406000000000,RH4 1TF,2014-07-09,fhrs_1_en-GB,1,,FHRS,5
244229,Triangle Stores,2 Ranmore Road,,Dorking,Triangle Convenience Store,Retailers - other,4613,10,,660519,5,,51.23585700000000,85487,308,EnvHealth@molevalley.gov.uk,Mole Valley,http://www.molevalley.gov.uk,-0.33683800000000,RH4 1HD,2013-12-05,fhrs_3_en-GB,3,,FHRS,10
244230,Trumbles Hotel,Stan Hill,,Charlwood,Trumbles Guest House,Hotel/bed & breakfast/guest house,7842,10,,618005,5,,51.16279300000000,90048,308,EnvHealth@molevalley.gov.uk,Mole Valley,http://www.molevalley.gov.uk,-0.23275800000000,RH6 0EP,2014-09-11,fhrs_4_en-GB,4,,FHRS,5
244231,,,,,Two Many Cooks,Other catering premises,7841,0,,660446,5,,,71631,308,EnvHealth@molevalley.gov.uk,Mole Valley,http://www.molevalley.gov.uk,,,2015-01-26,fhrs_4_en-GB,4,,FHRS,10
244232,,32 South Street,,Dorking,Two Many Cooks Ltd,Restaurant/Cafe/Canteen,1,5,,618592,5,,51.23123700000000,92127,308,EnvHealth@molevalley.gov.uk,Mole Valley,http://www.molevalley.gov.uk,-0.33388200000000,RH4 2HQ,2013-10-09,fhrs_5_en-GB,5,,FHRS,5
244233,,2-4 West Street,,Dorking,Two to Four restaurant,Restaurant/Cafe/Canteen,1,5,,660529,10,,51.23159500000000,95248,308,EnvHealth@molevalley.gov.uk,Mole Valley,http://www.molevalley.gov.uk,-0.33432700000000,RH4 1BL,2014-01-06,fhrs_4_en-GB,4,,FHRS,5
244234,Tyrrells Wood Golf Club,The Drive,,Leatherhead,Tyrrells Wood Golf Club Ltd,Other catering premises,7841,0,,680257,5,,51.28553300000000,43212,308,EnvHealth@molevalley.gov.uk,Mole Valley,http://www.molevalley.gov.uk,-0.29687000000000,KT22 8QP,2014-09-10,fhrs_5_en-GB,5,,FHRS,0
244235,Milton Court,Miltoncourt Lane,,Dorking,Unum,Restaurant/Cafe/Canteen,1,5,,619344,0,,51.23109000000000,95093,308,EnvHealth@molevalley.gov.uk,Mole Valley,http://www.molevalley.gov.uk,-0.35395400000000,RH4 3LY,2014-02-05,fhrs_5_en-GB,5,,FHRS,0
244236,,,,,Velvet Rose Cakes,Other catering premises,7841,5,,711745,0,,,97065,308,EnvHealth@molevalley.gov.uk,Mole Valley,http://www.molevalley.gov.uk,,,2014-12-18,fhrs_5_en-GB,5,,FHRS,0
244237,Kings Court,41-51 Kingston Road,,Leatherhead,Vestas,Restaurant/Cafe/Canteen,1,5,,618641,0,,,92219,308,EnvHealth@molevalley.gov.uk,Mole Valley,http://www.molevalley.gov.uk,,,2012-05-15,fhrs_4_en-GB,4,,FHRS,10
244238,Denbies Wine Estate,Bradley Lane,,Dorking,Village Greens Farm Shop Ltd,Retailers - other,4613,5,,667549,0,,51.24816000000000,86502,308,EnvHealth@molevalley.gov.uk,Mole Valley,http://www.molevalley.gov.uk,-0.33186600000000,RH5 6AA,2013-04-19,fhrs_5_en-GB,5,,FHRS,5
244239,Ockley Court Farm,Coles Lane,,Ockley,Village Greens Farm Shop Ltd,Retailers - other,4613,5,,618457,0,,51.15312500000000,91841,308,EnvHealth@molevalley.gov.uk,Mole Valley,http://www.molevalley.gov.uk,-0.34769300000000,RH5 5LS,2013-02-28,fhrs_4_en-GB,4,,FHRS,10
244240,,55-56 West Street,,Dorking,Viva,Restaurant/Cafe/Canteen,1,20,,667562,15,,51.23173400000000,95909,308,EnvHealth@molevalley.gov.uk,Mole Valley,http://www.molevalley.gov.uk,-0.33400700000000,RH4 1BS,2014-05-29,fhrs_1_en-GB,1,,FHRS,10
244241,,60 Cobham Road,,Fetcham,Voyage Ltd,Hospitals/Childcare/Caring Premises,5,0,,618309,0,,51.29332900000000,91429,308,EnvHealth@molevalley.gov.uk,Mole Valley,http://www.molevalley.gov.uk,-0.34827300000000,KT22 9JS,2014-12-02,fhrs_5_en-GB,5,,FHRS,0
244242,,15,,Leatherhead,W H Smith,Retailers - other,4613,,,618406,,,51.29577000000000,91741,308,EnvHealth@molevalley.gov.uk,Mole Valley,http://www.molevalley.gov.uk,-0.32766000000000,KT22 8AH,2015-01-06,fhrs_exempt_en-GB,Exempt,,FHRS,
244243,"Car Park, Dorking Station",Station Approach,,Dorking,W J Westley,Retailers - other,4613,5,,618496,5,,,91923,308,EnvHealth@molevalley.gov.uk,Mole Valley,http://www.molevalley.gov.uk,,,2013-02-22,fhrs_5_en-GB,5,,FHRS,5
244244,,48-52 South Street,,Dorking,Waitrose Ltd,Retailers - supermarkets/hypermarkets,7840,0,,696649,0,,51.23123700000000,96119,308,EnvHealth@molevalley.gov.uk,Mole Valley,http://www.molevalley.gov.uk,-0.33388200000000,RH4 2HQ,2014-12-08,fhrs_5_en-GB,5,,FHRS,0
244245,The Watermill (Ph),Reigate Road,,Dorking,Watermill Inn,Restaurant/Cafe/Canteen,1,5,,660413,5,,51.23866400000000,3560,308,EnvHealth@molevalley.gov.uk,Mole Valley,http://www.molevalley.gov.uk,-0.31183900000000,RH4 1NN,2013-10-22,fhrs_4_en-GB,4,,FHRS,10
244246,Little Bookham Post Office (Weales),111 Little Bookham Street,,Bookham,Weales Stores,Retailers - other,4613,10,,660452,10,,51.28250000000000,72782,308,EnvHealth@molevalley.gov.uk,Mole Valley,http://www.molevalley.gov.uk,-0.38681800000000,KT23 3AF,2014-03-27,fhrs_3_en-GB,3,,FHRS,10
244247,Seven Acres,Horsham Road,,Wallis Wood,Websters of Kingston,Retailers - other,4613,5,,618478,5,,51.13016300000000,91885,308,EnvHealth@molevalley.gov.uk,Mole Valley,http://www.molevalley.gov.uk,-0.41176900000000,RH5 5RL,2014-02-05,fhrs_4_en-GB,4,,FHRS,10
244248,,201a High Street,,Dorking,Wellers,Retailers - other,4613,,,667523,,,51.23325100000000,77503,308,EnvHealth@molevalley.gov.uk,Mole Valley,http://www.molevalley.gov.uk,-0.32941200000000,RH4 1RU,2014-01-13,fhrs_exempt_en-GB,Exempt,,FHRS,
244249,,,,,Wendy's Cupcakes,Other catering premises,7841,5,,618707,5,,,92338,308,EnvHealth@molevalley.gov.uk,Mole Valley,http://www.molevalley.gov.uk,,,2013-01-22,fhrs_5_en-GB,5,,FHRS,0
244250,West Ashtead Primary School,Taleworth Road,,Ashtead,West Ashtead Primary School,Other catering premises,7841,0,,688441,0,,51.30367900000000,19829,308,EnvHealth@molevalley.gov.uk,Mole Valley,http://www.molevalley.gov.uk,-0.30792000000000,KT21 2PX,2013-11-26,fhrs_5_en-GB,5,,FHRS,5
244251,West Hill School,Kingston Road,,Leatherhead,West Hill School,School/college/university,7845,5,,618402,5,,51.30970400000000,91724,308,EnvHealth@molevalley.gov.uk,Mole Valley,http://www.molevalley.gov.uk,-0.33616400000000,KT22 7PW,2013-07-18,fhrs_5_en-GB,5,,FHRS,5
244252,Masters House,Guildford Road,,Westcott,Westcott Bakery,Retailers - other,4613,20,,667482,15,,51.22585500000000,104,308,EnvHealth@molevalley.gov.uk,Mole Valley,http://www.molevalley.gov.uk,-0.36607100000000,RH4 3NG,2014-02-05,fhrs_0_en-GB,0,,FHRS,20
244253,Westcott House,Guildford Road,,Westcott,Westcott House,Hospitals/Childcare/Caring Premises,5,,,618485,,,51.22643100000000,91903,308,EnvHealth@molevalley.gov.uk,Mole Valley,http://www.molevalley.gov.uk,-0.36092300000000,RH4 3QD,2014-05-28,fhrs_5_en-GB,5,,FHRS,
244254,,5 Guildford Road,,Westcott,Westcott Newsagents (MACE),Retailers - other,4613,,,618480,,,51.22504000000000,91893,308,EnvHealth@molevalley.gov.uk,Mole Valley,http://www.molevalley.gov.uk,-0.36695900000000,RH4 3NR,2014-08-08,fhrs_exempt_en-GB,Exempt,,FHRS,
244255,Westcott Village Club,Furlong Road,,Westcott,Westcott Village Club,Pub/bar/nightclub,7843,5,,618479,5,,51.22624300000000,91889,308,EnvHealth@molevalley.gov.uk,Mole Valley,http://www.molevalley.gov.uk,-0.36356500000000,RH4 3PR,2013-04-03,fhrs_5_en-GB,5,,FHRS,5
244256,,105 The Street,,Fetcham,Westlab Ltd,Retailers - other,4613,,,618701,,,51.29615900000000,92332,308,EnvHealth@molevalley.gov.uk,Mole Valley,http://www.molevalley.gov.uk,-0.35702200000000,KT22 9RD,2013-02-15,fhrs_exempt_en-GB,Exempt,,FHRS,
244257,Whitelands,Reigate Road,,Brockham,Whitelands Country House,Hotel/bed & breakfast/guest house,7842,10,,618141,5,,51.24035100000000,90877,308,EnvHealth@molevalley.gov.uk,Mole Valley,http://www.molevalley.gov.uk,-0.28309600000000,RH3 7HB,2012-01-12,fhrs_4_en-GB,4,,FHRS,5
244258,,,,,Whoopiecupcakes,Other catering premises,7841,5,,618583,5,,,92094,308,EnvHealth@molevalley.gov.uk,Mole Valley,http://www.molevalley.gov.uk,,,2013-07-31,fhrs_5_en-GB,5,,FHRS,5
244259,Wickes Building Supplies Ltd,Vincent Lane,,Dorking,Wickes,Mobile caterer,7846,0,,711749,0,,51.22914900000000,97129,308,EnvHealth@molevalley.gov.uk,Mole Valley,http://www.molevalley.gov.uk,-0.33812500000000,RH4 3HQ,2014-11-07,fhrs_5_en-GB,5,,FHRS,0
244260,,18 Craddocks Parade,,Ashtead,William Dyer Ltd,Retailers - other,4613,10,,680291,5,,51.31695000000000,80505,308,EnvHealth@molevalley.gov.uk,Mole Valley,http://www.molevalley.gov.uk,-0.30471900000000,KT21 1QJ,2014-05-13,fhrs_4_en-GB,4,,FHRS,5
244261,The (Old) Mill,Mill Lane,,Forest Green,William Ellis School,School/college/university,7845,0,,618537,0,,51.16243100000000,92009,308,EnvHealth@molevalley.gov.uk,Mole Valley,http://www.molevalley.gov.uk,-0.40065000000000,RH5 5SJ,2013-08-02,fhrs_5_en-GB,5,,FHRS,5
244262,,,,,Willow Tree Cakes,Other catering premises,7841,5,,618723,5,,,92359,308,EnvHealth@molevalley.gov.uk,Mole Valley,http://www.molevalley.gov.uk,,,2013-05-13,fhrs_5_en-GB,5,,FHRS,0
244263,,83 The Street,,Fetcham,Wings in Fetcham,Takeaway/sandwich shop,7844,20,,660419,15,,51.29615900000000,4237,308,EnvHealth@molevalley.gov.uk,Mole Valley,http://www.molevalley.gov.uk,-0.35702200000000,KT22 9RD,2014-01-29,fhrs_1_en-GB,1,,FHRS,15
244264,Upper Merriden Cottage,Wolvens Lane,,Abinger,Wise Holdings,Mobile caterer,7846,,,719529,,,,97252,308,EnvHealth@molevalley.gov.uk,Mole Valley,http://www.molevalley.gov.uk,,,,fhrs_awaitinginspection_en-GB,AwaitingInspection,,FHRS,
244265,,7 High Street,,Bookham,Wishing Well Ltd,Retailers - other,4613,20,,618116,5,,51.27874300000000,90827,308,EnvHealth@molevalley.gov.uk,Mole Valley,http://www.molevalley.gov.uk,-0.37334300000000,KT23 4AA,2011-10-25,fhrs_1_en-GB,1,,FHRS,0
244266,Woodlands School,Fortyfoot Road,,Leatherhead,Woodlands School,School/college/university,7845,0,,618371,0,,51.29448800000000,91609,308,EnvHealth@molevalley.gov.uk,Mole Valley,http://www.molevalley.gov.uk,-0.31914400000000,KT22 8RY,2013-02-26,fhrs_5_en-GB,5,,FHRS,0
244267,Estate Office Cottage,Guildford Road,,Wotton,Wotton Estate,Retailers - other,4613,5,,618563,10,,51.21444500000000,92065,308,EnvHealth@molevalley.gov.uk,Mole Valley,http://www.molevalley.gov.uk,-0.40005100000000,RH5 6QB,2014-03-24,fhrs_4_en-GB,4,,FHRS,0
244268,The Wotton Hatch,Guildford Road,,Wotton,Wotton Hatch,Pub/bar/nightclub,7843,5,,705353,5,,51.21677100000000,70797,308,EnvHealth@molevalley.gov.uk,Mole Valley,http://www.molevalley.gov.uk,-0.38865800000000,RH5 6QQ,2014-09-03,fhrs_4_en-GB,4,,FHRS,10
244269,Wotton House,Guildford Road,,Wotton,Wotton House Hotel,Hotel/bed & breakfast/guest house,7842,10,,618492,10,,51.21230000000000,91912,308,EnvHealth@molevalley.gov.uk,Mole Valley,http://www.molevalley.gov.uk,-0.39311000000000,RH5 6HS,2014-05-13,fhrs_2_en-GB,2,,FHRS,15
244270,Yehudi Menuhin School,Cobham Road,,Bookham,Yehudi Menuhin School,School/college/university,7845,5,,660531,0,,51.30642400000000,95666,308,EnvHealth@molevalley.gov.uk,Mole Valley,http://www.molevalley.gov.uk,-0.37669700000000,KT11 3QQ,2014-05-14,fhrs_5_en-GB,5,,FHRS,5
244271,,104-106 South Street,,Dorking,Yicken Takeaway Chinese Meals,Takeaway/sandwich shop,7844,,,660451,,,51.22978600000000,72769,308,EnvHealth@molevalley.gov.uk,Mole Valley,http://www.molevalley.gov.uk,-0.33492300000000,RH4 2EW,2014-05-06,fhrs_5_en-GB,5,,FHRS,
244272,Zen Garden Chinese,Guildford Road,,Fetcham,Zen Garden,Restaurant/Cafe/Canteen,1,20,,638647,15,,51.29203100000000,79893,308,EnvHealth@molevalley.gov.uk,Mole Valley,http://www.molevalley.gov.uk,-0.33729000000000,KT22 9AL,2014-03-10,fhrs_1_en-GB,1,,FHRS,15
244273,,70 The Street,,Ashtead,Zia Vitalia,Restaurant/Cafe/Canteen,1,5,,660448,5,,51.30983500000000,71638,308,EnvHealth@molevalley.gov.uk,Mole Valley,http://www.molevalley.gov.uk,-0.29836700000000,KT21 1AW,2013-11-19,fhrs_5_en-GB,5,,FHRS,5
