,addressline1,addressline2,addressline3,addressline4,businessname,businesstype,businesstypeid,confidenceinmanagement,extractdate,fhrsid,hygiene,itemcount,latitude,localauthoritybusinessid,localauthoritycode,localauthorityemailaddress,localauthorityname,localauthoritywebsite,longitude,postcode,ratingdate,ratingkey,ratingvalue,returncode,schemetype,structural
258032,,,,,1000 Hills Catering,Mobile caterer,7846,5,,277940,5,,,C27HD319BW/1,311,environmental.health.commercial@spelthorne.gov.uk,Spelthorne,http://www.spelthorne.gov.uk,,,2013-10-29,fhrs_5_en-GB,5,,FHRS,5
258033,11 Avenue Parade,The Avenue,Sunbury On Thames,Surrey,1st Stop,Retailers - other,4613,10,,277632,5,,51.40702000000000,09/00086/COMM,311,environmental.health.commercial@spelthorne.gov.uk,Spelthorne,http://www.spelthorne.gov.uk,-0.40602100000000,TW16 5HS,2010-02-04,fhrs_4_en-GB,4,,FHRS,5
258034,Rookery Road,Staines-upon-Thames,,,Acacia Lodge,Hospitals/Childcare/Caring Premises,5,10,,277522,10,,51.42950800000000,04/00071/COMM,311,environmental.health.commercial@spelthorne.gov.uk,Spelthorne,http://www.spelthorne.gov.uk,-0.49359200000000,TW18 1BT,2014-11-19,fhrs_3_en-GB,3,,FHRS,10
258035,Meadhurst Club,Chertsey Road,Sunbury On Thames,,Acorns Nursery BP,Hospitals/Childcare/Caring Premises,5,0,,278168,5,,,V13HD3CHER/1,311,environmental.health.commercial@spelthorne.gov.uk,Spelthorne,http://www.spelthorne.gov.uk,,TW16 7LL,2014-10-01,fhrs_5_en-GB,5,,FHRS,0
258036,Admiral Hawke Public House,81 Green Street,Sunbury On Thames,,Admiral Hawke,Pub/bar/nightclub,7843,5,,277795,5,,51.40683200000000,12/00035/COMM,311,environmental.health.commercial@spelthorne.gov.uk,Spelthorne,http://www.spelthorne.gov.uk,-0.41468300000000,TW16 6RD,2013-09-11,fhrs_4_en-GB,4,,FHRS,10
258037,The Summit Business Park,Hanworth Road,Sunbury On Thames,,ADT Fire & Security Ltd -Catering Controllers Ltd,Restaurant/Cafe/Canteen,1,5,,278009,0,,,O11HD2HANW/1,311,environmental.health.commercial@spelthorne.gov.uk,Spelthorne,http://www.spelthorne.gov.uk,,,2013-06-26,fhrs_5_en-GB,5,,FHRS,5
258038,2 Glebe Road,Staines-upon-Thames,,,Albany House Bed & Breakfast,Hotel/bed & breakfast/guest house,7842,10,,352914,5,,51.42883900000000,12/00062/COMM,311,environmental.health.commercial@spelthorne.gov.uk,Spelthorne,http://www.spelthorne.gov.uk,-0.49119700000000,TW18 1BX,2012-04-23,fhrs_4_en-GB,4,,FHRS,5
258039,3 Woodlands Parade,Ashford,Surrey,,Alliance Pharmacy,Retailers - other,4613,,,278065,,,51.42642300000000,R09GD33WOO/1,311,environmental.health.commercial@spelthorne.gov.uk,Spelthorne,http://www.spelthorne.gov.uk,-0.44329100000000,TW15 1QD,2006-04-27,fhrs_exempt_en-GB,Exempt,,FHRS,
258040,8 Woodthorpe Road,Ashford,,,Am2pm Food & Wine,Retailers - other,4613,10,,277643,5,,51.43575000000000,09/00120/COMM,311,environmental.health.commercial@spelthorne.gov.uk,Spelthorne,http://www.spelthorne.gov.uk,-0.46734600000000,TW15 2RY,2013-01-31,fhrs_1_en-GB,1,,FHRS,20
258041,3 Station Approach,Staines-upon-Thames,,,Amaan's,Restaurant/Cafe/Canteen,1,10,,485729,10,,51.43288800000000,12/00095/COMM,311,environmental.health.commercial@spelthorne.gov.uk,Spelthorne,http://www.spelthorne.gov.uk,-0.50335000000000,TW18 4LY,2014-09-08,fhrs_3_en-GB,3,,FHRS,5
258042,199 Laleham Road,Staines-upon-Thames,Surrey,,AM-PM,Retailers - other,4613,10,,278081,5,,51.42381200000000,R11GD4199L/1,311,environmental.health.commercial@spelthorne.gov.uk,Spelthorne,http://www.spelthorne.gov.uk,-0.50305600000000,TW18 2NS,2013-04-03,fhrs_3_en-GB,3,,FHRS,10
258043,12 Woodthorpe Road,Ashford,,,Anatolia,Takeaway/sandwich shop,7844,10,,277525,15,,51.43575000000000,04/00094/COMM,311,environmental.health.commercial@spelthorne.gov.uk,Spelthorne,http://www.spelthorne.gov.uk,-0.46734600000000,TW15 2RY,2014-11-17,fhrs_2_en-GB,2,,FHRS,15
258044,Church Square,Shepperton,Middx,,Anchor Hotel,Hotel/bed & breakfast/guest house,7842,10,,277907,5,,51.38843900000000,C20HD5CHUR/2,311,environmental.health.commercial@spelthorne.gov.uk,Spelthorne,http://www.spelthorne.gov.uk,-0.45410900000000,TW17 9JY,2013-04-15,fhrs_4_en-GB,4,,FHRS,5
258045,Staines Market,High Street,Staines-upon-Thames,,Andrew Clarke Fishmonger,Mobile caterer,7846,0,,278043,5,,,R05GD1HIGH/1,311,environmental.health.commercial@spelthorne.gov.uk,Spelthorne,http://www.spelthorne.gov.uk,,,2014-03-26,fhrs_4_en-GB,4,,FHRS,10
258046,61 Green Lane,Shepperton,,,Angela Watkins,Other catering premises,7841,20,,516906,10,,51.39642100000000,13/00020/COMM,311,environmental.health.commercial@spelthorne.gov.uk,Spelthorne,http://www.spelthorne.gov.uk,-0.44436700000000,TW17 8DS,2013-02-11,fhrs_1_en-GB,1,,FHRS,10
258047,The Anglers Retreat,Staines Road,Laleham,Staines-upon-Thames,Anglers Retreat,Pub/bar/nightclub,7843,10,,298534,5,,51.41950400000000,12/00053/COMM,311,environmental.health.commercial@spelthorne.gov.uk,Spelthorne,http://www.spelthorne.gov.uk,-0.49741600000000,TW18 2RT,2013-03-12,fhrs_3_en-GB,3,,FHRS,10
258048,10 Avenue Parade,The Avenue,Sunbury On Thames,Surrey,Answers,Retailers - other,4613,,,278128,,,51.40702000000000,S24GD210AV/1,311,environmental.health.commercial@spelthorne.gov.uk,Spelthorne,http://www.spelthorne.gov.uk,-0.40602100000000,TW16 5HS,2003-05-22,fhrs_exempt_en-GB,Exempt,,FHRS,
258049,Cheekees,Elmsleigh Road,Staines-upon-Thames,,Aqua Nightclub,Other catering premises,7841,5,,277704,0,,51.43314100000000,10/00072/COMM,311,environmental.health.commercial@spelthorne.gov.uk,Spelthorne,http://www.spelthorne.gov.uk,-0.51050600000000,TW18 4PN,2011-05-18,fhrs_5_en-GB,5,,FHRS,5
258050,Building D,BP International,Chertsey Road,Ashford,Aramark (UK) Ltd,Restaurant/Cafe/Canteen,1,5,,277529,0,,51.42644600000000,05/00005/COMM,311,environmental.health.commercial@spelthorne.gov.uk,Spelthorne,http://www.spelthorne.gov.uk,-0.42946700000000,TW16 7LN,2013-06-18,fhrs_5_en-GB,5,,FHRS,0
258051,Building G,BP International,Chertsey Road,Ashford,Aramark (UK) Ltd,Restaurant/Cafe/Canteen,1,0,,277864,0,,51.42644600000000,C05HD3CHER/1,311,environmental.health.commercial@spelthorne.gov.uk,Spelthorne,http://www.spelthorne.gov.uk,-0.42946700000000,TW16 7LN,2013-06-18,fhrs_5_en-GB,5,,FHRS,0
258052,Rear Of,170 Windmill Road,Sunbury On Thames,,Aramark @ AVM Impact,Restaurant/Cafe/Canteen,1,0,,681377,5,,51.41645900000000,14/00051/COMM,311,environmental.health.commercial@spelthorne.gov.uk,Spelthorne,http://www.spelthorne.gov.uk,-0.43179400000000,TW16 7HB,2014-07-01,fhrs_5_en-GB,5,,FHRS,0
258053,Argos,1 - 2 Friends Walk,Staines-upon-Thames,Surrey,Argos Distributors Ltd,Restaurant/Cafe/Canteen,1,,,278129,,,51.43249800000000,S35GD41-2F/1,311,environmental.health.commercial@spelthorne.gov.uk,Spelthorne,http://www.spelthorne.gov.uk,-0.51012400000000,TW18 4PG,2000-01-20,fhrs_exempt_en-GB,Exempt,,FHRS,
258054,Westminster Ashford House,Long Lane,Stanwell,Staines-upon-Thames,Ashford  House Care Centre,Hospitals/Childcare/Caring Premises,5,0,,277899,0,,51.44511600000000,C14XD1LONG/1,311,environmental.health.commercial@spelthorne.gov.uk,Spelthorne,http://www.spelthorne.gov.uk,-0.46906200000000,TW19 7AA,2014-04-09,fhrs_5_en-GB,5,,FHRS,5
258055,Ashford Sandwich Bar And Cafe,127 - 129 Convent Road,Ashford,,Ashford Cafe And Restaurant,Restaurant/Cafe/Canteen,1,30,,277608,20,,51.42918700000000,08/00058/COMM,311,environmental.health.commercial@spelthorne.gov.uk,Spelthorne,http://www.spelthorne.gov.uk,-0.45306600000000,TW15 2HW,2014-12-06,fhrs_0_en-GB,0,,FHRS,25
258056,21 Feltham Road,Ashford,,,Ashford Charcoal Grill,Restaurant/Cafe/Canteen,1,5,,509937,5,,51.43282300000000,12/00107/COMM,311,environmental.health.commercial@spelthorne.gov.uk,Spelthorne,http://www.spelthorne.gov.uk,-0.45461200000000,TW15 1DQ,2013-02-04,fhrs_5_en-GB,5,,FHRS,5
258057,School Road,Ashford,,,Ashford Church Of England School,School/college/university,7845,0,,277893,0,,51.42724500000000,C08HD3SCHO/1,311,environmental.health.commercial@spelthorne.gov.uk,Spelthorne,http://www.spelthorne.gov.uk,-0.45173600000000,TW15 2BW,2013-07-17,fhrs_5_en-GB,5,,FHRS,5
258058,Woodthorpe Road,Ashford,Middx,,Ashford Community Centre,Restaurant/Cafe/Canteen,1,,,277990,,,51.42859300000000,E11HD1WOOD/1,311,environmental.health.commercial@spelthorne.gov.uk,Spelthorne,http://www.spelthorne.gov.uk,-0.48050300000000,TW15 3NJ,2006-08-02,fhrs_exempt_en-GB,Exempt,,FHRS,
258059,Clarendon Road,Ashford,Surrey,,Ashford Congregational Church,Other catering premises,7841,0,,277969,5,,51.43274300000000,D27XD3CLAR/1,311,environmental.health.commercial@spelthorne.gov.uk,Spelthorne,http://www.spelthorne.gov.uk,-0.46501500000000,TW15 2QA,2012-02-08,fhrs_5_en-GB,5,,FHRS,0
258060,Ashford Town Football Club,Ashford Sports Club,Short Lane,Stanwell,Ashford Cricket Club,Restaurant/Cafe/Canteen,1,10,,550757,5,,51.45147700000000,13/00071/COMM,311,environmental.health.commercial@spelthorne.gov.uk,Spelthorne,http://www.spelthorne.gov.uk,-0.46385500000000,TW19 7BQ,2013-04-20,fhrs_4_en-GB,4,,FHRS,5
258061,122 Feltham Hill Road,Ashford,Surrey,,Ashford Lodge Pharmacy,Retailers - other,4613,,,278063,,,51.42882300000000,R09GD3122F/1,311,environmental.health.commercial@spelthorne.gov.uk,Spelthorne,http://www.spelthorne.gov.uk,-0.45540800000000,TW15 2BX,2012-06-14,fhrs_exempt_en-GB,Exempt,,FHRS,
258062,Fordbridge Road,Ashford,,,Ashford Manor Golf Club,Pub/bar/nightclub,7843,10,,691814,5,,51.42761000000000,14/00065/COMM,311,environmental.health.commercial@spelthorne.gov.uk,Spelthorne,http://www.spelthorne.gov.uk,-0.46718700000000,TW15 3RT,2014-08-14,fhrs_3_en-GB,3,,FHRS,10
258063,Clarendon Road,Ashford,Middx,,Ashford Methodist Church,Other catering premises,7841,,,277970,,,51.43523600000000,D27XD3CLAR/2,311,environmental.health.commercial@spelthorne.gov.uk,Spelthorne,http://www.spelthorne.gov.uk,-0.46786700000000,TW15 2QR,2011-06-23,fhrs_exempt_en-GB,Exempt,,FHRS,
258064,12A Kingston Crescent,Ashford,,,Ashford News Food & Wine,Retailers - other,4613,5,,499839,0,,51.42862500000000,12/00120/COMM,311,environmental.health.commercial@spelthorne.gov.uk,Spelthorne,http://www.spelthorne.gov.uk,-0.48438600000000,TW15 3NA,2013-01-03,fhrs_4_en-GB,4,,FHRS,10
258065,Ashford Park Primary School,Station Crescent,Ashford,,Ashford Park County Primary,School/college/university,7845,0,,278160,0,,51.43742200000000,V06HD3STAT/1,311,environmental.health.commercial@spelthorne.gov.uk,Spelthorne,http://www.spelthorne.gov.uk,-0.47969200000000,TW15 3HN,2014-09-30,fhrs_4_en-GB,4,,FHRS,10
258066,Short Lane,"Stanwell, Staines-upon-Thames",Middx,,Ashford Sports Club,Restaurant/Cafe/Canteen,1,10,,277978,10,,51.45016100000000,E05HD1SHOR/2,311,environmental.health.commercial@spelthorne.gov.uk,Spelthorne,http://www.spelthorne.gov.uk,-0.46374400000000,,2013-04-20,fhrs_3_en-GB,3,,FHRS,5
258067,97 Feltham Road,Ashford,Surrey,,Ashford Supermarket (Londis),Retailers - other,4613,5,,278023,0,,51.43299000000000,R02GD397FE/2,311,environmental.health.commercial@spelthorne.gov.uk,Spelthorne,http://www.spelthorne.gov.uk,-0.44961400000000,TW15 1BS,2010-11-26,fhrs_4_en-GB,4,,FHRS,10
258068,Londis,83 Church Road,Ashford,Surrey,Ashford Superstore,Retailers - other,4613,10,,278022,10,,51.43221000000000,R02GD383CH/2,311,environmental.health.commercial@spelthorne.gov.uk,Spelthorne,http://www.spelthorne.gov.uk,-0.46066000000000,TW15 2PE,2013-02-26,fhrs_3_en-GB,3,,FHRS,10
258069,Short Lane,Stanwell,Staines-upon-Thames,Surrey,Ashford Town Football Club,Other catering premises,7841,10,,277977,10,,51.45139800000000,E05HD1SHOR/1,311,environmental.health.commercial@spelthorne.gov.uk,Spelthorne,http://www.spelthorne.gov.uk,-0.46331000000000,TW19 7BH,2013-09-12,fhrs_3_en-GB,3,,FHRS,10
258070,133 Convent Road,Ashford,Surrey,,Ashford Wines,Retailers - other,4613,,,278079,,,51.42918700000000,R11GD3133C/1,311,environmental.health.commercial@spelthorne.gov.uk,Spelthorne,http://www.spelthorne.gov.uk,-0.45306600000000,TW15 2HW,2011-02-14,fhrs_exempt_en-GB,Exempt,,FHRS,
258071,Ashton Lodge Nursing Home,Spelthorne Lodge,Spelthorne Grove,Sunbury On Thames,Ashton Lodge,Hospitals/Childcare/Caring Premises,5,5,,278134,5,,51.41886300000000,T06HD2SPEL/1,311,environmental.health.commercial@spelthorne.gov.uk,Spelthorne,http://www.spelthorne.gov.uk,-0.42532600000000,TW16 7DA,2014-06-03,fhrs_5_en-GB,5,,FHRS,5
258072,Asiana,3 - 5 Kingston Road,Staines-upon-Thames,,Asiana Oriental Buffet,Restaurant/Cafe/Canteen,1,5,,277764,0,,51.43407000000000,11/00059/COMM,311,environmental.health.commercial@spelthorne.gov.uk,Spelthorne,http://www.spelthorne.gov.uk,-0.50361300000000,TW18 4ND,2015-01-08,fhrs_5_en-GB,5,,FHRS,5
258073,Ask,2 Tillys Lane,Staines-upon-Thames,,Ask Restaurants Ltd,Restaurant/Cafe/Canteen,1,0,,277562,5,,51.43423900000000,06/00055/COMM,311,environmental.health.commercial@spelthorne.gov.uk,Spelthorne,http://www.spelthorne.gov.uk,-0.51198000000000,TW18 4BJ,2015-01-22,fhrs_5_en-GB,5,,FHRS,0
258074,Ashford Hospital,London Road,Ashford,,Aspects Restaurant/Retreat Cafe & Shop,Hospitals/Childcare/Caring Premises,5,5,,277892,0,,51.44411100000000,C07HD1LOND/2,311,environmental.health.commercial@spelthorne.gov.uk,Spelthorne,http://www.spelthorne.gov.uk,-0.47272100000000,TW15 3AA,2014-06-09,fhrs_5_en-GB,5,,FHRS,0
258075,,,,,Aunty Anns,Mobile caterer,7846,10,,278006,5,,,H01HD3440S/1,311,environmental.health.commercial@spelthorne.gov.uk,Spelthorne,http://www.spelthorne.gov.uk,,,2012-06-18,fhrs_4_en-GB,4,,FHRS,0
258076,,,,,Averleys,Other catering premises,7841,0,,486707,0,,,12/00104/COMM,311,environmental.health.commercial@spelthorne.gov.uk,Spelthorne,http://www.spelthorne.gov.uk,,,2012-12-14,fhrs_5_en-GB,5,,FHRS,0
258077,15 Thurlestone Parade,High Street,Shepperton,Surrey,Aziatics,Retailers - other,4613,5,,277625,5,,51.39497000000000,08/00129/COMM,311,environmental.health.commercial@spelthorne.gov.uk,Spelthorne,http://www.spelthorne.gov.uk,-0.44815400000000,TW17 9AR,2013-04-30,fhrs_4_en-GB,4,,FHRS,10
258078,18 Woodthorpe Road,Ashford,,,Baburchi,Other catering premises,7841,5,,277782,5,,51.43575000000000,11/00093/COMM,311,environmental.health.commercial@spelthorne.gov.uk,Spelthorne,http://www.spelthorne.gov.uk,-0.46734600000000,TW15 2RY,2013-10-17,fhrs_5_en-GB,5,,FHRS,5
258079,Bagster House Sports And Social,Walton Lane,Shepperton,Surrey,Bagster House Club,Other catering premises,7841,10,,277853,5,,51.38303900000000,C04HD5WALT/1,311,environmental.health.commercial@spelthorne.gov.uk,Spelthorne,http://www.spelthorne.gov.uk,-0.44469300000000,,2012-02-23,fhrs_3_en-GB,3,,FHRS,10
258080,1 Woodlands Parade,Ashford,,,Bargain Booze,Retailers - other,4613,10,,579659,5,,51.42642300000000,13/00005/COMM,311,environmental.health.commercial@spelthorne.gov.uk,Spelthorne,http://www.spelthorne.gov.uk,-0.44329100000000,TW15 1QD,2013-08-06,fhrs_4_en-GB,4,,FHRS,5
258081,24 - 26 High Street,Staines-upon-Thames,,,Baroosh,Pub/bar/nightclub,7843,5,,277524,0,,51.43383700000000,04/00091/COMM,311,environmental.health.commercial@spelthorne.gov.uk,Spelthorne,http://www.spelthorne.gov.uk,-0.51287100000000,TW18 4EE,2013-02-26,fhrs_4_en-GB,4,,FHRS,10
258082,Kempton Market,Kempton Park Racecourse,Staines Road East,Sunbury On Thames,Barrance,Mobile caterer,7846,20,,277719,15,,51.41490300000000,10/00113/COMM,311,environmental.health.commercial@spelthorne.gov.uk,Spelthorne,http://www.spelthorne.gov.uk,-0.40374800000000,TW16 5AF,2014-04-24,fhrs_1_en-GB,1,,FHRS,10
258083,The Salvation Army,Sunbury Court,Lower Hampton Road,Sunbury On Thames,Baxterstorey @ Salvation Army,Other catering premises,7841,0,,699996,0,,51.40940600000000,14/00075/COMM,311,environmental.health.commercial@spelthorne.gov.uk,Spelthorne,http://www.spelthorne.gov.uk,-0.39695100000000,TW16 5PL,2014-09-08,fhrs_5_en-GB,5,,FHRS,0
258084,Pavilion,Manor Park,Russell Road,Shepperton,Bear Cubs,Other catering premises,7841,5,,277768,0,,51.38923400000000,11/00064/COMM,311,environmental.health.commercial@spelthorne.gov.uk,Spelthorne,http://www.spelthorne.gov.uk,-0.45232900000000,TW17 9JS,2013-03-26,fhrs_5_en-GB,5,,FHRS,0
258085,French Street,Sunbury On Thames,Surrey,,Beauclerc County Infant School,School/college/university,7845,0,,278154,5,,51.40817400000000,V06HD2FREN/1,311,environmental.health.commercial@spelthorne.gov.uk,Spelthorne,http://www.spelthorne.gov.uk,-0.40159500000000,TW16 5LE,2014-01-10,fhrs_4_en-GB,4,,FHRS,10
258086,,,,,Becky's Bakeaway,Other catering premises,7841,0,,681373,5,,,14/00031/COMM,311,environmental.health.commercial@spelthorne.gov.uk,Spelthorne,http://www.spelthorne.gov.uk,,,2014-06-19,fhrs_5_en-GB,5,,FHRS,5
258087,,,,,Bee Happy Products,Other catering premises,7841,5,,277760,0,,,11/00053/COMM,311,environmental.health.commercial@spelthorne.gov.uk,Spelthorne,http://www.spelthorne.gov.uk,,,2011-08-09,fhrs_5_en-GB,5,,FHRS,0
258088,Beechwood Court,Churchill Way,Sunbury On Thames,,Beechwood Court -A2 Dominion,Other catering premises,7841,0,,438555,0,,51.42664307626530,12/00067/COMM,311,environmental.health.commercial@spelthorne.gov.uk,Spelthorne,http://www.spelthorne.gov.uk,-0.41509496725297,,2014-03-19,fhrs_5_en-GB,5,,FHRS,0
258089,87 Clare Road,Stanwell,Surrey,,Best Kebab,Takeaway/sandwich shop,7844,20,,277521,10,,51.45131700000000,04/00070/COMM,311,environmental.health.commercial@spelthorne.gov.uk,Spelthorne,http://www.spelthorne.gov.uk,-0.47642400000000,TW19 7QP,2014-01-21,fhrs_1_en-GB,1,,FHRS,5
258090,91 - 93 Green Street,Sunbury On Thames,,,Best One,Retailers - other,4613,10,,278110,10,,51.40683200000000,R21GD293GR/1,311,environmental.health.commercial@spelthorne.gov.uk,Spelthorne,http://www.spelthorne.gov.uk,-0.41468300000000,TW16 6RD,2013-07-26,fhrs_3_en-GB,3,,FHRS,10
258091,The Local / Discount Booze,207 Laleham Road,Shepperton,,Best One,Retailers - other,4613,10,,277728,5,,51.40017900000000,10/00137/COMM,311,environmental.health.commercial@spelthorne.gov.uk,Spelthorne,http://www.spelthorne.gov.uk,-0.45860100000000,TW17 0AH,2013-01-23,fhrs_3_en-GB,3,,FHRS,10
258092,Bhs,Store 1,The Elmsleigh Centre,Staines-upon-Thames,Bhs Cafe,Restaurant/Cafe/Canteen,1,5,,278131,0,,,S35HD4THEE/2,311,environmental.health.commercial@spelthorne.gov.uk,Spelthorne,http://www.spelthorne.gov.uk,,TW18 4QF,2014-07-29,fhrs_5_en-GB,5,,FHRS,5
258093,Bhs,The Elmsleigh Centre,Staines-upon-Thames,,Bhs Food Store,Retailers - other,4613,5,,667579,0,,,14/00033/COMM,311,environmental.health.commercial@spelthorne.gov.uk,Spelthorne,http://www.spelthorne.gov.uk,,TW18 4QF,2014-05-15,fhrs_5_en-GB,5,,FHRS,0
258094,The Binfield Bakery,8 Broadway,Kingston Road,Staines-upon-Thames,Binfield Bakery,Retailers - other,4613,5,,277804,5,,51.42857500000000,AAR06JD48THE/1,311,environmental.health.commercial@spelthorne.gov.uk,Spelthorne,http://www.spelthorne.gov.uk,-0.49517600000000,TW18 1AT,2015-01-12,fhrs_5_en-GB,5,,FHRS,5
258095,The Pavilion,Bishop Duppas Park,Walton Bridge Road,Shepperton,Bishop Duppas Bowls Club,Restaurant/Cafe/Canteen,1,,,277986,,,51.39031400000000,E05HD5BISH/1,311,environmental.health.commercial@spelthorne.gov.uk,Spelthorne,http://www.spelthorne.gov.uk,-0.43411100000000,TW17 8NR,2012-08-29,fhrs_exempt_en-GB,Exempt,,FHRS,
258096,Laytons Lane,Sunbury On Thames,Surrey,,Bishop Wand Church Of England Secondary School,School/college/university,7845,5,,278155,5,,51.41065200000000,V06HD2LAYT/1,311,environmental.health.commercial@spelthorne.gov.uk,Spelthorne,http://www.spelthorne.gov.uk,-0.42588200000000,TW16 6LT,2013-05-20,fhrs_5_en-GB,5,,FHRS,5
258097,35 High Street,Stanwell,Staines-upon-Thames,,Bites N Nibbles,Restaurant/Cafe/Canteen,1,10,,277746,10,,51.45774000000000,11/00020/COMM,311,environmental.health.commercial@spelthorne.gov.uk,Spelthorne,http://www.spelthorne.gov.uk,-0.47793800000000,TW19 7LJ,2014-07-16,fhrs_3_en-GB,3,,FHRS,10
258098,Units 3 And 4,Sunbury Cross Centre,Sunbury On Thames,Surrey,Blockbuster Video,Retailers - other,4613,,,278126,,,51.41869200000000,S18XD2SUNB/1,311,environmental.health.commercial@spelthorne.gov.uk,Spelthorne,http://www.spelthorne.gov.uk,-0.42196700000000,TW16 7BB,2011-08-15,fhrs_exempt_en-GB,Exempt,,FHRS,
258099,1 London Road,Staines-upon-Thames,,,Blue Apple Catering - Wood  Kenny Group,Restaurant/Cafe/Canteen,1,0,,690903,0,,,13/00089/COMM,311,environmental.health.commercial@spelthorne.gov.uk,Spelthorne,http://www.spelthorne.gov.uk,,,2013-11-07,fhrs_5_en-GB,5,,FHRS,0
258100,Compass Point,79 - 87 Kingston Road,Staines-upon-Thames,,Blue Apple Catering @ J P Wood-Kenny Group,Restaurant/Cafe/Canteen,1,0,,277759,0,,51.42102300000000,11/00051/COMM,311,environmental.health.commercial@spelthorne.gov.uk,Spelthorne,http://www.spelthorne.gov.uk,-0.50332900000000,TW18 1DY,2013-08-15,fhrs_5_en-GB,5,,FHRS,0
258101,Thamesmead County Secondary School,Manygate Lane,Shepperton,Surrey,Blue Leisure At Thamesmead School Sports Centre,Restaurant/Cafe/Canteen,1,5,,277612,5,,51.39465800000000,08/00080/COMM,311,environmental.health.commercial@spelthorne.gov.uk,Spelthorne,http://www.spelthorne.gov.uk,-0.44225700000000,TW17 9EE,2014-12-16,fhrs_5_en-GB,5,,FHRS,5
258102,163 High Street,Staines-upon-Thames,,,Bobby's Food & Wine,Retailers - other,4613,10,,667578,5,,51.43496300000000,14/00026/COMM,311,environmental.health.commercial@spelthorne.gov.uk,Spelthorne,http://www.spelthorne.gov.uk,-0.50670600000000,TW18 4PA,2014-05-20,fhrs_4_en-GB,4,,FHRS,0
258103,The Three Tuns Public House,63 London Road,Staines-upon-Thames,,Boko Thai Cuisine At The Three Tuns,Pub/bar/nightclub,7843,5,,732567,5,,51.43604100000000,15/00002/COMM,311,environmental.health.commercial@spelthorne.gov.uk,Spelthorne,http://www.spelthorne.gov.uk,-0.50377900000000,TW18 4BN,2015-01-16,fhrs_5_en-GB,5,,FHRS,5
258104,,,,,Bon Appetit Location Catering Ltd,Mobile caterer,7846,5,,277792,5,,,12/00015/COMM,311,environmental.health.commercial@spelthorne.gov.uk,Spelthorne,http://www.spelthorne.gov.uk,,,2013-12-11,fhrs_5_en-GB,5,,FHRS,5
258105,,,,,Boo's Garden,Mobile caterer,7846,5,,690076,0,,,14/00070/COMM,311,environmental.health.commercial@spelthorne.gov.uk,Spelthorne,http://www.spelthorne.gov.uk,,,2014-07-29,fhrs_5_en-GB,5,,FHRS,5
258106,17 Thurlestone Parade,High Street,"Shepperton, Middx",,Boots,Retailers - other,4613,,,278072,,,51.39497000000000,R09GD517TH/1,311,environmental.health.commercial@spelthorne.gov.uk,Spelthorne,http://www.spelthorne.gov.uk,-0.44815400000000,TW17 9AR,2001-08-02,fhrs_exempt_en-GB,Exempt,,FHRS,
258107,21 The Parade,Staines Road West,Sunbury On Thames,,Boots,Retailers - other,4613,,,690899,,,,09/00053/COMM,311,environmental.health.commercial@spelthorne.gov.uk,Spelthorne,http://www.spelthorne.gov.uk,,TW16 7AF,2009-06-29,fhrs_exempt_en-GB,Exempt,,FHRS,
258108,58 - 60 Church Road,Ashford,Surrey,,Boots Pharmacy,Retailers - other,4613,,,277620,,,51.43306400000000,08/00107/COMM,311,environmental.health.commercial@spelthorne.gov.uk,Spelthorne,http://www.spelthorne.gov.uk,-0.46201200000000,TW15 2TS,2008-11-27,fhrs_exempt_en-GB,Exempt,,FHRS,
258109,7 - 9 High Street,Shepperton,Surrey,,Boots Pharmacy,Retailers - other,4613,,,278074,,,51.39547800000000,R09GD59HIG/1,311,environmental.health.commercial@spelthorne.gov.uk,Spelthorne,http://www.spelthorne.gov.uk,-0.44921500000000,TW17 9AJ,2012-01-20,fhrs_exempt_en-GB,Exempt,,FHRS,
258110,Boots,Two Rivers Retail Park,Mustard Mill Road,Staines-upon-Thames,Boots The Chemist,Retailers - other,4613,0,,278071,0,,51.43581500000000,R09GD4TWOR/1,311,environmental.health.commercial@spelthorne.gov.uk,Spelthorne,http://www.spelthorne.gov.uk,-0.51145500000000,TW18 4WB,2012-06-12,fhrs_5_en-GB,5,,FHRS,0
258111,Unit 15,Sunbury Cross Centre,Sunbury On Thames,Surrey,Boots The Chemist,Retailers - other,4613,,,278062,,,51.41869200000000,R09GD2SUNB/1,311,environmental.health.commercial@spelthorne.gov.uk,Spelthorne,http://www.spelthorne.gov.uk,-0.42196700000000,TW16 7BB,2012-03-29,fhrs_exempt_en-GB,Exempt,,FHRS,
258112,445 Staines Road West,Ashford,Surrey,,BP Connect,Retailers - other,4613,0,,278091,0,,51.42293600000000,R12GD3445S/3,311,environmental.health.commercial@spelthorne.gov.uk,Spelthorne,http://www.spelthorne.gov.uk,-0.44611400000000,TW15 1RB,2014-03-11,fhrs_5_en-GB,5,,FHRS,5
258113,Kempton Park Garage,Staines Road East,Sunbury On Thames,,Bp Connect/M&S Simply Food,Retailers - other,4613,0,,278088,0,,,R12GD2STAI/1,311,environmental.health.commercial@spelthorne.gov.uk,Spelthorne,http://www.spelthorne.gov.uk,,TW16 5AW,2013-09-26,fhrs_5_en-GB,5,,FHRS,5
258114,,,,,Bramdean Bungalow,Hospitals/Childcare/Caring Premises,5,,,278150,,,,T08HD41AWO/2,311,environmental.health.commercial@spelthorne.gov.uk,Spelthorne,http://www.spelthorne.gov.uk,,,2014-01-09,fhrs_exempt_en-GB,Exempt,,FHRS,
258115,29 Berryscroft Road,Staines-upon-Thames,Middx,,Brand Homes - Residential Care Home,Hospitals/Childcare/Caring Premises,5,0,,278141,0,,51.42258300000000,T07HD429BE/1,311,environmental.health.commercial@spelthorne.gov.uk,Spelthorne,http://www.spelthorne.gov.uk,-0.48442800000000,TW18 1ND,2014-12-22,fhrs_5_en-GB,5,,FHRS,0
258116,Communications House,South Street,Staines-upon-Thames,,Breakpoint Wilson Vale Catering Ltd,Restaurant/Cafe/Canteen,1,0,,278010,0,,51.43211500000000,O11HD4SOUT/1,311,environmental.health.commercial@spelthorne.gov.uk,Spelthorne,http://www.spelthorne.gov.uk,-0.51042400000000,TW18 4PR,2014-04-22,fhrs_5_en-GB,5,,FHRS,0
258117,Breakspear,13 Church Road,Ashford,Surrey,Breakspear (Ashford) Ltd,Retailers - other,4613,,,278064,,,51.43496800000000,R09GD313CH/1,311,environmental.health.commercial@spelthorne.gov.uk,Spelthorne,http://www.spelthorne.gov.uk,-0.46599100000000,TW15 2UN,2007-03-22,fhrs_exempt_en-GB,Exempt,,FHRS,
258118,3 Broadway,Kingston Road,Staines-upon-Thames,Surrey,Broadway Pharmacy,Retailers - other,4613,,,278069,,,51.42857500000000,R09GD43THE/1,311,environmental.health.commercial@spelthorne.gov.uk,Spelthorne,http://www.spelthorne.gov.uk,-0.49517600000000,TW18 1AT,2006-06-22,fhrs_exempt_en-GB,Exempt,,FHRS,
258119,1 Broadway,Kingston Road,Staines-upon-Thames,,Broadway Wines,Retailers - other,4613,,,277725,,,51.42857500000000,10/00134/COMM,311,environmental.health.commercial@spelthorne.gov.uk,Spelthorne,http://www.spelthorne.gov.uk,-0.49517600000000,TW18 1AT,2011-02-04,fhrs_exempt_en-GB,Exempt,,FHRS,
258120,Spelthorne College,Church Road,Ashford,Surrey,Brooklands College Coffee Shop,School/college/university,7845,0,,278158,0,,51.43412300000000,V06HD3CHUR/1,311,environmental.health.commercial@spelthorne.gov.uk,Spelthorne,http://www.spelthorne.gov.uk,-0.46325700000000,TW15 2XD,2015-01-13,fhrs_5_en-GB,5,,FHRS,0
258121,0,Windmill Road,Sunbury On Thames,Surrey,Brunch Bus,Mobile caterer,7846,0,,277939,5,,51.41427700000000,C27HD2WIND/1,311,environmental.health.commercial@spelthorne.gov.uk,Spelthorne,http://www.spelthorne.gov.uk,-0.43128900000000,,2013-10-04,fhrs_5_en-GB,5,,FHRS,5
258122,Berryscroft Road,Laleham,Staines-upon-Thames,,Buckland County Junior And Infant School,School/college/university,7845,10,,277957,5,,51.42232100000000,C32HD4BERR/1,311,environmental.health.commercial@spelthorne.gov.uk,Spelthorne,http://www.spelthorne.gov.uk,-0.48573100000000,TW18 1NB,2014-03-28,fhrs_4_en-GB,4,,FHRS,5
258123,6 - 7 Avenue Parade,The Avenue,Sunbury On Thames,,Budgens,Retailers - supermarkets/hypermarkets,7840,0,,278121,5,,51.40702000000000,R50GD267AV/1,311,environmental.health.commercial@spelthorne.gov.uk,Spelthorne,http://www.spelthorne.gov.uk,-0.40602100000000,TW16 5HS,2013-11-06,fhrs_5_en-GB,5,,FHRS,5
258124,49 High Street,Shepperton,Surrey,,Budgens Shepperton,Retailers - supermarkets/hypermarkets,7840,5,,278039,5,,51.39411700000000,R03GD549HI/1,311,environmental.health.commercial@spelthorne.gov.uk,Spelthorne,http://www.spelthorne.gov.uk,-0.44895900000000,TW17 9AB,2013-11-18,fhrs_5_en-GB,5,,FHRS,5
258125,1b Woodthorpe Road,Ashford,Middx,,Burger Junction,Takeaway/sandwich shop,7844,0,,277926,5,,51.43599600000000,C23HD31BWO/1,311,environmental.health.commercial@spelthorne.gov.uk,Spelthorne,http://www.spelthorne.gov.uk,-0.46752500000000,TW15 2RL,2015-01-21,fhrs_5_en-GB,5,,FHRS,0
258126,2 Woodthorpe Road,Ashford,,,Burger Plus,Restaurant/Cafe/Canteen,1,10,,667586,10,,51.43575000000000,14/00050/COMM,311,environmental.health.commercial@spelthorne.gov.uk,Spelthorne,http://www.spelthorne.gov.uk,-0.46734600000000,TW15 2RY,2014-05-15,fhrs_3_en-GB,3,,FHRS,10
258127,,,,,Busy Bees Suppliers,Mobile caterer,7846,10,,722898,5,,,14/00099/COMM,311,environmental.health.commercial@spelthorne.gov.uk,Spelthorne,http://www.spelthorne.gov.uk,,,2014-11-13,fhrs_4_en-GB,4,,FHRS,5
258128,,,,,Buttercream Cakes & Confectionery,Retailers - other,4613,0,,277790,0,,,11/00108/COMM,311,environmental.health.commercial@spelthorne.gov.uk,Spelthorne,http://www.spelthorne.gov.uk,,,2012-02-08,fhrs_5_en-GB,5,,FHRS,0
258129,Buzz Espresso Bar,Unit 12,Sunbury Cross Centre,Sunbury On Thames,Buzzz Expresso Bar,Restaurant/Cafe/Canteen,1,5,,277884,0,,51.41916800000000,C06HD212SU/1,311,environmental.health.commercial@spelthorne.gov.uk,Spelthorne,http://www.spelthorne.gov.uk,-0.42124600000000,TW16 7AZ,2014-02-05,fhrs_5_en-GB,5,,FHRS,5
258130,Capriccio,97 Green Street,Sunbury On Thames,,Cafe Capriccio,Restaurant/Cafe/Canteen,1,5,,555253,5,,51.40683200000000,13/00004/COMM,311,environmental.health.commercial@spelthorne.gov.uk,Spelthorne,http://www.spelthorne.gov.uk,-0.41468300000000,TW16 6RD,2013-05-22,fhrs_5_en-GB,5,,FHRS,5
258131,71 Feltham Road,Ashford,,,Cafe de China,Takeaway/sandwich shop,7844,10,,277932,10,,51.43279300000000,C23HD371FE/1,311,environmental.health.commercial@spelthorne.gov.uk,Spelthorne,http://www.spelthorne.gov.uk,-0.45234000000000,TW15 1DB,2014-12-02,fhrs_2_en-GB,2,,FHRS,15
258132,Cafe Mocha,8 High Street,Shepperton,,Cafe Mocha d,Restaurant/Cafe/Canteen,1,5,,277878,5,,51.39565700000000,C05HD58HIG/1,311,environmental.health.commercial@spelthorne.gov.uk,Spelthorne,http://www.spelthorne.gov.uk,-0.44843300000000,TW17 9AW,2013-03-28,fhrs_5_en-GB,5,,FHRS,5
258133,Staines Cafe,53 - 55 Church Street,Staines-upon-Thames,,Cafe One,Restaurant/Cafe/Canteen,1,10,,277781,5,,51.43421100000000,11/00090/COMM,311,environmental.health.commercial@spelthorne.gov.uk,Spelthorne,http://www.spelthorne.gov.uk,-0.51474400000000,TW18 4EN,2014-12-11,fhrs_4_en-GB,4,,FHRS,5
258134,133 - 135 High Street,Staines-upon-Thames,,,Cafe Ricco,Restaurant/Cafe/Canteen,1,5,,277540,10,,,05/00069/COMM,311,environmental.health.commercial@spelthorne.gov.uk,Spelthorne,http://www.spelthorne.gov.uk,,,2013-09-10,fhrs_4_en-GB,4,,FHRS,5
258135,123 - 125 High Street,Staines-upon-Thames,,,Caffe Gondola,Other catering premises,7841,5,,277718,5,,51.43484500000000,10/00112/COMM,311,environmental.health.commercial@spelthorne.gov.uk,Spelthorne,http://www.spelthorne.gov.uk,-0.50797600000000,TW18 4PD,2014-03-25,fhrs_5_en-GB,5,,FHRS,5
258136,Unit 6A,Tillys Lane,Staines-upon-Thames,,Caffe Gusto,Restaurant/Cafe/Canteen,1,5,,277604,5,,51.43423900000000,08/00048/COMM,311,environmental.health.commercial@spelthorne.gov.uk,Spelthorne,http://www.spelthorne.gov.uk,-0.51198100000000,TW18 4BJ,2013-06-18,fhrs_5_en-GB,5,,FHRS,5
258137,59 High Street,Staines-upon-Thames,,,Caffe Nero,Other catering premises,7841,5,,330734,5,,51.43364000000000,12/00011/COMM,311,environmental.health.commercial@spelthorne.gov.uk,Spelthorne,http://www.spelthorne.gov.uk,-0.51154000000000,TW18 4QH,2014-10-30,fhrs_5_en-GB,5,,FHRS,5
258138,75 Upper Halliford Road,Shepperton,,,Caffe Presto,Restaurant/Cafe/Canteen,1,20,,277635,5,,51.40252600000000,09/00091/COMM,311,environmental.health.commercial@spelthorne.gov.uk,Spelthorne,http://www.spelthorne.gov.uk,-0.43286000000000,TW17 8SE,2013-11-08,fhrs_1_en-GB,1,,FHRS,10
258139,,,,,Cake Art,Other catering premises,7841,5,,277739,0,,,11/00008/COMM,311,environmental.health.commercial@spelthorne.gov.uk,Spelthorne,http://www.spelthorne.gov.uk,,,2011-05-05,fhrs_5_en-GB,5,,FHRS,0
258140,,,,,Caked With Love,Other catering premises,7841,5,,715696,0,,,14/00084/COMM,311,environmental.health.commercial@spelthorne.gov.uk,Spelthorne,http://www.spelthorne.gov.uk,,,2014-11-07,fhrs_5_en-GB,5,,FHRS,5
258141,Salvation Army,Woodthorpe Road,Ashford,Middx,Cameo,Restaurant/Cafe/Canteen,1,0,,277992,0,,51.43388000000000,E11HD3WOOD/2,311,environmental.health.commercial@spelthorne.gov.uk,Spelthorne,http://www.spelthorne.gov.uk,-0.47629900000000,TW15 3JY,2009-04-30,fhrs_5_en-GB,5,,FHRS,0
258142,Cape Wine And Food,77 Laleham Road,Staines-upon-Thames,,Cape Wine & Food,Retailers - other,4613,0,,278082,0,,51.42814900000000,R11GD477LA/1,311,environmental.health.commercial@spelthorne.gov.uk,Spelthorne,http://www.spelthorne.gov.uk,-0.50756100000000,TW18 2EA,2012-09-10,fhrs_5_en-GB,5,,FHRS,0
258143,21 High Street,Staines-upon-Thames,,,Carnivore Restaurant,Restaurant/Cafe/Canteen,1,5,,715699,0,,51.43322400000000,14/00095/COMM,311,environmental.health.commercial@spelthorne.gov.uk,Spelthorne,http://www.spelthorne.gov.uk,-0.51349500000000,TW18 4QY,2014-12-18,fhrs_5_en-GB,5,,FHRS,5
258144,,,,,Caroline's Cakes,Other catering premises,7841,10,,277692,0,,,10/00043/COMM,311,environmental.health.commercial@spelthorne.gov.uk,Spelthorne,http://www.spelthorne.gov.uk,,,2010-10-25,fhrs_4_en-GB,4,,FHRS,5
258145,,,,,Carrie-Anne's Cake Kitchen,Other catering premises,7841,0,,731466,0,,,14/00109/COMM,311,environmental.health.commercial@spelthorne.gov.uk,Spelthorne,http://www.spelthorne.gov.uk,,,2015-01-19,fhrs_5_en-GB,5,,FHRS,0
258146,Church Road,Shepperton,,,Castello Restaurant,Restaurant/Cafe/Canteen,1,10,,550752,5,,51.38933000000000,13/00021/COMM,311,environmental.health.commercial@spelthorne.gov.uk,Spelthorne,http://www.spelthorne.gov.uk,-0.45418000000000,TW17 9JT,2014-12-10,fhrs_4_en-GB,4,,FHRS,5
258147,Benwell Community Centre,Downside,Sunbury On Thames,,Catering Academy,Other catering premises,7841,5,,732564,5,,51.41739500000000,14/00101/COMM,311,environmental.health.commercial@spelthorne.gov.uk,Spelthorne,http://www.spelthorne.gov.uk,-0.41844500000000,TW16 6RX,2015-01-27,fhrs_5_en-GB,5,,FHRS,5
258148,Kempton Market,Kempton Park Racecourse,Staines Road East,Sunbury On Thames,Catley Brothers,Mobile caterer,7846,5,,277682,5,,51.41490300000000,10/00029/COMM,311,environmental.health.commercial@spelthorne.gov.uk,Spelthorne,http://www.spelthorne.gov.uk,-0.40374800000000,TW16 5AF,2010-06-24,fhrs_5_en-GB,5,,FHRS,5
258149,Post Office,215 Charlton Road,Shepperton,Surrey,Charlton Village Store,Retailers - other,4613,5,,278028,5,,51.41314900000000,R02GD5215C/1,311,environmental.health.commercial@spelthorne.gov.uk,Spelthorne,http://www.spelthorne.gov.uk,-0.44385700000000,TW17 0SG,2014-12-16,fhrs_5_en-GB,5,,FHRS,5
258150,Sunbury Manor School,48 Nursery Road,Sunbury On Thames,,Chartwell @ Sunbury Manor School,School/college/university,7845,0,,278156,0,,51.41476800000000,V06HD2NURS/1,311,environmental.health.commercial@spelthorne.gov.uk,Spelthorne,http://www.spelthorne.gov.uk,-0.42102300000000,TW16 6LF,2013-07-16,fhrs_5_en-GB,5,,FHRS,5
258151,St Pauls College,The Ridings,Sunbury On Thames,,Chartwells St Paul's Catholic College,School/college/university,7845,5,,427169,0,,51.41561200000000,12/00054/COMM,311,environmental.health.commercial@spelthorne.gov.uk,Spelthorne,http://www.spelthorne.gov.uk,-0.41563000000000,TW16 6NX,2014-02-25,fhrs_5_en-GB,5,,FHRS,5
258152,Cheers,15 Station Approach,Ashford,Surrey,Cheers Wine Store,Retailers - other,4613,,,278080,,,51.43613100000000,R11GD315ST/1,311,environmental.health.commercial@spelthorne.gov.uk,Spelthorne,http://www.spelthorne.gov.uk,-0.46822500000000,TW15 2QN,2011-03-03,fhrs_exempt_en-GB,Exempt,,FHRS,
258153,41 Bingham Drive,Laleham,Staines-upon-Thames,,Chefs On Location Ltd,Mobile caterer,7846,20,,555255,5,,51.42037700000000,13/00028/COMM,311,environmental.health.commercial@spelthorne.gov.uk,Spelthorne,http://www.spelthorne.gov.uk,-0.48283200000000,TW18 1QX,2013-05-20,fhrs_1_en-GB,1,,FHRS,10
258154,Manor Lane,Sunbury On Thames,,,Chennestone School,School/college/university,7845,0,,277950,0,,51.41263600000000,C32HD2MANO/1,311,environmental.health.commercial@spelthorne.gov.uk,Spelthorne,http://www.spelthorne.gov.uk,-0.40569600000000,TW16 5ED,2013-03-26,fhrs_5_en-GB,5,,FHRS,5
258155,138 Stanwell Road,Ashford,,,Chesters,Restaurant/Cafe/Canteen,1,5,,690905,5,,51.43222700000000,14/00056/COMM,311,environmental.health.commercial@spelthorne.gov.uk,Spelthorne,http://www.spelthorne.gov.uk,-0.47231200000000,TW15 3QP,2014-11-07,fhrs_5_en-GB,5,,FHRS,5
258156,Chew Chew,4 Station Approach,Staines-upon-Thames,,Chew Chews,Restaurant/Cafe/Canteen,1,10,,277705,5,,51.43288800000000,10/00077/COMM,311,environmental.health.commercial@spelthorne.gov.uk,Spelthorne,http://www.spelthorne.gov.uk,-0.50335000000000,TW18 4LY,2013-08-27,fhrs_3_en-GB,3,,FHRS,10
258157,Kempton Market,Kempton Park Racecourse,Staines Road East,Sunbury On Thames,Chicago Grill,Mobile caterer,7846,0,,277681,0,,51.41490300000000,10/00028/COMM,311,environmental.health.commercial@spelthorne.gov.uk,Spelthorne,http://www.spelthorne.gov.uk,-0.40374800000000,TW16 5AF,2013-03-07,fhrs_5_en-GB,5,,FHRS,0
258158,Staines Market,High Street,Staines-upon-Thames,,Chimney Cake,Mobile caterer,7846,5,,277794,5,,,12/00034/COMM,311,environmental.health.commercial@spelthorne.gov.uk,Spelthorne,http://www.spelthorne.gov.uk,,,2012-02-25,fhrs_5_en-GB,5,,FHRS,5
258159,China Star,20 Bridge Street,Staines-upon-Thames,,China Star Restaurant,Restaurant/Cafe/Canteen,1,10,,277565,15,,51.43445500000000,07/00003/COMM,311,environmental.health.commercial@spelthorne.gov.uk,Spelthorne,http://www.spelthorne.gov.uk,-0.51552700000000,TW18 4TW,2015-01-20,fhrs_2_en-GB,2,,FHRS,15
258160,8 The Elmsleigh Centre,Staines-upon-Thames,,,Chocolat Belge,Retailers - other,4613,20,,555252,10,,51.43346100000000,12/00133/COMM,311,environmental.health.commercial@spelthorne.gov.uk,Spelthorne,http://www.spelthorne.gov.uk,-0.50948800000000,TW18 4QB,2013-05-09,fhrs_1_en-GB,1,,FHRS,10
258161,,,,,Christine Harrison,Other catering premises,7841,0,,555263,5,,,13/00060/COMM,311,environmental.health.commercial@spelthorne.gov.uk,Spelthorne,http://www.spelthorne.gov.uk,,,2013-06-04,fhrs_5_en-GB,5,,FHRS,0
258162,Falcon Drive,Stanwell,Staines-upon-Thames,,Church View Care Home,Hospitals/Childcare/Caring Premises,5,10,,428861,0,,51.44780700000000,12/00013/COMM,311,environmental.health.commercial@spelthorne.gov.uk,Spelthorne,http://www.spelthorne.gov.uk,-0.32562800000000,TW19 7BX,2014-09-30,fhrs_4_en-GB,4,,FHRS,0
258163,,,,,Churros Garcia,Mobile caterer,7846,0,,277507,0,,,04/00005/COMM,311,environmental.health.commercial@spelthorne.gov.uk,Spelthorne,http://www.spelthorne.gov.uk,,,2009-05-14,fhrs_5_en-GB,5,,FHRS,5
258164,113 Clare Road,"Stanwell, Staines-upon-Thames",Middx,,Clare Road Post Office,Retailers - other,4613,5,,278100,5,,51.45131700000000,R21GD1113C/1,311,environmental.health.commercial@spelthorne.gov.uk,Spelthorne,http://www.spelthorne.gov.uk,-0.47642400000000,TW19 7QP,2009-03-05,fhrs_5_en-GB,5,,FHRS,5
258165,Clarendon County Primary School,Knapp Road,Ashford,,Clarendon County Primary,School/college/university,7845,0,,277955,0,,51.43601500000000,C32HD3KNAP/1,311,environmental.health.commercial@spelthorne.gov.uk,Spelthorne,http://www.spelthorne.gov.uk,-0.46558200000000,TW15 2HZ,2014-09-22,fhrs_5_en-GB,5,,FHRS,5
258166,,,,,Clare's Cakes,Other catering premises,7841,0,,610778,0,,,13/00058/COMM,311,environmental.health.commercial@spelthorne.gov.uk,Spelthorne,http://www.spelthorne.gov.uk,,,2013-10-21,fhrs_5_en-GB,5,,FHRS,5
258167,38 - 39 The Elmsleigh Centre,Staines-upon-Thames,Surrey,,Clinton Cards,Retailers - other,4613,,,278133,,,51.43346100000000,S50GD438TH/1,311,environmental.health.commercial@spelthorne.gov.uk,Spelthorne,http://www.spelthorne.gov.uk,-0.50948800000000,TW18 4QB,2012-06-12,fhrs_exempt_en-GB,Exempt,,FHRS,
258168,,,,,Clockhouse Cakes,Other catering premises,7841,0,,593797,0,,,13/00085/COMM,311,environmental.health.commercial@spelthorne.gov.uk,Spelthorne,http://www.spelthorne.gov.uk,,,2013-09-26,fhrs_5_en-GB,5,,FHRS,0
258169,Cafe Bella,16 Woodthorpe Road,Ashford,,Coffee Bella,Restaurant/Cafe/Canteen,1,5,,277580,5,,51.43575000000000,07/00070/COMM,311,environmental.health.commercial@spelthorne.gov.uk,Spelthorne,http://www.spelthorne.gov.uk,-0.46734600000000,TW15 2RY,2014-01-09,fhrs_4_en-GB,4,,FHRS,10
258170,24 The Elmsleigh Centre,Staines-upon-Thames,,,Coffee Corner,Restaurant/Cafe/Canteen,1,10,,731465,0,,51.43346100000000,14/00100/COMM,311,environmental.health.commercial@spelthorne.gov.uk,Spelthorne,http://www.spelthorne.gov.uk,-0.50948800000000,TW18 4QB,2015-01-12,fhrs_4_en-GB,4,,FHRS,0
258171,,,,,Coffee Pronto,Restaurant/Cafe/Canteen,1,5,,277583,5,,,07/00081/COMM,311,environmental.health.commercial@spelthorne.gov.uk,Spelthorne,http://www.spelthorne.gov.uk,,,2007-09-24,fhrs_5_en-GB,5,,FHRS,5
258172,Masonic Hall,Thames Street,Staines-upon-Thames,,Connect Catering Ltd,Pub/bar/nightclub,7843,0,,516902,0,,51.43237800000000,12/00046/COMM,311,environmental.health.commercial@spelthorne.gov.uk,Spelthorne,http://www.spelthorne.gov.uk,-0.51126400000000,TW18 4PH,2013-02-14,fhrs_5_en-GB,5,,FHRS,5
258173,17 Church Parade,Church Road,"Ashford, Middx",,Co-Op,Retailers - supermarkets/hypermarkets,7840,5,,278036,5,,51.43285700000000,R03GD317CH/1,311,environmental.health.commercial@spelthorne.gov.uk,Spelthorne,http://www.spelthorne.gov.uk,-0.46272400000000,TW15 2TX,2015-01-06,fhrs_5_en-GB,5,,FHRS,5
258174,The Co-operative,13 - 14 Thurlestone Parade,High Street,Shepperton,Co-Operative,Retailers - supermarkets/hypermarkets,7840,5,,278038,5,,51.39497000000000,R03GD514TH/1,311,environmental.health.commercial@spelthorne.gov.uk,Spelthorne,http://www.spelthorne.gov.uk,-0.44815400000000,TW17 9AR,2014-05-02,fhrs_4_en-GB,4,,FHRS,10
258175,,,,,Cosmo Cuisine,Other catering premises,7841,10,,593796,5,,,13/00081/COMM,311,environmental.health.commercial@spelthorne.gov.uk,Spelthorne,http://www.spelthorne.gov.uk,,,2013-10-10,fhrs_4_en-GB,4,,FHRS,0
258176,Murco,Petrol Filling Station,Bedfont Road,Stanwell,Cost Cutter,Retailers - other,4613,5,,278084,5,,51.45777900000000,R12GD1701B/1,311,environmental.health.commercial@spelthorne.gov.uk,Spelthorne,http://www.spelthorne.gov.uk,-0.47131500000000,TW19 7LU,2013-06-18,fhrs_5_en-GB,5,,FHRS,5
258177,1 Thurlestone Parade,High Street,Shepperton,,Costa Coffee,Restaurant/Cafe/Canteen,1,10,,528849,5,,51.39497000000000,12/00135/COMM,311,environmental.health.commercial@spelthorne.gov.uk,Spelthorne,http://www.spelthorne.gov.uk,-0.44815400000000,TW17 9AR,2013-03-08,fhrs_4_en-GB,4,,FHRS,0
258178,3A Main Square,The Elmsleigh Centre,Staines-upon-Thames,Surrey,Costa Coffee,Restaurant/Cafe/Canteen,1,0,,277575,0,,51.43346100000000,07/00059/COMM,311,environmental.health.commercial@spelthorne.gov.uk,Spelthorne,http://www.spelthorne.gov.uk,-0.50948800000000,TW18 4QA,2013-03-07,fhrs_5_en-GB,5,,FHRS,5
258179,79 Church Road,Ashford,,,Costa Coffee,Restaurant/Cafe/Canteen,1,0,,650236,0,,51.43221000000000,13/00131/COMM,311,environmental.health.commercial@spelthorne.gov.uk,Spelthorne,http://www.spelthorne.gov.uk,-0.46066000000000,TW15 2PE,2014-03-18,fhrs_5_en-GB,5,,FHRS,5
258180,Norris Road,Staines-upon-Thames,Surrey,,Costa Coffee,Restaurant/Cafe/Canteen,1,5,,277888,5,,51.43456900000000,C06HD417NO/1,311,environmental.health.commercial@spelthorne.gov.uk,Spelthorne,http://www.spelthorne.gov.uk,-0.51103500000000,TW18 4UP,2014-09-11,fhrs_4_en-GB,4,,FHRS,10
258181,Unit 3,5 Grove House,Church Road,Ashford,Costa Coffee,Restaurant/Cafe/Canteen,1,0,,277624,5,,51.43381800000000,08/00123/COMM,311,environmental.health.commercial@spelthorne.gov.uk,Spelthorne,http://www.spelthorne.gov.uk,-0.46532500000000,TW15 2UD,2013-04-17,fhrs_5_en-GB,5,,FHRS,0
258182,,23 The Parade,Staines Road West,Sunbury On Thames,Costcutter,Retailers - other,4613,5,,277744,0,,51.41976700000000,11/00017/COMM,311,environmental.health.commercial@spelthorne.gov.uk,Spelthorne,http://www.spelthorne.gov.uk,-0.42033300000000,TW16 7AB,2013-04-17,fhrs_5_en-GB,5,,FHRS,0
258183,15 - 17 Feltham Road,Ashford,,,Costcutter,Retailers - other,4613,10,,277688,10,,51.43282300000000,10/00037/COMM,311,environmental.health.commercial@spelthorne.gov.uk,Spelthorne,http://www.spelthorne.gov.uk,-0.45461200000000,TW15 1DQ,2013-07-16,fhrs_2_en-GB,2,,FHRS,15
258184,255 Staines Road West,Ashford,Surrey,,Costcutters,Retailers - other,4613,5,,278019,5,,51.42150200000000,R02GD3255S/1,311,environmental.health.commercial@spelthorne.gov.uk,Spelthorne,http://www.spelthorne.gov.uk,-0.43500200000000,TW15 1RT,2012-08-07,fhrs_5_en-GB,5,,FHRS,0
258185,,,,,Cousins Candy Creations,Mobile caterer,7846,5,,586874,0,,,13/00050/COMM,311,environmental.health.commercial@spelthorne.gov.uk,Spelthorne,http://www.spelthorne.gov.uk,,,2013-09-05,fhrs_5_en-GB,5,,FHRS,0
258186,Staines Market,High Street,Staines-upon-Thames,,Cousins Of Twickenham,Retailers - other,4613,5,,278097,5,,,R14GD4MARK/6,311,environmental.health.commercial@spelthorne.gov.uk,Spelthorne,http://www.spelthorne.gov.uk,,,2002-12-04,fhrs_5_en-GB,5,,FHRS,5
258187,,,,,Coz Bakery,Mobile caterer,7846,10,,690077,5,,,14/00072/COMM,311,environmental.health.commercial@spelthorne.gov.uk,Spelthorne,http://www.spelthorne.gov.uk,,,2014-08-05,fhrs_4_en-GB,4,,FHRS,5
258188,,,,,Creative Cakes,Other catering premises,7841,5,,277685,0,,,10/00033/COMM,311,environmental.health.commercial@spelthorne.gov.uk,Spelthorne,http://www.spelthorne.gov.uk,,,2010-07-06,fhrs_5_en-GB,5,,FHRS,5
258189,,,,,Cristina Judith Matei,Mobile caterer,7846,5,,722896,0,,,14/00087/COMM,311,environmental.health.commercial@spelthorne.gov.uk,Spelthorne,http://www.spelthorne.gov.uk,,,2014-11-26,fhrs_5_en-GB,5,,FHRS,0
258190,,,,,Cupcake Goddess London,Other catering premises,7841,0,,277694,0,,,10/00045/COMM,311,environmental.health.commercial@spelthorne.gov.uk,Spelthorne,http://www.spelthorne.gov.uk,,,2010-08-31,fhrs_5_en-GB,5,,FHRS,0
258191,,,,,Cupcakes And Muffins,Other catering premises,7841,5,,555256,0,,,13/00036/COMM,311,environmental.health.commercial@spelthorne.gov.uk,Spelthorne,http://www.spelthorne.gov.uk,,,2013-05-29,fhrs_5_en-GB,5,,FHRS,5
258192,,,,,Cupcakes And Muffins,Other catering premises,7841,5,,555257,0,,,13/00037/COMM,311,environmental.health.commercial@spelthorne.gov.uk,Spelthorne,http://www.spelthorne.gov.uk,,,2013-05-29,fhrs_5_en-GB,5,,FHRS,5
258193,31 High Street,Shepperton,,,Daines And Gray,Retailers - other,4613,10,,278042,5,,51.39411700000000,R04JD531HI/1,311,environmental.health.commercial@spelthorne.gov.uk,Spelthorne,http://www.spelthorne.gov.uk,-0.44895900000000,TW17 9AB,2014-03-26,fhrs_3_en-GB,3,,FHRS,10
258194,Hall,St Davids Presbytery,Everest Road,Stanwell,Daisies,School/college/university,7845,10,,509938,5,,51.45530200000000,12/00110/COMM,311,environmental.health.commercial@spelthorne.gov.uk,Spelthorne,http://www.spelthorne.gov.uk,-0.47791800000000,TW19 7EE,2013-01-23,fhrs_3_en-GB,3,,FHRS,10
258195,,,,,Debbie Brown's Cake Art,Other catering premises,7841,5,,277896,5,,,C10XD3102S/1,311,environmental.health.commercial@spelthorne.gov.uk,Spelthorne,http://www.spelthorne.gov.uk,,,2006-12-15,fhrs_5_en-GB,5,,FHRS,5
258196,Debenhams,37 - 45 High Street,Staines-upon-Thames,,Debenhams Cafe,Restaurant/Cafe/Canteen,1,5,,278130,0,,51.43315000000000,S35HD43745/1,311,environmental.health.commercial@spelthorne.gov.uk,Spelthorne,http://www.spelthorne.gov.uk,-0.51192900000000,TW18 4QU,2015-01-20,fhrs_4_en-GB,4,,FHRS,10
258197,129 High Street,Staines-upon-Thames,,,Delicje Polish Food,Retailers - other,4613,10,,667584,0,,51.43484500000000,14/00045/COMM,311,environmental.health.commercial@spelthorne.gov.uk,Spelthorne,http://www.spelthorne.gov.uk,-0.50797600000000,TW18 4PD,2014-06-03,fhrs_4_en-GB,4,,FHRS,0
258198,,,,,Delightful Dining,Other catering premises,7841,5,,277571,5,,,07/00027/COMM,311,environmental.health.commercial@spelthorne.gov.uk,Spelthorne,http://www.spelthorne.gov.uk,,,2014-03-26,fhrs_5_en-GB,5,,FHRS,0
258199,Ferry Lane,Shepperton,,,Desborough Sailing Club,Restaurant/Cafe/Canteen,1,,,571453,,,51.38343400000000,13/00023/COMM,311,environmental.health.commercial@spelthorne.gov.uk,Spelthorne,http://www.spelthorne.gov.uk,-0.45641900000000,TW17 9LQ,2013-06-28,fhrs_exempt_en-GB,Exempt,,FHRS,
258200,15 Clare Road,Stanwell,Staines-upon-Thames,,Diane's Crew House,Hotel/bed & breakfast/guest house,7842,5,,277668,0,,51.44972600000000,09/00190/COMM,311,environmental.health.commercial@spelthorne.gov.uk,Spelthorne,http://www.spelthorne.gov.uk,-0.47847800000000,TW19 7QQ,2009-11-09,fhrs_5_en-GB,5,,FHRS,0
258201,17 Clare Road,Stanwell,Staines-upon-Thames,,Diane's Crew House,Hotel/bed & breakfast/guest house,7842,5,,277669,0,,51.44972600000000,09/00191/COMM,311,environmental.health.commercial@spelthorne.gov.uk,Spelthorne,http://www.spelthorne.gov.uk,-0.47847800000000,TW19 7QQ,2009-11-09,fhrs_5_en-GB,5,,FHRS,0
258202,35 Mulberry Avenue,Stanwell,Staines-upon-Thames,,Dimensions,Hospitals/Childcare/Caring Premises,5,5,,277783,0,,51.44790000000000,11/00096/COMM,311,environmental.health.commercial@spelthorne.gov.uk,Spelthorne,http://www.spelthorne.gov.uk,-0.47361700000000,TW19 7SF,2012-02-22,fhrs_4_en-GB,4,,FHRS,10
258203,100 Gloucester Crescent,Staines-upon-Thames,Middx,,Dimensions Owl Housing,Hospitals/Childcare/Caring Premises,5,0,,278137,0,,51.42553300000000,T07HD1100G/1,311,environmental.health.commercial@spelthorne.gov.uk,Spelthorne,http://www.spelthorne.gov.uk,-0.47895000000000,TW18 1PS,2014-12-22,fhrs_5_en-GB,5,,FHRS,5
258204,Dimensions,65 Gloucester Crescent,Laleham,Staines-upon-Thames,Dimensions Owl Housing,Hospitals/Childcare/Caring Premises,5,5,,277801,5,,51.42544800000000,6T07HD165GL/1,311,environmental.health.commercial@spelthorne.gov.uk,Spelthorne,http://www.spelthorne.gov.uk,-0.47998900000000,TW18 1PN,2014-12-17,fhrs_5_en-GB,5,,FHRS,5
258205,50 Fordbridge Road,Ashford,Surrey,,Dimensions UK Ltd,Hospitals/Childcare/Caring Premises,5,0,,278140,0,,51.42926800000000,T07HD350FO/1,311,environmental.health.commercial@spelthorne.gov.uk,Spelthorne,http://www.spelthorne.gov.uk,-0.46606700000000,TW15 2SP,2015-01-14,fhrs_5_en-GB,5,,FHRS,5
258206,Stanwell House,7 Huntley Close,Stanwell,Staines-upon-Thames,Dimensions UK Ltd,Hospitals/Childcare/Caring Premises,5,,,277898,,,51.45222200000000,C13HD17HUN/1,311,environmental.health.commercial@spelthorne.gov.uk,Spelthorne,http://www.spelthorne.gov.uk,-0.47058000000000,TW19 7DD,2013-09-02,fhrs_exempt_en-GB,Exempt,,FHRS,
258207,150 High Street,Staines-upon-Thames,,,Dominos Pizza,Takeaway/sandwich shop,7844,0,,277914,0,,51.43534400000000,C23HD1150H/1,311,environmental.health.commercial@spelthorne.gov.uk,Spelthorne,http://www.spelthorne.gov.uk,-0.50690900000000,TW18 4AH,2013-06-18,fhrs_5_en-GB,5,,FHRS,0
258208,,,,,Dougall's,Mobile caterer,7846,0,,277690,5,,,10/00040/COMM,311,environmental.health.commercial@spelthorne.gov.uk,Spelthorne,http://www.spelthorne.gov.uk,,,2013-10-01,fhrs_5_en-GB,5,,FHRS,0
258209,7 Woodlands Parade,Ashford,,,Dragon Inn,Takeaway/sandwich shop,7844,20,,277933,15,,51.42642300000000,C23HD37WOO/2,311,environmental.health.commercial@spelthorne.gov.uk,Spelthorne,http://www.spelthorne.gov.uk,-0.44329100000000,TW15 1QD,2014-05-21,fhrs_1_en-GB,1,,FHRS,15
258210,129 Groveley Road,Sunbury On Thames,Surrey,,Dream Food & Wine,Retailers - other,4613,,,277585,,,51.42887900000000,07/00086/COMM,311,environmental.health.commercial@spelthorne.gov.uk,Spelthorne,http://www.spelthorne.gov.uk,-0.42180300000000,TW16 7JZ,2011-04-13,fhrs_exempt_en-GB,Exempt,,FHRS,
258211,Kempton Market,Kempton Park Racecourse,Staines Road East,Sunbury On Thames,E & J Meats,Mobile caterer,7846,10,,277613,0,,51.41490300000000,08/00088/COMM,311,environmental.health.commercial@spelthorne.gov.uk,Spelthorne,http://www.spelthorne.gov.uk,-0.40374800000000,TW16 5AF,2010-03-25,fhrs_4_en-GB,4,,FHRS,5
258212,Eales,136 Chesterfield Road,Ashford,,Eales Newsagents & Grocer,Retailers - other,4613,10,,278018,5,,51.43271200000000,R02GD3136C/1,311,environmental.health.commercial@spelthorne.gov.uk,Spelthorne,http://www.spelthorne.gov.uk,-0.47364800000000,TW15 3PD,2013-03-27,fhrs_3_en-GB,3,,FHRS,10
258213,205 Laleham Road,Shepperton,,,Eastern Pearl,Takeaway/sandwich shop,7844,20,,277936,15,,51.40017900000000,C23HD5205L/2,311,environmental.health.commercial@spelthorne.gov.uk,Spelthorne,http://www.spelthorne.gov.uk,-0.45860100000000,TW17 0AH,2014-02-21,fhrs_1_en-GB,1,,FHRS,15
258214,Echelford County Middle School,Park Road,Ashford,,Echelford Primary School,School/college/university,7845,5,,277956,0,,51.42905300000000,C32HD3PARK/1,311,environmental.health.commercial@spelthorne.gov.uk,Spelthorne,http://www.spelthorne.gov.uk,-0.44836600000000,TW15 1EX,2013-06-28,fhrs_4_en-GB,4,,FHRS,10
258215,College Way,Ashford,,,Echelforde Home For Elderly People,Hospitals/Childcare/Caring Premises,5,10,,278148,5,,51.43519900000000,T08HD3COLL/1,311,environmental.health.commercial@spelthorne.gov.uk,Spelthorne,http://www.spelthorne.gov.uk,-0.46230000000000,TW15 2XG,2014-12-11,fhrs_3_en-GB,3,,FHRS,10
258216,Chestnut Court,23 Mulberry Avenue,Stanwell,Staines-upon-Thames,Elior UK,Restaurant/Cafe/Canteen,1,0,,620859,0,,51.44800000000000,13/00096/COMM,311,environmental.health.commercial@spelthorne.gov.uk,Spelthorne,http://www.spelthorne.gov.uk,-0.47368500000000,TW19 7SF,2013-11-21,fhrs_5_en-GB,5,,FHRS,0
258217,Tesco Supermarket,Town Lane,Stanwell,Staines-upon-Thames,Euphorium Bakery,Retailers - other,4613,5,,731467,5,,51.44564900000000,14/00113/COMM,311,environmental.health.commercial@spelthorne.gov.uk,Spelthorne,http://www.spelthorne.gov.uk,-0.47271300000000,TW19 7PZ,2015-01-15,fhrs_5_en-GB,5,,FHRS,0
258218,Spelthorne Leisure Centre,Knowle Green,Staines-upon-Thames,,Everyone Active Cafe,Restaurant/Cafe/Canteen,1,0,,277989,0,,51.42921300000000,E10HD4KNOW/1,311,environmental.health.commercial@spelthorne.gov.uk,Spelthorne,http://www.spelthorne.gov.uk,-0.50213200000000,TW18 1AJ,2014-10-29,fhrs_5_en-GB,5,,FHRS,5
258219,Shepperton Marina,Felix Lane,Shepperton,,Exclusive Charters-Exclusive Lady,Other catering premises,7841,0,,405839,0,,51.39222900000000,12/00044/COMM,311,environmental.health.commercial@spelthorne.gov.uk,Spelthorne,http://www.spelthorne.gov.uk,-0.42806600000000,TW17 8NS,2012-05-28,fhrs_5_en-GB,5,,FHRS,0
258220,,,,,Fabulous Cupcake,Other catering premises,7841,10,,277706,5,,,10/00078/COMM,311,environmental.health.commercial@spelthorne.gov.uk,Spelthorne,http://www.spelthorne.gov.uk,,,2010-11-19,fhrs_4_en-GB,4,,FHRS,0
258221,Knowle Green,Staines-upon-Thames,,,Fairways,Hospitals/Childcare/Caring Premises,5,10,,277945,5,,51.42921300000000,C29HD4KNOW/1,311,environmental.health.commercial@spelthorne.gov.uk,Spelthorne,http://www.spelthorne.gov.uk,-0.50213200000000,TW18 1AJ,2014-09-08,fhrs_4_en-GB,4,,FHRS,5
258222,Unit 2c,Sunbury Cross Centre,Sunbury On Thames,Surrey,Farmfoods Ltd,Retailers - supermarkets/hypermarkets,7840,0,,278035,0,,51.41869200000000,R03GD2SUNB/2,311,environmental.health.commercial@spelthorne.gov.uk,Spelthorne,http://www.spelthorne.gov.uk,-0.42196700000000,TW16 7BB,2015-01-06,fhrs_5_en-GB,5,,FHRS,5
258223,Virgin Active,London Irish Rugby Football Club,The Avenue,Sunbury On Thames,Feast London Virgin Cafe,Restaurant/Cafe/Canteen,1,0,,620862,0,,51.41394900000000,13/00130/COMM,311,environmental.health.commercial@spelthorne.gov.uk,Spelthorne,http://www.spelthorne.gov.uk,-0.41033800000000,TW16 5EQ,2013-11-21,fhrs_5_en-GB,5,,FHRS,5
258224,Ashford Hospital,London Road,Ashford,,First Steps Nursery,Hospitals/Childcare/Caring Premises,5,0,,278165,0,,51.44411100000000,V13HD1LOND/1,311,environmental.health.commercial@spelthorne.gov.uk,Spelthorne,http://www.spelthorne.gov.uk,-0.47272100000000,TW15 3AA,2014-01-07,fhrs_5_en-GB,5,,FHRS,0
258225,St Nicholas Church Of England Prima,Manor Farm Avenue,Shepperton,,First Steps Nursery,School/college/university,7845,5,,571459,0,,51.39470200000000,13/00052/COMM,311,environmental.health.commercial@spelthorne.gov.uk,Spelthorne,http://www.spelthorne.gov.uk,-0.45037700000000,TW17 9AD,2015-01-20,fhrs_5_en-GB,5,,FHRS,5
258226,The Five Bells Public House,54 High Street,Stanwell,Staines-upon-Thames,Five Bells,Pub/bar/nightclub,7843,20,,277809,5,,51.45708800000000,C01HD154HI/1,311,environmental.health.commercial@spelthorne.gov.uk,Spelthorne,http://www.spelthorne.gov.uk,-0.47901000000000,TW19 7JS,2014-01-13,fhrs_1_en-GB,1,,FHRS,15
258227,Flowers Of Georgina,21 Church Road,Ashford,,Flowers By Georgina,Retailers - other,4613,5,,722895,5,,51.43510500000000,13/00098/COMM,311,environmental.health.commercial@spelthorne.gov.uk,Spelthorne,http://www.spelthorne.gov.uk,-0.46610200000000,TW15 2UG,2014-10-08,fhrs_5_en-GB,5,,FHRS,5
258228,,,,,Food & Families,Other catering premises,7841,0,,277894,0,,,C10HD493ED/1,311,environmental.health.commercial@spelthorne.gov.uk,Spelthorne,http://www.spelthorne.gov.uk,,,2012-05-21,fhrs_5_en-GB,5,,FHRS,5
258229,,,,,Food Hungary Ltd @ The Thames Club,Mobile caterer,7846,20,,726656,10,,,14/00110/COMM,311,environmental.health.commercial@spelthorne.gov.uk,Spelthorne,http://www.spelthorne.gov.uk,,,2014-12-08,fhrs_1_en-GB,1,,FHRS,0
258230,,,,,Foodeliciouz,Other catering premises,7841,0,,610781,5,,,13/00099/COMM,311,environmental.health.commercial@spelthorne.gov.uk,Spelthorne,http://www.spelthorne.gov.uk,,,2013-11-06,fhrs_5_en-GB,5,,FHRS,0
258231,Loco,125 Convent Road,Ashford,,Foodfare Superstore (Locost),Retailers - other,4613,30,,278017,20,,51.42918700000000,R02GD3125C/1,311,environmental.health.commercial@spelthorne.gov.uk,Spelthorne,http://www.spelthorne.gov.uk,-0.45306600000000,TW15 2HW,2014-09-22,fhrs_0_en-GB,0,,FHRS,20
258232,18 Reedsfield Road,Ashford,,,Footprints Nursery,Hospitals/Childcare/Caring Premises,5,10,,277590,5,,51.43643400000000,07/00099/COMM,311,environmental.health.commercial@spelthorne.gov.uk,Spelthorne,http://www.spelthorne.gov.uk,-0.45231700000000,TW15 2HE,2014-09-22,fhrs_4_en-GB,4,,FHRS,5
258233,The Fordbridge Centre,91 Clarendon Road,Ashford,,Fordbridge,Hospitals/Childcare/Caring Premises,5,5,,277944,5,,51.43274300000000,C29HD3CLAR/1,311,environmental.health.commercial@spelthorne.gov.uk,Spelthorne,http://www.spelthorne.gov.uk,-0.46501500000000,TW15 2QA,2014-09-08,fhrs_5_en-GB,5,,FHRS,0
258234,47 Burbidge Road,Shepperton,,,Forty Winks B&B,Hotel/bed & breakfast/guest house,7842,5,,277678,0,,51.40197200000000,10/00021/COMM,311,environmental.health.commercial@spelthorne.gov.uk,Spelthorne,http://www.spelthorne.gov.uk,-0.45954800000000,TW17 0ED,2010-05-07,fhrs_5_en-GB,5,,FHRS,5
258235,Frankie And Bennys,1 Hale Street,Staines-upon-Thames,,Frankie & Bennys,Other catering premises,7841,0,,277720,0,,51.43527700000000,10/00118/COMM,311,environmental.health.commercial@spelthorne.gov.uk,Spelthorne,http://www.spelthorne.gov.uk,-0.51440700000000,TW18 4UW,2014-12-11,fhrs_5_en-GB,5,,FHRS,0
258236,365 Staines Road West,Ashford,,,Freddies Cafe,Restaurant/Cafe/Canteen,1,5,,638685,5,,51.42243700000000,13/00123/COMM,311,environmental.health.commercial@spelthorne.gov.uk,Spelthorne,http://www.spelthorne.gov.uk,-0.44171500000000,TW15 1RP,2014-03-12,fhrs_5_en-GB,5,,FHRS,5
258237,,,,,Full Of Beans,Mobile caterer,7846,0,,593795,0,,,13/00079/COMM,311,environmental.health.commercial@spelthorne.gov.uk,Spelthorne,http://www.spelthorne.gov.uk,,,2013-09-20,fhrs_5_en-GB,5,,FHRS,0
258238,Longacres,Garden Centre,Nutty Lane,Shepperton,Gardeners Cafe- Longacres,Restaurant/Cafe/Canteen,1,5,,636475,0,,,13/00108/COMM,311,environmental.health.commercial@spelthorne.gov.uk,Spelthorne,http://www.spelthorne.gov.uk,,TW17 0QH,2014-01-20,fhrs_5_en-GB,5,,FHRS,5
258239,,,,,Gill's Cakes & Cupcakes,Other catering premises,7841,5,,277753,0,,,11/00038/COMM,311,environmental.health.commercial@spelthorne.gov.uk,Spelthorne,http://www.spelthorne.gov.uk,,,2011-08-02,fhrs_5_en-GB,5,,FHRS,0
258240,Glebe House,The Broadway,Laleham,Staines-upon-Thames,Glebe House Nursing Home,Hospitals/Childcare/Caring Premises,5,5,,278144,5,,51.41044800000000,T07HD4THEB/1,311,environmental.health.commercial@spelthorne.gov.uk,Spelthorne,http://www.spelthorne.gov.uk,-0.48759000000000,TW18 1SB,2014-03-31,fhrs_5_en-GB,5,,FHRS,0
258241,1 Stainash Parade,Kingston Road,Staines-upon-Thames,Surrey,Golden Grill,Restaurant/Cafe/Canteen,1,10,,277526,10,,51.42924200000000,04/00096/COMM,311,environmental.health.commercial@spelthorne.gov.uk,Spelthorne,http://www.spelthorne.gov.uk,-0.49528400000000,TW18 1BB,2014-02-27,fhrs_3_en-GB,3,,FHRS,10
258242,33 The Parade,Staines Road West,Sunbury On Thames,,Golden Grill,Restaurant/Cafe/Canteen,1,5,,277549,5,,51.41976700000000,06/00001/COMM,311,environmental.health.commercial@spelthorne.gov.uk,Spelthorne,http://www.spelthorne.gov.uk,-0.42033300000000,TW16 7AB,2013-06-25,fhrs_5_en-GB,5,,FHRS,5
258243,70 High Street,Shepperton,Surrey,,Golden Grill,Restaurant/Cafe/Canteen,1,5,,277528,10,,51.39312400000000,04/00100/COMM,311,environmental.health.commercial@spelthorne.gov.uk,Spelthorne,http://www.spelthorne.gov.uk,-0.44866200000000,TW17 9AU,2014-03-18,fhrs_4_en-GB,4,,FHRS,5
258244,81A Church Road,Ashford,,,Golden Grill II,Restaurant/Cafe/Canteen,1,5,,277887,5,,51.43221000000000,C06HD381AC/2,311,environmental.health.commercial@spelthorne.gov.uk,Spelthorne,http://www.spelthorne.gov.uk,-0.46066000000000,TW15 2PE,2015-01-13,fhrs_5_en-GB,5,,FHRS,5
258245,57 Clare Road,Stanwell,Middx,,Golden Pearl Takeaway,Takeaway/sandwich shop,7844,10,,277920,10,,51.45090700000000,C23HD157CL/1,311,environmental.health.commercial@spelthorne.gov.uk,Spelthorne,http://www.spelthorne.gov.uk,-0.47663900000000,TW19 7QW,2012-12-03,fhrs_3_en-GB,3,,FHRS,10
258246,154 Laleham Road,Shepperton,Surrey,,Grace Bed & Breakfast,Hotel/bed & breakfast/guest house,7842,10,,277543,10,,51.40043500000000,05/00083/COMM,311,environmental.health.commercial@spelthorne.gov.uk,Spelthorne,http://www.spelthorne.gov.uk,-0.46095100000000,TW17 0DB,2006-01-25,fhrs_3_en-GB,3,,FHRS,5
258247,,,,,Grace Reynolds,Mobile caterer,7846,0,,555264,0,,,13/00082/COMM,311,environmental.health.commercial@spelthorne.gov.uk,Spelthorne,http://www.spelthorne.gov.uk,,,2013-06-03,fhrs_5_en-GB,5,,FHRS,0
258248,27 The Elmsleigh Centre,Staines-upon-Thames,,,Grape Tree,Retailers - other,4613,5,,638686,0,,51.43346100000000,14/00003/COMM,311,environmental.health.commercial@spelthorne.gov.uk,Spelthorne,http://www.spelthorne.gov.uk,-0.50948800000000,TW18 4QB,2014-02-20,fhrs_5_en-GB,5,,FHRS,0
258249,Glebeland Gardens,Shepperton,,,Greeno Centre,Hospitals/Childcare/Caring Premises,5,5,,277946,5,,51.39197700000000,C29HD5GLEB/1,311,environmental.health.commercial@spelthorne.gov.uk,Spelthorne,http://www.spelthorne.gov.uk,-0.44691800000000,TW17 9DH,2014-10-24,fhrs_5_en-GB,5,,FHRS,0
258250,60 High Street,Staines-upon-Thames,,,Greggs,Retailers - other,4613,5,,277509,0,,51.43423300000000,04/00015/COMM,311,environmental.health.commercial@spelthorne.gov.uk,Spelthorne,http://www.spelthorne.gov.uk,-0.51146300000000,TW18 4DY,2013-04-03,fhrs_5_en-GB,5,,FHRS,0
258251,7 Grove House,Church Road,Ashford,Middx,Greggs,Retailers - other,4613,0,,278045,0,,51.43381800000000,R06GD3CHUR/1,311,environmental.health.commercial@spelthorne.gov.uk,Spelthorne,http://www.spelthorne.gov.uk,-0.46532500000000,TW15 2UD,2013-03-27,fhrs_5_en-GB,5,,FHRS,0
258252,Greggs Bakers,17 The Parade,Staines Road West,Sunbury On Thames,Greggs,Retailers - other,4613,0,,278044,0,,51.41976700000000,R06GD217TH/1,311,environmental.health.commercial@spelthorne.gov.uk,Spelthorne,http://www.spelthorne.gov.uk,-0.42033300000000,TW16 7AB,2013-11-19,fhrs_5_en-GB,5,,FHRS,5
258253,10A Gresham Road,Staines-upon-Thames,Surrey,,Gresham News,Retailers - other,4613,10,,278114,5,,51.43254300000000,R21GD410AG/1,311,environmental.health.commercial@spelthorne.gov.uk,Spelthorne,http://www.spelthorne.gov.uk,-0.50590700000000,TW18 2BJ,2012-06-08,fhrs_4_en-GB,4,,FHRS,5
258254,Club,Halliford Mere Lake,Chertsey Road,Shepperton,Halliford Mere Club,Restaurant/Cafe/Canteen,1,5,,277879,5,,51.39036400000000,C05HD5CHER/1,311,environmental.health.commercial@spelthorne.gov.uk,Spelthorne,http://www.spelthorne.gov.uk,-0.46098700000000,TW17 9NN,2013-09-26,fhrs_4_en-GB,4,,FHRS,10
258255,Russell Road,Shepperton,Surrey,,Halliford School,School/college/university,7845,0,,278163,5,,51.39021100000000,V06HD5RUSS/1,311,environmental.health.commercial@spelthorne.gov.uk,Spelthorne,http://www.spelthorne.gov.uk,-0.44397400000000,TW17 9HX,2014-10-02,fhrs_5_en-GB,5,,FHRS,0
258256,Manygate Lane,Shepperton,Middx,,Halliford Studios,Restaurant/Cafe/Canteen,1,10,,278164,10,,51.39223100000000,V11HD5MANY/1,311,environmental.health.commercial@spelthorne.gov.uk,Spelthorne,http://www.spelthorne.gov.uk,-0.44236800000000,TW17 9EG,2014-03-12,fhrs_3_en-GB,3,,FHRS,10
258257,,,,,Hank's Neighbourhood Bakery,Other catering premises,7841,0,,405841,5,,,12/00050/COMM,311,environmental.health.commercial@spelthorne.gov.uk,Spelthorne,http://www.spelthorne.gov.uk,,,2012-06-13,fhrs_5_en-GB,5,,FHRS,5
258258,68 Clare Road,Stanwell,Staines-upon-Thames,,Happy Landing,Pub/bar/nightclub,7843,5,,405842,5,,51.45120500000000,12/00057/COMM,311,environmental.health.commercial@spelthorne.gov.uk,Spelthorne,http://www.spelthorne.gov.uk,-0.47542100000000,TW19 7QT,2013-06-26,fhrs_5_en-GB,5,,FHRS,5
258259,The Hare And Hounds Public House,132 Vicarage Road,Sunbury On Thames,,Hare & Hounds,Pub/bar/nightclub,7843,0,,277816,5,,51.42401000000000,C01HD2132V/1,311,environmental.health.commercial@spelthorne.gov.uk,Spelthorne,http://www.spelthorne.gov.uk,-0.41886400000000,TW16 7QX,2014-03-19,fhrs_4_en-GB,4,,FHRS,10
258260,Tesco Supermarket,Escot Road,Sunbury On Thames,,Harris & Hoole Cafe,Restaurant/Cafe/Canteen,1,10,,620860,10,,51.41869200000000,13/00116/COMM,311,environmental.health.commercial@spelthorne.gov.uk,Spelthorne,http://www.spelthorne.gov.uk,-0.42196700000000,TW16 7BB,2013-11-11,fhrs_3_en-GB,3,,FHRS,5
258261,140 - 142 Charlton Road,Shepperton,,,Harrow Inn,Pub/bar/nightclub,7843,0,,627850,0,,51.40903500000000,14/00017/COMM,311,environmental.health.commercial@spelthorne.gov.uk,Spelthorne,http://www.spelthorne.gov.uk,-0.44415500000000,TW17 0RJ,2014-01-07,fhrs_5_en-GB,5,,FHRS,5
258262,40 - 42 High Street,Staines-upon-Thames,,,Harvester,Other catering premises,7841,5,,277717,0,,51.43383700000000,10/00109/COMM,311,environmental.health.commercial@spelthorne.gov.uk,Spelthorne,http://www.spelthorne.gov.uk,-0.51287100000000,TW18 4EE,2013-07-12,fhrs_5_en-GB,5,,FHRS,0
258263,Stratton Road,Sunbury On Thames,,,Hawkedale County First School,School/college/university,7845,5,,277952,0,,51.41034100000000,C32HD2STRA/1,311,environmental.health.commercial@spelthorne.gov.uk,Spelthorne,http://www.spelthorne.gov.uk,-0.42083100000000,TW16 6PG,2014-11-12,fhrs_4_en-GB,4,,FHRS,10
258264,London Irish,Hazelwood Centre,Croysdale Avenue,Sunbury On Thames,Hazelwood Centre,Restaurant/Cafe/Canteen,1,5,,704268,0,,,14/00067/COMM,311,environmental.health.commercial@spelthorne.gov.uk,Spelthorne,http://www.spelthorne.gov.uk,,,2014-09-11,fhrs_5_en-GB,5,,FHRS,0
258265,Headlines Convenience Store,3 High Street,Shepperton,,Headline Convenience,Retailers - other,4613,,,277650,,,51.39547800000000,09/00150/COMM,311,environmental.health.commercial@spelthorne.gov.uk,Spelthorne,http://www.spelthorne.gov.uk,-0.44921500000000,TW17 9AJ,2009-08-18,fhrs_exempt_en-GB,Exempt,,FHRS,
258266,34 Oaks Road,Stanwell,Staines-upon-Thames,Surrey,Heathrow Cottages B&B,Hotel/bed & breakfast/guest house,7842,5,,277570,5,,51.45890100000000,07/00023/COMM,311,environmental.health.commercial@spelthorne.gov.uk,Spelthorne,http://www.spelthorne.gov.uk,-0.47945400000000,TW19 7LG,2011-12-20,fhrs_4_en-GB,4,,FHRS,10
258267,Petrol Filling Station,Southern Perimeter Road,Heathrow,Hounslow,Heathrow South On The Run (Esso Heathrow South),Retailers - other,4613,0,,277607,0,,51.46127000000000,08/00056/COMM,311,environmental.health.commercial@spelthorne.gov.uk,Spelthorne,http://www.spelthorne.gov.uk,-0.48185100000000,TW6 3PF,2013-05-15,fhrs_5_en-GB,5,,FHRS,0
258268,Hengrove Food And Wine,84 Hengrove Crescent,Ashford,,Hengrove Food  & Wine,Retailers - other,4613,10,,550759,10,,51.43929600000000,13/00077/COMM,311,environmental.health.commercial@spelthorne.gov.uk,Spelthorne,http://www.spelthorne.gov.uk,-0.47929900000000,TW15 3DJ,2013-05-15,fhrs_3_en-GB,3,,FHRS,10
258269,72a School Road,Ashford,Middx,,Hennessey E,Retailers - other,4613,5,,278054,5,,51.42466400000000,R08GD372AS/1,311,environmental.health.commercial@spelthorne.gov.uk,Spelthorne,http://www.spelthorne.gov.uk,-0.44966500000000,TW15 2AJ,2005-09-14,fhrs_5_en-GB,5,,FHRS,5
258270,6 Broadway,Kingston Road,Staines-upon-Thames,,Herbies Pizza,Restaurant/Cafe/Canteen,1,0,,452619,5,,51.42857500000000,12/00105/COMM,311,environmental.health.commercial@spelthorne.gov.uk,Spelthorne,http://www.spelthorne.gov.uk,-0.49517600000000,TW18 1AT,2014-09-22,fhrs_5_en-GB,5,,FHRS,5
258271,7 Trident House,Clare Road,"Stanwell, Staines-upon-Thames",Middx,Herman Pharmacy,Retailers - other,4613,,,278058,,,51.45067300000000,R09GD1CLAR/1,311,environmental.health.commercial@spelthorne.gov.uk,Spelthorne,http://www.spelthorne.gov.uk,-0.47530900000000,TW19 7QU,2006-11-09,fhrs_exempt_en-GB,Exempt,,FHRS,
258272,60 High Street,Shepperton,Surrey,,High Street News,Retailers - other,4613,,,278118,,,51.39312400000000,R21GD560HI/1,311,environmental.health.commercial@spelthorne.gov.uk,Spelthorne,http://www.spelthorne.gov.uk,-0.44866200000000,TW17 9AU,2008-11-27,fhrs_exempt_en-GB,Exempt,,FHRS,
258273,Felix Lane,Shepperton,,,Holiday Inn London,Hotel/bed & breakfast/guest house,7842,5,,277908,0,,51.39184300000000,C20HD5FELI/1,311,environmental.health.commercial@spelthorne.gov.uk,Spelthorne,http://www.spelthorne.gov.uk,-0.42475900000000,TW17 8NP,2013-12-09,fhrs_5_en-GB,5,,FHRS,5
258274,Holland And Barrett,29 The Elmsleigh Centre,Staines-upon-Thames,Surrey,Holland & Barrett,Retailers - other,4613,,,278098,,,51.43346100000000,R15GD429TH/1,311,environmental.health.commercial@spelthorne.gov.uk,Spelthorne,http://www.spelthorne.gov.uk,-0.50948800000000,TW18 4QB,2005-07-29,fhrs_exempt_en-GB,Exempt,,FHRS,
258275,,,,,Homemade By DV,Other catering premises,7841,5,,352913,0,,,12/00030/COMM,311,environmental.health.commercial@spelthorne.gov.uk,Spelthorne,http://www.spelthorne.gov.uk,,,2012-04-24,fhrs_5_en-GB,5,,FHRS,5
258276,20 Sunmead Road,Sunbury On Thames,,,Hopscotch,Other catering premises,7841,,,681372,,,51.40950400000000,14/00013/COMM,311,environmental.health.commercial@spelthorne.gov.uk,Spelthorne,http://www.spelthorne.gov.uk,-0.41808500000000,TW16 6PE,2014-05-09,fhrs_exempt_en-GB,Exempt,,FHRS,
258277,4 Rooksmead Road,Sunbury On Thames,,,Hopscotch Play,Other catering premises,7841,,,681371,,,51.41022300000000,14/00012/COMM,311,environmental.health.commercial@spelthorne.gov.uk,Spelthorne,http://www.spelthorne.gov.uk,-0.41872100000000,TW16 6PD,2014-05-09,fhrs_exempt_en-GB,Exempt,,FHRS,
258278,21 Edinburgh Drive,Laleham,Surrey,,Howes,Retailers - other,4613,,,278103,,,51.42469100000000,R21GD121ED/1,311,environmental.health.commercial@spelthorne.gov.uk,Spelthorne,http://www.spelthorne.gov.uk,-0.48267500000000,TW18 1PJ,2002-09-24,fhrs_exempt_en-GB,Exempt,,FHRS,
258279,,,,,Hunger Paynes,Mobile caterer,7846,5,,667573,5,,,13/00115/COMM,311,environmental.health.commercial@spelthorne.gov.uk,Spelthorne,http://www.spelthorne.gov.uk,,,2014-05-14,fhrs_5_en-GB,5,,FHRS,0
258280,140 Green Lane,Shepperton,,,Ian Robertson Chocolates,Retailers - other,4613,10,,405834,5,,51.39619100000000,12/00017/COMM,311,environmental.health.commercial@spelthorne.gov.uk,Spelthorne,http://www.spelthorne.gov.uk,-0.44055200000000,TW17 8DX,2012-06-11,fhrs_4_en-GB,4,,FHRS,5
258281,Imagecraft,54 Nursery Road,Sunbury-On-Thames,Middx,Imagecraft Ltd,Retailers - other,4613,,,278059,,,51.41385600000000,R09GD254NU/1,311,environmental.health.commercial@spelthorne.gov.uk,Spelthorne,http://www.spelthorne.gov.uk,-0.42209000000000,TW16 6LG,2003-06-09,fhrs_exempt_en-GB,Exempt,,FHRS,
258282,359 Staines Road West,Ashford,Surrey,,Indian Ocean,Restaurant/Cafe/Canteen,1,5,,277579,5,,51.42243700000000,07/00069/COMM,311,environmental.health.commercial@spelthorne.gov.uk,Spelthorne,http://www.spelthorne.gov.uk,-0.44171500000000,TW15 1RP,2012-10-18,fhrs_5_en-GB,5,,FHRS,5
258283,21 Thames Street,Sunbury On Thames,,,Indian Zest,Restaurant/Cafe/Canteen,1,5,,277591,5,,51.40684500000000,08/00004/COMM,311,environmental.health.commercial@spelthorne.gov.uk,Spelthorne,http://www.spelthorne.gov.uk,-0.40434500000000,TW16 5QF,2015-01-08,fhrs_5_en-GB,5,,FHRS,5
258284,Thamesmead County Secondary School,Manygate Lane,Shepperton,Surrey,Innovate Services At Thamesmead School,School/college/university,7845,0,,278162,0,,51.39465800000000,V06HD5MANY/1,311,environmental.health.commercial@spelthorne.gov.uk,Spelthorne,http://www.spelthorne.gov.uk,-0.44225700000000,TW17 9EE,2013-04-30,fhrs_5_en-GB,5,,FHRS,5
258285,119 Groveley Road,Sunbury On Thames,,,Istanbul Kebab,Restaurant/Cafe/Canteen,1,10,,691815,5,,51.42887900000000,14/00069/COMM,311,environmental.health.commercial@spelthorne.gov.uk,Spelthorne,http://www.spelthorne.gov.uk,-0.42180300000000,TW16 7JZ,2014-08-15,fhrs_4_en-GB,4,,FHRS,5
258286,5 Denman Drive,Ashford,,,Italia Bella,Retailers - other,4613,5,,636476,5,,51.42457800000000,13/00121/COMM,311,environmental.health.commercial@spelthorne.gov.uk,Spelthorne,http://www.spelthorne.gov.uk,-0.45333600000000,TW15 2AN,2015-01-14,fhrs_5_en-GB,5,,FHRS,5
258287,Pizza Expert,124 High Street,Shepperton,,Italian Pizza Experts,Restaurant/Cafe/Canteen,1,5,,555259,5,,51.39161600000000,13/00044/COMM,311,environmental.health.commercial@spelthorne.gov.uk,Spelthorne,http://www.spelthorne.gov.uk,-0.44953200000000,TW17 9BG,2014-06-03,fhrs_4_en-GB,4,,FHRS,10
258288,Staines Market,High Street,Staines-upon-Thames,,Italiano Ltd,Mobile caterer,7846,10,,277793,10,,,12/00021/COMM,311,environmental.health.commercial@spelthorne.gov.uk,Spelthorne,http://www.spelthorne.gov.uk,,,2014-03-26,fhrs_3_en-GB,3,,FHRS,5
258289,Ivory Tusk,78 High Street,Shepperton,,Ivory Tusk Indian Restaurant,Restaurant/Cafe/Canteen,1,0,,277877,5,,51.39312400000000,C05HD578HI/1,311,environmental.health.commercial@spelthorne.gov.uk,Spelthorne,http://www.spelthorne.gov.uk,-0.44866200000000,TW17 9AU,2013-03-21,fhrs_5_en-GB,5,,FHRS,0
258290,10 Broadway,Kingston Road,Staines-upon-Thames,,J S Fruiterers,Retailers - other,4613,0,,277701,0,,51.42857500000000,10/00066/COMM,311,environmental.health.commercial@spelthorne.gov.uk,Spelthorne,http://www.spelthorne.gov.uk,-0.49517600000000,TW18 1AT,2010-10-18,fhrs_5_en-GB,5,,FHRS,5
258291,150 Laleham Road,Shepperton,,,Jacks Fish & Chips,Restaurant/Cafe/Canteen,1,5,,277655,5,,51.39983300000000,09/00161/COMM,311,environmental.health.commercial@spelthorne.gov.uk,Spelthorne,http://www.spelthorne.gov.uk,-0.45898700000000,TW17 0AX,2013-01-24,fhrs_5_en-GB,5,,FHRS,5
258292,Street Record,Ashford Road,Ashford,,Jacquies Brunch Box,Mobile caterer,7846,5,,550755,5,,,13/00059/COMM,311,environmental.health.commercial@spelthorne.gov.uk,Spelthorne,http://www.spelthorne.gov.uk,,,2013-05-17,fhrs_5_en-GB,5,,FHRS,0
258293,102 Church Road,Ashford,,,Jaipur,Restaurant/Cafe/Canteen,1,10,,715694,10,,51.43249500000000,14/00073/COMM,311,environmental.health.commercial@spelthorne.gov.uk,Spelthorne,http://www.spelthorne.gov.uk,-0.45974400000000,TW15 2PL,2014-10-20,fhrs_3_en-GB,3,,FHRS,5
258294,Jalsha,2 Woodlands Parade,Ashford,,Jalsha Indian Takeaway,Takeaway/sandwich shop,7844,0,,277929,0,,51.42642300000000,C23HD32WOO/1,311,environmental.health.commercial@spelthorne.gov.uk,Spelthorne,http://www.spelthorne.gov.uk,-0.44329100000000,TW15 1QD,2013-06-20,fhrs_5_en-GB,5,,FHRS,5
258295,Fish And Chips,189 Vicarage Road,Sunbury On Thames,,James Fish & Chips,Takeaway/sandwich shop,7844,0,,277922,0,,51.42148600000000,C23HD2189V/1,311,environmental.health.commercial@spelthorne.gov.uk,Spelthorne,http://www.spelthorne.gov.uk,-0.41977100000000,TW16 7TP,2014-04-01,fhrs_5_en-GB,5,,FHRS,5
258296,82 - 84 High Street,Shepperton,,,James Of Shepperton,Retailers - other,4613,5,,708552,5,,51.39312400000000,14/00086/COMM,311,environmental.health.commercial@spelthorne.gov.uk,Spelthorne,http://www.spelthorne.gov.uk,-0.44866200000000,TW17 9AU,2014-09-24,fhrs_5_en-GB,5,,FHRS,5
258297,,,,,Jaques Artisan Chocolatier,Retailers - other,4613,5,,579661,5,,,13/00083/COMM,311,environmental.health.commercial@spelthorne.gov.uk,Spelthorne,http://www.spelthorne.gov.uk,,,2013-07-29,fhrs_5_en-GB,5,,FHRS,0
258298,120 Feltham Hill Road,Ashford,,,Jay's Stores,Retailers - other,4613,5,,277703,0,,51.42882300000000,10/00069/COMM,311,environmental.health.commercial@spelthorne.gov.uk,Spelthorne,http://www.spelthorne.gov.uk,-0.45540800000000,TW15 2BX,2012-07-13,fhrs_5_en-GB,5,,FHRS,5
258299,11 New Parade,Church Road,Ashford,,Jennys,Restaurant/Cafe/Canteen,1,20,,715701,15,,51.43445300000000,14/00105/COMM,311,environmental.health.commercial@spelthorne.gov.uk,Spelthorne,http://www.spelthorne.gov.uk,-0.46580700000000,TW15 2UF,2014-09-22,fhrs_1_en-GB,1,,FHRS,10
258300,Builders Merchant,Gresham Road,Staines-upon-Thames,,Jewson,Retailers - other,4613,,,699999,,,51.43223200000000,X25XD4GRES/2,311,environmental.health.commercial@spelthorne.gov.uk,Spelthorne,http://www.spelthorne.gov.uk,-0.50479500000000,TW18 2BE,2014-08-20,fhrs_exempt_en-GB,Exempt,,FHRS,
258301,Timber/Builders Yard,Moor Lane,Staines-upon-Thames,Middx,Jewsons,Retailers - other,4613,,,700000,,,51.43749500000000,X25XD4MOOR/1,311,environmental.health.commercial@spelthorne.gov.uk,Spelthorne,http://www.spelthorne.gov.uk,-0.51555800000000,TW18 4YN,2014-08-20,fhrs_exempt_en-GB,Exempt,,FHRS,
258302,Walton Bridge,Shepperton,,,JGF Passenger Boats,Other catering premises,7841,5,,277683,5,,51.38778800000000,10/00030/COMM,311,environmental.health.commercial@spelthorne.gov.uk,Spelthorne,http://www.spelthorne.gov.uk,-0.42751400000000,KT12 1QW,2010-09-09,fhrs_5_en-GB,5,,FHRS,5
258303,Sunbury Sports Association,Lower Hampton Road,Sunbury On Thames,,Jigsaw Kids Play,Other catering premises,7841,0,,277676,0,,51.41085100000000,10/00015/COMM,311,environmental.health.commercial@spelthorne.gov.uk,Spelthorne,http://www.spelthorne.gov.uk,-0.39283100000000,TW16 5PS,2013-09-10,fhrs_5_en-GB,5,,FHRS,5
258304,Unit 2,Thames Edge Court,Clarence Street,Staines-upon-Thames,Jimmy Spices,Restaurant/Cafe/Canteen,1,5,,277659,10,,51.43364800000000,09/00172/COMM,311,environmental.health.commercial@spelthorne.gov.uk,Spelthorne,http://www.spelthorne.gov.uk,-0.51574000000000,TW18 4BU,2015-01-09,fhrs_2_en-GB,2,,FHRS,15
258305,112 Feltham Hill Road,Ashford,,,JK's Fish & Chips,Takeaway/sandwich shop,7844,10,,277700,10,,51.42882300000000,10/00065/COMM,311,environmental.health.commercial@spelthorne.gov.uk,Spelthorne,http://www.spelthorne.gov.uk,-0.45540800000000,TW15 2BX,2014-03-12,fhrs_2_en-GB,2,,FHRS,15
258306,Joes Place,2 - 3 Central Arcade,Woodthorpe Road,Ashford,Joe's Place,Restaurant/Cafe/Canteen,1,10,,667587,5,,51.43610500000000,14/00053/COMM,311,environmental.health.commercial@spelthorne.gov.uk,Spelthorne,http://www.spelthorne.gov.uk,-0.46767900000000,TW15 2RW,2014-06-04,fhrs_3_en-GB,3,,FHRS,10
258307,Johnson And Johnson,8 Hanworth Road,Sunbury On Thames,,Johnson & Johnson,Restaurant/Cafe/Canteen,1,0,,277689,0,,51.42156000000000,10/00039/COMM,311,environmental.health.commercial@spelthorne.gov.uk,Spelthorne,http://www.spelthorne.gov.uk,-0.41594200000000,TW16 5LN,2015-01-26,fhrs_5_en-GB,5,,FHRS,0
258308,The Pavilion,Bishop Duppas Park,Walton Bridge Road,Shepperton,Jollies House Ltd,Hospitals/Childcare/Caring Premises,5,10,,571451,5,,51.39031400000000,13/00017/COMM,311,environmental.health.commercial@spelthorne.gov.uk,Spelthorne,http://www.spelthorne.gov.uk,-0.43411100000000,TW17 8NR,2015-01-27,fhrs_4_en-GB,4,,FHRS,0
258309,Stanwell Moor Village Hall,Horton Road,Stanwell Moor,Staines-upon-Thames,Jollie's House Ltd @ Stanwell Moor Village Hall,Hospitals/Childcare/Caring Premises,5,10,,732566,5,,51.46002800000000,14/00112/COMM,311,environmental.health.commercial@spelthorne.gov.uk,Spelthorne,http://www.spelthorne.gov.uk,-0.49571100000000,TW19 6AE,2015-01-14,fhrs_4_en-GB,4,,FHRS,5
258310,Jolly Butcher Public House,174 Kingston Road,Staines-upon-Thames,,Jolly Butcher,Pub/bar/nightclub,7843,20,,277644,10,,51.42737000000000,09/00124/COMM,311,environmental.health.commercial@spelthorne.gov.uk,Spelthorne,http://www.spelthorne.gov.uk,-0.48881500000000,TW18 1PE,2014-03-26,fhrs_1_en-GB,1,,FHRS,5
258311,,,,,Judy Kerslake,Other catering premises,7841,5,,638682,0,,,13/00093/COMM,311,environmental.health.commercial@spelthorne.gov.uk,Spelthorne,http://www.spelthorne.gov.uk,,,2014-01-27,fhrs_5_en-GB,5,,FHRS,0
258312,20 The Elmsleigh Centre,Staines-upon-Thames,Surrey,,Julian Grave Ltd,Retailers - other,4613,,,277539,,,51.43346100000000,05/00067/COMM,311,environmental.health.commercial@spelthorne.gov.uk,Spelthorne,http://www.spelthorne.gov.uk,-0.50948800000000,TW18 4QB,2011-08-30,fhrs_exempt_en-GB,Exempt,,FHRS,
258313,117 Groveley Road,Sunbury On Thames,,,Just 4 U Food & Wine,Retailers - other,4613,5,,277785,0,,51.42887900000000,11/00101/COMM,311,environmental.health.commercial@spelthorne.gov.uk,Spelthorne,http://www.spelthorne.gov.uk,-0.42180300000000,TW16 7JZ,2012-02-01,fhrs_5_en-GB,5,,FHRS,0
258314,5 Church Road,Ashford,,,Just A Pound,Retailers - other,4613,5,,664148,0,,51.43510500000000,14/00036/COMM,311,environmental.health.commercial@spelthorne.gov.uk,Spelthorne,http://www.spelthorne.gov.uk,-0.46610200000000,TW15 2UG,2014-05-20,fhrs_4_en-GB,4,,FHRS,10
258315,77 Stratton Road,Sunbury On Thames,Surrey,,Just Coffee Ltd,Retailers - other,4613,5,,277634,10,,51.41034100000000,09/00090/COMM,311,environmental.health.commercial@spelthorne.gov.uk,Spelthorne,http://www.spelthorne.gov.uk,-0.42083100000000,TW16 6PG,2009-06-08,fhrs_4_en-GB,4,,FHRS,5
258316,,,,,K & AA Kebabs,Mobile caterer,7846,20,,571464,15,,,13/00078/COMM,311,environmental.health.commercial@spelthorne.gov.uk,Spelthorne,http://www.spelthorne.gov.uk,,,2014-06-20,fhrs_0_en-GB,0,,FHRS,20
258317,Staines Market,High Street,Staines-upon-Thames,,K&K Fresh Foods,Mobile caterer,7846,5,,277691,10,,,10/00041/COMM,311,environmental.health.commercial@spelthorne.gov.uk,Spelthorne,http://www.spelthorne.gov.uk,,,2013-02-01,fhrs_3_en-GB,3,,FHRS,10
258318,169 High Street,Staines-upon-Thames,,,Kafes,Restaurant/Cafe/Canteen,1,10,,555254,5,,51.43496300000000,13/00014/COMM,311,environmental.health.commercial@spelthorne.gov.uk,Spelthorne,http://www.spelthorne.gov.uk,-0.50670600000000,TW18 4PA,2015-01-05,fhrs_4_en-GB,4,,FHRS,5
258319,19 Clarence Street,Staines-upon-Thames,,,Kebab Elite,Takeaway/sandwich shop,7844,10,,277935,10,,51.43376500000000,C23HD419CL/1,311,environmental.health.commercial@spelthorne.gov.uk,Spelthorne,http://www.spelthorne.gov.uk,-0.51428300000000,TW18 4SU,2013-02-06,fhrs_3_en-GB,3,,FHRS,10
258320,Kempton Market,Kempton Park Racecourse,Staines Road East,Sunbury On Thames,Kempton Cafe,Mobile caterer,7846,5,,277758,5,,51.41490300000000,11/00046/COMM,311,environmental.health.commercial@spelthorne.gov.uk,Spelthorne,http://www.spelthorne.gov.uk,-0.40374800000000,TW16 5AF,2013-01-24,fhrs_4_en-GB,4,,FHRS,10
258321,Lazards Sports Club,Staines Road East,Sunbury On Thames,Surrey,Kempton Cricket Club,Restaurant/Cafe/Canteen,1,,,277979,,,51.41768400000000,E05HD2KEMP/1,311,environmental.health.commercial@spelthorne.gov.uk,Spelthorne,http://www.spelthorne.gov.uk,-0.40920200000000,TW16 5BB,2006-08-11,fhrs_exempt_en-GB,Exempt,,FHRS,
258322,Staines Road East,Sunbury On Thames,,,Kempton Park Racecourse,Restaurant/Cafe/Canteen,1,5,,277857,5,,51.41460100000000,C05HD2STAI/1,311,environmental.health.commercial@spelthorne.gov.uk,Spelthorne,http://www.spelthorne.gov.uk,-0.40339900000000,TW16 5AF,2014-06-26,fhrs_4_en-GB,4,,FHRS,10
258323,,,,,Kents Kool Cakes And Bakes,Other catering premises,7841,5,,699998,0,,,14/00077/COMM,311,environmental.health.commercial@spelthorne.gov.uk,Spelthorne,http://www.spelthorne.gov.uk,,,2014-08-29,fhrs_5_en-GB,5,,FHRS,0
258324,Kenyngton Manor County Primary Scho,Beechwood Avenue,Sunbury On Thames,Surrey,Kenyngton Manor County Primary,School/college/university,7845,0,,278153,0,,51.42401000000000,V06HD2BEEC/1,311,environmental.health.commercial@spelthorne.gov.uk,Spelthorne,http://www.spelthorne.gov.uk,-0.41886400000000,TW16 7QX,2014-01-27,fhrs_5_en-GB,5,,FHRS,0
258325,Unit 3,Church Road,Ashford,,KFC,Takeaway/sandwich shop,7844,10,,277661,5,,51.43471700000000,09/00174/COMM,311,environmental.health.commercial@spelthorne.gov.uk,Spelthorne,http://www.spelthorne.gov.uk,-0.46535200000000,TW15 2UT,2013-11-19,fhrs_3_en-GB,3,,FHRS,10
258326,Units 3 And 4,Sunbury Cross Centre,Sunbury On Thames,Surrey,KFC,Takeaway/sandwich shop,7844,0,,277511,0,,51.41869200000000,04/00025/COMM,311,environmental.health.commercial@spelthorne.gov.uk,Spelthorne,http://www.spelthorne.gov.uk,-0.42196700000000,TW16 7BB,2013-03-07,fhrs_5_en-GB,5,,FHRS,5
258327,Staines And Laleham Hockey Club,Worple Road,Staines-upon-Thames,,Kidzaboodle Play Centre,Restaurant/Cafe/Canteen,1,10,,499837,5,,51.42002000000000,12/00100/COMM,311,environmental.health.commercial@spelthorne.gov.uk,Spelthorne,http://www.spelthorne.gov.uk,-0.49485300000000,TW18 1HR,2015-01-21,fhrs_4_en-GB,4,,FHRS,5
258328,Kims Kitchen,12 Broadway,Kingston Road,Staines-upon-Thames,Kim's Kitchen,Restaurant/Cafe/Canteen,1,10,,593794,10,,51.42857500000000,13/00074/COMM,311,environmental.health.commercial@spelthorne.gov.uk,Spelthorne,http://www.spelthorne.gov.uk,-0.49517600000000,TW18 1AT,2013-09-27,fhrs_3_en-GB,3,,FHRS,10
258329,The Kingfisher Public House,Chertsey Bridge Road,Chertsey,,Kingfisher,Pub/bar/nightclub,7843,0,,277842,0,,51.38986600000000,C01HD5CHER/1,311,environmental.health.commercial@spelthorne.gov.uk,Spelthorne,http://www.spelthorne.gov.uk,-0.48280700000000,KT16 8LF,2014-06-04,fhrs_5_en-GB,5,,FHRS,0
258330,St Martins Court Hall,St Martins Court,Ashford,,Kings Community Church-The Well,Restaurant/Cafe/Canteen,1,10,,509935,0,,51.42920400000000,12/00003/COMM,311,environmental.health.commercial@spelthorne.gov.uk,Spelthorne,http://www.spelthorne.gov.uk,-0.48534500000000,TW15 3NB,2013-01-23,fhrs_4_en-GB,4,,FHRS,0
258331,91 Fordbridge Road,Ashford,Middx,,Kings Fairway,Pub/bar/nightclub,7843,0,,277829,5,,51.42926400000000,C01HD391FO/1,311,environmental.health.commercial@spelthorne.gov.uk,Spelthorne,http://www.spelthorne.gov.uk,-0.46777900000000,TW15 2SS,2013-03-25,fhrs_5_en-GB,5,,FHRS,5
258332,6 Stainash Parade,Kingston Road,"Staines, Middx",,Kings Fish Shop,Takeaway/sandwich shop,7844,5,,277921,5,,51.42924200000000,C23HD16STA/1,311,environmental.health.commercial@spelthorne.gov.uk,Spelthorne,http://www.spelthorne.gov.uk,-0.49528400000000,TW18 1BB,2013-04-16,fhrs_5_en-GB,5,,FHRS,5
258333,Kings Head Public House,Church Square,Shepperton,Surrey,Kings Head,Pub/bar/nightclub,7843,10,,277843,5,,51.38843900000000,C01HD5CHUR/1,311,environmental.health.commercial@spelthorne.gov.uk,Spelthorne,http://www.spelthorne.gov.uk,-0.45410900000000,TW17 9JY,2014-01-16,fhrs_3_en-GB,3,,FHRS,10
258334,The Kings Head Public House,4 Feltham Road,Ashford,,Kings Head,Pub/bar/nightclub,7843,0,,277827,0,,51.43235400000000,C01HD34FEL/1,311,environmental.health.commercial@spelthorne.gov.uk,Spelthorne,http://www.spelthorne.gov.uk,-0.45661300000000,TW15 2EB,2015-01-26,fhrs_5_en-GB,5,,FHRS,5
258335,,,,,Kingscroft @ Fairmead,Hospitals/Childcare/Caring Premises,5,,,278149,,,,T08HD41AWO/1,311,environmental.health.commercial@spelthorne.gov.uk,Spelthorne,http://www.spelthorne.gov.uk,,,2014-01-10,fhrs_exempt_en-GB,Exempt,,FHRS,
258336,,,,,Kirsty's Catering,Other catering premises,7841,0,,610785,5,,,13/00128/COMM,311,environmental.health.commercial@spelthorne.gov.uk,Spelthorne,http://www.spelthorne.gov.uk,,,2013-11-13,fhrs_5_en-GB,5,,FHRS,0
258337,Kit-Kat,4 Stainash Parade,Kingston Road,Staines-upon-Thames,Kit - Kat,Retailers - other,4613,10,,277503,5,,51.42924200000000,`R21GD14STA/1,311,environmental.health.commercial@spelthorne.gov.uk,Spelthorne,http://www.spelthorne.gov.uk,-0.49528300000000,TW18 1BB,2015-01-06,fhrs_4_en-GB,4,,FHRS,5
258338,Knowle Green,Staines-upon-Thames,,,Knowle Green Day Nursery,Hospitals/Childcare/Caring Premises,5,10,,278170,10,,51.42921300000000,V13HD4KNOW/1,311,environmental.health.commercial@spelthorne.gov.uk,Spelthorne,http://www.spelthorne.gov.uk,-0.50213200000000,TW18 1AJ,2014-11-18,fhrs_3_en-GB,3,,FHRS,5
258339,139 High Street,Staines-upon-Thames,Surrey,,Koguryo Korean Restaurant,Restaurant/Cafe/Canteen,1,5,,277545,5,,51.43496300000000,05/00088/COMM,311,environmental.health.commercial@spelthorne.gov.uk,Spelthorne,http://www.spelthorne.gov.uk,-0.50670600000000,TW18 4PA,2013-10-15,fhrs_5_en-GB,5,,FHRS,5
258340,8 Station Parade,Ashford,Surrey,,Kouchin,Restaurant/Cafe/Canteen,1,5,,277586,0,,51.43561800000000,07/00087/COMM,311,environmental.health.commercial@spelthorne.gov.uk,Spelthorne,http://www.spelthorne.gov.uk,-0.46819900000000,TW15 2RX,2013-06-03,fhrs_5_en-GB,5,,FHRS,5
258341,Laleham Park,Thames Side,Laleham,Staines-upon-Thames,Laleham Camping Club,Retailers - other,4613,10,,277708,0,,51.40007600000000,10/00082/COMM,311,environmental.health.commercial@spelthorne.gov.uk,Spelthorne,http://www.spelthorne.gov.uk,-0.49007400000000,TW18 1SS,2010-07-08,fhrs_4_en-GB,4,,FHRS,0
258342,The Broadway,Laleham,Surrey,,Laleham Church Of England Primary School,School/college/university,7845,5,,277960,0,,51.41044800000000,C32HD4THEB/1,311,environmental.health.commercial@spelthorne.gov.uk,Spelthorne,http://www.spelthorne.gov.uk,-0.48759000000000,TW18 1SB,2012-12-11,fhrs_5_en-GB,5,,FHRS,5
258343,196 Laleham Road,Staines-upon-Thames,,,Laleham Food & Wine,Retailers - other,4613,10,,277716,5,,51.42085100000000,10/00102/COMM,311,environmental.health.commercial@spelthorne.gov.uk,Spelthorne,http://www.spelthorne.gov.uk,-0.50011800000000,TW18 2PA,2012-10-11,fhrs_4_en-GB,4,,FHRS,0
258344,Post Office,14 Shepperton Road,Laleham,Staines-upon-Thames,Laleham Food & Wine-Best One,Retailers - other,4613,,,278025,,,51.40879100000000,R02GD414SH/1,311,environmental.health.commercial@spelthorne.gov.uk,Spelthorne,http://www.spelthorne.gov.uk,-0.49017500000000,TW18 1SD,2009-10-21,fhrs_exempt_en-GB,Exempt,,FHRS,
258345,Staines Youth Sports Centre,Leacroft,Staines-upon-Thames,,Leacroft Youth Cafe,Restaurant/Cafe/Canteen,1,10,,731463,10,,51.43350200000000,14/00001/COMM,311,environmental.health.commercial@spelthorne.gov.uk,Spelthorne,http://www.spelthorne.gov.uk,-0.49652400000000,TW18 4PB,2015-01-16,fhrs_3_en-GB,3,,FHRS,10
258346,90 High Street,Shepperton,Surrey,,Lemon Grass,Takeaway/sandwich shop,7844,5,,277527,5,,51.39312400000000,04/00099/COMM,311,environmental.health.commercial@spelthorne.gov.uk,Spelthorne,http://www.spelthorne.gov.uk,-0.44866200000000,TW17 9AU,2013-10-15,fhrs_5_en-GB,5,,FHRS,5
258347,Lemon House Takeaway,29 Church Street,Staines-upon-Thames,,Lemon House Takeway,Takeaway/sandwich shop,7844,0,,277769,5,,51.43421100000000,11/00067/COMM,311,environmental.health.commercial@spelthorne.gov.uk,Spelthorne,http://www.spelthorne.gov.uk,-0.51474400000000,TW18 4EN,2013-10-31,fhrs_5_en-GB,5,,FHRS,5
258348,Clarendon County Primary School,Knapp Road,Ashford,Surrey,Link-Up Kids,Hospitals/Childcare/Caring Premises,5,5,,277572,5,,51.43623500000000,07/00034/COMM,311,environmental.health.commercial@spelthorne.gov.uk,Spelthorne,http://www.spelthorne.gov.uk,-0.46587700000000,TW15 2HZ,2007-06-25,fhrs_5_en-GB,5,,FHRS,5
258349,393 Ashford Road,Laleham,Staines-upon-Thames,,Little Dreams Day Nursery,School/college/university,7845,5,,571457,5,,51.42495100000000,13/00049/COMM,311,environmental.health.commercial@spelthorne.gov.uk,Spelthorne,http://www.spelthorne.gov.uk,-0.47564700000000,TW18 1QG,2013-06-05,fhrs_4_en-GB,4,,FHRS,10
258350,,71 Thames Street,Sunbury On Thames,,Little Italy,Restaurant/Cafe/Canteen,1,10,,486709,5,,51.40639500000000,12/00134/COMM,311,environmental.health.commercial@spelthorne.gov.uk,Spelthorne,http://www.spelthorne.gov.uk,-0.40630100000000,TW16 6AD,2014-10-21,fhrs_1_en-GB,1,,FHRS,20
258351,Rectory Close,Shepperton,,,Littleton Church Of England Infant School,School/college/university,7845,0,,277964,0,,51.40596400000000,C32HD5RECT/1,311,environmental.health.commercial@spelthorne.gov.uk,Spelthorne,http://www.spelthorne.gov.uk,-0.46083700000000,TW17 0QE,2014-09-18,fhrs_5_en-GB,5,,FHRS,0
258352,44 Cranwell Grove,Shepperton,Surrey,,Littleton Nurseries B&B,Hotel/bed & breakfast/guest house,7842,5,,277589,10,,51.40294300000000,07/00098/COMM,311,environmental.health.commercial@spelthorne.gov.uk,Spelthorne,http://www.spelthorne.gov.uk,-0.46773800000000,TW17 0JR,2008-04-18,fhrs_4_en-GB,4,,FHRS,5
258353,Littleton Lane,Shepperton,Middx,,Littleton Sailing Club,Restaurant/Cafe/Canteen,1,10,,277999,5,,51.39647100000000,E23HD5LITT/1,311,environmental.health.commercial@spelthorne.gov.uk,Spelthorne,http://www.spelthorne.gov.uk,-0.47896600000000,TW17 0NF,2013-04-20,fhrs_4_en-GB,4,,FHRS,5
258354,8 Avenue Parade,The Avenue,Sunbury On Thames,Surrey,Lloyds Chemist,Retailers - other,4613,,,278060,,,51.40702000000000,R09GD28AVE/1,311,environmental.health.commercial@spelthorne.gov.uk,Spelthorne,http://www.spelthorne.gov.uk,-0.40602100000000,TW16 5HS,2003-05-22,fhrs_exempt_en-GB,Exempt,,FHRS,
258355,Lloyds,6 Fir Tree Place,Church Road,Ashford,Lloyds Chemist,Retailers - other,4613,,,278066,,,51.43244700000000,R09GD36FIR/1,311,environmental.health.commercial@spelthorne.gov.uk,Spelthorne,http://www.spelthorne.gov.uk,-0.46157300000000,TW15 2PH,2012-06-14,fhrs_exempt_en-GB,Exempt,,FHRS,
258356,60 Nursery Road,Sunbury On Thames,,,Loco,Retailers - other,4613,20,,278108,15,,51.41385600000000,R21GD260NU/1,311,environmental.health.commercial@spelthorne.gov.uk,Spelthorne,http://www.spelthorne.gov.uk,-0.42209000000000,TW16 6LG,2014-03-28,fhrs_1_en-GB,1,,FHRS,5
258357,122 Vicarage Road,Sunbury On Thames,,,Londis,Retailers - other,4613,10,,278032,5,,51.42401000000000,R03GD2122V/1,311,environmental.health.commercial@spelthorne.gov.uk,Spelthorne,http://www.spelthorne.gov.uk,-0.41886400000000,TW16 7QX,2013-08-23,fhrs_4_en-GB,4,,FHRS,5
258358,4 Woodlands Parade,Ashford,,,Londis,Retailers - other,4613,5,,610783,5,,51.42642300000000,13/00119/COMM,311,environmental.health.commercial@spelthorne.gov.uk,Spelthorne,http://www.spelthorne.gov.uk,-0.44329100000000,TW15 1QD,2013-11-05,fhrs_5_en-GB,5,,FHRS,5
258359,53 High Street,Stanwell,Staines-upon-Thames,,Londis,Retailers - other,4613,10,,278013,0,,51.45774000000000,R02GD153HI/1,311,environmental.health.commercial@spelthorne.gov.uk,Spelthorne,http://www.spelthorne.gov.uk,-0.47793800000000,TW19 7LJ,2014-06-19,fhrs_4_en-GB,4,,FHRS,5
258360,81 - 83 Upper Halliford Road,Shepperton,,,Londis,Retailers - other,4613,5,,278014,0,,51.40252600000000,R02GD281UP/1,311,environmental.health.commercial@spelthorne.gov.uk,Spelthorne,http://www.spelthorne.gov.uk,-0.43286000000000,TW17 8SE,2011-05-25,fhrs_5_en-GB,5,,FHRS,0
258361,Post Office,39 - 41 Edinburgh Drive,Laleham,Staines-upon-Thames,Londis,Retailers - other,4613,10,,278119,0,,51.42469100000000,R22GD13941/1,311,environmental.health.commercial@spelthorne.gov.uk,Spelthorne,http://www.spelthorne.gov.uk,-0.48267500000000,TW18 1PJ,2014-05-30,fhrs_4_en-GB,4,,FHRS,5
258362,33 French Street,Sunbury On Thames,Surrey,,Londis Late Store,Retailers - other,4613,10,,277502,5,,51.41199800000000,`R02GD233FR/1,311,environmental.health.commercial@spelthorne.gov.uk,Spelthorne,http://www.spelthorne.gov.uk,-0.40376300000000,TW16 5JL,2014-01-13,fhrs_3_en-GB,3,,FHRS,10
258363,Long Lane Food & Wine,104 - 106 Long Lane,Stanwell,Staines-upon-Thames,Londis Long Lane,Retailers - other,4613,10,,681381,10,,51.45054400000000,14/00066/COMM,311,environmental.health.commercial@spelthorne.gov.uk,Spelthorne,http://www.spelthorne.gov.uk,-0.46610200000000,TW19 7AJ,2014-06-05,fhrs_3_en-GB,3,,FHRS,10
258364,50 Sheep Walk,Shepperton,Surrey,,London Organic Day Nursery,Retailers - other,4613,5,,277512,0,,51.39886000000000,04/00026/COMM,311,environmental.health.commercial@spelthorne.gov.uk,Spelthorne,http://www.spelthorne.gov.uk,-0.46019800000000,TW17 0AJ,2015-01-14,fhrs_5_en-GB,5,,FHRS,5
258365,Longacres,Garden Centre,Nutty Lane,Shepperton,Longacres Garden Centre,Retailers - other,4613,10,,699993,5,,,14/00023/COMM,311,environmental.health.commercial@spelthorne.gov.uk,Spelthorne,http://www.spelthorne.gov.uk,,TW17 0QH,2014-08-26,fhrs_4_en-GB,4,,FHRS,0
258366,125 Feltham Road,Ashford,,,Loon Hing,Takeaway/sandwich shop,7844,10,,277859,10,,51.43300800000000,C05HD3125F/1,311,environmental.health.commercial@spelthorne.gov.uk,Spelthorne,http://www.spelthorne.gov.uk,-0.44757000000000,TW15 1AB,2013-07-26,fhrs_3_en-GB,3,,FHRS,10
258367,Staines Market,High Street,Staines-upon-Thames,,Lovely Thai,Mobile caterer,7846,10,,277765,10,,,11/00060/COMM,311,environmental.health.commercial@spelthorne.gov.uk,Spelthorne,http://www.spelthorne.gov.uk,,,2014-03-26,fhrs_3_en-GB,3,,FHRS,10
258368,17B Clarence Street,Staines-upon-Thames,,,M & S  Food And Wine,Retailers - other,4613,10,,627851,5,,51.43385600000000,14/00019/COMM,311,environmental.health.commercial@spelthorne.gov.uk,Spelthorne,http://www.spelthorne.gov.uk,-0.51436700000000,TW18 4SU,2014-01-03,fhrs_3_en-GB,3,,FHRS,10
258369,15 Church Road,Ashford,,,M2 Pizza Pasta,Restaurant/Cafe/Canteen,1,0,,277861,0,,51.43510500000000,C05HD315CH/2,311,environmental.health.commercial@spelthorne.gov.uk,Spelthorne,http://www.spelthorne.gov.uk,-0.46610200000000,TW15 2UG,2013-08-02,fhrs_5_en-GB,5,,FHRS,0
258370,,,,,Madelaines,Other catering premises,7841,10,,681378,5,,,14/00052/COMM,311,environmental.health.commercial@spelthorne.gov.uk,Spelthorne,http://www.spelthorne.gov.uk,,,2014-06-06,fhrs_4_en-GB,4,,FHRS,0
258371,,,,,Maggie's,Mobile caterer,7846,10,,681375,10,,,14/00047/COMM,311,environmental.health.commercial@spelthorne.gov.uk,Spelthorne,http://www.spelthorne.gov.uk,,,2014-06-06,fhrs_3_en-GB,3,,FHRS,10
258372,The Magpie Hotel,64 Thames Street,Sunbury On Thames,Surrey,Magpie,Pub/bar/nightclub,7843,0,,277822,0,,51.40598000000000,C01HD264TH/1,311,environmental.health.commercial@spelthorne.gov.uk,Spelthorne,http://www.spelthorne.gov.uk,-0.40687600000000,TW16 6AF,2012-12-14,fhrs_4_en-GB,4,,FHRS,10
258373,21B Clarence Street,Staines-upon-Thames,,,Mamma Mia,Restaurant/Cafe/Canteen,1,5,,277867,5,,51.43385600000000,C05HD421CL/1,311,environmental.health.commercial@spelthorne.gov.uk,Spelthorne,http://www.spelthorne.gov.uk,-0.51436700000000,TW18 4SU,2014-02-26,fhrs_5_en-GB,5,,FHRS,5
258374,62 High Street,Shepperton,,,Mango Cafe,Restaurant/Cafe/Canteen,1,10,,277605,10,,51.39312400000000,08/00049/COMM,311,environmental.health.commercial@spelthorne.gov.uk,Spelthorne,http://www.spelthorne.gov.uk,-0.44866200000000,TW17 9AU,2013-07-29,fhrs_2_en-GB,2,,FHRS,15
258375,Laleham Road,Shepperton,Middx,,Manor Mead School,School/college/university,7845,5,,277962,5,,51.39648600000000,C32HD5LALE/1,311,environmental.health.commercial@spelthorne.gov.uk,Spelthorne,http://www.spelthorne.gov.uk,-0.45406800000000,TW17 8EL,2015-01-16,fhrs_5_en-GB,5,,FHRS,5
258376,Sunbury Cross Centre,Sunbury On Thames,Surrey,,Marks & Spencer Plc,Retailers - supermarkets/hypermarkets,7840,0,,278034,0,,51.41869200000000,R03GD2SUNB/1,311,environmental.health.commercial@spelthorne.gov.uk,Spelthorne,http://www.spelthorne.gov.uk,-0.42196700000000,TW16 7BB,2012-03-29,fhrs_5_en-GB,5,,FHRS,0
258377,Marks And Spencer,105 High Street,Staines-upon-Thames,Surrey,Marks And Spencer  & Cafe Revive,Retailers - supermarkets/hypermarkets,7840,0,,277593,0,,51.43396700000000,08/00006/COMM,311,environmental.health.commercial@spelthorne.gov.uk,Spelthorne,http://www.spelthorne.gov.uk,-0.50898300000000,TW18 4PJ,2014-11-07,fhrs_5_en-GB,5,,FHRS,5
258378,63 Clare Road,Stanwell,Middx,,Martins,Retailers - other,4613,5,,278104,5,,51.45090700000000,R21GD163CL/1,311,environmental.health.commercial@spelthorne.gov.uk,Spelthorne,http://www.spelthorne.gov.uk,-0.47663900000000,TW19 7QW,2010-09-01,fhrs_4_en-GB,4,,FHRS,10
258379,,,,,Marvellous Mixtures,Other catering premises,7841,5,,410356,0,,,12/00074/COMM,311,environmental.health.commercial@spelthorne.gov.uk,Spelthorne,http://www.spelthorne.gov.uk,,,2012-06-25,fhrs_5_en-GB,5,,FHRS,5
258380,Masalla Zone,180A Kingston Road,Staines-upon-Thames,,Masala One,Takeaway/sandwich shop,7844,5,,277917,5,,51.42737000000000,C23HD1180A/2,311,environmental.health.commercial@spelthorne.gov.uk,Spelthorne,http://www.spelthorne.gov.uk,-0.48881500000000,TW18 1PE,2014-03-18,fhrs_4_en-GB,4,,FHRS,10
258381,Kingston Road,Staines-upon-Thames,,,Matthew Arnold County Secondary School,School/college/university,7845,0,,278152,0,,51.42736900000000,V06HD1KING/1,311,environmental.health.commercial@spelthorne.gov.uk,Spelthorne,http://www.spelthorne.gov.uk,-0.48881400000000,TW18 1PE,2015-01-27,fhrs_5_en-GB,5,,FHRS,5
258382,Mcdonalds,Two Rivers Retail Park,Mustard Mill Road,Staines-upon-Thames,McDonalds Restaurants Ltd,Restaurant/Cafe/Canteen,1,0,,277870,5,,51.42102300000000,C05HD4MUST/1,311,environmental.health.commercial@spelthorne.gov.uk,Spelthorne,http://www.spelthorne.gov.uk,-0.50332900000000,TW18 4UX,2015-01-22,fhrs_5_en-GB,5,,FHRS,5
258383,McDonalds,62 High Street,Staines-upon-Thames,,McDonalds Restaurants Ltd,Restaurant/Cafe/Canteen,1,0,,277868,0,,51.43423300000000,C05HD462HI/1,311,environmental.health.commercial@spelthorne.gov.uk,Spelthorne,http://www.spelthorne.gov.uk,-0.51146300000000,TW18 4DY,2014-06-03,fhrs_5_en-GB,5,,FHRS,0
258384,Meadhurst Club,Chertsey Road,Sunbury On Thames,Surrey,Meadhurst Club BP,Restaurant/Cafe/Canteen,1,5,,277849,5,,51.41203000000000,C04HD3CHER/1,311,environmental.health.commercial@spelthorne.gov.uk,Spelthorne,http://www.spelthorne.gov.uk,-0.40981600000000,TW16 7LL,2011-03-25,fhrs_5_en-GB,5,,FHRS,0
258385,Knowle Park Avenue,Staines-upon-Thames,,,Meadowside,Hospitals/Childcare/Caring Premises,5,5,,278143,0,,51.42886700000000,T07HD4KNOW/1,311,environmental.health.commercial@spelthorne.gov.uk,Spelthorne,http://www.spelthorne.gov.uk,-0.49754000000000,TW18 1AN,2013-11-04,fhrs_5_en-GB,5,,FHRS,0
258386,,,,,Meradee Cupcakes,Retailers - other,4613,5,,277741,0,,,11/00011/COMM,311,environmental.health.commercial@spelthorne.gov.uk,Spelthorne,http://www.spelthorne.gov.uk,,,2011-05-18,fhrs_5_en-GB,5,,FHRS,0
258387,The Thames Lodge Hotel,Thames Street,Staines-upon-Thames,,Mercure Thames Lodge Hotel,Hotel/bed & breakfast/guest house,7842,0,,277905,0,,51.43111700000000,C20HD4THAM/1,311,environmental.health.commercial@spelthorne.gov.uk,Spelthorne,http://www.spelthorne.gov.uk,-0.51108900000000,TW18 4SJ,2014-01-07,fhrs_5_en-GB,5,,FHRS,0
258388,99 Ashford Road,Laleham,Staines-upon-Thames,,Meson Toby Restaurant,Restaurant/Cafe/Canteen,1,5,,579660,5,,51.41354800000000,13/00065/COMM,311,environmental.health.commercial@spelthorne.gov.uk,Spelthorne,http://www.spelthorne.gov.uk,-0.48461100000000,TW18 1RX,2013-10-24,fhrs_5_en-GB,5,,FHRS,0
258389,Kempton Market,Kempton Park Racecourse,Staines Road East,Sunbury On Thames,Methven Fruits,Mobile caterer,7846,5,,277610,5,,51.41490300000000,08/00073/COMM,311,environmental.health.commercial@spelthorne.gov.uk,Spelthorne,http://www.spelthorne.gov.uk,-0.40374800000000,TW16 5AF,2010-09-09,fhrs_4_en-GB,4,,FHRS,10
258390,Town Farm School,St Marys Crescent,Stanwell,Staines-upon-Thames,Minitot's Children Daycare Centre,Hospitals/Childcare/Caring Premises,5,0,,277551,0,,51.45353800000000,06/00011/COMM,311,environmental.health.commercial@spelthorne.gov.uk,Spelthorne,http://www.spelthorne.gov.uk,-0.47984800000000,TW19 7HU,2015-01-06,fhrs_5_en-GB,5,,FHRS,0
258391,W R Sports Club,The Centre,Woodthorpe Road,Ashford,Mo Juicy,Mobile caterer,7846,5,,667581,5,,51.43424400000000,14/00037/COMM,311,environmental.health.commercial@spelthorne.gov.uk,Spelthorne,http://www.spelthorne.gov.uk,-0.47598500000000,TW15 3JX,2014-06-01,fhrs_5_en-GB,5,,FHRS,5
258392,1 Station Approach,Ashford,,,Moja Cafe,Restaurant/Cafe/Canteen,1,10,,277660,10,,51.43613100000000,09/00173/COMM,311,environmental.health.commercial@spelthorne.gov.uk,Spelthorne,http://www.spelthorne.gov.uk,-0.46822500000000,TW15 2QN,2014-06-05,fhrs_4_en-GB,4,,FHRS,0
258393,1 Clarence Street,Staines-upon-Thames,Surrey,,Momo Cafe,Restaurant/Cafe/Canteen,1,0,,277566,5,,51.43385600000000,07/00005/COMM,311,environmental.health.commercial@spelthorne.gov.uk,Spelthorne,http://www.spelthorne.gov.uk,-0.51436700000000,TW18 4SU,2013-10-15,fhrs_5_en-GB,5,,FHRS,5
258394,Rear Of,71 Thames Street,Sunbury On Thames,,Moon In Moon,Restaurant/Cafe/Canteen,1,20,,480134,15,,51.40639500000000,12/00119/COMM,311,environmental.health.commercial@spelthorne.gov.uk,Spelthorne,http://www.spelthorne.gov.uk,-0.40630100000000,TW16 6AD,2014-06-05,fhrs_1_en-GB,1,,FHRS,10
258395,Moor House Residential Care Home,Moor House,Vicarage Road,Staines-upon-Thames,Moor House,Hospitals/Childcare/Caring Premises,5,5,,278145,5,,51.43963400000000,T07HD4VICA/1,311,environmental.health.commercial@spelthorne.gov.uk,Spelthorne,http://www.spelthorne.gov.uk,-0.51973300000000,TW18 4YG,2014-08-05,fhrs_5_en-GB,5,,FHRS,0
258396,Tesco Superstore,Escot Road,Sunbury On Thames,Surrey,Moss Chemists,Retailers - other,4613,,,278061,,,51.41869200000000,R09GD2ESCO/1,311,environmental.health.commercial@spelthorne.gov.uk,Spelthorne,http://www.spelthorne.gov.uk,-0.42196700000000,TW16 7BB,2001-10-18,fhrs_exempt_en-GB,Exempt,,FHRS,
258397,,,,,Mr J R Brand,Hospitals/Childcare/Caring Premises,5,,,278142,,,,T07HD455BE/1,311,environmental.health.commercial@spelthorne.gov.uk,Spelthorne,http://www.spelthorne.gov.uk,,,2009-02-06,fhrs_exempt_en-GB,Exempt,,FHRS,
258398,,,,,Mr Jim's Fresh Bread & Cakes,Mobile caterer,7846,10,,277550,5,,,06/00002/COMM,311,environmental.health.commercial@spelthorne.gov.uk,Spelthorne,http://www.spelthorne.gov.uk,,,2009-08-20,fhrs_4_en-GB,4,,FHRS,5
258399,,,,,Mr Whippy,Mobile caterer,7846,5,,278002,0,,,H01GD331FA/1,311,environmental.health.commercial@spelthorne.gov.uk,Spelthorne,http://www.spelthorne.gov.uk,,,2010-05-13,fhrs_5_en-GB,5,,FHRS,5
258400,,,,,Mrs C's Cupcakes,Retailers - other,4613,10,,277711,0,,,10/00087/COMM,311,environmental.health.commercial@spelthorne.gov.uk,Spelthorne,http://www.spelthorne.gov.uk,,,2010-11-22,fhrs_4_en-GB,4,,FHRS,0
258401,,,,,Mrs Kimble,Mobile caterer,7846,10,,277631,5,,,09/00084/COMM,311,environmental.health.commercial@spelthorne.gov.uk,Spelthorne,http://www.spelthorne.gov.uk,,,2015-01-21,fhrs_4_en-GB,4,,FHRS,5
258402,,,,,Mrs Lowe,Other catering premises,7841,0,,667577,0,,,14/00014/COMM,311,environmental.health.commercial@spelthorne.gov.uk,Spelthorne,http://www.spelthorne.gov.uk,,,2014-04-24,fhrs_5_en-GB,5,,FHRS,0
258403,,,,,Mrs Whippy,Mobile caterer,7846,5,,277734,5,,,10/00146/COMM,311,environmental.health.commercial@spelthorne.gov.uk,Spelthorne,http://www.spelthorne.gov.uk,,,2011-04-14,fhrs_5_en-GB,5,,FHRS,5
258404,2 Station Approach,Shepperton,,,Mumbai Square Restaurant,Restaurant/Cafe/Canteen,1,5,,555260,5,,51.39633300000000,13/00048/COMM,311,environmental.health.commercial@spelthorne.gov.uk,Spelthorne,http://www.spelthorne.gov.uk,-0.44721700000000,TW17 8AR,2014-12-16,fhrs_5_en-GB,5,,FHRS,5
258405,,4 Peregrine Road,Sunbury On Thames,,Munchies,Other catering premises,7841,10,,667575,5,,51.41243400000000,14/00004/COMM,311,environmental.health.commercial@spelthorne.gov.uk,Spelthorne,http://www.spelthorne.gov.uk,-0.42737300000000,TW16 6JP,2014-04-23,fhrs_4_en-GB,4,,FHRS,5
258406,,,,,Munchies,Mobile caterer,7846,10,,277722,5,,,10/00122/COMM,311,environmental.health.commercial@spelthorne.gov.uk,Spelthorne,http://www.spelthorne.gov.uk,,,2013-04-09,fhrs_4_en-GB,4,,FHRS,5
258407,404 Staines Road West,Ashford,Surrey,,Murco Petroleum Ltd,Retailers - other,4613,0,,278090,0,,51.42231500000000,R12GD3404S/1,311,environmental.health.commercial@spelthorne.gov.uk,Spelthorne,http://www.spelthorne.gov.uk,-0.44541600000000,TW15 1RZ,2012-03-13,fhrs_5_en-GB,5,,FHRS,0
258408,,,,,Nancy Taylor,Mobile caterer,7846,5,,728186,5,,,14/00114/COMM,311,environmental.health.commercial@spelthorne.gov.uk,Spelthorne,http://www.spelthorne.gov.uk,,,2014-12-12,fhrs_5_en-GB,5,,FHRS,5
258409,Nandos,Unit S8,Two Rivers Retail Park,Mustard Mill Road,Nando's Chicken Restaurants,Restaurant/Cafe/Canteen,1,0,,277872,0,,51.43434300000000,C05HD4TWOR/2,311,environmental.health.commercial@spelthorne.gov.uk,Spelthorne,http://www.spelthorne.gov.uk,-0.51239400000000,TW18 4BL,2013-08-20,fhrs_5_en-GB,5,,FHRS,5
258410,2 Broadway,Kingston Road,Staines-upon-Thames,,Natural Meat Co,Retailers - other,4613,0,,278041,0,,51.42857500000000,R04JD42THE/1,311,environmental.health.commercial@spelthorne.gov.uk,Spelthorne,http://www.spelthorne.gov.uk,-0.49517600000000,TW18 1AT,2013-07-15,fhrs_5_en-GB,5,,FHRS,5
258411,42 The Elmsleigh Centre,Staines-upon-Thames,Middx,,New look,Retailers - other,4613,,,278122,,,51.43346100000000,S02XD442TH/1,311,environmental.health.commercial@spelthorne.gov.uk,Spelthorne,http://www.spelthorne.gov.uk,-0.50948800000000,TW18 4QB,2011-07-15,fhrs_exempt_en-GB,Exempt,,FHRS,
258412,98 Windmill Road,Sunbury On Thames,,,New Sunbury Tandoori,Restaurant/Cafe/Canteen,1,10,,620861,10,,51.41645900000000,13/00129/COMM,311,environmental.health.commercial@spelthorne.gov.uk,Spelthorne,http://www.spelthorne.gov.uk,-0.43179400000000,TW16 7HB,2015-01-14,fhrs_3_en-GB,3,,FHRS,10
258413,Ritzbury House,Bridgefoot,Green Street,Sunbury On Thames,Nexus Day Centre,Hospitals/Childcare/Caring Premises,5,5,,277943,0,,51.41536100000000,C29HD2GREE/2,311,environmental.health.commercial@spelthorne.gov.uk,Spelthorne,http://www.spelthorne.gov.uk,-0.41897500000000,TW16 6QB,2013-08-29,fhrs_5_en-GB,5,,FHRS,0
258414,,,,,Nicky's Cakebook,Other catering premises,7841,10,,405840,5,,,12/00048/COMM,311,environmental.health.commercial@spelthorne.gov.uk,Spelthorne,http://www.spelthorne.gov.uk,,,2012-06-06,fhrs_4_en-GB,4,,FHRS,5
258415,Noels Cafe,129 Feltham Road,Ashford,,Noel's Cafe,Restaurant/Cafe/Canteen,1,10,,427168,10,,51.43300800000000,12/00047/COMM,311,environmental.health.commercial@spelthorne.gov.uk,Spelthorne,http://www.spelthorne.gov.uk,-0.44757000000000,TW15 1AB,2013-08-12,fhrs_3_en-GB,3,,FHRS,5
258416,Vanguard House,Douglas Road,Stanwell,Surrey,Northlands II Social Club,Pub/bar/nightclub,7843,5,,277845,5,,51.45751300000000,C04HD1DOUG/1,311,environmental.health.commercial@spelthorne.gov.uk,Spelthorne,http://www.spelthorne.gov.uk,-0.47503800000000,TW19 7JW,2002-10-30,fhrs_5_en-GB,5,,FHRS,5
258417,150 Staines Road,Laleham,Staines-upon-Thames,,Notcutts Garden Centre,Restaurant/Cafe/Canteen,1,5,,278127,0,,51.41630500000000,S23HD4150S/1,311,environmental.health.commercial@spelthorne.gov.uk,Spelthorne,http://www.spelthorne.gov.uk,-0.49477400000000,TW18 2SF,2013-08-20,fhrs_5_en-GB,5,,FHRS,5
258418,Squires Bridge Road,Shepperton,,,Old Manor House,Hotel/bed & breakfast/guest house,7842,0,,277679,0,,51.40686100000000,10/00022/COMM,311,environmental.health.commercial@spelthorne.gov.uk,Spelthorne,http://www.spelthorne.gov.uk,-0.45866400000000,TW17 0QG,2012-04-30,fhrs_5_en-GB,5,,FHRS,5
258419,,,,,Oopsy Cakesy,Retailers - other,4613,0,,352910,0,,,11/00083/COMM,311,environmental.health.commercial@spelthorne.gov.uk,Spelthorne,http://www.spelthorne.gov.uk,,,2012-04-25,fhrs_5_en-GB,5,,FHRS,0
258420,Sunbury Congregational Church,Green Street,Sunbury On Thames,Surrey,Open Door Church,Other catering premises,7841,5,,277942,0,,51.41247400000000,C29HD2GREE/1,311,environmental.health.commercial@spelthorne.gov.uk,Spelthorne,http://www.spelthorne.gov.uk,-0.41825500000000,TW16 6QQ,2012-11-27,fhrs_5_en-GB,5,,FHRS,0
258421,123 Groveley Road,Sunbury On Thames,,,Oriental Palace,Other catering premises,7841,10,,277738,5,,51.42887900000000,11/00007/COMM,311,environmental.health.commercial@spelthorne.gov.uk,Spelthorne,http://www.spelthorne.gov.uk,-0.42180300000000,TW16 7JZ,2014-11-07,fhrs_4_en-GB,4,,FHRS,5
258422,Staines Market,High Street,Staines-upon-Thames,,Original Thai,Mobile caterer,7846,10,,277654,10,,,09/00160/COMM,311,environmental.health.commercial@spelthorne.gov.uk,Spelthorne,http://www.spelthorne.gov.uk,,,2014-03-28,fhrs_3_en-GB,3,,FHRS,10
258423,Park Avenue,Staines-upon-Thames,,,Our Lady Of The Rosary School,School/college/university,7845,0,,277959,0,,51.42756600000000,C32HD4PARK/1,311,environmental.health.commercial@spelthorne.gov.uk,Spelthorne,http://www.spelthorne.gov.uk,-0.50484600000000,TW18 2EF,2015-01-14,fhrs_5_en-GB,5,,FHRS,0
258424,5 - 6 Friends Walk,Staines-upon-Thames,Surrey,,P & Q Home Depot,Retailers - other,4613,,,277504,,,51.43249800000000,`S13XD45-6F/1,311,environmental.health.commercial@spelthorne.gov.uk,Spelthorne,http://www.spelthorne.gov.uk,-0.51012400000000,TW18 4PG,2005-07-07,fhrs_exempt_en-GB,Exempt,,FHRS,
258425,Kempton Park,Staines Road East,Sunbury On Thames,Surrey,P Richie,Retailers - other,4613,5,,278096,5,,51.41928400000000,R14GD2KEMP/7,311,environmental.health.commercial@spelthorne.gov.uk,Spelthorne,http://www.spelthorne.gov.uk,-0.40851400000000,TW16 5AE,2010-03-25,fhrs_4_en-GB,4,,FHRS,10
258426,Page Works,Forge Lane,Sunbury On Thames,,Page Aerospace,Restaurant/Cafe/Canteen,1,5,,278008,0,,51.40632700000000,J02HD2FORG/1,311,environmental.health.commercial@spelthorne.gov.uk,Spelthorne,http://www.spelthorne.gov.uk,-0.41520400000000,TW16 6EQ,2014-07-09,fhrs_5_en-GB,5,,FHRS,5
258427,115 Groveley Road,Sunbury On Thames,Surrey,,Parrots News,Retailers - other,4613,10,,278105,10,,51.42887900000000,R21GD2115G/1,311,environmental.health.commercial@spelthorne.gov.uk,Spelthorne,http://www.spelthorne.gov.uk,-0.42180300000000,TW16 7JZ,2013-02-19,fhrs_3_en-GB,3,,FHRS,5
258428,St Pauls College,The Ridings,Sunbury On Thames,,Pavilion Day Nursery,Hospitals/Childcare/Caring Premises,5,10,,278167,10,,51.41561200000000,V13HD2THER/1,311,environmental.health.commercial@spelthorne.gov.uk,Spelthorne,http://www.spelthorne.gov.uk,-0.41563000000000,TW16 6NX,2014-09-18,fhrs_3_en-GB,3,,FHRS,5
258429,56 Church Road,Ashford,,,Pebbles,Restaurant/Cafe/Canteen,1,10,,690073,5,,51.43306400000000,14/00059/COMM,311,environmental.health.commercial@spelthorne.gov.uk,Spelthorne,http://www.spelthorne.gov.uk,-0.46201200000000,TW15 2TS,2014-08-01,fhrs_3_en-GB,3,,FHRS,10
258430,4 Penton Avenue,Staines-upon-Thames,Surrey,,Penton Stores,Retailers - other,4613,10,,278027,5,,51.42014500000000,R02GD44PEN/1,311,environmental.health.commercial@spelthorne.gov.uk,Spelthorne,http://www.spelthorne.gov.uk,-0.50815200000000,TW18 2NB,2011-04-19,fhrs_4_en-GB,4,,FHRS,0
258431,Cafeteria,Staines Central Railway Station,Station Approach,Staines-upon-Thames,Phoenix Coffee Shop-Platform 2,Restaurant/Cafe/Canteen,1,5,,405843,5,,51.43288800000000,12/00072/COMM,311,environmental.health.commercial@spelthorne.gov.uk,Spelthorne,http://www.spelthorne.gov.uk,-0.50335000000000,TW18 4LY,2012-05-09,fhrs_5_en-GB,5,,FHRS,5
258432,47 High Street,Stanwell,Staines-upon-Thames,,Phoenix House,Other catering premises,7841,5,,516907,5,,51.45774000000000,13/00022/COMM,311,environmental.health.commercial@spelthorne.gov.uk,Spelthorne,http://www.spelthorne.gov.uk,-0.47793800000000,TW19 7LJ,2015-01-27,fhrs_5_en-GB,5,,FHRS,5
258433,,,,,Pink Lemonade Bakery,Other catering premises,7841,5,,620858,0,,,13/00087/COMM,311,environmental.health.commercial@spelthorne.gov.uk,Spelthorne,http://www.spelthorne.gov.uk,,,2013-11-22,fhrs_5_en-GB,5,,FHRS,0
258434,Conalcrete Site,Littleton Lane,Shepperton,,Pit Stop Cafe @ Conalcrete Site,Mobile caterer,7846,10,,620863,5,,,13/00132/COMM,311,environmental.health.commercial@spelthorne.gov.uk,Spelthorne,http://www.spelthorne.gov.uk,,TW17 0NJ,2013-12-02,fhrs_3_en-GB,3,,FHRS,10
258435,103 Clare Road,Stanwell,Staines-upon-Thames,,Pizza & Chicken Express,Restaurant/Cafe/Canteen,1,10,,667576,15,,51.45131700000000,14/00009/COMM,311,environmental.health.commercial@spelthorne.gov.uk,Spelthorne,http://www.spelthorne.gov.uk,-0.47642400000000,TW19 7QP,2014-05-28,fhrs_2_en-GB,2,,FHRS,10
258436,14 - 16 Clarence Street,Staines-upon-Thames,Surrey,,Pizza Express,Restaurant/Cafe/Canteen,1,5,,277866,0,,51.43350000000000,C05HD41416/1,311,environmental.health.commercial@spelthorne.gov.uk,Spelthorne,http://www.spelthorne.gov.uk,-0.51469500000000,TW18 4SP,2014-01-07,fhrs_5_en-GB,5,,FHRS,5
258437,152 - 154 High Street,Staines-upon-Thames,,,Pizza Hut,Takeaway/sandwich shop,7844,5,,516905,5,,51.43534400000000,12/00130/COMM,311,environmental.health.commercial@spelthorne.gov.uk,Spelthorne,http://www.spelthorne.gov.uk,-0.50690900000000,TW18 4AH,2015-01-27,fhrs_4_en-GB,4,,FHRS,10
258438,349 Staines Road West,Ashford,,,Pizza Hut,Takeaway/sandwich shop,7844,10,,277931,5,,51.42243700000000,C23HD3349S/1,311,environmental.health.commercial@spelthorne.gov.uk,Spelthorne,http://www.spelthorne.gov.uk,-0.44171500000000,TW15 1RP,2013-07-11,fhrs_4_en-GB,4,,FHRS,5
258439,Unit T5,Mustard Mill Road,Staines-upon-Thames,,Pizza Hut,Restaurant/Cafe/Canteen,1,0,,277871,0,,51.43434300000000,C05HD4TWOR/1,311,environmental.health.commercial@spelthorne.gov.uk,Spelthorne,http://www.spelthorne.gov.uk,-0.51239400000000,TW18 4BL,2013-07-15,fhrs_5_en-GB,5,,FHRS,5
258440,Thames Club Limited,Wheatsheaf Park,Wheatsheaf Lane,Staines-upon-Thames,Playtime Nursery @ The Thames Club,School/college/university,7845,5,,699995,5,,51.42105100000000,14/00074/COMM,311,environmental.health.commercial@spelthorne.gov.uk,Spelthorne,http://www.spelthorne.gov.uk,-0.50232700000000,TW18 2PD,2014-08-27,fhrs_5_en-GB,5,,FHRS,5
258441,Playtime Arts And Crafts Limited,Miles House,Govett Avenue,Shepperton,Playtime Nursery Ltd,Hospitals/Childcare/Caring Premises,5,0,,277531,5,,51.39694300000000,05/00021/COMM,311,environmental.health.commercial@spelthorne.gov.uk,Spelthorne,http://www.spelthorne.gov.uk,-0.44573000000000,TW17 8AG,2014-12-02,fhrs_5_en-GB,5,,FHRS,5
258442,Polash,187 Horton Road,Stanwell Moor,Staines-upon-Thames,Polash Tandoori,Takeaway/sandwich shop,7844,5,,277918,10,,51.46182000000000,C23HD1187H/1,311,environmental.health.commercial@spelthorne.gov.uk,Spelthorne,http://www.spelthorne.gov.uk,-0.50151100000000,TW19 6AQ,2013-12-16,fhrs_4_en-GB,4,,FHRS,5
258443,,,,,Polly's,Retailers - other,4613,5,,278095,0,,,R14GD2KEMP/26,311,environmental.health.commercial@spelthorne.gov.uk,Spelthorne,http://www.spelthorne.gov.uk,,,2014-11-13,fhrs_5_en-GB,5,,FHRS,0
258444,Chennestone School,Manor Lane,Sunbury On Thames,,Pomfrett  Cottage Nursery,School/college/university,7845,5,,627852,5,,51.41263600000000,14/00020/COMM,311,environmental.health.commercial@spelthorne.gov.uk,Spelthorne,http://www.spelthorne.gov.uk,-0.40569600000000,TW16 5ED,2013-11-06,fhrs_5_en-GB,5,,FHRS,0
258445,72 Church Road,Ashford,,,Post Office,Retailers - other,4613,,,690900,,,51.43281000000000,10/00038/COMM,311,environmental.health.commercial@spelthorne.gov.uk,Spelthorne,http://www.spelthorne.gov.uk,-0.46117200000000,TW15 2TW,2012-01-20,fhrs_exempt_en-GB,Exempt,,FHRS,
258446,70 Church Road,Ashford,,,Pound Paradise Stores,Retailers - other,4613,10,,667582,5,,51.43281000000000,14/00039/COMM,311,environmental.health.commercial@spelthorne.gov.uk,Spelthorne,http://www.spelthorne.gov.uk,-0.46117200000000,TW15 2TW,2014-05-20,fhrs_4_en-GB,4,,FHRS,0
258447,95 - 99 High Street,Staines-upon-Thames,,,Poundland,Retailers - other,4613,0,,277684,0,,51.43413300000000,10/00031/COMM,311,environmental.health.commercial@spelthorne.gov.uk,Spelthorne,http://www.spelthorne.gov.uk,-0.50998400000000,TW18 4PQ,2010-05-18,fhrs_5_en-GB,5,,FHRS,0
258448,64 High Street,Staines-upon-Thames,,,Poundworld,Retailers - other,4613,0,,438557,0,,51.42102300000000,12/00071/COMM,311,environmental.health.commercial@spelthorne.gov.uk,Spelthorne,http://www.spelthorne.gov.uk,-0.50332900000000,TW18 4EB,2014-09-17,fhrs_5_en-GB,5,,FHRS,0
258449,Kempton Point,68 Staines Road West,Sunbury On Thames,,Premier Inn,Hotel/bed & breakfast/guest house,7842,5,,277696,5,,51.41985100000000,10/00053/COMM,311,environmental.health.commercial@spelthorne.gov.uk,Spelthorne,http://www.spelthorne.gov.uk,-0.42186900000000,TW16 7AH,2012-11-16,fhrs_5_en-GB,5,,FHRS,5
258450,,,,,Premium Catering,Other catering premises,7841,5,,277897,0,,,C11HD511GR/1,311,environmental.health.commercial@spelthorne.gov.uk,Spelthorne,http://www.spelthorne.gov.uk,,,2013-04-02,fhrs_5_en-GB,5,,FHRS,0
258451,Prezzo,109 - 113 High Street,Shepperton,,Prezzo Restaurant,Restaurant/Cafe/Canteen,1,0,,277880,0,,51.39235300000000,C05XD5109-/1,311,environmental.health.commercial@spelthorne.gov.uk,Spelthorne,http://www.spelthorne.gov.uk,-0.44953600000000,TW17 9BL,2014-06-11,fhrs_5_en-GB,5,,FHRS,5
258452,Price Cutter Food And Wine,99 Green Street,Sunbury On Thames,,Price Cutter Food & Wine,Retailers - other,4613,10,,277658,5,,51.40683200000000,09/00165/COMM,311,environmental.health.commercial@spelthorne.gov.uk,Spelthorne,http://www.spelthorne.gov.uk,-0.41468300000000,TW16 6RD,2013-08-06,fhrs_3_en-GB,3,,FHRS,10
258453,Cafeteria,Staines Central Railway Station,Station Approach,Staines-upon-Thames,Puccino's Cart Company,Restaurant/Cafe/Canteen,1,20,,277883,10,,51.43288800000000,C06HD1KING/2,311,environmental.health.commercial@spelthorne.gov.uk,Spelthorne,http://www.spelthorne.gov.uk,-0.50335000000000,TW18 4LY,2014-09-23,fhrs_1_en-GB,1,,FHRS,10
258454,64 High Street,Shepperton,Surrey,,Quality Fruits,Retailers - other,4613,5,,278055,5,,51.39312400000000,R08GD564HI/1,311,environmental.health.commercial@spelthorne.gov.uk,Spelthorne,http://www.spelthorne.gov.uk,-0.44866200000000,TW17 9AU,2014-12-09,fhrs_4_en-GB,4,,FHRS,10
258455,Green Grocer,104 Church Road,Ashford,,Quality Fruits Of Ashford,Retailers - other,4613,5,,278053,5,,51.43249500000000,R08GD3104C/1,311,environmental.health.commercial@spelthorne.gov.uk,Spelthorne,http://www.spelthorne.gov.uk,-0.45974400000000,TW15 2PL,2014-04-17,fhrs_4_en-GB,4,,FHRS,10
258456,,,,,Quality Quisine,Other catering premises,7841,0,,277895,5,,,C10XD2129S/1,311,environmental.health.commercial@spelthorne.gov.uk,Spelthorne,http://www.spelthorne.gov.uk,,,2013-06-20,fhrs_5_en-GB,5,,FHRS,0
258457,109 High Street,Staines-upon-Thames,Middx,,Quicksilver,Retailers - other,4613,,,277974,,,51.43413300000000,E03HD4109H/1,311,environmental.health.commercial@spelthorne.gov.uk,Spelthorne,http://www.spelthorne.gov.uk,-0.50998400000000,TW18 4PQ,2014-12-22,fhrs_exempt_en-GB,Exempt,,FHRS,
258458,Main Square,The Elmsleigh Centre,Staines-upon-Thames,,Raffy Confectionery Ltd,Mobile caterer,7846,10,,438553,5,,,12/00063/COMM,311,environmental.health.commercial@spelthorne.gov.uk,Spelthorne,http://www.spelthorne.gov.uk,,,2012-07-16,fhrs_4_en-GB,4,,FHRS,5
258459,Kenyngton Manor County Primary Scho,Beechwood Avenue,Sunbury On Thames,,Rainbow Nursery & Pre-School,School/college/university,7845,5,,371862,0,,51.42401000000000,12/00056/COMM,311,environmental.health.commercial@spelthorne.gov.uk,Spelthorne,http://www.spelthorne.gov.uk,-0.41886400000000,TW16 7QX,2012-05-16,fhrs_5_en-GB,5,,FHRS,0
258460,1 Fir Tree Place,Church Road,Ashford,,Ray Wine,Retailers - other,4613,5,,371859,0,,51.43244700000000,11/00110/COMM,311,environmental.health.commercial@spelthorne.gov.uk,Spelthorne,http://www.spelthorne.gov.uk,-0.46157300000000,TW15 2PH,2012-05-14,fhrs_5_en-GB,5,,FHRS,0
258461,125 Upper Halliford Road,Shepperton,,,Really Awesome Coffee (Shepperton),Mobile caterer,7846,5,,715697,5,,51.40679100000000,14/00090/COMM,311,environmental.health.commercial@spelthorne.gov.uk,Spelthorne,http://www.spelthorne.gov.uk,-0.43236900000000,TW17 8SN,2014-10-31,fhrs_5_en-GB,5,,FHRS,5
258462,The Red Herring Fish Bar,37A Green Street,Sunbury On Thames,,Red Herring Fish Bar,Takeaway/sandwich shop,7844,20,,277923,5,,51.40536600000000,C23HD237AG/1,311,environmental.health.commercial@spelthorne.gov.uk,Spelthorne,http://www.spelthorne.gov.uk,-0.41332500000000,TW16 6RE,2013-11-26,fhrs_1_en-GB,1,,FHRS,10
258463,Red Lion Inn,Russell Road,Shepperton,,Red Lion,Pub/bar/nightclub,7843,20,,731464,20,,51.39021100000000,14/00078/COMM,311,environmental.health.commercial@spelthorne.gov.uk,Spelthorne,http://www.spelthorne.gov.uk,-0.44397400000000,TW17 9HX,2015-01-13,fhrs_0_en-GB,0,,FHRS,15
258464,,,,,Reynolds Catering,Mobile caterer,7846,0,,277544,0,,,05/00086/COMM,311,environmental.health.commercial@spelthorne.gov.uk,Spelthorne,http://www.spelthorne.gov.uk,,,2013-06-03,fhrs_5_en-GB,5,,FHRS,0
258465,Staines Market,High Street,Staines-upon-Thames,Surrey,Rio's Diner (Mobile Snack Bar),Mobile caterer,7846,5,,277941,0,,,C27HD4MARK/2,311,environmental.health.commercial@spelthorne.gov.uk,Spelthorne,http://www.spelthorne.gov.uk,,,2015-01-28,fhrs_5_en-GB,5,,FHRS,0
258466,Rise And Dine,31 Edinburgh Drive,Laleham,Staines-upon-Thames,Rise & Dine Cafe,Restaurant/Cafe/Canteen,1,20,,277882,10,,51.42469100000000,C06HD131ED/1,311,environmental.health.commercial@spelthorne.gov.uk,Spelthorne,http://www.spelthorne.gov.uk,-0.48267500000000,TW18 1PJ,2014-09-12,fhrs_1_en-GB,1,,FHRS,15
258467,Riverbridge Primary School - Knowle,Knowle Green,Staines-upon-Thames,,Riverbridge Primary School - Knowle Green,School/college/university,7845,0,,277958,0,,51.42921300000000,C32HD4KNOW/1,311,environmental.health.commercial@spelthorne.gov.uk,Spelthorne,http://www.spelthorne.gov.uk,-0.50213200000000,TW18 1AJ,2013-04-19,fhrs_5_en-GB,5,,FHRS,0
258468,Riverbridge Primary School - Park A,Park Avenue,Staines-upon-Thames,,Riverbridge Primary School - Staines,School/college/university,7845,5,,278161,0,,51.42756600000000,V06HD4PARK/1,311,environmental.health.commercial@spelthorne.gov.uk,Spelthorne,http://www.spelthorne.gov.uk,-0.50484700000000,TW18 2EF,2013-11-12,fhrs_5_en-GB,5,,FHRS,5
258469,,,,,Riverford Home Delivery,Mobile caterer,7846,,,277533,,,,05/00031/COMM,311,environmental.health.commercial@spelthorne.gov.uk,Spelthorne,http://www.spelthorne.gov.uk,,,2006-01-11,fhrs_exempt_en-GB,Exempt,,FHRS,
258470,59 Thames Street,Sunbury-On-Thames,Middx,,Riverside Arts Centre,Restaurant/Cafe/Canteen,1,5,,277998,5,,51.40781200000000,E22HD259TH/1,311,environmental.health.commercial@spelthorne.gov.uk,Spelthorne,http://www.spelthorne.gov.uk,-0.40140700000000,TW16 5QS,2003-12-09,fhrs_5_en-GB,5,,FHRS,5
258471,Staines Community Centre,Thames Street,Staines-upon-Thames,Surrey,Riverside Cafe-Myers Catering,Restaurant/Cafe/Canteen,1,0,,277937,5,,51.43274300000000,C24HD4THAM/1,311,environmental.health.commercial@spelthorne.gov.uk,Spelthorne,http://www.spelthorne.gov.uk,-0.51169800000000,TW18 4EA,2013-12-05,fhrs_5_en-GB,5,,FHRS,0
258472,Lock House,Lock Island,Shepperton,Surrey,Riverside Coffee Shop,Restaurant/Cafe/Canteen,1,5,,277891,5,,51.38148300000000,C06HD5LOCK/1,311,environmental.health.commercial@spelthorne.gov.uk,Spelthorne,http://www.spelthorne.gov.uk,-0.45780700000000,TW17 9LW,2013-05-03,fhrs_5_en-GB,5,,FHRS,5
258473,Shepperton Autoway Centre,Walton Bridge Road,Shepperton,Surrey,ROC UK Ltd,Retailers - other,4613,0,,278093,0,,51.39135800000000,R12GD5WALT/2,311,environmental.health.commercial@spelthorne.gov.uk,Spelthorne,http://www.spelthorne.gov.uk,-0.43488000000000,TW17 8NE,2009-03-18,fhrs_5_en-GB,5,,FHRS,0
258474,Rock N Sole,351 Staines Road West,Ashford,,Rock N Sole Fish N Chips,Restaurant/Cafe/Canteen,1,10,,681379,0,,51.42243700000000,14/00055/COMM,311,environmental.health.commercial@spelthorne.gov.uk,Spelthorne,http://www.spelthorne.gov.uk,-0.44171500000000,TW15 1RP,2014-06-03,fhrs_4_en-GB,4,,FHRS,5
258475,75 Gresham Road,Staines-upon-Thames,Surrey,,Rose Villa,Hotel/bed & breakfast/guest house,7842,5,,277911,5,,51.43185500000000,C22HD475GR/1,311,environmental.health.commercial@spelthorne.gov.uk,Spelthorne,http://www.spelthorne.gov.uk,-0.50411700000000,TW18 2BD,2006-05-18,fhrs_4_en-GB,4,,FHRS,10
258476,Roshnis,Unit 1,Thames Edge Court,Clarence Street,RoshnisRestaurant,Restaurant/Cafe/Canteen,1,10,,699997,15,,51.43364800000000,14/00076/COMM,311,environmental.health.commercial@spelthorne.gov.uk,Spelthorne,http://www.spelthorne.gov.uk,-0.51574000000000,TW18 4BU,2015-01-09,fhrs_2_en-GB,2,,FHRS,15
258477,Roslin,Rookery Road,Staines-upon-Thames,,Roslin Nursery,Hospitals/Childcare/Caring Premises,5,0,,278166,0,,51.42950800000000,V13HD1ROOK/1,311,environmental.health.commercial@spelthorne.gov.uk,Spelthorne,http://www.spelthorne.gov.uk,-0.49359200000000,TW18 1BT,2014-03-24,fhrs_5_en-GB,5,,FHRS,0
258478,The Royal British Legion,41A The Parade,Staines Road West,Sunbury On Thames,Royal British Legion Club,Other catering premises,7841,10,,277846,0,,51.41976700000000,C04HD241TH/1,311,environmental.health.commercial@spelthorne.gov.uk,Spelthorne,http://www.spelthorne.gov.uk,-0.42033300000000,TW16 7AB,2014-01-23,fhrs_4_en-GB,4,,FHRS,10
258479,Running Horse Public House,Groveley Road,Sunbury On Thames,,Running Horse,Pub/bar/nightclub,7843,0,,277824,5,,51.42830900000000,C01HD2GROV/1,311,environmental.health.commercial@spelthorne.gov.uk,Spelthorne,http://www.spelthorne.gov.uk,-0.42224000000000,TW16 7LB,2014-12-04,fhrs_5_en-GB,5,,FHRS,0
258480,Kempton Market,Kempton Park Racecourse,Staines Road East,Sunbury On Thames,S & L Catering,Mobile caterer,7846,0,,690902,0,,51.41490300000000,13/00072/COMM,311,environmental.health.commercial@spelthorne.gov.uk,Spelthorne,http://www.spelthorne.gov.uk,-0.40374800000000,TW16 5AF,2013-04-04,fhrs_5_en-GB,5,,FHRS,0
258481,Sunbury Railway Station,Station Road,Sunbury On Thames,Surrey,S & S Coffee,Mobile caterer,7846,5,,277617,5,,51.41851700000000,08/00104/COMM,311,environmental.health.commercial@spelthorne.gov.uk,Spelthorne,http://www.spelthorne.gov.uk,-0.41830600000000,TW16 6SB,2015-01-13,fhrs_5_en-GB,5,,FHRS,5
258482,Kempton Park,Staines Road East,Sunbury On Thames,Surrey,S Herd,Retailers - other,4613,20,,278094,15,,51.41928400000000,R14GD2KEMP/25,311,environmental.health.commercial@spelthorne.gov.uk,Spelthorne,http://www.spelthorne.gov.uk,-0.40851400000000,TW16 5AE,2013-03-07,fhrs_1_en-GB,1,,FHRS,15
258483,26 - 34 High Street,Shepperton,Surrey,,S R Services Petrol Station,Retailers - other,4613,0,,278092,0,,51.27199935913086,R12GD52634/1,311,environmental.health.commercial@spelthorne.gov.uk,Spelthorne,http://www.spelthorne.gov.uk,-0.40499997138977,TW17 9AT,2010-12-13,fhrs_5_en-GB,5,,FHRS,0
258484,11 Broadway,Kingston Road,Staines-upon-Thames,,Safeway Local,Retailers - other,4613,10,,690074,5,,51.42857500000000,14/00063/COMM,311,environmental.health.commercial@spelthorne.gov.uk,Spelthorne,http://www.spelthorne.gov.uk,-0.49517600000000,TW18 1AT,2014-07-24,fhrs_4_en-GB,4,,FHRS,5
258485,6 New Parade,Church Road,Ashford,,Sainsbury,Retailers - supermarkets/hypermarkets,7840,0,,277729,0,,51.43445300000000,10/00138/COMM,311,environmental.health.commercial@spelthorne.gov.uk,Spelthorne,http://www.spelthorne.gov.uk,-0.46580700000000,TW15 2UF,2015-01-09,fhrs_5_en-GB,5,,FHRS,5
258486,9 - 11 Trident House,Clare Road,Stanwell,Staines-upon-Thames,Sainsbury's Supermarkets,Retailers - supermarkets/hypermarkets,7840,0,,277535,0,,51.45067300000000,05/00037/COMM,311,environmental.health.commercial@spelthorne.gov.uk,Spelthorne,http://www.spelthorne.gov.uk,-0.47530900000000,TW19 7QU,2010-01-05,fhrs_5_en-GB,5,,FHRS,5
258487,15 - 17 Church Street,Staines-upon-Thames,,,Salt And Vinegar,Restaurant/Cafe/Canteen,1,10,,681380,5,,51.43421100000000,14/00058/COMM,311,environmental.health.commercial@spelthorne.gov.uk,Spelthorne,http://www.spelthorne.gov.uk,-0.51474400000000,TW18 4EN,2014-06-26,fhrs_4_en-GB,4,,FHRS,5
258488,Salvation Army Citadel,Woodthorpe Road,Ashford,,Salvation Army,Restaurant/Cafe/Canteen,1,0,,277991,0,,51.43391300000000,E11HD3WOOD/1,311,environmental.health.commercial@spelthorne.gov.uk,Spelthorne,http://www.spelthorne.gov.uk,-0.47608300000000,TW15 3JY,2014-10-10,fhrs_5_en-GB,5,,FHRS,5
258489,,,,,Samara Cuisine Ltd,Other catering premises,7841,0,,277686,0,,,10/00034/COMM,311,environmental.health.commercial@spelthorne.gov.uk,Spelthorne,http://www.spelthorne.gov.uk,,,2010-05-13,fhrs_5_en-GB,5,,FHRS,0
258490,,,,,Sampsons Cakes,Mobile caterer,7846,5,,278001,5,,,H01GD214SH/1,311,environmental.health.commercial@spelthorne.gov.uk,Spelthorne,http://www.spelthorne.gov.uk,,,2014-10-24,fhrs_5_en-GB,5,,FHRS,5
258491,,,,,Sandra Brassington,Other catering premises,7841,0,,550754,0,,,13/00027/COMM,311,environmental.health.commercial@spelthorne.gov.uk,Spelthorne,http://www.spelthorne.gov.uk,,,2013-05-16,fhrs_5_en-GB,5,,FHRS,5
258492,2 Station Approach,Staines-upon-Thames,Surrey,,Savita News,Retailers - other,4613,,,278115,,,51.43288800000000,R21GD42STA/1,311,environmental.health.commercial@spelthorne.gov.uk,Spelthorne,http://www.spelthorne.gov.uk,-0.50335000000000,TW18 4LY,2008-06-04,fhrs_exempt_en-GB,Exempt,,FHRS,
258493,Briar Road,Shepperton,,,Saxon County Primary School,School/college/university,7845,0,,277961,5,,51.39853100000000,C32HD5BRIA/1,311,environmental.health.commercial@spelthorne.gov.uk,Spelthorne,http://www.spelthorne.gov.uk,-0.46322800000000,TW17 0JB,2013-10-09,fhrs_5_en-GB,5,,FHRS,5
258494,Staines Congregational Church,Stainash Crescent,Staines-upon-Thames,Surrey,Scallywags,Hospitals/Childcare/Caring Premises,5,5,,277967,5,,51.42983200000000,D27HD1STAI/1,311,environmental.health.commercial@spelthorne.gov.uk,Spelthorne,http://www.spelthorne.gov.uk,-0.49427200000000,TW18 1AY,2010-04-20,fhrs_5_en-GB,5,,FHRS,5
258495,121 High Street,Shepperton,Surrey,,School Of Spice,Restaurant/Cafe/Canteen,1,5,,277874,5,,51.39235300000000,C05HD5121H/1,311,environmental.health.commercial@spelthorne.gov.uk,Spelthorne,http://www.spelthorne.gov.uk,-0.44953600000000,TW17 9BL,2013-03-28,fhrs_4_en-GB,4,,FHRS,10
258496,,,,,Scrummy & Delicious,Other catering premises,7841,0,,667588,0,,,14/00057/COMM,311,environmental.health.commercial@spelthorne.gov.uk,Spelthorne,http://www.spelthorne.gov.uk,,,2014-06-04,fhrs_5_en-GB,5,,FHRS,0
258497,Squires Garden Centre,Halliford Road,Shepperton,,Season's Cafe,Other catering premises,7841,0,,277732,0,,51.40007900000000,10/00144/COMM,311,environmental.health.commercial@spelthorne.gov.uk,Spelthorne,http://www.spelthorne.gov.uk,-0.43075900000000,TW17 8RU,2013-05-21,fhrs_5_en-GB,5,,FHRS,5
258498,Select,5 New Parade,Church Road,Ashford,Select News,Retailers - other,4613,,,278112,,,51.43445300000000,R21GD35NEW/1,311,environmental.health.commercial@spelthorne.gov.uk,Spelthorne,http://www.spelthorne.gov.uk,-0.46580700000000,TW15 2UF,2004-09-01,fhrs_exempt_en-GB,Exempt,,FHRS,
258499,The Vineries Nurseries,Spout Lane,Stanwell Moor,,Serenata Commerce Ltd,Distributors/Transporters,7,0,,667583,0,,,14/00042/COMM,311,environmental.health.commercial@spelthorne.gov.uk,Spelthorne,http://www.spelthorne.gov.uk,,,2014-05-21,fhrs_5_en-GB,5,,FHRS,5
258500,12 Station Road,Ashford,,,Sete 7 Colinas Fine Patisserie,Retailers - other,4613,5,,667585,0,,51.43547000000000,14/00049/COMM,311,environmental.health.commercial@spelthorne.gov.uk,Spelthorne,http://www.spelthorne.gov.uk,-0.46655000000000,TW15 2UP,2014-05-19,fhrs_5_en-GB,5,,FHRS,0
258501,141 - 147 High Street,Staines-upon-Thames,,,Shanghai Restaurant,Restaurant/Cafe/Canteen,1,10,,277564,10,,51.43496300000000,06/00059/COMM,311,environmental.health.commercial@spelthorne.gov.uk,Spelthorne,http://www.spelthorne.gov.uk,-0.50670600000000,TW18 4PA,2014-08-19,fhrs_3_en-GB,3,,FHRS,10
258502,Shapla Indian Cuisine Restaurant,Russell Road,Shepperton,,Shapla Indian Cuisine Ltd,Restaurant/Cafe/Canteen,1,10,,277581,5,,51.39079700000000,07/00074/COMM,311,environmental.health.commercial@spelthorne.gov.uk,Spelthorne,http://www.spelthorne.gov.uk,-0.44885600000000,TW17 9HQ,2014-09-26,fhrs_4_en-GB,4,,FHRS,5
258503,7 Church Parade,Church Road,Ashford,,Shappi Of Ashford,Restaurant/Cafe/Canteen,1,0,,277863,0,,51.43285700000000,C05HD37-8C/1,311,environmental.health.commercial@spelthorne.gov.uk,Spelthorne,http://www.spelthorne.gov.uk,-0.46272400000000,TW15 2TX,2013-10-01,fhrs_5_en-GB,5,,FHRS,5
258504,135 Vicarage Road,Sunbury On Thames,,,Shappi Tandoori,Restaurant/Cafe/Canteen,1,5,,277508,10,,51.42368700000000,04/00012/COMM,311,environmental.health.commercial@spelthorne.gov.uk,Spelthorne,http://www.spelthorne.gov.uk,-0.41956500000000,TW16 7QB,2014-07-30,fhrs_4_en-GB,4,,FHRS,5
258505,,,,,Sharon Crowley,Hospitals/Childcare/Caring Premises,5,,,277733,,,,10/00145/COMM,311,environmental.health.commercial@spelthorne.gov.uk,Spelthorne,http://www.spelthorne.gov.uk,,,2011-01-27,fhrs_exempt_en-GB,Exempt,,FHRS,
258506,55 Wheatsheaf Lane,Staines-upon-Thames,Surrey,,Sheaflane Food & Wine,Retailers - other,4613,5,,277606,0,,51.42080000000000,08/00051/COMM,311,environmental.health.commercial@spelthorne.gov.uk,Spelthorne,http://www.spelthorne.gov.uk,-0.50452100000000,TW18 2PG,2014-02-02,fhrs_5_en-GB,5,,FHRS,5
258507,Petrol Filling Station,Fordbridge Road,Ashford,,Shell Ashford Manor,Retailers - other,4613,5,,499840,5,,51.42814500000000,12/00129/COMM,311,environmental.health.commercial@spelthorne.gov.uk,Spelthorne,http://www.spelthorne.gov.uk,-0.46958600000000,TW15 3RX,2013-01-09,fhrs_5_en-GB,5,,FHRS,5
258508,Open Field West Of Nutty Lane And S,New Road,Shepperton,,Shepperton Car Boot-Fruit & Vegetable Stall,Retailers - other,4613,0,,277653,0,,,09/00156/COMM,311,environmental.health.commercial@spelthorne.gov.uk,Spelthorne,http://www.spelthorne.gov.uk,,,2009-08-15,fhrs_5_en-GB,5,,FHRS,0
258509,Open Field West Of Nutty Lane And S,New Road,Shepperton,,Shepperton Car Boot-Ice Cream Event,Mobile caterer,7846,5,,277651,5,,,09/00154/COMM,311,environmental.health.commercial@spelthorne.gov.uk,Spelthorne,http://www.spelthorne.gov.uk,,,2013-05-18,fhrs_5_en-GB,5,,FHRS,5
258510,Open Field West Of Nutty Lane And S,New Road,Shepperton,,Shepperton Car Boot-Traditional Sweets,Mobile caterer,7846,5,,277652,5,,,09/00155/COMM,311,environmental.health.commercial@spelthorne.gov.uk,Spelthorne,http://www.spelthorne.gov.uk,,,2009-08-15,fhrs_5_en-GB,5,,FHRS,5
258511,Cricket Club,Manor Park,Russell Road,Shepperton,Shepperton Cricket Club,Pub/bar/nightclub,7843,10,,277767,5,,51.38923400000000,11/00063/COMM,311,environmental.health.commercial@spelthorne.gov.uk,Spelthorne,http://www.spelthorne.gov.uk,-0.45232900000000,TW17 9JS,2011-06-27,fhrs_3_en-GB,3,,FHRS,10
258512,235 Laleham Road,Shepperton,Surrey,,Shepperton News & Wine,Retailers - other,4613,10,,278117,0,,51.40067600000000,R21GD5235L/1,311,environmental.health.commercial@spelthorne.gov.uk,Spelthorne,http://www.spelthorne.gov.uk,-0.46016600000000,TW17 0DZ,2013-03-07,fhrs_4_en-GB,4,,FHRS,5
258513,135 Green Lane,Shepperton,Surrey,,Shepperton Off Licence Ltd,Retailers - other,4613,10,,278083,5,,51.39705900000000,R11GD5135G/1,311,environmental.health.commercial@spelthorne.gov.uk,Spelthorne,http://www.spelthorne.gov.uk,-0.43691400000000,TW17 8DY,2013-11-18,fhrs_3_en-GB,3,,FHRS,10
258514,Scout Hall And Premises,Glebeland Gardens,Shepperton,Surrey,Shepperton Playgroup,Hospitals/Childcare/Caring Premises,5,0,,278171,5,,51.39197700000000,V13HD5GLEB/1,311,environmental.health.commercial@spelthorne.gov.uk,Spelthorne,http://www.spelthorne.gov.uk,-0.44691800000000,TW17 9DH,2004-09-22,fhrs_5_en-GB,5,,FHRS,5
258515,1a Station Approach,Shepperton,Middx,,Shepperton Sports & Soc.,Pub/bar/nightclub,7843,,,277852,,,51.39633300000000,C04HD51AST/1,311,environmental.health.commercial@spelthorne.gov.uk,Spelthorne,http://www.spelthorne.gov.uk,-0.44721700000000,TW17 8AR,2014-11-18,fhrs_exempt_en-GB,Exempt,,FHRS,
258516,High Street,Shepperton,,,Shepperton Village Hall,Other catering premises,7841,,,277567,,,51.39312400000000,07/00010/COMM,311,environmental.health.commercial@spelthorne.gov.uk,Spelthorne,http://www.spelthorne.gov.uk,-0.44866200000000,TW17 9AU,2013-07-11,fhrs_exempt_en-GB,Exempt,,FHRS,
258517,Youth Centre,69 Shepperton Court Drive,Shepperton,Surrey,Shepperton Youth Centre,Restaurant/Cafe/Canteen,1,5,,277995,5,,51.39641200000000,E17HD5SHEP/1,311,environmental.health.commercial@spelthorne.gov.uk,Spelthorne,http://www.spelthorne.gov.uk,-0.45316500000000,TW17 8EJ,2002-08-28,fhrs_5_en-GB,5,,FHRS,5
258518,Unit 2,Sunbury Cross Centre,Sunbury On Thames,,Shop N Go,Retailers - other,4613,10,,405835,5,,51.41888000000000,12/00020/COMM,311,environmental.health.commercial@spelthorne.gov.uk,Spelthorne,http://www.spelthorne.gov.uk,-0.42119800000000,TW16 7AZ,2015-01-20,fhrs_4_en-GB,4,,FHRS,5
258519,55B Church Street,Staines-upon-Thames,,,Simply Jamus,Other catering premises,7841,10,,690072,10,,51.43421100000000,13/00070/COMM,311,environmental.health.commercial@spelthorne.gov.uk,Spelthorne,http://www.spelthorne.gov.uk,-0.51474400000000,TW18 4EN,2015-01-08,fhrs_3_en-GB,3,,FHRS,10
258520,Sunbury Sports Association,Lower Hampton Road,Sunbury On Thames,Surrey,Simply The Best Caterers,Restaurant/Cafe/Canteen,1,5,,277980,5,,51.41085100000000,E05HD2LOWE/1,311,environmental.health.commercial@spelthorne.gov.uk,Spelthorne,http://www.spelthorne.gov.uk,-0.39283100000000,TW16 5PS,2014-01-28,fhrs_5_en-GB,5,,FHRS,0
258521,5 Avenue Parade,The Avenue,Sunbury On Thames,Surrey,Skinners Newsagents,Retailers - other,4613,,,278107,,,51.40702000000000,R21GD25AVE/1,311,environmental.health.commercial@spelthorne.gov.uk,Spelthorne,http://www.spelthorne.gov.uk,-0.40602100000000,TW16 5HS,2012-03-06,fhrs_exempt_en-GB,Exempt,,FHRS,
258522,The Slug And Lettuce,Units 3 And 4,Thames Edge Court,Clarence Street,Slug & Lettuce,Pub/bar/nightclub,7843,5,,277869,5,,51.43364800000000,C05HD4CLAR/1,311,environmental.health.commercial@spelthorne.gov.uk,Spelthorne,http://www.spelthorne.gov.uk,-0.51574000000000,TW18 4BU,2014-05-06,fhrs_4_en-GB,4,,FHRS,10
258523,0 Grays Lane,Ashford,Surrey,,Smoothie Bus,Mobile caterer,7846,5,,277602,5,,51.43565800000000,08/00034/COMM,311,environmental.health.commercial@spelthorne.gov.uk,Spelthorne,http://www.spelthorne.gov.uk,-0.45338100000000,,2008-04-30,fhrs_5_en-GB,5,,FHRS,5
258524,,,,,Snack In The Mouth,Mobile caterer,7846,5,,277546,0,,,05/00091/COMM,311,environmental.health.commercial@spelthorne.gov.uk,Spelthorne,http://www.spelthorne.gov.uk,,,2014-04-07,fhrs_5_en-GB,5,,FHRS,0
258525,,,,,Snacks Burger Van,Mobile caterer,7846,5,,277554,0,,,06/00033/COMM,311,environmental.health.commercial@spelthorne.gov.uk,Spelthorne,http://www.spelthorne.gov.uk,,,2013-06-24,fhrs_5_en-GB,5,,FHRS,0
258526,St James School,Church Road,Ashford,,Sodexho At St James School,School/college/university,7845,0,,277667,0,,51.43855000000000,09/00188/COMM,311,environmental.health.commercial@spelthorne.gov.uk,Spelthorne,http://www.spelthorne.gov.uk,-0.46827400000000,TW15 3DZ,2014-04-29,fhrs_5_en-GB,5,,FHRS,0
258527,Soiree Restaurant Limited,Unit 5,Thames Edge Court,Clarence Street,Soiree Restaurants Ltd,Restaurant/Cafe/Canteen,1,10,,277754,0,,51.43364800000000,11/00039/COMM,311,environmental.health.commercial@spelthorne.gov.uk,Spelthorne,http://www.spelthorne.gov.uk,-0.51574000000000,TW18 4BU,2013-10-31,fhrs_4_en-GB,4,,FHRS,5
258528,,,,,Speciality Cakes 4 U,Mobile caterer,7846,5,,352911,0,,,12/00016/COMM,311,environmental.health.commercial@spelthorne.gov.uk,Spelthorne,http://www.spelthorne.gov.uk,,,2012-04-27,fhrs_5_en-GB,5,,FHRS,0
258529,Feltham Hill Road,Ashford,Middx,,Spelthorne County Junior,School/college/university,7845,0,,278159,0,,51.42614800000000,V06HD3FELT/1,311,environmental.health.commercial@spelthorne.gov.uk,Spelthorne,http://www.spelthorne.gov.uk,-0.43615200000000,TW15 1LP,2013-09-25,fhrs_5_en-GB,5,,FHRS,0
258530,Spelthorne School Of Gymnastics,College Way,Ashford,,Spelthorne Gym Club,Restaurant/Cafe/Canteen,1,5,,277993,5,,51.43519900000000,E14HD3COLL/1,311,environmental.health.commercial@spelthorne.gov.uk,Spelthorne,http://www.spelthorne.gov.uk,-0.46230000000000,TW15 2XG,2014-03-31,fhrs_5_en-GB,5,,FHRS,0
258531,Spelthorne School,Feltham Hill Road,Ashford,,Spelthorne School (Infant Site),School/college/university,7845,0,,277953,0,,51.42614800000000,C32HD3CHER/1,311,environmental.health.commercial@spelthorne.gov.uk,Spelthorne,http://www.spelthorne.gov.uk,-0.43615200000000,TW15 1LP,2013-06-07,fhrs_5_en-GB,5,,FHRS,5
258532,Sports Ground,Staines Road West,Ashford,Surrey,Spelthorne Sports Club,Restaurant/Cafe/Canteen,1,0,,277982,0,,51.42369100000000,E05HD3296S/1,311,environmental.health.commercial@spelthorne.gov.uk,Spelthorne,http://www.spelthorne.gov.uk,-0.45158300000000,TW15 2AB,2011-12-16,fhrs_4_en-GB,4,,FHRS,10
258533,95 Clare Road,Stanwell,Staines-upon-Thames,,Spice Hut Stanwell,Restaurant/Cafe/Canteen,1,10,,728185,5,,51.45131700000000,14/00111/COMM,311,environmental.health.commercial@spelthorne.gov.uk,Spelthorne,http://www.spelthorne.gov.uk,-0.47642400000000,TW19 7QP,2014-12-19,fhrs_4_en-GB,4,,FHRS,5
258534,91 Watersplash Road,Shepperton,Surrey,,Splash Cottage,Hotel/bed & breakfast/guest house,7842,5,,278007,5,,51.40342200000000,H01HD591WA/1,311,environmental.health.commercial@spelthorne.gov.uk,Spelthorne,http://www.spelthorne.gov.uk,-0.45832000000000,TW17 0EE,2010-11-23,fhrs_5_en-GB,5,,FHRS,5
258535,Springfield Primary School,Nursery Road,Sunbury On Thames,,Springfield,School/college/university,7845,0,,277951,0,,51.41355000000000,C32HD2NURS/1,311,environmental.health.commercial@spelthorne.gov.uk,Spelthorne,http://www.spelthorne.gov.uk,-0.42470400000000,TW16 6LY,2014-05-08,fhrs_4_en-GB,4,,FHRS,10
258536,New Road,Shepperton,Surrey,,Springtime Nursery,School/college/university,7845,5,,277965,5,,51.40761300000000,C34XD5NEWS/1,311,environmental.health.commercial@spelthorne.gov.uk,Spelthorne,http://www.spelthorne.gov.uk,-0.45633900000000,TW17 0QQ,2014-12-17,fhrs_5_en-GB,5,,FHRS,5
258537,St James School,Church Road,Ashford,,St David's Enterprises Ltd At St James School,Other catering premises,7841,5,,690071,0,,51.43855000000000,12/00060/COMM,311,environmental.health.commercial@spelthorne.gov.uk,Spelthorne,http://www.spelthorne.gov.uk,-0.46827400000000,TW15 3DZ,2013-10-19,fhrs_5_en-GB,5,,FHRS,0
258538,Green Street,Sunbury On Thames,,,St Ignatius Roman Catholic Primary School,School/college/university,7845,10,,277949,5,,51.41480100000000,C32HD2GREE/1,311,environmental.health.commercial@spelthorne.gov.uk,Spelthorne,http://www.spelthorne.gov.uk,-0.41749900000000,TW16 6QG,2015-01-23,fhrs_3_en-GB,3,,FHRS,10
258539,St James School,Church Road,Ashford,,St James Schools @ St James Senior Boys' School,School/college/university,7845,0,,371863,0,,51.43855000000000,12/00059/COMM,311,environmental.health.commercial@spelthorne.gov.uk,Spelthorne,http://www.spelthorne.gov.uk,-0.46827400000000,TW15 3DZ,2014-04-29,fhrs_5_en-GB,5,,FHRS,0
258540,112 Clarendon Road,Ashford,Middx,,St Michaels Church,Other catering premises,7841,,,277972,,,51.43287200000000,E01HD3112C/1,311,environmental.health.commercial@spelthorne.gov.uk,Spelthorne,http://www.spelthorne.gov.uk,-0.46449300000000,TW15 2QD,2000-06-14,fhrs_exempt_en-GB,Exempt,,FHRS,
258541,Feltham Hill Road,Ashford,,,St Michaels Roman Catholic School,School/college/university,7845,0,,277954,0,,51.42994600000000,C32HD3FELT/1,311,environmental.health.commercial@spelthorne.gov.uk,Spelthorne,http://www.spelthorne.gov.uk,-0.45744100000000,TW15 2DQ,2015-01-26,fhrs_5_en-GB,5,,FHRS,5
258542,Church Square,Chertsey Road,Shepperton,Surrey,St Nicholas Church,Other catering premises,7841,,,277968,,,51.38777400000000,D27HD5CHUR/1,311,environmental.health.commercial@spelthorne.gov.uk,Spelthorne,http://www.spelthorne.gov.uk,-0.45551100000000,TW17 9LA,2011-07-25,fhrs_exempt_en-GB,Exempt,,FHRS,
258543,Manor Farm Avenue,Shepperton,Surrey,,St Nicholas Church Of England Primary School,School/college/university,7845,0,,277963,0,,51.39470200000000,C32HD5MANO/1,311,environmental.health.commercial@spelthorne.gov.uk,Spelthorne,http://www.spelthorne.gov.uk,-0.45037700000000,TW17 9AD,2013-09-24,fhrs_5_en-GB,5,,FHRS,0
258544,Staines And Laleham Hockey Club,Worple Road,Staines-upon-Thames,Surrey,Staines & Laleham Sports Assoc,Restaurant/Cafe/Canteen,1,5,,277985,5,,51.42002000000000,E05HD4WORP/1,311,environmental.health.commercial@spelthorne.gov.uk,Spelthorne,http://www.spelthorne.gov.uk,-0.49485300000000,TW18 1HR,2003-12-17,fhrs_4_en-GB,4,,FHRS,10
258545,Westbrook Road,Staines-upon-Thames,Surrey,,Staines And District Synagogue,Other catering premises,7841,,,277966,,,51.43151600000000,D27GD4WEST/1,311,environmental.health.commercial@spelthorne.gov.uk,Spelthorne,http://www.spelthorne.gov.uk,-0.50999700000000,TW18 4PR,2003-12-16,fhrs_exempt_en-GB,Exempt,,FHRS,
258546,Stainash Crescent,Staines-upon-Thames,Surrey,,Staines Congregational Church,Other catering premises,7841,10,,277630,0,,51.42983200000000,09/00058/COMM,311,environmental.health.commercial@spelthorne.gov.uk,Spelthorne,http://www.spelthorne.gov.uk,-0.49427200000000,TW18 1AY,2012-05-23,fhrs_4_en-GB,4,,FHRS,5
258547,Market Square,Staines-upon-Thames,,,Staines Conservative Club,Other catering premises,7841,10,,277851,5,,51.43331800000000,C04HD4MARK/1,311,environmental.health.commercial@spelthorne.gov.uk,Spelthorne,http://www.spelthorne.gov.uk,-0.51452800000000,TW18 4RH,2014-08-20,fhrs_4_en-GB,4,,FHRS,5
258548,Sixth Staines Scout Group,Woodbury Base,Burges Way,Staines-upon-Thames,Staines Day Nursery,Hospitals/Childcare/Caring Premises,5,5,,278169,0,,51.42903800000000,V13HD4BURG/1,311,environmental.health.commercial@spelthorne.gov.uk,Spelthorne,http://www.spelthorne.gov.uk,-0.50113100000000,TW18 1XD,2014-09-16,fhrs_5_en-GB,5,,FHRS,0
258549,Thames Street,Staines-upon-Thames,Middx,,Staines Methodist Church,Other catering premises,7841,,,277973,,,51.43304500000000,E01HD4THAM/1,311,environmental.health.commercial@spelthorne.gov.uk,Spelthorne,http://www.spelthorne.gov.uk,-0.51279600000000,TW18 4SD,2009-02-19,fhrs_exempt_en-GB,Exempt,,FHRS,
258550,Staines Preparatory School,3 Gresham Road,Staines-upon-Thames,,Staines Preparatory School Chartwells/Compass Group,School/college/university,7845,0,,571447,0,,51.43171500000000,12/00019/COMM,311,environmental.health.commercial@spelthorne.gov.uk,Spelthorne,http://www.spelthorne.gov.uk,-0.50018000000000,TW18 2BT,2015-01-14,fhrs_5_en-GB,5,,FHRS,0
258551,6 Laleham Road,Staines-upon-Thames,Middx,,Staines Riverside Club,Restaurant/Cafe/Canteen,1,5,,277850,5,,51.42882000000000,C04HD46LAL/1,311,environmental.health.commercial@spelthorne.gov.uk,Spelthorne,http://www.spelthorne.gov.uk,-0.50940900000000,TW18 2DX,2011-03-14,fhrs_4_en-GB,4,,FHRS,10
258552,93-101 London Road,Staines-upon-Thames,Surrey,,Staines Service Station,Retailers - other,4613,5,,278085,5,,51.43653500000000,R12GD193-1/1,311,environmental.health.commercial@spelthorne.gov.uk,Spelthorne,http://www.spelthorne.gov.uk,-0.50232400000000,TW18 4HN,2010-02-16,fhrs_5_en-GB,5,,FHRS,5
258553,Stanwell Cafe,81 Clare Road,Stanwell,Staines-upon-Thames,Stanwell  Popinn Cafe,Restaurant/Cafe/Canteen,1,20,,277614,15,,51.45136100000000,08/00093/COMM,311,environmental.health.commercial@spelthorne.gov.uk,Spelthorne,http://www.spelthorne.gov.uk,-0.47630800000000,TW19 7QP,2014-09-08,fhrs_1_en-GB,1,,FHRS,10
258554,Stanwell Recreation Ground,Oaks Road,Stanwell,Staines-upon-Thames,Stanwell Bowls Club,Other catering premises,7841,5,,277976,5,,,E05HD1OAKS/1,311,environmental.health.commercial@spelthorne.gov.uk,Spelthorne,http://www.spelthorne.gov.uk,,,2010-10-07,fhrs_5_en-GB,5,,FHRS,5
258555,Clare Road,Stanwell,Staines-upon-Thames,,Stanwell Fields Church Of England School,School/college/university,7845,0,,277530,0,,51.45452300000000,05/00017/COMM,311,environmental.health.commercial@spelthorne.gov.uk,Spelthorne,http://www.spelthorne.gov.uk,-0.47194200000000,TW19 7DB,2014-06-19,fhrs_5_en-GB,5,,FHRS,5
258556,Fish And Chips,51 Clare Road,Stanwell,Staines-upon-Thames,Stanwell Fish Chips,Restaurant/Cafe/Canteen,1,5,,480133,5,,51.45090700000000,12/00102/COMM,311,environmental.health.commercial@spelthorne.gov.uk,Spelthorne,http://www.spelthorne.gov.uk,-0.47663900000000,TW19 7QW,2015-01-20,fhrs_5_en-GB,5,,FHRS,5
258557,111 Clare Road,Stanwell,Surrey,,Stanwell Food & Wine,Retailers - other,4613,5,,277573,5,,51.45131700000000,07/00037/COMM,311,environmental.health.commercial@spelthorne.gov.uk,Spelthorne,http://www.spelthorne.gov.uk,-0.47642400000000,TW19 7QP,2008-10-30,fhrs_5_en-GB,5,,FHRS,5
258558,31 High Street,Stanwell,Surrey,,Stanwell Mini Market,Retailers - other,4613,10,,277615,5,,51.45774000000000,08/00094/COMM,311,environmental.health.commercial@spelthorne.gov.uk,Spelthorne,http://www.spelthorne.gov.uk,-0.47793800000000,TW19 7LJ,2015-01-06,fhrs_4_en-GB,4,,FHRS,5
258559,Vermeulens Garden Centre,Horton Road,Stanwell Moor,Staines-upon-Thames,Stanwell Moor Farm Shop And Cafe,Restaurant/Cafe/Canteen,1,0,,550760,5,,51.46002800000000,GG13/00068/COMM,311,environmental.health.commercial@spelthorne.gov.uk,Spelthorne,http://www.spelthorne.gov.uk,-0.49571100000000,TW19 6AE,2013-05-09,fhrs_5_en-GB,5,,FHRS,5
258560,183 Horton Road,"Stanwell, Staines-upon-Thames",Middx,,Stanwell Moor Post Office,Retailers - other,4613,,,278102,,,51.46182000000000,R21GD1183H/1,311,environmental.health.commercial@spelthorne.gov.uk,Spelthorne,http://www.spelthorne.gov.uk,-0.50151100000000,TW19 6AQ,2010-02-10,fhrs_exempt_en-GB,Exempt,,FHRS,
258561,High Street,Stanwell,Surrey,,Stanwell Village Hall,Other catering premises,7841,,,277903,,,51.45753800000000,C18HD1HIGH/1,311,environmental.health.commercial@spelthorne.gov.uk,Spelthorne,http://www.spelthorne.gov.uk,-0.48112600000000,TW19 7JR,2003-09-02,fhrs_exempt_en-GB,Exempt,,FHRS,
258562,68 High Street,Staines-upon-Thames,Surrey,,Starbucks,Restaurant/Cafe/Canteen,1,0,,277582,0,,51.43423300000000,07/00076/COMM,311,environmental.health.commercial@spelthorne.gov.uk,Spelthorne,http://www.spelthorne.gov.uk,-0.51146300000000,TW18 4DY,2013-12-09,fhrs_5_en-GB,5,,FHRS,5
258563,3 Station Approach,Shepperton,Surrey,,Station News & Off Licence,Retailers - other,4613,,,277537,,,51.39633300000000,05/00056/COMM,311,environmental.health.commercial@spelthorne.gov.uk,Spelthorne,http://www.spelthorne.gov.uk,-0.44721700000000,TW17 8AR,2012-01-04,fhrs_exempt_en-GB,Exempt,,FHRS,
258564,Shepperton Studios,"Studios Road, Shepperton",Middx,,Studios Stores & Supplies,Retailers - other,4613,,,278029,,,51.40756500000000,R02GD5SHEP/1,311,environmental.health.commercial@spelthorne.gov.uk,Spelthorne,http://www.spelthorne.gov.uk,-0.46360100000000,TW17 0QD,2002-04-17,fhrs_exempt_en-GB,Exempt,,FHRS,
258565,Shahin Tandoori,67 Thames Street,Sunbury On Thames,,Sublime Taste Sunbury Ltd,Restaurant/Cafe/Canteen,1,5,,550750,0,,51.40682800000000,12/00115/COMM,311,environmental.health.commercial@spelthorne.gov.uk,Spelthorne,http://www.spelthorne.gov.uk,-0.40440300000000,TW16 5QF,2013-05-21,fhrs_5_en-GB,5,,FHRS,5
258566,50 High Street,Staines-upon-Thames,,,Subway,Retailers - other,4613,5,,444624,0,,51.43423300000000,12/00077/COMM,311,environmental.health.commercial@spelthorne.gov.uk,Spelthorne,http://www.spelthorne.gov.uk,-0.51146300000000,TW18 4DY,2014-03-26,fhrs_5_en-GB,5,,FHRS,0
258567,9 Broadway,Kingston Road,Staines-upon-Thames,,Subway,Restaurant/Cafe/Canteen,1,5,,667574,0,,51.42857500000000,13/00117/COMM,311,environmental.health.commercial@spelthorne.gov.uk,Spelthorne,http://www.spelthorne.gov.uk,-0.49517600000000,TW18 1AT,2014-05-13,fhrs_5_en-GB,5,,FHRS,0
258568,Church Road,Ashford,Surrey,,Subway,Restaurant/Cafe/Canteen,1,5,,277600,0,,51.43471700000000,08/00030/COMM,311,environmental.health.commercial@spelthorne.gov.uk,Spelthorne,http://www.spelthorne.gov.uk,-0.46535200000000,TW15 2UT,2013-02-21,fhrs_5_en-GB,5,,FHRS,5
258569,Unit 17,Sunbury Cross Centre,Sunbury On Thames,,Subway,Takeaway/sandwich shop,7844,5,,277557,0,,51.41916800000000,06/00045/COMM,311,environmental.health.commercial@spelthorne.gov.uk,Spelthorne,http://www.spelthorne.gov.uk,-0.42124600000000,TW16 7AZ,2015-01-20,fhrs_5_en-GB,5,,FHRS,0
258570,,,,,Sugar & Spice And All Things Iced,Retailers - other,4613,5,,277713,5,,,10/00099/COMM,311,environmental.health.commercial@spelthorne.gov.uk,Spelthorne,http://www.spelthorne.gov.uk,,,2010-12-10,fhrs_5_en-GB,5,,FHRS,5
258571,121 Groveley Road,Sunbury On Thames,,,Sunbury Cafe,Restaurant/Cafe/Canteen,1,10,,277532,10,,51.42887900000000,05/00030/COMM,311,environmental.health.commercial@spelthorne.gov.uk,Spelthorne,http://www.spelthorne.gov.uk,-0.42180300000000,TW16 7JZ,2014-05-27,fhrs_4_en-GB,4,,FHRS,0
258572,Sunbury Takeaway Chinese Food,52 Nursery Road,Sunbury On Thames,,Sunbury Chinese Food,Takeaway/sandwich shop,7844,5,,277924,5,,51.41385600000000,C23HD252NU/1,311,environmental.health.commercial@spelthorne.gov.uk,Spelthorne,http://www.spelthorne.gov.uk,-0.42209000000000,TW16 6LG,2014-03-18,fhrs_5_en-GB,5,,FHRS,5
258573,Green Street,Sunbury On Thames,Surrey,,Sunbury Conservative Club,Other catering premises,7841,0,,277847,0,,51.40761300000000,C04HD2GREE/1,311,environmental.health.commercial@spelthorne.gov.uk,Spelthorne,http://www.spelthorne.gov.uk,-0.41457000000000,TW16 6RA,2013-04-15,fhrs_4_en-GB,4,,FHRS,10
258574,6 - 8 Peregrine Road,Sunbury On Thames,,,Sunbury Convenience Store,Retailers - other,4613,5,,550756,5,,51.41243400000000,13/00067/COMM,311,environmental.health.commercial@spelthorne.gov.uk,Spelthorne,http://www.spelthorne.gov.uk,-0.42737300000000,TW16 6JP,2013-04-17,fhrs_5_en-GB,5,,FHRS,5
258575,Sunbury Cross Ex Services Associati,Crossways,Sunbury On Thames,,Sunbury Ex-Servicemens Club,Other catering premises,7841,5,,277848,5,,51.41869200000000,C04HD2STAI/1,311,environmental.health.commercial@spelthorne.gov.uk,Spelthorne,http://www.spelthorne.gov.uk,-0.42196700000000,TW16 7BB,2011-10-19,fhrs_4_en-GB,4,,FHRS,10
258576,Sunbury Food And Wine,13 The Parade,Staines Road West,Sunbury On Thames,Sunbury Food & Wine,Retailers - other,4613,10,,278078,5,,51.41976700000000,R11GD213TH/2,311,environmental.health.commercial@spelthorne.gov.uk,Spelthorne,http://www.spelthorne.gov.uk,-0.42033300000000,TW16 7AB,2014-03-25,fhrs_4_en-GB,4,,FHRS,5
258577,Sunbury Golf Club,Charlton Lane,Shepperton,Surrey,Sunbury Golf Centre,Restaurant/Cafe/Canteen,1,5,,277996,5,,51.40449300000000,E21HD2CHAR/2,311,environmental.health.commercial@spelthorne.gov.uk,Spelthorne,http://www.spelthorne.gov.uk,-0.44074400000000,TW17 8QA,2014-01-07,fhrs_4_en-GB,4,,FHRS,10
258578,Nursery Road,Sunbury On Thames,Surrey,,Sunbury Leisure Centre,Restaurant/Cafe/Canteen,1,,,277988,,,51.41385600000000,E10HD2NURS/1,311,environmental.health.commercial@spelthorne.gov.uk,Spelthorne,http://www.spelthorne.gov.uk,-0.42209000000000,TW16 6LG,2005-04-26,fhrs_exempt_en-GB,Exempt,,FHRS,
258579,Sunbury Nursing Home,Thames Street,Sunbury On Thames,,Sunbury Nursing Homes,Hospitals/Childcare/Caring Premises,5,5,,278135,5,,51.40371100000000,T06HD2THAM/1,311,environmental.health.commercial@spelthorne.gov.uk,Spelthorne,http://www.spelthorne.gov.uk,-0.41332400000000,TW16 6AJ,2014-07-16,fhrs_5_en-GB,5,,FHRS,5
258580,Sunset Chemist,165 High Street,Staines-upon-Thames,Surrey,Sunset Pharmacy,Retailers - other,4613,,,278056,,,51.43496300000000,R09GD1165H/1,311,environmental.health.commercial@spelthorne.gov.uk,Spelthorne,http://www.spelthorne.gov.uk,-0.50670600000000,TW18 4PA,2008-12-11,fhrs_exempt_en-GB,Exempt,,FHRS,
258581,The Bungalow,Hawkedale County First School,Stratton Road,Sunbury On Thames,Sunshine Nursery,Hospitals/Childcare/Caring Premises,5,5,,277576,0,,51.41034100000000,07/00061/COMM,311,environmental.health.commercial@spelthorne.gov.uk,Spelthorne,http://www.spelthorne.gov.uk,-0.42083100000000,TW16 6PG,2014-11-12,fhrs_5_en-GB,5,,FHRS,0
258582,,,,,Super Whippy,Other catering premises,7841,10,,278003,0,,,H01GD339AS/1,311,environmental.health.commercial@spelthorne.gov.uk,Spelthorne,http://www.spelthorne.gov.uk,,,2014-06-19,fhrs_4_en-GB,4,,FHRS,0
258583,Superdrug,26 The Elmsleigh Centre,Staines-upon-Thames,Surrey,Superdrug Stores Plc,Retailers - other,4613,,,278068,,,51.43346100000000,R09GD425TH/1,311,environmental.health.commercial@spelthorne.gov.uk,Spelthorne,http://www.spelthorne.gov.uk,-0.50948800000000,TW18 4QB,2010-08-11,fhrs_exempt_en-GB,Exempt,,FHRS,
258584,,,,,Surrey Sugarworks,Other catering premises,7841,5,,277780,0,,,11/00089/COMM,311,environmental.health.commercial@spelthorne.gov.uk,Spelthorne,http://www.spelthorne.gov.uk,,,2012-02-08,fhrs_5_en-GB,5,,FHRS,0
258585,The Farm,Cranwell Grove,Shepperton,,Surrey Turkeys,Retailers - other,4613,5,,728187,5,,51.40294300000000,14/00115/COMM,311,environmental.health.commercial@spelthorne.gov.uk,Spelthorne,http://www.spelthorne.gov.uk,-0.46773800000000,TW17 0JR,2014-12-19,fhrs_5_en-GB,5,,FHRS,5
258586,1 Church Street,Staines-upon-Thames,,,Sushi Nara,Restaurant/Cafe/Canteen,1,10,,277674,5,,51.43375600000000,10/00010/COMM,311,environmental.health.commercial@spelthorne.gov.uk,Spelthorne,http://www.spelthorne.gov.uk,-0.51356400000000,TW18 4EL,2014-03-12,fhrs_4_en-GB,4,,FHRS,5
258587,Swans,4 Fir Tree Place,Church Road,Ashford,Swans Chinese Restaurant,Restaurant/Cafe/Canteen,1,20,,277862,15,,51.43244700000000,C05HD34FIR/1,311,environmental.health.commercial@spelthorne.gov.uk,Spelthorne,http://www.spelthorne.gov.uk,-0.46157300000000,TW15 2PH,2014-07-25,fhrs_1_en-GB,1,,FHRS,15
258588,Staines Town Football Club,Wheatsheaf Lane,Staines-upon-Thames,,Swans T-Bar,Mobile caterer,7846,10,,447589,10,,51.42105100000000,05/00024/COMM,311,environmental.health.commercial@spelthorne.gov.uk,Spelthorne,http://www.spelthorne.gov.uk,-0.50232700000000,TW18 2PD,2014-03-25,fhrs_4_en-GB,4,,FHRS,0
258589,,,,,Sweet Chariots,Mobile caterer,7846,0,,638687,0,,,14/00006/COMM,311,environmental.health.commercial@spelthorne.gov.uk,Spelthorne,http://www.spelthorne.gov.uk,,,2014-03-17,fhrs_5_en-GB,5,,FHRS,0
258590,14B Shepperton Road,Laleham,Staines-upon-Thames,,Sweet Inspirations,Retailers - other,4613,5,,278046,5,,51.40879100000000,R06GD414BS/1,311,environmental.health.commercial@spelthorne.gov.uk,Spelthorne,http://www.spelthorne.gov.uk,-0.49017500000000,TW18 1SD,2014-12-17,fhrs_5_en-GB,5,,FHRS,5
258591,,,,,Sweet Magic,Mobile caterer,7846,10,,277677,0,,,10/00017/COMM,311,environmental.health.commercial@spelthorne.gov.uk,Spelthorne,http://www.spelthorne.gov.uk,,,2010-05-12,fhrs_4_en-GB,4,,FHRS,5
258592,23 Feltham Road,Ashford,,,Sweet Revenge Cakery,Restaurant/Cafe/Canteen,1,5,,550751,5,,51.43282300000000,12/00126/COMM,311,environmental.health.commercial@spelthorne.gov.uk,Spelthorne,http://www.spelthorne.gov.uk,-0.45461200000000,TW15 1DQ,2013-05-07,fhrs_4_en-GB,4,,FHRS,10
258593,Kempton Park Racecourse,Staines Road East,Sunbury On Thames,Surrey,Sweet Temptations,Restaurant/Cafe/Canteen,1,0,,277523,0,,51.41490300000000,04/00080/COMM,311,environmental.health.commercial@spelthorne.gov.uk,Spelthorne,http://www.spelthorne.gov.uk,-0.40374800000000,TW16 5AF,2004-09-27,fhrs_5_en-GB,5,,FHRS,0
258594,Unit N1,Two Rivers Retail Park,Mustard Mill Road,Staines-upon-Thames,T K Maxx,Retailers - other,4613,,,690898,,,51.43720500000000,05/00050/COMM,311,environmental.health.commercial@spelthorne.gov.uk,Spelthorne,http://www.spelthorne.gov.uk,-0.51328000000000,TW18 4WA,2011-07-20,fhrs_exempt_en-GB,Exempt,,FHRS,
258595,179 Horton Road,Stanwell Moor,Staines-upon-Thames,Surrey,T5 Stores,Retailers - other,4613,5,,278030,5,,51.46182000000000,R03GD1179H/2,311,environmental.health.commercial@spelthorne.gov.uk,Spelthorne,http://www.spelthorne.gov.uk,-0.50151100000000,TW19 6AQ,2012-06-13,fhrs_5_en-GB,5,,FHRS,5
258596,15A Station Road,Ashford,,,Tamannas,Restaurant/Cafe/Canteen,1,5,,277860,5,,51.43547000000000,C05HD315AS/1,311,environmental.health.commercial@spelthorne.gov.uk,Spelthorne,http://www.spelthorne.gov.uk,-0.46655000000000,TW15 2UP,2014-07-15,fhrs_4_en-GB,4,,FHRS,10
258597,1B Woodthorpe Road,Ashford,,,Tasty Bite,Other catering premises,7841,10,,586876,5,,51.43599600000000,13/00106/COMM,311,environmental.health.commercial@spelthorne.gov.uk,Spelthorne,http://www.spelthorne.gov.uk,-0.46752500000000,TW15 2RL,2013-09-04,fhrs_4_en-GB,4,,FHRS,5
258598,2 Church Road,Ashford,Surrey,,Tasty House,Restaurant/Cafe/Canteen,1,0,,277518,0,,51.43471700000000,04/00059/COMM,311,environmental.health.commercial@spelthorne.gov.uk,Spelthorne,http://www.spelthorne.gov.uk,-0.46535200000000,TW15 2UT,2013-01-17,fhrs_5_en-GB,5,,FHRS,5
258599,Kempton Market,Kempton Park Racecourse,Staines Road East,Sunbury On Thames,Taylors Of London,Mobile caterer,7846,,,277798,,,51.41490300000000,12/00041/COMM,311,environmental.health.commercial@spelthorne.gov.uk,Spelthorne,http://www.spelthorne.gov.uk,-0.40374800000000,TW16 5AF,2013-11-07,fhrs_exempt_en-GB,Exempt,,FHRS,
258600,Kempton Park,Staines Road East,Sunbury On Thames,Surrey,Terry & Bernies,Retailers - other,4613,10,,278099,5,,51.41928400000000,R17GD2KEMP/1,311,environmental.health.commercial@spelthorne.gov.uk,Spelthorne,http://www.spelthorne.gov.uk,-0.40851400000000,TW16 5AE,2013-11-07,fhrs_3_en-GB,3,,FHRS,10
258601,172 Feltham Hill Road,Ashford,,,Terry & Bernie's Meat Market,Retailers - other,4613,20,,278040,10,,51.42750300000000,R04GD3172F/1,311,environmental.health.commercial@spelthorne.gov.uk,Spelthorne,http://www.spelthorne.gov.uk,-0.44738300000000,TW15 1LF,2014-07-17,fhrs_1_en-GB,1,,FHRS,20
258602,Tesco Supermarket,Town Lane,Stanwell,Staines-upon-Thames,Tesco - Customer Cafe - Elior UK,Restaurant/Cafe/Canteen,1,0,,708553,0,,51.44564900000000,14/00094/COMM,311,environmental.health.commercial@spelthorne.gov.uk,Spelthorne,http://www.spelthorne.gov.uk,-0.47271300000000,TW19 7PZ,2014-10-15,fhrs_5_en-GB,5,,FHRS,5
258603,Tesco Supermarket,Town Lane,Stanwell,Staines-upon-Thames,Tesco - Staff Restaurant,Restaurant/Cafe/Canteen,1,0,,732563,0,,51.44564900000000,14/00093/COMM,311,environmental.health.commercial@spelthorne.gov.uk,Spelthorne,http://www.spelthorne.gov.uk,-0.47271300000000,TW19 7PZ,2015-01-19,fhrs_5_en-GB,5,,FHRS,5
258604,Church Road,Ashford,Surrey,,Tesco Express,Retailers - supermarkets/hypermarkets,7840,5,,277574,0,,51.43471700000000,07/00039/COMM,311,environmental.health.commercial@spelthorne.gov.uk,Spelthorne,http://www.spelthorne.gov.uk,-0.46535200000000,TW15 2UT,2015-01-09,fhrs_5_en-GB,5,,FHRS,5
258605,Tesco,337 Staines Road West,Ashford,,Tesco Express,Retailers - supermarkets/hypermarkets,7840,0,,638684,0,,51.42243700000000,13/00122/COMM,311,environmental.health.commercial@spelthorne.gov.uk,Spelthorne,http://www.spelthorne.gov.uk,-0.44171500000000,TW15 1RP,2014-02-20,fhrs_5_en-GB,5,,FHRS,0
258606,Tesco,Town Lane,Stanwell,Surrey,Tesco Extra,Retailers - supermarkets/hypermarkets,7840,5,,278031,0,,51.44564900000000,R03GD1TOWN/1,311,environmental.health.commercial@spelthorne.gov.uk,Spelthorne,http://www.spelthorne.gov.uk,-0.47271300000000,TW19 7PZ,2014-09-23,fhrs_5_en-GB,5,,FHRS,5
258607,Tesco Superstore,Escot Road,Sunbury On Thames,Surrey,Tesco Extra,Retailers - supermarkets/hypermarkets,7840,0,,278033,0,,51.41869200000000,R03GD2ESCO/1,311,environmental.health.commercial@spelthorne.gov.uk,Spelthorne,http://www.spelthorne.gov.uk,-0.42196700000000,TW16 7BB,2013-11-12,fhrs_4_en-GB,4,,FHRS,10
258608,Unit N2,Two Rivers Retail Park,Mustard Mill Road,Staines-upon-Thames,Tesco Homeplus,Retailers - other,4613,10,,277563,5,,51.43720500000000,06/00058/COMM,311,environmental.health.commercial@spelthorne.gov.uk,Spelthorne,http://www.spelthorne.gov.uk,-0.51328000000000,TW18 4WA,2012-12-20,fhrs_4_en-GB,4,,FHRS,0
258609,Thames Court,Towpath,Shepperton,,Thames Court Hotel,Pub/bar/nightclub,7843,5,,277844,5,,51.38240700000000,C02HD5TOWP/1,311,environmental.health.commercial@spelthorne.gov.uk,Spelthorne,http://www.spelthorne.gov.uk,-0.45973000000000,TW17 9LJ,2013-10-23,fhrs_4_en-GB,4,,FHRS,10
258610,Thames Food And Wine,27 The Parade,Staines Road West,Sunbury On Thames,Thames Food & Wine,Retailers - other,4613,10,,277657,10,,51.41976700000000,09/00163/COMM,311,environmental.health.commercial@spelthorne.gov.uk,Spelthorne,http://www.spelthorne.gov.uk,-0.42033300000000,TW16 7AB,2013-06-18,fhrs_3_en-GB,3,,FHRS,10
258611,,,,,Thames View Caterers,Other catering premises,7841,5,,277670,0,,,0C10HD45LAL/1,311,environmental.health.commercial@spelthorne.gov.uk,Spelthorne,http://www.spelthorne.gov.uk,,,2014-01-30,fhrs_5_en-GB,5,,FHRS,0
258612,Wyatt Road,Staines-upon-Thames,Surrey,,Thameside Youth Club,Restaurant/Cafe/Canteen,1,,,277994,,,51.42902500000000,E17HD4WYAT/1,311,environmental.health.commercial@spelthorne.gov.uk,Spelthorne,http://www.spelthorne.gov.uk,-0.50429600000000,TW18 2AY,2001-09-11,fhrs_exempt_en-GB,Exempt,,FHRS,
258613,The Anchor Public House,Horton Road,Stanwell Moor,Staines-upon-Thames,The Anchor,Pub/bar/nightclub,7843,5,,277812,5,,51.46182000000000,C01HD1HORT/1,311,environmental.health.commercial@spelthorne.gov.uk,Spelthorne,http://www.spelthorne.gov.uk,-0.50151100000000,TW19 6AQ,2013-06-19,fhrs_5_en-GB,5,,FHRS,5
258614,Ancient Raj,157 High Street,Staines-upon-Thames,,The Ancient Raj,Restaurant/Cafe/Canteen,1,10,,610777,5,,51.43496300000000,13/00040/COMM,311,environmental.health.commercial@spelthorne.gov.uk,Spelthorne,http://www.spelthorne.gov.uk,-0.50670600000000,TW18 4PA,2013-01-30,fhrs_3_en-GB,3,,FHRS,10
258615,Convent Road,Ashford,Surrey,,The Ash Tree,Pub/bar/nightclub,7843,5,,277830,5,,51.42918700000000,C01HD3CONV/1,311,environmental.health.commercial@spelthorne.gov.uk,Spelthorne,http://www.spelthorne.gov.uk,-0.45306600000000,TW15 2HW,2015-01-14,fhrs_5_en-GB,5,,FHRS,5
258616,The Bakery,15 High Street,Shepperton,,The Bakery Shop Ltd,Retailers - other,4613,30,,277569,20,,51.39547800000000,07/00021/COMM,311,environmental.health.commercial@spelthorne.gov.uk,Spelthorne,http://www.spelthorne.gov.uk,-0.44921500000000,TW17 9AJ,2014-09-23,fhrs_0_en-GB,0,,FHRS,15
258617,The Barley Mow Public House,67 Watersplash Road,Shepperton,,The Barley Mow,Pub/bar/nightclub,7843,5,,277840,5,,51.40342200000000,C01HD567WA/1,311,environmental.health.commercial@spelthorne.gov.uk,Spelthorne,http://www.spelthorne.gov.uk,-0.45832000000000,TW17 0EE,2014-12-17,fhrs_5_en-GB,5,,FHRS,5
258618,,,,,The Beaulicious Bakery,Other catering premises,7841,5,,555262,5,,,13/00057/COMM,311,environmental.health.commercial@spelthorne.gov.uk,Spelthorne,http://www.spelthorne.gov.uk,,,2013-05-30,fhrs_5_en-GB,5,,FHRS,5
258619,35 Edgell Road,Staines-upon-Thames,Middx,,The Beehive,Pub/bar/nightclub,7843,5,,277834,5,,51.42922000000000,C01HD435ED/1,311,environmental.health.commercial@spelthorne.gov.uk,Spelthorne,http://www.spelthorne.gov.uk,-0.50689300000000,TW18 2EP,2015-01-08,fhrs_5_en-GB,5,,FHRS,5
258620,85 Old Charlton Road,Shepperton,,,The Bell Inn,Pub/bar/nightclub,7843,10,,277841,5,,51.40062600000000,C01HD585OL/1,311,environmental.health.commercial@spelthorne.gov.uk,Spelthorne,http://www.spelthorne.gov.uk,-0.44751700000000,TW17 8BT,2015-01-26,fhrs_3_en-GB,3,,FHRS,10
258621,124 Church Street,Staines-upon-Thames,,,The Bells Public House,Pub/bar/nightclub,7843,10,,277831,10,,51.43526900000000,C01HD4124C/1,311,environmental.health.commercial@spelthorne.gov.uk,Spelthorne,http://www.spelthorne.gov.uk,-0.51734200000000,TW18 4YA,2014-01-14,fhrs_3_en-GB,3,,FHRS,10
258622,The Bugle Returns Public House,173 Upper Halliford Road,Shepperton,,The Bugle Returns,Pub/bar/nightclub,7843,20,,277818,15,,51.40679100000000,C01HD2173U/1,311,environmental.health.commercial@spelthorne.gov.uk,Spelthorne,http://www.spelthorne.gov.uk,-0.43236900000000,TW17 8SN,2013-12-23,fhrs_0_en-GB,0,,FHRS,20
258623,The Bull Public House,152 Laleham Road,Shepperton,,The Bull Inn,Pub/bar/nightclub,7843,10,,277839,5,,51.40043500000000,C01HD5152L/1,311,environmental.health.commercial@spelthorne.gov.uk,Spelthorne,http://www.spelthorne.gov.uk,-0.46095100000000,TW17 0DB,2014-08-12,fhrs_4_en-GB,4,,FHRS,5
258624,,,,,The Cake Charmer,Retailers - other,4613,5,,620857,5,,,13/00030/COMM,311,environmental.health.commercial@spelthorne.gov.uk,Spelthorne,http://www.spelthorne.gov.uk,,,2013-12-09,fhrs_5_en-GB,5,,FHRS,0
258625,16 Fordbridge Road,Ashford,,,The Cedars,Hospitals/Childcare/Caring Premises,5,0,,278139,0,,51.43127900000000,T07HD316FO/1,311,environmental.health.commercial@spelthorne.gov.uk,Spelthorne,http://www.spelthorne.gov.uk,-0.46302200000000,TW15 2SG,2014-09-23,fhrs_5_en-GB,5,,FHRS,5
258626,Coffee Shop,Stanwell Health And Community Centr,Hadrian Way,Stanwell,The Coffee Shop,Restaurant/Cafe/Canteen,1,5,,277791,5,,51.45223700000000,12/00009/COMM,311,environmental.health.commercial@spelthorne.gov.uk,Spelthorne,http://www.spelthorne.gov.uk,-0.47656600000000,TW19 7HE,2013-10-01,fhrs_5_en-GB,5,,FHRS,0
258627,73 Feltham Road,Ashford,Surrey,,The Corner Shop,Retailers - other,4613,,,278021,,,51.43279300000000,R02GD373FE/1,311,environmental.health.commercial@spelthorne.gov.uk,Spelthorne,http://www.spelthorne.gov.uk,-0.45234000000000,TW15 1DB,2004-03-09,fhrs_exempt_en-GB,Exempt,,FHRS,
258628,,,,,The Cupcake Princess,Retailers - other,4613,5,,277710,5,,,10/00086/COMM,311,environmental.health.commercial@spelthorne.gov.uk,Spelthorne,http://www.spelthorne.gov.uk,,,2011-01-17,fhrs_5_en-GB,5,,FHRS,0
258629,District Arms Public House,180 Woodthorpe Road,Ashford,Surrey,The District Arms,Pub/bar/nightclub,7843,5,,277825,5,,51.43152500000000,C01HD3180W/2,311,environmental.health.commercial@spelthorne.gov.uk,Spelthorne,http://www.spelthorne.gov.uk,-0.47846400000000,TW15 3LQ,2015-01-08,fhrs_5_en-GB,5,,FHRS,5
258630,The Broadway,Laleham,Staines-upon-Thames,,The Feathers,Pub/bar/nightclub,7843,10,,277672,10,,51.41016100000000,10/00004/COMM,311,environmental.health.commercial@spelthorne.gov.uk,Spelthorne,http://www.spelthorne.gov.uk,-0.48696600000000,TW18 1RZ,2013-10-24,fhrs_3_en-GB,3,,FHRS,10
258631,Thames Street,Sunbury On Thames,,,The Flower Pot,Pub/bar/nightclub,7843,5,,277695,5,,51.40423400000000,10/00052/COMM,311,environmental.health.commercial@spelthorne.gov.uk,Spelthorne,http://www.spelthorne.gov.uk,-0.41204100000000,TW16 6AA,2014-04-23,fhrs_5_en-GB,5,,FHRS,5
258632,Ashford Park Primary School,Station Crescent,Ashford,Surrey,The Gap Club,Hospitals/Childcare/Caring Premises,5,5,,277603,5,,51.43742200000000,08/00036/COMM,311,environmental.health.commercial@spelthorne.gov.uk,Spelthorne,http://www.spelthorne.gov.uk,-0.47969200000000,TW15 3HN,2013-05-03,fhrs_5_en-GB,5,,FHRS,0
258633,Shepperton Studios,Studios Road,Shepperton,,The Genuine Dining Company,Restaurant/Cafe/Canteen,1,5,,610779,5,,51.40756500000000,13/00080/COMM,311,environmental.health.commercial@spelthorne.gov.uk,Spelthorne,http://www.spelthorne.gov.uk,-0.46360100000000,TW17 0QD,2013-10-16,fhrs_5_en-GB,5,,FHRS,5
258634,The George Public House,2 - 8 High Street,Staines-upon-Thames,Surrey,The George,Pub/bar/nightclub,7843,5,,277833,5,,51.43383700000000,C01HD42-8H/1,311,environmental.health.commercial@spelthorne.gov.uk,Spelthorne,http://www.spelthorne.gov.uk,-0.51287100000000,TW18 4EE,2013-02-05,fhrs_5_en-GB,5,,FHRS,5
258635,The Goat Public House,47 Upper Halliford Road,Shepperton,,The Goat,Pub/bar/nightclub,7843,5,,277821,5,,51.40068600000000,C01HD247UP/1,311,environmental.health.commercial@spelthorne.gov.uk,Spelthorne,http://www.spelthorne.gov.uk,-0.43239100000000,TW17 8RX,2013-11-12,fhrs_4_en-GB,4,,FHRS,10
258636,Grey Horse Public House,63 Staines Road East,Sunbury On Thames,Surrey,The Grey Horse,Pub/bar/nightclub,7843,0,,277621,5,,51.41875200000000,08/00109/COMM,311,environmental.health.commercial@spelthorne.gov.uk,Spelthorne,http://www.spelthorne.gov.uk,-0.41441400000000,TW16 5AA,2013-02-28,fhrs_4_en-GB,4,,FHRS,10
258637,The Grizzly Bear Public House,101 Nursery Road,Sunbury On Thames,,The Grizzly Bear,Pub/bar/nightclub,7843,5,,277815,5,,51.41316600000000,C01HD2101N/1,311,environmental.health.commercial@spelthorne.gov.uk,Spelthorne,http://www.spelthorne.gov.uk,-0.42560800000000,TW16 6LU,2011-10-19,fhrs_5_en-GB,5,,FHRS,5
258638,The Bulldog Public House,564 London Road,Ashford,Surrey,The Harvester,Restaurant/Cafe/Canteen,1,0,,277865,0,,51.44191300000000,C05HD3LOND/1,311,environmental.health.commercial@spelthorne.gov.uk,Spelthorne,http://www.spelthorne.gov.uk,-0.47653600000000,TW15 3AE,2013-03-20,fhrs_4_en-GB,4,,FHRS,10
258639,23 Edinburgh Drive,Laleham,Surrey,,The Hive Pharmacy,Retailers - other,4613,,,278067,,,51.42469100000000,R09GD423ED/1,311,environmental.health.commercial@spelthorne.gov.uk,Spelthorne,http://www.spelthorne.gov.uk,-0.48267500000000,TW18 1PJ,2006-04-27,fhrs_exempt_en-GB,Exempt,,FHRS,
258640,14 Church Street,Staines-upon-Thames,,,The Hobgoblin,Pub/bar/nightclub,7843,10,,277832,10,,51.43402800000000,C01HD414-1/1,311,environmental.health.commercial@spelthorne.gov.uk,Spelthorne,http://www.spelthorne.gov.uk,-0.51446200000000,TW18 4EP,2012-03-16,fhrs_3_en-GB,3,,FHRS,5
258641,345 Staines Road West,Ashford,Middx,,The Jolly Baker,Retailers - other,4613,5,,278050,5,,51.42243700000000,R06JD3345S/1,311,environmental.health.commercial@spelthorne.gov.uk,Spelthorne,http://www.spelthorne.gov.uk,-0.44171500000000,TW15 1RP,2013-05-02,fhrs_5_en-GB,5,,FHRS,5
258642,7 Church Road,Ashford,,,The Jolly Baker,Retailers - other,4613,5,,278051,5,,51.43510500000000,R06JD37CHU/1,311,environmental.health.commercial@spelthorne.gov.uk,Spelthorne,http://www.spelthorne.gov.uk,-0.46610200000000,TW15 2UG,2012-10-17,fhrs_5_en-GB,5,,FHRS,5
258643,The Jubilee Public House,144 Staines Road East,Sunbury On Thames,,The Jubilee,Pub/bar/nightclub,7843,10,,277817,5,,51.41553200000000,C01HD2144S/1,311,environmental.health.commercial@spelthorne.gov.uk,Spelthorne,http://www.spelthorne.gov.uk,-0.40507800000000,TW16 5AY,2015-01-21,fhrs_4_en-GB,4,,FHRS,5
258644,,,,,The King Of Churros,Mobile caterer,7846,10,,732565,5,,,14/00106/COMM,311,environmental.health.commercial@spelthorne.gov.uk,Spelthorne,http://www.spelthorne.gov.uk,,,2015-01-24,fhrs_4_en-GB,4,,FHRS,5
258645,Staines County Court,Knowle Green,Staines-upon-Thames,,The Kiosk,Restaurant/Cafe/Canteen,1,10,,277890,0,,51.42910800000000,C06HD4KNOW/1,311,environmental.health.commercial@spelthorne.gov.uk,Spelthorne,http://www.spelthorne.gov.uk,-0.49810800000000,TW18 1XH,2014-08-18,fhrs_4_en-GB,4,,FHRS,0
258646,Station Crescent,Ashford,Surrey,,The Limes,Hospitals/Childcare/Caring Premises,5,10,,278138,10,,51.43700500000000,T07HD311A1/1,311,environmental.health.commercial@spelthorne.gov.uk,Spelthorne,http://www.spelthorne.gov.uk,-0.47183600000000,TW15 3JJ,2014-01-29,fhrs_3_en-GB,3,,FHRS,5
258647,132 High Street,Shepperton,Surrey,,The Manor (formerly Club Manor),Pub/bar/nightclub,7843,5,,277553,5,,51.39158900000000,06/00027/COMM,311,environmental.health.commercial@spelthorne.gov.uk,Spelthorne,http://www.spelthorne.gov.uk,-0.44954800000000,TW17 9BG,2010-02-22,fhrs_4_en-GB,4,,FHRS,10
258648,23 High Street,Shepperton,,,The New Forum,Restaurant/Cafe/Canteen,1,5,,277875,5,,51.39547800000000,C05HD523HI/1,311,environmental.health.commercial@spelthorne.gov.uk,Spelthorne,http://www.spelthorne.gov.uk,-0.44921500000000,TW17 9AJ,2014-12-09,fhrs_5_en-GB,5,,FHRS,5
258649,Shahee Mahal,151 High Street,Staines-upon-Thames,,The New Shahee Mahal,Restaurant/Cafe/Canteen,1,5,,277881,5,,51.43496300000000,C06HD1151H/1,311,environmental.health.commercial@spelthorne.gov.uk,Spelthorne,http://www.spelthorne.gov.uk,-0.50670600000000,TW18 4PA,2013-07-22,fhrs_5_en-GB,5,,FHRS,5
258650,Hungry Horse,77 Feltham Road,Ashford,,The Oaks,Pub/bar/nightclub,7843,20,,277828,5,,51.43299000000000,C01HD377FE/2,311,environmental.health.commercial@spelthorne.gov.uk,Spelthorne,http://www.spelthorne.gov.uk,-0.44961400000000,TW15 1BS,2014-11-13,fhrs_1_en-GB,1,,FHRS,15
258651,The Old Red Lion,Leacroft,Staines-upon-Thames,,The Old Red Lion - Wet Sales,Pub/bar/nightclub,7843,10,,509936,0,,51.43350300000000,12/00097/COMM,311,environmental.health.commercial@spelthorne.gov.uk,Spelthorne,http://www.spelthorne.gov.uk,-0.49652500000000,TW18 4PB,2014-10-20,fhrs_4_en-GB,4,,FHRS,0
258652,The Old Red Lion,Leacroft,Staines-upon-Thames,,The Old Red Lion -Kitchen,Pub/bar/nightclub,7843,10,,722899,10,,51.43350300000000,14/00107/COMM,311,environmental.health.commercial@spelthorne.gov.uk,Spelthorne,http://www.spelthorne.gov.uk,-0.49652500000000,TW18 4PB,2014-12-04,fhrs_3_en-GB,3,,FHRS,10
258653,131 Convent Road,Ashford,Surrey,,The Paper Shop,Retailers - other,4613,,,278111,,,51.42918700000000,R21GD3131C/1,311,environmental.health.commercial@spelthorne.gov.uk,Spelthorne,http://www.spelthorne.gov.uk,-0.45306600000000,TW15 2HW,2012-03-07,fhrs_exempt_en-GB,Exempt,,FHRS,
258654,The Phoenix Public House,26 - 28 Thames Street,Sunbury On Thames,,The Phoenix,Pub/bar/nightclub,7843,10,,277819,5,,51.40598000000000,C01HD22628/1,311,environmental.health.commercial@spelthorne.gov.uk,Spelthorne,http://www.spelthorne.gov.uk,-0.40687600000000,TW16 6AF,2014-09-09,fhrs_2_en-GB,2,,FHRS,15
258655,Raj Tandoori,22 Woodthorpe Road,Ashford,,The Raj And Go 4 Pizza,Restaurant/Cafe/Canteen,1,10,,277928,10,,51.43575000000000,C23HD322WO/1,311,environmental.health.commercial@spelthorne.gov.uk,Spelthorne,http://www.spelthorne.gov.uk,-0.46734600000000,TW15 2RY,2013-12-09,fhrs_3_en-GB,3,,FHRS,10
258656,The Rising Sun Public House,108 - 110 Oaks Road,Stanwell,Staines-upon-Thames,The Rising Sun  Kitchen,Pub/bar/nightclub,7843,10,,277806,5,,51.46015600000000,C01HD1110O/1,311,environmental.health.commercial@spelthorne.gov.uk,Spelthorne,http://www.spelthorne.gov.uk,-0.47771300000000,TW19 7LB,2015-01-12,fhrs_4_en-GB,4,,FHRS,5
258657,108 - 110 Oaks Road,Stanwell,Staines-upon-Thames,,The Rising Sun Public House,Pub/bar/nightclub,7843,10,,732569,10,,51.46015500000000,15/00004/COMM,311,environmental.health.commercial@spelthorne.gov.uk,Spelthorne,http://www.spelthorne.gov.uk,-0.47771300000000,TW19 7LB,2015-01-12,fhrs_3_en-GB,3,,FHRS,10
258658,Ashford Community Centre,Woodthorpe Road,Ashford,,The Secret Playhouse,Hospitals/Childcare/Caring Premises,5,5,,465502,5,,51.42859300000000,12/00094/COMM,311,environmental.health.commercial@spelthorne.gov.uk,Spelthorne,http://www.spelthorne.gov.uk,-0.48050300000000,TW15 3NJ,2012-11-07,fhrs_5_en-GB,5,,FHRS,5
258659,,,,,The Secret Playhouse & Choc Amor,Retailers - other,4613,5,,277662,0,,,09/00176/COMM,311,environmental.health.commercial@spelthorne.gov.uk,Spelthorne,http://www.spelthorne.gov.uk,,,2010-02-09,fhrs_5_en-GB,5,,FHRS,5
258660,171 Town Lane,Stanwell,Staines-upon-Thames,,The Stanwell Hotel,Hotel/bed & breakfast/guest house,7842,0,,277687,5,,51.45534500000000,10/00036/COMM,311,environmental.health.commercial@spelthorne.gov.uk,Spelthorne,http://www.spelthorne.gov.uk,-0.48262300000000,TW19 7PW,2014-01-15,fhrs_5_en-GB,5,,FHRS,0
258661,,,,,The Sugar Angel Company,Retailers - other,4613,0,,277779,0,,,11/00088/COMM,311,environmental.health.commercial@spelthorne.gov.uk,Spelthorne,http://www.spelthorne.gov.uk,,,2012-02-03,fhrs_5_en-GB,5,,FHRS,0
258662,The Sunbury Embroidery Gallery,Thames Street,Sunbury On Thames,,The Sunbury Millennium Embroidery Gallery,Restaurant/Cafe/Canteen,1,5,,277556,5,,51.40589000000000,06/00044/COMM,311,environmental.health.commercial@spelthorne.gov.uk,Spelthorne,http://www.spelthorne.gov.uk,-0.40821700000000,TW16 6AB,2014-03-25,fhrs_5_en-GB,5,,FHRS,5
258663,The Swan Inn,16 - 18 High Street,Stanwell,Staines-upon-Thames,The Swan Public House,Pub/bar/nightclub,7843,5,,277807,5,,51.45708800000000,C01HD116HI/1,311,environmental.health.commercial@spelthorne.gov.uk,Spelthorne,http://www.spelthorne.gov.uk,-0.47901000000000,TW19 7JS,2014-07-31,fhrs_4_en-GB,4,,FHRS,10
258664,Thames Club Limited,Wheatsheaf Park,Wheatsheaf Lane,Staines-upon-Thames,The Thames Club,Restaurant/Cafe/Canteen,1,5,,277984,5,,51.42105100000000,E05HD4WHEA/2,311,environmental.health.commercial@spelthorne.gov.uk,Spelthorne,http://www.spelthorne.gov.uk,-0.50232700000000,TW18 2PD,2014-02-06,fhrs_4_en-GB,4,,FHRS,10
258665,Three Fishes Public House,35 Green Street,Sunbury On Thames,,The Three Fishes,Pub/bar/nightclub,7843,5,,277820,0,,51.40536600000000,C01HD235GR/1,311,environmental.health.commercial@spelthorne.gov.uk,Spelthorne,http://www.spelthorne.gov.uk,-0.41332500000000,TW16 6RE,2013-11-12,fhrs_5_en-GB,5,,FHRS,0
258666,The Three Horseshoes Public House,131 High Street,Shepperton,,The Three Horseshoes,Pub/bar/nightclub,7843,5,,277618,5,,51.39235300000000,08/00105/COMM,311,environmental.health.commercial@spelthorne.gov.uk,Spelthorne,http://www.spelthorne.gov.uk,-0.44953600000000,TW17 9BL,2014-12-16,fhrs_5_en-GB,5,,FHRS,5
258667,Three Horseshoes Public House,25 Shepperton Road,Laleham,Staines-upon-Thames,The Three Horseshoes,Pub/bar/nightclub,7843,5,,277646,0,,51.40816700000000,09/00129/COMM,311,environmental.health.commercial@spelthorne.gov.uk,Spelthorne,http://www.spelthorne.gov.uk,-0.48917500000000,TW18 1SE,2014-06-19,fhrs_5_en-GB,5,,FHRS,0
258668,The Turks Head Public House,The Broadway,Laleham,Staines-upon-Thames,The Turks Head,Pub/bar/nightclub,7843,5,,277837,5,,51.41044800000000,C01HD4THEB/2,311,environmental.health.commercial@spelthorne.gov.uk,Spelthorne,http://www.spelthorne.gov.uk,-0.48759000000000,TW18 1SB,2014-05-14,fhrs_4_en-GB,4,,FHRS,10
258669,237 Laleham Road,Shepperton,,,The Village Bakery,Takeaway/sandwich shop,7844,10,,278047,5,,51.40067600000000,R06GD5237L/1,311,environmental.health.commercial@spelthorne.gov.uk,Spelthorne,http://www.spelthorne.gov.uk,-0.46016600000000,TW17 0DZ,2014-09-03,fhrs_2_en-GB,2,,FHRS,15
258670,The Wheatsheaf Public House,Park Road,Stanwell,Staines-upon-Thames,The Wheatsheaf,Pub/bar/nightclub,7843,5,,277628,5,,51.45721400000000,09/00033/COMM,311,environmental.health.commercial@spelthorne.gov.uk,Spelthorne,http://www.spelthorne.gov.uk,-0.48384200000000,TW19 7PB,2014-07-02,fhrs_5_en-GB,5,,FHRS,5
258671,The White Horse Public House,69 Thames Street,Sunbury On Thames,,The White Horse Pub,Pub/bar/nightclub,7843,5,,715695,5,,51.40684500000000,14/00081/COMM,311,environmental.health.commercial@spelthorne.gov.uk,Spelthorne,http://www.spelthorne.gov.uk,-0.40434500000000,TW16 5QF,2014-11-05,fhrs_5_en-GB,5,,FHRS,5
258672,Ashford High School,Stanwell Road,Ashford,Surrey,Thomas Knyvett College,School/college/university,7845,0,,277671,5,,51.43930000000000,0V06HD3STAN/1,311,environmental.health.commercial@spelthorne.gov.uk,Spelthorne,http://www.spelthorne.gov.uk,-0.47128500000000,TW15 3DU,2015-01-14,fhrs_5_en-GB,5,,FHRS,0
258673,Norris Roa,Staines-upon-Thames,Surrey,,Thorntons,Retailers - other,4613,0,,278075,0,,51.43456900000000,R10GD4UNIT/1,311,environmental.health.commercial@spelthorne.gov.uk,Spelthorne,http://www.spelthorne.gov.uk,-0.51103500000000,TW18 4UP,2012-03-07,fhrs_5_en-GB,5,,FHRS,0
258674,105 Clare Road,"Stanwell, Staines-upon-Thames",Middx,,Three In One Shop,Retailers - other,4613,,,277802,,,51.45131700000000,A04XD1105C/1,311,environmental.health.commercial@spelthorne.gov.uk,Spelthorne,http://www.spelthorne.gov.uk,-0.47642400000000,TW19 7QP,2010-08-03,fhrs_exempt_en-GB,Exempt,,FHRS,
258675,The Three Tuns Public House,63 London Road,Staines-upon-Thames,,Three Tuns Public House,Pub/bar/nightclub,7843,5,,277810,5,,51.43604100000000,-C01HD163LO/1,311,environmental.health.commercial@spelthorne.gov.uk,Spelthorne,http://www.spelthorne.gov.uk,-0.50377900000000,TW18 4BN,2015-01-16,fhrs_5_en-GB,5,,FHRS,5
258676,Queen Mary Reservoir Sailing Club L,The Clubhouse,Queen Mary Reservoir,Ashford Road,Thyme Lords Events @ Queen Mary Sailing Club,Restaurant/Cafe/Canteen,1,5,,528848,0,,51.42286300000000,12/00127/COMM,311,environmental.health.commercial@spelthorne.gov.uk,Spelthorne,http://www.spelthorne.gov.uk,-0.45556600000000,TW15 1UA,2013-03-23,fhrs_5_en-GB,5,,FHRS,5
258677,159 High Street,Staines-upon-Thames,,,Tikka Delight,Restaurant/Cafe/Canteen,1,10,,715698,10,,51.43496300000000,14/00091/COMM,311,environmental.health.commercial@spelthorne.gov.uk,Spelthorne,http://www.spelthorne.gov.uk,-0.50670600000000,TW18 4PA,2014-10-30,fhrs_2_en-GB,2,,FHRS,15
258678,,55 Clare Road,Stanwell,Staines-upon-Thames,Tommy's Deli,Restaurant/Cafe/Canteen,1,10,,732568,10,,51.45090600000000,15/00003/COMM,311,environmental.health.commercial@spelthorne.gov.uk,Spelthorne,http://www.spelthorne.gov.uk,-0.47663900000000,TW19 7QW,2015-01-15,fhrs_3_en-GB,3,,FHRS,10
258679,Tonys,45 Church Street,Staines-upon-Thames,Surrey,Tony's,Retailers - other,4613,5,,278116,5,,51.43421100000000,R21GD445CH/1,311,environmental.health.commercial@spelthorne.gov.uk,Spelthorne,http://www.spelthorne.gov.uk,-0.51474400000000,TW18 4EN,2012-03-23,fhrs_5_en-GB,5,,FHRS,5
258680,149 High Street,Staines-upon-Thames,Surrey,,Tony's Off Licence,Retailers - other,4613,10,,278076,10,,51.43496300000000,R11GD1149H/1,311,environmental.health.commercial@spelthorne.gov.uk,Spelthorne,http://www.spelthorne.gov.uk,-0.50670600000000,TW18 4PA,2013-09-12,fhrs_2_en-GB,2,,FHRS,15
258681,11 Station Approach,Ashford,Surrey,,Top Wok,Takeaway/sandwich shop,7844,0,,277925,0,,51.43613100000000,C23HD311ST/2,311,environmental.health.commercial@spelthorne.gov.uk,Spelthorne,http://www.spelthorne.gov.uk,-0.46822500000000,TW15 2QN,2013-02-26,fhrs_5_en-GB,5,,FHRS,5
258682,11 - 13 Church Street,Staines-upon-Thames,,,Tops Pizza,Takeaway/sandwich shop,7844,10,,277934,10,,51.43421100000000,C23HD41113/1,311,environmental.health.commercial@spelthorne.gov.uk,Spelthorne,http://www.spelthorne.gov.uk,-0.51474400000000,TW18 4EN,2014-01-16,fhrs_3_en-GB,3,,FHRS,5
258683,St Marys Crescent,Stanwell,Staines-upon-Thames,,Town Farm School,School/college/university,7845,0,,277948,0,,51.45353800000000,C32HD1STMA/1,311,environmental.health.commercial@spelthorne.gov.uk,Spelthorne,http://www.spelthorne.gov.uk,-0.47984800000000,TW19 7HU,2013-06-24,fhrs_5_en-GB,5,,FHRS,0
258684,Park Road,Ashford,Surrey,,Town Tree Pre School Nursery,School/college/university,7845,10,,277510,0,,51.42905300000000,04/00024/COMM,311,environmental.health.commercial@spelthorne.gov.uk,Spelthorne,http://www.spelthorne.gov.uk,-0.44836600000000,TW15 1EX,2011-01-24,fhrs_4_en-GB,4,,FHRS,5
258685,Hale Street,Staines-upon-Thames,Surrey,,Travelodge,Hotel/bed & breakfast/guest house,7842,0,,277904,0,,51.43527700000000,C20HD4HALE/1,311,environmental.health.commercial@spelthorne.gov.uk,Spelthorne,http://www.spelthorne.gov.uk,-0.51440700000000,TW18 4UW,2009-05-05,fhrs_5_en-GB,5,,FHRS,0
258686,Travelodge Sunbury M3 Hotel,Hanworth Road,Sunbury On Thames,,Travelodge,Hotel/bed & breakfast/guest house,7842,0,,277578,0,,51.41943300000000,07/00067/COMM,311,environmental.health.commercial@spelthorne.gov.uk,Spelthorne,http://www.spelthorne.gov.uk,-0.41687900000000,TW16 5DJ,2013-08-02,fhrs_5_en-GB,5,,FHRS,0
258687,21 High Street,Shepperton,Surrey,,Trio Pharmacy,Retailers - other,4613,,,278073,,,51.39547800000000,R09GD521HI/1,311,environmental.health.commercial@spelthorne.gov.uk,Spelthorne,http://www.spelthorne.gov.uk,-0.44921500000000,TW17 9AJ,2001-08-02,fhrs_exempt_en-GB,Exempt,,FHRS,
258688,Spur,3 Tillys Lane,Staines-upon-Thames,,Two Rivers Spur,Restaurant/Cafe/Canteen,1,10,,571449,10,,51.43423900000000,13/00012/COMM,311,environmental.health.commercial@spelthorne.gov.uk,Spelthorne,http://www.spelthorne.gov.uk,-0.51198100000000,TW18 4BJ,2013-06-28,fhrs_3_en-GB,3,,FHRS,5
258689,79 Upper Halliford Road,Shepperton,Middx,,Upper Halliford Newsagent,Retailers - other,4613,,,278109,,,51.40252600000000,R21GD279UP/1,311,environmental.health.commercial@spelthorne.gov.uk,Spelthorne,http://www.spelthorne.gov.uk,-0.43286000000000,TW17 8SE,2003-12-15,fhrs_exempt_en-GB,Exempt,,FHRS,
258690,Charlton Lane,Shepperton,,,Upper Halliford Nursing Home,Hospitals/Childcare/Caring Premises,5,10,,277641,5,,51.40131400000000,09/00117/COMM,311,environmental.health.commercial@spelthorne.gov.uk,Spelthorne,http://www.spelthorne.gov.uk,-0.43363500000000,TW17 8QN,2014-12-22,fhrs_3_en-GB,3,,FHRS,10
258691,Unit T7a,Two Rivers Retail Park,Mustard Mill Road,Staines-upon-Thames,Urban Zing,Restaurant/Cafe/Canteen,1,20,,277724,15,,51.43434300000000,10/00133/COMM,311,environmental.health.commercial@spelthorne.gov.uk,Spelthorne,http://www.spelthorne.gov.uk,-0.51239400000000,TW18 4BL,2014-08-19,fhrs_1_en-GB,1,,FHRS,15
258692,Food And Wine,149 Kingston Road,Staines-upon-Thames,,Victoria Parade Food & Wine (Mars Corner),Retailers - other,4613,10,,278101,5,,51.42803000000000,R21GD1149K/1,311,environmental.health.commercial@spelthorne.gov.uk,Spelthorne,http://www.spelthorne.gov.uk,-0.49053300000000,TW18 1PD,2014-04-14,fhrs_4_en-GB,4,,FHRS,5
258693,Volare,4 Woodthorpe Road,Ashford,,Volare Restaurant,Restaurant/Cafe/Canteen,1,10,,277773,0,,51.43575000000000,11/00077/COMM,311,environmental.health.commercial@spelthorne.gov.uk,Spelthorne,http://www.spelthorne.gov.uk,-0.46734600000000,TW15 2RY,2014-07-10,fhrs_4_en-GB,4,,FHRS,5
258694,Warner Village Cinema,Mustard Mill Road,Staines-upon-Thames,Surrey,Vue Cinemas,Retailers - other,4613,0,,277987,0,,51.43434300000000,E06GD4MUST/1,311,environmental.health.commercial@spelthorne.gov.uk,Spelthorne,http://www.spelthorne.gov.uk,-0.51239400000000,TW18 4BL,2014-12-22,fhrs_5_en-GB,5,,FHRS,0
258695,49 - 51 High Street,Staines-upon-Thames,Surrey,,W H Smiths Ltd,Retailers - other,4613,,,278123,,,51.43341800000000,S07GD449-4/1,311,environmental.health.commercial@spelthorne.gov.uk,Spelthorne,http://www.spelthorne.gov.uk,-0.51174800000000,TW18 4QR,2005-01-31,fhrs_exempt_en-GB,Exempt,,FHRS,
258696,Ashford Sports Club,Woodthorpe Road,Ashford,Surrey,W R Sports,Restaurant/Cafe/Canteen,1,5,,277983,5,,51.43424400000000,E05HD3WOOD/1,311,environmental.health.commercial@spelthorne.gov.uk,Spelthorne,http://www.spelthorne.gov.uk,-0.47598500000000,TW15 3JX,2015-01-13,fhrs_5_en-GB,5,,FHRS,5
258697,Unit S1,Two Rivers Retail Park,Mustard Mill Road,Staines-upon-Thames,Waitrose,Retailers - supermarkets/hypermarkets,7840,0,,278037,5,,51.43581500000000,R03GD4TWOR/1,311,environmental.health.commercial@spelthorne.gov.uk,Spelthorne,http://www.spelthorne.gov.uk,-0.51145500000000,TW18 4WB,2014-05-28,fhrs_5_en-GB,5,,FHRS,5
258698,143 Kingston Road,Staines-upon-Thames,,,Wan Ying House,Takeaway/sandwich shop,7844,10,,277913,5,,51.42803000000000,C23HD1143K/1,311,environmental.health.commercial@spelthorne.gov.uk,Spelthorne,http://www.spelthorne.gov.uk,-0.49053300000000,TW18 1PD,2015-01-22,fhrs_4_en-GB,4,,FHRS,5
258699,Church Square,Shepperton,,,Warren Lodge Hotel,Hotel/bed & breakfast/guest house,7842,5,,277906,0,,51.38794900000000,C20HD5CHUR/1,311,environmental.health.commercial@spelthorne.gov.uk,Spelthorne,http://www.spelthorne.gov.uk,-0.45382400000000,TW17 9JZ,2015-01-20,fhrs_5_en-GB,5,,FHRS,0
258700,77 High Street,Staines-upon-Thames,Middx,,Waterstones,Retailers - other,4613,,,278125,,,51.43413300000000,S07HD477HI/1,311,environmental.health.commercial@spelthorne.gov.uk,Spelthorne,http://www.spelthorne.gov.uk,-0.50998400000000,TW18 4PQ,2002-11-13,fhrs_exempt_en-GB,Exempt,,FHRS,
258701,,,,,We Luv Cupcakes,Other catering premises,7841,5,,277699,0,,,10/00061/COMM,311,environmental.health.commercial@spelthorne.gov.uk,Spelthorne,http://www.spelthorne.gov.uk,,,2010-08-24,fhrs_5_en-GB,5,,FHRS,5
258702,Wheatsheaf And Pigeon Public House,Penton Road,Staines-upon-Thames,,Wheatsheaf & Pigeon,Pub/bar/nightclub,7843,5,,277835,10,,51.42103700000000,C01HD4PENT/2,311,environmental.health.commercial@spelthorne.gov.uk,Spelthorne,http://www.spelthorne.gov.uk,-0.50832500000000,TW18 2LL,2014-10-29,fhrs_3_en-GB,3,,FHRS,10
258703,White Gates Care Centre,1 Condor Road,Laleham,Staines-upon-Thames,White Gates,Hospitals/Childcare/Caring Premises,5,10,,278136,5,,51.40776200000000,T06HD4COND/1,311,environmental.health.commercial@spelthorne.gov.uk,Spelthorne,http://www.spelthorne.gov.uk,-0.49128700000000,TW18 1UG,2014-10-13,fhrs_4_en-GB,4,,FHRS,0
258704,3 Wilcox Gardens,Shepperton,Surrey,,Wilcox Bed & Breakfast,Hotel/bed & breakfast/guest house,7842,5,,277594,10,,51.40813900000000,08/00007/COMM,311,environmental.health.commercial@spelthorne.gov.uk,Spelthorne,http://www.spelthorne.gov.uk,-0.47042600000000,TW17 0QY,2008-04-18,fhrs_4_en-GB,4,,FHRS,5
258705,31 Cranwell Grove,Shepperton,Surrey,,Wilcox Bed & Breakfast,Hotel/bed & breakfast/guest house,7842,5,,277595,10,,51.40294300000000,08/00008/COMM,311,environmental.health.commercial@spelthorne.gov.uk,Spelthorne,http://www.spelthorne.gov.uk,-0.46773800000000,TW17 0JR,2008-04-18,fhrs_4_en-GB,4,,FHRS,5
258706,123 Convent Road,Ashford,Surrey,,William Hill Organisation,Retailers - other,4613,,,690906,,,51.42918700000000,E04GD3123C/1,311,environmental.health.commercial@spelthorne.gov.uk,Spelthorne,http://www.spelthorne.gov.uk,-0.45306600000000,TW15 2HW,2012-03-07,fhrs_exempt_en-GB,Exempt,,FHRS,
258707,41 Church Road,Ashford,,,Wimpy,Restaurant/Cafe/Canteen,1,5,,555258,5,,51.43330100000000,13/00038/COMM,311,environmental.health.commercial@spelthorne.gov.uk,Spelthorne,http://www.spelthorne.gov.uk,-0.46436400000000,TW15 2TY,2013-06-04,fhrs_5_en-GB,5,,FHRS,5
258708,96 Windmill Road,Sunbury On Thames,,,Windmill Stores,Retailers - other,4613,0,,278015,5,,51.41645900000000,R02GD296WI/1,311,environmental.health.commercial@spelthorne.gov.uk,Spelthorne,http://www.spelthorne.gov.uk,-0.43179400000000,TW16 7HB,2015-01-16,fhrs_5_en-GB,5,,FHRS,5
258709,Post Office,110 Woodthorpe Road,Ashford,Surrey,Woodthorpe Road Stores Londis,Retailers - other,4613,10,,278016,5,,51.43296300000000,R02GD3110W/1,311,environmental.health.commercial@spelthorne.gov.uk,Spelthorne,http://www.spelthorne.gov.uk,-0.47768200000000,TW15 3LH,2014-01-09,fhrs_3_en-GB,3,,FHRS,10
258710,Worple Store,36 Worple Road,Staines-upon-Thames,,Worple Stores,Retailers - other,4613,10,,278026,5,,51.42764800000000,R02GD436WO/2,311,environmental.health.commercial@spelthorne.gov.uk,Spelthorne,http://www.spelthorne.gov.uk,-0.49509200000000,TW18 1EA,2013-01-30,fhrs_3_en-GB,3,,FHRS,10
258711,27 Edgell Road,Staines-upon-Thames,Surrey,,Your Local Convenience Store - Londis,Retailers - other,4613,0,,277536,0,,51.42922000000000,05/00039/COMM,311,environmental.health.commercial@spelthorne.gov.uk,Spelthorne,http://www.spelthorne.gov.uk,-0.50689300000000,TW18 2EP,2012-04-24,fhrs_5_en-GB,5,,FHRS,5
258712,,,,,Yum Yum Thai Food,Other catering premises,7841,10,,690904,5,,,13/00102/COMM,311,environmental.health.commercial@spelthorne.gov.uk,Spelthorne,http://www.spelthorne.gov.uk,,,2014-03-26,fhrs_4_en-GB,4,,FHRS,0
258713,9 The Parade,Staines Road West,Sunbury On Thames,,Yum Yum Tree,Restaurant/Cafe/Canteen,1,5,,277856,5,,51.41976700000000,C05HD29THE/1,311,environmental.health.commercial@spelthorne.gov.uk,Spelthorne,http://www.spelthorne.gov.uk,-0.42033300000000,TW16 7AB,2013-10-17,fhrs_5_en-GB,5,,FHRS,5
258714,,,,,Yummycakes,Other catering premises,7841,0,,555261,0,,,13/00054/COMM,311,environmental.health.commercial@spelthorne.gov.uk,Spelthorne,http://www.spelthorne.gov.uk,,,2013-05-30,fhrs_5_en-GB,5,,FHRS,0
