,addressline1,addressline2,addressline3,addressline4,businessname,businesstype,businesstypeid,confidenceinmanagement,extractdate,fhrsid,hygiene,itemcount,latitude,localauthoritybusinessid,localauthoritycode,localauthorityemailaddress,localauthorityname,localauthoritywebsite,longitude,postcode,ratingdate,ratingkey,ratingvalue,returncode,schemetype,structural
271999,Knaphill Community Centre Waterers Rise Knaphill Woking Surrey,,,,1st Knaphill Scout Group,Other catering premises,7841,5,,16243,5,,51.32077500000000,05/29000/COMM,315,emma.bourne@woking.gov.uk,Woking,http://www.woking.gov.uk,-0.61466200000000,GU21 2HU,2015-01-13,fhrs_5_en-GB,5,,FHRS,5
272000,,,,,A Lady Who Bake's,Other catering premises,7841,5,,607995,0,,,13/00095/COMM,315,emma.bourne@woking.gov.uk,Woking,http://www.woking.gov.uk,,,2013-10-16,fhrs_5_en-GB,5,,FHRS,0
272001,,,,,A Little Gastronomy,Other catering premises,7841,5,,480647,5,,,12/00094/COMM,315,emma.bourne@woking.gov.uk,Woking,http://www.woking.gov.uk,,,2012-11-23,fhrs_5_en-GB,5,,FHRS,5
272002,Beech Tree House 1A Kirby Road Horsell Woking Surrey,,,,ACH Care Homes,Hospitals/Childcare/Caring Premises,5,0,,15532,0,,51.32054500000000,05/00267/COMM,315,emma.bourne@woking.gov.uk,Woking,http://www.woking.gov.uk,-0.57306600000000,GU21 4RJ,2012-10-18,fhrs_5_en-GB,5,,FHRS,0
272003,15A High Street Woking Surrey,,,,Afropoint,Retailers - other,4613,5,,492871,5,,51.31825100000000,12/00099/COMM,315,emma.bourne@woking.gov.uk,Woking,http://www.woking.gov.uk,-0.55900200000000,GU21 6BW,2012-12-20,fhrs_5_en-GB,5,,FHRS,5
272004,217 Walton Road Woking Surrey,,,,Ahmed Cash And Carry,Retailers - other,4613,10,,15961,10,,51.32468700000000,05/07676/COMM,315,emma.bourne@woking.gov.uk,Woking,http://www.woking.gov.uk,-0.54571100000000,GU21 5EF,2014-02-11,fhrs_3_en-GB,3,,FHRS,10
272005,Rear Of 86 Walton Road Woking Surrey,,,,Al Halal Cash & Carry Ltd,Retailers - other,4613,10,,631211,10,,51.32273200000000,14/00005/COMM,315,emma.bourne@woking.gov.uk,Woking,http://www.woking.gov.uk,-0.55052300000000,GU21 5DW,2014-01-23,fhrs_3_en-GB,3,,FHRS,5
272006,29 Goldsworth Road Woking Surrey,,,,Al Pasha,Takeaway/sandwich shop,7844,20,,16163,10,,,05/18341/COMM,315,emma.bourne@woking.gov.uk,Woking,http://www.woking.gov.uk,,,2014-08-06,fhrs_1_en-GB,1,,FHRS,10
272007,562 Woodham Lane Woking Surrey,,,,All Saints Church,Other catering premises,7841,,,8013,,,51.33429100000000,03/08360/COMM,315,emma.bourne@woking.gov.uk,Woking,http://www.woking.gov.uk,-0.53854500000000,GU21 5SW,2013-02-01,fhrs_exempt_en-GB,Exempt,,FHRS,
272008,Enthone Omi Uk Ltd Forsyth Road Sheerwater Woking Surrey,,,,Alpha Fry Ltd,Restaurant/Cafe/Canteen,1,5,,8014,0,,51.32962900000000,03/08443/COMM,315,emma.bourne@woking.gov.uk,Woking,http://www.woking.gov.uk,-0.53176100000000,GU21 5RZ,2014-11-13,fhrs_5_en-GB,5,,FHRS,0
272009,Alpha Hospitals Oak Tree Clinic Redding Way Knaphill Woking Surrey,,,,Alpha Hospital Woking,Hospitals/Childcare/Caring Premises,5,5,,13183,0,,51.31576700000000,04/08476/COMM,315,emma.bourne@woking.gov.uk,Woking,http://www.woking.gov.uk,-0.61857200000000,GU21 2QS,2014-09-25,fhrs_5_en-GB,5,,FHRS,0
272010,Heathside Coley Avenue Woking Surrey,,,,Anchor Home For Elderly,Hospitals/Childcare/Caring Premises,5,5,,16184,0,,51.31707600000000,05/20848/COMM,315,emma.bourne@woking.gov.uk,Woking,http://www.woking.gov.uk,-0.55051500000000,GU22 7BT,2014-07-14,fhrs_5_en-GB,5,,FHRS,5
272011,The Anchor Public House High Street Knaphill Woking Surrey,,,,Anchor PH,Pub/bar/nightclub,7843,0,,2916,0,,51.31832100000000,01/30675/COMM,315,emma.bourne@woking.gov.uk,Woking,http://www.woking.gov.uk,-0.61625700000000,GU21 2PE,2013-11-28,fhrs_5_en-GB,5,,FHRS,0
272012,The Anchor Public House At Pyrford Lock Wisley Lane Wisley Woking Surrey,,,,Anchor Public House,Pub/bar/nightclub,7843,0,,16061,0,,51.32199700000000,05/10668/COMM,315,emma.bourne@woking.gov.uk,Woking,http://www.woking.gov.uk,-0.48945300000000,GU23 6QW,2014-06-02,fhrs_5_en-GB,5,,FHRS,0
272013,,,,,Angelpops,Other catering premises,7841,0,,409304,5,,,12/00039/COMM,315,emma.bourne@woking.gov.uk,Woking,http://www.woking.gov.uk,,,2012-05-22,fhrs_5_en-GB,5,,FHRS,0
272014,,,,,Anne Smith,Other catering premises,7841,5,,710048,0,,,14/00057/COMM,315,emma.bourne@woking.gov.uk,Woking,http://www.woking.gov.uk,,,2014-09-29,fhrs_5_en-GB,5,,FHRS,0
272015,,,,,Annies Cupcakes,Other catering premises,7841,5,,32895,0,,,10/00012/COMM,315,emma.bourne@woking.gov.uk,Woking,http://www.woking.gov.uk,,,2013-11-27,fhrs_5_en-GB,5,,FHRS,0
272016,Market Stalls Commercial Way Woking Surrey,,,,Araceli's,Mobile caterer,7846,5,,33011,5,,51.31986100000000,10/00019/COMM,315,emma.bourne@woking.gov.uk,Woking,http://www.woking.gov.uk,-0.55700900000000,,2013-12-11,fhrs_5_en-GB,5,,FHRS,5
272017,,,,,Araceli's,Other catering premises,7841,5,,445054,5,,,12/00061/COMM,315,emma.bourne@woking.gov.uk,Woking,http://www.woking.gov.uk,,,2013-12-11,fhrs_5_en-GB,5,,FHRS,5
272018,Arbor Youth Club Teggs Lane Pyrford Woking Surrey,,,,Arbor Youth Club,Other catering premises,7841,10,,15850,5,,51.32334600000000,05/03386/COMM,315,emma.bourne@woking.gov.uk,Woking,http://www.woking.gov.uk,-0.51053400000000,GU22 8ST,2010-03-09,fhrs_4_en-GB,4,,FHRS,5
272019,69 - 71 Goldsworth Road Woking Surrey,,,,Archees,Pub/bar/nightclub,7843,0,,17827,5,,51.31736100000000,06/00037/COMM,315,emma.bourne@woking.gov.uk,Woking,http://www.woking.gov.uk,-0.56560200000000,GU21 6LJ,2014-11-13,fhrs_5_en-GB,5,,FHRS,5
272020,Arden Onslow Crescent Woking Surrey,,,,Arden ( B& B),Hotel/bed & breakfast/guest house,7842,0,,16084,0,,51.31840800000000,05/11778/COMM,315,emma.bourne@woking.gov.uk,Woking,http://www.woking.gov.uk,-0.54771800000000,GU22 7AU,2014-11-24,fhrs_5_en-GB,5,,FHRS,0
272021,Asda Superstore Forsyth Road Sheerwater Woking Surrey,,,,Asda Store,Retailers - supermarkets/hypermarkets,7840,0,,730253,0,,51.32914800000000,15/00006/COMM,315,emma.bourne@woking.gov.uk,Woking,http://www.woking.gov.uk,-0.53282400000000,GU21 5SB,2015-01-12,fhrs_5_en-GB,5,,FHRS,0
272022,Unit 1 Lion Retail Park 151 Oriental Road Woking Surrey,,,,Asda Supermarket,Other catering premises,7841,0,,225671,0,,51.32336800000000,12/00017/COMM,315,emma.bourne@woking.gov.uk,Woking,http://www.woking.gov.uk,-0.54304000000000,GU22 8BD,2013-10-01,fhrs_5_en-GB,5,,FHRS,0
272023,Asda Superstore Forsyth Road Sheerwater Woking Surrey,,,,Asda Woking Customer Cafe,Restaurant/Cafe/Canteen,1,0,,710054,0,,51.32914800000000,14/00063/COMM,315,emma.bourne@woking.gov.uk,Woking,http://www.woking.gov.uk,-0.53282400000000,GU21 5SB,2014-10-10,fhrs_5_en-GB,5,,FHRS,0
272024,Asiana Restaurant 114 Hermitage Road St Johns Woking Surrey,,,,Asiana Restaurant,Restaurant/Cafe/Canteen,1,5,,24972,5,,51.31241000000000,08/00031/COMM,315,emma.bourne@woking.gov.uk,Woking,http://www.woking.gov.uk,-0.60771100000000,GU21 8TT,2013-07-16,fhrs_5_en-GB,5,,FHRS,5
272025,West Byfleet Health Centre Madeira Road West Byfleet Surrey,,,,Assura Pharmacy,Retailers - other,4613,,,582826,,,51.33803500000000,08/00027/COMM,315,emma.bourne@woking.gov.uk,Woking,http://www.woking.gov.uk,-0.50599500000000,KT14 6DH,2011-07-14,fhrs_exempt_en-GB,Exempt,,FHRS,
272026,,,,,Atelier Brazil UK Events,Other catering premises,7841,5,,672069,5,,,14/00023/COMM,315,emma.bourne@woking.gov.uk,Woking,http://www.woking.gov.uk,,,2014-05-07,fhrs_5_en-GB,5,,FHRS,0
272027,103 Walton Road Woking Surrey,,,,Atif Superstore,Retailers - other,4613,5,,15947,5,,51.32273200000000,05/07580/COMM,315,emma.bourne@woking.gov.uk,Woking,http://www.woking.gov.uk,-0.55052300000000,GU21 5DW,2015-01-09,fhrs_5_en-GB,5,,FHRS,5
272028,Avens House 1 Broomcroft Drive Pyrford Woking Surrey,,,,Avens Court,Hospitals/Childcare/Caring Premises,5,0,,150361,0,,51.32563400000000,98/28640/COMM,315,emma.bourne@woking.gov.uk,Woking,http://www.woking.gov.uk,-0.52363600000000,GU22 8NS,2013-01-10,fhrs_5_en-GB,5,,FHRS,0
272029,The Ambassadors Victoria Way Woking Surrey,,,,Azzurro,Restaurant/Cafe/Canteen,1,0,,47204,0,,51.31985100000000,11/00114/COMM,315,emma.bourne@woking.gov.uk,Woking,http://www.woking.gov.uk,-0.56186500000000,GU21 6GQ,2013-06-17,fhrs_5_en-GB,5,,FHRS,0
272030,Wickes 102 Inkerman Road Knaphill Woking Surrey,,,,Bacon Bap,Mobile caterer,7846,5,,47060,10,,51.31298600000000,11/00101/COMM,315,emma.bourne@woking.gov.uk,Woking,http://www.woking.gov.uk,-0.60851100000000,GU21 2WB,2013-11-14,fhrs_4_en-GB,4,,FHRS,5
272031,105 High Street Horsell Woking Surrey,,,,Balaka,Restaurant/Cafe/Canteen,1,5,,28519,5,,51.32412500000000,09/00005/COMM,315,emma.bourne@woking.gov.uk,Woking,http://www.woking.gov.uk,-0.57461900000000,GU21 4SY,2014-11-25,fhrs_5_en-GB,5,,FHRS,5
272032,31 - 33 Dartmouth Avenue Sheerwater Woking Surrey,,,,Barakah Halal Meat,Other catering premises,7841,5,,544789,5,,51.33350900000000,13/00041/COMM,315,emma.bourne@woking.gov.uk,Woking,http://www.woking.gov.uk,-0.52988600000000,GU21 5PE,2013-04-29,fhrs_5_en-GB,5,,FHRS,0
272033,Kiosk 3 Market Walk Woking Surrey,,,,Barlow's,Other catering premises,7841,5,,720365,5,,,14/00082/COMM,315,emma.bourne@woking.gov.uk,Woking,http://www.woking.gov.uk,,,2014-11-10,fhrs_5_en-GB,5,,FHRS,5
272034,The Lightbox Chobham Road Woking Surrey,,,,Barlow's,Restaurant/Cafe/Canteen,1,5,,720360,5,,51.32233500000000,14/00077/COMM,315,emma.bourne@woking.gov.uk,Woking,http://www.woking.gov.uk,-0.55841500000000,GU21 4AA,2014-11-10,fhrs_5_en-GB,5,,FHRS,0
272035,Barnsbury Primary School Almond Avenue  Woking Surrey,,,,Barnsbury Buddies,School/college/university,7845,0,,150733,0,,51.30334900000000,99/08407/COMM,315,emma.bourne@woking.gov.uk,Woking,http://www.woking.gov.uk,-0.56988300000000,GU22 0BB,2011-11-29,fhrs_5_en-GB,5,,FHRS,0
272036,Barnsbury County Infant & Junior School Almond Avenue Woking Surrey,,,,Barnsbury Primary School,School/college/university,7845,0,,16211,0,,51.30334900000000,05/24449/COMM,315,emma.bourne@woking.gov.uk,Woking,http://www.woking.gov.uk,-0.56988300000000,GU22 0BB,2014-12-12,fhrs_5_en-GB,5,,FHRS,0
272037,23 High Road Byfleet West Byfleet Surrey,,,,Basmati Tandoori,Takeaway/sandwich shop,7844,5,,445052,5,,51.33925900000000,12/00059/COMM,315,emma.bourne@woking.gov.uk,Woking,http://www.woking.gov.uk,-0.47813200000000,KT14 7QH,2014-06-06,fhrs_4_en-GB,4,,FHRS,10
272038,Beaufort Community Primary School Kirkland Avenue Woking Surrey,,,,Beaufort Community Primary School,School/college/university,7845,0,,16251,0,,51.32245200000000,05/29510/COMM,315,emma.bourne@woking.gov.uk,Woking,http://www.woking.gov.uk,-0.59843700000000,GU21 3RG,2013-10-24,fhrs_5_en-GB,5,,FHRS,0
272039,54 Westfield Road Westfield Woking Surrey,,,,Beggars Banquet,Other catering premises,7841,0,,150741,5,,51.30199000000000,99/25016/COMM,315,emma.bourne@woking.gov.uk,Woking,http://www.woking.gov.uk,-0.56025700000000,GU22 9NG,2014-10-14,fhrs_5_en-GB,5,,FHRS,5
272040,95 - 99 High Street Horsell Woking Surrey,,,,Beijing Restaurant,Restaurant/Cafe/Canteen,1,5,,13334,0,,51.32412500000000,04/33119/COMM,315,emma.bourne@woking.gov.uk,Woking,http://www.woking.gov.uk,-0.57461900000000,GU21 4SY,2012-12-03,fhrs_5_en-GB,5,,FHRS,0
272041,16 Station Approach West Byfleet Surrey,,,,Bell Amico,Restaurant/Cafe/Canteen,1,5,,149980,5,,51.33896400000000,97/42751/COMM,315,emma.bourne@woking.gov.uk,Woking,http://www.woking.gov.uk,-0.50544800000000,KT14 6NF,2014-02-25,fhrs_5_en-GB,5,,FHRS,5
272042,8 - 10 Hermitage Road St Johns Woking Surrey,,,,Bellini,Restaurant/Cafe/Canteen,1,5,,17896,0,,51.31209800000000,06/00044/COMM,315,emma.bourne@woking.gov.uk,Woking,http://www.woking.gov.uk,-0.59734700000000,GU21 8TB,2014-10-16,fhrs_5_en-GB,5,,FHRS,0
272043,20 Mulgrave Way Knaphill Woking Surrey,,,,Bens,Other catering premises,7841,5,,480636,0,,51.31705500000000,12/00077/COMM,315,emma.bourne@woking.gov.uk,Woking,http://www.woking.gov.uk,-0.60662300000000,GU21 2BY,2012-10-11,fhrs_5_en-GB,5,,FHRS,0
272044,Kiosk 4 Market Walk Woking Surrey,,,,Bep Viet,Takeaway/sandwich shop,7844,5,,720367,5,,,14/00084/COMM,315,emma.bourne@woking.gov.uk,Woking,http://www.woking.gov.uk,,,2014-11-20,fhrs_5_en-GB,5,,FHRS,5
272045,55 Dartmouth Avenue Sheerwater Woking Surrey,,,,Best Kebab Sheerwater,Takeaway/sandwich shop,7844,20,,504679,10,,51.33350900000000,13/00006/COMM,315,emma.bourne@woking.gov.uk,Woking,http://www.woking.gov.uk,-0.52988600000000,GU21 5PE,2014-11-13,fhrs_1_en-GB,1,,FHRS,0
272046,61 - 63 Dartmouth Avenue Sheerwater Woking Surrey,,,,Best One,Retailers - other,4613,10,,8374,10,,51.33381500000000,03/43247/COMM,315,emma.bourne@woking.gov.uk,Woking,http://www.woking.gov.uk,-0.52924400000000,GU21 5PG,2013-03-25,fhrs_3_en-GB,3,,FHRS,10
272047,21 - 22 Station Approach West Byfleet Surrey,,,,Bestways Food And Wine,Retailers - other,4613,10,,534915,5,,51.33896400000000,13/00030/COMM,315,emma.bourne@woking.gov.uk,Woking,http://www.woking.gov.uk,-0.50544800000000,KT14 6NF,2013-03-25,fhrs_4_en-GB,4,,FHRS,5
272048,Jewsons Timber Yard Horsell Moor Horsell Woking Surrey,,,,Bestys Brunch Bar,Mobile caterer,7846,5,,720361,5,,51.31910500000000,14/00078/COMM,315,emma.bourne@woking.gov.uk,Woking,http://www.woking.gov.uk,-0.57150300000000,GU21 4NQ,2014-11-13,fhrs_5_en-GB,5,,FHRS,5
272049,Kiosk 5 Market Walk Woking Surrey,,,,Bevan's Butchers,Retailers - other,4613,5,,730250,0,,,15/00003/COMM,315,emma.bourne@woking.gov.uk,Woking,http://www.woking.gov.uk,,,2015-01-08,fhrs_5_en-GB,5,,FHRS,0
272050,91 Walton Road Woking Surrey,,,,Big Mamma's,Takeaway/sandwich shop,7844,5,,623157,5,,51.32273200000000,13/00112/COMM,315,emma.bourne@woking.gov.uk,Woking,http://www.woking.gov.uk,-0.55052300000000,GU21 5DW,2013-12-11,fhrs_5_en-GB,5,,FHRS,5
272051,31 Inglewood Woking Surrey,,,,Big Sam's Little Bakery,Other catering premises,7841,5,,615857,5,,51.31409200000000,13/00110/COMM,315,emma.bourne@woking.gov.uk,Woking,http://www.woking.gov.uk,-0.58220500000000,GU21 3HX,2013-12-02,fhrs_5_en-GB,5,,FHRS,5
272052,Wolsey Place 27 Commercial Way Woking Surrey,,,,Bill's Restaurants Ltd,Restaurant/Cafe/Canteen,1,0,,733750,0,,51.31880100000000,15/00009/COMM,315,emma.bourne@woking.gov.uk,Woking,http://www.woking.gov.uk,-0.55918500000000,GU21 6XR,2015-01-28,fhrs_5_en-GB,5,,FHRS,0
272053,Binfield Bakery 105 High Road Byfleet West Byfleet Surrey,,,,Binfield Bakery,Other catering premises,7841,5,,16301,0,,51.33881500000000,05/34610/COMM,315,emma.bourne@woking.gov.uk,Woking,http://www.woking.gov.uk,-0.47366800000000,KT14 7QX,2014-06-26,fhrs_5_en-GB,5,,FHRS,5
272054,Birch And Pines 22 Dartmouth Avenue Sheerwater Woking Surrey,,,,Birch & Pines Public Ho.,Pub/bar/nightclub,7843,,,16179,,,51.33347700000000,05/20178/COMM,315,emma.bourne@woking.gov.uk,Woking,http://www.woking.gov.uk,-0.52881000000000,GU21 5PJ,2014-11-11,fhrs_exempt_en-GB,Exempt,,FHRS,
272055,Birchwood House Ridgway Woking Surrey,,,,Birchwood House B And B,Hotel/bed & breakfast/guest house,7842,5,,28581,5,,51.32763200000000,09/00010/COMM,315,emma.bourne@woking.gov.uk,Woking,http://www.woking.gov.uk,-0.50673500000000,GU22 8PN,2014-12-31,fhrs_5_en-GB,5,,FHRS,5
272056,Travis Perkins Unit 7 Kestrel Way Woking Surrey,,,,Birchwood Price Tools,Retailers - other,4613,,,702413,,,51.32453000000000,14/00053/COMM,315,emma.bourne@woking.gov.uk,Woking,http://www.woking.gov.uk,-0.58499800000000,GU21 3BA,2014-09-04,fhrs_exempt_en-GB,Exempt,,FHRS,
272057,Wickes 102 Inkerman Road Knaphill Woking Surrey,,,,Birchwood Price Tools    Wickes,Retailers - other,4613,,,710045,,,51.31298600000000,14/00054/COMM,315,emma.bourne@woking.gov.uk,Woking,http://www.woking.gov.uk,-0.60851100000000,GU21 2WB,2014-09-18,fhrs_exempt_en-GB,Exempt,,FHRS,
272058,Bird In Hand Public House Egley Road Woking Surrey,,,,Bird In Hand Public House,Pub/bar/nightclub,7843,5,,16171,5,,51.29590300000000,05/19649/COMM,315,emma.bourne@woking.gov.uk,Woking,http://www.woking.gov.uk,-0.57427400000000,GU22 0NL,2013-07-30,fhrs_5_en-GB,5,,FHRS,5
272059,153 Goldsworth Road Woking Surrey,,,,Bizzi B's,Retailers - other,4613,5,,445053,5,,51.31751400000000,12/00060/COMM,315,emma.bourne@woking.gov.uk,Woking,http://www.woking.gov.uk,-0.56862500000000,GU21 6LS,2012-09-03,fhrs_5_en-GB,5,,FHRS,5
272060,Ground Floor Third Fourth And Fifth Floors Orion Gate Guildford Road Woking Surrey,,,,"Blue Apple Contract Catering ""The Barista""",Restaurant/Cafe/Canteen,1,0,,715369,0,,51.31596600000000,14/00072/COMM,315,emma.bourne@woking.gov.uk,Woking,http://www.woking.gov.uk,-0.56039400000000,GU22 7NJ,2014-10-23,fhrs_5_en-GB,5,,FHRS,5
272061,103 Oyster Lane Byfleet West Byfleet Surrey,,,,Blue Sky,Retailers - other,4613,5,,16291,5,,51.34477800000000,05/34157/COMM,315,emma.bourne@woking.gov.uk,Woking,http://www.woking.gov.uk,-0.47929900000000,KT14 7JF,2014-01-10,fhrs_5_en-GB,5,,FHRS,5
272062,St Michaels Shared Church Dartmouth Avenue Sheerwater Woking Surrey,,,,Body Mind And Soul Food,Restaurant/Cafe/Canteen,1,,,492868,,,51.33347700000000,11/00128/COMM,315,emma.bourne@woking.gov.uk,Woking,http://www.woking.gov.uk,-0.52881000000000,GU21 5PJ,2014-09-22,fhrs_exempt_en-GB,Exempt,,FHRS,
272063,39 Chertsey Road Woking Surrey,,,,Bombay Nights,Restaurant/Cafe/Canteen,1,20,,16198,5,,51.32016100000000,05/21272/COMM,315,emma.bourne@woking.gov.uk,Woking,http://www.woking.gov.uk,-0.55567000000000,GU21 5AJ,2013-11-04,fhrs_1_en-GB,1,,FHRS,5
272064,1 The Terrace High Street Old Woking Woking Surrey,,,,Bon Bon Shop,Retailers - other,4613,0,,15899,0,,51.30310200000000,05/05484/COMM,315,emma.bourne@woking.gov.uk,Woking,http://www.woking.gov.uk,-0.54977900000000,GU22 9ES,2014-08-13,fhrs_5_en-GB,5,,FHRS,0
272065,117 Oyster Lane Byfleet West Byfleet Surrey,,,,Booker Cash And Carry,Retailers - supermarkets/hypermarkets,7840,0,,16292,0,,51.33851300000000,05/34169/COMM,315,emma.bourne@woking.gov.uk,Woking,http://www.woking.gov.uk,-0.49017900000000,KT14 7JY,2014-08-20,fhrs_5_en-GB,5,,FHRS,0
272066,14 Station Approach West Byfleet Surrey,,,,Boots The Chemist,Retailers - other,4613,,,582901,,,51.33838200000000,96/26025/COMM,315,emma.bourne@woking.gov.uk,Woking,http://www.woking.gov.uk,-0.50496500000000,KT14 6NG,2014-03-14,fhrs_exempt_en-GB,Exempt,,FHRS,
272067,1 - 9 Commercial Way Woking Surrey,,,,Boots The Chemists Plc,Retailers - other,4613,0,,16182,0,,51.31855500000000,05/20602/COMM,315,emma.bourne@woking.gov.uk,Woking,http://www.woking.gov.uk,-0.55963800000000,GU21 6YA,2014-03-26,fhrs_5_en-GB,5,,FHRS,0
272068,106 Hermitage Road St Johns Woking Surrey,,,,Bottle & Basket,Retailers - other,4613,0,,582900,0,,51.31236000000000,92/41205/COMM,315,emma.bourne@woking.gov.uk,Woking,http://www.woking.gov.uk,-0.60345100000000,GU21 8TQ,2014-08-12,fhrs_5_en-GB,5,,FHRS,0
272069,7 Church Path Woking Surrey,,,,Boz's Fruit & Veg,Retailers - other,4613,,,672064,,,51.31918700000000,14/00014/COMM,315,emma.bourne@woking.gov.uk,Woking,http://www.woking.gov.uk,-0.55765200000000,GU21 6EJ,2014-02-28,fhrs_exempt_en-GB,Exempt,,FHRS,
272070,,,,,Braai BQ Catering And Training,Other catering premises,7841,5,,451862,5,,,12/00066/COMM,315,emma.bourne@woking.gov.uk,Woking,http://www.woking.gov.uk,,,2014-02-24,fhrs_5_en-GB,5,,FHRS,0
272071,,,,,Bread And Butter By Chiara,Other catering premises,7841,5,,544788,0,,,13/00040/COMM,315,emma.bourne@woking.gov.uk,Woking,http://www.woking.gov.uk,,,2013-04-25,fhrs_5_en-GB,5,,FHRS,0
272072,Kiosk 11 Market Walk Woking Surrey,,,,Breadstall,Other catering premises,7841,5,,720366,5,,,14/00083/COMM,315,emma.bourne@woking.gov.uk,Woking,http://www.woking.gov.uk,,,2014-11-21,fhrs_5_en-GB,5,,FHRS,5
272073,125 Devonshire Avenue Sheerwater Woking Surrey,,,,Broadmere Community Primary School,School/college/university,7845,0,,16174,5,,51.33520400000000,05/20012/COMM,315,emma.bourne@woking.gov.uk,Woking,http://www.woking.gov.uk,-0.52736200000000,GU21 5QE,2014-12-11,fhrs_5_en-GB,5,,FHRS,0
272074,92 Connaught Road Brookwood Woking Surrey,,,,Brookwood & District Club,Pub/bar/nightclub,7843,,,16309,,,51.30453300000000,05/36159/COMM,315,emma.bourne@woking.gov.uk,Woking,http://www.woking.gov.uk,-0.63595200000000,GU24 0HJ,2014-02-20,fhrs_exempt_en-GB,Exempt,,FHRS,
272075,Kiosk At Brookwood Station R O 63-67 Connaught Road Brookwood Woking Surrey,,,,Brookwood Express,Retailers - other,4613,0,,534912,0,,51.30384900000000,13/00026/COMM,315,emma.bourne@woking.gov.uk,Woking,http://www.woking.gov.uk,-0.63670400000000,GU24 0ER,2013-03-25,fhrs_5_en-GB,5,,FHRS,0
272076,158 Connaught Road Brookwood Woking Surrey,,,,Brookwood Memorial Hall,Pub/bar/nightclub,7843,,,147996,,,51.30484000000000,92/36225/COMM,315,emma.bourne@woking.gov.uk,Woking,http://www.woking.gov.uk,-0.64149500000000,GU24 0AL,2014-08-28,fhrs_exempt_en-GB,Exempt,,FHRS,
272077,Brookwood Primary School Connaught Road Brookwood Woking Surrey,,,,Brookwood Primary School,School/college/university,7845,0,,16316,0,,51.30480000000000,05/36382/COMM,315,emma.bourne@woking.gov.uk,Woking,http://www.woking.gov.uk,-0.63339100000000,GU24 0HF,2012-11-16,fhrs_5_en-GB,5,,FHRS,5
272078,Pavilion Sheets Heath Brookwood Woking Surrey,,,,Brookwood Rec. Pavilion,Other catering premises,7841,,,582807,,,51.30885900000000,05/02899/COMM,315,emma.bourne@woking.gov.uk,Woking,http://www.woking.gov.uk,-0.63758900000000,GU24 0EP,2014-01-15,fhrs_exempt_en-GB,Exempt,,FHRS,
272079,Kiosk 5 Level 1 Peacocks Centre Victoria Way Woking Surrey,,,,Bubble Ci Tea,Restaurant/Cafe/Canteen,1,5,,733749,5,,51.31985000000000,15/00008/COMM,315,emma.bourne@woking.gov.uk,Woking,http://www.woking.gov.uk,-0.56186500000000,GU21 6GB,2015-01-28,fhrs_5_en-GB,5,,FHRS,0
272080,1 Chertsey Road Woking Surrey,,,,Budgens,Retailers - other,4613,10,,150364,10,,51.31951900000000,98/45495/COMM,315,emma.bourne@woking.gov.uk,Woking,http://www.woking.gov.uk,-0.55682400000000,GU21 5AB,2013-03-25,fhrs_3_en-GB,3,,FHRS,10
272081,Budgens Unit 3 Vanners Parade High Road Byfleet West Byfleet Surrey,,,,Budgens,Retailers - other,4613,5,,188825,0,,51.33782500000000,11/00111/COMM,315,emma.bourne@woking.gov.uk,Woking,http://www.woking.gov.uk,-0.47296800000000,KT14 7RA,2013-11-14,fhrs_5_en-GB,5,,FHRS,0
272082,BULGOGI LTD Winton House Wintonlea Monument Way West Woking Surrey,,,,Bulgogi Korean Restaurant,Mobile caterer,7846,5,,544785,5,,51.32696200000000,12/00004/COMM,315,emma.bourne@woking.gov.uk,Woking,http://www.woking.gov.uk,-0.54569700000000,GU21 5EN,2014-11-27,fhrs_5_en-GB,5,,FHRS,5
272083,Burbank Wych Hill Woking Surrey,,,,Burbank Childrens Home,Hospitals/Childcare/Caring Premises,5,0,,8037,0,,51.30966200000000,03/08638/COMM,315,emma.bourne@woking.gov.uk,Woking,http://www.woking.gov.uk,-0.57364700000000,GU22 0EX,2014-08-20,fhrs_5_en-GB,5,,FHRS,0
272084,Burger King Unit 27 Middle Concourse Peacocks Centre Victoria Way Woking Surrey,,,,Burger King,Restaurant/Cafe/Canteen,1,0,,15773,0,,51.31985100000000,05/01563/COMM,315,emma.bourne@woking.gov.uk,Woking,http://www.woking.gov.uk,-0.56186500000000,GU21 6GB,2014-11-20,fhrs_5_en-GB,5,,FHRS,0
272085,Market Market Square Woking Surrey,,,,Burger Van,Mobile caterer,7846,5,,480641,5,,,12/00083/COMM,315,emma.bourne@woking.gov.uk,Woking,http://www.woking.gov.uk,,,2014-06-05,fhrs_5_en-GB,5,,FHRS,5
272086,Hall St Lukes House 50 Cavell Way Knaphill Woking Surrey,,,,Busy Bees Nursery,Other catering premises,7841,0,,47082,0,,51.31250200000000,11/00103/COMM,315,emma.bourne@woking.gov.uk,Woking,http://www.woking.gov.uk,-0.62003300000000,GU21 2TJ,2014-09-11,fhrs_5_en-GB,5,,FHRS,0
272087,Byfleet Recreation Ground Stream Close Byfleet West Byfleet Surrey,,,,Byfleet Bowling Club,Pub/bar/nightclub,7843,0,,16287,0,,51.33871000000000,05/33531/COMM,315,emma.bourne@woking.gov.uk,Woking,http://www.woking.gov.uk,-0.47947100000000,KT14 7LZ,2014-06-09,fhrs_5_en-GB,5,,FHRS,0
272088,Pavilion At Sports Ground Parvis Road Byfleet West Byfleet Surrey,,,,Byfleet Cricket Club,Pub/bar/nightclub,7843,0,,16294,0,,51.33936100000000,05/34261/COMM,315,emma.bourne@woking.gov.uk,Woking,http://www.woking.gov.uk,-0.49094900000000,,2012-09-06,fhrs_5_en-GB,5,,FHRS,0
272089,Byfleet County Primary School Kings Head Lane Byfleet Surrey,,,,Byfleet Primary School,School/college/university,7845,10,,16296,5,,51.34382000000000,05/34461/COMM,315,emma.bourne@woking.gov.uk,Woking,http://www.woking.gov.uk,-0.48244700000000,KT14 7AT,2014-12-08,fhrs_4_en-GB,4,,FHRS,0
272090,Stoop Court Leisure Lane West Byfleet Surrey,,,,Byfleet United Charity,Hospitals/Childcare/Caring Premises,5,0,,15795,5,,51.34149000000000,05/02482/COMM,315,emma.bourne@woking.gov.uk,Woking,http://www.woking.gov.uk,-0.49910600000000,KT14 6HF,2013-07-01,fhrs_5_en-GB,5,,FHRS,0
272091,Byfleet Village Hall 54 High Road Byfleet West Byfleet Surrey,,,,Byfleet Village Hall,Other catering premises,7841,5,,16298,5,,51.33875100000000,05/34556/COMM,315,emma.bourne@woking.gov.uk,Woking,http://www.woking.gov.uk,-0.47705800000000,KT14 7QL,2014-01-21,fhrs_5_en-GB,5,,FHRS,5
272092,A1 & B1 Wolsey Walk Woking Surrey,,,,Cafe Americano   Santa Fe Coffee Company,Restaurant/Cafe/Canteen,1,5,,8016,5,,51.31855500000000,03/08473/COMM,315,emma.bourne@woking.gov.uk,Woking,http://www.woking.gov.uk,-0.55963800000000,GU21 6XU,2015-01-23,fhrs_5_en-GB,5,,FHRS,5
272093,Worplesdon Station Prey Heath Road Mayford Woking Surrey,,,,Cafe Bach,Other catering premises,7841,0,,21293,0,,,07/00006/COMM,315,emma.bourne@woking.gov.uk,Woking,http://www.woking.gov.uk,,,2013-07-02,fhrs_5_en-GB,5,,FHRS,0
272094,14 The Broadway Woking Surrey,,,,Cafe Class,Restaurant/Cafe/Canteen,1,5,,623158,5,,51.31950500000000,13/00114/COMM,315,emma.bourne@woking.gov.uk,Woking,http://www.woking.gov.uk,-0.55573400000000,GU21 5AP,2015-01-30,fhrs_5_en-GB,5,,FHRS,5
272095,9 Goldsworth Road Woking Surrey,,,,Cafe Lisboa,Restaurant/Cafe/Canteen,1,5,,46519,0,,51.31759900000000,11/00070/COMM,315,emma.bourne@woking.gov.uk,Woking,http://www.woking.gov.uk,-0.56308300000000,GU21 6JY,2014-08-21,fhrs_5_en-GB,5,,FHRS,0
272096,88 High Street Horsell Woking Surrey,,,,Cafe Primo,Restaurant/Cafe/Canteen,1,5,,28469,5,,51.32405400000000,09/00002/COMM,315,emma.bourne@woking.gov.uk,Woking,http://www.woking.gov.uk,-0.57542500000000,GU21 4SZ,2015-01-21,fhrs_5_en-GB,5,,FHRS,5
272097,Gloucester Chambers Town Square Woking Surrey,,,,Cafe Rouge,Restaurant/Cafe/Canteen,1,0,,409306,0,,51.32028300000000,12/00043/COMM,315,emma.bourne@woking.gov.uk,Woking,http://www.woking.gov.uk,-0.55903900000000,GU21 6GA,2014-06-04,fhrs_5_en-GB,5,,FHRS,0
272098,,,,,Cafe2u Guildford,Mobile caterer,7846,5,,672065,5,,,14/00016/COMM,315,emma.bourne@woking.gov.uk,Woking,http://www.woking.gov.uk,,,2014-03-07,fhrs_5_en-GB,5,,FHRS,0
272099,63 Commercial Way Woking Surrey,,,,Caffe Nero,Restaurant/Cafe/Canteen,1,0,,21434,0,,51.31978800000000,07/00022/COMM,315,emma.bourne@woking.gov.uk,Woking,http://www.woking.gov.uk,-0.55753300000000,GU21 6HN,2014-03-18,fhrs_5_en-GB,5,,FHRS,5
272100,Calogero Bellanca 21 Lake Close Byfleet West Byfleet Surrey,,,,Calogero Bellanca,Mobile caterer,7846,5,,16295,5,,51.34075900000000,05/34443/COMM,315,emma.bourne@woking.gov.uk,Woking,http://www.woking.gov.uk,-0.48078200000000,KT14 7AE,2015-01-20,fhrs_5_en-GB,5,,FHRS,0
272101,St Peters Church Church Street Old Woking Woking Surrey,,,,Cameo Lunch Club,Restaurant/Cafe/Canteen,1,5,,409303,0,,51.30184936523438,12/00038/COMM,315,emma.bourne@woking.gov.uk,Woking,http://www.woking.gov.uk,-0.53718036413193,GU22 9JF,2013-10-10,fhrs_5_en-GB,5,,FHRS,0
272102,10 Camphill Road West Byfleet Surrey,,,,Camphill Club,Pub/bar/nightclub,7843,5,,16234,5,,51.34044300000000,05/26692/COMM,315,emma.bourne@woking.gov.uk,Woking,http://www.woking.gov.uk,-0.50089200000000,KT14 6EF,2013-10-17,fhrs_5_en-GB,5,,FHRS,5
272103,,,,,Canalbank Bakery,Other catering premises,7841,5,,480639,0,,,12/00080/COMM,315,emma.bourne@woking.gov.uk,Woking,http://www.woking.gov.uk,,,2012-10-11,fhrs_5_en-GB,5,,FHRS,0
272104,Unit 23 Middle Concourse Peacocks Centre Victoria Way Woking Surrey,,,,Candy USA,Retailers - other,4613,5,,638703,5,,51.31985100000000,14/00009/COMM,315,emma.bourne@woking.gov.uk,Woking,http://www.woking.gov.uk,-0.56186500000000,GU21 6GB,2014-02-26,fhrs_5_en-GB,5,,FHRS,0
272105,10 Anchor Crescent Knaphill Woking Surrey,,,,Canton Chinese Takeaway,Takeaway/sandwich shop,7844,10,,150362,5,,51.31849400000000,98/32054/COMM,315,emma.bourne@woking.gov.uk,Woking,http://www.woking.gov.uk,-0.61569200000000,GU21 2PD,2014-06-25,fhrs_4_en-GB,4,,FHRS,5
272106,94 High Road Byfleet West Byfleet Surrey,,,,Capital Cafe,Restaurant/Cafe/Canteen,1,10,,21389,5,,51.33881800000000,07/00016/COMM,315,emma.bourne@woking.gov.uk,Woking,http://www.woking.gov.uk,-0.47461500000000,KT14 7QT,2014-10-28,fhrs_4_en-GB,4,,FHRS,5
272107,Carluccios 53 - 55 Commercial Way Woking Surrey,,,,Carluccio's,Restaurant/Cafe/Canteen,1,5,,715372,0,,51.31968400000000,14/00075/COMM,315,emma.bourne@woking.gov.uk,Woking,http://www.woking.gov.uk,-0.55783800000000,GU21 6HN,2014-11-06,fhrs_5_en-GB,5,,FHRS,0
272108,23 Station Approach West Byfleet Surrey,,,,Carmel Snow,Other catering premises,7841,5,,409292,0,,51.33896400000000,12/00023/COMM,315,emma.bourne@woking.gov.uk,Woking,http://www.woking.gov.uk,-0.50544800000000,KT14 6NF,2012-04-03,fhrs_5_en-GB,5,,FHRS,0
272109,Kitterick Shaftesbury Road Woking Surrey,,,,Carols Day Nursery,School/college/university,7845,0,,147989,0,,51.31844700000000,92/09024/COMM,315,emma.bourne@woking.gov.uk,Woking,http://www.woking.gov.uk,-0.54147400000000,GU22 7DU,2015-01-30,fhrs_5_en-GB,5,,FHRS,0
272110,3 Church Path Woking Surrey,,,,Cellar Magneval Wine Bar,Restaurant/Cafe/Canteen,1,5,,615855,5,,51.31911500000000,13/00108/COMM,315,emma.bourne@woking.gov.uk,Woking,http://www.woking.gov.uk,-0.55762600000000,GU21 6EJ,2013-11-28,fhrs_5_en-GB,5,,FHRS,5
272111,,,,,C'est Chic,Other catering premises,7841,5,,563920,0,,,13/00061/COMM,315,emma.bourne@woking.gov.uk,Woking,http://www.woking.gov.uk,,,2013-06-28,fhrs_5_en-GB,5,,FHRS,0
272112,Chameleon Bar Big Apple Chertsey Road Woking Surrey,,,,Chameleon Bar,Other catering premises,7841,,,582810,,,51.32016100000000,05/08416/COMM,315,emma.bourne@woking.gov.uk,Woking,http://www.woking.gov.uk,-0.55567000000000,GU21 5AJ,2013-03-27,fhrs_exempt_en-GB,Exempt,,FHRS,
272113,24 High Street Knaphill Woking Surrey,,,,Charcoal Grill,Takeaway/sandwich shop,7844,5,,409295,5,,51.31832100000000,12/00028/COMM,315,emma.bourne@woking.gov.uk,Woking,http://www.woking.gov.uk,-0.61625700000000,GU21 2PE,2013-09-17,fhrs_5_en-GB,5,,FHRS,5
272114,Charlie Choys Unit 7 To 9 Centrium Station Approach Woking Surrey,,,,Charlie Choys & Lotus Lounge,Restaurant/Cafe/Canteen,1,0,,28534,5,,51.31706200000000,09/00006/COMM,315,emma.bourne@woking.gov.uk,Woking,http://www.woking.gov.uk,-0.55883800000000,GU22 7PA,2013-12-18,fhrs_5_en-GB,5,,FHRS,5
272115,Halstead School Woodham Rise Horsell Woking Surrey,,,,Chartwells  Halstead School,School/college/university,7845,0,,15922,5,,51.32976200000000,05/06576/COMM,315,emma.bourne@woking.gov.uk,Woking,http://www.woking.gov.uk,-0.55178000000000,GU21 4EE,2014-06-27,fhrs_5_en-GB,5,,FHRS,0
272116,Kiosk 7 Market Walk Woking Surrey,,,,Cheese & Olives Limited,Retailers - other,4613,5,,720364,5,,,14/00081/COMM,315,emma.bourne@woking.gov.uk,Woking,http://www.woking.gov.uk,,,2014-11-21,fhrs_5_en-GB,5,,FHRS,5
272117,Cherrytrees 15 - 17 Claremont Avenue Woking Surrey,,,,Cherrytrees,Hospitals/Childcare/Caring Premises,5,0,,16185,0,,51.30922500000000,05/20962/COMM,315,emma.bourne@woking.gov.uk,Woking,http://www.woking.gov.uk,-0.56143700000000,GU22 7SF,2014-07-30,fhrs_5_en-GB,5,,FHRS,0
272118,Chickedee Unit 18 Middle Concourse Peacocks Centre Victoria Way Woking Surrey,,,,Chickidee,Retailers - other,4613,,,582876,,,51.31985100000000,13/00005/COMM,315,emma.bourne@woking.gov.uk,Woking,http://www.woking.gov.uk,-0.56186500000000,GU21 6GB,2013-01-16,fhrs_exempt_en-GB,Exempt,,FHRS,
272119,58 Chertsey Road Woking Surrey,,,,Chilli Grill,Takeaway/sandwich shop,7844,10,,13331,5,,51.32130000000000,04/21299/COMM,315,emma.bourne@woking.gov.uk,Woking,http://www.woking.gov.uk,-0.55539000000000,GU21 5BG,2014-04-17,fhrs_4_en-GB,4,,FHRS,5
272120,72 High Road Byfleet West Byfleet Surrey,,,,China Chef,Takeaway/sandwich shop,7844,5,,445047,0,,51.33875100000000,05/34572/COMM,315,emma.bourne@woking.gov.uk,Woking,http://www.woking.gov.uk,-0.47705800000000,KT14 7QL,2013-10-30,fhrs_5_en-GB,5,,FHRS,5
272121,Unit 2 Maple Court 94 High Street Horsell Woking Surrey,,,,China Chef,Takeaway/sandwich shop,7844,5,,16279,5,,51.32362800000000,05/33116/COMM,315,emma.bourne@woking.gov.uk,Woking,http://www.woking.gov.uk,-0.57439100000000,GU21 4SX,2014-10-15,fhrs_5_en-GB,5,,FHRS,0
272122,15 The Broadway Woking Surrey,,,,China Dragon,Restaurant/Cafe/Canteen,1,5,,33175,5,,51.31954000000000,10/00029/COMM,315,emma.bourne@woking.gov.uk,Woking,http://www.woking.gov.uk,-0.55563200000000,GU21 5AP,2013-07-31,fhrs_5_en-GB,5,,FHRS,5
272123,Chobham Golf Club Chobham Road Knaphill Woking Surrey,,,,Chobham Golf Club,Restaurant/Cafe/Canteen,1,5,,149069,0,,51.32969000000000,95/31447/COMM,315,emma.bourne@woking.gov.uk,Woking,http://www.woking.gov.uk,-0.61496700000000,GU21 2TZ,2014-07-03,fhrs_5_en-GB,5,,FHRS,5
272124,Unit F3 Lower Concourse Peacocks Centre Victoria Way Woking Surrey,,,,Chopstix Noodle Bar,Restaurant/Cafe/Canteen,1,5,,638705,5,,51.31985100000000,14/00011/COMM,315,emma.bourne@woking.gov.uk,Woking,http://www.woking.gov.uk,-0.56186500000000,GU21 6GB,2014-02-27,fhrs_5_en-GB,5,,FHRS,0
272125,31 Claremont Avenue Woking Surrey,,,,Christopher Robin Nursery,School/college/university,7845,5,,16186,5,,51.30937900000000,05/20991/COMM,315,emma.bourne@woking.gov.uk,Woking,http://www.woking.gov.uk,-0.56148900000000,GU22 7SF,2014-10-14,fhrs_5_en-GB,5,,FHRS,0
272126,63 Old Woking Road West Byfleet Surrey,,,,Chu Chin Chow,Restaurant/Cafe/Canteen,1,5,,16229,5,,51.33651900000000,05/26137/COMM,315,emma.bourne@woking.gov.uk,Woking,http://www.woking.gov.uk,-0.50555700000000,KT14 6LF,2014-11-18,fhrs_4_en-GB,4,,FHRS,10
272127,Church Of The Good Shepherd Coldharbour Road Woking Surrey,,,,Church Of Good Shepherd,Other catering premises,7841,5,,149068,5,,51.32504600000000,95/28595/COMM,315,emma.bourne@woking.gov.uk,Woking,http://www.woking.gov.uk,-0.51058000000000,GU22 8SP,2013-01-16,fhrs_5_en-GB,5,,FHRS,0
272128,127 Princess Road Maybury Woking Surrey,,,,Chutneys,Takeaway/sandwich shop,7844,10,,13227,5,,51.32426200000000,04/10814/COMM,315,emma.bourne@woking.gov.uk,Woking,http://www.woking.gov.uk,-0.53259200000000,GU22 8ER,2014-12-22,fhrs_4_en-GB,4,,FHRS,5
272129,6 Knap Court 6 - 8 Lower Guildford Road Knaphill Woking Surrey,,,,Cinaroll Ltd,Mobile caterer,7846,5,,492870,5,,51.31891600000000,12/00098/COMM,315,emma.bourne@woking.gov.uk,Woking,http://www.woking.gov.uk,-0.61486100000000,GU21 2ER,2012-12-07,fhrs_5_en-GB,5,,FHRS,5
272130,3 The Shops Kingfield Road Kingfield Woking Surrey,,,,Cinnamon,Takeaway/sandwich shop,7844,5,,534911,5,,51.30404500000000,13/00019/COMM,315,emma.bourne@woking.gov.uk,Woking,http://www.woking.gov.uk,-0.55185800000000,GU22 9EH,2015-02-02,fhrs_5_en-GB,5,,FHRS,5
272131,175 - 177 Walton Road Woking Surrey,,,,Cipullo Ltd - Family Fare Stores,Retailers - other,4613,0,,15957,0,,51.32436400000000,05/07645/COMM,315,emma.bourne@woking.gov.uk,Woking,http://www.woking.gov.uk,-0.54720000000000,GU21 5DX,2014-09-03,fhrs_5_en-GB,5,,FHRS,0
272132,Unit 31 Upper Concourse  Peacocks Centre Victoria Way Woking Surrey,,,,Claires Accessories,Retailers - other,4613,,,582805,,,51.31985100000000,05/01793/COMM,315,emma.bourne@woking.gov.uk,Woking,http://www.woking.gov.uk,-0.56186500000000,GU21 6GB,2011-10-04,fhrs_exempt_en-GB,Exempt,,FHRS,
272133,6 Victoria Road Knaphill Woking Surrey,,,,Clara's Caribbean Kitchen,Other catering premises,7841,5,,16245,5,,51.31746400000000,05/29161/COMM,315,emma.bourne@woking.gov.uk,Woking,http://www.woking.gov.uk,-0.61077200000000,GU21 2AH,2012-11-07,fhrs_5_en-GB,5,,FHRS,5
272134,Clevelands 78 Woodham Road Horsell Woking Surrey,,,,Clevelands,Hotel/bed & breakfast/guest house,7842,0,,15994,0,,51.33103600000000,05/08364/COMM,315,emma.bourne@woking.gov.uk,Woking,http://www.woking.gov.uk,-0.55083600000000,GU21 4EH,2014-12-08,fhrs_5_en-GB,5,,FHRS,0
272135,Unit 45 Upper Concourse  Peacocks Centre Victoria Way Woking Surrey,,,,Clinton Cards Plc,Retailers - other,4613,,,582806,,,51.31985100000000,05/01810/COMM,315,emma.bourne@woking.gov.uk,Woking,http://www.woking.gov.uk,-0.56186500000000,GU21 6GB,2011-10-04,fhrs_exempt_en-GB,Exempt,,FHRS,
272136,89 Sandy Lane Maybury Woking Surrey,,,,Coco Clavels,Other catering premises,7841,5,,409291,5,,51.31830700000000,12/00014/COMM,315,emma.bourne@woking.gov.uk,Woking,http://www.woking.gov.uk,-0.53741800000000,GU22 8BG,2012-03-07,fhrs_5_en-GB,5,,FHRS,0
272137,Combe House Castle Road Horsell Woking Surrey,,,,Combe House Res Home,Hospitals/Childcare/Caring Premises,5,5,,13332,0,,51.33189900000000,04/21545/COMM,315,emma.bourne@woking.gov.uk,Woking,http://www.woking.gov.uk,-0.55518700000000,GU21 4ET,2015-01-12,fhrs_5_en-GB,5,,FHRS,0
272138,St Marys Day Centre Stream Close Byfleet West Byfleet Surrey,,,,Community Meals Service - St Marys Day Centre,Restaurant/Cafe/Canteen,1,0,,16286,5,,51.33871000000000,05/33529/COMM,315,emma.bourne@woking.gov.uk,Woking,http://www.woking.gov.uk,-0.47947100000000,KT14 7LZ,2013-11-21,fhrs_5_en-GB,5,,FHRS,5
272139,Meals Service Brockhill Clifton Way Woking Surrey,,,,Community Meals Woking Borough Council,Other catering premises,7841,0,,14501,0,,51.31871900000000,05/00011/COMM,315,emma.bourne@woking.gov.uk,Woking,http://www.woking.gov.uk,-0.59387300000000,GU21 3NE,2014-03-13,fhrs_5_en-GB,5,,FHRS,0
272140,,,,,Coolercans Limited,Other catering premises,7841,0,,47292,0,,,11/00121/COMM,315,emma.bourne@woking.gov.uk,Woking,http://www.woking.gov.uk,,,2014-09-15,fhrs_5_en-GB,5,,FHRS,0
272141,Units 1-4 Edbrooke House 11 - 13 St Johns Road St Johns Woking Surrey,,,,Co-op,Retailers - other,4613,0,,15833,5,,51.31241400000000,05/03192/COMM,315,emma.bourne@woking.gov.uk,Woking,http://www.woking.gov.uk,-0.59521300000000,GU21 7SE,2012-01-12,fhrs_5_en-GB,5,,FHRS,5
272142,1-3 Inkerman Parade Victoria Road Knaphill Woking Surrey,,,,Co-op Foodmarket,Retailers - supermarkets/hypermarkets,7840,0,,16247,0,,51.31616900000000,05/29250/COMM,315,emma.bourne@woking.gov.uk,Woking,http://www.woking.gov.uk,-0.60766900000000,GU21 2AW,2014-06-23,fhrs_5_en-GB,5,,FHRS,0
272143,26 - 30 High Street Knaphill Woking Surrey,,,,Co-op Stores,Retailers - other,4613,0,,16256,0,,51.31807800000000,05/30131/COMM,315,emma.bourne@woking.gov.uk,Woking,http://www.woking.gov.uk,-0.61777100000000,GU21 2PP,2014-10-28,fhrs_5_en-GB,5,,FHRS,0
272144,1-2 Marshall Parade Coldharbour Road Woking Surrey,,,,Co-op Welcome,Hotel/bed & breakfast/guest house,7842,0,,2915,0,,51.32674700000000,01/28575/COMM,315,emma.bourne@woking.gov.uk,Woking,http://www.woking.gov.uk,-0.51145700000000,GU22 8SW,2014-10-30,fhrs_5_en-GB,5,,FHRS,0
272145,Unit 2-3 Cobb House 2 - 4 Oyster Lane Byfleet West Byfleet Surrey,,,,Co-operative Store,Retailers - other,4613,0,,16290,0,,51.33903100000000,05/34060/COMM,315,emma.bourne@woking.gov.uk,Woking,http://www.woking.gov.uk,-0.47370300000000,KT14 7DU,2013-09-03,fhrs_5_en-GB,5,,FHRS,5
272146,42 Station Approach West Byfleet Surrey,,,,Coral Racing,Retailers - other,4613,,,607989,,,51.33863800000000,08/00004/COMM,315,emma.bourne@woking.gov.uk,Woking,http://www.woking.gov.uk,-0.50604800000000,KT14 6NE,2013-10-15,fhrs_exempt_en-GB,Exempt,,FHRS,
272147,29 Station Approach West Byfleet Surrey,,,,Corkers,Pub/bar/nightclub,7843,10,,16327,10,,51.33896400000000,05/41789/COMM,315,emma.bourne@woking.gov.uk,Woking,http://www.woking.gov.uk,-0.50544800000000,KT14 6NF,2014-03-18,fhrs_3_en-GB,3,,FHRS,10
272148,,,,,Cornika Limited,Mobile caterer,7846,0,,409293,0,,,12/00026/COMM,315,emma.bourne@woking.gov.uk,Woking,http://www.woking.gov.uk,,,2012-04-17,fhrs_5_en-GB,5,,FHRS,0
272149,16 Chertsey Road Woking Surrey,,,,Cost Cutter,Retailers - other,4613,5,,45771,5,,51.31951900000000,11/00026/COMM,315,emma.bourne@woking.gov.uk,Woking,http://www.woking.gov.uk,-0.55682400000000,GU21 5AB,2012-08-09,fhrs_5_en-GB,5,,FHRS,5
272150,Costcutter Stores 2 - 6 Gorsewood Road St Johns Woking Surrey,,,,Cost Cutter,Retailers - other,4613,,,16158,,,51.30805900000000,05/18198/COMM,315,emma.bourne@woking.gov.uk,Woking,http://www.woking.gov.uk,-0.60778500000000,GU21 8UX,2014-07-23,fhrs_exempt_en-GB,Exempt,,FHRS,
272151,Costa Unit 7 Lion Retail Park 151 Oriental Road Woking Surrey,,,,Costa,Restaurant/Cafe/Canteen,1,0,,688748,0,,51.32336800000000,14/00035/COMM,315,emma.bourne@woking.gov.uk,Woking,http://www.woking.gov.uk,-0.54304000000000,GU22 8BD,2014-06-25,fhrs_5_en-GB,5,,FHRS,0
272152,Debenhams Major Store Upper Concourse Peacocks Centre Victoria Way Woking Surrey,,,,Costa At Debenhams,Restaurant/Cafe/Canteen,1,0,,688758,0,,51.31985100000000,14/00046/COMM,315,emma.bourne@woking.gov.uk,Woking,http://www.woking.gov.uk,-0.56186500000000,GU21 6GB,2014-07-29,fhrs_5_en-GB,5,,FHRS,0
272153,13 Station Approach West Byfleet Surrey,,,,Costa Coffee Ltd,Restaurant/Cafe/Canteen,1,0,,45502,0,,51.33838200000000,11/00011/COMM,315,emma.bourne@woking.gov.uk,Woking,http://www.woking.gov.uk,-0.50496500000000,KT14 6NG,2013-04-09,fhrs_5_en-GB,5,,FHRS,0
272154,Unit 54 Upper Concourse  Peacocks Centre Victoria Way Woking Surrey,,,,Costa Coffee Ltd,Restaurant/Cafe/Canteen,1,0,,21777,0,,51.31985100000000,07/00066/COMM,315,emma.bourne@woking.gov.uk,Woking,http://www.woking.gov.uk,-0.56186500000000,GU21 6GB,2014-03-18,fhrs_5_en-GB,5,,FHRS,0
272155,13 - 15 Guildford Road Woking Surrey,,,,Costcutter,Retailers - supermarkets/hypermarkets,7840,20,,615852,5,,51.31644300000000,13/00100/COMM,315,emma.bourne@woking.gov.uk,Woking,http://www.woking.gov.uk,-0.55970400000000,GU22 7PX,2013-11-05,fhrs_1_en-GB,1,,FHRS,5
272156,Coxhill Manor Nursing Home Station Road Chobham Woking Surrey,,,,Coxhill Manor Nursing Home,Hospitals/Childcare/Caring Premises,5,0,,16277,5,,51.33756900000000,05/32810/COMM,315,emma.bourne@woking.gov.uk,Woking,http://www.woking.gov.uk,-0.58801300000000,GU24 8AS,2014-01-15,fhrs_5_en-GB,5,,FHRS,5
272157,Crann Mor 151 Old Woking Road Woking Surrey,,,,Crann-Mor Nursing Home,Hospitals/Childcare/Caring Premises,5,0,,16232,5,,51.32815600000000,05/26209/COMM,315,emma.bourne@woking.gov.uk,Woking,http://www.woking.gov.uk,-0.51830100000000,GU22 8PD,2013-11-12,fhrs_5_en-GB,5,,FHRS,5
272158,Cranstock Day Centre Hermitage Road St Johns Woking Surrey,,,,Cranstock Day Centre,Hospitals/Childcare/Caring Premises,5,5,,148304,5,,51.31272100000000,93/23461/COMM,315,emma.bourne@woking.gov.uk,Woking,http://www.woking.gov.uk,-0.59831800000000,GU21 8UA,2013-01-31,fhrs_5_en-GB,5,,FHRS,5
272159,19 - 21 Chertsey Road Woking Surrey,,,,Creams,Restaurant/Cafe/Canteen,1,5,,480644,5,,51.32016100000000,12/00086/COMM,315,emma.bourne@woking.gov.uk,Woking,http://www.woking.gov.uk,-0.55567000000000,GU21 5AJ,2014-06-04,fhrs_4_en-GB,4,,FHRS,10
272160,The Cricketers Public House Horsell Birch Horsell Woking Surrey,,,,Cricketers Public House,Pub/bar/nightclub,7843,5,,16147,5,,51.32634200000000,05/15840/COMM,315,emma.bourne@woking.gov.uk,Woking,http://www.woking.gov.uk,-0.58314800000000,GU21 4XB,2013-03-15,fhrs_5_en-GB,5,,FHRS,5
272161,Crown And Anchor Public House 100 High Street Old Woking Woking Surrey,,,,Crown & Anchor PH,Pub/bar/nightclub,7843,5,,15896,5,,51.30216000000000,05/05351/COMM,315,emma.bourne@woking.gov.uk,Woking,http://www.woking.gov.uk,-0.54563400000000,GU22 9LN,2013-11-12,fhrs_5_en-GB,5,,FHRS,5
272162,Crown Inn Public House 104 High Street Horsell Woking Surrey,,,,Crown Public House,Other catering premises,7841,5,,534910,5,,51.32350400000000,05/33137/COMM,315,emma.bourne@woking.gov.uk,Woking,http://www.woking.gov.uk,-0.57235700000000,GU21 4ST,2013-03-08,fhrs_4_en-GB,4,,FHRS,10
272163,The Crown Public House 33 High Street Knaphill Woking Surrey,,,,Crown Public House,Pub/bar/nightclub,7843,0,,45602,0,,51.31807800000000,11/00016/COMM,315,emma.bourne@woking.gov.uk,Woking,http://www.woking.gov.uk,-0.61777100000000,GU21 2PP,2014-10-01,fhrs_5_en-GB,5,,FHRS,0
272164,Pavilion 16 Church Road Byfleet West Byfleet Surrey,,,,Cupcake Candies,Other catering premises,7841,5,,638706,5,,51.33658100000000,14/00013/COMM,315,emma.bourne@woking.gov.uk,Woking,http://www.woking.gov.uk,-0.47061200000000,KT14 7EH,2014-03-05,fhrs_5_en-GB,5,,FHRS,5
272165,1 - 3 Oriental Road Woking Surrey,,,,Daily Save,Retailers - other,4613,5,,615853,5,,51.31837700000000,13/00106/COMM,315,emma.bourne@woking.gov.uk,Woking,http://www.woking.gov.uk,-0.55536700000000,GU22 7AH,2013-11-19,fhrs_5_en-GB,5,,FHRS,5
272166,,,,,Daisy Jones Childcare,Other catering premises,7841,5,,582850,0,,,11/00133/COMM,315,emma.bourne@woking.gov.uk,Woking,http://www.woking.gov.uk,,,2013-10-17,fhrs_5_en-GB,5,,FHRS,0
272167,63 Westfield Avenue Westfield Woking Surrey,,,,David Lloyd Leisure,Restaurant/Cafe/Canteen,1,0,,15935,0,,51.30583500000000,05/07196/COMM,315,emma.bourne@woking.gov.uk,Woking,http://www.woking.gov.uk,-0.55775500000000,GU22 9PF,2014-06-24,fhrs_5_en-GB,5,,FHRS,0
272168,Hillersdon Horsell Rise Horsell Woking Surrey,,,,Daydream Nursery,School/college/university,7845,5,,2891,5,,51.32636300000000,01/15588/COMM,315,emma.bourne@woking.gov.uk,Woking,http://www.woking.gov.uk,-0.56347000000000,GU21 4AY,2014-06-24,fhrs_5_en-GB,5,,FHRS,0
272169,Training Centre Gorse Hill Hook Heath Road Woking Surrey,,,,De Verve Venues,Other catering premises,7841,5,,15964,0,,51.30002500000000,05/07755/COMM,315,emma.bourne@woking.gov.uk,Woking,http://www.woking.gov.uk,-0.59989500000000,GU22 0QF,2014-09-23,fhrs_5_en-GB,5,,FHRS,5
272170,"Debenhams, Peacocks Centre Victoria Way Woking Surrey",,,,Debenhams,Restaurant/Cafe/Canteen,1,0,,15789,0,,51.31985100000000,05/01828/COMM,315,emma.bourne@woking.gov.uk,Woking,http://www.woking.gov.uk,-0.56186500000000,GU21 6GB,2014-08-08,fhrs_5_en-GB,5,,FHRS,5
272171,,,,,Defray Chocolate's,Other catering premises,7841,5,,409305,0,,,12/00040/COMM,315,emma.bourne@woking.gov.uk,Woking,http://www.woking.gov.uk,,,2012-06-11,fhrs_5_en-GB,5,,FHRS,0
272172,47 Old Woking Road West Byfleet Surrey,,,,Delight Store,Retailers - other,4613,5,,16227,0,,51.33699500000000,05/26130/COMM,315,emma.bourne@woking.gov.uk,Woking,http://www.woking.gov.uk,-0.50479500000000,KT14 6LG,2013-10-24,fhrs_5_en-GB,5,,FHRS,0
272173,Dianthus Building Wishbone Way Woking Surrey,,,,Dianthus Building,Restaurant/Cafe/Canteen,1,5,,429769,5,,51.32350000000000,12/00057/COMM,315,emma.bourne@woking.gov.uk,Woking,http://www.woking.gov.uk,-0.59434400000000,GU21 3RT,2014-07-30,fhrs_5_en-GB,5,,FHRS,0
272174,Dominoes Pizza 5 - 7 Oriental Road Woking Surrey,,,,Domino Pizza,Takeaway/sandwich shop,7844,0,,13250,0,,51.31837700000000,04/11502/COMM,315,emma.bourne@woking.gov.uk,Woking,http://www.woking.gov.uk,-0.55536700000000,GU22 7AH,2014-11-17,fhrs_5_en-GB,5,,FHRS,0
272175,Dominos Pizza 15 Broadway Knaphill Woking Surrey,,,,Domino's Pizza,Takeaway/sandwich shop,7844,0,,17782,0,,51.31753900000000,06/00031/COMM,315,emma.bourne@woking.gov.uk,Woking,http://www.woking.gov.uk,-0.61783000000000,GU21 2DR,2013-07-18,fhrs_5_en-GB,5,,FHRS,0
272176,50 High Street Knaphill Woking Surrey,,,,Dragon Inn,Takeaway/sandwich shop,7844,5,,16259,10,,51.31769200000000,05/30726/COMM,315,emma.bourne@woking.gov.uk,Woking,http://www.woking.gov.uk,-0.61862900000000,GU21 2PY,2014-03-17,fhrs_4_en-GB,4,,FHRS,5
272177,53 Westfield Road Westfield Woking Surrey,,,,Eastern & Oriental,Restaurant/Cafe/Canteen,1,5,,46410,5,,51.29951300000000,11/00064/COMM,315,emma.bourne@woking.gov.uk,Woking,http://www.woking.gov.uk,-0.56062100000000,GU22 9NQ,2015-01-23,fhrs_5_en-GB,5,,FHRS,5
272178,Unit 66A Lower Concourse Peacocks Centre Victoria Way Woking Surrey,,,,El Mexicana,Restaurant/Cafe/Canteen,1,5,,672071,5,,51.31985100000000,14/00025/COMM,315,emma.bourne@woking.gov.uk,Woking,http://www.woking.gov.uk,-0.56186500000000,GU21 6GB,2014-05-06,fhrs_5_en-GB,5,,FHRS,0
272179,,,,,Elaine Evans,Other catering premises,7841,0,,504681,0,,,13/00009/COMM,315,emma.bourne@woking.gov.uk,Woking,http://www.woking.gov.uk,,,2013-01-23,fhrs_5_en-GB,5,,FHRS,0
272180,Elmbank Rest Home 27 Woodham Road Horsell Woking Surrey,,,,Elmbank Residential Home,Hospitals/Childcare/Caring Premises,5,5,,149974,5,,51.33020000000000,97/08363/COMM,315,emma.bourne@woking.gov.uk,Woking,http://www.woking.gov.uk,-0.55373300000000,GU21 4EN,2014-10-20,fhrs_5_en-GB,5,,FHRS,5
272181,11 Guildford Road Woking Surrey,,,,Enzos Bar Brasserie,Pub/bar/nightclub,7843,5,,16156,5,,51.31613700000000,05/17650/COMM,315,emma.bourne@woking.gov.uk,Woking,http://www.woking.gov.uk,-0.55968500000000,GU22 7PF,2013-09-12,fhrs_5_en-GB,5,,FHRS,0
272182,Filling Station Connaught Garage Bagshot Road Woking Surrey,,,,Esso Garage,Retailers - other,4613,0,,492872,0,,51.30590700000000,13/00003/COMM,315,emma.bourne@woking.gov.uk,Woking,http://www.woking.gov.uk,-0.62739000000000,GU24 0HH,2013-01-03,fhrs_5_en-GB,5,,FHRS,0
272183,Shop   32 Maybury Hill Woking Surrey,,,,Everydays,Retailers - other,4613,,,534913,,,51.32409500000000,13/00027/COMM,315,emma.bourne@woking.gov.uk,Woking,http://www.woking.gov.uk,-0.54151000000000,GU22 8AL,2014-07-09,fhrs_exempt_en-GB,Exempt,,FHRS,
272184,6 Sythwood Woking Surrey,,,,Exotic Home Made Dishes,Other catering premises,7841,,,688753,,,51.32052900000000,14/00041/COMM,315,emma.bourne@woking.gov.uk,Woking,http://www.woking.gov.uk,-0.58133200000000,GU21 3AL,2014-06-11,fhrs_exempt_en-GB,Exempt,,FHRS,
272185,5 Hermitage Road St Johns Woking Surrey,,,,Farm House Pizza,Takeaway/sandwich shop,7844,5,,21874,5,,51.31236300000000,07/00081/COMM,315,emma.bourne@woking.gov.uk,Woking,http://www.woking.gov.uk,-0.59850100000000,GU21 8TE,2014-09-18,fhrs_4_en-GB,4,,FHRS,10
272186,14 High Street Woking Surrey,,,,Farm Pizza And King Kebab,Takeaway/sandwich shop,7844,5,,45801,5,,51.31825100000000,11/00028/COMM,315,emma.bourne@woking.gov.uk,Woking,http://www.woking.gov.uk,-0.55900200000000,GU21 6BW,2014-11-05,fhrs_5_en-GB,5,,FHRS,5
272187,19 Kingsway Woking Surrey,,,,Fenton House (B & B),Hotel/bed & breakfast/guest house,7842,5,,16129,5,,51.31667700000000,05/14752/COMM,315,emma.bourne@woking.gov.uk,Woking,http://www.woking.gov.uk,-0.56856500000000,GU21 6NU,2013-10-22,fhrs_5_en-GB,5,,FHRS,0
272188,11 Manor Way Old Woking Woking Surrey,,,,Finger Foods,Manufacturers/packers,7839,0,,534919,0,,51.30327100000000,13/00036/COMM,315,emma.bourne@woking.gov.uk,Woking,http://www.woking.gov.uk,-0.54093700000000,GU22 9JX,2013-04-04,fhrs_5_en-GB,5,,FHRS,0
272189,Unit 6-8 Monument Way East Woking Surrey,,,,Fiona Blanchard Catering Services,Mobile caterer,7846,0,,555324,0,,51.32725000000000,07/00033/COMM,315,emma.bourne@woking.gov.uk,Woking,http://www.woking.gov.uk,-0.54063500000000,GU21 5LY,2014-08-28,fhrs_5_en-GB,5,,FHRS,0
272190,62 High Road Byfleet West Byfleet Surrey,,,,Flame Kebab And Pizza,Takeaway/sandwich shop,7844,5,,8015,5,,51.33875100000000,03/08449/COMM,315,emma.bourne@woking.gov.uk,Woking,http://www.woking.gov.uk,-0.47705800000000,KT14 7QL,2013-11-22,fhrs_5_en-GB,5,,FHRS,5
272191,,,,,Flapping Jacks,Mobile caterer,7846,0,,32821,0,,,10/00007/COMM,315,emma.bourne@woking.gov.uk,Woking,http://www.woking.gov.uk,,,2012-03-29,fhrs_5_en-GB,5,,FHRS,5
272192,Woking Railway Station Station Approach Woking Surrey,,,,Flying Coffee Beans,Restaurant/Cafe/Canteen,1,5,,504678,10,,51.31807800000000,13/00004/COMM,315,emma.bourne@woking.gov.uk,Woking,http://www.woking.gov.uk,-0.55741400000000,GU22 7AE,2014-11-17,fhrs_4_en-GB,4,,FHRS,5
272193,24 Ash Road Woking Surrey,,,,Food Stop,Takeaway/sandwich shop,7844,5,,46764,5,,51.30545500000000,11/00084/COMM,315,emma.bourne@woking.gov.uk,Woking,http://www.woking.gov.uk,-0.56565800000000,GU22 0BH,2014-06-11,fhrs_5_en-GB,5,,FHRS,5
272194,17 - 19 Broadway Knaphill Woking Surrey,,,,Forbidden City,Restaurant/Cafe/Canteen,1,10,,21677,10,,51.31753900000000,07/00051/COMM,315,emma.bourne@woking.gov.uk,Woking,http://www.woking.gov.uk,-0.61783000000000,GU21 2DR,2013-11-07,fhrs_3_en-GB,3,,FHRS,10
272195,Fordwater Pond Road Woking Surrey,,,,Fordwater Bed And Breakfast,Other catering premises,7841,5,,480646,5,,51.30794300000000,12/00090/COMM,315,emma.bourne@woking.gov.uk,Woking,http://www.woking.gov.uk,-0.59205000000000,GU22 0JZ,2012-11-27,fhrs_5_en-GB,5,,FHRS,0
272196,Church Hall  St Peters Church Church Street Old Woking Woking Surrey,,,,Foundations Community Pre School Ltd,Other catering premises,7841,0,,47363,0,,51.30184936523438,11/00127/COMM,315,emma.bourne@woking.gov.uk,Woking,http://www.woking.gov.uk,-0.53718036413193,GU22 9JF,2013-10-10,fhrs_5_en-GB,5,,FHRS,0
272197,New Life Church High Street Old Woking Woking Surrey,,,,Foundations Community Pre-School Ltd,Other catering premises,7841,,,720363,,,51.30273500000000,14/00080/COMM,315,emma.bourne@woking.gov.uk,Woking,http://www.woking.gov.uk,-0.55142600000000,GU22 9BX,2014-11-19,fhrs_exempt_en-GB,Exempt,,FHRS,
272198,166 High Road Byfleet West Byfleet Surrey,,,,Four Seasons,Takeaway/sandwich shop,7844,10,,46291,10,,51.33804600000000,11/00057/COMM,315,emma.bourne@woking.gov.uk,Woking,http://www.woking.gov.uk,-0.47060600000000,KT14 7RG,2013-11-28,fhrs_2_en-GB,2,,FHRS,15
272199,The Fox And Flowerpot Ph Goldsworth Park Centre Woking Surrey,,,,Fox & Flowerpot PH,Pub/bar/nightclub,7843,10,,16176,10,,51.31885300000000,05/20040/COMM,315,emma.bourne@woking.gov.uk,Woking,http://www.woking.gov.uk,-0.59072600000000,GU21 3LG,2014-01-24,fhrs_2_en-GB,2,,FHRS,15
272200,Woking Leisure Centre Kingfield Road Kingfield Woking Surrey,,,,Freedom Cafe,Restaurant/Cafe/Canteen,1,20,,563914,10,,51.31122400000000,11/00143/COMM,315,emma.bourne@woking.gov.uk,Woking,http://www.woking.gov.uk,-0.55653900000000,GU22 9BA,2015-01-14,fhrs_1_en-GB,1,,FHRS,10
272201,The Pool In The Park Kingfield Road Kingfield Woking Surrey,,,,Freedom Leisure,Restaurant/Cafe/Canteen,1,0,,517083,0,,51.31122400000000,11/00142/COMM,315,emma.bourne@woking.gov.uk,Woking,http://www.woking.gov.uk,-0.55653900000000,GU22 9BA,2013-02-07,fhrs_5_en-GB,5,,FHRS,5
272202,1 Crown Square Woking Surrey,,,,Fresch,Restaurant/Cafe/Canteen,1,0,,17679,0,,51.32050600000000,06/00020/COMM,315,emma.bourne@woking.gov.uk,Woking,http://www.woking.gov.uk,-0.55663500000000,GU21 6HR,2012-11-15,fhrs_5_en-GB,5,,FHRS,0
272203,5 The Shops Kingfield Road Kingfield Woking Surrey,,,,Fresh & Fruity,Retailers - other,4613,5,,720362,5,,51.30404500000000,14/00079/COMM,315,emma.bourne@woking.gov.uk,Woking,http://www.woking.gov.uk,-0.55185800000000,GU22 9EH,2014-11-24,fhrs_5_en-GB,5,,FHRS,5
272204,53 Weymede Byfleet West Byfleet Surrey,,,,From The Garden,Other catering premises,7841,,,582872,,,51.34209500000000,12/00091/COMM,315,emma.bourne@woking.gov.uk,Woking,http://www.woking.gov.uk,-0.46800200000000,KT14 7DQ,2012-11-26,fhrs_exempt_en-GB,Exempt,,FHRS,
272205,58 High Road Byfleet West Byfleet Surrey,,,,Fu Yau Fish Bar,Takeaway/sandwich shop,7844,5,,16299,5,,51.33875100000000,05/34560/COMM,315,emma.bourne@woking.gov.uk,Woking,http://www.woking.gov.uk,-0.47705800000000,KT14 7QL,2014-10-02,fhrs_5_en-GB,5,,FHRS,0
272206,134 Connaught Road Brookwood Woking Surrey,,,,Fulk Brothers Butchers,Retailers - other,4613,0,,16311,5,,51.30470200000000,05/36214/COMM,315,emma.bourne@woking.gov.uk,Woking,http://www.woking.gov.uk,-0.63814200000000,GU24 0AS,2014-07-09,fhrs_5_en-GB,5,,FHRS,5
272207,,,,,Fun Party Baskets,Other catering premises,7841,5,,615854,5,,,13/00107/COMM,315,emma.bourne@woking.gov.uk,Woking,http://www.woking.gov.uk,,,2013-11-22,fhrs_5_en-GB,5,,FHRS,5
272208,,,,,G & E Pelham,Mobile caterer,7846,0,,715368,0,,,14/00071/COMM,315,emma.bourne@woking.gov.uk,Woking,http://www.woking.gov.uk,,,2014-10-29,fhrs_5_en-GB,5,,FHRS,0
272209,6 The Terrace High Street Old Woking Woking Surrey,,,,G.J. Honour Butchers,Retailers - other,4613,0,,15901,0,,51.30310200000000,05/05489/COMM,315,emma.bourne@woking.gov.uk,Woking,http://www.woking.gov.uk,-0.54977900000000,GU22 9ES,2013-12-05,fhrs_5_en-GB,5,,FHRS,5
272210,The Gables Pembroke Road Woking Surrey,,,,Gables Residential Home,Hospitals/Childcare/Caring Premises,5,10,,16078,0,,51.32013700000000,05/11187/COMM,315,emma.bourne@woking.gov.uk,Woking,http://www.woking.gov.uk,-0.54502300000000,GU22 7DY,2014-10-27,fhrs_4_en-GB,4,,FHRS,0
272211,"Gala Bingo, First Floor Big Apple Chobham Road Woking Surrey",,,,Gala Bingo,Pub/bar/nightclub,7843,0,,15487,0,,51.32050600000000,05/00247/COMM,315,emma.bourne@woking.gov.uk,Woking,http://www.woking.gov.uk,-0.55663500000000,GU21 6HR,2014-06-16,fhrs_5_en-GB,5,,FHRS,0
272212,Unit 10 Middle Oncourse  Peacocks Centre Victoria Way Woking Surrey,,,,Game,Retailers - other,4613,,,582804,,,51.31985100000000,05/01547/COMM,315,emma.bourne@woking.gov.uk,Woking,http://www.woking.gov.uk,-0.56186500000000,GU21 6GB,2012-01-30,fhrs_exempt_en-GB,Exempt,,FHRS,
272213,7 Goldsworth Road Woking Surrey,,,,Gammage Newsagent,Retailers - other,4613,0,,16161,0,,51.31759900000000,05/18322/COMM,315,emma.bourne@woking.gov.uk,Woking,http://www.woking.gov.uk,-0.56308300000000,GU21 6JY,2014-12-11,fhrs_5_en-GB,5,,FHRS,0
272214,Flat 90 Cardinal Place Guildford Road Woking Surrey,,,,Geeta's Gujarati Bites,Other catering premises,7841,5,,688751,5,,51.31596600000000,14/00039/COMM,315,emma.bourne@woking.gov.uk,Woking,http://www.woking.gov.uk,-0.56039400000000,GU22 7LW,2014-07-01,fhrs_5_en-GB,5,,FHRS,5
272215,,,,,Gillian Hull,Other catering premises,7841,0,,720375,0,,,14/00092/COMM,315,emma.bourne@woking.gov.uk,Woking,http://www.woking.gov.uk,,,2014-12-03,fhrs_5_en-GB,5,,FHRS,0
272216,Market Market Square Woking Surrey,,,,Gold Star,Mobile caterer,7846,5,,688746,5,,,14/00032/COMM,315,emma.bourne@woking.gov.uk,Woking,http://www.woking.gov.uk,,,2014-06-05,fhrs_5_en-GB,5,,FHRS,5
272217,Goldsworth County Primary School Bridge Barn Lane Woking Surrey,,,,Golden Owls Day Nursery,Other catering premises,7841,0,,590343,0,,51.31712600000000,13/00076/COMM,315,emma.bourne@woking.gov.uk,Woking,http://www.woking.gov.uk,-0.57361700000000,GU21 6NL,2013-09-25,fhrs_5_en-GB,5,,FHRS,0
272218,Bridge Barn Lane Woking Surrey,,,,Goldsworth Primary School,School/college/university,7845,0,,16209,5,,51.31712600000000,05/24122/COMM,315,emma.bourne@woking.gov.uk,Woking,http://www.woking.gov.uk,-0.57361700000000,GU21 6NL,2013-10-18,fhrs_5_en-GB,5,,FHRS,0
272219,50 - 52 Chertsey Road Woking Surrey,,,,Gorkha Grocery Limited,Retailers - other,4613,10,,445050,5,,51.32130000000000,12/00055/COMM,315,emma.bourne@woking.gov.uk,Woking,http://www.woking.gov.uk,-0.55539000000000,GU21 5BG,2014-02-12,fhrs_4_en-GB,4,,FHRS,0
272220,Unit G16  Mayford Centre Smarts Heath Road Mayford Green Woking Surrey,,,,Gourmet Patisserie,Manufacturers/packers,7839,5,,16024,0,,51.29532000000000,05/08847/COMM,315,emma.bourne@woking.gov.uk,Woking,http://www.woking.gov.uk,-0.57667300000000,GU22 0PP,2014-09-22,fhrs_5_en-GB,5,,FHRS,0
272221,3 Marshall Parade Coldharbour Road Woking Surrey,,,,Graham Turner Family Butcher,Retailers - other,4613,0,,28569,0,,51.32674700000000,09/00009/COMM,315,emma.bourne@woking.gov.uk,Woking,http://www.woking.gov.uk,-0.51145700000000,GU22 8SW,2014-06-17,fhrs_5_en-GB,5,,FHRS,5
272222,7 Manor Way Old Woking Woking Surrey,,,,Graham White And Co,Manufacturers/packers,7839,0,,409289,0,,51.30327100000000,07/00082/COMM,315,emma.bourne@woking.gov.uk,Woking,http://www.woking.gov.uk,-0.54093700000000,GU22 9JX,2014-03-25,fhrs_5_en-GB,5,,FHRS,0
272223,32 Meadway Drive Horsell Woking Surrey,,,,Great American Treats,Other catering premises,7841,5,,638704,5,,51.32617900000000,14/00010/COMM,315,emma.bourne@woking.gov.uk,Woking,http://www.woking.gov.uk,-0.57342200000000,GU21 4TD,2014-02-28,fhrs_5_en-GB,5,,FHRS,0
272224,Unit G8 Mayford Centre 113B Mayford Green Mayford Woking Surrey,,,,Green Tangerine Catering Co Ltd,Other catering premises,7841,5,,28849,5,,51.29532000000000,09/00031/COMM,315,emma.bourne@woking.gov.uk,Woking,http://www.woking.gov.uk,-0.57667300000000,GU22 0PP,2014-09-12,fhrs_5_en-GB,5,,FHRS,5
272225,Greenfield School Brooklyn Road Woking Surrey,,,,Greenfield School  Brookwood Partnership Ltd,Restaurant/Cafe/Canteen,1,0,,188820,0,,51.31050200000000,11/00109/COMM,315,emma.bourne@woking.gov.uk,Woking,http://www.woking.gov.uk,-0.56360600000000,GU22 7TP,2013-09-12,fhrs_5_en-GB,5,,FHRS,0
272226,12 Wolsey Walk Woking Surrey,,,,Greggs Of Twickenham,Takeaway/sandwich shop,7844,0,,5933,0,,51.31855500000000,02/06666/COMM,315,emma.bourne@woking.gov.uk,Woking,http://www.woking.gov.uk,-0.55963800000000,GU21 6XU,2012-10-29,fhrs_5_en-GB,5,,FHRS,0
272227,25 High Street Woking Surrey,,,,Grey Oriental Foods,Retailers - other,4613,5,,32997,0,,51.31825100000000,10/00018/COMM,315,emma.bourne@woking.gov.uk,Woking,http://www.woking.gov.uk,-0.55900200000000,GU21 6BW,2012-06-21,fhrs_5_en-GB,5,,FHRS,0
272228,Greys Residential Home For The Elderly Hook Heath Road Woking Surrey,,,,Greys Residential Home,Hospitals/Childcare/Caring Premises,5,5,,16148,0,,51.30523800000000,05/15974/COMM,315,emma.bourne@woking.gov.uk,Woking,http://www.woking.gov.uk,-0.57879100000000,GU22 0JQ,2014-09-16,fhrs_5_en-GB,5,,FHRS,0
272229,Market Stalls Commercial Way Woking Surrey,,,,Griddles,Mobile caterer,7846,5,,15547,5,,51.31986100000000,05/00273/COMM,315,emma.bourne@woking.gov.uk,Woking,http://www.woking.gov.uk,-0.55700900000000,,2014-06-05,fhrs_5_en-GB,5,,FHRS,5
272230,Unit F1 Lower Concourse Peacocks Centre Victoria Way Woking Surrey,,,,Grill & Co,Takeaway/sandwich shop,7844,5,,672076,5,,51.31985100000000,14/00030/COMM,315,emma.bourne@woking.gov.uk,Woking,http://www.woking.gov.uk,-0.56186500000000,GU21 6GB,2014-06-02,fhrs_5_en-GB,5,,FHRS,0
272231,,,,,Ground Cafe,Mobile caterer,7846,5,,631209,0,,,14/00003/COMM,315,emma.bourne@woking.gov.uk,Woking,http://www.woking.gov.uk,,,2014-01-15,fhrs_5_en-GB,5,,FHRS,0
272232,Asda Superstore Forsyth Road Sheerwater Woking Surrey,,,,Haji Baba Halal Meats,Retailers - other,4613,5,,710053,0,,51.32914800000000,14/00062/COMM,315,emma.bourne@woking.gov.uk,Woking,http://www.woking.gov.uk,-0.53282400000000,GU21 5SB,2014-10-14,fhrs_5_en-GB,5,,FHRS,0
272233,Halfords Unit 3 Lion Retail Park 151 Oriental Road Woking Surrey,,,,Halfords,Retailers - other,4613,,,623161,,,51.32336800000000,98/37897/COMM,315,emma.bourne@woking.gov.uk,Woking,http://www.woking.gov.uk,-0.54304000000000,GU22 8BD,2013-12-17,fhrs_exempt_en-GB,Exempt,,FHRS,
272234,,,,,Hand Made For By Sally,Other catering premises,7841,0,,715367,0,,,14/00070/COMM,315,emma.bourne@woking.gov.uk,Woking,http://www.woking.gov.uk,,,2014-10-28,fhrs_5_en-GB,5,,FHRS,0
272235,4 The Terrace High Street Old Woking Woking Surrey,,,,Happy Fish Bar,Takeaway/sandwich shop,7844,30,,15900,20,,51.30310200000000,05/05487/COMM,315,emma.bourne@woking.gov.uk,Woking,http://www.woking.gov.uk,-0.54977900000000,GU22 9ES,2014-11-27,fhrs_0_en-GB,0,,FHRS,25
272236,118 Robin Hood Road Knaphill Woking Surrey,,,,Harry And Kays,Retailers - other,4613,5,,16046,0,,51.32089000000000,05/10021/COMM,315,emma.bourne@woking.gov.uk,Woking,http://www.woking.gov.uk,-0.60917600000000,GU21 2LS,2011-10-07,fhrs_5_en-GB,5,,FHRS,0
272237,,,,,Harry's Hot Chillies,Manufacturers/packers,7839,0,,555328,0,,,13/00053/COMM,315,emma.bourne@woking.gov.uk,Woking,http://www.woking.gov.uk,,,2013-05-23,fhrs_5_en-GB,5,,FHRS,0
272238,The Harvester Restaurant 81 Old Woking Road West Byfleet Surrey,,,,Harvester Restaurant,Pub/bar/nightclub,7843,0,,16231,0,,51.33582100000000,05/26153/COMM,315,emma.bourne@woking.gov.uk,Woking,http://www.woking.gov.uk,-0.50652700000000,KT14 6JA,2014-12-09,fhrs_5_en-GB,5,,FHRS,5
272239,Haven House Residential Home Limecroft Road Knaphill Woking Surrey,,,,Haven House Res. Home,Hospitals/Childcare/Caring Premises,5,5,,16250,5,,51.31849100000000,05/29406/COMM,315,emma.bourne@woking.gov.uk,Woking,http://www.woking.gov.uk,-0.62612500000000,GU21 2TH,2014-07-11,fhrs_5_en-GB,5,,FHRS,5
272240,Victoria Gate Chobham Road Woking Surrey,,,,Haylees Lunch Box,Takeaway/sandwich shop,7844,30,,16192,20,,51.32106700000000,05/21156/COMM,315,emma.bourne@woking.gov.uk,Woking,http://www.woking.gov.uk,-0.55770800000000,GU21 6JD,2014-11-28,fhrs_0_en-GB,0,,FHRS,25
272241,103 High Street Horsell Woking Surrey,,,,Heater & Sons,Takeaway/sandwich shop,7844,0,,16280,0,,51.32412500000000,05/33135/COMM,315,emma.bourne@woking.gov.uk,Woking,http://www.woking.gov.uk,-0.57461900000000,GU21 4SY,2014-01-27,fhrs_5_en-GB,5,,FHRS,0
272242,17 High Road Byfleet West Byfleet Surrey,,,,Heater & Sons,Takeaway/sandwich shop,7844,0,,16297,0,,51.33925900000000,05/34529/COMM,315,emma.bourne@woking.gov.uk,Woking,http://www.woking.gov.uk,-0.47813200000000,KT14 7QH,2014-01-22,fhrs_5_en-GB,5,,FHRS,0
272243,6 Guildford Road Woking Surrey,,,,Heater & Sons,Takeaway/sandwich shop,7844,0,,16155,0,,51.31644300000000,05/17646/COMM,315,emma.bourne@woking.gov.uk,Woking,http://www.woking.gov.uk,-0.55970400000000,GU22 7PX,2014-01-30,fhrs_5_en-GB,5,,FHRS,0
272244,Heaters Bakery St Johns Lye St Johns Woking Surrey,,,,Heater & Sons,Takeaway/sandwich shop,7844,0,,15766,0,,51.31208300000000,05/01318/COMM,315,emma.bourne@woking.gov.uk,Woking,http://www.woking.gov.uk,-0.59539600000000,GU21 7SF,2014-01-27,fhrs_5_en-GB,5,,FHRS,0
272245,28 Chertsey Road Woking Surrey,,,,Heaters The Roll Basket,Takeaway/sandwich shop,7844,0,,16196,0,,51.32016100000000,05/21261/COMM,315,emma.bourne@woking.gov.uk,Woking,http://www.woking.gov.uk,-0.55567000000000,GU21 5AJ,2014-01-24,fhrs_5_en-GB,5,,FHRS,0
272246,West Byfleet Golf Club Sheerwater Road West Byfleet Surrey,,,,Heidi's Hut,Other catering premises,7841,5,,480643,5,,51.33438100000000,12/00085/COMM,315,emma.bourne@woking.gov.uk,Woking,http://www.woking.gov.uk,-0.51138300000000,KT14 6AA,2014-09-24,fhrs_5_en-GB,5,,FHRS,0
272247,Unit 10 Goldsworth Park Centre Woking Surrey,,,,Herbies Pizza,Takeaway/sandwich shop,7844,0,,149066,5,,51.31885300000000,95/20047/COMM,315,emma.bourne@woking.gov.uk,Woking,http://www.woking.gov.uk,-0.59072600000000,GU21 3LG,2013-11-12,fhrs_5_en-GB,5,,FHRS,5
272248,H G Wells Suite  Woking Planets Church Street East Woking Surrey,,,,HG Wells,Other catering premises,7841,0,,15998,0,,51.32060700000000,05/08397/COMM,315,emma.bourne@woking.gov.uk,Woking,http://www.woking.gov.uk,-0.55757900000000,GU21 6HJ,2012-11-15,fhrs_5_en-GB,5,,FHRS,0
272249,Hoebridge Golf Centre Old Woking Road Woking Surrey,,,,Hoebridge Golf Centres Ltd,Restaurant/Cafe/Canteen,1,5,,16220,0,,51.30997200000000,05/25686/COMM,315,emma.bourne@woking.gov.uk,Woking,http://www.woking.gov.uk,-0.52527200000000,GU22 8JH,2015-01-22,fhrs_5_en-GB,5,,FHRS,5
272250,Holly Cottage Hook Heath Avenue Woking Surrey,,,,Holly Cottage Bed And Breakfast,Hotel/bed & breakfast/guest house,7842,5,,21702,5,,51.30898300000000,07/00055/COMM,315,emma.bourne@woking.gov.uk,Woking,http://www.woking.gov.uk,-0.57767100000000,GU22 0HX,2013-06-10,fhrs_5_en-GB,5,,FHRS,5
272251,St Andrews School Church Hill House Churchfields Horsell Woking Surrey,,,,Holroyd Howe   St Andrews School,School/college/university,7845,0,,16273,0,,51.32451100000000,05/32596/COMM,315,emma.bourne@woking.gov.uk,Woking,http://www.woking.gov.uk,-0.56869400000000,GU21 4QW,2014-06-24,fhrs_5_en-GB,5,,FHRS,0
272252,Hoe Bridge School 224 Old Woking Road Woking Surrey,,,,Holroyd Howe Independent Hoe Bridge School,School/college/university,7845,0,,16219,0,,51.30783400000000,05/25673/COMM,315,emma.bourne@woking.gov.uk,Woking,http://www.woking.gov.uk,-0.53627300000000,GU22 8JE,2014-12-05,fhrs_5_en-GB,5,,FHRS,0
272253,Holy Trinity Church Chobham Road Knaphill Woking Surrey,,,,Holy Trinity Church,Other catering premises,7841,5,,147995,5,,51.31591000000000,92/29258/COMM,315,emma.bourne@woking.gov.uk,Woking,http://www.woking.gov.uk,-0.62539800000000,GU21 2SX,2013-03-13,fhrs_4_en-GB,4,,FHRS,10
272254,Unit 3A Wey Retail Park Royston Road Byfleet West Byfleet Surrey,,,,Home Bargains,Retailers - supermarkets/hypermarkets,7840,0,,730247,0,,51.34021000000000,14/00095/COMM,315,emma.bourne@woking.gov.uk,Woking,http://www.woking.gov.uk,-0.47731000000000,KT14 7NP,2014-12-17,fhrs_5_en-GB,5,,FHRS,0
272255,40 Hermitage Woods Crescent St Johns Woking Surrey,,,,Home Kitchen For The Salvation Army Charity Shop,Other catering premises,7841,,,8294,,,51.30976800000000,03/16604/COMM,315,emma.bourne@woking.gov.uk,Woking,http://www.woking.gov.uk,-0.60485000000000,GU21 8UE,2014-07-08,fhrs_exempt_en-GB,Exempt,,FHRS,
272256,92 High Road Byfleet West Byfleet Surrey,,,,Honey Fountain,Takeaway/sandwich shop,7844,5,,14497,5,,51.33881800000000,05/00010/COMM,315,emma.bourne@woking.gov.uk,Woking,http://www.woking.gov.uk,-0.47461500000000,KT14 7QT,2014-03-26,fhrs_5_en-GB,5,,FHRS,5
272257,Horsell Bowling Club Queen Elizabeth Gardens High Street Horsell Woking Surrey,,,,Horsell Bowling Club,Pub/bar/nightclub,7843,5,,16283,5,,51.32400200000000,05/33159/COMM,315,emma.bourne@woking.gov.uk,Woking,http://www.woking.gov.uk,-0.57189600000000,GU21 4SS,2012-06-18,fhrs_5_en-GB,5,,FHRS,0
272258,Meadway Drive Horsell Woking Surrey,,,,Horsell C Of E Junior School,School/college/university,7845,0,,16104,5,,51.32497900000000,05/13223/COMM,315,emma.bourne@woking.gov.uk,Woking,http://www.woking.gov.uk,-0.57456400000000,GU21 4TA,2013-11-21,fhrs_5_en-GB,5,,FHRS,5
272259,56 - 58 Well Lane Horsell Woking Surrey,,,,Horsell Fish And Chips,Takeaway/sandwich shop,7844,5,,150744,10,,51.31993200000000,99/42826/COMM,315,emma.bourne@woking.gov.uk,Woking,http://www.woking.gov.uk,-0.57591200000000,GU21 4PP,2014-09-16,fhrs_4_en-GB,4,,FHRS,5
272260,Horsell Lodge Residential Care Home Kettlewell Hill Horsell Woking Surrey,,,,Horsell Lodge Residential Care Home,Hospitals/Childcare/Caring Premises,5,0,,16272,5,,51.32893300000000,05/32430/COMM,315,emma.bourne@woking.gov.uk,Woking,http://www.woking.gov.uk,-0.56188200000000,GU21 4JA,2013-09-10,fhrs_5_en-GB,5,,FHRS,5
272261,,,,,Horsell Preserves,Manufacturers/packers,7839,0,,33211,0,,,10/00031/COMM,315,emma.bourne@woking.gov.uk,Woking,http://www.woking.gov.uk,,,2013-10-03,fhrs_5_en-GB,5,,FHRS,0
272262,Institute House 119 High Street Horsell Woking Surrey,,,,Horsell Village After School Club,School/college/university,7845,0,,13335,0,,51.32400200000000,04/33152/COMM,315,emma.bourne@woking.gov.uk,Woking,http://www.woking.gov.uk,-0.57189600000000,GU21 4SS,2012-11-20,fhrs_5_en-GB,5,,FHRS,0
272263,Horsell Village School Church Hill Horsell Woking Surrey,,,,Horsell Village School,School/college/university,7845,0,,16285,0,,51.32258100000000,05/33175/COMM,315,emma.bourne@woking.gov.uk,Woking,http://www.woking.gov.uk,-0.57113700000000,GU21 4QQ,2013-11-19,fhrs_5_en-GB,5,,FHRS,0
272264,,,,,Hot Asian Food,Restaurant/Cafe/Canteen,1,5,,544791,0,,,13/00043/COMM,315,emma.bourne@woking.gov.uk,Woking,http://www.woking.gov.uk,,,2013-05-02,fhrs_5_en-GB,5,,FHRS,0
272265,Hugos Church Street East Woking Surrey,,,,Hugo's Bar & Brasserie,Hotel/bed & breakfast/guest house,7842,0,,2804,5,,51.32202100000000,01/08418/COMM,315,emma.bourne@woking.gov.uk,Woking,http://www.woking.gov.uk,-0.55552600000000,GU21 6HA,2014-10-16,fhrs_5_en-GB,5,,FHRS,5
272266,54 Chertsey Road Woking Surrey,,,,Hungry Buddha House,Restaurant/Cafe/Canteen,1,5,,733748,5,,51.32130000000000,15/00007/COMM,315,emma.bourne@woking.gov.uk,Woking,http://www.woking.gov.uk,-0.55539000000000,GU21 5BG,2015-01-27,fhrs_5_en-GB,5,,FHRS,0
272267,Longacres Garden Centre Station Road Chobham Woking Surrey,,,,Il Rustico,Restaurant/Cafe/Canteen,1,5,,13336,5,,51.33779900000000,04/33221/COMM,315,emma.bourne@woking.gov.uk,Woking,http://www.woking.gov.uk,-0.57804300000000,GU24 8AR,2014-05-29,fhrs_5_en-GB,5,,FHRS,5
272268,,,,,In A Pickle UK Ltd,Other catering premises,7841,5,,517082,5,,,11/00113/COMM,315,emma.bourne@woking.gov.uk,Woking,http://www.woking.gov.uk,,,2013-02-01,fhrs_5_en-GB,5,,FHRS,0
272269,Woking Sixth Form College Rydens Way Old Woking Woking Surrey,,,,Independent Catering,School/college/university,7845,0,,13192,0,,51.30649600000000,04/09681/COMM,315,emma.bourne@woking.gov.uk,Woking,http://www.woking.gov.uk,-0.54869600000000,GU22 9DL,2014-07-04,fhrs_5_en-GB,5,,FHRS,5
272270,73 Old Woking Road West Byfleet Surrey,,,,Indigo,Takeaway/sandwich shop,7844,5,,623156,5,,51.33651900000000,13/00105/COMM,315,emma.bourne@woking.gov.uk,Woking,http://www.woking.gov.uk,-0.50555700000000,KT14 6LF,2014-03-26,fhrs_5_en-GB,5,,FHRS,0
272271,Applegarth Madeira Road West Byfleet Surrey,,,,Indulge Icecream Delight,Retailers - other,4613,0,,688743,0,,51.33716400000000,07/00052/COMM,315,emma.bourne@woking.gov.uk,Woking,http://www.woking.gov.uk,-0.50957000000000,KT14 6DF,2014-06-30,fhrs_5_en-GB,5,,FHRS,0
272272,Kiosk 8 Market Walk Woking Surrey,,,,Intercontinental Foods,Retailers - other,4613,5,,720371,5,,,14/00088/COMM,315,emma.bourne@woking.gov.uk,Woking,http://www.woking.gov.uk,,,2014-10-29,fhrs_5_en-GB,5,,FHRS,5
272273,ISS House Unit 1 Genesis Business Park Sheerwater Woking Surrey,,,,ISS Eaton,Restaurant/Cafe/Canteen,1,0,,21695,0,,51.32809100000000,07/00054/COMM,315,emma.bourne@woking.gov.uk,Woking,http://www.woking.gov.uk,-0.53459400000000,GU21 5RW,2014-11-13,fhrs_5_en-GB,5,,FHRS,0
272274,5 The Broadway Woking Surrey,,,,Istanbul Grill,Takeaway/sandwich shop,7844,5,,16335,5,,51.31954000000000,05/43378/COMM,315,emma.bourne@woking.gov.uk,Woking,http://www.woking.gov.uk,-0.55563200000000,GU21 5AP,2013-11-28,fhrs_5_en-GB,5,,FHRS,5
272275,Crowminster 21 Hollies Avenue West Byfleet Surrey,,,,It's A Cake Thing,Other catering premises,7841,0,,688747,0,,51.33907300000000,14/00033/COMM,315,emma.bourne@woking.gov.uk,Woking,http://www.woking.gov.uk,-0.50909100000000,KT14 6AJ,2014-06-30,fhrs_5_en-GB,5,,FHRS,0
272276,136 High Road Byfleet West Byfleet Surrey,,,,J Golding Group,Retailers - other,4613,5,,16302,0,,51.33788800000000,05/34637/COMM,315,emma.bourne@woking.gov.uk,Woking,http://www.woking.gov.uk,-0.47226300000000,KT14 7RD,2014-07-09,fhrs_5_en-GB,5,,FHRS,0
272277,20 Station Approach West Byfleet Surrey,,,,J L Butchers Limited,Retailers - other,4613,5,,702407,5,,51.33896400000000,13/00102/COMM,315,emma.bourne@woking.gov.uk,Woking,http://www.woking.gov.uk,-0.50544800000000,KT14 6NF,2014-08-14,fhrs_5_en-GB,5,,FHRS,5
272278,60 High Road Byfleet West Byfleet Surrey,,,,Jade Garden Chinese Restaurant,Restaurant/Cafe/Canteen,1,5,,2917,5,,51.33875100000000,01/43382/COMM,315,emma.bourne@woking.gov.uk,Woking,http://www.woking.gov.uk,-0.47705800000000,KT14 7QL,2013-10-22,fhrs_5_en-GB,5,,FHRS,5
272279,59 Dartmouth Avenue Sheerwater Woking Surrey,,,,Jade House,Takeaway/sandwich shop,7844,5,,16333,5,,51.33348200000000,05/43246/COMM,315,emma.bourne@woking.gov.uk,Woking,http://www.woking.gov.uk,-0.52994400000000,GU21 5PE,2014-01-21,fhrs_5_en-GB,5,,FHRS,5
272280,Jaflong 157 Goldsworth Road Woking Surrey,,,,Jaflong,Takeaway/sandwich shop,7844,10,,16166,5,,51.31751400000000,05/18445/COMM,315,emma.bourne@woking.gov.uk,Woking,http://www.woking.gov.uk,-0.56862500000000,GU21 6LS,2013-08-29,fhrs_4_en-GB,4,,FHRS,5
272281,49 Chertsey Road Woking Surrey,,,,Jaipur,Restaurant/Cafe/Canteen,1,5,,16199,10,,51.32016100000000,05/21289/COMM,315,emma.bourne@woking.gov.uk,Woking,http://www.woking.gov.uk,-0.55567000000000,GU21 5AJ,2014-12-04,fhrs_4_en-GB,4,,FHRS,5
272282,9 Church Path Woking Surrey,,,,Jeitta Lebanese Restaurant,Restaurant/Cafe/Canteen,1,5,,409294,5,,51.31911500000000,12/00027/COMM,315,emma.bourne@woking.gov.uk,Woking,http://www.woking.gov.uk,-0.55762600000000,GU21 6EJ,2013-10-01,fhrs_5_en-GB,5,,FHRS,5
272283,College Road Service Station College Road Woking Surrey,,,,Jet Service Station,Retailers - other,4613,5,,16183,0,,51.32260800000000,05/20789/COMM,315,emma.bourne@woking.gov.uk,Woking,http://www.woking.gov.uk,-0.53982100000000,GU22 8BT,2014-05-27,fhrs_5_en-GB,5,,FHRS,0
272284,,,,,Jewellery And Jams,Mobile caterer,7846,10,,46594,5,,,11/00074/COMM,315,emma.bourne@woking.gov.uk,Woking,http://www.woking.gov.uk,,,2011-06-09,fhrs_4_en-GB,4,,FHRS,5
272285,2 - 3 Parvis Road West Byfleet Surrey,,,,Jholpai,Restaurant/Cafe/Canteen,1,5,,6148,5,,51.33753100000000,02/33991/COMM,315,emma.bourne@woking.gov.uk,Woking,http://www.woking.gov.uk,-0.50309700000000,KT14 6LP,2014-10-01,fhrs_4_en-GB,4,,FHRS,10
272286,,,,,Jill Parker,Mobile caterer,7846,0,,710051,0,,,14/00060/COMM,315,emma.bourne@woking.gov.uk,Woking,http://www.woking.gov.uk,,,2014-10-03,fhrs_5_en-GB,5,,FHRS,0
272287,Elm Nursery Sutton Green Road Sutton Green Guildford Surrey,,,,Joe's Farm,Retailers - other,4613,10,,688744,0,,51.28104700000000,11/00079/COMM,315,emma.bourne@woking.gov.uk,Woking,http://www.woking.gov.uk,-0.55738500000000,GU4 7QD,2014-06-25,fhrs_4_en-GB,4,,FHRS,0
272288,,,,,Josephine Caesar (Child Minder),Other catering premises,7841,0,,582831,0,,,10/00042/COMM,315,emma.bourne@woking.gov.uk,Woking,http://www.woking.gov.uk,,,2013-10-16,fhrs_5_en-GB,5,,FHRS,0
272289,95 Goldsworth Road Woking Surrey,,,,K2 Contemporary Indian Takeaway,Takeaway/sandwich shop,7844,5,,730249,5,,51.31736100000000,15/00002/COMM,315,emma.bourne@woking.gov.uk,Woking,http://www.woking.gov.uk,-0.56560200000000,GU21 6LJ,2015-01-05,fhrs_5_en-GB,5,,FHRS,5
272290,,,,,Katie's Cakes & Pops,Other catering premises,7841,5,,582895,5,,,13/00074/COMM,315,emma.bourne@woking.gov.uk,Woking,http://www.woking.gov.uk,,,2013-08-14,fhrs_5_en-GB,5,,FHRS,5
272291,Aldwych House 40 Station Approach West Byfleet Surrey,,,,Kayal,Restaurant/Cafe/Canteen,1,5,,688745,5,,51.33896400000000,12/00074/COMM,315,emma.bourne@woking.gov.uk,Woking,http://www.woking.gov.uk,-0.50544800000000,KT14 6NF,2014-06-17,fhrs_5_en-GB,5,,FHRS,5
272292,Bp Service Station Goldsworth Park Centre Denton Way Woking Surrey,,,,KDK Services Ltd   BP Service Station,Retailers - other,4613,5,,147990,5,,51.31885300000000,92/20055/COMM,315,emma.bourne@woking.gov.uk,Woking,http://www.woking.gov.uk,-0.59072600000000,GU21 3LG,2014-12-02,fhrs_5_en-GB,5,,FHRS,5
272293,Kettlewell House Kettlewell Hill Horsell Woking Surrey,,,,Kettlewell House Nursing Home,Hospitals/Childcare/Caring Premises,5,0,,188824,0,,51.32694200000000,11/00148/COMM,315,emma.bourne@woking.gov.uk,Woking,http://www.woking.gov.uk,-0.56160000000000,GU21 4HX,2014-09-16,fhrs_5_en-GB,5,,FHRS,0
272294,29 - 31 Chertsey Road Woking Surrey,,,,KFC,Restaurant/Cafe/Canteen,1,5,,15997,0,,51.32016100000000,05/08395/COMM,315,emma.bourne@woking.gov.uk,Woking,http://www.woking.gov.uk,-0.55567000000000,GU21 5AJ,2014-06-03,fhrs_5_en-GB,5,,FHRS,5
272295,Kiosk 4 Level 1  Peacocks Centre Victoria Way Woking Surrey,,,,KFC,Takeaway/sandwich shop,7844,0,,150736,0,,51.31985100000000,99/08413/COMM,315,emma.bourne@woking.gov.uk,Woking,http://www.woking.gov.uk,-0.56186500000000,GU21 6GB,2013-07-15,fhrs_5_en-GB,5,,FHRS,0
272296,93 Courtenay Road Woking Surrey,,,,Khans Imperial Super Store,Retailers - other,4613,5,,16181,5,,51.32472200000000,05/20400/COMM,315,emma.bourne@woking.gov.uk,Woking,http://www.woking.gov.uk,-0.54856600000000,GU21 5HG,2012-10-18,fhrs_5_en-GB,5,,FHRS,5
272297,87 Walton Road Woking Surrey,,,,Khans Roti And Pizza Junction,Takeaway/sandwich shop,7844,30,,256901,25,,51.32273200000000,12/00016/COMM,315,emma.bourne@woking.gov.uk,Woking,http://www.woking.gov.uk,-0.55052300000000,GU21 5DW,2014-09-09,fhrs_0_en-GB,0,,FHRS,25
272298,Bishop David Brown School 247 Albert Drive Sheerwater Woking Surrey,,,,Kiddiwinks,School/college/university,7845,0,,15999,0,,51.33608500000000,05/08400/COMM,315,emma.bourne@woking.gov.uk,Woking,http://www.woking.gov.uk,-0.52453500000000,GU21 5RF,2014-07-01,fhrs_5_en-GB,5,,FHRS,5
272299,Kingfield Arms Ph Kingfield Road Kingfield Woking Surrey,,,,Kingfield Arms PH,Pub/bar/nightclub,7843,,,8267,,,51.30448900000000,03/14966/COMM,315,emma.bourne@woking.gov.uk,Woking,http://www.woking.gov.uk,-0.55147100000000,GU22 9EQ,2014-08-12,fhrs_exempt_en-GB,Exempt,,FHRS,
272300,Kingfield Road Kingfield Woking Surrey,,,,Kingfield School,School/college/university,7845,5,,16137,0,,51.30448900000000,05/14926/COMM,315,emma.bourne@woking.gov.uk,Woking,http://www.woking.gov.uk,-0.55147100000000,GU22 9EQ,2014-09-08,fhrs_5_en-GB,5,,FHRS,5
272301,Football Pavilion Kings Head Lane Byfleet West Byfleet Surrey,,,,Kings Lodge Care Centre,Restaurant/Cafe/Canteen,1,5,,24906,5,,51.34327900000000,08/00025/COMM,315,emma.bourne@woking.gov.uk,Woking,http://www.woking.gov.uk,-0.48233500000000,KT14 7BQ,2014-06-02,fhrs_5_en-GB,5,,FHRS,5
272302,Kingsleigh Resource Centre Kingfield Road Kingfield Woking Surrey,,,,Kingsleigh Resource Centre,Hospitals/Childcare/Caring Premises,5,5,,16319,0,,51.30718500000000,05/36961/COMM,315,emma.bourne@woking.gov.uk,Woking,http://www.woking.gov.uk,-0.55567600000000,GU22 9AB,2013-12-19,fhrs_5_en-GB,5,,FHRS,0
272303,Roberts Family Butchers 12 Gorsewood Road St Johns Woking Surrey,,,,Knaphill Butchers,Distributors/Transporters,7,5,,15509,10,,51.30805900000000,05/00257/COMM,315,emma.bourne@woking.gov.uk,Woking,http://www.woking.gov.uk,-0.60778500000000,GU21 8UX,2013-11-13,fhrs_4_en-GB,4,,FHRS,5
272304,8 Creswell Corner Anchor Hill Knaphill Woking Surrey,,,,Knaphill Cafe,Restaurant/Cafe/Canteen,1,10,,16267,5,,51.32090300000000,05/31954/COMM,315,emma.bourne@woking.gov.uk,Woking,http://www.woking.gov.uk,-0.61262000000000,GU21 2JD,2013-10-15,fhrs_4_en-GB,4,,FHRS,0
272305,27 High Street Knaphill Woking Surrey,,,,Knaphill Fish Bar,Takeaway/sandwich shop,7844,10,,6146,5,,51.31807800000000,02/30690/COMM,315,emma.bourne@woking.gov.uk,Woking,http://www.woking.gov.uk,-0.61777100000000,GU21 2PP,2014-09-25,fhrs_4_en-GB,4,,FHRS,5
272306,Chobham Road Knaphill Woking Surrey,,,,Knaphill Lower School,School/college/university,7845,5,,16261,5,,51.31591000000000,05/31407/COMM,315,emma.bourne@woking.gov.uk,Woking,http://www.woking.gov.uk,-0.62539800000000,GU21 2SX,2013-06-21,fhrs_5_en-GB,5,,FHRS,5
272307,Knaphill Methodist Church Broadway Knaphill Woking Surrey,,,,Knaphill Methodist Church,Other catering premises,7841,5,,16264,5,,51.31753900000000,05/31637/COMM,315,emma.bourne@woking.gov.uk,Woking,http://www.woking.gov.uk,-0.61783000000000,GU21 2DR,2012-07-03,fhrs_5_en-GB,5,,FHRS,5
272308,Knaphill Middle School High Street Knaphill Woking Surrey,,,,Knaphill Middle School,School/college/university,7845,0,,16320,5,,51.31748900000000,05/37173/COMM,315,emma.bourne@woking.gov.uk,Woking,http://www.woking.gov.uk,-0.62275400000000,GU21 2QH,2014-02-10,fhrs_5_en-GB,5,,FHRS,5
272309,1 - 2 Anchor Crescent Knaphill Woking Surrey,,,,Knaphill Post Office,Retailers - other,4613,0,,730245,0,,51.31849300000000,05/32046/COMM,315,emma.bourne@woking.gov.uk,Woking,http://www.woking.gov.uk,-0.61569100000000,GU21 2PD,2014-12-09,fhrs_5_en-GB,5,,FHRS,0
272310,2 Highclere Road Knaphill Woking Surrey,,,,Knaphill Working Mens Club,Pub/bar/nightclub,7843,0,,16252,0,,51.31866300000000,05/29733/COMM,315,emma.bourne@woking.gov.uk,Woking,http://www.woking.gov.uk,-0.61855700000000,GU21 2PN,2014-03-27,fhrs_5_en-GB,5,,FHRS,0
272311,South Lodge 19 Wilson Way Horsell Woking Surrey,,,,L And L Catering,Other catering premises,7841,0,,480648,0,,51.32451100000000,12/00095/COMM,315,emma.bourne@woking.gov.uk,Woking,http://www.woking.gov.uk,-0.56869400000000,GU21 4QW,2012-11-20,fhrs_5_en-GB,5,,FHRS,0
272312,42 - 44 High Street Knaphill Woking Surrey,,,,La Bella Amalfi,Restaurant/Cafe/Canteen,1,5,,710056,0,,,14/00065/COMM,315,emma.bourne@woking.gov.uk,Woking,http://www.woking.gov.uk,,,2014-10-08,fhrs_5_en-GB,5,,FHRS,0
272313,Youth And Community Centre Goldsworth Park Centre Woking Surrey,,,,Lakers Youth Centre,Restaurant/Cafe/Canteen,1,0,,429766,0,,51.31885300000000,12/00053/COMM,315,emma.bourne@woking.gov.uk,Woking,http://www.woking.gov.uk,-0.59072600000000,GU21 3LG,2012-07-24,fhrs_5_en-GB,5,,FHRS,0
272314,Lakeview Social Centre Hartshill Walk Horsell Woking Surrey,,,,Lakeview Social Centre,Restaurant/Cafe/Canteen,1,,,16154,,,51.32217500000000,05/17454/COMM,315,emma.bourne@woking.gov.uk,Woking,http://www.woking.gov.uk,-0.58142500000000,GU21 3AQ,2014-10-31,fhrs_exempt_en-GB,Exempt,,FHRS,
272315,16 High Street Woking Surrey,,,,L'Aroma Ristorante,Restaurant/Cafe/Canteen,1,5,,13313,5,,51.31825100000000,04/17228/COMM,315,emma.bourne@woking.gov.uk,Woking,http://www.woking.gov.uk,-0.55900200000000,GU21 6BW,2015-01-13,fhrs_5_en-GB,5,,FHRS,5
272316,Harland House 44 Commercial Way Woking Surrey,,,,Latino,Restaurant/Cafe/Canteen,1,10,,32984,5,,,10/00017/COMM,315,emma.bourne@woking.gov.uk,Woking,http://www.woking.gov.uk,,,2014-12-08,fhrs_4_en-GB,4,,FHRS,5
272317,,,,,Le Billet-Doux,Other catering premises,7841,5,,590347,5,,,13/00084/COMM,315,emma.bourne@woking.gov.uk,Woking,http://www.woking.gov.uk,,,2013-09-16,fhrs_5_en-GB,5,,FHRS,5
272318,La Papillion Unit 66b Lower Concourse Peacocks Centre Victoria Way Woking Surrey,,,,Le Papillion Patisserie,Restaurant/Cafe/Canteen,1,0,,2631,0,,51.31985100000000,01/01569/COMM,315,emma.bourne@woking.gov.uk,Woking,http://www.woking.gov.uk,-0.56186500000000,GU21 6GB,2014-08-08,fhrs_5_en-GB,5,,FHRS,0
272319,25 Chertsey Road Woking Surrey,,,,LicketySplit,Takeaway/sandwich shop,7844,0,,150739,0,,51.32016100000000,99/21257/COMM,315,emma.bourne@woking.gov.uk,Woking,http://www.woking.gov.uk,-0.55567000000000,GU21 5AJ,2013-06-26,fhrs_5_en-GB,5,,FHRS,0
272320,Lifeworks Community The Grange High Street Old Woking Woking Surrey,,,,Lifeworks Community Ltd,Hospitals/Childcare/Caring Premises,5,5,,13112,0,,51.30277900000000,04/05463/COMM,315,emma.bourne@woking.gov.uk,Woking,http://www.woking.gov.uk,-0.53617500000000,GU22 8LB,2015-01-30,fhrs_5_en-GB,5,,FHRS,0
272321,The Link 2 Board School Road Woking Surrey,,,,LinkAble,Hospitals/Childcare/Caring Premises,5,5,,16204,0,,51.32378700000000,05/22441/COMM,315,emma.bourne@woking.gov.uk,Woking,http://www.woking.gov.uk,-0.55143700000000,GU21 5HE,2014-01-14,fhrs_5_en-GB,5,,FHRS,0
272322,St John The Baptist Church Church Road St Johns Woking Surrey,,,,Little Acorns Pre-School,School/college/university,7845,0,,17749,0,,51.31119100000000,06/00027/COMM,315,emma.bourne@woking.gov.uk,Woking,http://www.woking.gov.uk,-0.59370100000000,GU21 7RN,2014-06-10,fhrs_5_en-GB,5,,FHRS,0
272323,Little Cherubs Nursery 60 Station Road West Byfleet Surrey,,,,Little Cherubs Day Nursery,School/college/university,7845,5,,16004,0,,51.34190900000000,05/08423/COMM,315,emma.bourne@woking.gov.uk,Woking,http://www.woking.gov.uk,-0.50160500000000,KT14 6DX,2015-01-13,fhrs_5_en-GB,5,,FHRS,5
272324,13B Station Approach West Byfleet Surrey,,,,Lloyds Pharmacy,Retailers - other,4613,,,582839,,,51.33838200000000,11/00030/COMM,315,emma.bourne@woking.gov.uk,Woking,http://www.woking.gov.uk,-0.50496500000000,KT14 6NG,2014-03-14,fhrs_exempt_en-GB,Exempt,,FHRS,
272325,The Kingfield Pharmacy 3a The Shops Kingfield Road Kingfield Woking Surrey,,,,Lloyds Pharmacy,Retailers - other,4613,,,582811,,,51.30404500000000,05/14919/COMM,315,emma.bourne@woking.gov.uk,Woking,http://www.woking.gov.uk,-0.55185800000000,GU22 9EH,2014-03-25,fhrs_exempt_en-GB,Exempt,,FHRS,
272326,89 Walton Road Woking Surrey,,,,Local Convenience Store,Retailers - other,4613,5,,715365,5,,51.32273200000000,14/00068/COMM,315,emma.bourne@woking.gov.uk,Woking,http://www.woking.gov.uk,-0.55052300000000,GU21 5DW,2014-10-30,fhrs_5_en-GB,5,,FHRS,5
272327,14A Station Approach West Byfleet Surrey,,,,Londis,Retailers - other,4613,5,,45352,5,,51.33838200000000,11/00002/COMM,315,emma.bourne@woking.gov.uk,Woking,http://www.woking.gov.uk,-0.50496500000000,KT14 6NG,2012-10-31,fhrs_5_en-GB,5,,FHRS,5
272328,Aberdeen House Wych Hill Woking Surrey,,,,Londis,Retailers - other,4613,0,,201410,0,,51.30923400000000,12/00011/COMM,315,emma.bourne@woking.gov.uk,Woking,http://www.woking.gov.uk,-0.57541100000000,GU22 0EU,2014-12-01,fhrs_5_en-GB,5,,FHRS,0
272329,134 High Street Old Woking Woking Surrey,,,,London House,Restaurant/Cafe/Canteen,1,0,,46330,0,,51.30187900000000,11/00059/COMM,315,emma.bourne@woking.gov.uk,Woking,http://www.woking.gov.uk,-0.54109600000000,GU22 9JN,2013-03-15,fhrs_5_en-GB,5,,FHRS,0
272330,,,,,Lou-Lu Cakes,Other catering premises,7841,5,,638702,0,,,14/00008/COMM,315,emma.bourne@woking.gov.uk,Woking,http://www.woking.gov.uk,,,2014-02-07,fhrs_5_en-GB,5,,FHRS,0
272331,Unit F5 Lower Concourse  Peacocks Centre Victoria Way Woking Surrey,,,,Love Coffee,Other catering premises,7841,10,,480649,15,,51.31985100000000,99/08411/COMM,315,emma.bourne@woking.gov.uk,Woking,http://www.woking.gov.uk,-0.56186500000000,GU21 6GB,2014-06-27,fhrs_2_en-GB,2,,FHRS,10
272332,,,,,Lovin Food Limited,Other catering premises,7841,5,,563916,5,,,13/00056/COMM,315,emma.bourne@woking.gov.uk,Woking,http://www.woking.gov.uk,,,2013-06-14,fhrs_5_en-GB,5,,FHRS,5
272333,,,,,Luckey Cakes,Other catering premises,7841,5,,563917,5,,,13/00057/COMM,315,emma.bourne@woking.gov.uk,Woking,http://www.woking.gov.uk,,,2013-06-14,fhrs_5_en-GB,5,,FHRS,0
272334,78 High Road Byfleet West Byfleet Surrey,,,,M & A Meats Ltd,Other catering premises,7841,0,,45787,0,,51.33891800000000,11/00027/COMM,315,emma.bourne@woking.gov.uk,Woking,http://www.woking.gov.uk,-0.47606200000000,KT14 7QW,2014-10-29,fhrs_5_en-GB,5,,FHRS,0
272335,Woking Station Station Approach Woking Surrey,,,,M&S Simply Food,Retailers - supermarkets/hypermarkets,7840,0,,16020,0,,51.31807800000000,05/08610/COMM,315,emma.bourne@woking.gov.uk,Woking,http://www.woking.gov.uk,-0.55741400000000,GU22 7AE,2011-07-25,fhrs_5_en-GB,5,,FHRS,5
272336,36 Mabel Street Woking Surrey,,,,M.G. Trovato & Sons,Retailers - other,4613,5,,16121,5,,51.31694700000000,05/13660/COMM,315,emma.bourne@woking.gov.uk,Woking,http://www.woking.gov.uk,-0.57299100000000,GU21 6NW,2014-01-10,fhrs_5_en-GB,5,,FHRS,5
272337,20 Chertsey Road Woking Surrey,,,,M2 Pizza Pasta,Restaurant/Cafe/Canteen,1,0,,13329,0,,51.31951900000000,04/21253/COMM,315,emma.bourne@woking.gov.uk,Woking,http://www.woking.gov.uk,-0.55682400000000,GU21 5AB,2013-09-20,fhrs_5_en-GB,5,,FHRS,0
272338,,,,,Made By Morwenna,Other catering premises,7841,5,,480638,0,,,12/00079/COMM,315,emma.bourne@woking.gov.uk,Woking,http://www.woking.gov.uk,,,2012-10-03,fhrs_5_en-GB,5,,FHRS,0
272339,Bonsey Lane Westfield Woking Surrey,,,,Magical Moments,Other catering premises,7841,,,582823,,,51.29986700000000,06/00015/COMM,315,emma.bourne@woking.gov.uk,Woking,http://www.woking.gov.uk,-0.56749600000000,GU22 9PE,2014-09-26,fhrs_exempt_en-GB,Exempt,,FHRS,
272340,Sheerwater Scouts Group Centre 65A Lambourne Crescent Sheerwater Woking Surrey,,,,Magical Moments,Other catering premises,7841,0,,715370,0,,51.33657400000000,14/00073/COMM,315,emma.bourne@woking.gov.uk,Woking,http://www.woking.gov.uk,-0.52266700000000,GU21 5RQ,2014-11-11,fhrs_5_en-GB,5,,FHRS,0
272341,127 - 129 Goldsworth Road Woking Surrey,,,,Majestic Wine,Retailers - other,4613,,,582813,,,51.31741500000000,05/18414/COMM,315,emma.bourne@woking.gov.uk,Woking,http://www.woking.gov.uk,-0.56710700000000,GU21 6LR,2013-11-07,fhrs_exempt_en-GB,Exempt,,FHRS,
272342,91 High Street Horsell Woking Surrey,,,,Manichem Ltd - Horsell Pharmacy,Retailers - other,4613,,,582821,,,51.32412500000000,05/42816/COMM,315,emma.bourne@woking.gov.uk,Woking,http://www.woking.gov.uk,-0.57461900000000,GU21 4SY,2013-01-07,fhrs_exempt_en-GB,Exempt,,FHRS,
272343,45 Chobham Road Woking Surrey,,,,Maria,Retailers - other,4613,20,,16188,5,,51.32106700000000,05/21097/COMM,315,emma.bourne@woking.gov.uk,Woking,http://www.woking.gov.uk,-0.55770800000000,GU21 6JD,2014-09-25,fhrs_1_en-GB,1,,FHRS,0
272344,Marist RC Primary School 58 Old Woking Road West Byfleet Surrey,,,,Marist RC School,School/college/university,7845,0,,16233,5,,51.33533100000000,05/26240/COMM,315,emma.bourne@woking.gov.uk,Woking,http://www.woking.gov.uk,-0.50901200000000,KT14 6HS,2014-12-09,fhrs_5_en-GB,5,,FHRS,5
272345,19 High Street Woking Surrey,,,,Marjorie Richardson Centre,Restaurant/Cafe/Canteen,1,0,,16329,0,,51.31825100000000,05/42744/COMM,315,emma.bourne@woking.gov.uk,Woking,http://www.woking.gov.uk,-0.55900200000000,GU21 6BW,2014-11-24,fhrs_5_en-GB,5,,FHRS,0
272346,,,,,Mark It With E,Other catering premises,7841,5,,480633,5,,,12/00070/COMM,315,emma.bourne@woking.gov.uk,Woking,http://www.woking.gov.uk,,,2012-09-27,fhrs_5_en-GB,5,,FHRS,5
272347,87 High Street Horsell Woking Surrey,,,,Martins Newsagent,Retailers - other,4613,0,,16278,0,,51.32412500000000,05/33099/COMM,315,emma.bourne@woking.gov.uk,Woking,http://www.woking.gov.uk,-0.57461900000000,GU21 4SY,2013-01-03,fhrs_5_en-GB,5,,FHRS,5
272348,Unit 5 Goldsworth Park Centre Woking Surrey,,,,Martins Newsagents,Retailers - other,4613,0,,17790,0,,51.31885300000000,06/00032/COMM,315,emma.bourne@woking.gov.uk,Woking,http://www.woking.gov.uk,-0.59072600000000,GU21 3LG,2014-03-25,fhrs_5_en-GB,5,,FHRS,5
272349,65 Dartmouth Avenue Sheerwater Woking Surrey,,,,Martins The Newsagents,Retailers - other,4613,,,16334,,,51.33348200000000,05/43252/COMM,315,emma.bourne@woking.gov.uk,Woking,http://www.woking.gov.uk,-0.52994400000000,GU21 5PE,2015-01-12,fhrs_exempt_en-GB,Exempt,,FHRS,
272350,96 High Street Horsell Woking Surrey,,,,Masala Spice,Takeaway/sandwich shop,7844,5,,150363,5,,51.32359900000000,98/33121/COMM,315,emma.bourne@woking.gov.uk,Woking,http://www.woking.gov.uk,-0.57427700000000,GU21 4SU,2014-03-14,fhrs_5_en-GB,5,,FHRS,5
272351,43 Dartmouth Avenue Sheerwater Woking Surrey,,,,Mascot,Distributors/Transporters,7,,,710046,,,51.33353500000000,14/00055/COMM,315,emma.bourne@woking.gov.uk,Woking,http://www.woking.gov.uk,-0.52981300000000,GU21 5PE,2014-09-10,fhrs_exempt_en-GB,Exempt,,FHRS,
272352,51 Dartmouth Avenue Sheerwater Woking Surrey,,,,May & Thomson,Retailers - other,4613,,,582822,,,51.33353500000000,05/43234/COMM,315,emma.bourne@woking.gov.uk,Woking,http://www.woking.gov.uk,-0.52981300000000,GU21 5PE,2014-03-27,fhrs_exempt_en-GB,Exempt,,FHRS,
272353,Maybury Hill Service Station Park Road Woking Surrey,,,,Maybury Hill Service Station,Retailers - other,4613,,,149064,,,51.31708900000000,95/13457/COMM,315,emma.bourne@woking.gov.uk,Woking,http://www.woking.gov.uk,-0.53925000000000,GU22 8AA,2014-08-12,fhrs_exempt_en-GB,Exempt,,FHRS,
272354,Walton Road Woking Surrey,,,,Maybury Infant School,School/college/university,7845,0,,15962,0,,51.32273200000000,05/07738/COMM,315,emma.bourne@woking.gov.uk,Woking,http://www.woking.gov.uk,-0.55052300000000,GU21 5DW,2014-02-14,fhrs_5_en-GB,5,,FHRS,5
272355,Mayford Arms Public House Guildford Road Mayford Woking Surrey,,,,Mayford Arms P H,Pub/bar/nightclub,7843,10,,16242,10,,51.29485600000000,05/28866/COMM,315,emma.bourne@woking.gov.uk,Woking,http://www.woking.gov.uk,-0.57099400000000,GU22 9QT,2013-09-27,fhrs_2_en-GB,2,,FHRS,15
272356,The Reception Office Mayford Grange 99 Westfield Road Westfield Woking Surrey,,,,Mayford Grange Retirement Village,Hospitals/Childcare/Caring Premises,5,5,,28836,10,,51.29482000000000,09/00030/COMM,315,emma.bourne@woking.gov.uk,Woking,http://www.woking.gov.uk,-0.56517100000000,GU22 9AX,2014-07-04,fhrs_4_en-GB,4,,FHRS,5
272357,Post Office Mayford Green Mayford Woking Surrey,,,,Mayford Post Office,Retailers - other,4613,,,582818,,,51.29590300000000,05/28859/COMM,315,emma.bourne@woking.gov.uk,Woking,http://www.woking.gov.uk,-0.57427400000000,GU22 0NL,2013-12-12,fhrs_exempt_en-GB,Exempt,,FHRS,
272358,Mayford Village Hall Saunders Lane Woking Surrey,,,,Mayford Village Hall,Retailers - other,4613,0,,16038,0,,51.29699300000000,05/09284/COMM,315,emma.bourne@woking.gov.uk,Woking,http://www.woking.gov.uk,-0.58185700000000,GU22 0NN,2014-09-02,fhrs_5_en-GB,5,,FHRS,0
272359,152 Connaught Road Brookwood Woking Surrey,,,,Mayo Fish Bar,Takeaway/sandwich shop,7844,5,,16314,5,,51.30484000000000,05/36227/COMM,315,emma.bourne@woking.gov.uk,Woking,http://www.woking.gov.uk,-0.64149500000000,GU24 0AL,2013-11-07,fhrs_5_en-GB,5,,FHRS,5
272360,58 - 60 Westfield Road Westfield Woking Surrey,,,,McColls,Retailers - other,4613,0,,16215,5,,51.30199000000000,05/25021/COMM,315,emma.bourne@woking.gov.uk,Woking,http://www.woking.gov.uk,-0.56025700000000,GU22 9NG,2014-08-04,fhrs_5_en-GB,5,,FHRS,0
272361,Unit 66 Lower Concourse  Peacocks Centre Victoria Way Woking Surrey,,,,McDonalds,Restaurant/Cafe/Canteen,1,0,,15995,0,,51.31985100000000,05/08389/COMM,315,emma.bourne@woking.gov.uk,Woking,http://www.woking.gov.uk,-0.56186500000000,GU21 6GB,2013-02-26,fhrs_5_en-GB,5,,FHRS,5
272362,11 - 17 Chertsey Road Woking Surrey,,,,McDonalds Restaurant,Restaurant/Cafe/Canteen,1,0,,16194,0,,51.31951900000000,05/21243/COMM,315,emma.bourne@woking.gov.uk,Woking,http://www.woking.gov.uk,-0.55682400000000,GU21 5AB,2015-01-27,fhrs_5_en-GB,5,,FHRS,0
272363,Absolute Taste Mclaren Technology Centre Chertsey Road Woking Surrey,,,,McLaren Technology Centre,Restaurant/Cafe/Canteen,1,0,,14525,0,,51.34641800000000,05/00015/COMM,315,emma.bourne@woking.gov.uk,Woking,http://www.woking.gov.uk,-0.54760800000000,GU21 4YH,2013-09-10,fhrs_5_en-GB,5,,FHRS,0
272364,,,,,Michelle Kerslake,Restaurant/Cafe/Canteen,1,5,,33029,5,,,10/00020/COMM,315,emma.bourne@woking.gov.uk,Woking,http://www.woking.gov.uk,,,2013-09-18,fhrs_5_en-GB,5,,FHRS,5
272365,9 Anchor Crescent Knaphill Woking Surrey,,,,Milano Pizza,Restaurant/Cafe/Canteen,1,5,,45703,0,,51.31849400000000,11/00022/COMM,315,emma.bourne@woking.gov.uk,Woking,http://www.woking.gov.uk,-0.61569200000000,GU21 2PD,2013-10-01,fhrs_5_en-GB,5,,FHRS,5
272366,Unit 32d Upper Concourse  Peacocks Centre Victoria Way Woking Surrey,,,,Millies Cookies/Baskin Robins,Takeaway/sandwich shop,7844,0,,15788,0,,51.31985100000000,05/01798/COMM,315,emma.bourne@woking.gov.uk,Woking,http://www.woking.gov.uk,-0.56186500000000,GU21 6GH,2013-02-12,fhrs_5_en-GB,5,,FHRS,5
272367,,,,,Mills & Belles,Manufacturers/packers,7839,5,,563923,0,,,13/00066/COMM,315,emma.bourne@woking.gov.uk,Woking,http://www.woking.gov.uk,,,2013-06-24,fhrs_5_en-GB,5,,FHRS,0
272368,,,,,MisterTuck Shop,Other catering premises,7841,5,,480632,0,,,11/00140/COMM,315,emma.bourne@woking.gov.uk,Woking,http://www.woking.gov.uk,,,2012-10-05,fhrs_5_en-GB,5,,FHRS,0
272369,,,,,MK Pastry Arts,Other catering premises,7841,5,,688752,0,,,14/00040/COMM,315,emma.bourne@woking.gov.uk,Woking,http://www.woking.gov.uk,,,2014-07-01,fhrs_5_en-GB,5,,FHRS,0
272370,142 Connaught Road Brookwood Woking Surrey,,,,Mogul Indian Restaurant,Restaurant/Cafe/Canteen,1,5,,16313,0,,51.30470200000000,05/36219/COMM,315,emma.bourne@woking.gov.uk,Woking,http://www.woking.gov.uk,-0.63814200000000,GU24 0AS,2013-01-15,fhrs_5_en-GB,5,,FHRS,0
272371,Mazzumo Chocolate Unit 43 Upper Concourse Peacocks Centre Victoria Way Woking Surrey,,,,Montezuma's Chocolates,Retailers - other,4613,,,733754,,,51.31985000000000,15/00013/COMM,315,emma.bourne@woking.gov.uk,Woking,http://www.woking.gov.uk,-0.56186500000000,GU21 6GB,2015-02-02,fhrs_exempt_en-GB,Exempt,,FHRS,
272372,17 Monument Road Woking Surrey,,,,Monument General Food Store,Retailers - other,4613,10,,149063,10,,51.32578500000000,95/12925/COMM,315,emma.bourne@woking.gov.uk,Woking,http://www.woking.gov.uk,-0.54221700000000,GU21 5LR,2013-03-13,fhrs_3_en-GB,3,,FHRS,5
272373,Moorcroft Centre For The Community Old School Place Westfield Woking Surrey,,,,Moorcroft Centre For The Community,Other catering premises,7841,5,,710055,0,,51.30076600000000,14/00064/COMM,315,emma.bourne@woking.gov.uk,Woking,http://www.woking.gov.uk,-0.55947800000000,GU22 9LX,2014-10-14,fhrs_5_en-GB,5,,FHRS,5
272374,Morrisons 82 Goldsworth Road Woking Surrey,,,,Morrisons Customer Cafe,Retailers - supermarkets/hypermarkets,7840,0,,13317,0,,51.31736100000000,04/18378/COMM,315,emma.bourne@woking.gov.uk,Woking,http://www.woking.gov.uk,-0.56560200000000,GU21 6LJ,2013-07-02,fhrs_5_en-GB,5,,FHRS,5
272375,Petrol Filling Station  Morrison 82 Goldsworth Road Woking Surrey,,,,Morrisons Petrol Filling Station,Retailers - supermarkets/hypermarkets,7840,5,,16165,5,,51.31736100000000,05/18379/COMM,315,emma.bourne@woking.gov.uk,Woking,http://www.woking.gov.uk,-0.56560200000000,GU21 6LJ,2014-03-18,fhrs_4_en-GB,4,,FHRS,10
272376,Morrisons 82 Goldsworth Road Woking Surrey,,,,Morrisons Supermarket,Retailers - supermarkets/hypermarkets,7840,0,,15063,0,,51.31736100000000,05/00098/COMM,315,emma.bourne@woking.gov.uk,Woking,http://www.woking.gov.uk,-0.56560200000000,GU21 6LJ,2014-08-19,fhrs_5_en-GB,5,,FHRS,0
272377,,,,,Mostacciolli Gourmet,Other catering premises,7841,5,,451863,5,,,12/00067/COMM,315,emma.bourne@woking.gov.uk,Woking,http://www.woking.gov.uk,,,2012-09-21,fhrs_5_en-GB,5,,FHRS,5
272378,,,,,Mr Whippy Ices,Mobile caterer,7846,5,,672074,0,,,14/00028/COMM,315,emma.bourne@woking.gov.uk,Woking,http://www.woking.gov.uk,,,2014-05-22,fhrs_5_en-GB,5,,FHRS,0
272379,Unit 3 Middle Concourse  Peacocks Centre Victoria Way Woking Surrey,,,,Muffin Break,Restaurant/Cafe/Canteen,1,5,,7892,0,,51.31985100000000,03/01540/COMM,315,emma.bourne@woking.gov.uk,Woking,http://www.woking.gov.uk,-0.56186500000000,GU21 6GB,2013-07-02,fhrs_5_en-GB,5,,FHRS,0
272380,Murco Petrol Filling Station 111 Oyster Lane Byfleet West Byfleet Surrey,,,,Murco Filling Station,Retailers - other,4613,5,,16293,5,,51.34026500000000,05/34189/COMM,315,emma.bourne@woking.gov.uk,Woking,http://www.woking.gov.uk,-0.47387800000000,KT14 7HJ,2014-01-10,fhrs_5_en-GB,5,,FHRS,0
272381,,,,,My Crafty Cake Symphony,Other catering premises,7841,5,,563921,0,,,13/00062/COMM,315,emma.bourne@woking.gov.uk,Woking,http://www.woking.gov.uk,,,2013-06-25,fhrs_5_en-GB,5,,FHRS,0
272382,The Nags Head Bagshot Road Woking Surrey,,,,Nags Head Inn,Pub/bar/nightclub,7843,0,,16207,0,,51.30925200000000,05/23798/COMM,315,emma.bourne@woking.gov.uk,Woking,http://www.woking.gov.uk,-0.62660100000000,GU21 2RP,2014-09-18,fhrs_5_en-GB,5,,FHRS,0
272383,24 Chertsey Road Woking Surrey,,,,Nando's,Restaurant/Cafe/Canteen,1,0,,16195,0,,51.31951900000000,05/21256/COMM,315,emma.bourne@woking.gov.uk,Woking,http://www.woking.gov.uk,-0.55682400000000,GU21 5AB,2013-06-21,fhrs_5_en-GB,5,,FHRS,0
272384,,,,,Naughty Nosh,Other catering premises,7841,5,,451864,5,,,12/00069/COMM,315,emma.bourne@woking.gov.uk,Woking,http://www.woking.gov.uk,,,2012-10-02,fhrs_5_en-GB,5,,FHRS,0
272385,131 Princess Road Maybury Woking Surrey,,,,New 5 Star,Takeaway/sandwich shop,7844,5,,534916,5,,51.32426200000000,13/00032/COMM,315,emma.bourne@woking.gov.uk,Woking,http://www.woking.gov.uk,-0.53259200000000,GU22 8ER,2013-03-26,fhrs_4_en-GB,4,,FHRS,10
272386,13 Manor Crescent Byfleet West Byfleet Surrey,,,,New Generation Care,Restaurant/Cafe/Canteen,1,5,,28708,0,,51.33492200000000,09/00020/COMM,315,emma.bourne@woking.gov.uk,Woking,http://www.woking.gov.uk,-0.46960500000000,KT14 7EN,2012-12-13,fhrs_5_en-GB,5,,FHRS,0
272387,15 Manor Crescent Byfleet West Byfleet Surrey,,,,New Generation Care,Hospitals/Childcare/Caring Premises,5,5,,21543,0,,51.33492200000000,07/00035/COMM,315,emma.bourne@woking.gov.uk,Woking,http://www.woking.gov.uk,-0.46960500000000,KT14 7EN,2012-12-13,fhrs_5_en-GB,5,,FHRS,0
272388,New Golden House 181 High Street Old Woking Woking Surrey,,,,New Golden House,Takeaway/sandwich shop,7844,5,,15898,5,,51.30238100000000,05/05398/COMM,315,emma.bourne@woking.gov.uk,Woking,http://www.woking.gov.uk,-0.53811000000000,GU22 9JH,2014-01-21,fhrs_5_en-GB,5,,FHRS,5
272389,22 High Street Knaphill Woking Surrey,,,,New Haweli Express,Restaurant/Cafe/Canteen,1,5,,409308,5,,51.31832100000000,12/00045/COMM,315,emma.bourne@woking.gov.uk,Woking,http://www.woking.gov.uk,-0.61625700000000,GU21 2PE,2013-10-15,fhrs_5_en-GB,5,,FHRS,5
272390,New Look Unit 31a Upper Concourse Peacocks Centre Victoria Way Woking Surrey,,,,New Look,Retailers - other,4613,,,672063,,,51.31985100000000,11/00008/COMM,315,emma.bourne@woking.gov.uk,Woking,http://www.woking.gov.uk,-0.56186500000000,GU21 6GB,2014-03-21,fhrs_exempt_en-GB,Exempt,,FHRS,
272391,116 Hermitage Road St Johns Woking Surrey,,,,New Lucky Chinese Takeaway,Takeaway/sandwich shop,7844,0,,16151,0,,51.31241000000000,05/16808/COMM,315,emma.bourne@woking.gov.uk,Woking,http://www.woking.gov.uk,-0.60771100000000,GU21 8TT,2013-09-24,fhrs_5_en-GB,5,,FHRS,5
272392,Alpha Road Woking Surrey,,,,New Monument School,School/college/university,7845,5,,16210,5,,51.32570900000000,05/24430/COMM,315,emma.bourne@woking.gov.uk,Woking,http://www.woking.gov.uk,-0.53465600000000,GU22 8HA,2013-05-17,fhrs_4_en-GB,4,,FHRS,10
272393,New Zealand Golf Club House 470 Woodham Lane Woking Addlestone Surrey,,,,New Zealand Golf Club,Restaurant/Cafe/Canteen,1,5,,15993,0,,51.34136500000000,05/08359/COMM,315,emma.bourne@woking.gov.uk,Woking,http://www.woking.gov.uk,-0.52247000000000,KT15 3QD,2014-06-12,fhrs_5_en-GB,5,,FHRS,5
272394,3-5 Rydens Parade Rydens Way Old Woking Woking Surrey,,,,News And Wine Foodmarket,Retailers - other,4613,5,,16042,5,,51.30554500000000,05/09686/COMM,315,emma.bourne@woking.gov.uk,Woking,http://www.woking.gov.uk,-0.54156800000000,GU22 9DH,2012-07-27,fhrs_5_en-GB,5,,FHRS,5
272395,Noahs Ark Nursery School Blackhorse Road Brookwood Woking Surrey,,,,Noah's Ark Nursery School (Caring Daycare Ltd),School/college/university,7845,10,,16317,5,,51.27199935913086,05/36616/COMM,315,emma.bourne@woking.gov.uk,Woking,http://www.woking.gov.uk,-0.40499997138977,GU22 0RE,2014-09-18,fhrs_4_en-GB,4,,FHRS,5
272396,Pyrford Road Woking West Byfleet Surrey,,,,Nuffield Health,Restaurant/Cafe/Canteen,1,0,,149062,0,,51.33007300000000,95/08083/COMM,315,emma.bourne@woking.gov.uk,Woking,http://www.woking.gov.uk,-0.50141700000000,GU22 8UQ,2014-07-10,fhrs_5_en-GB,5,,FHRS,0
272397,Nuffield Hospital Grange Road Horsell Woking Surrey,,,,Nuffield Hospital,Hospitals/Childcare/Caring Premises,5,0,,16030,0,,51.33102200000000,05/08964/COMM,315,emma.bourne@woking.gov.uk,Woking,http://www.woking.gov.uk,-0.55990800000000,GU21 4DA,2014-12-04,fhrs_5_en-GB,5,,FHRS,0
272398,Oakcroft House Nursing Home Oakcroft Road West Byfleet Surrey,,,,Oakcroft House Nursing Home,Hospitals/Childcare/Caring Premises,5,0,,149067,0,,51.33326400000000,95/25806/COMM,315,emma.bourne@woking.gov.uk,Woking,http://www.woking.gov.uk,-0.50839000000000,KT14 6JG,2014-07-17,fhrs_5_en-GB,5,,FHRS,0
272399,39 Dartmouth Avenue Sheerwater Woking Surrey,,,,Oasis Cafe,Restaurant/Cafe/Canteen,1,0,,149459,5,,51.33348200000000,96/43212/COMM,315,emma.bourne@woking.gov.uk,Woking,http://www.woking.gov.uk,-0.52994400000000,GU21 5PE,2014-05-13,fhrs_5_en-GB,5,,FHRS,5
272400,41 Old Woking Road West Byfleet Surrey,,,,Oisi Japanese Restaurant,Restaurant/Cafe/Canteen,1,20,,13339,10,,51.33699500000000,04/43081/COMM,315,emma.bourne@woking.gov.uk,Woking,http://www.woking.gov.uk,-0.50479500000000,KT14 6LG,2014-12-09,fhrs_1_en-GB,1,,FHRS,15
272401,Regent House 19 - 20 The Broadway Woking Surrey,,,,Okka Lounge,Restaurant/Cafe/Canteen,1,0,,702406,0,,51.31950500000000,12/00062/COMM,315,emma.bourne@woking.gov.uk,Woking,http://www.woking.gov.uk,-0.55573400000000,GU21 5AP,2012-08-29,fhrs_5_en-GB,5,,FHRS,0
272402,33 Westfield Road Westfield Woking Surrey,,,,Old Woking And District Rec. Club,Pub/bar/nightclub,7843,5,,16213,5,,51.30199000000000,05/25001/COMM,315,emma.bourne@woking.gov.uk,Woking,http://www.woking.gov.uk,-0.56025700000000,GU22 9NG,2013-01-24,fhrs_4_en-GB,4,,FHRS,10
272403,Remnants Cricket Club Queen Elizabeth Way Kingfield Woking Surrey,,,,Old Woking Cricket Club,Pub/bar/nightclub,7843,,,16059,,,51.30853700000000,05/10616/COMM,315,emma.bourne@woking.gov.uk,Woking,http://www.woking.gov.uk,-0.55420100000000,,2014-09-18,fhrs_exempt_en-GB,Exempt,,FHRS,
272404,O Niels Crown Square Chobham Road Woking Surrey,,,,O'Neill's,Pub/bar/nightclub,7843,0,,16190,0,,51.32050600000000,05/21134/COMM,315,emma.bourne@woking.gov.uk,Woking,http://www.woking.gov.uk,-0.55663500000000,GU21 6HR,2014-07-08,fhrs_5_en-GB,5,,FHRS,0
272405,Our Lady Help Of Christians Church Madeira Road West Byfleet Surrey,,,,Our Lady Hoc Church Hall,Other catering premises,7841,,,16222,,,51.33803500000000,05/25953/COMM,315,emma.bourne@woking.gov.uk,Woking,http://www.woking.gov.uk,-0.50599500000000,KT14 6DH,2014-09-22,fhrs_exempt_en-GB,Exempt,,FHRS,
272406,108 Hermitage Road St Johns Woking Surrey,,,,Out To Lunch,Takeaway/sandwich shop,7844,5,,21303,0,,51.31236000000000,07/00007/COMM,315,emma.bourne@woking.gov.uk,Woking,http://www.woking.gov.uk,-0.60345100000000,GU21 8TQ,2013-07-16,fhrs_5_en-GB,5,,FHRS,0
272407,Kiosk 1 Market Walk Woking Surrey,,,,P & P Fruits,Retailers - other,4613,5,,720369,5,,,14/00086/COMM,315,emma.bourne@woking.gov.uk,Woking,http://www.woking.gov.uk,,,2014-11-05,fhrs_5_en-GB,5,,FHRS,5
272408,Unit 4 Technology House 48 - 54 Goldsworth Road Woking Surrey,,,,Papa Johns,Takeaway/sandwich shop,7844,0,,33385,0,,51.31714800000000,10/00041/COMM,315,emma.bourne@woking.gov.uk,Woking,http://www.woking.gov.uk,-0.56441800000000,GU21 6LE,2013-07-22,fhrs_5_en-GB,5,,FHRS,0
272409,The Park School Onslow Crescent Woking Surrey,,,,Park School,School/college/university,7845,5,,16086,0,,51.31946700000000,05/11805/COMM,315,emma.bourne@woking.gov.uk,Woking,http://www.woking.gov.uk,-0.54967900000000,GU22 7AT,2013-05-21,fhrs_5_en-GB,5,,FHRS,5
272410,83 Devonshire Avenue Sheerwater Woking Surrey,,,,Parkview Centre For The Community,Restaurant/Cafe/Canteen,1,5,,121256,5,,51.33378200000000,5/20011/COMM,315,emma.bourne@woking.gov.uk,Woking,http://www.woking.gov.uk,-0.53228900000000,GU21 5NZ,2012-06-14,fhrs_5_en-GB,5,,FHRS,0
272411,19 - 21 Dartmouth Avenue Sheerwater Woking Surrey,,,,Parmar Supermarkets,Retailers - other,4613,5,,16332,5,,51.33348200000000,05/43176/COMM,315,emma.bourne@woking.gov.uk,Woking,http://www.woking.gov.uk,-0.52994400000000,GU21 5PE,2012-06-12,fhrs_5_en-GB,5,,FHRS,5
272412,69 Woodlands Avenue West Byfleet Surrey,,,,Party Food And Event Catering,Restaurant/Cafe/Canteen,1,0,,33363,0,,51.33930300000000,10/00040/COMM,315,emma.bourne@woking.gov.uk,Woking,http://www.woking.gov.uk,-0.51095000000000,KT14 6AW,2014-06-17,fhrs_5_en-GB,5,,FHRS,0
272413,24 Wolsey Walk Wolsey Place Woking Surrey,,,,Patisserie Valerie,Restaurant/Cafe/Canteen,1,5,,590344,5,,51.31953100000000,13/00081/COMM,315,emma.bourne@woking.gov.uk,Woking,http://www.woking.gov.uk,-0.55930600000000,GU21 6XX,2013-09-25,fhrs_5_en-GB,5,,FHRS,5
272414,14 Lower Guildford Road Knaphill Woking Surrey,,,,Peking Take Away,Takeaway/sandwich shop,7844,0,,16249,0,,51.31792400000000,05/29289/COMM,315,emma.bourne@woking.gov.uk,Woking,http://www.woking.gov.uk,-0.61464700000000,GU21 2EE,2014-03-26,fhrs_5_en-GB,5,,FHRS,0
272415,,,,,Peony Pantry Cakes,Other catering premises,7841,5,,544787,0,,,13/00038/COMM,315,emma.bourne@woking.gov.uk,Woking,http://www.woking.gov.uk,,,2013-04-08,fhrs_5_en-GB,5,,FHRS,0
272416,St Thomas Church Littlewick Common Knaphill Woking Surrey,,,,Peter Pan Pre-School Nursery,School/college/university,7845,0,,21280,5,,51.32756100000000,07/00005/COMM,315,emma.bourne@woking.gov.uk,Woking,http://www.woking.gov.uk,-0.60076500000000,GU21 2JZ,2014-03-03,fhrs_5_en-GB,5,,FHRS,0
272417,153 Maybury Road Woking Surrey,,,,"Pillbox Chemist, Bridge Pharmacy",Retailers - other,4613,,,582808,,,51.32448900000000,05/04762/COMM,315,emma.bourne@woking.gov.uk,Woking,http://www.woking.gov.uk,-0.54352100000000,GU21 5JR,2013-03-26,fhrs_exempt_en-GB,Exempt,,FHRS,
272418,Unit 4 Cobb House 2 - 4 Oyster Lane Byfleet West Byfleet Surrey,,,,Pizza Comodor Byfleet,Restaurant/Cafe/Canteen,1,5,,16003,5,,51.33903100000000,05/08415/COMM,315,emma.bourne@woking.gov.uk,Woking,http://www.woking.gov.uk,-0.47370300000000,KT14 7DU,2014-12-17,fhrs_5_en-GB,5,,FHRS,0
272419,65 - 67 Goldsworth Road Woking Surrey,,,,Pizza Express,Restaurant/Cafe/Canteen,1,5,,16164,0,,51.31736100000000,05/18366/COMM,315,emma.bourne@woking.gov.uk,Woking,http://www.woking.gov.uk,-0.56560200000000,GU21 6LJ,2013-03-27,fhrs_5_en-GB,5,,FHRS,0
272420,8 The Broadway Woking Surrey,,,,Pizza Go Go,Takeaway/sandwich shop,7844,5,,8017,5,,51.31954000000000,03/08474/COMM,315,emma.bourne@woking.gov.uk,Woking,http://www.woking.gov.uk,-0.55563200000000,GU21 5AP,2014-05-16,fhrs_5_en-GB,5,,FHRS,5
272421,3 Guildford Road Woking Surrey,,,,Pizza Hut,Takeaway/sandwich shop,7844,0,,150737,0,,51.31644300000000,99/17642/COMM,315,emma.bourne@woking.gov.uk,Woking,http://www.woking.gov.uk,-0.55970400000000,GU22 7PX,2013-09-12,fhrs_5_en-GB,5,,FHRS,5
272422,Perfect Pizza 3 The Broadway Woking Surrey,,,,Pizza King,Takeaway/sandwich shop,7844,5,,544790,5,,51.31950500000000,13/00042/COMM,315,emma.bourne@woking.gov.uk,Woking,http://www.woking.gov.uk,-0.55573400000000,GU21 5AP,2013-04-30,fhrs_5_en-GB,5,,FHRS,5
272423,2 Orchard House 118 - 124 Connaught Road Brookwood Woking Surrey,,,,Pizza Plus,Takeaway/sandwich shop,7844,10,,28747,10,,51.30454800000000,09/00023/COMM,315,emma.bourne@woking.gov.uk,Woking,http://www.woking.gov.uk,-0.63728600000000,GU24 0AT,2014-03-27,fhrs_3_en-GB,3,,FHRS,5
272424,The Plough Public House 104 High Road Byfleet West Byfleet Surrey,,,,Plough Public House,Pub/bar/nightclub,7843,0,,16300,5,,51.33881800000000,05/34607/COMM,315,emma.bourne@woking.gov.uk,Woking,http://www.woking.gov.uk,-0.47461500000000,KT14 7QT,2013-12-04,fhrs_5_en-GB,5,,FHRS,5
272425,39 Station Approach West Byfleet Surrey,,,,Ponte Vecchio,Restaurant/Cafe/Canteen,1,10,,15434,10,,51.33896400000000,05/00227/COMM,315,emma.bourne@woking.gov.uk,Woking,http://www.woking.gov.uk,-0.50544800000000,KT14 6NF,2013-11-14,fhrs_3_en-GB,3,,FHRS,10
272426,Popcorn Kitchen 11A  11 Manor Way Old Woking Woking Surrey,,,,Popcorn Kitchen,Mobile caterer,7846,0,,582880,0,,51.30327100000000,13/00022/COMM,315,emma.bourne@woking.gov.uk,Woking,http://www.woking.gov.uk,-0.54093700000000,GU22 9JX,2014-06-16,fhrs_5_en-GB,5,,FHRS,0
272427,6 High Street Woking Surrey,,,,Poppadom Charlies,Restaurant/Cafe/Canteen,1,5,,733752,5,,51.31871100000000,15/00011/COMM,315,emma.bourne@woking.gov.uk,Woking,http://www.woking.gov.uk,-0.55775300000000,GU21 6BG,2015-01-30,fhrs_5_en-GB,5,,FHRS,5
272428,73 Commercial Way Woking Surrey,,,,Poppins Restaurant,Restaurant/Cafe/Canteen,1,10,,149981,10,,51.31978800000000,97/43709/COMM,315,emma.bourne@woking.gov.uk,Woking,http://www.woking.gov.uk,-0.55753300000000,GU21 6HN,2013-06-17,fhrs_3_en-GB,3,,FHRS,10
272429,4 Claremont Road West Byfleet Surrey,,,,Porcini,Takeaway/sandwich shop,7844,5,,409298,10,,51.34026600000000,12/00032/COMM,315,emma.bourne@woking.gov.uk,Woking,http://www.woking.gov.uk,-0.50465900000000,KT14 6DY,2013-03-26,fhrs_4_en-GB,4,,FHRS,5
272430,West Hall Parvis Road West Byfleet Surrey,,,,Positive Steps Childrens Day Nursery,Hospitals/Childcare/Caring Premises,5,0,,550164,0,,51.33504600000000,13/00047/COMM,315,emma.bourne@woking.gov.uk,Woking,http://www.woking.gov.uk,-0.48816300000000,KT14 6EY,2014-12-09,fhrs_5_en-GB,5,,FHRS,5
272431,Poundworld Unit 17 Middle Concourse Peacocks Centre Victoria Way Woking Surrey,,,,Pound World,Retailers - other,4613,0,,582890,5,,51.31985100000000,13/00067/COMM,315,emma.bourne@woking.gov.uk,Woking,http://www.woking.gov.uk,-0.56186500000000,GU21 6GB,2013-07-04,fhrs_5_en-GB,5,,FHRS,5
272432,17 - 19 Wolsey Walk Woking Surrey,,,,Poundland,Retailers - other,4613,0,,25035,0,,51.31855500000000,08/00038/COMM,315,emma.bourne@woking.gov.uk,Woking,http://www.woking.gov.uk,-0.55963800000000,GU21 6XU,2012-10-12,fhrs_5_en-GB,5,,FHRS,0
272433,Premier Inn Eurobet House 10 - 24 Church Street West Woking Surrey,,,,Premier Inn,Hotel/bed & breakfast/guest house,7842,0,,607993,0,,51.31851100000000,13/00093/COMM,315,emma.bourne@woking.gov.uk,Woking,http://www.woking.gov.uk,-0.56118900000000,GU21 6HD,2013-10-31,fhrs_5_en-GB,5,,FHRS,0
272434,St Saviours Hall Connaught Road Brookwood Woking Surrey,,,,Pre-School At St Saviours Hall,Other catering premises,7841,0,,16315,0,,51.30470200000000,05/36376/COMM,315,emma.bourne@woking.gov.uk,Woking,http://www.woking.gov.uk,-0.63814200000000,GU24 0AS,2014-02-28,fhrs_5_en-GB,5,,FHRS,0
272435,41 Wolsey Walk Woking Surrey,,,,Pret A Manger,Restaurant/Cafe/Canteen,1,0,,429767,0,,51.31933600000000,12/00054/COMM,315,emma.bourne@woking.gov.uk,Woking,http://www.woking.gov.uk,-0.55876700000000,GU21 6XX,2012-07-12,fhrs_5_en-GB,5,,FHRS,0
272436,Peverel Care Services (Meals Service) Barnes Wallis Court 28 Oyster Lane Byfleet West Byfleet Surrey,,,,Pride Catering Partnership Ltd,Hospitals/Childcare/Caring Premises,5,0,,24659,0,,51.34026500000000,08/00001/COMM,315,emma.bourne@woking.gov.uk,Woking,http://www.woking.gov.uk,-0.47387800000000,KT14 7HJ,2014-07-15,fhrs_5_en-GB,5,,FHRS,5
272437,Village Butcher 107 High Street Horsell Woking Surrey,,,,Prince And Sons Family Butcher,Retailers - other,4613,0,,47552,0,,51.32412500000000,11/00145/COMM,315,emma.bourne@woking.gov.uk,Woking,http://www.woking.gov.uk,-0.57461900000000,GU21 4SY,2013-11-07,fhrs_5_en-GB,5,,FHRS,0
272438,Unit 10 Kestrel Way Woking Surrey,,,,Promologistics,Distributors/Transporters,7,0,,672068,0,,51.32453000000000,14/00020/COMM,315,emma.bourne@woking.gov.uk,Woking,http://www.woking.gov.uk,-0.58499800000000,GU21 3BA,2014-03-28,fhrs_5_en-GB,5,,FHRS,0
272439,Providence  Baptist Church Robin Hood Road Knaphill Woking Surrey,,,,Providence Baptist Church,Other catering premises,7841,0,,16045,0,,51.31963500000000,05/09996/COMM,315,emma.bourne@woking.gov.uk,Woking,http://www.woking.gov.uk,-0.60726200000000,GU21 2LU,2012-11-22,fhrs_5_en-GB,5,,FHRS,0
272440,Coldharbour Road Woking Surrey,,,,Pyrford C Of E Primary School,School/college/university,7845,0,,16239,0,,51.32504600000000,05/28550/COMM,315,emma.bourne@woking.gov.uk,Woking,http://www.woking.gov.uk,-0.51058000000000,GU22 8SP,2013-10-22,fhrs_5_en-GB,5,,FHRS,5
272441,Pyrford Centre 2 Engliff Lane Pyrford Woking Surrey,,,,Pyrford Centre,Other catering premises,7841,5,,16238,5,,51.32290900000000,05/28449/COMM,315,emma.bourne@woking.gov.uk,Woking,http://www.woking.gov.uk,-0.50731900000000,GU22 8SU,2014-02-12,fhrs_5_en-GB,5,,FHRS,0
272442,Pyrford Cricket Ground Coldharbour Road Woking Surrey,,,,Pyrford Cricket Club,Pub/bar/nightclub,7843,5,,16240,5,,51.32504600000000,05/28598/COMM,315,emma.bourne@woking.gov.uk,Woking,http://www.woking.gov.uk,-0.51058000000000,GU22 8SP,2013-02-15,fhrs_5_en-GB,5,,FHRS,5
272443,Pyrford Golf Club Warren Lane Pyrford Woking Surrey,,,,Pyrford Golf Club,Restaurant/Cafe/Canteen,1,5,,15849,5,,51.31588900000000,05/03382/COMM,315,emma.bourne@woking.gov.uk,Woking,http://www.woking.gov.uk,-0.49489100000000,GU22 8XR,2013-07-11,fhrs_4_en-GB,4,,FHRS,10
272444,Pyrford Village Hall Coldharbour Road Woking Surrey,,,,Pyrford Village War Memorial Hall,Other catering premises,7841,,,16241,,,51.32504600000000,05/28599/COMM,315,emma.bourne@woking.gov.uk,Woking,http://www.woking.gov.uk,-0.51058000000000,GU22 8SP,2013-01-10,fhrs_exempt_en-GB,Exempt,,FHRS,
272445,2 High Road Byfleet West Byfleet Surrey,,,,Queens Head Public House,Pub/bar/nightclub,7843,20,,16306,15,,51.33967900000000,05/34722/COMM,315,emma.bourne@woking.gov.uk,Woking,http://www.woking.gov.uk,-0.48067400000000,KT14 7QG,2014-12-02,fhrs_1_en-GB,1,,FHRS,0
272446,31 High Street Horsell Woking Surrey,,,,Quest Haven,Hospitals/Childcare/Caring Premises,5,5,,6147,5,,51.32580100000000,02/33028/COMM,315,emma.bourne@woking.gov.uk,Woking,http://www.woking.gov.uk,-0.57858600000000,GU21 4UR,2013-06-10,fhrs_5_en-GB,5,,FHRS,5
272447,The Ranch Well Path Horsell Woking Surrey,,,,Quest Haven Ltd,Hospitals/Childcare/Caring Premises,5,5,,13180,5,,51.31895700000000,04/08438/COMM,315,emma.bourne@woking.gov.uk,Woking,http://www.woking.gov.uk,-0.57631500000000,GU21 4PJ,2014-11-25,fhrs_5_en-GB,5,,FHRS,0
272448,Unit 12J Lansbury Estate 102 Lower Guildford Road Knaphill Woking Surrey,,,,Radley's Cafe,Restaurant/Cafe/Canteen,1,5,,615851,0,,51.31374200000000,13/00098/COMM,315,emma.bourne@woking.gov.uk,Woking,http://www.woking.gov.uk,-0.61306600000000,GU21 2EW,2013-11-06,fhrs_5_en-GB,5,,FHRS,0
272449,Knaphill Community Centre Waterers Rise Knaphill Woking Surrey,,,,Rainbow Tots,Other catering premises,7841,0,,21315,0,,51.32077500000000,07/00008/COMM,315,emma.bourne@woking.gov.uk,Woking,http://www.woking.gov.uk,-0.61466200000000,GU21 2HU,2014-06-04,fhrs_5_en-GB,5,,FHRS,0
272450,70 High Road Byfleet West Byfleet Surrey,,,,Rajput,Restaurant/Cafe/Canteen,1,5,,15246,5,,51.33875100000000,05/00146/COMM,315,emma.bourne@woking.gov.uk,Woking,http://www.woking.gov.uk,-0.47705800000000,KT14 7QL,2013-10-22,fhrs_4_en-GB,4,,FHRS,10
272451,Unit 8 To 10 Centrium Station Approach Woking Surrey,,,,RaysIndian Restaurant,Restaurant/Cafe/Canteen,1,5,,544786,10,,51.31706200000000,13/00015/COMM,315,emma.bourne@woking.gov.uk,Woking,http://www.woking.gov.uk,-0.55883800000000,GU22 7PA,2014-12-12,fhrs_4_en-GB,4,,FHRS,5
272452,Red Lion Public House 123 High Street Horsell Woking Surrey,,,,RB & AH Ltd - The Red Lion,Pub/bar/nightclub,7843,5,,16282,5,,51.32400200000000,05/33154/COMM,315,emma.bourne@woking.gov.uk,Woking,http://www.woking.gov.uk,-0.57189600000000,GU21 4SS,2013-03-15,fhrs_5_en-GB,5,,FHRS,5
272453,The Red Rose Of Byfleet 148 - 150 High Road Byfleet West Byfleet Surrey,,,,Red Rose Of Byfleet,Restaurant/Cafe/Canteen,1,5,,16303,5,,51.33804600000000,05/34651/COMM,315,emma.bourne@woking.gov.uk,Woking,http://www.woking.gov.uk,-0.47060600000000,KT14 7RG,2014-02-27,fhrs_5_en-GB,5,,FHRS,5
272454,40 Greenmeads Mayford Woking Surrey,,,,Retro Tuckshop Sweets Direct Ltd,Retailers - other,4613,,,688756,,,51.29859400000000,14/00044/COMM,315,emma.bourne@woking.gov.uk,Woking,http://www.woking.gov.uk,-0.56561300000000,GU22 9QL,2014-07-04,fhrs_exempt_en-GB,Exempt,,FHRS,
272455,Market Stalls Commercial Way Woking Surrey,,,,Rez's Jacket Potato Van,Mobile caterer,7846,5,,16005,5,,51.31986100000000,05/08441/COMM,315,emma.bourne@woking.gov.uk,Woking,http://www.woking.gov.uk,-0.55700900000000,,2014-06-05,fhrs_5_en-GB,5,,FHRS,5
272456,Roberts Family Butchers 12 Gorsewood Road St Johns Woking Surrey,,,,Roberts Family Butchers,Retailers - other,4613,0,,16159,0,,51.30805900000000,05/18209/COMM,315,emma.bourne@woking.gov.uk,Woking,http://www.woking.gov.uk,-0.60778500000000,GU21 8UX,2013-11-13,fhrs_5_en-GB,5,,FHRS,0
272457,Robin Hood Inn Public House 90 Robin Hood Road Knaphill Woking Surrey,,,,Robin Hood Inn,Pub/bar/nightclub,7843,5,,16047,5,,51.31899700000000,05/10083/COMM,315,emma.bourne@woking.gov.uk,Woking,http://www.woking.gov.uk,-0.60277600000000,GU21 2LY,2013-02-12,fhrs_5_en-GB,5,,FHRS,5
272458,37 Chertsey Road Woking Surrey,,,,Rooster Piri Piri,Restaurant/Cafe/Canteen,1,20,,13330,5,,51.32016100000000,04/21270/COMM,315,emma.bourne@woking.gov.uk,Woking,http://www.woking.gov.uk,-0.55567000000000,GU21 5AJ,2014-09-24,fhrs_1_en-GB,1,,FHRS,10
272459,Jack Temple Healing Centre Pyrford Road Woking Surrey,,,,Round & Round The Gardens Childcare,Other catering premises,7841,0,,47230,0,,51.33007300000000,11/00116/COMM,315,emma.bourne@woking.gov.uk,Woking,http://www.woking.gov.uk,-0.50141700000000,GU22 8UQ,2014-02-12,fhrs_5_en-GB,5,,FHRS,0
272460,The Rowbarge Public House 37 St Johns Road St Johns Woking Surrey,,,,Rowbarge Public House,Pub/bar/nightclub,7843,10,,188828,5,,51.31273800000000,05/03301/COMM,315,emma.bourne@woking.gov.uk,Woking,http://www.woking.gov.uk,-0.59302200000000,GU21 7SA,2013-09-17,fhrs_4_en-GB,4,,FHRS,5
272461,Rowlands Pharmacy 12 Hermitage Road St Johns Woking Surrey,,,,Rowlands Pharmacy,Retailers - other,4613,,,582812,,,51.31209800000000,05/16752/COMM,315,emma.bourne@woking.gov.uk,Woking,http://www.woking.gov.uk,-0.59734700000000,GU21 8TB,2014-03-25,fhrs_exempt_en-GB,Exempt,,FHRS,
272462,Ground Floor 38 Station Approach West Byfleet Surrey,,,,Royal Chef,Takeaway/sandwich shop,7844,5,,21853,10,,51.33896400000000,07/00077/COMM,315,emma.bourne@woking.gov.uk,Woking,http://www.woking.gov.uk,-0.50544800000000,KT14 6NF,2013-03-26,fhrs_4_en-GB,4,,FHRS,5
272463,Woking Community Hospital 5 Heathside Road Woking Surrey,,,,Royal Voluntary Service Tea Bar,Retailers - other,4613,0,,563915,0,,51.31497400000000,13/00055/COMM,315,emma.bourne@woking.gov.uk,Woking,http://www.woking.gov.uk,-0.55655000000000,GU22 7HS,2013-06-14,fhrs_5_en-GB,5,,FHRS,0
272464,174 High Road Byfleet West Byfleet Surrey,,,,Runa Takeaway,Takeaway/sandwich shop,7844,5,,16305,5,,51.33804600000000,05/34686/COMM,315,emma.bourne@woking.gov.uk,Woking,http://www.woking.gov.uk,-0.47060600000000,KT14 7RG,2013-10-30,fhrs_5_en-GB,5,,FHRS,5
272465,Ruth House Residential Unit Smarts Heath Road Woking Surrey,,,,Ruth House,Hospitals/Childcare/Caring Premises,5,5,,24886,5,,51.29495400000000,08/00023/COMM,315,emma.bourne@woking.gov.uk,Woking,http://www.woking.gov.uk,-0.57609700000000,GU22 0AN,2014-12-03,fhrs_5_en-GB,5,,FHRS,5
272466,SABMiller House 43 Church Street West Woking Surrey,,,,SAB Miller   Lexington Catering,Restaurant/Cafe/Canteen,1,0,,150740,0,,51.31861600000000,99/22280/COMM,315,emma.bourne@woking.gov.uk,Woking,http://www.woking.gov.uk,-0.56242000000000,GU21 6HS,2013-03-21,fhrs_5_en-GB,5,,FHRS,0
272467,Unit 3 Eastgate Station Approach Woking Surrey,,,,Safe Express,Retailers - other,4613,5,,615850,5,,51.31776000000000,13/00096/COMM,315,emma.bourne@woking.gov.uk,Woking,http://www.woking.gov.uk,-0.55782600000000,GU22 7PN,2013-11-12,fhrs_5_en-GB,5,,FHRS,5
272468,J Sainsbury Supermarket Redding Way Knaphill Woking Surrey,,,,Sainsbury Supermarket - Eurest - Staff Restaurant,Other catering premises,7841,0,,563913,0,,51.31202500000000,07/00038/COMM,315,emma.bourne@woking.gov.uk,Woking,http://www.woking.gov.uk,-0.62529900000000,GU21 2QT,2013-06-20,fhrs_5_en-GB,5,,FHRS,0
272469,J Sainsbury Supermarket Redding Way Knaphill Woking Surrey,,,,Sainsburys,Retailers - supermarkets/hypermarkets,7840,0,,16322,0,,51.31202500000000,05/37654/COMM,315,emma.bourne@woking.gov.uk,Woking,http://www.woking.gov.uk,-0.62529900000000,GU21 2QT,2014-08-07,fhrs_5_en-GB,5,,FHRS,5
272470,15 Wolsey Walk Woking Surrey,,,,Sainsburys Plc,Retailers - supermarkets/hypermarkets,7840,0,,15923,0,,51.31855500000000,05/06670/COMM,315,emma.bourne@woking.gov.uk,Woking,http://www.woking.gov.uk,-0.55963800000000,GU21 6XU,2013-07-11,fhrs_5_en-GB,5,,FHRS,5
272471,2-6 Ashcombe Parade Kingfield Road Kingfield Woking Surrey,,,,Sainsbury's Supermarkets Ltd,Retailers - supermarkets/hypermarkets,7840,0,,15514,0,,51.30336900000000,05/00260/COMM,315,emma.bourne@woking.gov.uk,Woking,http://www.woking.gov.uk,-0.55179300000000,GU22 9EJ,2014-03-10,fhrs_5_en-GB,5,,FHRS,0
272472,The Salvation Army Sythwood Woking Surrey,,,,Salvation Army Community Church,Restaurant/Cafe/Canteen,1,0,,24715,0,,51.32354800000000,08/00006/COMM,315,emma.bourne@woking.gov.uk,Woking,http://www.woking.gov.uk,-0.58187100000000,GU21 3BE,2014-01-24,fhrs_5_en-GB,5,,FHRS,5
272473,The Bleak House Inn Chertsey Road Horsell Woking Surrey,,,,Sands At The Bleak House,Pub/bar/nightclub,7843,5,,16276,0,,51.33892700000000,05/32794/COMM,315,emma.bourne@woking.gov.uk,Woking,http://www.woking.gov.uk,-0.54320800000000,GU21 5NL,2014-12-16,fhrs_5_en-GB,5,,FHRS,5
272474,18 The Broadway Woking Surrey,,,,Sang Thai,Restaurant/Cafe/Canteen,1,5,,13338,5,,51.31954000000000,04/42819/COMM,315,emma.bourne@woking.gov.uk,Woking,http://www.woking.gov.uk,-0.55563200000000,GU21 5AP,2014-07-02,fhrs_5_en-GB,5,,FHRS,5
272475,2 Sanway Close Byfleet West Byfleet Surrey,,,,Sanway Stores,Retailers - other,4613,20,,16288,5,,51.33012200000000,05/33620/COMM,315,emma.bourne@woking.gov.uk,Woking,http://www.woking.gov.uk,-0.47526200000000,KT14 7SP,2014-03-26,fhrs_1_en-GB,1,,FHRS,10
272476,21 Broadway Knaphill Woking Surrey,,,,Sarwals Newsagents,Retailers - other,4613,5,,16265,5,,51.31753900000000,05/31649/COMM,315,emma.bourne@woking.gov.uk,Woking,http://www.woking.gov.uk,-0.61783000000000,GU21 2DR,2014-07-02,fhrs_5_en-GB,5,,FHRS,0
272477,,,,,Sayang Limited,Other catering premises,7841,5,,563922,5,,,13/00065/COMM,315,emma.bourne@woking.gov.uk,Woking,http://www.woking.gov.uk,,,2013-06-20,fhrs_5_en-GB,5,,FHRS,5
272478,,,,,Scrummies,Other catering premises,7841,5,,607991,5,,,13/00090/COMM,315,emma.bourne@woking.gov.uk,Woking,http://www.woking.gov.uk,,,2013-10-14,fhrs_5_en-GB,5,,FHRS,5
272479,,,,,Scrumptious Cakes,Mobile caterer,7846,5,,33240,5,,,10/00033/COMM,315,emma.bourne@woking.gov.uk,Woking,http://www.woking.gov.uk,,,2014-02-04,fhrs_5_en-GB,5,,FHRS,0
272480,,,,,Scrumptious Treats,Other catering premises,7841,10,,563918,5,,,13/00058/COMM,315,emma.bourne@woking.gov.uk,Woking,http://www.woking.gov.uk,,,2013-06-14,fhrs_4_en-GB,4,,FHRS,5
272481,Seafare 104A Hermitage Road St Johns Woking Surrey,,,,Seafare,Takeaway/sandwich shop,7844,5,,16150,0,,51.31236000000000,05/16802/COMM,315,emma.bourne@woking.gov.uk,Woking,http://www.woking.gov.uk,-0.60345100000000,GU21 8TQ,2013-07-16,fhrs_5_en-GB,5,,FHRS,0
272482,Squires Garden Centre Littlewick Road Knaphill Woking Surrey,,,,Seasons Cafe,Restaurant/Cafe/Canteen,1,0,,47445,0,,51.32700000000000,11/00134/COMM,315,emma.bourne@woking.gov.uk,Woking,http://www.woking.gov.uk,-0.59521300000000,GU21 4XR,2013-07-18,fhrs_5_en-GB,5,,FHRS,0
272483,9 St Johns Road St Johns Woking Surrey,,,,Season's Coffee Shop,Restaurant/Cafe/Canteen,1,0,,445049,5,,51.31241400000000,12/00047/COMM,315,emma.bourne@woking.gov.uk,Woking,http://www.woking.gov.uk,-0.59521300000000,GU21 7SE,2014-07-10,fhrs_5_en-GB,5,,FHRS,5
272484,5 St Johns Road St Johns Woking Surrey,,,,Season's Deli,Retailers - other,4613,5,,688750,0,,51.31214300000000,14/00038/COMM,315,emma.bourne@woking.gov.uk,Woking,http://www.woking.gov.uk,-0.59515000000000,GU21 7SE,2014-06-10,fhrs_5_en-GB,5,,FHRS,0
272485,St Johns Village Memorial Hall St Johns Lye St Johns Woking Surrey,,,,Seedlings,Hospitals/Childcare/Caring Premises,5,,,730251,,,51.31185400000000,15/00004/COMM,315,emma.bourne@woking.gov.uk,Woking,http://www.woking.gov.uk,-0.59653600000000,GU21 7SQ,2014-12-04,fhrs_exempt_en-GB,Exempt,,FHRS,
272486,45 Dartmouth Avenue Sheerwater Woking Surrey,,,,Select & Save,Retailers - other,4613,,,688759,,,51.33353500000000,14/00047/COMM,315,emma.bourne@woking.gov.uk,Woking,http://www.woking.gov.uk,-0.52981300000000,GU21 5PE,2014-07-30,fhrs_exempt_en-GB,Exempt,,FHRS,
272487,Shah Jehan Mosque Oriental Road Woking Surrey,,,,Shah Jehan Mosque  Kitchen,Restaurant/Cafe/Canteen,1,10,,517088,5,,51.32140400000000,13/00023/COMM,315,emma.bourne@woking.gov.uk,Woking,http://www.woking.gov.uk,-0.54712100000000,GU22 7BA,2013-01-31,fhrs_4_en-GB,4,,FHRS,5
272488,7 Wolsey Walk Woking Surrey,,,,Shakeaway,Takeaway/sandwich shop,7844,5,,225670,5,,51.31855500000000,12/00019/COMM,315,emma.bourne@woking.gov.uk,Woking,http://www.woking.gov.uk,-0.55963800000000,GU21 6XU,2013-09-12,fhrs_4_en-GB,4,,FHRS,10
272489,Sheerwater House Sheerwater Road Woodham Addlestone Surrey,,,,Sheerwater House,Hospitals/Childcare/Caring Premises,5,5,,16217,5,,51.33935100000000,05/25415/COMM,315,emma.bourne@woking.gov.uk,Woking,http://www.woking.gov.uk,-0.51896000000000,KT15 3QL,2014-02-13,fhrs_5_en-GB,5,,FHRS,5
272490,Sheerwater Youth Centre Blackmore Crescent Sheerwater Woking Surrey,,,,Sheerwater Youth Centre,Other catering premises,7841,5,,16206,5,,51.33205600000000,05/22665/COMM,315,emma.bourne@woking.gov.uk,Woking,http://www.woking.gov.uk,-0.53591800000000,GU21 5NS,2014-07-02,fhrs_5_en-GB,5,,FHRS,5
272491,67 - 69 High Street Old Woking Woking Surrey,,,,Shell Garage,Retailers - other,4613,0,,16002,0,,51.30216000000000,05/08406/COMM,315,emma.bourne@woking.gov.uk,Woking,http://www.woking.gov.uk,-0.54563400000000,GU22 9LN,2013-05-13,fhrs_5_en-GB,5,,FHRS,5
272492,Kiosk 14 Market Walk Woking Surrey,,,,SHIN's Bibimbap Cafe,Takeaway/sandwich shop,7844,5,,720368,5,,,14/00085/COMM,315,emma.bourne@woking.gov.uk,Woking,http://www.woking.gov.uk,,,2014-11-20,fhrs_4_en-GB,4,,FHRS,10
272493,Shop Sundial House 89 - 93 Goldsworth Road Woking Surrey,,,,Sid's Cafe,Restaurant/Cafe/Canteen,1,0,,504677,0,,51.31736100000000,12/00096/COMM,315,emma.bourne@woking.gov.uk,Woking,http://www.woking.gov.uk,-0.56560200000000,GU21 6LJ,2014-10-01,fhrs_5_en-GB,5,,FHRS,0
272494,8 Broadway Knaphill Woking Surrey,,,,Simla,Takeaway/sandwich shop,7844,5,,148687,5,,51.31753900000000,94/31636/COMM,315,emma.bourne@woking.gov.uk,Woking,http://www.woking.gov.uk,-0.61783000000000,GU21 2DR,2013-08-29,fhrs_5_en-GB,5,,FHRS,5
272495,36 - 37 Station Approach West Byfleet Surrey,,,,Sir And Madam Thai Restaurant,Restaurant/Cafe/Canteen,1,10,,28784,10,,51.33896400000000,09/00026/COMM,315,emma.bourne@woking.gov.uk,Woking,http://www.woking.gov.uk,-0.50544800000000,KT14 6NF,2014-03-27,fhrs_3_en-GB,3,,FHRS,5
272496,Unit 2 Craven Court Canada Road Byfleet West Byfleet Surrey,,,,Sir Hans Sloane Chocolates Ltd,Manufacturers/packers,7839,0,,47108,5,,51.34588000000000,11/00105/COMM,315,emma.bourne@woking.gov.uk,Woking,http://www.woking.gov.uk,-0.48385700000000,KT14 7JL,2011-08-17,fhrs_5_en-GB,5,,FHRS,5
272497,40 High Street Knaphill Woking Surrey,,,,Skipjack's,Takeaway/sandwich shop,7844,5,,688749,5,,51.31769200000000,14/00036/COMM,315,emma.bourne@woking.gov.uk,Woking,http://www.woking.gov.uk,-0.61862900000000,GU21 2PY,2014-06-06,fhrs_5_en-GB,5,,FHRS,0
272498,Bishop David Brown School 247 Albert Drive Sheerwater Woking Surrey,,,,Sodexho Bishop David Brown,School/college/university,7845,5,,16212,5,,51.33608500000000,05/24807/COMM,315,emma.bourne@woking.gov.uk,Woking,http://www.woking.gov.uk,-0.52453500000000,GU21 5RF,2014-07-01,fhrs_5_en-GB,5,,FHRS,0
272499,3 Goldsworth Road Woking Surrey,,,,Sokury Ltd,Takeaway/sandwich shop,7844,5,,710057,0,,51.31759900000000,14/00066/COMM,315,emma.bourne@woking.gov.uk,Woking,http://www.woking.gov.uk,-0.56308300000000,GU21 6JY,2014-10-20,fhrs_5_en-GB,5,,FHRS,0
272500,1 White Rose Lane Woking Surrey,,,,So's Chinese Kitchen,Restaurant/Cafe/Canteen,1,10,,15356,15,,51.31810900000000,05/00191/COMM,315,emma.bourne@woking.gov.uk,Woking,http://www.woking.gov.uk,-0.55629400000000,GU22 7AA,2013-06-26,fhrs_2_en-GB,2,,FHRS,10
272501,The Sovereigns Public House Guildford Road Woking Surrey,,,,Sovereigns Public House,Pub/bar/nightclub,7843,0,,16157,0,,51.31507300000000,05/17685/COMM,315,emma.bourne@woking.gov.uk,Woking,http://www.woking.gov.uk,-0.56022100000000,GU22 7QQ,2014-09-16,fhrs_5_en-GB,5,,FHRS,0
272502,5 Goldsworth Road Woking Surrey,,,,Soya Korean & Japanese Restaurant,Restaurant/Cafe/Canteen,1,5,,733751,5,,51.31759900000000,15/00010/COMM,315,emma.bourne@woking.gov.uk,Woking,http://www.woking.gov.uk,-0.56308300000000,GU21 6JY,2015-01-29,fhrs_5_en-GB,5,,FHRS,5
272503,89 High Street Horsell Woking Surrey,,,,Spar Food Market,Retailers - other,4613,5,,147998,5,,51.32412500000000,92/42813/COMM,315,emma.bourne@woking.gov.uk,Woking,http://www.woking.gov.uk,-0.57461900000000,GU21 4SY,2011-09-15,fhrs_5_en-GB,5,,FHRS,5
272504,9 High Street Knaphill Woking Surrey,,,,Speciality Cakes,Other catering premises,7841,0,,149979,0,,51.31767800000000,97/41306/COMM,315,emma.bourne@woking.gov.uk,Woking,http://www.woking.gov.uk,-0.61932500000000,,2011-10-14,fhrs_5_en-GB,5,,FHRS,0
272505,7 High Street Woking Surrey,,,,Spice & Grill,Restaurant/Cafe/Canteen,1,10,,623159,10,,51.31871200000000,13/00115/COMM,315,emma.bourne@woking.gov.uk,Woking,http://www.woking.gov.uk,-0.55775300000000,GU21 6BG,2014-05-20,fhrs_2_en-GB,2,,FHRS,15
272506,2 St Johns Road St Johns Woking Surrey,,,,Spice Village,Restaurant/Cafe/Canteen,1,10,,45411,5,,51.31214300000000,11/00006/COMM,315,emma.bourne@woking.gov.uk,Woking,http://www.woking.gov.uk,-0.59515000000000,GU21 7SE,2013-12-03,fhrs_4_en-GB,4,,FHRS,5
272507,Unit F2 Lower Concourse  Peacocks Centre Victoria Way Woking Surrey,,,,Spud-u-like,Takeaway/sandwich shop,7844,5,,15774,0,,51.31985100000000,05/01570/COMM,315,emma.bourne@woking.gov.uk,Woking,http://www.woking.gov.uk,-0.56186500000000,GU21 6GB,2014-11-25,fhrs_5_en-GB,5,,FHRS,0
272508,Squisito Food Ltd 109A High Street Horsell Woking Surrey,,,,Squisito,Restaurant/Cafe/Canteen,1,5,,45396,0,,51.32412500000000,11/00005/COMM,315,emma.bourne@woking.gov.uk,Woking,http://www.woking.gov.uk,-0.57461900000000,GU21 4SY,2013-10-08,fhrs_5_en-GB,5,,FHRS,5
272509,23 High Street Knaphill Woking Surrey,,,,SS Petroleum,Retailers - other,4613,5,,590349,0,,51.31807800000000,13/00086/COMM,315,emma.bourne@woking.gov.uk,Woking,http://www.woking.gov.uk,-0.61777100000000,GU21 2PP,2013-09-17,fhrs_5_en-GB,5,,FHRS,5
272510,St Andrews Church Centre Goldsworth Park Centre Woking Surrey,,,,St Andrews Church,Restaurant/Cafe/Canteen,1,0,,16177,0,,51.31885300000000,05/20043/COMM,315,emma.bourne@woking.gov.uk,Woking,http://www.woking.gov.uk,-0.59072600000000,GU21 3LG,2014-03-18,fhrs_5_en-GB,5,,FHRS,0
272511,Onslow Crescent Woking Surrey,,,,St Dunstan's Catholic Primary School,School/college/university,7845,5,,16085,5,,51.31991300000000,05/11779/COMM,315,emma.bourne@woking.gov.uk,Woking,http://www.woking.gov.uk,-0.54652200000000,GU22 7AX,2014-02-13,fhrs_5_en-GB,5,,FHRS,0
272512,St Dunstans Church Shaftesbury Road Woking Surrey,,,,St Dunstans Senior Lunch Club,Other catering premises,7841,0,,445048,0,,51.31875200000000,09/00012/COMM,315,emma.bourne@woking.gov.uk,Woking,http://www.woking.gov.uk,-0.54356000000000,GU22 7DT,2013-11-21,fhrs_5_en-GB,5,,FHRS,0
272513,1 Victoria Road Knaphill Woking Surrey,,,,St John's Primary School,School/college/university,7845,0,,16244,5,,51.31553100000000,05/29157/COMM,315,emma.bourne@woking.gov.uk,Woking,http://www.woking.gov.uk,-0.60699900000000,GU21 2AS,2013-06-14,fhrs_5_en-GB,5,,FHRS,5
272514,St John The Baptist Church Church Road St Johns Woking Surrey,,,,St Johns The Baptist Church,Other catering premises,7841,0,,688742,0,,51.31119100000000,06/00018/COMM,315,emma.bourne@woking.gov.uk,Woking,http://www.woking.gov.uk,-0.59370100000000,GU21 7RN,2014-07-31,fhrs_5_en-GB,5,,FHRS,0
272515,St Johns Parish Hall Camphill Road West Byfleet Surrey,,,,St John's The Baptist Church,Pub/bar/nightclub,7843,5,,16289,0,,51.34044300000000,05/34055/COMM,315,emma.bourne@woking.gov.uk,Woking,http://www.woking.gov.uk,-0.50089200000000,KT14 6EF,2013-01-21,fhrs_5_en-GB,5,,FHRS,5
272516,St John The Baptist School Elmbridge Lane Kingfield Woking Surrey,,,,St Johns The Baptist School,School/college/university,7845,5,,16170,5,,51.30808300000000,05/19414/COMM,315,emma.bourne@woking.gov.uk,Woking,http://www.woking.gov.uk,-0.54973700000000,GU22 9AL,2014-03-07,fhrs_5_en-GB,5,,FHRS,0
272517,St Johns Club Church Road St Johns Woking Surrey,,,,St John's Village Club,Pub/bar/nightclub,7843,5,,16237,5,,51.31119100000000,05/27235/COMM,315,emma.bourne@woking.gov.uk,Woking,http://www.woking.gov.uk,-0.59370100000000,GU21 7RN,2012-10-25,fhrs_5_en-GB,5,,FHRS,5
272518,St Johns Village Memorial Hall St Johns Lye St Johns Woking Surrey,,,,St Johns Village Memorial Hall,Other catering premises,7841,,,710050,,,51.31185400000000,14/00059/COMM,315,emma.bourne@woking.gov.uk,Woking,http://www.woking.gov.uk,-0.59653600000000,GU21 7SQ,2014-09-30,fhrs_exempt_en-GB,Exempt,,FHRS,
272519,St Mary Of Bethany Church Mount Hermon Road Woking Surrey,,,,St Mary Of Bethany,Other catering premises,7841,0,,15907,0,,51.31140400000000,05/06093/COMM,315,emma.bourne@woking.gov.uk,Woking,http://www.woking.gov.uk,-0.56752400000000,GU22 7UH,2013-05-22,fhrs_5_en-GB,5,,FHRS,0
272520,St Marys C Of E Middle School Hart Road Byfleet West Byfleet Surrey,,,,St Mary's C Of E Primary School,School/college/university,7845,0,,16307,0,,51.33489900000000,05/34844/COMM,315,emma.bourne@woking.gov.uk,Woking,http://www.woking.gov.uk,-0.47682700000000,KT14 7NJ,2013-04-30,fhrs_5_en-GB,5,,FHRS,0
272521,Five Oaks Close St Johns Woking Surrey,,,,St. Hugh Of Lincoln Catholic School,School/college/university,7845,5,,16169,5,,51.31145500000000,05/18780/COMM,315,emma.bourne@woking.gov.uk,Woking,http://www.woking.gov.uk,-0.60979100000000,GU21 8TU,2013-06-20,fhrs_5_en-GB,5,,FHRS,5
272522,95 Victoria Road Knaphill Woking Surrey,,,,St. Hugh's Of Lincoln Church Hall Luncheon Club,Other catering premises,7841,5,,16246,5,,51.31812900000000,05/29245/COMM,315,emma.bourne@woking.gov.uk,Woking,http://www.woking.gov.uk,-0.61296200000000,GU21 2AA,2012-06-25,fhrs_5_en-GB,5,,FHRS,5
272523,St Columbas House Maybury Hill Woking Surrey,,,,St.Columbas House  (ABM Catering),Hospitals/Childcare/Caring Premises,5,0,,16113,0,,51.31734400000000,05/13408/COMM,315,emma.bourne@woking.gov.uk,Woking,http://www.woking.gov.uk,-0.53878300000000,GU22 8AB,2013-09-27,fhrs_5_en-GB,5,,FHRS,0
272524,48 Wolsey Walk Woking Surrey,,,,Starbucks,Restaurant/Cafe/Canteen,1,0,,17758,0,,51.31933600000000,06/00028/COMM,315,emma.bourne@woking.gov.uk,Woking,http://www.woking.gov.uk,-0.55876700000000,GU21 6XX,2013-09-20,fhrs_5_en-GB,5,,FHRS,0
272525,Woking Railway Station Station Approach Woking Surrey,,,,Starbucks,Restaurant/Cafe/Canteen,1,5,,16021,0,,51.31807800000000,05/08612/COMM,315,emma.bourne@woking.gov.uk,Woking,http://www.woking.gov.uk,-0.55741400000000,GU22 7AE,2014-11-17,fhrs_4_en-GB,4,,FHRS,10
272526,21 High Street Woking Surrey,,,,Steakout Woking,Restaurant/Cafe/Canteen,1,5,,672077,5,,51.31825100000000,14/00031/COMM,315,emma.bourne@woking.gov.uk,Woking,http://www.woking.gov.uk,-0.55900200000000,GU21 6BW,2014-09-05,fhrs_5_en-GB,5,,FHRS,5
272527,14 High Street Knaphill Woking Surrey,,,,Stef's,Restaurant/Cafe/Canteen,1,5,,582894,5,,51.31832100000000,13/00073/COMM,315,emma.bourne@woking.gov.uk,Woking,http://www.woking.gov.uk,-0.61625700000000,GU21 2PE,2013-08-08,fhrs_5_en-GB,5,,FHRS,5
272528,5 Anchor Crescent Knaphill Woking Surrey,,,,Stef's Homebake,Other catering premises,7841,5,,16269,5,,51.31849400000000,05/32049/COMM,315,emma.bourne@woking.gov.uk,Woking,http://www.woking.gov.uk,-0.61569200000000,GU21 2PD,2013-08-08,fhrs_5_en-GB,5,,FHRS,5
272529,The Mount St Johns Hill Road St Johns Woking Surrey,,,,Stokefield Care Home,Hospitals/Childcare/Caring Premises,5,5,,16039,0,,51.31146600000000,05/09393/COMM,315,emma.bourne@woking.gov.uk,Woking,http://www.woking.gov.uk,-0.58890000000000,GU21 7RG,2014-09-30,fhrs_5_en-GB,5,,FHRS,0
272530,Woking Football Club Kingfield Road Kingfield Woking Surrey,,,,Striker Bites   Moaners Corner Tea Bar,Mobile caterer,7846,10,,47488,5,,51.30756000000000,11/00138/COMM,315,emma.bourne@woking.gov.uk,Woking,http://www.woking.gov.uk,-0.55767300000000,GU22 9AA,2013-09-24,fhrs_4_en-GB,4,,FHRS,5
272531,Woking Football Club Kingfield Road Kingfield Woking Surrey,,,,Striker Bites   Mobile Trailer,Mobile caterer,7846,10,,47499,5,,51.30756000000000,11/00139/COMM,315,emma.bourne@woking.gov.uk,Woking,http://www.woking.gov.uk,-0.55767300000000,GU22 9AA,2013-09-24,fhrs_4_en-GB,4,,FHRS,5
272532,The Generation Centre Goldsworth Park Centre Woking Surrey,,,,Strollers,Restaurant/Cafe/Canteen,1,0,,16178,0,,51.31885300000000,05/20045/COMM,315,emma.bourne@woking.gov.uk,Woking,http://www.woking.gov.uk,-0.59072600000000,GU21 3LG,2012-11-14,fhrs_5_en-GB,5,,FHRS,0
272533,37 Old Woking Road West Byfleet Surrey,,,,Subway,Restaurant/Cafe/Canteen,1,0,,188826,0,,51.33699500000000,12/00002/COMM,315,emma.bourne@woking.gov.uk,Woking,http://www.woking.gov.uk,-0.50479500000000,KT14 6LG,2013-10-22,fhrs_5_en-GB,5,,FHRS,5
272534,9 Chertsey Road Woking Surrey,,,,Subway,Takeaway/sandwich shop,7844,0,,150738,0,,51.31951900000000,99/21242/COMM,315,emma.bourne@woking.gov.uk,Woking,http://www.woking.gov.uk,-0.55682400000000,GU21 5AB,2013-07-15,fhrs_5_en-GB,5,,FHRS,0
272535,Kiosk C Peacocks Centre Victoria Way Woking Surrey,,,,Subway,Takeaway/sandwich shop,7844,10,,24760,5,,51.31985100000000,08/00011/COMM,315,emma.bourne@woking.gov.uk,Woking,http://www.woking.gov.uk,-0.56186500000000,GU21 6GB,2014-12-08,fhrs_3_en-GB,3,,FHRS,10
272536,Connaught Garage Bagshot Road Woking Surrey,,,,Subway Connaught,Takeaway/sandwich shop,7844,0,,730248,0,,51.30590700000000,15/00001/COMM,315,emma.bourne@woking.gov.uk,Woking,http://www.woking.gov.uk,-0.62738900000000,GU24 0HH,2014-12-18,fhrs_5_en-GB,5,,FHRS,0
272537,,,,,Sugar Lips Kitchen,Other catering premises,7841,5,,409307,5,,,12/00044/COMM,315,emma.bourne@woking.gov.uk,Woking,http://www.woking.gov.uk,,,2012-05-25,fhrs_5_en-GB,5,,FHRS,5
272538,3 The Terrace High Street Old Woking Woking Surrey,,,,Sultan Kebab,Restaurant/Cafe/Canteen,1,5,,45690,5,,51.30310200000000,11/00021/COMM,315,emma.bourne@woking.gov.uk,Woking,http://www.woking.gov.uk,-0.54977900000000,GU22 9ES,2013-07-12,fhrs_5_en-GB,5,,FHRS,5
272539,45- 47 Commercial Way Woking Surrey,,,,Superdrug,Retailers - other,4613,0,,150731,0,,51.31880200000000,99/06672/COMM,315,emma.bourne@woking.gov.uk,Woking,http://www.woking.gov.uk,-0.55918600000000,GU21 6XR,2011-11-30,fhrs_5_en-GB,5,,FHRS,0
272540,51 Old Woking Road West Byfleet Surrey,,,,Superfish/Janes Upstairs,Restaurant/Cafe/Canteen,1,0,,16228,5,,51.33699500000000,05/26133/COMM,315,emma.bourne@woking.gov.uk,Woking,http://www.woking.gov.uk,-0.50479500000000,KT14 6LG,2013-12-17,fhrs_5_en-GB,5,,FHRS,5
272541,,,,,Surrey Cakes,Other catering premises,7841,5,,409288,5,,,05/34834/COMM,315,emma.bourne@woking.gov.uk,Woking,http://www.woking.gov.uk,,,2015-01-26,fhrs_5_en-GB,5,,FHRS,5
272542,Quadrant Court Guildford Road Woking Surrey,,,,Surrey County Council,Restaurant/Cafe/Canteen,1,0,,28653,0,,51.30750600000000,09/00016/COMM,315,emma.bourne@woking.gov.uk,Woking,http://www.woking.gov.uk,-0.55641700000000,GU22 7QT,2013-09-05,fhrs_5_en-GB,5,,FHRS,0
272543,Woking Storage Solutions Marlborough Road Woking Surrey,,,,Surrey Fine Foods,Distributors/Transporters,7,5,,582893,0,,51.32213100000000,13/00072/COMM,315,emma.bourne@woking.gov.uk,Woking,http://www.woking.gov.uk,-0.55065700000000,GU21 5JG,2013-08-12,fhrs_5_en-GB,5,,FHRS,0
272544,Sutton Green Golf Club New Lane Sutton Green Woking Guildford Surrey,,,,Sutton Green Golf Club,Restaurant/Cafe/Canteen,1,5,,149978,0,,51.28498900000000,97/27017/COMM,315,emma.bourne@woking.gov.uk,Woking,http://www.woking.gov.uk,-0.56057400000000,GU4 7QF,2014-09-18,fhrs_5_en-GB,5,,FHRS,5
272545,Sutton Green Village Hall New Lane Sutton Green Woking Guildford Surrey,,,,Sutton Green Village Hall,Other catering premises,7841,,,16236,,,51.28498900000000,05/27014/COMM,315,emma.bourne@woking.gov.uk,Woking,http://www.woking.gov.uk,-0.56057400000000,GU4 7QF,2014-07-08,fhrs_exempt_en-GB,Exempt,,FHRS,
272546,Swallow Barn Milford Green Chobham Woking Surrey,,,,Swallow Barn (Bed & Breakfast),Hotel/bed & breakfast/guest house,7842,,,688760,,,51.33961500000000,97/32818/COMM,315,emma.bourne@woking.gov.uk,Woking,http://www.woking.gov.uk,-0.59288900000000,GU24 8AU,2014-06-23,fhrs_exempt_en-GB,Exempt,,FHRS,
272547,15 Catherine Close Byfleet West Byfleet Surrey,,,,Sweet As Sugar,Other catering premises,7841,5,,47386,5,,51.33295800000000,11/00129/COMM,315,emma.bourne@woking.gov.uk,Woking,http://www.woking.gov.uk,-0.47280000000000,KT14 7EZ,2013-06-13,fhrs_5_en-GB,5,,FHRS,0
272548,37 Well Close Horsell Woking Surrey,,,,Swiss Alf's,Mobile caterer,7846,0,,715364,0,,51.32102200000000,14/00067/COMM,315,emma.bourne@woking.gov.uk,Woking,http://www.woking.gov.uk,-0.57755700000000,GU21 4PT,2014-10-31,fhrs_5_en-GB,5,,FHRS,0
272549,Sythwood Woking Surrey,,,,Sythwood Primary School,School/college/university,7845,0,,16270,0,,51.32281112670898,05/32145/COMM,315,emma.bourne@woking.gov.uk,Woking,http://www.woking.gov.uk,-0.58487844467163,GU21 3AX,2015-01-21,fhrs_5_en-GB,5,,FHRS,0
272550,1 - 2 Tracious Close Horsell Woking Surrey,,,,Sythwood Stores,Retailers - other,4613,5,,16328,0,,51.32258700000000,05/42235/COMM,315,emma.bourne@woking.gov.uk,Woking,http://www.woking.gov.uk,-0.58201500000000,GU21 3AF,2014-08-05,fhrs_5_en-GB,5,,FHRS,0
272551,Tante Marie Culinary Academy 57 Commercial Way Woking Surrey,,,,Tante Marie Culinary Academy,School/college/university,7845,5,,730252,0,,51.31968400000000,15/00005/COMM,315,emma.bourne@woking.gov.uk,Woking,http://www.woking.gov.uk,-0.55783700000000,GU21 6HN,2015-01-09,fhrs_5_en-GB,5,,FHRS,0
272552,17 Station Approach West Byfleet Surrey,,,,Taylors,Restaurant/Cafe/Canteen,1,5,,607994,5,,51.33896400000000,13/00094/COMM,315,emma.bourne@woking.gov.uk,Woking,http://www.woking.gov.uk,-0.50544800000000,KT14 6NF,2013-10-30,fhrs_5_en-GB,5,,FHRS,0
272553,Kiosk 10 Market Walk Woking Surrey,,,,Taylor's Coffee House,Retailers - other,4613,5,,720374,0,,,14/00091/COMM,315,emma.bourne@woking.gov.uk,Woking,http://www.woking.gov.uk,,,2014-10-13,fhrs_5_en-GB,5,,FHRS,0
272554,15 The Grove Horsell Woking Surrey,,,,Teddies Nurseries,School/college/university,7845,0,,150359,0,,51.32287400000000,98/17843/COMM,315,emma.bourne@woking.gov.uk,Woking,http://www.woking.gov.uk,-0.55762300000000,GU21 4AE,2012-10-29,fhrs_5_en-GB,5,,FHRS,5
272555,Tel's Tea Bar Abbot Close Byfleet West Byfleet Surrey,,,,Tel's Tea Bar,Mobile caterer,7846,5,,16001,0,,51.34717800000000,05/08405/COMM,315,emma.bourne@woking.gov.uk,Woking,http://www.woking.gov.uk,-0.48200800000000,,2014-10-02,fhrs_5_en-GB,5,,FHRS,0
272556,3 Chertsey Road Byfleet West Byfleet Surrey,,,,Temper And Tipsy,Other catering premises,7841,5,,480634,5,,51.34156700000000,12/00071/COMM,315,emma.bourne@woking.gov.uk,Woking,http://www.woking.gov.uk,-0.48061100000000,KT14 7AF,2012-09-27,fhrs_5_en-GB,5,,FHRS,5
272557,Unit 1  Cleary Court Church Street East Woking Surrey,,,,Terrys Newsagents,Retailers - other,4613,0,,147992,0,,51.32060700000000,92/21151/COMM,315,emma.bourne@woking.gov.uk,Woking,http://www.woking.gov.uk,-0.55757900000000,GU21 6HJ,2014-03-18,fhrs_5_en-GB,5,,FHRS,0
272558,Tesco Express 15 High Street Knaphill Woking Surrey,,,,Tesco Express,Retailers - supermarkets/hypermarkets,7840,0,,672072,0,,51.31901100000000,14/00026/COMM,315,emma.bourne@woking.gov.uk,Woking,http://www.woking.gov.uk,-0.61610700000000,GU21 2PG,2014-05-07,fhrs_5_en-GB,5,,FHRS,0
272559,Tesco Express Unit 1 Cardinal Place Guildford Road Woking Surrey,,,,Tesco Express,Retailers - other,4613,5,,201413,0,,51.30750600000000,12/00005/COMM,315,emma.bourne@woking.gov.uk,Woking,http://www.woking.gov.uk,-0.55641700000000,GU22 7NJ,2012-01-25,fhrs_5_en-GB,5,,FHRS,0
272560,77 Old Woking Road West Byfleet Surrey,,,,Tesco Stores,Retailers - other,4613,5,,16230,5,,51.33582100000000,05/26150/COMM,315,emma.bourne@woking.gov.uk,Woking,http://www.woking.gov.uk,-0.50652700000000,KT14 6JA,2013-03-26,fhrs_5_en-GB,5,,FHRS,5
272561,33 Chertsey Road Woking Surrey,,,,Thali Thali,Restaurant/Cafe/Canteen,1,5,,8311,5,,51.32016100000000,03/21265/COMM,315,emma.bourne@woking.gov.uk,Woking,http://www.woking.gov.uk,-0.55567000000000,GU21 5AJ,2014-07-18,fhrs_4_en-GB,4,,FHRS,10
272562,71 Old Woking Road West Byfleet Surrey,,,,Thats Amore,Restaurant/Cafe/Canteen,1,5,,33467,0,,51.33651900000000,10/00046/COMM,315,emma.bourne@woking.gov.uk,Woking,http://www.woking.gov.uk,-0.50555700000000,KT14 6LF,2014-01-09,fhrs_5_en-GB,5,,FHRS,5
272563,New Victora Theatre Victoria Way Woking Surrey,,,,The Ambassadors,Restaurant/Cafe/Canteen,1,0,,149975,0,,51.31985100000000,97/08390/COMM,315,emma.bourne@woking.gov.uk,Woking,http://www.woking.gov.uk,-0.56186500000000,GU21 6GQ,2012-11-23,fhrs_5_en-GB,5,,FHRS,0
272564,Catherine Of Aragon 2 Claremont Road West Byfleet Surrey,,,,The Aragon Hotel Ltd,Pub/bar/nightclub,7843,5,,45336,5,,51.34090500000000,11/00001/COMM,315,emma.bourne@woking.gov.uk,Woking,http://www.woking.gov.uk,-0.50468200000000,KT14 6DR,2013-12-05,fhrs_5_en-GB,5,,FHRS,5
272565,104 Connaught Road Brookwood Woking Surrey,,,,The Bakers Dozen,Other catering premises,7841,5,,150742,5,,51.30453300000000,99/36178/COMM,315,emma.bourne@woking.gov.uk,Woking,http://www.woking.gov.uk,-0.63595200000000,GU24 0HJ,2013-11-20,fhrs_5_en-GB,5,,FHRS,5
272566,8 Station Approach West Byfleet Surrey,,,,The Bakery Ltd,Restaurant/Cafe/Canteen,1,5,,492867,5,,51.33838200000000,11/00119/COMM,315,emma.bourne@woking.gov.uk,Woking,http://www.woking.gov.uk,-0.50496500000000,KT14 6NG,2014-12-02,fhrs_5_en-GB,5,,FHRS,5
272567,The Beacon  Christ Church Church Street East Woking Surrey,,,,The Beacon Cafe,Restaurant/Cafe/Canteen,1,5,,147991,0,,51.27199935913086,92/21044/COMM,315,emma.bourne@woking.gov.uk,Woking,http://www.woking.gov.uk,-0.40499997138977,GU21 6YG,2013-07-22,fhrs_5_en-GB,5,,FHRS,5
272568,The Bernard Sunley Nursing Home College Road Woking Surrey,,,,The Bernard Sunley Nursing Home  T(N)S Catering,Hospitals/Childcare/Caring Premises,5,0,,2912,0,,51.32260800000000,01/20765/COMM,315,emma.bourne@woking.gov.uk,Woking,http://www.woking.gov.uk,-0.53982100000000,GU22 8BT,2014-07-10,fhrs_5_en-GB,5,,FHRS,5
272569,The Big Apple Chobham Road Woking Surrey,,,,The Big Apple,Restaurant/Cafe/Canteen,1,0,,16193,0,,51.32050600000000,05/21179/COMM,315,emma.bourne@woking.gov.uk,Woking,http://www.woking.gov.uk,-0.55663500000000,GU21 6HR,2014-06-16,fhrs_5_en-GB,5,,FHRS,0
272570,The Blue Anchor Public House 155 High Road Byfleet West Byfleet Surrey,,,,The Blue Anchor,Pub/bar/nightclub,7843,10,,15090,5,,51.33806900000000,05/00105/COMM,315,emma.bourne@woking.gov.uk,Woking,http://www.woking.gov.uk,-0.46961500000000,KT14 7RL,2014-07-15,fhrs_4_en-GB,4,,FHRS,5
272571,Sutton Green Garden Nursery Whitmoor Lane Sutton Green Guildford Surrey,,,,The Blue Shed Coffee House Ltd,Restaurant/Cafe/Canteen,1,5,,563919,0,,51.27875200000000,13/00060/COMM,315,emma.bourne@woking.gov.uk,Woking,http://www.woking.gov.uk,-0.56822400000000,GU4 7QB,2013-06-25,fhrs_5_en-GB,5,,FHRS,0
272572,Public House  Bridge Barn Bridge Barn Lane Woking Surrey,,,,The Bridge Barn Beefeater,Restaurant/Cafe/Canteen,1,0,,15794,0,,51.31712600000000,05/02296/COMM,315,emma.bourne@woking.gov.uk,Woking,http://www.woking.gov.uk,-0.57361700000000,GU21 6NL,2014-09-30,fhrs_5_en-GB,5,,FHRS,5
272573,,,,,The Buttercup Kitchen,Other catering premises,7841,0,,582897,0,,,13/00077/COMM,315,emma.bourne@woking.gov.uk,Woking,http://www.woking.gov.uk,,,2013-08-16,fhrs_5_en-GB,5,,FHRS,0
272574,35 Chertsey Road Woking Surrey,,,,The Chertsey News,Retailers - other,4613,5,,16197,0,,51.32016100000000,05/21268/COMM,315,emma.bourne@woking.gov.uk,Woking,http://www.woking.gov.uk,-0.55567000000000,GU21 5AJ,2013-10-14,fhrs_5_en-GB,5,,FHRS,0
272575,Residential Care Home 42 - 44 Chertsey Road Byfleet West Byfleet Surrey,,,,The Chestnuts   Downings Ltd,Hospitals/Childcare/Caring Premises,5,5,,16324,10,,51.34268100000000,05/39696/COMM,315,emma.bourne@woking.gov.uk,Woking,http://www.woking.gov.uk,-0.48054600000000,KT14 7AN,2014-07-11,fhrs_4_en-GB,4,,FHRS,0
272576,10 - 12 Lower Guildford Road Knaphill Woking Surrey,,,,The Chilli's,Restaurant/Cafe/Canteen,1,5,,733753,5,,51.31871500000000,15/00012/COMM,315,emma.bourne@woking.gov.uk,Woking,http://www.woking.gov.uk,-0.61469500000000,GU21 2EG,2015-01-30,fhrs_5_en-GB,5,,FHRS,5
272577,The Coign Baptist Church Church Street West Woking Surrey,,,,The Coign Baptist Church,Restaurant/Cafe/Canteen,1,5,,672062,0,,51.31787300000000,05/18347/COMM,315,emma.bourne@woking.gov.uk,Woking,http://www.woking.gov.uk,-0.56340500000000,GU21 6DJ,2014-03-13,fhrs_5_en-GB,5,,FHRS,5
272578,,,,,The Cookie Club,Other catering premises,7841,0,,13178,0,,,04/08387/COMM,315,emma.bourne@woking.gov.uk,Woking,http://www.woking.gov.uk,,,2014-09-01,fhrs_5_en-GB,5,,FHRS,0
272579,Sutton Green Garden Nursery Whitmoor Lane Sutton Green Guildford Surrey,,,,The Farm Shop,Retailers - other,4613,5,,429768,0,,51.27875200000000,12/00056/COMM,315,emma.bourne@woking.gov.uk,Woking,http://www.woking.gov.uk,-0.56822400000000,GU4 7QB,2013-08-05,fhrs_5_en-GB,5,,FHRS,5
272580,9 Turnoak Lane Woking Surrey,,,,The Fun Factory Childcare Ltd,Hospitals/Childcare/Caring Premises,5,5,,555327,0,,51.30806700000000,13/00051/COMM,315,emma.bourne@woking.gov.uk,Woking,http://www.woking.gov.uk,-0.56520300000000,GU22 0AQ,2013-05-28,fhrs_5_en-GB,5,,FHRS,0
272581,136 High Street Knaphill Woking Surrey,,,,The Garibaldi,Pub/bar/nightclub,7843,5,,16260,5,,51.31748900000000,05/30815/COMM,315,emma.bourne@woking.gov.uk,Woking,http://www.woking.gov.uk,-0.62275400000000,GU21 2QH,2015-01-20,fhrs_5_en-GB,5,,FHRS,5
272582,90 York Road Woking Surrey,,,,The Gormet Cheesecake,Other catering premises,7841,5,,715366,0,,51.31215300000000,14/00069/COMM,315,emma.bourne@woking.gov.uk,Woking,http://www.woking.gov.uk,-0.56843300000000,GU22 7XR,2014-10-31,fhrs_5_en-GB,5,,FHRS,0
272583,The Grange And Walton Cottage 28 St Johns Road St Johns Woking Surrey,,,,The Grange And Walton Cottage,Hospitals/Childcare/Caring Premises,5,0,,149060,0,,51.31273800000000,95/03208/COMM,315,emma.bourne@woking.gov.uk,Woking,http://www.woking.gov.uk,-0.59302200000000,GU21 7SA,2014-09-16,fhrs_5_en-GB,5,,FHRS,0
272584,2 Bentham Avenue Sheerwater Woking Surrey,,,,The Grill Stop,Other catering premises,7841,5,,45677,5,,51.33002100000000,11/00020/COMM,315,emma.bourne@woking.gov.uk,Woking,http://www.woking.gov.uk,-0.53642800000000,GU21 5LF,2014-01-15,fhrs_5_en-GB,5,,FHRS,5
272585,48 Westfield Road Westfield Woking Surrey,,,,The Guru,Restaurant/Cafe/Canteen,1,20,,16214,15,,51.30199000000000,05/25012/COMM,315,emma.bourne@woking.gov.uk,Woking,http://www.woking.gov.uk,-0.56025700000000,GU22 9NG,2014-02-27,fhrs_1_en-GB,1,,FHRS,10
272586,117 High Street Horsell Woking Surrey,,,,The Horsell Village Hall,Other catering premises,7841,,,16284,,,51.32400200000000,05/33161/COMM,315,emma.bourne@woking.gov.uk,Woking,http://www.woking.gov.uk,-0.57189600000000,GU21 4SS,2014-12-15,fhrs_exempt_en-GB,Exempt,,FHRS,
272587,Maybury Inn Public House Maybury Hill Woking Surrey,,,,The Inn At Maybury,Pub/bar/nightclub,7843,0,,16114,0,,51.31734400000000,05/13443/COMM,315,emma.bourne@woking.gov.uk,Woking,http://www.woking.gov.uk,-0.53878300000000,GU22 8AB,2014-08-13,fhrs_5_en-GB,5,,FHRS,0
272588,17 St Johns Road St Johns Woking Surrey,,,,The Ketch,Takeaway/sandwich shop,7844,10,,15834,10,,51.31273800000000,05/03198/COMM,315,emma.bourne@woking.gov.uk,Woking,http://www.woking.gov.uk,-0.59302200000000,GU21 7SA,2013-10-15,fhrs_3_en-GB,3,,FHRS,10
272589,The Lightbox Chobham Road Woking Surrey,,,,The Lightbox Cafe,Restaurant/Cafe/Canteen,1,0,,21926,0,,51.32233500000000,07/00090/COMM,315,emma.bourne@woking.gov.uk,Woking,http://www.woking.gov.uk,-0.55841500000000,GU21 4AA,2014-09-30,fhrs_5_en-GB,5,,FHRS,0
272590,The Maybury Centre 27 Board School Road Woking Surrey,,,,The Maybury Centre,Other catering premises,7841,5,,16205,5,,51.32358700000000,05/22458/COMM,315,emma.bourne@woking.gov.uk,Woking,http://www.woking.gov.uk,-0.55131400000000,GU21 5HD,2012-08-31,fhrs_5_en-GB,5,,FHRS,5
272591,The Meadows Bagshot Road Woking Surrey,,,,The Meadows NHS Trust,Hospitals/Childcare/Caring Premises,5,5,,149458,0,,,96/23866/COMM,315,emma.bourne@woking.gov.uk,Woking,http://www.woking.gov.uk,,,2012-11-16,fhrs_5_en-GB,5,,FHRS,0
272592,113 - 115 Oyster Lane Byfleet West Byfleet Surrey,,,,The Mixing Jug,Mobile caterer,7846,5,,702411,0,,51.34681700000000,14/00049/COMM,315,emma.bourne@woking.gov.uk,Woking,http://www.woking.gov.uk,-0.48124200000000,KT14 7JZ,2014-08-06,fhrs_5_en-GB,5,,FHRS,0
272593,6 Old Woking Road West Byfleet Surrey,,,,The New Haweli,Restaurant/Cafe/Canteen,1,5,,16225,5,,51.33818200000000,05/26105/COMM,315,emma.bourne@woking.gov.uk,Woking,http://www.woking.gov.uk,-0.50413900000000,KT14 6NU,2014-02-27,fhrs_5_en-GB,5,,FHRS,5
272594,The Oak Tree School Gorsewood Road St Johns Woking Surrey,,,,The Oak Tree School,School/college/university,7845,0,,16160,5,,51.30895000000000,05/18279/COMM,315,emma.bourne@woking.gov.uk,Woking,http://www.woking.gov.uk,-0.60636600000000,GU21 8UT,2013-06-28,fhrs_4_en-GB,4,,FHRS,10
272595,43 - 47 Chertsey Road Woking Surrey,,,,The Ogilvy,Other catering premises,7841,0,,607990,0,,51.32016100000000,13/00087/COMM,315,emma.bourne@woking.gov.uk,Woking,http://www.woking.gov.uk,-0.55567000000000,GU21 5AJ,2013-10-10,fhrs_5_en-GB,5,,FHRS,5
272596,The Olive Tree Public House Sutton Green Road Sutton Green Guildford Surrey,,,,The Olive Tree,Pub/bar/nightclub,7843,10,,13179,5,,51.28140100000000,04/08436/COMM,315,emma.bourne@woking.gov.uk,Woking,http://www.woking.gov.uk,-0.55763200000000,GU4 7QD,2013-11-20,fhrs_4_en-GB,4,,FHRS,5
272597,The Plough Public House 50 Cheapside Horsell Woking Surrey,,,,The Plough Inn,Pub/bar/nightclub,7843,5,,147993,5,,51.32998000000000,92/21413/COMM,315,emma.bourne@woking.gov.uk,Woking,http://www.woking.gov.uk,-0.57176800000000,GU21 4JL,2014-02-19,fhrs_5_en-GB,5,,FHRS,5
272598,The Princess Of Wales 24 Princess Road Maybury Woking Surrey,,,,The Princess,Pub/bar/nightclub,7843,0,,16062,0,,51.32523700000000,05/10719/COMM,315,emma.bourne@woking.gov.uk,Woking,http://www.woking.gov.uk,-0.53791500000000,GU22 8EN,2012-11-19,fhrs_5_en-GB,5,,FHRS,0
272599,The Priory Chobham Road Knaphill Woking Surrey,,,,The Priory Hospital,Hospitals/Childcare/Caring Premises,5,0,,16263,0,,51.31985200000000,05/31465/COMM,315,emma.bourne@woking.gov.uk,Woking,http://www.woking.gov.uk,-0.62261100000000,GU21 2QF,2014-09-25,fhrs_5_en-GB,5,,FHRS,0
272600,75 Commercial Way Woking Surrey,,,,The Real China Express,Restaurant/Cafe/Canteen,1,5,,409302,5,,51.31978800000000,12/00037/COMM,315,emma.bourne@woking.gov.uk,Woking,http://www.woking.gov.uk,-0.55753300000000,GU21 6HN,2014-11-26,fhrs_5_en-GB,5,,FHRS,0
272601,The Royal Oak Public House Anchor Hill Knaphill Woking Surrey,,,,The Royal Oak,Pub/bar/nightclub,7843,5,,16268,5,,51.32172800000000,05/32002/COMM,315,emma.bourne@woking.gov.uk,Woking,http://www.woking.gov.uk,-0.61090200000000,GU21 2JH,2013-07-18,fhrs_5_en-GB,5,,FHRS,5
272602,3 New Shops Old Woking Woking Surrey,,,,The Sandwich Board,Takeaway/sandwich shop,7844,0,,150735,5,,51.30222700000000,99/08410/COMM,315,emma.bourne@woking.gov.uk,Woking,http://www.woking.gov.uk,-0.54160100000000,GU22 9JW,2014-11-27,fhrs_5_en-GB,5,,FHRS,5
272603,Star Inn Wych Hill Woking Surrey,,,,The Star Inn,Pub/bar/nightclub,7843,5,,150357,5,,51.30923400000000,98/16075/COMM,315,emma.bourne@woking.gov.uk,Woking,http://www.woking.gov.uk,-0.57541100000000,GU22 0EU,2013-09-04,fhrs_5_en-GB,5,,FHRS,5
272604,12 Chertsey Road Woking Surrey,,,,The Station,Pub/bar/nightclub,7843,5,,2914,5,,51.31951900000000,01/21246/COMM,315,emma.bourne@woking.gov.uk,Woking,http://www.woking.gov.uk,-0.55682400000000,GU21 5AB,2014-04-22,fhrs_5_en-GB,5,,FHRS,5
272605,The Surrey Ph Hermitage Road St Johns Woking Surrey,,,,The Surrey PH,Pub/bar/nightclub,7843,0,,15454,5,,51.31258500000000,05/00237/COMM,315,emma.bourne@woking.gov.uk,Woking,http://www.woking.gov.uk,-0.60955600000000,GU21 8TX,2014-03-13,fhrs_5_en-GB,5,,FHRS,5
272606,,,,,The Truckle Cheese Company,Retailers - other,4613,,,582883,,,,13/00039/COMM,315,emma.bourne@woking.gov.uk,Woking,http://www.woking.gov.uk,,,2013-04-10,fhrs_exempt_en-GB,Exempt,,FHRS,
272607,3 St Johns Road St Johns Woking Surrey,,,,The Village,Takeaway/sandwich shop,7844,5,,150356,5,,51.31214300000000,98/03175/COMM,315,emma.bourne@woking.gov.uk,Woking,http://www.woking.gov.uk,-0.59515000000000,GU21 7SE,2013-11-05,fhrs_5_en-GB,5,,FHRS,5
272608,The Vyne 45 Broadway Knaphill Woking Surrey,,,,The Vyne,Restaurant/Cafe/Canteen,1,0,,150732,5,,51.31628200000000,99/08382/COMM,315,emma.bourne@woking.gov.uk,Woking,http://www.woking.gov.uk,-0.61953200000000,GU21 2SP,2012-11-21,fhrs_5_en-GB,5,,FHRS,5
272609,Kiosk 6 Market Walk Woking Surrey,,,,The Waffle Room,Takeaway/sandwich shop,7844,5,,720373,5,,,14/00090/COMM,315,emma.bourne@woking.gov.uk,Woking,http://www.woking.gov.uk,,,2014-10-15,fhrs_5_en-GB,5,,FHRS,0
272610,43 Station Approach West Byfleet Surrey,,,,The Wendy House,Other catering premises,7841,0,,33262,0,,,10/00034/COMM,315,emma.bourne@woking.gov.uk,Woking,http://www.woking.gov.uk,,KT14 6PA,2013-10-07,fhrs_5_en-GB,5,,FHRS,0
272611,Flat   86 Walton Road Woking Surrey,,,,This 'N' That Discount Store,Retailers - other,4613,,,582829,,,51.32273200000000,10/00003/COMM,315,emma.bourne@woking.gov.uk,Woking,http://www.woking.gov.uk,-0.55052300000000,GU21 5DW,2012-10-18,fhrs_exempt_en-GB,Exempt,,FHRS,
272612,Unit 51a Upper Concourse  Peacocks Centre Victoria Way Woking Surrey,,,,Thorntons,Retailers - other,4613,,,582902,,,51.31985100000000,97/01819/COMM,315,emma.bourne@woking.gov.uk,Woking,http://www.woking.gov.uk,-0.56186500000000,GU21 6GB,2014-08-08,fhrs_exempt_en-GB,Exempt,,FHRS,
272613,Throwleigh Lodge Ridgeway Horsell Woking Surrey,,,,Throwleigh Lodge Limited,Hospitals/Childcare/Caring Premises,5,0,,16271,0,,51.32719000000000,05/32336/COMM,315,emma.bourne@woking.gov.uk,Woking,http://www.woking.gov.uk,-0.56717600000000,GU21 4QR,2013-09-09,fhrs_5_en-GB,5,,FHRS,0
272614,102C High Street Horsell Woking Surrey,,,,Thurstons The Horsell Brewing Co Ltd,Manufacturers/packers,7839,,,672075,,,51.32350400000000,14/00029/COMM,315,emma.bourne@woking.gov.uk,Woking,http://www.woking.gov.uk,-0.57235700000000,GU21 4ST,2014-05-12,fhrs_exempt_en-GB,Exempt,,FHRS,
272615,1 St Johns Road St Johns Woking Surrey,,,,Tiang,Restaurant/Cafe/Canteen,1,5,,201412,5,,51.31241400000000,12/00009/COMM,315,emma.bourne@woking.gov.uk,Woking,http://www.woking.gov.uk,-0.59521300000000,GU21 7SE,2014-03-28,fhrs_5_en-GB,5,,FHRS,0
272616,,,,,Ticky Dix Cakes,Other catering premises,7841,0,,6143,0,,,02/16305/COMM,315,emma.bourne@woking.gov.uk,Woking,http://www.woking.gov.uk,,,2014-03-26,fhrs_5_en-GB,5,,FHRS,0
272617,Units 59-64 Major Store 5a Lower Concourse  Peacocks Centre Victoria Way Woking Surrey,,,,TK Maxx,Retailers - other,4613,,,582809,,,51.31985100000000,05/08409/COMM,315,emma.bourne@woking.gov.uk,Woking,http://www.woking.gov.uk,-0.56186500000000,GU21 6GB,2013-11-07,fhrs_exempt_en-GB,Exempt,,FHRS,
272618,33 Frailey Hill Woking Surrey,,,,Tony Ice,Mobile caterer,7846,5,,16168,5,,51.32319100000000,05/18710/COMM,315,emma.bourne@woking.gov.uk,Woking,http://www.woking.gov.uk,-0.53898400000000,GU22 8EA,2012-10-08,fhrs_5_en-GB,5,,FHRS,5
272619,Rose Cottage 14 Chertsey Road Byfleet West Byfleet Surrey,,,,Tony Ice,Mobile caterer,7846,0,,16308,0,,51.34118900000000,05/35492/COMM,315,emma.bourne@woking.gov.uk,Woking,http://www.woking.gov.uk,-0.47992000000000,KT14 7AG,2014-10-31,fhrs_5_en-GB,5,,FHRS,0
272620,Toys R Us Church Street West Woking Surrey,,,,Toys `R' Us Limited,Retailers - other,4613,,,582899,,,51.31985100000000,92/21020/COMM,315,emma.bourne@woking.gov.uk,Woking,http://www.woking.gov.uk,-0.56186500000000,GU21 6GD,2014-03-07,fhrs_exempt_en-GB,Exempt,,FHRS,
272621,Traditions Golf Club  Pyrford Road Woking Surrey,,,,Traditions Golf Club,Restaurant/Cafe/Canteen,1,5,,150734,5,,51.32658700000000,99/08408/COMM,315,emma.bourne@woking.gov.uk,Woking,http://www.woking.gov.uk,-0.50170300000000,GU22 8UE,2014-09-17,fhrs_4_en-GB,4,,FHRS,10
272622,Storage Building Watersplash Yard Saunders Lane Woking Surrey,,,,Tramline Catering Company,Mobile caterer,7846,0,,590350,0,,,13/00088/COMM,315,emma.bourne@woking.gov.uk,Woking,http://www.woking.gov.uk,,,2013-09-25,fhrs_5_en-GB,5,,FHRS,0
272623,Travelodge Woking Central Oriental Road Woking Surrey,,,,Travelodge Woking Central,Hotel/bed & breakfast/guest house,7842,0,,492869,0,,51.31754400000000,12/00072/COMM,315,emma.bourne@woking.gov.uk,Woking,http://www.woking.gov.uk,-0.55639800000000,GU22 7PJ,2014-09-24,fhrs_5_en-GB,5,,FHRS,0
272624,16 Sussex Road Knaphill Woking Surrey,,,,Tree And Bee,Other catering premises,7841,,,715373,,,51.31669200000000,14/00076/COMM,315,emma.bourne@woking.gov.uk,Woking,http://www.woking.gov.uk,-0.62148600000000,GU21 2RA,2014-11-10,fhrs_exempt_en-GB,Exempt,,FHRS,
272625,Woking Football Club Kingfield Road Kingfield Woking Surrey,,,,Tremblay's Limited,Other catering premises,7841,5,,710047,5,,51.30756000000000,14/00056/COMM,315,emma.bourne@woking.gov.uk,Woking,http://www.woking.gov.uk,-0.55767300000000,GU22 9AA,2014-09-30,fhrs_5_en-GB,5,,FHRS,5
272626,Trinity Methodist Church 4 Brewery Road Horsell Woking Surrey,,,,Trinity Methodist Church,Other catering premises,7841,5,,16202,5,,51.32249700000000,05/22132/COMM,315,emma.bourne@woking.gov.uk,Woking,http://www.woking.gov.uk,-0.55991700000000,GU21 4LH,2014-02-26,fhrs_5_en-GB,5,,FHRS,5
272627,Allied House Abbot Close Byfleet West Byfleet Surrey,,,,Truffles Caterers Ltd,Other catering premises,7841,0,,15520,0,,51.34765700000000,05/00263/COMM,315,emma.bourne@woking.gov.uk,Woking,http://www.woking.gov.uk,-0.48286500000000,KT14 7JN,2012-11-12,fhrs_5_en-GB,5,,FHRS,0
272628,138 Connaught Road Brookwood Woking Surrey,,,,Tudor Newsagents,Retailers - other,4613,10,,16312,10,,51.30470200000000,05/36217/COMM,315,emma.bourne@woking.gov.uk,Woking,http://www.woking.gov.uk,-0.63814200000000,GU24 0AS,2013-09-18,fhrs_2_en-GB,2,,FHRS,15
272629,23 - 29 Broadway Knaphill Woking Surrey,,,,Valentino's Coffee Juice Bar,Restaurant/Cafe/Canteen,1,5,,21752,5,,51.31753900000000,07/00063/COMM,315,emma.bourne@woking.gov.uk,Woking,http://www.woking.gov.uk,-0.61783000000000,GU21 2DR,2014-09-25,fhrs_5_en-GB,5,,FHRS,5
272630,,,,,Vanilla Bean Bakery,Other catering premises,7841,5,,409299,5,,,12/00033/COMM,315,emma.bourne@woking.gov.uk,Woking,http://www.woking.gov.uk,,,2012-04-18,fhrs_5_en-GB,5,,FHRS,5
272631,Bradbury Centre Lavender Road Woking Surrey,,,,Victoria Day Centre,Hospitals/Childcare/Caring Premises,5,0,,24706,0,,51.32170800000000,08/00005/COMM,315,emma.bourne@woking.gov.uk,Woking,http://www.woking.gov.uk,-0.54048100000000,GU22 8BJ,2013-11-05,fhrs_5_en-GB,5,,FHRS,0
272632,,,,,Victoria's Kitchen,Other catering premises,7841,0,,672073,0,,,14/00027/COMM,315,emma.bourne@woking.gov.uk,Woking,http://www.woking.gov.uk,,,2014-05-22,fhrs_5_en-GB,5,,FHRS,0
272633,168 High Road Byfleet West Byfleet Surrey,,,,Village Store,Retailers - other,4613,5,,16304,5,,51.33804600000000,05/34676/COMM,315,emma.bourne@woking.gov.uk,Woking,http://www.woking.gov.uk,-0.47060600000000,KT14 7RG,2013-11-06,fhrs_5_en-GB,5,,FHRS,5
272634,Beers Wines And Spirits 4 Marshall Parade Coldharbour Road Woking Surrey,,,,Village Vintners,Retailers - other,4613,,,582849,,,51.32674700000000,11/00130/COMM,315,emma.bourne@woking.gov.uk,Woking,http://www.woking.gov.uk,-0.51145700000000,GU22 8SW,2013-03-20,fhrs_exempt_en-GB,Exempt,,FHRS,
272635,9 Oriental Road Woking Surrey,,,,Vincents Butchers,Retailers - other,4613,0,,16081,0,,51.31837700000000,05/11509/COMM,315,emma.bourne@woking.gov.uk,Woking,http://www.woking.gov.uk,-0.55536700000000,GU22 7AH,2013-11-21,fhrs_5_en-GB,5,,FHRS,0
272636,Unit 1-3 Goldsworth Park Centre Woking Surrey,,,,Waitrose Limited,Retailers - supermarkets/hypermarkets,7840,0,,16175,0,,51.31885300000000,05/20034/COMM,315,emma.bourne@woking.gov.uk,Woking,http://www.woking.gov.uk,-0.59072600000000,GU21 3LG,2013-10-04,fhrs_5_en-GB,5,,FHRS,0
272637,Waitrose 60 Station Approach West Byfleet Surrey,,,,Waitrose Limited,Retailers - supermarkets/hypermarkets,7840,0,,16226,0,,51.33863800000000,05/26113/COMM,315,emma.bourne@woking.gov.uk,Woking,http://www.woking.gov.uk,-0.50604800000000,KT14 6NE,2013-10-07,fhrs_5_en-GB,5,,FHRS,0
272638,,,,,Well Seasoned,Other catering premises,7841,10,,555326,5,,,13/00050/COMM,315,emma.bourne@woking.gov.uk,Woking,http://www.woking.gov.uk,,,2013-05-21,fhrs_4_en-GB,4,,FHRS,5
272639,Moor House Residential Home Horsell Moor Horsell Woking Surrey,,,,Welmede Housing Association,Hospitals/Childcare/Caring Premises,5,0,,149065,0,,51.31972600000000,95/15746/COMM,315,emma.bourne@woking.gov.uk,Woking,http://www.woking.gov.uk,-0.56494000000000,GU21 4NH,2013-09-17,fhrs_5_en-GB,5,,FHRS,0
272640,,,,,Wendy Bus,Other catering premises,7841,5,,688755,0,,,14/00043/COMM,315,emma.bourne@woking.gov.uk,Woking,http://www.woking.gov.uk,,,2014-07-09,fhrs_5_en-GB,5,,FHRS,0
272641,West Byfleet Bowls Club Camphill Road West Byfleet Surrey,,,,West Byfleet Bowls Club,Pub/bar/nightclub,7843,0,,147997,0,,51.34044300000000,92/37600/COMM,315,emma.bourne@woking.gov.uk,Woking,http://www.woking.gov.uk,-0.50089200000000,KT14 6EF,2014-07-28,fhrs_5_en-GB,5,,FHRS,0
272642,West Byfleet Golf Club Sheerwater Road West Byfleet Surrey,,,,West Byfleet Golf Club,Restaurant/Cafe/Canteen,1,5,,16218,5,,51.33438100000000,05/25416/COMM,315,emma.bourne@woking.gov.uk,Woking,http://www.woking.gov.uk,-0.51138300000000,KT14 6AA,2014-06-17,fhrs_5_en-GB,5,,FHRS,5
272643,Camphill Road West Byfleet Surrey,,,,West Byfleet Junior School,School/college/university,7845,0,,16235,0,,51.34044300000000,05/26720/COMM,315,emma.bourne@woking.gov.uk,Woking,http://www.woking.gov.uk,-0.50089200000000,KT14 6EF,2014-03-14,fhrs_5_en-GB,5,,FHRS,5
272644,West Byfleet County First And Middle School Camphill Road West Byfleet Surrey,,,,West Byfleet Nursery,School/college/university,7845,0,,47543,0,,51.34044300000000,11/00144/COMM,315,emma.bourne@woking.gov.uk,Woking,http://www.woking.gov.uk,-0.50089200000000,KT14 6EF,2014-10-13,fhrs_5_en-GB,5,,FHRS,0
272645,West Byfleet Recreation Ground Camphill Road West Byfleet Surrey,,,,West Byfleet Rec. Ground,Pub/bar/nightclub,7843,,,582820,,,,05/37599/COMM,315,emma.bourne@woking.gov.uk,Woking,http://www.woking.gov.uk,,,2014-01-15,fhrs_exempt_en-GB,Exempt,,FHRS,
272646,West Byfleet Social Club 41 Station Approach West Byfleet Surrey,,,,West Byfleet Social Club,Pub/bar/nightclub,7843,5,,16224,0,,51.33863800000000,05/26058/COMM,315,emma.bourne@woking.gov.uk,Woking,http://www.woking.gov.uk,-0.50604800000000,KT14 6NE,2014-06-19,fhrs_5_en-GB,5,,FHRS,0
272647,Anchor Care Nursing Home West Hall West Byfleet Surrey,,,,West Hall   Anchor Trust,Restaurant/Cafe/Canteen,1,0,,429765,0,,51.33504600000000,12/00049/COMM,315,emma.bourne@woking.gov.uk,Woking,http://www.woking.gov.uk,-0.48816300000000,KT14 6EY,2013-10-10,fhrs_5_en-GB,5,,FHRS,5
272648,West Hill Golf Club Bagshot Road Woking Surrey,,,,West Hill Golf Club Ltd,Restaurant/Cafe/Canteen,1,10,,16208,5,,51.30399500000000,05/23870/COMM,315,emma.bourne@woking.gov.uk,Woking,http://www.woking.gov.uk,-0.62533800000000,GU24 0BH,2014-10-21,fhrs_4_en-GB,4,,FHRS,5
272649,Unit 1 Block C Kingswey Business Park Forsyth Road Sheerwater Woking Surrey,,,,West Horsley Dairy,Distributors/Transporters,7,0,,555323,0,,51.33099600000000,01/08420/COMM,315,emma.bourne@woking.gov.uk,Woking,http://www.woking.gov.uk,-0.53313800000000,GU21 5SF,2013-05-16,fhrs_5_en-GB,5,,FHRS,0
272650,Greenmeads Mayford Woking Surrey,,,,Westfield District Cricket And Sports Club,Pub/bar/nightclub,7843,5,,16216,5,,51.29761300000000,05/25097/COMM,315,emma.bourne@woking.gov.uk,Woking,http://www.woking.gov.uk,-0.56631800000000,GU22 9QJ,2012-10-17,fhrs_5_en-GB,5,,FHRS,5
272651,1 Bonsey Lane Westfield Woking Surrey,,,,Westfield Primary School,School/college/university,7845,5,,16323,5,,51.30021600000000,05/37665/COMM,315,emma.bourne@woking.gov.uk,Woking,http://www.woking.gov.uk,-0.56665300000000,GU22 9PR,2013-07-22,fhrs_5_en-GB,5,,FHRS,0
272652,,,,,Westlab Limited,Retailers - other,4613,,,582868,,,,12/00064/COMM,315,emma.bourne@woking.gov.uk,Woking,http://www.woking.gov.uk,,,2012-09-12,fhrs_exempt_en-GB,Exempt,,FHRS,
272653,Wetherspoons 51 - 57 Chertsey Road Woking Surrey,,,,Wetherspoons,Pub/bar/nightclub,7843,0,,150360,0,,51.32016100000000,98/21292/COMM,315,emma.bourne@woking.gov.uk,Woking,http://www.woking.gov.uk,-0.55567000000000,GU21 5AJ,2012-10-29,fhrs_5_en-GB,5,,FHRS,0
272654,Woking Railway Station Station Approach Woking Surrey,,,,WH Smiths,Retailers - other,4613,,,582830,,,51.31807800000000,10/00013/COMM,315,emma.bourne@woking.gov.uk,Woking,http://www.woking.gov.uk,-0.55741400000000,GU22 7AE,2013-08-30,fhrs_exempt_en-GB,Exempt,,FHRS,
272655,41 - 43 Commercial Way Woking Surrey,,,,WH Smiths Ltd,Retailers - other,4613,,,582815,,,51.31880200000000,05/20638/COMM,315,emma.bourne@woking.gov.uk,Woking,http://www.woking.gov.uk,-0.55918600000000,GU21 6XR,2011-08-02,fhrs_exempt_en-GB,Exempt,,FHRS,
272656,The Wheatsheaf Hotel Chobham Road Woking Surrey,,,,Wheatsheaf Hotel,Pub/bar/nightclub,7843,0,,16189,0,,51.32318900000000,05/21128/COMM,315,emma.bourne@woking.gov.uk,Woking,http://www.woking.gov.uk,-0.55983700000000,GU21 4AL,2012-07-19,fhrs_5_en-GB,5,,FHRS,5
272657,The Wheatsheaf Recreation Ground Chobham Road Woking Surrey,,,,Wheatsheaf Rec. Pavilion,Other catering premises,7841,,,582816,,,,05/21166/COMM,315,emma.bourne@woking.gov.uk,Woking,http://www.woking.gov.uk,,,2014-01-15,fhrs_exempt_en-GB,Exempt,,FHRS,
272658,73 Horsell Moor Horsell Woking Surrey,,,,White Knight Laundry,Restaurant/Cafe/Canteen,1,5,,16146,5,,51.31892100000000,05/15812/COMM,315,emma.bourne@woking.gov.uk,Woking,http://www.woking.gov.uk,-0.56895400000000,GU21 4NL,2014-11-17,fhrs_5_en-GB,5,,FHRS,5
272659,Beaufort House Chobham Road Knaphill Woking Surrey,,,,Whitmore Vale H A,Hospitals/Childcare/Caring Premises,5,5,,16262,5,,51.31448200000000,05/31427/COMM,315,emma.bourne@woking.gov.uk,Woking,http://www.woking.gov.uk,-0.62630200000000,GU21 2TD,2013-07-09,fhrs_5_en-GB,5,,FHRS,5
272660,Westlands West Hill Road Woking Surrey,,,,Whitmore Vale Housing Association  Westlands,Hospitals/Childcare/Caring Premises,5,0,,149061,0,,51.30933600000000,95/03999/COMM,315,emma.bourne@woking.gov.uk,Woking,http://www.woking.gov.uk,-0.56609600000000,GU22 7UL,2013-03-26,fhrs_5_en-GB,5,,FHRS,0
272661,3 - 4 Station Approach West Byfleet Surrey,,,,Wine Rack,Retailers - other,4613,,,607999,,,51.33838200000000,13/00104/COMM,315,emma.bourne@woking.gov.uk,Woking,http://www.woking.gov.uk,-0.50496500000000,KT14 6NG,2013-11-08,fhrs_exempt_en-GB,Exempt,,FHRS,
272662,74 - 76 High Road Byfleet West Byfleet Surrey,,,,Wine To Dine,Retailers - other,4613,5,,445051,5,,51.33891800000000,12/00058/COMM,315,emma.bourne@woking.gov.uk,Woking,http://www.woking.gov.uk,-0.47606200000000,KT14 7QW,2012-08-13,fhrs_5_en-GB,5,,FHRS,5
272663,8 Kingfield Road Kingfield Woking Surrey,,,,Wing Ho,Takeaway/sandwich shop,7844,0,,16131,5,,51.30404500000000,05/14856/COMM,315,emma.bourne@woking.gov.uk,Woking,http://www.woking.gov.uk,-0.55185800000000,GU22 9EH,2014-03-19,fhrs_5_en-GB,5,,FHRS,5
272664,Winston Churchill School Hermitage Road St Johns Woking Surrey,,,,Winston Churchill School,School/college/university,7845,5,,149976,5,,51.31296400000000,97/16845/COMM,315,emma.bourne@woking.gov.uk,Woking,http://www.woking.gov.uk,-0.60138100000000,GU21 8TL,2014-02-07,fhrs_5_en-GB,5,,FHRS,5
272665,Bonsey Lane Westfield Woking Surrey,,,,Woking Adult Learning Centre,Restaurant/Cafe/Canteen,1,0,,710052,0,,51.29986700000000,14/00061/COMM,315,emma.bourne@woking.gov.uk,Woking,http://www.woking.gov.uk,-0.56749600000000,GU22 9PE,2014-10-15,fhrs_5_en-GB,5,,FHRS,0
272666,Sports Ground Brewery Road Horsell Woking Surrey,,,,Woking And Horsell Cricket Club,Pub/bar/nightclub,7843,5,,16203,5,,51.32014100000000,05/22170/COMM,315,emma.bourne@woking.gov.uk,Woking,http://www.woking.gov.uk,-0.56592300000000,,2015-01-26,fhrs_5_en-GB,5,,FHRS,5
272667,7 Creswell Corner Anchor Hill Knaphill Woking Surrey,,,,Woking Chop Suey House,Takeaway/sandwich shop,7844,20,,16266,10,,51.32090300000000,05/31953/COMM,315,emma.bourne@woking.gov.uk,Woking,http://www.woking.gov.uk,-0.61262000000000,GU21 2JD,2014-12-17,fhrs_1_en-GB,1,,FHRS,15
272668,Woking Community Hospital 5 Heathside Road Woking Surrey,,,,Woking Community Hospital,Hospitals/Childcare/Caring Premises,5,0,,16152,0,,51.31497400000000,05/17017/COMM,315,emma.bourne@woking.gov.uk,Woking,http://www.woking.gov.uk,-0.55655000000000,GU22 7HS,2014-07-14,fhrs_5_en-GB,5,,FHRS,0
272669,2 The Shops Kingfield Road Kingfield Woking Surrey,,,,Woking Food And Wine,Retailers - other,4613,20,,16130,0,,51.30404500000000,05/14850/COMM,315,emma.bourne@woking.gov.uk,Woking,http://www.woking.gov.uk,-0.55185800000000,GU22 9EH,2014-06-18,fhrs_1_en-GB,1,,FHRS,0
272670,Woking Football Club Kingfield Road Kingfield Woking Surrey,,,,Woking Football Club,Pub/bar/nightclub,7843,5,,16138,5,,51.30756000000000,05/14950/COMM,315,emma.bourne@woking.gov.uk,Woking,http://www.woking.gov.uk,-0.55767300000000,GU22 9AA,2014-03-11,fhrs_5_en-GB,5,,FHRS,5
272671,Wyevale Garden Centre  Egley Road Woking Surrey,,,,Woking Garden Centre,Restaurant/Cafe/Canteen,1,0,,8304,5,,51.29726100000000,03/19646/COMM,315,emma.bourne@woking.gov.uk,Woking,http://www.woking.gov.uk,-0.57281200000000,GU22 0NH,2014-09-22,fhrs_5_en-GB,5,,FHRS,5
272672,Woking Golf Club Pond Road Woking Surrey,,,,Woking Golf Club,Restaurant/Cafe/Canteen,1,5,,7947,5,,51.30794300000000,03/04854/COMM,315,emma.bourne@woking.gov.uk,Woking,http://www.woking.gov.uk,-0.59205000000000,GU22 0JZ,2014-01-24,fhrs_5_en-GB,5,,FHRS,5
272673,Morton Road Horsell Woking Surrey,,,,Woking High School,School/college/university,7845,0,,16100,0,,51.32823200000000,05/12811/COMM,315,emma.bourne@woking.gov.uk,Woking,http://www.woking.gov.uk,-0.57073200000000,GU21 4TJ,2013-07-05,fhrs_5_en-GB,5,,FHRS,0
272674,Woking Hockey Club Pavilion Wishbone Way Woking Surrey,,,,Woking Hockey Club,Pub/bar/nightclub,7843,0,,429764,0,,51.32334400000000,05/02545/COMM,315,emma.bourne@woking.gov.uk,Woking,http://www.woking.gov.uk,-0.59822800000000,,2014-09-04,fhrs_5_en-GB,5,,FHRS,0
272675,Woking Homes Oriental Road Woking Surrey,,,,Woking Homes ABM Catering,Hospitals/Childcare/Caring Premises,5,0,,16083,0,,51.32140400000000,05/11620/COMM,315,emma.bourne@woking.gov.uk,Woking,http://www.woking.gov.uk,-0.54712100000000,GU22 7BA,2014-07-17,fhrs_5_en-GB,5,,FHRS,0
272676,Woking Hospice 5 Hill View Road Woking Surrey,,,,Woking Hospice,Hospitals/Childcare/Caring Premises,5,0,,16321,0,,51.31450100000000,05/37515/COMM,315,emma.bourne@woking.gov.uk,Woking,http://www.woking.gov.uk,-0.55758400000000,GU22 7HW,2014-07-10,fhrs_5_en-GB,5,,FHRS,0
272677,3 Chertsey Road Woking Surrey,,,,Woking Kebabs,Restaurant/Cafe/Canteen,1,10,,13328,5,,51.31951900000000,04/21228/COMM,315,emma.bourne@woking.gov.uk,Woking,http://www.woking.gov.uk,-0.55682400000000,GU21 5AB,2014-05-28,fhrs_4_en-GB,4,,FHRS,5
272678,Woking Labour Club  Owen House Heathside Crescent Woking Surrey,,,,Woking Labour Social Club,Retailers - other,4613,,,615848,,,51.31702700000000,05/17066/COMM,315,emma.bourne@woking.gov.uk,Woking,http://www.woking.gov.uk,-0.55673000000000,GU22 7AG,2013-11-22,fhrs_exempt_en-GB,Exempt,,FHRS,
272679,Woking LawnTennis And Croquet Club Pine Road Woking Surrey,,,,Woking Lawn Tennis Club,Pub/bar/nightclub,7843,5,,16077,5,,51.30753500000000,05/11137/COMM,315,emma.bourne@woking.gov.uk,Woking,http://www.woking.gov.uk,-0.57916500000000,GU22 0DX,2014-07-09,fhrs_5_en-GB,5,,FHRS,5
272680,1 Victoria House Goldsworth Road Woking Surrey,,,,Woking Local,Retailers - other,4613,10,,188823,0,,51.31759900000000,11/00123/COMM,315,emma.bourne@woking.gov.uk,Woking,http://www.woking.gov.uk,-0.56308300000000,GU21 6JY,2013-09-20,fhrs_4_en-GB,4,,FHRS,0
272681,2 Courtenay Road Woking Surrey,,,,Woking Mental Health Resource Centre - Cornerhouse,Hospitals/Childcare/Caring Premises,5,20,,13325,10,,51.32489500000000,04/20324/COMM,315,emma.bourne@woking.gov.uk,Woking,http://www.woking.gov.uk,-0.54873300000000,GU21 5HQ,2014-04-15,fhrs_1_en-GB,1,,FHRS,5
272682,Woking Park Bowls Club Kingfield Road Kingfield Woking Surrey,,,,Woking Park Bowls Club,Pub/bar/nightclub,7843,5,,16006,5,,51.31016800000000,05/08442/COMM,315,emma.bourne@woking.gov.uk,Woking,http://www.woking.gov.uk,-0.55622800000000,GU22 9BA,2014-03-26,fhrs_5_en-GB,5,,FHRS,5
272683,Kiosk 9 Market Walk Woking Surrey,,,,Woking Quality Fishmonger,Retailers - other,4613,5,,720372,5,,,14/00089/COMM,315,emma.bourne@woking.gov.uk,Woking,http://www.woking.gov.uk,,,2014-10-29,fhrs_5_en-GB,5,,FHRS,5
272684,Railway Athletic Club Goldsworth Road Woking Surrey,,,,Woking Railway Athletic Club,Retailers - other,4613,5,,16162,5,,51.31716400000000,05/18335/COMM,315,emma.bourne@woking.gov.uk,Woking,http://www.woking.gov.uk,-0.56202100000000,GU21 6JT,2013-01-21,fhrs_5_en-GB,5,,FHRS,5
272685,Woking Snooker Centre Kingfield Road Kingfield Woking Surrey,,,,Woking Snooker Centre,Pub/bar/nightclub,7843,5,,16139,5,,51.30756000000000,05/14955/COMM,315,emma.bourne@woking.gov.uk,Woking,http://www.woking.gov.uk,-0.55767300000000,GU22 9AA,2015-01-15,fhrs_5_en-GB,5,,FHRS,5
272686,Woking Squash Rackets Club Horsell Moor Horsell Woking Surrey,,,,Woking Squash Rack. Club,Pub/bar/nightclub,7843,5,,15926,5,,51.31910500000000,05/06853/COMM,315,emma.bourne@woking.gov.uk,Woking,http://www.woking.gov.uk,-0.57150300000000,GU21 4NQ,2012-01-26,fhrs_5_en-GB,5,,FHRS,5
272687,75 Walton Road Woking Surrey,,,,Woking Superstore,Retailers - other,4613,10,,188829,5,,51.32273200000000,04/07550/COMM,315,emma.bourne@woking.gov.uk,Woking,http://www.woking.gov.uk,-0.55052300000000,GU21 5DW,2013-11-19,fhrs_4_en-GB,4,,FHRS,5
272688,Woking United Reform Church White Rose Lane Woking Surrey,,,,Woking United Reformed Church,Other catering premises,7841,0,,16201,0,,51.31590400000000,05/21819/COMM,315,emma.bourne@woking.gov.uk,Woking,http://www.woking.gov.uk,-0.55537300000000,GU22 7HA,2014-07-03,fhrs_5_en-GB,5,,FHRS,0
272689,4 The Parade Blackbridge Road Woking Surrey,,,,Woking Wines Ltd,Retailers - other,4613,5,,15866,0,,51.30675700000000,05/04574/COMM,315,emma.bourne@woking.gov.uk,Woking,http://www.woking.gov.uk,-0.57134100000000,GU22 0DH,2014-07-30,fhrs_5_en-GB,5,,FHRS,0
272690,Woodlands Ivy Lane Woking Surrey,,,,Woodlands (B&B),Hotel/bed & breakfast/guest house,7842,5,,15861,5,,51.31614900000000,05/04274/COMM,315,emma.bourne@woking.gov.uk,Woking,http://www.woking.gov.uk,-0.54173400000000,GU22 7BY,2013-03-28,fhrs_5_en-GB,5,,FHRS,0
272691,Caring Daycare House Blackmore Crescent Sheerwater Woking Surrey,,,,Working Childrens Centre (Caring Daycare Ltd.),School/college/university,7845,5,,15250,0,,51.33378200000000,05/00147/COMM,315,emma.bourne@woking.gov.uk,Woking,http://www.woking.gov.uk,-0.53228900000000,GU21 5NZ,2015-01-30,fhrs_5_en-GB,5,,FHRS,5
272692,Worplesdon Golf Club Heath House Road Brookwood Woking Surrey,,,,Worplesdon Golf Club,Restaurant/Cafe/Canteen,1,5,,15862,0,,51.29721700000000,05/04381/COMM,315,emma.bourne@woking.gov.uk,Woking,http://www.woking.gov.uk,-0.61102500000000,GU22 0QU,2014-07-14,fhrs_5_en-GB,5,,FHRS,5
272693,Gordon House Wych Hill Woking Surrey,,,,Wych Hill News,Retailers - other,4613,5,,16022,5,,51.30966200000000,05/08647/COMM,315,emma.bourne@woking.gov.uk,Woking,http://www.woking.gov.uk,-0.57364700000000,GU22 0EX,2014-11-19,fhrs_5_en-GB,5,,FHRS,5
272694,Unit A2 And A3 Kingswey Business Park Forsyth Road Sheerwater Woking Surrey,,,,Yamaha Motor (UK) Ltd,Restaurant/Cafe/Canteen,1,,,688754,,,51.33016400000000,14/00042/COMM,315,emma.bourne@woking.gov.uk,Woking,http://www.woking.gov.uk,-0.53277700000000,GU21 5SA,2014-07-08,fhrs_exempt_en-GB,Exempt,,FHRS,
272695,5 - 7 Chobham Road Woking Surrey,,,,Yates Wine Lodge,Pub/bar/nightclub,7843,5,,16187,10,,51.31978500000000,05/21078/COMM,315,emma.bourne@woking.gov.uk,Woking,http://www.woking.gov.uk,-0.55651400000000,GU21 6HX,2014-07-08,fhrs_3_en-GB,3,,FHRS,10
272696,Ye Olde Fish Market 9 Guildford Road Woking Surrey,,,,Ye Olde Fishmarket,Restaurant/Cafe/Canteen,1,5,,47513,0,,51.31644300000000,11/00141/COMM,315,emma.bourne@woking.gov.uk,Woking,http://www.woking.gov.uk,-0.55970400000000,GU22 7PX,2013-05-15,fhrs_5_en-GB,5,,FHRS,0
272697,1 York Road Woking Surrey,,,,York Road Project,Hotel/bed & breakfast/guest house,7842,5,,2803,5,,51.31456300000000,01/08370/COMM,315,emma.bourne@woking.gov.uk,Woking,http://www.woking.gov.uk,-0.56256100000000,GU22 7XH,2014-09-16,fhrs_5_en-GB,5,,FHRS,5
272698,,,,,You Bake Me Crazy,Other catering premises,7841,0,,47243,0,,,11/00117/COMM,315,emma.bourne@woking.gov.uk,Woking,http://www.woking.gov.uk,,,2014-08-12,fhrs_5_en-GB,5,,FHRS,0
272699,Young Explorers Pre School St Francis Annexe St Dunstans Roman Catholic Primary School Onslow Crescent Woking Surrey,,,,Young Explorers Pre School Ltd,School/college/university,7845,0,,480645,0,,51.31991300000000,12/00088/COMM,315,emma.bourne@woking.gov.uk,Woking,http://www.woking.gov.uk,-0.54652200000000,GU22 7AX,2012-11-07,fhrs_5_en-GB,5,,FHRS,0
272700,Horsell Scouts And Guides 121 High Street Horsell Woking Surrey,,,,Young World Pre-school,Other catering premises,7841,,,582824,,,51.32400200000000,06/00036/COMM,315,emma.bourne@woking.gov.uk,Woking,http://www.woking.gov.uk,-0.57189600000000,GU21 4SS,2014-07-08,fhrs_exempt_en-GB,Exempt,,FHRS,
272701,103 High Road Byfleet West Byfleet Surrey,,,,Your Local Boots Pharmacy,Retailers - other,4613,,,582819,,,51.33881500000000,05/34608/COMM,315,emma.bourne@woking.gov.uk,Woking,http://www.woking.gov.uk,-0.47366800000000,KT14 7QX,2014-02-05,fhrs_exempt_en-GB,Exempt,,FHRS,
272702,11 - 13 Broadway Knaphill Woking Surrey,,,,Your Local Boots Pharmacy,Retailers - other,4613,0,,16106,0,,51.31753900000000,05/13296/COMM,315,emma.bourne@woking.gov.uk,Woking,http://www.woking.gov.uk,-0.61783000000000,GU21 2DR,2011-10-14,fhrs_5_en-GB,5,,FHRS,0
272703,33 - 34 Guildford Road Woking Surrey,,,,Your Local Boots Pharmacy,Retailers - other,4613,,,582828,,,51.31507300000000,08/00033/COMM,315,emma.bourne@woking.gov.uk,Woking,http://www.woking.gov.uk,-0.56022100000000,GU22 7QQ,2011-11-28,fhrs_exempt_en-GB,Exempt,,FHRS,
272704,Unit 8 Goldsworth Park Centre Woking Surrey,,,,Your Local Boots Pharmacy,Retailers - other,4613,,,582814,,,51.31885300000000,05/20039/COMM,315,emma.bourne@woking.gov.uk,Woking,http://www.woking.gov.uk,-0.59072600000000,GU21 3LG,2013-03-22,fhrs_exempt_en-GB,Exempt,,FHRS,
272705,York House Medical Centre 7 Heathside Road Woking Surrey,,,,Your Local Boots Pharmacy,Retailers - other,4613,,,582802,,,51.31547100000000,03/08445/COMM,315,emma.bourne@woking.gov.uk,Woking,http://www.woking.gov.uk,-0.55600400000000,GU22 7XL,2014-01-13,fhrs_exempt_en-GB,Exempt,,FHRS,
272706,10 Creswell Corner Anchor Hill Knaphill Woking Surrey,,,,Your Local Store,Retailers - other,4613,,,631210,,,51.32090300000000,14/00004/COMM,315,emma.bourne@woking.gov.uk,Woking,http://www.woking.gov.uk,-0.61262000000000,GU21 2JD,2014-01-23,fhrs_exempt_en-GB,Exempt,,FHRS,
272707,The YPod Centre Chobham Road Woking Surrey,,,,YPod Centre Woking YMCA,Restaurant/Cafe/Canteen,1,,,582882,,,51.32106700000000,13/00035/COMM,315,emma.bourne@woking.gov.uk,Woking,http://www.woking.gov.uk,-0.55770800000000,GU21 6JD,2013-02-25,fhrs_exempt_en-GB,Exempt,,FHRS,
272708,Phillips Court 32 Goldsworth Road Woking Surrey,,,,Yum Restaurants  International,Other catering premises,7841,0,,534909,0,,51.31716400000000,05/18343/COMM,315,emma.bourne@woking.gov.uk,Woking,http://www.woking.gov.uk,-0.56202100000000,GU21 6JT,2013-03-25,fhrs_5_en-GB,5,,FHRS,0
272709,,,,,Yummy Kubes,Other catering premises,7841,5,,607992,5,,,13/00091/COMM,315,emma.bourne@woking.gov.uk,Woking,http://www.woking.gov.uk,,,2013-10-09,fhrs_5_en-GB,5,,FHRS,5
272710,Unit 50d Upper Concourse  Peacocks Centre Victoria Way Woking Surrey,,,,Zest Juice Ltd,Takeaway/sandwich shop,7844,0,,17527,0,,51.31985100000000,06/00006/COMM,315,emma.bourne@woking.gov.uk,Woking,http://www.woking.gov.uk,-0.56186500000000,GU21 6GB,2012-12-13,fhrs_5_en-GB,5,,FHRS,0
272711,58 Goldsworth Road Woking Surrey,,,,Zizzi,Restaurant/Cafe/Canteen,1,0,,21636,0,,51.31704000000000,07/00046/COMM,315,emma.bourne@woking.gov.uk,Woking,http://www.woking.gov.uk,-0.56512400000000,GU21 6LQ,2014-07-18,fhrs_5_en-GB,5,,FHRS,0
