,addressline1,addressline2,addressline3,addressline4,businessname,businesstype,businesstypeid,confidenceinmanagement,extractdate,fhrsid,hygiene,itemcount,latitude,localauthoritybusinessid,localauthoritycode,localauthorityemailaddress,localauthorityname,localauthoritywebsite,longitude,postcode,ratingdate,ratingkey,ratingvalue,returncode,schemetype,structural
338280,,8 Raven Way,,Nuneaton,3 J's,Takeaway/sandwich shop,7844,5,,429154,5,,52.51438800000000,46575,318,carl.jacobs@nuneatonandbedworth.gov.uk,Nuneaton and Bedworth,http://www.nuneatonandbedworth.gov.uk,-1.44504000000000,CV11 6SG,2014-12-23,fhrs_5_en-GB,5,,FHRS,5
338281,,22 Queens Road,,Nuneaton,99p Stores Ltd.,Retailers - supermarkets/hypermarkets,7840,0,,460350,5,,,45287,318,carl.jacobs@nuneatonandbedworth.gov.uk,Nuneaton and Bedworth,http://www.nuneatonandbedworth.gov.uk,,CV11 5JP,2014-07-21,fhrs_4_en-GB,4,,FHRS,10
338282,,241 College Street,,Nuneaton,A & A Off licence,Retailers - other,4613,10,,429177,10,,52.51031900000000,60881,318,carl.jacobs@nuneatonandbedworth.gov.uk,Nuneaton and Bedworth,http://www.nuneatonandbedworth.gov.uk,-1.46928600000000,CV10 7BL,2014-08-21,fhrs_4_en-GB,4,,FHRS,0
338283,,58 Nuneaton Road,,Bedworth,A A Days Newsagents,Retailers - other,4613,5,,460359,0,,52.48901400000000,47719,318,carl.jacobs@nuneatonandbedworth.gov.uk,Nuneaton and Bedworth,http://www.nuneatonandbedworth.gov.uk,-1.47365100000000,CV12 8AR,2012-09-04,fhrs_4_en-GB,4,,FHRS,10
338284,,,,,A Bit O'Lemon Cake Company,Retailers - other,4613,0,,572061,0,,,98437,318,carl.jacobs@nuneatonandbedworth.gov.uk,Nuneaton and Bedworth,http://www.nuneatonandbedworth.gov.uk,,,2013-05-20,fhrs_5_en-GB,5,,FHRS,0
338285,,,,,A K Curry's,Mobile caterer,7846,5,,657426,5,,,99398,318,carl.jacobs@nuneatonandbedworth.gov.uk,Nuneaton and Bedworth,http://www.nuneatonandbedworth.gov.uk,,,2014-04-16,fhrs_5_en-GB,5,,FHRS,5
338286,,Whitacre Road,,Nuneaton,A.B. Catering,Mobile caterer,7846,5,,362195,5,,52.52314000000000,60888,318,carl.jacobs@nuneatonandbedworth.gov.uk,Nuneaton and Bedworth,http://www.nuneatonandbedworth.gov.uk,-1.45222000000000,,2013-10-08,fhrs_4_en-GB,4,,FHRS,10
338287,,Weddington Road,,Nuneaton,Abacus Day Nursery,Hospitals/Childcare/Caring Premises,5,0,,362197,0,,52.53246300000000,61045,318,carl.jacobs@nuneatonandbedworth.gov.uk,Nuneaton and Bedworth,http://www.nuneatonandbedworth.gov.uk,-1.46559900000000,CV10 0EQ,2013-08-28,fhrs_5_en-GB,5,,FHRS,0
338288,,100 Manor Court Road,,Nuneaton,Abbey Grange Hotel,Hotel/bed & breakfast/guest house,7842,10,,235113,0,,52.52427200000000,45057,318,carl.jacobs@nuneatonandbedworth.gov.uk,Nuneaton and Bedworth,http://www.nuneatonandbedworth.gov.uk,-1.47953800000000,CV11 5HQ,2014-12-12,fhrs_4_en-GB,4,,FHRS,5
338289,,Abbey Street,,Nuneaton,Abbey Grill Mobile,Mobile caterer,7846,0,,429178,10,,52.52433100000000,60900,318,carl.jacobs@nuneatonandbedworth.gov.uk,Nuneaton and Bedworth,http://www.nuneatonandbedworth.gov.uk,-1.47159500000000,,2014-07-23,fhrs_4_en-GB,4,,FHRS,10
338290,,Aston Road,,Nuneaton,Abbey Infant School,School/college/university,7845,0,,235287,10,,52.52849400000000,44355,318,carl.jacobs@nuneatonandbedworth.gov.uk,Nuneaton and Bedworth,http://www.nuneatonandbedworth.gov.uk,-1.47459400000000,CV11 5EL,2014-01-29,fhrs_4_en-GB,4,,FHRS,5
338291,Abbey C Of E Junior And Infant School,Aston Road,,Nuneaton,Abbeyfields Nursery and Out of School Care,Hospitals/Childcare/Caring Premises,5,5,,451638,5,,52.52849400000000,64252,318,carl.jacobs@nuneatonandbedworth.gov.uk,Nuneaton and Bedworth,http://www.nuneatonandbedworth.gov.uk,-1.47459400000000,CV11 5EL,2013-09-04,fhrs_5_en-GB,5,,FHRS,0
338292,,196-198 Church Road,,Nuneaton,Aberglynmarch Guest House,Hotel/bed & breakfast/guest house,7842,0,,565644,0,,52.52209600000000,49109,318,carl.jacobs@nuneatonandbedworth.gov.uk,Nuneaton and Bedworth,http://www.nuneatonandbedworth.gov.uk,-1.50876000000000,CV10 8LH,2013-06-17,fhrs_5_en-GB,5,,FHRS,0
338293,Acorn Lodge,132 Coventry Road,,Nuneaton,Acorn Lodge,Hospitals/Childcare/Caring Premises,5,0,,444558,5,,52.50839100000000,48101,318,carl.jacobs@nuneatonandbedworth.gov.uk,Nuneaton and Bedworth,http://www.nuneatonandbedworth.gov.uk,-1.46821800000000,CV10 7AD,2013-08-28,fhrs_5_en-GB,5,,FHRS,0
338294,Allambie Court,55 Hinckley Road,,Nuneaton,ADL Plc,Hospitals/Childcare/Caring Premises,5,5,,235274,5,,52.52770200000000,32270,318,carl.jacobs@nuneatonandbedworth.gov.uk,Nuneaton and Bedworth,http://www.nuneatonandbedworth.gov.uk,-1.45455700000000,CV11 6LG,2014-04-02,fhrs_4_en-GB,4,,FHRS,10
338295,,12 Abbey Green,,Nuneaton,Agra Palace,Restaurant/Cafe/Canteen,1,0,,235339,5,,52.52720200000000,44237,318,carl.jacobs@nuneatonandbedworth.gov.uk,Nuneaton and Bedworth,http://www.nuneatonandbedworth.gov.uk,-1.47514000000000,CV11 5DR,2013-08-29,fhrs_5_en-GB,5,,FHRS,5
338296,,86 Coventry Road,,Exhall,AJL Traders Ltd,Retailers - other,4613,10,,235307,10,,52.46474700000000,11038,318,carl.jacobs@nuneatonandbedworth.gov.uk,Nuneaton and Bedworth,http://www.nuneatonandbedworth.gov.uk,-1.48308100000000,CV7 9EU,2014-01-28,fhrs_2_en-GB,2,,FHRS,15
338297,Aldersgate,Rose Lane,,Nuneaton,Aldersgate Bistro,Hospitals/Childcare/Caring Premises,5,5,,235281,5,,,51151,318,carl.jacobs@nuneatonandbedworth.gov.uk,Nuneaton and Bedworth,http://www.nuneatonandbedworth.gov.uk,,,2014-08-29,fhrs_5_en-GB,5,,FHRS,5
338298,,Mill Street,,Bedworth,Aldi,Retailers - supermarkets/hypermarkets,7840,5,,582734,0,,52.48043300000000,46391,318,carl.jacobs@nuneatonandbedworth.gov.uk,Nuneaton and Bedworth,http://www.nuneatonandbedworth.gov.uk,-1.47465100000000,CV12 8JX,2013-08-13,fhrs_5_en-GB,5,,FHRS,5
338299,Aldi Foodstore Ltd,Kingswood Road,,Nuneaton,Aldi,Retailers - supermarkets/hypermarkets,7840,0,,429174,0,,52.52198000000000,60063,318,carl.jacobs@nuneatonandbedworth.gov.uk,Nuneaton and Bedworth,http://www.nuneatonandbedworth.gov.uk,-1.51340400000000,CV10 8QY,2014-08-29,fhrs_5_en-GB,5,,FHRS,5
338300,The Priors,Off Mitchell Road,,Bedworth,All Saints C of E Infant School & Nursery,School/college/university,7845,0,,235367,0,,52.47658700000000,49056,318,carl.jacobs@nuneatonandbedworth.gov.uk,Nuneaton and Bedworth,http://www.nuneatonandbedworth.gov.uk,-1.46493600000000,CV12 9HP,2014-06-02,fhrs_5_en-GB,5,,FHRS,5
338301,All Saints C Of E Primary School,Knebley Crescent,,Nuneaton,All Saints CE Primary  School & Nursery,School/college/university,7845,0,,235213,0,,52.50846900000000,45015,318,carl.jacobs@nuneatonandbedworth.gov.uk,Nuneaton and Bedworth,http://www.nuneatonandbedworth.gov.uk,-1.46574200000000,CV10 7AT,2014-05-01,fhrs_5_en-GB,5,,FHRS,5
338302,Alties,Newtown Road,,Bedworth,Alties,Pub/bar/nightclub,7843,5,,235333,5,,52.47943200000000,46428,318,carl.jacobs@nuneatonandbedworth.gov.uk,Nuneaton and Bedworth,http://www.nuneatonandbedworth.gov.uk,-1.48192200000000,CV12 8QP,2014-01-03,fhrs_4_en-GB,4,,FHRS,10
338303,,1b Stratford Street,,Nuneaton,Amalfi Pizza,Takeaway/sandwich shop,7844,,,362199,,,52.52315600000000,62481,318,carl.jacobs@nuneatonandbedworth.gov.uk,Nuneaton and Bedworth,http://www.nuneatonandbedworth.gov.uk,-1.46913100000000,CV11 5BS,2014-05-02,fhrs_5_en-GB,5,,FHRS,
338304,,Griff Way,,Nuneaton,Amid Palace,Restaurant/Cafe/Canteen,1,20,,235127,15,,52.50853000000000,47616,318,carl.jacobs@nuneatonandbedworth.gov.uk,Nuneaton and Bedworth,http://www.nuneatonandbedworth.gov.uk,-1.47518600000000,CV10 7DA,2015-01-15,fhrs_1_en-GB,1,,FHRS,15
338305,Bermuda Innovation Centre,St Davids Way,,Nuneaton,Amy's Snack Van,Mobile caterer,7846,10,,718052,10,,52.49628700000000,99654,318,carl.jacobs@nuneatonandbedworth.gov.uk,Nuneaton and Bedworth,http://www.nuneatonandbedworth.gov.uk,-1.48166500000000,CV10 7SG,2014-10-15,fhrs_3_en-GB,3,,FHRS,5
338306,,,,,Andrew Mansfield,Mobile caterer,7846,10,,235282,5,,,34657,318,carl.jacobs@nuneatonandbedworth.gov.uk,Nuneaton and Bedworth,http://www.nuneatonandbedworth.gov.uk,,,2011-11-25,fhrs_3_en-GB,3,,FHRS,10
338307,,,,,Andy's Taste of the Caribbean,Mobile caterer,7846,5,,692007,5,,,172876,318,carl.jacobs@nuneatonandbedworth.gov.uk,Nuneaton and Bedworth,http://www.nuneatonandbedworth.gov.uk,,,2014-07-11,fhrs_4_en-GB,4,,FHRS,10
338308,Anker Service Station,Weddington Road,,Nuneaton,Anker Service Station,Retailers - other,4613,10,,451628,15,,52.52728600000000,45192,318,carl.jacobs@nuneatonandbedworth.gov.uk,Nuneaton and Bedworth,http://www.nuneatonandbedworth.gov.uk,-1.46197600000000,CV10 0AD,2014-03-13,fhrs_2_en-GB,2,,FHRS,15
338309,,48 Queens Road,,Nuneaton,Anthony's Cafe Bistro,Restaurant/Cafe/Canteen,1,,,235120,,,52.52242900000000,48056,318,carl.jacobs@nuneatonandbedworth.gov.uk,Nuneaton and Bedworth,http://www.nuneatonandbedworth.gov.uk,-1.47136500000000,CV11 5JX,2014-02-11,fhrs_5_en-GB,5,,FHRS,
338310,,62 Arbury Road,,Stockingford,Arbury Balti,Takeaway/sandwich shop,7844,10,,451632,5,,52.51531400000000,47278,318,carl.jacobs@nuneatonandbedworth.gov.uk,Nuneaton and Bedworth,http://www.nuneatonandbedworth.gov.uk,-1.49725300000000,CV10 7NA,2014-04-17,fhrs_4_en-GB,4,,FHRS,5
338311,Arbury Hall,,,Nuneaton,Arbury Hall Tea Rooms,Restaurant/Cafe/Canteen,1,5,,235133,5,,52.50085900000000,21578,318,carl.jacobs@nuneatonandbedworth.gov.uk,Nuneaton and Bedworth,http://www.nuneatonandbedworth.gov.uk,-1.50823100000000,CV10 7PT,2013-08-07,fhrs_5_en-GB,5,,FHRS,5
338312,,214 Arbury Road,,Stockingford,Arbury News & Off Licence,Retailers - other,4613,0,,429160,5,,52.51533700000000,47417,318,carl.jacobs@nuneatonandbedworth.gov.uk,Nuneaton and Bedworth,http://www.nuneatonandbedworth.gov.uk,-1.50283800000000,CV10 7ND,2013-07-03,fhrs_4_en-GB,4,,FHRS,10
338313,,Weston Lane,,Bulkington,Arden Forest Infant School,School/college/university,7845,0,,235327,0,,52.48075800000000,46546,318,carl.jacobs@nuneatonandbedworth.gov.uk,Nuneaton and Bedworth,http://www.nuneatonandbedworth.gov.uk,-1.43206400000000,CV12 9RT,2013-11-20,fhrs_5_en-GB,5,,FHRS,5
338314,Asda Superstore,Newtown Road,,Nuneaton,Asda,Retailers - supermarkets/hypermarkets,7840,0,,362158,5,,52.52695700000000,45170,318,carl.jacobs@nuneatonandbedworth.gov.uk,Nuneaton and Bedworth,http://www.nuneatonandbedworth.gov.uk,-1.46659400000000,CV11 4FL,2014-12-12,fhrs_4_en-GB,4,,FHRS,10
338315,Ash Green School,Ash Green Lane,,Ash Green,Ash Green Academy,School/college/university,7845,0,,235152,5,,52.46177500000000,46542,318,carl.jacobs@nuneatonandbedworth.gov.uk,Nuneaton and Bedworth,http://www.nuneatonandbedworth.gov.uk,-1.50932900000000,CV7 9AH,2013-04-23,fhrs_5_en-GB,5,,FHRS,5
338316,Bramcote Hospital,Lutterworth Road,,Nuneaton,Ashby House,Hospitals/Childcare/Caring Premises,5,5,,589172,5,,52.49999000000000,89696,318,carl.jacobs@nuneatonandbedworth.gov.uk,Nuneaton and Bedworth,http://www.nuneatonandbedworth.gov.uk,-1.41586300000000,CV11 6QL,2013-09-17,fhrs_5_en-GB,5,,FHRS,5
338317,,Regent Street,,Nuneaton,Atack Snooker Club,Pub/bar/nightclub,7843,0,,460352,5,,52.52440300000000,45396,318,carl.jacobs@nuneatonandbedworth.gov.uk,Nuneaton and Bedworth,http://www.nuneatonandbedworth.gov.uk,-1.46243900000000,CV11 4BL,2014-03-20,fhrs_4_en-GB,4,,FHRS,10
338318,,Highfield Road,,Nuneaton,Attleborough Arms,Pub/bar/nightclub,7843,0,,235111,0,,52.51531900000000,44965,318,carl.jacobs@nuneatonandbedworth.gov.uk,Nuneaton and Bedworth,http://www.nuneatonandbedworth.gov.uk,-1.45565300000000,CV11 4PL,2014-12-09,fhrs_5_en-GB,5,,FHRS,5
338319,Attleborough Grange,Attleborough Road,,Nuneaton,Attleborough Grange,Hospitals/Childcare/Caring Premises,5,5,,235142,0,,52.51416100000000,44385,318,carl.jacobs@nuneatonandbedworth.gov.uk,Nuneaton and Bedworth,http://www.nuneatonandbedworth.gov.uk,-1.45812900000000,CV11 4JN,2014-11-12,fhrs_4_en-GB,4,,FHRS,10
338320,,7 The Square,,Nuneaton,Attleborough Newsagent,Retailers - other,4613,5,,535050,10,,52.51327900000000,45515,318,carl.jacobs@nuneatonandbedworth.gov.uk,Nuneaton and Bedworth,http://www.nuneatonandbedworth.gov.uk,-1.45585500000000,CV11 4JY,2013-03-13,fhrs_3_en-GB,3,,FHRS,10
338321,,57 Highfield Road,,Nuneaton,Attleborough Snooker Club,Pub/bar/nightclub,7843,5,,235283,0,,52.51483400000000,61017,318,carl.jacobs@nuneatonandbedworth.gov.uk,Nuneaton and Bedworth,http://www.nuneatonandbedworth.gov.uk,-1.45577700000000,CV11 4PW,2013-09-20,fhrs_5_en-GB,5,,FHRS,5
338322,Attleborough Sports Club,Marston Lane,,Nuneaton,Attleborough Sports Club,Pub/bar/nightclub,7843,5,,510295,0,,52.51094100000000,45106,318,carl.jacobs@nuneatonandbedworth.gov.uk,Nuneaton and Bedworth,http://www.nuneatonandbedworth.gov.uk,-1.45382100000000,CV11 4RD,2012-12-21,fhrs_5_en-GB,5,,FHRS,5
338323,,1 Ivanhoe Avenue,,Nuneaton,Attleborough Stores,Retailers - other,4613,5,,572055,0,,52.51009700000000,47477,318,carl.jacobs@nuneatonandbedworth.gov.uk,Nuneaton and Bedworth,http://www.nuneatonandbedworth.gov.uk,-1.45013400000000,CV11 4RW,2013-07-15,fhrs_4_en-GB,4,,FHRS,10
338324,,13 Mill Street,,Bedworth,Aucott Butchers,Retailers - other,4613,5,,235234,5,,52.48043300000000,46375,318,carl.jacobs@nuneatonandbedworth.gov.uk,Nuneaton and Bedworth,http://www.nuneatonandbedworth.gov.uk,-1.47465100000000,CV12 8JX,2013-06-04,fhrs_5_en-GB,5,,FHRS,5
338325,,2 Woodlands Road,,Bedworth,B & P Drinks,Retailers - other,4613,0,,718046,0,,52.48000400000000,47612,318,carl.jacobs@nuneatonandbedworth.gov.uk,Nuneaton and Bedworth,http://www.nuneatonandbedworth.gov.uk,-1.48957200000000,CV12 0AA,2014-09-25,fhrs_4_en-GB,4,,FHRS,10
338326,,,,,Bakescakes,Retailers - other,4613,5,,683294,0,,,172826,318,carl.jacobs@nuneatonandbedworth.gov.uk,Nuneaton and Bedworth,http://www.nuneatonandbedworth.gov.uk,,,2014-05-07,fhrs_5_en-GB,5,,FHRS,0
338327,St Francis Rc Primary School,Rye Piece Ringway,,Bedworth,Bambini Nursery,Hospitals/Childcare/Caring Premises,5,5,,429187,5,,52.48265700000000,64275,318,carl.jacobs@nuneatonandbedworth.gov.uk,Nuneaton and Bedworth,http://www.nuneatonandbedworth.gov.uk,-1.47126800000000,CV12 8JN,2014-12-11,fhrs_4_en-GB,4,,FHRS,10
338328,,211 Edward Street,,Nuneaton,Barkat Halal Butchers,Retailers - other,4613,10,,235325,10,,52.51671100000000,47287,318,carl.jacobs@nuneatonandbedworth.gov.uk,Nuneaton and Bedworth,http://www.nuneatonandbedworth.gov.uk,-1.46923800000000,CV11 5RP,2013-02-01,fhrs_3_en-GB,3,,FHRS,10
338329,Unit 12,Bayton Road,,Exhall,Bayton Batch Bar,Mobile caterer,7846,,,362198,,,52.46306600000000,62478,318,carl.jacobs@nuneatonandbedworth.gov.uk,Nuneaton and Bedworth,http://www.nuneatonandbedworth.gov.uk,-1.48118700000000,CV7 9DJ,2014-12-04,fhrs_5_en-GB,5,,FHRS,
338330,,10 Coventry Road,,Bedworth,Bedworth Conservative Club,Pub/bar/nightclub,7843,5,,499712,5,,52.47674000000000,46071,318,carl.jacobs@nuneatonandbedworth.gov.uk,Nuneaton and Bedworth,http://www.nuneatonandbedworth.gov.uk,-1.47289900000000,CV12 8NN,2013-01-08,fhrs_4_en-GB,4,,FHRS,10
338331,,Rye Piece Ringway,,Bedworth,Bedworth Ex Servicemens Club,Pub/bar/nightclub,7843,0,,235168,0,,52.47838700000000,47385,318,carl.jacobs@nuneatonandbedworth.gov.uk,Nuneaton and Bedworth,http://www.nuneatonandbedworth.gov.uk,-1.46944900000000,CV12 8JH,2013-06-07,fhrs_4_en-GB,4,,FHRS,10
338332,,56-58 Bulkington Road,,Bedworth,Bedworth Fish Bar,Takeaway/sandwich shop,7844,5,,235167,5,,52.47893400000000,47537,318,carl.jacobs@nuneatonandbedworth.gov.uk,Nuneaton and Bedworth,http://www.nuneatonandbedworth.gov.uk,-1.46315500000000,CV12 9DR,2014-06-03,fhrs_5_en-GB,5,,FHRS,5
338333,,235 Goodyers End Lane,,Bedworth,Bedworth Food & Wine,Retailers - other,4613,0,,718044,5,,52.46831000000000,47556,318,carl.jacobs@nuneatonandbedworth.gov.uk,Nuneaton and Bedworth,http://www.nuneatonandbedworth.gov.uk,-1.50697400000000,CV12 0HX,2014-10-13,fhrs_4_en-GB,4,,FHRS,10
338334,Bedworth Leisure Centre,Coventry Road,,Bedworth,Bedworth Leisure Centre Cafe,Restaurant/Cafe/Canteen,1,10,,235248,5,,52.47674000000000,60450,318,carl.jacobs@nuneatonandbedworth.gov.uk,Nuneaton and Bedworth,http://www.nuneatonandbedworth.gov.uk,-1.47289900000000,CV12 8NN,2014-05-12,fhrs_4_en-GB,4,,FHRS,5
338335,Bedworth Liberal Club,22 King Street,,Bedworth,Bedworth Liberal Club,Pub/bar/nightclub,7843,0,,235186,5,,52.47962900000000,47319,318,carl.jacobs@nuneatonandbedworth.gov.uk,Nuneaton and Bedworth,http://www.nuneatonandbedworth.gov.uk,-1.47176000000000,CV12 8HT,2014-06-10,fhrs_4_en-GB,4,,FHRS,10
338336,,9 Congreve Walk,,Bedworth,Bedworth Meat Centre,Retailers - other,4613,5,,235334,10,,52.47964600000000,46060,318,carl.jacobs@nuneatonandbedworth.gov.uk,Nuneaton and Bedworth,http://www.nuneatonandbedworth.gov.uk,-1.47346800000000,CV12 8LX,2014-09-16,fhrs_3_en-GB,3,,FHRS,10
338337,Bedworth Rugby Football Club,Smarts Road,,Bedworth,Bedworth Rugby Football Club,Pub/bar/nightclub,7843,10,,551781,15,,52.47160600000000,46513,318,carl.jacobs@nuneatonandbedworth.gov.uk,Nuneaton and Bedworth,http://www.nuneatonandbedworth.gov.uk,-1.49140600000000,CV12 0BP,2014-10-04,fhrs_2_en-GB,2,,FHRS,15
338338,Bedworth United Football Club,Coventry Road,,Bedworth,Bedworth United Football Club,Pub/bar/nightclub,7843,10,,551778,15,,52.47674000000000,46082,318,carl.jacobs@nuneatonandbedworth.gov.uk,Nuneaton and Bedworth,http://www.nuneatonandbedworth.gov.uk,-1.47289900000000,CV12 8NN,2014-10-04,fhrs_2_en-GB,2,,FHRS,15
338339,Bentley Road Sports Club,Bentley Road,,Nuneaton,Bentley Road Sports Club,Pub/bar/nightclub,7843,5,,460345,0,,52.52175700000000,44400,318,carl.jacobs@nuneatonandbedworth.gov.uk,Nuneaton and Bedworth,http://www.nuneatonandbedworth.gov.uk,-1.48008400000000,CV11 5LR,2012-09-28,fhrs_4_en-GB,4,,FHRS,10
338340,Benvarden,110 Ash Green Lane,,Ash Green,Benvarden,Hospitals/Childcare/Caring Premises,5,5,,451629,5,,52.45929400000000,45774,318,carl.jacobs@nuneatonandbedworth.gov.uk,Nuneaton and Bedworth,http://www.nuneatonandbedworth.gov.uk,-1.50735500000000,CV7 9AJ,2014-03-19,fhrs_5_en-GB,5,,FHRS,5
338341,Bermuda Adventure & Soft Play World and Nursery,St Davids Way,,Nuneaton,Bermuda Adventure & Soft Play World and Nursery,Restaurant/Cafe/Canteen,1,10,,718033,5,,,172912,318,carl.jacobs@nuneatonandbedworth.gov.uk,Nuneaton and Bedworth,http://www.nuneatonandbedworth.gov.uk,,,2014-09-23,fhrs_4_en-GB,4,,FHRS,5
338342,,,,,Bermuda Grill  (Mobile),Mobile caterer,7846,0,,460376,5,,,96922,318,carl.jacobs@nuneatonandbedworth.gov.uk,Nuneaton and Bedworth,http://www.nuneatonandbedworth.gov.uk,,,2012-06-12,fhrs_5_en-GB,5,,FHRS,0
338343,Bermuda Park,St Davids Way,,Nuneaton,Bermuda Park,Pub/bar/nightclub,7843,5,,235144,0,,52.49752700000000,61198,318,carl.jacobs@nuneatonandbedworth.gov.uk,Nuneaton and Bedworth,http://www.nuneatonandbedworth.gov.uk,-1.48374200000000,CV10 7SE,2013-02-27,fhrs_4_en-GB,4,,FHRS,10
338344,,St Davids Way,,Nuneaton,Bermuda Park Nursery,Hospitals/Childcare/Caring Premises,5,0,,708354,5,,52.49688600000000,173167,318,carl.jacobs@nuneatonandbedworth.gov.uk,Nuneaton and Bedworth,http://www.nuneatonandbedworth.gov.uk,-1.47681200000000,CV10 7SD,2014-09-23,fhrs_5_en-GB,5,,FHRS,5
338345,Bermuda Community Centre,Bermuda Road,,Nuneaton,Bermuda Phoenix Centre,Restaurant/Cafe/Canteen,1,5,,683301,5,,52.51018200000000,98620,318,carl.jacobs@nuneatonandbedworth.gov.uk,Nuneaton and Bedworth,http://www.nuneatonandbedworth.gov.uk,-1.48285800000000,CV10 7HU,2014-07-04,fhrs_4_en-GB,4,,FHRS,10
338346,Bestway Cash And Carry Ltd,Walsingham Drive,,Nuneaton,Bestway Cash & Carry,Retailers - other,4613,0,,451637,0,,52.49889000000000,61924,318,carl.jacobs@nuneatonandbedworth.gov.uk,Nuneaton and Bedworth,http://www.nuneatonandbedworth.gov.uk,-1.48067700000000,CV10 7RG,2012-09-20,fhrs_5_en-GB,5,,FHRS,0
338347,Supermarket,Midland Road,,Nuneaton,Bill's Supermarket Ltd,Retailers - supermarkets/hypermarkets,7840,5,,629810,0,,52.52845900000000,45120,318,carl.jacobs@nuneatonandbedworth.gov.uk,Nuneaton and Bedworth,http://www.nuneatonandbedworth.gov.uk,-1.47693800000000,CV11 5DZ,2013-02-06,fhrs_5_en-GB,5,,FHRS,5
338348,Black Horse,Coventry Road,,Exhall,Black Horse Inn,Pub/bar/nightclub,7843,10,,572056,10,,52.46139400000000,47550,318,carl.jacobs@nuneatonandbedworth.gov.uk,Nuneaton and Bedworth,http://www.nuneatonandbedworth.gov.uk,-1.48319400000000,CV7 9FU,2014-05-21,fhrs_2_en-GB,2,,FHRS,15
338349,,161 Blackhorse Road,,Longford,Blackhorse Convenience Store,Retailers - other,4613,0,,551782,10,,52.45842100000000,47536,318,carl.jacobs@nuneatonandbedworth.gov.uk,Nuneaton and Bedworth,http://www.nuneatonandbedworth.gov.uk,-1.47164600000000,CV6 6DG,2013-04-30,fhrs_2_en-GB,2,,FHRS,15
338350,,Harrington Way,,Nuneaton,Blazing Buns,Mobile caterer,7846,5,,429183,5,,52.49961200000000,63659,318,carl.jacobs@nuneatonandbedworth.gov.uk,Nuneaton and Bedworth,http://www.nuneatonandbedworth.gov.uk,-1.48092300000000,,2014-03-04,fhrs_4_en-GB,4,,FHRS,10
338351,Kingsway House,King Street,,Bedworth,Bombay Mix,Takeaway/sandwich shop,7844,5,,235256,10,,52.47933800000000,50399,318,carl.jacobs@nuneatonandbedworth.gov.uk,Nuneaton and Bedworth,http://www.nuneatonandbedworth.gov.uk,-1.47085100000000,CV12 8HY,2014-12-09,fhrs_4_en-GB,4,,FHRS,5
338352,,88 Marston Lane,,Bedworth,Booze Zone,Retailers - other,4613,10,,551785,15,,52.48706700000000,49053,318,carl.jacobs@nuneatonandbedworth.gov.uk,Nuneaton and Bedworth,http://www.nuneatonandbedworth.gov.uk,-1.47047800000000,CV12 8DJ,2013-05-10,fhrs_2_en-GB,2,,FHRS,5
338353,,1 Harefield Road,,Nuneaton,Bostocks,Retailers - other,4613,5,,235363,5,,52.52374100000000,44870,318,carl.jacobs@nuneatonandbedworth.gov.uk,Nuneaton and Bedworth,http://www.nuneatonandbedworth.gov.uk,-1.46713400000000,CV11 4HA,2013-12-05,fhrs_5_en-GB,5,,FHRS,5
338354,Street Record,Brindley Road,,Exhall,Brindley Road Batch Bar,Mobile caterer,7846,10,,683293,5,,,172815,318,carl.jacobs@nuneatonandbedworth.gov.uk,Nuneaton and Bedworth,http://www.nuneatonandbedworth.gov.uk,,,2014-06-12,fhrs_4_en-GB,4,,FHRS,5
338355,"Unit 3, Rope Walk Shopping Centre",Chapel Street,,Nuneaton,British Home Stores,Restaurant/Cafe/Canteen,1,0,,362204,5,,52.52185500000000,72621,318,carl.jacobs@nuneatonandbedworth.gov.uk,Nuneaton and Bedworth,http://www.nuneatonandbedworth.gov.uk,-1.46960400000000,CV11 5TZ,2013-10-01,fhrs_5_en-GB,5,,FHRS,5
338356,,225 Bucks Hill,,Nuneaton,Brooklyn Private Day Nursery,Hospitals/Childcare/Caring Premises,5,5,,235345,0,,52.53340400000000,47281,318,carl.jacobs@nuneatonandbedworth.gov.uk,Nuneaton and Bedworth,http://www.nuneatonandbedworth.gov.uk,-1.51494400000000,CV10 9LE,2015-02-02,fhrs_5_en-GB,5,,FHRS,0
338357,,32 Leicester Street,,Bulkington,Bubblicious,Retailers - other,4613,5,,718041,5,,52.47601200000000,46322,318,carl.jacobs@nuneatonandbedworth.gov.uk,Nuneaton and Bedworth,http://www.nuneatonandbedworth.gov.uk,-1.42472000000000,CV12 9NG,2014-09-23,fhrs_4_en-GB,4,,FHRS,10
338358,,82 Bulkington Road,,Bedworth,Bulkington Food and Wine,Retailers - other,4613,5,,582735,0,,52.47893400000000,47369,318,carl.jacobs@nuneatonandbedworth.gov.uk,Nuneaton and Bedworth,http://www.nuneatonandbedworth.gov.uk,-1.46315500000000,CV12 9DR,2014-10-16,fhrs_4_en-GB,4,,FHRS,10
338359,,44 Leicester Street,,Bulkington,Bulkington Food and Wine,Retailers - other,4613,10,,235155,0,,52.47601200000000,46328,318,carl.jacobs@nuneatonandbedworth.gov.uk,Nuneaton and Bedworth,http://www.nuneatonandbedworth.gov.uk,-1.42472000000000,CV12 9NG,2014-01-17,fhrs_4_en-GB,4,,FHRS,10
338360,Bulkington Sports And Social Club,School Road,,Bulkington,Bulkington Sports & Soc. Club,Pub/bar/nightclub,7843,10,,429155,5,,52.47824000000000,46844,318,carl.jacobs@nuneatonandbedworth.gov.uk,Nuneaton and Bedworth,http://www.nuneatonandbedworth.gov.uk,-1.42620700000000,CV12 9PZ,2013-09-20,fhrs_3_en-GB,3,,FHRS,10
338361,Bulkington Village Centre,School Road,,Bulkington,Bulkington Village Centre,Other catering premises,7841,0,,535052,10,,52.47664400000000,61314,318,carl.jacobs@nuneatonandbedworth.gov.uk,Nuneaton and Bedworth,http://www.nuneatonandbedworth.gov.uk,-1.42335700000000,CV12 9JB,2014-11-13,fhrs_4_en-GB,4,,FHRS,5
338362,Bulkington Working Mens Club,Chequer Street,,Bulkington,Bulkington Working Mens Club & Institute,Pub/bar/nightclub,7843,10,,235359,5,,52.47537700000000,47314,318,carl.jacobs@nuneatonandbedworth.gov.uk,Nuneaton and Bedworth,http://www.nuneatonandbedworth.gov.uk,-1.42550800000000,CV12 9NH,2013-02-20,fhrs_3_en-GB,3,,FHRS,10
338363,,32 Queens Road,,Nuneaton,Bull & Young,Retailers - other,4613,5,,235140,5,,52.52240800000000,45297,318,carl.jacobs@nuneatonandbedworth.gov.uk,Nuneaton and Bedworth,http://www.nuneatonandbedworth.gov.uk,-1.47058400000000,CV11 5JU,2015-01-13,fhrs_5_en-GB,5,,FHRS,0
338364,Dunelm,Regent Street,,Nuneaton,Cafe Pausa,Restaurant/Cafe/Canteen,1,0,,429197,0,,52.52440300000000,96678,318,carl.jacobs@nuneatonandbedworth.gov.uk,Nuneaton and Bedworth,http://www.nuneatonandbedworth.gov.uk,-1.46243900000000,CV11 4BL,2013-11-13,fhrs_5_en-GB,5,,FHRS,5
338365,,2 Queens Road,,Nuneaton,Caffe Nero,Restaurant/Cafe/Canteen,1,0,,460348,0,,52.52246400000000,45264,318,carl.jacobs@nuneatonandbedworth.gov.uk,Nuneaton and Bedworth,http://www.nuneatonandbedworth.gov.uk,-1.46905100000000,CV11 5JW,2014-05-06,fhrs_5_en-GB,5,,FHRS,5
338366,,,,,Cakes by Claire,Retailers - other,4613,10,,362144,5,,,19144,318,carl.jacobs@nuneatonandbedworth.gov.uk,Nuneaton and Bedworth,http://www.nuneatonandbedworth.gov.uk,,,2012-05-08,fhrs_4_en-GB,4,,FHRS,5
338367,,Donnithorne Avenue,,Nuneaton,Caldwell Grange,Hospitals/Childcare/Caring Premises,5,0,,235169,5,,52.50986900000000,44710,318,carl.jacobs@nuneatonandbedworth.gov.uk,Nuneaton and Bedworth,http://www.nuneatonandbedworth.gov.uk,-1.45524900000000,CV11 4QJ,2014-12-08,fhrs_5_en-GB,5,,FHRS,5
338368,,195 Camp Hill Road,,Camp Hill,Camp Hill Food & Wine,Retailers - other,4613,5,,565638,10,,52.53630200000000,47441,318,carl.jacobs@nuneatonandbedworth.gov.uk,Nuneaton and Bedworth,http://www.nuneatonandbedworth.gov.uk,-1.51156500000000,CV10 0JR,2013-05-28,fhrs_3_en-GB,3,,FHRS,10
338369,Camp Hill Primary School,Hollystitches Road,,Nuneaton,Camp Hill Primary School,School/college/university,7845,0,,409187,0,,52.53186900000000,49127,318,carl.jacobs@nuneatonandbedworth.gov.uk,Nuneaton and Bedworth,http://www.nuneatonandbedworth.gov.uk,-1.49404200000000,CV10 9QA,2013-12-06,fhrs_5_en-GB,5,,FHRS,5
338370,,359 Camp Hill Road,,Camp Hill,Camp Hill Service Station,Retailers - other,4613,5,,235114,10,,52.53532200000000,44531,318,carl.jacobs@nuneatonandbedworth.gov.uk,Nuneaton and Bedworth,http://www.nuneatonandbedworth.gov.uk,-1.50062200000000,CV10 0JU,2013-02-12,fhrs_3_en-GB,3,,FHRS,10
338371,,50 Queen Elizabeth Road,,Nuneaton,Camphill Shopper,Retailers - other,4613,,,362161,,,52.53008200000000,45254,318,carl.jacobs@nuneatonandbedworth.gov.uk,Nuneaton and Bedworth,http://www.nuneatonandbedworth.gov.uk,-1.49242700000000,CV10 9AU,2014-11-28,fhrs_5_en-GB,5,,FHRS,
338372,,Derwent Road,,Bedworth,Canon Maggs C of E Junior School,School/college/university,7845,0,,429151,0,,52.47831400000000,46145,318,carl.jacobs@nuneatonandbedworth.gov.uk,Nuneaton and Bedworth,http://www.nuneatonandbedworth.gov.uk,-1.47918200000000,CV12 8RT,2013-12-04,fhrs_5_en-GB,5,,FHRS,5
338373,,4 Abbey Green,,Nuneaton,Casa Rica,Takeaway/sandwich shop,7844,10,,362145,5,,52.52720200000000,44233,318,carl.jacobs@nuneatonandbedworth.gov.uk,Nuneaton and Bedworth,http://www.nuneatonandbedworth.gov.uk,-1.47514000000000,CV11 5DR,2014-09-17,fhrs_3_en-GB,3,,FHRS,10
338374,12-13 Abbey Gate Shopping Precinct,Newdegate Street,,Nuneaton,Cassandras,Restaurant/Cafe/Canteen,1,10,,235177,5,,52.52378900000000,48700,318,carl.jacobs@nuneatonandbedworth.gov.uk,Nuneaton and Bedworth,http://www.nuneatonandbedworth.gov.uk,-1.46791500000000,CV11 4HL,2014-09-23,fhrs_2_en-GB,2,,FHRS,15
338375,R S Components Ltd,Walsingham Drive,,Nuneaton,Catermaster,Restaurant/Cafe/Canteen,1,0,,235258,5,,52.50094500000000,72020,318,carl.jacobs@nuneatonandbedworth.gov.uk,Nuneaton and Bedworth,http://www.nuneatonandbedworth.gov.uk,-1.48614800000000,CV10 7RS,2013-07-05,fhrs_5_en-GB,5,,FHRS,0
338376,,5 Queens Road,,Nuneaton,Caves,Retailers - other,4613,10,,460349,0,,52.52276900000000,45268,318,carl.jacobs@nuneatonandbedworth.gov.uk,Nuneaton and Bedworth,http://www.nuneatonandbedworth.gov.uk,-1.46890000000000,CV11 5JL,2014-08-22,fhrs_4_en-GB,4,,FHRS,10
338377,,Central Avenue,,Nuneaton,Central Avenue Service Station,Retailers - other,4613,10,,629821,5,,52.52715000000000,60938,318,carl.jacobs@nuneatonandbedworth.gov.uk,Nuneaton and Bedworth,http://www.nuneatonandbedworth.gov.uk,-1.47359300000000,CV11 5BD,2013-03-05,fhrs_3_en-GB,3,,FHRS,10
338378,Ashbrook Court,Central Boulevard,,Ash Green,CH&Co Catering Ltd,Restaurant/Cafe/Canteen,1,0,,510298,5,,52.45695900000000,74895,318,carl.jacobs@nuneatonandbedworth.gov.uk,Nuneaton and Bedworth,http://www.nuneatonandbedworth.gov.uk,-1.52998500000000,CV6 4QA,2014-08-19,fhrs_5_en-GB,5,,FHRS,5
338379,,78 Arbury Road,,Stockingford,Chadwick Fine Foods,Retailers - other,4613,5,,460356,5,,52.51531400000000,47374,318,carl.jacobs@nuneatonandbedworth.gov.uk,Nuneaton and Bedworth,http://www.nuneatonandbedworth.gov.uk,-1.49725300000000,CV10 7NA,2014-07-29,fhrs_5_en-GB,5,,FHRS,5
338380,Chamberlaine Court,Chapel Street,,Bedworth,Chamberlaine Court Care Home,Hospitals/Childcare/Caring Premises,5,5,,429150,5,,52.48146500000000,46009,318,carl.jacobs@nuneatonandbedworth.gov.uk,Nuneaton and Bedworth,http://www.nuneatonandbedworth.gov.uk,-1.47022200000000,CV12 8PT,2014-01-28,fhrs_5_en-GB,5,,FHRS,5
338381,,16 Abbey Green,,Nuneaton,Chang Jiang,Takeaway/sandwich shop,7844,5,,235264,10,,52.52720200000000,47679,318,carl.jacobs@nuneatonandbedworth.gov.uk,Nuneaton and Bedworth,http://www.nuneatonandbedworth.gov.uk,-1.47514000000000,CV11 5DR,2014-06-20,fhrs_4_en-GB,4,,FHRS,5
338382,,9 Midland Road,,Nuneaton,Chaplins,Takeaway/sandwich shop,7844,0,,235300,10,,52.52776900000000,47713,318,carl.jacobs@nuneatonandbedworth.gov.uk,Nuneaton and Bedworth,http://www.nuneatonandbedworth.gov.uk,-1.47545800000000,CV11 5DU,2013-08-28,fhrs_4_en-GB,4,,FHRS,10
338383,,,,,Charity Bake,Retailers - other,4613,5,,510293,0,,,43728,318,carl.jacobs@nuneatonandbedworth.gov.uk,Nuneaton and Bedworth,http://www.nuneatonandbedworth.gov.uk,,,2013-01-24,fhrs_5_en-GB,5,,FHRS,0
338384,,Mcdonnell Drive,,Exhall,Chasewood Lodge,Hospitals/Childcare/Caring Premises,5,5,,362192,5,,52.46013500000000,50601,318,carl.jacobs@nuneatonandbedworth.gov.uk,Nuneaton and Bedworth,http://www.nuneatonandbedworth.gov.uk,-1.48921300000000,CV7 9GA,2014-04-14,fhrs_4_en-GB,4,,FHRS,10
338385,,School Lane,,Exhall,Chasewood Residential Home,Hospitals/Childcare/Caring Premises,5,10,,362174,5,,52.46361000000000,46498,318,carl.jacobs@nuneatonandbedworth.gov.uk,Nuneaton and Bedworth,http://www.nuneatonandbedworth.gov.uk,-1.48415400000000,CV7 9GE,2014-04-15,fhrs_4_en-GB,4,,FHRS,5
338386,,Plough Hill Road,,Nuneaton,Cheeky Monkeys Day Nursery,Hospitals/Childcare/Caring Premises,5,5,,429199,10,,52.53060300000000,96958,318,carl.jacobs@nuneatonandbedworth.gov.uk,Nuneaton and Bedworth,http://www.nuneatonandbedworth.gov.uk,-1.52933300000000,CV10 9NZ,2013-10-30,fhrs_4_en-GB,4,,FHRS,5
338387,,,,,Cheeky Treats,Retailers - other,4613,5,,460374,0,,,92568,318,carl.jacobs@nuneatonandbedworth.gov.uk,Nuneaton and Bedworth,http://www.nuneatonandbedworth.gov.uk,,,2012-05-04,fhrs_5_en-GB,5,,FHRS,0
338388,,Caroline Close,,Nuneaton,Chetwynd Junior School,School/college/university,7845,0,,460347,5,,52.50153700000000,44816,318,carl.jacobs@nuneatonandbedworth.gov.uk,Nuneaton and Bedworth,http://www.nuneatonandbedworth.gov.uk,-1.44013500000000,CV11 4SE,2014-04-07,fhrs_4_en-GB,4,,FHRS,10
338389,,96 Leicester Road,,Bedworth,Chick King,Takeaway/sandwich shop,7844,0,,235179,5,,52.48463000000000,46295,318,carl.jacobs@nuneatonandbedworth.gov.uk,Nuneaton and Bedworth,http://www.nuneatonandbedworth.gov.uk,-1.47418900000000,CV12 8AG,2014-07-23,fhrs_5_en-GB,5,,FHRS,5
338390,,49 King Street,,Bedworth,Chicken Bites,Takeaway/sandwich shop,7844,10,,728944,5,,52.47922600000000,64487,318,carl.jacobs@nuneatonandbedworth.gov.uk,Nuneaton and Bedworth,http://www.nuneatonandbedworth.gov.uk,-1.47001300000000,CV12 8JD,2014-12-01,fhrs_2_en-GB,2,,FHRS,15
338391,Chivers Coton First School,Frank Street,,Nuneaton,Chilvers Coton Infant School,School/college/university,7845,5,,362151,5,,52.51794500000000,44790,318,carl.jacobs@nuneatonandbedworth.gov.uk,Nuneaton and Bedworth,http://www.nuneatonandbedworth.gov.uk,-1.47180200000000,CV11 5RB,2014-05-13,fhrs_5_en-GB,5,,FHRS,5
338392,,33 Central Avenue,,Nuneaton,China Dragon,Takeaway/sandwich shop,7844,10,,235220,10,,52.52715000000000,47444,318,carl.jacobs@nuneatonandbedworth.gov.uk,Nuneaton and Bedworth,http://www.nuneatonandbedworth.gov.uk,-1.47359300000000,CV11 5BD,2014-04-15,fhrs_3_en-GB,3,,FHRS,5
338393,,,,,Chinese Mobile 1,Mobile caterer,7846,5,,572066,0,,,98526,318,carl.jacobs@nuneatonandbedworth.gov.uk,Nuneaton and Bedworth,http://www.nuneatonandbedworth.gov.uk,,,2013-06-20,fhrs_5_en-GB,5,,FHRS,0
338394,"Unit 5, Chilvers Coton Craft Centre",Avenue Road,,Nuneaton,Chrissie's Catering,Restaurant/Cafe/Canteen,1,5,,735289,5,,52.51433800000000,51165,318,carl.jacobs@nuneatonandbedworth.gov.uk,Nuneaton and Bedworth,http://www.nuneatonandbedworth.gov.uk,-1.46540500000000,CV11 4LU,2015-02-02,fhrs_5_en-GB,5,,FHRS,0
338395,,47 Princes Street,,Nuneaton,City Food Store,Retailers - other,4613,10,,629814,10,,52.52018800000000,47029,318,carl.jacobs@nuneatonandbedworth.gov.uk,Nuneaton and Bedworth,http://www.nuneatonandbedworth.gov.uk,-1.47072900000000,CV11 5NW,2013-02-27,fhrs_3_en-GB,3,,FHRS,5
338396,,7 Dugdale Street,,Nuneaton,City Pizza,Takeaway/sandwich shop,7844,10,,444553,5,,52.52195900000000,44712,318,carl.jacobs@nuneatonandbedworth.gov.uk,Nuneaton and Bedworth,http://www.nuneatonandbedworth.gov.uk,-1.47084000000000,CV11 5QJ,2014-03-25,fhrs_4_en-GB,4,,FHRS,5
338397,Civic Centre,High Street,,Bedworth,Civic Hall,Restaurant/Cafe/Canteen,1,10,,451630,10,,52.47893700000000,46201,318,carl.jacobs@nuneatonandbedworth.gov.uk,Nuneaton and Bedworth,http://www.nuneatonandbedworth.gov.uk,-1.47163600000000,CV12 8NF,2014-04-22,fhrs_4_en-GB,4,,FHRS,0
338398,,,,,Coffee kick,Mobile caterer,7846,5,,629826,5,,,96259,318,carl.jacobs@nuneatonandbedworth.gov.uk,Nuneaton and Bedworth,http://www.nuneatonandbedworth.gov.uk,,,2013-10-31,fhrs_5_en-GB,5,,FHRS,5
338399,Collyhurst House,31-33 Nuneaton Road,,Bedworth,Collyhurst Residential Home,Hospitals/Childcare/Caring Premises,5,10,,362143,5,,52.48705300000000,16809,318,carl.jacobs@nuneatonandbedworth.gov.uk,Nuneaton and Bedworth,http://www.nuneatonandbedworth.gov.uk,-1.47339400000000,CV12 8AN,2014-09-16,fhrs_4_en-GB,4,,FHRS,5
338400,,44 Church Street,,Nuneaton,Community Cafe,Restaurant/Cafe/Canteen,1,5,,235236,0,,52.52242900000000,44592,318,carl.jacobs@nuneatonandbedworth.gov.uk,Nuneaton and Bedworth,http://www.nuneatonandbedworth.gov.uk,-1.46526400000000,CV11 4AD,2015-01-15,fhrs_5_en-GB,5,,FHRS,0
338401,Asda Superstore,Newtown Road,,Nuneaton,Compass Catering Franchise,Restaurant/Cafe/Canteen,1,0,,235296,5,,52.52695700000000,96000,318,carl.jacobs@nuneatonandbedworth.gov.uk,Nuneaton and Bedworth,http://www.nuneatonandbedworth.gov.uk,-1.46659400000000,CV11 4FL,2014-06-19,fhrs_4_en-GB,4,,FHRS,10
338402,Coniston Tavern,Pallett Drive,,Nuneaton,Coniston Tavern,Pub/bar/nightclub,7843,5,,362159,5,,52.53512400000000,45201,318,carl.jacobs@nuneatonandbedworth.gov.uk,Nuneaton and Bedworth,http://www.nuneatonandbedworth.gov.uk,-1.44211100000000,CV11 6JT,2012-03-23,fhrs_5_en-GB,5,,FHRS,5
338403,,244 Croft Road,,Nuneaton,Continental Pizza,Takeaway/sandwich shop,7844,20,,235170,10,,52.51736600000000,60867,318,carl.jacobs@nuneatonandbedworth.gov.uk,Nuneaton and Bedworth,http://www.nuneatonandbedworth.gov.uk,-1.48949300000000,CV10 7DP,2014-04-10,fhrs_1_en-GB,1,,FHRS,15
338404,,29 Queens Road,,Nuneaton,Cooks,Retailers - other,4613,5,,429142,10,,52.52279400000000,45292,318,carl.jacobs@nuneatonandbedworth.gov.uk,Nuneaton and Bedworth,http://www.nuneatonandbedworth.gov.uk,-1.47063900000000,CV11 5JT,2014-07-21,fhrs_4_en-GB,4,,FHRS,5
338405,,Camborne Drive,,Nuneaton,Co-op,Retailers - supermarkets/hypermarkets,7840,0,,362189,10,,52.52662000000000,49105,318,carl.jacobs@nuneatonandbedworth.gov.uk,Nuneaton and Bedworth,http://www.nuneatonandbedworth.gov.uk,-1.43841600000000,CV11 6GU,2013-09-25,fhrs_4_en-GB,4,,FHRS,10
338406,,Kem Street,,Nuneaton,Co-op Food Store,Retailers - supermarkets/hypermarkets,7840,0,,429139,0,,52.51214100000000,45000,318,carl.jacobs@nuneatonandbedworth.gov.uk,Nuneaton and Bedworth,http://www.nuneatonandbedworth.gov.uk,-1.45662100000000,CV11 4LH,2014-06-20,fhrs_5_en-GB,5,,FHRS,5
338407,,6 Copper Beech Road,,Nuneaton,Copper Beech Cafe,Restaurant/Cafe/Canteen,1,0,,429193,5,,52.53105500000000,95262,318,carl.jacobs@nuneatonandbedworth.gov.uk,Nuneaton and Bedworth,http://www.nuneatonandbedworth.gov.uk,-1.50572700000000,CV10 9FB,2013-01-28,fhrs_5_en-GB,5,,FHRS,5
338408,,3 Mill Street,,Bedworth,Costa Coffee,Restaurant/Cafe/Canteen,1,5,,460377,0,,52.48043300000000,97078,318,carl.jacobs@nuneatonandbedworth.gov.uk,Nuneaton and Bedworth,http://www.nuneatonandbedworth.gov.uk,-1.47465100000000,CV12 8JX,2014-03-28,fhrs_5_en-GB,5,,FHRS,0
338409,"Unit 22a, Rope Walk Shopping Centre",Chapel Street,,Nuneaton,Costa Coffee,Restaurant/Cafe/Canteen,1,0,,565647,5,,52.52185500000000,73143,318,carl.jacobs@nuneatonandbedworth.gov.uk,Nuneaton and Bedworth,http://www.nuneatonandbedworth.gov.uk,-1.46960400000000,CV11 5TZ,2014-04-04,fhrs_5_en-GB,5,,FHRS,5
338410,,92-94 Park Road,,Bedworth,Costcutter,Retailers - other,4613,5,,362172,0,,52.47826400000000,46467,318,carl.jacobs@nuneatonandbedworth.gov.uk,Nuneaton and Bedworth,http://www.nuneatonandbedworth.gov.uk,-1.47601700000000,CV12 8LE,2013-10-23,fhrs_5_en-GB,5,,FHRS,5
338411,,278a Smorrall Lane,,Bedworth,Costcutter,Retailers - other,4613,5,,362182,10,,52.47494500000000,47581,318,carl.jacobs@nuneatonandbedworth.gov.uk,Nuneaton and Bedworth,http://www.nuneatonandbedworth.gov.uk,-1.50270400000000,CV12 0JW,2013-08-05,fhrs_4_en-GB,4,,FHRS,5
338412,,15 Copsewood Avenue,,Nuneaton,Costcutter,Retailers - other,4613,,,235321,,,52.50129500000000,44604,318,carl.jacobs@nuneatonandbedworth.gov.uk,Nuneaton and Bedworth,http://www.nuneatonandbedworth.gov.uk,-1.43272800000000,CV11 4TQ,2014-11-13,fhrs_5_en-GB,5,,FHRS,
338413,,6 Raven Way,,Nuneaton,Costcutter,Retailers - other,4613,10,,510294,5,,52.51431500000000,44703,318,carl.jacobs@nuneatonandbedworth.gov.uk,Nuneaton and Bedworth,http://www.nuneatonandbedworth.gov.uk,-1.44477600000000,CV11 6SG,2013-01-24,fhrs_4_en-GB,4,,FHRS,5
338414,,198 Marston Lane,,Bedworth,Costcutter,Retailers - other,4613,0,,551779,0,,52.48789000000000,46360,318,carl.jacobs@nuneatonandbedworth.gov.uk,Nuneaton and Bedworth,http://www.nuneatonandbedworth.gov.uk,-1.46553500000000,CV12 9AD,2014-12-09,fhrs_5_en-GB,5,,FHRS,5
338415,,Bridge Street,,Coton,Coton Conservative Club,Pub/bar/nightclub,7843,0,,565630,0,,52.51474500000000,44459,318,carl.jacobs@nuneatonandbedworth.gov.uk,Nuneaton and Bedworth,http://www.nuneatonandbedworth.gov.uk,-1.46979200000000,CV11 5UD,2012-06-23,fhrs_5_en-GB,5,,FHRS,0
338416,Unit 12,Bayton Road,,Exhall,Coventry Catering,Mobile caterer,7846,5,,535054,0,,52.46306600000000,72581,318,carl.jacobs@nuneatonandbedworth.gov.uk,Nuneaton and Bedworth,http://www.nuneatonandbedworth.gov.uk,-1.48118700000000,CV7 9DJ,2013-03-07,fhrs_4_en-GB,4,,FHRS,10
338417,,Burbages Lane,,Longford,Coventry Welsh R F C,Pub/bar/nightclub,7843,0,,362169,5,,52.45309100000000,46003,318,carl.jacobs@nuneatonandbedworth.gov.uk,Nuneaton and Bedworth,http://www.nuneatonandbedworth.gov.uk,-1.50308300000000,CV6 6AY,2013-09-28,fhrs_5_en-GB,5,,FHRS,5
338418,,246 Croft Road,,Nuneaton,Croft Fisheries,Takeaway/sandwich shop,7844,0,,235187,5,,52.51736600000000,44686,318,carl.jacobs@nuneatonandbedworth.gov.uk,Nuneaton and Bedworth,http://www.nuneatonandbedworth.gov.uk,-1.48949300000000,CV10 7DP,2013-02-27,fhrs_5_en-GB,5,,FHRS,5
338419,,Northumberland Avenue,,Nuneaton,Croft Junior School,School/college/university,7845,0,,535049,5,,52.51922000000000,45177,318,carl.jacobs@nuneatonandbedworth.gov.uk,Nuneaton and Bedworth,http://www.nuneatonandbedworth.gov.uk,-1.49202100000000,CV10 8ER,2013-02-27,fhrs_5_en-GB,5,,FHRS,0
338420,Cross Keys Inn,Goodyers End Lane,,Bedworth,Cross Keys,Pub/bar/nightclub,7843,20,,235252,5,,52.47083100000000,47651,318,carl.jacobs@nuneatonandbedworth.gov.uk,Nuneaton and Bedworth,http://www.nuneatonandbedworth.gov.uk,-1.49516900000000,CV12 0HR,2014-05-29,fhrs_1_en-GB,1,,FHRS,10
338421,,115 Abbey Street,,Nuneaton,Crossed Khukris Gurkha Rest,Restaurant/Cafe/Canteen,1,5,,235272,5,,52.52404300000000,44277,318,carl.jacobs@nuneatonandbedworth.gov.uk,Nuneaton and Bedworth,http://www.nuneatonandbedworth.gov.uk,-1.47044700000000,CV11 5BX,2013-06-05,fhrs_5_en-GB,5,,FHRS,5
338422,,7 Raven Way,,Nuneaton,Crowhill Butchers,Retailers - other,4613,5,,235121,5,,52.51438800000000,46572,318,carl.jacobs@nuneatonandbedworth.gov.uk,Nuneaton and Bedworth,http://www.nuneatonandbedworth.gov.uk,-1.44504000000000,CV11 6SG,2014-09-25,fhrs_5_en-GB,5,,FHRS,5
338423,,7 Raven Way,,Nuneaton,Crowhill Premier Pig Roast,Mobile caterer,7846,5,,585186,5,,52.51438800000000,98710,318,carl.jacobs@nuneatonandbedworth.gov.uk,Nuneaton and Bedworth,http://www.nuneatonandbedworth.gov.uk,-1.44504000000000,CV11 6SG,2013-08-01,fhrs_5_en-GB,5,,FHRS,0
338424,,,,,Crumbs,Retailers - other,4613,5,,701891,5,,,173041,318,carl.jacobs@nuneatonandbedworth.gov.uk,Nuneaton and Bedworth,http://www.nuneatonandbedworth.gov.uk,,,2014-09-02,fhrs_5_en-GB,5,,FHRS,5
338425,Bedworth Market,Church Way,,Bedworth,Crumbs Cafe,Restaurant/Cafe/Canteen,1,10,,235351,5,,52.47975900000000,50349,318,carl.jacobs@nuneatonandbedworth.gov.uk,Nuneaton and Bedworth,http://www.nuneatonandbedworth.gov.uk,-1.47455600000000,CV12 8LZ,2014-08-08,fhrs_4_en-GB,4,,FHRS,5
338426,Stall 8 Bedworth Market,Church Way,,Bedworth,D & R Meats,Retailers - other,4613,,,362191,,,52.47975900000000,50350,318,carl.jacobs@nuneatonandbedworth.gov.uk,Nuneaton and Bedworth,http://www.nuneatonandbedworth.gov.uk,-1.47455600000000,CV12 8LZ,2014-01-17,fhrs_4_en-GB,4,,FHRS,
338427,"Dairy Crest Ltd, Distribution Centre",Walsingham Drive,,Nuneaton,Dairy Crest Canteen,Restaurant/Cafe/Canteen,1,0,,429188,0,,52.49889000000000,72279,318,carl.jacobs@nuneatonandbedworth.gov.uk,Nuneaton and Bedworth,http://www.nuneatonandbedworth.gov.uk,-1.48067700000000,CV10 7RG,2013-04-26,fhrs_5_en-GB,5,,FHRS,5
338428,,5 Bridge Street,,Nuneaton,Debenhams Coffee Shop,Restaurant/Cafe/Canteen,1,0,,429179,0,,52.52312400000000,60933,318,carl.jacobs@nuneatonandbedworth.gov.uk,Nuneaton and Bedworth,http://www.nuneatonandbedworth.gov.uk,-1.46590400000000,CV11 4DY,2015-01-16,fhrs_5_en-GB,5,,FHRS,5
338429,,1 Pinetree Road,,Bedworth,Deli-licious,Takeaway/sandwich shop,7844,10,,692009,10,,52.48482500000000,46473,318,carl.jacobs@nuneatonandbedworth.gov.uk,Nuneaton and Bedworth,http://www.nuneatonandbedworth.gov.uk,-1.46361400000000,CV12 9BG,2014-07-29,fhrs_3_en-GB,3,,FHRS,10
338430,,,,,Del-Lites (Cakes by Adelle),Retailers - other,4613,5,,683292,5,,,172814,318,carl.jacobs@nuneatonandbedworth.gov.uk,Nuneaton and Bedworth,http://www.nuneatonandbedworth.gov.uk,,,2014-06-10,fhrs_5_en-GB,5,,FHRS,5
338431,Discovery House,5 Barling Way,,Nuneaton,Department of Work & Pensions,Restaurant/Cafe/Canteen,1,0,,362202,0,,52.50897600000000,64415,318,carl.jacobs@nuneatonandbedworth.gov.uk,Nuneaton and Bedworth,http://www.nuneatonandbedworth.gov.uk,-1.47846600000000,CV10 7RH,2013-10-21,fhrs_5_en-GB,5,,FHRS,5
338432,,39 Aston Road,,Nuneaton,Dicksons,Retailers - other,4613,0,,235273,0,,52.52941700000000,47589,318,carl.jacobs@nuneatonandbedworth.gov.uk,Nuneaton and Bedworth,http://www.nuneatonandbedworth.gov.uk,-1.47406700000000,CV11 5EJ,2014-01-21,fhrs_5_en-GB,5,,FHRS,5
338433,,5 All Saints Square,,Bedworth,Dominos Pizza,Takeaway/sandwich shop,7844,5,,235202,5,,52.47968600000000,45757,318,carl.jacobs@nuneatonandbedworth.gov.uk,Nuneaton and Bedworth,http://www.nuneatonandbedworth.gov.uk,-1.47246600000000,CV12 8LP,2013-08-01,fhrs_5_en-GB,5,,FHRS,5
338434,,23b Abbey Street,,Nuneaton,Dominos Pizza,Takeaway/sandwich shop,7844,0,,362193,0,,52.52371200000000,50666,318,carl.jacobs@nuneatonandbedworth.gov.uk,Nuneaton and Bedworth,http://www.nuneatonandbedworth.gov.uk,-1.47074600000000,CV11 5BT,2014-04-03,fhrs_5_en-GB,5,,FHRS,0
338435,Drayton Court Residential Home,Cedar Road,,Nuneaton,Drayton Court H.E.P.,Hospitals/Childcare/Caring Premises,5,0,,409177,0,,52.53145800000000,44545,318,carl.jacobs@nuneatonandbedworth.gov.uk,Nuneaton and Bedworth,http://www.nuneatonandbedworth.gov.uk,-1.50755000000000,CV10 9DL,2014-12-17,fhrs_5_en-GB,5,,FHRS,5
338436,,24-26 Drayton Road,,Bedworth,Drayton Stores,Retailers - other,4613,0,,444556,10,,52.47530100000000,46146,318,carl.jacobs@nuneatonandbedworth.gov.uk,Nuneaton and Bedworth,http://www.nuneatonandbedworth.gov.uk,-1.46084400000000,CV12 9EY,2014-08-08,fhrs_4_en-GB,4,,FHRS,10
338437,,74a Tomkinson Road,,Nuneaton,Drinks Corner,Retailers - other,4613,10,,535051,5,,52.52137900000000,47508,318,carl.jacobs@nuneatonandbedworth.gov.uk,Nuneaton and Bedworth,http://www.nuneatonandbedworth.gov.uk,-1.48809100000000,CV10 8BN,2013-03-04,fhrs_4_en-GB,4,,FHRS,5
338438,,87 King Street,,Bedworth,Drinks World,Retailers - other,4613,10,,582733,15,,52.47883100000000,46256,318,carl.jacobs@nuneatonandbedworth.gov.uk,Nuneaton and Bedworth,http://www.nuneatonandbedworth.gov.uk,-1.46810400000000,CV12 8JE,2013-07-05,fhrs_2_en-GB,2,,FHRS,10
338439,Trinity Centre,170 Attleborough Road,,Nuneaton,Ducklings Day Nursery,Hospitals/Childcare/Caring Premises,5,0,,235193,5,,52.51477100000000,50944,318,carl.jacobs@nuneatonandbedworth.gov.uk,Nuneaton and Bedworth,http://www.nuneatonandbedworth.gov.uk,-1.45775300000000,CV11 4JW,2013-11-20,fhrs_5_en-GB,5,,FHRS,5
338440,,121 Queens Road,,Nuneaton,Dunya Supermarket,Retailers - other,4613,10,,235214,15,,52.52232500000000,47493,318,carl.jacobs@nuneatonandbedworth.gov.uk,Nuneaton and Bedworth,http://www.nuneatonandbedworth.gov.uk,-1.47620100000000,CV11 5LD,2014-07-21,fhrs_2_en-GB,2,,FHRS,0
338441,,5 Pinetree Road,,Bedworth,Early 2 Late,Retailers - other,4613,10,,565635,15,,52.48482500000000,46474,318,carl.jacobs@nuneatonandbedworth.gov.uk,Nuneaton and Bedworth,http://www.nuneatonandbedworth.gov.uk,-1.46361400000000,CV12 9BG,2013-06-07,fhrs_2_en-GB,2,,FHRS,15
338442,,7 Barling Way,,Nuneaton,Eliot Park Catering,Restaurant/Cafe/Canteen,1,5,,444562,0,,52.50897600000000,96954,318,carl.jacobs@nuneatonandbedworth.gov.uk,Nuneaton and Bedworth,http://www.nuneatonandbedworth.gov.uk,-1.47846600000000,CV10 7RH,2014-10-17,fhrs_5_en-GB,5,,FHRS,5
338443,,Leicester Road,,Nuneaton,Etone College,School/college/university,7845,5,,362156,5,,52.52613600000000,45017,318,carl.jacobs@nuneatonandbedworth.gov.uk,Nuneaton and Bedworth,http://www.nuneatonandbedworth.gov.uk,-1.45815800000000,CV11 6AA,2013-09-30,fhrs_5_en-GB,5,,FHRS,5
338444,,Bayton Road,,Exhall,"Everfresh Mobile Catering, Bryant Road",Mobile caterer,7846,10,,429168,5,,52.46464900000000,49047,318,carl.jacobs@nuneatonandbedworth.gov.uk,Nuneaton and Bedworth,http://www.nuneatonandbedworth.gov.uk,-1.47725300000000,CV7 9EL,2013-09-18,fhrs_3_en-GB,3,,FHRS,10
338445,,Trenance Road,,Exhall,"Exhall Cedars Infant School, Nursery & Pre-school",School/college/university,7845,0,,235181,5,,52.46818800000000,46537,318,carl.jacobs@nuneatonandbedworth.gov.uk,Nuneaton and Bedworth,http://www.nuneatonandbedworth.gov.uk,-1.47858000000000,CV7 9FJ,2014-06-02,fhrs_5_en-GB,5,,FHRS,5
338446,,17 Trelawney Road,,Exhall,Exhall Chippy,Takeaway/sandwich shop,7844,5,,384904,5,,52.46513000000000,47372,318,carl.jacobs@nuneatonandbedworth.gov.uk,Nuneaton and Bedworth,http://www.nuneatonandbedworth.gov.uk,-1.48022100000000,CV7 9FB,2014-03-28,fhrs_4_en-GB,4,,FHRS,10
338447,,Easter Way,,Ash Green,Exhall Grange Specialist School & Science College,School/college/university,7845,5,,235237,5,,52.45546100000000,75905,318,carl.jacobs@nuneatonandbedworth.gov.uk,Nuneaton and Bedworth,http://www.nuneatonandbedworth.gov.uk,-1.50861900000000,CV7 9HP,2013-05-20,fhrs_5_en-GB,5,,FHRS,5
338448,Exhall Service Station,124 Coventry Road,,Exhall,Exhall Service Station,Retailers - other,4613,0,,718040,5,,52.46474700000000,46102,318,carl.jacobs@nuneatonandbedworth.gov.uk,Nuneaton and Bedworth,http://www.nuneatonandbedworth.gov.uk,-1.48308100000000,CV7 9EU,2014-08-28,fhrs_4_en-GB,4,,FHRS,10
338449,,71 Armson Road,,Exhall,Exton News,Retailers - other,4613,5,,235131,5,,52.47140300000000,45769,318,carl.jacobs@nuneatonandbedworth.gov.uk,Nuneaton and Bedworth,http://www.nuneatonandbedworth.gov.uk,-1.48381200000000,CV7 9BT,2013-06-10,fhrs_2_en-GB,2,,FHRS,15
338450,,,,,Fabulous Couture Cakes,Retailers - other,4613,10,,460379,0,,,97193,318,carl.jacobs@nuneatonandbedworth.gov.uk,Nuneaton and Bedworth,http://www.nuneatonandbedworth.gov.uk,,,2012-10-22,fhrs_4_en-GB,4,,FHRS,0
338451,Fairfield Home,Butler Crescent,,Exhall,Fairfield H E P,Hospitals/Childcare/Caring Premises,5,5,,444555,0,,52.47169300000000,46006,318,carl.jacobs@nuneatonandbedworth.gov.uk,Nuneaton and Bedworth,http://www.nuneatonandbedworth.gov.uk,-1.48241100000000,CV7 9DA,2014-04-04,fhrs_5_en-GB,5,,FHRS,0
338452,,Silverstone Drive,,Longford,Farmers Fayre at Leekes of Coventry,Restaurant/Cafe/Canteen,1,5,,460366,5,,52.45564300000000,62653,318,carl.jacobs@nuneatonandbedworth.gov.uk,Nuneaton and Bedworth,http://www.nuneatonandbedworth.gov.uk,-1.49410700000000,CV6 6PA,2014-05-08,fhrs_5_en-GB,5,,FHRS,5
338453,,Camborne Drive,,Nuneaton,Farmfoods,Retailers - supermarkets/hypermarkets,7840,0,,629823,0,,52.52662000000000,61284,318,carl.jacobs@nuneatonandbedworth.gov.uk,Nuneaton and Bedworth,http://www.nuneatonandbedworth.gov.uk,-1.43841600000000,CV11 6GU,2013-08-13,fhrs_5_en-GB,5,,FHRS,5
338454,,,,,Fella's Ices,Mobile caterer,7846,0,,718051,0,,,96952,318,carl.jacobs@nuneatonandbedworth.gov.uk,Nuneaton and Bedworth,http://www.nuneatonandbedworth.gov.uk,,,2014-08-14,fhrs_5_en-GB,5,,FHRS,5
338455,,64 Fife Street,,Nuneaton,Fife Street W.M.C.,Pub/bar/nightclub,7843,5,,235232,5,,52.52286300000000,44759,318,carl.jacobs@nuneatonandbedworth.gov.uk,Nuneaton and Bedworth,http://www.nuneatonandbedworth.gov.uk,-1.47802200000000,CV11 5PW,2013-12-06,fhrs_5_en-GB,5,,FHRS,5
338456,,27-29 Rugby Road,,Bulkington,Fishnet Fish Bar,Takeaway/sandwich shop,7844,5,,235250,5,,52.47690800000000,46490,318,carl.jacobs@nuneatonandbedworth.gov.uk,Nuneaton and Bedworth,http://www.nuneatonandbedworth.gov.uk,-1.41865700000000,CV12 9JF,2013-06-13,fhrs_5_en-GB,5,,FHRS,5
338457,,279 Church Road,,Nuneaton,Five Star Fish Bar,Takeaway/sandwich shop,7844,,,235139,,,52.52204800000000,47451,318,carl.jacobs@nuneatonandbedworth.gov.uk,Nuneaton and Bedworth,http://www.nuneatonandbedworth.gov.uk,-1.50817100000000,CV10 8LJ,2014-02-25,fhrs_5_en-GB,5,,FHRS,
338458,Bus Station,Harefield Road,,Nuneaton,Flames Grill,Takeaway/sandwich shop,7844,5,,485187,10,,52.52402800000000,61239,318,carl.jacobs@nuneatonandbedworth.gov.uk,Nuneaton and Bedworth,http://www.nuneatonandbedworth.gov.uk,-1.46716000000000,CV11 4HB,2014-09-25,fhrs_4_en-GB,4,,FHRS,5
338459,Fleur De Lys,Coventry Road,,Nuneaton,Fleur de Lys,Pub/bar/nightclub,7843,5,,235188,5,,52.51228000000000,47597,318,carl.jacobs@nuneatonandbedworth.gov.uk,Nuneaton and Bedworth,http://www.nuneatonandbedworth.gov.uk,-1.46743500000000,CV11 4NL,2011-09-05,fhrs_4_en-GB,4,,FHRS,10
338460,,,,,Food 4 Thought,Mobile caterer,7846,,,683295,,,,172856,318,carl.jacobs@nuneatonandbedworth.gov.uk,Nuneaton and Bedworth,http://www.nuneatonandbedworth.gov.uk,,,2014-09-02,fhrs_5_en-GB,5,,FHRS,
338461,Flat Above,32-34 Abbey Green,,Nuneaton,Frank Parker (Butchers),Retailers - other,4613,5,,235153,5,,52.52768600000000,47396,318,carl.jacobs@nuneatonandbedworth.gov.uk,Nuneaton and Bedworth,http://www.nuneatonandbedworth.gov.uk,-1.47482500000000,CV11 5DT,2014-02-18,fhrs_5_en-GB,5,,FHRS,5
338462,"Frankie And Bennys, Bermuda Park",St Davids Way,,Nuneaton,Frankie & Bennys,Restaurant/Cafe/Canteen,1,0,,384911,0,,52.49688600000000,61280,318,carl.jacobs@nuneatonandbedworth.gov.uk,Nuneaton and Bedworth,http://www.nuneatonandbedworth.gov.uk,-1.47681200000000,CV10 7SD,2013-12-20,fhrs_4_en-GB,4,,FHRS,10
338463,,4 Manor Court Road,,Nuneaton,Frannie Annie's,Restaurant/Cafe/Canteen,1,0,,235262,5,,52.52725800000000,45049,318,carl.jacobs@nuneatonandbedworth.gov.uk,Nuneaton and Bedworth,http://www.nuneatonandbedworth.gov.uk,-1.47578800000000,CV11 5HY,2013-11-28,fhrs_5_en-GB,5,,FHRS,5
338464,,,,,Freya's Fancy Cakes,Retailers - other,4613,5,,565646,5,,,64745,318,carl.jacobs@nuneatonandbedworth.gov.uk,Nuneaton and Bedworth,http://www.nuneatonandbedworth.gov.uk,,,2013-06-06,fhrs_5_en-GB,5,,FHRS,5
338465,Black Horse,Coventry Road,,Exhall,Frying Squad,Mobile caterer,7846,5,,551790,5,,52.46139400000000,98370,318,carl.jacobs@nuneatonandbedworth.gov.uk,Nuneaton and Bedworth,http://www.nuneatonandbedworth.gov.uk,-1.48319400000000,CV7 9FU,2013-04-24,fhrs_5_en-GB,5,,FHRS,0
338466,,5 Hickman Road,,Nuneaton,Full of Beans,Restaurant/Cafe/Canteen,1,0,,460370,10,,52.52563700000000,72919,318,carl.jacobs@nuneatonandbedworth.gov.uk,Nuneaton and Bedworth,http://www.nuneatonandbedworth.gov.uk,-1.53532600000000,CV10 9NG,2014-03-07,fhrs_4_en-GB,4,,FHRS,10
338467,Museum And Art Gallery,Coton Road,,Nuneaton,Gallery Tea Rooms,Restaurant/Cafe/Canteen,1,10,,235141,10,,52.52033800000000,44645,318,carl.jacobs@nuneatonandbedworth.gov.uk,Nuneaton and Bedworth,http://www.nuneatonandbedworth.gov.uk,-1.46609900000000,CV11 5HA,2014-07-23,fhrs_3_en-GB,3,,FHRS,10
338468,Galley Common School,Plough Hill Road,,Nuneaton,Galley Common Infant  School,School/college/university,7845,0,,235205,0,,52.53060300000000,45217,318,carl.jacobs@nuneatonandbedworth.gov.uk,Nuneaton and Bedworth,http://www.nuneatonandbedworth.gov.uk,-1.52933300000000,CV10 9NZ,2014-06-18,fhrs_4_en-GB,4,,FHRS,10
338469,George Eliot Hospital,College Street,,Nuneaton,George Eliot Hospital,Hospitals/Childcare/Caring Premises,5,0,,235116,0,,52.51200900000000,48598,318,carl.jacobs@nuneatonandbedworth.gov.uk,Nuneaton and Bedworth,http://www.nuneatonandbedworth.gov.uk,-1.47514400000000,CV10 7DJ,2014-08-22,fhrs_5_en-GB,5,,FHRS,5
338470,,Bridge Street,,Nuneaton,George Eliot Hotel,Pub/bar/nightclub,7843,0,,429134,0,,52.52293700000000,44473,318,carl.jacobs@nuneatonandbedworth.gov.uk,Nuneaton and Bedworth,http://www.nuneatonandbedworth.gov.uk,-1.46639200000000,CV11 4DZ,2013-08-27,fhrs_5_en-GB,5,,FHRS,5
338471,George Eliot High School,Raveloe Drive,,Nuneaton,George Eliot School,School/college/university,7845,0,,235298,5,,52.50686300000000,47299,318,carl.jacobs@nuneatonandbedworth.gov.uk,Nuneaton and Bedworth,http://www.nuneatonandbedworth.gov.uk,-1.45846900000000,CV11 4QP,2013-06-06,fhrs_5_en-GB,5,,FHRS,0
338472,Gildawood Court,School Walk,,Nuneaton,Gildawood Court,Hospitals/Childcare/Caring Premises,5,,,235368,,,52.51544300000000,64153,318,carl.jacobs@nuneatonandbedworth.gov.uk,Nuneaton and Bedworth,http://www.nuneatonandbedworth.gov.uk,-1.45342700000000,CV11 4UY,2015-01-16,fhrs_5_en-GB,5,,FHRS,
338473,Glebegate Restaurant,Glebe Lane,,Nuneaton,Glebegate Restaurant,Restaurant/Cafe/Canteen,1,0,,384914,0,,52.52978200000000,96238,318,carl.jacobs@nuneatonandbedworth.gov.uk,Nuneaton and Bedworth,http://www.nuneatonandbedworth.gov.uk,-1.44744100000000,CV11 6LR,2014-06-05,fhrs_5_en-GB,5,,FHRS,0
338474,,Skye Close,,Nuneaton,Glendale Infant School,School/college/university,7845,0,,235165,5,,52.51428800000000,49076,318,carl.jacobs@nuneatonandbedworth.gov.uk,Nuneaton and Bedworth,http://www.nuneatonandbedworth.gov.uk,-1.48867400000000,CV10 7LW,2014-06-16,fhrs_4_en-GB,4,,FHRS,10
338475,,32-34 Attleborough Road,,Nuneaton,Golden Bridge,Takeaway/sandwich shop,7844,0,,235137,10,,52.51797600000000,47425,318,carl.jacobs@nuneatonandbedworth.gov.uk,Nuneaton and Bedworth,http://www.nuneatonandbedworth.gov.uk,-1.45876000000000,CV11 4JG,2013-08-14,fhrs_4_en-GB,4,,FHRS,10
338476,,139 Queens Road,,Nuneaton,Golden Star,Takeaway/sandwich shop,7844,0,,362163,10,,52.52232500000000,45359,318,carl.jacobs@nuneatonandbedworth.gov.uk,Nuneaton and Bedworth,http://www.nuneatonandbedworth.gov.uk,-1.47620100000000,CV11 5LD,2013-10-25,fhrs_4_en-GB,4,,FHRS,5
338477,,Bowling Green Lane,,Bedworth,Goodyers End Primary School,School/college/university,7845,0,,235254,5,,52.47002800000000,49036,318,carl.jacobs@nuneatonandbedworth.gov.uk,Nuneaton and Bedworth,http://www.nuneatonandbedworth.gov.uk,-1.49433900000000,CV12 0HP,2013-01-09,fhrs_5_en-GB,5,,FHRS,5
338478,,16 Bridge Street,,Nuneaton,Greggs,Retailers - other,4613,0,,362148,0,,52.52263800000000,44470,318,carl.jacobs@nuneatonandbedworth.gov.uk,Nuneaton and Bedworth,http://www.nuneatonandbedworth.gov.uk,-1.46592400000000,CV11 4DX,2013-02-21,fhrs_5_en-GB,5,,FHRS,5
338479,,16A Harefield Road,,Nuneaton,Greggs,Retailers - other,4613,5,,362190,0,,52.52362600000000,49181,318,carl.jacobs@nuneatonandbedworth.gov.uk,Nuneaton and Bedworth,http://www.nuneatonandbedworth.gov.uk,-1.46760700000000,CV11 4HD,2013-01-23,fhrs_5_en-GB,5,,FHRS,5
338480,,32 All Saints Square,,Bedworth,Greggs,Retailers - other,4613,0,,429149,5,,52.48006700000000,45756,318,carl.jacobs@nuneatonandbedworth.gov.uk,Nuneaton and Bedworth,http://www.nuneatonandbedworth.gov.uk,-1.47324200000000,CV12 8ND,2014-03-03,fhrs_5_en-GB,5,,FHRS,5
338481,,12 Queens Road,,Nuneaton,Greggs,Restaurant/Cafe/Canteen,1,0,,235347,10,,52.52246400000000,45275,318,carl.jacobs@nuneatonandbedworth.gov.uk,Nuneaton and Bedworth,http://www.nuneatonandbedworth.gov.uk,-1.46905100000000,CV11 5JW,2014-07-21,fhrs_4_en-GB,4,,FHRS,10
338482,,Heath End Road,,Nuneaton,Griff & Coton Sports Club,Pub/bar/nightclub,7843,10,,429137,5,,52.51361200000000,44941,318,carl.jacobs@nuneatonandbedworth.gov.uk,Nuneaton and Bedworth,http://www.nuneatonandbedworth.gov.uk,-1.47586200000000,CV10 7JQ,2012-06-20,fhrs_3_en-GB,3,,FHRS,10
338483,Griff House Restaurant,Coventry Road,,Nuneaton,Griff House Beefeater & Premier Inn,Pub/bar/nightclub,7843,0,,235342,10,,52.49509300000000,44829,318,carl.jacobs@nuneatonandbedworth.gov.uk,Nuneaton and Bedworth,http://www.nuneatonandbedworth.gov.uk,-1.47391700000000,CV10 7PJ,2014-09-18,fhrs_4_en-GB,4,,FHRS,10
338484,Unit 8,Bayton Road,,Exhall,Gurdwara Baba Vadbhag Singh Ji,Other catering premises,7841,5,,605138,10,,52.46306600000000,45781,318,carl.jacobs@nuneatonandbedworth.gov.uk,Nuneaton and Bedworth,http://www.nuneatonandbedworth.gov.uk,-1.48118700000000,CV7 9DJ,2013-08-30,fhrs_4_en-GB,4,,FHRS,5
338485,,,,,Gurkha Fast Food,Takeaway/sandwich shop,7844,,,619651,,,,98874,318,carl.jacobs@nuneatonandbedworth.gov.uk,Nuneaton and Bedworth,http://www.nuneatonandbedworth.gov.uk,,,2014-02-05,fhrs_5_en-GB,5,,FHRS,
338486,Guru Nanak Sikh Temple,59 Park Avenue,,Nuneaton,Guru Nanak Sikh Temple,Other catering premises,7841,10,,235158,5,,52.51623400000000,36939,318,carl.jacobs@nuneatonandbedworth.gov.uk,Nuneaton and Bedworth,http://www.nuneatonandbedworth.gov.uk,-1.45340200000000,CV11 4PG,2014-10-24,fhrs_3_en-GB,3,,FHRS,10
338487,,113 Berwyn Way,,Nuneaton,Halal Fish and Chips (Mobile),Mobile caterer,7846,0,,429171,10,,52.52062300000000,49176,318,carl.jacobs@nuneatonandbedworth.gov.uk,Nuneaton and Bedworth,http://www.nuneatonandbedworth.gov.uk,-1.51350800000000,CV10 8QW,2014-05-30,fhrs_4_en-GB,4,,FHRS,5
338488,,1a Stratford Street,,Nuneaton,Hannah's Cafe,Restaurant/Cafe/Canteen,1,0,,235204,10,,52.52315600000000,45479,318,carl.jacobs@nuneatonandbedworth.gov.uk,Nuneaton and Bedworth,http://www.nuneatonandbedworth.gov.uk,-1.46913100000000,CV11 5BS,2013-09-20,fhrs_4_en-GB,4,,FHRS,5
338489,,95b Attleborough Road,,Nuneaton,Hannah's Cafe,Restaurant/Cafe/Canteen,1,5,,429181,5,,52.51750200000000,61349,318,carl.jacobs@nuneatonandbedworth.gov.uk,Nuneaton and Bedworth,http://www.nuneatonandbedworth.gov.uk,-1.45928100000000,CV11 4JQ,2014-07-03,fhrs_4_en-GB,4,,FHRS,10
338490,,Hare & Hounds Lane,,Nuneaton,Hare & Hounds,Pub/bar/nightclub,7843,10,,451627,10,,52.51375900000000,44943,318,carl.jacobs@nuneatonandbedworth.gov.uk,Nuneaton and Bedworth,http://www.nuneatonandbedworth.gov.uk,-1.48473100000000,CV10 7JA,2013-01-15,fhrs_2_en-GB,2,,FHRS,15
338491,,Bull Ring,,Nuneaton,Harmony House,Hospitals/Childcare/Caring Premises,5,0,,409188,5,,52.51328659057617,61575,318,carl.jacobs@nuneatonandbedworth.gov.uk,Nuneaton and Bedworth,http://www.nuneatonandbedworth.gov.uk,-1.47511446475983,CV10 7BY,2014-06-19,fhrs_5_en-GB,5,,FHRS,5
338492,,1 Mill Street,,Bedworth,Harry's Bakery,Restaurant/Cafe/Canteen,1,5,,409180,5,,52.48043300000000,46373,318,carl.jacobs@nuneatonandbedworth.gov.uk,Nuneaton and Bedworth,http://www.nuneatonandbedworth.gov.uk,-1.47465100000000,CV12 8JX,2015-01-15,fhrs_4_en-GB,4,,FHRS,10
338493,Glendale Service Station,Croft Road,,Nuneaton,Harvest Energy Petrol Station,Retailers - other,4613,10,,499711,5,,52.51653200000000,44698,318,carl.jacobs@nuneatonandbedworth.gov.uk,Nuneaton and Bedworth,http://www.nuneatonandbedworth.gov.uk,-1.49194900000000,CV10 7EE,2013-01-17,fhrs_4_en-GB,4,,FHRS,5
338494,,207 Haunchwood Road,,Nuneaton,Haunchwood News,Retailers - other,4613,10,,235174,10,,52.52122100000000,47291,318,carl.jacobs@nuneatonandbedworth.gov.uk,Nuneaton and Bedworth,http://www.nuneatonandbedworth.gov.uk,-1.50166600000000,CV10 8DF,2013-08-12,fhrs_3_en-GB,3,,FHRS,10
338495,,251 Haunchwood Road,,Nuneaton,Haunchwood Service Station,Retailers - other,4613,5,,362153,5,,52.52109000000000,44921,318,carl.jacobs@nuneatonandbedworth.gov.uk,Nuneaton and Bedworth,http://www.nuneatonandbedworth.gov.uk,-1.49841100000000,CV10 8DE,2013-10-23,fhrs_5_en-GB,5,,FHRS,0
338496,Haunchwood Institute,Valley Road,,Nuneaton,Haunchwood Sports and Social Club,Pub/bar/nightclub,7843,0,,708355,10,,52.52390200000000,45564,318,carl.jacobs@nuneatonandbedworth.gov.uk,Nuneaton and Bedworth,http://www.nuneatonandbedworth.gov.uk,-1.53534400000000,CV10 9NH,2014-09-30,fhrs_4_en-GB,4,,FHRS,10
338497,,27 Meldrum Road,,Nuneaton,Haunchwood Wines,Retailers - other,4613,5,,235239,10,,52.52082200000000,92424,318,carl.jacobs@nuneatonandbedworth.gov.uk,Nuneaton and Bedworth,http://www.nuneatonandbedworth.gov.uk,-1.50292400000000,CV10 8HS,2015-01-19,fhrs_4_en-GB,4,,FHRS,5
338498,,New Road,,Ash Green,Haven Nursing Home,Hospitals/Childcare/Caring Premises,5,5,,235172,0,,52.46198300000000,46395,318,carl.jacobs@nuneatonandbedworth.gov.uk,Nuneaton and Bedworth,http://www.nuneatonandbedworth.gov.uk,-1.51169600000000,CV7 9AS,2014-06-30,fhrs_5_en-GB,5,,FHRS,5
338499,,2 Copper Beech Road,,Nuneaton,Heart of England Co op,Retailers - supermarkets/hypermarkets,7840,10,,582740,0,,52.53105500000000,92294,318,carl.jacobs@nuneatonandbedworth.gov.uk,Nuneaton and Bedworth,http://www.nuneatonandbedworth.gov.uk,-1.50572700000000,CV10 9FB,2013-07-18,fhrs_4_en-GB,4,,FHRS,10
338500,,School Road,,Bulkington,Heart Of England Co-op,Retailers - supermarkets/hypermarkets,7840,0,,235227,0,,52.47624900000000,46508,318,carl.jacobs@nuneatonandbedworth.gov.uk,Nuneaton and Bedworth,http://www.nuneatonandbedworth.gov.uk,-1.42361200000000,CV12 9JD,2015-02-09,fhrs_5_en-GB,5,,FHRS,5
338501,,8a Coniston Way,,Nuneaton,Heart of England Co-op Society,Retailers - supermarkets/hypermarkets,7840,5,,235130,5,,52.53611900000000,44602,318,carl.jacobs@nuneatonandbedworth.gov.uk,Nuneaton and Bedworth,http://www.nuneatonandbedworth.gov.uk,-1.44531200000000,CV11 6DG,2014-10-23,fhrs_5_en-GB,5,,FHRS,5
338502,Co-Operative Retail Services L,Abbey Street,,Nuneaton,Heart of England Co-op Society,Retailers - supermarkets/hypermarkets,7840,5,,362146,5,,52.52371200000000,44258,318,carl.jacobs@nuneatonandbedworth.gov.uk,Nuneaton and Bedworth,http://www.nuneatonandbedworth.gov.uk,-1.47074600000000,CV11 5BT,2013-10-04,fhrs_5_en-GB,5,,FHRS,5
338503,,285 Arbury Road,,Stockingford,Hearty Goodfellow,Pub/bar/nightclub,7843,5,,235209,15,,52.51559400000000,47423,318,carl.jacobs@nuneatonandbedworth.gov.uk,Nuneaton and Bedworth,http://www.nuneatonandbedworth.gov.uk,-1.50615100000000,CV10 7NQ,2013-03-15,fhrs_2_en-GB,2,,FHRS,5
338504,,34 Heath End Road,,Nuneaton,Heath End News,Retailers - other,4613,10,,362154,15,,52.51361200000000,44924,318,carl.jacobs@nuneatonandbedworth.gov.uk,Nuneaton and Bedworth,http://www.nuneatonandbedworth.gov.uk,-1.47586200000000,CV10 7JQ,2014-03-05,fhrs_2_en-GB,2,,FHRS,15
338505,,Heath End Road,,Nuneaton,Heath End Road Service Station,Retailers - other,4613,0,,460361,10,,52.51277100000000,49125,318,carl.jacobs@nuneatonandbedworth.gov.uk,Nuneaton and Bedworth,http://www.nuneatonandbedworth.gov.uk,-1.48715900000000,CV10 7HQ,2013-12-03,fhrs_4_en-GB,4,,FHRS,5
338506,Fish Saloon,93 Heath Road,,Bedworth,Heath Road Fish Saloon,Takeaway/sandwich shop,7844,5,,235221,5,,52.47315900000000,47373,318,carl.jacobs@nuneatonandbedworth.gov.uk,Nuneaton and Bedworth,http://www.nuneatonandbedworth.gov.uk,-1.49296400000000,CV12 0BJ,2013-02-19,fhrs_5_en-GB,5,,FHRS,5
338507,,,,,Heaven on Earth Home-Baked,Retailers - other,4613,10,,683303,10,,,99047,318,carl.jacobs@nuneatonandbedworth.gov.uk,Nuneaton and Bedworth,http://www.nuneatonandbedworth.gov.uk,,,2014-05-28,fhrs_3_en-GB,3,,FHRS,5
338508,,125 Abbey Street,,Nuneaton,Heron Frozen Foods,Retailers - supermarkets/hypermarkets,7840,5,,551774,0,,52.52352400000000,44286,318,carl.jacobs@nuneatonandbedworth.gov.uk,Nuneaton and Bedworth,http://www.nuneatonandbedworth.gov.uk,-1.46895000000000,CV11 5BZ,2013-05-20,fhrs_5_en-GB,5,,FHRS,5
338509,,118 Abbey Street,,Nuneaton,Heron News and Booze,Retailers - other,4613,10,,638712,15,,52.52408900000000,47026,318,carl.jacobs@nuneatonandbedworth.gov.uk,Nuneaton and Bedworth,http://www.nuneatonandbedworth.gov.uk,-1.47069700000000,CV11 5BX,2014-02-17,fhrs_2_en-GB,2,,FHRS,0
338510,,,,,Hessian Heart,Restaurant/Cafe/Canteen,1,5,,638716,5,,,99003,318,carl.jacobs@nuneatonandbedworth.gov.uk,Nuneaton and Bedworth,http://www.nuneatonandbedworth.gov.uk,,,2014-02-11,fhrs_5_en-GB,5,,FHRS,0
338511,,10 Bull Street,,Nuneaton,Hidden Dragon,Takeaway/sandwich shop,7844,0,,451626,10,,52.51344500000000,44491,318,carl.jacobs@nuneatonandbedworth.gov.uk,Nuneaton and Bedworth,http://www.nuneatonandbedworth.gov.uk,-1.45688500000000,CV11 4JX,2014-05-29,fhrs_4_en-GB,4,,FHRS,10
338512,Higham Lane School,Higham Lane,,Nuneaton,Higham Lane School,School/college/university,7845,5,,235138,10,,52.53299800000000,44958,318,carl.jacobs@nuneatonandbedworth.gov.uk,Nuneaton and Bedworth,http://www.nuneatonandbedworth.gov.uk,-1.45679100000000,CV10 0BJ,2014-05-16,fhrs_4_en-GB,4,,FHRS,5
338513,,50 Hill Street,,Bedworth,Hill News and Store,Retailers - other,4613,0,,718045,0,,52.48981000000000,47563,318,carl.jacobs@nuneatonandbedworth.gov.uk,Nuneaton and Bedworth,http://www.nuneatonandbedworth.gov.uk,-1.47456900000000,CV12 8AT,2014-10-13,fhrs_5_en-GB,5,,FHRS,5
338514,,3-7 Donnithorne Avenue,,Nuneaton,Hill Top Stores,Retailers - other,4613,5,,235244,5,,52.50707600000000,44708,318,carl.jacobs@nuneatonandbedworth.gov.uk,Nuneaton and Bedworth,http://www.nuneatonandbedworth.gov.uk,-1.46773300000000,CV10 7AF,2014-01-20,fhrs_4_en-GB,4,,FHRS,10
338515,,153 Coventry Road,,Nuneaton,Hilltop Post Office,Retailers - other,4613,5,,362150,10,,52.50842100000000,44654,318,carl.jacobs@nuneatonandbedworth.gov.uk,Nuneaton and Bedworth,http://www.nuneatonandbedworth.gov.uk,-1.46898400000000,CV10 7BA,2014-03-17,fhrs_3_en-GB,3,,FHRS,10
338516,Fleur De Lys,Coventry Road,,Nuneaton,Ho Ho,Takeaway/sandwich shop,7844,0,,460373,10,,52.51228000000000,89653,318,carl.jacobs@nuneatonandbedworth.gov.uk,Nuneaton and Bedworth,http://www.nuneatonandbedworth.gov.uk,-1.46743500000000,CV11 4NL,2013-10-31,fhrs_4_en-GB,4,,FHRS,5
338517,17 Bedworth Market,Church Way,,Bedworth,Hobbins Cakery,Mobile caterer,7846,0,,585187,0,,52.47975900000000,98714,318,carl.jacobs@nuneatonandbedworth.gov.uk,Nuneaton and Bedworth,http://www.nuneatonandbedworth.gov.uk,-1.47455600000000,CV12 8LZ,2013-08-02,fhrs_5_en-GB,5,,FHRS,0
338518,"Hotel, Bermuda Park",St Davids Way,,Nuneaton,Holiday Inn Express,Hotel/bed & breakfast/guest house,7842,5,,460371,10,,52.49688600000000,73481,318,carl.jacobs@nuneatonandbedworth.gov.uk,Nuneaton and Bedworth,http://www.nuneatonandbedworth.gov.uk,-1.47681200000000,CV10 7SD,2014-04-24,fhrs_4_en-GB,4,,FHRS,5
338519,Camp Hill Early Years Centre,Hollystitches Road,,Nuneaton,Hollyberries Nursery,Hospitals/Childcare/Caring Premises,5,0,,235122,0,,52.53186900000000,44972,318,carl.jacobs@nuneatonandbedworth.gov.uk,Nuneaton and Bedworth,http://www.nuneatonandbedworth.gov.uk,-1.49404200000000,CV10 9QA,2015-02-10,fhrs_5_en-GB,5,,FHRS,5
338520,,291 Watling Street,,Nuneaton,Holmfield Nursing Home,Hospitals/Childcare/Caring Premises,5,5,,235159,10,,52.54428900000000,45620,318,carl.jacobs@nuneatonandbedworth.gov.uk,Nuneaton and Bedworth,http://www.nuneatonandbedworth.gov.uk,-1.43937000000000,CV11 6BQ,2014-12-04,fhrs_3_en-GB,3,,FHRS,10
338521,Holy Trinity Church,Fifield Close,,Nuneaton,Holy Trinity Church,Other catering premises,7841,5,,650299,5,,,62156,318,carl.jacobs@nuneatonandbedworth.gov.uk,Nuneaton and Bedworth,http://www.nuneatonandbedworth.gov.uk,,,2014-03-26,fhrs_5_en-GB,5,,FHRS,5
338522,,Units B & C,,Mill Street,Home Bargains,Retailers - other,4613,0,,735290,0,,,89392,318,carl.jacobs@nuneatonandbedworth.gov.uk,Nuneaton and Bedworth,http://www.nuneatonandbedworth.gov.uk,,CV12 8VJ,2015-01-30,fhrs_5_en-GB,5,,FHRS,0
338523,,,,,Home Caterer,Retailers - other,4613,5,,565629,5,,,42433,318,carl.jacobs@nuneatonandbedworth.gov.uk,Nuneaton and Bedworth,http://www.nuneatonandbedworth.gov.uk,,,2013-06-12,fhrs_5_en-GB,5,,FHRS,5
338524,,5a The Green,,Nuneaton,Hong Kong House,Takeaway/sandwich shop,7844,10,,429146,5,,52.51304900000000,45498,318,carl.jacobs@nuneatonandbedworth.gov.uk,Nuneaton and Bedworth,http://www.nuneatonandbedworth.gov.uk,-1.45475300000000,CV11 4FJ,2013-11-13,fhrs_3_en-GB,3,,FHRS,10
338525,"Unit 2, Horeston Grange Shopping Centre",Camborne Drive,,Nuneaton,Horeston Grange Fish Bar,Takeaway/sandwich shop,7844,10,,235132,5,,52.52662000000000,49112,318,carl.jacobs@nuneatonandbedworth.gov.uk,Nuneaton and Bedworth,http://www.nuneatonandbedworth.gov.uk,-1.43841600000000,CV11 6GU,2014-08-21,fhrs_3_en-GB,3,,FHRS,10
338526,,126 Coventry Road,,Bedworth,Hot Food Paradise,Takeaway/sandwich shop,7844,5,,362181,5,,52.47483600000000,47548,318,carl.jacobs@nuneatonandbedworth.gov.uk,Nuneaton and Bedworth,http://www.nuneatonandbedworth.gov.uk,-1.47548400000000,CV12 8NW,2014-09-26,fhrs_4_en-GB,4,,FHRS,10
338527,,34-36 Queens Road,,Nuneaton,Iceland Frozen Foods Plc,Retailers - supermarkets/hypermarkets,7840,0,,718038,10,,52.52240800000000,45299,318,carl.jacobs@nuneatonandbedworth.gov.uk,Nuneaton and Bedworth,http://www.nuneatonandbedworth.gov.uk,-1.47058400000000,CV11 5JU,2014-09-30,fhrs_4_en-GB,4,,FHRS,10
338528,Independent Educational Services,100 Cross Street,,Nuneaton,Independent Educational Services,School/college/university,7845,5,,735288,5,,52.51823100000000,48650,318,carl.jacobs@nuneatonandbedworth.gov.uk,Nuneaton and Bedworth,http://www.nuneatonandbedworth.gov.uk,-1.50691700000000,CV10 8JH,2015-01-20,fhrs_5_en-GB,5,,FHRS,0
338529,,25 Abbey Street,,Nuneaton,India Red,Pub/bar/nightclub,7843,5,,235161,5,,52.52371200000000,48989,318,carl.jacobs@nuneatonandbedworth.gov.uk,Nuneaton and Bedworth,http://www.nuneatonandbedworth.gov.uk,-1.47074600000000,CV11 5BT,2014-10-30,fhrs_5_en-GB,5,,FHRS,5
338530,,41 Bond Street,,Nuneaton,Indian Lounge,Restaurant/Cafe/Canteen,1,5,,708358,5,,52.52450400000000,61212,318,carl.jacobs@nuneatonandbedworth.gov.uk,Nuneaton and Bedworth,http://www.nuneatonandbedworth.gov.uk,-1.46494400000000,CV11 4DA,2014-10-01,fhrs_5_en-GB,5,,FHRS,5
338531,,66 Plough Hill Road,,Nuneaton,Ingleby Hotel,Hospitals/Childcare/Caring Premises,5,5,,451625,0,,52.53444000000000,37205,318,carl.jacobs@nuneatonandbedworth.gov.uk,Nuneaton and Bedworth,http://www.nuneatonandbedworth.gov.uk,-1.52678500000000,CV10 9NY,2012-06-13,fhrs_5_en-GB,5,,FHRS,0
338532,,18 Harefield Road,,Nuneaton,Istanbul Grill,Restaurant/Cafe/Canteen,1,5,,235163,5,,52.52416700000000,61576,318,carl.jacobs@nuneatonandbedworth.gov.uk,Nuneaton and Bedworth,http://www.nuneatonandbedworth.gov.uk,-1.46799900000000,CV11 4HH,2013-09-23,fhrs_5_en-GB,5,,FHRS,0
338533,Booker,St Georges Way,,Nuneaton,J P Catering,Restaurant/Cafe/Canteen,1,,,460368,,,52.50414300000000,72601,318,carl.jacobs@nuneatonandbedworth.gov.uk,Nuneaton and Bedworth,http://www.nuneatonandbedworth.gov.uk,-1.47529700000000,CV10 7QT,2014-08-01,fhrs_5_en-GB,5,,FHRS,
338534,J Sainsbury Plc,Vicarage Street,,Nuneaton,J Sainsbury plc,Retailers - supermarkets/hypermarkets,7840,0,,362165,0,,52.51998700000000,45615,318,carl.jacobs@nuneatonandbedworth.gov.uk,Nuneaton and Bedworth,http://www.nuneatonandbedworth.gov.uk,-1.46411400000000,CV11 4XS,2013-03-07,fhrs_5_en-GB,5,,FHRS,5
338535,,21-23 Trelawney Road,,Exhall,J.S.General Stores,Retailers - other,4613,10,,235189,5,,52.46513000000000,47582,318,carl.jacobs@nuneatonandbedworth.gov.uk,Nuneaton and Bedworth,http://www.nuneatonandbedworth.gov.uk,-1.48022100000000,CV7 9FB,2012-02-06,fhrs_4_en-GB,4,,FHRS,0
338536,,119 Manor Court Road,,Nuneaton,Jack In The Box Day Nursery,Hospitals/Childcare/Caring Premises,5,0,,235340,0,,52.52427200000000,48502,318,carl.jacobs@nuneatonandbedworth.gov.uk,Nuneaton and Bedworth,http://www.nuneatonandbedworth.gov.uk,-1.47953800000000,CV11 5HQ,2014-06-18,fhrs_5_en-GB,5,,FHRS,0
338537,,58 King Street,,Bedworth,Jacks Entertainment Club,Pub/bar/nightclub,7843,5,,485186,10,,52.47946900000000,49128,318,carl.jacobs@nuneatonandbedworth.gov.uk,Nuneaton and Bedworth,http://www.nuneatonandbedworth.gov.uk,-1.46998100000000,CV12 8JQ,2014-09-18,fhrs_3_en-GB,3,,FHRS,10
338538,,,,,James Whippy,Mobile caterer,7846,0,,718036,5,,,173164,318,carl.jacobs@nuneatonandbedworth.gov.uk,Nuneaton and Bedworth,http://www.nuneatonandbedworth.gov.uk,,,2014-07-08,fhrs_5_en-GB,5,,FHRS,5
338539,,,,,Janice Hull Cakes,Retailers - other,4613,0,,726249,0,,,172974,318,carl.jacobs@nuneatonandbedworth.gov.uk,Nuneaton and Bedworth,http://www.nuneatonandbedworth.gov.uk,,,2014-07-28,fhrs_5_en-GB,5,,FHRS,0
338540,Warwickshire Wedding Centre,Unit 12 Liberty Way,,Nuneaton,Janice Hull Cakes,Retailers - other,4613,0,,535056,0,,52.51991300000000,98153,318,carl.jacobs@nuneatonandbedworth.gov.uk,Nuneaton and Bedworth,http://www.nuneatonandbedworth.gov.uk,-1.44421900000000,CV11 6RZ,2013-03-13,fhrs_5_en-GB,5,,FHRS,0
338541,,,,,Japanese Noodle Bar,Mobile caterer,7846,5,,572067,0,,,98527,318,carl.jacobs@nuneatonandbedworth.gov.uk,Nuneaton and Bedworth,http://www.nuneatonandbedworth.gov.uk,,,2013-06-20,fhrs_5_en-GB,5,,FHRS,0
338542,,4 The Green,,Nuneaton,Jasmine,Takeaway/sandwich shop,7844,5,,235196,5,,52.51285400000000,50612,318,carl.jacobs@nuneatonandbedworth.gov.uk,Nuneaton and Bedworth,http://www.nuneatonandbedworth.gov.uk,-1.45525700000000,CV11 4JZ,2014-07-09,fhrs_5_en-GB,5,,FHRS,5
338543,,1-3 Hickman Road,,Nuneaton,Jay Convenience Store,Retailers - other,4613,0,,629818,0,,52.52455700000000,48076,318,carl.jacobs@nuneatonandbedworth.gov.uk,Nuneaton and Bedworth,http://www.nuneatonandbedworth.gov.uk,-1.53729700000000,CV10 9NQ,2013-07-05,fhrs_4_en-GB,4,,FHRS,10
338544,,199 Edward Street,,Nuneaton,Jay Supermarket,Retailers - other,4613,5,,451633,5,,52.51787300000000,47457,318,carl.jacobs@nuneatonandbedworth.gov.uk,Nuneaton and Bedworth,http://www.nuneatonandbedworth.gov.uk,-1.46972500000000,CV11 5QU,2012-12-11,fhrs_5_en-GB,5,,FHRS,5
338545,,86 Bulkington Road,,Bedworth,Jean Food & Wine,Retailers - other,4613,10,,235290,10,,52.47893400000000,45976,318,carl.jacobs@nuneatonandbedworth.gov.uk,Nuneaton and Bedworth,http://www.nuneatonandbedworth.gov.uk,-1.46315500000000,CV12 9DR,2014-01-29,fhrs_2_en-GB,2,,FHRS,15
338546,,Whitacre Road,,Nuneaton,Jennys,Mobile caterer,7846,5,,460360,0,,52.52314000000000,49086,318,carl.jacobs@nuneatonandbedworth.gov.uk,Nuneaton and Bedworth,http://www.nuneatonandbedworth.gov.uk,-1.45222000000000,,2014-04-04,fhrs_4_en-GB,4,,FHRS,10
338547,"Unit 3, Bus Station",Harefield Road,,Nuneaton,Jenny's Restaurant,Restaurant/Cafe/Canteen,1,5,,235292,5,,52.52402800000000,44897,318,carl.jacobs@nuneatonandbedworth.gov.uk,Nuneaton and Bedworth,http://www.nuneatonandbedworth.gov.uk,-1.46716000000000,CV11 4HB,2014-04-25,fhrs_5_en-GB,5,,FHRS,5
338548,,2 Manor Court Avenue,,Nuneaton,Jephson Bistro,Hospitals/Childcare/Caring Premises,5,0,,235247,5,,52.52699700000000,75333,318,carl.jacobs@nuneatonandbedworth.gov.uk,Nuneaton and Bedworth,http://www.nuneatonandbedworth.gov.uk,-1.47772200000000,CV11 5HX,2014-06-25,fhrs_5_en-GB,5,,FHRS,0
338549,,,,,Jero Delights,Mobile caterer,7846,5,,460378,0,,,97189,318,carl.jacobs@nuneatonandbedworth.gov.uk,Nuneaton and Bedworth,http://www.nuneatonandbedworth.gov.uk,,,2012-10-02,fhrs_4_en-GB,4,,FHRS,10
338550,,1 Camp Hill Road,,Camp Hill,Jesvic,Retailers - supermarkets/hypermarkets,7840,5,,565631,0,,52.53686000000000,44529,318,carl.jacobs@nuneatonandbedworth.gov.uk,Nuneaton and Bedworth,http://www.nuneatonandbedworth.gov.uk,-1.51611500000000,CV10 0JP,2013-06-11,fhrs_4_en-GB,4,,FHRS,10
338551,,9 Leicester Street,,Bedworth,Jiffy for Sweet,Retailers - other,4613,5,,650298,5,,52.48110800000000,46306,318,carl.jacobs@nuneatonandbedworth.gov.uk,Nuneaton and Bedworth,http://www.nuneatonandbedworth.gov.uk,-1.47264100000000,CV12 8JP,2014-03-24,fhrs_5_en-GB,5,,FHRS,5
338552,,26 Lutterworth Road,,Nuneaton,Jim's Fish Bar,Takeaway/sandwich shop,7844,10,,235278,10,,52.51266700000000,45036,318,carl.jacobs@nuneatonandbedworth.gov.uk,Nuneaton and Bedworth,http://www.nuneatonandbedworth.gov.uk,-1.45383000000000,CV11 4LD,2014-07-03,fhrs_3_en-GB,3,,FHRS,5
338553,,48 King Street,,Bedworth,Jojos Bistro,Takeaway/sandwich shop,7844,5,,235210,10,,52.47962600000000,46247,318,carl.jacobs@nuneatonandbedworth.gov.uk,Nuneaton and Bedworth,http://www.nuneatonandbedworth.gov.uk,-1.47108300000000,CV12 8JA,2013-08-02,fhrs_4_en-GB,4,,FHRS,5
338554,,,,,Josies Candy Corner,Retailers - other,4613,10,,429133,5,,,34119,318,carl.jacobs@nuneatonandbedworth.gov.uk,Nuneaton and Bedworth,http://www.nuneatonandbedworth.gov.uk,,,2011-07-29,fhrs_4_en-GB,4,,FHRS,5
338555,Site 127a003,44 Coventry Road,,Exhall,JP's Kitchen,Mobile caterer,7846,5,,718049,5,,52.46139400000000,64652,318,carl.jacobs@nuneatonandbedworth.gov.uk,Nuneaton and Bedworth,http://www.nuneatonandbedworth.gov.uk,-1.48319400000000,CV7 9FU,2014-10-10,fhrs_5_en-GB,5,,FHRS,5
338556,,,,,June's Homemade Produce,Retailers - other,4613,,,582736,,,,49037,318,carl.jacobs@nuneatonandbedworth.gov.uk,Nuneaton and Bedworth,http://www.nuneatonandbedworth.gov.uk,,,2013-10-16,fhrs_5_en-GB,5,,FHRS,
338557,,,,,Just Cakes by Angela Watson,Retailers - other,4613,5,,728945,5,,,99048,318,carl.jacobs@nuneatonandbedworth.gov.uk,Nuneaton and Bedworth,http://www.nuneatonandbedworth.gov.uk,,,2014-11-20,fhrs_5_en-GB,5,,FHRS,0
338558,,,,,K & P Morning Japanese Mobile,Mobile caterer,7846,5,,572064,0,,,98524,318,carl.jacobs@nuneatonandbedworth.gov.uk,Nuneaton and Bedworth,http://www.nuneatonandbedworth.gov.uk,,,2013-06-20,fhrs_5_en-GB,5,,FHRS,0
338559,,,,,K & P Morning Thai/Chinese Mobile,Mobile caterer,7846,5,,572065,0,,,98525,318,carl.jacobs@nuneatonandbedworth.gov.uk,Nuneaton and Bedworth,http://www.nuneatonandbedworth.gov.uk,,,2013-06-20,fhrs_5_en-GB,5,,FHRS,0
338560,,,,,Kake Couture,Retailers - other,4613,5,,638709,5,,,24308,318,carl.jacobs@nuneatonandbedworth.gov.uk,Nuneaton and Bedworth,http://www.nuneatonandbedworth.gov.uk,,,2014-02-25,fhrs_5_en-GB,5,,FHRS,0
338561,,,,,Kam's Kitchen,Manufacturers/packers,7839,5,,638713,5,,,50697,318,carl.jacobs@nuneatonandbedworth.gov.uk,Nuneaton and Bedworth,http://www.nuneatonandbedworth.gov.uk,,,2013-08-30,fhrs_5_en-GB,5,,FHRS,5
338562,,34 Church Street,,Nuneaton,Karen's Kabin,Restaurant/Cafe/Canteen,1,5,,235156,0,,52.52191400000000,44583,318,carl.jacobs@nuneatonandbedworth.gov.uk,Nuneaton and Bedworth,http://www.nuneatonandbedworth.gov.uk,-1.46479800000000,CV11 4AS,2013-06-18,fhrs_4_en-GB,4,,FHRS,10
338563,,,,,Kathy's Catering,Restaurant/Cafe/Canteen,1,5,,726251,5,,,173319,318,carl.jacobs@nuneatonandbedworth.gov.uk,Nuneaton and Bedworth,http://www.nuneatonandbedworth.gov.uk,,,2014-12-11,fhrs_5_en-GB,5,,FHRS,5
338564,,8a The Square,,Nuneaton,Kelly's Bar,Pub/bar/nightclub,7843,10,,429175,5,,52.51327900000000,60163,318,carl.jacobs@nuneatonandbedworth.gov.uk,Nuneaton and Bedworth,http://www.nuneatonandbedworth.gov.uk,-1.45585500000000,CV11 4JY,2013-07-10,fhrs_2_en-GB,2,,FHRS,15
338565,Kfc,St Davids Way,,Nuneaton,Kentucky Fried Chicken,Takeaway/sandwich shop,7844,0,,429182,5,,52.49889000000000,61409,318,carl.jacobs@nuneatonandbedworth.gov.uk,Nuneaton and Bedworth,http://www.nuneatonandbedworth.gov.uk,-1.48067700000000,CV10 7RG,2014-07-11,fhrs_5_en-GB,5,,FHRS,0
338566,,Grove Lane,,Keresley End,Keresley Newlands School,School/college/university,7845,5,,235266,0,,52.46389600000000,46165,318,carl.jacobs@nuneatonandbedworth.gov.uk,Nuneaton and Bedworth,http://www.nuneatonandbedworth.gov.uk,-1.53585800000000,CV7 8JZ,2013-05-21,fhrs_5_en-GB,5,,FHRS,5
338567,,4 Rathbone Close,,Keresley End,Keresley News,Retailers - other,4613,5,,235343,5,,52.46133200000000,46483,318,carl.jacobs@nuneatonandbedworth.gov.uk,Nuneaton and Bedworth,http://www.nuneatonandbedworth.gov.uk,-1.53086600000000,CV7 8LD,2013-07-11,fhrs_4_en-GB,4,,FHRS,10
338568,,,,,Kerry's Cakes & Treats,Retailers - other,4613,0,,735282,0,,,102775,318,carl.jacobs@nuneatonandbedworth.gov.uk,Nuneaton and Bedworth,http://www.nuneatonandbedworth.gov.uk,,,2015-02-05,fhrs_5_en-GB,5,,FHRS,5
338569,,,,,Kev's Whippy,Mobile caterer,7846,0,,235311,5,,,64120,318,carl.jacobs@nuneatonandbedworth.gov.uk,Nuneaton and Bedworth,http://www.nuneatonandbedworth.gov.uk,,,2014-07-08,fhrs_5_en-GB,5,,FHRS,5
338570,KFC,Weddington Road,,Nuneaton,KFC,Restaurant/Cafe/Canteen,1,0,,619649,5,,,47530,318,carl.jacobs@nuneatonandbedworth.gov.uk,Nuneaton and Bedworth,http://www.nuneatonandbedworth.gov.uk,,CV10 0AR,2013-12-04,fhrs_5_en-GB,5,,FHRS,0
338571,,120 Edward Street,,Nuneaton,Khair in the Community,Other catering premises,7841,5,,429173,5,,52.51911900000000,51055,318,carl.jacobs@nuneatonandbedworth.gov.uk,Nuneaton and Bedworth,http://www.nuneatonandbedworth.gov.uk,-1.47094800000000,CV11 5RD,2014-03-31,fhrs_5_en-GB,5,,FHRS,5
338572,"Unit 15, Chilvers Coton Craft Centre",Avenue Road,,Nuneaton,Kim's Cake Box,Retailers - other,4613,0,,572059,0,,52.51433800000000,95853,318,carl.jacobs@nuneatonandbedworth.gov.uk,Nuneaton and Bedworth,http://www.nuneatonandbedworth.gov.uk,-1.46540600000000,CV11 4LU,2013-05-17,fhrs_5_en-GB,5,,FHRS,0
338573,,,,,Kims Cakes,Retailers - other,4613,10,,619652,5,,,98875,318,carl.jacobs@nuneatonandbedworth.gov.uk,Nuneaton and Bedworth,http://www.nuneatonandbedworth.gov.uk,,,2013-12-09,fhrs_4_en-GB,4,,FHRS,5
338574,,2 King Street,,Bedworth,Kings Bakery and Cafe,Restaurant/Cafe/Canteen,1,20,,235289,15,,52.47962900000000,48291,318,carl.jacobs@nuneatonandbedworth.gov.uk,Nuneaton and Bedworth,http://www.nuneatonandbedworth.gov.uk,-1.47176000000000,CV12 8HT,2015-01-14,fhrs_1_en-GB,1,,FHRS,10
338575,"Unit 1, Kingswood Gardens",Kingswood Road,,Nuneaton,Kings Fish Bar,Takeaway/sandwich shop,7844,20,,429156,0,,52.52107000000000,47013,318,carl.jacobs@nuneatonandbedworth.gov.uk,Nuneaton and Bedworth,http://www.nuneatonandbedworth.gov.uk,-1.51730500000000,CV10 8QH,2013-10-01,fhrs_1_en-GB,1,,FHRS,5
338576,,68-70 Midland Road,,Nuneaton,La Tavola Calda,Restaurant/Cafe/Canteen,1,5,,460358,5,,52.52803800000000,47485,318,carl.jacobs@nuneatonandbedworth.gov.uk,Nuneaton and Bedworth,http://www.nuneatonandbedworth.gov.uk,-1.47726800000000,CV11 5DY,2014-07-04,fhrs_5_en-GB,5,,FHRS,5
338577,,St Davids Way,,Nuneaton,Lakeside Superbowl,Restaurant/Cafe/Canteen,1,10,,235129,5,,52.49688600000000,61925,318,carl.jacobs@nuneatonandbedworth.gov.uk,Nuneaton and Bedworth,http://www.nuneatonandbedworth.gov.uk,-1.47681200000000,CV10 7SD,2013-08-27,fhrs_3_en-GB,3,,FHRS,10
338578,Lamb And Flag,Church Road,,Nuneaton,Lamb & Flag Inn,Pub/bar/nightclub,7843,5,,362149,0,,52.52204800000000,44578,318,carl.jacobs@nuneatonandbedworth.gov.uk,Nuneaton and Bedworth,http://www.nuneatonandbedworth.gov.uk,-1.50817100000000,CV10 8LJ,2014-04-10,fhrs_4_en-GB,4,,FHRS,10
338579,,73-79 Tresillian Road,,Exhall,Larchbank Supermarket,Retailers - other,4613,10,,510297,0,,52.46944600000000,47684,318,carl.jacobs@nuneatonandbedworth.gov.uk,Nuneaton and Bedworth,http://www.nuneatonandbedworth.gov.uk,-1.47638700000000,CV7 9PP,2013-01-24,fhrs_4_en-GB,4,,FHRS,10
338580,,199 Camp Hill Road,,Camp Hill,Le Raj,Takeaway/sandwich shop,7844,10,,485184,5,,52.53630200000000,47442,318,carl.jacobs@nuneatonandbedworth.gov.uk,Nuneaton and Bedworth,http://www.nuneatonandbedworth.gov.uk,-1.51156500000000,CV10 0JR,2014-05-02,fhrs_3_en-GB,3,,FHRS,10
338581,George Eliot Hospital,College Street,,Nuneaton,League of Friends Main Corridor & Maternity,Restaurant/Cafe/Canteen,1,,,565648,,,52.51200900000000,74026,318,carl.jacobs@nuneatonandbedworth.gov.uk,Nuneaton and Bedworth,http://www.nuneatonandbedworth.gov.uk,-1.47514400000000,CV10 7DJ,2013-06-26,fhrs_4_en-GB,4,,FHRS,
338582,,40 Leicester Street,,Bulkington,Lee Garden,Takeaway/sandwich shop,7844,20,,235314,5,,52.47601200000000,46326,318,carl.jacobs@nuneatonandbedworth.gov.uk,Nuneaton and Bedworth,http://www.nuneatonandbedworth.gov.uk,-1.42472000000000,CV12 9NG,2014-08-07,fhrs_1_en-GB,1,,FHRS,10
338583,,24 Newdegate Street,,Nuneaton,Leonardo's,Restaurant/Cafe/Canteen,1,5,,235206,5,,52.52355800000000,50380,318,carl.jacobs@nuneatonandbedworth.gov.uk,Nuneaton and Bedworth,http://www.nuneatonandbedworth.gov.uk,-1.46642900000000,CV11 4EU,2014-04-03,fhrs_5_en-GB,5,,FHRS,5
338584,Wickes,Weddington Road,,Nuneaton,Licence to Grill - mobile food,Mobile caterer,7846,5,,565653,5,,52.52747500000000,98482,318,carl.jacobs@nuneatonandbedworth.gov.uk,Nuneaton and Bedworth,http://www.nuneatonandbedworth.gov.uk,-1.46185600000000,CV10 0AD,2013-07-01,fhrs_5_en-GB,5,,FHRS,5
338585,Lidl UK,Queens Road,,Nuneaton,Lidl UK,Retailers - supermarkets/hypermarkets,7840,0,,638714,0,,52.52232500000000,92453,318,carl.jacobs@nuneatonandbedworth.gov.uk,Nuneaton and Bedworth,http://www.nuneatonandbedworth.gov.uk,-1.47617100000000,CV11 5LD,2014-07-21,fhrs_5_en-GB,5,,FHRS,0
338586,Bedworth Christian Centre,17a Bulkington Road,,Bedworth,Life Church,Other catering premises,7841,0,,664269,0,,52.47869300000000,49066,318,carl.jacobs@nuneatonandbedworth.gov.uk,Nuneaton and Bedworth,http://www.nuneatonandbedworth.gov.uk,-1.46554300000000,CV12 9DG,2013-09-19,fhrs_5_en-GB,5,,FHRS,0
338587,,,,,Lisa's Cake Delights,Retailers - other,4613,5,,485188,0,,,97206,318,carl.jacobs@nuneatonandbedworth.gov.uk,Nuneaton and Bedworth,http://www.nuneatonandbedworth.gov.uk,,,2012-10-22,fhrs_5_en-GB,5,,FHRS,0
338588,Longlea Residential Home,113 The Long Shoot,,Nuneaton,Long Lea,Hospitals/Childcare/Caring Premises,5,0,,235271,0,,52.53000200000000,47218,318,carl.jacobs@nuneatonandbedworth.gov.uk,Nuneaton and Bedworth,http://www.nuneatonandbedworth.gov.uk,-1.42946900000000,CV11 6JG,2014-05-29,fhrs_5_en-GB,5,,FHRS,5
338589,,,,,Lovely Donuts,Mobile caterer,7846,0,,657427,0,,,99399,318,carl.jacobs@nuneatonandbedworth.gov.uk,Nuneaton and Bedworth,http://www.nuneatonandbedworth.gov.uk,,,2014-05-29,fhrs_5_en-GB,5,,FHRS,5
338590,,,,,Lucky Sixpence,Retailers - other,4613,10,,582731,5,,,21440,318,carl.jacobs@nuneatonandbedworth.gov.uk,Nuneaton and Bedworth,http://www.nuneatonandbedworth.gov.uk,,,2013-07-25,fhrs_4_en-GB,4,,FHRS,0
338591,,,,,LuRi Macarons,Other catering premises,7841,5,,726252,0,,,42781,318,carl.jacobs@nuneatonandbedworth.gov.uk,Nuneaton and Bedworth,http://www.nuneatonandbedworth.gov.uk,,,2014-11-13,fhrs_5_en-GB,5,,FHRS,5
338592,,132 Queens Road,,Nuneaton,M P Superstore,Retailers - other,4613,10,,235166,0,,52.52200300000000,47494,318,carl.jacobs@nuneatonandbedworth.gov.uk,Nuneaton and Bedworth,http://www.nuneatonandbedworth.gov.uk,-1.47664700000000,CV11 5LG,2014-02-25,fhrs_2_en-GB,2,,FHRS,15
338593,,11 Rathbone Close,,Keresley End,Madhatter Chatterbox Cafe,Restaurant/Cafe/Canteen,1,10,,629825,5,,52.46133200000000,89193,318,carl.jacobs@nuneatonandbedworth.gov.uk,Nuneaton and Bedworth,http://www.nuneatonandbedworth.gov.uk,-1.53086600000000,CV7 8LD,2013-11-12,fhrs_3_en-GB,3,,FHRS,10
338594,,213 Edward Street,,Nuneaton,Maks,Takeaway/sandwich shop,7844,5,,235286,5,,52.51671100000000,47459,318,carl.jacobs@nuneatonandbedworth.gov.uk,Nuneaton and Bedworth,http://www.nuneatonandbedworth.gov.uk,-1.46923800000000,CV11 5RP,2014-07-03,fhrs_4_en-GB,4,,FHRS,10
338595,,Leicester Road,,Bedworth,Manley House,Takeaway/sandwich shop,7844,5,,235218,10,,52.48452800000000,61258,318,carl.jacobs@nuneatonandbedworth.gov.uk,Nuneaton and Bedworth,http://www.nuneatonandbedworth.gov.uk,-1.47363100000000,CV12 8AH,2014-10-24,fhrs_3_en-GB,3,,FHRS,10
338596,,Manor Court Road,,Nuneaton,Manor Court Residential Home,Hospitals/Childcare/Caring Premises,5,5,,362157,5,,52.52725800000000,45061,318,carl.jacobs@nuneatonandbedworth.gov.uk,Nuneaton and Bedworth,http://www.nuneatonandbedworth.gov.uk,-1.47578800000000,CV11 5HY,2013-10-02,fhrs_5_en-GB,5,,FHRS,0
338597,,18-20 Manor Court Road,,Nuneaton,Manor Court Road Post Office,Retailers - other,4613,10,,362186,5,,52.52647400000000,47677,318,carl.jacobs@nuneatonandbedworth.gov.uk,Nuneaton and Bedworth,http://www.nuneatonandbedworth.gov.uk,-1.47736000000000,CV11 5HU,2014-03-20,fhrs_4_en-GB,4,,FHRS,5
338598,Site 39c001 - Manor Court Avenue,Manor Court Avenue,,Nuneaton,Manor Hospital Site,Hospitals/Childcare/Caring Premises,5,0,,726254,0,,,72302,318,carl.jacobs@nuneatonandbedworth.gov.uk,Nuneaton and Bedworth,http://www.nuneatonandbedworth.gov.uk,,,2014-09-24,fhrs_5_en-GB,5,,FHRS,0
338599,,190 Weddington Road,,Nuneaton,Marks Fruits Roots and Blooms,Retailers - other,4613,10,,701893,10,,52.53305900000000,45642,318,carl.jacobs@nuneatonandbedworth.gov.uk,Nuneaton and Bedworth,http://www.nuneatonandbedworth.gov.uk,-1.46618100000000,CV10 0EJ,2014-08-29,fhrs_2_en-GB,2,,FHRS,15
338600,Mary Ann Evans Hospice,Eliot Way,,Nuneaton,Mary Ann Evans Hospice,Hospitals/Childcare/Caring Premises,5,5,,582737,5,,52.51189800000000,50652,318,carl.jacobs@nuneatonandbedworth.gov.uk,Nuneaton and Bedworth,http://www.nuneatonandbedworth.gov.uk,-1.47866700000000,CV10 7QL,2013-08-29,fhrs_5_en-GB,5,,FHRS,5
338601,,66 Queens Road,,Nuneaton,Masalaz,Restaurant/Cafe/Canteen,1,10,,235285,10,,52.52224000000000,45316,318,carl.jacobs@nuneatonandbedworth.gov.uk,Nuneaton and Bedworth,http://www.nuneatonandbedworth.gov.uk,-1.47334200000000,CV11 5JZ,2013-11-28,fhrs_3_en-GB,3,,FHRS,10
338602,,3 Blackhorse Road,,Exhall,Masie Daycare,Hospitals/Childcare/Caring Premises,5,10,,718050,5,,52.46099000000000,69359,318,carl.jacobs@nuneatonandbedworth.gov.uk,Nuneaton and Bedworth,http://www.nuneatonandbedworth.gov.uk,-1.48127000000000,CV7 9FW,2014-10-01,fhrs_2_en-GB,2,,FHRS,15
338603,,12 Newdegate Place,,Nuneaton,Masonic Bldgs (Nuneaton) Ltd,Pub/bar/nightclub,7843,10,,629820,0,,52.52376500000000,60658,318,carl.jacobs@nuneatonandbedworth.gov.uk,Nuneaton and Bedworth,http://www.nuneatonandbedworth.gov.uk,-1.46666200000000,CV11 4EZ,2014-10-07,fhrs_4_en-GB,4,,FHRS,0
338604,,9 Coventry Street,,Nuneaton,Masons,Restaurant/Cafe/Canteen,1,5,,429180,10,,52.52227900000000,61029,318,carl.jacobs@nuneatonandbedworth.gov.uk,Nuneaton and Bedworth,http://www.nuneatonandbedworth.gov.uk,-1.46796200000000,CV11 5TD,2014-01-30,fhrs_3_en-GB,3,,FHRS,10
338605,,Nuneaton Market,,Nuneaton,Masters Bakery (S & W),Mobile caterer,7846,5,,429172,10,,52.54982800000000,50360,318,carl.jacobs@nuneatonandbedworth.gov.uk,Nuneaton and Bedworth,http://www.nuneatonandbedworth.gov.uk,-1.44227000000000,,2012-01-18,fhrs_4_en-GB,4,,FHRS,0
338606,,20 Queens Road,,Nuneaton,Mcdonald's,Takeaway/sandwich shop,7844,0,,362162,5,,52.52246400000000,45283,318,carl.jacobs@nuneatonandbedworth.gov.uk,Nuneaton and Bedworth,http://www.nuneatonandbedworth.gov.uk,-1.46905100000000,CV11 5JW,2014-07-21,fhrs_5_en-GB,5,,FHRS,5
338607,"Drivethru, Bermuda Park",St Davids Way,,Nuneaton,McDonalds Restaurants Ltd,Takeaway/sandwich shop,7844,0,,362196,0,,52.49688600000000,60892,318,carl.jacobs@nuneatonandbedworth.gov.uk,Nuneaton and Bedworth,http://www.nuneatonandbedworth.gov.uk,-1.47681200000000,CV10 7SD,2014-07-03,fhrs_5_en-GB,5,,FHRS,0
338608,,Edward Street,,Nuneaton,McIndians Food Express,Mobile caterer,7846,5,,235112,10,,52.51717500000000,73480,318,carl.jacobs@nuneatonandbedworth.gov.uk,Nuneaton and Bedworth,http://www.nuneatonandbedworth.gov.uk,-1.46936500000000,,2013-01-04,fhrs_4_en-GB,4,,FHRS,5
338609,,,,,McIntyre House Probation Hos.,Hospitals/Childcare/Caring Premises,5,5,,235261,5,,,51108,318,carl.jacobs@nuneatonandbedworth.gov.uk,Nuneaton and Bedworth,http://www.nuneatonandbedworth.gov.uk,,,2015-01-22,fhrs_5_en-GB,5,,FHRS,5
338610,,98 King Street,,Bedworth,Meghna,Takeaway/sandwich shop,7844,20,,235249,20,,52.47904600000000,47565,318,carl.jacobs@nuneatonandbedworth.gov.uk,Nuneaton and Bedworth,http://www.nuneatonandbedworth.gov.uk,-1.46798300000000,CV12 8JF,2014-10-27,fhrs_1_en-GB,1,,FHRS,10
338611,,1 Sherbourne Avenue,,Nuneaton,Midcounties Co-op,Retailers - other,4613,5,,718048,0,,52.52475000000000,48495,318,carl.jacobs@nuneatonandbedworth.gov.uk,Nuneaton and Bedworth,http://www.nuneatonandbedworth.gov.uk,-1.51595300000000,CV10 9JH,2014-10-29,fhrs_4_en-GB,4,,FHRS,10
338612,Co-op,Coventry Road,,Exhall,Midcounties Co-operative,Retailers - supermarkets/hypermarkets,7840,5,,708356,5,,52.46477000000000,46095,318,carl.jacobs@nuneatonandbedworth.gov.uk,Nuneaton and Bedworth,http://www.nuneatonandbedworth.gov.uk,-1.48222700000000,CV7 9EZ,2014-04-02,fhrs_5_en-GB,5,,FHRS,5
338613,Middlemarch County Junior School,College Street,,Nuneaton,Middlemarch Junior School,School/college/university,7845,0,,235268,0,,52.51133800000000,44600,318,carl.jacobs@nuneatonandbedworth.gov.uk,Nuneaton and Bedworth,http://www.nuneatonandbedworth.gov.uk,-1.47183700000000,CV10 7BQ,2014-07-04,fhrs_5_en-GB,5,,FHRS,5
338614,Midland Railway Inn,Whittleford Road,,Nuneaton,Midland Railway,Pub/bar/nightclub,7843,5,,362185,5,,52.52387900000000,47665,318,carl.jacobs@nuneatonandbedworth.gov.uk,Nuneaton and Bedworth,http://www.nuneatonandbedworth.gov.uk,-1.50953600000000,CV10 9HU,2012-03-26,fhrs_5_en-GB,5,,FHRS,5
338615,"The Midland Studio College, Nuneaton Campus",St Davids Way,,Nuneaton,Midland Studio College,Restaurant/Cafe/Canteen,1,5,,235315,5,,52.49649300000000,60939,318,carl.jacobs@nuneatonandbedworth.gov.uk,Nuneaton and Bedworth,http://www.nuneatonandbedworth.gov.uk,-1.48151600000000,CV10 7SG,2013-09-26,fhrs_5_en-GB,5,,FHRS,0
338616,,Milby Drive,,Nuneaton,Milby Primary School,School/college/university,7845,0,,235313,5,,52.54046500000000,44963,318,carl.jacobs@nuneatonandbedworth.gov.uk,Nuneaton and Bedworth,http://www.nuneatonandbedworth.gov.uk,-1.44422500000000,CV11 6JS,2014-07-02,fhrs_5_en-GB,5,,FHRS,5
338617,,8C The Square,,Nuneaton,Millennium Balti,Restaurant/Cafe/Canteen,1,5,,235352,5,,52.51327900000000,47501,318,carl.jacobs@nuneatonandbedworth.gov.uk,Nuneaton and Bedworth,http://www.nuneatonandbedworth.gov.uk,-1.45585500000000,CV11 4JY,2013-08-14,fhrs_5_en-GB,5,,FHRS,5
338618,Milverton House Preparatory School,Holman Way,,Nuneaton,Milverton House School,School/college/university,7845,0,,235270,0,,52.51649600000000,48501,318,carl.jacobs@nuneatonandbedworth.gov.uk,Nuneaton and Bedworth,http://www.nuneatonandbedworth.gov.uk,-1.45758400000000,CV11 4PN,2015-01-14,fhrs_5_en-GB,5,,FHRS,5
338619,Miners Arms,Marston Lane,,Bedworth,Miners Arms,Pub/bar/nightclub,7843,5,,235149,5,,52.48680600000000,47324,318,carl.jacobs@nuneatonandbedworth.gov.uk,Nuneaton and Bedworth,http://www.nuneatonandbedworth.gov.uk,-1.47223400000000,CV12 8DH,2012-01-23,fhrs_4_en-GB,4,,FHRS,10
338620,Miners Arms,Whittleford Road,,Nuneaton,Miners Arms,Pub/bar/nightclub,7843,5,,708357,0,,52.52387900000000,47732,318,carl.jacobs@nuneatonandbedworth.gov.uk,Nuneaton and Bedworth,http://www.nuneatonandbedworth.gov.uk,-1.50953600000000,CV10 9HU,2014-09-25,fhrs_5_en-GB,5,,FHRS,0
338621,,31 Rugby Road,,Bulkington,Mini Mart,Retailers - other,4613,10,,362173,10,,52.47690800000000,46492,318,carl.jacobs@nuneatonandbedworth.gov.uk,Nuneaton and Bedworth,http://www.nuneatonandbedworth.gov.uk,-1.41865700000000,CV12 9JF,2014-03-13,fhrs_3_en-GB,3,,FHRS,10
338622,,152 Church Road,,Nuneaton,MJ Supermarket,Retailers - other,4613,5,,235251,0,,52.52209600000000,47448,318,carl.jacobs@nuneatonandbedworth.gov.uk,Nuneaton and Bedworth,http://www.nuneatonandbedworth.gov.uk,-1.50876000000000,CV10 8LH,2014-01-22,fhrs_2_en-GB,2,,FHRS,15
338623,,2-4 Tomkinson Road,,Nuneaton,Morgans Plaice,Takeaway/sandwich shop,7844,10,,384905,10,,52.52169100000000,47506,318,carl.jacobs@nuneatonandbedworth.gov.uk,Nuneaton and Bedworth,http://www.nuneatonandbedworth.gov.uk,-1.48537500000000,CV10 8BH,2013-12-13,fhrs_3_en-GB,3,,FHRS,5
338624,,61-63 Mount Pleasant Road,,Bedworth,Mount Store Ltd.,Retailers - other,4613,10,,629812,0,,52.48476000000000,46393,318,carl.jacobs@nuneatonandbedworth.gov.uk,Nuneaton and Bedworth,http://www.nuneatonandbedworth.gov.uk,-1.48124100000000,CV12 8HA,2013-03-13,fhrs_4_en-GB,4,,FHRS,5
338625,,191 Heath End Road,,Nuneaton,Mrs Beale's,Takeaway/sandwich shop,7844,,,384901,,,52.51317500000000,44939,318,carl.jacobs@nuneatonandbedworth.gov.uk,Nuneaton and Bedworth,http://www.nuneatonandbedworth.gov.uk,-1.48282200000000,CV10 7JB,2014-06-10,fhrs_5_en-GB,5,,FHRS,
338626,,2 The Square,,Nuneaton,Mrs Parkers,Takeaway/sandwich shop,7844,0,,429147,5,,52.51327900000000,45512,318,carl.jacobs@nuneatonandbedworth.gov.uk,Nuneaton and Bedworth,http://www.nuneatonandbedworth.gov.uk,-1.45585500000000,CV11 4JY,2014-12-01,fhrs_5_en-GB,5,,FHRS,5
338627,Old Black Bank Inn,Black Bank,,Exhall,Mrs T's,Mobile caterer,7846,0,,619650,10,,52.47362100000000,98649,318,carl.jacobs@nuneatonandbedworth.gov.uk,Nuneaton and Bedworth,http://www.nuneatonandbedworth.gov.uk,-1.47711700000000,CV7 9NY,2013-12-06,fhrs_4_en-GB,4,,FHRS,0
338628,,,,,Muddy Roots,Mobile caterer,7846,0,,451624,5,,,28920,318,carl.jacobs@nuneatonandbedworth.gov.uk,Nuneaton and Bedworth,http://www.nuneatonandbedworth.gov.uk,,,2012-09-12,fhrs_5_en-GB,5,,FHRS,0
338629,"Unit 22, Rope Walk Shopping Ce",Chapel Street,,Nuneaton,Muffin Break,Restaurant/Cafe/Canteen,1,10,,235366,5,,52.52185500000000,73518,318,carl.jacobs@nuneatonandbedworth.gov.uk,Nuneaton and Bedworth,http://www.nuneatonandbedworth.gov.uk,-1.46960400000000,CV11 5TZ,2014-09-23,fhrs_3_en-GB,3,,FHRS,10
338630,"Unit 4, Kingswood Gardens",Kingswood Road,,Nuneaton,Napoli Pizza,Takeaway/sandwich shop,7844,5,,235207,5,,52.52107000000000,60917,318,carl.jacobs@nuneatonandbedworth.gov.uk,Nuneaton and Bedworth,http://www.nuneatonandbedworth.gov.uk,-1.51730500000000,CV10 8QH,2014-09-24,fhrs_5_en-GB,5,,FHRS,5
338631,,7 Abbey Green,,Nuneaton,Neelams Indian Takeaway,Takeaway/sandwich shop,7844,5,,235364,10,,52.52720200000000,44235,318,carl.jacobs@nuneatonandbedworth.gov.uk,Nuneaton and Bedworth,http://www.nuneatonandbedworth.gov.uk,-1.47514000000000,CV11 5DR,2014-06-20,fhrs_4_en-GB,4,,FHRS,5
338632,Street Record,Pool Road,,Nuneaton,Nets Nibbles Mobile,Mobile caterer,7846,5,,582741,10,,,98588,318,carl.jacobs@nuneatonandbedworth.gov.uk,Nuneaton and Bedworth,http://www.nuneatonandbedworth.gov.uk,,,2013-08-05,fhrs_3_en-GB,3,,FHRS,10
338633,,22 Harefield Road,,Nuneaton,New Fryways,Restaurant/Cafe/Canteen,1,10,,235265,15,,52.52416700000000,61063,318,carl.jacobs@nuneatonandbedworth.gov.uk,Nuneaton and Bedworth,http://www.nuneatonandbedworth.gov.uk,-1.46799900000000,CV11 4HH,2013-11-26,fhrs_2_en-GB,2,,FHRS,5
338634,New Inn,Rugby Road,,Bulkington,New Inn,Pub/bar/nightclub,7843,5,,235335,5,,52.47690800000000,47452,318,carl.jacobs@nuneatonandbedworth.gov.uk,Nuneaton and Bedworth,http://www.nuneatonandbedworth.gov.uk,-1.41865700000000,CV12 9JF,2013-03-04,fhrs_5_en-GB,5,,FHRS,5
338635,,242 Croft Road,,Nuneaton,New Ocean Takeaway,Takeaway/sandwich shop,7844,20,,460346,10,,52.51736600000000,44684,318,carl.jacobs@nuneatonandbedworth.gov.uk,Nuneaton and Bedworth,http://www.nuneatonandbedworth.gov.uk,-1.48949300000000,CV10 7DP,2014-05-01,fhrs_1_en-GB,1,,FHRS,10
338636,4-6 Oakley Court,Pheasant Close,,Bedworth,Newdegate Stores,Retailers - other,4613,10,,629813,10,,52.47379200000000,46456,318,carl.jacobs@nuneatonandbedworth.gov.uk,Nuneaton and Bedworth,http://www.nuneatonandbedworth.gov.uk,-1.50645700000000,CV12 0EQ,2014-03-21,fhrs_3_en-GB,3,,FHRS,10
338637,,Anderton Road,,Bedworth,Newdigate Neighbourhood Nursery,Hospitals/Childcare/Caring Premises,5,0,,235324,0,,52.47451200000000,64121,318,carl.jacobs@nuneatonandbedworth.gov.uk,Nuneaton and Bedworth,http://www.nuneatonandbedworth.gov.uk,-1.50890700000000,CV12 0HA,2013-09-20,fhrs_5_en-GB,5,,FHRS,5
338638,Newdigate Primary School,Anderton Road,,Bedworth,Newdigate Primary School,School/college/university,7845,5,,362168,5,,52.47451200000000,45762,318,carl.jacobs@nuneatonandbedworth.gov.uk,Nuneaton and Bedworth,http://www.nuneatonandbedworth.gov.uk,-1.50890700000000,CV12 0HA,2014-05-13,fhrs_5_en-GB,5,,FHRS,5
338639,,11 Newtown Road,,Bedworth,News Plus Local Stores,Retailers - other,4613,0,,629816,0,,52.48022800000000,47576,318,carl.jacobs@nuneatonandbedworth.gov.uk,Nuneaton and Bedworth,http://www.nuneatonandbedworth.gov.uk,-1.47705400000000,CV12 8QB,2014-01-23,fhrs_5_en-GB,5,,FHRS,5
338640,Nicholas Chamberlaine Comprehensive School,Bulkington Road,,Bedworth,Nicholas Chamberlaine School,School/college/university,7845,0,,235337,0,,52.47966300000000,45999,318,carl.jacobs@nuneatonandbedworth.gov.uk,Nuneaton and Bedworth,http://www.nuneatonandbedworth.gov.uk,-1.45937700000000,CV12 9EA,2014-07-04,fhrs_5_en-GB,5,,FHRS,5
338641,,,,,Niknoknooscakery,Retailers - other,4613,0,,629808,0,,,29303,318,carl.jacobs@nuneatonandbedworth.gov.uk,Nuneaton and Bedworth,http://www.nuneatonandbedworth.gov.uk,,,2013-07-24,fhrs_5_en-GB,5,,FHRS,0
338642,Bedworth Christian Centre,17a Bulkington Road,,Bedworth,Noah's Ark PreSchool & Creche,Hospitals/Childcare/Caring Premises,5,0,,664267,0,,52.47869300000000,172830,318,carl.jacobs@nuneatonandbedworth.gov.uk,Nuneaton and Bedworth,http://www.nuneatonandbedworth.gov.uk,-1.46554300000000,CV12 9DG,2014-05-13,fhrs_5_en-GB,5,,FHRS,0
338643,,Caldwell Road,,Nuneaton,Nobby's Nosh (Mobile),Mobile caterer,7846,10,,701890,0,,52.51226500000000,173040,318,carl.jacobs@nuneatonandbedworth.gov.uk,Nuneaton and Bedworth,http://www.nuneatonandbedworth.gov.uk,-1.46379100000000,,2014-08-18,fhrs_4_en-GB,4,,FHRS,5
338644,,15-17 Webb Street,,Nuneaton,Noble Grange,Hospitals/Childcare/Caring Premises,5,0,,664268,0,,52.51751100000000,45631,318,carl.jacobs@nuneatonandbedworth.gov.uk,Nuneaton and Bedworth,http://www.nuneatonandbedworth.gov.uk,-1.50676300000000,CV10 8JG,2014-05-02,fhrs_5_en-GB,5,,FHRS,0
338645,,Hinckley Road,,Nuneaton,North Warks & Hinckley College,School/college/university,7845,0,,429138,10,,52.53030500000000,44971,318,carl.jacobs@nuneatonandbedworth.gov.uk,Nuneaton and Bedworth,http://www.nuneatonandbedworth.gov.uk,-1.44985200000000,CV11 6BH,2013-12-09,fhrs_4_en-GB,4,,FHRS,5
338646,St Davids Way,St Davids Way,,Nuneaton,Nuffield Health,Restaurant/Cafe/Canteen,1,5,,460365,10,,52.49649300000000,61646,318,carl.jacobs@nuneatonandbedworth.gov.uk,Nuneaton and Bedworth,http://www.nuneatonandbedworth.gov.uk,-1.48151600000000,CV10 7SG,2014-11-12,fhrs_3_en-GB,3,,FHRS,10
338647,W R V S Nuneaton Club,Newtown Road,,Nuneaton,Nuneaton & Bedworth Healthy Living Network,Restaurant/Cafe/Canteen,1,5,,235222,0,,52.52482100000000,45164,318,carl.jacobs@nuneatonandbedworth.gov.uk,Nuneaton and Bedworth,http://www.nuneatonandbedworth.gov.uk,-1.46550000000000,CV11 4HG,2014-11-12,fhrs_4_en-GB,4,,FHRS,10
338648,Wembrook Community Centre,Donnithorne Avenue,,Nuneaton,Nuneaton & Bedworth Healthy Living Network,Restaurant/Cafe/Canteen,1,5,,551788,0,,52.50686300000000,98322,318,carl.jacobs@nuneatonandbedworth.gov.uk,Nuneaton and Bedworth,http://www.nuneatonandbedworth.gov.uk,-1.45846900000000,CV11 4QP,2014-11-17,fhrs_5_en-GB,5,,FHRS,0
338649,,112a Higham Lane,,Nuneaton,Nuneaton Bowling Club,Pub/bar/nightclub,7843,5,,235293,5,,52.53159900000000,44961,318,carl.jacobs@nuneatonandbedworth.gov.uk,Nuneaton and Bedworth,http://www.nuneatonandbedworth.gov.uk,-1.45353600000000,CV11 6AX,2014-07-09,fhrs_5_en-GB,5,,FHRS,5
338650,,Old Hinckley Road,,Nuneaton,Nuneaton Dog Training Club,Restaurant/Cafe/Canteen,1,10,,565634,5,,52.52675900000000,45195,318,carl.jacobs@nuneatonandbedworth.gov.uk,Nuneaton and Bedworth,http://www.nuneatonandbedworth.gov.uk,-1.46077400000000,CV10 0AA,2013-06-26,fhrs_4_en-GB,4,,FHRS,5
338651,Golf Club,Golf Drive,,Nuneaton,Nuneaton Golf Club,Pub/bar/nightclub,7843,0,,235245,0,,52.50845000000000,47649,318,carl.jacobs@nuneatonandbedworth.gov.uk,Nuneaton and Bedworth,http://www.nuneatonandbedworth.gov.uk,-1.42142300000000,CV11 6QF,2013-04-08,fhrs_5_en-GB,5,,FHRS,5
338652,,43 Attleborough Road,,Nuneaton,Nuneaton Off Licence & Grocers,Retailers - other,4613,0,,235246,0,,52.51916100000000,47427,318,carl.jacobs@nuneatonandbedworth.gov.uk,Nuneaton and Bedworth,http://www.nuneatonandbedworth.gov.uk,-1.46026300000000,CV11 4JB,2013-04-11,fhrs_4_en-GB,4,,FHRS,10
338653,Rugby Football Club,Liberty Way,,Nuneaton,Nuneaton Rugby Club,Pub/bar/nightclub,7843,0,,235208,5,,52.52024100000000,60413,318,carl.jacobs@nuneatonandbedworth.gov.uk,Nuneaton and Bedworth,http://www.nuneatonandbedworth.gov.uk,-1.44312500000000,CV11 6RR,2013-05-07,fhrs_5_en-GB,5,,FHRS,5
338654,,Liberty Way,,Nuneaton,Nuneaton Town Football Club,Pub/bar/nightclub,7843,10,,235306,5,,52.52024100000000,89626,318,carl.jacobs@nuneatonandbedworth.gov.uk,Nuneaton and Bedworth,http://www.nuneatonandbedworth.gov.uk,-1.44312500000000,CV11 6RR,2013-11-09,fhrs_3_en-GB,3,,FHRS,10
338655,Oak Wood Secondary School,Morris Drive,,Nuneaton,Oakwood Secondary School,School/college/university,7845,0,,362205,5,,52.51004900000000,74410,318,carl.jacobs@nuneatonandbedworth.gov.uk,Nuneaton and Bedworth,http://www.nuneatonandbedworth.gov.uk,-1.46118500000000,CV11 4QH,2014-03-17,fhrs_5_en-GB,5,,FHRS,0
338656,,12 Oaston Road,,Nuneaton,Oaston Road Convenience Store,Retailers - other,4613,10,,585185,10,,52.52408800000000,65855,318,carl.jacobs@nuneatonandbedworth.gov.uk,Nuneaton and Bedworth,http://www.nuneatonandbedworth.gov.uk,-1.45847800000000,CV11 6JX,2013-08-22,fhrs_2_en-GB,2,,FHRS,15
338657,,14 Wallingford Avenue,,Nuneaton,Occasions Catering,Hospitals/Childcare/Caring Premises,5,5,,429186,5,,52.53643400000000,64137,318,carl.jacobs@nuneatonandbedworth.gov.uk,Nuneaton and Bedworth,http://www.nuneatonandbedworth.gov.uk,-1.44165200000000,CV11 6DQ,2011-11-28,fhrs_5_en-GB,5,,FHRS,5
338658,,,,,Occasions Catering,Hospitals/Childcare/Caring Premises,5,5,,362200,5,,,63385,318,carl.jacobs@nuneatonandbedworth.gov.uk,Nuneaton and Bedworth,http://www.nuneatonandbedworth.gov.uk,,,2012-03-09,fhrs_5_en-GB,5,,FHRS,5
338659,,9 Trafford Drive,,Nuneaton,Ocean Fish Bar,Takeaway/sandwich shop,7844,5,,235229,5,,52.53007300000000,47606,318,carl.jacobs@nuneatonandbedworth.gov.uk,Nuneaton and Bedworth,http://www.nuneatonandbedworth.gov.uk,-1.51399300000000,CV10 9LP,2014-06-19,fhrs_4_en-GB,4,,FHRS,10
338660,,4 Black Bank,,Exhall,Old Black Bank Inn,Pub/bar/nightclub,7843,5,,638711,10,,52.47362100000000,45900,318,carl.jacobs@nuneatonandbedworth.gov.uk,Nuneaton and Bedworth,http://www.nuneatonandbedworth.gov.uk,-1.47711700000000,CV7 9NY,2014-01-30,fhrs_3_en-GB,3,,FHRS,10
338661,Cleaver Squash And Fitness,Weddington Road,,Nuneaton,Old Edwardians R F C,Pub/bar/nightclub,7843,5,,429148,0,,52.53333300000000,45657,318,carl.jacobs@nuneatonandbedworth.gov.uk,Nuneaton and Bedworth,http://www.nuneatonandbedworth.gov.uk,-1.46524900000000,CV10 0HF,2014-11-15,fhrs_5_en-GB,5,,FHRS,5
338662,,89 Leicester Road,,Bedworth,One Stop,Retailers - other,4613,5,,444559,10,,52.48452800000000,61241,318,carl.jacobs@nuneatonandbedworth.gov.uk,Nuneaton and Bedworth,http://www.nuneatonandbedworth.gov.uk,-1.47363100000000,CV12 8AH,2014-08-08,fhrs_3_en-GB,3,,FHRS,10
338663,,73 Wiclif Way,,Nuneaton,One Stop,Retailers - other,4613,5,,629811,10,,52.51889400000000,45730,318,carl.jacobs@nuneatonandbedworth.gov.uk,Nuneaton and Bedworth,http://www.nuneatonandbedworth.gov.uk,-1.51287800000000,CV10 8NH,2013-11-20,fhrs_4_en-GB,4,,FHRS,5
338664,,1-7 Trafford Drive,,Nuneaton,One Stop,Retailers - other,4613,0,,551777,0,,52.53007300000000,45537,318,carl.jacobs@nuneatonandbedworth.gov.uk,Nuneaton and Bedworth,http://www.nuneatonandbedworth.gov.uk,-1.51399300000000,CV10 9LP,2013-12-12,fhrs_5_en-GB,5,,FHRS,5
338665,,212 Higham Lane,,Nuneaton,One Stop,Retailers - other,4613,0,,565640,10,,52.53413700000000,47476,318,carl.jacobs@nuneatonandbedworth.gov.uk,Nuneaton and Bedworth,http://www.nuneatonandbedworth.gov.uk,-1.45229600000000,CV11 6AS,2013-06-27,fhrs_4_en-GB,4,,FHRS,10
338666,,194 Weddington Road,,Nuneaton,One Stop,Retailers - other,4613,5,,718043,15,,52.53305900000000,47528,318,carl.jacobs@nuneatonandbedworth.gov.uk,Nuneaton and Bedworth,http://www.nuneatonandbedworth.gov.uk,-1.46618100000000,CV10 0EJ,2014-10-20,fhrs_2_en-GB,2,,FHRS,10
338667,,95-97 Heath Road,,Bedworth,One Stop Community Stores,Retailers - other,4613,0,,629815,0,,52.47315900000000,47562,318,carl.jacobs@nuneatonandbedworth.gov.uk,Nuneaton and Bedworth,http://www.nuneatonandbedworth.gov.uk,-1.49296400000000,CV12 0BJ,2013-02-21,fhrs_4_en-GB,4,,FHRS,10
338668,,27 Webb Street,,Nuneaton,Oriental Star Takeaway,Takeaway/sandwich shop,7844,5,,451635,5,,52.51744700000000,47522,318,carl.jacobs@nuneatonandbedworth.gov.uk,Nuneaton and Bedworth,http://www.nuneatonandbedworth.gov.uk,-1.50851700000000,CV10 8JQ,2013-09-25,fhrs_4_en-GB,4,,FHRS,10
338669,,Coton Road,,Nuneaton,Our Lady of The Angels School,School/college/university,7845,0,,235253,0,,52.51845200000000,49126,318,carl.jacobs@nuneatonandbedworth.gov.uk,Nuneaton and Bedworth,http://www.nuneatonandbedworth.gov.uk,-1.46652000000000,CV11 5TY,2013-06-20,fhrs_5_en-GB,5,,FHRS,5
338670,,134 Queens Road,,Nuneaton,P & S Supershop,Retailers - other,4613,10,,235135,5,,52.52196100000000,47590,318,carl.jacobs@nuneatonandbedworth.gov.uk,Nuneaton and Bedworth,http://www.nuneatonandbedworth.gov.uk,-1.47734000000000,CV11 5LH,2011-04-14,fhrs_4_en-GB,4,,FHRS,5
338671,,74 Church Road,,Nuneaton,Padda Newsagents and Off Licence,Retailers - other,4613,0,,718047,5,,52.51801200000000,47668,318,carl.jacobs@nuneatonandbedworth.gov.uk,Nuneaton and Bedworth,http://www.nuneatonandbedworth.gov.uk,-1.51041200000000,CV10 8LE,2014-10-29,fhrs_4_en-GB,4,,FHRS,10
338672,Palace Bingo,Leicester Road,,Bedworth,Palace Bingo,Pub/bar/nightclub,7843,10,,235308,10,,52.48311500000000,46294,318,carl.jacobs@nuneatonandbedworth.gov.uk,Nuneaton and Bedworth,http://www.nuneatonandbedworth.gov.uk,-1.47319100000000,CV12 8AB,2014-12-19,fhrs_3_en-GB,3,,FHRS,10
338673,,123 Pallett Drive,,Nuneaton,Pallett Drive Day Nursery,Hospitals/Childcare/Caring Premises,5,0,,629824,0,,52.53512400000000,73458,318,carl.jacobs@nuneatonandbedworth.gov.uk,Nuneaton and Bedworth,http://www.nuneatonandbedworth.gov.uk,-1.44211100000000,CV11 6JT,2014-01-30,fhrs_5_en-GB,5,,FHRS,5
338674,,Raven Way,,Nuneaton,Paradise Found Day Nursery,Hospitals/Childcare/Caring Premises,5,5,,235235,5,,52.51438800000000,48854,318,carl.jacobs@nuneatonandbedworth.gov.uk,Nuneaton and Bedworth,http://www.nuneatonandbedworth.gov.uk,-1.44504000000000,CV11 6SG,2013-07-25,fhrs_5_en-GB,5,,FHRS,0
338675,,Park Lane,,Nuneaton,"Park Lane Primary School, Nursery and Childrens Centre",School/college/university,7845,10,,362160,5,,52.51854900000000,45206,318,carl.jacobs@nuneatonandbedworth.gov.uk,Nuneaton and Bedworth,http://www.nuneatonandbedworth.gov.uk,-1.52966800000000,CV10 8LU,2014-05-13,fhrs_4_en-GB,4,,FHRS,5
338676,,246a Heath End Road,,Nuneaton,Patels Newsagent,Retailers - other,4613,5,,491885,5,,52.51287800000000,44929,318,carl.jacobs@nuneatonandbedworth.gov.uk,Nuneaton and Bedworth,http://www.nuneatonandbedworth.gov.uk,-1.48278200000000,CV10 7JB,2012-12-12,fhrs_5_en-GB,5,,FHRS,0
338677,,,,,Patercakes,Retailers - other,4613,5,,444551,5,,,14763,318,carl.jacobs@nuneatonandbedworth.gov.uk,Nuneaton and Bedworth,http://www.nuneatonandbedworth.gov.uk,,,2012-08-17,fhrs_5_en-GB,5,,FHRS,5
338678,,62 Garrett Street,,Nuneaton,Peking Chinese Takeaway,Takeaway/sandwich shop,7844,5,,235147,10,,52.51361600000000,47646,318,carl.jacobs@nuneatonandbedworth.gov.uk,Nuneaton and Bedworth,http://www.nuneatonandbedworth.gov.uk,-1.45493800000000,CV11 4PP,2014-09-29,fhrs_4_en-GB,4,,FHRS,5
338679,,47-49 Croft Road,,Nuneaton,Pete's Chippery,Takeaway/sandwich shop,7844,5,,235316,5,,52.52050400000000,47598,318,carl.jacobs@nuneatonandbedworth.gov.uk,Nuneaton and Bedworth,http://www.nuneatonandbedworth.gov.uk,-1.48544800000000,CV10 7EJ,2013-01-22,fhrs_5_en-GB,5,,FHRS,5
338680,,131 Nuneaton Road,,Bedworth,Pete's Chippery,Takeaway/sandwich shop,7844,5,,235275,5,,52.48886800000000,47611,318,carl.jacobs@nuneatonandbedworth.gov.uk,Nuneaton and Bedworth,http://www.nuneatonandbedworth.gov.uk,-1.47304900000000,CV12 8AP,2013-08-13,fhrs_5_en-GB,5,,FHRS,5
338681,,114 Dark Lane,,Bedworth,Pinak News,Retailers - other,4613,5,,235302,0,,52.47128800000000,47685,318,carl.jacobs@nuneatonandbedworth.gov.uk,Nuneaton and Bedworth,http://www.nuneatonandbedworth.gov.uk,-1.50114100000000,CV12 0JH,2013-12-05,fhrs_4_en-GB,4,,FHRS,10
338682,,Exhall Green,,Exhall,Ping On,Takeaway/sandwich shop,7844,5,,235242,10,,52.46522700000000,47554,318,carl.jacobs@nuneatonandbedworth.gov.uk,Nuneaton and Bedworth,http://www.nuneatonandbedworth.gov.uk,-1.48599000000000,CV7 9GL,2014-09-16,fhrs_3_en-GB,3,,FHRS,10
338683,Pingles Leisure Centre,Avenue Road,,Nuneaton,Pingles Leisure Centre Snack Bar,Restaurant/Cafe/Canteen,1,,,235194,,,52.51556700000000,44396,318,carl.jacobs@nuneatonandbedworth.gov.uk,Nuneaton and Bedworth,http://www.nuneatonandbedworth.gov.uk,-1.46273800000000,CV11 4LX,2014-11-11,fhrs_5_en-GB,5,,FHRS,
338684,Plough Hill Golf Centre,Plough Hill Road,,Nuneaton,Plough Hill Golf Centre,Pub/bar/nightclub,7843,5,,460369,0,,52.53060300000000,72790,318,carl.jacobs@nuneatonandbedworth.gov.uk,Nuneaton and Bedworth,http://www.nuneatonandbedworth.gov.uk,-1.52933300000000,CV10 9NZ,2012-09-28,fhrs_4_en-GB,4,,FHRS,10
338685,,Plough Hill Road,,Nuneaton,Plough Inn,Pub/bar/nightclub,7843,0,,235288,5,,52.53444000000000,47735,318,carl.jacobs@nuneatonandbedworth.gov.uk,Nuneaton and Bedworth,http://www.nuneatonandbedworth.gov.uk,-1.52678500000000,CV10 9NY,2013-05-30,fhrs_4_en-GB,4,,FHRS,10
338686,,6 Tomkinson Road,,Nuneaton,Polish Taste,Retailers - other,4613,10,,235319,5,,52.52169100000000,47507,318,carl.jacobs@nuneatonandbedworth.gov.uk,Nuneaton and Bedworth,http://www.nuneatonandbedworth.gov.uk,-1.48537500000000,CV10 8BH,2014-10-23,fhrs_2_en-GB,2,,FHRS,15
338687,"Unit G, Tenlons Road Industrial Estate",Tenlons Road,,Nuneaton,Porkies Diner,Mobile caterer,7846,10,,692008,10,,52.51181600000000,172976,318,carl.jacobs@nuneatonandbedworth.gov.uk,Nuneaton and Bedworth,http://www.nuneatonandbedworth.gov.uk,-1.48664000000000,CV10 7HW,2014-07-23,fhrs_3_en-GB,3,,FHRS,10
338688,,Freer Street,,Nuneaton,Ppn Leisure Ltd,Restaurant/Cafe/Canteen,1,0,,460367,5,,52.51342400000000,64138,318,carl.jacobs@nuneatonandbedworth.gov.uk,Nuneaton and Bedworth,http://www.nuneatonandbedworth.gov.uk,-1.45411500000000,CV11 4PR,2014-02-03,fhrs_5_en-GB,5,,FHRS,5
338689,,2-4 Lister Street,,Nuneaton,Premier,Retailers - other,4613,10,,235160,10,,52.51818800000000,45022,318,carl.jacobs@nuneatonandbedworth.gov.uk,Nuneaton and Bedworth,http://www.nuneatonandbedworth.gov.uk,-1.45793200000000,CV11 4NX,2014-01-16,fhrs_2_en-GB,2,,FHRS,15
338690,,43-45 Bradestone Road,,Nuneaton,Premier Stores,Retailers - other,4613,5,,235197,5,,52.50743800000000,44452,318,carl.jacobs@nuneatonandbedworth.gov.uk,Nuneaton and Bedworth,http://www.nuneatonandbedworth.gov.uk,-1.46030300000000,CV11 4QR,2013-12-03,fhrs_5_en-GB,5,,FHRS,5
338691,,8 Ash Green Lane,,Ash Green,Premier Supermarket,Retailers - other,4613,10,,235323,5,,52.46177500000000,47370,318,carl.jacobs@nuneatonandbedworth.gov.uk,Nuneaton and Bedworth,http://www.nuneatonandbedworth.gov.uk,-1.50932900000000,CV7 9AH,2014-01-14,fhrs_4_en-GB,4,,FHRS,5
338692,,Upper Abbey Street,,Nuneaton,Pretty India,Restaurant/Cafe/Canteen,1,5,,409182,10,,52.52677700000000,47693,318,carl.jacobs@nuneatonandbedworth.gov.uk,Nuneaton and Bedworth,http://www.nuneatonandbedworth.gov.uk,-1.47476200000000,CV11 5DN,2014-01-09,fhrs_4_en-GB,4,,FHRS,5
338693,,42 King Street,,Bedworth,Prima Pizza,Takeaway/sandwich shop,7844,10,,362170,10,,52.47962600000000,46240,318,carl.jacobs@nuneatonandbedworth.gov.uk,Nuneaton and Bedworth,http://www.nuneatonandbedworth.gov.uk,-1.47108300000000,CV12 8JA,2013-10-25,fhrs_3_en-GB,3,,FHRS,10
338694,,Bulkington Road,,Bedworth,Prince of Wales,Pub/bar/nightclub,7843,10,,235199,5,,52.47848200000000,47545,318,carl.jacobs@nuneatonandbedworth.gov.uk,Nuneaton and Bedworth,http://www.nuneatonandbedworth.gov.uk,-1.46252700000000,CV12 9DT,2014-10-10,fhrs_4_en-GB,4,,FHRS,5
338695,,116-118 Queens Road,,Nuneaton,Queens Fish & Grill Bar,Takeaway/sandwich shop,7844,5,,235277,5,,52.52200300000000,49175,318,carl.jacobs@nuneatonandbedworth.gov.uk,Nuneaton and Bedworth,http://www.nuneatonandbedworth.gov.uk,-1.47664700000000,CV11 5LG,2013-09-03,fhrs_4_en-GB,4,,FHRS,10
338696,,Bentley Road,,Nuneaton,Queens Junior School,School/college/university,7845,0,,362164,0,,52.52175700000000,45379,318,carl.jacobs@nuneatonandbedworth.gov.uk,Nuneaton and Bedworth,http://www.nuneatonandbedworth.gov.uk,-1.48008400000000,CV11 5LR,2013-09-23,fhrs_5_en-GB,5,,FHRS,5
338697,,,,,Quid Sticks,Mobile caterer,7846,5,,718035,5,,,173042,318,carl.jacobs@nuneatonandbedworth.gov.uk,Nuneaton and Bedworth,http://www.nuneatonandbedworth.gov.uk,,,2014-09-24,fhrs_5_en-GB,5,,FHRS,5
338698,Unit 12,Bayton Road,,Exhall,R & R Ices,Mobile caterer,7846,5,,565651,0,,52.46306600000000,98264,318,carl.jacobs@nuneatonandbedworth.gov.uk,Nuneaton and Bedworth,http://www.nuneatonandbedworth.gov.uk,-1.48118700000000,CV7 9DJ,2013-03-07,fhrs_5_en-GB,5,,FHRS,0
338699,,13 Church Road,,Nuneaton,R&R General Store,Retailers - other,4613,5,,235358,5,,52.51655200000000,44557,318,carl.jacobs@nuneatonandbedworth.gov.uk,Nuneaton and Bedworth,http://www.nuneatonandbedworth.gov.uk,-1.50948500000000,CV10 8LB,2013-09-04,fhrs_4_en-GB,4,,FHRS,10
338700,,Ptarmigan Place,,Nuneaton,R. & D. Snax,Mobile caterer,7846,20,,235201,15,,52.51917600000000,60150,318,carl.jacobs@nuneatonandbedworth.gov.uk,Nuneaton and Bedworth,http://www.nuneatonandbedworth.gov.uk,-1.44721000000000,,2014-04-15,fhrs_1_en-GB,1,,FHRS,15
338701,,435 Kingswood Road,,Nuneaton,R. K. Supermarket (Nisa),Retailers - other,4613,10,,235360,10,,52.52035200000000,45008,318,carl.jacobs@nuneatonandbedworth.gov.uk,Nuneaton and Bedworth,http://www.nuneatonandbedworth.gov.uk,-1.51993600000000,CV10 8QB,2014-01-22,fhrs_3_en-GB,3,,FHRS,5
338702,,Hurst Road,,Bedworth,Race Leys Infant School,School/college/university,7845,0,,429153,0,,52.48304400000000,46219,318,carl.jacobs@nuneatonandbedworth.gov.uk,Nuneaton and Bedworth,http://www.nuneatonandbedworth.gov.uk,-1.47534200000000,CV12 8AD,2013-07-11,fhrs_5_en-GB,5,,FHRS,5
338703,,Barton Road,,Bedworth,Race Leys Junior School,School/college/university,7845,0,,235118,5,,52.48468600000000,45776,318,carl.jacobs@nuneatonandbedworth.gov.uk,Nuneaton and Bedworth,http://www.nuneatonandbedworth.gov.uk,-1.47882700000000,CV12 8HG,2013-07-10,fhrs_5_en-GB,5,,FHRS,0
338704,Railway Tavern,Bond Street,,Nuneaton,Railway Tavern,Pub/bar/nightclub,7843,10,,235124,5,,52.52450400000000,44441,318,carl.jacobs@nuneatonandbedworth.gov.uk,Nuneaton and Bedworth,http://www.nuneatonandbedworth.gov.uk,-1.46494400000000,CV11 4DA,2014-02-21,fhrs_2_en-GB,2,,FHRS,15
338705,"Unit 9, Horeston Grange Shopping Centre",Camborne Drive,,Nuneaton,Rajdhani,Restaurant/Cafe/Canteen,1,20,,235280,15,,52.52662000000000,48086,318,carl.jacobs@nuneatonandbedworth.gov.uk,Nuneaton and Bedworth,http://www.nuneatonandbedworth.gov.uk,-1.43841600000000,CV11 6GU,2014-08-13,fhrs_1_en-GB,1,,FHRS,15
338706,,1 Croft Road,,Nuneaton,Ram News,Retailers - other,4613,10,,362183,5,,52.52050400000000,47596,318,carl.jacobs@nuneatonandbedworth.gov.uk,Nuneaton and Bedworth,http://www.nuneatonandbedworth.gov.uk,-1.48544800000000,CV10 7EJ,2012-03-06,fhrs_4_en-GB,4,,FHRS,0
338707,,116 Weddington Road,,Nuneaton,Ram Newsagents & Off Licence,Retailers - other,4613,5,,235255,0,,52.53083700000000,47524,318,carl.jacobs@nuneatonandbedworth.gov.uk,Nuneaton and Bedworth,http://www.nuneatonandbedworth.gov.uk,-1.46377600000000,CV10 0AL,2014-10-20,fhrs_5_en-GB,5,,FHRS,5
338708,,School Walk,,Nuneaton,Ramsden Centre,Hospitals/Childcare/Caring Premises,5,10,,683299,5,,52.51543100000000,49073,318,carl.jacobs@nuneatonandbedworth.gov.uk,Nuneaton and Bedworth,http://www.nuneatonandbedworth.gov.uk,-1.45466500000000,CV11 4PJ,2014-05-07,fhrs_4_en-GB,4,,FHRS,5
338709,,,,,Red Cherry Bakery,Retailers - other,4613,5,,429200,5,,,97052,318,carl.jacobs@nuneatonandbedworth.gov.uk,Nuneaton and Bedworth,http://www.nuneatonandbedworth.gov.uk,,,2012-05-31,fhrs_5_en-GB,5,,FHRS,5
338710,,Haunchwood Road,,Nuneaton,Red Rooster,Takeaway/sandwich shop,7844,5,,235182,5,,52.52109000000000,73869,318,carl.jacobs@nuneatonandbedworth.gov.uk,Nuneaton and Bedworth,http://www.nuneatonandbedworth.gov.uk,-1.49841100000000,CV10 8DE,2013-11-22,fhrs_5_en-GB,5,,FHRS,5
338711,Central Avenue Service Station,Central Avenue,,Nuneaton,Red Rooster,Takeaway/sandwich shop,7844,5,,235257,5,,52.52715000000000,61546,318,carl.jacobs@nuneatonandbedworth.gov.uk,Nuneaton and Bedworth,http://www.nuneatonandbedworth.gov.uk,-1.47359300000000,CV11 5BD,2013-06-05,fhrs_5_en-GB,5,,FHRS,5
338712,Cross Keys Inn car park,Goodyers End Lane,,Bedworth,Refreshments and Hot Food Van,Mobile caterer,7846,5,,572062,5,,52.47083100000000,98439,318,carl.jacobs@nuneatonandbedworth.gov.uk,Nuneaton and Bedworth,http://www.nuneatonandbedworth.gov.uk,-1.49516900000000,CV12 0HR,2013-05-29,fhrs_5_en-GB,5,,FHRS,5
338713,,Nuneaton market,,nuneaton,Reynolds Cheeses,Mobile caterer,7846,5,,629822,5,,,61058,318,carl.jacobs@nuneatonandbedworth.gov.uk,Nuneaton and Bedworth,http://www.nuneatonandbedworth.gov.uk,,,2014-03-12,fhrs_4_en-GB,4,,FHRS,10
338714,,79 Nuneaton Road,,Bedworth,Rice House,Takeaway/sandwich shop,7844,10,,429161,15,,52.48886800000000,47609,318,carl.jacobs@nuneatonandbedworth.gov.uk,Nuneaton and Bedworth,http://www.nuneatonandbedworth.gov.uk,-1.47304900000000,CV12 8AP,2013-08-28,fhrs_2_en-GB,2,,FHRS,10
338715,Bede Village,Hospital Lane,,Bedworth,Richmond Coventry,Hospitals/Childcare/Caring Premises,5,5,,409184,5,,52.46889900000000,49052,318,carl.jacobs@nuneatonandbedworth.gov.uk,Nuneaton and Bedworth,http://www.nuneatonandbedworth.gov.uk,-1.51237000000000,CV12 0PB,2013-11-14,fhrs_5_en-GB,5,,FHRS,0
338716,Riverside,Bond Street,,Nuneaton,Riverside Cafe,Restaurant/Cafe/Canteen,1,10,,444560,10,,52.52450400000000,63658,318,carl.jacobs@nuneatonandbedworth.gov.uk,Nuneaton and Bedworth,http://www.nuneatonandbedworth.gov.uk,-1.46494400000000,CV11 4DA,2014-03-05,fhrs_3_en-GB,3,,FHRS,5
338717,,,,,Rocking Horse Catering,Retailers - other,4613,10,,409176,0,,,18913,318,carl.jacobs@nuneatonandbedworth.gov.uk,Nuneaton and Bedworth,http://www.nuneatonandbedworth.gov.uk,,,2012-05-28,fhrs_4_en-GB,4,,FHRS,5
338718,,Harefield Road,,Nuneaton,Rods Roasters,Mobile caterer,7846,0,,429190,5,,52.52405700000000,75183,318,carl.jacobs@nuneatonandbedworth.gov.uk,Nuneaton and Bedworth,http://www.nuneatonandbedworth.gov.uk,-1.46736700000000,,2013-02-06,fhrs_5_en-GB,5,,FHRS,5
338719,,135 Queens Road,,Nuneaton,Rooster King,Takeaway/sandwich shop,7844,10,,409179,15,,52.52232500000000,45357,318,carl.jacobs@nuneatonandbedworth.gov.uk,Nuneaton and Bedworth,http://www.nuneatonandbedworth.gov.uk,-1.47620100000000,CV11 5LD,2014-12-19,fhrs_2_en-GB,2,,FHRS,5
338720,,373 Arbury Road,,Stockingford,Round Towers Bakery,Retailers - other,4613,5,,362147,10,,52.51572800000000,44343,318,carl.jacobs@nuneatonandbedworth.gov.uk,Nuneaton and Bedworth,http://www.nuneatonandbedworth.gov.uk,-1.50821200000000,CV10 7NG,2014-10-01,fhrs_2_en-GB,2,,FHRS,15
338721,"Unit 9, Horeston Grange Shopping Centre",Camborne Drive,,Nuneaton,Royal Dragon,Restaurant/Cafe/Canteen,1,10,,235326,10,,52.52662000000000,89374,318,carl.jacobs@nuneatonandbedworth.gov.uk,Nuneaton and Bedworth,http://www.nuneatonandbedworth.gov.uk,-1.43841600000000,CV11 6GU,2013-09-19,fhrs_4_en-GB,4,,FHRS,0
338722,,Wheelwright Lane,,Ash Green,Royal National Institute for the Blind Pears Centre,School/college/university,7845,5,,384908,5,,52.45610400000000,49025,318,carl.jacobs@nuneatonandbedworth.gov.uk,Nuneaton and Bedworth,http://www.nuneatonandbedworth.gov.uk,-1.50553600000000,CV7 9RA,2014-04-08,fhrs_4_en-GB,4,,FHRS,10
338723,Royal Oak Inn,Royal Oak Lane,,Ash Green,Royal Oak Inn,Pub/bar/nightclub,7843,5,,565636,5,,52.46535700000000,47384,318,carl.jacobs@nuneatonandbedworth.gov.uk,Nuneaton and Bedworth,http://www.nuneatonandbedworth.gov.uk,-1.51036300000000,CV12 0JB,2013-05-31,fhrs_4_en-GB,4,,FHRS,10
338724,,121 Attleborough Road,,Nuneaton,Rugger Tavern,Pub/bar/nightclub,7843,5,,235157,5,,52.51750200000000,47429,318,carl.jacobs@nuneatonandbedworth.gov.uk,Nuneaton and Bedworth,http://www.nuneatonandbedworth.gov.uk,-1.45928100000000,CV11 4JQ,2013-06-05,fhrs_5_en-GB,5,,FHRS,5
338725,,80 Arbury Road,,Stockingford,S & K Supermarket,Retailers - other,4613,5,,551775,5,,52.51530800000000,44324,318,carl.jacobs@nuneatonandbedworth.gov.uk,Nuneaton and Bedworth,http://www.nuneatonandbedworth.gov.uk,-1.50011200000000,CV10 7NB,2013-05-29,fhrs_4_en-GB,4,,FHRS,10
338726,,239-241 Edward Street,,Nuneaton,Sai Premier Store,Retailers - other,4613,5,,629817,10,,52.51671100000000,47711,318,carl.jacobs@nuneatonandbedworth.gov.uk,Nuneaton and Bedworth,http://www.nuneatonandbedworth.gov.uk,-1.46923800000000,CV11 5RP,2013-03-12,fhrs_4_en-GB,4,,FHRS,5
338727,,Coventry Road,,Exhall,Sainsbury's,Retailers - supermarkets/hypermarkets,7840,0,,235310,5,,52.47217100000000,46096,318,carl.jacobs@nuneatonandbedworth.gov.uk,Nuneaton and Bedworth,http://www.nuneatonandbedworth.gov.uk,-1.47863600000000,CV7 9NU,2013-03-20,fhrs_5_en-GB,5,,FHRS,5
338728,,Newdegate Street,,Nuneaton,Saints Restaurant & Grill Ltd,Pub/bar/nightclub,7843,0,,235291,5,,52.52332900000000,44426,318,carl.jacobs@nuneatonandbedworth.gov.uk,Nuneaton and Bedworth,http://www.nuneatonandbedworth.gov.uk,-1.46556200000000,CV11 4ED,2014-11-13,fhrs_4_en-GB,4,,FHRS,10
338729,Salutation Inn,31 Chancery Lane,,Chapel End,Salutation Inn Public House,Pub/bar/nightclub,7843,5,,235233,5,,52.53619100000000,47445,318,carl.jacobs@nuneatonandbedworth.gov.uk,Nuneaton and Bedworth,http://www.nuneatonandbedworth.gov.uk,-1.52176900000000,CV10 0PB,2011-09-23,fhrs_4_en-GB,4,,FHRS,10
338730,,8 Leicester Street,,Bedworth,Salvation Army Cafe,Restaurant/Cafe/Canteen,1,5,,718039,5,,52.48124300000000,45883,318,carl.jacobs@nuneatonandbedworth.gov.uk,Nuneaton and Bedworth,http://www.nuneatonandbedworth.gov.uk,-1.47268300000000,CV12 8GG,2014-08-12,fhrs_4_en-GB,4,,FHRS,10
338731,Sandys Baps Mobile,Slingsby Close,,Nuneaton,Sandy's Baps,Mobile caterer,7846,,,235154,,,,92348,318,carl.jacobs@nuneatonandbedworth.gov.uk,Nuneaton and Bedworth,http://www.nuneatonandbedworth.gov.uk,,,2014-09-17,fhrs_5_en-GB,5,,FHRS,
338732,Saunders Hall Working Mens Club,Saunders Avenue,,Bedworth,Saunders Hall W M C,Pub/bar/nightclub,7843,0,,362179,5,,52.47701500000000,47386,318,carl.jacobs@nuneatonandbedworth.gov.uk,Nuneaton and Bedworth,http://www.nuneatonandbedworth.gov.uk,-1.47628200000000,CV12 8RJ,2014-08-01,fhrs_5_en-GB,5,,FHRS,5
338733,,1b Craddock Drive,,Nuneaton,Saveway,Takeaway/sandwich shop,7844,10,,235150,15,,52.53554100000000,44671,318,carl.jacobs@nuneatonandbedworth.gov.uk,Nuneaton and Bedworth,http://www.nuneatonandbedworth.gov.uk,-1.51009900000000,CV10 9EJ,2014-12-09,fhrs_2_en-GB,2,,FHRS,15
338734,,,,,Scrummi Buns,Retailers - other,4613,5,,444563,0,,,97065,318,carl.jacobs@nuneatonandbedworth.gov.uk,Nuneaton and Bedworth,http://www.nuneatonandbedworth.gov.uk,,,2012-07-04,fhrs_5_en-GB,5,,FHRS,0
338735,,228 Heath Road,,Bedworth,Sedgies,Retailers - other,4613,,,235175,,,52.47193700000000,46188,318,carl.jacobs@nuneatonandbedworth.gov.uk,Nuneaton and Bedworth,http://www.nuneatonandbedworth.gov.uk,-1.49309500000000,CV12 0BN,2014-11-12,fhrs_5_en-GB,5,,FHRS,
338736,Seesaw Nursery,King Street,,Bedworth,Seesaw Childrens Day Nursery,Hospitals/Childcare/Caring Premises,5,5,,235284,5,,52.47922600000000,49048,318,carl.jacobs@nuneatonandbedworth.gov.uk,Nuneaton and Bedworth,http://www.nuneatonandbedworth.gov.uk,-1.47001300000000,CV12 8JD,2014-04-04,fhrs_5_en-GB,5,,FHRS,0
338737,,5 Tiverton Drive,,Nuneaton,Selborne Care,Hospitals/Childcare/Caring Premises,5,10,,683297,5,,52.52672200000000,41315,318,carl.jacobs@nuneatonandbedworth.gov.uk,Nuneaton and Bedworth,http://www.nuneatonandbedworth.gov.uk,-1.44681600000000,CV11 6YJ,2014-04-15,fhrs_4_en-GB,4,,FHRS,5
338738,,106 Queens Road,,Nuneaton,Shahi Balti,Takeaway/sandwich shop,7844,0,,235190,5,,52.52205300000000,45337,318,carl.jacobs@nuneatonandbedworth.gov.uk,Nuneaton and Bedworth,http://www.nuneatonandbedworth.gov.uk,-1.47564400000000,CV11 5LF,2015-01-19,fhrs_5_en-GB,5,,FHRS,5
338739,,,,,Shakespeare's Home Bakes,Retailers - other,4613,5,,605139,0,,,98791,318,carl.jacobs@nuneatonandbedworth.gov.uk,Nuneaton and Bedworth,http://www.nuneatonandbedworth.gov.uk,,,2013-09-09,fhrs_5_en-GB,5,,FHRS,0
338740,,8 Coventry Road,,Bulkington,Shapes Day Nursery,Hospitals/Childcare/Caring Premises,5,5,,542490,0,,52.47479600000000,11078,318,carl.jacobs@nuneatonandbedworth.gov.uk,Nuneaton and Bedworth,http://www.nuneatonandbedworth.gov.uk,-1.42985900000000,CV12 9ND,2015-01-16,fhrs_5_en-GB,5,,FHRS,0
338741,,131 Newtown Road,,Bedworth,Shell Bedworth,Retailers - other,4613,5,,718042,0,,52.47976600000000,46420,318,carl.jacobs@nuneatonandbedworth.gov.uk,Nuneaton and Bedworth,http://www.nuneatonandbedworth.gov.uk,-1.48243400000000,CV12 8QG,2014-10-13,fhrs_5_en-GB,5,,FHRS,5
338742,Hinkley Road Service Station,118 Hinckley Road,,Nuneaton,Shell Service Station,Retailers - other,4613,0,,565633,10,,52.52868300000000,44970,318,carl.jacobs@nuneatonandbedworth.gov.uk,Nuneaton and Bedworth,http://www.nuneatonandbedworth.gov.uk,-1.45099200000000,CV11 6LS,2014-10-23,fhrs_4_en-GB,4,,FHRS,5
338743,,,,,Shelley's Scrumptious Cakes,Retailers - other,4613,0,,499709,0,,,14745,318,carl.jacobs@nuneatonandbedworth.gov.uk,Nuneaton and Bedworth,http://www.nuneatonandbedworth.gov.uk,,,2013-01-16,fhrs_5_en-GB,5,,FHRS,5
338744,,56 Vernons Lane,,Nuneaton,Shivom News,Retailers - other,4613,5,,572054,10,,52.52457200000000,45610,318,carl.jacobs@nuneatonandbedworth.gov.uk,Nuneaton and Bedworth,http://www.nuneatonandbedworth.gov.uk,-1.48840700000000,CV10 8AA,2013-07-15,fhrs_3_en-GB,3,,FHRS,10
338745,,90 Alexandra Street,,Nuneaton,Shuvakamana Grocery Shop,Retailers - other,4613,10,,629809,5,,52.52104700000000,44308,318,carl.jacobs@nuneatonandbedworth.gov.uk,Nuneaton and Bedworth,http://www.nuneatonandbedworth.gov.uk,-1.47200100000000,CV11 5RL,2012-10-31,fhrs_3_en-GB,3,,FHRS,10
338746,Guru Tech Bahadar Gurdwara - Unit 2,Marlborough Road,,Nuneaton,Sikh Mission Centre,Other catering premises,7841,10,,235123,0,,52.51956800000000,72905,318,carl.jacobs@nuneatonandbedworth.gov.uk,Nuneaton and Bedworth,http://www.nuneatonandbedworth.gov.uk,-1.47486300000000,CV11 5PQ,2014-08-01,fhrs_4_en-GB,4,,FHRS,10
338747,,9 Pinetree Road,,Bedworth,Simply Local,Retailers - other,4613,10,,235200,15,,52.48482500000000,46476,318,carl.jacobs@nuneatonandbedworth.gov.uk,Nuneaton and Bedworth,http://www.nuneatonandbedworth.gov.uk,-1.46361400000000,CV12 9BG,2014-10-16,fhrs_1_en-GB,1,,FHRS,20
338748,,Bayton Road,,Exhall,Sizzles,Mobile caterer,7846,10,,429132,10,,52.46502700000000,14506,318,carl.jacobs@nuneatonandbedworth.gov.uk,Nuneaton and Bedworth,http://www.nuneatonandbedworth.gov.uk,-1.47279500000000,,2014-10-23,fhrs_4_en-GB,4,,FHRS,0
338749,,109 Heath Road,,Bedworth,Sizzling Wok,Takeaway/sandwich shop,7844,5,,409181,10,,52.47315900000000,47422,318,carl.jacobs@nuneatonandbedworth.gov.uk,Nuneaton and Bedworth,http://www.nuneatonandbedworth.gov.uk,-1.49296400000000,CV12 0BJ,2013-12-19,fhrs_4_en-GB,4,,FHRS,5
338750,Quarry Yard,Church Road,,Nuneaton,Smarties Day Nursery,Hospitals/Childcare/Caring Premises,5,0,,235230,10,,52.52423500000000,64200,318,carl.jacobs@nuneatonandbedworth.gov.uk,Nuneaton and Bedworth,http://www.nuneatonandbedworth.gov.uk,-1.52494200000000,CV10 8LP,2013-12-13,fhrs_4_en-GB,4,,FHRS,0
338751,,,,,Smokeys Wood Fired Pizzas,Mobile caterer,7846,10,,728943,5,,,173274,318,carl.jacobs@nuneatonandbedworth.gov.uk,Nuneaton and Bedworth,http://www.nuneatonandbedworth.gov.uk,,,2014-12-17,fhrs_4_en-GB,4,,FHRS,5
338752,,15 Mill Street,,Bedworth,Snappy Tomato Pizza,Takeaway/sandwich shop,7844,5,,429164,5,,52.48043300000000,47717,318,carl.jacobs@nuneatonandbedworth.gov.uk,Nuneaton and Bedworth,http://www.nuneatonandbedworth.gov.uk,-1.47465100000000,CV12 8JX,2014-01-13,fhrs_5_en-GB,5,,FHRS,5
338753,,155 Heath End Road,,Nuneaton,Sonnys Stores,Retailers - other,4613,10,,565639,0,,52.51287800000000,47472,318,carl.jacobs@nuneatonandbedworth.gov.uk,Nuneaton and Bedworth,http://www.nuneatonandbedworth.gov.uk,-1.48278200000000,CV10 7JB,2013-07-03,fhrs_4_en-GB,4,,FHRS,10
338754,,46 King Street,,Bedworth,Spicy Nights,Takeaway/sandwich shop,7844,20,,235241,15,,52.47962600000000,62661,318,carl.jacobs@nuneatonandbedworth.gov.uk,Nuneaton and Bedworth,http://www.nuneatonandbedworth.gov.uk,-1.47108300000000,CV12 8JA,2014-09-16,fhrs_1_en-GB,1,,FHRS,10
338755,,5 Penryn Close,,Nuneaton,Spitting Pig Warwickshire Mobile,Mobile caterer,7846,5,,629829,5,,52.52438600000000,98711,318,carl.jacobs@nuneatonandbedworth.gov.uk,Nuneaton and Bedworth,http://www.nuneatonandbedworth.gov.uk,-1.43935800000000,CV11 6FF,2013-08-19,fhrs_5_en-GB,5,,FHRS,5
338756,,Camp Hill Drive,,Nuneaton,St Annes R C First School,School/college/university,7845,5,,551776,0,,52.53478200000000,44512,318,carl.jacobs@nuneatonandbedworth.gov.uk,Nuneaton and Bedworth,http://www.nuneatonandbedworth.gov.uk,-1.50275100000000,CV10 0JX,2013-05-08,fhrs_5_en-GB,5,,FHRS,5
338757,St Francis Rc Primary School,Rye Piece Ringway,,Bedworth,St Francis Catholic Primary School,School/college/university,7845,5,,235198,5,,52.48265700000000,49065,318,carl.jacobs@nuneatonandbedworth.gov.uk,Nuneaton and Bedworth,http://www.nuneatonandbedworth.gov.uk,-1.47126800000000,CV12 8JN,2014-06-13,fhrs_4_en-GB,4,,FHRS,10
338758,St Giles School,Hayes Lane,,Exhall,St Giles Junior School,School/college/university,7845,0,,429152,0,,52.46849900000000,46170,318,carl.jacobs@nuneatonandbedworth.gov.uk,Nuneaton and Bedworth,http://www.nuneatonandbedworth.gov.uk,-1.48799800000000,CV7 9NS,2014-11-06,fhrs_5_en-GB,5,,FHRS,0
338759,,Barbridge Road,,Bulkington,St James Junior School,School/college/university,7845,0,,235295,0,,52.47932100000000,45775,318,carl.jacobs@nuneatonandbedworth.gov.uk,Nuneaton and Bedworth,http://www.nuneatonandbedworth.gov.uk,-1.42489700000000,CV12 9PF,2013-01-29,fhrs_5_en-GB,5,,FHRS,5
338760,St Joseph's Rc Junior School,Coton Road,,Nuneaton,St Josephs R C Junior School,School/college/university,7845,0,,409186,5,,52.51845200000000,49123,318,carl.jacobs@nuneatonandbedworth.gov.uk,Nuneaton and Bedworth,http://www.nuneatonandbedworth.gov.uk,-1.46652000000000,CV11 5TY,2013-12-13,fhrs_5_en-GB,5,,FHRS,0
338761,Site 95D001-St Michaels C of E Primary School,Hazel Grove,,Bedworth,"St Michael's CE School, Nursery & Children's Centre",School/college/university,7845,5,,683300,5,,52.48287900000000,73943,318,carl.jacobs@nuneatonandbedworth.gov.uk,Nuneaton and Bedworth,http://www.nuneatonandbedworth.gov.uk,-1.46281300000000,CV12 9DA,2014-06-24,fhrs_4_en-GB,4,,FHRS,10
338762,,Windermere Avenue,,Nuneaton,St Nicolas Primary School,School/college/university,7845,5,,362167,0,,52.53355400000000,45732,318,carl.jacobs@nuneatonandbedworth.gov.uk,Nuneaton and Bedworth,http://www.nuneatonandbedworth.gov.uk,-1.44680400000000,CV11 6HJ,2013-09-17,fhrs_5_en-GB,5,,FHRS,5
338763,St Pauls C Of E Primary School,Wiclif Way,,Nuneaton,St Pauls C of E School,School/college/university,7845,5,,235318,5,,52.51889400000000,45731,318,carl.jacobs@nuneatonandbedworth.gov.uk,Nuneaton and Bedworth,http://www.nuneatonandbedworth.gov.uk,-1.51287800000000,CV10 8NH,2014-05-12,fhrs_5_en-GB,5,,FHRS,5
338764,,Greenmoor Road,,Nuneaton,St Thomas More Catholic School & Sixth Form College,School/college/university,7845,0,,362152,5,,52.51721100000000,44823,318,carl.jacobs@nuneatonandbedworth.gov.uk,Nuneaton and Bedworth,http://www.nuneatonandbedworth.gov.uk,-1.48059400000000,CV10 7EX,2014-03-28,fhrs_4_en-GB,4,,FHRS,10
338765,Pavilion,Ansley Road,,Stockingford,Stockingford Pavilion Club,Pub/bar/nightclub,7843,0,,235304,5,,52.51823400000000,49182,318,carl.jacobs@nuneatonandbedworth.gov.uk,Nuneaton and Bedworth,http://www.nuneatonandbedworth.gov.uk,-1.51410900000000,CV10 8LT,2014-05-17,fhrs_4_en-GB,4,,FHRS,10
338766,,Grove Road,,Nuneaton,Stockingford Primary School,School/college/university,7845,0,,235117,5,,52.51825400000000,49120,318,carl.jacobs@nuneatonandbedworth.gov.uk,Nuneaton and Bedworth,http://www.nuneatonandbedworth.gov.uk,-1.50579700000000,CV10 8JY,2013-09-24,fhrs_5_en-GB,5,,FHRS,0
338767,Stoneycroft Service Station,Lutterworth Road,,Nuneaton,Stoneycroft Service Station,Retailers - other,4613,10,,582739,10,,52.50458000000000,74988,318,carl.jacobs@nuneatonandbedworth.gov.uk,Nuneaton and Bedworth,http://www.nuneatonandbedworth.gov.uk,-1.43352500000000,CV11 6PX,2014-07-22,fhrs_2_en-GB,2,,FHRS,15
338768,,80 Queens Road,,Nuneaton,Subway,Takeaway/sandwich shop,7844,5,,235240,5,,52.52206500000000,45323,318,carl.jacobs@nuneatonandbedworth.gov.uk,Nuneaton and Bedworth,http://www.nuneatonandbedworth.gov.uk,-1.47439100000000,CV11 5LE,2014-07-21,fhrs_5_en-GB,5,,FHRS,5
338769,,12 Harefield Road,,Nuneaton,Subway,Takeaway/sandwich shop,7844,0,,235143,5,,52.52362600000000,60695,318,carl.jacobs@nuneatonandbedworth.gov.uk,Nuneaton and Bedworth,http://www.nuneatonandbedworth.gov.uk,-1.46760700000000,CV11 4HD,2013-05-24,fhrs_5_en-GB,5,,FHRS,0
338770,,11 Leicester Street,,Bedworth,Subway,Takeaway/sandwich shop,7844,5,,235145,10,,52.48110800000000,46307,318,carl.jacobs@nuneatonandbedworth.gov.uk,Nuneaton and Bedworth,http://www.nuneatonandbedworth.gov.uk,-1.47264100000000,CV12 8JP,2015-01-20,fhrs_1_en-GB,1,,FHRS,20
338771,Subway,Unit 3 St Davids Way,,Nuneaton,Subway,Takeaway/sandwich shop,7844,5,,718034,5,,52.49688600000000,172914,318,carl.jacobs@nuneatonandbedworth.gov.uk,Nuneaton and Bedworth,http://www.nuneatonandbedworth.gov.uk,-1.47681200000000,CV10 7SD,2014-07-04,fhrs_5_en-GB,5,,FHRS,5
338772,"Unit 1, Horeston Grange Shopping Centre",Camborne Drive,,Nuneaton,Subway,Takeaway/sandwich shop,7844,5,,235191,0,,52.52662000000000,50379,318,carl.jacobs@nuneatonandbedworth.gov.uk,Nuneaton and Bedworth,http://www.nuneatonandbedworth.gov.uk,-1.43841600000000,CV11 6GU,2013-01-29,fhrs_4_en-GB,4,,FHRS,10
338773,"Unit 2d, Rope Walk Shopping Centre",Chapel Street,,Nuneaton,Subway,Takeaway/sandwich shop,7844,5,,362203,0,,52.52185500000000,72465,318,carl.jacobs@nuneatonandbedworth.gov.uk,Nuneaton and Bedworth,http://www.nuneatonandbedworth.gov.uk,-1.46960400000000,CV11 5TZ,2013-09-19,fhrs_5_en-GB,5,,FHRS,5
338774,,,,,Sugar Rush,Retailers - other,4613,5,,718037,0,,,173165,318,carl.jacobs@nuneatonandbedworth.gov.uk,Nuneaton and Bedworth,http://www.nuneatonandbedworth.gov.uk,,,2014-10-06,fhrs_5_en-GB,5,,FHRS,5
338775,,39 Attleborough Road,,Nuneaton,Sundarbon Tandoori,Takeaway/sandwich shop,7844,5,,429163,5,,52.51916100000000,47630,318,carl.jacobs@nuneatonandbedworth.gov.uk,Nuneaton and Bedworth,http://www.nuneatonandbedworth.gov.uk,-1.46026300000000,CV11 4JB,2013-08-08,fhrs_4_en-GB,4,,FHRS,10
338776,18 Abbey Gate Shopping Precinc,Abbey Street,,Nuneaton,Supacigs,Retailers - other,4613,0,,460364,5,,52.52378900000000,51048,318,carl.jacobs@nuneatonandbedworth.gov.uk,Nuneaton and Bedworth,http://www.nuneatonandbedworth.gov.uk,-1.46791500000000,CV11 4HL,2012-09-25,fhrs_5_en-GB,5,,FHRS,0
338777,Leekes,Silverstone Drive,,Longford,Suzy Mc's,Restaurant/Cafe/Canteen,1,5,,460380,10,,52.45403200000000,97194,318,carl.jacobs@nuneatonandbedworth.gov.uk,Nuneaton and Bedworth,http://www.nuneatonandbedworth.gov.uk,-1.49806900000000,CV6 6PA,2014-04-09,fhrs_4_en-GB,4,,FHRS,5
338778,,10 Abbey Gate Centre,,Nuneaton,Sweets and Treats,Takeaway/sandwich shop,7844,5,,429170,0,,52.52378900000000,49122,318,carl.jacobs@nuneatonandbedworth.gov.uk,Nuneaton and Bedworth,http://www.nuneatonandbedworth.gov.uk,-1.46791500000000,CV11 4HL,2013-09-13,fhrs_5_en-GB,5,,FHRS,5
338779,,23 Webb Street,,Nuneaton,T.Brown Butchers,Retailers - other,4613,5,,362166,0,,52.51744700000000,45623,318,carl.jacobs@nuneatonandbedworth.gov.uk,Nuneaton and Bedworth,http://www.nuneatonandbedworth.gov.uk,-1.50851700000000,CV10 8JQ,2013-09-19,fhrs_5_en-GB,5,,FHRS,5
338780,,,,,Taartie,Retailers - other,4613,5,,726250,5,,,173275,318,carl.jacobs@nuneatonandbedworth.gov.uk,Nuneaton and Bedworth,http://www.nuneatonandbedworth.gov.uk,,,2014-11-10,fhrs_5_en-GB,5,,FHRS,5
338781,,90 Regent Street,,Nuneaton,Taz Balti,Takeaway/sandwich shop,7844,0,,235185,5,,52.52440300000000,45394,318,carl.jacobs@nuneatonandbedworth.gov.uk,Nuneaton and Bedworth,http://www.nuneatonandbedworth.gov.uk,-1.46243900000000,CV11 4BL,2013-12-06,fhrs_5_en-GB,5,,FHRS,5
338782,Co-Operative Retail Services L,Abbey Street,,Nuneaton,Tea and Chat,Restaurant/Cafe/Canteen,1,0,,460372,5,,52.52371200000000,75040,318,carl.jacobs@nuneatonandbedworth.gov.uk,Nuneaton and Bedworth,http://www.nuneatonandbedworth.gov.uk,-1.47074600000000,CV11 5BT,2014-03-28,fhrs_5_en-GB,5,,FHRS,5
338783,,3 Congreve Walk,,Bedworth,Terrazzo,Restaurant/Cafe/Canteen,1,5,,235312,10,,52.47963700000000,46054,318,carl.jacobs@nuneatonandbedworth.gov.uk,Nuneaton and Bedworth,http://www.nuneatonandbedworth.gov.uk,-1.47354200000000,CV12 8LX,2014-12-17,fhrs_4_en-GB,4,,FHRS,5
338784,Tesco Stores Ltd,Leicester Street,,Bedworth,Tesco Family Dining Ltd (Tesco Cafe),Restaurant/Cafe/Canteen,1,5,,235219,5,,52.48148100000000,96870,318,carl.jacobs@nuneatonandbedworth.gov.uk,Nuneaton and Bedworth,http://www.nuneatonandbedworth.gov.uk,-1.47360800000000,CV12 8SX,2013-10-23,fhrs_5_en-GB,5,,FHRS,5
338785,Tesco Stores Ltd,Leicester Street,,Bedworth,Tesco Stores Ltd,Retailers - supermarkets/hypermarkets,7840,0,,384902,0,,52.48148100000000,46310,318,carl.jacobs@nuneatonandbedworth.gov.uk,Nuneaton and Bedworth,http://www.nuneatonandbedworth.gov.uk,-1.47360800000000,CV12 8SX,2014-05-20,fhrs_5_en-GB,5,,FHRS,0
338786,,Avenue Road,,Nuneaton,Texaco Garage,Retailers - other,4613,5,,429165,10,,52.51325100000000,48078,318,carl.jacobs@nuneatonandbedworth.gov.uk,Nuneaton and Bedworth,http://www.nuneatonandbedworth.gov.uk,-1.45946600000000,CV11 4JT,2013-10-18,fhrs_3_en-GB,3,,FHRS,10
338787,,18 Coton Road,,Nuneaton,Thai Tham Thai Restaurant,Restaurant/Cafe/Canteen,1,0,,235357,5,,52.52041700000000,44615,318,carl.jacobs@nuneatonandbedworth.gov.uk,Nuneaton and Bedworth,http://www.nuneatonandbedworth.gov.uk,-1.46772000000000,CV11 5TJ,2014-03-11,fhrs_5_en-GB,5,,FHRS,5
338788,,Weddington Road,,Nuneaton,The Anker,Pub/bar/nightclub,7843,10,,235171,10,,52.53054400000000,45632,318,carl.jacobs@nuneatonandbedworth.gov.uk,Nuneaton and Bedworth,http://www.nuneatonandbedworth.gov.uk,-1.46276200000000,CV10 0AN,2014-07-18,fhrs_3_en-GB,3,,FHRS,10
338789,,,,,The Bakehouse,Retailers - other,4613,10,,451639,10,,,96921,318,carl.jacobs@nuneatonandbedworth.gov.uk,Nuneaton and Bedworth,http://www.nuneatonandbedworth.gov.uk,,,2012-09-17,fhrs_3_en-GB,3,,FHRS,5
338790,Bear And Ragged Staff,50 King Street,,Bedworth,The Bear & Ragged Staff,Pub/bar/nightclub,7843,0,,235259,5,,52.47962600000000,46249,318,carl.jacobs@nuneatonandbedworth.gov.uk,Nuneaton and Bedworth,http://www.nuneatonandbedworth.gov.uk,-1.47108300000000,CV12 8JA,2013-08-28,fhrs_5_en-GB,5,,FHRS,5
338791,,15 Abbey Street,,Nuneaton,The Blue Bear,Pub/bar/nightclub,7843,5,,429162,5,,52.52371200000000,47625,318,carl.jacobs@nuneatonandbedworth.gov.uk,Nuneaton and Bedworth,http://www.nuneatonandbedworth.gov.uk,-1.47074600000000,CV11 5BT,2014-01-03,fhrs_5_en-GB,5,,FHRS,5
338792,The Boat Inn,Blackhorse Road,,Longford,The Boat,Pub/bar/nightclub,7843,10,,451636,5,,52.45971000000000,47674,318,carl.jacobs@nuneatonandbedworth.gov.uk,Nuneaton and Bedworth,http://www.nuneatonandbedworth.gov.uk,-1.47442700000000,CV6 6DL,2012-10-15,fhrs_4_en-GB,4,,FHRS,5
338793,Bull And Anchor,233 Wheelwright Lane,,Ash Green,The Bull and Anchor,Pub/bar/nightclub,7843,,,429159,,,52.45721800000000,47390,318,carl.jacobs@nuneatonandbedworth.gov.uk,Nuneaton and Bedworth,http://www.nuneatonandbedworth.gov.uk,-1.50536200000000,CV7 9HN,2014-08-19,fhrs_4_en-GB,4,,FHRS,
338794,The Bull And Spice,Bull Street,,Nuneaton,The Bull and Spice,Pub/bar/nightclub,7843,5,,235125,5,,52.51344500000000,47439,318,carl.jacobs@nuneatonandbedworth.gov.uk,Nuneaton and Bedworth,http://www.nuneatonandbedworth.gov.uk,-1.45688500000000,CV11 4JX,2014-11-06,fhrs_4_en-GB,4,,FHRS,10
338795,2 Newtown Buildings,Newtown Road,,Bedworth,The Cake Shop,Retailers - other,4613,0,,235215,0,,52.47991200000000,46401,318,carl.jacobs@nuneatonandbedworth.gov.uk,Nuneaton and Bedworth,http://www.nuneatonandbedworth.gov.uk,-1.47671900000000,CV12 8QA,2013-10-23,fhrs_5_en-GB,5,,FHRS,5
338796,The Carousel,Dark Lane,,Bedworth,The Carousel,Pub/bar/nightclub,7843,10,,735286,10,,52.47128800000000,47553,318,carl.jacobs@nuneatonandbedworth.gov.uk,Nuneaton and Bedworth,http://www.nuneatonandbedworth.gov.uk,-1.50114000000000,CV12 0JH,2015-01-20,fhrs_3_en-GB,3,,FHRS,10
338797,,Avenue Road,,Nuneaton,The Cedar Tree,Pub/bar/nightclub,7843,0,,235279,5,,52.51556700000000,60936,318,carl.jacobs@nuneatonandbedworth.gov.uk,Nuneaton and Bedworth,http://www.nuneatonandbedworth.gov.uk,-1.46273800000000,CV11 4LX,2013-03-05,fhrs_5_en-GB,5,,FHRS,5
338798,,2b Rainsbrook Drive,,Nuneaton,The Cedars House B & B,Hotel/bed & breakfast/guest house,7842,0,,624303,0,,52.50998400000000,38020,318,carl.jacobs@nuneatonandbedworth.gov.uk,Nuneaton and Bedworth,http://www.nuneatonandbedworth.gov.uk,-1.44133900000000,CV11 6UE,2013-11-12,fhrs_5_en-GB,5,,FHRS,0
338799,Chase Hotel,Higham Lane,,Nuneaton,The Chase Hotel,Restaurant/Cafe/Canteen,1,0,,409178,5,,52.52926800000000,44959,318,carl.jacobs@nuneatonandbedworth.gov.uk,Nuneaton and Bedworth,http://www.nuneatonandbedworth.gov.uk,-1.45495000000000,CV11 6AG,2013-11-21,fhrs_4_en-GB,4,,FHRS,10
338800,,32 Old Hinckley Road,,Nuneaton,The Chestnuts Club,Pub/bar/nightclub,7843,0,,235162,10,,52.52741800000000,47613,318,carl.jacobs@nuneatonandbedworth.gov.uk,Nuneaton and Bedworth,http://www.nuneatonandbedworth.gov.uk,-1.45932200000000,CV10 0AB,2013-03-21,fhrs_4_en-GB,4,,FHRS,5
338801,Chetwynd Arms,Chetwynd Drive,,Nuneaton,The Chetwynd Arms,Pub/bar/nightclub,7843,0,,491887,0,,52.49977200000000,47678,318,carl.jacobs@nuneatonandbedworth.gov.uk,Nuneaton and Bedworth,http://www.nuneatonandbedworth.gov.uk,-1.43208400000000,CV11 4TF,2014-08-28,fhrs_5_en-GB,5,,FHRS,0
338802,Chetwynd Arms,Chetwynd Drive,,Nuneaton,The Chetwynd Kitchen,Restaurant/Cafe/Canteen,1,5,,409190,10,,52.49977200000000,75039,318,carl.jacobs@nuneatonandbedworth.gov.uk,Nuneaton and Bedworth,http://www.nuneatonandbedworth.gov.uk,-1.43208400000000,CV11 4TF,2014-08-28,fhrs_4_en-GB,4,,FHRS,5
338803,"The Coffee Shop, Nuneaton Trent Valley Station",Bond Street,,Nuneaton,The Coffee Shop - Nuneaton Railway Station,Restaurant/Cafe/Canteen,1,10,,235243,10,,52.52648700000000,50954,318,carl.jacobs@nuneatonandbedworth.gov.uk,Nuneaton and Bedworth,http://www.nuneatonandbedworth.gov.uk,-1.46410900000000,CV11 4BU,2011-11-25,fhrs_3_en-GB,3,,FHRS,5
338804,Corner House Hotel,Nuneaton Road,,Bulkington,The Corner House,Pub/bar/nightclub,7843,0,,429158,5,,52.49570500000000,47383,318,carl.jacobs@nuneatonandbedworth.gov.uk,Nuneaton and Bedworth,http://www.nuneatonandbedworth.gov.uk,-1.43327100000000,CV12 9SB,2013-11-29,fhrs_4_en-GB,4,,FHRS,10
338805,,Bond Street,,Nuneaton,The Crown,Restaurant/Cafe/Canteen,1,10,,362184,5,,52.52544900000000,47635,318,carl.jacobs@nuneatonandbedworth.gov.uk,Nuneaton and Bedworth,http://www.nuneatonandbedworth.gov.uk,-1.46513800000000,CV11 4BX,2014-03-23,fhrs_3_en-GB,3,,FHRS,10
338806,,Crowhill Road,,Nuneaton,The Crows Nest,Pub/bar/nightclub,7843,0,,235350,5,,52.50857400000000,47604,318,carl.jacobs@nuneatonandbedworth.gov.uk,Nuneaton and Bedworth,http://www.nuneatonandbedworth.gov.uk,-1.43980900000000,CV11 6PJ,2014-05-29,fhrs_5_en-GB,5,,FHRS,5
338807,Crystal Palace,Gadsby Street,,Nuneaton,The Crystal Palace,Pub/bar/nightclub,7843,5,,451634,10,,52.51441400000000,47462,318,carl.jacobs@nuneatonandbedworth.gov.uk,Nuneaton and Bedworth,http://www.nuneatonandbedworth.gov.uk,-1.45055100000000,CV11 4PA,2015-01-13,fhrs_3_en-GB,3,,FHRS,10
338808,"Restaurant, Bermuda Park",St Davids Way,,Nuneaton,The Eatery,Restaurant/Cafe/Canteen,1,10,,409189,5,,52.49688600000000,74413,318,carl.jacobs@nuneatonandbedworth.gov.uk,Nuneaton and Bedworth,http://www.nuneatonandbedworth.gov.uk,-1.47681200000000,CV10 7SD,2014-09-15,fhrs_3_en-GB,3,,FHRS,10
338809,,3 Stratford Street,,Nuneaton,The Felix Holt,Pub/bar/nightclub,7843,0,,235353,5,,52.52315600000000,60901,318,carl.jacobs@nuneatonandbedworth.gov.uk,Nuneaton and Bedworth,http://www.nuneatonandbedworth.gov.uk,-1.46913100000000,CV11 5BS,2012-12-20,fhrs_5_en-GB,5,,FHRS,5
338810,The Fox Inn,The Square,,Nuneaton,The Fox Inn,Pub/bar/nightclub,7843,0,,235263,0,,52.51327900000000,47505,318,carl.jacobs@nuneatonandbedworth.gov.uk,Nuneaton and Bedworth,http://www.nuneatonandbedworth.gov.uk,-1.45585500000000,CV11 4JY,2015-01-23,fhrs_5_en-GB,5,,FHRS,5
338811,2 Oakley Court,Pheasant Close,,Bedworth,The Golden House,Takeaway/sandwich shop,7844,5,,362171,10,,52.47379200000000,46455,318,carl.jacobs@nuneatonandbedworth.gov.uk,Nuneaton and Bedworth,http://www.nuneatonandbedworth.gov.uk,-1.50645700000000,CV12 0EQ,2013-10-24,fhrs_3_en-GB,3,,FHRS,10
338812,,Bond Gate,,Nuneaton,The Granby,Pub/bar/nightclub,7843,10,,499710,10,,52.52362500000000,44419,318,carl.jacobs@nuneatonandbedworth.gov.uk,Nuneaton and Bedworth,http://www.nuneatonandbedworth.gov.uk,-1.46542600000000,CV11 4AL,2014-09-24,fhrs_3_en-GB,3,,FHRS,5
338813,Grand Bingo,Camp Hill Road,,Camp Hill,The Grand Bingo Club,Pub/bar/nightclub,7843,5,,235305,5,,52.53686000000000,44530,318,carl.jacobs@nuneatonandbedworth.gov.uk,Nuneaton and Bedworth,http://www.nuneatonandbedworth.gov.uk,-1.51611500000000,CV10 0JP,2014-07-07,fhrs_5_en-GB,5,,FHRS,0
338814,,51-53 Church Road,,Nuneaton,The Green Bear,Pub/bar/nightclub,7843,10,,235341,5,,52.51655200000000,47395,318,carl.jacobs@nuneatonandbedworth.gov.uk,Nuneaton and Bedworth,http://www.nuneatonandbedworth.gov.uk,-1.50948500000000,CV10 8LB,2013-07-02,fhrs_3_en-GB,3,,FHRS,10
338815,,19 Abbey Green,,Nuneaton,The Green' Tea Room,Restaurant/Cafe/Canteen,1,5,,629828,0,,52.52771500000000,98389,318,carl.jacobs@nuneatonandbedworth.gov.uk,Nuneaton and Bedworth,http://www.nuneatonandbedworth.gov.uk,-1.47535500000000,CV11 5DS,2014-09-11,fhrs_5_en-GB,5,,FHRS,5
338816,,Coventry Road,,Nuneaton,The Griffin,Pub/bar/nightclub,7843,0,,384906,5,,52.49509300000000,47656,318,carl.jacobs@nuneatonandbedworth.gov.uk,Nuneaton and Bedworth,http://www.nuneatonandbedworth.gov.uk,-1.47391700000000,CV10 7PJ,2014-04-25,fhrs_4_en-GB,4,,FHRS,10
338817,King Edward Vi Form College,King Edward Road,,Nuneaton,The Head Teacher,School/college/university,7845,5,,362155,5,,52.52217000000000,45003,318,carl.jacobs@nuneatonandbedworth.gov.uk,Nuneaton and Bedworth,http://www.nuneatonandbedworth.gov.uk,-1.46167000000000,CV11 4BG,2013-09-30,fhrs_5_en-GB,5,,FHRS,0
338818,Ambleside Leisure Association,Ambleside Way,,Nuneaton,The Higham Lane Leisure Association,Pub/bar/nightclub,7843,0,,582732,5,,52.53218100000000,44962,318,carl.jacobs@nuneatonandbedworth.gov.uk,Nuneaton and Bedworth,http://www.nuneatonandbedworth.gov.uk,-1.45111100000000,CV11 6AT,2013-07-18,fhrs_4_en-GB,4,,FHRS,10
338819,,2 Heath End Road,,Nuneaton,The Horseshoes,Pub/bar/nightclub,7843,10,,551783,15,,52.51361200000000,47669,318,carl.jacobs@nuneatonandbedworth.gov.uk,Nuneaton and Bedworth,http://www.nuneatonandbedworth.gov.uk,-1.47586200000000,CV10 7JQ,2014-10-17,fhrs_2_en-GB,2,,FHRS,10
338820,,Chapel Street,,Nuneaton,The Jailhouse,Pub/bar/nightclub,7843,5,,409183,10,,52.52158900000000,48167,318,carl.jacobs@nuneatonandbedworth.gov.uk,Nuneaton and Bedworth,http://www.nuneatonandbedworth.gov.uk,-1.46850100000000,CV11 5QH,2013-07-15,fhrs_4_en-GB,4,,FHRS,5
338821,,8 Newdegate Street,,Nuneaton,The Kiosk,Takeaway/sandwich shop,7844,5,,429141,5,,52.52330300000000,45132,318,carl.jacobs@nuneatonandbedworth.gov.uk,Nuneaton and Bedworth,http://www.nuneatonandbedworth.gov.uk,-1.46767000000000,CV11 4EL,2013-02-07,fhrs_5_en-GB,5,,FHRS,5
338822,,123 Cedar Road,,Nuneaton,The Little Shop,Retailers - other,4613,5,,565632,10,,52.53047700000000,44537,318,carl.jacobs@nuneatonandbedworth.gov.uk,Nuneaton and Bedworth,http://www.nuneatonandbedworth.gov.uk,-1.49454500000000,CV10 9DE,2013-06-11,fhrs_3_en-GB,3,,FHRS,10
338823,,18 Chequer Street,,Bulkington,The Little Shop,Retailers - other,4613,0,,593853,0,,52.47537700000000,46014,318,carl.jacobs@nuneatonandbedworth.gov.uk,Nuneaton and Bedworth,http://www.nuneatonandbedworth.gov.uk,-1.42550800000000,CV12 9NH,2013-09-18,fhrs_5_en-GB,5,,FHRS,5
338824,,The Long Shoot,,Nuneaton,The Longshoot Motel,Restaurant/Cafe/Canteen,1,5,,235332,5,,52.53440000000000,47701,318,carl.jacobs@nuneatonandbedworth.gov.uk,Nuneaton and Bedworth,http://www.nuneatonandbedworth.gov.uk,-1.42246800000000,CV11 6JH,2013-09-27,fhrs_4_en-GB,4,,FHRS,10
338825,,66 Coventry Road,,Exhall,The Lunch Box,Takeaway/sandwich shop,7844,10,,235126,15,,52.46474700000000,60536,318,carl.jacobs@nuneatonandbedworth.gov.uk,Nuneaton and Bedworth,http://www.nuneatonandbedworth.gov.uk,-1.48308100000000,CV7 9EU,2014-10-08,fhrs_2_en-GB,2,,FHRS,10
338826,The Mayor's Cafe Miners Welfare Park,Rye Piece Ringway,,Bedworth,The Mayor's Cafe,Restaurant/Cafe/Canteen,1,5,,683296,5,,,172913,318,carl.jacobs@nuneatonandbedworth.gov.uk,Nuneaton and Bedworth,http://www.nuneatonandbedworth.gov.uk,,,2014-07-07,fhrs_5_en-GB,5,,FHRS,5
338827,,68 Queens Road,,Nuneaton,The Modern Cake Shop,Retailers - other,4613,10,,429143,5,,52.52224000000000,45317,318,carl.jacobs@nuneatonandbedworth.gov.uk,Nuneaton and Bedworth,http://www.nuneatonandbedworth.gov.uk,-1.47334200000000,CV11 5JZ,2014-07-21,fhrs_2_en-GB,2,,FHRS,15
338828,Newdigate Arms,Newdigate Road,,Bedworth,The Newdigate Arms,Pub/bar/nightclub,7843,5,,429157,15,,52.48199500000000,47327,318,carl.jacobs@nuneatonandbedworth.gov.uk,Nuneaton and Bedworth,http://www.nuneatonandbedworth.gov.uk,-1.48211300000000,CV12 8EF,2014-08-28,fhrs_2_en-GB,2,,FHRS,5
338829,,Radnor Drive,,Nuneaton,The Nuneaton Academy,School/college/university,7845,10,,235260,10,,52.51490500000000,49070,318,carl.jacobs@nuneatonandbedworth.gov.uk,Nuneaton and Bedworth,http://www.nuneatonandbedworth.gov.uk,-1.50268100000000,CV10 7PD,2014-06-23,fhrs_3_en-GB,3,,FHRS,10
338830,"Odeon Cinema, Bermuda Park",St Davids Way,,Nuneaton,The Odeon Cinema,Restaurant/Cafe/Canteen,1,,,565645,,,52.49738300000000,61282,318,carl.jacobs@nuneatonandbedworth.gov.uk,Nuneaton and Bedworth,http://www.nuneatonandbedworth.gov.uk,-1.47745400000000,CV10 7SD,2013-11-20,fhrs_4_en-GB,4,,FHRS,
338831,Old Rectory Nursing Home,Leicester Road,,Bedworth,The Old Rectory Residential Care Home,Hospitals/Childcare/Caring Premises,5,5,,235115,5,,52.48265000000000,15001,318,carl.jacobs@nuneatonandbedworth.gov.uk,Nuneaton and Bedworth,http://www.nuneatonandbedworth.gov.uk,-1.47378600000000,CV12 8BU,2015-02-04,fhrs_5_en-GB,5,,FHRS,5
338832,Royal Oak,Nuneaton Road,,Bedworth,The Old Royal Oak,Pub/bar/nightclub,7843,0,,551780,0,,52.48886800000000,46445,318,carl.jacobs@nuneatonandbedworth.gov.uk,Nuneaton and Bedworth,http://www.nuneatonandbedworth.gov.uk,-1.47304900000000,CV12 8AP,2013-05-03,fhrs_5_en-GB,5,,FHRS,5
338833,,Smorrall Lane,,Bedworth,The Plough Inn,Pub/bar/nightclub,7843,5,,565637,0,,52.47595100000000,47388,318,carl.jacobs@nuneatonandbedworth.gov.uk,Nuneaton and Bedworth,http://www.nuneatonandbedworth.gov.uk,-1.51111400000000,CV12 0LG,2013-02-06,fhrs_5_en-GB,5,,FHRS,5
338834,,225 Arbury Road,,Stockingford,The Poplars,Hospitals/Childcare/Caring Premises,5,0,,235297,0,,52.51560800000000,62150,318,carl.jacobs@nuneatonandbedworth.gov.uk,Nuneaton and Bedworth,http://www.nuneatonandbedworth.gov.uk,-1.50293800000000,CV10 7NH,2014-04-10,fhrs_5_en-GB,5,,FHRS,5
338835,,Arbury Road,,Stockingford,The Prince,Pub/bar/nightclub,7843,20,,235119,10,,52.51564300000000,47421,318,carl.jacobs@nuneatonandbedworth.gov.uk,Nuneaton and Bedworth,http://www.nuneatonandbedworth.gov.uk,-1.49866400000000,CV10 7NJ,2014-09-19,fhrs_1_en-GB,1,,FHRS,20
338836,,Coton Road,,Nuneaton,The Rose Inn,Pub/bar/nightclub,7843,0,,565642,0,,52.51909400000000,47594,318,carl.jacobs@nuneatonandbedworth.gov.uk,Nuneaton and Bedworth,http://www.nuneatonandbedworth.gov.uk,-1.46742600000000,CV11 5TW,2013-03-20,fhrs_4_en-GB,4,,FHRS,10
338837,The Royal Oak,4 The Square,,Nuneaton,The Royal Oak,Pub/bar/nightclub,7843,10,,362180,10,,52.51327900000000,47504,318,carl.jacobs@nuneatonandbedworth.gov.uk,Nuneaton and Bedworth,http://www.nuneatonandbedworth.gov.uk,-1.45585500000000,CV11 4JY,2013-10-04,fhrs_2_en-GB,2,,FHRS,15
338838,,202 Arbury Road,,Stockingford,The Sizzle,Takeaway/sandwich shop,7844,5,,235303,5,,52.51533700000000,44339,318,carl.jacobs@nuneatonandbedworth.gov.uk,Nuneaton and Bedworth,http://www.nuneatonandbedworth.gov.uk,-1.50283800000000,CV10 7ND,2014-07-15,fhrs_5_en-GB,5,,FHRS,5
338839,,180-182 Lutterworth Road,,Nuneaton,The Spar,Retailers - other,4613,5,,429166,5,,52.50619200000000,48922,318,carl.jacobs@nuneatonandbedworth.gov.uk,Nuneaton and Bedworth,http://www.nuneatonandbedworth.gov.uk,-1.43598000000000,CV11 6PF,2013-12-13,fhrs_5_en-GB,5,,FHRS,5
338840,Abbey Gate Shopping Precinct,Abbey Street,,Nuneaton,The Spicy Spud,Mobile caterer,7846,0,,235136,5,,52.52378900000000,49020,318,carl.jacobs@nuneatonandbedworth.gov.uk,Nuneaton and Bedworth,http://www.nuneatonandbedworth.gov.uk,-1.46791500000000,CV11 4HL,2013-04-17,fhrs_5_en-GB,5,,FHRS,0
338841,Sunnyside Inn,Northumberland Avenue,,Nuneaton,The Sunnyside,Pub/bar/nightclub,7843,0,,235349,0,,52.51922000000000,47486,318,carl.jacobs@nuneatonandbedworth.gov.uk,Nuneaton and Bedworth,http://www.nuneatonandbedworth.gov.uk,-1.49202100000000,CV10 8ER,2013-07-09,fhrs_5_en-GB,5,,FHRS,0
338842,6 Bedworth Market,Church Way,,Bedworth,The Sweet Man,Mobile caterer,7846,0,,629830,10,,52.47975900000000,98853,318,carl.jacobs@nuneatonandbedworth.gov.uk,Nuneaton and Bedworth,http://www.nuneatonandbedworth.gov.uk,-1.47455600000000,CV12 8LZ,2014-01-17,fhrs_4_en-GB,4,,FHRS,5
338843,,2 Chapel Street,,Nuneaton,The Sycamore Tree Trust,Restaurant/Cafe/Canteen,1,0,,551784,0,,52.52158900000000,48166,318,carl.jacobs@nuneatonandbedworth.gov.uk,Nuneaton and Bedworth,http://www.nuneatonandbedworth.gov.uk,-1.46850100000000,CV11 5QH,2013-04-23,fhrs_5_en-GB,5,,FHRS,5
338844,,15 Pinetree Road,,Bedworth,The Three Cake-a-Tiers,Retailers - other,4613,0,,510296,5,,52.48482500000000,46479,318,carl.jacobs@nuneatonandbedworth.gov.uk,Nuneaton and Bedworth,http://www.nuneatonandbedworth.gov.uk,-1.46361400000000,CV12 9BG,2013-02-14,fhrs_5_en-GB,5,,FHRS,5
338845,,6 Leicester Street,,Bulkington,The Village Cafe,Restaurant/Cafe/Canteen,1,10,,444557,10,,52.47601200000000,46314,318,carl.jacobs@nuneatonandbedworth.gov.uk,Nuneaton and Bedworth,http://www.nuneatonandbedworth.gov.uk,-1.42472000000000,CV12 9NG,2014-02-28,fhrs_3_en-GB,3,,FHRS,10
338846,,4 George Street,,Nuneaton,The Village Pantry,Restaurant/Cafe/Canteen,1,0,,235322,5,,52.51305400000000,44812,318,carl.jacobs@nuneatonandbedworth.gov.uk,Nuneaton and Bedworth,http://www.nuneatonandbedworth.gov.uk,-1.45584300000000,CV11 4LA,2014-05-08,fhrs_5_en-GB,5,,FHRS,5
338847,White Horse Inn,19 Mill Street,,Bedworth,The White Horse,Pub/bar/nightclub,7843,5,,491886,0,,52.48043300000000,47572,318,carl.jacobs@nuneatonandbedworth.gov.uk,Nuneaton and Bedworth,http://www.nuneatonandbedworth.gov.uk,-1.47465100000000,CV12 8JX,2012-12-12,fhrs_4_en-GB,4,,FHRS,10
338848,The Hayrick,Meadowside,,Nuneaton,The White Stone,Pub/bar/nightclub,7843,5,,485185,5,,52.50573200000000,47680,318,carl.jacobs@nuneatonandbedworth.gov.uk,Nuneaton and Bedworth,http://www.nuneatonandbedworth.gov.uk,-1.43007800000000,CV11 6NF,2014-05-16,fhrs_5_en-GB,5,,FHRS,5
338849,Bond House,Newdegate Street,,Nuneaton,The William White,Pub/bar/nightclub,7843,5,,572053,0,,52.52355800000000,45159,318,carl.jacobs@nuneatonandbedworth.gov.uk,Nuneaton and Bedworth,http://www.nuneatonandbedworth.gov.uk,-1.46642900000000,CV11 4EU,2013-05-07,fhrs_5_en-GB,5,,FHRS,0
338850,,9c Trafford Drive,,Nuneaton,Tiffins,Takeaway/sandwich shop,7844,5,,551787,5,,52.53007300000000,73130,318,carl.jacobs@nuneatonandbedworth.gov.uk,Nuneaton and Bedworth,http://www.nuneatonandbedworth.gov.uk,-1.51399300000000,CV10 9LP,2013-04-05,fhrs_5_en-GB,5,,FHRS,5
338851,Ambleside Leisure Association,Ambleside Way,,Nuneaton,Tomorrows Catering,Restaurant/Cafe/Canteen,1,0,,235226,5,,52.53218100000000,96079,318,carl.jacobs@nuneatonandbedworth.gov.uk,Nuneaton and Bedworth,http://www.nuneatonandbedworth.gov.uk,-1.45111100000000,CV11 6AT,2014-10-04,fhrs_5_en-GB,5,,FHRS,5
338852,,4 Eadie Street,,Nuneaton,Tony's Cafe,Restaurant/Cafe/Canteen,1,0,,444554,5,,52.52215000000000,44726,318,carl.jacobs@nuneatonandbedworth.gov.uk,Nuneaton and Bedworth,http://www.nuneatonandbedworth.gov.uk,-1.50666700000000,CV10 8JA,2014-02-28,fhrs_5_en-GB,5,,FHRS,0
338853,,16 Newdigate Road,,Bedworth,Tony's Ices,Mobile caterer,7846,,,572052,,,52.48032600000000,16290,318,carl.jacobs@nuneatonandbedworth.gov.uk,Nuneaton and Bedworth,http://www.nuneatonandbedworth.gov.uk,-1.48099900000000,CV12 8EE,2013-07-31,fhrs_5_en-GB,5,,FHRS,
338854,Site 117C018,Bayton Road,,Mobile Food Van,Top Nosh,Mobile caterer,7846,10,,565652,15,,,98386,318,carl.jacobs@nuneatonandbedworth.gov.uk,Nuneaton and Bedworth,http://www.nuneatonandbedworth.gov.uk,,,2014-12-15,fhrs_2_en-GB,2,,FHRS,15
338855,,18 Stratford Street,,Nuneaton,Toppers Fish Bar,Takeaway/sandwich shop,7844,5,,235203,0,,52.52315600000000,45476,318,carl.jacobs@nuneatonandbedworth.gov.uk,Nuneaton and Bedworth,http://www.nuneatonandbedworth.gov.uk,-1.46913100000000,CV11 5BS,2013-01-17,fhrs_5_en-GB,5,,FHRS,5
338856,,11 Abbey Green,,Nuneaton,Town Talk,Pub/bar/nightclub,7843,5,,735285,5,,52.52720100000000,47406,318,carl.jacobs@nuneatonandbedworth.gov.uk,Nuneaton and Bedworth,http://www.nuneatonandbedworth.gov.uk,-1.47514000000000,CV11 5DR,2015-01-22,fhrs_5_en-GB,5,,FHRS,5
338857,Marston Hall Farm,Marston Lane,,Bedworth,Toy Box Day Nursery,Hospitals/Childcare/Caring Premises,5,0,,429169,0,,52.49201400000000,49051,318,carl.jacobs@nuneatonandbedworth.gov.uk,Nuneaton and Bedworth,http://www.nuneatonandbedworth.gov.uk,-1.44726600000000,CV12 9SD,2014-01-05,fhrs_5_en-GB,5,,FHRS,5
338858,Amid Palace,Griff Way,,Nuneaton,Traceys Cafe,Restaurant/Cafe/Canteen,1,5,,235346,5,,52.50853000000000,95596,318,carl.jacobs@nuneatonandbedworth.gov.uk,Nuneaton and Bedworth,http://www.nuneatonandbedworth.gov.uk,-1.47518600000000,CV10 7DA,2014-07-30,fhrs_4_en-GB,4,,FHRS,10
338859,Travellers Rest,Bulkington Road,,Bedworth,Travellers Rest,Pub/bar/nightclub,7843,5,,235134,10,,52.47869300000000,47544,318,carl.jacobs@nuneatonandbedworth.gov.uk,Nuneaton and Bedworth,http://www.nuneatonandbedworth.gov.uk,-1.46554300000000,CV12 9DG,2014-01-20,fhrs_4_en-GB,4,,FHRS,5
338860,,Griff Way,,Nuneaton,Travelodge,Hotel/bed & breakfast/guest house,7842,0,,362188,0,,52.50859700000000,48154,318,carl.jacobs@nuneatonandbedworth.gov.uk,Nuneaton and Bedworth,http://www.nuneatonandbedworth.gov.uk,-1.47418300000000,CV10 7TF,2014-05-19,fhrs_5_en-GB,5,,FHRS,0
338861,,New Street,,Bedworth,Trent Valley House WMC,Pub/bar/nightclub,7843,10,,451631,5,,52.47957700000000,46397,318,carl.jacobs@nuneatonandbedworth.gov.uk,Nuneaton and Bedworth,http://www.nuneatonandbedworth.gov.uk,-1.46417800000000,CV12 9DL,2014-03-31,fhrs_4_en-GB,4,,FHRS,5
338862,"Units 19-21, Chilvers Coton Craft Centre",Avenue Road,,Nuneaton,Tricia's Cafe,Restaurant/Cafe/Canteen,1,0,,235269,0,,,60072,318,carl.jacobs@nuneatonandbedworth.gov.uk,Nuneaton and Bedworth,http://www.nuneatonandbedworth.gov.uk,,CV11 4LT,2013-05-14,fhrs_5_en-GB,5,,FHRS,5
338863,"Triton Plc, Shepperton Business Park",Caldwell Road,,Nuneaton,Triton plc (Staff Canteen),Restaurant/Cafe/Canteen,1,10,,362194,5,,52.51127300000000,60136,318,carl.jacobs@nuneatonandbedworth.gov.uk,Nuneaton and Bedworth,http://www.nuneatonandbedworth.gov.uk,-1.46352800000000,CV11 4NR,2013-09-19,fhrs_4_en-GB,4,,FHRS,5
338864,,,,,Truly Scrumptious,Retailers - other,4613,0,,535055,0,,,9288,318,carl.jacobs@nuneatonandbedworth.gov.uk,Nuneaton and Bedworth,http://www.nuneatonandbedworth.gov.uk,,,2013-01-10,fhrs_5_en-GB,5,,FHRS,0
338865,"Unit 23, Centenary Business Centre",Hammond Close,,Nuneaton,Truly Sumptuous,Retailers - other,4613,0,,683298,0,,52.51880100000000,47036,318,carl.jacobs@nuneatonandbedworth.gov.uk,Nuneaton and Bedworth,http://www.nuneatonandbedworth.gov.uk,-1.45057000000000,CV11 6RY,2014-05-12,fhrs_5_en-GB,5,,FHRS,5
338866,,180 Marston Lane,,Bedworth,TSA News & Wine,Retailers - other,4613,5,,235365,10,,52.48789000000000,47681,318,carl.jacobs@nuneatonandbedworth.gov.uk,Nuneaton and Bedworth,http://www.nuneatonandbedworth.gov.uk,-1.46553500000000,CV12 9AD,2013-07-09,fhrs_3_en-GB,3,,FHRS,10
338867,,382 Tuttle Hill,,Nuneaton,Tuttle Hill Post Office,Retailers - other,4613,5,,565641,15,,52.53239300000000,47512,318,carl.jacobs@nuneatonandbedworth.gov.uk,Nuneaton and Bedworth,http://www.nuneatonandbedworth.gov.uk,-1.49251800000000,CV10 0HS,2013-06-11,fhrs_2_en-GB,2,,FHRS,10
338868,Unit 12,Hamilton Way,,Nuneaton,Unipart (Canteen),Restaurant/Cafe/Canteen,1,5,,235228,0,,52.50124900000000,75334,318,carl.jacobs@nuneatonandbedworth.gov.uk,Nuneaton and Bedworth,http://www.nuneatonandbedworth.gov.uk,-1.47751200000000,CV10 7RL,2014-07-22,fhrs_5_en-GB,5,,FHRS,5
338869,Old Meeting Yard,Leicester Street,,Bedworth,United Reform Church Lunch Club,Other catering premises,7841,5,,634108,10,,52.48149300000000,96260,318,carl.jacobs@nuneatonandbedworth.gov.uk,Nuneaton and Bedworth,http://www.nuneatonandbedworth.gov.uk,-1.47226800000000,CV12 8JR,2014-02-06,fhrs_4_en-GB,4,,FHRS,5
338870,,48 Leicester Street,,Bulkington,Village Chippy,Takeaway/sandwich shop,7844,0,,460355,5,,52.47601200000000,46329,318,carl.jacobs@nuneatonandbedworth.gov.uk,Nuneaton and Bedworth,http://www.nuneatonandbedworth.gov.uk,-1.42472000000000,CV12 9NG,2014-03-18,fhrs_4_en-GB,4,,FHRS,10
338871,,3 Copper Beech Road,,Nuneaton,Village Seven Fish and Chips,Takeaway/sandwich shop,7844,5,,499714,5,,52.53105500000000,96368,318,carl.jacobs@nuneatonandbedworth.gov.uk,Nuneaton and Bedworth,http://www.nuneatonandbedworth.gov.uk,-1.50572700000000,CV10 9FB,2013-01-15,fhrs_5_en-GB,5,,FHRS,5
338872,,376 Croft Road,,Nuneaton,Vintage Rose Cake Company,Retailers - other,4613,0,,701892,0,,52.51569900000000,44692,318,carl.jacobs@nuneatonandbedworth.gov.uk,Nuneaton and Bedworth,http://www.nuneatonandbedworth.gov.uk,-1.49278400000000,CV10 7DY,2014-08-20,fhrs_5_en-GB,5,,FHRS,0
338873,"W H Smith, George Eliot Hosp",College Street,,Nuneaton,W H Smith,Retailers - other,4613,5,,582738,15,,52.51200900000000,50801,318,carl.jacobs@nuneatonandbedworth.gov.uk,Nuneaton and Bedworth,http://www.nuneatonandbedworth.gov.uk,-1.47514400000000,CV10 7DJ,2013-07-31,fhrs_2_en-GB,2,,FHRS,5
338874,Wheatcroft Farm,The Long Shoot,,Nuneaton,"W J Peace & Son,",Retailers - other,4613,10,,535048,5,,52.51818800000000,34112,318,carl.jacobs@nuneatonandbedworth.gov.uk,Nuneaton and Bedworth,http://www.nuneatonandbedworth.gov.uk,-1.45793200000000,CV11 4NX,2013-02-22,fhrs_4_en-GB,4,,FHRS,5
338875,,188 Weddington Road,,Nuneaton,"W R Stevenson, Butcher",Retailers - other,4613,5,,235301,5,,52.53305900000000,45641,318,carl.jacobs@nuneatonandbedworth.gov.uk,Nuneaton and Bedworth,http://www.nuneatonandbedworth.gov.uk,-1.46618100000000,CV10 0EJ,2014-09-11,fhrs_4_en-GB,4,,FHRS,10
338876,,42 Bond Street,,Nuneaton,Wales Fish Shop,Takeaway/sandwich shop,7844,5,,235344,5,,52.52450400000000,44437,318,carl.jacobs@nuneatonandbedworth.gov.uk,Nuneaton and Bedworth,http://www.nuneatonandbedworth.gov.uk,-1.46494400000000,CV11 4DA,2014-07-31,fhrs_4_en-GB,4,,FHRS,10
338877,The Weavers Arms,Long Street,,Bulkington,Weavers Arms,Pub/bar/nightclub,7843,10,,735287,5,,52.47900000000000,47567,318,carl.jacobs@nuneatonandbedworth.gov.uk,Nuneaton and Bedworth,http://www.nuneatonandbedworth.gov.uk,-1.41443200000000,CV12 9JZ,2015-01-20,fhrs_4_en-GB,4,,FHRS,5
338878,Heart Of England Co-Operative,Abbey Street,,Nuneaton,Weavers Cafe,Restaurant/Cafe/Canteen,1,0,,235128,0,,52.52303900000000,50581,318,carl.jacobs@nuneatonandbedworth.gov.uk,Nuneaton and Bedworth,http://www.nuneatonandbedworth.gov.uk,-1.47103400000000,CV11 5BU,2014-07-29,fhrs_5_en-GB,5,,FHRS,5
338879,,124 Weddington Road,,Nuneaton,Weddington Fish & Chips,Takeaway/sandwich shop,7844,5,,235148,0,,52.53083700000000,47527,318,carl.jacobs@nuneatonandbedworth.gov.uk,Nuneaton and Bedworth,http://www.nuneatonandbedworth.gov.uk,-1.46377600000000,CV10 0AL,2014-07-01,fhrs_5_en-GB,5,,FHRS,5
338880,,122 Weddington Road,,Nuneaton,Weddington House,Takeaway/sandwich shop,7844,0,,235223,5,,52.53083700000000,47526,318,carl.jacobs@nuneatonandbedworth.gov.uk,Nuneaton and Bedworth,http://www.nuneatonandbedworth.gov.uk,-1.46377600000000,CV10 0AL,2013-03-04,fhrs_5_en-GB,5,,FHRS,0
338881,,238 Weddington Road,,Nuneaton,Weddington Off Licence and News,Retailers - other,4613,5,,701894,0,,52.53581000000000,47529,318,carl.jacobs@nuneatonandbedworth.gov.uk,Nuneaton and Bedworth,http://www.nuneatonandbedworth.gov.uk,-1.46610400000000,CV10 0ER,2014-08-29,fhrs_5_en-GB,5,,FHRS,5
338882,,Winchester Avenue,,Nuneaton,Weddington Primary School,School/college/university,7845,5,,235361,0,,52.53721200000000,49090,318,carl.jacobs@nuneatonandbedworth.gov.uk,Nuneaton and Bedworth,http://www.nuneatonandbedworth.gov.uk,-1.46024800000000,CV10 0DN,2014-11-04,fhrs_4_en-GB,4,,FHRS,10
338883,,Avenue Road,,Nuneaton,Wembrook Primary School,School/college/university,7845,0,,235238,0,,52.51433800000000,44389,318,carl.jacobs@nuneatonandbedworth.gov.uk,Nuneaton and Bedworth,http://www.nuneatonandbedworth.gov.uk,-1.46540600000000,CV11 4LU,2013-11-21,fhrs_4_en-GB,4,,FHRS,10
338884,,,,,Wendy's Catering,Restaurant/Cafe/Canteen,1,5,,565649,10,,,75030,318,carl.jacobs@nuneatonandbedworth.gov.uk,Nuneaton and Bedworth,http://www.nuneatonandbedworth.gov.uk,,,2013-06-20,fhrs_4_en-GB,4,,FHRS,0
338885,,,,,Wendy's Kitchen,Mobile caterer,7846,5,,565650,5,,,95983,318,carl.jacobs@nuneatonandbedworth.gov.uk,Nuneaton and Bedworth,http://www.nuneatonandbedworth.gov.uk,,,2014-06-24,fhrs_5_en-GB,5,,FHRS,5
338886,Weston Hall Hotel,Weston Lane,,Bulkington,Weston Hall Hotel,Restaurant/Cafe/Canteen,1,0,,235330,5,,52.48167400000000,49169,318,carl.jacobs@nuneatonandbedworth.gov.uk,Nuneaton and Bedworth,http://www.nuneatonandbedworth.gov.uk,-1.43568900000000,CV12 9RU,2014-07-09,fhrs_4_en-GB,4,,FHRS,10
338887,Weston Hill Farm,195 Nuneaton Road,,Bulkington,Weston Hill Farm,Retailers - other,4613,0,,572057,10,,52.48462500000000,69168,318,carl.jacobs@nuneatonandbedworth.gov.uk,Nuneaton and Bedworth,http://www.nuneatonandbedworth.gov.uk,-1.42494600000000,CV12 9RY,2013-07-03,fhrs_4_en-GB,4,,FHRS,5
338888,Weston Lawn Farm,Bedworth Road,,Bulkington,Weston Lawns Equitation Centre,Restaurant/Cafe/Canteen,1,5,,235294,5,,52.47777400000000,89506,318,carl.jacobs@nuneatonandbedworth.gov.uk,Nuneaton and Bedworth,http://www.nuneatonandbedworth.gov.uk,-1.44922600000000,CV12 9JA,2013-06-06,fhrs_5_en-GB,5,,FHRS,5
338889,,Wheelwright Lane,,Ash Green,Wheelwright Lane Primary School,School/college/university,7845,0,,384903,0,,52.45721800000000,46551,318,carl.jacobs@nuneatonandbedworth.gov.uk,Nuneaton and Bedworth,http://www.nuneatonandbedworth.gov.uk,-1.50536200000000,CV7 9HN,2013-11-22,fhrs_5_en-GB,5,,FHRS,5
338890,White Lion Inn,Croft Road,,Nuneaton,White Lion,Pub/bar/nightclub,7843,20,,235338,15,,52.51583000000000,44695,318,carl.jacobs@nuneatonandbedworth.gov.uk,Nuneaton and Bedworth,http://www.nuneatonandbedworth.gov.uk,-1.49397600000000,CV10 7DZ,2014-07-03,fhrs_1_en-GB,1,,FHRS,10
338891,,Magyar Crescent,,Nuneaton,Whitestone Infant School,School/college/university,7845,0,,429140,5,,52.50371000000000,45046,318,carl.jacobs@nuneatonandbedworth.gov.uk,Nuneaton and Bedworth,http://www.nuneatonandbedworth.gov.uk,-1.44165400000000,CV11 4SQ,2014-11-10,fhrs_4_en-GB,4,,FHRS,10
338892,Whittleford Service Station,Whittleford Road,,Nuneaton,Whittleford Service Station,Retailers - other,4613,20,,460353,10,,52.52450600000000,45724,318,carl.jacobs@nuneatonandbedworth.gov.uk,Nuneaton and Bedworth,http://www.nuneatonandbedworth.gov.uk,-1.51118000000000,CV10 9JD,2014-08-20,fhrs_1_en-GB,1,,FHRS,0
338893,,Griff Way,,Nuneaton,Wild Bean Cafe c/o BP Garage,Retailers - other,4613,0,,485183,0,,52.50853000000000,46783,318,carl.jacobs@nuneatonandbedworth.gov.uk,Nuneaton and Bedworth,http://www.nuneatonandbedworth.gov.uk,-1.47518600000000,CV10 7DA,2014-05-07,fhrs_5_en-GB,5,,FHRS,5
338894,"Willowbrook Day Nursery, George Eliot Hospital",College Street,,Nuneaton,Willowbrook Day Nursery,Hospitals/Childcare/Caring Premises,5,10,,235328,10,,52.51133800000000,64245,318,carl.jacobs@nuneatonandbedworth.gov.uk,Nuneaton and Bedworth,http://www.nuneatonandbedworth.gov.uk,-1.47183700000000,CV10 7BQ,2014-07-01,fhrs_4_en-GB,4,,FHRS,0
338895,1 Kingsway House,King Street,,Bedworth,Win Wah House,Takeaway/sandwich shop,7844,0,,460354,0,,52.47933800000000,46273,318,carl.jacobs@nuneatonandbedworth.gov.uk,Nuneaton and Bedworth,http://www.nuneatonandbedworth.gov.uk,-1.47085100000000,CV12 8HY,2014-03-27,fhrs_5_en-GB,5,,FHRS,5
338896,,138 Westbury Road,,Nuneaton,Win Wo House,Takeaway/sandwich shop,7844,10,,362175,10,,52.51812600000000,47312,318,carl.jacobs@nuneatonandbedworth.gov.uk,Nuneaton and Bedworth,http://www.nuneatonandbedworth.gov.uk,-1.50112700000000,CV10 8HQ,2013-10-16,fhrs_3_en-GB,3,,FHRS,10
338897,,8 Tomkinson Road,,Nuneaton,Wing Fat,Takeaway/sandwich shop,7844,0,,235329,5,,52.52169100000000,47307,318,carl.jacobs@nuneatonandbedworth.gov.uk,Nuneaton and Bedworth,http://www.nuneatonandbedworth.gov.uk,-1.48537500000000,CV10 8BH,2013-02-01,fhrs_5_en-GB,5,,FHRS,5
338898,,7 Bond Street,,Nuneaton,Wing Wah Chinese Buffet Restaurant,Restaurant/Cafe/Canteen,1,0,,235183,5,,52.52450400000000,44443,318,carl.jacobs@nuneatonandbedworth.gov.uk,Nuneaton and Bedworth,http://www.nuneatonandbedworth.gov.uk,-1.46494400000000,CV11 4DA,2013-04-04,fhrs_5_en-GB,5,,FHRS,5
338899,North Warwickshire College,Hinckley Road,,Nuneaton,Wise Owls Nursery,Hospitals/Childcare/Caring Premises,5,0,,384913,5,,52.53030500000000,75182,318,carl.jacobs@nuneatonandbedworth.gov.uk,Nuneaton and Bedworth,http://www.nuneatonandbedworth.gov.uk,-1.44985200000000,CV11 6BH,2013-11-04,fhrs_5_en-GB,5,,FHRS,5
338900,,School Road,,Bulkington,Woodlands Day Nursery,Hospitals/Childcare/Caring Premises,5,5,,235146,0,,52.47664400000000,64185,318,carl.jacobs@nuneatonandbedworth.gov.uk,Nuneaton and Bedworth,http://www.nuneatonandbedworth.gov.uk,-1.42335700000000,CV12 9JB,2014-05-29,fhrs_4_en-GB,4,,FHRS,10
338901,,Woodlands Road,,Bedworth,Woodlands Working Mens Club,Pub/bar/nightclub,7843,0,,726253,5,,52.48072200000000,46563,318,carl.jacobs@nuneatonandbedworth.gov.uk,Nuneaton and Bedworth,http://www.nuneatonandbedworth.gov.uk,-1.49130100000000,CV12 0AB,2014-11-18,fhrs_4_en-GB,4,,FHRS,10
338902,,St Nicolas Park Drive,,Nuneaton,Yeoman Harvester Pub & Rest.,Pub/bar/nightclub,7843,0,,384907,0,,52.52968600000000,47662,318,carl.jacobs@nuneatonandbedworth.gov.uk,Nuneaton and Bedworth,http://www.nuneatonandbedworth.gov.uk,-1.43862700000000,CV11 6EN,2013-11-27,fhrs_5_en-GB,5,,FHRS,5
338903,,,,,Yumme,Restaurant/Cafe/Canteen,1,5,,735283,0,,,173163,318,carl.jacobs@nuneatonandbedworth.gov.uk,Nuneaton and Bedworth,http://www.nuneatonandbedworth.gov.uk,,,2015-02-06,fhrs_5_en-GB,5,,FHRS,0
338904,Ashmore House Industrial Estate,School Road,,Bulkington,Zest Buffets for all Occasions,Restaurant/Cafe/Canteen,1,0,,629819,0,,52.47664400000000,60427,318,carl.jacobs@nuneatonandbedworth.gov.uk,Nuneaton and Bedworth,http://www.nuneatonandbedworth.gov.uk,-1.42335700000000,CV12 9JB,2013-07-24,fhrs_5_en-GB,5,,FHRS,0
338905,Baby Hospice,Easter Way,,Exhall,Zoe's Place,Hospitals/Childcare/Caring Premises,5,0,,629827,0,,52.45554600000000,97108,318,carl.jacobs@nuneatonandbedworth.gov.uk,Nuneaton and Bedworth,http://www.nuneatonandbedworth.gov.uk,-1.50738200000000,CV7 9JG,2014-07-24,fhrs_5_en-GB,5,,FHRS,0
