,addressline1,addressline2,addressline3,addressline4,businessname,businesstype,businesstypeid,confidenceinmanagement,extractdate,fhrsid,hygiene,itemcount,latitude,localauthoritybusinessid,localauthoritycode,localauthorityemailaddress,localauthorityname,localauthoritywebsite,longitude,postcode,ratingdate,ratingkey,ratingvalue,returncode,schemetype,structural
339180,Territorial Army Centre,Edward Street,Rugby,Warwickshire,1 Signal Squadron,Restaurant/Cafe/Canteen,1,10,,210715,5,,52.37600200000000,1036,319,FS@rugby.gov.uk,Rugby,http://www.rugby.gov.uk,-1.27089600000000,CV21 2BP,2013-02-06,fhrs_4_en-GB,4,,FHRS,5
339181,,,,,501 Club (30th Signal Regiment),Pub/bar/nightclub,7843,0,,210707,10,,,54985,319,FS@rugby.gov.uk,Rugby,http://www.rugby.gov.uk,,,2012-02-15,fhrs_4_en-GB,4,,FHRS,10
339182,,1 Abbey Street,Rugby,Warwickshire,Abbey News,Retailers - other,4613,10,,210315,10,,52.37784100000000,100,319,FS@rugby.gov.uk,Rugby,http://www.rugby.gov.uk,-1.25015200000000,CV21 3LH,2014-03-24,fhrs_3_en-GB,3,,FHRS,10
339183,Abbots Farm First School,Abbotts Way,Rugby,Warwickshire,Abbots Farm Pre-school Playgroup,Hospitals/Childcare/Caring Premises,5,10,,210644,0,,52.36665800000000,43310,319,FS@rugby.gov.uk,Rugby,http://www.rugby.gov.uk,-1.22935400000000,CV21 4AP,2014-03-11,fhrs_4_en-GB,4,,FHRS,0
339184,Abbotts Farm Infant School,Abbotts Way,Rugby,Warwickshire,Abbotts Farm Infant,School/college/university,7845,0,,210540,5,,52.36665800000000,103,319,FS@rugby.gov.uk,Rugby,http://www.rugby.gov.uk,-1.22935400000000,CV21 4AP,2014-12-15,fhrs_5_en-GB,5,,FHRS,5
339185,Abbotts Farm County Middle Sch,Abbotts Way,Rugby,Warwickshire,Abbotts Farm Junior School,School/college/university,7845,5,,210539,5,,52.36665800000000,102,319,FS@rugby.gov.uk,Rugby,http://www.rugby.gov.uk,-1.22935400000000,CV21 4AP,2014-09-30,fhrs_5_en-GB,5,,FHRS,5
339186,,,,,AbiJac's Cakery,Manufacturers/packers,7839,5,,210595,5,,,55044,319,FS@rugby.gov.uk,Rugby,http://www.rugby.gov.uk,,,2013-10-07,fhrs_5_en-GB,5,,FHRS,5
339187,,3 Reynolds Close,Hillmorton,Rugby,Action Snax,Mobile caterer,7846,5,,341588,5,,52.36155200000000,16927,319,FS@rugby.gov.uk,Rugby,http://www.rugby.gov.uk,-1.21158600000000,CV21 4DD,2013-11-25,fhrs_5_en-GB,5,,FHRS,5
339188,Admirals Court,Nelson Way,Bilton,"Rugby, Warwickshire",Admirals Court,Hospitals/Childcare/Caring Premises,5,5,,210111,5,,52.36456100000000,319,319,FS@rugby.gov.uk,Rugby,http://www.rugby.gov.uk,-1.29370000000000,CV22 7LW,2013-01-02,fhrs_4_en-GB,4,,FHRS,10
339189,,Farmers Court,Rugby,Warwickshire,Age Concern Birmingham,Restaurant/Cafe/Canteen,1,5,,210307,5,,,55366,319,FS@rugby.gov.uk,Rugby,http://www.rugby.gov.uk,,,2013-11-08,fhrs_5_en-GB,5,,FHRS,0
339190,,27 The Green,Bilton,"Rugby, Warwickshire",Airie Ltd T/A Cheese on the Green,Retailers - other,4613,0,,210135,0,,52.35897900000000,49559,319,FS@rugby.gov.uk,Rugby,http://www.rugby.gov.uk,-1.29082300000000,CV22 7LZ,2014-05-27,fhrs_5_en-GB,5,,FHRS,5
339191,,49 Woodlands Road,Binley Woods,Warwickshire,Akshar General Store,Retailers - other,4613,20,,210157,15,,52.39055000000000,1821,319,FS@rugby.gov.uk,Rugby,http://www.rugby.gov.uk,-1.41893900000000,CV3 2JL,2014-01-13,fhrs_1_en-GB,1,,FHRS,0
339192,,,,,Alan's Icecream,Mobile caterer,7846,5,,210671,5,,,31168,319,FS@rugby.gov.uk,Rugby,http://www.rugby.gov.uk,,,2014-08-06,fhrs_5_en-GB,5,,FHRS,5
339193,,12 Paddox Close,Rugby,Warwickshire,Aldi Stores,Retailers - supermarkets/hypermarkets,7840,5,,210387,5,,52.35992300000000,1343,319,FS@rugby.gov.uk,Rugby,http://www.rugby.gov.uk,-1.22770900000000,CV22 5AU,2013-07-15,fhrs_5_en-GB,5,,FHRS,5
339194,,Central Park Drive,Rugby,Warwickshire,Aldi Stores Ltd,Retailers - supermarkets/hypermarkets,7840,5,,210730,5,,52.40188900000000,2125,319,FS@rugby.gov.uk,Rugby,http://www.rugby.gov.uk,-1.24435000000000,CV23 0WE,2013-12-02,fhrs_5_en-GB,5,,FHRS,5
339195,Alexandra Arms,72-73 James Street,Rugby,Warwickshire,Alexandra Arms,Pub/bar/nightclub,7843,10,,209951,10,,52.37405100000000,266,319,FS@rugby.gov.uk,Rugby,http://www.rugby.gov.uk,-1.25789900000000,CV21 2SL,2014-12-11,fhrs_3_en-GB,3,,FHRS,10
339196,,15 Albert Street,Rugby,Warwickshire,All Nations Supermarket,Retailers - other,4613,10,,210717,10,,52.37387500000000,106,319,FS@rugby.gov.uk,Rugby,http://www.rugby.gov.uk,-1.25982600000000,CV21 2SD,2014-12-24,fhrs_3_en-GB,3,,FHRS,10
339197,Lawrence Sheriff School,Clifton Road,Rugby,Warwickshire,Alliance in Partnership,School/college/university,7845,5,,210721,5,,52.37128300000000,170,319,FS@rugby.gov.uk,Rugby,http://www.rugby.gov.uk,-1.25515400000000,CV21 3AG,2013-06-13,fhrs_5_en-GB,5,,FHRS,5
339198,,30 Albert Street,Rugby,Warwickshire,Alma Lodge Hotel,Hotel/bed & breakfast/guest house,7842,5,,209981,10,,52.37334300000000,548,319,FS@rugby.gov.uk,Rugby,http://www.rugby.gov.uk,-1.25967300000000,CV21 2RS,2015-01-08,fhrs_3_en-GB,3,,FHRS,10
339199,,21-23 Clifton Road,Rugby,Warwickshire,Alma Supermarket,Retailers - other,4613,,,210095,,,52.37223700000000,1005,319,FS@rugby.gov.uk,Rugby,http://www.rugby.gov.uk,-1.25668000000000,CV21 3PY,,fhrs_awaitinginspection_en-GB,AwaitingInspection,,FHRS,
339200,Cawston House,Thurlaston Drive,Cawston,"Rugby, Warwickshire",Andrew Sage - Lime Tree Village,Restaurant/Cafe/Canteen,1,0,,210143,0,,52.35236200000000,49801,319,FS@rugby.gov.uk,Rugby,http://www.rugby.gov.uk,-1.30288000000000,CV22 7SE,2014-07-22,fhrs_5_en-GB,5,,FHRS,5
339201,Ansty Social Working Mens Club,Grove Road,Ansty,Warwickshire,Ansty (WARWICKSHIRE) Club & Institute,Pub/bar/nightclub,7843,5,,210445,5,,52.44690900000000,407,319,FS@rugby.gov.uk,Rugby,http://www.rugby.gov.uk,-1.41697700000000,CV7 9JD,2013-12-09,fhrs_5_en-GB,5,,FHRS,5
339202,Ansty Golf Club,Brinklow Road,Ansty,Warwickshire,Ansty Golf Centre,Pub/bar/nightclub,7843,5,,210146,5,,52.43962800000000,579,319,FS@rugby.gov.uk,Rugby,http://www.rugby.gov.uk,-1.39225600000000,CV7 9JL,2014-03-12,fhrs_4_en-GB,4,,FHRS,10
339203,,2 Market Mall,Rugby,Warwickshire,Argos Distributors Limited,Retailers - other,4613,,,209952,,,52.37301500000000,1232,319,FS@rugby.gov.uk,Rugby,http://www.rugby.gov.uk,-1.26326300000000,CV21 2JR,2014-10-06,fhrs_exempt_en-GB,Exempt,,FHRS,
339204,,274 Lawford Road,New Bilton,"Rugby, Warwickshire",Arnie's Batch Bar,Takeaway/sandwich shop,7844,5,,210291,5,,52.37488800000000,281,319,FS@rugby.gov.uk,Rugby,http://www.rugby.gov.uk,-1.27984500000000,CV21 2JQ,2014-01-27,fhrs_4_en-GB,4,,FHRS,10
339205,,12 Chapel Street,Rugby,Warwickshire,Asda Cafe,Restaurant/Cafe/Canteen,1,5,,210593,0,,52.35783100000000,54134,319,FS@rugby.gov.uk,Rugby,http://www.rugby.gov.uk,-1.20911200000000,CV21 4DU,2014-04-29,fhrs_5_en-GB,5,,FHRS,5
339206,,12 Chapel Street,Rugby,Warwickshire,Asda Stores Ltd,Retailers - supermarkets/hypermarkets,7840,5,,210684,5,,52.37269900000000,54086,319,FS@rugby.gov.uk,Rugby,http://www.rugby.gov.uk,-1.26315000000000,CV21 3EB,2013-03-05,fhrs_5_en-GB,5,,FHRS,5
339207,,Corporation Street,Rugby,Warwickshire,Asda Stores Ltd,Retailers - other,4613,5,,210421,5,,52.37175200000000,796,319,FS@rugby.gov.uk,Rugby,http://www.rugby.gov.uk,-1.26548700000000,CV21 2DN,2013-01-07,fhrs_5_en-GB,5,,FHRS,5
339208,,7 Balcombe Road,Hillmorton,"Rugby, Warwickshire",Ashlawn Newsagents,Retailers - other,4613,10,,210103,5,,52.35907700000000,120,319,FS@rugby.gov.uk,Rugby,http://www.rugby.gov.uk,-1.23726800000000,CV22 5HU,2013-07-19,fhrs_4_en-GB,4,,FHRS,5
339209,Ashlawn School,Ashlawn Road,Rugby,Warwickshire,Ashlawn School,School/college/university,7845,10,,210028,5,,52.35780400000000,114,319,FS@rugby.gov.uk,Rugby,http://www.rugby.gov.uk,-1.22808400000000,CV22 5ET,2015-01-12,fhrs_4_en-GB,4,,FHRS,5
339210,,318 Hillmorton Road,Rugby,Warwickshire,Ashoka Brasserie,Restaurant/Cafe/Canteen,1,5,,210466,10,,52.36083900000000,872,319,FS@rugby.gov.uk,Rugby,http://www.rugby.gov.uk,-1.23039500000000,CV22 5BP,2014-10-22,fhrs_3_en-GB,3,,FHRS,10
339211,Ashton Lodge Hotel,Withybrook Road,Street Ashton,"Rugby, Warwickshire",Ashton Lodge Hotel,Restaurant/Cafe/Canteen,1,10,,209918,5,,52.44276900000000,511,319,FS@rugby.gov.uk,Rugby,http://www.rugby.gov.uk,-1.31852100000000,CV23 0QY,2013-01-24,fhrs_4_en-GB,4,,FHRS,5
339212,,3 Holbrook Road,Long Lawford,Warwickshire,Asia Spice,Takeaway/sandwich shop,7844,5,,210280,5,,52.38157200000000,1632,319,FS@rugby.gov.uk,Rugby,http://www.rugby.gov.uk,-1.30145100000000,CV23 9AJ,2013-09-22,fhrs_5_en-GB,5,,FHRS,5
339213,Manor Bakeries Ltd,Haynes Way,Cosford,Warwickshire,Autograph - the food people,Restaurant/Cafe/Canteen,1,5,,210026,5,,52.39534300000000,1001,319,FS@rugby.gov.uk,Rugby,http://www.rugby.gov.uk,-1.27134100000000,CV21 1HG,2013-05-20,fhrs_5_en-GB,5,,FHRS,0
339214,"Volvo Truck And Bus Ltd, Swift",Old Leicester Road,Brownsover,"Rugby, Warwickshire",Avenance Catering at Volvo Parts Corporation,Restaurant/Cafe/Canteen,1,5,,210424,5,,52.39171300000000,954,319,FS@rugby.gov.uk,Rugby,http://www.rugby.gov.uk,-1.25870500000000,CV21 1DZ,2014-04-08,fhrs_5_en-GB,5,,FHRS,5
339215,,104 Newbold Road,Rugby,Warwickshire,Avon Mill Tavern,Pub/bar/nightclub,7843,0,,209888,5,,52.38173300000000,323,319,FS@rugby.gov.uk,Rugby,http://www.rugby.gov.uk,-1.26423400000000,CV21 1DH,2013-07-16,fhrs_5_en-GB,5,,FHRS,5
339216,,St.John's Avenue,Rugby,Warwickshire,Avon Park School,School/college/university,7845,5,,656755,5,,52.36023800000000,56757,319,FS@rugby.gov.uk,Rugby,http://www.rugby.gov.uk,-1.23607400000000,CV22 5HR,2014-03-17,fhrs_5_en-GB,5,,FHRS,5
339217,The Clock Towers Shopping Centre,3a Manning Walk,Rugby,Warwickshire,B&M Bargains,Retailers - other,4613,5,,341591,5,,52.37353900000000,304,319,FS@rugby.gov.uk,Rugby,http://www.rugby.gov.uk,-1.26363600000000,CV21 2JT,2012-05-17,fhrs_4_en-GB,4,,FHRS,10
339218,,16-18 Regent Street,Rugby,Warwickshire,Bacco Lounge,Restaurant/Cafe/Canteen,1,5,,656757,5,,52.37380800000000,57091,319,FS@rugby.gov.uk,Rugby,http://www.rugby.gov.uk,-1.26073800000000,CV21 2PY,2014-05-23,fhrs_5_en-GB,5,,FHRS,5
339219,Brandon Marsh Nature Centre,Brandon Lane,Brandon,Warwickshire,Badgers Tea Room,Restaurant/Cafe/Canteen,1,5,,210607,5,,52.38021000000000,1399,319,FS@rugby.gov.uk,Rugby,http://www.rugby.gov.uk,-1.44284500000000,CV3 3GW,2014-04-14,fhrs_5_en-GB,5,,FHRS,5
339220,,29 Sheep Street,Rugby,Warwickshire,Bar 29,Pub/bar/nightclub,7843,5,,210650,5,,52.37174000000000,372,319,FS@rugby.gov.uk,Rugby,http://www.rugby.gov.uk,-1.26347500000000,CV21 3BX,2014-05-22,fhrs_4_en-GB,4,,FHRS,10
339221,,154 Railway Terrace,Rugby,Warwickshire,Barakah,Takeaway/sandwich shop,7844,5,,210704,10,,52.37623700000000,366,319,FS@rugby.gov.uk,Rugby,http://www.rugby.gov.uk,-1.25526200000000,CV21 3HN,2013-09-05,fhrs_3_en-GB,3,,FHRS,10
339222,,128 Hollowell Way,Brownsover,"Rugby, Warwickshire",Bargain Booze,Retailers - other,4613,20,,210223,5,,52.39044700000000,255,319,FS@rugby.gov.uk,Rugby,http://www.rugby.gov.uk,-1.24470700000000,CV21 1LT,2014-03-04,fhrs_1_en-GB,1,,FHRS,5
339223,,27 Clifton Road,Rugby,Warwickshire,Bargain Booze,Retailers - other,4613,5,,210667,5,,52.37223700000000,1999,319,FS@rugby.gov.uk,Rugby,http://www.rugby.gov.uk,-1.25668000000000,CV21 3PY,2013-07-15,fhrs_5_en-GB,5,,FHRS,5
339224,,64 Main Street,Newbold,"Rugby, Warwickshire",Barley Mow,Pub/bar/nightclub,7843,5,,210568,5,,52.39111700000000,302,319,FS@rugby.gov.uk,Rugby,http://www.rugby.gov.uk,-1.28299000000000,CV21 1HW,2014-04-15,fhrs_5_en-GB,5,,FHRS,5
339225,Shellfresh Ltd,Watling Street,Hinckley,Warwickshire,Barnacles Restaurant,Restaurant/Cafe/Canteen,1,5,,210317,5,,52.51284200000000,1129,319,FS@rugby.gov.uk,Rugby,http://www.rugby.gov.uk,-1.35958100000000,LE10 3JA,2014-04-01,fhrs_5_en-GB,5,,FHRS,5
339226,,54 Avenue Road,New Bilton,"Rugby, Warwickshire",Barracuda Fish & Chips,Takeaway/sandwich shop,7844,5,,210376,10,,52.37604200000000,115,319,FS@rugby.gov.uk,Rugby,http://www.rugby.gov.uk,-1.27587500000000,CV21 2JN,2013-07-23,fhrs_3_en-GB,3,,FHRS,10
339227,Bawnmore County Infant School,Bawnmore Road,Bilton,"Rugby, Warwickshire",Bawnmore Infant School/Club,School/college/university,7845,0,,210029,5,,52.35399000000000,127,319,FS@rugby.gov.uk,Rugby,http://www.rugby.gov.uk,-1.28062500000000,CV22 6JS,2014-10-13,fhrs_5_en-GB,5,,FHRS,5
339228,,,,,BB S Catering,Restaurant/Cafe/Canteen,1,10,,511432,5,,,1352,319,FS@rugby.gov.uk,Rugby,http://www.rugby.gov.uk,,,2013-08-08,fhrs_4_en-GB,4,,FHRS,5
339229,,,,,Beijo Bebidas,Mobile caterer,7846,5,,210603,5,,,10692,319,FS@rugby.gov.uk,Rugby,http://www.rugby.gov.uk,,,2012-10-10,fhrs_5_en-GB,5,,FHRS,5
339230,Bell And Barge,Brownsover Road,Brownsover,Rugby,Bell & Barge Harvester,Pub/bar/nightclub,7843,0,,210710,5,,52.39094300000000,557,319,FS@rugby.gov.uk,Rugby,http://www.rugby.gov.uk,-1.27808500000000,CV21 1HL,2013-02-05,fhrs_5_en-GB,5,,FHRS,5
339231,Bell Inn,Bell Lane,Monks Kirby,Warwickshire,Bell Inn,Pub/bar/nightclub,7843,5,,210482,5,,52.44276900000000,562,319,FS@rugby.gov.uk,Rugby,http://www.rugby.gov.uk,-1.31852100000000,CV23 0QY,2013-09-23,fhrs_5_en-GB,5,,FHRS,5
339232,Bell Inn,High Street,Hillmorton,"Rugby, Warwickshire",Bell Inn,Pub/bar/nightclub,7843,10,,210035,10,,52.35819500000000,224,319,FS@rugby.gov.uk,Rugby,http://www.rugby.gov.uk,-1.21511100000000,CV21 4HD,2013-05-10,fhrs_3_en-GB,3,,FHRS,10
339233,"Ben Motor And Allied Trades Benevolent Fund, Town Thorns",Brinklow Road,Easenhall,Warwickshire,Ben Care Centre,Hospitals/Childcare/Caring Premises,5,0,,210245,0,,52.41121100000000,870,319,FS@rugby.gov.uk,Rugby,http://www.rugby.gov.uk,-1.34030900000000,CV23 0JE,2014-07-18,fhrs_5_en-GB,5,,FHRS,5
339234,,Newbold Road,Rugby,Warwickshire,Benn Hall,Pub/bar/nightclub,7843,5,,210676,5,,52.37613900000000,322,319,FS@rugby.gov.uk,Rugby,http://www.rugby.gov.uk,-1.26400400000000,CV21 2LN,2014-05-30,fhrs_5_en-GB,5,,FHRS,5
339235,Benn Partnership Centre,Railway Terrace,Rugby,Warwickshire,Benn Partnership Centre,Other catering premises,7841,0,,210043,5,,52.37681000000000,1340,319,FS@rugby.gov.uk,Rugby,http://www.rugby.gov.uk,-1.25482600000000,CV21 3HR,2015-02-03,fhrs_5_en-GB,5,,FHRS,5
339236,,Drover Close,Rugby,Warwickshire,Bestway Panacea Healthcare Ltd,Retailers - other,4613,0,,656764,0,,,57246,319,FS@rugby.gov.uk,Rugby,http://www.rugby.gov.uk,,CV21 3HX,2014-05-13,fhrs_5_en-GB,5,,FHRS,0
339237,,,,,Bex's Sweet Treats,Other catering premises,7841,5,,547951,5,,,25328,319,FS@rugby.gov.uk,Rugby,http://www.rugby.gov.uk,,,2013-07-03,fhrs_4_en-GB,4,,FHRS,10
339238,Rugby Indian Association Commu,Edward Street,Rugby,Warwickshire,Bharat Sevak Samaj (Indian Assoc.),Other catering premises,7841,5,,210055,10,,52.37438300000000,197,319,FS@rugby.gov.uk,Rugby,http://www.rugby.gov.uk,-1.26932100000000,CV21 2EZ,2014-03-19,fhrs_4_en-GB,4,,FHRS,5
339239,,14 Main Street,Wolston,Warwickshire,Bill's Deli,Takeaway/sandwich shop,7844,5,,209936,10,,52.37735200000000,1079,319,FS@rugby.gov.uk,Rugby,http://www.rugby.gov.uk,-1.39556400000000,CV8 3HJ,2014-03-27,fhrs_3_en-GB,3,,FHRS,10
339240,Bilton Bowling Club,Bawnmore Road,Bilton,"Rugby, Warwickshire",Bilton Bowling Club,Pub/bar/nightclub,7843,0,,210374,10,,52.35912500000000,998,319,FS@rugby.gov.uk,Rugby,http://www.rugby.gov.uk,-1.28829500000000,CV22 7QH,2014-04-15,fhrs_4_en-GB,4,,FHRS,0
339241,Bilton C Of E Middle School,Plantagenet Drive,Bilton,"Rugby, Warwickshire",Bilton C of E Junior School,School/college/university,7845,0,,210126,0,,52.35170500000000,358,319,FS@rugby.gov.uk,Rugby,http://www.rugby.gov.uk,-1.28185200000000,CV22 6LB,2013-07-16,fhrs_5_en-GB,5,,FHRS,5
339242,,6 The Green,Bilton,"Rugby, Warwickshire",Bilton Co-Op,Retailers - supermarkets/hypermarkets,7840,0,,210267,0,,52.35944100000000,388,319,FS@rugby.gov.uk,Rugby,http://www.rugby.gov.uk,-1.29143300000000,CV22 7LY,2014-04-23,fhrs_5_en-GB,5,,FHRS,5
339243,Bilton Methodist Church,Main Street,Bilton,"Rugby, Warwickshire",Bilton Evangelical Church,Restaurant/Cafe/Canteen,1,5,,210332,5,,52.35898000000000,1365,319,FS@rugby.gov.uk,Rugby,http://www.rugby.gov.uk,-1.29408300000000,CV22 7ND,2013-09-22,fhrs_5_en-GB,5,,FHRS,5
339244,,41 The Green,Rugby,Warwickshire,Bilton Fish Bar,Takeaway/sandwich shop,7844,10,,210136,5,,52.35897900000000,390,319,FS@rugby.gov.uk,Rugby,http://www.rugby.gov.uk,-1.29082300000000,CV22 7LZ,2013-07-30,fhrs_4_en-GB,4,,FHRS,5
339245,Homefield,Rugby Road,Dunchurch,"Rugby, Warwickshire",Bilton Grange Preparatory School,School/college/university,7845,0,,210148,5,,52.34224900000000,571,319,FS@rugby.gov.uk,Rugby,http://www.rugby.gov.uk,-1.28204900000000,CV22 6QT,2014-09-03,fhrs_5_en-GB,5,,FHRS,5
339246,Bilton Grange School,Rugby Road,Dunchurch,"Rugby, Warwickshire",Bilton Grange School,School/college/university,7845,5,,210647,5,,52.34204100000000,462,319,FS@rugby.gov.uk,Rugby,http://www.rugby.gov.uk,-1.27891100000000,CV22 6QU,2013-02-27,fhrs_5_en-GB,5,,FHRS,5
339247,Bilton County First School,Magnet Lane,Bilton,"Rugby, Warwickshire",Bilton Infant School,School/college/university,7845,0,,210168,0,,52.35845200000000,295,319,FS@rugby.gov.uk,Rugby,http://www.rugby.gov.uk,-1.29146300000000,CV22 7NH,2014-04-08,fhrs_5_en-GB,5,,FHRS,5
339248,Bilton County First School,Magnet Lane,Bilton,"Rugby, Warwickshire",Bilton Infant School Before and After School Club,School/college/university,7845,5,,210005,5,,52.35845200000000,2255,319,FS@rugby.gov.uk,Rugby,http://www.rugby.gov.uk,-1.29146300000000,CV22 7NH,2014-04-08,fhrs_5_en-GB,5,,FHRS,5
339249,Bilton High School,Lawford Lane,Rugby,Warwickshire,Bilton School Academy,School/college/university,7845,0,,210312,5,,52.36459400000000,931,319,FS@rugby.gov.uk,Rugby,http://www.rugby.gov.uk,-1.29765000000000,CV22 7JT,2014-04-09,fhrs_5_en-GB,5,,FHRS,5
339250,,229 Rugby Road,Binley Woods,Warwickshire,Binley Woods House,Hospitals/Childcare/Caring Premises,5,5,,210243,5,,52.39435900000000,45100,319,FS@rugby.gov.uk,Rugby,http://www.rugby.gov.uk,-1.41821300000000,CV3 2BB,2013-01-31,fhrs_5_en-GB,5,,FHRS,5
339251,Binley Woods County Primary Sc,Coombe Drive,Binley Woods,Warwickshire,Binley Woods Primary School,School/college/university,7845,0,,210481,5,,52.39170900000000,410,319,FS@rugby.gov.uk,Rugby,http://www.rugby.gov.uk,-1.41137100000000,CV3 2QU,2013-04-22,fhrs_5_en-GB,5,,FHRS,5
339252,,Binley Woods Service Station,A46 Coventry Eastern Bypass,"Binley Woods, Warwickshire",Binley Woods Service Station,Retailers - other,4613,5,,210239,5,,52.38874400000000,973,319,FS@rugby.gov.uk,Rugby,http://www.rugby.gov.uk,-1.43962200000000,CV3 2ZZ,2015-01-08,fhrs_5_en-GB,5,,FHRS,5
339253,Birdingbury W M C,Main Street,Birdingbury,Warwickshire,Birdingbury Club,Pub/bar/nightclub,7843,5,,210732,10,,52.31157200000000,420,319,FS@rugby.gov.uk,Rugby,http://www.rugby.gov.uk,-1.36838500000000,CV23 8EL,2013-11-14,fhrs_3_en-GB,3,,FHRS,10
339254,Ryton On Dunsmore Post Office,2 Bagshaw Close,Ryton-On-Dunsmore,Warwickshire,Bit of a Treat Limited,Other catering premises,7841,10,,341596,5,,52.36630400000000,936,319,FS@rugby.gov.uk,Rugby,http://www.rugby.gov.uk,-1.43765900000000,CV8 3EX,2014-04-16,fhrs_3_en-GB,3,,FHRS,10
339255,,44 Clifton Road,Rugby,Warwickshire,Bizzy Tots Day Nursery,Hospitals/Childcare/Caring Premises,5,5,,209941,5,,52.37179500000000,2467,319,FS@rugby.gov.uk,Rugby,http://www.rugby.gov.uk,-1.25231100000000,CV21 3QF,2014-02-03,fhrs_5_en-GB,5,,FHRS,5
339256,Church House,320 Bilton Road,Bilton,"Rugby, Warwickshire",Bizzy Tots Nursery (2),Hospitals/Childcare/Caring Premises,5,5,,210336,5,,52.36041800000000,1901,319,FS@rugby.gov.uk,Rugby,http://www.rugby.gov.uk,-1.28937600000000,CV22 7LU,2014-03-21,fhrs_5_en-GB,5,,FHRS,5
339257,,2-5 Chapel Street,Rugby,Warwickshire,Black Swan,Pub/bar/nightclub,7843,10,,210630,10,,52.37270000000000,156,319,FS@rugby.gov.uk,Rugby,http://www.rugby.gov.uk,-1.26315000000000,CV21 3EB,2014-02-24,fhrs_3_en-GB,3,,FHRS,10
339258,Blacksmiths Arms,19 High Street,Ryton-On-Dunsmore,Warwickshire,Blacksmith's Arms,Pub/bar/nightclub,7843,10,,210758,10,,52.36563900000000,553,319,FS@rugby.gov.uk,Rugby,http://www.rugby.gov.uk,-1.43399600000000,CV8 3EY,2014-02-14,fhrs_3_en-GB,3,,FHRS,10
339259,Blooms Garden Centre,Straight Mile,Bourton-On-Dunsmore,Warwickshire,Blooms Rugby Garden Centre,Restaurant/Cafe/Canteen,1,5,,210228,5,,52.34244800000000,1902,319,FS@rugby.gov.uk,Rugby,http://www.rugby.gov.uk,-1.34419500000000,CV23 9QQ,2013-03-14,fhrs_5_en-GB,5,,FHRS,5
339260,Blue Bell Woods Day Nursery,Monks Road,Binley Woods,Warwickshire,Blue Bell Woods Day Nursery,Hospitals/Childcare/Caring Premises,5,0,,656758,0,,52.39289600000000,57093,319,FS@rugby.gov.uk,Rugby,http://www.rugby.gov.uk,-1.42439000000000,CV3 2BQ,2014-05-15,fhrs_5_en-GB,5,,FHRS,0
339261,,,,,Blue Jay Bakery,Other catering premises,7841,5,,607259,5,,,56802,319,FS@rugby.gov.uk,Rugby,http://www.rugby.gov.uk,,,2013-10-08,fhrs_5_en-GB,5,,FHRS,5
339262,Blue Pig,Hall Road,Wolvey,Warwickshire,Blue Pig,Pub/bar/nightclub,7843,10,,210366,10,,52.48699300000000,543,319,FS@rugby.gov.uk,Rugby,http://www.rugby.gov.uk,-1.37076500000000,LE10 3LG,2013-08-08,fhrs_3_en-GB,3,,FHRS,10
339263,,Addison Road,Rugby,,Blue Windmill Nursery,Hospitals/Childcare/Caring Premises,5,5,,209989,0,,52.37194000000000,1620,319,FS@rugby.gov.uk,Rugby,http://www.rugby.gov.uk,-1.28291900000000,CV22 7DJ,2015-01-16,fhrs_5_en-GB,5,,FHRS,5
339264,Boat Inn,Stockton Road,Birdingbury,Warwickshire,Boat Inn,Pub/bar/nightclub,7843,0,,210017,5,,52.30549600000000,513,319,FS@rugby.gov.uk,Rugby,http://www.rugby.gov.uk,-1.36527400000000,CV23 8EE,2014-09-09,fhrs_4_en-GB,4,,FHRS,10
339265,Boat Inn,Main Street,Newbold,"Rugby, Warwickshire",Boat Inn,Pub/bar/nightclub,7843,5,,210001,5,,52.39111700000000,298,319,FS@rugby.gov.uk,Rugby,http://www.rugby.gov.uk,-1.28299000000000,CV21 1HW,2012-08-14,fhrs_5_en-GB,5,,FHRS,5
339266,,,,,Bocadillos,Mobile caterer,7846,5,,547954,5,,,56378,319,FS@rugby.gov.uk,Rugby,http://www.rugby.gov.uk,,,2013-04-02,fhrs_5_en-GB,5,,FHRS,5
339267,,55 Church Street,Rugby,Warwickshire,Bombay Tandoori,Restaurant/Cafe/Canteen,1,10,,210672,10,,52.37260100000000,1220,319,FS@rugby.gov.uk,Rugby,http://www.rugby.gov.uk,-1.26037600000000,CV21 3PT,2014-02-19,fhrs_3_en-GB,3,,FHRS,10
339268,,4 Somers Road,New Bilton,"Rugby, Warwickshire",Booker Cash & Carry,Distributors/Transporters,7,0,,210172,5,,52.37371900000000,379,319,FS@rugby.gov.uk,Rugby,http://www.rugby.gov.uk,-1.28419800000000,CV22 7DE,2012-07-13,fhrs_4_en-GB,4,,FHRS,10
339269,,15 Market Mall,Rugby,Warwickshire,Boots The Chemist (1),Retailers - other,4613,5,,210577,5,,52.37301500000000,216,319,FS@rugby.gov.uk,Rugby,http://www.rugby.gov.uk,-1.26326300000000,CV21 2JR,2013-01-02,fhrs_5_en-GB,5,,FHRS,5
339270,"Unit 5, Junction One",Leicester Road,Rugby,Warwickshire,Boots The Chemist (2),Retailers - other,4613,0,,210724,0,,52.38523400000000,1458,319,FS@rugby.gov.uk,Rugby,http://www.rugby.gov.uk,-1.25919500000000,CV21 1RW,2014-10-07,fhrs_5_en-GB,5,,FHRS,0
339271,Boughton Leigh Infant & Nursery School,Wetherell Way,Brownsover,"Rugby, Warwickshire",Boughton Leigh Children's Centre,School/college/university,7845,5,,210448,5,,52.39044700000000,54666,319,FS@rugby.gov.uk,Rugby,http://www.rugby.gov.uk,-1.24470700000000,CV21 1LT,2013-04-17,fhrs_5_en-GB,5,,FHRS,5
339272,Wetherall Way,Hollowell Way,Brownsover,"Rugby, Warwickshire",Boughton Leigh Infant School,School/college/university,7845,0,,210449,0,,52.39044700000000,397,319,FS@rugby.gov.uk,Rugby,http://www.rugby.gov.uk,-1.24470700000000,CV21 1LT,2014-03-11,fhrs_5_en-GB,5,,FHRS,5
339273,Wetherall Way,Hollowell Way,Brownsover,"Rugby, Warwickshire",Boughton Leigh Junior School,School/college/university,7845,5,,210114,5,,52.39044700000000,398,319,FS@rugby.gov.uk,Rugby,http://www.rugby.gov.uk,-1.24470700000000,CV21 1LT,2013-07-11,fhrs_5_en-GB,5,,FHRS,5
339274,,14 Boughton Road,Brownsover,"Rugby, Warwickshire",Boughton Road Spar,Retailers - other,4613,10,,209994,5,,52.38553200000000,143,319,FS@rugby.gov.uk,Rugby,http://www.rugby.gov.uk,-1.24931700000000,CV21 1BJ,2013-07-19,fhrs_4_en-GB,4,,FHRS,5
339275,The Spar Supermarket,Hollowell Way,Brownsover,"Rugby, Warwickshire",Bow Fell Spar,Retailers - other,4613,5,,210550,5,,52.39044700000000,254,319,FS@rugby.gov.uk,Rugby,http://www.rugby.gov.uk,-1.24470700000000,CV21 1LT,2015-01-20,fhrs_5_en-GB,5,,FHRS,5
339276,Bramcote Driving Range,Bazzard Road,Wolvey,Warwickshire,Bramcote Golf Driving Range,Pub/bar/nightclub,7843,5,,210316,5,,52.48827400000000,1027,319,FS@rugby.gov.uk,Rugby,http://www.rugby.gov.uk,-1.38875800000000,CV11 6QJ,2014-01-15,fhrs_4_en-GB,4,,FHRS,10
339277,Bramcote Waters Golf Course,Bazzard Road,Wolvey,Warwickshire,Bramcote Waters Golf Course,Pub/bar/nightclub,7843,5,,209986,5,,52.48827400000000,1484,319,FS@rugby.gov.uk,Rugby,http://www.rugby.gov.uk,-1.38875800000000,CV11 6QJ,2014-05-06,fhrs_5_en-GB,5,,FHRS,5
339278,Brandon Club,Main Street,Brandon,Warwickshire,Brandon Club,Pub/bar/nightclub,7843,5,,209979,5,,52.38404100000000,427,319,FS@rugby.gov.uk,Rugby,http://www.rugby.gov.uk,-1.40079100000000,CV8 3HW,2014-02-25,fhrs_5_en-GB,5,,FHRS,5
339279,The Brandon Hall Hotel,Main Street,Brandon,Warwickshire,Brandon Hall Hotel,Restaurant/Cafe/Canteen,1,5,,209913,5,,52.38307000000000,428,319,FS@rugby.gov.uk,Rugby,http://www.rugby.gov.uk,-1.40625500000000,CV8 3FW,2013-01-23,fhrs_5_en-GB,5,,FHRS,5
339280,Brandon Wood Farm,Brandon Lane,Brandon,Warwickshire,Brandon Wood Farm,Restaurant/Cafe/Canteen,1,5,,210205,5,,52.38261000000000,1396,319,FS@rugby.gov.uk,Rugby,http://www.rugby.gov.uk,-1.41860200000000,CV8 3GQ,2013-03-12,fhrs_5_en-GB,5,,FHRS,5
339281,,Brandon Lane,Brandon,Warwickshire,Brandon Wood Golf Course,Restaurant/Cafe/Canteen,1,10,,656753,10,,52.38261000000000,423,319,FS@rugby.gov.uk,Rugby,http://www.rugby.gov.uk,-1.41860200000000,CV8 3GQ,2014-05-08,fhrs_3_en-GB,3,,FHRS,10
339282,,,,,Brazilian Trufles,Retailers - other,4613,10,,451680,5,,,28916,319,FS@rugby.gov.uk,Rugby,http://www.rugby.gov.uk,,,2012-10-31,fhrs_4_en-GB,4,,FHRS,5
339283,Village Hall,Brandon Road,Bretford,Warwickshire,Bretford Cycling Speedway Club (rear of Village Hall),Mobile caterer,7846,,,209975,,,52.38930100000000,50531,319,FS@rugby.gov.uk,Rugby,http://www.rugby.gov.uk,-1.37659200000000,CV23 0LA,2015-01-08,fhrs_exempt_en-GB,Exempt,,FHRS,
339284,,Bramcote Lane,Wolvey,Warwickshire,Brian's Catering Services at Makins Fishery,Restaurant/Cafe/Canteen,1,5,,542481,5,,,55889,319,FS@rugby.gov.uk,Rugby,http://www.rugby.gov.uk,,,2013-04-29,fhrs_5_en-GB,5,,FHRS,5
339285,Clifton Cruisers,Vicarage Hill,Clifton Upon Dunsmore,Warwickshire,Bridge 66 Tea Rooms,Restaurant/Cafe/Canteen,1,10,,504671,10,,,52567,319,FS@rugby.gov.uk,Rugby,http://www.rugby.gov.uk,,,2013-07-16,fhrs_3_en-GB,3,,FHRS,5
339286,,103 Bridget Street,New Bilton,"Rugby, Warwickshire",Bridget Street Post Office,Retailers - other,4613,,,210433,,,52.37446000000000,146,319,FS@rugby.gov.uk,Rugby,http://www.rugby.gov.uk,-1.27299200000000,CV21 2BU,2012-07-03,fhrs_exempt_en-GB,Exempt,,FHRS,
339287,The Church Room,43 Broad Street,Brinklow,Warwickshire,Brinklow Community Hall,Other catering premises,7841,5,,209966,5,,52.41094300000000,432,319,FS@rugby.gov.uk,Rugby,http://www.rugby.gov.uk,-1.36196800000000,CV23 0LS,2013-04-17,fhrs_5_en-GB,5,,FHRS,5
339288,,8 Broad Street,Brinklow,Warwickshire,Brinklow Fish Bar,Takeaway/sandwich shop,7844,20,,210467,5,,52.41081400000000,433,319,FS@rugby.gov.uk,Rugby,http://www.rugby.gov.uk,-1.36130900000000,CV23 0LN,2014-02-13,fhrs_1_en-GB,1,,FHRS,10
339289,,10 Broad Street,Brinklow,Warwickshire,Brinklow House,Takeaway/sandwich shop,7844,5,,210377,5,,52.41081400000000,1041,319,FS@rugby.gov.uk,Rugby,http://www.rugby.gov.uk,-1.36130900000000,CV23 0LN,2013-09-25,fhrs_5_en-GB,5,,FHRS,5
339290,,23 Broad Street,Brinklow,Warwickshire,Brinklow Stores Ltd,Retailers - other,4613,5,,209916,5,,52.41094300000000,435,319,FS@rugby.gov.uk,Rugby,http://www.rugby.gov.uk,-1.36196800000000,CV23 0LS,2013-11-04,fhrs_5_en-GB,5,,FHRS,5
339291,Broad Street Rugby Football Cl,105 Rugby Road,Binley Woods,Warwickshire,Broad Street RFC 1,Pub/bar/nightclub,7843,5,,210610,5,,52.39510900000000,1489,319,FS@rugby.gov.uk,Rugby,http://www.rugby.gov.uk,-1.42453700000000,CV3 2AY,2013-01-31,fhrs_5_en-GB,5,,FHRS,5
339292,Brooke School,Overslade Lane,Rugby,Warwickshire,Brooke School,School/college/university,7845,0,,210325,5,,52.36009800000000,347,319,FS@rugby.gov.uk,Rugby,http://www.rugby.gov.uk,-1.27531300000000,CV22 6DY,2013-10-08,fhrs_5_en-GB,5,,FHRS,0
339293,,15 Bank Street,Rugby,Warwickshire,Brookes Restaurant & Coffee Ho,Restaurant/Cafe/Canteen,1,10,,210265,10,,52.37347300000000,1204,319,FS@rugby.gov.uk,Rugby,http://www.rugby.gov.uk,-1.26024400000000,CV21 2QE,2013-08-07,fhrs_3_en-GB,3,,FHRS,10
339294,Wolston St Margarets C Of E Fi,Main Street,Wolston,Warwickshire,Brookside Dragons,School/college/university,7845,5,,210681,5,,52.37680600000000,1558,319,FS@rugby.gov.uk,Rugby,http://www.rugby.gov.uk,-1.39604100000000,CV8 3HH,2013-09-04,fhrs_5_en-GB,5,,FHRS,0
339295,,26 Brookside,Stretton-On-Dunsmore,Warwickshire,Brookside Stores,Retailers - other,4613,5,,210456,5,,52.34937000000000,514,319,FS@rugby.gov.uk,Rugby,http://www.rugby.gov.uk,-1.40180300000000,CV23 9LY,2014-02-18,fhrs_5_en-GB,5,,FHRS,5
339296,Brownsover Community First Sch,Webb Drive,Brownsover,"Rugby, Warwickshire",Brownsover Community School,School/college/university,7845,5,,210694,0,,52.39459900000000,894,319,FS@rugby.gov.uk,Rugby,http://www.rugby.gov.uk,-1.24162400000000,CV23 0UP,2013-09-25,fhrs_5_en-GB,5,,FHRS,0
339297,Brownsover Fish Bar,Hollowell Way,Brownsover,"Rugby, Warwickshire",Brownsover Fish Bar,Takeaway/sandwich shop,7844,5,,209948,5,,52.39044700000000,257,319,FS@rugby.gov.uk,Rugby,http://www.rugby.gov.uk,-1.24470700000000,CV21 1LT,2014-05-12,fhrs_5_en-GB,5,,FHRS,5
339298,Brownsover Hall,Brownsover Lane,Brownsover,"Rugby, Warwickshire",Brownsover Hall Hotel,Restaurant/Cafe/Canteen,1,5,,210460,5,,52.39353900000000,342,319,FS@rugby.gov.uk,Rugby,http://www.rugby.gov.uk,-1.25602900000000,CV21 1HU,2014-02-10,fhrs_4_en-GB,4,,FHRS,10
339299,,9 Clifton Road,Rugby,Warwickshire,Buddie's Fried Chicken,Restaurant/Cafe/Canteen,1,5,,209950,5,,52.37223700000000,173,319,FS@rugby.gov.uk,Rugby,http://www.rugby.gov.uk,-1.25668000000000,CV21 3PY,2014-12-30,fhrs_5_en-GB,5,,FHRS,5
339300,St Matthews Bloxham C Of E Primary School,Webb Ellis Road,Bilton,Rugby,Building Blox After School Club,Hospitals/Childcare/Caring Premises,5,0,,607261,0,,52.36897000000000,56807,319,FS@rugby.gov.uk,Rugby,http://www.rugby.gov.uk,-1.27643100000000,CV22 7AU,2014-03-26,fhrs_5_en-GB,5,,FHRS,0
339301,Bull,28 Sheep Street,Rugby,Warwickshire,Bull,Pub/bar/nightclub,7843,5,,210703,0,,52.37174000000000,376,319,FS@rugby.gov.uk,Rugby,http://www.rugby.gov.uk,-1.26347500000000,CV21 3BX,2013-09-25,fhrs_5_en-GB,5,,FHRS,0
339302,Bull Inn,33-35 Main Street,Clifton Upon Dunsmore,Warwickshire,Bull Inn,Pub/bar/nightclub,7843,5,,210300,5,,52.38257000000000,447,319,FS@rugby.gov.uk,Rugby,http://www.rugby.gov.uk,-1.22226000000000,CV23 0BH,2013-12-07,fhrs_5_en-GB,5,,FHRS,5
339303,,9 Coventry Road,Brinklow,Warwickshire,Bulls Head,Pub/bar/nightclub,7843,5,,210581,10,,52.41059300000000,438,319,FS@rugby.gov.uk,Rugby,http://www.rugby.gov.uk,-1.36531000000000,CV23 0NE,2013-09-04,fhrs_4_en-GB,4,,FHRS,5
339304,Bulls Head,Church Hill,Wolvey,Warwickshire,Bulls Head,Pub/bar/nightclub,7843,0,,210536,5,,52.48747800000000,545,319,FS@rugby.gov.uk,Rugby,http://www.rugby.gov.uk,-1.36894700000000,LE10 3LB,2014-04-11,fhrs_4_en-GB,4,,FHRS,10
339305,Bungalow Nurseries,65 London Road,Dunsmore Heath,"Stretton-On-Dunsmore, Warwicks",Bungalow Nurseries,Retailers - other,4613,0,,210200,5,,52.34671900000000,517,319,FS@rugby.gov.uk,Rugby,http://www.rugby.gov.uk,-1.35903200000000,CV23 9JB,2013-01-02,fhrs_5_en-GB,5,,FHRS,5
339306,,Rodney Close,Bilton,"Rugby, Warwickshire",Busy Bees Nursery,Hospitals/Childcare/Caring Premises,5,0,,210210,5,,52.36392400000000,2058,319,FS@rugby.gov.uk,Rugby,http://www.rugby.gov.uk,-1.29541400000000,CV22 7HJ,2014-03-25,fhrs_5_en-GB,5,,FHRS,0
339307,Brewers Fayre,Clifton Road,Rugby,Warwickshire,Butlers Leap,Pub/bar/nightclub,7843,0,,210259,0,,52.37718700000000,1348,319,FS@rugby.gov.uk,Rugby,http://www.rugby.gov.uk,-1.23780900000000,CV21 3TX,2013-07-12,fhrs_5_en-GB,5,,FHRS,0
339308,,134 Railway Terrace,Rugby,Warwickshire,Cafe De France,Other catering premises,7841,,,628357,,,52.37628200000000,56974,319,FS@rugby.gov.uk,Rugby,http://www.rugby.gov.uk,-1.25523200000000,CV21 3HN,,fhrs_awaitinginspection_en-GB,AwaitingInspection,,FHRS,
339309,,25 High Street,Rugby,Warwickshire,Cafe Vin Cinq,Restaurant/Cafe/Canteen,1,10,,210463,10,,52.37135900000000,45228,319,FS@rugby.gov.uk,Rugby,http://www.rugby.gov.uk,-1.26299600000000,CV21 3BW,2014-07-31,fhrs_3_en-GB,3,,FHRS,10
339310,7 Royal George Buildings,Market Place,Rugby,Warwickshire,Caffe Nero,Restaurant/Cafe/Canteen,1,0,,210408,5,,52.37265600000000,44170,319,FS@rugby.gov.uk,Rugby,http://www.rugby.gov.uk,-1.26196100000000,CV21 3EA,2013-07-11,fhrs_5_en-GB,5,,FHRS,5
339311,,34a High Street,Rugby,Warwickshire,Caffe Vita Limited,Restaurant/Cafe/Canteen,1,5,,682523,5,,52.37135900000000,57420,319,FS@rugby.gov.uk,Rugby,http://www.rugby.gov.uk,-1.26299600000000,CV21 3BW,2014-09-29,fhrs_5_en-GB,5,,FHRS,5
339312,,,,,Cake Anna Creative Cakes,Manufacturers/packers,7839,5,,698971,5,,,25732,319,FS@rugby.gov.uk,Rugby,http://www.rugby.gov.uk,,,2014-09-10,fhrs_5_en-GB,5,,FHRS,5
339313,,,,,Cake My Day Limited,Other catering premises,7841,10,,504669,10,,,24058,319,FS@rugby.gov.uk,Rugby,http://www.rugby.gov.uk,,,2013-02-07,fhrs_3_en-GB,3,,FHRS,5
339314,,19 Lancut Hill,Rugby,Warwickshire,Cake Off,Manufacturers/packers,7839,,,682521,,,52.40029300000000,54477,319,FS@rugby.gov.uk,Rugby,http://www.rugby.gov.uk,-1.23796900000000,CV23 0JR,,fhrs_awaitinginspection_en-GB,AwaitingInspection,,FHRS,
339315,,,,,Cakes by Sue,Other catering premises,7841,5,,445081,5,,,14263,319,FS@rugby.gov.uk,Rugby,http://www.rugby.gov.uk,,,2012-10-12,fhrs_5_en-GB,5,,FHRS,0
339316,,,,,Cakes Fabulous Cakes,Other catering premises,7841,0,,451682,5,,,44199,319,FS@rugby.gov.uk,Rugby,http://www.rugby.gov.uk,,,2012-10-10,fhrs_5_en-GB,5,,FHRS,5
339317,Calcutt Boats,Tomlow Road,Stockton,Warwickshire,Calcutt Boats Ltd,Retailers - other,4613,5,,209919,5,,52.26380000000000,512,319,FS@rugby.gov.uk,Rugby,http://www.rugby.gov.uk,-1.32655600000000,CV47 8HX,2012-07-03,fhrs_5_en-GB,5,,FHRS,5
339318,Caldecott Day Nursery 2a,Lancaster Road,Rugby,Warwickshire,Caldecote Day Nursery,Hospitals/Childcare/Caring Premises,5,5,,210612,5,,52.37747700000000,246,319,FS@rugby.gov.uk,Rugby,http://www.rugby.gov.uk,-1.26080900000000,CV21 2QN,2014-12-16,fhrs_5_en-GB,5,,FHRS,5
339319,,15 Main Street,Long Lawford,Warwickshire,Caldecott Arms,Pub/bar/nightclub,7843,5,,210646,5,,52.37951500000000,483,319,FS@rugby.gov.uk,Rugby,http://www.rugby.gov.uk,-1.30794700000000,CV23 9AY,2014-08-11,fhrs_5_en-GB,5,,FHRS,5
339320,,Lancaster Road,Rugby,Warwickshire,Caldecott Park Bowls Club,Pub/bar/nightclub,7843,0,,209932,5,,52.37805500000000,1002,319,FS@rugby.gov.uk,Rugby,http://www.rugby.gov.uk,-1.25978500000000,CV21 2QU,2012-07-03,fhrs_5_en-GB,5,,FHRS,0
339321,,,,,Cambridge Diet Business,Retailers - other,4613,,,210196,,,,48272,319,FS@rugby.gov.uk,Rugby,http://www.rugby.gov.uk,,,2013-01-02,fhrs_exempt_en-GB,Exempt,,FHRS,
339322,,The Locks,Hillmorton,Rugby,Canel Chef,Restaurant/Cafe/Canteen,1,0,,210277,5,,52.36572200000000,1369,319,FS@rugby.gov.uk,Rugby,http://www.rugby.gov.uk,-1.21139400000000,CV21 4PP,2014-04-09,fhrs_5_en-GB,5,,FHRS,5
339323,,73 High Street,Hillmorton,"Rugby, Warwickshire",Canton Chef,Takeaway/sandwich shop,7844,10,,210546,10,,52.35819500000000,1337,319,FS@rugby.gov.uk,Rugby,http://www.rugby.gov.uk,-1.21511100000000,CV21 4HD,2013-12-29,fhrs_3_en-GB,3,,FHRS,10
339324,Aspen House,55 Daventry Road,Dunchurch,Warwickshire,Care Through the Millennium (Aspen House),Hospitals/Childcare/Caring Premises,5,5,,209889,5,,52.33614400000000,32650,319,FS@rugby.gov.uk,Rugby,http://www.rugby.gov.uk,-1.28800400000000,CV22 6NS,2012-05-31,fhrs_5_en-GB,5,,FHRS,5
339325,,55 Daventry Road,Dunchurch,Warwickshire,Care Through The Millennium (Maple House),Hospitals/Childcare/Caring Premises,5,5,,210184,0,,52.33614400000000,54198,319,FS@rugby.gov.uk,Rugby,http://www.rugby.gov.uk,-1.28800400000000,CV22 6NS,2012-05-31,fhrs_5_en-GB,5,,FHRS,5
339326,,53 Daventry Road,Dunchurch,Rugby,Care Through the Millennium (Redwood House),Hospitals/Childcare/Caring Premises,5,5,,210411,5,,52.33614400000000,49821,319,FS@rugby.gov.uk,Rugby,http://www.rugby.gov.uk,-1.28800400000000,CV22 6NS,2012-05-31,fhrs_5_en-GB,5,,FHRS,5
339327,,130 Railway Terrace,Rugby,Warwickshire,Carlton Hotel,Restaurant/Cafe/Canteen,1,5,,210400,5,,52.37539600000000,365,319,FS@rugby.gov.uk,Rugby,http://www.rugby.gov.uk,-1.25580500000000,CV21 3HE,2014-01-08,fhrs_5_en-GB,5,,FHRS,5
339328,,69 Newbold Road,Rugby,Warwickshire,Casa De Tapas,Pub/bar/nightclub,7843,10,,628355,10,,52.37735200000000,324,319,FS@rugby.gov.uk,Rugby,http://www.rugby.gov.uk,-1.26527700000000,CV21 2ND,2011-03-16,fhrs_3_en-GB,3,,FHRS,10
339329,,Freeman UK,Unit DC5,Prologis Park,Catermasters Contract Catering Ltd.,Other catering premises,7841,0,,698972,0,,52.36713300000000,57517,319,FS@rugby.gov.uk,Rugby,http://www.rugby.gov.uk,-1.44951500000000,CV8 3EA,2014-10-22,fhrs_2_en-GB,2,,FHRS,15
339330,,Scholars Drive,Cawston,Rugby,Cawston Chinese Chef,Takeaway/sandwich shop,7844,0,,542483,5,,52.36073200000000,56323,319,FS@rugby.gov.uk,Rugby,http://www.rugby.gov.uk,-1.30289500000000,CV22 7GU,2013-08-13,fhrs_5_en-GB,5,,FHRS,0
339331,Cawston Grange Primary School,Scholars Drive,Cawston,"Rugby, Warwickshire",Cawston Grange Primary School,School/college/university,7845,0,,210123,5,,52.36073200000000,1636,319,FS@rugby.gov.uk,Rugby,http://www.rugby.gov.uk,-1.30289500000000,CV22 7GU,2014-10-20,fhrs_5_en-GB,5,,FHRS,5
339332,,,,,Celebration Cascades,Other catering premises,7841,5,,210751,5,,,43631,319,FS@rugby.gov.uk,Rugby,http://www.rugby.gov.uk,,,2012-10-02,fhrs_5_en-GB,5,,FHRS,5
339333,B & B,2 Manning Walk,Rugby,Warwickshire,Central Cafe,Restaurant/Cafe/Canteen,1,10,,210169,10,,52.37353900000000,1440,319,FS@rugby.gov.uk,Rugby,http://www.rugby.gov.uk,-1.26363600000000,CV21 2JT,2014-04-29,fhrs_3_en-GB,3,,FHRS,10
339334,,2 Central Park Drive,Rugby,Warwickshire,Central Park - Brewers Fayre,Pub/bar/nightclub,7843,0,,210286,5,,52.40188900000000,1543,319,FS@rugby.gov.uk,Rugby,http://www.rugby.gov.uk,-1.24435000000000,CV23 0WE,2015-01-22,fhrs_5_en-GB,5,,FHRS,5
339335,5 Central Park Local Centre,Bryant Road,Rugby,Warwickshire,Central Stores,Retailers - other,4613,5,,209901,5,,52.40185100000000,53395,319,FS@rugby.gov.uk,Rugby,http://www.rugby.gov.uk,-1.24536500000000,CV23 0UX,2012-04-19,fhrs_5_en-GB,5,,FHRS,5
339336,Central Park,2 Bailey Road,Rugby,Warwickshire,Charlton House Catering (Airwave Communications),Restaurant/Cafe/Canteen,1,0,,210185,0,,52.40108600000000,53292,319,FS@rugby.gov.uk,Rugby,http://www.rugby.gov.uk,-1.23553000000000,CV23 0PD,2014-03-26,fhrs_5_en-GB,5,,FHRS,5
339337,Bradley House,5 Barby Road,Rugby,Warwickshire,Chartwells at Bradley House (Rugby School),School/college/university,7845,5,,210549,0,,52.36810300000000,125,319,FS@rugby.gov.uk,Rugby,http://www.rugby.gov.uk,-1.25979000000000,CV22 5DT,2013-04-25,fhrs_5_en-GB,5,,FHRS,5
339338,Collingwood Centre,Oak Street,Rugby,Warwickshire,Chartwells at Collingwood Centre,School/college/university,7845,0,,568473,0,,52.36712300000000,340,319,FS@rugby.gov.uk,Rugby,http://www.rugby.gov.uk,-1.26126000000000,CV22 5EA,2013-09-10,fhrs_5_en-GB,5,,FHRS,5
339339,Cotton House,10 Hillmorton Road,Rugby,Warwickshire,Chartwells at Cotton House,School/college/university,7845,0,,210007,0,,52.36971300000000,230,319,FS@rugby.gov.uk,Rugby,http://www.rugby.gov.uk,-1.25709000000000,CV22 5DQ,2015-01-19,fhrs_5_en-GB,5,,FHRS,5
339340,,2 Hillmorton Road,Rugby,Warwickshire,Chartwells at Dean House (Rugby School),School/college/university,7845,0,,210442,5,,52.36989600000000,1223,319,FS@rugby.gov.uk,Rugby,http://www.rugby.gov.uk,-1.26055300000000,CV22 5DD,2013-03-21,fhrs_5_en-GB,5,,FHRS,5
339341,,8 Horton Crescent,Rugby,Warwickshire,Chartwells at Griffin House,School/college/university,7845,0,,210140,5,,52.36890600000000,43272,319,FS@rugby.gov.uk,Rugby,http://www.rugby.gov.uk,-1.25885100000000,CV22 5DJ,2014-05-01,fhrs_5_en-GB,5,,FHRS,0
339342,Kilbracken House,9 Barby Road,Rugby,Warwickshire,Chartwells at Kilbracken House,School/college/university,7845,0,,210207,0,,52.36616400000000,124,319,FS@rugby.gov.uk,Rugby,http://www.rugby.gov.uk,-1.26041000000000,CV22 5DX,2014-03-10,fhrs_5_en-GB,5,,FHRS,5
339343,Mitchell House,3 Hillmorton Road,Rugby,Warwickshire,Chartwells at Michell House,School/college/university,7845,0,,210060,5,,52.37073000000000,229,319,FS@rugby.gov.uk,Rugby,http://www.rugby.gov.uk,-1.26017200000000,CV22 5DB,2013-05-24,fhrs_5_en-GB,5,,FHRS,5
339344,,16-18 Horton Crescent,Rugby,Warwickshire,Chartwells at Rupert Brooke House,School/college/university,7845,0,,210077,5,,52.36890600000000,930,319,FS@rugby.gov.uk,Rugby,http://www.rugby.gov.uk,-1.25885100000000,CV22 5DJ,2013-03-20,fhrs_5_en-GB,5,,FHRS,5
339345,School Field House,2 Barby Road,Rugby,Warwickshire,Chartwells at School Field House (Rugby Scho,School/college/university,7845,0,,210689,5,,52.36818500000000,231,319,FS@rugby.gov.uk,Rugby,http://www.rugby.gov.uk,-1.26144800000000,CV22 5DR,2015-01-26,fhrs_5_en-GB,5,,FHRS,5
339346,Rugby School School House,Lawrence Sheriff Street,Rugby,Warwickshire,Chartwells at School House (Rugby School),School/college/university,7845,0,,210504,5,,52.37041600000000,232,319,FS@rugby.gov.uk,Rugby,http://www.rugby.gov.uk,-1.26321800000000,CV22 5EQ,2013-09-09,fhrs_5_en-GB,5,,FHRS,5
339347,,7 Barby Road,Rugby,Warwickshire,Chartwells at Sheriff House Rugby School,School/college/university,7845,0,,210399,0,,52.36744800000000,122,319,FS@rugby.gov.uk,Rugby,http://www.rugby.gov.uk,-1.26005100000000,CV22 5DU,2013-09-05,fhrs_5_en-GB,5,,FHRS,0
339348,,10 Horton Crescent,Rugby,Warwickshire,Chartwells at Southfield House,School/college/university,7845,5,,210350,5,,52.36890600000000,37269,319,FS@rugby.gov.uk,Rugby,http://www.rugby.gov.uk,-1.25885100000000,CV22 5DJ,2013-09-10,fhrs_5_en-GB,5,,FHRS,5
339349,Rugby School Sports Centre,Horton Crescent,Rugby,Warwickshire,Chartwells at Sports Cafe,Restaurant/Cafe/Canteen,1,0,,210472,0,,52.36890600000000,37427,319,FS@rugby.gov.uk,Rugby,http://www.rugby.gov.uk,-1.25885100000000,CV22 5DJ,2014-05-09,fhrs_5_en-GB,5,,FHRS,5
339350,Stanley House,3 Barby Road,Rugby,Warwickshire,Chartwells at Stanley House (Rugby School),School/college/university,7845,0,,210678,5,,52.36898100000000,123,319,FS@rugby.gov.uk,Rugby,http://www.rugby.gov.uk,-1.26075900000000,CV22 5DN,2013-09-09,fhrs_5_en-GB,5,,FHRS,5
339351,Rugby School,Barby Road,Rugby,Warwickshire,Chartwells at the Tuck Shop Rugby School,School/college/university,7845,0,,210511,0,,52.36818500000000,227,319,FS@rugby.gov.uk,Rugby,http://www.rugby.gov.uk,-1.26144800000000,CV22 5DR,2014-05-09,fhrs_5_en-GB,5,,FHRS,5
339352,,14 Horton Crescent,Rugby,Warwickshire,Chartwells at Town House,School/college/university,7845,0,,210173,5,,52.36890600000000,234,319,FS@rugby.gov.uk,Rugby,http://www.rugby.gov.uk,-1.25885100000000,CV22 5DJ,2014-10-14,fhrs_5_en-GB,5,,FHRS,5
339353,Tudor House,4 Horton Crescent,Rugby,Warwickshire,Chartwells at Tudor House (Rugby School),School/college/university,7845,0,,210124,0,,52.36851300000000,228,319,FS@rugby.gov.uk,Rugby,http://www.rugby.gov.uk,-1.25934300000000,CV22 5DL,2013-09-05,fhrs_5_en-GB,5,,FHRS,5
339354,,4 Hillmorton Road,Rugby,Warwickshire,Chartwells at Whitelaw House,School/college/university,7845,0,,210505,0,,52.36987000000000,233,319,FS@rugby.gov.uk,Rugby,http://www.rugby.gov.uk,-1.25920200000000,CV22 5DE,2014-03-10,fhrs_5_en-GB,5,,FHRS,5
339355,,125 Abbey Street,Rugby,Warwickshire,Chen's Takeaway,Takeaway/sandwich shop,7844,5,,210380,5,,52.37774700000000,1177,319,FS@rugby.gov.uk,Rugby,http://www.rugby.gov.uk,-1.24812600000000,CV21 3LL,2014-10-23,fhrs_4_en-GB,4,,FHRS,10
339356,Cherry Trees Residential Home,242 Dunchurch Road,Rugby,Warwickshire,Cherry Trees Residential Home,Hospitals/Childcare/Caring Premises,5,5,,210330,5,,52.35612700000000,1360,319,FS@rugby.gov.uk,Rugby,http://www.rugby.gov.uk,-1.27129600000000,CV22 6HS,2013-05-15,fhrs_5_en-GB,5,,FHRS,5
339357,,39 Bawnmore Road,Bilton,"Rugby, Warwickshire",Chimney Residential Care Home,Hospitals/Childcare/Caring Premises,5,0,,210378,5,,52.35718000000000,128,319,FS@rugby.gov.uk,Rugby,http://www.rugby.gov.uk,-1.28615300000000,CV22 7QJ,2014-01-24,fhrs_5_en-GB,5,,FHRS,5
339358,China Gardens Take Away,Hollowell Way,Brownsover,"Rugby, Warwickshire",China Gardens,Takeaway/sandwich shop,7844,5,,210147,5,,52.39044700000000,580,319,FS@rugby.gov.uk,Rugby,http://www.rugby.gov.uk,-1.24470700000000,CV21 1LT,2014-03-27,fhrs_5_en-GB,5,,FHRS,5
339359,,1 Oliver Street,Rugby,Warwickshire,China Palace,Takeaway/sandwich shop,7844,10,,210039,10,,52.37241200000000,343,319,FS@rugby.gov.uk,Rugby,http://www.rugby.gov.uk,-1.27045500000000,CV21 2EG,2014-08-13,fhrs_3_en-GB,3,,FHRS,10
339360,,41 Woodlands Road,Binley Woods,Warwickshire,Chinese Tonight,Takeaway/sandwich shop,7844,20,,210500,10,,52.39055000000000,1400,319,FS@rugby.gov.uk,Rugby,http://www.rugby.gov.uk,-1.41893900000000,CV3 2JL,2014-03-24,fhrs_1_en-GB,1,,FHRS,10
339361,,262 Hillmorton Road,Rugby,Warwickshire,Chipstop,Takeaway/sandwich shop,7844,10,,210258,10,,52.36117000000000,1347,319,FS@rugby.gov.uk,Rugby,http://www.rugby.gov.uk,-1.23147600000000,CV22 5BW,2013-06-24,fhrs_3_en-GB,3,,FHRS,10
339362,,1A Holbrook Road,Long Lawford,Warwickshire,Chopsticks House,Takeaway/sandwich shop,7844,10,,210021,10,,52.38157200000000,477,319,FS@rugby.gov.uk,Rugby,http://www.rugby.gov.uk,-1.30145100000000,CV23 9AJ,2013-09-25,fhrs_3_en-GB,3,,FHRS,10
339363,,21 Church Street,Rugby,Warwickshire,Church Street Mini-Market,Retailers - other,4613,10,,210714,5,,52.37241900000000,10030,319,FS@rugby.gov.uk,Rugby,http://www.rugby.gov.uk,-1.25855800000000,CV21 3PU,2013-08-14,fhrs_4_en-GB,4,,FHRS,5
339364,"Unit 7, Junction One",Leicester Road,Rugby,Warwickshire,Cineworld,Restaurant/Cafe/Canteen,1,5,,210434,5,,52.38523400000000,1463,319,FS@rugby.gov.uk,Rugby,http://www.rugby.gov.uk,-1.25919500000000,CV21 1RW,2014-10-07,fhrs_5_en-GB,5,,FHRS,5
339365,,3 Albert Street,Rugby,Warwickshire,Cinnamon & Marmalade,Farmers/growers,7838,0,,656760,0,,52.37323900000000,57183,319,FS@rugby.gov.uk,Rugby,http://www.rugby.gov.uk,-1.26021800000000,CV21 2RZ,2014-06-27,fhrs_5_en-GB,5,,FHRS,0
339366,Dunchurch Social Club,The Square,Dunchurch,Warwickshire,Cinnamon Lounge,Restaurant/Cafe/Canteen,1,5,,210054,5,,52.33718600000000,54559,319,FS@rugby.gov.uk,Rugby,http://www.rugby.gov.uk,-1.28922000000000,CV22 6NU,2013-12-04,fhrs_5_en-GB,5,,FHRS,5
339367,,,,,Claire Bears,Hospitals/Childcare/Caring Premises,5,,,591441,,,,17473,319,FS@rugby.gov.uk,Rugby,http://www.rugby.gov.uk,,,2014-03-10,fhrs_exempt_en-GB,Exempt,,FHRS,
339368,,52 Bath Street,Rugby,Warwickshire,Claire's Creative Bakes,Farmers/growers,7838,5,,638722,5,,52.37421100000000,57035,319,FS@rugby.gov.uk,Rugby,http://www.rugby.gov.uk,-1.25478200000000,CV21 3JE,2014-07-21,fhrs_5_en-GB,5,,FHRS,5
339369,,43 Clifton Road,Rugby,Warwickshire,Claremont Day Centre,Restaurant/Cafe/Canteen,1,0,,210734,5,,52.37207100000000,260,319,FS@rugby.gov.uk,Rugby,http://www.rugby.gov.uk,-1.25473000000000,CV21 3QE,2014-07-11,fhrs_5_en-GB,5,,FHRS,5
339370,,26 Main Street,Clifton Upon Dunsmore,Warwickshire,Clifton  Village Stores Limited,Retailers - other,4613,5,,210622,5,,52.38257000000000,175,319,FS@rugby.gov.uk,Rugby,http://www.rugby.gov.uk,-1.22226000000000,CV23 0BH,2014-04-22,fhrs_4_en-GB,4,,FHRS,10
339371,Clifton Court Nursing Home,Lilbourne Road,Clifton Upon Dunsmore,Warwickshire,Clifton Court  Care Home,Hospitals/Childcare/Caring Premises,5,0,,210471,5,,52.38318400000000,718,319,FS@rugby.gov.uk,Rugby,http://www.rugby.gov.uk,-1.20504500000000,CV23 0BB,2014-07-16,fhrs_5_en-GB,5,,FHRS,5
339372,,33 Clifton Road,Rugby,Warwickshire,Clifton House,Takeaway/sandwich shop,7844,5,,210322,5,,52.37223700000000,179,319,FS@rugby.gov.uk,Rugby,http://www.rugby.gov.uk,-1.25668000000000,CV21 3PY,2014-08-11,fhrs_4_en-GB,4,,FHRS,10
339373,,127 Clifton Road,Rugby,Warwickshire,Clifton News,Retailers - other,4613,10,,210468,5,,52.37250600000000,43319,319,FS@rugby.gov.uk,Rugby,http://www.rugby.gov.uk,-1.24955200000000,CV21 3QJ,2014-05-14,fhrs_3_en-GB,3,,FHRS,10
339374,Clifton Upon Dunsmore C Of E P,Station Road,Clifton Upon Dunsmore,Warwickshire,Clifton Play Group,Hospitals/Childcare/Caring Premises,5,5,,210187,5,,52.38287800000000,45316,319,FS@rugby.gov.uk,Rugby,http://www.rugby.gov.uk,-1.22673600000000,CV23 0BT,2013-10-23,fhrs_5_en-GB,5,,FHRS,5
339375,Clifton Upon Dunsmore C Of E P,Station Road,Clifton Upon Dunsmore,Warwickshire,Clifton Primary School - Clifton Clubhouse,School/college/university,7845,5,,210050,5,,52.38287800000000,2078,319,FS@rugby.gov.uk,Rugby,http://www.rugby.gov.uk,-1.22673600000000,CV23 0BT,2014-01-15,fhrs_5_en-GB,5,,FHRS,5
339376,Clifton Upon Dunsmore C Of E P,Station Road,Clifton Upon Dunsmore,Warwickshire,Clifton-On-Dunsmore Ce Primary,School/college/university,7845,0,,210745,0,,52.38287800000000,444,319,FS@rugby.gov.uk,Rugby,http://www.rugby.gov.uk,-1.22673600000000,CV23 0BT,2014-03-14,fhrs_5_en-GB,5,,FHRS,0
339377,Junction One,Leicester Road,Newbold,"Rugby, Warwickshire",Coffee Shop at The Range,Restaurant/Cafe/Canteen,1,0,,471118,0,,52.38523400000000,1969,319,FS@rugby.gov.uk,Rugby,http://www.rugby.gov.uk,-1.25919500000000,CV21 1RW,2014-04-08,fhrs_5_en-GB,5,,FHRS,5
339378,GE (General Electric),Boughton Road,Brownsover,"Rugby, Warwickshire",Compass Eurest,Restaurant/Cafe/Canteen,1,5,,209903,5,,52.38736600000000,35657,319,FS@rugby.gov.uk,Rugby,http://www.rugby.gov.uk,-1.25215100000000,CV21 1BU,2014-03-26,fhrs_5_en-GB,5,,FHRS,5
339379,Coombe Abbey,Brinklow Road,Ansty,Warwickshire,Coombe Abbey Hotel,Restaurant/Cafe/Canteen,1,5,,209963,5,,52.41208700000000,450,319,FS@rugby.gov.uk,Rugby,http://www.rugby.gov.uk,-1.40911500000000,CV3 2AB,2013-06-26,fhrs_5_en-GB,5,,FHRS,5
339380,,19 Main Street,Newbold,"Rugby, Warwickshire",Co-op Welcome,Retailers - supermarkets/hypermarkets,7840,5,,210328,5,,52.39066000000000,301,319,FS@rugby.gov.uk,Rugby,http://www.rugby.gov.uk,-1.28321800000000,CV21 1HH,2014-06-17,fhrs_5_en-GB,5,,FHRS,5
339381,,4-6 School Street,Wolston,Warwickshire,Co-operative Food,Retailers - supermarkets/hypermarkets,7840,10,,210571,0,,52.37643800000000,534,319,FS@rugby.gov.uk,Rugby,http://www.rugby.gov.uk,-1.39249100000000,CV8 3HF,2013-09-04,fhrs_4_en-GB,4,,FHRS,10
339382,,Unit 1 Gerard Road,Cawston,Rugby,Co-Operative Food,Retailers - supermarkets/hypermarkets,7840,0,,370973,5,,52.36073200000000,43873,319,FS@rugby.gov.uk,Rugby,http://www.rugby.gov.uk,-1.30289500000000,CV22 7GU,2014-03-11,fhrs_5_en-GB,5,,FHRS,0
339383,,36-38 Overslade Lane,Rugby,Warwickshire,Co-operative Supermarket,Retailers - supermarkets/hypermarkets,7840,5,,210040,0,,52.36009800000000,348,319,FS@rugby.gov.uk,Rugby,http://www.rugby.gov.uk,-1.27531300000000,CV22 6DY,2013-09-03,fhrs_5_en-GB,5,,FHRS,0
339384,Costa @ Tesco,1 Leicester Road,Rugby,Warwickshire,Costa,Restaurant/Cafe/Canteen,1,5,,459890,5,,52.38782200000000,56059,319,FS@rugby.gov.uk,Rugby,http://www.rugby.gov.uk,-1.25608100000000,CV21 1RG,2014-05-07,fhrs_5_en-GB,5,,FHRS,5
339385,Unit 10,21 Chapel Street,Rugby,Warwickshire,Costa Coffe,Restaurant/Cafe/Canteen,1,5,,542482,5,,52.37273600000000,56203,319,FS@rugby.gov.uk,Rugby,http://www.rugby.gov.uk,-1.26325300000000,CV21 3EB,2013-08-20,fhrs_5_en-GB,5,,FHRS,5
339386,,1 High Street,Rugby,Warwickshire,Costa Coffee,Restaurant/Cafe/Canteen,1,0,,210233,5,,52.37132000000000,2284,319,FS@rugby.gov.uk,Rugby,http://www.rugby.gov.uk,-1.26251200000000,CV21 3BG,2013-07-11,fhrs_5_en-GB,5,,FHRS,0
339387,Service Station,159 Lawford Road,New Bilton,"Rugby, Warwickshire",Costcutter,Retailers - other,4613,5,,210141,5,,52.37367000000000,792,319,FS@rugby.gov.uk,Rugby,http://www.rugby.gov.uk,-1.27760300000000,CV21 2HX,2014-05-08,fhrs_5_en-GB,5,,FHRS,5
339388,,145A Bilton Road,New Bilton,"Rugby, Warwickshire",Costcutter (1),Retailers - other,4613,5,,210450,0,,52.36703200000000,136,319,FS@rugby.gov.uk,Rugby,http://www.rugby.gov.uk,-1.27567000000000,CV22 7AS,2013-07-18,fhrs_5_en-GB,5,,FHRS,0
339389,,Rugby Road,Brandon,Warwickshire,Coventry Dogs Ltd,Restaurant/Cafe/Canteen,1,5,,210440,5,,52.38988500000000,1667,319,FS@rugby.gov.uk,Rugby,http://www.rugby.gov.uk,-1.40278400000000,CV8 3GJ,2013-12-11,fhrs_5_en-GB,5,,FHRS,5
339390,Coventry Stadium,Rugby Road,Brandon,Warwickshire,Coventry Stadium,Pub/bar/nightclub,7843,5,,471121,5,,52.38988500000000,425,319,FS@rugby.gov.uk,Rugby,http://www.rugby.gov.uk,-1.40278400000000,CV8 3GJ,2013-02-28,fhrs_4_en-GB,4,,FHRS,10
339391,,35-37 Albert Street,Rugby,Warwickshire,Crackerteria,Other catering premises,7841,5,,482774,5,,52.37446600000000,34887,319,FS@rugby.gov.uk,Rugby,http://www.rugby.gov.uk,-1.25958100000000,CV21 2SG,2013-12-05,fhrs_5_en-GB,5,,FHRS,5
339392,,,,,Crafted Cake Company,Other catering premises,7841,5,,547955,5,,,56389,319,FS@rugby.gov.uk,Rugby,http://www.rugby.gov.uk,,,2013-06-27,fhrs_5_en-GB,5,,FHRS,5
339393,Crescent House,6 Horton Crescent,Rugby,Warwickshire,Crescent House(Southfield Dining Hall),School/college/university,7845,0,,210027,0,,52.36890600000000,1225,319,FS@rugby.gov.uk,Rugby,http://www.rugby.gov.uk,-1.25885100000000,CV22 5DJ,2014-05-01,fhrs_5_en-GB,5,,FHRS,5
339394,Crescent School,Bawnmore Road,Bilton,"Rugby, Warwickshire",Crescent School (Olive Catering),School/college/university,7845,5,,210059,5,,52.35912500000000,568,319,FS@rugby.gov.uk,Rugby,http://www.rugby.gov.uk,-1.28829500000000,CV22 7QH,2014-07-01,fhrs_5_en-GB,5,,FHRS,5
339395,Crown Hotel,25 Market Place,Rugby,Warwickshire,Crown Hotel,Pub/bar/nightclub,7843,10,,210273,10,,52.37241800000000,309,319,FS@rugby.gov.uk,Rugby,http://www.rugby.gov.uk,-1.26268500000000,CV21 3DU,2014-04-24,fhrs_3_en-GB,3,,FHRS,10
339396,,34 Southam Road,Toft,"Dunchurch, Warwickshire",Crystal,Takeaway/sandwich shop,7844,5,,210501,5,,52.33635300000000,1415,319,FS@rugby.gov.uk,Rugby,http://www.rugby.gov.uk,-1.29125800000000,CV22 6NL,2013-12-15,fhrs_4_en-GB,4,,FHRS,10
339397,,128 Railway Terrace,Rugby,Warwickshire,Curry Club,Restaurant/Cafe/Canteen,1,20,,209938,5,,52.37539600000000,1158,319,FS@rugby.gov.uk,Rugby,http://www.rugby.gov.uk,-1.25580500000000,CV21 3HE,2014-10-04,fhrs_1_en-GB,1,,FHRS,5
339398,,23 The Green,Bilton,"Rugby, Warwickshire",Curry Cottage/Chickeria,Takeaway/sandwich shop,7844,5,,511433,5,,52.35897900000000,35262,319,FS@rugby.gov.uk,Rugby,http://www.rugby.gov.uk,-1.29082300000000,CV22 7LZ,2014-08-12,fhrs_5_en-GB,5,,FHRS,5
339399,,3 Whitehall Road,Rugby,Warwickshire,Daisykins,Hospitals/Childcare/Caring Premises,5,0,,210629,5,,52.37059300000000,1554,319,FS@rugby.gov.uk,Rugby,http://www.rugby.gov.uk,-1.25406400000000,CV21 3AE,2014-07-29,fhrs_5_en-GB,5,,FHRS,5
339400,Professional Shop Rugby Golf Club,Clifton Road,Rugby,Warwickshire,David Quinn Golf Professional,Retailers - other,4613,,,210690,,,52.37641300000000,841,319,FS@rugby.gov.uk,Rugby,http://www.rugby.gov.uk,-1.23761600000000,CV21 3RD,2012-04-03,fhrs_exempt_en-GB,Exempt,,FHRS,
339401,,11 Bank Street,Rugby,Warwickshire,Delish Deli & Kitchen Ltd,Restaurant/Cafe/Canteen,1,5,,459891,5,,52.37347300000000,787,319,FS@rugby.gov.uk,Rugby,http://www.rugby.gov.uk,-1.26024400000000,CV21 2QE,2014-05-19,fhrs_5_en-GB,5,,FHRS,5
339402,The Denbigh Arms,1 Main Street,Monks Kirby,Warwickshire,Denbigh Arms,Pub/bar/nightclub,7843,5,,210525,5,,52.44383100000000,488,319,FS@rugby.gov.uk,Rugby,http://www.rugby.gov.uk,-1.31868100000000,CV23 0QX,2012-12-16,fhrs_4_en-GB,4,,FHRS,10
339403,,,,,Denna Spencer,Retailers - other,4613,5,,690494,5,,,27929,319,FS@rugby.gov.uk,Rugby,http://www.rugby.gov.uk,,,2014-04-11,fhrs_5_en-GB,5,,FHRS,5
339404,Dewar Close Residential Home,Beech Drive,Rugby,Warwickshire,Dewar Close Home For The Elder,Hospitals/Childcare/Caring Premises,5,0,,210598,5,,52.36197000000000,554,319,FS@rugby.gov.uk,Rugby,http://www.rugby.gov.uk,-1.29039400000000,CV22 7LT,2014-07-09,fhrs_5_en-GB,5,,FHRS,5
339405,,47 Woodlands Road,Binley Woods,Warwickshire,Dhaliwal Ltd. Chemists,Retailers - other,4613,,,210116,,,52.39055000000000,418,319,FS@rugby.gov.uk,Rugby,http://www.rugby.gov.uk,-1.41893900000000,CV3 2JL,2014-07-04,fhrs_exempt_en-GB,Exempt,,FHRS,
339406,Valley Point,Valley Drive,Rugby,Warwickshire,DHL for NHS Supply Chain,Restaurant/Cafe/Canteen,1,0,,341593,0,,52.39940800000000,53129,319,FS@rugby.gov.uk,Rugby,http://www.rugby.gov.uk,-1.26574800000000,CV21 1TN,2014-03-24,fhrs_5_en-GB,5,,FHRS,5
339407,,30 Hillmorton Road,Rugby,Warwickshire,Diamond House Hotel,Hotel/bed & breakfast/guest house,7842,5,,210113,5,,52.36965300000000,236,319,FS@rugby.gov.uk,Rugby,http://www.rugby.gov.uk,-1.25619500000000,CV22 5AA,2013-02-05,fhrs_5_en-GB,5,,FHRS,5
339408,,155-157 Railway Terrace,Rugby,Warwickshire,Dilruba Restaurant,Restaurant/Cafe/Canteen,1,5,,209992,5,,52.37635600000000,367,319,FS@rugby.gov.uk,Rugby,http://www.rugby.gov.uk,-1.25561200000000,CV21 3HQ,2013-09-25,fhrs_5_en-GB,5,,FHRS,5
339409,,18 North Street,Rugby,Warwickshire,Dominos Pizza,Takeaway/sandwich shop,7844,0,,210485,0,,52.37439000000000,1058,319,FS@rugby.gov.uk,Rugby,http://www.rugby.gov.uk,-1.26312200000000,CV21 2AF,2013-09-27,fhrs_5_en-GB,5,,FHRS,5
339410,,,,,Donna And Deena Cakes,Manufacturers/packers,7839,5,,656765,5,,,7928,319,FS@rugby.gov.uk,Rugby,http://www.rugby.gov.uk,,,2014-03-30,fhrs_5_en-GB,5,,FHRS,5
339411,,,,,Dorothy's Kitchen,Other catering premises,7841,10,,471123,5,,,48816,319,FS@rugby.gov.uk,Rugby,http://www.rugby.gov.uk,,,2013-01-14,fhrs_4_en-GB,4,,FHRS,5
339412,,107 Cambridge Street,Rugby,Warwickshire,Double Happiness,Takeaway/sandwich shop,7844,10,,210036,10,,52.37545900000000,1527,319,FS@rugby.gov.uk,Rugby,http://www.rugby.gov.uk,-1.24734300000000,CV21 3NJ,2014-08-01,fhrs_3_en-GB,3,,FHRS,10
339413,Whitefields Hotel And Golf Com,Coventry Road,Thurlaston,Warwickshire,Draycote Hotel,Restaurant/Cafe/Canteen,1,10,,210246,10,,52.34059900000000,880,319,FS@rugby.gov.uk,Rugby,http://www.rugby.gov.uk,-1.31454300000000,CV23 9JR,2014-09-18,fhrs_2_en-GB,2,,FHRS,15
339414,,37 The Green,Bilton,Rugby,Dudley Taylor Ltd,Retailers - other,4613,,,210529,,,52.35897900000000,389,319,FS@rugby.gov.uk,Rugby,http://www.rugby.gov.uk,-1.29082300000000,CV22 7LZ,2012-10-02,fhrs_exempt_en-GB,Exempt,,FHRS,
339415,Dunchurch Boughton C Of E Juni,Dew Close,Dunchurch,Warwickshire,Dunchurch Boughton C Of E Junior School,School/college/university,7845,0,,209973,5,,52.33650500000000,938,319,FS@rugby.gov.uk,Rugby,http://www.rugby.gov.uk,-1.29560000000000,CV22 6NE,2013-02-13,fhrs_5_en-GB,5,,FHRS,5
339416,,36 Southam Road,Dunchurch,Warwickshire,Dunchurch Fish Bar,Takeaway/sandwich shop,7844,5,,210355,5,,52.33635300000000,453,319,FS@rugby.gov.uk,Rugby,http://www.rugby.gov.uk,-1.29125800000000,CV22 6NL,2013-08-28,fhrs_5_en-GB,5,,FHRS,5
339417,,School Street,Dunchurch,Warwickshire,Dunchurch Infant School & Nursery,Hospitals/Childcare/Caring Premises,5,0,,210416,0,,52.33736600000000,35562,319,FS@rugby.gov.uk,Rugby,http://www.rugby.gov.uk,-1.29235800000000,CV22 6PA,2014-03-14,fhrs_5_en-GB,5,,FHRS,0
339418,Number 1 The Square,The Square,Dunchurch,Warwickshire,Dunchurch News and Off Licence,Retailers - other,4613,10,,210075,10,,52.33718600000000,456,319,FS@rugby.gov.uk,Rugby,http://www.rugby.gov.uk,-1.28922000000000,CV22 6NU,2014-03-06,fhrs_3_en-GB,3,,FHRS,10
339419,Dunchurch Park Conference Centre,Rugby Road,Dunchurch,Warwickshire,Dunchurch Park Conference Cent,Restaurant/Cafe/Canteen,1,20,,210692,15,,52.33778500000000,463,319,FS@rugby.gov.uk,Rugby,http://www.rugby.gov.uk,-1.28276700000000,CV22 6QW,2014-03-11,fhrs_1_en-GB,1,,FHRS,10
339420,Dunchurch Post Office,Coventry Road,The Green,"Dunchurch, Warwickshire",Dunchurch Post Office & Stores,Retailers - other,4613,0,,210357,0,,52.33786300000000,458,319,FS@rugby.gov.uk,Rugby,http://www.rugby.gov.uk,-1.29124900000000,CV22 6NH,2013-12-03,fhrs_5_en-GB,5,,FHRS,0
339421,,Coventry Road,The Green,"Dunchurch, Warwickshire",Dunchurch Service Station,Retailers - other,4613,10,,210107,10,,52.33799700000000,1255,319,FS@rugby.gov.uk,Rugby,http://www.rugby.gov.uk,-1.29259700000000,CV22 6RA,2013-01-23,fhrs_3_en-GB,3,,FHRS,10
339422,Dunchurch Social Club,The Square,Dunchurch,Warwickshire,Dunchurch Social Club,Pub/bar/nightclub,7843,5,,210654,5,,52.33718600000000,455,319,FS@rugby.gov.uk,Rugby,http://www.rugby.gov.uk,-1.28922000000000,CV22 6NU,2014-01-15,fhrs_4_en-GB,4,,FHRS,10
339423,Dunsmore Home Farm,Watling Street,Clifton Upon Dunsmore,Warwickshire,Dunsmore Home Farm,Hotel/bed & breakfast/guest house,7842,5,,210137,5,,52.39907500000000,953,319,FS@rugby.gov.uk,Rugby,http://www.rugby.gov.uk,-1.20727200000000,CV23 0AQ,2014-10-07,fhrs_5_en-GB,5,,FHRS,5
339424,The Old School,Main Street,Harborough Magna,Warwickshire,Early Birds Nursery,Hospitals/Childcare/Caring Premises,5,5,,210544,5,,52.40911000000000,1599,319,FS@rugby.gov.uk,Rugby,http://www.rugby.gov.uk,-1.30157500000000,CV23 0HS,2014-01-15,fhrs_4_en-GB,4,,FHRS,10
339425,Eastlands Primary School,Lansdowne Place,Rugby,Warwickshire,Eastlands Primary School,School/college/university,7845,5,,210106,0,,52.36860600000000,275,319,FS@rugby.gov.uk,Rugby,http://www.rugby.gov.uk,-1.23988000000000,CV21 3RY,2013-09-04,fhrs_5_en-GB,5,,FHRS,0
339426,,14A Kingsway,Rugby,Warwickshire,EFC,Takeaway/sandwich shop,7844,20,,210105,10,,52.36201400000000,274,319,FS@rugby.gov.uk,Rugby,http://www.rugby.gov.uk,-1.26673500000000,CV22 5NU,2014-06-10,fhrs_1_en-GB,1,,FHRS,10
339427,,12 Gardeners End,Bilton,Rugby,Elite Treats Cart Hire,Mobile caterer,7846,,,723785,,,52.36889000000000,57813,319,FS@rugby.gov.uk,Rugby,http://www.rugby.gov.uk,-1.28543600000000,CV22 7RQ,,fhrs_awaitinginspection_en-GB,AwaitingInspection,,FHRS,
339428,Elmhurst,42 Hillmorton Road,Rugby,Warwickshire,Elmhurst,Hospitals/Childcare/Caring Premises,5,5,,210182,5,,52.36851300000000,39615,319,FS@rugby.gov.uk,Rugby,http://www.rugby.gov.uk,-1.25211600000000,CV22 5AD,2014-12-11,fhrs_5_en-GB,5,,FHRS,5
339429,English Martyrs Church Hall,High Street,Hillmorton,Rugby,English Martyrs Playgroup,Hospitals/Childcare/Caring Premises,5,5,,210464,5,,52.35811300000000,45288,319,FS@rugby.gov.uk,Rugby,http://www.rugby.gov.uk,-1.22045700000000,CV21 4EE,2012-10-02,fhrs_4_en-GB,4,,FHRS,10
339430,English Martyrs Rc School,High Street,Hillmorton,"Rugby, Warwickshire",English Martyrs Rc School,School/college/university,7845,5,,210388,5,,52.35811300000000,220,319,FS@rugby.gov.uk,Rugby,http://www.rugby.gov.uk,-1.22045700000000,CV21 4EE,2013-05-09,fhrs_4_en-GB,4,,FHRS,10
339431,Black Horse Inn,Coventry Road,Marton,Warwickshire,Essence of India Restaurant,Pub/bar/nightclub,7843,10,,210349,10,,52.31813500000000,486,319,FS@rugby.gov.uk,Rugby,http://www.rugby.gov.uk,-1.40303100000000,CV23 9RH,2014-06-19,fhrs_3_en-GB,3,,FHRS,10
339432,,1 Leicester Road,Rugby,Warwickshire,Eurest at Tesco Canteen,Restaurant/Cafe/Canteen,1,0,,210626,5,,52.38782200000000,2036,319,FS@rugby.gov.uk,Rugby,http://www.rugby.gov.uk,-1.25608100000000,CV21 1RG,2013-01-22,fhrs_5_en-GB,5,,FHRS,5
339433,,Castle Mound Way,Rugby,Warwickshire,Eurest Catering at Pearson Distribution,Restaurant/Cafe/Canteen,1,0,,210405,5,,52.40373700000000,1633,319,FS@rugby.gov.uk,Rugby,http://www.rugby.gov.uk,-1.23676900000000,,2013-01-31,fhrs_5_en-GB,5,,FHRS,5
339434,Britvic Soft Drinks Ltd,Aventine Way,Brownsover,"Rugby, Warwickshire",Eurest Services,Restaurant/Cafe/Canteen,1,5,,210073,5,,52.39233700000000,45257,319,FS@rugby.gov.uk,Rugby,http://www.rugby.gov.uk,-1.26784900000000,CV21 1HA,2014-05-21,fhrs_5_en-GB,5,,FHRS,5
339435,,152B Murray Road,Rugby,Warwickshire,Euro Supermarket,Retailers - other,4613,10,,210335,10,,52.37583400000000,21299,319,FS@rugby.gov.uk,Rugby,http://www.rugby.gov.uk,-1.25255100000000,CV21 3JR,2014-07-13,fhrs_3_en-GB,3,,FHRS,10
339436,,68 Lower Street,Hillmorton,"Rugby, Warwickshire",Exotica Bengal Cuisine,Restaurant/Cafe/Canteen,1,5,,209999,10,,52.36057100000000,1393,319,FS@rugby.gov.uk,Rugby,http://www.rugby.gov.uk,-1.21147100000000,CV21 4NU,2014-02-03,fhrs_3_en-GB,3,,FHRS,10
339437,,69A-69B Overslade Lane,Rugby,Warwickshire,Express Grill,Takeaway/sandwich shop,7844,5,,210722,5,,52.35905300000000,1435,319,FS@rugby.gov.uk,Rugby,http://www.rugby.gov.uk,-1.27784100000000,CV22 6ED,2014-04-23,fhrs_5_en-GB,5,,FHRS,5
339438,,30 High Street,Rugby,Warwickshire,Family Bargains,Retailers - other,4613,5,,415899,5,,52.37808300000000,55257,319,FS@rugby.gov.uk,Rugby,http://www.rugby.gov.uk,-1.24903800000000,CV21 3BS,2012-07-26,fhrs_5_en-GB,5,,FHRS,5
339439,Midway,Main Street,Brandon,Warwickshire,Fannys Fancies,Farmers/growers,7838,5,,607263,5,,52.38404100000000,56810,319,FS@rugby.gov.uk,Rugby,http://www.rugby.gov.uk,-1.40079100000000,CV8 3HW,2013-11-06,fhrs_5_en-GB,5,,FHRS,5
339440,,7A Eastfield Place,Rugby,Warwickshire,Fergasons Restaurant,Restaurant/Cafe/Canteen,1,5,,210553,5,,52.37136500000000,1616,319,FS@rugby.gov.uk,Rugby,http://www.rugby.gov.uk,-1.26107200000000,CV21 3AT,2014-08-05,fhrs_5_en-GB,5,,FHRS,5
339441,,17-18 High Street,Rugby,Warwickshire,Fever,Pub/bar/nightclub,7843,5,,210218,5,,52.37132000000000,215,319,FS@rugby.gov.uk,Rugby,http://www.rugby.gov.uk,-1.26251200000000,CV21 3BG,2012-08-10,fhrs_4_en-GB,4,,FHRS,10
339442,Fighting Cocks,Cymbeline Way,Bilton,"Rugby, Warwickshire",Fighting Cocks,Pub/bar/nightclub,7843,5,,210119,10,,52.35056300000000,190,319,FS@rugby.gov.uk,Rugby,http://www.rugby.gov.uk,-1.28320600000000,CV22 6JZ,2013-02-08,fhrs_3_en-GB,3,,FHRS,10
339443,,,,,Finlay's Beautiful Baking,Manufacturers/packers,7839,5,,415893,5,,,13641,319,FS@rugby.gov.uk,Rugby,http://www.rugby.gov.uk,,,2012-07-20,fhrs_5_en-GB,5,,FHRS,5
339444,,,,,Fiona Hirons,Other catering premises,7841,5,,341589,5,,,1738,319,FS@rugby.gov.uk,Rugby,http://www.rugby.gov.uk,,,2012-08-08,fhrs_5_en-GB,5,,FHRS,5
339445,,153 Bilton Road,New Bilton,"Rugby, Warwickshire",Fish Plus,Takeaway/sandwich shop,7844,0,,210451,0,,52.36703200000000,137,319,FS@rugby.gov.uk,Rugby,http://www.rugby.gov.uk,-1.27567000000000,CV22 7AS,2013-07-18,fhrs_5_en-GB,5,,FHRS,5
339446,,,,,For Goodness Cake,Manufacturers/packers,7839,5,,591443,5,,,25324,319,FS@rugby.gov.uk,Rugby,http://www.rugby.gov.uk,,,2013-10-16,fhrs_5_en-GB,5,,FHRS,5
339447,,124 Hillmorton Road,Rugby,Warwickshire,Forrest News,Retailers - other,4613,10,,210321,5,,52.36608100000000,240,319,FS@rugby.gov.uk,Rugby,http://www.rugby.gov.uk,-1.24443200000000,CV22 5AL,2013-06-13,fhrs_3_en-GB,3,,FHRS,10
339448,,229B Lower Hillmorton Road,Rugby,Warwickshire,Four Seasons,Takeaway/sandwich shop,7844,5,,209906,5,,52.36601200000000,248,319,FS@rugby.gov.uk,Rugby,http://www.rugby.gov.uk,-1.23086300000000,CV21 4AA,2014-03-28,fhrs_5_en-GB,5,,FHRS,5
339449,"Unit 9, Junction One",Leicester Road,Rugby,Warwickshire,Frankie & Benny's,Restaurant/Cafe/Canteen,1,5,,210098,5,,52.38523400000000,1482,319,FS@rugby.gov.uk,Rugby,http://www.rugby.gov.uk,-1.25919500000000,CV21 1RW,2014-06-19,fhrs_5_en-GB,5,,FHRS,5
339450,,,,,Frankton Grounds Farm,Hotel/bed & breakfast/guest house,7842,5,,210195,5,,,43553,319,FS@rugby.gov.uk,Rugby,http://www.rugby.gov.uk,,,2013-04-17,fhrs_5_en-GB,5,,FHRS,5
339451,Ryton Organic Gardens,Wolston Lane,Ryton-On-Dunsmore,Warwickshire,Fresh Rootz Limited,Restaurant/Cafe/Canteen,1,10,,210615,5,,52.36718300000000,1441,319,FS@rugby.gov.uk,Rugby,http://www.rugby.gov.uk,-1.41318000000000,CV8 3LG,2014-05-23,fhrs_4_en-GB,4,,FHRS,5
339452,Rugby Cement,Lawford Road,New Bilton,"Rugby, Warwickshire",Freshers,Restaurant/Cafe/Canteen,1,0,,210128,5,,52.37604000000000,282,319,FS@rugby.gov.uk,Rugby,http://www.rugby.gov.uk,-1.28441000000000,CV21 2UZ,2013-06-06,fhrs_5_en-GB,5,,FHRS,5
339453,,3 South Brook Road,Rugby,Warwickshire,Friendship Care & Housing,Hospitals/Childcare/Caring Premises,5,5,,210656,5,,52.36311800000000,695,319,FS@rugby.gov.uk,Rugby,http://www.rugby.gov.uk,-1.26498400000000,CV22 5NS,2013-04-17,fhrs_5_en-GB,5,,FHRS,5
339454,Binley Woods County Primary School,Coombe Drive,Binley Woods,Warwickshire,Fun For Kids Ltd,Hospitals/Childcare/Caring Premises,5,5,,210616,5,,52.39170900000000,2237,319,FS@rugby.gov.uk,Rugby,http://www.rugby.gov.uk,-1.41137100000000,CV3 2QU,2015-01-08,fhrs_5_en-GB,5,,FHRS,5
339455,Toft Farm,Southam Road,Toft,"Dunchurch, Warwickshire",Funky Fish Toft Lakes,Restaurant/Cafe/Canteen,1,5,,210499,5,,52.32603400000000,45040,319,FS@rugby.gov.uk,Rugby,http://www.rugby.gov.uk,-1.29469500000000,CV23 8AD,2014-04-28,fhrs_5_en-GB,5,,FHRS,5
339456,,1 Deane Road,Hillmorton,"Rugby, Warwickshire",G.B. Video,Retailers - other,4613,10,,210382,5,,52.36064200000000,192,319,FS@rugby.gov.uk,Rugby,http://www.rugby.gov.uk,-1.21542000000000,CV21 4NZ,2013-06-04,fhrs_4_en-GB,4,,FHRS,5
339457,,33 Southam Road,Dunchurch,Nr Rugby,Garlands,Restaurant/Cafe/Canteen,1,,,682524,,,52.33635300000000,57443,319,FS@rugby.gov.uk,Rugby,http://www.rugby.gov.uk,-1.29125800000000,CV22 6NL,,fhrs_awaitinginspection_en-GB,AwaitingInspection,,FHRS,
339458,,,,,generation sweets,Retailers - other,4613,5,,579578,5,,,56598,319,FS@rugby.gov.uk,Rugby,http://www.rugby.gov.uk,,,2013-08-09,fhrs_5_en-GB,5,,FHRS,5
339459,,Unit G Central Park Drive,Rugby,Warwickshire,Get Stuffed,Takeaway/sandwich shop,7844,30,,445089,15,,52.40188900000000,56007,319,FS@rugby.gov.uk,Rugby,http://www.rugby.gov.uk,-1.24435000000000,CV23 0WE,2014-06-24,fhrs_0_en-GB,0,,FHRS,5
339460,,1 Eastfield Place,Rugby,Warwickshire,Get Stuffed,Restaurant/Cafe/Canteen,1,5,,210659,5,,52.37136500000000,55421,319,FS@rugby.gov.uk,Rugby,http://www.rugby.gov.uk,-1.26107200000000,CV21 3AT,2014-06-23,fhrs_4_en-GB,4,,FHRS,10
339461,Land Adj Green Acre R06 1568 P,Gibbet Lane,Churchover,Warwickshire,Gibbetts Cross Station Ltd,Retailers - other,4613,10,,210298,10,,52.42176800000000,442,319,FS@rugby.gov.uk,Rugby,http://www.rugby.gov.uk,-1.22376200000000,LE17 6BT,2014-07-31,fhrs_3_en-GB,3,,FHRS,10
339462,Hillmorton Grounds,Ashlawn Road,Rugby,Warwickshire,Gillendy Catering at St Andrews RFC,Other catering premises,7841,5,,210757,5,,52.35780400000000,54955,319,FS@rugby.gov.uk,Rugby,http://www.rugby.gov.uk,-1.22808400000000,CV22 5ET,2013-03-21,fhrs_5_en-GB,5,,FHRS,5
339463,,,,,Gingerbread Lane,Manufacturers/packers,7839,5,,579581,5,,,56621,319,FS@rugby.gov.uk,Rugby,http://www.rugby.gov.uk,,,2013-11-25,fhrs_5_en-GB,5,,FHRS,5
339464,,,,,Glebe Farm Catering (Consul Road),Mobile caterer,7846,5,,210563,5,,,1394,319,FS@rugby.gov.uk,Rugby,http://www.rugby.gov.uk,,,2013-06-26,fhrs_5_en-GB,5,,FHRS,5
339465,The Golden Lion,Main Street,Easenhall,Warwickshire,Golden Lion Inn,Pub/bar/nightclub,7843,10,,210191,10,,52.41196400000000,466,319,FS@rugby.gov.uk,Rugby,http://www.rugby.gov.uk,-1.31933300000000,CV23 0JA,2014-02-06,fhrs_3_en-GB,3,,FHRS,10
339466,,20A Chester Street,Rugby,Warwickshire,Gospel Hall,Other catering premises,7841,5,,209884,5,,52.37674200000000,36411,319,FS@rugby.gov.uk,Rugby,http://www.rugby.gov.uk,-1.24549900000000,CV21 3NU,2015-02-03,fhrs_5_en-GB,5,,FHRS,0
339467,,,,,Grab 'A' Snack,Mobile caterer,7846,5,,210492,5,,,1782,319,FS@rugby.gov.uk,Rugby,http://www.rugby.gov.uk,,,2013-05-14,fhrs_5_en-GB,5,,FHRS,5
339468,Manufacturing Technology Centre,Pilot Way,Ansty Business Park,Ansty,Grace &Flavour Ltd,Restaurant/Cafe/Canteen,1,5,,210427,5,,52.47393300000000,55471,319,FS@rugby.gov.uk,Rugby,http://www.rugby.gov.uk,-1.56540900000000,CV7 9JU,2013-08-13,fhrs_5_en-GB,5,,FHRS,5
339469,,Watling Street,Hinckley,Warwickshire,Grange Farm Marketing Ltd,Retailers - other,4613,5,,210575,5,,52.51284200000000,547,319,FS@rugby.gov.uk,Rugby,http://www.rugby.gov.uk,-1.35958100000000,LE10 3JA,2014-08-14,fhrs_5_en-GB,5,,FHRS,5
339470,,13 The Green,Bilton,"Rugby, Warwickshire",Granny's Ltd,Takeaway/sandwich shop,7844,5,,210393,5,,52.35897900000000,1462,319,FS@rugby.gov.uk,Rugby,http://www.rugby.gov.uk,-1.29082300000000,CV22 7LZ,2014-04-25,fhrs_5_en-GB,5,,FHRS,5
339471,,289 Hillmorton Road,Rugby,Warwickshire,Granny's The Sandwich Shop,Other catering premises,7841,5,,210711,5,,52.36163600000000,820,319,FS@rugby.gov.uk,Rugby,http://www.rugby.gov.uk,-1.23117400000000,CV22 5BN,2014-02-03,fhrs_5_en-GB,5,,FHRS,5
339472,,4 Moultrie Road,Rugby,Warwickshire,Granville House,Hospitals/Childcare/Caring Premises,5,5,,210220,5,,52.37101500000000,317,319,FS@rugby.gov.uk,Rugby,http://www.rugby.gov.uk,-1.25689200000000,CV21 3BD,2013-02-11,fhrs_5_en-GB,5,,FHRS,5
339473,"Unit 3, Arches Business Centre",Mill Road,Rugby,Warwickshire,Great Tasting,Other catering premises,7841,5,,415903,5,,52.38192200000000,566,319,FS@rugby.gov.uk,Rugby,http://www.rugby.gov.uk,-1.24726200000000,CV21 1QW,2013-12-17,fhrs_5_en-GB,5,,FHRS,5
339474,,8 Boughton Road,Brownsover,"Rugby, Warwickshire",Great Wall Chinese Takeaway,Takeaway/sandwich shop,7844,5,,209943,5,,52.38553200000000,142,319,FS@rugby.gov.uk,Rugby,http://www.rugby.gov.uk,-1.24931700000000,CV21 1BJ,2013-12-05,fhrs_4_en-GB,4,,FHRS,10
339475,Barn Antiques,Brandon Road,Binley Woods,Warwickshire,Green's Coffee Room,Restaurant/Cafe/Canteen,1,0,,210457,5,,52.39521300000000,2302,319,FS@rugby.gov.uk,Rugby,http://www.rugby.gov.uk,-1.43129600000000,CV3 2AW,2013-07-18,fhrs_5_en-GB,5,,FHRS,5
339476,,19 Market Place,Rugby,Warwickshire,Greggs,Retailers - other,4613,5,,210623,5,,52.37241800000000,308,319,FS@rugby.gov.uk,Rugby,http://www.rugby.gov.uk,-1.26268500000000,CV21 3DU,2014-11-21,fhrs_5_en-GB,5,,FHRS,5
339477,,17 Albert Street,Rugby,Warwickshire,Gutt Busters,Other catering premises,7841,0,,628361,5,,52.37387500000000,57002,319,FS@rugby.gov.uk,Rugby,http://www.rugby.gov.uk,-1.25982600000000,CV21 2SD,2014-02-26,fhrs_5_en-GB,5,,FHRS,5
339478,,68 Lawford Road,New Bilton,"Rugby, Warwickshire",H & M Russell,Retailers - other,4613,10,,210269,5,,52.37194000000000,277,319,FS@rugby.gov.uk,Rugby,http://www.rugby.gov.uk,-1.26965500000000,CV21 2ED,2013-01-24,fhrs_3_en-GB,3,,FHRS,10
339479,The Half Moon,28-30 Lawford Road,New Bilton,"Rugby, Warwickshire",Half Moon,Pub/bar/nightclub,7843,5,,209988,5,,52.37154300000000,276,319,FS@rugby.gov.uk,Rugby,http://www.rugby.gov.uk,-1.26797300000000,CV21 2DY,2014-03-11,fhrs_1_en-GB,1,,FHRS,20
339480,"Halfords Ltd, Elliots Field Retail Park",Leicester Road,Rugby,Warwickshire,Halfords Limited,Retailers - other,4613,,,210338,,,52.38867400000000,1379,319,FS@rugby.gov.uk,Rugby,http://www.rugby.gov.uk,-1.25869700000000,CV21 1SR,2014-04-08,fhrs_exempt_en-GB,Exempt,,FHRS,
339481,,38 Lawford Road,New Bilton,Rugby,Hannahs Sandwich Shop,Takeaway/sandwich shop,7844,,,709303,,,52.37154300000000,57646,319,FS@rugby.gov.uk,Rugby,http://www.rugby.gov.uk,-1.26797300000000,CV21 2DY,,fhrs_awaitinginspection_en-GB,AwaitingInspection,,FHRS,
339482,,16 The Green,Bilton,"Rugby, Warwickshire",Happy Valley,Takeaway/sandwich shop,7844,5,,210057,5,,52.35944100000000,386,319,FS@rugby.gov.uk,Rugby,http://www.rugby.gov.uk,-1.29143300000000,CV22 7LY,2013-12-13,fhrs_5_en-GB,5,,FHRS,5
339483,Harris C Of E School,Harris Drive,Rugby,Warwickshire,Harris C.E. High School,School/college/university,7845,5,,209899,5,,52.36286500000000,208,319,FS@rugby.gov.uk,Rugby,http://www.rugby.gov.uk,-1.27058300000000,CV22 6EA,2014-07-04,fhrs_5_en-GB,5,,FHRS,5
339484,Police Training Centre,Leamington Road,Ryton-On-Dunsmore,Warwickshire,Harrison Catering at National Police Improvement Agency,Restaurant/Cafe/Canteen,1,5,,210527,5,,52.35540000000000,504,319,FS@rugby.gov.uk,Rugby,http://www.rugby.gov.uk,-1.44164400000000,CV8 3EN,2013-07-17,fhrs_5_en-GB,5,,FHRS,5
339485,,55-57 High Street,Hillmorton,"Rugby, Warwickshire",Heart of England Co-op Society Limited,Retailers - supermarkets/hypermarkets,7840,0,,210214,5,,52.35866800000000,223,319,FS@rugby.gov.uk,Rugby,http://www.rugby.gov.uk,-1.22011000000000,CV21 4EG,2014-03-12,fhrs_5_en-GB,5,,FHRS,0
339486,Henry Hinde First School,Grenville Close,Bilton,"Rugby, Warwickshire",Henry Hinde Infant School,School/college/university,7845,0,,210585,0,,52.36545700000000,929,319,FS@rugby.gov.uk,Rugby,http://www.rugby.gov.uk,-1.29471400000000,CV22 7JQ,2014-07-08,fhrs_5_en-GB,5,,FHRS,5
339487,Henry Hinde Middle School,Cornwallis Road,Bilton,"Rugby, Warwickshire",Henry Hinde Junior School,School/college/university,7845,0,,210407,5,,52.36574700000000,185,319,FS@rugby.gov.uk,Rugby,http://www.rugby.gov.uk,-1.29656000000000,CV22 7HN,2013-11-04,fhrs_5_en-GB,5,,FHRS,5
339488,,10 Henry Street,Rugby,Warwickshire,Herb & Spice Thai Restaurant,Restaurant/Cafe/Canteen,1,10,,210234,5,,52.37393700000000,1536,319,FS@rugby.gov.uk,Rugby,http://www.rugby.gov.uk,-1.25967800000000,CV21 2QA,2013-03-15,fhrs_3_en-GB,3,,FHRS,10
339489,Coombe Abbey Park,Brinklow Road,Combe Fields,Warwickshire,Heron Cafe,Restaurant/Cafe/Canteen,1,0,,209890,10,,52.41208700000000,1416,319,FS@rugby.gov.uk,Rugby,http://www.rugby.gov.uk,-1.40911500000000,CV3 2AB,2013-07-07,fhrs_4_en-GB,4,,FHRS,5
339490,Community Centre,326 Hillmorton Road,Rugby,Warwickshire,Hillmorton Community Centre,Other catering premises,7841,,,210297,,,52.35901400000000,251,319,FS@rugby.gov.uk,Rugby,http://www.rugby.gov.uk,-1.22895800000000,CV22 5EY,2013-01-02,fhrs_exempt_en-GB,Exempt,,FHRS,
339491,Hillmorton Ex Servicemens Club,High Street,Hillmorton,"Rugby, Warwickshire",Hillmorton Ex-Servicemens Club,Pub/bar/nightclub,7843,5,,210034,5,,52.35912100000000,221,319,FS@rugby.gov.uk,Rugby,http://www.rugby.gov.uk,-1.22330300000000,CV21 4EH,2013-06-11,fhrs_5_en-GB,5,,FHRS,5
339492,,68 Featherbed Lane,Hillmorton,"Rugby, Warwickshire",Hillmorton Fish Saloon,Takeaway/sandwich shop,7844,5,,210318,5,,52.36210400000000,200,319,FS@rugby.gov.uk,Rugby,http://www.rugby.gov.uk,-1.22172300000000,CV21 4LE,2013-05-08,fhrs_5_en-GB,5,,FHRS,5
339493,,78 High Street,Hillmorton,"Rugby, Warwickshire",Hillmorton Manor Hotel,Restaurant/Cafe/Canteen,1,5,,210565,5,,52.35811300000000,219,319,FS@rugby.gov.uk,Rugby,http://www.rugby.gov.uk,-1.22045700000000,CV21 4EE,2014-02-11,fhrs_5_en-GB,5,,FHRS,5
339494,Paddox Methodist Church,Dunsmore Avenue,Rugby,Warwickshire,Hillmorton Paddox Methodist Church,Other catering premises,7841,5,,210559,5,,52.36002400000000,2448,319,FS@rugby.gov.uk,Rugby,http://www.rugby.gov.uk,-1.23218600000000,CV22 5HD,2014-01-15,fhrs_5_en-GB,5,,FHRS,5
339495,,74 Featherbed Lane,Hillmorton,"Rugby, Warwickshire",Hillmorton Premier Store,Retailers - other,4613,20,,210554,5,,52.36210400000000,201,319,FS@rugby.gov.uk,Rugby,http://www.rugby.gov.uk,-1.22172300000000,CV21 4LE,2014-01-27,fhrs_1_en-GB,1,,FHRS,5
339496,Hillmorton First School,Watts Lane,Hillmorton,"Rugby, Warwickshire",Hillmorton Primary School,School/college/university,7845,0,,210695,5,,52.35983200000000,935,319,FS@rugby.gov.uk,Rugby,http://www.rugby.gov.uk,-1.21261500000000,CV21 4PE,2014-04-30,fhrs_5_en-GB,5,,FHRS,5
339497,,55 Norton Leys,Bilton,"Rugby, Warwickshire",Hillside News & Wines,Retailers - other,4613,10,,210342,5,,52.35208100000000,338,319,FS@rugby.gov.uk,Rugby,http://www.rugby.gov.uk,-1.27131900000000,CV22 5RT,2014-07-08,fhrs_4_en-GB,4,,FHRS,5
339498,Hilltop Garden Centre,Shilton Lane,Shilton,Warwickshire,Hilltop Cafe,Restaurant/Cafe/Canteen,1,5,,210358,5,,52.45349000000000,878,319,FS@rugby.gov.uk,Rugby,http://www.rugby.gov.uk,-1.43375400000000,CV7 9LH,2013-07-12,fhrs_5_en-GB,5,,FHRS,5
339499,,,,,Himali Club (30th Signal Regiment),Pub/bar/nightclub,7843,0,,209924,10,,,54986,319,FS@rugby.gov.uk,Rugby,http://www.rugby.gov.uk,,,2012-02-15,fhrs_4_en-GB,4,,FHRS,10
339500,,54 Lawford Road,New Bilton,"Rugby, Warwickshire",HNB Petroleum,Retailers - other,4613,10,,210014,10,,52.37188300000000,45154,319,FS@rugby.gov.uk,Rugby,http://www.rugby.gov.uk,-1.26917200000000,CV21 2EA,2014-02-11,fhrs_3_en-GB,3,,FHRS,10
339501,Coventry Knight Hotel,London Road,Ryton-On-Dunsmore,Warwickshire,Holiday Inn Coventry South,Restaurant/Cafe/Canteen,1,0,,209893,5,,52.37431100000000,1229,319,FS@rugby.gov.uk,Rugby,http://www.rugby.gov.uk,-1.46010500000000,CV8 3DY,2013-01-28,fhrs_5_en-GB,5,,FHRS,5
339502,,36A High Street,Rugby,Warwickshire,Holland & Barrett Ltd,Retailers - other,4613,5,,210580,5,,52.37135900000000,738,319,FS@rugby.gov.uk,Rugby,http://www.rugby.gov.uk,-1.26299600000000,CV21 3BW,2014-12-11,fhrs_5_en-GB,5,,FHRS,5
339503,,11 Elsee Road,Rugby,Warwickshire,Holly House Care Home,Hospitals/Childcare/Caring Premises,5,0,,504667,0,,52.37145100000000,13013,319,FS@rugby.gov.uk,Rugby,http://www.rugby.gov.uk,-1.25901400000000,CV21 3BA,2014-02-11,fhrs_5_en-GB,5,,FHRS,5
339504,Home Farm,Oxford Road,Ryton-On-Dunsmore,Warwickshire,Home Farm,Hotel/bed & breakfast/guest house,7842,5,,210104,5,,52.35494000000000,1597,319,FS@rugby.gov.uk,Rugby,http://www.rugby.gov.uk,-1.43570400000000,CV8 3EP,2012-04-11,fhrs_5_en-GB,5,,FHRS,5
339505,,,,,Honeymaid_Bakery,Hospitals/Childcare/Caring Premises,5,,,682525,,,,57444,319,FS@rugby.gov.uk,Rugby,http://www.rugby.gov.uk,,,,fhrs_awaitinginspection_en-GB,AwaitingInspection,,FHRS,
339506,Hamilton House,12 Bilton Road,Bilton,"Rugby, Warwickshire",Hoskyn Centre For Disabled,Hospitals/Childcare/Caring Premises,5,5,,209987,5,,52.37033800000000,133,319,FS@rugby.gov.uk,Rugby,http://www.rugby.gov.uk,-1.26796300000000,CV22 7AB,2013-05-23,fhrs_5_en-GB,5,,FHRS,5
339507,,,,,Hot Potatoes (Market Place),Mobile caterer,7846,0,,210272,5,,,1411,319,FS@rugby.gov.uk,Rugby,http://www.rugby.gov.uk,,,2014-03-11,fhrs_5_en-GB,5,,FHRS,5
339508,Bilton County First School,Magnet Lane,Bilton,"Rugby, Warwickshire",Humpty Dumpty Nursery,Hospitals/Childcare/Caring Premises,5,10,,210142,5,,52.35845200000000,944,319,FS@rugby.gov.uk,Rugby,http://www.rugby.gov.uk,-1.29146300000000,CV22 7NH,2013-09-04,fhrs_4_en-GB,4,,FHRS,5
339509,,61 Charlesfield Road,Rugby,Warwickshire,Ice Cream Man,Mobile caterer,7846,,,656762,,,52.35881900000000,57188,319,FS@rugby.gov.uk,Rugby,http://www.rugby.gov.uk,-1.26467300000000,CV22 5PG,,fhrs_awaitinginspection_en-GB,AwaitingInspection,,FHRS,
339510,The Clock Towers Shopping Cent,3 North Street,Rugby,Warwickshire,Iceland,Retailers - supermarkets/hypermarkets,7840,5,,210517,5,,52.37380700000000,336,319,FS@rugby.gov.uk,Rugby,http://www.rugby.gov.uk,-1.26338200000000,CV21 2JS,2014-10-13,fhrs_5_en-GB,5,,FHRS,5
339511,Unit 4,Hollowell Way,Brownsover,"Rugby, Warwickshire",Indian Kitchen,Takeaway/sandwich shop,7844,10,,210555,10,,52.39044700000000,44819,319,FS@rugby.gov.uk,Rugby,http://www.rugby.gov.uk,-1.24470700000000,CV21 1LT,2013-02-08,fhrs_3_en-GB,3,,FHRS,10
339512,Hospital Of St Cross,Barby Road,Rugby,Warwickshire,ISS Mediclean Ltd,Hospitals/Childcare/Caring Premises,5,5,,210347,5,,52.36529300000000,43645,319,FS@rugby.gov.uk,Rugby,http://www.rugby.gov.uk,-1.25904400000000,CV22 5PX,2014-03-18,fhrs_5_en-GB,5,,FHRS,5
339513,,,,,J&S Snacks,Mobile caterer,7846,5,,210538,5,,,55438,319,FS@rugby.gov.uk,Rugby,http://www.rugby.gov.uk,,,2014-10-27,fhrs_4_en-GB,4,,FHRS,10
339514,,133 Cambridge Street,Rugby,Warwickshire,J.S. Off Licence,Retailers - other,4613,10,,210163,10,,52.37545900000000,152,319,FS@rugby.gov.uk,Rugby,http://www.rugby.gov.uk,-1.24734300000000,CV21 3NJ,2014-01-09,fhrs_3_en-GB,3,,FHRS,10
339515,,14 The Green,Bilton,"Rugby, Warwickshire",J.T. Cleaver (Butcher),Manufacturers/packers,7839,5,,210635,5,,52.35944100000000,385,319,FS@rugby.gov.uk,Rugby,http://www.rugby.gov.uk,-1.29143300000000,CV22 7LY,2014-09-02,fhrs_5_en-GB,5,,FHRS,5
339516,,239 Lower Hillmorton Road,Hillmorton,"Rugby, Warwickshire",Jasmine Court Restaurant,Restaurant/Cafe/Canteen,1,5,,210215,5,,52.36601200000000,1358,319,FS@rugby.gov.uk,Rugby,http://www.rugby.gov.uk,-1.23086300000000,CV21 4AA,2014-03-21,fhrs_5_en-GB,5,,FHRS,5
339517,,291 Dunchurch Road,Rugby,Warwickshire,Jim Gillespie House Abbeyfield,Hospitals/Childcare/Caring Premises,5,5,,210673,5,,52.35870200000000,264,319,FS@rugby.gov.uk,Rugby,http://www.rugby.gov.uk,-1.26899200000000,CV22 6HP,2014-03-17,fhrs_5_en-GB,5,,FHRS,5
339518,,,,,Jj's Cakes,Manufacturers/packers,7839,5,,210129,5,,,28313,319,FS@rugby.gov.uk,Rugby,http://www.rugby.gov.uk,,,2012-10-22,fhrs_5_en-GB,5,,FHRS,5
339519,,1 Regent Place,Rugby,Warwickshire,John Lees Memorial Hall,Other catering premises,7841,5,,210337,0,,52.37493500000000,368,319,FS@rugby.gov.uk,Rugby,http://www.rugby.gov.uk,-1.26116000000000,CV21 2PJ,2013-01-27,fhrs_5_en-GB,5,,FHRS,5
339520,,,,,John Simmonds (Mobile Shop),Mobile caterer,7846,10,,210264,5,,,1046,319,FS@rugby.gov.uk,Rugby,http://www.rugby.gov.uk,,,2014-05-20,fhrs_4_en-GB,4,,FHRS,5
339521,5 Central Buildings,Railway Terrace,Rugby,Warwickshire,Johnny Porkers Full English,Takeaway/sandwich shop,7844,5,,415898,5,,52.37254100000000,35555,319,FS@rugby.gov.uk,Rugby,http://www.rugby.gov.uk,-1.25785000000000,CV21 3EL,2014-02-06,fhrs_5_en-GB,5,,FHRS,5
339522,,241 Lower Hillmorton Road,Hillmorton,"Rugby, Warwickshire",Jolly Abbot,Pub/bar/nightclub,7843,10,,209896,5,,52.36534400000000,293,319,FS@rugby.gov.uk,Rugby,http://www.rugby.gov.uk,-1.22770300000000,CV21 4AB,2014-09-04,fhrs_4_en-GB,4,,FHRS,5
339523,,,,,Jolly Jacks Playbus,Mobile caterer,7846,0,,415895,5,,,16279,319,FS@rugby.gov.uk,Rugby,http://www.rugby.gov.uk,,,2014-09-12,fhrs_5_en-GB,5,,FHRS,5
339524,,,,,Jo's Kitchen Cakes,Other catering premises,7841,5,,471120,5,,,33496,319,FS@rugby.gov.uk,Rugby,http://www.rugby.gov.uk,,,2012-12-07,fhrs_5_en-GB,5,,FHRS,5
339525,"Unit I, Central Park Local Centre",Bryant Road,Rugby,Warwickshire,Joseph Morris Butchers Ltd,Retailers - other,4613,5,,210203,5,,52.40185100000000,55335,319,FS@rugby.gov.uk,Rugby,http://www.rugby.gov.uk,-1.24536500000000,CV23 0UX,2013-05-07,fhrs_5_en-GB,5,,FHRS,5
339526,,97 Albert Street,Rugby,Warwickshire,J's Takeaway,Restaurant/Cafe/Canteen,1,5,,210444,5,,52.37563400000000,1577,319,FS@rugby.gov.uk,Rugby,http://www.rugby.gov.uk,-1.25649100000000,CV21 2SW,2014-02-20,fhrs_4_en-GB,4,,FHRS,10
339527,,2 Lauderdale Close,Long Lawford,Warwickshire,Juile Childminding,Hospitals/Childcare/Caring Premises,5,,,638718,,,52.37950500000000,57031,319,FS@rugby.gov.uk,Rugby,http://www.rugby.gov.uk,-1.29707600000000,CV23 9ST,2014-10-06,fhrs_exempt_en-GB,Exempt,,FHRS,
339528,,,,,Just So.....,Other catering premises,7841,10,,209897,5,,,19591,319,FS@rugby.gov.uk,Rugby,http://www.rugby.gov.uk,,,2014-02-17,fhrs_4_en-GB,4,,FHRS,5
339529,,117-119 Railway Terrace,Rugby,Warwickshire,K & A Hope & Son,Takeaway/sandwich shop,7844,20,,210314,10,,52.37565800000000,1048,319,FS@rugby.gov.uk,Rugby,http://www.rugby.gov.uk,-1.25603500000000,CV21 3EY,2013-12-14,fhrs_1_en-GB,1,,FHRS,15
339530,,37A Woodlands Road,Binley Woods,Warwickshire,K&P News,Retailers - other,4613,,,210438,,,52.39127900000000,416,319,FS@rugby.gov.uk,Rugby,http://www.rugby.gov.uk,-1.41897300000000,CV3 2BZ,2012-07-03,fhrs_exempt_en-GB,Exempt,,FHRS,
339531,,,,,Karen Spicer,Hospitals/Childcare/Caring Premises,5,,,552993,,,,10266,319,FS@rugby.gov.uk,Rugby,http://www.rugby.gov.uk,,,2013-11-29,fhrs_exempt_en-GB,Exempt,,FHRS,
339532,,,,,Karishmatic Kreations,Other catering premises,7841,10,,547952,5,,,27235,319,FS@rugby.gov.uk,Rugby,http://www.rugby.gov.uk,,,2013-05-14,fhrs_4_en-GB,4,,FHRS,5
339533,,,,,Kelly's Cake Creations Ltd,Other catering premises,7841,5,,370974,5,,,46387,319,FS@rugby.gov.uk,Rugby,http://www.rugby.gov.uk,,,2012-07-18,fhrs_5_en-GB,5,,FHRS,0
339534,"Unit 10, Junction One",Leicester Road,Rugby,Warwickshire,KFC  Drive Thru,Restaurant/Cafe/Canteen,1,0,,210403,5,,52.38523400000000,1502,319,FS@rugby.gov.uk,Rugby,http://www.rugby.gov.uk,-1.25919500000000,CV21 1RW,2013-07-23,fhrs_5_en-GB,5,,FHRS,0
339535,Coventry Stadium,Rugby Road,Brandon,Warwickshire,KG Catering,Mobile caterer,7846,,,478728,,,52.38988500000000,56134,319,FS@rugby.gov.uk,Rugby,http://www.rugby.gov.uk,-1.40278400000000,CV8 3GJ,,fhrs_awaitinginspection_en-GB,AwaitingInspection,,FHRS,
339536,,2 Kingsway,Rugby,Warwickshire,Kingsway Premiere Store,Retailers - other,4613,10,,210164,10,,52.36201400000000,268,319,FS@rugby.gov.uk,Rugby,http://www.rugby.gov.uk,-1.26673500000000,CV22 5NU,2013-03-15,fhrs_3_en-GB,3,,FHRS,10
339537,,30-31 Sheep Street,Rugby,Warwickshire,Knight Pharmacy,Retailers - other,4613,,,210702,,,52.37174000000000,373,319,FS@rugby.gov.uk,Rugby,http://www.rugby.gov.uk,-1.26347500000000,CV21 3BX,2015-01-07,fhrs_exempt_en-GB,Exempt,,FHRS,
339538,Knightlow C Of E Primary Schoo,Hill Crescent,Stretton-On-Dunsmore,Warwickshire,Knightlow Ce Primary School,School/college/university,7845,5,,210018,5,,52.35272900000000,516,319,FS@rugby.gov.uk,Rugby,http://www.rugby.gov.uk,-1.40287400000000,CV23 9NF,2014-12-16,fhrs_5_en-GB,5,,FHRS,5
339539,,Hill Crescent,Stretton-On-Dunsmore,Warwickshire,Knightlow Childrens Partnership Ltd,Hospitals/Childcare/Caring Premises,5,5,,210719,5,,52.35272900000000,1404,319,FS@rugby.gov.uk,Rugby,http://www.rugby.gov.uk,-1.40287400000000,CV23 9NF,2014-12-16,fhrs_5_en-GB,5,,FHRS,5
339540,,2a Kimberley Road,Rugby,Warwickshire,Kubus Mini Market,Retailers - other,4613,10,,210255,5,,52.37780400000000,55740,319,FS@rugby.gov.uk,Rugby,http://www.rugby.gov.uk,-1.25558800000000,CV21 2SU,2013-10-08,fhrs_4_en-GB,4,,FHRS,5
339541,,33-34 High Street,Rugby,Warwickshire,Kuni Coffee Limited,Other catering premises,7841,10,,471124,10,,52.37135900000000,54579,319,FS@rugby.gov.uk,Rugby,http://www.rugby.gov.uk,-1.26299600000000,CV21 3BW,2014-12-17,fhrs_3_en-GB,3,,FHRS,10
339542,The Roseycombe,Rugby Road,Binley Woods,Warwickshire,Kuredo T/A Roseycombe,Pub/bar/nightclub,7843,5,,210171,10,,52.39510900000000,412,319,FS@rugby.gov.uk,Rugby,http://www.rugby.gov.uk,-1.42453700000000,CV3 2AY,2014-03-03,fhrs_3_en-GB,3,,FHRS,10
339543,Churchside Arcade,Little Church Street,Rugby,Warwickshire,La Casa Loco,Restaurant/Cafe/Canteen,1,5,,210364,5,,52.37142400000000,932,319,FS@rugby.gov.uk,Rugby,http://www.rugby.gov.uk,-1.26186400000000,CV21 3AW,2013-12-03,fhrs_5_en-GB,5,,FHRS,5
339544,,Webb Ellis Road,Bilton,Rugby,LA Fitness,Pub/bar/nightclub,7843,5,,210096,5,,52.36897000000000,1313,319,FS@rugby.gov.uk,Rugby,http://www.rugby.gov.uk,-1.27643100000000,CV22 7AU,2012-11-05,fhrs_5_en-GB,5,,FHRS,5
339545,,24 Church Street,Rugby,Warwickshire,La Margherita,Restaurant/Cafe/Canteen,1,5,,209984,0,,52.37241900000000,812,319,FS@rugby.gov.uk,Rugby,http://www.rugby.gov.uk,-1.25855800000000,CV21 3PU,2013-09-25,fhrs_5_en-GB,5,,FHRS,5
339546,,15 Main Street,Newbold,"Rugby, Warwickshire",Larry's Chippin,Takeaway/sandwich shop,7844,5,,210327,5,,52.39066000000000,300,319,FS@rugby.gov.uk,Rugby,http://www.rugby.gov.uk,-1.28321800000000,CV21 1HH,2013-05-16,fhrs_5_en-GB,5,,FHRS,5
339547,Old Laurentians Sports & Socia,Lime Tree Avenue,Bilton,"Rugby, Warwickshire",Laurentian Sports & Social Club,Pub/bar/nightclub,7843,5,,210579,10,,52.35616900000000,286,319,FS@rugby.gov.uk,Rugby,http://www.rugby.gov.uk,-1.29749000000000,CV22 7QT,2014-06-04,fhrs_4_en-GB,4,,FHRS,5
339548,Lawford Hill Farm,Lawford Heath Lane,Long Lawford,Warwickshire,Lawford Hill Farm,Hotel/bed & breakfast/guest house,7842,10,,210611,5,,52.36828800000000,244,319,FS@rugby.gov.uk,Rugby,http://www.rugby.gov.uk,-1.31909400000000,CV23 9HG,2014-01-29,fhrs_4_en-GB,4,,FHRS,0
339549,,216 Lawford Road,New Bilton,"Rugby, Warwickshire",Lawford Road Co-Op,Retailers - supermarkets/hypermarkets,7840,5,,210038,5,,52.37314700000000,278,319,FS@rugby.gov.uk,Rugby,http://www.rugby.gov.uk,-1.27596600000000,CV21 2HS,2014-05-07,fhrs_5_en-GB,5,,FHRS,5
339550,Lazzolli Pizza &Kebabs,155a Bilton Road,Bilton,"Rugby, Warwickshire",lazzolli Pizza &Kebabs,Takeaway/sandwich shop,7844,5,,638723,5,,52.36581000000000,7496,319,FS@rugby.gov.uk,Rugby,http://www.rugby.gov.uk,-1.28019800000000,CV22 7DS,2014-05-01,fhrs_5_en-GB,5,,FHRS,5
339551,Leam Valley Golf Centre,Southam Road,Kites Hardwick,Warwickshire,Leam Valley Golf Centre,Restaurant/Cafe/Canteen,1,5,,210375,5,,52.31102900000000,1007,319,FS@rugby.gov.uk,Rugby,http://www.rugby.gov.uk,-1.31288800000000,CV23 8AA,2013-05-29,fhrs_5_en-GB,5,,FHRS,5
339552,Leamington Hastings C Of E Sch,Birdingbury Road,Leamington Hastings,Warwickshire,Leamington Hastings CE Infant School,School/college/university,7845,0,,210747,5,,52.30100800000000,590,319,FS@rugby.gov.uk,Rugby,http://www.rugby.gov.uk,-1.34032000000000,CV23 8EA,2014-03-12,fhrs_5_en-GB,5,,FHRS,5
339553,The Sesame Centre,25 Hillmorton Road,Rugby,Warwickshire,Leanne Caine,Restaurant/Cafe/Canteen,1,,,656752,,,52.36988500000000,41858,319,FS@rugby.gov.uk,Rugby,http://www.rugby.gov.uk,-1.25309200000000,CV22 5BX,,fhrs_awaitinginspection_en-GB,AwaitingInspection,,FHRS,
339554,,,,,Lets Party Rugby,Retailers - other,4613,5,,664249,5,,,57280,319,FS@rugby.gov.uk,Rugby,http://www.rugby.gov.uk,,,2014-07-04,fhrs_5_en-GB,5,,FHRS,5
339555,Lidl Supermarket,Bilton Road,Bilton,"Rugby, Warwickshire",Lidl Foodstores,Retailers - supermarkets/hypermarkets,7840,0,,210042,0,,52.36585400000000,1459,319,FS@rugby.gov.uk,Rugby,http://www.rugby.gov.uk,-1.28300300000000,CV22 7DT,2014-06-17,fhrs_5_en-GB,5,,FHRS,0
339556,,,,,Lifes Little Luxuries,Hospitals/Childcare/Caring Premises,5,,,552994,,,,14396,319,FS@rugby.gov.uk,Rugby,http://www.rugby.gov.uk,,,2013-07-05,fhrs_exempt_en-GB,Exempt,,FHRS,
339557,,6 Kingsway,Rugby,Warwickshire,Lifestyle Express (Kingsway News),Retailers - other,4613,10,,209940,5,,52.36201400000000,271,319,FS@rugby.gov.uk,Rugby,http://www.rugby.gov.uk,-1.26673500000000,CV22 5NU,2014-05-08,fhrs_4_en-GB,4,,FHRS,5
339558,,,,,Little Cakes,Manufacturers/packers,7839,10,,370972,5,,,29313,319,FS@rugby.gov.uk,Rugby,http://www.rugby.gov.uk,,,2012-07-19,fhrs_4_en-GB,4,,FHRS,0
339559,Shepherds Hey,279 Dunchurch Road,Rugby,Warwickshire,Little Lambs Childcare Services,Hospitals/Childcare/Caring Premises,5,,,628358,,,52.35870200000000,56991,319,FS@rugby.gov.uk,Rugby,http://www.rugby.gov.uk,-1.26899200000000,CV22 6HP,2014-05-06,fhrs_exempt_en-GB,Exempt,,FHRS,
339560,Morton Gardens,Lower Hillmorton Road,Rugby,Warwickshire,Lloyds Chemist,Retailers - other,4613,,,209997,,,52.37015500000000,177,319,FS@rugby.gov.uk,Rugby,http://www.rugby.gov.uk,-1.25158900000000,CV21 3TG,2015-02-03,fhrs_exempt_en-GB,Exempt,,FHRS,
339561,,11-13 Castle Street,Rugby,Warwickshire,London Calling,Restaurant/Cafe/Canteen,1,5,,415896,5,,52.37319700000000,1932,319,FS@rugby.gov.uk,Rugby,http://www.rugby.gov.uk,-1.25927900000000,CV21 2TP,2013-06-05,fhrs_5_en-GB,5,,FHRS,5
339562,The Royal British Legion,13 West Street,Long Lawford,Warwickshire,Long Lawford British Legion,Pub/bar/nightclub,7843,5,,210606,5,,52.38012300000000,1033,319,FS@rugby.gov.uk,Rugby,http://www.rugby.gov.uk,-1.30880500000000,CV23 9BJ,2014-12-08,fhrs_4_en-GB,4,,FHRS,10
339563,,205 Townsend Lane,Long Lawford,Warwickshire,Long Lawford Co-Op,Retailers - supermarkets/hypermarkets,7840,5,,210469,5,,52.37973400000000,485,319,FS@rugby.gov.uk,Rugby,http://www.rugby.gov.uk,-1.30380100000000,CV23 9DE,2013-06-06,fhrs_5_en-GB,5,,FHRS,5
339564,Long Lawford Primary School,Holbrook Road,Long Lawford,Warwickshire,Long Lawford Primary School,School/college/university,7845,0,,210348,5,,52.38107100000000,481,319,FS@rugby.gov.uk,Rugby,http://www.rugby.gov.uk,-1.30185500000000,CV23 9AL,2014-12-17,fhrs_4_en-GB,4,,FHRS,10
339565,,5-7 Holbrook Road,Long Lawford,Warwickshire,Long Lawford Store,Retailers - other,4613,5,,210353,10,,52.38157200000000,478,319,FS@rugby.gov.uk,Rugby,http://www.rugby.gov.uk,-1.30145100000000,CV23 9AJ,2013-11-04,fhrs_3_en-GB,3,,FHRS,10
339566,Unit H&I,Central Park Drive,Rugby,Warwickshire,Loon Fung,Restaurant/Cafe/Canteen,1,5,,401945,5,,52.40188900000000,50518,319,FS@rugby.gov.uk,Rugby,http://www.rugby.gov.uk,-1.24435000000000,CV23 0WE,2014-03-21,fhrs_5_en-GB,5,,FHRS,5
339567,,1 Sheep Street,Rugby,Warwickshire,Love Treacle Lunch BAR,Takeaway/sandwich shop,7844,10,,591444,10,,52.37153900000000,374,319,FS@rugby.gov.uk,Rugby,http://www.rugby.gov.uk,-1.26305200000000,CV21 3BU,2014-03-05,fhrs_3_en-GB,3,,FHRS,10
339568,Ansty Hall Hotel,Main Road,Ansty,"Coventry, Warwickshire",Macdonald Ansty Hall Ltd.,Restaurant/Cafe/Canteen,1,5,,210180,5,,52.44705700000000,405,319,FS@rugby.gov.uk,Rugby,http://www.rugby.gov.uk,-1.41413500000000,CV7 9HZ,2014-07-17,fhrs_5_en-GB,5,,FHRS,5
339569,,42 Main Street,Clifton Upon Dunsmore,Warwickshire,Macfarlane Newsagent & Po,Retailers - other,4613,,,210462,,,52.38257000000000,449,319,FS@rugby.gov.uk,Rugby,http://www.rugby.gov.uk,-1.22226000000000,CV23 0BH,2015-01-07,fhrs_exempt_en-GB,Exempt,,FHRS,
339570,,312 Hillmorton Road,Rugby,Warwickshire,Maddens,Retailers - other,4613,5,,210643,5,,52.36083900000000,249,319,FS@rugby.gov.uk,Rugby,http://www.rugby.gov.uk,-1.23039500000000,CV22 5BP,2014-01-15,fhrs_4_en-GB,4,,FHRS,10
339571,,41 Albert Street,Rugby,Warwickshire,Maharajah Tandoori Restaurant,Restaurant/Cafe/Canteen,1,5,,209879,5,,52.37446600000000,108,319,FS@rugby.gov.uk,Rugby,http://www.rugby.gov.uk,-1.25958100000000,CV21 2SG,2013-12-29,fhrs_5_en-GB,5,,FHRS,5
339572,Malt Kiln Farm Shop,Main Street,Stretton Under Fosse,Warwickshire,Malt Kiln Farm Shop,Retailers - other,4613,5,,210365,5,,52.42805000000000,947,319,FS@rugby.gov.uk,Rugby,http://www.rugby.gov.uk,-1.33870500000000,CV23 0PF,2014-07-17,fhrs_5_en-GB,5,,FHRS,5
339573,Malvern Hall Farm,Southam Road,Leamington Hastings,Warwickshire,Malvern Hall Farm Shop,Retailers - other,4613,5,,209898,10,,52.28914900000000,2077,319,FS@rugby.gov.uk,Rugby,http://www.rugby.gov.uk,-1.35326500000000,CV23 8EY,2014-10-30,fhrs_3_en-GB,3,,FHRS,10
339574,,64-66 Craven Road,Rugby,Warwickshire,Mangal Grill,Takeaway/sandwich shop,7844,20,,210015,10,,52.37643600000000,45242,319,FS@rugby.gov.uk,Rugby,http://www.rugby.gov.uk,-1.25261400000000,CV21 3HZ,2014-06-09,fhrs_1_en-GB,1,,FHRS,5
339575,Manor Farm,Buckwell Lane,Clifton Upon Dunsmore,Warwickshire,Manor Farm,Hotel/bed & breakfast/guest house,7842,5,,210156,5,,52.38404300000000,1532,319,FS@rugby.gov.uk,Rugby,http://www.rugby.gov.uk,-1.21531400000000,CV23 0BJ,2013-07-30,fhrs_5_en-GB,5,,FHRS,5
339576,Manor Farm,Brooks Close,Willoughby,Warwickshire,Manor Farm Meats,Retailers - other,4613,0,,210219,5,,52.30302300000000,1455,319,FS@rugby.gov.uk,Rugby,http://www.rugby.gov.uk,-1.24447900000000,CV23 8BY,2015-02-03,fhrs_5_en-GB,5,,FHRS,5
339577,Manor Farm,London Road,Ryton-On-Dunsmore,Warwickshire,Manor Farm Shop,Retailers - other,4613,10,,210582,5,,52.36696100000000,50119,319,FS@rugby.gov.uk,Rugby,http://www.rugby.gov.uk,-1.43393500000000,CV8 3EW,2012-06-20,fhrs_4_en-GB,4,,FHRS,5
339578,The Manor House,6 Bawnmore Road,Bilton,"Rugby, Warwickshire",Manor House Residential Home,Hospitals/Childcare/Caring Premises,5,5,,210381,5,,52.35912500000000,130,319,FS@rugby.gov.uk,Rugby,http://www.rugby.gov.uk,-1.28829500000000,CV22 7QH,2015-01-13,fhrs_5_en-GB,5,,FHRS,5
339579,,4 High Street,Rugby,Warwickshire,Marks & Spencer,Retailers - supermarkets/hypermarkets,7840,0,,210576,5,,52.37171300000000,214,319,FS@rugby.gov.uk,Rugby,http://www.rugby.gov.uk,-1.26205100000000,CV21 3BQ,2012-11-02,fhrs_5_en-GB,5,,FHRS,5
339580,,Dunchurch Road,Rugby,Warwickshire,Marshall House,School/college/university,7845,5,,210150,0,,52.36725900000000,54798,319,FS@rugby.gov.uk,Rugby,http://www.rugby.gov.uk,-1.26443100000000,CV22 6AQ,2013-04-25,fhrs_5_en-GB,5,,FHRS,5
339581,,14 Kingsway,Rugby,Warwickshire,Martin's Fruit & Veg,Retailers - other,4613,5,,210432,5,,52.36201400000000,273,319,FS@rugby.gov.uk,Rugby,http://www.rugby.gov.uk,-1.26673500000000,CV22 5NU,2015-01-07,fhrs_4_en-GB,4,,FHRS,10
339582,English Martyrs Church Hall,High Street,Hillmorton,"Rugby, Warwickshire",Marty's Club,Hospitals/Childcare/Caring Premises,5,5,,210340,5,,52.35811300000000,1562,319,FS@rugby.gov.uk,Rugby,http://www.rugby.gov.uk,-1.22045700000000,CV21 4EE,2014-09-03,fhrs_5_en-GB,5,,FHRS,5
339583,,3-5 Castle Street,Rugby,Warwickshire,Masala Lounge,Restaurant/Cafe/Canteen,1,10,,209967,10,,52.37319700000000,43558,319,FS@rugby.gov.uk,Rugby,http://www.rugby.gov.uk,-1.25927900000000,CV21 2TP,2014-03-24,fhrs_3_en-GB,3,,FHRS,10
339584,,Elsee Road,Rugby,Warwickshire,Masonic Hall/Arnold Restaurant,Restaurant/Cafe/Canteen,1,5,,210109,5,,52.37145100000000,259,319,FS@rugby.gov.uk,Rugby,http://www.rugby.gov.uk,-1.25901400000000,CV21 3BA,2013-01-15,fhrs_5_en-GB,5,,FHRS,5
339585,,,,,Mayflair Cupcakes,Manufacturers/packers,7839,5,,210025,5,,,55082,319,FS@rugby.gov.uk,Rugby,http://www.rugby.gov.uk,,,2015-01-07,fhrs_5_en-GB,5,,FHRS,5
339586,,12 Blackwood Avenue,Bilton,"Rugby, Warwickshire",Mayflower,Takeaway/sandwich shop,7844,5,,210396,5,,52.36697800000000,140,319,FS@rugby.gov.uk,Rugby,http://www.rugby.gov.uk,-1.28897700000000,CV22 7ER,2013-09-27,fhrs_5_en-GB,5,,FHRS,5
339587,,5 Market Place,Rugby,Warwickshire,McDonalds,Restaurant/Cafe/Canteen,1,0,,210310,5,,52.37244200000000,564,319,FS@rugby.gov.uk,Rugby,http://www.rugby.gov.uk,-1.26215600000000,CV21 3DY,2013-02-26,fhrs_5_en-GB,5,,FHRS,5
339588,Junction One,Leicester Road,Newbold,"Rugby, Warwickshire",McDonalds Restaurants Ltd,Restaurant/Cafe/Canteen,1,5,,210557,5,,52.38523400000000,1456,319,FS@rugby.gov.uk,Rugby,http://www.rugby.gov.uk,-1.25919500000000,CV21 1RW,2013-06-18,fhrs_5_en-GB,5,,FHRS,5
339589,McDonalds,London Road,Thurlaston,Warwickshire,McDonald's Restaurants Ltd,Restaurant/Cafe/Canteen,1,0,,210309,0,,52.34436100000000,868,319,FS@rugby.gov.uk,Rugby,http://www.rugby.gov.uk,-1.34068800000000,CV23 9LG,2014-09-10,fhrs_5_en-GB,5,,FHRS,5
339590,Medda Place Market Garden,Coventry Road,Thurlaston,Warwickshire,Medda Place,Retailers - other,4613,5,,210068,5,,52.34059900000000,884,319,FS@rugby.gov.uk,Rugby,http://www.rugby.gov.uk,-1.31454300000000,CV23 9JR,2015-01-08,fhrs_4_en-GB,4,,FHRS,10
339591,,49 Church Street,Rugby,Warwickshire,Midas Lounge,Pub/bar/nightclub,7843,5,,210494,5,,52.37260100000000,165,319,FS@rugby.gov.uk,Rugby,http://www.rugby.gov.uk,-1.26037600000000,CV21 3PT,2012-04-03,fhrs_4_en-GB,4,,FHRS,10
339592,Mill Green Residential Home,Newbold Road,Rugby,Warwickshire,Mill Green Residential Home,Hospitals/Childcare/Caring Premises,5,0,,210125,5,,52.38921900000000,35700,319,FS@rugby.gov.uk,Rugby,http://www.rugby.gov.uk,-1.27842200000000,CV21 1EL,2014-01-22,fhrs_5_en-GB,5,,FHRS,5
339593,,30A Vicarage Road,Rugby,Warwickshire,Milner House,Hospitals/Childcare/Caring Premises,5,0,,209928,0,,52.37075700000000,55656,319,FS@rugby.gov.uk,Rugby,http://www.rugby.gov.uk,-1.26886700000000,CV22 7AJ,2014-12-08,fhrs_5_en-GB,5,,FHRS,5
339594,"UTL,, Unit G, Swift Park",Old Leicester Road,Brownsover,"Rugby, Warwickshire",Mitie Catering Services,Restaurant/Cafe/Canteen,1,,,210031,,,52.39171300000000,1596,319,FS@rugby.gov.uk,Rugby,http://www.rugby.gov.uk,-1.25870500000000,CV21 1DZ,,fhrs_awaitinginspection_en-GB,AwaitingInspection,,FHRS,
339595,,3A Southam Road,Dunchurch,Warwickshire,Monte de Vita,Takeaway/sandwich shop,7844,5,,209886,5,,52.33635300000000,44822,319,FS@rugby.gov.uk,Rugby,http://www.rugby.gov.uk,-1.29125800000000,CV22 6NL,2013-12-20,fhrs_5_en-GB,5,,FHRS,5
339596,Unit 3,Hunters Lane,Rugby,Warwickshire,Monty's Cafe,Restaurant/Cafe/Canteen,1,5,,210461,5,,52.38192200000000,44595,319,FS@rugby.gov.uk,Rugby,http://www.rugby.gov.uk,-1.26138100000000,CV21 1EA,2014-07-07,fhrs_5_en-GB,5,,FHRS,5
339597,,1 Westway,Rugby,Warwickshire,Morrisons,Retailers - supermarkets/hypermarkets,7840,5,,210202,5,,52.37442000000000,55293,319,FS@rugby.gov.uk,Rugby,http://www.rugby.gov.uk,-1.26650000000000,CV21 2DQ,2013-05-22,fhrs_5_en-GB,5,,FHRS,5
339598,,14 Main Street,Bilton,"Rugby, Warwickshire",Mosaic,Restaurant/Cafe/Canteen,1,5,,210590,5,,52.35906300000000,45663,319,FS@rugby.gov.uk,Rugby,http://www.rugby.gov.uk,-1.29280400000000,CV22 7NB,2013-10-16,fhrs_5_en-GB,5,,FHRS,5
339599,,,,,Mr G's (Market Place),Mobile caterer,7846,5,,210484,5,,,1230,319,FS@rugby.gov.uk,Rugby,http://www.rugby.gov.uk,,,2013-01-07,fhrs_5_en-GB,5,,FHRS,5
339600,,,,,Mr Teas,Mobile caterer,7846,0,,542479,10,,,20531,319,FS@rugby.gov.uk,Rugby,http://www.rugby.gov.uk,,,2014-11-03,fhrs_4_en-GB,4,,FHRS,10
339601,,,,,Mrs Crumbs the Baker,Manufacturers/packers,7839,5,,210217,5,,,21258,319,FS@rugby.gov.uk,Rugby,http://www.rugby.gov.uk,,,2014-04-08,fhrs_5_en-GB,5,,FHRS,5
339602,,Leicester Road,Rugby,Warwickshire,Murco Peroleum Ltd,Retailers - other,4613,0,,210578,0,,52.38405300000000,284,319,FS@rugby.gov.uk,Rugby,http://www.rugby.gov.uk,-1.26578200000000,CV21 1DJ,2013-07-12,fhrs_5_en-GB,5,,FHRS,0
339603,,,,,Nadines Cakes And Catering,Farmers/growers,7838,0,,669846,5,,,57337,319,FS@rugby.gov.uk,Rugby,http://www.rugby.gov.uk,,,2014-05-12,fhrs_5_en-GB,5,,FHRS,5
339604,,29 Norman Road,Newbold,"Rugby, Warwickshire",Nagra Supermarket,Retailers - other,4613,10,,210279,5,,52.38654600000000,330,319,FS@rugby.gov.uk,Rugby,http://www.rugby.gov.uk,-1.27200000000000,CV21 1DP,2014-05-02,fhrs_4_en-GB,4,,FHRS,5
339605,Cawston Farm House,Coventry Road,Cawston,"Rugby, Warwickshire",Nature Trails Day Nursery,Hospitals/Childcare/Caring Premises,5,0,,210666,5,,52.35393800000000,1598,319,FS@rugby.gov.uk,Rugby,http://www.rugby.gov.uk,-1.31267800000000,CV22 7RY,2014-07-30,fhrs_5_en-GB,5,,FHRS,5
339606,Covenant Ministries,Brinklow Road,Ansty,Warwickshire,Nettle Hill Training/Conference Centre,Hotel/bed & breakfast/guest house,7842,5,,210149,5,,52.43962800000000,572,319,FS@rugby.gov.uk,Rugby,http://www.rugby.gov.uk,-1.39225600000000,CV7 9JL,2013-04-30,fhrs_5_en-GB,5,,FHRS,5
339607,,1 Edward Street,Rugby,Warwickshire,New Bilton Food Stores,Retailers - other,4613,10,,210222,5,,52.37438300000000,196,319,FS@rugby.gov.uk,Rugby,http://www.rugby.gov.uk,-1.26932100000000,CV21 2EZ,2014-07-22,fhrs_4_en-GB,4,,FHRS,5
339608,,34 Elsee Road,Rugby,Warwickshire,New Directions,Hospitals/Childcare/Caring Premises,5,5,,210677,5,,52.37145100000000,1409,319,FS@rugby.gov.uk,Rugby,http://www.rugby.gov.uk,-1.25901400000000,CV21 3BA,2012-04-05,fhrs_5_en-GB,5,,FHRS,5
339609,,Southam Road,Kites Hardwick,Warwickshire,New Leaf Catering Draycote Waters Visitor Centre Restaurant,Restaurant/Cafe/Canteen,1,0,,568474,5,,,451,319,FS@rugby.gov.uk,Rugby,http://www.rugby.gov.uk,,,2014-02-05,fhrs_5_en-GB,5,,FHRS,5
339610,,12-14 North Street,Rugby,Warwickshire,New Look,Retailers - other,4613,,,210071,,,52.37439000000000,586,319,FS@rugby.gov.uk,Rugby,http://www.rugby.gov.uk,-1.26312200000000,CV21 2AF,2012-05-17,fhrs_exempt_en-GB,Exempt,,FHRS,
339611,,48 Church Street,Rugby,Warwickshire,New Regent,Restaurant/Cafe/Canteen,1,5,,210641,10,,52.37260100000000,164,319,FS@rugby.gov.uk,Rugby,http://www.rugby.gov.uk,-1.26037600000000,CV21 3PT,2013-09-27,fhrs_4_en-GB,4,,FHRS,5
339612,Newbold Football Club,Parkfield Road,Newbold,"Rugby, Warwickshire",Newbold R.F.Club,Pub/bar/nightclub,7843,20,,210415,5,,52.38826100000000,355,319,FS@rugby.gov.uk,Rugby,http://www.rugby.gov.uk,-1.28350700000000,CV21 1EZ,2014-10-20,fhrs_1_en-GB,1,,FHRS,5
339613,Newbold Riverside Primary Scho,Newbold Road,Rugby,Warwickshire,Newbold Riverside Primary School,School/college/university,7845,0,,210004,5,,52.38696900000000,329,319,FS@rugby.gov.uk,Rugby,http://www.rugby.gov.uk,-1.27653400000000,CV21 1EH,2013-06-25,fhrs_5_en-GB,5,,FHRS,5
339614,Elliots Field Retail Park,Leicester Road,Rugby,Warwickshire,Next,Retailers - other,4613,,,210295,,,52.38867400000000,2491,319,FS@rugby.gov.uk,Rugby,http://www.rugby.gov.uk,-1.25869700000000,CV21 1SR,2012-04-03,fhrs_exempt_en-GB,Exempt,,FHRS,
339615,,59A High Street,Hillmorton,"Rugby, Warwickshire",NGK Afro Caribbean Take Away,Takeaway/sandwich shop,7844,,,210537,,,52.35866800000000,550,319,FS@rugby.gov.uk,Rugby,http://www.rugby.gov.uk,-1.22011000000000,CV21 4EG,,fhrs_awaitinginspection_en-GB,AwaitingInspection,,FHRS,
339616,Northlands County First School,Pinders Lane,Rugby,Warwickshire,Northlands Primary School,School/college/university,7845,0,,210458,5,,52.37654100000000,357,319,FS@rugby.gov.uk,Rugby,http://www.rugby.gov.uk,-1.25641700000000,CV21 2SS,2014-12-16,fhrs_5_en-GB,5,,FHRS,5
339617,,16 Warwick Street,Rugby,Warwickshire,Number Sixteen,Hotel/bed & breakfast/guest house,7842,5,,210508,5,,52.37069400000000,36308,319,FS@rugby.gov.uk,Rugby,http://www.rugby.gov.uk,-1.26593000000000,CV21 3DH,2014-12-11,fhrs_5_en-GB,5,,FHRS,5
339618,,36 Brookside,Stretton-On-Dunsmore,Warwickshire,Oak & Black Dog,Pub/bar/nightclub,7843,5,,401947,5,,52.34937000000000,560,319,FS@rugby.gov.uk,Rugby,http://www.rugby.gov.uk,-1.40180300000000,CV23 9LY,2013-05-13,fhrs_5_en-GB,5,,FHRS,5
339619,Oakfield Primary School,Oakfield Road,Rugby,Warwickshire,Oakfield Chidrens Centre,Hospitals/Childcare/Caring Premises,5,5,,210122,5,,52.36691800000000,53746,319,FS@rugby.gov.uk,Rugby,http://www.rugby.gov.uk,-1.27173600000000,CV22 6AU,2015-01-08,fhrs_5_en-GB,5,,FHRS,5
339620,Sheaf & Sickle,Coventry Road,Long Lawford,Warwickshire,Oakfield Cricket Club,Pub/bar/nightclub,7843,5,,210199,5,,52.37571600000000,480,319,FS@rugby.gov.uk,Rugby,http://www.rugby.gov.uk,-1.30243900000000,CV23 9DT,2015-01-07,fhrs_5_en-GB,5,,FHRS,5
339621,Oakfield Park,32 Bilton Road,Bilton,"Rugby, Warwickshire",Oakfield Park Social Club,Pub/bar/nightclub,7843,10,,210174,5,,52.37000200000000,135,319,FS@rugby.gov.uk,Rugby,http://www.rugby.gov.uk,-1.27031900000000,CV22 7AL,2013-04-17,fhrs_4_en-GB,4,,FHRS,5
339622,Oakfield Primary School,Oakfield Road,Rugby,Warwickshire,Oakfield Primary School,School/college/university,7845,5,,209962,5,,52.36691800000000,341,319,FS@rugby.gov.uk,Rugby,http://www.rugby.gov.uk,-1.27173600000000,CV22 6AU,2013-07-15,fhrs_5_en-GB,5,,FHRS,5
339623,,41 Cymbeline Way,Bilton,"Rugby, Warwickshire",Ocean City,Takeaway/sandwich shop,7844,5,,210490,5,,52.35056300000000,191,319,FS@rugby.gov.uk,Rugby,http://www.rugby.gov.uk,-1.28320600000000,CV22 6JZ,2014-03-27,fhrs_5_en-GB,5,,FHRS,5
339624,,,,,Old Walls Cakes & Preserves,Manufacturers/packers,7839,10,,210308,5,,,55437,319,FS@rugby.gov.uk,Rugby,http://www.rugby.gov.uk,,,2014-08-11,fhrs_4_en-GB,4,,FHRS,5
339625,Technicolour Distribution Serv,Cosford Lane,Brownsover,"Rugby, Warwickshire",Olive Catering,Restaurant/Cafe/Canteen,1,5,,210033,10,,52.39716200000000,1448,319,FS@rugby.gov.uk,Rugby,http://www.rugby.gov.uk,-1.26752000000000,CV21 1QN,2013-12-17,fhrs_3_en-GB,3,,FHRS,10
339626,,3 Regent Street,Rugby,Warwickshire,Oliver Adams,Manufacturers/packers,7839,5,,210664,5,,52.37372100000000,1144,319,FS@rugby.gov.uk,Rugby,http://www.rugby.gov.uk,-1.26122400000000,CV21 2PE,2013-10-08,fhrs_5_en-GB,5,,FHRS,5
339627,,266 Hillmorton Road,Rugby,Warwickshire,Oliver Adams Ltd,Retailers - other,4613,5,,210497,5,,52.36117000000000,245,319,FS@rugby.gov.uk,Rugby,http://www.rugby.gov.uk,-1.23147600000000,CV22 5BW,2013-01-17,fhrs_5_en-GB,5,,FHRS,5
339628,,71A High Street,Hillmorton,"Rugby, Warwickshire",Oliver's Fish Bar,Takeaway/sandwich shop,7844,5,,210701,5,,52.35866800000000,705,319,FS@rugby.gov.uk,Rugby,http://www.rugby.gov.uk,-1.22011000000000,CV21 4EG,2014-03-25,fhrs_5_en-GB,5,,FHRS,5
339629,,2 Daventry Road,The Square,Dunchurch,Omar's,Restaurant/Cafe/Canteen,1,5,,210176,5,,52.33614400000000,1208,319,FS@rugby.gov.uk,Rugby,http://www.rugby.gov.uk,-1.28800400000000,CV22 6NS,2014-02-04,fhrs_5_en-GB,5,,FHRS,5
339630,,234 Frobisher Road,Bilton,"Rugby, Warwickshire",One Stop,Retailers - other,4613,5,,210117,15,,52.36481000000000,203,319,FS@rugby.gov.uk,Rugby,http://www.rugby.gov.uk,-1.29617800000000,CV22 7JF,2013-12-03,fhrs_2_en-GB,2,,FHRS,5
339631,,235-237 Lower Hillmorton Road,Rugby,Warwickshire,One Stop,Retailers - other,4613,5,,209895,5,,52.36601200000000,292,319,FS@rugby.gov.uk,Rugby,http://www.rugby.gov.uk,-1.23086300000000,CV21 4AA,2014-08-11,fhrs_5_en-GB,5,,FHRS,5
339632,,188 Rugby Road,Binley Woods,Warwickshire,One Stop,Retailers - other,4613,5,,210617,5,,52.39319100000000,414,319,FS@rugby.gov.uk,Rugby,http://www.rugby.gov.uk,-1.41481900000000,CV3 2BA,2015-01-07,fhrs_5_en-GB,5,,FHRS,5
339633,Ball Packaging,Pretorian Way,Rugby,Warwickshire,Optima Catering Ltd,Restaurant/Cafe/Canteen,1,5,,209912,5,,,576,319,FS@rugby.gov.uk,Rugby,http://www.rugby.gov.uk,,CV21 1RP,2014-06-23,fhrs_5_en-GB,5,,FHRS,5
339634,Our Ladys Rc Primary School,Leamington Road,Princethorpe,Warwickshire,Our Lady's R.C. Primary School,School/college/university,7845,5,,210532,5,,52.33383000000000,876,319,FS@rugby.gov.uk,Rugby,http://www.rugby.gov.uk,-1.41513300000000,CV23 9PU,2014-12-08,fhrs_5_en-GB,5,,FHRS,5
339635,Overslade Community Centre,Buchanan Road,Bilton,"Rugby, Warwickshire",Overslade Community Centre and Rugby MInd,Other catering premises,7841,5,,209959,0,,52.36500200000000,54091,319,FS@rugby.gov.uk,Rugby,http://www.rugby.gov.uk,-1.27749500000000,CV22 6AY,2013-07-24,fhrs_5_en-GB,5,,FHRS,5
339636,Overslade House,Overslade Lane,Rugby,Warwickshire,Overslade House Nursing Home,Hospitals/Childcare/Caring Premises,5,0,,210384,5,,52.36009800000000,1327,319,FS@rugby.gov.uk,Rugby,http://www.rugby.gov.uk,-1.27531300000000,CV22 6DY,2013-09-05,fhrs_5_en-GB,5,,FHRS,5
339637,,339 Hillmorton Road,Rugby,Warwickshire,Paddox Filling Station,Retailers - other,4613,5,,209970,5,,52.35969700000000,575,319,FS@rugby.gov.uk,Rugby,http://www.rugby.gov.uk,-1.22884400000000,CV22 5EZ,2014-11-18,fhrs_4_en-GB,4,,FHRS,10
339638,Paddox Primary School,Fareham Avenue,Hillmorton,"Rugby, Warwickshire",Paddox Primary School,School/college/university,7845,0,,210261,5,,52.35989300000000,199,319,FS@rugby.gov.uk,Rugby,http://www.rugby.gov.uk,-1.23697500000000,CV22 5HS,2014-07-03,fhrs_5_en-GB,5,,FHRS,5
339639,Pailton District Ex Service Cl,Coventry Road,Pailton,Warwickshire,Pailton Ex-Service & Social Club,Pub/bar/nightclub,7843,5,,209911,5,,52.43421700000000,495,319,FS@rugby.gov.uk,Rugby,http://www.rugby.gov.uk,-1.31037100000000,CV23 0QB,2014-12-08,fhrs_4_en-GB,4,,FHRS,10
339640,,63 Church Street,Rugby,Warwickshire,Papa Johns,Takeaway/sandwich shop,7844,5,,552995,5,,52.37260100000000,56409,319,FS@rugby.gov.uk,Rugby,http://www.rugby.gov.uk,-1.26037600000000,CV21 3PT,2013-06-21,fhrs_5_en-GB,5,,FHRS,5
339641,6 Churchside Arcade,20 Little Church Street,Rugby,Warwickshire,Papillon Cafe Bar Ltd,Restaurant/Cafe/Canteen,1,5,,210079,5,,52.37142400000000,43351,319,FS@rugby.gov.uk,Rugby,http://www.rugby.gov.uk,-1.26186400000000,CV21 3AW,2013-01-22,fhrs_5_en-GB,5,,FHRS,5
339642,Arbury Farm Bungalow,Withybrook Road,Wolvey,Warwickshire,Parkers Fishery,Restaurant/Cafe/Canteen,1,5,,542485,5,,52.47392300000000,56344,319,FS@rugby.gov.uk,Rugby,http://www.rugby.gov.uk,-1.40057300000000,CV12 9JW,2014-02-20,fhrs_5_en-GB,5,,FHRS,5
339643,,69 High Street,Hillmorton,Rugby,Pasta Pizza,Takeaway/sandwich shop,7844,10,,209909,10,,52.35866800000000,45301,319,FS@rugby.gov.uk,Rugby,http://www.rugby.gov.uk,-1.22011000000000,CV21 4EG,2014-12-02,fhrs_3_en-GB,3,,FHRS,10
339644,,,,,Paulines Catering,Farmers/growers,7838,5,,619736,5,,,56908,319,FS@rugby.gov.uk,Rugby,http://www.rugby.gov.uk,,,2013-10-22,fhrs_4_en-GB,4,,FHRS,10
339645,,44 Chapel Street,Rugby,Warwickshire,Peggotty's,Restaurant/Cafe/Canteen,1,30,,210679,10,,52.37270000000000,158,319,FS@rugby.gov.uk,Rugby,http://www.rugby.gov.uk,-1.26315000000000,CV21 3EB,2014-03-25,fhrs_0_en-GB,0,,FHRS,0
339646,Percival Guildhouse,St. Matthews Street,Rugby,Warwickshire,Percival Guildhouse Catering Department,Other catering premises,7841,0,,210446,0,,52.37128800000000,381,319,FS@rugby.gov.uk,Rugby,http://www.rugby.gov.uk,-1.26456900000000,CV21 3BY,2014-01-06,fhrs_5_en-GB,5,,FHRS,5
339647,Fiveways House,Gipsy Lane,Wolvey,Warwickshire,Pesto At The Axe And Compass,Pub/bar/nightclub,7843,5,,210401,5,,52.49652100000000,544,319,FS@rugby.gov.uk,Rugby,http://www.rugby.gov.uk,-1.35877200000000,LE10 3HG,2013-08-09,fhrs_5_en-GB,5,,FHRS,5
339648,Peter Pan Nursery,Peter Hall Lane,Combe Fields,Warwickshire,Peter Pan Nursery,Hospitals/Childcare/Caring Premises,5,5,,209930,0,,52.42371900000000,776,319,FS@rugby.gov.uk,Rugby,http://www.rugby.gov.uk,-1.39818000000000,CV2 2DR,2013-07-18,fhrs_5_en-GB,5,,FHRS,0
339649,,,,,Peter Pan Pre-School and Nursery,Hospitals/Childcare/Caring Premises,5,5,,210369,5,,,54406,319,FS@rugby.gov.uk,Rugby,http://www.rugby.gov.uk,,,2014-02-10,fhrs_5_en-GB,5,,FHRS,5
339650,,,,,Phil's,Mobile caterer,7846,5,,210729,5,,,1350,319,FS@rugby.gov.uk,Rugby,http://www.rugby.gov.uk,,,2013-02-12,fhrs_5_en-GB,5,,FHRS,5
339651,,,,,Pixie Tiffins,Retailers - other,4613,5,,607256,5,,,56786,319,FS@rugby.gov.uk,Rugby,http://www.rugby.gov.uk,,,2013-10-21,fhrs_5_en-GB,5,,FHRS,5
339652,,37 Clifton Road,Rugby,Warwickshire,Pizza Delicious UK Ltd,Takeaway/sandwich shop,7844,5,,209908,5,,52.37223700000000,45101,319,FS@rugby.gov.uk,Rugby,http://www.rugby.gov.uk,-1.25668000000000,CV21 3PY,2013-12-19,fhrs_4_en-GB,4,,FHRS,10
339653,,23 High Street,Rugby,Warwickshire,Pizza Express,Restaurant/Cafe/Canteen,1,0,,210718,0,,52.37132000000000,1528,319,FS@rugby.gov.uk,Rugby,http://www.rugby.gov.uk,-1.26251200000000,CV21 3BG,2013-07-11,fhrs_5_en-GB,5,,FHRS,0
339654,"Pizza Hut, Elliots Field Retai",Leicester Road,Rugby,Warwickshire,Pizza Hut (Uk) Limited,Restaurant/Cafe/Canteen,1,0,,210248,5,,52.38867400000000,619,319,FS@rugby.gov.uk,Rugby,http://www.rugby.gov.uk,-1.25869700000000,CV21 1SR,2014-03-29,fhrs_5_en-GB,5,,FHRS,5
339655,,45 Regent Street,Rugby,Warwickshire,Pizza Hut Delivery,Takeaway/sandwich shop,7844,0,,607257,5,,52.37372100000000,56796,319,FS@rugby.gov.uk,Rugby,http://www.rugby.gov.uk,-1.26122400000000,CV21 2PE,2013-12-04,fhrs_5_en-GB,5,,FHRS,5
339656,,10 Boughton Road,Brownsover,"Rugby, Warwickshire",Pizza The Action,Takeaway/sandwich shop,7844,5,,210024,5,,52.38553200000000,788,319,FS@rugby.gov.uk,Rugby,http://www.rugby.gov.uk,-1.24931700000000,CV21 1BJ,2013-12-17,fhrs_5_en-GB,5,,FHRS,5
339657,,,,,Plate Xpectations,Other catering premises,7841,5,,210726,5,,,24357,319,FS@rugby.gov.uk,Rugby,http://www.rugby.gov.uk,,,2013-06-04,fhrs_5_en-GB,5,,FHRS,5
339658,Warwickshire College Rugby Cam,Technology Drive,Rugby,Warwickshire,Platform One Training Restaurant & Bar,Restaurant/Cafe/Canteen,1,0,,210151,0,,,54943,319,FS@rugby.gov.uk,Rugby,http://www.rugby.gov.uk,,,2014-05-07,fhrs_5_en-GB,5,,FHRS,0
339659,Shilton Industrial Estate,Kiln Way,Shilton Industrial Estate,"Shilton, Warwickshire",Polly Mays Cafe,Restaurant/Cafe/Canteen,1,5,,210599,5,,52.46531000000000,55461,319,FS@rugby.gov.uk,Rugby,http://www.rugby.gov.uk,-1.41114100000000,CV7 9JY,2013-03-06,fhrs_5_en-GB,5,,FHRS,5
339660,,155A Bilton Road,Bilton,"Rugby, Warwickshire",Polonia Food Express,Retailers - other,4613,10,,210081,10,,52.36581000000000,43579,319,FS@rugby.gov.uk,Rugby,http://www.rugby.gov.uk,-1.28019800000000,CV22 7DS,2014-07-31,fhrs_3_en-GB,3,,FHRS,5
339661,The Clock Towers Shopping Cent,5 Manning Walk,Rugby,Warwickshire,Poundland,Retailers - other,4613,5,,210072,5,,52.37353900000000,589,319,FS@rugby.gov.uk,Rugby,http://www.rugby.gov.uk,-1.26363600000000,CV21 2JT,2014-04-08,fhrs_5_en-GB,5,,FHRS,5
339662,,2 Regent Street,Rugby,Warwickshire,Prezzo,Restaurant/Cafe/Canteen,1,0,,210012,5,,52.37340400000000,842,319,FS@rugby.gov.uk,Rugby,http://www.rugby.gov.uk,-1.26080300000000,CV21 2QF,2013-06-14,fhrs_5_en-GB,5,,FHRS,5
339663,Prince Of Wales,Drury Lane,Rugby,Warwickshire,Prince Of Wales,Pub/bar/nightclub,7843,10,,210669,5,,52.37142900000000,193,319,FS@rugby.gov.uk,Rugby,http://www.rugby.gov.uk,-1.26405300000000,CV21 3DA,2013-06-11,fhrs_3_en-GB,3,,FHRS,10
339664,Princethorpe College,Leamington Road,Princethorpe,Warwickshire,Princethorpe College,School/college/university,7845,0,,210236,5,,52.33602200000000,497,319,FS@rugby.gov.uk,Rugby,http://www.rugby.gov.uk,-1.42203100000000,CV23 9PX,2013-10-18,fhrs_5_en-GB,5,,FHRS,5
339665,,Newbold Revel Road,Stretton-Under-Fosse,Warwickshire,Prison Services College,Hotel/bed & breakfast/guest house,7842,0,,210533,0,,52.42358600000000,570,319,FS@rugby.gov.uk,Rugby,http://www.rugby.gov.uk,-1.33158100000000,CV23 0TH,2014-03-06,fhrs_5_en-GB,5,,FHRS,0
339666,Provost Williams C Of E Primar,Soden's Avenue,Ryton-On-Dunsmore,Warwickshire,Provost Williams Ce Primary Sc,School/college/university,7845,0,,210139,0,,52.36473200000000,508,319,FS@rugby.gov.uk,Rugby,http://www.rugby.gov.uk,-1.43977900000000,CV8 3FF,2014-03-13,fhrs_5_en-GB,5,,FHRS,5
339667,,19A Broad Street,Brinklow,Warwickshire,Pumpkins Deli,Takeaway/sandwich shop,7844,5,,210700,10,,52.41094300000000,50308,319,FS@rugby.gov.uk,Rugby,http://www.rugby.gov.uk,-1.36196800000000,CV23 0LS,2014-01-13,fhrs_4_en-GB,4,,FHRS,5
339668,Mangrove Service Area,London Road,Thurlaston,Warwickshire,Pure Fuels (UK) Ltd,Retailers - other,4613,20,,210189,10,,52.34436100000000,460,319,FS@rugby.gov.uk,Rugby,http://www.rugby.gov.uk,-1.34068800000000,CV23 9LG,2014-07-07,fhrs_1_en-GB,1,,FHRS,10
339669,,16-17 North Street,Rugby,Warwickshire,Quality Supermarket UK Limited,Retailers - other,4613,20,,210477,5,,52.37439000000000,50287,319,FS@rugby.gov.uk,Rugby,http://www.rugby.gov.uk,-1.26312200000000,CV21 2AF,2013-08-12,fhrs_1_en-GB,1,,FHRS,5
339670,The Queens Head,Queens Road,Bretford,Warwickshire,Queens Head,Pub/bar/nightclub,7843,5,,210749,5,,52.39089100000000,429,319,FS@rugby.gov.uk,Rugby,http://www.rugby.gov.uk,-1.36964900000000,CV23 0JY,2013-11-26,fhrs_5_en-GB,5,,FHRS,5
339671,,22 Albert Street,Rugby,Warwickshire,Quigleys Bar & On The Rocks Restaurant,Pub/bar/nightclub,7843,20,,210609,10,,52.37334300000000,1180,319,FS@rugby.gov.uk,Rugby,http://www.rugby.gov.uk,-1.25967300000000,CV21 2RS,2014-07-10,fhrs_1_en-GB,1,,FHRS,10
339672,,6 Castle Street,Rugby,Warwickshire,R.A.D.E.A. Ex-Service Club,Pub/bar/nightclub,7843,10,,210127,5,,52.37319700000000,153,319,FS@rugby.gov.uk,Rugby,http://www.rugby.gov.uk,-1.25927900000000,CV21 2TP,2014-01-31,fhrs_2_en-GB,2,,FHRS,15
339673,,50 Dunchurch Road,Bilton,"Rugby, Warwickshire",Raglan Arms,Pub/bar/nightclub,7843,5,,210250,5,,52.36908800000000,561,319,FS@rugby.gov.uk,Rugby,http://www.rugby.gov.uk,-1.26498800000000,CV22 6AD,2013-09-03,fhrs_5_en-GB,5,,FHRS,5
339674,,,,,Red Hen Cakes,Manufacturers/packers,7839,5,,432940,5,,,20240,319,FS@rugby.gov.uk,Rugby,http://www.rugby.gov.uk,,,2012-10-17,fhrs_5_en-GB,5,,FHRS,5
339675,,High Street,Hillmorton,"Rugby, Warwickshire",Red Lion,Pub/bar/nightclub,7843,10,,210213,10,,52.35866800000000,222,319,FS@rugby.gov.uk,Rugby,http://www.rugby.gov.uk,-1.22011000000000,CV21 4EG,2014-07-21,fhrs_3_en-GB,3,,FHRS,10
339676,,103 Victoria Street,New Bilton,"Rugby, Warwickshire",Reena's Off-licence & General Store,Retailers - other,4613,5,,210051,0,,52.37477300000000,394,319,FS@rugby.gov.uk,Rugby,http://www.rugby.gov.uk,-1.27420600000000,CV21 2HW,2013-07-11,fhrs_5_en-GB,5,,FHRS,5
339677,Chestnut House,North Street,Rugby,Warwickshire,Relish,Takeaway/sandwich shop,7844,5,,210346,5,,52.37458400000000,43520,319,FS@rugby.gov.uk,Rugby,http://www.rugby.gov.uk,-1.26251700000000,CV21 2AG,2013-01-25,fhrs_5_en-GB,5,,FHRS,0
339678,Alstom,Newbold Road,Rugby,Warwickshire,Rendezvous,Restaurant/Cafe/Canteen,1,0,,210323,5,,52.37998800000000,325,319,FS@rugby.gov.uk,Rugby,http://www.rugby.gov.uk,-1.26708400000000,CV21 2NH,2013-09-06,fhrs_5_en-GB,5,,FHRS,5
339679,,3 Moultrie Road,Rugby,Warwickshire,Rethink,Hospitals/Childcare/Caring Premises,5,5,,210489,5,,52.37101500000000,1992,319,FS@rugby.gov.uk,Rugby,http://www.rugby.gov.uk,-1.25689200000000,CV21 3BD,2015-01-08,fhrs_4_en-GB,4,,FHRS,10
339680,Brinklow Community Hall,43 Broad Street,Brinklow,Warwickshire,Revel Pre-School (Brinklow),School/college/university,7845,5,,210476,5,,52.41094300000000,49960,319,FS@rugby.gov.uk,Rugby,http://www.rugby.gov.uk,-1.36196800000000,CV23 0LS,2012-10-25,fhrs_5_en-GB,5,,FHRS,5
339681,Brinklow C Of E First School,The Crescent,Brinklow,Warwickshire,Revel Primary School Annexe,School/college/university,7845,5,,209914,5,,52.41330700000000,431,319,FS@rugby.gov.uk,Rugby,http://www.rugby.gov.uk,-1.35852300000000,CV23 0LR,2014-09-15,fhrs_4_en-GB,4,,FHRS,10
339682,,27 Bilton Road,Rugby,Warwickshire,Richmond Lodge,Hospitals/Childcare/Caring Premises,5,5,,210551,5,,52.36935200000000,258,319,FS@rugby.gov.uk,Rugby,http://www.rugby.gov.uk,-1.26988900000000,CV22 7AN,2013-02-28,fhrs_5_en-GB,5,,FHRS,5
339683,,2 Bank Street,Rugby,Warwickshire,Rileys,Pub/bar/nightclub,7843,10,,210041,10,,52.37347300000000,1450,319,FS@rugby.gov.uk,Rugby,http://www.rugby.gov.uk,-1.26024400000000,CV21 2QE,2014-03-17,fhrs_3_en-GB,3,,FHRS,10
339684,,156 Railway Terrace,Rugby,Warwickshire,Roasty's,Takeaway/sandwich shop,7844,10,,210158,10,,52.37623700000000,1602,319,FS@rugby.gov.uk,Rugby,http://www.rugby.gov.uk,-1.25526200000000,CV21 3HN,2014-02-07,fhrs_3_en-GB,3,,FHRS,10
339685,,Hollowell Way,Brownsover,Rugby,Rocking Horse Kindergarten,Hospitals/Childcare/Caring Premises,5,5,,616413,5,,52.39044700000000,56824,319,FS@rugby.gov.uk,Rugby,http://www.rugby.gov.uk,-1.24470700000000,CV21 1LT,2014-02-06,fhrs_5_en-GB,5,,FHRS,5
339686,,114 Hillmorton Road,Rugby,Warwickshire,Rojin,Takeaway/sandwich shop,7844,5,,210161,5,,52.36608100000000,1330,319,FS@rugby.gov.uk,Rugby,http://www.rugby.gov.uk,-1.24443200000000,CV22 5AL,2013-12-03,fhrs_5_en-GB,5,,FHRS,5
339687,Rokeby Infant School,Anderson Avenue,Rugby,Warwickshire,Rokeby Club,School/college/university,7845,10,,210618,5,,52.36093300000000,1374,319,FS@rugby.gov.uk,Rugby,http://www.rugby.gov.uk,-1.26484400000000,CV22 5PE,2013-01-02,fhrs_4_en-GB,4,,FHRS,0
339688,,Anderson Avenue,Rugby,Warwickshire,Rokeby Primary School,School/college/university,7845,0,,210720,0,,52.36093300000000,109,319,FS@rugby.gov.uk,Rugby,http://www.rugby.gov.uk,-1.26484400000000,CV22 5PE,2013-10-15,fhrs_5_en-GB,5,,FHRS,5
339689,,,,,Roll Call (Somers Road),Mobile caterer,7846,20,,210225,10,,,1671,319,FS@rugby.gov.uk,Rugby,http://www.rugby.gov.uk,,,2014-03-17,fhrs_1_en-GB,1,,FHRS,10
339690,Rolls Royce Ltd,Coombe Bank Lane,Ansty,Warwickshire,Rolls Royce,Restaurant/Cafe/Canteen,1,0,,210417,5,,52.42404900000000,404,319,FS@rugby.gov.uk,Rugby,http://www.rugby.gov.uk,-1.40302900000000,CV7 9JR,2013-11-18,fhrs_5_en-GB,5,,FHRS,5
339691,,39 Albert Street,Rugby,Warwickshire,Romna  Restaurant,Restaurant/Cafe/Canteen,1,5,,209983,5,,52.37446600000000,555,319,FS@rugby.gov.uk,Rugby,http://www.rugby.gov.uk,-1.25958100000000,CV21 2SG,2014-09-17,fhrs_4_en-GB,4,,FHRS,10
339692,The Rose & Castle,Main Road,Ansty,"Rugby, Warwickshire",Rose & Castle,Pub/bar/nightclub,7843,5,,210049,5,,52.44705700000000,406,319,FS@rugby.gov.uk,Rugby,http://www.rugby.gov.uk,-1.41413500000000,CV7 9HZ,2014-03-28,fhrs_4_en-GB,4,,FHRS,10
339693,,28 Main Street,Wolston,Warwickshire,Rose And Crown,Pub/bar/nightclub,7843,5,,210284,10,,52.37735200000000,532,319,FS@rugby.gov.uk,Rugby,http://www.rugby.gov.uk,-1.39556400000000,CV8 3HJ,2014-05-12,fhrs_3_en-GB,3,,FHRS,10
339694,,,,,Rose Cakes,Farmers/growers,7838,5,,656756,5,,,57077,319,FS@rugby.gov.uk,Rugby,http://www.rugby.gov.uk,,,2014-04-24,fhrs_5_en-GB,5,,FHRS,5
339695,,Fosse Way,Stretton-Under-Fosse,Warwickshire,Rose Narrowboats Ltd,Retailers - other,4613,5,,210624,10,,52.42599400000000,510,319,FS@rugby.gov.uk,Rugby,http://www.rugby.gov.uk,-1.35054400000000,CV23 0P3,2014-12-08,fhrs_4_en-GB,4,,FHRS,5
339696,,58 The Square,Dunchurch,Warwickshire,Rowlands Pharmacy,Retailers - other,4613,,,210356,,,52.33718600000000,454,319,FS@rugby.gov.uk,Rugby,http://www.rugby.gov.uk,-1.28922000000000,CV22 6NU,2014-01-15,fhrs_exempt_en-GB,Exempt,,FHRS,
339697,,156 Oxford Street,Rugby,Warwickshire,Rowlands Pharmacy,Retailers - other,4613,,,210037,,,52.37650400000000,351,319,FS@rugby.gov.uk,Rugby,http://www.rugby.gov.uk,-1.24763300000000,CV21 3LY,2014-04-08,fhrs_exempt_en-GB,Exempt,,FHRS,
339698,Royal Oak,Station Road,Brandon,Warwickshire,Royal Oak,Pub/bar/nightclub,7843,5,,210534,5,,52.38169700000000,424,319,FS@rugby.gov.uk,Rugby,http://www.rugby.gov.uk,-1.40141100000000,CV8 3HR,2014-03-26,fhrs_5_en-GB,5,,FHRS,5
339699,,62 Dunchurch Road,Rugby,Warwickshire,Royal Oak Pub Ltd,Pub/bar/nightclub,7843,5,,210212,0,,52.36819000000000,194,319,FS@rugby.gov.uk,Rugby,http://www.rugby.gov.uk,-1.26514900000000,CV22 6AE,2013-09-05,fhrs_5_en-GB,5,,FHRS,5
339700,,10 Kingsway,Rugby,Warwickshire,Ruby Express,Takeaway/sandwich shop,7844,5,,210431,5,,52.36201400000000,272,319,FS@rugby.gov.uk,Rugby,http://www.rugby.gov.uk,-1.26673500000000,CV22 5NU,2013-09-26,fhrs_5_en-GB,5,,FHRS,5
339701,,10 Church Street,Rugby,Warwickshire,Rugby  World Foods Limited,Retailers - supermarkets/hypermarkets,7840,,,704941,,,52.37312000000000,57513,319,FS@rugby.gov.uk,Rugby,http://www.rugby.gov.uk,-1.26132200000000,CV21 3PH,,fhrs_awaitinginspection_en-GB,AwaitingInspection,,FHRS,
339702,,43 Cromwell Road,Hillmorton,"Rugby, Warwickshire",Rugby Beehive Day Nursery,Hospitals/Childcare/Caring Premises,5,0,,209996,5,,52.36605800000000,1410,319,FS@rugby.gov.uk,Rugby,http://www.rugby.gov.uk,-1.25058600000000,CV22 5LY,2014-12-02,fhrs_5_en-GB,5,,FHRS,5
339703,Rugby Bowling Club,Bilton Road,Rugby,Warwickshire,Rugby Bowling Club,Pub/bar/nightclub,7843,0,,209878,5,,52.36703200000000,131,319,FS@rugby.gov.uk,Rugby,http://www.rugby.gov.uk,-1.27567000000000,CV22 7AS,2012-07-03,fhrs_4_en-GB,4,,FHRS,10
339704,,53 Clifton Road,Rugby,Warwickshire,Rugby Care Home,Hospitals/Childcare/Caring Premises,5,0,,210178,5,,52.37207100000000,261,319,FS@rugby.gov.uk,Rugby,http://www.rugby.gov.uk,-1.25473000000000,CV21 3QE,2013-09-24,fhrs_5_en-GB,5,,FHRS,5
339705,Rugby West Indian Association,St. Peter's Road,Rugby,Warwickshire,Rugby Carribean Centre,Pub/bar/nightclub,7843,10,,209977,5,,52.37165200000000,383,319,FS@rugby.gov.uk,Rugby,http://www.rugby.gov.uk,-1.24533600000000,CV21 3QP,2012-12-11,fhrs_4_en-GB,4,,FHRS,5
339706,,46 Cambridge Street,Rugby,Warwickshire,Rugby Christian Fellowship Church,Other catering premises,7841,5,,210402,5,,52.37378400000000,1256,319,FS@rugby.gov.uk,Rugby,http://www.rugby.gov.uk,-1.24839900000000,CV21 3NQ,2014-05-21,fhrs_5_en-GB,5,,FHRS,5
339707,Christian Life Centre,Lawford Road,New Bilton,"Rugby, Warwickshire",Rugby Christian Life Centre,Other catering premises,7841,5,,210062,5,,52.37445900000000,53141,319,FS@rugby.gov.uk,Rugby,http://www.rugby.gov.uk,-1.27867700000000,CV21 2JE,2015-01-07,fhrs_5_en-GB,5,,FHRS,5
339708,Town Hall,Evreux Way,Rugby,Warwickshire,Rugby Council Staff Club,Pub/bar/nightclub,7843,5,,210020,5,,52.37540100000000,945,319,FS@rugby.gov.uk,Rugby,http://www.rugby.gov.uk,-1.26376700000000,CV21 2RR,2013-09-17,fhrs_5_en-GB,5,,FHRS,5
339709,,Baptist Church Hall,Regent Place,"Rugby, Warwickshire",Rugby Country Market,Retailers - other,4613,5,,210240,5,,52.37493500000000,974,319,FS@rugby.gov.uk,Rugby,http://www.rugby.gov.uk,-1.26116000000000,CV21 2PJ,2014-12-11,fhrs_5_en-GB,5,,FHRS,5
339710,,Webb Ellis Road,Rugby,Warwickshire,Rugby Cricket Club,Pub/bar/nightclub,7843,,,656754,,,52.36897000000000,56523,319,FS@rugby.gov.uk,Rugby,http://www.rugby.gov.uk,-1.27643100000000,CV22 7AU,,fhrs_exempt_en-GB,Exempt,,FHRS,
339711,,161-163 Murray Road,Rugby,Warwickshire,Rugby Euro Market,Retailers - other,4613,20,,210394,5,,52.37583400000000,318,319,FS@rugby.gov.uk,Rugby,http://www.rugby.gov.uk,-1.25255100000000,CV21 3JR,2013-10-02,fhrs_1_en-GB,1,,FHRS,5
339712,,Railway Terrace,Rugby,Warwickshire,Rugby Evangelical Free Church,Other catering premises,7841,5,,210247,5,,52.37696100000000,43355,319,FS@rugby.gov.uk,Rugby,http://www.rugby.gov.uk,-1.25503700000000,,2013-12-05,fhrs_5_en-GB,5,,FHRS,5
339713,,42 Lawford Road,New Bilton,"Rugby, Warwickshire",Rugby Fish Bar,Takeaway/sandwich shop,7844,5,,210061,5,,52.37154300000000,35848,319,FS@rugby.gov.uk,Rugby,http://www.rugby.gov.uk,-1.26797300000000,CV21 2DY,2013-01-30,fhrs_5_en-GB,5,,FHRS,5
339714,,26-42 Railway Terrace,Rugby,Warwickshire,Rugby Foodbank,Retailers - other,4613,5,,210535,5,,52.37287800000000,615,319,FS@rugby.gov.uk,Rugby,http://www.rugby.gov.uk,-1.25721300000000,CV21 3LJ,2012-05-14,fhrs_5_en-GB,5,,FHRS,5
339715,"Bilton House, Free Church Home",Bawnmore Road,Bilton,"Rugby, Warwickshire",Rugby Free Church Home For The,Hospitals/Childcare/Caring Premises,5,0,,210257,5,,52.35912500000000,129,319,FS@rugby.gov.uk,Rugby,http://www.rugby.gov.uk,-1.28829500000000,CV22 7QH,2014-01-28,fhrs_5_en-GB,5,,FHRS,5
339716,Rugby Golf Club,Clifton Road,Rugby,Warwickshire,Rugby Golf Club,Pub/bar/nightclub,7843,10,,210030,5,,52.37641300000000,184,319,FS@rugby.gov.uk,Rugby,http://www.rugby.gov.uk,-1.23761600000000,CV21 3RD,2011-10-28,fhrs_4_en-GB,4,,FHRS,5
339717,,56 Church Street,Rugby,Warwickshire,Rugby Grill House,Restaurant/Cafe/Canteen,1,10,,210655,10,,52.37260100000000,49555,319,FS@rugby.gov.uk,Rugby,http://www.rugby.gov.uk,-1.26037600000000,CV21 3PT,2012-11-09,fhrs_3_en-GB,3,,FHRS,10
339718,Rugby High School,Longrood Road,Bilton,"Rugby, Warwickshire",Rugby High School,School/college/university,7845,5,,210569,0,,52.35273000000000,288,319,FS@rugby.gov.uk,Rugby,http://www.rugby.gov.uk,-1.28769300000000,CV22 7RE,2013-07-05,fhrs_5_en-GB,5,,FHRS,5
339719,,118 Hillmorton Road,Rugby,Warwickshire,Rugby House,Takeaway/sandwich shop,7844,5,,210443,5,,52.36608100000000,1234,319,FS@rugby.gov.uk,Rugby,http://www.rugby.gov.uk,-1.24443200000000,CV22 5AL,2014-03-26,fhrs_5_en-GB,5,,FHRS,5
339720,,24 Gas Street,Rugby,Warwickshire,Rugby Irish Association,Pub/bar/nightclub,7843,10,,210657,5,,52.37287700000000,941,319,FS@rugby.gov.uk,Rugby,http://www.rugby.gov.uk,-1.25837400000000,CV21 2TX,2013-04-30,fhrs_3_en-GB,3,,FHRS,10
339721,,,,,Rugby Lions Minis & Juniors,Mobile caterer,7846,5,,210063,5,,,53189,319,FS@rugby.gov.uk,Rugby,http://www.rugby.gov.uk,,,2011-11-27,fhrs_4_en-GB,4,,FHRS,10
339722,Methodist Church,Russelsheim Way,Rugby,Warwickshire,Rugby Methodist Church Centre,Other catering premises,7841,10,,210162,5,,52.36948400000000,1517,319,FS@rugby.gov.uk,Rugby,http://www.rugby.gov.uk,-1.26511300000000,CV22 7TB,2013-06-07,fhrs_4_en-GB,4,,FHRS,5
339723,Model Railway Club,Onley Lane,Rugby,Warwickshire,Rugby Model Engineering Societ,Other catering premises,7841,5,,210474,5,,52.34876200000000,518,319,FS@rugby.gov.uk,Rugby,http://www.rugby.gov.uk,-1.24380300000000,CV22 5QD,2014-04-08,fhrs_5_en-GB,5,,FHRS,5
339724,Bilton Grange School,Rugby Road,Dunchurch,Rugby,Rugby Montessori Nursery School,Hospitals/Childcare/Caring Premises,5,5,,209937,5,,52.34114400000000,1130,319,FS@rugby.gov.uk,Rugby,http://www.rugby.gov.uk,-1.28224300000000,CV22 6QS,2013-11-14,fhrs_5_en-GB,5,,FHRS,5
339725,Rugby Myton Hospice,Barby Road,Rugby,Warwickshire,Rugby Myton Day Hospice,Hospitals/Childcare/Caring Premises,5,5,,209885,5,,52.36168200000000,1519,319,FS@rugby.gov.uk,Rugby,http://www.rugby.gov.uk,-1.25246700000000,CV22 5PY,2014-04-08,fhrs_5_en-GB,5,,FHRS,5
339726,,9A Market Place,Rugby,Warwickshire,Rugby News Express,Retailers - other,4613,0,,210543,0,,52.37241800000000,35098,319,FS@rugby.gov.uk,Rugby,http://www.rugby.gov.uk,-1.26268500000000,CV21 3DU,2014-04-08,fhrs_5_en-GB,5,,FHRS,0
339727,,Brownsover Road,Brownsover,Rugby,Rugby North (Newbold) Premier Inn (Holiday Inn Express),Hotel/bed & breakfast/guest house,7842,0,,210331,0,,52.39094300000000,1364,319,FS@rugby.gov.uk,Rugby,http://www.rugby.gov.uk,-1.27808500000000,CV21 1HL,2013-07-12,fhrs_5_en-GB,5,,FHRS,0
339728,Playing Fields,Barby Road,Rugby,Warwickshire,Rugby Polo Club,Pub/bar/nightclub,7843,5,,209915,5,,52.35618900000000,43280,319,FS@rugby.gov.uk,Rugby,http://www.rugby.gov.uk,-1.22730400000000,CV22 5QL,2012-04-03,fhrs_5_en-GB,5,,FHRS,5
339729,Rugby Post Office,20 Albert Street,Rugby,Warwickshire,Rugby Post Office,Retailers - other,4613,10,,401941,5,,52.37344000000000,1082,319,FS@rugby.gov.uk,Rugby,http://www.rugby.gov.uk,-1.25936300000000,CV21 2AA,2012-05-30,fhrs_4_en-GB,4,,FHRS,5
339730,,100 Hillmorton Road,Rugby,Warwickshire,Rugby Railway Club,Pub/bar/nightclub,7843,5,,210670,5,,52.36608100000000,238,319,FS@rugby.gov.uk,Rugby,http://www.rugby.gov.uk,-1.24443200000000,CV22 5AL,2013-10-25,fhrs_5_en-GB,5,,FHRS,5
339731,,,,,Rugby Real Bread,Farmers/growers,7838,5,,628356,5,,,56972,319,FS@rugby.gov.uk,Rugby,http://www.rugby.gov.uk,,,2013-12-11,fhrs_5_en-GB,5,,FHRS,5
339732,,Ashlawn Road,Rugby,Warwickshire,Rugby Riding Club,Pub/bar/nightclub,7843,5,,210204,5,,52.35613000000000,113,319,FS@rugby.gov.uk,Rugby,http://www.rugby.gov.uk,-1.24040300000000,CV22 5EP,2014-05-19,fhrs_4_en-GB,4,,FHRS,10
339733,,19 Rugby Road,Dunchurch,Warwickshire,Rugby Road Newsagents,Retailers - other,4613,10,,210693,10,,52.34105300000000,464,319,FS@rugby.gov.uk,Rugby,http://www.rugby.gov.uk,-1.28805700000000,CV22 6PG,2013-07-08,fhrs_3_en-GB,3,,FHRS,10
339734,Junction One,Leicester Road,Newbold,"Rugby, Warwickshire",Rugby Superbowl,Restaurant/Cafe/Canteen,1,5,,209954,5,,52.38523400000000,1578,319,FS@rugby.gov.uk,Rugby,http://www.rugby.gov.uk,-1.25919500000000,CV21 1RW,2013-12-18,fhrs_4_en-GB,4,,FHRS,10
339735,,4 St Matthews Street,Rugby,Warwickshire,Rugby Tap Room,Pub/bar/nightclub,7843,,,709306,,,52.37115300000000,57734,319,FS@rugby.gov.uk,Rugby,http://www.rugby.gov.uk,-1.26451300000000,CV21 3BY,,fhrs_awaitinginspection_en-GB,AwaitingInspection,,FHRS,
339736,Central Hall,Henry Street,Rugby,Warwickshire,Rugby Theatre Society,Pub/bar/nightclub,7843,5,,210288,10,,52.37393700000000,210,319,FS@rugby.gov.uk,Rugby,http://www.rugby.gov.uk,-1.25967800000000,CV21 2QA,2012-04-03,fhrs_4_en-GB,4,,FHRS,5
339737,Rugby Thornfield Indoor Bowls,Bruce Williams Way,Rugby,Warwickshire,Rugby Thornfield Indoor Bowls Club Ltd.,Pub/bar/nightclub,7843,10,,210232,10,,52.36660400000000,393,319,FS@rugby.gov.uk,Rugby,http://www.rugby.gov.uk,-1.25308900000000,CV22 5LL,2011-10-31,fhrs_3_en-GB,3,,FHRS,5
339738,Rugby Town Junior Football Clu,Kilsby Lane,Hillmorton,"Rugby, Warwickshire",Rugby Town Junior Football Club,Other catering premises,7841,5,,210658,5,,52.35244700000000,55241,319,FS@rugby.gov.uk,Rugby,http://www.rugby.gov.uk,-1.20266000000000,CV21 4PN,2013-11-28,fhrs_5_en-GB,5,,FHRS,5
339739,,102 Railway Terrace,Rugby,Warwickshire,Rugby United Railwaymens Club,Pub/bar/nightclub,7843,5,,210639,10,,52.37539600000000,362,319,FS@rugby.gov.uk,Rugby,http://www.rugby.gov.uk,-1.25580500000000,CV21 3HE,2013-01-25,fhrs_4_en-GB,4,,FHRS,5
339740,Rugby Library,Little Elborow Street,Rugby,Warwickshire,Rugby Visitors Centre,Retailers - other,4613,,,210436,,,52.37166500000000,1423,319,FS@rugby.gov.uk,Rugby,http://www.rugby.gov.uk,-1.26447500000000,CV21 3BZ,2014-01-15,fhrs_exempt_en-GB,Exempt,,FHRS,
339741,,,,,Rugby Wellbeing Hub,Hospitals/Childcare/Caring Premises,5,10,,210177,5,,,188,319,FS@rugby.gov.uk,Rugby,http://www.rugby.gov.uk,,,2013-07-15,fhrs_4_en-GB,4,,FHRS,5
339742,,32 Oliver Street,Rugby,Warwickshire,Rugby Workers Club Ltd,Pub/bar/nightclub,7843,5,,210133,5,,52.37331600000000,346,319,FS@rugby.gov.uk,Rugby,http://www.rugby.gov.uk,-1.26978000000000,CV21 2ET,2013-02-12,fhrs_5_en-GB,5,,FHRS,0
339743,,6 Sir Winston Churchill Place,Binley Woods,Warwickshire,Rumbles,Other catering premises,7841,5,,210010,5,,52.39203800000000,43783,319,FS@rugby.gov.uk,Rugby,http://www.rugby.gov.uk,-1.42349000000000,CV3 2BT,2013-09-25,fhrs_5_en-GB,5,,FHRS,5
339744,Co-Operative Retail Services L,High Street,Ryton-On-Dunsmore,Warwickshire,Ryton Co-Op,Retailers - supermarkets/hypermarkets,7840,5,,210412,5,,52.35866800000000,502,319,FS@rugby.gov.uk,Rugby,http://www.rugby.gov.uk,-1.22011000000000,CV21 4EG,2013-05-16,fhrs_5_en-GB,5,,FHRS,5
339745,Ryton Pools Country Park,Ryton Road,Bubbenhall,Coventry,Ryton Pools Country Park VC,Retailers - other,4613,,,210513,,,52.34857900000000,2034,319,FS@rugby.gov.uk,Rugby,http://www.rugby.gov.uk,-1.46566000000000,CV8 3BH,2013-09-04,fhrs_exempt_en-GB,Exempt,,FHRS,
339746,,64 Park Road,Rugby,Warwickshire,S  Food and Wine,Retailers - other,4613,5,,209961,10,,52.37661300000000,34080,319,FS@rugby.gov.uk,Rugby,http://www.rugby.gov.uk,-1.26075000000000,CV21 2QH,2013-02-13,fhrs_3_en-GB,3,,FHRS,10
339747,,385 Dunchurch Road,Rugby,Warwickshire,Sainsbury's Colleague Restaurant (7 Day Catering),Restaurant/Cafe/Canteen,1,0,,210154,5,,52.35220800000000,54260,319,FS@rugby.gov.uk,Rugby,http://www.rugby.gov.uk,-1.27296100000000,CV22 6HU,2014-01-07,fhrs_5_en-GB,5,,FHRS,5
339748,,385 Dunchurch Road,Rugby,Warwickshire,Sainsbury's Garage/Shop/Cafe,Retailers - supermarkets/hypermarkets,7840,0,,210092,0,,52.35220800000000,54261,319,FS@rugby.gov.uk,Rugby,http://www.rugby.gov.uk,-1.27296100000000,CV22 6HU,2014-01-07,fhrs_5_en-GB,5,,FHRS,5
339749,,339 Hillmorton Road,Rugby,Warwickshire,Sainsbury's Local (Hillmorton),Retailers - supermarkets/hypermarkets,7840,0,,210594,5,,52.35969700000000,54972,319,FS@rugby.gov.uk,Rugby,http://www.rugby.gov.uk,-1.22884400000000,CV22 5EZ,2015-01-15,fhrs_5_en-GB,5,,FHRS,0
339750,,31B Clifton Road,Rugby,Warwickshire,Sainsbury's Supermarkets Ltd,Retailers - supermarkets/hypermarkets,7840,0,,210520,5,,52.37223700000000,44094,319,FS@rugby.gov.uk,Rugby,http://www.rugby.gov.uk,-1.25668000000000,CV21 3PY,2014-07-02,fhrs_5_en-GB,5,,FHRS,5
339751,Ansty Building,Ansty Park,Draken Drive,Ansty,Sainsbury's Tu - Ansty Park,Restaurant/Cafe/Canteen,1,0,,432946,5,,52.43329700000000,55982,319,FS@rugby.gov.uk,Rugby,http://www.rugby.gov.uk,-1.41137600000000,CV7 9RD,2014-03-28,fhrs_5_en-GB,5,,FHRS,5
339752,,22 Church Street,Rugby,Warwickshire,Salman Takeaway,Takeaway/sandwich shop,7844,10,,210426,10,,52.37241900000000,549,319,FS@rugby.gov.uk,Rugby,http://www.rugby.gov.uk,-1.25855800000000,CV21 3PU,2013-06-25,fhrs_3_en-GB,3,,FHRS,10
339753,Rugby Citadel,Bennfield Road,Newbold,"Rugby, Warwickshire",Salvation Army,Restaurant/Cafe/Canteen,1,5,,210413,5,,52.37282000000000,975,319,FS@rugby.gov.uk,Rugby,http://www.rugby.gov.uk,-1.26660000000000,CV21 2AS,2013-02-11,fhrs_5_en-GB,5,,FHRS,5
339754,Saxon Fields,Lilbourne Road,Clifton Upon Dunsmore,Warwickshire,Saxon Fields Farm Shop and Tea Room,Restaurant/Cafe/Canteen,1,5,,210406,5,,52.38318400000000,2296,319,FS@rugby.gov.uk,Rugby,http://www.rugby.gov.uk,-1.20504500000000,CV23 0BB,2014-11-06,fhrs_5_en-GB,5,,FHRS,5
339755,,43 Woodlands Road,Binley Woods,Warwickshire,Scotts Butchers Ltd.,Manufacturers/packers,7839,10,,210439,5,,52.39055000000000,417,319,FS@rugby.gov.uk,Rugby,http://www.rugby.gov.uk,-1.41893900000000,CV3 2JL,2013-09-24,fhrs_4_en-GB,4,,FHRS,5
339756,,241 Dunchurch Road,Bilton,"Rugby, Warwickshire",Sedlescombe Park Residential Home,Hospitals/Childcare/Caring Premises,5,5,,210638,5,,52.35870200000000,263,319,FS@rugby.gov.uk,Rugby,http://www.rugby.gov.uk,-1.26899200000000,CV22 6HP,2014-03-11,fhrs_5_en-GB,5,,FHRS,5
339757,,238 Lawford Road,New Bilton,"Rugby, Warwickshire",Senh Yip,Takeaway/sandwich shop,7844,5,,210605,5,,52.37388400000000,1271,319,FS@rugby.gov.uk,Rugby,http://www.rugby.gov.uk,-1.27733500000000,CV21 2JA,2014-01-20,fhrs_5_en-GB,5,,FHRS,5
339758,,72 Featherbed Lane,Hillmorton,"Rugby, Warwickshire",Seritas Newsagent,Retailers - other,4613,10,,210526,10,,52.36210400000000,790,319,FS@rugby.gov.uk,Rugby,http://www.rugby.gov.uk,-1.22172300000000,CV21 4LE,2014-01-20,fhrs_3_en-GB,3,,FHRS,5
339759,,40 Albert Square,Rugby,Warwickshire,Seven Stars,Pub/bar/nightclub,7843,10,,210688,10,,52.37457300000000,226,319,FS@rugby.gov.uk,Rugby,http://www.rugby.gov.uk,-1.25796300000000,CV21 2SH,2014-03-11,fhrs_3_en-GB,3,,FHRS,5
339760,,149A Bilton Road,(Null),"Rugby, Warwickshire",Shahporan Balti,Takeaway/sandwich shop,7844,10,,210266,5,,52.36703200000000,1329,319,FS@rugby.gov.uk,Rugby,http://www.rugby.gov.uk,-1.27567000000000,CV22 7AS,2013-08-22,fhrs_3_en-GB,3,,FHRS,10
339761,,89 Hillmorton Road,Rugby,Warwickshire,Shell Webb Ellis,Retailers - other,4613,5,,210573,5,,52.36848400000000,1897,319,FS@rugby.gov.uk,Rugby,http://www.rugby.gov.uk,-1.24895900000000,CV22 5AG,2013-01-10,fhrs_5_en-GB,5,,FHRS,5
339762,,Wood Lane,,Warwickshire,Shilton Sports & Social Club,Pub/bar/nightclub,7843,5,,210311,5,,52.45874900000000,701,319,FS@rugby.gov.uk,Rugby,http://www.rugby.gov.uk,-1.41155200000000,CV7 9JQ,2012-01-04,fhrs_4_en-GB,4,,FHRS,10
339763,Village Hall,Wood Lane,Shilton,Warwickshire,Shilton Village Hall,Other catering premises,7841,5,,210515,5,,52.45740000000000,409,319,FS@rugby.gov.uk,Rugby,http://www.rugby.gov.uk,-1.40956800000000,CV7 9JZ,2014-12-11,fhrs_5_en-GB,5,,FHRS,5
339764,,23 Church Street,Rugby,Warwickshire,Shop and Safe,Retailers - other,4613,,,723786,,,52.37248400000000,57820,319,FS@rugby.gov.uk,Rugby,http://www.rugby.gov.uk,-1.25887900000000,CV21 3PU,,fhrs_awaitinginspection_en-GB,AwaitingInspection,,FHRS,
339765,,2 Brookside,Stretton-On-Dunsmore,Warwickshire,Shoulder Of Mutton Inn,Pub/bar/nightclub,7843,0,,210601,5,,52.34937000000000,558,319,FS@rugby.gov.uk,Rugby,http://www.rugby.gov.uk,-1.40180300000000,CV23 9LY,2013-11-27,fhrs_5_en-GB,5,,FHRS,5
339766,Shoulder Of Mutton Public Hous,Sawbridge Road,Grandborough,Warwickshire,Shoulder Of Mutton Ltd,Pub/bar/nightclub,7843,5,,210651,5,,52.29671300000000,471,319,FS@rugby.gov.uk,Rugby,http://www.rugby.gov.uk,-1.28073200000000,CV23 8DN,2013-08-07,fhrs_4_en-GB,4,,FHRS,10
339767,Benn Partnership Centre,Railway terrace,Rugby,Warwickshire,Sikh Day Care Centre,Other catering premises,7841,10,,210386,0,,52.37681000000000,1341,319,FS@rugby.gov.uk,Rugby,http://www.rugby.gov.uk,-1.25482600000000,CV21 3HR,2014-09-03,fhrs_4_en-GB,4,,FHRS,0
339768,,128 Railway Terrace,Rugby,Warwickshire,Snappy Tomato Pizza,Takeaway/sandwich shop,7844,5,,209969,5,,52.37539600000000,574,319,FS@rugby.gov.uk,Rugby,http://www.rugby.gov.uk,-1.25580500000000,CV21 3HE,2013-12-18,fhrs_5_en-GB,5,,FHRS,5
339769,,256 Hillmorton Road,Rugby,Warwickshire,Spar,Retailers - other,4613,,,210167,,,52.36134200000000,242,319,FS@rugby.gov.uk,Rugby,http://www.rugby.gov.uk,-1.23297100000000,CV22 5BQ,,fhrs_awaitinginspection_en-GB,AwaitingInspection,,FHRS,
339770,Half Moon Inn,Warwick Road,Wolston,Warwickshire,Spice@Half Moon,Pub/bar/nightclub,7843,5,,210736,5,,52.37489000000000,536,319,FS@rugby.gov.uk,Rugby,http://www.rugby.gov.uk,-1.39577400000000,CV8 3HB,2013-08-23,fhrs_4_en-GB,4,,FHRS,10
339771,,40 Lawford Road,New Bilton,"Rugby, Warwickshire",Spices of Rugby,Takeaway/sandwich shop,7844,10,,209990,10,,52.37154300000000,18025,319,FS@rugby.gov.uk,Rugby,http://www.rugby.gov.uk,-1.26797300000000,CV21 2DY,2013-09-27,fhrs_3_en-GB,3,,FHRS,10
339772,,,,,Spoon,Farmers/growers,7838,5,,704943,5,,,57627,319,FS@rugby.gov.uk,Rugby,http://www.rugby.gov.uk,,,2014-09-19,fhrs_5_en-GB,5,,FHRS,5
339773,Springfield,23 Collingwood Avenue,Bilton,Rugby,Springfield Kitchen,Mobile caterer,7846,0,,638719,0,,52.36581100000000,57032,319,FS@rugby.gov.uk,Rugby,http://www.rugby.gov.uk,-1.28779100000000,CV22 7EX,2014-04-24,fhrs_5_en-GB,5,,FHRS,0
339774,The Squirrel,33 Church Street,Rugby,Warwickshire,Squirrel Inn,Pub/bar/nightclub,7843,10,,210716,5,,52.37241900000000,161,319,FS@rugby.gov.uk,Rugby,http://www.rugby.gov.uk,-1.25855800000000,CV21 3PU,2012-06-15,fhrs_4_en-GB,4,,FHRS,5
339775,l,Church Road,Shilton,Warwickshire,St Andrews Day Nursery Limited,Hospitals/Childcare/Caring Premises,5,0,,209933,0,,52.45547400000000,1034,319,FS@rugby.gov.uk,Rugby,http://www.rugby.gov.uk,-1.40744500000000,CV7 9HW,2013-09-05,fhrs_5_en-GB,5,,FHRS,5
339776,Hillmorton Grounds,Ashlawn Road,Rugby,Warwickshire,St Andrews Rugby Football Club,Pub/bar/nightclub,7843,10,,210211,5,,52.35780400000000,112,319,FS@rugby.gov.uk,Rugby,http://www.rugby.gov.uk,-1.22808400000000,CV22 5ET,2013-06-10,fhrs_4_en-GB,4,,FHRS,5
339777,St Georges Vicarage,St. John's Avenue,Rugby,Warwickshire,St George's Church Hall,Other catering premises,7841,5,,210094,10,,52.36023800000000,1049,319,FS@rugby.gov.uk,Rugby,http://www.rugby.gov.uk,-1.23607400000000,CV22 5HR,2013-10-07,fhrs_4_en-GB,4,,FHRS,5
339778,St Maries Catholic Primary School & Nursery,Merttens Drive,Rugby,Warwickshire,St Marie's Catholic Primary School & Nursery,School/college/university,7845,5,,209974,5,,52.36694700000000,314,319,FS@rugby.gov.uk,Rugby,http://www.rugby.gov.uk,-1.26775500000000,CV22 7AF,2014-10-08,fhrs_5_en-GB,5,,FHRS,5
339779,St Maries Rc Infant School,Dunchurch Road,Bilton,"Rugby, Warwickshire",St Maries Day Nursery,Hospitals/Childcare/Caring Premises,5,0,,209953,0,,52.36725900000000,1571,319,FS@rugby.gov.uk,Rugby,http://www.rugby.gov.uk,-1.26443100000000,CV22 6AQ,2013-10-24,fhrs_5_en-GB,5,,FHRS,5
339780,St Maries Rc Infant School,Dunchurch Road,Bilton,"Rugby, Warwickshire",St Marie's R.C. Infant School,School/college/university,7845,5,,210343,5,,52.36725900000000,339,319,FS@rugby.gov.uk,Rugby,http://www.rugby.gov.uk,-1.26443100000000,CV22 6AQ,2012-05-02,fhrs_5_en-GB,5,,FHRS,5
339781,,,,,St Marks Court,Restaurant/Cafe/Canteen,1,5,,210614,5,,,1434,319,FS@rugby.gov.uk,Rugby,http://www.rugby.gov.uk,,,2013-11-21,fhrs_5_en-GB,5,,FHRS,5
339782,St Marys Nursing Home,Montilo Lane,Harborough Magna,Warwickshire,St Mary's Nursing Home,Hospitals/Childcare/Caring Premises,5,0,,210352,0,,52.41726100000000,474,319,FS@rugby.gov.uk,Rugby,http://www.rugby.gov.uk,-1.28306700000000,CV23 0HF,2014-09-24,fhrs_5_en-GB,5,,FHRS,5
339783,Bloxam Primary School,Webb Ellis Road,Bilton,Rugby,St Matthews Bloxham Ce Primary,School/college/university,7845,5,,210052,0,,52.36897000000000,396,319,FS@rugby.gov.uk,Rugby,http://www.rugby.gov.uk,-1.27643100000000,CV22 7AU,2013-09-04,fhrs_5_en-GB,5,,FHRS,5
339784,St Oswalds C Of E Primary Scho,Addison Road,Rugby,Warwickshire,St Oswald's Ce Primary School,School/college/university,7845,5,,209934,5,,52.37194000000000,104,319,FS@rugby.gov.uk,Rugby,http://www.rugby.gov.uk,-1.28291900000000,CV22 7DJ,2013-05-22,fhrs_5_en-GB,5,,FHRS,5
339785,,Clifton Road,Rugby,Warwickshire,St Peter's & St John's Church Hall,Other catering premises,7841,0,,210216,5,,52.37223700000000,168,319,FS@rugby.gov.uk,Rugby,http://www.rugby.gov.uk,-1.25668000000000,CV21 3PY,2014-08-11,fhrs_5_en-GB,5,,FHRS,5
339786,St Thomas Cross Inn,Newton Road,Newton,Warwickshire,St Thomas' Cross,Pub/bar/nightclub,7843,10,,209910,10,,52.39337300000000,491,319,FS@rugby.gov.uk,Rugby,http://www.rugby.gov.uk,-1.22173200000000,CV23 0DN,2013-12-02,fhrs_3_en-GB,3,,FHRS,10
339787,St Andrews Benn C Of E Primary School,Chester Street,Rugby,Warwickshire,St. Andrew's Benn Ce Primary S,School/college/university,7845,0,,210209,5,,52.37981600000000,159,319,FS@rugby.gov.uk,Rugby,http://www.rugby.gov.uk,-1.26389900000000,CV21 2NX,2013-10-07,fhrs_5_en-GB,5,,FHRS,5
339788,,Church Road,Ryton-On-Dunsmore,Warwickshire,St. Leonards Centre,Other catering premises,7841,5,,210064,5,,52.36931400000000,53225,319,FS@rugby.gov.uk,Rugby,http://www.rugby.gov.uk,-1.43530000000000,CV8 3ET,2012-07-03,fhrs_5_en-GB,5,,FHRS,5
339789,Stag And Pheasant,School Street,Hillmorton,"Rugby, Warwickshire",Stag & Pheasant,Pub/bar/nightclub,7843,5,,210179,5,,52.36119000000000,370,319,FS@rugby.gov.uk,Rugby,http://www.rugby.gov.uk,-1.21662900000000,CV21 4BW,2014-10-01,fhrs_4_en-GB,4,,FHRS,10
339790,,Barnaby Road,Rugby,Warwickshire,Steam Turbine,Restaurant/Cafe/Canteen,1,5,,682522,5,,,56350,319,FS@rugby.gov.uk,Rugby,http://www.rugby.gov.uk,,CV21 1GB,2014-06-27,fhrs_5_en-GB,5,,FHRS,5
339791,,,,,Steve's Steak Bar (Somers Road),Mobile caterer,7846,10,,210562,5,,,1381,319,FS@rugby.gov.uk,Rugby,http://www.rugby.gov.uk,,,2013-09-26,fhrs_4_en-GB,4,,FHRS,5
339792,,2 Manning Walk,Rugby,Warwickshire,Sticky Fingers,Retailers - other,4613,5,,209905,5,,52.37353900000000,1538,319,FS@rugby.gov.uk,Rugby,http://www.rugby.gov.uk,-1.26363600000000,CV21 2JT,2014-12-08,fhrs_5_en-GB,5,,FHRS,5
339793,,,,,Sticky Fingers Cake Creations,Other catering premises,7841,5,,209964,5,,,45825,319,FS@rugby.gov.uk,Rugby,http://www.rugby.gov.uk,,,2015-01-07,fhrs_5_en-GB,5,,FHRS,5
339794,,350 London Road,Dunsmore Heath,Stretton-On-Dunsmore,Stretton Service Station,Retailers - other,4613,5,,210628,5,,52.35439600000000,2050,319,FS@rugby.gov.uk,Rugby,http://www.rugby.gov.uk,-1.38266200000000,CV23 9HX,2014-11-07,fhrs_5_en-GB,5,,FHRS,5
339795,,8 Northway,Rugby,Warwickshire,Subway,Restaurant/Cafe/Canteen,1,5,,210686,5,,52.37380700000000,1682,319,FS@rugby.gov.uk,Rugby,http://www.rugby.gov.uk,-1.26338200000000,CV21 2JS,2014-02-17,fhrs_5_en-GB,5,,FHRS,5
339796,,Bryant Road,Central Park Drive,Rugby,Subway,Takeaway/sandwich shop,7844,5,,209957,5,,52.40188900000000,53394,319,FS@rugby.gov.uk,Rugby,http://www.rugby.gov.uk,-1.24435000000000,CV23 0WE,2013-06-26,fhrs_5_en-GB,5,,FHRS,5
339797,,13 Clifton Road,Rugby,Warwickshire,Subway,Takeaway/sandwich shop,7844,5,,210320,5,,52.37223700000000,2391,319,FS@rugby.gov.uk,Rugby,http://www.rugby.gov.uk,-1.25668000000000,CV21 3PY,2013-10-02,fhrs_5_en-GB,5,,FHRS,5
339798,"Unit A, Junction One",Leicester Road,Rugby,Warwickshire,Subway,Takeaway/sandwich shop,7844,0,,579584,5,,52.38523400000000,56627,319,FS@rugby.gov.uk,Rugby,http://www.rugby.gov.uk,-1.25919500000000,CV21 1RW,2014-01-21,fhrs_5_en-GB,5,,FHRS,5
339799,Sue Ryder Care,25 Clifton Road,Rugby,Warwickshire,Sue Ryder,Retailers - other,4613,,,210262,,,52.37223700000000,34990,319,FS@rugby.gov.uk,Rugby,http://www.rugby.gov.uk,-1.25668000000000,CV21 3PY,2014-04-08,fhrs_exempt_en-GB,Exempt,,FHRS,
339800,,27 High Street,Rugby,Warwickshire,Summersault,Restaurant/Cafe/Canteen,1,0,,210731,0,,52.37135900000000,213,319,FS@rugby.gov.uk,Rugby,http://www.rugby.gov.uk,-1.26299600000000,CV21 3BW,2014-03-10,fhrs_5_en-GB,5,,FHRS,0
339801,,3 Bagshaw Close,Ryton-On-Dunsmore,Warwickshire,Summies House,Takeaway/sandwich shop,7844,5,,210287,5,,52.36630400000000,1564,319,FS@rugby.gov.uk,Rugby,http://www.rugby.gov.uk,-1.43765900000000,CV8 3EX,2013-08-23,fhrs_5_en-GB,5,,FHRS,5
339802,,94 Bridget Street,New Bilton,"Rugby, Warwickshire",Sun Shing,Takeaway/sandwich shop,7844,5,,210324,10,,52.37446000000000,145,319,FS@rugby.gov.uk,Rugby,http://www.rugby.gov.uk,-1.27299200000000,CV21 2BU,2014-03-25,fhrs_3_en-GB,3,,FHRS,10
339803,,104 Cambridge Street,Rugby,Warwickshire,Sun Street Stores,Retailers - other,4613,10,,401943,5,,52.37545900000000,151,319,FS@rugby.gov.uk,Rugby,http://www.rugby.gov.uk,-1.24734300000000,CV21 3NJ,2014-07-15,fhrs_4_en-GB,4,,FHRS,5
339804,,67B Overslade Lane,Rugby,Warwickshire,Super Wok,Takeaway/sandwich shop,7844,10,,209971,10,,52.35905300000000,647,319,FS@rugby.gov.uk,Rugby,http://www.rugby.gov.uk,-1.27784100000000,CV22 6ED,2012-12-04,fhrs_3_en-GB,3,,FHRS,10
339805,B & B,2 Manning Walk,Rugby,Warwickshire,Superdrug Stores plc,Retailers - other,4613,5,,209877,5,,52.37353900000000,1024,319,FS@rugby.gov.uk,Rugby,http://www.rugby.gov.uk,-1.26363600000000,CV21 2JT,2015-01-08,fhrs_5_en-GB,5,,FHRS,5
339806,,,,,Suspiro Homemade Patisserie,Manufacturers/packers,7839,5,,638717,5,,,57030,319,FS@rugby.gov.uk,Rugby,http://www.rugby.gov.uk,,,2014-01-31,fhrs_5_en-GB,5,,FHRS,5
339807,,291 Hillmorton Road,Hillmorton,Rugby,Sweet and Scrumptious Candy Carts,Mobile caterer,7846,,,728904,,,52.36163600000000,57882,319,FS@rugby.gov.uk,Rugby,http://www.rugby.gov.uk,-1.23117400000000,CV22 5BN,,fhrs_awaitinginspection_en-GB,AwaitingInspection,,FHRS,
339808,,22 Church Street,Rugby,Warwickshire,Taste Bite,Mobile caterer,7846,10,,210738,10,,52.37241900000000,1573,319,FS@rugby.gov.uk,Rugby,http://www.rugby.gov.uk,-1.25855800000000,CV21 3PU,2013-03-15,fhrs_3_en-GB,3,,FHRS,10
339809,,,,,Tastebuds,Other catering premises,7841,5,,210183,5,,,53761,319,FS@rugby.gov.uk,Rugby,http://www.rugby.gov.uk,,,2014-04-08,fhrs_5_en-GB,5,,FHRS,5
339810,,21-23 Moultrie Road,Rugby,Warwickshire,Te Hira Care Home,Hospitals/Childcare/Caring Premises,5,5,,209883,5,,52.37101500000000,316,319,FS@rugby.gov.uk,Rugby,http://www.rugby.gov.uk,-1.25689200000000,CV21 3BD,2014-05-30,fhrs_5_en-GB,5,,FHRS,5
339811,"Temple Farm, Temple Hill",Hinckley Road,Watling Street,"Wolvey, Warwickshire",Temple Farm Bed & Breakfast,Hotel/bed & breakfast/guest house,7842,5,,210082,5,,52.49231000000000,31415,319,FS@rugby.gov.uk,Rugby,http://www.rugby.gov.uk,-1.36818600000000,LE10 3HY,2015-01-08,fhrs_4_en-GB,4,,FHRS,10
339812,,132 Hollowell Way,Brownsover,Rugby,Tesco,Retailers - supermarkets/hypermarkets,7840,0,,370971,5,,52.39044700000000,256,319,FS@rugby.gov.uk,Rugby,http://www.rugby.gov.uk,-1.24470700000000,CV21 1LT,2014-01-22,fhrs_5_en-GB,5,,FHRS,5
339813,Tesco Stores Ltd,Redpoll Road,Rugby,Warwickshire,Tesco Express,Retailers - supermarkets/hypermarkets,7840,5,,210253,10,,52.37851700000000,54988,319,FS@rugby.gov.uk,Rugby,http://www.rugby.gov.uk,-1.25184500000000,CV213AL,2013-12-17,fhrs_4_en-GB,4,,FHRS,5
339814,,1 Leicester Road,Rugby,Warwickshire,Tesco Store/Garage,Retailers - supermarkets/hypermarkets,7840,0,,210746,5,,52.38782200000000,283,319,FS@rugby.gov.uk,Rugby,http://www.rugby.gov.uk,-1.25608100000000,CV21 1RG,2013-12-10,fhrs_5_en-GB,5,,FHRS,5
339815,,18 Main Street,Bilton,"Rugby, Warwickshire",Tesco Stores Ltd,Retailers - supermarkets/hypermarkets,7840,0,,210301,5,,52.35898000000000,828,319,FS@rugby.gov.uk,Rugby,http://www.rugby.gov.uk,-1.29408300000000,CV22 7ND,2014-09-05,fhrs_5_en-GB,5,,FHRS,5
339816,,21 Sheep Street,Rugby,Warwickshire,Thai Orchid Restaurant,Restaurant/Cafe/Canteen,1,5,,210696,10,,52.37153900000000,43538,319,FS@rugby.gov.uk,Rugby,http://www.rugby.gov.uk,-1.26305200000000,CV21 3BU,2014-07-25,fhrs_3_en-GB,3,,FHRS,10
339817,,68-70 Somers Road,New Bilton,"Rugby, Warwickshire",The Adventure Zone Soft Play Ltd,Restaurant/Cafe/Canteen,1,0,,210754,5,,52.37142400000000,45229,319,FS@rugby.gov.uk,Rugby,http://www.rugby.gov.uk,-1.28834700000000,CV22 7DH,2013-07-17,fhrs_5_en-GB,5,,FHRS,5
339818,Avon Valley School,Newbold Road,Rugby,Warwickshire,The Avon Valley School & Performing Arts College,School/college/university,7845,5,,209995,5,,52.38696900000000,328,319,FS@rugby.gov.uk,Rugby,http://www.rugby.gov.uk,-1.27653400000000,CV21 1EH,2014-01-10,fhrs_5_en-GB,5,,FHRS,0
339819,,12 Bank Street,Rugby,Warwickshire,The Bank,Pub/bar/nightclub,7843,5,,210099,5,,52.37347300000000,1339,319,FS@rugby.gov.uk,Rugby,http://www.rugby.gov.uk,-1.26024400000000,CV21 2QE,2014-03-22,fhrs_5_en-GB,5,,FHRS,5
339820,The Bear,Bilton Lane,Bilton,"Rugby, Warwickshire",The Bear,Pub/bar/nightclub,7843,5,,209931,5,,52.37035100000000,1000,319,FS@rugby.gov.uk,Rugby,http://www.rugby.gov.uk,-1.30127500000000,CV23 9DU,2014-05-20,fhrs_4_en-GB,4,,FHRS,10
339821,Galliford Uk Ltd Building A,Leicester Road,Wolvey,Warwickshire,The Bistro,Restaurant/Cafe/Canteen,1,5,,210398,5,,52.49037800000000,1586,319,FS@rugby.gov.uk,Rugby,http://www.rugby.gov.uk,-1.36487000000000,LE10 3JF,2013-08-06,fhrs_5_en-GB,5,,FHRS,5
339822,,43 The Green,Bilton,"Rugby, Warwickshire",The Black Horse Inn,Pub/bar/nightclub,7843,20,,210048,10,,52.35897900000000,391,319,FS@rugby.gov.uk,Rugby,http://www.rugby.gov.uk,-1.29082300000000,CV22 7LZ,2014-07-29,fhrs_1_en-GB,1,,FHRS,10
339823,Cawston Grange Primary School,Scholars Drive,Cawston,"Rugby, Warwickshire",The Blue Strawberry KIds Daycare,Hospitals/Childcare/Caring Premises,5,5,,209956,0,,52.36073200000000,1635,319,FS@rugby.gov.uk,Rugby,http://www.rugby.gov.uk,-1.30289500000000,CV22 7GU,2013-12-09,fhrs_5_en-GB,5,,FHRS,0
339824,Bradby Boys Club,Union Street,Rugby,Warwickshire,The Bradby Club,Pub/bar/nightclub,7843,5,,210302,5,,52.36893500000000,951,319,FS@rugby.gov.uk,Rugby,http://www.rugby.gov.uk,-1.26635600000000,CV22 6AN,2012-10-02,fhrs_4_en-GB,4,,FHRS,10
339825,,35A Southam Road,Dunchurch,Warwickshire,The Cake Gallery,Retailers - other,4613,,,210521,,,52.33635300000000,976,319,FS@rugby.gov.uk,Rugby,http://www.rugby.gov.uk,-1.29125800000000,CV22 6NL,2014-04-08,fhrs_exempt_en-GB,Exempt,,FHRS,
339826,,5 Ditton Close,Bilton,Rugby,The Cake Lady,Farmers/growers,7838,5,,607260,5,,52.36405400000000,56804,319,FS@rugby.gov.uk,Rugby,http://www.rugby.gov.uk,-1.29159400000000,CV22 7LG,2013-10-21,fhrs_5_en-GB,5,,FHRS,5
339827,Hillmorton Wharf,Crick Road,Hillmorton,Rugby,The Canal Shop,Retailers - other,4613,20,,445086,15,,52.35564500000000,36999,319,FS@rugby.gov.uk,Rugby,http://www.rugby.gov.uk,-1.20091300000000,CV21 4PW,2014-12-08,fhrs_1_en-GB,1,,FHRS,10
339828,,20 Market Place,Rugby,Warwickshire,The Card Factory,Retailers - other,4613,,,292014,,,52.37241800000000,43754,319,FS@rugby.gov.uk,Rugby,http://www.rugby.gov.uk,-1.26268500000000,CV21 3DU,2012-05-09,fhrs_exempt_en-GB,Exempt,,FHRS,
339829,,,,,The Celestial Cupcake Company,Other catering premises,7841,5,,210379,5,,,11704,319,FS@rugby.gov.uk,Rugby,http://www.rugby.gov.uk,,,2013-07-25,fhrs_5_en-GB,5,,FHRS,5
339830,,74 Lower Street,Hillmorton,"Rugby, Warwickshire",The Chef's Kitchen (UK) Ltd,Other catering premises,7841,5,,209892,0,,52.36057100000000,1222,319,FS@rugby.gov.uk,Rugby,http://www.rugby.gov.uk,-1.21147100000000,CV21 4NU,2013-07-18,fhrs_5_en-GB,5,,FHRS,0
339831,Chopping Block,Flecknoe Road,Flecknoe,"Rugby, Warwickshire",The Chopping Block,Other catering premises,7841,5,,209944,5,,52.26559800000000,1443,319,FS@rugby.gov.uk,Rugby,http://www.rugby.gov.uk,-1.24474900000000,CV23 8AU,2013-09-26,fhrs_5_en-GB,5,,FHRS,5
339832,Mill Road Stores,Mill Road,Rugby,Warwickshire,The Concierge,Retailers - other,4613,20,,210112,10,,52.38230900000000,2213,319,FS@rugby.gov.uk,Rugby,http://www.rugby.gov.uk,-1.24872500000000,CV21 1BB,2014-10-15,fhrs_1_en-GB,1,,FHRS,15
339833,Toft House Farm Cottage,Southam Road,Toft,"Dunchurch, Warwickshire",The Courtyard,Hotel/bed & breakfast/guest house,7842,5,,210181,5,,52.33255000000000,2081,319,FS@rugby.gov.uk,Rugby,http://www.rugby.gov.uk,-1.29877400000000,CV22 6NR,2014-10-07,fhrs_5_en-GB,5,,FHRS,5
339834,The Crow Pie,192 Bilton Road,Bilton,Rugby,The Crow Pie,Pub/bar/nightclub,7843,10,,210733,5,,52.36491200000000,1883,319,FS@rugby.gov.uk,Rugby,http://www.rugby.gov.uk,-1.28479500000000,CV22 7DX,2013-01-02,fhrs_4_en-GB,4,,FHRS,5
339835,The Dun Cow,The Green,Dunchurch,Warwickshire,The Dun Cow,Pub/bar/nightclub,7843,5,,209935,5,,52.33757200000000,1045,319,FS@rugby.gov.uk,Rugby,http://www.rugby.gov.uk,-1.29068100000000,CV22 6NJ,2013-01-10,fhrs_5_en-GB,5,,FHRS,5
339836,The Elms Residential Home,5 Main Street,Clifton Upon Dunsmore,Warwickshire,The Elms Residential Home,Hospitals/Childcare/Caring Premises,5,5,,210299,5,,52.38257000000000,446,319,FS@rugby.gov.uk,Rugby,http://www.rugby.gov.uk,-1.22226000000000,CV23 0BH,2014-07-04,fhrs_5_en-GB,5,,FHRS,5
339837,,21-23 Lower Hillmorton Road,Rugby,Warwickshire,The Famous Mr Chips,Takeaway/sandwich shop,7844,10,,210682,5,,52.37090000000000,290,319,FS@rugby.gov.uk,Rugby,http://www.rugby.gov.uk,-1.25150300000000,CV21 3ST,2014-03-28,fhrs_4_en-GB,4,,FHRS,5
339838,Friendly Inn,Main Street,Frankton,Warwickshire,The Friendly Inn,Pub/bar/nightclub,7843,5,,210523,10,,52.32950500000000,468,319,FS@rugby.gov.uk,Rugby,http://www.rugby.gov.uk,-1.37631800000000,CV23 9NY,2013-12-31,fhrs_4_en-GB,4,,FHRS,5
339839,,2 The Green,Bilton,"Rugby, Warwickshire",The George Inn,Pub/bar/nightclub,7843,5,,210510,10,,52.35944100000000,384,319,FS@rugby.gov.uk,Rugby,http://www.rugby.gov.uk,-1.29143300000000,CV22 7LY,2013-07-31,fhrs_3_en-GB,3,,FHRS,10
339840,Grange Bowling & Sports Club,Stanley Road,Rugby,Warwickshire,The Grange Social Club,Pub/bar/nightclub,7843,5,,210224,5,,52.36428500000000,382,319,FS@rugby.gov.uk,Rugby,http://www.rugby.gov.uk,-1.23488800000000,CV21 3UE,2013-10-22,fhrs_5_en-GB,5,,FHRS,5
339841,,14 Daventry Road,Dunchurch,Warwickshire,The Green Man,Pub/bar/nightclub,7843,10,,210065,10,,52.33614400000000,459,319,FS@rugby.gov.uk,Rugby,http://www.rugby.gov.uk,-1.28800400000000,CV22 6NS,2014-09-23,fhrs_2_en-GB,2,,FHRS,15
339842,,1 Kingsway,Rugby,Warwickshire,The Griffin,Pub/bar/nightclub,7843,5,,209939,5,,52.36248900000000,270,319,FS@rugby.gov.uk,Rugby,http://www.rugby.gov.uk,-1.26647800000000,CV22 5NT,2014-03-11,fhrs_5_en-GB,5,,FHRS,5
339843,,81-83 Clifton Road,Rugby,Warwickshire,The Grosvenor Hotel,Restaurant/Cafe/Canteen,1,10,,210530,10,,52.37238800000000,694,319,FS@rugby.gov.uk,Rugby,http://www.rugby.gov.uk,-1.25212400000000,CV21 3QQ,2013-08-16,fhrs_3_en-GB,3,,FHRS,10
339844,Bilton C Of E Middle School,Plantagenet Drive,Bilton,"Rugby, Warwickshire",The Hollies Out of School Club at BJs,School/college/university,7845,5,,209894,5,,52.35170500000000,1378,319,FS@rugby.gov.uk,Rugby,http://www.rugby.gov.uk,-1.28185200000000,CV22 6LB,2014-12-08,fhrs_5_en-GB,5,,FHRS,5
339845,The Holly Bush,Lawford Road,New Bilton,"Rugby, Warwickshire",The Holly Bush,Pub/bar/nightclub,7843,20,,210270,10,,52.37275300000000,280,319,FS@rugby.gov.uk,Rugby,http://www.rugby.gov.uk,-1.27617800000000,CV21 2HR,2013-12-18,fhrs_1_en-GB,1,,FHRS,10
339846,,46 Church Street,Rugby,Warwickshire,The Hope Centre,Other catering premises,7841,0,,210705,5,,52.37260100000000,54541,319,FS@rugby.gov.uk,Rugby,http://www.rugby.gov.uk,-1.26037600000000,CV21 3PT,2013-01-31,fhrs_5_en-GB,5,,FHRS,0
339847,,35 North Street,Rugby,Warwickshire,The House,Pub/bar/nightclub,7843,10,,210108,5,,52.37352000000000,1974,319,FS@rugby.gov.uk,Rugby,http://www.rugby.gov.uk,-1.26215300000000,CV21 2AL,2012-08-22,fhrs_4_en-GB,4,,FHRS,5
339848,,31-32 High Street,Rugby,Warwickshire,The Hub Community Cafe,Takeaway/sandwich shop,7844,0,,552997,5,,52.37135900000000,56424,319,FS@rugby.gov.uk,Rugby,http://www.rugby.gov.uk,-1.26299600000000,CV21 3BW,2013-07-22,fhrs_5_en-GB,5,,FHRS,5
339849,,5 Coventry Road,Wolvey,Warwickshire,The Hungry Tackler ( Five Ways Lakes),Restaurant/Cafe/Canteen,1,5,,210186,10,,52.48402100000000,44097,319,FS@rugby.gov.uk,Rugby,http://www.rugby.gov.uk,-1.36982100000000,LE10 3LD,2013-07-17,fhrs_4_en-GB,4,,FHRS,0
339850,The Huntsman Carvery,The Green,Dunchurch,Warwickshire,The Huntsman Carvery,Restaurant/Cafe/Canteen,1,5,,210016,5,,52.33711400000000,457,319,FS@rugby.gov.uk,Rugby,http://www.rugby.gov.uk,-1.29071800000000,CV22 6NX,2013-09-23,fhrs_5_en-GB,5,,FHRS,5
339851,,343 Clifton Road,Rugby,Warwickshire,The Jolly Brewers,Pub/bar/nightclub,7843,10,,209960,10,,52.37453000000000,183,319,FS@rugby.gov.uk,Rugby,http://www.rugby.gov.uk,-1.24126200000000,CV21 3QZ,2014-09-22,fhrs_3_en-GB,3,,FHRS,10
339852,,13 Main Street,Long Lawford,Warwickshire,The Lawford Arms,Pub/bar/nightclub,7843,5,,210088,5,,52.37951500000000,479,319,FS@rugby.gov.uk,Rugby,http://www.rugby.gov.uk,-1.30794700000000,CV23 9AY,2014-04-08,fhrs_4_en-GB,4,,FHRS,10
339853,,28-29 High Street,Rugby,Warwickshire,The Lawrence Sheriff,Pub/bar/nightclub,7843,0,,210697,5,,52.37135900000000,43554,319,FS@rugby.gov.uk,Rugby,http://www.rugby.gov.uk,-1.26299600000000,CV21 3BW,2014-06-10,fhrs_5_en-GB,5,,FHRS,0
339854,,,,,The Link Cafe,Other catering premises,7841,5,,704942,5,,,57604,319,FS@rugby.gov.uk,Rugby,http://www.rugby.gov.uk,,,2014-09-08,fhrs_5_en-GB,5,,FHRS,5
339855,London House,6 Chapel Street,Rugby,Warwickshire,The London House,Pub/bar/nightclub,7843,10,,210737,10,,52.37270000000000,157,319,FS@rugby.gov.uk,Rugby,http://www.rugby.gov.uk,-1.26315000000000,CV21 3EB,2014-05-13,fhrs_3_en-GB,3,,FHRS,10
339856,Malt Shovel,Church Road,Ryton-On-Dunsmore,Warwickshire,The Malt Shovel,Pub/bar/nightclub,7843,5,,210070,10,,52.36931400000000,501,319,FS@rugby.gov.uk,Rugby,http://www.rugby.gov.uk,-1.43530000000000,CV8 3ET,2014-04-08,fhrs_3_en-GB,3,,FHRS,10
339857,,5A Little Church Street,Rugby,Warwickshire,The Merchants Inn,Pub/bar/nightclub,7843,0,,210235,5,,52.37137500000000,285,319,FS@rugby.gov.uk,Rugby,http://www.rugby.gov.uk,-1.26124800000000,CV21 3AN,2013-07-18,fhrs_5_en-GB,5,,FHRS,0
339858,St John the Baptist Church,Church Hill,Wolvey,Warwickshire,The Millenium Building,Other catering premises,7841,10,,210567,0,,52.48747634887695,1592,319,FS@rugby.gov.uk,Rugby,http://www.rugby.gov.uk,-1.36894690990448,LE10 3LB,2014-06-09,fhrs_4_en-GB,4,,FHRS,0
339859,,2 Main Street,Newbold,"Rugby, Warwickshire",The Newbold Crown,Pub/bar/nightclub,7843,10,,210002,10,,52.39111700000000,299,319,FS@rugby.gov.uk,Rugby,http://www.rugby.gov.uk,-1.28299000000000,CV21 1HW,2014-02-18,fhrs_3_en-GB,3,,FHRS,10
339860,,66 Lower Street,Hillmorton,"Rugby, Warwickshire",The Newsagent,Retailers - other,4613,10,,210495,10,,52.36057100000000,294,319,FS@rugby.gov.uk,Rugby,http://www.rugby.gov.uk,-1.21147100000000,CV21 4NU,2014-09-22,fhrs_3_en-GB,3,,FHRS,10
339861,The Nook,The Square,Dunchurch,Warwickshire,The Nook,Restaurant/Cafe/Canteen,1,5,,656763,5,,52.33718600000000,57196,319,FS@rugby.gov.uk,Rugby,http://www.rugby.gov.uk,-1.28922000000000,CV22 6NU,2014-04-10,fhrs_4_en-GB,4,,FHRS,10
339862,The Old Lion,Pailton Road,Harborough Magna,Warwickshire,The Old Lion by The Caterers Ltd,Pub/bar/nightclub,7843,0,,210351,0,,52.40990100000000,473,319,FS@rugby.gov.uk,Rugby,http://www.rugby.gov.uk,-1.29853400000000,CV23 0HQ,2014-03-25,fhrs_5_en-GB,5,,FHRS,5
339863,The Old Olive Bush,Flecknoe Village Road,Flecknoe,Warwickshire,The Old Olive Bush,Pub/bar/nightclub,7843,5,,210242,5,,52.26708700000000,469,319,FS@rugby.gov.uk,Rugby,http://www.rugby.gov.uk,-1.24561700000000,CV23 8AT,2014-03-22,fhrs_5_en-GB,5,,FHRS,5
339864,Old Royal Oak,Crick Road,Hillmorton,"Rugby, Warwickshire",The Old Royal Oak,Pub/bar/nightclub,7843,0,,210506,5,,52.35564500000000,186,319,FS@rugby.gov.uk,Rugby,http://www.rugby.gov.uk,-1.20091300000000,CV21 4PW,2014-01-15,fhrs_5_en-GB,5,,FHRS,5
339865,Old Smithy,Green Lane,Church Lawford,Warwickshire,The Old Smithy,Pub/bar/nightclub,7843,5,,210519,10,,52.38344800000000,440,319,FS@rugby.gov.uk,Rugby,http://www.rugby.gov.uk,-1.34006200000000,CV23 9EF,2014-02-11,fhrs_4_en-GB,4,,FHRS,5
339866,Caldecott Park,Park Road,Rugby,Warwickshire,The Old Toolshed,Restaurant/Cafe/Canteen,1,5,,210713,5,,52.37726900000000,54233,319,FS@rugby.gov.uk,Rugby,http://www.rugby.gov.uk,-1.26068000000000,CV21 2QL,2013-10-09,fhrs_5_en-GB,5,,FHRS,5
339867,The Paddox,360 Hillmorton Road,Hillmorton,Rugby,The Paddox,Pub/bar/nightclub,7843,5,,210132,10,,52.35901400000000,252,319,FS@rugby.gov.uk,Rugby,http://www.rugby.gov.uk,-1.22895800000000,CV22 5EY,2014-07-24,fhrs_3_en-GB,3,,FHRS,10
339868,,59-61 High Street,Hillmorton,"Rugby, Warwickshire",The Paper Shop,Retailers - other,4613,10,,210564,5,,52.35866800000000,218,319,FS@rugby.gov.uk,Rugby,http://www.rugby.gov.uk,-1.22011000000000,CV21 4EG,2013-01-02,fhrs_4_en-GB,4,,FHRS,0
339869,The Pheasant,Main Street,Withybrook,Warwickshire,The Pheasant,Pub/bar/nightclub,7843,0,,210090,0,,52.45363500000000,527,319,FS@rugby.gov.uk,Rugby,http://www.rugby.gov.uk,-1.36142500000000,CV7 9LT,2013-09-05,fhrs_5_en-GB,5,,FHRS,5
339870,,6 North Street,Rugby,Warwickshire,The Pizza Shop,Restaurant/Cafe/Canteen,1,20,,591442,10,,52.37349700000000,22003,319,FS@rugby.gov.uk,Rugby,http://www.rugby.gov.uk,-1.26277000000000,CV21 2AB,2014-02-20,fhrs_1_en-GB,1,,FHRS,10
339871,The Queen's Diamond  Jubilee Centre,Bruce Williams Way,Rugby,Warwickshire,The Queen's Diamond Jubilee Centre,Restaurant/Cafe/Canteen,1,5,,210397,5,,52.36601200000000,392,319,FS@rugby.gov.uk,Rugby,http://www.rugby.gov.uk,-1.25477300000000,CV22 5LJ,2013-12-16,fhrs_5_en-GB,5,,FHRS,5
339872,Railway Children,The Crescent,Brinklow,Warwickshire,The Railway Children Brinklow,Hospitals/Childcare/Caring Premises,5,5,,210165,5,,52.41330700000000,1464,319,FS@rugby.gov.uk,Rugby,http://www.rugby.gov.uk,-1.35852300000000,CV23 0LR,2014-12-11,fhrs_4_en-GB,4,,FHRS,10
339873,Junction One,Leicester Road,Rugby,Warwickshire,The Range,Retailers - other,4613,5,,482775,0,,52.38523400000000,44794,319,FS@rugby.gov.uk,Rugby,http://www.rugby.gov.uk,-1.25919500000000,CV21 1RW,2013-02-07,fhrs_5_en-GB,5,,FHRS,0
339874,Raven Inn,68 Broad Street,Brinklow,Warwickshire,The Raven Inn Limited,Pub/bar/nightclub,7843,10,,210698,10,,52.41081400000000,437,319,FS@rugby.gov.uk,Rugby,http://www.rugby.gov.uk,-1.36130900000000,CV23 0LN,2014-05-14,fhrs_3_en-GB,3,,FHRS,5
339875,,236 Dunchurch Road,Bilton,"Rugby, Warwickshire",The Red House,Hospitals/Childcare/Caring Premises,5,5,,210637,5,,52.35612700000000,262,319,FS@rugby.gov.uk,Rugby,http://www.rugby.gov.uk,-1.27129600000000,CV22 6HS,2014-08-01,fhrs_5_en-GB,5,,FHRS,5
339876,The Revel C Of E Middle School,Brockhurst Lane,Monks Kirby,Warwickshire,The Revel Ce Primary School,School/college/university,7845,0,,210409,5,,52.44442300000000,490,319,FS@rugby.gov.uk,Rugby,http://www.rugby.gov.uk,-1.31390500000000,CV23 0RA,2013-09-04,fhrs_5_en-GB,5,,FHRS,5
339877,Rose Inn,Main Street,Willoughby,Warwickshire,The Rose Inn,Pub/bar/nightclub,7843,5,,210423,0,,52.30174900000000,523,319,FS@rugby.gov.uk,Rugby,http://www.rugby.gov.uk,-1.23787200000000,CV23 8BH,2014-01-21,fhrs_5_en-GB,5,,FHRS,5
339878,,28 Regent Street,Rugby,Warwickshire,The Rose Tearooms,Restaurant/Cafe/Canteen,1,5,,210252,5,,52.37454200000000,678,319,FS@rugby.gov.uk,Rugby,http://www.rugby.gov.uk,-1.26022600000000,CV21 2PS,2013-07-09,fhrs_5_en-GB,5,,FHRS,5
339879,The Royal Oak,233 Lawford Road,New Bilton,Rugby,The Royal Oak,Pub/bar/nightclub,7843,0,,209947,0,,52.37493400000000,279,319,FS@rugby.gov.uk,Rugby,http://www.rugby.gov.uk,-1.28140200000000,CV21 2JG,2013-04-17,fhrs_5_en-GB,5,,FHRS,0
339880,Three Horseshoes Hotel,Sheep Street,Rugby,Warwickshire,The Rugby Hotel,Restaurant/Cafe/Canteen,1,10,,210587,10,,52.37174000000000,375,319,FS@rugby.gov.uk,Rugby,http://www.rugby.gov.uk,-1.26347500000000,CV21 3BX,2013-09-25,fhrs_3_en-GB,3,,FHRS,10
339881,,3 St. Matthews Street,Rugby,Warwickshire,The Rugby Tap,Retailers - other,4613,5,,401942,5,,52.37128800000000,1108,319,FS@rugby.gov.uk,Rugby,http://www.rugby.gov.uk,-1.26456900000000,CV21 3BY,2012-07-31,fhrs_4_en-GB,4,,FHRS,10
339882,,8-10 Castle Street,Rugby,Warwickshire,The Rupert Brooke,Pub/bar/nightclub,7843,5,,210561,5,,52.37319700000000,1432,319,FS@rugby.gov.uk,Rugby,http://www.rugby.gov.uk,-1.25927900000000,CV21 2TP,2013-01-07,fhrs_5_en-GB,5,,FHRS,5
339883,The Old Watling Inn,Main Street,Willey,Warwickshire,The Sarah Mansfield,Pub/bar/nightclub,7843,5,,210360,5,,52.45849200000000,521,319,FS@rugby.gov.uk,Rugby,http://www.rugby.gov.uk,-1.27168300000000,CV23 0SH,2013-07-02,fhrs_4_en-GB,4,,FHRS,10
339884,Shilton Arms,5 Church Road,Shilton,Warwickshire,The Shilton Arms,Pub/bar/nightclub,7843,5,,210084,5,,52.45475700000000,509,319,FS@rugby.gov.uk,Rugby,http://www.rugby.gov.uk,-1.40783800000000,CV7 9HX,2013-03-08,fhrs_5_en-GB,5,,FHRS,5
339885,The Sparrow,Combe Fields Road,Combe Fields,Warwickshire,The Sparrow (Brewers Fayre),Pub/bar/nightclub,7843,0,,210058,0,,52.43323000000000,563,319,FS@rugby.gov.uk,Rugby,http://www.rugby.gov.uk,-1.39799200000000,CV7 9JP,2013-07-17,fhrs_5_en-GB,5,,FHRS,5
339886,The Sports Connection,Leamington Road,Ryton-On-Dunsmore,Warwickshire,The Sports Connexion,Restaurant/Cafe/Canteen,1,5,,210083,5,,52.36235300000000,506,319,FS@rugby.gov.uk,Rugby,http://www.rugby.gov.uk,-1.43303900000000,CV8 3FL,2014-09-24,fhrs_5_en-GB,5,,FHRS,5
339887,Stag & Pheasant,27 Main Street,Newton,Warwickshire,The Stag And Pheasant,Pub/bar/nightclub,7843,20,,210465,10,,52.39876000000000,492,319,FS@rugby.gov.uk,Rugby,http://www.rugby.gov.uk,-1.22065300000000,CV23 0DY,2014-10-17,fhrs_1_en-GB,1,,FHRS,10
339888,,23 Regent Street,Rugby,Warwickshire,The Stottie Shop,Takeaway/sandwich shop,7844,10,,209972,10,,52.37372100000000,648,319,FS@rugby.gov.uk,Rugby,http://www.rugby.gov.uk,-1.26122400000000,CV21 2PE,2014-04-16,fhrs_3_en-GB,3,,FHRS,10
339889,,,,,The Tasty Hog,Mobile caterer,7846,5,,210069,5,,,49725,319,FS@rugby.gov.uk,Rugby,http://www.rugby.gov.uk,,,2013-06-25,fhrs_5_en-GB,5,,FHRS,5
339890,Toft Manor,Southam Road,Toft,"Dunchurch, Warwickshire",The Toft Alpaca Shop,Other catering premises,7841,5,,432942,0,,52.33255000000000,47675,319,FS@rugby.gov.uk,Rugby,http://www.rugby.gov.uk,-1.29877400000000,CV22 6NR,2014-02-18,fhrs_5_en-GB,5,,FHRS,0
339891,Warwickshire Nursing Home,Main Street,Thurlaston,Warwickshire,The Warwickshire Nursing Home,Hospitals/Childcare/Caring Premises,5,5,,210359,5,,52.33537500000000,520,319,FS@rugby.gov.uk,Rugby,http://www.rugby.gov.uk,-1.31456500000000,CV23 9JS,2014-08-19,fhrs_5_en-GB,5,,FHRS,5
339892,,123 Railway Terrace,Rugby,Warwickshire,The Wheeltappers Public House,Pub/bar/nightclub,7843,0,,210674,5,,52.37565800000000,363,319,FS@rugby.gov.uk,Rugby,http://www.rugby.gov.uk,-1.25603500000000,CV21 3EY,2014-02-19,fhrs_5_en-GB,5,,FHRS,5
339893,Long View,Vicarage Road,Flecknoe,Warwickshire,The White Cake Company,Manufacturers/packers,7839,5,,638720,5,,52.26772400000000,57033,319,FS@rugby.gov.uk,Rugby,http://www.rugby.gov.uk,-1.24971000000000,CV23 8AY,2014-04-22,fhrs_5_en-GB,5,,FHRS,0
339894,St Andrews Church House,Church Street,Rugby,Warwickshire,The Wholefood Shop,Retailers - other,4613,20,,210662,5,,52.37260100000000,1004,319,FS@rugby.gov.uk,Rugby,http://www.rugby.gov.uk,-1.26037600000000,CV21 3PT,2013-09-27,fhrs_1_en-GB,1,,FHRS,5
339895,,,,,Thistle Farm Catering & Food Mobile,Other catering premises,7841,5,,210289,5,,,53762,319,FS@rugby.gov.uk,Rugby,http://www.rugby.gov.uk,,,2013-06-03,fhrs_5_en-GB,5,,FHRS,5
339896,,14 Market Mall,Rugby,Warwickshire,Thorntons,Retailers - other,4613,0,,210046,5,,52.37301500000000,307,319,FS@rugby.gov.uk,Rugby,http://www.rugby.gov.uk,-1.26326300000000,CV21 2JR,2014-05-22,fhrs_5_en-GB,5,,FHRS,5
339897,Three Horse Shoes,Hightown,Princethorpe,"Rugby, Warwickshire",Three Horse Shoes,Pub/bar/nightclub,7843,0,,209965,5,,52.33345900000000,496,319,FS@rugby.gov.uk,Rugby,http://www.rugby.gov.uk,-1.41111600000000,CV23 9PR,2013-09-25,fhrs_5_en-GB,5,,FHRS,5
339898,,65 Church Street,Rugby,Warwickshire,Titash Indian & Bangladeshi Cuisine Ltd,Restaurant/Cafe/Canteen,1,5,,210155,5,,52.37260100000000,1127,319,FS@rugby.gov.uk,Rugby,http://www.rugby.gov.uk,-1.26037600000000,CV21 3PT,2013-12-06,fhrs_5_en-GB,5,,FHRS,5
339899,,,,,TK Catering,Mobile caterer,7846,5,,210419,5,,,43525,319,FS@rugby.gov.uk,Rugby,http://www.rugby.gov.uk,,,2013-12-09,fhrs_5_en-GB,5,,FHRS,5
339900,Elliots Field Retail Park,Leicester Road,Rugby,Warwickshire,TK Maxx,Retailers - other,4613,,,210404,,,52.38867400000000,1563,319,FS@rugby.gov.uk,Rugby,http://www.rugby.gov.uk,-1.25869700000000,CV21 1SR,2014-12-08,fhrs_exempt_en-GB,Exempt,,FHRS,
339901,"Volvo Truck And Bus Ltd, Swift Park",Old Leicester Road,Brownsover,Rugby,TnS Catering Management Limited,Restaurant/Cafe/Canteen,1,0,,568475,5,,52.39171300000000,56529,319,FS@rugby.gov.uk,Rugby,http://www.rugby.gov.uk,-1.25870500000000,CV21 1DZ,2014-03-17,fhrs_5_en-GB,5,,FHRS,5
339902,,,,,Top Notch,Mobile caterer,7846,5,,210372,5,,,55081,319,FS@rugby.gov.uk,Rugby,http://www.rugby.gov.uk,,,2013-07-05,fhrs_5_en-GB,5,,FHRS,5
339903,,12 Henry Street,Rugby,Warwickshire,Town & County Club,Pub/bar/nightclub,7843,5,,210278,5,,52.37393700000000,211,319,FS@rugby.gov.uk,Rugby,http://www.rugby.gov.uk,-1.25967800000000,CV21 2QA,2014-05-22,fhrs_4_en-GB,4,,FHRS,10
339904,Rugby Station,Railway Terrace,Rugby,Warwickshire,Travelines,Other catering premises,7841,5,,210592,5,,52.37893900000000,53798,319,FS@rugby.gov.uk,Rugby,http://www.rugby.gov.uk,-1.24894300000000,CV21 3LA,2013-12-17,fhrs_5_en-GB,5,,FHRS,5
339905,,Redpoll Road,Rugby,Warwickshire,Travelodge Rugby Central,Hotel/bed & breakfast/guest house,7842,0,,210706,0,,52.37851700000000,54835,319,FS@rugby.gov.uk,Rugby,http://www.rugby.gov.uk,-1.25184500000000,CV21 3AL,2014-05-09,fhrs_5_en-GB,5,,FHRS,0
339906,,40 Hillmorton Road,Rugby,Warwickshire,United Reformed Church,Other catering premises,7841,5,,209998,5,,52.36851300000000,235,319,FS@rugby.gov.uk,Rugby,http://www.rugby.gov.uk,-1.25211600000000,CV22 5AD,2013-12-05,fhrs_5_en-GB,5,,FHRS,5
339907,,,,,Utterly Scrumptious Cakes,Manufacturers/packers,7839,5,,534112,5,,,14875,319,FS@rugby.gov.uk,Rugby,http://www.rugby.gov.uk,,,2013-03-05,fhrs_5_en-GB,5,,FHRS,5
339908,,,,,V Ashmore,Other catering premises,7841,10,,210329,5,,,30122,319,FS@rugby.gov.uk,Rugby,http://www.rugby.gov.uk,,,2014-04-09,fhrs_4_en-GB,4,,FHRS,5
339909,Rugby Town Football Club,Butlin Road,Rugby,Warwickshire,V.S. Rugby Football Club Limited,Pub/bar/nightclub,7843,5,,210097,5,,52.37398100000000,148,319,FS@rugby.gov.uk,Rugby,http://www.rugby.gov.uk,-1.23831900000000,CV21 3SB,2013-05-24,fhrs_4_en-GB,4,,FHRS,10
339910,,162 Oxford Street,Rugby,Warwickshire,Vaghela General Store,Retailers - other,4613,10,,210383,5,,52.37650400000000,352,319,FS@rugby.gov.uk,Rugby,http://www.rugby.gov.uk,-1.24763300000000,CV21 3LY,2013-01-10,fhrs_3_en-GB,3,,FHRS,10
339911,,30 Vicarage Road,New Bilton,"Rugby, Warwickshire",Vicarage Road Residential Home,Hospitals/Childcare/Caring Premises,5,5,,209907,5,,52.37086500000000,44069,319,FS@rugby.gov.uk,Rugby,http://www.rugby.gov.uk,-1.26889500000000,CV22 7AJ,2013-05-24,fhrs_5_en-GB,5,,FHRS,5
339912,,1 Lower Hillmorton Road,Hillmorton,"Rugby, Warwickshire",Victoria Inn,Pub/bar/nightclub,7843,5,,210570,5,,52.37090000000000,289,319,FS@rugby.gov.uk,Rugby,http://www.rugby.gov.uk,-1.25150300000000,CV21 3ST,2014-08-11,fhrs_5_en-GB,5,,FHRS,5
339913,,25 Main Street,Wolston,Warwickshire,Village Green Fish Bar,Takeaway/sandwich shop,7844,5,,210008,10,,52.37680600000000,530,319,FS@rugby.gov.uk,Rugby,http://www.rugby.gov.uk,-1.39604100000000,CV8 3HH,2013-02-12,fhrs_3_en-GB,3,,FHRS,10
339914,,,,,Vintage Style Rooms,Other catering premises,7841,5,,445084,5,,,29423,319,FS@rugby.gov.uk,Rugby,http://www.rugby.gov.uk,,,2012-11-14,fhrs_5_en-GB,5,,FHRS,0
339915,"Unit 6, Junction One",Leicester Road,Rugby,Warwickshire,Virgin Active Health & Fitness Club,Other catering premises,7841,10,,210572,5,,52.38523400000000,1496,319,FS@rugby.gov.uk,Rugby,http://www.rugby.gov.uk,-1.25919500000000,CV21 1RW,2012-08-22,fhrs_4_en-GB,4,,FHRS,5
339916,"The Visitors Centre, Coombe Ab",Brinklow Road,Combe Fields,Warwickshire,Visitor Centre Shop,Retailers - other,4613,,,210742,,,52.41208700000000,43804,319,FS@rugby.gov.uk,Rugby,http://www.rugby.gov.uk,-1.40911500000000,CV3 2AB,2012-10-02,fhrs_exempt_en-GB,Exempt,,FHRS,
339917,,4 Market Place,Rugby,Warwickshire,W.H. Smith,Retailers - other,4613,,,210516,,,52.37244200000000,750,319,FS@rugby.gov.uk,Rugby,http://www.rugby.gov.uk,-1.26215600000000,CV21 3DY,2014-10-06,fhrs_exempt_en-GB,Exempt,,FHRS,
339918,Blooms Garden Centre,Straight Mile,Bourton-On-Dunsmore,Warwickshire,Walter Smith Fine Foods,Retailers - other,4613,5,,415901,5,,52.34244800000000,55898,319,FS@rugby.gov.uk,Rugby,http://www.rugby.gov.uk,-1.34419500000000,CV23 9QQ,2012-07-13,fhrs_5_en-GB,5,,FHRS,5
339919,,Bazzard Road,Wolvey,Warwickshire,Warwickshire and West Midlands Army Cadet Force,Restaurant/Cafe/Canteen,1,0,,628359,5,,52.49329900000000,56999,319,FS@rugby.gov.uk,Rugby,http://www.rugby.gov.uk,-1.39919000000000,CV11 6QN,2014-02-10,fhrs_5_en-GB,5,,FHRS,5
339920,,Technology Drive,Rugby,Warwickshire,Warwickshire College Nursery,Hospitals/Childcare/Caring Premises,5,5,,209925,5,,52.38102200000000,55216,319,FS@rugby.gov.uk,Rugby,http://www.rugby.gov.uk,-1.25408000000000,CV21 1AR,2014-02-06,fhrs_5_en-GB,5,,FHRS,5
339921,,Technology Drive,Rugby,Warwickshire,Warwickshire College Refectory & Coffee Bar,School/college/university,7845,0,,210597,5,,52.38102200000000,55174,319,FS@rugby.gov.uk,Rugby,http://www.rugby.gov.uk,-1.25408000000000,CV21 1 AR,2013-10-10,fhrs_5_en-GB,5,,FHRS,5
339922,,unit 4,Cawston Shopping Center,Gerrard Way,Waves Fish & Chips,Takeaway/sandwich shop,7844,5,,607262,5,,,56808,319,FS@rugby.gov.uk,Rugby,http://www.rugby.gov.uk,,CV227PW,2014-01-31,fhrs_5_en-GB,5,,FHRS,5
339923,,Drovers House,Drover Close,Rugby,"WCS Care Group Limited,",Hospitals/Childcare/Caring Premises,5,5,,579580,5,,,56619,319,FS@rugby.gov.uk,Rugby,http://www.rugby.gov.uk,,573955,2013-11-12,fhrs_5_en-GB,5,,FHRS,0
339924,Ryton Organic Gardens,Wolston Lane,Ryton-On-Dunsmore,Warwickshire,Webbs at Ryton Gardens Shop,Retailers - other,4613,5,,210354,5,,52.36718300000000,45221,319,FS@rugby.gov.uk,Rugby,http://www.rugby.gov.uk,-1.41318000000000,CV8 3LG,2015-01-08,fhrs_5_en-GB,5,,FHRS,5
339925,,2 Regent Place,Rugby,Warwickshire,Wellingtons Day Nurseries Ltd,Hospitals/Childcare/Caring Premises,5,0,,210735,5,,52.37524200000000,1561,319,FS@rugby.gov.uk,Rugby,http://www.rugby.gov.uk,-1.25990600000000,CV21 2PN,2013-09-24,fhrs_5_en-GB,5,,FHRS,5
339926,,Bilton Road,Rugby,Warwickshire,Wellingtons Day Nursery,Hospitals/Childcare/Caring Premises,5,5,,210101,5,,52.36581000000000,138,319,FS@rugby.gov.uk,Rugby,http://www.rugby.gov.uk,-1.28019800000000,CV22 7DS,2014-09-22,fhrs_4_en-GB,4,,FHRS,10
339927,Westlands,Oliver Street,Rugby,Warwickshire,Westlands,Hospitals/Childcare/Caring Premises,5,0,,210271,0,,52.37408800000000,345,319,FS@rugby.gov.uk,Rugby,http://www.rugby.gov.uk,-1.26816600000000,CV21 2EX,2014-02-11,fhrs_5_en-GB,5,,FHRS,5
339928,,32 Broad Street,Brinklow,Warwickshire,White Lion Inn (1),Pub/bar/nightclub,7843,5,,209968,10,,52.41081400000000,436,319,FS@rugby.gov.uk,Rugby,http://www.rugby.gov.uk,-1.36130900000000,CV23 0LN,2013-08-23,fhrs_3_en-GB,3,,FHRS,10
339929,,,,,Whitty Designs Limited,Manufacturers/packers,7839,0,,451681,0,,,30397,319,FS@rugby.gov.uk,Rugby,http://www.rugby.gov.uk,,,2012-09-21,fhrs_5_en-GB,5,,FHRS,5
339930,,6 Bank Street,Rugby,Warwickshire,Wild & Free,Retailers - other,4613,0,,445087,5,,52.37347300000000,55958,319,FS@rugby.gov.uk,Rugby,http://www.rugby.gov.uk,-1.26024400000000,CV21 2QE,2012-10-26,fhrs_5_en-GB,5,,FHRS,5
339931,,258 Hillmorton Road,Rugby,Warwickshire,Wildas,Takeaway/sandwich shop,7844,5,,210110,5,,52.36117000000000,243,319,FS@rugby.gov.uk,Rugby,http://www.rugby.gov.uk,-1.23147600000000,CV22 5BW,2014-02-03,fhrs_5_en-GB,5,,FHRS,5
339932,The Clock Towers Shopping Cent,1B Manning Walk,Rugby,Warwickshire,Wilkinson Hardware Stores,Retailers - other,4613,5,,210636,5,,52.37353900000000,1206,319,FS@rugby.gov.uk,Rugby,http://www.rugby.gov.uk,-1.26363600000000,CV21 2JT,2014-12-11,fhrs_5_en-GB,5,,FHRS,5
339933,,22 Warwick Street,Rugby,Warwickshire,William Webb Ellis,Pub/bar/nightclub,7843,5,,210632,5,,52.37069400000000,395,319,FS@rugby.gov.uk,Rugby,http://www.rugby.gov.uk,-1.26593000000000,CV21 3DH,2014-02-24,fhrs_4_en-GB,4,,FHRS,10
339934,The Pantry,London Road,Willoughby,Warwickshire,Willoughby Cafe,Restaurant/Cafe/Canteen,1,10,,210752,5,,52.30192300000000,522,319,FS@rugby.gov.uk,Rugby,http://www.rugby.gov.uk,-1.23410000000000,CV23 8BL,2014-10-29,fhrs_3_en-GB,3,,FHRS,10
339935,The Green,Pye Court,Willoughby,Warwickshire,Willoughby Cricket Club,Pub/bar/nightclub,7843,0,,210712,0,,52.30510000000000,524,319,FS@rugby.gov.uk,Rugby,http://www.rugby.gov.uk,-1.24589600000000,CV23 8BZ,2014-12-08,fhrs_5_en-GB,5,,FHRS,5
339936,,12 School Street,Hillmorton,"Rugby, Warwickshire",Willow Tree Nursing Home,Hospitals/Childcare/Caring Premises,5,0,,210160,0,,52.36119000000000,1325,319,FS@rugby.gov.uk,Rugby,http://www.rugby.gov.uk,-1.21662900000000,CV21 4BW,2015-01-15,fhrs_5_en-GB,5,,FHRS,5
339937,,315 Clifton Road,Rugby,Warwickshire,Winfield Supermarket,Retailers - other,4613,10,,210487,0,,52.37453000000000,149,319,FS@rugby.gov.uk,Rugby,http://www.rugby.gov.uk,-1.24126200000000,CV21 3QZ,2013-07-19,fhrs_4_en-GB,4,,FHRS,5
339938,,4 Main Street,Bilton,"Rugby, Warwickshire",Withers Newsagents,Retailers - other,4613,0,,210441,5,,52.35906300000000,297,319,FS@rugby.gov.uk,Rugby,http://www.rugby.gov.uk,-1.29280400000000,CV22 7NB,2015-01-07,fhrs_5_en-GB,5,,FHRS,5
339939,Village Hall,Main Street,Withybrook,Warwickshire,Withybrook Village Hall,Other catering premises,7841,10,,210249,0,,52.45668900000000,526,319,FS@rugby.gov.uk,Rugby,http://www.rugby.gov.uk,-1.36269100000000,CV7 9LW,2014-12-08,fhrs_4_en-GB,4,,FHRS,5
339940,Wolston Grange,Coalpit Lane,Wolston,Warwickshire,Wolston Grange Residential Home,Hospitals/Childcare/Caring Premises,5,5,,210642,5,,52.35338600000000,528,319,FS@rugby.gov.uk,Rugby,http://www.rugby.gov.uk,-1.35334200000000,CV23 9HJ,2014-01-30,fhrs_5_en-GB,5,,FHRS,5
339941,Wolston Sports & Community Centre,Manor Estate,Wolston,Warwickshire,Wolston Leisure & Community Centre,Other catering premises,7841,0,,210006,5,,52.37449500000000,2256,319,FS@rugby.gov.uk,Rugby,http://www.rugby.gov.uk,-1.40287400000000,CV8 3PD,2013-11-11,fhrs_5_en-GB,5,,FHRS,5
339942,"Wolston St Margarets Primary School, Brookside,",Main Street,Wolston,Warwickshire,Wolston St Margaret's Primary School,School/college/university,7845,0,,210230,5,,52.37680600000000,1544,319,FS@rugby.gov.uk,Rugby,http://www.rugby.gov.uk,-1.39604100000000,CV8 3HH,2014-03-18,fhrs_5_en-GB,5,,FHRS,5
339943,The Stores,The Square,Wolvey,Warwickshire,Wolvey  Stores,Retailers - other,4613,0,,210640,5,,52.48673800000000,546,319,FS@rugby.gov.uk,Rugby,http://www.rugby.gov.uk,-1.36839800000000,LE10 3LJ,2014-02-10,fhrs_5_en-GB,5,,FHRS,5
339944,Wolvey Bowling Club,Coventry Road,Wolvey,Warwickshire,Wolvey Bowling Club,Pub/bar/nightclub,7843,10,,209958,5,,52.48402100000000,540,319,FS@rugby.gov.uk,Rugby,http://www.rugby.gov.uk,-1.36982100000000,LE10 3LD,2013-01-02,fhrs_4_en-GB,4,,FHRS,0
339945,Villa Farm,Coventry Road,Wolvey,Warwickshire,Wolvey Caravan & Camping Park,Retailers - other,4613,0,,210683,5,,52.47615400000000,537,319,FS@rugby.gov.uk,Rugby,http://www.rugby.gov.uk,-1.37993000000000,LE10 3HF,2014-05-22,fhrs_5_en-GB,5,,FHRS,5
339946,Wolvey C Of E Primary School,Bulkington Road,Wolvey,Warwickshire,Wolvey Ce Primary School,School/college/university,7845,5,,210755,0,,52.48674500000000,539,319,FS@rugby.gov.uk,Rugby,http://www.rugby.gov.uk,-1.37314000000000,LE10 3LA,2013-07-17,fhrs_5_en-GB,5,,FHRS,0
339947,Wolvey C Of E Primary School,Bulkington Road,Wolvey,Warwickshire,Wolvey Pre School Lunch Club,Hospitals/Childcare/Caring Premises,5,5,,210120,5,,52.48674500000000,1569,319,FS@rugby.gov.uk,Rugby,http://www.rugby.gov.uk,-1.37314000000000,LE10 3LA,2014-12-08,fhrs_4_en-GB,4,,FHRS,10
339948,,22 Rowe Close,Hillmorton,Rugby,wonderland Cakes By Tatjana,Manufacturers/packers,7839,5,,607253,5,,52.35675300000000,20327,319,FS@rugby.gov.uk,Rugby,http://www.rugby.gov.uk,-1.20791200000000,CV21 4DL,2014-01-16,fhrs_5_en-GB,5,,FHRS,5
339949,Wood Farm,Coal Pit Lane,Monks Kirby,Warwickshire,Wood Farm Brewing Co. Ltd,Manufacturers/packers,7839,20,,210000,10,,52.46346400000000,2173,319,FS@rugby.gov.uk,Rugby,http://www.rugby.gov.uk,-1.29092700000000,CV23 0SL,2014-08-03,fhrs_1_en-GB,1,,FHRS,10
339950,,79 Wood Street,Rugby,Warwickshire,Wood Street Stores,Retailers - other,4613,10,,210115,10,,52.37841400000000,403,319,FS@rugby.gov.uk,Rugby,http://www.rugby.gov.uk,-1.25685600000000,CV21 2NY,2014-04-28,fhrs_3_en-GB,3,,FHRS,10
339951,Woodbine Farm,Grandborough Fields Road,Grandborough,Warwickshire,Woodbine Rare-Breed Meat,Retailers - other,4613,5,,210584,5,,52.27958000000000,43560,319,FS@rugby.gov.uk,Rugby,http://www.rugby.gov.uk,-1.29599000000000,CV23 8BA,2014-04-08,fhrs_5_en-GB,5,,FHRS,5
339952,,49 Cymbeline Way,Bilton,"Rugby, Warwickshire",Woodlands Post Office,Retailers - other,4613,5,,210483,5,,52.35056300000000,789,319,FS@rugby.gov.uk,Rugby,http://www.rugby.gov.uk,-1.28320600000000,CV22 6JZ,2013-01-25,fhrs_4_en-GB,4,,FHRS,10
339953,,8 Wood Street,Rugby,Warwickshire,Woodside Cafe,Restaurant/Cafe/Canteen,1,10,,210455,10,,52.37867700000000,400,319,FS@rugby.gov.uk,Rugby,http://www.rugby.gov.uk,-1.25726300000000,CV21 2NS,2014-10-15,fhrs_1_en-GB,1,,FHRS,20
339954,Woodville Hotel,37 Bilton Road,Rugby,Warwickshire,Woodville House,Hospitals/Childcare/Caring Premises,5,0,,210627,5,,52.36935200000000,204,319,FS@rugby.gov.uk,Rugby,http://www.rugby.gov.uk,-1.26988900000000,CV22 7AN,2014-01-20,fhrs_5_en-GB,5,,FHRS,5
339955,,20 High Street,Rugby,Warwickshire,World Of Difference,Retailers - other,4613,,,210130,,,52.37132000000000,739,319,FS@rugby.gov.uk,Rugby,http://www.rugby.gov.uk,-1.26251200000000,CV21 3BG,2014-05-22,fhrs_exempt_en-GB,Exempt,,FHRS,
339956,,17 Market Place,Rugby,Warwickshire,Yum Yum,Retailers - other,4613,10,,471117,10,,52.37241800000000,1092,319,FS@rugby.gov.uk,Rugby,http://www.rugby.gov.uk,-1.26268500000000,CV21 3DU,2012-11-30,fhrs_3_en-GB,3,,FHRS,5
339957,,26 Church Street,Rugby,Warwickshire,Yum Yum,Takeaway/sandwich shop,7844,5,,210488,5,,52.37241900000000,160,319,FS@rugby.gov.uk,Rugby,http://www.rugby.gov.uk,-1.25855800000000,CV21 3PU,2013-09-25,fhrs_5_en-GB,5,,FHRS,5
339958,,154 Grosvenor Road,Rugby,Warwickshire,Yvone Superstore,Retailers - other,4613,10,,210740,10,,52.37551800000000,207,319,FS@rugby.gov.uk,Rugby,http://www.rugby.gov.uk,-1.25098500000000,CV21 3LB,2013-07-17,fhrs_3_en-GB,3,,FHRS,10
