,addressline1,addressline2,addressline3,addressline4,businessname,businesstype,businesstypeid,confidenceinmanagement,extractdate,fhrsid,hygiene,itemcount,latitude,localauthoritybusinessid,localauthoritycode,localauthorityemailaddress,localauthorityname,localauthoritywebsite,longitude,postcode,ratingdate,ratingkey,ratingvalue,returncode,schemetype,structural
211021,Lancing Children And Family Centre,42 North Road,Lancing,West Sussex,A Step Ahead Nursery,Hospitals/Childcare/Caring Premises,5,5,,734479,10,,50.82794400000000,PI/000038330,323,envsupport@adur-worthing.gov.uk,Adur,http://www.adur-worthing.gov.uk,-0.32232300000000,BN15 9AB,2015-01-13,fhrs_4_en-GB,4,,FHRS,5
211022,Kingston Buci Children And Family Centre,Middle Road,Shoreham-By-Sea,,A Step Ahead Shoreham,Hospitals/Childcare/Caring Premises,5,5,,715415,5,,50.83615700000000,PI/000037860,323,envsupport@adur-worthing.gov.uk,Adur,http://www.adur-worthing.gov.uk,-0.26105900000000,BN43 6GA,2014-09-25,fhrs_5_en-GB,5,,FHRS,5
211023,,,,,Adur Catering,Other catering premises,7841,0,,371680,0,,,PI/000018357,323,envsupport@adur-worthing.gov.uk,Adur,http://www.adur-worthing.gov.uk,,,2012-05-16,fhrs_5_en-GB,5,,FHRS,0
211024,13 Fishersgate Terrace,Southwick,West Sussex,,Albion Inn,Pub/bar/nightclub,7843,5,,445025,0,,50.83098000000000,PI/000036189,323,envsupport@adur-worthing.gov.uk,Adur,http://www.adur-worthing.gov.uk,-0.21833700000000,BN41 1PH,2012-08-20,fhrs_5_en-GB,5,,FHRS,0
211025,9 Southwick Square,Southwick,West Sussex,,Ali Baba,Restaurant/Cafe/Canteen,1,10,,175870,10,,50.83411300000000,PI/000034354,323,envsupport@adur-worthing.gov.uk,Adur,http://www.adur-worthing.gov.uk,-0.23632500000000,BN42 4FP,2013-11-20,fhrs_2_en-GB,2,,FHRS,15
211026,West Street,Sompting,West Sussex,,Alishaan Indian Restaurant,Restaurant/Cafe/Canteen,1,,,175109,,,50.83453400000000,PI/000031121,323,envsupport@adur-worthing.gov.uk,Adur,http://www.adur-worthing.gov.uk,-0.35314500000000,BN15 0AP,2015-01-06,fhrs_5_en-GB,5,,FHRS,
211027,8 South Street,Lancing,West Sussex,,Andreas Kebabs,Takeaway/sandwich shop,7844,,,165655,,,50.82624000000000,PI/000008324,323,envsupport@adur-worthing.gov.uk,Adur,http://www.adur-worthing.gov.uk,-0.32329300000000,BN15 8AG,2014-10-31,fhrs_5_en-GB,5,,FHRS,
211028,9 Pratton Avenue,Lancing,West Sussex,,Appletree House,Hospitals/Childcare/Caring Premises,5,0,,165031,0,,50.83337100000000,PI/000007340,323,envsupport@adur-worthing.gov.uk,Adur,http://www.adur-worthing.gov.uk,-0.32762400000000,BN15 9NU,2014-01-23,fhrs_4_en-GB,4,,FHRS,10
211029,5 East Street,Shoreham-By-Sea,West Sussex,,Apres Chocolat,Retailers - other,4613,,,650318,,,50.83220200000000,PI/000036295,323,envsupport@adur-worthing.gov.uk,Adur,http://www.adur-worthing.gov.uk,-0.27455500000000,BN43 5ZE,2014-03-27,fhrs_exempt_en-GB,Exempt,,FHRS,
211030,Emerald Quay Club,Emerald Quay,Shoreham-By-Sea,West Sussex,Aquamarine Bar,Pub/bar/nightclub,7843,,,198521,,,50.83039700000000,PI/000036119,323,envsupport@adur-worthing.gov.uk,Adur,http://www.adur-worthing.gov.uk,-0.26560400000000,BN43 5JP,2012-04-19,fhrs_5_en-GB,5,,FHRS,
211031,South Street,Lancing,West Sussex,,ASDA,Retailers - supermarkets/hypermarkets,7840,0,,175879,0,,50.82624000000000,PI/000034392,323,envsupport@adur-worthing.gov.uk,Adur,http://www.adur-worthing.gov.uk,-0.32329300000000,BN15 8AG,2014-03-03,fhrs_5_en-GB,5,,FHRS,5
211032,13 Ferry Road,Shoreham-By-Sea,West Sussex,,Atlantic Store,Retailers - other,4613,5,,175765,5,,50.82909800000000,PI/000033724,323,envsupport@adur-worthing.gov.uk,Adur,http://www.adur-worthing.gov.uk,-0.27200000000000,BN43 5RA,2014-02-28,fhrs_5_en-GB,5,,FHRS,5
211033,4 Hillbarn Parade,120 Upper Brighton Road,Sompting,West Sussex,B & K News Food & Wine,Retailers - other,4613,10,,174702,5,,50.83778300000000,PI/000029833,323,envsupport@adur-worthing.gov.uk,Adur,http://www.adur-worthing.gov.uk,-0.33559000000000,BN15 0LH,2013-02-04,fhrs_4_en-GB,4,,FHRS,5
211034,19 Ferry Road,Shoreham-By-Sea,West Sussex,,Bakery 2,Retailers - other,4613,0,,168211,5,,50.82909800000000,PI/000012732,323,envsupport@adur-worthing.gov.uk,Adur,http://www.adur-worthing.gov.uk,-0.27200000000000,BN43 5RA,2014-03-04,fhrs_5_en-GB,5,,FHRS,5
211035,,,,,Baldyman,Other catering premises,7841,0,,434320,0,,,PI/000036256,323,envsupport@adur-worthing.gov.uk,Adur,http://www.adur-worthing.gov.uk,,,2012-07-13,fhrs_5_en-GB,5,,FHRS,0
211036,Kingsland House,Kingsland Close,Shoreham-By-Sea,West Sussex,Barchester Healthcare,Hospitals/Childcare/Caring Premises,5,0,,174716,0,,50.83449900000000,PI/000029859,323,envsupport@adur-worthing.gov.uk,Adur,http://www.adur-worthing.gov.uk,-0.25606500000000,BN43 6LT,2014-01-30,fhrs_5_en-GB,5,,FHRS,5
211037,Southwick Community Centre,24 Southwick Street,Southwick,West Sussex,Barn Theatre and Barn Cafe,Other catering premises,7841,5,,174151,5,,50.83451700000000,PI/000028143,323,envsupport@adur-worthing.gov.uk,Adur,http://www.adur-worthing.gov.uk,-0.23393800000000,BN42 4TE,2013-12-17,fhrs_5_en-GB,5,,FHRS,5
211038,7 Ferry Road,Shoreham-By-Sea,West Sussex,,Beach Cafe,Restaurant/Cafe/Canteen,1,,,175737,,,50.82909800000000,PI/000033678,323,envsupport@adur-worthing.gov.uk,Adur,http://www.adur-worthing.gov.uk,-0.27200000000000,BN43 5RA,2014-12-16,fhrs_4_en-GB,4,,FHRS,
211039,134 Beach Green,Shoreham-By-Sea,West Sussex,,Beach Green Stores,Retailers - other,4613,0,,166673,5,,50.82880400000000,PI/000009992,323,envsupport@adur-worthing.gov.uk,Adur,http://www.adur-worthing.gov.uk,-0.28376800000000,BN43 5YA,2012-03-19,fhrs_5_en-GB,5,,FHRS,5
211040,9 The Burrells,Shoreham-By-Sea,West Sussex,,Beach House Day Nursery,Other catering premises,7841,5,,170721,5,,50.82889300000000,PI/000018406,323,envsupport@adur-worthing.gov.uk,Adur,http://www.adur-worthing.gov.uk,-0.25640100000000,BN43 5HF,2014-03-25,fhrs_5_en-GB,5,,FHRS,0
211041,164 South Street,Lancing,West Sussex,,Bell Memorial Home,Hospitals/Childcare/Caring Premises,5,,,165597,,,50.82207600000000,PI/000008233,323,envsupport@adur-worthing.gov.uk,Adur,http://www.adur-worthing.gov.uk,-0.32452100000000,BN15 8AU,2014-05-27,fhrs_5_en-GB,5,,FHRS,
211042,117 Brighton Road,Lancing,West Sussex,,Bella Notte,Hotel/bed & breakfast/guest house,7842,10,,174919,5,,50.82174400000000,PI/000030498,323,envsupport@adur-worthing.gov.uk,Adur,http://www.adur-worthing.gov.uk,-0.32207700000000,BN15 8HT,2011-01-11,fhrs_4_en-GB,4,,FHRS,0
211043,Sompting Village Primary School,Whitestyles Road,Sompting,West Sussex,Big Ted's Nursery,Restaurant/Cafe/Canteen,1,5,,176244,5,,50.83287600000000,PI/000036004,323,envsupport@adur-worthing.gov.uk,Adur,http://www.adur-worthing.gov.uk,-0.34462600000000,BN15 0BU,2011-12-06,fhrs_5_en-GB,5,,FHRS,5
211044,1 Southdown Road,Southwick,West Sussex,,Blagdons Manor Hotel,Hotel/bed & breakfast/guest house,7842,5,,174008,5,,50.83573600000000,PI/000027757,323,envsupport@adur-worthing.gov.uk,Adur,http://www.adur-worthing.gov.uk,-0.23603600000000,BN42 4FT,2012-02-16,fhrs_5_en-GB,5,,FHRS,5
211045,1 John Street,Shoreham-By-Sea,West Sussex,,Blundens,Takeaway/sandwich shop,7844,5,,169087,5,,50.83342000000000,PI/000014406,323,envsupport@adur-worthing.gov.uk,Adur,http://www.adur-worthing.gov.uk,-0.27661200000000,BN43 5DL,2014-07-10,fhrs_5_en-GB,5,,FHRS,5
211046,,,,,Blush Ices,Other catering premises,7841,0,,555619,0,,,PI/000036493,323,envsupport@adur-worthing.gov.uk,Adur,http://www.adur-worthing.gov.uk,,,2013-06-06,fhrs_5_en-GB,5,,FHRS,5
211047,27-29 North Road,Lancing,West Sussex,,Boots the Chemist,Retailers - other,4613,5,,164373,5,,50.82790100000000,PI/000006186,323,envsupport@adur-worthing.gov.uk,Adur,http://www.adur-worthing.gov.uk,-0.32314800000000,BN15 9AH,2011-01-04,fhrs_5_en-GB,5,,FHRS,5
211048,40-44 High Street,Shoreham-By-Sea,West Sussex,,Boots The Chemist,Retailers - other,4613,,,169001,,,50.83193100000000,PI/000014268,323,envsupport@adur-worthing.gov.uk,Adur,http://www.adur-worthing.gov.uk,-0.27564400000000,BN43 5DA,2010-03-05,fhrs_exempt_en-GB,Exempt,,FHRS,
211049,The Glebe Primary School,Church Lane,Southwick,West Sussex,Breakfast Buddies,School/college/university,7845,5,,174975,5,,50.83500100000000,PI/000030675,323,envsupport@adur-worthing.gov.uk,Adur,http://www.adur-worthing.gov.uk,-0.24276700000000,BN42 4GB,2013-07-09,fhrs_5_en-GB,5,,FHRS,5
211050,Sompting Village Primary School,Whitestyles Road,Sompting,West Sussex,Breakfast Club,School/college/university,7845,5,,175804,5,,50.83287600000000,PI/000033891,323,envsupport@adur-worthing.gov.uk,Adur,http://www.adur-worthing.gov.uk,-0.34462600000000,BN15 0BU,2011-01-18,fhrs_5_en-GB,5,,FHRS,0
211051,St Peters Roman Catholic Primary School,Sullington Way,Shoreham-By-Sea,West Sussex,Breakfast Club,School/college/university,7845,10,,170652,5,,50.83715700000000,PI/000018156,323,envsupport@adur-worthing.gov.uk,Adur,http://www.adur-worthing.gov.uk,-0.26357800000000,BN43 6PJ,2010-03-17,fhrs_4_en-GB,4,,FHRS,5
211052,"Restaurant, William De Braose House",46 Brunswick Road,Shoreham-By-Sea,West Sussex,Brio Ristorante,Restaurant/Cafe/Canteen,1,10,,175261,5,,50.83365700000000,PI/000031689,323,envsupport@adur-worthing.gov.uk,Adur,http://www.adur-worthing.gov.uk,-0.27257000000000,BN43 5WB,2013-11-21,fhrs_3_en-GB,3,,FHRS,10
211053,413 Brighton Road,Lancing,West Sussex,,Broadway B & B,Hotel/bed & breakfast/guest house,7842,,,161343,,,50.82585300000000,PI/000001337,323,envsupport@adur-worthing.gov.uk,Adur,http://www.adur-worthing.gov.uk,-0.29723700000000,BN15 8JX,2011-09-08,fhrs_5_en-GB,5,,FHRS,
211054,Buckingham Road,Shoreham-By-Sea,West Sussex,,Buckingham Park Primary School,School/college/university,7845,5,,167179,5,,50.83852000000000,PI/000010897,323,envsupport@adur-worthing.gov.uk,Adur,http://www.adur-worthing.gov.uk,-0.27058600000000,BN43 5UD,2014-01-30,fhrs_5_en-GB,5,,FHRS,0
211055,,,,,Buckingham Playgroup,Other catering premises,7841,0,,175177,0,,,PI/000031402,323,envsupport@adur-worthing.gov.uk,Adur,http://www.adur-worthing.gov.uk,,,2014-01-23,fhrs_5_en-GB,5,,FHRS,5
211056,151 South Street,Lancing,West Sussex,,Cafe 151,Restaurant/Cafe/Canteen,1,5,,176136,5,,50.82139900000000,PI/000035571,323,envsupport@adur-worthing.gov.uk,Adur,http://www.adur-worthing.gov.uk,-0.32437500000000,BN15 8BD,2014-11-25,fhrs_4_en-GB,4,,FHRS,10
211057,Marks And Spencers Plc,Holmbush Centre,Upper Shoreham Road,Shoreham-By-Sea,Cafe Revive,Restaurant/Cafe/Canteen,1,0,,485204,0,,50.84212600000000,PI/000036230,323,envsupport@adur-worthing.gov.uk,Adur,http://www.adur-worthing.gov.uk,-0.25190300000000,BN43 6TD,2014-08-29,fhrs_5_en-GB,5,,FHRS,5
211058,,,,,Cake Making Business,Other catering premises,7841,5,,174282,5,,,PI/000028642,323,envsupport@adur-worthing.gov.uk,Adur,http://www.adur-worthing.gov.uk,,,2014-03-12,fhrs_4_en-GB,4,,FHRS,10
211059,,,,,Cakes by Kimbles,Other catering premises,7841,10,,176083,5,,,PI/000035254,323,envsupport@adur-worthing.gov.uk,Adur,http://www.adur-worthing.gov.uk,,,2010-12-09,fhrs_4_en-GB,4,,FHRS,5
211060,,,,,Calleja Cakes,Other catering premises,7841,,,193890,,,,PI/000036070,323,envsupport@adur-worthing.gov.uk,Adur,http://www.adur-worthing.gov.uk,,,2012-04-05,fhrs_5_en-GB,5,,FHRS,
211061,Basin Road South,Southwick,West Sussex,,Carats Beach Cafe,Restaurant/Cafe/Canteen,1,,,175127,,,50.82897400000000,PI/000031199,323,envsupport@adur-worthing.gov.uk,Adur,http://www.adur-worthing.gov.uk,-0.23783900000000,BN41 1WD,2014-10-02,fhrs_4_en-GB,4,,FHRS,
211062,26 Southview Road,Southwick,West Sussex,,Caroline's Kitchen,Other catering premises,7841,0,,174034,0,,50.83792100000000,PI/000027847,323,envsupport@adur-worthing.gov.uk,Adur,http://www.adur-worthing.gov.uk,-0.23717500000000,BN42 4TU,2012-07-19,fhrs_5_en-GB,5,,FHRS,0
211063,Cavell House,Middle Road,Shoreham-By-Sea,West Sussex,Cavell House Care Home,Hospitals/Childcare/Caring Premises,5,5,,491686,5,,50.83662900000000,PI/000036334,323,envsupport@adur-worthing.gov.uk,Adur,http://www.adur-worthing.gov.uk,-0.26017500000000,BN43 6GS,2014-09-19,fhrs_4_en-GB,4,,FHRS,10
211064,"Restaurant, Town Hall Chambers",45-49 High Street,Shoreham-By-Sea,West Sussex,Chambers Bistro,Restaurant/Cafe/Canteen,1,,,175756,,,50.83171400000000,PI/000033709,323,envsupport@adur-worthing.gov.uk,Adur,http://www.adur-worthing.gov.uk,-0.27617700000000,BN43 5DD,2014-03-05,fhrs_5_en-GB,5,,FHRS,
211065,9 Southdown Road,Southwick,West Sussex,,Champion House Social Club,Pub/bar/nightclub,7843,10,,174015,5,,50.83573600000000,PI/000027782,323,envsupport@adur-worthing.gov.uk,Adur,http://www.adur-worthing.gov.uk,-0.23603600000000,BN42 4FT,2014-03-06,fhrs_3_en-GB,3,,FHRS,10
211066,71 High Street,Shoreham-By-Sea,West Sussex,,Charcoal Grill,Restaurant/Cafe/Canteen,1,10,,485208,10,,50.83211400000000,PI/000036329,323,envsupport@adur-worthing.gov.uk,Adur,http://www.adur-worthing.gov.uk,-0.27773900000000,BN43 5DE,2014-09-17,fhrs_4_en-GB,4,,FHRS,0
211067,Eastbrook Primary School South Site,Gardner Road,Southwick,West Sussex,Chartwells,Restaurant/Cafe/Canteen,1,0,,175344,0,,50.83320800000000,PI/000031955,323,envsupport@adur-worthing.gov.uk,Adur,http://www.adur-worthing.gov.uk,-0.22235600000000,BN41 1PN,2014-10-21,fhrs_5_en-GB,5,,FHRS,5
211068,Holmbush Primary School,Hawkins Crescent,Shoreham-By-Sea,West Sussex,Chartwells,School/college/university,7845,0,,168917,0,,50.84569100000000,PI/000014106,323,envsupport@adur-worthing.gov.uk,Adur,http://www.adur-worthing.gov.uk,-0.24429800000000,BN43 6TN,2014-01-17,fhrs_5_en-GB,5,,FHRS,5
211069,North Infants,Eastbrook Primary School,Manor Hall Road,Southwick,Chartwells,School/college/university,7845,0,,175345,0,,,PI/000031958,323,envsupport@adur-worthing.gov.uk,Adur,http://www.adur-worthing.gov.uk,,,2012-07-12,fhrs_5_en-GB,5,,FHRS,0
211070,North Lancing Primary School,Mill Road,Lancing,West Sussex,Chartwells,School/college/university,7845,5,,175884,5,,50.83891500000000,PI/000034397,323,envsupport@adur-worthing.gov.uk,Adur,http://www.adur-worthing.gov.uk,-0.32042400000000,BN15 0PT,2013-03-21,fhrs_5_en-GB,5,,FHRS,0
211071,Seaside Primary School,Freshbrook Road,Lancing,West Sussex,Chartwells,School/college/university,7845,5,,176082,0,,50.82657500000000,PI/000035252,323,envsupport@adur-worthing.gov.uk,Adur,http://www.adur-worthing.gov.uk,-0.31283000000000,BN15 8DL,2013-03-21,fhrs_5_en-GB,5,,FHRS,0
211072,Sompting Village Primary School,Whitestyles Road,Sompting,West Sussex,Chartwells,School/college/university,7845,5,,175885,0,,50.83287600000000,PI/000034398,323,envsupport@adur-worthing.gov.uk,Adur,http://www.adur-worthing.gov.uk,-0.34462600000000,BN15 0BU,2014-11-21,fhrs_5_en-GB,5,,FHRS,5
211073,St Peters Roman Catholic Primary School,Sullington Way,Shoreham-By-Sea,West Sussex,Chartwells,School/college/university,7845,5,,176017,0,,50.83715700000000,PI/000035026,323,envsupport@adur-worthing.gov.uk,Adur,http://www.adur-worthing.gov.uk,-0.26357800000000,BN43 6PJ,2013-03-25,fhrs_5_en-GB,5,,FHRS,5
211074,The Glebe Primary School,Church Lane,Southwick,West Sussex,Chartwells,School/college/university,7845,0,,175759,0,,50.83500100000000,PI/000033714,323,envsupport@adur-worthing.gov.uk,Adur,http://www.adur-worthing.gov.uk,-0.24276700000000,BN42 4GB,2014-09-30,fhrs_5_en-GB,5,,FHRS,0
211075,Buckingham Park Primary School,Buckingham Road,Shoreham-By-Sea,West Sussex,Chartwells (part of Compass Group),School/college/university,7845,0,,175886,0,,50.83852000000000,PI/000034399,323,envsupport@adur-worthing.gov.uk,Adur,http://www.adur-worthing.gov.uk,-0.27058600000000,BN43 5UD,2014-01-30,fhrs_5_en-GB,5,,FHRS,0
211076,Shoreham Beach Primary School,Shingle Road,Shoreham-By-Sea,West Sussex,Chartwells (part of Compass Group),School/college/university,7845,5,,175740,0,,50.82926600000000,PI/000033680,323,envsupport@adur-worthing.gov.uk,Adur,http://www.adur-worthing.gov.uk,-0.26576000000000,BN43 5RH,2013-03-18,fhrs_5_en-GB,5,,FHRS,0
211077,St Nicolas And St Mary C E Primary School,Eastern Avenue,Shoreham-By-Sea,West Sussex,Chartwells (part of Compass Group),School/college/university,7845,0,,175738,0,,50.83788600000000,PI/000033679,323,envsupport@adur-worthing.gov.uk,Adur,http://www.adur-worthing.gov.uk,-0.26423300000000,BN43 6PE,2012-04-23,fhrs_5_en-GB,5,,FHRS,5
211078,Swiss Gardens Primary School,Swiss Gardens,Shoreham-By-Sea,West Sussex,Chartwells (part of Compass Group),School/college/university,7845,0,,175736,0,,50.83559000000000,PI/000033677,323,envsupport@adur-worthing.gov.uk,Adur,http://www.adur-worthing.gov.uk,-0.27923000000000,BN43 5WH,2012-05-02,fhrs_5_en-GB,5,,FHRS,0
211079,210 Manor Hall Road,Southwick,West Sussex,,Chatfield Newsagents,Retailers - other,4613,20,,174751,10,,50.83505000000000,PI/000030005,323,envsupport@adur-worthing.gov.uk,Adur,http://www.adur-worthing.gov.uk,-0.22045400000000,BN42 4NH,2014-02-17,fhrs_1_en-GB,1,,FHRS,10
211080,5 Buckingham Road,Shoreham-By-Sea,West Sussex,,Chelles of Shoreham,Restaurant/Cafe/Canteen,1,10,,638737,10,,50.83515700000000,PI/000037313,323,envsupport@adur-worthing.gov.uk,Adur,http://www.adur-worthing.gov.uk,-0.27247200000000,BN43 5UA,2014-02-28,fhrs_3_en-GB,3,,FHRS,10
211081,,,,,Cherry Berry Cakes,Other catering premises,7841,5,,511285,5,,,PI/000036294,323,envsupport@adur-worthing.gov.uk,Adur,http://www.adur-worthing.gov.uk,,,2013-02-26,fhrs_5_en-GB,5,,FHRS,5
211082,5 Windmill Parade,163-183 Old Shoreham Road,Southwick,West Sussex,Chillies,Takeaway/sandwich shop,7844,10,,175957,10,,50.84049500000000,PI/000034718,323,envsupport@adur-worthing.gov.uk,Adur,http://www.adur-worthing.gov.uk,-0.23313000000000,BN42 4QB,2013-08-14,fhrs_3_en-GB,3,,FHRS,5
211083,Lancing Methodist Church,South Street,Lancing,West Sussex,Church Hall,Other catering premises,7841,10,,175066,5,,,PI/000030980,323,envsupport@adur-worthing.gov.uk,Adur,http://www.adur-worthing.gov.uk,,,2010-03-28,fhrs_4_en-GB,4,,FHRS,5
211084,St Michaels Church Hall,Church Lane,Southwick,West Sussex,Church Lane Nursery,Hospitals/Childcare/Caring Premises,5,0,,175757,0,,50.91162872314453,PI/000033711,323,envsupport@adur-worthing.gov.uk,Adur,http://www.adur-worthing.gov.uk,-0.45754450559616,,2011-01-18,fhrs_5_en-GB,5,,FHRS,0
211085,,,,,Claire's Cakes,Other catering premises,7841,,,193891,,,,PI/000036069,323,envsupport@adur-worthing.gov.uk,Adur,http://www.adur-worthing.gov.uk,,,2012-02-23,fhrs_5_en-GB,5,,FHRS,
211086,Holmbush Primary School,Hawkins Crescent,Shoreham-By-Sea,West Sussex,Class of Their Own,School/college/university,7845,5,,175974,5,,50.84569100000000,PI/000034843,323,envsupport@adur-worthing.gov.uk,Adur,http://www.adur-worthing.gov.uk,-0.24429800000000,BN43 6TN,2010-09-27,fhrs_5_en-GB,5,,FHRS,5
211087,Swiss Gardens Primary School,Swiss Gardens,Shoreham-By-Sea,West Sussex,Class of Their Own,School/college/university,7845,5,,175975,5,,50.83559000000000,PI/000034844,323,envsupport@adur-worthing.gov.uk,Adur,http://www.adur-worthing.gov.uk,-0.27923000000000,BN43 5WH,2010-11-08,fhrs_5_en-GB,5,,FHRS,5
211088,,,,,CNS Catering,Mobile caterer,7846,5,,539912,5,,,PI/000036184,323,envsupport@adur-worthing.gov.uk,Adur,http://www.adur-worthing.gov.uk,,,2013-03-19,fhrs_5_en-GB,5,,FHRS,5
211089,Shoreham-By-Sea Railway Station,Brunswick Road,Shoreham-By-Sea,West Sussex,Coastal Coffee,Retailers - other,4613,10,,620817,10,,50.83433500000000,PI/000037185,323,envsupport@adur-worthing.gov.uk,Adur,http://www.adur-worthing.gov.uk,-0.27162200000000,BN43 5WX,2013-12-09,fhrs_3_en-GB,3,,FHRS,10
211090,,,,,Cock'n'Bull Rotisserie,Mobile caterer,7846,5,,485200,5,,,PI/000009462,323,envsupport@adur-worthing.gov.uk,Adur,http://www.adur-worthing.gov.uk,,,2014-06-10,fhrs_5_en-GB,5,,FHRS,5
211091,Shop 2 To 3,Inglecroft Court,Cokeham Road,Sompting,Cokeham Pharmacy,Retailers - other,4613,,,171787,,,50.83323200000000,PI/000021322,323,envsupport@adur-worthing.gov.uk,Adur,http://www.adur-worthing.gov.uk,-0.33741400000000,BN15 0AN,2010-08-05,fhrs_exempt_en-GB,Exempt,,FHRS,
211092,1 Laylands Road,Southwick,West Sussex,,Colemans Quality Foods,Other catering premises,7841,5,,173514,5,,50.83283900000000,PI/000026015,323,envsupport@adur-worthing.gov.uk,Adur,http://www.adur-worthing.gov.uk,-0.22114900000000,BN41 1PP,2014-03-14,fhrs_5_en-GB,5,,FHRS,5
211093,Church Farm,Coombes Road,Coombes,West Sussex,Coombes Farm Tours,Other catering premises,7841,10,,160411,10,,50.84956400000000,PI/000000011,323,envsupport@adur-worthing.gov.uk,Adur,http://www.adur-worthing.gov.uk,-0.29663000000000,,2012-04-03,fhrs_3_en-GB,3,,FHRS,10
211094,1-2 Royal George Parade,Upper Shoreham Road,Shoreham-By-Sea,West Sussex,Co-Op,Retailers - supermarkets/hypermarkets,7840,10,,171026,5,,50.84111200000000,PI/000019305,323,envsupport@adur-worthing.gov.uk,Adur,http://www.adur-worthing.gov.uk,-0.25023600000000,BN43 6TB,2013-09-20,fhrs_3_en-GB,3,,FHRS,10
211095,22-26 High Street,Shoreham-By-Sea,West Sussex,,Co-Op,Retailers - supermarkets/hypermarkets,7840,5,,168989,5,,50.83193100000000,PI/000014234,323,envsupport@adur-worthing.gov.uk,Adur,http://www.adur-worthing.gov.uk,-0.27564400000000,BN43 5DA,2012-11-28,fhrs_4_en-GB,4,,FHRS,10
211096,28-30 Queens Parade,North Road,Lancing,West Sussex,CO-OP,Retailers - supermarkets/hypermarkets,7840,5,,175753,5,,50.82943600000000,PI/000033701,323,envsupport@adur-worthing.gov.uk,Adur,http://www.adur-worthing.gov.uk,-0.32231200000000,BN15 9BA,2014-01-14,fhrs_5_en-GB,5,,FHRS,5
211097,Co-Operative Retail Services,8-16 Southwick Square,Southwick,West Sussex,Co-Op,Retailers - supermarkets/hypermarkets,7840,5,,174104,5,,50.83446000000000,PI/000028021,323,envsupport@adur-worthing.gov.uk,Adur,http://www.adur-worthing.gov.uk,-0.23665300000000,BN42 4FJ,2014-02-11,fhrs_4_en-GB,4,,FHRS,10
211098,Supermarket,The Co-Operative Complex,Ham Road,Shoreham-By-Sea,Co-Op,Retailers - supermarkets/hypermarkets,7840,10,,176034,10,,50.83409700000000,PI/000035128,323,envsupport@adur-worthing.gov.uk,Adur,http://www.adur-worthing.gov.uk,-0.27008200000000,BN43 6PA,2014-09-16,fhrs_2_en-GB,2,,FHRS,15
211099,51 North Road,Lancing,West Sussex,,Cornucopia,Retailers - other,4613,,,174937,,,50.82859500000000,PI/000030590,323,envsupport@adur-worthing.gov.uk,Adur,http://www.adur-worthing.gov.uk,-0.32258400000000,BN15 9AS,2013-05-24,fhrs_5_en-GB,5,,FHRS,
211100,65 Chartwell Road,Lancing Business Park,Lancing,West Sussex,Cornucopia,Restaurant/Cafe/Canteen,1,20,,657076,5,,50.82359200000000,PI/000037478,323,envsupport@adur-worthing.gov.uk,Adur,http://www.adur-worthing.gov.uk,-0.33372400000000,BN15 8TU,2014-03-25,fhrs_1_en-GB,1,,FHRS,10
211101,30 Kingston Broadway,Shoreham-By-Sea,West Sussex,,Craft Newsagents,Retailers - other,4613,5,,169294,5,,50.84179800000000,PI/000014835,323,envsupport@adur-worthing.gov.uk,Adur,http://www.adur-worthing.gov.uk,-0.24556600000000,BN43 6TE,2011-10-25,fhrs_5_en-GB,5,,FHRS,5
211102,The Green,Southwick,West Sussex,,Cricket Pavilion,Restaurant/Cafe/Canteen,1,10,,174375,5,,50.83277300000000,PI/000028899,323,envsupport@adur-worthing.gov.uk,Adur,http://www.adur-worthing.gov.uk,-0.23932900000000,BN42 4DE,2012-07-30,fhrs_4_en-GB,4,,FHRS,5
211103,The Green,Southwick,West Sussex,,Cricketers,Pub/bar/nightclub,7843,5,,175767,5,,50.83362400000000,PI/000033726,323,envsupport@adur-worthing.gov.uk,Adur,http://www.adur-worthing.gov.uk,-0.23792000000000,BN42 4GF,2013-07-24,fhrs_4_en-GB,4,,FHRS,10
211104,,,,,Crossover Brighton 3:16 Charity Van,Mobile caterer,7846,,,638738,,,,PI/000037351,323,envsupport@adur-worthing.gov.uk,Adur,http://www.adur-worthing.gov.uk,,,2014-04-17,fhrs_5_en-GB,5,,FHRS,
211105,33 High Street,Shoreham-By-Sea,West Sussex,,Crown And Anchor,Pub/bar/nightclub,7843,5,,175294,5,,50.83171400000000,PI/000031810,323,envsupport@adur-worthing.gov.uk,Adur,http://www.adur-worthing.gov.uk,-0.27617700000000,BN43 5DD,2014-10-28,fhrs_5_en-GB,5,,FHRS,5
211106,Cafe South Pavilion,Buckingham Park,Upper Shoreham Road,Shoreham-By-Sea,Cupcake Cafe,Other catering premises,7841,0,,174685,0,,50.84001600000000,PI/000029783,323,envsupport@adur-worthing.gov.uk,Adur,http://www.adur-worthing.gov.uk,-0.26962200000000,BN43 6BA,2014-03-27,fhrs_5_en-GB,5,,FHRS,5
211107,,,,,Cupcakermaker,Other catering premises,7841,5,,703692,5,,,PI/000037661,323,envsupport@adur-worthing.gov.uk,Adur,http://www.adur-worthing.gov.uk,,,2014-09-05,fhrs_5_en-GB,5,,FHRS,0
211108,30 North Road,Lancing,West Sussex,,D Brown Butchers,Retailers - other,4613,5,,164378,5,,50.82794400000000,PI/000006195,323,envsupport@adur-worthing.gov.uk,Adur,http://www.adur-worthing.gov.uk,-0.32232300000000,BN15 9AB,2014-03-03,fhrs_5_en-GB,5,,FHRS,5
211109,,,,,Dandy's Natural Foods,Retailers - other,4613,10,,578637,10,,,PI/000036565,323,envsupport@adur-worthing.gov.uk,Adur,http://www.adur-worthing.gov.uk,,,2013-12-05,fhrs_3_en-GB,3,,FHRS,10
211110,372 Brighton Road,Shoreham-By-Sea,West Sussex,,Danniella's Wacky Diner,Restaurant/Cafe/Canteen,1,10,,174913,15,,50.83221500000000,PI/000030483,323,envsupport@adur-worthing.gov.uk,Adur,http://www.adur-worthing.gov.uk,-0.26871800000000,BN43 6RE,2013-12-11,fhrs_1_en-GB,1,,FHRS,20
211111,10 Brunswick Road,Shoreham-By-Sea,West Sussex,,Day Lewis Chemist,Retailers - other,4613,,,166950,,,50.83365700000000,PI/000010514,323,envsupport@adur-worthing.gov.uk,Adur,http://www.adur-worthing.gov.uk,-0.27257000000000,BN43 5WB,2008-09-03,fhrs_exempt_en-GB,Exempt,,FHRS,
211112,,,,,Dog 'N' Bun Hotdogs,Mobile caterer,7846,5,,693203,5,,,PI/000037664,323,envsupport@adur-worthing.gov.uk,Adur,http://www.adur-worthing.gov.uk,,,2014-07-29,fhrs_5_en-GB,5,,FHRS,5
211113,75-77 High Street,Shoreham-By-Sea,West Sussex,,Dominos Pizza,Takeaway/sandwich shop,7844,0,,175933,0,,50.83211400000000,PI/000034626,323,envsupport@adur-worthing.gov.uk,Adur,http://www.adur-worthing.gov.uk,-0.27773900000000,BN43 5DE,2012-11-28,fhrs_5_en-GB,5,,FHRS,0
211114,15 Brighton Road,Lancing,West Sussex,,Drumconner Rest Home,Hospitals/Childcare/Caring Premises,5,5,,160973,5,,50.81916700000000,PI/000000854,323,envsupport@adur-worthing.gov.uk,Adur,http://www.adur-worthing.gov.uk,-0.32989200000000,BN15 8RJ,2014-10-30,fhrs_5_en-GB,5,,FHRS,5
211115,368 Brighton Road,Shoreham-By-Sea,West Sussex,,Duke Of Wellington,Pub/bar/nightclub,7843,5,,620816,0,,50.83221500000000,PI/000036952,323,envsupport@adur-worthing.gov.uk,Adur,http://www.adur-worthing.gov.uk,-0.26871800000000,BN43 6RE,2013-12-03,fhrs_4_en-GB,4,,FHRS,10
211116,Eastbrook Primary School South Site,Gardner Road,Southwick,West Sussex,Eastbrook Primary Breakfast Club,School/college/university,7845,10,,216321,0,,50.83320800000000,PI/000036007,323,envsupport@adur-worthing.gov.uk,Adur,http://www.adur-worthing.gov.uk,-0.22235600000000,BN41 1PN,2012-02-23,fhrs_4_en-GB,4,,FHRS,5
211117,Gardner Road,Southwick,West Sussex,,Eastbrook Primary School South Site,School/college/university,7845,5,,485201,5,,50.83320800000000,PI/000025413,323,envsupport@adur-worthing.gov.uk,Adur,http://www.adur-worthing.gov.uk,-0.22235600000000,BN41 1PN,2008-03-13,fhrs_5_en-GB,5,,FHRS,5
211118,St Giles Close,Shoreham-By-Sea,West Sussex,,Elmcroft,Hospitals/Childcare/Caring Premises,5,0,,175586,0,,50.83941100000000,PI/000033036,323,envsupport@adur-worthing.gov.uk,Adur,http://www.adur-worthing.gov.uk,-0.26093800000000,BN43 6AT,2013-11-19,fhrs_5_en-GB,5,,FHRS,0
211119,58 Rosslyn Road,Shoreham-By-Sea,West Sussex,,Elreg House,Hospitals/Childcare/Caring Premises,5,0,,170331,0,,50.83542500000000,PI/000017292,323,envsupport@adur-worthing.gov.uk,Adur,http://www.adur-worthing.gov.uk,-0.26930900000000,BN43 6WP,2013-04-10,fhrs_5_en-GB,5,,FHRS,5
211120,The Empire Club,20 Penhill Road,Lancing,West Sussex,Empire Club,Other catering premises,7841,10,,164831,5,,50.82385100000000,PI/000006976,323,envsupport@adur-worthing.gov.uk,Adur,http://www.adur-worthing.gov.uk,-0.32100700000000,BN15 8HJ,2014-07-04,fhrs_4_en-GB,4,,FHRS,5
211121,The Farmers,17 South Street,Lancing,West Sussex,Farmers Hotel,Pub/bar/nightclub,7843,10,,176077,5,,50.82635900000000,PI/000035237,323,envsupport@adur-worthing.gov.uk,Adur,http://www.adur-worthing.gov.uk,-0.32284800000000,BN15 8AE,2010-11-15,fhrs_3_en-GB,3,,FHRS,10
211122,397 Brighton Road,Lancing,West Sussex,,Farmhouse Pizza,Takeaway/sandwich shop,7844,20,,404352,10,,50.82585300000000,PI/000036246,323,envsupport@adur-worthing.gov.uk,Adur,http://www.adur-worthing.gov.uk,-0.29723700000000,BN15 8JX,2014-03-28,fhrs_1_en-GB,1,,FHRS,5
211123,The Ferry Inn,1 East Street,Shoreham-By-Sea,West Sussex,Ferry Inn,Pub/bar/nightclub,7843,5,,167775,0,,50.83220200000000,PI/000012089,323,envsupport@adur-worthing.gov.uk,Adur,http://www.adur-worthing.gov.uk,-0.27455500000000,BN43 5ZE,2012-11-27,fhrs_5_en-GB,5,,FHRS,5
211124,92 Manor Road,Lancing,West Sussex,,Fircroft News,Retailers - other,4613,10,,163843,0,,50.83766900000000,PI/000005413,323,envsupport@adur-worthing.gov.uk,Adur,http://www.adur-worthing.gov.uk,-0.32757000000000,BN15 0HD,2013-03-15,fhrs_4_en-GB,4,,FHRS,5
211125,Eastbrook Primary School South Site,Gardner Road,Southwick,West Sussex,Fishersgate Nursery,Restaurant/Cafe/Canteen,1,0,,176229,0,,50.83320800000000,PI/000035956,323,envsupport@adur-worthing.gov.uk,Adur,http://www.adur-worthing.gov.uk,-0.22235600000000,BN41 1PN,2014-09-24,fhrs_5_en-GB,5,,FHRS,0
211126,58 Mile Oak Road,Southwick,West Sussex,,Flair4Cakes,Other catering premises,7841,5,,539903,0,,50.84168600000000,PI/000026500,323,envsupport@adur-worthing.gov.uk,Adur,http://www.adur-worthing.gov.uk,-0.22747400000000,BN42 4QH,2014-02-25,fhrs_5_en-GB,5,,FHRS,0
211127,85-89 Brighton Road,Shoreham-By-Sea,West Sussex,,Food Franchise Sussex Yacht Club,Pub/bar/nightclub,7843,10,,629574,0,,50.83222300000000,PI/000036510,323,envsupport@adur-worthing.gov.uk,Adur,http://www.adur-worthing.gov.uk,-0.27289200000000,BN43 6RF,2014-01-17,fhrs_4_en-GB,4,,FHRS,10
211128,116 High Street,Shoreham-By-Sea,West Sussex,,For UR Convenience,Retailers - other,4613,10,,491685,5,,50.83252100000000,PI/000034627,323,envsupport@adur-worthing.gov.uk,Adur,http://www.adur-worthing.gov.uk,-0.27788000000000,BN43 5DB,2014-09-30,fhrs_4_en-GB,4,,FHRS,5
211129,132 South Street,Lancing,West Sussex,,Forbidden Palace,Restaurant/Cafe/Canteen,1,5,,175888,5,,50.82207600000000,PI/000034402,323,envsupport@adur-worthing.gov.uk,Adur,http://www.adur-worthing.gov.uk,-0.32452100000000,BN15 8AU,2013-06-10,fhrs_4_en-GB,4,,FHRS,10
211130,30 Southwick Square,Southwick,West Sussex,,Forfars Bakers Ltd,Retailers - other,4613,5,,174088,5,,50.83446000000000,PI/000027997,323,envsupport@adur-worthing.gov.uk,Adur,http://www.adur-worthing.gov.uk,-0.23665300000000,BN42 4FJ,2013-07-23,fhrs_5_en-GB,5,,FHRS,5
211131,Seaside Primary School,Freshbrook Road,Lancing,West Sussex,Formerly Freshbrook First,School/college/university,7845,5,,164439,5,,50.82657500000000,PI/000006295,323,envsupport@adur-worthing.gov.uk,Adur,http://www.adur-worthing.gov.uk,-0.31283000000000,BN15 8DL,2010-03-12,fhrs_5_en-GB,5,,FHRS,5
211132,8 Windmill Parade,163-183 Old Shoreham Road,Southwick,West Sussex,Fortune Inn,Takeaway/sandwich shop,7844,10,,187556,10,,50.84049500000000,PI/000036022,323,envsupport@adur-worthing.gov.uk,Adur,http://www.adur-worthing.gov.uk,-0.23313000000000,BN42 4QB,2013-03-25,fhrs_3_en-GB,3,,FHRS,10
211133,80 Crabtree Lane,Lancing,West Sussex,,Four Seasons Takeaway,Takeaway/sandwich shop,7844,10,,491687,10,,50.83206500000000,PI/000036346,323,envsupport@adur-worthing.gov.uk,Adur,http://www.adur-worthing.gov.uk,-0.32189100000000,BN15 9PJ,2014-01-06,fhrs_2_en-GB,2,,FHRS,15
211134,37 Southwick Square,Southwick,West Sussex,,Fox's Fruit and Veg,Retailers - other,4613,10,,634325,10,,50.83411300000000,PI/000037300,323,envsupport@adur-worthing.gov.uk,Adur,http://www.adur-worthing.gov.uk,-0.23632500000000,BN42 4FP,2014-02-11,fhrs_3_en-GB,3,,FHRS,10
211135,78 High Street,Shoreham-By-Sea,West Sussex,,Frank's Kitchen,Takeaway/sandwich shop,7844,20,,243697,5,,50.83252100000000,PI/000036168,323,envsupport@adur-worthing.gov.uk,Adur,http://www.adur-worthing.gov.uk,-0.27788000000000,BN43 5DB,2015-01-15,fhrs_1_en-GB,1,,FHRS,15
211136,Southwick Community Centre,24 Southwick Street,Southwick,West Sussex,Friday Market,Retailers - other,4613,5,,175348,10,,50.83451700000000,PI/000031968,323,envsupport@adur-worthing.gov.uk,Adur,http://www.adur-worthing.gov.uk,-0.23393800000000,BN42 4TE,2011-01-28,fhrs_4_en-GB,4,,FHRS,0
211137,West Street,Sompting,West Sussex,,Gardeners Arms,Pub/bar/nightclub,7843,5,,175742,5,,50.83460100000000,PI/000033683,323,envsupport@adur-worthing.gov.uk,Adur,http://www.adur-worthing.gov.uk,-0.35408000000000,BN15 0AR,2014-12-08,fhrs_5_en-GB,5,,FHRS,5
211138,20-22 Queens Parade,North Road,Lancing,West Sussex,Garretts Newsagents,Retailers - other,4613,10,,164366,5,,50.82943600000000,PI/000006174,323,envsupport@adur-worthing.gov.uk,Adur,http://www.adur-worthing.gov.uk,-0.32231200000000,BN15 9BA,2011-01-24,fhrs_3_en-GB,3,,FHRS,10
211139,45 South Street,Lancing,West Sussex,,Gill Pharmacy,Retailers - other,4613,,,174903,,,50.82483200000000,PI/000030456,323,envsupport@adur-worthing.gov.uk,Adur,http://www.adur-worthing.gov.uk,-0.32232100000000,BN15 8AN,2009-01-13,fhrs_exempt_en-GB,Exempt,,FHRS,
211140,31-32 East Street,Shoreham-By-Sea,West Sussex,,Ginger & Dobbs,Retailers - other,4613,10,,629573,10,,50.83294300000000,PI/000036430,323,envsupport@adur-worthing.gov.uk,Adur,http://www.adur-worthing.gov.uk,-0.27354800000000,BN43 5ZD,2014-01-07,fhrs_2_en-GB,2,,FHRS,15
211141,Middle Road,Shoreham-By-Sea,West Sussex,,Glebelands Day Care Centre,Other catering premises,7841,0,,169280,0,,50.83615700000000,PI/000014809,323,envsupport@adur-worthing.gov.uk,Adur,http://www.adur-worthing.gov.uk,-0.26105900000000,BN43 6GA,2014-09-19,fhrs_5_en-GB,5,,FHRS,5
211142,2 Hillbarn Parade,120 Upper Brighton Road,Sompting,West Sussex,Golden Fish,Takeaway/sandwich shop,7844,5,,176081,10,,50.83778300000000,PI/000035248,323,envsupport@adur-worthing.gov.uk,Adur,http://www.adur-worthing.gov.uk,-0.33559000000000,BN15 0LH,2013-08-29,fhrs_4_en-GB,4,,FHRS,5
211143,1-3 St Marys Road,Shoreham-By-Sea,West Sussex,,Greens Chemist,Retailers - other,4613,,,170554,,,50.83321900000000,PI/000017899,323,envsupport@adur-worthing.gov.uk,Adur,http://www.adur-worthing.gov.uk,-0.27335300000000,BN43 5ZA,2009-02-10,fhrs_exempt_en-GB,Exempt,,FHRS,
211144,6-8 Victoria Road,Southwick,West Sussex,,Greenways,Hospitals/Childcare/Caring Premises,5,5,,174472,10,,50.83255000000000,PI/000029172,323,envsupport@adur-worthing.gov.uk,Adur,http://www.adur-worthing.gov.uk,-0.24124000000000,BN42 4DH,2013-09-12,fhrs_4_en-GB,4,,FHRS,5
211145,Brighton Road,Shoreham-By-Sea,West Sussex,,Halfords,Retailers - other,4613,5,,657071,0,,50.83256800000000,PI/000010472,323,envsupport@adur-worthing.gov.uk,Adur,http://www.adur-worthing.gov.uk,-0.25801100000000,BN43 6RJ,2014-02-07,fhrs_5_en-GB,5,,FHRS,5
211146,,,,,Hannah's  Cake Pops,Other catering premises,7841,5,,703691,5,,,PI/000037660,323,envsupport@adur-worthing.gov.uk,Adur,http://www.adur-worthing.gov.uk,,,2014-09-09,fhrs_5_en-GB,5,,FHRS,5
211147,389 Brighton Road,Lancing,West Sussex,,Happy Home,Takeaway/sandwich shop,7844,20,,370907,15,,50.82585300000000,PI/000036243,323,envsupport@adur-worthing.gov.uk,Adur,http://www.adur-worthing.gov.uk,-0.29723700000000,BN15 8JX,2014-01-16,fhrs_1_en-GB,1,,FHRS,15
211148,Harmony House Nursing Home,283 Old Shoreham Road,Southwick,West Sussex,Harmony House,Hospitals/Childcare/Caring Premises,5,0,,710159,5,,50.83936200000000,PI/000035142,323,envsupport@adur-worthing.gov.uk,Adur,http://www.adur-worthing.gov.uk,-0.22489200000000,BN42 4LP,2014-09-24,fhrs_5_en-GB,5,,FHRS,5
211149,8 The Meadway,Shoreham-By-Sea,West Sussex,,Harpers Ferry,Hotel/bed & breakfast/guest house,7842,10,,170856,5,,50.82879700000000,PI/000018842,323,envsupport@adur-worthing.gov.uk,Adur,http://www.adur-worthing.gov.uk,-0.26867400000000,BN43 5RP,2010-04-27,fhrs_4_en-GB,4,,FHRS,0
211150,Holmbush Centre,Upper Shoreham Road,Shoreham-By-Sea,,Harris And Hoole,Restaurant/Cafe/Canteen,1,10,,703690,10,,50.84212600000000,PI/000037604,323,envsupport@adur-worthing.gov.uk,Adur,http://www.adur-worthing.gov.uk,-0.25190300000000,BN43 6TD,2014-09-01,fhrs_3_en-GB,3,,FHRS,10
211151,2 Windmill Parade,163-183 Old Shoreham Road,Southwick,West Sussex,Harrisons Pharmacy,Retailers - other,4613,,,173754,,,50.84049500000000,PI/000026856,323,envsupport@adur-worthing.gov.uk,Adur,http://www.adur-worthing.gov.uk,-0.23313000000000,BN42 4QB,2008-07-15,fhrs_exempt_en-GB,Exempt,,FHRS,
211152,Britannia Inn,98 Grinstead Lane,Lancing,West Sussex,Harvester,Pub/bar/nightclub,7843,5,,163043,5,,50.83133800000000,PI/000004119,323,envsupport@adur-worthing.gov.uk,Adur,http://www.adur-worthing.gov.uk,-0.31950300000000,BN15 9DP,2013-06-03,fhrs_5_en-GB,5,,FHRS,5
211153,36 East Street,Shoreham-By-Sea,West Sussex,,Hector's Shed,Restaurant/Cafe/Canteen,1,10,,167808,10,,50.83294300000000,PI/000012125,323,envsupport@adur-worthing.gov.uk,Adur,http://www.adur-worthing.gov.uk,-0.27354800000000,BN43 5ZD,2013-12-13,fhrs_3_en-GB,3,,FHRS,10
211154,29 Brunswick Road,Shoreham-By-Sea,West Sussex,,Hellen News,Retailers - other,4613,20,,650319,0,,50.83393100000000,PI/000036374,323,envsupport@adur-worthing.gov.uk,Adur,http://www.adur-worthing.gov.uk,-0.27288600000000,BN43 5WA,2014-03-25,fhrs_1_en-GB,1,,FHRS,10
211155,57-60 Dolphin Road,Shoreham-By-Sea,West Sussex,,Higgidy Irresistible Pies (Mobile),Mobile caterer,7846,,,176212,,,50.83341800000000,PI/000035875,323,envsupport@adur-worthing.gov.uk,Adur,http://www.adur-worthing.gov.uk,-0.26070600000000,BN43 6PB,2014-04-04,fhrs_5_en-GB,5,,FHRS,
211156,2 Queens Parade,North Road,Lancing,West Sussex,Hippy Daze,Restaurant/Cafe/Canteen,1,5,,175335,5,,50.82943600000000,PI/000031925,323,envsupport@adur-worthing.gov.uk,Adur,http://www.adur-worthing.gov.uk,-0.32231200000000,BN15 9BA,2012-03-09,fhrs_5_en-GB,5,,FHRS,5
211157,Shoreham College,St Julians Lane,Shoreham-By-Sea,West Sussex,Holroyd Howe Independent,School/college/university,7845,0,,175178,0,,50.83291100000000,PI/000031403,323,envsupport@adur-worthing.gov.uk,Adur,http://www.adur-worthing.gov.uk,-0.24670900000000,BN43 6YW,2014-01-17,fhrs_5_en-GB,5,,FHRS,0
211158,"Cafe, Terminal Building",14 Cecil Pashley Way,Shoreham (Brighton City) Airport,Lancing,Hummingbird Restaurant,Restaurant/Cafe/Canteen,1,5,,485209,5,,50.83307200000000,PI/000036342,323,envsupport@adur-worthing.gov.uk,Adur,http://www.adur-worthing.gov.uk,-0.29146500000000,BN43 5FF,2014-10-06,fhrs_4_en-GB,4,,FHRS,10
211159,54 High Street,Shoreham-By-Sea,West Sussex,,Ian & John Cuss Butchers,Retailers - other,4613,5,,175361,5,,50.83252100000000,PI/000032007,323,envsupport@adur-worthing.gov.uk,Adur,http://www.adur-worthing.gov.uk,-0.27788000000000,BN43 5DB,2014-11-25,fhrs_5_en-GB,5,,FHRS,5
211160,Aspect House,63 Spencer Road,Lancing Business Park,Lancing,Incentive Management,Restaurant/Cafe/Canteen,1,20,,657073,10,,50.82470300000000,PI/000036940,323,envsupport@adur-worthing.gov.uk,Adur,http://www.adur-worthing.gov.uk,-0.33213700000000,BN15 8UA,2014-03-25,fhrs_1_en-GB,1,,FHRS,5
211161,74-76 High Street,Shoreham-By-Sea,West Sussex,,Indian Cottage Tandoori,Takeaway/sandwich shop,7844,,,169024,,,50.83252100000000,PI/000014322,323,envsupport@adur-worthing.gov.uk,Adur,http://www.adur-worthing.gov.uk,-0.27788000000000,BN43 5DB,2014-03-04,fhrs_4_en-GB,4,,FHRS,
211162,29-31 Ferry Road,Shoreham-By-Sea,West Sussex,,Into The Blue,Restaurant/Cafe/Canteen,1,,,175729,,,50.82909800000000,PI/000033652,323,envsupport@adur-worthing.gov.uk,Adur,http://www.adur-worthing.gov.uk,-0.27200000000000,BN43 5RA,2014-05-09,fhrs_5_en-GB,5,,FHRS,
211163,,,,,J R Teas,Other catering premises,7841,5,,710160,0,,,PI/000037554,323,envsupport@adur-worthing.gov.uk,Adur,http://www.adur-worthing.gov.uk,,,2014-06-19,fhrs_5_en-GB,5,,FHRS,0
211164,6 The Broadway,Manor Hall Road,Southwick,West Sussex,J R's Fish Bar,Takeaway/sandwich shop,7844,5,,174618,0,,50.83681500000000,PI/000029606,323,envsupport@adur-worthing.gov.uk,Adur,http://www.adur-worthing.gov.uk,-0.23123800000000,BN42 4ND,2014-08-28,fhrs_5_en-GB,5,,FHRS,5
211165,,,,,Jacqui Hobbs - Personal Chef,Other catering premises,7841,5,,434319,5,,,PI/000014098,323,envsupport@adur-worthing.gov.uk,Adur,http://www.adur-worthing.gov.uk,,,2012-08-07,fhrs_5_en-GB,5,,FHRS,0
211166,7 Station Parade,South Street,Lancing,West Sussex,Jade Garden,Takeaway/sandwich shop,7844,5,,174935,5,,50.82683100000000,PI/000030578,323,envsupport@adur-worthing.gov.uk,Adur,http://www.adur-worthing.gov.uk,-0.32249100000000,BN15 8AA,2013-10-09,fhrs_5_en-GB,5,,FHRS,5
211167,90 Southwick Street,Southwick,West Sussex,,Janet's Celebration Cakes,Other catering premises,7841,0,,176085,0,,50.83865000000000,PI/000035256,323,envsupport@adur-worthing.gov.uk,Adur,http://www.adur-worthing.gov.uk,-0.23368200000000,BN42 4TJ,2011-01-10,fhrs_5_en-GB,5,,FHRS,0
211168,270 Upper Shoreham Road,Shoreham-By-Sea,West Sussex,,Jasmine,Takeaway/sandwich shop,7844,5,,174706,5,,50.84154100000000,PI/000029837,323,envsupport@adur-worthing.gov.uk,Adur,http://www.adur-worthing.gov.uk,-0.26027600000000,BN43 6BF,2013-03-28,fhrs_5_en-GB,5,,FHRS,5
211169,Unit 6,Tungsten Building,George Street,Southwick,Jasper's Corporate Catering Services,Other catering premises,7841,10,,404350,5,,50.83192800000000,PI/000031554,323,envsupport@adur-worthing.gov.uk,Adur,http://www.adur-worthing.gov.uk,-0.21976400000000,BN41 1RA,2014-01-28,fhrs_3_en-GB,3,,FHRS,10
211170,Car Park West Of Number 69,Marlborough Road,Lancing Business Park,Lancing,Jo Jo's,Mobile caterer,7846,10,,356917,10,,50.82095600000000,PI/000036238,323,envsupport@adur-worthing.gov.uk,Adur,http://www.adur-worthing.gov.uk,-0.33434000000000,,2013-12-06,fhrs_3_en-GB,3,,FHRS,10
211171,401 Brighton Road,Lancing,West Sussex,,Joyson News,Retailers - other,4613,10,,161338,5,,50.82585300000000,PI/000001329,323,envsupport@adur-worthing.gov.uk,Adur,http://www.adur-worthing.gov.uk,-0.29723700000000,BN15 8JX,2013-03-28,fhrs_3_en-GB,3,,FHRS,10
211172,,,,,Jule's Cupcakes,Other catering premises,7841,5,,166497,5,,,PI/000009670,323,envsupport@adur-worthing.gov.uk,Adur,http://www.adur-worthing.gov.uk,,,2011-11-11,fhrs_5_en-GB,5,,FHRS,5
211173,19 Belvedere Avenue,Lancing,West Sussex,,K & K Kakes,Other catering premises,7841,5,,548036,5,,50.82931700000000,PI/000036470,323,envsupport@adur-worthing.gov.uk,Adur,http://www.adur-worthing.gov.uk,-0.33218500000000,BN15 9QN,2013-05-09,fhrs_5_en-GB,5,,FHRS,5
211174,,,,,K & O Catering,Mobile caterer,7846,5,,193892,5,,,PI/000035643,323,envsupport@adur-worthing.gov.uk,Adur,http://www.adur-worthing.gov.uk,,,2014-01-21,fhrs_5_en-GB,5,,FHRS,5
211175,Kathleens Lodge,416 Upper Shoreham Road,Shoreham-By-Sea,West Sussex,Kathleens Lodge Rest Home,Hospitals/Childcare/Caring Premises,5,5,,170993,0,,50.84057900000000,PI/000019218,323,envsupport@adur-worthing.gov.uk,Adur,http://www.adur-worthing.gov.uk,-0.28275400000000,BN43 5NE,2014-09-17,fhrs_5_en-GB,5,,FHRS,0
211176,Romans Residential Home,1 Roman Road,Southwick,West Sussex,"Keychange Charity, Romans Care Home",Hospitals/Childcare/Caring Premises,5,0,,485205,0,,50.83931600000000,PI/000036240,323,envsupport@adur-worthing.gov.uk,Adur,http://www.adur-worthing.gov.uk,-0.23428200000000,BN42 4TP,2014-08-29,fhrs_5_en-GB,5,,FHRS,0
211177,,,,,Kims Cakes Shoreham,Other catering premises,7841,,,170116,,,,PI/000016617,323,envsupport@adur-worthing.gov.uk,Adur,http://www.adur-worthing.gov.uk,,,2013-04-23,fhrs_5_en-GB,5,,FHRS,
211178,405 Brighton Road,Lancing,West Sussex,,King's Fish Bar,Takeaway/sandwich shop,7844,5,,174663,5,,50.82585300000000,PI/000029721,323,envsupport@adur-worthing.gov.uk,Adur,http://www.adur-worthing.gov.uk,-0.29723700000000,BN15 8JX,2014-11-25,fhrs_5_en-GB,5,,FHRS,5
211179,28A Brighton Road,Lancing,West Sussex,,Kiosk,Restaurant/Cafe/Canteen,1,5,,175318,5,,50.82064100000000,PI/000031870,323,envsupport@adur-worthing.gov.uk,Adur,http://www.adur-worthing.gov.uk,-0.32418900000000,BN15 8RA,2014-06-16,fhrs_5_en-GB,5,,FHRS,5
211180,22 East Street,Shoreham-By-Sea,West Sussex,,La Galleria Restaurant,Restaurant/Cafe/Canteen,1,20,,167788,15,,50.83220200000000,PI/000012106,323,envsupport@adur-worthing.gov.uk,Adur,http://www.adur-worthing.gov.uk,-0.27455500000000,BN43 5ZE,2014-09-16,fhrs_1_en-GB,1,,FHRS,10
211181,Fishermans Wharf,Brighton Road,Shoreham-By-Sea,,La Poissonnerie,Manufacturers/packers,7839,5,,166929,10,,50.83187700000000,PI/000010484,323,envsupport@adur-worthing.gov.uk,Adur,http://www.adur-worthing.gov.uk,-0.25694300000000,BN43 6RN,2013-06-27,fhrs_4_en-GB,4,,FHRS,5
211182,129 South Street,Lancing,West Sussex,,Lancing Burger Bar,Takeaway/sandwich shop,7844,5,,165578,5,,50.82290900000000,PI/000008194,323,envsupport@adur-worthing.gov.uk,Adur,http://www.adur-worthing.gov.uk,-0.32368200000000,BN15 8AS,2014-11-10,fhrs_5_en-GB,5,,FHRS,5
211183,Dining Hall And Kitchen,Lancing College,College Drive,Lancing,Lancing College Catering (inhouse),School/college/university,7845,0,,175322,0,,,PI/000031892,323,envsupport@adur-worthing.gov.uk,Adur,http://www.adur-worthing.gov.uk,,,2014-01-22,fhrs_5_en-GB,5,,FHRS,5
211184,Lancing Parish Hall,96-98 South Street,Lancing,West Sussex,Lancing Country Market,Retailers - other,4613,5,,165690,5,,50.82382600000000,PI/000008367,323,envsupport@adur-worthing.gov.uk,Adur,http://www.adur-worthing.gov.uk,-0.32369200000000,BN15 8AJ,2010-06-25,fhrs_5_en-GB,5,,FHRS,5
211185,Lancing Football Club,Culver Road,Lancing,West Sussex,Lancing Football Club clubhouse,Other catering premises,7841,10,,162159,5,,50.82892600000000,PI/000002485,323,envsupport@adur-worthing.gov.uk,Adur,http://www.adur-worthing.gov.uk,-0.32369400000000,BN15 9AX,2010-09-02,fhrs_4_en-GB,4,,FHRS,5
211186,Leisure Centre,Lancing Manor,Manor Road,Lancing,Lancing Manor Leisure Centre,Other catering premises,7841,0,,174829,0,,50.83729700000000,PI/000030229,323,envsupport@adur-worthing.gov.uk,Adur,http://www.adur-worthing.gov.uk,-0.31863600000000,BN15 0PH,2014-03-21,fhrs_5_en-GB,5,,FHRS,5
211187,90 Manor Road,Lancing,West Sussex,,Lancing Oriental Express,Takeaway/sandwich shop,7844,10,,175340,10,,50.83766700000000,PI/000031934,323,envsupport@adur-worthing.gov.uk,Adur,http://www.adur-worthing.gov.uk,-0.32748500000000,BN15 0HD,2014-03-25,fhrs_3_en-GB,3,,FHRS,10
211188,Lancing Parish Hall,96-98 South Street,Lancing,West Sussex,Lancing Parish Council,Other catering premises,7841,5,,165689,5,,50.82382600000000,PI/000008366,323,envsupport@adur-worthing.gov.uk,Adur,http://www.adur-worthing.gov.uk,-0.32369200000000,BN15 8AJ,2010-02-12,fhrs_5_en-GB,5,,FHRS,5
211189,"Unit 5, Crown Buildings",33 Chartwell Road,Lancing Business Park,Lancing,Lancing Premier Bakery,Manufacturers/packers,7839,5,,175170,5,,50.82240100000000,PI/000031370,323,envsupport@adur-worthing.gov.uk,Adur,http://www.adur-worthing.gov.uk,-0.33466100000000,BN15 8SP,2014-03-04,fhrs_5_en-GB,5,,FHRS,5
211190,Shopsdam Road,Lancing,West Sussex,,Lancing Sailing Club,Other catering premises,7841,,,165342,,,50.82166700000000,PI/000007870,323,envsupport@adur-worthing.gov.uk,Adur,http://www.adur-worthing.gov.uk,-0.31366000000000,BN15 8ES,2013-03-25,fhrs_5_en-GB,5,,FHRS,
211191,Dept Of Transport Weighbridge,Old Shoreham Road,Lancing,West Sussex,Lancing Snack Bar (Mobile),Mobile caterer,7846,10,,175107,5,,50.83902600000000,PI/000031115,323,envsupport@adur-worthing.gov.uk,Adur,http://www.adur-worthing.gov.uk,-0.30898000000000,,2014-11-10,fhrs_4_en-GB,4,,FHRS,5
211192,105 North Road,Lancing,West Sussex,,Lancing Tabernacle,Other catering premises,7841,10,,175182,5,,50.83013600000000,PI/000031412,323,envsupport@adur-worthing.gov.uk,Adur,http://www.adur-worthing.gov.uk,-0.32217300000000,BN15 9BB,2013-02-04,fhrs_4_en-GB,4,,FHRS,0
211193,1 Penhill Road,Lancing,West Sussex,,Lancing Youth Centre,Other catering premises,7841,10,,164801,10,,50.82419500000000,PI/000006922,323,envsupport@adur-worthing.gov.uk,Adur,http://www.adur-worthing.gov.uk,-0.32117900000000,BN15 8HA,2010-04-08,fhrs_3_en-GB,3,,FHRS,5
211194,4 Laylands Road,Southwick,West Sussex,,Laylands News & Off Licence,Retailers - other,4613,20,,589155,5,,50.83283900000000,PI/000035836,323,envsupport@adur-worthing.gov.uk,Adur,http://www.adur-worthing.gov.uk,-0.22114900000000,BN41 1PP,2013-09-30,fhrs_1_en-GB,1,,FHRS,10
211195,Area 5,Southlands Hospital,Upper Shoreham Road,Shoreham-By-Sea,League of Friends Tea Shop,Restaurant/Cafe/Canteen,1,5,,176239,5,,,PI/000035996,323,envsupport@adur-worthing.gov.uk,Adur,http://www.adur-worthing.gov.uk,,,2013-11-19,fhrs_4_en-GB,4,,FHRS,10
211196,9 South Street,Lancing,West Sussex,,Lee House,Takeaway/sandwich shop,7844,10,,174700,10,,50.82635900000000,PI/000029823,323,envsupport@adur-worthing.gov.uk,Adur,http://www.adur-worthing.gov.uk,-0.32284800000000,BN15 8AE,2014-03-26,fhrs_3_en-GB,3,,FHRS,10
211197,,,,,Lesley's Cakes,Other catering premises,7841,5,,175180,5,,,PI/000031409,323,envsupport@adur-worthing.gov.uk,Adur,http://www.adur-worthing.gov.uk,,,2010-11-18,fhrs_5_en-GB,5,,FHRS,5
211198,Unit 1,The Co-Operative Complex,Ham Road,Shoreham-By-Sea,Lighters,Retailers - other,4613,,,168674,,,50.83409700000000,PI/000013610,323,envsupport@adur-worthing.gov.uk,Adur,http://www.adur-worthing.gov.uk,-0.27008200000000,BN43 6PA,2009-03-25,fhrs_exempt_en-GB,Exempt,,FHRS,
211199,17 Fishersgate Terrace,Southwick,West Sussex,,Ling Ling,Takeaway/sandwich shop,7844,,,650321,,,50.83098000000000,PI/000037442,323,envsupport@adur-worthing.gov.uk,Adur,http://www.adur-worthing.gov.uk,-0.21833700000000,BN41 1PH,2014-04-24,fhrs_4_en-GB,4,,FHRS,
211200,4 Station Parade,South Street,Lancing,West Sussex,Lions Charity Shop,Retailers - other,4613,,,174934,,,50.82679600000000,PI/000030573,323,envsupport@adur-worthing.gov.uk,Adur,http://www.adur-worthing.gov.uk,-0.32254900000000,BN15 8AA,2010-02-25,fhrs_exempt_en-GB,Exempt,,FHRS,
211201,Southwick Christian Community Church,1-5 Roman Crescent,Southwick,West Sussex,Lite Bites,Restaurant/Cafe/Canteen,1,,,175825,,,50.83729800000000,PI/000034084,323,envsupport@adur-worthing.gov.uk,Adur,http://www.adur-worthing.gov.uk,-0.23580700000000,BN42 4TY,2014-11-04,fhrs_4_en-GB,4,,FHRS,
211202,The Globe Primary School,Irene Avenue,Lancing,West Sussex,Little Acorns Pre-School,School/college/university,7845,,,176245,,,50.83322900000000,PI/000036015,323,envsupport@adur-worthing.gov.uk,Adur,http://www.adur-worthing.gov.uk,-0.32653600000000,BN15 9NZ,2014-01-31,fhrs_5_en-GB,5,,FHRS,
211203,418 Upper Shoreham Road,Shoreham-By-Sea,West Sussex,,Littlesaurus Nursery,Hospitals/Childcare/Caring Premises,5,5,,175943,0,,50.84057900000000,PI/000034650,323,envsupport@adur-worthing.gov.uk,Adur,http://www.adur-worthing.gov.uk,-0.28275400000000,BN43 5NE,2014-09-22,fhrs_5_en-GB,5,,FHRS,0
211204,,,,,Liz's Cakes,Other catering premises,7841,5,,161979,5,,,PI/000002122,323,envsupport@adur-worthing.gov.uk,Adur,http://www.adur-worthing.gov.uk,,,2012-03-15,fhrs_5_en-GB,5,,FHRS,5
211205,3-4 Windmill Parade,163-183 Old Shoreham Road,Southwick,West Sussex,Londis,Retailers - other,4613,5,,173756,5,,50.84049500000000,PI/000026859,323,envsupport@adur-worthing.gov.uk,Adur,http://www.adur-worthing.gov.uk,-0.23313000000000,BN42 4QB,2012-02-17,fhrs_5_en-GB,5,,FHRS,5
211206,18 Southwick Square,Southwick,West Sussex,,Long Feng Foods,Retailers - supermarkets/hypermarkets,7840,10,,175887,5,,50.83446000000000,PI/000034401,323,envsupport@adur-worthing.gov.uk,Adur,http://www.adur-worthing.gov.uk,-0.23665300000000,BN42 4FJ,2012-06-12,fhrs_4_en-GB,4,,FHRS,5
211207,15 Ferry Road,Shoreham-By-Sea,West Sussex,,Loon Fung Take Away,Takeaway/sandwich shop,7844,,,168204,,,50.82909800000000,PI/000012724,323,envsupport@adur-worthing.gov.uk,Adur,http://www.adur-worthing.gov.uk,-0.27200000000000,BN43 5RA,2014-07-10,fhrs_3_en-GB,3,,FHRS,
211208,9 Seadown Parade,16 Bowness Avenue,Sompting,West Sussex,Lotus House,Takeaway/sandwich shop,7844,20,,171567,10,,50.82697400000000,PI/000020715,323,envsupport@adur-worthing.gov.uk,Adur,http://www.adur-worthing.gov.uk,-0.34005000000000,BN15 9TP,2013-03-25,fhrs_1_en-GB,1,,FHRS,5
211209,21 Southwick Square,Southwick,West Sussex,,MacFarlanes Newsagents,Retailers - other,4613,10,,174959,5,,50.83411300000000,PI/000030628,323,envsupport@adur-worthing.gov.uk,Adur,http://www.adur-worthing.gov.uk,-0.23632500000000,BN42 4FP,2012-10-11,fhrs_4_en-GB,4,,FHRS,5
211210,93 Crabtree Lane,Lancing,West Sussex,,Maginness,Retailers - other,4613,,,162113,,,50.83192600000000,PI/000002387,323,envsupport@adur-worthing.gov.uk,Adur,http://www.adur-worthing.gov.uk,-0.32787500000000,BN15 9NH,2011-09-01,fhrs_5_en-GB,5,,FHRS,
211211,34 Crabtree Lane,Lancing,West Sussex,,Magnet News,Retailers - other,4613,5,,198522,5,,50.83202200000000,PI/000036073,323,envsupport@adur-worthing.gov.uk,Adur,http://www.adur-worthing.gov.uk,-0.32074200000000,BN15 9PQ,2014-02-04,fhrs_5_en-GB,5,,FHRS,5
211212,21 Ferry Road,Shoreham-By-Sea,West Sussex,,Mahee Indian Takeaway,Takeaway/sandwich shop,7844,,,661454,,,50.82909800000000,PI/000037467,323,envsupport@adur-worthing.gov.uk,Adur,http://www.adur-worthing.gov.uk,-0.27200000000000,BN43 5RA,2014-12-01,fhrs_5_en-GB,5,,FHRS,
211213,Manor Road,Lancing,West Sussex,,Manor Road Service Station,Retailers - other,4613,5,,163847,5,,50.83772700000000,PI/000005427,323,envsupport@adur-worthing.gov.uk,Adur,http://www.adur-worthing.gov.uk,-0.32850500000000,BN15 0HL,2013-06-17,fhrs_5_en-GB,5,,FHRS,5
211214,61 Mansell Road,Shoreham-By-Sea,West Sussex,,Mansell Road Post Office And News,Retailers - other,4613,10,,169469,5,,50.83798300000000,PI/000015160,323,envsupport@adur-worthing.gov.uk,Adur,http://www.adur-worthing.gov.uk,-0.25504000000000,BN43 6GT,2014-02-11,fhrs_3_en-GB,3,,FHRS,10
211215,,,,,Margot Verhoeven & Tamar Couzens,Mobile caterer,7846,10,,623074,10,,,PI/000037122,323,envsupport@adur-worthing.gov.uk,Adur,http://www.adur-worthing.gov.uk,,,2013-12-06,fhrs_4_en-GB,4,,FHRS,0
211216,Holmbush Centre,Upper Shoreham Road,Shoreham-By-Sea,,Marks And Spencers Plc,Retailers - supermarkets/hypermarkets,7840,0,,171016,0,,50.84212600000000,PI/000019289,323,envsupport@adur-worthing.gov.uk,Adur,http://www.adur-worthing.gov.uk,-0.25190300000000,BN43 6TD,2014-08-28,fhrs_5_en-GB,5,,FHRS,5
211217,West Street,Sompting,West Sussex,,Marquis Of Granby,Pub/bar/nightclub,7843,10,,534413,15,,50.83453400000000,PI/000036368,323,envsupport@adur-worthing.gov.uk,Adur,http://www.adur-worthing.gov.uk,-0.35314500000000,BN15 0AP,2013-02-26,fhrs_2_en-GB,2,,FHRS,10
211218,447 Upper Shoreham Road,Shoreham-By-Sea,West Sussex,,Martin's Newsagents,Retailers - other,4613,5,,174909,5,,50.84003000000000,PI/000030468,323,envsupport@adur-worthing.gov.uk,Adur,http://www.adur-worthing.gov.uk,-0.28271700000000,BN43 5NF,2014-08-28,fhrs_2_en-GB,2,,FHRS,15
211219,6 Southwick Square,Southwick,West Sussex,,Martins Pharmacy,Retailers - other,4613,,,174102,,,50.83462300000000,PI/000028019,323,envsupport@adur-worthing.gov.uk,Adur,http://www.adur-worthing.gov.uk,-0.23556700000000,BN42 4FB,2009-02-26,fhrs_exempt_en-GB,Exempt,,FHRS,
211220,Eastern Avenue,Shoreham-By-Sea,West Sussex,,Mcdonalds,Takeaway/sandwich shop,7844,0,,175325,0,,50.83335000000000,PI/000031905,323,envsupport@adur-worthing.gov.uk,Adur,http://www.adur-worthing.gov.uk,-0.26525300000000,BN43 6PW,2014-08-29,fhrs_5_en-GB,5,,FHRS,0
211221,Holmbush Centre,Upper Shoreham Road,Shoreham-By-Sea,West Sussex,McDonalds,Takeaway/sandwich shop,7844,0,,176059,0,,50.84212600000000,PI/000035190,323,envsupport@adur-worthing.gov.uk,Adur,http://www.adur-worthing.gov.uk,-0.25190300000000,BN43 6TD,2013-11-20,fhrs_5_en-GB,5,,FHRS,5
211222,9 Cissbury Way,Shoreham-By-Sea,West Sussex,,Me and Fab Cakes,Other catering premises,7841,5,,216324,10,,50.84379100000000,PI/000035977,323,envsupport@adur-worthing.gov.uk,Adur,http://www.adur-worthing.gov.uk,-0.27551900000000,BN43 5FW,2012-03-05,fhrs_4_en-GB,4,,FHRS,5
211223,Meadowcroft Rest Home,30 Buckingham Road,Shoreham-By-Sea,West Sussex,Meadowcroft Residential Care Home,Hospitals/Childcare/Caring Premises,5,0,,175303,0,,50.83657000000000,PI/000031834,323,envsupport@adur-worthing.gov.uk,Adur,http://www.adur-worthing.gov.uk,-0.27129800000000,BN43 5UB,2014-09-16,fhrs_5_en-GB,5,,FHRS,0
211224,68-70 Brighton Road,Lancing,West Sussex,,Mermaid Lodge,Hospitals/Childcare/Caring Premises,5,5,,161459,5,,50.82319500000000,PI/000001466,323,envsupport@adur-worthing.gov.uk,Adur,http://www.adur-worthing.gov.uk,-0.30799700000000,BN15 8LW,2014-12-08,fhrs_5_en-GB,5,,FHRS,5
211225,170-172 South Street,Lancing,West Sussex,,Meze-Meze,Restaurant/Cafe/Canteen,1,5,,574562,5,,50.82207600000000,PI/000036462,323,envsupport@adur-worthing.gov.uk,Adur,http://www.adur-worthing.gov.uk,-0.32452100000000,BN15 8AU,2013-08-01,fhrs_5_en-GB,5,,FHRS,5
211226,78 Manor Road,Lancing,West Sussex,,Micks Chips,Takeaway/sandwich shop,7844,,,175349,,,50.83766900000000,PI/000031970,323,envsupport@adur-worthing.gov.uk,Adur,http://www.adur-worthing.gov.uk,-0.32757000000000,BN15 0HD,2014-07-03,fhrs_5_en-GB,5,,FHRS,
211227,,,,,Mick's Snack Van,Mobile caterer,7846,10,,175100,5,,,PI/000031105,323,envsupport@adur-worthing.gov.uk,Adur,http://www.adur-worthing.gov.uk,,,2013-12-06,fhrs_4_en-GB,4,,FHRS,5
211228,1 Middle Road,Shoreham-By-Sea,West Sussex,,Middle Road Off Licence,Retailers - other,4613,10,,175213,5,,50.83615700000000,PI/000031525,323,envsupport@adur-worthing.gov.uk,Adur,http://www.adur-worthing.gov.uk,-0.26105900000000,BN43 6GA,2013-03-14,fhrs_4_en-GB,4,,FHRS,0
211229,274 Upper Shoreham Road,Shoreham-By-Sea,West Sussex,,Millan Tandoori Restaurant,Restaurant/Cafe/Canteen,1,,,170947,,,50.84154100000000,PI/000019077,323,envsupport@adur-worthing.gov.uk,Adur,http://www.adur-worthing.gov.uk,-0.26027600000000,BN43 6BF,2014-12-16,fhrs_4_en-GB,4,,FHRS,
211230,Miller And Carter,43 Manor Road,Lancing,West Sussex,Miller and Carter,Pub/bar/nightclub,7843,5,,175324,5,,50.83794700000000,PI/000031904,323,envsupport@adur-worthing.gov.uk,Adur,http://www.adur-worthing.gov.uk,-0.32128300000000,BN15 0EY,2014-01-21,fhrs_5_en-GB,5,,FHRS,5
211231,48-52 High Street,Shoreham-By-Sea,West Sussex,,Millers Cafe Deli,Restaurant/Cafe/Canteen,1,,,634324,,,50.83193100000000,PI/000037280,323,envsupport@adur-worthing.gov.uk,Adur,http://www.adur-worthing.gov.uk,-0.27564400000000,BN43 5DA,2014-05-14,fhrs_5_en-GB,5,,FHRS,
211232,Unit 3,The Co-Operative Complex,Ham Road,Shoreham-By-Sea,Mo's Pizza,Takeaway/sandwich shop,7844,5,,175868,0,,50.83409700000000,PI/000034351,323,envsupport@adur-worthing.gov.uk,Adur,http://www.adur-worthing.gov.uk,-0.27008200000000,BN43 6PA,2013-11-21,fhrs_5_en-GB,5,,FHRS,0
211233,85-87 Brighton Road,Lancing,West Sussex,,Mount Hermon Rest Home,Hospitals/Childcare/Caring Premises,5,5,,589156,0,,50.82046100000000,PI/000036514,323,envsupport@adur-worthing.gov.uk,Adur,http://www.adur-worthing.gov.uk,-0.32609800000000,BN15 8RB,2013-09-11,fhrs_5_en-GB,5,,FHRS,5
211234,131 South Street,Lancing,West Sussex,,Mr Chips,Takeaway/sandwich shop,7844,5,,176230,5,,50.82290900000000,PI/000035960,323,envsupport@adur-worthing.gov.uk,Adur,http://www.adur-worthing.gov.uk,-0.32368200000000,BN15 8AS,2013-02-18,fhrs_5_en-GB,5,,FHRS,5
211235,141-143 The Gardens,Southwick,West Sussex,,Mulberry Stores,Retailers - other,4613,5,,175312,5,,50.83245600000000,PI/000031850,323,envsupport@adur-worthing.gov.uk,Adur,http://www.adur-worthing.gov.uk,-0.22729900000000,BN42 4AR,2010-09-24,fhrs_5_en-GB,5,,FHRS,5
211236,10 Kent Close,Shoreham-By-Sea,West Sussex,,Mulberrys,Retailers - other,4613,10,,175217,0,,50.83515000000000,PI/000031529,323,envsupport@adur-worthing.gov.uk,Adur,http://www.adur-worthing.gov.uk,-0.24906700000000,BN43 6LQ,2013-12-05,fhrs_4_en-GB,4,,FHRS,10
211237,42 Crabtree Lane,Lancing,West Sussex,,Mulberrys,Retailers - other,4613,5,,175897,5,,50.83202200000000,PI/000034420,323,envsupport@adur-worthing.gov.uk,Adur,http://www.adur-worthing.gov.uk,-0.32074200000000,BN15 9PQ,2012-11-26,fhrs_5_en-GB,5,,FHRS,5
211238,14 Crabtree Lane,Lancing,West Sussex,,Mya Masala,Takeaway/sandwich shop,7844,10,,661443,5,,50.83202200000000,PI/000036930,323,envsupport@adur-worthing.gov.uk,Adur,http://www.adur-worthing.gov.uk,-0.32074200000000,BN15 9PQ,2014-11-03,fhrs_4_en-GB,4,,FHRS,0
211239,86 Manor Road,Lancing,West Sussex,,N LancingButchers,Retailers - other,4613,,,657074,,,50.83766900000000,PI/000037454,323,envsupport@adur-worthing.gov.uk,Adur,http://www.adur-worthing.gov.uk,-0.32757000000000,BN15 0HD,2014-11-27,fhrs_4_en-GB,4,,FHRS,
211240,14-16 North Road,Lancing,West Sussex,,Naaz Tandoori,Takeaway/sandwich shop,7844,10,,164351,5,,50.82739500000000,PI/000006148,323,envsupport@adur-worthing.gov.uk,Adur,http://www.adur-worthing.gov.uk,-0.32234300000000,BN15 9AE,2014-03-24,fhrs_4_en-GB,4,,FHRS,5
211241,32 Crabtree Lane,Lancing,West Sussex,,Naima,Takeaway/sandwich shop,7844,5,,571612,5,,50.83202200000000,PI/000036515,323,envsupport@adur-worthing.gov.uk,Adur,http://www.adur-worthing.gov.uk,-0.32074200000000,BN15 9PQ,2013-06-20,fhrs_5_en-GB,5,,FHRS,5
211242,93 South Street,Lancing,West Sussex,,New China,Takeaway/sandwich shop,7844,5,,564184,5,,50.82355500000000,PI/000036503,323,envsupport@adur-worthing.gov.uk,Adur,http://www.adur-worthing.gov.uk,-0.32294900000000,BN15 8AP,2013-06-13,fhrs_4_en-GB,4,,FHRS,10
211243,Lancing Manor,Manor Road,Lancing,,Noahs Ark Childrens Nursery,Other catering premises,7841,5,,175128,0,,50.83729700000000,PI/000031203,323,envsupport@adur-worthing.gov.uk,Adur,http://www.adur-worthing.gov.uk,-0.31863600000000,BN15 0PH,2013-12-09,fhrs_4_en-GB,4,,FHRS,10
211244,Northbrook College,10 Cecil Pashley Way,Shoreham (Brighton City) Airport,Lancing,Northbrook College (2),School/college/university,7845,0,,175302,5,,50.83307200000000,PI/000031833,323,envsupport@adur-worthing.gov.uk,Adur,http://www.adur-worthing.gov.uk,-0.29146500000000,BN43 5FF,2012-12-17,fhrs_5_en-GB,5,,FHRS,5
211245,36 Kingston Broadway,Shoreham-By-Sea,West Sussex,,Nutmegs Cafe,Restaurant/Cafe/Canteen,1,10,,169296,10,,50.84179800000000,PI/000014838,323,envsupport@adur-worthing.gov.uk,Adur,http://www.adur-worthing.gov.uk,-0.24556600000000,BN43 6TE,2014-09-10,fhrs_2_en-GB,2,,FHRS,15
211246,,,,,Oatopia,Mobile caterer,7846,5,,657075,0,,,PI/000037466,323,envsupport@adur-worthing.gov.uk,Adur,http://www.adur-worthing.gov.uk,,,2014-04-02,fhrs_5_en-GB,5,,FHRS,0
211247,Kingston Buci Children And Family Centre,Middle Road,Shoreham-By-Sea,West Sussex,Ocean Cafe,Restaurant/Cafe/Canteen,1,5,,548554,0,,50.83615700000000,PI/000036487,323,envsupport@adur-worthing.gov.uk,Adur,http://www.adur-worthing.gov.uk,-0.26105900000000,BN43 6GA,2015-01-21,fhrs_5_en-GB,5,,FHRS,5
211248,158-160 South Street,Lancing,West Sussex,,Ocean View Diving Club (Bar),Pub/bar/nightclub,7843,5,,175296,0,,50.82207600000000,PI/000031813,323,envsupport@adur-worthing.gov.uk,Adur,http://www.adur-worthing.gov.uk,-0.32452100000000,BN15 8AU,2009-01-28,fhrs_5_en-GB,5,,FHRS,0
211249,Ball Tree Croft,Western Road North,Sompting,,Office And Day Centre,Hospitals/Childcare/Caring Premises,5,0,,175157,0,,50.83383100000000,PI/000031325,323,envsupport@adur-worthing.gov.uk,Adur,http://www.adur-worthing.gov.uk,-0.33814100000000,,2014-01-22,fhrs_5_en-GB,5,,FHRS,0
211250,2-4 Buckingham Road,Shoreham-By-Sea,West Sussex,,One Stop,Retailers - other,4613,5,,167111,10,,50.83515700000000,PI/000010778,323,envsupport@adur-worthing.gov.uk,Adur,http://www.adur-worthing.gov.uk,-0.27247200000000,BN43 5UA,2014-06-19,fhrs_4_en-GB,4,,FHRS,5
211251,5 The Parade,Cokeham Road,Sompting,West Sussex,One Stop,Retailers - other,4613,5,,171770,5,,50.83299000000000,PI/000021283,323,envsupport@adur-worthing.gov.uk,Adur,http://www.adur-worthing.gov.uk,-0.33686900000000,BN15 0AH,2010-07-06,fhrs_5_en-GB,5,,FHRS,5
211252,3 Middle Road,Shoreham-By-Sea,West Sussex,,One Stop Convenience Shop,Retailers - other,4613,20,,175298,10,,50.83615700000000,PI/000031817,323,envsupport@adur-worthing.gov.uk,Adur,http://www.adur-worthing.gov.uk,-0.26105900000000,BN43 6GA,2014-02-13,fhrs_1_en-GB,1,,FHRS,15
211253,7-9 New Road,Shoreham-By-Sea,West Sussex,,P & C Quality Butchers,Retailers - other,4613,5,,169705,5,,50.83223200000000,PI/000015757,323,envsupport@adur-worthing.gov.uk,Adur,http://www.adur-worthing.gov.uk,-0.27294900000000,BN43 6RA,2013-05-15,fhrs_5_en-GB,5,,FHRS,5
211254,11 Ferry Road,Shoreham-By-Sea,West Sussex,,Pacino's,Takeaway/sandwich shop,7844,10,,175336,5,,50.82909800000000,PI/000031928,323,envsupport@adur-worthing.gov.uk,Adur,http://www.adur-worthing.gov.uk,-0.27200000000000,BN43 5RA,2013-11-08,fhrs_4_en-GB,4,,FHRS,5
211255,12 Brunswick Road,Shoreham-By-Sea,West Sussex,,Palki,Takeaway/sandwich shop,7844,10,,176092,15,,50.83365700000000,PI/000035278,323,envsupport@adur-worthing.gov.uk,Adur,http://www.adur-worthing.gov.uk,-0.27257000000000,BN43 5WB,2013-06-14,fhrs_2_en-GB,2,,FHRS,10
211256,26 Crabtree Lane,Lancing,West Sussex,,Pan & Kebab,Takeaway/sandwich shop,7844,5,,629575,5,,50.83202200000000,PI/000037099,323,envsupport@adur-worthing.gov.uk,Adur,http://www.adur-worthing.gov.uk,-0.32074200000000,BN15 9PQ,2014-01-09,fhrs_5_en-GB,5,,FHRS,5
211257,19 Southwick Square,Southwick,West Sussex,,Pannisa Coffee Lounge,Restaurant/Cafe/Canteen,1,0,,730652,10,,50.83411200000000,PI/000038078,323,envsupport@adur-worthing.gov.uk,Adur,http://www.adur-worthing.gov.uk,-0.23632400000000,BN42 4FP,2015-01-19,fhrs_4_en-GB,4,,FHRS,10
211258,40 Southwick Square,Southwick,West Sussex,,Parish's,Retailers - other,4613,10,,174960,5,,50.83446000000000,PI/000030629,323,envsupport@adur-worthing.gov.uk,Adur,http://www.adur-worthing.gov.uk,-0.23665300000000,BN42 4FJ,2012-10-11,fhrs_4_en-GB,4,,FHRS,5
211259,268 Upper Shoreham Road,Shoreham-By-Sea,West Sussex,,Park Pharmacy,Retailers - other,4613,,,175924,,,50.84154100000000,PI/000034603,323,envsupport@adur-worthing.gov.uk,Adur,http://www.adur-worthing.gov.uk,-0.26027600000000,BN43 6BF,2010-02-26,fhrs_exempt_en-GB,Exempt,,FHRS,
211260,Restaurant,Lady Bee Marina,Albion Street,Southwick,Pebbles on the Port,Pub/bar/nightclub,7843,20,,175743,5,,50.83133500000000,PI/000033684,323,envsupport@adur-worthing.gov.uk,Adur,http://www.adur-worthing.gov.uk,-0.23637300000000,BN42 4EG,2014-03-21,fhrs_1_en-GB,1,,FHRS,15
211261,Church Hall,Church Of The Good Shepherd,Kings Walk,Shoreham-By-Sea,Pebbles Pre-School,Restaurant/Cafe/Canteen,1,10,,356916,5,,50.82617200000000,PI/000036235,323,envsupport@adur-worthing.gov.uk,Adur,http://www.adur-worthing.gov.uk,-0.28825200000000,BN43 5LF,2012-04-30,fhrs_4_en-GB,4,,FHRS,5
211262,39 Penhill Road,Lancing,West Sussex,,Penhill Fish Bar,Takeaway/sandwich shop,7844,5,,164849,0,,50.82420500000000,PI/000006996,323,envsupport@adur-worthing.gov.uk,Adur,http://www.adur-worthing.gov.uk,-0.32126400000000,BN15 8HA,2014-03-04,fhrs_5_en-GB,5,,FHRS,5
211263,Girl Guide Hall,5 Penhill Road,Lancing,West Sussex,Penhill Playgroup,Other catering premises,7841,,,175761,,,50.82420500000000,PI/000033720,323,envsupport@adur-worthing.gov.uk,Adur,http://www.adur-worthing.gov.uk,-0.32126400000000,BN15 8HA,2012-05-29,fhrs_5_en-GB,5,,FHRS,
211264,24 Crabtree Lane,Lancing,West Sussex,,Petz and Plantz,Retailers - other,4613,5,,175215,5,,50.83202200000000,PI/000031526,323,envsupport@adur-worthing.gov.uk,Adur,http://www.adur-worthing.gov.uk,-0.32074200000000,BN15 9PQ,2012-03-09,fhrs_5_en-GB,5,,FHRS,5
211265,88 High Street,Shoreham-By-Sea,West Sussex,,Piston Broke,Pub/bar/nightclub,7843,10,,650320,5,,50.83252100000000,PI/000037057,323,envsupport@adur-worthing.gov.uk,Adur,http://www.adur-worthing.gov.uk,-0.27788000000000,BN43 5DB,2014-03-25,fhrs_4_en-GB,4,,FHRS,5
211266,25 North Road,Lancing,West Sussex,,Poundstretcher,Retailers - other,4613,10,,176138,5,,50.82790100000000,PI/000035576,323,envsupport@adur-worthing.gov.uk,Adur,http://www.adur-worthing.gov.uk,-0.32314800000000,BN15 9AH,2011-05-13,fhrs_4_en-GB,4,,FHRS,5
211267,157 South Street,Lancing,West Sussex,,Premier,Retailers - other,4613,5,,196020,5,,50.82139900000000,PI/000035591,323,envsupport@adur-worthing.gov.uk,Adur,http://www.adur-worthing.gov.uk,-0.32437500000000,BN15 8BD,2014-01-21,fhrs_5_en-GB,5,,FHRS,5
211268,60 Holmbush Way,Southwick,West Sussex,,Premier Holmbush Store,Retailers - other,4613,10,,175173,5,,50.84412400000000,PI/000031379,323,envsupport@adur-worthing.gov.uk,Adur,http://www.adur-worthing.gov.uk,-0.23822000000000,BN42 4YD,2012-11-23,fhrs_4_en-GB,4,,FHRS,5
211269,8 High Street,Shoreham-By-Sea,West Sussex,,Premier Maxi's Supermarket,Retailers - other,4613,10,,667265,5,,50.83193100000000,PI/000036072,323,envsupport@adur-worthing.gov.uk,Adur,http://www.adur-worthing.gov.uk,-0.27564400000000,BN43 5DA,2013-11-21,fhrs_4_en-GB,4,,FHRS,0
211270,103 South Street,Lancing,West Sussex,,Prithi Raj,Takeaway/sandwich shop,7844,,,165552,,,50.82290900000000,PI/000008170,323,envsupport@adur-worthing.gov.uk,Adur,http://www.adur-worthing.gov.uk,-0.32368200000000,BN15 8AS,2013-12-11,fhrs_5_en-GB,5,,FHRS,
211271,6 Queens Parade,North Road,Lancing,West Sussex,Proto Greengrocer Stall,Retailers - other,4613,5,,534415,5,,50.82943600000000,PI/000036448,323,envsupport@adur-worthing.gov.uk,Adur,http://www.adur-worthing.gov.uk,-0.32231200000000,BN15 9BA,2013-03-15,fhrs_5_en-GB,5,,FHRS,0
211272,,,,,Quality One Catering,Mobile caterer,7846,5,,404349,5,,,PI/000025345,323,envsupport@adur-worthing.gov.uk,Adur,http://www.adur-worthing.gov.uk,,,2014-10-15,fhrs_5_en-GB,5,,FHRS,5
211273,Upper Kingston Lane,Southwick,West Sussex,,Quayside Youth Club,Restaurant/Cafe/Canteen,1,10,,174437,5,,50.84246500000000,PI/000029088,323,envsupport@adur-worthing.gov.uk,Adur,http://www.adur-worthing.gov.uk,-0.24271400000000,BN42 4RE,2012-02-16,fhrs_4_en-GB,4,,FHRS,5
211274,3 Queensway,Lancing,West Sussex,,Queensway Cafe,Restaurant/Cafe/Canteen,1,5,,629576,10,,50.82885300000000,PI/000037298,323,envsupport@adur-worthing.gov.uk,Adur,http://www.adur-worthing.gov.uk,-0.32179300000000,BN15 9AY,2014-01-23,fhrs_3_en-GB,3,,FHRS,10
211275,10-11 Station Parade,South Street,Lancing,West Sussex,Railway Station Cafe,Restaurant/Cafe/Canteen,1,5,,733428,5,,50.82679500000000,PI/000038375,323,envsupport@adur-worthing.gov.uk,Adur,http://www.adur-worthing.gov.uk,-0.32254800000000,BN15 8AA,2013-06-06,fhrs_5_en-GB,5,,FHRS,5
211276,4 The Broadway,Manor Hall Road,Southwick,West Sussex,Rainbow House,Takeaway/sandwich shop,7844,5,,175362,5,,50.83681500000000,PI/000032009,323,envsupport@adur-worthing.gov.uk,Adur,http://www.adur-worthing.gov.uk,-0.23123800000000,BN42 4ND,2013-03-27,fhrs_5_en-GB,5,,FHRS,5
211277,1 Windmill Parade,163-183 Old Shoreham Road,Southwick,West Sussex,Rajah Restaurant,Restaurant/Cafe/Canteen,1,10,,173753,5,,50.84049500000000,PI/000026853,323,envsupport@adur-worthing.gov.uk,Adur,http://www.adur-worthing.gov.uk,-0.23313000000000,BN42 4QB,2013-03-27,fhrs_4_en-GB,4,,FHRS,5
211278,112 High Street,Shoreham-By-Sea,West Sussex,,Rasoi,Restaurant/Cafe/Canteen,1,,,605737,,,50.83252100000000,PI/000037075,323,envsupport@adur-worthing.gov.uk,Adur,http://www.adur-worthing.gov.uk,-0.27788000000000,BN43 5DB,2013-12-16,fhrs_4_en-GB,4,,FHRS,
211279,4-6 East Street,Shoreham-By-Sea,West Sussex,,Real Patisserie,Retailers - other,4613,20,,485206,15,,50.83220200000000,PI/000036276,323,envsupport@adur-worthing.gov.uk,Adur,http://www.adur-worthing.gov.uk,-0.27455500000000,BN43 5ZE,2014-06-30,fhrs_1_en-GB,1,,FHRS,10
211280,Rectory House,West Street,Sompting,West Sussex,Rectory House Nursing Home,Hospitals/Childcare/Caring Premises,5,0,,172823,5,,50.83467500000000,PI/000024097,323,envsupport@adur-worthing.gov.uk,Adur,http://www.adur-worthing.gov.uk,-0.34089900000000,BN15 0DA,2014-03-26,fhrs_5_en-GB,5,,FHRS,5
211281,Staff Restaurant And Kitchen,Ricardo Consulting Engineers Ltd,Old Shoreham Road,Lancing,Ricardo,Restaurant/Cafe/Canteen,1,0,,174695,0,,,PI/000029805,323,envsupport@adur-worthing.gov.uk,Adur,http://www.adur-worthing.gov.uk,,,2012-08-22,fhrs_5_en-GB,5,,FHRS,5
211282,90 High Street,Shoreham-By-Sea,West Sussex,,Ropetackle Fish and Chip Restaurant,Takeaway/sandwich shop,7844,5,,176042,5,,50.83252100000000,PI/000035144,323,envsupport@adur-worthing.gov.uk,Adur,http://www.adur-worthing.gov.uk,-0.27788000000000,BN43 5DB,2013-12-13,fhrs_4_en-GB,4,,FHRS,10
211283,31 North Road,Lancing,West Sussex,,Rowland Pharmacy,Retailers - other,4613,,,174662,,,50.82790100000000,PI/000029719,323,envsupport@adur-worthing.gov.uk,Adur,http://www.adur-worthing.gov.uk,-0.32314800000000,BN15 9AH,2010-03-08,fhrs_exempt_en-GB,Exempt,,FHRS,
211284,British Legion Club,6 Culver Road,Lancing,West Sussex,Royal British Legion,Pub/bar/nightclub,7843,20,,162155,5,,50.82892600000000,PI/000002481,323,envsupport@adur-worthing.gov.uk,Adur,http://www.adur-worthing.gov.uk,-0.32369400000000,BN15 9AX,2012-03-19,fhrs_1_en-GB,1,,FHRS,5
211285,The Royal British Legion,9-11 Buckingham Road,Shoreham-By-Sea,West Sussex,Royal British Legion Club,Other catering premises,7841,10,,167177,10,,50.83515700000000,PI/000010894,323,envsupport@adur-worthing.gov.uk,Adur,http://www.adur-worthing.gov.uk,-0.27247200000000,BN43 5UA,2013-03-06,fhrs_3_en-GB,3,,FHRS,10
211286,Upper Shoreham Road,Shoreham-By-Sea,West Sussex,,Royal George,Pub/bar/nightclub,7843,5,,171023,10,,50.84136500000000,PI/000019301,323,envsupport@adur-worthing.gov.uk,Adur,http://www.adur-worthing.gov.uk,-0.25272700000000,BN43 6TA,2013-09-18,fhrs_3_en-GB,3,,FHRS,10
211287,Royal Sovereign,6 Middle Street,Shoreham-By-Sea,West Sussex,Royal Sovereign Public House,Pub/bar/nightclub,7843,,,174714,,,50.83269700000000,PI/000029846,323,envsupport@adur-worthing.gov.uk,Adur,http://www.adur-worthing.gov.uk,-0.27578600000000,BN43 5DP,2013-09-06,fhrs_4_en-GB,4,,FHRS,
211288,Chesham House,124 South Street,Lancing,West Sussex,Royal Voluntary Service,Other catering premises,7841,10,,175925,5,,50.82382600000000,PI/000034604,323,envsupport@adur-worthing.gov.uk,Adur,http://www.adur-worthing.gov.uk,-0.32369200000000,BN15 8AJ,2010-04-19,fhrs_3_en-GB,3,,FHRS,10
211289,154 South Street,Lancing,West Sussex,,Salvation Army,Restaurant/Cafe/Canteen,1,5,,165592,5,,50.82207600000000,PI/000008220,323,envsupport@adur-worthing.gov.uk,Adur,http://www.adur-worthing.gov.uk,-0.32452100000000,BN15 8AU,2014-03-24,fhrs_5_en-GB,5,,FHRS,5
211290,27 Southwick Square,Southwick,West Sussex,,Sandwich in the Square,Takeaway/sandwich shop,7844,5,,175908,0,,50.83411300000000,PI/000034508,323,envsupport@adur-worthing.gov.uk,Adur,http://www.adur-worthing.gov.uk,-0.23632500000000,BN42 4FP,2014-08-28,fhrs_5_en-GB,5,,FHRS,5
211291,Freshbrook Road,Lancing,West Sussex,,Seaside Primary School,School/college/university,7845,5,,162722,5,,50.82657500000000,PI/000003496,323,envsupport@adur-worthing.gov.uk,Adur,http://www.adur-worthing.gov.uk,-0.31283000000000,BN15 8DL,2008-01-18,fhrs_5_en-GB,5,,FHRS,5
211292,69 High Street,Shoreham-By-Sea,West Sussex,,Shati,Takeaway/sandwich shop,7844,10,,175895,10,,50.83211400000000,PI/000034418,323,envsupport@adur-worthing.gov.uk,Adur,http://www.adur-worthing.gov.uk,-0.27773900000000,BN43 5DE,2013-09-19,fhrs_3_en-GB,3,,FHRS,10
211293,151 Brighton Road,Shoreham-By-Sea,West Sussex,,Shell Shoreham Airport,Retailers - other,4613,5,,485490,5,,50.82752200000000,PI/000036367,323,envsupport@adur-worthing.gov.uk,Adur,http://www.adur-worthing.gov.uk,-0.28955200000000,BN43 5LD,2014-06-23,fhrs_5_en-GB,5,,FHRS,5
211294,9 Southwick Street,Southwick,West Sussex,,Ship Inn,Pub/bar/nightclub,7843,20,,174141,15,,50.83348600000000,PI/000028122,323,envsupport@adur-worthing.gov.uk,Adur,http://www.adur-worthing.gov.uk,-0.23529800000000,BN42 4AD,2013-11-20,fhrs_1_en-GB,1,,FHRS,15
211295,76 Kingston Lane,Shoreham-By-Sea,West Sussex,,Shoreham Academy,School/college/university,7845,10,,176070,5,,50.83608000000000,PI/000035216,323,envsupport@adur-worthing.gov.uk,Adur,http://www.adur-worthing.gov.uk,-0.24755500000000,BN43 6YT,2014-09-30,fhrs_3_en-GB,3,,FHRS,10
211296,Western Road,Shoreham-By-Sea,West Sussex,,Shoreham Baptist Church,Other catering premises,7841,5,,171126,0,,50.83424700000000,PI/000019603,323,envsupport@adur-worthing.gov.uk,Adur,http://www.adur-worthing.gov.uk,-0.27358500000000,BN43 5WD,2015-01-08,fhrs_5_en-GB,5,,FHRS,0
211297,376 Brighton Road,Shoreham-By-Sea,West Sussex,,Shoreham Cafe,Restaurant/Cafe/Canteen,1,5,,175295,5,,50.83221500000000,PI/000031811,323,envsupport@adur-worthing.gov.uk,Adur,http://www.adur-worthing.gov.uk,-0.26871800000000,BN43 6RE,2013-12-13,fhrs_4_en-GB,4,,FHRS,10
211298,The Shoreham Centre,Pond Road,Shoreham-By-Sea,West Sussex,Shoreham Centre Bar,Pub/bar/nightclub,7843,10,,174891,5,,50.83406700000000,PI/000030412,323,envsupport@adur-worthing.gov.uk,Adur,http://www.adur-worthing.gov.uk,-0.27539500000000,BN43 5WU,2012-11-07,fhrs_4_en-GB,4,,FHRS,5
211299,The Shoreham Centre,Pond Road,Shoreham-By-Sea,West Sussex,Shoreham Centre Cafe,Restaurant/Cafe/Canteen,1,10,,176038,10,,50.83406700000000,PI/000035137,323,envsupport@adur-worthing.gov.uk,Adur,http://www.adur-worthing.gov.uk,-0.27539500000000,BN43 5WU,2014-03-12,fhrs_3_en-GB,3,,FHRS,10
211300,"Conservative Club, Marlborough House",102-110 High Street,Shoreham-By-Sea,West Sussex,Shoreham Conservative Club,Pub/bar/nightclub,7843,10,,174859,5,,50.83252100000000,PI/000030349,323,envsupport@adur-worthing.gov.uk,Adur,http://www.adur-worthing.gov.uk,-0.27788000000000,BN43 5DB,2014-11-06,fhrs_4_en-GB,4,,FHRS,5
211301,Middle Road,Shoreham-By-Sea,West Sussex,,Shoreham Football Club,Other catering premises,7841,10,,169553,5,,50.83536800000000,PI/000015346,323,envsupport@adur-worthing.gov.uk,Adur,http://www.adur-worthing.gov.uk,-0.25417900000000,,2014-03-18,fhrs_3_en-GB,3,,FHRS,10
211302,7 Middle Road,Shoreham-By-Sea,West Sussex,,Shoreham Kebab,Takeaway/sandwich shop,7844,5,,174796,5,,50.83615700000000,PI/000030138,323,envsupport@adur-worthing.gov.uk,Adur,http://www.adur-worthing.gov.uk,-0.26105900000000,BN43 6GA,2014-02-13,fhrs_4_en-GB,4,,FHRS,10
211303,Brunswick Road,Shoreham-By-Sea,West Sussex,,Shoreham Methodist Church,Other catering premises,7841,5,,166972,5,,50.83365700000000,PI/000010555,323,envsupport@adur-worthing.gov.uk,Adur,http://www.adur-worthing.gov.uk,-0.27257000000000,BN43 5WB,2012-11-23,fhrs_5_en-GB,5,,FHRS,5
211304,7 Buckingham Road,Shoreham-By-Sea,West Sussex,,Shoreham News,Retailers - other,4613,10,,167168,0,,50.83515700000000,PI/000010868,323,envsupport@adur-worthing.gov.uk,Adur,http://www.adur-worthing.gov.uk,-0.27247200000000,BN43 5UA,2013-03-14,fhrs_4_en-GB,4,,FHRS,0
211305,Brighton Road,Shoreham-By-Sea,West Sussex,,Shoreham Rowing Club,Other catering premises,7841,10,,166939,5,,50.83187800000000,PI/000010499,323,envsupport@adur-worthing.gov.uk,Adur,http://www.adur-worthing.gov.uk,-0.25694300000000,BN43 6RN,2009-03-09,fhrs_4_en-GB,4,,FHRS,5
211306,223 Harbour Way,Shoreham-By-Sea,West Sussex,,Shoreham Sailing Club,Pub/bar/nightclub,7843,5,,168859,5,,50.82983800000000,PI/000014000,323,envsupport@adur-worthing.gov.uk,Adur,http://www.adur-worthing.gov.uk,-0.25528700000000,BN43 5HZ,2011-02-16,fhrs_5_en-GB,5,,FHRS,5
211307,412-414 Brighton Road,Shoreham-By-Sea,West Sussex,,Shoreham Service Station,Retailers - other,4613,5,,175406,10,,50.83209500000000,PI/000032220,323,envsupport@adur-worthing.gov.uk,Adur,http://www.adur-worthing.gov.uk,-0.27396200000000,BN43 5DR,2013-02-25,fhrs_4_en-GB,4,,FHRS,5
211308,106 Stoney Lane,Shoreham-By-Sea,West Sussex,,Shoreham Snack Bar,Takeaway/sandwich shop,7844,5,,174912,0,,50.83624500000000,PI/000030481,323,envsupport@adur-worthing.gov.uk,Adur,http://www.adur-worthing.gov.uk,-0.24952300000000,BN43 6LD,2014-11-12,fhrs_5_en-GB,5,,FHRS,0
211309,"Garage Workshops, Old Cement Works",31 Steyning Road,Shoreham-By-Sea,West Sussex,Simply Rawgeous,Mobile caterer,7846,10,,176196,5,,,PI/000035835,323,envsupport@adur-worthing.gov.uk,Adur,http://www.adur-worthing.gov.uk,,,2011-05-27,fhrs_3_en-GB,3,,FHRS,10
211310,44 Upper Boundstone Lane,Sompting,West Sussex,,Sir Robert Woodard Academy,School/college/university,7845,0,,511284,0,,50.83595500000000,PI/000036170,323,envsupport@adur-worthing.gov.uk,Adur,http://www.adur-worthing.gov.uk,-0.33037200000000,BN15 9QZ,2013-01-29,fhrs_5_en-GB,5,,FHRS,0
211311,Southwick Methodist Church Hall,Southwick Street,Southwick,West Sussex,Skoolz Out,Other catering premises,7841,5,,313102,5,,50.83692000000000,PI/000035868,323,envsupport@adur-worthing.gov.uk,Adur,http://www.adur-worthing.gov.uk,-0.23281000000000,BN42 4NA,2012-03-16,fhrs_5_en-GB,5,,FHRS,0
211312,Church Lane,Sompting,West Sussex,,Sompting Abbotts School,School/college/university,7845,5,,171685,5,,50.83882700000000,PI/000021038,323,envsupport@adur-worthing.gov.uk,Adur,http://www.adur-worthing.gov.uk,-0.35212800000000,BN15 0AZ,2013-11-25,fhrs_5_en-GB,5,,FHRS,5
211313,117-119 Sompting Road,Lancing,West Sussex,,Sompting Convenience Store,Retailers - other,4613,20,,175228,10,,50.82817700000000,PI/000031585,323,envsupport@adur-worthing.gov.uk,Adur,http://www.adur-worthing.gov.uk,-0.33233900000000,BN15 9LG,2013-09-11,fhrs_1_en-GB,1,,FHRS,0
211314,55 Test Road,Sompting,West Sussex,,Sompting Fish Bar,Takeaway/sandwich shop,7844,10,,174724,5,,50.83167400000000,PI/000029879,323,envsupport@adur-worthing.gov.uk,Adur,http://www.adur-worthing.gov.uk,-0.34167300000000,BN15 0EN,2014-02-28,fhrs_4_en-GB,4,,FHRS,5
211315,5 Seadown Parade,16 Bowness Avenue,Sompting,West Sussex,Sompting Minimarket,Retailers - other,4613,10,,175161,5,,50.82697400000000,PI/000031340,323,envsupport@adur-worthing.gov.uk,Adur,http://www.adur-worthing.gov.uk,-0.34005000000000,BN15 9TP,2013-12-06,fhrs_4_en-GB,4,,FHRS,5
211316,1 The Parade,Cokeham Road,Sompting,West Sussex,Sompting Spice,Takeaway/sandwich shop,7844,,,485203,,,50.83299000000000,PI/000034842,323,envsupport@adur-worthing.gov.uk,Adur,http://www.adur-worthing.gov.uk,-0.33686900000000,BN15 0AH,2013-02-28,fhrs_5_en-GB,5,,FHRS,
211317,8 Seadown Parade,16 Bowness Avenue,Sompting,West Sussex,Sompting Supermarket,Retailers - other,4613,5,,176155,5,,50.82697400000000,PI/000035638,323,envsupport@adur-worthing.gov.uk,Adur,http://www.adur-worthing.gov.uk,-0.34005000000000,BN15 9TP,2012-11-12,fhrs_5_en-GB,5,,FHRS,5
211318,Day Centre,Milward Court,Wilmot Road,Shoreham-By-Sea,Southlander's Community Cafe,Other catering premises,7841,,,175104,,,50.83844600000000,PI/000031112,323,envsupport@adur-worthing.gov.uk,Adur,http://www.adur-worthing.gov.uk,-0.25174200000000,BN43 6BU,2014-07-23,fhrs_4_en-GB,4,,FHRS,
211319,272 Upper Shoreham Road,Shoreham-By-Sea,West Sussex,,Southlands Post Office & Store.,Retailers - other,4613,5,,170944,5,,50.84154100000000,PI/000019074,323,envsupport@adur-worthing.gov.uk,Adur,http://www.adur-worthing.gov.uk,-0.26027600000000,BN43 6BF,2014-02-11,fhrs_4_en-GB,4,,FHRS,10
211320,Old Barn Way,Southwick,West Sussex,,Southwick Football Club,Other catering premises,7841,30,,173736,20,,50.83433700000000,PI/000026791,323,envsupport@adur-worthing.gov.uk,Adur,http://www.adur-worthing.gov.uk,-0.22441500000000,BN42 4NT,2014-03-21,fhrs_0_en-GB,0,,FHRS,20
211321,Old Barn Way,Southwick,West Sussex,,Southwick Leisure Centre,Other catering premises,7841,10,,174828,5,,50.83433700000000,PI/000030228,323,envsupport@adur-worthing.gov.uk,Adur,http://www.adur-worthing.gov.uk,-0.22441500000000,BN42 4NT,2014-07-29,fhrs_3_en-GB,3,,FHRS,10
211322,Manor Hall Road,Southwick,West Sussex,,Southwick Methodist Church,Other catering premises,7841,10,,174153,5,,50.83692000000000,PI/000028144,323,envsupport@adur-worthing.gov.uk,Adur,http://www.adur-worthing.gov.uk,-0.23281000000000,BN42 4NA,2013-01-07,fhrs_4_en-GB,4,,FHRS,5
211323,Southwick Community Centre,24 Southwick Street,Southwick,West Sussex,Southwick Pre-School Playgroup,Other catering premises,7841,5,,176091,5,,50.83451700000000,PI/000035276,323,envsupport@adur-worthing.gov.uk,Adur,http://www.adur-worthing.gov.uk,-0.23393800000000,BN42 4TE,2012-11-07,fhrs_5_en-GB,5,,FHRS,5
211324,11 The Twitten,Southwick,West Sussex,,Southwick Sports and Social Club,Pub/bar/nightclub,7843,10,,174379,10,,50.83376600000000,PI/000028924,323,envsupport@adur-worthing.gov.uk,Adur,http://www.adur-worthing.gov.uk,-0.23655100000000,BN42 4DB,2008-03-11,fhrs_3_en-GB,3,,FHRS,5
211325,39 Southwick Square,Southwick,West Sussex,,Southwick Square Meats,Retailers - other,4613,10,,174094,10,,50.83411300000000,PI/000028006,323,envsupport@adur-worthing.gov.uk,Adur,http://www.adur-worthing.gov.uk,-0.23632500000000,BN42 4FP,2014-11-25,fhrs_3_en-GB,3,,FHRS,10
211326,St Peters Roman Catholic Primary School,Sullington Way,Shoreham-By-Sea,West Sussex,Spangels Nursery Ltd c/o,Restaurant/Cafe/Canteen,1,5,,176156,5,,50.83715700000000,PI/000035642,323,envsupport@adur-worthing.gov.uk,Adur,http://www.adur-worthing.gov.uk,-0.26357800000000,BN43 6PJ,2011-07-19,fhrs_5_en-GB,5,,FHRS,5
211327,25 Southwick Square,Southwick,West Sussex,,Squires' Tackle,Retailers - other,4613,,,174086,,,50.83411300000000,PI/000027993,323,envsupport@adur-worthing.gov.uk,Adur,http://www.adur-worthing.gov.uk,-0.23632500000000,BN42 4FP,2010-11-30,fhrs_exempt_en-GB,Exempt,,FHRS,
211328,14 Park Lane,Southwick,West Sussex,,St Clare Rest Home,Hospitals/Childcare/Caring Premises,5,5,,173877,0,,50.83396500000000,PI/000027273,323,envsupport@adur-worthing.gov.uk,Adur,http://www.adur-worthing.gov.uk,-0.24205400000000,BN42 4DL,2012-11-07,fhrs_5_en-GB,5,,FHRS,5
211329,Rectory Road,Shoreham-By-Sea,West Sussex,,St Julians Church Hall,Other catering premises,7841,0,,170551,5,,50.83449100000000,PI/000017895,323,envsupport@adur-worthing.gov.uk,Adur,http://www.adur-worthing.gov.uk,-0.24709000000000,BN43 6EB,2013-11-28,fhrs_4_en-GB,4,,FHRS,10
211330,Tesco,Holmbush Centre,Upper Shoreham Road,Shoreham-By-Sea,Staff Canteen Tesco,Restaurant/Cafe/Canteen,1,5,,175328,5,,50.84212600000000,PI/000031918,323,envsupport@adur-worthing.gov.uk,Adur,http://www.adur-worthing.gov.uk,-0.25190300000000,BN43 6TD,2014-09-24,fhrs_5_en-GB,5,,FHRS,5
211331,54-58 Kings Road,Lancing,West Sussex,,Stanbridge House,Hospitals/Childcare/Caring Premises,5,5,,163509,5,,50.82513700000000,PI/000004838,323,envsupport@adur-worthing.gov.uk,Adur,http://www.adur-worthing.gov.uk,-0.31663000000000,BN15 8DY,2014-10-30,fhrs_5_en-GB,5,,FHRS,5
211332,Next,Holmbush Centre,Upper Shoreham Road,Shoreham-By-Sea,Starbucks,Restaurant/Cafe/Canteen,1,5,,176236,5,,50.84212600000000,PI/000035978,323,envsupport@adur-worthing.gov.uk,Adur,http://www.adur-worthing.gov.uk,-0.25190300000000,BN43 6TD,2013-05-13,fhrs_5_en-GB,5,,FHRS,5
211333,32 High Street,Shoreham-By-Sea,West Sussex,,Subway,Restaurant/Cafe/Canteen,1,0,,485207,5,,50.83193100000000,PI/000036299,323,envsupport@adur-worthing.gov.uk,Adur,http://www.adur-worthing.gov.uk,-0.27564400000000,BN43 5DA,2014-09-17,fhrs_5_en-GB,5,,FHRS,5
211334,33 East Street,Shoreham-By-Sea,West Sussex,,Sugar & Spice,Retailers - other,4613,10,,492784,5,,50.83289800000000,PI/000012118,323,envsupport@adur-worthing.gov.uk,Adur,http://www.adur-worthing.gov.uk,-0.27357800000000,BN43 5ZD,2014-11-20,fhrs_4_en-GB,4,,FHRS,5
211335,6 Tarmount Lane,Shoreham-By-Sea,West Sussex,,Sunshine Day Nursery,School/college/university,7845,0,,175744,0,,50.83286500000000,PI/000033685,323,envsupport@adur-worthing.gov.uk,Adur,http://www.adur-worthing.gov.uk,-0.27312400000000,BN43 6DA,2014-03-06,fhrs_5_en-GB,5,,FHRS,5
211336,Victoria Road,Southwick,West Sussex,,Sussex County Croquet Club,Restaurant/Cafe/Canteen,1,10,,174479,5,,50.83269400000000,PI/000029179,323,envsupport@adur-worthing.gov.uk,Adur,http://www.adur-worthing.gov.uk,-0.24186000000000,BN42 4DJ,2010-07-08,fhrs_4_en-GB,4,,FHRS,5
211337,Culver Road,Lancing,West Sussex,,Sussex County Football Association,Other catering premises,7841,0,,175132,0,,50.82892600000000,PI/000031213,323,envsupport@adur-worthing.gov.uk,Adur,http://www.adur-worthing.gov.uk,-0.32369400000000,BN15 9AX,2012-03-13,fhrs_5_en-GB,5,,FHRS,5
211338,20 Southwick Square,Southwick,West Sussex,,Sussex Drug Stores,Retailers - other,4613,,,174082,,,50.83446000000000,PI/000027988,323,envsupport@adur-worthing.gov.uk,Adur,http://www.adur-worthing.gov.uk,-0.23665300000000,BN42 4FJ,2008-07-08,fhrs_exempt_en-GB,Exempt,,FHRS,
211339,6 Queens Parade,North Road,Lancing,West Sussex,Sussex Drug Stores,Retailers - other,4613,,,164411,,,50.82943600000000,PI/000006240,323,envsupport@adur-worthing.gov.uk,Adur,http://www.adur-worthing.gov.uk,-0.32231200000000,BN15 9BA,2009-08-05,fhrs_exempt_en-GB,Exempt,,FHRS,
211340,374 Brighton Road,Shoreham-By-Sea,West Sussex,,Sussex Mini Market,Retailers - other,4613,5,,176144,5,,50.83221500000000,PI/000035593,323,envsupport@adur-worthing.gov.uk,Adur,http://www.adur-worthing.gov.uk,-0.26871800000000,BN43 6RE,2013-02-18,fhrs_5_en-GB,5,,FHRS,5
211341,85-89 Brighton Road,Shoreham-By-Sea,West Sussex,,Sussex Yacht Club Bar,Pub/bar/nightclub,7843,10,,166910,5,,50.83222300000000,PI/000010444,323,envsupport@adur-worthing.gov.uk,Adur,http://www.adur-worthing.gov.uk,-0.27289200000000,BN43 6RF,2014-01-17,fhrs_3_en-GB,3,,FHRS,10
211342,Suters Yard,64 High Street,Shoreham-By-Sea,West Sussex,Suter's Yard,Pub/bar/nightclub,7843,5,,175301,5,,50.83252100000000,PI/000031829,323,envsupport@adur-worthing.gov.uk,Adur,http://www.adur-worthing.gov.uk,-0.27788000000000,BN43 5DB,2015-02-02,fhrs_5_en-GB,5,,FHRS,5
211343,,,,,Sweet Penny Lane,Other catering premises,7841,5,,216325,5,,,PI/000036167,323,envsupport@adur-worthing.gov.uk,Adur,http://www.adur-worthing.gov.uk,,,2012-03-02,fhrs_5_en-GB,5,,FHRS,5
211344,109 South Street,Lancing,West Sussex,,Sweets N Things,Retailers - other,4613,10,,165557,10,,50.82290900000000,PI/000008173,323,envsupport@adur-worthing.gov.uk,Adur,http://www.adur-worthing.gov.uk,-0.32368200000000,BN15 8AS,2010-11-12,fhrs_3_en-GB,3,,FHRS,5
211345,Old Shoreham Road,Shoreham-By-Sea,West Sussex,,Swiss Cottage,Pub/bar/nightclub,7843,10,,169962,10,,50.83632300000000,PI/000016276,323,envsupport@adur-worthing.gov.uk,Adur,http://www.adur-worthing.gov.uk,-0.28140400000000,BN43 5TD,2014-09-26,fhrs_3_en-GB,3,,FHRS,10
211346,9 Middle Road,Shoreham-By-Sea,West Sussex,,Tasty,Takeaway/sandwich shop,7844,10,,174842,10,,50.83615700000000,PI/000030279,323,envsupport@adur-worthing.gov.uk,Adur,http://www.adur-worthing.gov.uk,-0.26105900000000,BN43 6GA,2013-03-15,fhrs_3_en-GB,3,,FHRS,10
211347,,,,,Tasty Thai Truck,Mobile caterer,7846,10,,727214,5,,,PI/000038042,323,envsupport@adur-worthing.gov.uk,Adur,http://www.adur-worthing.gov.uk,,,2014-12-10,fhrs_4_en-GB,4,,FHRS,5
211348,55-57 North Road,Lancing,West Sussex,,Taylor's Fish Bar,Takeaway/sandwich shop,7844,10,,164403,5,,50.82859500000000,PI/000006236,323,envsupport@adur-worthing.gov.uk,Adur,http://www.adur-worthing.gov.uk,-0.32258400000000,BN15 9AS,2014-11-18,fhrs_4_en-GB,4,,FHRS,5
211349,Unit 2,30 Chartwell Road,Lancing Business Park,Lancing,TeamSport Indoor Karting,Restaurant/Cafe/Canteen,1,5,,545864,5,,50.82355700000000,PI/000032621,323,envsupport@adur-worthing.gov.uk,Adur,http://www.adur-worthing.gov.uk,-0.33378200000000,BN15 8TU,2013-05-02,fhrs_5_en-GB,5,,FHRS,5
211350,12-14 East Street,Shoreham-By-Sea,West Sussex,,Teddy's,Restaurant/Cafe/Canteen,1,,,175095,,,50.83220200000000,PI/000031091,323,envsupport@adur-worthing.gov.uk,Adur,http://www.adur-worthing.gov.uk,-0.27455500000000,BN43 5ZE,2015-02-02,fhrs_5_en-GB,5,,FHRS,
211351,225 Upper Shoreham Road,Shoreham-By-Sea,West Sussex,,Tesco Express,Retailers - supermarkets/hypermarkets,7840,5,,534411,5,,50.83991200000000,PI/000036106,323,envsupport@adur-worthing.gov.uk,Adur,http://www.adur-worthing.gov.uk,-0.26323400000000,BN43 6BE,2013-03-18,fhrs_5_en-GB,5,,FHRS,5
211352,Tesco,Holmbush Centre,Upper Shoreham Road,Shoreham-By-Sea,Tesco Extra,Retailers - supermarkets/hypermarkets,7840,0,,171020,0,,50.84212600000000,PI/000019295,323,envsupport@adur-worthing.gov.uk,Adur,http://www.adur-worthing.gov.uk,-0.25190300000000,BN43 6TD,2014-03-26,fhrs_5_en-GB,5,,FHRS,0
211353,467-471 Upper Shoreham Road,Shoreham-By-Sea,West Sussex,,The Amsterdam,Restaurant/Cafe/Canteen,1,10,,174696,10,,50.83950400000000,PI/000029807,323,envsupport@adur-worthing.gov.uk,Adur,http://www.adur-worthing.gov.uk,-0.28544900000000,BN43 5WQ,2014-09-19,fhrs_3_en-GB,3,,FHRS,10
211354,Ground Floor,16-18 East Street,Shoreham-By-Sea,West Sussex,The Beach House,Restaurant/Cafe/Canteen,1,,,175758,,,50.83220200000000,PI/000033712,323,envsupport@adur-worthing.gov.uk,Adur,http://www.adur-worthing.gov.uk,-0.27455500000000,BN43 5ZE,2014-04-04,fhrs_5_en-GB,5,,FHRS,
211355,23-27 Ferry Road,Shoreham-By-Sea,West Sussex,,The Beach Shop,Retailers - other,4613,10,,174614,5,,50.82909800000000,PI/000029599,323,envsupport@adur-worthing.gov.uk,Adur,http://www.adur-worthing.gov.uk,-0.27200000000000,BN43 5RA,2012-01-18,fhrs_4_en-GB,4,,FHRS,5
211356,87 High Street,Shoreham-By-Sea,West Sussex,,The Bridge Inn,Pub/bar/nightclub,7843,10,,175297,10,,50.83211400000000,PI/000031816,323,envsupport@adur-worthing.gov.uk,Adur,http://www.adur-worthing.gov.uk,-0.27773900000000,BN43 5DE,2014-10-06,fhrs_3_en-GB,3,,FHRS,10
211357,35 Brunswick Road,Shoreham-By-Sea,West Sussex,,The Buckingham Arms,Pub/bar/nightclub,7843,5,,166970,5,,50.83393100000000,PI/000010552,323,envsupport@adur-worthing.gov.uk,Adur,http://www.adur-worthing.gov.uk,-0.27288600000000,BN43 5WA,2013-02-19,fhrs_4_en-GB,4,,FHRS,10
211358,14 South Street,Lancing,West Sussex,,The Coffee Lounge,Restaurant/Cafe/Canteen,1,5,,548037,5,,50.82624000000000,PI/000036472,323,envsupport@adur-worthing.gov.uk,Adur,http://www.adur-worthing.gov.uk,-0.32329300000000,BN15 8AG,2013-06-20,fhrs_5_en-GB,5,,FHRS,5
211359,57-59 Test Road,Sompting,West Sussex,,The Co-op,Retailers - other,4613,5,,172498,5,,50.83167400000000,PI/000023293,323,envsupport@adur-worthing.gov.uk,Adur,http://www.adur-worthing.gov.uk,-0.34167300000000,BN15 0EN,2013-06-06,fhrs_4_en-GB,4,,FHRS,10
211360,6 Buckingham Road,Shoreham-By-Sea,West Sussex,,The Crab Tree,Pub/bar/nightclub,7843,5,,175306,0,,50.83515700000000,PI/000031836,323,envsupport@adur-worthing.gov.uk,Adur,http://www.adur-worthing.gov.uk,-0.27247200000000,BN43 5UA,2014-10-08,fhrs_5_en-GB,5,,FHRS,5
211361,The Crabtree,140 Crabtree Lane,Lancing,West Sussex,The Crabtree PH,Pub/bar/nightclub,7843,5,,162049,5,,50.83241100000000,PI/000002263,323,envsupport@adur-worthing.gov.uk,Adur,http://www.adur-worthing.gov.uk,-0.32907900000000,BN15 9NQ,2012-03-01,fhrs_5_en-GB,5,,FHRS,5
211362,,,,,The Fruit and Veg Man,Mobile caterer,7846,5,,534412,5,,,PI/000036270,323,envsupport@adur-worthing.gov.uk,Adur,http://www.adur-worthing.gov.uk,,,2013-03-18,fhrs_5_en-GB,5,,FHRS,5
211363,Harbour Way,Shoreham-By-Sea,West Sussex,,The Harbour Club,Pub/bar/nightclub,7843,5,,174609,5,,50.82959400000000,PI/000029591,323,envsupport@adur-worthing.gov.uk,Adur,http://www.adur-worthing.gov.uk,-0.26360300000000,BN43 5HG,2014-03-26,fhrs_5_en-GB,5,,FHRS,5
211364,Steepdown Road,Sompting,West Sussex,,The Joyful Whippet,Pub/bar/nightclub,7843,10,,175766,10,,50.83950100000000,PI/000033725,323,envsupport@adur-worthing.gov.uk,Adur,http://www.adur-worthing.gov.uk,-0.33555800000000,BN15 0LJ,2012-03-22,fhrs_3_en-GB,3,,FHRS,10
211365,,,,,The Little Big Cake Company,Other catering premises,7841,5,,548550,0,,,PI/000036473,323,envsupport@adur-worthing.gov.uk,Adur,http://www.adur-worthing.gov.uk,,,2014-02-10,fhrs_5_en-GB,5,,FHRS,0
211366,153 Brighton Road,Shoreham-By-Sea,West Sussex,,The Longshore,Pub/bar/nightclub,7843,5,,548549,5,,50.82752200000000,PI/000036365,323,envsupport@adur-worthing.gov.uk,Adur,http://www.adur-worthing.gov.uk,-0.28955200000000,BN43 5LD,2013-07-25,fhrs_5_en-GB,5,,FHRS,5
211367,The Marlipins,38 High Street,Shoreham-By-Sea,West Sussex,The Marlipins Public House,Pub/bar/nightclub,7843,5,,175175,5,,50.83193100000000,PI/000031385,323,envsupport@adur-worthing.gov.uk,Adur,http://www.adur-worthing.gov.uk,-0.27564400000000,BN43 5DA,2013-10-30,fhrs_5_en-GB,5,,FHRS,5
211368,1 North Road,Lancing,West Sussex,,The Merry Monk,Pub/bar/nightclub,7843,5,,176063,5,,50.82790100000000,PI/000035203,323,envsupport@adur-worthing.gov.uk,Adur,http://www.adur-worthing.gov.uk,-0.32314800000000,BN15 9AH,2011-01-05,fhrs_5_en-GB,5,,FHRS,5
211369,63-65 High Street,Shoreham-By-Sea,West Sussex,,The Offie,Retailers - other,4613,,,175896,,,50.83211400000000,PI/000034419,323,envsupport@adur-worthing.gov.uk,Adur,http://www.adur-worthing.gov.uk,-0.27773900000000,BN43 5DE,2010-08-24,fhrs_exempt_en-GB,Exempt,,FHRS,
211370,56-58 High Street,Shoreham-By-Sea,West Sussex,,The Original Factory Shop,Retailers - other,4613,,,175754,,,50.83252100000000,PI/000033704,323,envsupport@adur-worthing.gov.uk,Adur,http://www.adur-worthing.gov.uk,-0.27788000000000,BN43 5DB,2010-02-08,fhrs_exempt_en-GB,Exempt,,FHRS,
211371,3 Southwick Square,Southwick,West Sussex,,The Plaice in the Square,Takeaway/sandwich shop,7844,5,,174087,5,,50.83411300000000,PI/000027996,323,envsupport@adur-worthing.gov.uk,Adur,http://www.adur-worthing.gov.uk,-0.23632500000000,BN42 4FP,2012-08-30,fhrs_5_en-GB,5,,FHRS,5
211372,8 Queensway,Lancing,West Sussex,,The Premier,Takeaway/sandwich shop,7844,,,164431,,,50.82885300000000,PI/000006274,323,envsupport@adur-worthing.gov.uk,Adur,http://www.adur-worthing.gov.uk,-0.32179300000000,BN15 9AY,2014-10-15,fhrs_5_en-GB,5,,FHRS,
211373,34-36 South Street,Lancing,West Sussex,,The Rainbow Cafe,Restaurant/Cafe/Canteen,1,,,176071,,,50.82671000000000,PI/000035218,323,envsupport@adur-worthing.gov.uk,Adur,http://www.adur-worthing.gov.uk,-0.32411400000000,BN15 8AG,2014-06-12,fhrs_3_en-GB,3,,FHRS,
211374,Old Shoreham Road,Shoreham-By-Sea,West Sussex,,The Red Lion,Pub/bar/nightclub,7843,10,,169964,10,,50.83812200000000,PI/000016277,323,envsupport@adur-worthing.gov.uk,Adur,http://www.adur-worthing.gov.uk,-0.28450500000000,BN43 5TE,2014-03-06,fhrs_3_en-GB,3,,FHRS,10
211375,Manor Hall Road,Southwick,West Sussex,,The Romans Hotel,Pub/bar/nightclub,7843,10,,174664,5,,50.83673100000000,PI/000029723,323,envsupport@adur-worthing.gov.uk,Adur,http://www.adur-worthing.gov.uk,-0.22986300000000,BN42 4NG,2014-11-03,fhrs_2_en-GB,2,,FHRS,15
211376,Little High Street,Shoreham-By-Sea,West Sussex,,The Ropetackle Centre,Restaurant/Cafe/Canteen,1,,,175123,,,50.83257500000000,PI/000031184,323,envsupport@adur-worthing.gov.uk,Adur,http://www.adur-worthing.gov.uk,-0.27911400000000,BN43 5EG,2012-02-07,fhrs_exempt_en-GB,Exempt,,FHRS,
211377,146 Albion Street,Southwick,West Sussex,,The Schooner,Pub/bar/nightclub,7843,20,,661455,10,,50.83142200000000,PI/000037468,323,envsupport@adur-worthing.gov.uk,Adur,http://www.adur-worthing.gov.uk,-0.23384200000000,BN42 4AU,2014-10-06,fhrs_1_en-GB,1,,FHRS,10
211378,,,,,The Tiffin Box,Mobile caterer,7846,5,,661447,5,,,PI/000037126,323,envsupport@adur-worthing.gov.uk,Adur,http://www.adur-worthing.gov.uk,,,2014-12-08,fhrs_5_en-GB,5,,FHRS,0
211379,79-81 North Road,Lancing,West Sussex,,The Toy Shop,Retailers - other,4613,,,176065,,,50.82859500000000,PI/000035206,323,envsupport@adur-worthing.gov.uk,Adur,http://www.adur-worthing.gov.uk,-0.32258400000000,BN15 9AS,2010-09-08,fhrs_exempt_en-GB,Exempt,,FHRS,
211380,Sompting Village Primary School,Whitestyles Road,Sompting,West Sussex,Tic Toc Play Club-after school club,School/college/university,7845,5,,175882,0,,50.83287600000000,PI/000034396,323,envsupport@adur-worthing.gov.uk,Adur,http://www.adur-worthing.gov.uk,-0.34462600000000,BN15 0BU,2012-03-09,fhrs_5_en-GB,5,,FHRS,0
211381,18 North Road,Lancing,West Sussex,,Time Out,Restaurant/Cafe/Canteen,1,5,,175067,5,,50.82739500000000,PI/000030982,323,envsupport@adur-worthing.gov.uk,Adur,http://www.adur-worthing.gov.uk,-0.32234300000000,BN15 9AE,2014-03-25,fhrs_4_en-GB,4,,FHRS,10
211382,8-10 East Street,Shoreham-By-Sea,West Sussex,,Toast by the Coast,Restaurant/Cafe/Canteen,1,5,,175166,5,,50.83220200000000,PI/000031366,323,envsupport@adur-worthing.gov.uk,Adur,http://www.adur-worthing.gov.uk,-0.27455500000000,BN43 5ZE,2014-09-16,fhrs_4_en-GB,4,,FHRS,10
211383,,,,,Tollemache,Mobile caterer,7846,5,,657072,5,,,PI/000014815,323,envsupport@adur-worthing.gov.uk,Adur,http://www.adur-worthing.gov.uk,,,2014-03-28,fhrs_5_en-GB,5,,FHRS,5
211384,6 High Street,Shoreham-By-Sea,West Sussex,,Tom Foolery Coffee Co,Restaurant/Cafe/Canteen,1,10,,693202,5,,50.83193100000000,PI/000037536,323,envsupport@adur-worthing.gov.uk,Adur,http://www.adur-worthing.gov.uk,-0.27564400000000,BN43 5DA,2014-07-24,fhrs_3_en-GB,3,,FHRS,10
211385,19 Buckingham Road,Shoreham-By-Sea,West Sussex,,Tony's Fish Bar,Takeaway/sandwich shop,7844,10,,564183,15,,50.83515700000000,PI/000036500,323,envsupport@adur-worthing.gov.uk,Adur,http://www.adur-worthing.gov.uk,-0.27247200000000,BN43 5UA,2013-11-19,fhrs_2_en-GB,2,,FHRS,10
211386,39-41 High Street,Shoreham-By-Sea,West Sussex,,Tosca Ristorante,Restaurant/Cafe/Canteen,1,5,,175906,5,,50.83171400000000,PI/000034498,323,envsupport@adur-worthing.gov.uk,Adur,http://www.adur-worthing.gov.uk,-0.27617700000000,BN43 5DD,2013-02-18,fhrs_5_en-GB,5,,FHRS,0
211387,Unit 5-6,Malthouse Trading Estate,Brighton Road,Shoreham-By-Sea,Travis Perkins (Building Materials),Retailers - other,4613,,,730650,,,50.83256800000000,PI/000037307,323,envsupport@adur-worthing.gov.uk,Adur,http://www.adur-worthing.gov.uk,-0.25801100000000,BN43 6RJ,2014-12-30,fhrs_exempt_en-GB,Exempt,,FHRS,
211388,1 Queensway,Lancing,West Sussex,,Truffles,Retailers - other,4613,5,,164333,5,,50.82885300000000,PI/000006123,323,envsupport@adur-worthing.gov.uk,Adur,http://www.adur-worthing.gov.uk,-0.32179300000000,BN15 9AY,2014-03-24,fhrs_4_en-GB,4,,FHRS,10
211389,18-20 Brunswick Road,Shoreham-By-Sea,West Sussex,,Truffles,Retailers - other,4613,10,,166952,10,,50.83365700000000,PI/000010519,323,envsupport@adur-worthing.gov.uk,Adur,http://www.adur-worthing.gov.uk,-0.27257000000000,BN43 5WB,2013-11-21,fhrs_2_en-GB,2,,FHRS,15
211390,40 Sompting Road,Lancing,West Sussex,,Tuck Shop,Retailers - other,4613,5,,165457,10,,50.82772900000000,PI/000008048,323,envsupport@adur-worthing.gov.uk,Adur,http://www.adur-worthing.gov.uk,-0.32740000000000,BN15 9JX,2009-06-23,fhrs_3_en-GB,3,,FHRS,10
211391,Unit 2,48 Marlborough Road,Lancing Business Park,Lancing,Tuk Tuk,Restaurant/Cafe/Canteen,1,,,175911,,,50.82097100000000,PI/000034512,323,envsupport@adur-worthing.gov.uk,Adur,http://www.adur-worthing.gov.uk,-0.33217000000000,BN15 8UF,2014-05-16,fhrs_5_en-GB,5,,FHRS,
211392,,,,,Tukris Cakes,Other catering premises,7841,5,,172954,0,,,PI/000024537,323,envsupport@adur-worthing.gov.uk,Adur,http://www.adur-worthing.gov.uk,,,2012-06-27,fhrs_5_en-GB,5,,FHRS,5
211393,276 Upper Shoreham Road,Shoreham-By-Sea,West Sussex,,Uncle Sams,Takeaway/sandwich shop,7844,0,,170951,0,,50.84154100000000,PI/000019081,323,envsupport@adur-worthing.gov.uk,Adur,http://www.adur-worthing.gov.uk,-0.26027600000000,BN43 6BF,2015-01-30,fhrs_5_en-GB,5,,FHRS,0
211394,72 Crabtree Lane,Lancing,West Sussex,,Uncle Sams,Takeaway/sandwich shop,7844,5,,434318,5,,50.83206500000000,PI/000002365,323,envsupport@adur-worthing.gov.uk,Adur,http://www.adur-worthing.gov.uk,-0.32189100000000,BN15 9PJ,2014-02-11,fhrs_5_en-GB,5,,FHRS,5
211395,391 Brighton Road,Lancing,West Sussex,,V & P Convenience Store,Retailers - other,4613,10,,174610,5,,50.82585300000000,PI/000029594,323,envsupport@adur-worthing.gov.uk,Adur,http://www.adur-worthing.gov.uk,-0.29723700000000,BN15 8JX,2012-05-11,fhrs_3_en-GB,3,,FHRS,10
211396,,,,,Vicky's Cupcakes,Other catering premises,7841,10,,176126,5,,,PI/000035502,323,envsupport@adur-worthing.gov.uk,Adur,http://www.adur-worthing.gov.uk,,,2011-01-13,fhrs_4_en-GB,4,,FHRS,5
211397,11 Manor Close,Southwick,West Sussex,,Vintage Tea Party Sussex,Other catering premises,7841,,,175893,,,50.83626400000000,PI/000034416,323,envsupport@adur-worthing.gov.uk,Adur,http://www.adur-worthing.gov.uk,-0.22101900000000,BN42 4NW,2014-03-21,fhrs_5_en-GB,5,,FHRS,
211398,Lower Beach Road,Shoreham-By-Sea,West Sussex,,Waterside Inn,Pub/bar/nightclub,7843,,,169435,,,50.82909800000000,PI/000015091,323,envsupport@adur-worthing.gov.uk,Adur,http://www.adur-worthing.gov.uk,-0.27200000000000,BN43 5RA,2014-01-10,fhrs_5_en-GB,5,,FHRS,
211399,20 West Street,Shoreham-By-Sea,West Sussex,,West Street Loft,Other catering premises,7841,10,,511283,10,,50.83373700000000,PI/000036115,323,envsupport@adur-worthing.gov.uk,Adur,http://www.adur-worthing.gov.uk,-0.27739500000000,BN43 5WG,2013-02-13,fhrs_3_en-GB,3,,FHRS,10
211400,4 Western Road,Lancing,West Sussex,,Western Stores,Retailers - other,4613,10,,166401,5,,50.81864700000000,PI/000009510,323,envsupport@adur-worthing.gov.uk,Adur,http://www.adur-worthing.gov.uk,-0.33377200000000,BN15 8RR,2014-02-04,fhrs_4_en-GB,4,,FHRS,5
211401,West Beach Cafe,West Beach,Shoreham-By-Sea,West Sussex,Widewater Beach Kiosk,Takeaway/sandwich shop,7844,5,,539916,5,,,PI/000036298,323,envsupport@adur-worthing.gov.uk,Adur,http://www.adur-worthing.gov.uk,,BN43 5FU,2013-05-16,fhrs_5_en-GB,5,,FHRS,5
211402,58-60 Crabtree Lane,Lancing,West Sussex,,Wilmshurst Chemist,Retailers - other,4613,5,,162092,0,,50.83206500000000,PI/000002344,323,envsupport@adur-worthing.gov.uk,Adur,http://www.adur-worthing.gov.uk,-0.32189100000000,BN15 9PJ,2010-02-12,fhrs_5_en-GB,5,,FHRS,0
211403,114 High Street,Shoreham-By-Sea,West Sussex,,Yasmin,Takeaway/sandwich shop,7844,5,,175760,5,,50.83252100000000,PI/000033717,323,envsupport@adur-worthing.gov.uk,Adur,http://www.adur-worthing.gov.uk,-0.27788000000000,BN43 5DB,2014-12-16,fhrs_5_en-GB,5,,FHRS,5
211404,13 Buckingham Road,Shoreham-By-Sea,West Sussex,,Yellow River,Takeaway/sandwich shop,7844,10,,174704,10,,50.83515700000000,PI/000029836,323,envsupport@adur-worthing.gov.uk,Adur,http://www.adur-worthing.gov.uk,-0.27247200000000,BN43 5UA,2014-01-22,fhrs_3_en-GB,3,,FHRS,10
211405,302 Upper Shoreham Road,Shoreham-By-Sea,West Sussex,,Young Sussex,Other catering premises,7841,0,,170962,0,,50.84001600000000,PI/000019109,323,envsupport@adur-worthing.gov.uk,Adur,http://www.adur-worthing.gov.uk,-0.26962200000000,BN43 6BA,2014-09-19,fhrs_5_en-GB,5,,FHRS,5
211406,Marks And Spencers Plc,Holmbush Centre,Upper Shoreham Road,Shoreham-By-Sea,Your Cafe Staff Restaurant,Restaurant/Cafe/Canteen,1,0,,175346,0,,50.84212600000000,PI/000031961,323,envsupport@adur-worthing.gov.uk,Adur,http://www.adur-worthing.gov.uk,-0.25190300000000,BN43 6TD,2014-08-29,fhrs_5_en-GB,5,,FHRS,5
