,addressline1,addressline2,addressline3,addressline4,businessname,businesstype,businesstypeid,confidenceinmanagement,extractdate,fhrsid,hygiene,itemcount,latitude,localauthoritybusinessid,localauthoritycode,localauthorityemailaddress,localauthorityname,localauthoritywebsite,longitude,postcode,ratingdate,ratingkey,ratingvalue,returncode,schemetype,structural
223305,Fairhaven Fernhill Road Horley Surrey,,,,A + J Sweets And Catering,Mobile caterer,7846,,,718786,,,51.15534700000000,14/00111/COMM,326,foodandsafety@crawley.gov.uk,Crawley,http://www.crawley.gov.uk,-0.14333800000000,RH6 9SY,,fhrs_awaitinginspection_en-GB,AwaitingInspection,,FHRS,
223306,Fairhaven Fernhill Road Horley Surrey,,,,A&J Sweets,Mobile caterer,7846,10,,555056,5,,51.15534700000000,13/00049/COMM,326,foodandsafety@crawley.gov.uk,Crawley,http://www.crawley.gov.uk,-0.14333800000000,RH6 9SY,2013-06-12,fhrs_4_en-GB,4,,FHRS,5
223307,Antlands Lane West Tinsley Green Crawley West Sussex,,,,Acorn Cottage,Hospitals/Childcare/Caring Premises,5,5,,190464,5,,51.14880300000000,06054/7012/0/000,326,foodandsafety@crawley.gov.uk,Crawley,http://www.crawley.gov.uk,-0.13389200000000,RH6 9TE,2014-03-05,fhrs_4_en-GB,4,,FHRS,10
223308,Barnfield Road Northgate Crawley West Sussex,,,,Adelios - Black Dog,Restaurant/Cafe/Canteen,1,10,,722530,10,,51.12083700000000,14/00114/COMM,326,foodandsafety@crawley.gov.uk,Crawley,http://www.crawley.gov.uk,-0.18201700000000,RH10 8DS,2014-12-01,fhrs_3_en-GB,3,,FHRS,10
223309,28 - 32 The Broadway Northgate Crawley West Sussex,,,,Affogato,Restaurant/Cafe/Canteen,1,5,,190541,5,,51.11498400000000,06606/7017/2/000,326,foodandsafety@crawley.gov.uk,Crawley,http://www.crawley.gov.uk,-0.18849100000000,RH10 1HG,2015-02-05,fhrs_5_en-GB,5,,FHRS,5
223310,Bitmead Close Ifield Crawley West Sussex,,,,Afriway,Other catering premises,7841,10,,590733,5,,,13/00069/COMM,326,foodandsafety@crawley.gov.uk,Crawley,http://www.crawley.gov.uk,,,2013-09-24,fhrs_4_en-GB,4,,FHRS,0
223311,Sheraton Walk Broadfield Crawley West Sussex,,,,Afriway,Other catering premises,7841,10,,590732,5,,,13/00068/COMM,326,foodandsafety@crawley.gov.uk,Crawley,http://www.crawley.gov.uk,,,2013-09-24,fhrs_4_en-GB,4,,FHRS,0
223312,42 High Street Crawley West Sussex,,,,Afters,Restaurant/Cafe/Canteen,1,10,,669161,5,,51.11422000000000,14/00040/COMM,326,foodandsafety@crawley.gov.uk,Crawley,http://www.crawley.gov.uk,-0.19085000000000,RH10 1BW,2014-05-28,fhrs_4_en-GB,4,,FHRS,5
223313,Tilgate Community Centre Shackleton Road Tilgate Crawley West Sussex,,,,Age UK,Other catering premises,7841,5,,190460,0,,51.10438700000000,04071/7001/2/001,326,foodandsafety@crawley.gov.uk,Crawley,http://www.crawley.gov.uk,-0.17844900000000,RH10 5DF,2013-09-24,fhrs_5_en-GB,5,,FHRS,5
223314,Povey Cross Road Langley Green Horley Surrey,,,,Airport Inn Gatwick,Hotel/bed & breakfast/guest house,7842,5,,190426,5,,51.16658200000000,83021/0001/2/000,326,foodandsafety@crawley.gov.uk,Crawley,http://www.crawley.gov.uk,-0.17959000000000,RH6 0AD,2014-03-04,fhrs_5_en-GB,5,,FHRS,5
223315,8 Langley Parade Langley Green Crawley West Sussex,,,,Al Ayaan Cuisine,Restaurant/Cafe/Canteen,1,10,,190741,10,,51.12851100000000,02678/0008/0/000,326,foodandsafety@crawley.gov.uk,Crawley,http://www.crawley.gov.uk,-0.19848000000000,RH11 7RS,2014-05-01,fhrs_3_en-GB,3,,FHRS,5
223316,11 Dorsten Square Bewbush Crawley West Sussex,,,,Al Naseeb,Takeaway/sandwich shop,7844,5,,190723,5,,51.10379100000000,07212/0011/0/000,326,foodandsafety@crawley.gov.uk,Crawley,http://www.crawley.gov.uk,-0.22211000000000,RH11 8XW,2014-10-14,fhrs_5_en-GB,5,,FHRS,5
223317,13 Broad Walk Northgate Crawley West Sussex,,,,All Day Cafe 2,Restaurant/Cafe/Canteen,1,5,,190642,5,,51.11547900000000,06599/0013/0/000,326,foodandsafety@crawley.gov.uk,Crawley,http://www.crawley.gov.uk,-0.18908600000000,RH10 1HJ,2014-04-04,fhrs_5_en-GB,5,,FHRS,5
223318,Units 5 To 6 Rutherford Way Industrial Estate Rutherford Way Northgate Crawley West Sussex,,,,Anise Catering,Other catering premises,7841,5,,669162,5,,51.13877800000000,14/00050/COMM,326,foodandsafety@crawley.gov.uk,Crawley,http://www.crawley.gov.uk,-0.16701800000000,RH10 9LN,2015-01-27,fhrs_5_en-GB,5,,FHRS,5
223319,93 High Street Northgate Crawley West Sussex,,,,Anjelique Bar,Other catering premises,7841,5,,313092,5,,51.11588400000000,02260/0093/0/000,326,foodandsafety@crawley.gov.uk,Crawley,http://www.crawley.gov.uk,-0.18967000000000,RH10 1BA,2014-03-21,fhrs_5_en-GB,5,,FHRS,5
223320,"South Terminal Landside, Gatwick Airport, Crawley, West Sussex",,,,Apostrophe,Restaurant/Cafe/Canteen,1,0,,190287,0,,51.15600000000000,11/00143/COMM,326,foodandsafety@crawley.gov.uk,Crawley,http://www.crawley.gov.uk,-0.16306100000000,RH6 0NN,2014-02-25,fhrs_5_en-GB,5,,FHRS,5
223321,Unit U17 South Terminal Departure Lounge Gatwick Airport West Sussex,,,,Apostrophe,Restaurant/Cafe/Canteen,1,0,,190257,0,,51.15600000000000,08/00026/COMM,326,foodandsafety@crawley.gov.uk,Crawley,http://www.crawley.gov.uk,-0.16306100000000,RH6 0NN,2013-12-18,fhrs_5_en-GB,5,,FHRS,5
223322,Bp Service Station Crawley Avenue Crawley West Sussex,,,,Apple Green - Crawley Avenue Service Station,Retailers - other,4613,5,,190489,5,,,01151/0908/0/002,326,foodandsafety@crawley.gov.uk,Crawley,http://www.crawley.gov.uk,,RH10 2NF,2014-05-22,fhrs_4_en-GB,4,,FHRS,10
223323,62 Ewhurst Road West Green Crawley West Sussex,,,,Archy's Supermarket,Retailers - supermarkets/hypermarkets,7840,5,,190393,5,,51.11935200000000,01527/0062/0/000,326,foodandsafety@crawley.gov.uk,Crawley,http://www.crawley.gov.uk,-0.19940800000000,RH11 7HE,2015-02-11,fhrs_5_en-GB,5,,FHRS,5
223324,Unit U12 North Terminal Airside Departures Road Gatwick Crawley West Sussex,,,,Armadillo,Restaurant/Cafe/Canteen,1,0,,190288,5,,51.15600000000000,04/00024/COMM,326,foodandsafety@crawley.gov.uk,Crawley,http://www.crawley.gov.uk,-0.16306100000000,RH6 0NP,2014-10-24,fhrs_5_en-GB,5,,FHRS,5
223325,Southgate Avenue Southgate Crawley West Sussex,,,,Arora Hotel,Hotel/bed & breakfast/guest house,7842,5,,190439,0,,51.11157000000000,04191/7005/2/000,326,foodandsafety@crawley.gov.uk,Crawley,http://www.crawley.gov.uk,-0.18405300000000,RH10 6LW,2014-02-12,fhrs_5_en-GB,5,,FHRS,5
223326,Pegler Way West Green Crawley West Sussex,,,,Asda,Retailers - supermarkets/hypermarkets,7840,5,,190399,5,,51.11354900000000,03504/7010/0/000,326,foodandsafety@crawley.gov.uk,Crawley,http://www.crawley.gov.uk,-0.19220400000000,RH11 7AH,2014-03-25,fhrs_5_en-GB,5,,FHRS,5
223327,49 - 51 High Street Northgate Crawley West Sussex,,,,Ask,Restaurant/Cafe/Canteen,1,0,,190207,0,,51.11442400000000,02260/0049/0/000,326,foodandsafety@crawley.gov.uk,Crawley,http://www.crawley.gov.uk,-0.19009900000000,RH10 1BQ,2013-08-08,fhrs_5_en-GB,5,,FHRS,5
223328,International Departures Lounge North Terminal Gatwick Airport,,,,Aspire Lounge North Terminal,Restaurant/Cafe/Canteen,1,5,,201118,5,,51.15600000000000,12/00005/COMM,326,foodandsafety@crawley.gov.uk,Crawley,http://www.crawley.gov.uk,-0.16306100000000,RH6 0NP,2013-11-12,fhrs_5_en-GB,5,,FHRS,5
223329,190A Three Bridges Road Three Bridges Crawley West Sussex,,,,Baby Daisy Chain Day Nursery,Hospitals/Childcare/Caring Premises,5,5,,464520,5,,51.11706600000000,12/00025/COMM,326,foodandsafety@crawley.gov.uk,Crawley,http://www.crawley.gov.uk,-0.16570500000000,RH10 1LN,2014-05-16,fhrs_5_en-GB,5,,FHRS,0
223330,17 Queensway Northgate Crawley West Sussex,,,,Bakers Oven - Greggs,Restaurant/Cafe/Canteen,1,0,,190578,5,,51.11578100000000,03688/0017/0/000,326,foodandsafety@crawley.gov.uk,Crawley,http://www.crawley.gov.uk,-0.18593100000000,RH10 1EB,2014-09-11,fhrs_5_en-GB,5,,FHRS,5
223331,12 Broad Walk Northgate Crawley West Sussex,,,,Baltic Supermarket,Retailers - other,4613,10,,190690,5,,51.11525400000000,06599/0012/0/000,326,foodandsafety@crawley.gov.uk,Crawley,http://www.crawley.gov.uk,-0.18909500000000,RH10 1HQ,2014-06-02,fhrs_3_en-GB,3,,FHRS,10
223332,6 - 7 Pegler Way West Green Crawley West Sussex,,,,Bar 7,Other catering premises,7841,5,,190521,5,,51.11555400000000,03504/7007/0/000,326,foodandsafety@crawley.gov.uk,Crawley,http://www.crawley.gov.uk,-0.19164000000000,RH11 7AG,2013-04-26,fhrs_5_en-GB,5,,FHRS,5
223333,Barrington House Hunter Road Southgate Crawley West Sussex,,,,Barrington Lodge,Hotel/bed & breakfast/guest house,7842,10,,190255,5,,51.10449200000000,02386/7004/2/000,326,foodandsafety@crawley.gov.uk,Crawley,http://www.crawley.gov.uk,-0.19275800000000,RH10 6SY,2013-10-16,fhrs_4_en-GB,4,,FHRS,5
223334,Fleming Way Northgate Crawley West Sussex,,,,Baxterstorey @ CAE Gatwick,Restaurant/Cafe/Canteen,1,0,,688310,5,,51.13544500000000,14/00068/COMM,326,foodandsafety@crawley.gov.uk,Crawley,http://www.crawley.gov.uk,-0.18335900000000,RH10 9UH,2014-10-07,fhrs_5_en-GB,5,,FHRS,0
223335,Turnpike House 121 - 123 High Street Northgate Crawley West Sussex,,,,Baxterstorey @ RBS Crawley,Restaurant/Cafe/Canteen,1,5,,623120,0,,51.11818100000000,13/00116/COMM,326,foodandsafety@crawley.gov.uk,Crawley,http://www.crawley.gov.uk,-0.18879400000000,RH10 1DH,2014-01-06,fhrs_5_en-GB,5,,FHRS,5
223336,Manor Royal Northgate Crawley West Sussex,,,,Baxterstorey at B  CE Benefit System,Restaurant/Cafe/Canteen,1,0,,190223,0,,51.12924000000000,02936/7002/2/000,326,foodandsafety@crawley.gov.uk,Crawley,http://www.crawley.gov.uk,-0.18513200000000,RH10 9QP,2014-03-24,fhrs_5_en-GB,5,,FHRS,0
223337,Forest House Tilgate Forest Business Centre Brighton Road Tilgate Crawley West Sussex,,,,BaxterStorey at Bard,Restaurant/Cafe/Canteen,1,0,,190699,0,,51.09295900000000,06582/7002/2/000,326,foodandsafety@crawley.gov.uk,Crawley,http://www.crawley.gov.uk,-0.19366400000000,RH11 9BP,2014-08-19,fhrs_5_en-GB,5,,FHRS,5
223338,Doosan House Crawley Business Quarter  Northgate Crawley West Sussex,,,,BaxterStorey at Doosan Power Systems,Restaurant/Cafe/Canteen,1,5,,190745,5,,51.13222700000000,01154/7001/3/001,326,foodandsafety@crawley.gov.uk,Crawley,http://www.crawley.gov.uk,-0.18234200000000,RH10 9AD,2014-09-15,fhrs_5_en-GB,5,,FHRS,5
223339,Linac House Fleming Way Northgate Crawley West Sussex,,,,BaxterStorey at Elekta,Restaurant/Cafe/Canteen,1,0,,190431,0,,51.13703000000000,01652/7027/2/000,326,foodandsafety@crawley.gov.uk,Crawley,http://www.crawley.gov.uk,-0.16911700000000,RH10 9PR,2013-01-25,fhrs_5_en-GB,5,,FHRS,0
223340,1 City Place Beehive Ring Road Crawley West Sussex,,,,BaxterStorey at Nestle,Restaurant/Cafe/Canteen,1,0,,479181,0,,,12/00085/COMM,326,foodandsafety@crawley.gov.uk,Crawley,http://www.crawley.gov.uk,,,2014-11-18,fhrs_5_en-GB,5,,FHRS,0
223341,The Atrium London Road Langley Green Crawley West Sussex,,,,BaxterStorey at Tui,Restaurant/Cafe/Canteen,1,0,,190469,0,,51.13655000000000,05520/7004/2/000,326,foodandsafety@crawley.gov.uk,Crawley,http://www.crawley.gov.uk,-0.18678900000000,RH10 9SR,2013-01-11,fhrs_5_en-GB,5,,FHRS,0
223342,Jetset House Church Road Crawley West Sussex,,,,BaxterStorey at Tui Travel,Restaurant/Cafe/Canteen,1,0,,190204,5,,51.11530400000000,04/00047/COMM,326,foodandsafety@crawley.gov.uk,Crawley,http://www.crawley.gov.uk,-0.12905500000000,RH10 0PQ,2014-12-15,fhrs_5_en-GB,5,,FHRS,0
223343,Tui House Crawley Business Quarter Northgate Crawley West Sussex,,,,BaxterStorey at Tui Travel,Restaurant/Cafe/Canteen,1,5,,190605,5,,51.09254100000000,01155/7001/0/000,326,foodandsafety@crawley.gov.uk,Crawley,http://www.crawley.gov.uk,-0.19857900000000,RH11 9QL,2014-08-15,fhrs_5_en-GB,5,,FHRS,5
223344,Unit 8 Crawley Leisure Park London Road West Green Crawley West Sussex,,,,Bella Italia,Restaurant/Cafe/Canteen,1,5,,190241,0,,51.12024500000000,05/00009/COMM,326,foodandsafety@crawley.gov.uk,Crawley,http://www.crawley.gov.uk,-0.18965700000000,RH10 8LR,2015-01-20,fhrs_5_en-GB,5,,FHRS,5
223345,71 Gales Drive Three Bridges Crawley West Sussex,,,,Bengal Spices,Restaurant/Cafe/Canteen,1,10,,190536,10,,51.11768600000000,01805/0071/0/000,326,foodandsafety@crawley.gov.uk,Crawley,http://www.crawley.gov.uk,-0.17255400000000,RH10 1QA,2014-03-19,fhrs_3_en-GB,3,,FHRS,10
223346,4A Ifield Road West Green Crawley West Sussex,,,,Best Kebab,Takeaway/sandwich shop,7844,10,,190509,15,,51.11438700000000,02435/7001/A/000,326,foodandsafety@crawley.gov.uk,Crawley,http://www.crawley.gov.uk,-0.19117200000000,RH11 7AP,2014-10-30,fhrs_2_en-GB,2,,FHRS,10
223347,4 The Broadway Northgate Crawley West Sussex,,,,Best One,Retailers - other,4613,10,,190754,5,,51.11601800000000,06606/0004/0/000,326,foodandsafety@crawley.gov.uk,Crawley,http://www.crawley.gov.uk,-0.18846500000000,RH10 1DS,2014-01-23,fhrs_2_en-GB,2,,FHRS,15
223348,7 Southgate Parade Southgate Crawley West Sussex,,,,Best One,Retailers - supermarkets/hypermarkets,7840,10,,190385,5,,51.10582400000000,04205/0007/0/000,326,foodandsafety@crawley.gov.uk,Crawley,http://www.crawley.gov.uk,-0.18757800000000,RH10 6ER,2013-02-20,fhrs_4_en-GB,4,,FHRS,5
223349,Bewbush Centre Dorsten Square Bewbush Crawley West Sussex,,,,Bewbush Centre - Freedom Cafe,Restaurant/Cafe/Canteen,1,5,,190770,0,,51.10379100000000,10/00126/COMM,326,foodandsafety@crawley.gov.uk,Crawley,http://www.crawley.gov.uk,-0.22211000000000,RH11 8XW,2014-10-30,fhrs_5_en-GB,5,,FHRS,0
223350,Dorsten Square Bewbush Crawley West Sussex,,,,Bewbush Community Primary School,School/college/university,7845,5,,190239,5,,51.10379100000000,07212/7019/2/000,326,foodandsafety@crawley.gov.uk,Crawley,http://www.crawley.gov.uk,-0.22211000000000,RH11 8XW,2014-03-17,fhrs_5_en-GB,5,,FHRS,5
223351,Bewbush Community Middle School Dorsten Square Bewbush Crawley West Sussex,,,,Bewbush Nursery,Hospitals/Childcare/Caring Premises,5,0,,190725,0,,51.10379100000000,09/00024/COMM,326,foodandsafety@crawley.gov.uk,Crawley,http://www.crawley.gov.uk,-0.22211000000000,RH11 8XW,2013-10-30,fhrs_5_en-GB,5,,FHRS,5
223352,6 Spindle Way Three Bridges Crawley West Sussex,,,,Bhakti Yoga Centre,Restaurant/Cafe/Canteen,1,10,,636053,5,,,14/00004/COMM,326,foodandsafety@crawley.gov.uk,Crawley,http://www.crawley.gov.uk,,,2014-02-20,fhrs_4_en-GB,4,,FHRS,5
223353,Store 2 County Mall Crawley West Sussex,,,,BHS including CafÃ©,Restaurant/Cafe/Canteen,1,0,,190506,5,,51.11318900000000,01100/1002/3/000,326,foodandsafety@crawley.gov.uk,Crawley,http://www.crawley.gov.uk,-0.18523200000000,RH10 1FU,2013-08-15,fhrs_5_en-GB,5,,FHRS,0
223354,14 The Parade Northgate Crawley West Sussex,,,,Black Sea Fish And Chips,Takeaway/sandwich shop,7844,5,,190224,5,,51.12125400000000,03430/0014/0/000,326,foodandsafety@crawley.gov.uk,Crawley,http://www.crawley.gov.uk,-0.18110100000000,RH10 8DT,2014-11-27,fhrs_4_en-GB,4,,FHRS,10
223355,15 The Parade Northgate Crawley West Sussex,,,,Bloomers Bakery,Restaurant/Cafe/Canteen,1,5,,190202,5,,51.12125400000000,03430/0015/0/000,326,foodandsafety@crawley.gov.uk,Crawley,http://www.crawley.gov.uk,-0.18110100000000,RH10 8DT,2014-08-14,fhrs_4_en-GB,4,,FHRS,10
223356,59 High Street Northgate Crawley West Sussex,,,,Blue India,Restaurant/Cafe/Canteen,1,5,,190182,5,,51.11442400000000,02260/0059/0/000,326,foodandsafety@crawley.gov.uk,Crawley,http://www.crawley.gov.uk,-0.19009900000000,RH10 1BQ,2014-09-24,fhrs_5_en-GB,5,,FHRS,5
223357,Jubilee House Furlong Way Gatwick Crawley West Sussex,,,,Bonde  (Ground Floor),Restaurant/Cafe/Canteen,1,0,,190196,0,,51.18902800000000,06/00043/COMM,326,foodandsafety@crawley.gov.uk,Crawley,http://www.crawley.gov.uk,-0.16312300000000,RH6 0JN,2011-08-23,fhrs_5_en-GB,5,,FHRS,0
223358,Pound Hill Junior School Crawley Lane Pound Hill Crawley West Sussex,,,,Breakfast Club @ Pound Hill Junior School,Restaurant/Cafe/Canteen,1,5,,542591,0,,51.11859100000000,13/00026/COMM,326,foodandsafety@crawley.gov.uk,Crawley,http://www.crawley.gov.uk,-0.15401400000000,RH10 7EB,2014-11-12,fhrs_5_en-GB,5,,FHRS,5
223359,102 Worth Road Pound Hill Crawley West Sussex,,,,Bright Horizons - Teddies Nursery,Hospitals/Childcare/Caring Premises,5,0,,190571,0,,51.11887200000000,04951/0102/0/000,326,foodandsafety@crawley.gov.uk,Crawley,http://www.crawley.gov.uk,-0.15644600000000,RH10 7DX,2014-11-04,fhrs_5_en-GB,5,,FHRS,0
223360,North Terminal Departure Lounge Gatwick Airport Crawley West Sussex,,,,British Airways First Class And Terrace Lounge,Restaurant/Cafe/Canteen,1,0,,635090,0,,51.15778100000000,81018/0200/3/014,326,foodandsafety@crawley.gov.uk,Crawley,http://www.crawley.gov.uk,-0.19253500000000,RH6 0NP,2014-02-12,fhrs_5_en-GB,5,,FHRS,0
223361,Hangar 6  Perimeter Road South Langley Green Crawley West Sussex,,,,British Airways Staff Canteen,Restaurant/Cafe/Canteen,1,0,,190229,5,,,83001/0006/0/001,326,foodandsafety@crawley.gov.uk,Crawley,http://www.crawley.gov.uk,,RH6 0FY,2014-12-04,fhrs_5_en-GB,5,,FHRS,5
223362,Vulcan Close Broadfield Crawley West Sussex,,,,Broadfield East Infant School,School/college/university,7845,0,,190724,5,,51.09774300000000,06/00053/COMM,326,foodandsafety@crawley.gov.uk,Crawley,http://www.crawley.gov.uk,-0.19713400000000,RH11 9PD,2012-12-13,fhrs_5_en-GB,5,,FHRS,0
223363,Vulcan Close Broadfield Crawley West Sussex,,,,Broadfield East Junior School,School/college/university,7845,0,,190387,0,,51.09774300000000,04676/7001/2/000,326,foodandsafety@crawley.gov.uk,Crawley,http://www.crawley.gov.uk,-0.19713400000000,RH11 9PD,2014-02-04,fhrs_5_en-GB,5,,FHRS,0
223364,28 - 30 Broadfield Barton Broadfield Crawley West Sussex,,,,Broadfield Newsagent & Post Office,Retailers - other,4613,5,,190231,5,,51.09705500000000,06593/7016/2/000,326,foodandsafety@crawley.gov.uk,Crawley,http://www.crawley.gov.uk,-0.20558700000000,RH11 9BA,2014-03-21,fhrs_5_en-GB,5,,FHRS,5
223365,Community Centre Creasys Drive Broadfield Crawley West Sussex,,,,Broadfield Nursery CIC,Hospitals/Childcare/Caring Premises,5,5,,190475,0,,51.09548300000000,07/00070/COMM,326,foodandsafety@crawley.gov.uk,Crawley,http://www.crawley.gov.uk,-0.20979000000000,RH11 9HJ,2014-09-15,fhrs_5_en-GB,5,,FHRS,0
223366,20 - 22 Broadfield Barton Broadfield Crawley West Sussex,,,,Broadfield Premier,Retailers - supermarkets/hypermarkets,7840,5,,190629,10,,51.09705500000000,06593/0020/0/000,326,foodandsafety@crawley.gov.uk,Crawley,http://www.crawley.gov.uk,-0.20558700000000,RH11 9BA,2013-04-24,fhrs_4_en-GB,4,,FHRS,5
223367,Brookfield House London Road Crawley West Sussex,,,,Brookfield Day Nursery,Hospitals/Childcare/Caring Premises,5,5,,190173,5,,51.13773200000000,05508/7008/2/000,326,foodandsafety@crawley.gov.uk,Crawley,http://www.crawley.gov.uk,-0.18938700000000,RH10 9TR,2014-11-06,fhrs_4_en-GB,4,,FHRS,10
223368,12 Brighton Road Southgate Crawley West Sussex,,,,Brother's Open House,Restaurant/Cafe/Canteen,1,5,,190197,10,,51.11189500000000,11/00121/COMM,326,foodandsafety@crawley.gov.uk,Crawley,http://www.crawley.gov.uk,-0.19051200000000,RH10 6AA,2015-01-14,fhrs_3_en-GB,3,,FHRS,10
223369,Food Court Kiosk 7 County Mall Station Way Northgate Crawley West Sussex,,,,Burger King,Restaurant/Cafe/Canteen,1,0,,190551,0,,51.11352200000000,01100/2006/3/000,326,foodandsafety@crawley.gov.uk,Crawley,http://www.crawley.gov.uk,-0.18527600000000,RH10 1FP,2014-03-05,fhrs_5_en-GB,5,,FHRS,5
223370,Unit 2 Denvale Trade Park Haslett Avenue East Three Bridges Crawley West Sussex,,,,Busy Bees,Hospitals/Childcare/Caring Premises,5,0,,190249,0,,51.11367600000000,01324/0002/0/000,326,foodandsafety@crawley.gov.uk,Crawley,http://www.crawley.gov.uk,-0.18009800000000,RH10 1SS,2014-09-08,fhrs_5_en-GB,5,,FHRS,0
223371,Principal Park Development Manor Royal Northgate Crawley West Sussex,,,,Cafe 21 @ Mace Ltd Construction Site Canteen,Restaurant/Cafe/Canteen,1,5,,656768,5,,,14/00039/COMM,326,foodandsafety@crawley.gov.uk,Crawley,http://www.crawley.gov.uk,,,2014-10-02,fhrs_5_en-GB,5,,FHRS,5
223372,6 Broad Walk Northgate Crawley West Sussex,,,,Cafe Bistro,Restaurant/Cafe/Canteen,1,20,,190262,10,,51.11525400000000,06599/0006/0/000,326,foodandsafety@crawley.gov.uk,Crawley,http://www.crawley.gov.uk,-0.18909500000000,RH10 1HQ,2014-09-01,fhrs_1_en-GB,1,,FHRS,15
223373,"North Road, Three Bridges, Crawley, West Sussex",,,,Cafe Chameleon + Green Man Cafe,Other catering premises,7841,5,,574171,5,,51.12015400000000,12/00068/COMM,326,foodandsafety@crawley.gov.uk,Crawley,http://www.crawley.gov.uk,-0.16881200000000,RH10 1RH,2013-07-29,fhrs_5_en-GB,5,,FHRS,5
223374,Kiosk D County Mall Station Way Northgate Crawley West Sussex,,,,Cafe Giardino,Takeaway/sandwich shop,7844,10,,190325,15,,,01100/2009/3/000,326,foodandsafety@crawley.gov.uk,Crawley,http://www.crawley.gov.uk,,,2013-12-13,fhrs_2_en-GB,2,,FHRS,10
223375,Unit 30 County Mall Station Way Northgate Crawley West Sussex,,,,Cafe Giardino,Restaurant/Cafe/Canteen,1,5,,190211,5,,51.11360000000000,01100/0030/3/000,326,foodandsafety@crawley.gov.uk,Crawley,http://www.crawley.gov.uk,-0.18561600000000,RH10 1FF,2014-12-05,fhrs_5_en-GB,5,,FHRS,5
223376,Three Bridges Station Haslett Avenue East Three Bridges Crawley West Sussex,,,,Cafe Giorno  (platform 3 + 4),Restaurant/Cafe/Canteen,1,10,,545766,10,,51.11813500000000,07/00031/COMM,326,foodandsafety@crawley.gov.uk,Crawley,http://www.crawley.gov.uk,-0.16164800000000,RH10 1LY,2014-12-12,fhrs_3_en-GB,3,,FHRS,5
223377,Ground Floor Part The Manor Manor Royal Northgate Crawley West Sussex,,,,Cafe Quattro,Restaurant/Cafe/Canteen,1,0,,190148,0,,51.12943800000000,07/00041/COMM,326,foodandsafety@crawley.gov.uk,Crawley,http://www.crawley.gov.uk,-0.17361900000000,RH10 9UN,2013-06-18,fhrs_5_en-GB,5,,FHRS,0
223378,23 Queensway Northgate Crawley West Sussex,,,,Cafe Revive - Marks and Spencer,Restaurant/Cafe/Canteen,1,0,,293407,5,,51.11590300000000,12/00020/COMM,326,foodandsafety@crawley.gov.uk,Crawley,http://www.crawley.gov.uk,-0.18514000000000,RH10 1EE,2014-10-24,fhrs_5_en-GB,5,,FHRS,5
223379,18 Broadfield Barton Broadfield Crawley West Sussex,,,,Cafe Santa Maria,Restaurant/Cafe/Canteen,1,5,,190391,5,,51.09705500000000,06593/0018/0/000,326,foodandsafety@crawley.gov.uk,Crawley,http://www.crawley.gov.uk,-0.20558700000000,RH11 9BA,2013-11-26,fhrs_4_en-GB,4,,FHRS,10
223380,Waterstones 4 - 6 The Martlets Northgate Crawley West Sussex,,,,Cafe W,Restaurant/Cafe/Canteen,1,5,,688309,0,,51.11453600000000,14/00067/COMM,326,foodandsafety@crawley.gov.uk,Crawley,http://www.crawley.gov.uk,-0.18682200000000,RH10 1ES,2014-09-04,fhrs_5_en-GB,5,,FHRS,5
223381,Astral Towers Betts Way Langley Green Crawley West Sussex,,,,Caffe Kix,Restaurant/Cafe/Canteen,1,5,,190732,5,,51.11530400000000,08/00021/COMM,326,foodandsafety@crawley.gov.uk,Crawley,http://www.crawley.gov.uk,-0.12905500000000,RH10 9XA,2014-02-06,fhrs_4_en-GB,4,,FHRS,10
223382,Three Bridges Station Haslett Avenue East Three Bridges Crawley West Sussex,,,,Caffe Latte,Restaurant/Cafe/Canteen,1,5,,571413,5,,,13/00037/COMM,326,foodandsafety@crawley.gov.uk,Crawley,http://www.crawley.gov.uk,,,2015-01-14,fhrs_5_en-GB,5,,FHRS,0
223383,11 The Martlets Northgate Crawley West Sussex,,,,Caffe Nero,Restaurant/Cafe/Canteen,1,0,,406111,0,,51.11486200000000,12/00032/COMM,326,foodandsafety@crawley.gov.uk,Crawley,http://www.crawley.gov.uk,-0.18641000000000,RH10 1ER,2014-07-29,fhrs_5_en-GB,5,,FHRS,5
223384,Concourse South Terminal Building Landside B206 Gatwick,,,,Caffe Nero,Restaurant/Cafe/Canteen,1,5,,190323,5,,,81015/0025/0/004,326,foodandsafety@crawley.gov.uk,Crawley,http://www.crawley.gov.uk,,,2013-10-16,fhrs_4_en-GB,4,,FHRS,10
223385,The Village Gatwick Airport South Terminal Landside Crawley West Sussex,,,,Caffe Nero,Restaurant/Cafe/Canteen,1,10,,190192,10,,51.15600000000000,81015/0300/3/006,326,foodandsafety@crawley.gov.uk,Crawley,http://www.crawley.gov.uk,-0.16306100000000,RH6 0NN,2014-10-08,fhrs_3_en-GB,3,,FHRS,10
223386,Concourse South Terminal Gatwick Airport West Sussex,,,,Caffe Nero Kiosk,Restaurant/Cafe/Canteen,1,5,,190176,5,,51.15603400000000,09/00078/COMM,326,foodandsafety@crawley.gov.uk,Crawley,http://www.crawley.gov.uk,-0.16120000000000,RH6 0RD,2013-10-17,fhrs_4_en-GB,4,,FHRS,10
223387,Unit 1 City Business Centre Whitworth Road Crawley West Sussex,,,,Camelot Chilled Foods,Distributors/Transporters,7,5,,190737,5,,51.13531700000000,09/00083/COMM,326,foodandsafety@crawley.gov.uk,Crawley,http://www.crawley.gov.uk,-0.19022500000000,RH11 7RY,2013-03-27,fhrs_5_en-GB,5,,FHRS,5
223388,22 Horsham Road West Green Crawley West Sussex,,,,Casbah Food & Wine,Retailers - supermarkets/hypermarkets,7840,10,,190692,10,,51.11409800000000,02372/0022/0/000,326,foodandsafety@crawley.gov.uk,Crawley,http://www.crawley.gov.uk,-0.19631200000000,RH11 7AX,2014-08-01,fhrs_3_en-GB,3,,FHRS,5
223389,South Terminal Departure Lounge Gatwick Airport Crawley West Sussex,,,,Caviar House & Prunier,Restaurant/Cafe/Canteen,1,5,,605052,5,,51.15600000000000,13/00074/COMM,326,foodandsafety@crawley.gov.uk,Crawley,http://www.crawley.gov.uk,-0.16306100000000,RH6 0NN,2013-10-23,fhrs_5_en-GB,5,,FHRS,0
223390,20 The Parade Northgate Crawley West Sussex,,,,Ceylon Spices,Restaurant/Cafe/Canteen,1,10,,190676,5,,51.12125400000000,03430/0020/0/000,326,foodandsafety@crawley.gov.uk,Crawley,http://www.crawley.gov.uk,-0.18110100000000,RH10 8DT,2013-01-30,fhrs_4_en-GB,4,,FHRS,5
223391,Virgin The Base Fleming Way Crawley West Sussex,,,,CH & Co Catering at Virgin The Base,Restaurant/Cafe/Canteen,1,5,,190400,0,,51.11530400000000,01652/7001/2/000,326,foodandsafety@crawley.gov.uk,Crawley,http://www.crawley.gov.uk,-0.12905500000000,RH10 9LZ,2014-03-26,fhrs_5_en-GB,5,,FHRS,5
223392,The Office Crawley Business Quarter Northgate Crawley West Sussex,,,,CH & Co Catering at Virgin The Office,Restaurant/Cafe/Canteen,1,0,,190145,0,,51.13271300000000,01154/7003/3/001,326,foodandsafety@crawley.gov.uk,Crawley,http://www.crawley.gov.uk,-0.18060800000000,RH10 9NU,2014-01-23,fhrs_5_en-GB,5,,FHRS,0
223393,5 Pegler Way Crawley West Sussex,,,,Chapati Junxion/Argy Bhaji,Takeaway/sandwich shop,7844,10,,190150,5,,51.11621900000000,11/00024/COMM,326,foodandsafety@crawley.gov.uk,Crawley,http://www.crawley.gov.uk,-0.19101400000000,RH11 7AE,2014-10-27,fhrs_4_en-GB,4,,FHRS,0
223394,Unit 4C (First Floor) Crawley Leisure Park London Road West Green Crawley West Sussex,,,,Charlie Choys,Restaurant/Cafe/Canteen,1,10,,190217,10,,51.12024500000000,10/00116/COMM,326,foodandsafety@crawley.gov.uk,Crawley,http://www.crawley.gov.uk,-0.18965700000000,RH10 8LR,2014-12-01,fhrs_3_en-GB,3,,FHRS,10
223395,53 Gatwick Road Northgate Crawley West Sussex,,,,Charlie's Deli,Restaurant/Cafe/Canteen,1,5,,190479,5,,51.13763100000000,09/00026/COMM,326,foodandsafety@crawley.gov.uk,Crawley,http://www.crawley.gov.uk,-0.16559100000000,RH10 9RD,2014-05-22,fhrs_5_en-GB,5,,FHRS,5
223396,Three Bridges Station Haslett Avenue East Three Bridges Crawley West Sussex,,,,Charlie's Refreshment And Snack Van,Mobile caterer,7846,10,,190167,5,,51.11813500000000,10000/7033/0/000,326,foodandsafety@crawley.gov.uk,Crawley,http://www.crawley.gov.uk,-0.16164800000000,RH10 1LY,2014-12-16,fhrs_4_en-GB,4,,FHRS,5
223397,Charlwood House Charlwood Road Langley Green Crawley West Sussex,,,,Charlwood House Day Nursery,Hospitals/Childcare/Caring Premises,5,5,,190184,5,,51.14320500000000,83014/0001/2/000,326,foodandsafety@crawley.gov.uk,Crawley,http://www.crawley.gov.uk,-0.20081100000000,RH11 0QA,2015-01-12,fhrs_5_en-GB,5,,FHRS,5
223398,Cherry Lane Langley Green Crawley,,,,Cherry Lane Adventure Playground,Restaurant/Cafe/Canteen,1,5,,190643,5,,51.13133300000000,06870/7001/2/000,326,foodandsafety@crawley.gov.uk,Crawley,http://www.crawley.gov.uk,-0.19545500000000,RH11 7NX,2013-03-11,fhrs_5_en-GB,5,,FHRS,0
223399,Wiltshires Farm Shop Balcombe Road Pound Hill Crawley West Sussex,,,,Cheryl's,Mobile caterer,7846,5,,190158,5,,51.11789300000000,11/00175/COMM,326,foodandsafety@crawley.gov.uk,Crawley,http://www.crawley.gov.uk,-0.14741500000000,,2014-10-24,fhrs_5_en-GB,5,,FHRS,5
223400,8 The Boulevard Northgate Crawley West Sussex,,,,Chicko's,Restaurant/Cafe/Canteen,1,5,,190326,5,,51.11637500000000,06505/0008/0/000,326,foodandsafety@crawley.gov.uk,Crawley,http://www.crawley.gov.uk,-0.18886500000000,RH10 1XX,2014-07-15,fhrs_4_en-GB,4,,FHRS,10
223401,47 High Street Northgate Crawley West Sussex,,,,Chimichanga,Restaurant/Cafe/Canteen,1,10,,190771,10,,51.11442400000000,02260/7038/2/001,326,foodandsafety@crawley.gov.uk,Crawley,http://www.crawley.gov.uk,-0.19009900000000,RH10 1BQ,2014-01-30,fhrs_4_en-GB,4,,FHRS,0
223402,1 Maidenbower Square Maidenbower Crawley West Sussex,,,,China Garden,Takeaway/sandwich shop,7844,20,,190694,15,,51.10736400000000,02910/0001/0/000,326,foodandsafety@crawley.gov.uk,Crawley,http://www.crawley.gov.uk,-0.15320400000000,RH10 7QH,2014-05-23,fhrs_1_en-GB,1,,FHRS,10
223403,9 The Parade Northgate Crawley West Sussex,,,,China Garden,Takeaway/sandwich shop,7844,10,,190681,10,,51.12125400000000,03430/0009/0/000,326,foodandsafety@crawley.gov.uk,Crawley,http://www.crawley.gov.uk,-0.18110100000000,RH10 8DT,2014-09-10,fhrs_3_en-GB,3,,FHRS,10
223404,Unit 4A Crawley Leisure Park London Road West Green Crawley West Sussex,,,,Chiquito's,Restaurant/Cafe/Canteen,1,0,,190740,0,,51.12024500000000,10/00115/COMM,326,foodandsafety@crawley.gov.uk,Crawley,http://www.crawley.gov.uk,-0.18965700000000,RH10 8LR,2014-10-01,fhrs_5_en-GB,5,,FHRS,5
223405,9 Langley Parade Langley Green Crawley West Sussex,,,,Choice Halal Centre,Retailers - other,4613,5,,190570,5,,51.12851100000000,02678/0009/0/000,326,foodandsafety@crawley.gov.uk,Crawley,http://www.crawley.gov.uk,-0.19848000000000,RH11 7RS,2014-11-07,fhrs_5_en-GB,5,,FHRS,5
223406,Food Court Kiosk 5 County Mall Station Way Crawley West Sussex,,,,Chopstix,Restaurant/Cafe/Canteen,1,5,,190639,10,,51.11360000000000,07/00053/COMM,326,foodandsafety@crawley.gov.uk,Crawley,http://www.crawley.gov.uk,-0.18561600000000,RH10 1FF,2013-08-29,fhrs_4_en-GB,4,,FHRS,5
223407,Unit 1 Crawley Leisure Park London Road West Green Crawley West Sussex,,,,Cineworld,Other catering premises,7841,0,,190624,0,,51.12024500000000,01166/0001/0/000,326,foodandsafety@crawley.gov.uk,Crawley,http://www.crawley.gov.uk,-0.18965700000000,RH10 8LR,2013-11-14,fhrs_5_en-GB,5,,FHRS,5
223408,6 Tilgate Parade Tilgate Crawley West Sussex,,,,Cinnamon,Restaurant/Cafe/Canteen,1,10,,198016,5,,51.10228000000000,04505/0006/0/000,326,foodandsafety@crawley.gov.uk,Crawley,http://www.crawley.gov.uk,-0.18057400000000,RH10 5EQ,2014-11-14,fhrs_4_en-GB,4,,FHRS,5
223409,3 City Place Beehive Ring Road Northgate Crawley West Sussex,,,,City Cafe,Restaurant/Cafe/Canteen,1,0,,190141,0,,51.14509900000000,11/00179/COMM,326,foodandsafety@crawley.gov.uk,Crawley,http://www.crawley.gov.uk,-0.16353600000000,RH6 0PA,2013-11-28,fhrs_5_en-GB,5,,FHRS,5
223410,The Pavilion Maidenbower Square Maidenbower Crawley West Sussex,,,,Clover Court,Hospitals/Childcare/Caring Premises,5,5,,190412,5,,51.10736400000000,02910/7003/0/000,326,foodandsafety@crawley.gov.uk,Crawley,http://www.crawley.gov.uk,-0.15320400000000,RH10 7QH,2014-07-29,fhrs_5_en-GB,5,,FHRS,5
223411,Unit 7 Maidenbower Office Park Balcombe Road Maidenbower Crawley West Sussex,,,,Coaching Halt,Restaurant/Cafe/Canteen,1,5,,619608,0,,51.10749200000000,13/00089/COMM,326,foodandsafety@crawley.gov.uk,Crawley,http://www.crawley.gov.uk,-0.14312800000000,RH10 7NN,2013-12-11,fhrs_5_en-GB,5,,FHRS,0
223412,14 Queensway Northgate Crawley West Sussex,,,,Coffee Republic,Restaurant/Cafe/Canteen,1,0,,190563,0,,51.11533600000000,03688/0014/0/000,326,foodandsafety@crawley.gov.uk,Crawley,http://www.crawley.gov.uk,-0.18567700000000,RH10 1EJ,2013-01-23,fhrs_5_en-GB,5,,FHRS,0
223413,Malthouse Road Southgate Crawley West Sussex,,,,Coffee Shop at St Catherines Hospice,Restaurant/Cafe/Canteen,1,0,,190734,0,,51.10779200000000,02922/7015/2/001,326,foodandsafety@crawley.gov.uk,Crawley,http://www.crawley.gov.uk,-0.18864300000000,RH10 6BH,2013-03-26,fhrs_5_en-GB,5,,FHRS,0
223414,North Terminal Airside Gatwick Airport West Sussex,,,,Comptoir Libanais,Restaurant/Cafe/Canteen,1,0,,606618,0,,50.91162872314453,13/00081/COMM,326,foodandsafety@crawley.gov.uk,Crawley,http://www.crawley.gov.uk,-0.45754450559616,,2013-10-29,fhrs_5_en-GB,5,,FHRS,5
223415,159 Three Bridges Road Three Bridges Crawley West Sussex,,,,Coopers Newsagents,Retailers - other,4613,5,,190151,10,,51.11625400000000,04491/0159/0/000,326,foodandsafety@crawley.gov.uk,Crawley,http://www.crawley.gov.uk,-0.16952400000000,RH10 1JT,2013-10-25,fhrs_4_en-GB,4,,FHRS,5
223416,St Andrews Church Of England Church Furnace Place Furnace Green Crawley West Sussex,,,,Cornerstone Cafe - St. Andrew's Church,Restaurant/Cafe/Canteen,1,5,,190709,5,,51.10796400000000,10/00093/COMM,326,foodandsafety@crawley.gov.uk,Crawley,http://www.crawley.gov.uk,-0.16908000000000,RH10 6NU,2014-12-12,fhrs_5_en-GB,5,,FHRS,0
223417,Hawkins Road Tilgate Crawley West Sussex,,,,Corrados Ice Cream ND53 NXK & Lunchbox,Mobile caterer,7846,5,,565930,5,,51.10607300000000,12/00098/COMM,326,foodandsafety@crawley.gov.uk,Crawley,http://www.crawley.gov.uk,-0.18099700000000,RH10 5NP,2013-06-13,fhrs_5_en-GB,5,,FHRS,5
223418,Unit 55 County Mall Station Way Crawley West Sussex,,,,Costa,Restaurant/Cafe/Canteen,1,5,,482612,5,,51.11360000000000,01100/0055/3/000,326,foodandsafety@crawley.gov.uk,Crawley,http://www.crawley.gov.uk,-0.18561600000000,RH10 1FF,2015-02-04,fhrs_5_en-GB,5,,FHRS,5
223419,Atlantic House Queens Gate Gatwick Crawley West Sussex,,,,Costa Cart,Restaurant/Cafe/Canteen,1,5,,612353,10,,,13/00103/COMM,326,foodandsafety@crawley.gov.uk,Crawley,http://www.crawley.gov.uk,,,2013-11-21,fhrs_3_en-GB,3,,FHRS,10
223420,County Oak Retail Park County Oak Way Crawley West Sussex,,,,Costa Coffee,Restaurant/Cafe/Canteen,1,5,,415891,5,,51.13248600000000,12/00045/COMM,326,foodandsafety@crawley.gov.uk,Crawley,http://www.crawley.gov.uk,-0.18799200000000,RH11 7XN,2014-07-17,fhrs_5_en-GB,5,,FHRS,0
223421,Food Court Kiosk 1 County Mall Station Way Northgate Crawley West Sussex,,,,Costa Coffee,Restaurant/Cafe/Canteen,1,0,,190744,5,,51.11360000000000,01100/2002/3/000,326,foodandsafety@crawley.gov.uk,Crawley,http://www.crawley.gov.uk,-0.18561600000000,RH10 1FF,2014-09-11,fhrs_5_en-GB,5,,FHRS,5
223422,Gate 23 Pier 2 Gatwick Airport Crawley West Sussex,,,,Costa Coffee,Restaurant/Cafe/Canteen,1,5,,190488,5,,51.15600000000000,06/00007/COMM,326,foodandsafety@crawley.gov.uk,Crawley,http://www.crawley.gov.uk,-0.16306100000000,RH6 0NN,2014-02-24,fhrs_4_en-GB,4,,FHRS,10
223423,Hilton Gatwick Airport Crawley West Sussex,,,,Costa Coffee,Restaurant/Cafe/Canteen,1,0,,190715,0,,51.15672400000000,10/00051/COMM,326,foodandsafety@crawley.gov.uk,Crawley,http://www.crawley.gov.uk,-0.15765500000000,RH6 0LL,2014-06-11,fhrs_5_en-GB,5,,FHRS,5
223424,North Terminal Arrivals Gatwick Airport Crawley West Sussex,,,,Costa Coffee,Restaurant/Cafe/Canteen,1,5,,190496,5,,51.15778100000000,81017/0050/3/001,326,foodandsafety@crawley.gov.uk,Crawley,http://www.crawley.gov.uk,-0.19253500000000,RH6 0NP,2014-02-24,fhrs_5_en-GB,5,,FHRS,5
223425,Pier 3 Gatwick Airport Crawley West Sussex,,,,Costa Coffee,Restaurant/Cafe/Canteen,1,0,,190341,0,,,81016/0900/3/003,326,foodandsafety@crawley.gov.uk,Crawley,http://www.crawley.gov.uk,,,2013-06-21,fhrs_5_en-GB,5,,FHRS,0
223426,South Terminal Departure Lounge Gatwick Airport West Sussex,,,,Costa Coffee,Restaurant/Cafe/Canteen,1,5,,190261,0,,51.15600000000000,81015/0200/3/001,326,foodandsafety@crawley.gov.uk,Crawley,http://www.crawley.gov.uk,-0.16306100000000,RH6 0NN,2014-02-26,fhrs_5_en-GB,5,,FHRS,5
223427,Tesco Superstore Bycroft Way Three Bridges Crawley West Sussex,,,,Costa Coffee,Restaurant/Cafe/Canteen,1,0,,190438,5,,51.12367500000000,02162/7005/2/002,326,foodandsafety@crawley.gov.uk,Crawley,http://www.crawley.gov.uk,-0.16337100000000,RH10 1GY,2015-01-27,fhrs_5_en-GB,5,,FHRS,0
223428,The Avenue North Terminal Gatwick Airport West Sussex,,,,Costa Coffee,Restaurant/Cafe/Canteen,1,5,,638771,5,,51.15778100000000,81017/0100/3/001,326,foodandsafety@crawley.gov.uk,Crawley,http://www.crawley.gov.uk,-0.19253500000000,RH6 0NP,2014-02-24,fhrs_2_en-GB,2,,FHRS,15
223429,Unit 1 The Pavilion Queens Square Northgate Crawley West Sussex,,,,Costa Coffee,Restaurant/Cafe/Canteen,1,5,,190532,5,,51.11513500000000,05/00032/COMM,326,foodandsafety@crawley.gov.uk,Crawley,http://www.crawley.gov.uk,-0.18717000000000,RH10 1HA,2014-01-29,fhrs_5_en-GB,5,,FHRS,5
223430,County Oak Service Station London Road Langley Green Crawley West Sussex,,,,County Oak Connect,Retailers - supermarkets/hypermarkets,7840,0,,190613,0,,51.13105900000000,02832/7016/2/000,326,foodandsafety@crawley.gov.uk,Crawley,http://www.crawley.gov.uk,-0.18644700000000,RH10 9TA,2014-06-05,fhrs_5_en-GB,5,,FHRS,0
223431,Edgeworth House Buckingham Gate Pound Hill Crawley West Sussex,,,,Courtyard By Marriott,Hotel/bed & breakfast/guest house,7842,5,,190322,5,,51.18902800000000,83029/0001/2/001,326,foodandsafety@crawley.gov.uk,Crawley,http://www.crawley.gov.uk,-0.16312300000000,RH6 0HZ,2013-08-09,fhrs_5_en-GB,5,,FHRS,5
223432,3 Pegler Way West Green Crawley West Sussex,,,,Crawley Continental Food,Retailers - supermarkets/hypermarkets,7840,10,,638769,5,,51.11555400000000,14/00007/COMM,326,foodandsafety@crawley.gov.uk,Crawley,http://www.crawley.gov.uk,-0.19164000000000,RH11 7AG,2014-03-10,fhrs_4_en-GB,4,,FHRS,5
223433,West Green Drive West Green Crawley West Sussex,,,,Crawley Hospital,Other catering premises,7841,0,,190566,0,,51.11660900000000,04790/7003/2/000,326,foodandsafety@crawley.gov.uk,Crawley,http://www.crawley.gov.uk,-0.19758600000000,RH11 7DH,2014-10-15,fhrs_5_en-GB,5,,FHRS,5
223434,Jubilee Walk Three Bridges Crawley West Sussex,,,,Crawley Jubilee Club,Pub/bar/nightclub,7843,5,,190485,5,,51.11625800000000,02490/7003/2/000,326,foodandsafety@crawley.gov.uk,Crawley,http://www.crawley.gov.uk,-0.16633700000000,RH10 1LQ,2014-05-02,fhrs_5_en-GB,5,,FHRS,5
223435,Ifield Avenue West Green Crawley West Sussex,,,,Crawley Labour Supporters Club,Pub/bar/nightclub,7843,5,,198003,5,,51.13126800000000,02413/7008/2/000,326,foodandsafety@crawley.gov.uk,Crawley,http://www.crawley.gov.uk,-0.21057800000000,RH11 7LX,2015-01-21,fhrs_5_en-GB,5,,FHRS,0
223436,Spindle Way Three Bridges Crawley West Sussex,,,,Crawley Laserquest,Other catering premises,7841,5,,190395,5,,51.11286000000000,04226/7021/2/000,326,foodandsafety@crawley.gov.uk,Crawley,http://www.crawley.gov.uk,-0.17913000000000,RH10 1TG,2015-01-27,fhrs_5_en-GB,5,,FHRS,5
223437,Stephenson Way Three Bridges Crawley West Sussex,,,,Crawley Open House,Hotel/bed & breakfast/guest house,7842,10,,190189,10,,51.11440600000000,04/00009/COMM,326,foodandsafety@crawley.gov.uk,Crawley,http://www.crawley.gov.uk,-0.16469600000000,RH10 1TN,2013-09-12,fhrs_3_en-GB,3,,FHRS,5
223438,5 Furnace Parade Furnace Green Crawley West Sussex,,,,Crawley Red Chilli / Shimla,Takeaway/sandwich shop,7844,5,,190263,5,,51.10713100000000,01771/0005/0/000,326,foodandsafety@crawley.gov.uk,Crawley,http://www.crawley.gov.uk,-0.16814100000000,RH10 6NX,2015-02-02,fhrs_5_en-GB,5,,FHRS,5
223439,Willoughby Fields Pavilion Ifield Avenue Ifield Crawley West Sussex,,,,Crawley Rugby Football Club,Pub/bar/nightclub,7843,5,,190633,5,,51.13126900000000,02412/7005/0/000,326,foodandsafety@crawley.gov.uk,Crawley,http://www.crawley.gov.uk,-0.21057900000000,RH11 7LX,2014-07-23,fhrs_5_en-GB,5,,FHRS,5
223440,Creasys Drive Broadfield Crawley West Sussex,,,,Creasys Drive Adventure Playground,Restaurant/Cafe/Canteen,1,5,,190500,5,,51.09571900000000,01167/0000/2/001,326,foodandsafety@crawley.gov.uk,Crawley,http://www.crawley.gov.uk,-0.20875300000000,RH11 9HH,2013-03-11,fhrs_5_en-GB,5,,FHRS,0
223441,Crompton Way Northgate Crawley West Sussex,,,,Crompton Diner,Mobile caterer,7846,10,,190710,15,,,01186/7011/2/000,326,foodandsafety@crawley.gov.uk,Crawley,http://www.crawley.gov.uk,,,2014-01-09,fhrs_2_en-GB,2,,FHRS,5
223442,7 Pound Hill Parade Pound Hill Crawley West Sussex,,,,Crown Of India,Restaurant/Cafe/Canteen,1,0,,190618,5,,51.11787100000000,03605/0007/0/000,326,foodandsafety@crawley.gov.uk,Crawley,http://www.crawley.gov.uk,-0.15397100000000,RH10 7EA,2014-01-08,fhrs_5_en-GB,5,,FHRS,5
223443,Langley Drive Langley Green Crawley West Sussex,,,,Crowne Plaza,Hotel/bed & breakfast/guest house,7842,0,,190291,0,,51.12551500000000,02664/7003/2/000,326,foodandsafety@crawley.gov.uk,Crawley,http://www.crawley.gov.uk,-0.18965100000000,RH11 7SX,2013-02-18,fhrs_5_en-GB,5,,FHRS,5
223444,Mobile Cafe Crawley Goods Yard Gatwick Road Northgate Crawley West Sussex,,,,Curry House,Mobile caterer,7846,10,,190244,10,,,08/00120/COMM,326,foodandsafety@crawley.gov.uk,Crawley,http://www.crawley.gov.uk,,,2014-12-04,fhrs_3_en-GB,3,,FHRS,10
223445,Gatwick Road Northgate Crawley West Sussex,,,,Cygnet Catering @ Gatwick School,School/college/university,7845,0,,718583,5,,,14/00091/COMM,326,foodandsafety@crawley.gov.uk,Crawley,http://www.crawley.gov.uk,,,2014-11-06,fhrs_5_en-GB,5,,FHRS,0
223446,194 Three Bridges Road Three Bridges Crawley West Sussex,,,,Daisy Chain Nursery,Hospitals/Childcare/Caring Premises,5,5,,190757,5,,51.11771100000000,04491/0194/0/000,326,foodandsafety@crawley.gov.uk,Crawley,http://www.crawley.gov.uk,-0.16382200000000,RH10 1LR,2014-06-24,fhrs_5_en-GB,5,,FHRS,0
223447,Store One County Mall Station Way Northgate Crawley West Sussex,,,,Debenhams CafÃ©,Restaurant/Cafe/Canteen,1,5,,190682,0,,51.11346000000000,01100/1001/3/000,326,foodandsafety@crawley.gov.uk,Crawley,http://www.crawley.gov.uk,-0.18355000000000,RH10 1FG,2014-11-24,fhrs_5_en-GB,5,,FHRS,5
223448,4 Gossops Parade Gossops Green Crawley West Sussex,,,,Deep Blue Fish And Chips,Takeaway/sandwich shop,7844,10,,190494,10,,51.11096800000000,01925/0004/0/000,326,foodandsafety@crawley.gov.uk,Crawley,http://www.crawley.gov.uk,-0.21622000000000,RH11 8HH,2013-03-27,fhrs_3_en-GB,3,,FHRS,5
223449,Ifield Green Ifield Crawley West Sussex,,,,Deerswood Lodge,Hospitals/Childcare/Caring Premises,5,5,,190683,5,,51.12472800000000,06/00032/COMM,326,foodandsafety@crawley.gov.uk,Crawley,http://www.crawley.gov.uk,-0.21100300000000,RH11 0HG,2014-07-02,fhrs_5_en-GB,5,,FHRS,5
223450,10 The Boulevard Northgate Crawley West Sussex,,,,Delicja Quality Foods,Retailers - other,4613,10,,190228,5,,51.11637500000000,11/00061/COMM,326,foodandsafety@crawley.gov.uk,Crawley,http://www.crawley.gov.uk,-0.18886500000000,RH10 1XX,2014-10-21,fhrs_4_en-GB,4,,FHRS,5
223451,208 Ifield Drive Ifield Crawley West Sussex,,,,Delos Coffee And Bakery,Restaurant/Cafe/Canteen,1,5,,190484,5,,51.09291400000000,02420/0208/0/000,326,foodandsafety@crawley.gov.uk,Crawley,http://www.crawley.gov.uk,-0.19715100000000,RH11 9QU,2013-12-11,fhrs_5_en-GB,5,,FHRS,5
223452,Three Bridges Crawley West Sussex,,,,Dermotts Ice K706 TKR,Mobile caterer,7846,5,,190338,5,,51.12084900000000,10000/7002/0/000,326,foodandsafety@crawley.gov.uk,Crawley,http://www.crawley.gov.uk,-0.17891400000000,,2011-05-25,fhrs_5_en-GB,5,,FHRS,5
223453,Anderson Road Crawley West Sussex,,,,Desmond Anderson School,School/college/university,7845,0,,190252,0,,51.09907500000000,06758/7001/2/000,326,foodandsafety@crawley.gov.uk,Crawley,http://www.crawley.gov.uk,-0.18614200000000,RH10 5EZ,2014-10-07,fhrs_5_en-GB,5,,FHRS,5
223454,Snack Van Newton Road Northgate Crawley West Sussex,,,,Dolphin Fast Foods     GV04 XHT,Mobile caterer,7846,5,,190318,0,,51.13264000000000,03215/7900/0/000,326,foodandsafety@crawley.gov.uk,Crawley,http://www.crawley.gov.uk,-0.17410000000000,,2014-07-16,fhrs_5_en-GB,5,,FHRS,5
223455,97 High Street Northgate Crawley West Sussex,,,,Dominos Pizza,Takeaway/sandwich shop,7844,5,,190446,0,,51.11588400000000,02260/0097/0/000,326,foodandsafety@crawley.gov.uk,Crawley,http://www.crawley.gov.uk,-0.18967000000000,RH10 1BA,2013-02-08,fhrs_5_en-GB,5,,FHRS,0
223456,Wakehurst Drive Southgate Crawley West Sussex,,,,Downsman,Other catering premises,7841,10,,190440,10,,51.10416600000000,04692/7001/2/000,326,foodandsafety@crawley.gov.uk,Crawley,http://www.crawley.gov.uk,-0.18851400000000,RH10 6DH,2014-05-15,fhrs_3_en-GB,3,,FHRS,10
223457,Langley Parade Langley Green Crawley West Sussex,,,,Dr Samuel Johnson,Other catering premises,7841,10,,190612,5,,51.12851100000000,02678/7011/2/000,326,foodandsafety@crawley.gov.uk,Crawley,http://www.crawley.gov.uk,-0.19848000000000,RH11 7RS,2014-03-26,fhrs_3_en-GB,3,,FHRS,10
223458,George Hotel 56 - 58 High Street Crawley West Sussex,,,,Dragon Buffet,Restaurant/Cafe/Canteen,1,20,,190474,15,,51.11472400000000,07/00062/COMM,326,foodandsafety@crawley.gov.uk,Crawley,http://www.crawley.gov.uk,-0.19087300000000,RH10 1BS,2014-07-21,fhrs_1_en-GB,1,,FHRS,15
223459,Unit 71 County Mall Station Way Northgate Crawley West Sussex,,,,Druckers Vienna Patisserie,Restaurant/Cafe/Canteen,1,5,,190534,0,,51.11352200000000,01100/0071/3/001,326,foodandsafety@crawley.gov.uk,Crawley,http://www.crawley.gov.uk,-0.18527600000000,RH10 1FD,2013-09-04,fhrs_5_en-GB,5,,FHRS,0
223460,7 Horsham Road West Green Crawley West Sussex,,,,Eastern Spice,Retailers - supermarkets/hypermarkets,7840,30,,190622,15,,51.11416600000000,02372/0007/3/001,326,foodandsafety@crawley.gov.uk,Crawley,http://www.crawley.gov.uk,-0.19666700000000,RH11 7AY,2014-06-16,fhrs_0_en-GB,0,,FHRS,20
223461,Unit U9 North Terminal Airside Departures Road Gatwick Crawley West Sussex,,,,Eat,Restaurant/Cafe/Canteen,1,5,,190713,5,,51.15600000000000,09/00099/COMM,326,foodandsafety@crawley.gov.uk,Crawley,http://www.crawley.gov.uk,-0.16306100000000,RH6 0NP,2014-05-06,fhrs_5_en-GB,5,,FHRS,5
223462,Central Sussex College College Road Three Bridges Crawley West Sussex,,,,Eat Central,School/college/university,7845,10,,190579,10,,51.11621600000000,01011/9991/2/000,326,foodandsafety@crawley.gov.uk,Crawley,http://www.crawley.gov.uk,-0.18152700000000,RH10 1NR,2014-10-01,fhrs_4_en-GB,4,,FHRS,0
223463,Unit 75 County Mall Station Way Northgate Crawley West Sussex,,,,Eds Easy Diner,Restaurant/Cafe/Canteen,1,5,,669164,0,,,14/00052/COMM,326,foodandsafety@crawley.gov.uk,Crawley,http://www.crawley.gov.uk,,,2014-09-02,fhrs_5_en-GB,5,,FHRS,5
223464,Atlantic House Henson Road Three Bridges Crawley West Sussex,,,,Elior - Relish Deli,Restaurant/Cafe/Canteen,1,0,,190200,0,,51.12031800000000,11/00014/COMM,326,foodandsafety@crawley.gov.uk,Crawley,http://www.crawley.gov.uk,-0.16207600000000,RH10 1QQ,2013-07-04,fhrs_5_en-GB,5,,FHRS,5
223465,1 Grattons Drive Pound Hill Crawley West Sussex,,,,Elior at Lanehurst Care Home,Hospitals/Childcare/Caring Premises,5,5,,190307,0,,51.12330300000000,02658/0001/0/000,326,foodandsafety@crawley.gov.uk,Crawley,http://www.crawley.gov.uk,-0.15458300000000,RH10 3AD,2014-03-24,fhrs_5_en-GB,5,,FHRS,0
223466,Energy House Hazelwick Avenue Three Bridges Crawley West Sussex,,,,Elior UK at UK Power Network,Restaurant/Cafe/Canteen,1,0,,190273,0,,51.12152300000000,06/00014/COMM,326,foodandsafety@crawley.gov.uk,Crawley,http://www.crawley.gov.uk,-0.16262800000000,RH10 1EX,2013-08-06,fhrs_5_en-GB,5,,FHRS,5
223467,Lounge Pavillion North Terminal Departure Lounge Gatwick Airport Crawley West Sussex,,,,Emirates Lounge,Restaurant/Cafe/Canteen,1,0,,211120,0,,51.15778100000000,08/00127/COMM,326,foodandsafety@crawley.gov.uk,Crawley,http://www.crawley.gov.uk,-0.19253500000000,RH6 0NP,2013-10-23,fhrs_5_en-GB,5,,FHRS,0
223468,15 Tilgate Parade Tilgate Crawley West Sussex,,,,Ephesus,Restaurant/Cafe/Canteen,1,10,,190637,5,,51.10228000000000,04505/0015/0/000,326,foodandsafety@crawley.gov.uk,Crawley,http://www.crawley.gov.uk,-0.18057400000000,RH10 5EQ,2015-01-15,fhrs_4_en-GB,4,,FHRS,5
223469,Crawley Library Southgate Avenue Southgate Crawley West Sussex,,,,Esquires Coffee House,Restaurant/Cafe/Canteen,1,0,,190436,0,,51.11017700000000,08/00158/COMM,326,foodandsafety@crawley.gov.uk,Crawley,http://www.crawley.gov.uk,-0.18067800000000,RH10 6HG,2015-01-21,fhrs_5_en-GB,5,,FHRS,0
223470,4 - 5 Church Walk Northgate Crawley West Sussex,,,,Estrelicia Coffee Shop,Restaurant/Cafe/Canteen,1,10,,190232,10,,51.11427700000000,06920/0004/0/000,326,foodandsafety@crawley.gov.uk,Crawley,http://www.crawley.gov.uk,-0.18986100000000,RH10 1HH,2014-09-08,fhrs_3_en-GB,3,,FHRS,5
223471,Aviation House Beehive Ring Road Northgate Crawley West Sussex,,,,Eurest at CAA Headquarters,Restaurant/Cafe/Canteen,1,5,,190340,5,,51.15761600000000,83011/0001/2/000,326,foodandsafety@crawley.gov.uk,Crawley,http://www.crawley.gov.uk,-0.15776200000000,RH6 0LA,2013-10-24,fhrs_5_en-GB,5,,FHRS,5
223472,Western Geco Churchill Court Crawley West Sussex,,,,Eurest Catering at Western Geco,Restaurant/Cafe/Canteen,1,5,,197944,0,,51.12977800000000,02932/7004/3/001,326,foodandsafety@crawley.gov.uk,Crawley,http://www.crawley.gov.uk,-0.17117600000000,RH10 9LU,2014-08-18,fhrs_5_en-GB,5,,FHRS,5
223473,Balcombe Road Maidenbower Crawley West Sussex,,,,Europa Hotel Gatwick,Hotel/bed & breakfast/guest house,7842,10,,190128,10,,51.10559100000000,05801/7019/2/000,326,foodandsafety@crawley.gov.uk,Crawley,http://www.crawley.gov.uk,-0.14464700000000,RH10 7ZR,2014-07-30,fhrs_3_en-GB,3,,FHRS,10
223474,Eastman House Fleming Way Northgate Crawley West Sussex,,,,Fast Lane Diner,Restaurant/Cafe/Canteen,1,5,,190283,5,,51.13525700000000,01833/7051/2/001,326,foodandsafety@crawley.gov.uk,Crawley,http://www.crawley.gov.uk,-0.17130200000000,RH10 9JY,2013-05-29,fhrs_5_en-GB,5,,FHRS,5
223475,Food Court Kiosk 3 County Mall Station Way Northgate Crawley West Sussex,,,,Fat Jackets,Restaurant/Cafe/Canteen,1,5,,190516,5,,51.11360000000000,01100/2003/3/000,326,foodandsafety@crawley.gov.uk,Crawley,http://www.crawley.gov.uk,-0.18561600000000,RH10 1FF,2015-01-26,fhrs_5_en-GB,5,,FHRS,0
223476,4 Broad Walk Northgate Crawley West Sussex,,,,Favorite Chicken,Restaurant/Cafe/Canteen,1,5,,190448,5,,51.11525400000000,06599/0004/0/000,326,foodandsafety@crawley.gov.uk,Crawley,http://www.crawley.gov.uk,-0.18909500000000,Rh10 1HQ,2014-09-30,fhrs_4_en-GB,4,,FHRS,10
223477,124 Malthouse Road Southgate Crawley West Sussex,,,,Ferndale Nursing Home,Other catering premises,7841,5,,190520,5,,51.10779200000000,02922/0124/2/000,326,foodandsafety@crawley.gov.uk,Crawley,http://www.crawley.gov.uk,-0.18864300000000,RH10 6BH,2014-08-13,fhrs_5_en-GB,5,,FHRS,0
223478,Southgate Crawley West Sussex,,,,Fiesta Street Food,Other catering premises,7841,10,,650350,5,,,14/00010/COMM,326,foodandsafety@crawley.gov.uk,Crawley,http://www.crawley.gov.uk,,,2014-03-27,fhrs_4_en-GB,4,,FHRS,5
223479,11 Furnace Parade Furnace Green Crawley West Sussex,,,,Fish Plaice,Takeaway/sandwich shop,7844,5,,190652,5,,51.10713100000000,01771/0011/0/000,326,foodandsafety@crawley.gov.uk,Crawley,http://www.crawley.gov.uk,-0.16814100000000,RH10 6NX,2014-07-16,fhrs_4_en-GB,4,,FHRS,10
223480,20 Tilgate Parade Tilgate Crawley West Sussex,,,,Fish Plaice,Takeaway/sandwich shop,7844,5,,190407,5,,51.10228000000000,04505/0020/0/000,326,foodandsafety@crawley.gov.uk,Crawley,http://www.crawley.gov.uk,-0.18057400000000,RH10 5EQ,2014-09-10,fhrs_5_en-GB,5,,FHRS,5
223481,Unit 72 South Terminal Airside London Road Langley Green Crawley West Sussex,,,,Frankie And Benny's,Restaurant/Cafe/Canteen,1,5,,190762,0,,,09/00002/COMM,326,foodandsafety@crawley.gov.uk,Crawley,http://www.crawley.gov.uk,,,2013-10-31,fhrs_5_en-GB,5,,FHRS,5
223482,Unit 9 Crawley Leisure Park London Road West Green Crawley West Sussex,,,,Frankie And Benny's,Restaurant/Cafe/Canteen,1,5,,190312,0,,51.12024500000000,06/00036/COMM,326,foodandsafety@crawley.gov.uk,Crawley,http://www.crawley.gov.uk,-0.18965700000000,RH10 8LR,2014-09-01,fhrs_5_en-GB,5,,FHRS,5
223483,Maidenbower Drive Maidenbower Crawley West Sussex,,,,Frogshole Farm,Pub/bar/nightclub,7843,5,,190756,0,,51.10906400000000,02908/7002/0/000,326,foodandsafety@crawley.gov.uk,Crawley,http://www.crawley.gov.uk,-0.14756500000000,RH10 7QF,2015-01-26,fhrs_5_en-GB,5,,FHRS,5
223484,Kingsgate Queensway Northgate Crawley West Sussex,,,,Gala Club,Pub/bar/nightclub,7843,0,,190720,0,,51.11578100000000,03688/7018/2/000,326,foodandsafety@crawley.gov.uk,Crawley,http://www.crawley.gov.uk,-0.18593100000000,RH10 1EB,2013-01-18,fhrs_5_en-GB,5,,FHRS,0
223485,Unit U11 North Terminal Departure Lounge Gatwick Airport Crawley West Sussex,,,,Garfunkels,Restaurant/Cafe/Canteen,1,5,,190144,5,,51.15778100000000,81018/0200/3/017,326,foodandsafety@crawley.gov.uk,Crawley,http://www.crawley.gov.uk,-0.19253500000000,RH6 0NP,2014-08-26,fhrs_4_en-GB,4,,FHRS,10
223486,Travelodge Povey Cross Road Langley Green Horley Surrey,,,,Gatwick Airport Central Travelodge,Hotel/bed & breakfast/guest house,7842,0,,190758,0,,51.16598900000000,83021/0002/2/000,326,foodandsafety@crawley.gov.uk,Crawley,http://www.crawley.gov.uk,-0.17841200000000,RH6 0BE,2012-12-06,fhrs_5_en-GB,5,,FHRS,0
223487,London Road Northgate Crawley West Sussex,,,,Gatwick Manor,Hotel/bed & breakfast/guest house,7842,5,,190423,5,,,05503/7003/2/000,326,foodandsafety@crawley.gov.uk,Crawley,http://www.crawley.gov.uk,,RH10 2ST,2014-03-20,fhrs_4_en-GB,4,,FHRS,10
223488,Sofitel London Gatwick Hotel Northway Gatwick Airport Crawley West Sussex,,,,Gatwick Oriental,Restaurant/Cafe/Canteen,1,0,,190278,5,,51.16088500000000,81012/0000/3/004,326,foodandsafety@crawley.gov.uk,Crawley,http://www.crawley.gov.uk,-0.17407900000000,RH6 0PH,2013-07-04,fhrs_4_en-GB,4,,FHRS,10
223489,Bp Petrol Station Ring Road North Pound Hill Crawley West Sussex,,,,Gatwick South SF Connect- Wild Bean Cafe,Retailers - supermarkets/hypermarkets,7840,0,,190309,0,,51.15600000000000,83005/0001/2/000,326,foodandsafety@crawley.gov.uk,Crawley,http://www.crawley.gov.uk,-0.16306100000000,RH6 0NN,2014-03-18,fhrs_5_en-GB,5,,FHRS,0
223490,George Hotel 56 - 58 High Street West Green Crawley West Sussex,,,,Giggling Squid,Restaurant/Cafe/Canteen,1,5,,190617,0,,51.11472400000000,06/00012/COMM,326,foodandsafety@crawley.gov.uk,Crawley,http://www.crawley.gov.uk,-0.19087300000000,RH10 1BS,2014-03-27,fhrs_5_en-GB,5,,FHRS,5
223491,Giraffe/Apostrophe  The Village Gatwick Airport Crawley West Sussex,,,,Giraffe,Restaurant/Cafe/Canteen,1,0,,190272,5,,51.15600000000000,11/00120/COMM,326,foodandsafety@crawley.gov.uk,Crawley,http://www.crawley.gov.uk,-0.16306100000000,RH6 0NN,2014-10-08,fhrs_5_en-GB,5,,FHRS,5
223492,Old Horsham Road Southgate Crawley West Sussex,,,,Goffs Manor,Restaurant/Cafe/Canteen,1,5,,190166,5,,51.10975900000000,02372/7010/2/000,326,foodandsafety@crawley.gov.uk,Crawley,http://www.crawley.gov.uk,-0.20246700000000,RH11 8PE,2014-08-20,fhrs_5_en-GB,5,,FHRS,5
223493,54 Ewhurst Road West Green Crawley West Sussex,,,,Golden City,Takeaway/sandwich shop,7844,,,190507,,,51.11935200000000,01527/0054/0/000,326,foodandsafety@crawley.gov.uk,Crawley,http://www.crawley.gov.uk,-0.19940800000000,RH11 7HE,,fhrs_awaitinginspection_en-GB,AwaitingInspection,,FHRS,
223494,Kidborough Road Gossops Green Crawley West Sussex,,,,Gossops Green Community Primary School,School/college/university,7845,0,,190504,0,,51.10948400000000,02552/7001/2/000,326,foodandsafety@crawley.gov.uk,Crawley,http://www.crawley.gov.uk,-0.21506300000000,RH11 8HW,2013-03-05,fhrs_5_en-GB,5,,FHRS,5
223495,Unit 1 6 - 14 High Street West Green Crawley West Sussex,,,,Gosto Fino,Restaurant/Cafe/Canteen,1,10,,190402,5,,51.11332100000000,05/00031/COMM,326,foodandsafety@crawley.gov.uk,Crawley,http://www.crawley.gov.uk,-0.19082700000000,RH10 1BN,2013-06-14,fhrs_4_en-GB,4,,FHRS,5
223496,19 Perryfield Road Southgate Crawley West Sussex,,,,Greensleeves,Other catering premises,7841,5,,190203,5,,51.11056300000000,03528/0019/2/000,326,foodandsafety@crawley.gov.uk,Crawley,http://www.crawley.gov.uk,-0.19392100000000,RH11 8AA,2013-03-28,fhrs_5_en-GB,5,,FHRS,0
223497,24 Broad Walk Northgate Crawley West Sussex,,,,Greggs,Takeaway/sandwich shop,7844,0,,190147,0,,51.11525400000000,06599/0024/0/000,326,foodandsafety@crawley.gov.uk,Crawley,http://www.crawley.gov.uk,-0.18909500000000,RH10 1HQ,2014-03-21,fhrs_5_en-GB,5,,FHRS,0
223498,Unit F 24 - 26 The Martlets Northgate Crawley West Sussex,,,,Greggs,Takeaway/sandwich shop,7844,0,,190242,5,,51.11453600000000,05/00012/COMM,326,foodandsafety@crawley.gov.uk,Crawley,http://www.crawley.gov.uk,-0.18682200000000,RH10 1ES,2013-10-22,fhrs_5_en-GB,5,,FHRS,0
223499,67 Gales Drive Three Bridges Crawley West Sussex,,,,Grill Fellas,Takeaway/sandwich shop,7844,10,,638765,15,,51.11768600000000,01805/0067/0/000,326,foodandsafety@crawley.gov.uk,Crawley,http://www.crawley.gov.uk,-0.17255400000000,RH10 1QA,2014-03-17,fhrs_2_en-GB,2,,FHRS,10
223500,63 Ifield Road West Green Crawley West Sussex,,,,Hallan Cash And Carry,Retailers - supermarkets/hypermarkets,7840,5,,190398,5,,51.11507200000000,02435/7008/2/000,326,foodandsafety@crawley.gov.uk,Crawley,http://www.crawley.gov.uk,-0.19414500000000,RH11 7AS,2014-02-27,fhrs_5_en-GB,5,,FHRS,5
223501,Longbridge House Longbridge Gate Gatwick West Sussex,,,,Hampton By Hilton Gatwick Airport,Hotel/bed & breakfast/guest house,7842,5,,631651,5,,51.16112900000000,13/00124/COMM,326,foodandsafety@crawley.gov.uk,Crawley,http://www.crawley.gov.uk,-0.17760200000000,RH6 0PJ,2014-01-28,fhrs_5_en-GB,5,,FHRS,0
223502,76 The Boulevard Northgate Crawley West Sussex,,,,Happy Meeting,Restaurant/Cafe/Canteen,1,20,,190687,15,,51.11612100000000,06505/0076/0/000,326,foodandsafety@crawley.gov.uk,Crawley,http://www.crawley.gov.uk,-0.18580300000000,RH10 1XH,2015-01-19,fhrs_1_en-GB,1,,FHRS,15
223503,Belmont House Station Way Northgate Crawley West Sussex,,,,Harbour + Jones,Restaurant/Cafe/Canteen,1,5,,564224,0,,51.11718700000000,11/00042/COMM,326,foodandsafety@crawley.gov.uk,Crawley,http://www.crawley.gov.uk,-0.18849000000000,RH10 1JE,2013-06-19,fhrs_5_en-GB,5,,FHRS,5
223504,Hawth Park Inn Haslett Avenue East Three Bridges Crawley West Sussex,,,,Harvester,Restaurant/Cafe/Canteen,1,0,,190333,5,,51.11530400000000,02098/7015/0/000,326,foodandsafety@crawley.gov.uk,Crawley,http://www.crawley.gov.uk,-0.12905500000000,RH10 1UG,2013-10-15,fhrs_4_en-GB,4,,FHRS,10
223505,Unit 4B Crawley Leisure Park London Road West Green Crawley West Sussex,,,,Harvester,Restaurant/Cafe/Canteen,1,5,,190146,10,,51.12024500000000,01166/0004/0/000,326,foodandsafety@crawley.gov.uk,Crawley,http://www.crawley.gov.uk,-0.18965700000000,RH10 8LR,2013-08-27,fhrs_4_en-GB,4,,FHRS,5
223506,Hazelwick Mill Lane Three Bridges Crawley West Sussex,,,,Hazelwick School - Olive Dining,School/college/university,7845,5,,190669,0,,51.12536000000000,02169/7005/2/000,326,foodandsafety@crawley.gov.uk,Crawley,http://www.crawley.gov.uk,-0.16640600000000,RH10 1SX,2013-09-25,fhrs_5_en-GB,5,,FHRS,0
223507,Balcombe Road Pound Hill Crawley West Sussex,,,,Heathy Farm,Restaurant/Cafe/Canteen,1,5,,190153,5,,51.10350700000000,05801/7015/2/000,326,foodandsafety@crawley.gov.uk,Crawley,http://www.crawley.gov.uk,-0.17334100000000,RH10 6NQ,2014-10-28,fhrs_4_en-GB,4,,FHRS,10
223508,Balcombe Road Pound Hill Crawley West Sussex,,,,Hillside Inn,Restaurant/Cafe/Canteen,1,0,,190236,0,,51.11831300000000,06146/7034/2/000,326,foodandsafety@crawley.gov.uk,Crawley,http://www.crawley.gov.uk,-0.14780900000000,RH10 7SX,2013-04-08,fhrs_5_en-GB,5,,FHRS,5
223509,Ditchling Hill Southgate Crawley West Sussex,,,,Hilltop Primary School,School/college/university,7845,0,,190746,0,,51.10528000000000,01325/7001/2/000,326,foodandsafety@crawley.gov.uk,Crawley,http://www.crawley.gov.uk,-0.19424100000000,RH11 8QL,2013-02-27,fhrs_5_en-GB,5,,FHRS,5
223510,Westway Gatwick Airport Crawley West Sussex,,,,Hilton London Gatwick Airport,Restaurant/Cafe/Canteen,1,0,,190186,0,,51.15672400000000,81011/0000/3/001,326,foodandsafety@crawley.gov.uk,Crawley,http://www.crawley.gov.uk,-0.15765500000000,RH6 0LL,2013-03-21,fhrs_5_en-GB,5,,FHRS,5
223511,1 Langley Parade Langley Green Crawley West Sussex,,,,Himani Store,Retailers - supermarkets/hypermarkets,7840,10,,190593,5,,51.12851100000000,02678/0001/0/000,326,foodandsafety@crawley.gov.uk,Crawley,http://www.crawley.gov.uk,-0.19848000000000,RH11 7RS,2014-02-04,fhrs_4_en-GB,4,,FHRS,5
223512,Hogshill Gardens Southgate Crawley West Sussex,,,,Hogshill Gardens,Other catering premises,7841,5,,190179,0,,,09/00019/COMM,326,foodandsafety@crawley.gov.uk,Crawley,http://www.crawley.gov.uk,,,2013-03-27,fhrs_5_en-GB,5,,FHRS,0
223513,Haslett Avenue East Three Bridges Crawley West Sussex,,,,Holiday Inn Express,Hotel/bed & breakfast/guest house,7842,5,,198013,5,,51.11361000000000,02098/7013/0/000,326,foodandsafety@crawley.gov.uk,Crawley,http://www.crawley.gov.uk,-0.17128600000000,RH10 1UA,2014-08-07,fhrs_5_en-GB,5,,FHRS,5
223514,Unit 38 County Mall Station Way Northgate Crawley,,,,Holland And Barrett,Retailers - other,4613,5,,724282,5,,51.11360000000000,01100/0038/3/000,326,foodandsafety@crawley.gov.uk,Crawley,http://www.crawley.gov.uk,-0.18561600000000,RH10 1FF,2014-12-11,fhrs_5_en-GB,5,,FHRS,5
223515,Unit 2 Crawley Leisure Park London Road West Green Crawley West Sussex,,,,Hollywood Bowl,Restaurant/Cafe/Canteen,1,0,,190625,5,,51.11530400000000,01166/0002/0/000,326,foodandsafety@crawley.gov.uk,Crawley,http://www.crawley.gov.uk,-0.12905500000000,RH10 2LR,2015-01-08,fhrs_5_en-GB,5,,FHRS,5
223516,Buckswood Drive Gossops Green Crawley West Sussex,,,,Holy Trinity School - Pabulum,School/college/university,7845,5,,190674,5,,51.10622700000000,06654/7001/2/000,326,foodandsafety@crawley.gov.uk,Crawley,http://www.crawley.gov.uk,-0.20844600000000,RH11 8JE,2014-06-27,fhrs_5_en-GB,5,,FHRS,0
223517,Crawley Youth Centre Longmere Road Crawley West Sussex,,,,Honeypots Childcare,Hospitals/Childcare/Caring Premises,5,5,,190219,5,,51.12329200000000,06/00003/COMM,326,foodandsafety@crawley.gov.uk,Crawley,http://www.crawley.gov.uk,-0.19010900000000,RH10 8ND,2014-05-14,fhrs_4_en-GB,4,,FHRS,10
223518,CGG Veritas Digicon Centre Crompton Way Northgate Crawley West Sussex,,,,Host Contract Management at CGG Veritas,Restaurant/Cafe/Canteen,1,0,,190471,0,,51.12696800000000,01186/7009/2/001,326,foodandsafety@crawley.gov.uk,Crawley,http://www.crawley.gov.uk,-0.18187700000000,RH10 9QN,2014-07-28,fhrs_5_en-GB,5,,FHRS,0
223519,245 Three Bridges Road Three Bridges Crawley West Sussex,,,,Hot and Tasty Chicken,Takeaway/sandwich shop,7844,0,,190463,0,,51.11811200000000,04491/0245/0/000,326,foodandsafety@crawley.gov.uk,Crawley,http://www.crawley.gov.uk,-0.16356300000000,RH10 1LS,2013-08-08,fhrs_5_en-GB,5,,FHRS,5
223520,Snack Van Stephenson Way Three Bridges Crawley West Sussex,,,,Hot Food at Southern Counties Yard,Mobile caterer,7846,5,,190444,5,,,06/00015/COMM,326,foodandsafety@crawley.gov.uk,Crawley,http://www.crawley.gov.uk,,,2014-01-24,fhrs_5_en-GB,5,,FHRS,5
223521,London Road Northgate Crawley West Sussex,,,,Ibis Hotel Gatwick,Hotel/bed & breakfast/guest house,7842,5,,190533,0,,51.13320000000000,05520/7002/2/000,326,foodandsafety@crawley.gov.uk,Crawley,http://www.crawley.gov.uk,-0.18649200000000,RH11 0PF,2013-11-18,fhrs_5_en-GB,5,,FHRS,0
223522,Southern Counties Ice Cream Stephenson Way Three Bridges Crawley West Sussex,,,,Ice Cream Van  DG04 CWD,Mobile caterer,7846,5,,190650,5,,51.11440600000000,04/00019/COMM,326,foodandsafety@crawley.gov.uk,Crawley,http://www.crawley.gov.uk,-0.16469600000000,RH10 1TN,2012-04-18,fhrs_5_en-GB,5,,FHRS,5
223523,Southern Counties Ice Cream Stephenson Way Three Bridges Crawley West Sussex,,,,Ice Cream Van  DG04 CWE,Mobile caterer,7846,5,,198002,0,,51.11440600000000,08/00102/COMM,326,foodandsafety@crawley.gov.uk,Crawley,http://www.crawley.gov.uk,-0.16469600000000,RH10 1TN,2014-08-08,fhrs_5_en-GB,5,,FHRS,0
223524,,,,,Ice Cream Van  R55 OFT,Mobile caterer,7846,5,,190763,5,,,08/00042/COMM,326,foodandsafety@crawley.gov.uk,Crawley,http://www.crawley.gov.uk,,,2013-07-10,fhrs_5_en-GB,5,,FHRS,5
223525,Southern Counties Ice Cream Stephenson Way Three Bridges Crawley West Sussex,,,,Ice Cream Van  X629 DPN,Mobile caterer,7846,5,,190603,0,,51.11440600000000,08/00103/COMM,326,foodandsafety@crawley.gov.uk,Crawley,http://www.crawley.gov.uk,-0.16469600000000,RH10 1TN,2010-03-02,fhrs_5_en-GB,5,,FHRS,5
223526,Broadfield Premier 20 - 22 Broadfield Barton Broadfield Crawley,,,,Ice Cream Van BX07 KDV,Mobile caterer,7846,0,,698765,5,,51.09705500000000,14/00080/COMM,326,foodandsafety@crawley.gov.uk,Crawley,http://www.crawley.gov.uk,-0.20558700000000,RH11 9BA,2014-08-21,fhrs_5_en-GB,5,,FHRS,0
223527,Southern Counties Ice Cream Stephenson Way Three Bridges Crawley West Sussex,,,,Ice Cream Van DG07 SSV,Mobile caterer,7846,5,,559686,0,,51.11440600000000,13/00051/COMM,326,foodandsafety@crawley.gov.uk,Crawley,http://www.crawley.gov.uk,-0.16469600000000,RH10 1TN,2013-06-05,fhrs_5_en-GB,5,,FHRS,0
223528,Southern Counties Ice Cream Stephenson Way Three Bridges Crawley West Sussex,,,,Ice Cream Van DG11 5YV,Mobile caterer,7846,5,,190271,0,,51.11440600000000,11/00119/COMM,326,foodandsafety@crawley.gov.uk,Crawley,http://www.crawley.gov.uk,-0.16469600000000,RH10 1TN,2013-06-05,fhrs_5_en-GB,5,,FHRS,0
223529,West Green Crawley West Sussex,,,,Ice Cream Van DK03 YNE,Mobile caterer,7846,5,,190739,5,,51.11845000000000,10/00072/COMM,326,foodandsafety@crawley.gov.uk,Crawley,http://www.crawley.gov.uk,-0.18475000000000,,2013-07-10,fhrs_5_en-GB,5,,FHRS,5
223530,Southern Counties Ice Cream Stephenson Way Three Bridges Crawley West Sussex,,,,Ice Cream Van DK09 XBB,Mobile caterer,7846,5,,190561,0,,51.11440600000000,10/00018/COMM,326,foodandsafety@crawley.gov.uk,Crawley,http://www.crawley.gov.uk,-0.16469600000000,RH10 1TN,2013-06-05,fhrs_5_en-GB,5,,FHRS,0
223531,Southern Counties Ice Cream Stephenson Way Three Bridges Crawley West Sussex,,,,Ice Cream Van FJ14 ABX,Mobile caterer,7846,0,,688311,0,,51.11440600000000,14/00069/COMM,326,foodandsafety@crawley.gov.uk,Crawley,http://www.crawley.gov.uk,-0.16469600000000,RH10 1TN,2014-07-18,fhrs_5_en-GB,5,,FHRS,0
223532,Southern Counties Ice Cream Stephenson Way Three Bridges Crawley West Sussex,,,,Ice Cream Van FJ14 ABZ,Mobile caterer,7846,0,,688312,0,,51.11440600000000,14/00070/COMM,326,foodandsafety@crawley.gov.uk,Crawley,http://www.crawley.gov.uk,-0.16469600000000,RH10 1TN,2014-07-18,fhrs_5_en-GB,5,,FHRS,0
223533,Southern Counties Ice Cream Stephenson Way Three Bridges Crawley West Sussex,,,,Ice Cream Van GX02 FWY,Mobile caterer,7846,5,,190602,0,,51.11440600000000,10/00032/COMM,326,foodandsafety@crawley.gov.uk,Crawley,http://www.crawley.gov.uk,-0.16469600000000,RH10 1TN,2012-03-13,fhrs_5_en-GB,5,,FHRS,0
223534,Southern Counties Ice Cream Stephenson Way Three Bridges Crawley West Sussex,,,,Ice Cream Van LMA 478G,Mobile caterer,7846,0,,688313,0,,51.11440600000000,14/00071/COMM,326,foodandsafety@crawley.gov.uk,Crawley,http://www.crawley.gov.uk,-0.16469600000000,RH10 1TN,2014-07-18,fhrs_5_en-GB,5,,FHRS,0
223535,Broadfield Premier 20 - 22 Broadfield Barton Broadfield Crawley,,,,Ice Cream Van OHN 908E,Mobile caterer,7846,0,,698764,5,,51.09705500000000,14/00079/COMM,326,foodandsafety@crawley.gov.uk,Crawley,http://www.crawley.gov.uk,-0.20558700000000,RH11 9BA,2014-08-21,fhrs_5_en-GB,5,,FHRS,0
223536,Victoria Road West Green Crawley West Sussex,,,,Ice Cream Van T500 FTY,Mobile caterer,7846,5,,616525,5,,,13/00118/COMM,326,foodandsafety@crawley.gov.uk,Crawley,http://www.crawley.gov.uk,,,2013-08-02,fhrs_4_en-GB,4,,FHRS,10
223537,Southern Counties Ice Cream Stephenson Way Three Bridges Crawley West Sussex,,,,Ice Cream Van V348 XNH,Mobile caterer,7846,5,,190659,5,,51.11440600000000,10/00031/COMM,326,foodandsafety@crawley.gov.uk,Crawley,http://www.crawley.gov.uk,-0.16469600000000,RH10 1TN,2012-03-13,fhrs_5_en-GB,5,,FHRS,5
223538,Southern Counties Ice Cream Stephenson Way Three Bridges Crawley West Sussex,,,,Ice Cream Van W1 PPD,Mobile caterer,7846,5,,559687,0,,51.11440600000000,13/00052/COMM,326,foodandsafety@crawley.gov.uk,Crawley,http://www.crawley.gov.uk,-0.16469600000000,RH10 1TN,2013-06-05,fhrs_5_en-GB,5,,FHRS,0
223539,Southern Counties Ice Cream Stephenson Way Three Bridges Crawley West Sussex,,,,Ice Cream Van W11 PPD,Mobile caterer,7846,5,,559688,0,,51.11440600000000,13/00054/COMM,326,foodandsafety@crawley.gov.uk,Crawley,http://www.crawley.gov.uk,-0.16469600000000,RH10 1TN,2013-06-05,fhrs_5_en-GB,5,,FHRS,0
223540,Southern Counties Ice Cream Stephenson Way Three Bridges Crawley West Sussex,,,,Ice Cream Van W111 PYY,Mobile caterer,7846,5,,293408,0,,51.11440600000000,12/00034/COMM,326,foodandsafety@crawley.gov.uk,Crawley,http://www.crawley.gov.uk,-0.16469600000000,RH10 1TN,2013-06-05,fhrs_5_en-GB,5,,FHRS,0
223541,Southern Counties Ice Cream Stephenson Way Three Bridges Crawley West Sussex,,,,Ice Cream Van W442 WTW,Mobile caterer,7846,0,,190684,0,,51.11440600000000,10/00033/COMM,326,foodandsafety@crawley.gov.uk,Crawley,http://www.crawley.gov.uk,-0.16469600000000,RH10 1TN,2014-07-18,fhrs_5_en-GB,5,,FHRS,0
223542,Rusper Road Ifield Crawley West Sussex,,,,Ice Cream Van W581 PBR,Mobile caterer,7846,5,,638767,5,,51.11828500000000,12/00044/COMM,326,foodandsafety@crawley.gov.uk,Crawley,http://www.crawley.gov.uk,-0.21721000000000,RH11 0HR,2014-03-20,fhrs_5_en-GB,5,,FHRS,5
223543,Southern Counties Ice Cream Stephenson Way Three Bridges Crawley West Sussex,,,,Ice Cream Van X523 FAJ (Supersoft Mr Whippy),Mobile caterer,7846,5,,674278,0,,51.11440600000000,14/00058/COMM,326,foodandsafety@crawley.gov.uk,Crawley,http://www.crawley.gov.uk,-0.16469600000000,RH10 1TN,2014-06-24,fhrs_5_en-GB,5,,FHRS,0
223544,Southern Counties Ice Cream Stephenson Way Three Bridges Crawley West Sussex,,,,Ice Cream Van YB10 JZD,Mobile caterer,7846,5,,565931,0,,51.09705500000000,13/00053/COMM,326,foodandsafety@crawley.gov.uk,Crawley,http://www.crawley.gov.uk,-0.20558700000000,RH11 9BA,2013-06-05,fhrs_5_en-GB,5,,FHRS,0
223545,Broadfield Premier 20 - 22 Broadfield Barton Broadfield Crawley,,,,Ice Cream Van YH08 DLN,Mobile caterer,7846,0,,698763,5,,51.09705500000000,14/00078/COMM,326,foodandsafety@crawley.gov.uk,Crawley,http://www.crawley.gov.uk,-0.20558700000000,RH11 9BA,2014-08-21,fhrs_5_en-GB,5,,FHRS,0
223546,263 - 269 Haslett Avenue East Three Bridges Crawley West Sussex,,,,Iceland,Retailers - supermarkets/hypermarkets,7840,0,,197951,5,,51.12031800000000,02099/7017/2/002,326,foodandsafety@crawley.gov.uk,Crawley,http://www.crawley.gov.uk,-0.16207600000000,RH10 1NP,2013-07-19,fhrs_5_en-GB,5,,FHRS,0
223547,Unit 2 3 Broadfield Barton Broadfield Crawley West Sussex,,,,Iceland,Retailers - supermarkets/hypermarkets,7840,5,,190415,0,,51.09705500000000,06593/7002/3/003,326,foodandsafety@crawley.gov.uk,Crawley,http://www.crawley.gov.uk,-0.20558700000000,RH11 9BA,2014-09-26,fhrs_5_en-GB,5,,FHRS,0
223548,Ifield Street Ifield Crawley West Sussex,,,,Ifield Barn Theatre Club,Pub/bar/nightclub,7843,10,,190537,5,,51.12416500000000,02442/7012/2/000,326,foodandsafety@crawley.gov.uk,Crawley,http://www.crawley.gov.uk,-0.21884200000000,RH11 0NN,2012-03-02,fhrs_4_en-GB,4,,FHRS,5
223549,Crawley Avenue Crawley West Sussex,,,,Ifield Community College,School/college/university,7845,0,,190564,5,,51.11787900000000,06/00009/COMM,326,foodandsafety@crawley.gov.uk,Crawley,http://www.crawley.gov.uk,-0.21003900000000,RH11 0DB,2015-01-29,fhrs_5_en-GB,5,,FHRS,0
223550,Ifield Post Office Ifield Green Ifield Crawley West Sussex,,,,Ifield Green Stores,Retailers - supermarkets/hypermarkets,7840,5,,190623,0,,51.12732500000000,02428/7023/2/000,326,foodandsafety@crawley.gov.uk,Crawley,http://www.crawley.gov.uk,-0.21323200000000,RH11 0ND,2014-08-14,fhrs_5_en-GB,5,,FHRS,5
223551,194 Ifield Drive Ifield Crawley West Sussex,,,,Ifield Grill,Restaurant/Cafe/Canteen,1,10,,293406,10,,51.12220000000000,02420/0194/0/000,326,foodandsafety@crawley.gov.uk,Crawley,http://www.crawley.gov.uk,-0.21325900000000,RH11 0DQ,2013-12-05,fhrs_3_en-GB,3,,FHRS,5
223552,Rusper Road Ifield Crawley West Sussex,,,,Ifield Park Care Home,Other catering premises,7841,5,,190336,0,,51.11472500000000,03897/7028/2/000,326,foodandsafety@crawley.gov.uk,Crawley,http://www.crawley.gov.uk,-0.21904800000000,RH11 0JE,2014-01-16,fhrs_5_en-GB,5,,FHRS,5
223553,Sutherland House Russell Way Three Bridges Crawley West Sussex,,,,Incentive Facilities Management at Xafinity,Restaurant/Cafe/Canteen,1,5,,190246,5,,51.11393500000000,02099/7009/2/000,326,foodandsafety@crawley.gov.uk,Crawley,http://www.crawley.gov.uk,-0.16963000000000,RH10 1UH,2013-07-10,fhrs_4_en-GB,4,,FHRS,10
223554,3 Gossops Parade Gossops Green Crawley West Sussex,,,,Istanbul Grill,Takeaway/sandwich shop,7844,10,,190777,5,,51.11096800000000,01925/0003/0/000,326,foodandsafety@crawley.gov.uk,Crawley,http://www.crawley.gov.uk,-0.21622000000000,RH11 8HH,2014-03-31,fhrs_4_en-GB,4,,FHRS,5
223555,RHS Front Part 71 Gatwick Road Northgate Crawley West Sussex,,,,Italian Pizza,Restaurant/Cafe/Canteen,1,5,,190235,0,,51.13763100000000,01833/0071/0/000,326,foodandsafety@crawley.gov.uk,Crawley,http://www.crawley.gov.uk,-0.16559100000000,RH10 9RD,2014-03-21,fhrs_5_en-GB,5,,FHRS,5
223556,Balcombe Road Pound Hill Crawley West Sussex,,,,Ivy Cottage Nursery School,Hospitals/Childcare/Caring Premises,5,0,,190519,0,,51.14857100000000,05701/7026/2/000,326,foodandsafety@crawley.gov.uk,Crawley,http://www.crawley.gov.uk,-0.14479700000000,RH6 9SW,2014-05-09,fhrs_5_en-GB,5,,FHRS,5
223557,26 - 30 High Street West Green Crawley West Sussex,,,,Ja Ja Bar,Other catering premises,7841,10,,190559,5,,51.11422000000000,02260/7218/2/000,326,foodandsafety@crawley.gov.uk,Crawley,http://www.crawley.gov.uk,-0.19085000000000,RH10 1BW,2014-03-18,fhrs_4_en-GB,4,,FHRS,5
223558,International Departures Lounge North Terminal Gatwick Airport,,,,Jamie's Italian,Restaurant/Cafe/Canteen,1,0,,415892,5,,51.15600000000000,12/00070/COMM,326,foodandsafety@crawley.gov.uk,Crawley,http://www.crawley.gov.uk,-0.16306100000000,RH6 0NP,2014-01-16,fhrs_5_en-GB,5,,FHRS,0
223559,North Terminal Landside Gatwick Airport Crawley West Sussex,,,,Jamie's Italian (Fixed Coffee And Ice Cream Van),Mobile caterer,7846,0,,481407,0,,,12/00099/COMM,326,foodandsafety@crawley.gov.uk,Crawley,http://www.crawley.gov.uk,,,2012-11-23,fhrs_5_en-GB,5,,FHRS,0
223560,6 Grand Parade High Street West Green Crawley West Sussex,,,,Jubilee Oak,Other catering premises,7841,0,,190290,0,,51.11541200000000,02261/0006/0/000,326,foodandsafety@crawley.gov.uk,Crawley,http://www.crawley.gov.uk,-0.19058900000000,RH10 1BU,2013-05-24,fhrs_5_en-GB,5,,FHRS,5
223561,Maidenbower Infants School Harvest Road Maidenbower Crawley West Sussex,,,,Jungle Club/Breakfast Club,School/college/university,7845,10,,616524,5,,51.10762600000000,10/00024/COMM,326,foodandsafety@crawley.gov.uk,Crawley,http://www.crawley.gov.uk,-0.15159400000000,RH10 7RA,2013-11-28,fhrs_4_en-GB,4,,FHRS,5
223562,Ring Road South Gatwick Airport Crawley West Sussex,,,,Kaffe's Kaffe,Mobile caterer,7846,5,,547870,5,,,13/00040/COMM,326,foodandsafety@crawley.gov.uk,Crawley,http://www.crawley.gov.uk,,,2014-07-10,fhrs_5_en-GB,5,,FHRS,0
223563,3 Langley Parade Langley Green Crawley West Sussex,,,,Kebab And Pizza Centre,Takeaway/sandwich shop,7844,5,,190492,5,,51.12851100000000,02678/0003/0/000,326,foodandsafety@crawley.gov.uk,Crawley,http://www.crawley.gov.uk,-0.19848000000000,RH11 7RS,2014-01-07,fhrs_5_en-GB,5,,FHRS,0
223564,249 Three Bridges Road Three Bridges Crawley West Sussex,,,,Kebab Centre,Takeaway/sandwich shop,7844,5,,190178,5,,51.11811200000000,04491/0249/A/000,326,foodandsafety@crawley.gov.uk,Crawley,http://www.crawley.gov.uk,-0.16356300000000,RH10 1LS,2015-02-03,fhrs_5_en-GB,5,,FHRS,5
223565,94-96 High Street West Green Crawley West Sussex,,,,Kentucky Fried Chicken (KFC),Takeaway/sandwich shop,7844,5,,190222,0,,51.11618000000000,02260/0096/0/000,326,foodandsafety@crawley.gov.uk,Crawley,http://www.crawley.gov.uk,-0.19023000000000,RH10 1BZ,2014-01-13,fhrs_5_en-GB,5,,FHRS,0
223566,Inger Cottage Balcombe Road Horley Surrey,,,,Kid Co Ltd,Hospitals/Childcare/Caring Premises,5,0,,190487,0,,51.14857100000000,05701/7027/2/000,326,foodandsafety@crawley.gov.uk,Crawley,http://www.crawley.gov.uk,-0.14479700000000,RH6 9SW,2013-10-03,fhrs_5_en-GB,5,,FHRS,0
223567,Play Pavillion Loppets Road Tilgate Crawley West Sussex,,,,Kids Capers Day Nursery,Hospitals/Childcare/Caring Premises,5,5,,190181,5,,51.10307100000000,02853/7002/2/000,326,foodandsafety@crawley.gov.uk,Crawley,http://www.crawley.gov.uk,-0.17648700000000,RH10 5DP,2014-09-12,fhrs_5_en-GB,5,,FHRS,5
223568,Spindle Way Three Bridges Crawley West Sussex,,,,Kims Kitchen,Mobile caterer,7846,10,,190703,5,,,04226/0000/0/001,326,foodandsafety@crawley.gov.uk,Crawley,http://www.crawley.gov.uk,,,2014-08-19,fhrs_4_en-GB,4,,FHRS,5
223569,181 Three Bridges Road Three Bridges Crawley West Sussex,,,,Kim's Kitchen @ The Plough,Restaurant/Cafe/Canteen,1,0,,638770,0,,51.11748600000000,14/00008/COMM,326,foodandsafety@crawley.gov.uk,Crawley,http://www.crawley.gov.uk,-0.16553200000000,RH10 1LG,2014-02-19,fhrs_5_en-GB,5,,FHRS,0
223570,4 Maidenbower Square Maidenbower Crawley West Sussex,,,,King Fish,Takeaway/sandwich shop,7844,10,,190620,5,,51.10736400000000,02910/0004/0/000,326,foodandsafety@crawley.gov.uk,Crawley,http://www.crawley.gov.uk,-0.15320400000000,RH10 7QH,2014-09-12,fhrs_4_en-GB,4,,FHRS,5
223571,4 Peterhouse Parade Pound Hill Crawley West Sussex,,,,Kings Garden,Takeaway/sandwich shop,7844,10,,190140,10,,51.12735300000000,03537/0004/0/000,326,foodandsafety@crawley.gov.uk,Crawley,http://www.crawley.gov.uk,-0.15533700000000,RH10 3BA,2014-10-17,fhrs_3_en-GB,3,,FHRS,5
223572,3A Broad Walk Northgate Crawley West Sussex,,,,Kismet Kebab Shop,Takeaway/sandwich shop,7844,5,,190250,5,,51.11547900000000,06599/7001/A/000,326,foodandsafety@crawley.gov.uk,Crawley,http://www.crawley.gov.uk,-0.18908600000000,RH10 1HJ,2014-03-21,fhrs_4_en-GB,4,,FHRS,10
223573,17 Broad Walk Northgate Crawley West Sussex,,,,Kubus Polish Shop,Retailers - other,4613,5,,190282,5,,51.11547900000000,06599/0017/0/000,326,foodandsafety@crawley.gov.uk,Crawley,http://www.crawley.gov.uk,-0.18908600000000,RH10 1HJ,2014-06-03,fhrs_5_en-GB,5,,FHRS,5
223574,20 Broad Walk Northgate Crawley West Sussex,,,,La Rusta,Restaurant/Cafe/Canteen,1,5,,545765,5,,,06599/0020/0/000,326,foodandsafety@crawley.gov.uk,Crawley,http://www.crawley.gov.uk,,,2014-12-02,fhrs_5_en-GB,5,,FHRS,5
223575,Martyrs Avenue Langley Green Crawley West Sussex,,,,Langley Green Hospital,Other catering premises,7841,5,,190209,5,,51.13156400000000,08/00160/COMM,326,foodandsafety@crawley.gov.uk,Crawley,http://www.crawley.gov.uk,-0.18885700000000,RH11 7EJ,2014-02-13,fhrs_5_en-GB,5,,FHRS,0
223576,Langley Drive Langley Green Crawley West Sussex,,,,Langley Green Primary School,School/college/university,7845,5,,190693,0,,51.12640000000000,02664/7001/2/000,326,foodandsafety@crawley.gov.uk,Crawley,http://www.crawley.gov.uk,-0.19511800000000,RH11 7TF,2014-07-15,fhrs_5_en-GB,5,,FHRS,0
223577,Gales Drive Three Bridges Crawley West Sussex,,,,LB1,Other catering premises,7841,5,,190567,5,,51.11768600000000,01805/7016/2/000,326,foodandsafety@crawley.gov.uk,Crawley,http://www.crawley.gov.uk,-0.17255400000000,RH10 1QA,2013-12-12,fhrs_4_en-GB,4,,FHRS,10
223578,Community Centre Gales Place Three Bridges Crawley,,,,Lets Play Pre School,Hospitals/Childcare/Caring Premises,5,5,,608434,5,,51.11814800000000,01812/7005/2/002,326,foodandsafety@crawley.gov.uk,Crawley,http://www.crawley.gov.uk,-0.17163500000000,RH10 1QG,2013-11-07,fhrs_5_en-GB,5,,FHRS,0
223579,263 - 269 Haslett Avenue East Three Bridges Crawley West Sussex,,,,Lidl,Retailers - supermarkets/hypermarkets,7840,0,,190515,0,,51.13127600000000,09/00004/COMM,326,foodandsafety@crawley.gov.uk,Crawley,http://www.crawley.gov.uk,-0.15262200000000,RH10 3HJ,2012-11-27,fhrs_5_en-GB,5,,FHRS,0
223580,10 Southgate Parade Southgate Crawley West Sussex,,,,Lily House Chinese Takeaway,Takeaway/sandwich shop,7844,10,,190527,10,,51.10582400000000,04/00042/COMM,326,foodandsafety@crawley.gov.uk,Crawley,http://www.crawley.gov.uk,-0.18757800000000,RH10 6ER,2014-11-05,fhrs_2_en-GB,2,,FHRS,15
223581,Sutherland House Russell Way Three Bridges Crawley West Sussex,,,,Little Handprints Day Nursery,Hospitals/Childcare/Caring Premises,5,5,,669165,0,,51.11393500000000,14/00057/COMM,326,foodandsafety@crawley.gov.uk,Crawley,http://www.crawley.gov.uk,-0.16963000000000,RH10 1UH,2014-09-04,fhrs_5_en-GB,5,,FHRS,0
223582,3 Maidenbower Square Maidenbower Crawley West Sussex,,,,Little Tikka,Restaurant/Cafe/Canteen,1,5,,190759,0,,51.10736400000000,10/00154/COMM,326,foodandsafety@crawley.gov.uk,Crawley,http://www.crawley.gov.uk,-0.15320400000000,RH10 7QH,2013-02-27,fhrs_5_en-GB,5,,FHRS,0
223583,St Pauls Methodist Church Woodfield Road Northgate Crawley West Sussex,,,,Loaves And Fishes,Restaurant/Cafe/Canteen,1,5,,190331,10,,51.12070200000000,04888/7022/2/000,326,foodandsafety@crawley.gov.uk,Crawley,http://www.crawley.gov.uk,-0.18026500000000,RH10 8ER,2014-01-22,fhrs_4_en-GB,4,,FHRS,0
223584,16 The Parade Northgate Crawley West Sussex,,,,Local Shop,Retailers - supermarkets/hypermarkets,7840,10,,190156,5,,51.12125400000000,03430/0016/0/000,326,foodandsafety@crawley.gov.uk,Crawley,http://www.crawley.gov.uk,-0.18110100000000,RH10 8DT,2013-07-15,fhrs_4_en-GB,4,,FHRS,5
223585,2 The Pavement Northgate Crawley West Sussex,,,,Love Bean CafÃ©,Restaurant/Cafe/Canteen,1,5,,190139,5,,51.11600100000000,03493/0002/0/000,326,foodandsafety@crawley.gov.uk,Crawley,http://www.crawley.gov.uk,-0.18560800000000,RH10 1EF,2014-06-18,fhrs_4_en-GB,4,,FHRS,10
223586,210 Ifield Drive Ifield Crawley West Sussex,,,,Luxshika Food And Wine (Londis),Retailers - supermarkets/hypermarkets,7840,0,,190680,0,,51.12220000000000,02420/0210/0/000,326,foodandsafety@crawley.gov.uk,Crawley,http://www.crawley.gov.uk,-0.21325900000000,RH11 0DQ,2012-11-22,fhrs_5_en-GB,5,,FHRS,0
223587,Unit 15 South Terminal Landside Gatwick Airport West Sussex,,,,M & S Simply Food,Retailers - supermarkets/hypermarkets,7840,0,,331851,0,,51.15600000000000,81015/0200/3/006,326,foodandsafety@crawley.gov.uk,Crawley,http://www.crawley.gov.uk,-0.16306100000000,RH6 0NN,2012-04-17,fhrs_5_en-GB,5,,FHRS,0
223588,Unit 17 The Avenue Departures Road Gatwick West Sussex,,,,M & S Simply Food,Retailers - supermarkets/hypermarkets,7840,5,,190447,5,,51.15778100000000,81017/0100/3/021,326,foodandsafety@crawley.gov.uk,Crawley,http://www.crawley.gov.uk,-0.19253500000000,RH6 0NP,2014-02-24,fhrs_5_en-GB,5,,FHRS,5
223589,4 Pegler Way West Green Crawley West Sussex,,,,M&B Restaurant,Takeaway/sandwich shop,7844,20,,190491,15,,51.11621900000000,03504/7004/0/000,326,foodandsafety@crawley.gov.uk,Crawley,http://www.crawley.gov.uk,-0.19101400000000,RH11 7AE,2014-01-15,fhrs_1_en-GB,1,,FHRS,10
223590,Pier 5 Furlong Way Gatwick Airport,,,,M.A.D Catering @ Carillion Site Canteen,Restaurant/Cafe/Canteen,1,10,,606617,5,,,13/00075/COMM,326,foodandsafety@crawley.gov.uk,Crawley,http://www.crawley.gov.uk,,,2014-02-24,fhrs_4_en-GB,4,,FHRS,5
223591,61 Gales Drive Three Bridges Crawley West Sussex,,,,Mace - A S Sussex Retail,Retailers - supermarkets/hypermarkets,7840,5,,190433,5,,51.11768600000000,01805/0061/0/000,326,foodandsafety@crawley.gov.uk,Crawley,http://www.crawley.gov.uk,-0.17255400000000,RH10 1QA,2014-03-19,fhrs_4_en-GB,4,,FHRS,10
223592,Southern Counties Ice Cream Stephenson Way Three Bridges Crawley West Sussex RH10 1TN,,,,Mack's Ices Reg: T931JPU,Mobile caterer,7846,5,,190760,0,,,10/00085/COMM,326,foodandsafety@crawley.gov.uk,Crawley,http://www.crawley.gov.uk,,,2014-08-18,fhrs_5_en-GB,5,,FHRS,0
223593,Maidenbower Community Centre Maidenbower Square Maidenbower Crawley West Sussex,,,,Maidenbower Day Centre,Other catering premises,7841,5,,190452,0,,51.10736400000000,02094/7002/2/002,326,foodandsafety@crawley.gov.uk,Crawley,http://www.crawley.gov.uk,-0.15320400000000,RH10 7QH,2014-06-25,fhrs_5_en-GB,5,,FHRS,0
223594,Harvest Road Maidenbower Crawley West Sussex,,,,Maidenbower Infant and Junior School,School/college/university,7845,0,,375291,0,,51.10762600000000,06/00052/COMM,326,foodandsafety@crawley.gov.uk,Crawley,http://www.crawley.gov.uk,-0.15159400000000,RH10 7RA,2014-09-30,fhrs_5_en-GB,5,,FHRS,5
223595,Harvest Road Crawley West Sussex,,,,Maidenbower Infant School - Chartwells,School/college/university,7845,0,,190276,0,,51.10762600000000,02094/7001/2/000,326,foodandsafety@crawley.gov.uk,Crawley,http://www.crawley.gov.uk,-0.15159400000000,RH10 7RA,2011-06-28,fhrs_5_en-GB,5,,FHRS,5
223596,Maidenbower Park Pavilion Maidenbower Drive Maidenbower Crawley West Sussex,,,,Maidenbower Park Community Club - Bar,Other catering premises,7841,5,,638768,5,,51.10740000000000,13/00059/COMM,326,foodandsafety@crawley.gov.uk,Crawley,http://www.crawley.gov.uk,-0.14811700000000,RH10 7HG,2014-02-20,fhrs_4_en-GB,4,,FHRS,10
223597,Unit 1B Denvale Trade Park Haslett Avenue East Three Bridges Crawley West Sussex,,,,Majestic Wine,Retailers - other,4613,0,,542589,0,,51.11367600000000,13/00021/COMM,326,foodandsafety@crawley.gov.uk,Crawley,http://www.crawley.gov.uk,-0.18009800000000,RH10 1SS,2013-04-19,fhrs_5_en-GB,5,,FHRS,0
223598,2 Gossops Parade Gossops Green Crawley West Sussex,,,,Mango's In,Takeaway/sandwich shop,7844,0,,466280,5,,51.11096800000000,01925/0002/0/000,326,foodandsafety@crawley.gov.uk,Crawley,http://www.crawley.gov.uk,-0.21622000000000,RH11 8HH,2014-08-14,fhrs_5_en-GB,5,,FHRS,0
223599,Lady Margaret Road Ifield Crawley West Sussex,,,,Manor Green College/Manor Green Primary School,School/college/university,7845,5,,190599,5,,51.12022400000000,05/00001/COMM,326,foodandsafety@crawley.gov.uk,Crawley,http://www.crawley.gov.uk,-0.20873400000000,RH11 0DX,2014-02-07,fhrs_5_en-GB,5,,FHRS,0
223600,134 London Road Northgate Crawley West Sussex,,,,Manor Royal Stores,Retailers - supermarkets/hypermarkets,7840,10,,190546,5,,51.12752800000000,02832/0134/0/000,326,foodandsafety@crawley.gov.uk,Crawley,http://www.crawley.gov.uk,-0.18664200000000,RH10 8LD,2014-03-25,fhrs_4_en-GB,4,,FHRS,5
223601,23 Queensway Northgate Crawley West Sussex,,,,Marks And Spencer,Retailers - supermarkets/hypermarkets,7840,0,,190553,0,,51.11590300000000,03688/0023/0/000,326,foodandsafety@crawley.gov.uk,Crawley,http://www.crawley.gov.uk,-0.18514000000000,RH10 1EE,2014-10-24,fhrs_5_en-GB,5,,FHRS,5
223602,Forge Wood Development Site Steers Lane Pound Hill Crawley West Sussex,,,,Mary Cabin (Site Canteen For Persimmon/Taylor Wimpey),Restaurant/Cafe/Canteen,1,20,,710068,10,,,14/00104/COMM,326,foodandsafety@crawley.gov.uk,Crawley,http://www.crawley.gov.uk,,,2014-12-01,fhrs_1_en-GB,1,,FHRS,15
223603,206 Ifield Drive Ifield Crawley West Sussex,,,,Master Fryer,Takeaway/sandwich shop,7844,5,,190455,5,,51.12220000000000,02420/0206/0/000,326,foodandsafety@crawley.gov.uk,Crawley,http://www.crawley.gov.uk,-0.21325900000000,RH11 0DQ,2013-12-03,fhrs_4_en-GB,4,,FHRS,10
223604,Maxwell Way Three Bridges Crawley West Sussex,,,,Maxwells,Mobile caterer,7846,5,,190238,5,,,06/00013/COMM,326,foodandsafety@crawley.gov.uk,Crawley,http://www.crawley.gov.uk,,,2013-07-04,fhrs_4_en-GB,4,,FHRS,10
223605,10 Brighton Road Southgate Crawley West Sussex,,,,Mazza,Takeaway/sandwich shop,7844,10,,190688,10,,51.11530400000000,06583/0010/0/000,326,foodandsafety@crawley.gov.uk,Crawley,http://www.crawley.gov.uk,-0.12905500000000,RH10 6AB,2014-05-15,fhrs_3_en-GB,3,,FHRS,10
223606,24 Haslett Avenue West Northgate Crawley West Sussex,,,,McDonalds,Restaurant/Cafe/Canteen,1,5,,190206,5,,51.11419100000000,02099/0024/0/000,326,foodandsafety@crawley.gov.uk,Crawley,http://www.crawley.gov.uk,-0.18777900000000,RH10 1HS,2013-09-05,fhrs_4_en-GB,4,,FHRS,10
223607,Asda  Pegler Way West Green Crawley West Sussex,,,,McDonalds,Restaurant/Cafe/Canteen,1,0,,190303,5,,51.11354800000000,03504/7010/3/001,326,foodandsafety@crawley.gov.uk,Crawley,http://www.crawley.gov.uk,-0.19220400000000,RH11 7AH,2015-01-14,fhrs_5_en-GB,5,,FHRS,0
223608,Departure Lounge South Terminal Gatwick Airport Crawley West Sussex,,,,McDonalds,Restaurant/Cafe/Canteen,1,0,,190245,0,,51.15600000000000,08/00131/COMM,326,foodandsafety@crawley.gov.uk,Crawley,http://www.crawley.gov.uk,-0.16306100000000,RH6 0NN,2015-01-13,fhrs_5_en-GB,5,,FHRS,5
223609,Unit 7 Crawley Leisure Park London Road West Green Crawley West Sussex,,,,McDonalds,Restaurant/Cafe/Canteen,1,5,,190651,5,,,01166/0007/0/000,326,foodandsafety@crawley.gov.uk,Crawley,http://www.crawley.gov.uk,,RH10 2LR,2014-06-06,fhrs_5_en-GB,5,,FHRS,5
223610,Crawley Avenue West Green Crawley West Sussex,,,,McDonalds Drive Thru,Restaurant/Cafe/Canteen,1,0,,190427,5,,,01151/7005/2/000,326,foodandsafety@crawley.gov.uk,Crawley,http://www.crawley.gov.uk,,RH10 2NF,2014-07-07,fhrs_5_en-GB,5,,FHRS,5
223611,Ring Road North Gatwick Crawley West Sussex,,,,McDonalds Drive Thru,Restaurant/Cafe/Canteen,1,0,,190478,0,,51.15600000000000,83005/0002/2/000,326,foodandsafety@crawley.gov.uk,Crawley,http://www.crawley.gov.uk,-0.16306100000000,RH6 0NN,2014-06-23,fhrs_5_en-GB,5,,FHRS,5
223612,Collins Road Bewbush Crawley West Sussex,,,,Millpond Adventure Playground,Restaurant/Cafe/Canteen,1,5,,190644,5,,51.10979700000000,09/00021/COMM,326,foodandsafety@crawley.gov.uk,Crawley,http://www.crawley.gov.uk,-0.22616600000000,RH11 8FN,2013-03-13,fhrs_5_en-GB,5,,FHRS,0
223613,Grattons Drive Pound Hill Crawley West Sussex,,,,Milton Mount Primary School,School/college/university,7845,0,,650349,0,,51.12634900000000,01946/7014/2/000,326,foodandsafety@crawley.gov.uk,Crawley,http://www.crawley.gov.uk,-0.15500500000000,RH10 3AG,2014-04-03,fhrs_5_en-GB,5,,FHRS,5
223614,Creche & Nursery County Mall Station Way Northgate Crawley West Sussex,,,,Mini Mayhem,Hospitals/Childcare/Caring Premises,5,10,,190451,5,,51.11530400000000,09/00003/COMM,326,foodandsafety@crawley.gov.uk,Crawley,http://www.crawley.gov.uk,-0.12905500000000,RH10 1FE,2013-09-04,fhrs_4_en-GB,4,,FHRS,0
223615,12 Dorsten Square Bewbush Crawley West Sussex,,,,Mister H,Takeaway/sandwich shop,7844,5,,190199,5,,51.10379100000000,07212/0012/0/000,326,foodandsafety@crawley.gov.uk,Crawley,http://www.crawley.gov.uk,-0.22211000000000,RH11 8XW,2013-03-14,fhrs_5_en-GB,5,,FHRS,0
223616,3 City Place Beehive Ring Road Northgate Crawley West Sussex,,,,Mitie Catering Services @ Novo Nordisk,Restaurant/Cafe/Canteen,1,0,,656767,0,,51.14509900000000,14/00038/COMM,326,foodandsafety@crawley.gov.uk,Crawley,http://www.crawley.gov.uk,-0.16353600000000,RH6 0PA,2014-06-19,fhrs_5_en-GB,5,,FHRS,0
223617,Unit 3 6 - 14 High Street West Green Crawley West Sussex,,,,Mo Lin,Restaurant/Cafe/Canteen,1,10,,190585,15,,51.11332100000000,06/00035/COMM,326,foodandsafety@crawley.gov.uk,Crawley,http://www.crawley.gov.uk,-0.19082700000000,RH10 1BN,2013-09-11,fhrs_2_en-GB,2,,FHRS,10
223618,,,,,Mobile Chef,Other catering premises,7841,10,,536546,5,,,11/00154/COMM,326,foodandsafety@crawley.gov.uk,Crawley,http://www.crawley.gov.uk,,,2013-03-25,fhrs_4_en-GB,4,,FHRS,5
223619,Rutherford Way Northgate Crawley West Sussex,,,,Mobile Chef Refreshment Bar,Mobile caterer,7846,5,,190430,10,,,10000/7038/0/000,326,foodandsafety@crawley.gov.uk,Crawley,http://www.crawley.gov.uk,,,2014-06-26,fhrs_3_en-GB,3,,FHRS,10
223620,High Street West Green Crawley West Sussex,,,,Morrison Supermarket,Retailers - supermarkets/hypermarkets,7840,0,,688307,5,,51.11618000000000,14/00041/COMM,326,foodandsafety@crawley.gov.uk,Crawley,http://www.crawley.gov.uk,-0.19023000000000,RH10 1BZ,2014-07-29,fhrs_5_en-GB,5,,FHRS,5
223621,Unit 1  3 Broadfield Barton Broadfield Crawley West Sussex,,,,Morrisons,Retailers - supermarkets/hypermarkets,7840,10,,190269,5,,51.09705500000000,06593/7002/2/000,326,foodandsafety@crawley.gov.uk,Crawley,http://www.crawley.gov.uk,-0.20558700000000,RH11 9BA,2014-10-31,fhrs_3_en-GB,3,,FHRS,10
223622,42 Broadfield Barton Broadfield Crawley West Sussex,,,,Mr Chen Chinese Takeaway,Takeaway/sandwich shop,7844,10,,190281,5,,51.09705500000000,06593/0042/2/000,326,foodandsafety@crawley.gov.uk,Crawley,http://www.crawley.gov.uk,-0.20558700000000,RH11 9BA,2013-08-27,fhrs_4_en-GB,4,,FHRS,5
223623,15 Langley Parade Langley Green Crawley West Sussex,,,,Mr Chips,Takeaway/sandwich shop,7844,5,,190456,0,,51.12851100000000,02678/0015/0/000,326,foodandsafety@crawley.gov.uk,Crawley,http://www.crawley.gov.uk,-0.19848000000000,RH11 7RS,2014-07-28,fhrs_5_en-GB,5,,FHRS,5
223624,,,,,Mrs Savithiri Kirupakaran,Other catering premises,7841,10,,452528,5,,,12/00001/COMM,326,foodandsafety@crawley.gov.uk,Crawley,http://www.crawley.gov.uk,,,2013-04-24,fhrs_3_en-GB,3,,FHRS,10
223625,,,,,Mrs Yvonne Kendall (Table Top Sales),Other catering premises,7841,5,,729751,5,,,14/00110/COMM,326,foodandsafety@crawley.gov.uk,Crawley,http://www.crawley.gov.uk,,,2015-01-14,fhrs_5_en-GB,5,,FHRS,5
223626,5 Shire Parade The Ridings Pound Hill Crawley West Sussex,,,,Mulberrys,Retailers - supermarkets/hypermarkets,7840,10,,190764,10,,51.12015000000000,04117/0005/2/000,326,foodandsafety@crawley.gov.uk,Crawley,http://www.crawley.gov.uk,-0.14460700000000,RH10 7XR,2013-03-01,fhrs_3_en-GB,3,,FHRS,5
223627,North Terminal Airside Departures Road Gatwick West Sussex,,,,My Lounge,Restaurant/Cafe/Canteen,1,5,,692316,5,,,14/00062/COMM,326,foodandsafety@crawley.gov.uk,Crawley,http://www.crawley.gov.uk,,,2014-08-06,fhrs_4_en-GB,4,,FHRS,10
223628,Unit 2 6 - 14 High Street West Green Crawley West Sussex,,,,My Thai,Restaurant/Cafe/Canteen,1,10,,190243,5,,51.11332100000000,05/00035/COMM,326,foodandsafety@crawley.gov.uk,Crawley,http://www.crawley.gov.uk,-0.19082700000000,RH10 1BN,2014-01-20,fhrs_4_en-GB,4,,FHRS,5
223629,South Terminal Airside Gatwick Airport,,,,Nando's,Restaurant/Cafe/Canteen,1,0,,190477,0,,,08/00140/COMM,326,foodandsafety@crawley.gov.uk,Crawley,http://www.crawley.gov.uk,,,2014-09-24,fhrs_5_en-GB,5,,FHRS,0
223630,Unit 10 Crawley Leisure Park London Road West Green Crawley West Sussex,,,,Nando's,Restaurant/Cafe/Canteen,1,5,,190270,0,,51.12024500000000,06/00046/COMM,326,foodandsafety@crawley.gov.uk,Crawley,http://www.crawley.gov.uk,-0.18965700000000,RH10 8LR,2014-10-09,fhrs_5_en-GB,5,,FHRS,5
223631,Furnace Drive Furnace Green Crawley West Sussex,,,,New Burleys Wood,Hospitals/Childcare/Caring Premises,5,5,,190686,5,,51.10668700000000,08/00045/COMM,326,foodandsafety@crawley.gov.uk,Crawley,http://www.crawley.gov.uk,-0.17140200000000,RH10 6JE,2014-08-19,fhrs_5_en-GB,5,,FHRS,5
223632,59 Ifield Road West Green Crawley West Sussex,,,,New Dragon,Takeaway/sandwich shop,7844,10,,190607,5,,51.11507200000000,02435/0059/0/000,326,foodandsafety@crawley.gov.uk,Crawley,http://www.crawley.gov.uk,-0.19414500000000,RH11 7AS,2014-09-10,fhrs_3_en-GB,3,,FHRS,10
223633,85 Gales Drive Three Bridges Crawley West Sussex,,,,New Lotus House,Takeaway/sandwich shop,7844,10,,190234,5,,51.11768600000000,01805/0085/0/000,326,foodandsafety@crawley.gov.uk,Crawley,http://www.crawley.gov.uk,-0.17255400000000,RH10 1QA,2013-07-12,fhrs_4_en-GB,4,,FHRS,5
223634,Brighton Road Southgate Crawley West Sussex,,,,New Moon,Other catering premises,7841,5,,190230,5,,51.10396300000000,06583/7031/2/000,326,foodandsafety@crawley.gov.uk,Crawley,http://www.crawley.gov.uk,-0.19340700000000,RH10 6SZ,2014-05-08,fhrs_4_en-GB,4,,FHRS,10
223635,202 Ifield Drive Ifield Crawley West Sussex,,,,New Rainbow House,Takeaway/sandwich shop,7844,10,,190768,5,,51.12220000000000,02420/0202/0/000,326,foodandsafety@crawley.gov.uk,Crawley,http://www.crawley.gov.uk,-0.21325900000000,RH11 0DQ,2014-07-09,fhrs_4_en-GB,4,,FHRS,5
223636,14 Tilgate Parade Tilgate Crawley West Sussex,,,,New Uncle Harry's,Takeaway/sandwich shop,7844,20,,190152,10,,51.10228000000000,04505/0014/0/000,326,foodandsafety@crawley.gov.uk,Crawley,http://www.crawley.gov.uk,-0.18057400000000,RH10 5EQ,2014-09-11,fhrs_1_en-GB,1,,FHRS,15
223637,1 Furnace Parade Furnace Green Crawley West Sussex,,,,New Yummy's,Takeaway/sandwich shop,7844,5,,190554,5,,51.10713100000000,01771/0001/0/000,326,foodandsafety@crawley.gov.uk,Crawley,http://www.crawley.gov.uk,-0.16814100000000,RH10 6NX,2013-11-07,fhrs_5_en-GB,5,,FHRS,5
223638,South Terminal Departure Lounge Gatwick Airport Crawley West Sussex,,,,No 1 Lounges,Restaurant/Cafe/Canteen,1,5,,190638,5,,51.15778100000000,09/00060/COMM,326,foodandsafety@crawley.gov.uk,Crawley,http://www.crawley.gov.uk,-0.19253500000000,RH6 0NP,2013-10-31,fhrs_4_en-GB,4,,FHRS,10
223639,North Terminal Departure Lounge Gatwick Airport West Sussex,,,,No 1 Traveller,Restaurant/Cafe/Canteen,1,5,,356585,5,,,12/00047/COMM,326,foodandsafety@crawley.gov.uk,Crawley,http://www.crawley.gov.uk,,,2014-08-06,fhrs_4_en-GB,4,,FHRS,10
223640,104 North Road Three Bridges Crawley West Sussex,,,,North Road Superstore,Retailers - supermarkets/hypermarkets,7840,5,,190472,5,,51.12362800000000,03250/0104/0/000,326,foodandsafety@crawley.gov.uk,Crawley,http://www.crawley.gov.uk,-0.17011800000000,RH10 1SW,2013-02-15,fhrs_4_en-GB,4,,FHRS,10
223641,Green Lane Northgate Crawley West Sussex,,,,Northgate Primary School,School/college/university,7845,0,,190133,0,,51.12234500000000,06189/7008/2/000,326,foodandsafety@crawley.gov.uk,Crawley,http://www.crawley.gov.uk,-0.18300100000000,RH10 8DX,2013-06-26,fhrs_5_en-GB,5,,FHRS,0
223642,Radford Road Pound Hill Crawley West Sussex,,,,Oakhurst B B,Hotel/bed & breakfast/guest house,7842,5,,190660,5,,,03708/7011/2/000,326,foodandsafety@crawley.gov.uk,Crawley,http://www.crawley.gov.uk,,,2013-05-30,fhrs_5_en-GB,5,,FHRS,5
223643,11 Southgate Parade Southgate Crawley West Sussex,,,,Ocean Trawler Fish Bar,Takeaway/sandwich shop,7844,10,,190501,5,,51.10582400000000,04205/0011/0/000,326,foodandsafety@crawley.gov.uk,Crawley,http://www.crawley.gov.uk,-0.18757800000000,RH10 6ER,2014-04-03,fhrs_4_en-GB,4,,FHRS,5
223644,4 Tilgate Forest Business Centre Brighton Road Tilgate Crawley West Sussex,,,,OCS Group UK LTD,Restaurant/Cafe/Canteen,1,5,,467949,10,,51.09295900000000,11/00153/COMM,326,foodandsafety@crawley.gov.uk,Crawley,http://www.crawley.gov.uk,-0.19366400000000,RH11 9BP,2014-06-25,fhrs_4_en-GB,4,,FHRS,5
223645,56 - 58 High Street West Green Crawley West Sussex,,,,Octopvs,Other catering premises,7841,10,,190581,5,,51.11472400000000,08/00008/COMM,326,foodandsafety@crawley.gov.uk,Crawley,http://www.crawley.gov.uk,-0.19087300000000,RH10 1BS,2014-03-26,fhrs_2_en-GB,2,,FHRS,15
223646,K2 Brighton Road Tilgate Crawley West Sussex,,,,OJ's,Restaurant/Cafe/Canteen,1,0,,190482,0,,51.09692400000000,05/00036/COMM,326,foodandsafety@crawley.gov.uk,Crawley,http://www.crawley.gov.uk,-0.19125300000000,RH11 9BQ,2012-12-20,fhrs_5_en-GB,5,,FHRS,5
223647,Tinsley Green Crawley West Sussex RH10 3NR,,,,Oldlands Farm Guest House,Hotel/bed & breakfast/guest house,7842,5,,190459,5,,51.14105800000000,08/00117/COMM,326,foodandsafety@crawley.gov.uk,Crawley,http://www.crawley.gov.uk,-0.15702100000000,RH10 3NR,2014-02-18,fhrs_5_en-GB,5,,FHRS,5
223648,Faraday Road Northgate Crawley West Sussex,,,,Omega Catering,Mobile caterer,7846,10,,190604,5,,,01561/7009/2/000,326,foodandsafety@crawley.gov.uk,Crawley,http://www.crawley.gov.uk,,,2014-05-01,fhrs_3_en-GB,3,,FHRS,10
223649,Maidenbower Lane Maidenbower Crawley West Sussex,,,,Oriel High School,School/college/university,7845,5,,190514,0,,51.10552600000000,04/00021/COMM,326,foodandsafety@crawley.gov.uk,Crawley,http://www.crawley.gov.uk,-0.15814800000000,RH10 7XW,2013-10-22,fhrs_5_en-GB,5,,FHRS,0
223650,87 - 89 High Street Northgate Crawley West Sussex,,,,Oriental Emporium,Retailers - supermarkets/hypermarkets,7840,5,,190305,5,,51.11588400000000,02260/0087/2/000,326,foodandsafety@crawley.gov.uk,Crawley,http://www.crawley.gov.uk,-0.18967000000000,RH10 1BA,2013-08-22,fhrs_4_en-GB,4,,FHRS,10
223651,3 Broad Walk Northgate Crawley West Sussex,,,,Oriental Market,Retailers - other,4613,10,,190468,0,,51.11547900000000,06599/0003/0/000,326,foodandsafety@crawley.gov.uk,Crawley,http://www.crawley.gov.uk,-0.18908600000000,RH10 1HJ,2012-03-22,fhrs_4_en-GB,4,,FHRS,0
223652,Three Bridges Junior School Gales Drive Three Bridges Crawley West Suusex,,,,Oscahs (Playclub),Restaurant/Cafe/Canteen,1,5,,254926,0,,51.11729700000000,11/00050/COMM,326,foodandsafety@crawley.gov.uk,Crawley,http://www.crawley.gov.uk,-0.17471200000000,RH10 1PD,2012-02-22,fhrs_5_en-GB,5,,FHRS,0
223653,Hare Lane Langley Green Crawley West Sussex,,,,Our Lady Queen Of Heaven Catholic Primary School,School/college/university,7845,5,,190205,5,,51.12721800000000,02071/7001/2/000,326,foodandsafety@crawley.gov.uk,Crawley,http://www.crawley.gov.uk,-0.20389000000000,RH11 7PZ,2014-07-07,fhrs_5_en-GB,5,,FHRS,0
223654,1 Gossops Parade Gossops Green Crawley West Sussex,,,,Papa Johns,Takeaway/sandwich shop,7844,5,,190411,5,,51.11096800000000,01925/0001/0/000,326,foodandsafety@crawley.gov.uk,Crawley,http://www.crawley.gov.uk,-0.21622000000000,RH11 8HH,2014-07-17,fhrs_5_en-GB,5,,FHRS,5
223655,Balcombe Road Pound Hill Crawley West Sussex,,,,Parsons Pig,Restaurant/Cafe/Canteen,1,5,,190441,5,,51.14340000000000,06146/7008/2/000,326,foodandsafety@crawley.gov.uk,Crawley,http://www.crawley.gov.uk,-0.14646200000000,RH10 3NL,2013-10-02,fhrs_4_en-GB,4,,FHRS,10
223656,The Grattons Indoor Bowls Club Grattons Drive Pound Hill Crawley West Sussex,,,,Passionate About Food at Grattons Indoor Bowls Club,Restaurant/Cafe/Canteen,1,0,,190191,0,,51.12634900000000,03537/7005/2/000,326,foodandsafety@crawley.gov.uk,Crawley,http://www.crawley.gov.uk,-0.15500500000000,RH10 3AG,2014-10-15,fhrs_5_en-GB,5,,FHRS,5
223657,The Pelham Buckle Ifield Drive Ifield Crawley West Sussex,,,,Pelham Buckle and CafÃ©,Restaurant/Cafe/Canteen,1,5,,190718,0,,51.12220000000000,02420/7014/2/000,326,foodandsafety@crawley.gov.uk,Crawley,http://www.crawley.gov.uk,-0.21325900000000,RH11 0DQ,2014-04-29,fhrs_5_en-GB,5,,FHRS,5
223658,22 The Boulevard Crawley West Sussex,,,,Peri Peri Original,Restaurant/Cafe/Canteen,1,5,,190663,5,,51.11616900000000,06505/0022/0/000,326,foodandsafety@crawley.gov.uk,Crawley,http://www.crawley.gov.uk,-0.18720100000000,RH10 1XP,2013-07-26,fhrs_5_en-GB,5,,FHRS,5
223659,2 The Boulevard Northgate Crawley West Sussex,,,,Pizza Express,Restaurant/Cafe/Canteen,1,0,,190774,0,,51.11637500000000,06505/0002/0/000,326,foodandsafety@crawley.gov.uk,Crawley,http://www.crawley.gov.uk,-0.18886500000000,RH10 1XX,2012-09-12,fhrs_5_en-GB,5,,FHRS,0
223660,4 Tilgate Parade Tilgate Crawley West Sussex,,,,Pizza Go Go,Takeaway/sandwich shop,7844,0,,190526,0,,51.10228000000000,04505/0004/0/000,326,foodandsafety@crawley.gov.uk,Crawley,http://www.crawley.gov.uk,-0.18057400000000,RH10 5EQ,2015-02-02,fhrs_5_en-GB,5,,FHRS,5
223661,1 Hazelwick Avenue Three Bridges Crawley West Sussex,,,,Pizza Hut,Takeaway/sandwich shop,7844,0,,481406,0,,51.12031800000000,02162/0001/0/000,326,foodandsafety@crawley.gov.uk,Crawley,http://www.crawley.gov.uk,-0.16207600000000,RH10 1NP,2014-05-16,fhrs_5_en-GB,5,,FHRS,0
223662,34 The Boulevard Northgate Crawley West Sussex,,,,Pizza Hut,Takeaway/sandwich shop,7844,5,,190653,5,,51.11616900000000,06505/0034/0/000,326,foodandsafety@crawley.gov.uk,Crawley,http://www.crawley.gov.uk,-0.18720100000000,RH10 1XP,2013-10-14,fhrs_4_en-GB,4,,FHRS,10
223663,Unit 5 Crawley Leisure Park London Road West Green Crawley West Sussex,,,,Pizza Hut,Restaurant/Cafe/Canteen,1,5,,190552,10,,51.12024500000000,01166/0005/0/000,326,foodandsafety@crawley.gov.uk,Crawley,http://www.crawley.gov.uk,-0.18965700000000,RH10 8LR,2014-06-09,fhrs_4_en-GB,4,,FHRS,5
223664,239 Three Bridges Road Three Bridges Crawley West Sussex,,,,Pizza Time,Takeaway/sandwich shop,7844,5,,190462,5,,51.11809600000000,04491/0239/0/000,326,foodandsafety@crawley.gov.uk,Crawley,http://www.crawley.gov.uk,-0.16369300000000,RH10 1LS,2013-11-11,fhrs_4_en-GB,4,,FHRS,10
223665,Play Centre Knepp Close Pound Hill Crawley West Sussex,,,,Play Centre,Restaurant/Cafe/Canteen,1,10,,254927,5,,51.11530400000000,11/00049/COMM,326,foodandsafety@crawley.gov.uk,Crawley,http://www.crawley.gov.uk,-0.12905500000000,RH10 4AS,2012-02-20,fhrs_3_en-GB,3,,FHRS,10
223666,LHS Front Part 71 Gatwick Road Northgate Crawley West Sussex,,,,Pop Inn CafÃ©,Restaurant/Cafe/Canteen,1,5,,190237,5,,51.13763100000000,11/00040/COMM,326,foodandsafety@crawley.gov.uk,Crawley,http://www.crawley.gov.uk,-0.16559100000000,RH10 9RD,2014-11-06,fhrs_5_en-GB,5,,FHRS,0
223667,Charlwood Road Crawley West Sussex,,,,Popes Mead Bowling Club,Pub/bar/nightclub,7843,5,,190545,0,,51.13126900000000,04/00007/COMM,326,foodandsafety@crawley.gov.uk,Crawley,http://www.crawley.gov.uk,-0.21057900000000,RH11 7LX,2013-07-11,fhrs_5_en-GB,5,,FHRS,0
223668,Unit 8 Birchfield Park Business Centre Ifield Road West Green Crawley West Sussex,,,,Posh Nosh Catering Vehicle 1,Mobile caterer,7846,0,,197959,0,,51.14982800000000,11/00171/COMM,326,foodandsafety@crawley.gov.uk,Crawley,http://www.crawley.gov.uk,-0.22816300000000,RH6 0DR,2013-08-22,fhrs_5_en-GB,5,,FHRS,0
223669,Unit 8 Birchfield Park Business Centre Ifield Road West Green Crawley West Sussex,,,,Posh Nosh Catering Vehicle 2,Mobile caterer,7846,0,,582376,0,,51.14982800000000,11/00213/COMM,326,foodandsafety@crawley.gov.uk,Crawley,http://www.crawley.gov.uk,-0.22816300000000,RH6 0DR,2013-08-22,fhrs_5_en-GB,5,,FHRS,5
223670,Crawley Lane Pound Hill Crawley West Sussex,,,,Pound Hill Infant School,School/college/university,7845,0,,542590,0,,51.11859100000000,13/00025/COMM,326,foodandsafety@crawley.gov.uk,Crawley,http://www.crawley.gov.uk,-0.15401400000000,RH10 7EB,2013-04-18,fhrs_5_en-GB,5,,FHRS,5
223671,Crawley Lane Pound Hill Crawley West Sussex,,,,Pound Hill Junior School - Chartwells,School/college/university,7845,0,,190280,0,,51.11859100000000,01158/7006/2/000,326,foodandsafety@crawley.gov.uk,Crawley,http://www.crawley.gov.uk,-0.15401400000000,RH10 7EB,2013-03-26,fhrs_5_en-GB,5,,FHRS,5
223672,14 - 19 Queens Square Northgate Crawley West Sussex,,,,Poundland,Retailers - other,4613,5,,190577,5,,51.11576600000000,03681/7007/2/000,326,foodandsafety@crawley.gov.uk,Crawley,http://www.crawley.gov.uk,-0.18728900000000,RH10 1DY,2014-11-04,fhrs_5_en-GB,5,,FHRS,5
223673,Unit 8 The Pavilion Queens Square Northgate Crawley West Sussex,,,,Poundworld,Retailers - supermarkets/hypermarkets,7840,10,,547869,5,,51.11545600000000,07/00040/COMM,326,foodandsafety@crawley.gov.uk,Crawley,http://www.crawley.gov.uk,-0.18762900000000,RH10 1DE,2013-05-10,fhrs_4_en-GB,4,,FHRS,5
223674,Crawley Avenue Southbound Gossops Green Crawley West Sussex,,,,Premier Inn - Crawley East,Hotel/bed & breakfast/guest house,7842,0,,190543,0,,51.10980400000000,01151/0908/0/000,326,foodandsafety@crawley.gov.uk,Crawley,http://www.crawley.gov.uk,-0.20596500000000,RH10 8BA,2014-07-18,fhrs_5_en-GB,5,,FHRS,5
223675,45 Goffs Park Road Southgate Crawley West Sussex,,,,Premier Inn - Crawley South,Hotel/bed & breakfast/guest house,7842,5,,190635,0,,51.10823100000000,01882/0045/0/000,326,foodandsafety@crawley.gov.uk,Crawley,http://www.crawley.gov.uk,-0.19548300000000,RH11 8AX,2014-03-21,fhrs_4_en-GB,4,,FHRS,10
223676,Premier Inn North Terminal Northway Gatwick West Sussex,,,,Premier Inn - Thyme Restaurant,Hotel/bed & breakfast/guest house,7842,5,,481408,5,,51.16088500000000,12/00105/COMM,326,foodandsafety@crawley.gov.uk,Crawley,http://www.crawley.gov.uk,-0.17407900000000,RH6 0PH,2014-06-12,fhrs_5_en-GB,5,,FHRS,0
223677,Crawley Business Quarter Northgate Crawley West Sussex,,,,Premier Inn Gatwick Manor Royal,Hotel/bed & breakfast/guest house,7842,5,,190747,0,,51.13433300000000,10/00053/COMM,326,foodandsafety@crawley.gov.uk,Crawley,http://www.crawley.gov.uk,-0.18184500000000,RH10 9AP,2014-01-08,fhrs_5_en-GB,5,,FHRS,5
223678,Longbridge Way Gatwick Crawley West Sussex,,,,Premier Inn Thyme Restaurant,Restaurant/Cafe/Canteen,1,0,,190646,0,,51.16412100000000,83008/0001/0/000,326,foodandsafety@crawley.gov.uk,Crawley,http://www.crawley.gov.uk,-0.17398000000000,RH6 0NX,2014-09-23,fhrs_5_en-GB,5,,FHRS,5
223679,6 The Boulevard Northgate Crawley West Sussex,,,,Premier KVK Mini Market,Retailers - other,4613,5,,190467,5,,51.11637500000000,06505/0006/0/000,326,foodandsafety@crawley.gov.uk,Crawley,http://www.crawley.gov.uk,-0.18886500000000,RH10 1XX,2012-11-14,fhrs_5_en-GB,5,,FHRS,5
223680,7 Furnace Parade Furnace Green Crawley West Sussex,,,,Premier Supermarket,Retailers - supermarkets/hypermarkets,7840,5,,190432,0,,51.10713100000000,01771/0007/0/000,326,foodandsafety@crawley.gov.uk,Crawley,http://www.crawley.gov.uk,-0.16814100000000,RH10 6NX,2014-04-24,fhrs_5_en-GB,5,,FHRS,5
223681,24 - 26 The Martlets Northgate Crawley West Sussex,,,,Pret A Manger,Restaurant/Cafe/Canteen,1,0,,591951,5,,51.11453600000000,13/00079/COMM,326,foodandsafety@crawley.gov.uk,Crawley,http://www.crawley.gov.uk,-0.18682200000000,RH10 1ES,2013-10-15,fhrs_5_en-GB,5,,FHRS,0
223682,Unit L68 South Terminal Airside Gatwick Airport West Sussex,,,,Pret A Manger,Restaurant/Cafe/Canteen,1,5,,190264,5,,51.15600000000000,08/00139/COMM,326,foodandsafety@crawley.gov.uk,Crawley,http://www.crawley.gov.uk,-0.16306100000000,RH6 0NN,2013-07-31,fhrs_5_en-GB,5,,FHRS,5
223683,Unit U10 North Terminal Airside Departures Road Gatwick Crawley West Sussex,,,,Pret A Manger,Restaurant/Cafe/Canteen,1,0,,190221,0,,51.15600000000000,09/00066/COMM,326,foodandsafety@crawley.gov.uk,Crawley,http://www.crawley.gov.uk,-0.16306100000000,RH6 0NP,2015-02-09,fhrs_5_en-GB,5,,FHRS,5
223684,60 High Street West Green Crawley West Sussex,,,,Prezzo,Restaurant/Cafe/Canteen,1,0,,190761,5,,51.11502600000000,02260/0060/0/000,326,foodandsafety@crawley.gov.uk,Crawley,http://www.crawley.gov.uk,-0.19064700000000,RH10 1BT,2014-12-03,fhrs_5_en-GB,5,,FHRS,0
223685,Units B And C 5 Pegler Way West Green Crawley West Sussex,,,,Pukka Hakka,Takeaway/sandwich shop,7844,,,710069,,,51.11621900000000,14/00105/COMM,326,foodandsafety@crawley.gov.uk,Crawley,http://www.crawley.gov.uk,-0.19101400000000,RH11 7AE,,fhrs_awaitinginspection_en-GB,AwaitingInspection,,FHRS,
223686,Crawley Railway Station Station Way Northgate Crawley West Sussex,,,,Pumpkin,Restaurant/Cafe/Canteen,1,5,,190695,10,,51.11218900000000,04296/7006/2/000,326,foodandsafety@crawley.gov.uk,Crawley,http://www.crawley.gov.uk,-0.18628600000000,RH10 1JA,2014-11-04,fhrs_3_en-GB,3,,FHRS,10
223687,Gatwick Mail Centre James Watt Way Northgate Crawley West Sussex,,,,Quadrant Catering @ Royal Mail,Restaurant/Cafe/Canteen,1,0,,190538,0,,51.13878500000000,02471/7001/0/000,326,foodandsafety@crawley.gov.uk,Crawley,http://www.crawley.gov.uk,-0.16979100000000,RH10 9AA,2014-03-07,fhrs_5_en-GB,5,,FHRS,5
223688,2 - 4 Brighton Road Southgate Crawley West Sussex,,,,Railway,Other catering premises,7841,5,,190540,0,,51.11189500000000,06583/7002/2/000,326,foodandsafety@crawley.gov.uk,Crawley,http://www.crawley.gov.uk,-0.19051200000000,RH10 6AA,2015-01-07,fhrs_5_en-GB,5,,FHRS,5
223689,Crawley Hospital West Green Drive West Green Crawley West Sussex,,,,Rainbow Nursery (Hospital Staff Creche),Hospitals/Childcare/Caring Premises,5,5,,190135,5,,51.11660900000000,04790/7003/3/003,326,foodandsafety@crawley.gov.uk,Crawley,http://www.crawley.gov.uk,-0.19758600000000,RH11 7DH,2013-08-27,fhrs_5_en-GB,5,,FHRS,0
223690,8 Broadfield Barton Broadfield Crawley West Sussex R,,,,Raj Tandoori and Raj Kebab,Takeaway/sandwich shop,7844,5,,190401,5,,51.09705500000000,06593/0008/0/000,326,foodandsafety@crawley.gov.uk,Crawley,http://www.crawley.gov.uk,-0.20558700000000,RH11 9BA,2014-03-31,fhrs_5_en-GB,5,,FHRS,5
223691,11 The Parade Northgate Crawley West Sussex,,,,Raj Tandoori II,Takeaway/sandwich shop,7844,10,,190420,5,,51.12125400000000,03430/0011/0/000,326,foodandsafety@crawley.gov.uk,Crawley,http://www.crawley.gov.uk,-0.18110100000000,RH10 8DT,2014-02-06,fhrs_4_en-GB,4,,FHRS,5
223692,2 Langley Parade Langley Green Crawley West Sussex,,,,Raja Brothers Greengrocer,Retailers - other,4613,5,,190284,5,,51.12851100000000,02678/0002/0/000,326,foodandsafety@crawley.gov.uk,Crawley,http://www.crawley.gov.uk,-0.19848000000000,RH11 7RS,2014-10-28,fhrs_5_en-GB,5,,FHRS,5
223693,Ifield Avenue Langley Green Crawley West Sussex,,,,Ram Sports And Social Club,Pub/bar/nightclub,7843,10,,190320,5,,51.13126900000000,02413/7010/0/000,326,foodandsafety@crawley.gov.uk,Crawley,http://www.crawley.gov.uk,-0.21057900000000,RH11 7LX,2014-11-26,fhrs_4_en-GB,4,,FHRS,5
223694,56 - 58 High Street West Green Crawley West Sussex,,,,Ramada Crawley Gatwick,Hotel/bed & breakfast/guest house,7842,10,,190306,10,,51.11442400000000,02260/7044/2/000,326,foodandsafety@crawley.gov.uk,Crawley,http://www.crawley.gov.uk,-0.19009900000000,RH10 1BQ,2014-10-01,fhrs_3_en-GB,3,,FHRS,10
223695,1 Southgate Parade Southgate Crawley West Sussex,,,,Rashids,Takeaway/sandwich shop,7844,5,,190406,10,,51.10582400000000,04205/0001/0/000,326,foodandsafety@crawley.gov.uk,Crawley,http://www.crawley.gov.uk,-0.18757800000000,RH10 6ER,2013-01-10,fhrs_4_en-GB,4,,FHRS,0
223696,1 Peterhouse Parade Pound Hill Crawley West Sussex,,,,Real Barbeque And Bar,Restaurant/Cafe/Canteen,1,5,,190588,5,,51.12735300000000,03537/0001/0/000,326,foodandsafety@crawley.gov.uk,Crawley,http://www.crawley.gov.uk,-0.15533700000000,RH10 3BA,2013-08-12,fhrs_5_en-GB,5,,FHRS,5
223697,4 Furnace Parade Furnace Green Crawley West Sussex,,,,Reams Of Special Stuff,Restaurant/Cafe/Canteen,1,20,,190752,10,,51.10713100000000,10/00057/COMM,326,foodandsafety@crawley.gov.uk,Crawley,http://www.crawley.gov.uk,-0.16814100000000,RH10 6NX,2014-07-02,fhrs_1_en-GB,1,,FHRS,15
223698,Brighton Road Broadfield Crawley West Sussex,,,,Redz Bar Broadfield Stadium,Other catering premises,7841,10,,190194,5,,51.09957800000000,06583/7092/2/001,326,foodandsafety@crawley.gov.uk,Crawley,http://www.crawley.gov.uk,-0.19540600000000,RH11 9RX,2013-04-17,fhrs_3_en-GB,3,,FHRS,10
223699,South Terminal Arrivals Gatwick Airport,,,,Regus Express Lounge,Restaurant/Cafe/Canteen,1,5,,698766,5,,51.15778100000000,14/00082/COMM,326,foodandsafety@crawley.gov.uk,Crawley,http://www.crawley.gov.uk,-0.19253500000000,RH6 0NP,2015-01-26,fhrs_5_en-GB,5,,FHRS,5
223700,1 Grand Parade High Street West Green Crawley West Sussex,,,,Roosters Piri Piri,Restaurant/Cafe/Canteen,1,10,,190731,10,,51.11541200000000,02261/0001/2/000,326,foodandsafety@crawley.gov.uk,Crawley,http://www.crawley.gov.uk,-0.19058900000000,RH10 1BU,2014-10-09,fhrs_3_en-GB,3,,FHRS,10
223701,Rutherford Way Northgate Crawley West Sussex,,,,Rutherford Way Diner,Mobile caterer,7846,5,,190586,10,,,08/00019/COMM,326,foodandsafety@crawley.gov.uk,Crawley,http://www.crawley.gov.uk,,,2014-12-02,fhrs_4_en-GB,4,,FHRS,5
223702,5 Grand Parade High Street Northgate Crawley West Sussex,,,,Saffron Lounge,Restaurant/Cafe/Canteen,1,10,,190707,5,,51.11541200000000,02261/0005/0/000,326,foodandsafety@crawley.gov.uk,Crawley,http://www.crawley.gov.uk,-0.19058900000000,RH10 1BU,2014-04-02,fhrs_4_en-GB,4,,FHRS,5
223703,12 Gossops Parade Gossops Green Crawley West Sussex,,,,Sagorika,Restaurant/Cafe/Canteen,1,10,,190388,10,,51.11096800000000,01925/0012/0/000,326,foodandsafety@crawley.gov.uk,Crawley,http://www.crawley.gov.uk,-0.21622000000000,RH11 8HH,2014-03-20,fhrs_3_en-GB,3,,FHRS,10
223704,37 - 43 Queensway Northgate Crawley West Sussex,,,,Sainsbury's Central,Retailers - supermarkets/hypermarkets,7840,0,,190535,0,,51.11574500000000,03688/7011/2/000,326,foodandsafety@crawley.gov.uk,Crawley,http://www.crawley.gov.uk,-0.18478900000000,RH10 1EG,2014-04-30,fhrs_5_en-GB,5,,FHRS,5
223705,Crawley Avenue West Green Crawley West Sussex,,,,Sainsbury's Superstore and Cafe,Retailers - supermarkets/hypermarkets,7840,0,,190279,0,,51.12372300000000,01151/7002/2/000,326,foodandsafety@crawley.gov.uk,Crawley,http://www.crawley.gov.uk,-0.19185000000000,RH10 8NF,2013-07-18,fhrs_5_en-GB,5,,FHRS,0
223706,Tinsley Lane South Three Bridges Crawley West Sussex,,,,Sandman Signature London Gatwick,Hotel/bed & breakfast/guest house,7842,5,,190736,5,,51.12646600000000,05675/7002/2/000,326,foodandsafety@crawley.gov.uk,Crawley,http://www.crawley.gov.uk,-0.16757700000000,RH10 8XH,2014-09-03,fhrs_5_en-GB,5,,FHRS,5
223707,,,,,Scooby Snax,Mobile caterer,7846,0,,190449,0,,,07/00001/COMM,326,foodandsafety@crawley.gov.uk,Crawley,http://www.crawley.gov.uk,,,2014-09-02,fhrs_5_en-GB,5,,FHRS,0
223708,32 Broadfield Barton Broadfield Crawley West Sussex,,,,Scoops And Hoops,Restaurant/Cafe/Canteen,1,10,,499415,5,,51.09705500000000,12/00102/COMM,326,foodandsafety@crawley.gov.uk,Crawley,http://www.crawley.gov.uk,-0.20558700000000,RH11 9BA,2014-10-17,fhrs_4_en-GB,4,,FHRS,5
223709,Unit L12 North Terminal Departure Lounge  Gatwick Airport Crawley West Sussex,,,,Seafood Bar,Restaurant/Cafe/Canteen,1,5,,190733,5,,51.15778100000000,81018/0200/3/010,326,foodandsafety@crawley.gov.uk,Crawley,http://www.crawley.gov.uk,-0.19253500000000,RH6 0NP,2014-01-16,fhrs_5_en-GB,5,,FHRS,5
223710,Seymour Road Broadfield Crawley West Sussex,,,,Seymour Primary School,School/college/university,7845,0,,190627,0,,51.09968800000000,04064/7001/2/000,326,foodandsafety@crawley.gov.uk,Crawley,http://www.crawley.gov.uk,-0.20781400000000,RH11 9ES,2013-03-18,fhrs_5_en-GB,5,,FHRS,0
223711,85 High Street Northgate Crawley West Sussex,,,,Shades,Other catering premises,7841,10,,190656,5,,51.11588400000000,02260/7048/0/000,326,foodandsafety@crawley.gov.uk,Crawley,http://www.crawley.gov.uk,-0.18967000000000,RH10 1BA,2014-11-03,fhrs_4_en-GB,4,,FHRS,5
223712,South TerminalDeparture Lounge Gatwick Airport Crawley West Sussex,,,,Shake A Hula,Restaurant/Cafe/Canteen,1,0,,190332,0,,51.15600000000000,08/00159/COMM,326,foodandsafety@crawley.gov.uk,Crawley,http://www.crawley.gov.uk,-0.16306100000000,RH6 0NN,2013-04-25,fhrs_5_en-GB,5,,FHRS,5
223713,Unit U8 North Terminal Airside Departures Road Gatwick Crawley West Sussex,,,,Shake A Hula,Restaurant/Cafe/Canteen,1,0,,190212,0,,51.15600000000000,04/00027/COMM,326,foodandsafety@crawley.gov.uk,Crawley,http://www.crawley.gov.uk,-0.16306100000000,RH6 0NP,2013-08-06,fhrs_5_en-GB,5,,FHRS,5
223714,Kiosk M County Mall Station Way Northgate Crawley West Sussex,,,,Shakeaway,Restaurant/Cafe/Canteen,1,5,,190124,5,,,11/00220/COMM,326,foodandsafety@crawley.gov.uk,Crawley,http://www.crawley.gov.uk,,,2013-09-02,fhrs_5_en-GB,5,,FHRS,5
223715,Service Station Longbridge Way Langley Green Crawley West Sussex,,,,Shell Gatwick North,Retailers - supermarkets/hypermarkets,7840,5,,190266,0,,51.17923500000000,83008/0002/0/000,326,foodandsafety@crawley.gov.uk,Crawley,http://www.crawley.gov.uk,-0.22108400000000,RH6 0HP,2014-12-04,fhrs_5_en-GB,5,,FHRS,5
223716,Overdene Drive Gossops Green Crawley West Sussex,,,,Shell Ifield,Retailers - other,4613,0,,190610,0,,51.11391300000000,03403/7001/2/000,326,foodandsafety@crawley.gov.uk,Crawley,http://www.crawley.gov.uk,-0.21123500000000,RH11 8DU,2012-11-15,fhrs_5_en-GB,5,,FHRS,5
223717,51 Ifield Road West Green Crawley West Sussex,,,,Shriya's,Retailers - other,4613,20,,190172,15,,51.11507200000000,11/00033/COMM,326,foodandsafety@crawley.gov.uk,Crawley,http://www.crawley.gov.uk,-0.19414500000000,RH11 7AS,2014-02-20,fhrs_1_en-GB,1,,FHRS,15
223718,27 - 29 Spencers Road West Green Crawley West Sussex,,,,Sikh Temple,Other catering premises,7841,5,,190525,0,,51.11384400000000,04219/7015/2/000,326,foodandsafety@crawley.gov.uk,Crawley,http://www.crawley.gov.uk,-0.19502200000000,RH11 7DE,2013-01-10,fhrs_5_en-GB,5,,FHRS,0
223719,Tilgate Park Tilgate Drive Tilgate Crawley West Sussex,,,,Smith And Western,Restaurant/Cafe/Canteen,1,0,,377410,5,,51.09511600000000,04547/7002/2/000,326,foodandsafety@crawley.gov.uk,Crawley,http://www.crawley.gov.uk,-0.17965600000000,RH10 5PQ,2013-12-03,fhrs_5_en-GB,5,,FHRS,0
223720,10 Dorsten Square Bewbush Crawley West Sussex,,,,Smokey's,Retailers - other,4613,20,,190138,5,,51.10379100000000,07212/0010/0/000,326,foodandsafety@crawley.gov.uk,Crawley,http://www.crawley.gov.uk,-0.22211000000000,RH11 8XW,2014-11-26,fhrs_1_en-GB,1,,FHRS,15
223721,Haslett Avenue East Three Bridges Crawley West Sussex,,,,Snooty Fox,Other catering premises,7841,0,,190678,0,,51.11813500000000,02099/9902/2/000,326,foodandsafety@crawley.gov.uk,Crawley,http://www.crawley.gov.uk,-0.16164800000000,RH10 1LY,2013-09-10,fhrs_5_en-GB,5,,FHRS,5
223722,Manor Royal Northgate Crawley West Sussex,,,,Sodexo at Thales Sapphire,Restaurant/Cafe/Canteen,1,0,,190706,0,,,02936/7019/2/000,326,foodandsafety@crawley.gov.uk,Crawley,http://www.crawley.gov.uk,,RH10 9PZ,2014-09-10,fhrs_5_en-GB,5,,FHRS,0
223723,Northway Gatwick Airport Crawley West Sussex,,,,Sofitel Restaurant,Restaurant/Cafe/Canteen,1,0,,190142,0,,51.16088500000000,81012/0000/3/001,326,foodandsafety@crawley.gov.uk,Crawley,http://www.crawley.gov.uk,-0.17407900000000,RH6 0PH,2013-07-24,fhrs_5_en-GB,5,,FHRS,5
223724,22 Brighton Road Southgate Crawley West Sussex,,,,Southgate Fish And Chips,Takeaway/sandwich shop,7844,5,,569326,0,,51.11189500000000,06583/0022/0/000,326,foodandsafety@crawley.gov.uk,Crawley,http://www.crawley.gov.uk,-0.19051200000000,RH10 6AA,2014-09-26,fhrs_5_en-GB,5,,FHRS,5
223725,Barrington Road Southgate Crawley West Sussex,,,,Southgate Primary School,School/college/university,7845,0,,197983,0,,51.10577900000000,06203/7001/2/000,326,foodandsafety@crawley.gov.uk,Crawley,http://www.crawley.gov.uk,-0.19045100000000,RH10 6DG,2013-07-17,fhrs_5_en-GB,5,,FHRS,5
223726,8 Bank Lane Northgate Crawley West Sussex RH10 1DR,,,,Spice World,Takeaway/sandwich shop,7844,5,,190216,5,,,06160/0008/0/000,326,foodandsafety@crawley.gov.uk,Crawley,http://www.crawley.gov.uk,,,2014-06-26,fhrs_4_en-GB,4,,FHRS,10
223727,Squires Garden Centre Horsham Road Gossops Green Crawley West Sussex,,,,Squires Garden Centre CafÃ©,Restaurant/Cafe/Canteen,1,0,,190596,5,,51.10680200000000,02372/7012/2/000,326,foodandsafety@crawley.gov.uk,Crawley,http://www.crawley.gov.uk,-0.20548100000000,RH11 8PL,2013-11-05,fhrs_5_en-GB,5,,FHRS,5
223728,Weald Drive Furnace Green Crawley West Sussex,,,,St Andrews's C E School,School/college/university,7845,5,,564223,0,,51.10796400000000,04741/7001/2/000,326,foodandsafety@crawley.gov.uk,Crawley,http://www.crawley.gov.uk,-0.16908000000000,RH10 6NU,2013-06-25,fhrs_5_en-GB,5,,FHRS,0
223729,Malthouse Road Southgate Crawley West Sussex,,,,St Catherines Hospice,Other catering premises,7841,0,,190425,0,,51.10779200000000,02922/7015/2/000,326,foodandsafety@crawley.gov.uk,Crawley,http://www.crawley.gov.uk,-0.18864300000000,RH10 6BH,2014-07-01,fhrs_5_en-GB,5,,FHRS,5
223730,31 The Broadway Northgate Crawley West Sussex,,,,St Catherine's Hospice Shop,Restaurant/Cafe/Canteen,1,5,,190327,0,,51.11466000000000,06606/0031/0/000,326,foodandsafety@crawley.gov.uk,Crawley,http://www.crawley.gov.uk,-0.18790300000000,RH10 1HD,2013-05-07,fhrs_5_en-GB,5,,FHRS,0
223731,The Mardens Ifield Crawley West Sussex,,,,St Margarets C of E School,School/college/university,7845,0,,624276,0,,51.12109100000000,02950/7005/2/000,326,foodandsafety@crawley.gov.uk,Crawley,http://www.crawley.gov.uk,-0.20485600000000,RH11 0AQ,2014-01-08,fhrs_5_en-GB,5,,FHRS,5
223732,Old Horsham Road Southgate Crawley West Sussex,,,,St Wilfrids R C School,School/college/university,7845,5,,190419,5,,51.11090200000000,03347/7002/2/000,326,foodandsafety@crawley.gov.uk,Crawley,http://www.crawley.gov.uk,-0.20308000000000,RH11 8PG,2014-07-16,fhrs_5_en-GB,5,,FHRS,5
223733,Southgate Drive Southgate Crawley West Sussex,,,,St.Francis Of Assissi RC Primary School,School/college/university,7845,0,,190512,0,,51.10809500000000,04198/7002/2/000,326,foodandsafety@crawley.gov.uk,Crawley,http://www.crawley.gov.uk,-0.18441700000000,RH10 6HD,2013-03-13,fhrs_5_en-GB,5,,FHRS,5
223734,Schlumberger House Buckingham Gate Pound Hill Crawley West Sussex,,,,Staff Canteen @ Schlumberger House,Restaurant/Cafe/Canteen,1,0,,190665,0,,51.15765500000000,81014/0000/3/001,326,foodandsafety@crawley.gov.uk,Crawley,http://www.crawley.gov.uk,-0.15108200000000,RH6 0NZ,2014-05-09,fhrs_5_en-GB,5,,FHRS,5
223735,12 - 13 Queens Square Northgate Crawley West Sussex,,,,Starbucks,Restaurant/Cafe/Canteen,1,0,,692317,0,,51.11576600000000,14/00074/COMM,326,foodandsafety@crawley.gov.uk,Crawley,http://www.crawley.gov.uk,-0.18728900000000,RH10 1DY,2014-12-04,fhrs_5_en-GB,5,,FHRS,0
223736,Unit U7 North Terminal Airside Departures Road Gatwick,,,,Starbucks,Restaurant/Cafe/Canteen,1,0,,190324,0,,51.15600000000000,81018/0200/3/005,326,foodandsafety@crawley.gov.uk,Crawley,http://www.crawley.gov.uk,-0.16306100000000,RH6 0NP,2014-11-12,fhrs_5_en-GB,5,,FHRS,5
223737,Cineworld Unit 1 Crawley Leisure Park London Road Crawley West Sussex,,,,Starbucks at Cineworld,Restaurant/Cafe/Canteen,1,0,,509934,0,,51.12024500000000,13/00017/COMM,326,foodandsafety@crawley.gov.uk,Crawley,http://www.crawley.gov.uk,-0.18965700000000,RH10 8LR,2013-02-11,fhrs_5_en-GB,5,,FHRS,5
223738,Maidenbower Park Pavilion Maidenbower Drive Maidenbower Crawley West Sussex,,,,Stepney's,Restaurant/Cafe/Canteen,1,5,,190247,0,,51.10740000000000,11/00192/COMM,326,foodandsafety@crawley.gov.uk,Crawley,http://www.crawley.gov.uk,-0.14811700000000,RH10 7HG,2014-02-04,fhrs_5_en-GB,5,,FHRS,0
223739,36 The Boulevard Northgate Crawley West Sussex,,,,Subway,Restaurant/Cafe/Canteen,1,0,,190381,0,,51.11616900000000,06505/0036/0/000,326,foodandsafety@crawley.gov.uk,Crawley,http://www.crawley.gov.uk,-0.18720100000000,RH10 1XP,2012-12-04,fhrs_5_en-GB,5,,FHRS,5
223740,53 - 55 Gatwick Road Industrial Estate Crawley West Sussex,,,,Subway,Restaurant/Cafe/Canteen,1,0,,190634,0,,51.13763100000000,06/00002/COMM,326,foodandsafety@crawley.gov.uk,Crawley,http://www.crawley.gov.uk,-0.16559100000000,RH10 9RD,2013-12-06,fhrs_5_en-GB,5,,FHRS,5
223741,95 High Street Northgate Crawley West Sussex,,,,Subway,Restaurant/Cafe/Canteen,1,10,,190518,5,,51.11588400000000,02260/0095/0/000,326,foodandsafety@crawley.gov.uk,Crawley,http://www.crawley.gov.uk,-0.18967000000000,RH10 1BA,2014-07-07,fhrs_4_en-GB,4,,FHRS,5
223742,Cafe Adj To Unit 4 Crawley Leisure Park London Road West Green Crawley West Sussex,,,,Subway,Restaurant/Cafe/Canteen,1,0,,190704,0,,51.12024500000000,10/00122/COMM,326,foodandsafety@crawley.gov.uk,Crawley,http://www.crawley.gov.uk,-0.18965700000000,RH10 8LR,2014-02-10,fhrs_5_en-GB,5,,FHRS,0
223743,Food Court Kiosk 4 County Mall Station Way Northgate Crawley West Sussex,,,,Subway,Restaurant/Cafe/Canteen,1,0,,190574,0,,,07/00071/COMM,326,foodandsafety@crawley.gov.uk,Crawley,http://www.crawley.gov.uk,,,2012-12-11,fhrs_5_en-GB,5,,FHRS,5
223744,55 High Street Northgate Crawley West Sussex,,,,Sultan,Takeaway/sandwich shop,7844,10,,230418,10,,51.11442400000000,02260/0055/0/000,326,foodandsafety@crawley.gov.uk,Crawley,http://www.crawley.gov.uk,-0.19009900000000,RH10 1BQ,2013-06-06,fhrs_3_en-GB,3,,FHRS,10
223745,Gales Place Three Bridges Crawley West Sussex,,,,Sunrise Cafe,Restaurant/Cafe/Canteen,1,10,,491799,5,,51.11814800000000,12/00040/COMM,326,foodandsafety@crawley.gov.uk,Crawley,http://www.crawley.gov.uk,-0.17163500000000,RH10 1QG,2014-11-20,fhrs_2_en-GB,2,,FHRS,15
223746,Langley Green Hospital Martyrs Avenue Langley Green Crawley West Sussex,,,,Sussex Oakleaf Cafe,Restaurant/Cafe/Canteen,1,5,,190195,5,,51.13156400000000,11/00222/COMM,326,foodandsafety@crawley.gov.uk,Crawley,http://www.crawley.gov.uk,-0.18885700000000,RH11 7EJ,2013-08-02,fhrs_5_en-GB,5,,FHRS,5
223747,2 - 4 High Street West Green Crawley West Sussex,,,,Taj Mahal Indian Restaurant,Restaurant/Cafe/Canteen,1,5,,190742,5,,51.11281800000000,02260/0002/2/000,326,foodandsafety@crawley.gov.uk,Crawley,http://www.crawley.gov.uk,-0.19089000000000,RH10 1BJ,2014-05-08,fhrs_5_en-GB,5,,FHRS,5
223748,12 Haslett Avenue West Northgate Crawley West Sussex,,,,Taj The Grocer,Retailers - other,4613,20,,190254,15,,51.11424700000000,02099/0012/0/000,326,foodandsafety@crawley.gov.uk,Crawley,http://www.crawley.gov.uk,-0.18790500000000,RH10 1HS,2014-06-26,fhrs_1_en-GB,1,,FHRS,15
223749,7 High Street Northgate Crawley West Sussex,,,,Taormina,Restaurant/Cafe/Canteen,1,10,,190154,10,,51.11312500000000,09/00005/COMM,326,foodandsafety@crawley.gov.uk,Crawley,http://www.crawley.gov.uk,-0.19036400000000,RH10 1BH,2013-07-23,fhrs_3_en-GB,3,,FHRS,10
223750,Peterhouse Parade Pound Hill Crawley West Sussex,,,,Tavern On The Green,Other catering premises,7841,5,,190630,5,,51.12735300000000,03537/7001/2/000,326,foodandsafety@crawley.gov.uk,Crawley,http://www.crawley.gov.uk,-0.15533700000000,RH10 3BA,2013-05-08,fhrs_5_en-GB,5,,FHRS,5
223751,Broadfield Stadium Winfield Way Winfield Way Broadfield Crawley West Sussex,,,,Tea Bars @ Crawley Town Football Club,Restaurant/Cafe/Canteen,1,10,,190382,5,,51.09957800000000,06583/7092/2/002,326,foodandsafety@crawley.gov.uk,Crawley,http://www.crawley.gov.uk,-0.19540600000000,RH11 9RX,2013-10-16,fhrs_4_en-GB,4,,FHRS,5
223752,Canada House Gatwick Road Crawley West Sussex,,,,Teamsport Indoor Karting,Restaurant/Cafe/Canteen,1,5,,190311,5,,,01833/7037/2/000,326,foodandsafety@crawley.gov.uk,Crawley,http://www.crawley.gov.uk,,,2014-03-26,fhrs_4_en-GB,4,,FHRS,10
223753,Unit B Stockwell Works Stephenson Way Three Bridges Crawley West Sussex,,,,Temple - The Siva Trust,Restaurant/Cafe/Canteen,1,10,,681254,10,,51.11440600000000,14/00061/COMM,326,foodandsafety@crawley.gov.uk,Crawley,http://www.crawley.gov.uk,-0.16469600000000,RH10 1TN,2014-07-10,fhrs_3_en-GB,3,,FHRS,10
223754,1 - 2 Dobbins Place Ifield Crawley West Sussex,,,,Tesco Express,Retailers - supermarkets/hypermarkets,7840,0,,712463,0,,51.11162900000000,01326/7004/2/000,326,foodandsafety@crawley.gov.uk,Crawley,http://www.crawley.gov.uk,-0.23011000000000,RH11 0SZ,2014-10-29,fhrs_5_en-GB,5,,FHRS,5
223755,5 Peterhouse Parade Pound Hill Crawley West Sussex,,,,Tesco Express,Retailers - supermarkets/hypermarkets,7840,0,,190162,0,,51.12735300000000,01381/0086/0/000,326,foodandsafety@crawley.gov.uk,Crawley,http://www.crawley.gov.uk,-0.15533700000000,RH10 3BA,2014-12-04,fhrs_5_en-GB,5,,FHRS,5
223756,81 Tomlin Court Commonwealth Drive Three Bridges Crawley West Sussex,,,,Tesco Express,Retailers - supermarkets/hypermarkets,7840,5,,190123,0,,51.11403900000000,11/00211/COMM,326,foodandsafety@crawley.gov.uk,Crawley,http://www.crawley.gov.uk,-0.17571200000000,RH10 1AH,2012-01-23,fhrs_5_en-GB,5,,FHRS,0
223757,84 - 86 Downland Drive Southgate Crawley West Sussex,,,,Tesco Express,Retailers - supermarkets/hypermarkets,7840,5,,190190,0,,51.10507600000000,04/00028/COMM,326,foodandsafety@crawley.gov.uk,Crawley,http://www.crawley.gov.uk,-0.19854900000000,RH11 8SW,2013-08-20,fhrs_4_en-GB,4,,FHRS,10
223758,Astral Towers Betts Way Langley Green Crawley West Sussex,,,,Tesco Express,Retailers - supermarkets/hypermarkets,7840,5,,434336,10,,51.11530400000000,12/00079/COMM,326,foodandsafety@crawley.gov.uk,Crawley,http://www.crawley.gov.uk,-0.12905500000000,RH10 9XA,2012-08-09,fhrs_4_en-GB,4,,FHRS,0
223759,Bycroft Way Three Bridges Crawley West Sussex,,,,Tesco Super Store Retail,Retailers - supermarkets/hypermarkets,7840,5,,190126,0,,51.12367500000000,02162/7005/2/000,326,foodandsafety@crawley.gov.uk,Crawley,http://www.crawley.gov.uk,-0.16337100000000,RH10 1GY,2015-01-22,fhrs_5_en-GB,5,,FHRS,5
223760,1 Hydehurst Lane Northgate Crawley West Sussex,,,,Tesco.com,Retailers - supermarkets/hypermarkets,7840,0,,517093,0,,,12/00107/COMM,326,foodandsafety@crawley.gov.uk,Crawley,http://www.crawley.gov.uk,,RH10 9AS,2013-03-06,fhrs_5_en-GB,5,,FHRS,0
223761,1 Hydehurst Lane Northgate Crawley West Sussex,,,,Tesco.Com (Staff Restaurant),Restaurant/Cafe/Canteen,1,5,,494126,5,,,12/00103/COMM,326,foodandsafety@crawley.gov.uk,Crawley,http://www.crawley.gov.uk,,RH10 9AS,2014-07-17,fhrs_5_en-GB,5,,FHRS,5
223762,Unit 6 Crawley Leisure Park London Road West Green Crawley West Sussex,,,,TGI Friday's,Restaurant/Cafe/Canteen,1,5,,190691,5,,51.12024500000000,01166/0006/0/000,326,foodandsafety@crawley.gov.uk,Crawley,http://www.crawley.gov.uk,-0.18965700000000,RH10 8LR,2015-02-06,fhrs_5_en-GB,5,,FHRS,5
223763,Ewhurst Road West Green Crawley West Sussex,,,,The Apple Tree,Restaurant/Cafe/Canteen,1,,,190640,,,51.11863300000000,04790/7005/2/000,326,foodandsafety@crawley.gov.uk,Crawley,http://www.crawley.gov.uk,-0.19939300000000,RH11 7HD,,fhrs_awaitinginspection_en-GB,AwaitingInspection,,FHRS,
223764,,,,,The Applewood Bakery,Other catering premises,7841,5,,718785,0,,,14/00101/COMM,326,foodandsafety@crawley.gov.uk,Crawley,http://www.crawley.gov.uk,,,2014-11-27,fhrs_5_en-GB,5,,FHRS,0
223765,JD Wetherspoon Level 3 The Village London Road Langley Green Crawley West Sussex,,,,The Beehive,Restaurant/Cafe/Canteen,1,0,,190258,0,,51.15600000000000,11/00162/COMM,326,foodandsafety@crawley.gov.uk,Crawley,http://www.crawley.gov.uk,-0.16306100000000,RH6 0NN,2013-10-23,fhrs_5_en-GB,5,,FHRS,0
223766,Varian Medical Systems Gatwick Road Crawley West Sussex,,,,The Bistro,Restaurant/Cafe/Canteen,1,0,,415890,0,,51.12710500000000,12/00033/COMM,326,foodandsafety@crawley.gov.uk,Crawley,http://www.crawley.gov.uk,-0.17102400000000,RH10 9RG,2014-06-03,fhrs_5_en-GB,5,,FHRS,5
223767,Barnfield Road Northgate Crawley West Sussex,,,,The Black Dog,Other catering premises,7841,10,,190132,10,,51.12083700000000,06189/7001/2/000,326,foodandsafety@crawley.gov.uk,Crawley,http://www.crawley.gov.uk,-0.18201700000000,RH10 8DS,2014-12-02,fhrs_3_en-GB,3,,FHRS,10
223768,Station Newsagents Haslett Avenue East Three Bridges Crawley West Sussex,,,,The Bookstall,Retailers - other,4613,10,,190606,5,,51.11813500000000,02099/7011/2/000,326,foodandsafety@crawley.gov.uk,Crawley,http://www.crawley.gov.uk,-0.16164800000000,RH10 1LY,2013-11-11,fhrs_2_en-GB,2,,FHRS,15
223769,Salterns Road Maidenbower Crawley West Sussex,,,,The Brook School,School/college/university,7845,0,,631650,0,,51.10361600000000,06/00037/COMM,326,foodandsafety@crawley.gov.uk,Crawley,http://www.crawley.gov.uk,-0.15509600000000,RH10 7JE,2014-02-04,fhrs_5_en-GB,5,,FHRS,5
223770,Furnace Parade Furnace Green Crawley West Sussex,,,,The Charcoal Burner,Other catering premises,7841,10,,190555,15,,51.10687800000000,01771/7001/2/000,326,foodandsafety@crawley.gov.uk,Crawley,http://www.crawley.gov.uk,-0.16866600000000,RH10 6NY,2014-01-14,fhrs_2_en-GB,2,,FHRS,5
223771,West Green Drive West Green Crawley West Sussex,,,,The Charis Centre,Other catering premises,7841,10,,623118,10,,51.11791300000000,13/00061/COMM,326,foodandsafety@crawley.gov.uk,Crawley,http://www.crawley.gov.uk,-0.19762100000000,RH11 7EL,2013-12-16,fhrs_3_en-GB,3,,FHRS,5
223772,Charlwood Gate Charlwood Road Crawley West Sussex,,,,The Childrens House,Hospitals/Childcare/Caring Premises,5,0,,190313,0,,51.15579100000000,05657/7001/2/000,326,foodandsafety@crawley.gov.uk,Crawley,http://www.crawley.gov.uk,-0.21227600000000,RH6 0BJ,2013-10-22,fhrs_5_en-GB,5,,FHRS,5
223773,1 - 2 Tilgate Parade Tilgate Crawley West Sussex,,,,The Co-operative Food,Retailers - supermarkets/hypermarkets,7840,5,,190636,10,,51.10228000000000,04505/0002/0/000,326,foodandsafety@crawley.gov.uk,Crawley,http://www.crawley.gov.uk,-0.18057400000000,RH10 5EQ,2013-10-07,fhrs_3_en-GB,3,,FHRS,10
223774,17 - 19 Langley Parade Langley Green Crawley West Sussex,,,,The Co-operative Food,Retailers - supermarkets/hypermarkets,7840,5,,190421,5,,51.12851100000000,02678/7007/2/000,326,foodandsafety@crawley.gov.uk,Crawley,http://www.crawley.gov.uk,-0.19848000000000,RH11 7RS,2012-11-21,fhrs_4_en-GB,4,,FHRS,10
223775,192 Ifield Drive Ifield Crawley West Sussex,,,,The Co-operative Food,Retailers - supermarkets/hypermarkets,7840,5,,710256,5,,51.12220000000000,02420/0192/0/000,326,foodandsafety@crawley.gov.uk,Crawley,http://www.crawley.gov.uk,-0.21325900000000,RH11 0DQ,2014-10-27,fhrs_5_en-GB,5,,FHRS,5
223776,2 - 6 Dorsten Square Bewbush Crawley West Sussex,,,,The Co-operative Food,Retailers - supermarkets/hypermarkets,7840,5,,190285,5,,51.10379100000000,07212/7002/2/000,326,foodandsafety@crawley.gov.uk,Crawley,http://www.crawley.gov.uk,-0.22211000000000,RH11 8XW,2014-09-11,fhrs_4_en-GB,4,,FHRS,10
223777,8 Maidenbower Square Maidenbower Crawley West Sussex,,,,The Co-operative Food,Retailers - supermarkets/hypermarkets,7840,5,,190772,5,,51.10736400000000,02910/0008/0/000,326,foodandsafety@crawley.gov.uk,Crawley,http://www.crawley.gov.uk,-0.15320400000000,RH10 7QH,2014-09-12,fhrs_5_en-GB,5,,FHRS,5
223778,8 Pound Hill Parade Pound Hill Crawley West Sussex,,,,The Co-operative Food,Retailers - supermarkets/hypermarkets,7840,5,,190225,5,,51.11787100000000,03605/0008/0/000,326,foodandsafety@crawley.gov.uk,Crawley,http://www.crawley.gov.uk,-0.15397100000000,RH10 7EA,2013-09-04,fhrs_4_en-GB,4,,FHRS,10
223779,Balcombe Road Pound Hill Crawley West Sussex,,,,The Co-operative Food,Retailers - supermarkets/hypermarkets,7840,5,,197927,5,,51.11593700000000,06146/7033/2/000,326,foodandsafety@crawley.gov.uk,Crawley,http://www.crawley.gov.uk,-0.14714700000000,RH10 7RU,2014-07-02,fhrs_4_en-GB,4,,FHRS,10
223780,Forest Gate 1 Tilgate Forest Business Centre Brighton Road Tilgate Crawley West Sussex,,,,The Deli CafÃ© - Compass at KPMG,Restaurant/Cafe/Canteen,1,0,,190498,0,,51.09392000000000,06582/7003/2/001,326,foodandsafety@crawley.gov.uk,Crawley,http://www.crawley.gov.uk,-0.19411200000000,RH11 9PT,2013-02-05,fhrs_5_en-GB,5,,FHRS,0
223781,Southgate Pavilion Club Southgate Avenue Southgate Crawley West Sussex,,,,The Emerald Club,Pub/bar/nightclub,7843,10,,190773,5,,51.11017700000000,04191/7001/2/000,326,foodandsafety@crawley.gov.uk,Crawley,http://www.crawley.gov.uk,-0.18067800000000,RH10 6HG,2013-06-06,fhrs_3_en-GB,3,,FHRS,10
223782,Charlwood Park Farmhouse Charlwood Road Langley Green Crawley West Sussex,,,,The Farmhouse - Cranbrook Nursery,Hospitals/Childcare/Caring Premises,5,5,,190505,0,,51.15579100000000,05603/7003/2/000,326,foodandsafety@crawley.gov.uk,Crawley,http://www.crawley.gov.uk,-0.21227600000000,RH6 0BJ,2013-12-10,fhrs_5_en-GB,5,,FHRS,5
223783,South Terminal Departure Lounge Gatwick Airport Crawley West Sussex,,,,The Flying Horse,Other catering premises,7841,5,,190165,5,,51.15600000000000,08/00122/COMM,326,foodandsafety@crawley.gov.uk,Crawley,http://www.crawley.gov.uk,-0.16306100000000,RH6 0NN,2014-07-22,fhrs_4_en-GB,4,,FHRS,10
223784,Larkins Road Gatwick Crawley West Sussex,,,,The Flying Pan,Restaurant/Cafe/Canteen,1,10,,190743,10,,,83007/0003/2/000,326,foodandsafety@crawley.gov.uk,Crawley,http://www.crawley.gov.uk,,,2013-12-04,fhrs_3_en-GB,3,,FHRS,10
223785,Snack Van James Watt Way Northgate Crawley West Sussex,,,,The Full Monty,Mobile caterer,7846,0,,190671,0,,51.14121700000000,02471/0001/C/000,326,foodandsafety@crawley.gov.uk,Crawley,http://www.crawley.gov.uk,-0.16788900000000,,2015-01-21,fhrs_5_en-GB,5,,FHRS,5
223786,Ifield Green Ifield Crawley West Sussex,,,,The Gables Nursing Home,Other catering premises,7841,0,,190550,10,,51.13134700000000,02428/7038/2/000,326,foodandsafety@crawley.gov.uk,Crawley,http://www.crawley.gov.uk,-0.21277700000000,RH11 0NU,2012-11-21,fhrs_4_en-GB,4,,FHRS,10
223787,Goffs Park Social Club Old Horsham Road Southgate Crawley West Sussex,,,,The Girls Kitchen And Catering,Restaurant/Cafe/Canteen,1,0,,669163,0,,51.10975900000000,14/00051/COMM,326,foodandsafety@crawley.gov.uk,Crawley,http://www.crawley.gov.uk,-0.20246700000000,RH11 8PE,2014-07-02,fhrs_5_en-GB,5,,FHRS,0
223788,5 Pound Hill Parade Pound Hill Crawley West Sussex,,,,The Granary,Restaurant/Cafe/Canteen,1,10,,190631,5,,51.11787100000000,03605/0005/0/000,326,foodandsafety@crawley.gov.uk,Crawley,http://www.crawley.gov.uk,-0.15397100000000,RH10 7EA,2014-03-20,fhrs_4_en-GB,4,,FHRS,5
223789,15 Brighton Road Southgate Crawley West Sussex,,,,The Grange Hotel,Restaurant/Cafe/Canteen,1,10,,190310,5,,51.11139100000000,06583/0015/0/000,326,foodandsafety@crawley.gov.uk,Crawley,http://www.crawley.gov.uk,-0.19106000000000,RH10 6AE,2014-10-01,fhrs_4_en-GB,4,,FHRS,5
223790,Ashdown Drive Tilgate Crawley West Sussex,,,,The Grasshopper,Other catering premises,7841,10,,190672,5,,51.10232500000000,04/00011/COMM,326,foodandsafety@crawley.gov.uk,Crawley,http://www.crawley.gov.uk,-0.17940100000000,RH10 5EJ,2014-06-25,fhrs_4_en-GB,4,,FHRS,5
223791,South Terminal  Gatwick West Sussex,,,,The Great Place To Be,Restaurant/Cafe/Canteen,1,5,,190159,5,,,81015/0100/3/001,326,foodandsafety@crawley.gov.uk,Crawley,http://www.crawley.gov.uk,,,2014-11-24,fhrs_5_en-GB,5,,FHRS,5
223792,Jubilee House Furlong Way Gatwick West Sussex,,,,The Green Room,Restaurant/Cafe/Canteen,1,0,,521840,0,,,13/00003/COMM,326,foodandsafety@crawley.gov.uk,Crawley,http://www.crawley.gov.uk,,RH6 0JN,2013-03-13,fhrs_5_en-GB,5,,FHRS,0
223793,Radford Road Pound Hill Crawley West Sussex,,,,The Greyhound,Restaurant/Cafe/Canteen,1,10,,190174,5,,51.14039200000000,05673/7002/2/000,326,foodandsafety@crawley.gov.uk,Crawley,http://www.crawley.gov.uk,-0.15984900000000,RH10 3NS,2014-11-13,fhrs_4_en-GB,4,,FHRS,5
223794,Hawth Avenue Furnace Green Crawley West Sussex,,,,The Hawth,Restaurant/Cafe/Canteen,1,0,,190668,0,,51.11155600000000,02127/7001/2/000,326,foodandsafety@crawley.gov.uk,Crawley,http://www.crawley.gov.uk,-0.17451000000000,RH10 6YZ,2014-11-06,fhrs_5_en-GB,5,,FHRS,5
223795,53 High Street Northgate Crawley West Sussex,,,,The Hive,Other catering premises,7841,10,,710498,5,,51.11442400000000,02260/0053/0/000,326,foodandsafety@crawley.gov.uk,Crawley,http://www.crawley.gov.uk,-0.19009900000000,RH10 1BQ,2014-09-23,fhrs_3_en-GB,3,,FHRS,10
223796,Broadfield Barton Broadfield Crawley West Sussex,,,,The Imperial,Other catering premises,7841,5,,190298,5,,51.09705500000000,06593/7025/2/000,326,foodandsafety@crawley.gov.uk,Crawley,http://www.crawley.gov.uk,-0.20558700000000,RH11 9BA,2013-07-03,fhrs_2_en-GB,2,,FHRS,15
223797,,,,,The Little Chippy,Mobile caterer,7846,5,,718584,5,,,14/00102/COMM,326,foodandsafety@crawley.gov.uk,Crawley,http://www.crawley.gov.uk,,,2014-11-26,fhrs_5_en-GB,5,,FHRS,0
223798,South Terminal Airside Gatwick Airport,,,,The London Bar,Pub/bar/nightclub,7843,0,,712465,0,,,14/00103/COMM,326,foodandsafety@crawley.gov.uk,Crawley,http://www.crawley.gov.uk,,,2014-12-04,fhrs_5_en-GB,5,,FHRS,0
223799,1 Pound Hill Parade Pound Hill Crawley West Sussex,,,,The Master Fryer,Takeaway/sandwich shop,7844,0,,190389,0,,51.11530400000000,03605/0001/0/000,326,foodandsafety@crawley.gov.uk,Crawley,http://www.crawley.gov.uk,-0.12905500000000,RH10 4EA,2013-01-14,fhrs_5_en-GB,5,,FHRS,5
223800,Ifield Drive Ifield Crawley West Sussex,,,,The Mill Primary School,School/college/university,7845,0,,638766,0,,,02420/8001/2/000,326,foodandsafety@crawley.gov.uk,Crawley,http://www.crawley.gov.uk,,RH11 4EL,2014-02-12,fhrs_4_en-GB,4,,FHRS,10
223801,199 Three Bridges Road Three Bridges Crawley West Sussex,,,,The Moonraker,Restaurant/Cafe/Canteen,1,10,,190330,5,,51.11744100000000,04491/7015/2/000,326,foodandsafety@crawley.gov.uk,Crawley,http://www.crawley.gov.uk,-0.16556200000000,RH10 1LG,2014-03-26,fhrs_3_en-GB,3,,FHRS,10
223802,Loppets Road Tilgate Crawley West Sussex,,,,The Oaks Primary School,School/college/university,7845,0,,190198,0,,51.10307100000000,02853/7001/2/000,326,foodandsafety@crawley.gov.uk,Crawley,http://www.crawley.gov.uk,-0.17648700000000,RH10 5DP,2014-02-06,fhrs_5_en-GB,5,,FHRS,0
223803,101 High Street Northgate Crawley West Sussex,,,,The Old Punch Bowl,Other catering premises,7841,5,,190576,5,,51.11750300000000,02260/0101/0/000,326,foodandsafety@crawley.gov.uk,Crawley,http://www.crawley.gov.uk,-0.18915000000000,RH10 1DD,2014-07-30,fhrs_4_en-GB,4,,FHRS,10
223804,3 Pound Hill Parade Pound Hill Crawley West Sussex,,,,The Oriental Take Away,Takeaway/sandwich shop,7844,5,,190458,5,,51.11787100000000,03605/0003/0/000,326,foodandsafety@crawley.gov.uk,Crawley,http://www.crawley.gov.uk,-0.15397100000000,RH10 7EA,2013-03-27,fhrs_5_en-GB,5,,FHRS,5
223805,St Barnabas Pastoral Centre Worth Road Pound Hill Crawley West Sussex,,,,The Pastoral Centre,Restaurant/Cafe/Canteen,1,10,,190428,10,,50.91162872314453,01158/7014/2/000,326,foodandsafety@crawley.gov.uk,Crawley,http://www.crawley.gov.uk,-0.45754450559616,RH10 7DW,2013-01-15,fhrs_4_en-GB,4,,FHRS,0
223806,181 Three Bridges Road Three Bridges Crawley West Sussex,,,,The Plough Inn,Other catering premises,7841,0,,190473,0,,51.11748600000000,04491/7011/2/000,326,foodandsafety@crawley.gov.uk,Crawley,http://www.crawley.gov.uk,-0.16553200000000,RH10 1LG,2013-01-14,fhrs_5_en-GB,5,,FHRS,0
223807,Ifield Street Ifield Crawley West Sussex,,,,The Plough Inn,Other catering premises,7841,0,,190510,0,,51.12416500000000,02442/7003/2/000,326,foodandsafety@crawley.gov.uk,Crawley,http://www.crawley.gov.uk,-0.21884200000000,RH11 0NN,2014-03-26,fhrs_5_en-GB,5,,FHRS,0
223808,St Marys Church Of England Church And Hall Wakehurst Drive Southgate Crawley West Sussex,,,,The Posh Club,Restaurant/Cafe/Canteen,1,0,,712464,0,,,14/00076/COMM,326,foodandsafety@crawley.gov.uk,Crawley,http://www.crawley.gov.uk,,,2014-11-03,fhrs_5_en-GB,5,,FHRS,0
223809,Crabtree Road West Green Crawley West Sussex,,,,The Rainbow Lounge - Crawley Baptist Church,Other catering premises,7841,5,,190649,0,,51.12003500000000,01130/7001/2/000,326,foodandsafety@crawley.gov.uk,Crawley,http://www.crawley.gov.uk,-0.19645200000000,RH11 7HJ,2014-11-12,fhrs_5_en-GB,5,,FHRS,0
223810,Units 17-20 The Imperial Centre Rutherford Way Northgate Crawley West Sussex,,,,The Real Pie Company,Manufacturers/packers,7839,5,,190568,0,,51.11530400000000,01833/7015/2/000,326,foodandsafety@crawley.gov.uk,Crawley,http://www.crawley.gov.uk,-0.12905500000000,RH10 2SD,2013-08-01,fhrs_5_en-GB,5,,FHRS,5
223811,North Terminal DepartureLounge Gatwick Airport Crawley West Sussex,,,,The Red Lion,Restaurant/Cafe/Canteen,1,0,,190160,0,,51.15778100000000,81018/0200/3/020,326,foodandsafety@crawley.gov.uk,Crawley,http://www.crawley.gov.uk,-0.19253500000000,RH6 0NP,2014-04-24,fhrs_5_en-GB,5,,FHRS,0
223812,Ifield Green Ifield Crawley West Sussex,,,,The Royal Oak,Other catering premises,7841,5,,190208,10,,51.12732500000000,02428/7009/2/000,326,foodandsafety@crawley.gov.uk,Crawley,http://www.crawley.gov.uk,-0.21323200000000,RH11 0ND,2013-07-12,fhrs_4_en-GB,4,,FHRS,5
223813,Tilgate Park Tilgate Drive Tilgate Crawley West Sussex,,,,The Walled Garden Community Cafe,Restaurant/Cafe/Canteen,1,10,,190628,5,,,04500/0002/0/000,326,foodandsafety@crawley.gov.uk,Crawley,http://www.crawley.gov.uk,,,2014-06-11,fhrs_4_en-GB,4,,FHRS,5
223814,65 High Street Northgate Crawley West Sussex,,,,The White Hart,Other catering premises,7841,5,,190404,0,,51.11442400000000,02260/7046/2/000,326,foodandsafety@crawley.gov.uk,Crawley,http://www.crawley.gov.uk,-0.19009900000000,RH10 1BQ,2014-07-29,fhrs_5_en-GB,5,,FHRS,5
223815,Gossops Parade Gossops Green Crawley West Sussex,,,,The Windmill,Other catering premises,7841,5,,190295,5,,51.11096800000000,01925/7012/2/000,326,foodandsafety@crawley.gov.uk,Crawley,http://www.crawley.gov.uk,-0.21622000000000,RH11 8HH,2014-07-03,fhrs_4_en-GB,4,,FHRS,10
223816,Central Sussex College College Road Three Bridges Crawley West Sussex,,,,The Zone,Restaurant/Cafe/Canteen,1,10,,190685,5,,51.11621600000000,01011/7001/2/000,326,foodandsafety@crawley.gov.uk,Crawley,http://www.crawley.gov.uk,-0.18152700000000,RH10 1NR,2014-10-01,fhrs_4_en-GB,4,,FHRS,5
223817,Three Bridges Station Haslett Avenue East Three Bridges Crawley West Sussex,,,,Thirstop,Retailers - other,4613,10,,582377,5,,51.11813500000000,13/00080/COMM,326,foodandsafety@crawley.gov.uk,Crawley,http://www.crawley.gov.uk,-0.16164800000000,RH10 1LY,2013-07-25,fhrs_4_en-GB,4,,FHRS,0
223818,Ashdown Drive Tilgate Crawley West Sussex,,,,Thomas Bennett Community College,School/college/university,7845,5,,190413,0,,51.09917200000000,06112/7001/2/000,326,foodandsafety@crawley.gov.uk,Crawley,http://www.crawley.gov.uk,-0.19068000000000,RH10 5AD,2014-11-25,fhrs_5_en-GB,5,,FHRS,0
223819,227 - 229 Three Bridges Road Three Bridges Crawley West Sussex,,,,Three Bridges Convenience Stores,Retailers - supermarkets/hypermarkets,7840,20,,190696,5,,51.11744100000000,04491/7019/2/000,326,foodandsafety@crawley.gov.uk,Crawley,http://www.crawley.gov.uk,-0.16556200000000,RH10 1LG,2013-02-28,fhrs_1_en-GB,1,,FHRS,0
223820,Three Bridges Road Three Bridges Crawley West Sussex,,,,Three Bridges Cricket Club,Pub/bar/nightclub,7843,0,,190275,0,,51.11744100000000,04491/7027/2/000,326,foodandsafety@crawley.gov.uk,Crawley,http://www.crawley.gov.uk,-0.16556200000000,RH10 1LG,2013-10-29,fhrs_5_en-GB,5,,FHRS,5
223821,Gales Place Three Bridges Crawley West Sussex,,,,Three Bridges Primary School - Lower,School/college/university,7845,5,,650348,0,,51.11814800000000,01812/7006/2/000,326,foodandsafety@crawley.gov.uk,Crawley,http://www.crawley.gov.uk,-0.17163500000000,RH10 1QG,2014-04-04,fhrs_5_en-GB,5,,FHRS,5
223822,Gales Drive Three Bridges Crawley West Sussex,,,,Three Bridges Primary School Upper,School/college/university,7845,0,,190434,0,,51.11729700000000,01805/7010/2/000,326,foodandsafety@crawley.gov.uk,Crawley,http://www.crawley.gov.uk,-0.17471200000000,RH10 1PD,2013-03-21,fhrs_5_en-GB,5,,FHRS,0
223823,12 Tilgate Parade Tilgate Crawley West Sussex,,,,Tilgate Bakery,Retailers - other,4613,5,,190601,5,,51.10228000000000,04505/0012/0/000,326,foodandsafety@crawley.gov.uk,Crawley,http://www.crawley.gov.uk,-0.18057400000000,RH10 5EQ,2014-05-20,fhrs_4_en-GB,4,,FHRS,10
223824,Tilgate Drive Tilgate Crawley West Sussex,,,,Tilgate Forest Golf Centre,Restaurant/Cafe/Canteen,1,0,,190386,0,,51.10061500000000,04547/0097/0/000,326,foodandsafety@crawley.gov.uk,Crawley,http://www.crawley.gov.uk,-0.17992600000000,RH10 5EU,2013-11-25,fhrs_5_en-GB,5,,FHRS,0
223825,16 Tilgate Parade Tilgate Crawley West Sussex,,,,Tilgate Spark,Retailers - supermarkets/hypermarkets,7840,5,,190256,0,,51.10228000000000,04505/0016/0/000,326,foodandsafety@crawley.gov.uk,Crawley,http://www.crawley.gov.uk,-0.18057400000000,RH10 5EQ,2014-11-25,fhrs_5_en-GB,5,,FHRS,5
223826,Community Centre Ditchling Hill Southgate Crawley West Sussex,,,,Tiny Treasures,Hospitals/Childcare/Caring Premises,5,5,,190265,5,,51.10528000000000,11/00125/COMM,326,foodandsafety@crawley.gov.uk,Crawley,http://www.crawley.gov.uk,-0.19424100000000,RH11 8QL,2011-10-13,fhrs_5_en-GB,5,,FHRS,5
223827,Vancouver Drive Langley Green Crawley West Sussex,,,,Toby Carvery The Barn,Restaurant/Cafe/Canteen,1,5,,190528,10,,51.12894500000000,02832/0129/2/000,326,foodandsafety@crawley.gov.uk,Crawley,http://www.crawley.gov.uk,-0.18987400000000,RH11 7UR,2013-09-27,fhrs_3_en-GB,3,,FHRS,10
223828,15 Oakwood Court Mann Close Broadfield Crawley West Sussex,,,,Tollgate Express,Retailers - supermarkets/hypermarkets,7840,5,,190213,0,,51.08954300000000,10/00011/COMM,326,foodandsafety@crawley.gov.uk,Crawley,http://www.crawley.gov.uk,-0.20249400000000,RH11 9TT,2015-01-07,fhrs_5_en-GB,5,,FHRS,5
223829,Perimeter Road East Gatwick Crawley West Sussex,,,,Toni's Takeaway,Mobile caterer,7846,5,,190226,5,,,07/00060/COMM,326,foodandsafety@crawley.gov.uk,Crawley,http://www.crawley.gov.uk,,,2013-08-29,fhrs_5_en-GB,5,,FHRS,5
223830,Pegler Way West Green Crawley West Sussex,,,,Travelodge,Hotel/bed & breakfast/guest house,7842,5,,636052,0,,,13/00112/COMM,326,foodandsafety@crawley.gov.uk,Crawley,http://www.crawley.gov.uk,,RH11 7GY,2014-02-21,fhrs_5_en-GB,5,,FHRS,0
223831,Turks Croft Rusper Road Ifield Crawley West Sussex,,,,Tray Bon,Other catering premises,7841,5,,190580,5,,51.11696500000000,03897/7023/2/000,326,foodandsafety@crawley.gov.uk,Crawley,http://www.crawley.gov.uk,-0.21849000000000,RH110HU,2014-07-17,fhrs_5_en-GB,5,,FHRS,5
223832,Unit 1 The Faraday Centre Faraday Road Northgate Crawley West Sussex,,,,Treasure Chest Softplay Centre,Hospitals/Childcare/Caring Premises,5,5,,190171,0,,51.13142200000000,01560/7001/0/000,326,foodandsafety@crawley.gov.uk,Crawley,http://www.crawley.gov.uk,-0.17741400000000,RH10 9PX,2014-07-17,fhrs_5_en-GB,5,,FHRS,0
223833,Community Centre Broadfield Barton Broadfield Crawley West Sussex,,,,Triangle Coffee Shop,Restaurant/Cafe/Canteen,1,5,,190422,5,,51.10022700000000,08/00109/COMM,326,foodandsafety@crawley.gov.uk,Crawley,http://www.crawley.gov.uk,-0.20102300000000,,2013-10-23,fhrs_4_en-GB,4,,FHRS,10
223834,10 Broadfield Barton Broadfield Crawley West Sussex,,,,Troy Fish And Chips,Takeaway/sandwich shop,7844,10,,190443,5,,51.09705500000000,06593/0010/0/000,326,foodandsafety@crawley.gov.uk,Crawley,http://www.crawley.gov.uk,-0.20558700000000,RH11 9BA,2014-02-19,fhrs_3_en-GB,3,,FHRS,10
223835,43 High Street Northgate Crawley West Sussex,,,,Troy Kebab,Takeaway/sandwich shop,7844,5,,190289,0,,51.11442400000000,02260/0043/0/000,326,foodandsafety@crawley.gov.uk,Crawley,http://www.crawley.gov.uk,-0.19009900000000,RH10 1BQ,2013-10-31,fhrs_5_en-GB,5,,FHRS,5
223836,98 High Street West Green Crawley West Sussex,,,,Troys Barbeque,Restaurant/Cafe/Canteen,1,10,,190544,5,,51.11622500000000,02260/0098/0/000,326,foodandsafety@crawley.gov.uk,Crawley,http://www.crawley.gov.uk,-0.19021400000000,RH10 1BZ,2013-08-22,fhrs_4_en-GB,4,,FHRS,0
223837,100 High Street West Green Crawley West Sussex,,,,Turtle Bay,Restaurant/Cafe/Canteen,1,5,,688308,5,,51.11622500000000,14/00066/COMM,326,foodandsafety@crawley.gov.uk,Crawley,http://www.crawley.gov.uk,-0.19021400000000,RH10 1BZ,2015-02-10,fhrs_5_en-GB,5,,FHRS,0
223838,Community Centre Broadfield Barton Broadfield Crawley West Sussex,,,,Tykes,Hospitals/Childcare/Caring Premises,5,5,,190383,0,,51.10022700000000,06593/7026/2/004,326,foodandsafety@crawley.gov.uk,Crawley,http://www.crawley.gov.uk,-0.20102300000000,,2008-11-14,fhrs_4_en-GB,4,,FHRS,10
223839,Gatwick Railway Station  Gatwick Airport,,,,Upper Crust,Takeaway/sandwich shop,7844,10,,197910,5,,51.15993881225586,81015/0025/0/007,326,foodandsafety@crawley.gov.uk,Crawley,http://www.crawley.gov.uk,-0.16415999829769,,2013-09-24,fhrs_3_en-GB,3,,FHRS,10
223840,11 Stephenson Way Three Bridges Crawley West Sussex,,,,Urban Tadka,Takeaway/sandwich shop,7844,10,,190547,10,,51.11440600000000,08/00150/COMM,326,foodandsafety@crawley.gov.uk,Crawley,http://www.crawley.gov.uk,-0.16469600000000,RH10 1TN,2014-02-18,fhrs_3_en-GB,3,,FHRS,10
223841,6 Southgate Parade Southgate Crawley West Sussex,,,,Use Your Loaf - Strong Flavours,Other catering premises,7841,5,,190461,0,,51.10582400000000,04205/0006/0/000,326,foodandsafety@crawley.gov.uk,Crawley,http://www.crawley.gov.uk,-0.18757800000000,RH10 6ER,2013-10-31,fhrs_5_en-GB,5,,FHRS,5
223842,Virgin Active Health Club Unit 3 Crawley Leisure Park London Road West Green Crawley West Sussex,,,,Virgin Active CafÃ©,Restaurant/Cafe/Canteen,1,5,,190429,0,,51.11530400000000,01166/0003/0/000,326,foodandsafety@crawley.gov.uk,Crawley,http://www.crawley.gov.uk,-0.12905500000000,RH10 2LR,2014-01-10,fhrs_5_en-GB,5,,FHRS,5
223843,South Terminal Departure Lounge Gatwick Airport Crawley West Sussex,,,,Virgin Atlantic Clubhouse,Restaurant/Cafe/Canteen,1,0,,208847,0,,51.15778100000000,08/00129/COMM,326,foodandsafety@crawley.gov.uk,Crawley,http://www.crawley.gov.uk,-0.19253500000000,RH6 0NP,2013-12-06,fhrs_5_en-GB,5,,FHRS,0
223844,South Terminal Departure Lounge Gatwick Airport Crawley West Sussex,,,,Virgin Holidays V Room,Restaurant/Cafe/Canteen,1,5,,190409,5,,51.15778100000000,08/00124/COMM,326,foodandsafety@crawley.gov.uk,Crawley,http://www.crawley.gov.uk,-0.19253500000000,RH6 0NP,2014-08-07,fhrs_5_en-GB,5,,FHRS,5
223845,Walstead Court Barley Close Southgate Crawley West Sussex,,,,Walstead Court Restaurant,Restaurant/Cafe/Canteen,1,10,,190392,15,,,07/00029/COMM,326,foodandsafety@crawley.gov.uk,Crawley,http://www.crawley.gov.uk,,,2014-11-18,fhrs_2_en-GB,2,,FHRS,0
223846,Waterfield Gardens Bewbush Crawley West Sussex,,,,Waterfield Primary School,School/college/university,7845,0,,190722,0,,51.10807400000000,04725/7002/2/000,326,foodandsafety@crawley.gov.uk,Crawley,http://www.crawley.gov.uk,-0.22518900000000,RH11 8RA,2013-11-14,fhrs_4_en-GB,4,,FHRS,10
223847,Waterlea Furnace Green Crawley West Sussex,,,,Waterlea Adventure Playground,Restaurant/Cafe/Canteen,1,5,,190565,5,,51.10984800000000,04727/7001/2/000,326,foodandsafety@crawley.gov.uk,Crawley,http://www.crawley.gov.uk,-0.16533400000000,RH10 6SP,2013-03-11,fhrs_5_en-GB,5,,FHRS,0
223848,Unit 1 Concourse Gatwick Railway South Terminal Landside Gatwick Crawley West Sussex,,,,West Cornwall Pasty Company,Restaurant/Cafe/Canteen,1,5,,190175,0,,,06/00008/COMM,326,foodandsafety@crawley.gov.uk,Crawley,http://www.crawley.gov.uk,,,2014-09-29,fhrs_5_en-GB,5,,FHRS,5
223849,56 Ewhurst Road West Green Crawley West Sussex,,,,West Green Fish Bar,Takeaway/sandwich shop,7844,5,,190403,10,,51.11935200000000,01527/0056/0/000,326,foodandsafety@crawley.gov.uk,Crawley,http://www.crawley.gov.uk,-0.19940800000000,RH11 7HE,2014-08-18,fhrs_4_en-GB,4,,FHRS,5
223850,69 Ifield Road West Green Crawley West Sussex,,,,West Green Food And Wine,Retailers - supermarkets/hypermarkets,7840,10,,190335,10,,51.11533500000000,02435/0069/0/000,326,foodandsafety@crawley.gov.uk,Crawley,http://www.crawley.gov.uk,-0.19549200000000,RH11 7BB,2014-11-10,fhrs_3_en-GB,3,,FHRS,5
223851,64 Ewhurst Road West Green Crawley West Sussex,,,,West Green Newsagents,Retailers - other,4613,10,,190721,5,,51.11935200000000,01527/0064/0/000,326,foodandsafety@crawley.gov.uk,Crawley,http://www.crawley.gov.uk,-0.19940800000000,RH11 7HE,2014-02-07,fhrs_3_en-GB,3,,FHRS,10
223852,West Green Drive West Green Crawley West Sussex,,,,West Green Primary School,School/college/university,7845,0,,569325,0,,51.11791300000000,04790/7001/2/000,326,foodandsafety@crawley.gov.uk,Crawley,http://www.crawley.gov.uk,-0.19762100000000,RH11 7EL,2015-01-22,fhrs_5_en-GB,5,,FHRS,5
223853,Pier 6 North Terminal Gatwick Airport,,,,Wetherspoons Express,Restaurant/Cafe/Canteen,1,0,,211121,0,,,06/00025/COMM,326,foodandsafety@crawley.gov.uk,Crawley,http://www.crawley.gov.uk,,,2013-10-23,fhrs_5_en-GB,5,,FHRS,5
223854,Broadfield Premier 20 - 22 Broadfield Barton Broadfield Crawley,,,,Whippy Ices Ice Cream Van DG07 TOJ,Mobile caterer,7846,5,,190180,5,,51.09705500000000,09/00057/COMM,326,foodandsafety@crawley.gov.uk,Crawley,http://www.crawley.gov.uk,-0.20558700000000,RH11 9BA,2013-07-23,fhrs_5_en-GB,5,,FHRS,5
223855,Broadfield Premier 20 - 22 Broadfield Barton Broadfield Crawley,,,,Whippy Ices Ice Cream Van W111 PYD,Mobile caterer,7846,5,,190168,5,,51.09705500000000,11/00146/COMM,326,foodandsafety@crawley.gov.uk,Crawley,http://www.crawley.gov.uk,-0.20558700000000,RH11 9BA,2013-07-23,fhrs_5_en-GB,5,,FHRS,0
223856,Boeing House Crawley Business Quarter Northgate Crawley West Sussex,,,,Whisk And Spoon @ Boeing UK Training Services,Restaurant/Cafe/Canteen,1,0,,190136,0,,51.13222700000000,11/00030/COMM,326,foodandsafety@crawley.gov.uk,Crawley,http://www.crawley.gov.uk,-0.18234200000000,RH10 9AD,2013-07-30,fhrs_5_en-GB,5,,FHRS,5
223857,Worth Road Pound Hill Crawley West Sussex,,,,White Knight,Other catering premises,7841,10,,190542,10,,51.11729300000000,04951/7001/2/000,326,foodandsafety@crawley.gov.uk,Crawley,http://www.crawley.gov.uk,-0.15386600000000,RH10 7DY,2014-10-10,fhrs_3_en-GB,3,,FHRS,10
223858,20 The Boulevard Northgate Crawley West Sussex,,,,Wimpy,Restaurant/Cafe/Canteen,1,0,,190122,0,,51.11616900000000,06505/0020/0/000,326,foodandsafety@crawley.gov.uk,Crawley,http://www.crawley.gov.uk,-0.18720100000000,RH10 1XP,2013-06-07,fhrs_5_en-GB,5,,FHRS,0
223859,Pelham Place Broadfield Crawley West Sussex,,,,WM Morrisons Service Station,Retailers - supermarkets/hypermarkets,7840,5,,190424,0,,51.09820800000000,03508/7001/2/000,326,foodandsafety@crawley.gov.uk,Crawley,http://www.crawley.gov.uk,-0.20749900000000,RH11 9AZ,2014-11-28,fhrs_5_en-GB,5,,FHRS,0
223860,Community Centre Town Barn Road West Green Crawley West Sussex,,,,WRVS Community Centre/Meals On Wheels,Other catering premises,7841,10,,190648,10,,51.11830500000000,07/00039/COMM,326,foodandsafety@crawley.gov.uk,Crawley,http://www.crawley.gov.uk,-0.19443400000000,RH11 7EB,2014-09-17,fhrs_3_en-GB,3,,FHRS,5
223861,213 Three Bridges Road Three Bridges Crawley West Sussex,,,,Yasmine,Takeaway/sandwich shop,7844,10,,190299,10,,51.11744100000000,04491/0213/0/000,326,foodandsafety@crawley.gov.uk,Crawley,http://www.crawley.gov.uk,-0.16556200000000,RH10 1LG,2014-08-28,fhrs_3_en-GB,3,,FHRS,5
223862,North Terminal Departure Lounge Gatwick Airport Crawley West Sussex,,,,Yo! Sushi,Restaurant/Cafe/Canteen,1,5,,464521,5,,,12/00071/COMM,326,foodandsafety@crawley.gov.uk,Crawley,http://www.crawley.gov.uk,,,2014-05-14,fhrs_5_en-GB,5,,FHRS,5
223863,16 Broadfield Barton Broadfield Crawley West Sussex,,,,Zamzam Butcher And Greengrocers,Retailers - other,4613,10,,190480,15,,51.09705500000000,06593/0016/0/000,326,foodandsafety@crawley.gov.uk,Crawley,http://www.crawley.gov.uk,-0.20558700000000,RH11 9BA,2013-10-23,fhrs_2_en-GB,2,,FHRS,10
223864,214 Ifield Drive Ifield Crawley West Sussex,,,,Zari,Restaurant/Cafe/Canteen,1,5,,190670,0,,51.12220000000000,02420/0214/0/000,326,foodandsafety@crawley.gov.uk,Crawley,http://www.crawley.gov.uk,-0.21325900000000,RH11 0DQ,2014-12-15,fhrs_5_en-GB,5,,FHRS,5
