,addressline1,addressline2,addressline3,addressline4,businessname,businesstype,businesstypeid,confidenceinmanagement,extractdate,fhrsid,hygiene,itemcount,latitude,localauthoritybusinessid,localauthoritycode,localauthorityemailaddress,localauthorityname,localauthoritywebsite,longitude,postcode,ratingdate,ratingkey,ratingvalue,returncode,schemetype,structural
293770,,Higher Town,St. Martin's,Isles of Scilly,Adam's Fish & Chips,Restaurant/Cafe/Canteen,1,5,,586529,0,,49.96095900000000,17,336,technicalservices@scilly.gov.uk,Isles of Scilly,http://www.scilly.gov.uk/,-6.28303400000000,TR250QL,2013-08-09,fhrs_5_en-GB,5,,FHRS,0
293771,Hugh Street,Hugh Town,St Mary's,Isles of Scilly,Atlantic Hotel,Hotel/bed & breakfast/guest house,7842,0,,586524,0,,49.91536500000000,12,336,technicalservices@scilly.gov.uk,Isles of Scilly,http://www.scilly.gov.uk/,-6.31718300000000,TR210PL,2013-07-29,fhrs_5_en-GB,5,,FHRS,0
293772,Hugh Street,Hugh Town,St Mary's,Isles of Scilly,Bishop & Wolf,Pub/bar/nightclub,7843,5,,586527,0,,49.91482500000000,15,336,technicalservices@scilly.gov.uk,Isles of Scilly,http://www.scilly.gov.uk/,-6.31670300000000,TR210LL,2013-07-29,fhrs_5_en-GB,5,,FHRS,0
293773,,Pelistry,St Mary's,Isles of Scilly,Carn Vean Cafe,Restaurant/Cafe/Canteen,1,10,,588986,0,,49.92683800000000,25,336,technicalservices@scilly.gov.uk,Isles of Scilly,http://www.scilly.gov.uk/,-6.28739100000000,TR210NX,2013-08-31,fhrs_4_en-GB,4,,FHRS,0
293774,Porthcressa Beach,Hugh Town,St Mary's,Isles of Scilly,Dibble & Grub,Restaurant/Cafe/Canteen,1,10,,586535,0,,49.91384000000000,9,336,technicalservices@scilly.gov.uk,Isles of Scilly,http://www.scilly.gov.uk/,-6.31246200000000,TR210JQ,2013-07-27,fhrs_4_en-GB,4,,FHRS,10
293775,,,Bryher,Isles of Scilly,Hell Bay Hotel,Hotel/bed & breakfast/guest house,7842,0,,588987,0,,49.95361100000000,26,336,technicalservices@scilly.gov.uk,Isles of Scilly,http://www.scilly.gov.uk/,-6.35265700000000,TR230PR,2013-08-30,fhrs_5_en-GB,5,,FHRS,0
293776,Seaways,Porthlow,St Mary's,Isles of Scilly,Juliet's Garden,Restaurant/Cafe/Canteen,1,20,,586525,5,,49.92309700000000,13,336,technicalservices@scilly.gov.uk,Isles of Scilly,http://www.scilly.gov.uk/,-6.30744900000000,TR210NF,2013-07-28,fhrs_1_en-GB,1,,FHRS,5
293777,,Higher Town,St. Martin's,Isles of Scilly,Little Arthur,Restaurant/Cafe/Canteen,1,10,,586528,5,,49.96095900000000,16,336,technicalservices@scilly.gov.uk,Isles of Scilly,http://www.scilly.gov.uk/,-6.28303400000000,TR250QL,2013-08-09,fhrs_2_en-GB,2,,FHRS,15
293778,,Old Town,St Mary's,Isles of Scilly,Old Town Cafe,Restaurant/Cafe/Canteen,1,0,,588983,0,,49.91214400000000,22,336,technicalservices@scilly.gov.uk,Isles of Scilly,http://www.scilly.gov.uk/,-6.30024300000000,TR210NH,2013-09-01,fhrs_5_en-GB,5,,FHRS,0
293779,,Old Town,St Mary's,Isles of Scilly,Old Town Inn,Pub/bar/nightclub,7843,0,,588985,0,,49.91414900000000,24,336,technicalservices@scilly.gov.uk,Isles of Scilly,http://www.scilly.gov.uk/,-6.29909800000000,TR210NN,2013-09-01,fhrs_5_en-GB,5,,FHRS,0
293780,The Parade,Hugh Town,St Mary's,Isles of Scilly,Park House,Hospitals/Childcare/Caring Premises,5,10,,579437,0,,49.91440000000000,4,336,technicalservices@scilly.gov.uk,Isles of Scilly,http://www.scilly.gov.uk/,-6.31483900000000,TR210LP,2013-04-19,fhrs_4_en-GB,4,,FHRS,5
293781,The Bank,Hugh Town,St Mary's,Isles of Scilly,Pier House,Hotel/bed & breakfast/guest house,7842,10,,579436,0,,49.91564100000000,3,336,technicalservices@scilly.gov.uk,Isles of Scilly,http://www.scilly.gov.uk/,-6.31775100000000,TR210HY,2013-06-17,fhrs_4_en-GB,4,,FHRS,0
293782,Hugh Street,Hugh Town,St Mary's,Isles of Scilly,Pilot's Gig,Restaurant/Cafe/Canteen,1,5,,586532,0,,49.91564100000000,20,336,technicalservices@scilly.gov.uk,Isles of Scilly,http://www.scilly.gov.uk/,-6.31775100000000,TR210HY,2013-08-11,fhrs_4_en-GB,4,,FHRS,10
293783,Garrison Lane,Hugh Town,St Mary's,Isles of Scilly,Plowmans,Retailers - other,4613,5,,595412,0,,49.91461900000000,29,336,technicalservices@scilly.gov.uk,Isles of Scilly,http://www.scilly.gov.uk/,-6.31715800000000,TR210JD,2013-09-20,fhrs_5_en-GB,5,,FHRS,5
293784,,Higher Town,St. Martin's,Isles of Scilly,Polreath,Restaurant/Cafe/Canteen,1,0,,586531,0,,49.96095900000000,19,336,technicalservices@scilly.gov.uk,Isles of Scilly,http://www.scilly.gov.uk/,-6.28303400000000,TR250QL,2013-08-09,fhrs_5_en-GB,5,,FHRS,0
293785,Thoroughfare,Hugh Town,St Mary's,Isles of Scilly,Schooners,Hotel/bed & breakfast/guest house,7842,0,,586523,0,,49.91498500000000,11,336,technicalservices@scilly.gov.uk,Isles of Scilly,http://www.scilly.gov.uk/,-6.31532300000000,TR210LN,2013-07-29,fhrs_5_en-GB,5,,FHRS,0
293786,Unit 1b,Porthmellon Industrial Estate,St Mary's,Isles of Scilly,Scilly Fish,Takeaway/sandwich shop,7844,0,,588984,0,,49.91613500000000,23,336,technicalservices@scilly.gov.uk,Isles of Scilly,http://www.scilly.gov.uk/,-6.30785900000000,TR210JY,2013-08-31,fhrs_5_en-GB,5,,FHRS,5
293787,The Parade,Hugh Town,St Mary's,Isles of Scilly,Shearwater,Hotel/bed & breakfast/guest house,7842,5,,579438,0,,49.91437800000000,5,336,technicalservices@scilly.gov.uk,Isles of Scilly,http://www.scilly.gov.uk/,-6.31132500000000,TR210JX,2013-05-18,fhrs_5_en-GB,5,,FHRS,0
293788,Telegraph Road,Porthmellon Road,St Mary's,Isles of Scilly,Spero's,Restaurant/Cafe/Canteen,1,5,,579434,10,,49.91613500000000,1,336,technicalservices@scilly.gov.uk,Isles of Scilly,http://www.scilly.gov.uk/,-6.30785900000000,TR210JY,2013-06-15,fhrs_4_en-GB,4,,FHRS,5
293789,Moo Green,Higher Town,St. Martin's,Isles of Scilly,St Martins Bakery,Restaurant/Cafe/Canteen,1,10,,579440,0,,49.96095900000000,7,336,technicalservices@scilly.gov.uk,Isles of Scilly,http://www.scilly.gov.uk/,-6.28303400000000,TR250QL,2013-04-20,fhrs_4_en-GB,4,,FHRS,10
293790,,Higher Town,St. Martin's,Isles of Scilly,St Martin's PO Stores,Retailers - other,4613,30,,586530,10,,49.96095900000000,18,336,technicalservices@scilly.gov.uk,Isles of Scilly,http://www.scilly.gov.uk/,-6.28303400000000,TR250QL,2013-08-09,fhrs_0_en-GB,0,,FHRS,0
293791,Church Street,Hugh Town,St Mary's,Isles of Scilly,St Mary's Hall,Hotel/bed & breakfast/guest house,7842,20,,586526,0,,49.91533200000000,14,336,technicalservices@scilly.gov.uk,Isles of Scilly,http://www.scilly.gov.uk/,-6.31155000000000,TR210JR,2013-07-28,fhrs_1_en-GB,1,,FHRS,10
293792,,Hugh Town,St Mary's,Isles of Scilly,Star Castle,Hotel/bed & breakfast/guest house,7842,0,,595411,0,,,28,336,technicalservices@scilly.gov.uk,Isles of Scilly,http://www.scilly.gov.uk/,,TR210TA,2013-09-20,fhrs_5_en-GB,5,,FHRS,0
293793,The Post Office,Hugh Town,St Mary's,Isles of Scilly,Tanglewood,Retailers - other,4613,0,,579439,0,,49.91504600000000,6,336,technicalservices@scilly.gov.uk,Isles of Scilly,http://www.scilly.gov.uk/,-6.31705700000000,TR210LR,2013-04-22,fhrs_5_en-GB,5,,FHRS,5
293794,The Strand,Hugh Town,St Mary's,Isles of Scilly,The Dairy,Restaurant/Cafe/Canteen,1,5,,586522,0,,49.91567300000000,10,336,technicalservices@scilly.gov.uk,Isles of Scilly,http://www.scilly.gov.uk/,-6.31181700000000,TR210PT,2013-07-27,fhrs_5_en-GB,5,,FHRS,5
293795,Hugh Street,Hugh Town,St Mary's,Isles of Scilly,The Deli,Restaurant/Cafe/Canteen,1,10,,579435,0,,49.91482500000000,2,336,technicalservices@scilly.gov.uk,Isles of Scilly,http://www.scilly.gov.uk/,-6.31670300000000,TR210LL,2013-06-15,fhrs_2_en-GB,2,,FHRS,15
293796,Tolman Point,Old Town,St Mary's,Isles of Scilly,Tolman Cafe,Restaurant/Cafe/Canteen,1,10,,586533,0,,49.91227400000000,21,336,technicalservices@scilly.gov.uk,Isles of Scilly,http://www.scilly.gov.uk/,-6.29918200000000,TR210NJ,2013-08-12,fhrs_4_en-GB,4,,FHRS,0
293797,,,Bryher,Isles of Scilly,Vine Cafe,Restaurant/Cafe/Canteen,1,0,,588988,0,,49.95361100000000,27,336,technicalservices@scilly.gov.uk,Isles of Scilly,http://www.scilly.gov.uk/,-6.35265700000000,TR230PR,2013-08-30,fhrs_5_en-GB,5,,FHRS,0
293798,The Parade,Hugh Town,St Mary's,Isles of Scilly,Wingletang,Hotel/bed & breakfast/guest house,7842,0,,586534,0,,49.91440000000000,8,336,technicalservices@scilly.gov.uk,Isles of Scilly,http://www.scilly.gov.uk/,-6.31483900000000,TR210LP,2013-07-27,fhrs_5_en-GB,5,,FHRS,0
