,addressline1,addressline2,addressline3,addressline4,businessname,businesstype,businesstypeid,confidenceinmanagement,extractdate,fhrsid,hygiene,itemcount,latitude,localauthoritybusinessid,localauthoritycode,localauthorityemailaddress,localauthorityname,localauthoritywebsite,longitude,postcode,ratingdate,ratingkey,ratingvalue,returncode,schemetype,structural
165907,,23-23a Church Street,Ainsworth,Radcliffe,23 Bar & Grill Limited,Restaurant/Cafe/Canteen,1,20,,710017,15,,53.58814300000000,27479,405,Foodsafety@bury.gov.uk,Bury,http://www.bury.gov.uk,-2.35783500000000,BL2 5RA,2014-10-24,fhrs_1_en-GB,1,,FHRS,15
165908,Unit 2,Albert Close,Whitefield,Manchester,3 Town Catering,Restaurant/Cafe/Canteen,1,5,,89829,5,,53.54911400000000,24185,405,Foodsafety@bury.gov.uk,Bury,http://www.bury.gov.uk,-2.28513600000000,M45 8EH,2011-10-13,fhrs_5_en-GB,5,,FHRS,0
165909,Bury College Of Further Educat,Market Street,Bury,Greater Manchester,3czons,Restaurant/Cafe/Canteen,1,0,,126158,0,,53.59011800000000,5501,405,Foodsafety@bury.gov.uk,Bury,http://www.bury.gov.uk,-2.29648600000000,BL9 0BG,2010-06-15,fhrs_5_en-GB,5,,FHRS,5
165910,,239 Bolton Road,Radcliffe,Bury,A Touch of Paris,Takeaway/sandwich shop,7844,5,,89957,5,,53.56264000000000,24288,405,Foodsafety@bury.gov.uk,Bury,http://www.bury.gov.uk,-2.34354900000000,M26 3QP,2011-11-23,fhrs_5_en-GB,5,,FHRS,0
165911,,32 Church Street West,Radcliffe,Bury,A Touch of Spice,Takeaway/sandwich shop,7844,5,,134197,5,,53.55955800000000,6745,405,Foodsafety@bury.gov.uk,Bury,http://www.bury.gov.uk,-2.32403400000000,M26 2SQ,2011-01-19,fhrs_5_en-GB,5,,FHRS,0
165912,,137 Coronation Road,Radcliffe,Greater Manchester,A&J's Fish & Chips,Takeaway/sandwich shop,7844,5,,53266,5,,53.56804300000000,1200,405,Foodsafety@bury.gov.uk,Bury,http://www.bury.gov.uk,-2.34638600000000,M26 3LP,2012-09-13,fhrs_5_en-GB,5,,FHRS,5
165913,Abbeycliffe,50 School Street,Radcliffe,Manchester,Abbeycliffe,Hospitals/Childcare/Caring Premises,5,,,550254,,,53.56039700000000,25833,405,Foodsafety@bury.gov.uk,Bury,http://www.bury.gov.uk,-2.32949100000000,M26 3BP,,fhrs_awaitinginspection_en-GB,AwaitingInspection,,FHRS,
165914,,179 Bolton Road,Bury,Greater Manchester,Abbeydale Residential Home,Hospitals/Childcare/Caring Premises,5,5,,263706,5,,53.59021200000000,2243,405,Foodsafety@bury.gov.uk,Bury,http://www.bury.gov.uk,-2.31576400000000,BL8 2NR,2014-10-25,fhrs_5_en-GB,5,,FHRS,5
165915,Faraday House,Tottington Road,Bury,Greater Manchester,Abbeyfield,Hospitals/Childcare/Caring Premises,5,5,,263717,5,,53.59851900000000,4658,405,Foodsafety@bury.gov.uk,Bury,http://www.bury.gov.uk,-2.31168600000000,BL8 1LL,2014-09-30,fhrs_5_en-GB,5,,FHRS,0
165916,Abbeyfield House,Turks Road,Radcliffe,Greater Manchester,Abbeyfield Radcliffe Society,Hospitals/Childcare/Caring Premises,5,5,,263732,5,,53.56996700000000,2553,405,Foodsafety@bury.gov.uk,Bury,http://www.bury.gov.uk,-2.34635700000000,M26 4WN,2013-02-10,fhrs_5_en-GB,5,,FHRS,5
165917,Holmwood Nursing Home,104-106 Market Street,Tottington,Greater Manchester,Abbeywood,Hospitals/Childcare/Caring Premises,5,5,,263700,5,,53.61120700000000,4302,405,Foodsafety@bury.gov.uk,Bury,http://www.bury.gov.uk,-2.33928800000000,BL8 3LS,2014-10-01,fhrs_5_en-GB,5,,FHRS,5
165918,,Bradshaw Head Farm,Watling Street,Affetside,Affetside Tea Room,Restaurant/Cafe/Canteen,1,5,,558928,0,,53.62255900000000,26286,405,Foodsafety@bury.gov.uk,Bury,http://www.bury.gov.uk,-2.37537700000000,BL8 3QL,2014-01-17,fhrs_5_en-GB,5,,FHRS,0
165919,Ainsworth Nursing Home,Knowsley Road,Ainsworth,"Radcliffe, Greater Manchester",Ainsworth Nursing Home,Hospitals/Childcare/Caring Premises,5,10,,263738,10,,53.59395200000000,3763,405,Foodsafety@bury.gov.uk,Bury,http://www.bury.gov.uk,-2.35718900000000,BL2 5PT,2014-05-01,fhrs_3_en-GB,3,,FHRS,10
165920,,2-4 Robins Rd,Summerseat,,Al Bosco,Restaurant/Cafe/Canteen,1,5,,468120,5,,53.63100500000000,25317,405,Foodsafety@bury.gov.uk,Bury,http://www.bury.gov.uk,-2.32096800000000,BL9 5QP,2014-02-07,fhrs_5_en-GB,5,,FHRS,5
165921,,375 Bury New Road,Prestwich,Manchester,Aladdin,Takeaway/sandwich shop,7844,,,591251,,,53.53019800000000,26605,405,Foodsafety@bury.gov.uk,Bury,http://www.bury.gov.uk,-2.28310800000000,M25 1AW,,fhrs_awaitinginspection_en-GB,AwaitingInspection,,FHRS,
165922,,164 Rochdale Road,Bury,Greater Manchester,Alexander Nursing Home,Hospitals/Childcare/Caring Premises,5,5,,263705,5,,53.59245500000000,2241,405,Foodsafety@bury.gov.uk,Bury,http://www.bury.gov.uk,-2.28127400000000,BL9 7BY,2013-04-11,fhrs_5_en-GB,5,,FHRS,5
165923,,96 Rochdale Road,Bury,Greater Manchester,Alis Kebabish,Takeaway/sandwich shop,7844,20,,135278,20,,53.59287500000000,6886,405,Foodsafety@bury.gov.uk,Bury,http://www.bury.gov.uk,-2.28644300000000,BL9 7AY,2014-10-09,fhrs_0_en-GB,0,,FHRS,25
165924,All Saints C Of E Primary Scho,Rufford Drive,Whitefield,Greater Manchester,All Saints C E Primary School,School/college/university,7845,0,,624737,0,,53.55638000000000,1376,405,Foodsafety@bury.gov.uk,Bury,http://www.bury.gov.uk,-2.29105700000000,M45 8PL,2013-07-16,fhrs_5_en-GB,5,,FHRS,5
165925,,55-57 Walmersley Road,Bury,,Allens Fried Chicken,Takeaway/sandwich shop,7844,,,721998,,,53.59808800000000,27526,405,Foodsafety@bury.gov.uk,Bury,http://www.bury.gov.uk,-2.29001500000000,BL9 5AE,,fhrs_awaitinginspection_en-GB,AwaitingInspection,,FHRS,
165926,,Buller St,Bury,,Alpha Hospital,Hospitals/Childcare/Caring Premises,5,0,,409989,0,,53.58715300000000,5131,405,Foodsafety@bury.gov.uk,Bury,http://www.bury.gov.uk,-2.31678300000000,BL8 2BS,2012-06-27,fhrs_5_en-GB,5,,FHRS,0
165927,,109-121 Stand Lane,Radcliffe,Greater Manchester,Ambers Attic Ltd,Hospitals/Childcare/Caring Premises,5,5,,189323,0,,53.55543600000000,5911,405,Foodsafety@bury.gov.uk,Bury,http://www.bury.gov.uk,-2.31926300000000,M26 1JR,2012-10-23,fhrs_5_en-GB,5,,FHRS,5
165928,,72 Bury Old Road,Whitefield,Greater Manchester,Ammaiyra,Takeaway/sandwich shop,7844,5,,116578,5,,53.53995000000000,4577,405,Foodsafety@bury.gov.uk,Bury,http://www.bury.gov.uk,-2.28300700000000,M45 6TL,2014-06-18,fhrs_5_en-GB,5,,FHRS,5
165929,,155 Bury New Road,Whitefield,Greater Manchester,Andrew Kebab House,Takeaway/sandwich shop,7844,10,,82661,10,,53.54568100000000,2008,405,Foodsafety@bury.gov.uk,Bury,http://www.bury.gov.uk,-2.29225200000000,M45 6AA,2010-06-04,fhrs_3_en-GB,3,,FHRS,10
165930,,1a Higher Lane,Whitefield,Manchester,Angelo's,Restaurant/Cafe/Canteen,1,5,,624789,5,,53.54405600000000,26821,405,Foodsafety@bury.gov.uk,Bury,http://www.bury.gov.uk,-2.29153100000000,M45 7BG,2014-01-24,fhrs_5_en-GB,5,,FHRS,0
165931,,277 Bury New Road,Whitefield,Greater Manchester,Antonio's,Restaurant/Cafe/Canteen,1,20,,85429,10,,53.55269800000000,2151,405,Foodsafety@bury.gov.uk,Bury,http://www.bury.gov.uk,-2.29717500000000,M45 8QP,2013-11-14,fhrs_1_en-GB,1,,FHRS,10
165932,Arthur Lane Nurseries,Arthur Lane,Radcliffe,Greater Manchester,Arthur Lane Nurseries,Restaurant/Cafe/Canteen,1,5,,365162,0,,53.59114700000000,3793,405,Foodsafety@bury.gov.uk,Bury,http://www.bury.gov.uk,-2.36629100000000,BL2 5PW,2012-10-23,fhrs_5_en-GB,5,,FHRS,0
165933,"Asda Superstore, Park 66",Pilsworth Road,Bury,Greater Manchester,Asda cafe,Restaurant/Cafe/Canteen,1,0,,84282,0,,53.59859300000000,20926,405,Foodsafety@bury.gov.uk,Bury,http://www.bury.gov.uk,-2.27935100000000,BL9 8XX,2010-06-29,fhrs_5_en-GB,5,,FHRS,0
165934,,294 Tottington Road,Bury,Greater Manchester,Asha,Restaurant/Cafe/Canteen,1,5,,90909,5,,53.60318400000000,25,405,Foodsafety@bury.gov.uk,Bury,http://www.bury.gov.uk,-2.32192000000000,BL8 1TA,2011-01-17,fhrs_5_en-GB,5,,FHRS,0
165935,,44 Bridge Street,Bury,Greater Manchester,Ashworths,Restaurant/Cafe/Canteen,1,5,,93415,0,,53.59940200000000,2683,405,Foodsafety@bury.gov.uk,Bury,http://www.bury.gov.uk,-2.28552100000000,BL9 6HH,2012-08-16,fhrs_5_en-GB,5,,FHRS,5
165936,,136 Rochdale Road,Bury,Greater Manchester,Asia Lounge,Restaurant/Cafe/Canteen,1,5,,85036,5,,53.59273700000000,21217,405,Foodsafety@bury.gov.uk,Bury,http://www.bury.gov.uk,-2.28375300000000,BL9 7BD,2011-03-24,fhrs_5_en-GB,5,,FHRS,5
165937,B&Q,Bridge Hall Lane,Bury,,Autograph the Food People,Restaurant/Cafe/Canteen,1,0,,88319,0,,53.59244500000000,23087,405,Foodsafety@bury.gov.uk,Bury,http://www.bury.gov.uk,-2.27004800000000,BL9 7PJ,2012-11-08,fhrs_5_en-GB,5,,FHRS,5
165938,Athenaeum House,Market Street,Bury,Greater Manchester,Automatic Lounge,Pub/bar/nightclub,7843,5,,97298,5,,53.59290300000000,3012,405,Foodsafety@bury.gov.uk,Bury,http://www.bury.gov.uk,-2.29694400000000,BL9 0BN,2013-04-11,fhrs_4_en-GB,4,,FHRS,10
165939,,204 Dumers Lane,Radcliffe,Greater Manchester,Avasarni,Takeaway/sandwich shop,7844,5,,136673,5,,53.56990500000000,7104,405,Foodsafety@bury.gov.uk,Bury,http://www.bury.gov.uk,-2.30289800000000,M26 2GF,2013-03-12,fhrs_5_en-GB,5,,FHRS,5
165940,,49 Bridge Street,Ramsbottom,Greater Manchester,Baileys Tea Shop,Restaurant/Cafe/Canteen,1,10,,80304,5,,53.64855000000000,1943,405,Foodsafety@bury.gov.uk,Bury,http://www.bury.gov.uk,-2.31745500000000,BL0 9AD,2010-11-18,fhrs_4_en-GB,4,,FHRS,5
165941,Ground Floor,305 Bolton Road,Bury,Greater Manchester,Bake 'N' Butties,Takeaway/sandwich shop,7844,5,,85945,5,,53.58954300000000,21790,405,Foodsafety@bury.gov.uk,Bury,http://www.bury.gov.uk,-2.31723900000000,BL8 2NZ,2013-02-28,fhrs_4_en-GB,4,,FHRS,10
165942,Bank House Residential Home,Brandlesholme Road,Bury,Greater Manchester,Bank House Nursing Home,Hospitals/Childcare/Caring Premises,5,5,,263692,5,,53.60330200000000,2249,405,Foodsafety@bury.gov.uk,Bury,http://www.bury.gov.uk,-2.31117700000000,BL8 1DJ,2014-04-10,fhrs_5_en-GB,5,,FHRS,5
165943,Bankfield Residental Home,Gigg Lane,Bury,Bury,Bankfield Residential CareHome,Hospitals/Childcare/Caring Premises,5,5,,263715,0,,53.58129100000000,2706,405,Foodsafety@bury.gov.uk,Bury,http://www.bury.gov.uk,-2.29645500000000,BL9 9HQ,2011-09-13,fhrs_5_en-GB,5,,FHRS,5
165944,,127 Blackburn Street,Radcliffe,Greater Manchester,Bankhouse Day Nursery,Hospitals/Childcare/Caring Premises,5,5,,189319,5,,53.56177600000000,1194,405,Foodsafety@bury.gov.uk,Bury,http://www.bury.gov.uk,-2.32815800000000,M26 3WQ,2014-10-28,fhrs_5_en-GB,5,,FHRS,5
165945,,7 Stand Lane,Radcliffe,Greater Manchester,Bar-B-Q-Land,Takeaway/sandwich shop,7844,10,,56217,10,,53.55852500000000,1270,405,Foodsafety@bury.gov.uk,Bury,http://www.bury.gov.uk,-2.32369400000000,M26 1NW,2010-11-11,fhrs_2_en-GB,2,,FHRS,15
165946,,108 The Rock,Bury,,Barista,Restaurant/Cafe/Canteen,1,5,,87999,0,,53.59466400000000,22979,405,Foodsafety@bury.gov.uk,Bury,http://www.bury.gov.uk,-2.29369300000000,BL9 0PJ,2010-09-02,fhrs_5_en-GB,5,,FHRS,0
165947,Bury College,Market Street,Bury,,Beacon Centre,Restaurant/Cafe/Canteen,1,0,,550248,0,,53.59011800000000,25502,405,Foodsafety@bury.gov.uk,Bury,http://www.bury.gov.uk,-2.29648600000000,BL9 0BG,2013-06-13,fhrs_5_en-GB,5,,FHRS,5
165948,,4 Cooper Street,Bury,Greater Manchester,Bella Italia,Restaurant/Cafe/Canteen,1,5,,80634,5,,53.59369800000000,1954,405,Foodsafety@bury.gov.uk,Bury,http://www.bury.gov.uk,-2.29895900000000,BL9 0LJ,2010-06-08,fhrs_5_en-GB,5,,FHRS,5
165949,,49 Bolton Street,Ramsbottom,Greater Manchester,Bellini,Restaurant/Cafe/Canteen,1,10,,80271,10,,53.64758600000000,1942,405,Foodsafety@bury.gov.uk,Bury,http://www.bury.gov.uk,-2.31855300000000,BL0 9HU,2012-11-15,fhrs_3_en-GB,3,,FHRS,10
165950,,309 Tottington Road,Bury,Greater Manchester,Belly Busters,Takeaway/sandwich shop,7844,5,,117500,5,,53.60191200000000,4674,405,Foodsafety@bury.gov.uk,Bury,http://www.bury.gov.uk,-2.32005200000000,BL8 1SZ,2011-12-14,fhrs_5_en-GB,5,,FHRS,5
165951,,98A Bradley Lane,Radcliffe,Greater Manchester,Bellybusters,Takeaway/sandwich shop,7844,5,,97195,0,,53.57226900000000,3005,405,Foodsafety@bury.gov.uk,Bury,http://www.bury.gov.uk,-2.36686700000000,BL2 6RA,2012-08-21,fhrs_5_en-GB,5,,FHRS,0
165952,,30 Whittaker Lane,Prestwich,Manchester,Bengal Hut,Takeaway/sandwich shop,7844,,,729003,,,53.52981900000000,27581,405,Foodsafety@bury.gov.uk,Bury,http://www.bury.gov.uk,-2.26830700000000,M25 1FX,,fhrs_awaitinginspection_en-GB,AwaitingInspection,,FHRS,
165953,Unsworth Post Office,73 Parr Lane,Bury,Greater Manchester,Berry's Minimarket,Takeaway/sandwich shop,7844,5,,67610,5,,53.56051200000000,151,405,Foodsafety@bury.gov.uk,Bury,http://www.bury.gov.uk,-2.27318100000000,BL9 8JR,2014-02-24,fhrs_5_en-GB,5,,FHRS,5
165954,B H S,15 Union Arcade,Bury,Greater Manchester,BHS Cafe,Restaurant/Cafe/Canteen,1,5,,136372,5,,53.59317000000000,7068,405,Foodsafety@bury.gov.uk,Bury,http://www.bury.gov.uk,-2.29439200000000,BL9 0QF,2013-02-01,fhrs_5_en-GB,5,,FHRS,5
165955,,3 Dale Street,Radcliffe,Greater Manchester,Big Bite,Takeaway/sandwich shop,7844,5,,117809,5,,53.55911100000000,4707,405,Foodsafety@bury.gov.uk,Bury,http://www.bury.gov.uk,-2.32631100000000,M26 1AB,2013-03-26,fhrs_4_en-GB,4,,FHRS,10
165956,,7 Bolton Street,Ramsbottom,Greater Manchester,Big Butts,Takeaway/sandwich shop,7844,10,,86259,5,,53.64758600000000,22,405,Foodsafety@bury.gov.uk,Bury,http://www.bury.gov.uk,-2.31855300000000,BL0 9HU,2011-06-22,fhrs_3_en-GB,3,,FHRS,10
165957,"Market Hall, Stall 51/52",Bury Market,Murray Road,Bury,Big Jim's Cafe,Restaurant/Cafe/Canteen,1,5,,80167,5,,53.59098400000000,1938,405,Foodsafety@bury.gov.uk,Bury,http://www.bury.gov.uk,-2.29528400000000,BL9 0BJ,2012-11-23,fhrs_5_en-GB,5,,FHRS,5
165958,,1 Tithebarn Street,Bury,Greater Manchester,Billy Bunters,Takeaway/sandwich shop,7844,0,,42456,0,,53.59462400000000,1047,405,Foodsafety@bury.gov.uk,Bury,http://www.bury.gov.uk,-2.29537000000000,BL9 0JR,2010-11-02,fhrs_5_en-GB,5,,FHRS,0
165959,,99-101 Rochdale Road,Bury,Greater Manchester,Bite 2 Eat,Restaurant/Cafe/Canteen,1,0,,135791,5,,53.59311900000000,6969,405,Foodsafety@bury.gov.uk,Bury,http://www.bury.gov.uk,-2.28590100000000,BL9 7BA,2014-04-04,fhrs_5_en-GB,5,,FHRS,5
165960,,130 Bury New Road,Whitefield,Bury,"Bits ""N"" Pizza",Takeaway/sandwich shop,7844,,,87257,,,53.54710000000000,22486,405,Foodsafety@bury.gov.uk,Bury,http://www.bury.gov.uk,-2.29254800000000,M45 6AD,,fhrs_awaitinginspection_en-GB,AwaitingInspection,,FHRS,
165961,Bleakholt Farm,Bury Old Road,Ramsbottom,Greater Manchester,Bleakholt Animal Sanctuary,Restaurant/Cafe/Canteen,1,10,,129900,5,,53.65891800000000,609,405,Foodsafety@bury.gov.uk,Bury,http://www.bury.gov.uk,-2.29462400000000,BL0 0RX,2011-06-21,fhrs_3_en-GB,3,,FHRS,10
165962,,56-58 Bury Old Road,Whitefield,Greater Manchester,Blue Bay Restaurant,Restaurant/Cafe/Canteen,1,0,,80543,5,,53.53995000000000,1950,405,Foodsafety@bury.gov.uk,Bury,http://www.bury.gov.uk,-2.28300700000000,M45 6TL,2011-11-03,fhrs_5_en-GB,5,,FHRS,5
165963,,115 Blackburn Street,Radcliffe,Manchester,Blue Chutney,Takeaway/sandwich shop,7844,,,721999,,,53.56180200000000,27532,405,Foodsafety@bury.gov.uk,Bury,http://www.bury.gov.uk,-2.32824900000000,M26 3WQ,,fhrs_awaitinginspection_en-GB,AwaitingInspection,,FHRS,
165964,,Frankton Road,Whitefield,Greater Manchester,Blue Skies Montessori Nursery,Hospitals/Childcare/Caring Premises,5,5,,189314,0,,53.54283100000000,5799,405,Foodsafety@bury.gov.uk,Bury,http://www.bury.gov.uk,-2.29236800000000,M45 7FB,2011-10-12,fhrs_5_en-GB,5,,FHRS,0
165965,Bolholt Hotel,Walshaw Road,Bury,Greater Manchester,Bolholt Country Park Hotel (Best Western),Restaurant/Cafe/Canteen,1,5,,81688,5,,53.60200400000000,1995,405,Foodsafety@bury.gov.uk,Bury,http://www.bury.gov.uk,-2.32626400000000,BL8 1PU,2011-07-18,fhrs_5_en-GB,5,,FHRS,5
165966,Unit 2,Woodhill Street,Bury,,Boomerang,Restaurant/Cafe/Canteen,1,5,,89389,5,,53.60000300000000,23875,405,Foodsafety@bury.gov.uk,Bury,http://www.bury.gov.uk,-2.30791900000000,BL8 1AT,2014-07-02,fhrs_5_en-GB,5,,FHRS,5
165967,,152 Tottington Road,Bury,Greater Manchester,Boston Pizza,Takeaway/sandwich shop,7844,10,,115708,5,,53.60042400000000,4490,405,Foodsafety@bury.gov.uk,Bury,http://www.bury.gov.uk,-2.31549200000000,BL8 1RU,2011-02-23,fhrs_4_en-GB,4,,FHRS,5
165968,Garden Centre,Radcliffe Moor Road,Radcliffe,Bolton,Bradley Fold Garden Centre Restaurant,Restaurant/Cafe/Canteen,1,0,,707122,0,,53.57417900000000,27413,405,Foodsafety@bury.gov.uk,Bury,http://www.bury.gov.uk,-2.36566100000000,BL2 6RE,2014-10-03,fhrs_5_en-GB,5,,FHRS,0
165969,,365 Brandlesholme Road,Bury,Greater Manchester,Brandlesholme Chippy,Takeaway/sandwich shop,7844,10,,86192,10,,53.60871600000000,2196,405,Foodsafety@bury.gov.uk,Bury,http://www.bury.gov.uk,-2.31366500000000,BL8 1HS,2009-02-25,fhrs_2_en-GB,2,,FHRS,15
165970,Bridge House Home For The Elde,Topping Fold Road,Bury,Greater Manchester,Bridge House Residential Home,Hospitals/Childcare/Caring Premises,5,0,,263698,5,,53.59822900000000,2255,405,Foodsafety@bury.gov.uk,Bury,http://www.bury.gov.uk,-2.26840800000000,BL9 7NQ,2014-11-13,fhrs_5_en-GB,5,,FHRS,5
165971,,6-8 Blackburn Street,Radcliffe,Bury,Bridge Tavern,Pub/bar/nightclub,7843,5,,91539,5,,53.55904400000000,2536,405,Foodsafety@bury.gov.uk,Bury,http://www.bury.gov.uk,-2.32440800000000,M26 1WW,2010-04-13,fhrs_5_en-GB,5,,FHRS,5
165972,Lowercroft Industrail Estate,Lowercroft Road,Bury,,Bright Starts,Hospitals/Childcare/Caring Premises,5,,,722000,,,53.59503800000000,27537,405,Foodsafety@bury.gov.uk,Bury,http://www.bury.gov.uk,-2.33911300000000,BL8 3PA,,fhrs_awaitinginspection_en-GB,AwaitingInspection,,FHRS,
165973,5 St Pauls Court,Chesham Crescent,Bury,Greater Manchester,Brookdale Residential Care Home,Hospitals/Childcare/Caring Premises,5,5,,263722,5,,53.59898000000000,2245,405,Foodsafety@bury.gov.uk,Bury,http://www.bury.gov.uk,-2.28160400000000,BL9 6BX,2014-04-17,fhrs_5_en-GB,5,,FHRS,5
165974,Brookfield Residential Home,St Anns Road,Prestwich,Greater Manchester,Brookfield Care Home Ltd,Hospitals/Childcare/Caring Premises,5,5,,263724,5,,53.52749400000000,2285,405,Foodsafety@bury.gov.uk,Bury,http://www.bury.gov.uk,-2.28639400000000,M25 9QE,2014-10-15,fhrs_5_en-GB,5,,FHRS,5
165975,,167 Simister Lane,Prestwich,Greater Manchester,Brookvale,Hospitals/Childcare/Caring Premises,5,5,,263748,0,,53.55102600000000,2277,405,Foodsafety@bury.gov.uk,Bury,http://www.bury.gov.uk,-2.24549900000000,M25 2SF,2011-09-28,fhrs_5_en-GB,5,,FHRS,0
165976,,159-161 Walmersley Road,Bury,Greater Manchester,Browfield Residential Home Ltd,Hospitals/Childcare/Caring Premises,5,5,,263737,5,,53.60247100000000,2457,405,Foodsafety@bury.gov.uk,Bury,http://www.bury.gov.uk,-2.29140500000000,BL9 5DE,2011-10-03,fhrs_4_en-GB,4,,FHRS,10
165977,,50 Newcombe Road,Ramsbottom,"Bury, Greater Manchester",Brox Buttery,Takeaway/sandwich shop,7844,5,,84379,5,,53.62643400000000,21,405,Foodsafety@bury.gov.uk,Bury,http://www.bury.gov.uk,-2.32621000000000,BL0 9UT,2014-06-11,fhrs_5_en-GB,5,,FHRS,5
165978,,212 Bell Lane,Bury,Bury,Brunch n lunch,Takeaway/sandwich shop,7844,10,,89531,10,,53.59767100000000,23986,405,Foodsafety@bury.gov.uk,Bury,http://www.bury.gov.uk,-2.27662400000000,BL9 6HS,2011-08-10,fhrs_2_en-GB,2,,FHRS,15
165979,,14 Radcliffe New Road,Whitefield,Greater Manchester,Buddha Lounge,Restaurant/Cafe/Canteen,1,5,,80848,5,,53.55425400000000,1965,405,Foodsafety@bury.gov.uk,Bury,http://www.bury.gov.uk,-2.29999400000000,M45 7GY,2011-03-10,fhrs_5_en-GB,5,,FHRS,5
165980,,Central Street,The Rock,Bury,Burger King,Restaurant/Cafe/Canteen,1,,,508766,,,53.59506300000000,25530,405,Foodsafety@bury.gov.uk,Bury,http://www.bury.gov.uk,-2.29207900000000,BL9 0JN,,fhrs_awaitinginspection_en-GB,AwaitingInspection,,FHRS,
165981,Burger King Drive Thru,Bridge Hall Lane,Bury,Greater Manchester,Burger King,Restaurant/Cafe/Canteen,1,5,,126778,0,,53.59671400000000,5589,405,Foodsafety@bury.gov.uk,Bury,http://www.bury.gov.uk,-2.27837100000000,BL9 7PU,2011-07-25,fhrs_5_en-GB,5,,FHRS,0
165982,,49 The Haymarket,Bury,,Burrbar Mexican Kitchen,Restaurant/Cafe/Canteen,1,0,,591253,0,,53.59299500000000,26623,405,Foodsafety@bury.gov.uk,Bury,http://www.bury.gov.uk,-2.29593200000000,BL9 0BX,2014-01-10,fhrs_5_en-GB,5,,FHRS,0
165983,Burrs Activity Centre,Woodhill Road,Bury,Greater Manchester,Burrs Activity Centre,Restaurant/Cafe/Canteen,1,10,,123081,5,,53.61054500000000,5155,405,Foodsafety@bury.gov.uk,Bury,http://www.bury.gov.uk,-2.30485200000000,BL8 1DA,2011-07-27,fhrs_4_en-GB,4,,FHRS,5
165984,,Newton Street,Bury,Greater Manchester,Burrswood House,Hospitals/Childcare/Caring Premises,5,0,,263720,0,,53.60964800000000,2253,405,Foodsafety@bury.gov.uk,Bury,http://www.bury.gov.uk,-2.29344900000000,BL9 5HB,2012-08-15,fhrs_5_en-GB,5,,FHRS,5
165985,,Parr Lane,Bury,,Bury & Whitefield Jewish Primary School,School/college/university,7845,0,,624733,5,,53.55961700000000,1343,405,Foodsafety@bury.gov.uk,Bury,http://www.bury.gov.uk,-2.27518300000000,BL9 8JT,2013-10-22,fhrs_5_en-GB,5,,FHRS,0
165986,Bury Gmpte Interchange,Knowsley Street,Bury,Greater Manchester,Bury Buffet Bar,Restaurant/Cafe/Canteen,1,5,,92816,5,,53.59021900000000,2634,405,Foodsafety@bury.gov.uk,Bury,http://www.bury.gov.uk,-2.29896500000000,BL9 0SN,2014-11-14,fhrs_4_en-GB,4,,FHRS,10
165987,,179 Bolton Road Bury,,,Bury Cancer Support Centre,Restaurant/Cafe/Canteen,1,0,,733795,0,,53.58699000000000,27671,405,Foodsafety@bury.gov.uk,Bury,http://www.bury.gov.uk,-2.32374500000000,BL8 2DA,2015-01-27,fhrs_5_en-GB,5,,FHRS,0
165988,Millennium Centre,Market Street,Bury,Greater Manchester,Bury College,School/college/university,7845,5,,459410,0,,53.58796400000000,4794,405,Foodsafety@bury.gov.uk,Bury,http://www.bury.gov.uk,-2.29502100000000,BL9 0DB,2012-10-03,fhrs_5_en-GB,5,,FHRS,0
165989,Woodbury Centre,Market Street,Bury,Greater Manchester,Bury College,School/college/university,7845,5,,550246,5,,53.59011800000000,1480,405,Foodsafety@bury.gov.uk,Bury,http://www.bury.gov.uk,-2.29648600000000,BL9 0BG,2013-05-14,fhrs_5_en-GB,5,,FHRS,0
165990,Unsworth Hall,Manchester Road,Bury,Greater Manchester,Bury Golf Club,Restaurant/Cafe/Canteen,1,5,,150962,5,,53.56515800000000,996,405,Foodsafety@bury.gov.uk,Bury,http://www.bury.gov.uk,-2.28868700000000,BL9 9TJ,2014-09-02,fhrs_5_en-GB,5,,FHRS,5
165991,,5 Knowsley Place Bury,,,Bury Premier Inn,Hotel/bed & breakfast/guest house,7842,0,,89258,5,,53.58985100000000,23790,405,Foodsafety@bury.gov.uk,Bury,http://www.bury.gov.uk,-2.29876600000000,BL9 0EJ,2012-07-17,fhrs_5_en-GB,5,,FHRS,0
165992,,Parsons Lane,Bury,Lancs,Bury United Reformed Church,Restaurant/Cafe/Canteen,1,5,,650490,5,,53.59515500000000,27074,405,Foodsafety@bury.gov.uk,Bury,http://www.bury.gov.uk,-2.29501100000000,BL9 0LY,2014-05-13,fhrs_5_en-GB,5,,FHRS,0
165993,Europa House,Barcroft Street,Bury,Greater Manchester,Businesslodge,Restaurant/Cafe/Canteen,1,5,,120267,0,,53.59801500000000,4927,405,Foodsafety@bury.gov.uk,Bury,http://www.bury.gov.uk,-2.29438100000000,BL9 5BT,2013-01-24,fhrs_5_en-GB,5,,FHRS,0
165994,,485 Bury New Road,Prestwich,Greater Manchester,Butterfingers Coffee House,Restaurant/Cafe/Canteen,1,10,,81044,5,,53.53318400000000,1972,405,Foodsafety@bury.gov.uk,Bury,http://www.bury.gov.uk,-2.28585900000000,M25 1AD,2014-02-25,fhrs_3_en-GB,3,,FHRS,10
165995,,School Grove,Prestwich,Manchester,Butterstile County Primary,School/college/university,7845,5,,624782,5,,53.52072200000000,1561,405,Foodsafety@bury.gov.uk,Bury,http://www.bury.gov.uk,-2.28770600000000,M25 9RJ,2013-03-14,fhrs_5_en-GB,5,,FHRS,5
165996,,4 Butterworth Street,Radcliffe,Greater Manchester,Butterworth Street Chippy,Takeaway/sandwich shop,7844,5,,53939,0,,53.56425600000000,1215,405,Foodsafety@bury.gov.uk,Bury,http://www.bury.gov.uk,-2.31842400000000,M26 2QY,2011-11-04,fhrs_4_en-GB,4,,FHRS,10
165997,,25 Chesham Road,Bury,Greater Manchester,Butty-Licious,Takeaway/sandwich shop,7844,10,,121075,5,,53.60286700000000,4985,405,Foodsafety@bury.gov.uk,Bury,http://www.bury.gov.uk,-2.28753900000000,BL9 6LY,2014-02-18,fhrs_3_en-GB,3,,FHRS,10
165998,,169 Bolton Road,,,Cactus Sandwich CO,Takeaway/sandwich shop,7844,,,722001,,,53.64500500000000,27544,405,Foodsafety@bury.gov.uk,Bury,http://www.bury.gov.uk,-2.33238900000000,BL8 4NW,,fhrs_awaitinginspection_en-GB,AwaitingInspection,,FHRS,
165999,,470 Bury Old Road,Prestwich,Manchester,Cafe 711,Restaurant/Cafe/Canteen,1,20,,365153,10,,53.53771000000000,24758,405,Foodsafety@bury.gov.uk,Bury,http://www.bury.gov.uk,-2.27632300000000,M25 1NL,2015-01-07,fhrs_1_en-GB,1,,FHRS,5
166000,Radcliffe Market Hall,Unit 16 Blackburn Street,Radcliffe,Bury,Cafe Capri,Restaurant/Cafe/Canteen,1,5,,263689,0,,53.55853900000000,24671,405,Foodsafety@bury.gov.uk,Bury,http://www.bury.gov.uk,-2.32514400000000,M26 1PN,2012-06-19,fhrs_5_en-GB,5,,FHRS,5
166001,First Floor And Second Floor,93 The Rock,Bury,Bury,Cafe L'Etage,Restaurant/Cafe/Canteen,1,0,,85025,5,,53.59465300000000,21210,405,Foodsafety@bury.gov.uk,Bury,http://www.bury.gov.uk,-2.29441800000000,BL9 0NB,2012-01-23,fhrs_5_en-GB,5,,FHRS,5
166002,"Market Plaza, Shop 1",Bury Market,Murray Road,Bury,Cafe Plaza & Market Carvery,Restaurant/Cafe/Canteen,1,10,,128484,5,,53.59098400000000,5848,405,Foodsafety@bury.gov.uk,Bury,http://www.bury.gov.uk,-2.29528400000000,BL9 0BJ,2011-06-08,fhrs_4_en-GB,4,,FHRS,5
166003,Cameron House Nursing Home,Cameron Street,Bury,Greater Manchester,Cameron House Nursing Home,Hospitals/Childcare/Caring Premises,5,10,,263746,0,,53.59359500000000,2699,405,Foodsafety@bury.gov.uk,Bury,http://www.bury.gov.uk,-2.31465600000000,BL8 2QH,2014-01-16,fhrs_4_en-GB,4,,FHRS,5
166004,Cams Lane Primary School,Cams Lane,Radcliffe,Greater Manchester,Cams Lane CP. School,School/college/university,7845,5,,624747,0,,53.55657400000000,1494,405,Foodsafety@bury.gov.uk,Bury,http://www.bury.gov.uk,-2.34306200000000,M26 3SW,2013-06-14,fhrs_5_en-GB,5,,FHRS,5
166005,,1 Albert Place,Whitefield,Greater Manchester,Canton,Takeaway/sandwich shop,7844,5,,61358,5,,53.55140700000000,1347,405,Foodsafety@bury.gov.uk,Bury,http://www.bury.gov.uk,-2.27701600000000,M45 8NE,2010-12-02,fhrs_5_en-GB,5,,FHRS,5
166006,,21 Bolton Street,Ramsbottom,Bury,Cardamom Cream,Restaurant/Cafe/Canteen,1,5,,550257,5,,53.64758600000000,25970,405,Foodsafety@bury.gov.uk,Bury,http://www.bury.gov.uk,-2.31855300000000,BL0 9HU,2013-10-09,fhrs_5_en-GB,5,,FHRS,5
166007,,13-15 Parsons Lane,Bury,,Cardamon Spice,Restaurant/Cafe/Canteen,1,,,508764,,,53.59515500000000,25523,405,Foodsafety@bury.gov.uk,Bury,http://www.bury.gov.uk,-2.29501100000000,BL9 0LY,,fhrs_awaitinginspection_en-GB,AwaitingInspection,,FHRS,
166008,,1-3 Chapel Street,Tottington,Greater Manchester,Carmelo's Ristorante,Restaurant/Cafe/Canteen,1,5,,99930,5,,53.61526400000000,3186,405,Foodsafety@bury.gov.uk,Bury,http://www.bury.gov.uk,-2.34148200000000,BL8 4AL,2012-03-09,fhrs_5_en-GB,5,,FHRS,5
166009,,9-11 Heywood Street,Bury,Greater Manchester,Carr Bank House,Hospitals/Childcare/Caring Premises,5,10,,263741,0,,53.59005800000000,2247,405,Foodsafety@bury.gov.uk,Bury,http://www.bury.gov.uk,-2.28766300000000,BL9 7EB,2011-12-14,fhrs_4_en-GB,4,,FHRS,10
166010,,Bolton Street,Bury,,Castle Leisure Centre,Restaurant/Cafe/Canteen,1,5,,150509,0,,53.59305400000000,984,405,Foodsafety@bury.gov.uk,Bury,http://www.bury.gov.uk,-2.30131100000000,BL9 0EZ,2011-11-08,fhrs_5_en-GB,5,,FHRS,5
166011,"Complex 1 And 2a, Warth Mills",Warth Road,Bury,Greater Manchester,Celia Clyne Banqueting Ltd,Other catering premises,7841,5,,468130,5,,53.57849100000000,6517,405,Foodsafety@bury.gov.uk,Bury,http://www.bury.gov.uk,-2.30888000000000,BL9 9NB,2012-01-17,fhrs_5_en-GB,5,,FHRS,5
166012,Chantlers County Primary Schoo,Foulds Avenue,Bury,Greater Manchester,Chantlers County Primary,School/college/university,7845,0,,624756,0,,53.59260200000000,1509,405,Foodsafety@bury.gov.uk,Bury,http://www.bury.gov.uk,-2.32605500000000,BL8 2SF,2013-09-10,fhrs_4_en-GB,4,,FHRS,10
166013,Chapelfield County Primary Sch,Clough Street,Radcliffe,Greater Manchester,Chapelfield County Primary,School/college/university,7845,0,,624748,0,,,1495,405,Foodsafety@bury.gov.uk,Bury,http://www.bury.gov.uk,,M26 9LH,2013-02-26,fhrs_5_en-GB,5,,FHRS,0
166014,,103 Moss Lane,Whitefield,Greater Manchester,Charlie & Han,Takeaway/sandwich shop,7844,5,,86897,5,,53.55061800000000,2227,405,Foodsafety@bury.gov.uk,Bury,http://www.bury.gov.uk,-2.28739500000000,M45 8DZ,2011-10-20,fhrs_4_en-GB,4,,FHRS,10
166015,Age Concern Jubilee Centre,Mosley Avenue,Bury,Greater Manchester,Chatterbox Cafe,Restaurant/Cafe/Canteen,1,0,,107713,0,,53.60678000000000,3813,405,Foodsafety@bury.gov.uk,Bury,http://www.bury.gov.uk,-2.28990800000000,BL9 6NG,2015-01-15,fhrs_5_en-GB,5,,FHRS,0
166016,,3 Chandos Road,Prestwich,Greater Manchester,Cheeky Monkeys Nursery,Hospitals/Childcare/Caring Premises,5,0,,189313,0,,53.52077100000000,2604,405,Foodsafety@bury.gov.uk,Bury,http://www.bury.gov.uk,-2.27441800000000,M25 9WW,2014-10-28,fhrs_5_en-GB,5,,FHRS,5
166017,Chesham County Primary School,Talbot Grove,Bury,Bury,Chesham County Primary School,School/college/university,7845,5,,624765,5,,53.60903900000000,1524,405,Foodsafety@bury.gov.uk,Bury,http://www.bury.gov.uk,-2.28857800000000,BL9 6PH,2013-09-20,fhrs_5_en-GB,5,,FHRS,5
166018,,51 Bolton Road Bury,,,Chicken Cottage,Takeaway/sandwich shop,7844,0,,365156,0,,53.59376000000000,24769,405,Foodsafety@bury.gov.uk,Bury,http://www.bury.gov.uk,-2.30970200000000,BL8 2AB,2014-03-06,fhrs_5_en-GB,5,,FHRS,0
166019,,35 Redvales Road,Bury,Greater Manchester,China City,Takeaway/sandwich shop,7844,10,,116051,5,,53.57888400000000,4524,405,Foodsafety@bury.gov.uk,Bury,http://www.bury.gov.uk,-2.29944300000000,BL9 9PU,2011-09-19,fhrs_4_en-GB,4,,FHRS,5
166020,,40 Bolton Street,Ramsbottom,Greater Manchester,China Cottage,Restaurant/Cafe/Canteen,1,5,,91075,5,,53.64782800000000,2502,405,Foodsafety@bury.gov.uk,Bury,http://www.bury.gov.uk,-2.31891700000000,BL0 9HX,2012-07-04,fhrs_5_en-GB,5,,FHRS,5
166021,,13 Thatch Leach Lane,Whitefield,Greater Manchester,China Express,Takeaway/sandwich shop,7844,5,,87058,5,,53.54254700000000,2237,405,Foodsafety@bury.gov.uk,Bury,http://www.bury.gov.uk,-2.28732600000000,M45 6AU,2011-11-23,fhrs_5_en-GB,5,,FHRS,5
166022,,190-194 Bury New Road,Whitefield,,China Lounge,Restaurant/Cafe/Canteen,1,,,568324,,,53.54847200000000,26334,405,Foodsafety@bury.gov.uk,Bury,http://www.bury.gov.uk,-2.29390100000000,M45 6QF,,fhrs_awaitinginspection_en-GB,AwaitingInspection,,FHRS,
166023,,476 Bury Old Road,Prestwich,Greater Manchester,China Palace,Takeaway/sandwich shop,7844,10,,64389,5,,53.53771000000000,1430,405,Foodsafety@bury.gov.uk,Bury,http://www.bury.gov.uk,-2.27632300000000,M25 1NL,2012-07-23,fhrs_4_en-GB,4,,FHRS,5
166024,,17 Market St,Tottington,Bury,China Rose,Restaurant/Cafe/Canteen,1,,,650491,,,53.61434000000000,27084,405,Foodsafety@bury.gov.uk,Bury,http://www.bury.gov.uk,-2.34084000000000,BL8 4AA,,fhrs_awaitinginspection_en-GB,AwaitingInspection,,FHRS,
166025,,369 Brandlesholme Road,Bury,Greater Manchester,ChinaXpress,Takeaway/sandwich shop,7844,0,,117560,0,,53.60871600000000,4679,405,Foodsafety@bury.gov.uk,Bury,http://www.bury.gov.uk,-2.31366500000000,BL8 1HS,2011-03-08,fhrs_5_en-GB,5,,FHRS,0
166026,,171 Radcliffe Road,Bury,Greater Manchester,Chipineer,Takeaway/sandwich shop,7844,5,,115424,5,,53.57936200000000,4462,405,Foodsafety@bury.gov.uk,Bury,http://www.bury.gov.uk,-2.30583500000000,BL9 9LN,2011-09-21,fhrs_5_en-GB,5,,FHRS,5
166027,,115 Blackburn Street,Radcliffe,Manchester,Choices,Takeaway/sandwich shop,7844,5,,591252,5,,53.56180200000000,26616,405,Foodsafety@bury.gov.uk,Bury,http://www.bury.gov.uk,-2.32824900000000,M26 3WQ,2014-11-20,fhrs_5_en-GB,5,,FHRS,5
166028,,468 Bolton Road,Radcliffe,Greater Manchester,Chongs,Takeaway/sandwich shop,7844,10,,91707,5,,53.56377300000000,2547,405,Foodsafety@bury.gov.uk,Bury,http://www.bury.gov.uk,-2.34968800000000,M26 3GG,2014-10-01,fhrs_4_en-GB,4,,FHRS,5
166029,,2 Bury Old Road,Whitefield,Bury,Chop Suey House,Takeaway/sandwich shop,7844,0,,89497,0,,53.53945200000000,23951,405,Foodsafety@bury.gov.uk,Bury,http://www.bury.gov.uk,-2.28081600000000,M45 6TF,2014-12-04,fhrs_5_en-GB,5,,FHRS,0
166030,,5 Hilton Lane,Prestwich,Greater Manchester,Chopsticks House,Restaurant/Cafe/Canteen,1,5,,96451,5,,53.53546900000000,2933,405,Foodsafety@bury.gov.uk,Bury,http://www.bury.gov.uk,-2.27267000000000,M25 8SH,2012-09-17,fhrs_5_en-GB,5,,FHRS,5
166031,,Tommy Lane,Ainsworth,Bolton,Christ Church Ainsworth C of E Primary School,School/college/university,7845,0,,624732,5,,53.58874700000000,1328,405,Foodsafety@bury.gov.uk,Bury,http://www.bury.gov.uk,-2.36040800000000,BL2 5SQ,2013-10-21,fhrs_5_en-GB,5,,FHRS,5
166032,,Church Street,Walshaw,Greater Manchester,Christ Church C E School,School/college/university,7845,0,,624783,5,,53.60333500000000,1567,405,Foodsafety@bury.gov.uk,Bury,http://www.bury.gov.uk,-2.33862000000000,BL8 3AX,2013-06-24,fhrs_5_en-GB,5,,FHRS,0
166033,Bury Interchange,Haymarket Street,Bury,Bury,Chumleys,Restaurant/Cafe/Canteen,1,10,,128474,5,,53.59205600000000,5846,405,Foodsafety@bury.gov.uk,Bury,http://www.bury.gov.uk,-2.29759900000000,,2011-06-17,fhrs_4_en-GB,4,,FHRS,5
166034,,36 Walmersley Road,Bury,Greater Manchester,Chunky Chicken (Bury) ltd,Takeaway/sandwich shop,7844,10,,82847,10,,53.59836800000000,20135,405,Foodsafety@bury.gov.uk,Bury,http://www.bury.gov.uk,-2.28951800000000,BL9 6DP,2014-09-24,fhrs_3_en-GB,3,,FHRS,5
166035,,71 Church Street West,Radcliffe,Bury,Church Street Take-away,Takeaway/sandwich shop,7844,5,,56045,0,,53.56123500000000,1266,405,Foodsafety@bury.gov.uk,Bury,http://www.bury.gov.uk,-2.32202400000000,M26 2SX,2009-05-18,fhrs_5_en-GB,5,,FHRS,0
166036,,21 Water Street,Radcliffe,Greater Manchester,Chutneys,Takeaway/sandwich shop,7844,5,,131889,5,,53.56314700000000,6349,405,Foodsafety@bury.gov.uk,Bury,http://www.bury.gov.uk,-2.32967800000000,M26 3DE,2010-06-15,fhrs_5_en-GB,5,,FHRS,0
166037,,21-23 Church Street West,Radcliffe,"Manchester, Bury",Cinnamon Spice,Takeaway/sandwich shop,7844,10,,89553,0,,53.56022400000000,23997,405,Foodsafety@bury.gov.uk,Bury,http://www.bury.gov.uk,-2.32369200000000,M26 2SP,2011-10-13,fhrs_4_en-GB,4,,FHRS,5
166038,,Unit 9 Longfield Centre,Prestwich,Manchester,CJs Popin Cafe,Restaurant/Cafe/Canteen,1,,,722005,,,,27572,405,Foodsafety@bury.gov.uk,Bury,http://www.bury.gov.uk,,,,fhrs_awaitinginspection_en-GB,AwaitingInspection,,FHRS,
166039,,55A Horne Street,Bury,Greater Manchester,Claire's Sandwich Shop,Takeaway/sandwich shop,7844,5,,85345,5,,53.58487800000000,21452,405,Foodsafety@bury.gov.uk,Bury,http://www.bury.gov.uk,-2.29645000000000,BL9 9BW,2011-10-04,fhrs_5_en-GB,5,,FHRS,5
166040,Peel Monument Hotel,56 Green Street,Radcliffe,Greater Manchester,Clever Clogs,Hospitals/Childcare/Caring Premises,5,5,,189337,5,,53.64337921142578,5660,405,Foodsafety@bury.gov.uk,Bury,http://www.bury.gov.uk,-2.33802795410156,M26 0AE,2011-09-29,fhrs_5_en-GB,5,,FHRS,5
166041,,152 Willow Street,Bury,Greater Manchester,Coffee & Cream,Takeaway/sandwich shop,7844,0,,40266,0,,53.59655000000000,101,405,Foodsafety@bury.gov.uk,Bury,http://www.bury.gov.uk,-2.27542300000000,BL9 7PS,2012-10-03,fhrs_5_en-GB,5,,FHRS,0
166042,,8 Bury Old Road,Whitefield,Bury,Coffee & Spice,Restaurant/Cafe/Canteen,1,5,,87859,0,,53.53945200000000,22876,405,Foodsafety@bury.gov.uk,Bury,http://www.bury.gov.uk,-2.28081600000000,M45 6TF,2012-08-17,fhrs_5_en-GB,5,,FHRS,5
166043,B B's Coffee And Muffins,2 Union Arcade,Bury,Greater Manchester,Coffee Creations,Restaurant/Cafe/Canteen,1,10,,111598,10,,53.59317000000000,4096,405,Foodsafety@bury.gov.uk,Bury,http://www.bury.gov.uk,-2.29439200000000,BL9 0QF,2015-01-28,fhrs_3_en-GB,3,,FHRS,5
166044,,1 St Johns Square,Bury,,Costa Coffee,Restaurant/Cafe/Canteen,1,5,,87935,5,,53.59516500000000,22939,405,Foodsafety@bury.gov.uk,Bury,http://www.bury.gov.uk,-2.29088600000000,BL9 0JL,2010-08-05,fhrs_5_en-GB,5,,FHRS,0
166045,,31 Princess Parade,Bury,Greater Manchester,Costa Coffee,Restaurant/Cafe/Canteen,1,0,,86462,5,,53.59165800000000,22001,405,Foodsafety@bury.gov.uk,Bury,http://www.bury.gov.uk,-2.29527300000000,BL9 0QL,2009-11-02,fhrs_5_en-GB,5,,FHRS,0
166046,,30 Longfield,Prestwich,Bury,Costa Coffee,Restaurant/Cafe/Canteen,1,0,,85030,5,,53.53294500000000,21213,405,Foodsafety@bury.gov.uk,Bury,http://www.bury.gov.uk,-2.28431900000000,M25 1AY,2008-12-22,fhrs_5_en-GB,5,,FHRS,0
166047,Tesco Store,Valley Park Road,Prestwich,Greater Manchester,Costa Coffee,Restaurant/Cafe/Canteen,1,0,,84214,5,,53.53678000000000,20880,405,Foodsafety@bury.gov.uk,Bury,http://www.bury.gov.uk,-2.28930800000000,M25 3TG,2008-08-20,fhrs_5_en-GB,5,,FHRS,5
166048,"Tesco Stores Limited, Woodfield Retail Park",Peel Way,Bury,,Costa Coffee,Restaurant/Cafe/Canteen,1,0,,455403,0,,53.59751900000000,25215,405,Foodsafety@bury.gov.uk,Bury,http://www.bury.gov.uk,-2.29507200000000,BL9 5BY,2012-11-20,fhrs_5_en-GB,5,,FHRS,0
166049,"Unit1, The Radius Building",30 Longfield,Prestwich,Greater Manchester,Croma,Restaurant/Cafe/Canteen,1,0,,135006,5,,53.53294500000000,6853,405,Foodsafety@bury.gov.uk,Bury,http://www.bury.gov.uk,-2.28431900000000,M25 1AY,2014-10-22,fhrs_5_en-GB,5,,FHRS,5
166050,,102 Stand Lane,Radcliffe,Greater Manchester,Crumbs Cafe,Restaurant/Cafe/Canteen,1,5,,115682,5,,53.55645400000000,4488,405,Foodsafety@bury.gov.uk,Bury,http://www.bury.gov.uk,-2.32174600000000,M26 1JU,2012-10-30,fhrs_5_en-GB,5,,FHRS,5
166051,,395-397 Bury New Road,Prestwich,,Cuckoo Cafe Bar,Restaurant/Cafe/Canteen,1,5,,584217,5,,53.53019800000000,26448,405,Foodsafety@bury.gov.uk,Bury,http://www.bury.gov.uk,-2.28310800000000,M25 1AW,2013-09-27,fhrs_5_en-GB,5,,FHRS,5
166052,,16 The Rock,Bury,,Cup `o` Rosie,Restaurant/Cafe/Canteen,1,,,558923,,,53.59352300000000,26195,405,Foodsafety@bury.gov.uk,Bury,http://www.bury.gov.uk,-2.29685800000000,BL9 0NT,,fhrs_awaitinginspection_en-GB,AwaitingInspection,,FHRS,
166053,Red Bank House,Lowe Street,Radcliffe,Manchester,Cuppaccino Bistro,Restaurant/Cafe/Canteen,1,10,,508762,5,,53.56686300000000,25510,405,Foodsafety@bury.gov.uk,Bury,http://www.bury.gov.uk,-2.33780000000000,M26 3PD,2013-01-18,fhrs_4_en-GB,4,,FHRS,0
166054,"Ramsbottom Market, Stall 22",Ramsbottom Market,Ramsbottom,,Curried Away,Takeaway/sandwich shop,7844,,,664411,,,,27142,405,Foodsafety@bury.gov.uk,Bury,http://www.bury.gov.uk,,,,fhrs_awaitinginspection_en-GB,AwaitingInspection,,FHRS,
166055,,67 Sandy Lane,Prestwich,Manchester,Curry Express,Takeaway/sandwich shop,7844,10,,421563,10,,53.52365100000000,24969,405,Foodsafety@bury.gov.uk,Bury,http://www.bury.gov.uk,-2.28831400000000,M25 9PS,2014-07-29,fhrs_2_en-GB,2,,FHRS,15
166056,,42 Whittaker Lane,Prestwich,Greater Manchester,Cygnets to Swans,Hospitals/Childcare/Caring Premises,5,5,,189336,0,,53.52981900000000,6364,405,Foodsafety@bury.gov.uk,Bury,http://www.bury.gov.uk,-2.26830700000000,M25 1FX,2011-11-09,fhrs_5_en-GB,5,,FHRS,5
166057,D.W Sports Fitness,Angouleme Way,Bury,Greater Manchester,D.W Sports Fitness,Restaurant/Cafe/Canteen,1,0,,132736,0,,53.59302100000000,6489,405,Foodsafety@bury.gov.uk,Bury,http://www.bury.gov.uk,-2.29274500000000,BL9 0BB,2013-10-16,fhrs_5_en-GB,5,,FHRS,5
166058,The Lodge,Kay Brow,Ramsbottom,Greater Manchester,Daisy Chains Nursery Group,Hospitals/Childcare/Caring Premises,5,5,,189329,5,,53.64587100000000,3656,405,Foodsafety@bury.gov.uk,Bury,http://www.bury.gov.uk,-2.31790400000000,BL0 9AY,2014-04-15,fhrs_5_en-GB,5,,FHRS,5
166059,,22 Parkhill Road,Bury,,Daphne's,Takeaway/sandwich shop,7844,,,365161,,,53.58327400000000,24830,405,Foodsafety@bury.gov.uk,Bury,http://www.bury.gov.uk,-2.29779800000000,BL9 9AX,,fhrs_awaitinginspection_en-GB,AwaitingInspection,,FHRS,
166060,,3 St Johns Square,Bury,,Debenhams,Restaurant/Cafe/Canteen,1,0,,87986,0,,53.59516500000000,22968,405,Foodsafety@bury.gov.uk,Bury,http://www.bury.gov.uk,-2.29088600000000,BL9 0JL,2011-11-03,fhrs_5_en-GB,5,,FHRS,0
166061,,8A Silver Street,Bury,Greater Manchester,Delicious,Takeaway/sandwich shop,7844,0,,94050,5,,53.59298800000000,2725,405,Foodsafety@bury.gov.uk,Bury,http://www.bury.gov.uk,-2.29884800000000,BL9 0EX,2013-03-13,fhrs_5_en-GB,5,,FHRS,5
166062,,Fusiliers Museum,Moss St,Bury,Delicious,Restaurant/Cafe/Canteen,1,5,,283349,0,,53.59197998046875,24712,405,Foodsafety@bury.gov.uk,Bury,http://www.bury.gov.uk,-2.29873991012573,,2012-11-20,fhrs_5_en-GB,5,,FHRS,0
166063,,123 Bury Old Road,Whitefield,Manchester,Delicious Baps,Takeaway/sandwich shop,7844,,,722004,,,53.54209500000000,27565,405,Foodsafety@bury.gov.uk,Bury,http://www.bury.gov.uk,-2.28815200000000,M45 7AY,,fhrs_awaitinginspection_en-GB,AwaitingInspection,,FHRS,
166064,,74 Water St,Radcliffe,Bury,Dhaka Junction,Takeaway/sandwich shop,7844,20,,508771,10,,53.56391500000000,25571,405,Foodsafety@bury.gov.uk,Bury,http://www.bury.gov.uk,-2.33131500000000,M26 4DF,2013-04-04,fhrs_1_en-GB,1,,FHRS,5
166065,,9 Broad Street,Bury,Bury,Ditto Bistro,Restaurant/Cafe/Canteen,1,5,,89251,0,,53.59274700000000,23788,405,Foodsafety@bury.gov.uk,Bury,http://www.bury.gov.uk,-2.29818200000000,BL9 0DA,2011-05-24,fhrs_5_en-GB,5,,FHRS,5
166066,,17 Bolton Street,Bury,,Dixy Chicken,Takeaway/sandwich shop,7844,5,,129801,10,,53.59335400000000,6077,405,Foodsafety@bury.gov.uk,Bury,http://www.bury.gov.uk,-2.29974200000000,BL9 0EY,2011-10-07,fhrs_3_en-GB,3,,FHRS,10
166067,,47 Blackburn Street,Radcliffe,Greater Manchester,Dominicks,Restaurant/Cafe/Canteen,1,5,,80387,5,,53.55959600000000,1946,405,Foodsafety@bury.gov.uk,Bury,http://www.bury.gov.uk,-2.32637500000000,M26 1NR,2014-10-22,fhrs_5_en-GB,5,,FHRS,5
166068,Elms Square,Unit 3 Bury New Road,Whitefield,Bury,Dominos Pizza,Takeaway/sandwich shop,7844,0,,87072,0,,53.53546900000000,22371,405,Foodsafety@bury.gov.uk,Bury,http://www.bury.gov.uk,-2.27267000000000,M25 7TA,2012-10-09,fhrs_5_en-GB,5,,FHRS,0
166069,,36 Bury New Road,Prestwich,Greater Manchester,Domino's Pizza,Takeaway/sandwich shop,7844,5,,87032,0,,53.51833300000000,2235,405,Foodsafety@bury.gov.uk,Bury,http://www.bury.gov.uk,-2.27147700000000,M25 0LD,2013-01-22,fhrs_5_en-GB,5,,FHRS,5
166070,,89a Bolton Road,Bury,,Dominos Pizza Store,Takeaway/sandwich shop,7844,0,,132420,5,,53.59265900000000,6439,405,Foodsafety@bury.gov.uk,Bury,http://www.bury.gov.uk,-2.31143100000000,BL8 2AH,2010-08-16,fhrs_5_en-GB,5,,FHRS,5
166071,,17-19 Water Street,Radcliffe,Greater Manchester,Dragon & Phoenix,Takeaway/sandwich shop,7844,5,,121846,0,,53.56314700000000,5047,405,Foodsafety@bury.gov.uk,Bury,http://www.bury.gov.uk,-2.32967800000000,M26 3DE,2012-12-03,fhrs_4_en-GB,4,,FHRS,10
166072,,329 Bury New Road,Whitefield,Manchester,Dragon Palace,Takeaway/sandwich shop,7844,20,,710014,10,,53.55454100000000,27435,405,Foodsafety@bury.gov.uk,Bury,http://www.bury.gov.uk,-2.29702200000000,M45 7SE,2014-10-15,fhrs_1_en-GB,1,,FHRS,10
166073,,416 Whalley Road,Shuttleworth,"Ramsbottom, Greater Manchester",Duckworth Arms,Pub/bar/nightclub,7843,0,,84135,5,,53.66019100000000,2082,405,Foodsafety@bury.gov.uk,Bury,http://www.bury.gov.uk,-2.30333400000000,BL0 0EG,2008-09-09,fhrs_5_en-GB,5,,FHRS,0
166074,,89b Bolton Road,Bury,,Dynamic Deserts Pattisserie,Takeaway/sandwich shop,7844,5,,591249,5,,53.59265900000000,26545,405,Foodsafety@bury.gov.uk,Bury,http://www.bury.gov.uk,-2.31143100000000,BL8 2AH,2013-11-13,fhrs_5_en-GB,5,,FHRS,5
166075,,3 Whalley Road,Ramsbottom,Bury,Eagle and Child,Pub/bar/nightclub,7843,5,,263686,5,,53.64800100000000,24709,405,Foodsafety@bury.gov.uk,Bury,http://www.bury.gov.uk,-2.30397200000000,BL0 0DL,2012-07-11,fhrs_5_en-GB,5,,FHRS,5
166076,Bolton Street Station,Bolton Street,Bury,Greater Manchester,East Lancs Railway(Diner Train,Restaurant/Cafe/Canteen,1,5,,111755,5,,53.59335400000000,4106,405,Foodsafety@bury.gov.uk,Bury,http://www.bury.gov.uk,-2.29974200000000,BL9 0EY,2011-04-15,fhrs_4_en-GB,4,,FHRS,10
166077,East Ward County Primary Schoo,Willow Street,Bury,Greater Manchester,East Ward Community P.School,School/college/university,7845,5,,624767,0,,53.59411200000000,1528,405,Foodsafety@bury.gov.uk,Bury,http://www.bury.gov.uk,-2.27619300000000,BL9 7QZ,2014-01-23,fhrs_5_en-GB,5,,FHRS,0
166078,,117 Bury New Road,Whitefield,Manchester,East z East,Restaurant/Cafe/Canteen,1,,,632343,,,53.54568100000000,26920,405,Foodsafety@bury.gov.uk,Bury,http://www.bury.gov.uk,-2.29225200000000,M45 6AA,,fhrs_awaitinginspection_en-GB,AwaitingInspection,,FHRS,
166079,,38 Bolton Street,Ramsbottom,Bury,Eastern Eye,Restaurant/Cafe/Canteen,1,10,,80759,10,,53.64782800000000,1960,405,Foodsafety@bury.gov.uk,Bury,http://www.bury.gov.uk,-2.31891700000000,BL0 9HX,2010-03-04,fhrs_3_en-GB,3,,FHRS,10
166080,,unit 6/7 Albert works,,,Eat Smart,Restaurant/Cafe/Canteen,1,5,,89313,5,,53.59747500000000,23823,405,Foodsafety@bury.gov.uk,Bury,http://www.bury.gov.uk,-2.28709400000000,BL9 6AH,2011-08-08,fhrs_5_en-GB,5,,FHRS,5
166081,Mental Health Services Of Salf,Bury New Road,Prestwich,Greater Manchester,Edenfield Centre Cafe,Restaurant/Cafe/Canteen,1,5,,126124,5,,53.53546900000000,5499,405,Foodsafety@bury.gov.uk,Bury,http://www.bury.gov.uk,-2.27267000000000,M25 7BL,2010-04-27,fhrs_5_en-GB,5,,FHRS,5
166082,Millbank,Pilkington Way,Radcliffe,Greater Manchester,Educare for Early Years,Hospitals/Childcare/Caring Premises,5,5,,189317,5,,53.55788400000000,6297,405,Foodsafety@bury.gov.uk,Bury,http://www.bury.gov.uk,-2.32461000000000,M26 1AJ,2011-09-27,fhrs_5_en-GB,5,,FHRS,0
166083,"Units 1 And 2, Boholt Works",Walshaw Road,Bury,Greater Manchester,Educare for Early Years,Hospitals/Childcare/Caring Premises,5,5,,189332,5,,53.60108100000000,3848,405,Foodsafety@bury.gov.uk,Bury,http://www.bury.gov.uk,-2.32522900000000,BL8 1PL,2013-02-27,fhrs_5_en-GB,5,,FHRS,0
166084,,40 Bury New Road,Prestwich,Greater Manchester,El Greco Deli,Restaurant/Cafe/Canteen,1,20,,127923,10,,53.51833300000000,5758,405,Foodsafety@bury.gov.uk,Bury,http://www.bury.gov.uk,-2.27147700000000,M25 0LD,2011-06-15,fhrs_1_en-GB,1,,FHRS,5
166085,,3 Radcliffe New Road,Whitefield,Manchester,El Paso Pizza,Takeaway/sandwich shop,7844,,,485821,,,53.55357600000000,25422,405,Foodsafety@bury.gov.uk,Bury,http://www.bury.gov.uk,-2.29805700000000,M45 7QX,,fhrs_awaitinginspection_en-GB,AwaitingInspection,,FHRS,
166086,,22 Bolton Street,Ramsbottom,Bury,Electic Housewares,Takeaway/sandwich shop,7844,,,710015,,,53.64782800000000,27473,405,Foodsafety@bury.gov.uk,Bury,http://www.bury.gov.uk,-2.31891700000000,BL0 9HX,,fhrs_awaitinginspection_en-GB,AwaitingInspection,,FHRS,
166087,Kingfisher Park,Aviation Rd,,Bury,Elisha's canteen,Restaurant/Cafe/Canteen,1,5,,624784,5,,53.57098500000000,22420,405,Foodsafety@bury.gov.uk,Bury,http://www.bury.gov.uk,-2.26840100000000,BL9 8GD,2013-07-16,fhrs_5_en-GB,5,,FHRS,5
166088,,147-155 Walshaw Road,Bury,Greater Manchester,Elizabeth House,Hospitals/Childcare/Caring Premises,5,0,,263708,0,,53.59836100000000,2239,405,Foodsafety@bury.gov.uk,Bury,http://www.bury.gov.uk,-2.31703300000000,BL8 1NH,2014-10-21,fhrs_5_en-GB,5,,FHRS,5
166089,,Whalley Road,Whitefield,Greater Manchester,Elmhurst Elderley Peoples Home,Hospitals/Childcare/Caring Premises,5,0,,263728,5,,53.55571100000000,2276,405,Foodsafety@bury.gov.uk,Bury,http://www.bury.gov.uk,-2.28868300000000,M45 8WZ,2011-05-09,fhrs_5_en-GB,5,,FHRS,5
166090,Elton County Primary School,Alston Street,Bury,Greater Manchester,Elton C P School,School/college/university,7845,0,,650483,0,,53.59936700000000,1498,405,Foodsafety@bury.gov.uk,Bury,http://www.bury.gov.uk,-2.31743400000000,BL8 1SB,2014-03-06,fhrs_5_en-GB,5,,FHRS,5
166091,,93 The Rock,Bury,Greater Manchester,Emerson's,Restaurant/Cafe/Canteen,1,5,,127529,5,,53.59465300000000,5692,405,Foodsafety@bury.gov.uk,Bury,http://www.bury.gov.uk,-2.29441800000000,BL9 0NB,2012-06-19,fhrs_5_en-GB,5,,FHRS,0
166092,,12 'margaret block',Outdoor Bury Market,,Emma Scott & Peter Whipp,Restaurant/Cafe/Canteen,1,,,728999,,,,27561,405,Foodsafety@bury.gov.uk,Bury,http://www.bury.gov.uk,,,,fhrs_awaitinginspection_en-GB,AwaitingInspection,,FHRS,
166093,Emmanuael Church Of England Pr,Helmshore Road,Ramsbottom,Greater Manchester,Emmanuel C E Primary School,School/college/university,7845,0,,624742,5,,53.64648500000000,1483,405,Foodsafety@bury.gov.uk,Bury,http://www.bury.gov.uk,-2.32999600000000,BL8 4PA,2013-05-16,fhrs_5_en-GB,5,,FHRS,5
166094,"Market Hall, Shop 27-28",Bury Market,Murray Road,Bury,English Farm Foods,Restaurant/Cafe/Canteen,1,10,,55386,5,,53.59098400000000,125,405,Foodsafety@bury.gov.uk,Bury,http://www.bury.gov.uk,-2.29528400000000,BL9 0BJ,2014-04-29,fhrs_4_en-GB,4,,FHRS,5
166095,,34 Bridge Street,Ramsbottom,Greater Manchester,Entwistles Delicatessen,Takeaway/sandwich shop,7844,5,,90107,5,,53.64805000000000,244,405,Foodsafety@bury.gov.uk,Bury,http://www.bury.gov.uk,-2.31628700000000,BL0 9AQ,2014-12-04,fhrs_5_en-GB,5,,FHRS,5
166096,Epworth Grange,1 Chirmside Street,Bury,Greater Manchester,Epworth Grange,Hospitals/Childcare/Caring Premises,5,0,,263703,5,,53.58701400000000,2882,405,Foodsafety@bury.gov.uk,Bury,http://www.bury.gov.uk,-2.32179700000000,BL8 2BX,2014-10-15,fhrs_5_en-GB,5,,FHRS,0
166097,Heathlands,Heathlands Drive,Prestwich,Greater Manchester,Eventhall House,Hospitals/Childcare/Caring Premises,5,5,,263697,0,,53.51764600000000,4883,405,Foodsafety@bury.gov.uk,Bury,http://www.bury.gov.uk,-2.28121500000000,M25 9SB,2010-03-11,fhrs_5_en-GB,5,,FHRS,0
166098,,Rochdale Old Road,Bury,Greater Manchester,Fairfield County Primary School,School/college/university,7845,5,,673154,0,,53.60000300000000,1520,405,Foodsafety@bury.gov.uk,Bury,http://www.bury.gov.uk,-2.26276800000000,BL9 7SD,2014-10-09,fhrs_5_en-GB,5,,FHRS,5
166099,,Rochdale Old Road,Bury,Greater Manchester,Fairfield General Hospital,Restaurant/Cafe/Canteen,1,5,,93904,5,,53.60051300000000,2711,405,Foodsafety@bury.gov.uk,Bury,http://www.bury.gov.uk,-2.25535200000000,BL9 7TD,2014-03-04,fhrs_5_en-GB,5,,FHRS,5
166100,,Broad Oak Terrace,Bury,Greater Manchester,Fairfields Private Day Nursery,Hospitals/Childcare/Caring Premises,5,5,,189296,0,,53.59878700000000,3084,405,Foodsafety@bury.gov.uk,Bury,http://www.bury.gov.uk,-2.25408000000000,,2014-12-12,fhrs_5_en-GB,5,,FHRS,5
166101,Village Leisure Hotel,George Street,Prestwich,Greater Manchester,Fairways Lodge and Leisure Hotel,Hotel/bed & breakfast/guest house,7842,5,,92301,0,,53.51855100000000,2598,405,Foodsafety@bury.gov.uk,Bury,http://www.bury.gov.uk,-2.27464500000000,M25 9WS,2014-10-21,fhrs_5_en-GB,5,,FHRS,5
166102,,Orrell Street,Bury,,First Steps Nursery Bury Ltd,Hospitals/Childcare/Caring Premises,5,5,,189316,5,,53.59704500000000,4583,405,Foodsafety@bury.gov.uk,Bury,http://www.bury.gov.uk,-2.31152400000000,BL8 1PB,2013-07-18,fhrs_5_en-GB,5,,FHRS,5
166103,,144 Willow Street,Bury,Greater Manchester,Fish Chip N Dip,Takeaway/sandwich shop,7844,10,,86007,10,,53.59655000000000,2183,405,Foodsafety@bury.gov.uk,Bury,http://www.bury.gov.uk,-2.27542300000000,BL9 7PS,2009-11-20,fhrs_3_en-GB,3,,FHRS,10
166104,,25 Dorset Drive,Bury,Greater Manchester,Fisherfield Farm Nursery,Hospitals/Childcare/Caring Premises,5,0,,189310,0,,53.58499000000000,6444,405,Foodsafety@bury.gov.uk,Bury,http://www.bury.gov.uk,-2.28723600000000,BL9 9DN,2014-11-14,fhrs_5_en-GB,5,,FHRS,0
166105,Bury College,Market Street,Bury,Bury,Fisherfield Farm Nursery,Hospitals/Childcare/Caring Premises,5,0,,189303,0,,53.59011800000000,6150,405,Foodsafety@bury.gov.uk,Bury,http://www.bury.gov.uk,-2.29648600000000,BL9 0BG,2015-01-26,fhrs_5_en-GB,5,,FHRS,0
166106,,18 Parkhills Road,Bury,,Fishpool's Fish & Chips Ltd,Takeaway/sandwich shop,7844,5,,365159,5,,53.58327400000000,24790,405,Foodsafety@bury.gov.uk,Bury,http://www.bury.gov.uk,-2.29779800000000,BL9 9AX,2013-01-25,fhrs_5_en-GB,5,,FHRS,5
166107,,453 Bury New Road,Prestwich,"Manchester, Bury",Five,Takeaway/sandwich shop,7844,5,,89776,5,,53.53209000000000,24139,405,Foodsafety@bury.gov.uk,Bury,http://www.bury.gov.uk,-2.28488600000000,M25 1AF,2011-11-03,fhrs_5_en-GB,5,,FHRS,5
166108,,280 Stand Lane,Radcliffe,Bury,Food Delights,Takeaway/sandwich shop,7844,0,,88377,0,,53.55100900000000,23118,405,Foodsafety@bury.gov.uk,Bury,http://www.bury.gov.uk,-2.31412800000000,M26 1JE,2011-04-20,fhrs_5_en-GB,5,,FHRS,5
166109,,17 Deansgate,Radcliffe,Manchester,Food Time Cafe,Restaurant/Cafe/Canteen,1,5,,528665,5,,53.55961000000000,25783,405,Foodsafety@bury.gov.uk,Bury,http://www.bury.gov.uk,-2.32474400000000,M26 2SH,2013-05-20,fhrs_5_en-GB,5,,FHRS,5
166110,,5 Radcliffe New Road,Whitefield,Greater Manchester,Forts Express Ltd,Takeaway/sandwich shop,7844,10,,129010,5,,53.55357600000000,5937,405,Foodsafety@bury.gov.uk,Bury,http://www.bury.gov.uk,-2.29805700000000,M45 7QX,2011-01-20,fhrs_3_en-GB,3,,FHRS,10
166111,,7 Radcliffe New Road,Whitefield,Greater Manchester,Forts Of India,Restaurant/Cafe/Canteen,1,5,,80896,5,,53.55357600000000,1967,405,Foodsafety@bury.gov.uk,Bury,http://www.bury.gov.uk,-2.29805700000000,M45 7QX,2011-10-26,fhrs_5_en-GB,5,,FHRS,5
166112,,263 Bury Old Road,Prestwich,Greater Manchester,Fortune House,Takeaway/sandwich shop,7844,10,,135469,10,,53.53290300000000,692,405,Foodsafety@bury.gov.uk,Bury,http://www.bury.gov.uk,-2.26772300000000,M25 1JA,2010-08-19,fhrs_3_en-GB,3,,FHRS,10
166113,,Tenters Street,Bury,Greater Manchester,Foundations for Learning,Hospitals/Childcare/Caring Premises,5,0,,189321,0,,53.59233500000000,3972,405,Foodsafety@bury.gov.uk,Bury,http://www.bury.gov.uk,-2.30476600000000,BL9 0HL,2011-10-11,fhrs_5_en-GB,5,,FHRS,5
166114,Unit 1,Factory Street,Ramsbottom,Greater Manchester,Foundations for Learning,Hospitals/Childcare/Caring Premises,5,0,,189304,5,,53.65032300000000,2959,405,Foodsafety@bury.gov.uk,Bury,http://www.bury.gov.uk,-2.31668200000000,BL0 9BT,2014-04-10,fhrs_5_en-GB,5,,FHRS,5
166115,,123 Bury Old Road,Whitefield,Manchester,Foxys Sandwich Shop,Takeaway/sandwich shop,7844,,,729002,,,53.54209500000000,27580,405,Foodsafety@bury.gov.uk,Bury,http://www.bury.gov.uk,-2.28815200000000,M45 7AY,,fhrs_awaitinginspection_en-GB,AwaitingInspection,,FHRS,
166116,,15-17 Rock Place,Bury,,Frankie & Benny's,Restaurant/Cafe/Canteen,1,0,,87727,5,,53.59859300000000,22769,405,Foodsafety@bury.gov.uk,Bury,http://www.bury.gov.uk,-2.27935100000000,BL9 0KX,2010-08-03,fhrs_5_en-GB,5,,FHRS,5
166117,,91a Church Street West Radcliffe,,,Fresh,Restaurant/Cafe/Canteen,1,10,,89213,5,,53.56123500000000,23757,405,Foodsafety@bury.gov.uk,Bury,http://www.bury.gov.uk,-2.32202400000000,M26 2SX,2011-07-28,fhrs_4_en-GB,4,,FHRS,5
166118,"Princess Block, Stall 3/4/5/6",Bury Market,Murray Road,Bury,Fresh & Tasty,Restaurant/Cafe/Canteen,1,5,,80194,5,,53.59098400000000,1939,405,Foodsafety@bury.gov.uk,Bury,http://www.bury.gov.uk,-2.29528400000000,BL9 0BJ,2012-09-04,fhrs_5_en-GB,5,,FHRS,5
166119,,33a Taylor Street,Bury,,Fresh Bites,Restaurant/Cafe/Canteen,1,20,,707124,5,,53.59875900000000,27423,405,Foodsafety@bury.gov.uk,Bury,http://www.bury.gov.uk,-2.28785800000000,BL9 6DT,2014-10-07,fhrs_1_en-GB,1,,FHRS,15
166120,"Wyndham Block, Stall 31,32,40",Bury Market,Murray Road,Bury,Fresh Bites Cafe,Restaurant/Cafe/Canteen,1,,,528661,,,53.59098400000000,25607,405,Foodsafety@bury.gov.uk,Bury,http://www.bury.gov.uk,-2.29528400000000,BL90BJ,,fhrs_awaitinginspection_en-GB,AwaitingInspection,,FHRS,
166121,The Old Printworks,Earl Street,Prestwich,Greater Manchester,Friesner Nurseries,Hospitals/Childcare/Caring Premises,5,5,,189302,10,,53.53546900000000,3034,405,Foodsafety@bury.gov.uk,Bury,http://www.bury.gov.uk,-2.27267000000000,M25 5EQ,2013-10-28,fhrs_4_en-GB,4,,FHRS,5
166122,,11 Victoria Square,Whitefield,Greater Manchester,Frying Squad,Takeaway/sandwich shop,7844,5,,86920,5,,53.54476000000000,2228,405,Foodsafety@bury.gov.uk,Bury,http://www.bury.gov.uk,-2.29014800000000,M45 6AL,2012-12-18,fhrs_5_en-GB,5,,FHRS,5
166123,,291 Middleton Road,Manchester,,Fu Kwai Chinese Takeaway,Takeaway/sandwich shop,7844,5,,63695,10,,53.51358100000000,1406,405,Foodsafety@bury.gov.uk,Bury,http://www.bury.gov.uk,-2.23862000000000,M8 6LY,2014-07-08,fhrs_4_en-GB,4,,FHRS,5
166124,,51 Walmersley Road,Bury,Greater Manchester,Fungry Chinese Takeaway,Takeaway/sandwich shop,7844,20,,86240,15,,53.59808800000000,2199,405,Foodsafety@bury.gov.uk,Bury,http://www.bury.gov.uk,-2.29001500000000,BL9 5AE,2014-09-24,fhrs_1_en-GB,1,,FHRS,15
166125,,Kenyon Street Radcliffe,,,Funtastic,Restaurant/Cafe/Canteen,1,5,,89143,5,,53.55917600000000,23716,405,Foodsafety@bury.gov.uk,Bury,http://www.bury.gov.uk,-2.32234100000000,M26 1NF,2013-02-04,fhrs_5_en-GB,5,,FHRS,5
166126,Ground Floor,67 Bury Road,Tottington,Bury,Get Stuffed,Takeaway/sandwich shop,7844,,,650484,,,53.60997800000000,26952,405,Foodsafety@bury.gov.uk,Bury,http://www.bury.gov.uk,-2.33548400000000,BL8 3EU,,fhrs_awaitinginspection_en-GB,AwaitingInspection,,FHRS,
166127,"Toulmin Block, Stall 19/20",Bury Market,Murray Road,Bury,GJ's,Restaurant/Cafe/Canteen,1,,,650485,,,53.59098400000000,27014,405,Foodsafety@bury.gov.uk,Bury,http://www.bury.gov.uk,-2.29528400000000,BL9 0BJ,,fhrs_awaitinginspection_en-GB,AwaitingInspection,,FHRS,
166128,,167 Rochdale Road,Bury,,Go Pizza Go,Takeaway/sandwich shop,7844,,,365158,,,53.59300800000000,24782,405,Foodsafety@bury.gov.uk,Bury,http://www.bury.gov.uk,-2.28340800000000,BL9 7BB,,fhrs_awaitinginspection_en-GB,AwaitingInspection,,FHRS,
166129,,5 Crompton Street,Bury,,Go Wild Activity Centre,Restaurant/Cafe/Canteen,1,0,,421564,5,,53.59322700000000,24972,405,Foodsafety@bury.gov.uk,Bury,http://www.bury.gov.uk,-2.29670400000000,BL9 0AD,2012-08-22,fhrs_5_en-GB,5,,FHRS,5
166130,,479 Bury New Rd,Preswich,,Godfather,Takeaway/sandwich shop,7844,,,710016,,,,27474,405,Foodsafety@bury.gov.uk,Bury,http://www.bury.gov.uk,,,,fhrs_awaitinginspection_en-GB,AwaitingInspection,,FHRS,
166131,,4 Chapel Street,Tottington,Greater Manchester,Golden City,Takeaway/sandwich shop,7844,5,,86744,5,,53.61526400000000,2218,405,Foodsafety@bury.gov.uk,Bury,http://www.bury.gov.uk,-2.34148200000000,BL8 4AL,2011-10-13,fhrs_5_en-GB,5,,FHRS,5
166132,,50 Bury Old Road,Whitefield,Greater Manchester,"Golden Crown, Chinese Takeaway",Takeaway/sandwich shop,7844,5,,86978,5,,53.53995000000000,2231,405,Foodsafety@bury.gov.uk,Bury,http://www.bury.gov.uk,-2.28300700000000,M45 6TL,2012-02-06,fhrs_5_en-GB,5,,FHRS,5
166133,,38 Bury Road,Tottington,Greater Manchester,Golden Eagle,Takeaway/sandwich shop,7844,5,,86725,0,,53.61031400000000,2216,405,Foodsafety@bury.gov.uk,Bury,http://www.bury.gov.uk,-2.33730100000000,BL8 3HB,2011-09-22,fhrs_4_en-GB,4,,FHRS,10
166134,,29 Whittaker Lane,Prestwich,Greater Manchester,GOLDEN FISH,Takeaway/sandwich shop,7844,10,,118847,10,,53.52952200000000,4812,405,Foodsafety@bury.gov.uk,Bury,http://www.bury.gov.uk,-2.26815400000000,M25 1HA,2014-10-23,fhrs_2_en-GB,2,,FHRS,15
166135,,121 Tottington Road,Bury,Greater Manchester,Golden Fish,Takeaway/sandwich shop,7844,5,,86676,5,,53.59844500000000,2213,405,Foodsafety@bury.gov.uk,Bury,http://www.bury.gov.uk,-2.31233500000000,BL8 1LN,2011-10-11,fhrs_5_en-GB,5,,FHRS,5
166136,,32 Stand Lane,Radcliffe,Greater Manchester,Golden Kylin,Restaurant/Cafe/Canteen,1,5,,80815,5,,53.55785200000000,1963,405,Foodsafety@bury.gov.uk,Bury,http://www.bury.gov.uk,-2.32337200000000,M26 1LJ,2011-04-20,fhrs_5_en-GB,5,,FHRS,5
166137,,315 Bolton Road,Bury,Greater Manchester,Golden Moon,Takeaway/sandwich shop,7844,0,,43822,0,,53.58846700000000,1066,405,Foodsafety@bury.gov.uk,Bury,http://www.bury.gov.uk,-2.31955800000000,BL8 2PD,2014-10-22,fhrs_5_en-GB,5,,FHRS,0
166138,,75 Pilkington Road,Radcliffe,Greater Manchester,Golden Phoenix,Takeaway/sandwich shop,7844,20,,56139,10,,53.56938300000000,1268,405,Foodsafety@bury.gov.uk,Bury,http://www.bury.gov.uk,-2.33982900000000,M26 4QA,2015-01-07,fhrs_1_en-GB,1,,FHRS,10
166139,,105 Bolton Road,Bury,Greater Manchester,Golden Phoenix,Takeaway/sandwich shop,7844,5,,132505,5,,53.59135900000000,6449,405,Foodsafety@bury.gov.uk,Bury,http://www.bury.gov.uk,-2.31359700000000,BL8 2NW,2011-10-04,fhrs_5_en-GB,5,,FHRS,5
166140,,317 Bury New Rd Whitefield,,,Good Food,Takeaway/sandwich shop,7844,5,,409984,0,,53.55454100000000,24895,405,Foodsafety@bury.gov.uk,Bury,http://www.bury.gov.uk,-2.29702200000000,M45 7SE,2012-09-05,fhrs_5_en-GB,5,,FHRS,0
166141,,Robertson Street,Radcliffe,Greater Manchester,Gorsefield County Primary,School/college/university,7845,5,,624773,0,,,1538,405,Foodsafety@bury.gov.uk,Bury,http://www.bury.gov.uk,,M26 0DW,2013-09-19,fhrs_5_en-GB,5,,FHRS,0
166142,Gorsey Clough Nursing Home,Harwood Road,Bury,Greater Manchester,Gorsey Clough Nursing Home,Hospitals/Childcare/Caring Premises,5,5,,263691,5,,53.61162500000000,2476,405,Foodsafety@bury.gov.uk,Bury,http://www.bury.gov.uk,-2.35649200000000,BL8 3PT,2014-10-25,fhrs_5_en-GB,5,,FHRS,0
166143,,24 Tennyson Avenue,Bury,,Goshen Chippy,Takeaway/sandwich shop,7844,20,,710018,10,,53.57528600000000,27483,405,Foodsafety@bury.gov.uk,Bury,http://www.bury.gov.uk,-2.29334700000000,BL9 9RF,2014-10-27,fhrs_1_en-GB,1,,FHRS,5
166144,,Tennyson Avenue Bury,,,Goshen Community Cafe,Restaurant/Cafe/Canteen,1,,,89629,,,53.57576100000000,24013,405,Foodsafety@bury.gov.uk,Bury,http://www.bury.gov.uk,-2.29010300000000,BL9 9RG,,fhrs_awaitinginspection_en-GB,AwaitingInspection,,FHRS,
166145,,18 Tennyson Avenue,Bury,,Goshen Spice,Takeaway/sandwich shop,7844,5,,683511,0,,53.57528600000000,27281,405,Foodsafety@bury.gov.uk,Bury,http://www.bury.gov.uk,-2.29334700000000,BL9 9RF,2014-07-17,fhrs_5_en-GB,5,,FHRS,0
166146,,103 Moss Lane,Whitefield,Manchester,Great Wall,Takeaway/sandwich shop,7844,,,650488,,,53.55061800000000,27066,405,Foodsafety@bury.gov.uk,Bury,http://www.bury.gov.uk,-2.28739500000000,M45 8DZ,,fhrs_awaitinginspection_en-GB,AwaitingInspection,,FHRS,
166147,,Greenhill Road,Bury,Greater Manchester,Greenhill County Primary School,School/college/university,7845,5,,624757,0,,53.59032600000000,1510,405,Foodsafety@bury.gov.uk,Bury,http://www.bury.gov.uk,-2.32694400000000,BL8 2LJ,2013-06-26,fhrs_4_en-GB,4,,FHRS,10
166148,,Greenhalgh Fold Farm,Greenmount,,Greenmount Golf Club Ltd,Restaurant/Cafe/Canteen,1,5,,150290,5,,53.62614500000000,979,405,Foodsafety@bury.gov.uk,Bury,http://www.bury.gov.uk,-2.34597000000000,BL8 4LH,2011-07-07,fhrs_5_en-GB,5,,FHRS,5
166149,,Holhouse Lane,Tottington,Greater Manchester,Greenmount Primary School,School/college/university,7845,5,,624769,5,,53.62827400000000,1532,405,Foodsafety@bury.gov.uk,Bury,http://www.bury.gov.uk,-2.34013600000000,BL8 4HD,2013-06-20,fhrs_5_en-GB,5,,FHRS,5
166150,"Hollymount Nursery, Brick Barn",Whipney Lane,Tottington,Greater Manchester,Greenmount Private Nursery,Hospitals/Childcare/Caring Premises,5,0,,189309,5,,53.62655800000000,2478,405,Foodsafety@bury.gov.uk,Bury,http://www.bury.gov.uk,-2.34610900000000,BL8 4HT,2011-10-20,fhrs_5_en-GB,5,,FHRS,5
166151,,22 Central Street,The Rock,Bury,Greggs,Takeaway/sandwich shop,7844,5,,455406,0,,53.59506300000000,25245,405,Foodsafety@bury.gov.uk,Bury,http://www.bury.gov.uk,-2.29207900000000,BL9 0JN,2013-11-27,fhrs_5_en-GB,5,,FHRS,5
166152,,531 Manchester Road,Bury,Greater Manchester,Greggs,Takeaway/sandwich shop,7844,0,,86189,0,,53.57207400000000,21957,405,Foodsafety@bury.gov.uk,Bury,http://www.bury.gov.uk,-2.29438200000000,BL9 9SH,2011-11-03,fhrs_5_en-GB,5,,FHRS,0
166153,,22 The Mall,Bury,,Greggs Bakery,Takeaway/sandwich shop,7844,,,516761,,,53.59240300000000,25625,405,Foodsafety@bury.gov.uk,Bury,http://www.bury.gov.uk,-2.29538400000000,BL9 0QQ,,fhrs_awaitinginspection_en-GB,AwaitingInspection,,FHRS,
166154,,Leigh Lane,Bury,Greater Manchester,Guardian Angels R C Primary Sc,School/college/university,7845,0,,624758,0,,53.59689900000000,1513,405,Foodsafety@bury.gov.uk,Bury,http://www.bury.gov.uk,-2.31915300000000,BL8 2RH,2013-10-04,fhrs_5_en-GB,5,,FHRS,0
166155,,20 Bank Street,Tottington,Bury,Gusto Deli,Takeaway/sandwich shop,7844,,,584218,,,53.60240900000000,26470,405,Foodsafety@bury.gov.uk,Bury,http://www.bury.gov.uk,-2.33880900000000,BL8 3AZ,,fhrs_awaitinginspection_en-GB,AwaitingInspection,,FHRS,
166156,,Higher Ainsworth Road,Radcliffe,Greater Manchester,Half Acre Care Home,Hospitals/Childcare/Caring Premises,5,5,,263714,5,,53.57726300000000,2867,405,Foodsafety@bury.gov.uk,Bury,http://www.bury.gov.uk,-2.34084300000000,M26 4JH,2012-09-06,fhrs_5_en-GB,5,,FHRS,0
166157,,366 Manchester Road,Ramsbottom,Bury,Half Way House,Restaurant/Cafe/Canteen,1,5,,80335,5,,53.63838500000000,1944,405,Foodsafety@bury.gov.uk,Bury,http://www.bury.gov.uk,-2.30343400000000,BL9 5NJ,2014-12-12,fhrs_5_en-GB,5,,FHRS,5
166158,5 Park Hill,Bury Old Road,Prestwich,Manchester,Halperns,Restaurant/Cafe/Canteen,1,,,508763,,,53.51877400000000,25511,405,Foodsafety@bury.gov.uk,Bury,http://www.bury.gov.uk,-2.25911200000000,M25 0FX,,fhrs_awaitinginspection_en-GB,AwaitingInspection,,FHRS,
166159,,211-213 Bury New Road,Whitefield,Greater Manchester,Hamilton Rest Home,Hospitals/Childcare/Caring Premises,5,5,,263736,5,,53.55080400000000,2273,405,Foodsafety@bury.gov.uk,Bury,http://www.bury.gov.uk,-2.29601500000000,M45 8GW,2012-02-03,fhrs_5_en-GB,5,,FHRS,5
166160,Warth Mills - 1st Floor,Warth Road,Bury,,Hamilton's Cafe,Restaurant/Cafe/Canteen,1,5,,571607,5,,53.57849100000000,26351,405,Foodsafety@bury.gov.uk,Bury,http://www.bury.gov.uk,-2.30888000000000,BL9 9NB,2014-08-07,fhrs_5_en-GB,5,,FHRS,5
166161,,55 Bradley Lane,Radcliffe,Greater Manchester,Happy Seasons,Takeaway/sandwich shop,7844,5,,55643,5,,53.57226900000000,1256,405,Foodsafety@bury.gov.uk,Bury,http://www.bury.gov.uk,-2.36686700000000,BL2 6RA,2011-01-05,fhrs_4_en-GB,4,,FHRS,10
166162,,175 Cross Lane,Radcliffe,Greater Manchester,Happy Tite,Restaurant/Cafe/Canteen,1,0,,53698,0,,53.56574100000000,1209,405,Foodsafety@bury.gov.uk,Bury,http://www.bury.gov.uk,-2.31413200000000,M26 2RJ,2012-08-03,fhrs_5_en-GB,5,,FHRS,5
166163,,42-44 Kings Road,Prestwich,Greater Manchester,Happy Tots Private Day Nursery,Hospitals/Childcare/Caring Premises,5,0,,189327,0,,53.51891200000000,2747,405,Foodsafety@bury.gov.uk,Bury,http://www.bury.gov.uk,-2.27003200000000,M25 0LE,2014-12-03,fhrs_5_en-GB,5,,FHRS,0
166164,,400 Bolton Road West,Ramsbottom,Greater Manchester,Hare and Hounds,Pub/bar/nightclub,7843,0,,84119,0,,53.63302400000000,2081,405,Foodsafety@bury.gov.uk,Bury,http://www.bury.gov.uk,-2.33548600000000,BL0 9RY,2011-03-02,fhrs_5_en-GB,5,,FHRS,5
166165,Hawthorn Hotel,141-3 Stand Lane,Radcliffe,Greater Manchester,Hawthorn Hotel,Hotel/bed & breakfast/guest house,7842,5,,81741,5,,53.55543600000000,1998,405,Foodsafety@bury.gov.uk,Bury,http://www.bury.gov.uk,-2.31926300000000,M26 1JR,2014-10-14,fhrs_5_en-GB,5,,FHRS,5
166166,Hazelhurst County Primary Scho,Geoffrey Street,Ramsbottom,"Bury, Greater Manchester",Hazelhurst County Primary Scho,School/college/university,7845,0,,632337,0,,53.63890400000000,1482,405,Foodsafety@bury.gov.uk,Bury,http://www.bury.gov.uk,-2.32836300000000,BL0 9PQ,2014-02-03,fhrs_5_en-GB,5,,FHRS,5
166167,,13 Peel Brow,Ramsbottom,Bury,Hearth of the Ram,Restaurant/Cafe/Canteen,1,10,,365152,10,,53.64776400000000,24755,405,Foodsafety@bury.gov.uk,Bury,http://www.bury.gov.uk,-2.31239700000000,BL0 0AA,2013-09-02,fhrs_3_en-GB,3,,FHRS,10
166168,Heaton Park Primary School,Cuckoo Lane,Whitefield,Manchester,Heaton Park County Primary School,School/college/university,7845,5,,624776,5,,53.53952900000000,1549,405,Foodsafety@bury.gov.uk,Bury,http://www.bury.gov.uk,-2.27891600000000,M45 6TE,2013-05-14,fhrs_5_en-GB,5,,FHRS,5
166169,,87 Tottington Road,Bury,Greater Manchester,Helens Kitchen,Takeaway/sandwich shop,7844,5,,97031,5,,53.59844500000000,3,405,Foodsafety@bury.gov.uk,Bury,http://www.bury.gov.uk,-2.31233500000000,BL8 1LN,2014-11-12,fhrs_5_en-GB,5,,FHRS,5
166170,"Toulmin Block, Stall 5",Bury Market,Murray Road,Bury,Helens Kitchen,Restaurant/Cafe/Canteen,1,5,,485824,5,,53.59098400000000,25472,405,Foodsafety@bury.gov.uk,Bury,http://www.bury.gov.uk,-2.29528400000000,BL9 0BJ,2014-01-22,fhrs_5_en-GB,5,,FHRS,5
166171,,Newcombe Road,Ramsbottom,"Bury, Greater Manchester",Hewlett Court,Hospitals/Childcare/Caring Premises,5,5,,263701,0,,53.62650700000000,4955,405,Foodsafety@bury.gov.uk,Bury,http://www.bury.gov.uk,-2.32902300000000,BL0 9XJ,2014-11-27,fhrs_5_en-GB,5,,FHRS,0
166172,Walmersley House,Walmersley Road,Bury,Greater Manchester,Highbank Health Care,Hospitals/Childcare/Caring Premises,5,0,,263718,0,,53.62968700000000,2256,405,Foodsafety@bury.gov.uk,Bury,http://www.bury.gov.uk,-2.30231300000000,BL9 5LX,2011-12-13,fhrs_5_en-GB,5,,FHRS,0
166173,Higher Lane County Primary Sch,Egerton Road,Whitefield,Greater Manchester,Higher Lane County Primary Sch,School/college/university,7845,5,,624735,5,,,1364,405,Foodsafety@bury.gov.uk,Bury,http://www.bury.gov.uk,,M25 7EX,2013-11-22,fhrs_5_en-GB,5,,FHRS,5
166174,,414 Bury New Road,Prestwich,Greater Manchester,Ho Fat,Takeaway/sandwich shop,7844,10,,115366,10,,53.53130300000000,4455,405,Foodsafety@bury.gov.uk,Bury,http://www.bury.gov.uk,-2.28349300000000,M25 1BD,2010-03-23,fhrs_3_en-GB,3,,FHRS,10
166175,Unit 10 Holcombe Precinct,Longsight Road,Ramsbottom,Bury,Holcombe Brook Pizzeria,Takeaway/sandwich shop,7844,5,,87210,0,,53.63242300000000,22457,405,Foodsafety@bury.gov.uk,Bury,http://www.bury.gov.uk,-2.33472500000000,BL0 9SH,2011-04-26,fhrs_5_en-GB,5,,FHRS,5
166176,Holcombe Brook Cp School,Longsight Road,Ramsbottom,Bury,Holcombe Brook Primary School,School/college/university,7845,0,,624743,0,,53.62830900000000,1484,405,Foodsafety@bury.gov.uk,Bury,http://www.bury.gov.uk,-2.33067000000000,BL0 9TA,2013-05-15,fhrs_5_en-GB,5,,FHRS,5
166177,,282 Hollins Lane,Bury,Greater Manchester,Hollins Bakery,Restaurant/Cafe/Canteen,1,5,,673158,5,,53.56873800000000,34,405,Foodsafety@bury.gov.uk,Bury,http://www.bury.gov.uk,-2.28413600000000,BL9 8AY,2013-07-09,fhrs_5_en-GB,5,,FHRS,5
166178,,The Hags,Off Hollins Lane,Hollins,Hollins Grundy County Primary,School/college/university,7845,5,,624760,5,,53.56873800000000,1515,405,Foodsafety@bury.gov.uk,Bury,http://www.bury.gov.uk,-2.28413600000000,BL9 8AY,2013-09-19,fhrs_5_en-GB,5,,FHRS,5
166179,Holly Mount Roman Catholic Pri,Hollymount Lane,Tottington,Greater Manchester,Holly Mount R C Primary School,School/college/university,7845,5,,624746,5,,53.62409400000000,1487,405,Foodsafety@bury.gov.uk,Bury,http://www.bury.gov.uk,-2.34940000000000,BL8 4HS,2013-09-13,fhrs_5_en-GB,5,,FHRS,5
166180,,211a Bolton Road,Radcliffe,Manchester,Hollybank / Orchard Mews,Hospitals/Childcare/Caring Premises,5,5,,693763,0,,53.56263200000000,27061,405,Foodsafety@bury.gov.uk,Bury,http://www.bury.gov.uk,-2.34004600000000,M26 3GN,2014-06-10,fhrs_5_en-GB,5,,FHRS,5
166181,,Manchester Road,Bury,Greater Manchester,Holy Cross College,School/college/university,7845,0,,624775,0,,53.58492500000000,1544,405,Foodsafety@bury.gov.uk,Bury,http://www.bury.gov.uk,-2.29891200000000,BL9 9BB,2013-11-19,fhrs_5_en-GB,5,,FHRS,0
166182,Holy Trinity Church Of England,Cecil Street,Bury,Greater Manchester,Holy Trinity C Of E School,School/college/university,7845,5,,624731,5,,53.59017400000000,1142,405,Foodsafety@bury.gov.uk,Bury,http://www.bury.gov.uk,-2.29169800000000,BL9 0SB,2013-07-10,fhrs_5_en-GB,5,,FHRS,5
166183,,125 Walmersley Road,Bury,Greater Manchester,Holyrood Day Nursery,Hospitals/Childcare/Caring Premises,5,0,,189325,0,,53.60116100000000,21945,405,Foodsafety@bury.gov.uk,Bury,http://www.bury.gov.uk,-2.29038300000000,BL9 5AY,2015-01-12,fhrs_5_en-GB,5,,FHRS,5
166184,,425 Bury Old Road,Prestwich,Greater Manchester,Holyrood Nursery,Hospitals/Childcare/Caring Premises,5,5,,189293,0,,53.53668300000000,2963,405,Foodsafety@bury.gov.uk,Bury,http://www.bury.gov.uk,-2.27357100000000,M25 1QP,2014-12-10,fhrs_5_en-GB,5,,FHRS,0
166185,,1 New George Street,Bury,Greater Manchester,Home Bakery,Takeaway/sandwich shop,7844,,,135984,,,53.59726200000000,7,405,Foodsafety@bury.gov.uk,Bury,http://www.bury.gov.uk,-2.31457700000000,BL8 1NW,,fhrs_awaitinginspection_en-GB,AwaitingInspection,,FHRS,
166186,,16 Parkhills Road,Bury,Greater Manchester,Home Run,Takeaway/sandwich shop,7844,5,,125454,5,,53.58327400000000,5395,405,Foodsafety@bury.gov.uk,Bury,http://www.bury.gov.uk,-2.29779800000000,BL9 9AX,2014-03-06,fhrs_5_en-GB,5,,FHRS,5
166187,,172 Walmersley Road,Bury,Greater Manchester,Home Run,Takeaway/sandwich shop,7844,5,,86066,0,,53.60239300000000,2188,405,Foodsafety@bury.gov.uk,Bury,http://www.bury.gov.uk,-2.29042200000000,BL9 6LL,2012-09-11,fhrs_5_en-GB,5,,FHRS,5
166188,,17 Ainsworth Road,Radcliffe,Greater Manchester,Hong Dragon,Takeaway/sandwich shop,7844,20,,53796,5,,53.56402600000000,1211,405,Foodsafety@bury.gov.uk,Bury,http://www.bury.gov.uk,-2.33335400000000,M26 4DJ,2015-01-28,fhrs_1_en-GB,1,,FHRS,0
166189,,161 Bolton Road,Bury,,Hong Kong Cantonese Takeaway,Takeaway/sandwich shop,7844,5,,41780,5,,53.59135900000000,1034,405,Foodsafety@bury.gov.uk,Bury,http://www.bury.gov.uk,-2.31359700000000,BL8 2NW,2011-02-17,fhrs_5_en-GB,5,,FHRS,5
166190,,255 Rochdale Old Road,Bury,Greater Manchester,Hong Kong Fish & Chips,Takeaway/sandwich shop,7844,10,,115024,5,,53.60016000000000,4412,405,Foodsafety@bury.gov.uk,Bury,http://www.bury.gov.uk,-2.26477900000000,BL9 7SA,2013-02-11,fhrs_3_en-GB,3,,FHRS,10
166191,,30 Fountain Place,Whitefield,Greater Manchester,Hong Kong Takeaway,Takeaway/sandwich shop,7844,0,,86960,0,,53.54372000000000,2230,405,Foodsafety@bury.gov.uk,Bury,http://www.bury.gov.uk,-2.29275100000000,M45 7FG,2009-03-27,fhrs_5_en-GB,5,,FHRS,5
166192,,84 Outwood Road,Radcliffe,Manchester,Hotspot Grill,Takeaway/sandwich shop,7844,,,610766,,,53.55248600000000,26725,405,Foodsafety@bury.gov.uk,Bury,http://www.bury.gov.uk,-2.32665200000000,M26 1AG,,fhrs_awaitinginspection_en-GB,AwaitingInspection,,FHRS,
166193,,402-404 Bolton Road West,Ramsbottom,Bury,Hoysters,Pub/bar/nightclub,7843,,,624786,,,53.63302400000000,26788,405,Foodsafety@bury.gov.uk,Bury,http://www.bury.gov.uk,-2.33548600000000,BL0 9RY,,fhrs_awaitinginspection_en-GB,AwaitingInspection,,FHRS,
166194,"Unit 1, Britannia Warehouse",Ormond Street,Bury,Bury,H's Diner & Takeaway,Restaurant/Cafe/Canteen,1,10,,128100,5,,53.59605000000000,5788,405,Foodsafety@bury.gov.uk,Bury,http://www.bury.gov.uk,-2.28549800000000,BL9 7AJ,2015-01-16,fhrs_3_en-GB,3,,FHRS,10
166195,Hsbc,Park Seventeen,Whitefield,Greater Manchester,HSBC Supply+Distribution Centr,Restaurant/Cafe/Canteen,1,0,,445895,0,,53.55032200000000,2318,405,Foodsafety@bury.gov.uk,Bury,http://www.bury.gov.uk,-2.29092500000000,M45 8SH,2012-07-26,fhrs_5_en-GB,5,,FHRS,5
166196,,13 Blackburn Street,Radcliffe,Greater Manchester,In Cod We Trust,Takeaway/sandwich shop,7844,0,,122814,0,,53.55875400000000,5127,405,Foodsafety@bury.gov.uk,Bury,http://www.bury.gov.uk,-2.32550800000000,M26 1NN,2014-01-08,fhrs_5_en-GB,5,,FHRS,0
166197,,51 Bolton Street,Ramsbottom,,Indian Lounge,Restaurant/Cafe/Canteen,1,5,,409987,5,,53.64758600000000,24942,405,Foodsafety@bury.gov.uk,Bury,http://www.bury.gov.uk,-2.31855300000000,BL0 9HU,2012-12-05,fhrs_5_en-GB,5,,FHRS,5
166198,,703 Manchester Road,Bury,Bury,Indigo,Restaurant/Cafe/Canteen,1,5,,89470,5,,53.56763800000000,23938,405,Foodsafety@bury.gov.uk,Bury,http://www.bury.gov.uk,-2.29266000000000,BL9 9SS,2012-05-08,fhrs_5_en-GB,5,,FHRS,5
166199,Irwell Bank Farm,Bury Road,Radcliffe,Greater Manchester,Irwells Coffee Shop,Restaurant/Cafe/Canteen,1,5,,119978,5,,53.57631200000000,4906,405,Foodsafety@bury.gov.uk,Bury,http://www.bury.gov.uk,-2.31057100000000,M26 2WX,2011-03-29,fhrs_4_en-GB,4,,FHRS,10
166200,,458 Bury New Road,Prestwich,"Manchester, Bury",Istanbul,Restaurant/Cafe/Canteen,1,5,,89703,0,,53.53320400000000,24087,405,Foodsafety@bury.gov.uk,Bury,http://www.bury.gov.uk,-2.28521000000000,M25 1AX,2011-11-03,fhrs_5_en-GB,5,,FHRS,0
166201,,21 Stand Lane,Radcliffe,Greater Manchester,Italia Mia,Restaurant/Cafe/Canteen,1,10,,80781,0,,53.55852500000000,1962,405,Foodsafety@bury.gov.uk,Bury,http://www.bury.gov.uk,-2.32369400000000,M26 1NW,2013-05-01,fhrs_4_en-GB,4,,FHRS,10
166202,,440 Bury New Road,Prestwich,Manchester,J D's Sandwich Bar & Cafe,Restaurant/Cafe/Canteen,1,5,,409985,0,,53.53220000000000,24908,405,Foodsafety@bury.gov.uk,Bury,http://www.bury.gov.uk,-2.28423800000000,M25 1AZ,2013-06-11,fhrs_5_en-GB,5,,FHRS,5
166203,,7-9 Kings Road,Prestwich,Greater Manchester,J S Restaurant,Restaurant/Cafe/Canteen,1,10,,81067,5,,53.51891200000000,1973,405,Foodsafety@bury.gov.uk,Bury,http://www.bury.gov.uk,-2.27003200000000,M25 0LE,2012-10-17,fhrs_3_en-GB,3,,FHRS,10
166204,,333 Ainsworth Road,Radcliffe,Greater Manchester,Jacks,Takeaway/sandwich shop,7844,0,,54733,5,,53.57302700000000,1234,405,Foodsafety@bury.gov.uk,Bury,http://www.bury.gov.uk,-2.33851400000000,M26 4HA,2011-11-28,fhrs_5_en-GB,5,,FHRS,5
166205,,7 Bolton Road,Bury,,Jack's Sandwich Bar,Takeaway/sandwich shop,7844,5,,610763,5,,53.59374200000000,26700,405,Foodsafety@bury.gov.uk,Bury,http://www.bury.gov.uk,-2.30973200000000,BL8 2AB,2013-10-30,fhrs_4_en-GB,4,,FHRS,10
166206,,60 Bury Old Road,Whitefield,Greater Manchester,Jacques Takeaway,Takeaway/sandwich shop,7844,5,,86988,5,,53.53995000000000,2232,405,Foodsafety@bury.gov.uk,Bury,http://www.bury.gov.uk,-2.28300700000000,M45 6TL,2012-11-14,fhrs_4_en-GB,4,,FHRS,10
166207,,65 Parr Lane,Bury,Greater Manchester,Jade City,Takeaway/sandwich shop,7844,5,,86841,5,,53.56051200000000,2223,405,Foodsafety@bury.gov.uk,Bury,http://www.bury.gov.uk,-2.27318100000000,BL9 8JR,2010-11-12,fhrs_5_en-GB,5,,FHRS,5
166208,,14 Bridge Street,Ramsbottom,"Bury, Bury",Jesse Mays,Restaurant/Cafe/Canteen,1,0,,90039,0,,53.64805000000000,24354,405,Foodsafety@bury.gov.uk,Bury,http://www.bury.gov.uk,-2.31628700000000,BL0 9AQ,2012-05-10,fhrs_4_en-GB,4,,FHRS,10
166209,,102 Bolton Street,Bury,,Jewel in the Crown UK Ltd,Restaurant/Cafe/Canteen,1,5,,123740,5,,53.59411200000000,5215,405,Foodsafety@bury.gov.uk,Bury,http://www.bury.gov.uk,-2.30233100000000,BL9 0LP,2013-02-20,fhrs_5_en-GB,5,,FHRS,5
166210,Ginnah Day Centre,Alfred Street,Bury,Greater Manchester,Jinnah Day Care Centre Ltd,Restaurant/Cafe/Canteen,1,10,,624795,5,,53.58865400000000,4881,405,Foodsafety@bury.gov.uk,Bury,http://www.bury.gov.uk,-2.28485900000000,BL9 7EJ,2015-01-26,fhrs_4_en-GB,4,,FHRS,5
166211,,75 Crostons Road,Bury,,Jo Jo's,Takeaway/sandwich shop,7844,,,610764,,,53.59629500000000,26704,405,Foodsafety@bury.gov.uk,Bury,http://www.bury.gov.uk,-2.30975000000000,BL8 1LB,,fhrs_awaitinginspection_en-GB,AwaitingInspection,,FHRS,
166212,,135 Ainsworth Road,Radcliffe,Greater Manchester,Jubilee Chipshop,Takeaway/sandwich shop,7844,5,,52935,10,,53.56746200000000,1199,405,Foodsafety@bury.gov.uk,Bury,http://www.bury.gov.uk,-2.33576700000000,M26 4FD,2015-01-28,fhrs_4_en-GB,4,,FHRS,5
166213,,Eton Hill Road,Radcliffe,Bury,Jungle Mayhem,Restaurant/Cafe/Canteen,1,0,,365149,0,,53.56812100000000,24589,405,Foodsafety@bury.gov.uk,Bury,http://www.bury.gov.uk,-2.31170300000000,M26 2XT,2012-05-17,fhrs_5_en-GB,5,,FHRS,0
166214,,202 Bolton Street,Ramsbottom,Bury,Kaash Takeaway,Takeaway/sandwich shop,7844,10,,126015,5,,53.64361300000000,5476,405,Foodsafety@bury.gov.uk,Bury,http://www.bury.gov.uk,-2.32189600000000,BL0 9JE,2011-08-08,fhrs_3_en-GB,3,,FHRS,10
166215,,55 Bridge Street,Ramsbottom,Greater Manchester,Kans Fish and Chips,Takeaway/sandwich shop,7844,5,,86641,5,,53.64855000000000,2210,405,Foodsafety@bury.gov.uk,Bury,http://www.bury.gov.uk,-2.31745500000000,BL0 9AD,2011-02-05,fhrs_4_en-GB,4,,FHRS,10
166216,,136 Bury New Road,Whitefield,Manchester,Karol's Kitchen,Takeaway/sandwich shop,7844,5,,584216,5,,53.54713600000000,26401,405,Foodsafety@bury.gov.uk,Bury,http://www.bury.gov.uk,-2.29265400000000,M45 6AD,2013-10-24,fhrs_5_en-GB,5,,FHRS,5
166217,"Market Hall, Shop 22-25/48",Bury Market,Murray Road,Bury,Katsouris,Restaurant/Cafe/Canteen,1,5,,43995,5,,53.59098400000000,107,405,Foodsafety@bury.gov.uk,Bury,http://www.bury.gov.uk,-2.29528400000000,BL9 0BJ,2014-04-03,fhrs_5_en-GB,5,,FHRS,5
166218,,5 Albert Place,Whitefield,Greater Manchester,Kay Jays,Restaurant/Cafe/Canteen,1,20,,85798,15,,53.55140700000000,21733,405,Foodsafety@bury.gov.uk,Bury,http://www.bury.gov.uk,-2.27701600000000,M45 8NE,2013-11-18,fhrs_1_en-GB,1,,FHRS,15
166219,,36 Wolsey Street,Radcliffe,Bury,Kebab King,Takeaway/sandwich shop,7844,10,,89107,5,,53.56173400000000,23690,405,Foodsafety@bury.gov.uk,Bury,http://www.bury.gov.uk,-2.33033200000000,M26 3AS,2012-01-13,fhrs_4_en-GB,4,,FHRS,5
166220,,56 Ainsworth Road,Radcliffe,Greater Manchester,KENNY'S PANTRY,Takeaway/sandwich shop,7844,5,,101226,5,,53.56579500000000,33,405,Foodsafety@bury.gov.uk,Bury,http://www.bury.gov.uk,-2.33424400000000,M26 4FA,2011-08-22,fhrs_4_en-GB,4,,FHRS,10
166221,,48 Bolton Street Bury,,,Kershaw's Sandwich Bar,Takeaway/sandwich shop,7844,10,,88936,0,,53.59379200000000,23567,405,Foodsafety@bury.gov.uk,Bury,http://www.bury.gov.uk,-2.30066700000000,BL9 0LL,2011-03-21,fhrs_4_en-GB,4,,FHRS,5
166222,,27 Bury New Road,Prestwich,Greater Manchester,KFC,Takeaway/sandwich shop,7844,0,,100709,0,,53.51933800000000,3252,405,Foodsafety@bury.gov.uk,Bury,http://www.bury.gov.uk,-2.27240300000000,M25 9JY,2012-12-14,fhrs_5_en-GB,5,,FHRS,5
166223,,Moorgate Retail Park,Bury,Greater Manchester,KFC,Restaurant/Cafe/Canteen,1,0,,110666,0,,53.59602500000000,4028,405,Foodsafety@bury.gov.uk,Bury,http://www.bury.gov.uk,-2.28838400000000,BL9 7AQ,2013-06-21,fhrs_5_en-GB,5,,FHRS,0
166224,,8 Moss Lane,Whitefield,Greater Manchester,Kids Galore Ltd,Hospitals/Childcare/Caring Premises,5,0,,189301,5,,53.54999800000000,5202,405,Foodsafety@bury.gov.uk,Bury,http://www.bury.gov.uk,-2.28736100000000,M45 8DY,2013-01-11,fhrs_5_en-GB,5,,FHRS,5
166225,,6 Arley Avenue,Bury,,Kids Palace Day Nursery,Hospitals/Childcare/Caring Premises,5,5,,550258,5,,53.60871000000000,25982,405,Foodsafety@bury.gov.uk,Bury,http://www.bury.gov.uk,-2.29465200000000,BL9 5HD,2014-02-07,fhrs_5_en-GB,5,,FHRS,0
166226,,45 Nursery Road,Prestwich,Manchester,Kids Planet,Hospitals/Childcare/Caring Premises,5,0,,468119,5,,53.53864500000000,24747,405,Foodsafety@bury.gov.uk,Bury,http://www.bury.gov.uk,-2.28373800000000,M25 3DU,2014-09-30,fhrs_5_en-GB,5,,FHRS,0
166227,Killelea House,Brandlesholme Road,Bury,Greater Manchester,Killelea House,Hospitals/Childcare/Caring Premises,5,0,,263723,0,,53.61370100000000,2250,405,Foodsafety@bury.gov.uk,Bury,http://www.bury.gov.uk,-2.31832700000000,BL8 1JJ,2014-12-09,fhrs_5_en-GB,5,,FHRS,5
166228,,17 New Road,Radcliffe,Bury,Kingarth,Hospitals/Childcare/Caring Premises,5,,,263725,,,53.55689000000000,23729,405,Foodsafety@bury.gov.uk,Bury,http://www.bury.gov.uk,-2.31999900000000,M26 1LS,,fhrs_awaitinginspection_en-GB,AwaitingInspection,,FHRS,
166229,,28 Haymarket Street,Bury,,Kitchen 101,Restaurant/Cafe/Canteen,1,,,624787,,,53.59208200000000,26790,405,Foodsafety@bury.gov.uk,Bury,http://www.bury.gov.uk,-2.29795000000000,BL9 0AY,,fhrs_awaitinginspection_en-GB,AwaitingInspection,,FHRS,
166230,,85-87 Sunny Bank Road,Bury,Greater Manchester,KT Kitchen,Takeaway/sandwich shop,7844,0,,117664,0,,53.56163100000000,4691,405,Foodsafety@bury.gov.uk,Bury,http://www.bury.gov.uk,-2.28671500000000,BL9 8ES,2007-09-07,fhrs_5_en-GB,5,,FHRS,5
166231,,165 Radcliffe New Road,Whitefield,Greater Manchester,Kwong Hing Take-away,Takeaway/sandwich shop,7844,10,,86754,10,,53.55486600000000,2219,405,Foodsafety@bury.gov.uk,Bury,http://www.bury.gov.uk,-2.30348500000000,M45 7RG,2014-04-30,fhrs_3_en-GB,3,,FHRS,10
166232,Magistrates Court,Tenters Street,Bury,Greater Manchester,L Lockeys Cafe,Restaurant/Cafe/Canteen,1,5,,136343,5,,53.59304300000000,7064,405,Foodsafety@bury.gov.uk,Bury,http://www.bury.gov.uk,-2.30545100000000,BL9 0HX,2011-06-03,fhrs_5_en-GB,5,,FHRS,0
166233,,89-91 Sunny Bank Road,Bury,Greater Manchester,La Capannina,Restaurant/Cafe/Canteen,1,5,,80462,10,,53.56163100000000,1948,405,Foodsafety@bury.gov.uk,Bury,http://www.bury.gov.uk,-2.28671500000000,BL9 8ES,2011-05-25,fhrs_4_en-GB,4,,FHRS,5
166234,,450 Bury Old Road,Prestwich,Greater Manchester,La Gondola,Takeaway/sandwich shop,7844,10,,64319,5,,53.53712200000000,1427,405,Foodsafety@bury.gov.uk,Bury,http://www.bury.gov.uk,-2.27390500000000,M25 1PQ,2011-02-09,fhrs_3_en-GB,3,,FHRS,10
166235,,355 Brandlesholme Road,Bury,Greater Manchester,LA Pizza,Takeaway/sandwich shop,7844,10,,122845,10,,53.60871600000000,5130,405,Foodsafety@bury.gov.uk,Bury,http://www.bury.gov.uk,-2.31366500000000,BL8 1HS,2010-02-22,fhrs_2_en-GB,2,,FHRS,15
166236,,106 Water Street,Radcliffe,Greater Manchester,LA Pizza Takeaway.,Takeaway/sandwich shop,7844,20,,103667,15,,53.56082100000000,3495,405,Foodsafety@bury.gov.uk,Bury,http://www.bury.gov.uk,-2.33523700000000,M26 0BE,2014-06-18,fhrs_1_en-GB,1,,FHRS,15
166237,,173 Radcliffe Road,Bury,Greater Manchester,LA Pizzas,Takeaway/sandwich shop,7844,5,,119999,5,,53.57936200000000,4908,405,Foodsafety@bury.gov.uk,Bury,http://www.bury.gov.uk,-2.30583500000000,BL9 9LN,2012-11-20,fhrs_4_en-GB,4,,FHRS,10
166238,,Wells Street,Bury,Greater Manchester,Laburnum House,Hospitals/Childcare/Caring Premises,5,0,,263702,0,,53.58666800000000,2272,405,Foodsafety@bury.gov.uk,Bury,http://www.bury.gov.uk,-2.30282200000000,BL9 0TU,2011-12-16,fhrs_5_en-GB,5,,FHRS,5
166239,,171 Rochdale Road,Bury,,Lazeeza,Takeaway/sandwich shop,7844,0,,468121,0,,53.59300800000000,25340,405,Foodsafety@bury.gov.uk,Bury,http://www.bury.gov.uk,-2.28340800000000,BL9 7BB,2012-11-15,fhrs_5_en-GB,5,,FHRS,5
166240,,27 Minden Parade,Bury,Greater Manchester,Leckenby`s,Restaurant/Cafe/Canteen,1,5,,112400,5,,53.59263100000000,4161,405,Foodsafety@bury.gov.uk,Bury,http://www.bury.gov.uk,-2.29429800000000,BL9 0QG,2008-12-09,fhrs_5_en-GB,5,,FHRS,5
166241,,12 Argyle Street,Bury,Greater Manchester,Lees Fish and Chips,Takeaway/sandwich shop,7844,5,,85981,5,,53.60405800000000,2181,405,Foodsafety@bury.gov.uk,Bury,http://www.bury.gov.uk,-2.29321400000000,BL9 5DX,2011-11-02,fhrs_5_en-GB,5,,FHRS,5
166242,,2A Bolton Street,Radcliffe,Greater Manchester,Lei Yueng Takeaway,Takeaway/sandwich shop,7844,20,,119441,15,,53.56256300000000,4862,405,Foodsafety@bury.gov.uk,Bury,http://www.bury.gov.uk,-2.33593900000000,M26 3SS,2015-01-20,fhrs_1_en-GB,1,,FHRS,10
166243,,70 Bury Old Road,Whitefield,Greater Manchester,Let's Fress Deli,Takeaway/sandwich shop,7844,0,,485825,0,,53.53995000000000,2786,405,Foodsafety@bury.gov.uk,Bury,http://www.bury.gov.uk,-2.28300700000000,M45 6TL,2013-10-14,fhrs_5_en-GB,5,,FHRS,0
166244,,32 Kershaw Street,Pimhole,"Bury, Greater Manchester",Lets Party,Restaurant/Cafe/Canteen,1,5,,117759,5,,53.59243200000000,4700,405,Foodsafety@bury.gov.uk,Bury,http://www.bury.gov.uk,-2.28355500000000,BL9 7HH,2014-11-07,fhrs_5_en-GB,5,,FHRS,0
166245,,10 Square St Ramsbottom,,,Levanter,Restaurant/Cafe/Canteen,1,,,650487,,,53.64738100000000,27042,405,Foodsafety@bury.gov.uk,Bury,http://www.bury.gov.uk,-2.31793100000000,BL0 9BE,,fhrs_awaitinginspection_en-GB,AwaitingInspection,,FHRS,
166246,Windsor House,Hollins Brook Way,Bury,,Lex Autolease Ltd,Restaurant/Cafe/Canteen,1,5,,459411,0,,53.57512300000000,5426,405,Foodsafety@bury.gov.uk,Bury,http://www.bury.gov.uk,-2.27886300000000,BL9 8RT,2012-10-01,fhrs_5_en-GB,5,,FHRS,0
166247,,137 The Rock,Bury,,Liberty Cake Company,Restaurant/Cafe/Canteen,1,0,,632345,5,,53.59543000000000,26931,405,Foodsafety@bury.gov.uk,Bury,http://www.bury.gov.uk,-2.29267100000000,BL9 0ND,2014-05-28,fhrs_5_en-GB,5,,FHRS,5
166248,,76 Mile Lane,Bury,Bury,Lighthouse Chip Shop,Takeaway/sandwich shop,7844,5,,89145,0,,53.58782200000000,23717,405,Foodsafety@bury.gov.uk,Bury,http://www.bury.gov.uk,-2.33526300000000,BL8 2JR,2011-07-26,fhrs_5_en-GB,5,,FHRS,0
166249,,213 Bury Old Road,Prestwich,Greater Manchester,Lime Tree Restaurant,Restaurant/Cafe/Canteen,1,5,,84371,5,,53.52916700000000,20996,405,Foodsafety@bury.gov.uk,Bury,http://www.bury.gov.uk,-2.26643200000000,M25 1JF,2010-03-09,fhrs_5_en-GB,5,,FHRS,0
166250,,15 Limefield Road,Bury,Greater Manchester,Limefield Court Res. Home,Hospitals/Childcare/Caring Premises,5,5,,263696,5,,53.61344800000000,2240,405,Foodsafety@bury.gov.uk,Bury,http://www.bury.gov.uk,-2.29433700000000,BL9 5ET,2013-11-13,fhrs_5_en-GB,5,,FHRS,5
166251,,413 Brandlesholme Road,Bury,Greater Manchester,Little Holcombe Nursery,Hospitals/Childcare/Caring Premises,5,5,,189295,0,,53.61153500000000,1089,405,Foodsafety@bury.gov.uk,Bury,http://www.bury.gov.uk,-2.31828100000000,BL8 1JD,2013-01-22,fhrs_5_en-GB,5,,FHRS,5
166252,"Edward Block, Stall 6-19-20-22-23",Bury market,Murray Road,Bury,Lizzies T Rooms,Restaurant/Cafe/Canteen,1,,,632344,,,53.59098400000000,26924,405,Foodsafety@bury.gov.uk,Bury,http://www.bury.gov.uk,-2.29528400000000,BL9 0BJ,,fhrs_awaitinginspection_en-GB,AwaitingInspection,,FHRS,
166253,,87 Chesham Fold Road,Bury,Greater Manchester,Lotus Garden,Takeaway/sandwich shop,7844,5,,86511,10,,53.60050500000000,2202,405,Foodsafety@bury.gov.uk,Bury,http://www.bury.gov.uk,-2.27504100000000,BL9 6JZ,2009-03-17,fhrs_3_en-GB,3,,FHRS,10
166254,,Ashington Drive,Bury,Greater Manchester,Lowercroft County Primary,School/college/university,7845,0,,624750,0,,53.59102200000000,1499,405,Foodsafety@bury.gov.uk,Bury,http://www.bury.gov.uk,-2.33855200000000,BL8 2TS,2013-10-03,fhrs_5_en-GB,5,,FHRS,0
166255,Hilltop Clubhouse,Lowes Road,Bury,Greater Manchester,Lowes Park Golf Club Ltd,Restaurant/Cafe/Canteen,1,10,,150666,5,,53.61247600000000,989,405,Foodsafety@bury.gov.uk,Bury,http://www.bury.gov.uk,-2.28334200000000,BL9 6SU,2011-06-28,fhrs_4_en-GB,4,,FHRS,5
166256,,45 Church Street,Ainsworth,"Radcliffe, Greater Manchester",Lucky House,Takeaway/sandwich shop,7844,5,,55272,5,,53.58814300000000,1248,405,Foodsafety@bury.gov.uk,Bury,http://www.bury.gov.uk,-2.35783500000000,BL2 5RA,2012-11-05,fhrs_5_en-GB,5,,FHRS,5
166257,,323 Bolton Road,Bury,Greater Manchester,M.C.M News,Takeaway/sandwich shop,7844,10,,87276,10,,53.58846700000000,225,405,Foodsafety@bury.gov.uk,Bury,http://www.bury.gov.uk,-2.31955800000000,BL8 2PD,2012-09-13,fhrs_3_en-GB,3,,FHRS,10
166258,,Bury Old Road,Prestwich,Bury,Maccabi Sports Club,Restaurant/Cafe/Canteen,1,10,,133330,10,,53.52293700000000,6594,405,Foodsafety@bury.gov.uk,Bury,http://www.bury.gov.uk,-2.26259200000000,M25 0EG,2009-06-22,fhrs_3_en-GB,3,,FHRS,5
166259,"Unit 116, Bradley Fold Trading",Radcliffe Moor Road,Radcliffe,Greater Manchester,Magenta Cafe,Restaurant/Cafe/Canteen,1,10,,91866,10,,53.57345700000000,2561,405,Foodsafety@bury.gov.uk,Bury,http://www.bury.gov.uk,-2.36345000000000,BL2 6RT,2010-10-12,fhrs_3_en-GB,3,,FHRS,10
166260,,18-20 Holcombe Village,Ramsbottom,Greater Manchester,Mala Indian Cuisine,Restaurant/Cafe/Canteen,1,10,,120942,10,,53.64586000000000,4976,405,Foodsafety@bury.gov.uk,Bury,http://www.bury.gov.uk,-2.33165500000000,BL8 4LZ,2012-10-10,fhrs_3_en-GB,3,,FHRS,10
166261,,59 Walshaw Road,Bury,Greater Manchester,Man Lung,Takeaway/sandwich shop,7844,10,,50078,5,,53.59735000000000,1114,405,Foodsafety@bury.gov.uk,Bury,http://www.bury.gov.uk,-2.31176800000000,BL8 1NY,2010-07-20,fhrs_3_en-GB,3,,FHRS,10
166262,1 Park Hill,Bury Old Road,Prestwich,Greater Manchester,Manna Cafe Bar & Bistro,Restaurant/Cafe/Canteen,1,5,,85644,5,,53.51877400000000,21663,405,Foodsafety@bury.gov.uk,Bury,http://www.bury.gov.uk,-2.25911200000000,M25 0FX,2011-07-13,fhrs_5_en-GB,5,,FHRS,5
166263,,60 Bridge Street,Ramsbottom,Greater Manchester,Mannings Confectioners,Takeaway/sandwich shop,7844,5,,91438,5,,53.64848600000000,2527,405,Foodsafety@bury.gov.uk,Bury,http://www.bury.gov.uk,-2.31789400000000,BL0 9AG,2013-10-29,fhrs_5_en-GB,5,,FHRS,5
166264,,439 Walmersley Road,Bury,Greater Manchester,Mans 2000,Takeaway/sandwich shop,7844,10,,121427,10,,53.61236200000000,5015,405,Foodsafety@bury.gov.uk,Bury,http://www.bury.gov.uk,-2.29337700000000,BL9 5EU,2010-06-04,fhrs_3_en-GB,3,,FHRS,10
166265,,21 Blackburn Street,Radcliffe,Greater Manchester,Maries Cafe,Restaurant/Cafe/Canteen,1,20,,82924,10,,53.55875400000000,20184,405,Foodsafety@bury.gov.uk,Bury,http://www.bury.gov.uk,-2.32550800000000,M26 1NN,2011-11-22,fhrs_1_en-GB,1,,FHRS,10
166266,,2 St Johns Square,Bury,,Marks and Spencer,Restaurant/Cafe/Canteen,1,0,,89160,0,,53.59516500000000,23728,405,Foodsafety@bury.gov.uk,Bury,http://www.bury.gov.uk,-2.29088600000000,BL9 0JL,2011-07-26,fhrs_5_en-GB,5,,FHRS,0
166267,"Marshalls Mono Ltd, Fletcher B",Manchester Road,Ramsbottom,Greater Manchester,Marshalls PLC (Canteen),Restaurant/Cafe/Canteen,1,5,,445901,5,,53.64603000000000,930,405,Foodsafety@bury.gov.uk,Bury,http://www.bury.gov.uk,-2.30138700000000,BL0 0DD,2012-07-20,fhrs_5_en-GB,5,,FHRS,5
166268,,67 Sunny Bank Road,Bury,,Martins Bakery,Restaurant/Cafe/Canteen,1,,,632342,,,53.56163100000000,26910,405,Foodsafety@bury.gov.uk,Bury,http://www.bury.gov.uk,-2.28671500000000,BL9 8ES,,fhrs_awaitinginspection_en-GB,AwaitingInspection,,FHRS,
166269,Rascals Day Nursery,69 Ainsworth Road,Radcliffe,Greater Manchester,Mary Kelly's Rascals,Hospitals/Childcare/Caring Premises,5,5,,189335,5,,53.56082100000000,2535,405,Foodsafety@bury.gov.uk,Bury,http://www.bury.gov.uk,-2.33523700000000,M26 0FA,2014-10-21,fhrs_5_en-GB,5,,FHRS,5
166270,,115 Radcliffe Road,Bury,Bury,Ma's Sandwich Bar,Takeaway/sandwich shop,7844,20,,87091,15,,53.58062700000000,22381,405,Foodsafety@bury.gov.uk,Bury,http://www.bury.gov.uk,-2.30311100000000,BL9 9LD,2014-04-29,fhrs_1_en-GB,1,,FHRS,15
166271,,28 Market Street,Tottington,Bury,Masala Indian Cuisine,Takeaway/sandwich shop,7844,,,729007,,,53.61473400000000,27602,405,Foodsafety@bury.gov.uk,Bury,http://www.bury.gov.uk,-2.34144800000000,BL8 4AD,,fhrs_awaitinginspection_en-GB,AwaitingInspection,,FHRS,
166272,,286 Stand Lane,Radcliffe,Greater Manchester,Masterchef,Takeaway/sandwich shop,7844,0,,54364,0,,53.55100900000000,1226,405,Foodsafety@bury.gov.uk,Bury,http://www.bury.gov.uk,-2.31412800000000,M26 1JE,2012-09-25,fhrs_5_en-GB,5,,FHRS,5
166273,,97 Heywood Road,Prestwich,Greater Manchester,Mayflower Takeaway,Takeaway/sandwich shop,7844,5,,64954,5,,53.53158400000000,1454,405,Foodsafety@bury.gov.uk,Bury,http://www.bury.gov.uk,-2.27463900000000,M25 1LP,2010-10-13,fhrs_5_en-GB,5,,FHRS,0
166274,Mcdonalds,Peel Way,Bury,Greater Manchester,McDonalds Restaurant,Restaurant/Cafe/Canteen,1,0,,110193,0,,53.59533400000000,3994,405,Foodsafety@bury.gov.uk,Bury,http://www.bury.gov.uk,-2.29173300000000,BL9 0NP,2011-02-08,fhrs_5_en-GB,5,,FHRS,0
166275,,103 Bury New Road,Whitefield,Greater Manchester,McDonalds Restaurants Ltd,Restaurant/Cafe/Canteen,1,0,,61301,0,,53.54232300000000,1345,405,Foodsafety@bury.gov.uk,Bury,http://www.bury.gov.uk,-2.29065900000000,M45 7EG,2011-02-02,fhrs_5_en-GB,5,,FHRS,0
166276,,Riverside Retail Park,Pilkington Way,Radcliffe,McDonalds Restaurants Ltd,Restaurant/Cafe/Canteen,1,0,,106640,0,,53.55732500000000,3717,405,Foodsafety@bury.gov.uk,Bury,http://www.bury.gov.uk,-2.32871200000000,M26 3DA,2011-02-07,fhrs_5_en-GB,5,,FHRS,0
166277,,64-66 The Rock,Bury,Greater Manchester,McDonalds Restaurants Ltd,Restaurant/Cafe/Canteen,1,0,,80684,0,,53.59412200000000,1956,405,Foodsafety@bury.gov.uk,Bury,http://www.bury.gov.uk,-2.29483700000000,BL9 0PB,2011-09-08,fhrs_5_en-GB,5,,FHRS,5
166278,Little Sixty Six,Roach Bank Road,Bury,Greater Manchester,"McDonalds,Restaurants",Restaurant/Cafe/Canteen,1,5,,114005,5,,53.57812400000000,4300,405,Foodsafety@bury.gov.uk,Bury,http://www.bury.gov.uk,-2.27534900000000,BL9 8RN,2014-01-28,fhrs_5_en-GB,5,,FHRS,5
166279,,22 Parkhills Road Bury,,,Meals2You,Other catering premises,7841,5,,409983,0,,53.58327400000000,24893,405,Foodsafety@bury.gov.uk,Bury,http://www.bury.gov.uk,-2.29779800000000,BL9 9AX,2012-07-25,fhrs_5_en-GB,5,,FHRS,5
166280,Mersey Drive Primary School,Mersey Drive,Whitefield,Greater Manchester,Mersey Drive County Primary,School/college/university,7845,0,,624777,5,,53.55545600000000,1551,405,Foodsafety@bury.gov.uk,Bury,http://www.bury.gov.uk,-2.27499000000000,M45 8LN,2013-07-15,fhrs_5_en-GB,5,,FHRS,5
166281,,412 Bury New Road,Prestwich,Greater Manchester,Milano,Takeaway/sandwich shop,7844,5,,92537,5,,53.53130300000000,2609,405,Foodsafety@bury.gov.uk,Bury,http://www.bury.gov.uk,-2.28349300000000,M25 1BD,2009-11-19,fhrs_5_en-GB,5,,FHRS,5
166282,11 Holcombe Brook Shopping Cen,Longsight Road,Ramsbottom,Greater Manchester,Miles Bakery,Takeaway/sandwich shop,7844,10,,459408,5,,53.63242300000000,23,405,Foodsafety@bury.gov.uk,Bury,http://www.bury.gov.uk,-2.33472500000000,BL0 9SH,2014-10-27,fhrs_4_en-GB,4,,FHRS,5
166283,,1a Princess Parade,Bury,,Milkshake,Takeaway/sandwich shop,7844,5,,189299,0,,53.59165800000000,22283,405,Foodsafety@bury.gov.uk,Bury,http://www.bury.gov.uk,-2.29527300000000,BL9 0QL,2013-01-29,fhrs_5_en-GB,5,,FHRS,5
166284,,23 Bury New Road,Prestwich,Greater Manchester,Milky Dream,Restaurant/Cafe/Canteen,1,20,,125525,10,,53.51818800000000,5401,405,Foodsafety@bury.gov.uk,Bury,http://www.bury.gov.uk,-2.27206400000000,M25 9JZ,2014-10-28,fhrs_1_en-GB,1,,FHRS,10
166285,,31 Central Street,Bury,,Millies Cookies,Takeaway/sandwich shop,7844,5,,87983,5,,53.59506300000000,22965,405,Foodsafety@bury.gov.uk,Bury,http://www.bury.gov.uk,-2.29207900000000,BL9 0JN,2010-12-15,fhrs_5_en-GB,5,,FHRS,5
166286,,74 Milton Road,Prestwich,Greater Manchester,Ming Sun,Takeaway/sandwich shop,7844,5,,64780,5,,53.53567300000000,1447,405,Foodsafety@bury.gov.uk,Bury,http://www.bury.gov.uk,-2.27113500000000,M25 1PT,2011-09-06,fhrs_4_en-GB,4,,FHRS,10
166287,,10 Manchester Old Road,Bury,Greater Manchester,Mings Dynasty,Takeaway/sandwich shop,7844,5,,86781,10,,53.58778500000000,2220,405,Foodsafety@bury.gov.uk,Bury,http://www.bury.gov.uk,-2.30193800000000,BL9 0TB,2007-07-10,fhrs_3_en-GB,3,,FHRS,10
166288,,293 Middleton Road,Prestwich,Greater Manchester,Mister Ali,Restaurant/Cafe/Canteen,1,5,,80984,5,,53.52832027000000,1970,405,Foodsafety@bury.gov.uk,Bury,http://www.bury.gov.uk,-2.24687263000000,,2014-10-29,fhrs_4_en-GB,4,,FHRS,10
166289,,2 Parkhills Road,Bury,Greater Manchester,Mittu`s Grill,Takeaway/sandwich shop,7844,5,,133171,5,,53.58327400000000,6566,405,Foodsafety@bury.gov.uk,Bury,http://www.bury.gov.uk,-2.29779800000000,BL9 9AX,2013-12-12,fhrs_5_en-GB,5,,FHRS,5
166290,,93 Bolton Road,Bury,Greater Manchester,Mix Grill,Takeaway/sandwich shop,7844,10,,124420,5,,53.59265900000000,5293,405,Foodsafety@bury.gov.uk,Bury,http://www.bury.gov.uk,-2.31143100000000,BL8 2AH,2015-01-29,fhrs_4_en-GB,4,,FHRS,5
166291,,14-16 Silver Street,Bury,Greater Manchester,Molloys,Pub/bar/nightclub,7843,5,,110723,5,,53.59298800000000,4031,405,Foodsafety@bury.gov.uk,Bury,http://www.bury.gov.uk,-2.29884800000000,BL9 0EX,2010-11-15,fhrs_5_en-GB,5,,FHRS,5
166292,,27 Blackburn Street,Radcliffe,Bury,Montagues,Restaurant/Cafe/Canteen,1,5,,86908,5,,53.55959600000000,22272,405,Foodsafety@bury.gov.uk,Bury,http://www.bury.gov.uk,-2.32637500000000,M26 1NR,2009-12-17,fhrs_5_en-GB,5,,FHRS,5
166293,,271 Bury New Road,Whitefield,Manchester,Monte Cristo,Restaurant/Cafe/Canteen,1,,,550255,,,53.55269800000000,25936,405,Foodsafety@bury.gov.uk,Bury,http://www.bury.gov.uk,-2.29717500000000,M45 8QP,,fhrs_awaitinginspection_en-GB,AwaitingInspection,,FHRS,
166294,,21 Deansgate,Radcliffe,Greater Manchester,Moon Palace,Takeaway/sandwich shop,7844,5,,126353,5,,53.55961000000000,5532,405,Foodsafety@bury.gov.uk,Bury,http://www.bury.gov.uk,-2.32474400000000,M26 2SH,2012-10-05,fhrs_5_en-GB,5,,FHRS,0
166295,,388 Tottington Road,Bury,Greater Manchester,Moorfields,Hospitals/Childcare/Caring Premises,5,5,,263726,0,,53.60527100000000,2754,405,Foodsafety@bury.gov.uk,Bury,http://www.bury.gov.uk,-2.32462600000000,BL8 1TU,2014-10-01,fhrs_5_en-GB,5,,FHRS,0
166296,6 Rufford Parade,Rufford Drive,Whitefield,Bury,Mr Chips,Takeaway/sandwich shop,7844,5,,85487,5,,53.55638000000000,21559,405,Foodsafety@bury.gov.uk,Bury,http://www.bury.gov.uk,-2.29105700000000,M45 8PL,2009-08-13,fhrs_5_en-GB,5,,FHRS,5
166297,,50 Moorgate,Bury,Greater Manchester,Mr Pizza Take Away,Takeaway/sandwich shop,7844,,,49677,,,53.59684400000000,1103,405,Foodsafety@bury.gov.uk,Bury,http://www.bury.gov.uk,-2.28774000000000,BL9 7AF,,fhrs_awaitinginspection_en-GB,AwaitingInspection,,FHRS,
166298,"Market Hall, Stall 12",Bury Market,Murray Road,Bury,Mrs Ogden's Tea Room,Restaurant/Cafe/Canteen,1,5,,83958,5,,53.59098400000000,20716,405,Foodsafety@bury.gov.uk,Bury,http://www.bury.gov.uk,-2.29528400000000,BL9 0BJ,2011-06-30,fhrs_5_en-GB,5,,FHRS,5
166299,,9 Market Place,Ramsbottom,Bury,Mrs P's Luxury Ice Cream,Restaurant/Cafe/Canteen,1,5,,584215,0,,53.64923100000000,26400,405,Foodsafety@bury.gov.uk,Bury,http://www.bury.gov.uk,-2.31826200000000,BL0 9AJ,2013-09-10,fhrs_5_en-GB,5,,FHRS,5
166300,,1A St Marks Square,Bury,Greater Manchester,M's Place,Takeaway/sandwich shop,7844,5,,116938,5,,53.60099300000000,4615,405,Foodsafety@bury.gov.uk,Bury,http://www.bury.gov.uk,-2.28927900000000,BL9 6EE,2014-06-26,fhrs_5_en-GB,5,,FHRS,5
166301,,169 Radcliffe Road,Bury,Greater Manchester,Muffineer,Takeaway/sandwich shop,7844,20,,122891,10,,53.57936200000000,5135,405,Foodsafety@bury.gov.uk,Bury,http://www.bury.gov.uk,-2.30583500000000,BL9 9LN,2011-03-01,fhrs_1_en-GB,1,,FHRS,5
166302,,290 Tottington Road,Bury,Greater Manchester,Muheet Indian Takeaway,Takeaway/sandwich shop,7844,5,,143652,5,,53.60318400000000,812,405,Foodsafety@bury.gov.uk,Bury,http://www.bury.gov.uk,-2.32192000000000,BL8 1TA,2011-01-18,fhrs_5_en-GB,5,,FHRS,0
166303,,Sefton Street,Whitefield,Greater Manchester,Mulberry  Bush Nursery Ltd,Hospitals/Childcare/Caring Premises,5,0,,189307,0,,53.54484400000000,4104,405,Foodsafety@bury.gov.uk,Bury,http://www.bury.gov.uk,-2.29275900000000,M45 7ET,2014-10-27,fhrs_5_en-GB,5,,FHRS,5
166304,,741 Walmersley Road,Bury,,Mulberry Bush Nursery,Hospitals/Childcare/Caring Premises,5,0,,189339,0,,53.62144000000000,23988,405,Foodsafety@bury.gov.uk,Bury,http://www.bury.gov.uk,-2.29712900000000,BL9 5JW,2014-10-30,fhrs_5_en-GB,5,,FHRS,5
166305,,Stewart Street,Bury,Greater Manchester,Mulberry Bush Nursery,Hospitals/Childcare/Caring Premises,5,0,,189297,0,,53.59976400000000,2734,405,Foodsafety@bury.gov.uk,Bury,http://www.bury.gov.uk,-2.32006600000000,BL8 1SU,2011-10-24,fhrs_5_en-GB,5,,FHRS,5
166306,Nabbs Farm,Rowlands Road,Summerseat,"Ramsbottom, Bury",Nabbs Farm Shop,Restaurant/Cafe/Canteen,1,5,,84043,5,,53.62600900000000,20768,405,Foodsafety@bury.gov.uk,Bury,http://www.bury.gov.uk,-2.29976200000000,BL9 5LJ,2010-08-26,fhrs_5_en-GB,5,,FHRS,5
166307,,153 The Rock,Bury,,Namaste India,Restaurant/Cafe/Canteen,1,5,,700557,5,,53.59543000000000,27366,405,Foodsafety@bury.gov.uk,Bury,http://www.bury.gov.uk,-2.29267100000000,BL9 0ND,2014-08-27,fhrs_5_en-GB,5,,FHRS,5
166308,,73 Angouleme Way,Bury,,Nandos,Restaurant/Cafe/Canteen,1,,,87994,,,53.59302100000000,22975,405,Foodsafety@bury.gov.uk,Bury,http://www.bury.gov.uk,-2.29274500000000,BL9 0BB,,fhrs_awaitinginspection_en-GB,AwaitingInspection,,FHRS,
166309,Nazareth House,Scholes Lane,Prestwich,Greater Manchester,Nazareth House,Hospitals/Childcare/Caring Premises,5,0,,263704,5,,53.52575700000000,2284,405,Foodsafety@bury.gov.uk,Bury,http://www.bury.gov.uk,-2.26772300000000,M25 0NU,2014-10-02,fhrs_5_en-GB,5,,FHRS,0
166310,,283 Dumers Lane,Radcliffe,Greater Manchester,New World Chippy,Takeaway/sandwich shop,7844,10,,91736,5,,53.57011900000000,2549,405,Foodsafety@bury.gov.uk,Bury,http://www.bury.gov.uk,-2.30335300000000,M26 2GN,2014-01-17,fhrs_4_en-GB,4,,FHRS,5
166311,,47-51 Market Street,Tottington,Greater Manchester,Next Door Restaurant,Restaurant/Cafe/Canteen,1,5,,91753,5,,53.61302900000000,255,405,Foodsafety@bury.gov.uk,Bury,http://www.bury.gov.uk,-2.34037600000000,BL8 3LL,2011-09-14,fhrs_5_en-GB,5,,FHRS,5
166312,,237 Bolton Road,Radcliffe,Manchester,Next Frydays,Takeaway/sandwich shop,7844,5,,558922,0,,53.56264000000000,26193,405,Foodsafety@bury.gov.uk,Bury,http://www.bury.gov.uk,-2.34354900000000,M26 3QP,2013-07-25,fhrs_5_en-GB,5,,FHRS,0
166313,,47 Market Street,Bury,Greater Manchester,Nobles Amusements,Restaurant/Cafe/Canteen,1,5,,439411,5,,53.59119800000000,2646,405,Foodsafety@bury.gov.uk,Bury,http://www.bury.gov.uk,-2.29596500000000,BL9 0BH,2012-06-21,fhrs_5_en-GB,5,,FHRS,5
166314,,84 Kings Road,Prestwich,Manchester,Noshers,Restaurant/Cafe/Canteen,1,5,,550250,5,,53.51966100000000,25825,405,Foodsafety@bury.gov.uk,Bury,http://www.bury.gov.uk,-2.26444200000000,M25 0FY,2013-09-12,fhrs_5_en-GB,5,,FHRS,5
166315,,10 Crompton Street,Bury,Greater Manchester,Number 10,Restaurant/Cafe/Canteen,1,5,,79969,5,,53.59322700000000,1930,405,Foodsafety@bury.gov.uk,Bury,http://www.bury.gov.uk,-2.29670400000000,BL9 0AD,2014-03-07,fhrs_5_en-GB,5,,FHRS,5
166316,,514 Bury New Road,Prestwich,Greater Manchester,Oak Lodge Nursing Home,Hospitals/Childcare/Caring Premises,5,5,,263733,0,,53.53546900000000,2280,405,Foodsafety@bury.gov.uk,Bury,http://www.bury.gov.uk,-2.27267000000000,M25 7AN,2011-08-10,fhrs_5_en-GB,5,,FHRS,5
166317,"Murray Road, Unit 3",Bury Market,Murray Road,Bury,Ocean Blue Cafe,Restaurant/Cafe/Canteen,1,5,,128391,5,,53.59098400000000,5828,405,Foodsafety@bury.gov.uk,Bury,http://www.bury.gov.uk,-2.29528400000000,BL9 0BJ,2013-01-11,fhrs_5_en-GB,5,,FHRS,5
166318,,34 Bury New Road,Prestwich,Greater Manchester,Ocean Palace,Takeaway/sandwich shop,7844,10,,87018,5,,53.51833300000000,2234,405,Foodsafety@bury.gov.uk,Bury,http://www.bury.gov.uk,-2.27147700000000,M25 0LD,2014-03-26,fhrs_2_en-GB,2,,FHRS,15
166319,Old Hall County Primary School,Springside View,Bury,Greater Manchester,Old Hall C P School,School/college/university,7845,0,,624764,0,,53.61629800000000,1522,405,Foodsafety@bury.gov.uk,Bury,http://www.bury.gov.uk,-2.31849800000000,BL8 4LU,2013-06-17,fhrs_5_en-GB,5,,FHRS,0
166320,,501 Bury New Road,Prestwich,Manchester,Orient Express,Takeaway/sandwich shop,7844,5,,673156,5,,53.53314900000000,27257,405,Foodsafety@bury.gov.uk,Bury,http://www.bury.gov.uk,-2.28581400000000,M25 1AD,2014-06-24,fhrs_5_en-GB,5,,FHRS,5
166321,,36 Haymarket Street,Bury,,Orlando Fried Chicken and Pizza,Takeaway/sandwich shop,7844,10,,624788,5,,53.59211000000000,26791,405,Foodsafety@bury.gov.uk,Bury,http://www.bury.gov.uk,-2.29792000000000,BL9 0AY,2014-10-03,fhrs_4_en-GB,4,,FHRS,5
166322,,32 Princess Parade,Bury,Greater Manchester,Othellos,Restaurant/Cafe/Canteen,1,0,,80110,5,,53.59165800000000,1935,405,Foodsafety@bury.gov.uk,Bury,http://www.bury.gov.uk,-2.29527300000000,BL9 0QL,2008-11-25,fhrs_5_en-GB,5,,FHRS,0
166323,Our Lady Of Grace Rc Primary S,Highfield Road,Prestwich,Greater Manchester,Our Lady Of Grace RC Primary,School/college/university,7845,5,,624779,5,,53.53853000000000,1558,405,Foodsafety@bury.gov.uk,Bury,http://www.bury.gov.uk,-2.28693600000000,M25 3AS,2013-09-20,fhrs_5_en-GB,5,,FHRS,5
166324,Our Lady Of Lourdes Roman Cath,Rudgwick Drive,Bury,Greater Manchester,Our Lady Of Lourdes RC Primary,School/college/university,7845,0,,624763,5,,53.61206300000000,1521,405,Foodsafety@bury.gov.uk,Bury,http://www.bury.gov.uk,-2.31582100000000,BL8 1JQ,2013-07-05,fhrs_5_en-GB,5,,FHRS,5
166325,,38 Bury Old Road,Whitefield,Greater Manchester,Pagoda,Restaurant/Cafe/Canteen,1,5,,187679,5,,53.53945200000000,5335,405,Foodsafety@bury.gov.uk,Bury,http://www.bury.gov.uk,-2.28081600000000,M45 6TF,2014-05-16,fhrs_5_en-GB,5,,FHRS,5
166326,Unit 2 Radius,Fairfax Road,Prestwich,Bury,Panama Hattys Grill,Restaurant/Cafe/Canteen,1,5,,87834,0,,53.53294500000000,22855,405,Foodsafety@bury.gov.uk,Bury,http://www.bury.gov.uk,-2.28431900000000,M25 1AY,2011-01-17,fhrs_5_en-GB,5,,FHRS,5
166327,,34 Bridge Street,Bury,,Panini's,Restaurant/Cafe/Canteen,1,5,,516757,0,,53.59940200000000,25600,405,Foodsafety@bury.gov.uk,Bury,http://www.bury.gov.uk,-2.28552100000000,BL9 6HH,2013-02-19,fhrs_5_en-GB,5,,FHRS,5
166328,,192 Hornby Street,Bury,,Papa's Chippy'n'Grill,Takeaway/sandwich shop,7844,10,,710019,10,,53.60084000000000,27485,405,Foodsafety@bury.gov.uk,Bury,http://www.bury.gov.uk,-2.29304100000000,BL9 5BA,2015-01-26,fhrs_3_en-GB,3,,FHRS,5
166329,,34 Haymarket Street,Bury,,Papi Flavours,Takeaway/sandwich shop,7844,,,591250,,,53.59208200000000,26604,405,Foodsafety@bury.gov.uk,Bury,http://www.bury.gov.uk,-2.29795000000000,BL9 0AY,,fhrs_awaitinginspection_en-GB,AwaitingInspection,,FHRS,
166330,,11 Bolton Street,Bury,,Paradise,Takeaway/sandwich shop,7844,,,445896,,,53.59335400000000,25153,405,Foodsafety@bury.gov.uk,Bury,http://www.bury.gov.uk,-2.29974200000000,BL9 0EY,,fhrs_awaitinginspection_en-GB,AwaitingInspection,,FHRS,
166331,,Manchester Road,Ramsbottom,Greater Manchester,Park Farm Tea Room,Restaurant/Cafe/Canteen,1,0,,80361,5,,53.63811200000000,1945,405,Foodsafety@bury.gov.uk,Bury,http://www.bury.gov.uk,-2.30313600000000,,2011-03-14,fhrs_5_en-GB,5,,FHRS,5
166332,Park View County Primary Schoo,Park View Road,Prestwich,Greater Manchester,Park View County Primary,School/college/university,7845,0,,624781,0,,53.52662900000000,1560,405,Foodsafety@bury.gov.uk,Bury,http://www.bury.gov.uk,-2.27579900000000,M25 1FA,2014-01-17,fhrs_5_en-GB,5,,FHRS,0
166333,,281 Bury Old Road,Prestwich,Greater Manchester,Parkside Hotel,Pub/bar/nightclub,7843,10,,85668,0,,53.53290300000000,2167,405,Foodsafety@bury.gov.uk,Bury,http://www.bury.gov.uk,-2.26772300000000,M25 1JA,2011-02-09,fhrs_4_en-GB,4,,FHRS,5
166334,Peel Brow Cp School,Fir Street,Ramsbottom,Greater Manchester,Peel Brow County Primary,School/college/university,7845,5,,624755,5,,53.64793400000000,1508,405,Foodsafety@bury.gov.uk,Bury,http://www.bury.gov.uk,-2.30922100000000,BL0 0BJ,2013-03-01,fhrs_5_en-GB,5,,FHRS,5
166335,,63 Rochdale Road Bury,,,Pepe`s Piri Piri,Restaurant/Cafe/Canteen,1,5,,485820,5,,53.59358100000000,25372,405,Foodsafety@bury.gov.uk,Bury,http://www.bury.gov.uk,-2.28817100000000,BL9 7AX,2013-03-13,fhrs_5_en-GB,5,,FHRS,5
166336,,264 Bury New Road,Whitefield,Greater Manchester,Peppe's Pizzeria,Restaurant/Cafe/Canteen,1,5,,93216,0,,53.55118300000000,2666,405,Foodsafety@bury.gov.uk,Bury,http://www.bury.gov.uk,-2.29553500000000,M45 8GS,2011-02-11,fhrs_4_en-GB,4,,FHRS,10
166337,Jubilee Works,Vale Street,Radcliffe,Bury,Percivals the Caterers,Other catering premises,7841,5,,468116,5,,53.58036300000000,21516,405,Foodsafety@bury.gov.uk,Bury,http://www.bury.gov.uk,-2.37426300000000,BL2 6QF,2014-12-03,fhrs_5_en-GB,5,,FHRS,5
166338,,204 Bolton Street,Ramsbottom,Greater Manchester,Phillipson B & SM,Takeaway/sandwich shop,7844,10,,81779,5,,53.64361300000000,20,405,Foodsafety@bury.gov.uk,Bury,http://www.bury.gov.uk,-2.32189600000000,BL0 9JE,2011-06-13,fhrs_3_en-GB,3,,FHRS,10
166339,,328 Tottington Road,Bury,Greater Manchester,Phoenix City,Takeaway/sandwich shop,7844,5,,86716,5,,53.60318400000000,2215,405,Foodsafety@bury.gov.uk,Bury,http://www.bury.gov.uk,-2.32192000000000,BL8 1TA,2011-02-21,fhrs_4_en-GB,4,,FHRS,10
166340,Pike Fold Golf Club,Hills Lane,Whitefield,Greater Manchester,Pike Fold Golf Club,Restaurant/Cafe/Canteen,1,5,,118400,0,,53.55870700000000,4773,405,Foodsafety@bury.gov.uk,Bury,http://www.bury.gov.uk,-2.26423300000000,BL9 8QP,2012-09-14,fhrs_5_en-GB,5,,FHRS,0
166341,Pinfold Lane Day Care Centre,Pinfold Lane,Whitefield,Greater Manchester,Pinfold Day Care Centre,Hospitals/Childcare/Caring Premises,5,5,,409988,5,,53.54715700000000,2777,405,Foodsafety@bury.gov.uk,Bury,http://www.bury.gov.uk,-2.29511400000000,M45 7NY,2015-01-06,fhrs_5_en-GB,5,,FHRS,0
166342,,3 Fairfax Road,Prestwich,Greater Manchester,Pinto's Sandwich Shop,Takeaway/sandwich shop,7844,5,,107512,5,,53.53401300000000,38,405,Foodsafety@bury.gov.uk,Bury,http://www.bury.gov.uk,-2.28500500000000,M25 1AS,2012-02-22,fhrs_5_en-GB,5,,FHRS,5
166343,,156 Heywood St,Bury,,Piri Piri Chicken Shaq,Takeaway/sandwich shop,7844,,,550260,,,53.59177100000000,26166,405,Foodsafety@bury.gov.uk,Bury,http://www.bury.gov.uk,-2.28549900000000,BL9 7DY,,fhrs_awaitinginspection_en-GB,AwaitingInspection,,FHRS,
166344,,Radcliffe Motor House,Outwood Road Radcliffe,,Pitstop Cafe,Restaurant/Cafe/Canteen,1,20,,263743,5,,53.55497600000000,24610,405,Foodsafety@bury.gov.uk,Bury,http://www.bury.gov.uk,-2.32649000000000,M26 1AQ,2013-07-02,fhrs_1_en-GB,1,,FHRS,5
166345,,247a Bury New Road,Whitefield,Bury,Pizza Base,Takeaway/sandwich shop,7844,5,,455408,5,,53.55269800000000,6538,405,Foodsafety@bury.gov.uk,Bury,http://www.bury.gov.uk,-2.29717500000000,M45 8QP,2014-07-03,fhrs_4_en-GB,4,,FHRS,10
166346,,130 Bury New Road,Prestwich,Greater Manchester,Pizza Express,Restaurant/Cafe/Canteen,1,5,,126071,5,,53.52328500000000,5488,405,Foodsafety@bury.gov.uk,Bury,http://www.bury.gov.uk,-2.27561100000000,M25 0AA,2012-09-11,fhrs_5_en-GB,5,,FHRS,5
166347,,1 Rock Place,Bury,,Pizza Express,Restaurant/Cafe/Canteen,1,0,,88030,0,,53.59448000000000,22991,405,Foodsafety@bury.gov.uk,Bury,http://www.bury.gov.uk,-2.29174200000000,BL9 0JX,2010-08-17,fhrs_5_en-GB,5,,FHRS,0
166348,,20 Silver Street,Bury,Greater Manchester,Pizza Hut,Takeaway/sandwich shop,7844,0,,133584,5,,53.59298800000000,6642,405,Foodsafety@bury.gov.uk,Bury,http://www.bury.gov.uk,-2.29884800000000,BL9 0EX,2014-02-28,fhrs_5_en-GB,5,,FHRS,5
166349,,56 Bury New Road,Prestwich,Manchester,Pizza Hut Delivery,Takeaway/sandwich shop,7844,0,,610767,5,,53.51953700000000,26749,405,Foodsafety@bury.gov.uk,Bury,http://www.bury.gov.uk,-2.27189200000000,M25 0JU,2014-08-22,fhrs_5_en-GB,5,,FHRS,5
166350,,36 Bridge Street,Ramsbottom,Bury,Pizza Nova,Takeaway/sandwich shop,7844,5,,421562,5,,53.64805000000000,24966,405,Foodsafety@bury.gov.uk,Bury,http://www.bury.gov.uk,-2.31628700000000,BL0 9AQ,2012-09-19,fhrs_5_en-GB,5,,FHRS,5
166351,,3 Market Street,Bury,Greater Manchester,Pizza Pioneer,Takeaway/sandwich shop,7844,10,,44808,0,,53.59343200000000,1086,405,Foodsafety@bury.gov.uk,Bury,http://www.bury.gov.uk,-2.29732500000000,BL9 0AH,2011-01-05,fhrs_4_en-GB,4,,FHRS,0
166352,,155 Ainsworth Road,Radcliffe,Greater Manchester,Pizza Planet,Takeaway/sandwich shop,7844,5,,127688,5,,53.56746200000000,5721,405,Foodsafety@bury.gov.uk,Bury,http://www.bury.gov.uk,-2.33576700000000,M26 4FD,2014-08-20,fhrs_5_en-GB,5,,FHRS,5
166353,,205 Middleton Rd,Manchester,,Pizza Pomodoro,Takeaway/sandwich shop,7844,5,,134162,5,,53.52493500000000,6739,405,Foodsafety@bury.gov.uk,Bury,http://www.bury.gov.uk,-2.24881700000000,M8 4LR,2010-03-31,fhrs_4_en-GB,4,,FHRS,10
166354,,254 Market Street,Bury,Greater Manchester,Pizza Run,Takeaway/sandwich shop,7844,5,,86820,5,,53.58417800000000,2222,405,Foodsafety@bury.gov.uk,Bury,http://www.bury.gov.uk,-2.29206400000000,BL9 9JN,2010-06-18,fhrs_5_en-GB,5,,FHRS,5
166355,,46 Walmersley Road,Bury,,Pizza Tops,Takeaway/sandwich shop,7844,,,409986,,,53.59836800000000,24941,405,Foodsafety@bury.gov.uk,Bury,http://www.bury.gov.uk,-2.28951800000000,BL9 6DP,,fhrs_awaitinginspection_en-GB,AwaitingInspection,,FHRS,
166356,,2-4 Sandford Street,Radcliffe,Greater Manchester,Play & Learn Nursery,Hospitals/Childcare/Caring Premises,5,5,,189311,5,,53.56427700000000,4588,405,Foodsafety@bury.gov.uk,Bury,http://www.bury.gov.uk,-2.31036200000000,M26 2PT,2011-11-02,fhrs_5_en-GB,5,,FHRS,5
166357,,231 Bury New Road,Whitefield,Manchester,Porada,Restaurant/Cafe/Canteen,1,0,,610765,0,,53.55269800000000,26708,405,Foodsafety@bury.gov.uk,Bury,http://www.bury.gov.uk,-2.29717500000000,M45 8QP,2014-02-26,fhrs_5_en-GB,5,,FHRS,0
166358,,31 The Haymarket,Bury,Greater Manchester,Pound Bakery,Takeaway/sandwich shop,7844,0,,468126,5,,53.59299500000000,398,405,Foodsafety@bury.gov.uk,Bury,http://www.bury.gov.uk,-2.29593200000000,BL9 0BX,2014-11-20,fhrs_5_en-GB,5,,FHRS,5
166359,,5 Longfield,Prestwich,Greater Manchester,Pound Bakery,Takeaway/sandwich shop,7844,5,,468127,5,,53.53294500000000,40,405,Foodsafety@bury.gov.uk,Bury,http://www.bury.gov.uk,-2.28431900000000,M25 1AY,2013-01-29,fhrs_5_en-GB,5,,FHRS,5
166360,,74 The Rock,Bury,Greater Manchester,Pound Bakery,Takeaway/sandwich shop,7844,0,,468129,0,,53.59412200000000,6108,405,Foodsafety@bury.gov.uk,Bury,http://www.bury.gov.uk,-2.29483700000000,BL9 0PB,2011-08-16,fhrs_5_en-GB,5,,FHRS,5
166361,,105 Bradley Fold House,Bradley Fold Estate,"Radcliffe Moor Road,Bury",Premier Catering Solutions,Other catering premises,7841,5,,468117,0,,53.57345700000000,22762,405,Foodsafety@bury.gov.uk,Bury,http://www.bury.gov.uk,-2.36345000000000,BL2 6RT,2012-09-17,fhrs_5_en-GB,5,,FHRS,0
166362,,221 Bury Old Road,Prestwich,Greater Manchester,Prestwich Balti,Takeaway/sandwich shop,7844,5,,121218,0,,53.53546900000000,4997,405,Foodsafety@bury.gov.uk,Bury,http://www.bury.gov.uk,-2.27267000000000,M25 5JE,2013-03-18,fhrs_5_en-GB,5,,FHRS,0
166363,,Hilton Lane,Prestwich,Greater Manchester,Prestwich Golf Club,Restaurant/Cafe/Canteen,1,5,,151048,0,,53.51900600000000,998,405,Foodsafety@bury.gov.uk,Bury,http://www.bury.gov.uk,-2.28359200000000,M25 9XB,2013-01-11,fhrs_5_en-GB,5,,FHRS,5
166364,Mental Health Services Of Salf,Bury New Road,Prestwich,Greater Manchester,Prestwich Hospital (kitchen ),Restaurant/Cafe/Canteen,1,0,,70005,0,,53.53546900000000,1583,405,Foodsafety@bury.gov.uk,Bury,http://www.bury.gov.uk,-2.27267000000000,M25 7BL,2013-04-29,fhrs_5_en-GB,5,,FHRS,5
166365,Prestwich Preparatory School,Bury Old Road,Prestwich,Greater Manchester,Prestwich Preparatory School,School/college/university,7845,5,,632348,5,,53.53587400000000,2921,405,Foodsafety@bury.gov.uk,Bury,http://www.bury.gov.uk,-2.26932600000000,M25 1PZ,2014-01-30,fhrs_5_en-GB,5,,FHRS,5
166366,,99 Heywood Road,Prestwich,Manchester,Prestwich Tandoori,Takeaway/sandwich shop,7844,5,,550259,10,,53.53158400000000,26063,405,Foodsafety@bury.gov.uk,Bury,http://www.bury.gov.uk,-2.27463900000000,M25 1LP,2013-04-22,fhrs_4_en-GB,4,,FHRS,5
166367,,2 Church Street West Radcliffe,,,Pronto Pizza,Takeaway/sandwich shop,7844,5,,88828,5,,53.55955800000000,23487,405,Foodsafety@bury.gov.uk,Bury,http://www.bury.gov.uk,-2.32403400000000,M26 2SQ,2011-01-20,fhrs_5_en-GB,5,,FHRS,5
166368,,472 Bury Old Road,Prestwich,Greater Manchester,Pronto Pizza,Takeaway/sandwich shop,7844,10,,71728,5,,53.53771000000000,163,405,Foodsafety@bury.gov.uk,Bury,http://www.bury.gov.uk,-2.27632300000000,M25 1NL,2012-02-02,fhrs_4_en-GB,4,,FHRS,5
166369,Bury College,Market Street,Bury,,Prospects Centre,Restaurant/Cafe/Canteen,1,0,,550247,0,,53.59011800000000,25500,405,Foodsafety@bury.gov.uk,Bury,http://www.bury.gov.uk,-2.29648600000000,BL9 0BG,2013-10-24,fhrs_5_en-GB,5,,FHRS,0
166370,,19 Rock Place,Bury,,Pum Thai Food Chain Ltd,Restaurant/Cafe/Canteen,1,,,455404,,,53.59448000000000,25218,405,Foodsafety@bury.gov.uk,Bury,http://www.bury.gov.uk,-2.29174200000000,BL9 0JX,,fhrs_awaitinginspection_en-GB,AwaitingInspection,,FHRS,
166371,,65 Lord Street,Bury,Greater Manchester,Punjab Takeaway,Takeaway/sandwich shop,7844,20,,50307,15,,53.59126800000000,1120,405,Foodsafety@bury.gov.uk,Bury,http://www.bury.gov.uk,-2.28903100000000,BL9 0RE,2014-03-05,fhrs_1_en-GB,1,,FHRS,10
166372,Kay Brow Complex,Kay Brow,Ramsbottom,Bury,Pure Pizza,Takeaway/sandwich shop,7844,0,,568323,0,,53.64587100000000,26331,405,Foodsafety@bury.gov.uk,Bury,http://www.bury.gov.uk,-2.31790400000000,BL0 9AY,2013-11-07,fhrs_5_en-GB,5,,FHRS,0
166373,Bury College,Market Street,Bury,,Quadpod (Costa Outlet),Restaurant/Cafe/Canteen,1,5,,568322,5,,53.59011800000000,25501,405,Foodsafety@bury.gov.uk,Bury,http://www.bury.gov.uk,-2.29648600000000,BL9 0BG,2013-11-08,fhrs_5_en-GB,5,,FHRS,5
166374,,429 Bury New Road,Prestwich,Greater Manchester,Quirky Cafe,Restaurant/Cafe/Canteen,1,5,,128479,5,,53.53209000000000,5847,405,Foodsafety@bury.gov.uk,Bury,http://www.bury.gov.uk,-2.28488600000000,M25 1AF,2013-10-10,fhrs_5_en-GB,5,,FHRS,0
166375,,Unit A Village Business Park,George Street,Prestwich,R & L Banqueting,Other catering premises,7841,5,,558925,5,,53.51673800000000,26244,405,Foodsafety@bury.gov.uk,Bury,http://www.bury.gov.uk,-2.27725800000000,M25 9WB,2013-09-11,fhrs_5_en-GB,5,,FHRS,5
166376,,123 Blackburn Street,Radcliffe,Greater Manchester,Radcliffe Charcoal Tandoori,Restaurant/Cafe/Canteen,1,10,,80767,10,,53.56177600000000,1961,405,Foodsafety@bury.gov.uk,Bury,http://www.bury.gov.uk,-2.32815800000000,M26 3WQ,2010-10-07,fhrs_3_en-GB,3,,FHRS,5
166377,,Bury Street,Radcliffe,Bury,Radcliffe Hall C of E / Methodist Primary School,School/college/university,7845,0,,632340,5,,53.56525000000000,1533,405,Foodsafety@bury.gov.uk,Bury,http://www.bury.gov.uk,-2.30940200000000,M26 2GB,2013-10-03,fhrs_5_en-GB,5,,FHRS,5
166378,Red Bank Playing Fields,Unsworth Street,Radcliffe,Greater Manchester,Radcliffe Juniors FC,Restaurant/Cafe/Canteen,1,5,,135388,5,,53.56082100000000,6903,405,Foodsafety@bury.gov.uk,Bury,http://www.bury.gov.uk,-2.33523700000000,M26 0RN,2011-09-14,fhrs_5_en-GB,5,,FHRS,0
166379,,Coronation Road,Radcliffe,Greater Manchester,Radcliffe Primary School,School/college/university,7845,0,,624749,0,,53.56626700000000,1496,405,Foodsafety@bury.gov.uk,Bury,http://www.bury.gov.uk,-2.34525400000000,M26 3RD,2013-03-14,fhrs_5_en-GB,5,,FHRS,5
166380,,39 Market Street,Bury,,Radleys Chip Shop,Restaurant/Cafe/Canteen,1,,,571606,,,53.59197800000000,26340,405,Foodsafety@bury.gov.uk,Bury,http://www.bury.gov.uk,-2.29648400000000,BL9 0BL,,fhrs_awaitinginspection_en-GB,AwaitingInspection,,FHRS,
166381,,321 Bolton Road,Bury,Greater Manchester,Rahan Tandoori Take-away,Takeaway/sandwich shop,7844,5,,43906,5,,53.58846700000000,1068,405,Foodsafety@bury.gov.uk,Bury,http://www.bury.gov.uk,-2.31955800000000,BL8 2PD,2014-11-26,fhrs_5_en-GB,5,,FHRS,5
166382,,45 Bolton Road,Bury,Greater Manchester,Rajah Tandoori,Takeaway/sandwich shop,7844,5,,45092,5,,53.59376000000000,1094,405,Foodsafety@bury.gov.uk,Bury,http://www.bury.gov.uk,-2.30970200000000,BL8 2AB,2010-10-28,fhrs_5_en-GB,5,,FHRS,5
166383,,26a Price Street,Bury,Bury,Rajah's Little Chippy,Takeaway/sandwich shop,7844,,,197166,,,53.58737500000000,24595,405,Foodsafety@bury.gov.uk,Bury,http://www.bury.gov.uk,-2.28598300000000,BL9 9EB,,fhrs_awaitinginspection_en-GB,AwaitingInspection,,FHRS,
166384,,177 Rochdale Road,Bury,,Raja's Pizza Bar,Takeaway/sandwich shop,7844,,,439409,,,53.59300800000000,25150,405,Foodsafety@bury.gov.uk,Bury,http://www.bury.gov.uk,-2.28340800000000,BL9 7BB,,fhrs_awaitinginspection_en-GB,AwaitingInspection,,FHRS,
166385,,Acre Bottom Lane,Ramsbottom,Bury,Ramsbottom Cricket Club Takeaway,Takeaway/sandwich shop,7844,20,,508765,5,,,25526,405,Foodsafety@bury.gov.uk,Bury,http://www.bury.gov.uk,,,2012-09-14,fhrs_1_en-GB,1,,FHRS,5
166386,,16-18 Market Place,Ramsbottom,Greater Manchester,Ramsons,Restaurant/Cafe/Canteen,1,5,,80722,5,,53.64901600000000,1958,405,Foodsafety@bury.gov.uk,Bury,http://www.bury.gov.uk,-2.31797300000000,BL0 9HT,2013-04-26,fhrs_5_en-GB,5,,FHRS,5
166387,,24 Bury New Road,Prestwich,Manchester,Rawsons Fish & Chips,Takeaway/sandwich shop,7844,5,,485822,5,,53.51833300000000,25430,405,Foodsafety@bury.gov.uk,Bury,http://www.bury.gov.uk,-2.27147700000000,M25 0LD,2013-01-15,fhrs_5_en-GB,5,,FHRS,5
166388,,69 Church Street West Radcliffe,,,Re Fresh Cafe,Restaurant/Cafe/Canteen,1,10,,89172,5,,53.56022400000000,23734,405,Foodsafety@bury.gov.uk,Bury,http://www.bury.gov.uk,-2.32369200000000,M26 2SP,2011-06-01,fhrs_4_en-GB,4,,FHRS,0
166389,,140 Lily Hill Street,Whitefield,Greater Manchester,Regency Care Centre,Hospitals/Childcare/Caring Premises,5,5,,263735,5,,53.55728700000000,3324,405,Foodsafety@bury.gov.uk,Bury,http://www.bury.gov.uk,-2.29846000000000,M45 7SG,2014-08-05,fhrs_5_en-GB,5,,FHRS,5
166390,Ribble Drive Cp School,Ribble Drive,Whitefield,Greater Manchester,Ribble Drive  Primary School,School/college/university,7845,5,,624736,5,,53.55123000000000,1374,405,Foodsafety@bury.gov.uk,Bury,http://www.bury.gov.uk,-2.28338500000000,M45 8TD,2014-12-08,fhrs_5_en-GB,5,,FHRS,0
166391,,Unit 4 Bury Market,The Plaza Building,Bury,Rice N Spice,Takeaway/sandwich shop,7844,,,729004,,,,27582,405,Foodsafety@bury.gov.uk,Bury,http://www.bury.gov.uk,,,,fhrs_awaitinginspection_en-GB,AwaitingInspection,,FHRS,
166392,"Toulmin Block, Stall 19-20",Bury Market,Murray Road,Bury,Riscatti's,Restaurant/Cafe/Canteen,1,20,,93584,10,,53.59098400000000,2696,405,Foodsafety@bury.gov.uk,Bury,http://www.bury.gov.uk,-2.29528400000000,BL9 0BJ,2013-07-24,fhrs_1_en-GB,1,,FHRS,5
166393,,19 Silver Street,Bury,Greater Manchester,Ristorante Verona,Restaurant/Cafe/Canteen,1,5,,42216,5,,53.59302600000000,1042,405,Foodsafety@bury.gov.uk,Bury,http://www.bury.gov.uk,-2.29818400000000,BL9 0EU,2011-07-20,fhrs_5_en-GB,5,,FHRS,5
166394,,250 Tottington Road,Bury,Greater Manchester,Riverside Takeaway,Takeaway/sandwich shop,7844,5,,86695,10,,53.60195900000000,2214,405,Foodsafety@bury.gov.uk,Bury,http://www.bury.gov.uk,-2.31935700000000,BL8 1SJ,2011-05-17,fhrs_3_en-GB,3,,FHRS,10
166395,,20 Cross Lane Radcliffe,,,Rizzys,Takeaway/sandwich shop,7844,20,,550256,15,,53.56380100000000,25950,405,Foodsafety@bury.gov.uk,Bury,http://www.bury.gov.uk,-2.31700100000000,M26 2GY,2013-05-16,fhrs_1_en-GB,1,,FHRS,15
166396,,335 Ainsworth Road,Radcliffe,Greater Manchester,RJ's Cafe,Restaurant/Cafe/Canteen,1,5,,122689,5,,53.57302700000000,5114,405,Foodsafety@bury.gov.uk,Bury,http://www.bury.gov.uk,-2.33851400000000,M26 4HA,2014-03-18,fhrs_4_en-GB,4,,FHRS,10
166397,,268 Bury New Road,Whitefield,Greater Manchester,Roma Delicatessen,Restaurant/Cafe/Canteen,1,0,,68795,0,,53.55184700000000,154,405,Foodsafety@bury.gov.uk,Bury,http://www.bury.gov.uk,-2.29593200000000,M45 8QS,2015-01-22,fhrs_5_en-GB,5,,FHRS,0
166398,,219 Walmersley Road,Bury,Greater Manchester,Rookwood,Hospitals/Childcare/Caring Premises,5,10,,263721,0,,53.60406000000000,2752,405,Foodsafety@bury.gov.uk,Bury,http://www.bury.gov.uk,-2.29227700000000,BL9 5DF,2011-10-06,fhrs_4_en-GB,4,,FHRS,5
166399,Rookwood,130-132 Hilton Lane,Prestwich,Greater Manchester,Rookwood Private Nursery,Hospitals/Childcare/Caring Premises,5,0,,189322,5,,53.53546900000000,2589,405,Foodsafety@bury.gov.uk,Bury,http://www.bury.gov.uk,-2.27267000000000,M25 8QX,2011-10-06,fhrs_5_en-GB,5,,FHRS,5
166400,,54 Bridge Street,Ramsbottom,Greater Manchester,Room 54 Coffee House,Restaurant/Cafe/Canteen,1,5,,121782,5,,53.64805000000000,5041,405,Foodsafety@bury.gov.uk,Bury,http://www.bury.gov.uk,-2.31628700000000,BL0 9AQ,2012-09-12,fhrs_4_en-GB,4,,FHRS,10
166401,Sunlight House,125 Stand Lane,Radcliffe,Bury,Roosters Peri Peri,Takeaway/sandwich shop,7844,20,,88376,10,,53.55543600000000,23117,405,Foodsafety@bury.gov.uk,Bury,http://www.bury.gov.uk,-2.31926300000000,M26 1JR,2014-09-24,fhrs_1_en-GB,1,,FHRS,15
166402,,44 - 48 Water Street,Radcliffe,Greater Manchester,Rose Court Care Home - HC-One,Hospitals/Childcare/Caring Premises,5,5,,263693,5,,53.56391500000000,2574,405,Foodsafety@bury.gov.uk,Bury,http://www.bury.gov.uk,-2.33131500000000,M26 4DF,2014-10-25,fhrs_5_en-GB,5,,FHRS,5
166403,,148 Manchester Road,Bury,Greater Manchester,Rostrevor Private Hotel,Hotel/bed & breakfast/guest house,7842,5,,455401,5,,53.58567600000000,2000,405,Foodsafety@bury.gov.uk,Bury,http://www.bury.gov.uk,-2.30063900000000,BL9 0TL,2012-07-12,fhrs_5_en-GB,5,,FHRS,5
166404,,58 The Rock,Bury,Greater Manchester,Rowntree's Cafe,Restaurant/Cafe/Canteen,1,10,,128498,10,,53.59412200000000,5850,405,Foodsafety@bury.gov.uk,Bury,http://www.bury.gov.uk,-2.29483700000000,BL9 0PB,2012-08-23,fhrs_3_en-GB,3,,FHRS,5
166405,,52 Bury New Road,Prestwich,Bury,Royal Bake,Takeaway/sandwich shop,7844,10,,468118,5,,53.51953700000000,22785,405,Foodsafety@bury.gov.uk,Bury,http://www.bury.gov.uk,-2.27189200000000,M25 0JU,2014-05-01,fhrs_4_en-GB,4,,FHRS,5
166406,Woolpack Hotel,182 Wood Street,Bury,,Ruposhi Indian Restaurant,Restaurant/Cafe/Canteen,1,10,,88218,5,,53.59627100000000,23015,405,Foodsafety@bury.gov.uk,Bury,http://www.bury.gov.uk,-2.31558200000000,BL8 2QY,2011-02-15,fhrs_3_en-GB,3,,FHRS,10
166407,,391 Bury Old Road,Prestwich,Greater Manchester,Saffron Express,Takeaway/sandwich shop,7844,5,,136009,5,,53.53624800000000,7001,405,Foodsafety@bury.gov.uk,Bury,http://www.bury.gov.uk,-2.27110800000000,M25 1PS,2011-07-11,fhrs_4_en-GB,4,,FHRS,10
166408,Holt House,Headlands Drive,Prestwich,Greater Manchester,Salvation Army HFT Elderly,Hospitals/Childcare/Caring Premises,5,5,,263688,0,,53.51859700000000,3764,405,Foodsafety@bury.gov.uk,Bury,http://www.bury.gov.uk,-2.28574600000000,M25 9YF,2015-01-16,fhrs_5_en-GB,5,,FHRS,0
166409,San Rocco,High Street,Walshaw,"Bury, Bury",San Rocco,Restaurant/Cafe/Canteen,1,5,,89331,5,,53.59916200000000,23834,405,Foodsafety@bury.gov.uk,Bury,http://www.bury.gov.uk,-2.33955400000000,BL8 3AG,2011-11-16,fhrs_5_en-GB,5,,FHRS,0
166410,,63 Sandy Lane,Prestwich,Manchester,Sandy Lane Fish Bar,Takeaway/sandwich shop,7844,5,,409981,5,,53.52365100000000,24868,405,Foodsafety@bury.gov.uk,Bury,http://www.bury.gov.uk,-2.28831400000000,M25 9PS,2012-07-04,fhrs_5_en-GB,5,,FHRS,5
166411,Carr Bank Lodge,7 Carr Bank,Ramsbottom,Greater Manchester,Sanmini's ,Restaurant/Cafe/Canteen,1,5,,83273,5,,53.64944800000000,20311,405,Foodsafety@bury.gov.uk,Bury,http://www.bury.gov.uk,-2.31785600000000,BL0 9DJ,2011-07-13,fhrs_5_en-GB,5,,FHRS,5
166412,,6 Manchester Old Road,Bury,Bury,Santino Restaurant,Restaurant/Cafe/Canteen,1,5,,132770,0,,53.58778500000000,6493,405,Foodsafety@bury.gov.uk,Bury,http://www.bury.gov.uk,-2.30193800000000,BL9 0TB,2012-06-19,fhrs_5_en-GB,5,,FHRS,5
166413,,1 Scholes Lane,Prestwich,Greater Manchester,Saporito,Restaurant/Cafe/Canteen,1,5,,80925,5,,53.52427300000000,1968,405,Foodsafety@bury.gov.uk,Bury,http://www.bury.gov.uk,-2.27610000000000,M25 0PD,2009-03-06,fhrs_5_en-GB,5,,FHRS,5
166414,"Toulmin Block, Stall 22/23",Bury Market,Murray Road,Bury,Saporito,Restaurant/Cafe/Canteen,1,,,558927,,,53.59098400000000,26273,405,Foodsafety@bury.gov.uk,Bury,http://www.bury.gov.uk,-2.29528400000000,BL9 0BJ,,fhrs_awaitinginspection_en-GB,AwaitingInspection,,FHRS,
166415,,15 Blackburn Street,Radcliffe,Greater Manchester,Sayers The Bakers,Takeaway/sandwich shop,7844,0,,468125,0,,53.55875400000000,29,405,Foodsafety@bury.gov.uk,Bury,http://www.bury.gov.uk,-2.32550800000000,M26 1NN,2013-11-11,fhrs_5_en-GB,5,,FHRS,5
166416,,40 Haymarket Street,Bury,Greater Manchester,Second Base,Takeaway/sandwich shop,7844,0,,118378,0,,53.59211000000000,4770,405,Foodsafety@bury.gov.uk,Bury,http://www.bury.gov.uk,-2.29792000000000,BL9 0AY,2012-08-29,fhrs_5_en-GB,5,,FHRS,5
166417,,6 Clifton Road Prestwich,,,Second Chance,Restaurant/Cafe/Canteen,1,5,,439410,5,,53.53235700000000,25152,405,Foodsafety@bury.gov.uk,Bury,http://www.bury.gov.uk,-2.28624600000000,M25 3HQ,2012-08-23,fhrs_5_en-GB,5,,FHRS,0
166418,,Kings Road,Prestwich,Greater Manchester,Sedgley Park County Primary School,School/college/university,7845,0,,624780,0,,,1559,405,Foodsafety@bury.gov.uk,Bury,http://www.bury.gov.uk,,M25 8HT,2013-06-12,fhrs_5_en-GB,5,,FHRS,5
166419,Sedgley Park Rufc,Park Lane,Whitefield,Bury,Sedgley Park Rugby Union Club,Pub/bar/nightclub,7843,10,,62179,5,,53.53546900000000,1372,405,Foodsafety@bury.gov.uk,Bury,http://www.bury.gov.uk,-2.27267000000000,M25 7PA,2015-01-12,fhrs_4_en-GB,4,,FHRS,5
166420,5 Rufford Parade,Rufford Drive,Whitefield,Greater Manchester,Shabaz Indian Takeaway,Takeaway/sandwich shop,7844,5,,115850,5,,53.55638000000000,4502,405,Foodsafety@bury.gov.uk,Bury,http://www.bury.gov.uk,-2.29105700000000,M45 8PL,2013-02-28,fhrs_5_en-GB,5,,FHRS,5
166421,Curry Cottage,Radcliffe Moor Road,Radcliffe,Greater Manchester,Shahbaaz,Restaurant/Cafe/Canteen,1,5,,80825,5,,53.56899600000000,1964,405,Foodsafety@bury.gov.uk,Bury,http://www.bury.gov.uk,-2.35534800000000,M26 3WL,2013-11-06,fhrs_5_en-GB,5,,FHRS,5
166422,,77 Sunny Bank Road,Bury,Greater Manchester,Shethu Takeaway,Takeaway/sandwich shop,7844,5,,100167,0,,53.56163100000000,3206,405,Foodsafety@bury.gov.uk,Bury,http://www.bury.gov.uk,-2.28671500000000,BL9 8ES,2011-09-27,fhrs_5_en-GB,5,,FHRS,5
166423,Scrap Yard,Pimhole Road,Pimhole,"Bury, Greater Manchester",Shirleys Kitchen,Restaurant/Cafe/Canteen,1,20,,131494,15,,53.59165500000000,6301,405,Foodsafety@bury.gov.uk,Bury,http://www.bury.gov.uk,-2.28148000000000,BL9 7EY,2014-10-29,fhrs_1_en-GB,1,,FHRS,15
166424,,25A Market Street,Tottington,Greater Manchester,Shukria,Takeaway/sandwich shop,7844,10,,115104,15,,53.61434000000000,4423,405,Foodsafety@bury.gov.uk,Bury,http://www.bury.gov.uk,-2.34084000000000,BL8 4AA,2010-02-17,fhrs_2_en-GB,2,,FHRS,10
166425,,178a Bury New Road,Whitefield,Bury,Sindhoor,Restaurant/Cafe/Canteen,1,,,89642,,,53.54847200000000,24028,405,Foodsafety@bury.gov.uk,Bury,http://www.bury.gov.uk,-2.29390100000000,M45 6QF,,fhrs_awaitinginspection_en-GB,AwaitingInspection,,FHRS,
166426,,197 Bury New Road,Whitefield,Greater Manchester,Slatterys,Restaurant/Cafe/Canteen,1,0,,129353,0,,53.54864100000000,6000,405,Foodsafety@bury.gov.uk,Bury,http://www.bury.gov.uk,-2.29452100000000,M45 6GE,2011-06-09,fhrs_5_en-GB,5,,FHRS,5
166427,,26 Fountain Place,Whitefield,Greater Manchester,Soupreme Sandwich Company,Takeaway/sandwich shop,7844,5,,121204,5,,53.54372000000000,4996,405,Foodsafety@bury.gov.uk,Bury,http://www.bury.gov.uk,-2.29275100000000,M45 7FG,2014-11-27,fhrs_5_en-GB,5,,FHRS,5
166428,,56 Moorgate,Bury,Greater Manchester,Speedy Pizza,Takeaway/sandwich shop,7844,5,,132262,0,,53.59684400000000,6407,405,Foodsafety@bury.gov.uk,Bury,http://www.bury.gov.uk,-2.28774000000000,BL9 7AF,2013-02-21,fhrs_5_en-GB,5,,FHRS,5
166429,,156 Stopes Road,Radcliffe,Greater Manchester,Spice Cottage,Restaurant/Cafe/Canteen,1,5,,85237,5,,53.56433600000000,21376,405,Foodsafety@bury.gov.uk,Bury,http://www.bury.gov.uk,-2.35677300000000,M26 3TW,2013-12-09,fhrs_5_en-GB,5,,FHRS,5
166430,,6 Square Street,Ramsbottom,Greater Manchester,Spice Garden,Restaurant/Cafe/Canteen,1,5,,114598,5,,53.64738100000000,4370,405,Foodsafety@bury.gov.uk,Bury,http://www.bury.gov.uk,-2.31793100000000,BL0 9BE,2012-09-10,fhrs_2_en-GB,2,,FHRS,15
166431,,8 Bell Lane,Bury,,Spice Hut,Takeaway/sandwich shop,7844,5,,624791,5,,53.59688400000000,26842,405,Foodsafety@bury.gov.uk,Bury,http://www.bury.gov.uk,-2.28627400000000,BL9 6AR,2014-02-03,fhrs_4_en-GB,4,,FHRS,10
166432,,16 Moss Shaw Way,Radcliffe,Greater Manchester,Spice of India Takeaway,Takeaway/sandwich shop,7844,5,,53561,5,,53.57120400000000,1207,405,Foodsafety@bury.gov.uk,Bury,http://www.bury.gov.uk,-2.34416200000000,M26 4NN,2012-10-31,fhrs_5_en-GB,5,,FHRS,5
166433,,135 Rochdale Road,Bury,Greater Manchester,Spicy Chef,Takeaway/sandwich shop,7844,20,,115373,15,,53.59311900000000,4456,405,Foodsafety@bury.gov.uk,Bury,http://www.bury.gov.uk,-2.28590100000000,BL9 7BA,2011-03-29,fhrs_1_en-GB,1,,FHRS,15
166434,,Springside Road,Bury,Greater Manchester,Springside County Primary School,School/college/university,7845,0,,624796,0,,53.61761200000000,5887,405,Foodsafety@bury.gov.uk,Bury,http://www.bury.gov.uk,-2.29687600000000,BL9 5JB,2013-11-28,fhrs_5_en-GB,5,,FHRS,5
166435,Spurr House,Pole Lane,Bury,Greater Manchester,Spurr House,Hospitals/Childcare/Caring Premises,5,5,,263711,5,,53.55934600000000,2270,405,Foodsafety@bury.gov.uk,Bury,http://www.bury.gov.uk,-2.27190500000000,BL9 8QL,2014-09-04,fhrs_5_en-GB,5,,FHRS,5
166436,,6 Walmersley Old Road,Bury,Greater Manchester,Sriti Tandoor Takeaway,Takeaway/sandwich shop,7844,10,,124144,5,,53.61781600000000,5263,405,Foodsafety@bury.gov.uk,Bury,http://www.bury.gov.uk,-2.29436800000000,BL9 6SQ,2012-12-10,fhrs_4_en-GB,4,,FHRS,5
166437,,Bolton Street,Ramsbottom,Bury,St Andrews C of E Primary School,School/college/university,7845,0,,624768,5,,53.64394900000000,1529,405,Foodsafety@bury.gov.uk,Bury,http://www.bury.gov.uk,-2.32058200000000,BL0 9JD,2013-04-09,fhrs_5_en-GB,5,,FHRS,5
166438,,Graves Street,Radcliffe,Bury,St Andrews C of E Primary School,School/college/university,7845,5,,624771,5,,,1535,405,Foodsafety@bury.gov.uk,Bury,http://www.bury.gov.uk,,M26 0HB,2013-02-19,fhrs_5_en-GB,5,,FHRS,5
166439,St Bernadettes Rc Primary Scho,Abingdon Avenue,Whitefield,Greater Manchester,St Bernadettes School,School/college/university,7845,5,,624734,5,,53.55830000000000,1356,405,Foodsafety@bury.gov.uk,Bury,http://www.bury.gov.uk,-2.29229300000000,M45 8PT,2013-07-10,fhrs_5_en-GB,5,,FHRS,5
166440,,Hollins Lane Unsworth,,,St Georges Church,Restaurant/Cafe/Canteen,1,5,,528663,5,,53.56289500000000,25773,405,Foodsafety@bury.gov.uk,Bury,http://www.bury.gov.uk,-2.27281900000000,BL9 8JJ,2013-05-17,fhrs_5_en-GB,5,,FHRS,5
166441,,Whittaker Lane,Prestwich,Greater Manchester,St Hildas C of E Primary School,School/college/university,7845,0,,624741,0,,53.52952200000000,1474,405,Foodsafety@bury.gov.uk,Bury,http://www.bury.gov.uk,-2.26815400000000,M25 1HA,2013-09-11,fhrs_5_en-GB,5,,FHRS,0
166442,,Athlone Avenue,Bury,Greater Manchester,St John with St Mark CE primary school,School/college/university,7845,5,,624751,0,,53.60340600000000,1500,405,Foodsafety@bury.gov.uk,Bury,http://www.bury.gov.uk,-2.29487200000000,BL9 5EE,2014-02-05,fhrs_5_en-GB,5,,FHRS,0
166443,St Johns C Of E School,Johnson Street,Radcliffe,Greater Manchester,St Johns C E Primary,School/college/university,7845,5,,624772,0,,53.55472800000000,1536,405,Foodsafety@bury.gov.uk,Bury,http://www.bury.gov.uk,-2.32522000000000,M26 1AW,2013-03-21,fhrs_5_en-GB,5,,FHRS,0
166444,St Josephs And St Bedes Roman,Danesmoor Drive,Bury,Greater Manchester,St Josephs R.C Primary School,School/college/university,7845,0,,624754,5,,53.60385600000000,1507,405,Foodsafety@bury.gov.uk,Bury,http://www.bury.gov.uk,-2.27980800000000,BL9 6ER,2013-05-21,fhrs_4_en-GB,4,,FHRS,10
166445,St Chads Church Of England Jun,Morley Street,Bury,Greater Manchester,St Lukes Primary School,School/college/university,7845,0,,624759,0,,53.58406000000000,1514,405,Foodsafety@bury.gov.uk,Bury,http://www.bury.gov.uk,-2.29265200000000,BL9 9JQ,2013-02-25,fhrs_5_en-GB,5,,FHRS,0
166446,,Heywood Road,Prestwich,Greater Manchester,St Margarets C.E. Primary,School/college/university,7845,5,,624778,0,,53.54483300000000,1556,405,Foodsafety@bury.gov.uk,Bury,http://www.bury.gov.uk,-2.26260700000000,M25 2BW,2013-06-13,fhrs_5_en-GB,5,,FHRS,0
166447,,389 Bury Old Road,Prestwich,Greater Manchester,St Margarets Tavern,Pub/bar/nightclub,7843,5,,85687,5,,53.53580100000000,2168,405,Foodsafety@bury.gov.uk,Bury,http://www.bury.gov.uk,-2.26992900000000,M25 1QA,2011-09-23,fhrs_5_en-GB,5,,FHRS,5
166448,St Marys C Of E Hawkshaw Prima,Bolton Road,Hawkshaw,Bury,St Marys C E  Primary School,School/college/university,7845,5,,624785,0,,53.63088800000000,2642,405,Foodsafety@bury.gov.uk,Bury,http://www.bury.gov.uk,-2.36497200000000,BL8 4JL,2013-03-19,fhrs_5_en-GB,5,,FHRS,5
166449,St Marys Church Of England Pri,Rectory Lane,Prestwich,Greater Manchester,St Marys C of E Primary School,School/college/university,7845,0,,624740,0,,,1465,405,Foodsafety@bury.gov.uk,Bury,http://www.bury.gov.uk,,M25 5BP,2014-01-28,fhrs_5_en-GB,5,,FHRS,0
166450,St Marys Rc School,Belgrave Street,Radcliffe,Bury,St Marys R C School,School/college/university,7845,0,,632339,5,,53.56660100000000,1493,405,Foodsafety@bury.gov.uk,Bury,http://www.bury.gov.uk,-2.33195500000000,M26 4DG,2014-01-21,fhrs_5_en-GB,5,,FHRS,5
166451,St Michaels Rc Primary School,Ribble Drive,Whitefield,Greater Manchester,St Michaels R.C.Primary School,School/college/university,7845,5,,624794,0,,53.55100000000000,4292,405,Foodsafety@bury.gov.uk,Bury,http://www.bury.gov.uk,-2.28561700000000,M45 8NJ,2013-09-19,fhrs_5_en-GB,5,,FHRS,0
166452,St Peters Primary School,Whitefield Road,Bury,Greater Manchester,St Peters Primary School,School/college/university,7845,0,,624739,0,,53.57778100000000,1380,405,Foodsafety@bury.gov.uk,Bury,http://www.bury.gov.uk,-2.30180700000000,BL9 9PW,2013-02-05,fhrs_5_en-GB,5,,FHRS,0
166453,St Stephens C Of E Primary Sch,Colville Drive,Bury,Greater Manchester,St Stephens C.E Junior School,School/college/university,7845,5,,624753,5,,53.58704000000000,1506,405,Foodsafety@bury.gov.uk,Bury,http://www.bury.gov.uk,-2.32537800000000,BL8 2DX,2013-07-02,fhrs_5_en-GB,5,,FHRS,0
166454,,Pimhole Road,Pimhole,Bury,St Thomas's C.E Primary School,School/college/university,7845,0,,624761,5,,53.59165500000000,1517,405,Foodsafety@bury.gov.uk,Bury,http://www.bury.gov.uk,-2.28148000000000,BL9 7EY,2013-11-07,fhrs_5_en-GB,5,,FHRS,5
166455,St Josephs Rc Primary School,Queen Street,Ramsbottom,Greater Manchester,St. Josephs R C Primary School,School/college/university,7845,5,,624744,0,,53.64456300000000,1485,405,Foodsafety@bury.gov.uk,Bury,http://www.bury.gov.uk,-2.32288600000000,BL0 9JJ,2013-09-12,fhrs_5_en-GB,5,,FHRS,5
166456,St Maries Rc Primary School,Edward Street,Bury,Greater Manchester,St.Maries R.C Primary,School/college/university,7845,0,,624766,0,,53.58978600000000,1526,405,Foodsafety@bury.gov.uk,Bury,http://www.bury.gov.uk,-2.29264700000000,BL9 0RZ,2013-10-08,fhrs_5_en-GB,5,,FHRS,0
166457,,Porritt Street,Bury,Greater Manchester,St.Pauls C.E. Primary School,School/college/university,7845,5,,624762,0,,53.60069200000000,1519,405,Foodsafety@bury.gov.uk,Bury,http://www.bury.gov.uk,-2.27989300000000,BL9 6LJ,2013-10-10,fhrs_5_en-GB,5,,FHRS,0
166458,,Ashbourne Grove,Radcliffe,Bury,Stand Golf Club,Pub/bar/nightclub,7843,20,,187568,10,,53.55200500000000,1361,405,Foodsafety@bury.gov.uk,Bury,http://www.bury.gov.uk,-2.30438500000000,M45 7NL,2014-09-10,fhrs_1_en-GB,1,,FHRS,15
166459,,73 Ringley Road,Whitefield,Bury,Stand Pre School Nursery,Hospitals/Childcare/Caring Premises,5,0,,189315,5,,53.54551700000000,3807,405,Foodsafety@bury.gov.uk,Bury,http://www.bury.gov.uk,-2.31082800000000,M45 7LH,2014-07-08,fhrs_5_en-GB,5,,FHRS,5
166460,Bury F C Supporters Club,Gigg Lane,Bury,Greater Manchester,Starkies,Restaurant/Cafe/Canteen,1,0,,118523,0,,53.58236000000000,4788,405,Foodsafety@bury.gov.uk,Bury,http://www.bury.gov.uk,-2.29323000000000,BL9 9HU,2011-02-16,fhrs_5_en-GB,5,,FHRS,0
166461,Starmount Residential Home,Browns Road,Radcliffe,Greater Manchester,Starmount Villa Residential Ho,Hospitals/Childcare/Caring Premises,5,5,,263745,0,,53.57347000000000,2569,405,Foodsafety@bury.gov.uk,Bury,http://www.bury.gov.uk,-2.37106100000000,BL2 6RG,2013-02-28,fhrs_5_en-GB,5,,FHRS,5
166462,,83 Park Lane,Whitefield,Manchester,State Fayre,Restaurant/Cafe/Canteen,1,5,,528664,5,,53.54257300000000,25776,405,Foodsafety@bury.gov.uk,Bury,http://www.bury.gov.uk,-2.30567600000000,M45 7HL,2014-02-10,fhrs_5_en-GB,5,,FHRS,5
166463,,60 Stephen Street,Bury,Greater Manchester,Stephen Street Chippy,Takeaway/sandwich shop,7844,5,,86473,5,,53.59170100000000,2201,405,Foodsafety@bury.gov.uk,Bury,http://www.bury.gov.uk,-2.31695300000000,BL8 2PU,2011-09-27,fhrs_4_en-GB,4,,FHRS,10
166464,,415 Rochdale Old Road,Bury,,Stone`s Cafe Bar,Restaurant/Cafe/Canteen,1,5,,550251,5,,53.60164300000000,25827,405,Foodsafety@bury.gov.uk,Bury,http://www.bury.gov.uk,-2.25650700000000,BL9 7TB,2013-06-27,fhrs_5_en-GB,5,,FHRS,0
166465,,28 Bolton Street,Ramsbottom,Bury,Stop Inn,Takeaway/sandwich shop,7844,20,,85132,15,,53.64782800000000,21283,405,Foodsafety@bury.gov.uk,Bury,http://www.bury.gov.uk,-2.31891700000000,BL0 9HX,2014-11-14,fhrs_1_en-GB,1,,FHRS,15
166466,,Shell Service Station,Bury New Rd,Prestwich,Subway,Takeaway/sandwich shop,7844,5,,89210,5,,53.53546900000000,23752,405,Foodsafety@bury.gov.uk,Bury,http://www.bury.gov.uk,-2.27267000000000,M25 7BH,2014-07-18,fhrs_5_en-GB,5,,FHRS,5
166467,,10 St Johns Square,Bury,,Subway,Takeaway/sandwich shop,7844,5,,624793,5,,,26871,405,Foodsafety@bury.gov.uk,Bury,http://www.bury.gov.uk,,BL9 OJL,2013-12-09,fhrs_5_en-GB,5,,FHRS,5
166468,,26 Market Street,Bury,Greater Manchester,Subway,Takeaway/sandwich shop,7844,5,,86115,5,,53.59296400000000,2191,405,Foodsafety@bury.gov.uk,Bury,http://www.bury.gov.uk,-2.29771500000000,BL9 0AJ,2009-10-21,fhrs_5_en-GB,5,,FHRS,5
166469,Bp Motorway Service Station,Rochdale Road,Bury,Bury,Subway,Takeaway/sandwich shop,7844,0,,86981,0,,53.59249100000000,22313,405,Foodsafety@bury.gov.uk,Bury,http://www.bury.gov.uk,-2.27760300000000,BL9 7DB,2012-12-07,fhrs_5_en-GB,5,,FHRS,0
166470,"Elms Square, Unit 6",Bury New Road,Whitefield,Greater Manchester,Subway,Takeaway/sandwich shop,7844,0,,133175,5,,53.55207061767578,6567,405,Foodsafety@bury.gov.uk,Bury,http://www.bury.gov.uk,-2.29643988609314,M25 7TA,2012-11-01,fhrs_5_en-GB,5,,FHRS,0
166471,,124 Brandlesholme Road,Bury,,Subway (Euro Garages),Takeaway/sandwich shop,7844,5,,528667,5,,53.60114000000000,25788,405,Foodsafety@bury.gov.uk,Bury,http://www.bury.gov.uk,-2.30955900000000,BL8 1AU,2014-05-07,fhrs_5_en-GB,5,,FHRS,5
166472,,257 Heywood Road,Prestwich,Greater Manchester,Sullivans Place,Takeaway/sandwich shop,7844,5,,117798,0,,53.53991400000000,4705,405,Foodsafety@bury.gov.uk,Bury,http://www.bury.gov.uk,-2.27163000000000,M25 2QP,2013-02-28,fhrs_5_en-GB,5,,FHRS,5
166473,Summerseat Garden Centre,Railway Street,Summerseat,"Ramsbottom, Greater Manchester",Summerseat Garden Centre Ltd,Restaurant/Cafe/Canteen,1,5,,131909,5,,53.62728300000000,635,405,Foodsafety@bury.gov.uk,Bury,http://www.bury.gov.uk,-2.31784000000000,BL9 5QD,2011-08-04,fhrs_5_en-GB,5,,FHRS,5
166474,Summerseat Methodist Primary S,Rowlands Road,Summerseat,"Ramsbottom, Greater Manchester",Summerseat Methodist Primary,School/college/university,7845,5,,624745,5,,53.62948300000000,1486,405,Foodsafety@bury.gov.uk,Bury,http://www.bury.gov.uk,-2.30851200000000,BL9 5NF,2013-07-05,fhrs_5_en-GB,5,,FHRS,5
166475,Rear Of 322,Walmersley Road,Bury,Greater Manchester,Sundial Fish and Chip Shop,Takeaway/sandwich shop,7844,5,,94371,0,,53.60977700000000,2756,405,Foodsafety@bury.gov.uk,Bury,http://www.bury.gov.uk,-2.29216500000000,BL9 6QF,2011-09-05,fhrs_5_en-GB,5,,FHRS,5
166476,,Hathaway Road,Bury,Greater Manchester,Sunny Bank County Primary,School/college/university,7845,5,,632341,5,,53.56221500000000,1543,405,Foodsafety@bury.gov.uk,Bury,http://www.bury.gov.uk,-2.28684000000000,BL9 8EQ,2014-01-28,fhrs_5_en-GB,5,,FHRS,5
166477,Sunnybank,Sunny Bower Street,Tottington,Greater Manchester,Sunnybank P.R.S. Ltd.,Hospitals/Childcare/Caring Premises,5,0,,263710,0,,53.61102200000000,2262,405,Foodsafety@bury.gov.uk,Bury,http://www.bury.gov.uk,-2.34116100000000,BL8 3HL,2011-11-02,fhrs_5_en-GB,5,,FHRS,0
166478,,68 Sunny Bank Road,Bury,,Sunnybank Stop Inn,Takeaway/sandwich shop,7844,0,,459409,5,,53.56109300000000,25284,405,Foodsafety@bury.gov.uk,Bury,http://www.bury.gov.uk,-2.28580600000000,BL9 8HJ,2012-10-25,fhrs_5_en-GB,5,,FHRS,5
166479,,70 Cross Lane,Radcliffe,Greater Manchester,Swan Fish & Chips,Takeaway/sandwich shop,7844,5,,56017,5,,53.56538200000000,1265,405,Foodsafety@bury.gov.uk,Bury,http://www.bury.gov.uk,-2.31417400000000,M26 2RF,2011-09-20,fhrs_5_en-GB,5,,FHRS,5
166480,,19 Bury New Road,Prestwich,Greater Manchester,Ta'am,Takeaway/sandwich shop,7844,5,,85882,5,,53.51818800000000,21763,405,Foodsafety@bury.gov.uk,Bury,http://www.bury.gov.uk,-2.27206400000000,M25 9JZ,2013-04-16,fhrs_4_en-GB,4,,FHRS,10
166481,3 Park Hill,Bury Old Road,Prestwich,Greater Manchester,Talia Kosher Catering,Other catering premises,7841,5,,468115,10,,53.51877400000000,214,405,Foodsafety@bury.gov.uk,Bury,http://www.bury.gov.uk,-2.25911200000000,M25 0FX,2012-11-07,fhrs_3_en-GB,3,,FHRS,10
166482,,172 Bury New Road,Whitefield,Manchester,Tamarind Express,Takeaway/sandwich shop,7844,5,,508768,5,,53.54847200000000,25550,405,Foodsafety@bury.gov.uk,Bury,http://www.bury.gov.uk,-2.29390100000000,M45 6QF,2013-02-22,fhrs_4_en-GB,4,,FHRS,10
166483,,32 Albion Street,Radcliffe,Bury,Tandoori Spice,Takeaway/sandwich shop,7844,,,263712,,,53.55308400000000,24686,405,Foodsafety@bury.gov.uk,Bury,http://www.bury.gov.uk,-2.32469400000000,M26 1BH,,fhrs_awaitinginspection_en-GB,AwaitingInspection,,FHRS,
166484,Rowan Place,Scholes Lane,Prestwich,Greater Manchester,Tao's Restaurant,Restaurant/Cafe/Canteen,1,5,,95401,5,,53.53546900000000,2839,405,Foodsafety@bury.gov.uk,Bury,http://www.bury.gov.uk,-2.27267000000000,M25 8AA,2012-05-29,fhrs_5_en-GB,5,,FHRS,5
166485,,205 Middleton Road Prestwich,,,Tasty Point,Takeaway/sandwich shop,7844,,,516760,,,53.52493500000000,25617,405,Foodsafety@bury.gov.uk,Bury,http://www.bury.gov.uk,-2.24881700000000,M8 4LR,,fhrs_awaitinginspection_en-GB,AwaitingInspection,,FHRS,
166486,,30 Bridge Street,Ramsbottom,Greater Manchester,Taylors Fish and Chips,Takeaway/sandwich shop,7844,10,,86600,5,,53.64805000000000,2208,405,Foodsafety@bury.gov.uk,Bury,http://www.bury.gov.uk,-2.31628700000000,BL0 9AQ,2011-11-11,fhrs_4_en-GB,4,,FHRS,5
166487,,131 Randale Drive,Bury,,Taylor's Fish Bar,Takeaway/sandwich shop,7844,5,,88639,0,,53.55627200000000,23335,405,Foodsafety@bury.gov.uk,Bury,http://www.bury.gov.uk,-2.28372000000000,BL9 8NE,2013-02-19,fhrs_5_en-GB,5,,FHRS,5
166488,Bevis Green Works,Mill Road,Bury,Greater Manchester,Tetrosyl Limited,Restaurant/Cafe/Canteen,1,0,,445900,0,,53.62081900000000,4299,405,Foodsafety@bury.gov.uk,Bury,http://www.bury.gov.uk,-2.29009500000000,BL9 6RE,2012-07-26,fhrs_5_en-GB,5,,FHRS,0
166489,,Bury New Road,Prestwich,Greater Manchester,TGI Fridays,Restaurant/Cafe/Canteen,1,5,,101291,5,,53.53409900000000,3303,405,Foodsafety@bury.gov.uk,Bury,http://www.bury.gov.uk,-2.28669500000000,M25 3AJ,2012-05-04,fhrs_5_en-GB,5,,FHRS,5
166490,,458 Bury New Road,Prestwich,Greater Manchester,Thai Orchid,Restaurant/Cafe/Canteen,1,5,,85939,0,,53.53320400000000,21789,405,Foodsafety@bury.gov.uk,Bury,http://www.bury.gov.uk,-2.28521000000000,M25 1AX,2012-10-18,fhrs_5_en-GB,5,,FHRS,0
166491,,461-465 Bury And Bolton Road,Radcliffe,Greater Manchester,The Ainsworth Arms,Pub/bar/nightclub,7843,5,,84984,0,,53.48062700000000,2119,405,Foodsafety@bury.gov.uk,Bury,http://www.bury.gov.uk,-2.24654900000000,M26 0LJ,2010-11-10,fhrs_4_en-GB,4,,FHRS,10
166492,,Haymarket Street,Bury,Greater Manchester,The Art Picture House,Pub/bar/nightclub,7843,0,,86072,0,,53.59211000000000,21883,405,Foodsafety@bury.gov.uk,Bury,http://www.bury.gov.uk,-2.29792000000000,BL9 0AY,2010-11-04,fhrs_5_en-GB,5,,FHRS,0
166493,,Unit 1  Ribble Square,Ribble Drive,Whitefield,The Bakery,Takeaway/sandwich shop,7844,5,,516759,5,,,25613,405,Foodsafety@bury.gov.uk,Bury,http://www.bury.gov.uk,,M45 8AJ,2013-07-26,fhrs_5_en-GB,5,,FHRS,5
166494,The Barracks,400 Bolton Road,Bury,,The Barracks Cafe,Restaurant/Cafe/Canteen,1,,,624790,,,53.58699100000000,26837,405,Foodsafety@bury.gov.uk,Bury,http://www.bury.gov.uk,-2.32374600000000,BL8 2DA,,fhrs_awaitinginspection_en-GB,AwaitingInspection,,FHRS,
166495,,5 St Anns Road,Prestwich,Bury,The Beeches,Hospitals/Childcare/Caring Premises,5,5,,189312,5,,53.52707300000000,2583,405,Foodsafety@bury.gov.uk,Bury,http://www.bury.gov.uk,-2.28176000000000,M25 9LD,2013-12-16,fhrs_5_en-GB,5,,FHRS,5
166496,,Lowercroft Road,Bury,Bury,The Black Bull Hotel,Pub/bar/nightclub,7843,5,,83794,0,,53.59085100000000,2063,405,Foodsafety@bury.gov.uk,Bury,http://www.bury.gov.uk,-2.34182900000000,BL8 2EY,2012-01-25,fhrs_5_en-GB,5,,FHRS,5
166497,,840 Manchester Road,Bury,Greater Manchester,The Blue Bell,Pub/bar/nightclub,7843,5,,85296,5,,53.56047200000000,2141,405,Foodsafety@bury.gov.uk,Bury,http://www.bury.gov.uk,-2.29378800000000,BL9 8DW,2013-01-16,fhrs_4_en-GB,4,,FHRS,10
166498,The Brandles,23-25 Birks Drive,Bury,Greater Manchester,The Brandles,Hospitals/Childcare/Caring Premises,5,5,,263713,0,,53.60982300000000,2899,405,Foodsafety@bury.gov.uk,Bury,http://www.bury.gov.uk,-2.31973400000000,BL8 1JA,2012-03-05,fhrs_5_en-GB,5,,FHRS,0
166499,,462 Walmersley Road,Bury,Greater Manchester,The Bread Basket,Takeaway/sandwich shop,7844,5,,45323,5,,53.61170800000000,11,405,Foodsafety@bury.gov.uk,Bury,http://www.bury.gov.uk,-2.29269300000000,BL9 6QE,2010-04-23,fhrs_4_en-GB,4,,FHRS,10
166500,,692 Manchester Road,Bury,Greater Manchester,The Bridge Nursery,Hospitals/Childcare/Caring Premises,5,0,,189305,0,,53.56752900000000,4988,405,Foodsafety@bury.gov.uk,Bury,http://www.bury.gov.uk,-2.29344400000000,BL9 9TQ,2011-10-19,fhrs_5_en-GB,5,,FHRS,5
166501,The Brook,326-328 Bolton Road West,Ramsbottom,Greater Manchester,The Brook,Pub/bar/nightclub,7843,5,,82628,5,,53.63544200000000,2007,405,Foodsafety@bury.gov.uk,Bury,http://www.bury.gov.uk,-2.33220800000000,BL0 9QY,2011-02-07,fhrs_4_en-GB,4,,FHRS,10
166502,Brown Cow,Woodhill Road,Bury,Greater Manchester,The Brown Cow,Pub/bar/nightclub,7843,0,,83836,0,,53.61054500000000,2065,405,Foodsafety@bury.gov.uk,Bury,http://www.bury.gov.uk,-2.30485200000000,BL8 1DA,2014-05-02,fhrs_5_en-GB,5,,FHRS,0
166503,,10-12 Railway Street,Ramsbottom,Greater Manchester,The Buddha Lounge,Restaurant/Cafe/Canteen,1,5,,85039,5,,53.64672200000000,21219,405,Foodsafety@bury.gov.uk,Bury,http://www.bury.gov.uk,-2.31533900000000,BL0 9AL,2014-10-24,fhrs_5_en-GB,5,,FHRS,5
166504,,98 Water Street,Radcliffe,Bury,The Butty Box,Restaurant/Cafe/Canteen,1,5,,88904,5,,53.56313300000000,23543,405,Foodsafety@bury.gov.uk,Bury,http://www.bury.gov.uk,-2.33472100000000,M26 4BE,2014-06-17,fhrs_5_en-GB,5,,FHRS,5
166505,,30 Ainsworth Road,Radcliffe,Manchester,The Cafe,Restaurant/Cafe/Canteen,1,0,,591248,0,,53.56469100000000,26489,405,Foodsafety@bury.gov.uk,Bury,http://www.bury.gov.uk,-2.33335900000000,M26 4EA,2014-01-31,fhrs_5_en-GB,5,,FHRS,0
166506,,5 Rock Place,Bury,,The Chinese Buffet,Restaurant/Cafe/Canteen,1,,,729006,,,53.59448000000000,27590,405,Foodsafety@bury.gov.uk,Bury,http://www.bury.gov.uk,-2.29174200000000,BL9 0JX,,fhrs_awaitinginspection_en-GB,AwaitingInspection,,FHRS,
166507,,2 Bolton Street,Ramsbottom,Greater Manchester,The Chocolate Cafe UK Ltd,Restaurant/Cafe/Canteen,1,5,,83751,0,,53.64782800000000,20601,405,Foodsafety@bury.gov.uk,Bury,http://www.bury.gov.uk,-2.31891700000000,BL0 9HX,2014-09-29,fhrs_5_en-GB,5,,FHRS,0
166508,Church Inn,40 Church Lane,Prestwich,Greater Manchester,The Church Inn,Pub/bar/nightclub,7843,5,,85710,5,,53.53032800000000,2169,405,Foodsafety@bury.gov.uk,Bury,http://www.bury.gov.uk,-2.28513100000000,M25 1AJ,2014-01-30,fhrs_5_en-GB,5,,FHRS,5
166509,,2 Silver Street,Bury,,The Clarence,Restaurant/Cafe/Canteen,1,,,729001,,,53.59298800000000,27579,405,Foodsafety@bury.gov.uk,Bury,http://www.bury.gov.uk,-2.29884800000000,BL9 0EX,,fhrs_awaitinginspection_en-GB,AwaitingInspection,,FHRS,
166510,,24 Crompton Street Bury,,,The Coffee House,Restaurant/Cafe/Canteen,1,5,,624792,0,,,26869,405,Foodsafety@bury.gov.uk,Bury,http://www.bury.gov.uk,,BL9 OAD,2014-05-02,fhrs_5_en-GB,5,,FHRS,0
166511,"Toulmin Block, Stall 2",Bury Market,Murray Road,Bury,The Coffee Pot,Restaurant/Cafe/Canteen,1,10,,80235,10,,53.59098400000000,1940,405,Foodsafety@bury.gov.uk,Bury,http://www.bury.gov.uk,-2.29528400000000,BL9 0BJ,2010-02-23,fhrs_3_en-GB,3,,FHRS,10
166512,,4 Church Street West,Radcliffe,Manchester,The Coffee Shop,Restaurant/Cafe/Canteen,1,5,,558924,5,,53.55955800000000,26196,405,Foodsafety@bury.gov.uk,Bury,http://www.bury.gov.uk,-2.32403400000000,M26 2SQ,2013-07-15,fhrs_5_en-GB,5,,FHRS,5
166513,,9e Bridge Street,Ramsbottom,Bury,The Cultured Bean,Restaurant/Cafe/Canteen,1,5,,101264,0,,53.64808100000000,3301,405,Foodsafety@bury.gov.uk,Bury,http://www.bury.gov.uk,-2.31501600000000,BL0 9AB,2011-02-23,fhrs_4_en-GB,4,,FHRS,10
166514,,373 Bolton Road,Radcliffe,Greater Manchester,The Currant Bun,Takeaway/sandwich shop,7844,5,,100072,5,,53.56286100000000,32,405,Foodsafety@bury.gov.uk,Bury,http://www.bury.gov.uk,-2.34811000000000,M26 3QQ,2012-09-25,fhrs_4_en-GB,4,,FHRS,10
166515,Duke William Inn,Well Street,Ainsworth,"Radcliffe, Greater Manchester",The Duke William Inn,Pub/bar/nightclub,7843,5,,85157,5,,53.58874700000000,2130,405,Foodsafety@bury.gov.uk,Bury,http://www.bury.gov.uk,-2.36040800000000,BL2 5SQ,2013-09-04,fhrs_5_en-GB,5,,FHRS,5
166516,,43 Bolton Street,Ramsbottom,Greater Manchester,The First Chop,Pub/bar/nightclub,7843,5,,85068,5,,53.64758600000000,21237,405,Foodsafety@bury.gov.uk,Bury,http://www.bury.gov.uk,-2.31855300000000,BL0 9HU,2013-04-30,fhrs_4_en-GB,4,,FHRS,10
166517,,62 Bolton Road West,Ramsbottom,Bury,The Fish & Chip Co,Takeaway/sandwich shop,7844,5,,90254,5,,53.64200800000000,24496,405,Foodsafety@bury.gov.uk,Bury,http://www.bury.gov.uk,-2.32383500000000,BL0 9ND,2014-11-14,fhrs_5_en-GB,5,,FHRS,5
166518,,240 Tottington Road,Bury,,The Fish Bar,Takeaway/sandwich shop,7844,,,571608,,,53.60140600000000,26358,405,Foodsafety@bury.gov.uk,Bury,http://www.bury.gov.uk,-2.31788700000000,BL8 1SH,,fhrs_awaitinginspection_en-GB,AwaitingInspection,,FHRS,
166519,,166 Walmersley Road,Bury,Lancs,The Flamin Chicken,Takeaway/sandwich shop,7844,,,650489,,,53.60244600000000,27072,405,Foodsafety@bury.gov.uk,Bury,http://www.bury.gov.uk,-2.29066400000000,BL9 6LL,,fhrs_awaitinginspection_en-GB,AwaitingInspection,,FHRS,
166520,,211 Middleton Road,Manchester,,The Fortune Place,Takeaway/sandwich shop,7844,10,,102807,5,,53.52493500000000,3426,405,Foodsafety@bury.gov.uk,Bury,http://www.bury.gov.uk,-2.24881700000000,M8  4LR,2013-03-05,fhrs_3_en-GB,3,,FHRS,10
166521,,3 St Margarets Road,Prestwich,Greater Manchester,The Fresh Cookie,Takeaway/sandwich shop,7844,5,,115198,5,,53.53694100000000,4436,405,Foodsafety@bury.gov.uk,Bury,http://www.bury.gov.uk,-2.27073600000000,M25 2QB,2010-11-05,fhrs_5_en-GB,5,,FHRS,5
166522,3 Holcombe Brook Shopping Cent,Longsight Road,Ramsbottom,Greater Manchester,The Friary,Takeaway/sandwich shop,7844,5,,86662,5,,53.63242300000000,2212,405,Foodsafety@bury.gov.uk,Bury,http://www.bury.gov.uk,-2.33472500000000,BL0 9SH,2012-09-07,fhrs_4_en-GB,4,,FHRS,10
166523,,Scholes Lane,Prestwich,Greater Manchester,The Friendship Inn,Pub/bar/nightclub,7843,5,,85890,5,,53.52427300000000,2177,405,Foodsafety@bury.gov.uk,Bury,http://www.bury.gov.uk,-2.27610000000000,M25 0PD,2010-11-17,fhrs_5_en-GB,5,,FHRS,5
166524,Imperial House,Hornby Street,Bury,,The Gallery,Restaurant/Cafe/Canteen,1,0,,365148,0,,53.59857300000000,23612,405,Foodsafety@bury.gov.uk,Bury,http://www.bury.gov.uk,-2.29376500000000,BL9 5BN,2011-08-19,fhrs_5_en-GB,5,,FHRS,0
166525,Garsdale,Woodhill Road,Bury,Greater Manchester,The Garsdale,Pub/bar/nightclub,7843,5,,83966,5,,53.60560900000000,2072,405,Foodsafety@bury.gov.uk,Bury,http://www.bury.gov.uk,-2.30177900000000,BL8 1BT,2014-02-03,fhrs_5_en-GB,5,,FHRS,5
166526,,Market Place,Ramsbottom,Bury,The Grant Arms,Hotel/bed & breakfast/guest house,7842,5,,84161,5,,53.64923100000000,2084,405,Foodsafety@bury.gov.uk,Bury,http://www.bury.gov.uk,-2.31826200000000,BL0 9AJ,2013-09-25,fhrs_4_en-GB,4,,FHRS,10
166527,,23 Higher Summerseat,Summerseat,"Ramsbottom, Greater Manchester",The Hamers Arms,Pub/bar/nightclub,7843,5,,84066,5,,53.62678700000000,2078,405,Foodsafety@bury.gov.uk,Bury,http://www.bury.gov.uk,-2.32176800000000,BL0 9UG,2011-08-22,fhrs_5_en-GB,5,,FHRS,5
166528,Heathlands Residential Home,Heathlands Drive,Prestwich,Greater Manchester,The Heathlands Village,Hospitals/Childcare/Caring Premises,5,0,,263707,0,,53.51764600000000,2281,405,Foodsafety@bury.gov.uk,Bury,http://www.bury.gov.uk,-2.28121500000000,M25 9SB,2011-05-17,fhrs_5_en-GB,5,,FHRS,0
166529,,141-143 Crostons Road,Bury,Greater Manchester,The Help Me Thro,Pub/bar/nightclub,7843,5,,365147,5,,53.59745600000000,2019,405,Foodsafety@bury.gov.uk,Bury,http://www.bury.gov.uk,-2.30904900000000,BL8 1AL,2012-05-24,fhrs_5_en-GB,5,,FHRS,5
166530,The Rectory,Tithebarn Street,Bury,Greater Manchester,"The House on the Rock, Bury Parish Church",Restaurant/Cafe/Canteen,1,5,,85095,5,,53.59462400000000,21253,405,Foodsafety@bury.gov.uk,Bury,http://www.bury.gov.uk,-2.29537000000000,BL9 0JR,2008-11-05,fhrs_5_en-GB,5,,FHRS,5
166531,,76 Bridge Street,Ramsbottom,Bury,The Hungry Duck,Restaurant/Cafe/Canteen,1,5,,528666,0,,53.64848600000000,25784,405,Foodsafety@bury.gov.uk,Bury,http://www.bury.gov.uk,-2.31789400000000,BL0 9AG,2013-08-01,fhrs_5_en-GB,5,,FHRS,0
166532,,65 The Rock,Bury,Greater Manchester,The Jolly Roger,Restaurant/Cafe/Canteen,1,5,,128320,0,,53.59465300000000,5825,405,Foodsafety@bury.gov.uk,Bury,http://www.bury.gov.uk,-2.29441800000000,BL9 0NB,2011-09-01,fhrs_5_en-GB,5,,FHRS,0
166533,,46 Haymarket Street,Bury,Greater Manchester,The Knowsley Hotel,Pub/bar/nightclub,7843,5,,83510,0,,53.59211000000000,2049,405,Foodsafety@bury.gov.uk,Bury,http://www.bury.gov.uk,-2.29792000000000,BL9 0AY,2010-02-23,fhrs_5_en-GB,5,,FHRS,0
166534,,533 Tottington Road,Bury,Greater Manchester,The Lamb Inn,Pub/bar/nightclub,7843,0,,516756,0,,53.60522300000000,2050,405,Foodsafety@bury.gov.uk,Bury,http://www.bury.gov.uk,-2.32556300000000,BL8 1UB,2013-01-28,fhrs_5_en-GB,5,,FHRS,5
166535,Millbank,Pilkington Way,Radcliffe,Greater Manchester,The Lock Keeper,Pub/bar/nightclub,7843,5,,116284,5,,53.55788400000000,4546,405,Foodsafety@bury.gov.uk,Bury,http://www.bury.gov.uk,-2.32461000000000,M26 1AJ,2010-11-12,fhrs_4_en-GB,4,,FHRS,10
166536,Lord Raglan,Mount Pleasant,Nangreaves,"Bury, Greater Manchester",The Lord Raglan,Pub/bar/nightclub,7843,10,,83875,5,,53.63175000000000,2068,405,Foodsafety@bury.gov.uk,Bury,http://www.bury.gov.uk,-2.28985200000000,BL9 6SP,2010-11-03,fhrs_4_en-GB,4,,FHRS,5
166537,,2 Prince Street,Ramsbottom,Greater Manchester,The Lounge,Restaurant/Cafe/Canteen,1,0,,133825,5,,53.64786800000000,6678,405,Foodsafety@bury.gov.uk,Bury,http://www.bury.gov.uk,-2.31731400000000,BL0 9FN,2011-08-31,fhrs_5_en-GB,5,,FHRS,5
166538,,170 Walmersley Road,Bury,Greater Manchester,The Lunch Box,Takeaway/sandwich shop,7844,5,,121252,5,,53.60239300000000,5,405,Foodsafety@bury.gov.uk,Bury,http://www.bury.gov.uk,-2.29042200000000,BL9 6LL,2015-01-07,fhrs_5_en-GB,5,,FHRS,5
166539,,158-160 Bolton Street,Ramsbottom,Bury,The Major Hotel,Pub/bar/nightclub,7843,5,,84011,5,,53.64501100000000,2075,405,Foodsafety@bury.gov.uk,Bury,http://www.bury.gov.uk,-2.32006100000000,BL0 9JA,2013-03-06,fhrs_5_en-GB,5,,FHRS,5
166540,Market Hall,Blackburn Street,Radcliffe,Bury,The Market Cafe,Restaurant/Cafe/Canteen,1,20,,115226,10,,53.55930800000000,4438,405,Foodsafety@bury.gov.uk,Bury,http://www.bury.gov.uk,-2.32546600000000,,2013-06-04,fhrs_1_en-GB,1,,FHRS,10
166541,,262 Bury New Road,Whitefield,Greater Manchester,The Met Bar,Takeaway/sandwich shop,7844,5,,108546,5,,53.55118300000000,3879,405,Foodsafety@bury.gov.uk,Bury,http://www.bury.gov.uk,-2.29553500000000,M45 8GS,2012-10-26,fhrs_5_en-GB,5,,FHRS,0
166542,,33 Sefton Street,Whitefield,Greater Manchester,The Mogul Restaurant,Restaurant/Cafe/Canteen,1,0,,117026,0,,53.54484400000000,4624,405,Foodsafety@bury.gov.uk,Bury,http://www.bury.gov.uk,-2.29275900000000,M45 7ET,2011-08-11,fhrs_5_en-GB,5,,FHRS,5
166543,,4 Clifton Road,Prestwich,Greater Manchester,The Mogul Tandoori,Takeaway/sandwich shop,7844,20,,64553,15,,53.53235700000000,1437,405,Foodsafety@bury.gov.uk,Bury,http://www.bury.gov.uk,-2.28624600000000,M25 3HQ,2014-09-23,fhrs_1_en-GB,1,,FHRS,15
166544,The Mosses Community Centre,Cecil Street,Bury,Greater Manchester,The Mosses Community Association Ltd,Restaurant/Cafe/Canteen,1,5,,51078,5,,53.59017400000000,1141,405,Foodsafety@bury.gov.uk,Bury,http://www.bury.gov.uk,-2.29169800000000,BL9 0SB,2013-03-04,fhrs_5_en-GB,5,,FHRS,5
166545,,47 Bolton Street,Ramsbottom,Bury,The Mouse Trap,Restaurant/Cafe/Canteen,1,10,,439407,10,,53.64758600000000,25140,405,Foodsafety@bury.gov.uk,Bury,http://www.bury.gov.uk,-2.31855300000000,BL0 9HU,2013-12-10,fhrs_3_en-GB,3,,FHRS,5
166546,,825 Manchester Road,Bury,Greater Manchester,The New Metro,Restaurant/Cafe/Canteen,1,0,,83271,0,,53.56363400000000,20310,405,Foodsafety@bury.gov.uk,Bury,http://www.bury.gov.uk,-2.29063900000000,BL9 9TP,2011-10-25,fhrs_5_en-GB,5,,FHRS,0
166547,,39 Bridge Street,Ramsbottom,Greater Manchester,The Oaks,Pub/bar/nightclub,7843,,,84106,,,53.64855000000000,2080,405,Foodsafety@bury.gov.uk,Bury,http://www.bury.gov.uk,-2.31745500000000,BL0 9AD,,fhrs_awaitinginspection_en-GB,AwaitingInspection,,FHRS,
166548,,9 Turton Road,Tottington,Greater Manchester,The Old Dungeon Inn,Pub/bar/nightclub,7843,5,,409980,5,,53.61508900000000,2090,405,Foodsafety@bury.gov.uk,Bury,http://www.bury.gov.uk,-2.34297700000000,BL8 4AW,2012-05-25,fhrs_4_en-GB,4,,FHRS,10
166549,,Spring Wood Street,Ramsbottom,Greater Manchester,The Old Mill Hotel & Leisure Club,Hotel/bed & breakfast/guest house,7842,5,,81727,0,,53.65035000000000,1997,405,Foodsafety@bury.gov.uk,Bury,http://www.bury.gov.uk,-2.32329400000000,BL0 9DS,2010-10-01,fhrs_5_en-GB,5,,FHRS,5
166550,,6 Bolton Street,Bury,,The Old White Lion,Pub/bar/nightclub,7843,0,,83621,5,,53.59365300000000,2054,405,Foodsafety@bury.gov.uk,Bury,http://www.bury.gov.uk,-2.29879200000000,BL9 0LQ,2010-07-13,fhrs_5_en-GB,5,,FHRS,5
166551,The Radius Scheme,Fairfax Road,Prestwich,Greater Manchester,The Orange Tree,Pub/bar/nightclub,7843,5,,132848,5,,53.53401300000000,6504,405,Foodsafety@bury.gov.uk,Bury,http://www.bury.gov.uk,-2.28500500000000,M25 1AS,2013-10-15,fhrs_5_en-GB,5,,FHRS,5
166552,Pack Horse,52 Watling Street,Tottington,Bury,The Pack Horse,Pub/bar/nightclub,7843,,,715883,,,53.61921700000000,27513,405,Foodsafety@bury.gov.uk,Bury,http://www.bury.gov.uk,-2.37218800000000,BL8 3QW,,fhrs_awaitinginspection_en-GB,AwaitingInspection,,FHRS,
166553,Little Sixty Six,Roach Bank Road,Bury,Greater Manchester,The Papermill,Pub/bar/nightclub,7843,0,,115358,5,,53.57812400000000,4454,405,Foodsafety@bury.gov.uk,Bury,http://www.bury.gov.uk,-2.27534900000000,BL9 8RN,2012-11-21,fhrs_5_en-GB,5,,FHRS,5
166554,,95 Park Lane,Whitefield,Manchester,The Parkfield Inn,Pub/bar/nightclub,7843,,,445898,,,53.54100800000000,25171,405,Foodsafety@bury.gov.uk,Bury,http://www.bury.gov.uk,-2.30605700000000,M45 7GT,,fhrs_awaitinginspection_en-GB,AwaitingInspection,,FHRS,
166555,Rothwell House,150-156 Heywood Street,Bury,,The Peri Peri chicken Shaq,Takeaway/sandwich shop,7844,,,650493,,,53.59177100000000,27098,405,Foodsafety@bury.gov.uk,Bury,http://www.bury.gov.uk,-2.28549900000000,BL9 7DY,,fhrs_awaitinginspection_en-GB,AwaitingInspection,,FHRS,
166556,,383 Bury Old Road,Prestwich,Greater Manchester,The Pizza Factory,Takeaway/sandwich shop,7844,10,,64002,5,,53.53580100000000,1415,405,Foodsafety@bury.gov.uk,Bury,http://www.bury.gov.uk,-2.26992900000000,M25 1QA,2013-03-19,fhrs_4_en-GB,4,,FHRS,0
166557,,12 Whittaker Lane,Prestwich,Greater Manchester,The Prachee,Restaurant/Cafe/Canteen,1,20,,62691,5,,53.53546900000000,1386,405,Foodsafety@bury.gov.uk,Bury,http://www.bury.gov.uk,-2.27267000000000,M25 5FX,2011-03-22,fhrs_1_en-GB,1,,FHRS,10
166558,Highbank Nursing Home,Walshaw Road,Bury,Greater Manchester,"The Priory , Elton Unit",Hospitals/Childcare/Caring Premises,5,0,,263734,5,,53.60184800000000,2257,405,Foodsafety@bury.gov.uk,Bury,http://www.bury.gov.uk,-2.33711200000000,BL8 3AS,2014-08-04,fhrs_5_en-GB,5,,FHRS,0
166559,,6 Hollins Lane,Bury,Greater Manchester,The Queen Anne Hotel,Pub/bar/nightclub,7843,20,,85318,10,,53.56338100000000,2143,405,Foodsafety@bury.gov.uk,Bury,http://www.bury.gov.uk,-2.27241400000000,BL9 8JH,2014-11-25,fhrs_1_en-GB,1,,FHRS,10
166560,Queens Hotel,Bradley Lane,Radcliffe,Greater Manchester,The Queens Hotel,Pub/bar/nightclub,7843,5,,445894,5,,53.57226900000000,2127,405,Foodsafety@bury.gov.uk,Bury,http://www.bury.gov.uk,-2.36686700000000,BL2 6RA,2012-12-06,fhrs_5_en-GB,5,,FHRS,5
166561,,2 Bridge Street,Ramsbottom,Bury,The Railway Pub,Hotel/bed & breakfast/guest house,7842,5,,722003,5,,53.64805000000000,27555,405,Foodsafety@bury.gov.uk,Bury,http://www.bury.gov.uk,-2.31628700000000,BL0 9AQ,2014-10-30,fhrs_5_en-GB,5,,FHRS,5
166562,Red Hall Restaurant,Manchester Road,Ramsbottom,Greater Manchester,The Red Hall Hotel,Hotel/bed & breakfast/guest house,7842,5,,81716,0,,53.63511000000000,1996,405,Foodsafety@bury.gov.uk,Bury,http://www.bury.gov.uk,-2.30123300000000,BL9 5NA,2009-10-22,fhrs_5_en-GB,5,,FHRS,5
166563,,91 Ramsbottom Road,Tottington,"Bury, Greater Manchester",The Red Lion Hotel,Pub/bar/nightclub,7843,0,,98470,5,,53.63136000000000,3103,405,Foodsafety@bury.gov.uk,Bury,http://www.bury.gov.uk,-2.37211300000000,BL8 4JS,2012-10-17,fhrs_5_en-GB,5,,FHRS,0
166564,Castle Buildings,Market Place,Bury,Greater Manchester,The Robert Peel,Pub/bar/nightclub,7843,0,,110270,5,,53.59379900000000,4000,405,Foodsafety@bury.gov.uk,Bury,http://www.bury.gov.uk,-2.29825000000000,BL9 0LD,2012-08-17,fhrs_5_en-GB,5,,FHRS,5
166565,,19 Market Street,Tottington,Bury,The Robin Hood Hotel,Pub/bar/nightclub,7843,0,,84186,10,,53.61434000000000,2086,405,Foodsafety@bury.gov.uk,Bury,http://www.bury.gov.uk,-2.34084000000000,BL8 4AA,2014-02-13,fhrs_4_en-GB,4,,FHRS,0
166566,,2 Cockey Moor Road,Radcliffe,Greater Manchester,The Rose & Crown,Pub/bar/nightclub,7843,5,,83315,5,,53.58978400000000,2035,405,Foodsafety@bury.gov.uk,Bury,http://www.bury.gov.uk,-2.34381500000000,BL8 2HB,2013-01-14,fhrs_5_en-GB,5,,FHRS,5
166567,,96 Carr Street,Ramsbottom,Greater Manchester,The Rose and Crown,Pub/bar/nightclub,7843,5,,84149,5,,53.64967800000000,2083,405,Foodsafety@bury.gov.uk,Bury,http://www.bury.gov.uk,-2.32253200000000,BL0 9EG,2014-02-05,fhrs_5_en-GB,5,,FHRS,5
166568,Same Yet Inn,145 Simister Lane,Prestwich,Greater Manchester,The Same Yet Inn,Pub/bar/nightclub,7843,10,,85579,0,,53.55102600000000,2162,405,Foodsafety@bury.gov.uk,Bury,http://www.bury.gov.uk,-2.24549900000000,M25 2SF,2011-06-07,fhrs_4_en-GB,4,,FHRS,5
166569,,Holcombe Village,Ramsbottom,Greater Manchester,The Shoulder Of Mutton,Pub/bar/nightclub,7843,5,,84024,5,,53.50654602050781,2076,405,Foodsafety@bury.gov.uk,Bury,http://www.bury.gov.uk,-2.32009005546570,BL8 4LZ,2013-10-15,fhrs_5_en-GB,5,,FHRS,0
166570,,97 Sunny Bank Road,Bury,Greater Manchester,The Sir Robert Peel Hotel,Restaurant/Cafe/Canteen,1,20,,85308,5,,53.56163100000000,2142,405,Foodsafety@bury.gov.uk,Bury,http://www.bury.gov.uk,-2.28671500000000,BL9 8ES,2012-09-04,fhrs_1_en-GB,1,,FHRS,5
166571,,34A Bridge Street,Bury,,The Snack Shack,Takeaway/sandwich shop,7844,,,722002,,,53.59940200000000,27548,405,Foodsafety@bury.gov.uk,Bury,http://www.bury.gov.uk,-2.28552100000000,BL9 6HH,,fhrs_awaitinginspection_en-GB,AwaitingInspection,,FHRS,
166572,,144 Tottington Road,Bury,,The Soul Kitchen,Restaurant/Cafe/Canteen,1,,,683512,,,53.60042400000000,27295,405,Foodsafety@bury.gov.uk,Bury,http://www.bury.gov.uk,-2.31549200000000,BL8 1RU,,fhrs_awaitinginspection_en-GB,AwaitingInspection,,FHRS,
166573,,24 Radcliffe Moor Road,Radcliffe,Greater Manchester,The Sparking Clog,Pub/bar/nightclub,7843,5,,84809,5,,53.56082100000000,2109,405,Foodsafety@bury.gov.uk,Bury,http://www.bury.gov.uk,-2.33523700000000,M26 0WL,2014-10-22,fhrs_5_en-GB,5,,FHRS,5
166574,,312 Walmersley Road,Bury,Greater Manchester,The Sundial Hotel,Pub/bar/nightclub,7843,0,,664410,0,,53.60977700000000,2037,405,Foodsafety@bury.gov.uk,Bury,http://www.bury.gov.uk,-2.29216500000000,BL9 6QF,2014-02-13,fhrs_5_en-GB,5,,FHRS,0
166575,Swan And Cemetery Hotel,406 Manchester Road,Bury,Greater Manchester,The Swan & Cemetery,Pub/bar/nightclub,7843,10,,85244,0,,53.57579900000000,2138,405,Foodsafety@bury.gov.uk,Bury,http://www.bury.gov.uk,-2.29662800000000,BL9 9NS,2011-01-25,fhrs_4_en-GB,4,,FHRS,5
166576,,288 Tottington Road,Bury,Greater Manchester,The Swan Hotel,Pub/bar/nightclub,7843,5,,83287,5,,53.60195900000000,2033,405,Foodsafety@bury.gov.uk,Bury,http://www.bury.gov.uk,-2.31935700000000,BL8 1SJ,2010-06-09,fhrs_5_en-GB,5,,FHRS,5
166577,,76 Wash Lane,Bury,Greater Manchester,The Tasty Corner,Takeaway/sandwich shop,7844,5,,114630,5,,53.59369100000000,4374,405,Foodsafety@bury.gov.uk,Bury,http://www.bury.gov.uk,-2.27969600000000,BL9 7DJ,2012-11-02,fhrs_5_en-GB,5,,FHRS,5
166578,"George Block, Unit 1/2/3",Bury Market,Murray Road,Bury,The Town Fryer,Takeaway/sandwich shop,7844,10,,142326,5,,53.59098400000000,79,405,Foodsafety@bury.gov.uk,Bury,http://www.bury.gov.uk,-2.29528400000000,BL9 0BJ,2010-12-02,fhrs_4_en-GB,4,,FHRS,5
166579,Bolton Street Station,Bolton Street,Bury,Greater Manchester,The Trackside,Pub/bar/nightclub,7843,0,,93142,0,,53.59335400000000,2659,405,Foodsafety@bury.gov.uk,Bury,http://www.bury.gov.uk,-2.29974200000000,BL9 0EY,2010-11-11,fhrs_5_en-GB,5,,FHRS,0
166580,,52 Blackburn Street,Radcliffe,Manchester,The Train Station Day nursery,Hospitals/Childcare/Caring Premises,5,,,707121,,,53.56045900000000,27396,405,Foodsafety@bury.gov.uk,Bury,http://www.bury.gov.uk,-2.32635100000000,M26 1NG,,fhrs_awaitinginspection_en-GB,AwaitingInspection,,FHRS,
166581,,19 The Wylde,Bury,,The Two Tubs,Pub/bar/nightclub,7843,5,,83200,10,,53.59417700000000,2027,405,Foodsafety@bury.gov.uk,Bury,http://www.bury.gov.uk,-2.29787400000000,BL9 0LA,2008-11-13,fhrs_3_en-GB,3,,FHRS,10
166582,Victoria Hotel,12 Hall Street,Tottington,Greater Manchester,The Victoria Hotel,Pub/bar/nightclub,7843,5,,84173,5,,53.60254000000000,2085,405,Foodsafety@bury.gov.uk,Bury,http://www.bury.gov.uk,-2.34003400000000,BL8 3BD,2011-09-28,fhrs_4_en-GB,4,,FHRS,10
166583,,152 Butterstile Lane,Prestwich,Manchester,The Village Pantry,Takeaway/sandwich shop,7844,,,722006,,,53.52264400000000,27573,405,Foodsafety@bury.gov.uk,Bury,http://www.bury.gov.uk,-2.28827700000000,M25 9TJ,,fhrs_awaitinginspection_en-GB,AwaitingInspection,,FHRS,
166584,Waggon And Horses,360 Bolton Road,Tottington,Greater Manchester,The Waggon & Horses,Pub/bar/nightclub,7843,5,,84210,5,,53.63088800000000,2088,405,Foodsafety@bury.gov.uk,Bury,http://www.bury.gov.uk,-2.36497200000000,BL8 4JL,2010-06-10,fhrs_5_en-GB,5,,FHRS,5
166585,,2 Parsonage Street,Bury,Greater Manchester,The Welcome Chip Shop,Takeaway/sandwich shop,7844,5,,86145,5,,53.59656200000000,2193,405,Foodsafety@bury.gov.uk,Bury,http://www.bury.gov.uk,-2.28155800000000,BL9 6BG,2013-03-12,fhrs_5_en-GB,5,,FHRS,5
166586,Wellington Hotel,338 Bolton Road,Bury,Greater Manchester,The Wellington Hotel,Pub/bar/nightclub,7843,0,,83323,0,,53.58945800000000,2036,405,Foodsafety@bury.gov.uk,Bury,http://www.bury.gov.uk,-2.31896100000000,BL8 2PP,2014-02-05,fhrs_5_en-GB,5,,FHRS,5
166587,White Boar Hotel,Radcliffe Road,Bury,Bury,The White Boar Hotel,Pub/bar/nightclub,7843,0,,728998,5,,53.57936200000000,2145,405,Foodsafety@bury.gov.uk,Bury,http://www.bury.gov.uk,-2.30583500000000,BL9 9LN,2014-04-02,fhrs_5_en-GB,5,,FHRS,5
166588,,18 Hall Street,Tottington,Greater Manchester,The White Horse,Pub/bar/nightclub,7843,10,,90585,10,,53.60254000000000,2474,405,Foodsafety@bury.gov.uk,Bury,http://www.bury.gov.uk,-2.34003400000000,BL8 3BD,2008-01-08,fhrs_3_en-GB,3,,FHRS,10
166589,,256-258 Bury New Road,Whitefield,Bury,The White Room,Restaurant/Cafe/Canteen,1,5,,85914,5,,53.55016000000000,21779,405,Foodsafety@bury.gov.uk,Bury,http://www.bury.gov.uk,-2.29486300000000,M45 8QN,2010-05-27,fhrs_5_en-GB,5,,FHRS,0
166590,,Bury Old Road,Prestwich,Greater Manchester,The Woodthorpe Hotel,Hotel/bed & breakfast/guest house,7842,5,,82303,5,,53.52293700000000,2001,405,Foodsafety@bury.gov.uk,Bury,http://www.bury.gov.uk,-2.26259200000000,M25 0EG,2010-03-19,fhrs_5_en-GB,5,,FHRS,5
166591,,99 Square Street,Ramsbottom,Greater Manchester,Tiddlywinks Nursery School,Hospitals/Childcare/Caring Premises,5,5,,189298,0,,53.64615300000000,3343,405,Foodsafety@bury.gov.uk,Bury,http://www.bury.gov.uk,-2.31643900000000,BL0 9AZ,2012-08-30,fhrs_5_en-GB,5,,FHRS,0
166592,Bulls Head Hotel,Brandlesholme Road,Tottington,Greater Manchester,Toby Inn and Carvery,Pub/bar/nightclub,7843,0,,84252,10,,53.62509900000000,2091,405,Foodsafety@bury.gov.uk,Bury,http://www.bury.gov.uk,-2.33741900000000,BL8 4DS,2014-09-30,fhrs_4_en-GB,4,,FHRS,5
166593,,143 The Rock,Bury,,Tompson's Fish & Chip Shop,Takeaway/sandwich shop,7844,5,,87097,5,,53.59543000000000,22387,405,Foodsafety@bury.gov.uk,Bury,http://www.bury.gov.uk,-2.29267100000000,BL9 0ND,2013-10-29,fhrs_5_en-GB,5,,FHRS,0
166594,,850A Manchester Road,Bury,Greater Manchester,Tong Feng House,Takeaway/sandwich shop,7844,5,,86857,5,,53.56047200000000,2224,405,Foodsafety@bury.gov.uk,Bury,http://www.bury.gov.uk,-2.29378800000000,BL9 8DW,2011-07-20,fhrs_5_en-GB,5,,FHRS,5
166595,,38 Haymarket Street,Bury,Greater Manchester,Tonys Curry Pot,Takeaway/sandwich shop,7844,5,,126189,5,,53.59211000000000,5508,405,Foodsafety@bury.gov.uk,Bury,http://www.bury.gov.uk,-2.29792000000000,BL9 0AY,2012-07-26,fhrs_5_en-GB,5,,FHRS,5
166596,,42 Haymarket Street,Bury,Greater Manchester,Tonys Pizza,Takeaway/sandwich shop,7844,10,,130341,5,,53.59211000000000,6149,405,Foodsafety@bury.gov.uk,Bury,http://www.bury.gov.uk,-2.29792000000000,BL9 0AY,2011-03-29,fhrs_4_en-GB,4,,FHRS,5
166597,,2A Eton Hill Road,Radcliffe,Greater Manchester,Top O'The Cross Chip Shop,Takeaway/sandwich shop,7844,10,,54511,5,,53.56719400000000,1229,405,Foodsafety@bury.gov.uk,Bury,http://www.bury.gov.uk,-2.31184800000000,M26 2XG,2014-11-06,fhrs_3_en-GB,3,,FHRS,10
166598,,25 Bury New Road,Prestwich,Manchester,Topkapi Palace,Restaurant/Cafe/Canteen,1,,,729005,,,53.51814300000000,27585,405,Foodsafety@bury.gov.uk,Bury,http://www.bury.gov.uk,-2.27207900000000,M25 9JZ,,fhrs_awaitinginspection_en-GB,AwaitingInspection,,FHRS,
166599,Elms Square,Bury New Road,Whitefield,Greater Manchester,Total Fitness UK Ltd,Restaurant/Cafe/Canteen,1,5,,129037,5,,53.53546900000000,5940,405,Foodsafety@bury.gov.uk,Bury,http://www.bury.gov.uk,-2.27267000000000,M25 7TA,2011-07-19,fhrs_5_en-GB,5,,FHRS,5
166600,Tottington South County Primar,Moorside Road,Tottington,Greater Manchester,Tottington County Primary School,School/college/university,7845,0,,632338,5,,53.60815800000000,1489,405,Foodsafety@bury.gov.uk,Bury,http://www.bury.gov.uk,-2.34020100000000,BL8 3HR,2014-01-22,fhrs_5_en-GB,5,,FHRS,5
166601,The Old Police House,Kirklees Street,Tottington,Bury,Tottington Private Nursery School,Hospitals/Childcare/Caring Premises,5,5,,189320,0,,53.61417400000000,2481,405,Foodsafety@bury.gov.uk,Bury,http://www.bury.gov.uk,-2.33899400000000,BL8 3NJ,2012-01-25,fhrs_5_en-GB,5,,FHRS,5
166602,,Clarence Park,Walmersley Road,Bury,Touch Of Class @ The Green,Restaurant/Cafe/Canteen,1,5,,729000,5,,53.60565400000000,27576,405,Foodsafety@bury.gov.uk,Bury,http://www.bury.gov.uk,-2.29089800000000,BL9 6NQ,2014-11-20,fhrs_5_en-GB,5,,FHRS,5
166603,Old Hall County Primary School,Springside View,Bury,Greater Manchester,Tower View Nursery,Hospitals/Childcare/Caring Premises,5,0,,189308,5,,53.61629800000000,6272,405,Foodsafety@bury.gov.uk,Bury,http://www.bury.gov.uk,-2.31849800000000,BL8 4LU,2014-10-29,fhrs_5_en-GB,5,,FHRS,0
166604,Little Sixty Six,Roach Bank Road,Bury,,Travelodge,Hotel/bed & breakfast/guest house,7842,,,558921,,,53.57812400000000,26122,405,Foodsafety@bury.gov.uk,Bury,http://www.bury.gov.uk,-2.27534900000000,BL9 8RN,,fhrs_awaitinginspection_en-GB,AwaitingInspection,,FHRS,
166605,,144 Park Lane,Whitefield,Greater Manchester,Treasure City,Takeaway/sandwich shop,7844,0,,67993,0,,53.54123000000000,152,405,Foodsafety@bury.gov.uk,Bury,http://www.bury.gov.uk,-2.30728000000000,M45 7PX,2011-09-12,fhrs_5_en-GB,5,,FHRS,5
166606,,21 Princess Parade,Bury,Greater Manchester,Trisians,Restaurant/Cafe/Canteen,1,10,,94108,10,,53.59165800000000,2730,405,Foodsafety@bury.gov.uk,Bury,http://www.bury.gov.uk,-2.29527300000000,BL9 0QL,2014-07-29,fhrs_2_en-GB,2,,FHRS,15
166607,,459 Bury New Road,Prestwich,Manchester,Turquoise Restaurant,Restaurant/Cafe/Canteen,1,10,,508767,5,,53.53215300000000,25533,405,Foodsafety@bury.gov.uk,Bury,http://www.bury.gov.uk,-2.28485600000000,M25 1AF,2014-03-03,fhrs_3_en-GB,3,,FHRS,10
166608,,Blackley Close,Bury,,Unsworth County Primary School,School/college/university,7845,5,,624774,0,,53.55692400000000,1541,405,Foodsafety@bury.gov.uk,Bury,http://www.bury.gov.uk,-2.28152100000000,BL9 8LY,2013-06-20,fhrs_5_en-GB,5,,FHRS,5
166609,,2 Walmersley Old Road,Bury,Greater Manchester,Upper Crust,Takeaway/sandwich shop,7844,10,,94301,5,,53.61781600000000,2749,405,Foodsafety@bury.gov.uk,Bury,http://www.bury.gov.uk,-2.29436800000000,BL9 6SQ,2012-12-06,fhrs_3_en-GB,3,,FHRS,10
166610,"Market Hall, Stall 49",Bury Market,Murray Road,Bury,Val's Cafe,Restaurant/Cafe/Canteen,1,5,,93473,0,,53.59098400000000,2687,405,Foodsafety@bury.gov.uk,Bury,http://www.bury.gov.uk,-2.29528400000000,BL9 0BJ,2010-10-29,fhrs_5_en-GB,5,,FHRS,0
166611,,18 Market Place,Ramsbottom,Bury,Venetian Hideaway,Restaurant/Cafe/Canteen,1,5,,632347,5,,53.64901600000000,26956,405,Foodsafety@bury.gov.uk,Bury,http://www.bury.gov.uk,-2.31797300000000,BL0 9HT,2014-08-14,fhrs_5_en-GB,5,,FHRS,5
166612,,173-175 The Rock,Bury,,Viet Village,Restaurant/Cafe/Canteen,1,10,,468124,5,,53.59589100000000,25373,405,Foodsafety@bury.gov.uk,Bury,http://www.bury.gov.uk,-2.29151000000000,BL9 0NE,2012-11-20,fhrs_4_en-GB,4,,FHRS,5
166613,,67-69 Crostons Road,Bury,Greater Manchester,Vujon,Takeaway/sandwich shop,7844,20,,132790,15,,53.59629500000000,6498,405,Foodsafety@bury.gov.uk,Bury,http://www.bury.gov.uk,-2.30975000000000,BL8 1LB,2014-10-24,fhrs_1_en-GB,1,,FHRS,15
166614,Bealey Ind Estate,Dumers Lane,Radcliffe,,W & W Cafe,Restaurant/Cafe/Canteen,1,5,,365151,5,,53.56796900000000,24746,405,Foodsafety@bury.gov.uk,Bury,http://www.bury.gov.uk,-2.30785200000000,M26 2BD,2012-04-18,fhrs_5_en-GB,5,,FHRS,5
166615,,176 Walmersley Road,Bury,Greater Manchester,Walmersley Chippy,Takeaway/sandwich shop,7844,10,,135539,0,,53.60239300000000,6932,405,Foodsafety@bury.gov.uk,Bury,http://www.bury.gov.uk,-2.29042200000000,BL9 6LL,2011-01-31,fhrs_4_en-GB,4,,FHRS,0
166616,Masons Arms,241 Walmersley Old Road,Bury,Bury,Walmersley Massala Bangladesh,Restaurant/Cafe/Canteen,1,5,,117199,5,,53.62285600000000,4641,405,Foodsafety@bury.gov.uk,Bury,http://www.bury.gov.uk,-2.29168100000000,BL9 6RU,2013-03-26,fhrs_4_en-GB,4,,FHRS,10
166617,,44 Church Street,Tottington,Greater Manchester,Walshaw Chippy,Takeaway/sandwich shop,7844,5,,86732,10,,53.60397700000000,2217,405,Foodsafety@bury.gov.uk,Bury,http://www.bury.gov.uk,-2.33738600000000,BL8 3AT,2013-03-05,fhrs_4_en-GB,4,,FHRS,5
166618,,Walshaw Hall Residential Home,Bradshaw Road,"Walshaw, Greater Manchester",Walshaw Hall Residential Home,Hospitals/Childcare/Caring Premises,5,5,,263731,5,,53.60474600000000,2261,405,Foodsafety@bury.gov.uk,Bury,http://www.bury.gov.uk,-2.34824300000000,BL8 3PJ,2014-02-14,fhrs_4_en-GB,4,,FHRS,10
166619,,223 Bury Old Road,Prestwich,Greater Manchester,Wam Sandwich Co,Takeaway/sandwich shop,7844,5,,117858,5,,53.53099100000000,4713,405,Foodsafety@bury.gov.uk,Bury,http://www.bury.gov.uk,-2.26642800000000,M25 1JE,2013-02-26,fhrs_5_en-GB,5,,FHRS,5
166620,Vangate House,25 Bury Old Road,Prestwich,Greater Manchester,Wan Sheng,Takeaway/sandwich shop,7844,5,,135491,0,,53.51975200000000,6924,405,Foodsafety@bury.gov.uk,Bury,http://www.bury.gov.uk,-2.25999300000000,M25 0EY,2010-12-06,fhrs_5_en-GB,5,,FHRS,0
166621,,137 Wash Lane,Bury,Greater Manchester,Wash Lane Chip Shop,Takeaway/sandwich shop,7844,10,,85998,5,,53.59420200000000,2182,405,Foodsafety@bury.gov.uk,Bury,http://www.bury.gov.uk,-2.28018200000000,BL9 7DP,2011-01-18,fhrs_4_en-GB,4,,FHRS,5
166622,,138 Butterstile Lane,Prestwich,Greater Manchester,Welcome  House,Takeaway/sandwich shop,7844,5,,84101,5,,53.52264400000000,208,405,Foodsafety@bury.gov.uk,Bury,http://www.bury.gov.uk,-2.28827700000000,M25 9TJ,2011-10-27,fhrs_4_en-GB,4,,FHRS,10
166623,1 Wellington Villas,Bolton Road,Bury,Greater Manchester,Wellington Villa Nursery.,Hospitals/Childcare/Caring Premises,5,5,,189326,5,,53.59034400000000,3580,405,Foodsafety@bury.gov.uk,Bury,http://www.bury.gov.uk,-2.31697300000000,BL8 2NX,2014-12-10,fhrs_5_en-GB,5,,FHRS,0
166624,Manchester Road Bowling Green,Manchester Road Park,Bury,,Welly Community Cafe,Restaurant/Cafe/Canteen,1,10,,700558,5,,,27369,405,Foodsafety@bury.gov.uk,Bury,http://www.bury.gov.uk,,,2014-10-09,fhrs_4_en-GB,4,,FHRS,5
166625,Wesley Methodist Primary Schoo,Forth Road,Radcliffe,Bury,Wesley Methodist Primary,School/college/university,7845,0,,624770,5,,53.57076000000000,1534,405,Foodsafety@bury.gov.uk,Bury,http://www.bury.gov.uk,-2.33907000000000,M26 4PX,2013-07-16,fhrs_5_en-GB,5,,FHRS,5
166626,Wheatfield,Victoria Avenue,Whitefield,Greater Manchester,Wheatfields Centre,Hospitals/Childcare/Caring Premises,5,0,,263687,0,,53.54697300000000,4872,405,Foodsafety@bury.gov.uk,Bury,http://www.bury.gov.uk,-2.28551400000000,M45 6DP,2015-01-06,fhrs_5_en-GB,5,,FHRS,0
166627,"Margaret Block, Stall 12",Bury Market,Murray Road,Bury,Whippys,Takeaway/sandwich shop,7844,,,700559,,,53.59098400000000,27370,405,Foodsafety@bury.gov.uk,Bury,http://www.bury.gov.uk,-2.29528400000000,BL9 0BJ,,fhrs_awaitinginspection_en-GB,AwaitingInspection,,FHRS,
166628,Whitefield County Primary Scho,Victoria Avenue,Whitefield,Bury,Whitefield County Primary Scho,School/college/university,7845,0,,624738,0,,53.54697300000000,1378,405,Foodsafety@bury.gov.uk,Bury,http://www.bury.gov.uk,-2.28551400000000,M45 6DP,2013-02-07,fhrs_5_en-GB,5,,FHRS,0
166629,,Higher Lane,Whitefield,Manchester,Whitefield Golf Club,Restaurant/Cafe/Canteen,1,5,,62051,5,,53.54407500000000,1368,405,Foodsafety@bury.gov.uk,Bury,http://www.bury.gov.uk,-2.29450400000000,M45 7EZ,2011-12-14,fhrs_5_en-GB,5,,FHRS,5
166630,,26 Church Lane,Whitefield,Greater Manchester,Whitefield House,Hospitals/Childcare/Caring Premises,5,10,,263739,5,,53.55132000000000,4354,405,Foodsafety@bury.gov.uk,Bury,http://www.bury.gov.uk,-2.29826700000000,M45 7NF,2014-09-29,fhrs_4_en-GB,4,,FHRS,5
166631,,24 Ainsworth Road,Radcliffe,Greater Manchester,Wing Fung,Takeaway/sandwich shop,7844,5,,54136,5,,53.56469100000000,1220,405,Foodsafety@bury.gov.uk,Bury,http://www.bury.gov.uk,-2.33335900000000,M26 4EA,2011-03-07,fhrs_5_en-GB,5,,FHRS,0
166632,,126 Bell Lane,Bury,Greater Manchester,Wing Lee,Takeaway/sandwich shop,7844,10,,85941,5,,53.59733800000000,2179,405,Foodsafety@bury.gov.uk,Bury,http://www.bury.gov.uk,-2.28038400000000,BL9 6DE,2013-12-04,fhrs_4_en-GB,4,,FHRS,5
166633,,5 Stanley Road,Whitefield,Bury,Wm Morrisons Supermarkets PLC,Retailers - supermarkets/hypermarkets,7840,0,,84298,0,,53.55206400000000,20941,405,Foodsafety@bury.gov.uk,Bury,http://www.bury.gov.uk,-2.29546500000000,M45 8QH,2010-03-31,fhrs_5_en-GB,5,,FHRS,0
166634,,332 Bolton Road,Radcliffe,Greater Manchester,Wok Inn,Takeaway/sandwich shop,7844,5,,85019,5,,53.56290900000000,21208,405,Foodsafety@bury.gov.uk,Bury,http://www.bury.gov.uk,-2.34383800000000,M26 3GP,2012-03-19,fhrs_5_en-GB,5,,FHRS,5
166635,,89 Wood Street,Bury,Greater Manchester,Wood Street Chippy,Takeaway/sandwich shop,7844,5,,50703,5,,53.59571000000000,1131,405,Foodsafety@bury.gov.uk,Bury,http://www.bury.gov.uk,-2.31352300000000,BL8 2QU,2011-07-29,fhrs_5_en-GB,5,,FHRS,5
166636,,Brandlesholme Road,Bury,Greater Manchester,Woodbank County Primary School,School/college/university,7845,5,,624752,0,,53.60227100000000,1501,405,Foodsafety@bury.gov.uk,Bury,http://www.bury.gov.uk,-2.31012600000000,BL8 1AX,2013-05-16,fhrs_5_en-GB,5,,FHRS,5
166637,Woodbury,Wesley Street,Tottington,Greater Manchester,Woodbury,Hospitals/Childcare/Caring Premises,5,5,,263747,0,,53.61495600000000,2263,405,Foodsafety@bury.gov.uk,Bury,http://www.bury.gov.uk,-2.33590200000000,BL8 3NN,2011-09-29,fhrs_5_en-GB,5,,FHRS,5
166638,,17 Buckley Street,Bury,Greater Manchester,Woodfields Day Nursery,Hospitals/Childcare/Caring Premises,5,5,,189294,0,,53.59794900000000,5984,405,Foodsafety@bury.gov.uk,Bury,http://www.bury.gov.uk,-2.29188700000000,BL9 5AF,2011-10-11,fhrs_5_en-GB,5,,FHRS,0
166639,Fairfield Hospital,Rochdale Old Road,Bury,,WRVS,Restaurant/Cafe/Canteen,1,0,,550252,0,,53.60051300000000,25828,405,Foodsafety@bury.gov.uk,Bury,http://www.bury.gov.uk,-2.25535200000000,BL9 7TD,2013-06-03,fhrs_5_en-GB,5,,FHRS,0
166640,,4 Bolton Street,Bury,Greater Manchester,Wyldes,Pub/bar/nightclub,7843,5,,125597,0,,53.59365300000000,5409,405,Foodsafety@bury.gov.uk,Bury,http://www.bury.gov.uk,-2.29879200000000,BL9 0LQ,2012-08-29,fhrs_5_en-GB,5,,FHRS,5
166641,,18-20 Market Street,Bury,,Yates`s (Bury),Pub/bar/nightclub,7843,0,,111703,5,,53.59296400000000,4101,405,Foodsafety@bury.gov.uk,Bury,http://www.bury.gov.uk,-2.29771500000000,BL9 0AJ,2014-01-10,fhrs_5_en-GB,5,,FHRS,5
166642,,50 Bridge Street,Ramsbottom,Greater Manchester,Yummy Chinese Takeaway,Takeaway/sandwich shop,7844,10,,86619,10,,53.64805000000000,2209,405,Foodsafety@bury.gov.uk,Bury,http://www.bury.gov.uk,-2.31628700000000,BL0 9AQ,2013-02-08,fhrs_3_en-GB,3,,FHRS,10
166643,,8 Parkhills Road,Bury,Greater Manchester,Zaidy's,Takeaway/sandwich shop,7844,20,,85098,20,,53.58327400000000,21255,405,Foodsafety@bury.gov.uk,Bury,http://www.bury.gov.uk,-2.29779800000000,BL9 9AX,2014-11-10,fhrs_0_en-GB,0,,FHRS,15
166644,,14 Bolton Street,Ramsbottom,Bury,Zaidy's,Takeaway/sandwich shop,7844,20,,86552,10,,53.64782800000000,2205,405,Foodsafety@bury.gov.uk,Bury,http://www.bury.gov.uk,-2.31891700000000,BL0 9HX,2014-04-15,fhrs_1_en-GB,1,,FHRS,15
166645,,22 Ainsworth Road,Radcliffe,Manchester,Zaks,Takeaway/sandwich shop,7844,5,,550261,5,,53.56469100000000,26173,405,Foodsafety@bury.gov.uk,Bury,http://www.bury.gov.uk,-2.33335900000000,M26 4EA,2013-05-03,fhrs_5_en-GB,5,,FHRS,5
166646,Ground Floor,50 Bolton Street,Bury,,Zen Lounge,Restaurant/Cafe/Canteen,1,,,673157,,,53.59379200000000,27266,405,Foodsafety@bury.gov.uk,Bury,http://www.bury.gov.uk,-2.30066700000000,BL9 0LL,,fhrs_awaitinginspection_en-GB,AwaitingInspection,,FHRS,
