,addressline1,addressline2,addressline3,addressline4,businessname,businesstype,businesstypeid,confidenceinmanagement,extractdate,fhrsid,hygiene,itemcount,latitude,localauthoritybusinessid,localauthoritycode,localauthorityemailaddress,localauthorityname,localauthoritywebsite,longitude,postcode,ratingdate,ratingkey,ratingvalue,returncode,schemetype,structural
177051,23 Cumber Lane,Whiston,Knowsley,,5 Boroughs Partnership NHS Foundation Trust & ISS Mediclean,Restaurant/Cafe/Canteen,1,0,,221079,0,,53.41744400000000,00327/0023/0/000,412,environmentalhealth@knowsley.gov.uk,Knowsley,http://www.knowsley.gov.uk,-2.78556000000000,L35 2YZ,2012-03-03,fhrs_5_en-GB,5,,FHRS,0
177052,Whiston Hospital,Dragon Lane,Whiston,Knowsley,5 Boroughs Partnership NHS Foundation Trust & ISS Mediclean,Restaurant/Cafe/Canteen,1,0,,220853,5,,53.42082100000000,10/00012/FOOD,412,environmentalhealth@knowsley.gov.uk,Knowsley,http://www.knowsley.gov.uk,-2.78602900000000,L35 5DR,2012-02-17,fhrs_5_en-GB,5,,FHRS,0
177053,36 Blacklow Brow,Huyton,Knowsley,,Aaron Grange Care Home,Hospitals/Childcare/Caring Premises,5,0,,220742,0,,53.40889900000000,00124/0036/0/000,412,environmentalhealth@knowsley.gov.uk,Knowsley,http://www.knowsley.gov.uk,-2.84303400000000,L36 5XG,2015-01-19,fhrs_5_en-GB,5,,FHRS,5
177054,7 Baileys Lane,Halewood,Knowsley,,ABI Mini Market,Retailers - supermarkets/hypermarkets,7840,10,,707417,5,,53.36665800000000,14/00166/FOOD,412,environmentalhealth@knowsley.gov.uk,Knowsley,http://www.knowsley.gov.uk,-2.82287300000000,L26 2XB,2014-10-09,fhrs_2_en-GB,2,,FHRS,15
177055,,,,,Ace Gem Jars,Retailers - other,4613,5,,650617,5,,,14/00070/FOOD,412,environmentalhealth@knowsley.gov.uk,Knowsley,http://www.knowsley.gov.uk,,,2014-04-09,fhrs_5_en-GB,5,,FHRS,5
177056,The Bracknell Centre,Bracknell Avenue,Southdene,Kirkby,Activate Arts Ltd,School/college/university,7845,0,,729340,0,,53.47368900000000,14/00128/COM,412,environmentalhealth@knowsley.gov.uk,Knowsley,http://www.knowsley.gov.uk,-2.88915500000000,L32 9PW,2015-01-06,fhrs_5_en-GB,5,,FHRS,0
177057,70 Liverpool Road,Huyton,Knowsley,,Ainsburys,Retailers - other,4613,0,,220953,0,,53.42106900000000,00771/0070/0/000,412,environmentalhealth@knowsley.gov.uk,Knowsley,http://www.knowsley.gov.uk,-2.86330300000000,L36 3RF,2014-01-08,fhrs_5_en-GB,5,,FHRS,5
177058,1 The Halewood Shopping Centre,Leathers Lane,Halewood,Knowsley,Aldi,Retailers - supermarkets/hypermarkets,7840,0,,457556,0,,,12/00111/MIXED,412,environmentalhealth@knowsley.gov.uk,Knowsley,http://www.knowsley.gov.uk,,L26 0AD,2012-10-16,fhrs_5_en-GB,5,,FHRS,0
177059,149 Thomas Lane,Huyton,Knowsley,,Alex News,Retailers - other,4613,,,221046,,,53.41293000000000,01866/0149/0/000,412,environmentalhealth@knowsley.gov.uk,Knowsley,http://www.knowsley.gov.uk,-2.89205400000000,L14 5NT,2008-01-21,fhrs_exempt_en-GB,Exempt,,FHRS,
177060,175-177 Tarbock Road,Huyton,Knowsley,,All In One,Retailers - other,4613,10,,220883,10,,53.40422800000000,01271/0175/0/000,412,environmentalhealth@knowsley.gov.uk,Knowsley,http://www.knowsley.gov.uk,-2.83755600000000,L36 5TG,2013-07-19,fhrs_3_en-GB,3,,FHRS,10
177061,,,,,All Occasions Basket,Other catering premises,7841,5,,594661,5,,,13/00200/FOOD,412,environmentalhealth@knowsley.gov.uk,Knowsley,http://www.knowsley.gov.uk,,,2013-10-15,fhrs_5_en-GB,5,,FHRS,5
177062,Roughwood Drive,Northwood,Kirkby,Knowsley,All Saints Catholic Centre For Learning,School/college/university,7845,0,,220624,0,,53.48546400000000,10/00084/FOOD,412,environmentalhealth@knowsley.gov.uk,Knowsley,http://www.knowsley.gov.uk,-2.88426200000000,L33 8XF,2012-07-19,fhrs_5_en-GB,5,,FHRS,0
177063,Wellcroft Road,Huyton,Knowsley,,Alt Bridge Secondary Support Centre,School/college/university,7845,0,,220694,0,,53.41966400000000,01335/4000/2/000,412,environmentalhealth@knowsley.gov.uk,Knowsley,http://www.knowsley.gov.uk,-2.83725800000000,L36 7TA,2014-02-06,fhrs_5_en-GB,5,,FHRS,5
177064,(Jaguar Plant),South Road,Halewood,Knowsley,Anglia Restaurant,Restaurant/Cafe/Canteen,1,0,,220842,5,,53.34954000000000,09330/4001/2/000,412,environmentalhealth@knowsley.gov.uk,Knowsley,http://www.knowsley.gov.uk,-2.83744500000000,L24 9BJ,2013-11-22,fhrs_5_en-GB,5,,FHRS,5
177065,1 Shop Road,Knowsley Village,Knowsley,,Antonio's,Restaurant/Cafe/Canteen,1,0,,528259,0,,53.45421800000000,13/00051/FOOD,412,environmentalhealth@knowsley.gov.uk,Knowsley,http://www.knowsley.gov.uk,-2.85350900000000,L34 0HD,2015-01-06,fhrs_5_en-GB,5,,FHRS,0
177066,173 Roughwood Drive,Northwood,Kirkby,Knowsley,Appleby Court Nursing Home,Hospitals/Childcare/Caring Premises,5,0,,220710,0,,53.48820200000000,01098/0173/0/000,412,environmentalhealth@knowsley.gov.uk,Knowsley,http://www.knowsley.gov.uk,-2.87993300000000,L33 8YR,2013-01-16,fhrs_5_en-GB,5,,FHRS,0
177067,147B Arncliffe Road,Halewood,Knowsley,,Arncliffe Court Nursing Home,Hospitals/Childcare/Caring Premises,5,5,,221067,0,,53.36507100000000,09062/0000/0/000,412,environmentalhealth@knowsley.gov.uk,Knowsley,http://www.knowsley.gov.uk,-2.84669100000000,L25 9QE,2014-07-15,fhrs_5_en-GB,5,,FHRS,5
177068,Huyton Lane,Huyton,Knowsley,,Asda Walmart Super Centre,Retailers - supermarkets/hypermarkets,7840,0,,221183,0,,53.41256600000000,00653/4010/2/000,412,environmentalhealth@knowsley.gov.uk,Knowsley,http://www.knowsley.gov.uk,-2.83683200000000,L36 7TX,2013-10-17,fhrs_5_en-GB,5,,FHRS,5
177069,Caddick Road,Knowsley Business Park,Knowsley,,ASL Inspection UK Ltd,Restaurant/Cafe/Canteen,1,5,,221078,5,,53.45840400000000,00199/4002/2/000,412,environmentalhealth@knowsley.gov.uk,Knowsley,http://www.knowsley.gov.uk,-2.86153000000000,L34 9HP,2012-09-13,fhrs_5_en-GB,5,,FHRS,5
177070,David Lloyd Leisure Centre,Arbour Lane,Knowsley Industrial Park,Kirkby,Asquith Day Nursery (Kirkby),School/college/university,7845,0,,221038,0,,53.47841300000000,00040/4011/3/001,412,environmentalhealth@knowsley.gov.uk,Knowsley,http://www.knowsley.gov.uk,-2.87019300000000,L33 7ET,2013-01-16,fhrs_5_en-GB,5,,FHRS,0
177071,Dairy Crest (Liverpool),Moorgate Road,Southdene,Kirkby,Autograph Food Service,Restaurant/Cafe/Canteen,1,0,,220729,0,,53.48880000000000,00888/4005/2/001,412,environmentalhealth@knowsley.gov.uk,Knowsley,http://www.knowsley.gov.uk,-2.85799600000000,L33 7XJ,2012-07-19,fhrs_5_en-GB,5,,FHRS,0
177072,11 Sandstone Drive,Prescot,Knowsley,,Avondale Nursing Home,Hospitals/Childcare/Caring Premises,5,0,,221047,0,,53.42542900000000,01754/0011/0/000,412,environmentalhealth@knowsley.gov.uk,Knowsley,http://www.knowsley.gov.uk,-2.77962800000000,L35 7LS,2013-11-18,fhrs_5_en-GB,5,,FHRS,0
177073,6 - 8 Cavendish Walk,Derby Road,Huyton,Knowsley,B And M Bargains,Retailers - other,4613,5,,220747,5,,53.41262000000000,08/00067/MIXED,412,environmentalhealth@knowsley.gov.uk,Knowsley,http://www.knowsley.gov.uk,-2.83928600000000,L36 9YG,2009-08-07,fhrs_5_en-GB,5,,FHRS,5
177074,Cherryfield Drive,Kirkby Town Centre,Knowsley,,B And M Bargains,Retailers - other,4613,5,,220679,5,,53.48156200000000,00240/0132/A/000,412,environmentalhealth@knowsley.gov.uk,Knowsley,http://www.knowsley.gov.uk,-2.88805400000000,L32 8RX,2009-11-26,fhrs_5_en-GB,5,,FHRS,0
177075,73 Eccleston Street,Prescot,Knowsley,,B P Devlin's,Retailers - other,4613,5,,220552,0,,53.42963600000000,00413/0073/0/000,412,environmentalhealth@knowsley.gov.uk,Knowsley,http://www.knowsley.gov.uk,-2.80276200000000,L34 5QH,2013-03-15,fhrs_5_en-GB,5,,FHRS,5
177076,Birchill Road,Knowsley Industrial Park,Kirkby,Knowsley,Baker Hughes,Restaurant/Cafe/Canteen,1,0,,221143,0,,53.48481800000000,00118/4005/2/000,412,environmentalhealth@knowsley.gov.uk,Knowsley,http://www.knowsley.gov.uk,-2.85579600000000,L33 7TD,2014-02-24,fhrs_5_en-GB,5,,FHRS,5
177077,Acornfield Road,Knowsley Industrial Park,Kirkby,Knowsley,Balfour Beatty,Restaurant/Cafe/Canteen,1,5,,221030,5,,53.48453400000000,00005/4000/0/012,412,environmentalhealth@knowsley.gov.uk,Knowsley,http://www.knowsley.gov.uk,-2.85015400000000,L33 7TY,2014-02-13,fhrs_5_en-GB,5,,FHRS,5
177078,12 St Chads Parade,Kirkby Town Centre,Knowsley,,Banana Bunch,Retailers - other,4613,10,,220757,15,,53.48205600000000,01126/0012/0/000,412,environmentalhealth@knowsley.gov.uk,Knowsley,http://www.knowsley.gov.uk,-2.88685900000000,L32 8RH,2012-01-28,fhrs_2_en-GB,2,,FHRS,10
177079,Norwich Way,Kirkby Town Centre,Knowsley,,Barclaycard Centre,Restaurant/Cafe/Canteen,1,0,,220846,0,,53.48352813720703,01456/4000/2/000,412,environmentalhealth@knowsley.gov.uk,Knowsley,http://www.knowsley.gov.uk,-2.88980007171631,L32 8UX,2012-02-13,fhrs_5_en-GB,5,,FHRS,0
177080,10 Mackets Lane,Halewood,Knowsley,,Bargain Booze,Retailers - other,4613,,,220928,,,53.36172500000000,00807/0010/0/000,412,environmentalhealth@knowsley.gov.uk,Knowsley,http://www.knowsley.gov.uk,-2.85206500000000,L25 0LQ,2009-08-28,fhrs_exempt_en-GB,Exempt,,FHRS,
177081,118 Cherryfield Drive,Kirkby,Knowsley,,Bargain Booze,Retailers - other,4613,,,221061,,,53.48156200000000,00240/0118/0/000,412,environmentalhealth@knowsley.gov.uk,Knowsley,http://www.knowsley.gov.uk,-2.88805400000000,L32 8RX,2010-11-10,fhrs_exempt_en-GB,Exempt,,FHRS,
177082,2-4 Rimmer Avenue,Roby,Knowsley,,Bargain Booze,Retailers - other,4613,10,,221007,5,,53.40651700000000,01081/0002/0/000,412,environmentalhealth@knowsley.gov.uk,Knowsley,http://www.knowsley.gov.uk,-2.87307200000000,L16 2NG,2012-01-14,fhrs_4_en-GB,4,,FHRS,5
177083,3 Hollies Road,Halewood,Knowsley,,Bargain Booze,Retailers - other,4613,,,220785,,,53.36732200000000,00624/0003/0/000,412,environmentalhealth@knowsley.gov.uk,Knowsley,http://www.knowsley.gov.uk,-2.82819000000000,L26 0TE,2007-11-20,fhrs_exempt_en-GB,Exempt,,FHRS,
177084,5-7 Windy Arbor Road,Whiston,Knowsley,,Bargain Booze,Retailers - other,4613,,,220614,,,53.41036600000000,01386/0005/0/000,412,environmentalhealth@knowsley.gov.uk,Knowsley,http://www.knowsley.gov.uk,-2.80109000000000,L35 3PA,2008-01-25,fhrs_exempt_en-GB,Exempt,,FHRS,
177085,7 Market Place,Prescot,Knowsley,,Bargain Booze,Retailers - other,4613,,,220691,,,53.42818300000000,00829/0007/0/000,412,environmentalhealth@knowsley.gov.uk,Knowsley,http://www.knowsley.gov.uk,-2.80485700000000,L34 5SB,2007-03-27,fhrs_exempt_en-GB,Exempt,,FHRS,
177086,9 Page Moss Parade,Roby,Knowsley,,Bargain Booze,Retailers - other,4613,,,221094,,,53.41765300000000,00973/0009/0/000,412,environmentalhealth@knowsley.gov.uk,Knowsley,http://www.knowsley.gov.uk,-2.86582200000000,L36 2PA,2007-10-30,fhrs_exempt_en-GB,Exempt,,FHRS,
177087,2-4 Archway Road,Huyton,Knowsley,,Barkers Brewery,Pub/bar/nightclub,7843,0,,220755,0,,53.41276600000000,00041/0002/0/000,412,environmentalhealth@knowsley.gov.uk,Knowsley,http://www.knowsley.gov.uk,-2.84150000000000,L36 9XB,2013-07-04,fhrs_5_en-GB,5,,FHRS,0
177088,Boydell Close,Stockbridge Village,Knowsley,,Barley Mow Hotel,Pub/bar/nightclub,7843,5,,220531,10,,53.43266900000000,01562/4000/2/000,412,environmentalhealth@knowsley.gov.uk,Knowsley,http://www.knowsley.gov.uk,-2.86155100000000,L28 6YA,2008-01-03,fhrs_4_en-GB,4,,FHRS,5
177089,Fallows Way,Whiston,Knowsley,,Batleys (cash & Carry) Plc,Distributors/Transporters,7,5,,220693,5,,53.40389500000000,01617/4001/2/000,412,environmentalhealth@knowsley.gov.uk,Knowsley,http://www.knowsley.gov.uk,-2.81154300000000,L35 1RZ,2014-01-17,fhrs_5_en-GB,5,,FHRS,5
177090,10 Huyton Church Road,Huyton,Knowsley,,Beech House Day Nursery,Hospitals/Childcare/Caring Premises,5,5,,221017,5,,53.41158600000000,00649/0010/0/000,412,environmentalhealth@knowsley.gov.uk,Knowsley,http://www.knowsley.gov.uk,-2.83548900000000,L36 5SJ,2015-01-06,fhrs_5_en-GB,5,,FHRS,0
177091,79-81 Eccleston Street,Prescot,Knowsley,,Beijing Chinese Restaurant,Restaurant/Cafe/Canteen,1,10,,220902,10,,53.42963600000000,00413/0079/0/000,412,environmentalhealth@knowsley.gov.uk,Knowsley,http://www.knowsley.gov.uk,-2.80276200000000,L34 5QH,2013-03-20,fhrs_3_en-GB,3,,FHRS,10
177092,8 Glovers Brow,Kirkby Park,Kirkby,Knowsley,Bernie's Sandwich Bar And Deli,Restaurant/Cafe/Canteen,1,5,,656774,5,,53.48747700000000,14/00020/MIXED,412,environmentalhealth@knowsley.gov.uk,Knowsley,http://www.knowsley.gov.uk,-2.90115400000000,L32 2AE,2014-04-28,fhrs_5_en-GB,5,,FHRS,0
177093,Unit 9,Cavendish Walk,Derby Road,Huyton,Bexley's Butchers,Retailers - other,4613,10,,220504,10,,53.41262000000000,09/00027/MIXED,412,environmentalhealth@knowsley.gov.uk,Knowsley,http://www.knowsley.gov.uk,-2.83928600000000,L36 9YG,2014-02-19,fhrs_2_en-GB,2,,FHRS,15
177094,9 Market Square,Kirkby Town Centre,Knowsley,,Big Apple,Retailers - other,4613,0,,220529,0,,53.48198400000000,00830/0009/0/000,412,environmentalhealth@knowsley.gov.uk,Knowsley,http://www.knowsley.gov.uk,-2.88569700000000,L32 8RG,2012-01-28,fhrs_5_en-GB,5,,FHRS,0
177095,Arncliffe Road,Halewood,Knowsley,,Big Cherry Tree Nursery,Hospitals/Childcare/Caring Premises,5,5,,220891,5,,53.36963000000000,00044/4012/2/000,412,environmentalhealth@knowsley.gov.uk,Knowsley,http://www.knowsley.gov.uk,-2.84902100000000,L25 9PB,2011-02-09,fhrs_5_en-GB,5,,FHRS,5
177096,Bigdale Drive,Kirkby,Knowsley,,Bigdale Service Station,Retailers - other,4613,20,,220681,0,,53.48485000000000,00110/4001/2/000,412,environmentalhealth@knowsley.gov.uk,Knowsley,http://www.knowsley.gov.uk,-2.87617200000000,L33 6XG,2012-02-07,fhrs_1_en-GB,1,,FHRS,0
177097,77 Longview Drive,Huyton,Knowsley,,Birdies,Restaurant/Cafe/Canteen,1,5,,220927,0,,53.41540700000000,10/00096/FOOD,412,environmentalhealth@knowsley.gov.uk,Knowsley,http://www.knowsley.gov.uk,-2.82504700000000,L36 6EB,2014-09-11,fhrs_5_en-GB,5,,FHRS,5
177098,Wheathill Road,Huyton,Knowsley,,Birwood Care Home,Hospitals/Childcare/Caring Premises,5,5,,220974,5,,53.40196300000000,01356/2006/2/000,412,environmentalhealth@knowsley.gov.uk,Knowsley,http://www.knowsley.gov.uk,-2.83626300000000,L36 5UR,2012-01-28,fhrs_5_en-GB,5,,FHRS,0
177099,Knowsley Community College,Rupert Road,Roby,Knowsley,Bistro 36,School/college/university,7845,0,,221149,0,,53.41320200000000,01108/4000/2/000,412,environmentalhealth@knowsley.gov.uk,Knowsley,http://www.knowsley.gov.uk,-2.85109200000000,L36 9TD,2014-06-03,fhrs_5_en-GB,5,,FHRS,5
177100,427 Cronton Road,Cronton,Knowsley,,Black Horse Hotel,Pub/bar/nightclub,7843,10,,707418,10,,53.38928900000000,14/00172/MIXED,412,environmentalhealth@knowsley.gov.uk,Knowsley,http://www.knowsley.gov.uk,-2.76089300000000,WA8 5QG,2014-10-14,fhrs_3_en-GB,3,,FHRS,5
177101,Tarbock Road,Huyton,Knowsley,,Blacklow Brow Primary School,School/college/university,7845,5,,221006,0,,53.40700000000000,01271/4001/2/000,412,environmentalhealth@knowsley.gov.uk,Knowsley,http://www.knowsley.gov.uk,-2.84728300000000,L36 5XW,2014-11-07,fhrs_5_en-GB,5,,FHRS,0
177102,Cawthorne Walk,Southdene,Kirkby,Knowsley,Bluebell Park,School/college/university,7845,5,,482128,5,,53.47111200000000,12/00125/FOOD,412,environmentalhealth@knowsley.gov.uk,Knowsley,http://www.knowsley.gov.uk,-2.88756400000000,L32 3XP,2012-11-27,fhrs_5_en-GB,5,,FHRS,5
177103,40 Molyneux Drive,Prescot,Knowsley,,Booze Buster,Retailers - other,4613,,,220667,,,53.41946600000000,00879/0040/0/000,412,environmentalhealth@knowsley.gov.uk,Knowsley,http://www.knowsley.gov.uk,-2.80058400000000,L35 5DY,2011-11-16,fhrs_exempt_en-GB,Exempt,,FHRS,
177104,72 Sugar Lane,Knowsley Village,Knowsley,,Booze Buster,Retailers - other,4613,,,220512,,,53.44952700000000,01245/0072/0/000,412,environmentalhealth@knowsley.gov.uk,Knowsley,http://www.knowsley.gov.uk,-2.85210500000000,L34 0ER,2006-09-01,fhrs_exempt_en-GB,Exempt,,FHRS,
177105,Rimmer Avenue,Roby,Knowsley,,Bowring Park Hotel,Pub/bar/nightclub,7843,20,,679784,15,,53.40565300000000,14/00116/MIXED,412,environmentalhealth@knowsley.gov.uk,Knowsley,http://www.knowsley.gov.uk,-2.87200100000000,L16 2NE,2014-06-19,fhrs_1_en-GB,1,,FHRS,15
177106,126-128 Cherryfield Drive,Kirkby,Knowsley,,Brambles,Pub/bar/nightclub,7843,10,,220503,5,,53.48156200000000,00240/0126/0/000,412,environmentalhealth@knowsley.gov.uk,Knowsley,http://www.knowsley.gov.uk,-2.88805400000000,L32 8RX,2011-11-16,fhrs_4_en-GB,4,,FHRS,5
177107,37 Acacia Avenue,Huyton,Knowsley,Merseyside,Bramwells,Retailers - other,4613,,,220951,,,53.40405800000000,00002/0037/0/000,412,environmentalhealth@knowsley.gov.uk,Knowsley,http://www.knowsley.gov.uk,-2.84636700000000,L36 5TN,2007-03-23,fhrs_exempt_en-GB,Exempt,,FHRS,
177108,11-15 Broad Lane,Southdene,Kirkby,Knowsley,Broad Lane Food Market,Retailers - other,4613,5,,220606,0,,53.47123700000000,00165/0011/0/000,412,environmentalhealth@knowsley.gov.uk,Knowsley,http://www.knowsley.gov.uk,-2.88160100000000,L32 6QA,2013-03-25,fhrs_4_en-GB,4,,FHRS,10
177109,1 Broad Lane,Kirkby,Knowsley,,Broad Lane Supper Bar,Takeaway/sandwich shop,7844,20,,220562,10,,53.47123700000000,00165/0001/0/000,412,environmentalhealth@knowsley.gov.uk,Knowsley,http://www.knowsley.gov.uk,-2.88160100000000,L32 6QA,2013-12-09,fhrs_1_en-GB,1,,FHRS,5
177110,29 Liverpool Road,Prescot,Knowsley,,Brook Cottage,Hospitals/Childcare/Caring Premises,5,10,,220937,5,,53.42784200000000,10/00071/FOOD,412,environmentalhealth@knowsley.gov.uk,Knowsley,http://www.knowsley.gov.uk,-2.81671000000000,L34 1NL,2010-04-30,fhrs_4_en-GB,4,,FHRS,5
177111,4 Childwall Parade,Pilch Lane,Roby,Knowsley,Brooks Tea Rooms,Other catering premises,7841,10,,220794,5,,53.41221800000000,09016/0004/0/000,412,environmentalhealth@knowsley.gov.uk,Knowsley,http://www.knowsley.gov.uk,-2.87156400000000,L14 6TT,2014-06-06,fhrs_4_en-GB,4,,FHRS,5
177112,10 Greenes Road,Whiston,Knowsley,,Brunch (Merseyside Limited),Retailers - other,4613,0,,554870,5,,53.41242600000000,13/00100/FOOD,412,environmentalhealth@knowsley.gov.uk,Knowsley,http://www.knowsley.gov.uk,-2.80213700000000,L35 3RF,2013-05-23,fhrs_4_en-GB,4,,FHRS,10
177113,Field Lane,Fazakerley,Knowsley,,Buckels Nursery,Restaurant/Cafe/Canteen,1,5,,220773,0,,53.46836900000000,00463/4001/2/000,412,environmentalhealth@knowsley.gov.uk,Knowsley,http://www.knowsley.gov.uk,-2.91165500000000,L10 0AG,2013-10-15,fhrs_5_en-GB,5,,FHRS,5
177114,12 Oak Close,Whiston,Knowsley,,Buffet Chef,Other catering premises,7841,0,,221042,0,,53.41771100000000,12/00020/FOOD,412,environmentalhealth@knowsley.gov.uk,Knowsley,http://www.knowsley.gov.uk,-2.79150800000000,L35 2YG,2012-03-07,fhrs_5_en-GB,5,,FHRS,0
177115,17 Swanside Parade,Pilch Lane,Roby,Knowsley,Butterfingers,Takeaway/sandwich shop,7844,10,,220558,10,,53.41600000000000,09015/0017/0/000,412,environmentalhealth@knowsley.gov.uk,Knowsley,http://www.knowsley.gov.uk,-2.88166100000000,L14 7QH,2013-08-01,fhrs_3_en-GB,3,,FHRS,10
177116,Windy Arbor Road,Whiston,Knowsley,,Cafe 35,Restaurant/Cafe/Canteen,1,10,,220623,10,,53.41055800000000,10/00091/FOOD,412,environmentalhealth@knowsley.gov.uk,Knowsley,http://www.knowsley.gov.uk,-2.80330500000000,L35 3RZ,2014-04-25,fhrs_3_en-GB,3,,FHRS,5
177117,St Martins Church,Peatwood Avenue,Southdene,Kirkby,Cafe St Martin,Restaurant/Cafe/Canteen,1,5,,220594,0,,53.46994400000000,11/00013/FOOD,412,environmentalhealth@knowsley.gov.uk,Knowsley,http://www.knowsley.gov.uk,-2.87527700000000,L32 7PR,2011-06-28,fhrs_5_en-GB,5,,FHRS,0
177118,,,,,Cake Expectations,Retailers - other,4613,5,,551210,5,,,13/00104/FOOD,412,environmentalhealth@knowsley.gov.uk,Knowsley,http://www.knowsley.gov.uk,,,2013-05-15,fhrs_5_en-GB,5,,FHRS,0
177119,,,,,Cakes & Bakes By Liz,Other catering premises,7841,5,,494395,0,,,13/00001/FOOD,412,environmentalhealth@knowsley.gov.uk,Knowsley,http://www.knowsley.gov.uk,,,2013-01-04,fhrs_5_en-GB,5,,FHRS,0
177120,1 Page Moss Parade,Roby,Knowsley,,Captain Cod,Takeaway/sandwich shop,7844,10,,220732,10,,53.41765300000000,00973/0001/0/000,412,environmentalhealth@knowsley.gov.uk,Knowsley,http://www.knowsley.gov.uk,-2.86582200000000,L36 2PA,2014-03-12,fhrs_3_en-GB,3,,FHRS,10
177121,,,,,Carol's Cake Emporium,Other catering premises,7841,0,,220922,0,,,11/00042/FOOD,412,environmentalhealth@knowsley.gov.uk,Knowsley,http://www.knowsley.gov.uk,,,2013-04-10,fhrs_5_en-GB,5,,FHRS,0
177122,191 Dragon Lane,Whiston,Knowsley,,Carrs Hotel,Pub/bar/nightclub,7843,5,,220519,0,,53.41555600000000,00388/0191/0/000,412,environmentalhealth@knowsley.gov.uk,Knowsley,http://www.knowsley.gov.uk,-2.79513900000000,L35 3QU,2012-01-18,fhrs_5_en-GB,5,,FHRS,0
177123,Glovers Brow,Kirkby,Knowsley,,Carters Arms,Pub/bar/nightclub,7843,10,,220985,10,,53.48783200000000,00511/4001/2/000,412,environmentalhealth@knowsley.gov.uk,Knowsley,http://www.knowsley.gov.uk,-2.90183900000000,L32 2AD,2007-11-20,fhrs_3_en-GB,3,,FHRS,10
177124,57 St Helens Road,Prescot,Knowsley,,Catholic Guild Hall,Other catering premises,7841,5,,220638,10,,53.43190300000000,01130/0057/0/000,412,environmentalhealth@knowsley.gov.uk,Knowsley,http://www.knowsley.gov.uk,-2.80104400000000,L34 6HW,2006-09-01,fhrs_3_en-GB,3,,FHRS,10
177125,18 Longview Avenue,Prescot,Knowsley,,Celebration Cakes 4 You,Retailers - other,4613,10,,220799,5,,53.42196400000000,11/00030/FOOD,412,environmentalhealth@knowsley.gov.uk,Knowsley,http://www.knowsley.gov.uk,-2.78031600000000,L35 8LY,2011-06-08,fhrs_4_en-GB,4,,FHRS,5
177126,,,,,Chantelle's Buffets,Other catering premises,7841,0,,650615,0,,,13/00023/FOOD,412,environmentalhealth@knowsley.gov.uk,Knowsley,http://www.knowsley.gov.uk,,,2014-04-09,fhrs_5_en-GB,5,,FHRS,0
177127,Wilson Road,Huyton,Knowsley,,Chapel Brook,Hotel/bed & breakfast/guest house,7842,0,,221127,0,,53.40089700000000,01375/4016/2/000,412,environmentalhealth@knowsley.gov.uk,Knowsley,http://www.knowsley.gov.uk,-2.81616300000000,L36 6AD,2014-10-08,fhrs_5_en-GB,5,,FHRS,5
177128,15 Swanside Parade,Pilch Lane,Roby,Knowsley,Chapman News,Retailers - other,4613,10,,731100,0,,53.41600000000000,15/00016/MIXED,412,environmentalhealth@knowsley.gov.uk,Knowsley,http://www.knowsley.gov.uk,-2.88166100000000,L14 7QH,2015-01-20,fhrs_4_en-GB,4,,FHRS,10
177129,50 Copplehouse Lane,Fazakerley,Knowsley,,Cheers Off Licence,Retailers - other,4613,,,220673,,,53.46734900000000,00280/0050/0/000,412,environmentalhealth@knowsley.gov.uk,Knowsley,http://www.knowsley.gov.uk,-2.91446600000000,L10 0AF,2008-01-31,fhrs_exempt_en-GB,Exempt,,FHRS,
177130,,,,,Chezzas,Other catering premises,7841,10,,615839,5,,,13/00229/FOOD,412,environmentalhealth@knowsley.gov.uk,Knowsley,http://www.knowsley.gov.uk,,,2013-11-26,fhrs_4_en-GB,4,,FHRS,0
177131,49 Eccleston Street,Prescot,Knowsley,,Chicken Barbecue,Takeaway/sandwich shop,7844,5,,221009,10,,53.42963600000000,00413/0049/0/000,412,environmentalhealth@knowsley.gov.uk,Knowsley,http://www.knowsley.gov.uk,-2.80276200000000,L34 5QH,2014-09-05,fhrs_4_en-GB,4,,FHRS,5
177132,187 Warrington Road,Prescot,Knowsley,,Chicken Walk,Takeaway/sandwich shop,7844,5,,682474,5,,53.42349300000000,14/00120/MIXED,412,environmentalhealth@knowsley.gov.uk,Knowsley,http://www.knowsley.gov.uk,-2.78839500000000,L35 5AF,2014-11-26,fhrs_5_en-GB,5,,FHRS,5
177133,Suite 10,Stanley Grange,Ormskirk Road,Knowsley Village,Chill Out Spa & Beauty,Restaurant/Cafe/Canteen,1,10,,220658,5,,53.44870700000000,09/00088/MIXED,412,environmentalhealth@knowsley.gov.uk,Knowsley,http://www.knowsley.gov.uk,-2.84350600000000,L34 4AT,2011-12-07,fhrs_4_en-GB,4,,FHRS,0
177134,60 Shaw Lane,Prescot,Knowsley,,China Delight,Takeaway/sandwich shop,7844,10,,221167,5,,53.42051600000000,01174/0060/0/000,412,environmentalhealth@knowsley.gov.uk,Knowsley,http://www.knowsley.gov.uk,-2.79279400000000,L35 5BZ,2014-07-23,fhrs_4_en-GB,4,,FHRS,5
177135,14 Windy Arbor Road,Whiston,Knowsley,,China Star,Restaurant/Cafe/Canteen,1,5,,220836,0,,53.40993100000000,01386/0014/0/000,412,environmentalhealth@knowsley.gov.uk,Knowsley,http://www.knowsley.gov.uk,-2.80156300000000,L35 3PB,2013-01-02,fhrs_5_en-GB,5,,FHRS,5
177136,,,,,Chloe's Candy Cart,Retailers - other,4613,0,,668807,0,,,14/00090/FOOD,412,environmentalhealth@knowsley.gov.uk,Knowsley,http://www.knowsley.gov.uk,,,2014-05-23,fhrs_5_en-GB,5,,FHRS,0
177137,3 Gentwood Parade,Kingsway,Huyton,Knowsley,Chris's Supper Bar,Takeaway/sandwich shop,7844,10,,220546,10,,53.41933900000000,09050/0003/0/000,412,environmentalhealth@knowsley.gov.uk,Knowsley,http://www.knowsley.gov.uk,-2.85147100000000,L36 2QB,2014-12-09,fhrs_3_en-GB,3,,FHRS,10
177138,1 Station Road,Prescot,Knowsley,,Chung Ku,Takeaway/sandwich shop,7844,5,,221134,5,,53.42747700000000,01227/0001/0/000,412,environmentalhealth@knowsley.gov.uk,Knowsley,http://www.knowsley.gov.uk,-2.80154700000000,L34 5SN,2013-03-08,fhrs_4_en-GB,4,,FHRS,10
177139,166A Warrington Road,Prescot,Knowsley,,Chungs Super Fry,Takeaway/sandwich shop,7844,0,,220620,0,,53.42373700000000,01322/0166/A/000,412,environmentalhealth@knowsley.gov.uk,Knowsley,http://www.knowsley.gov.uk,-2.79092800000000,L35 2UA,2012-02-01,fhrs_5_en-GB,5,,FHRS,5
177140,45 Elizabeth Road,Huyton,Knowsley,,CIC,Hospitals/Childcare/Caring Premises,5,5,,220945,5,,53.40274500000000,00425/0045/0/000,412,environmentalhealth@knowsley.gov.uk,Knowsley,http://www.knowsley.gov.uk,-2.82714900000000,L36 0TG,2012-01-28,fhrs_5_en-GB,5,,FHRS,0
177141,,,,,Circa Cocoa,Other catering premises,7841,5,,268319,5,,,12/00025/FOOD,412,environmentalhealth@knowsley.gov.uk,Knowsley,http://www.knowsley.gov.uk,,,2014-03-04,fhrs_5_en-GB,5,,FHRS,5
177142,210 Kingsway,Huyton,Knowsley,,Cliffs,Retailers - other,4613,5,,221081,5,,53.41552700000000,01449/0210/0/000,412,environmentalhealth@knowsley.gov.uk,Knowsley,http://www.knowsley.gov.uk,-2.84897200000000,L36 2PS,2014-09-04,fhrs_5_en-GB,5,,FHRS,5
177143,54 Derby Street,Prescot,Knowsley,,Clock Face,Pub/bar/nightclub,7843,5,,220821,10,,53.42931500000000,00366/0054/0/000,412,environmentalhealth@knowsley.gov.uk,Knowsley,http://www.knowsley.gov.uk,-2.81163600000000,L34 3LL,2013-07-23,fhrs_4_en-GB,4,,FHRS,5
177144,Poplar Bank,Huyton,Knowsley,,Club 3000 Bingo,Restaurant/Cafe/Canteen,1,0,,220900,0,,53.41074300000000,01027/4001/2/000,412,environmentalhealth@knowsley.gov.uk,Knowsley,http://www.knowsley.gov.uk,-2.84292000000000,L36 9US,2014-04-07,fhrs_5_en-GB,5,,FHRS,0
177145,Knowsley Leisure And Culture Park,Longview Drive,Huyton,Knowsley,Coffee Wagon,Restaurant/Cafe/Canteen,1,10,,577540,10,,53.41468900000000,13/00163/FOOD,412,environmentalhealth@knowsley.gov.uk,Knowsley,http://www.knowsley.gov.uk,-2.82485300000000,L36 6EG,2013-08-12,fhrs_3_en-GB,3,,FHRS,10
177146,,,,,Colin Wall,Mobile caterer,7846,10,,716839,10,,,14/00087/FOOD,412,environmentalhealth@knowsley.gov.uk,Knowsley,http://www.knowsley.gov.uk,,,2014-11-14,fhrs_3_en-GB,3,,FHRS,10
177147,27 Alvanley Road,Westvale,Kirkby,Knowsley,Colleen's Cakes,Other catering premises,7841,5,,220576,5,,53.48400100000000,11/00018/FOOD,412,environmentalhealth@knowsley.gov.uk,Knowsley,http://www.knowsley.gov.uk,-2.90089900000000,L32 0SY,2011-04-18,fhrs_5_en-GB,5,,FHRS,5
177148,The Turner Building,School Lane,Knowsley Business Park,Knowsley,Compass At Virgin Media,Restaurant/Cafe/Canteen,1,0,,221152,0,,53.45929100000000,06/00019/MIXED,412,environmentalhealth@knowsley.gov.uk,Knowsley,http://www.knowsley.gov.uk,-2.85936400000000,L34 9HD,2014-02-13,fhrs_5_en-GB,5,,FHRS,5
177149,Ashcroft Road,Knowsley Industrial Park,Kirkby,Knowsley,Conservatory Cafe,Restaurant/Cafe/Canteen,1,5,,220639,5,,53.48555700000000,00048/4024/2/000,412,environmentalhealth@knowsley.gov.uk,Knowsley,http://www.knowsley.gov.uk,-2.85296300000000,L33 7TW,2013-03-12,fhrs_5_en-GB,5,,FHRS,0
177150,2-4 Alscot Avenue,Field Lane Estate,Knowsley,,Co-Op Late Shop,Retailers - supermarkets/hypermarkets,7840,0,,220914,0,,53.46908600000000,00025/0002/0/000,412,environmentalhealth@knowsley.gov.uk,Knowsley,http://www.knowsley.gov.uk,-2.91192700000000,L10 0AL,2012-01-22,fhrs_5_en-GB,5,,FHRS,0
177151,3 Windy Arbor Road,Whiston,Knowsley,,Co-Op Late Shop,Retailers - other,4613,0,,221110,0,,53.41036600000000,01386/0003/0/000,412,environmentalhealth@knowsley.gov.uk,Knowsley,http://www.knowsley.gov.uk,-2.80109000000000,L35 3PA,2012-02-12,fhrs_5_en-GB,5,,FHRS,0
177152,47 Warrington Road,Prescot,Knowsley,,Co-Op Late Shop,Retailers - other,4613,0,,221072,5,,53.42942900000000,01322/0047/0/000,412,environmentalhealth@knowsley.gov.uk,Knowsley,http://www.knowsley.gov.uk,-2.79871000000000,L34 5QY,2010-04-01,fhrs_5_en-GB,5,,FHRS,5
177153,224 Pilch Lane,Roby,Knowsley,,Co-Operative Retail Services,Retailers - other,4613,0,,221026,0,,53.41304000000000,01013/0224/0/000,412,environmentalhealth@knowsley.gov.uk,Knowsley,http://www.knowsley.gov.uk,-2.87356600000000,L14 0JQ,2012-01-22,fhrs_5_en-GB,5,,FHRS,0
177154,19 Tarbock Road,Huyton,Knowsley,,Copper Kettle Cafe,Restaurant/Cafe/Canteen,1,10,,220957,10,,53.40760500000000,01271/0019/0/000,412,environmentalhealth@knowsley.gov.uk,Knowsley,http://www.knowsley.gov.uk,-2.84681400000000,L36 5XN,2014-06-06,fhrs_3_en-GB,3,,FHRS,5
177155,48 Copplehouse Lane,Fazakerley,Knowsley,,Copplehouse Fish And Chips,Takeaway/sandwich shop,7844,10,,220767,10,,53.46734900000000,00280/0048/0/000,412,environmentalhealth@knowsley.gov.uk,Knowsley,http://www.knowsley.gov.uk,-2.91446600000000,L10 0AF,2014-10-10,fhrs_3_en-GB,3,,FHRS,10
177156,22 - 26 In Shops,11 - 21 Lansdowne Way,Huyton,Knowsley,Corner Caff,Restaurant/Cafe/Canteen,1,10,,715362,5,,53.41126700000000,14/00175/FOOD,412,environmentalhealth@knowsley.gov.uk,Knowsley,http://www.knowsley.gov.uk,-2.83870300000000,L36 9YB,2014-10-20,fhrs_4_en-GB,4,,FHRS,5
177157,Tesco Stores,Cables Retail Park,Manchester Road/Sewell Street,Prescot,Costa Coffee,Restaurant/Cafe/Canteen,1,0,,220779,0,,53.42681600000000,09242/4001/2/001,412,environmentalhealth@knowsley.gov.uk,Knowsley,http://www.knowsley.gov.uk,-2.80105300000000,L34 5NQ,2013-05-09,fhrs_5_en-GB,5,,FHRS,0
177158,Unit 26,Cavendish Walk,Derby Road,Huyton,Costa Coffee,Restaurant/Cafe/Canteen,1,5,,220828,5,,53.41262000000000,09/00006/HS,412,environmentalhealth@knowsley.gov.uk,Knowsley,http://www.knowsley.gov.uk,-2.83928600000000,L36 9YG,2011-01-19,fhrs_5_en-GB,5,,FHRS,5
177159,Whiston Hospital,Warrington Road,Whiston,Knowsley,Costa Coffee,Restaurant/Cafe/Canteen,1,0,,220648,0,,53.42082100000000,10/00092/FOOD,412,environmentalhealth@knowsley.gov.uk,Knowsley,http://www.knowsley.gov.uk,-2.78602900000000,L35 5DR,2013-10-03,fhrs_5_en-GB,5,,FHRS,0
177160,89 Longview Drive,Huyton,Knowsley,,Costas Chippy,Takeaway/sandwich shop,7844,5,,581604,5,,53.41540700000000,13/00170/MIXED,412,environmentalhealth@knowsley.gov.uk,Knowsley,http://www.knowsley.gov.uk,-2.82504700000000,L36 6EB,2014-09-02,fhrs_4_en-GB,4,,FHRS,10
177161,135 Scotchbarn Lane,Prescot,Knowsley,,Cosy Corner,Restaurant/Cafe/Canteen,1,5,,559367,5,,53.42681000000000,13/00070/FOOD,412,environmentalhealth@knowsley.gov.uk,Knowsley,http://www.knowsley.gov.uk,-2.78976600000000,L35 7JA,2015-01-22,fhrs_5_en-GB,5,,FHRS,5
177162,,,,,Couture Cakes By Claire,Other catering premises,7841,10,,451655,5,,,12/00083/FOOD,412,environmentalhealth@knowsley.gov.uk,Knowsley,http://www.knowsley.gov.uk,,,2012-09-07,fhrs_4_en-GB,4,,FHRS,5
177163,94 Page Moss Lane,Roby,Knowsley,,Create A Cake,Retailers - other,4613,5,,220542,5,,53.41576700000000,00972/0094/0/000,412,environmentalhealth@knowsley.gov.uk,Knowsley,http://www.knowsley.gov.uk,-2.86816100000000,L14 0LX,2013-11-20,fhrs_5_en-GB,5,,FHRS,0
177164,Smithy Lane,Cronton,Knowsley,,Cronton Church Of England Primary School,School/college/university,7845,0,,221146,0,,53.39135600000000,01205/4000/2/000,412,environmentalhealth@knowsley.gov.uk,Knowsley,http://www.knowsley.gov.uk,-2.76380200000000,WA8 5DF,2014-10-14,fhrs_5_en-GB,5,,FHRS,0
177165,1 Chapel Lane,Cronton,Knowsley,,Cronton Fish Bar,Takeaway/sandwich shop,7844,5,,221005,10,,53.38755200000000,00232/0001/0/000,412,environmentalhealth@knowsley.gov.uk,Knowsley,http://www.knowsley.gov.uk,-2.76129800000000,WA8 4NT,2012-06-27,fhrs_4_en-GB,4,,FHRS,5
177166,23A Hampton Drive,Cronton,Knowsley,,Cronton Sandwich Shop,Restaurant/Cafe/Canteen,1,5,,639096,10,,,14/00065/FOOD,412,environmentalhealth@knowsley.gov.uk,Knowsley,http://www.knowsley.gov.uk,,WA8 9BZ,2014-03-06,fhrs_4_en-GB,4,,FHRS,0
177167,5 The Parade,Wood Road,Halewood,Knowsley,Crumbs Sandwich Shop,Restaurant/Cafe/Canteen,1,5,,722249,5,,53.36003300000000,14/00186/FOOD,412,environmentalhealth@knowsley.gov.uk,Knowsley,http://www.knowsley.gov.uk,-2.83963400000000,L26 1UT,2014-12-04,fhrs_5_en-GB,5,,FHRS,5
177168,,,,,Cupcakes In The City,Other catering premises,7841,10,,221048,5,,,10/00099/FOOD,412,environmentalhealth@knowsley.gov.uk,Knowsley,http://www.knowsley.gov.uk,,,2010-08-04,fhrs_4_en-GB,4,,FHRS,5
177169,2 Childwall Parade,Pilch Lane,Roby,Knowsley,D Smith Family Butcher,Retailers - other,4613,5,,221106,5,,53.41221800000000,09016/0002/0/000,412,environmentalhealth@knowsley.gov.uk,Knowsley,http://www.knowsley.gov.uk,-2.87156400000000,L14 6TT,2014-06-06,fhrs_5_en-GB,5,,FHRS,0
177170,,,,,Darlin Buds Of June,Other catering premises,7841,0,,692155,0,,,14/00134/FOOD,412,environmentalhealth@knowsley.gov.uk,Knowsley,http://www.knowsley.gov.uk,,,2014-08-18,fhrs_5_en-GB,5,,FHRS,0
177171,Arbour Lane,Kirkby,Knowsley,,David Lloyd Leisure Club,Other catering premises,7841,0,,220501,0,,53.47841300000000,00040/4011/2/000,412,environmentalhealth@knowsley.gov.uk,Knowsley,http://www.knowsley.gov.uk,-2.87019300000000,L33 7ET,2012-07-13,fhrs_5_en-GB,5,,FHRS,5
177172,Church Street,Prescot,Knowsley,,Deanes House Hotel,Pub/bar/nightclub,7843,5,,220901,5,,53.42883900000000,01432/4001/2/000,412,environmentalhealth@knowsley.gov.uk,Knowsley,http://www.knowsley.gov.uk,-2.80619400000000,L34 3LA,2013-10-09,fhrs_4_en-GB,4,,FHRS,10
177173,90 Page Moss Lane,Roby,Knowsley,,Deans Discount,Retailers - other,4613,10,,220835,0,,53.41576700000000,00972/0090/0/000,412,environmentalhealth@knowsley.gov.uk,Knowsley,http://www.knowsley.gov.uk,-2.86816100000000,L14 0LX,2012-01-17,fhrs_4_en-GB,4,,FHRS,5
177174,38 Blue Bell Lane,Huyton,Knowsley,,Deansgrove Residential Home,Hospitals/Childcare/Caring Premises,5,10,,220978,5,,53.41706200000000,00130/0038/0/000,412,environmentalhealth@knowsley.gov.uk,Knowsley,http://www.knowsley.gov.uk,-2.84164500000000,L36 7XZ,2014-08-22,fhrs_4_en-GB,4,,FHRS,5
177175,,,,,Debbie's Cakes & Cupcakes,Other catering premises,7841,10,,569254,0,,,13/00141/FOOD,412,environmentalhealth@knowsley.gov.uk,Knowsley,http://www.knowsley.gov.uk,,,2013-06-20,fhrs_4_en-GB,4,,FHRS,0
177176,Centre 63 Youth Centre,Old Hall Lane,Kirkby Park,Kirkby,Deli 63,Restaurant/Cafe/Canteen,1,5,,220586,5,,53.48377100000000,11/00008/MIXED,412,environmentalhealth@knowsley.gov.uk,Knowsley,http://www.knowsley.gov.uk,-2.89197300000000,L32 5TH,2013-09-12,fhrs_5_en-GB,5,,FHRS,5
177177,635 Knowsley Lane,Knowsley,Knowsley,,Derby Arms Hotel,Pub/bar/nightclub,7843,5,,220760,10,,53.45260800000000,00254/4006/0/000,412,environmentalhealth@knowsley.gov.uk,Knowsley,http://www.knowsley.gov.uk,-2.85496700000000,L34 9EA,2013-08-29,fhrs_3_en-GB,3,,FHRS,10
177178,Roby Road,Roby,Knowsley,,Derby Lodge Hotel,Hotel/bed & breakfast/guest house,7842,5,,220669,10,,53.40887100000000,01083/4006/2/000,412,environmentalhealth@knowsley.gov.uk,Knowsley,http://www.knowsley.gov.uk,-2.85956600000000,L36 4HD,2013-05-17,fhrs_4_en-GB,4,,FHRS,5
177179,Coopers Lane,Knowsley Industrial Park,Knowsley,,Dine Limited - Yorkshire Copper Tube,Other catering premises,7841,0,,528258,5,,,00277/4001/2/000,412,environmentalhealth@knowsley.gov.uk,Knowsley,http://www.knowsley.gov.uk,,,2013-03-25,fhrs_5_en-GB,5,,FHRS,5
177180,Whitakers Garden Centre,Liverpool Road,Prescot,Knowsley,Di's Scran Van,Retailers - other,4613,5,,572206,5,,53.42908600000000,13/00111/FOOD,412,environmentalhealth@knowsley.gov.uk,Knowsley,http://www.knowsley.gov.uk,-2.81623700000000,L34 3LX,2013-07-29,fhrs_5_en-GB,5,,FHRS,5
177181,,,,,Dolci Unique Italian Cakes,Other catering premises,7841,10,,301806,5,,,12/00031/FOOD,412,environmentalhealth@knowsley.gov.uk,Knowsley,http://www.knowsley.gov.uk,,,2012-03-29,fhrs_4_en-GB,4,,FHRS,0
177182,29 Cavendish Walk,Derby Road,Huyton,Knowsley,Domino's Pizza,Takeaway/sandwich shop,7844,5,,221053,5,,53.41262000000000,09/00003/MIXED,412,environmentalhealth@knowsley.gov.uk,Knowsley,http://www.knowsley.gov.uk,-2.83928600000000,L36 9YG,2014-06-19,fhrs_5_en-GB,5,,FHRS,5
177183,2 Dragon Drive,Whiston,Knowsley,,Dragon News,Retailers - other,4613,,,220769,,,53.41664600000000,00389/0002/0/000,412,environmentalhealth@knowsley.gov.uk,Knowsley,http://www.knowsley.gov.uk,-2.79610800000000,L35 3QW,2014-07-24,fhrs_exempt_en-GB,Exempt,,FHRS,
177184,12 Dragon Drive,Whiston,Knowsley,,Drinks Cabin,Retailers - other,4613,,,221011,,,53.41664600000000,00389/0012/0/000,412,environmentalhealth@knowsley.gov.uk,Knowsley,http://www.knowsley.gov.uk,-2.79610800000000,L35 3QW,2006-09-01,fhrs_exempt_en-GB,Exempt,,FHRS,
177185,103 St James Road,Prescot,Knowsley,,DS And AMG News,Retailers - other,4613,,,220793,,,53.43065700000000,01132/0103/0/000,412,environmentalhealth@knowsley.gov.uk,Knowsley,http://www.knowsley.gov.uk,-2.79378100000000,L34 2SF,2010-01-28,fhrs_exempt_en-GB,Exempt,,FHRS,
177186,64 Shaw Lane,Prescot,Knowsley,,Dunnes News,Retailers - other,4613,10,,220908,10,,53.42051600000000,01174/0064/0/000,412,environmentalhealth@knowsley.gov.uk,Knowsley,http://www.knowsley.gov.uk,-2.79279400000000,L35 5BZ,2013-10-18,fhrs_3_en-GB,3,,FHRS,10
177187,142 Liverpool Road,Huyton,Knowsley,,Eagle Foods,Retailers - other,4613,0,,220965,0,,53.42153000000000,00771/0142/0/000,412,environmentalhealth@knowsley.gov.uk,Knowsley,http://www.knowsley.gov.uk,-2.86052800000000,L36 3RG,2014-12-03,fhrs_5_en-GB,5,,FHRS,5
177188,Hollinghurst Road,Tower Hill,Kirkby,Knowsley,Eastcroft Park Primary School,School/college/university,7845,0,,220975,0,,53.49413600000000,07/00003/FOOD,412,environmentalhealth@knowsley.gov.uk,Knowsley,http://www.knowsley.gov.uk,-2.87851900000000,L33 1EB,2012-01-19,fhrs_5_en-GB,5,,FHRS,0
177189,Knowsley Community College,Rupert Road,Roby,Knowsley,Eat Unique,School/college/university,7845,0,,220752,0,,53.41320200000000,01108/4001/2/000,412,environmentalhealth@knowsley.gov.uk,Knowsley,http://www.knowsley.gov.uk,-2.85109200000000,L36 9TD,2013-02-05,fhrs_5_en-GB,5,,FHRS,5
177190,Work World Knowsley Community Colle,599 Princess Drive,Huyton,Knowsley,Eat Unique,Restaurant/Cafe/Canteen,1,0,,581606,0,,53.42352900000000,13/00173/MIXED,412,environmentalhealth@knowsley.gov.uk,Knowsley,http://www.knowsley.gov.uk,-2.86132100000000,L14 9ND,2013-09-03,fhrs_5_en-GB,5,,FHRS,0
177191,Crawshaw Court,Dinas Lane,Roby,Knowsley,Edenshaw Diner,Restaurant/Cafe/Canteen,1,20,,581605,10,,53.41873100000000,13/00171/MIXED,412,environmentalhealth@knowsley.gov.uk,Knowsley,http://www.knowsley.gov.uk,-2.86470000000000,L36 2QX,2014-09-03,fhrs_1_en-GB,1,,FHRS,5
177192,,,,,Eight Bakes A Week,Other catering premises,7841,5,,268318,0,,,12/00024/FOOD,412,environmentalhealth@knowsley.gov.uk,Knowsley,http://www.knowsley.gov.uk,,,2012-02-14,fhrs_5_en-GB,5,,FHRS,5
177193,Escort Restaurant (Jaguar Plant),South Road,Halewood,Knowsley,Escort Restaurant,Restaurant/Cafe/Canteen,1,0,,220971,0,,53.34954000000000,09330/4002/2/000,412,environmentalhealth@knowsley.gov.uk,Knowsley,http://www.knowsley.gov.uk,-2.83744500000000,L24 9BJ,2013-11-22,fhrs_5_en-GB,5,,FHRS,5
177194,204 Kingsway,Huyton,Knowsley,,Espresso Sandwich Bar,Takeaway/sandwich shop,7844,5,,494400,5,,53.41552700000000,13/00004/MIXED,412,environmentalhealth@knowsley.gov.uk,Knowsley,http://www.knowsley.gov.uk,-2.84897200000000,L36 2PS,2014-09-03,fhrs_5_en-GB,5,,FHRS,5
177195,2 Church Green,Kirkby,Knowsley,,Estate Stores,Retailers - other,4613,10,,220874,5,,53.48481000000000,00252/0002/0/000,412,environmentalhealth@knowsley.gov.uk,Knowsley,http://www.knowsley.gov.uk,-2.88650900000000,L32 1TB,2014-03-25,fhrs_3_en-GB,3,,FHRS,10
177196,Asda Wallmart,Huyton Lane,Huyton,Knowsley,Eurest - Asda,Restaurant/Cafe/Canteen,1,5,,220761,5,,53.41256600000000,10/00075/FOOD,412,environmentalhealth@knowsley.gov.uk,Knowsley,http://www.knowsley.gov.uk,-2.83683200000000,L36 7TX,2014-01-13,fhrs_5_en-GB,5,,FHRS,5
177197,185 Warrington Road,Prescot,Knowsley,,Euro Super Bar,Takeaway/sandwich shop,7844,10,,220768,10,,53.42349300000000,01322/0185/0/000,412,environmentalhealth@knowsley.gov.uk,Knowsley,http://www.knowsley.gov.uk,-2.78839500000000,L35 5AF,2013-09-02,fhrs_3_en-GB,3,,FHRS,10
177198,Evelyn Avenue,Prescot,Knowsley,,Evelyn Community Primary School,School/college/university,7845,5,,220743,5,,53.43075300000000,00441/4000/2/000,412,environmentalhealth@knowsley.gov.uk,Knowsley,http://www.knowsley.gov.uk,-2.79433900000000,L34 2SP,2014-07-03,fhrs_5_en-GB,5,,FHRS,5
177199,Finch Lane,Halewood,Knowsley,,Everton Football Club,Other catering premises,7841,5,,220800,0,,53.35792200000000,11/00005/MIXED,412,environmentalhealth@knowsley.gov.uk,Knowsley,http://www.knowsley.gov.uk,-2.81606300000000,L26 3UE,2014-10-24,fhrs_5_en-GB,5,,FHRS,0
177200,8 Moorfield,Tower Hill,Knowsley,,Farmers Arms,Pub/bar/nightclub,7843,10,,221104,10,,53.49720000000000,00884/0008/0/000,412,environmentalhealth@knowsley.gov.uk,Knowsley,http://www.knowsley.gov.uk,-2.87986300000000,L33 1XD,2007-11-09,fhrs_3_en-GB,3,,FHRS,10
177201,128 Liverpool Road,Huyton,Knowsley,,Farmfoods,Retailers - supermarkets/hypermarkets,7840,0,,221151,0,,53.42153000000000,00771/0128/0/000,412,environmentalhealth@knowsley.gov.uk,Knowsley,http://www.knowsley.gov.uk,-2.86052800000000,L36 3RG,2012-01-15,fhrs_5_en-GB,5,,FHRS,0
177202,132 Cherryfield Drive,Kirkby,Knowsley,,Farmfoods,Retailers - supermarkets/hypermarkets,7840,5,,220839,5,,53.48156200000000,00240/0132/0/000,412,environmentalhealth@knowsley.gov.uk,Knowsley,http://www.knowsley.gov.uk,-2.88805400000000,L32 8RX,2009-08-10,fhrs_5_en-GB,5,,FHRS,5
177203,14 The Prescot Centre,Eccleston Street,Prescot,Knowsley,Farmfoods,Retailers - supermarkets/hypermarkets,7840,5,,220678,5,,53.42870700000000,09144/0015/0/000,412,environmentalhealth@knowsley.gov.uk,Knowsley,http://www.knowsley.gov.uk,-2.80319600000000,L34 5GA,2006-09-01,fhrs_5_en-GB,5,,FHRS,5
177204,68 Sugar Lane,Knowsley Village,Knowsley,,Farmhouse Kitchen,Manufacturers/packers,7839,5,,220820,5,,53.44952700000000,01245/0068/0/000,412,environmentalhealth@knowsley.gov.uk,Knowsley,http://www.knowsley.gov.uk,-2.85210500000000,L34 0ER,2013-09-30,fhrs_4_en-GB,4,,FHRS,10
177205,Park Road,Prescot,Knowsley,,Fazakerley House,Hospitals/Childcare/Caring Premises,5,0,,220941,0,,53.43068300000000,00983/4000/2/000,412,environmentalhealth@knowsley.gov.uk,Knowsley,http://www.knowsley.gov.uk,-2.80735700000000,L34 3LN,2015-01-15,fhrs_5_en-GB,5,,FHRS,0
177206,2 Tennyson Road,Huyton,Knowsley,,Fez's Local,Retailers - other,4613,10,,220613,0,,53.40244200000000,01277/0002/0/000,412,environmentalhealth@knowsley.gov.uk,Knowsley,http://www.knowsley.gov.uk,-2.82427000000000,L36 0TU,2012-01-14,fhrs_4_en-GB,4,,FHRS,0
177207,7A Interchange Motorway Estate,Wilson Road,Huyton,Knowsley,Film Cuisine Ltd,Mobile caterer,7846,0,,220603,0,,53.40477000000000,09150/0007/A/000,412,environmentalhealth@knowsley.gov.uk,Knowsley,http://www.knowsley.gov.uk,-2.82288600000000,L36 6JG,2012-06-21,fhrs_5_en-GB,5,,FHRS,0
177208,24 Bigdale Drive,Northwood,Kirkby,Knowsley,Finestra Catering,Other catering premises,7841,5,,668810,0,,53.48572000000000,14/00093/FOOD,412,environmentalhealth@knowsley.gov.uk,Knowsley,http://www.knowsley.gov.uk,-2.87516500000000,L33 6XJ,2014-05-28,fhrs_5_en-GB,5,,FHRS,5
177209,21 Eccleston Street,Prescot,Knowsley,,Flossys Sandwich Bar,Takeaway/sandwich shop,7844,5,,221083,10,,53.42916500000000,00413/0021/0/000,412,environmentalhealth@knowsley.gov.uk,Knowsley,http://www.knowsley.gov.uk,-2.80458900000000,L34 5QA,2013-12-12,fhrs_4_en-GB,4,,FHRS,5
177210,13 Glovers Brow,Kirkby Park,Kirkby,Knowsley,Food For Thought,Takeaway/sandwich shop,7844,5,,220720,10,,53.48747700000000,00511/0034/0/000,412,environmentalhealth@knowsley.gov.uk,Knowsley,http://www.knowsley.gov.uk,-2.90115400000000,L32 2AE,2014-04-28,fhrs_4_en-GB,4,,FHRS,0
177211,The Fourth Dimension Trust,1 Sherborne Square,Huyton,Knowsley,Fourth Dimension Charity Shop,Restaurant/Cafe/Canteen,1,10,,615838,10,,53.41181700000000,07/00471/HS,412,environmentalhealth@knowsley.gov.uk,Knowsley,http://www.knowsley.gov.uk,-2.83851800000000,L36 9UR,2013-11-25,fhrs_3_en-GB,3,,FHRS,5
177212,5A Cornhill Works,Marl Road,Knowsley Industrial Park,Kirkby,Frankie & Bobbys,Restaurant/Cafe/Canteen,1,10,,623978,10,,53.48723700000000,13/00144/MIXED,412,environmentalhealth@knowsley.gov.uk,Knowsley,http://www.knowsley.gov.uk,-2.85687000000000,L33 7UH,2014-01-14,fhrs_3_en-GB,3,,FHRS,10
177213,16 Park Brow Drive,Southdene,Kirkby,Knowsley,Friar Tucks Cafe,Restaurant/Cafe/Canteen,1,10,,729341,5,,53.47451000000000,14/00164/MIXED,412,environmentalhealth@knowsley.gov.uk,Knowsley,http://www.knowsley.gov.uk,-2.87648500000000,L32 6QP,2015-01-06,fhrs_4_en-GB,4,,FHRS,5
177214,141 Scotchbarn Lane,Prescot,Knowsley,,G And M Murray,Retailers - other,4613,10,,221174,0,,53.42681000000000,01152/0141/0/000,412,environmentalhealth@knowsley.gov.uk,Knowsley,http://www.knowsley.gov.uk,-2.78976600000000,L35 7JA,2012-01-29,fhrs_4_en-GB,4,,FHRS,0
177215,8 Telegraph Way,Kirkby,Knowsley,,Gala Social And Bingo Club,Restaurant/Cafe/Canteen,1,0,,220999,0,,53.48272600000000,01276/0008/0/001,412,environmentalhealth@knowsley.gov.uk,Knowsley,http://www.knowsley.gov.uk,-2.88624000000000,L32 8US,2012-02-26,fhrs_5_en-GB,5,,FHRS,5
177216,,,,,Garsan Events,Other catering premises,7841,5,,537762,5,,,08/00053/FOOD,412,environmentalhealth@knowsley.gov.uk,Knowsley,http://www.knowsley.gov.uk,,,2013-04-18,fhrs_5_en-GB,5,,FHRS,5
177217,5 Gentwood Parade,Kingsway,Huyton,Knowsley,Gentwood News,Retailers - other,4613,,,220850,,,53.41933900000000,09050/0005/0/000,412,environmentalhealth@knowsley.gov.uk,Knowsley,http://www.knowsley.gov.uk,-2.85147100000000,L36 2QB,2011-04-26,fhrs_exempt_en-GB,Exempt,,FHRS,
177218,12 Park Brow Drive,Kirkby,Knowsley,,Gerry Wongs,Takeaway/sandwich shop,7844,5,,220507,5,,53.47451000000000,00981/0012/0/000,412,environmentalhealth@knowsley.gov.uk,Knowsley,http://www.knowsley.gov.uk,-2.87648600000000,L32 6QP,2013-01-16,fhrs_5_en-GB,5,,FHRS,5
177219,7 Hillcrest Parade,Wood Lane,Huyton,Knowsley,Get Stuff't Sandwich Bar,Takeaway/sandwich shop,7844,5,,220579,5,,53.41140600000000,09017/0007/0/000,412,environmentalhealth@knowsley.gov.uk,Knowsley,http://www.knowsley.gov.uk,-2.82256300000000,L36 6DU,2013-09-04,fhrs_5_en-GB,5,,FHRS,5
177220,,,,,Gingercakes,Other catering premises,7841,5,,716840,0,,,14/00194/FOOD,412,environmentalhealth@knowsley.gov.uk,Knowsley,http://www.knowsley.gov.uk,,,2014-11-14,fhrs_5_en-GB,5,,FHRS,0
177221,Stoney Lane,Whiston,Knowsley,,Glen Dimplex - Compass Group,Restaurant/Cafe/Canteen,1,10,,221082,5,,53.41875000000000,01237/4000/2/000,412,environmentalhealth@knowsley.gov.uk,Knowsley,http://www.knowsley.gov.uk,-2.78514800000000,L35 2XW,2013-11-21,fhrs_4_en-GB,4,,FHRS,5
177222,13 Tarbock Road,Huyton,Knowsley,,Gold Star,Takeaway/sandwich shop,7844,10,,565697,5,,53.40760500000000,13/00121/FOOD,412,environmentalhealth@knowsley.gov.uk,Knowsley,http://www.knowsley.gov.uk,-2.84681400000000,L36 5XN,2013-07-04,fhrs_4_en-GB,4,,FHRS,5
177223,6 Greenes Road,Whiston,Knowsley,,Gold Star,Takeaway/sandwich shop,7844,10,,221024,10,,53.41242600000000,00530/0006/0/000,412,environmentalhealth@knowsley.gov.uk,Knowsley,http://www.knowsley.gov.uk,-2.80213700000000,L35 3RF,2012-12-13,fhrs_3_en-GB,3,,FHRS,10
177224,9 Merrivale Road,Halewood,Knowsley,,Golden Dragon,Takeaway/sandwich shop,7844,10,,220527,10,,53.37681100000000,00851/0009/0/000,412,environmentalhealth@knowsley.gov.uk,Knowsley,http://www.knowsley.gov.uk,-2.85296700000000,L25 5NA,2014-04-08,fhrs_3_en-GB,3,,FHRS,10
177225,Windy Arbor Road,Whiston,Knowsley,,GR & PA Furnival,Mobile caterer,7846,5,,301805,0,,53.41171300000000,09272/0056/2/000,412,environmentalhealth@knowsley.gov.uk,Knowsley,http://www.knowsley.gov.uk,-2.80162800000000,,2012-03-29,fhrs_5_en-GB,5,,FHRS,5
177226,2A Dragon Lane,Whiston,Knowsley,,Green Dragon Hotel,Pub/bar/nightclub,7843,5,,220840,0,,53.42067300000000,00388/0002/A/000,412,environmentalhealth@knowsley.gov.uk,Knowsley,http://www.knowsley.gov.uk,-2.78810200000000,L35 2UF,2012-01-18,fhrs_5_en-GB,5,,FHRS,0
177227,Lichfield Road,Halewood,Knowsley,,Green Room,Restaurant/Cafe/Canteen,1,10,,220661,5,,53.35732300000000,10/00087/FOOD,412,environmentalhealth@knowsley.gov.uk,Knowsley,http://www.knowsley.gov.uk,-2.83765800000000,L26 1TT,2014-01-10,fhrs_4_en-GB,4,,FHRS,0
177228,32A St Chads Parade,Kirkby Town Centre,Knowsley,,Greenhalgh's,Retailers - other,4613,0,,221175,5,,53.48205600000000,01126/0032/0/000,412,environmentalhealth@knowsley.gov.uk,Knowsley,http://www.knowsley.gov.uk,-2.88685900000000,L32 8RH,2013-01-17,fhrs_5_en-GB,5,,FHRS,0
177229,46 Derby Road,Huyton,Knowsley,,Greenhalgh's,Retailers - other,4613,0,,220929,0,,53.41169000000000,00364/0046/0/000,412,environmentalhealth@knowsley.gov.uk,Knowsley,http://www.knowsley.gov.uk,-2.83985400000000,L36 9UJ,2014-05-13,fhrs_5_en-GB,5,,FHRS,0
177230,18-24 Molyneux Drive,Prescot,Knowsley,,Greenhouse Discount Supermarket,Retailers - supermarkets/hypermarkets,7840,20,,221120,5,,53.41946600000000,00879/0018/0/000,412,environmentalhealth@knowsley.gov.uk,Knowsley,http://www.knowsley.gov.uk,-2.80058400000000,L35 5DY,2013-09-18,fhrs_1_en-GB,1,,FHRS,15
177231,11 St Chads Parade,Kirkby Town Centre,Knowsley,,Greggs,Retailers - other,4613,0,,220791,0,,53.48170300000000,01126/0011/0/000,412,environmentalhealth@knowsley.gov.uk,Knowsley,http://www.knowsley.gov.uk,-2.88719800000000,L32 8RD,2012-07-13,fhrs_5_en-GB,5,,FHRS,5
177232,16 Eccleston Street,Prescot,Knowsley,,Greggs,Retailers - other,4613,0,,220935,0,,53.42875100000000,00413/0016/0/000,412,environmentalhealth@knowsley.gov.uk,Knowsley,http://www.knowsley.gov.uk,-2.80468700000000,L34 5QE,2012-02-04,fhrs_5_en-GB,5,,FHRS,0
177233,45A Derby Road,Huyton,Knowsley,,Greggs,Retailers - other,4613,0,,220847,0,,53.41127400000000,00364/0045/A/000,412,environmentalhealth@knowsley.gov.uk,Knowsley,http://www.knowsley.gov.uk,-2.83897300000000,L36 9UQ,2013-04-11,fhrs_5_en-GB,5,,FHRS,0
177234,The Avenue,Halewood,Knowsley,,Halewood Centre For Learning,School/college/university,7845,0,,220556,0,,53.36174800000000,01257/4000/2/000,412,environmentalhealth@knowsley.gov.uk,Knowsley,http://www.knowsley.gov.uk,-2.83855600000000,L26 1UU,2012-06-27,fhrs_5_en-GB,5,,FHRS,5
177235,Church Road,Halewood,Knowsley,Merseyside,Halewood Church Of England Primary School,School/college/university,7845,0,,220513,0,,53.36863900000000,00254/4005/2/000,412,environmentalhealth@knowsley.gov.uk,Knowsley,http://www.knowsley.gov.uk,-2.82498500000000,L26 6LB,2012-03-05,fhrs_5_en-GB,5,,FHRS,0
177236,Unit 11,The Halewood Shopping Centre,Leathers Lane,Halewood,Halewood Fish Bar,Takeaway/sandwich shop,7844,10,,542355,10,,,12/00037/MIXED,412,environmentalhealth@knowsley.gov.uk,Knowsley,http://www.knowsley.gov.uk,,L26 0AD,2013-04-25,fhrs_3_en-GB,3,,FHRS,5
177237,1 Hollies Road,Halewood,Knowsley,,Halewood News,Retailers - other,4613,,,220748,,,53.36732200000000,00624/0001/0/000,412,environmentalhealth@knowsley.gov.uk,Knowsley,http://www.knowsley.gov.uk,-2.82819000000000,L26 0TE,2008-01-30,fhrs_exempt_en-GB,Exempt,,FHRS,
177238,Pennywood Drive,Whiston,Knowsley,,Halsnead Community Primary School,School/college/university,7845,0,,221018,0,,53.41233900000000,00388/4002/2/000,412,environmentalhealth@knowsley.gov.uk,Knowsley,http://www.knowsley.gov.uk,-2.79912600000000,L35 3TX,2014-06-12,fhrs_5_en-GB,5,,FHRS,0
177239,98 Page Moss Lane,Roby,Knowsley,,Happy Seasons,Takeaway/sandwich shop,7844,10,,221090,10,,53.41576700000000,00972/0098/0/000,412,environmentalhealth@knowsley.gov.uk,Knowsley,http://www.knowsley.gov.uk,-2.86816100000000,L14 0LX,2014-05-27,fhrs_3_en-GB,3,,FHRS,10
177240,Cronton Road,Huyton,Knowsley,,Hare And Hounds,Pub/bar/nightclub,7843,0,,220566,0,,53.39890500000000,02126/4001/2/000,412,environmentalhealth@knowsley.gov.uk,Knowsley,http://www.knowsley.gov.uk,-2.82087800000000,L35 1QJ,2014-03-05,fhrs_5_en-GB,5,,FHRS,5
177241,High Street,Prescot,Knowsley,,Harry Jesse Son And Co Ltd,Mobile caterer,7846,5,,220823,5,,53.43041700000000,09/00044/FOOD,412,environmentalhealth@knowsley.gov.uk,Knowsley,http://www.knowsley.gov.uk,-2.80280700000000,L34 6HF,2013-10-30,fhrs_5_en-GB,5,,FHRS,5
177242,18 Hillside Road,Huyton,Knowsley,,Harry's Cafe,Restaurant/Cafe/Canteen,1,5,,220701,5,,53.42405000000000,00619/0018/0/000,412,environmentalhealth@knowsley.gov.uk,Knowsley,http://www.knowsley.gov.uk,-2.83728400000000,L36 8BJ,2014-03-04,fhrs_5_en-GB,5,,FHRS,5
177243,Shaw Lane,Prescot,Knowsley,,Haven Lea Residential Home,Hospitals/Childcare/Caring Premises,5,10,,220867,0,,53.42051600000000,01174/4003/2/000,412,environmentalhealth@knowsley.gov.uk,Knowsley,http://www.knowsley.gov.uk,-2.79279400000000,L35 5BZ,2014-03-20,fhrs_4_en-GB,4,,FHRS,5
177244,63-65 Derby Road,Huyton,Knowsley,,Heron Frozen Foods,Retailers - supermarkets/hypermarkets,7840,0,,220778,5,,53.41127400000000,00364/0063/0/000,412,environmentalhealth@knowsley.gov.uk,Knowsley,http://www.knowsley.gov.uk,-2.83897300000000,L36 9UQ,2012-01-28,fhrs_5_en-GB,5,,FHRS,5
177245,Cherryfield Drive,Kirkby Town Centre,Knowsley,,Heron Frozen Foods,Retailers - supermarkets/hypermarkets,7840,5,,221171,5,,53.48156200000000,00240/1148/2/000,412,environmentalhealth@knowsley.gov.uk,Knowsley,http://www.knowsley.gov.uk,-2.88805400000000,L32 8RX,2009-08-10,fhrs_4_en-GB,4,,FHRS,10
177246,Longview Primary School,Astley Road,Huyton,Knowsley,High Hopes Childcare,Hospitals/Childcare/Caring Premises,5,5,,221168,5,,53.42756200000000,07/00436/MIXED,412,environmentalhealth@knowsley.gov.uk,Knowsley,http://www.knowsley.gov.uk,-2.84018200000000,L36 8DB,2013-10-16,fhrs_5_en-GB,5,,FHRS,0
177247,16 Dragon Drive,Whiston,Knowsley,,Higherside Cafe,Restaurant/Cafe/Canteen,1,10,,729343,10,,53.41664600000000,15/00005/FOOD,412,environmentalhealth@knowsley.gov.uk,Knowsley,http://www.knowsley.gov.uk,-2.79610800000000,L35 3QW,2014-12-18,fhrs_3_en-GB,3,,FHRS,10
177248,Baileys Lane,Halewood,Knowsley,Merseyside,Highfield School,School/college/university,7845,0,,220655,0,,53.36365200000000,00066/4000/2/000,412,environmentalhealth@knowsley.gov.uk,Knowsley,http://www.knowsley.gov.uk,-2.82203300000000,L26 0TY,2012-02-01,fhrs_5_en-GB,5,,FHRS,0
177249,52 Hillside Road,Huyton,Knowsley,,Hillside Homebake,Manufacturers/packers,7839,10,,220698,10,,53.42405000000000,00619/0052/0/000,412,environmentalhealth@knowsley.gov.uk,Knowsley,http://www.knowsley.gov.uk,-2.83728400000000,L36 8BJ,2013-05-28,fhrs_3_en-GB,3,,FHRS,10
177250,Hillside Avenue,Huyton,Knowsley,,Hillside Nursing Home,Hospitals/Childcare/Caring Premises,5,0,,220886,0,,53.42836800000000,00617/4002/2/000,412,environmentalhealth@knowsley.gov.uk,Knowsley,http://www.knowsley.gov.uk,-2.84955900000000,L36 8DU,2013-11-05,fhrs_5_en-GB,5,,FHRS,0
177251,Ribblers Lane,Knowsley,Knowsley,,Holiday Inn Express,Hotel/bed & breakfast/guest house,7842,10,,220675,10,,53.46352600000000,02133/2001/2/000,412,environmentalhealth@knowsley.gov.uk,Knowsley,http://www.knowsley.gov.uk,-2.87648600000000,L34 9HA,2014-08-29,fhrs_3_en-GB,3,,FHRS,5
177252,15 Old Rough Lane,Northwood,Kirkby,Knowsley,Hollidays,Retailers - other,4613,,,220532,,,53.48394400000000,07/00123/COM,412,environmentalhealth@knowsley.gov.uk,Knowsley,http://www.knowsley.gov.uk,-2.87588200000000,L33 6XE,2013-10-24,fhrs_exempt_en-GB,Exempt,,FHRS,
177253,2 Hillcrest Parade,Wood Lane,Huyton,Knowsley,Hollys Minimart,Retailers - other,4613,5,,482127,5,,53.41140600000000,12/00124/MIXED,412,environmentalhealth@knowsley.gov.uk,Knowsley,http://www.knowsley.gov.uk,-2.82256300000000,L36 6DU,2012-11-22,fhrs_5_en-GB,5,,FHRS,5
177254,Sidney Powell Avenue,Westvale,Kirkby,Knowsley,Holy Angels Social Club,Pub/bar/nightclub,7843,10,,220872,15,,53.48438000000000,01188/4000/2/000,412,environmentalhealth@knowsley.gov.uk,Knowsley,http://www.knowsley.gov.uk,-2.89953600000000,L32 0TP,2010-03-02,fhrs_2_en-GB,2,,FHRS,10
177255,Hall Lane,Cronton,Knowsley,,Holy Family Catholic Primary School - Cronton,School/college/university,7845,0,,220852,0,,53.38189900000000,00559/4005/2/000,412,environmentalhealth@knowsley.gov.uk,Knowsley,http://www.knowsley.gov.uk,-2.74687000000000,WA8 9DW,2014-03-25,fhrs_5_en-GB,5,,FHRS,0
177256,Arncliffe Road,Halewood,Knowsley,,Holy Family Catholic Primary School - Halewood,School/college/university,7845,5,,220855,0,,53.36993300000000,00044/4005/2/000,412,environmentalhealth@knowsley.gov.uk,Knowsley,http://www.knowsley.gov.uk,-2.84814000000000,L25 9PA,2014-03-14,fhrs_5_en-GB,5,,FHRS,5
177257,20 St Chads Parade,Kirkby Town Centre,Knowsley,,Home Bargains,Retailers - other,4613,,,220864,,,53.48205600000000,01126/0020/0/000,412,environmentalhealth@knowsley.gov.uk,Knowsley,http://www.knowsley.gov.uk,-2.88685900000000,L32 8RH,2009-08-10,fhrs_exempt_en-GB,Exempt,,FHRS,
177258,26 - 30 Derby Road,Huyton,Knowsley,,Home Bargains,Retailers - other,4613,,,220753,,,53.41169000000000,00364/0026/0/000,412,environmentalhealth@knowsley.gov.uk,Knowsley,http://www.knowsley.gov.uk,-2.83985400000000,L36 9UJ,2010-03-03,fhrs_exempt_en-GB,Exempt,,FHRS,
177259,Unit MSU2,The Prescot Centre,Eccleston Street,Prescot,Home Bargains,Retailers - other,4613,,,221112,,,53.42870700000000,09144/4002/2/000,412,environmentalhealth@knowsley.gov.uk,Knowsley,http://www.knowsley.gov.uk,-2.80319600000000,L34 5GA,2010-04-01,fhrs_exempt_en-GB,Exempt,,FHRS,
177260,58 Darmond Road,Northwood,Kirkby,Knowsley,Home Caterer - JF Pybis,Other catering premises,7841,,,427069,,,53.48544000000000,12/00040/FOOD,412,environmentalhealth@knowsley.gov.uk,Knowsley,http://www.knowsley.gov.uk,-2.87044200000000,L33 6YF,2012-06-28,fhrs_exempt_en-GB,Exempt,,FHRS,
177261,33 High Street,Prescot,Knowsley,Merseyside,Hope And Anchor,Pub/bar/nightclub,7843,10,,220822,5,,53.43041700000000,00608/0033/0/000,412,environmentalhealth@knowsley.gov.uk,Knowsley,http://www.knowsley.gov.uk,-2.80280700000000,L34 6HF,2013-07-30,fhrs_4_en-GB,4,,FHRS,5
177262,Lordens Road,Huyton,Knowsley,,Hope Primary School,School/college/university,7845,0,,221031,0,,53.42775300000000,11/00015/FOOD,412,environmentalhealth@knowsley.gov.uk,Knowsley,http://www.knowsley.gov.uk,-2.86134600000000,L14 8UD,2014-01-29,fhrs_5_en-GB,5,,FHRS,0
177263,23 Kirkby Market,Market Square,Kirkby Town Centre,Knowsley,Howie Callaghan Butchers,Retailers - other,4613,10,,516019,10,,53.48198400000000,13/00037/FOOD,412,environmentalhealth@knowsley.gov.uk,Knowsley,http://www.knowsley.gov.uk,-2.88569700000000,L32 8RG,2013-03-05,fhrs_3_en-GB,3,,FHRS,10
177264,Longview Drive,Huyton,Knowsley,,Hurst Park Court,Hospitals/Childcare/Caring Premises,5,0,,221116,0,,53.41735800000000,00782/4001/2/000,412,environmentalhealth@knowsley.gov.uk,Knowsley,http://www.knowsley.gov.uk,-2.82887700000000,L36 6DZ,2015-01-12,fhrs_5_en-GB,5,,FHRS,5
177265,Fairway,Huyton,Knowsley,,Huyton And Prescot Golf Club,Restaurant/Cafe/Canteen,1,5,,220734,5,,51.02017974853516,00450/4000/2/000,412,environmentalhealth@knowsley.gov.uk,Knowsley,http://www.knowsley.gov.uk,0.09493000060320,L36 1UA,2014-11-06,fhrs_5_en-GB,5,,FHRS,5
177266,36 The Park,Huyton,Knowsley,,Huyton Conservative Club,Pub/bar/nightclub,7843,0,,221166,0,,53.40719200000000,01265/4002/2/000,412,environmentalhealth@knowsley.gov.uk,Knowsley,http://www.knowsley.gov.uk,-2.83919400000000,L36 5SU,2011-12-14,fhrs_5_en-GB,5,,FHRS,0
177267,43 Stanley Road,Huyton,Knowsley,,Huyton Constitutional Club,Pub/bar/nightclub,7843,10,,220626,0,,53.41277000000000,01224/0043/0/000,412,environmentalhealth@knowsley.gov.uk,Knowsley,http://www.knowsley.gov.uk,-2.84356100000000,L36 9XN,2010-02-03,fhrs_4_en-GB,4,,FHRS,0
177268,31 Huyton Hey Road,Huyton,Huyton,Knowsley,Huyton Hey Manor,Hospitals/Childcare/Caring Premises,5,0,,220671,5,,53.40911100000000,00650/0031/0/000,412,environmentalhealth@knowsley.gov.uk,Knowsley,http://www.knowsley.gov.uk,-2.83082200000000,L36 5RZ,2014-07-04,fhrs_5_en-GB,5,,FHRS,5
177269,3 Page Moss Parade,Roby,Knowsley,,Huyton Newsagent,Retailers - other,4613,10,,220925,10,,53.41765300000000,00973/0003/0/000,412,environmentalhealth@knowsley.gov.uk,Knowsley,http://www.knowsley.gov.uk,-2.86582200000000,L36 2PA,2014-03-31,fhrs_3_en-GB,3,,FHRS,10
177270,36 St Johns Road,Huyton,Knowsley,,Huyton Park Hotel,Pub/bar/nightclub,7843,5,,221113,10,,53.40446900000000,01134/0036/0/000,412,environmentalhealth@knowsley.gov.uk,Knowsley,http://www.knowsley.gov.uk,-2.83523000000000,L36 0UU,2008-01-24,fhrs_3_en-GB,3,,FHRS,10
177271,4 Page Moss Parade,Roby,Knowsley,,Huyton Tandoori,Takeaway/sandwich shop,7844,10,,220871,15,,53.41765300000000,00973/0004/0/000,412,environmentalhealth@knowsley.gov.uk,Knowsley,http://www.knowsley.gov.uk,-2.86582200000000,L36 2PA,2014-03-20,fhrs_2_en-GB,2,,FHRS,10
177272,21 Sherborne Square,Huyton,Knowsley,,Huyton Village Fish And Chips,Takeaway/sandwich shop,7844,5,,220618,5,,53.41188600000000,01181/0021/0/000,412,environmentalhealth@knowsley.gov.uk,Knowsley,http://www.knowsley.gov.uk,-2.83883500000000,L36 9UR,2013-04-09,fhrs_4_en-GB,4,,FHRS,10
177273,Rupert Road,Roby,Knowsley,,Huyton With Roby Church Of England Primary School,School/college/university,7845,5,,220644,0,,53.41256000000000,01108/4002/2/000,412,environmentalhealth@knowsley.gov.uk,Knowsley,http://www.knowsley.gov.uk,-2.84399400000000,L36 9TF,2013-11-08,fhrs_5_en-GB,5,,FHRS,5
177274,24 Kirkby Market,Market Square,Kirkby Town Centre,Knowsley,Ian J Blundell,Retailers - other,4613,10,,220910,10,,53.48198400000000,09/00063/FOOD,412,environmentalhealth@knowsley.gov.uk,Knowsley,http://www.knowsley.gov.uk,-2.88569700000000,L32 8RG,2009-10-06,fhrs_3_en-GB,3,,FHRS,5
177275,31 St Chads Parade,Kirkby Town Centre,Knowsley,,Iceland,Retailers - supermarkets/hypermarkets,7840,10,,220792,5,,53.48217000000000,01126/0031/0/000,412,environmentalhealth@knowsley.gov.uk,Knowsley,http://www.knowsley.gov.uk,-2.88853400000000,L32 8UG,2009-08-10,fhrs_4_en-GB,4,,FHRS,5
177276,5 The Halewood Shopping Centre,Leathers Lane,Halewood,Knowsley,Iceland,Retailers - supermarkets/hypermarkets,7840,5,,494394,0,,,12/00128/MIXED,412,environmentalhealth@knowsley.gov.uk,Knowsley,http://www.knowsley.gov.uk,,L26 0AD,2012-12-12,fhrs_5_en-GB,5,,FHRS,0
177277,68-70 Derby Road,Huyton,Knowsley,,Iceland,Retailers - supermarkets/hypermarkets,7840,5,,220740,5,,53.41116500000000,00364/0068/0/000,412,environmentalhealth@knowsley.gov.uk,Knowsley,http://www.knowsley.gov.uk,-2.84049100000000,L36 9UP,2009-08-04,fhrs_5_en-GB,5,,FHRS,5
177278,10 Bede Close,Tower Hill,Kirkby,Knowsley,Icing On The Cake,Other catering premises,7841,10,,220868,5,,53.49900300000000,11/00066/FOOD,412,environmentalhealth@knowsley.gov.uk,Knowsley,http://www.knowsley.gov.uk,-2.88520700000000,L33 4EN,2011-12-07,fhrs_4_en-GB,4,,FHRS,0
177279,60 Page Moss Lane,Roby,Knowsley,,Ideal Choices,Retailers - other,4613,10,,403116,5,,53.41576700000000,00972/0060/0/000,412,environmentalhealth@knowsley.gov.uk,Knowsley,http://www.knowsley.gov.uk,-2.86816100000000,L14 0LX,2012-06-12,fhrs_4_en-GB,4,,FHRS,0
177280,Unit K6,The Prescot Centre,Eccleston Street,Prescot,J Showering,Retailers - other,4613,5,,220746,0,,53.42870700000000,09144/4011/2/000,412,environmentalhealth@knowsley.gov.uk,Knowsley,http://www.knowsley.gov.uk,-2.80319600000000,L34 5GA,2014-03-26,fhrs_5_en-GB,5,,FHRS,5
177281,50 Woodlands Road,Roby,Knowsley,,Jane's General Store,Retailers - other,4613,,,220559,,,53.41257400000000,01402/0050/0/000,412,environmentalhealth@knowsley.gov.uk,Knowsley,http://www.knowsley.gov.uk,-2.85845200000000,L36 4PH,2014-01-15,fhrs_exempt_en-GB,Exempt,,FHRS,
177282,Texaco Service Station,Gale Road,Knowsley Industrial Park,Kirkby,Java To Go,Retailers - other,4613,5,,220739,5,,53.47429300000000,00490/4003/3/002,412,environmentalhealth@knowsley.gov.uk,Knowsley,http://www.knowsley.gov.uk,-2.85559900000000,L33 7YB,2013-01-15,fhrs_5_en-GB,5,,FHRS,5
177283,5 Ancrum Road,Tower Hill,Kirkby,Knowsley,Jen's Kupkakes,Other catering premises,7841,5,,220574,5,,53.49985900000000,10/00151/FOOD,412,environmentalhealth@knowsley.gov.uk,Knowsley,http://www.knowsley.gov.uk,-2.89339600000000,L33 1AB,2010-09-01,fhrs_5_en-GB,5,,FHRS,5
177284,15-17 Richard Hesketh Drive,Kirkby,Knowsley,,Joe's Convenience Store,Retailers - other,4613,10,,220672,10,,53.48153400000000,01079/0015/0/000,412,environmentalhealth@knowsley.gov.uk,Knowsley,http://www.knowsley.gov.uk,-2.90377000000000,L32 0TU,2014-07-15,fhrs_3_en-GB,3,,FHRS,5
177285,11A High Street,Prescot,Knowsley,Merseyside,John Joseph Powell Nursing Home,Hospitals/Childcare/Caring Premises,5,5,,220549,0,,53.42983000000000,00608/0011/A/000,412,environmentalhealth@knowsley.gov.uk,Knowsley,http://www.knowsley.gov.uk,-2.80588100000000,L34 3LD,2013-03-25,fhrs_5_en-GB,5,,FHRS,5
177286,1A Baileys Lane,Halewood,Knowsley,,John's General Store,Retailers - other,4613,10,,220650,10,,53.36665800000000,00066/0001/A/000,412,environmentalhealth@knowsley.gov.uk,Knowsley,http://www.knowsley.gov.uk,-2.82287300000000,L26 2XB,2013-11-13,fhrs_3_en-GB,3,,FHRS,10
177287,25 Broad Lane,Kirkby,Knowsley,,Judy's Pizza And Kebabs,Takeaway/sandwich shop,7844,20,,221140,10,,53.47123700000000,00165/0025/0/000,412,environmentalhealth@knowsley.gov.uk,Knowsley,http://www.knowsley.gov.uk,-2.88160100000000,L32 6QA,2014-01-08,fhrs_1_en-GB,1,,FHRS,5
177288,58 James Holt Avenue,Westvale,Kirkby,Knowsley,Kays News,Retailers - other,4613,,,220759,,,53.47957600000000,07/00446/COM,412,environmentalhealth@knowsley.gov.uk,Knowsley,http://www.knowsley.gov.uk,-2.89761100000000,L32 5TF,2012-02-07,fhrs_exempt_en-GB,Exempt,,FHRS,
177289,27 - 27A Woolfall Heath Avenue,Huyton,Knowsley,,Kellie's General Store,Retailers - other,4613,10,,591630,5,,53.42360300000000,13/00199/COM,412,environmentalhealth@knowsley.gov.uk,Knowsley,http://www.knowsley.gov.uk,-2.85220300000000,L36 3TW,2013-10-09,fhrs_4_en-GB,4,,FHRS,5
177290,31 Manor Farm Road,Huyton,Knowsley,,Kelly's,Retailers - other,4613,,,221154,,,53.40489700000000,07/00158/COM,412,environmentalhealth@knowsley.gov.uk,Knowsley,http://www.knowsley.gov.uk,-2.83185300000000,L36 0UB,2012-01-15,fhrs_exempt_en-GB,Exempt,,FHRS,
177291,46 Hillside Road,Huyton,Knowsley,,Kellys Discount Wines,Retailers - other,4613,,,221093,,,53.42405000000000,00619/0046/0/000,412,environmentalhealth@knowsley.gov.uk,Knowsley,http://www.knowsley.gov.uk,-2.83728400000000,L36 8BJ,2009-08-27,fhrs_exempt_en-GB,Exempt,,FHRS,
177292,13 Kingsway Parade,Kingsway,Huyton,Knowsley,Kellys Wines,Retailers - other,4613,,,220896,,,53.41977300000000,09049/0013/0/000,412,environmentalhealth@knowsley.gov.uk,Knowsley,http://www.knowsley.gov.uk,-2.85235200000000,L36 2QA,2008-01-09,fhrs_exempt_en-GB,Exempt,,FHRS,
177293,87 Longview Drive,Huyton,Knowsley,,Kelly's Wines,Retailers - other,4613,,,221137,,,53.41540700000000,00782/0087/0/000,412,environmentalhealth@knowsley.gov.uk,Knowsley,http://www.knowsley.gov.uk,-2.82504700000000,L36 6EB,2007-11-10,fhrs_exempt_en-GB,Exempt,,FHRS,
177294,18 Dragon Drive,Whiston,Knowsley,,Kens Supper Bar,Takeaway/sandwich shop,7844,10,,220878,10,,53.41664600000000,00389/0018/0/000,412,environmentalhealth@knowsley.gov.uk,Knowsley,http://www.knowsley.gov.uk,-2.79610800000000,L35 3QW,2013-11-13,fhrs_3_en-GB,3,,FHRS,10
177295,4 Glovers Brow,Kirkby Park,Kirkby,Knowsley,Kens Takeaway,Takeaway/sandwich shop,7844,5,,220668,5,,53.48747700000000,00511/0016/0/000,412,environmentalhealth@knowsley.gov.uk,Knowsley,http://www.knowsley.gov.uk,-2.90115400000000,L32 2AE,2013-09-16,fhrs_4_en-GB,4,,FHRS,10
177296,,,,,Keva Cakes,Other catering premises,7841,10,,536290,10,,,13/00066/FOOD,412,environmentalhealth@knowsley.gov.uk,Knowsley,http://www.knowsley.gov.uk,,,2013-04-10,fhrs_4_en-GB,4,,FHRS,0
177297,Westvale Primary School,Melverley Road,Westvale,Kirkby,Kids In Bloom,Restaurant/Cafe/Canteen,1,0,,220803,5,,53.48277200000000,07/00026/MIXED,412,environmentalhealth@knowsley.gov.uk,Knowsley,http://www.knowsley.gov.uk,-2.90647900000000,L32 0RQ,2015-01-13,fhrs_5_en-GB,5,,FHRS,5
177298,Malvern Primary School,Willoughby Road,Roby,Knowsley,Kids In Bloom - Out Of School Club,School/college/university,7845,10,,631972,0,,53.41027100000000,14/00006/COM,412,environmentalhealth@knowsley.gov.uk,Knowsley,http://www.knowsley.gov.uk,-2.88094100000000,L14 6XA,2014-01-15,fhrs_4_en-GB,4,,FHRS,0
177299,Bewley Drive (next To St Josephs Pr,Kirkby,Knowsley,,Kids In Bloom Nursery,Restaurant/Cafe/Canteen,1,0,,220688,0,,53.47580300000000,07/00039/MIXED,412,environmentalhealth@knowsley.gov.uk,Knowsley,http://www.knowsley.gov.uk,-2.88763200000000,L32 9PF,2013-11-12,fhrs_5_en-GB,5,,FHRS,0
177300,Northwood Community Primary School,Roughwood Drive,Northwood,Kirkby,Kids In Bloom@Northwood Childrens Centre,School/college/university,7845,0,,220882,0,,53.48518800000000,11/00021/FOOD,412,environmentalhealth@knowsley.gov.uk,Knowsley,http://www.knowsley.gov.uk,-2.87908700000000,L33 8XD,2014-03-19,fhrs_5_en-GB,5,,FHRS,5
177301,98 Bewley Drive,Kirkby,Knowsley,,Kingfisher Hotel,Pub/bar/nightclub,7843,5,,220825,0,,53.47124600000000,00108/0098/0/000,412,environmentalhealth@knowsley.gov.uk,Knowsley,http://www.knowsley.gov.uk,-2.88282200000000,L32 6QJ,2012-02-15,fhrs_5_en-GB,5,,FHRS,5
177302,,,,,King's Chocolate Fountains,Retailers - other,4613,0,,220906,5,,,07/00356/FOOD,412,environmentalhealth@knowsley.gov.uk,Knowsley,http://www.knowsley.gov.uk,,,2007-09-17,fhrs_5_en-GB,5,,FHRS,5
177303,1 Puma Court,Kings Drive,Kings Business Park,Prescot,Kings Park Day Nursery,Hospitals/Childcare/Caring Premises,5,5,,718570,0,,53.42354000000000,14/00195/COM,412,environmentalhealth@knowsley.gov.uk,Knowsley,http://www.knowsley.gov.uk,-2.82663400000000,L34 1BD,2014-11-24,fhrs_5_en-GB,5,,FHRS,5
177304,12 Kingsway Parade,Kingsway,Huyton,Knowsley,Kingsway Deli,Restaurant/Cafe/Canteen,1,10,,715361,5,,53.41977300000000,14/00155/MIXED,412,environmentalhealth@knowsley.gov.uk,Knowsley,http://www.knowsley.gov.uk,-2.85235200000000,L36 2QA,2014-10-29,fhrs_3_en-GB,3,,FHRS,10
177305,9 Kingsway Parade,Kingsway,Huyton,Knowsley,Kingsway News,Retailers - other,4613,10,,220958,5,,53.41977300000000,09049/0009/0/000,412,environmentalhealth@knowsley.gov.uk,Knowsley,http://www.knowsley.gov.uk,-2.85235200000000,L36 2QA,2013-08-15,fhrs_2_en-GB,2,,FHRS,15
177306,15 Kingsway Parade,Kingsway,Huyton,Knowsley,Kingsway Supper Bar,Takeaway/sandwich shop,7844,10,,221157,10,,53.41977300000000,09049/0015/0/000,412,environmentalhealth@knowsley.gov.uk,Knowsley,http://www.knowsley.gov.uk,-2.85235200000000,L36 2QA,2014-03-11,fhrs_3_en-GB,3,,FHRS,5
177307,Hall Lane,Kirkby,Knowsley,,Kirkby C Of E Primary School,School/college/university,7845,0,,221029,5,,53.48396300000000,00556/4000/2/000,412,environmentalhealth@knowsley.gov.uk,Knowsley,http://www.knowsley.gov.uk,-2.88911400000000,L32 1TZ,2014-04-01,fhrs_5_en-GB,5,,FHRS,5
177308,25 Old Rough Lane,Kirkby,Knowsley,,Kirkby Fast Foods,Takeaway/sandwich shop,7844,20,,220569,15,,53.48394400000000,00953/0025/0/000,412,environmentalhealth@knowsley.gov.uk,Knowsley,http://www.knowsley.gov.uk,-2.87588200000000,L33 6XE,2014-03-31,fhrs_1_en-GB,1,,FHRS,15
177309,James Holt Avenue,Westvale,Kirkby,Knowsley,Kirkby House,Hospitals/Childcare/Caring Premises,5,0,,220956,0,,53.48289600000000,00669/4000/2/000,412,environmentalhealth@knowsley.gov.uk,Knowsley,http://www.knowsley.gov.uk,-2.89599300000000,L32 5TD,2013-01-16,fhrs_5_en-GB,5,,FHRS,0
177310,Bracknell Avenue,Southdene,Kirkby,Knowsley,Kirkby Sports College Centre For Learning,School/college/university,7845,0,,220571,0,,53.47835600000000,10/00085/FOOD,412,environmentalhealth@knowsley.gov.uk,Knowsley,http://www.knowsley.gov.uk,-2.89195600000000,L32 2PP,2012-07-18,fhrs_5_en-GB,5,,FHRS,0
177311,17 Old Farm Road,Kirkby,Knowsley,,Kirkby Supper Bar,Takeaway/sandwich shop,7844,10,,220554,10,,53.46611000000000,00947/0017/0/000,412,environmentalhealth@knowsley.gov.uk,Knowsley,http://www.knowsley.gov.uk,-2.87711100000000,L32 7QY,2014-03-11,fhrs_3_en-GB,3,,FHRS,10
177312,Mossbrow Road,Huyton,Knowsley,,Knowsley Central Primary Support Centre,School/college/university,7845,0,,220695,0,,53.42213800000000,00897/4000/2/000,412,environmentalhealth@knowsley.gov.uk,Knowsley,http://www.knowsley.gov.uk,-2.83817900000000,L36 7SY,2014-02-06,fhrs_5_en-GB,5,,FHRS,5
177313,56 Sugar Lane,Knowsley,Knowsley,,Knowsley Fish & Chips,Takeaway/sandwich shop,7844,20,,699534,15,,53.44952700000000,14/00141/FOOD,412,environmentalhealth@knowsley.gov.uk,Knowsley,http://www.knowsley.gov.uk,-2.85210500000000,L34 0ER,2014-08-22,fhrs_1_en-GB,1,,FHRS,15
177314,George Hale Avenue,Knowsley Park,Knowsley,,Knowsley Hall,Other catering premises,7841,0,,221141,0,,53.42904900000000,01259/4003/2/000,412,environmentalhealth@knowsley.gov.uk,Knowsley,http://www.knowsley.gov.uk,-2.84102400000000,L34 4AJ,2012-08-23,fhrs_5_en-GB,5,,FHRS,0
177315,239 Knowsley Lane,Huyton,Knowsley,,Knowsley Manor Care Home - HC-One,Hospitals/Childcare/Caring Premises,5,0,,220723,0,,53.42975200000000,01855/0239/0/000,412,environmentalhealth@knowsley.gov.uk,Knowsley,http://www.knowsley.gov.uk,-2.84832300000000,L36 8EL,2015-02-10,fhrs_5_en-GB,5,,FHRS,0
177316,Knowsley Park Lane,Prescot,Knowsley,,Knowsley Park Centre For Learning,School/college/university,7845,0,,220894,0,,53.43097100000000,10/00082/FOOD,412,environmentalhealth@knowsley.gov.uk,Knowsley,http://www.knowsley.gov.uk,-2.81136600000000,L34 3NB,2012-12-05,fhrs_5_en-GB,5,,FHRS,5
177317,Prescot By-Pass,Prescot,Knowsley,,Knowsley Safari Park,Restaurant/Cafe/Canteen,1,5,,220553,5,,53.43549900000000,01460/4002/2/000,412,environmentalhealth@knowsley.gov.uk,Knowsley,http://www.knowsley.gov.uk,-2.81303300000000,L34 4AN,2014-05-02,fhrs_5_en-GB,5,,FHRS,0
177318,Sugar Lane,Knowsley Village,Knowsley,,Knowsley Village Primary School,School/college/university,7845,0,,220687,0,,53.44952700000000,01245/4002/2/000,412,environmentalhealth@knowsley.gov.uk,Knowsley,http://www.knowsley.gov.uk,-2.85210500000000,L34 0ER,2014-03-11,fhrs_5_en-GB,5,,FHRS,0
177319,Our Place,Longview Drive,Huyton,Knowsley,Knowsley Youth Mutual,Other catering premises,7841,10,,650616,10,,53.41480500000000,14/00068/FOOD,412,environmentalhealth@knowsley.gov.uk,Knowsley,http://www.knowsley.gov.uk,-2.82505100000000,L36 6EG,2014-04-15,fhrs_3_en-GB,3,,FHRS,10
177320,11 Old Farm Road,Kirkby,Knowsley,,Kraft Off Licence,Retailers - other,4613,10,,220517,5,,53.46611000000000,00947/0011/0/000,412,environmentalhealth@knowsley.gov.uk,Knowsley,http://www.knowsley.gov.uk,-2.87711100000000,L32 7QY,2014-03-25,fhrs_4_en-GB,4,,FHRS,5
177321,32 Croftwood Grove,Whiston,Knowsley,,L And R Stores,Retailers - other,4613,10,,221169,5,,53.42082977294920,07/00163/MIXED,412,environmentalhealth@knowsley.gov.uk,Knowsley,http://www.knowsley.gov.uk,-2.78769993782043,L32 3UT,2012-01-29,fhrs_4_en-GB,4,,FHRS,0
177322,132 Cherryfield Drive,Kirkby Town Centre,Knowsley,,L32 Club,Pub/bar/nightclub,7843,5,,220969,10,,53.48156200000000,00240/0132/2/000,412,environmentalhealth@knowsley.gov.uk,Knowsley,http://www.knowsley.gov.uk,-2.88805400000000,L32 8RX,2006-09-01,fhrs_3_en-GB,3,,FHRS,10
177323,Naylors Road,Roby,Knowsley,,Lakeside School,School/college/university,7845,5,,220683,5,,53.39761800000000,00906/2001/2/000,412,environmentalhealth@knowsley.gov.uk,Knowsley,http://www.knowsley.gov.uk,-2.84309600000000,L27 2YA,2008-02-21,fhrs_5_en-GB,5,,FHRS,5
177324,Lickers Lane,Whiston,Knowsley,,Lickers Lane Community Centre,Other catering premises,7841,10,,220615,10,,53.40939300000000,00752/4002/2/000,412,environmentalhealth@knowsley.gov.uk,Knowsley,http://www.knowsley.gov.uk,-2.79067700000000,L35 3SR,2009-05-11,fhrs_3_en-GB,3,,FHRS,5
177325,,,,,Licky Lips,Restaurant/Cafe/Canteen,1,0,,639095,0,,,14/00064/FOOD,412,environmentalhealth@knowsley.gov.uk,Knowsley,http://www.knowsley.gov.uk,,,2014-03-12,fhrs_5_en-GB,5,,FHRS,0
177326,Liverpool Road,Huyton,Knowsley,,Lidl,Retailers - supermarkets/hypermarkets,7840,5,,220832,5,,53.42190400000000,00771/4013/2/000,412,environmentalhealth@knowsley.gov.uk,Knowsley,http://www.knowsley.gov.uk,-2.86217600000000,L36 3YB,2012-06-12,fhrs_5_en-GB,5,,FHRS,5
177327,195 Warrington Road,Prescot,Knowsley,,Lifestyle Express,Retailers - other,4613,10,,221176,5,,53.42349300000000,01322/0195/0/000,412,environmentalhealth@knowsley.gov.uk,Knowsley,http://www.knowsley.gov.uk,-2.78839500000000,L35 5AF,2011-09-14,fhrs_4_en-GB,4,,FHRS,5
177328,3 Loweswater Way,Kirkby,Knowsley,,Lifestyle Express,Retailers - other,4613,10,,221051,10,,53.49313900000000,00792/0003/0/000,412,environmentalhealth@knowsley.gov.uk,Knowsley,http://www.knowsley.gov.uk,-2.89295300000000,L33 2DL,2013-09-16,fhrs_3_en-GB,3,,FHRS,10
177329,5 The Moorfields Centre,Tower Hill,Kirkby,Knowsley,Lifestyle Express,Retailers - other,4613,10,,221144,10,,53.49861100000000,01666/0005/0/000,412,environmentalhealth@knowsley.gov.uk,Knowsley,http://www.knowsley.gov.uk,-2.87989300000000,L33 1DF,2014-03-28,fhrs_3_en-GB,3,,FHRS,5
177330,,,,,Lisas Cake Studio,Other catering premises,7841,5,,668809,5,,,14/00092/FOOD,412,environmentalhealth@knowsley.gov.uk,Knowsley,http://www.knowsley.gov.uk,,,2014-05-28,fhrs_5_en-GB,5,,FHRS,5
177331,Cassino Road,Huyton,Knowsley,,Little Angels,Hospitals/Childcare/Caring Premises,5,0,,221004,0,,53.41482800000000,00218/4000/2/000,412,environmentalhealth@knowsley.gov.uk,Knowsley,http://www.knowsley.gov.uk,-2.84366200000000,L36 7UX,2014-06-02,fhrs_5_en-GB,5,,FHRS,5
177332,Ravenscroft Primary School,Ebony Way,Tower Hill,Kirkby,Little Gems Nursery,Hospitals/Childcare/Caring Premises,5,0,,220754,0,,53.49539900000000,07/00023/FOOD,412,environmentalhealth@knowsley.gov.uk,Knowsley,http://www.knowsley.gov.uk,-2.88635300000000,L33 1XT,2014-01-14,fhrs_5_en-GB,5,,FHRS,5
177333,50 Market Place,Prescot,Knowsley,,Little Mary's Cafe,Restaurant/Cafe/Canteen,1,5,,668813,0,,53.42818300000000,14/00099/MIXED,412,environmentalhealth@knowsley.gov.uk,Knowsley,http://www.knowsley.gov.uk,-2.80485700000000,L34 5SB,2014-12-05,fhrs_5_en-GB,5,,FHRS,0
177334,Lickers Lane,Whiston,Knowsley,,Little Treasures Nursery,Hospitals/Childcare/Caring Premises,5,0,,221015,0,,53.40246400000000,00752/4004/2/000,412,environmentalhealth@knowsley.gov.uk,Knowsley,http://www.knowsley.gov.uk,-2.78776500000000,L35 3JY,2014-08-20,fhrs_5_en-GB,5,,FHRS,0
177335,17 Byron Avenue,Whiston,Knowsley,,Londis,Retailers - other,4613,10,,220588,5,,53.41645700000000,00195/0017/0/000,412,environmentalhealth@knowsley.gov.uk,Knowsley,http://www.knowsley.gov.uk,-2.78946900000000,L35 2YD,2012-02-09,fhrs_4_en-GB,4,,FHRS,0
177336,22 Camberley Drive,Halewood,Knowsley,,Londis,Retailers - other,4613,10,,220923,5,,53.36717300000000,07/00073/MIXED,412,environmentalhealth@knowsley.gov.uk,Knowsley,http://www.knowsley.gov.uk,-2.85188800000000,L25 9PU,2012-02-09,fhrs_4_en-GB,4,,FHRS,5
177337,79 Kennelwood Avenue,Northwood,Kirkby,Knowsley,Londis,Retailers - other,4613,10,,220696,5,,53.48772800000000,07/00128/FOOD,412,environmentalhealth@knowsley.gov.uk,Knowsley,http://www.knowsley.gov.uk,-2.87710500000000,L33 6UE,2012-03-03,fhrs_3_en-GB,3,,FHRS,10
177338,Astley Road,Huyton,Knowsley,,Longview Community Primary School,School/college/university,7845,5,,220837,5,,53.42756200000000,00057/4000/2/000,412,environmentalhealth@knowsley.gov.uk,Knowsley,http://www.knowsley.gov.uk,-2.84018200000000,L36 8DB,2013-06-14,fhrs_5_en-GB,5,,FHRS,0
177339,215-217 Longview Drive,Huyton,Knowsley,,Longview House,Hospitals/Childcare/Caring Premises,5,0,,220921,0,,53.41279700000000,00782/0215/0/000,412,environmentalhealth@knowsley.gov.uk,Knowsley,http://www.knowsley.gov.uk,-2.82159700000000,L36 6ED,2012-01-15,fhrs_5_en-GB,5,,FHRS,0
177340,Seel Road,Huyton,Knowsley,,Lord Derby Academy,School/college/university,7845,0,,221037,0,,53.41136400000000,10/00077/FOOD,412,environmentalhealth@knowsley.gov.uk,Knowsley,http://www.knowsley.gov.uk,-2.83390500000000,L36 6DG,2014-11-10,fhrs_5_en-GB,5,,FHRS,0
177341,17 Chapel Street,Prescot,Knowsley,,Lou's,Takeaway/sandwich shop,7844,5,,220548,5,,53.43010400000000,00233/0017/0/000,412,environmentalhealth@knowsley.gov.uk,Knowsley,http://www.knowsley.gov.uk,-2.80262000000000,L34 5QR,2014-12-03,fhrs_4_en-GB,4,,FHRS,10
177342,13 Longview Drive,Huyton,Knowsley,,Lowcost Booze And Food,Retailers - other,4613,10,,220920,10,,53.41829800000000,00782/0013/0/000,412,environmentalhealth@knowsley.gov.uk,Knowsley,http://www.knowsley.gov.uk,-2.83071600000000,L36 6DY,2010-07-27,fhrs_3_en-GB,3,,FHRS,10
177343,2 Scotchbarn Lane,Prescot,Knowsley,,Lucky Jade,Takeaway/sandwich shop,7844,5,,221160,10,,53.42687400000000,01152/0002/0/000,412,environmentalhealth@knowsley.gov.uk,Knowsley,http://www.knowsley.gov.uk,-2.79500500000000,L34 2TQ,2014-01-10,fhrs_4_en-GB,4,,FHRS,5
177344,88 St Chads Parade,Kirkby Town Centre,Knowsley,,Lukes,Takeaway/sandwich shop,7844,5,,221165,10,,53.48217000000000,01126/0088/0/000,412,environmentalhealth@knowsley.gov.uk,Knowsley,http://www.knowsley.gov.uk,-2.88853400000000,L32 8UG,2013-02-18,fhrs_3_en-GB,3,,FHRS,10
177345,Randles Road,Knowsley Business Park,Knowsley,,Lunch Box,Mobile caterer,7846,5,,220612,5,,53.45928900000000,01061/4015/2/000,412,environmentalhealth@knowsley.gov.uk,Knowsley,http://www.knowsley.gov.uk,-2.87075000000000,L34 9HX,2014-06-17,fhrs_5_en-GB,5,,FHRS,0
177346,40 Huyton Lane,Huyton,Knowsley,,Lyndale Knowsley Cancer Support Group,Other catering premises,7841,10,,220926,5,,53.41421400000000,00653/0040/0/000,412,environmentalhealth@knowsley.gov.uk,Knowsley,http://www.knowsley.gov.uk,-2.83767700000000,L36 7XG,2012-02-13,fhrs_4_en-GB,4,,FHRS,0
177347,40 Sinclair Avenue,Prescot,Knowsley,,Lynwood Day Nursery,Hospitals/Childcare/Caring Premises,5,10,,427065,5,,53.42503100000000,01194/0040/0/000,412,environmentalhealth@knowsley.gov.uk,Knowsley,http://www.knowsley.gov.uk,-2.78964300000000,L35 7LN,2014-01-16,fhrs_4_en-GB,4,,FHRS,5
177348,5C Cables Retail Park,Steley Way,Prescot,Knowsley,M And S Simply Food,Retailers - other,4613,5,,718569,0,,53.42681600000000,14/00189/MIXED,412,environmentalhealth@knowsley.gov.uk,Knowsley,http://www.knowsley.gov.uk,-2.80105300000000,L34 5NQ,2014-10-31,fhrs_5_en-GB,5,,FHRS,0
177349,41-45 High Street,Prescot,Knowsley,Merseyside,M Ray Ltd,Retailers - other,4613,5,,220725,5,,53.43041700000000,00608/0041/0/000,412,environmentalhealth@knowsley.gov.uk,Knowsley,http://www.knowsley.gov.uk,-2.80280700000000,L34 6HF,2013-07-30,fhrs_5_en-GB,5,,FHRS,5
177350,19 Saxby Road,Huyton,Knowsley,,Make A Wish Celebration Cakes,Other catering premises,7841,5,,221044,0,,53.42563900000000,11/00051/FOOD,412,environmentalhealth@knowsley.gov.uk,Knowsley,http://www.knowsley.gov.uk,-2.86899400000000,L14 9NR,2011-09-08,fhrs_5_en-GB,5,,FHRS,0
177351,Hornhouse Lane,Knowsley Industrial Park,Kirkby,Knowsley,Makro Self Service,Distributors/Transporters,7,5,,220811,0,,53.47034100000000,00637/4003/2/000,412,environmentalhealth@knowsley.gov.uk,Knowsley,http://www.knowsley.gov.uk,-2.85517300000000,L33 7YQ,2013-10-15,fhrs_5_en-GB,5,,FHRS,5
177352,Willoughby Road,Roby,Knowsley,,Malvern Primary School,School/college/university,7845,5,,220994,5,,53.41027100000000,01369/4001/2/000,412,environmentalhealth@knowsley.gov.uk,Knowsley,http://www.knowsley.gov.uk,-2.88094100000000,L14 6XA,2014-03-05,fhrs_4_en-GB,4,,FHRS,10
177353,110 Manchester Road,Prescot,Knowsley,,Manchester Road Supper Bar,Takeaway/sandwich shop,7844,20,,221095,10,,53.42282900000000,00817/0110/0/000,412,environmentalhealth@knowsley.gov.uk,Knowsley,http://www.knowsley.gov.uk,-2.80174600000000,L34 5UD,2015-01-09,fhrs_1_en-GB,1,,FHRS,15
177354,27 Manor Farm Road,Huyton,Knowsley,,Manor Farm Chippy,Takeaway/sandwich shop,7844,5,,220677,10,,53.40489700000000,00819/0027/0/000,412,environmentalhealth@knowsley.gov.uk,Knowsley,http://www.knowsley.gov.uk,-2.83185300000000,L36 0UB,2014-10-28,fhrs_4_en-GB,4,,FHRS,5
177355,37 Manor Farm Road,Huyton,Knowsley,,Manor Farm News,Retailers - other,4613,10,,220575,0,,53.40489700000000,00819/0037/0/000,412,environmentalhealth@knowsley.gov.uk,Knowsley,http://www.knowsley.gov.uk,-2.83185300000000,L36 0UB,2015-01-20,fhrs_2_en-GB,2,,FHRS,15
177356,Arncliffe Road,Halewood,Knowsley,,Maple Lodge,Hospitals/Childcare/Caring Premises,5,0,,220919,0,,53.36993300000000,00044/4001/2/000,412,environmentalhealth@knowsley.gov.uk,Knowsley,http://www.knowsley.gov.uk,-2.84814000000000,L25 9PA,2014-01-15,fhrs_5_en-GB,5,,FHRS,5
177357,7 Market Square,Kirkby Town Centre,Knowsley,,Market Plaice,Takeaway/sandwich shop,7844,20,,220682,5,,53.48198400000000,00830/0007/0/000,412,environmentalhealth@knowsley.gov.uk,Knowsley,http://www.knowsley.gov.uk,-2.88569700000000,L32 8RG,2013-06-20,fhrs_1_en-GB,1,,FHRS,10
177358,Owen Road,Knowsley Industrial Park,Kirkby,Knowsley,Mark's Sandwich Bar,Mobile caterer,7846,5,,220616,5,,53.46949600000000,09272/0054/2/000,412,environmentalhealth@knowsley.gov.uk,Knowsley,http://www.knowsley.gov.uk,-2.85779300000000,L33 7YP,2013-09-12,fhrs_5_en-GB,5,,FHRS,5
177359,7 Page Moss Parade,Roby,Knowsley,,Marow Pizza,Takeaway/sandwich shop,7844,5,,220593,10,,53.41765300000000,00973/0007/0/000,412,environmentalhealth@knowsley.gov.uk,Knowsley,http://www.knowsley.gov.uk,-2.86582200000000,L36 2PA,2013-09-04,fhrs_4_en-GB,4,,FHRS,5
177360,55 Merton Drive,Huyton,Knowsley,,Martel (Sue's) Catering,Other catering premises,7841,5,,220628,5,,53.41219800000000,00854/0055/0/000,412,environmentalhealth@knowsley.gov.uk,Knowsley,http://www.knowsley.gov.uk,-2.86811800000000,L36 4NS,2012-06-18,fhrs_5_en-GB,5,,FHRS,5
177361,13-14 Kirkby Market,Market Square,Kirkby Town Centre,Knowsley,Martin Davies,Retailers - other,4613,10,,516017,10,,53.48198400000000,09269/0014/0/000,412,environmentalhealth@knowsley.gov.uk,Knowsley,http://www.knowsley.gov.uk,-2.88569700000000,L32 8RG,2013-03-05,fhrs_3_en-GB,3,,FHRS,10
177362,26 Molyneux Drive,Prescot,Knowsley,,May Bo Takeaway,Takeaway/sandwich shop,7844,10,,220993,10,,53.41946600000000,00879/0026/0/000,412,environmentalhealth@knowsley.gov.uk,Knowsley,http://www.knowsley.gov.uk,-2.80058400000000,L35 5DY,2013-03-19,fhrs_3_en-GB,3,,FHRS,10
177363,189 Warrington Road,Prescot,Knowsley,,May Mays,Takeaway/sandwich shop,7844,5,,220899,5,,53.42349300000000,01322/0189/0/000,412,environmentalhealth@knowsley.gov.uk,Knowsley,http://www.knowsley.gov.uk,-2.78839500000000,L35 5AF,2014-03-05,fhrs_5_en-GB,5,,FHRS,5
177364,6 Mackets Lane,Halewood,Knowsley,,McColls,Retailers - other,4613,10,,220700,5,,53.36172500000000,00807/0006/0/000,412,environmentalhealth@knowsley.gov.uk,Knowsley,http://www.knowsley.gov.uk,-2.85206500000000,L25 0LQ,2011-04-19,fhrs_4_en-GB,4,,FHRS,5
177365,20 Huyton Hey Road,Huyton,Huyton,Knowsley,McDonald's,Restaurant/Cafe/Canteen,1,0,,220577,0,,53.41020500000000,00650/0020/0/000,412,environmentalhealth@knowsley.gov.uk,Knowsley,http://www.knowsley.gov.uk,-2.83892200000000,L36 5RT,2013-02-20,fhrs_5_en-GB,5,,FHRS,5
177366,Cables Retail Park,Steley Way,Prescot,Knowsley,McDonald's,Restaurant/Cafe/Canteen,1,0,,220666,0,,53.42681600000000,09242/4003/2/000,412,environmentalhealth@knowsley.gov.uk,Knowsley,http://www.knowsley.gov.uk,-2.80105300000000,L34 5NQ,2013-09-12,fhrs_5_en-GB,5,,FHRS,0
177367,Hall Lane,Kirkby Town Centre,Knowsley,,McDonald's,Restaurant/Cafe/Canteen,1,0,,220632,0,,53.48411000000000,00556/4003/2/000,412,environmentalhealth@knowsley.gov.uk,Knowsley,http://www.knowsley.gov.uk,-2.88512300000000,L32 8RJ,2014-01-03,fhrs_5_en-GB,5,,FHRS,0
177368,Whitethorn Drive,Stockbridge Village,Knowsley,,Meadow Park School,School/college/university,7845,0,,718568,0,,53.43716400000000,14/00026/COM,412,environmentalhealth@knowsley.gov.uk,Knowsley,http://www.knowsley.gov.uk,-2.86265100000000,L28 1RX,2014-11-25,fhrs_5_en-GB,5,,FHRS,0
177369,13 Byron Avenue,Whiston,Knowsley,,Mei Ho Takeaway,Takeaway/sandwich shop,7844,5,,220862,10,,53.41645700000000,00195/0013/0/000,412,environmentalhealth@knowsley.gov.uk,Knowsley,http://www.knowsley.gov.uk,-2.78946900000000,L35 2YD,2013-09-05,fhrs_4_en-GB,4,,FHRS,5
177370,3 Merrivale Road,Halewood,Knowsley,,Merrivale News,Retailers - other,4613,10,,220817,10,,53.37681100000000,00851/0003/0/000,412,environmentalhealth@knowsley.gov.uk,Knowsley,http://www.knowsley.gov.uk,-2.85296700000000,L25 5NA,2012-02-09,fhrs_3_en-GB,3,,FHRS,5
177371,Gale Road,Knowsley Industrial Park,Kirkby,Knowsley,MHF Cafe,Restaurant/Cafe/Canteen,1,5,,565696,5,,53.47429300000000,13/00032/MIXED,412,environmentalhealth@knowsley.gov.uk,Knowsley,http://www.knowsley.gov.uk,-2.85559900000000,L33 7YB,2013-07-10,fhrs_5_en-GB,5,,FHRS,5
177372,78 Liverpool Road,Huyton,Knowsley,,Miami Pizza,Takeaway/sandwich shop,7844,10,,221076,10,,53.42106900000000,00771/0078/0/000,412,environmentalhealth@knowsley.gov.uk,Knowsley,http://www.knowsley.gov.uk,-2.86330300000000,L36 3RF,2014-11-25,fhrs_2_en-GB,2,,FHRS,15
177373,Kirkby Row,Kirkby,Knowsley,,Millbrook Community Primary School,School/college/university,7845,0,,220895,0,,53.48533700000000,00702/4000/2/000,412,environmentalhealth@knowsley.gov.uk,Knowsley,http://www.knowsley.gov.uk,-2.89532100000000,L32 0TG,2014-02-10,fhrs_5_en-GB,5,,FHRS,0
177374,1 Halsnead Avenue,Whiston,Knowsley,,Mini Supermarket,Retailers - other,4613,10,,221020,0,,53.40485900000000,00563/0001/0/000,412,environmentalhealth@knowsley.gov.uk,Knowsley,http://www.knowsley.gov.uk,-2.80722900000000,L35 3SD,2012-01-29,fhrs_4_en-GB,4,,FHRS,10
177375,,,,,Miss Stephanie Hunt,Other catering premises,7841,10,,706074,5,,,14/00156/FOOD,412,environmentalhealth@knowsley.gov.uk,Knowsley,http://www.knowsley.gov.uk,,,2014-09-24,fhrs_4_en-GB,4,,FHRS,5
177376,Sinclair Way,Prescot Business Park,Prescot,Knowsley,Mobile Catering Van,Mobile caterer,7846,10,,731098,10,,53.42362600000000,15/00012/MIXED,412,environmentalhealth@knowsley.gov.uk,Knowsley,http://www.knowsley.gov.uk,-2.80755500000000,L34 1QL,2015-01-15,fhrs_3_en-GB,3,,FHRS,5
177377,Kiosk B1,St Chads Parade,Kirkby Town Centre,Knowsley,Mollies Munch,Takeaway/sandwich shop,7844,5,,220674,5,,53.48217000000000,01126/4007/2/000,412,environmentalhealth@knowsley.gov.uk,Knowsley,http://www.knowsley.gov.uk,-2.88853400000000,L32 8UG,2013-12-09,fhrs_5_en-GB,5,,FHRS,5
177378,52 Molyneux Drive,Prescot,Knowsley,,Molyneux Drive News And Post Office,Retailers - other,4613,,,221035,,,53.41946600000000,00879/0050/0/000,412,environmentalhealth@knowsley.gov.uk,Knowsley,http://www.knowsley.gov.uk,-2.80058400000000,L35 5DY,2013-09-18,fhrs_exempt_en-GB,Exempt,,FHRS,
177379,8 The Moorfields Centre,Tower Hill,Kirkby,Knowsley,Moorfields Chippy,Takeaway/sandwich shop,7844,20,,220629,10,,53.49861100000000,01666/0008/0/000,412,environmentalhealth@knowsley.gov.uk,Knowsley,http://www.knowsley.gov.uk,-2.87989300000000,L33 1DF,2014-11-21,fhrs_1_en-GB,1,,FHRS,10
177380,Bedford Close,Huyton,Knowsley,,Mosscroft Childcare Ltd,Hospitals/Childcare/Caring Premises,5,0,,650618,0,,53.41537500000000,14/00074/FOOD,412,environmentalhealth@knowsley.gov.uk,Knowsley,http://www.knowsley.gov.uk,-2.82325600000000,L36 1XH,2014-04-15,fhrs_5_en-GB,5,,FHRS,0
177381,83 Longview Drive,Huyton,Knowsley,,Mosscroft Post Office,Retailers - other,4613,10,,220798,10,,53.41540700000000,00782/0083/0/000,412,environmentalhealth@knowsley.gov.uk,Knowsley,http://www.knowsley.gov.uk,-2.82504700000000,L36 6EB,2013-08-14,fhrs_3_en-GB,3,,FHRS,5
177382,Bedford Close,Huyton,Knowsley,,Mosscroft Primary School,School/college/university,7845,0,,220795,0,,53.41537500000000,00090/4000/2/000,412,environmentalhealth@knowsley.gov.uk,Knowsley,http://www.knowsley.gov.uk,-2.82325600000000,L36 1XH,2014-02-12,fhrs_5_en-GB,5,,FHRS,5
177383,Driveway,Whiston,Knowsley,L35  3TT,MP Food & Wine Store,Retailers - other,4613,20,,220939,10,,,00393/4001/2/000,412,environmentalhealth@knowsley.gov.uk,Knowsley,http://www.knowsley.gov.uk,,,2014-05-12,fhrs_1_en-GB,1,,FHRS,15
177384,35A Roughwood Drive,Northwood,Kirkby,Knowsley,MP Food And Wines,Retailers - other,4613,20,,699535,15,,53.49004100000000,14/00144/MIXED,412,environmentalhealth@knowsley.gov.uk,Knowsley,http://www.knowsley.gov.uk,-2.86942100000000,L33 9TY,2014-08-11,fhrs_1_en-GB,1,,FHRS,15
177385,4 Warrington Road,Prescot,Knowsley,,Mr Ho's Restaurant,Restaurant/Cafe/Canteen,1,10,,220766,10,,53.42987200000000,01322/0004/0/000,412,environmentalhealth@knowsley.gov.uk,Knowsley,http://www.knowsley.gov.uk,-2.80102100000000,L34 5RB,2013-03-26,fhrs_3_en-GB,3,,FHRS,10
177386,2 Delphi Trading Estate,Moorgate Road,Southdene,Kirkby,Mrs B's,Restaurant/Cafe/Canteen,1,10,,221087,5,,53.47423700000000,11/00064/FOOD,412,environmentalhealth@knowsley.gov.uk,Knowsley,http://www.knowsley.gov.uk,-2.86587400000000,L33 7XL,2011-11-14,fhrs_4_en-GB,4,,FHRS,0
177387,14 The Courtyard Works,Newstet Road,Knowsley Industrial Park,Kirkby,Munch Box Cafe,Restaurant/Cafe/Canteen,1,5,,668803,5,,53.48435300000000,14/00041/FOOD,412,environmentalhealth@knowsley.gov.uk,Knowsley,http://www.knowsley.gov.uk,-2.85786600000000,L33 7TJ,2014-06-10,fhrs_5_en-GB,5,,FHRS,5
177388,Gores Road,Knowsley Industrial Park,Kirkby,Knowsley,Mundo's Food Service,Takeaway/sandwich shop,7844,5,,221002,5,,53.47579100000000,00514/4001/2/000,412,environmentalhealth@knowsley.gov.uk,Knowsley,http://www.knowsley.gov.uk,-2.86109900000000,L33 7XS,2015-01-26,fhrs_5_en-GB,5,,FHRS,5
177389,240-242 Warrington Road,Prescot,Knowsley,,Murco Service Station,Retailers - other,4613,,,220907,,,53.42373700000000,01322/0240/0/000,412,environmentalhealth@knowsley.gov.uk,Knowsley,http://www.knowsley.gov.uk,-2.79092800000000,L35 2UA,2010-01-19,fhrs_exempt_en-GB,Exempt,,FHRS,
177390,,,,,Murphy's Muffins & Cupcakes,Other catering premises,7841,5,,517184,5,,,13/00035/FOOD,412,environmentalhealth@knowsley.gov.uk,Knowsley,http://www.knowsley.gov.uk,,,2013-03-04,fhrs_5_en-GB,5,,FHRS,5
177391,,,,,Murphy's Muffins & Cupcakes,Other catering premises,7841,5,,517185,5,,,13/00036/FOOD,412,environmentalhealth@knowsley.gov.uk,Knowsley,http://www.knowsley.gov.uk,,,2013-03-04,fhrs_5_en-GB,5,,FHRS,5
177392,Roby Road,Roby,Knowsley,,National Wildflower Centre,Restaurant/Cafe/Canteen,1,10,,221073,10,,53.40776800000000,01083/4005/2/000,412,environmentalhealth@knowsley.gov.uk,Knowsley,http://www.knowsley.gov.uk,-2.87413500000000,L14 3NU,2013-10-29,fhrs_3_en-GB,3,,FHRS,10
177393,13 Market Place,Prescot,Knowsley,,New China Palace,Takeaway/sandwich shop,7844,20,,220645,15,,53.42818300000000,00829/0013/0/000,412,environmentalhealth@knowsley.gov.uk,Knowsley,http://www.knowsley.gov.uk,-2.80485700000000,L34 5SB,2014-12-04,fhrs_1_en-GB,1,,FHRS,15
177394,3 Tarbock Road,Huyton,Knowsley,,News Plus,Retailers - other,4613,10,,220890,10,,53.40760500000000,01271/0003/0/000,412,environmentalhealth@knowsley.gov.uk,Knowsley,http://www.knowsley.gov.uk,-2.84681400000000,L36 5XN,2012-01-14,fhrs_4_en-GB,4,,FHRS,0
177395,86 St Chads Parade,Kirkby Town Centre,Knowsley,,News Plus,Retailers - other,4613,,,220968,,,53.48217000000000,01126/0086/0/000,412,environmentalhealth@knowsley.gov.uk,Knowsley,http://www.knowsley.gov.uk,-2.88853400000000,L32 8UG,2008-02-19,fhrs_exempt_en-GB,Exempt,,FHRS,
177396,166 Warrington Road,Prescot,Knowsley,,Newstar Supermarket,Retailers - other,4613,10,,220726,0,,53.42373700000000,01322/0166/0/000,412,environmentalhealth@knowsley.gov.uk,Knowsley,http://www.knowsley.gov.uk,-2.79092800000000,L35 2UA,2012-01-29,fhrs_4_en-GB,4,,FHRS,0
177397,284 Dragon Lane,Whiston,Knowsley,,Noodles Nursery,Hospitals/Childcare/Caring Premises,5,0,,220918,0,,53.41262300000000,00388/0284/0/000,412,environmentalhealth@knowsley.gov.uk,Knowsley,http://www.knowsley.gov.uk,-2.80092200000000,L35 3QZ,2013-06-13,fhrs_5_en-GB,5,,FHRS,0
177398,Roughwood Drive,Northwood,Kirkby,Knowsley,Northwood Community Primary School,School/college/university,7845,5,,221023,5,,53.48518800000000,11/00014/FOOD,412,environmentalhealth@knowsley.gov.uk,Knowsley,http://www.knowsley.gov.uk,-2.87908700000000,L33 8XD,2014-03-19,fhrs_5_en-GB,5,,FHRS,5
177399,Depot Road,Knowsley Industrial Park,Kirkby,Knowsley,Oak Tree Cafe,Restaurant/Cafe/Canteen,1,5,,221069,5,,53.48983600000000,12/00022/MIXED,412,environmentalhealth@knowsley.gov.uk,Knowsley,http://www.knowsley.gov.uk,-2.84907000000000,L33 3AR,2012-03-05,fhrs_5_en-GB,5,,FHRS,0
177400,294 Liverpool Road,Huyton,Knowsley,,Oak Tree Hotel,Pub/bar/nightclub,7843,10,,220730,5,,53.41999400000000,00771/0294/0/000,412,environmentalhealth@knowsley.gov.uk,Knowsley,http://www.knowsley.gov.uk,-2.85034000000000,L36 3RN,2009-12-10,fhrs_3_en-GB,3,,FHRS,10
177401,Okell Drive,Halewood,Knowsley,,Okell Minimarket,Retailers - other,4613,10,,550157,10,,53.37047400000000,11/00043/MIXED,412,environmentalhealth@knowsley.gov.uk,Knowsley,http://www.knowsley.gov.uk,-2.83121200000000,L26 7YL,2013-05-14,fhrs_4_en-GB,4,,FHRS,0
177402,48 James Holt Avenue,Westvale,Kirkby,Knowsley,Orient Express,Takeaway/sandwich shop,7844,10,,220600,10,,53.47897100000000,00669/0048/0/000,412,environmentalhealth@knowsley.gov.uk,Knowsley,http://www.knowsley.gov.uk,-2.89793000000000,L32 5TE,2013-03-25,fhrs_3_en-GB,3,,FHRS,10
177403,Ward Street,Prescot,Knowsley,,Our Lady's Catholic Primary School,School/college/university,7845,0,,220849,0,,53.43215900000000,01320/4000/2/000,412,environmentalhealth@knowsley.gov.uk,Knowsley,http://www.knowsley.gov.uk,-2.80180100000000,L34 6JJ,2011-05-12,fhrs_5_en-GB,5,,FHRS,0
177404,84 Liverpool Road,Huyton,Knowsley,,Page Moss Chippy,Takeaway/sandwich shop,7844,10,,220717,10,,53.42106900000000,00771/0084/0/000,412,environmentalhealth@knowsley.gov.uk,Knowsley,http://www.knowsley.gov.uk,-2.86330300000000,L36 3RF,2014-02-25,fhrs_3_en-GB,3,,FHRS,10
177405,34 Molyneux Drive,Prescot,Knowsley,,Papa's,Takeaway/sandwich shop,7844,10,,220592,10,,53.41946600000000,00879/0034/0/000,412,environmentalhealth@knowsley.gov.uk,Knowsley,http://www.knowsley.gov.uk,-2.80058400000000,L35 5DY,2013-08-12,fhrs_3_en-GB,3,,FHRS,10
177406,6 Page Moss Parade,Roby,Knowsley,,Parade Express,Retailers - other,4613,5,,220789,0,,53.41765300000000,09/00004/MIXED,412,environmentalhealth@knowsley.gov.uk,Knowsley,http://www.knowsley.gov.uk,-2.86582200000000,L36 2PA,2014-01-06,fhrs_5_en-GB,5,,FHRS,5
177407,20 Park Brow Drive,Kirkby,Knowsley,,Park Brow Fish Bar,Takeaway/sandwich shop,7844,5,,220977,5,,53.47451000000000,00981/0020/0/000,412,environmentalhealth@knowsley.gov.uk,Knowsley,http://www.knowsley.gov.uk,-2.87648600000000,L32 6QP,2013-08-20,fhrs_4_en-GB,4,,FHRS,10
177408,Broad Lane,Southdene,Kirkby,Knowsley,Park Brow Primary School,School/college/university,7845,0,,220733,0,,53.47447100000000,11/00054/FOOD,412,environmentalhealth@knowsley.gov.uk,Knowsley,http://www.knowsley.gov.uk,-2.87452700000000,L32 6QH,2014-03-24,fhrs_5_en-GB,5,,FHRS,0
177409,Park View,Roby,Knowsley,,Park View Primary School,School/college/university,7845,5,,221173,0,,53.41900700000000,00985/4000/2/000,412,environmentalhealth@knowsley.gov.uk,Knowsley,http://www.knowsley.gov.uk,-2.85509100000000,L36 2LL,2014-02-06,fhrs_5_en-GB,5,,FHRS,0
177410,,,,,Parker's Cakes,Other catering premises,7841,5,,559368,5,,,13/00123/FOOD,412,environmentalhealth@knowsley.gov.uk,Knowsley,http://www.knowsley.gov.uk,,,2013-06-24,fhrs_5_en-GB,5,,FHRS,5
177411,1A Parklands,Cronton,Knowsley,,Parklands Club,Pub/bar/nightclub,7843,0,,735194,0,,53.38002300000000,14/00188/MIXED,412,environmentalhealth@knowsley.gov.uk,Knowsley,http://www.knowsley.gov.uk,-2.76347800000000,WA8 4NQ,2015-02-06,fhrs_5_en-GB,5,,FHRS,5
177412,Broad Lane,Southdene,Kirkby,Knowsley,Parklands Day Nursery,Hospitals/Childcare/Caring Premises,5,5,,220580,5,,53.47130600000000,07/00024/FOOD,412,environmentalhealth@knowsley.gov.uk,Knowsley,http://www.knowsley.gov.uk,-2.87950800000000,L32 6QG,2013-06-04,fhrs_5_en-GB,5,,FHRS,5
177413,17 The Croft,Stockbridge Village,Knowsley,,Parrys Supermarket,Retailers - supermarkets/hypermarkets,7840,5,,369051,5,,53.43555600000000,11/00061/COM,412,environmentalhealth@knowsley.gov.uk,Knowsley,http://www.knowsley.gov.uk,-2.86876000000000,L28 1NR,2014-11-28,fhrs_5_en-GB,5,,FHRS,5
177414,Speke Boulevard,Halewood,Knowsley,,Partnership For Learning The Charity,Restaurant/Cafe/Canteen,1,5,,220578,0,,53.34709600000000,09184/4000/2/000,412,environmentalhealth@knowsley.gov.uk,Knowsley,http://www.knowsley.gov.uk,-2.83090800000000,L24 9PZ,2013-02-21,fhrs_5_en-GB,5,,FHRS,5
177415,Webber Road,Knowsley Industrial Park,Kirkby,Knowsley,Pats Place,Takeaway/sandwich shop,7844,5,,221164,5,,53.47935800000000,01332/4006/2/000,412,environmentalhealth@knowsley.gov.uk,Knowsley,http://www.knowsley.gov.uk,-2.86001100000000,L33 7SW,2014-02-25,fhrs_5_en-GB,5,,FHRS,5
177416,38 St Chads Parade,Kirkby Town Centre,Knowsley,,Paul's Quality Foods,Retailers - other,4613,5,,220518,5,,53.48205600000000,01126/0038/0/000,412,environmentalhealth@knowsley.gov.uk,Knowsley,http://www.knowsley.gov.uk,-2.88685900000000,L32 8RH,2013-01-17,fhrs_5_en-GB,5,,FHRS,5
177417,99 Hall Lane,Cronton,Knowsley,,Peake Event Catering,Mobile caterer,7846,5,,650614,5,,53.39267900000000,00559/0099/0/000,412,environmentalhealth@knowsley.gov.uk,Knowsley,http://www.knowsley.gov.uk,-2.76354000000000,WA8 5DQ,2014-04-02,fhrs_5_en-GB,5,,FHRS,5
177418,44 Hillside Road,Huyton,Knowsley,,Peos,Retailers - other,4613,5,,557733,10,,53.42405000000000,00619/0044/0/000,412,environmentalhealth@knowsley.gov.uk,Knowsley,http://www.knowsley.gov.uk,-2.83728400000000,L36 8BJ,2013-06-14,fhrs_4_en-GB,4,,FHRS,5
177419,11 Cusson Road,Knowsley Industrial Park,Kirkby,Knowsley,Perfect Occasions,Restaurant/Cafe/Canteen,1,5,,220814,5,,53.47578800000000,00329/0011/0/000,412,environmentalhealth@knowsley.gov.uk,Knowsley,http://www.knowsley.gov.uk,-2.86525700000000,L33 7BY,2014-09-10,fhrs_5_en-GB,5,,FHRS,5
177420,South Boundary Road,Knowsley Industrial Park,Kirkby,Knowsley,Phase 3 Catering Facility - QVC,Restaurant/Cafe/Canteen,1,0,,220786,0,,53.47463900000000,10/00056/MIXED,412,environmentalhealth@knowsley.gov.uk,Knowsley,http://www.knowsley.gov.uk,-2.85997600000000,L33 7SF,2013-07-04,fhrs_5_en-GB,5,,FHRS,0
177421,Sugar Lane,Knowsley,Knowsley,,Pipe & Gannex,Pub/bar/nightclub,7843,5,,591629,5,,53.45001900000000,13/00198/COM,412,environmentalhealth@knowsley.gov.uk,Knowsley,http://www.knowsley.gov.uk,-2.85124100000000,L34 0EW,2013-10-04,fhrs_4_en-GB,4,,FHRS,10
177422,77 Kennelwood Avenue,Northwood,Kirkby,Knowsley,Pizza Delight,Takeaway/sandwich shop,7844,5,,221032,5,,53.48772800000000,00689/0077/0/000,412,environmentalhealth@knowsley.gov.uk,Knowsley,http://www.knowsley.gov.uk,-2.87710500000000,L33 6UE,2013-03-25,fhrs_5_en-GB,5,,FHRS,5
177423,11 Kingsway Parade,Kingsway,Huyton,Knowsley,Pizza Kings,Takeaway/sandwich shop,7844,10,,220845,5,,53.41977300000000,09049/0011/0/000,412,environmentalhealth@knowsley.gov.uk,Knowsley,http://www.knowsley.gov.uk,-2.85235200000000,L36 2QA,2013-10-15,fhrs_3_en-GB,3,,FHRS,10
177424,32A Milton Avenue,Whiston,Knowsley,,Pizza Queen,Takeaway/sandwich shop,7844,20,,547174,15,,53.41605900000000,12/00126/MIXED,412,environmentalhealth@knowsley.gov.uk,Knowsley,http://www.knowsley.gov.uk,-2.78842300000000,L35 2XZ,2014-06-18,fhrs_1_en-GB,1,,FHRS,10
177425,Hollies Road,Halewood,Knowsley,,Plantation Primary School,School/college/university,7845,5,,220646,0,,53.36746000000000,00624/4001/2/000,412,environmentalhealth@knowsley.gov.uk,Knowsley,http://www.knowsley.gov.uk,-2.82905000000000,L26 0TH,2014-05-07,fhrs_5_en-GB,5,,FHRS,5
177426,St Andrews C Of E Church,Highfield,Tower Hill,Kirkby,Playdays,Hospitals/Childcare/Caring Premises,5,5,,591627,5,,53.48880000000000,13/00125/MIXED,412,environmentalhealth@knowsley.gov.uk,Knowsley,http://www.knowsley.gov.uk,-2.85799600000000,L33 1YQ,2013-10-04,fhrs_5_en-GB,5,,FHRS,5
177427,Park View,Roby,Knowsley,,Playtots Limited,Hospitals/Childcare/Caring Premises,5,5,,583139,0,,53.41900700000000,13/00172/FOOD,412,environmentalhealth@knowsley.gov.uk,Knowsley,http://www.knowsley.gov.uk,-2.85509100000000,L36 2LL,2013-09-03,fhrs_5_en-GB,5,,FHRS,0
177428,Pilch Lane,Roby,Knowsley,,Playtots The Robins,Hospitals/Childcare/Caring Premises,5,0,,668808,0,,53.41304000000000,14/00091/MIXED,412,environmentalhealth@knowsley.gov.uk,Knowsley,http://www.knowsley.gov.uk,-2.87356600000000,L14 0JQ,2014-05-27,fhrs_5_en-GB,5,,FHRS,0
177429,30 Eccleston Street,Prescot,Knowsley,,Poco Coffee,Retailers - other,4613,5,,564375,0,,53.42919100000000,13/00122/FOOD,412,environmentalhealth@knowsley.gov.uk,Knowsley,http://www.knowsley.gov.uk,-2.80343100000000,L34 5QJ,2013-06-14,fhrs_5_en-GB,5,,FHRS,5
177430,The Kirkby Centre,Norwich Way,Kirkby Town Centre,Knowsley,Poco Coffee,Restaurant/Cafe/Canteen,1,5,,668804,5,,53.48233400000000,14/00042/FOOD,412,environmentalhealth@knowsley.gov.uk,Knowsley,http://www.knowsley.gov.uk,-2.89067700000000,L32 8XY,2014-05-27,fhrs_5_en-GB,5,,FHRS,0
177431,138 Liverpool Road,Huyton,Knowsley,,Post Office,Retailers - other,4613,,,220973,,,53.42144700000000,00771/0138/0/000,412,environmentalhealth@knowsley.gov.uk,Knowsley,http://www.knowsley.gov.uk,-2.86081300000000,L36 3RH,2008-02-03,fhrs_exempt_en-GB,Exempt,,FHRS,
177432,31-33 Derby Road,Huyton,Knowsley,,Poundbakery & Poundcafe,Restaurant/Cafe/Canteen,1,5,,220796,5,,53.41226100000000,00364/0031/0/000,412,environmentalhealth@knowsley.gov.uk,Knowsley,http://www.knowsley.gov.uk,-2.83930900000000,L36 9UG,2014-10-07,fhrs_4_en-GB,4,,FHRS,10
177433,44 Eccleston Street,Prescot,Knowsley,,Poundbakery & PoundCafe,Retailers - other,4613,0,,221066,0,,53.42919100000000,00413/0044/0/000,412,environmentalhealth@knowsley.gov.uk,Knowsley,http://www.knowsley.gov.uk,-2.80343100000000,L34 5QJ,2013-03-14,fhrs_4_en-GB,4,,FHRS,10
177434,1A Newtown Gardens,Kirkby Town Centre,Knowsley,,Poundland,Retailers - other,4613,,,220536,,,53.48170300000000,00917/4004/2/000,412,environmentalhealth@knowsley.gov.uk,Knowsley,http://www.knowsley.gov.uk,-2.88719800000000,L32 8RD,2009-08-10,fhrs_exempt_en-GB,Exempt,,FHRS,
177435,89 The Forum,Derby Road,Huyton,Knowsley,Poundstretcher,Retailers - other,4613,,,220885,,,53.41010100000000,09191/0089/2/000,412,environmentalhealth@knowsley.gov.uk,Knowsley,http://www.knowsley.gov.uk,-2.83962700000000,L36 9UH,2009-08-04,fhrs_exempt_en-GB,Exempt,,FHRS,
177436,10 St Chads Parade,Kirkby Town Centre,Knowsley,,Poundworld,Retailers - other,4613,,,220684,,,53.48205600000000,01126/0010/0/000,412,environmentalhealth@knowsley.gov.uk,Knowsley,http://www.knowsley.gov.uk,-2.88685900000000,L32 8RH,2010-01-28,fhrs_exempt_en-GB,Exempt,,FHRS,
177437,Eaton Street,Prescot,Knowsley,,Prescot Cables Football Club,Restaurant/Cafe/Canteen,1,5,,220703,5,,53.43111000000000,00412/4000/2/000,412,environmentalhealth@knowsley.gov.uk,Knowsley,http://www.knowsley.gov.uk,-2.80397900000000,L34 6HD,2014-08-27,fhrs_4_en-GB,4,,FHRS,10
177438,Maryville Road,Prescot,Knowsley,,Prescot Primary School,School/college/university,7845,0,,682472,0,,53.42866800000000,13/00124/FOOD,412,environmentalhealth@knowsley.gov.uk,Knowsley,http://www.knowsley.gov.uk,-2.79427100000000,L34 2TA,2014-07-03,fhrs_5_en-GB,5,,FHRS,0
177439,19 Warrington Road,Prescot,Knowsley,,Prescot Reform Club,Pub/bar/nightclub,7843,0,,221060,5,,53.43014600000000,01322/0019/0/000,412,environmentalhealth@knowsley.gov.uk,Knowsley,http://www.knowsley.gov.uk,-2.80040900000000,L34 5QX,2010-05-10,fhrs_5_en-GB,5,,FHRS,5
177440,Ellison Grove,Huyton,Knowsley,,Priory Court,Restaurant/Cafe/Canteen,1,0,,221025,0,,53.41098000000000,09176/0000/0/000,412,environmentalhealth@knowsley.gov.uk,Knowsley,http://www.knowsley.gov.uk,-2.84372200000000,L36 9GE,2014-05-30,fhrs_5_en-GB,5,,FHRS,0
177441,1 Old Rough Lane,Northwood,Kirkby,Knowsley,Quarry Cafe,Takeaway/sandwich shop,7844,5,,220564,5,,53.48394400000000,00953/0001/0/000,412,environmentalhealth@knowsley.gov.uk,Knowsley,http://www.knowsley.gov.uk,-2.87588200000000,L33 6XE,2014-04-29,fhrs_4_en-GB,4,,FHRS,10
177442,Daleside Road,Kirkby,Knowsley,L33  8X,Quarry Green Tenants Association,Pub/bar/nightclub,7843,5,,221045,0,,53.48612711000001,00339/4000/2/000,412,environmentalhealth@knowsley.gov.uk,Knowsley,http://www.knowsley.gov.uk,-2.87697762000000,,2013-08-21,fhrs_5_en-GB,5,,FHRS,0
177443,39 Blacklow Brow,Huyton,Knowsley,,Queens Arms,Pub/bar/nightclub,7843,5,,220801,5,,53.40877000000000,00124/0039/0/000,412,environmentalhealth@knowsley.gov.uk,Knowsley,http://www.knowsley.gov.uk,-2.84476100000000,L36 5XE,2011-12-14,fhrs_5_en-GB,5,,FHRS,5
177444,52 Copplehouse Lane,Fazakerley,Knowsley,,Quresh & Sons Newsagents,Retailers - other,4613,,,220750,,,53.46734900000000,00280/0052/0/000,412,environmentalhealth@knowsley.gov.uk,Knowsley,http://www.knowsley.gov.uk,-2.91446600000000,L10 0AF,2008-02-22,fhrs_exempt_en-GB,Exempt,,FHRS,
177445,South Boundary Road,Knowsley Industrial Park,Kirkby,Knowsley,QVC - Sodexo Diner,Restaurant/Cafe/Canteen,1,0,,221115,0,,53.47463900000000,01210/4001/2/000,412,environmentalhealth@knowsley.gov.uk,Knowsley,http://www.knowsley.gov.uk,-2.85997600000000,L33 7SF,2013-07-04,fhrs_5_en-GB,5,,FHRS,0
177446,Wilson Road,Huyton,Knowsley,,R J's Snack Bar,Mobile caterer,7846,10,,221057,5,,53.40740900000000,01375/0030/2/001,412,environmentalhealth@knowsley.gov.uk,Knowsley,http://www.knowsley.gov.uk,-2.82612600000000,L36 6AN,2013-11-05,fhrs_4_en-GB,4,,FHRS,5
177447,6 Priory Court,Ellison Grove,Huyton,Knowsley,RAFA Association,Pub/bar/nightclub,7843,5,,220776,5,,53.41032400000000,09176/0006/0/000,412,environmentalhealth@knowsley.gov.uk,Knowsley,http://www.knowsley.gov.uk,-2.84495700000000,L36 9GA,2011-12-14,fhrs_5_en-GB,5,,FHRS,5
177448,Broad Lane,Kirkby,Knowsley,,RAFA Association,Pub/bar/nightclub,7843,5,,220917,0,,53.47130600000000,00165/4001/2/000,412,environmentalhealth@knowsley.gov.uk,Knowsley,http://www.knowsley.gov.uk,-2.87950800000000,L32 6QG,2012-02-15,fhrs_5_en-GB,5,,FHRS,0
177449,Glovers Brow,Kirkby,Knowsley,,Railway Hotel,Pub/bar/nightclub,7843,5,,220744,0,,53.48783200000000,00511/4003/2/000,412,environmentalhealth@knowsley.gov.uk,Knowsley,http://www.knowsley.gov.uk,-2.90183900000000,L32 2AD,2012-02-21,fhrs_5_en-GB,5,,FHRS,0
177450,Kirkby Row,Westvale,Kirkby,Knowsley,Rainbow Childcare,Hospitals/Childcare/Caring Premises,5,10,,451657,5,,53.48533700000000,12/00093/FOOD,412,environmentalhealth@knowsley.gov.uk,Knowsley,http://www.knowsley.gov.uk,-2.89532100000000,L32 0TG,2012-09-18,fhrs_4_en-GB,4,,FHRS,5
177451,Ebony Way,Kirkby,Knowsley,,Ravenscroft Community Primary School,School/college/university,7845,0,,221128,0,,53.49539900000000,01697/4000/2/000,412,environmentalhealth@knowsley.gov.uk,Knowsley,http://www.knowsley.gov.uk,-2.88635300000000,L33 1XT,2012-01-19,fhrs_5_en-GB,5,,FHRS,0
177452,21 Market Place,Prescot,Knowsley,,Red Lion Hotel,Pub/bar/nightclub,7843,10,,220654,0,,53.42818300000000,00829/0021/0/000,412,environmentalhealth@knowsley.gov.uk,Knowsley,http://www.knowsley.gov.uk,-2.80485700000000,L34 5SB,2010-01-22,fhrs_4_en-GB,4,,FHRS,0
177453,Reigate Close,Halewood,Knowsley,,Reigate Social Club,Pub/bar/nightclub,7843,0,,221102,0,,53.37724600000000,01072/4000/2/000,412,environmentalhealth@knowsley.gov.uk,Knowsley,http://www.knowsley.gov.uk,-2.85248000000000,L25 5NB,2012-01-18,fhrs_5_en-GB,5,,FHRS,0
177454,Webber Road,Knowsley Industrial Park,Kirkby,Knowsley,Rentokil,Restaurant/Cafe/Canteen,1,5,,220807,5,,53.48126900000000,00704/4010/2/000,412,environmentalhealth@knowsley.gov.uk,Knowsley,http://www.knowsley.gov.uk,-2.85931100000000,L33 7SR,2014-02-13,fhrs_4_en-GB,4,,FHRS,10
177455,10 Rimmer Avenue,Roby,Knowsley,,Rimmer News,Retailers - other,4613,,,220719,,,53.40651700000000,01081/0010/0/000,412,environmentalhealth@knowsley.gov.uk,Knowsley,http://www.knowsley.gov.uk,-2.87307200000000,L16 2NG,2009-07-14,fhrs_exempt_en-GB,Exempt,,FHRS,
177456,Brook Street,Whiston,Knowsley,,Robert Foulkes Day Centre,Other catering premises,7841,5,,220947,10,,53.42218400000000,00167/4000/2/000,412,environmentalhealth@knowsley.gov.uk,Knowsley,http://www.knowsley.gov.uk,-2.78782900000000,L35 2UJ,2009-02-24,fhrs_4_en-GB,4,,FHRS,5
177457,63A Church Road,Roby,Knowsley,,Roby Bambinos Nursery,Hospitals/Childcare/Caring Premises,5,5,,221028,0,,53.41525000000000,00255/0063/A/000,412,environmentalhealth@knowsley.gov.uk,Knowsley,http://www.knowsley.gov.uk,-2.85504500000000,L36 9TN,2014-10-13,fhrs_5_en-GB,5,,FHRS,0
177458,104 Greystone Road,Roby,Knowsley,,Roby Hotel,Pub/bar/nightclub,7843,10,,220627,10,,53.40934900000000,00542/0104/0/000,412,environmentalhealth@knowsley.gov.uk,Knowsley,http://www.knowsley.gov.uk,-2.88277200000000,L14 6UH,2009-07-16,fhrs_3_en-GB,3,,FHRS,10
177459,Tarbock Road,Huyton,Knowsley,,Roby House Care Centre,Hospitals/Childcare/Caring Premises,5,0,,220950,0,,53.40700000000000,01271/4000/2/000,412,environmentalhealth@knowsley.gov.uk,Knowsley,http://www.knowsley.gov.uk,-2.84728300000000,L36 5XW,2014-05-01,fhrs_5_en-GB,5,,FHRS,0
177460,93 Greystone Road,Roby,Knowsley,,Roby News,Retailers - other,4613,10,,220607,5,,53.40935500000000,00542/0093/0/000,412,environmentalhealth@knowsley.gov.uk,Knowsley,http://www.knowsley.gov.uk,-2.88197500000000,L14 6UF,2015-01-09,fhrs_3_en-GB,3,,FHRS,10
177461,Easton Road,Roby,Knowsley,,Roby Park Primary School,School/college/university,7845,5,,220660,0,,53.41700100000000,00408/4000/2/000,412,environmentalhealth@knowsley.gov.uk,Knowsley,http://www.knowsley.gov.uk,-2.86526700000000,L36 4NY,2013-06-28,fhrs_5_en-GB,5,,FHRS,0
177462,,,,,Roo's Little Cake Parlour,Other catering premises,7841,5,,504873,0,,,13/00014/FOOD,412,environmentalhealth@knowsley.gov.uk,Knowsley,http://www.knowsley.gov.uk,,,2013-01-21,fhrs_5_en-GB,5,,FHRS,0
177463,40 Hillside Road,Huyton,Knowsley,,Rowlands,Retailers - other,4613,,,220633,,,53.42405000000000,00619/0040/0/000,412,environmentalhealth@knowsley.gov.uk,Knowsley,http://www.knowsley.gov.uk,-2.83728400000000,L36 8BJ,2009-08-27,fhrs_exempt_en-GB,Exempt,,FHRS,
177464,81 Kennelwood Avenue,Kirkby,Knowsley,,Rowlands Pharamcy,Retailers - other,4613,,,220967,,,53.48772800000000,00689/0081/0/000,412,environmentalhealth@knowsley.gov.uk,Knowsley,http://www.knowsley.gov.uk,-2.87710500000000,L33 6UE,2009-08-10,fhrs_exempt_en-GB,Exempt,,FHRS,
177465,54-56 St Chads Parade,Kirkby Town Centre,Knowsley,,Rowlands Pharmacy,Retailers - other,4613,,,221022,,,53.48217000000000,01126/0054/0/000,412,environmentalhealth@knowsley.gov.uk,Knowsley,http://www.knowsley.gov.uk,-2.88853400000000,L32 8UG,2009-08-05,fhrs_exempt_en-GB,Exempt,,FHRS,
177466,58 Copplehouse Lane,Fazakerley,Knowsley,,Rowlands Pharmacy,Retailers - other,4613,,,221109,,,53.46734900000000,00280/0058/0/000,412,environmentalhealth@knowsley.gov.uk,Knowsley,http://www.knowsley.gov.uk,-2.91446600000000,L10 0AF,2010-01-18,fhrs_exempt_en-GB,Exempt,,FHRS,
177467,10 Archway Road,Huyton,Knowsley,,Royal British Legion Club (heathbank),Pub/bar/nightclub,7843,5,,221003,0,,53.41276600000000,00041/0010/0/000,412,environmentalhealth@knowsley.gov.uk,Knowsley,http://www.knowsley.gov.uk,-2.84150000000000,L36 9XB,2011-12-14,fhrs_5_en-GB,5,,FHRS,5
177468,Longmoor Lane,Fazakerley,Knowsley,,Royal British Legion Fazakerley Branch,Pub/bar/nightclub,7843,10,,220960,10,,53.46944100000000,00780/4002/2/000,412,environmentalhealth@knowsley.gov.uk,Knowsley,http://www.knowsley.gov.uk,-2.91835200000000,L10 1LF,2008-01-31,fhrs_3_en-GB,3,,FHRS,10
177469,64 Warrington Road,Prescot,Knowsley,,Royal Oak,Pub/bar/nightclub,7843,0,,221040,5,,53.42923800000000,01322/0064/0/000,412,environmentalhealth@knowsley.gov.uk,Knowsley,http://www.knowsley.gov.uk,-2.79911200000000,L34 5RE,2011-08-01,fhrs_5_en-GB,5,,FHRS,0
177470,148 Liverpool Road,Huyton,Knowsley,,Roys Supper Bar,Takeaway/sandwich shop,7844,20,,220500,10,,53.42153000000000,00771/0148/0/000,412,environmentalhealth@knowsley.gov.uk,Knowsley,http://www.knowsley.gov.uk,-2.86052800000000,L36 3RG,2014-01-28,fhrs_1_en-GB,1,,FHRS,15
177471,Moorfield,Tower Hill,Knowsley,,Saints Peter And Paul Catholic Primary School,School/college/university,7845,0,,220844,5,,53.49795300000000,00884/4000/2/000,412,environmentalhealth@knowsley.gov.uk,Knowsley,http://www.knowsley.gov.uk,-2.88019600000000,L33 1DZ,2014-03-19,fhrs_5_en-GB,5,,FHRS,0
177472,21 Acacia Avenue,Huyton,Knowsley,Merseyside,Salad Bowl,Retailers - other,4613,10,,221089,5,,53.40405800000000,00002/0021/0/000,412,environmentalhealth@knowsley.gov.uk,Knowsley,http://www.knowsley.gov.uk,-2.84636700000000,L36 5TN,2014-09-09,fhrs_4_en-GB,4,,FHRS,5
177473,Lickers Lane,Whiston,Knowsley,,Sandfield Natural Play Centre,Hospitals/Childcare/Caring Premises,5,0,,220764,0,,53.40939300000000,00752/4000/2/000,412,environmentalhealth@knowsley.gov.uk,Knowsley,http://www.knowsley.gov.uk,-2.79067700000000,L35 3SR,2015-01-07,fhrs_5_en-GB,5,,FHRS,0
177474,15 Market Place,Prescot,Knowsley,,Santos,Takeaway/sandwich shop,7844,10,,220589,10,,53.42818300000000,00829/0015/0/000,412,environmentalhealth@knowsley.gov.uk,Knowsley,http://www.knowsley.gov.uk,-2.80485700000000,L34 5SB,2012-05-29,fhrs_3_en-GB,3,,FHRS,10
177475,9 Smithford Walk,Huyton,Knowsley,,Savoire Faire,Other catering premises,7841,0,,220949,0,,53.39729300000000,07/00342/FOOD,412,environmentalhealth@knowsley.gov.uk,Knowsley,http://www.knowsley.gov.uk,-2.82009500000000,L35 1SF,2013-03-26,fhrs_5_en-GB,5,,FHRS,0
177476,17 Sherborne Square,Huyton,Knowsley,,Say It With Balloons PS Dont Forget Your 5 A Day,Retailers - other,4613,10,,585183,10,,53.41181700000000,13/00159/MIXED,412,environmentalhealth@knowsley.gov.uk,Knowsley,http://www.knowsley.gov.uk,-2.83851800000000,L36 9UR,2013-09-06,fhrs_3_en-GB,3,,FHRS,10
177477,107 Broad Lane,Kirkby,Knowsley,,Sayers,Retailers - other,4613,0,,220637,0,,53.47446900000000,00165/0107/0/000,412,environmentalhealth@knowsley.gov.uk,Knowsley,http://www.knowsley.gov.uk,-2.87594300000000,L32 6QD,2013-06-18,fhrs_5_en-GB,5,,FHRS,0
177478,14 The Croft,Stockbridge Village,Knowsley,,Sayers,Retailers - other,4613,0,,220692,0,,53.43555600000000,01701/0014/0/000,412,environmentalhealth@knowsley.gov.uk,Knowsley,http://www.knowsley.gov.uk,-2.86876000000000,L28 1NR,2012-02-04,fhrs_5_en-GB,5,,FHRS,5
177479,7 Childwall Parade,Pilch Lane,Roby,Knowsley,Sayers,Retailers - other,4613,5,,220961,0,,53.41221800000000,09016/0007/0/000,412,environmentalhealth@knowsley.gov.uk,Knowsley,http://www.knowsley.gov.uk,-2.87156400000000,L14 6TT,2015-02-09,fhrs_5_en-GB,5,,FHRS,5
177480,16 Mackets Lane,Halewood,Knowsley,,Scrumptious,Restaurant/Cafe/Canteen,1,5,,220662,5,,53.36172500000000,00807/0016/0/000,412,environmentalhealth@knowsley.gov.uk,Knowsley,http://www.knowsley.gov.uk,-2.85206500000000,L25 0LQ,2013-10-31,fhrs_5_en-GB,5,,FHRS,5
177481,22 Hall Lane,Huyton,Knowsley,,Seel Arms,Pub/bar/nightclub,7843,5,,220704,5,,53.41012000000000,00555/4008/2/000,412,environmentalhealth@knowsley.gov.uk,Knowsley,http://www.knowsley.gov.uk,-2.82654000000000,L36 6AZ,2011-12-14,fhrs_5_en-GB,5,,FHRS,5
177482,66 Eccleston Street,Prescot,Knowsley,,Self Pick,Retailers - other,4613,10,,220713,0,,53.42952300000000,00413/0066/0/000,412,environmentalhealth@knowsley.gov.uk,Knowsley,http://www.knowsley.gov.uk,-2.80206800000000,L34 5QL,2012-02-04,fhrs_4_en-GB,4,,FHRS,0
177483,8 Childwall Parade,Pilch Lane,Roby,Knowsley,Shakes N Cakes,Takeaway/sandwich shop,7844,10,,482124,10,,53.41221800000000,09016/0008/0/000,412,environmentalhealth@knowsley.gov.uk,Knowsley,http://www.knowsley.gov.uk,-2.87156400000000,L14 6TT,2014-06-10,fhrs_3_en-GB,3,,FHRS,10
177484,,,,,Sheila McCabe,Other catering premises,7841,10,,451656,5,,,12/00092/FOOD,412,environmentalhealth@knowsley.gov.uk,Knowsley,http://www.knowsley.gov.uk,,,2012-09-17,fhrs_4_en-GB,4,,FHRS,5
177485,195 Higher Road,Halewood,Knowsley,,Shell Halewood,Retailers - other,4613,0,,537763,0,,53.35886900000000,13/00062/MIXED,412,environmentalhealth@knowsley.gov.uk,Knowsley,http://www.knowsley.gov.uk,-2.83638100000000,L26 1UN,2013-04-19,fhrs_5_en-GB,5,,FHRS,0
177486,Liverpool Road,Huyton,Knowsley,,Shell Service Station,Retailers - other,4613,0,,220955,0,,53.41999400000000,00771/4004/2/000,412,environmentalhealth@knowsley.gov.uk,Knowsley,http://www.knowsley.gov.uk,-2.85034000000000,L36 3RN,2012-01-15,fhrs_5_en-GB,5,,FHRS,0
177487,19 Market Place,Prescot,Knowsley,,Shere Khan Xpresscot,Takeaway/sandwich shop,7844,10,,220765,10,,53.42818300000000,00829/0019/0/000,412,environmentalhealth@knowsley.gov.uk,Knowsley,http://www.knowsley.gov.uk,-2.80485700000000,L34 5SB,2013-03-20,fhrs_3_en-GB,3,,FHRS,10
177488,66 Liverpool Road,Huyton,Knowsley,,Shop And Go,Retailers - other,4613,20,,221118,15,,53.42106900000000,00771/0066/0/000,412,environmentalhealth@knowsley.gov.uk,Knowsley,http://www.knowsley.gov.uk,-2.86330300000000,L36 3RF,2013-07-19,fhrs_1_en-GB,1,,FHRS,15
177489,10 The Halewood Shopping Centre,Leathers Lane,Halewood,Knowsley,Shop Express,Retailers - other,4613,10,,457554,10,,,12/00109/MIXED,412,environmentalhealth@knowsley.gov.uk,Knowsley,http://www.knowsley.gov.uk,,L26 0AD,2014-05-07,fhrs_3_en-GB,3,,FHRS,10
177490,,,,,Simply Cupcakes,Other catering premises,7841,5,,633965,0,,,14/00027/FOOD,412,environmentalhealth@knowsley.gov.uk,Knowsley,http://www.knowsley.gov.uk,,,2014-01-31,fhrs_5_en-GB,5,,FHRS,0
177491,75 Warrington Road,Prescot,Knowsley,,Sing Ping,Restaurant/Cafe/Canteen,1,5,,220699,10,,53.42942900000000,01322/0075/0/000,412,environmentalhealth@knowsley.gov.uk,Knowsley,http://www.knowsley.gov.uk,-2.79871000000000,L34 5QY,2014-03-05,fhrs_4_en-GB,4,,FHRS,5
177492,1 Baileys Lane,Halewood,Knowsley,,Smiths Off Licence,Retailers - other,4613,,,221125,,,53.36665800000000,07/00338/COM,412,environmentalhealth@knowsley.gov.uk,Knowsley,http://www.knowsley.gov.uk,-2.82287300000000,L26 2XB,2012-01-29,fhrs_exempt_en-GB,Exempt,,FHRS,
177493,Travis Perkins,Wilson Road,Huyton,Knowsley,Snack Attack,Mobile caterer,7846,20,,509055,15,,53.40740900000000,13/00021/MIXED,412,environmentalhealth@knowsley.gov.uk,Knowsley,http://www.knowsley.gov.uk,-2.82612600000000,L36 6AN,2014-09-09,fhrs_1_en-GB,1,,FHRS,10
177494,Glovers Brow,Kirkby,Knowsley,,Sopranos Pizza Shop,Takeaway/sandwich shop,7844,5,,220528,5,,53.48783200000000,00511/0007/0/000,412,environmentalhealth@knowsley.gov.uk,Knowsley,http://www.knowsley.gov.uk,-2.90183900000000,L32 2AD,2014-10-16,fhrs_5_en-GB,5,,FHRS,5
177495,16 Swanside Parade,Pilch Lane,Roby,Knowsley,So's,Takeaway/sandwich shop,7844,10,,220991,5,,53.41600000000000,09015/0016/0/000,412,environmentalhealth@knowsley.gov.uk,Knowsley,http://www.knowsley.gov.uk,-2.88166100000000,L14 7QH,2013-10-14,fhrs_4_en-GB,4,,FHRS,5
177496,5 Broad Lane,Southdene,Kirkby,Knowsley,Southdene Caffee,Restaurant/Cafe/Canteen,1,5,,693881,5,,53.47115500000000,14/00034/MIXED,412,environmentalhealth@knowsley.gov.uk,Knowsley,http://www.knowsley.gov.uk,-2.88176500000000,L32 6QA,2014-08-20,fhrs_5_en-GB,5,,FHRS,5
177497,7 Broad Lane,Kirkby,Knowsley,,Southdene Newsagents,Retailers - other,4613,,,221179,,,53.47123700000000,00165/0007/0/000,412,environmentalhealth@knowsley.gov.uk,Knowsley,http://www.knowsley.gov.uk,-2.88160100000000,L32 6QA,2006-09-01,fhrs_exempt_en-GB,Exempt,,FHRS,
177498,8 Park Brow Drive,Kirkby,Knowsley,,Southdene Newsagents,Retailers - other,4613,,,220663,,,53.47451000000000,00981/0008/0/000,412,environmentalhealth@knowsley.gov.uk,Knowsley,http://www.knowsley.gov.uk,-2.87648600000000,L32 6QP,2008-01-22,fhrs_exempt_en-GB,Exempt,,FHRS,
177499,2 - 3 Ropers Court,Sinclair Way,Prescot Business Park,Prescot,Spaceworld Limited,Other catering premises,7841,0,,220897,5,,53.42343400000000,09/00060/MIXED,412,environmentalhealth@knowsley.gov.uk,Knowsley,http://www.knowsley.gov.uk,-2.80666300000000,L34 1QN,2014-04-30,fhrs_5_en-GB,5,,FHRS,5
177500,Whiston Hospital,Warrington Road,Whiston,Knowsley,Spice Of Life Restaurant,Restaurant/Cafe/Canteen,1,0,,221101,0,,53.42082100000000,09342/4004/2/000,412,environmentalhealth@knowsley.gov.uk,Knowsley,http://www.knowsley.gov.uk,-2.78602900000000,L35 5DR,2013-10-03,fhrs_5_en-GB,5,,FHRS,0
177501,St Marys Road,Huyton,Knowsley,,St Agnes Parochial Club,Pub/bar/nightclub,7843,10,,220573,5,,53.40903200000000,01136/4001/2/000,412,environmentalhealth@knowsley.gov.uk,Knowsley,http://www.knowsley.gov.uk,-2.83313800000000,L36 5SR,2013-04-22,fhrs_4_en-GB,4,,FHRS,0
177502,Adswood Road,Huyton,Knowsley,,St Aidans Catholic Primary School,School/college/university,7845,5,,220539,0,,53.41806800000000,00008/4000/2/000,412,environmentalhealth@knowsley.gov.uk,Knowsley,http://www.knowsley.gov.uk,-2.83406700000000,L36 7XR,2015-01-27,fhrs_5_en-GB,5,,FHRS,5
177503,Hollow Croft,Stockbridge Village,Knowsley,,St Albert's Catholic Primary School,School/college/university,7845,0,,220560,0,,53.44011900000000,01569/4000/2/000,412,environmentalhealth@knowsley.gov.uk,Knowsley,http://www.knowsley.gov.uk,-2.86799500000000,L28 4EA,2012-05-02,fhrs_5_en-GB,5,,FHRS,5
177504,Twig Lane,Huyton,Knowsley,,St Aloysius Catholic Primary School,School/college/university,7845,5,,220714,0,,53.41791600000000,01307/4002/2/000,412,environmentalhealth@knowsley.gov.uk,Knowsley,http://www.knowsley.gov.uk,-2.85308300000000,L36 2LF,2013-06-28,fhrs_5_en-GB,5,,FHRS,0
177505,Crosswood Crescent,Huyton,Knowsley,,St Aloysius R C Social Club,Pub/bar/nightclub,7843,10,,220555,10,,53.41538500000000,00323/4000/2/000,412,environmentalhealth@knowsley.gov.uk,Knowsley,http://www.knowsley.gov.uk,-2.85247500000000,L36 2QE,2008-07-07,fhrs_3_en-GB,3,,FHRS,5
177506,Higher Road,Halewood,Knowsley,,St Andrew The Apostle Catholic Primary,School/college/university,7845,5,,220988,0,,53.36072800000000,00609/4000/2/000,412,environmentalhealth@knowsley.gov.uk,Knowsley,http://www.knowsley.gov.uk,-2.84561300000000,L26 1TD,2013-10-31,fhrs_5_en-GB,5,,FHRS,5
177507,Marina Crescent,Huyton,Knowsley,,St Annes R C Primary School,School/college/university,7845,5,,220987,0,,53.40528200000000,00828/4000/2/000,412,environmentalhealth@knowsley.gov.uk,Knowsley,http://www.knowsley.gov.uk,-2.84612100000000,L36 5XL,2013-01-09,fhrs_5_en-GB,5,,FHRS,0
177508,Woodfield Road,Roby,Knowsley,,St Bartholomews Court,Hospitals/Childcare/Caring Premises,5,0,,220780,0,,53.41216400000000,01400/4000/2/000,412,environmentalhealth@knowsley.gov.uk,Knowsley,http://www.knowsley.gov.uk,-2.85790200000000,L36 4PJ,2014-05-19,fhrs_5_en-GB,5,,FHRS,0
177509,Waterpark Drive,Stockbridge Village,Knowsley,,St Brigids Catholic Primary School,School/college/university,7845,0,,220609,0,,53.43389500000000,01590/4000/2/000,412,environmentalhealth@knowsley.gov.uk,Knowsley,http://www.knowsley.gov.uk,-2.86850000000000,L28 7RE,2014-11-25,fhrs_5_en-GB,5,,FHRS,0
177510,Hillside Road,Huyton,Knowsley,,St Columbas Catholic Primary School,School/college/university,7845,0,,220824,0,,53.42542500000000,00619/4000/2/000,412,environmentalhealth@knowsley.gov.uk,Knowsley,http://www.knowsley.gov.uk,-2.84122400000000,L36 8BL,2014-02-28,fhrs_5_en-GB,5,,FHRS,0
177511,Cumber Lane,Whiston,Knowsley,,St Edmund Arrowsmith Catholic Centre For Learning,School/college/university,7845,0,,221150,0,,53.41852500000000,10/00081/FOOD,412,environmentalhealth@knowsley.gov.uk,Knowsley,http://www.knowsley.gov.uk,-2.78654300000000,L35 2XG,2012-07-04,fhrs_5_en-GB,5,,FHRS,0
177512,Ellis Ashton Street,Huyton,Knowsley,,St Gabriels Church Of England Primary School,School/college/university,7845,0,,220665,5,,53.40949000000000,00427/4000/2/000,412,environmentalhealth@knowsley.gov.uk,Knowsley,http://www.knowsley.gov.uk,-2.82545900000000,L36 6BH,2012-12-07,fhrs_5_en-GB,5,,FHRS,5
177513,6 Roby Road,Roby,Knowsley,,St Helenas Residential Home,Hospitals/Childcare/Caring Premises,5,5,,221036,5,,53.40891300000000,01083/0006/0/000,412,environmentalhealth@knowsley.gov.uk,Knowsley,http://www.knowsley.gov.uk,-2.84998400000000,L36 4HE,2013-04-03,fhrs_5_en-GB,5,,FHRS,0
177514,Tithebarn Road,Knowsley Village,Knowsley,,St John Fisher Catholic Primary School,School/college/university,7845,0,,220664,0,,53.45280800000000,01294/4005/2/000,412,environmentalhealth@knowsley.gov.uk,Knowsley,http://www.knowsley.gov.uk,-2.84959500000000,L34 0HA,2014-03-11,fhrs_5_en-GB,5,,FHRS,0
177515,Bewley Drive,Southdene,Kirkby,Knowsley,St Joseph The Worker Catholic Primary School,School/college/university,7845,5,,220948,5,,53.47580300000000,00108/4007/2/000,412,environmentalhealth@knowsley.gov.uk,Knowsley,http://www.knowsley.gov.uk,-2.88763200000000,L32 9PF,2013-11-12,fhrs_5_en-GB,5,,FHRS,5
177516,Edenfield Crescent,Huyton,Knowsley,,St Josephs Catholic Primary School,School/college/university,7845,0,,220963,0,,53.41750600000000,00415/4000/2/000,412,environmentalhealth@knowsley.gov.uk,Knowsley,http://www.knowsley.gov.uk,-2.83094100000000,L36 6DS,2014-11-24,fhrs_5_en-GB,5,,FHRS,5
177517,Leeside Avenue,Southdene,Kirkby,Knowsley,St Laurence's Catholic Primary School,School/college/university,7845,0,,221147,0,,53.47667400000000,00746/4000/2/000,412,environmentalhealth@knowsley.gov.uk,Knowsley,http://www.knowsley.gov.uk,-2.88052300000000,L32 9QX,2014-04-30,fhrs_5_en-GB,5,,FHRS,0
177518,Lickers Lane,Whiston,Knowsley,,St Leo's And Southmead Catholic Primary School,School/college/university,7845,10,,221012,0,,53.40939300000000,00752/4001/2/000,412,environmentalhealth@knowsley.gov.uk,Knowsley,http://www.knowsley.gov.uk,-2.79067700000000,L35 3SR,2014-09-24,fhrs_2_en-GB,2,,FHRS,15
177519,Shaw Lane,Prescot,Knowsley,,St Lukes Catholic Primary School,School/college/university,7845,5,,220827,0,,53.42086600000000,01174/4000/2/000,412,environmentalhealth@knowsley.gov.uk,Knowsley,http://www.knowsley.gov.uk,-2.79004700000000,L35 5AT,2012-05-10,fhrs_5_en-GB,5,,FHRS,0
177520,Pilch Lane,Roby,Knowsley,,St Margaret Marys Catholic Infant School,School/college/university,7845,5,,221182,0,,53.41447500000000,01013/4000/2/000,412,environmentalhealth@knowsley.gov.uk,Knowsley,http://www.knowsley.gov.uk,-2.87881600000000,L14 0JG,2015-01-27,fhrs_5_en-GB,5,,FHRS,5
177521,Pilch Lane,Roby,Knowsley,,St Margaret Marys Catholic Junior School,School/college/university,7845,0,,220865,0,,53.41447500000000,01013/4001/2/000,412,environmentalhealth@knowsley.gov.uk,Knowsley,http://www.knowsley.gov.uk,-2.87881600000000,L14 0JG,2013-06-17,fhrs_5_en-GB,5,,FHRS,5
177522,140 Pilch Lane,Roby,Knowsley,,St Margaret Marys Parochial Centre And Club,Other catering premises,7841,0,,220751,0,,53.41447500000000,01013/0140/0/000,412,environmentalhealth@knowsley.gov.uk,Knowsley,http://www.knowsley.gov.uk,-2.87881600000000,L14 0JG,2012-07-17,fhrs_5_en-GB,5,,FHRS,0
177523,Bigdale Drive,Kirkby,Knowsley,,St Marie's Catholic Primary School,School/college/university,7845,0,,220857,0,,53.48572000000000,00110/4002/2/000,412,environmentalhealth@knowsley.gov.uk,Knowsley,http://www.knowsley.gov.uk,-2.87516500000000,L33 6XJ,2014-03-24,fhrs_5_en-GB,5,,FHRS,0
177524,Fir Avenue,Halewood,Knowsley,,St Marks Catholic Primary School,School/college/university,7845,5,,220787,0,,53.36383000000000,00742/4003/2/000,412,environmentalhealth@knowsley.gov.uk,Knowsley,http://www.knowsley.gov.uk,-2.82356900000000,L26 0TT,2013-10-04,fhrs_5_en-GB,5,,FHRS,5
177525,Bryer Road,Prescot,Knowsley,,St Mary And St Pauls C Of E Primary School,School/college/university,7845,0,,220797,0,,53.42061500000000,00176/4000/2/000,412,environmentalhealth@knowsley.gov.uk,Knowsley,http://www.knowsley.gov.uk,-2.80212600000000,L35 5DN,2014-07-16,fhrs_5_en-GB,5,,FHRS,0
177526,Hillingden Avenue,Halewood,Knowsley,,St Mary's Day Centre,Other catering premises,7841,5,,220984,0,,53.36047500000000,00616/4002/2/000,412,environmentalhealth@knowsley.gov.uk,Knowsley,http://www.knowsley.gov.uk,-2.82789200000000,L26 9TZ,2013-07-10,fhrs_5_en-GB,5,,FHRS,5
177527,Kennelwood Avenue,Kirkby,Knowsley,,St Marys R C Club,Pub/bar/nightclub,7843,10,,220808,10,,53.48840400000000,00689/4001/2/000,412,environmentalhealth@knowsley.gov.uk,Knowsley,http://www.knowsley.gov.uk,-2.87818900000000,L33 6UF,2006-09-01,fhrs_3_en-GB,3,,FHRS,10
177528,Hillingden Avenue,Halewood,Knowsley,,St Marys Roseheath Day Nursery,Restaurant/Cafe/Canteen,1,5,,220502,5,,53.36047500000000,08/00017/FOOD,412,environmentalhealth@knowsley.gov.uk,Knowsley,http://www.knowsley.gov.uk,-2.82789200000000,L26 9TZ,2013-07-10,fhrs_5_en-GB,5,,FHRS,5
177529,Sidney Powell Avenue,Westvale,Kirkby,Knowsley,St Michael And All Angels Catholic Primary School,School/college/university,7845,0,,220783,0,,53.48438000000000,01188/4005/2/000,412,environmentalhealth@knowsley.gov.uk,Knowsley,http://www.knowsley.gov.uk,-2.89953600000000,L32 0TP,2012-02-27,fhrs_5_en-GB,5,,FHRS,5
177530,42 Roby Road,Roby,Knowsley,,Stanley Arms,Pub/bar/nightclub,7843,5,,220788,0,,53.40901800000000,01083/0042/0/000,412,environmentalhealth@knowsley.gov.uk,Knowsley,http://www.knowsley.gov.uk,-2.85288900000000,L36 4HF,2014-02-20,fhrs_5_en-GB,5,,FHRS,5
177531,52 Eccleston Street,Prescot,Knowsley,,Stanley News,Retailers - other,4613,,,220587,,,53.42919100000000,00413/0052/0/000,412,environmentalhealth@knowsley.gov.uk,Knowsley,http://www.knowsley.gov.uk,-2.80343100000000,L34 5QJ,2012-09-19,fhrs_exempt_en-GB,Exempt,,FHRS,
177532,206 Kingsway,Huyton,Knowsley,,Stanley News & Wine,Retailers - other,4613,,,220590,,,53.41552700000000,07/00194/COM,412,environmentalhealth@knowsley.gov.uk,Knowsley,http://www.knowsley.gov.uk,-2.84897200000000,L36 2PS,2011-10-22,fhrs_exempt_en-GB,Exempt,,FHRS,
177533,The Withens,Stockbridge Village,Knowsley,,Stockbridge Village Primary School,School/college/university,7845,0,,220819,0,,51.11465072631836,11/00048/FOOD,412,environmentalhealth@knowsley.gov.uk,Knowsley,http://www.knowsley.gov.uk,-1.47204005718231,L28 1AB,2014-03-26,fhrs_4_en-GB,4,,FHRS,10
177534,1 Stretford Close,Kirkby,Knowsley,,Stretford Convenience,Retailers - other,4613,,,220735,,,53.49368800000000,01984/0001/0/000,412,environmentalhealth@knowsley.gov.uk,Knowsley,http://www.knowsley.gov.uk,-2.88684500000000,L33 1WE,2008-02-13,fhrs_exempt_en-GB,Exempt,,FHRS,
177535,144-150 Cherryfield Drive,Kirkby,Knowsley,,Subway,Takeaway/sandwich shop,7844,0,,221088,0,,53.48156200000000,00240/0144/0/000,412,environmentalhealth@knowsley.gov.uk,Knowsley,http://www.knowsley.gov.uk,-2.88805400000000,L32 8RX,2014-12-03,fhrs_5_en-GB,5,,FHRS,0
177536,18 - 20 Sherborne Square,Huyton,Knowsley,,Subway,Takeaway/sandwich shop,7844,5,,668806,0,,53.41181700000000,14/00088/FOOD,412,environmentalhealth@knowsley.gov.uk,Knowsley,http://www.knowsley.gov.uk,-2.83851800000000,L36 9UR,2014-05-13,fhrs_5_en-GB,5,,FHRS,5
177537,2 Dragon Lane,Whiston,Knowsley,,Subway,Takeaway/sandwich shop,7844,0,,631970,0,,53.42067300000000,14/00004/MIXED,412,environmentalhealth@knowsley.gov.uk,Knowsley,http://www.knowsley.gov.uk,-2.78810200000000,L35 2UF,2014-01-31,fhrs_5_en-GB,5,,FHRS,0
177538,7 Cables Retail Park,Steley Way,Prescot,Knowsley,Subway,Takeaway/sandwich shop,7844,5,,682473,0,,53.42681600000000,14/00119/FOOD,412,environmentalhealth@knowsley.gov.uk,Knowsley,http://www.knowsley.gov.uk,-2.80105300000000,L34 5NQ,2014-07-03,fhrs_5_en-GB,5,,FHRS,0
177539,Lees Road,Knowsley Industrial Park,Kirkby,Knowsley,Subway,Takeaway/sandwich shop,7844,0,,220995,0,,53.48028900000000,00745/4012/2/000,412,environmentalhealth@knowsley.gov.uk,Knowsley,http://www.knowsley.gov.uk,-2.86313400000000,L33 7SE,2014-02-24,fhrs_5_en-GB,5,,FHRS,0
177540,St Mary And St Pauls C Of E Primary,Bryer Road,Prescot,Knowsley,Sue Gill Nursery,Hospitals/Childcare/Caring Premises,5,5,,221139,0,,53.42061500000000,10/00165/FOOD,412,environmentalhealth@knowsley.gov.uk,Knowsley,http://www.knowsley.gov.uk,-2.80212600000000,L35 5DN,2013-07-22,fhrs_5_en-GB,5,,FHRS,0
177541,9 Fir Avenue,Halewood,Knowsley,,Sugar Cupcakes,Other catering premises,7841,0,,220848,0,,53.36460400000000,12/00019/FOOD,412,environmentalhealth@knowsley.gov.uk,Knowsley,http://www.knowsley.gov.uk,-2.82603400000000,L26 0UB,2012-03-02,fhrs_5_en-GB,5,,FHRS,0
177542,58 Sugar Lane,Knowsley Village,Knowsley,,Sugar N' Spice,Retailers - other,4613,20,,220946,20,,53.44952700000000,01245/0058/0/000,412,environmentalhealth@knowsley.gov.uk,Knowsley,http://www.knowsley.gov.uk,-2.85210500000000,L34 0ER,2013-03-21,fhrs_0_en-GB,0,,FHRS,15
177543,Ribblers Lane,Knowsley Business Park,Knowsley,,Suites Hotel,Hotel/bed & breakfast/guest house,7842,5,,220774,5,,53.46352600000000,02133/2000/2/000,412,environmentalhealth@knowsley.gov.uk,Knowsley,http://www.knowsley.gov.uk,-2.87648600000000,L34 9HA,2014-06-17,fhrs_5_en-GB,5,,FHRS,5
177544,11 Derby Street,Prescot,Knowsley,,Sun Inn,Pub/bar/nightclub,7843,5,,221056,5,,53.42938000000000,00366/0011/0/000,412,environmentalhealth@knowsley.gov.uk,Knowsley,http://www.knowsley.gov.uk,-2.80731800000000,L34 3LE,2013-02-07,fhrs_5_en-GB,5,,FHRS,0
177545,17 St Chads Parade,Kirkby Town Centre,Knowsley,,Sunset Cafe,Restaurant/Cafe/Canteen,1,20,,564374,10,,53.48170300000000,13/00008/MIXED,412,environmentalhealth@knowsley.gov.uk,Knowsley,http://www.knowsley.gov.uk,-2.88719800000000,L32 8RD,2014-06-23,fhrs_1_en-GB,1,,FHRS,15
177546,42 Derby Road,Huyton,Knowsley,,Super News,Retailers - other,4613,,,220996,,,53.41169000000000,00364/0042/0/000,412,environmentalhealth@knowsley.gov.uk,Knowsley,http://www.knowsley.gov.uk,-2.83985400000000,L36 9UJ,2009-08-04,fhrs_exempt_en-GB,Exempt,,FHRS,
177547,48-50 Derby Road,Huyton,Knowsley,,Superdrug,Retailers - other,4613,,,220775,,,53.41169000000000,00364/0048/0/000,412,environmentalhealth@knowsley.gov.uk,Knowsley,http://www.knowsley.gov.uk,-2.83985400000000,L36 9UJ,2009-08-04,fhrs_exempt_en-GB,Exempt,,FHRS,
177548,14 Eccleston Street,Prescot,Knowsley,,Supernews,Retailers - other,4613,,,220970,,,53.42875100000000,270900413/0014/0/000,412,environmentalhealth@knowsley.gov.uk,Knowsley,http://www.knowsley.gov.uk,-2.80468700000000,L34 5QE,2009-10-28,fhrs_exempt_en-GB,Exempt,,FHRS,
177549,36 St Chads Parade,Kirkby Town Centre,Knowsley,,Supernews,Retailers - other,4613,,,220582,,,53.48205600000000,01126/0036/0/000,412,environmentalhealth@knowsley.gov.uk,Knowsley,http://www.knowsley.gov.uk,-2.88685900000000,L32 8RH,2009-08-10,fhrs_exempt_en-GB,Exempt,,FHRS,
177550,60 St Johns Road,Huyton,Knowsley,,Susana's Home From Home,Hospitals/Childcare/Caring Premises,5,10,,639094,10,,53.40795800000000,14/00053/FOOD,412,environmentalhealth@knowsley.gov.uk,Knowsley,http://www.knowsley.gov.uk,-2.83122100000000,L36 5SY,2014-03-10,fhrs_3_en-GB,3,,FHRS,5
177551,Kingsway,Huyton,Knowsley,,Swan Hotel,Pub/bar/nightclub,7843,10,,221014,5,,53.41386800000000,01449/4000/2/000,412,environmentalhealth@knowsley.gov.uk,Knowsley,http://www.knowsley.gov.uk,-2.84838300000000,L36 2PW,2011-12-14,fhrs_4_en-GB,4,,FHRS,5
177552,18 Swanside Parade,Pilch Lane,Roby,Knowsley,Swanside Stores,Retailers - other,4613,5,,220990,5,,53.41600000000000,09015/0018/0/000,412,environmentalhealth@knowsley.gov.uk,Knowsley,http://www.knowsley.gov.uk,-2.88166100000000,L14 7QH,2013-08-01,fhrs_4_en-GB,4,,FHRS,10
177553,,,,,Sweet Flour Power,Other catering premises,7841,0,,605327,0,,,13/00205/FOOD,412,environmentalhealth@knowsley.gov.uk,Knowsley,http://www.knowsley.gov.uk,,,2013-10-18,fhrs_5_en-GB,5,,FHRS,0
177554,St Marks C Of E Church,Deycroft Avenue,Northwood,Kirkby,TANGO & Cafe Church,Restaurant/Cafe/Canteen,1,5,,220942,0,,53.48963100000000,11/00041/FOOD,412,environmentalhealth@knowsley.gov.uk,Knowsley,http://www.knowsley.gov.uk,-2.87509500000000,L33 9TE,2011-08-11,fhrs_5_en-GB,5,,FHRS,0
177555,10 Eccleston Street,Prescot,Knowsley,,Taste The Difference,Retailers - other,4613,10,,220802,10,,53.42875100000000,00413/0008/0/000,412,environmentalhealth@knowsley.gov.uk,Knowsley,http://www.knowsley.gov.uk,-2.80468700000000,L34 5QE,2012-04-26,fhrs_3_en-GB,3,,FHRS,10
177556,64-66 Derby Road,Huyton,Knowsley,,Taste The Difference,Retailers - other,4613,10,,220737,15,,53.41084800000000,00364/0064/0/000,412,environmentalhealth@knowsley.gov.uk,Knowsley,http://www.knowsley.gov.uk,-2.83955200000000,L36 9UL,2014-05-21,fhrs_2_en-GB,2,,FHRS,15
177557,1 Cables Retail Park,Steley Way,Prescot,Knowsley,Tesco,Retailers - supermarkets/hypermarkets,7840,0,,220567,0,,53.42681600000000,09242/4001/2/000,412,environmentalhealth@knowsley.gov.uk,Knowsley,http://www.knowsley.gov.uk,-2.80105300000000,L34 5NQ,2012-02-26,fhrs_5_en-GB,5,,FHRS,0
177558,1 Windy Arbor Road,Whiston,Knowsley,,Tesco,Retailers - other,4613,0,,220591,0,,53.41036600000000,01386/0001/0/000,412,environmentalhealth@knowsley.gov.uk,Knowsley,http://www.knowsley.gov.uk,-2.80109000000000,L35 3PA,2012-02-28,fhrs_5_en-GB,5,,FHRS,0
177559,Esso Garage,Cronton Road,Huyton,Knowsley,Tesco,Retailers - other,4613,5,,220731,0,,53.39826000000000,09/00059/MIXED,412,environmentalhealth@knowsley.gov.uk,Knowsley,http://www.knowsley.gov.uk,-2.81802300000000,L35 1QY,2009-08-06,fhrs_5_en-GB,5,,FHRS,0
177560,4 The Halewood Shopping Centre,Leathers Lane,Halewood,Knowsley,Tesco Express,Retailers - other,4613,0,,457555,0,,,12/00110/MIXED,412,environmentalhealth@knowsley.gov.uk,Knowsley,http://www.knowsley.gov.uk,,L26 0AD,2012-10-16,fhrs_5_en-GB,5,,FHRS,0
177561,29 St Helens Road,Prescot,Knowsley,,Texaco,Retailers - other,4613,5,,220707,5,,53.43098000000000,07/00045/COM,412,environmentalhealth@knowsley.gov.uk,Knowsley,http://www.knowsley.gov.uk,-2.80200500000000,L34 6HN,2012-01-17,fhrs_5_en-GB,5,,FHRS,5
177562,Gale Road,Knowsley Industrial Park,Kirkby,Knowsley,Texaco / Spar,Retailers - other,4613,5,,221021,5,,53.47429300000000,00490/4003/2/000,412,environmentalhealth@knowsley.gov.uk,Knowsley,http://www.knowsley.gov.uk,-2.85559900000000,L33 7YB,2012-02-13,fhrs_4_en-GB,4,,FHRS,10
177563,2 Rusland Road,Kirkby,Knowsley,,The 12 To 5 Club,Other catering premises,7841,10,,220762,0,,53.47214800000000,01113/0002/0/000,412,environmentalhealth@knowsley.gov.uk,Knowsley,http://www.knowsley.gov.uk,-2.88110800000000,L32 6QW,2012-02-22,fhrs_4_en-GB,4,,FHRS,0
177564,The Liverpool Way,Northwood,Knowsley,,The Academy,Restaurant/Cafe/Canteen,1,0,,221158,0,,53.48005100000000,02146/4000/2/000,412,environmentalhealth@knowsley.gov.uk,Knowsley,http://www.knowsley.gov.uk,-2.86980400000000,L33 7ED,2012-02-13,fhrs_5_en-GB,5,,FHRS,0
177565,,,,,The Amazing Mr Meatball,Other catering premises,7841,0,,724014,0,,,14/00205/FOOD,412,environmentalhealth@knowsley.gov.uk,Knowsley,http://www.knowsley.gov.uk,,,2014-12-12,fhrs_5_en-GB,5,,FHRS,0
177566,54 Copplehouse Lane,Fazakerley,Knowsley,,The Better Butty,Takeaway/sandwich shop,7844,20,,220905,15,,53.46734900000000,00280/0054/0/000,412,environmentalhealth@knowsley.gov.uk,Knowsley,http://www.knowsley.gov.uk,-2.91446600000000,L10 0AF,2014-09-29,fhrs_1_en-GB,1,,FHRS,15
177567,,,,,The Big Cake Kitchen,Other catering premises,7841,5,,551209,5,,,13/00089/FOOD,412,environmentalhealth@knowsley.gov.uk,Knowsley,http://www.knowsley.gov.uk,,,2013-05-14,fhrs_5_en-GB,5,,FHRS,5
177568,7-9 Warrington Road,Prescot,Knowsley,,The Big Chippy,Takeaway/sandwich shop,7844,5,,220708,5,,53.43014600000000,01322/1007/0/000,412,environmentalhealth@knowsley.gov.uk,Knowsley,http://www.knowsley.gov.uk,-2.80040900000000,L34 5QX,2013-10-16,fhrs_5_en-GB,5,,FHRS,5
177569,15 Tarbock Road,Huyton,Knowsley,,The Bread Shop,Retailers - other,4613,10,,707416,5,,53.40760500000000,14/00165/FOOD,412,environmentalhealth@knowsley.gov.uk,Knowsley,http://www.knowsley.gov.uk,-2.84681400000000,L36 5XN,2014-10-08,fhrs_4_en-GB,4,,FHRS,5
177570,12 The Halewood Shopping Centre,Leathers Lane,Halewood,Knowsley,The Brunch Box,Restaurant/Cafe/Canteen,1,10,,701049,10,,,14/00154/MIXED,412,environmentalhealth@knowsley.gov.uk,Knowsley,http://www.knowsley.gov.uk,,L26 0AD,2014-09-11,fhrs_4_en-GB,4,,FHRS,0
177571,15 Byron Avenue,Whiston,Knowsley,,The Cabbage Patch,Retailers - other,4613,5,,693882,0,,53.41645700000000,14/00140/FOOD,412,environmentalhealth@knowsley.gov.uk,Knowsley,http://www.knowsley.gov.uk,-2.78946900000000,L35 2YD,2014-08-20,fhrs_5_en-GB,5,,FHRS,0
177572,17 North Mersey Business Park,Knowsley Industrial Park,Kirkby,Knowsley,The Cafe,Restaurant/Cafe/Canteen,1,5,,509054,0,,53.48953800000000,13/00020/MIXED,412,environmentalhealth@knowsley.gov.uk,Knowsley,http://www.knowsley.gov.uk,-2.85052600000000,L33 7UY,2013-02-01,fhrs_5_en-GB,5,,FHRS,0
177573,,,,,The Cake Cavern,Other catering premises,7841,0,,591628,0,,,13/00186/FOOD,412,environmentalhealth@knowsley.gov.uk,Knowsley,http://www.knowsley.gov.uk,,,2013-10-02,fhrs_5_en-GB,5,,FHRS,0
177574,51 Eccleston Street,Prescot,Knowsley,,The Candy Shop,Retailers - other,4613,,,221013,,,53.42963600000000,00413/0051/0/000,412,environmentalhealth@knowsley.gov.uk,Knowsley,http://www.knowsley.gov.uk,-2.80276200000000,L34 5QH,2012-08-01,fhrs_exempt_en-GB,Exempt,,FHRS,
177575,78 St Chads Parade,Kirkby Town Centre,Knowsley,,The Co-Operative,Retailers - supermarkets/hypermarkets,7840,0,,220523,0,,53.48217000000000,01126/0078/0/000,412,environmentalhealth@knowsley.gov.uk,Knowsley,http://www.knowsley.gov.uk,-2.88853400000000,L32 8UG,2012-01-12,fhrs_5_en-GB,5,,FHRS,5
177576,Coopers Lane,Knowsley Industrial Park,Kirkby,Knowsley,The Copper Pot,Pub/bar/nightclub,7843,0,,221156,0,,53.46608900000000,10/00145/MIXED,412,environmentalhealth@knowsley.gov.uk,Knowsley,http://www.knowsley.gov.uk,-2.85273800000000,L33 7UA,2013-03-25,fhrs_5_en-GB,5,,FHRS,5
177577,56 Copplehouse Lane,Fazakerley,Knowsley,,The Corner Store,Retailers - other,4613,10,,221096,5,,53.46734900000000,00280/0056/0/000,412,environmentalhealth@knowsley.gov.uk,Knowsley,http://www.knowsley.gov.uk,-2.91446600000000,L10 0AF,2012-01-22,fhrs_3_en-GB,3,,FHRS,10
177578,Field Lane,Field Lane Estate,Knowsley,,The Cottage Day Nursery,Hospitals/Childcare/Caring Premises,5,5,,537764,5,,53.46836900000000,13/00075/FOOD,412,environmentalhealth@knowsley.gov.uk,Knowsley,http://www.knowsley.gov.uk,-2.91165500000000,L10 0AG,2015-01-08,fhrs_5_en-GB,5,,FHRS,5
177579,Twickenham Drive,Roby,Knowsley,,The Crofters,Pub/bar/nightclub,7843,5,,221085,5,,53.40549500000000,01635/4000/2/000,412,environmentalhealth@knowsley.gov.uk,Knowsley,http://www.knowsley.gov.uk,-2.85280400000000,L36 4QG,2014-02-07,fhrs_5_en-GB,5,,FHRS,5
177580,61 Kemble Street,Prescot,Knowsley,,The Crown Of India,Other catering premises,7841,5,,220805,5,,53.42800800000000,00683/0061/0/000,412,environmentalhealth@knowsley.gov.uk,Knowsley,http://www.knowsley.gov.uk,-2.80157300000000,L34 5SF,2013-09-09,fhrs_5_en-GB,5,,FHRS,5
177581,113 Broad Lane,Southdene,Kirkby,Knowsley,The Dairy,Retailers - other,4613,10,,220815,10,,53.47446900000000,00165/0113/0/000,412,environmentalhealth@knowsley.gov.uk,Knowsley,http://www.knowsley.gov.uk,-2.87594300000000,L32 6QD,2013-08-17,fhrs_3_en-GB,3,,FHRS,10
177582,Okell Drive,Halewood,Knowsley,,The Dales,Pub/bar/nightclub,7843,5,,220631,0,,53.37047400000000,00944/4000/2/000,412,environmentalhealth@knowsley.gov.uk,Knowsley,http://www.knowsley.gov.uk,-2.83121200000000,L26 7YL,2012-01-18,fhrs_5_en-GB,5,,FHRS,0
177583,45 Higher Road,Halewood,Knowsley,,The Ducklings Day Nursery,Hospitals/Childcare/Caring Premises,5,5,,220598,0,,53.36124600000000,00609/0045/0/000,412,environmentalhealth@knowsley.gov.uk,Knowsley,http://www.knowsley.gov.uk,-2.84865900000000,L25 0QG,2015-01-20,fhrs_5_en-GB,5,,FHRS,0
177584,129 Whitefield Drive,Kirkby,Knowsley,,The Fantail,Pub/bar/nightclub,7843,10,,220541,0,,53.47835300000000,01359/0129/0/000,412,environmentalhealth@knowsley.gov.uk,Knowsley,http://www.knowsley.gov.uk,-2.90483300000000,L32 4SX,2012-02-15,fhrs_4_en-GB,4,,FHRS,5
177585,Jaguar Plant,North Road,Halewood,Knowsley,The Fuel Stop,Takeaway/sandwich shop,7844,5,,221033,5,,53.34978700000000,10/00149/FOOD,412,environmentalhealth@knowsley.gov.uk,Knowsley,http://www.knowsley.gov.uk,-2.82528200000000,L24 9LE,2010-08-26,fhrs_5_en-GB,5,,FHRS,0
177586,5 Loweswater Way,Tower Hill,Kirkby,Knowsley,The Full Monty,Restaurant/Cafe/Canteen,1,5,,623979,0,,53.49313900000000,13/00182/MIXED,412,environmentalhealth@knowsley.gov.uk,Knowsley,http://www.knowsley.gov.uk,-2.89295300000000,L33 2DL,2014-01-07,fhrs_5_en-GB,5,,FHRS,5
177587,Unit K10,The Prescot Centre,Eccleston Street,Prescot,The Garden Restaurant,Restaurant/Cafe/Canteen,1,10,,220653,10,,53.42870700000000,09144/4005/2/000,412,environmentalhealth@knowsley.gov.uk,Knowsley,http://www.knowsley.gov.uk,-2.80319600000000,L34 5GA,2013-06-13,fhrs_3_en-GB,3,,FHRS,10
177588,,,,,The Gateway Collective,Other catering premises,7841,5,,220944,5,,,11/00050/COM,412,environmentalhealth@knowsley.gov.uk,Knowsley,http://www.knowsley.gov.uk,,,2014-01-14,fhrs_5_en-GB,5,,FHRS,5
177589,6-10 Newtown Gardens,Kirkby Town Centre,Knowsley,,The Gold Balance,Pub/bar/nightclub,7843,5,,220830,0,,53.48136400000000,00917/0006/2/000,412,environmentalhealth@knowsley.gov.uk,Knowsley,http://www.knowsley.gov.uk,-2.88688900000000,L32 8RR,2011-10-28,fhrs_5_en-GB,5,,FHRS,0
177590,60 Sugar Lane,Knowsley Village,Knowsley,,The Grand Newsagents,Retailers - other,4613,,,220525,,,53.44952700000000,01245/0060/0/000,412,environmentalhealth@knowsley.gov.uk,Knowsley,http://www.knowsley.gov.uk,-2.85210500000000,L34 0ER,2008-02-13,fhrs_exempt_en-GB,Exempt,,FHRS,
177591,52 Camberley Drive,Halewood,Knowsley,Merseyside,The Grenadier,Pub/bar/nightclub,7843,0,,220884,5,,53.36717300000000,00202/0052/0/000,412,environmentalhealth@knowsley.gov.uk,Knowsley,http://www.knowsley.gov.uk,-2.85188800000000,L25 9PU,2012-01-18,fhrs_5_en-GB,5,,FHRS,0
177592,109 Broad Lane,Kirkby,Knowsley,,The Grog Shop,Retailers - other,4613,,,220982,,,53.47446900000000,00165/0109/0/000,412,environmentalhealth@knowsley.gov.uk,Knowsley,http://www.knowsley.gov.uk,-2.87594300000000,L32 6QD,2009-06-25,fhrs_exempt_en-GB,Exempt,,FHRS,
177593,21 Richard Hesketh Drive,Kirkby,Knowsley,,The Grog Shop 2,Retailers - other,4613,,,220728,,,53.48153400000000,01079/0021/0/000,412,environmentalhealth@knowsley.gov.uk,Knowsley,http://www.knowsley.gov.uk,-2.90377000000000,L32 0TU,2008-04-16,fhrs_exempt_en-GB,Exempt,,FHRS,
177594,Cables Retail Park,Steley Way,Prescot,Knowsley,The In Store,Retailers - other,4613,,,220604,,,53.42681600000000,09242/4012/2/000,412,environmentalhealth@knowsley.gov.uk,Knowsley,http://www.knowsley.gov.uk,-2.80105300000000,L34 5NQ,2011-01-22,fhrs_exempt_en-GB,Exempt,,FHRS,
177595,102 Liverpool Road,Huyton,Knowsley,,The Local,Retailers - other,4613,,,220804,,,53.42106900000000,00771/0102/0/000,412,environmentalhealth@knowsley.gov.uk,Knowsley,http://www.knowsley.gov.uk,-2.86330300000000,L36 3RF,2009-08-03,fhrs_exempt_en-GB,Exempt,,FHRS,
177596,2 Gentwood Parade,Kingsway,Huyton,Knowsley,The Local,Retailers - other,4613,,,220887,,,53.41933900000000,09050/0002/0/000,412,environmentalhealth@knowsley.gov.uk,Knowsley,http://www.knowsley.gov.uk,-2.85147100000000,L36 2QB,2008-02-13,fhrs_exempt_en-GB,Exempt,,FHRS,
177597,6 Wood Road,Halewood,Knowsley,,The Local,Retailers - other,4613,,,220930,,,53.36071800000000,09/00005/MIXED,412,environmentalhealth@knowsley.gov.uk,Knowsley,http://www.knowsley.gov.uk,-2.83808500000000,L26 1UZ,2009-07-28,fhrs_exempt_en-GB,Exempt,,FHRS,
177598,216 Whitefield Drive,Kirkby,Knowsley,,The Mariners Inn,Pub/bar/nightclub,7843,5,,220634,5,,53.48364100000000,01359/0216/0/000,412,environmentalhealth@knowsley.gov.uk,Knowsley,http://www.knowsley.gov.uk,-2.90444800000000,L32 0RE,2012-07-19,fhrs_5_en-GB,5,,FHRS,5
177599,1 Kirkby Market,Market Square,Kirkby Town Centre,Knowsley,The Market Cafe,Restaurant/Cafe/Canteen,1,0,,731097,0,,53.48198400000000,15/00010/FOOD,412,environmentalhealth@knowsley.gov.uk,Knowsley,http://www.knowsley.gov.uk,-2.88569700000000,L32 8RG,2015-01-20,fhrs_5_en-GB,5,,FHRS,0
177600,The Old School House,St Johns Road,Huyton,Knowsley,The Mixing Bowl,Restaurant/Cafe/Canteen,1,10,,220547,5,,53.40584800000000,12/00006/HS,412,environmentalhealth@knowsley.gov.uk,Knowsley,http://www.knowsley.gov.uk,-2.83343600000000,L36 0UX,2013-08-20,fhrs_4_en-GB,4,,FHRS,5
177601,Westhead Avenue,Kirkby,Knowsley,,The Molyneux,Pub/bar/nightclub,7843,10,,220818,5,,53.47971000000000,01349/4000/2/000,412,environmentalhealth@knowsley.gov.uk,Knowsley,http://www.knowsley.gov.uk,-2.87472500000000,L33 0XE,2012-02-15,fhrs_4_en-GB,4,,FHRS,5
177602,601 Princess Drive,Huyton,Knowsley,,The Old Bank,Restaurant/Cafe/Canteen,1,0,,220718,5,,53.42352900000000,01043/0601/0/000,412,environmentalhealth@knowsley.gov.uk,Knowsley,http://www.knowsley.gov.uk,-2.86132100000000,L14 9ND,2012-01-17,fhrs_5_en-GB,5,,FHRS,0
177603,8 Mill Street,Prescot,Knowsley,,The Old Mill,Pub/bar/nightclub,7843,0,,220898,5,,53.42937700000000,00866/0008/0/000,412,environmentalhealth@knowsley.gov.uk,Knowsley,http://www.knowsley.gov.uk,-2.80515000000000,L34 6HA,2013-01-11,fhrs_4_en-GB,4,,FHRS,10
177604,Hillside Neighbourhood Centre,Hillside Avenue,Huyton,Knowsley,The Old Roundabout,Retailers - other,4613,10,,220514,5,,53.42685000000000,11/00029/MIXED,412,environmentalhealth@knowsley.gov.uk,Knowsley,http://www.knowsley.gov.uk,-2.84564600000000,L36 8DS,2013-06-14,fhrs_4_en-GB,4,,FHRS,5
177605,The Orchard,Huyton,Knowsley,,The Orchard Day Nursery,Hospitals/Childcare/Caring Premises,5,0,,220690,0,,53.40918700000000,01264/4000/2/000,412,environmentalhealth@knowsley.gov.uk,Knowsley,http://www.knowsley.gov.uk,-2.84045200000000,L36 5UZ,2014-10-10,fhrs_5_en-GB,5,,FHRS,0
177606,The Orchard,Huyton,Knowsley,,The Orchard Nursing Home,Hospitals/Childcare/Caring Premises,5,5,,221080,0,,53.40884500000000,01264/4003/2/000,412,environmentalhealth@knowsley.gov.uk,Knowsley,http://www.knowsley.gov.uk,-2.84049000000000,L36 5UY,2014-10-28,fhrs_5_en-GB,5,,FHRS,0
177607,The Orchard,Huyton,Knowsley,,The Orchard Residential Home,Hospitals/Childcare/Caring Premises,5,10,,220810,10,,53.40884500000000,08/00048/MIXED,412,environmentalhealth@knowsley.gov.uk,Knowsley,http://www.knowsley.gov.uk,-2.84049000000000,L36 5UY,2014-04-11,fhrs_3_en-GB,3,,FHRS,10
177608,22 Park Brow Drive,Kirkby,Knowsley,,The Park Brow,Pub/bar/nightclub,7843,10,,220854,0,,53.47451000000000,00981/0022/0/000,412,environmentalhealth@knowsley.gov.uk,Knowsley,http://www.knowsley.gov.uk,-2.87648600000000,L32 6QP,2012-02-15,fhrs_4_en-GB,4,,FHRS,5
177609,Bigdale Drive,Northwood,Kirkby,Knowsley,The Peacock Hotel,Pub/bar/nightclub,7843,10,,220826,5,,53.48572000000000,00110/4005/2/000,412,environmentalhealth@knowsley.gov.uk,Knowsley,http://www.knowsley.gov.uk,-2.87516500000000,L33 6XJ,2012-02-15,fhrs_4_en-GB,4,,FHRS,5
177610,Jaguar Plant,North Road,Halewood,Knowsley,The Pit Stop,Takeaway/sandwich shop,7844,0,,221163,0,,53.34978700000000,10/00150/FOOD,412,environmentalhealth@knowsley.gov.uk,Knowsley,http://www.knowsley.gov.uk,-2.82528200000000,L24 9LE,2013-11-22,fhrs_5_en-GB,5,,FHRS,0
177611,44-45 Marled Hey,Stockbridge Village,Knowsley,,The Ploughman,Pub/bar/nightclub,7843,5,,220986,5,,53.43560200000000,01572/0044/0/000,412,environmentalhealth@knowsley.gov.uk,Knowsley,http://www.knowsley.gov.uk,-2.87103400000000,L28 0QL,2007-11-26,fhrs_5_en-GB,5,,FHRS,5
177612,60 St Chads Parade,Kirkby Town Centre,Knowsley,,The Pound Bakery & Cafe,Restaurant/Cafe/Canteen,1,5,,220636,0,,53.48217000000000,01126/0060/0/000,412,environmentalhealth@knowsley.gov.uk,Knowsley,http://www.knowsley.gov.uk,-2.88853400000000,L32 8UG,2013-06-14,fhrs_5_en-GB,5,,FHRS,5
177613,15-17 Market Square,Kirkby Town Centre,Knowsley,,The Premier,Pub/bar/nightclub,7843,10,,221019,10,,53.48198400000000,00830/0015/0/000,412,environmentalhealth@knowsley.gov.uk,Knowsley,http://www.knowsley.gov.uk,-2.88569700000000,L32 8RG,2010-03-04,fhrs_3_en-GB,3,,FHRS,10
177614,11 Manor Complex,Kirkby Bank Road,Knowsley Industrial Park,Kirkby,The Raj,Takeaway/sandwich shop,7844,20,,668812,10,,53.48102800000000,14/00095/MIXED,412,environmentalhealth@knowsley.gov.uk,Knowsley,http://www.knowsley.gov.uk,-2.85660900000000,L33 7SY,2014-05-29,fhrs_1_en-GB,1,,FHRS,10
177615,SQOOLOO,Dixon Road,Knowsley Industrial Park,Kirkby,The Roundabout Cafe,Restaurant/Cafe/Canteen,1,,,715363,,,53.47533100000000,14/00192/FOOD,412,environmentalhealth@knowsley.gov.uk,Knowsley,http://www.knowsley.gov.uk,-2.86631800000000,L33 7XP,,fhrs_awaitinginspection_en-GB,AwaitingInspection,,FHRS,
177616,SQOOLOO,Dixon Road,Knowsley Industrial Park,Kirkby,The Roundabout Cafe,Restaurant/Cafe/Canteen,1,5,,631969,0,,53.47533100000000,13/00197/FOOD,412,environmentalhealth@knowsley.gov.uk,Knowsley,http://www.knowsley.gov.uk,-2.86631800000000,L33 7XP,2014-02-05,fhrs_5_en-GB,5,,FHRS,5
177617,50 James Holt Avenue,Westvale,Kirkby,Knowsley,The Store,Retailers - other,4613,10,,220640,15,,53.47897100000000,00669/0050/0/000,412,environmentalhealth@knowsley.gov.uk,Knowsley,http://www.knowsley.gov.uk,-2.89793000000000,L32 5TE,2014-12-29,fhrs_2_en-GB,2,,FHRS,10
177618,4 The Moorfields Centre,Tower Hill,Kirkby,Knowsley,The Sweet Shop,Retailers - other,4613,,,220903,,,53.49861100000000,07/00153/COM,412,environmentalhealth@knowsley.gov.uk,Knowsley,http://www.knowsley.gov.uk,-2.87989300000000,L33 1DF,2009-08-06,fhrs_exempt_en-GB,Exempt,,FHRS,
177619,St Johns Road,Huyton,Knowsley,,The Sylvester Primary School,School/college/university,7845,,,220758,,,53.40584800000000,01134/4001/2/000,412,environmentalhealth@knowsley.gov.uk,Knowsley,http://www.knowsley.gov.uk,-2.83343600000000,L36 0UX,,fhrs_awaitinginspection_en-GB,AwaitingInspection,,FHRS,
177620,,,,,The Talking Bee,Retailers - other,4613,10,,586656,5,,,13/00175/FOOD,412,environmentalhealth@knowsley.gov.uk,Knowsley,http://www.knowsley.gov.uk,,,2013-09-13,fhrs_4_en-GB,4,,FHRS,5
177621,197 Warrington Road,Prescot,Knowsley,,The Vanilla Pod Cafe,Restaurant/Cafe/Canteen,1,5,,719651,5,,53.42349300000000,14/00162/MIXED,412,environmentalhealth@knowsley.gov.uk,Knowsley,http://www.knowsley.gov.uk,-2.78839500000000,L35 5AF,2014-11-26,fhrs_4_en-GB,4,,FHRS,10
177622,Civic Way,Huyton,Knowsley,,The Venue,Restaurant/Cafe/Canteen,1,0,,221100,0,,53.41074300000000,01869/4001/2/000,412,environmentalhealth@knowsley.gov.uk,Knowsley,http://www.knowsley.gov.uk,-2.84292000000000,L36 9US,2014-02-28,fhrs_5_en-GB,5,,FHRS,5
177623,Haswell Drive,Stockbridge Village,Knowsley,,The Village Inn,Pub/bar/nightclub,7843,5,,220605,10,,53.43589700000000,00580/4000/2/000,412,environmentalhealth@knowsley.gov.uk,Knowsley,http://www.knowsley.gov.uk,-2.86009600000000,L28 5RY,2009-10-19,fhrs_3_en-GB,3,,FHRS,10
177624,1 Hampton Drive,Cronton,Knowsley,,The Village Store,Retailers - other,4613,10,,220983,5,,53.39063500000000,00568/0001/0/000,412,environmentalhealth@knowsley.gov.uk,Knowsley,http://www.knowsley.gov.uk,-2.76266100000000,WA8 5BZ,2011-12-02,fhrs_3_en-GB,3,,FHRS,10
177625,60 - 62 Eccleston Street,Prescot,Knowsley,,The Watchmaker,Pub/bar/nightclub,7843,5,,369052,5,,53.42952300000000,11/00067/MIXED,412,environmentalhealth@knowsley.gov.uk,Knowsley,http://www.knowsley.gov.uk,-2.80206800000000,L34 5QL,2012-05-04,fhrs_5_en-GB,5,,FHRS,0
177626,Domingo Drive,Kirkby,Knowsley,,The Windmill,Pub/bar/nightclub,7843,10,,220715,10,,53.49382000000000,01712/4001/2/000,412,environmentalhealth@knowsley.gov.uk,Knowsley,http://www.knowsley.gov.uk,-2.89084200000000,L33 1ZN,2006-09-01,fhrs_4_en-GB,4,,FHRS,0
177627,Thingwall Lane,Roby,Knowsley,,Thingwall Hall (Brothers Of Charity),Hospitals/Childcare/Caring Premises,5,5,,220721,0,,53.41243800000000,01283/4000/2/000,412,environmentalhealth@knowsley.gov.uk,Knowsley,http://www.knowsley.gov.uk,-2.88811700000000,L14 7NZ,2013-09-09,fhrs_5_en-GB,5,,FHRS,5
177628,,,,,Thomas Birch,Other catering premises,7841,10,,554871,5,,,13/00110/FOOD,412,environmentalhealth@knowsley.gov.uk,Knowsley,http://www.knowsley.gov.uk,,,2013-06-05,fhrs_4_en-GB,4,,FHRS,5
177629,2 Simonswood Lane,Kirkby,Knowsley,,Tiger Tots Nursery,Hospitals/Childcare/Caring Premises,5,0,,220859,0,,53.47882500000000,01192/0002/0/000,412,environmentalhealth@knowsley.gov.uk,Knowsley,http://www.knowsley.gov.uk,-2.87285300000000,L33 5YP,2014-01-28,fhrs_5_en-GB,5,,FHRS,0
177630,12 Church Street,Prescot,Knowsley,,Tii House,Restaurant/Cafe/Canteen,1,5,,221181,10,,53.42883900000000,01432/0012/0/000,412,environmentalhealth@knowsley.gov.uk,Knowsley,http://www.knowsley.gov.uk,-2.80619400000000,L34 3LA,2013-11-21,fhrs_4_en-GB,4,,FHRS,5
177631,66 Hillside Road,Huyton,Knowsley,,To Le,Takeaway/sandwich shop,7844,10,,220508,5,,53.42405000000000,00619/0066/0/000,412,environmentalhealth@knowsley.gov.uk,Knowsley,http://www.knowsley.gov.uk,-2.83728400000000,L36 8BJ,2014-09-11,fhrs_4_en-GB,4,,FHRS,5
177632,10 Warrington Road,Prescot,Knowsley,,Tommy Halls,Pub/bar/nightclub,7843,10,,220829,5,,53.42987200000000,01322/0010/0/000,412,environmentalhealth@knowsley.gov.uk,Knowsley,http://www.knowsley.gov.uk,-2.80102100000000,L34 5RB,2011-08-01,fhrs_3_en-GB,3,,FHRS,10
177633,87 Kennelwood Avenue,Northwood,Kirkby,Knowsley,Tony Wongs,Takeaway/sandwich shop,7844,5,,220781,10,,53.48772800000000,00689/0087/0/000,412,environmentalhealth@knowsley.gov.uk,Knowsley,http://www.knowsley.gov.uk,-2.87710500000000,L33 6UE,2013-07-23,fhrs_4_en-GB,4,,FHRS,5
177634,Getrag Ford Transmission,North Road,Halewood,Knowsley,Top Gear Restaurant,Restaurant/Cafe/Canteen,1,0,,220572,5,,53.34954000000000,08/00001/FOOD,412,environmentalhealth@knowsley.gov.uk,Knowsley,http://www.knowsley.gov.uk,-2.83744500000000,L24 9BJ,2014-03-19,fhrs_5_en-GB,5,,FHRS,5
177635,The Total Complex,Overbrook Lane,Knowsley Business Park,Knowsley,Total Glass Ltd,Restaurant/Cafe/Canteen,1,10,,220585,10,,53.46047400000000,02047/4010/2/000,412,environmentalhealth@knowsley.gov.uk,Knowsley,http://www.knowsley.gov.uk,-2.85734000000000,L34 9FB,2014-03-25,fhrs_2_en-GB,2,,FHRS,15
177636,Stockbridge Village Primary School,The Withens,Stockbridge Village,Knowsley,Tree Tots Nursery,School/college/university,7845,0,,220651,0,,53.43691000000000,11/00055/FOOD,412,environmentalhealth@knowsley.gov.uk,Knowsley,http://www.knowsley.gov.uk,-2.86764400000000,L28 1AB,2014-11-25,fhrs_5_en-GB,5,,FHRS,0
177637,Liverpool Road,Huyton,Knowsley,,Trinity Church Hall,Other catering premises,7841,10,,220522,5,,53.42106900000000,00771/4006/2/000,412,environmentalhealth@knowsley.gov.uk,Knowsley,http://www.knowsley.gov.uk,-2.86330300000000,L36 3RF,2007-05-14,fhrs_3_en-GB,3,,FHRS,10
177638,36 Wilson Road,Huyton,Knowsley,,Truly Scrumptious,Restaurant/Cafe/Canteen,1,0,,482126,5,,53.40089700000000,12/00117/MIXED,412,environmentalhealth@knowsley.gov.uk,Knowsley,http://www.knowsley.gov.uk,-2.81616300000000,L36 6AD,2012-11-12,fhrs_5_en-GB,5,,FHRS,0
177639,Stall 49,Kirkby Market,Market Square,Kirkby,Tubbies,Retailers - other,4613,,,220938,,,53.48198400000000,08/00009/MIXED,412,environmentalhealth@knowsley.gov.uk,Knowsley,http://www.knowsley.gov.uk,-2.88569700000000,L32 8RG,2008-02-01,fhrs_exempt_en-GB,Exempt,,FHRS,
177640,405 Cronton Road,Cronton,Knowsley,,Unicorn Inn,Pub/bar/nightclub,7843,5,,220524,10,,53.38014000000000,00316/0405/0/000,412,environmentalhealth@knowsley.gov.uk,Knowsley,http://www.knowsley.gov.uk,-2.73929300000000,WA8 9QF,2014-01-29,fhrs_4_en-GB,4,,FHRS,5
177641,15 Chapel Street,Prescot,Knowsley,,Uno Pizza,Takeaway/sandwich shop,7844,10,,220533,10,,53.43010400000000,07/00323/FOOD,412,environmentalhealth@knowsley.gov.uk,Knowsley,http://www.knowsley.gov.uk,-2.80262000000000,L34 5QR,2014-03-13,fhrs_3_en-GB,3,,FHRS,10
177642,Moorgate Road,Kirkby,Knowsley,,Vertex - Mitie,Restaurant/Cafe/Canteen,1,0,,220813,0,,53.47186300000000,00888/4008/2/000,412,environmentalhealth@knowsley.gov.uk,Knowsley,http://www.knowsley.gov.uk,-2.86728700000000,L33 7RX,2012-02-13,fhrs_5_en-GB,5,,FHRS,0
177643,Village Hotel & Leisure Club,Fallows Way,Whiston,Knowsley,Vibe Cafe,Restaurant/Cafe/Canteen,1,0,,220790,5,,53.40389500000000,01617/4003/3/000,412,environmentalhealth@knowsley.gov.uk,Knowsley,http://www.knowsley.gov.uk,-2.81154300000000,L35 1RZ,2013-01-30,fhrs_5_en-GB,5,,FHRS,5
177644,30 Pine Tree Road,Huyton,Knowsley,,Victoria Rose,Other catering premises,7841,5,,220635,0,,53.40364800000000,11/00038/FOOD,412,environmentalhealth@knowsley.gov.uk,Knowsley,http://www.knowsley.gov.uk,-2.84834500000000,L36 5YA,2012-01-20,fhrs_5_en-GB,5,,FHRS,0
177645,Stall 26,Kirkby Market,Market Square,Kirkby,Village Cakes,Retailers - other,4613,0,,220932,0,,53.48198400000000,07/00419/FOOD,412,environmentalhealth@knowsley.gov.uk,Knowsley,http://www.knowsley.gov.uk,-2.88569700000000,L32 8RG,2012-02-07,fhrs_5_en-GB,5,,FHRS,0
177646,1 The Croft,Stockbridge Village,Knowsley,,Village Chippy,Takeaway/sandwich shop,7844,20,,220771,15,,53.43555600000000,01701/0001/0/000,412,environmentalhealth@knowsley.gov.uk,Knowsley,http://www.knowsley.gov.uk,-2.86876000000000,L28 1NR,2014-11-25,fhrs_1_en-GB,1,,FHRS,10
177647,Fallows Way,Whiston,Knowsley,,Village Hotel And Leisure,Hotel/bed & breakfast/guest house,7842,5,,220597,0,,53.40389500000000,01617/2002/2/000,412,environmentalhealth@knowsley.gov.uk,Knowsley,http://www.knowsley.gov.uk,-2.81154300000000,L35 1RZ,2014-05-22,fhrs_5_en-GB,5,,FHRS,5
177648,27 St Chads Parade,Kirkby Town Centre,Knowsley,,Waterfields,Retailers - other,4613,0,,220997,0,,53.48217000000000,01126/0027/0/000,412,environmentalhealth@knowsley.gov.uk,Knowsley,http://www.knowsley.gov.uk,-2.88853400000000,L32 8UG,2012-02-04,fhrs_5_en-GB,5,,FHRS,0
177649,61 Derby Road,Huyton,Knowsley,,Waterfields,Retailers - other,4613,0,,220998,0,,53.41127400000000,00364/0061/0/000,412,environmentalhealth@knowsley.gov.uk,Knowsley,http://www.knowsley.gov.uk,-2.83897300000000,L36 9UQ,2013-07-30,fhrs_5_en-GB,5,,FHRS,0
177650,6A Greenes Road,Whiston,Knowsley,,Waterfields,Retailers - other,4613,5,,221071,0,,53.41242600000000,00530/0006/A/000,412,environmentalhealth@knowsley.gov.uk,Knowsley,http://www.knowsley.gov.uk,-2.80213700000000,L35 3RF,2013-08-09,fhrs_4_en-GB,4,,FHRS,10
177651,9 - 11 Eccleston Street,Prescot,Knowsley,,Waterfields,Restaurant/Cafe/Canteen,1,5,,221092,0,,53.42916500000000,00413/0009/2/000,412,environmentalhealth@knowsley.gov.uk,Knowsley,http://www.knowsley.gov.uk,-2.80458900000000,L34 5QA,2013-08-16,fhrs_4_en-GB,4,,FHRS,10
177652,6 Rimmer Avenue,Roby,Knowsley,,Wendys Outside Catering,Other catering premises,7841,10,,220940,10,,53.40651700000000,01081/0006/0/000,412,environmentalhealth@knowsley.gov.uk,Knowsley,http://www.knowsley.gov.uk,-2.87307200000000,L16 2NG,2014-02-27,fhrs_3_en-GB,3,,FHRS,10
177653,Melverley Road,Kirkby,Knowsley,,Westvale Primary School,School/college/university,7845,0,,220749,0,,53.48277200000000,00849/4000/2/000,412,environmentalhealth@knowsley.gov.uk,Knowsley,http://www.knowsley.gov.uk,-2.90647900000000,L32 0RQ,2015-01-13,fhrs_5_en-GB,5,,FHRS,0
177654,Richard Hesketh Drive,Westvale,Kirkby,Knowsley,Westvale Service Station,Retailers - other,4613,20,,220756,10,,53.48100000000000,07/00046/COM,412,environmentalhealth@knowsley.gov.uk,Knowsley,http://www.knowsley.gov.uk,-2.90421100000000,L32 0TZ,2012-02-12,fhrs_1_en-GB,1,,FHRS,15
177655,Jaguar Plant,North Road,Halewood,Knowsley,WH Smith Express,Retailers - other,4613,5,,623980,0,,53.34978700000000,13/00241/MIXED,412,environmentalhealth@knowsley.gov.uk,Knowsley,http://www.knowsley.gov.uk,-2.82528200000000,L24 9LE,2013-11-22,fhrs_5_en-GB,5,,FHRS,0
177656,Whiston Hospital,Warrington Road,Whiston,Knowsley,WH Smith Travel,Retailers - other,4613,0,,221062,0,,53.42082100000000,10/00050/MIXED,412,environmentalhealth@knowsley.gov.uk,Knowsley,http://www.knowsley.gov.uk,-2.78602900000000,L35 5DR,2012-02-17,fhrs_5_en-GB,5,,FHRS,0
177657,Whiston Hospital,Warrington Road,Whiston,Knowsley,Whiston Hospital - Patient Feed Services,Hospitals/Childcare/Caring Premises,5,0,,220972,0,,53.42082100000000,09342/4003/2/000,412,environmentalhealth@knowsley.gov.uk,Knowsley,http://www.knowsley.gov.uk,-2.78602900000000,L35 5DR,2013-10-03,fhrs_5_en-GB,5,,FHRS,0
177658,Paradise Lane,Whiston,Knowsley,,Whiston Social Club,Pub/bar/nightclub,7843,5,,220697,0,,53.41055800000000,00977/4000/2/000,412,environmentalhealth@knowsley.gov.uk,Knowsley,http://www.knowsley.gov.uk,-2.80330500000000,L35 3RZ,2012-01-18,fhrs_5_en-GB,5,,FHRS,0
177659,Weyman Avenue,Whiston,Knowsley,,Whiston Willis Community Primary School,School/college/university,7845,0,,221055,5,,53.41469800000000,01354/4000/2/000,412,environmentalhealth@knowsley.gov.uk,Knowsley,http://www.knowsley.gov.uk,-2.79164800000000,L35 2YN,2014-02-25,fhrs_5_en-GB,5,,FHRS,5
177660,Liverpool Road,Prescot,Knowsley,,Whitakers Garden Centre,Restaurant/Cafe/Canteen,1,5,,220561,5,,53.42908600000000,00772/4000/2/000,412,environmentalhealth@knowsley.gov.uk,Knowsley,http://www.knowsley.gov.uk,-2.81623700000000,L34 3LX,2012-11-20,fhrs_5_en-GB,5,,FHRS,0
177661,56-58 Church Road,Roby,Knowsley,,Whitestone Lodge,Hospitals/Childcare/Caring Premises,5,5,,220992,0,,53.41296100000000,00255/0056/0/000,412,environmentalhealth@knowsley.gov.uk,Knowsley,http://www.knowsley.gov.uk,-2.85465300000000,L36 9TP,2014-04-11,fhrs_5_en-GB,5,,FHRS,0
177662,20 Cavendish Walk,Derby Road,Huyton,Knowsley,Wilkinson,Retailers - other,4613,0,,220889,0,,53.41262000000000,06/00020/MIXED,412,environmentalhealth@knowsley.gov.uk,Knowsley,http://www.knowsley.gov.uk,-2.83928600000000,L36 9YG,2012-01-28,fhrs_5_en-GB,5,,FHRS,0
177663,168 Dragon Lane,Whiston,Knowsley,,Willow House,Other catering premises,7841,0,,220916,0,,53.41555600000000,00388/0168/0/000,412,environmentalhealth@knowsley.gov.uk,Knowsley,http://www.knowsley.gov.uk,-2.79650900000000,L35 3QY,2012-03-05,fhrs_5_en-GB,5,,FHRS,0
177664,19 Richard Hesketh Drive,Westvale,Kirkby,Knowsley,Wok's Cooking,Takeaway/sandwich shop,7844,10,,702504,10,,53.48157700000000,14/00142/FOOD,412,environmentalhealth@knowsley.gov.uk,Knowsley,http://www.knowsley.gov.uk,-2.90401200000000,L32 0TU,2014-09-16,fhrs_3_en-GB,3,,FHRS,5
177665,Jaguar Plant,North Road,Halewood,Knowsley,Y2 Kitchen,Other catering premises,7841,0,,611277,0,,53.34954000000000,13/00140/MIXED,412,environmentalhealth@knowsley.gov.uk,Knowsley,http://www.knowsley.gov.uk,-2.83744500000000,L24 9BJ,2013-11-22,fhrs_5_en-GB,5,,FHRS,0
177666,Yardley Road,Knowsley Industrial Park,Kirkby,Knowsley,Yardley Road Breakfast Bar,Mobile caterer,7846,10,,220843,10,,53.47892400000000,11/00026/FOOD,412,environmentalhealth@knowsley.gov.uk,Knowsley,http://www.knowsley.gov.uk,-2.85664200000000,L33 7SS,2013-11-12,fhrs_3_en-GB,3,,FHRS,5
177667,48 Eccleston Street,Prescot,Knowsley,,Yates Greer,Retailers - other,4613,0,,220649,0,,53.42919100000000,00413/0048/0/000,412,environmentalhealth@knowsley.gov.uk,Knowsley,http://www.knowsley.gov.uk,-2.80343100000000,L34 5QJ,2014-05-28,fhrs_5_en-GB,5,,FHRS,0
177668,73 Derby Road,Huyton,Knowsley,,Yes Coffee Ltd,Restaurant/Cafe/Canteen,1,10,,221000,10,,53.41127400000000,07/00169/COM,412,environmentalhealth@knowsley.gov.uk,Knowsley,http://www.knowsley.gov.uk,-2.83897300000000,L36 9UQ,2013-04-11,fhrs_3_en-GB,3,,FHRS,10
177669,Yew Tree Farm,325 Lower Road,Halewood,Knowsley,Yew Tree Coffee Barn,Restaurant/Cafe/Canteen,1,5,,576272,0,,53.36301200000000,13/00160/FOOD,412,environmentalhealth@knowsley.gov.uk,Knowsley,http://www.knowsley.gov.uk,-2.81055500000000,L26 3UA,2013-07-30,fhrs_5_en-GB,5,,FHRS,0
177670,The Avenue,Halewood,Knowsley,,Yew Tree Community Primary School,School/college/university,7845,0,,220584,0,,53.36174800000000,11/00053/FOOD,412,environmentalhealth@knowsley.gov.uk,Knowsley,http://www.knowsley.gov.uk,-2.83855600000000,L26 1UU,2014-03-14,fhrs_5_en-GB,5,,FHRS,0
177671,325 Lower Road,Halewood,Knowsley,Merseyside,Yew Tree Farm,Retailers - other,4613,10,,221124,0,,53.36301200000000,00791/0325/0/000,412,environmentalhealth@knowsley.gov.uk,Knowsley,http://www.knowsley.gov.uk,-2.81055500000000,L26 3UA,2012-02-04,fhrs_4_en-GB,4,,FHRS,10
177672,1 Capper Grove,Huyton,Knowsley,,Yew Trees Day Care Centre,Other catering premises,7841,5,,220909,5,,53.41458100000000,01675/0001/0/000,412,environmentalhealth@knowsley.gov.uk,Knowsley,http://www.knowsley.gov.uk,-2.83914400000000,L36 7YT,2010-10-14,fhrs_5_en-GB,5,,FHRS,5
177673,,,,,Yummyness,Other catering premises,7841,5,,668805,0,,,14/00086/FOOD,412,environmentalhealth@knowsley.gov.uk,Knowsley,http://www.knowsley.gov.uk,,,2014-05-01,fhrs_5_en-GB,5,,FHRS,0
177674,1 Loweswater Way,Kirkby,Knowsley,,Zhejiang Garden Takeaway,Takeaway/sandwich shop,7844,5,,220934,5,,53.49313900000000,00792/0001/0/000,412,environmentalhealth@knowsley.gov.uk,Knowsley,http://www.knowsley.gov.uk,-2.89295300000000,L33 2DL,2013-06-13,fhrs_4_en-GB,4,,FHRS,10
177675,80 Kemble Street,Prescot,Knowsley,,Zion Methodist Church Hall (Foodbank),Retailers - other,4613,10,,577539,5,,53.42766700000000,12/00123/COM,412,environmentalhealth@knowsley.gov.uk,Knowsley,http://www.knowsley.gov.uk,-2.80138600000000,L34 5SH,2013-07-26,fhrs_4_en-GB,4,,FHRS,5
