,addressline1,addressline2,addressline3,addressline4,businessname,businesstype,businesstypeid,confidenceinmanagement,extractdate,fhrsid,hygiene,itemcount,latitude,localauthoritybusinessid,localauthoritycode,localauthorityemailaddress,localauthorityname,localauthoritywebsite,longitude,postcode,ratingdate,ratingkey,ratingvalue,returncode,schemetype,structural
127882,178-180 High Street,Sutton,,,99p Stores,Retailers - other,4613,20,,641214,20,,51.36530600000000,11/00078/COM,529,brs@sutton.gov.uk,Sutton,http://www.sutton.gov.uk,-0.19354200000000,SM1 1NL,2014-02-19,fhrs_0_en-GB,0,,FHRS,25
127883,137-141 Glastonbury Road,Morden,,,Abbey Primary School Kitchen,Restaurant/Cafe/Canteen,1,0,,570931,5,,51.38460800000000,05358/0139/2/000,529,brs@sutton.gov.uk,Sutton,http://www.sutton.gov.uk,-0.19907700000000,SM4 6NY,2014-01-16,fhrs_5_en-GB,5,,FHRS,5
127884,82 Mulgrave Road,Sutton,,,Abbeyfield,Hospitals/Childcare/Caring Premises,5,5,,632116,5,,51.35787900000000,06625/0082/2/000,529,brs@sutton.gov.uk,Sutton,http://www.sutton.gov.uk,-0.20003900000000,SM2 6LZ,2014-02-10,fhrs_4_en-GB,4,,FHRS,10
127885,82 York Road,Cheam,,,Abbeyfield,Hospitals/Childcare/Caring Premises,5,0,,553481,5,,51.34899700000000,06952/0082/2/000,529,brs@sutton.gov.uk,Sutton,http://www.sutton.gov.uk,-0.20492500000000,SM2 6HJ,2013-05-20,fhrs_5_en-GB,5,,FHRS,0
127886,107-109 Woodcote Road,Wallington,,,Abbeyfield House,Hospitals/Childcare/Caring Premises,5,5,,570920,5,,51.35077600000000,04779/0107/2/000,529,brs@sutton.gov.uk,Sutton,http://www.sutton.gov.uk,-0.14762700000000,SM6 0QA,2014-12-30,fhrs_5_en-GB,5,,FHRS,5
127887,27 High Street,Sutton,,,Afters,Restaurant/Cafe/Canteen,1,20,,641224,10,,51.36068200000000,14/00020/COM,529,brs@sutton.gov.uk,Sutton,http://www.sutton.gov.uk,-0.19228800000000,SM1 1DJ,2014-02-26,fhrs_1_en-GB,1,,FHRS,10
127888,St Pauls Ecumenical Church,Mollison Drive,Wallington,,Age Concern And St Paul's Lunch Club,Restaurant/Cafe/Canteen,1,5,,570923,5,,51.35310500000000,05/00069/COM,529,brs@sutton.gov.uk,Sutton,http://www.sutton.gov.uk,-0.13406200000000,SM6 9HG,2013-07-01,fhrs_4_en-GB,4,,FHRS,10
127889,145 Stafford Road,Wallington,,,Akash,Restaurant/Cafe/Canteen,1,10,,481957,10,,51.35911100000000,04703/0145/3/001,529,brs@sutton.gov.uk,Sutton,http://www.sutton.gov.uk,-0.14077000000000,SM6 9BN,2013-12-19,fhrs_3_en-GB,3,,FHRS,5
127890,6 Green Wrythe Lane,Carshalton,,,Al Verde,Restaurant/Cafe/Canteen,1,10,,395891,10,,51.37246600000000,12/00091/COM,529,brs@sutton.gov.uk,Sutton,http://www.sutton.gov.uk,-0.16760000000000,SM5 2DW,2014-12-22,fhrs_3_en-GB,3,,FHRS,10
127891,2 Hill Road,Sutton,,,All Bar One,Pub/bar/nightclub,7843,0,,20822,5,,51.36171200000000,06463/0002/0/000,529,brs@sutton.gov.uk,Sutton,http://www.sutton.gov.uk,-0.19318100000000,SM1 1DZ,2014-10-07,fhrs_5_en-GB,5,,FHRS,5
127892,All Saints Benhilton Primary School,All Saints Road,Sutton,,All Saints' Benhilton CofE Primary School Kitchen,Restaurant/Cafe/Canteen,1,0,,570965,5,,51.37324600000000,06014/0002/3/002,529,brs@sutton.gov.uk,Sutton,http://www.sutton.gov.uk,-0.19236800000000,SM1 3DA,2014-09-11,fhrs_5_en-GB,5,,FHRS,0
127893,All Saints C Of E Primary School,Rotherfield Road,Carshalton,,All Saints C Of E Primary School Kitchen,Restaurant/Cafe/Canteen,1,5,,570949,5,,51.36507000000000,05636/0006/2/000,529,brs@sutton.gov.uk,Sutton,http://www.sutton.gov.uk,-0.15875900000000,SM5 3DW,2014-04-24,fhrs_5_en-GB,5,,FHRS,0
127894,Sutton United Football Club,Borough Sports Ground,Gander Green Lane,Sutton,All Time Catering Ltd,Restaurant/Cafe/Canteen,1,0,,349072,5,,51.36647700000000,10/00071/COM,529,brs@sutton.gov.uk,Sutton,http://www.sutton.gov.uk,-0.20537700000000,SM1 2EY,2014-01-20,fhrs_5_en-GB,5,,FHRS,5
127895,77 Brabazon Avenue,Wallington,,,Amy Johnson Day Nursery,Hospitals/Childcare/Caring Premises,5,5,,571080,5,,51.35233600000000,09/00236/COM,529,brs@sutton.gov.uk,Sutton,http://www.sutton.gov.uk,-0.13149400000000,SM6 9ET,2014-11-11,fhrs_5_en-GB,5,,FHRS,0
127896,Amy Johnson Primary School,Mollison Drive,Wallington,,Amy Johnson Primary School Kitchen,Restaurant/Cafe/Canteen,1,0,,407020,0,,51.35223300000000,04539/0003/2/000,529,brs@sutton.gov.uk,Sutton,http://www.sutton.gov.uk,-0.13009100000000,SM6 9JN,2013-12-05,fhrs_5_en-GB,5,,FHRS,0
127897,41-45 Lind Road,Sutton,,,Andreev Services Ltd,Importers/Exporters,14,,,641220,,,51.36472300000000,13/00183/COM,529,brs@sutton.gov.uk,Sutton,http://www.sutton.gov.uk,-0.18608100000000,SM1 4PP,2014-02-06,fhrs_exempt_en-GB,Exempt,,FHRS,
127898,43 Stayton Road,Sutton,,,Angel Home,Hospitals/Childcare/Caring Premises,5,5,,571035,5,,51.37208400000000,06809/0043/0/000,529,brs@sutton.gov.uk,Sutton,http://www.sutton.gov.uk,-0.19751400000000,SM1 1QY,2013-05-07,fhrs_5_en-GB,5,,FHRS,5
127899,Unit 6 - 7,Brookmead Industrial Estate,2 Jessops Way,Beddington,Apetito Ltd,Distributors/Transporters,7,5,,591227,5,,51.38876100000000,13/00118/COM,529,brs@sutton.gov.uk,Sutton,http://www.sutton.gov.uk,-0.14309000000000,CR0 4TS,2015-02-10,fhrs_5_en-GB,5,,FHRS,5
127900,Carew House,Railway Approach,Wallington,,Aramark,Restaurant/Cafe/Canteen,1,10,,571095,10,,51.36030600000000,10/00205/COM,529,brs@sutton.gov.uk,Sutton,http://www.sutton.gov.uk,-0.15090600000000,SM6 0DX,2013-09-09,fhrs_4_en-GB,4,,FHRS,0
127901,50 Rose Hill,Sutton,,,Ashling Tara Hotel,Hotel/bed & breakfast/guest house,7842,,,571114,,,51.37716600000000,12/00097/COM,529,brs@sutton.gov.uk,Sutton,http://www.sutton.gov.uk,-0.19232800000000,SM1 3EU,2015-02-16,fhrs_5_en-GB,5,,FHRS,
127902,141A Longfellow Road,Worcester Park,,,Ashlong Cottage,Hospitals/Childcare/Caring Premises,5,5,,571129,5,,51.38290400000000,13/00063/COM,529,brs@sutton.gov.uk,Sutton,http://www.sutton.gov.uk,-0.23962700000000,KT4 8BA,2013-04-18,fhrs_5_en-GB,5,,FHRS,5
127903,19 London Road,Hackbridge,,,Asia Tandoori,Restaurant/Cafe/Canteen,1,10,,570894,10,,51.37898600000000,04485/0019/0/000,529,brs@sutton.gov.uk,Sutton,http://www.sutton.gov.uk,-0.15506800000000,SM6 7HW,2013-09-19,fhrs_3_en-GB,3,,FHRS,10
127904,4 The Broadway,Beddington,,,Asif,Restaurant/Cafe/Canteen,1,10,,570879,10,,51.36720700000000,04178/0004/0/000,529,brs@sutton.gov.uk,Sutton,http://www.sutton.gov.uk,-0.13189400000000,CR0 4QR,2013-06-25,fhrs_3_en-GB,3,,FHRS,10
127905,551 - 553 London Road,North Cheam,,,Asva,Retailers - other,4613,20,,632117,15,,51.37252200000000,13/00029/COM,529,brs@sutton.gov.uk,Sutton,http://www.sutton.gov.uk,-0.22679200000000,SM3 9AE,2014-02-12,fhrs_1_en-GB,1,,FHRS,15
127906,Sutton Court Road,Sutton,,,Autograph The Food People,Restaurant/Cafe/Canteen,1,5,,535832,5,,51.36119700000000,10/00163/COM,529,brs@sutton.gov.uk,Sutton,http://www.sutton.gov.uk,-0.19124800000000,SM1 4RF,2014-09-18,fhrs_5_en-GB,5,,FHRS,5
127907,32 The Avenue,Cheam,,,Avenue Nursing Home,Hospitals/Childcare/Caring Premises,5,5,,570971,0,,51.34881200000000,06037/0032/3/001,529,brs@sutton.gov.uk,Sutton,http://www.sutton.gov.uk,-0.21166700000000,SM2 7QB,2014-11-24,fhrs_5_en-GB,5,,FHRS,5
127908,57 Lind Road,Sutton,,,Ayshea's Take Away,Takeaway/sandwich shop,7844,5,,504812,10,,51.36475900000000,06539/0057/0/000,529,brs@sutton.gov.uk,Sutton,http://www.sutton.gov.uk,-0.18609400000000,SM1 4PP,2014-03-11,fhrs_3_en-GB,3,,FHRS,10
127909,Woodfield Campus,Stanley Park Road,Carshalton,,Badgers Breakfast And After School Club,Hospitals/Childcare/Caring Premises,5,5,,629197,5,,,13/00236/COM,529,brs@sutton.gov.uk,Sutton,http://www.sutton.gov.uk,,SM5 3HP,2014-01-09,fhrs_4_en-GB,4,,FHRS,10
127910,3A Beeches Avenue,Carshalton,,,Bailey's Delicatessen Ltd,Restaurant/Cafe/Canteen,1,5,,447440,10,,51.35696800000000,12/00079/COM,529,brs@sutton.gov.uk,Sutton,http://www.sutton.gov.uk,-0.17081800000000,SM5 3LB,2014-03-21,fhrs_4_en-GB,4,,FHRS,0
127911,Bandon Hill Primary School,Stanley Park Road,Carshalton,,Bandon Hill Primary School Kitchen,Restaurant/Cafe/Canteen,1,0,,570909,5,,,04675/0002/2/000,529,brs@sutton.gov.uk,Sutton,http://www.sutton.gov.uk,,SM5 3HP,2013-11-18,fhrs_5_en-GB,5,,FHRS,5
127912,Kiosk 6  Level 3 St Nicholas Centre,St Nicholas Way,Sutton,,Bangkok Pad Thai,Restaurant/Cafe/Canteen,1,5,,700460,10,,51.36467100000000,14/00070/COM,529,brs@sutton.gov.uk,Sutton,http://www.sutton.gov.uk,-0.19556400000000,SM1 1AY,2014-04-03,fhrs_4_en-GB,4,,FHRS,5
127913,Burdon Lane,Cheam,,,Banstead Downs Golf Club,Restaurant/Cafe/Canteen,1,10,,504811,5,,51.33978700000000,06129/0153/2/000,529,brs@sutton.gov.uk,Sutton,http://www.sutton.gov.uk,-0.20367700000000,SM2 7DD,2014-07-28,fhrs_4_en-GB,4,,FHRS,5
127914,114 Westmead Road,Sutton,,,Bar-B-Q Pit,Takeaway/sandwich shop,7844,5,,372410,0,,51.36637700000000,05804/0114/0/000,529,brs@sutton.gov.uk,Sutton,http://www.sutton.gov.uk,-0.17910600000000,SM1 4JE,2013-11-26,fhrs_4_en-GB,4,,FHRS,10
127915,2 Cumnor Road,Sutton,,,Barons Lodge Sutton,Hospitals/Childcare/Caring Premises,5,5,,671700,10,,51.36033100000000,14/00075/COM,529,brs@sutton.gov.uk,Sutton,http://www.sutton.gov.uk,-0.18527800000000,SM2 5DW,2014-06-13,fhrs_4_en-GB,4,,FHRS,5
127916,Street Blpu,Harbury Road,Carshalton,,Barrow Hedges Primary School,Restaurant/Cafe/Canteen,1,0,,570933,0,,,05386/0001/2/000,529,brs@sutton.gov.uk,Sutton,http://www.sutton.gov.uk,,,2014-09-24,fhrs_5_en-GB,5,,FHRS,5
127917,41 The Market,Wrythe Lane,Carshalton,,BBQ Kebab,Takeaway/sandwich shop,7844,20,,430851,15,,51.38311400000000,11/00030/COM,529,brs@sutton.gov.uk,Sutton,http://www.sutton.gov.uk,-0.18851500000000,SM5 1AG,2014-03-07,fhrs_1_en-GB,1,,FHRS,15
127918,37A High Street,Carshalton,,,Be Beautiful,Restaurant/Cafe/Canteen,1,5,,571125,5,,51.36636000000000,13/00028/COM,529,brs@sutton.gov.uk,Sutton,http://www.sutton.gov.uk,-0.15956900000000,SM5 3BB,2013-02-22,fhrs_5_en-GB,5,,FHRS,0
127919,Barrow Hedges Primary School,Harbury Road,Carshalton,,Beano's Playsafe After School Club,Hospitals/Childcare/Caring Premises,5,0,,570934,0,,51.35222400000000,05386/0001/2/001,529,brs@sutton.gov.uk,Sutton,http://www.sutton.gov.uk,-0.17633500000000,SM5 4LA,2014-05-21,fhrs_5_en-GB,5,,FHRS,5
127920,Brandon House,Marlowe Way,Beddington,,Beddington Conference Centre,Other catering premises,7841,0,,447437,0,,51.37576100000000,09/00190/COM,529,brs@sutton.gov.uk,Sutton,http://www.sutton.gov.uk,-0.12802600000000,CR0 4XS,2014-04-24,fhrs_5_en-GB,5,,FHRS,5
127921,269 Croydon Road,Wallington,,,Beddington Infants School Kitchen,Restaurant/Cafe/Canteen,1,0,,570887,5,,51.36915300000000,04263/0271/2/000,529,brs@sutton.gov.uk,Sutton,http://www.sutton.gov.uk,-0.14566500000000,SM6 7LF,2014-03-19,fhrs_5_en-GB,5,,FHRS,5
127922,190 Croydon Road,Wallington,,,Beddington Kebab And Pizza,Takeaway/sandwich shop,7844,5,,414791,5,,51.36795400000000,04263/0190/0/000,529,brs@sutton.gov.uk,Sutton,http://www.sutton.gov.uk,-0.13187800000000,CR0 4PJ,2014-09-24,fhrs_5_en-GB,5,,FHRS,5
127923,Beddington Park Primary School,Mallinson Road,Beddington,,Beddington Park Primary School Kitchen,Restaurant/Cafe/Canteen,1,0,,570889,0,,51.37359000000000,04288/0006/2/000,529,brs@sutton.gov.uk,Sutton,http://www.sutton.gov.uk,-0.13459400000000,CR0 4UL,2014-06-02,fhrs_4_en-GB,4,,FHRS,10
127924,Club House,24 Sandmartin Way,Hackbridge,,BedZed Pavilion,Restaurant/Cafe/Canteen,1,5,,571107,5,,51.38269900000000,12/00003/COM,529,brs@sutton.gov.uk,Sutton,http://www.sutton.gov.uk,-0.15671500000000,SM6 7DF,2011-12-22,fhrs_5_en-GB,5,,FHRS,5
127925,50 Banstead Road,Carshalton,,,Beeches Cafe,Restaurant/Cafe/Canteen,1,5,,462660,10,,51.35758700000000,11/00032/COM,529,brs@sutton.gov.uk,Sutton,http://www.sutton.gov.uk,-0.17366600000000,SM5 3NW,2014-12-02,fhrs_4_en-GB,4,,FHRS,5
127926,53 Park Hill,Carshalton,,,Beeches House,Hospitals/Childcare/Caring Premises,5,5,,570945,5,,51.35756700000000,05560/0053/2/000,529,brs@sutton.gov.uk,Sutton,http://www.sutton.gov.uk,-0.17063600000000,SM5 3SE,2015-01-26,fhrs_5_en-GB,5,,FHRS,5
127927,Church Hall,Carshalton Beeches Baptist Free Chu,Banstead Road,Carshalton,Beeches Luncheon Club,Restaurant/Cafe/Canteen,1,0,,571068,0,,51.35698400000000,09/00021/COM,529,brs@sutton.gov.uk,Sutton,http://www.sutton.gov.uk,-0.17414900000000,SM5 3NL,2014-03-12,fhrs_5_en-GB,5,,FHRS,0
127928,The Phoenix Centre,Mollison Drive,Wallington,,Beehive Cafe (EveryOne Active),Restaurant/Cafe/Canteen,1,5,,571084,10,,51.35334200000000,10/00031/COM,529,brs@sutton.gov.uk,Sutton,http://www.sutton.gov.uk,-0.13309000000000,SM6 9NZ,2015-01-06,fhrs_3_en-GB,3,,FHRS,10
127929,33-37 Malden Road,Cheam,,,Beijing Garden,Restaurant/Cafe/Canteen,1,10,,571134,5,,51.36120100000000,13/00085/COM,529,brs@sutton.gov.uk,Sutton,http://www.sutton.gov.uk,-0.21851100000000,SM3 8QW,2014-05-22,fhrs_3_en-GB,3,,FHRS,10
127930,3 Westmead Corner,Carshalton,,,Bella Italia Coffee,Restaurant/Cafe/Canteen,1,5,,584430,5,,51.36655700000000,13/00119/COM,529,brs@sutton.gov.uk,Sutton,http://www.sutton.gov.uk,-0.17161400000000,SM5 2NZ,2013-09-03,fhrs_5_en-GB,5,,FHRS,5
127931,245 Brighton Road,Sutton,,,Belmontview House,Hotel/bed & breakfast/guest house,7842,10,,571113,5,,51.34481700000000,12/00082/COM,529,brs@sutton.gov.uk,Sutton,http://www.sutton.gov.uk,-0.19683200000000,SM2 5ST,2012-06-29,fhrs_4_en-GB,4,,FHRS,5
127932,3 Manor Road,Wallington,,,Bengal Naz,Takeaway/sandwich shop,7844,10,,513966,15,,51.36666200000000,04504/0003/0/000,529,brs@sutton.gov.uk,Sutton,http://www.sutton.gov.uk,-0.15306300000000,SM6 0BW,2014-08-27,fhrs_2_en-GB,2,,FHRS,15
127933,39-41 Stafford Road,Wallington,,,Best Asia,Retailers - other,4613,20,,691721,15,,51.35854500000000,14/00112/COM,529,brs@sutton.gov.uk,Sutton,http://www.sutton.gov.uk,-0.14363700000000,SM6 9AP,2014-07-29,fhrs_1_en-GB,1,,FHRS,15
127934,322A Stafford Road,Wallington,Croydon,,Best Charcoal Grill,Takeaway/sandwich shop,7844,10,,471198,10,,51.36216500000000,12/00189/COM,529,brs@sutton.gov.uk,Sutton,http://www.sutton.gov.uk,-0.12249000000000,CR0 4NH,2013-12-05,fhrs_3_en-GB,3,,FHRS,10
127935,122 Grove Road,Sutton,,,Beverley Lodge,Hospitals/Childcare/Caring Premises,5,0,,571008,5,,51.35878400000000,06426/0122/3/001,529,brs@sutton.gov.uk,Sutton,http://www.sutton.gov.uk,-0.20218700000000,SM1 2DD,2014-04-24,fhrs_5_en-GB,5,,FHRS,5
127936,136-140 High Street,Sutton,,,BHS,Restaurant/Cafe/Canteen,1,0,,150730,5,,51.36442200000000,99/00293/COM,529,brs@sutton.gov.uk,Sutton,http://www.sutton.gov.uk,-0.19336200000000,SM1 1LX,2014-07-28,fhrs_5_en-GB,5,,FHRS,5
127937,136-140 High Street,Sutton,,,BHS Coffee Lounge,Restaurant/Cafe/Canteen,1,5,,22751,5,,51.36442200000000,07/00294/COM,529,brs@sutton.gov.uk,Sutton,http://www.sutton.gov.uk,-0.19336200000000,SM1 1LX,2014-07-28,fhrs_5_en-GB,5,,FHRS,5
127938,Street Blpu O/S Coating Plant,Coomber Way,Beddington,,Big Bellies,Mobile caterer,7846,10,,691716,5,,,04246/0100/0/000,529,brs@sutton.gov.uk,Sutton,http://www.sutton.gov.uk,,,2014-04-11,fhrs_4_en-GB,4,,FHRS,5
127939,Sutton Court Road,Sutton,,,Bites 4  U,Mobile caterer,7846,20,,528588,15,,51.36140400000000,06/00131/COM,529,brs@sutton.gov.uk,Sutton,http://www.sutton.gov.uk,-0.18894100000000,SM1 4RQ,2014-03-07,fhrs_1_en-GB,1,,FHRS,10
127940,42 Longfellow Road,Worcester Park,,,Bizzy Bees Nursery,Hospitals/Childcare/Caring Premises,5,10,,571020,0,,51.38077700000000,06552/0042/0/000,529,brs@sutton.gov.uk,Sutton,http://www.sutton.gov.uk,-0.24107300000000,KT4 8BE,2014-09-12,fhrs_4_en-GB,4,,FHRS,0
127941,51 Woodmansterne Lane,Wallington,,,Blossoms,Restaurant/Cafe/Canteen,1,5,,691720,5,,51.34108100000000,14/00099/COM,529,brs@sutton.gov.uk,Sutton,http://www.sutton.gov.uk,-0.15327300000000,SM6 0SW,2014-08-13,fhrs_5_en-GB,5,,FHRS,0
127942,140-142 High Street,Carshalton,,,Blue Bengal,Restaurant/Cafe/Canteen,1,10,,445132,5,,51.36563300000000,05400/0140/0/000,529,brs@sutton.gov.uk,Sutton,http://www.sutton.gov.uk,-0.15909500000000,SM5 3AE,2014-03-06,fhrs_4_en-GB,4,,FHRS,0
127943,21 Cheam Common Road,Worcester Park,,,Blue Chip,Takeaway/sandwich shop,7844,10,,471193,10,,51.37126900000000,06187/0021/0/000,529,brs@sutton.gov.uk,Sutton,http://www.sutton.gov.uk,-0.22899600000000,KT4 8TL,2013-10-21,fhrs_3_en-GB,3,,FHRS,10
127944,6 Central Road,Worcester Park,,,Born Sushi,Takeaway/sandwich shop,7844,5,,591226,5,,51.37701200000000,13/00062/COM,529,brs@sutton.gov.uk,Sutton,http://www.sutton.gov.uk,-0.23828600000000,KT4 8HZ,2013-10-10,fhrs_5_en-GB,5,,FHRS,5
127945,Unit 1,Beddington Cross,136-138 Beddington Farm Road,Beddington,Brakes Professional Food Market,Distributors/Transporters,7,0,,654211,5,,51.38335000000000,14/00009/COM,529,brs@sutton.gov.uk,Sutton,http://www.sutton.gov.uk,-0.13304800000000,CR0 4XH,2014-03-26,fhrs_5_en-GB,5,,FHRS,5
127946,Bandon Hill Primary School,Sandy Lane South,Wallington,,Bramley Breakfast And Afterschool Club,Hospitals/Childcare/Caring Premises,5,0,,553492,10,,51.35736900000000,13/00093/COM,529,brs@sutton.gov.uk,Sutton,http://www.sutton.gov.uk,-0.13867200000000,SM6 9QU,2013-06-06,fhrs_4_en-GB,4,,FHRS,5
127947,14 Kimpton Park Way,Sutton,,,Bran Cafe,Restaurant/Cafe/Canteen,1,10,,513985,5,,51.37668100000000,12/00194/COM,529,brs@sutton.gov.uk,Sutton,http://www.sutton.gov.uk,-0.20579700000000,SM3 9QS,2014-08-21,fhrs_4_en-GB,4,,FHRS,5
127948,12 High Street,Sutton,,,Brasserie Vacherin,Restaurant/Cafe/Canteen,1,5,,30617,10,,51.36015500000000,09/00229/COM,529,brs@sutton.gov.uk,Sutton,http://www.sutton.gov.uk,-0.19134600000000,SM1 1HN,2014-07-15,fhrs_3_en-GB,3,,FHRS,10
127949,157 Stafford Road,Wallington,,,Bread,Retailers - other,4613,5,,504809,5,,51.35935200000000,04703/0157/0/000,529,brs@sutton.gov.uk,Sutton,http://www.sutton.gov.uk,-0.13895100000000,SM6 9BT,2014-02-10,fhrs_4_en-GB,4,,FHRS,10
127950,Victor Seymour Infants' School,Denmark Road,Carshalton,,Breakfast Club,Restaurant/Cafe/Canteen,1,0,,570962,0,,51.37120200000000,06/00144/COM,529,brs@sutton.gov.uk,Sutton,http://www.sutton.gov.uk,-0.16154400000000,SM5 2JE,2012-07-13,fhrs_5_en-GB,5,,FHRS,0
127951,280-282 London Road,Wallington,,,Bridge House Care Centre,Hospitals/Childcare/Caring Premises,5,0,,570895,0,,51.37115900000000,04485/0282/0/000,529,brs@sutton.gov.uk,Sutton,http://www.sutton.gov.uk,-0.15256600000000,SM6 7DJ,2013-09-24,fhrs_5_en-GB,5,,FHRS,5
127952,830 London Road,North Cheam,,,Bright Ocean,Takeaway/sandwich shop,7844,10,,632115,10,,51.37959700000000,06550/0830/0/000,529,brs@sutton.gov.uk,Sutton,http://www.sutton.gov.uk,-0.21831400000000,SM3 9BJ,2014-02-04,fhrs_3_en-GB,3,,FHRS,5
127953,51 Burdon Lane,Cheam,,,Broadlands Nursing Home,Hospitals/Childcare/Caring Premises,5,5,,570979,5,,51.35228300000000,06129/0051/3/001,529,brs@sutton.gov.uk,Sutton,http://www.sutton.gov.uk,-0.21278200000000,SM2 7PP,2014-04-29,fhrs_5_en-GB,5,,FHRS,0
127954,Woodcote House,167 Sandy Lane South,Wallington,,Brook Care Homes,Hospitals/Childcare/Caring Premises,5,5,,570911,5,,51.34812300000000,04675/0167/2/000,529,brs@sutton.gov.uk,Sutton,http://www.sutton.gov.uk,-0.14592500000000,SM6 9NP,2014-04-29,fhrs_5_en-GB,5,,FHRS,5
127955,Brookfield Primary School,Ridge Road,Sutton,,Brookfield Primary School Kitchen,Restaurant/Cafe/Canteen,1,5,,570867,0,,51.38083800000000,006720/0233/2/000,529,brs@sutton.gov.uk,Sutton,http://www.sutton.gov.uk,-0.21542000000000,SM3 9LY,2011-12-01,fhrs_5_en-GB,5,,FHRS,0
127956,112 Westmead Road,Sutton,,,Brunchies Cafe,Restaurant/Cafe/Canteen,1,10,,513981,10,,51.36636300000000,11/00169/COM,529,brs@sutton.gov.uk,Sutton,http://www.sutton.gov.uk,-0.17993900000000,SM1 4JD,2014-08-06,fhrs_3_en-GB,3,,FHRS,10
127957,36 Manor Lane,Sutton,,,Buffalo Catering Ltd,Other catering premises,7841,5,,666968,5,,51.36518500000000,14/00080/COM,529,brs@sutton.gov.uk,Sutton,http://www.sutton.gov.uk,-0.19037200000000,SM1 4AR,2014-06-03,fhrs_4_en-GB,4,,FHRS,10
127958,Overton Park Pavilion,Overton Park,Overton Road,Sutton,Bumpsa Daisies Nursery,Hospitals/Childcare/Caring Premises,5,5,,571028,5,,,06666/0060/0/000,529,brs@sutton.gov.uk,Sutton,http://www.sutton.gov.uk,,,2014-04-16,fhrs_5_en-GB,5,,FHRS,5
127959,Unit 1.17 Lower Ground St Nicholas,St Nicholas Way,Sutton,,Burger King,Restaurant/Cafe/Canteen,1,5,,25079,5,,51.36455400000000,08/00043/COM,529,brs@sutton.gov.uk,Sutton,http://www.sutton.gov.uk,-0.19434800000000,SM1 1AW,2013-07-09,fhrs_5_en-GB,5,,FHRS,5
127960,1 Little Woodcote Estate,Woodmansterne Road,Carshalton,,Bushells Fresh Beef Limited,Manufacturers/packers,7839,10,,570937,10,,51.34122100000000,05467/0001/2/000,529,brs@sutton.gov.uk,Sutton,http://www.sutton.gov.uk,-0.16679300000000,SM5 4AL,2014-05-20,fhrs_3_en-GB,3,,FHRS,10
127961,261 Malden Road,Cheam,,,Busy Bees,Hospitals/Childcare/Caring Premises,5,5,,571022,5,,51.37028800000000,06572/0261/0/000,529,brs@sutton.gov.uk,Sutton,http://www.sutton.gov.uk,-0.22772600000000,SM3 8ET,2014-07-21,fhrs_5_en-GB,5,,FHRS,5
127962,Victor Seymour Infants' School,Denmark Road,Carshalton,,Busy Bees  After School Club,Hospitals/Childcare/Caring Premises,5,0,,622048,5,,51.37120200000000,05285/0001/2/001,529,brs@sutton.gov.uk,Sutton,http://www.sutton.gov.uk,-0.16154400000000,SM5 2JE,2013-12-10,fhrs_5_en-GB,5,,FHRS,5
127963,5 Ross Parade,Wallington,,,Byrne's Pie And Eel House,Restaurant/Cafe/Canteen,1,20,,727760,0,,51.36011100000000,14/00150/COM,529,brs@sutton.gov.uk,Sutton,http://www.sutton.gov.uk,-0.14880200000000,SM6 8QG,2014-12-17,fhrs_1_en-GB,1,,FHRS,10
127964,15 Woodcote Road,Wallington,,,Cactus Grill,Restaurant/Cafe/Canteen,1,10,,571128,10,,51.35934600000000,13/00049/COM,529,brs@sutton.gov.uk,Sutton,http://www.sutton.gov.uk,-0.14936400000000,SM6 0LH,2014-06-25,fhrs_3_en-GB,3,,FHRS,10
127965,War Memorial Sports Ground,Colston Avenue,Carshalton,,CAFC With Robins Nest Cafe And Bar,Other catering premises,7841,5,,570929,0,,51.36854200000000,05237/0033/3/001,529,brs@sutton.gov.uk,Sutton,http://www.sutton.gov.uk,-0.16912100000000,SM5 2PW,2013-07-13,fhrs_5_en-GB,5,,FHRS,5
127966,Unit 15   Level 1,Times Square,High Street,Sutton,Cafe Buono,Restaurant/Cafe/Canteen,1,5,,47199,5,,51.36346800000000,11/00114/COM,529,brs@sutton.gov.uk,Sutton,http://www.sutton.gov.uk,-0.19276700000000,SM1 1LF,2014-07-18,fhrs_5_en-GB,5,,FHRS,5
127967,48 Stafford Road,Wallington,,,Cafe Del Mar,Takeaway/sandwich shop,7844,10,,349070,5,,51.35896600000000,04703/0048/0/000,529,brs@sutton.gov.uk,Sutton,http://www.sutton.gov.uk,-0.14349100000000,SM6 9AY,2013-10-11,fhrs_4_en-GB,4,,FHRS,5
127968,Unit 5,Brookmead Industrial Estate,2 Jessops Way,Beddington,Cafe Deli Wholesale,Distributors/Transporters,7,10,,571050,5,,51.38876100000000,07/00006/COM,529,brs@sutton.gov.uk,Sutton,http://www.sutton.gov.uk,-0.14309000000000,CR0 4TS,2014-09-22,fhrs_4_en-GB,4,,FHRS,5
127969,325 High Street,Sutton,,,Cafe Delight,Restaurant/Cafe/Canteen,1,0,,20817,5,,51.36987300000000,06455/0325/0/000,529,brs@sutton.gov.uk,Sutton,http://www.sutton.gov.uk,-0.19523000000000,SM1 1LW,2014-02-26,fhrs_5_en-GB,5,,FHRS,5
127970,5 Station Parade,Brighton Road,Sutton,,Cafe Delight,Restaurant/Cafe/Canteen,1,5,,28767,5,,51.35888200000000,09/00025/COM,529,brs@sutton.gov.uk,Sutton,http://www.sutton.gov.uk,-0.19103700000000,SM2 5AD,2014-08-28,fhrs_5_en-GB,5,,FHRS,5
127971,St Nicholas Centre,St Nicholas Way,Sutton,,Cafe Kiko,Restaurant/Cafe/Canteen,1,5,,47441,10,,51.02706909179688,11/00134/COM,529,brs@sutton.gov.uk,Sutton,http://www.sutton.gov.uk,-2.75308990478516,SM1 1AW,2014-11-26,fhrs_3_en-GB,3,,FHRS,10
127972,148 Beddington Lane,Beddington,,,Cafe Lounge,Restaurant/Cafe/Canteen,1,20,,654213,15,,51.38393200000000,14/00037/COM,529,brs@sutton.gov.uk,Sutton,http://www.sutton.gov.uk,-0.13858600000000,CR0 4TD,2014-04-17,fhrs_1_en-GB,1,,FHRS,15
127973,Grove Park CafÃ©,The Grove,High Street,Carshalton,Cafe Plus,Restaurant/Cafe/Canteen,1,10,,447441,5,,51.36636000000000,12/00139/COM,529,brs@sutton.gov.uk,Sutton,http://www.sutton.gov.uk,-0.15956900000000,SM5 3BB,2014-04-10,fhrs_3_en-GB,3,,FHRS,10
127974,215 Carshalton Road,Carshalton,,,Cafe Prazeres 2,Restaurant/Cafe/Canteen,1,5,,535836,10,,51.36333100000000,12/00020/COM,529,brs@sutton.gov.uk,Sutton,http://www.sutton.gov.uk,-0.17292000000000,SM5 3PZ,2014-09-23,fhrs_3_en-GB,3,,FHRS,10
127975,Unit 11   Level 1,Times Square,High Street,Sutton,Cafe Punto,Restaurant/Cafe/Canteen,1,5,,21130,5,,51.36346800000000,06850/0011/2/000,529,brs@sutton.gov.uk,Sutton,http://www.sutton.gov.uk,-0.19276700000000,SM1 1LF,2014-08-04,fhrs_4_en-GB,4,,FHRS,10
127976,142-146 High Street,Sutton,,,Cafe Revive,Restaurant/Cafe/Canteen,1,0,,14633,0,,51.36429300000000,05/00031/COM,529,brs@sutton.gov.uk,Sutton,http://www.sutton.gov.uk,-0.19257700000000,SM1 1NQ,2013-06-18,fhrs_5_en-GB,5,,FHRS,5
127977,28 Beacon Grove,31-33 High Street,Carshalton,,Cafe Royale,Restaurant/Cafe/Canteen,1,10,,455688,10,,51.36591700000000,05400/0031/3/028,529,brs@sutton.gov.uk,Sutton,http://www.sutton.gov.uk,-0.16062100000000,SM5 3BA,2014-04-16,fhrs_3_en-GB,3,,FHRS,5
127978,71 High Street,Sutton,,,Cafe W,Hospitals/Childcare/Caring Premises,5,5,,47990,5,,51.36237200000000,11/00198/COM,529,brs@sutton.gov.uk,Sutton,http://www.sutton.gov.uk,-0.19283900000000,SM1 1DU,2014-08-26,fhrs_5_en-GB,5,,FHRS,5
127979,3 Nightingale Road,Carshalton,,,Caffe Cinos,Restaurant/Cafe/Canteen,1,20,,491891,10,,51.37246300000000,05524/0003/0/000,529,brs@sutton.gov.uk,Sutton,http://www.sutton.gov.uk,-0.16570300000000,SM5 2DN,2014-07-08,fhrs_1_en-GB,1,,FHRS,10
127980,Unit 2,Sutton Railway Station,High Street,Sutton,Caffe Melo,Restaurant/Cafe/Canteen,1,5,,504823,0,,51.35942300000000,13/00001/COM,529,brs@sutton.gov.uk,Sutton,http://www.sutton.gov.uk,-0.19113100000000,SM1 1JA,2013-01-14,fhrs_5_en-GB,5,,FHRS,0
127981,121 High Street,Sutton,,,Caffe Nero,Restaurant/Cafe/Canteen,1,0,,491899,5,,51.36318000000000,12/00211/COM,529,brs@sutton.gov.uk,Sutton,http://www.sutton.gov.uk,-0.19333900000000,SM1 1JF,2014-07-08,fhrs_4_en-GB,4,,FHRS,10
127982,Old Inn House,2 Carshalton Road,Sutton,,Caffe Nero,Restaurant/Cafe/Canteen,1,0,,14919,10,,51.36107800000000,05/00071/COM,529,brs@sutton.gov.uk,Sutton,http://www.sutton.gov.uk,-0.19172600000000,SM1 4RA,2013-12-06,fhrs_4_en-GB,4,,FHRS,10
127983,Unit 1,72 Woodcote Road,Wallington,,Caffe Nero,Restaurant/Cafe/Canteen,1,5,,451670,5,,51.35872075000000,07/00291/COM,529,brs@sutton.gov.uk,Sutton,http://www.sutton.gov.uk,-0.14960268000000,,2014-02-14,fhrs_5_en-GB,5,,FHRS,5
127984,23 Camborne Road,Sutton,,,Camborne Bed And Breakfast,Hotel/bed & breakfast/guest house,7842,10,,570980,10,,51.35387500000000,06148/0023/3/001,529,brs@sutton.gov.uk,Sutton,http://www.sutton.gov.uk,-0.19462400000000,SM2 6RJ,2012-07-09,fhrs_3_en-GB,3,,FHRS,5
127985,3 The Green,Sutton,,,Care Management Group,Hospitals/Childcare/Caring Premises,5,0,,571004,5,,51.37104600000000,06415/0003/2/000,529,brs@sutton.gov.uk,Sutton,http://www.sutton.gov.uk,-0.19608900000000,SM1 1QT,2014-10-10,fhrs_5_en-GB,5,,FHRS,5
127986,31 Egmont Road,Sutton,,,Care Management Group,Hospitals/Childcare/Caring Premises,5,10,,571001,10,,51.35273900000000,06329/0031/0/000,529,brs@sutton.gov.uk,Sutton,http://www.sutton.gov.uk,-0.18982900000000,SM2 5JR,2013-12-31,fhrs_3_en-GB,3,,FHRS,5
127987,33 Egmont Road,Sutton,,,Care Management Group,Hospitals/Childcare/Caring Premises,5,10,,622049,10,,51.35273900000000,06329/0033/0/000,529,brs@sutton.gov.uk,Sutton,http://www.sutton.gov.uk,-0.18982900000000,SM2 5JR,2013-12-31,fhrs_3_en-GB,3,,FHRS,5
127988,374 St Helier Avenue,Morden,,,Care Management Group,Hospitals/Childcare/Caring Premises,5,5,,570950,0,,51.38641000000000,05655/0374/0/000,529,brs@sutton.gov.uk,Sutton,http://www.sutton.gov.uk,-0.18993800000000,SM4 6JU,2013-08-13,fhrs_5_en-GB,5,,FHRS,0
127989,44 Albion Road,Sutton,,,Care Management Group,Hospitals/Childcare/Caring Premises,5,5,,553476,5,,51.35611600000000,06007/0044/0/000,529,brs@sutton.gov.uk,Sutton,http://www.sutton.gov.uk,-0.18310300000000,SM2 5TF,2014-11-13,fhrs_5_en-GB,5,,FHRS,5
127990,231 Stafford Road,Wallington,,,Care UK,Hospitals/Childcare/Caring Premises,5,5,,570917,5,,51.35993700000000,04703/0231/0/000,529,brs@sutton.gov.uk,Sutton,http://www.sutton.gov.uk,-0.13220500000000,SM6 9BX,2013-03-27,fhrs_5_en-GB,5,,FHRS,5
127991,32 Ringstead Road,Sutton,,,Care UK,Hospitals/Childcare/Caring Premises,5,10,,570948,10,,51.36522500000000,05618/0032/0/000,529,brs@sutton.gov.uk,Sutton,http://www.sutton.gov.uk,-0.17732700000000,SM1 4SJ,2014-10-28,fhrs_3_en-GB,3,,FHRS,10
127992,63a Victoria Avenue,Wallington,,,Care UK,Hospitals/Childcare/Caring Premises,5,10,,570862,10,,51.37228500000000,004733/0063/3/001,529,brs@sutton.gov.uk,Sutton,http://www.sutton.gov.uk,-0.15783700000000,SM6 7JP,2014-11-13,fhrs_4_en-GB,4,,FHRS,0
127993,Church Road,Wallington,,,Carew Manor School Kitchen,Restaurant/Cafe/Canteen,1,0,,570881,5,,51.37194600000000,04227/0001/2/000,529,brs@sutton.gov.uk,Sutton,http://www.sutton.gov.uk,-0.13920100000000,SM6 7NH,2013-11-28,fhrs_5_en-GB,5,,FHRS,0
127994,Carshalton Boys Sports College,Winchcombe Road,Carshalton,,Carshalton Boys Sports College Kitchen,Restaurant/Cafe/Canteen,1,0,,570956,0,,51.37767800000000,05832/0021/2/000,529,brs@sutton.gov.uk,Sutton,http://www.sutton.gov.uk,-0.17490700000000,SM5 1RW,2014-07-10,fhrs_5_en-GB,5,,FHRS,5
127995,138 High Street,Carshalton,,,Carshalton Charcoal Grill,Takeaway/sandwich shop,7844,10,,557764,10,,51.36565800000000,11/00079/COM,529,brs@sutton.gov.uk,Sutton,http://www.sutton.gov.uk,-0.15900800000000,SM5 3AE,2014-12-09,fhrs_3_en-GB,3,,FHRS,10
127996,Carshalton College,Nightingale Road,Carshalton,,Carshalton College Restaurant,Restaurant/Cafe/Canteen,1,5,,481958,10,,51.37142000000000,05524/0002/0/000,529,brs@sutton.gov.uk,Sutton,http://www.sutton.gov.uk,-0.16512700000000,SM5 2EJ,2014-07-04,fhrs_4_en-GB,4,,FHRS,5
127997,231 Carshalton Road,Carshalton,,,Carshalton Day Nursery,Other catering premises,7841,5,,696351,5,,51.36330900000000,13/00201/COM,529,brs@sutton.gov.uk,Sutton,http://www.sutton.gov.uk,-0.17204500000000,SM5 3PZ,2014-08-22,fhrs_5_en-GB,5,,FHRS,5
127998,28 Salisbury Road,Carshalton,,,Carshalton Nursing Home,Hospitals/Childcare/Caring Premises,5,10,,570951,5,,51.36058100000000,05661/0028/2/000,529,brs@sutton.gov.uk,Sutton,http://www.sutton.gov.uk,-0.16610600000000,SM5 3HD,2014-07-31,fhrs_4_en-GB,4,,FHRS,5
127999,Unit 27  Level 2 St Nicholas Centre,St Nicholas Way,Sutton,,Casa Del Caffee,Restaurant/Cafe/Canteen,1,10,,727762,10,,51.36468800000000,14/00176/COM,529,brs@sutton.gov.uk,Sutton,http://www.sutton.gov.uk,-0.19429900000000,SM1 1AX,2014-11-17,fhrs_3_en-GB,3,,FHRS,10
128000,8 Mulgrave Road,Sutton,,,Casa Nostra,Restaurant/Cafe/Canteen,1,10,,45405,15,,51.35910500000000,11/00006/COM,529,brs@sutton.gov.uk,Sutton,http://www.sutton.gov.uk,-0.19209100000000,SM2 6LE,2014-09-12,fhrs_2_en-GB,2,,FHRS,10
128001,Eothen,31 Worcester Road,Sutton,,Cater Plus Services,Restaurant/Cafe/Canteen,1,10,,571100,10,,51.35575400000000,11/00094/COM,529,brs@sutton.gov.uk,Sutton,http://www.sutton.gov.uk,-0.19636000000000,SM2 6PT,2013-05-13,fhrs_4_en-GB,4,,FHRS,0
128002,Cuddington Golf Club,Banstead Road,Banstead,,Catering From The Heart At Cuddington Golf Club,Restaurant/Cafe/Canteen,1,5,,570921,5,,51.33258500000000,05/00027/COM,529,brs@sutton.gov.uk,Sutton,http://www.sutton.gov.uk,-0.21608900000000,SM7 1RB,2015-01-20,fhrs_5_en-GB,5,,FHRS,5
128003,Carshalton Library,The Square,Carshalton,,Caterpillars Day Nursery Ltd,Hospitals/Childcare/Caring Premises,5,10,,666965,5,,51.36425900000000,14/00042/COM,529,brs@sutton.gov.uk,Sutton,http://www.sutton.gov.uk,-0.16150600000000,SM5 3BN,2014-05-27,fhrs_4_en-GB,4,,FHRS,5
128004,Cedar Lodge,3 Metcalfe Avenue,Carshalton,,Cedars Lodge Respite Home,Hospitals/Childcare/Caring Premises,5,5,,665633,5,,51.34654400000000,14/00071/COM,529,brs@sutton.gov.uk,Sutton,http://www.sutton.gov.uk,-0.16900700000000,SM5 4AW,2014-05-20,fhrs_5_en-GB,5,,FHRS,5
128005,169 Central Road,Worcester Park,,,Central's,Restaurant/Cafe/Canteen,1,10,,571099,10,,51.37974200000000,11/00041/COM,529,brs@sutton.gov.uk,Sutton,http://www.sutton.gov.uk,-0.24405900000000,KT4 8DR,2012-11-19,fhrs_4_en-GB,4,,FHRS,0
128006,Cheam Fields Primary School,Stoughton Avenue,Cheam,,Chaffinch Breakfast And After School Club,Hospitals/Childcare/Caring Premises,5,5,,557765,10,,51.36632800000000,13/00092/COM,529,brs@sutton.gov.uk,Sutton,http://www.sutton.gov.uk,-0.21801000000000,SM3 8PW,2013-06-13,fhrs_4_en-GB,4,,FHRS,0
128007,204A Cheam Common Road,Worcester Park,,,Charcoal Grill,Takeaway/sandwich shop,7844,10,,358960,5,,51.37693900000000,06187/0204/0/000,529,brs@sutton.gov.uk,Sutton,http://www.sutton.gov.uk,-0.23705400000000,KT4 8QJ,2014-01-10,fhrs_4_en-GB,4,,FHRS,5
128008,Harris Junior Academy Carshalton,Camden Road,Carshalton,,Chartwells,School/college/university,7845,5,,665625,10,,51.36946200000000,14/00026/COM,529,brs@sutton.gov.uk,Sutton,http://www.sutton.gov.uk,-0.16642700000000,SM5 2NS,2014-05-19,fhrs_4_en-GB,4,,FHRS,5
128009,Overton Grange School,36 Stanley Road,Sutton,,Chartwells Overton Grange School,Restaurant/Cafe/Canteen,1,5,,580087,5,,51.35225300000000,13/00089/COM,529,brs@sutton.gov.uk,Sutton,http://www.sutton.gov.uk,-0.19616700000000,SM2 6TQ,2013-06-28,fhrs_4_en-GB,4,,FHRS,10
128010,832 London Road,North Cheam,,,Cheam Cafe Restaurant,Restaurant/Cafe/Canteen,1,0,,372416,0,,51.37959700000000,06550/0832/0/000,529,brs@sutton.gov.uk,Sutton,http://www.sutton.gov.uk,-0.21831400000000,SM3 9BJ,2013-12-18,fhrs_5_en-GB,5,,FHRS,5
128011,Cheam Common Infant School,Balmoral Road,Worcester Park,,Cheam Common Infants' School,Restaurant/Cafe/Canteen,1,0,,570972,0,,51.37609000000000,06043/0024/2/000,529,brs@sutton.gov.uk,Sutton,http://www.sutton.gov.uk,-0.23859500000000,KT4 8SS,2014-10-09,fhrs_5_en-GB,5,,FHRS,0
128012,Cheam Common County Junior School,Kingsmead Avenue,Worcester Park,,Cheam Common Junior School Kitchen,Restaurant/Cafe/Canteen,1,0,,571012,5,,51.37454300000000,06509/0118/2/000,529,brs@sutton.gov.uk,Sutton,http://www.sutton.gov.uk,-0.23739000000000,KT4 8UT,2013-09-25,fhrs_5_en-GB,5,,FHRS,5
128013,38 Park Road,Cheam,,,Cheam Cottage,Hospitals/Childcare/Caring Premises,5,5,,571056,10,,51.35877000000000,08/00112/COM,529,brs@sutton.gov.uk,Sutton,http://www.sutton.gov.uk,-0.21535900000000,SM3 8PY,2014-02-26,fhrs_4_en-GB,4,,FHRS,5
128014,14 - 16 The Broadway,Cheam,,,Cheam Cottage Coffee Shop,Restaurant/Cafe/Canteen,1,5,,570976,5,,51.35824500000000,06117/0014/0/000,529,brs@sutton.gov.uk,Sutton,http://www.sutton.gov.uk,-0.21631300000000,SM3 8AY,2013-09-11,fhrs_4_en-GB,4,,FHRS,10
128015,Stoughton Avenue,Cheam,,,Cheam Fields Primary School,School/college/university,7845,10,,713508,5,,51.36632800000000,14/00125/COM,529,brs@sutton.gov.uk,Sutton,http://www.sutton.gov.uk,-0.21801000000000,SM3 8PW,2014-10-22,fhrs_4_en-GB,4,,FHRS,5
128016,565-567 London Road,North Cheam,,,Cheam Food Centre,Retailers - supermarkets/hypermarkets,7840,20,,571135,20,,51.37252200000000,13/00091/COM,529,brs@sutton.gov.uk,Sutton,http://www.sutton.gov.uk,-0.22679200000000,SM3 9AE,2014-07-14,fhrs_0_en-GB,0,,FHRS,15
128017,Chatsworth Road,Cheam,,,Cheam High School,Restaurant/Cafe/Canteen,1,0,,471192,5,,51.36632800000000,06183/0108/2/001,529,brs@sutton.gov.uk,Sutton,http://www.sutton.gov.uk,-0.21801000000000,SM3 8PW,2014-05-07,fhrs_5_en-GB,5,,FHRS,5
128018,Street Blpu,Molesey Drive,North Cheam,,Cheam Park Farm Infants And Nursery School,Restaurant/Cafe/Canteen,1,0,,571024,0,,,06607/0020/2/000,529,brs@sutton.gov.uk,Sutton,http://www.sutton.gov.uk,,,2014-12-11,fhrs_5_en-GB,5,,FHRS,5
128019,Kingston Avenue,North Cheam,,,Cheam Park Farm Junior School,Restaurant/Cafe/Canteen,1,0,,571059,5,,51.37244300000000,08/00168/COM,529,brs@sutton.gov.uk,Sutton,http://www.sutton.gov.uk,-0.21386500000000,SM3 9UE,2014-12-11,fhrs_5_en-GB,5,,FHRS,5
128020,Cheam Recreation Ground,Tudor Close,Cheam,,Cheam Park Pavilion Cafe,Mobile caterer,7846,10,,588684,5,,,13/00179/COM,529,brs@sutton.gov.uk,Sutton,http://www.sutton.gov.uk,,,2013-09-28,fhrs_4_en-GB,4,,FHRS,5
128021,42 The Broadway,Cheam,,,Cheam Parochial Rooms,Restaurant/Cafe/Canteen,1,5,,727757,5,,51.35914700000000,06117/0042/2/000,529,brs@sutton.gov.uk,Sutton,http://www.sutton.gov.uk,-0.21653600000000,SM3 8BD,2014-11-28,fhrs_5_en-GB,5,,FHRS,0
128022,Peaches Close,Cheam,,,Cheam Sports Club,Other catering premises,7841,10,,571029,10,,,06678/0016/2/000,529,brs@sutton.gov.uk,Sutton,http://www.sutton.gov.uk,,,2013-06-05,fhrs_3_en-GB,3,,FHRS,10
128023,Cheam Sports Club,Peaches Close,Cheam,,Cheam Village Catering,Restaurant/Cafe/Canteen,1,10,,584429,10,,,12/00036/COM,529,brs@sutton.gov.uk,Sutton,http://www.sutton.gov.uk,,,2013-09-05,fhrs_3_en-GB,3,,FHRS,10
128024,128 Central Road,Worcester Park,,,Checkers,Takeaway/sandwich shop,7844,10,,570986,10,,51.37910200000000,06170/0128/0/000,529,brs@sutton.gov.uk,Sutton,http://www.sutton.gov.uk,-0.24215800000000,KT4 8HT,2012-01-24,fhrs_3_en-GB,3,,FHRS,10
128025,23 Downs Side,Cheam,,,Chegworth Nursing Home,Hospitals/Childcare/Caring Premises,5,,,571000,,,51.33984300000000,06306/0023/3/001,529,brs@sutton.gov.uk,Sutton,http://www.sutton.gov.uk,-0.20788100000000,SM2 7EH,2014-10-03,fhrs_5_en-GB,5,,FHRS,
128026,Cheam Park Farm Infants School,Molesey Drive,North Cheam,,Chestnuts After School Club,Hospitals/Childcare/Caring Premises,5,10,,557767,5,,51.37434400000000,13/00096/COM,529,brs@sutton.gov.uk,Sutton,http://www.sutton.gov.uk,-0.21528500000000,SM3 9UU,2014-12-12,fhrs_4_en-GB,4,,FHRS,5
128027,Chicago Rock Cafe,Throwley Road,Sutton,,Chicago Rock Cafe And New York New York,Restaurant/Cafe/Canteen,1,5,,535828,5,,51.36231400000000,07029/0001/0/000,529,brs@sutton.gov.uk,Sutton,http://www.sutton.gov.uk,-0.19196500000000,SM1 1AD,2013-04-11,fhrs_4_en-GB,4,,FHRS,10
128028,47 Stonecot Hill,Sutton,,,Chicken And Pizza Hot,Takeaway/sandwich shop,7844,20,,528593,15,,51.38437800000000,13/00047/COM,529,brs@sutton.gov.uk,Sutton,http://www.sutton.gov.uk,-0.21282500000000,SM3 9HH,2014-03-18,fhrs_1_en-GB,1,,FHRS,15
128029,Unit 14 Valley Point Industrial Est,Beddington Farm Road,Beddington,,Chicken Cottage,Distributors/Transporters,7,10,,570922,10,,51.38385700000000,05/00056/COM,529,brs@sutton.gov.uk,Sutton,http://www.sutton.gov.uk,-0.12930500000000,CR0 4WP,2013-03-06,fhrs_3_en-GB,3,,FHRS,10
128030,3 Chiltern Road,Sutton,,,Chiltern Day Nursery,Hospitals/Childcare/Caring Premises,5,5,,570991,5,,51.34805200000000,06206/0003/0/000,529,brs@sutton.gov.uk,Sutton,http://www.sutton.gov.uk,-0.19376100000000,SM2 5QP,2014-07-14,fhrs_5_en-GB,5,,FHRS,5
128031,8 Butter Hill,Wallington,,,China Chef,Takeaway/sandwich shop,7844,5,,571108,10,,51.36972300000000,12/00012/COM,529,brs@sutton.gov.uk,Sutton,http://www.sutton.gov.uk,-0.15730800000000,SM6 7JD,2015-01-14,fhrs_3_en-GB,3,,FHRS,10
128032,70 London Road,Mitcham Junction,,,China Garden,Takeaway/sandwich shop,7844,5,,665632,10,,51.38381200000000,14/00066/COM,529,brs@sutton.gov.uk,Sutton,http://www.sutton.gov.uk,-0.15769000000000,CR4 4JB,2014-04-03,fhrs_4_en-GB,4,,FHRS,0
128033,118 Westmead Road,Sutton,,,Chips Inn,Takeaway/sandwich shop,7844,10,,462655,10,,51.36637700000000,05804/0118/0/000,529,brs@sutton.gov.uk,Sutton,http://www.sutton.gov.uk,-0.17910600000000,SM1 4JE,2014-04-17,fhrs_3_en-GB,3,,FHRS,10
128034,106 High Street,Carshalton,,,Chipsmiths Fish And Chips,Takeaway/sandwich shop,7844,0,,491890,0,,51.36565800000000,05400/0106/0/000,529,brs@sutton.gov.uk,Sutton,http://www.sutton.gov.uk,-0.15900800000000,SM5 3AE,2014-06-25,fhrs_5_en-GB,5,,FHRS,0
128035,322 Wrythe Lane,Carshalton,,,Choo,Takeaway/sandwich shop,7844,20,,462658,10,,51.38345900000000,10/00198/COM,529,brs@sutton.gov.uk,Sutton,http://www.sutton.gov.uk,-0.18814300000000,SM5 1AF,2014-04-28,fhrs_1_en-GB,1,,FHRS,10
128036,64 Banstead Road,Carshalton,,,Chopstick House,Takeaway/sandwich shop,7844,5,,430832,5,,51.35698400000000,05134/0064/0/000,529,brs@sutton.gov.uk,Sutton,http://www.sutton.gov.uk,-0.17414900000000,SM5 3NL,2013-12-31,fhrs_4_en-GB,4,,FHRS,10
128037,175 High Street,Sutton,,,Chopstix Restaurant,Takeaway/sandwich shop,7844,5,,683243,10,,51.36560800000000,14/00102/COM,529,brs@sutton.gov.uk,Sutton,http://www.sutton.gov.uk,-0.19450700000000,SM1 1JU,2014-07-08,fhrs_4_en-GB,4,,FHRS,5
128038,151 Gander Green Lane,Sutton,,,Chow's,Takeaway/sandwich shop,7844,0,,445139,5,,51.36767100000000,11/00181/COM,529,brs@sutton.gov.uk,Sutton,http://www.sutton.gov.uk,-0.20646500000000,SM1 2EZ,2014-04-09,fhrs_5_en-GB,5,,FHRS,5
128039,312 Carshalton Road,Carshalton,,,Chris's Cafe,Restaurant/Cafe/Canteen,1,10,,571065,10,,51.36293300000000,09/00007/COM,529,brs@sutton.gov.uk,Sutton,http://www.sutton.gov.uk,-0.17333800000000,SM5 3QB,2015-01-07,fhrs_3_en-GB,3,,FHRS,10
128040,52 Central Road,Worcester Park,,,Chubbys,Takeaway/sandwich shop,7844,20,,706918,10,,51.37767400000000,14/00148/COM,529,brs@sutton.gov.uk,Sutton,http://www.sutton.gov.uk,-0.23926700000000,KT4 8HY,2014-09-09,fhrs_1_en-GB,1,,FHRS,15
128041,6 Mulgrave Road,Sutton,,,Chums,Takeaway/sandwich shop,7844,5,,30219,10,,51.35910500000000,09/00163/COM,529,brs@sutton.gov.uk,Sutton,http://www.sutton.gov.uk,-0.19209100000000,SM2 6LE,2014-02-22,fhrs_3_en-GB,3,,FHRS,10
128042,406 Green Wrythe Lane,Carshalton,,,Circle Take Away,Takeaway/sandwich shop,7844,0,,414793,0,,51.38452900000000,05372/0406/0/000,529,brs@sutton.gov.uk,Sutton,http://www.sutton.gov.uk,-0.17365700000000,SM5 1JF,2014-03-18,fhrs_2_en-GB,2,,FHRS,15
128043,33 The Broadway,Cheam,,,Claret Wine Bar,Pub/bar/nightclub,7843,10,,570977,10,,51.35891900000000,06117/0033/0/000,529,brs@sutton.gov.uk,Sutton,http://www.sutton.gov.uk,-0.21691900000000,SM3 8BL,2015-01-13,fhrs_3_en-GB,3,,FHRS,10
128044,Health Club & Cricket Ground,Gander Green Lane,Sutton,,Classe Catering,Pub/bar/nightclub,7843,10,,704005,10,,51.36142400000000,14/00088/COM,529,brs@sutton.gov.uk,Sutton,http://www.sutton.gov.uk,-0.20543100000000,SM1 2EH,2014-09-12,fhrs_4_en-GB,4,,FHRS,0
128045,26 Central Road,Worcester Park,,,Classic Wok,Takeaway/sandwich shop,7844,5,,447432,10,,51.37701200000000,06170/0026/0/000,529,brs@sutton.gov.uk,Sutton,http://www.sutton.gov.uk,-0.23828600000000,KT4 8HZ,2014-04-24,fhrs_4_en-GB,4,,FHRS,5
128046,601 London Road,North Cheam,,,Classico Pizza,Takeaway/sandwich shop,7844,20,,491894,5,,51.37354000000000,08/00212/COM,529,brs@sutton.gov.uk,Sutton,http://www.sutton.gov.uk,-0.22569000000000,SM3 9AG,2014-07-23,fhrs_1_en-GB,1,,FHRS,5
128047,15A Gordon Road,Carshalton,,,Clay Oven,Takeaway/sandwich shop,7844,20,,430834,10,,51.35752200000000,05362/0015/3/001,529,brs@sutton.gov.uk,Sutton,http://www.sutton.gov.uk,-0.16714800000000,SM5 3RG,2013-11-06,fhrs_1_en-GB,1,,FHRS,5
128048,10 Stanley Park Road,Wallington,,,Cloverdale Court,Restaurant/Cafe/Canteen,1,5,,571052,5,,51.35695100000000,07/00288/COM,529,brs@sutton.gov.uk,Sutton,http://www.sutton.gov.uk,-0.15201800000000,SM6 0EU,2015-01-07,fhrs_4_en-GB,4,,FHRS,10
128049,26 High Street,Sutton,,,Cock And Bull,Pub/bar/nightclub,7843,10,,20797,10,,51.36089800000000,06455/0026/0/000,529,brs@sutton.gov.uk,Sutton,http://www.sutton.gov.uk,-0.19173300000000,SM1 1HF,2014-12-30,fhrs_3_en-GB,3,,FHRS,10
128050,4 William Street,Carshalton,,,Coffee On The Green,Restaurant/Cafe/Canteen,1,10,,430856,10,,51.37210800000000,12/00095/COM,529,brs@sutton.gov.uk,Sutton,http://www.sutton.gov.uk,-0.16945300000000,SM5 2RB,2014-03-06,fhrs_4_en-GB,4,,FHRS,0
128051,10 Station Way,Cheam,,,Coffee Zone,Restaurant/Cafe/Canteen,1,5,,407030,5,,51.35709000000000,10/00087/COM,529,brs@sutton.gov.uk,Sutton,http://www.sutton.gov.uk,-0.21665900000000,SM3 8SW,2014-08-18,fhrs_5_en-GB,5,,FHRS,5
128052,116 Beddington Lane,Beddington,,,Colleague Restaurant,Restaurant/Cafe/Canteen,1,5,,571049,5,,51.37318800000000,07/00001/COM,529,brs@sutton.gov.uk,Sutton,http://www.sutton.gov.uk,-0.13076000000000,CR0 4TB,2015-02-10,fhrs_5_en-GB,5,,FHRS,5
128053,3 Springfield Road,Wallington,,,Comets,Hospitals/Childcare/Caring Premises,5,5,,570964,0,,51.36189800000000,06/00146/COM,529,brs@sutton.gov.uk,Sutton,http://www.sutton.gov.uk,-0.15375800000000,SM6 0BD,2013-04-08,fhrs_5_en-GB,5,,FHRS,0
128054,16 Kimpton Park Way,Sutton,,,Compass,Restaurant/Cafe/Canteen,1,5,,710192,10,,51.37668100000000,14/00120/COM,529,brs@sutton.gov.uk,Sutton,http://www.sutton.gov.uk,-0.20579700000000,SM3 9QS,2014-10-15,fhrs_4_en-GB,4,,FHRS,5
128055,Asda,229 High Street,Sutton,,Compass At Asda Sutton,Restaurant/Cafe/Canteen,1,0,,34550,5,,51.36785900000000,10/00127/COM,529,brs@sutton.gov.uk,Sutton,http://www.sutton.gov.uk,-0.19525200000000,SM1 1LD,2014-06-13,fhrs_5_en-GB,5,,FHRS,5
128056,55 Oldfields Road,Sutton,,,Compass At Tesco Extra,Restaurant/Cafe/Canteen,1,5,,571140,15,,51.37302100000000,706/00138/COM,529,brs@sutton.gov.uk,Sutton,http://www.sutton.gov.uk,-0.20701700000000,SM1 2NB,2013-09-12,fhrs_2_en-GB,2,,FHRS,10
128057,176 High Street,Sutton,,,Costa,Restaurant/Cafe/Canteen,1,0,,616959,0,,51.36530600000000,13/00199/COM,529,brs@sutton.gov.uk,Sutton,http://www.sutton.gov.uk,-0.19354200000000,SM1 1NL,2013-11-29,fhrs_5_en-GB,5,,FHRS,0
128058,149 Central Road,Worcester Park,,,Costa Coffee,Restaurant/Cafe/Canteen,1,0,,445133,0,,51.37915700000000,06170/0149/3/001,529,brs@sutton.gov.uk,Sutton,http://www.sutton.gov.uk,-0.24342000000000,KT4 8DT,2012-08-04,fhrs_5_en-GB,5,,FHRS,0
128059,15 High Street,Cheam,,,Costa Coffee,Restaurant/Cafe/Canteen,1,0,,632114,5,,51.35796600000000,06454/0015/0/000,529,brs@sutton.gov.uk,Sutton,http://www.sutton.gov.uk,-0.21573500000000,SM3 8RQ,2014-02-04,fhrs_2_en-GB,2,,FHRS,15
128060,36 Sandy Lane South,Wallington,,,Cottisbraine House,Hospitals/Childcare/Caring Premises,5,10,,570910,5,,51.35567300000000,04675/0036/0/000,529,brs@sutton.gov.uk,Sutton,http://www.sutton.gov.uk,-0.14003300000000,SM6 9QZ,2014-04-14,fhrs_4_en-GB,4,,FHRS,5
128061,1B High Street,Sutton,,,Coughlans,Retailers - other,4613,0,,20791,0,,51.35969200000000,06455/0001/3/002,529,brs@sutton.gov.uk,Sutton,http://www.sutton.gov.uk,-0.19168000000000,SM1 1DE,2014-02-14,fhrs_4_en-GB,4,,FHRS,10
128062,5 The Parade,Stafford Road,Wallington,,Coughlans,Retailers - other,4613,10,,430831,10,,51.36248400000000,04703/0320/3/007,529,brs@sutton.gov.uk,Sutton,http://www.sutton.gov.uk,-0.12218900000000,SM6 8ND,2014-03-05,fhrs_4_en-GB,4,,FHRS,0
128063,58 Banstead Road,Carshalton,,,Coughlans Bakeries,Retailers - other,4613,5,,481968,5,,51.35698400000000,12/00197/COM,529,brs@sutton.gov.uk,Sutton,http://www.sutton.gov.uk,-0.17414900000000,SM5 3NL,2014-06-02,fhrs_4_en-GB,4,,FHRS,10
128064,58-60 Woodcote Road,Wallington,,,Coughlans Bakery,Retailers - other,4613,5,,553472,5,,51.35860000000000,04779/0058/0/000,529,brs@sutton.gov.uk,Sutton,http://www.sutton.gov.uk,-0.14995500000000,SM6 0LY,2014-11-27,fhrs_5_en-GB,5,,FHRS,5
128065,32 Wallington Square,Wallington,,,Cox Pippin Cafe,Restaurant/Cafe/Canteen,1,20,,553489,5,,51.35842600000000,13/00071/COM,529,brs@sutton.gov.uk,Sutton,http://www.sutton.gov.uk,-0.14862600000000,SM6 8RG,2014-12-17,fhrs_1_en-GB,1,,FHRS,15
128066,28 Morley Road,Sutton,,,Creperie Guadeloupe,Mobile caterer,7846,,,641216,,,51.38118600000000,13/00055/COM,529,brs@sutton.gov.uk,Sutton,http://www.sutton.gov.uk,-0.20871000000000,SM3 9LN,2014-09-29,fhrs_5_en-GB,5,,FHRS,
128067,17 Overton Road,Sutton,,,Crossways Nursing Home,Hospitals/Childcare/Caring Premises,5,5,,570866,5,,51.35380900000000,006666/0017/3/001,529,brs@sutton.gov.uk,Sutton,http://www.sutton.gov.uk,-0.20031400000000,SM2 6RA,2014-01-13,fhrs_5_en-GB,5,,FHRS,5
128068,26 Ewell Road,Cheam,,,Crostini,Restaurant/Cafe/Canteen,1,5,,624866,5,,51.35779600000000,14/00003/COM,529,brs@sutton.gov.uk,Sutton,http://www.sutton.gov.uk,-0.21756500000000,SM3 8BU,2015-01-16,fhrs_5_en-GB,5,,FHRS,5
128069,387-389 Croydon Road,Wallington,,,Crumms Bakery,Restaurant/Cafe/Canteen,1,5,,465465,5,,51.36736300000000,12/00182/COM,529,brs@sutton.gov.uk,Sutton,http://www.sutton.gov.uk,-0.15306400000000,SM6 7NY,2013-10-10,fhrs_5_en-GB,5,,FHRS,0
128070,Banstead Road,Banstead,,,Cuddington Golf Club,Other catering premises,7841,5,,570973,0,,51.33258500000000,06044/0245/2/000,529,brs@sutton.gov.uk,Sutton,http://www.sutton.gov.uk,-0.21608900000000,SM7 1RB,2012-02-22,fhrs_5_en-GB,5,,FHRS,0
128071,Culvers House Primary School,Orchard Avenue,Mitcham Junction,,Culvers House Playcentre And Out Of School Club,Hospitals/Childcare/Caring Premises,5,10,,683237,5,,51.38191400000000,11/00085/COM,529,brs@sutton.gov.uk,Sutton,http://www.sutton.gov.uk,-0.15936200000000,CR4 4JH,2014-07-15,fhrs_3_en-GB,3,,FHRS,10
128072,Orchard Avenue,Mitcham Junction,,,Culvers House Primary School Kitchen,Restaurant/Cafe/Canteen,1,0,,570902,5,,51.38191400000000,04569/0100/0/000,529,brs@sutton.gov.uk,Sutton,http://www.sutton.gov.uk,-0.15936200000000,CR4 4JH,2013-05-09,fhrs_5_en-GB,5,,FHRS,0
128073,13 Station Road,Belmont,,,Curryzma,Other catering premises,7841,10,,571137,15,,51.34394500000000,13/00114/COM,529,brs@sutton.gov.uk,Sutton,http://www.sutton.gov.uk,-0.19979500000000,SM2 6BG,2014-04-30,fhrs_2_en-GB,2,,FHRS,10
128074,4 Central Avenue,Wallington,,,D Parker And Son,Retailers - other,4613,0,,462661,5,,51.36282800000000,11/00178/COM,529,brs@sutton.gov.uk,Sutton,http://www.sutton.gov.uk,-0.12853900000000,SM6 8NX,2014-06-19,fhrs_5_en-GB,5,,FHRS,5
128075,260 High Street,Sutton,,,Dallas,Takeaway/sandwich shop,7844,20,,700461,15,,51.36827400000000,14/00100/COM,529,brs@sutton.gov.uk,Sutton,http://www.sutton.gov.uk,-0.19476200000000,SM1 1PG,2014-09-03,fhrs_1_en-GB,1,,FHRS,15
128076,1D - 1E High Street,Sutton,,,Dallas Chicken And Ribs,Takeaway/sandwich shop,7844,10,,683241,10,,51.35969200000000,14/00078/COM,529,brs@sutton.gov.uk,Sutton,http://www.sutton.gov.uk,-0.19168000000000,SM1 1DE,2014-07-08,fhrs_3_en-GB,3,,FHRS,10
128077,151 Stanley Park Road,Carshalton,,,Dawson House,Hospitals/Childcare/Caring Premises,5,5,,570952,5,,51.35424200000000,05703/0151/0/000,529,brs@sutton.gov.uk,Sutton,http://www.sutton.gov.uk,-0.16386000000000,SM5 3JJ,2014-09-08,fhrs_5_en-GB,5,,FHRS,5
128078,Dorchester Primary School,Dorchester Road,Worcester Park,,"Dazzlers Breakfast, After School And Holiday Club",Hospitals/Childcare/Caring Premises,5,5,,570875,0,,51.38040000000000,04/00070/COM,529,brs@sutton.gov.uk,Sutton,http://www.sutton.gov.uk,-0.23158900000000,KT4 8PG,2013-04-08,fhrs_5_en-GB,5,,FHRS,5
128079,20 Cheam Common Road,Worcester Park,,,Delhi Chefs,Restaurant/Cafe/Canteen,1,20,,462662,15,,51.37172600000000,12/00173/COM,529,brs@sutton.gov.uk,Sutton,http://www.sutton.gov.uk,-0.22886300000000,KT4 8RW,2014-07-16,fhrs_1_en-GB,1,,FHRS,15
128080,3 Tudor Close,Cheam,,,Deli Box,Other catering premises,7841,5,,704004,5,,51.36117900000000,13/00232/COM,529,brs@sutton.gov.uk,Sutton,http://www.sutton.gov.uk,-0.22004800000000,SM3 8QS,2014-09-16,fhrs_5_en-GB,5,,FHRS,5
128081,Sutton Bowling Club Ltd,Dorset Road,Belmont,,Delicious Feast,Other catering premises,7841,10,,358969,15,,51.34778500000000,10/00230/COM,529,brs@sutton.gov.uk,Sutton,http://www.sutton.gov.uk,-0.20330700000000,SM2 6JA,2014-12-17,fhrs_2_en-GB,2,,FHRS,10
128082,8 Ross Parade,Wallington,,,Delicious House,Takeaway/sandwich shop,7844,5,,571091,10,,51.36011100000000,10/00147/COM,529,brs@sutton.gov.uk,Sutton,http://www.sutton.gov.uk,-0.14880200000000,SM6 8QG,2013-09-02,fhrs_3_en-GB,3,,FHRS,10
128083,Devonshire Primary School,Devonshire Avenue,Sutton,,Devonshire Primary School Kitchen,Restaurant/Cafe/Canteen,1,0,,570997,5,,51.35366300000000,06290/0001/2/000,529,brs@sutton.gov.uk,Sutton,http://www.sutton.gov.uk,-0.18850000000000,SM2 5JL,2013-09-12,fhrs_5_en-GB,5,,FHRS,0
128084,675 Mitcham Road,Croydon,,,Dhamecha Cash And Carry,Distributors/Transporters,7,10,,570899,5,,51.38925600000000,04537/0675/3/001,529,brs@sutton.gov.uk,Sutton,http://www.sutton.gov.uk,-0.13346900000000,CR9 3AL,2012-12-12,fhrs_3_en-GB,3,,FHRS,10
128085,72 London Road,Mitcham Junction,,,Diamond Kebab,Takeaway/sandwich shop,7844,5,,445130,10,,51.38381200000000,04485/0072/0/000,529,brs@sutton.gov.uk,Sutton,http://www.sutton.gov.uk,-0.15769000000000,CR4 4JB,2013-09-18,fhrs_4_en-GB,4,,FHRS,5
128086,243 Green Lane,Morden,,,Dolphin Day Nursery,Hospitals/Childcare/Caring Premises,5,5,,641226,0,,51.38557000000000,14/00028/COM,529,brs@sutton.gov.uk,Sutton,http://www.sutton.gov.uk,-0.19090500000000,SM4 6SQ,2014-03-11,fhrs_5_en-GB,5,,FHRS,0
128087,133 Wrythe Lane,Carshalton,,,Dolphin Fish Bar,Takeaway/sandwich shop,7844,5,,513969,10,,51.37579800000000,05852/0133/0/000,529,brs@sutton.gov.uk,Sutton,http://www.sutton.gov.uk,-0.17771200000000,SM5 2RU,2014-08-06,fhrs_4_en-GB,4,,FHRS,5
128088,12-13 Regent Parade,Brighton Road,Sutton,,Dominos,Takeaway/sandwich shop,7844,0,,47873,0,,51.35852100000000,11/00182/COM,529,brs@sutton.gov.uk,Sutton,http://www.sutton.gov.uk,-0.19149700000000,SM2 5BQ,2011-09-19,fhrs_5_en-GB,5,,FHRS,0
128089,331 High Street,Sutton,,,Domino's Pizza,Takeaway/sandwich shop,7844,0,,20818,0,,51.36987300000000,06455/0331/0/000,529,brs@sutton.gov.uk,Sutton,http://www.sutton.gov.uk,-0.19523000000000,SM1 1LW,2011-07-14,fhrs_5_en-GB,5,,FHRS,5
128090,Dorchester Road,Worcester Park,,,Dorchester Primary School,Restaurant/Cafe/Canteen,1,0,,521110,5,,51.38040000000000,06300/0002/2/000,529,brs@sutton.gov.uk,Sutton,http://www.sutton.gov.uk,-0.23158900000000,KT4 8PG,2014-09-17,fhrs_5_en-GB,5,,FHRS,0
128091,50 Holland Avenue,Cheam,,,Downs Lawn Tennis Club,Other catering premises,7841,10,,571011,10,,51.35016300000000,06472/0050/0/000,529,brs@sutton.gov.uk,Sutton,http://www.sutton.gov.uk,-0.20353000000000,SM2 6HU,2012-11-06,fhrs_3_en-GB,3,,FHRS,10
128092,41 Erskine Road,Sutton,,,Dragon Chef,Takeaway/sandwich shop,7844,5,,395887,5,,51.37021100000000,05318/0041/0/000,529,brs@sutton.gov.uk,Sutton,http://www.sutton.gov.uk,-0.17928400000000,SM1 3AT,2014-08-26,fhrs_5_en-GB,5,,FHRS,5
128093,45 Stanley Road,Carshalton,,,Dragon City,Takeaway/sandwich shop,7844,20,,665624,15,,51.35338100000000,14/00013/COM,529,brs@sutton.gov.uk,Sutton,http://www.sutton.gov.uk,-0.16228600000000,SM5 4LE,2014-05-19,fhrs_1_en-GB,1,,FHRS,15
128094,511 London Road,North Cheam,,,Dragon Inn,Other catering premises,7841,10,,504818,15,,51.37170900000000,10/00144/COM,529,brs@sutton.gov.uk,Sutton,http://www.sutton.gov.uk,-0.22772900000000,SM3 8JR,2013-01-11,fhrs_2_en-GB,2,,FHRS,10
128095,6 Manor Road North,Wallington,,,Dukes Head Hotel,Pub/bar/nightclub,7843,5,,570898,10,,51.36783800000000,04504/0006/2/000,529,brs@sutton.gov.uk,Sutton,http://www.sutton.gov.uk,-0.15462500000000,SM6 7NT,2014-12-04,fhrs_4_en-GB,4,,FHRS,5
128096,28 Station Road,Belmont,,,Dynasty,Takeaway/sandwich shop,7844,20,,513972,15,,51.34377200000000,06805/0028/0/000,529,brs@sutton.gov.uk,Sutton,http://www.sutton.gov.uk,-0.20080700000000,SM2 6BS,2014-01-16,fhrs_1_en-GB,1,,FHRS,15
128097,1C High Street,Sutton,,,Efes Kebab,Takeaway/sandwich shop,7844,,,445142,,,51.35969200000000,12/00134/COM,529,brs@sutton.gov.uk,Sutton,http://www.sutton.gov.uk,-0.19168000000000,SM1 1DE,2014-05-02,fhrs_5_en-GB,5,,FHRS,
128098,501 London Road,North Cheam,,,El Desperado,Restaurant/Cafe/Canteen,1,10,,571015,5,,51.37170900000000,06550/0501/0/000,529,brs@sutton.gov.uk,Sutton,http://www.sutton.gov.uk,-0.22772900000000,SM3 8JR,2014-12-31,fhrs_4_en-GB,4,,FHRS,5
128099,79 Manor Road,Wallington,,,El Nido,Restaurant/Cafe/Canteen,1,5,,471189,5,,51.36197900000000,04504/0079/0/000,529,brs@sutton.gov.uk,Sutton,http://www.sutton.gov.uk,-0.15036400000000,SM6 0DE,2015-01-06,fhrs_5_en-GB,5,,FHRS,5
128100,15 Ross Parade,Wallington,,,Elite Fish And Chips Limited,Takeaway/sandwich shop,7844,10,,622053,5,,51.36011100000000,13/00230/COM,529,brs@sutton.gov.uk,Sutton,http://www.sutton.gov.uk,-0.14880200000000,SM6 8QG,2013-12-19,fhrs_4_en-GB,4,,FHRS,5
128101,399 London Road,North Cheam,,,Elmglade Home,Hospitals/Childcare/Caring Premises,5,10,,571013,10,,51.36755900000000,06550/0399/0/000,529,brs@sutton.gov.uk,Sutton,http://www.sutton.gov.uk,-0.23221300000000,SM3 8JH,2014-03-03,fhrs_3_en-GB,3,,FHRS,10
128102,Carshalton College,Nightingale Road,Carshalton,,Elmwood Nursery,Hospitals/Childcare/Caring Premises,5,0,,571141,5,,51.37142000000000,V 05285/0003/0/000,529,brs@sutton.gov.uk,Sutton,http://www.sutton.gov.uk,-0.16512700000000,SM5 2EJ,2013-12-10,fhrs_5_en-GB,5,,FHRS,0
128103,1 Wrythe Green Road,Carshalton,,,Emperor's Kitchen,Takeaway/sandwich shop,7844,5,,571085,10,,51.37148100000000,10/00040/COM,529,brs@sutton.gov.uk,Sutton,http://www.sutton.gov.uk,-0.16903300000000,SM5 2QT,2013-11-15,fhrs_3_en-GB,3,,FHRS,10
128104,139 Church Hill Road,Cheam,,,Empire House Chinese Takeaway,Takeaway/sandwich shop,7844,10,,571089,5,,51.36844000000000,10/00130/COM,529,brs@sutton.gov.uk,Sutton,http://www.sutton.gov.uk,-0.21973800000000,SM3 8NE,2014-02-27,fhrs_3_en-GB,3,,FHRS,10
128105,77 Stonecot Hill,Sutton,,,Empress Of India,Restaurant/Cafe/Canteen,1,20,,407028,15,,51.38371600000000,06813/0077/0/000,529,brs@sutton.gov.uk,Sutton,http://www.sutton.gov.uk,-0.21362700000000,SM3 9HJ,2014-01-07,fhrs_1_en-GB,1,,FHRS,15
128106,150 London Road,Hackbridge,,,Equinox Fish Bar,Takeaway/sandwich shop,7844,0,,471194,10,,51.38062800000000,09/00246/COM,529,brs@sutton.gov.uk,Sutton,http://www.sutton.gov.uk,-0.15597900000000,SM6 7HF,2014-06-17,fhrs_4_en-GB,4,,FHRS,5
128107,Unit 1  Level 1 St Nicholas Centre,St Nicholas Way,Sutton,,Esquires Coffee,Restaurant/Cafe/Canteen,1,0,,32707,0,,51.36468800000000,10/00001/COM,529,brs@sutton.gov.uk,Sutton,http://www.sutton.gov.uk,-0.19429900000000,SM1 1AW,2011-07-28,fhrs_5_en-GB,5,,FHRS,5
128108,6 Wealdstone Road,Sutton,,,Eurest,Restaurant/Cafe/Canteen,1,5,,624860,10,,51.37653600000000,06895/0006/0/000,529,brs@sutton.gov.uk,Sutton,http://www.sutton.gov.uk,-0.20752700000000,SM3 9RW,2014-01-13,fhrs_2_en-GB,2,,FHRS,15
128109,Police Station,6 Carshalton Road,Sutton,,Eurest CJ At Sutton Police Station,Restaurant/Cafe/Canteen,1,5,,571038,5,,51.36119700000000,06831/0017/0/000,529,brs@sutton.gov.uk,Sutton,http://www.sutton.gov.uk,-0.19124800000000,SM1 4RF,2014-12-16,fhrs_5_en-GB,5,,FHRS,5
128110,118 Beddington Lane,Beddington,,,Eurest Services,Restaurant/Cafe/Canteen,1,5,,571046,0,,51.37318800000000,06975/0118/3/001,529,brs@sutton.gov.uk,Sutton,http://www.sutton.gov.uk,-0.13076000000000,CR0 4TB,2014-02-12,fhrs_4_en-GB,4,,FHRS,10
128111,Quadrant House,Brighton Road,Sutton,,Eurest Staff Restaurant,Restaurant/Cafe/Canteen,1,5,,447431,0,,51.35909200000000,06112/0027/2/000,529,brs@sutton.gov.uk,Sutton,http://www.sutton.gov.uk,-0.19005200000000,SM2 5DE,2014-12-23,fhrs_4_en-GB,4,,FHRS,10
128112,Maple House,Woodmansterne Lane,Wallington,,Evergreen Partnership,Hospitals/Childcare/Caring Premises,5,10,,570876,5,,51.34683200000000,04/00104/COM,529,brs@sutton.gov.uk,Sutton,http://www.sutton.gov.uk,-0.14841800000000,SM6 0SU,2013-04-08,fhrs_4_en-GB,4,,FHRS,5
128113,45 Mulgrave Road,Sutton,,,Eversfield House,Hospitals/Childcare/Caring Premises,5,0,,571025,0,,51.35777000000000,06625/0045/0/000,529,brs@sutton.gov.uk,Sutton,http://www.sutton.gov.uk,-0.19592100000000,SM2 6LJ,2014-04-24,fhrs_5_en-GB,5,,FHRS,0
128114,The Phoenix Centre,Mollison Drive,Wallington,,Everyone Active Cafe,Restaurant/Cafe/Canteen,1,10,,641218,0,,51.35334200000000,13/00162/COM,529,brs@sutton.gov.uk,Sutton,http://www.sutton.gov.uk,-0.13309000000000,SM6 9NZ,2014-03-05,fhrs_4_en-GB,4,,FHRS,0
128115,1 Gordon Road,Carshalton,,,Ezee Pizza,Takeaway/sandwich shop,7844,10,,580094,10,,51.35752200000000,13/00139/COM,529,brs@sutton.gov.uk,Sutton,http://www.sutton.gov.uk,-0.16714800000000,SM5 3RG,2013-08-02,fhrs_2_en-GB,2,,FHRS,15
128116,171 Stafford Road,Wallington,,,Family Fish Bar,Takeaway/sandwich shop,7844,10,,504827,5,,51.35935200000000,13/00013/COM,529,brs@sutton.gov.uk,Sutton,http://www.sutton.gov.uk,-0.13895100000000,SM6 9BT,2014-07-17,fhrs_3_en-GB,3,,FHRS,10
128117,Woodcote Green Nursery,Woodmansterne Lane,Wallington,,Farm Shop (Deli),Retailers - other,4613,5,,584433,5,,51.34683200000000,13/00164/COM,529,brs@sutton.gov.uk,Sutton,http://www.sutton.gov.uk,-0.14841800000000,SM6 0SU,2013-08-30,fhrs_5_en-GB,5,,FHRS,0
128118,131 Stafford Road,Wallington,,,Farmhouse Pizza,Takeaway/sandwich shop,7844,20,,455695,10,,51.35911100000000,11/00031/COM,529,brs@sutton.gov.uk,Sutton,http://www.sutton.gov.uk,-0.14077000000000,SM6 9BN,2014-02-14,fhrs_1_en-GB,1,,FHRS,5
128119,148 Beddington Lane,Beddington,,,Fat Boys Cafe,Restaurant/Cafe/Canteen,1,10,,622050,10,,51.38393200000000,06975/0148/0/000,529,brs@sutton.gov.uk,Sutton,http://www.sutton.gov.uk,-0.13858600000000,CR0 4TD,2013-12-19,fhrs_3_en-GB,3,,FHRS,10
128120,21 The Market,Wrythe Lane,Carshalton,,Favorite Chicken And Ribs,Takeaway/sandwich shop,7844,10,,571070,10,,51.38311400000000,09/00028/COM,529,brs@sutton.gov.uk,Sutton,http://www.sutton.gov.uk,-0.18851500000000,SM5 1AG,2013-09-02,fhrs_3_en-GB,3,,FHRS,10
128121,50 Stafford Road,Wallington,,,Favorite Chicken And Ribs,Takeaway/sandwich shop,7844,10,,430830,10,,51.35896600000000,04703/0050/0/000,529,brs@sutton.gov.uk,Sutton,http://www.sutton.gov.uk,-0.14349100000000,SM6 9AY,2014-07-23,fhrs_3_en-GB,3,,FHRS,10
128122,512 London Road,North Cheam,,,Favorite Chicken And Ribs,Takeaway/sandwich shop,7844,10,,622054,10,,51.37156200000000,13/00231/COM,529,brs@sutton.gov.uk,Sutton,http://www.sutton.gov.uk,-0.22695900000000,SM3 8HW,2014-12-29,fhrs_2_en-GB,2,,FHRS,15
128123,371 Green Wrythe Lane,Carshalton,,,Favorite Fried Chicken,Takeaway/sandwich shop,7844,20,,513967,15,,51.38437700000000,05372/0371/0/000,529,brs@sutton.gov.uk,Sutton,http://www.sutton.gov.uk,-0.17428100000000,SM5 1JQ,2014-07-21,fhrs_1_en-GB,1,,FHRS,15
128124,17 Mayfield Road,Sutton,,,Faygate House,Hospitals/Childcare/Caring Premises,5,5,,570939,5,,51.35820100000000,05487/0017/3/001,529,brs@sutton.gov.uk,Sutton,http://www.sutton.gov.uk,-0.18132600000000,SM2 5DU,2013-12-30,fhrs_5_en-GB,5,,FHRS,0
128125,528 London Road,North Cheam,,,Feedwell Cafe,Restaurant/Cafe/Canteen,1,10,,504813,10,,51.37156200000000,06550/0528/0/000,529,brs@sutton.gov.uk,Sutton,http://www.sutton.gov.uk,-0.22695900000000,SM3 8HW,2014-09-19,fhrs_3_en-GB,3,,FHRS,10
128126,17 The Market,Wrythe Lane,Carshalton,,Fish R Us,Restaurant/Cafe/Canteen,1,20,,430836,10,,51.38311400000000,05485/0017/0/000,529,brs@sutton.gov.uk,Sutton,http://www.sutton.gov.uk,-0.18851500000000,SM5 1AG,2014-03-11,fhrs_1_en-GB,1,,FHRS,5
128127,396 Sutton Common Road,Sutton,,,Fishermans Chippy,Takeaway/sandwich shop,7844,10,,430848,5,,51.38339200000000,09/00160/COM,529,brs@sutton.gov.uk,Sutton,http://www.sutton.gov.uk,-0.20477300000000,SM3 9PL,2014-01-28,fhrs_2_en-GB,2,,FHRS,15
128128,178 Croydon Road,Wallington,,,Fishland UK,Takeaway/sandwich shop,7844,10,,570868,5,,51.36795400000000,008/00114/COM,529,brs@sutton.gov.uk,Sutton,http://www.sutton.gov.uk,-0.13187800000000,CR0 4PJ,2015-01-06,fhrs_4_en-GB,4,,FHRS,5
128129,Foresters Primary School,Redford Avenue,Wallington,,Foresters Primary School - Kitchen,Restaurant/Cafe/Canteen,1,0,,665627,5,,51.35712000000000,14/00035/COM,529,brs@sutton.gov.uk,Sutton,http://www.sutton.gov.uk,-0.13430100000000,SM6 9DP,2015-01-06,fhrs_5_en-GB,5,,FHRS,5
128130,1 The Broadway,Sutton,,,Friendly Chinese Takeaway,Takeaway/sandwich shop,7844,10,,528589,15,,51.36556000000000,06116/0001/0/000,529,brs@sutton.gov.uk,Sutton,http://www.sutton.gov.uk,-0.18672300000000,SM1 4BU,2014-08-25,fhrs_2_en-GB,2,,FHRS,15
128131,4 Regent Parade,Brighton Road,Sutton,,Friendly Dolphin,Takeaway/sandwich shop,7844,5,,20520,5,,51.35852100000000,06112/0002/3/004,529,brs@sutton.gov.uk,Sutton,http://www.sutton.gov.uk,-0.19149700000000,SM2 5BQ,2015-01-28,fhrs_5_en-GB,5,,FHRS,0
128132,St Helier Hospital,Wrythe Lane,Carshalton,,Friends Of St Helier Tea Bar,Restaurant/Cafe/Canteen,1,10,,539498,10,,51.38008300000000,05852/0273/3/007,529,brs@sutton.gov.uk,Sutton,http://www.sutton.gov.uk,-0.18320300000000,SM5 1AA,2014-10-02,fhrs_3_en-GB,3,,FHRS,10
128133,53 - 55 The Broadway,Cheam,,,Fruitbat Juice Bar Ltd,Restaurant/Cafe/Canteen,1,5,,584431,5,,51.35891900000000,13/00128/COM,529,brs@sutton.gov.uk,Sutton,http://www.sutton.gov.uk,-0.21691900000000,SM3 8BL,2015-02-04,fhrs_5_en-GB,5,,FHRS,5
128134,381 Green Wrythe Lane,Carshalton,,,Fudge Cakes,Retailers - other,4613,10,,493636,5,,51.38437700000000,12/00209/COM,529,brs@sutton.gov.uk,Sutton,http://www.sutton.gov.uk,-0.17428100000000,SM5 1JQ,2013-12-27,fhrs_4_en-GB,4,,FHRS,5
128135,109 Stanley Park Road,Carshalton,,,Full Wing Chinese Takeaway,Takeaway/sandwich shop,7844,10,,571088,15,,51.35424200000000,10/00120/COM,529,brs@sutton.gov.uk,Sutton,http://www.sutton.gov.uk,-0.16386000000000,SM5 3JJ,2013-10-18,fhrs_2_en-GB,2,,FHRS,10
128136,80 High Street,Carshalton,,,Galaxy Cafe,Restaurant/Cafe/Canteen,1,5,,513984,10,,51.36518900000000,12/00030/COM,529,brs@sutton.gov.uk,Sutton,http://www.sutton.gov.uk,-0.16119600000000,SM5 3AG,2014-08-19,fhrs_4_en-GB,4,,FHRS,5
128137,The Gander,2 St Dunstans Hill,Cheam,,Gander Inn,Pub/bar/nightclub,7843,0,,513971,5,,51.37103000000000,06744/0002/2/000,529,brs@sutton.gov.uk,Sutton,http://www.sutton.gov.uk,-0.20968100000000,SM1 2UE,2014-09-15,fhrs_5_en-GB,5,,FHRS,5
128138,302 High Street,Sutton,,,Ganesa Restuarant,Other catering premises,7841,10,,513988,10,,51.36882600000000,13/00019/COM,529,brs@sutton.gov.uk,Sutton,http://www.sutton.gov.uk,-0.19498400000000,SM1 1PQ,2014-10-14,fhrs_2_en-GB,2,,FHRS,15
128139,18 Stanley Park Road,Wallington,,,Gaytime Day Nursery And Baby Room,Hospitals/Childcare/Caring Premises,5,5,,570918,0,,51.35695100000000,04707/0018/0/000,529,brs@sutton.gov.uk,Sutton,http://www.sutton.gov.uk,-0.15201800000000,SM6 0EU,2015-01-07,fhrs_5_en-GB,5,,FHRS,5
128140,408 Green Wrythe Lane,Carshalton,,,Georges Cafe,Restaurant/Cafe/Canteen,1,20,,504825,10,,51.38452900000000,13/00007/COM,529,brs@sutton.gov.uk,Sutton,http://www.sutton.gov.uk,-0.17365700000000,SM5 1JF,2014-07-22,fhrs_1_en-GB,1,,FHRS,10
128141,55 Oldfields Road,Sutton,,,Giraffe,Restaurant/Cafe/Canteen,1,0,,666964,0,,51.37302100000000,14/00022/COM,529,brs@sutton.gov.uk,Sutton,http://www.sutton.gov.uk,-0.20701700000000,SM1 2NB,2014-05-27,fhrs_5_en-GB,5,,FHRS,0
128142,26 Manor Road,Cheam,,,Glaisdale Day Nursery,Hospitals/Childcare/Caring Premises,5,0,,571079,5,,51.35208600000000,09/00235/COM,529,brs@sutton.gov.uk,Sutton,http://www.sutton.gov.uk,-0.20988800000000,SM2 7AG,2015-02-03,fhrs_5_en-GB,5,,FHRS,5
128143,Glenthorne High School,270 Sutton Common Road,Sutton,,Glenthorne High School Kitchen,Restaurant/Cafe/Canteen,1,5,,571037,5,,51.38107100000000,06830/0226/2/000,529,brs@sutton.gov.uk,Sutton,http://www.sutton.gov.uk,-0.20122800000000,SM3 9PS,2014-11-04,fhrs_5_en-GB,5,,FHRS,5
128144,656 London Road,North Cheam,,,Goals Soccer Centre,Other catering premises,7841,10,,407023,10,,51.37504800000000,06/00122/COM,529,brs@sutton.gov.uk,Sutton,http://www.sutton.gov.uk,-0.22318900000000,SM3 9BZ,2013-11-19,fhrs_3_en-GB,3,,FHRS,10
128145,559 London Road,North Cheam,,,Golden City Chinese Takeaway,Takeaway/sandwich shop,7844,10,,571115,10,,51.37252200000000,12/00106/COM,529,brs@sutton.gov.uk,Sutton,http://www.sutton.gov.uk,-0.22679200000000,SM3 9AE,2013-07-22,fhrs_2_en-GB,2,,FHRS,15
128146,112 - 112A Manor Road,Wallington,,,Golden Grill,Takeaway/sandwich shop,7844,20,,629198,10,,51.36130100000000,14/00010/COM,529,brs@sutton.gov.uk,Sutton,http://www.sutton.gov.uk,-0.15073600000000,SM6 0DS,2014-01-25,fhrs_1_en-GB,1,,FHRS,5
128147,362-364 High Street,Sutton,,,Golden Lion,Restaurant/Cafe/Canteen,1,5,,48138,5,,51.37088800000000,11/00220/COM,529,brs@sutton.gov.uk,Sutton,http://www.sutton.gov.uk,-0.19455800000000,SM1 1QE,2014-09-17,fhrs_5_en-GB,5,,FHRS,5
128148,18 Cheam Common Road,Worcester Park,,,Google Venue Centre,Restaurant/Cafe/Canteen,1,0,,491896,10,,51.37172600000000,10/00113/COM,529,brs@sutton.gov.uk,Sutton,http://www.sutton.gov.uk,-0.22886300000000,KT4 8RW,2014-06-04,fhrs_4_en-GB,4,,FHRS,5
128149,6 Grange Road,Sutton,,,Grange Cottage,Hospitals/Childcare/Caring Premises,5,10,,539501,15,,51.35584100000000,10/00024/COM,529,brs@sutton.gov.uk,Sutton,http://www.sutton.gov.uk,-0.19556600000000,SM2 6RS,2014-10-20,fhrs_2_en-GB,2,,FHRS,10
128150,Grange Play Centre,Beddington Park,London Road,Wallington,Grange Playcentre,Hospitals/Childcare/Caring Premises,5,10,,691717,5,,51.37209700000000,11/00086/COM,529,brs@sutton.gov.uk,Sutton,http://www.sutton.gov.uk,-0.15100600000000,SM6 7BT,2014-07-08,fhrs_4_en-GB,4,,FHRS,5
128151,22 York Road,Cheam,,,Grantley Court Nursing Home,Hospitals/Childcare/Caring Premises,5,5,,571042,10,,51.35200300000000,06952/0022/3/012,529,brs@sutton.gov.uk,Sutton,http://www.sutton.gov.uk,-0.20505200000000,SM2 6HH,2014-06-02,fhrs_4_en-GB,4,,FHRS,5
128152,Street Blpu,Woodcote Road,Wallington,,Grant's Fish,Mobile caterer,7846,10,,618901,10,,,13/00206/COM,529,brs@sutton.gov.uk,Sutton,http://www.sutton.gov.uk,,,2014-12-12,fhrs_3_en-GB,3,,FHRS,5
128153,49 Grange Road,Sutton,,,Grasmere Rest Home,Hospitals/Childcare/Caring Premises,5,5,,571003,5,,51.35410800000000,06412/0049/3/001,529,brs@sutton.gov.uk,Sutton,http://www.sutton.gov.uk,-0.19985700000000,SM2 6ST,2014-07-29,fhrs_4_en-GB,4,,FHRS,10
128154,Unit E 31 - 33 High Street,Carshalton,,,Grazie Mille,Restaurant/Cafe/Canteen,1,10,,535826,5,,51.36570900000000,05400/0031/3/071,529,brs@sutton.gov.uk,Sutton,http://www.sutton.gov.uk,-0.16050000000000,SM5 3AX,2014-09-09,fhrs_4_en-GB,4,,FHRS,5
128155,3B The Parade,Stafford Road,Wallington,,Great Chicken,Takeaway/sandwich shop,7844,10,,493631,5,,51.36216500000000,04703/0320/3/003,529,brs@sutton.gov.uk,Sutton,http://www.sutton.gov.uk,-0.12249000000000,CR0 4NH,2014-08-19,fhrs_3_en-GB,3,,FHRS,10
128156,Green Wrythe Primary School,Green Wrythe Lane,Carshalton,,Green Wrythe Primary School Kitchen,Restaurant/Cafe/Canteen,1,5,,570932,5,,51.38943400000000,05372/0468/2/000,529,brs@sutton.gov.uk,Sutton,http://www.sutton.gov.uk,-0.17852100000000,SM5 1JP,2014-07-03,fhrs_4_en-GB,4,,FHRS,10
128157,Greenshaw High School,Grennell Road,Sutton,,Greenshaw High School Kitchen,Restaurant/Cafe/Canteen,1,10,,571005,10,,51.37644000000000,06421/0054/2/000,529,brs@sutton.gov.uk,Sutton,http://www.sutton.gov.uk,-0.18317500000000,SM1 3DY,2013-10-16,fhrs_3_en-GB,3,,FHRS,10
128158,125 Central Road,Worcester Park,,,Greggs,Retailers - other,4613,10,,570985,10,,51.37866400000000,06170/0125/0/000,529,brs@sutton.gov.uk,Sutton,http://www.sutton.gov.uk,-0.24229000000000,KT4 8DY,2013-10-10,fhrs_3_en-GB,3,,FHRS,10
128159,217 High Street,Sutton,,,Greggs,Retailers - other,4613,0,,20808,5,,51.36638300000000,06455/0217/0/000,529,brs@sutton.gov.uk,Sutton,http://www.sutton.gov.uk,-0.19460600000000,SM1 1LB,2014-11-05,fhrs_5_en-GB,5,,FHRS,5
128160,522 London Road,Cheam,,,Greggs,Retailers - other,4613,0,,407027,0,,51.37156200000000,06550/0522/0/000,529,brs@sutton.gov.uk,Sutton,http://www.sutton.gov.uk,-0.22695900000000,SM3 8HW,2013-12-18,fhrs_4_en-GB,4,,FHRS,10
128161,72 High Street,Sutton,,,Greggs,Retailers - other,4613,0,,20803,0,,51.36182900000000,06455/0072/0/000,529,brs@sutton.gov.uk,Sutton,http://www.sutton.gov.uk,-0.19202700000000,SM1 1EZ,2013-04-12,fhrs_5_en-GB,5,,FHRS,5
128162,86 Woodcote Road,Wallington,,,Greggs,Retailers - other,4613,5,,570919,5,,51.35860000000000,04779/0086/0/000,529,brs@sutton.gov.uk,Sutton,http://www.sutton.gov.uk,-0.14995500000000,SM6 0LY,2014-12-30,fhrs_5_en-GB,5,,FHRS,5
128163,69 All Saints Road,Sutton,,,Grennell Lodge,Hospitals/Childcare/Caring Premises,5,10,,570863,10,,51.37310500000000,006014/0069/0/000,529,brs@sutton.gov.uk,Sutton,http://www.sutton.gov.uk,-0.18500200000000,SM1 3DJ,2014-07-17,fhrs_3_en-GB,3,,FHRS,5
128164,31 London Road,Hackbridge,,,Hackbridge Cafe Limited,Restaurant/Cafe/Canteen,1,10,,713510,10,,51.37898600000000,14/00168/COM,529,brs@sutton.gov.uk,Sutton,http://www.sutton.gov.uk,-0.15506800000000,SM6 7HW,2014-10-20,fhrs_3_en-GB,3,,FHRS,10
128165,Hackbridge Primary School,Hackbridge Road,Hackbridge,,Hackbridge Primary School Kitchen,Restaurant/Cafe/Canteen,1,0,,571048,0,,51.37850600000000,06977/0008/2/001,529,brs@sutton.gov.uk,Sutton,http://www.sutton.gov.uk,-0.15711300000000,SM6 7AX,2014-11-10,fhrs_2_en-GB,2,,FHRS,15
128166,Asda Stores Ltd,Marlowe Way,Beddington,,Halalworld,Retailers - other,4613,20,,700462,20,,51.37576100000000,14/00115/COM,529,brs@sutton.gov.uk,Sutton,http://www.sutton.gov.uk,-0.12802600000000,CR0 4XS,2014-09-02,fhrs_0_en-GB,0,,FHRS,15
128167,29 Central Road,Worcester Park,,,Happy Garden,Takeaway/sandwich shop,7844,0,,430839,5,,51.37708700000000,06170/0029/0/000,529,brs@sutton.gov.uk,Sutton,http://www.sutton.gov.uk,-0.23910300000000,KT4 8EG,2014-03-20,fhrs_5_en-GB,5,,FHRS,5
128168,3 Mollison Square,Wallington,,,Happy Garden,Takeaway/sandwich shop,7844,20,,665630,10,,51.35337500000000,14/00063/COM,529,brs@sutton.gov.uk,Sutton,http://www.sutton.gov.uk,-0.13462600000000,SM6 9DA,2014-04-25,fhrs_1_en-GB,1,,FHRS,10
128169,Hackbridge Primary School,Hackbridge Road,Hackbridge,,Harriers After School Club,Hospitals/Childcare/Caring Premises,5,0,,571074,0,,51.37850600000000,09/00126/COM,529,brs@sutton.gov.uk,Sutton,http://www.sutton.gov.uk,-0.15711300000000,SM6 7AX,2012-06-14,fhrs_5_en-GB,5,,FHRS,0
128170,Stanley Park High School,Damson Way,Carshalton,,Harrison Catering,School/college/university,7845,5,,632783,0,,51.34765900000000,12/00049/COM,529,brs@sutton.gov.uk,Sutton,http://www.sutton.gov.uk,-0.16612000000000,SM5 4NS,2014-02-13,fhrs_5_en-GB,5,,FHRS,0
128171,John Fisher School,Peaks Hill,Purley,,Harrison Catering Services Ltd,Restaurant/Cafe/Canteen,1,5,,624864,5,,51.34550400000000,13/00224/COM,529,brs@sutton.gov.uk,Sutton,http://www.sutton.gov.uk,-0.13386800000000,CR8 3YP,2014-01-14,fhrs_5_en-GB,5,,FHRS,0
128172,43 Erskine Road,Sutton,,,Harrys Traditional Fish And Chips,Takeaway/sandwich shop,7844,5,,504822,5,,51.37021100000000,12/00195/COM,529,brs@sutton.gov.uk,Sutton,http://www.sutton.gov.uk,-0.17928400000000,SM1 3AT,2014-08-01,fhrs_5_en-GB,5,,FHRS,5
128173,27 Beddington Lane,Beddington,,,Harvest Home,Pub/bar/nightclub,7843,5,,430855,10,,51.37205200000000,12/00089/COM,529,brs@sutton.gov.uk,Sutton,http://www.sutton.gov.uk,-0.13172600000000,CR0 4TG,2014-03-21,fhrs_1_en-GB,1,,FHRS,20
128174,The Plough,224 Sutton Common Road,Sutton,,Harvester Plough,Restaurant/Cafe/Canteen,1,5,,513973,0,,51.38021400000000,06830/0224/2/000,529,brs@sutton.gov.uk,Sutton,http://www.sutton.gov.uk,-0.20162100000000,SM3 9PW,2014-08-18,fhrs_4_en-GB,4,,FHRS,10
128175,Haweli,22 Station Road,Belmont,,Haweli Of Belmont,Restaurant/Cafe/Canteen,1,5,,372420,5,,51.34377200000000,12/00087/COM,529,brs@sutton.gov.uk,Sutton,http://www.sutton.gov.uk,-0.20080700000000,SM2 6BS,2013-10-03,fhrs_5_en-GB,5,,FHRS,5
128176,16 St Dunstans Hill,Cheam,,,Haweli Of Cheam,Takeaway/sandwich shop,7844,10,,535839,10,,51.37103000000000,13/00060/COM,529,brs@sutton.gov.uk,Sutton,http://www.sutton.gov.uk,-0.20968100000000,SM1 2UE,2013-09-09,fhrs_2_en-GB,2,,FHRS,15
128177,135-137 Epsom Road,Sutton,,,Haweli Of Sutton,Restaurant/Cafe/Canteen,1,20,,521113,10,,51.38664600000000,12/00208/COM,529,brs@sutton.gov.uk,Sutton,http://www.sutton.gov.uk,-0.21000600000000,SM3 9EY,2014-03-19,fhrs_1_en-GB,1,,FHRS,10
128178,14 Mulgrave Road,Sutton,,,Heens Chinese Restaurant,Restaurant/Cafe/Canteen,1,5,,20943,15,,51.35910500000000,06625/0014/0/000,529,brs@sutton.gov.uk,Sutton,http://www.sutton.gov.uk,-0.19209100000000,SM2 6LE,2014-02-22,fhrs_2_en-GB,2,,FHRS,10
128179,The Chase,Wallington,,,High View Primary School,Restaurant/Cafe/Canteen,1,0,,571055,0,,51.36248700000000,08/00031/COM,529,brs@sutton.gov.uk,Sutton,http://www.sutton.gov.uk,-0.12965900000000,SM6 8JT,2014-04-29,fhrs_5_en-GB,5,,FHRS,5
128180,Gibson Road,Sutton,,,Holiday Inn,Hotel/bed & breakfast/guest house,7842,0,,372413,5,,51.36176500000000,06386/0001/2/000,529,brs@sutton.gov.uk,Sutton,http://www.sutton.gov.uk,-0.19664100000000,SM1 2RF,2013-10-17,fhrs_4_en-GB,4,,FHRS,10
128181,27 St James Road,Sutton,,,Hollyfield House,Hospitals/Childcare/Caring Premises,5,0,,641212,0,,51.36199900000000,08/00040/COM,529,brs@sutton.gov.uk,Sutton,http://www.sutton.gov.uk,-0.20075400000000,SM1 2TP,2014-03-08,fhrs_5_en-GB,5,,FHRS,0
128182,Holy Trinity Junior School,Bute Road,Wallington,,Holy Trinity  C Of E Junior School Kitchen,Restaurant/Cafe/Canteen,1,0,,570880,0,,51.36771200000000,04192/0033/3/001,529,brs@sutton.gov.uk,Sutton,http://www.sutton.gov.uk,-0.14670000000000,SM6 8BZ,2013-06-19,fhrs_5_en-GB,5,,FHRS,5
128183,Street Blpu,Bath House Road,Beddington,,Hooters,Mobile caterer,7846,5,,571092,5,,,10/00157/COM,529,brs@sutton.gov.uk,Sutton,http://www.sutton.gov.uk,,,2015-02-11,fhrs_5_en-GB,5,,FHRS,5
128184,16 Avenue Road,Sutton,,,Hopscotch,Hospitals/Childcare/Caring Premises,5,5,,570969,0,,51.34609800000000,06036/0016/0/000,529,brs@sutton.gov.uk,Sutton,http://www.sutton.gov.uk,-0.20235300000000,SM2 6JB,2013-09-16,fhrs_5_en-GB,5,,FHRS,0
128185,Assembly Walk Chapel,Assembly Walk,Carshalton,,Horizon Church Sutton,Restaurant/Cafe/Canteen,1,0,,717521,0,,51.38449200000000,14/00038/COM,529,brs@sutton.gov.uk,Sutton,http://www.sutton.gov.uk,-0.17469300000000,SM5 1JH,2014-11-19,fhrs_5_en-GB,5,,FHRS,5
128186,St Anthonys Hospital,801 London Road,North Cheam,,Hospital Kitchens,Hospitals/Childcare/Caring Premises,5,10,,710195,10,,51.37947400000000,14/00160/COM,529,brs@sutton.gov.uk,Sutton,http://www.sutton.gov.uk,-0.22028700000000,SM3 9DW,2014-10-21,fhrs_3_en-GB,3,,FHRS,10
128187,142-146 High Street,Sutton,,,Hot Food On The Move,Restaurant/Cafe/Canteen,1,5,,571131,10,,51.36429300000000,13/00069/COM,529,brs@sutton.gov.uk,Sutton,http://www.sutton.gov.uk,-0.19257700000000,SM1 1NQ,2013-06-18,fhrs_4_en-GB,4,,FHRS,5
128188,692 London Road,North Cheam,,,Hot Rocks,Takeaway/sandwich shop,7844,0,,462663,5,,51.37618100000000,12/00174/COM,529,brs@sutton.gov.uk,Sutton,http://www.sutton.gov.uk,-0.22195200000000,SM3 9BY,2014-04-29,fhrs_5_en-GB,5,,FHRS,5
128189,111 Wrythe Lane,Carshalton,,,H's Cafe,Restaurant/Cafe/Canteen,1,5,,455700,10,,51.37402000000000,12/00145/COM,529,brs@sutton.gov.uk,Sutton,http://www.sutton.gov.uk,-0.17676200000000,SM5 2RR,2014-10-28,fhrs_3_en-GB,3,,FHRS,10
128190,6 - 7 Station Parade,Brighton Road,Sutton,,Il Toscano,Restaurant/Cafe/Canteen,1,10,,20517,10,,51.35888200000000,06112/0001/3/007,529,brs@sutton.gov.uk,Sutton,http://www.sutton.gov.uk,-0.19103700000000,SM2 5AD,2014-01-24,fhrs_3_en-GB,3,,FHRS,10
128191,14 Cranley Gardens,Wallington,,,Independence Homes,Hospitals/Childcare/Caring Premises,5,5,,570883,5,,51.35570000000000,04255/0014/2/001,529,brs@sutton.gov.uk,Sutton,http://www.sutton.gov.uk,-0.14628000000000,SM6 9PR,2013-04-09,fhrs_5_en-GB,5,,FHRS,5
128192,44 Brambledown Road,Wallington,,,Independence Homes,Hospitals/Childcare/Caring Premises,5,0,,570878,0,,51.35284400000000,04162/0044/0/000,529,brs@sutton.gov.uk,Sutton,http://www.sutton.gov.uk,-0.15448100000000,SM6 0TF,2014-02-13,fhrs_5_en-GB,5,,FHRS,0
128193,7 Hall Road,Wallington,,,Independence Homes,Hospitals/Childcare/Caring Premises,5,10,,570891,5,,51.35052000000000,04384/0010/2/000,529,brs@sutton.gov.uk,Sutton,http://www.sutton.gov.uk,-0.14964800000000,SM6 0RT,2014-11-27,fhrs_4_en-GB,4,,FHRS,5
128194,691 London Road,North Cheam,,,India Cottage,Restaurant/Cafe/Canteen,1,20,,445134,10,,51.37691300000000,06550/0691/0/000,529,brs@sutton.gov.uk,Sutton,http://www.sutton.gov.uk,-0.22219700000000,SM3 9DL,2013-09-09,fhrs_1_en-GB,1,,FHRS,5
128195,51 Stafford Road,Wallington,,,India Finest Cuisine,Restaurant/Cafe/Canteen,1,20,,605579,15,,51.35854500000000,13/00188/COM,529,brs@sutton.gov.uk,Sutton,http://www.sutton.gov.uk,-0.14363700000000,SM6 9AP,2014-12-30,fhrs_1_en-GB,1,,FHRS,10
128196,98 High Street,Carshalton,,,Indian Oasis,Restaurant/Cafe/Canteen,1,10,,605578,10,,51.36565800000000,13/00168/COM,529,brs@sutton.gov.uk,Sutton,http://www.sutton.gov.uk,-0.15900800000000,SM5 3AE,2013-10-21,fhrs_4_en-GB,4,,FHRS,0
128197,354 High Street,Sutton,,,Indiya Indiya,Restaurant/Cafe/Canteen,1,5,,20819,5,,51.37088800000000,06455/0354/0/00,529,brs@sutton.gov.uk,Sutton,http://www.sutton.gov.uk,-0.19455800000000,SM1 1QE,2014-02-15,fhrs_4_en-GB,4,,FHRS,10
128198,The Bell,Ewell Road,Cheam,,Inn On The Park,Restaurant/Cafe/Canteen,1,10,,521116,15,,51.35540300000000,13/00038/COM,529,brs@sutton.gov.uk,Sutton,http://www.sutton.gov.uk,-0.22224000000000,SM3 8AA,2013-03-12,fhrs_2_en-GB,2,,FHRS,10
128199,54 Upper Mulgrave Road,Cheam,Sutton,,Istanbul Grill,Takeaway/sandwich shop,7844,10,,546632,15,,51.35509100000000,13/00068/COM,529,brs@sutton.gov.uk,Sutton,http://www.sutton.gov.uk,-0.21235600000000,SM2 7AJ,2013-10-22,fhrs_2_en-GB,2,,FHRS,10
128200,33-35 High Street,Sutton,,,Ivory Lounge,Pub/bar/nightclub,7843,20,,30418,15,,51.36068200000000,09/00192/COM,529,brs@sutton.gov.uk,Sutton,http://www.sutton.gov.uk,-0.19228800000000,SM1 1DJ,2014-06-06,fhrs_1_en-GB,1,,FHRS,10
128201,16 Stanley Park Road,Wallington,,,JACE Catering And Training,Other catering premises,7841,0,,571118,0,,51.35695100000000,12/00140/COM,529,brs@sutton.gov.uk,Sutton,http://www.sutton.gov.uk,-0.15201800000000,SM6 0EU,2014-05-13,fhrs_5_en-GB,5,,FHRS,5
128202,12 The Tramsheds Industrial Estate,Coomber Way,Beddington,,Jackson Gilmour Ltd,Manufacturers/packers,7839,0,,570882,0,,51.38613000000000,04246/0001/0/012,529,brs@sutton.gov.uk,Sutton,http://www.sutton.gov.uk,-0.13484600000000,CR0 4TQ,2014-04-24,fhrs_5_en-GB,5,,FHRS,0
128203,311 Croydon Road,Wallington,,,Jade Dragon,Takeaway/sandwich shop,7844,10,,407019,5,,51.36864700000000,04263/0311/0/000,529,brs@sutton.gov.uk,Sutton,http://www.sutton.gov.uk,-0.14834300000000,SM6 7LB,2013-07-18,fhrs_4_en-GB,4,,FHRS,5
128204,53 Ross Road,Wallington,,,Jancett Day Nursery And Baby Unit,Hospitals/Childcare/Caring Premises,5,5,,570904,5,,51.36159200000000,04654/0053/0/000,529,brs@sutton.gov.uk,Sutton,http://www.sutton.gov.uk,-0.14236500000000,SM6 8QP,2014-12-16,fhrs_4_en-GB,4,,FHRS,10
128205,29 York Road,Cheam,,,Jesmund Nursing Home,Hospitals/Childcare/Caring Premises,5,5,,571043,5,,51.35135600000000,06952/0029/2/000,529,brs@sutton.gov.uk,Sutton,http://www.sutton.gov.uk,-0.20453100000000,SM2 6HL,2013-08-21,fhrs_5_en-GB,5,,FHRS,5
128206,148 London Road,Hackbridge,,,Jhorna Tandoori,Takeaway/sandwich shop,7844,10,,455685,10,,51.38062800000000,04485/0148/0/000,529,brs@sutton.gov.uk,Sutton,http://www.sutton.gov.uk,-0.15597900000000,SM6 7HF,2014-03-28,fhrs_4_en-GB,4,,FHRS,0
128207,1 Manor Road,Wallington,,,Kamble House Ltd,Takeaway/sandwich shop,7844,20,,735949,15,,51.36666200000000,14/00141/COM,529,brs@sutton.gov.uk,Sutton,http://www.sutton.gov.uk,-0.15306300000000,SM6 0BW,2014-09-05,fhrs_1_en-GB,1,,FHRS,15
128208,360 Sutton Common Road,Sutton,,,Kebab Centre,Takeaway/sandwich shop,7844,20,,513974,15,,51.38339200000000,06830/0360/0/000,529,brs@sutton.gov.uk,Sutton,http://www.sutton.gov.uk,-0.20477300000000,SM3 9PL,2014-08-29,fhrs_1_en-GB,1,,FHRS,10
128209,267 High Street,Sutton,,,Kebab Planet,Takeaway/sandwich shop,7844,10,,20811,10,,51.36785900000000,06455/0267/0/000,529,brs@sutton.gov.uk,Sutton,http://www.sutton.gov.uk,-0.19525200000000,SM1 1LD,2013-04-29,fhrs_3_en-GB,3,,FHRS,5
128210,3 Kings Parade,Wrythe Lane,Carshalton,,Kebab World,Takeaway/sandwich shop,7844,10,,358959,10,,51.37141900000000,05852/0000/3/005,529,brs@sutton.gov.uk,Sutton,http://www.sutton.gov.uk,-0.17028500000000,SM5 2RA,2013-11-06,fhrs_3_en-GB,3,,FHRS,5
128211,7 South Parade,Stafford Road,Wallington,,Kebab World,Takeaway/sandwich shop,7844,10,,571057,10,,51.35750700000000,08/00124/COM,529,brs@sutton.gov.uk,Sutton,http://www.sutton.gov.uk,-0.14793000000000,SM6 9AJ,2013-08-14,fhrs_3_en-GB,3,,FHRS,10
128212,114 Central Road,Worcester Park,,,KFC,Takeaway/sandwich shop,7844,0,,570984,0,,51.37910200000000,06170/0114/0/000,529,brs@sutton.gov.uk,Sutton,http://www.sutton.gov.uk,-0.24215800000000,KT4 8HT,2014-11-19,fhrs_5_en-GB,5,,FHRS,5
128213,43 Woodcote Road,Wallington,,,KFC,Restaurant/Cafe/Canteen,1,5,,462659,0,,,11/00014/COM,529,brs@sutton.gov.uk,Sutton,http://www.sutton.gov.uk,,SM6 0LR,2014-05-16,fhrs_5_en-GB,5,,FHRS,5
128214,56 - 58 The Market,Rose Hill,Sutton,,KFC,Takeaway/sandwich shop,7844,5,,513968,5,,51.38333700000000,05483/0056/0/000,529,brs@sutton.gov.uk,Sutton,http://www.sutton.gov.uk,-0.19011600000000,SM1 3HE,2014-07-29,fhrs_4_en-GB,4,,FHRS,10
128215,200-202 High Street,Sutton,,,KFC Sutton,Restaurant/Cafe/Canteen,1,0,,20807,10,,51.36591400000000,06455/0200/0/000,529,brs@sutton.gov.uk,Sutton,http://www.sutton.gov.uk,-0.19392100000000,SM1 1NR,2014-06-03,fhrs_4_en-GB,4,,FHRS,5
128216,3 Hillcrest Parade,The Mount,Coulsdon,,Khanums Rasoi,Takeaway/sandwich shop,7844,10,,329006,10,,51.32611400000000,11/00069/COM,529,brs@sutton.gov.uk,Sutton,http://www.sutton.gov.uk,-0.15479300000000,CR5 2PS,2013-09-03,fhrs_3_en-GB,3,,FHRS,10
128217,169 Stafford Road,Wallington,,,Kings Dinner,Restaurant/Cafe/Canteen,1,10,,407039,15,,51.35935200000000,12/00088/COM,529,brs@sutton.gov.uk,Sutton,http://www.sutton.gov.uk,-0.13895100000000,SM6 9BT,2013-12-19,fhrs_2_en-GB,2,,FHRS,10
128218,308 Stafford Road,Wallington,,,Kiong's Chinese Takeaway,Takeaway/sandwich shop,7844,5,,462649,10,,51.36216500000000,04703/0320/3/001,529,brs@sutton.gov.uk,Sutton,http://www.sutton.gov.uk,-0.12249000000000,CR0 4NH,2014-04-24,fhrs_4_en-GB,4,,FHRS,5
128219,Homefield Preparatory School,Western Road,Sutton,,Kitchen,Restaurant/Cafe/Canteen,1,5,,571073,5,,51.36201200000000,09/00117/COM,529,brs@sutton.gov.uk,Sutton,http://www.sutton.gov.uk,-0.20219000000000,SM1 2TE,2014-02-27,fhrs_5_en-GB,5,,FHRS,5
128220,2 Mollison Square,Wallington,,,Koleey,Takeaway/sandwich shop,7844,10,,407036,5,,51.35337500000000,11/00081/COM,529,brs@sutton.gov.uk,Sutton,http://www.sutton.gov.uk,-0.13462600000000,SM6 9DA,2014-01-22,fhrs_4_en-GB,4,,FHRS,5
128221,29 - 31 Manor Road,Wallington,,,Korykos Restaurant,Restaurant/Cafe/Canteen,1,10,,571138,5,,51.36666200000000,13/00116/COM,529,brs@sutton.gov.uk,Sutton,http://www.sutton.gov.uk,-0.15306300000000,SM6 0BW,2014-07-02,fhrs_4_en-GB,4,,FHRS,5
128222,23 Cheam Common Road,Worcester Park,,,La Bella Luna,Restaurant/Cafe/Canteen,1,10,,730588,10,,51.37126900000000,14/00135/COM,529,brs@sutton.gov.uk,Sutton,http://www.sutton.gov.uk,-0.22899600000000,KT4 8TL,2015-01-15,fhrs_3_en-GB,3,,FHRS,5
128223,156 Central Road,Worcester Park,,,La Mamma Restaurant,Restaurant/Cafe/Canteen,1,5,,430840,5,,51.37948300000000,06170/0156/3/001,529,brs@sutton.gov.uk,Sutton,http://www.sutton.gov.uk,-0.24297700000000,KT4 8HH,2014-01-30,fhrs_5_en-GB,5,,FHRS,0
128224,284-286 High Street,Sutton,,,Lahore Spices,Restaurant/Cafe/Canteen,1,5,,455703,10,,51.36882600000000,12/00168/COM,529,brs@sutton.gov.uk,Sutton,http://www.sutton.gov.uk,-0.19498400000000,SM1 1PQ,2014-01-08,fhrs_4_en-GB,4,,FHRS,5
128225,49-51 Station Way,Cheam,,,Lal Akash,Restaurant/Cafe/Canteen,1,10,,624861,10,,51.35681900000000,10/00167/COM,529,brs@sutton.gov.uk,Sutton,http://www.sutton.gov.uk,-0.21602300000000,SM3 8SD,2015-01-16,fhrs_3_en-GB,3,,FHRS,10
128226,50 The Gallop,Sutton,,,Larkrise,Hospitals/Childcare/Caring Premises,5,5,,580088,5,,51.35029800000000,13/00117/COM,529,brs@sutton.gov.uk,Sutton,http://www.sutton.gov.uk,-0.18373500000000,SM2 5RY,2013-08-02,fhrs_5_en-GB,5,,FHRS,0
128227,252 High Street,Sutton,,,Le Bon Petit Cafe,Restaurant/Cafe/Canteen,1,20,,47549,10,,51.36734400000000,11/00145/COM,529,brs@sutton.gov.uk,Sutton,http://www.sutton.gov.uk,-0.19452500000000,SM1 1PA,2014-07-29,fhrs_1_en-GB,1,,FHRS,15
128228,Royal Marsden Hospital,Downs Road,Sutton,,League Of Friends Canteen,Restaurant/Cafe/Canteen,1,0,,447436,5,,51.34363000000000,06305/0021/2/003,529,brs@sutton.gov.uk,Sutton,http://www.sutton.gov.uk,-0.19040300000000,SM2 5PT,2014-03-26,fhrs_5_en-GB,5,,FHRS,0
128229,Sutton Hospital,Cotswold Road,Sutton,,League Of Friends Servery,Restaurant/Cafe/Canteen,1,5,,570993,0,,51.34688000000000,06246/0000/2/002,529,brs@sutton.gov.uk,Sutton,http://www.sutton.gov.uk,-0.19357800000000,SM2 5NF,2012-03-26,fhrs_5_en-GB,5,,FHRS,5
128230,The Old Chapel,Kenny Drive,Carshalton,,Leapfrog Day Nursery,Hospitals/Childcare/Caring Premises,5,5,,571082,5,,51.34884900000000,09052/0000/0/001,529,brs@sutton.gov.uk,Sutton,http://www.sutton.gov.uk,-0.16231000000000,SM5 4PH,2014-07-24,fhrs_5_en-GB,5,,FHRS,5
128231,290 High Street,Sutton,,,Lesna Chata,Retailers - other,4613,5,,395890,0,,51.36882600000000,12/00080/COM,529,brs@sutton.gov.uk,Sutton,http://www.sutton.gov.uk,-0.19498400000000,SM1 1PQ,2014-01-17,fhrs_5_en-GB,5,,FHRS,5
128232,Wallington Library,Shotfield,Wallington,,Library Garden Cafe,Restaurant/Cafe/Canteen,1,10,,430828,5,,51.35790600000000,04/00103/COM,529,brs@sutton.gov.uk,Sutton,http://www.sutton.gov.uk,-0.15100200000000,SM6 0HY,2014-03-05,fhrs_4_en-GB,4,,FHRS,5
128233,91 Worcester Road,Sutton,,,Linda Lodge,Hospitals/Childcare/Caring Premises,5,0,,571041,0,,51.35516200000000,06941/0091/3/001,529,brs@sutton.gov.uk,Sutton,http://www.sutton.gov.uk,-0.20523000000000,SM2 6QL,2014-03-07,fhrs_5_en-GB,5,,FHRS,0
128234,Dingwall Motors,Beddington Farm Road,Beddington,,Little Cottage At Dingwall,Restaurant/Cafe/Canteen,1,10,,535834,10,,51.38076600000000,11/00126/COM,529,brs@sutton.gov.uk,Sutton,http://www.sutton.gov.uk,-0.12947400000000,CR0 4XB,2014-09-30,fhrs_3_en-GB,3,,FHRS,10
128235,Kiosk 14  Level 3 St Nicholas Centr,St Nicholas Way,Sutton,,Little Lambs Softplay And Cafe Ltd,Restaurant/Cafe/Canteen,1,10,,727763,5,,51.36467100000000,14/00184/COM,529,brs@sutton.gov.uk,Sutton,http://www.sutton.gov.uk,-0.19556400000000,SM1 1AY,2014-12-03,fhrs_4_en-GB,4,,FHRS,5
128236,9 Mayfield Road,Sutton,,,Lodore Nursing Home,Hospitals/Childcare/Caring Premises,5,0,,570938,0,,51.35820100000000,05487/0009/0/000,529,brs@sutton.gov.uk,Sutton,http://www.sutton.gov.uk,-0.18132600000000,SM2 5DU,2015-01-29,fhrs_5_en-GB,5,,FHRS,5
128237,837 London Road,North Cheam,,,Lord Nelson,Pub/bar/nightclub,7843,5,,571019,5,,51.38035200000000,06550/0837/2/000,529,brs@sutton.gov.uk,Sutton,http://www.sutton.gov.uk,-0.21893100000000,SM3 9DR,2013-09-10,fhrs_4_en-GB,4,,FHRS,10
128238,Virgin Health And Racquets Club,Hannibal Way,Wallington,,Lounge,Restaurant/Cafe/Canteen,1,10,,641219,10,,51.35696200000000,13/00165/COM,529,brs@sutton.gov.uk,Sutton,http://www.sutton.gov.uk,-0.12383700000000,CR0 4RW,2014-03-05,fhrs_3_en-GB,3,,FHRS,10
128239,1-3 Marshalls Road,Sutton,,,Luce Pizza,Takeaway/sandwich shop,7844,5,,10051,10,,51.36776700000000,04/00115/COM,529,brs@sutton.gov.uk,Sutton,http://www.sutton.gov.uk,-0.19456600000000,SM1 4DY,2014-01-08,fhrs_4_en-GB,4,,FHRS,0
128240,Sutton Railway Station,High Street,Sutton,,M And S Food To Go,Retailers - other,4613,0,,730587,0,,51.35963000000000,14/00123/COM,529,brs@sutton.gov.uk,Sutton,http://www.sutton.gov.uk,-0.19115100000000,SM1 1JA,2015-01-07,fhrs_5_en-GB,5,,FHRS,0
128241,226 High Street,Sutton,,,M Manze,Restaurant/Cafe/Canteen,1,0,,20810,5,,51.36675600000000,06455/0226/0/000,529,brs@sutton.gov.uk,Sutton,http://www.sutton.gov.uk,-0.19430400000000,SM1 1NT,2014-02-15,fhrs_5_en-GB,5,,FHRS,0
128242,5 Hillfield Parade,Bishopsford Road,Morden,,Mackeys Fried Chicken,Takeaway/sandwich shop,7844,0,,455699,5,,51.39223100000000,12/00128/COM,529,brs@sutton.gov.uk,Sutton,http://www.sutton.gov.uk,-0.17619600000000,SM4 6BG,2013-09-16,fhrs_4_en-GB,4,,FHRS,10
128243,61 Lind Road,Sutton,,,Mad Coffee Bar,Restaurant/Cafe/Canteen,1,10,,481961,10,,51.36475900000000,06539/0061/3/002,529,brs@sutton.gov.uk,Sutton,http://www.sutton.gov.uk,-0.18609400000000,SM1 4PP,2013-11-21,fhrs_3_en-GB,3,,FHRS,10
128244,7 High Street,Sutton,,,Mama Dumpling (Sutton) Ltd,Restaurant/Cafe/Canteen,1,0,,20794,5,,51.36007500000000,06455/0007/0/000,529,brs@sutton.gov.uk,Sutton,http://www.sutton.gov.uk,-0.19198100000000,SM1 1DF,2013-07-24,fhrs_5_en-GB,5,,FHRS,5
128245,681 Mitcham Road,Croydon,,,Mamas Kitchen,Restaurant/Cafe/Canteen,1,10,,629195,5,,,13/00220/COM,529,brs@sutton.gov.uk,Sutton,http://www.sutton.gov.uk,,CR0 9YH,2014-01-21,fhrs_4_en-GB,4,,FHRS,5
128246,493 London Road,North Cheam,,,Mama's Pizza And Pasta,Takeaway/sandwich shop,7844,10,,445143,0,,51.37081200000000,12/00141/COM,529,brs@sutton.gov.uk,Sutton,http://www.sutton.gov.uk,-0.21683600000000,SM3 8SU,2014-02-10,fhrs_4_en-GB,4,,FHRS,5
128247,479-481 London Road,North Cheam,,,Mandarin Chinese Restaurant,Restaurant/Cafe/Canteen,1,20,,553479,10,,51.37063800000000,06550/0481/0/000,529,brs@sutton.gov.uk,Sutton,http://www.sutton.gov.uk,-0.22889100000000,SM3 8JW,2014-11-28,fhrs_1_en-GB,1,,FHRS,10
128248,39 High Street,Carshalton,,,Maneeya Restaurant,Restaurant/Cafe/Canteen,1,10,,570936,15,,51.36623000000000,05400/0039/3/000,529,brs@sutton.gov.uk,Sutton,http://www.sutton.gov.uk,-0.15989000000000,SM5 3BB,2012-04-10,fhrs_2_en-GB,2,,FHRS,5
128249,300 High Street,Sutton,,,Mangal,Restaurant/Cafe/Canteen,1,10,,717525,10,,51.37055700000000,14/00154/COM,529,brs@sutton.gov.uk,Sutton,http://www.sutton.gov.uk,-0.19342600000000,SM1 1PL,2014-11-11,fhrs_3_en-GB,3,,FHRS,5
128250,114 Stafford Road,Wallington,,,Mango Lounge,Restaurant/Cafe/Canteen,1,10,,571064,15,,51.35896600000000,09/00005/COM,529,brs@sutton.gov.uk,Sutton,http://www.sutton.gov.uk,-0.14349100000000,SM6 9AY,2013-09-19,fhrs_2_en-GB,2,,FHRS,10
128251,114 Manor Road,Wallington,,,Manor Cafe,Restaurant/Cafe/Canteen,1,20,,629196,0,,51.36130100000000,13/00228/COM,529,brs@sutton.gov.uk,Sutton,http://www.sutton.gov.uk,-0.15073600000000,SM6 0DS,2014-01-15,fhrs_1_en-GB,1,,FHRS,10
128252,77C Manor Road,Wallington,,,Manor Fish Bar,Takeaway/sandwich shop,7844,5,,358956,0,,51.36197900000000,04504/0077/3/003,529,brs@sutton.gov.uk,Sutton,http://www.sutton.gov.uk,-0.15036400000000,SM6 0DE,2012-05-01,fhrs_5_en-GB,5,,FHRS,0
128253,Manor Park,Throwley Way,Sutton,,Manor Park Cafe,Restaurant/Cafe/Canteen,1,20,,696355,10,,51.36352700000000,14/00124/COM,529,brs@sutton.gov.uk,Sutton,http://www.sutton.gov.uk,-0.19134300000000,SM1 4AF,2014-08-28,fhrs_1_en-GB,1,,FHRS,15
128254,Manor Park Primary School,Greyhound Road,Sutton,,Manor Park Primary School Kitchen,Restaurant/Cafe/Canteen,1,0,,571006,0,,51.36401800000000,06423/0009/2/000,529,brs@sutton.gov.uk,Sutton,http://www.sutton.gov.uk,-0.18820600000000,SM1 4AW,2014-12-11,fhrs_5_en-GB,5,,FHRS,5
128255,67 Banstead Road,Carshalton,,,Master Fryer,Takeaway/sandwich shop,7844,5,,493632,5,,51.35692800000000,05134/0067/0/000,529,brs@sutton.gov.uk,Sutton,http://www.sutton.gov.uk,-0.17346200000000,SM5 3NP,2014-08-01,fhrs_5_en-GB,5,,FHRS,5
128256,68 Central Road,Worcester Park,,,Masters Chinese Canteen,Takeaway/sandwich shop,7844,20,,666963,15,,51.37813900000000,06170/0068/0/000,529,brs@sutton.gov.uk,Sutton,http://www.sutton.gov.uk,-0.24026900000000,KT4 8HX,2014-06-04,fhrs_1_en-GB,1,,FHRS,15
128257,2 South Parade,Stafford Road,Wallington,,Max's Thai Cooking,Other catering premises,7841,10,,641223,5,,51.35752400000000,14/00019/COM,529,brs@sutton.gov.uk,Sutton,http://www.sutton.gov.uk,-0.14785800000000,SM6 9AJ,2014-02-18,fhrs_3_en-GB,3,,FHRS,10
128258,30 Woodcote Road,Wallington,,,Maxy Express,Takeaway/sandwich shop,7844,30,,727764,15,,51.36007000000000,14/00190/COM,529,brs@sutton.gov.uk,Sutton,http://www.sutton.gov.uk,-0.15022600000000,SM6 0NN,2014-12-16,fhrs_0_en-GB,0,,FHRS,15
128259,Oaks Farm,Croydon Lane,Banstead,,Mayfield Lavender,Restaurant/Cafe/Canteen,1,10,,571133,5,,51.33311800000000,13/00079/COM,529,brs@sutton.gov.uk,Sutton,http://www.sutton.gov.uk,-0.17476800000000,SM7 3BE,2013-07-20,fhrs_4_en-GB,4,,FHRS,5
128260,24 Woodcote Road,Wallington,,,Mazzi's Cafe,Restaurant/Cafe/Canteen,1,10,,666967,0,,51.36007000000000,14/00074/COM,529,brs@sutton.gov.uk,Sutton,http://www.sutton.gov.uk,-0.15022600000000,SM6 0NN,2014-05-22,fhrs_4_en-GB,4,,FHRS,10
128261,Asda Stores Ltd,Marlowe Way,Beddington,,McDonalds,Restaurant/Cafe/Canteen,1,0,,706916,5,,51.37576100000000,14/00126/COM,529,brs@sutton.gov.uk,Sutton,http://www.sutton.gov.uk,-0.12802600000000,CR0 4XS,2014-09-16,fhrs_5_en-GB,5,,FHRS,5
128262,168-172 High Street,Sutton,,,McDonald's,Restaurant/Cafe/Canteen,1,0,,30200,5,,51.36530600000000,09/00161/COM,529,brs@sutton.gov.uk,Sutton,http://www.sutton.gov.uk,-0.19354200000000,SM1 1NL,2015-01-14,fhrs_5_en-GB,5,,FHRS,5
128263,45 Oldfields Road,Sutton,,,McDonald's,Takeaway/sandwich shop,7844,0,,504815,5,,51.37302100000000,06658/0049/0/000,529,brs@sutton.gov.uk,Sutton,http://www.sutton.gov.uk,-0.20701700000000,SM1 2NB,2014-09-25,fhrs_5_en-GB,5,,FHRS,5
128264,585 London Road,North Cheam,,,McDonald's,Takeaway/sandwich shop,7844,0,,521111,0,,51.37354000000000,06550/0585/0/000,529,brs@sutton.gov.uk,Sutton,http://www.sutton.gov.uk,-0.22569000000000,SM3 9AG,2013-03-12,fhrs_5_en-GB,5,,FHRS,5
128265,85 Westmead Road,Sutton,,,McDragon,Takeaway/sandwich shop,7844,5,,535830,10,,51.36584700000000,08/00226/COM,529,brs@sutton.gov.uk,Sutton,http://www.sutton.gov.uk,-0.18089400000000,SM1 4HY,2014-10-15,fhrs_3_en-GB,3,,FHRS,10
128266,Mecca Bingo Ltd,Bishopsford Road,Morden,,Mecca Bingo,Other catering premises,7841,0,,553474,0,,51.38555100000000,05160/0394/0/000,529,brs@sutton.gov.uk,Sutton,http://www.sutton.gov.uk,-0.18849100000000,SM4 6BP,2013-05-20,fhrs_5_en-GB,5,,FHRS,5
128267,152 London Road,Hackbridge,,,Mega Kebab,Takeaway/sandwich shop,7844,10,,730589,10,,51.38062800000000,14/00185/COM,529,brs@sutton.gov.uk,Sutton,http://www.sutton.gov.uk,-0.15597900000000,SM6 7HF,2014-12-23,fhrs_3_en-GB,3,,FHRS,10
128268,31 Central Road,Worcester Park,,,Meghna,Restaurant/Cafe/Canteen,1,10,,447433,10,,51.37708700000000,06170/0031/0/000,529,brs@sutton.gov.uk,Sutton,http://www.sutton.gov.uk,-0.23910300000000,KT4 8EG,2014-03-20,fhrs_3_en-GB,3,,FHRS,5
128269,80 Stafford Road,Wallington,,,Mekan,Restaurant/Cafe/Canteen,1,20,,727765,5,,51.35896600000000,14/00194/COM,529,brs@sutton.gov.uk,Sutton,http://www.sutton.gov.uk,-0.14349100000000,SM6 9AY,2014-12-29,fhrs_1_en-GB,1,,FHRS,5
128270,18 Mulgrave Road,Sutton,,,Melbourne Chinese Takeaway,Takeaway/sandwich shop,7844,20,,20944,15,,51.35910500000000,06625/0018/0/000,529,brs@sutton.gov.uk,Sutton,http://www.sutton.gov.uk,-0.19209100000000,SM2 6LE,2014-03-21,fhrs_1_en-GB,1,,FHRS,10
128271,Cheam Baptist Church,Malden Road,Cheam,,Mencap Pathway Cafe,Restaurant/Cafe/Canteen,1,10,,641213,0,,,10/00185/COM,529,brs@sutton.gov.uk,Sutton,http://www.sutton.gov.uk,,,2014-02-27,fhrs_4_en-GB,4,,FHRS,0
128272,10 Rosswood Gardens,Wallington,,,Metropolitan Housing,Hospitals/Childcare/Caring Premises,5,10,,570908,0,,51.35901400000000,04656/0010/0/000,529,brs@sutton.gov.uk,Sutton,http://www.sutton.gov.uk,-0.14824300000000,SM6 8QZ,2014-02-13,fhrs_4_en-GB,4,,FHRS,0
128273,4 Rosswood Gardens,Wallington,,,Metropolitan Housing,Hospitals/Childcare/Caring Premises,5,10,,570905,5,,51.35901400000000,04656/0004/0/000,529,brs@sutton.gov.uk,Sutton,http://www.sutton.gov.uk,-0.14824300000000,SM6 8QZ,2014-02-13,fhrs_4_en-GB,4,,FHRS,0
128274,6 Rosswood Gardens,Wallington,,,Metropolitan Housing,Hospitals/Childcare/Caring Premises,5,10,,570906,0,,51.35901400000000,04656/0006/0/000,529,brs@sutton.gov.uk,Sutton,http://www.sutton.gov.uk,-0.14824300000000,SM6 8QZ,2014-02-13,fhrs_4_en-GB,4,,FHRS,0
128275,8 Rosswood Gardens,Wallington,,,Metropolitan Housing,Hospitals/Childcare/Caring Premises,5,10,,570907,0,,51.35901400000000,04656/0008/0/000,529,brs@sutton.gov.uk,Sutton,http://www.sutton.gov.uk,-0.14824300000000,SM6 8QZ,2014-02-13,fhrs_4_en-GB,4,,FHRS,0
128276,27 The Market,Wrythe Lane,Carshalton,,Mike's Kitchen,Mobile caterer,7846,5,,580083,0,,51.38311400000000,11/00191/COM,529,brs@sutton.gov.uk,Sutton,http://www.sutton.gov.uk,-0.18851500000000,SM5 1AG,2013-04-10,fhrs_5_en-GB,5,,FHRS,5
128277,150 Stanley Park Road,Carshalton,,,Millennium Fish Bar,Takeaway/sandwich shop,7844,5,,395888,5,,51.35495800000000,05703/0150/0/000,529,brs@sutton.gov.uk,Sutton,http://www.sutton.gov.uk,-0.16248200000000,SM5 3JG,2014-08-29,fhrs_5_en-GB,5,,FHRS,5
128278,22 Ewell Road,Cheam,,,Mimi E Coco,Restaurant/Cafe/Canteen,1,10,,481960,15,,51.35779600000000,06344/0022/3/001,529,brs@sutton.gov.uk,Sutton,http://www.sutton.gov.uk,-0.21756500000000,SM3 8BU,2014-08-08,fhrs_2_en-GB,2,,FHRS,10
128279,Manor Park Primary School,Greyhound Road,Sutton,,Minnows Breakfast And After School Club,Hospitals/Childcare/Caring Premises,5,0,,557768,10,,51.36401800000000,13/00097/COM,529,brs@sutton.gov.uk,Sutton,http://www.sutton.gov.uk,-0.18820600000000,SM1 4AW,2013-06-17,fhrs_4_en-GB,4,,FHRS,5
128280,Dewsbury Cottage  Poulter Park,Peterborough Road,Carshalton,,Mitcham Rugby Football Club,Retailers - other,4613,10,,610827,5,,,5160/0000/2/002,529,brs@sutton.gov.uk,Sutton,http://www.sutton.gov.uk,,,2013-11-17,fhrs_4_en-GB,4,,FHRS,5
128281,St Helier Hospital,Wrythe Lane,Carshalton,,Mitie Cleaning And Environmental Services Ltd,Restaurant/Cafe/Canteen,1,5,,700459,5,,51.38008300000000,14/00046/COM,529,brs@sutton.gov.uk,Sutton,http://www.sutton.gov.uk,-0.18320300000000,SM5 1AA,2014-09-10,fhrs_5_en-GB,5,,FHRS,5
128282,63 The Crescent,Belmont,,,Modus Care Ltd,Hospitals/Childcare/Caring Premises,5,5,,570995,5,,51.34079700000000,06254/0063/0/000,529,brs@sutton.gov.uk,Sutton,http://www.sutton.gov.uk,-0.20327800000000,SM2 7BT,2013-05-03,fhrs_4_en-GB,4,,FHRS,10
128283,43 North Street,Carshalton,,,Mogul Tandoori,Takeaway/sandwich shop,7844,5,,430837,10,,51.37024500000000,05528/0043/0/000,529,brs@sutton.gov.uk,Sutton,http://www.sutton.gov.uk,-0.16651000000000,SM5 2HG,2014-03-28,fhrs_4_en-GB,4,,FHRS,5
128284,202 - 204 Croydon Road,Wallington,Croydon,,Mohini Balti House,Restaurant/Cafe/Canteen,1,10,,395884,10,,51.36795400000000,04263/0202/0/000,529,brs@sutton.gov.uk,Sutton,http://www.sutton.gov.uk,-0.13187800000000,CR0 4PJ,2013-11-27,fhrs_3_en-GB,3,,FHRS,10
128285,1 Nightingale Road,Carshalton,,,Moon House Fish Bar,Takeaway/sandwich shop,7844,10,,570942,10,,51.37246300000000,05524/0001/0/000,529,brs@sutton.gov.uk,Sutton,http://www.sutton.gov.uk,-0.16570300000000,SM5 2DN,2013-07-16,fhrs_3_en-GB,3,,FHRS,10
128286,5 - 9 Hill Road,Sutton,,,Moon On The Hill,Pub/bar/nightclub,7843,0,,20823,5,,51.36171200000000,06463/0005/0/000,529,brs@sutton.gov.uk,Sutton,http://www.sutton.gov.uk,-0.19318100000000,SM1 1DZ,2014-02-20,fhrs_5_en-GB,5,,FHRS,0
128287,129 Wrythe Lane,Carshalton,,,Morley's Fried Chicken,Takeaway/sandwich shop,7844,20,,696353,15,,51.37579800000000,14/00114/COM,529,brs@sutton.gov.uk,Sutton,http://www.sutton.gov.uk,-0.17771200000000,SM5 2RU,2014-08-21,fhrs_1_en-GB,1,,FHRS,15
128288,341 High Street,Sutton,,,Morrison M Local,Retailers - supermarkets/hypermarkets,7840,5,,591229,5,,51.36987300000000,13/00146/COM,529,brs@sutton.gov.uk,Sutton,http://www.sutton.gov.uk,-0.19523000000000,SM1 1LW,2013-10-11,fhrs_5_en-GB,5,,FHRS,0
128289,4 The Parade,Oldfields Road,Sutton,,Mr India,Takeaway/sandwich shop,7844,5,,513975,10,,51.37199900000000,09/00066/COM,529,brs@sutton.gov.uk,Sutton,http://www.sutton.gov.uk,-0.20835000000000,SM1 2NA,2014-11-12,fhrs_3_en-GB,3,,FHRS,10
128290,35 Audley Place,Sutton,,,Mummy Bees,Mobile caterer,7846,10,,727759,5,,51.35245700000000,14/00142/COM,529,brs@sutton.gov.uk,Sutton,http://www.sutton.gov.uk,-0.19775300000000,SM2 6RW,2014-11-24,fhrs_4_en-GB,4,,FHRS,5
128291,13 The Broadway,Beddington,London Borough Of Sutton,,Mum's Cafe,Restaurant/Cafe/Canteen,1,10,,430850,10,,51.36720700000000,11/00028/COM,529,brs@sutton.gov.uk,Sutton,http://www.sutton.gov.uk,-0.13189400000000,CR0 4QR,2013-09-10,fhrs_3_en-GB,3,,FHRS,10
128292,76 Central Road,Worcester Park,,,Munal Restaurant,Restaurant/Cafe/Canteen,1,20,,683244,10,,51.37813900000000,14/00108/COM,529,brs@sutton.gov.uk,Sutton,http://www.sutton.gov.uk,-0.24026900000000,KT4 8HX,2014-07-15,fhrs_1_en-GB,1,,FHRS,10
128293,Muschamp Primary,Muschamp Road,Carshalton,,Muschamp Primary School Kitchen,Restaurant/Cafe/Canteen,1,5,,570941,5,,51.37612700000000,05516/0122/3/001,529,brs@sutton.gov.uk,Sutton,http://www.sutton.gov.uk,-0.17400600000000,SM5 2SE,2014-12-15,fhrs_5_en-GB,5,,FHRS,0
128294,Kiosk 14  Level 3 St Nicholas Centr,St Nicholas Way,Sutton,,My Rustic Pizza,Takeaway/sandwich shop,7844,20,,706917,10,,51.36467100000000,14/00138/COM,529,brs@sutton.gov.uk,Sutton,http://www.sutton.gov.uk,-0.19556400000000,SM1 1AY,2014-09-17,fhrs_1_en-GB,1,,FHRS,15
128295,Nandos,9 - 11 High Street,Sutton,,Nando's,Restaurant/Cafe/Canteen,1,0,,20795,5,,51.36007500000000,06455/0009/0/000,529,brs@sutton.gov.uk,Sutton,http://www.sutton.gov.uk,-0.19198100000000,SM1 1DF,2014-06-16,fhrs_5_en-GB,5,,FHRS,5
128296,75 Banstead Road,Carshalton,,,Napoli Pizza,Takeaway/sandwich shop,7844,20,,570924,5,,51.35692800000000,05134/0075/0/000,529,brs@sutton.gov.uk,Sutton,http://www.sutton.gov.uk,-0.17346200000000,SM5 3NP,2013-08-27,fhrs_1_en-GB,1,,FHRS,15
128297,Masonic Hall,9 Grove Road,Sutton,,NCM Catering,Restaurant/Cafe/Canteen,1,0,,528591,0,,51.36012400000000,08/00231/COM,529,brs@sutton.gov.uk,Sutton,http://www.sutton.gov.uk,-0.19225200000000,SM1 1BB,2014-11-13,fhrs_5_en-GB,5,,FHRS,5
128298,718 London Road,North Cheam,,,New Capital Chinese Takeaway,Takeaway/sandwich shop,7844,10,,465463,10,,51.37618100000000,06550/0718/0/000,529,brs@sutton.gov.uk,Sutton,http://www.sutton.gov.uk,-0.22195200000000,SM3 9BY,2014-04-23,fhrs_3_en-GB,3,,FHRS,10
128299,18 Stonecot Hill,Sutton,,,New Golden Gate,Restaurant/Cafe/Canteen,1,5,,471197,5,,51.38511700000000,12/00180/COM,529,brs@sutton.gov.uk,Sutton,http://www.sutton.gov.uk,-0.21292600000000,SM3 9HE,2014-05-07,fhrs_4_en-GB,4,,FHRS,10
128300,10 Horatius Way,Silverwing Industrial Estate,Wallington,,New Tasty Bakery,Manufacturers/packers,7839,10,,571117,10,,51.36007000000000,12/00131/COM,529,brs@sutton.gov.uk,Sutton,http://www.sutton.gov.uk,-0.12474400000000,CR0 4RU,2014-11-27,fhrs_3_en-GB,3,,FHRS,10
128301,11 The Broadway,Plough Lane,Beddington,,New Welcome,Takeaway/sandwich shop,7844,10,,358955,15,,51.36720700000000,04178/0011/0/000,529,brs@sutton.gov.uk,Sutton,http://www.sutton.gov.uk,-0.13189400000000,CR0 4QR,2013-11-27,fhrs_2_en-GB,2,,FHRS,10
128302,1 The Market,Wrythe Lane,Carshalton,,New World,Restaurant/Cafe/Canteen,1,10,,462652,5,,51.38311400000000,05485/0001/0/000,529,brs@sutton.gov.uk,Sutton,http://www.sutton.gov.uk,-0.18851500000000,SM5 1AG,2014-04-25,fhrs_4_en-GB,4,,FHRS,5
128303,603-605 London Road,North Cheam,,,Nicky's Restaurant,Restaurant/Cafe/Canteen,1,0,,372415,0,,51.37354000000000,06550/0603/0/000,529,brs@sutton.gov.uk,Sutton,http://www.sutton.gov.uk,-0.22569000000000,SM3 9AG,2014-01-29,fhrs_4_en-GB,4,,FHRS,10
128304,Carshalton College,Nightingale Road,Carshalton,,Nightingale Restaurant,Restaurant/Cafe/Canteen,1,5,,571078,10,,51.37142000000000,09/00231/COM,529,brs@sutton.gov.uk,Sutton,http://www.sutton.gov.uk,-0.16512700000000,SM5 2EJ,2014-10-20,fhrs_4_en-GB,4,,FHRS,5
128305,23 Stonecot Hill,Sutton,,,Nisa Thai Restaurant,Restaurant/Cafe/Canteen,1,10,,491893,10,,51.38501300000000,06813/0023/0/000,529,brs@sutton.gov.uk,Sutton,http://www.sutton.gov.uk,-0.21202400000000,SM3 9HB,2012-12-11,fhrs_3_en-GB,3,,FHRS,10
128306,552-556 London Road,North Cheam,,,Nonsuch Inn,Pub/bar/nightclub,7843,0,,372414,5,,51.37211900000000,06550/0552/0/000,529,brs@sutton.gov.uk,Sutton,http://www.sutton.gov.uk,-0.22571600000000,SM3 9AA,2014-09-24,fhrs_5_en-GB,5,,FHRS,5
128307,333 High Street,Sutton,,,Noodle House,Restaurant/Cafe/Canteen,1,5,,557766,10,,51.36987300000000,13/00095/COM,529,brs@sutton.gov.uk,Sutton,http://www.sutton.gov.uk,-0.19523000000000,SM1 1LW,2013-12-05,fhrs_4_en-GB,4,,FHRS,5
128308,8 Regent Parade,Brighton Road,Sutton,,Noor Jahan,Restaurant/Cafe/Canteen,1,0,,20521,5,,51.35852100000000,06112/0002/3/008,529,brs@sutton.gov.uk,Sutton,http://www.sutton.gov.uk,-0.19149700000000,SM2 5BQ,2014-02-26,fhrs_4_en-GB,4,,FHRS,10
128309,10 Station Parade,Brighton Road,Sutton,,Noor Jahan's Tandoori Bar,Takeaway/sandwich shop,7844,5,,20519,5,,51.35888200000000,06112/0001/3/018,529,brs@sutton.gov.uk,Sutton,http://www.sutton.gov.uk,-0.19103700000000,SM2 5AD,2013-08-02,fhrs_5_en-GB,5,,FHRS,0
128310,Church Hall,North Cheam Baptist Church,Ridge Road,Sutton,North Cheam Baptist Church Luncheon Club,Hospitals/Childcare/Caring Premises,5,5,,730585,5,,51.38083800000000,06720/0240/0/000,529,brs@sutton.gov.uk,Sutton,http://www.sutton.gov.uk,-0.21542000000000,SM3 9LY,2015-01-20,fhrs_5_en-GB,5,,FHRS,5
128311,654 London Road,North Cheam,,,North Cheam Day Nursery,Hospitals/Childcare/Caring Premises,5,5,,700458,5,,51.37504800000000,13/00200/COM,529,brs@sutton.gov.uk,Sutton,http://www.sutton.gov.uk,-0.22318900000000,SM3 9BZ,2014-08-18,fhrs_5_en-GB,5,,FHRS,5
128312,658 London Road,North Cheam,,,North Cheam Sports And Social Club,Other catering premises,7841,5,,358963,5,,51.37504800000000,06550/0660/0/000,529,brs@sutton.gov.uk,Sutton,http://www.sutton.gov.uk,-0.22318900000000,SM3 9BZ,2014-08-27,fhrs_4_en-GB,4,,FHRS,10
128313,615 London Road,North Cheam,,,North Cheam Traditional Fish Bar,Restaurant/Cafe/Canteen,1,0,,358962,0,,51.37472600000000,06550/0613/0/000,529,brs@sutton.gov.uk,Sutton,http://www.sutton.gov.uk,-0.22443700000000,SM3 9DF,2013-10-15,fhrs_4_en-GB,4,,FHRS,10
128314,245 Cheam Common Road,Worcester Park,,,North End Tavern,Pub/bar/nightclub,7843,0,,445137,5,,51.37629800000000,10/00270/COM,529,brs@sutton.gov.uk,Sutton,http://www.sutton.gov.uk,-0.23683400000000,KT4 8ST,2014-03-15,fhrs_5_en-GB,5,,FHRS,0
128315,Peaches Close,Cheam,,,Nuffield Health Club,Restaurant/Cafe/Canteen,1,10,,445135,5,,51.35443400000000,09/00167/COM,529,brs@sutton.gov.uk,Sutton,http://www.sutton.gov.uk,-0.21707800000000,SM2 7BJ,2012-09-03,fhrs_3_en-GB,3,,FHRS,10
128316,1 Cheam Road,Sutton,,,Number One Thai Restaurant,Restaurant/Cafe/Canteen,1,5,,210930,5,,51.36108800000000,12/00017/COM,529,brs@sutton.gov.uk,Sutton,http://www.sutton.gov.uk,-0.19293300000000,SM1 1SN,2013-09-20,fhrs_5_en-GB,5,,FHRS,5
128317,Oaks Park Cafe,Oaks Park,Croydon Lane,Banstead,Oaks Park Cafe Ltd,Restaurant/Cafe/Canteen,1,20,,666966,10,,51.33548000000000,14/00069/COM,529,brs@sutton.gov.uk,Sutton,http://www.sutton.gov.uk,-0.17111300000000,SM7 3BA,2014-05-20,fhrs_1_en-GB,1,,FHRS,15
128318,Carshalton Day Centre,Oaks Way,Carshalton,,Oaks Way Centre,Hospitals/Childcare/Caring Premises,5,5,,570944,0,,51.35288000000000,05539/0034/3/001,529,brs@sutton.gov.uk,Sutton,http://www.sutton.gov.uk,-0.16479100000000,SM5 4NQ,2013-08-14,fhrs_5_en-GB,5,,FHRS,5
128319,Trinity Church,Trinity Hall,Hill Road,Sutton,Oasis Centre,Restaurant/Cafe/Canteen,1,0,,588682,0,,51.36171200000000,06749/0000/0/000,529,brs@sutton.gov.uk,Sutton,http://www.sutton.gov.uk,-0.19318100000000,SM1 1DZ,2013-09-26,fhrs_5_en-GB,5,,FHRS,0
128320,8 Central Road,Worcester Park,,,Ocean Fish Bar,Takeaway/sandwich shop,7844,10,,481959,10,,51.37701200000000,06170/0008/0/000,529,brs@sutton.gov.uk,Sutton,http://www.sutton.gov.uk,-0.23828600000000,KT4 8HZ,2014-06-19,fhrs_3_en-GB,3,,FHRS,10
128321,The Old Bank,2 High Street,Sutton,,Old Bank,Pub/bar/nightclub,7843,0,,671698,5,,51.36015500000000,13/00229/COM,529,brs@sutton.gov.uk,Sutton,http://www.sutton.gov.uk,-0.19134600000000,SM1 1HN,2014-06-16,fhrs_5_en-GB,5,,FHRS,5
128322,26 Green Wrythe Lane,Carshalton,,,Olive Green,Takeaway/sandwich shop,7844,20,,717523,10,,51.37246600000000,14/00085/COM,529,brs@sutton.gov.uk,Sutton,http://www.sutton.gov.uk,-0.16760000000000,SM5 2DW,2014-10-21,fhrs_1_en-GB,1,,FHRS,15
128323,37 High Street,Sutton,,,O'Neills,Pub/bar/nightclub,7843,5,,20798,5,,51.36068200000000,06455/0037/2/000,529,brs@sutton.gov.uk,Sutton,http://www.sutton.gov.uk,-0.19228800000000,SM1 1DJ,2014-10-01,fhrs_5_en-GB,5,,FHRS,5
128324,High View Primary School,The Chase,Wallington,,Orchard Childcare,Other catering premises,7841,5,,732957,5,,51.36248700000000,15/00010/COM,529,brs@sutton.gov.uk,Sutton,http://www.sutton.gov.uk,-0.12965900000000,SM6 8JT,2015-01-26,fhrs_5_en-GB,5,,FHRS,0
128325,35 Hallmead Road,Sutton,,,Orchard House Nursing Home,Hospitals/Childcare/Caring Premises,5,5,,571009,5,,51.37265100000000,06430/0035/3/001,529,brs@sutton.gov.uk,Sutton,http://www.sutton.gov.uk,-0.19635700000000,SM1 1RD,2014-08-14,fhrs_5_en-GB,5,,FHRS,5
128326,382 Sutton Common Road,Sutton,,,Oriental Cuisine,Takeaway/sandwich shop,7844,5,,451674,5,,51.38339200000000,11/00024/COM,529,brs@sutton.gov.uk,Sutton,http://www.sutton.gov.uk,-0.20477300000000,SM3 9PL,2014-03-07,fhrs_4_en-GB,4,,FHRS,10
128327,322 Stafford Road,Wallington,Croydon,,Ozzie's Cafe,Restaurant/Cafe/Canteen,1,0,,407033,10,,51.36216500000000,10/00207/COM,529,brs@sutton.gov.uk,Sutton,http://www.sutton.gov.uk,-0.12249000000000,CR0 4NH,2014-01-21,fhrs_4_en-GB,4,,FHRS,10
128328,561 London Road,North Cheam,,,Palmera,Restaurant/Cafe/Canteen,1,20,,588683,20,,51.37252200000000,13/00175/COM,529,brs@sutton.gov.uk,Sutton,http://www.sutton.gov.uk,-0.22679200000000,SM3 9AE,2014-10-10,fhrs_0_en-GB,0,,FHRS,15
128329,79 Central Road,Worcester Park,,,Papa Johns,Takeaway/sandwich shop,7844,10,,571106,10,,51.37769100000000,11/00239/COM,529,brs@sutton.gov.uk,Sutton,http://www.sutton.gov.uk,-0.24038700000000,KT4 8EB,2013-07-30,fhrs_3_en-GB,3,,FHRS,10
128330,7 Cheam Road,Sutton,,,Papaya,Restaurant/Cafe/Canteen,1,10,,546633,10,,51.36108800000000,13/00078/COM,529,brs@sutton.gov.uk,Sutton,http://www.sutton.gov.uk,-0.19293300000000,SM1 1SN,2015-01-14,fhrs_3_en-GB,3,,FHRS,10
128331,45 Carshalton Park Road,Carshalton,,,Park Lodge,Hospitals/Childcare/Caring Premises,5,0,,571119,5,,51.36231700000000,12/00150/COM,529,brs@sutton.gov.uk,Sutton,http://www.sutton.gov.uk,-0.16500300000000,SM5 3SP,2014-03-16,fhrs_5_en-GB,5,,FHRS,0
128332,116A High Street,Sutton,,,Patisserie Valerie,Restaurant/Cafe/Canteen,1,5,,221451,10,,51.36349000000000,12/00015/COM,529,brs@sutton.gov.uk,Sutton,http://www.sutton.gov.uk,-0.19303900000000,SM1 1LU,2013-09-09,fhrs_4_en-GB,4,,FHRS,5
128333,Beddington Park,Church Road,Wallington,,Pavilion Cafe,Restaurant/Cafe/Canteen,1,5,,521114,5,,51.37322200000000,13/00018/COM,529,brs@sutton.gov.uk,Sutton,http://www.sutton.gov.uk,-0.13968100000000,SM6 7NN,2014-09-05,fhrs_5_en-GB,5,,FHRS,5
128334,105 Collingwood Road,Sutton,,,Peaceful Garden,Takeaway/sandwich shop,7844,10,,451679,10,,51.36807400000000,12/00147/COM,529,brs@sutton.gov.uk,Sutton,http://www.sutton.gov.uk,-0.20045800000000,SM1 2QN,2014-12-12,fhrs_3_en-GB,3,,FHRS,10
128335,11 Green Wrythe Lane,Carshalton,,,Pearl China,Takeaway/sandwich shop,7844,5,,451675,0,,51.37289700000000,11/00166/COM,529,brs@sutton.gov.uk,Sutton,http://www.sutton.gov.uk,-0.16871800000000,SM5 2DS,2014-03-06,fhrs_5_en-GB,5,,FHRS,5
128336,1A Manor Place,Sutton,,,Peckish,Restaurant/Cafe/Canteen,1,10,,20908,5,,51.36579800000000,06576/0001/2/000,529,brs@sutton.gov.uk,Sutton,http://www.sutton.gov.uk,-0.19337900000000,SM1 4BB,2014-06-11,fhrs_3_en-GB,3,,FHRS,10
128337,94 Stafford Road,Wallington,,,Peppers,Takeaway/sandwich shop,7844,0,,451668,0,,51.35896600000000,04703/0094/0/000,529,brs@sutton.gov.uk,Sutton,http://www.sutton.gov.uk,-0.14349100000000,SM6 9AY,2014-03-05,fhrs_4_en-GB,4,,FHRS,10
128338,142 Stafford Road,Wallington,,,Perfect Kebab,Takeaway/sandwich shop,7844,10,,430847,5,,51.35968700000000,09/00148/COM,529,brs@sutton.gov.uk,Sutton,http://www.sutton.gov.uk,-0.13905200000000,SM6 9BS,2014-03-04,fhrs_4_en-GB,4,,FHRS,5
128339,3 Cheam Road,Sutton,,,Perfect Kebab,Takeaway/sandwich shop,7844,,,571120,,,51.36108800000000,12/00152/COM,529,brs@sutton.gov.uk,Sutton,http://www.sutton.gov.uk,-0.19293300000000,SM1 1SN,2014-09-17,fhrs_4_en-GB,4,,FHRS,
128340,28 High Street,Cheam,,,Peri Peri Grill,Takeaway/sandwich shop,7844,20,,735955,10,,51.35754400000000,15/00020/COM,529,brs@sutton.gov.uk,Sutton,http://www.sutton.gov.uk,-0.21580900000000,SM3 8RL,2005-02-03,fhrs_1_en-GB,1,,FHRS,15
128341,6 The Broadway,Cheam,,,Piggies,Takeaway/sandwich shop,7844,0,,546628,0,,51.35824500000000,06117/0006/0/000,529,brs@sutton.gov.uk,Sutton,http://www.sutton.gov.uk,-0.21631300000000,SM3 8AY,2014-12-12,fhrs_5_en-GB,5,,FHRS,5
128342,39 Yardley Court,Hemingford Road,Cheam,,Piggies-Sweets,Other catering premises,7841,10,,732956,0,,51.36918700000000,14/00062/COM,529,brs@sutton.gov.uk,Sutton,http://www.sutton.gov.uk,-0.22751000000000,SM3 8HL,2015-01-13,fhrs_4_en-GB,4,,FHRS,0
128343,716 London Road,North Cheam,,,Pizza 2 Go,Takeaway/sandwich shop,7844,10,,481964,5,,51.37618100000000,06550/0716/0/000,529,brs@sutton.gov.uk,Sutton,http://www.sutton.gov.uk,-0.22195200000000,SM3 9BY,2014-06-16,fhrs_3_en-GB,3,,FHRS,10
128344,49 Stafford Road,Wallington,,,Pizza Chicken Hot 4 You,Takeaway/sandwich shop,7844,10,,414792,15,,51.35857100000000,04703/0049/0/000,529,brs@sutton.gov.uk,Sutton,http://www.sutton.gov.uk,-0.14357900000000,SM6 9AP,2013-12-27,fhrs_2_en-GB,2,,FHRS,10
128345,40-42 Stafford Road,Wallington,,,Pizza Express,Restaurant/Cafe/Canteen,1,0,,445131,5,,51.35839200000000,04703/0040/0/000,529,brs@sutton.gov.uk,Sutton,http://www.sutton.gov.uk,-0.14643000000000,SM6 9AA,2014-09-08,fhrs_5_en-GB,5,,FHRS,5
128346,4-6 Ewell Road,Cheam,,,Pizza Express,Restaurant/Cafe/Canteen,1,0,,414794,5,,51.35779600000000,06344/0004/0/000,529,brs@sutton.gov.uk,Sutton,http://www.sutton.gov.uk,-0.21756500000000,SM3 8BU,2014-09-10,fhrs_5_en-GB,5,,FHRS,0
128347,87-91 Central Road,Worcester Park,,,Pizza Express,Restaurant/Cafe/Canteen,1,5,,570983,10,,51.37863500000000,06170/0089/3/001,529,brs@sutton.gov.uk,Sutton,http://www.sutton.gov.uk,-0.24220500000000,KT4 8DY,2013-11-08,fhrs_4_en-GB,4,,FHRS,5
128348,Ground Floor,6 High Street,Sutton,,Pizza Express,Restaurant/Cafe/Canteen,1,0,,20793,0,,51.36015500000000,06455/0006/0/000,529,brs@sutton.gov.uk,Sutton,http://www.sutton.gov.uk,-0.19134600000000,SM1 1HN,2013-07-17,fhrs_5_en-GB,5,,FHRS,5
128349,70 High Street,Carshalton,,,Pizza GoGo,Takeaway/sandwich shop,7844,10,,462651,10,,51.36518900000000,05400/0070/0/000,529,brs@sutton.gov.uk,Sutton,http://www.sutton.gov.uk,-0.16119600000000,SM5 3AG,2014-04-24,fhrs_4_en-GB,4,,FHRS,0
128350,14 Green Wrythe Lane,Carshalton,,,Pizza Hut,Takeaway/sandwich shop,7844,0,,571103,5,,51.37246600000000,11/00195/COM,529,brs@sutton.gov.uk,Sutton,http://www.sutton.gov.uk,-0.16760000000000,SM5 2DW,2013-08-15,fhrs_5_en-GB,5,,FHRS,5
128351,544 London Road,North Cheam,,,Pizza Hut,Takeaway/sandwich shop,7844,5,,358961,5,,51.37211900000000,06550/0544/0/000,529,brs@sutton.gov.uk,Sutton,http://www.sutton.gov.uk,-0.22571600000000,SM3 9AA,2014-11-12,fhrs_5_en-GB,5,,FHRS,5
128352,26 The Market,Wrythe Lane,Carshalton,,Pizza Papa Johns,Takeaway/sandwich shop,7844,10,,372409,10,,51.38311400000000,0005485/0026/0/000,529,brs@sutton.gov.uk,Sutton,http://www.sutton.gov.uk,-0.18851500000000,SM5 1AG,2014-11-11,fhrs_3_en-GB,3,,FHRS,10
128353,Royal Marsden Hospital,Downs Road,Sutton,,Playhouse Nursery,Hospitals/Childcare/Caring Premises,5,5,,571112,5,,51.34363000000000,12/00046/COM,529,brs@sutton.gov.uk,Sutton,http://www.sutton.gov.uk,-0.19040300000000,SM2 5PT,2013-08-20,fhrs_5_en-GB,5,,FHRS,0
128354,47 Park Lane,Carshalton,,,Pollyanna Day Nursery And Baby Room,Hospitals/Childcare/Caring Premises,5,0,,570946,0,,51.36205900000000,05566/0047/0/000,529,brs@sutton.gov.uk,Sutton,http://www.sutton.gov.uk,-0.15658100000000,SM5 3EE,2014-01-27,fhrs_5_en-GB,5,,FHRS,5
128355,Health Club & Cricket Ground,Gander Green Lane,Sutton,,Popinjays (Facilities Management) Ltd,Restaurant/Cafe/Canteen,1,5,,571123,0,,51.36142400000000,12/00217/COM,529,brs@sutton.gov.uk,Sutton,http://www.sutton.gov.uk,-0.20543100000000,SM1 2EH,2013-05-14,fhrs_5_en-GB,5,,FHRS,0
128356,386 Sutton Common Road,Sutton,,,Poppins Pizza,Takeaway/sandwich shop,7844,10,,504816,10,,51.38339200000000,08/00144/COM,529,brs@sutton.gov.uk,Sutton,http://www.sutton.gov.uk,-0.20477300000000,SM3 9PL,2014-03-14,fhrs_3_en-GB,3,,FHRS,10
128357,68-70 High Street,Sutton,,,Poppins Restaurant,Restaurant/Cafe/Canteen,1,5,,20802,5,,51.36182900000000,06455/0068/0/000,529,brs@sutton.gov.uk,Sutton,http://www.sutton.gov.uk,-0.19202700000000,SM1 1EZ,2013-10-02,fhrs_5_en-GB,5,,FHRS,5
128358,26 Station Way,Cheam,,,Prezzo,Restaurant/Cafe/Canteen,1,0,,414795,0,,51.35657500000000,06807/0026/3/001,529,brs@sutton.gov.uk,Sutton,http://www.sutton.gov.uk,-0.21649300000000,SM3 8SQ,2014-02-10,fhrs_5_en-GB,5,,FHRS,0
128359,Belsize Court,Burnell Road,Sutton,,Pride Catering Partnership Ltd,Restaurant/Cafe/Canteen,1,20,,580089,15,,51.36901100000000,13/00122/COM,529,brs@sutton.gov.uk,Sutton,http://www.sutton.gov.uk,-0.19237600000000,SM1 4BH,2014-08-08,fhrs_1_en-GB,1,,FHRS,10
128360,118 Church Hill Road,Cheam,,,Priory Cafe,Restaurant/Cafe/Canteen,1,5,,580091,5,,51.36850700000000,13/00134/COM,529,brs@sutton.gov.uk,Sutton,http://www.sutton.gov.uk,-0.21878700000000,SM3 8NA,2014-12-31,fhrs_4_en-GB,4,,FHRS,10
128361,152 Westmead Road,Sutton,,,Protong,Manufacturers/packers,7839,5,,691718,0,,51.36611800000000,14/00044/COM,529,brs@sutton.gov.uk,Sutton,http://www.sutton.gov.uk,-0.17342700000000,SM1 4JR,2014-07-23,fhrs_5_en-GB,5,,FHRS,0
128362,Sutton Railway Station,High Street,Sutton,,Pumpkin (Platform 2),Restaurant/Cafe/Canteen,1,5,,20790,5,,51.35963000000000,06455/0000/3/010,529,brs@sutton.gov.uk,Sutton,http://www.sutton.gov.uk,-0.19115100000000,SM1 1JA,2014-03-04,fhrs_5_en-GB,5,,FHRS,5
128363,The Ridge,Purley,,,Purley Sports Club,Restaurant/Cafe/Canteen,1,5,,481965,10,,51.34491400000000,12/00143/COM,529,brs@sutton.gov.uk,Sutton,http://www.sutton.gov.uk,-0.13920500000000,CR8 3PF,2014-06-10,fhrs_4_en-GB,4,,FHRS,0
128364,Croydon Sorting Office,Beddington Farm Road,Beddington,,Quadrant Catering,Restaurant/Cafe/Canteen,1,5,,571047,5,,51.38235800000000,06976/0017/0/000,529,brs@sutton.gov.uk,Sutton,http://www.sutton.gov.uk,-0.13288700000000,CR9 4AA,2014-01-27,fhrs_5_en-GB,5,,FHRS,0
128365,356 Middleton Road,Carshalton,,,Quality Fish Bar,Takeaway/sandwich shop,7844,10,,462653,10,,51.38473800000000,05495/0356/0/000,529,brs@sutton.gov.uk,Sutton,http://www.sutton.gov.uk,-0.17666700000000,SM5 1HA,2014-04-25,fhrs_4_en-GB,4,,FHRS,0
128366,Church Hall,Carshalton Beeches Baptist Free Chu,Banstead Road,Carshalton,Quest Club,Restaurant/Cafe/Canteen,1,0,,571067,5,,51.35698400000000,09/00020/COM,529,brs@sutton.gov.uk,Sutton,http://www.sutton.gov.uk,-0.17414900000000,SM5 3NL,2012-10-05,fhrs_5_en-GB,5,,FHRS,0
128367,Wesley Hall,3 Ruskin Drive,Worcester Park,,Quest Lunchclub,Restaurant/Cafe/Canteen,1,0,,571031,5,,51.37711300000000,06736/0005/2/000,529,brs@sutton.gov.uk,Sutton,http://www.sutton.gov.uk,-0.23482000000000,KT4 8LG,2012-10-05,fhrs_5_en-GB,5,,FHRS,0
128368,12 Station Road,Belmont,,,R Gravett,Retailers - other,4613,10,,571033,15,,51.34363300000000,06805/0012/0/000,529,brs@sutton.gov.uk,Sutton,http://www.sutton.gov.uk,-0.19996600000000,SM2 6BH,2012-12-10,fhrs_2_en-GB,2,,FHRS,10
128369,32 Station Way,Cheam,,,Railway Hotel,Pub/bar/nightclub,7843,10,,571072,5,,51.35657500000000,09/00073/COM,529,brs@sutton.gov.uk,Sutton,http://www.sutton.gov.uk,-0.21649300000000,SM3 8SQ,2012-04-27,fhrs_3_en-GB,3,,FHRS,10
128370,106 Westmead Road,Sutton,,,Rasa Sayang,Restaurant/Cafe/Canteen,1,10,,654208,10,,51.36636300000000,05804/0106/0/000,529,brs@sutton.gov.uk,Sutton,http://www.sutton.gov.uk,-0.17993900000000,SM1 4JD,2014-04-08,fhrs_2_en-GB,2,,FHRS,15
128371,15 The Broadway,Cheam,,,Regional Thai Taste,Restaurant/Cafe/Canteen,1,10,,430838,10,,51.35818800000000,06117/0015/0/000,529,brs@sutton.gov.uk,Sutton,http://www.sutton.gov.uk,-0.21671700000000,SM3 8BH,2014-01-21,fhrs_3_en-GB,3,,FHRS,10
128372,31 High Street,Sutton,,,Restaurant And Coffee Shop,Restaurant/Cafe/Canteen,1,0,,20589,5,,51.36067300000000,06189/0002/0/002,529,brs@sutton.gov.uk,Sutton,http://www.sutton.gov.uk,-0.19345200000000,SM1 1DD,2015-01-13,fhrs_5_en-GB,5,,FHRS,5
128373,Unit C,31-33 High Street,Carshalton,,Rhubarb And Bramley,Retailers - other,4613,10,,727758,10,,51.36570900000000,13/00082/COM,529,brs@sutton.gov.uk,Sutton,http://www.sutton.gov.uk,-0.16050000000000,SM5 3AX,2014-12-16,fhrs_3_en-GB,3,,FHRS,10
128374,3 High Street,Sutton,,,Rift And Co,Pub/bar/nightclub,7843,0,,671699,5,,51.36007500000000,14/00040/COM,529,brs@sutton.gov.uk,Sutton,http://www.sutton.gov.uk,-0.19198100000000,SM1 1DF,2014-06-18,fhrs_4_en-GB,4,,FHRS,10
128375,St Nicholas House,St Nicholas Road,Sutton,,RIVA Bingo,Restaurant/Cafe/Canteen,1,0,,571077,5,,51.36284300000000,09/00193/COM,529,brs@sutton.gov.uk,Sutton,http://www.sutton.gov.uk,-0.19363900000000,SM1 1EL,2014-02-22,fhrs_5_en-GB,5,,FHRS,0
128376,100 High Street,Carshalton,,,Roast And Ground,Restaurant/Cafe/Canteen,1,0,,372418,0,,51.36563300000000,10/00022/COM,529,brs@sutton.gov.uk,Sutton,http://www.sutton.gov.uk,-0.15909500000000,SM5 3AE,2013-12-20,fhrs_5_en-GB,5,,FHRS,0
128377,Robin Hood Infants School,Robin Hood Lane,Sutton,,Robin Hood Infants' School Kitchen,Restaurant/Cafe/Canteen,1,0,,571030,0,,51.36319100000000,06724/0015/2/000,529,brs@sutton.gov.uk,Sutton,http://www.sutton.gov.uk,-0.20047700000000,SM1 2SF,2014-05-06,fhrs_5_en-GB,5,,FHRS,5
128378,Robin Hood Junior School,Thorncroft Road,Sutton,,Robin Hood Junior School Kitchen,Restaurant/Cafe/Canteen,1,5,,553488,0,,51.36539200000000,13/00052/COM,529,brs@sutton.gov.uk,Sutton,http://www.sutton.gov.uk,-0.19682900000000,SM1 1RL,2014-10-22,fhrs_5_en-GB,5,,FHRS,0
128379,6 Sutherland House,29 Brighton Road,Sutton,,Rose Cafe And Bistro,Restaurant/Cafe/Canteen,1,20,,48061,15,,51.35814900000000,11/00208/COM,529,brs@sutton.gov.uk,Sutton,http://www.sutton.gov.uk,-0.19070700000000,SM2 5AJ,2014-12-16,fhrs_1_en-GB,1,,FHRS,10
128380,54 Higher Drive,Banstead,,,Rosedene,Hospitals/Childcare/Caring Premises,5,10,,571130,5,,51.33425400000000,13/00066/COM,529,brs@sutton.gov.uk,Sutton,http://www.sutton.gov.uk,-0.22469500000000,SM7 1PQ,2013-07-02,fhrs_4_en-GB,4,,FHRS,5
128381,5 The Market,Wrythe Lane,Carshalton,,Rosehill Cafe,Restaurant/Cafe/Canteen,1,20,,654210,10,,51.38311400000000,14/00006/COM,529,brs@sutton.gov.uk,Sutton,http://www.sutton.gov.uk,-0.18851500000000,SM5 1AG,2014-03-18,fhrs_1_en-GB,1,,FHRS,5
128382,The Royal British Legion,Central Road,Worcester Park,,Royal British Legion,Retailers - other,4613,10,,730584,10,,51.37708700000000,06170/0071/3/002,529,brs@sutton.gov.uk,Sutton,http://www.sutton.gov.uk,-0.23910200000000,KT4 8EG,2015-01-15,fhrs_2_en-GB,2,,FHRS,15
128383,9 Green Wrythe Lane,Carshalton,,,Royal Fried Chicken,Takeaway/sandwich shop,7844,20,,641215,10,,51.37289700000000,13/00014/COM,529,brs@sutton.gov.uk,Sutton,http://www.sutton.gov.uk,-0.16871800000000,SM5 2DS,2014-10-15,fhrs_1_en-GB,1,,FHRS,15
128384,208 Cheam Common Road,Worcester Park,,,Royal India,Restaurant/Cafe/Canteen,1,20,,451676,15,,51.37693900000000,12/00021/COM,529,brs@sutton.gov.uk,Sutton,http://www.sutton.gov.uk,-0.23705400000000,KT4 8QJ,2014-02-04,fhrs_1_en-GB,1,,FHRS,10
128385,Downs Road,Sutton,,,Royal Marsden Hospital,Hospitals/Childcare/Caring Premises,5,5,,221452,5,,51.34363000000000,06305/0021/0/000,529,brs@sutton.gov.uk,Sutton,http://www.sutton.gov.uk,-0.19040300000000,SM2 5PT,2014-11-14,fhrs_5_en-GB,5,,FHRS,5
128386,5A Beddington Gardens,Wallington,,,Rumblin Tum,Restaurant/Cafe/Canteen,1,5,,430829,5,,51.35917300000000,04134/0005/3/001,529,brs@sutton.gov.uk,Sutton,http://www.sutton.gov.uk,-0.15034800000000,SM6 0HU,2014-01-27,fhrs_5_en-GB,5,,FHRS,0
128387,25-27 Central Road,Worcester Park,,,Rumours Wine Bar,Pub/bar/nightclub,7843,10,,570982,10,,51.37708700000000,06170/0025/0/000,529,brs@sutton.gov.uk,Sutton,http://www.sutton.gov.uk,-0.23910300000000,KT4 8EG,2014-11-19,fhrs_3_en-GB,3,,FHRS,10
128388,Rushy Meadow Primary School,Rushy Meadow Lane,Carshalton,,Rushy Meadow Primary School Kitchen,Restaurant/Cafe/Canteen,1,0,,570930,5,,51.37377400000000,05337/0000/0/000,529,brs@sutton.gov.uk,Sutton,http://www.sutton.gov.uk,-0.17309400000000,SM5 2SG,2014-01-16,fhrs_5_en-GB,5,,FHRS,5
128389,Rushy Meadow Primary School,Rushy Meadow Lane,Carshalton,,Rushy Risers' Breakfast Club,Hospitals/Childcare/Caring Premises,5,10,,571116,5,,51.37377400000000,12/00118/COM,529,brs@sutton.gov.uk,Sutton,http://www.sutton.gov.uk,-0.17309400000000,SM5 2SG,2012-07-16,fhrs_4_en-GB,4,,FHRS,0
128390,67 All Saints Road,Sutton,,,Rutland House,Hospitals/Childcare/Caring Premises,5,0,,570966,5,,51.37357900000000,06014/0067/2/000,529,brs@sutton.gov.uk,Sutton,http://www.sutton.gov.uk,-0.18713900000000,SM1 3DQ,2013-09-26,fhrs_5_en-GB,5,,FHRS,0
128391,174 Central Road,Worcester Park,,,Ryan Gate,Retailers - supermarkets/hypermarkets,7840,20,,641225,15,,51.37986200000000,14/00021/COM,529,brs@sutton.gov.uk,Sutton,http://www.sutton.gov.uk,-0.24365200000000,KT4 8HQ,2014-03-11,fhrs_1_en-GB,1,,FHRS,15
128392,15 Beddington Gardens,Wallington,,,Ryelands And Brooklands,Hospitals/Childcare/Caring Premises,5,5,,570877,10,,51.35838900000000,04134/0021/2/000,529,brs@sutton.gov.uk,Sutton,http://www.sutton.gov.uk,-0.15306600000000,SM6 0JF,2014-08-07,fhrs_4_en-GB,4,,FHRS,0
128393,15 Bridgewood Road,Worcester Park,,,S And S Patisserie,Manufacturers/packers,7839,10,,570864,10,,51.37308800000000,006108/0015/0/000,529,brs@sutton.gov.uk,Sutton,http://www.sutton.gov.uk,-0.24286200000000,KT4 8XP,2014-12-03,fhrs_3_en-GB,3,,FHRS,10
128394,24 Ewell Road,Cheam,,,S M Pinegar Ltd,Retailers - other,4613,5,,571002,5,,51.35779600000000,06344/0024/0/000,529,brs@sutton.gov.uk,Sutton,http://www.sutton.gov.uk,-0.21756500000000,SM3 8BU,2014-05-22,fhrs_4_en-GB,4,,FHRS,10
128395,142 Stanley Park Road,Carshalton,,,Saffron Merchant,Takeaway/sandwich shop,7844,5,,618902,10,,51.35495800000000,13/00225/COM,529,brs@sutton.gov.uk,Sutton,http://www.sutton.gov.uk,-0.16248200000000,SM5 3JG,2013-12-09,fhrs_4_en-GB,4,,FHRS,5
128396,37 Manor Road,Wallington,,,Safina Restaurant,Restaurant/Cafe/Canteen,1,10,,654209,10,,51.36666200000000,13/00213/COM,529,brs@sutton.gov.uk,Sutton,http://www.sutton.gov.uk,-0.15306300000000,SM6 0BW,2014-03-28,fhrs_3_en-GB,3,,FHRS,5
128397,4 Beeches Avenue,Carshalton,,,Sakura,Restaurant/Cafe/Canteen,1,20,,671701,10,,51.35688400000000,14/00086/COM,529,brs@sutton.gov.uk,Sutton,http://www.sutton.gov.uk,-0.17006000000000,SM5 3LF,2014-06-10,fhrs_1_en-GB,1,,FHRS,15
128398,Street Blpu,Benhill Avenue,Sutton,,Salvation Army Citidal,Restaurant/Cafe/Canteen,1,5,,570974,0,,,06071/0035/0/000,529,brs@sutton.gov.uk,Sutton,http://www.sutton.gov.uk,,,2013-07-18,fhrs_5_en-GB,5,,FHRS,0
128399,5 Cheam Common Road,Worcester Park,,,Sams Kebab Ltd,Takeaway/sandwich shop,7844,10,,447438,15,,51.37126900000000,11/00008/COM,529,brs@sutton.gov.uk,Sutton,http://www.sutton.gov.uk,-0.22899600000000,KT4 8TL,2013-09-06,fhrs_2_en-GB,2,,FHRS,10
128400,23 - 25 High Street,Cheam,,,Samsara,Restaurant/Cafe/Canteen,1,10,,414796,5,,51.35826100000000,08/00110/COM,529,brs@sutton.gov.uk,Sutton,http://www.sutton.gov.uk,-0.21504800000000,SM3 8RE,2014-03-03,fhrs_4_en-GB,4,,FHRS,5
128401,4 Cheam Common Road,Worcester Park,,,Sandwich Bar,Restaurant/Cafe/Canteen,1,10,,372412,10,,51.37172600000000,06187/0004/0/000,529,brs@sutton.gov.uk,Sutton,http://www.sutton.gov.uk,-0.22886300000000,KT4 8RW,2013-12-03,fhrs_3_en-GB,3,,FHRS,10
128402,97 Banstead Road,Carshalton,,,Saqui Indian Restaurant,Restaurant/Cafe/Canteen,1,5,,571076,10,,51.35692800000000,09/00152/COM,529,brs@sutton.gov.uk,Sutton,http://www.sutton.gov.uk,-0.17346200000000,SM5 3NP,2013-10-22,fhrs_4_en-GB,4,,FHRS,5
128403,52 Banstead Road,Carshalton,,,Saregama,Restaurant/Cafe/Canteen,1,0,,504810,10,,51.35758700000000,05134/0052/0/000,529,brs@sutton.gov.uk,Sutton,http://www.sutton.gov.uk,-0.17366600000000,SM5 3NW,2014-08-20,fhrs_4_en-GB,4,,FHRS,10
128404,27 North Street,Carshalton,,,Sassis,Restaurant/Cafe/Canteen,1,5,,491892,5,,51.36792800000000,05528/0027/0/000,529,brs@sutton.gov.uk,Sutton,http://www.sutton.gov.uk,-0.16497900000000,SM5 2HW,2014-06-25,fhrs_4_en-GB,4,,FHRS,10
128405,6 St Dunstans Hill,Cheam,,,Savoy Cafe,Restaurant/Cafe/Canteen,1,20,,710193,10,,51.37103000000000,14/00146/COM,529,brs@sutton.gov.uk,Sutton,http://www.sutton.gov.uk,-0.20968100000000,SM1 2UE,2014-10-22,fhrs_1_en-GB,1,,FHRS,10
128406,Carshalton High School For Girls,West Street,Carshalton,,School Canteen,Restaurant/Cafe/Canteen,1,5,,735953,0,,51.36964200000000,15/00016/COM,529,brs@sutton.gov.uk,Sutton,http://www.sutton.gov.uk,-0.16930700000000,SM5 2QX,2015-01-29,fhrs_5_en-GB,5,,FHRS,5
128407,5-7 Green Wrythe Lane,Carshalton,,,Scotts,Manufacturers/packers,7839,5,,455687,5,,51.37289700000000,05372/0005/0/000,529,brs@sutton.gov.uk,Sutton,http://www.sutton.gov.uk,-0.16871800000000,SM5 2DS,2014-01-13,fhrs_5_en-GB,5,,FHRS,5
128408,114 Beddington Lane,Beddington,,,Scrumdiddly Up,Mobile caterer,7846,5,,665629,5,,51.37318800000000,14/00043/COM,529,brs@sutton.gov.uk,Sutton,http://www.sutton.gov.uk,-0.13076000000000,CR0 4TB,2014-04-24,fhrs_2_en-GB,2,,FHRS,15
128409,124 Church Hill Road,Cheam,,,Sea Horse Fish And Chips,Takeaway/sandwich shop,7844,5,,407024,5,,51.36850700000000,06216/0124/0/000,529,brs@sutton.gov.uk,Sutton,http://www.sutton.gov.uk,-0.21878700000000,SM3 8NA,2014-10-13,fhrs_5_en-GB,5,,FHRS,5
128410,85 - 87 Manor Road,Wallington,,,Seraffino Restaurant,Restaurant/Cafe/Canteen,1,5,,654214,10,,51.36197900000000,14/00048/COM,529,brs@sutton.gov.uk,Sutton,http://www.sutton.gov.uk,-0.15036400000000,SM6 0DE,2014-04-16,fhrs_4_en-GB,4,,FHRS,5
128411,Anker House,689 Mitcham Road,Croydon,,Serans Fish Market,Retailers - other,4613,20,,571083,15,,51.38966100000000,10/00010/COM,529,brs@sutton.gov.uk,Sutton,http://www.sutton.gov.uk,-0.13179900000000,CR0 3AF,2012-05-11,fhrs_1_en-GB,1,,FHRS,10
128412,Unit 4,681 Mitcham Road,Croydon,,Shakthi Cash And Carry,Retailers - other,4613,5,,571122,5,,51.38912800000000,12/00207/COM,529,brs@sutton.gov.uk,Sutton,http://www.sutton.gov.uk,-0.13449400000000,CR0 3YH,2015-02-03,fhrs_5_en-GB,5,,FHRS,5
128413,24 Ross Parade,Wallington,,,Shanghai Chinese Restaurant,Restaurant/Cafe/Canteen,1,5,,407021,10,,51.36030700000000,04652/0023/0/000,529,brs@sutton.gov.uk,Sutton,http://www.sutton.gov.uk,-0.14924000000000,SM6 8QF,2013-12-11,fhrs_4_en-GB,4,,FHRS,5
128414,38 West Street,Carshalton,,,Shanghai Pearl,Takeaway/sandwich shop,7844,5,,553469,10,,51.36736900000000,005796/0038/0/000,529,brs@sutton.gov.uk,Sutton,http://www.sutton.gov.uk,-0.16715700000000,SM5 2PR,2013-05-14,fhrs_2_en-GB,2,,FHRS,15
128415,82 - 84 Central Road,Worcester Park,,,Sheesh Mangal,Restaurant/Cafe/Canteen,1,10,,571136,10,,51.37813900000000,13/00102/COM,529,brs@sutton.gov.uk,Sutton,http://www.sutton.gov.uk,-0.24026900000000,KT4 8HX,2014-05-29,fhrs_3_en-GB,3,,FHRS,10
128416,Sherwood Park School,Streeters Lane,Beddington,,Sherwood Park School Kitchen,Restaurant/Cafe/Canteen,1,5,,571045,5,,51.37053200000000,06955/0000/2/000,529,brs@sutton.gov.uk,Sutton,http://www.sutton.gov.uk,-0.13683100000000,SM6 7NP,2013-09-11,fhrs_5_en-GB,5,,FHRS,0
128417,Skill Centre,3 Robin Hood Lane,Sutton,,Sherwoods Community Cafe,Restaurant/Cafe/Canteen,1,10,,535829,10,,51.36359900000000,08/00052/COM,529,brs@sutton.gov.uk,Sutton,http://www.sutton.gov.uk,-0.19714300000000,SM1 2SW,2014-11-12,fhrs_3_en-GB,3,,FHRS,10
128418,23 Shirley Avenue,Cheam,,,Shirley View Nursing Home,Hospitals/Childcare/Caring Premises,5,,,571032,,,51.34671900000000,06777/0023/2/000,529,brs@sutton.gov.uk,Sutton,http://www.sutton.gov.uk,-0.21177800000000,SM2 7QS,2014-10-16,fhrs_4_en-GB,4,,FHRS,
128419,198 Croydon Road,Beddington,,,Silver Dragon,Restaurant/Cafe/Canteen,1,10,,535825,10,,51.36795400000000,04263/0198/0/000,529,brs@sutton.gov.uk,Sutton,http://www.sutton.gov.uk,-0.13187800000000,CR0 4PJ,2014-03-17,fhrs_2_en-GB,2,,FHRS,15
128420,Sutton Junior Tennis Club,Rosehill Recreation Ground,Rose Hill,Sutton,Simons Cafe In The Park,Restaurant/Cafe/Canteen,1,5,,691723,5,,,14/00118/COM,529,brs@sutton.gov.uk,Sutton,http://www.sutton.gov.uk,,SM1 3HD,2014-08-08,fhrs_5_en-GB,5,,FHRS,5
128421,142-146 High Street,Sutton,,,Small Hot Food To Go,Takeaway/sandwich shop,7844,0,,26249,0,,51.36429300000000,08/00238/COM,529,brs@sutton.gov.uk,Sutton,http://www.sutton.gov.uk,-0.19257700000000,SM1 1NQ,2011-09-26,fhrs_5_en-GB,5,,FHRS,5
128422,7 - 8 Sutherland House,29 Brighton Road,Sutton,,Sofra Grill And Restaurant,Restaurant/Cafe/Canteen,1,10,,430859,5,,51.35814900000000,12/00125/COM,529,brs@sutton.gov.uk,Sutton,http://www.sutton.gov.uk,-0.19070700000000,SM2 5AJ,2014-04-22,fhrs_4_en-GB,4,,FHRS,5
128423,62 The Broadway,Cheam,,,Songkran Thai Cafe And Restaurant,Restaurant/Cafe/Canteen,1,10,,513976,10,,51.35914700000000,10/00158/COM,529,brs@sutton.gov.uk,Sutton,http://www.sutton.gov.uk,-0.21653600000000,SM3 8BD,2014-09-11,fhrs_3_en-GB,3,,FHRS,10
128424,7 The Parade,Stafford Road,Wallington,,South Pacific,Takeaway/sandwich shop,7844,5,,407022,5,,51.36248400000000,04703/0320/3/010,529,brs@sutton.gov.uk,Sutton,http://www.sutton.gov.uk,-0.12218900000000,SM6 8ND,2014-09-18,fhrs_5_en-GB,5,,FHRS,5
128425,5 Dorset Road,Belmont,,,Southdown Nursing Home,Hospitals/Childcare/Caring Premises,5,10,,570998,5,,51.34778500000000,06302/0005/3/001,529,brs@sutton.gov.uk,Sutton,http://www.sutton.gov.uk,-0.20330700000000,SM2 6JA,2014-03-25,fhrs_3_en-GB,3,,FHRS,10
128426,1 Hillfield Parade,Bishopsford Road,Morden,,Southsea,Takeaway/sandwich shop,7844,0,,430849,10,,51.39223100000000,11/00007/COM,529,brs@sutton.gov.uk,Sutton,http://www.sutton.gov.uk,-0.17619600000000,SM4 6BG,2014-01-16,fhrs_4_en-GB,4,,FHRS,5
128427,373 Green Wrythe Lane,Carshalton,,,Sparks,Retailers - other,4613,20,,700457,10,,51.38437700000000,05372/0373/0/000,529,brs@sutton.gov.uk,Sutton,http://www.sutton.gov.uk,-0.17428100000000,SM5 1JQ,2014-08-29,fhrs_1_en-GB,1,,FHRS,10
128428,Street Blpu,Spencer Road,Mitcham Junction,,Spencer Nursery School,Hospitals/Childcare/Caring Premises,5,0,,570912,5,,,04697/0039/2/000,529,brs@sutton.gov.uk,Sutton,http://www.sutton.gov.uk,,,2013-12-20,fhrs_5_en-GB,5,,FHRS,0
128429,185 Stafford Road,Wallington,,,Spice And Go,Takeaway/sandwich shop,7844,10,,665628,10,,51.35935200000000,14/00039/COM,529,brs@sutton.gov.uk,Sutton,http://www.sutton.gov.uk,-0.13895100000000,SM6 9BT,2014-04-25,fhrs_3_en-GB,3,,FHRS,5
128430,16 Ross Parade,Wallington,,,Spice Hut,Takeaway/sandwich shop,7844,5,,491889,5,,51.36011100000000,04652/0016/0/000,529,brs@sutton.gov.uk,Sutton,http://www.sutton.gov.uk,-0.14880200000000,SM6 8QG,2014-01-20,fhrs_4_en-GB,4,,FHRS,10
128431,Church Hall,Carshalton Beeches Baptist Free Chu,Banstead Road,Carshalton,Spill The Beans Coffee Shop,Restaurant/Cafe/Canteen,1,5,,571066,5,,51.35698400000000,09/00019/COM,529,brs@sutton.gov.uk,Sutton,http://www.sutton.gov.uk,-0.17414900000000,SM5 3NL,2014-12-17,fhrs_5_en-GB,5,,FHRS,5
128432,St Dunstans C Of E Primary School,Anne Boleyns Walk,Cheam,,St Dunstan's C Of E Primary School Kitchen,Restaurant/Cafe/Canteen,1,0,,570967,5,,51.35541200000000,06020/0000/0/000,529,brs@sutton.gov.uk,Sutton,http://www.sutton.gov.uk,-0.21988400000000,SM3 8DF,2014-06-25,fhrs_5_en-GB,5,,FHRS,5
128433,Federation Of St Elpheges Catholic,Mollison Drive,Wallington,,St Elpheges RC Junior School Canteen,Restaurant/Cafe/Canteen,1,5,,570900,10,,51.35612900000000,04539/0001/2/000,529,brs@sutton.gov.uk,Sutton,http://www.sutton.gov.uk,-0.12796500000000,SM6 9HY,2014-12-02,fhrs_3_en-GB,3,,FHRS,10
128434,29 Mayfield Road,Sutton,,,St Judes Nursing Home,Hospitals/Childcare/Caring Premises,5,5,,570940,5,,51.35820100000000,05487/0029/3/001,529,brs@sutton.gov.uk,Sutton,http://www.sutton.gov.uk,-0.18132600000000,SM2 5DU,2014-05-14,fhrs_5_en-GB,5,,FHRS,5
128435,St Marys Infant School,West Street,Carshalton,,St Marys Infant School Kitchen,Restaurant/Cafe/Canteen,1,0,,570955,5,,51.36647300000000,05796/0039/2/000,529,brs@sutton.gov.uk,Sutton,http://www.sutton.gov.uk,-0.16736500000000,SM5 2PT,2014-11-06,fhrs_5_en-GB,5,,FHRS,0
128436,81-83 Cheam Road,Sutton,,,St Marys Lodge,Hospitals/Childcare/Caring Premises,5,0,,570990,0,,51.36078900000000,06189/0081/3/001,529,brs@sutton.gov.uk,Sutton,http://www.sutton.gov.uk,-0.20098800000000,SM1 2BD,2014-03-19,fhrs_5_en-GB,5,,FHRS,0
128437,St Marys Rc Junior School,Shorts Road,Carshalton,,St Mary's RC Junior School Kitchen,Restaurant/Cafe/Canteen,1,0,,570947,0,,51.36407400000000,05584/0100/2/000,529,brs@sutton.gov.uk,Sutton,http://www.sutton.gov.uk,-0.17096600000000,SM5 2PB,2014-06-10,fhrs_5_en-GB,5,,FHRS,5
128438,Church Hall,St Patricks Church,Park Hill Road,Wallington,St Patricks Luncheon Club,Restaurant/Cafe/Canteen,1,5,,570903,5,,51.35239500000000,04584/0086/3/001,529,brs@sutton.gov.uk,Sutton,http://www.sutton.gov.uk,-0.15220100000000,SM6 0RZ,2014-06-03,fhrs_5_en-GB,5,,FHRS,5
128439,St Raphaels Hospice,St Anthonys Hospital,801 London Road,North Cheam,St Raphael's Hospice,Hospitals/Childcare/Caring Premises,5,10,,571018,10,,51.37886300000000,06550/0801/3/002,529,brs@sutton.gov.uk,Sutton,http://www.sutton.gov.uk,-0.22091400000000,SM3 9DX,2014-04-01,fhrs_4_en-GB,4,,FHRS,0
128440,Morrisons Supermarket,31 High Street,Sutton,,Staff Canteen,Restaurant/Cafe/Canteen,1,0,,571062,5,,51.36067300000000,08/00219/COM,529,brs@sutton.gov.uk,Sutton,http://www.sutton.gov.uk,-0.19345200000000,SM1 1DD,2013-08-27,fhrs_5_en-GB,5,,FHRS,5
128441,96 Stafford Road,Wallington,,,Stafford Cafe,Restaurant/Cafe/Canteen,1,10,,570916,5,,51.35896600000000,04703/0096/0/000,529,brs@sutton.gov.uk,Sutton,http://www.sutton.gov.uk,-0.14349100000000,SM6 9AY,2013-10-04,fhrs_2_en-GB,2,,FHRS,15
128442,Stanley Park Road,Carshalton,,,Stanley Park Infant School,Restaurant/Cafe/Canteen,1,5,,571061,5,,51.35486600000000,08/00218/COM,529,brs@sutton.gov.uk,Sutton,http://www.sutton.gov.uk,-0.16351900000000,SM5 3JL,2014-09-11,fhrs_5_en-GB,5,,FHRS,0
128443,Stanley Park Infant School,Stanley Park Road,Carshalton,,Stanley's After School And Holiday Club,Hospitals/Childcare/Caring Premises,5,0,,571075,5,,51.35486600000000,09/00138/COM,529,brs@sutton.gov.uk,Sutton,http://www.sutton.gov.uk,-0.16351900000000,SM5 3JL,2013-05-29,fhrs_5_en-GB,5,,FHRS,0
128444,138 Stanley Park Road,Carshalton,,,Star Cafe,Restaurant/Cafe/Canteen,1,10,,571063,5,,51.35495800000000,09/00003/COM,529,brs@sutton.gov.uk,Sutton,http://www.sutton.gov.uk,-0.16248200000000,SM5 3JG,2013-07-11,fhrs_3_en-GB,3,,FHRS,10
128445,326 Wrythe Lane,Carshalton,,,Star Express,Restaurant/Cafe/Canteen,1,0,,414797,10,,51.38345900000000,09/00128/COM,529,brs@sutton.gov.uk,Sutton,http://www.sutton.gov.uk,-0.18814300000000,SM5 1AF,2014-01-14,fhrs_4_en-GB,4,,FHRS,5
128446,39 Station Way,Cheam,,,Star Of India,Restaurant/Cafe/Canteen,1,5,,462656,5,,51.35681900000000,06807/0039/0/000,529,brs@sutton.gov.uk,Sutton,http://www.sutton.gov.uk,-0.21602300000000,SM3 8SD,2014-07-02,fhrs_4_en-GB,4,,FHRS,10
128447,132 High Street,Sutton,,,Starbucks,Restaurant/Cafe/Canteen,1,0,,20805,0,,51.36442200000000,06455/0132/0/000,529,brs@sutton.gov.uk,Sutton,http://www.sutton.gov.uk,-0.19336200000000,SM1 1LX,2014-08-29,fhrs_5_en-GB,5,,FHRS,5
128448,Sutton Railway Station,High Street,Sutton,,Starbucks (PLATFORM 1),Restaurant/Cafe/Canteen,1,0,,26222,0,,51.35963000000000,08/00229/COM,529,brs@sutton.gov.uk,Sutton,http://www.sutton.gov.uk,-0.19115100000000,SM1 1JA,2013-04-15,fhrs_5_en-GB,5,,FHRS,5
128449,52 Lynwood Drive,Worcester Park,,,Stars Day Nursery,Hospitals/Childcare/Caring Premises,5,0,,571021,5,,51.37839600000000,06568/0052/0/000,529,brs@sutton.gov.uk,Sutton,http://www.sutton.gov.uk,-0.24484300000000,KT4 7AB,2013-09-04,fhrs_5_en-GB,5,,FHRS,0
128450,Street Blpu,Holmwood Gardens,Wallington,,Startel Day Nursery And Baby Room,Hospitals/Childcare/Caring Premises,5,0,,570892,0,,,04430/0000/0/000,529,brs@sutton.gov.uk,Sutton,http://www.sutton.gov.uk,,,2014-02-25,fhrs_5_en-GB,5,,FHRS,5
128451,6 Station Approach,Gordon Road,Carshalton,,Station Express,Takeaway/sandwich shop,7844,5,,539502,10,,51.35739700000000,11/00121/COM,529,brs@sutton.gov.uk,Sutton,http://www.sutton.gov.uk,-0.16950800000000,SM5 3RF,2014-11-26,fhrs_3_en-GB,3,,FHRS,10
128452,6 - 8 Beeches Avenue,Carshalton,,,Stenning's Family Bakery,Manufacturers/packers,7839,10,,528587,10,,51.35688400000000,05152/0008/0/000,529,brs@sutton.gov.uk,Sutton,http://www.sutton.gov.uk,-0.17006000000000,SM5 3LF,2014-10-01,fhrs_3_en-GB,3,,FHRS,10
128453,Debenhams,St Nicholas Centre,St Nicholas Way,Sutton,Style Cafe,Restaurant/Cafe/Canteen,1,5,,25016,0,,51.36556000000000,08/00036/COM,529,brs@sutton.gov.uk,Sutton,http://www.sutton.gov.uk,-0.19489700000000,SM1 1WA,2014-12-30,fhrs_5_en-GB,5,,FHRS,5
128454,171 High Street,Sutton,,,Subway,Restaurant/Cafe/Canteen,1,0,,33464,0,,51.36560800000000,10/00046/COM,529,brs@sutton.gov.uk,Sutton,http://www.sutton.gov.uk,-0.19450700000000,SM1 1JU,2015-01-14,fhrs_5_en-GB,5,,FHRS,5
128455,42 High Street,Sutton,,,Subway,Takeaway/sandwich shop,7844,0,,187307,0,,51.36084400000000,W06455/0042/0/000,529,brs@sutton.gov.uk,Sutton,http://www.sutton.gov.uk,-0.19170700000000,SM1 1HF,2011-07-07,fhrs_5_en-GB,5,,FHRS,5
128456,64 Woodcote Road,Wallington,,,Subway,Restaurant/Cafe/Canteen,1,5,,713509,5,,51.35860000000000,14/00167/COM,529,brs@sutton.gov.uk,Sutton,http://www.sutton.gov.uk,-0.14995500000000,SM6 0LY,2014-10-24,fhrs_4_en-GB,4,,FHRS,10
128457,19 Upper Mulgrave Road,Cheam,,,Sunflower,Takeaway/sandwich shop,7844,10,,358965,10,,51.35481000000000,06862/0019/0/000,529,brs@sutton.gov.uk,Sutton,http://www.sutton.gov.uk,-0.21515400000000,SM2 7AY,2013-07-19,fhrs_3_en-GB,3,,FHRS,10
128458,10 Green Wrythe Lane,Carshalton,,,Sunshine Cafe,Restaurant/Cafe/Canteen,1,20,,471199,10,,51.37246600000000,12/00192/COM,529,brs@sutton.gov.uk,Sutton,http://www.sutton.gov.uk,-0.16760000000000,SM5 2DW,2012-11-21,fhrs_1_en-GB,1,,FHRS,5
128459,109 Central Road,Worcester Park,,,Sunshine Cafe,Restaurant/Cafe/Canteen,1,5,,491897,5,,51.37866400000000,12/00149/COM,529,brs@sutton.gov.uk,Sutton,http://www.sutton.gov.uk,-0.24229000000000,KT4 8DY,2014-07-11,fhrs_4_en-GB,4,,FHRS,10
128460,302 Carshalton Road,Carshalton,,,Supa,Takeaway/sandwich shop,7844,10,,395886,5,,51.36293300000000,05209/0302/0/000,529,brs@sutton.gov.uk,Sutton,http://www.sutton.gov.uk,-0.17333800000000,SM5 3QB,2014-01-18,fhrs_3_en-GB,3,,FHRS,10
128461,64 The Broadway,Cheam,London Borough Of Sutton,,Superfish,Restaurant/Cafe/Canteen,1,10,,553477,5,,51.35914700000000,06117/0064/0/000,529,brs@sutton.gov.uk,Sutton,http://www.sutton.gov.uk,-0.21653600000000,SM3 8BD,2014-11-05,fhrs_4_en-GB,4,,FHRS,5
128462,20 The Market,Wrythe Lane,Carshalton,,Sureyan Express,Retailers - other,4613,20,,730586,15,,51.38311400000000,12/00142/COM,529,brs@sutton.gov.uk,Sutton,http://www.sutton.gov.uk,-0.18851500000000,SM5 1AG,2014-12-19,fhrs_1_en-GB,1,,FHRS,10
128463,14 The Market,Wrythe Lane,Carshalton,,Sureyan Halal Meat And Fish Limited,Retailers - other,4613,30,,717524,20,,51.38311400000000,14/00149/COM,529,brs@sutton.gov.uk,Sutton,http://www.sutton.gov.uk,-0.18851500000000,SM5 1AG,2014-11-18,fhrs_0_en-GB,0,,FHRS,20
128464,388 Sutton Common Road,Sutton,,,Surma Tandoori,Takeaway/sandwich shop,7844,10,,430845,10,,51.38339200000000,06830/0388/0/000,529,brs@sutton.gov.uk,Sutton,http://www.sutton.gov.uk,-0.20477300000000,SM3 9PL,2014-03-07,fhrs_3_en-GB,3,,FHRS,5
128465,173 Central Road,Worcester Park,,,Surrey King Cafe,Other catering premises,7841,10,,513977,10,,51.37974200000000,10/00199/COM,529,brs@sutton.gov.uk,Sutton,http://www.sutton.gov.uk,-0.24405900000000,KT4 8DR,2014-08-15,fhrs_3_en-GB,3,,FHRS,10
128466,175 Central Road,Worcester Park,,,Surrey Nefis Kebab,Takeaway/sandwich shop,7844,10,,455691,10,,51.37974200000000,08/00097/COM,529,brs@sutton.gov.uk,Sutton,http://www.sutton.gov.uk,-0.24405900000000,KT4 8DR,2014-03-20,fhrs_3_en-GB,3,,FHRS,10
128467,282A High Street,Sutton,,,Sutton Cafe,Restaurant/Cafe/Canteen,1,10,,20812,5,,51.36882600000000,06455/0280/3/002,529,brs@sutton.gov.uk,Sutton,http://www.sutton.gov.uk,-0.19498400000000,SM1 1PQ,2013-11-12,fhrs_3_en-GB,3,,FHRS,10
128468,486 - 488 Sutton Common Road,Sutton,,,Sutton Court Care Centre,Hospitals/Childcare/Caring Premises,5,0,,571086,0,,51.38565300000000,10/00074/COM,529,brs@sutton.gov.uk,Sutton,http://www.sutton.gov.uk,-0.21037500000000,SM3 9JL,2014-10-13,fhrs_5_en-GB,5,,FHRS,5
128469,Sutton Grammar School For Boys,Manor Lane,Sutton,,Sutton Grammar School For Boys Kitchen,Restaurant/Cafe/Canteen,1,5,,571023,10,,51.36510400000000,06574/0038/2/000,529,brs@sutton.gov.uk,Sutton,http://www.sutton.gov.uk,-0.18977200000000,SM1 4AS,2014-05-14,fhrs_4_en-GB,4,,FHRS,5
128470,292 High Street,Sutton,,,Sutton Halal Meat And Grocery,Retailers - other,4613,20,,571094,15,,51.36882600000000,10/00202/COM,529,brs@sutton.gov.uk,Sutton,http://www.sutton.gov.uk,-0.19498400000000,SM1 1PQ,2014-12-09,fhrs_1_en-GB,1,,FHRS,15
128471,Sutton High School For Girls,55 Cheam Road,Sutton,,Sutton High School For Girls Kitchen,Restaurant/Cafe/Canteen,1,5,,570989,0,,51.36089000000000,06189/0055/3/001,529,brs@sutton.gov.uk,Sutton,http://www.sutton.gov.uk,-0.19762300000000,SM1 2AX,2014-11-19,fhrs_5_en-GB,5,,FHRS,5
128472,360 High Street,Sutton,,,Sutton Kebab,Takeaway/sandwich shop,7844,10,,47902,10,,51.37088800000000,11/00186/COM,529,brs@sutton.gov.uk,Sutton,http://www.sutton.gov.uk,-0.19455800000000,SM1 1QE,2014-02-15,fhrs_4_en-GB,4,,FHRS,0
128473,139 Brighton Road,Sutton,,,Sutton Lodge Day Centre,Hospitals/Childcare/Caring Premises,5,0,,570975,5,,51.34959200000000,06112/0139/0/000,529,brs@sutton.gov.uk,Sutton,http://www.sutton.gov.uk,-0.19332700000000,SM2 5SW,2015-02-03,fhrs_5_en-GB,5,,FHRS,0
128474,63 Downs Road,Sutton,,,Sutton Mental Health Foundation,Hospitals/Childcare/Caring Premises,5,0,,570999,0,,51.34354800000000,06305/0063/0/000,529,brs@sutton.gov.uk,Sutton,http://www.sutton.gov.uk,-0.19617800000000,SM2 5NR,2014-01-07,fhrs_5_en-GB,5,,FHRS,5
128475,Sutton Youth Centre,Robin Hood Lane,Sutton,,Sutton Out Of School Club,Hospitals/Childcare/Caring Premises,5,0,,732955,0,,51.36442000000000,11/00087/COM,529,brs@sutton.gov.uk,Sutton,http://www.sutton.gov.uk,-0.19971000000000,SM1 2SD,2015-01-20,fhrs_5_en-GB,5,,FHRS,0
128476,St Nicholas Way,Sutton,,,Sutton Superbowl,Restaurant/Cafe/Canteen,1,20,,455697,10,,51.36352400000000,11/00201/COM,529,brs@sutton.gov.uk,Sutton,http://www.sutton.gov.uk,-0.19407200000000,SM1 1AT,2014-04-23,fhrs_1_en-GB,1,,FHRS,10
128477,Sutton Tennis Club,19 Devonshire Road,Sutton,,Sutton Tennis And Squash Club,Restaurant/Cafe/Canteen,1,5,,430841,5,,51.35274700000000,06291/0019/3/001,529,brs@sutton.gov.uk,Sutton,http://www.sutton.gov.uk,-0.18681200000000,SM2 5HH,2014-09-08,fhrs_5_en-GB,5,,FHRS,5
128478,6 The Parade,Oldfields Road,Sutton,,Sweet And Sour,Takeaway/sandwich shop,7844,5,,539505,10,,51.37199900000000,13/00061/COM,529,brs@sutton.gov.uk,Sutton,http://www.sutton.gov.uk,-0.20835000000000,SM1 2NA,2013-04-16,fhrs_4_en-GB,4,,FHRS,5
128479,19A Woodcote Road,Wallington,,,Swine 'N' Dine,Mobile caterer,7846,5,,624863,5,,51.35924700000000,13/00196/COM,529,brs@sutton.gov.uk,Sutton,http://www.sutton.gov.uk,-0.14935400000000,SM6 0LH,2014-01-07,fhrs_5_en-GB,5,,FHRS,5
128480,18 Mill Lane,Carshalton,,,Taka Japanese Restaurant,Restaurant/Cafe/Canteen,1,10,,553475,10,,51.36856200000000,05501/0018/0/000,529,brs@sutton.gov.uk,Sutton,http://www.sutton.gov.uk,-0.16241100000000,SM5 2JY,2014-12-09,fhrs_3_en-GB,3,,FHRS,10
128481,Unit 11  Level 2 St Nicholas Centre,St Nicholas Way,Sutton,,Takeya,Takeaway/sandwich shop,7844,0,,30605,5,,51.36468800000000,09/00226/COM,529,brs@sutton.gov.uk,Sutton,http://www.sutton.gov.uk,-0.19429900000000,SM1 1AX,2014-02-22,fhrs_5_en-GB,5,,FHRS,0
128482,187 Stafford Road,Wallington,,,Tandoori Night,Takeaway/sandwich shop,7844,5,,619679,10,,51.35935200000000,13/00227/COM,529,brs@sutton.gov.uk,Sutton,http://www.sutton.gov.uk,-0.13895100000000,SM6 9BT,2013-12-16,fhrs_4_en-GB,4,,FHRS,0
128483,555 London Road,North Cheam,,,Tas Ocakbasi Ltd,Restaurant/Cafe/Canteen,1,10,,691719,10,,51.37252200000000,14/00068/COM,529,brs@sutton.gov.uk,Sutton,http://www.sutton.gov.uk,-0.22679200000000,SM3 9AE,2014-07-22,fhrs_3_en-GB,3,,FHRS,10
128484,48 High Street,Cheam,,,Tasha's Tearoom,Restaurant/Cafe/Canteen,1,20,,591228,5,,51.35794500000000,13/00144/COM,529,brs@sutton.gov.uk,Sutton,http://www.sutton.gov.uk,-0.21491700000000,SM3 8RW,2013-10-10,fhrs_1_en-GB,1,,FHRS,5
128485,114 Church Hill Road,Cheam,,,Tasty,Takeaway/sandwich shop,7844,10,,451678,15,,51.36850700000000,12/00144/COM,529,brs@sutton.gov.uk,Sutton,http://www.sutton.gov.uk,-0.21878700000000,SM3 8NA,2013-10-22,fhrs_2_en-GB,2,,FHRS,10
128486,6 Cheam Common Road,Worcester Park,,,Tasty Affair/Cafe Affair,Restaurant/Cafe/Canteen,1,,,683240,,,51.37172600000000,14/00036/COM,529,brs@sutton.gov.uk,Sutton,http://www.sutton.gov.uk,-0.22886300000000,KT4 8RW,2014-11-13,fhrs_5_en-GB,5,,FHRS,
128487,696 London Road,North Cheam,,,Tasty Cafe,Restaurant/Cafe/Canteen,1,20,,455701,15,,51.37618100000000,12/00151/COM,529,brs@sutton.gov.uk,Sutton,http://www.sutton.gov.uk,-0.22195200000000,SM3 9BY,2014-04-24,fhrs_1_en-GB,1,,FHRS,10
128488,491 London Road,North Cheam,,,Tasty China,Restaurant/Cafe/Canteen,1,10,,641222,5,,51.37063800000000,14/00018/COM,529,brs@sutton.gov.uk,Sutton,http://www.sutton.gov.uk,-0.22889100000000,SM3 8JW,2014-02-12,fhrs_4_en-GB,4,,FHRS,5
128489,Street Blpu,High Street,Sutton,,Taylors Of London,Mobile caterer,7846,5,,616956,10,,,12/00138/COM,529,brs@sutton.gov.uk,Sutton,http://www.sutton.gov.uk,,,2013-11-15,fhrs_4_en-GB,4,,FHRS,5
128490,188 High Street,Sutton,,,Tazza Coffee,Restaurant/Cafe/Canteen,1,10,,35398,5,,51.36591400000000,10/00234/COM,529,brs@sutton.gov.uk,Sutton,http://www.sutton.gov.uk,-0.19392100000000,SM1 1NR,2010-12-14,fhrs_4_en-GB,4,,FHRS,5
128491,Teddies Nursery,14 Sherwood Park Road,Sutton,,Teddies Sutton,Hospitals/Childcare/Caring Premises,5,10,,616958,10,,51.36160900000000,13/00197/COM,529,brs@sutton.gov.uk,Sutton,http://www.sutton.gov.uk,-0.19873000000000,SM1 2SQ,2014-11-07,fhrs_3_en-GB,3,,FHRS,10
128492,The Thatched House Hotel,133-141 Cheam Road,Sutton,,Thatched House Hotel,Hotel/bed & breakfast/guest house,7842,0,,528590,5,,51.35953600000000,06189/0135/2/000,529,brs@sutton.gov.uk,Sutton,http://www.sutton.gov.uk,-0.20725700000000,SM1 2BN,2014-10-21,fhrs_5_en-GB,5,,FHRS,5
128493,38 The Broadway,Cheam,,,The American Way,Restaurant/Cafe/Canteen,1,5,,570978,10,,51.35914700000000,06117/0038/0/000,529,brs@sutton.gov.uk,Sutton,http://www.sutton.gov.uk,-0.21653600000000,SM3 8BD,2013-11-19,fhrs_3_en-GB,3,,FHRS,10
128494,The Avenue Primary School,Avenue Road,Sutton,,The Avenue Primary School Kitchen,Restaurant/Cafe/Canteen,1,0,,570970,5,,51.34613400000000,06036/0016/2/000,529,brs@sutton.gov.uk,Sutton,http://www.sutton.gov.uk,-0.20294100000000,SM2 6JE,2014-11-07,fhrs_4_en-GB,4,,FHRS,10
128495,18 Station Road,Belmont,,,The Bakery,Retailers - other,4613,10,,571034,10,,51.34363300000000,06805/0018/0/000,529,brs@sutton.gov.uk,Sutton,http://www.sutton.gov.uk,-0.19996600000000,SM2 6BH,2013-09-10,fhrs_3_en-GB,3,,FHRS,10
128496,45 North Street,Carshalton,,,The Best Kebab,Takeaway/sandwich shop,7844,10,,462654,5,,51.37024500000000,05528/0045/0/000,529,brs@sutton.gov.uk,Sutton,http://www.sutton.gov.uk,-0.16651000000000,SM5 2HG,2014-04-08,fhrs_4_en-GB,4,,FHRS,5
128497,826 London Road,North Cheam,,,The Best Plaice,Takeaway/sandwich shop,7844,,,430860,,,51.37959700000000,12/00126/COM,529,brs@sutton.gov.uk,Sutton,http://www.sutton.gov.uk,-0.21831400000000,SM3 9BJ,2014-06-10,fhrs_5_en-GB,5,,FHRS,
128498,14 Ross Parade,Wallington,,,The Bonanza Restaurant,Restaurant/Cafe/Canteen,1,10,,717522,15,,51.36011100000000,14/00084/COM,529,brs@sutton.gov.uk,Sutton,http://www.sutton.gov.uk,-0.14880200000000,SM6 8QG,2014-10-28,fhrs_2_en-GB,2,,FHRS,10
128499,84 Manor Road,Wallington,,,The Brook,Restaurant/Cafe/Canteen,1,20,,546631,5,,51.36295700000000,13/00034/COM,529,brs@sutton.gov.uk,Sutton,http://www.sutton.gov.uk,-0.15137400000000,SM6 0AD,2013-05-01,fhrs_1_en-GB,1,,FHRS,15
128500,Midas Touch,181 Central Road,Worcester Park,,The Brook,Pub/bar/nightclub,7843,5,,358966,10,,51.37974200000000,09/00108/COM,529,brs@sutton.gov.uk,Sutton,http://www.sutton.gov.uk,-0.24405900000000,KT4 8DR,2013-10-21,fhrs_4_en-GB,4,,FHRS,5
128501,The Butter Churn,Erskine Road,Sutton,,The Butterchurn,Pub/bar/nightclub,7843,5,,539497,10,,51.36962500000000,05318/0030/2/000,529,brs@sutton.gov.uk,Sutton,http://www.sutton.gov.uk,-0.18154800000000,SM1 3AS,2014-10-28,fhrs_3_en-GB,3,,FHRS,10
128502,Westcroft Leisure Centre,Westcroft Road,Carshalton,,The CafÃ© At Westcroft,Restaurant/Cafe/Canteen,1,10,,535837,10,,51.36756700000000,13/00031/COM,529,brs@sutton.gov.uk,Sutton,http://www.sutton.gov.uk,-0.15689100000000,SM5 2TG,2014-10-30,fhrs_3_en-GB,3,,FHRS,10
128503,43 Station Road,Belmont,,,The California Traditional Fish And Chips,Takeaway/sandwich shop,7844,10,,580090,10,,51.34412100000000,13/00133/COM,529,brs@sutton.gov.uk,Sutton,http://www.sutton.gov.uk,-0.20185600000000,SM2 6DF,2013-07-24,fhrs_3_en-GB,3,,FHRS,10
128504,Sutton Garage,Bushey Road,Sutton,,The Canteen,Restaurant/Cafe/Canteen,1,10,,584432,10,,51.36916100000000,13/00145/COM,529,brs@sutton.gov.uk,Sutton,http://www.sutton.gov.uk,-0.19925200000000,SM1 1QJ,2013-09-09,fhrs_4_en-GB,4,,FHRS,0
128505,Church Hall,St Michael And All Angels Church,Milton Road,Wallington,The Centre/The Goldsmiths,Other catering premises,7841,5,,546630,0,,51.35736300000000,11/00113/COM,529,brs@sutton.gov.uk,Sutton,http://www.sutton.gov.uk,-0.14112800000000,SM6 9RP,2013-04-22,fhrs_5_en-GB,5,,FHRS,0
128506,52 Upper Mulgrave Road,Cheam,,,The Cheam Tandoori,Takeaway/sandwich shop,7844,5,,372417,0,,51.35509100000000,06862/0052/0/000,529,brs@sutton.gov.uk,Sutton,http://www.sutton.gov.uk,-0.21235600000000,SM2 7AJ,2014-01-27,fhrs_4_en-GB,4,,FHRS,10
128507,74 Central Road,Worcester Park,,,The Chef,Restaurant/Cafe/Canteen,1,5,,455689,0,,51.37813900000000,06170/0074/0/000,529,brs@sutton.gov.uk,Sutton,http://www.sutton.gov.uk,-0.24026900000000,KT4 8HX,2014-04-24,fhrs_4_en-GB,4,,FHRS,10
128508,The Salvation Army Hall,45 Benhill Avenue,Sutton,,The Coffee House,Restaurant/Cafe/Canteen,1,5,,571126,5,,51.36697400000000,13/00037/COM,529,brs@sutton.gov.uk,Sutton,http://www.sutton.gov.uk,-0.18979900000000,SM1 4DD,2014-12-23,fhrs_5_en-GB,5,,FHRS,5
128509,Ground Floor,Sutton Central Library,St Nicholas Way,Sutton,The Coffee Shop,Restaurant/Cafe/Canteen,1,0,,430846,0,,51.36163700000000,09/00118/COM,529,brs@sutton.gov.uk,Sutton,http://www.sutton.gov.uk,-0.19475000000000,SM1 1EA,2014-02-11,fhrs_4_en-GB,4,,FHRS,10
128510,328 Wrythe Lane,Carshalton,,,The Co-Operative,Retailers - supermarkets/hypermarkets,7840,10,,570960,10,,51.38406400000000,05852/0328/0/000,529,brs@sutton.gov.uk,Sutton,http://www.sutton.gov.uk,-0.18944100000000,SM5 1AD,2014-12-02,fhrs_2_en-GB,2,,FHRS,15
128511,21 Cheam Road,Sutton,,,The Co-Operative Childcare,Hospitals/Childcare/Caring Premises,5,0,,607385,5,,51.36108800000000,13/00194/COM,529,brs@sutton.gov.uk,Sutton,http://www.sutton.gov.uk,-0.19293300000000,SM1 1SN,2014-11-04,fhrs_5_en-GB,5,,FHRS,5
128512,42-44 High Street,Carshalton,,,The Co-Operative Group,Retailers - supermarkets/hypermarkets,7840,10,,571098,15,,51.36565800000000,11/00022/COM,529,brs@sutton.gov.uk,Sutton,http://www.sutton.gov.uk,-0.15900800000000,SM5 3AE,2014-06-03,fhrs_2_en-GB,2,,FHRS,10
128513,6 Holmwood Gardens,Wallington,,,The Croft Nursing Home,Hospitals/Childcare/Caring Premises,5,10,,570893,5,,51.35739000000000,04430/0006/2/000,529,brs@sutton.gov.uk,Sutton,http://www.sutton.gov.uk,-0.15302000000000,SM6 0HN,2014-07-22,fhrs_3_en-GB,3,,FHRS,10
128514,285 High Street,Sutton,,,The Crown,Pub/bar/nightclub,7843,5,,571010,10,,51.36785900000000,06455/0285/2/000,529,brs@sutton.gov.uk,Sutton,http://www.sutton.gov.uk,-0.19525200000000,SM1 1LD,2012-02-09,fhrs_4_en-GB,4,,FHRS,0
128515,48 The Market,Rose Hill,Sutton,,The Diner,Restaurant/Cafe/Canteen,1,20,,535838,10,,51.38333700000000,13/00058/COM,529,brs@sutton.gov.uk,Sutton,http://www.sutton.gov.uk,-0.19011600000000,SM1 3HE,2014-10-07,fhrs_1_en-GB,1,,FHRS,5
128516,71 Stonecot Hill,Sutton,,,The Emperor,Restaurant/Cafe/Canteen,1,10,,430844,10,,51.38371600000000,06813/0071/0/000,529,brs@sutton.gov.uk,Sutton,http://www.sutton.gov.uk,-0.21362700000000,SM3 9HJ,2014-03-21,fhrs_3_en-GB,3,,FHRS,10
128517,360 Middleton Road,Carshalton,,,The Food Angels,Takeaway/sandwich shop,7844,20,,493633,5,,51.38473800000000,05495/0360/0/000,529,brs@sutton.gov.uk,Sutton,http://www.sutton.gov.uk,-0.17666700000000,SM5 1HA,2014-08-19,fhrs_1_en-GB,1,,FHRS,10
128518,41 High Street,Carshalton,,,The Fox And Hounds,Pub/bar/nightclub,7843,10,,610826,10,,51.36636000000000,13/00212/COM,529,brs@sutton.gov.uk,Sutton,http://www.sutton.gov.uk,-0.15956900000000,SM5 3BB,2014-12-18,fhrs_2_en-GB,2,,FHRS,15
128519,Grange Lodge,London Road,Hackbridge,,The Grange,Restaurant/Cafe/Canteen,1,10,,581146,15,,51.37178300000000,13/00150/COM,529,brs@sutton.gov.uk,Sutton,http://www.sutton.gov.uk,-0.15163600000000,SM6 7BT,2014-07-23,fhrs_2_en-GB,2,,FHRS,15
128520,The Pavilion,Royston Park,Royston Avenue,Sutton,The Grange Day Nursery,Hospitals/Childcare/Caring Premises,5,10,,610825,5,,,13/00137/COM,529,brs@sutton.gov.uk,Sutton,http://www.sutton.gov.uk,,,2014-11-21,fhrs_4_en-GB,4,,FHRS,5
128521,198 High Street,Sutton,,,The Grapes,Pub/bar/nightclub,7843,5,,20806,5,,51.36591400000000,06455/0198/2/000,529,brs@sutton.gov.uk,Sutton,http://www.sutton.gov.uk,-0.19392100000000,SM1 1NR,2014-02-19,fhrs_5_en-GB,5,,FHRS,5
128522,The Greyhound Hotel,2 High Street,Carshalton,,The Greyhound,Pub/bar/nightclub,7843,0,,430835,0,,51.36489100000000,05400/0002/2/000,529,brs@sutton.gov.uk,Sutton,http://www.sutton.gov.uk,-0.16458400000000,SM5 3PE,2012-07-18,fhrs_5_en-GB,5,,FHRS,5
128523,12 Butter Hill,Wallington,,,The Grill,Takeaway/sandwich shop,7844,10,,521115,15,,51.36972300000000,13/00035/COM,529,brs@sutton.gov.uk,Sutton,http://www.sutton.gov.uk,-0.15730800000000,SM6 7JD,2014-03-14,fhrs_2_en-GB,2,,FHRS,10
128524,45 Grove Road,Sutton,,,The Grove,Hospitals/Childcare/Caring Premises,5,0,,571007,0,,51.35894500000000,06426/0045/3/001,529,brs@sutton.gov.uk,Sutton,http://www.sutton.gov.uk,-0.19805800000000,SM1 2AW,2014-10-24,fhrs_5_en-GB,5,,FHRS,5
128525,6 High Street,Cheam,,,The Harrow Inn,Pub/bar/nightclub,7843,10,,570865,15,,51.35754400000000,006454/0006/2/000,529,brs@sutton.gov.uk,Sutton,http://www.sutton.gov.uk,-0.21580900000000,SM3 8RL,2015-01-14,fhrs_2_en-GB,2,,FHRS,15
128526,101 Cheam Common Road,Worcester Park,,,The HG Wells,Pub/bar/nightclub,7843,10,,471195,10,,51.37321300000000,10/00082/COM,529,brs@sutton.gov.uk,Sutton,http://www.sutton.gov.uk,-0.23262800000000,KT4 8TA,2014-12-09,fhrs_3_en-GB,3,,FHRS,10
128527,The Hope Ph,48 West Street,Carshalton,,The Hope,Pub/bar/nightclub,7843,20,,407031,15,,51.36736900000000,10/00137/COM,529,brs@sutton.gov.uk,Sutton,http://www.sutton.gov.uk,-0.16715700000000,SM5 2PR,2014-12-16,fhrs_1_en-GB,1,,FHRS,10
128528,The Link Primary School,138 Croydon Road,Beddington,Croydon,The Link Primary School Kitchen,Restaurant/Cafe/Canteen,1,10,,570885,0,,51.36784900000000,04263/0138/0/000,529,brs@sutton.gov.uk,Sutton,http://www.sutton.gov.uk,-0.12982800000000,CR0 4PG,2013-05-23,fhrs_4_en-GB,4,,FHRS,0
128529,The Link Secondary School,82 - 84 Croydon Road,Beddington,Croydon,The Link Secondary School Kitchen,Restaurant/Cafe/Canteen,1,10,,570884,0,,51.36789900000000,04263/0082/0/000,529,brs@sutton.gov.uk,Sutton,http://www.sutton.gov.uk,-0.12395000000000,CR0 4PD,2013-05-23,fhrs_4_en-GB,4,,FHRS,0
128530,13 Greyhound Road,Sutton,,,The Little Windsor,Pub/bar/nightclub,7843,10,,580082,5,,51.36403800000000,06423/0013/2/000,529,brs@sutton.gov.uk,Sutton,http://www.sutton.gov.uk,-0.18655300000000,SM1 4BY,2013-08-09,fhrs_4_en-GB,4,,FHRS,5
128531,32 Lower Road,Sutton,,,The Lord Nelson,Pub/bar/nightclub,7843,5,,584427,5,,51.36532600000000,06559/0032/2/000,529,brs@sutton.gov.uk,Sutton,http://www.sutton.gov.uk,-0.18380200000000,SM1 4QP,2013-09-10,fhrs_4_en-GB,4,,FHRS,10
128532,89 Manor Road,Wallington,,,The Melbourne,Pub/bar/nightclub,7843,0,,455686,0,,51.36197900000000,04504/0089/2/000,529,brs@sutton.gov.uk,Sutton,http://www.sutton.gov.uk,-0.15036400000000,SM6 0DE,2014-04-28,fhrs_5_en-GB,5,,FHRS,5
128533,283 High Street,Sutton,,,The Merry Plaice,Takeaway/sandwich shop,7844,5,,513986,10,,51.36785900000000,13/00008/COM,529,brs@sutton.gov.uk,Sutton,http://www.sutton.gov.uk,-0.19525200000000,SM1 1LD,2014-03-18,fhrs_3_en-GB,3,,FHRS,10
128534,6 Hillcrest Parade,The Mount,Coulsdon,,The Mount Fish Bar,Takeaway/sandwich shop,7844,10,,710194,10,,51.32611400000000,14/00157/COM,529,brs@sutton.gov.uk,Sutton,http://www.sutton.gov.uk,-0.15479300000000,CR5 2PS,2014-10-10,fhrs_3_en-GB,3,,FHRS,10
128535,The Nightingale Ph,53 Carshalton Road,Sutton,,The Nightingale,Pub/bar/nightclub,7843,20,,539499,15,,51.36279600000000,06157/0053/2/000,529,brs@sutton.gov.uk,Sutton,http://www.sutton.gov.uk,-0.18532400000000,SM1 4LG,2014-02-28,fhrs_1_en-GB,1,,FHRS,10
128536,Woodmansterne Road,Carshalton,,,The Oaks Sports Centre,Other catering premises,7841,5,,372411,5,,51.34143100000000,05846/0301/3/002,529,brs@sutton.gov.uk,Sutton,http://www.sutton.gov.uk,-0.16925400000000,SM5 4AN,2013-12-10,fhrs_5_en-GB,5,,FHRS,5
128537,32 Upper Mulgrave Road,Cheam,,,The Pepperpot,Takeaway/sandwich shop,7844,5,,539500,10,,51.35472400000000,06862/0032/0/000,529,brs@sutton.gov.uk,Sutton,http://www.sutton.gov.uk,-0.21428100000000,SM2 7AZ,2014-10-09,fhrs_3_en-GB,3,,FHRS,10
128538,The Broadway,Plough Lane,Beddington,,The Plough,Pub/bar/nightclub,7843,0,,570886,10,,51.36720700000000,04263/0155/0/000,529,brs@sutton.gov.uk,Sutton,http://www.sutton.gov.uk,-0.13189400000000,CR0 4QR,2013-09-26,fhrs_4_en-GB,4,,FHRS,10
128539,Prince Of Wales Ph,28 Malden Road,Cheam,,The Prince Of Wales,Pub/bar/nightclub,7843,5,,504814,5,,51.36082100000000,06572/0028/2/000,529,brs@sutton.gov.uk,Sutton,http://www.sutton.gov.uk,-0.21776400000000,SM3 8QF,2014-10-06,fhrs_4_en-GB,4,,FHRS,10
128540,47 North Street,Carshalton,,,The Railway Tavern,Pub/bar/nightclub,7843,10,,570943,5,,51.37024500000000,05528/0047/2/000,529,brs@sutton.gov.uk,Sutton,http://www.sutton.gov.uk,-0.16651000000000,SM5 2HG,2012-04-27,fhrs_3_en-GB,3,,FHRS,10
128541,125 Church Hill Road,Cheam,,,The Raj,Restaurant/Cafe/Canteen,1,10,,447435,10,,51.36740300000000,06216/0125/0/000,529,brs@sutton.gov.uk,Sutton,http://www.sutton.gov.uk,-0.21660300000000,SM3 8LJ,2014-03-07,fhrs_3_en-GB,3,,FHRS,10
128542,320 High Street,Sutton,,,The Raj,Restaurant/Cafe/Canteen,1,20,,641217,10,,51.36960600000000,13/00125/COM,529,brs@sutton.gov.uk,Sutton,http://www.sutton.gov.uk,-0.19482400000000,SM1 1PR,2014-02-15,fhrs_1_en-GB,1,,FHRS,10
128543,Hackbridge Road,Hackbridge,,,The Red Lion,Pub/bar/nightclub,7843,10,,455702,10,,51.37850600000000,12/00153/COM,529,brs@sutton.gov.uk,Sutton,http://www.sutton.gov.uk,-0.15711300000000,SM6 7AX,2013-09-19,fhrs_3_en-GB,3,,FHRS,10
128544,52 West Street,Sutton,,,The Robin Hood Public House,Pub/bar/nightclub,7843,10,,571101,10,,51.36385500000000,11/00098/COM,529,brs@sutton.gov.uk,Sutton,http://www.sutton.gov.uk,-0.19625700000000,SM1 1SH,2014-07-22,fhrs_3_en-GB,3,,FHRS,10
128545,Rose & Crown Public House,Wallington Corner,Wallington,,The Rose And Crown,Pub/bar/nightclub,7843,10,,553471,10,,51.36851100000000,04740/0003/2/000,529,brs@sutton.gov.uk,Sutton,http://www.sutton.gov.uk,-0.15513000000000,SM6 7HX,2013-11-26,fhrs_3_en-GB,3,,FHRS,10
128546,3 Springfield Road,Wallington,,,The Servery,Restaurant/Cafe/Canteen,1,10,,591225,5,,51.36189800000000,09/00029/COM,529,brs@sutton.gov.uk,Sutton,http://www.sutton.gov.uk,-0.15375800000000,SM6 0BD,2013-10-01,fhrs_4_en-GB,4,,FHRS,5
128547,21 High Street,Carshalton,,,The Siam Orchid,Restaurant/Cafe/Canteen,1,10,,462650,15,,51.36528800000000,05400/0021/0/000,529,brs@sutton.gov.uk,Sutton,http://www.sutton.gov.uk,-0.16175200000000,SM5 3AP,2014-04-22,fhrs_2_en-GB,2,,FHRS,15
128548,8A Station Parade,Brighton Road,Sutton,,The Spaghetti Tree,Restaurant/Cafe/Canteen,1,5,,20518,10,,51.35888200000000,06112/0001/3/015,529,brs@sutton.gov.uk,Sutton,http://www.sutton.gov.uk,-0.19103700000000,SM2 5AD,2014-02-20,fhrs_4_en-GB,4,,FHRS,5
128549,Sutton Junior Tennis Club,Rosehill Recreation Ground,Rose Hill,Sutton,The Sports Village Cafe,Restaurant/Cafe/Canteen,1,10,,691722,10,,,14/00117/COM,529,brs@sutton.gov.uk,Sutton,http://www.sutton.gov.uk,,SM1 3HD,2014-08-15,fhrs_3_en-GB,3,,FHRS,10
128550,4 North Street,Carshalton,,,The Sun,Pub/bar/nightclub,7843,10,,553483,10,,51.36743900000000,09/00146/COM,529,brs@sutton.gov.uk,Sutton,http://www.sutton.gov.uk,-0.16418000000000,SM5 2HU,2013-05-22,fhrs_3_en-GB,3,,FHRS,10
128551,60-62 High Street,Sutton,,,The Sutton Arms,Pub/bar/nightclub,7843,,,20801,,,51.36182900000000,06455/0062/0/000,529,brs@sutton.gov.uk,Sutton,http://www.sutton.gov.uk,-0.19202700000000,SM1 1EZ,2014-09-08,fhrs_5_en-GB,5,,FHRS,
128552,Woodcote Green Nursery,Woodmansterne Lane,Wallington,,The Terrace Restuarant,Restaurant/Cafe/Canteen,1,5,,570874,5,,51.34683200000000,04/00068/COM,529,brs@sutton.gov.uk,Sutton,http://www.sutton.gov.uk,-0.14841800000000,SM6 0SU,2013-08-30,fhrs_5_en-GB,5,,FHRS,0
128553,59-61 High Street,Sutton,,,The Treasury,Pub/bar/nightclub,7843,0,,20800,0,,51.36164000000000,06455/0059/0/000,529,brs@sutton.gov.uk,Sutton,http://www.sutton.gov.uk,-0.19260900000000,SM1 1DT,2014-02-14,fhrs_4_en-GB,4,,FHRS,10
128554,16 Station Road,Belmont,,,The Usual Place,Restaurant/Cafe/Canteen,1,,,665626,,,51.34363300000000,14/00031/COM,529,brs@sutton.gov.uk,Sutton,http://www.sutton.gov.uk,-0.19996600000000,SM2 6BH,2014-07-22,fhrs_5_en-GB,5,,FHRS,
128555,Woodcote Green Nursery,Woodmansterne Lane,Wallington,,The Waterfall Cafe,Restaurant/Cafe/Canteen,1,5,,571071,0,,51.34683200000000,09/00044/COM,529,brs@sutton.gov.uk,Sutton,http://www.sutton.gov.uk,-0.14841800000000,SM6 0SU,2014-11-12,fhrs_5_en-GB,5,,FHRS,5
128556,1 The Ridgway,Sutton,,,The Willows,Hospitals/Childcare/Caring Premises,5,5,,571097,5,,51.35793000000000,11/00015/COM,529,brs@sutton.gov.uk,Sutton,http://www.sutton.gov.uk,-0.18007300000000,SM2 5JX,2014-01-21,fhrs_5_en-GB,5,,FHRS,0
128557,Windsor Castle Ph,378 Carshalton Road,Carshalton,,The Windsor Castle,Pub/bar/nightclub,7843,,,462664,,,51.36258000000000,705209/0378/2/000,529,brs@sutton.gov.uk,Sutton,http://www.sutton.gov.uk,-0.16918700000000,SM5 3PT,2014-11-12,fhrs_5_en-GB,5,,FHRS,
128558,265 High Street,Sutton,,,The Winning Post,Pub/bar/nightclub,7843,10,,571102,10,,51.36785900000000,11/00137/COM,529,brs@sutton.gov.uk,Sutton,http://www.sutton.gov.uk,-0.19525200000000,SM1 1LD,2012-06-26,fhrs_3_en-GB,3,,FHRS,10
128559,51A Woodcote Road,Wallington,,,The Woodcote Club,Retailers - other,4613,10,,624859,10,,51.35807500000000,04779/0051/3/007,529,brs@sutton.gov.uk,Sutton,http://www.sutton.gov.uk,-0.14915700000000,SM6 0LT,2011-02-25,fhrs_4_en-GB,4,,FHRS,0
128560,222 High Street,Sutton,,,Tim's Palace,Restaurant/Cafe/Canteen,1,10,,20809,0,,51.36675600000000,06455/0222/3/001,529,brs@sutton.gov.uk,Sutton,http://www.sutton.gov.uk,-0.19430400000000,SM1 1NT,2014-04-24,fhrs_4_en-GB,4,,FHRS,5
128561,31 York Road,Cheam,,,Together For Mental Wellbeing,Hospitals/Childcare/Caring Premises,5,0,,571044,0,,51.35135600000000,06952/0031/3/001,529,brs@sutton.gov.uk,Sutton,http://www.sutton.gov.uk,-0.20453100000000,SM2 6HL,2014-03-07,fhrs_5_en-GB,5,,FHRS,0
128562,Sutton Arena Leisure Centre,Middleton Road,Carshalton,,Top Tier Cafe,Restaurant/Cafe/Canteen,1,5,,528586,5,,51.38369600000000,05/00009/COM,529,brs@sutton.gov.uk,Sutton,http://www.sutton.gov.uk,-0.18136400000000,SM5 1SL,2013-03-22,fhrs_5_en-GB,5,,FHRS,5
128563,298 High Street,Sutton,,,Tops Pizza,Takeaway/sandwich shop,7844,20,,629199,10,,51.36882600000000,14/00012/COM,529,brs@sutton.gov.uk,Sutton,http://www.sutton.gov.uk,-0.19498400000000,SM1 1PQ,2014-01-31,fhrs_1_en-GB,1,,FHRS,15
128564,Street Blpu,Hall Road,Wallington,,Tordarrach,Hospitals/Childcare/Caring Premises,5,10,,570890,10,,,04384/0008/2/000,529,brs@sutton.gov.uk,Sutton,http://www.sutton.gov.uk,,,2014-07-30,fhrs_3_en-GB,3,,FHRS,5
128565,128 Grove Road,Sutton,,,Treetops Day Nursery,Hospitals/Childcare/Caring Premises,5,0,,571093,5,,51.35878400000000,10/00192/COM,529,brs@sutton.gov.uk,Sutton,http://www.sutton.gov.uk,-0.20218700000000,SM1 2DD,2014-01-24,fhrs_5_en-GB,5,,FHRS,5
128566,127 Wrythe Lane,Carshalton,,,Tudor Cafe,Restaurant/Cafe/Canteen,1,5,,696354,0,,51.37579800000000,14/00119/COM,529,brs@sutton.gov.uk,Sutton,http://www.sutton.gov.uk,-0.17771200000000,SM5 2RU,2014-08-20,fhrs_5_en-GB,5,,FHRS,5
128567,3 Tudor Drive,Morden,,,Tudor Kebab,Takeaway/sandwich shop,7844,20,,571039,10,,51.38599800000000,06857/0003/0/000,529,brs@sutton.gov.uk,Sutton,http://www.sutton.gov.uk,-0.21234500000000,SM4 4PD,2013-08-29,fhrs_1_en-GB,1,,FHRS,0
128568,120 - 124 Manor Road,Wallington,,,Turkish Food Express Ltd,Retailers - other,4613,20,,680670,15,,51.36130100000000,11/00230/COM,529,brs@sutton.gov.uk,Sutton,http://www.sutton.gov.uk,-0.15073600000000,SM6 0DS,2014-03-25,fhrs_1_en-GB,1,,FHRS,10
128569,Tweeddale Primary School,Tweeddale Road,Carshalton,,Tweeddale Children's Centre,Hospitals/Childcare/Caring Premises,5,0,,571096,0,,51.38429900000000,10/00254/COM,529,brs@sutton.gov.uk,Sutton,http://www.sutton.gov.uk,-0.17965900000000,SM5 1SW,2014-01-29,fhrs_5_en-GB,5,,FHRS,5
128570,Street Blpu,Tweeddale Road,Carshalton,,Tweeddale Primary School,Restaurant/Cafe/Canteen,1,5,,570953,10,,,05751/0066/3/001,529,brs@sutton.gov.uk,Sutton,http://www.sutton.gov.uk,,,2012-09-11,fhrs_4_en-GB,4,,FHRS,5
128571,19-21 High Street,Sutton,,,Uno Spanish Tapas,Restaurant/Cafe/Canteen,1,5,,513987,5,,51.36068200000000,13/00012/COM,529,brs@sutton.gov.uk,Sutton,http://www.sutton.gov.uk,-0.19228800000000,SM1 1DJ,2014-08-29,fhrs_5_en-GB,5,,FHRS,0
128572,39 Vanguard Way,Wallington,,,Vanguard Community Hall Snack Bar,Restaurant/Cafe/Canteen,1,10,,553482,5,,51.35321800000000,08/00243/COM,529,brs@sutton.gov.uk,Sutton,http://www.sutton.gov.uk,-0.13039500000000,SM6 9JL,2015-01-16,fhrs_4_en-GB,4,,FHRS,5
128573,182 Croydon Road,Wallington,,,Vassana,Takeaway/sandwich shop,7844,20,,553491,10,,51.36795400000000,13/00083/COM,529,brs@sutton.gov.uk,Sutton,http://www.sutton.gov.uk,-0.13187800000000,CR0 4PJ,2014-06-11,fhrs_1_en-GB,1,,FHRS,0
128574,Victor Seymour Infants' School,Denmark Road,Carshalton,,Victor Seymour Infants' LKitchen,Restaurant/Cafe/Canteen,1,0,,571060,5,,51.37120200000000,08/00216/COM,529,brs@sutton.gov.uk,Sutton,http://www.sutton.gov.uk,-0.16154400000000,SM5 2JE,2012-07-13,fhrs_5_en-GB,5,,FHRS,5
128575,28 High Street,Carshalton,,,Village Bakers,Manufacturers/packers,7839,10,,570935,10,,51.36518900000000,05400/0026/0/000,529,brs@sutton.gov.uk,Sutton,http://www.sutton.gov.uk,-0.16119600000000,SM5 3AG,2014-12-31,fhrs_3_en-GB,3,,FHRS,10
128576,3 Lower Road,Sutton,,,Village Bakers,Retailers - other,4613,5,,349071,5,,51.36584400000000,06559/0003/0/000,529,brs@sutton.gov.uk,Sutton,http://www.sutton.gov.uk,-0.18533300000000,SM1 4QJ,2014-08-22,fhrs_5_en-GB,5,,FHRS,5
128577,43 Station Way,Cheam,,,Village Bakers,Other catering premises,7841,5,,580086,5,,51.35681900000000,13/00072/COM,529,brs@sutton.gov.uk,Sutton,http://www.sutton.gov.uk,-0.21602300000000,SM3 8SD,2013-07-23,fhrs_4_en-GB,4,,FHRS,10
128578,50 High Street,Cheam,,,Village Charcoal Grill,Takeaway/sandwich shop,7844,0,,407025,5,,51.35794500000000,06454/0050/0/000,529,brs@sutton.gov.uk,Sutton,http://www.sutton.gov.uk,-0.21491700000000,SM3 8RW,2014-02-04,fhrs_5_en-GB,5,,FHRS,5
128579,13 Green Wrythe Lane,Carshalton,,,Vines Bar And Grill,Restaurant/Cafe/Canteen,1,5,,571105,5,,51.37289700000000,11/00222/COM,529,brs@sutton.gov.uk,Sutton,http://www.sutton.gov.uk,-0.16871800000000,SM5 2DS,2013-08-22,fhrs_4_en-GB,4,,FHRS,10
128580,1 -3 Bridge House,Beeches Avenue,Carshalton,,Vinoteca Italiana,Restaurant/Cafe/Canteen,1,10,,571127,15,,51.35708900000000,13/00041/COM,529,brs@sutton.gov.uk,Sutton,http://www.sutton.gov.uk,-0.16995100000000,SM5 3LG,2014-12-30,fhrs_2_en-GB,2,,FHRS,10
128581,Wallington County Grammar School,Croydon Road,Wallington,,Wallington County Grammar School Kitchen,Restaurant/Cafe/Canteen,1,0,,570888,5,,51.36902900000000,04263/0336/2/000,529,brs@sutton.gov.uk,Sutton,http://www.sutton.gov.uk,-0.14919000000000,SM6 7PH,2013-10-14,fhrs_5_en-GB,5,,FHRS,5
128582,119 Stafford Road,Wallington,,,Wallington Express Delivery,Takeaway/sandwich shop,7844,0,,513991,0,,51.35911100000000,404703/0119/3/002,529,brs@sutton.gov.uk,Sutton,http://www.sutton.gov.uk,-0.14077000000000,SM6 9BN,2014-08-21,fhrs_5_en-GB,5,,FHRS,5
128583,104 Stafford Road,Wallington,,,Wallington Fish Bar,Takeaway/sandwich shop,7844,5,,358957,10,,51.35896600000000,04703/0104/0/000,529,brs@sutton.gov.uk,Sutton,http://www.sutton.gov.uk,-0.14349100000000,SM6 9AY,2013-10-14,fhrs_4_en-GB,4,,FHRS,5
128584,Wallington High School For Girls,Woodcote Road,Wallington,,Wallington High School For Girls Kitchen,Restaurant/Cafe/Canteen,1,5,,395885,5,,51.34822600000000,04779/0216/2/000,529,brs@sutton.gov.uk,Sutton,http://www.sutton.gov.uk,-0.14961100000000,SM6 0PH,2012-06-01,fhrs_4_en-GB,4,,FHRS,10
128585,Stafford Road,Wallington,,,Wallington Meals On Wheels,Restaurant/Cafe/Canteen,1,0,,570915,0,,51.35737800000000,04703/0005/2/000,529,brs@sutton.gov.uk,Sutton,http://www.sutton.gov.uk,-0.14829500000000,SM6 9AQ,2014-06-25,fhrs_5_en-GB,5,,FHRS,5
128586,61 The Market,Rose Hill,Sutton,,Wallis Chicken,Takeaway/sandwich shop,7844,20,,727761,15,,51.38333700000000,14/00153/COM,529,brs@sutton.gov.uk,Sutton,http://www.sutton.gov.uk,-0.19011600000000,SM1 3HE,2014-11-18,fhrs_1_en-GB,1,,FHRS,10
128587,12 Hall Road,Wallington,,,Walton House,Hospitals/Childcare/Caring Premises,5,10,,570873,10,,51.35052000000000,04/00018/COM,529,brs@sutton.gov.uk,Sutton,http://www.sutton.gov.uk,-0.14964800000000,SM6 0RT,2013-03-26,fhrs_4_en-GB,4,,FHRS,0
128588,Wandle Valley School,Welbeck Road,Carshalton,,Wandle Valley School Kitchen,Restaurant/Cafe/Canteen,1,0,,570954,0,,51.38288000000000,05785/0242/2/000,529,brs@sutton.gov.uk,Sutton,http://www.sutton.gov.uk,-0.17109300000000,SM5 1LW,2013-11-22,fhrs_5_en-GB,5,,FHRS,0
128589,41 Worcester Road,Sutton,,,Wellesley Lodge,Hospitals/Childcare/Caring Premises,5,0,,553480,5,,51.35590000000000,06941/0041/0/000,529,brs@sutton.gov.uk,Sutton,http://www.sutton.gov.uk,-0.19885300000000,SM2 6PY,2013-05-03,fhrs_5_en-GB,5,,FHRS,5
128590,95 Westmead Road,Sutton,,,Westmead Halal Tandoori,Takeaway/sandwich shop,7844,5,,465462,0,,51.36594200000000,05804/0095/0/000,529,brs@sutton.gov.uk,Sutton,http://www.sutton.gov.uk,-0.18180900000000,SM1 4HX,2014-07-21,fhrs_5_en-GB,5,,FHRS,5
128591,87 Banstead Road,Carshalton,,,Willetts Butchers,Retailers - other,4613,10,,570925,10,,51.35692800000000,05134/0087/0/000,529,brs@sutton.gov.uk,Sutton,http://www.sutton.gov.uk,-0.17346200000000,SM5 3NP,2012-08-14,fhrs_3_en-GB,3,,FHRS,10
128592,Community Centre,113 Culvers Avenue,Carshalton,,Willow Cafe,Restaurant/Cafe/Canteen,1,10,,665631,10,,,14/00064/COM,529,brs@sutton.gov.uk,Sutton,http://www.sutton.gov.uk,,SM5 2FJ,2014-05-08,fhrs_3_en-GB,3,,FHRS,10
128593,59 Burdon Lane,Cheam,,,Willow Lodge,Hospitals/Childcare/Caring Premises,5,5,,546629,5,,51.34862300000000,06129/0059/2/000,529,brs@sutton.gov.uk,Sutton,http://www.sutton.gov.uk,-0.20865900000000,SM2 7BY,2014-04-17,fhrs_5_en-GB,5,,FHRS,0
128594,Sutton Hospital,Cotswold Road,Sutton,,Willows Nursery,Hospitals/Childcare/Caring Premises,5,0,,570994,0,,51.34688000000000,06246/0000/2/003,529,brs@sutton.gov.uk,Sutton,http://www.sutton.gov.uk,-0.19357800000000,SM2 5NF,2013-09-18,fhrs_5_en-GB,5,,FHRS,0
128595,Mollison Drive Health Centre,Mollison Drive,Wallington,,Wilson's School,Restaurant/Cafe/Canteen,1,10,,570901,0,,51.35310500000000,04539/0001/3/001,529,brs@sutton.gov.uk,Sutton,http://www.sutton.gov.uk,-0.13406200000000,SM6 9HG,2014-06-17,fhrs_4_en-GB,4,,FHRS,10
128596,6 The Parade,Beynon Road,Carshalton,,Wok's Cooking,Takeaway/sandwich shop,7844,0,,430857,10,,51.36270100000000,12/00117/COM,529,brs@sutton.gov.uk,Sutton,http://www.sutton.gov.uk,-0.16771700000000,SM5 3RL,2014-03-19,fhrs_4_en-GB,4,,FHRS,10
128597,Woodcote Green Nursery,Woodmansterne Lane,Wallington,,Woodcote Green Nurseries (Butchers Section),Retailers - other,4613,5,,580085,5,,51.34683200000000,13/00025/COM,529,brs@sutton.gov.uk,Sutton,http://www.sutton.gov.uk,-0.14841800000000,SM6 0SU,2014-08-21,fhrs_5_en-GB,5,,FHRS,5
128598,Woodcote Grove,Coulsdon,,,Woodcote Grove House,Hospitals/Childcare/Caring Premises,5,5,,570958,5,,51.33055400000000,05838/0007/0/000,529,brs@sutton.gov.uk,Sutton,http://www.sutton.gov.uk,-0.15237600000000,CR5 2XL,2013-12-11,fhrs_5_en-GB,5,,FHRS,5
128599,Woodcote Grove,Coulsdon,,,Woodcote Grove House,Hospitals/Childcare/Caring Premises,5,5,,571069,5,,51.33055400000000,09/00022/COM,529,brs@sutton.gov.uk,Sutton,http://www.sutton.gov.uk,-0.15237600000000,CR5 2XL,2013-12-11,fhrs_5_en-GB,5,,FHRS,0
128600,Meadow Hill,Coulsdon,,,Woodcote Park Golf Club,Other catering premises,7841,10,,570957,10,,51.32867900000000,05838/0003/2/000,529,brs@sutton.gov.uk,Sutton,http://www.sutton.gov.uk,-0.15093000000000,CR5 2QQ,2013-08-16,fhrs_3_en-GB,3,,FHRS,5
128601,Terrapin Buildings St Helier Hospit,273 Wrythe Lane,Carshalton,,Woodlands Day Nursery,Hospitals/Childcare/Caring Premises,5,0,,570959,0,,51.38008300000000,05852/0273/3/005,529,brs@sutton.gov.uk,Sutton,http://www.sutton.gov.uk,-0.18320300000000,SM5 1AA,2013-09-04,fhrs_5_en-GB,5,,FHRS,5
128602,133 Central Road,Worcester Park,,,Woodward Bros,Retailers - other,4613,10,,570987,5,,51.37863500000000,06170/0133/0/000,529,brs@sutton.gov.uk,Sutton,http://www.sutton.gov.uk,-0.24220500000000,KT4 8DY,2012-01-11,fhrs_3_en-GB,3,,FHRS,10
128603,112 Stafford Road,Wallington,,,Ya Hao,Takeaway/sandwich shop,7844,10,,407032,5,,51.35896600000000,10/00165/COM,529,brs@sutton.gov.uk,Sutton,http://www.sutton.gov.uk,-0.14349100000000,SM6 9AY,2015-01-14,fhrs_4_en-GB,4,,FHRS,5
128604,312 Stafford Road,Wallington,Croydon,,Yau Lee Garden,Takeaway/sandwich shop,7844,5,,535831,5,,51.36216500000000,09/00098/COM,529,brs@sutton.gov.uk,Sutton,http://www.sutton.gov.uk,-0.12249000000000,CR0 4NH,2013-04-10,fhrs_4_en-GB,4,,FHRS,10
128605,17 Park Road,Cheam,,,Ye Olde Red Lion,Pub/bar/nightclub,7843,5,,451669,5,,51.35954900000000,06675/0017/2/000,529,brs@sutton.gov.uk,Sutton,http://www.sutton.gov.uk,-0.21633400000000,SM3 8QB,2014-02-10,fhrs_4_en-GB,4,,FHRS,10
128606,Crown Agent For Overseas Government,St Nicholas House,St Nicholas Road,Sutton,Youngs Catering Services Ltd,Restaurant/Cafe/Canteen,1,5,,570871,0,,51.36284300000000,03/00011/FOOD,529,brs@sutton.gov.uk,Sutton,http://www.sutton.gov.uk,-0.19363900000000,SM1 1EL,2013-09-11,fhrs_5_en-GB,5,,FHRS,0
128607,Mitre House,9 - 15 High Street,Sutton,,Zizzi,Restaurant/Cafe/Canteen,1,,,20796,,,51.36007500000000,06455/0013/3/000,529,brs@sutton.gov.uk,Sutton,http://www.sutton.gov.uk,-0.19198100000000,SM1 1DF,2014-04-30,fhrs_5_en-GB,5,,FHRS,
