,addressline1,addressline2,addressline3,addressline4,businessname,businesstype,businesstypeid,confidenceinmanagement,extractdate,fhrsid,hygiene,itemcount,latitude,localauthoritybusinessid,localauthoritycode,localauthorityemailaddress,localauthorityname,localauthoritywebsite,longitude,postcode,ratingdate,ratingkey,ratingvalue,returncode,schemetype,structural
482676,R A F A Club,Greenhill Road,Cwmbran,,1209 Branch Cwmbran RAFA,Pub/bar/nightclub,7843,10,,462812,0,,51.65641500000000,114,569,commercial.services@torfaen.gov.uk,Torfaen,http://www.torfaen.gov.uk/,-3.02837000000000,NP44 3DQ,2012-10-17,fhrs_4_en-GB,4,,FHRS,10
482677,Unit 3,Gilchrist Thomas Industrial Estate,Blaenavon,Pontypool,3C's Cafe,Restaurant/Cafe/Canteen,1,0,,693310,5,,51.77489600000000,36034,569,commercial.services@torfaen.gov.uk,Torfaen,http://www.torfaen.gov.uk/,-3.09309600000000,NP4 9RJ,2014-08-14,fhrs_4_en-GB,4,,FHRS,10
482678,,4-6 Chapel Street,Pontnewydd,Cwmbran,5 Star Golden Gate Takeaway,Takeaway/sandwich shop,7844,5,,641664,5,,51.66059300000000,35944,569,commercial.services@torfaen.gov.uk,Torfaen,http://www.torfaen.gov.uk/,-3.02558700000000,NP44 1DW,2014-07-24,fhrs_4_en-GB,4,,FHRS,10
482679,,79 Hawkes Ridge,Ty Canol,Cwmbran,A Time For Tea,Other catering premises,7841,5,,618755,0,,51.64448900000000,35895,569,commercial.services@torfaen.gov.uk,Torfaen,http://www.torfaen.gov.uk/,-3.06199100000000,NP44 6JT,2013-11-29,fhrs_5_en-GB,5,,FHRS,5
482680,,108 The Highway,New Inn,Pontypool,Aahar,Restaurant/Cafe/Canteen,1,5,,654824,0,,51.68976300000000,35718,569,commercial.services@torfaen.gov.uk,Torfaen,http://www.torfaen.gov.uk/,-3.00982700000000,NP4 0PJ,2014-06-16,fhrs_5_en-GB,5,,FHRS,5
482681,A B Stores,George Street,Pontnewynydd,Pontypool,AB Stores,Retailers - other,4613,10,,91801,10,,51.71175000000000,25548,569,commercial.services@torfaen.gov.uk,Torfaen,http://www.torfaen.gov.uk/,-3.05256600000000,NP4 8NX,2013-05-13,fhrs_3_en-GB,3,,FHRS,5
482682,Unit 7,Gilchrist Thomas Industrial Estate,Blaenavon,Pontypool,Abergavenny Fine Foods Ltd,Manufacturers/packers,7839,0,,466831,0,,51.77530100000000,32203,569,commercial.services@torfaen.gov.uk,Torfaen,http://www.torfaen.gov.uk/,-3.09588900000000,NP4 9RL,2015-01-19,fhrs_5_en-GB,5,,FHRS,0
482683,,Incline Road,Abersychan,Pontypool,Abersychan School,School/college/university,7845,5,,142308,5,,51.72857800000000,7896,569,commercial.services@torfaen.gov.uk,Torfaen,http://www.torfaen.gov.uk/,-3.05903800000000,NP4 7DF,2014-07-02,fhrs_5_en-GB,5,,FHRS,5
482684,,33 Union Street,Abersychan,Pontypool,Abersychan Tandoori,Takeaway/sandwich shop,7844,10,,666550,10,,51.72366700000000,36135,569,commercial.services@torfaen.gov.uk,Torfaen,http://www.torfaen.gov.uk/,-3.05922700000000,NP4 7EW,2014-05-12,fhrs_3_en-GB,3,,FHRS,10
482685,,6 Lamb Lane,Ponthir,Cwmbran,Ace of Bakes,Other catering premises,7841,5,,608586,0,,51.63333600000000,35838,569,commercial.services@torfaen.gov.uk,Torfaen,http://www.torfaen.gov.uk/,-2.97749300000000,NP18 1HA,2013-11-06,fhrs_5_en-GB,5,,FHRS,0
482686,,East Avenue,Sebastopol,Pontypool,Age Concern Torfaen,Restaurant/Cafe/Canteen,1,5,,98216,5,,51.67993200000000,30879,569,commercial.services@torfaen.gov.uk,Torfaen,http://www.torfaen.gov.uk/,-3.02689200000000,NP4 5AB,2014-08-11,fhrs_5_en-GB,5,,FHRS,5
482687,Court Farm & Oakfield Community Association,Hogarth Close,Llantarnam,Cwmbran,Age Concern Torfaen,Restaurant/Cafe/Canteen,1,5,,654832,0,,51.63815900000000,36082,569,commercial.services@torfaen.gov.uk,Torfaen,http://www.torfaen.gov.uk/,-3.01314500000000,NP44 3DB,2014-03-31,fhrs_5_en-GB,5,,FHRS,5
482688,Ponthir Village Hall,Caerleon Road,Ponthir,Cwmbran,Age Concern Torfaen,Restaurant/Cafe/Canteen,1,5,,668526,0,,51.63052700000000,36085,569,commercial.services@torfaen.gov.uk,Torfaen,http://www.torfaen.gov.uk/,-2.97470200000000,NP18 1GX,2014-06-10,fhrs_5_en-GB,5,,FHRS,5
482689,Pontnewynydd Community Centre,Zion Hill,Pontnewynydd,Pontypool,Age Concern Torfaen,Restaurant/Cafe/Canteen,1,5,,666545,0,,51.71114300000000,36084,569,commercial.services@torfaen.gov.uk,Torfaen,http://www.torfaen.gov.uk/,-3.06109100000000,NP4 6QS,2014-05-12,fhrs_5_en-GB,5,,FHRS,5
482690,St Mary's Church,St Marys Road,Croesyceiliog,Cwmbran,Age Concern Torfaen,Restaurant/Cafe/Canteen,1,5,,672079,0,,51.65909700000000,36086,569,commercial.services@torfaen.gov.uk,Torfaen,http://www.torfaen.gov.uk/,-3.00936100000000,NP44 2EL,2014-06-12,fhrs_5_en-GB,5,,FHRS,5
482691,St Mary's Church Hall,The Highway,New Inn,Pontypool,Age Concern Torfaen,Restaurant/Cafe/Canteen,1,5,,666546,5,,51.69106100000000,36088,569,commercial.services@torfaen.gov.uk,Torfaen,http://www.torfaen.gov.uk/,-3.01057900000000,NP4 0PH,2014-05-09,fhrs_5_en-GB,5,,FHRS,0
482692,Victoria Village Hall,Cwmavon Road,Abersychan,Pontypool,Age Concern Torfaen,Restaurant/Cafe/Canteen,1,5,,668527,5,,51.73045400000000,36087,569,commercial.services@torfaen.gov.uk,Torfaen,http://www.torfaen.gov.uk/,-3.05834300000000,NP4 8PL,2014-06-05,fhrs_5_en-GB,5,,FHRS,5
482693,Albert Stores,21 Albert Road,Talywain,Pontypool,Albert Stores,Retailers - other,4613,10,,95133,10,,51.73291400000000,28139,569,commercial.services@torfaen.gov.uk,Torfaen,http://www.torfaen.gov.uk/,-3.07366300000000,NP4 7RL,2014-01-20,fhrs_3_en-GB,3,,FHRS,5
482694,Hasleton,7 Vicarage Terrace,Abersychan,Pontypool,"Albie's Big Breakfast (t/a Osborne Road, Pontypool)",Mobile caterer,7846,5,,89958,10,,51.73045400000000,24288,569,commercial.services@torfaen.gov.uk,Torfaen,http://www.torfaen.gov.uk/,-3.05834300000000,NP4 8PL,2014-05-28,fhrs_3_en-GB,3,,FHRS,10
482695,"Hasleton, 7 Vicarage Terrace",Cwmavon Road,Abersychan,Pontypool,"Albie's Two (trading opposite Globe PH, Talywain)",Takeaway/sandwich shop,7844,10,,699383,5,,51.73045400000000,36262,569,commercial.services@torfaen.gov.uk,Torfaen,http://www.torfaen.gov.uk/,-3.05834300000000,NP4 8PL,2015-01-12,fhrs_3_en-GB,3,,FHRS,10
482696,Filling Station,Albion Road,Pontypool,,Albion Road Service Station,Retailers - other,4613,10,,149884,0,,51.69903700000000,9685,569,commercial.services@torfaen.gov.uk,Torfaen,http://www.torfaen.gov.uk/,-3.04140400000000,NP4 6LE,2013-08-19,fhrs_4_en-GB,4,,FHRS,5
482697,,60 Woodside Road,Cwmbran,,Aldi Stores Ltd,Retailers - supermarkets/hypermarkets,7840,5,,82844,0,,51.65464200000000,20131,569,commercial.services@torfaen.gov.uk,Torfaen,http://www.torfaen.gov.uk/,-3.02652200000000,NP44 3EW,2014-07-23,fhrs_5_en-GB,5,,FHRS,5
482698,,41 Golf Road,New Inn,Pontypool,AM PM Vending,Other catering premises,7841,10,,234184,10,,51.69291700000000,35052,569,commercial.services@torfaen.gov.uk,Torfaen,http://www.torfaen.gov.uk/,-3.00805900000000,NP4 0PR,2014-03-21,fhrs_3_en-GB,3,,FHRS,10
482699,,60 Broadweir Road,Old Cwmbran,Cwmbran,"Anne's Classic Catering (t/a Travis Perkins, Station Road, Cwmbran)",Mobile caterer,7846,5,,427612,10,,51.64586500000000,35128,569,commercial.services@torfaen.gov.uk,Torfaen,http://www.torfaen.gov.uk/,-3.02658400000000,NP44 3LU,2014-01-23,fhrs_4_en-GB,4,,FHRS,5
482700,Treat Shop,25 Crane Street,Pontypool,,Annie's Sweet Shop,Retailers - other,4613,5,,466872,5,,51.70258500000000,35291,569,commercial.services@torfaen.gov.uk,Torfaen,http://www.torfaen.gov.uk/,-3.04173100000000,NP4 6LY,2012-11-14,fhrs_5_en-GB,5,,FHRS,5
482701,,Blaendare Road,Pontypool,,Aramark (within Coleg Gwent),School/college/university,7845,5,,209163,0,,51.69458200000000,34990,569,commercial.services@torfaen.gov.uk,Torfaen,http://www.torfaen.gov.uk/,-3.04380400000000,NP4 5YE,2013-10-22,fhrs_5_en-GB,5,,FHRS,5
482702,Arthur Jenkins Residential Home,Upper Coedcae Road,Blaenavon,Pontypool,Arthur Jenkins HFOP,Hospitals/Childcare/Caring Premises,5,5,,96904,0,,51.77497600000000,29856,569,commercial.services@torfaen.gov.uk,Torfaen,http://www.torfaen.gov.uk/,-3.07856000000000,NP4 9PP,2013-10-02,fhrs_5_en-GB,5,,FHRS,5
482703,Asda Stores Ltd,Llewellyn Road,Cwmbran,,Asda Stores Ltd,Retailers - supermarkets/hypermarkets,7840,10,,96413,5,,51.64611200000000,29263,569,commercial.services@torfaen.gov.uk,Torfaen,http://www.torfaen.gov.uk/,-3.02645600000000,NP44 1YH,2014-02-27,fhrs_4_en-GB,4,,FHRS,5
482704,,Avondale Road,Pontrhydyrun,Cwmbran,Ashbridge Inn,Pub/bar/nightclub,7843,5,,44465,0,,51.67081500000000,10789,569,commercial.services@torfaen.gov.uk,Torfaen,http://www.torfaen.gov.uk/,-3.01751800000000,NP44 1DE,2014-09-01,fhrs_4_en-GB,4,,FHRS,10
482705,Llanfrechfa Grange Hospital,Caerleon Road,Llanfrechfa,Cwmbran,Assessment and Treatment Unit,Hospitals/Childcare/Caring Premises,5,0,,528483,5,,51.64629700000000,35411,569,commercial.services@torfaen.gov.uk,Torfaen,http://www.torfaen.gov.uk/,-2.99634400000000,NP44 8YN,2013-03-20,fhrs_4_en-GB,4,,FHRS,10
482706,Tesco,Lower Bridge Street,Pontypool,,Avenance Cafe (within Tesco),Restaurant/Cafe/Canteen,1,0,,103186,0,,51.69976000000000,34583,569,commercial.services@torfaen.gov.uk,Torfaen,http://www.torfaen.gov.uk/,-3.03896000000000,NP4 6JU,2014-04-14,fhrs_5_en-GB,5,,FHRS,5
482707,Texaco Filling Station,Avondale Road,Pontrhydyrun,Cwmbran,Avondale Service Station Ltd,Retailers - other,4613,10,,99753,5,,51.66053800000000,31702,569,commercial.services@torfaen.gov.uk,Torfaen,http://www.torfaen.gov.uk/,-3.01747500000000,NP44 1TT,2014-08-11,fhrs_3_en-GB,3,,FHRS,10
482708,,Tudor Road,Cwmbran,,B & M,Retailers - other,4613,10,,729385,5,,51.65088000000000,36329,569,commercial.services@torfaen.gov.uk,Torfaen,http://www.torfaen.gov.uk/,-3.02273700000000,NP44 3PH,2015-01-05,fhrs_4_en-GB,4,,FHRS,0
482709,Unit 12,A R D Business Park,"Polo Grounds, New Inn",Pontypool,Bakestone Bakery,Manufacturers/packers,7839,10,,547878,5,,51.69074200000000,35399,569,commercial.services@torfaen.gov.uk,Torfaen,http://www.torfaen.gov.uk/,-3.01628600000000,NP4 0SW,2013-05-13,fhrs_4_en-GB,4,,FHRS,0
482710,,13 Richmond Road,Pontnewydd,Cwmbran,Balti King,Restaurant/Cafe/Canteen,1,5,,100332,10,,51.66153700000000,32193,569,commercial.services@torfaen.gov.uk,Torfaen,http://www.torfaen.gov.uk/,-3.02558000000000,NP44 1EG,2014-11-12,fhrs_3_en-GB,3,,FHRS,10
482711,Unit 25,John Baker Close,Llantarnam,Cwmbran,BBQ Pizza World,Takeaway/sandwich shop,7844,5,,654825,10,,51.63653000000000,35936,569,commercial.services@torfaen.gov.uk,Torfaen,http://www.torfaen.gov.uk/,-3.01958200000000,NP44 3AX,2015-01-06,fhrs_3_en-GB,3,,FHRS,10
482712,,36 The Walk,New Inn,Pontypool,Beijing House,Takeaway/sandwich shop,7844,10,,198188,5,,51.69083600000000,35004,569,commercial.services@torfaen.gov.uk,Torfaen,http://www.torfaen.gov.uk/,-3.00746300000000,NP4 0PU,2013-10-03,fhrs_4_en-GB,4,,FHRS,5
482713,Belle Vue Nursery,Belle Vue Road,Old Cwmbran,Cwmbran,Belle Vue Childrens Nursery,Hospitals/Childcare/Caring Premises,5,5,,97600,0,,51.64506000000000,30373,569,commercial.services@torfaen.gov.uk,Torfaen,http://www.torfaen.gov.uk/,-3.02515000000000,NP44 3LF,2015-02-05,fhrs_5_en-GB,5,,FHRS,0
482714,Trelay House,Cwmavon Road,Cwmavon,Pontypool,Bernies Ice Cream,Mobile caterer,7846,10,,521333,5,,51.74717300000000,35206,569,commercial.services@torfaen.gov.uk,Torfaen,http://www.torfaen.gov.uk/,-3.05890800000000,NP4 8UZ,2013-03-06,fhrs_4_en-GB,4,,FHRS,5
482715,Parkway Hotel & Conference Centre,Ty Coch Lane,Llantarnam,Cwmbran,Best Western Parkway Hotel,Hotel/bed & breakfast/guest house,7842,5,,494112,10,,51.63198300000000,35379,569,commercial.services@torfaen.gov.uk,Torfaen,http://www.torfaen.gov.uk/,-3.01718300000000,NP44 3UW,2014-06-30,fhrs_4_en-GB,4,,FHRS,5
482716,1 Central Mews,Market Street,Pontypool,,Betty's Tea Break Cafe,Restaurant/Cafe/Canteen,1,10,,67812,10,,51.70220400000000,15154,569,commercial.services@torfaen.gov.uk,Torfaen,http://www.torfaen.gov.uk/,-3.04112900000000,NP4 6JN,2013-11-07,fhrs_2_en-GB,2,,FHRS,15
482717,,Gilchrist Thomas Industrial Estate,Blaenavon,Pontypool,"Big Pit Restaurant, Cafe and Gift Shop",Restaurant/Cafe/Canteen,1,5,,97888,0,,51.77191300000000,30610,569,commercial.services@torfaen.gov.uk,Torfaen,http://www.torfaen.gov.uk/,-3.10628500000000,NP4 9XP,2014-01-23,fhrs_5_en-GB,5,,FHRS,0
482718,,Unit 2 New Road,New Inn,Pontypool,Bill King Baker,Retailers - other,4613,0,,676527,0,,51.68929200000000,36142,569,commercial.services@torfaen.gov.uk,Torfaen,http://www.torfaen.gov.uk/,-3.01861200000000,NP4 0TL,2014-06-26,fhrs_5_en-GB,5,,FHRS,0
482719,Memorial Ground,North Street,Blaenavon,Pontypool,Blaenavon Blues AFC,Pub/bar/nightclub,7843,5,,441863,0,,51.77676900000000,35170,569,commercial.services@torfaen.gov.uk,Torfaen,http://www.torfaen.gov.uk/,-3.08792300000000,NP4 9RQ,2012-08-21,fhrs_5_en-GB,5,,FHRS,0
482720,Blaenavon Constitutional Club,James Street,Blaenavon,Pontypool,Blaenavon Constitutional Club,Pub/bar/nightclub,7843,10,,574207,0,,51.77254800000000,11559,569,commercial.services@torfaen.gov.uk,Torfaen,http://www.torfaen.gov.uk/,-3.08440100000000,NP4 9EJ,2014-03-25,fhrs_4_en-GB,4,,FHRS,10
482721,Blaenavon Community Campus School,Middle Coedcae Road,Blaenavon,,Blaenavon Heritage VC School,School/college/university,7845,0,,370758,0,,51.77368600000000,35085,569,commercial.services@torfaen.gov.uk,Torfaen,http://www.torfaen.gov.uk/,-3.07802200000000,NP4 9AW,2014-11-07,fhrs_5_en-GB,5,,FHRS,0
482722,,11 Broad Street,Blaenavon,Pontypool,Blaenavon Kebab and Pizza,Takeaway/sandwich shop,7844,10,,97951,5,,51.77234400000000,30678,569,commercial.services@torfaen.gov.uk,Torfaen,http://www.torfaen.gov.uk/,-3.08509200000000,NP4 9ND,2014-09-25,fhrs_4_en-GB,4,,FHRS,5
482723,Blaenavon Motor Company,Abergavenny Road,Blaenavon,Pontypool,Blaenavon Motor Co Ltd,Retailers - other,4613,10,,542583,0,,51.77784700000000,329,569,commercial.services@torfaen.gov.uk,Torfaen,http://www.torfaen.gov.uk/,-3.08506500000000,NP4 9RG,2013-04-17,fhrs_2_en-GB,2,,FHRS,15
482724,Post Office,Prince Street,Blaenavon,Pontypool,Blaenavon Post Office (Shop),Retailers - other,4613,10,,234185,5,,51.77219200000000,32048,569,commercial.services@torfaen.gov.uk,Torfaen,http://www.torfaen.gov.uk/,-3.08594400000000,NP4 9XA,2014-03-19,fhrs_3_en-GB,3,,FHRS,10
482725,,Middle Coedcae Road,Blaenavon,Pontypool,Blaenavon RFC,Pub/bar/nightclub,7843,5,,608584,5,,51.77647900000000,11558,569,commercial.services@torfaen.gov.uk,Torfaen,http://www.torfaen.gov.uk/,-3.08137900000000,NP4 9NU,2014-09-04,fhrs_5_en-GB,5,,FHRS,5
482726,Blaenavon Workingmens Hall & Community Centre,High Street,Blaenavon,Pontypool,Blaenavon Workmens Hall,Pub/bar/nightclub,7843,5,,198194,5,,51.77326600000000,310,569,commercial.services@torfaen.gov.uk,Torfaen,http://www.torfaen.gov.uk/,-3.08557800000000,NP4 9PT,2012-01-30,fhrs_5_en-GB,5,,FHRS,5
482727,Blenheim Road Community Primary,Blenheim Road,St Dials,Cwmbran,Blenheim Road Community School,School/college/university,7845,5,,93385,0,,51.64729400000000,268,569,commercial.services@torfaen.gov.uk,Torfaen,http://www.torfaen.gov.uk/,-3.04096900000000,NP44 4SZ,2014-01-23,fhrs_5_en-GB,5,,FHRS,0
482728,Convenience Store (Unit 1),Blenheim Road,St Dials,Cwmbran,Blenheim Stores,Retailers - other,4613,5,,574298,5,,51.64746600000000,33872,569,commercial.services@torfaen.gov.uk,Torfaen,http://www.torfaen.gov.uk/,-3.03880500000000,NP44 4AE,2014-10-30,fhrs_5_en-GB,5,,FHRS,5
482729,The Blinkin Owl,Oxtens,Coed Eva,Cwmbran,Blinkin Owl,Pub/bar/nightclub,7843,0,,44483,5,,51.63833600000000,10791,569,commercial.services@torfaen.gov.uk,Torfaen,http://www.torfaen.gov.uk/,-3.04326300000000,NP44 4TP,2014-10-27,fhrs_5_en-GB,5,,FHRS,5
482730,,109 The Highway,New Inn,Pontypool,Bon Appetit,Restaurant/Cafe/Canteen,1,20,,462813,10,,51.68971900000000,35224,569,commercial.services@torfaen.gov.uk,Torfaen,http://www.torfaen.gov.uk/,-3.00979700000000,NP4 0PJ,2014-04-29,fhrs_1_en-GB,1,,FHRS,10
482731,,25 Mill House Court,Hollybush,Cwmbran,Bonjour Cupcakes,Other catering premises,7841,5,,103533,0,,51.63894400000000,34838,569,commercial.services@torfaen.gov.uk,Torfaen,http://www.torfaen.gov.uk/,-3.03762700000000,NP44 7AY,2011-09-22,fhrs_5_en-GB,5,,FHRS,0
482732,"Booker Cash & Carry, Unit 7",Grange Industrial Estate,Llantarnam,Cwmbran,Booker Cash & Carry,Distributors/Transporters,7,10,,64504,10,,51.64542600000000,1435,569,commercial.services@torfaen.gov.uk,Torfaen,http://www.torfaen.gov.uk/,-3.01400100000000,NP44 8HQ,2014-01-14,fhrs_3_en-GB,3,,FHRS,5
482733,,10-14 The Mall,Cwmbran,,Boots UK,Retailers - other,4613,0,,441861,0,,51.65291300000000,2064,569,commercial.services@torfaen.gov.uk,Torfaen,http://www.torfaen.gov.uk/,-3.02057100000000,NP44 1PX,2012-08-20,fhrs_5_en-GB,5,,FHRS,0
482734,Leisure@cwmbran,Glyndwr Road,Cwmbran,,Bowlplex,Restaurant/Cafe/Canteen,1,10,,101617,5,,51.65487500000000,33305,569,commercial.services@torfaen.gov.uk,Torfaen,http://www.torfaen.gov.uk/,-3.01931400000000,NP44 1QS,2013-12-12,fhrs_4_en-GB,4,,FHRS,5
482735,,29 Commercial Street,Pontypool,,Bread of Heaven,Restaurant/Cafe/Canteen,1,20,,84360,5,,51.70248000000000,20982,569,commercial.services@torfaen.gov.uk,Torfaen,http://www.torfaen.gov.uk/,-3.04039700000000,NP4 6JQ,2014-09-29,fhrs_1_en-GB,1,,FHRS,10
482736,,33 Broad Street,Blaenavon,Pontypool,Breakfast Bar,Restaurant/Cafe/Canteen,1,5,,530468,10,,51.77389000000000,35382,569,commercial.services@torfaen.gov.uk,Torfaen,http://www.torfaen.gov.uk/,-3.08414400000000,NP4 9NF,2014-12-13,fhrs_3_en-GB,3,,FHRS,10
482737,Ty Bron Afon,William Brown Close,Llantarnam,Cwmbran,Bron Appetit (within Bron Afon Community Housing),Restaurant/Cafe/Canteen,1,5,,102152,10,,51.63161100000000,33759,569,commercial.services@torfaen.gov.uk,Torfaen,http://www.torfaen.gov.uk/,-3.00931400000000,NP44 3AB,2014-07-03,fhrs_4_en-GB,4,,FHRS,5
482738,Brynteg Nursery School,Brynteg,Abersychan,Pontypool,Brynteg Nursery,School/college/university,7845,5,,92719,5,,51.72452600000000,26247,569,commercial.services@torfaen.gov.uk,Torfaen,http://www.torfaen.gov.uk/,-3.05963800000000,NP4 7DG,2010-09-16,fhrs_5_en-GB,5,,FHRS,5
482739,Fernlea,121 Manor Road,Abersychan,Pontypool,"Bubble and Squeak (trading from PILCS Car Park, New Inn)",Mobile caterer,7846,10,,98566,5,,51.72611200000000,31072,569,commercial.services@torfaen.gov.uk,Torfaen,http://www.torfaen.gov.uk/,-3.06523500000000,NP4 7DY,2013-08-15,fhrs_3_en-GB,3,,FHRS,10
482740,,14 Barnfield Place,Pontnewydd,Cwmbran,Budget Buffet,Other catering premises,7841,5,,103236,5,,51.66276400000000,34608,569,commercial.services@torfaen.gov.uk,Torfaen,http://www.torfaen.gov.uk/,-3.03542400000000,NP44 1LA,2014-06-11,fhrs_5_en-GB,5,,FHRS,5
482741,Building Blocks Childrens Nursery,Ynys Lane,Croesyceiliog,Cwmbran,Building Blocks Nursery,Hospitals/Childcare/Caring Premises,5,5,,84334,5,,51.66181200000000,20961,569,commercial.services@torfaen.gov.uk,Torfaen,http://www.torfaen.gov.uk/,-3.01047700000000,NP44 2LH,2014-07-23,fhrs_5_en-GB,5,,FHRS,5
482742,,105 Fairwater Way,"Fairwater, Cwmbran",Torfaen,Building Blocks Too,Hospitals/Childcare/Caring Premises,5,5,,102006,10,,51.64440000000000,33614,569,commercial.services@torfaen.gov.uk,Torfaen,http://www.torfaen.gov.uk/,-3.04288200000000,NP44 4PS,2014-12-04,fhrs_4_en-GB,4,,FHRS,5
482743,,Gilchrist Thomas Industrial Estate,Blaenavon,,Burnsies Breakfast Bar,Restaurant/Cafe/Canteen,1,10,,98139,10,,51.77530100000000,30803,569,commercial.services@torfaen.gov.uk,Torfaen,http://www.torfaen.gov.uk/,-3.09588900000000,NP4 9RL,2014-11-17,fhrs_3_en-GB,3,,FHRS,5
482744,Park Street Methodist Church,Park Street,Blaenavon,Pontypool,Busy Bees,Hospitals/Childcare/Caring Premises,5,10,,98946,5,,51.77364700000000,31219,569,commercial.services@torfaen.gov.uk,Torfaen,http://www.torfaen.gov.uk/,-3.08616700000000,NP4 9AA,2014-02-26,fhrs_3_en-GB,3,,FHRS,10
482745,Blaenavon Community Campus School,Middle Coedcae Road,Blaenavon,,Busy Bees @ BICC,Hospitals/Childcare/Caring Premises,5,10,,621012,10,,51.77368600000000,35928,569,commercial.services@torfaen.gov.uk,Torfaen,http://www.torfaen.gov.uk/,-3.07802200000000,NP4 9AW,2013-12-19,fhrs_4_en-GB,4,,FHRS,0
482746,Butterflies,31-33 Old Queen Street,Blaenavon,Pontypool,Butterflies Restaurant,Restaurant/Cafe/Canteen,1,5,,100153,0,,51.77440900000000,32045,569,commercial.services@torfaen.gov.uk,Torfaen,http://www.torfaen.gov.uk/,-3.08151800000000,NP4 9PN,2013-09-24,fhrs_5_en-GB,5,,FHRS,5
482747,,27 Coleridge Green,St Dials,Cwmbran,"Butties and Baps (t/a Oldbury Road, Old Cwmbran)",Mobile caterer,7846,10,,100172,5,,51.64720200000000,32062,569,commercial.services@torfaen.gov.uk,Torfaen,http://www.torfaen.gov.uk/,-3.03514200000000,NP44 4LY,2014-02-12,fhrs_3_en-GB,3,,FHRS,10
482748,,27 Chestnut Green,Upper Cwmbran,Cwmbran,Buzzy Bees Nursery School,Hospitals/Childcare/Caring Premises,5,5,,98467,5,,51.66246600000000,31026,569,commercial.services@torfaen.gov.uk,Torfaen,http://www.torfaen.gov.uk/,-3.04367300000000,NP44 5TH,2014-04-29,fhrs_5_en-GB,5,,FHRS,5
482749,,11 Avondale Road,Pontrhydyrun,Cwmbran,Caerphilly Cupcake Company,Other catering premises,7841,5,,103695,5,,51.66861700000000,34968,569,commercial.services@torfaen.gov.uk,Torfaen,http://www.torfaen.gov.uk/,-3.01801800000000,NP44 1UD,2011-12-14,fhrs_5_en-GB,5,,FHRS,5
482750,,1 Monmouth Walk,Cwmbran,,Cafe Venetian,Restaurant/Cafe/Canteen,1,5,,582204,10,,51.65205800000000,35655,569,commercial.services@torfaen.gov.uk,Torfaen,http://www.torfaen.gov.uk/,-3.02170800000000,NP44 1PE,2013-09-03,fhrs_4_en-GB,4,,FHRS,0
482751,Crownbridge,Turnpike Road,Croesyceiliog,Cwmbran,Caffi'r Goron,Restaurant/Cafe/Canteen,1,10,,723729,5,,51.64611200000000,36363,569,commercial.services@torfaen.gov.uk,Torfaen,http://www.torfaen.gov.uk/,-3.02645600000000,NP44 2BJ,2014-12-05,fhrs_4_en-GB,4,,FHRS,0
482752,,81-82 Llanover Road,Blaenavon,Pontypool,Cambrian Inn,Pub/bar/nightclub,7843,5,,103308,5,,51.77318100000000,34682,569,commercial.services@torfaen.gov.uk,Torfaen,http://www.torfaen.gov.uk/,-3.07912600000000,NP4 9HR,2011-08-12,fhrs_5_en-GB,5,,FHRS,5
482753,,Gwent Square,Cwmbran,,Candy Cottage,Mobile caterer,7846,5,,198198,0,,51.65387700000000,35003,569,commercial.services@torfaen.gov.uk,Torfaen,http://www.torfaen.gov.uk/,-3.02041900000000,NP44 1PL,2012-02-01,fhrs_5_en-GB,5,,FHRS,0
482754,,19 Open Hearth Close,Griffithstown,Pontypool,Candy Cottages,Retailers - other,4613,5,,730528,5,,51.68198600000000,36390,569,commercial.services@torfaen.gov.uk,Torfaen,http://www.torfaen.gov.uk/,-3.02220800000000,NP4 5JR,2015-01-20,fhrs_5_en-GB,5,,FHRS,5
482755,Hensleigh,Churchwood Close,Penygarn,Pontypool,Casa-Choco-Late,Other catering premises,7841,5,,641665,5,,51.70573300000000,35960,569,commercial.services@torfaen.gov.uk,Torfaen,http://www.torfaen.gov.uk/,-3.03760700000000,NP4 8BQ,2014-02-19,fhrs_5_en-GB,5,,FHRS,5
482756,,23 North Walk,Cwmbran,,Caspian Fish Restaurant,Restaurant/Cafe/Canteen,1,5,,49967,0,,51.65485500000000,11103,569,commercial.services@torfaen.gov.uk,Torfaen,http://www.torfaen.gov.uk/,-3.02165600000000,NP44 1PR,2014-04-22,fhrs_4_en-GB,4,,FHRS,10
482757,,5 Gwent Square,Cwmbran,,Castaways by Mr Chippy,Restaurant/Cafe/Canteen,1,5,,719801,5,,51.65459300000000,36347,569,commercial.services@torfaen.gov.uk,Torfaen,http://www.torfaen.gov.uk/,-3.02073900000000,NP44 1PN,2014-12-01,fhrs_5_en-GB,5,,FHRS,5
482758,Castell Y Bwch Inn,R303 - Henllys Lanes,Henllys,Cwmbran,Castell Y Bwch,Pub/bar/nightclub,7843,10,,605837,5,,51.62528800000000,35488,569,commercial.services@torfaen.gov.uk,Torfaen,http://www.torfaen.gov.uk/,-3.04644600000000,NP44 7AZ,2014-01-24,fhrs_3_en-GB,3,,FHRS,10
482759,Castle Hotel,94 Broad Street,Blaenavon,Pontypool,Castle Hotel,Pub/bar/nightclub,7843,10,,507753,5,,51.77234400000000,35392,569,commercial.services@torfaen.gov.uk,Torfaen,http://www.torfaen.gov.uk/,-3.08509200000000,NP4 9ND,2013-01-31,fhrs_3_en-GB,3,,FHRS,10
482760,Vantage Point,Ty Coch Way,Llantarnam,Cwmbran,Celtic Catering Partnership Ltd,Restaurant/Cafe/Canteen,1,5,,102255,10,,51.63832000000000,33851,569,commercial.services@torfaen.gov.uk,Torfaen,http://www.torfaen.gov.uk/,-3.02265700000000,NP44 7HF,2014-04-24,fhrs_4_en-GB,4,,FHRS,5
482761,,1 Mountain View,Pontnewynydd,Pontypool,Ceri's Cakes,Other catering premises,7841,5,,703613,5,,51.71035300000000,36257,569,commercial.services@torfaen.gov.uk,Torfaen,http://www.torfaen.gov.uk/,-3.05897400000000,NP4 6QF,2014-09-24,fhrs_5_en-GB,5,,FHRS,5
482762,,The Park,Pontypool,,Chartwells (Compass) at St Albans RC School,School/college/university,7845,0,,494111,0,,51.70283500000000,35360,569,commercial.services@torfaen.gov.uk,Torfaen,http://www.torfaen.gov.uk/,-3.03887200000000,NP4 6XG,2014-07-08,fhrs_5_en-GB,5,,FHRS,5
482763,Cheeky Monkey's,Fairwater Way,Fairwater,Cwmbran,Cheeky Monkeys,Restaurant/Cafe/Canteen,1,5,,101786,5,,51.64440000000000,33451,569,commercial.services@torfaen.gov.uk,Torfaen,http://www.torfaen.gov.uk/,-3.04288200000000,NP44 4PS,2014-12-10,fhrs_5_en-GB,5,,FHRS,5
482764,Unit 4 Central Trading Sup Est,Oldbury Road,Cwmbran,Torfaen,China China,Takeaway/sandwich shop,7844,10,,103083,10,,51.64495800000000,34495,569,commercial.services@torfaen.gov.uk,Torfaen,http://www.torfaen.gov.uk/,-3.02030600000000,NP44 3JU,2013-10-11,fhrs_3_en-GB,3,,FHRS,10
482765,,2 Commercial Street,Pontnewydd,Cwmbran,China Palace,Takeaway/sandwich shop,7844,5,,49972,5,,51.66103900000000,11106,569,commercial.services@torfaen.gov.uk,Torfaen,http://www.torfaen.gov.uk/,-3.02503300000000,NP44 1DZ,2014-12-16,fhrs_4_en-GB,4,,FHRS,10
482766,,131 High Street,Abersychan,Pontypool,Chip and Fin,Takeaway/sandwich shop,7844,5,,102667,0,,51.72517000000000,34155,569,commercial.services@torfaen.gov.uk,Torfaen,http://www.torfaen.gov.uk/,-3.06398200000000,NP4 7AD,2013-12-10,fhrs_5_en-GB,5,,FHRS,0
482767,,17 Osborne Road,Pontypool,,Choice Takeaway,Takeaway/sandwich shop,7844,20,,103006,10,,51.70581000000000,34428,569,commercial.services@torfaen.gov.uk,Torfaen,http://www.torfaen.gov.uk/,-3.04416400000000,NP4 6LU,2014-09-19,fhrs_1_en-GB,1,,FHRS,15
482768,,5 Charles Street,Blaenavon,Pontypool,Christinas Creations,Other catering premises,7841,5,,734014,5,,51.77289600000000,36399,569,commercial.services@torfaen.gov.uk,Torfaen,http://www.torfaen.gov.uk/,-3.08074200000000,NP4 9JT,2015-01-22,fhrs_5_en-GB,5,,FHRS,5
482769,"Unit 6, Pontnewynydd Small Business Centre",Estate Road,Pontnewynydd,Pontypool,Chutney Pot Takeaway,Takeaway/sandwich shop,7844,10,,101596,5,,51.70860700000000,33296,569,commercial.services@torfaen.gov.uk,Torfaen,http://www.torfaen.gov.uk/,-3.06016300000000,NP4 6AD,2014-07-16,fhrs_4_en-GB,4,,FHRS,5
482770,,23 Commercial Street,Old Cwmbran,Cwmbran,Cinnamon Tree,Takeaway/sandwich shop,7844,5,,715191,5,,51.64823600000000,36334,569,commercial.services@torfaen.gov.uk,Torfaen,http://www.torfaen.gov.uk/,-3.02484600000000,NP44 3LR,2014-11-10,fhrs_5_en-GB,5,,FHRS,5
482771,Unit 26,Court Road Industrial Estate,Llantarnam,Cwmbran,Claire & Deb's Cafe & Snack Bar,Restaurant/Cafe/Canteen,1,5,,486289,0,,51.64288800000000,35330,569,commercial.services@torfaen.gov.uk,Torfaen,http://www.torfaen.gov.uk/,-3.01329400000000,NP44 3AS,2014-07-07,fhrs_4_en-GB,4,,FHRS,10
482772,Coed Eva Junior & Infant School,Teynes,Coed Eva,Cwmbran,Coed Eva Infants School,School/college/university,7845,0,,84202,0,,51.64104300000000,20874,569,commercial.services@torfaen.gov.uk,Torfaen,http://www.torfaen.gov.uk/,-3.04420700000000,NP44 4TG,2014-01-28,fhrs_5_en-GB,5,,FHRS,5
482773,Coed Eva Junior & Infant School,Teynes,Coed Eva,Cwmbran,Coed Eva Junior School,School/college/university,7845,5,,84203,10,,51.64104300000000,20875,569,commercial.services@torfaen.gov.uk,Torfaen,http://www.torfaen.gov.uk/,-3.04420700000000,NP44 4TG,2014-01-28,fhrs_4_en-GB,4,,FHRS,5
482774,,7a Coed Road,Blaenavon,Pontypool,Coed Wood Stores,Retailers - other,4613,10,,99990,5,,51.77137600000000,31924,569,commercial.services@torfaen.gov.uk,Torfaen,http://www.torfaen.gov.uk/,-3.07701100000000,NP4 9LJ,2012-07-17,fhrs_4_en-GB,4,,FHRS,5
482775,,96 Broad Street,Blaenavon,,Coffee and Cards,Restaurant/Cafe/Canteen,1,5,,101422,5,,51.77234400000000,33154,569,commercial.services@torfaen.gov.uk,Torfaen,http://www.torfaen.gov.uk/,-3.08509200000000,NP4 9ND,2014-06-02,fhrs_4_en-GB,4,,FHRS,10
482776,,76 Broad Street,Blaenavon,Pontypool,Coffi 1860,Restaurant/Cafe/Canteen,1,10,,641667,10,,51.77389000000000,36001,569,commercial.services@torfaen.gov.uk,Torfaen,http://www.torfaen.gov.uk/,-3.08414400000000,NP4 9NF,2014-03-05,fhrs_3_en-GB,3,,FHRS,10
482777,,Market Street,Pontypool,,Comrades of the Great War Club,Pub/bar/nightclub,7843,5,,187431,5,,51.70220400000000,89,569,commercial.services@torfaen.gov.uk,Torfaen,http://www.torfaen.gov.uk/,-3.04112900000000,NP4 6JN,2014-07-03,fhrs_5_en-GB,5,,FHRS,5
482778,,50 Gwent Square,Cwmbran,,Congress Theatre Company,Retailers - other,4613,5,,574228,5,,51.65387700000000,244,569,commercial.services@torfaen.gov.uk,Torfaen,http://www.torfaen.gov.uk/,-3.02041900000000,NP44 1PL,2014-11-14,fhrs_4_en-GB,4,,FHRS,10
482779,The Co Operative Food,26-28 North Road,Croesyceiliog,Cwmbran,Co-op,Retailers - other,4613,0,,574253,10,,51.65871800000000,30667,569,commercial.services@torfaen.gov.uk,Torfaen,http://www.torfaen.gov.uk/,-3.00537700000000,NP44 2EN,2014-10-27,fhrs_4_en-GB,4,,FHRS,10
482780,,64 Stanley Road,Garndiffaith,Pontypool,Co-operative Group Ltd,Retailers - supermarkets/hypermarkets,7840,5,,451365,10,,51.73622700000000,1199,569,commercial.services@torfaen.gov.uk,Torfaen,http://www.torfaen.gov.uk/,-3.06831100000000,NP4 7LH,2014-02-20,fhrs_4_en-GB,4,,FHRS,5
482781,,19 South Walk,Cwmbran,,Costa,Restaurant/Cafe/Canteen,1,0,,103664,10,,51.65295100000000,34946,569,commercial.services@torfaen.gov.uk,Torfaen,http://www.torfaen.gov.uk/,-3.02143900000000,NP44 1PU,2013-11-29,fhrs_4_en-GB,4,,FHRS,0
482782,Unit 4b,Cwmbran Retail Park,Cwmbran,,Costa (within Next),Restaurant/Cafe/Canteen,1,0,,693311,5,,51.65315500000000,36210,569,commercial.services@torfaen.gov.uk,Torfaen,http://www.torfaen.gov.uk/,-3.02784800000000,NP44 3JQ,2014-08-08,fhrs_5_en-GB,5,,FHRS,0
482783,Thornhill Community Centre,Leadon Court,Thornhill,Cwmbran,Cosy Kitchen (within Thornhill Community Centre),Restaurant/Cafe/Canteen,1,10,,102567,10,,51.65677300000000,34075,569,commercial.services@torfaen.gov.uk,Torfaen,http://www.torfaen.gov.uk/,-3.05088600000000,NP44 5TZ,2012-10-16,fhrs_3_en-GB,3,,FHRS,10
482784,Life Station,Folly Road,Trevethin,Pontypool,Cottage Catering (cafe within the Life Station),Restaurant/Cafe/Canteen,1,10,,462815,0,,51.71503700000000,35298,569,commercial.services@torfaen.gov.uk,Torfaen,http://www.torfaen.gov.uk/,-3.03685000000000,NP4 8JD,2014-06-04,fhrs_4_en-GB,4,,FHRS,5
482785,Bough Spring,Caerleon Road,Ponthir,Cwmbran,Country Fresh Produce,Retailers - other,4613,5,,63722,5,,51.63332100000000,14067,569,commercial.services@torfaen.gov.uk,Torfaen,http://www.torfaen.gov.uk/,-2.97938600000000,NP18 1GD,2011-06-30,fhrs_5_en-GB,5,,FHRS,5
482786,,Coed Y Gric Road,Griffithstown,Pontypool,County Hospital,Hospitals/Childcare/Caring Premises,5,0,,101501,0,,51.69172500000000,33206,569,commercial.services@torfaen.gov.uk,Torfaen,http://www.torfaen.gov.uk/,-3.02629100000000,NP4 5YA,2014-02-11,fhrs_5_en-GB,5,,FHRS,5
482787,1-2 Wrens Nest Cottage,Bevans Lane,Pontrhydyrun,Cwmbran,Crafty Cakes,Other catering premises,7841,5,,704821,5,,51.67233500000000,36179,569,commercial.services@torfaen.gov.uk,Torfaen,http://www.torfaen.gov.uk/,-3.02468100000000,NP44 1BX,2014-09-22,fhrs_4_en-GB,4,,FHRS,10
482788,Crane Street Baptist Church,Crane Street,Pontypool,,Crane Street Baptist Church,Restaurant/Cafe/Canteen,1,5,,606711,5,,51.70258500000000,32583,569,commercial.services@torfaen.gov.uk,Torfaen,http://www.torfaen.gov.uk/,-3.04173100000000,NP4 6LY,2013-11-07,fhrs_5_en-GB,5,,FHRS,5
482789,,3 Ventnor Road,Old Cwmbran,Cwmbran,Creative Cakes,Retailers - other,4613,5,,447939,5,,51.64718800000000,35139,569,commercial.services@torfaen.gov.uk,Torfaen,http://www.torfaen.gov.uk/,-3.02131000000000,NP44 3JY,2012-09-14,fhrs_5_en-GB,5,,FHRS,5
482790,,7 Edlogan Square,Croesyceiliog,Cwmbran,Croesy Take Away,Takeaway/sandwich shop,7844,10,,234180,10,,51.66356900000000,35050,569,commercial.services@torfaen.gov.uk,Torfaen,http://www.torfaen.gov.uk/,-3.01006800000000,NP44 2NR,2013-09-17,fhrs_2_en-GB,2,,FHRS,15
482791,Croesyceiliog Cricket & Rugby Club,The Highway,Croesyceiliog,Cwmbran,Croesyceiliog Cricket & Rugby Club,Pub/bar/nightclub,7843,10,,50884,0,,51.66178300000000,11354,569,commercial.services@torfaen.gov.uk,Torfaen,http://www.torfaen.gov.uk/,-3.00450500000000,NP44 2HJ,2014-09-24,fhrs_4_en-GB,4,,FHRS,5
482792,Croesyceiliog Primary School,North Road,Croesyceiliog,Cwmbran,Croesyceiliog Infants,School/college/university,7845,5,,84328,5,,51.66274800000000,20959,569,commercial.services@torfaen.gov.uk,Torfaen,http://www.torfaen.gov.uk/,-3.01036800000000,NP44 2LL,2010-09-29,fhrs_5_en-GB,5,,FHRS,5
482793,Croesyceiliog Primary School,North Road,Croesyceiliog,Cwmbran,Croesyceiliog Junior School,School/college/university,7845,5,,92934,5,,51.66274800000000,26426,569,commercial.services@torfaen.gov.uk,Torfaen,http://www.torfaen.gov.uk/,-3.01036800000000,NP44 2LL,2013-09-30,fhrs_4_en-GB,4,,FHRS,10
482794,Croesyceiliog Primary School,North Road,Croesyceiliog,Cwmbran,Croesyceiliog Nursery Unit,School/college/university,7845,5,,574257,0,,51.66274800000000,31176,569,commercial.services@torfaen.gov.uk,Torfaen,http://www.torfaen.gov.uk/,-3.01036800000000,NP44 2LL,2014-03-12,fhrs_5_en-GB,5,,FHRS,0
482795,The Annex Woodland Sports & Social Centre,Woodland Road,Croesyceiliog,Cwmbran,Croesyceiliog Playgroup (within The Annex Woodland Road Social Centre),Hospitals/Childcare/Caring Premises,5,5,,102652,5,,51.65783600000000,34141,569,commercial.services@torfaen.gov.uk,Torfaen,http://www.torfaen.gov.uk/,-3.01070700000000,NP44 2DZ,2010-06-30,fhrs_5_en-GB,5,,FHRS,5
482796,,Woodland Road,Croesyceiliog,Cwmbran,Croesyceiliog School,School/college/university,7845,5,,456392,0,,51.65471000000000,7885,569,commercial.services@torfaen.gov.uk,Torfaen,http://www.torfaen.gov.uk/,-3.00621400000000,NP44 2YB,2014-07-14,fhrs_4_en-GB,4,,FHRS,10
482797,,55 Five Locks Road,Pontnewydd,Cwmbran,Cross Keys Inn,Pub/bar/nightclub,7843,10,,666552,0,,51.66567700000000,36161,569,commercial.services@torfaen.gov.uk,Torfaen,http://www.torfaen.gov.uk/,-3.03238200000000,NP44 1BT,2014-05-23,fhrs_4_en-GB,4,,FHRS,10
482798,Crown Inn,Greenhill Road,Sebastopol,Pontypool,Crown Inn,Pub/bar/nightclub,7843,5,,209157,10,,51.67899200000000,10343,569,commercial.services@torfaen.gov.uk,Torfaen,http://www.torfaen.gov.uk/,-3.02539500000000,NP4 5BQ,2013-03-21,fhrs_4_en-GB,4,,FHRS,5
482799,Crownbridge,Turnpike Road,Croesyceiliog,Cwmbran,Crownbridge School,School/college/university,7845,5,,370759,0,,51.64611200000000,35086,569,commercial.services@torfaen.gov.uk,Torfaen,http://www.torfaen.gov.uk/,-3.02645600000000,NP44 2BJ,2013-10-23,fhrs_5_en-GB,5,,FHRS,0
482800,Crows Nest,Llangorse Road,Llanyravon,Cwmbran,Crows Nest,Pub/bar/nightclub,7843,0,,44499,5,,51.64542000000000,10796,569,commercial.services@torfaen.gov.uk,Torfaen,http://www.torfaen.gov.uk/,-3.00641300000000,NP44 8HU,2014-11-10,fhrs_5_en-GB,5,,FHRS,5
482801,,15 The Leas,Pontnewydd,Cwmbran,Cupcake Heaven,Other catering premises,7841,5,,103173,0,,51.66125800000000,34575,569,commercial.services@torfaen.gov.uk,Torfaen,http://www.torfaen.gov.uk/,-3.03687900000000,NP44 1JT,2011-02-23,fhrs_5_en-GB,5,,FHRS,0
482802,,35 Dorallt Way,Henllys,Cwmbran,Cupcake House,Other catering premises,7841,5,,103460,5,,51.63903600000000,34774,569,commercial.services@torfaen.gov.uk,Torfaen,http://www.torfaen.gov.uk/,-3.06442100000000,NP44 6HW,2011-06-24,fhrs_5_en-GB,5,,FHRS,5
482803,,313 Llantarnam Road,Llantarnam,Cwmbran,Curry Box,Takeaway/sandwich shop,7844,10,,49976,5,,51.63713000000000,11107,569,commercial.services@torfaen.gov.uk,Torfaen,http://www.torfaen.gov.uk/,-3.00630100000000,NP44 3BJ,2014-07-16,fhrs_3_en-GB,3,,FHRS,10
482804,,17-22 The Parade,Cwmbran,,Curry Lounge,Restaurant/Cafe/Canteen,1,10,,688422,10,,51.65363800000000,36153,569,commercial.services@torfaen.gov.uk,Torfaen,http://www.torfaen.gov.uk/,-3.02203300000000,NP44 1QR,2014-07-28,fhrs_3_en-GB,3,,FHRS,10
482805,,Cwmavon Road,Cwmavon,Torfaen,Cwmavon Community Centre,Retailers - other,4613,10,,96368,0,,51.75312400000000,292,569,commercial.services@torfaen.gov.uk,Torfaen,http://www.torfaen.gov.uk/,-3.05911900000000,NP4 8XH,2013-08-23,fhrs_4_en-GB,4,,FHRS,0
482806,Cwmbran Centre For Young People,Glyndwr Road,Cwmbran,,Cwmbran Centre for Young People,Restaurant/Cafe/Canteen,1,20,,87121,15,,51.65487500000000,224,569,commercial.services@torfaen.gov.uk,Torfaen,http://www.torfaen.gov.uk/,-3.01931400000000,NP44 1QS,2014-06-17,fhrs_1_en-GB,1,,FHRS,15
482807,,Five Locks Road,Pontnewydd,Cwmbran,Cwmbran House Resource Centre,Hospitals/Childcare/Caring Premises,5,5,,96899,0,,51.66644000000000,29852,569,commercial.services@torfaen.gov.uk,Torfaen,http://www.torfaen.gov.uk/,-3.02946400000000,NP44 1AP,2013-09-18,fhrs_5_en-GB,5,,FHRS,5
482808,Cwmbran Rugby Football Club,Station Road,Pontnewydd,Cwmbran,Cwmbran R F C Social Club,Pub/bar/nightclub,7843,10,,50830,5,,51.66020900000000,11339,569,commercial.services@torfaen.gov.uk,Torfaen,http://www.torfaen.gov.uk/,-3.01913000000000,NP44 1NY,2014-02-21,fhrs_3_en-GB,3,,FHRS,10
482809,Cwmbran Stadium Sports Centre,Henllys Way,Cwmbran,,Cwmbran Stadium Luncheon Club,Restaurant/Cafe/Canteen,1,5,,234181,5,,51.64307100000000,33239,569,commercial.services@torfaen.gov.uk,Torfaen,http://www.torfaen.gov.uk/,-3.02120300000000,NP44 3YS,2012-03-20,fhrs_5_en-GB,5,,FHRS,5
482810,,5-7 Commercial Street,Old Cwmbran,Cwmbran,Cwmbran Town AFC Sports/Social,Pub/bar/nightclub,7843,10,,250411,5,,51.64823600000000,27207,569,commercial.services@torfaen.gov.uk,Torfaen,http://www.torfaen.gov.uk/,-3.02484600000000,NP44 3LR,2014-01-03,fhrs_3_en-GB,3,,FHRS,10
482811,Elim United Reform Church,Commercial Street,Old Cwmbran,Cwmbran,Cwmbran United Refored Church,Other catering premises,7841,5,,654826,0,,51.64823600000000,36008,569,commercial.services@torfaen.gov.uk,Torfaen,http://www.torfaen.gov.uk/,-3.02484600000000,NP44 3LR,2014-02-12,fhrs_5_en-GB,5,,FHRS,0
482812,Cwmbran Workingmens Club,Oldbury Road,Old Cwmbran,Cwmbran,Cwmbran Workmens Band Club & Institute,Pub/bar/nightclub,7843,5,,50867,5,,51.64495800000000,11349,569,commercial.services@torfaen.gov.uk,Torfaen,http://www.torfaen.gov.uk/,-3.02030600000000,NP44 3JU,2013-12-20,fhrs_4_en-GB,4,,FHRS,10
482813,Cwmffrwdoer Primary School,Waunddu,Pontnewynydd,Pontypool,Cwmffrwdoer Primary School,School/college/university,7845,0,,92733,0,,51.71139000000000,26259,569,commercial.services@torfaen.gov.uk,Torfaen,http://www.torfaen.gov.uk/,-3.06358600000000,NP4 6QZ,2014-04-07,fhrs_5_en-GB,5,,FHRS,5
482814,The Ebenezer Centre,Hanbury Road,Pontnewynydd,Pontypool,Cwmffrwdoer Under Fives,Hospitals/Childcare/Caring Premises,5,5,,699384,0,,51.70930400000000,36263,569,commercial.services@torfaen.gov.uk,Torfaen,http://www.torfaen.gov.uk/,-3.06156900000000,NP4 6QN,2014-09-03,fhrs_5_en-GB,5,,FHRS,0
482815,Cwrt Bleddyn Stores,Cwrt Bleddyn Lane,Two Locks,Cwmbran,Cwrt Bleddyn Stores,Retailers - other,4613,10,,619436,10,,51.64292200000000,35720,569,commercial.services@torfaen.gov.uk,Torfaen,http://www.torfaen.gov.uk/,-3.03108500000000,NP44 7JB,2013-12-17,fhrs_3_en-GB,3,,FHRS,10
482816,Cwrt Henllys,Henllys Village Road,Henllys,Cwmbran,Cwrt Henllys,Restaurant/Cafe/Canteen,1,10,,666549,5,,51.63765700000000,36114,569,commercial.services@torfaen.gov.uk,Torfaen,http://www.torfaen.gov.uk/,-3.06281400000000,NP44 6HX,2014-05-16,fhrs_4_en-GB,4,,FHRS,5
482817,,Station Road,Griffithstown,Pontypool,Cyfeillion Bach,Hospitals/Childcare/Caring Premises,5,0,,562747,5,,51.68498600000000,35450,569,commercial.services@torfaen.gov.uk,Torfaen,http://www.torfaen.gov.uk/,-3.02268100000000,NP4 5JH,2014-06-18,fhrs_5_en-GB,5,,FHRS,5
482818,Cylch Meithrin,The Avenue,Garndiffaith,Pontypool,Cylch Meithrin,Hospitals/Childcare/Caring Premises,5,10,,427613,0,,51.73705400000000,35182,569,commercial.services@torfaen.gov.uk,Torfaen,http://www.torfaen.gov.uk/,-3.06824400000000,NP4 7QN,2012-07-11,fhrs_4_en-GB,4,,FHRS,5
482819,Ebenezer Baptist Chapel,Two Locks Road,Two Locks,Cwmbran,Cylch Meithrin Cwmbran,Hospitals/Childcare/Caring Premises,5,5,,516340,0,,51.64160800000000,35433,569,commercial.services@torfaen.gov.uk,Torfaen,http://www.torfaen.gov.uk/,-3.02706600000000,NP44 7HG,2014-11-05,fhrs_5_en-GB,5,,FHRS,5
482820,Meritor H V B S (Uk) Ltd,Grange Road,Cwmbran,,Cymreag Catering,Restaurant/Cafe/Canteen,1,5,,587032,5,,51.65111200000000,35667,569,commercial.services@torfaen.gov.uk,Torfaen,http://www.torfaen.gov.uk/,-3.01777000000000,NP44 3XU,2014-01-08,fhrs_5_en-GB,5,,FHRS,5
482821,,20 Upper Wood Street,Bargoed,Caerphilly,"D E Meats (Talywain RFC, Pontypool, Torfaen on Wednesday's)",Mobile caterer,7846,10,,234186,0,,51.68690900000000,29251,569,commercial.services@torfaen.gov.uk,Torfaen,http://www.torfaen.gov.uk/,-3.23420400000000,CF81 8PF,2012-03-14,fhrs_4_en-GB,4,,FHRS,5
482822,,5 Church Avenue,Trevethin,Pontypool,Daniel Townsend Butchers,Retailers - other,4613,5,,100579,5,,51.71280800000000,32404,569,commercial.services@torfaen.gov.uk,Torfaen,http://www.torfaen.gov.uk/,-3.03979500000000,NP4 8DH,2014-11-19,fhrs_4_en-GB,4,,FHRS,10
482823,,8 St Lukes Road,Pontnewynydd,Pontypool,Dimis & Sons,Retailers - other,4613,10,,69572,5,,51.71151000000000,1567,569,commercial.services@torfaen.gov.uk,Torfaen,http://www.torfaen.gov.uk/,-3.05431100000000,NP4 6SU,2014-03-06,fhrs_3_en-GB,3,,FHRS,10
482824,Pontyfelin Works,Chapel Lane,Croesyceiliog,Cwmbran,Dine (within Knauf Insulation),Restaurant/Cafe/Canteen,1,10,,103458,0,,51.67435500000000,34772,569,commercial.services@torfaen.gov.uk,Torfaen,http://www.torfaen.gov.uk/,-3.01470400000000,NP44 2YQ,2014-09-30,fhrs_4_en-GB,4,,FHRS,5
482825,,7 Broad Street,Abersychan,Pontypool,Dino's Takeaway,Takeaway/sandwich shop,7844,20,,434222,15,,51.72341000000000,35132,569,commercial.services@torfaen.gov.uk,Torfaen,http://www.torfaen.gov.uk/,-3.05874300000000,NP4 7BQ,2014-10-28,fhrs_1_en-GB,1,,FHRS,15
482826,,3 Caradoc Road,Cwmbran,,Domino's Pizza,Takeaway/sandwich shop,7844,5,,99223,0,,51.65497600000000,31301,569,commercial.services@torfaen.gov.uk,Torfaen,http://www.torfaen.gov.uk/,-3.02118100000000,NP44 1PP,2014-04-09,fhrs_5_en-GB,5,,FHRS,5
482827,Dorallt Inn,Henllys Village Road,Henllys,Cwmbran,Dorallt Inn,Pub/bar/nightclub,7843,5,,455063,10,,51.63765700000000,35189,569,commercial.services@torfaen.gov.uk,Torfaen,http://www.torfaen.gov.uk/,-3.06281400000000,NP44 6HX,2014-09-25,fhrs_4_en-GB,4,,FHRS,5
482828,,2 Llanyravon Square,Llanyravon,Cwmbran,Douglas Willis,Retailers - other,4613,10,,97985,5,,51.64616000000000,307,569,commercial.services@torfaen.gov.uk,Torfaen,http://www.torfaen.gov.uk/,-3.00710800000000,NP44 8HS,2013-09-11,fhrs_4_en-GB,4,,FHRS,0
482829,,9-11 The Parade,Cwmbran,,Douglas Willis & DW Food to Go,Retailers - other,4613,10,,98241,10,,51.65363800000000,309,569,commercial.services@torfaen.gov.uk,Torfaen,http://www.torfaen.gov.uk/,-3.02203300000000,NP44 1QR,2014-11-26,fhrs_3_en-GB,3,,FHRS,10
482830,,2a Hill Street,Griffithstown,Pontypool,Eagle Balti,Takeaway/sandwich shop,7844,20,,94028,10,,51.68587700000000,27227,569,commercial.services@torfaen.gov.uk,Torfaen,http://www.torfaen.gov.uk/,-3.02568100000000,NP4 5HT,2014-07-08,fhrs_1_en-GB,1,,FHRS,15
482831,,5 Rifle Street,Blaenavon,Pontypool,Elgam & District Workingmen's Club,Pub/bar/nightclub,7843,10,,574355,5,,51.77903200000000,97,569,commercial.services@torfaen.gov.uk,Torfaen,http://www.torfaen.gov.uk/,-3.08433900000000,NP4 9QS,2014-03-11,fhrs_4_en-GB,4,,FHRS,5
482832,,Rifle Green,Blaenavon,Pontypool,Elgam Fish Bar,Takeaway/sandwich shop,7844,5,,84247,5,,51.77837400000000,20906,569,commercial.services@torfaen.gov.uk,Torfaen,http://www.torfaen.gov.uk/,-3.08357000000000,NP4 9QN,2014-11-03,fhrs_5_en-GB,5,,FHRS,5
482833,,Llantarnam Road,"Llantarnam, Cwmbran",Torfaen,Ellie's Pitstop Cafe,Restaurant/Cafe/Canteen,1,10,,102615,10,,51.64366600000000,34106,569,commercial.services@torfaen.gov.uk,Torfaen,http://www.torfaen.gov.uk/,-3.01479900000000,NP44 3BB,2013-10-29,fhrs_3_en-GB,3,,FHRS,10
482834,,23 Brynwern,Pontypool,,Fabulous Cakes For All Occasions,Other catering premises,7841,5,,209159,0,,51.70132200000000,35033,569,commercial.services@torfaen.gov.uk,Torfaen,http://www.torfaen.gov.uk/,-3.04835900000000,NP4 6HF,2012-02-23,fhrs_5_en-GB,5,,FHRS,0
482835,,15 Fairwater Square,Fairwater,Cwmbran,Fairwater Fish Bar,Takeaway/sandwich shop,7844,5,,49962,0,,51.64467300000000,11102,569,commercial.services@torfaen.gov.uk,Torfaen,http://www.torfaen.gov.uk/,-3.04758600000000,NP44 4TA,2014-05-15,fhrs_5_en-GB,5,,FHRS,5
482836,Fairwater School,Ty Gwyn Way,Fairwater,Cwmbran,Fairwater High School,School/college/university,7845,5,,142283,5,,51.64774100000000,7890,569,commercial.services@torfaen.gov.uk,Torfaen,http://www.torfaen.gov.uk/,-3.05138500000000,NP44 4YZ,2014-07-07,fhrs_5_en-GB,5,,FHRS,5
482837,,18 Fairwater Square,Fairwater,Cwmbran,Fairwater Post Office & Stores (shop only),Retailers - other,4613,5,,209156,5,,51.64467300000000,34403,569,commercial.services@torfaen.gov.uk,Torfaen,http://www.torfaen.gov.uk/,-3.04758600000000,NP44 4TA,2014-01-28,fhrs_5_en-GB,5,,FHRS,5
482838,The Old Hire Centre,Oldbury Road,Old Cwmbran,Cwmbran,Family Kebab,Other catering premises,7841,30,,654831,20,,51.64495800000000,36081,569,commercial.services@torfaen.gov.uk,Torfaen,http://www.torfaen.gov.uk/,-3.02030600000000,NP44 3JU,2014-11-25,fhrs_0_en-GB,0,,FHRS,10
482839,,25-27 Victoria Street,Old Cwmbran,Cwmbran,Family Kebab BBQ House,Takeaway/sandwich shop,7844,10,,716546,10,,51.64679600000000,36079,569,commercial.services@torfaen.gov.uk,Torfaen,http://www.torfaen.gov.uk/,-3.02189400000000,NP44 3JN,2014-11-18,fhrs_4_en-GB,4,,FHRS,0
482840,,4 Crane Street,Pontypool,,Farmfoods Ltd,Retailers - other,4613,0,,574256,0,,51.70258500000000,31027,569,commercial.services@torfaen.gov.uk,Torfaen,http://www.torfaen.gov.uk/,-3.04173100000000,NP4 6LY,2013-11-19,fhrs_5_en-GB,5,,FHRS,5
482841,Maendy (Cwmbran) Junior & Infant School,Wayfield Crescent,Northville,Cwmbran,First Steps Playgroup (within Maendy Primary School),Hospitals/Childcare/Caring Premises,5,5,,103138,5,,51.65852200000000,34546,569,commercial.services@torfaen.gov.uk,Torfaen,http://www.torfaen.gov.uk/,-3.02386300000000,NP44 1NH,2012-01-24,fhrs_5_en-GB,5,,FHRS,5
482842,,2 Florence Place,Griffithstown,Pontypool,Florence House Chutneys,Other catering premises,7841,5,,466852,5,,51.68366800000000,34457,569,commercial.services@torfaen.gov.uk,Torfaen,http://www.torfaen.gov.uk/,-3.02525500000000,NP4 5DN,2010-11-09,fhrs_5_en-GB,5,,FHRS,5
482843,Cwmbran Integrated Children's Centre,Ton Road,Cwmbran,,Flying Start Health Team (within Cwmbran ICC),Hospitals/Childcare/Caring Premises,5,0,,699381,0,,51.64308700000000,36112,569,commercial.services@torfaen.gov.uk,Torfaen,http://www.torfaen.gov.uk/,-3.03880600000000,NP44 7LE,2015-02-06,fhrs_5_en-GB,5,,FHRS,0
482844,"Stall 25, The Market Hall",Market Street,Pontypool,,Food 4 U 2 Go,Takeaway/sandwich shop,7844,5,,102084,5,,51.70220400000000,33700,569,commercial.services@torfaen.gov.uk,Torfaen,http://www.torfaen.gov.uk/,-3.04112900000000,NP4 6JN,2014-11-14,fhrs_4_en-GB,4,,FHRS,10
482845,"Football Factory, Unit 7",Avondale Industrial Estate,Pontrhydyrun,Cwmbran,Football Factory,Retailers - other,4613,10,,102642,5,,51.66263100000000,34135,569,commercial.services@torfaen.gov.uk,Torfaen,http://www.torfaen.gov.uk/,-3.01973400000000,NP44 1UF,2013-07-05,fhrs_3_en-GB,3,,FHRS,10
482846,Forge Hammer Inn,Hanbury Road,Pontnewynydd,Pontypool,Forgehammer,Pub/bar/nightclub,7843,10,,455062,0,,51.70959600000000,35178,569,commercial.services@torfaen.gov.uk,Torfaen,http://www.torfaen.gov.uk/,-3.05714700000000,NP4 6PL,2012-10-09,fhrs_4_en-GB,4,,FHRS,5
482847,,1 Coity Terrace,Forgeside,Blaenavon,Forgeside Community Hall,Other catering premises,7841,5,,574337,5,,51.76986100000000,547,569,commercial.services@torfaen.gov.uk,Torfaen,http://www.torfaen.gov.uk/,-3.09684400000000,NP4 9DH,2014-09-03,fhrs_4_en-GB,4,,FHRS,10
482848,Forgeside Sports & Social Club,100 Broad Street,Blaenavon,,Forgeside Rugby Sports and Social Club,Pub/bar/nightclub,7843,20,,51546,10,,51.77234400000000,11557,569,commercial.services@torfaen.gov.uk,Torfaen,http://www.torfaen.gov.uk/,-3.08509200000000,NP4 9ND,2013-03-19,fhrs_1_en-GB,1,,FHRS,15
482849,Car Park,Cwmbran Retail Park,"Cwmbran Drive, Cwmbran",Torfaen,Four Seasons Caterers Ltd,Mobile caterer,7846,5,,96418,5,,51.65315500000000,29277,569,commercial.services@torfaen.gov.uk,Torfaen,http://www.torfaen.gov.uk/,-3.02784800000000,NP44 3JQ,2013-10-10,fhrs_5_en-GB,5,,FHRS,0
482850,Frankie & Benny's,Glyndwr Road,Cwmbran,,Frankie and Benny's,Restaurant/Cafe/Canteen,1,5,,102165,5,,51.65487500000000,33765,569,commercial.services@torfaen.gov.uk,Torfaen,http://www.torfaen.gov.uk/,-3.01931400000000,NP44 1QS,2014-06-17,fhrs_4_en-GB,4,,FHRS,10
482851,,14 Lower Glantorvaen Terrace,Forgeside,Blaenavon,"Fresh Fayre (trading from old service station, Varteg Road, Varteg)",Mobile caterer,7846,10,,96355,5,,51.77128600000000,29199,569,commercial.services@torfaen.gov.uk,Torfaen,http://www.torfaen.gov.uk/,-3.09057400000000,NP4 9BU,2013-10-10,fhrs_4_en-GB,4,,FHRS,5
482852,"Stall 28, The Market Hall",Market Street,Pontypool,,Fresh Fruit n Flower Market,Retailers - other,4613,10,,707775,0,,51.70220400000000,36283,569,commercial.services@torfaen.gov.uk,Torfaen,http://www.torfaen.gov.uk/,-3.04112900000000,NP4 6JN,2014-10-02,fhrs_4_en-GB,4,,FHRS,0
482853,,18 Greenwood Avenue,Pontnewydd,Cwmbran,Frydays (t/a layby off Grange Road / Llanfrechfa Way roundabout),Mobile caterer,7846,10,,101788,5,,51.66353200000000,33454,569,commercial.services@torfaen.gov.uk,Torfaen,http://www.torfaen.gov.uk/,-3.04206400000000,NP44 5JE,2014-03-21,fhrs_4_en-GB,4,,FHRS,5
482854,,59 Windsor Road,Griffithstown,Pontypool,Fungs,Takeaway/sandwich shop,7844,5,,50041,5,,51.68625700000000,11126,569,commercial.services@torfaen.gov.uk,Torfaen,http://www.torfaen.gov.uk/,-3.02532800000000,NP4 5HY,2014-11-17,fhrs_4_en-GB,4,,FHRS,10
482855,White Hart Inn,2 Broad Street,Abersychan,Pontypool,Gabby's,Restaurant/Cafe/Canteen,1,10,,591377,10,,51.72341000000000,35595,569,commercial.services@torfaen.gov.uk,Torfaen,http://www.torfaen.gov.uk/,-3.05874300000000,NP4 7BQ,2013-10-10,fhrs_3_en-GB,3,,FHRS,10
482856,Workmans Hall,Herberts Road,Garndiffaith,Pontypool,Garn Workmans,Pub/bar/nightclub,7843,10,,707776,0,,51.73740900000000,36299,569,commercial.services@torfaen.gov.uk,Torfaen,http://www.torfaen.gov.uk/,-3.06975800000000,NP4 7QJ,2014-10-10,fhrs_4_en-GB,4,,FHRS,5
482857,,Top Road,"Garndiffaith, Pontypool",Torfaen,Garndiffaith Lunch Club (within Garndiffaith Millennium Hall),Restaurant/Cafe/Canteen,1,5,,97454,5,,51.73633500000000,30249,569,commercial.services@torfaen.gov.uk,Torfaen,http://www.torfaen.gov.uk/,-3.03274700000000,NP4 7LK,2014-03-11,fhrs_5_en-GB,5,,FHRS,0
482858,,Top Road,"Garndiffaith, Pontypool",Torfaen,Garndiffaith Millennium Hall,Other catering premises,7841,5,,96624,5,,51.73540200000000,29530,569,commercial.services@torfaen.gov.uk,Torfaen,http://www.torfaen.gov.uk/,-3.06400500000000,NP4 7LT,2014-10-15,fhrs_5_en-GB,5,,FHRS,0
482859,Garndiffaith Rugby Club,Lasgarn View,Varteg,Pontypool,Garndiffaith Rugby Club,Pub/bar/nightclub,7843,20,,50902,5,,51.74035300000000,11363,569,commercial.services@torfaen.gov.uk,Torfaen,http://www.torfaen.gov.uk/,-3.06541100000000,NP4 7SF,2014-09-03,fhrs_1_en-GB,1,,FHRS,5
482860,Garnteg Primary School,Hillcrest,Garndiffaith,Pontypool,Garnteg Primary School,School/college/university,7845,0,,92928,0,,51.73751000000000,26422,569,commercial.services@torfaen.gov.uk,Torfaen,http://www.torfaen.gov.uk/,-3.06661800000000,NP4 7SJ,2014-09-18,fhrs_5_en-GB,5,,FHRS,5
482861,Blaenavon World Heritage Centre,Church Road,Blaenavon,Pontypool,Gemini Catering,Restaurant/Cafe/Canteen,1,5,,554940,5,,51.77313700000000,35491,569,commercial.services@torfaen.gov.uk,Torfaen,http://www.torfaen.gov.uk/,-3.08783600000000,NP4 9AS,2014-11-07,fhrs_4_en-GB,4,,FHRS,10
482862,George Street Primary & Nursery School,George Street Upper,Wainfelin,Pontypool,George Street Primary and Nursery School,School/college/university,7845,0,,94317,0,,51.70558100000000,275,569,commercial.services@torfaen.gov.uk,Torfaen,http://www.torfaen.gov.uk/,-3.04562100000000,NP4 6BX,2014-06-23,fhrs_5_en-GB,5,,FHRS,5
482863,,132 Osborne Road,Pontypool,,Get Stuffed,Takeaway/sandwich shop,7844,10,,618756,10,,51.70420700000000,35897,569,commercial.services@torfaen.gov.uk,Torfaen,http://www.torfaen.gov.uk/,-3.04242000000000,NP4 6LT,2013-12-13,fhrs_3_en-GB,3,,FHRS,10
482864,,22 Glen View Road,Trevethin,Pontypool,Glen View Stores,Retailers - other,4613,5,,632978,0,,51.71760100000000,35938,569,commercial.services@torfaen.gov.uk,Torfaen,http://www.torfaen.gov.uk/,-3.04575300000000,NP4 8ED,2014-01-29,fhrs_5_en-GB,5,,FHRS,5
482865,,8 Clarence Street,Pontypool,,Golden Star (Chinese),Takeaway/sandwich shop,7844,10,,101340,5,,51.69954700000000,33072,569,commercial.services@torfaen.gov.uk,Torfaen,http://www.torfaen.gov.uk/,-3.03860800000000,NP4 6LG,2013-07-04,fhrs_4_en-GB,4,,FHRS,5
482866,Griffithstown Labour Hall,Edward Street,Griffithstown,Pontypool,Golliwopsie Playgroup,Hospitals/Childcare/Caring Premises,5,5,,590279,0,,51.68611700000000,35485,569,commercial.services@torfaen.gov.uk,Torfaen,http://www.torfaen.gov.uk/,-3.02798700000000,NP4 5HL,2013-10-07,fhrs_5_en-GB,5,,FHRS,0
482867,,15 Windsor Road,Griffithstown,Pontypool,Good Food 2 Go,Takeaway/sandwich shop,7844,5,,583199,5,,51.68712000000000,35618,569,commercial.services@torfaen.gov.uk,Torfaen,http://www.torfaen.gov.uk/,-3.02537700000000,NP4 5HZ,2013-12-16,fhrs_5_en-GB,5,,FHRS,0
482868,Oasis Fitness Club,Edlogan Way,Croesyceiliog,Cwmbran,Goode's Fitness,Pub/bar/nightclub,7843,10,,688421,10,,51.65707100000000,36128,569,commercial.services@torfaen.gov.uk,Torfaen,http://www.torfaen.gov.uk/,-3.01388500000000,NP44 2JJ,2014-07-22,fhrs_3_en-GB,3,,FHRS,10
482869,,4 Greenmeadow Square,Cwmbran,,Greenmeadow Bakery,Retailers - other,4613,10,,32704,5,,51.64535100000000,1,569,commercial.services@torfaen.gov.uk,Torfaen,http://www.torfaen.gov.uk/,-3.03293200000000,NP44 4LQ,2014-11-27,fhrs_2_en-GB,2,,FHRS,15
482870,Greenmeadow Community Farm,Greenforge Way,Cwmbran,,Greenmeadow Community Farm,Restaurant/Cafe/Canteen,1,5,,70857,5,,51.65382200000000,16014,569,commercial.services@torfaen.gov.uk,Torfaen,http://www.torfaen.gov.uk/,-3.04301200000000,NP44 5AJ,2013-10-30,fhrs_4_en-GB,4,,FHRS,10
482871,Greenmeadow Primary School,Craig Road,Greenmeadow,Cwmbran,Greenmeadow Primary School,School/college/university,7845,5,,144339,0,,51.64911800000000,8283,569,commercial.services@torfaen.gov.uk,Torfaen,http://www.torfaen.gov.uk/,-3.05422100000000,NP44 5YY,2015-01-14,fhrs_5_en-GB,5,,FHRS,5
482872,,7 Gwent Square,Cwmbran,,Greggs,Takeaway/sandwich shop,7844,0,,96374,0,,51.65459300000000,29203,569,commercial.services@torfaen.gov.uk,Torfaen,http://www.torfaen.gov.uk/,-3.02073900000000,NP44 1PN,2013-07-30,fhrs_5_en-GB,5,,FHRS,5
482873,,7 The Parade,Cwmbran,,Greggs,Takeaway/sandwich shop,7844,0,,42580,0,,51.65363800000000,105,569,commercial.services@torfaen.gov.uk,Torfaen,http://www.torfaen.gov.uk/,-3.02203300000000,NP44 1QR,2013-11-29,fhrs_5_en-GB,5,,FHRS,5
482874,,6 Monmouth Walk,Cwmbran,,Greggs,Takeaway/sandwich shop,7844,5,,103456,10,,51.65205800000000,34770,569,commercial.services@torfaen.gov.uk,Torfaen,http://www.torfaen.gov.uk/,-3.02170800000000,NP44 1PE,2014-07-22,fhrs_4_en-GB,4,,FHRS,5
482875,Greggs Plc,9 George Street,Pontypool,,Greggs,Takeaway/sandwich shop,7844,0,,75841,0,,51.70362200000000,1779,569,commercial.services@torfaen.gov.uk,Torfaen,http://www.torfaen.gov.uk/,-3.04246400000000,NP4 6LR,2013-01-31,fhrs_5_en-GB,5,,FHRS,0
482876,Griffithstown Junior School,Florence Place,Griffithstown,Pontypool,Griffithstown Junior School after school club,Hospitals/Childcare/Caring Premises,5,5,,101294,5,,51.68366800000000,33032,569,commercial.services@torfaen.gov.uk,Torfaen,http://www.torfaen.gov.uk/,-3.02525500000000,NP4 5DN,2011-09-15,fhrs_5_en-GB,5,,FHRS,5
482877,Griffithstown Junior School,Florence Place,Griffithstown,Pontypool,Griffithstown Primary Schol,School/college/university,7845,0,,84727,0,,51.68366800000000,21039,569,commercial.services@torfaen.gov.uk,Torfaen,http://www.torfaen.gov.uk/,-3.02525500000000,NP4 5DN,2014-09-23,fhrs_5_en-GB,5,,FHRS,5
482878,The Veg Box,The Avenue,Garndiffaith,Pontypool,Growing the Veg Box,Retailers - other,4613,5,,466827,5,,51.73705400000000,31142,569,commercial.services@torfaen.gov.uk,Torfaen,http://www.torfaen.gov.uk/,-3.06824400000000,NP4 7QN,2010-11-23,fhrs_5_en-GB,5,,FHRS,5
482879,Halfway Hotel,Commercial Street,Old Cwmbran,Cwmbran,Half Way Inn,Pub/bar/nightclub,7843,10,,102645,5,,51.64823600000000,34139,569,commercial.services@torfaen.gov.uk,Torfaen,http://www.torfaen.gov.uk/,-3.02484600000000,NP44 3LR,2012-11-19,fhrs_3_en-GB,3,,FHRS,10
482880,,4 Crane Street,Pontypool,,Hammonds Fish Bar,Restaurant/Cafe/Canteen,1,5,,415847,5,,51.70258500000000,35042,569,commercial.services@torfaen.gov.uk,Torfaen,http://www.torfaen.gov.uk/,-3.04173100000000,NP4 6LY,2014-02-18,fhrs_5_en-GB,5,,FHRS,5
482881,Hanbury Arms,Clarence Street,Pontypool,,Hanbury Arms,Pub/bar/nightclub,7843,5,,234182,10,,51.69954700000000,34970,569,commercial.services@torfaen.gov.uk,Torfaen,http://www.torfaen.gov.uk/,-3.03860800000000,NP4 6LG,2013-11-25,fhrs_4_en-GB,4,,FHRS,5
482882,"Hanbury Arms Restaurant, Hanbury Arms",Herberts Road,Garndiffaith,Pontypool,Hanbury Arms,Pub/bar/nightclub,7843,10,,579617,5,,51.73740900000000,35468,569,commercial.services@torfaen.gov.uk,Torfaen,http://www.torfaen.gov.uk/,-3.06975800000000,NP4 7QJ,2013-08-09,fhrs_4_en-GB,4,,FHRS,5
482883,Armco House,204 Llantarnam Road,Llantarnam,Cwmbran,Happy Occasions Cakes Newport Ltd,Other catering premises,7841,0,,574334,0,,51.63902500000000,35486,569,commercial.services@torfaen.gov.uk,Torfaen,http://www.torfaen.gov.uk/,-3.01182000000000,NP44 3BH,2013-07-30,fhrs_5_en-GB,5,,FHRS,0
482884,,1 Osborne Road,Pontypool,,Happy Wok,Takeaway/sandwich shop,7844,10,,585794,10,,51.70483600000000,35666,569,commercial.services@torfaen.gov.uk,Torfaen,http://www.torfaen.gov.uk/,-3.04344700000000,NP4 6NN,2013-12-10,fhrs_3_en-GB,3,,FHRS,10
482885,Tan Y Fron,Manor Road,Abersychan,Pontypool,Hardwick Hampers,Other catering premises,7841,10,,562752,5,,51.72979700000000,35567,569,commercial.services@torfaen.gov.uk,Torfaen,http://www.torfaen.gov.uk/,-3.06438000000000,NP4 7DW,2013-06-12,fhrs_4_en-GB,4,,FHRS,5
482886,Harvester Restaurant,Lower Mill Field,Pontypool,,Harvester Restaurant,Restaurant/Cafe/Canteen,1,5,,98876,0,,51.69533400000000,31194,569,commercial.services@torfaen.gov.uk,Torfaen,http://www.torfaen.gov.uk/,-3.02279900000000,NP4 0RH,2014-11-05,fhrs_5_en-GB,5,,FHRS,5
482887,Leisure@Cwmbran,Glyndwr Road,Cwmbran,,Harvester Restaurant,Restaurant/Cafe/Canteen,1,5,,103546,5,,51.65487500000000,34844,569,commercial.services@torfaen.gov.uk,Torfaen,http://www.torfaen.gov.uk/,-3.01931400000000,NP44 1QS,2014-01-06,fhrs_5_en-GB,5,,FHRS,5
482888,The Power Station,Blenheim Road,St Dials,Cwmbran,Hazels Cafe (within the Power Station),Restaurant/Cafe/Canteen,1,5,,100318,5,,51.64902600000000,32188,569,commercial.services@torfaen.gov.uk,Torfaen,http://www.torfaen.gov.uk/,-3.03931700000000,NP44 4SY,2014-10-30,fhrs_5_en-GB,5,,FHRS,5
482889,,31 Primrose Court,Ty Canol,Cwmbran,Helen's Country Kitchen,Other catering premises,7841,10,,571617,5,,51.64470700000000,35604,569,commercial.services@torfaen.gov.uk,Torfaen,http://www.torfaen.gov.uk/,-3.05677800000000,NP44 6JJ,2013-07-19,fhrs_4_en-GB,4,,FHRS,5
482890,,74 Springfield Road,Sebastopol,Pontypool,Helen's Cupcakes & Cakes,Other catering premises,7841,5,,606713,0,,51.67920700000000,35778,569,commercial.services@torfaen.gov.uk,Torfaen,http://www.torfaen.gov.uk/,-3.03360100000000,NP4 5BX,2013-10-30,fhrs_5_en-GB,5,,FHRS,0
482891,Henllys Church In Wales School,Ty Canol Way,Greenmeadow,Cwmbran,Henllys Church In Wales School,School/college/university,7845,5,,92926,0,,51.64213200000000,26421,569,commercial.services@torfaen.gov.uk,Torfaen,http://www.torfaen.gov.uk/,-3.05819300000000,NP44 6JA,2013-10-25,fhrs_4_en-GB,4,,FHRS,10
482892,The Old School House,Henllys Lane,Henllys,Cwmbran,Henllys Nursery,Hospitals/Childcare/Caring Premises,5,0,,100519,0,,51.63397400000000,32348,569,commercial.services@torfaen.gov.uk,Torfaen,http://www.torfaen.gov.uk/,-3.07237900000000,NP44 6HU,2014-02-17,fhrs_5_en-GB,5,,FHRS,5
482893,,20 Broad Street,Blaenavon,Pontypool,Heritage Plaice,Takeaway/sandwich shop,7844,5,,91906,0,,51.77234400000000,2565,569,commercial.services@torfaen.gov.uk,Torfaen,http://www.torfaen.gov.uk/,-3.08509200000000,NP4 9ND,2014-06-02,fhrs_5_en-GB,5,,FHRS,0
482894,,52 Hillside Drive,Cwmfields,Pontypool,Hillside Stores,Retailers - other,4613,10,,486288,5,,51.69352600000000,35326,569,commercial.services@torfaen.gov.uk,Torfaen,http://www.torfaen.gov.uk/,-3.03826800000000,NP4 5SE,2012-12-19,fhrs_3_en-GB,3,,FHRS,10
482895,,2 Market Street,Blaenavon,Pontypool,HM Stores,Retailers - other,4613,20,,102541,0,,51.77277200000000,34038,569,commercial.services@torfaen.gov.uk,Torfaen,http://www.torfaen.gov.uk/,-3.08352300000000,NP4 9ET,2014-09-08,fhrs_1_en-GB,1,,FHRS,10
482896,,16 South Walk,Cwmbran,,Holland & Barrett,Retailers - other,4613,5,,574237,5,,51.65295100000000,26336,569,commercial.services@torfaen.gov.uk,Torfaen,http://www.torfaen.gov.uk/,-3.02143900000000,NP44 1PU,2014-09-25,fhrs_5_en-GB,5,,FHRS,5
482897,,1 Ton Road,Cwmbran,,Holly Lodge Residential Home,Hospitals/Childcare/Caring Premises,5,5,,98143,0,,51.64222200000000,30805,569,commercial.services@torfaen.gov.uk,Torfaen,http://www.torfaen.gov.uk/,-3.03595300000000,NP44 7LF,2014-01-22,fhrs_5_en-GB,5,,FHRS,5
482898,,13 Windsor Road,Griffithstown,Pontypool,Hsiang Yang Flower,Takeaway/sandwich shop,7844,5,,75919,5,,51.68625700000000,17828,569,commercial.services@torfaen.gov.uk,Torfaen,http://www.torfaen.gov.uk/,-3.02532800000000,NP4 5HY,2014-11-17,fhrs_5_en-GB,5,,FHRS,0
482899,Ginger Exhibitions,Ty Coch Way,Llantarnam,Cwmbran,Hybu Cig Cymru  Meat Promotion Wales,Mobile caterer,7846,5,,565757,5,,51.63991000000000,35537,569,commercial.services@torfaen.gov.uk,Torfaen,http://www.torfaen.gov.uk/,-3.02383400000000,NP44 7EZ,2013-07-04,fhrs_5_en-GB,5,,FHRS,5
482900,,109 Court Farm Road,Llantarnam,Cwmbran,I Made IT,Other catering premises,7841,5,,103436,5,,51.63677400000000,34757,569,commercial.services@torfaen.gov.uk,Torfaen,http://www.torfaen.gov.uk/,-3.01217500000000,NP44 3BU,2011-06-22,fhrs_5_en-GB,5,,FHRS,5
482901,,70 Maple Road South,Sebastopol,Pontypool,Ice Cream Ltd,Mobile caterer,7846,10,,565761,5,,51.67827200000000,35597,569,commercial.services@torfaen.gov.uk,Torfaen,http://www.torfaen.gov.uk/,-3.03152600000000,NP4 5AP,2013-07-03,fhrs_3_en-GB,3,,FHRS,10
482902,Crown Buildings,George Street Lower,Pontypool,,Iceland,Retailers - supermarkets/hypermarkets,7840,5,,466847,5,,,34062,569,commercial.services@torfaen.gov.uk,Torfaen,http://www.torfaen.gov.uk/,,NP4 6YP,2012-02-17,fhrs_5_en-GB,5,,FHRS,0
482903,Iceland,22 Monmouth Walk,Cwmbran,,Iceland Frozen Foods Ltd,Retailers - supermarkets/hypermarkets,7840,5,,502649,10,,51.65205800000000,1181,569,commercial.services@torfaen.gov.uk,Torfaen,http://www.torfaen.gov.uk/,-3.02170800000000,NP44 1PE,2013-01-28,fhrs_4_en-GB,4,,FHRS,5
482904,"In Shop Centres Plc, In Shops",34 The Mall,Cwmbran,,In Shop Cafe,Restaurant/Cafe/Canteen,1,5,,102005,5,,51.65291300000000,33613,569,commercial.services@torfaen.gov.uk,Torfaen,http://www.torfaen.gov.uk/,-3.02057100000000,NP44 1PX,2013-08-19,fhrs_4_en-GB,4,,FHRS,10
482905,Unit 2,New Road,New Inn,Pontypool,Inner Pickle,Manufacturers/packers,7839,5,,666548,5,,51.68929200000000,36108,569,commercial.services@torfaen.gov.uk,Torfaen,http://www.torfaen.gov.uk/,-3.01861200000000,NP4 0TL,2014-06-04,fhrs_5_en-GB,5,,FHRS,0
482906,Unit 4,New Road,New Inn,Pontypool,"Isca Meats (PILCS car park, New Inn)",Mobile caterer,7846,5,,456390,10,,51.68929200000000,33886,569,commercial.services@torfaen.gov.uk,Torfaen,http://www.torfaen.gov.uk/,-3.01861200000000,NP4 0TL,2012-10-12,fhrs_4_en-GB,4,,FHRS,5
482907,,55 Windsor Road,Griffithstown,Pontypool,Istanbul Kebabs,Takeaway/sandwich shop,7844,5,,211123,10,,51.68625700000000,33409,569,commercial.services@torfaen.gov.uk,Torfaen,http://www.torfaen.gov.uk/,-3.02532800000000,NP4 5HY,2013-10-22,fhrs_3_en-GB,3,,FHRS,10
482908,,10 Elgam Avenue,Blaenavon,Pontypool,J P Catering,Mobile caterer,7846,10,,611396,15,,51.77739100000000,35863,569,commercial.services@torfaen.gov.uk,Torfaen,http://www.torfaen.gov.uk/,-3.08285100000000,NP4 9QY,2014-06-14,fhrs_2_en-GB,2,,FHRS,10
482909,J Sainsbury Plc,Llewellyn Road,Cwmbran,,J Sainsbury Plc,Retailers - supermarkets/hypermarkets,7840,0,,80316,0,,51.65279200000000,19432,569,commercial.services@torfaen.gov.uk,Torfaen,http://www.torfaen.gov.uk/,-3.02520900000000,NP44 1UL,2013-02-06,fhrs_5_en-GB,5,,FHRS,0
482910,,47 Llandowlais Street,Oakfield,Cwmbran,Jade Garden Takeaway,Takeaway/sandwich shop,7844,5,,101804,5,,51.64219300000000,33462,569,commercial.services@torfaen.gov.uk,Torfaen,http://www.torfaen.gov.uk/,-3.02288800000000,NP44 7HE,2014-03-12,fhrs_4_en-GB,4,,FHRS,10
482911,,24 Cwmavon Road,Blaenavon,Pontypool,"John's Fast Food (trading from layby, Hafodyrynys)",Mobile caterer,7846,10,,103072,5,,51.77020100000000,34481,569,commercial.services@torfaen.gov.uk,Torfaen,http://www.torfaen.gov.uk/,-3.07960600000000,NP4 9LE,2014-03-12,fhrs_4_en-GB,4,,FHRS,5
482912,Court House,Pentwyn Road,Pentwyn,Pontypool,"Jo's Snack Bar (trading from Blaenwern, off Avondale Road)",Mobile caterer,7846,5,,102294,5,,51.72286500000000,33889,569,commercial.services@torfaen.gov.uk,Torfaen,http://www.torfaen.gov.uk/,-3.06533200000000,NP4 7TT,2014-07-07,fhrs_4_en-GB,4,,FHRS,10
482913,6 Lion Court,Lion Street,Blaenavon,Pontypool,Jo's Sweet Temptations,Other catering premises,7841,5,,462817,5,,51.77447900000000,35306,569,commercial.services@torfaen.gov.uk,Torfaen,http://www.torfaen.gov.uk/,-3.08465100000000,NP4 9PS,2012-11-02,fhrs_5_en-GB,5,,FHRS,5
482914,Fish & Chip Shop,Leadon Court,Thornhill,Cwmbran,June's Fish Bar,Takeaway/sandwich shop,7844,10,,99752,5,,51.65677300000000,31701,569,commercial.services@torfaen.gov.uk,Torfaen,http://www.torfaen.gov.uk/,-3.05088600000000,NP44 5TZ,2014-12-10,fhrs_2_en-GB,2,,FHRS,15
482915,,101 High Street,Blaenavon,Pontypool,Just Deserts (within Blaenavon Workmens Hall),Other catering premises,7841,10,,101072,10,,51.77326600000000,32843,569,commercial.services@torfaen.gov.uk,Torfaen,http://www.torfaen.gov.uk/,-3.08557800000000,NP4 9PT,2012-11-19,fhrs_3_en-GB,3,,FHRS,5
482916,,62 Stanley Road,Garndiffaith,Pontypool,K2 Star Kebab,Takeaway/sandwich shop,7844,20,,102907,15,,51.73622700000000,34332,569,commercial.services@torfaen.gov.uk,Torfaen,http://www.torfaen.gov.uk/,-3.06831100000000,NP4 7LH,2014-11-25,fhrs_1_en-GB,1,,FHRS,15
482917,,Gwent Square,Cwmbran,,Katie's Fresh Fruit and Veg,Retailers - other,4613,5,,654827,5,,,36044,569,commercial.services@torfaen.gov.uk,Torfaen,http://www.torfaen.gov.uk/,,,2014-03-25,fhrs_5_en-GB,5,,FHRS,5
482918,,52 North Road,Croesyceiliog,Cwmbran,Kean on Cakes,Other catering premises,7841,5,,718544,5,,51.65871800000000,36348,569,commercial.services@torfaen.gov.uk,Torfaen,http://www.torfaen.gov.uk/,-3.00537700000000,NP44 2EN,2014-11-20,fhrs_5_en-GB,5,,FHRS,5
482919,,50 Waun Road,Cwmbran,,Kebab Van (t/a layby off Grange Road / Llanfrechfa Way roundabout),Mobile caterer,7846,10,,98593,10,,51.64417100000000,31087,569,commercial.services@torfaen.gov.uk,Torfaen,http://www.torfaen.gov.uk/,-3.03621500000000,NP44 7JW,2014-03-17,fhrs_3_en-GB,3,,FHRS,10
482920,,50 Waun Road,Cwmbran,,"Kebab Van (t/a Woodside Road, Cwmbran)",Mobile caterer,7846,10,,96898,10,,51.64417100000000,29851,569,commercial.services@torfaen.gov.uk,Torfaen,http://www.torfaen.gov.uk/,-3.03621500000000,NP44 7JW,2014-08-12,fhrs_4_en-GB,4,,FHRS,0
482921,Old Oak Garage,Abergavenny Road,Blaenavon,,Keepers Animal Feeds,Retailers - other,4613,10,,723728,0,,51.77710100000000,34798,569,commercial.services@torfaen.gov.uk,Torfaen,http://www.torfaen.gov.uk/,-3.08603200000000,NP4 9RG,2014-12-05,fhrs_4_en-GB,4,,FHRS,10
482922,K F C,Service Station A4042(T),Pontymoile,Pontypool,KFC,Restaurant/Cafe/Canteen,1,0,,101655,0,,51.69274100000000,33337,569,commercial.services@torfaen.gov.uk,Torfaen,http://www.torfaen.gov.uk/,-3.02104800000000,NP4 0XB,2014-07-31,fhrs_5_en-GB,5,,FHRS,5
482923,Unit 3,General Rees Square,Cwmbran,,KFC,Restaurant/Cafe/Canteen,1,5,,96748,0,,51.65379600000000,29683,569,commercial.services@torfaen.gov.uk,Torfaen,http://www.torfaen.gov.uk/,-3.02241200000000,NP44 1AH,2013-12-02,fhrs_5_en-GB,5,,FHRS,5
482924,,6 Commercial Street,Pontnewydd,Cwmbran,Khan Tandoori Takeaway,Takeaway/sandwich shop,7844,20,,50001,15,,51.66103900000000,11114,569,commercial.services@torfaen.gov.uk,Torfaen,http://www.torfaen.gov.uk/,-3.02503300000000,NP44 1DZ,2014-12-04,fhrs_1_en-GB,1,,FHRS,15
482925,,23b Commercial Street,Old Cwmbran,Cwmbran,King Chicken,Takeaway/sandwich shop,7844,10,,666551,10,,51.64823600000000,36138,569,commercial.services@torfaen.gov.uk,Torfaen,http://www.torfaen.gov.uk/,-3.02484600000000,NP44 3LR,2014-11-11,fhrs_3_en-GB,3,,FHRS,10
482926,Labour In Vain,High Street,Pontypool,,Labour in Vain,Pub/bar/nightclub,7843,20,,100566,10,,51.70072400000000,32397,569,commercial.services@torfaen.gov.uk,Torfaen,http://www.torfaen.gov.uk/,-3.04879300000000,NP4 6HE,2013-03-27,fhrs_1_en-GB,1,,FHRS,10
482927,Our Lady Of The Angels Rc Church,Oak Street,Old Cwmbran,Cwmbran,Ladybirds (within Our Lady of the Angels Pastoral Centre),Hospitals/Childcare/Caring Premises,5,10,,103003,10,,51.64752000000000,34424,569,commercial.services@torfaen.gov.uk,Torfaen,http://www.torfaen.gov.uk/,-3.02240100000000,NP44 3JR,2010-10-20,fhrs_3_en-GB,3,,FHRS,5
482928,,21 Belle Vue Road,Old Cwmbran,Cwmbran,Lainey Loo's Cakey Bits,Other catering premises,7841,0,,565755,0,,51.64514300000000,35490,569,commercial.services@torfaen.gov.uk,Torfaen,http://www.torfaen.gov.uk/,-3.02383600000000,NP44 3LE,2013-07-04,fhrs_5_en-GB,5,,FHRS,0
482929,,6 Llanyravon Square,Llanyravon,Cwmbran,Lakeside Fish Bar,Takeaway/sandwich shop,7844,5,,50711,0,,51.64616000000000,11310,569,commercial.services@torfaen.gov.uk,Torfaen,http://www.torfaen.gov.uk/,-3.00710800000000,NP44 8HS,2014-11-04,fhrs_5_en-GB,5,,FHRS,0
482930,Leadon Court Nursing Home,Leadon Court,Thornhill,Cwmbran,Leadon Court Care Centre,Hospitals/Childcare/Caring Premises,5,10,,99375,0,,51.65677300000000,31363,569,commercial.services@torfaen.gov.uk,Torfaen,http://www.torfaen.gov.uk/,-3.05088600000000,NP44 5TZ,2014-06-30,fhrs_4_en-GB,4,,FHRS,10
482931,,4 Market Street,Pontypool,,Lee's Kitchen,Takeaway/sandwich shop,7844,5,,715760,10,,51.70220400000000,36319,569,commercial.services@torfaen.gov.uk,Torfaen,http://www.torfaen.gov.uk/,-3.04112900000000,NP4 6JN,2014-11-13,fhrs_4_en-GB,4,,FHRS,5
482932,Lidl Uk Gmbh,Wood Side Road,Cwmbran,,Lidl Discount Foodstores Gmbh,Retailers - supermarkets/hypermarkets,7840,5,,508984,10,,51.65464200000000,20221,569,commercial.services@torfaen.gov.uk,Torfaen,http://www.torfaen.gov.uk/,-3.02652200000000,NP44 3EW,2014-12-11,fhrs_3_en-GB,3,,FHRS,10
482933,Spar Stores,59-61 The Avenue,Sebastopol,Pontypool,Lifestyle,Retailers - other,4613,20,,715758,10,,51.67828700000000,36254,569,commercial.services@torfaen.gov.uk,Torfaen,http://www.torfaen.gov.uk/,-3.02879300000000,NP4 5AE,2014-11-13,fhrs_1_en-GB,1,,FHRS,20
482934,,18 Offway,Coed Eva,Cwmbran,Lifestyle (Offway Stores),Retailers - other,4613,20,,98191,5,,51.63911300000000,30851,569,commercial.services@torfaen.gov.uk,Torfaen,http://www.torfaen.gov.uk/,-3.03987100000000,NP44 7DR,2013-08-20,fhrs_1_en-GB,1,,FHRS,10
482935,Hillside Spar Store,Woodland Street,Blaenavon,Pontypool,Lifestyle Express,Retailers - other,4613,5,,43446,5,,51.77624400000000,1058,569,commercial.services@torfaen.gov.uk,Torfaen,http://www.torfaen.gov.uk/,-3.07953300000000,NP4 9NR,2012-07-17,fhrs_5_en-GB,5,,FHRS,5
482936,Blenheim Road Community Primary,Blenheim Road,St Dials,Cwmbran,Little Angels Playgroup (within grounds of Blenheim Rd Com School),Hospitals/Childcare/Caring Premises,5,5,,101935,5,,51.64729400000000,33553,569,commercial.services@torfaen.gov.uk,Torfaen,http://www.torfaen.gov.uk/,-3.04096900000000,NP44 4SZ,2013-01-09,fhrs_5_en-GB,5,,FHRS,5
482937,,19 Pensarn Way,Henllys,Cwmbran,Little Cake House,Other catering premises,7841,10,,102623,0,,51.63650700000000,34110,569,commercial.services@torfaen.gov.uk,Torfaen,http://www.torfaen.gov.uk/,-3.05671800000000,NP44 6EU,2012-06-20,fhrs_4_en-GB,4,,FHRS,5
482938,Court Farm,Usk Road,Pontypool,,Little Chums Day Nursery,Hospitals/Childcare/Caring Premises,5,10,,100906,5,,51.70412000000000,32699,569,commercial.services@torfaen.gov.uk,Torfaen,http://www.torfaen.gov.uk/,-3.01115900000000,NP4 0JB,2013-10-24,fhrs_3_en-GB,3,,FHRS,10
482939,Little Crown Inn,Elled Road,Wainfelin,Pontypool,Little Crown Inn,Pub/bar/nightclub,7843,5,,98418,5,,51.70880100000000,31008,569,commercial.services@torfaen.gov.uk,Torfaen,http://www.torfaen.gov.uk/,-3.05148400000000,NP4 6DR,2014-09-12,fhrs_5_en-GB,5,,FHRS,5
482940,Woodlands Junior & Infant School,Bagley Court,Thornhill,Cwmbran,Little Seedlings(Flying within Woodlands Community Primary School),Hospitals/Childcare/Caring Premises,5,5,,579616,0,,51.66223400000000,34238,569,commercial.services@torfaen.gov.uk,Torfaen,http://www.torfaen.gov.uk/,-3.04748500000000,NP44 5UA,2015-02-04,fhrs_5_en-GB,5,,FHRS,5
482941,,Llantarnam Road,Llantarnam,Cwmbran,"Lizzy's Catering (trading opposite the Co-Operative, Llantarnam Road)",Mobile caterer,7846,5,,84775,5,,51.64366600000000,21067,569,commercial.services@torfaen.gov.uk,Torfaen,http://www.torfaen.gov.uk/,-3.01479900000000,NP44 3BB,2014-06-23,fhrs_5_en-GB,5,,FHRS,5
482942,Llantarnam Grange Arts Centre,St Davids Road,Cwmbran,,Llantarnam Grange Art Centre,Restaurant/Cafe/Canteen,1,5,,139273,10,,51.65417200000000,7482,569,commercial.services@torfaen.gov.uk,Torfaen,http://www.torfaen.gov.uk/,-3.01957300000000,NP44 1PD,2013-08-21,fhrs_4_en-GB,4,,FHRS,5
482943,,158 Llantarnam Road,Llantarnam,Cwmbran,Llantarnam News,Retailers - other,4613,10,,75447,10,,51.64244500000000,1762,569,commercial.services@torfaen.gov.uk,Torfaen,http://www.torfaen.gov.uk/,-3.01566800000000,NP44 3BD,2012-12-05,fhrs_3_en-GB,3,,FHRS,5
482944,Llantarnam Community Primary School,Green Willows,Oakfield,Cwmbran,Llantarnam Primary School,School/college/university,7845,0,,92659,0,,51.63946900000000,262,569,commercial.services@torfaen.gov.uk,Torfaen,http://www.torfaen.gov.uk/,-3.01454700000000,NP44 3HA,2014-03-03,fhrs_4_en-GB,4,,FHRS,10
482945,Llanyravon Court Nursing Home,Llanfrechfa Way,Llanyravon,Cwmbran,Llanyravon Court Care Home,Hospitals/Childcare/Caring Premises,5,0,,84336,5,,51.64599600000000,20963,569,commercial.services@torfaen.gov.uk,Torfaen,http://www.torfaen.gov.uk/,-3.00938800000000,NP44 8HT,2014-05-21,fhrs_5_en-GB,5,,FHRS,5
482946,Llanyravon Social Centre,Llanyravon Way,Llanyravon,Cwmbran,Llanyravon Playgroup (within Llanyravon Social Centre),Hospitals/Childcare/Caring Premises,5,5,,84746,5,,51.64701400000000,21047,569,commercial.services@torfaen.gov.uk,Torfaen,http://www.torfaen.gov.uk/,-3.00811000000000,NP44 8HP,2014-01-28,fhrs_5_en-GB,5,,FHRS,5
482947,Llanyravon Junior & Primary School,Llanyravon Way,Llanyravon,Cwmbran,Llanyravon Primary School,School/college/university,7845,0,,63983,0,,51.64832900000000,14143,569,commercial.services@torfaen.gov.uk,Torfaen,http://www.torfaen.gov.uk/,-3.00685300000000,NP44 8HW,2014-03-20,fhrs_5_en-GB,5,,FHRS,5
482948,Llanyravon Social Centre,Llanyravon Way,Llanyravon,Cwmbran,Llanyravon Social Centre,Pub/bar/nightclub,7843,5,,145434,5,,51.64701400000000,862,569,commercial.services@torfaen.gov.uk,Torfaen,http://www.torfaen.gov.uk/,-3.00811000000000,NP44 8HP,2011-08-02,fhrs_5_en-GB,5,,FHRS,5
482949,,100 Greenhill Road,Sebastopol,Pontypool,Loco,Retailers - other,4613,20,,486287,10,,51.67899200000000,35183,569,commercial.services@torfaen.gov.uk,Torfaen,http://www.torfaen.gov.uk/,-3.02539500000000,NP4 5BQ,2014-09-22,fhrs_1_en-GB,1,,FHRS,10
482950,Penygarn Neighbourhood Learning Centre,Woodlands Field,Penygarn,Pontypool,Log Cabin Neighbourhood Learning Centre,Other catering premises,7841,10,,528482,5,,51.70645600000000,33943,569,commercial.services@torfaen.gov.uk,Torfaen,http://www.torfaen.gov.uk/,-3.03212400000000,NP4 8BU,2014-03-28,fhrs_4_en-GB,4,,FHRS,0
482951,Leisure@cwmbran,Unit 1A Glyndwr Road,Cwmbran,,Lollipops and Ladybirds,Other catering premises,7841,5,,608585,5,,51.65487500000000,35688,569,commercial.services@torfaen.gov.uk,Torfaen,http://www.torfaen.gov.uk/,-3.01931400000000,NP44 1QS,2013-11-13,fhrs_5_en-GB,5,,FHRS,0
482952,,62 Broad Street,Blaenavon,,Lotus,Takeaway/sandwich shop,7844,20,,703614,15,,51.77448100000000,36281,569,commercial.services@torfaen.gov.uk,Torfaen,http://www.torfaen.gov.uk/,-3.08347700000000,NP4 9NH,2014-09-25,fhrs_1_en-GB,1,,FHRS,10
482953,Lower New Inn,48 Newport Road,New Inn,Pontypool,Lower New Inn,Pub/bar/nightclub,7843,5,,44653,5,,51.68362800000000,10828,569,commercial.services@torfaen.gov.uk,Torfaen,http://www.torfaen.gov.uk/,-3.00600200000000,NP4 0NU,2013-03-21,fhrs_5_en-GB,5,,FHRS,5
482954,Lower Pentranch Farm,Plasycoed,Pontypool,,Lower Pentranch Farm,Other catering premises,7841,0,,456391,5,,51.70460200000000,35088,569,commercial.services@torfaen.gov.uk,Torfaen,http://www.torfaen.gov.uk/,-3.06048900000000,NP4 6TP,2014-11-25,fhrs_5_en-GB,5,,FHRS,5
482955,,12 Lyncroft,Greenmeadow,Cwmbran,Lyncroft Stores,Retailers - other,4613,10,,96329,5,,51.65064500000000,29178,569,commercial.services@torfaen.gov.uk,Torfaen,http://www.torfaen.gov.uk/,-3.04740500000000,NP44 4SJ,2013-10-10,fhrs_4_en-GB,4,,FHRS,5
482956,,3 Llanyravon Square,Llanyravon,Cwmbran,M R S Supermarket,Retailers - other,4613,10,,100543,10,,51.64616000000000,32370,569,commercial.services@torfaen.gov.uk,Torfaen,http://www.torfaen.gov.uk/,-3.00710800000000,NP44 8HS,2014-01-28,fhrs_3_en-GB,3,,FHRS,10
482957,,75 Brynhyfryd,Croesyceiliog,Cwmbran,Mad Dog Brewing Co Ltd,Retailers - other,4613,5,,676528,5,,51.66145600000000,36182,569,commercial.services@torfaen.gov.uk,Torfaen,http://www.torfaen.gov.uk/,-3.00698500000000,NP44 2LN,2014-06-26,fhrs_5_en-GB,5,,FHRS,5
482958,Maendy (Cwmbran) Junior & Infant School,Wayfield Crescent,Northville,Cwmbran,Maendy Primary School,School/college/university,7845,0,,99649,0,,51.65852200000000,31621,569,commercial.services@torfaen.gov.uk,Torfaen,http://www.torfaen.gov.uk/,-3.02386300000000,NP44 1NH,2014-03-03,fhrs_5_en-GB,5,,FHRS,5
482959,,4 Maendy Square Shops,Pontnewydd,Cwmbran,Maendy Way Chippy,Takeaway/sandwich shop,7844,5,,101753,5,,51.66264600000000,33408,569,commercial.services@torfaen.gov.uk,Torfaen,http://www.torfaen.gov.uk/,-3.03954200000000,NP44 1HN,2014-11-12,fhrs_5_en-GB,5,,FHRS,0
482960,,3 Maendy Square Shops,Pontnewydd,Cwmbran,Maendy Way Stores,Retailers - other,4613,5,,92007,5,,51.66264600000000,25722,569,commercial.services@torfaen.gov.uk,Torfaen,http://www.torfaen.gov.uk/,-3.03954200000000,NP44 1HN,2013-08-20,fhrs_4_en-GB,4,,FHRS,10
482961,5-7 The Shops,Croeswen,Oakfield,Cwmbran,Mahine Store (Oakfield Mini Mart),Retailers - other,4613,10,,99255,5,,51.63870400000000,31313,569,commercial.services@torfaen.gov.uk,Torfaen,http://www.torfaen.gov.uk/,-3.01567100000000,NP44 3DX,2013-08-06,fhrs_3_en-GB,3,,FHRS,10
482962,The Canal Basin,Fountain Road,Pontymoile,Pontypool,Marina Tearoom,Restaurant/Cafe/Canteen,1,5,,715759,5,,51.69661100000000,36318,569,commercial.services@torfaen.gov.uk,Torfaen,http://www.torfaen.gov.uk/,-3.02589500000000,NP4 8ER,2014-11-14,fhrs_4_en-GB,4,,FHRS,10
482963,,23 George Street,Pontypool,,Marios,Restaurant/Cafe/Canteen,1,10,,641663,5,,51.70381600000000,35896,569,commercial.services@torfaen.gov.uk,Torfaen,http://www.torfaen.gov.uk/,-3.04285900000000,NP4 6BZ,2014-02-18,fhrs_2_en-GB,2,,FHRS,15
482964,Stall 3 The Market Hall,Market Street,Pontypool,,Market Cafe,Restaurant/Cafe/Canteen,1,5,,680204,10,,51.70220400000000,36178,569,commercial.services@torfaen.gov.uk,Torfaen,http://www.torfaen.gov.uk/,-3.04112900000000,NP4 6JN,2014-07-02,fhrs_4_en-GB,4,,FHRS,5
482965,,8 Market Street,Pontypool,,Market Square Coffee House,Restaurant/Cafe/Canteen,1,5,,102705,0,,51.70220400000000,34195,569,commercial.services@torfaen.gov.uk,Torfaen,http://www.torfaen.gov.uk/,-3.04112900000000,NP4 6JN,2014-07-29,fhrs_4_en-GB,4,,FHRS,10
482966,,89 Broad Street,Blaenavon,,Market Tavern,Pub/bar/nightclub,7843,10,,103235,5,,51.77339400000000,34607,569,commercial.services@torfaen.gov.uk,Torfaen,http://www.torfaen.gov.uk/,-3.08440700000000,NP4 9NE,2013-11-06,fhrs_4_en-GB,4,,FHRS,5
482967,,24 South Walk,Cwmbran,,Marks & Spencer Plc,Retailers - supermarkets/hypermarkets,7840,0,,83847,5,,51.65256700000000,2066,569,commercial.services@torfaen.gov.uk,Torfaen,http://www.torfaen.gov.uk/,-3.02209600000000,NP44 1YD,2014-07-22,fhrs_5_en-GB,5,,FHRS,5
482968,,20 St Lukes Road,Pontnewynydd,Pontypool,Marmaris Kebab and Pizza House,Takeaway/sandwich shop,7844,10,,434224,5,,51.71151000000000,35147,569,commercial.services@torfaen.gov.uk,Torfaen,http://www.torfaen.gov.uk/,-3.05431100000000,NP4 6SU,2013-12-09,fhrs_4_en-GB,4,,FHRS,5
482969,,22 A R D Business Park,New Inn,Pontypool,Masala Express,Takeaway/sandwich shop,7844,10,,99571,10,,51.69074200000000,31558,569,commercial.services@torfaen.gov.uk,Torfaen,http://www.torfaen.gov.uk/,-3.01628600000000,NP4 0SW,2013-11-21,fhrs_3_en-GB,3,,FHRS,10
482970,,17-23 Gwent Square,Cwmbran,,Massarella's (within David Evans),Restaurant/Cafe/Canteen,1,5,,96184,10,,51.65370500000000,29027,569,commercial.services@torfaen.gov.uk,Torfaen,http://www.torfaen.gov.uk/,-3.02150000000000,NP44 1PW,2014-04-22,fhrs_3_en-GB,3,,FHRS,10
482971,Mayflower Residential Home,Pentre Lane,Llantarnam,Cwmbran,Mayflower Residential Home,Hospitals/Childcare/Caring Premises,5,10,,96215,10,,51.62562400000000,29055,569,commercial.services@torfaen.gov.uk,Torfaen,http://www.torfaen.gov.uk/,-3.01223000000000,NP44 3AP,2014-01-23,fhrs_4_en-GB,4,,FHRS,0
482972,,3 Church Avenue,Trevethin,Pontypool,Mayo's Fish Bar,Takeaway/sandwich shop,7844,5,,50043,5,,51.71280800000000,11127,569,commercial.services@torfaen.gov.uk,Torfaen,http://www.torfaen.gov.uk/,-3.03979500000000,NP4 8DH,2014-01-21,fhrs_5_en-GB,5,,FHRS,0
482973,,14-20 North Walk,Cwmbran,,McDonalds,Restaurant/Cafe/Canteen,1,0,,610211,5,,51.65485500000000,35714,569,commercial.services@torfaen.gov.uk,Torfaen,http://www.torfaen.gov.uk/,-3.02165600000000,NP44 1PR,2013-11-11,fhrs_4_en-GB,4,,FHRS,10
482974,,Service Station A4042(T),Pontymoile,Pontypool,McDonalds,Restaurant/Cafe/Canteen,1,5,,84344,5,,51.69274100000000,20971,569,commercial.services@torfaen.gov.uk,Torfaen,http://www.torfaen.gov.uk/,-3.02104800000000,NP4 0XB,2014-11-11,fhrs_5_en-GB,5,,FHRS,5
482975,Cwmbran Stadium Sports Centre,Henllys Way,Cwmbran,,Meals on Wheels Service (within Cwmbran Stadium),Other catering premises,7841,0,,97170,0,,51.64307100000000,30025,569,commercial.services@torfaen.gov.uk,Torfaen,http://www.torfaen.gov.uk/,-3.02120300000000,NP44 3YS,2014-08-13,fhrs_5_en-GB,5,,FHRS,5
482976,Mecca Bingo,18 Monmouth Walk,Cwmbran,,Mecca Bingo Ltd,Restaurant/Cafe/Canteen,1,0,,139772,0,,51.65205800000000,7561,569,commercial.services@torfaen.gov.uk,Torfaen,http://www.torfaen.gov.uk/,-3.02170800000000,NP44 1PE,2015-01-06,fhrs_5_en-GB,5,,FHRS,5
482977,,96 Five Locks Road,Pontnewydd,Cwmbran,Melanie Carol Winter,Other catering premises,7841,5,,654830,5,,51.66524100000000,36080,569,commercial.services@torfaen.gov.uk,Torfaen,http://www.torfaen.gov.uk/,-3.03488800000000,NP44 1BE,2014-03-27,fhrs_5_en-GB,5,,FHRS,5
482978,,4 Wentwood Close,Pontnewydd,Cwmbran,Mel's Whippy's,Mobile caterer,7846,5,,85135,5,,51.66497800000000,21285,569,commercial.services@torfaen.gov.uk,Torfaen,http://www.torfaen.gov.uk/,-3.03817900000000,NP44 1EX,2011-10-24,fhrs_5_en-GB,5,,FHRS,0
482979,,149 Churchwood,Griffithstown,Pontypool,Melys Jams & Chutneys,Other catering premises,7841,5,,589078,5,,51.68381300000000,35713,569,commercial.services@torfaen.gov.uk,Torfaen,http://www.torfaen.gov.uk/,-3.01995000000000,NP4 5SY,2013-09-25,fhrs_5_en-GB,5,,FHRS,5
482980,,99 Broad Street,Blaenavon,Pontypool,Mike's Fruit & Veg,Retailers - other,4613,5,,574338,5,,51.77234400000000,558,569,commercial.services@torfaen.gov.uk,Torfaen,http://www.torfaen.gov.uk/,-3.08509200000000,NP4 9ND,2014-10-15,fhrs_5_en-GB,5,,FHRS,5
482981,,1D Fairwater Square,"Fairwater, Cwmbran",Torfaen,Mings Chinese Kitchen,Takeaway/sandwich shop,7844,10,,103140,10,,51.64467300000000,34549,569,commercial.services@torfaen.gov.uk,Torfaen,http://www.torfaen.gov.uk/,-3.04758600000000,NP44 4TA,2014-12-04,fhrs_2_en-GB,2,,FHRS,15
482982,Fernlea,121 Manor Road,Abersychan,Pontypool,Monster Munch (t/a North Pontypool Ind Estate),Mobile caterer,7846,20,,101067,15,,51.72611200000000,32840,569,commercial.services@torfaen.gov.uk,Torfaen,http://www.torfaen.gov.uk/,-3.06523500000000,NP4 7DY,2014-08-29,fhrs_1_en-GB,1,,FHRS,15
482983,Penywaun Cottage,Pen Y Waun Road,St Dials,Cwmbran,Morgans & Co Catering,Mobile caterer,7846,20,,41544,10,,51.64792300000000,10297,569,commercial.services@torfaen.gov.uk,Torfaen,http://www.torfaen.gov.uk/,-3.03183400000000,NP44 4LT,2014-06-14,fhrs_1_en-GB,1,,FHRS,15
482984,Mount Pleasant Hall,Mount Pleasant Road,Pontnewydd,Cwmbran,Mount Pleasant Hall,Retailers - other,4613,10,,466854,0,,51.66122300000000,34596,569,commercial.services@torfaen.gov.uk,Torfaen,http://www.torfaen.gov.uk/,-3.02858000000000,NP44 1AN,2014-08-12,fhrs_2_en-GB,2,,FHRS,15
482985,,200 Oaksford,Coed Eva,Cwmbran,Mr Bill King Artisan Baker,Other catering premises,7841,5,,482713,5,,51.64612100000000,35361,569,commercial.services@torfaen.gov.uk,Torfaen,http://www.torfaen.gov.uk/,-3.05357400000000,NP44 6UP,2012-12-05,fhrs_5_en-GB,5,,FHRS,5
482986,,4 General Rees Square,Cwmbran,,Mr Chippy,Restaurant/Cafe/Canteen,1,5,,590283,5,,51.65379600000000,35690,569,commercial.services@torfaen.gov.uk,Torfaen,http://www.torfaen.gov.uk/,-3.02241200000000,NP44 1AH,2013-10-08,fhrs_4_en-GB,4,,FHRS,10
482987,,23 Park Street,Blaenavon,Pontypool,N.S. Confectionarys,Other catering premises,7841,5,,641666,5,,51.77468600000000,35997,569,commercial.services@torfaen.gov.uk,Torfaen,http://www.torfaen.gov.uk/,-3.08561200000000,NP4 9AB,2014-02-20,fhrs_5_en-GB,5,,FHRS,5
482988,Nant Celyn Primary School,Ton Road,Cwmbran,,Nant Celyn School,School/college/university,7845,0,,142274,0,,51.64308700000000,7889,569,commercial.services@torfaen.gov.uk,Torfaen,http://www.torfaen.gov.uk/,-3.03880600000000,NP44 7LE,2014-10-21,fhrs_5_en-GB,5,,FHRS,5
482989,,103 Broad Street,Blaenavon,Pontypool,Naseeb Tandoori,Takeaway/sandwich shop,7844,10,,99053,10,,51.77234400000000,31257,569,commercial.services@torfaen.gov.uk,Torfaen,http://www.torfaen.gov.uk/,-3.08509200000000,NP4 9ND,2014-06-09,fhrs_3_en-GB,3,,FHRS,10
482990,,130 High Street,Abersychan,Pontypool,New Inn,Pub/bar/nightclub,7843,10,,98324,5,,51.72456000000000,30958,569,commercial.services@torfaen.gov.uk,Torfaen,http://www.torfaen.gov.uk/,-3.06289600000000,NP4 7AE,2012-08-20,fhrs_3_en-GB,3,,FHRS,10
482991,New Inn Fire Station,New Road,New Inn,Pontypool,New Inn Fire Station,Restaurant/Cafe/Canteen,1,10,,143076,5,,51.68933400000000,8022,569,commercial.services@torfaen.gov.uk,Torfaen,http://www.torfaen.gov.uk/,-3.01790400000000,NP4 0YW,2011-03-22,fhrs_4_en-GB,4,,FHRS,5
482992,,105 The Highway,New Inn,Pontypool,New Inn Fish Bar,Takeaway/sandwich shop,7844,10,,641660,10,,51.68971900000000,35879,569,commercial.services@torfaen.gov.uk,Torfaen,http://www.torfaen.gov.uk/,-3.00979700000000,NP4 0PJ,2014-09-26,fhrs_3_en-GB,3,,FHRS,10
482993,,2-4 The Highway,New Inn,Pontypool,New Inn Nursing Home,Hospitals/Childcare/Caring Premises,5,0,,98570,0,,51.68667900000000,31073,569,commercial.services@torfaen.gov.uk,Torfaen,http://www.torfaen.gov.uk/,-3.00669100000000,NP4 0PW,2014-06-16,fhrs_5_en-GB,5,,FHRS,5
482994,,Golf Road,"New Inn, Pontypool",Torfaen,New Inn Primary School,School/college/university,7845,0,,62516,0,,51.69291700000000,13802,569,commercial.services@torfaen.gov.uk,Torfaen,http://www.torfaen.gov.uk/,-3.00805900000000,NP4 0PR,2014-03-13,fhrs_5_en-GB,5,,FHRS,5
482995,"New Panteg Rfc, Jarrods Field",New Road,New Inn,Pontypool,New Panteg RFC,Pub/bar/nightclub,7843,10,,198200,5,,51.68985700000000,20947,569,commercial.services@torfaen.gov.uk,Torfaen,http://www.torfaen.gov.uk/,-3.01153600000000,NP4 0PZ,2014-02-03,fhrs_3_en-GB,3,,FHRS,10
482996,,18 Osborne Road,Pontypool,,New Yummies,Takeaway/sandwich shop,7844,10,,426722,5,,51.70581000000000,35097,569,commercial.services@torfaen.gov.uk,Torfaen,http://www.torfaen.gov.uk/,-3.04416400000000,NP4 6LU,2014-03-24,fhrs_3_en-GB,3,,FHRS,10
482997,,5 The Parade,Cwmbran,,Nine Yards,Restaurant/Cafe/Canteen,1,5,,99266,5,,51.65363800000000,31319,569,commercial.services@torfaen.gov.uk,Torfaen,http://www.torfaen.gov.uk/,-3.02203300000000,NP44 1QR,2013-12-09,fhrs_5_en-GB,5,,FHRS,5
482998,,10 Heol Newydd,Upper Cwmbran,Cwmbran,No Cake Like Home Ltd,Other catering premises,7841,5,,103560,5,,51.66512100000000,34856,569,commercial.services@torfaen.gov.uk,Torfaen,http://www.torfaen.gov.uk/,-3.04231700000000,NP44 5HS,2011-09-15,fhrs_5_en-GB,5,,FHRS,5
482999,,69 The Links,Trevethin,Pontypool,Norma Burston,Mobile caterer,7846,5,,103548,5,,51.71660200000000,34846,569,commercial.services@torfaen.gov.uk,Torfaen,http://www.torfaen.gov.uk/,-3.04086600000000,NP4 8DQ,2011-08-25,fhrs_5_en-GB,5,,FHRS,5
483000,1 Oakfield Terrace,Varteg Road,Blaenavon,Pontypool,Oakfield Bed & Breakfast,Retailers - other,4613,0,,99694,0,,51.76950100000000,31669,569,commercial.services@torfaen.gov.uk,Torfaen,http://www.torfaen.gov.uk/,-3.08435700000000,NP4 9DS,2015-01-28,fhrs_5_en-GB,5,,FHRS,0
483001,3 The Shops,Croeswen,Oakfield,Cwmbran,Oakfield Chinese Takeaway,Takeaway/sandwich shop,7844,0,,103244,5,,51.63870400000000,34610,569,commercial.services@torfaen.gov.uk,Torfaen,http://www.torfaen.gov.uk/,-3.01567100000000,NP44 3DX,2014-02-28,fhrs_4_en-GB,4,,FHRS,10
483002,,20 Commercial Street,Pontnewydd,Cwmbran,Oddfellows Arms,Pub/bar/nightclub,7843,10,,100735,5,,51.66103900000000,32558,569,commercial.services@torfaen.gov.uk,Torfaen,http://www.torfaen.gov.uk/,-3.02503300000000,NP44 1DZ,2013-01-07,fhrs_4_en-GB,4,,FHRS,5
483003,,4 Garw Wood Drive,Croesyceiliog,Cwmbran,Oh Sugar Cake Company,Other catering premises,7841,5,,234183,5,,51.66512800000000,35051,569,commercial.services@torfaen.gov.uk,Torfaen,http://www.torfaen.gov.uk/,-3.01066700000000,NP44 2QJ,2012-03-21,fhrs_5_en-GB,5,,FHRS,5
483004,Old Bridgend Inn,Commercial Street,Pontnewydd,Cwmbran,Old Bridge End Inn,Pub/bar/nightclub,7843,10,,44583,5,,51.66112300000000,10811,569,commercial.services@torfaen.gov.uk,Torfaen,http://www.torfaen.gov.uk/,-3.02668300000000,NP44 1AE,2012-09-24,fhrs_4_en-GB,4,,FHRS,5
483005,,Henllys Village Road,"Henllys, Cwmbran",Torfaen,One Stop,Retailers - other,4613,10,,103231,0,,51.63765700000000,34601,569,commercial.services@torfaen.gov.uk,Torfaen,http://www.torfaen.gov.uk/,-3.06281400000000,NP44 6HX,2011-11-16,fhrs_4_en-GB,4,,FHRS,0
483006,,Station Road,Griffithstown,Pontypool,One Stop,Retailers - other,4613,0,,641662,0,,51.68498600000000,35885,569,commercial.services@torfaen.gov.uk,Torfaen,http://www.torfaen.gov.uk/,-3.02268100000000,NP4 5JH,2014-02-20,fhrs_5_en-GB,5,,FHRS,5
483007,,23/24 Sycamore Place,Upper Cwmbran,Cwmbran,One Stop Convenience Store,Retailers - other,4613,10,,85223,5,,51.66333600000000,21361,569,commercial.services@torfaen.gov.uk,Torfaen,http://www.torfaen.gov.uk/,-3.04489300000000,NP44 5TB,2014-05-14,fhrs_3_en-GB,3,,FHRS,10
483008,,18 Broad Street,Abersychan,Pontypool,One Stop Stores Ltd,Retailers - supermarkets/hypermarkets,7840,10,,547879,10,,51.72341000000000,35482,569,commercial.services@torfaen.gov.uk,Torfaen,http://www.torfaen.gov.uk/,-3.05874300000000,NP4 7BQ,2013-05-13,fhrs_4_en-GB,4,,FHRS,0
483009,,Wern Road,Sebastopol,Pontypool,Open Hearth,Pub/bar/nightclub,7843,5,,100416,5,,51.68167100000000,32256,569,commercial.services@torfaen.gov.uk,Torfaen,http://www.torfaen.gov.uk/,-3.02331500000000,NP4 5DR,2015-01-13,fhrs_4_en-GB,4,,FHRS,10
483010,,4 Commercial Street,Blaenavon,Pontypool,Oriental,Takeaway/sandwich shop,7844,5,,50492,5,,51.77605700000000,11249,569,commercial.services@torfaen.gov.uk,Torfaen,http://www.torfaen.gov.uk/,-3.08031100000000,NP4 9NP,2013-11-20,fhrs_5_en-GB,5,,FHRS,5
483011,,53 Station Road,Pontnewydd,Cwmbran,Oriental Garden II,Restaurant/Cafe/Canteen,1,10,,408577,15,,51.66056900000000,35154,569,commercial.services@torfaen.gov.uk,Torfaen,http://www.torfaen.gov.uk/,-3.02213100000000,NP44 1NZ,2014-07-04,fhrs_2_en-GB,2,,FHRS,10
483012,Osborne Lodge Day Nursery,Osborne Road,Pontypool,,Osbourne Lodge Day Nursery,Hospitals/Childcare/Caring Premises,5,5,,84723,5,,51.70420700000000,21035,569,commercial.services@torfaen.gov.uk,Torfaen,http://www.torfaen.gov.uk/,-3.04242000000000,NP4 6LT,2014-03-27,fhrs_4_en-GB,4,,FHRS,10
483013,Cwmbran Roman Catholic Primary School,Victoria Street,Old Cwmbran,Cwmbran,Our Ladies of the Angels Breakfast Club (within the Parish Hall),Hospitals/Childcare/Caring Premises,5,5,,102796,5,,51.64752000000000,34248,569,commercial.services@torfaen.gov.uk,Torfaen,http://www.torfaen.gov.uk/,-3.02240100000000,NP44 3JR,2013-03-13,fhrs_4_en-GB,4,,FHRS,10
483014,Cwmbran Roman Catholic Primary School,Victoria Street,Old Cwmbran,Cwmbran,Our Lady of the Angels Parish Hall,Other catering premises,7841,10,,50853,5,,51.64752000000000,11345,569,commercial.services@torfaen.gov.uk,Torfaen,http://www.torfaen.gov.uk/,-3.02240100000000,NP44 3JR,2013-03-13,fhrs_3_en-GB,3,,FHRS,10
483015,Cwmbran Roman Catholic Primary School,Victoria Street,Old Cwmbran,Cwmbran,Our Lady of the Angels RC School,School/college/university,7845,0,,92714,0,,51.64752000000000,26244,569,commercial.services@torfaen.gov.uk,Torfaen,http://www.torfaen.gov.uk/,-3.02240100000000,NP44 3JR,2014-04-30,fhrs_5_en-GB,5,,FHRS,5
483016,Llanyravon Methodist Church,Llanyravon Way,Llanyravon,Cwmbran,Out to Lunch,Other catering premises,7841,10,,96434,10,,51.65199100000000,293,569,commercial.services@torfaen.gov.uk,Torfaen,http://www.torfaen.gov.uk/,-3.00336400000000,NP44 8RA,2014-11-10,fhrs_4_en-GB,4,,FHRS,0
483017,,The Highway,"Croesyceiliog, Cwmbran",Torfaen,Owen Catering,Restaurant/Cafe/Canteen,1,5,,102099,5,,51.65741200000000,33710,569,commercial.services@torfaen.gov.uk,Torfaen,http://www.torfaen.gov.uk/,-3.00459700000000,NP44 2HD,2014-02-24,fhrs_5_en-GB,5,,FHRS,5
483018,Gwent Constabulary Headquarters,Turnpike Road,Croesyceiliog,Cwmbran,Owen Catering - PHQ,Other catering premises,7841,5,,619437,10,,51.65202500000000,35843,569,commercial.services@torfaen.gov.uk,Torfaen,http://www.torfaen.gov.uk/,-3.00154300000000,NP44 2XJ,2013-12-12,fhrs_4_en-GB,4,,FHRS,5
483019,Pilkingtons Rugby Football Club,New Road,New Inn,Pontypool,P.I.L.C.S,Pub/bar/nightclub,7843,10,,77776,10,,51.68929200000000,18343,569,commercial.services@torfaen.gov.uk,Torfaen,http://www.torfaen.gov.uk/,-3.01861200000000,NP4 0TL,2013-06-14,fhrs_3_en-GB,3,,FHRS,5
483020,Padre Pio Rc Primary School,Conway Road,Pontypool,,Padre Pio RC Primary School,School/college/university,7845,5,,101591,0,,51.70476100000000,33290,569,commercial.services@torfaen.gov.uk,Torfaen,http://www.torfaen.gov.uk/,-3.04683200000000,NP4 6HL,2013-10-15,fhrs_5_en-GB,5,,FHRS,5
483021,,Woodside Road,Cwmbran,,Pages Fish & Chips,Restaurant/Cafe/Canteen,1,5,,187376,0,,51.65464200000000,34824,569,commercial.services@torfaen.gov.uk,Torfaen,http://www.torfaen.gov.uk/,-3.02652200000000,NP44 3EW,2015-01-15,fhrs_5_en-GB,5,,FHRS,5
483022,,126 Greenhill Road,Sebastopol,Pontypool,Pages Fish Bar Ltd,Takeaway/sandwich shop,7844,5,,50014,0,,51.67899200000000,11118,569,commercial.services@torfaen.gov.uk,Torfaen,http://www.torfaen.gov.uk/,-3.02539500000000,NP4 5BQ,2014-04-29,fhrs_4_en-GB,4,,FHRS,10
483023,,7 Llanyravon Square,Llanyravon,Cwmbran,Panini's Sandwich Bar,Takeaway/sandwich shop,7844,5,,101404,5,,51.64616000000000,33138,569,commercial.services@torfaen.gov.uk,Torfaen,http://www.torfaen.gov.uk/,-3.00710800000000,NP44 8HS,2013-10-25,fhrs_5_en-GB,5,,FHRS,5
483024,,14-16 Fairwater Square,Fairwater,Cwmbran,Panshee Tandoori,Takeaway/sandwich shop,7844,10,,589075,15,,51.64467300000000,35319,569,commercial.services@torfaen.gov.uk,Torfaen,http://www.torfaen.gov.uk/,-3.04758600000000,NP44 4TA,2013-09-26,fhrs_2_en-GB,2,,FHRS,10
483025,Panteg House,Greenhill Road,Sebastopol,Pontypool,Panteg Employees Club,Pub/bar/nightclub,7843,20,,574203,10,,51.68324900000000,11367,569,commercial.services@torfaen.gov.uk,Torfaen,http://www.torfaen.gov.uk/,-3.02799400000000,NP4 5BE,2014-10-14,fhrs_0_en-GB,0,,FHRS,25
483026,,35-37a Wern Road,Sebastopol,Pontypool,Panteg Nursing Home,Hospitals/Childcare/Caring Premises,5,5,,84323,5,,51.68067000000000,20957,569,commercial.services@torfaen.gov.uk,Torfaen,http://www.torfaen.gov.uk/,-3.02262700000000,NP4 5DT,2015-01-07,fhrs_5_en-GB,5,,FHRS,5
483027,"Unit 2, Central Trading Supplies Estate",Oldbury Road,Old Cwmbran,Cwmbran,Paprika Indian Takeaway,Takeaway/sandwich shop,7844,10,,666544,10,,51.64582200000000,36083,569,commercial.services@torfaen.gov.uk,Torfaen,http://www.torfaen.gov.uk/,-3.02122100000000,NP44 3FF,2014-05-15,fhrs_3_en-GB,3,,FHRS,10
483028,Crane Street Mews,Crane Street,Pontypool,,Parbin Tandoori,Takeaway/sandwich shop,7844,10,,96981,10,,51.70196600000000,29949,569,commercial.services@torfaen.gov.uk,Torfaen,http://www.torfaen.gov.uk/,-3.04165900000000,NP4 6NA,2014-03-25,fhrs_3_en-GB,3,,FHRS,10
483029,Pavilion Garage,Osborne Road,Pontypool,,Pavilion Service Station,Retailers - other,4613,10,,95987,5,,51.70885500000000,28934,569,commercial.services@torfaen.gov.uk,Torfaen,http://www.torfaen.gov.uk/,-3.04856200000000,NP4 6NR,2014-03-12,fhrs_3_en-GB,3,,FHRS,10
483030,Ty-Bryn,Grove Park,Pontnewydd,Cwmbran,Peggy Jacks,Other catering premises,7841,5,,221401,5,,51.66702400000000,35041,569,commercial.services@torfaen.gov.uk,Torfaen,http://www.torfaen.gov.uk/,-3.02437300000000,NP44 1RW,2012-03-07,fhrs_5_en-GB,5,,FHRS,5
483031,1 Pentwyn Terrace,Pentwyn Road,Pentwyn,Pontypool,Pentwyn Post Office (Shop),Retailers - other,4613,10,,466821,10,,51.72071000000000,29635,569,commercial.services@torfaen.gov.uk,Torfaen,http://www.torfaen.gov.uk/,-3.06405100000000,NP4 7TH,2013-03-04,fhrs_3_en-GB,3,,FHRS,5
483032,,Penygarn Road,Penygarn,Pontypool,Penygarn Community Primary School,School/college/university,7845,5,,63986,0,,51.70946100000000,14145,569,commercial.services@torfaen.gov.uk,Torfaen,http://www.torfaen.gov.uk/,-3.03488400000000,NP4 8JR,2013-10-08,fhrs_5_en-GB,5,,FHRS,5
483033,,11 Edlogan Square,Croesyceiliog,Cwmbran,Perfect BBQ,Takeaway/sandwich shop,7844,5,,103056,5,,51.66356900000000,34475,569,commercial.services@torfaen.gov.uk,Torfaen,http://www.torfaen.gov.uk/,-3.01006800000000,NP44 2NR,2014-06-11,fhrs_5_en-GB,5,,FHRS,5
483034,,13c Victoria Street,Old Cwmbran,Cwmbran,Periams Newsagents,Retailers - other,4613,5,,98261,5,,51.64758000000000,30912,569,commercial.services@torfaen.gov.uk,Torfaen,http://www.torfaen.gov.uk/,-3.02273500000000,NP44 3JS,2013-10-15,fhrs_4_en-GB,4,,FHRS,10
483035,"Stall 24, The Market Hall",Market Street,Pontypool,,Phil's Pantry,Retailers - other,4613,10,,96311,10,,51.70220400000000,29152,569,commercial.services@torfaen.gov.uk,Torfaen,http://www.torfaen.gov.uk/,-3.04112900000000,NP4 6JN,2014-04-29,fhrs_3_en-GB,3,,FHRS,10
483036,Community Hall,Pandy,Greenmeadow,Cwmbran,Pilgrim Lunch Club,Other catering premises,7841,10,,145290,5,,51.65086000000000,857,569,commercial.services@torfaen.gov.uk,Torfaen,http://www.torfaen.gov.uk/,-3.04136800000000,NP44 4LA,2012-10-17,fhrs_4_en-GB,4,,FHRS,5
483037,Unit 31,John Baker Close,Llantarnam,Cwmbran,Pizza Dough,Takeaway/sandwich shop,7844,10,,455064,15,,51.63653000000000,35229,569,commercial.services@torfaen.gov.uk,Torfaen,http://www.torfaen.gov.uk/,-3.01958200000000,NP44 3AX,2014-04-24,fhrs_2_en-GB,2,,FHRS,10
483038,Unit 2 Morrisons Carpark,Grange Road,Cwmbran,,Pizza Hut Delivery,Takeaway/sandwich shop,7844,5,,699382,5,,51.65111200000000,36196,569,commercial.services@torfaen.gov.uk,Torfaen,http://www.torfaen.gov.uk/,-3.01777000000000,NP44 3XU,2014-08-19,fhrs_4_en-GB,4,,FHRS,10
483039,,23 St Lukes Road,Pontnewynydd,Pontypool,Pizza Pronto,Takeaway/sandwich shop,7844,10,,91933,15,,51.71151000000000,25674,569,commercial.services@torfaen.gov.uk,Torfaen,http://www.torfaen.gov.uk/,-3.05431100000000,NP4 6SU,2014-10-07,fhrs_2_en-GB,2,,FHRS,10
483040,,Plasycoed Road,Pontnewynydd,Pontypool,Plas-y-Coed Guest House,Restaurant/Cafe/Canteen,1,5,,41965,5,,51.69794400000000,10374,569,commercial.services@torfaen.gov.uk,Torfaen,http://www.torfaen.gov.uk/,-3.07882600000000,NP4 6UE,2011-10-10,fhrs_5_en-GB,5,,FHRS,5
483041,Plas-Y-Garn Residential Home,Lower Park Gardens,Penygarn,Pontypool,Plas-Y-Garn HFOP,Hospitals/Childcare/Caring Premises,5,5,,96903,0,,51.70512500000000,29855,569,commercial.services@torfaen.gov.uk,Torfaen,http://www.torfaen.gov.uk/,-3.03824400000000,NP4 8DB,2013-12-02,fhrs_5_en-GB,5,,FHRS,0
483042,Pontnewydd Primary School,Bryn Celyn Road,Pontnewydd,Cwmbran,Playdays Playgroup (within Pontnewydd Primary School),Hospitals/Childcare/Caring Premises,5,10,,101790,5,,51.66131700000000,33458,569,commercial.services@torfaen.gov.uk,Torfaen,http://www.torfaen.gov.uk/,-3.03533400000000,NP44 1JW,2012-07-03,fhrs_4_en-GB,4,,FHRS,5
483043,Pontnewydd Primary School,Bryn Celyn Road,Pontnewydd,Cwmbran,Playworks Club 2000 (within Pontnewydd Primary School),Hospitals/Childcare/Caring Premises,5,5,,101789,5,,51.66131700000000,33457,569,commercial.services@torfaen.gov.uk,Torfaen,http://www.torfaen.gov.uk/,-3.03533400000000,NP44 1JW,2010-11-17,fhrs_5_en-GB,5,,FHRS,5
483044,Llantarnam Hall,Malpas Road,Llantarnam,Cwmbran,Playworks Rougemont (within Rougemont School),Hospitals/Childcare/Caring Premises,5,5,,102579,5,,51.61985700000000,34087,569,commercial.services@torfaen.gov.uk,Torfaen,http://www.torfaen.gov.uk/,-3.01155300000000,NP20 6QB,2010-07-20,fhrs_5_en-GB,5,,FHRS,0
483045,St Davids Rc Primary School,Caldicot Way,Pontrhydyrun,Cwmbran,Playworks St Davids (within St David's RC School),Hospitals/Childcare/Caring Premises,5,5,,102576,5,,51.66263100000000,34084,569,commercial.services@torfaen.gov.uk,Torfaen,http://www.torfaen.gov.uk/,-3.01973400000000,NP44 1UF,2010-06-30,fhrs_5_en-GB,5,,FHRS,5
483046,Unit 20,Llantarnam Industrial Estate,Llantarnam,Cwmbran,Polly's Buffets,Other catering premises,7841,10,,641670,5,,51.63448300000000,36023,569,commercial.services@torfaen.gov.uk,Torfaen,http://www.torfaen.gov.uk/,-3.01924700000000,NP44 3AU,2014-03-10,fhrs_3_en-GB,3,,FHRS,10
483047,,Polo Grounds,"New Inn, Pontypool",Torfaen,Polo Grounds Diner,Restaurant/Cafe/Canteen,1,10,,96957,10,,51.69145200000000,29920,569,commercial.services@torfaen.gov.uk,Torfaen,http://www.torfaen.gov.uk/,-3.01524600000000,NP4 0TW,2013-10-29,fhrs_3_en-GB,3,,FHRS,10
483048,Zion Baptist Chapel,Station Road,Ponthir,Cwmbran,Ponthir Baptist Church,Other catering premises,7841,5,,465702,5,,51.62990800000000,35244,569,commercial.services@torfaen.gov.uk,Torfaen,http://www.torfaen.gov.uk/,-2.97454400000000,NP18 1GU,2012-11-06,fhrs_5_en-GB,5,,FHRS,5
483049,,School Close,Ponthir,Cwmbran,Ponthir Church in Wales School,School/college/university,7845,5,,142212,0,,51.63181100000000,7880,569,commercial.services@torfaen.gov.uk,Torfaen,http://www.torfaen.gov.uk/,-2.97825500000000,NP18 1GA,2014-01-07,fhrs_5_en-GB,5,,FHRS,0
483050,Ponthir House Inn,Caerleon Road,Ponthir,Cwmbran,Ponthir House,Pub/bar/nightclub,7843,10,,98194,5,,51.62841600000000,30856,569,commercial.services@torfaen.gov.uk,Torfaen,http://www.torfaen.gov.uk/,-2.96795300000000,NP18 1PG,2014-02-06,fhrs_4_en-GB,4,,FHRS,5
483051,,4 New Street,Pontnewydd,Cwmbran,Pontnewydd Fish Bar,Takeaway/sandwich shop,7844,5,,100727,5,,51.66155900000000,32546,569,commercial.services@torfaen.gov.uk,Torfaen,http://www.torfaen.gov.uk/,-3.02514600000000,NP44 1EE,2014-11-12,fhrs_5_en-GB,5,,FHRS,5
483052,,60 Commercial Street,Pontnewydd,Cwmbran,Pontnewydd General Stores,Retailers - other,4613,10,,455065,5,,51.66112300000000,35240,569,commercial.services@torfaen.gov.uk,Torfaen,http://www.torfaen.gov.uk/,-3.02668300000000,NP44 1AE,2013-12-09,fhrs_3_en-GB,3,,FHRS,10
483053,Maesgwyn Farm,Tranters Terrace,Pontnewydd,Cwmbran,Pontnewydd Golf Club,Pub/bar/nightclub,7843,10,,455061,5,,51.66916100000000,24629,569,commercial.services@torfaen.gov.uk,Torfaen,http://www.torfaen.gov.uk/,-3.03802900000000,NP44 1AB,2014-02-19,fhrs_4_en-GB,4,,FHRS,0
483054,Pontnewydd Primary School,Bryn Celyn Road,Pontnewydd,Cwmbran,Pontnewydd Primary School,School/college/university,7845,5,,92455,0,,51.66131700000000,26038,569,commercial.services@torfaen.gov.uk,Torfaen,http://www.torfaen.gov.uk/,-3.03533400000000,NP44 1JW,2014-01-07,fhrs_5_en-GB,5,,FHRS,0
483055,Pontnewydd Workingmens Club & Institute,Chapel Street,Pontnewydd,Cwmbran,Pontnewydd Workingmens Club,Pub/bar/nightclub,7843,5,,94788,5,,51.65870000000000,27943,569,commercial.services@torfaen.gov.uk,Torfaen,http://www.torfaen.gov.uk/,-3.02616600000000,NP44 1DL,2013-02-14,fhrs_4_en-GB,4,,FHRS,10
483056,,Zion Hill,Pontnewynydd,Pontypool,Pontnewynydd Community Centre,Pub/bar/nightclub,7843,10,,211125,5,,51.71114300000000,550,569,commercial.services@torfaen.gov.uk,Torfaen,http://www.torfaen.gov.uk/,-3.06109100000000,NP4 6QS,2014-03-28,fhrs_4_en-GB,4,,FHRS,5
483057,Pontnewynydd Cricket Club,Pentrepiod Road,Pontnewynydd,Pontypool,Pontnewynydd Cricket Club,Pub/bar/nightclub,7843,5,,574204,5,,51.71293200000000,11368,569,commercial.services@torfaen.gov.uk,Torfaen,http://www.torfaen.gov.uk/,-3.06307200000000,NP4 6RP,2013-10-18,fhrs_5_en-GB,5,,FHRS,5
483058,Pontnewynydd Primary School,Lower Leigh Road,Pontnewynydd,Pontypool,Pontnewynydd Primary School,School/college/university,7845,5,,84293,0,,51.71658400000000,20937,569,commercial.services@torfaen.gov.uk,Torfaen,http://www.torfaen.gov.uk/,-3.05590600000000,NP4 8LQ,2014-06-26,fhrs_5_en-GB,5,,FHRS,5
483059,,Hospital Road,Pontnewynydd,Pontypool,Pontnewynydd Sports and Social Club,Pub/bar/nightclub,7843,10,,101671,5,,51.71122200000000,33349,569,commercial.services@torfaen.gov.uk,Torfaen,http://www.torfaen.gov.uk/,-3.04925300000000,NP4 8LE,2014-11-26,fhrs_3_en-GB,3,,FHRS,10
483060,Pontrhydyrun Baptist Church,Chapel Lane,Croesyceiliog,Cwmbran,Pontrhydyrun Baptist Church,Other catering premises,7841,0,,209164,0,,51.66607600000000,20973,569,commercial.services@torfaen.gov.uk,Torfaen,http://www.torfaen.gov.uk/,-3.00710200000000,NP44 2ND,2015-01-15,fhrs_5_en-GB,5,,FHRS,0
483061,Pontypool Active Living Centre,Trosnant Street,Pontypool,,Pontymoile under fives (within Pontypool Active Living Centre),Hospitals/Childcare/Caring Premises,5,5,,100400,5,,51.70128700000000,32237,569,commercial.services@torfaen.gov.uk,Torfaen,http://www.torfaen.gov.uk/,-3.03504500000000,NP4 8AT,2011-03-14,fhrs_5_en-GB,5,,FHRS,0
483062,Pontypool Active Living Centre,Trosnant Street,Pontypool,,Pontypool Active Living Centre,Restaurant/Cafe/Canteen,1,5,,654833,0,,51.70128700000000,36118,569,commercial.services@torfaen.gov.uk,Torfaen,http://www.torfaen.gov.uk/,-3.03504500000000,NP4 8AT,2014-04-14,fhrs_5_en-GB,5,,FHRS,5
483063,Pontypool Golf Club,Lasgarn Lane,Trevethin,Pontypool,Pontypool Golf Club,Pub/bar/nightclub,7843,5,,50887,5,,51.72581900000000,11358,569,commercial.services@torfaen.gov.uk,Torfaen,http://www.torfaen.gov.uk/,-3.04178700000000,NP4 8TR,2014-11-18,fhrs_5_en-GB,5,,FHRS,0
483064,5 Town Bridge Buildings,Park Road,Pontypool,,Pontypool Indian Cuisine,Restaurant/Cafe/Canteen,1,10,,124590,15,,51.70359400000000,531,569,commercial.services@torfaen.gov.uk,Torfaen,http://www.torfaen.gov.uk/,-3.04049500000000,NP4 6JE,2014-07-08,fhrs_2_en-GB,2,,FHRS,15
483065,Masonic Hall,Trosnant Street,Pontypool,,Pontypool Masonic Hall,Pub/bar/nightclub,7843,10,,50908,5,,51.70128700000000,11365,569,commercial.services@torfaen.gov.uk,Torfaen,http://www.torfaen.gov.uk/,-3.03504500000000,NP4 8AT,2013-07-09,fhrs_3_en-GB,3,,FHRS,10
483066,Pontypool United Rugby Club,Conway Road,Pontypool,,Pontypool United RFC,Pub/bar/nightclub,7843,10,,145370,5,,51.70476100000000,86,569,commercial.services@torfaen.gov.uk,Torfaen,http://www.torfaen.gov.uk/,-3.04683200000000,NP4 6HL,2013-10-30,fhrs_3_en-GB,3,,FHRS,10
483067,Pontypool Working Mens Club,Broadway,Pontypool,,Pontypool Workingmens Club,Pub/bar/nightclub,7843,10,,574353,5,,51.70380700000000,91,569,commercial.services@torfaen.gov.uk,Torfaen,http://www.torfaen.gov.uk/,-3.04494300000000,NP4 6HN,2015-01-05,fhrs_3_en-GB,3,,FHRS,10
483068,Maesderwen House,Maesderwen Road,Pontymoile,Pontypool,Poppies Day Nursery,Hospitals/Childcare/Caring Premises,5,5,,91799,0,,51.69678600000000,25542,569,commercial.services@torfaen.gov.uk,Torfaen,http://www.torfaen.gov.uk/,-3.02942900000000,NP4 5LE,2014-05-12,fhrs_5_en-GB,5,,FHRS,5
483069,,26 Market Street,Pontypool,,Porky's Pizzeria,Takeaway/sandwich shop,7844,5,,62652,5,,51.70220400000000,13846,569,commercial.services@torfaen.gov.uk,Torfaen,http://www.torfaen.gov.uk/,-3.04112900000000,NP4 6JN,2015-01-13,fhrs_4_en-GB,4,,FHRS,10
483070,Poundland,5-7 North Walk,Cwmbran,,Poundland Ltd,Retailers - other,4613,0,,426721,0,,51.65485500000000,30514,569,commercial.services@torfaen.gov.uk,Torfaen,http://www.torfaen.gov.uk/,-3.02165600000000,NP44 1PR,2012-07-18,fhrs_5_en-GB,5,,FHRS,5
483071,,26 Broad Street,Blaenavon,Pontypool,Premier (Blaenavon Stores),Retailers - other,4613,20,,494114,15,,51.77339400000000,35389,569,commercial.services@torfaen.gov.uk,Torfaen,http://www.torfaen.gov.uk/,-3.08440700000000,NP4 9NE,2014-07-22,fhrs_1_en-GB,1,,FHRS,15
483072,Thornhill Foodstore,Leadon Court,Thornhill,Cwmbran,Premier (Thornhill Food Stores),Retailers - other,4613,10,,137286,5,,51.65677300000000,721,569,commercial.services@torfaen.gov.uk,Torfaen,http://www.torfaen.gov.uk/,-3.05088600000000,NP44 5TZ,2012-07-31,fhrs_3_en-GB,3,,FHRS,10
483073,Premier Stores,Channel View,Penygarn,Pontypool,Premier Express,Retailers - other,4613,10,,91638,5,,51.70598000000000,25414,569,commercial.services@torfaen.gov.uk,Torfaen,http://www.torfaen.gov.uk/,-3.03503600000000,NP4 8BN,2013-06-12,fhrs_3_en-GB,3,,FHRS,10
483074,,15 Edlogan Square,Croesyceiliog,Cwmbran,Premier Stores,Retailers - other,4613,10,,621011,0,,51.66356900000000,35765,569,commercial.services@torfaen.gov.uk,Torfaen,http://www.torfaen.gov.uk/,-3.01006800000000,NP44 2NR,2013-12-17,fhrs_4_en-GB,4,,FHRS,10
483075,Tintern House,William Brown Close,Llantarnam,Cwmbran,Premiumstar T/A Dial,Restaurant/Cafe/Canteen,1,5,,99934,10,,51.63161100000000,31861,569,commercial.services@torfaen.gov.uk,Torfaen,http://www.torfaen.gov.uk/,-3.00931400000000,NP44 3AB,2015-01-06,fhrs_3_en-GB,3,,FHRS,10
483076,Llantarnam Community Primary School,Green Willows,Oakfield,Cwmbran,Puddleducks Playgroup and Nursery Wraparound,Hospitals/Childcare/Caring Premises,5,10,,627814,5,,51.63946900000000,35937,569,commercial.services@torfaen.gov.uk,Torfaen,http://www.torfaen.gov.uk/,-3.01454700000000,NP44 3HA,2014-01-17,fhrs_3_en-GB,3,,FHRS,10
483077,Queen Victoria Inn,Prince Street,Blaenavon,Pontypool,Queen Victoria Inn and Bed & Breakfast,Pub/bar/nightclub,7843,20,,547880,20,,51.77187900000000,35534,569,commercial.services@torfaen.gov.uk,Torfaen,http://www.torfaen.gov.uk/,-3.08582000000000,NP4 9BD,2014-09-12,fhrs_0_en-GB,0,,FHRS,15
483078,,19 North Walk,Cwmbran,,Rabaiotti's,Restaurant/Cafe/Canteen,1,5,,102794,5,,51.65485500000000,34247,569,commercial.services@torfaen.gov.uk,Torfaen,http://www.torfaen.gov.uk/,-3.02165600000000,NP44 1PR,2013-12-09,fhrs_4_en-GB,4,,FHRS,10
483079,,84 Ashleigh Court,Henllys,Cwmbran,Raspberry Catering,Other catering premises,7841,5,,103054,0,,51.63953800000000,34474,569,commercial.services@torfaen.gov.uk,Torfaen,http://www.torfaen.gov.uk/,-3.05570400000000,NP44 6HG,2013-03-07,fhrs_5_en-GB,5,,FHRS,0
483080,Unit 2,New Road,New Inn,Pontypool,Raspberry Catering,Other catering premises,7841,5,,666547,5,,51.68929200000000,36107,569,commercial.services@torfaen.gov.uk,Torfaen,http://www.torfaen.gov.uk/,-3.01861200000000,NP4 0TL,2014-06-04,fhrs_5_en-GB,5,,FHRS,0
483081,Redz Snooker Club,Oldbury Road,Old Cwmbran,Cwmbran,Redz Snooker Club,Pub/bar/nightclub,7843,5,,145219,5,,51.64495800000000,855,569,commercial.services@torfaen.gov.uk,Torfaen,http://www.torfaen.gov.uk/,-3.02030600000000,NP44 3JU,2012-07-18,fhrs_4_en-GB,4,,FHRS,10
483082,,Parkes Lane,Tranch,Pontypool,Regency House Residential Home,Hospitals/Childcare/Caring Premises,5,5,,92716,5,,51.69993300000000,26245,569,commercial.services@torfaen.gov.uk,Torfaen,http://www.torfaen.gov.uk/,-3.05379600000000,NP4 6BA,2014-11-11,fhrs_5_en-GB,5,,FHRS,5
483083,,47 South Street,Sebastopol,Pontypool,Reliance General Stores,Retailers - other,4613,10,,69540,5,,51.67701700000000,1565,569,commercial.services@torfaen.gov.uk,Torfaen,http://www.torfaen.gov.uk/,-3.02185100000000,NP4 5DZ,2012-08-20,fhrs_3_en-GB,3,,FHRS,10
483084,,11 Richmond Road,Pontnewydd,Cwmbran,Richmond Wines,Retailers - other,4613,10,,99957,5,,51.66153700000000,31894,569,commercial.services@torfaen.gov.uk,Torfaen,http://www.torfaen.gov.uk/,-3.02558000000000,NP44 1EG,2014-10-27,fhrs_4_en-GB,4,,FHRS,5
483085,,Rifle Street,Blaenavon,,Riflemans Arms,Pub/bar/nightclub,7843,5,,45207,5,,51.77903200000000,10971,569,commercial.services@torfaen.gov.uk,Torfaen,http://www.torfaen.gov.uk/,-3.08433900000000,NP4 9QS,2013-09-25,fhrs_5_en-GB,5,,FHRS,0
483086,Crown Buildings,Station Street,Abersychan,Pontypool,Rising Sun Chinese Takeaway,Takeaway/sandwich shop,7844,10,,102761,10,,51.72425800000000,34218,569,commercial.services@torfaen.gov.uk,Torfaen,http://www.torfaen.gov.uk/,-3.05843000000000,NP4 8PH,2013-07-16,fhrs_3_en-GB,3,,FHRS,10
483087,Rising Sun,Cwmavon Road,Abersychan,Pontypool,Rising Sun Inn,Pub/bar/nightclub,7843,5,,41972,10,,51.73213000000000,10376,569,commercial.services@torfaen.gov.uk,Torfaen,http://www.torfaen.gov.uk/,-3.05901900000000,NP4 8PP,2014-07-30,fhrs_3_en-GB,3,,FHRS,10
483088,,77 Commercial Road,Talywain,Pontypool,"Rominos Family Fish Bar, Pizza & Kebab",Takeaway/sandwich shop,7844,5,,629176,5,,51.73055300000000,35987,569,commercial.services@torfaen.gov.uk,Torfaen,http://www.torfaen.gov.uk/,-3.07129100000000,NP4 7HX,2014-01-20,fhrs_4_en-GB,4,,FHRS,10
483089,,Rockhill Road,Pontymoile,Pontypool,Rontec Pontypool (Esso),Retailers - other,4613,10,,700494,10,,51.69814000000000,36230,569,commercial.services@torfaen.gov.uk,Torfaen,http://www.torfaen.gov.uk/,-3.02891000000000,NP4 8AN,2014-09-09,fhrs_3_en-GB,3,,FHRS,10
483090,Llantarnam Hall,Malpas Road,Llantarnam,Cwmbran,Rougemont School Catering,School/college/university,7845,5,,95183,5,,51.61985700000000,28194,569,commercial.services@torfaen.gov.uk,Torfaen,http://www.torfaen.gov.uk/,-3.01155300000000,NP20 6QB,2014-03-18,fhrs_5_en-GB,5,,FHRS,5
483091,Rowan House,Commercial Street,Griffithstown,Pontypool,Rowan House,Hospitals/Childcare/Caring Premises,5,5,,715761,5,,51.68688500000000,36333,569,commercial.services@torfaen.gov.uk,Torfaen,http://www.torfaen.gov.uk/,-3.02447400000000,NP4 5JE,2014-11-13,fhrs_5_en-GB,5,,FHRS,0
483092,,1 St Matthews Road,Cwmfields,Pontypool,Rowlands,Retailers - other,4613,10,,138045,5,,51.69756400000000,732,569,commercial.services@torfaen.gov.uk,Torfaen,http://www.torfaen.gov.uk/,-3.03510500000000,NP4 5JY,2012-07-31,fhrs_4_en-GB,4,,FHRS,5
483093,Royal Oak,George Street,Pontnewynydd,Pontypool,Royal Oak,Pub/bar/nightclub,7843,5,,574188,5,,51.71334800000000,10346,569,commercial.services@torfaen.gov.uk,Torfaen,http://www.torfaen.gov.uk/,-3.05483200000000,NP4 8PA,2014-10-10,fhrs_4_en-GB,4,,FHRS,10
483094,The Citadel,Park Road,Pontypool,,Salvation Army,Other catering premises,7841,5,,100769,5,,51.70369000000000,32581,569,commercial.services@torfaen.gov.uk,Torfaen,http://www.torfaen.gov.uk/,-3.03880400000000,NP4 6JH,2013-10-29,fhrs_5_en-GB,5,,FHRS,5
483095,,22b St Lukes Road,Pontnewynydd,Pontypool,Sandwich Express,Takeaway/sandwich shop,7844,5,,715190,10,,51.71151000000000,36137,569,commercial.services@torfaen.gov.uk,Torfaen,http://www.torfaen.gov.uk/,-3.05431100000000,NP4 6SU,2014-11-06,fhrs_4_en-GB,4,,FHRS,5
483096,,15 Commercial Street,Griffithstown,Pontypool,Sarah's Little Kitchen,Other catering premises,7841,5,,462816,5,,51.68525400000000,35303,569,commercial.services@torfaen.gov.uk,Torfaen,http://www.torfaen.gov.uk/,-3.02388800000000,NP4 5JF,2012-10-31,fhrs_5_en-GB,5,,FHRS,5
483097,,8 Danygraig,Croesyceiliog,Cwmbran,Scoopsa-Daisy,Mobile caterer,7846,5,,680203,5,,51.66804500000000,36154,569,commercial.services@torfaen.gov.uk,Torfaen,http://www.torfaen.gov.uk/,-3.01239400000000,NP44 2PR,2014-06-14,fhrs_5_en-GB,5,,FHRS,5
483098,The Scrum Half,Market Street,Pontypool,,Scrum Half II,Pub/bar/nightclub,7843,5,,102770,5,,51.70220400000000,34224,569,commercial.services@torfaen.gov.uk,Torfaen,http://www.torfaen.gov.uk/,-3.04112900000000,NP4 6JN,2010-07-28,fhrs_5_en-GB,5,,FHRS,5
483099,,Wern Road,Sebastopol,Pontypool,Sebastopol Social Club,Pub/bar/nightclub,7843,10,,250412,5,,51.67893900000000,11373,569,commercial.services@torfaen.gov.uk,Torfaen,http://www.torfaen.gov.uk/,-3.02312300000000,NP4 5DU,2014-03-25,fhrs_3_en-GB,3,,FHRS,10
483100,,School Close,Ponthir,Cwmbran,Seren Fach Nursery,Hospitals/Childcare/Caring Premises,5,5,,99672,5,,51.63181100000000,31644,569,commercial.services@torfaen.gov.uk,Torfaen,http://www.torfaen.gov.uk/,-2.97825500000000,NP18 1GA,2013-07-16,fhrs_5_en-GB,5,,FHRS,0
483101,Burtons Gold Medal Biscuits Ltd,Newport Road,Llantarnam,Cwmbran,Servest Catering Limited (Burtons Staff Canteen),Restaurant/Cafe/Canteen,1,5,,102552,5,,51.63679800000000,34058,569,commercial.services@torfaen.gov.uk,Torfaen,http://www.torfaen.gov.uk/,-3.00411200000000,NP44 3YL,2014-12-11,fhrs_4_en-GB,4,,FHRS,10
483102,Green View,The Highway,New Inn,Pontypool,Shaheen Tandoori,Takeaway/sandwich shop,7844,10,,587033,10,,51.68851600000000,35710,569,commercial.services@torfaen.gov.uk,Torfaen,http://www.torfaen.gov.uk/,-3.00845300000000,NP4 0PN,2014-09-30,fhrs_3_en-GB,3,,FHRS,10
483103,Roundabout Service Station,Service Station A4042(T),Pontymoile,Pontypool,Shell Folly Tower,Retailers - other,4613,5,,565756,5,,51.69274100000000,35535,569,commercial.services@torfaen.gov.uk,Torfaen,http://www.torfaen.gov.uk/,-3.02104800000000,NP4 0XB,2015-01-05,fhrs_5_en-GB,5,,FHRS,0
483104,"Shell, Service Station",Henllys Way,Cwmbran,,Shell UK (Henllys Way Service Station),Retailers - other,4613,5,,574347,5,,51.64466500000000,6714,569,commercial.services@torfaen.gov.uk,Torfaen,http://www.torfaen.gov.uk/,-3.02505400000000,NP44 3JA,2013-10-24,fhrs_5_en-GB,5,,FHRS,5
483105,,19 Five Locks Road,Pontnewydd,Cwmbran,Silcox Stores,Retailers - other,4613,5,,136056,5,,51.66644000000000,701,569,commercial.services@torfaen.gov.uk,Torfaen,http://www.torfaen.gov.uk/,-3.02946400000000,NP44 1AP,2011-08-01,fhrs_5_en-GB,5,,FHRS,5
483106,,17 Commercial Street,Pontnewydd,Cwmbran,Silcox Stores,Retailers - other,4613,5,,64420,10,,51.66129700000000,14311,569,commercial.services@torfaen.gov.uk,Torfaen,http://www.torfaen.gov.uk/,-3.02528500000000,NP44 1DY,2014-10-27,fhrs_4_en-GB,4,,FHRS,5
483107,Llantarnam Abbey,Newport Road,Llantarnam,Cwmbran,Sisters of St Joseph of Annecy,Other catering premises,7841,0,,198199,0,,51.63080600000000,34989,569,commercial.services@torfaen.gov.uk,Torfaen,http://www.torfaen.gov.uk/,-2.99617800000000,NP44 3YJ,2014-01-16,fhrs_5_en-GB,5,,FHRS,5
483108,,26 The Parade,Cwmbran,,Sitting Pretty,Restaurant/Cafe/Canteen,1,20,,101514,15,,51.65334900000000,33228,569,commercial.services@torfaen.gov.uk,Torfaen,http://www.torfaen.gov.uk/,-3.02212800000000,NP44 1PT,2014-10-21,fhrs_1_en-GB,1,,FHRS,15
483109,Skippys Bar,3 Charles Street,Griffithstown,Pontypool,Skippy's,Pub/bar/nightclub,7843,5,,99638,5,,51.68717500000000,31613,569,commercial.services@torfaen.gov.uk,Torfaen,http://www.torfaen.gov.uk/,-3.02627500000000,NP4 5HG,2013-11-21,fhrs_4_en-GB,4,,FHRS,10
483110,,21 George Street,Pontypool,,Snack Attack,Takeaway/sandwich shop,7844,5,,96635,5,,51.70362200000000,29552,569,commercial.services@torfaen.gov.uk,Torfaen,http://www.torfaen.gov.uk/,-3.04246400000000,NP4 6LR,2014-02-28,fhrs_4_en-GB,4,,FHRS,10
483111,Gwahaniaeth,Capel Newydd Avenue,Blaenavon,,Snack Bar,Mobile caterer,7846,0,,95458,0,,51.77039200000000,28433,569,commercial.services@torfaen.gov.uk,Torfaen,http://www.torfaen.gov.uk/,-3.07548000000000,NP4 9LN,2014-09-23,fhrs_5_en-GB,5,,FHRS,5
483112,The Stables,Llanover Road,Blaenavon,,Snow Cones,Distributors/Transporters,7,5,,521334,0,,51.76978100000000,35225,569,commercial.services@torfaen.gov.uk,Torfaen,http://www.torfaen.gov.uk/,-3.07042200000000,NP4 9HU,2014-06-14,fhrs_5_en-GB,5,,FHRS,5
483113,Unit 5,Forgehammer Industrial Estate,Cwmbran,,Snowycones Ltd,Retailers - other,4613,10,,434220,0,,51.65551000000000,35098,569,commercial.services@torfaen.gov.uk,Torfaen,http://www.torfaen.gov.uk/,-3.02794400000000,NP44 3AA,2012-08-02,fhrs_4_en-GB,4,,FHRS,5
483114,"c/o Family Learning Centre, Torfaen County Borough Council",The Highway,New Inn,Pontypool,Sonic Breakfast & After School Club,Hospitals/Childcare/Caring Premises,5,5,,103581,5,,51.69106100000000,34873,569,commercial.services@torfaen.gov.uk,Torfaen,http://www.torfaen.gov.uk/,-3.01057900000000,NP4 0PH,2011-09-27,fhrs_5_en-GB,5,,FHRS,5
483115,,2-3 Greenmeadow Square,Cwmbran,,Spar,Retailers - other,4613,5,,562751,0,,51.64535100000000,35545,569,commercial.services@torfaen.gov.uk,Torfaen,http://www.torfaen.gov.uk/,-3.03293200000000,NP44 4LQ,2014-11-27,fhrs_4_en-GB,4,,FHRS,10
483116,,33a High Street,Pontypool,,Spar,Retailers - other,4613,10,,574268,10,,51.70065900000000,32611,569,commercial.services@torfaen.gov.uk,Torfaen,http://www.torfaen.gov.uk/,-3.04605700000000,NP4 6HB,2014-10-13,fhrs_4_en-GB,4,,FHRS,0
483117,,9-13 Fairwater Square,Fairwater,Cwmbran,Spar Fairwater,Retailers - supermarkets/hypermarkets,7840,5,,590280,0,,51.64467300000000,35492,569,commercial.services@torfaen.gov.uk,Torfaen,http://www.torfaen.gov.uk/,-3.04758600000000,NP44 4TA,2013-10-07,fhrs_5_en-GB,5,,FHRS,5
483118,,68 The Highway,New Inn,Pontypool,Spar New Inn,Retailers - supermarkets/hypermarkets,7840,10,,562748,5,,51.68878700000000,35493,569,commercial.services@torfaen.gov.uk,Torfaen,http://www.torfaen.gov.uk/,-3.00832900000000,NP4 0PL,2013-11-28,fhrs_4_en-GB,4,,FHRS,5
483119,,7 Church Avenue,Trevethin,Pontypool,Spar Trevethin,Retailers - supermarkets/hypermarkets,7840,10,,562749,10,,51.71280800000000,35494,569,commercial.services@torfaen.gov.uk,Torfaen,http://www.torfaen.gov.uk/,-3.03979500000000,NP4 8DH,2014-11-24,fhrs_3_en-GB,3,,FHRS,10
483120,Unit 326,Woodside Way,Cwmbran,,Speedy Chopstix,Takeaway/sandwich shop,7844,10,,100646,5,,51.65689200000000,32468,569,commercial.services@torfaen.gov.uk,Torfaen,http://www.torfaen.gov.uk/,-3.03644700000000,NP44 5BR,2014-09-11,fhrs_3_en-GB,3,,FHRS,10
483121,Unit 327,Woodside Way,Cwmbran,,Springvale Catering Services,Restaurant/Cafe/Canteen,1,10,,145816,5,,51.65689200000000,8741,569,commercial.services@torfaen.gov.uk,Torfaen,http://www.torfaen.gov.uk/,-3.03644700000000,NP44 5BR,2014-11-26,fhrs_3_en-GB,3,,FHRS,10
483122,St Davids Rc Primary School,Caldicot Way,Pontrhydyrun,Cwmbran,St Davids RC Junior & Infants,School/college/university,7845,0,,79784,0,,51.66263100000000,19230,569,commercial.services@torfaen.gov.uk,Torfaen,http://www.torfaen.gov.uk/,-3.01973400000000,NP44 1UF,2014-05-16,fhrs_5_en-GB,5,,FHRS,5
483123,St Josephs Social Club,Blenheim Road,St Dials,Cwmbran,St Josephs Social Club,Pub/bar/nightclub,7843,10,,528481,5,,51.64902600000000,11333,569,commercial.services@torfaen.gov.uk,Torfaen,http://www.torfaen.gov.uk/,-3.03931700000000,NP44 4SY,2014-10-21,fhrs_4_en-GB,4,,FHRS,5
483124,,Caerleon Road,Ponthir,Cwmbran,Star Inn,Pub/bar/nightclub,7843,5,,41771,5,,51.63172200000000,10338,569,commercial.services@torfaen.gov.uk,Torfaen,http://www.torfaen.gov.uk/,-2.97699600000000,NP18 1GZ,2013-07-16,fhrs_5_en-GB,5,,FHRS,5
483125,,28 Gwent Square,Cwmbran,,Starbucks,Restaurant/Cafe/Canteen,1,10,,704824,10,,51.65330300000000,36282,569,commercial.services@torfaen.gov.uk,Torfaen,http://www.torfaen.gov.uk/,-3.02121600000000,NP44 1PS,2014-09-25,fhrs_3_en-GB,3,,FHRS,10
483126,,12 North Walk,Cwmbran,,Subway,Takeaway/sandwich shop,7844,5,,103364,5,,51.65485500000000,34709,569,commercial.services@torfaen.gov.uk,Torfaen,http://www.torfaen.gov.uk/,-3.02165600000000,NP44 1PR,2014-06-03,fhrs_5_en-GB,5,,FHRS,5
483127,,4 Crofts Corner,Greenmeadow,Cwmbran,Sugar Flowers,Other catering premises,7841,5,,574287,5,,51.65049300000000,33225,569,commercial.services@torfaen.gov.uk,Torfaen,http://www.torfaen.gov.uk/,-3.04319600000000,NP44 4RY,2015-02-12,fhrs_5_en-GB,5,,FHRS,5
483128,,24 Broad Street,Blaenavon,,Sugarloaf Catering,Other catering premises,7841,5,,672078,10,,51.77339400000000,36029,569,commercial.services@torfaen.gov.uk,Torfaen,http://www.torfaen.gov.uk/,-3.08440700000000,NP4 9NE,2014-06-16,fhrs_4_en-GB,4,,FHRS,5
483129,"Pughs Garden Centre, Treherbert Road Nursery",Treherbert Road,Croesyceiliog,Cwmbran,Sunnydale Garden Centre,Restaurant/Cafe/Canteen,1,0,,96404,5,,51.66855100000000,29256,569,commercial.services@torfaen.gov.uk,Torfaen,http://www.torfaen.gov.uk/,-3.00154600000000,NP44 2BZ,2014-08-19,fhrs_5_en-GB,5,,FHRS,5
483130,The Kiosk,The Mall,Cwmbran,,Sweet 66,Retailers - other,4613,10,,434225,5,,51.65291300000000,35199,569,commercial.services@torfaen.gov.uk,Torfaen,http://www.torfaen.gov.uk/,-3.02057100000000,NP44 1PX,2012-07-30,fhrs_3_en-GB,3,,FHRS,10
483131,,22 Bronllys Place,Croesyceiliog,Cwmbran,Sweet Experience Cart,Retailers - other,4613,5,,730948,5,,51.65983000000000,36391,569,commercial.services@torfaen.gov.uk,Torfaen,http://www.torfaen.gov.uk/,-3.01300600000000,NP44 2DW,2015-01-21,fhrs_5_en-GB,5,,FHRS,5
483132,,11 The Rise,Pontnewydd,Cwmbran,Sweet Tooth Candy Buffet,Other catering premises,7841,5,,479949,5,,51.66207000000000,35331,569,commercial.services@torfaen.gov.uk,Torfaen,http://www.torfaen.gov.uk/,-3.03663700000000,NP44 1JX,2012-11-19,fhrs_5_en-GB,5,,FHRS,5
483133,,79 Commercial Road,Talywain,Pontypool,Talywain Post Office (shop),Retailers - other,4613,10,,98577,0,,51.73055300000000,31079,569,commercial.services@torfaen.gov.uk,Torfaen,http://www.torfaen.gov.uk/,-3.07129100000000,NP4 7HX,2014-05-09,fhrs_4_en-GB,4,,FHRS,10
483134,Emlyn Park,Emlyn Road,Talywain,Pontypool,Talywain Rugby Football Club,Pub/bar/nightclub,7843,10,,50965,5,,51.73439800000000,11377,569,commercial.services@torfaen.gov.uk,Torfaen,http://www.torfaen.gov.uk/,-3.07453800000000,NP4 7RF,2014-02-26,fhrs_4_en-GB,4,,FHRS,0
483135,,Cwmynyscoy Road,Cwmynscoy,Pontypool,Tamarind Pontypool,Restaurant/Cafe/Canteen,1,10,,654828,15,,51.69249100000000,36075,569,commercial.services@torfaen.gov.uk,Torfaen,http://www.torfaen.gov.uk/,-3.04037100000000,NP4 5SG,2014-04-03,fhrs_2_en-GB,2,,FHRS,10
483136,The Tamarind,Blenheim Road,St Dials,Cwmbran,Tamarind Restaurant and Bar,Restaurant/Cafe/Canteen,1,5,,99385,0,,51.64902600000000,31374,569,commercial.services@torfaen.gov.uk,Torfaen,http://www.torfaen.gov.uk/,-3.03931700000000,NP44 4SY,2014-09-22,fhrs_5_en-GB,5,,FHRS,5
483137,,18 Nant Y Milwr Close,Henllys,Cwmbran,Tarnya Griffiths - Baking,Retailers - other,4613,5,,688423,0,,51.63540700000000,36195,569,commercial.services@torfaen.gov.uk,Torfaen,http://www.torfaen.gov.uk/,-3.05815200000000,NP44 6JW,2014-07-23,fhrs_5_en-GB,5,,FHRS,0
483138,,128 Osborne Road,Pontypool,,Taste Good Chinese Takeaway,Takeaway/sandwich shop,7844,10,,102643,10,,51.70420700000000,34136,569,commercial.services@torfaen.gov.uk,Torfaen,http://www.torfaen.gov.uk/,-3.04242000000000,NP4 6LT,2014-07-15,fhrs_3_en-GB,3,,FHRS,10
483139,,7 Pine Gardens,Tranch,Pontypool,Tasty Bites,Other catering premises,7841,5,,103018,5,,51.70007400000000,34436,569,commercial.services@torfaen.gov.uk,Torfaen,http://www.torfaen.gov.uk/,-3.05511600000000,NP4 6BS,2014-06-14,fhrs_5_en-GB,5,,FHRS,5
483140,1 Town Bridge Buildings,Park Road,Penygarn,Pontypool,Tasty Bites,Takeaway/sandwich shop,7844,5,,209160,10,,51.70359400000000,35019,569,commercial.services@torfaen.gov.uk,Torfaen,http://www.torfaen.gov.uk/,-3.04049500000000,NP4 6JE,2013-09-10,fhrs_4_en-GB,4,,FHRS,5
483141,,33 Broad Street,Blaenavon,Pontypool,Tea Room (c/o Pontypool & Blaenavon Railway),Restaurant/Cafe/Canteen,1,0,,101552,0,,51.77389000000000,33257,569,commercial.services@torfaen.gov.uk,Torfaen,http://www.torfaen.gov.uk/,-3.08414400000000,NP4 9NF,2014-12-13,fhrs_5_en-GB,5,,FHRS,5
483142,,17 Crown Rise,Llanfrechfa,Cwmbran,Teatime Desserts,Other catering premises,7841,10,,565758,5,,51.64587300000000,35538,569,commercial.services@torfaen.gov.uk,Torfaen,http://www.torfaen.gov.uk/,-3.00074300000000,NP44 8UG,2013-07-02,fhrs_4_en-GB,4,,FHRS,5
483143,Tesco,Lower Bridge Street,Pontypool,,Tesco,Retailers - supermarkets/hypermarkets,7840,0,,98349,0,,51.69976000000000,30983,569,commercial.services@torfaen.gov.uk,Torfaen,http://www.torfaen.gov.uk/,-3.03896000000000,NP4 6JU,2013-02-21,fhrs_5_en-GB,5,,FHRS,0
483144,Tesco's Express,Ty Gwyn Road,St Dials,Cwmbran,Tesco Express,Retailers - supermarkets/hypermarkets,7840,0,,102768,0,,51.65265900000000,34223,569,commercial.services@torfaen.gov.uk,Torfaen,http://www.torfaen.gov.uk/,-3.04531300000000,NP44 4LF,2013-12-12,fhrs_5_en-GB,5,,FHRS,0
483145,Tesco,Lower Bridge Street,Pontypool,,Tesco Family Dining Ltd,Restaurant/Cafe/Canteen,1,0,,707774,0,,51.69976000000000,36264,569,commercial.services@torfaen.gov.uk,Torfaen,http://www.torfaen.gov.uk/,-3.03896000000000,NP4 6JU,2014-10-08,fhrs_5_en-GB,5,,FHRS,0
483146,Unit 103,Springvale Industrial Estate,Cwmbran,,The Best BBQ,Takeaway/sandwich shop,7844,10,,724403,5,,51.65567300000000,36285,569,commercial.services@torfaen.gov.uk,Torfaen,http://www.torfaen.gov.uk/,-3.03199600000000,NP44 5BG,2014-12-16,fhrs_4_en-GB,4,,FHRS,5
483147,,13d Victoria Street,Old Cwmbran,Cwmbran,The Big Bite,Takeaway/sandwich shop,7844,10,,700495,0,,51.64758000000000,36242,569,commercial.services@torfaen.gov.uk,Torfaen,http://www.torfaen.gov.uk/,-3.02273500000000,NP44 3JS,2014-09-09,fhrs_4_en-GB,4,,FHRS,10
483148,,80 Broad Street,Blaenavon,Pontypool,The Blaenafon Cheddar Company and Mountain Tours Limited,Manufacturers/packers,7839,5,,100383,5,,51.77389000000000,32229,569,commercial.services@torfaen.gov.uk,Torfaen,http://www.torfaen.gov.uk/,-3.08414400000000,NP4 9NF,2014-07-29,fhrs_5_en-GB,5,,FHRS,5
483149,Boating Lake,Llanfrechfa Way,Llanyravon,Cwmbran,The Boat House Cafe,Restaurant/Cafe/Canteen,1,5,,103561,10,,51.64599600000000,34857,569,commercial.services@torfaen.gov.uk,Torfaen,http://www.torfaen.gov.uk/,-3.00938800000000,NP44 8HT,2014-09-10,fhrs_4_en-GB,4,,FHRS,5
483150,The Bridgend Inn,Hanbury Road,Pontnewynydd,Pontypool,The Bridgend Inn,Pub/bar/nightclub,7843,5,,641661,5,,51.70930400000000,35884,569,commercial.services@torfaen.gov.uk,Torfaen,http://www.torfaen.gov.uk/,-3.06156900000000,NP4 6QN,2014-03-14,fhrs_4_en-GB,4,,FHRS,10
483151,Bush Inn,Graig Road,Upper Cwmbran,Cwmbran,The Bush Inn,Pub/bar/nightclub,7843,10,,102852,10,,51.66527100000000,34291,569,commercial.services@torfaen.gov.uk,Torfaen,http://www.torfaen.gov.uk/,-3.04975300000000,NP44 5AN,2013-11-12,fhrs_3_en-GB,3,,FHRS,10
483152,Crown Buildings,Station Street,"Abersychan, Pontypool",Torfaen,The Cafe,Restaurant/Cafe/Canteen,1,10,,102327,10,,51.72425800000000,33907,569,commercial.services@torfaen.gov.uk,Torfaen,http://www.torfaen.gov.uk/,-3.05843000000000,NP4 8PH,2014-07-02,fhrs_2_en-GB,2,,FHRS,15
483153,,Middle Coedcae Road,Blaenavon,Pontypool,The Cellar II at Blaenavon RFC,Pub/bar/nightclub,7843,10,,608587,0,,51.77647900000000,35853,569,commercial.services@torfaen.gov.uk,Torfaen,http://www.torfaen.gov.uk/,-3.08137900000000,NP4 9NU,2013-11-14,fhrs_4_en-GB,4,,FHRS,10
483154,The Cellar Wine Bar,39 Broad Street,Blaenavon,,The Cellar Wine Bar,Pub/bar/nightclub,7843,10,,102086,0,,51.77389000000000,33701,569,commercial.services@torfaen.gov.uk,Torfaen,http://www.torfaen.gov.uk/,-3.08414400000000,NP4 9NF,2013-09-25,fhrs_4_en-GB,4,,FHRS,5
483155,,54 High Street,Pontypool,,The Chippy,Takeaway/sandwich shop,7844,5,,50040,5,,51.70065900000000,11125,569,commercial.services@torfaen.gov.uk,Torfaen,http://www.torfaen.gov.uk/,-3.04605700000000,NP4 6HB,2014-02-05,fhrs_5_en-GB,5,,FHRS,0
483156,Co-Operative Retail Services Ltd,Llantarnam Road,Llantarnam,Cwmbran,The Co-operative,Retailers - supermarkets/hypermarkets,7840,0,,85774,10,,51.64366600000000,2172,569,commercial.services@torfaen.gov.uk,Torfaen,http://www.torfaen.gov.uk/,-3.01479900000000,NP44 3BB,2014-03-17,fhrs_4_en-GB,4,,FHRS,10
483157,,3-5 Windsor Road,Griffithstown,Pontypool,The Co-operative Food,Retailers - supermarkets/hypermarkets,7840,0,,209161,0,,51.68625700000000,31215,569,commercial.services@torfaen.gov.uk,Torfaen,http://www.torfaen.gov.uk/,-3.02532800000000,NP4 5HY,2014-10-16,fhrs_5_en-GB,5,,FHRS,5
483158,Co-Operative Retail Services Ltd,Ivor Street,Blaenavon,Pontypool,The Co-operative Food Group,Retailers - supermarkets/hypermarkets,7840,0,,89992,0,,51.77257300000000,24302,569,commercial.services@torfaen.gov.uk,Torfaen,http://www.torfaen.gov.uk/,-3.08560500000000,NP4 9NA,2014-09-09,fhrs_5_en-GB,5,,FHRS,0
483159,,109 The Highway,Croesyceiliog,Cwmbran,The Corner Shop,Retailers - other,4613,5,,102044,5,,51.66189500000000,33661,569,commercial.services@torfaen.gov.uk,Torfaen,http://www.torfaen.gov.uk/,-3.00391500000000,NP44 2HE,2013-11-01,fhrs_4_en-GB,4,,FHRS,10
483160,,9 Edlogan Square,Croesyceiliog,Cwmbran,The Curry Kitchen,Takeaway/sandwich shop,7844,10,,103592,10,,51.66356900000000,34884,569,commercial.services@torfaen.gov.uk,Torfaen,http://www.torfaen.gov.uk/,-3.01006800000000,NP44 2NR,2014-11-24,fhrs_4_en-GB,4,,FHRS,0
483161,,Crumlin Street,Pontypool,,The Dragonffli,Pub/bar/nightclub,7843,5,,700493,5,,51.69949600000000,36013,569,commercial.services@torfaen.gov.uk,Torfaen,http://www.torfaen.gov.uk/,-3.04333900000000,NP4 6AE,2014-09-12,fhrs_4_en-GB,4,,FHRS,10
483162,Builders Yard,Polo Grounds,New Inn,Pontypool,The Filling Station (t/a Travis Perkins),Mobile caterer,7846,5,,98259,0,,51.69145200000000,30911,569,commercial.services@torfaen.gov.uk,Torfaen,http://www.torfaen.gov.uk/,-3.01524600000000,NP4 0TW,2014-08-18,fhrs_5_en-GB,5,,FHRS,5
483163,,119 Bowleaze,Greenmeadow,Cwmbran,The Flying Chef (trading from layby on Llantarnam Park Way),Mobile caterer,7846,10,,54540,5,,51.65203200000000,12296,569,commercial.services@torfaen.gov.uk,Torfaen,http://www.torfaen.gov.uk/,-3.04412700000000,NP44 4LG,2013-07-03,fhrs_4_en-GB,4,,FHRS,5
483164,,112A Springvale Industrial Estate,Cwmbran,,The Full Hog,Other catering premises,7841,5,,198189,0,,51.65567300000000,34739,569,commercial.services@torfaen.gov.uk,Torfaen,http://www.torfaen.gov.uk/,-3.03199600000000,NP44 5BG,2013-09-13,fhrs_5_en-GB,5,,FHRS,0
483165,,Caerleon Road,Llanfrechfa,Cwmbran,The Gate,Restaurant/Cafe/Canteen,1,5,,465700,5,,51.63654900000000,35233,569,commercial.services@torfaen.gov.uk,Torfaen,http://www.torfaen.gov.uk/,-2.98689700000000,NP44 8DQ,2014-08-12,fhrs_5_en-GB,5,,FHRS,0
483166,Globe Public House,Commercial Road,Talywain,Pontypool,The Globe Inn,Pub/bar/nightclub,7843,10,,712559,0,,51.73198200000000,36315,569,commercial.services@torfaen.gov.uk,Torfaen,http://www.torfaen.gov.uk/,-3.07232300000000,NP4 7JH,2014-10-10,fhrs_4_en-GB,4,,FHRS,5
483167,,Newport Road,Llantarnam,Cwmbran,The Greenhouse,Pub/bar/nightclub,7843,10,,101208,10,,51.63360300000000,32981,569,commercial.services@torfaen.gov.uk,Torfaen,http://www.torfaen.gov.uk/,-3.00238000000000,NP44 3BP,2013-09-30,fhrs_3_en-GB,3,,FHRS,10
483168,,123 The Highway,New Inn,Pontypool,The Highway Store,Retailers - other,4613,10,,100522,5,,51.68971900000000,32350,569,commercial.services@torfaen.gov.uk,Torfaen,http://www.torfaen.gov.uk/,-3.00979700000000,NP4 0PJ,2014-11-24,fhrs_3_en-GB,3,,FHRS,10
483169,,130 Osborne Road,Pontypool,,The John Capel Hanbury,Pub/bar/nightclub,7843,5,,96665,10,,51.70420700000000,29595,569,commercial.services@torfaen.gov.uk,Torfaen,http://www.torfaen.gov.uk/,-3.04242000000000,NP4 6LT,2014-06-23,fhrs_3_en-GB,3,,FHRS,10
483170,,1 Caradoc Road,Cwmbran,,The John Fielding,Pub/bar/nightclub,7843,0,,98322,5,,51.65497600000000,30957,569,commercial.services@torfaen.gov.uk,Torfaen,http://www.torfaen.gov.uk/,-3.02118100000000,NP44 1PP,2014-11-12,fhrs_5_en-GB,5,,FHRS,0
483171,,41 Broad Street,Blaenavon,,The Lion Hotel,Hotel/bed & breakfast/guest house,7842,5,,680202,10,,51.77448100000000,36131,569,commercial.services@torfaen.gov.uk,Torfaen,http://www.torfaen.gov.uk/,-3.08347700000000,NP4 9NH,2014-11-25,fhrs_4_en-GB,4,,FHRS,5
483172,Festive Productions Ltd,Ty Coch Way,Llantarnam,Cwmbran,The Log Cabin / Harleys Hog Roast,Restaurant/Cafe/Canteen,1,0,,618754,5,,51.63991000000000,35717,569,commercial.services@torfaen.gov.uk,Torfaen,http://www.torfaen.gov.uk/,-3.02383400000000,NP44 7EZ,2013-12-03,fhrs_5_en-GB,5,,FHRS,0
483173,Mount Pleasant Inn,Wesley Street,Old Cwmbran,Cwmbran,The Mount Pleasant Inn,Pub/bar/nightclub,7843,10,,716548,15,,51.64769100000000,36341,569,commercial.services@torfaen.gov.uk,Torfaen,http://www.torfaen.gov.uk/,-3.02655300000000,NP44 3LX,2014-11-11,fhrs_2_en-GB,2,,FHRS,10
483174,New Bridgend Inn,Greenhill Road,Cwmbran,,The New Bridgend Inn,Pub/bar/nightclub,7843,10,,102963,5,,51.65641500000000,34384,569,commercial.services@torfaen.gov.uk,Torfaen,http://www.torfaen.gov.uk/,-3.02837000000000,NP44 3DQ,2012-11-05,fhrs_3_en-GB,3,,FHRS,10
483175,Girlings Sports & Social Club,Edlogan Way,Croesyceiliog,Cwmbran,The Olive Tree,Pub/bar/nightclub,7843,10,,618753,10,,51.65707100000000,35364,569,commercial.services@torfaen.gov.uk,Torfaen,http://www.torfaen.gov.uk/,-3.01388500000000,NP44 2JJ,2013-11-29,fhrs_4_en-GB,4,,FHRS,0
483176,,46 Gwent Square,Cwmbran,,The Pizza Parlour,Takeaway/sandwich shop,7844,10,,84763,10,,51.65387700000000,21053,569,commercial.services@torfaen.gov.uk,Torfaen,http://www.torfaen.gov.uk/,-3.02041900000000,NP44 1PL,2014-08-19,fhrs_2_en-GB,2,,FHRS,15
483177,The Pottery,Llanover Road,Blaenavon,Pontypool,The Pottery,Pub/bar/nightclub,7843,5,,102068,5,,51.77065000000000,33688,569,commercial.services@torfaen.gov.uk,Torfaen,http://www.torfaen.gov.uk/,-3.07280500000000,NP4 9HT,2013-01-11,fhrs_4_en-GB,4,,FHRS,10
483178,The Queen,Upper Cwmbran Road,Upper Cwmbran,Cwmbran,The Queen Inn,Pub/bar/nightclub,7843,0,,41767,5,,51.66637600000000,10337,569,commercial.services@torfaen.gov.uk,Torfaen,http://www.torfaen.gov.uk/,-3.04787000000000,NP44 5AX,2014-03-24,fhrs_5_en-GB,5,,FHRS,5
483179,Torfaen Museum Trust,Llanfrechfa Way,Llanyravon,Cwmbran,The Raspberry Tearooms (at Llanyravon Manor),Restaurant/Cafe/Canteen,1,5,,434223,5,,51.64599600000000,35133,569,commercial.services@torfaen.gov.uk,Torfaen,http://www.torfaen.gov.uk/,-3.00938800000000,NP44 8HT,2014-02-17,fhrs_5_en-GB,5,,FHRS,5
483180,The Sally Inn,45 Tranch Road,Pontypool,,The Sally Inn,Pub/bar/nightclub,7843,5,,574191,5,,51.70086100000000,10357,569,commercial.services@torfaen.gov.uk,Torfaen,http://www.torfaen.gov.uk/,-3.05254400000000,NP4 6AW,2015-01-06,fhrs_4_en-GB,4,,FHRS,10
483181,Unit 1 Central Trading Sup Est,Oldbury Road,Cwmbran,Torfaen,The Shahinoor Tandoori,Takeaway/sandwich shop,7844,10,,101670,10,,51.64495800000000,33347,569,commercial.services@torfaen.gov.uk,Torfaen,http://www.torfaen.gov.uk/,-3.02030600000000,NP44 3JU,2014-09-23,fhrs_3_en-GB,3,,FHRS,5
483182,,The Avenue,Garndiffaith,Pontypool,The Shop,Retailers - other,4613,10,,415850,5,,51.73686100000000,35156,569,commercial.services@torfaen.gov.uk,Torfaen,http://www.torfaen.gov.uk/,-3.06877500000000,NP4 7QW,2013-12-05,fhrs_3_en-GB,3,,FHRS,10
483183,Six In Hand,Edlogan Square,Croesyceiliog,Cwmbran,The Six in Hand,Pub/bar/nightclub,7843,10,,211124,5,,51.66356900000000,10815,569,commercial.services@torfaen.gov.uk,Torfaen,http://www.torfaen.gov.uk/,-3.01006800000000,NP44 2NR,2012-03-05,fhrs_4_en-GB,4,,FHRS,5
483184,,58 The Highway,New Inn,Pontypool,The Teazer Inn,Pub/bar/nightclub,7843,5,,462814,5,,51.68878700000000,35251,569,commercial.services@torfaen.gov.uk,Torfaen,http://www.torfaen.gov.uk/,-3.00832900000000,NP4 0PL,2013-10-29,fhrs_5_en-GB,5,,FHRS,5
483185,The Terrace Inn,Pontrhydyrun Road,Pontnewydd,Cwmbran,The Terrace Inn,Pub/bar/nightclub,7843,10,,96555,5,,51.66911000000000,29460,569,commercial.services@torfaen.gov.uk,Torfaen,http://www.torfaen.gov.uk/,-3.02019800000000,NP44 1SB,2012-12-18,fhrs_3_en-GB,3,,FHRS,10
483186,,Albion Road,Pontypool,,The Unicorn Inn,Pub/bar/nightclub,7843,5,,101654,5,,51.69903700000000,33335,569,commercial.services@torfaen.gov.uk,Torfaen,http://www.torfaen.gov.uk/,-3.04140400000000,NP4 6LE,2014-09-16,fhrs_4_en-GB,4,,FHRS,10
483187,Unicorn Inn,Cwmynyscoy Road,Cwmynscoy,Pontypool,The Unicorn Inn,Pub/bar/nightclub,7843,10,,102772,10,,51.69328400000000,34225,569,commercial.services@torfaen.gov.uk,Torfaen,http://www.torfaen.gov.uk/,-3.03714800000000,NP4 5SQ,2014-09-18,fhrs_3_en-GB,3,,FHRS,10
483188,,1 Windsor Road,Griffithstown,Pontypool,The Village Delicatessen Bakery,Retailers - other,4613,5,,619438,0,,51.68625700000000,35881,569,commercial.services@torfaen.gov.uk,Torfaen,http://www.torfaen.gov.uk/,-3.02532800000000,NP4 5HY,2013-12-16,fhrs_5_en-GB,5,,FHRS,0
483189,,Whistle Road,Garn Yr Erw,Blaenavon,The Whistle Inn (R Herbert Catering),Pub/bar/nightclub,7843,5,,45214,5,,51.78110400000000,10974,569,commercial.services@torfaen.gov.uk,Torfaen,http://www.torfaen.gov.uk/,-3.12034000000000,NP4 9SJ,2015-01-12,fhrs_5_en-GB,5,,FHRS,5
483190,,Thistle Court,Ty Canol,Cwmbran,Thistle Court Nursing Home,Hospitals/Childcare/Caring Premises,5,5,,84208,0,,51.64495900000000,20878,569,commercial.services@torfaen.gov.uk,Torfaen,http://www.torfaen.gov.uk/,-3.05875000000000,NP44 6JD,2014-08-13,fhrs_5_en-GB,5,,FHRS,5
483191,,Victoria Street,Old Cwmbran,Cwmbran,Thomas Gabrielle EMI Care Home,Hospitals/Childcare/Caring Premises,5,5,,441866,0,,51.64580700000000,35214,569,commercial.services@torfaen.gov.uk,Torfaen,http://www.torfaen.gov.uk/,-3.01986200000000,NP44 3JP,2015-01-26,fhrs_5_en-GB,5,,FHRS,5
483192,Thomas Gabriel Nursing Home,90 Victoria Street,Old Cwmbran,Cwmbran,Thomas Gabrielle Nursing Home,Hospitals/Childcare/Caring Premises,5,5,,78037,0,,51.64580700000000,18474,569,commercial.services@torfaen.gov.uk,Torfaen,http://www.torfaen.gov.uk/,-3.01986200000000,NP44 3JP,2014-10-08,fhrs_5_en-GB,5,,FHRS,5
483193,Thornhill Community Centre,Leadon Court,Thornhill,Cwmbran,Thornhill Playgroup (within Thornhill Community Centre),Hospitals/Childcare/Caring Premises,5,5,,101943,5,,51.65677300000000,33565,569,commercial.services@torfaen.gov.uk,Torfaen,http://www.torfaen.gov.uk/,-3.05088600000000,NP44 5TZ,2011-02-17,fhrs_5_en-GB,5,,FHRS,5
483194,,7 South Walk,Cwmbran,,Thorntons PLC,Retailers - other,4613,5,,547876,5,,51.65295100000000,25416,569,commercial.services@torfaen.gov.uk,Torfaen,http://www.torfaen.gov.uk/,-3.02143900000000,NP44 1PU,2013-05-13,fhrs_5_en-GB,5,,FHRS,5
483195,Three Blackbirds Inn,Ty Coch Lane,Llantarnam,Cwmbran,Three Blackbirds Inn,Pub/bar/nightclub,7843,5,,100330,5,,51.62651400000000,32191,569,commercial.services@torfaen.gov.uk,Torfaen,http://www.torfaen.gov.uk/,-3.01015500000000,NP44 3AY,2014-03-24,fhrs_4_en-GB,4,,FHRS,10
483196,Threepenny Bit Community Centre,Deer Brook,Greenmeadow,Cwmbran,Threepenny Bit,Hotel/bed & breakfast/guest house,7842,5,,209165,5,,51.64870700000000,34840,569,commercial.services@torfaen.gov.uk,Torfaen,http://www.torfaen.gov.uk/,-3.04688400000000,NP44 4SX,2013-06-19,fhrs_5_en-GB,5,,FHRS,5
483197,"Tiffins Restaurant, Leisure@cwmbran",Glyndwr Road,Cwmbran,,Tiffins Indian Buffet Restaurant,Restaurant/Cafe/Canteen,1,20,,101613,15,,51.65487500000000,33303,569,commercial.services@torfaen.gov.uk,Torfaen,http://www.torfaen.gov.uk/,-3.01931400000000,NP44 1QS,2014-12-02,fhrs_1_en-GB,1,,FHRS,10
483198,Monmouth House,Mamhilad Park Estate,Mamhilad,Pontypool,Time for Lunch,Restaurant/Cafe/Canteen,1,5,,100165,5,,51.71735600000000,32056,569,commercial.services@torfaen.gov.uk,Torfaen,http://www.torfaen.gov.uk/,-3.00172700000000,NP4 0HZ,2013-09-05,fhrs_5_en-GB,5,,FHRS,5
483199,,80 Greenhill Road,Sebastopol,Pontypool,Tipizza (Trading at Llanyravon Manor craft market),Mobile caterer,7846,5,,516342,5,,51.67899200000000,35465,569,commercial.services@torfaen.gov.uk,Torfaen,http://www.torfaen.gov.uk/,-3.02539500000000,NP4 5BQ,2014-06-14,fhrs_5_en-GB,5,,FHRS,5
483200,Unit 19,John Baker Close,Llantarnam,Cwmbran,TJ's Catering,Restaurant/Cafe/Canteen,1,5,,494113,10,,51.63653000000000,35380,569,commercial.services@torfaen.gov.uk,Torfaen,http://www.torfaen.gov.uk/,-3.01958200000000,NP44 3AX,2014-08-18,fhrs_4_en-GB,4,,FHRS,5
483201,Llantarnam Comprehensive School,Llantarnam Road,Llantarnam,Cwmbran,Torfaen Catering (Llantarnam Comprehensive School),School/college/university,7845,10,,718545,10,,51.63607000000000,36350,569,commercial.services@torfaen.gov.uk,Torfaen,http://www.torfaen.gov.uk/,-3.00728900000000,NP44 3XB,2014-11-21,fhrs_3_en-GB,3,,FHRS,10
483202,West Monmouth School,Blaendare Road,Pontypool,,Torfaen Catering (West Mon),School/college/university,7845,5,,712560,5,,51.69653400000000,36316,569,commercial.services@torfaen.gov.uk,Torfaen,http://www.torfaen.gov.uk/,-3.03768500000000,NP4 5YG,2014-10-20,fhrs_4_en-GB,4,,FHRS,10
483203,,Park Road,Pontypool,Torfaen,Torfaen Museum Trust Coffee Shop (Vintage Tea Rooms),Restaurant/Cafe/Canteen,1,5,,95024,5,,51.70359400000000,28003,569,commercial.services@torfaen.gov.uk,Torfaen,http://www.torfaen.gov.uk/,-3.04049500000000,NP4 6JE,2013-10-10,fhrs_5_en-GB,5,,FHRS,5
483204,Ty Glyn,Albion Road,Pontypool,,Torfaen Pupils Referal Unit,School/college/university,7845,10,,102262,0,,51.69838500000000,33861,569,commercial.services@torfaen.gov.uk,Torfaen,http://www.torfaen.gov.uk/,-3.04490500000000,NP4 6GE,2013-10-14,fhrs_4_en-GB,4,,FHRS,5
483205,,6 St Lukes Road,Pontnewynydd,Pontypool,Treasure House,Takeaway/sandwich shop,7844,20,,100752,15,,51.71151000000000,32569,569,commercial.services@torfaen.gov.uk,Torfaen,http://www.torfaen.gov.uk/,-3.05431100000000,NP4 6SU,2015-01-08,fhrs_1_en-GB,1,,FHRS,10
483206,,Folly Lane,Trevethin,Pontypool,Trevethin and Penygarn Sports and Social,Pub/bar/nightclub,7843,5,,716547,5,,51.71320200000000,36261,569,commercial.services@torfaen.gov.uk,Torfaen,http://www.torfaen.gov.uk/,-3.03789300000000,NP4 8JB,2014-11-18,fhrs_4_en-GB,4,,FHRS,10
483207,,7 Richmond Road,Pontnewydd,Cwmbran,Trios,Takeaway/sandwich shop,7844,5,,712558,5,,51.66153700000000,36259,569,commercial.services@torfaen.gov.uk,Torfaen,http://www.torfaen.gov.uk/,-3.02558000000000,NP44 1EG,2014-10-27,fhrs_5_en-GB,5,,FHRS,5
483208,,1 Windsor Road,Griffithstown,Pontypool,Truly Tasteful at The Village,Retailers - other,4613,0,,619440,0,,51.68625700000000,35946,569,commercial.services@torfaen.gov.uk,Torfaen,http://www.torfaen.gov.uk/,-3.02532800000000,NP4 5HY,2013-12-16,fhrs_5_en-GB,5,,FHRS,0
483209,The Old School,The Highway,Croesyceiliog,Cwmbran,Two Counties Nursery,Hospitals/Childcare/Caring Premises,5,5,,333386,0,,51.65973100000000,35057,569,commercial.services@torfaen.gov.uk,Torfaen,http://www.torfaen.gov.uk/,-3.00256600000000,NP44 2HF,2014-09-23,fhrs_5_en-GB,5,,FHRS,5
483210,Twynyffrwd Inn,Ffrwd Road,Abersychan,Pontypool,Twyn-y-ffrwd Inn,Pub/bar/nightclub,7843,20,,100316,15,,51.72793900000000,32186,569,commercial.services@torfaen.gov.uk,Torfaen,http://www.torfaen.gov.uk/,-3.05803800000000,NP4 8PJ,2014-03-11,fhrs_1_en-GB,1,,FHRS,10
483211,Ty Ceirios Nursing Home,Pentrepiod Road,Pontnewynydd,Pontypool,Ty Ceirios Nursing Home,Hospitals/Childcare/Caring Premises,5,5,,97391,5,,51.71394800000000,30198,569,commercial.services@torfaen.gov.uk,Torfaen,http://www.torfaen.gov.uk/,-3.06309600000000,NP4 6TJ,2014-01-24,fhrs_5_en-GB,5,,FHRS,0
483212,Ty George Lansbury,Pettingale Road,Croesyceiliog,Cwmbran,Ty George Lansbury,Restaurant/Cafe/Canteen,1,10,,729387,5,,51.66094100000000,36364,569,commercial.services@torfaen.gov.uk,Torfaen,http://www.torfaen.gov.uk/,-3.00296900000000,NP44 2PG,2015-01-13,fhrs_4_en-GB,4,,FHRS,0
483213,Tygwyn Nursing Home,Ty Gwyn Way,Fairwater,Cwmbran,Ty Gwyn HFOP,Hospitals/Childcare/Caring Premises,5,10,,96902,5,,51.64481700000000,29854,569,commercial.services@torfaen.gov.uk,Torfaen,http://www.torfaen.gov.uk/,-3.05159200000000,NP44 4TX,2014-01-16,fhrs_4_en-GB,4,,FHRS,5
483214,Ty Shon Jacob Farm,Coch Y North Road,Pantygasseg,Pontypool,Ty Shon Jacob Farm,Hotel/bed & breakfast/guest house,7842,10,,97755,5,,51.70112200000000,30509,569,commercial.services@torfaen.gov.uk,Torfaen,http://www.torfaen.gov.uk/,-3.06053800000000,NP4 6BP,2012-10-15,fhrs_4_en-GB,4,,FHRS,5
483215,Ty-Bryn Residential Care Home,Brynteg,Abersychan,Pontypool,Ty-Bryn Residential Care Home,Hospitals/Childcare/Caring Premises,5,5,,95033,10,,51.72452600000000,28010,569,commercial.services@torfaen.gov.uk,Torfaen,http://www.torfaen.gov.uk/,-3.05963800000000,NP4 7DG,2015-01-09,fhrs_3_en-GB,3,,FHRS,10
483216,Upper Cock Inn,The Highway,Croesyceiliog,Cwmbran,Upper Cock Inn,Pub/bar/nightclub,7843,5,,719800,5,,51.66189500000000,36286,569,commercial.services@torfaen.gov.uk,Torfaen,http://www.torfaen.gov.uk/,-3.00391500000000,NP44 2HE,2014-12-02,fhrs_5_en-GB,5,,FHRS,5
483217,,21 Commercial Street,Pontnewydd,Cwmbran,Valentine Patisserie,Retailers - other,4613,10,,502650,15,,51.66129700000000,35370,569,commercial.services@torfaen.gov.uk,Torfaen,http://www.torfaen.gov.uk/,-3.02528500000000,NP44 1DY,2014-10-30,fhrs_2_en-GB,2,,FHRS,15
483218,In Shops,34 The Mall,Cwmbran,,Valentine's,Takeaway/sandwich shop,7844,10,,704823,15,,51.65291300000000,36276,569,commercial.services@torfaen.gov.uk,Torfaen,http://www.torfaen.gov.uk/,-3.02057100000000,NP44 1PX,2014-09-25,fhrs_2_en-GB,2,,FHRS,10
483219,Kiosk At Cwmbran Station,Somerset Road,Cwmbran,,Valentine's (within Cwmbran Train Station),Takeaway/sandwich shop,7844,5,,102109,5,,51.65893800000000,33719,569,commercial.services@torfaen.gov.uk,Torfaen,http://www.torfaen.gov.uk/,-3.01739600000000,NP44 1QX,2014-04-30,fhrs_4_en-GB,4,,FHRS,10
483220,,11 Victoria Street,Old Cwmbran,Cwmbran,Victoria Fish Bar,Takeaway/sandwich shop,7844,5,,49960,5,,51.64758000000000,11101,569,commercial.services@torfaen.gov.uk,Torfaen,http://www.torfaen.gov.uk/,-3.02273500000000,NP44 3JS,2014-12-18,fhrs_4_en-GB,4,,FHRS,10
483221,Victoria School,Lower Harpers Road,Abersychan,Pontypool,Victoria Primary School,School/college/university,7845,5,,82923,5,,51.72975300000000,20183,569,commercial.services@torfaen.gov.uk,Torfaen,http://www.torfaen.gov.uk/,-3.05928200000000,NP4 8PW,2014-10-17,fhrs_4_en-GB,4,,FHRS,10
483222,,18 Shelley Green,St Dials,Cwmbran,Vikki's Snack Bar (trading at Court Road Inductrial Estate),Mobile caterer,7846,10,,502651,10,,51.64671500000000,35390,569,commercial.services@torfaen.gov.uk,Torfaen,http://www.torfaen.gov.uk/,-3.03634500000000,NP44 4LZ,2014-01-07,fhrs_3_en-GB,3,,FHRS,10
483223,Village Stores,Victoria Street,Old Cwmbran,Cwmbran,Village Store,Retailers - other,4613,10,,605839,5,,51.64542700000000,35724,569,commercial.services@torfaen.gov.uk,Torfaen,http://www.torfaen.gov.uk/,-3.01914600000000,NP44 3YT,2013-10-15,fhrs_4_en-GB,4,,FHRS,0
483224,Unit 2,Gilchrist Thomas Industrial Estate,Blaenavon,,Vin Sullivan Foods Ltd,Distributors/Transporters,7,0,,82926,0,,51.77521800000000,20185,569,commercial.services@torfaen.gov.uk,Torfaen,http://www.torfaen.gov.uk/,-3.09516200000000,NP4 9RL,2014-09-09,fhrs_5_en-GB,5,,FHRS,0
483225,,Wilcrick Place,Avondale Road,Cwmbran,Virgin Active,Restaurant/Cafe/Canteen,1,5,,97733,0,,51.66168500000000,30494,569,commercial.services@torfaen.gov.uk,Torfaen,http://www.torfaen.gov.uk/,-3.01890300000000,NP44 1TX,2014-06-03,fhrs_4_en-GB,4,,FHRS,10
483226,Victory Outreach Uk,Greenforge Way,Cwmbran,,Vivant Coffee Shop,Restaurant/Cafe/Canteen,1,10,,426727,0,,51.65442200000000,35186,569,commercial.services@torfaen.gov.uk,Torfaen,http://www.torfaen.gov.uk/,-3.03407800000000,NP44 3BA,2013-01-09,fhrs_4_en-GB,4,,FHRS,10
483227,Leisure@cwmbran,Glyndwr Road,Cwmbran,,Vue,Retailers - other,4613,0,,101615,0,,51.65487500000000,33304,569,commercial.services@torfaen.gov.uk,Torfaen,http://www.torfaen.gov.uk/,-3.01931400000000,NP44 1QS,2015-01-05,fhrs_5_en-GB,5,,FHRS,0
483228,Pentranch Community Hall,Tranch Road,Pontypool,,Wainfelin & Pentranch Luncheon Club,Other catering premises,7841,5,,624191,10,,51.70118400000000,35972,569,commercial.services@torfaen.gov.uk,Torfaen,http://www.torfaen.gov.uk/,-3.04968700000000,NP4 6AN,2014-01-08,fhrs_3_en-GB,3,,FHRS,10
483229,,1 Wainfelin Road,Wainfelin,Pontypool,Wainfelin Fish Bar,Takeaway/sandwich shop,7844,5,,99025,5,,51.70766500000000,31249,569,commercial.services@torfaen.gov.uk,Torfaen,http://www.torfaen.gov.uk/,-3.04880900000000,NP4 6DE,2014-10-23,fhrs_4_en-GB,4,,FHRS,10
483230,,1 St Johns Crescent,Wainfelin,Pontypool,Wainfelin Stores (Premier),Retailers - other,4613,10,,103026,5,,51.70636300000000,34440,569,commercial.services@torfaen.gov.uk,Torfaen,http://www.torfaen.gov.uk/,-3.05173100000000,NP4 6DZ,2013-02-04,fhrs_3_en-GB,3,,FHRS,10
483231,"Stall 1, The Market Hall",Market Street,Pontypool,,Warren's Foods,Takeaway/sandwich shop,7844,5,,138174,10,,51.70220400000000,734,569,commercial.services@torfaen.gov.uk,Torfaen,http://www.torfaen.gov.uk/,-3.04112900000000,NP4 6JN,2014-10-08,fhrs_4_en-GB,4,,FHRS,5
483232,Waterloo Inn,Llandowlais Street,Oakfield,Cwmbran,Waterloo,Pub/bar/nightclub,7843,10,,44622,5,,51.64180100000000,10820,569,commercial.services@torfaen.gov.uk,Torfaen,http://www.torfaen.gov.uk/,-3.02561100000000,NP44 7HD,2013-10-30,fhrs_3_en-GB,3,,FHRS,10
483233,"23, The Market Hall",Market Street,Pontypool,,Wayne Randell,Retailers - other,4613,10,,74760,10,,51.70220400000000,173,569,commercial.services@torfaen.gov.uk,Torfaen,http://www.torfaen.gov.uk/,-3.04112900000000,NP4 6JN,2014-10-07,fhrs_4_en-GB,4,,FHRS,0
483234,,4/5 Broad Street,Abersychan,Pontypool,Wayne Randell Butchers,Retailers - other,4613,10,,77234,10,,51.72341000000000,181,569,commercial.services@torfaen.gov.uk,Torfaen,http://www.torfaen.gov.uk/,-3.05874300000000,NP4 7BQ,2014-03-20,fhrs_3_en-GB,3,,FHRS,5
483235,,24 George Street,Pontypool,,Wellbeing Centre,Restaurant/Cafe/Canteen,1,0,,102234,5,,51.70420900000000,33831,569,commercial.services@torfaen.gov.uk,Torfaen,http://www.torfaen.gov.uk/,-3.04312900000000,NP4 6BY,2013-11-14,fhrs_5_en-GB,5,,FHRS,0
483236,,58b Victoria Street,Old Cwmbran,Cwmbran,Wendy's Cafe,Restaurant/Cafe/Canteen,1,5,,98319,5,,51.64679600000000,30955,569,commercial.services@torfaen.gov.uk,Torfaen,http://www.torfaen.gov.uk/,-3.02189400000000,NP44 3JN,2013-11-13,fhrs_4_en-GB,4,,FHRS,10
483237,Community Centre,Maendy Wood Rise,Pontnewydd,Cwmbran,West Pontnewydd Community Cen.,Other catering premises,7841,0,,96509,0,,51.66249000000000,294,569,commercial.services@torfaen.gov.uk,Torfaen,http://www.torfaen.gov.uk/,-3.03790500000000,NP44 1JY,2014-07-28,fhrs_5_en-GB,5,,FHRS,5
483238,,George Street,Pontypool,,White Hart,Pub/bar/nightclub,7843,10,,508985,0,,51.70420900000000,35054,569,commercial.services@torfaen.gov.uk,Torfaen,http://www.torfaen.gov.uk/,-3.04312900000000,NP4 6BY,2013-02-15,fhrs_4_en-GB,4,,FHRS,0
483239,,2 Broad Street,Abersychan,Pontypool,White Hart Inn and The Cavern Basement,Pub/bar/nightclub,7843,10,,41980,5,,51.72341000000000,10379,569,commercial.services@torfaen.gov.uk,Torfaen,http://www.torfaen.gov.uk/,-3.05874300000000,NP4 7BQ,2014-02-25,fhrs_2_en-GB,2,,FHRS,15
483240,Unit 2,Llewellyn Walk,Cwmbran,,Wilkinson,Retailers - other,4613,0,,98367,0,,51.65200300000000,30997,569,commercial.services@torfaen.gov.uk,Torfaen,http://www.torfaen.gov.uk/,-3.02287800000000,NP44 1YN,2014-07-22,fhrs_5_en-GB,5,,FHRS,0
483241,,3/4 Crane Street,Pontypool,,Wilkinson Hardware Stores,Retailers - other,4613,5,,492732,0,,51.70258500000000,31134,569,commercial.services@torfaen.gov.uk,Torfaen,http://www.torfaen.gov.uk/,-3.04173100000000,NP4 6LY,2013-01-02,fhrs_5_en-GB,5,,FHRS,0
483242,Unit 3,Avondale Industrial Estate,Pontrhydyrun,Cwmbran,Wiltshire Farm Foods,Retailers - other,4613,10,,187580,0,,51.66263100000000,34962,569,commercial.services@torfaen.gov.uk,Torfaen,http://www.torfaen.gov.uk/,-3.01973400000000,NP44 1UF,2012-01-06,fhrs_4_en-GB,4,,FHRS,0
483243,,56/57 Windsor Road,Griffithstown,Pontypool,Windsors,Retailers - other,4613,5,,102051,5,,51.68625700000000,33674,569,commercial.services@torfaen.gov.uk,Torfaen,http://www.torfaen.gov.uk/,-3.02532800000000,NP4 5HY,2013-02-04,fhrs_4_en-GB,4,,FHRS,10
483244,,Grange Road,Cwmbran,,Wm Morrison Supermarkets PLC,Retailers - supermarkets/hypermarkets,7840,10,,508986,10,,51.65111200000000,35398,569,commercial.services@torfaen.gov.uk,Torfaen,http://www.torfaen.gov.uk/,-3.01777000000000,NP44 3XU,2014-08-22,fhrs_3_en-GB,3,,FHRS,10
483245,,Woodland Road,Croesyceiliog,Cwmbran,Woodland Road Sports & Social Club,Pub/bar/nightclub,7843,5,,466814,5,,51.65783600000000,10821,569,commercial.services@torfaen.gov.uk,Torfaen,http://www.torfaen.gov.uk/,-3.01070700000000,NP44 2DZ,2014-12-15,fhrs_4_en-GB,4,,FHRS,10
483246,Woodlands Junior & Infant School,Bagley Court,Thornhill,Cwmbran,Woodlands Community Primary School,School/college/university,7845,5,,82549,0,,51.66223400000000,20045,569,commercial.services@torfaen.gov.uk,Torfaen,http://www.torfaen.gov.uk/,-3.04748500000000,NP44 5UA,2014-09-24,fhrs_5_en-GB,5,,FHRS,0
483247,,70 Victoria Street,Old Cwmbran,Cwmbran,Wriggles and Giggles,Hospitals/Childcare/Caring Premises,5,10,,103689,10,,51.64580700000000,34961,569,commercial.services@torfaen.gov.uk,Torfaen,http://www.torfaen.gov.uk/,-3.01986200000000,NP44 3JP,2014-11-11,fhrs_3_en-GB,3,,FHRS,10
483248,,Penygarn Road,Trevethin,"Pontypool, Torfaen",Yew Tree Coffee Shop,Restaurant/Cafe/Canteen,1,0,,103482,0,,51.70946100000000,34797,569,commercial.services@torfaen.gov.uk,Torfaen,http://www.torfaen.gov.uk/,-3.03488400000000,NP4 8JR,2014-09-18,fhrs_5_en-GB,5,,FHRS,5
483249,,Penygarn Road,Penygarn,Pontypool,Yew Tree Italian Restaurant,Restaurant/Cafe/Canteen,1,0,,100656,5,,51.71192300000000,32471,569,commercial.services@torfaen.gov.uk,Torfaen,http://www.torfaen.gov.uk/,-3.03822600000000,NP4 8JA,2014-09-18,fhrs_5_en-GB,5,,FHRS,5
483250,Ysgol Bryn Onen,Shop Road,Varteg,Pontypool,Ysgol Bryn Onnen School,School/college/university,7845,0,,92697,0,,51.74586600000000,26235,569,commercial.services@torfaen.gov.uk,Torfaen,http://www.torfaen.gov.uk/,-3.06422200000000,NP4 7RT,2014-10-22,fhrs_5_en-GB,5,,FHRS,5
483251,Ysgol Gyfun Gwynllyw,Folly Road,Trevethin,Pontypool,Ysgol Gyfun Gwynllyw,School/college/university,7845,5,,75359,0,,51.71503700000000,17582,569,commercial.services@torfaen.gov.uk,Torfaen,http://www.torfaen.gov.uk/,-3.03685000000000,NP4 8JD,2014-06-19,fhrs_5_en-GB,5,,FHRS,5
483252,Ysgol Gymraeg Cwmbran,Henllys Way,Cwmbran,,Ysgol Gymraeg,School/college/university,7845,5,,84193,5,,51.64528300000000,20862,569,commercial.services@torfaen.gov.uk,Torfaen,http://www.torfaen.gov.uk/,-3.03553200000000,NP44 4HB,2010-10-21,fhrs_5_en-GB,5,,FHRS,5
483253,Ysgol Panteg Welsh Medium Primary School,Oxford Street,Griffithstown,Pontypool,Ysgol Panteg,School/college/university,7845,5,,682259,5,,51.68493400000000,36076,569,commercial.services@torfaen.gov.uk,Torfaen,http://www.torfaen.gov.uk/,-3.02551500000000,NP4 5HP,2014-06-30,fhrs_4_en-GB,4,,FHRS,10
483254,Unit 101-102,Springvale Industrial Estate,Cwmbran,,Yummies Kebabs,Takeaway/sandwich shop,7844,5,,97844,5,,51.65567300000000,30584,569,commercial.services@torfaen.gov.uk,Torfaen,http://www.torfaen.gov.uk/,-3.03199600000000,NP44 5BG,2014-09-11,fhrs_5_en-GB,5,,FHRS,5
483255,Kestrel House,Lakeside Llantarnam Industrial Estate,Llantarnam,Cwmbran,Zodiac Seats UK Ltd,Restaurant/Cafe/Canteen,1,5,,594394,5,,51.62909800000000,35722,569,commercial.services@torfaen.gov.uk,Torfaen,http://www.torfaen.gov.uk/,-3.01184500000000,NP44 3HQ,2013-10-14,fhrs_4_en-GB,4,,FHRS,10
483256,"Zoopadoopa, Leisure@cwmbran",Glyndwr Road,Cwmbran,,Zoopadoopa,Restaurant/Cafe/Canteen,1,5,,101612,5,,51.65487500000000,33302,569,commercial.services@torfaen.gov.uk,Torfaen,http://www.torfaen.gov.uk/,-3.01931400000000,NP44 1QS,2013-10-22,fhrs_4_en-GB,4,,FHRS,10
