,addressline1,addressline2,addressline3,addressline4,businessname,businesstype,businesstypeid,confidenceinmanagement,extractdate,fhrsid,hygiene,itemcount,latitude,localauthoritybusinessid,localauthoritycode,localauthorityemailaddress,localauthorityname,localauthoritywebsite,longitude,postcode,ratingdate,ratingkey,ratingvalue,returncode,schemetype,structural
442116,10A Kelly Street Greenock,,,,175 Masonic Club,Pub/bar/nightclub,7843,,,190,,,55.95174100000000,00/00352/COMM,778,safer.communities@inverclyde.gov.uk,Inverclyde,http://www.inverclyde.gov.uk/business-and-trade/food-safety-and-standards/,-4.76528300000000,PA16 8NF,2010-03-23,fhis_pass_en-GB,Pass,,FHIS,
442117,22 Dubbs Road Port Glasgow,,,,A & A Bakeries,Retailers - other,4613,,,393,,,55.92512000000000,00/04837/COMM,778,safer.communities@inverclyde.gov.uk,Inverclyde,http://www.inverclyde.gov.uk/business-and-trade/food-safety-and-standards/,-4.66531300000000,PA14 5UA,2014-09-16,fhis_pass_en-GB,Pass,,FHIS,
442118,61 Larkfield Road Gourock,,,,A & D Foodstore,Retailers - other,4613,,,46814,,,55.94933900000000,11/00087/COMM,778,safer.communities@inverclyde.gov.uk,Inverclyde,http://www.inverclyde.gov.uk/business-and-trade/food-safety-and-standards/,-4.81339400000000,PA19 1YB,2011-11-23,fhis_pass_en-GB,Pass,,FHIS,
442119,84 Bridgend Road GREENOCK,,,,A & R Licensed Grocers,Retailers - other,4613,,,668534,,,55.93629600000000,14/00040/COMM,778,safer.communities@inverclyde.gov.uk,Inverclyde,http://www.inverclyde.gov.uk/business-and-trade/food-safety-and-standards/,-4.73401100000000,PA15 2JJ,2014-06-12,fhis_improvement_required_en-GB,Improvement Required,,FHIS,
442120,Unit 4 10 Cumberland Walk Greenock,,,,A.C.Still,Retailers - other,4613,,,136,,,55.94133000000000,00/00184/COMM,778,safer.communities@inverclyde.gov.uk,Inverclyde,http://www.inverclyde.gov.uk/business-and-trade/food-safety-and-standards/,-4.81612900000000,PA16 0UD,2011-03-31,fhis_pass_en-GB,Pass,,FHIS,
442121,11 - 12 Grey Place Greenock,,,,Aania's,Takeaway/sandwich shop,7844,,,564403,,,55.95270800000000,13/00048/COMM,778,safer.communities@inverclyde.gov.uk,Inverclyde,http://www.inverclyde.gov.uk/business-and-trade/food-safety-and-standards/,-4.76426200000000,PA15 1YF,2014-11-06,fhis_pass_en-GB,Pass,,FHIS,
442122,9 Ardgowan Square Greenock,,,,Abbeyfield,Hospitals/Childcare/Caring Premises,5,,,331,,,55.95237000000000,00/00772/COMM,778,safer.communities@inverclyde.gov.uk,Inverclyde,http://www.inverclyde.gov.uk/business-and-trade/food-safety-and-standards/,-4.76968500000000,PA16 8ET,2014-02-04,fhis_pass_en-GB,Pass,,FHIS,
442123,Abbeyfield House 7A Esplanade Greenock,,,,Abbeyfield Residential Home,Hospitals/Childcare/Caring Premises,5,,,330,,,55.95721200000000,00/00771/COMM,778,safer.communities@inverclyde.gov.uk,Inverclyde,http://www.inverclyde.gov.uk/business-and-trade/food-safety-and-standards/,-4.76902200000000,PA16 7XJ,2014-02-13,fhis_pass_en-GB,Pass,,FHIS,
442124,Norfolk Road Greenock,,,,Aileymill Nursery School,Hospitals/Childcare/Caring Premises,5,,,33413,,,55.94049700000000,10/00043/COMM,778,safer.communities@inverclyde.gov.uk,Inverclyde,http://www.inverclyde.gov.uk/business-and-trade/food-safety-and-standards/,-4.81720500000000,PA16 0JG,2010-05-11,fhis_pass_en-GB,Pass,,FHIS,
442125,Norfolk Road Greenock,,,,Aileymill Primary School,School/college/university,7845,,,32925,,,55.94049700000000,10/00014/COMM,778,safer.communities@inverclyde.gov.uk,Inverclyde,http://www.inverclyde.gov.uk/business-and-trade/food-safety-and-standards/,-4.81720500000000,PA16 0JG,2014-01-21,fhis_pass_en-GB,Pass,,FHIS,
442126,2 Broomhill Way Greenock,,,,Alan McShane Family Butcher,Manufacturers/packers,7839,,,85,,,55.94213800000000,00/00090/COMM,778,safer.communities@inverclyde.gov.uk,Inverclyde,http://www.inverclyde.gov.uk/business-and-trade/food-safety-and-standards/,-4.76581500000000,PA15 4HE,2012-09-24,fhis_pass_en-GB,Pass,,FHIS,
442127,59 Cove Road Gourock,,,,Albert Hotel,Hotel/bed & breakfast/guest house,7842,,,130,,,55.95641600000000,00/00168/COMM,778,safer.communities@inverclyde.gov.uk,Inverclyde,http://www.inverclyde.gov.uk/business-and-trade/food-safety-and-standards/,-4.81091200000000,PA19 1RN,2010-03-23,fhis_pass_en-GB,Pass,,FHIS,
442128,1 Patrick Street GREENOCK,,,,Aldi Stores Limited,Retailers - supermarkets/hypermarkets,7840,,,674899,,,55.95345300000000,14/00017/COMM,778,safer.communities@inverclyde.gov.uk,Inverclyde,http://www.inverclyde.gov.uk/business-and-trade/food-safety-and-standards/,-4.76470000000000,PA16 8UT,2014-06-19,fhis_pass_en-GB,Pass,,FHIS,
442129,Blairmore Road Greenock,,,,All Saints Primary School,School/college/university,7845,,,32910,,,55.93458900000000,10/00013/COMM,778,safer.communities@inverclyde.gov.uk,Inverclyde,http://www.inverclyde.gov.uk/business-and-trade/food-safety-and-standards/,-4.73802200000000,PA15 3JS,2013-12-16,fhis_pass_en-GB,Pass,,FHIS,
442130,Lyle Road Greenock,,,,Alt-Na-Craig House,Hospitals/Childcare/Caring Premises,5,,,376,,,55.95681200000000,00/03182/COMM,778,safer.communities@inverclyde.gov.uk,Inverclyde,http://www.inverclyde.gov.uk/business-and-trade/food-safety-and-standards/,-4.78395800000000,PA16 7XT,2014-10-08,fhis_pass_en-GB,Pass,,FHIS,
442131,1 Nicol Street Greenock,,,,Alzheimer Scotland,Other catering premises,7841,,,195886,,,55.94542600000000,12/00009/COMM,778,safer.communities@inverclyde.gov.uk,Inverclyde,http://www.inverclyde.gov.uk/business-and-trade/food-safety-and-standards/,-4.78825100000000,PA16 7EN,2015-01-26,fhis_pass_en-GB,Pass,,FHIS,
442132,Faulds Park Road Gourock,,,,Amazon,Restaurant/Cafe/Canteen,1,,,462,,,55.94617100000000,00/05857/COMM,778,safer.communities@inverclyde.gov.uk,Inverclyde,http://www.inverclyde.gov.uk/business-and-trade/food-safety-and-standards/,-4.83959700000000,PA19 1BD,2014-09-04,fhis_pass_en-GB,Pass,,FHIS,
442133,Clune Brae Port Glasgow,,,,Ancient Order Hibernian Club (Caterer),Pub/bar/nightclub,7843,,,209037,,,55.93073500000000,12/00028/COMM,778,safer.communities@inverclyde.gov.uk,Inverclyde,http://www.inverclyde.gov.uk/business-and-trade/food-safety-and-standards/,-4.67495300000000,PA14 5PA,2013-10-15,fhis_pass_en-GB,Pass,,FHIS,
442134,Clune Brae Port Glasgow,,,,Ancient Order Hibernians Social,Pub/bar/nightclub,7843,,,128,,,55.93073500000000,00/00156/COMM,778,safer.communities@inverclyde.gov.uk,Inverclyde,http://www.inverclyde.gov.uk/business-and-trade/food-safety-and-standards/,-4.67495300000000,PA14 5PA,2012-02-22,fhis_pass_en-GB,Pass,,FHIS,
442135,43 Angus Road GREENOCK,,,,Angus Road Stores,Retailers - other,4613,,,712996,,,55.94432700000000,14/00066/COMM,778,safer.communities@inverclyde.gov.uk,Inverclyde,http://www.inverclyde.gov.uk/business-and-trade/food-safety-and-standards/,-4.82424300000000,PA16 0PD,2014-11-03,fhis_improvement_required_en-GB,Improvement Required,,FHIS,
442136,Clyde View 22 Pottery Street GREENOCK,,,,ARAMARK Limited,Restaurant/Cafe/Canteen,1,,,195888,,,55.94031600000000,12/00002/COMM,778,safer.communities@inverclyde.gov.uk,Inverclyde,http://www.inverclyde.gov.uk/business-and-trade/food-safety-and-standards/,-4.72133800000000,PA15 2UZ,2014-08-25,fhis_pass_en-GB,Pass,,FHIS,
442137,22 Patrick Street Greenock,,,,Ardgowan B&B,Hotel/bed & breakfast/guest house,7842,,,382,,,55.95248100000000,00/03229/COMM,778,safer.communities@inverclyde.gov.uk,Inverclyde,http://www.inverclyde.gov.uk/business-and-trade/food-safety-and-standards/,-4.76674500000000,PA16 8NB,2011-03-23,fhis_pass_en-GB,Pass,,FHIS,
442138,Ardgowan Square Greenock,,,,Ardgowan Club,Pub/bar/nightclub,7843,,,26,,,55.95272400000000,00/00014/COMM,778,safer.communities@inverclyde.gov.uk,Inverclyde,http://www.inverclyde.gov.uk/business-and-trade/food-safety-and-standards/,-4.77073600000000,PA16 8EH,2010-05-26,fhis_pass_en-GB,Pass,,FHIS,
442139,12 Nelson Street Greenock,,,,Ardgowan Hospice,Hospitals/Childcare/Caring Premises,5,,,235,,,55.94949600000000,00/00462/COMM,778,safer.communities@inverclyde.gov.uk,Inverclyde,http://www.inverclyde.gov.uk/business-and-trade/food-safety-and-standards/,-4.76677300000000,PA15 1TS,2013-07-31,fhis_pass_en-GB,Pass,,FHIS,
442140,2 Ardgowan Street Greenock,,,,Ardgowan Hospice - Access At Ardgowan,Hospitals/Childcare/Caring Premises,5,,,506,,,55.95048100000000,00/06076/COMM,778,safer.communities@inverclyde.gov.uk,Inverclyde,http://www.inverclyde.gov.uk/business-and-trade/food-safety-and-standards/,-4.76695500000000,PA16 8LE,2014-05-22,fhis_pass_en-GB,Pass,,FHIS,
442141,Westmorland Road Greenock,,,,Ardgowan Primary School,School/college/university,7845,,,579815,,,55.94317300000000,13/00042/COMM,778,safer.communities@inverclyde.gov.uk,Inverclyde,http://www.inverclyde.gov.uk/business-and-trade/food-safety-and-standards/,-4.81536600000000,PA16 0TS,2015-01-15,fhis_pass_en-GB,Pass,,FHIS,
442142,Dunrod Road INVERKIP,,,,Ardgowan Trout Fishery,Other catering premises,7841,,,504,,,,00/06073/COMM,778,safer.communities@inverclyde.gov.uk,Inverclyde,http://www.inverclyde.gov.uk/business-and-trade/food-safety-and-standards/,,,2014-03-25,fhis_pass_en-GB,Pass,,FHIS,
442143,1 Bruce Street GREENOCK,,,,Argyll & Sutherland,Pub/bar/nightclub,7843,,,715561,,,55.94687000000000,14/00074/COMM,778,safer.communities@inverclyde.gov.uk,Inverclyde,http://www.inverclyde.gov.uk/business-and-trade/food-safety-and-standards/,-4.76605700000000,PA15 4LL,2014-11-14,fhis_pass_en-GB,Pass,,FHIS,
442144,Cottage 19 Church Road Quarriers Village,,,,Ashgrove,Hospitals/Childcare/Caring Premises,5,,,283,,,55.86727200000000,00/00610/COMM,778,safer.communities@inverclyde.gov.uk,Inverclyde,http://www.inverclyde.gov.uk/business-and-trade/food-safety-and-standards/,-4.61666900000000,PA11 3SX,2014-01-27,fhis_pass_en-GB,Pass,,FHIS,
442145,124 Albert Road Gourock,,,,Ashton Stores Ltd.,Retailers - other,4613,,,494,,,55.95531400000000,00/06044/COMM,778,safer.communities@inverclyde.gov.uk,Inverclyde,http://www.inverclyde.gov.uk/business-and-trade/food-safety-and-standards/,-4.83037900000000,PA19 1BU,2014-07-14,fhis_improvement_required_en-GB,Improvement Required,,FHIS,
442146,32 Burnhead Street Greenock,,,,Auchmountain Community Resource Centre,Other catering premises,7841,,,451,,,55.93522100000000,00/05798/COMM,778,safer.communities@inverclyde.gov.uk,Inverclyde,http://www.inverclyde.gov.uk/business-and-trade/food-safety-and-standards/,-4.74112600000000,PA15 3LG,2014-06-23,fhis_pass_en-GB,Pass,,FHIS,
442147,11 West Stewart Street Greenock,,,,Aulds,Retailers - other,4613,,,305,,,55.94944800000000,00/00702/COMM,778,safer.communities@inverclyde.gov.uk,Inverclyde,http://www.inverclyde.gov.uk/business-and-trade/food-safety-and-standards/,-4.76250800000000,PA15 1SN,2014-11-10,fhis_improvement_required_en-GB,Improvement Required,,FHIS,
442148,39 - 41 Kempock Street Gourock,,,,Aulds,Retailers - other,4613,,,197,,,55.96144900000000,00/00370/COMM,778,safer.communities@inverclyde.gov.uk,Inverclyde,http://www.inverclyde.gov.uk/business-and-trade/food-safety-and-standards/,-4.82039500000000,PA19 1NF,2014-12-15,fhis_pass_en-GB,Pass,,FHIS,
442149,46 Princes Street Port Glasgow,,,,Aulds,Retailers - other,4613,,,250,,,55.93427700000000,00/00510/COMM,778,safer.communities@inverclyde.gov.uk,Inverclyde,http://www.inverclyde.gov.uk/business-and-trade/food-safety-and-standards/,-4.68976900000000,PA14 5JQ,2014-10-29,fhis_pass_en-GB,Pass,,FHIS,
442150,52 Hamilton Way Greenock,,,,Aulds,Retailers - other,4613,,,174,,,55.94864800000000,00/00296/COMM,778,safer.communities@inverclyde.gov.uk,Inverclyde,http://www.inverclyde.gov.uk/business-and-trade/food-safety-and-standards/,-4.75852600000000,PA15 1RH,2014-12-11,fhis_pass_en-GB,Pass,,FHIS,
442151,64 Cathcart Street Greenock,,,,Aulds,Retailers - other,4613,,,116,,,55.94679700000000,00/00132/COMM,778,safer.communities@inverclyde.gov.uk,Inverclyde,http://www.inverclyde.gov.uk/business-and-trade/food-safety-and-standards/,-4.75285200000000,PA15 1DD,2014-11-18,fhis_pass_en-GB,Pass,,FHIS,
442152,66 Cardwell Road Gourock,,,,Aulds,Retailers - other,4613,,,108,,,55.95624500000000,00/00119/COMM,778,safer.communities@inverclyde.gov.uk,Inverclyde,http://www.inverclyde.gov.uk/business-and-trade/food-safety-and-standards/,-4.80380200000000,PA19 1UN,2015-01-08,fhis_pass_en-GB,Pass,,FHIS,
442153,66 Lynedoch Street Greenock,,,,Aulds,Retailers - other,4613,,,220,,,55.94384900000000,00/00419/COMM,778,safer.communities@inverclyde.gov.uk,Inverclyde,http://www.inverclyde.gov.uk/business-and-trade/food-safety-and-standards/,-4.75647100000000,PA15 4AE,2015-02-02,fhis_pass_en-GB,Pass,,FHIS,
442154,85 West Blackhall Street Greenock,,,,Aulds,Retailers - other,4613,,,301,,,55.95133500000000,00/00690/COMM,778,safer.communities@inverclyde.gov.uk,Inverclyde,http://www.inverclyde.gov.uk/business-and-trade/food-safety-and-standards/,-4.76256200000000,PA15 1XP,2014-12-01,fhis_pass_en-GB,Pass,,FHIS,
442155,9B Brisbane Street Greenock,,,,Aulds,Retailers - other,4613,,,78,,,55.94927200000000,00/00084/COMM,778,safer.communities@inverclyde.gov.uk,Inverclyde,http://www.inverclyde.gov.uk/business-and-trade/food-safety-and-standards/,-4.76794200000000,PA16 8LH,2014-11-17,fhis_pass_en-GB,Pass,,FHIS,
442156,2 Inverkip Street Greenock,,,,B & M Homestore,Retailers - supermarkets/hypermarkets,7840,,,33027,,,55.94823400000000,10/00020/COMM,778,safer.communities@inverclyde.gov.uk,Inverclyde,http://www.inverclyde.gov.uk/business-and-trade/food-safety-and-standards/,-4.76413600000000,PA15 1SZ,2014-09-03,fhis_pass_en-GB,Pass,,FHIS,
442157,2 Sinclair Street GREENOCK,,,,Babylon,Takeaway/sandwich shop,7844,,,635258,,,55.94192400000000,13/00072/COMM,778,safer.communities@inverclyde.gov.uk,Inverclyde,http://www.inverclyde.gov.uk/business-and-trade/food-safety-and-standards/,-4.72585500000000,PA15 2TU,2014-03-27,fhis_improvement_required_en-GB,Improvement Required,,FHIS,
442158,47 Eldon Street Greenock,,,,Bagatelle,Hospitals/Childcare/Caring Premises,5,,,155,,,55.90966700000000,00/00227/COMM,778,safer.communities@inverclyde.gov.uk,Inverclyde,http://www.inverclyde.gov.uk/business-and-trade/food-safety-and-standards/,-4.81439000000000,PA16 7RB,2014-02-26,fhis_pass_en-GB,Pass,,FHIS,
442159,54 West Blackhall Street Greenock,,,,Baguette Express,Takeaway/sandwich shop,7844,,,495,,,55.95031700000000,00/06045/COMM,778,safer.communities@inverclyde.gov.uk,Inverclyde,http://www.inverclyde.gov.uk/business-and-trade/food-safety-and-standards/,-4.76104800000000,PA15 1UY,2012-11-02,fhis_pass_en-GB,Pass,,FHIS,
442160,1A Newton Street GREENOCK,,,,Baker's Fayre,Takeaway/sandwich shop,7844,,,579813,,,55.94730300000000,13/00034/COMM,778,safer.communities@inverclyde.gov.uk,Inverclyde,http://www.inverclyde.gov.uk/business-and-trade/food-safety-and-standards/,-4.76877900000000,PA16 8UH,2013-11-06,fhis_pass_en-GB,Pass,,FHIS,
442161,Forsyth Street Greenock,,,,Balclutha Court,Hospitals/Childcare/Caring Premises,5,,,162,,,55.95385900000000,00/00248/COMM,778,safer.communities@inverclyde.gov.uk,Inverclyde,http://www.inverclyde.gov.uk/business-and-trade/food-safety-and-standards/,-4.77461400000000,PA16 8DY,2014-10-21,fhis_pass_en-GB,Pass,,FHIS,
442162,3 - 5 John Street Gourock,,,,Bambinos Nursery,Hospitals/Childcare/Caring Premises,5,,,46501,,,55.95958500000000,11/00069/COMM,778,safer.communities@inverclyde.gov.uk,Inverclyde,http://www.inverclyde.gov.uk/business-and-trade/food-safety-and-standards/,-4.81659000000000,PA19 1PR,2014-01-09,fhis_pass_en-GB,Pass,,FHIS,
442163,76 Inverkip Road Greenock,,,,Barrs Cottage Chip Shop,Takeaway/sandwich shop,7844,,,181,,,55.94304500000000,00/00316/COMM,778,safer.communities@inverclyde.gov.uk,Inverclyde,http://www.inverclyde.gov.uk/business-and-trade/food-safety-and-standards/,-4.78538900000000,PA16 9AP,2014-03-26,fhis_pass_en-GB,Pass,,FHIS,
442164,BASK (Before And After School) Kilmacolm Primary Churchill Road Kilmacolm,,,,BASK,Hospitals/Childcare/Caring Premises,5,,,550797,,,55.89092600000000,12/00034/COMM,778,safer.communities@inverclyde.gov.uk,Inverclyde,http://www.inverclyde.gov.uk/business-and-trade/food-safety-and-standards/,-4.63323300000000,PA13 4LH,2013-06-19,fhis_pass_en-GB,Pass,,FHIS,
442165,Private School Knockbuckle Road Kilmacolm,,,,BASK Home Time,Hospitals/Childcare/Caring Premises,5,,,550799,,,55.89244100000000,12/00084/COMM,778,safer.communities@inverclyde.gov.uk,Inverclyde,http://www.inverclyde.gov.uk/business-and-trade/food-safety-and-standards/,-4.63512700000000,PA13 4EQ,2013-06-19,fhis_pass_en-GB,Pass,,FHIS,
442166,6 - 8 Bath Street Gourock,,,,Bath Street Arches,Restaurant/Cafe/Canteen,1,,,479338,,,55.96127700000000,12/00109/COMM,778,safer.communities@inverclyde.gov.uk,Inverclyde,http://www.inverclyde.gov.uk/business-and-trade/food-safety-and-standards/,-4.81805900000000,PA19 1PA,2014-03-25,fhis_pass_en-GB,Pass,,FHIS,
442167,Eldon Street GREENOCK,,,,Battery Park Nursery,Hospitals/Childcare/Caring Premises,5,,,579816,,,55.96054300000000,13/00046/COMM,778,safer.communities@inverclyde.gov.uk,Inverclyde,http://www.inverclyde.gov.uk/business-and-trade/food-safety-and-standards/,-4.79703000000000,PA16 7QG,2014-10-06,fhis_pass_en-GB,Pass,,FHIS,
442168,c/o 40 West Stewart Street Greenock,,,,Bay Ices (H6 RKY),Mobile caterer,7846,,,209041,,,55.95214800000000,00/03193/STTRAD,778,safer.communities@inverclyde.gov.uk,Inverclyde,http://www.inverclyde.gov.uk/business-and-trade/food-safety-and-standards/,-4.76399800000000,PA15 1YA,2015-02-09,fhis_pass_en-GB,Pass,,FHIS,
442169,c/o 40 West Stewart Street Greenock,,,,Bay Ices (Reg M99 EAT),Mobile caterer,7846,,,209042,,,55.95214800000000,09/00044/STTRAD,778,safer.communities@inverclyde.gov.uk,Inverclyde,http://www.inverclyde.gov.uk/business-and-trade/food-safety-and-standards/,-4.76399800000000,PA15 1YA,2010-03-23,fhis_pass_en-GB,Pass,,FHIS,
442170,Ashlea  Shore Road Wemyss Bay,,,,Bay Newsagents,Retailers - other,4613,,,460,,,55.87606800000000,00/05845/COMM,778,safer.communities@inverclyde.gov.uk,Inverclyde,http://www.inverclyde.gov.uk/business-and-trade/food-safety-and-standards/,-4.88838900000000,PA18 6AR,2010-03-23,fhis_pass_en-GB,Pass,,FHIS,
442171,13 Beatock Place Inverkip,,,,Belle Vue,Hotel/bed & breakfast/guest house,7842,,,33153,,,55.90620800000000,10/00028/COMM,778,safer.communities@inverclyde.gov.uk,Inverclyde,http://www.inverclyde.gov.uk/business-and-trade/food-safety-and-standards/,-4.86685200000000,PA16 0DZ,2011-11-14,fhis_pass_en-GB,Pass,,FHIS,
442172,27 Newark Street Greenock,,,,Belleaire House,Hospitals/Childcare/Caring Premises,5,,,520,,,55.95818200000000,00/06121/COMM,778,safer.communities@inverclyde.gov.uk,Inverclyde,http://www.inverclyde.gov.uk/business-and-trade/food-safety-and-standards/,-4.77984300000000,PA16 7UN,2014-07-14,fhis_pass_en-GB,Pass,,FHIS,
442173,34 - 36 Sinclair Street Greenock,,,,Ben & Sues,Takeaway/sandwich shop,7844,,,391,,,55.93917200000000,00/04799/COMM,778,safer.communities@inverclyde.gov.uk,Inverclyde,http://www.inverclyde.gov.uk/business-and-trade/food-safety-and-standards/,-4.72713500000000,PA15 2EY,2014-07-23,fhis_pass_en-GB,Pass,,FHIS,
442174,Turnberry Avenue Gourock,,,,Berghaus Bed & Breakfast,Hotel/bed & breakfast/guest house,7842,,,441,,,55.95127700000000,00/05473/COMM,778,safer.communities@inverclyde.gov.uk,Inverclyde,http://www.inverclyde.gov.uk/business-and-trade/food-safety-and-standards/,-4.84330100000000,PA19 1JA,2010-03-12,fhis_pass_en-GB,Pass,,FHIS,
442175,Greenock West Station Inverkip Street Greenock,,,,Bica,Restaurant/Cafe/Canteen,1,,,46912,,,55.94754300000000,11/00093/COMM,778,safer.communities@inverclyde.gov.uk,Inverclyde,http://www.inverclyde.gov.uk/business-and-trade/food-safety-and-standards/,-4.76488700000000,PA15 1TF,2014-03-20,fhis_pass_en-GB,Pass,,FHIS,
442176,10 Moss Road Port Glasgow,,,,Big Bites,Takeaway/sandwich shop,7844,,,457,,,55.92323100000000,00/05833/COMM,778,safer.communities@inverclyde.gov.uk,Inverclyde,http://www.inverclyde.gov.uk/business-and-trade/food-safety-and-standards/,-4.65871600000000,PA14 6HF,2014-04-08,fhis_pass_en-GB,Pass,,FHIS,
442177,Gamble Halls Shore Street Gourock,,,,Binnie St Lunch Club,Other catering premises,7841,,,392,,,55.95752000000000,00/04807/COMM,778,safer.communities@inverclyde.gov.uk,Inverclyde,http://www.inverclyde.gov.uk/business-and-trade/food-safety-and-standards/,-4.81371600000000,PA19 1RG,2013-10-23,fhis_pass_en-GB,Pass,,FHIS,
442178,Binnie Street Gourock,,,,Binnie Street Children's Centre,Hospitals/Childcare/Caring Premises,5,,,452654,,,55.95795800000000,12/00070/COMM,778,safer.communities@inverclyde.gov.uk,Inverclyde,http://www.inverclyde.gov.uk/business-and-trade/food-safety-and-standards/,-4.81696800000000,PA19 1PZ,2014-03-18,fhis_pass_en-GB,Pass,,FHIS,
442179,Birkmyre Park Fitness Gym Broomknowe Road Kilmacolm,,,,Birkmyre Cafe By Nardini,Restaurant/Cafe/Canteen,1,,,533917,,,55.89366800000000,13/00033/COMM,778,safer.communities@inverclyde.gov.uk,Inverclyde,http://www.inverclyde.gov.uk/business-and-trade/food-safety-and-standards/,-4.63660200000000,PA13 4HX,2014-11-13,fhis_pass_en-GB,Pass,,FHIS,
442180,7  Laird Street Greenock,,,,Black Cat,Pub/bar/nightclub,7843,,,209,,,55.95085700000000,00/00392/COMM,778,safer.communities@inverclyde.gov.uk,Inverclyde,http://www.inverclyde.gov.uk/business-and-trade/food-safety-and-standards/,-4.76100700000000,PA15 1LB,2010-06-10,fhis_pass_en-GB,Pass,,FHIS,
442181,45 Hamilton Way Greenock,,,,Blacks,Retailers - other,4613,,,353,,,55.94857900000000,00/01515/COMM,778,safer.communities@inverclyde.gov.uk,Inverclyde,http://www.inverclyde.gov.uk/business-and-trade/food-safety-and-standards/,-4.76039600000000,PA15 1RQ,2010-09-24,fhis_pass_en-GB,Pass,,FHIS,
442182,15 St James Terrace Lochwinnoch Road Kilmacolm,,,,Blackwood Of Kilmacolm Ltd,Manufacturers/packers,7839,,,290,,,55.89383900000000,00/00648/COMM,778,safer.communities@inverclyde.gov.uk,Inverclyde,http://www.inverclyde.gov.uk/business-and-trade/food-safety-and-standards/,-4.62815200000000,PA13 4HB,2014-03-24,fhis_pass_en-GB,Pass,,FHIS,
442183,Blairmore Road Greenock,,,,Blairmore Nursery School,Hospitals/Childcare/Caring Premises,5,,,33503,,,55.93458900000000,10/00048/COMM,778,safer.communities@inverclyde.gov.uk,Inverclyde,http://www.inverclyde.gov.uk/business-and-trade/food-safety-and-standards/,-4.73802200000000,PA15 3JS,2015-01-21,fhis_pass_en-GB,Pass,,FHIS,
442184,73 West Blackhall Street Greenock,,,,Blockbuster Video Hire Ltd.,Retailers - other,4613,,,300,,,55.93664900000000,00/00688/COMM,778,safer.communities@inverclyde.gov.uk,Inverclyde,http://www.inverclyde.gov.uk/business-and-trade/food-safety-and-standards/,-4.73988300000000,PA15 1XJ,2012-02-07,fhis_pass_en-GB,Pass,,FHIS,
442185,Wren Road Greenock,,,,Bluebird Centre,Restaurant/Cafe/Canteen,1,,,389,,,55.94419500000000,00/04786/COMM,778,safer.communities@inverclyde.gov.uk,Inverclyde,http://www.inverclyde.gov.uk/business-and-trade/food-safety-and-standards/,-4.79774000000000,PA16 7NH,2012-02-03,fhis_pass_en-GB,Pass,,FHIS,
442186,117 Grieve Road GREENOCK,,,,Bobby's,Takeaway/sandwich shop,7844,,,682940,,,55.94996100000000,14/00041/COMM,778,safer.communities@inverclyde.gov.uk,Inverclyde,http://www.inverclyde.gov.uk/business-and-trade/food-safety-and-standards/,-4.79474400000000,PA16 7AW,2014-08-26,fhis_pass_en-GB,Pass,,FHIS,
442187,43 Hamilton Way Greenock,,,,Boots The Chemist,Retailers - other,4613,,,173,,,55.94857900000000,00/00294/COMM,778,safer.communities@inverclyde.gov.uk,Inverclyde,http://www.inverclyde.gov.uk/business-and-trade/food-safety-and-standards/,-4.76039600000000,PA15 1RQ,2010-09-02,fhis_pass_en-GB,Pass,,FHIS,
442188,28 - 30 Bow Road GREENOCK,,,,Bow Road Post Office,Retailers - other,4613,,,729971,,,55.94488700000000,14/00057/COMM,778,safer.communities@inverclyde.gov.uk,Inverclyde,http://www.inverclyde.gov.uk/business-and-trade/food-safety-and-standards/,-4.78659400000000,PA16 7ED,2015-01-13,fhis_pass_en-GB,Pass,,FHIS,
442189,Inverkip Road Greenock,,,,BP Branchton,Retailers - other,4613,,,184,,,55.93801800000000,00/00325/COMM,778,safer.communities@inverclyde.gov.uk,Inverclyde,http://www.inverclyde.gov.uk/business-and-trade/food-safety-and-standards/,-4.81122800000000,PA16 0PX,2010-09-14,fhis_pass_en-GB,Pass,,FHIS,
442190,Branchton Road Greenock,,,,Branchton Community Resource & Family Centre,Other catering premises,7841,,,395,,,55.93746600000000,00/04842/COMM,778,safer.communities@inverclyde.gov.uk,Inverclyde,http://www.inverclyde.gov.uk/business-and-trade/food-safety-and-standards/,-4.80901000000000,PA16 0XX,2013-01-24,fhis_improvement_required_en-GB,Improvement Required,,FHIS,
442191,9C Brisbane Street Greenock,,,,"Brisbane Street, Post Office",Retailers - other,4613,,,80,,,55.94927200000000,00/00085/COMM,778,safer.communities@inverclyde.gov.uk,Inverclyde,http://www.inverclyde.gov.uk/business-and-trade/food-safety-and-standards/,-4.76794200000000,PA16 8LH,2010-03-23,fhis_pass_en-GB,Pass,,FHIS,
442192,15 Terrace Road Greenock,,,,Britannia Social Club,Pub/bar/nightclub,7843,,,291,,,55.94517300000000,00/00653/COMM,778,safer.communities@inverclyde.gov.uk,Inverclyde,http://www.inverclyde.gov.uk/business-and-trade/food-safety-and-standards/,-4.75352200000000,PA15 1DJ,2009-10-09,fhis_pass_en-GB,Pass,,FHIS,
442193,112  Drumfrochar Road Greenock,,,,Broomhill Bar,Pub/bar/nightclub,7843,,,144,,,55.94191500000000,00/00198/COMM,778,safer.communities@inverclyde.gov.uk,Inverclyde,http://www.inverclyde.gov.uk/business-and-trade/food-safety-and-standards/,-4.76655200000000,PA15 4HF,2010-03-17,fhis_pass_en-GB,Pass,,FHIS,
442194,4 Broomhill Way Greenock,,,,Broomhill Licensed Grocers,Retailers - other,4613,,,84,,,55.94213800000000,00/00089/COMM,778,safer.communities@inverclyde.gov.uk,Inverclyde,http://www.inverclyde.gov.uk/business-and-trade/food-safety-and-standards/,-4.76581500000000,PA15 4HE,2014-08-13,fhis_improvement_required_en-GB,Improvement Required,,FHIS,
442195,18 Nicolson Street Greenock,,,,Brown's CafÃ©,Restaurant/Cafe/Canteen,1,,,444,,,55.95030600000000,00/05741/COMM,778,safer.communities@inverclyde.gov.uk,Inverclyde,http://www.inverclyde.gov.uk/business-and-trade/food-safety-and-standards/,-4.76034200000000,PA15 1JU,2013-09-25,fhis_pass_en-GB,Pass,,FHIS,
442196,31 Turnberry Avenue GOUROCK,,,,Buckley's,Mobile caterer,7846,,,418355,,,55.95134400000000,12/00040/STTRAD,778,safer.communities@inverclyde.gov.uk,Inverclyde,http://www.inverclyde.gov.uk/business-and-trade/food-safety-and-standards/,-4.84313000000000,PA19 1JA,2013-06-28,fhis_improvement_required_en-GB,Improvement Required,,FHIS,
442197,17 - 19 West Blackhall Street Greenock,,,,Burger King,Restaurant/Cafe/Canteen,1,,,302,,,55.94943100000000,00/00692/COMM,778,safer.communities@inverclyde.gov.uk,Inverclyde,http://www.inverclyde.gov.uk/business-and-trade/food-safety-and-standards/,-4.76127300000000,PA15 1UA,2014-05-26,fhis_pass_en-GB,Pass,,FHIS,
442198,80 Braeside Road Greenock,,,,Burns Lounge,Pub/bar/nightclub,7843,,,70,,,55.93686400000000,00/00074/COMM,778,safer.communities@inverclyde.gov.uk,Inverclyde,http://www.inverclyde.gov.uk/business-and-trade/food-safety-and-standards/,-4.82472500000000,PA16 0RH,2010-05-25,fhis_pass_en-GB,Pass,,FHIS,
442199,13 Grey Place Greenock,,,,Buyrite,Retailers - other,4613,,,168,,,55.95270800000000,00/00271/COMM,778,safer.communities@inverclyde.gov.uk,Inverclyde,http://www.inverclyde.gov.uk/business-and-trade/food-safety-and-standards/,-4.76426200000000,PA15 1YF,2010-03-12,fhis_pass_en-GB,Pass,,FHIS,
442200,118 West Blackhall Street Greenock,,,,Cafe Balfe,Restaurant/Cafe/Canteen,1,,,452,,,55.95176400000000,00/05799/COMM,778,safer.communities@inverclyde.gov.uk,Inverclyde,http://www.inverclyde.gov.uk/business-and-trade/food-safety-and-standards/,-4.76225700000000,PA15 1XR,2012-07-10,fhis_pass_en-GB,Pass,,FHIS,
442201,2 Kip Park Main Street Inverkip,,,,Cafe Bongio,Restaurant/Cafe/Canteen,1,,,29070,,,55.90780900000000,09/00050/COMM,778,safer.communities@inverclyde.gov.uk,Inverclyde,http://www.inverclyde.gov.uk/business-and-trade/food-safety-and-standards/,-4.87181900000000,PA16 0AT,2014-09-22,fhis_improvement_required_en-GB,Improvement Required,,FHIS,
442202,40 Kempock Street Gourock,,,,Cafe Continental,Pub/bar/nightclub,7843,,,386,,,55.96155900000000,00/03281/COMM,778,safer.communities@inverclyde.gov.uk,Inverclyde,http://www.inverclyde.gov.uk/business-and-trade/food-safety-and-standards/,-4.82104400000000,PA19 1ND,2013-11-20,fhis_pass_en-GB,Pass,,FHIS,
442203,Kip Marina Retail Unit 2 4 Main Road INVERKIP,,,,Cafe Riva,Restaurant/Cafe/Canteen,1,,,45814,,,55.91003800000000,11/00029/COMM,778,safer.communities@inverclyde.gov.uk,Inverclyde,http://www.inverclyde.gov.uk/business-and-trade/food-safety-and-standards/,-4.86643000000000,PA16 0AS,2014-10-06,fhis_pass_en-GB,Pass,,FHIS,
442204,Block 8 Units 48 & 49 Muirshiel Road Port Glasgow,,,,Cafe Roma,Restaurant/Cafe/Canteen,1,,,544,,,55.92481500000000,00/06197/COMM,778,safer.communities@inverclyde.gov.uk,Inverclyde,http://www.inverclyde.gov.uk/business-and-trade/food-safety-and-standards/,-4.66654100000000,PA14 5XJ,2014-02-03,fhis_pass_en-GB,Pass,,FHIS,
442205,7 Hamilton Way Greenock,,,,Cafe Su,Restaurant/Cafe/Canteen,1,,,46182,,,55.94782100000000,11/00051/COMM,778,safer.communities@inverclyde.gov.uk,Inverclyde,http://www.inverclyde.gov.uk/business-and-trade/food-safety-and-standards/,-4.75850000000000,PA15 1JJ,2014-07-08,fhis_improvement_required_en-GB,Improvement Required,,FHIS,
442206,12 Bank Street Greenock,,,,Caladh House,Hospitals/Childcare/Caring Premises,5,,,45675,,,55.94501300000000,11/00020/COMM,778,safer.communities@inverclyde.gov.uk,Inverclyde,http://www.inverclyde.gov.uk/business-and-trade/food-safety-and-standards/,-4.75788300000000,PA15 4PG,2015-02-06,fhis_pass_en-GB,Pass,,FHIS,
442207,Craigbet Road Quarriers Village,,,,Campbell Snowdon House,Hospitals/Childcare/Caring Premises,5,,,288,,,55.86727200000000,00/00627/COMM,778,safer.communities@inverclyde.gov.uk,Inverclyde,http://www.inverclyde.gov.uk/business-and-trade/food-safety-and-standards/,-4.61666900000000,PA11 3SX,2015-02-11,fhis_pass_en-GB,Pass,,FHIS,
442208,Cappielow Park Sinclair Street Greenock,,,,Cappielow Catering,Takeaway/sandwich shop,7844,,,408,,,55.93664900000000,00/05043/COMM,778,safer.communities@inverclyde.gov.uk,Inverclyde,http://www.inverclyde.gov.uk/business-and-trade/food-safety-and-standards/,-4.73988300000000,PA15 2TY,2014-10-22,fhis_improvement_required_en-GB,Improvement Required,,FHIS,
442209,34 Hamilton Way Greenock,,,,Card Factory,Retailers - other,4613,,,332010,,,55.94864800000000,00/05272/COMM,778,safer.communities@inverclyde.gov.uk,Inverclyde,http://www.inverclyde.gov.uk/business-and-trade/food-safety-and-standards/,-4.75852600000000,PA15 1RH,2012-04-20,fhis_exempt_en-GB,Exempt,,FHIS,
442210,Cloch Road Gourock,,,,Cardwell Garden Centre,Restaurant/Cafe/Canteen,1,,,214,,,55.93507900000000,00/00405/COMM,778,safer.communities@inverclyde.gov.uk,Inverclyde,http://www.inverclyde.gov.uk/business-and-trade/food-safety-and-standards/,-4.87542300000000,PA19 1BB,2013-11-06,fhis_pass_en-GB,Pass,,FHIS,
442211,2 Carnock Street Greenock,,,,Carnock Bar,Pub/bar/nightclub,7843,,,33940,,,55.94335300000000,10/00077/COMM,778,safer.communities@inverclyde.gov.uk,Inverclyde,http://www.inverclyde.gov.uk/business-and-trade/food-safety-and-standards/,-4.74809100000000,PA15 1HB,2014-11-06,fhis_pass_en-GB,Pass,,FHIS,
442212,Stepends Road Kilmacolm,,,,Carruthmuir Cottage,Hospitals/Childcare/Caring Premises,5,,,481441,,,55.83678800000000,12/00100/COMM,778,safer.communities@inverclyde.gov.uk,Inverclyde,http://www.inverclyde.gov.uk/business-and-trade/food-safety-and-standards/,-4.63415400000000,PA10 2QA,2013-02-08,fhis_pass_en-GB,Pass,,FHIS,
442213,134 West Blackhall Street Greenock,,,,Cathay Royale,Restaurant/Cafe/Canteen,1,,,400,,,55.95176400000000,00/04880/COMM,778,safer.communities@inverclyde.gov.uk,Inverclyde,http://www.inverclyde.gov.uk/business-and-trade/food-safety-and-standards/,-4.76225700000000,PA15 1XR,2014-08-20,fhis_improvement_required_en-GB,Improvement Required,,FHIS,
442214,31 Ardgowan Square GREENOCK,,,,Cedar's School Of Excellence,School/college/university,7845,,,384171,,,55.95128900000000,12/00056/COMM,778,safer.communities@inverclyde.gov.uk,Inverclyde,http://www.inverclyde.gov.uk/business-and-trade/food-safety-and-standards/,-4.76781400000000,PA16 8NJ,2013-08-30,fhis_pass_en-GB,Pass,,FHIS,
442215,19 West Stewart Street Greenock,,,,Cellar No 1,Retailers - other,4613,,,34324,,,55.94944800000000,10/00108/COMM,778,safer.communities@inverclyde.gov.uk,Inverclyde,http://www.inverclyde.gov.uk/business-and-trade/food-safety-and-standards/,-4.76250800000000,PA15 1SN,2011-05-10,fhis_pass_en-GB,Pass,,FHIS,
442216,Laird Street Greenock,,,,Celtic Supporters Club,Pub/bar/nightclub,7843,,,210,,,55.95085700000000,00/00393/COMM,778,safer.communities@inverclyde.gov.uk,Inverclyde,http://www.inverclyde.gov.uk/business-and-trade/food-safety-and-standards/,-4.76100700000000,PA15 1LB,2010-03-12,fhis_pass_en-GB,Pass,,FHIS,
442217,Inverclyde Royal Hospital Larkfield Road Greenock,,,,Central Production Unit,Hospitals/Childcare/Caring Premises,5,,,211,,,55.94380300000000,00/00398/COMM,778,safer.communities@inverclyde.gov.uk,Inverclyde,http://www.inverclyde.gov.uk/business-and-trade/food-safety-and-standards/,-4.80978900000000,PA16 0XN,2014-10-28,fhis_pass_en-GB,Pass,,FHIS,
442218,2 Dubbs Road Port Glasgow,,,,Chan's Chinese Carry Out,Takeaway/sandwich shop,7844,,,145,,,55.92512000000000,00/00202/COMM,778,safer.communities@inverclyde.gov.uk,Inverclyde,http://www.inverclyde.gov.uk/business-and-trade/food-safety-and-standards/,-4.66531300000000,PA14 5UA,2014-04-02,fhis_improvement_required_en-GB,Improvement Required,,FHIS,
442219,30 Inverkip Street Greenock,,,,Chaplins & Victoria Suite,Pub/bar/nightclub,7843,,,459,,,55.94754300000000,00/05841/COMM,778,safer.communities@inverclyde.gov.uk,Inverclyde,http://www.inverclyde.gov.uk/business-and-trade/food-safety-and-standards/,-4.76488700000000,PA15 1TF,2010-03-17,fhis_pass_en-GB,Pass,,FHIS,
442220,Kip Marina The Chartroom Main Road Inverkip,,,,Chartroom Bar & Restaurant,Restaurant/Cafe/Canteen,1,,,206,,,55.90912900000000,00/00387/COMM,778,safer.communities@inverclyde.gov.uk,Inverclyde,http://www.inverclyde.gov.uk/business-and-trade/food-safety-and-standards/,-4.87150000000000,PA16 0AW,2012-09-13,fhis_pass_en-GB,Pass,,FHIS,
442221,88 Belville Street Greenock,,,,Chemist (McDades),Retailers - other,4613,,,52,,,55.94214000000000,00/00054/COMM,778,safer.communities@inverclyde.gov.uk,Inverclyde,http://www.inverclyde.gov.uk/business-and-trade/food-safety-and-standards/,-4.73556000000000,PA15 4TA,2010-03-04,fhis_pass_en-GB,Pass,,FHIS,
442222,12 Inverkip Street Greenock,,,,China Carry Out,Takeaway/sandwich shop,7844,,,34368,,,55.94823400000000,10/00111/COMM,778,safer.communities@inverclyde.gov.uk,Inverclyde,http://www.inverclyde.gov.uk/business-and-trade/food-safety-and-standards/,-4.76413600000000,PA15 1SZ,2012-11-06,fhis_pass_en-GB,Pass,,FHIS,
442223,47 - 49 Cathcart Street Greenock,,,,China Garden,Restaurant/Cafe/Canteen,1,,,115,,,55.94624100000000,00/00131/COMM,778,safer.communities@inverclyde.gov.uk,Inverclyde,http://www.inverclyde.gov.uk/business-and-trade/food-safety-and-standards/,-4.75159500000000,PA15 1DG,2013-04-17,fhis_pass_en-GB,Pass,,FHIS,
442224,84 Inverkip Road Greenock,,,,Chows,Takeaway/sandwich shop,7844,,,33102,,,55.94202500000000,10/00025/COMM,778,safer.communities@inverclyde.gov.uk,Inverclyde,http://www.inverclyde.gov.uk/business-and-trade/food-safety-and-standards/,-4.78598800000000,PA16 9EH,2014-12-08,fhis_pass_en-GB,Pass,,FHIS,
442225,Scott House 1 Knowe Road Greenock,,,,Cigna House,Restaurant/Cafe/Canteen,1,,,207,,,55.93664900000000,00/00389/COMM,778,safer.communities@inverclyde.gov.uk,Inverclyde,http://www.inverclyde.gov.uk/business-and-trade/food-safety-and-standards/,-4.73988300000000,PA15 4RL,2014-08-19,fhis_pass_en-GB,Pass,,FHIS,
442226,4 Kempock Street Gourock,,,,Cleats Bar Room,Pub/bar/nightclub,7843,,,193,,,55.96205600000000,00/00357/COMM,778,safer.communities@inverclyde.gov.uk,Inverclyde,http://www.inverclyde.gov.uk/business-and-trade/food-safety-and-standards/,-4.81898100000000,PA19 1NA,2010-03-23,fhis_pass_en-GB,Pass,,FHIS,
442227,54 Hamilton Way Greenock,,,,Clinton Cards,Retailers - other,4613,,,351,,,55.94864800000000,00/01468/COMM,778,safer.communities@inverclyde.gov.uk,Inverclyde,http://www.inverclyde.gov.uk/business-and-trade/food-safety-and-standards/,-4.75852600000000,PA15 1RH,2012-02-07,fhis_pass_en-GB,Pass,,FHIS,
442228,Montgomerie Street Port Glasgow,,,,Clune Park Resource Centre Cafe,Other catering premises,7841,,,455,,,55.93153100000000,00/05824/COMM,778,safer.communities@inverclyde.gov.uk,Inverclyde,http://www.inverclyde.gov.uk/business-and-trade/food-safety-and-standards/,-4.67472000000000,PA14 5NS,2013-11-05,fhis_pass_en-GB,Pass,,FHIS,
442229,Victoria Harbour Rue End Street GREENOCK,,,,Clyde Marine Services Ltd.,Other catering premises,7841,,,445,,,55.94591100000000,00/05743/COMM,778,safer.communities@inverclyde.gov.uk,Inverclyde,http://www.inverclyde.gov.uk/business-and-trade/food-safety-and-standards/,-4.74665500000000,PA15 1HW,2010-06-10,fhis_pass_en-GB,Pass,,FHIS,
442230,Caravan Park Shore Road Wemyss Bay,,,,Clyde View Leisure Centre,Restaurant/Cafe/Canteen,1,,,314,,,55.87872500000000,00/00723/COMM,778,safer.communities@inverclyde.gov.uk,Inverclyde,http://www.inverclyde.gov.uk/business-and-trade/food-safety-and-standards/,-4.88546900000000,PA18 6BS,2013-06-12,fhis_improvement_required_en-GB,Improvement Required,,FHIS,
442231,Burnside Road Gourock,,,,Clydeview Academy,School/college/university,7845,,,46220,,,55.94617100000000,11/00053/COMM,778,safer.communities@inverclyde.gov.uk,Inverclyde,http://www.inverclyde.gov.uk/business-and-trade/food-safety-and-standards/,-4.83959700000000,PA19 1UX,2012-10-31,fhis_pass_en-GB,Pass,,FHIS,
442232,4 Alderwood Road Port Glasgow,,,,Clydeview B&B,Hotel/bed & breakfast/guest house,7842,,,34287,,,55.93360100000000,10/00105/COMM,778,safer.communities@inverclyde.gov.uk,Inverclyde,http://www.inverclyde.gov.uk/business-and-trade/food-safety-and-standards/,-4.69684800000000,PA14 5LE,2014-04-08,fhis_pass_en-GB,Pass,,FHIS,
442233,24 Union Street Greenock,,,,Coffee Comfort,Restaurant/Cafe/Canteen,1,,,32946,,,55.95287300000000,10/00015/COMM,778,safer.communities@inverclyde.gov.uk,Inverclyde,http://www.inverclyde.gov.uk/business-and-trade/food-safety-and-standards/,-4.76932100000000,PA16 8DD,2014-12-02,fhis_pass_en-GB,Pass,,FHIS,
442234,Larkfield Unit IRH Larkfield Road Greenock,,,,Coffee Plus,Retailers - other,4613,,,411,,,55.94380300000000,00/05065/COMM,778,safer.communities@inverclyde.gov.uk,Inverclyde,http://www.inverclyde.gov.uk/business-and-trade/food-safety-and-standards/,-4.80978900000000,PA16 0XN,2011-03-22,fhis_pass_en-GB,Pass,,FHIS,
442235,No 1 Lyle Buildings Lochwinnoch Road Kilmacolm,,,,Colin Love Fishmongers,Retailers - other,4613,,,215,,,55.89336600000000,00/00406/COMM,778,safer.communities@inverclyde.gov.uk,Inverclyde,http://www.inverclyde.gov.uk/business-and-trade/food-safety-and-standards/,-4.62800800000000,PA13 4LE,2013-09-26,fhis_pass_en-GB,Pass,,FHIS,
442236,36 King Street Port Glasgow,,,,Comet Bar,Pub/bar/nightclub,7843,,,202,,,55.93507000000000,00/00379/COMM,778,safer.communities@inverclyde.gov.uk,Inverclyde,http://www.inverclyde.gov.uk/business-and-trade/food-safety-and-standards/,-4.68968000000000,PA14 5JE,2009-10-26,fhis_pass_en-GB,Pass,,FHIS,
442237,IBM Spango Inverkip Road Greenock,,,,Compass/IBM UK Ltd,Restaurant/Cafe/Canteen,1,,,279,,,55.92887500000000,00/00601/COMM,778,safer.communities@inverclyde.gov.uk,Inverclyde,http://www.inverclyde.gov.uk/business-and-trade/food-safety-and-standards/,-4.83205300000000,PA16 0AH,2014-12-03,fhis_pass_en-GB,Pass,,FHIS,
442238,46 Robertson Street Greenock,,,,Compston Catering,Other catering premises,7841,,,34187,,,55.94973700000000,10/00097/COMM,778,safer.communities@inverclyde.gov.uk,Inverclyde,http://www.inverclyde.gov.uk/business-and-trade/food-safety-and-standards/,-4.77444700000000,PA16 8QB,2014-02-06,fhis_pass_en-GB,Pass,,FHIS,
442239,21 Eldon Street GREENOCK,,,,Co-op,Retailers - other,4613,,,674901,,,55.95746200000000,14/00031/COMM,778,safer.communities@inverclyde.gov.uk,Inverclyde,http://www.inverclyde.gov.uk/business-and-trade/food-safety-and-standards/,-4.77270900000000,PA16 8BT,2014-07-08,fhis_pass_en-GB,Pass,,FHIS,
442240,Cornalees Visitor Centre Dunrod Road Inverkip,,,,Cornalees Ranger Station,Retailers - other,4613,,,420,,,55.91055400000000,00/05238/COMM,778,safer.communities@inverclyde.gov.uk,Inverclyde,http://www.inverclyde.gov.uk/business-and-trade/food-safety-and-standards/,-4.80544600000000,PA16 9LX,2010-03-23,fhis_pass_en-GB,Pass,,FHIS,
442241,32 Hamilton Way Greenock,,,,Costa Coffee,Restaurant/Cafe/Canteen,1,,,45464,,,55.94864800000000,11/00009/COMM,778,safer.communities@inverclyde.gov.uk,Inverclyde,http://www.inverclyde.gov.uk/business-and-trade/food-safety-and-standards/,-4.75852600000000,PA15 1RH,2011-04-05,fhis_pass_en-GB,Pass,,FHIS,
442242,Russell Way Port Glasgow,,,,Costa Ltd,Takeaway/sandwich shop,7844,,,655583,,,,13/00083/COMM,778,safer.communities@inverclyde.gov.uk,Inverclyde,http://www.inverclyde.gov.uk/business-and-trade/food-safety-and-standards/,,PA14 5DX,2014-06-11,fhis_pass_en-GB,Pass,,FHIS,
442243,1 - 7 Nairn Road Greenock,,,,Costcutter,Retailers - other,4613,,,547,,,55.94451800000000,00/06212/COMM,778,safer.communities@inverclyde.gov.uk,Inverclyde,http://www.inverclyde.gov.uk/business-and-trade/food-safety-and-standards/,-4.82451300000000,PA16 0ES,2015-01-20,fhis_improvement_required_en-GB,Improvement Required,,FHIS,
442244,31 Ingleston Street Greenock,,,,Costcutter,Retailers - other,4613,,,188224,,,55.94117000000000,12/00003/COMM,778,safer.communities@inverclyde.gov.uk,Inverclyde,http://www.inverclyde.gov.uk/business-and-trade/food-safety-and-standards/,-4.74963400000000,PA15 4UQ,2014-10-23,fhis_pass_en-GB,Pass,,FHIS,
442245,54 Captain Street Greenock,,,,Costcutter,Retailers - other,4613,,,410,,,55.94426500000000,00/05061/COMM,778,safer.communities@inverclyde.gov.uk,Inverclyde,http://www.inverclyde.gov.uk/business-and-trade/food-safety-and-standards/,-4.76479800000000,PA15 4LQ,2013-11-28,fhis_pass_en-GB,Pass,,FHIS,
442246,191 Roxburgh Street Greenock,,,,Costcutter Express,Retailers - other,4613,,,34272,,,55.94677100000000,10/00104/COMM,778,safer.communities@inverclyde.gov.uk,Inverclyde,http://www.inverclyde.gov.uk/business-and-trade/food-safety-and-standards/,-4.76886900000000,PA15 4DA,2014-11-14,fhis_improvement_required_en-GB,Improvement Required,,FHIS,
442247,Craigbet Road Quarriers Village,,,,Countryview,Hospitals/Childcare/Caring Premises,5,,,287,,,55.86727200000000,00/00625/COMM,778,safer.communities@inverclyde.gov.uk,Inverclyde,http://www.inverclyde.gov.uk/business-and-trade/food-safety-and-standards/,-4.61666900000000,PA11 3SX,2014-04-09,fhis_pass_en-GB,Pass,,FHIS,
442248,79 Shore Street Gourock,,,,Cowden's Newsagent,Retailers - other,4613,,,270,,,55.95914200000000,00/00573/COMM,778,safer.communities@inverclyde.gov.uk,Inverclyde,http://www.inverclyde.gov.uk/business-and-trade/food-safety-and-standards/,-4.81591700000000,PA19 1RD,2014-09-21,fhis_pass_en-GB,Pass,,FHIS,
442249,70 Lynedoch Street Greenock,,,,Cowdens Newsagents & General Store,Retailers - other,4613,,,221,,,55.94384900000000,00/00420/COMM,778,safer.communities@inverclyde.gov.uk,Inverclyde,http://www.inverclyde.gov.uk/business-and-trade/food-safety-and-standards/,-4.75647100000000,PA15 4AE,2013-11-15,fhis_pass_en-GB,Pass,,FHIS,
442250,Mcleod Street Greenock,,,,Craigend Resource Centre,Other catering premises,7841,,,226,,,55.93953900000000,00/00439/COMM,778,safer.communities@inverclyde.gov.uk,Inverclyde,http://www.inverclyde.gov.uk/business-and-trade/food-safety-and-standards/,-4.72600800000000,PA15 2HD,2012-09-18,fhis_pass_en-GB,Pass,,FHIS,
442251,Burnside Place Port Glasgow Road Kilmacolm,,,,Cross Cafe,Restaurant/Cafe/Canteen,1,,,93,,,55.89434800000000,00/00100/COMM,778,safer.communities@inverclyde.gov.uk,Inverclyde,http://www.inverclyde.gov.uk/business-and-trade/food-safety-and-standards/,-4.62746600000000,PA13 4ET,2013-11-07,fhis_pass_en-GB,Pass,,FHIS,
442252,Crosshill Road Port Glasgow,,,,Crosshill Children's Home,Hospitals/Childcare/Caring Premises,5,,,133,,,55.92400400000000,00/00176/COMM,778,safer.communities@inverclyde.gov.uk,Inverclyde,http://www.inverclyde.gov.uk/business-and-trade/food-safety-and-standards/,-4.66743000000000,PA14 5UN,2014-02-28,fhis_pass_en-GB,Pass,,FHIS,
442253,70 Royal Street Gourock,,,,Cup Cake Corner,Restaurant/Cafe/Canteen,1,,,515,,,55.95788100000000,00/06089/COMM,778,safer.communities@inverclyde.gov.uk,Inverclyde,http://www.inverclyde.gov.uk/business-and-trade/food-safety-and-standards/,-4.81561700000000,PA19 1PP,2015-01-08,fhis_pass_en-GB,Pass,,FHIS,
442254,13 Rossbank Road Port Glasgow,,,,Cupcake Dreams,Other catering premises,7841,,,616618,,,55.93415500000000,12/00089/COMM,778,safer.communities@inverclyde.gov.uk,Inverclyde,http://www.inverclyde.gov.uk/business-and-trade/food-safety-and-standards/,-4.69948100000000,PA14 5AD,2013-12-03,fhis_pass_en-GB,Pass,,FHIS,
442255,41B Angus Road Greenock,,,,Curry House,Takeaway/sandwich shop,7844,,,46463,,,55.94432700000000,11/00067/COMM,778,safer.communities@inverclyde.gov.uk,Inverclyde,http://www.inverclyde.gov.uk/business-and-trade/food-safety-and-standards/,-4.82424300000000,PA16 0PD,2014-11-03,fhis_pass_en-GB,Pass,,FHIS,
442256,Ashgrove Lane Port Glasgow,,,,D & A Mazzoni,Manufacturers/packers,7839,,,29,,,55.93256600000000,00/00021/COMM,778,safer.communities@inverclyde.gov.uk,Inverclyde,http://www.inverclyde.gov.uk/business-and-trade/food-safety-and-standards/,-4.67839400000000,PA14 5NQ,2014-11-18,fhis_pass_en-GB,Pass,,FHIS,
442257,Ashgrove Lane Port Glasgow,,,,D&A Mazzoni FUS461T & KW08 PZO,Mobile caterer,7846,,,466,,,55.93256600000000,00/05916/STTRAD,778,safer.communities@inverclyde.gov.uk,Inverclyde,http://www.inverclyde.gov.uk/business-and-trade/food-safety-and-standards/,-4.67839400000000,PA14 5NQ,2009-08-06,fhis_pass_en-GB,Pass,,FHIS,
442258,72 Shore Street Gourock,,,,Darroch Bar,Pub/bar/nightclub,7843,,,522,,,55.95914200000000,00/06128/COMM,778,safer.communities@inverclyde.gov.uk,Inverclyde,http://www.inverclyde.gov.uk/business-and-trade/food-safety-and-standards/,-4.81591700000000,PA19 1RD,2010-03-17,fhis_pass_en-GB,Pass,,FHIS,
442259,11 - 13 Fore Street Port Glasgow,,,,David Wyse Limited Chemists,Retailers - other,4613,,,161,,,55.93475600000000,00/00245/COMM,778,safer.communities@inverclyde.gov.uk,Inverclyde,http://www.inverclyde.gov.uk/business-and-trade/food-safety-and-standards/,-4.68800900000000,PA14 5EE,2010-05-18,fhis_pass_en-GB,Pass,,FHIS,
442260,David Wyse Chemist 12 John Wood Street PORT GLASGOW,,,,David Wyse Ltd. Chemist,Retailers - other,4613,,,188,,,55.93379000000000,00/00345/COMM,778,safer.communities@inverclyde.gov.uk,Inverclyde,http://www.inverclyde.gov.uk/business-and-trade/food-safety-and-standards/,-4.68863100000000,PA14 5HU,2010-06-09,fhis_pass_en-GB,Pass,,FHIS,
442261,Cottage 103 Upper Village Kilmacolm,,,,Davidson,Hospitals/Childcare/Caring Premises,5,,,339,,,55.86777100000000,00/00889/COMM,778,safer.communities@inverclyde.gov.uk,Inverclyde,http://www.inverclyde.gov.uk/business-and-trade/food-safety-and-standards/,-4.62490300000000,PA11 3SD,2014-01-07,fhis_pass_en-GB,Pass,,FHIS,
442262,14 - 20 Corlic Street Greenock,,,,Day Today,Retailers - other,4613,,,428,,,55.93627700000000,00/05371/COMM,778,safer.communities@inverclyde.gov.uk,Inverclyde,http://www.inverclyde.gov.uk/business-and-trade/food-safety-and-standards/,-4.74214500000000,PA15 3LJ,2014-12-02,fhis_improvement_required_en-GB,Improvement Required,,FHIS,
442263,22 Cumberland Road Greenock,,,,Day Today,Retailers - other,4613,,,28468,,,55.94079500000000,09/00002/COMM,778,safer.communities@inverclyde.gov.uk,Inverclyde,http://www.inverclyde.gov.uk/business-and-trade/food-safety-and-standards/,-4.81005200000000,PA16 0TW,2014-09-08,fhis_pass_en-GB,Pass,,FHIS,
442264,29 Kempock Street Gourock,,,,Day Today,Retailers - other,4613,,,534,,,55.96176200000000,00/06184/COMM,778,safer.communities@inverclyde.gov.uk,Inverclyde,http://www.inverclyde.gov.uk/business-and-trade/food-safety-and-standards/,-4.81886300000000,PA19 1NB,2010-03-23,fhis_pass_en-GB,Pass,,FHIS,
442265,6 East Crawford Street Greenock,,,,Day Today,Retailers - other,4613,,,153,,,55.94136400000000,00/00217/COMM,778,safer.communities@inverclyde.gov.uk,Inverclyde,http://www.inverclyde.gov.uk/business-and-trade/food-safety-and-standards/,-4.73408000000000,PA15 2BT,2014-09-11,fhis_improvement_required_en-GB,Improvement Required,,FHIS,
442266,2-8 Fife Road GREENOCK,,,,Day-Today,Retailers - other,4613,,,712994,,,55.94568800000000,13/00068/COMM,778,safer.communities@inverclyde.gov.uk,Inverclyde,http://www.inverclyde.gov.uk/business-and-trade/food-safety-and-standards/,-4.82326900000000,PA16 0PN,2014-11-03,fhis_improvement_required_en-GB,Improvement Required,,FHIS,
442267,1B Union Street Greenock,,,,D'cake Company,Retailers - other,4613,,,430,,,55.95052900000000,00/05384/COMM,778,safer.communities@inverclyde.gov.uk,Inverclyde,http://www.inverclyde.gov.uk/business-and-trade/food-safety-and-standards/,-4.76522800000000,PA16 8JH,2011-03-22,fhis_pass_en-GB,Pass,,FHIS,
442268,23 Cartsburn Street Greenock,,,,Delhi Deluxe,Restaurant/Cafe/Canteen,1,,,29009,,,55.94222500000000,09/00045/COMM,778,safer.communities@inverclyde.gov.uk,Inverclyde,http://www.inverclyde.gov.uk/business-and-trade/food-safety-and-standards/,-4.74549700000000,PA15 4RR,2014-03-10,fhis_pass_en-GB,Pass,,FHIS,
442269,15 Dellingburn Street GREENOCK,,,,Dellingburn Diner,Takeaway/sandwich shop,7844,,,655585,,,55.94378300000000,14/00020/COMM,778,safer.communities@inverclyde.gov.uk,Inverclyde,http://www.inverclyde.gov.uk/business-and-trade/food-safety-and-standards/,-4.74895400000000,PA15 4RN,2014-11-25,fhis_pass_en-GB,Pass,,FHIS,
442270,22 Denholm Street Greenock,,,,Denholm Bed & Breakfast,Hotel/bed & breakfast/guest house,7842,,,34405,,,55.94998600000000,10/00114/COMM,778,safer.communities@inverclyde.gov.uk,Inverclyde,http://www.inverclyde.gov.uk/business-and-trade/food-safety-and-standards/,-4.77734900000000,PA16 8RJ,2011-05-31,fhis_pass_en-GB,Pass,,FHIS,
442271,3 - 5 West Stewart Street GREENOCK,,,,DGee's,Restaurant/Cafe/Canteen,1,,,509,,,55.94944800000000,00/06080/COMM,778,safer.communities@inverclyde.gov.uk,Inverclyde,http://www.inverclyde.gov.uk/business-and-trade/food-safety-and-standards/,-4.76250800000000,PA15 1SN,2014-11-11,fhis_improvement_required_en-GB,Improvement Required,,FHIS,
442272,2 - 4 Brymner Street Greenock,,,,Domino's,Takeaway/sandwich shop,7844,,,423,,,55.94772600000000,00/05280/COMM,778,safer.communities@inverclyde.gov.uk,Inverclyde,http://www.inverclyde.gov.uk/business-and-trade/food-safety-and-standards/,-4.75234200000000,PA15 1EA,2014-07-16,fhis_pass_en-GB,Pass,,FHIS,
442273,1 - 9 Scarlow Street Port Glasgow,,,,Donnachies Bar,Pub/bar/nightclub,7843,,,419,,,55.93552100000000,00/05235/COMM,778,safer.communities@inverclyde.gov.uk,Inverclyde,http://www.inverclyde.gov.uk/business-and-trade/food-safety-and-standards/,-4.68963100000000,PA14 5EY,2013-11-11,fhis_pass_en-GB,Pass,,FHIS,
442274,18 - 20 Dubbs Road Port Glasgow,,,,Dubbs Road Post Office,Retailers - other,4613,,,323,,,55.92512000000000,00/00755/COMM,778,safer.communities@inverclyde.gov.uk,Inverclyde,http://www.inverclyde.gov.uk/business-and-trade/food-safety-and-standards/,-4.66531300000000,PA14 5UA,2015-01-08,fhis_pass_en-GB,Pass,,FHIS,
442275,23 - 25 Church Street Port Glasgow,,,,Duncan Craft Butchers,Manufacturers/packers,7839,,,574446,,,55.93486200000000,13/00051/COMM,778,safer.communities@inverclyde.gov.uk,Inverclyde,http://www.inverclyde.gov.uk/business-and-trade/food-safety-and-standards/,-4.68892900000000,PA14 5EH,2014-09-30,fhis_pass_en-GB,Pass,,FHIS,
442276,5 Inverkip Street Greenock,,,,Duncan Mackenzie & Son,Manufacturers/packers,7839,,,186,,,55.94799200000000,00/00328/COMM,778,safer.communities@inverclyde.gov.uk,Inverclyde,http://www.inverclyde.gov.uk/business-and-trade/food-safety-and-standards/,-4.76333300000000,PA15 1SX,2014-12-04,fhis_pass_en-GB,Pass,,FHIS,
442277,12 Moss Road Port Glasgow,,,,E & M Deegan,Retailers - other,4613,,,230,,,55.92323100000000,00/00448/COMM,778,safer.communities@inverclyde.gov.uk,Inverclyde,http://www.inverclyde.gov.uk/business-and-trade/food-safety-and-standards/,-4.65871600000000,PA14 6HF,2014-11-17,fhis_improvement_required_en-GB,Improvement Required,,FHIS,
442278,74 Belville Street GREENOCK,,,,East End Pantry,Takeaway/sandwich shop,7844,,,605245,,,55.94175900000000,13/00065/COMM,778,safer.communities@inverclyde.gov.uk,Inverclyde,http://www.inverclyde.gov.uk/business-and-trade/food-safety-and-standards/,-4.73812800000000,PA15 4SY,2014-07-08,fhis_improvement_required_en-GB,Improvement Required,,FHIS,
442279,44 Murdieston Street Greenock,,,,East West Spice,Takeaway/sandwich shop,7844,,,443,,,55.94276200000000,00/05730/COMM,778,safer.communities@inverclyde.gov.uk,Inverclyde,http://www.inverclyde.gov.uk/business-and-trade/food-safety-and-standards/,-4.77285900000000,PA15 4SJ,2012-09-17,fhis_pass_en-GB,Pass,,FHIS,
442280,Site Of Barrow 1 1A Hamilton Way Greenock,,,,Ecosse Fruits,Retailers - other,4613,,,46610,,,55.94782100000000,11/00075/COMM,778,safer.communities@inverclyde.gov.uk,Inverclyde,http://www.inverclyde.gov.uk/business-and-trade/food-safety-and-standards/,-4.75850000000000,PA15 1JJ,2012-01-17,fhis_pass_en-GB,Pass,,FHIS,
442281,Pottery Street GREENOCK,,,,Enchanted Forest Nursery (Greenock) Ltd,Hospitals/Childcare/Caring Premises,5,,,45428,,,55.93975500000000,11/00007/COMM,778,safer.communities@inverclyde.gov.uk,Inverclyde,http://www.inverclyde.gov.uk/business-and-trade/food-safety-and-standards/,-4.71948900000000,PA15 2UH,2014-02-27,fhis_pass_en-GB,Pass,,FHIS,
442282,4 Kip Park Main Street Inverkip,,,,Enchanted Forest Nursery (Inverkip) Ltd,Hospitals/Childcare/Caring Premises,5,,,198178,,,55.90780900000000,12/00014/COMM,778,safer.communities@inverclyde.gov.uk,Inverclyde,http://www.inverclyde.gov.uk/business-and-trade/food-safety-and-standards/,-4.87181900000000,PA16 0AT,2015-01-07,fhis_pass_en-GB,Pass,,FHIS,
442283,3B Campbell Street Greenock,,,,Esplanade Cafe,Restaurant/Cafe/Canteen,1,,,98,,,55.95536300000000,00/00108/COMM,778,safer.communities@inverclyde.gov.uk,Inverclyde,http://www.inverclyde.gov.uk/business-and-trade/food-safety-and-standards/,-4.76732000000000,PA16 8AZ,2014-03-19,fhis_pass_en-GB,Pass,,FHIS,
442284,9 - 11 John Street GOUROCK,,,,Eternal Design,Retailers - other,4613,,,199856,,,55.95958500000000,11/00012/LOCAL,778,safer.communities@inverclyde.gov.uk,Inverclyde,http://www.inverclyde.gov.uk/business-and-trade/food-safety-and-standards/,-4.81659000000000,PA19 1PR,2012-02-14,fhis_pass_en-GB,Pass,,FHIS,
442285,IBM Greenock Ben Lomond View 23 Pottery Street Riverside Business Park GREENOCK,,,,Eurest,Restaurant/Cafe/Canteen,1,,,595171,,,55.94031600000000,13/00056/COMM,778,safer.communities@inverclyde.gov.uk,Inverclyde,http://www.inverclyde.gov.uk/business-and-trade/food-safety-and-standards/,-4.72133800000000,PA15 2UZ,2014-02-19,fhis_pass_en-GB,Pass,,FHIS,
442286,99 - 101 Dalrymple Street Greenock,,,,Eurest JCP Greenock,Restaurant/Cafe/Canteen,1,,,135,,,55.94728700000000,00/00178/COMM,778,safer.communities@inverclyde.gov.uk,Inverclyde,http://www.inverclyde.gov.uk/business-and-trade/food-safety-and-standards/,-4.75386400000000,PA15 1QJ,2014-07-21,fhis_pass_en-GB,Pass,,FHIS,
442287,62 - 66 Princes Street Port Glasgow,,,,Farmfoods,Retailers - other,4613,,,28501,,,55.93427700000000,09/00004/COMM,778,safer.communities@inverclyde.gov.uk,Inverclyde,http://www.inverclyde.gov.uk/business-and-trade/food-safety-and-standards/,-4.68976900000000,PA14 5JQ,2014-11-07,fhis_pass_en-GB,Pass,,FHIS,
442288,65 West Blackhall Street Greenock,,,,Farmfoods,Retailers - supermarkets/hypermarkets,7840,,,304,,,55.95086000000000,00/00695/COMM,778,safer.communities@inverclyde.gov.uk,Inverclyde,http://www.inverclyde.gov.uk/business-and-trade/food-safety-and-standards/,-4.76248100000000,PA15 1XE,2014-08-25,fhis_pass_en-GB,Pass,,FHIS,
442289,59 - 65 Rue End Street Greenock,,,,Fire Station (Greenock),Restaurant/Cafe/Canteen,1,,,265,,,55.94443700000000,00/00551/COMM,778,safer.communities@inverclyde.gov.uk,Inverclyde,http://www.inverclyde.gov.uk/business-and-trade/food-safety-and-standards/,-4.74786400000000,PA15 1HA,2011-11-10,fhis_pass_en-GB,Pass,,FHIS,
442290,East Bay Estate Access Roads Port Glasgow,,,,Fire Station (Port Glasgow),Restaurant/Cafe/Canteen,1,,,151,,,55.93437000000000,00/00215/COMM,778,safer.communities@inverclyde.gov.uk,Inverclyde,http://www.inverclyde.gov.uk/business-and-trade/food-safety-and-standards/,-4.68058400000000,PA14 5NF,2009-10-30,fhis_pass_en-GB,Pass,,FHIS,
442291,3 Barnhill Street Greenock,,,,Fish And Chicken Bar,Takeaway/sandwich shop,7844,,,34,,,55.94069600000000,00/00035/COMM,778,safer.communities@inverclyde.gov.uk,Inverclyde,http://www.inverclyde.gov.uk/business-and-trade/food-safety-and-standards/,-4.73702800000000,PA15 2BE,2014-05-29,fhis_pass_en-GB,Pass,,FHIS,
442292,108 Lynedoch Street Greenock,,,,Fitzgerald Centre (Tea & Coffee Bar),Other catering premises,7841,,,379,,,55.94261100000000,00/03194/COMM,778,safer.communities@inverclyde.gov.uk,Inverclyde,http://www.inverclyde.gov.uk/business-and-trade/food-safety-and-standards/,-4.75755200000000,PA15 4AH,2010-03-17,fhis_pass_en-GB,Pass,,FHIS,
442293,108 Lynedoch Street Greenock,,,,Fitzgerald Resource Centre (Canteen),Other catering premises,7841,,,338,,,55.94261100000000,00/00887/COMM,778,safer.communities@inverclyde.gov.uk,Inverclyde,http://www.inverclyde.gov.uk/business-and-trade/food-safety-and-standards/,-4.75755200000000,PA15 4AH,2012-09-20,fhis_pass_en-GB,Pass,,FHIS,
442294,74 - 76 Kempock Street Gourock,,,,Flava Coffee Company,Restaurant/Cafe/Canteen,1,,,398,,,55.96155900000000,00/04867/COMM,778,safer.communities@inverclyde.gov.uk,Inverclyde,http://www.inverclyde.gov.uk/business-and-trade/food-safety-and-standards/,-4.82104400000000,PA19 1ND,2012-11-08,fhis_pass_en-GB,Pass,,FHIS,
442295,25 Brougham Street Greenock,,,,Food Express Greenock Ltd,Takeaway/sandwich shop,7844,,,33916,,,55.95462900000000,10/00075/COMM,778,safer.communities@inverclyde.gov.uk,Inverclyde,http://www.inverclyde.gov.uk/business-and-trade/food-safety-and-standards/,-4.76798800000000,PA16 8AB,2014-06-23,fhis_pass_en-GB,Pass,,FHIS,
442296,5 - 7 Fore Street Port Glasgow,,,,Fore Street Post Office,Retailers - other,4613,,,436,,,55.93475600000000,00/05441/COMM,778,safer.communities@inverclyde.gov.uk,Inverclyde,http://www.inverclyde.gov.uk/business-and-trade/food-safety-and-standards/,-4.68800900000000,PA14 5EE,2014-08-27,fhis_improvement_required_en-GB,Improvement Required,,FHIS,
442297,Station Road Inverkip,,,,Foresters Guest House,Hotel/bed & breakfast/guest house,7842,,,289,,,55.90781000000000,00/00628/COMM,778,safer.communities@inverclyde.gov.uk,Inverclyde,http://www.inverclyde.gov.uk/business-and-trade/food-safety-and-standards/,-4.87025100000000,PA16 0AY,2010-03-23,fhis_pass_en-GB,Pass,,FHIS,
442298,Cottage 23 Love Avenue Kilmacolm,,,,Fountainview,Hospitals/Childcare/Caring Premises,5,,,325,,,55.86727200000000,00/00759/COMM,778,safer.communities@inverclyde.gov.uk,Inverclyde,http://www.inverclyde.gov.uk/business-and-trade/food-safety-and-standards/,-4.61666900000000,PA11 3SX,2014-02-26,fhis_pass_en-GB,Pass,,FHIS,
442299,c/o 40 West Stewart Street Greenock,,,,Fresgo Deli,Mobile caterer,7846,,,668528,,,55.95214800000000,14/00010/STTRAD,778,safer.communities@inverclyde.gov.uk,Inverclyde,http://www.inverclyde.gov.uk/business-and-trade/food-safety-and-standards/,-4.76399800000000,PA15 1YA,2014-06-11,fhis_improvement_required_en-GB,Improvement Required,,FHIS,
442300,Fort Matilda Works (1 & 2) Eldon Street Greenock,,,,Funworld Leisure Ltd.,Restaurant/Cafe/Canteen,1,,,447,,,55.96151500000000,00/05753/COMM,778,safer.communities@inverclyde.gov.uk,Inverclyde,http://www.inverclyde.gov.uk/business-and-trade/food-safety-and-standards/,-4.79581800000000,PA16 7QB,2014-06-04,fhis_pass_en-GB,Pass,,FHIS,
442301,2 Hopeton Street Gourock,,,,Fusion,Restaurant/Cafe/Canteen,1,,,526,,,55.96036600000000,00/06142/COMM,778,safer.communities@inverclyde.gov.uk,Inverclyde,http://www.inverclyde.gov.uk/business-and-trade/food-safety-and-standards/,-4.81704700000000,PA19 1PG,2014-08-27,fhis_pass_en-GB,Pass,,FHIS,
442302,St James Terrace No 5 Lochwinnoch Road Kilmacolm,,,,Fusion,Takeaway/sandwich shop,7844,,,28652,,,55.89383900000000,09/00016/COMM,778,safer.communities@inverclyde.gov.uk,Inverclyde,http://www.inverclyde.gov.uk/business-and-trade/food-safety-and-standards/,-4.62815200000000,PA13 4HB,2014-01-16,fhis_pass_en-GB,Pass,,FHIS,
442303,58 Captain Street GREENOCK,,,,Gate Of India,Takeaway/sandwich shop,7844,,,703413,,,55.94426500000000,14/00034/COMM,778,safer.communities@inverclyde.gov.uk,Inverclyde,http://www.inverclyde.gov.uk/business-and-trade/food-safety-and-standards/,-4.76479800000000,PA15 4LQ,2014-11-06,fhis_pass_en-GB,Pass,,FHIS,
442304,HM Prison Greenock Old Inverkip Road Greenock,,,,Gateside Prison Cafe,Restaurant/Cafe/Canteen,1,,,28795,,,55.94293000000000,09/00027/COMM,778,safer.communities@inverclyde.gov.uk,Inverclyde,http://www.inverclyde.gov.uk/business-and-trade/food-safety-and-standards/,-4.78254500000000,PA16 9AJ,2014-01-23,fhis_pass_en-GB,Pass,,FHIS,
442305,58 Maple Road Greenock,,,,Geo's Food & Wine,Retailers - other,4613,,,29047,,,55.93897400000000,09/00048/COMM,778,safer.communities@inverclyde.gov.uk,Inverclyde,http://www.inverclyde.gov.uk/business-and-trade/food-safety-and-standards/,-4.78895600000000,PA16 9HT,2014-08-26,fhis_improvement_required_en-GB,Improvement Required,,FHIS,
442306,12 Newton Street Greenock,,,,Gianni's,Takeaway/sandwich shop,7844,,,437,,,55.94782000000000,00/05446/COMM,778,safer.communities@inverclyde.gov.uk,Inverclyde,http://www.inverclyde.gov.uk/business-and-trade/food-safety-and-standards/,-4.76855900000000,PA16 8UJ,2014-09-16,fhis_improvement_required_en-GB,Improvement Required,,FHIS,
442307,14 Kempock Street Gourock,,,,Gianni's,Takeaway/sandwich shop,7844,,,45479,,,55.96205600000000,11/00010/COMM,778,safer.communities@inverclyde.gov.uk,Inverclyde,http://www.inverclyde.gov.uk/business-and-trade/food-safety-and-standards/,-4.81898100000000,PA19 1NA,2013-11-26,fhis_improvement_required_en-GB,Improvement Required,,FHIS,
442308,22 Corlic Street GREENOCK,,,,Gianni's 2,Takeaway/sandwich shop,7844,,,709272,,,55.93635200000000,14/00060/COMM,778,safer.communities@inverclyde.gov.uk,Inverclyde,http://www.inverclyde.gov.uk/business-and-trade/food-safety-and-standards/,-4.74200600000000,PA15 3LJ,2014-12-02,fhis_pass_en-GB,Pass,,FHIS,
442309,Smillie Street Greenock,,,,Gibshill Centre,Hospitals/Childcare/Caring Premises,5,,,275,,,55.93611300000000,00/00596/COMM,778,safer.communities@inverclyde.gov.uk,Inverclyde,http://www.inverclyde.gov.uk/business-and-trade/food-safety-and-standards/,-4.71875300000000,PA15 2NH,2014-04-24,fhis_pass_en-GB,Pass,,FHIS,
442310,Glenbrae Road Greenock,,,,Glenbrae Children's Centre,Hospitals/Childcare/Caring Premises,5,,,164,,,55.93602500000000,00/00260/COMM,778,safer.communities@inverclyde.gov.uk,Inverclyde,http://www.inverclyde.gov.uk/business-and-trade/food-safety-and-standards/,-4.74496200000000,PA15 3DJ,2013-09-06,fhis_pass_en-GB,Pass,,FHIS,
442311,1 Bedford Street Greenock,,,,Glenfield,Hospitals/Childcare/Caring Premises,5,,,45,,,55.95674100000000,00/00046/COMM,778,safer.communities@inverclyde.gov.uk,Inverclyde,http://www.inverclyde.gov.uk/business-and-trade/food-safety-and-standards/,-4.77595800000000,PA16 8PG,2014-10-08,fhis_pass_en-GB,Pass,,FHIS,
442312,Cottage 29 (Glen Valley) Love Avenue Kilmacolm,,,,Glenvalley,Hospitals/Childcare/Caring Premises,5,,,435,,,55.86727200000000,00/05432/COMM,778,safer.communities@inverclyde.gov.uk,Inverclyde,http://www.inverclyde.gov.uk/business-and-trade/food-safety-and-standards/,-4.61666900000000,PA11 3SX,2014-03-14,fhis_pass_en-GB,Pass,,FHIS,
442313,Cappielow Park Sinclair Street Greenock,,,,GMFC Hospitality,Other catering premises,7841,,,407,,,55.93664900000000,00/05042/COMM,778,safer.communities@inverclyde.gov.uk,Inverclyde,http://www.inverclyde.gov.uk/business-and-trade/food-safety-and-standards/,-4.73988300000000,PA15 2TY,2010-03-12,fhis_pass_en-GB,Pass,,FHIS,
442314,Kilmacolm Road Port Glasgow,,,,Golden City,Takeaway/sandwich shop,7844,,,434,,,55.92163100000000,00/05406/COMM,778,safer.communities@inverclyde.gov.uk,Inverclyde,http://www.inverclyde.gov.uk/business-and-trade/food-safety-and-standards/,-4.62316500000000,PA14 6DH,2013-02-26,fhis_improvement_required_en-GB,Improvement Required,,FHIS,
442315,23 Lynedoch Street Greenock,,,,Golden Dragon,Takeaway/sandwich shop,7844,,,219,,,55.94468300000000,00/00416/COMM,778,safer.communities@inverclyde.gov.uk,Inverclyde,http://www.inverclyde.gov.uk/business-and-trade/food-safety-and-standards/,-4.75574600000000,PA15 4AB,2014-10-01,fhis_pass_en-GB,Pass,,FHIS,
442316,Barrhill Road Gourock,,,,Gourock Bowling Club,Pub/bar/nightclub,7843,,,37,,,55.95948600000000,00/00037/COMM,778,safer.communities@inverclyde.gov.uk,Inverclyde,http://www.inverclyde.gov.uk/business-and-trade/food-safety-and-standards/,-4.82132600000000,PA19 1JX,2011-03-22,fhis_pass_en-GB,Pass,,FHIS,
442317,Golf Course Cowal View Gourock,,,,Gourock Golf Club,Restaurant/Cafe/Canteen,1,,,131,,,55.95085400000000,00/00170/COMM,778,safer.communities@inverclyde.gov.uk,Inverclyde,http://www.inverclyde.gov.uk/business-and-trade/food-safety-and-standards/,-4.83900900000000,PA19 1HD,2010-03-23,fhis_pass_en-GB,Pass,,FHIS,
442318,Davidson Drive Gourock,,,,Gourock Primary School,School/college/university,7845,,,53,,,55.95704800000000,00/00058/COMM,778,safer.communities@inverclyde.gov.uk,Inverclyde,http://www.inverclyde.gov.uk/business-and-trade/food-safety-and-standards/,-4.81355300000000,PA19 1QD,2014-03-26,fhis_pass_en-GB,Pass,,FHIS,
442319,The Scout Hall Barr's Brae Kilmacolm,,,,Granny IQ,Hospitals/Childcare/Caring Premises,5,,,505,,,55.89542100000000,00/06074/COMM,778,safer.communities@inverclyde.gov.uk,Inverclyde,http://www.inverclyde.gov.uk/business-and-trade/food-safety-and-standards/,-4.62478700000000,PA13 4DE,2011-03-17,fhis_pass_en-GB,Pass,,FHIS,
442320,8 Inverkip Street Greenock,,,,Green Oak Bar,Pub/bar/nightclub,7843,,,403,,,55.94823400000000,00/04906/COMM,778,safer.communities@inverclyde.gov.uk,Inverclyde,http://www.inverclyde.gov.uk/business-and-trade/food-safety-and-standards/,-4.76413600000000,PA15 1SZ,2011-03-21,fhis_pass_en-GB,Pass,,FHIS,
442321,10 Princes Street Port Glasgow,,,,Green T Takeaway,Takeaway/sandwich shop,7844,,,477,,,55.93427700000000,00/05952/COMM,778,safer.communities@inverclyde.gov.uk,Inverclyde,http://www.inverclyde.gov.uk/business-and-trade/food-safety-and-standards/,-4.68976900000000,PA14 5JQ,2012-10-09,fhis_pass_en-GB,Pass,,FHIS,
442322,Unit 2 8 Cumberland Walk Greenock,,,,Greenhill Take Away,Takeaway/sandwich shop,7844,,,256,,,55.94133000000000,00/00529/COMM,778,safer.communities@inverclyde.gov.uk,Inverclyde,http://www.inverclyde.gov.uk/business-and-trade/food-safety-and-standards/,-4.81612900000000,PA16 0UD,2014-06-16,fhis_improvement_required_en-GB,Improvement Required,,FHIS,
442323,Brisbane Street Greenock,,,,Greenock Cricket Club,Pub/bar/nightclub,7843,,,328,,,55.95522100000000,00/00767/COMM,778,safer.communities@inverclyde.gov.uk,Inverclyde,http://www.inverclyde.gov.uk/business-and-trade/food-safety-and-standards/,-4.77802800000000,PA16 8NY,2010-05-27,fhis_pass_en-GB,Pass,,FHIS,
442324,5 - 7 Tobago Street Greenock,,,,Greenock Dock Workers Club,Pub/bar/nightclub,7843,,,294,,,55.94771700000000,00/00661/COMM,778,safer.communities@inverclyde.gov.uk,Inverclyde,http://www.inverclyde.gov.uk/business-and-trade/food-safety-and-standards/,-4.76116700000000,PA15 1PB,2014-08-29,fhis_improvement_required_en-GB,Improvement Required,,FHIS,
442325,Forsyth Street Greenock,,,,Greenock Golf Club,Restaurant/Cafe/Canteen,1,,,163,,,55.95062900000000,00/00249/COMM,778,safer.communities@inverclyde.gov.uk,Inverclyde,http://www.inverclyde.gov.uk/business-and-trade/food-safety-and-standards/,-4.78035800000000,PA16 8RE,2014-08-20,fhis_improvement_required_en-GB,Improvement Required,,FHIS,
442326,20 Duncan Street Greenock,,,,Greenock Health Centre,Restaurant/Cafe/Canteen,1,,,148,,,55.94591300000000,00/00210/COMM,778,safer.communities@inverclyde.gov.uk,Inverclyde,http://www.inverclyde.gov.uk/business-and-trade/food-safety-and-standards/,-4.76664500000000,PA15 4LY,2014-06-03,fhis_pass_en-GB,Pass,,FHIS,
442327,42A Regent Street Greenock,,,,Greenock Morton Supporters,Pub/bar/nightclub,7843,,,260,,,55.94576300000000,00/00535/COMM,778,safer.communities@inverclyde.gov.uk,Inverclyde,http://www.inverclyde.gov.uk/business-and-trade/food-safety-and-standards/,-4.75849700000000,PA15 4PL,2010-03-23,fhis_pass_en-GB,Pass,,FHIS,
442328,Thom Street Greenock,,,,Greenock Police Club,Pub/bar/nightclub,7843,,,293,,,55.94292700000000,00/00657/COMM,778,safer.communities@inverclyde.gov.uk,Inverclyde,http://www.inverclyde.gov.uk/business-and-trade/food-safety-and-standards/,-4.77987000000000,PA16 9BU,2014-08-29,fhis_pass_en-GB,Pass,,FHIS,
442329,3 Lyle Street Greenock,,,,Greenock Rangers Supporters Club,Pub/bar/nightclub,7843,,,217,,,55.94458600000000,00/00410/COMM,778,safer.communities@inverclyde.gov.uk,Inverclyde,http://www.inverclyde.gov.uk/business-and-trade/food-safety-and-standards/,-4.75647500000000,PA15 4QQ,2010-03-23,fhis_pass_en-GB,Pass,,FHIS,
442330,75 Octavia Terrace Greenock,,,,Greenock Wanderers Rugby Football Club,Pub/bar/nightclub,7843,,,241,,,55.96119500000000,00/00484/COMM,778,safer.communities@inverclyde.gov.uk,Inverclyde,http://www.inverclyde.gov.uk/business-and-trade/food-safety-and-standards/,-4.79166100000000,PA16 7PX,2011-05-20,fhis_pass_en-GB,Pass,,FHIS,
442331,17 Hamilton Way Greenock,,,,Greggs,Retailers - other,4613,,,429,,,55.94782100000000,00/05383/COMM,778,safer.communities@inverclyde.gov.uk,Inverclyde,http://www.inverclyde.gov.uk/business-and-trade/food-safety-and-standards/,-4.75850000000000,PA15 1JJ,2013-11-29,fhis_pass_en-GB,Pass,,FHIS,
442332,18 Princes Street Port Glasgow,,,,Greggs,Retailers - other,4613,,,247,,,55.93427700000000,00/00507/COMM,778,safer.communities@inverclyde.gov.uk,Inverclyde,http://www.inverclyde.gov.uk/business-and-trade/food-safety-and-standards/,-4.68976900000000,PA14 5JQ,2014-03-06,fhis_pass_en-GB,Pass,,FHIS,
442333,3 West Blackhall Street Greenock,,,,Greggs,Retailers - other,4613,,,298,,,55.94943100000000,00/00684/COMM,778,safer.communities@inverclyde.gov.uk,Inverclyde,http://www.inverclyde.gov.uk/business-and-trade/food-safety-and-standards/,-4.76127300000000,PA15 1UA,2013-11-29,fhis_pass_en-GB,Pass,,FHIS,
442334,43 Kempock Street Gourock,,,,Greggs,Retailers - other,4613,,,45334,,,55.96144900000000,11/00001/COMM,778,safer.communities@inverclyde.gov.uk,Inverclyde,http://www.inverclyde.gov.uk/business-and-trade/food-safety-and-standards/,-4.82039500000000,PA19 1NF,2013-11-22,fhis_pass_en-GB,Pass,,FHIS,
442335,2 Dempster Street Greenock,,,,Grosvenor Bowling Club,Pub/bar/nightclub,7843,,,141,,,55.94271300000000,00/00195/COMM,778,safer.communities@inverclyde.gov.uk,Inverclyde,http://www.inverclyde.gov.uk/business-and-trade/food-safety-and-standards/,-4.75945000000000,PA15 4QE,2010-02-08,fhis_pass_en-GB,Pass,,FHIS,
442336,115 Grieve Road Greenock,,,,Hagan Chemist,Retailers - other,4613,,,167,,,55.94996100000000,00/00269/COMM,778,safer.communities@inverclyde.gov.uk,Inverclyde,http://www.inverclyde.gov.uk/business-and-trade/food-safety-and-standards/,-4.79474400000000,PA16 7AW,2011-03-21,fhis_pass_en-GB,Pass,,FHIS,
442337,57 Finnart Street Greenock,,,,Halls Newsagent,Retailers - other,4613,,,159,,,55.95112200000000,00/00241/COMM,778,safer.communities@inverclyde.gov.uk,Inverclyde,http://www.inverclyde.gov.uk/business-and-trade/food-safety-and-standards/,-4.77283200000000,PA16 8HH,2015-01-12,fhis_improvement_required_en-GB,Improvement Required,,FHIS,
442338,Hamilton Bardrainney Church Bardrainney Avenue PORT GLASGOW,,,,Hammy's Out Of School Care,Hospitals/Childcare/Caring Premises,5,,,464,,,55.92372700000000,00/05874/COMM,778,safer.communities@inverclyde.gov.uk,Inverclyde,http://www.inverclyde.gov.uk/business-and-trade/food-safety-and-standards/,-4.66111900000000,PA14 6HB,2014-11-25,fhis_pass_en-GB,Pass,,FHIS,
442339,18 East Crawford Street GREENOCK,,,,Haris Store,Retailers - other,4613,,,722682,,,55.94083100000000,14/00075/COMM,778,safer.communities@inverclyde.gov.uk,Inverclyde,http://www.inverclyde.gov.uk/business-and-trade/food-safety-and-standards/,-4.73380200000000,PA15 2DZ,2014-11-26,fhis_pass_en-GB,Pass,,FHIS,
442340,58 Tower Drive Gourock,,,,Harrys Newsagent,Retailers - other,4613,,,33133,,,55.95248200000000,10/00027/COMM,778,safer.communities@inverclyde.gov.uk,Inverclyde,http://www.inverclyde.gov.uk/business-and-trade/food-safety-and-standards/,-4.82217800000000,PA19 1TB,2012-01-31,fhis_improvement_required_en-GB,Improvement Required,,FHIS,
442341,208 Dalrymple Street Greenock,,,,Harwoods,Pub/bar/nightclub,7843,,,388,,,55.95144100000000,00/04772/COMM,778,safer.communities@inverclyde.gov.uk,Inverclyde,http://www.inverclyde.gov.uk/business-and-trade/food-safety-and-standards/,-4.76024700000000,PA15 1LE,2010-06-09,fhis_pass_en-GB,Pass,,FHIS,
442342,24 Denholm Street Greenock,,,,Heather Bed & Breakfast,Hotel/bed & breakfast/guest house,7842,,,34311,,,55.94998600000000,10/00107/COMM,778,safer.communities@inverclyde.gov.uk,Inverclyde,http://www.inverclyde.gov.uk/business-and-trade/food-safety-and-standards/,-4.77734900000000,PA16 8RJ,2011-05-31,fhis_pass_en-GB,Pass,,FHIS,
442343,East Crawford Street Greenock,,,,Hillend Centre - Respite Unit,Hospitals/Childcare/Caring Premises,5,,,493,,,55.94136400000000,00/06041/COMM,778,safer.communities@inverclyde.gov.uk,Inverclyde,http://www.inverclyde.gov.uk/business-and-trade/food-safety-and-standards/,-4.73408000000000,PA15 2BT,2011-06-01,fhis_pass_en-GB,Pass,,FHIS,
442344,Border Street Greenock,,,,Hillend Children's Centre,School/college/university,7845,,,60,,,55.93897100000000,00/00065/COMM,778,safer.communities@inverclyde.gov.uk,Inverclyde,http://www.inverclyde.gov.uk/business-and-trade/food-safety-and-standards/,-4.73658600000000,PA15 2EF,2014-06-10,fhis_pass_en-GB,Pass,,FHIS,
442345,East Crawford Street Greenock,,,,Hillend Day Centre,Hospitals/Childcare/Caring Premises,5,,,463,,,55.94136400000000,00/05864/COMM,778,safer.communities@inverclyde.gov.uk,Inverclyde,http://www.inverclyde.gov.uk/business-and-trade/food-safety-and-standards/,-4.73408000000000,PA15 2BT,2014-06-19,fhis_pass_en-GB,Pass,,FHIS,
442346,5 Broomhill Way Greenock,,,,Hing's,Takeaway/sandwich shop,7844,,,413,,,55.94213800000000,00/05141/COMM,778,safer.communities@inverclyde.gov.uk,Inverclyde,http://www.inverclyde.gov.uk/business-and-trade/food-safety-and-standards/,-4.76581500000000,PA15 4HE,2014-11-26,fhis_pass_en-GB,Pass,,FHIS,
442347,Old Inverkip Road Greenock,,,,HM Prison Greenock,Restaurant/Cafe/Canteen,1,,,242,,,55.94293000000000,00/00486/COMM,778,safer.communities@inverclyde.gov.uk,Inverclyde,http://www.inverclyde.gov.uk/business-and-trade/food-safety-and-standards/,-4.78254500000000,PA16 9AJ,2015-02-04,fhis_pass_en-GB,Pass,,FHIS,
442348,2 Main Street Greenock,,,,Holiday Inn Express,Hotel/bed & breakfast/guest house,7842,,,384173,,,55.94418100000000,12/00068/COMM,778,safer.communities@inverclyde.gov.uk,Inverclyde,http://www.inverclyde.gov.uk/business-and-trade/food-safety-and-standards/,-4.74158300000000,PA15 1AG,2014-03-06,fhis_pass_en-GB,Pass,,FHIS,
442349,23 Hamilton Way Greenock,,,,Holland & Barrett,Retailers - other,4613,,,175,,,55.94782100000000,00/00297/COMM,778,safer.communities@inverclyde.gov.uk,Inverclyde,http://www.inverclyde.gov.uk/business-and-trade/food-safety-and-standards/,-4.75850000000000,PA15 1JJ,2010-03-23,fhis_pass_en-GB,Pass,,FHIS,
442350,Kip Marina Main Road Inverkip,,,,Holts Leisure Parks Ltd,Retailers - other,4613,,,292,,,55.90865300000000,00/00656/COMM,778,safer.communities@inverclyde.gov.uk,Inverclyde,http://www.inverclyde.gov.uk/business-and-trade/food-safety-and-standards/,-4.86954500000000,PA16 0AS,2010-03-12,fhis_pass_en-GB,Pass,,FHIS,
442351,Parkhill Avenue Port Glasgow,,,,Holy Family Church,Other catering premises,7841,,,348,,,55.92880400000000,00/01231/COMM,778,safer.communities@inverclyde.gov.uk,Inverclyde,http://www.inverclyde.gov.uk/business-and-trade/food-safety-and-standards/,-4.65831300000000,PA14 6BT,2015-01-09,fhis_pass_en-GB,Pass,,FHIS,
442352,Little Sisters Home 44 Union Street Greenock,,,,Holy Rosary Residence,Hospitals/Childcare/Caring Premises,5,,,431,,,55.95467500000000,00/05385/COMM,778,safer.communities@inverclyde.gov.uk,Inverclyde,http://www.inverclyde.gov.uk/business-and-trade/food-safety-and-standards/,-4.77033100000000,PA16 8DP,2014-11-06,fhis_pass_en-GB,Pass,,FHIS,
442353,Unit 4 3 Customhouse Way GREENOCK,,,,Home Bargains,Retailers - other,4613,,,689966,,,55.94973200000000,14/00024/COMM,778,safer.communities@inverclyde.gov.uk,Inverclyde,http://www.inverclyde.gov.uk/business-and-trade/food-safety-and-standards/,-4.75626500000000,PA15 1EG,2014-08-04,fhis_pass_en-GB,Pass,,FHIS,
442354,West Shaw Street Greenock,,,,Homebase,Retailers - other,4613,,,332012,,,55.94997100000000,00/06030/COMM,778,safer.communities@inverclyde.gov.uk,Inverclyde,http://www.inverclyde.gov.uk/business-and-trade/food-safety-and-standards/,-4.76566900000000,PA15 1TP,2011-03-28,fhis_exempt_en-GB,Exempt,,FHIS,
442355,Auchenfoil Road Kilmacolm,,,,Horsecraigs The Haven,Other catering premises,7841,,,329,,,55.89666200000000,00/00768/COMM,778,safer.communities@inverclyde.gov.uk,Inverclyde,http://www.inverclyde.gov.uk/business-and-trade/food-safety-and-standards/,-4.69423500000000,PA13 4TH,2014-10-22,fhis_improvement_required_en-GB,Improvement Required,,FHIS,
442356,30 Kilblain Street Greenock,,,,Horseshoe Bar,Pub/bar/nightclub,7843,,,200,,,55.94927600000000,00/00376/COMM,778,safer.communities@inverclyde.gov.uk,Inverclyde,http://www.inverclyde.gov.uk/business-and-trade/food-safety-and-standards/,-4.76257600000000,PA15 1SR,2015-01-12,fhis_improvement_required_en-GB,Improvement Required,,FHIS,
442357,Ardgowan Ind Est Unit 1A Ardgowan Street Port Glasgow,,,,Ian's Grill,Takeaway/sandwich shop,7844,,,205,,,55.93672200000000,00/00385/COMM,778,safer.communities@inverclyde.gov.uk,Inverclyde,http://www.inverclyde.gov.uk/business-and-trade/food-safety-and-standards/,-4.70412700000000,PA14 5DG,2014-10-27,fhis_improvement_required_en-GB,Improvement Required,,FHIS,
442358,175 Dalrymple Street Greenock,,,,ICDT Limited,Other catering premises,7841,,,373,,,55.95046300000000,00/03152/COMM,778,safer.communities@inverclyde.gov.uk,Inverclyde,http://www.inverclyde.gov.uk/business-and-trade/food-safety-and-standards/,-4.76054600000000,PA15 1JZ,2014-04-11,fhis_pass_en-GB,Pass,,FHIS,
442359,31 Turnberry Avenue Gourock,,,,ICE,Other catering premises,7841,,,384170,,,55.95127700000000,12/00041/COMM,778,safer.communities@inverclyde.gov.uk,Inverclyde,http://www.inverclyde.gov.uk/business-and-trade/food-safety-and-standards/,-4.84330100000000,PA19 1JA,2012-05-24,fhis_improvement_required_en-GB,Improvement Required,,FHIS,
442360,c/o 40 West Stewart Street Greenock,,,,Ice Cream Van,Mobile caterer,7846,,,209030,,,55.95214800000000,00/06010/STTRAD,778,safer.communities@inverclyde.gov.uk,Inverclyde,http://www.inverclyde.gov.uk/business-and-trade/food-safety-and-standards/,-4.76399800000000,PA15 1YA,2010-03-23,fhis_pass_en-GB,Pass,,FHIS,
442361,c/o 40 West Stewart Street Greenock,,,,Ice Cream Van (G12 LWR),Mobile caterer,7846,,,209025,,,55.95214800000000,10/00035/STTRAD,778,safer.communities@inverclyde.gov.uk,Inverclyde,http://www.inverclyde.gov.uk/business-and-trade/food-safety-and-standards/,-4.76399800000000,PA15 1YA,2010-02-03,fhis_pass_en-GB,Pass,,FHIS,
442362,32 Westburn Street Greenock,,,,Iceland,Retailers - supermarkets/hypermarkets,7840,,,311,,,55.94931700000000,00/00719/COMM,778,safer.communities@inverclyde.gov.uk,Inverclyde,http://www.inverclyde.gov.uk/business-and-trade/food-safety-and-standards/,-4.76115300000000,PA15 1RY,2010-03-12,fhis_pass_en-GB,Pass,,FHIS,
442363,42 - 44 Church Street Port Glasgow,,,,Iceland,Retailers - supermarkets/hypermarkets,7840,,,125,,,55.93428900000000,00/00149/COMM,778,safer.communities@inverclyde.gov.uk,Inverclyde,http://www.inverclyde.gov.uk/business-and-trade/food-safety-and-standards/,-4.69045900000000,PA14 5JD,2009-11-24,fhis_pass_en-GB,Pass,,FHIS,
442364,1 Regent Street Greenock,,,,Imperial Filling Station,Retailers - other,4613,,,257,,,55.94385700000000,00/00531/COMM,778,safer.communities@inverclyde.gov.uk,Inverclyde,http://www.inverclyde.gov.uk/business-and-trade/food-safety-and-standards/,-4.75168300000000,PA15 4TH,2014-04-29,fhis_pass_en-GB,Pass,,FHIS,
442365,75 West Blackhall Street GREENOCK,,,,Indian Masala,Restaurant/Cafe/Canteen,1,,,452658,,,55.95133500000000,12/00078/COMM,778,safer.communities@inverclyde.gov.uk,Inverclyde,http://www.inverclyde.gov.uk/business-and-trade/food-safety-and-standards/,-4.76256200000000,PA15 1XP,2015-01-14,fhis_pass_en-GB,Pass,,FHIS,
442366,Cumberland Road Greenock,,,,Inverclyde Academy,School/college/university,7845,,,546,,,55.94013200000000,00/06199/COMM,778,safer.communities@inverclyde.gov.uk,Inverclyde,http://www.inverclyde.gov.uk/business-and-trade/food-safety-and-standards/,-4.81074100000000,PA16 0FB,2014-11-19,fhis_pass_en-GB,Pass,,FHIS,
442367,Bogston Lane Greenock,,,,Inverclyde Leisure Indoor Bowling Club (caterer),Pub/bar/nightclub,7843,,,46346,,,55.93887800000000,11/00060/COMM,778,safer.communities@inverclyde.gov.uk,Inverclyde,http://www.inverclyde.gov.uk/business-and-trade/food-safety-and-standards/,-4.71604800000000,PA15 2UL,2015-01-13,fhis_pass_en-GB,Pass,,FHIS,
442368,3 Mearns Street Greenock,,,,Inverclyde Navy Club,Pub/bar/nightclub,7843,,,227,,,55.94632800000000,00/00440/COMM,778,safer.communities@inverclyde.gov.uk,Inverclyde,http://www.inverclyde.gov.uk/business-and-trade/food-safety-and-standards/,-4.75815300000000,PA15 4PP,2010-03-23,fhis_pass_en-GB,Pass,,FHIS,
442369,Larkfield Road Greenock,,,,Inverclyde Royal Hospital,Hospitals/Childcare/Caring Premises,5,,,212,,,55.94380300000000,00/00399/COMM,778,safer.communities@inverclyde.gov.uk,Inverclyde,http://www.inverclyde.gov.uk/business-and-trade/food-safety-and-standards/,-4.80978900000000,PA16 0XN,2014-11-04,fhis_pass_en-GB,Pass,,FHIS,
442370,Main Street Inverkip,,,,Inverkip Hotel,Hotel/bed & breakfast/guest house,7842,,,222,,,55.90805000000000,00/00427/COMM,778,safer.communities@inverclyde.gov.uk,Inverclyde,http://www.inverclyde.gov.uk/business-and-trade/food-safety-and-standards/,-4.86806000000000,PA16 0EZ,2012-09-11,fhis_pass_en-GB,Pass,,FHIS,
442371,Station Road Inverkip,,,,Inverkip Nursery Class,Hospitals/Childcare/Caring Premises,5,,,536,,,55.90781000000000,00/06187/COMM,778,safer.communities@inverclyde.gov.uk,Inverclyde,http://www.inverclyde.gov.uk/business-and-trade/food-safety-and-standards/,-4.87025100000000,PA16 0AY,2012-02-22,fhis_pass_en-GB,Pass,,FHIS,
442372,Station Road Inverkip,,,,Inverkip Primary School,School/college/university,7845,,,160,,,55.90781000000000,00/00243/COMM,778,safer.communities@inverclyde.gov.uk,Inverclyde,http://www.inverclyde.gov.uk/business-and-trade/food-safety-and-standards/,-4.87025100000000,PA16 0AY,2013-11-26,fhis_pass_en-GB,Pass,,FHIS,
442373,James Watt College Finnart Street Greenock,,,,ISS Facilities Scotland (Inc. Cafe Bibo),Restaurant/Cafe/Canteen,1,,,46553,,,55.94939200000000,11/00072/COMM,778,safer.communities@inverclyde.gov.uk,Inverclyde,http://www.inverclyde.gov.uk/business-and-trade/food-safety-and-standards/,-4.77064200000000,PA16 8HF,2012-11-20,fhis_pass_en-GB,Pass,,FHIS,
442374,43 Church Street Port Glasgow,,,,J & J's Bakehouse,Retailers - other,4613,,,45989,,,55.93486200000000,11/00040/COMM,778,safer.communities@inverclyde.gov.uk,Inverclyde,http://www.inverclyde.gov.uk/business-and-trade/food-safety-and-standards/,-4.68892900000000,PA14 5EH,2014-02-18,fhis_pass_en-GB,Pass,,FHIS,
442375,5 Clyde Square Greenock,,,,J A N Newagents,Retailers - other,4613,,,129,,,55.94721900000000,00/00159/COMM,778,safer.communities@inverclyde.gov.uk,Inverclyde,http://www.inverclyde.gov.uk/business-and-trade/food-safety-and-standards/,-4.75731900000000,PA15 1NB,2010-06-09,fhis_pass_en-GB,Pass,,FHIS,
442376,c/o 40 West Stewart Street Greenock,,,,Jac-O-Bite,Mobile caterer,7846,,,717078,,,55.95214800000000,14/00063/STTRAD,778,safer.communities@inverclyde.gov.uk,Inverclyde,http://www.inverclyde.gov.uk/business-and-trade/food-safety-and-standards/,-4.76399800000000,PA15 1YA,2014-11-18,fhis_pass_en-GB,Pass,,FHIS,
442377,18 Westburn Street GREENOCK,,,,Jade Palace,Restaurant/Cafe/Canteen,1,,,632980,,,55.94979900000000,14/00012/COMM,778,safer.communities@inverclyde.gov.uk,Inverclyde,http://www.inverclyde.gov.uk/business-and-trade/food-safety-and-standards/,-4.76009800000000,PA15 1JR,2014-04-30,fhis_pass_en-GB,Pass,,FHIS,
442378,Jamaica Court 24 West Stewart Street Greenock,,,,Jamaica Court,Hospitals/Childcare/Caring Premises,5,,,366,,,55.95109800000000,00/03101/COMM,778,safer.communities@inverclyde.gov.uk,Inverclyde,http://www.inverclyde.gov.uk/business-and-trade/food-safety-and-standards/,-4.76312200000000,PA15 1AJ,2014-10-07,fhis_pass_en-GB,Pass,,FHIS,
442379,1 Drumpellier Place Lochwinnoch Road Kilmacolm,,,,Java Minute,Restaurant/Cafe/Canteen,1,,,405,,,55.89355600000000,00/04917/COMM,778,safer.communities@inverclyde.gov.uk,Inverclyde,http://www.inverclyde.gov.uk/business-and-trade/food-safety-and-standards/,-4.62835600000000,PA13 4HE,2013-12-11,fhis_pass_en-GB,Pass,,FHIS,
442380,Pottery Street GREENOCK,,,,Jax Snax,Mobile caterer,7846,,,668533,,,,14/00039/STTRAD,778,safer.communities@inverclyde.gov.uk,Inverclyde,http://www.inverclyde.gov.uk/business-and-trade/food-safety-and-standards/,,,2014-11-21,fhis_pass_en-GB,Pass,,FHIS,
442381,14 - 20 Shankland Road Greenock,,,,Jericho House,Hospitals/Childcare/Caring Premises,5,,,266,,,55.93646200000000,00/00560/COMM,778,safer.communities@inverclyde.gov.uk,Inverclyde,http://www.inverclyde.gov.uk/business-and-trade/food-safety-and-standards/,-4.71350900000000,PA15 2NE,2014-07-15,fhis_pass_en-GB,Pass,,FHIS,
442382,5 Bank Street Greenock,,,,Jericho House,Hospitals/Childcare/Caring Premises,5,,,32,,,55.94622800000000,00/00033/COMM,778,safer.communities@inverclyde.gov.uk,Inverclyde,http://www.inverclyde.gov.uk/business-and-trade/food-safety-and-standards/,-4.75739300000000,PA15 4PA,2014-12-15,fhis_pass_en-GB,Pass,,FHIS,
442383,c/o 40 West Stewart Street Greenock,,,,Jim's Burger Van,Mobile caterer,7846,,,209044,,,55.95214800000000,00/00881/STTRAD,778,safer.communities@inverclyde.gov.uk,Inverclyde,http://www.inverclyde.gov.uk/business-and-trade/food-safety-and-standards/,-4.76399800000000,PA15 1YA,2014-09-09,fhis_pass_en-GB,Pass,,FHIS,
442384,c/o 40 West Stewart Street Greenock,,,,Joes  Ices Reg PX02 CVZ,Mobile caterer,7846,,,209040,,,55.95214800000000,00/03110/STTRAD,778,safer.communities@inverclyde.gov.uk,Inverclyde,http://www.inverclyde.gov.uk/business-and-trade/food-safety-and-standards/,-4.76399800000000,PA15 1YA,2010-03-09,fhis_pass_en-GB,Pass,,FHIS,
442385,19 Inverkip Street Greenock,,,,John Galt House,Hospitals/Childcare/Caring Premises,5,,,620052,,,55.94754300000000,13/00058/COMM,778,safer.communities@inverclyde.gov.uk,Inverclyde,http://www.inverclyde.gov.uk/business-and-trade/food-safety-and-standards/,-4.76488700000000,PA15 1TF,2013-10-03,fhis_pass_en-GB,Pass,,FHIS,
442386,Unit 2 Faulds Park Industrial Estate Faulds Park Road GOUROCK,,,,John Paul Flynn (Devol Factory),Restaurant/Cafe/Canteen,1,,,655587,,,55.94288400000000,14/00022/COMM,778,safer.communities@inverclyde.gov.uk,Inverclyde,http://www.inverclyde.gov.uk/business-and-trade/food-safety-and-standards/,-4.86217900000000,PA19 1FB,2014-06-09,fhis_pass_en-GB,Pass,,FHIS,
442387,Buchanan's Factory F Matilda Wks (8-12) Eldon Street Greenock,,,,John Paul Flynn Catering (Factory Canteen),Restaurant/Cafe/Canteen,1,,,33767,,,55.96151400000000,10/00065/COMM,778,safer.communities@inverclyde.gov.uk,Inverclyde,http://www.inverclyde.gov.uk/business-and-trade/food-safety-and-standards/,-4.79581700000000,PA16 7QF,2015-02-02,fhis_pass_en-GB,Pass,,FHIS,
442388,c/o 40 West Stewart Street Greenock,,,,Johns Ices,Mobile caterer,7846,,,209028,,,55.95214800000000,00/06209/STTRAD,778,safer.communities@inverclyde.gov.uk,Inverclyde,http://www.inverclyde.gov.uk/business-and-trade/food-safety-and-standards/,-4.76399800000000,PA15 1YA,2010-03-23,fhis_pass_en-GB,Pass,,FHIS,
442389,25 Lynedoch Street GREENOCK,,,,Johns Joint,Restaurant/Cafe/Canteen,1,,,642605,,,55.94462100000000,14/00019/COMM,778,safer.communities@inverclyde.gov.uk,Inverclyde,http://www.inverclyde.gov.uk/business-and-trade/food-safety-and-standards/,-4.75570900000000,PA15 4AB,2014-05-19,fhis_pass_en-GB,Pass,,FHIS,
442390,Upper Village Quarriers Village Bridge Of Weir,,,,Kelly House,Hospitals/Childcare/Caring Premises,5,,,284,,,55.86777100000000,00/00611/COMM,778,safer.communities@inverclyde.gov.uk,Inverclyde,http://www.inverclyde.gov.uk/business-and-trade/food-safety-and-standards/,-4.62490300000000,PA11 3SD,2014-03-14,fhis_pass_en-GB,Pass,,FHIS,
442391,2 Kelly Street Greenock,,,,Kelly Street Childrens Centre,Hospitals/Childcare/Caring Premises,5,,,535,,,55.95174100000000,00/06185/COMM,778,safer.communities@inverclyde.gov.uk,Inverclyde,http://www.inverclyde.gov.uk/business-and-trade/food-safety-and-standards/,-4.76528300000000,PA16 8NF,2010-03-23,fhis_pass_en-GB,Pass,,FHIS,
442392,Kelly Road Wemyss Bay,,,,Kellybank Caravan Park Clubhouse,Pub/bar/nightclub,7843,,,64,,,55.87562500000000,00/00069/COMM,778,safer.communities@inverclyde.gov.uk,Inverclyde,http://www.inverclyde.gov.uk/business-and-trade/food-safety-and-standards/,-4.87657200000000,PA18 6BB,2009-10-05,fhis_pass_en-GB,Pass,,FHIS,
442393,1 Kempock Street Gourock,,,,Kempock Bar,Pub/bar/nightclub,7843,,,192,,,55.96176200000000,00/00356/COMM,778,safer.communities@inverclyde.gov.uk,Inverclyde,http://www.inverclyde.gov.uk/business-and-trade/food-safety-and-standards/,-4.81886300000000,PA19 1NB,2011-03-22,fhis_pass_en-GB,Pass,,FHIS,
442394,2 Cowal View GOUROCK,,,,Key Stores,Retailers - other,4613,,,692585,,,55.95284900000000,14/00046/COMM,778,safer.communities@inverclyde.gov.uk,Inverclyde,http://www.inverclyde.gov.uk/business-and-trade/food-safety-and-standards/,-4.83434900000000,PA19 1EH,2014-08-18,fhis_improvement_required_en-GB,Improvement Required,,FHIS,
442395,74 - 76 Cathcart Street Greenock,,,,Key Stores,Retailers - other,4613,,,118,,,55.94679700000000,00/00136/COMM,778,safer.communities@inverclyde.gov.uk,Inverclyde,http://www.inverclyde.gov.uk/business-and-trade/food-safety-and-standards/,-4.75285200000000,PA15 1DD,2012-10-24,fhis_pass_en-GB,Pass,,FHIS,
442396,Customhouse Way Greenock,,,,KFC Restaurants Ltd,Restaurant/Cafe/Canteen,1,,,358,,,55.94973200000000,00/01656/COMM,778,safer.communities@inverclyde.gov.uk,Inverclyde,http://www.inverclyde.gov.uk/business-and-trade/food-safety-and-standards/,-4.75626500000000,PA15 1EG,2014-05-12,fhis_pass_en-GB,Pass,,FHIS,
442397,8 Bank Street GREENOCK,,,,Kidology,Hospitals/Childcare/Caring Premises,5,,,528,,,55.94538300000000,00/06159/COMM,778,safer.communities@inverclyde.gov.uk,Inverclyde,http://www.inverclyde.gov.uk/business-and-trade/food-safety-and-standards/,-4.75781400000000,PA15 4PE,2014-06-12,fhis_pass_en-GB,Pass,,FHIS,
442398,Kidston Hall High Street Kilmacolm,,,,Kidston Kids,Hospitals/Childcare/Caring Premises,5,,,507,,,55.89425400000000,00/06078/COMM,778,safer.communities@inverclyde.gov.uk,Inverclyde,http://www.inverclyde.gov.uk/business-and-trade/food-safety-and-standards/,-4.62642000000000,PA13 4AD,2009-12-02,fhis_pass_en-GB,Pass,,FHIS,
442399,Park Road Kilmacolm,,,,Kilmacolm Bowling Club,Pub/bar/nightclub,7843,,,243,,,55.89286200000000,00/00491/COMM,778,safer.communities@inverclyde.gov.uk,Inverclyde,http://www.inverclyde.gov.uk/business-and-trade/food-safety-and-standards/,-4.63309200000000,PA13 4EL,2010-07-01,fhis_pass_en-GB,Pass,,FHIS,
442400,2 Market Place Kilmacolm,,,,Kilmacolm News,Retailers - other,4613,,,33042,,,55.89425400000000,10/00021/COMM,778,safer.communities@inverclyde.gov.uk,Inverclyde,http://www.inverclyde.gov.uk/business-and-trade/food-safety-and-standards/,-4.62642000000000,PA13 4AD,2010-01-14,fhis_pass_en-GB,Pass,,FHIS,
442401,Kilmacolm Primary Churchill Road Kilmacolm,,,,Kilmacolm Nursery Class,Hospitals/Childcare/Caring Premises,5,,,541,,,55.89092600000000,00/06192/COMM,778,safer.communities@inverclyde.gov.uk,Inverclyde,http://www.inverclyde.gov.uk/business-and-trade/food-safety-and-standards/,-4.63323300000000,PA13 4LH,2009-12-02,fhis_pass_en-GB,Pass,,FHIS,
442402,Churchill Road Kilmacolm,,,,Kilmacolm Primary School,School/college/university,7845,,,126,,,55.89092600000000,00/00150/COMM,778,safer.communities@inverclyde.gov.uk,Inverclyde,http://www.inverclyde.gov.uk/business-and-trade/food-safety-and-standards/,-4.63323300000000,PA13 4LH,2014-01-16,fhis_pass_en-GB,Pass,,FHIS,
442403,Octavia Buildings 3 Bridge Of Weir Road KILMACOLM,,,,Kilmacolm Stores,Retailers - other,4613,,,564400,,,55.89428600000000,13/00037/COMM,778,safer.communities@inverclyde.gov.uk,Inverclyde,http://www.inverclyde.gov.uk/business-and-trade/food-safety-and-standards/,-4.62616600000000,PA13 4AG,2015-01-20,fhis_improvement_required_en-GB,Improvement Required,,FHIS,
442404,22 Westburn Street Greenock,,,,Kilted Kebab,Takeaway/sandwich shop,7844,,,550801,,,55.94985700000000,13/00041/COMM,778,safer.communities@inverclyde.gov.uk,Inverclyde,http://www.inverclyde.gov.uk/business-and-trade/food-safety-and-standards/,-4.75991000000000,PA15 1JR,2014-03-04,fhis_pass_en-GB,Pass,,FHIS,
442405,Oakfield Terrace Greenock,,,,Kincaid House,Hospitals/Childcare/Caring Premises,5,,,533,,,55.94319000000000,00/06183/COMM,778,safer.communities@inverclyde.gov.uk,Inverclyde,http://www.inverclyde.gov.uk/business-and-trade/food-safety-and-standards/,-4.73441700000000,PA15 2AH,2014-02-17,fhis_pass_en-GB,Pass,,FHIS,
442406,35 East Crawford Street Greenock,,,,King's Oak Nursery,Hospitals/Childcare/Caring Premises,5,,,540,,,55.93962100000000,00/06191/COMM,778,safer.communities@inverclyde.gov.uk,Inverclyde,http://www.inverclyde.gov.uk/business-and-trade/food-safety-and-standards/,-4.73242000000000,PA15 2DX,2014-09-22,fhis_pass_en-GB,Pass,,FHIS,
442407,35 East Crawford Street Greenock,,,,King's Oak Primary School,School/college/university,7845,,,458,,,55.93962100000000,00/05836/COMM,778,safer.communities@inverclyde.gov.uk,Inverclyde,http://www.inverclyde.gov.uk/business-and-trade/food-safety-and-standards/,-4.73242000000000,PA15 2DX,2014-01-17,fhis_pass_en-GB,Pass,,FHIS,
442408,13 Kylemore Terrace GREENOCK,,,,Kylemore Childrens Home,Hospitals/Childcare/Caring Premises,5,,,538553,,,55.93772700000000,13/00022/COMM,778,safer.communities@inverclyde.gov.uk,Inverclyde,http://www.inverclyde.gov.uk/business-and-trade/food-safety-and-standards/,-4.81687600000000,PA16 0RY,2015-01-12,fhis_pass_en-GB,Pass,,FHIS,
442409,Inverkip Road Greenock,,,,Lady Alice Bowling Club,Pub/bar/nightclub,7843,,,182,,,55.94580200000000,00/00320/COMM,778,safer.communities@inverclyde.gov.uk,Inverclyde,http://www.inverclyde.gov.uk/business-and-trade/food-safety-and-standards/,-4.77596000000000,PA16 9AF,2010-11-26,fhis_pass_en-GB,Pass,,FHIS,
442410,Inverkip Road Greenock,,,,Lady Alice Nursery Class,Hospitals/Childcare/Caring Premises,5,,,542,,,55.94202500000000,00/06193/COMM,778,safer.communities@inverclyde.gov.uk,Inverclyde,http://www.inverclyde.gov.uk/business-and-trade/food-safety-and-standards/,-4.78598800000000,PA16 9EH,2014-09-24,fhis_pass_en-GB,Pass,,FHIS,
442411,Inverkip Road Greenock,,,,Lady Alice Primary School,School/college/university,7845,,,183,,,55.94202500000000,00/00322/COMM,778,safer.communities@inverclyde.gov.uk,Inverclyde,http://www.inverclyde.gov.uk/business-and-trade/food-safety-and-standards/,-4.78598800000000,PA16 9EH,2014-01-21,fhis_pass_en-GB,Pass,,FHIS,
442412,201 Auchmead Road Greenock,,,,Lalleys,Retailers - other,4613,,,33481,,,55.94305600000000,10/00047/COMM,778,safer.communities@inverclyde.gov.uk,Inverclyde,http://www.inverclyde.gov.uk/business-and-trade/food-safety-and-standards/,-4.81929700000000,PA16 0LN,2015-01-12,fhis_improvement_required_en-GB,Improvement Required,,FHIS,
442413,Sacred Heart Primary School Westmorland Road Greenock,,,,Larkfield Children's Centre,Hospitals/Childcare/Caring Premises,5,,,45578,,,55.94304800000000,11/00015/COMM,778,safer.communities@inverclyde.gov.uk,Inverclyde,http://www.inverclyde.gov.uk/business-and-trade/food-safety-and-standards/,-4.81529300000000,PA16 0TS,2014-04-08,fhis_pass_en-GB,Pass,,FHIS,
442414,1 Auchmead Road Greenock,,,,Larkfield Masonic Association,Pub/bar/nightclub,7843,,,30,,,55.93822500000000,00/00030/COMM,778,safer.communities@inverclyde.gov.uk,Inverclyde,http://www.inverclyde.gov.uk/business-and-trade/food-safety-and-standards/,-4.81394900000000,PA16 0PY,2010-03-23,fhis_pass_en-GB,Pass,,FHIS,
442415,207 Burns Road Greenock,,,,Larkfield View Care Home,Hospitals/Childcare/Caring Premises,5,,,473,,,55.94543100000000,00/05946/COMM,778,safer.communities@inverclyde.gov.uk,Inverclyde,http://www.inverclyde.gov.uk/business-and-trade/food-safety-and-standards/,-4.82195300000000,PA16 0PR,2014-04-02,fhis_pass_en-GB,Pass,,FHIS,
442416,68 West Blackhall Street Greenock,,,,L'Arlecchino Restaurant,Restaurant/Cafe/Canteen,1,,,299,,,55.95094300000000,00/00687/COMM,778,safer.communities@inverclyde.gov.uk,Inverclyde,http://www.inverclyde.gov.uk/business-and-trade/food-safety-and-standards/,-4.76160500000000,PA15 1XG,2012-11-27,fhis_pass_en-GB,Pass,,FHIS,
442417,Inverclyde Royal Hospital Larkfield Road Greenock,,,,League Of Friends,Restaurant/Cafe/Canteen,1,,,334,,,55.94380300000000,00/00789/COMM,778,safer.communities@inverclyde.gov.uk,Inverclyde,http://www.inverclyde.gov.uk/business-and-trade/food-safety-and-standards/,-4.80978900000000,PA16 0XN,2014-02-13,fhis_pass_en-GB,Pass,,FHIS,
442418,12 - 14 West Stewart Street Greenock,,,,Legends,Pub/bar/nightclub,7843,,,308,,,55.95115600000000,00/00711/COMM,778,safer.communities@inverclyde.gov.uk,Inverclyde,http://www.inverclyde.gov.uk/business-and-trade/food-safety-and-standards/,-4.76370300000000,PA15 1SH,2010-03-23,fhis_pass_en-GB,Pass,,FHIS,
442419,14 Hamilton Gate GREENOCK,,,,Leo's,Restaurant/Cafe/Canteen,1,,,481442,,,55.94927700000000,12/00110/COMM,778,safer.communities@inverclyde.gov.uk,Inverclyde,http://www.inverclyde.gov.uk/business-and-trade/food-safety-and-standards/,-4.75930800000000,PA15 1JW,2014-09-01,fhis_pass_en-GB,Pass,,FHIS,
442420,179 Finnart Street Greenock,,,,Lesley Bakes Cakes,Other catering premises,7841,,,198177,,,55.95690500000000,11/00042/COMM,778,safer.communities@inverclyde.gov.uk,Inverclyde,http://www.inverclyde.gov.uk/business-and-trade/food-safety-and-standards/,-4.78305200000000,PA16 8JA,2012-02-06,fhis_pass_en-GB,Pass,,FHIS,
442421,1 Customhouse Way Greenock,,,,Lidl,Retailers - supermarkets/hypermarkets,7840,,,345,,,55.94973200000000,00/00929/COMM,778,safer.communities@inverclyde.gov.uk,Inverclyde,http://www.inverclyde.gov.uk/business-and-trade/food-safety-and-standards/,-4.75626500000000,PA15 1EG,2014-12-08,fhis_pass_en-GB,Pass,,FHIS,
442422,1 Newark Street Port Glasgow,,,,Lidl,Retailers - supermarkets/hypermarkets,7840,,,446,,,55.93226100000000,00/05751/COMM,778,safer.communities@inverclyde.gov.uk,Inverclyde,http://www.inverclyde.gov.uk/business-and-trade/food-safety-and-standards/,-4.67960600000000,PA14 5PE,2010-03-17,fhis_pass_en-GB,Pass,,FHIS,
442423,76 Belville Street GREENOCK,,,,Lifestyle,Retailers - other,4613,,,491,,,55.94175900000000,00/06027/COMM,778,safer.communities@inverclyde.gov.uk,Inverclyde,http://www.inverclyde.gov.uk/business-and-trade/food-safety-and-standards/,-4.73812800000000,PA15 4SY,2014-08-14,fhis_improvement_required_en-GB,Improvement Required,,FHIS,
442424,48 Sinclair Street Greenock,,,,Lifestyle Express,Retailers - other,4613,,,45948,,,55.93862300000000,11/00038/COMM,778,safer.communities@inverclyde.gov.uk,Inverclyde,http://www.inverclyde.gov.uk/business-and-trade/food-safety-and-standards/,-4.72759300000000,PA15 2EZ,2011-06-21,fhis_improvement_required_en-GB,Improvement Required,,FHIS,
442425,37 Cathcart Street Greenock,,,,Lighthouse Bar,Pub/bar/nightclub,7843,,,113,,,55.94624100000000,00/00130/COMM,778,safer.communities@inverclyde.gov.uk,Inverclyde,http://www.inverclyde.gov.uk/business-and-trade/food-safety-and-standards/,-4.75159500000000,PA15 1DG,2010-03-23,fhis_pass_en-GB,Pass,,FHIS,
442426,c/o 40 West Stewart Street Greenock,,,,Little Chef,Mobile caterer,7846,,,209045,,,55.95214800000000,00/05116/STTRAD,778,safer.communities@inverclyde.gov.uk,Inverclyde,http://www.inverclyde.gov.uk/business-and-trade/food-safety-and-standards/,-4.76399800000000,PA15 1YA,2014-11-24,fhis_pass_en-GB,Pass,,FHIS,
442427,118 Shore Street GOUROCK,,,,Lloyds Pharmacy,Retailers - other,4613,,,381,,,,00/03208/COMM,778,safer.communities@inverclyde.gov.uk,Inverclyde,http://www.inverclyde.gov.uk/business-and-trade/food-safety-and-standards/,,PA19 0DH,2010-07-01,fhis_pass_en-GB,Pass,,FHIS,
442428,8 - 14 Dubbs Road Port Glasgow,,,,Lloyds Pharmacy,Retailers - other,4613,,,264518,,,55.92512000000000,12/00030/COMM,778,safer.communities@inverclyde.gov.uk,Inverclyde,http://www.inverclyde.gov.uk/business-and-trade/food-safety-and-standards/,-4.66531300000000,PA14 5UA,2012-03-06,fhis_pass_en-GB,Pass,,FHIS,
442429,9 King Street Port Glasgow,,,,Lodge Cumberland Kilwinning,Pub/bar/nightclub,7843,,,344,,,55.93419100000000,00/00924/COMM,778,safer.communities@inverclyde.gov.uk,Inverclyde,http://www.inverclyde.gov.uk/business-and-trade/food-safety-and-standards/,-4.68918700000000,PA14 5JA,2010-10-28,fhis_pass_en-GB,Pass,,FHIS,
442430,7 Brown Street Port Glasgow,,,,Lodge Doric Kilwinning No. 68,Pub/bar/nightclub,7843,,,91,,,55.93497700000000,00/00093/COMM,778,safer.communities@inverclyde.gov.uk,Inverclyde,http://www.inverclyde.gov.uk/business-and-trade/food-safety-and-standards/,-4.69559900000000,PA14 5BP,2010-03-12,fhis_pass_en-GB,Pass,,FHIS,
442431,Ingleston Street GREENOCK,,,,Lomond View Academy,School/college/university,7845,,,635261,,,55.94065600000000,13/00076/COMM,778,safer.communities@inverclyde.gov.uk,Inverclyde,http://www.inverclyde.gov.uk/business-and-trade/food-safety-and-standards/,-4.74609000000000,PA15 4UQ,2014-02-21,fhis_pass_en-GB,Pass,,FHIS,
442432,25 Brougham Street Greenock,,,,Londis,Retailers - other,4613,,,88,,,55.95462900000000,00/00092/COMM,778,safer.communities@inverclyde.gov.uk,Inverclyde,http://www.inverclyde.gov.uk/business-and-trade/food-safety-and-standards/,-4.76798800000000,PA16 8AB,2014-11-27,fhis_pass_en-GB,Pass,,FHIS,
442433,70 - 74 Inverkip Road Greenock,,,,Londis,Retailers - other,4613,,,185,,,55.94304500000000,00/00326/COMM,778,safer.communities@inverclyde.gov.uk,Inverclyde,http://www.inverclyde.gov.uk/business-and-trade/food-safety-and-standards/,-4.78538900000000,PA16 9AP,2014-08-19,fhis_improvement_required_en-GB,Improvement Required,,FHIS,
442434,14 Houston Street Greenock,,,,Loreta Club,Pub/bar/nightclub,7843,,,178,,,55.95286300000000,00/00305/COMM,778,safer.communities@inverclyde.gov.uk,Inverclyde,http://www.inverclyde.gov.uk/business-and-trade/food-safety-and-standards/,-4.76658000000000,PA16 8DA,2010-06-01,fhis_pass_en-GB,Pass,,FHIS,
442435,c/o 40 West Stewart Street Greenock,,,,Loritoni,Mobile caterer,7846,,,209036,,,55.95214800000000,11/00045/STTRAD,778,safer.communities@inverclyde.gov.uk,Inverclyde,http://www.inverclyde.gov.uk/business-and-trade/food-safety-and-standards/,-4.76399800000000,PA15 1YA,2014-07-17,fhis_pass_en-GB,Pass,,FHIS,
442436,124 Eldon Street Greenock,,,,Lorna's Tearoom,Retailers - other,4613,,,456,,,55.96097700000000,00/05832/COMM,778,safer.communities@inverclyde.gov.uk,Inverclyde,http://www.inverclyde.gov.uk/business-and-trade/food-safety-and-standards/,-4.78063600000000,PA16 7RS,2013-07-09,fhis_improvement_required_en-GB,Improvement Required,,FHIS,
442437,6 Bay Street Port Glasgow,,,,Louis's,Takeaway/sandwich shop,7844,,,40,,,55.93405000000000,00/00042/COMM,778,safer.communities@inverclyde.gov.uk,Inverclyde,http://www.inverclyde.gov.uk/business-and-trade/food-safety-and-standards/,-4.68784800000000,PA14 5ED,2014-05-27,fhis_pass_en-GB,Pass,,FHIS,
442438,16 Laird Street Greenock,,,,Lows,Takeaway/sandwich shop,7844,,,551619,,,55.95085700000000,13/00007/COMM,778,safer.communities@inverclyde.gov.uk,Inverclyde,http://www.inverclyde.gov.uk/business-and-trade/food-safety-and-standards/,-4.76100700000000,PA15 1LB,2014-12-08,fhis_pass_en-GB,Pass,,FHIS,
442439,83 - 84 Shore Street Gourock,,,,Lucky House,Takeaway/sandwich shop,7844,,,274,,,55.95914200000000,00/00582/COMM,778,safer.communities@inverclyde.gov.uk,Inverclyde,http://www.inverclyde.gov.uk/business-and-trade/food-safety-and-standards/,-4.81591700000000,PA19 1RD,2014-11-11,fhis_pass_en-GB,Pass,,FHIS,
442440,150 Roxburgh Street Greenock,,,,Luigi's,Takeaway/sandwich shop,7844,,,262,,,55.94669700000000,00/00543/COMM,778,safer.communities@inverclyde.gov.uk,Inverclyde,http://www.inverclyde.gov.uk/business-and-trade/food-safety-and-standards/,-4.76694100000000,PA15 4JU,2014-10-27,fhis_pass_en-GB,Pass,,FHIS,
442441,100 Lynedoch Street Greenock,,,,Lynedoch Bar,Pub/bar/nightclub,7843,,,318,,,55.94261100000000,00/00741/COMM,778,safer.communities@inverclyde.gov.uk,Inverclyde,http://www.inverclyde.gov.uk/business-and-trade/food-safety-and-standards/,-4.75755200000000,PA15 4AH,2010-01-25,fhis_pass_en-GB,Pass,,FHIS,
442442,16 Lynedoch Street Greenock,,,,Lynedoch Off Sales,Retailers - other,4613,,,218,,,55.94468300000000,00/00414/COMM,778,safer.communities@inverclyde.gov.uk,Inverclyde,http://www.inverclyde.gov.uk/business-and-trade/food-safety-and-standards/,-4.75574600000000,PA15 4AB,2010-03-12,fhis_pass_en-GB,Pass,,FHIS,
442443,12 Robert Street Port Glasgow,,,,M & J Family Grocers,Retailers - other,4613,,,261,,,55.93193300000000,00/00539/COMM,778,safer.communities@inverclyde.gov.uk,Inverclyde,http://www.inverclyde.gov.uk/business-and-trade/food-safety-and-standards/,-4.67607700000000,PA14 5NU,2014-10-24,fhis_pass_en-GB,Pass,,FHIS,
442444,Ashlea  Shore Road Wemyss Bay,,,,Macaris Fish & Chicken Bar,Takeaway/sandwich shop,7844,,,268,,,55.87606800000000,00/00566/COMM,778,safer.communities@inverclyde.gov.uk,Inverclyde,http://www.inverclyde.gov.uk/business-and-trade/food-safety-and-standards/,-4.88838900000000,PA18 6AR,2014-10-08,fhis_pass_en-GB,Pass,,FHIS,
442445,1 Eldon Street Greenock,,,,Maclehose Court,Hospitals/Childcare/Caring Premises,5,,,154,,,55.95706800000000,00/00224/COMM,778,safer.communities@inverclyde.gov.uk,Inverclyde,http://www.inverclyde.gov.uk/business-and-trade/food-safety-and-standards/,-4.77221600000000,PA16 7UG,2013-09-23,fhis_pass_en-GB,Pass,,FHIS,
442446,14 Newark Street Greenock,,,,Madeira Nursery,Hospitals/Childcare/Caring Premises,5,,,372,,,55.95752100000000,00/03146/COMM,778,safer.communities@inverclyde.gov.uk,Inverclyde,http://www.inverclyde.gov.uk/business-and-trade/food-safety-and-standards/,-4.77684700000000,PA16 7UH,2014-05-30,fhis_pass_en-GB,Pass,,FHIS,
442447,40 Lynedoch Street Greenock,,,,Maitland Butcher,Manufacturers/packers,7839,,,46946,,,55.94384900000000,11/00095/COMM,778,safer.communities@inverclyde.gov.uk,Inverclyde,http://www.inverclyde.gov.uk/business-and-trade/food-safety-and-standards/,-4.75647100000000,PA15 4AE,2014-05-01,fhis_pass_en-GB,Pass,,FHIS,
442448,29 Regent Street Greenock,,,,Manzil,Takeaway/sandwich shop,7844,,,460495,,,55.94509200000000,12/00102/COMM,778,safer.communities@inverclyde.gov.uk,Inverclyde,http://www.inverclyde.gov.uk/business-and-trade/food-safety-and-standards/,-4.75595100000000,PA15 4QY,2014-03-31,fhis_pass_en-GB,Pass,,FHIS,
442449,1 Alderwood Road Port Glasgow,,,,Marchmont House,Hospitals/Childcare/Caring Premises,5,,,18,,,55.93214200000000,00/00003/COMM,778,safer.communities@inverclyde.gov.uk,Inverclyde,http://www.inverclyde.gov.uk/business-and-trade/food-safety-and-standards/,-4.69905200000000,PA14 5LG,2014-06-05,fhis_pass_en-GB,Pass,,FHIS,
442450,Cottage 47 Craigbet Road Quarriers Village,,,,Marcus Humphrey House,Hospitals/Childcare/Caring Premises,5,,,254,,,55.86727200000000,00/00524/COMM,778,safer.communities@inverclyde.gov.uk,Inverclyde,http://www.inverclyde.gov.uk/business-and-trade/food-safety-and-standards/,-4.61666900000000,PA11 3SX,2014-03-10,fhis_pass_en-GB,Pass,,FHIS,
442451,74 Shore Street Gourock,,,,Mario's Fish And Chips,Takeaway/sandwich shop,7844,,,232185,,,55.95914200000000,12/00039/COMM,778,safer.communities@inverclyde.gov.uk,Inverclyde,http://www.inverclyde.gov.uk/business-and-trade/food-safety-and-standards/,-4.81591700000000,PA19 1RD,2014-02-20,fhis_improvement_required_en-GB,Improvement Required,,FHIS,
442452,33 Hamilton Way Greenock,,,,Marks & Spencer,Retailers - supermarkets/hypermarkets,7840,,,171,,,55.94820200000000,00/00290/COMM,778,safer.communities@inverclyde.gov.uk,Inverclyde,http://www.inverclyde.gov.uk/business-and-trade/food-safety-and-standards/,-4.75958400000000,PA15 1RG,2015-01-27,fhis_pass_en-GB,Pass,,FHIS,
442453,West Stewart Street Greenock,,,,Masonic Temple,Pub/bar/nightclub,7843,,,307,,,55.94944800000000,00/00706/COMM,778,safer.communities@inverclyde.gov.uk,Inverclyde,http://www.inverclyde.gov.uk/business-and-trade/food-safety-and-standards/,-4.76250800000000,PA15 1SN,2010-05-27,fhis_pass_en-GB,Pass,,FHIS,
442454,3 Argyle Street Greenock,,,,Massas CafÃ©,Restaurant/Cafe/Canteen,1,,,548,,,55.95044600000000,00/06214/COMM,778,safer.communities@inverclyde.gov.uk,Inverclyde,http://www.inverclyde.gov.uk/business-and-trade/food-safety-and-standards/,-4.76209900000000,PA15 1XA,2012-09-20,fhis_pass_en-GB,Pass,,FHIS,
442455,182 Dunlop Street Greenock,,,,McAnerney Pharmacy/Post Office,Retailers - other,4613,,,149,,,55.94191300000000,00/00212/COMM,778,safer.communities@inverclyde.gov.uk,Inverclyde,http://www.inverclyde.gov.uk/business-and-trade/food-safety-and-standards/,-4.78500300000000,PA16 9DP,2010-06-09,fhis_pass_en-GB,Pass,,FHIS,
442456,8 Grosvenor Road Greenock,,,,McCormick Newsagents,Retailers - other,4613,,,169,,,55.93913100000000,00/00277/COMM,778,safer.communities@inverclyde.gov.uk,Inverclyde,http://www.inverclyde.gov.uk/business-and-trade/food-safety-and-standards/,-4.72737300000000,PA15 2DW,2014-09-11,fhis_pass_en-GB,Pass,,FHIS,
442457,2 James Watt Way Greenock,,,,McDonalds Restaurant Ltd,Restaurant/Cafe/Canteen,1,,,110,,,55.94423400000000,00/00125/COMM,778,safer.communities@inverclyde.gov.uk,Inverclyde,http://www.inverclyde.gov.uk/business-and-trade/food-safety-and-standards/,-4.73192800000000,PA15 2AD,2014-02-27,fhis_pass_en-GB,Pass,,FHIS,
442458,9 Newton Street Greenock,,,,McIntyre Fishmongers,Retailers - other,4613,,,238,,,55.94745400000000,00/00471/COMM,778,safer.communities@inverclyde.gov.uk,Inverclyde,http://www.inverclyde.gov.uk/business-and-trade/food-safety-and-standards/,-4.76885400000000,PA16 8UH,2012-03-20,fhis_pass_en-GB,Pass,,FHIS,
442459,15 Kelly Street Greenock,,,,Mclean Museum & Art Gallery,Retailers - other,4613,,,332011,,,55.95109500000000,00/05588/COMM,778,safer.communities@inverclyde.gov.uk,Inverclyde,http://www.inverclyde.gov.uk/business-and-trade/food-safety-and-standards/,-4.76723900000000,PA16 8JX,2011-03-22,fhis_exempt_en-GB,Exempt,,FHIS,
442460,Mcpherson Drive Gourock,,,,McPherson Centre,Other catering premises,7841,,,364,,,55.95402300000000,00/03060/COMM,778,safer.communities@inverclyde.gov.uk,Inverclyde,http://www.inverclyde.gov.uk/business-and-trade/food-safety-and-standards/,-4.82552600000000,PA19 1LJ,2012-11-15,fhis_pass_en-GB,Pass,,FHIS,
442461,Resource Centre 1 Burns Square Greenock,,,,Meadowlark Community Centre,Other catering premises,7841,,,165,,,55.94151000000000,00/00262/COMM,778,safer.communities@inverclyde.gov.uk,Inverclyde,http://www.inverclyde.gov.uk/business-and-trade/food-safety-and-standards/,-4.82280500000000,PA16 0NT,2014-08-13,fhis_pass_en-GB,Pass,,FHIS,
442462,46 Mearns Street Greenock,,,,Mearns Centre,Other catering premises,7841,,,359,,,55.94342100000000,00/01685/COMM,778,safer.communities@inverclyde.gov.uk,Inverclyde,http://www.inverclyde.gov.uk/business-and-trade/food-safety-and-standards/,-4.76031700000000,PA15 4QD,2010-05-26,fhis_pass_en-GB,Pass,,FHIS,
442463,Bay View 9A Shore Road Wemyss Bay,,,,Mearns T McCaskie,Manufacturers/packers,7839,,,267,,,55.87606800000000,00/00563/COMM,778,safer.communities@inverclyde.gov.uk,Inverclyde,http://www.inverclyde.gov.uk/business-and-trade/food-safety-and-standards/,-4.88838900000000,PA18 6AR,2015-02-03,fhis_pass_en-GB,Pass,,FHIS,
442464,Container Way Greenock,,,,Mecca,Restaurant/Cafe/Canteen,1,,,354,,,55.95124700000000,00/01625/COMM,778,safer.communities@inverclyde.gov.uk,Inverclyde,http://www.inverclyde.gov.uk/business-and-trade/food-safety-and-standards/,-4.75723700000000,PA15 1PX,2013-08-14,fhis_pass_en-GB,Pass,,FHIS,
442465,81 Shore Street Gourock,,,,Mei Lees Takeaway,Takeaway/sandwich shop,7844,,,32802,,,55.95914200000000,10/00006/COMM,778,safer.communities@inverclyde.gov.uk,Inverclyde,http://www.inverclyde.gov.uk/business-and-trade/food-safety-and-standards/,-4.81591700000000,PA19 1RD,2014-09-11,fhis_improvement_required_en-GB,Improvement Required,,FHIS,
442466,134 Drumfrochar Road Greenock,,,,Merino Court Care Home - HC-One,Hospitals/Childcare/Caring Premises,5,,,333,,,55.94146700000000,00/00788/COMM,778,safer.communities@inverclyde.gov.uk,Inverclyde,http://www.inverclyde.gov.uk/business-and-trade/food-safety-and-standards/,-4.76809000000000,PA15 4JG,2014-04-28,fhis_pass_en-GB,Pass,,FHIS,
442467,Cottage 43 Peace Avenue Quarriers Village,,,,Merrybrook,Hospitals/Childcare/Caring Premises,5,,,396,,,55.86727200000000,00/04849/COMM,778,safer.communities@inverclyde.gov.uk,Inverclyde,http://www.inverclyde.gov.uk/business-and-trade/food-safety-and-standards/,-4.61666900000000,PA11 3SX,2013-11-28,fhis_pass_en-GB,Pass,,FHIS,
442468,Unit 1 Lyndoch Industrial Estate Greenock,,,,Millar Catering,Other catering premises,7841,,,244,,,55.94249400000000,00/00496/COMM,778,safer.communities@inverclyde.gov.uk,Inverclyde,http://www.inverclyde.gov.uk/business-and-trade/food-safety-and-standards/,-4.75434100000000,PA15 4AY,2012-09-26,fhis_pass_en-GB,Pass,,FHIS,
442469,64 Shore Street Gourock,,,,Monteiths Bar,Pub/bar/nightclub,7843,,,33735,,,55.95824500000000,10/00063/COMM,778,safer.communities@inverclyde.gov.uk,Inverclyde,http://www.inverclyde.gov.uk/business-and-trade/food-safety-and-standards/,-4.81505000000000,PA19 1RF,2014-12-08,fhis_pass_en-GB,Pass,,FHIS,
442470,14 - 16 Cumberland Road Greenock,,,,Monty's Munchies,Takeaway/sandwich shop,7844,,,33586,,,55.94079500000000,10/00053/COMM,778,safer.communities@inverclyde.gov.uk,Inverclyde,http://www.inverclyde.gov.uk/business-and-trade/food-safety-and-standards/,-4.81005200000000,PA16 0TW,2014-09-24,fhis_pass_en-GB,Pass,,FHIS,
442471,Moorfoot Drive Gourock,,,,Moorfoot Nursery Class,Hospitals/Childcare/Caring Premises,5,,,518,,,55.95068100000000,00/06118/COMM,778,safer.communities@inverclyde.gov.uk,Inverclyde,http://www.inverclyde.gov.uk/business-and-trade/food-safety-and-standards/,-4.83366100000000,PA19 1ES,2014-11-26,fhis_pass_en-GB,Pass,,FHIS,
442472,Moorfoot Drive Gourock,,,,Moorfoot School,School/college/university,7845,,,229,,,55.95068100000000,00/00446/COMM,778,safer.communities@inverclyde.gov.uk,Inverclyde,http://www.inverclyde.gov.uk/business-and-trade/food-safety-and-standards/,-4.83366100000000,PA19 1ES,2014-01-22,fhis_pass_en-GB,Pass,,FHIS,
442473,47 West Blackhall Street Greenock,,,,Morgans,Restaurant/Cafe/Canteen,1,,,362,,,55.95035300000000,00/01697/COMM,778,safer.communities@inverclyde.gov.uk,Inverclyde,http://www.inverclyde.gov.uk/business-and-trade/food-safety-and-standards/,-4.76186800000000,PA15 1UT,2012-10-01,fhis_pass_en-GB,Pass,,FHIS,
442474,Dellingburn Street Greenock,,,,Morrisons,Retailers - supermarkets/hypermarkets,7840,,,377,,,55.94564800000000,00/03187/COMM,778,safer.communities@inverclyde.gov.uk,Inverclyde,http://www.inverclyde.gov.uk/business-and-trade/food-safety-and-standards/,-4.75038400000000,PA15 1EL,2011-09-14,fhis_pass_en-GB,Pass,,FHIS,
442475,4 Dellingburn Street Greenock,,,,Morrisons (Petrol Station),Retailers - other,4613,,,378,,,55.94564800000000,00/03188/COMM,778,safer.communities@inverclyde.gov.uk,Inverclyde,http://www.inverclyde.gov.uk/business-and-trade/food-safety-and-standards/,-4.75038400000000,PA15 1EL,2010-02-08,fhis_pass_en-GB,Pass,,FHIS,
442476,Block 8 Unit 50 Gareloch Road Port Glasgow,,,,Muirshiel Resource Centre,Other catering premises,7841,,,319,,,55.92481500000000,00/00747/COMM,778,safer.communities@inverclyde.gov.uk,Inverclyde,http://www.inverclyde.gov.uk/business-and-trade/food-safety-and-standards/,-4.66654100000000,PA14 5XJ,2014-03-17,fhis_pass_en-GB,Pass,,FHIS,
442477,20 Princes Street Port Glasgow,,,,Murrays,Retailers - other,4613,,,320,,,55.93427700000000,00/00748/COMM,778,safer.communities@inverclyde.gov.uk,Inverclyde,http://www.inverclyde.gov.uk/business-and-trade/food-safety-and-standards/,-4.68976900000000,PA14 5JQ,2010-03-23,fhis_pass_en-GB,Pass,,FHIS,
442478,22 Princes Street Port Glasgow,,,,Murray's,Retailers - other,4613,,,248,,,55.93427700000000,00/00508/COMM,778,safer.communities@inverclyde.gov.uk,Inverclyde,http://www.inverclyde.gov.uk/business-and-trade/food-safety-and-standards/,-4.68976900000000,PA14 5JQ,2014-10-07,fhis_pass_en-GB,Pass,,FHIS,
442479,Ferry Terminal Tarbet Street Gourock,,,,MV Argyle,Mobile caterer,7846,,,33902,,,55.96037700000000,10/00074/COMM,778,safer.communities@inverclyde.gov.uk,Inverclyde,http://www.inverclyde.gov.uk/business-and-trade/food-safety-and-standards/,-4.81496500000000,PA19 1QP,2014-05-08,fhis_pass_en-GB,Pass,,FHIS,
442480,Ferry Terminal Tarbet Street Gourock,,,,MV Bute,Mobile caterer,7846,,,461,,,55.96037700000000,00/05856/COMM,778,safer.communities@inverclyde.gov.uk,Inverclyde,http://www.inverclyde.gov.uk/business-and-trade/food-safety-and-standards/,-4.81496500000000,PA19 1QP,2014-05-08,fhis_pass_en-GB,Pass,,FHIS,
442481,52 West Blackhall Street Greenock,,,,My Newsagent Too,Retailers - other,4613,,,33460,,,55.93664900000000,10/00045/LOCAL,778,safer.communities@inverclyde.gov.uk,Inverclyde,http://www.inverclyde.gov.uk/business-and-trade/food-safety-and-standards/,-4.73988300000000,PA15 1UZ,2011-06-09,fhis_pass_en-GB,Pass,,FHIS,
442482,79 West Blackhall Street Greenock,,,,My Newsagents,Retailers - other,4613,,,469,,,55.95133500000000,00/05930/COMM,778,safer.communities@inverclyde.gov.uk,Inverclyde,http://www.inverclyde.gov.uk/business-and-trade/food-safety-and-standards/,-4.76256200000000,PA15 1XP,2010-05-25,fhis_pass_en-GB,Pass,,FHIS,
442483,Neil Street Greenock,,,,Neil Street Home,Hospitals/Childcare/Caring Premises,5,,,233,,,55.94143200000000,00/00460/COMM,778,safer.communities@inverclyde.gov.uk,Inverclyde,http://www.inverclyde.gov.uk/business-and-trade/food-safety-and-standards/,-4.79787700000000,PA16 9JA,2014-02-04,fhis_pass_en-GB,Pass,,FHIS,
442484,18 East Crawford Street GREENOCK,,,,New Best Cellar,Retailers - other,4613,,,715560,,,55.94083100000000,14/00071/COMM,778,safer.communities@inverclyde.gov.uk,Inverclyde,http://www.inverclyde.gov.uk/business-and-trade/food-safety-and-standards/,-4.73380200000000,PA15 2DZ,2014-12-08,fhis_pass_en-GB,Pass,,FHIS,
442485,76A Belville Street GREENOCK,,,,New Canton,Takeaway/sandwich shop,7844,,,722681,,,55.94175900000000,14/00059/COMM,778,safer.communities@inverclyde.gov.uk,Inverclyde,http://www.inverclyde.gov.uk/business-and-trade/food-safety-and-standards/,-4.73812800000000,PA15 4SY,2014-11-27,fhis_improvement_required_en-GB,Improvement Required,,FHIS,
442486,Jamaica Street Greenock,,,,New Dawn Books & Coffee Shop,Restaurant/Cafe/Canteen,1,,,187,,,55.95115600000000,00/00338/COMM,778,safer.communities@inverclyde.gov.uk,Inverclyde,http://www.inverclyde.gov.uk/business-and-trade/food-safety-and-standards/,-4.76370300000000,PA15 1XX,2014-09-11,fhis_pass_en-GB,Pass,,FHIS,
442487,39 Regent Street Greenock,,,,New Highland Star,Takeaway/sandwich shop,7844,,,259,,,55.94576300000000,00/00534/COMM,778,safer.communities@inverclyde.gov.uk,Inverclyde,http://www.inverclyde.gov.uk/business-and-trade/food-safety-and-standards/,-4.75849700000000,PA15 4PL,2014-07-08,fhis_pass_en-GB,Pass,,FHIS,
442488,13 Hamilton Gate Greenock,,,,New Look,Retailers - other,4613,,,517,,,55.94927700000000,00/06101/COMM,778,safer.communities@inverclyde.gov.uk,Inverclyde,http://www.inverclyde.gov.uk/business-and-trade/food-safety-and-standards/,-4.75930800000000,PA15 1JW,2010-10-08,fhis_pass_en-GB,Pass,,FHIS,
442489,Newark Care Home 25 Southfield Avenue PORT GLASGOW,,,,Newark Care Home,Hospitals/Childcare/Caring Premises,5,,,692587,,,55.92617100000000,14/00048/COMM,778,safer.communities@inverclyde.gov.uk,Inverclyde,http://www.inverclyde.gov.uk/business-and-trade/food-safety-and-standards/,-4.66077500000000,PA14 6PS,2014-08-13,fhis_pass_en-GB,Pass,,FHIS,
442490,Bridgend Avenue Port Glasgow,,,,Newark Nursery School,Hospitals/Childcare/Caring Premises,5,,,539,,,55.92724700000000,00/06190/COMM,778,safer.communities@inverclyde.gov.uk,Inverclyde,http://www.inverclyde.gov.uk/business-and-trade/food-safety-and-standards/,-4.66585900000000,PA14 5SU,2009-12-02,fhis_pass_en-GB,Pass,,FHIS,
442491,Bridgend Avenue Port Glasgow,,,,Newark Primary School,School/college/university,7845,,,525,,,55.92724700000000,00/06135/COMM,778,safer.communities@inverclyde.gov.uk,Inverclyde,http://www.inverclyde.gov.uk/business-and-trade/food-safety-and-standards/,-4.66585900000000,PA14 5SU,2013-09-09,fhis_pass_en-GB,Pass,,FHIS,
442492,20 Kilblain Street GREENOCK,,,,News 4 U,Takeaway/sandwich shop,7844,,,635259,,,55.94927600000000,13/00074/COMM,778,safer.communities@inverclyde.gov.uk,Inverclyde,http://www.inverclyde.gov.uk/business-and-trade/food-safety-and-standards/,-4.76257600000000,PA15 1SR,2014-04-22,fhis_pass_en-GB,Pass,,FHIS,
442493,63 Kempock Street GOUROCK,,,,Nico's Pizzeria,Takeaway/sandwich shop,7844,,,479336,,,55.96144900000000,12/00103/COMM,778,safer.communities@inverclyde.gov.uk,Inverclyde,http://www.inverclyde.gov.uk/business-and-trade/food-safety-and-standards/,-4.82039500000000,PA19 1NF,2014-03-10,fhis_pass_en-GB,Pass,,FHIS,
442494,Dunlop Street Greenock,,,,Notre Dame High School,School/college/university,7845,,,46162,,,55.94249300000000,11/00050/COMM,778,safer.communities@inverclyde.gov.uk,Inverclyde,http://www.inverclyde.gov.uk/business-and-trade/food-safety-and-standards/,-4.77440900000000,PA16 9BG,2014-01-29,fhis_pass_en-GB,Pass,,FHIS,
442495,2 Kilblain Street Greenock,,,,Oasis Takeaway,Takeaway/sandwich shop,7844,,,383,,,55.94927600000000,00/03239/COMM,778,safer.communities@inverclyde.gov.uk,Inverclyde,http://www.inverclyde.gov.uk/business-and-trade/food-safety-and-standards/,-4.76257600000000,PA15 1SR,2014-02-21,fhis_pass_en-GB,Pass,,FHIS,
442496,11 William Street Greenock,,,,Old Bank Bar,Pub/bar/nightclub,7843,,,46289,,,55.93664900000000,11/00057/COMM,778,safer.communities@inverclyde.gov.uk,Inverclyde,http://www.inverclyde.gov.uk/business-and-trade/food-safety-and-standards/,-4.73988300000000,PA15 1BU,2014-06-18,fhis_pass_en-GB,Pass,,FHIS,
442497,2 Campbell Street Greenock,,,,Old West Kirk Church,Other catering premises,7841,,,321,,,55.95551000000000,00/00751/COMM,778,safer.communities@inverclyde.gov.uk,Inverclyde,http://www.inverclyde.gov.uk/business-and-trade/food-safety-and-standards/,-4.76797100000000,PA16 8AN,2010-03-23,fhis_pass_en-GB,Pass,,FHIS,
442498,2 Campbell Street Greenock,,,,Old West Kirk Out Of School Care,Hospitals/Childcare/Caring Premises,5,,,426,,,55.95551000000000,00/05321/COMM,778,safer.communities@inverclyde.gov.uk,Inverclyde,http://www.inverclyde.gov.uk/business-and-trade/food-safety-and-standards/,-4.76797100000000,PA16 8AN,2014-09-09,fhis_pass_en-GB,Pass,,FHIS,
442499,43 Shore Street Gourock,,,,Old Wherry Tavern,Pub/bar/nightclub,7843,,,269,,,55.95752000000000,00/00569/COMM,778,safer.communities@inverclyde.gov.uk,Inverclyde,http://www.inverclyde.gov.uk/business-and-trade/food-safety-and-standards/,-4.81371600000000,PA19 1RG,2011-03-21,fhis_pass_en-GB,Pass,,FHIS,
442500,118 Cathcart Street Greenock,,,,One 18 Cafe,Restaurant/Cafe/Canteen,1,,,361,,,55.94710400000000,00/01692/COMM,778,safer.communities@inverclyde.gov.uk,Inverclyde,http://www.inverclyde.gov.uk/business-and-trade/food-safety-and-standards/,-4.75441200000000,PA15 1BB,2013-04-03,fhis_pass_en-GB,Pass,,FHIS,
442501,1 Cove Road Gourock,,,,One Cove Road,Restaurant/Cafe/Canteen,1,,,46743,,,55.95672400000000,11/00083/COMM,778,safer.communities@inverclyde.gov.uk,Inverclyde,http://www.inverclyde.gov.uk/business-and-trade/food-safety-and-standards/,-4.80409300000000,PA19 1RS,2014-08-07,fhis_pass_en-GB,Pass,,FHIS,
442502,103 Holmscroft Street Greenock,,,,Orangefield Chip Shop,Takeaway/sandwich shop,7844,,,176,,,55.94616100000000,00/00301/COMM,778,safer.communities@inverclyde.gov.uk,Inverclyde,http://www.inverclyde.gov.uk/business-and-trade/food-safety-and-standards/,-4.76999500000000,PA15 4DF,2013-11-11,fhis_pass_en-GB,Pass,,FHIS,
442503,Aileymill Primary School Norfolk Road Greenock,,,,Oscar,Restaurant/Cafe/Canteen,1,,,46862,,,55.94049700000000,11/00090/COMM,778,safer.communities@inverclyde.gov.uk,Inverclyde,http://www.inverclyde.gov.uk/business-and-trade/food-safety-and-standards/,-4.81720500000000,PA16 0JG,2011-11-23,fhis_pass_en-GB,Pass,,FHIS,
442504,79 Kempock Street Gourock,,,,Pak Lee Carry Out,Takeaway/sandwich shop,7844,,,196,,,55.96144900000000,00/00368/COMM,778,safer.communities@inverclyde.gov.uk,Inverclyde,http://www.inverclyde.gov.uk/business-and-trade/food-safety-and-standards/,-4.82039500000000,PA19 1NF,2014-12-15,fhis_pass_en-GB,Pass,,FHIS,
442505,16 Newton Street Greenock,,,,Panda,Takeaway/sandwich shop,7844,,,34456,,,55.94782000000000,10/00119/COMM,778,safer.communities@inverclyde.gov.uk,Inverclyde,http://www.inverclyde.gov.uk/business-and-trade/food-safety-and-standards/,-4.76855900000000,PA16 8UJ,2014-11-06,fhis_pass_en-GB,Pass,,FHIS,
442506,106 Arran Avenue Port Glasgow,,,,Park Farm Post Office,Retailers - other,4613,,,27,,,55.92344800000000,00/00019/COMM,778,safer.communities@inverclyde.gov.uk,Inverclyde,http://www.inverclyde.gov.uk/business-and-trade/food-safety-and-standards/,-4.65031100000000,PA14 6BA,2014-09-30,fhis_pass_en-GB,Pass,,FHIS,
442507,Cottage 109 Upper Village Kilmacolm,,,,Parklands,Hospitals/Childcare/Caring Premises,5,,,285,,,55.86777100000000,00/00615/COMM,778,safer.communities@inverclyde.gov.uk,Inverclyde,http://www.inverclyde.gov.uk/business-and-trade/food-safety-and-standards/,-4.62490300000000,PA11 3SD,2014-01-27,fhis_pass_en-GB,Pass,,FHIS,
442508,Garden Centre Parklea Road PORT GLASGOW,,,,Parklea  Branching Out,Restaurant/Cafe/Canteen,1,,,498,,,55.93010400000000,00/06059/COMM,778,safer.communities@inverclyde.gov.uk,Inverclyde,http://www.inverclyde.gov.uk/business-and-trade/food-safety-and-standards/,-4.64255100000000,PA14 6TR,2014-01-24,fhis_pass_en-GB,Pass,,FHIS,
442509,Queen Street (sited On Anderson St) Port Glasgow,,,,Pat's Snack Van,Mobile caterer,7846,,,418361,,,55.93552000000000,12/00074/STTRAD,778,safer.communities@inverclyde.gov.uk,Inverclyde,http://www.inverclyde.gov.uk/business-and-trade/food-safety-and-standards/,-4.68963100000000,PA14 5EY,2015-01-22,fhis_pass_en-GB,Pass,,FHIS,
442510,94 Shore Street Gourock,,,,Pauls Food & Wine,Retailers - other,4613,,,543,,,55.95990700000000,00/06194/COMM,778,safer.communities@inverclyde.gov.uk,Inverclyde,http://www.inverclyde.gov.uk/business-and-trade/food-safety-and-standards/,-4.81666100000000,PA19 1RB,2014-08-12,fhis_improvement_required_en-GB,Improvement Required,,FHIS,
442511,The Garage Shore Road WEMYSS BAY,,,,Pearsons Garage,Retailers - other,4613,,,442,,,55.87606800000000,00/05649/COMM,778,safer.communities@inverclyde.gov.uk,Inverclyde,http://www.inverclyde.gov.uk/business-and-trade/food-safety-and-standards/,-4.88838900000000,PA18 6AR,2010-03-23,fhis_pass_en-GB,Pass,,FHIS,
442512,55 Bute Avenue PORT GLASGOW,,,,Pennywise,Retailers - other,4613,,,712995,,,55.92554600000000,14/00065/COMM,778,safer.communities@inverclyde.gov.uk,Inverclyde,http://www.inverclyde.gov.uk/business-and-trade/food-safety-and-standards/,-4.64682000000000,PA14 6AE,2014-11-03,fhis_improvement_required_en-GB,Improvement Required,,FHIS,
442513,26 Cumberland Road Greenock,,,,Peters Bakery,Takeaway/sandwich shop,7844,,,322,,,55.94079500000000,00/00753/COMM,778,safer.communities@inverclyde.gov.uk,Inverclyde,http://www.inverclyde.gov.uk/business-and-trade/food-safety-and-standards/,-4.81005200000000,PA16 0TW,2014-04-24,fhis_pass_en-GB,Pass,,FHIS,
442514,38 Cardwell Road Gourock,,,,Pettigrews,Retailers - other,4613,,,103,,,55.95588200000000,00/00113/COMM,778,safer.communities@inverclyde.gov.uk,Inverclyde,http://www.inverclyde.gov.uk/business-and-trade/food-safety-and-standards/,-4.80632300000000,PA19 1UH,2010-03-04,fhis_pass_en-GB,Pass,,FHIS,
442515,70 Tower Drive Gourock,,,,Phil's Bakery,Manufacturers/packers,7839,,,295,,,55.95248200000000,00/00667/COMM,778,safer.communities@inverclyde.gov.uk,Inverclyde,http://www.inverclyde.gov.uk/business-and-trade/food-safety-and-standards/,-4.82217800000000,PA19 1TB,2014-05-14,fhis_pass_en-GB,Pass,,FHIS,
442516,St James Terrace No 13 Lochwinnoch Road Kilmacolm,,,,Pieris Cafe,Restaurant/Cafe/Canteen,1,,,280,,,55.89383900000000,00/00605/COMM,778,safer.communities@inverclyde.gov.uk,Inverclyde,http://www.inverclyde.gov.uk/business-and-trade/food-safety-and-standards/,-4.62815200000000,PA13 4HB,2014-04-01,fhis_pass_en-GB,Pass,,FHIS,
442517,C/O Craigmarloch School Kilmacolm Road PORT GLASGOW,,,,Play 4 All,Hospitals/Childcare/Caring Premises,5,,,620053,,,55.92002100000000,13/00069/COMM,778,safer.communities@inverclyde.gov.uk,Inverclyde,http://www.inverclyde.gov.uk/business-and-trade/food-safety-and-standards/,-4.65335800000000,PA14 6PP,2013-12-06,fhis_pass_en-GB,Pass,,FHIS,
442518,130 Cathcart Street Greenock,,,,Pocco,Restaurant/Cafe/Canteen,1,,,46660,,,55.94716300000000,11/00078/COMM,778,safer.communities@inverclyde.gov.uk,Inverclyde,http://www.inverclyde.gov.uk/business-and-trade/food-safety-and-standards/,-4.75537700000000,PA15 1BQ,2014-01-16,fhis_pass_en-GB,Pass,,FHIS,
442519,The Waterfront Customhouse Way Greenock,,,,Polar Bar,Pub/bar/nightclub,7843,,,340,,,55.94973200000000,00/00893/COMM,778,safer.communities@inverclyde.gov.uk,Inverclyde,http://www.inverclyde.gov.uk/business-and-trade/food-safety-and-standards/,-4.75626500000000,PA15 1EG,2010-03-17,fhis_pass_en-GB,Pass,,FHIS,
442520,Birkmyre Avenue Port Glasgow,,,,Port Glasgow Bowling Club,Pub/bar/nightclub,7843,,,54,,,55.93409600000000,00/00059/COMM,778,safer.communities@inverclyde.gov.uk,Inverclyde,http://www.inverclyde.gov.uk/business-and-trade/food-safety-and-standards/,-4.70501700000000,PA14 5AR,2010-02-18,fhis_pass_en-GB,Pass,,FHIS,
442521,Marloch Avenue PORT GLASGOW,,,,Port Glasgow Community Shared Campus,School/college/university,7845,,,635262,,,55.92002100000000,13/00080/COMM,778,safer.communities@inverclyde.gov.uk,Inverclyde,http://www.inverclyde.gov.uk/business-and-trade/food-safety-and-standards/,-4.65335800000000,PA14 6PP,2014-02-25,fhis_pass_en-GB,Pass,,FHIS,
442522,Kilmacolm Road Port Glasgow,,,,Port Glasgow Filling Station,Retailers - other,4613,,,201,,,55.92066700000000,00/00377/COMM,778,safer.communities@inverclyde.gov.uk,Inverclyde,http://www.inverclyde.gov.uk/business-and-trade/food-safety-and-standards/,-4.65257000000000,PA14 6SU,2013-11-27,fhis_pass_en-GB,Pass,,FHIS,
442523,Golf Course Devol Road Port Glasgow,,,,Port Glasgow Golf Club,Pub/bar/nightclub,7843,,,142,,,55.92448600000000,00/00196/COMM,778,safer.communities@inverclyde.gov.uk,Inverclyde,http://www.inverclyde.gov.uk/business-and-trade/food-safety-and-standards/,-4.68209500000000,PA14 5XE,2010-10-21,fhis_pass_en-GB,Pass,,FHIS,
442524,37 Bay Street Port Glasgow,,,,Port Glasgow Health Centre,Other catering premises,7841,,,42,,,55.93408600000000,00/00043/COMM,778,safer.communities@inverclyde.gov.uk,Inverclyde,http://www.inverclyde.gov.uk/business-and-trade/food-safety-and-standards/,-4.68701800000000,PA14 5EB,2014-04-22,fhis_improvement_required_en-GB,Improvement Required,,FHIS,
442525,Chapelton Street Port Glasgow,,,,Port Glasgow Protestant Athletic Club,Pub/bar/nightclub,7843,,,122,,,55.93553500000000,00/00141/COMM,778,safer.communities@inverclyde.gov.uk,Inverclyde,http://www.inverclyde.gov.uk/business-and-trade/food-safety-and-standards/,-4.70332400000000,PA14 5DF,2010-03-23,fhis_pass_en-GB,Pass,,FHIS,
442526,Bouverie Street Port Glasgow,,,,Port Glasgow Rangers Supporters,Pub/bar/nightclub,7843,,,61,,,55.93203200000000,00/00067/COMM,778,safer.communities@inverclyde.gov.uk,Inverclyde,http://www.inverclyde.gov.uk/business-and-trade/food-safety-and-standards/,-4.68144800000000,PA14 5PG,2010-03-23,fhis_pass_en-GB,Pass,,FHIS,
442527,Griersland Main Street Inverkip,,,,Post Office/Pharmacy,Retailers - other,4613,,,209032,,,55.90826000000000,12/00025/COMM,778,safer.communities@inverclyde.gov.uk,Inverclyde,http://www.inverclyde.gov.uk/business-and-trade/food-safety-and-standards/,-4.87177200000000,PA16 0AU,2012-02-27,fhis_pass_en-GB,Pass,,FHIS,
442528,2 Hamilton Way Greenock,,,,Poundland,Retailers - other,4613,,,449,,,55.94864800000000,00/05785/COMM,778,safer.communities@inverclyde.gov.uk,Inverclyde,http://www.inverclyde.gov.uk/business-and-trade/food-safety-and-standards/,-4.75852600000000,PA15 1RH,2012-02-28,fhis_pass_en-GB,Pass,,FHIS,
442529,37 - 39 West Blackhall Street Greenock,,,,Poundstretcher,Retailers - other,4613,,,303,,,55.95035300000000,00/00693/COMM,778,safer.communities@inverclyde.gov.uk,Inverclyde,http://www.inverclyde.gov.uk/business-and-trade/food-safety-and-standards/,-4.76186800000000,PA15 1UT,2010-03-23,fhis_pass_en-GB,Pass,,FHIS,
442530,14A Hamilton Way Greenock,,,,Poundworld,Retailers - other,4613,,,209043,,,55.94864800000000,11/00077/COMM,778,safer.communities@inverclyde.gov.uk,Inverclyde,http://www.inverclyde.gov.uk/business-and-trade/food-safety-and-standards/,-4.75852600000000,PA15 1RH,2012-03-08,fhis_pass_en-GB,Pass,,FHIS,
442531,Greenock Sports Centre 26 Nelson Street Greenock,,,,Pre 3 Centre,Hospitals/Childcare/Caring Premises,5,,,425,,,55.94767500000000,00/05314/COMM,778,safer.communities@inverclyde.gov.uk,Inverclyde,http://www.inverclyde.gov.uk/business-and-trade/food-safety-and-standards/,-4.77024700000000,PA15 1QH,2014-08-28,fhis_pass_en-GB,Pass,,FHIS,
442532,105 - 111 Grieve Road Greenock,,,,Premier Grieve Road Stores,Retailers - other,4613,,,432,,,55.94996100000000,00/05391/COMM,778,safer.communities@inverclyde.gov.uk,Inverclyde,http://www.inverclyde.gov.uk/business-and-trade/food-safety-and-standards/,-4.79474400000000,PA16 7AW,2013-12-18,fhis_improvement_required_en-GB,Improvement Required,,FHIS,
442533,12 Bay Street Port Glasgow,,,,Prince Of Wales Bar,Pub/bar/nightclub,7843,,,44,,,55.93405000000000,00/00045/COMM,778,safer.communities@inverclyde.gov.uk,Inverclyde,http://www.inverclyde.gov.uk/business-and-trade/food-safety-and-standards/,-4.68784800000000,PA14 5ED,2010-03-17,fhis_pass_en-GB,Pass,,FHIS,
442534,Robertson Street Greenock,,,,Priyas Palace,Restaurant/Cafe/Canteen,1,,,453,,,55.95304200000000,00/05810/COMM,778,safer.communities@inverclyde.gov.uk,Inverclyde,http://www.inverclyde.gov.uk/business-and-trade/food-safety-and-standards/,-4.76739400000000,PA16 8DB,2012-10-01,fhis_pass_en-GB,Pass,,FHIS,
442535,Lochwinnoch Road Kilmacolm,,,,Pullman Tavern,Pub/bar/nightclub,7843,,,367,,,55.89280700000000,00/03108/COMM,778,safer.communities@inverclyde.gov.uk,Inverclyde,http://www.inverclyde.gov.uk/business-and-trade/food-safety-and-standards/,-4.62979300000000,PA13 4DT,2012-10-22,fhis_pass_en-GB,Pass,,FHIS,
442536,10 Knowe Road Greenock,,,,Quadrant Delivery Service,Restaurant/Cafe/Canteen,1,,,208,,,55.93664900000000,00/00390/COMM,778,safer.communities@inverclyde.gov.uk,Inverclyde,http://www.inverclyde.gov.uk/business-and-trade/food-safety-and-standards/,-4.73988300000000,PA15 4RL,2015-01-19,fhis_pass_en-GB,Pass,,FHIS,
442537,156 Finnart Street Greenock,,,,Quarriers,Hospitals/Childcare/Caring Premises,5,,,337,,,55.95509800000000,00/00883/COMM,778,safer.communities@inverclyde.gov.uk,Inverclyde,http://www.inverclyde.gov.uk/business-and-trade/food-safety-and-standards/,-4.77866000000000,PA16 8HY,2011-11-02,fhis_pass_en-GB,Pass,,FHIS,
442538,17 West Stewart Street Greenock,,,,Quincys,Restaurant/Cafe/Canteen,1,,,306,,,55.94944800000000,00/00704/COMM,778,safer.communities@inverclyde.gov.uk,Inverclyde,http://www.inverclyde.gov.uk/business-and-trade/food-safety-and-standards/,-4.76250800000000,PA15 1SN,2014-06-26,fhis_pass_en-GB,Pass,,FHIS,
442539,36 Princes Street Port Glasgow,,,,R S McColl,Retailers - other,4613,,,253,,,55.93427700000000,00/00517/COMM,778,safer.communities@inverclyde.gov.uk,Inverclyde,http://www.inverclyde.gov.uk/business-and-trade/food-safety-and-standards/,-4.68976900000000,PA14 5JQ,2010-03-12,fhis_pass_en-GB,Pass,,FHIS,
442540,5 Hamilton Way Greenock,,,,R S McColl,Retailers - other,4613,,,170,,,55.94782100000000,00/00285/COMM,778,safer.communities@inverclyde.gov.uk,Inverclyde,http://www.inverclyde.gov.uk/business-and-trade/food-safety-and-standards/,-4.75850000000000,PA15 1JJ,2010-09-02,fhis_pass_en-GB,Pass,,FHIS,
442541,195 Roxburgh Street Greenock,,,,R.H.H. Binnie,Manufacturers/packers,7839,,,263,,,55.94677100000000,00/00547/COMM,778,safer.communities@inverclyde.gov.uk,Inverclyde,http://www.inverclyde.gov.uk/business-and-trade/food-safety-and-standards/,-4.76886900000000,PA15 4DA,2013-03-26,fhis_pass_en-GB,Pass,,FHIS,
442542,12 St James Terrace Lochwinnoch Road KILMACOLM,,,,R34 Cafe,Restaurant/Cafe/Canteen,1,,,705320,,,55.89383900000000,14/00056/COMM,778,safer.communities@inverclyde.gov.uk,Inverclyde,http://www.inverclyde.gov.uk/business-and-trade/food-safety-and-standards/,-4.62815200000000,PA13 4HB,2015-01-29,fhis_pass_en-GB,Pass,,FHIS,
442543,11 Ardgowan Square Greenock,,,,RAF Club,Pub/bar/nightclub,7843,,,25,,,55.95237000000000,00/00013/COMM,778,safer.communities@inverclyde.gov.uk,Inverclyde,http://www.inverclyde.gov.uk/business-and-trade/food-safety-and-standards/,-4.76968500000000,PA16 8ET,2010-03-23,fhis_pass_en-GB,Pass,,FHIS,
442544,Oronsay Avenue Port Glasgow,,,,Rainbow Family Centre,Hospitals/Childcare/Caring Premises,5,,,549,,,55.91950600000000,00/06219/COMM,778,safer.communities@inverclyde.gov.uk,Inverclyde,http://www.inverclyde.gov.uk/business-and-trade/food-safety-and-standards/,-4.64973700000000,PA14 6EF,2014-08-27,fhis_pass_en-GB,Pass,,FHIS,
442545,15 Brown Street Port Glasgow,,,,Ramsays,Retailers - other,4613,,,527,,,55.93497700000000,00/06143/COMM,778,safer.communities@inverclyde.gov.uk,Inverclyde,http://www.inverclyde.gov.uk/business-and-trade/food-safety-and-standards/,-4.69559900000000,PA14 5BP,2014-11-19,fhis_pass_en-GB,Pass,,FHIS,
442546,11 Kempock Street Gourock,,,,Ramsays Shop,Retailers - other,4613,,,45560,,,55.96176200000000,11/00014/COMM,778,safer.communities@inverclyde.gov.uk,Inverclyde,http://www.inverclyde.gov.uk/business-and-trade/food-safety-and-standards/,-4.81886300000000,PA19 1NB,2014-11-03,fhis_improvement_required_en-GB,Improvement Required,,FHIS,
442547,Inverkip Road Greenock,,,,Rankin Park Bowling Club,Pub/bar/nightclub,7843,,,343,,,55.94008700000000,00/00900/COMM,778,safer.communities@inverclyde.gov.uk,Inverclyde,http://www.inverclyde.gov.uk/business-and-trade/food-safety-and-standards/,-4.79018900000000,PA16 9EU,2010-11-04,fhis_improvement_required_en-GB,Improvement Required,,FHIS,
442548,Inverkip Road Greenock,,,,Ravenscraig Hospital,Hospitals/Childcare/Caring Premises,5,,,180,,,55.93822200000000,00/00315/COMM,778,safer.communities@inverclyde.gov.uk,Inverclyde,http://www.inverclyde.gov.uk/business-and-trade/food-safety-and-standards/,-4.79948800000000,PA16 9HA,2014-04-29,fhis_pass_en-GB,Pass,,FHIS,
442549,177 - 179 Dalrymple Street Greenock,,,,Raymond's,Takeaway/sandwich shop,7844,,,139,,,55.95046300000000,00/00191/COMM,778,safer.communities@inverclyde.gov.uk,Inverclyde,http://www.inverclyde.gov.uk/business-and-trade/food-safety-and-standards/,-4.76054600000000,PA15 1JZ,2014-11-20,fhis_pass_en-GB,Pass,,FHIS,
442550,Royal Bank House Cartsdyke Avenue Greenock,,,,RBS Greenock - Staff Restaurant,Restaurant/Cafe/Canteen,1,,,418360,,,55.94497900000000,12/00072/COMM,778,safer.communities@inverclyde.gov.uk,Inverclyde,http://www.inverclyde.gov.uk/business-and-trade/food-safety-and-standards/,-4.73885200000000,PA15 1DT,2013-10-29,fhis_pass_en-GB,Pass,,FHIS,
442551,14  Cross Shore Street Greenock,,,,Red,Pub/bar/nightclub,7843,,,516,,,55.94706800000000,00/06097/COMM,778,safer.communities@inverclyde.gov.uk,Inverclyde,http://www.inverclyde.gov.uk/business-and-trade/food-safety-and-standards/,-4.75400900000000,PA15 1DY,2010-03-12,fhis_pass_en-GB,Pass,,FHIS,
442552,203 Auchmead Road Greenock,,,,Red Turban,Takeaway/sandwich shop,7844,,,45518,,,55.94305600000000,11/00012/COMM,778,safer.communities@inverclyde.gov.uk,Inverclyde,http://www.inverclyde.gov.uk/business-and-trade/food-safety-and-standards/,-4.81929700000000,PA16 0LN,2015-01-20,fhis_improvement_required_en-GB,Improvement Required,,FHIS,
442553,12 Westburn Street Greenock,,,,Regent Club,Pub/bar/nightclub,7843,,,309,,,55.94985700000000,00/00715/COMM,778,safer.communities@inverclyde.gov.uk,Inverclyde,http://www.inverclyde.gov.uk/business-and-trade/food-safety-and-standards/,-4.75991000000000,PA15 1JR,2010-01-28,fhis_pass_en-GB,Pass,,FHIS,
442554,1 Nelson Street Greenock,,,,Reliance Custodial Services (Scotland),Other catering premises,7841,,,471,,,55.94997100000000,00/05937/COMM,778,safer.communities@inverclyde.gov.uk,Inverclyde,http://www.inverclyde.gov.uk/business-and-trade/food-safety-and-standards/,-4.76566900000000,PA15 1TP,2009-12-22,fhis_pass_en-GB,Pass,,FHIS,
442555,11 Brougham Street Greenock,,,,Rileys Sports Bar,Pub/bar/nightclub,7843,,,86,,,55.95462900000000,00/00091/COMM,778,safer.communities@inverclyde.gov.uk,Inverclyde,http://www.inverclyde.gov.uk/business-and-trade/food-safety-and-standards/,-4.76798800000000,PA16 8AB,2014-11-10,fhis_pass_en-GB,Pass,,FHIS,
442556,Cottage 33 Peace Avenue Quarriers Village,,,,Rivendell,Hospitals/Childcare/Caring Premises,5,,,402,,,55.86727200000000,00/04898/COMM,778,safer.communities@inverclyde.gov.uk,Inverclyde,http://www.inverclyde.gov.uk/business-and-trade/food-safety-and-standards/,-4.61666900000000,PA11 3SX,2011-10-25,fhis_pass_en-GB,Pass,,FHIS,
442557,19 Rue End Street Greenock,,,,Riverside Cafe,Restaurant/Cafe/Canteen,1,,,45785,,,55.93664900000000,11/00027/COMM,778,safer.communities@inverclyde.gov.uk,Inverclyde,http://www.inverclyde.gov.uk/business-and-trade/food-safety-and-standards/,-4.73988300000000,PA15 1HH,2015-01-15,fhis_pass_en-GB,Pass,,FHIS,
442558,Cottage 1 Faith Avenue Quarriers Village,,,,Riverview,Hospitals/Childcare/Caring Premises,5,,,332,,,55.86727200000000,00/00774/COMM,778,safer.communities@inverclyde.gov.uk,Inverclyde,http://www.inverclyde.gov.uk/business-and-trade/food-safety-and-standards/,-4.61666900000000,PA11 3SX,2014-01-07,fhis_pass_en-GB,Pass,,FHIS,
442559,28 Princes Street Port Glasgow,,,,Robert Alexander,Manufacturers/packers,7839,,,363,,,55.93427700000000,00/01699/COMM,778,safer.communities@inverclyde.gov.uk,Inverclyde,http://www.inverclyde.gov.uk/business-and-trade/food-safety-and-standards/,-4.68976900000000,PA14 5JQ,2014-08-25,fhis_improvement_required_en-GB,Improvement Required,,FHIS,
442560,53 Kempock Street Gourock,,,,Robert Alexander,Retailers - other,4613,,,46253,,,55.96144900000000,11/00055/COMM,778,safer.communities@inverclyde.gov.uk,Inverclyde,http://www.inverclyde.gov.uk/business-and-trade/food-safety-and-standards/,-4.82039500000000,PA19 1NF,2014-11-25,fhis_pass_en-GB,Pass,,FHIS,
442561,4 Kilblain Street GREENOCK,,,,Robert Young Family Butcher,Manufacturers/packers,7839,,,635263,,,55.94927600000000,14/00001/COMM,778,safer.communities@inverclyde.gov.uk,Inverclyde,http://www.inverclyde.gov.uk/business-and-trade/food-safety-and-standards/,-4.76257600000000,PA15 1SR,2015-01-20,fhis_improvement_required_en-GB,Improvement Required,,FHIS,
442562,Langhouse Road Inverkip,,,,Rostom,Hotel/bed & breakfast/guest house,7842,,,28746,,,55.90513200000000,09/00023/COMM,778,safer.communities@inverclyde.gov.uk,Inverclyde,http://www.inverclyde.gov.uk/business-and-trade/food-safety-and-standards/,-4.85670700000000,PA16 0DE,2010-03-23,fhis_pass_en-GB,Pass,,FHIS,
442563,2 Quarrier Street Greenock,,,,Rowan Gardens,Hospitals/Childcare/Caring Premises,5,,,336,,,55.93870900000000,00/00873/COMM,778,safer.communities@inverclyde.gov.uk,Inverclyde,http://www.inverclyde.gov.uk/business-and-trade/food-safety-and-standards/,-4.72530900000000,PA15 2HE,2014-06-11,fhis_pass_en-GB,Pass,,FHIS,
442564,32 Roxburgh Street Greenock,,,,Roxburgh Convenience Store,Retailers - other,4613,,,479335,,,55.94530100000000,12/00093/COMM,778,safer.communities@inverclyde.gov.uk,Inverclyde,http://www.inverclyde.gov.uk/business-and-trade/food-safety-and-standards/,-4.75945800000000,PA15 4NR,2012-11-22,fhis_improvement_required_en-GB,Improvement Required,,FHIS,
442565,Ashton Road Gourock,,,,Royal Gourock Yacht Club,Pub/bar/nightclub,7843,,,360,,,55.95454100000000,00/01691/COMM,778,safer.communities@inverclyde.gov.uk,Inverclyde,http://www.inverclyde.gov.uk/business-and-trade/food-safety-and-standards/,-4.83621900000000,PA19 1DA,2014-09-10,fhis_pass_en-GB,Pass,,FHIS,
442566,20 Royal Street Gourock,,,,Royalle Club,Pub/bar/nightclub,7843,,,326,,,55.95936000000000,00/00762/COMM,778,safer.communities@inverclyde.gov.uk,Inverclyde,http://www.inverclyde.gov.uk/business-and-trade/food-safety-and-standards/,-4.81699000000000,PA19 1PN,2010-06-02,fhis_pass_en-GB,Pass,,FHIS,
442567,Esplanade Greenock,,,,RWSA Boat Club,Pub/bar/nightclub,7843,,,156,,,55.96245400000000,00/00233/COMM,778,safer.communities@inverclyde.gov.uk,Inverclyde,http://www.inverclyde.gov.uk/business-and-trade/food-safety-and-standards/,-4.78926700000000,PA16 7SE,2010-03-17,fhis_pass_en-GB,Pass,,FHIS,
442568,150A Wren Road Greenock,,,,S & D Superstore,Retailers - other,4613,,,313,,,55.94503500000000,00/00722/COMM,778,safer.communities@inverclyde.gov.uk,Inverclyde,http://www.inverclyde.gov.uk/business-and-trade/food-safety-and-standards/,-4.79794500000000,PA16 7NJ,2011-04-21,fhis_pass_en-GB,Pass,,FHIS,
442569,4 - 6 Newton Street Greenock,,,,Saba Fast Food,Takeaway/sandwich shop,7844,,,29256,,,55.94782000000000,09/00066/COMM,778,safer.communities@inverclyde.gov.uk,Inverclyde,http://www.inverclyde.gov.uk/business-and-trade/food-safety-and-standards/,-4.76855900000000,PA16 8UJ,2014-03-11,fhis_pass_en-GB,Pass,,FHIS,
442570,2 Market Place KILMACOLM,,,,Saffron,Takeaway/sandwich shop,7844,,,209029,,,55.89425400000000,12/00029/COMM,778,safer.communities@inverclyde.gov.uk,Inverclyde,http://www.inverclyde.gov.uk/business-and-trade/food-safety-and-standards/,-4.62642000000000,PA13 4AD,2013-06-04,fhis_pass_en-GB,Pass,,FHIS,
442571,1 Kip Park Main Street Inverkip,,,,Sainsburys,Retailers - supermarkets/hypermarkets,7840,,,492,,,55.90780900000000,00/06040/COMM,778,safer.communities@inverclyde.gov.uk,Inverclyde,http://www.inverclyde.gov.uk/business-and-trade/food-safety-and-standards/,-4.87181900000000,PA16 0AT,2014-07-24,fhis_pass_en-GB,Pass,,FHIS,
442572,34 Kempock Street Gourock,,,,Sainsburys,Retailers - supermarkets/hypermarkets,7840,,,574444,,,55.96205600000000,13/00043/COMM,778,safer.communities@inverclyde.gov.uk,Inverclyde,http://www.inverclyde.gov.uk/business-and-trade/food-safety-and-standards/,-4.81898100000000,PA19 1NA,2013-09-26,fhis_pass_en-GB,Pass,,FHIS,
442573,17 King Street Port Glasgow,,,,Salvation Army,Restaurant/Cafe/Canteen,1,,,203,,,55.93419100000000,00/00380/COMM,778,safer.communities@inverclyde.gov.uk,Inverclyde,http://www.inverclyde.gov.uk/business-and-trade/food-safety-and-standards/,-4.68918700000000,PA14 5JA,2013-10-31,fhis_pass_en-GB,Pass,,FHIS,
442574,16 Moss Road Port Glasgow,,,,Sam Superstore,Retailers - other,4613,,,397,,,55.92323100000000,00/04864/COMM,778,safer.communities@inverclyde.gov.uk,Inverclyde,http://www.inverclyde.gov.uk/business-and-trade/food-safety-and-standards/,-4.65871600000000,PA14 6HF,2014-08-27,fhis_improvement_required_en-GB,Improvement Required,,FHIS,
442575,58 - 60 Moorfield Avenue Port Glasgow,,,,Sam Superstore,Retailers - other,4613,,,228,,,55.92569400000000,00/00445/COMM,778,safer.communities@inverclyde.gov.uk,Inverclyde,http://www.inverclyde.gov.uk/business-and-trade/food-safety-and-standards/,-4.67942500000000,PA14 5XT,2014-09-16,fhis_pass_en-GB,Pass,,FHIS,
442576,6 Grosvenor Road Greenock,,,,Sarah's Store,Retailers - other,4613,,,34231,,,55.93913100000000,10/00100/COMM,778,safer.communities@inverclyde.gov.uk,Inverclyde,http://www.inverclyde.gov.uk/business-and-trade/food-safety-and-standards/,-4.72737300000000,PA15 2DW,2014-08-27,fhis_pass_en-GB,Pass,,FHIS,
442577,65 Princes Street Port Glasgow,,,,Saucy Sue,Takeaway/sandwich shop,7844,,,252,,,55.93418300000000,00/00514/COMM,778,safer.communities@inverclyde.gov.uk,Inverclyde,http://www.inverclyde.gov.uk/business-and-trade/food-safety-and-standards/,-4.69037100000000,PA14 5JH,2014-02-14,fhis_pass_en-GB,Pass,,FHIS,
442578,38 - 42 Murdieston Street Greenock,,,,Scotmid,Retailers - supermarkets/hypermarkets,7840,,,33398,,,55.94276200000000,10/00042/COMM,778,safer.communities@inverclyde.gov.uk,Inverclyde,http://www.inverclyde.gov.uk/business-and-trade/food-safety-and-standards/,-4.77285900000000,PA15 4SJ,2015-01-16,fhis_pass_en-GB,Pass,,FHIS,
442579,38 - 44 Dubbs Road Port Glasgow,,,,Scottish Co-op,Retailers - supermarkets/hypermarkets,7840,,,146,,,55.92512000000000,00/00207/COMM,778,safer.communities@inverclyde.gov.uk,Inverclyde,http://www.inverclyde.gov.uk/business-and-trade/food-safety-and-standards/,-4.66531300000000,PA14 5UA,2014-07-02,fhis_pass_en-GB,Pass,,FHIS,
442580,44 Cardwell Road Gourock,,,,Scottish Co-op,Retailers - supermarkets/hypermarkets,7840,,,104,,,55.95588200000000,00/00114/COMM,778,safer.communities@inverclyde.gov.uk,Inverclyde,http://www.inverclyde.gov.uk/business-and-trade/food-safety-and-standards/,-4.80632300000000,PA19 1UH,2014-08-07,fhis_improvement_required_en-GB,Improvement Required,,FHIS,
442581,97 Shore Street GOUROCK,,,,Scottish Co-op,Retailers - supermarkets/hypermarkets,7840,,,272,,,55.95990700000000,00/00578/COMM,778,safer.communities@inverclyde.gov.uk,Inverclyde,http://www.inverclyde.gov.uk/business-and-trade/food-safety-and-standards/,-4.81666100000000,PA19 1RB,2014-09-22,fhis_pass_en-GB,Pass,,FHIS,
442582,Shore Road WEMYSS BAY,,,,Seaview Cafe,Restaurant/Cafe/Canteen,1,,,418356,,,55.87606800000000,12/00043/COMM,778,safer.communities@inverclyde.gov.uk,Inverclyde,http://www.inverclyde.gov.uk/business-and-trade/food-safety-and-standards/,-4.88838900000000,PA18 6AR,2014-01-27,fhis_pass_en-GB,Pass,,FHIS,
442583,25A West Stewart Street Greenock,,,,Semichem,Retailers - other,4613,,,46127,,,55.94944800000000,11/00048/COMM,778,safer.communities@inverclyde.gov.uk,Inverclyde,http://www.inverclyde.gov.uk/business-and-trade/food-safety-and-standards/,-4.76250800000000,PA15 1SN,2011-10-27,fhis_pass_en-GB,Pass,,FHIS,
442584,3 Hamilton Way Greenock,,,,Semichem,Retailers - other,4613,,,316,,,55.94782100000000,00/00737/COMM,778,safer.communities@inverclyde.gov.uk,Inverclyde,http://www.inverclyde.gov.uk/business-and-trade/food-safety-and-standards/,-4.75850000000000,PA15 1JJ,2011-03-15,fhis_pass_en-GB,Pass,,FHIS,
442585,44 Princes Street Port Glasgow,,,,Semichem,Retailers - other,4613,,,421,,,55.93427700000000,00/05260/COMM,778,safer.communities@inverclyde.gov.uk,Inverclyde,http://www.inverclyde.gov.uk/business-and-trade/food-safety-and-standards/,-4.68976900000000,PA14 5JQ,2010-03-04,fhis_pass_en-GB,Pass,,FHIS,
442586,134 Cathcart Street GREENOCK,,,,Shammy Shuffles,Restaurant/Cafe/Canteen,1,,,722683,,,55.94716300000000,14/00077/COMM,778,safer.communities@inverclyde.gov.uk,Inverclyde,http://www.inverclyde.gov.uk/business-and-trade/food-safety-and-standards/,-4.75537700000000,PA15 1BQ,2014-12-11,fhis_awaiting_inspection_en-GB,Awaiting Inspection,,FHIS,
442587,Hamilton Gate Greenock,,,,Sharons Ices,Mobile caterer,7846,,,514,,,55.94927700000000,00/06088/COMM,778,safer.communities@inverclyde.gov.uk,Inverclyde,http://www.inverclyde.gov.uk/business-and-trade/food-safety-and-standards/,-4.75930800000000,PA15 1JW,2010-03-12,fhis_pass_en-GB,Pass,,FHIS,
442588,1 Nelson Street Greenock,,,,Sheriff Court Cafe,Restaurant/Cafe/Canteen,1,,,399,,,55.94997100000000,00/04868/COMM,778,safer.communities@inverclyde.gov.uk,Inverclyde,http://www.inverclyde.gov.uk/business-and-trade/food-safety-and-standards/,-4.76566900000000,PA15 1TP,2015-01-06,fhis_pass_en-GB,Pass,,FHIS,
442589,54 - 56 Fancy Farm Road GREENOCK,,,,Shopsmart,Retailers - other,4613,,,701062,,,55.94419100000000,14/00055/COMM,778,safer.communities@inverclyde.gov.uk,Inverclyde,http://www.inverclyde.gov.uk/business-and-trade/food-safety-and-standards/,-4.80147200000000,PA16 7LY,2014-10-01,fhis_pass_en-GB,Pass,,FHIS,
442590,c/o 40 West Stewart Street Greenock,,,,Simply The Best,Mobile caterer,7846,,,479337,,,55.95214800000000,12/00104/STTRAD,778,safer.communities@inverclyde.gov.uk,Inverclyde,http://www.inverclyde.gov.uk/business-and-trade/food-safety-and-standards/,-4.76399800000000,PA15 1YA,2012-11-14,fhis_improvement_required_en-GB,Improvement Required,,FHIS,
442591,67 Newark Street Greenock,,,,Sir Gabriel Wood's Mariners' Home,Hospitals/Childcare/Caring Premises,5,,,236,,,55.95965500000000,00/00468/COMM,778,safer.communities@inverclyde.gov.uk,Inverclyde,http://www.inverclyde.gov.uk/business-and-trade/food-safety-and-standards/,-4.78861700000000,PA16 7TQ,2014-05-07,fhis_pass_en-GB,Pass,,FHIS,
442592,78 Inverkip Road Greenock,,,,Sizzlers Fast Foods,Takeaway/sandwich shop,7844,,,530,,,55.94304500000000,00/06179/COMM,778,safer.communities@inverclyde.gov.uk,Inverclyde,http://www.inverclyde.gov.uk/business-and-trade/food-safety-and-standards/,-4.78538900000000,PA16 9AP,2014-05-06,fhis_pass_en-GB,Pass,,FHIS,
442593,94 Bridgend Avenue PORT GLASGOW,,,,SJ's,Retailers - other,4613,,,692586,,,55.92763500000000,14/00047/COMM,778,safer.communities@inverclyde.gov.uk,Inverclyde,http://www.inverclyde.gov.uk/business-and-trade/food-safety-and-standards/,-4.67326700000000,PA14 5RX,2014-08-20,fhis_improvement_required_en-GB,Improvement Required,,FHIS,
442594,Kirn Drive Community Centre Kirn Drive Gourock,,,,Small Group Daycare,Other catering premises,7841,,,394,,,55.95090900000000,00/04838/COMM,778,safer.communities@inverclyde.gov.uk,Inverclyde,http://www.inverclyde.gov.uk/business-and-trade/food-safety-and-standards/,-4.83117900000000,PA19 1EQ,2014-08-11,fhis_pass_en-GB,Pass,,FHIS,
442595,Inverkip Church Hall Langhouse Road INVERKIP,,,,Social Work Small Group Day Care - Lunch Club,Restaurant/Cafe/Canteen,1,,,523,,,55.90959200000000,00/06129/COMM,778,safer.communities@inverclyde.gov.uk,Inverclyde,http://www.inverclyde.gov.uk/business-and-trade/food-safety-and-standards/,-4.86438100000000,PA16 0BJ,2014-11-25,fhis_improvement_required_en-GB,Improvement Required,,FHIS,
442596,12 - 14 South Street Greenock,,,,Spar,Retailers - supermarkets/hypermarkets,7840,,,276,,,55.94854000000000,00/00598/COMM,778,safer.communities@inverclyde.gov.uk,Inverclyde,http://www.inverclyde.gov.uk/business-and-trade/food-safety-and-standards/,-4.77293600000000,PA16 8UE,2014-10-07,fhis_pass_en-GB,Pass,,FHIS,
442597,18 - 20 Ardgowan Road Wemyss Bay,,,,Spar,Retailers - other,4613,,,22,,,55.89149500000000,00/00009/COMM,778,safer.communities@inverclyde.gov.uk,Inverclyde,http://www.inverclyde.gov.uk/business-and-trade/food-safety-and-standards/,-4.88830500000000,PA18 6AT,2009-09-21,fhis_pass_en-GB,Pass,,FHIS,
442598,57 - 59 Princes Street Port Glasgow,,,,Spar,Retailers - supermarkets/hypermarkets,7840,,,251,,,55.93418300000000,00/00512/COMM,778,safer.communities@inverclyde.gov.uk,Inverclyde,http://www.inverclyde.gov.uk/business-and-trade/food-safety-and-standards/,-4.69037100000000,PA14 5JH,2014-10-07,fhis_pass_en-GB,Pass,,FHIS,
442599,63 Princes Street Port Glasgow,,,,Spiced Village,Takeaway/sandwich shop,7844,,,512,,,55.93418300000000,00/06084/COMM,778,safer.communities@inverclyde.gov.uk,Inverclyde,http://www.inverclyde.gov.uk/business-and-trade/food-safety-and-standards/,-4.69037100000000,PA14 5JH,2014-07-03,fhis_pass_en-GB,Pass,,FHIS,
442600,8 Princes Street Port Glasgow,,,,Spices Tandoori Takeaway,Takeaway/sandwich shop,7844,,,46573,,,55.93427700000000,11/00073/COMM,778,safer.communities@inverclyde.gov.uk,Inverclyde,http://www.inverclyde.gov.uk/business-and-trade/food-safety-and-standards/,-4.68976900000000,PA14 5JQ,2014-06-25,fhis_pass_en-GB,Pass,,FHIS,
442601,121 Albert Road Gourock,,,,Spinnaker Hotel,Hotel/bed & breakfast/guest house,7842,,,13,,,55.95531400000000,00/00001/COMM,778,safer.communities@inverclyde.gov.uk,Inverclyde,http://www.inverclyde.gov.uk/business-and-trade/food-safety-and-standards/,-4.83037900000000,PA19 1BU,2014-01-13,fhis_pass_en-GB,Pass,,FHIS,
442602,19 Chester Road GREENOCK,,,,St Andrews Primary School,School/college/university,7845,,,46626,,,55.94503200000000,11/00076/COMM,778,safer.communities@inverclyde.gov.uk,Inverclyde,http://www.inverclyde.gov.uk/business-and-trade/food-safety-and-standards/,-4.81500400000000,PA16 0TT,2014-01-31,fhis_pass_en-GB,Pass,,FHIS,
442603,Duchal Road Kilmacolm,,,,St Columba Church,Restaurant/Cafe/Canteen,1,,,347,,,55.89212400000000,00/01213/COMM,778,safer.communities@inverclyde.gov.uk,Inverclyde,http://www.inverclyde.gov.uk/business-and-trade/food-safety-and-standards/,-4.62768400000000,PA13 4AS,2010-09-08,fhis_pass_en-GB,Pass,,FHIS,
442604,St Columba Church Hall Duchal Road KILMACOLM,,,,St Columba Church Playgroup,Hospitals/Childcare/Caring Premises,5,,,190354,,,55.89212400000000,12/00012/COMM,778,safer.communities@inverclyde.gov.uk,Inverclyde,http://www.inverclyde.gov.uk/business-and-trade/food-safety-and-standards/,-4.62768400000000,PA13 4AS,2014-11-21,fhis_pass_en-GB,Pass,,FHIS,
442605,Fletcher Avenue GOUROCK,,,,St Columbas High School,School/college/university,7845,,,595172,,,55.95348100000000,13/00061/COMM,778,safer.communities@inverclyde.gov.uk,Inverclyde,http://www.inverclyde.gov.uk/business-and-trade/food-safety-and-standards/,-4.82016800000000,PA19 1TN,2014-02-24,fhis_pass_en-GB,Pass,,FHIS,
442606,Knockbuckle Road KILMACOLM,,,,St Columba's Junior School,School/college/university,7845,,,635264,,,55.89244100000000,14/00006/COMM,778,safer.communities@inverclyde.gov.uk,Inverclyde,http://www.inverclyde.gov.uk/business-and-trade/food-safety-and-standards/,-4.63512700000000,PA13 4EQ,2014-03-24,fhis_pass_en-GB,Pass,,FHIS,
442607,Duchal Road KILMACOLM,,,,St Columba's Secondary School,School/college/university,7845,,,635265,,,55.89244100000000,14/00008/COMM,778,safer.communities@inverclyde.gov.uk,Inverclyde,http://www.inverclyde.gov.uk/business-and-trade/food-safety-and-standards/,-4.63512700000000,PA13 4EQ,2014-03-21,fhis_pass_en-GB,Pass,,FHIS,
442608,East Barmoss Avenue Port Glasgow,,,,St Francis Primary School,School/college/university,7845,,,150,,,55.92217600000000,00/00214/COMM,778,safer.communities@inverclyde.gov.uk,Inverclyde,http://www.inverclyde.gov.uk/business-and-trade/food-safety-and-standards/,-4.65970000000000,PA14 6HX,2014-01-14,fhis_pass_en-GB,Pass,,FHIS,
442609,Brown Street Port Glasgow,,,,St John's Church Hall,Other catering premises,7841,,,385,,,55.93466300000000,00/03280/COMM,778,safer.communities@inverclyde.gov.uk,Inverclyde,http://www.inverclyde.gov.uk/business-and-trade/food-safety-and-standards/,-4.69309500000000,PA14 5HD,2014-11-19,fhis_pass_en-GB,Pass,,FHIS,
442610,Mary Street Port Glasgow,,,,St Johns Primary School,School/college/university,7845,,,225,,,55.93511600000000,00/00438/COMM,778,safer.communities@inverclyde.gov.uk,Inverclyde,http://www.inverclyde.gov.uk/business-and-trade/food-safety-and-standards/,-4.70114900000000,PA14 5AL,2012-02-08,fhis_pass_en-GB,Pass,,FHIS,
442611,Wren Road Greenock,,,,St Joseph's Primary School,School/college/university,7845,,,312,,,55.94419500000000,00/00721/COMM,778,safer.communities@inverclyde.gov.uk,Inverclyde,http://www.inverclyde.gov.uk/business-and-trade/food-safety-and-standards/,-4.79774000000000,PA16 7NH,2014-01-23,fhis_pass_en-GB,Pass,,FHIS,
442612,22 Cartsburn Street Greenock,,,,St Lawrences Social Club,Pub/bar/nightclub,7843,,,281,,,55.94107300000000,00/00606/COMM,778,safer.communities@inverclyde.gov.uk,Inverclyde,http://www.inverclyde.gov.uk/business-and-trade/food-safety-and-standards/,-4.74757700000000,PA15 4UG,2010-03-23,fhis_pass_en-GB,Pass,,FHIS,
442613,99 Grieve Road Greenock,,,,St Margaret's Court,Hospitals/Childcare/Caring Premises,5,,,28956,,,55.94759900000000,09/00040/COMM,778,safer.communities@inverclyde.gov.uk,Inverclyde,http://www.inverclyde.gov.uk/business-and-trade/food-safety-and-standards/,-4.79390100000000,PA16 7AL,2015-01-19,fhis_pass_en-GB,Pass,,FHIS,
442614,Houston Street Greenock,,,,St Mary's Primary School,School/college/university,7845,,,245,,,55.95265900000000,00/00497/COMM,778,safer.communities@inverclyde.gov.uk,Inverclyde,http://www.inverclyde.gov.uk/business-and-trade/food-safety-and-standards/,-4.76482000000000,PA16 8ND,2014-01-16,fhis_pass_en-GB,Pass,,FHIS,
442615,Bridgend Avenue Port Glasgow,,,,St Michaels Primary School,School/college/university,7845,,,100,,,55.92724700000000,00/00111/COMM,778,safer.communities@inverclyde.gov.uk,Inverclyde,http://www.inverclyde.gov.uk/business-and-trade/food-safety-and-standards/,-4.66585900000000,PA14 5SU,2014-01-28,fhis_pass_en-GB,Pass,,FHIS,
442616,Staffa Street Gourock,,,,St Ninians Primary School,School/college/university,7845,,,282,,,55.95108200000000,00/00607/COMM,778,safer.communities@inverclyde.gov.uk,Inverclyde,http://www.inverclyde.gov.uk/business-and-trade/food-safety-and-standards/,-4.82284500000000,PA19 1SL,2014-02-17,fhis_pass_en-GB,Pass,,FHIS,
442617,Broomhill Street Greenock,,,,St Patricks Primary School,School/college/university,7845,,,81,,,55.94240400000000,00/00087/COMM,778,safer.communities@inverclyde.gov.uk,Inverclyde,http://www.inverclyde.gov.uk/business-and-trade/food-safety-and-standards/,-4.76839700000000,PA15 4HL,2014-01-28,fhis_pass_en-GB,Pass,,FHIS,
442618,Moss Road Kilmacolm,,,,St. Fillans Church,Restaurant/Cafe/Canteen,1,,,516795,,,55.89381000000000,00/01214/COMM,778,safer.communities@inverclyde.gov.uk,Inverclyde,http://www.inverclyde.gov.uk/business-and-trade/food-safety-and-standards/,-4.62447000000000,PA13 4DL,2015-02-03,fhis_pass_en-GB,Pass,,FHIS,
442619,John Wood Street Port Glasgow,,,,Star Hotel,Pub/bar/nightclub,7843,,,189,,,55.93379000000000,00/00348/COMM,778,safer.communities@inverclyde.gov.uk,Inverclyde,http://www.inverclyde.gov.uk/business-and-trade/food-safety-and-standards/,-4.68863100000000,PA14 5HU,2010-03-04,fhis_improvement_required_en-GB,Improvement Required,,FHIS,
442620,Wemyss Bay Station Shore Road Wemyss Bay,,,,Station Bar,Pub/bar/nightclub,7843,,,356914,,,55.87606800000000,12/00053/COMM,778,safer.communities@inverclyde.gov.uk,Inverclyde,http://www.inverclyde.gov.uk/business-and-trade/food-safety-and-standards/,-4.88838900000000,PA18 6AR,2013-08-16,fhis_pass_en-GB,Pass,,FHIS,
442621,22 John Wood Street PORT GLASGOW,,,,Station News,Retailers - other,4613,,,720050,,,55.93379000000000,14/00076/COMM,778,safer.communities@inverclyde.gov.uk,Inverclyde,http://www.inverclyde.gov.uk/business-and-trade/food-safety-and-standards/,-4.68863100000000,PA14 5HU,2014-12-01,fhis_pass_en-GB,Pass,,FHIS,
442622,2A Hamilton Way Greenock,,,,Stepwell Fresh,Retailers - other,4613,,,33327,,,55.94864800000000,10/00038/COMM,778,safer.communities@inverclyde.gov.uk,Inverclyde,http://www.inverclyde.gov.uk/business-and-trade/food-safety-and-standards/,-4.75852600000000,PA15 1RH,2014-02-11,fhis_pass_en-GB,Pass,,FHIS,
442623,3 Bute Street Gourock,,,,Stevie's Shop,Retailers - other,4613,,,510,,,55.95271800000000,00/06081/COMM,778,safer.communities@inverclyde.gov.uk,Inverclyde,http://www.inverclyde.gov.uk/business-and-trade/food-safety-and-standards/,-4.82714600000000,PA19 1SX,2014-09-16,fhis_pass_en-GB,Pass,,FHIS,
442624,74 Braeside Road Greenock,,,,Stewart's Store,Retailers - other,4613,,,438,,,55.93686400000000,00/05448/COMM,778,safer.communities@inverclyde.gov.uk,Inverclyde,http://www.inverclyde.gov.uk/business-and-trade/food-safety-and-standards/,-4.82472500000000,PA16 0RH,2013-09-17,fhis_pass_en-GB,Pass,,FHIS,
442625,210 Rue End Street Greenock,,,,Strathclyde Police,Other catering premises,7841,,,489,,,55.94708200000000,00/06016/COMM,778,safer.communities@inverclyde.gov.uk,Inverclyde,http://www.inverclyde.gov.uk/business-and-trade/food-safety-and-standards/,-4.75138300000000,PA15 1HX,2010-06-08,fhis_pass_en-GB,Pass,,FHIS,
442626,28 Westburn Street Greenock,,,,Subway,Takeaway/sandwich shop,7844,,,440,,,55.94931700000000,00/05462/COMM,778,safer.communities@inverclyde.gov.uk,Inverclyde,http://www.inverclyde.gov.uk/business-and-trade/food-safety-and-standards/,-4.76115300000000,PA15 1RY,2011-05-18,fhis_pass_en-GB,Pass,,FHIS,
442627,43 Princes Street Port Glasgow,,,,Super Chef,Takeaway/sandwich shop,7844,,,249,,,55.93418300000000,00/00509/COMM,778,safer.communities@inverclyde.gov.uk,Inverclyde,http://www.inverclyde.gov.uk/business-and-trade/food-safety-and-standards/,-4.69037100000000,PA14 5JH,2014-07-14,fhis_improvement_required_en-GB,Improvement Required,,FHIS,
442628,18 Hamilton Way Greenock,,,,Superdrug Stores Plc.,Retailers - other,4613,,,483,,,55.94864800000000,00/06001/COMM,778,safer.communities@inverclyde.gov.uk,Inverclyde,http://www.inverclyde.gov.uk/business-and-trade/food-safety-and-standards/,-4.75852600000000,PA15 1RH,2010-09-06,fhis_pass_en-GB,Pass,,FHIS,
442629,69 Princes Street Port Glasgow,,,,Sutherland Bar,Pub/bar/nightclub,7843,,,404,,,55.93418300000000,00/04913/COMM,778,safer.communities@inverclyde.gov.uk,Inverclyde,http://www.inverclyde.gov.uk/business-and-trade/food-safety-and-standards/,-4.69037100000000,PA14 5JH,2014-12-03,fhis_pass_en-GB,Pass,,FHIS,
442630,c/o 40 West Stewart Street Greenock,,,,Suzy's Scran Van,Mobile caterer,7846,,,720049,,,55.95214800000000,14/00072/STTRAD,778,safer.communities@inverclyde.gov.uk,Inverclyde,http://www.inverclyde.gov.uk/business-and-trade/food-safety-and-standards/,-4.76399800000000,PA15 1YA,2014-11-27,fhis_pass_en-GB,Pass,,FHIS,
442631,4 Main Street Greenock,,,,T Mobile (Everything Everywhere),Restaurant/Cafe/Canteen,1,,,188225,,,55.94485200000000,12/00004/COMM,778,safer.communities@inverclyde.gov.uk,Inverclyde,http://www.inverclyde.gov.uk/business-and-trade/food-safety-and-standards/,-4.74294400000000,PA15 1AE,2013-09-25,fhis_pass_en-GB,Pass,,FHIS,
442632,89 - 91 Kempock Street GOUROCK,,,,Taj Mahal,Restaurant/Cafe/Canteen,1,,,198,,,,00/00371/COMM,778,safer.communities@inverclyde.gov.uk,Inverclyde,http://www.inverclyde.gov.uk/business-and-trade/food-safety-and-standards/,,PA19 1NF,2014-05-28,fhis_pass_en-GB,Pass,,FHIS,
442633,132 Drumfrochar Road Greenock,,,,Tandoori Shack,Takeaway/sandwich shop,7844,,,143,,,55.94146700000000,00/00197/COMM,778,safer.communities@inverclyde.gov.uk,Inverclyde,http://www.inverclyde.gov.uk/business-and-trade/food-safety-and-standards/,-4.76809000000000,PA15 4JG,2014-03-20,fhis_pass_en-GB,Pass,,FHIS,
442634,2 Hamilton Gate GREENOCK,,,,Taste Of America,Retailers - other,4613,,,655588,,,55.94927700000000,14/00025/COMM,778,safer.communities@inverclyde.gov.uk,Inverclyde,http://www.inverclyde.gov.uk/business-and-trade/food-safety-and-standards/,-4.75930800000000,PA15 1JW,2014-03-20,fhis_pass_en-GB,Pass,,FHIS,
442635,33C Nicolson Street GREENOCK,,,,Tasty Spot,Takeaway/sandwich shop,7844,,,576631,,,55.94995200000000,13/00052/COMM,778,safer.communities@inverclyde.gov.uk,Inverclyde,http://www.inverclyde.gov.uk/business-and-trade/food-safety-and-standards/,-4.76171100000000,PA15 1UL,2014-06-09,fhis_pass_en-GB,Pass,,FHIS,
442636,99 Shore Street Gourock,,,,Terry's Bakers,Retailers - other,4613,,,414,,,55.95990700000000,00/05146/COMM,778,safer.communities@inverclyde.gov.uk,Inverclyde,http://www.inverclyde.gov.uk/business-and-trade/food-safety-and-standards/,-4.81666100000000,PA19 1RB,2014-11-12,fhis_pass_en-GB,Pass,,FHIS,
442637,Greenock Road Port Glasgow,,,,Tesco (Filling Station),Retailers - other,4613,,,28783,,,55.93010500000000,09/00026/COMM,778,safer.communities@inverclyde.gov.uk,Inverclyde,http://www.inverclyde.gov.uk/business-and-trade/food-safety-and-standards/,-4.64255200000000,PA14 6TR,2010-03-23,fhis_pass_en-GB,Pass,,FHIS,
442638,180 Dalrymple Street Greenock,,,,Tesco Extra,Retailers - supermarkets/hypermarkets,7840,,,138,,,55.93664900000000,00/00188/COMM,778,safer.communities@inverclyde.gov.uk,Inverclyde,http://www.inverclyde.gov.uk/business-and-trade/food-safety-and-standards/,-4.73988300000000,PA15 1JY,2014-09-22,fhis_pass_en-GB,Pass,,FHIS,
442639,Tesco Stores Greenock Road Port Glasgow,,,,Tesco Extra,Retailers - supermarkets/hypermarkets,7840,,,488,,,55.93010500000000,00/06015/COMM,778,safer.communities@inverclyde.gov.uk,Inverclyde,http://www.inverclyde.gov.uk/business-and-trade/food-safety-and-standards/,-4.64255200000000,PA14 6TR,2014-11-20,fhis_pass_en-GB,Pass,,FHIS,
442640,Dalrymple Street GREENOCK,,,,Tesco Family Dining Ltd,Restaurant/Cafe/Canteen,1,,,720047,,,55.95144100000000,14/00050/COMM,778,safer.communities@inverclyde.gov.uk,Inverclyde,http://www.inverclyde.gov.uk/business-and-trade/food-safety-and-standards/,-4.76024700000000,PA15 1LE,2014-11-20,fhis_pass_en-GB,Pass,,FHIS,
442641,Greenock Road PORT GLASGOW,,,,Tesco Family Dining Ltd,Restaurant/Cafe/Canteen,1,,,720048,,,55.93010500000000,14/00051/COMM,778,safer.communities@inverclyde.gov.uk,Inverclyde,http://www.inverclyde.gov.uk/business-and-trade/food-safety-and-standards/,-4.64255200000000,PA14 6TR,2014-11-20,fhis_improvement_required_en-GB,Improvement Required,,FHIS,
442642,2 Laird Street Greenock,,,,Tesco Filling Station,Retailers - other,4613,,,335,,,55.95085700000000,00/00826/COMM,778,safer.communities@inverclyde.gov.uk,Inverclyde,http://www.inverclyde.gov.uk/business-and-trade/food-safety-and-standards/,-4.76100700000000,PA15 1LB,2010-03-23,fhis_pass_en-GB,Pass,,FHIS,
442643,Earnhill Road Greenock,,,,Texas Instruments (UK) Ltd - Staff Restaurant,Restaurant/Cafe/Canteen,1,,,501,,,55.94561400000000,00/06069/COMM,778,safer.communities@inverclyde.gov.uk,Inverclyde,http://www.inverclyde.gov.uk/business-and-trade/food-safety-and-standards/,-4.83003900000000,PA16 0EQ,2014-10-17,fhis_pass_en-GB,Pass,,FHIS,
442644,10 Orangefield Place GREENOCK,,,,The Albany,Restaurant/Cafe/Canteen,1,,,564401,,,55.94670800000000,13/00038/COMM,778,safer.communities@inverclyde.gov.uk,Inverclyde,http://www.inverclyde.gov.uk/business-and-trade/food-safety-and-standards/,-4.76966500000000,PA15 1YX,2013-09-16,fhis_pass_en-GB,Pass,,FHIS,
442645,Custom House Place GREENOCK,,,,The Bay Hotel,Restaurant/Cafe/Canteen,1,,,620055,,,55.94749700000000,13/00081/COMM,778,safer.communities@inverclyde.gov.uk,Inverclyde,http://www.inverclyde.gov.uk/business-and-trade/food-safety-and-standards/,-4.75088400000000,PA15 1EJ,2014-07-09,fhis_pass_en-GB,Pass,,FHIS,
442646,Custom House Quay Open Shore GREENOCK,,,,The Beacon Bistro & Bar,Restaurant/Cafe/Canteen,1,,,508521,,,,13/00005/COMM,778,safer.communities@inverclyde.gov.uk,Inverclyde,http://www.inverclyde.gov.uk/business-and-trade/food-safety-and-standards/,,PA15 1HJ,2015-01-07,fhis_improvement_required_en-GB,Improvement Required,,FHIS,
442647,11 Cardwell Road GOUROCK,,,,The Bluebird Cafe,Restaurant/Cafe/Canteen,1,,,682939,,,55.95614600000000,14/00016/COMM,778,safer.communities@inverclyde.gov.uk,Inverclyde,http://www.inverclyde.gov.uk/business-and-trade/food-safety-and-standards/,-4.80696700000000,PA19 1UG,2014-09-09,fhis_pass_en-GB,Pass,,FHIS,
442648,49 Cardwell Road Gourock,,,,The Cardwell Inn,Pub/bar/nightclub,7843,,,476,,,55.95649800000000,00/05951/COMM,778,safer.communities@inverclyde.gov.uk,Inverclyde,http://www.inverclyde.gov.uk/business-and-trade/food-safety-and-standards/,-4.80455700000000,PA19 1UW,2013-12-13,fhis_pass_en-GB,Pass,,FHIS,
442649,Cowal View GOUROCK,,,,The Chefs Eye Ltd - Gourock Golf Club,Restaurant/Cafe/Canteen,1,,,655590,,,55.95085400000000,14/00028/COMM,778,safer.communities@inverclyde.gov.uk,Inverclyde,http://www.inverclyde.gov.uk/business-and-trade/food-safety-and-standards/,-4.83900900000000,PA19 1HD,2014-05-30,fhis_pass_en-GB,Pass,,FHIS,
442650,18A Hamilton Way GREENOCK,,,,The Chicane Cafe,Takeaway/sandwich shop,7844,,,655584,,,,14/00013/COMM,778,safer.communities@inverclyde.gov.uk,Inverclyde,http://www.inverclyde.gov.uk/business-and-trade/food-safety-and-standards/,,,2014-09-05,fhis_pass_en-GB,Pass,,FHIS,
442651,Suite 3 Clarence House 1 Haig Street Greenock,,,,The Cookschool At Stepwell,Other catering premises,7841,,,34353,,,55.95210700000000,10/00110/COMM,778,safer.communities@inverclyde.gov.uk,Inverclyde,http://www.inverclyde.gov.uk/business-and-trade/food-safety-and-standards/,-4.76059900000000,PA15 1JG,2014-02-11,fhis_pass_en-GB,Pass,,FHIS,
442652,No 1 Lyle Buildings Lochwinnoch Road Kilmacolm,,,,The Co-operative Food,Retailers - supermarkets/hypermarkets,7840,,,216,,,55.89336600000000,00/00408/COMM,778,safer.communities@inverclyde.gov.uk,Inverclyde,http://www.inverclyde.gov.uk/business-and-trade/food-safety-and-standards/,-4.62800800000000,PA13 4LE,2015-01-20,fhis_pass_en-GB,Pass,,FHIS,
442653,34 Roxburgh Street Greenock,,,,The Co-operative Pharmacy,Retailers - other,4613,,,531,,,55.94530100000000,00/06180/COMM,778,safer.communities@inverclyde.gov.uk,Inverclyde,http://www.inverclyde.gov.uk/business-and-trade/food-safety-and-standards/,-4.75945800000000,PA15 4NR,2010-03-04,fhis_pass_en-GB,Pass,,FHIS,
442654,18 Pottery Street GREENOCK,,,,The Cottage,Restaurant/Cafe/Canteen,1,,,452657,,,55.93975500000000,12/00077/COMM,778,safer.communities@inverclyde.gov.uk,Inverclyde,http://www.inverclyde.gov.uk/business-and-trade/food-safety-and-standards/,-4.71948900000000,PA15 2UH,2014-01-14,fhis_pass_en-GB,Pass,,FHIS,
442655,2 Ann Street GREENOCK,,,,The Exchange Wine Bar & Bistro,Restaurant/Cafe/Canteen,1,,,538555,,,55.94703000000000,13/00032/COMM,778,safer.communities@inverclyde.gov.uk,Inverclyde,http://www.inverclyde.gov.uk/business-and-trade/food-safety-and-standards/,-4.76092600000000,PA15 4RQ,2015-01-06,fhis_improvement_required_en-GB,Improvement Required,,FHIS,
442656,24 Union Street Greenock,,,,The Fishing Shop,Retailers - other,4613,,,418354,,,55.95287300000000,00/01169/COMM,778,safer.communities@inverclyde.gov.uk,Inverclyde,http://www.inverclyde.gov.uk/business-and-trade/food-safety-and-standards/,-4.76932100000000,PA16 8DD,2012-07-03,fhis_exempt_en-GB,Exempt,,FHIS,
442657,100 Shore Street Gourock,,,,The Gourock Butcher,Manufacturers/packers,7839,,,273,,,55.95990700000000,00/00579/COMM,778,safer.communities@inverclyde.gov.uk,Inverclyde,http://www.inverclyde.gov.uk/business-and-trade/food-safety-and-standards/,-4.81666100000000,PA19 1RB,2014-07-09,fhis_pass_en-GB,Pass,,FHIS,
442658,Community Centre Lochwinnoch Road Kilmacolm,,,,The Hub Cafe,Restaurant/Cafe/Canteen,1,,,46308,,,55.89336600000000,11/00058/COMM,778,safer.communities@inverclyde.gov.uk,Inverclyde,http://www.inverclyde.gov.uk/business-and-trade/food-safety-and-standards/,-4.62800800000000,PA13 4LE,2014-01-06,fhis_pass_en-GB,Pass,,FHIS,
442659,10 Cromdale Road Port Glasgow,,,,The Hungry Hut,Takeaway/sandwich shop,7844,,,579814,,,55.91946700000000,13/00039/COMM,778,safer.communities@inverclyde.gov.uk,Inverclyde,http://www.inverclyde.gov.uk/business-and-trade/food-safety-and-standards/,-4.65820200000000,PA14 6LT,2013-10-28,fhis_pass_en-GB,Pass,,FHIS,
442660,29 Union Street Greenock,,,,The Italian Club,Pub/bar/nightclub,7843,,,296,,,55.95287300000000,00/00672/COMM,778,safer.communities@inverclyde.gov.uk,Inverclyde,http://www.inverclyde.gov.uk/business-and-trade/food-safety-and-standards/,-4.76932100000000,PA16 8DD,2011-03-22,fhis_pass_en-GB,Pass,,FHIS,
442661,80 - 92 Cathcart Street Greenock,,,,The James Watt,Pub/bar/nightclub,7843,,,341,,,55.93664900000000,00/00895/COMM,778,safer.communities@inverclyde.gov.uk,Inverclyde,http://www.inverclyde.gov.uk/business-and-trade/food-safety-and-standards/,-4.73988300000000,PA15 1AA,2014-08-19,fhis_pass_en-GB,Pass,,FHIS,
442662,24 Dubbs Road Port Glasgow,,,,The Kafay,Restaurant/Cafe/Canteen,1,,,371,,,55.92512000000000,00/03134/COMM,778,safer.communities@inverclyde.gov.uk,Inverclyde,http://www.inverclyde.gov.uk/business-and-trade/food-safety-and-standards/,-4.66531300000000,PA14 5UA,2014-10-28,fhis_pass_en-GB,Pass,,FHIS,
442663,42 Princes Street Port Glasgow,,,,The Manzil,Takeaway/sandwich shop,7844,,,355,,,55.93427700000000,00/01634/COMM,778,safer.communities@inverclyde.gov.uk,Inverclyde,http://www.inverclyde.gov.uk/business-and-trade/food-safety-and-standards/,-4.68976900000000,PA14 5JQ,2012-10-02,fhis_pass_en-GB,Pass,,FHIS,
442664,Sinclair Street Greenock,,,,The Norseman,Pub/bar/nightclub,7843,,,387,,,55.93917200000000,00/04771/COMM,778,safer.communities@inverclyde.gov.uk,Inverclyde,http://www.inverclyde.gov.uk/business-and-trade/food-safety-and-standards/,-4.72713500000000,PA15 2EY,2011-03-21,fhis_pass_en-GB,Pass,,FHIS,
442665,c/o 40 West Stewart Street Greenock,,,,The Platter Merchant,Mobile caterer,7846,,,209026,,,55.95214800000000,00/05853/STTRAD,778,safer.communities@inverclyde.gov.uk,Inverclyde,http://www.inverclyde.gov.uk/business-and-trade/food-safety-and-standards/,-4.76399800000000,PA15 1YA,2014-11-18,fhis_pass_en-GB,Pass,,FHIS,
442666,3 James Watt Way GREENOCK,,,,The Point,Pub/bar/nightclub,7843,,,342,,,55.94423400000000,00/00896/COMM,778,safer.communities@inverclyde.gov.uk,Inverclyde,http://www.inverclyde.gov.uk/business-and-trade/food-safety-and-standards/,-4.73192800000000,PA15 2AD,2014-03-11,fhis_improvement_required_en-GB,Improvement Required,,FHIS,
442667,12 Westburn Street Greenock,,,,The Regent Club,Restaurant/Cafe/Canteen,1,,,28518,,,55.94985700000000,09/00005/COMM,778,safer.communities@inverclyde.gov.uk,Inverclyde,http://www.inverclyde.gov.uk/business-and-trade/food-safety-and-standards/,-4.75991000000000,PA15 1JR,2014-01-15,fhis_pass_en-GB,Pass,,FHIS,
442668,Wemyss Bay Station Shore Road Wemyss Bay,,,,The Station Cafe,Restaurant/Cafe/Canteen,1,,,28923,,,55.87606800000000,09/00037/COMM,778,safer.communities@inverclyde.gov.uk,Inverclyde,http://www.inverclyde.gov.uk/business-and-trade/food-safety-and-standards/,-4.88838900000000,PA18 6AR,2013-08-16,fhis_pass_en-GB,Pass,,FHIS,
442669,Southfield Avenue Port Glasgow,,,,The Unity Club,Pub/bar/nightclub,7843,,,277,,,55.92557200000000,00/00599/COMM,778,safer.communities@inverclyde.gov.uk,Inverclyde,http://www.inverclyde.gov.uk/business-and-trade/food-safety-and-standards/,-4.65767600000000,PA14 6PR,2010-03-12,fhis_pass_en-GB,Pass,,FHIS,
442670,105 Shore Street Gourock,,,,The Victoria Bar,Pub/bar/nightclub,7843,,,485,,,55.95990700000000,00/06008/COMM,778,safer.communities@inverclyde.gov.uk,Inverclyde,http://www.inverclyde.gov.uk/business-and-trade/food-safety-and-standards/,-4.81666100000000,PA19 1RB,2011-01-24,fhis_pass_en-GB,Pass,,FHIS,
442671,St James Terrace No 8 Lochwinnoch Road Kilmacolm,,,,The Village Newsagent,Retailers - other,4613,,,368,,,55.89383900000000,00/03109/COMM,778,safer.communities@inverclyde.gov.uk,Inverclyde,http://www.inverclyde.gov.uk/business-and-trade/food-safety-and-standards/,-4.62815200000000,PA13 4HB,2010-07-01,fhis_pass_en-GB,Pass,,FHIS,
442672,100 Cathcart Street Greenock,,,,The Waterline,Pub/bar/nightclub,7843,,,33697,,,55.94710400000000,10/00060/COMM,778,safer.communities@inverclyde.gov.uk,Inverclyde,http://www.inverclyde.gov.uk/business-and-trade/food-safety-and-standards/,-4.75441200000000,PA15 1BB,2014-11-26,fhis_pass_en-GB,Pass,,FHIS,
442673,Russell Way Port Glasgow,,,,The Waterwheel,Restaurant/Cafe/Canteen,1,,,674900,,,,14/00018/COMM,778,safer.communities@inverclyde.gov.uk,Inverclyde,http://www.inverclyde.gov.uk/business-and-trade/food-safety-and-standards/,,,2014-07-22,fhis_pass_en-GB,Pass,,FHIS,
442674,128 Eldon Street Greenock,,,,The West End,Retailers - other,4613,,,370,,,55.96097700000000,00/03121/COMM,778,safer.communities@inverclyde.gov.uk,Inverclyde,http://www.inverclyde.gov.uk/business-and-trade/food-safety-and-standards/,-4.78063600000000,PA16 7RS,2014-08-26,fhis_pass_en-GB,Pass,,FHIS,
442675,203 Roxburgh Street Greenock,,,,The Willow,Pub/bar/nightclub,7843,,,417,,,55.94677100000000,00/05186/COMM,778,safer.communities@inverclyde.gov.uk,Inverclyde,http://www.inverclyde.gov.uk/business-and-trade/food-safety-and-standards/,-4.76886900000000,PA15 4DA,2014-09-05,fhis_pass_en-GB,Pass,,FHIS,
442676,25 Hamilton Way Greenock,,,,Thorntons,Retailers - other,4613,,,499,,,55.94782100000000,00/06067/COMM,778,safer.communities@inverclyde.gov.uk,Inverclyde,http://www.inverclyde.gov.uk/business-and-trade/food-safety-and-standards/,-4.75850000000000,PA15 1JJ,2011-03-15,fhis_pass_en-GB,Pass,,FHIS,
442677,17 Kempock Street Gourock,,,,Three In One Take Away,Takeaway/sandwich shop,7844,,,194,,,55.96176200000000,00/00359/COMM,778,safer.communities@inverclyde.gov.uk,Inverclyde,http://www.inverclyde.gov.uk/business-and-trade/food-safety-and-standards/,-4.81886300000000,PA19 1NB,2014-04-22,fhis_pass_en-GB,Pass,,FHIS,
442678,Finlaystone (gardens) Greenock Road PORT GLASGOW,,,,Three Sisters Bake,Restaurant/Cafe/Canteen,1,,,655586,,,55.92863400000000,14/00021/COMM,778,safer.communities@inverclyde.gov.uk,Inverclyde,http://www.inverclyde.gov.uk/business-and-trade/food-safety-and-standards/,-4.61923700000000,PA14 6TJ,2014-10-24,fhis_pass_en-GB,Pass,,FHIS,
442679,Sommerville Weir Hall Building Faith Avenue QUARRIERS VILLAGE,,,,Three Sisters Bake,Restaurant/Cafe/Canteen,1,,,46407,,,,11/00064/COMM,778,safer.communities@inverclyde.gov.uk,Inverclyde,http://www.inverclyde.gov.uk/business-and-trade/food-safety-and-standards/,,PA11 3TF,2014-09-12,fhis_improvement_required_en-GB,Improvement Required,,FHIS,
442680,Sommerville Weir Hall Building Faith Avenue QUARRIERS VILLAGE,,,,Three Sisters Bake (Mobile Van),Mobile caterer,7846,,,668530,,,,14/00036/COMM,778,safer.communities@inverclyde.gov.uk,Inverclyde,http://www.inverclyde.gov.uk/business-and-trade/food-safety-and-standards/,,PA11 3TF,2014-06-24,fhis_pass_en-GB,Pass,,FHIS,
442681,90 Belville Street Greenock,,,,Tilda's,Retailers - other,4613,,,424,,,55.94214000000000,00/05300/COMM,778,safer.communities@inverclyde.gov.uk,Inverclyde,http://www.inverclyde.gov.uk/business-and-trade/food-safety-and-standards/,-4.73556000000000,PA15 4TA,2015-02-09,fhis_pass_en-GB,Pass,,FHIS,
442682,73 Nicolson Street Greenock,,,,TJ's,Takeaway/sandwich shop,7844,,,508,,,55.94839800000000,00/06079/COMM,778,safer.communities@inverclyde.gov.uk,Inverclyde,http://www.inverclyde.gov.uk/business-and-trade/food-safety-and-standards/,-4.76765500000000,PA15 1TL,2014-03-13,fhis_improvement_required_en-GB,Improvement Required,,FHIS,
442683,20 Westburn Street Greenock,,,,Tokyo Joe,Pub/bar/nightclub,7843,,,519,,,55.94985700000000,00/06119/COMM,778,safer.communities@inverclyde.gov.uk,Inverclyde,http://www.inverclyde.gov.uk/business-and-trade/food-safety-and-standards/,-4.75991000000000,PA15 1JR,2013-11-19,fhis_improvement_required_en-GB,Improvement Required,,FHIS,
442684,6 Ardgowan Square Greenock,,,,Tontine Hotel,Hotel/bed & breakfast/guest house,7842,,,24,,,55.95235700000000,00/00012/COMM,778,safer.communities@inverclyde.gov.uk,Inverclyde,http://www.inverclyde.gov.uk/business-and-trade/food-safety-and-standards/,-4.76747400000000,PA16 8NG,2013-05-13,fhis_pass_en-GB,Pass,,FHIS,
442685,Chalmers Street Gourock,,,,Torpedo Factory Club,Pub/bar/nightclub,7843,,,120,,,55.95658800000000,00/00139/COMM,778,safer.communities@inverclyde.gov.uk,Inverclyde,http://www.inverclyde.gov.uk/business-and-trade/food-safety-and-standards/,-4.81047600000000,PA19 1RW,2010-02-03,fhis_pass_en-GB,Pass,,FHIS,
442686,West College Scotland Finnart Street Greenock,,,,Training Restaurant,School/college/university,7845,,,158,,,55.94939200000000,00/00240/COMM,778,safer.communities@inverclyde.gov.uk,Inverclyde,http://www.inverclyde.gov.uk/business-and-trade/food-safety-and-standards/,-4.77064200000000,PA16 8HF,2014-08-20,fhis_pass_en-GB,Pass,,FHIS,
442687,121 - 123 West Blackhall Street GREENOCK,,,,Twist,Restaurant/Cafe/Canteen,1,,,491620,,,55.95204200000000,12/00113/COMM,778,safer.communities@inverclyde.gov.uk,Inverclyde,http://www.inverclyde.gov.uk/business-and-trade/food-safety-and-standards/,-4.76310900000000,PA15 1YD,2014-06-12,fhis_improvement_required_en-GB,Improvement Required,,FHIS,
442688,6 Cromdale Road Port Glasgow,,,,U Save,Retailers - other,4613,,,132,,,55.91951000000000,00/00173/COMM,778,safer.communities@inverclyde.gov.uk,Inverclyde,http://www.inverclyde.gov.uk/business-and-trade/food-safety-and-standards/,-4.65826900000000,PA14 6LT,2014-10-07,fhis_pass_en-GB,Pass,,FHIS,
442689,Municipal Buildings Clyde Square Greenock,,,,Unity Diner,Restaurant/Cafe/Canteen,1,,,232,,,55.94721900000000,00/00454/COMM,778,safer.communities@inverclyde.gov.uk,Inverclyde,http://www.inverclyde.gov.uk/business-and-trade/food-safety-and-standards/,-4.75731900000000,PA15 1NB,2014-07-10,fhis_pass_en-GB,Pass,,FHIS,
442690,Crosshill Road Port Glasgow,,,,Upper Port Glasgow Social Club,Pub/bar/nightclub,7843,,,134,,,55.92400400000000,00/00177/COMM,778,safer.communities@inverclyde.gov.uk,Inverclyde,http://www.inverclyde.gov.uk/business-and-trade/food-safety-and-standards/,-4.66743000000000,PA14 5UN,2014-01-14,fhis_pass_en-GB,Pass,,FHIS,
442691,109 - 111 Oronsay Avenue Port Glasgow,,,,VG Store,Retailers - other,4613,,,33619,,,55.92139800000000,10/00055/COMM,778,safer.communities@inverclyde.gov.uk,Inverclyde,http://www.inverclyde.gov.uk/business-and-trade/food-safety-and-standards/,-4.64618500000000,PA14 6EH,2014-09-09,fhis_improvement_required_en-GB,Improvement Required,,FHIS,
442692,Belville Street Greenock,,,,Victoria Bowling Club,Pub/bar/nightclub,7843,,,152,,,55.94214000000000,00/00216/COMM,778,safer.communities@inverclyde.gov.uk,Inverclyde,http://www.inverclyde.gov.uk/business-and-trade/food-safety-and-standards/,-4.73556000000000,PA15 4TA,2014-11-07,fhis_pass_en-GB,Pass,,FHIS,
442693,42 Hamilton Way Greenock,,,,W H Smith,Retailers - other,4613,,,172,,,55.94864800000000,00/00293/COMM,778,safer.communities@inverclyde.gov.uk,Inverclyde,http://www.inverclyde.gov.uk/business-and-trade/food-safety-and-standards/,-4.75852600000000,PA15 1RH,2010-03-23,fhis_pass_en-GB,Pass,,FHIS,
442694,10 Customhouse Way Greenock,,,,Waterfront Cinema,Other catering premises,7841,,,349,,,55.94973200000000,00/01325/COMM,778,safer.communities@inverclyde.gov.uk,Inverclyde,http://www.inverclyde.gov.uk/business-and-trade/food-safety-and-standards/,-4.75626500000000,PA15 1EG,2010-06-02,fhis_pass_en-GB,Pass,,FHIS,
442695,The Waterline 100 Cathcart Street GREENOCK,,,,Waterline Caterer,Restaurant/Cafe/Canteen,1,,,726900,,,55.94710400000000,14/00078/COMM,778,safer.communities@inverclyde.gov.uk,Inverclyde,http://www.inverclyde.gov.uk/business-and-trade/food-safety-and-standards/,-4.75441200000000,PA15 1BB,2014-12-03,fhis_improvement_required_en-GB,Improvement Required,,FHIS,
442696,86 Shore Street Gourock,,,,Wee Chippy,Takeaway/sandwich shop,7844,,,271,,,55.95914200000000,00/00576/COMM,778,safer.communities@inverclyde.gov.uk,Inverclyde,http://www.inverclyde.gov.uk/business-and-trade/food-safety-and-standards/,-4.81591700000000,PA19 1RD,2013-11-29,fhis_improvement_required_en-GB,Improvement Required,,FHIS,
442697,Clubhouse George Road GOUROCK,,,,Wellington Children's Centre,Hospitals/Childcare/Caring Premises,5,,,504193,,,55.95052700000000,13/00009/COMM,778,safer.communities@inverclyde.gov.uk,Inverclyde,http://www.inverclyde.gov.uk/business-and-trade/food-safety-and-standards/,-4.81609200000000,PA19 1YT,2013-01-25,fhis_pass_en-GB,Pass,,FHIS,
442698,19 - 21 Lynedoch Street Greenock,,,,"Wellington Pre 5 Nursery, Playgroup & Out Of School Care",Hospitals/Childcare/Caring Premises,5,,,314466,,,55.94468300000000,12/00049/COMM,778,safer.communities@inverclyde.gov.uk,Inverclyde,http://www.inverclyde.gov.uk/business-and-trade/food-safety-and-standards/,-4.75574600000000,PA15 4AB,2012-04-03,fhis_pass_en-GB,Pass,,FHIS,
442699,Regent Street Greenock,,,,Wellpark Centre,Hospitals/Childcare/Caring Premises,5,,,33345,,,55.94597600000000,10/00039/COMM,778,safer.communities@inverclyde.gov.uk,Inverclyde,http://www.inverclyde.gov.uk/business-and-trade/food-safety-and-standards/,-4.75700700000000,PA15 4PB,2015-02-05,fhis_pass_en-GB,Pass,,FHIS,
442700,Mearns Street Greenock,,,,Wellpark Children's Centre,Hospitals/Childcare/Caring Premises,5,,,409,,,55.94174600000000,00/05049/COMM,778,safer.communities@inverclyde.gov.uk,Inverclyde,http://www.inverclyde.gov.uk/business-and-trade/food-safety-and-standards/,-4.76125500000000,PA15 4BN,2014-04-03,fhis_pass_en-GB,Pass,,FHIS,
442701,Cathcart Square Greenock,,,,Wellpark Mid Kirk Church,Other catering premises,7841,,,112,,,55.94758300000000,00/00129/COMM,778,safer.communities@inverclyde.gov.uk,Inverclyde,http://www.inverclyde.gov.uk/business-and-trade/food-safety-and-standards/,-4.75588800000000,PA15 1LS,2013-10-24,fhis_pass_en-GB,Pass,,FHIS,
442702,Caravan Park Shore Road Wemyss Bay,,,,Wemyss Bay Holiday Park Supermarket,Retailers - other,4613,,,297,,,55.87872500000000,00/00681/COMM,778,safer.communities@inverclyde.gov.uk,Inverclyde,http://www.inverclyde.gov.uk/business-and-trade/food-safety-and-standards/,-4.88546900000000,PA18 6BS,2010-03-17,fhis_pass_en-GB,Pass,,FHIS,
442703,Lomond Road Wemyss Bay,,,,Wemyss Bay Nursery Class,Hospitals/Childcare/Caring Premises,5,,,537,,,55.88970900000000,00/06188/COMM,778,safer.communities@inverclyde.gov.uk,Inverclyde,http://www.inverclyde.gov.uk/business-and-trade/food-safety-and-standards/,-4.89010700000000,PA18 6DP,2012-02-22,fhis_pass_en-GB,Pass,,FHIS,
442704,Lomond Road Wemyss Bay,,,,Wemyss Bay Primary School,School/college/university,7845,,,23,,,55.88970900000000,00/00011/COMM,778,safer.communities@inverclyde.gov.uk,Inverclyde,http://www.inverclyde.gov.uk/business-and-trade/food-safety-and-standards/,-4.89010700000000,PA18 6DP,2014-01-20,fhis_pass_en-GB,Pass,,FHIS,
442705,Customhouse Way Greenock,,,,West College Scotland (Waterfront Campus),School/college/university,7845,,,137,,,55.94973200000000,00/00186/COMM,778,safer.communities@inverclyde.gov.uk,Inverclyde,http://www.inverclyde.gov.uk/business-and-trade/food-safety-and-standards/,-4.75626500000000,PA15 1EG,2013-10-24,fhis_pass_en-GB,Pass,,FHIS,
442706,Finnart Street Greenock,,,,West College Scotland Nursery,Hospitals/Childcare/Caring Premises,5,,,579817,,,55.94939200000000,13/00050/COMM,778,safer.communities@inverclyde.gov.uk,Inverclyde,http://www.inverclyde.gov.uk/business-and-trade/food-safety-and-standards/,-4.77064200000000,PA16 8HF,2013-09-04,fhis_pass_en-GB,Pass,,FHIS,
442707,2 Newton Street Greenock,,,,West Station Cafe,Restaurant/Cafe/Canteen,1,,,237,,,55.94782000000000,00/00470/COMM,778,safer.communities@inverclyde.gov.uk,Inverclyde,http://www.inverclyde.gov.uk/business-and-trade/food-safety-and-standards/,-4.76855900000000,PA16 8UJ,2015-01-12,fhis_pass_en-GB,Pass,,FHIS,
442708,3 Newton Street Greenock,,,,West Station News,Retailers - other,4613,,,416,,,55.94745400000000,00/05161/COMM,778,safer.communities@inverclyde.gov.uk,Inverclyde,http://www.inverclyde.gov.uk/business-and-trade/food-safety-and-standards/,-4.76885400000000,PA16 8UH,2014-08-28,fhis_improvement_required_en-GB,Improvement Required,,FHIS,
442709,30 Westburn Street Greenock,,,,Westburn Bar,Pub/bar/nightclub,7843,,,310,,,55.94931700000000,00/00718/COMM,778,safer.communities@inverclyde.gov.uk,Inverclyde,http://www.inverclyde.gov.uk/business-and-trade/food-safety-and-standards/,-4.76115300000000,PA15 1RY,2010-03-23,fhis_pass_en-GB,Pass,,FHIS,
442710,9 Nelson Street Greenock,,,,Westburn Church - Small Group Daycare,Other catering premises,7841,,,234,,,55.94869900000000,00/00461/COMM,778,safer.communities@inverclyde.gov.uk,Inverclyde,http://www.inverclyde.gov.uk/business-and-trade/food-safety-and-standards/,-4.76745300000000,PA15 1TT,2014-08-15,fhis_improvement_required_en-GB,Improvement Required,,FHIS,
442711,42 Octavia Terrace Greenock,,,,Westview (Quarriers),Hospitals/Childcare/Caring Premises,5,,,390,,,55.96082400000000,00/04795/COMM,778,safer.communities@inverclyde.gov.uk,Inverclyde,http://www.inverclyde.gov.uk/business-and-trade/food-safety-and-standards/,-4.78663400000000,PA16 7SR,2014-04-08,fhis_pass_en-GB,Pass,,FHIS,
442712,Beith Road Greenock,,,,Whinhill Golf Club,Pub/bar/nightclub,7843,,,357,,,55.93559100000000,00/01651/COMM,778,safer.communities@inverclyde.gov.uk,Inverclyde,http://www.inverclyde.gov.uk/business-and-trade/food-safety-and-standards/,-4.76437200000000,PA16 9LN,2014-07-16,fhis_improvement_required_en-GB,Improvement Required,,FHIS,
442713,Peat Road Greenock,,,,Whinhill Nursery Classes (Overton & Gaelic Pre 5's),Hospitals/Childcare/Caring Premises,5,,,452655,,,55.93764600000000,12/00071/COMM,778,safer.communities@inverclyde.gov.uk,Inverclyde,http://www.inverclyde.gov.uk/business-and-trade/food-safety-and-standards/,-4.77412700000000,PA15 4EQ,2014-03-20,fhis_pass_en-GB,Pass,,FHIS,
442714,Peat Road Greenock,,,,Whinhill Primary School,School/college/university,7845,,,452656,,,55.93764600000000,12/00073/COMM,778,safer.communities@inverclyde.gov.uk,Inverclyde,http://www.inverclyde.gov.uk/business-and-trade/food-safety-and-standards/,-4.77412700000000,PA15 4EQ,2013-09-06,fhis_pass_en-GB,Pass,,FHIS,
442715,9 Inverkip Street GREENOCK,,,,White Hats Restaurants,Restaurant/Cafe/Canteen,1,,,668529,,,55.94799200000000,14/00033/COMM,778,safer.communities@inverclyde.gov.uk,Inverclyde,http://www.inverclyde.gov.uk/business-and-trade/food-safety-and-standards/,-4.76333300000000,PA15 1SX,2014-07-15,fhis_pass_en-GB,Pass,,FHIS,
442716,7 West Stewart Street Greenock,,,,Wholly Mackerel,Retailers - other,4613,,,380,,,55.94944800000000,00/03203/COMM,778,safer.communities@inverclyde.gov.uk,Inverclyde,http://www.inverclyde.gov.uk/business-and-trade/food-safety-and-standards/,-4.76250800000000,PA15 1SN,2014-03-19,fhis_pass_en-GB,Pass,,FHIS,
442717,41 Hamilton Way Greenock,,,,Wilkinson,Retailers - other,4613,,,34009,,,55.94857900000000,10/00082/COMM,778,safer.communities@inverclyde.gov.uk,Inverclyde,http://www.inverclyde.gov.uk/business-and-trade/food-safety-and-standards/,-4.76039600000000,PA15 1RQ,2014-10-14,fhis_pass_en-GB,Pass,,FHIS,
442718,1C Union Street Greenock,,,,Willie Gibsons,Retailers - other,4613,,,415,,,55.95052900000000,00/05160/COMM,778,safer.communities@inverclyde.gov.uk,Inverclyde,http://www.inverclyde.gov.uk/business-and-trade/food-safety-and-standards/,-4.76522800000000,PA16 8JH,2014-12-03,fhis_pass_en-GB,Pass,,FHIS,
442719,c/o 40 West Stewart Street Greenock,,,,Willie's Van,Mobile caterer,7846,,,209046,,,55.95214800000000,00/05368/STTRAD,778,safer.communities@inverclyde.gov.uk,Inverclyde,http://www.inverclyde.gov.uk/business-and-trade/food-safety-and-standards/,-4.76399800000000,PA15 1YA,2015-01-22,fhis_pass_en-GB,Pass,,FHIS,
442720,Kingston Ind Est Unit 4 Ardgowan Street PORT GLASGOW,,,,Wiltshire Farm Foods (Glasgow),Distributors/Transporters,7,,,705319,,,55.93672200000000,14/00052/COMM,778,safer.communities@inverclyde.gov.uk,Inverclyde,http://www.inverclyde.gov.uk/business-and-trade/food-safety-and-standards/,-4.70412700000000,PA14 5DG,2014-09-25,fhis_pass_en-GB,Pass,,FHIS,
442721,St James Terrace No 4 Lochwinnoch Road Kilmacolm,,,,Windyhill Restaurant (Wild Flour),Restaurant/Cafe/Canteen,1,,,479,,,55.89383900000000,00/05974/COMM,778,safer.communities@inverclyde.gov.uk,Inverclyde,http://www.inverclyde.gov.uk/business-and-trade/food-safety-and-standards/,-4.62815200000000,PA13 4HB,2014-11-12,fhis_pass_en-GB,Pass,,FHIS,
442722,122A West Blackhall Street Greenock,,,,Wing Wah,Takeaway/sandwich shop,7844,,,481,,,55.95176400000000,00/05983/COMM,778,safer.communities@inverclyde.gov.uk,Inverclyde,http://www.inverclyde.gov.uk/business-and-trade/food-safety-and-standards/,-4.76225700000000,PA15 1XR,2013-03-27,fhis_improvement_required_en-GB,Improvement Required,,FHIS,
442723,29 Nelson Street Greenock,,,,Wongs,Takeaway/sandwich shop,7844,,,28981,,,55.94765100000000,09/00043/COMM,778,safer.communities@inverclyde.gov.uk,Inverclyde,http://www.inverclyde.gov.uk/business-and-trade/food-safety-and-standards/,-4.76931600000000,PA15 1QG,2014-04-01,fhis_improvement_required_en-GB,Improvement Required,,FHIS,
442724,Upper Village Kilmacolm,,,,Woodside Care Home,Hospitals/Childcare/Caring Premises,5,,,490,,,55.86777100000000,00/06021/COMM,778,safer.communities@inverclyde.gov.uk,Inverclyde,http://www.inverclyde.gov.uk/business-and-trade/food-safety-and-standards/,-4.62490300000000,PA11 3SD,2014-04-09,fhis_pass_en-GB,Pass,,FHIS,
442725,Dalrymple Street Greenock,,,,Word Up,Pub/bar/nightclub,7843,,,140,,,55.93664900000000,00/00193/COMM,778,safer.communities@inverclyde.gov.uk,Inverclyde,http://www.inverclyde.gov.uk/business-and-trade/food-safety-and-standards/,-4.73988300000000,PA15 1LF,2010-07-06,fhis_pass_en-GB,Pass,,FHIS,
442726,Westburn Centre 175 Dalrymple Street Greenock,,,,WRVS,Other catering premises,7841,,,375,,,55.95046300000000,00/03158/COMM,778,safer.communities@inverclyde.gov.uk,Inverclyde,http://www.inverclyde.gov.uk/business-and-trade/food-safety-and-standards/,-4.76054600000000,PA15 1JZ,2010-06-15,fhis_pass_en-GB,Pass,,FHIS,
442727,Larkfield Road Greenock,,,,WRVS Shop - Inverclyde Royal Hospital,Restaurant/Cafe/Canteen,1,,,213,,,55.94380300000000,00/00400/COMM,778,safer.communities@inverclyde.gov.uk,Inverclyde,http://www.inverclyde.gov.uk/business-and-trade/food-safety-and-standards/,-4.80978900000000,PA16 0XN,2012-03-29,fhis_pass_en-GB,Pass,,FHIS,
442728,8 John Wood Street Port Glasgow,,,,Wugs Rolls,Takeaway/sandwich shop,7844,,,529,,,55.93379000000000,00/06169/COMM,778,safer.communities@inverclyde.gov.uk,Inverclyde,http://www.inverclyde.gov.uk/business-and-trade/food-safety-and-standards/,-4.68863100000000,PA14 5HU,2013-11-06,fhis_pass_en-GB,Pass,,FHIS,
442729,c/o 40 West Stewart Street Greenock,,,,Wullies Ices (Van Reg No. X418 XSF),Mobile caterer,7846,,,209034,,,55.95214800000000,00/05425/STTRAD,778,safer.communities@inverclyde.gov.uk,Inverclyde,http://www.inverclyde.gov.uk/business-and-trade/food-safety-and-standards/,-4.76399800000000,PA15 1YA,2015-01-26,fhis_pass_en-GB,Pass,,FHIS,
442730,13  Brachelston Street Greenock,,,,Yorston Off Sales,Retailers - other,4613,,,356,,,55.94600500000000,00/01639/COMM,778,safer.communities@inverclyde.gov.uk,Inverclyde,http://www.inverclyde.gov.uk/business-and-trade/food-safety-and-standards/,-4.77254600000000,PA16 9AB,2014-09-03,fhis_improvement_required_en-GB,Improvement Required,,FHIS,
442731,Stewart Place Bridge Of Weir Road Kilmacolm,,,,Your Local Boots Pharmacy,Retailers - other,4613,,,524,,,55.89394000000000,00/06134/COMM,778,safer.communities@inverclyde.gov.uk,Inverclyde,http://www.inverclyde.gov.uk/business-and-trade/food-safety-and-standards/,-4.62679900000000,PA13 4AF,2010-03-04,fhis_pass_en-GB,Pass,,FHIS,
442732,80 Leven Road Greenock,,,,Youth Connections,Other catering premises,7841,,,422,,,55.93284300000000,00/05275/COMM,778,safer.communities@inverclyde.gov.uk,Inverclyde,http://www.inverclyde.gov.uk/business-and-trade/food-safety-and-standards/,-4.73729100000000,PA15 3DX,2010-06-01,fhis_pass_en-GB,Pass,,FHIS,
442733,1A Hamilton Gate Oak Mall Greenock,,,,Zumo,Other catering premises,7841,,,467,,,55.94927700000000,00/05917/COMM,778,safer.communities@inverclyde.gov.uk,Inverclyde,http://www.inverclyde.gov.uk/business-and-trade/food-safety-and-standards/,-4.75930800000000,PA15 1JW,2014-11-25,fhis_pass_en-GB,Pass,,FHIS,
