,addressline1,addressline2,addressline3,addressline4,businessname,businesstype,businesstypeid,confidenceinmanagement,extractdate,fhrsid,hygiene,itemcount,latitude,localauthoritybusinessid,localauthoritycode,localauthorityemailaddress,localauthorityname,localauthoritywebsite,longitude,postcode,ratingdate,ratingkey,ratingvalue,returncode,schemetype,structural
442734,Roslin Post Office 37 Main Street Roslin Midlothian,,,,A S Cooper Newsagency,Retailers - other,4613,,,158928,,,55.85772000000000,MIXED/05/0659,783,foodandsafety@midlothian.gov.uk,Midlothian,http://www.midlothian.gov.uk,-3.16559200000000,EH25 9LA,2014-11-25,fhis_pass_en-GB,Pass,,FHIS,
442735,A Wahlberg And Son 63-65 Main Street Pathhead Midlothian,,,,A Wahlberg & Sons,Manufacturers/packers,7839,,,158926,,,55.86827800000000,MIXED/05/0653,783,foodandsafety@midlothian.gov.uk,Midlothian,http://www.midlothian.gov.uk,-2.96876100000000,EH37 5PZ,2013-11-20,fhis_pass_en-GB,Pass,,FHIS,
442736,Aaron Glen 7 Nivensknowe Road Loanhead Midlothian,,,,Aaron Glen Guest House,Hotel/bed & breakfast/guest house,7842,,,158957,,,55.87543600000000,MIXED/05/0734,783,foodandsafety@midlothian.gov.uk,Midlothian,http://www.midlothian.gov.uk,-3.16781700000000,EH20 9AU,2012-11-12,fhis_exempt_en-GB,Exempt,,FHIS,
442737,Aaron House Nursing Home Edinburgh Road Penicuik Midlothian,,,,Aaron Nursing Home,Hospitals/Childcare/Caring Premises,5,,,157837,,,55.84040000000000,FOOD/05/0762,783,foodandsafety@midlothian.gov.uk,Midlothian,http://www.midlothian.gov.uk,-3.21163900000000,EH26 0QF,2014-05-15,fhis_pass_en-GB,Pass,,FHIS,
442738,3 Eskview Villas Eskbank Dalkeith Midlothian,,,,Abacus Nursery,Hospitals/Childcare/Caring Premises,5,,,158818,,,55.89044700000000,MIXED/05/0273,783,foodandsafety@midlothian.gov.uk,Midlothian,http://www.midlothian.gov.uk,-3.08069400000000,EH22 3BN,2014-06-13,fhis_pass_en-GB,Pass,,FHIS,
442739,Scottish Qualifications Authority 24 Wester Shawfair Danderhall Midlothian,,,,Albacore,Restaurant/Cafe/Canteen,1,,,201434,,,55.90774200000000,MIXED/11/0078,783,foodandsafety@midlothian.gov.uk,Midlothian,http://www.midlothian.gov.uk,-3.10014700000000,EH22 1FD,2013-10-23,fhis_pass_en-GB,Pass,,FHIS,
442740,31 - 33 McNeill Avenue Loanhead Midlothian,,,,Ali Brothers,Retailers - other,4613,,,158937,,,55.87888500000000,MIXED/05/0685,783,foodandsafety@midlothian.gov.uk,Midlothian,http://www.midlothian.gov.uk,-3.16036000000000,EH20 9LR,2013-05-14,fhis_improvement_required_en-GB,Improvement Required,,FHIS,
442741,85 Clerk Street Loanhead Midlothian,,,,Allan Smith,Manufacturers/packers,7839,,,157800,,,55.87841300000000,FOOD/05/0125,783,foodandsafety@midlothian.gov.uk,Midlothian,http://www.midlothian.gov.uk,-3.14938100000000,EH20 9RE,2013-10-23,fhis_pass_en-GB,Pass,,FHIS,
442742,137 Main Street Newtongrange Midlothian,,,,Allan Smith Baker,Retailers - other,4613,,,158921,,,55.86461100000000,MIXED/05/0641,783,foodandsafety@midlothian.gov.uk,Midlothian,http://www.midlothian.gov.uk,-3.06663500000000,EH22 4PF,2011-08-25,fhis_pass_en-GB,Pass,,FHIS,
442743,22 High Street Bonnyrigg Midlothian,,,,Allan Smith Bakers,Retailers - other,4613,,,158827,,,55.87529200000000,MIXED/05/0323,783,foodandsafety@midlothian.gov.uk,Midlothian,http://www.midlothian.gov.uk,-3.10656500000000,EH19 2AA,2014-09-02,fhis_pass_en-GB,Pass,,FHIS,
442744,24 Pendreich Terrace Bonnyrigg,,,,Alzheimer Scotland,Restaurant/Cafe/Canteen,1,,,633278,,,55.87910600000000,FOOD/14/0003,783,foodandsafety@midlothian.gov.uk,Midlothian,http://www.midlothian.gov.uk,-3.10008800000000,EH19 2DS,2014-02-10,fhis_pass_en-GB,Pass,,FHIS,
442745,Danderhall Community Centre 1B Campview Danderhall Midlothian,,,,Annies Cafe,Restaurant/Cafe/Canteen,1,,,157795,,,55.91208000000000,FOOD/05/0078,783,foodandsafety@midlothian.gov.uk,Midlothian,http://www.midlothian.gov.uk,-3.10638100000000,EH22 1QD,2014-02-27,fhis_pass_en-GB,Pass,,FHIS,
442746,Archview Lodge Nursing Home Newmills Road Dalkeith Midlothian,,,,Archview Lodge Nursing Home,Hospitals/Childcare/Caring Premises,5,,,157831,,,55.89198000000000,FOOD/05/0717,783,foodandsafety@midlothian.gov.uk,Midlothian,http://www.midlothian.gov.uk,-3.06671400000000,EH22 2AH,2014-12-16,fhis_pass_en-GB,Pass,,FHIS,
442747,Ark House 76 Windsor Square Kirkhill Penicuik Midlothian,,,,Ark Housing Association Ltd,Hospitals/Childcare/Caring Premises,5,,,159015,,,55.83454100000000,MIXED/05/0924,783,foodandsafety@midlothian.gov.uk,Midlothian,http://www.midlothian.gov.uk,-3.21252700000000,EH26 8ET,2014-10-22,fhis_pass_en-GB,Pass,,FHIS,
442748,Territorial Army Castlelaw Penicuik Midlothian,,,,Army Training,Restaurant/Cafe/Canteen,1,,,157834,,,55.86016600000000,FOOD/05/0756,783,foodandsafety@midlothian.gov.uk,Midlothian,http://www.midlothian.gov.uk,-3.23265700000000,EH26 0PB,2014-11-26,fhis_pass_en-GB,Pass,,FHIS,
442749,Arniston House U68 - Carrington Barns Road Carrington Gorebridge Midlothian,,,,Arniston House,Restaurant/Cafe/Canteen,1,,,158822,,,55.82424900000000,MIXED/05/0284,783,foodandsafety@midlothian.gov.uk,Midlothian,http://www.midlothian.gov.uk,-3.07068500000000,EH23 4RY,2014-08-11,fhis_pass_en-GB,Pass,,FHIS,
442750,Arniston Miners Club Engine Road Gorebridge Midlothian,,,,Arniston Miners Welfare Club,Pub/bar/nightclub,7843,,,158810,,,55.84743700000000,MIXED/05/0240,783,foodandsafety@midlothian.gov.uk,Midlothian,http://www.midlothian.gov.uk,-3.05750700000000,EH23 4AQ,2014-02-04,fhis_pass_en-GB,Pass,,FHIS,
442751,Stobhill Primary School 1 Bonnybank Road Gorebridge Midlothian,,,,Arniston Playgroup,Hospitals/Childcare/Caring Premises,5,,,159096,,,55.84531900000000,MIXED/08/0023,783,foodandsafety@midlothian.gov.uk,Midlothian,http://www.midlothian.gov.uk,-3.04256500000000,EH23 4DT,2014-05-19,fhis_improvement_required_en-GB,Improvement Required,,FHIS,
442752,Asda New Pentland Loanhead Midlothian,,,,Asda Stores Ltd,Retailers - supermarkets/hypermarkets,7840,,,201422,,,55.87187900000000,MIXED/11/0068,783,foodandsafety@midlothian.gov.uk,Midlothian,http://www.midlothian.gov.uk,-3.17799400000000,,2014-10-20,fhis_pass_en-GB,Pass,,FHIS,
442753,Ashlea Redwoods House Nursing Home Newbattle Road Eskbank Dalkeith Midlothian,,,,Ash Lea Residential Unit,Hospitals/Childcare/Caring Premises,5,,,158954,,,55.87497600000000,MIXED/05/0727,783,foodandsafety@midlothian.gov.uk,Midlothian,http://www.midlothian.gov.uk,-3.06808600000000,EH22 4TJ,2014-06-12,fhis_pass_en-GB,Pass,,FHIS,
442754,Ashiana Restaurant 10 Eskbank Road Dalkeith Midlothian,,,,Ashiana,Restaurant/Cafe/Canteen,1,,,633280,,,55.89300400000000,MIXED/12/0001,783,foodandsafety@midlothian.gov.uk,Midlothian,http://www.midlothian.gov.uk,-3.07288200000000,EH22 1UU,2014-07-10,fhis_improvement_required_en-GB,Improvement Required,,FHIS,
442755,Aytoun Fine Meats 13 Eskdaill Court Dalkeith Midlothian,,,,Aytoun Butchers,Manufacturers/packers,7839,,,158814,,,55.89316500000000,MIXED/05/0260,783,foodandsafety@midlothian.gov.uk,Midlothian,http://www.midlothian.gov.uk,-3.06989600000000,EH22 1AG,2014-07-07,fhis_pass_en-GB,Pass,,FHIS,
442756,60-64 Hunterfield Road Gorebridge Midlothian,,,,B & N Mini Market (Key Store),Retailers - other,4613,,,159046,,,55.84506400000000,MIXED/05/1052,783,foodandsafety@midlothian.gov.uk,Midlothian,http://www.midlothian.gov.uk,-3.05036800000000,EH23 4TT,2014-08-22,fhis_improvement_required_en-GB,Improvement Required,,FHIS,
442757,3 Hopefield Park Bonnyrigg Midlothian,,,,B And E Millar,Retailers - other,4613,,,158863,,,55.87078900000000,MIXED/05/0452,783,foodandsafety@midlothian.gov.uk,Midlothian,http://www.midlothian.gov.uk,-3.11374100000000,EH19 2NE,2015-01-13,fhis_pass_en-GB,Pass,,FHIS,
442758,24 High Street Dalkeith Midlothian,,,,B&M Stores,Retailers - other,4613,,,159111,,,55.89341000000000,MIXED/09/0020,783,foodandsafety@midlothian.gov.uk,Midlothian,http://www.midlothian.gov.uk,-3.07164600000000,EH22 1HR,2014-06-05,fhis_pass_en-GB,Pass,,FHIS,
442759,44A John Street Penicuik,,,,Babu G,Restaurant/Cafe/Canteen,1,,,728239,,,55.82734700000000,MIXED/14/0030,783,foodandsafety@midlothian.gov.uk,Midlothian,http://www.midlothian.gov.uk,-3.22224800000000,EH26 8AB,2014-12-10,fhis_improvement_required_en-GB,Improvement Required,,FHIS,
442760,99 High Street Dalkeith Midlothian,,,,Baguette Express,Takeaway/sandwich shop,7844,,,158757,,,55.89483200000000,MIXED/05/0004,783,foodandsafety@midlothian.gov.uk,Midlothian,http://www.midlothian.gov.uk,-3.06933500000000,EH22 1AX,2014-04-08,fhis_pass_en-GB,Pass,,FHIS,
442761,Costco Costkea Way Loanhead Midlothian,,,,Bakery,Manufacturers/packers,7839,,,564176,,,55.87983700000000,MIXED/13/0042,783,foodandsafety@midlothian.gov.uk,Midlothian,http://www.midlothian.gov.uk,-3.16799700000000,EH20 9BY,2014-11-27,fhis_pass_en-GB,Pass,,FHIS,
442762,Pentland Science Park Bush Loan Road Bilston Roslin Midlothian,,,,Baxterstorey,Restaurant/Cafe/Canteen,1,,,158773,,,55.85737100000000,MIXED/05/0076,783,foodandsafety@midlothian.gov.uk,Midlothian,http://www.midlothian.gov.uk,-3.19532900000000,EH26 0PZ,2014-03-21,fhis_pass_en-GB,Pass,,FHIS,
442763,9 Jarnac Court Dalkeith Midlothian,,,,Bayne's Bakers,Retailers - other,4613,,,564168,,,55.89371900000000,MIXED/11/0091,783,foodandsafety@midlothian.gov.uk,Midlothian,http://www.midlothian.gov.uk,-3.07031100000000,EH22 1HU,2014-12-22,fhis_pass_en-GB,Pass,,FHIS,
442764,Beeslack Community High School Penicuik,,,,Beeslack High School,School/college/university,7845,,,157836,,,55.84040000000000,FOOD/05/0761,783,foodandsafety@midlothian.gov.uk,Midlothian,http://www.midlothian.gov.uk,-3.21163900000000,EH26 0QF,2013-12-16,fhis_pass_en-GB,Pass,,FHIS,
442765,Beijing Banquet 17 Maulsford Avenue Danderhall Midlothian,,,,Beijing Banquet,Restaurant/Cafe/Canteen,1,,,159144,,,55.91046300000000,MIXED/11/0034,783,foodandsafety@midlothian.gov.uk,Midlothian,http://www.midlothian.gov.uk,-3.10932700000000,EH22 1PJ,2013-12-03,fhis_pass_en-GB,Pass,,FHIS,
442766,1 Jarnac Court Dalkeith Midlothian,,,,Best Grocer,Retailers - other,4613,,,670072,,,55.89371900000000,MIXED/10/0064,783,foodandsafety@midlothian.gov.uk,Midlothian,http://www.midlothian.gov.uk,-3.07031100000000,EH22 1HU,2014-05-30,fhis_pass_en-GB,Pass,,FHIS,
442767,2 Woodburn Terrace Dalkeith Midlothian,,,,Best One,Retailers - other,4613,,,159023,,,55.89178400000000,MIXED/05/0944,783,foodandsafety@midlothian.gov.uk,Midlothian,http://www.midlothian.gov.uk,-3.04662500000000,EH22 2HU,2014-02-13,fhis_improvement_required_en-GB,Improvement Required,,FHIS,
442768,1 Whitehill Lodge Whitehill Drive Dalkeith Midlothian,,,,Bield Housing Association,Hospitals/Childcare/Caring Premises,5,,,159012,,,55.88927700000000,MIXED/05/0919,783,foodandsafety@midlothian.gov.uk,Midlothian,http://www.midlothian.gov.uk,-3.04865200000000,EH22 2LG,2013-11-14,fhis_pass_en-GB,Pass,,FHIS,
442769,Baldwin Court Sheltered Housing Baldwin Court Cairn Bank Road Penicuik Midlothian,,,,Bield Housing Association Ltd,Restaurant/Cafe/Canteen,1,,,158760,,,55.82512000000000,MIXED/05/0017,783,foodandsafety@midlothian.gov.uk,Midlothian,http://www.midlothian.gov.uk,-3.22390200000000,EH26 9EH,2014-04-09,fhis_pass_en-GB,Pass,,FHIS,
442770,114 Rullion Road Penicuik,,,,Big Reds Chilli Company,Retailers - other,4613,,,733800,,,55.82846100000000,FOOD/14/0052,783,foodandsafety@midlothian.gov.uk,Midlothian,http://www.midlothian.gov.uk,-3.24187100000000,EH26 9JA,,fhis_awaiting_inspection_en-GB,Awaiting Inspection,,FHIS,
442771,Bilston Miners Welfare Club Seafield Road Bilston Roslin Midlothian,,,,Bilston Miners Club,Pub/bar/nightclub,7843,,,158989,,,55.87200500000000,MIXED/05/0827,783,foodandsafety@midlothian.gov.uk,Midlothian,http://www.midlothian.gov.uk,-3.17895000000000,EH25 9RW,2012-12-14,fhis_pass_en-GB,Pass,,FHIS,
442772,Bilston Post Office 5 Meadow Place Bilston Roslin Midlothian,,,,Bilston Post Office,Retailers - other,4613,,,158938,,,55.87081500000000,MIXED/05/0686,783,foodandsafety@midlothian.gov.uk,Midlothian,http://www.midlothian.gov.uk,-3.17840200000000,EH25 9RT,2009-11-06,fhis_pass_en-GB,Pass,,FHIS,
442773,South Lodge Glencorse House Milton Bridge Penicuik Midlothian,,,,Blackberry Cuisine Ltd,Restaurant/Cafe/Canteen,1,,,157894,,,55.85514800000000,FOOD/08/0030,783,foodandsafety@midlothian.gov.uk,Midlothian,http://www.midlothian.gov.uk,-3.21046900000000,EH26 0NZ,2014-02-24,fhis_pass_en-GB,Pass,,FHIS,
442774,202 High Street Dalkeith Midlothian,,,,Bombay Lounge,Restaurant/Cafe/Canteen,1,,,159141,,,55.89616300000000,MIXED/11/0015,783,foodandsafety@midlothian.gov.uk,Midlothian,http://www.midlothian.gov.uk,-3.06710100000000,EH22 1AZ,2014-09-25,fhis_improvement_required_en-GB,Improvement Required,,FHIS,
442775,Bonnyrigg Bowling Club King George V Park Bonnyrigg Midlothian,,,,Bonnyrigg Bowling Club,Restaurant/Cafe/Canteen,1,,,158892,,,55.82099914550781,MIXED/05/0556,783,foodandsafety@midlothian.gov.uk,Midlothian,http://www.midlothian.gov.uk,-3.10899996757507,EH19 2AD,2014-02-25,fhis_pass_en-GB,Pass,,FHIS,
442776,Bonnyrigg Leisure Centre King George V Park Bonnyrigg Midlothian,,,,Bonnyrigg Leisure Centre,Restaurant/Cafe/Canteen,1,,,157819,,,55.87741900000000,FOOD/05/0555,783,foodandsafety@midlothian.gov.uk,Midlothian,http://www.midlothian.gov.uk,-3.10987100000000,EH19 2AD,2013-04-23,fhis_exempt_en-GB,Exempt,,FHIS,
442777,Bonnyrigg Newsagents 8 - 10 Dundas Street Bonnyrigg Midlothian,,,,Bonnyrigg Mini Market,Retailers - other,4613,,,158798,,,55.87437500000000,MIXED/05/0186,783,foodandsafety@midlothian.gov.uk,Midlothian,http://www.midlothian.gov.uk,-3.10460500000000,EH19 3AS,2014-02-24,fhis_pass_en-GB,Pass,,FHIS,
442778,Pitcairn Centre 61 High Street Bonnyrigg Midlothian,,,,Bonnyrigg Parish Church Pitcairn Centre,Restaurant/Cafe/Canteen,1,,,158832,,,55.87669900000000,MIXED/05/0345,783,foodandsafety@midlothian.gov.uk,Midlothian,http://www.midlothian.gov.uk,-3.10697300000000,EH19 2DB,2014-08-26,fhis_pass_en-GB,Pass,,FHIS,
442779,Waverley Pavillion Waverley Park Bonnyrigg,,,,Bonnyrigg Playgroup,Hospitals/Childcare/Caring Premises,5,,,733805,,,55.87654600000000,MIXED/14/0009,783,foodandsafety@midlothian.gov.uk,Midlothian,http://www.midlothian.gov.uk,-3.09993500000000,EH19 3BU,,fhis_awaiting_inspection_en-GB,Awaiting Inspection,,FHIS,
442780,Bonnyrigg Primary School 1 Cockpen Road Bonnyrigg Midlothian,,,,Bonnyrigg Primary School,School/college/university,7845,,,157906,,,55.87107900000000,FOOD/09/0047,783,foodandsafety@midlothian.gov.uk,Midlothian,http://www.midlothian.gov.uk,-3.09748000000000,EH19 3HR,2014-02-20,fhis_pass_en-GB,Pass,,FHIS,
442781,Bonnyrigg Rose Social Club 27A Lothian Street Bonnyrigg Midlothian,,,,Bonnyrigg Rose Social Club,Pub/bar/nightclub,7843,,,158906,,,55.87548600000000,MIXED/05/0597,783,foodandsafety@midlothian.gov.uk,Midlothian,http://www.midlothian.gov.uk,-3.10396600000000,EH19 3AE,2014-02-07,fhis_improvement_required_en-GB,Improvement Required,,FHIS,
442782,29A Eskdale Terrace Bonnyrigg Midlothian,,,,Bonnyrigg Sports Bar,Restaurant/Cafe/Canteen,1,,,158816,,,55.87508200000000,MIXED/05/0267,783,foodandsafety@midlothian.gov.uk,Midlothian,http://www.midlothian.gov.uk,-3.11488700000000,EH19 2BH,2013-02-21,fhis_pass_en-GB,Pass,,FHIS,
442783,102 Windsor Drive Kirkhill Penicuik Midlothian,,,,Braeside Apiaries,Farmers/growers,7838,,,157855,,,55.83496500000000,FOOD/05/0959,783,foodandsafety@midlothian.gov.uk,Midlothian,http://www.midlothian.gov.uk,-3.21056000000000,EH26 8EP,2012-11-07,fhis_exempt_en-GB,Exempt,,FHIS,
442784,New Braidwood Farm Braidwood Farm Silverburn Penicuik Midlothian,,,,Braidwood Farm,Hotel/bed & breakfast/guest house,7842,,,159103,,,55.81781700000000,MIXED/08/0055,783,foodandsafety@midlothian.gov.uk,Midlothian,http://www.midlothian.gov.uk,-3.28788000000000,EH26 9LP,2014-01-28,fhis_exempt_en-GB,Exempt,,FHIS,
442785,Cockpen School House Cockpen Road Bonnyrigg Midlothian,,,,Bright Sparks Playgroup,Restaurant/Cafe/Canteen,1,,,159125,,,55.86928600000000,MIXED/10/0025,783,foodandsafety@midlothian.gov.uk,Midlothian,http://www.midlothian.gov.uk,-3.09493700000000,EH19 3HS,2012-10-15,fhis_pass_en-GB,Pass,,FHIS,
442786,7 Bellman's Road Penicuik Midlothian,,,,Broomhill Day Centre,Hospitals/Childcare/Caring Premises,5,,,159026,,,55.83165200000000,MIXED/05/0974,783,foodandsafety@midlothian.gov.uk,Midlothian,http://www.midlothian.gov.uk,-3.22928000000000,EH26 0AB,2015-01-06,fhis_pass_en-GB,Pass,,FHIS,
442787,Broomieknowe Golf Course 36 Golf Course Road Bonnyrigg Midlothian,,,,Broomieknowe Golf Club,Restaurant/Cafe/Canteen,1,,,158821,,,55.88095500000000,MIXED/05/0283,783,foodandsafety@midlothian.gov.uk,Midlothian,http://www.midlothian.gov.uk,-3.10434500000000,EH19 2HZ,2014-07-04,fhis_pass_en-GB,Pass,,FHIS,
442788,Lasswade High School Centre 9 Eskdale Drive Bonnyrigg Midlothian,,,,Busy Bees,Hospitals/Childcare/Caring Premises,5,,,157867,,,55.87378500000000,FOOD/07/0005,783,foodandsafety@midlothian.gov.uk,Midlothian,http://www.midlothian.gov.uk,-3.11727900000000,EH19 2LA,2014-01-16,fhis_pass_en-GB,Pass,,FHIS,
442789,Cafe 360 Midlothian Ski Centre Biggar Road Silverburn Penicuik Midlothian,,,,Cafe 360,Restaurant/Cafe/Canteen,1,,,157898,,,55.89243200000000,FOOD/08/0045,783,foodandsafety@midlothian.gov.uk,Midlothian,http://www.midlothian.gov.uk,-3.20189200000000,EH10 7DU,2013-10-30,fhis_pass_en-GB,Pass,,FHIS,
442790,51A High Street Bonnyrigg Midlothian,,,,Cafe Fresco,Restaurant/Cafe/Canteen,1,,,159149,,,55.87669900000000,MIXED/11/0062,783,foodandsafety@midlothian.gov.uk,Midlothian,http://www.midlothian.gov.uk,-3.10697300000000,EH19 2DB,2014-03-11,fhis_improvement_required_en-GB,Improvement Required,,FHIS,
442791,15 Jarnac Court Dalkeith Midlothian,,,,Cafe Troy,Restaurant/Cafe/Canteen,1,,,158878,,,55.89371900000000,MIXED/05/0483,783,foodandsafety@midlothian.gov.uk,Midlothian,http://www.midlothian.gov.uk,-3.07031100000000,EH22 1HU,2013-12-13,fhis_pass_en-GB,Pass,,FHIS,
442792,The Calderwood Arms 24 Dundas Street Bonnyrigg Midlothian,,,,Calderwood Arms,Pub/bar/nightclub,7843,,,158796,,,55.87437500000000,MIXED/05/0182,783,foodandsafety@midlothian.gov.uk,Midlothian,http://www.midlothian.gov.uk,-3.10460500000000,EH19 3AS,2014-04-08,fhis_pass_en-GB,Pass,,FHIS,
442793,Canton Chinese Carryout 58 High Street Bonnyrigg Midlothian,,,,Canton Chinese Carryout,Takeaway/sandwich shop,7844,,,158831,,,55.87607800000000,MIXED/05/0338,783,foodandsafety@midlothian.gov.uk,Midlothian,http://www.midlothian.gov.uk,-3.10711500000000,EH19 2AB,2014-09-05,fhis_pass_en-GB,Pass,,FHIS,
442794,30 High Street Dalkeith,,,,Card Factory,Retailers - other,4613,,,158838,,,55.89341000000000,MIXED/05/0371,783,foodandsafety@midlothian.gov.uk,Midlothian,http://www.midlothian.gov.uk,-3.07164600000000,EH22 1HR,2014-05-05,fhis_exempt_en-GB,Exempt,,FHIS,
442795,9 Andrew Dodds Avenue Mayfield Dalkeith,,,,Catering Juan,Other catering premises,7841,,,670071,,,55.87554700000000,FOOD/14/0029,783,foodandsafety@midlothian.gov.uk,Midlothian,http://www.midlothian.gov.uk,-3.04025900000000,EH22 5BQ,2014-05-20,fhis_pass_en-GB,Pass,,FHIS,
442796,12A Stobhill Road Gowkshill Gorebridge Midlothian,,,,Caulfields,Retailers - other,4613,,,159060,,,55.85720200000000,MIXED/06/0041,783,foodandsafety@midlothian.gov.uk,Midlothian,http://www.midlothian.gov.uk,-3.05568000000000,EH23 4PJ,2014-03-07,fhis_pass_en-GB,Pass,,FHIS,
442797,Cavaliere Restaurant 126 - 128 High Street Dalkeith Midlothian,,,,Cavaliere Restaurant,Restaurant/Cafe/Canteen,1,,,158849,,,55.89464800000000,MIXED/05/0412,783,foodandsafety@midlothian.gov.uk,Midlothian,http://www.midlothian.gov.uk,-3.06878600000000,EH22 1AU,2014-02-13,fhis_improvement_required_en-GB,Improvement Required,,FHIS,
442798,12 Windrush Drive Edinburgh,,,,CB's Fresh Fish VE07 HRX,Mobile caterer,7846,,,655636,,,55.98294800000000,STTRAD/10/0059,783,foodandsafety@midlothian.gov.uk,Midlothian,http://www.midlothian.gov.uk,-3.19312600000000,EH6 4TN,2014-03-25,fhis_pass_en-GB,Pass,,FHIS,
442799,Vogrie Country Park Vogrie House Gorebridge,,,,Cedar Tree Cafe,Restaurant/Cafe/Canteen,1,,,157862,,,55.85778900000000,FOOD/05/1035,783,foodandsafety@midlothian.gov.uk,Midlothian,http://www.midlothian.gov.uk,-2.99716100000000,EH23 4NU,2013-02-15,fhis_pass_en-GB,Pass,,FHIS,
442800,Campend House Old Dalkeith Road Danderhall Midlothian,,,,Chapter One Childcare,Hospitals/Childcare/Caring Premises,5,,,249071,,,55.90310200000000,MIXED/12/0003,783,foodandsafety@midlothian.gov.uk,Midlothian,http://www.midlothian.gov.uk,-3.09654500000000,EH22 1RS,2015-01-22,fhis_pass_en-GB,Pass,,FHIS,
442801,33 Polton Street Bonnyrigg Midlothian,,,,Chase,Pub/bar/nightclub,7843,,,158973,,,55.87471800000000,MIXED/05/0787,783,foodandsafety@midlothian.gov.uk,Midlothian,http://www.midlothian.gov.uk,-3.10646900000000,EH19 3HB,2013-10-29,fhis_improvement_required_en-GB,Improvement Required,,FHIS,
442802,6 Dryden Road Loanhead Midlothian,,,,Chequers,Restaurant/Cafe/Canteen,1,,,159089,,,55.87981000000000,MIXED/07/0091,783,foodandsafety@midlothian.gov.uk,Midlothian,http://www.midlothian.gov.uk,-3.15877100000000,EH20 9TY,2013-12-23,fhis_improvement_required_en-GB,Improvement Required,,FHIS,
442803,Cherry Road Resource Centre 8 Cherry Road Bonnyrigg Midlothian,,,,Cherry Road Resource Centre,Hospitals/Childcare/Caring Premises,5,,,157799,,,55.87145700000000,FOOD/05/0103,783,foodandsafety@midlothian.gov.uk,Midlothian,http://www.midlothian.gov.uk,-3.10741500000000,EH19 3ED,2014-10-22,fhis_pass_en-GB,Pass,,FHIS,
442804,3 Hillside Cottages Cousland Dalkeith,,,,Childminder,Hospitals/Childcare/Caring Premises,5,,,728238,,,55.90445900000000,FOOD/13/0073,783,foodandsafety@midlothian.gov.uk,Midlothian,http://www.midlothian.gov.uk,-2.99608700000000,EH22 2PA,2015-01-16,fhis_exempt_en-GB,Exempt,,FHIS,
442805,3 Tipperwell Way Penicuik,,,,Childminder,Hospitals/Childcare/Caring Premises,5,,,655632,,,55.81044400000000,FOOD/13/0085,783,foodandsafety@midlothian.gov.uk,Midlothian,http://www.midlothian.gov.uk,-3.20223500000000,EH26 8QP,2014-04-22,fhis_exempt_en-GB,Exempt,,FHIS,
442806,2A Stone Place Mayfield Dalkeith Midlothian,,,,Chilli And Onion,Takeaway/sandwich shop,7844,,,159100,,,55.87009200000000,MIXED/08/0035,783,foodandsafety@midlothian.gov.uk,Midlothian,http://www.midlothian.gov.uk,-3.04353300000000,EH22 5PG,2014-10-22,fhis_improvement_required_en-GB,Improvement Required,,FHIS,
442807,49 Easthouses Road Easthouses Dalkeith Midlothian,,,,China China,Takeaway/sandwich shop,7844,,,159087,,,55.87960300000000,MIXED/07/0077,783,foodandsafety@midlothian.gov.uk,Midlothian,http://www.midlothian.gov.uk,-3.04931900000000,EH22 4EB,2014-09-08,fhis_improvement_required_en-GB,Improvement Required,,FHIS,
442808,34 Hughes Crescent Mayfield Dalkeith Midlothian,,,,Chocolate Mama's Cake Design,Other catering premises,7841,,,670070,,,55.87087100000000,FOOD/12/0016,783,foodandsafety@midlothian.gov.uk,Midlothian,http://www.midlothian.gov.uk,-3.03000200000000,EH22 5LU,2014-01-15,fhis_awaiting_inspection_en-GB,Awaiting Inspection,,FHIS,
442809,Gowkley Moss Milton Bridge Penicuik,,,,Cibo,Restaurant/Cafe/Canteen,1,,,159133,,,55.85870800000000,MIXED/10/0061,783,foodandsafety@midlothian.gov.uk,Midlothian,http://www.midlothian.gov.uk,-3.18720600000000,EH26 0NX,2014-11-19,fhis_improvement_required_en-GB,Improvement Required,,FHIS,
442810,Dalkeith Miners Club 8 Woodburn Road Dalkeith Midlothian,,,,Clan Caterers,Restaurant/Cafe/Canteen,1,,,159076,,,55.89226500000000,MIXED/07/0043,783,foodandsafety@midlothian.gov.uk,Midlothian,http://www.midlothian.gov.uk,-3.05759100000000,EH22 2AT,2013-07-05,fhis_pass_en-GB,Pass,,FHIS,
442811,Clark's Speciality Foods 98/6 Eastfield Drive Kirkhill Penicuik Midlothian,,,,Clarks Speciality Foods Ltd,Distributors/Transporters,7,,,201440,,,55.83381700000000,MIXED/05/0975,783,foodandsafety@midlothian.gov.uk,Midlothian,http://www.midlothian.gov.uk,-3.21761400000000,EH26 8HJ,2015-01-15,fhis_pass_en-GB,Pass,,FHIS,
442812,26 High Street Penicuik Midlothian,,,,Clippers Restaurant,Restaurant/Cafe/Canteen,1,,,159058,,,55.82639200000000,MIXED/06/0038,783,foodandsafety@midlothian.gov.uk,Midlothian,http://www.midlothian.gov.uk,-3.22241000000000,EH26 8HW,2011-09-08,fhis_pass_en-GB,Pass,,FHIS,
442813,Schoolhouse 4 Fala Pathhead Midlothian,,,,Clover Country Nursery,Hospitals/Childcare/Caring Premises,5,,,159066,,,55.83892300000000,MIXED/06/0057,783,foodandsafety@midlothian.gov.uk,Midlothian,http://www.midlothian.gov.uk,-2.89884200000000,EH37 5SY,2014-07-08,fhis_pass_en-GB,Pass,,FHIS,
442814,Coach And Horses 166 - 168 High Street Dalkeith Midlothian,,,,Coach & Horses,Pub/bar/nightclub,7843,,,158850,,,55.89528500000000,MIXED/05/0413,783,foodandsafety@midlothian.gov.uk,Midlothian,http://www.midlothian.gov.uk,-3.06790800000000,EH22 1AY,2014-04-23,fhis_exempt_en-GB,Exempt,,FHIS,
442815,Cockpen Parish Church Hall Dundas Street Bonnyrigg Midlothian,,,,Cockpen And Carrington Church Hall,Restaurant/Cafe/Canteen,1,,,158794,,,55.87382200000000,MIXED/05/0178,783,foodandsafety@midlothian.gov.uk,Midlothian,http://www.midlothian.gov.uk,-3.10422200000000,EH19 3AT,2013-05-02,fhis_exempt_en-GB,Exempt,,FHIS,
442816,Coffee Express 9 Eskdaill Court Dalkeith Midlothian,,,,Coffee Express,Restaurant/Cafe/Canteen,1,,,159043,,,55.89316500000000,MIXED/05/1039,783,foodandsafety@midlothian.gov.uk,Midlothian,http://www.midlothian.gov.uk,-3.06989600000000,EH22 1AG,2013-01-16,fhis_improvement_required_en-GB,Improvement Required,,FHIS,
442817,St Nicholas Buccleuch Church High Street Dalkeith Midlothian,,,,Coffee Shop,Restaurant/Cafe/Canteen,1,,,159083,,,55.89483200000000,MIXED/07/0070,783,foodandsafety@midlothian.gov.uk,Midlothian,http://www.midlothian.gov.uk,-3.06933500000000,EH22 1AX,2014-01-17,fhis_pass_en-GB,Pass,,FHIS,
442818,58 Queensway Penicuik Midlothian,,,,Community Facility,Restaurant/Cafe/Canteen,1,,,159090,,,55.83718600000000,MIXED/07/0126,783,foodandsafety@midlothian.gov.uk,Midlothian,http://www.midlothian.gov.uk,-3.22584600000000,EH26 0JJ,2014-03-03,fhis_pass_en-GB,Pass,,FHIS,
442819,Tesco Stores Ltd Hardengreen Bonnyrigg Road Eskbank Dalkeith Midlothian,,,,Compass Catering,Restaurant/Cafe/Canteen,1,,,564169,,,55.88307600000000,MIXED/12/0005,783,foodandsafety@midlothian.gov.uk,Midlothian,http://www.midlothian.gov.uk,-3.08515800000000,EH22 3PP,2015-01-29,fhis_pass_en-GB,Pass,,FHIS,
442820,27 Jarnac Court Dalkeith Midlothian,,,,Continental Cafe,Restaurant/Cafe/Canteen,1,,,158880,,,55.89371900000000,MIXED/05/0488,783,foodandsafety@midlothian.gov.uk,Midlothian,http://www.midlothian.gov.uk,-3.07031100000000,EH22 1HU,2013-09-30,fhis_pass_en-GB,Pass,,FHIS,
442821,2B Newton Church Road Danderhall Midlothian,,,,Co-operative,Retailers - other,4613,,,159073,,,55.91113900000000,MIXED/07/0019,783,foodandsafety@midlothian.gov.uk,Midlothian,http://www.midlothian.gov.uk,-3.11017800000000,EH22 1LT,2014-03-12,fhis_pass_en-GB,Pass,,FHIS,
442822,Cowan Court 1 Pentland Way Penicuik,,,,Coppertree Cafe And Cowan Court Residential,Restaurant/Cafe/Canteen,1,,,611153,,,,FOOD/13/0059,783,foodandsafety@midlothian.gov.uk,Midlothian,http://www.midlothian.gov.uk,,,2014-11-05,fhis_pass_en-GB,Pass,,FHIS,
442823,2 The Square Penicuik Midlothian,,,,Corfu Kebabs,Takeaway/sandwich shop,7844,,,159126,,,55.82563700000000,MIXED/10/0029,783,foodandsafety@midlothian.gov.uk,Midlothian,http://www.midlothian.gov.uk,-3.22243400000000,EH26 8LJ,2014-12-16,fhis_improvement_required_en-GB,Improvement Required,,FHIS,
442824,Cornbank St James Primary School 34 Marchburn Drive Penicuik Midlothian,,,,Cornbank St James Primary School,School/college/university,7845,,,158931,,,55.83004600000000,MIXED/05/0664,783,foodandsafety@midlothian.gov.uk,Midlothian,http://www.midlothian.gov.uk,-3.23896800000000,EH26 9HE,2014-03-31,fhis_pass_en-GB,Pass,,FHIS,
442825,Corner Pocket 24 - 26 Buccleuch Street Dalkeith Midlothian,,,,Corner Pocket Club,Pub/bar/nightclub,7843,,,158770,,,55.89276400000000,MIXED/05/0066,783,foodandsafety@midlothian.gov.uk,Midlothian,http://www.midlothian.gov.uk,-3.07154800000000,EH22 1HA,2013-01-14,fhis_pass_en-GB,Pass,,FHIS,
442826,Coronation Inn 68 Hunterfield Road Gorebridge Midlothian,,,,Coronation Inn,Restaurant/Cafe/Canteen,1,,,158867,,,55.84506400000000,MIXED/05/0460,783,foodandsafety@midlothian.gov.uk,Midlothian,http://www.midlothian.gov.uk,-3.05036800000000,EH23 4TT,2013-06-28,fhis_pass_en-GB,Pass,,FHIS,
442827,Costa Coffee Straiton Park Way Loanhead Midlothian,,,,Costa Coffee,Restaurant/Cafe/Canteen,1,,,159145,,,55.88463900000000,MIXED/11/0037,783,foodandsafety@midlothian.gov.uk,Midlothian,http://www.midlothian.gov.uk,-3.16288200000000,EH20 9PW,2013-07-03,fhis_pass_en-GB,Pass,,FHIS,
442828,Costco Costkea Way Loanhead Midlothian,,,,Costco,Distributors/Transporters,7,,,158901,,,55.87983700000000,MIXED/05/0585,783,foodandsafety@midlothian.gov.uk,Midlothian,http://www.midlothian.gov.uk,-3.16799700000000,EH20 9BY,2014-11-27,fhis_pass_en-GB,Pass,,FHIS,
442829,Costco Costkea Way Loanhead Midlothian,,,,Costco Butcher,Retailers - other,4613,,,564174,,,55.87983700000000,MIXED/13/0040,783,foodandsafety@midlothian.gov.uk,Midlothian,http://www.midlothian.gov.uk,-3.16799700000000,EH20 9BY,2014-11-27,fhis_pass_en-GB,Pass,,FHIS,
442830,Costco Costkea Way Loanhead Midlothian,,,,Costco Service Delicatessen,Retailers - other,4613,,,564175,,,55.87983700000000,MIXED/13/0041,783,foodandsafety@midlothian.gov.uk,Midlothian,http://www.midlothian.gov.uk,-3.16799700000000,EH20 9BY,2014-11-27,fhis_pass_en-GB,Pass,,FHIS,
442831,Eskbank Post Office 2 Station Road Eskbank Dalkeith Midlothian,,,,Costcutter,Retailers - other,4613,,,158996,,,55.88837300000000,MIXED/05/0847,783,foodandsafety@midlothian.gov.uk,Midlothian,http://www.midlothian.gov.uk,-3.08250700000000,EH22 3EU,2014-08-19,fhis_pass_en-GB,Pass,,FHIS,
442832,25 McNeill Avenue Loanhead Midlothian,,,,Cost-u-Less,Retailers - other,4613,,,158936,,,55.87808100000000,MIXED/05/0684,783,foodandsafety@midlothian.gov.uk,Midlothian,http://www.midlothian.gov.uk,-3.15990500000000,EH20 9LE,2011-07-13,fhis_pass_en-GB,Pass,,FHIS,
442833,County Hotel 156 High Street Dalkeith Midlothian,,,,County Hotel,Hotel/bed & breakfast/guest house,7842,,,158846,,,55.89528500000000,MIXED/05/0405,783,foodandsafety@midlothian.gov.uk,Midlothian,http://www.midlothian.gov.uk,-3.06790800000000,EH22 1AY,2013-10-11,fhis_pass_en-GB,Pass,,FHIS,
442834,Mayfield Labour Club Stone Place Mayfield Dalkeith Midlothian,,,,Court Caterers,Restaurant/Cafe/Canteen,1,,,159107,,,55.87152300000000,MIXED/08/0075,783,foodandsafety@midlothian.gov.uk,Midlothian,http://www.midlothian.gov.uk,-3.04224500000000,EH22 5PE,2014-12-22,fhis_pass_en-GB,Pass,,FHIS,
442835,3 Hadfast Road Cousland Dalkeith Midlothian,,,,Cousland Village Hall,Other catering premises,7841,,,158748,,,55.90421200000000,MIXED/04/0022,783,foodandsafety@midlothian.gov.uk,Midlothian,http://www.midlothian.gov.uk,-3.00215900000000,EH22 2QW,2014-03-17,fhis_exempt_en-GB,Exempt,,FHIS,
442836,Craigiebield Hotel Bog Road Penicuik,,,,Craigiebield  Hotel,Hotel/bed & breakfast/guest house,7842,,,201457,,,55.82800300000000,MIXED/05/0973,783,foodandsafety@midlothian.gov.uk,Midlothian,http://www.midlothian.gov.uk,-3.22673900000000,EH26 9BZ,2014-12-04,fhis_pass_en-GB,Pass,,FHIS,
442837,Cranston Primary School Edgehead Road Pathhead Midlothian,,,,Cranston Country Nursery,Hospitals/Childcare/Caring Premises,5,,,201445,,,55.87199800000000,MIXED/09/0043,783,foodandsafety@midlothian.gov.uk,Midlothian,http://www.midlothian.gov.uk,-2.99236300000000,EH37 5RG,2014-09-04,fhis_pass_en-GB,Pass,,FHIS,
442838,11 Jackson Street Penicuik Midlothian,,,,Crescent Snooker Club,Restaurant/Cafe/Canteen,1,,,158875,,,55.82760600000000,MIXED/05/0475,783,foodandsafety@midlothian.gov.uk,Midlothian,http://www.midlothian.gov.uk,-3.22331000000000,EH26 9BQ,2014-05-08,fhis_pass_en-GB,Pass,,FHIS,
442839,The Cuiken Inn 28 Edinburgh Road Penicuik Midlothian,,,,Cuiken Inn,Pub/bar/nightclub,7843,,,158806,,,55.83566300000000,MIXED/05/0232,783,foodandsafety@midlothian.gov.uk,Midlothian,http://www.midlothian.gov.uk,-3.22089700000000,EH26 8NW,2014-11-14,fhis_pass_en-GB,Pass,,FHIS,
442840,Cuiken Primary School 150 Cuiken Terrace Penicuik Midlothian,,,,Cuiken Primary School,School/college/university,7845,,,157907,,,55.83387700000000,FOOD/09/0048,783,foodandsafety@midlothian.gov.uk,Midlothian,http://www.midlothian.gov.uk,-3.23236800000000,EH26 0AH,2014-02-24,fhis_pass_en-GB,Pass,,FHIS,
442841,4 Woodburn Avenue Dalkeith Midlothian,,,,Cuneo's Cafe Ltd,Takeaway/sandwich shop,7844,,,478410,,,55.89223300000000,MIXED/11/0007,783,foodandsafety@midlothian.gov.uk,Midlothian,http://www.midlothian.gov.uk,-3.05613500000000,EH22 2BP,2014-11-13,fhis_pass_en-GB,Pass,,FHIS,
442842,Dalhousie Castle Hotel B704 From Cockpen Road To Brewers Bush Bonnyrigg Midlothian,,,,Dalhousie Castle Hotel,Hotel/bed & breakfast/guest house,7842,,,159029,,,55.86077900000000,MIXED/05/0981,783,foodandsafety@midlothian.gov.uk,Midlothian,http://www.midlothian.gov.uk,-3.08249100000000,EH19 3JB,2014-07-15,fhis_pass_en-GB,Pass,,FHIS,
442843,3 Dalhousie Place Bonnyrigg Midlothian,,,,Dalhousie News,Retailers - other,4613,,,158790,,,55.87124800000000,MIXED/05/0152,783,foodandsafety@midlothian.gov.uk,Midlothian,http://www.midlothian.gov.uk,-3.11952300000000,EH19 2LN,2014-01-16,fhis_pass_en-GB,Pass,,FHIS,
442844,Woodburn Primary School 5 Cousland Road Dalkeith Midlothian,,,,Dalkeith After School Club,Hospitals/Childcare/Caring Premises,5,,,157844,,,55.90166400000000,FOOD/05/0824,783,foodandsafety@midlothian.gov.uk,Midlothian,http://www.midlothian.gov.uk,-3.04497200000000,EH22 2PS,2012-10-01,fhis_pass_en-GB,Pass,,FHIS,
442845,Jehovahs Church 7 Edinburgh Road Dalkeith Midlothian,,,,Dalkeith Congregation Of Jehovah's Witnesses,Restaurant/Cafe/Canteen,1,,,158802,,,55.89479800000000,MIXED/05/0217,783,foodandsafety@midlothian.gov.uk,Midlothian,http://www.midlothian.gov.uk,-3.07011700000000,EH22 1LA,2014-08-13,fhis_exempt_en-GB,Exempt,,FHIS,
442846,28 High Street Dalkeith Midlothian,,,,Dalkeith Fruit Market,Retailers - other,4613,,,158837,,,55.89341000000000,MIXED/05/0370,783,foodandsafety@midlothian.gov.uk,Midlothian,http://www.midlothian.gov.uk,-3.07164600000000,EH22 1HR,2012-07-27,fhis_pass_en-GB,Pass,,FHIS,
442847,Dalkeith Miners Club 8 Woodburn Road Dalkeith Midlothian,,,,Dalkeith Miners Welfare Club,Pub/bar/nightclub,7843,,,159022,,,55.89226500000000,MIXED/05/0942,783,foodandsafety@midlothian.gov.uk,Midlothian,http://www.midlothian.gov.uk,-3.05759100000000,EH22 2AT,2014-02-06,fhis_improvement_required_en-GB,Improvement Required,,FHIS,
442848,Dalkeith Rugby Club Eskbank Road Dalkeith Midlothian,,,,Dalkeith Rugby Club,Pub/bar/nightclub,7843,,,158811,,,55.89127200000000,MIXED/05/0241,783,foodandsafety@midlothian.gov.uk,Midlothian,http://www.midlothian.gov.uk,-3.07569700000000,EH22 3BQ,2010-06-29,fhis_pass_en-GB,Pass,,FHIS,
442849,Dalkeith High School 2 Cousland Road Dalkeith Midlothian,,,,Dalkeith School Community Campus,School/college/university,7845,,,157854,,,55.90166400000000,FOOD/05/0958,783,foodandsafety@midlothian.gov.uk,Midlothian,http://www.midlothian.gov.uk,-3.04497200000000,EH22 2PS,2014-11-17,fhis_pass_en-GB,Pass,,FHIS,
442850,7 St Andrew Street Dalkeith Midlothian,,,,Dalkeith Takeaway,Takeaway/sandwich shop,7844,,,708521,,,55.89370200000000,MIXED/14/0053,783,foodandsafety@midlothian.gov.uk,Midlothian,http://www.midlothian.gov.uk,-3.06906400000000,EH22 1AL,2014-12-03,fhis_pass_en-GB,Pass,,FHIS,
442851,Danderhall Primary School 59 Edmonstone Road Danderhall Midlothian,,,,Danderhall After School Club,Hospitals/Childcare/Caring Premises,5,,,157808,,,55.91578200000000,FOOD/05/0236,783,foodandsafety@midlothian.gov.uk,Midlothian,http://www.midlothian.gov.uk,-3.11039100000000,EH22 1QL,2014-04-23,fhis_improvement_required_en-GB,Improvement Required,,FHIS,
442852,Miners Welfare Club 88 Edmonstone Road Danderhall Midlothian,,,,Danderhall Miners Social Club,Pub/bar/nightclub,7843,,,158808,,,55.91754800000000,MIXED/05/0237,783,foodandsafety@midlothian.gov.uk,Midlothian,http://www.midlothian.gov.uk,-3.11189700000000,EH22 1QU,2014-10-30,fhis_pass_en-GB,Pass,,FHIS,
442853,71 Newton Church Road Danderhall Midlothian,,,,Danderhall Pharmacy,Retailers - other,4613,,,158951,,,55.91276800000000,MIXED/05/0723,783,foodandsafety@midlothian.gov.uk,Midlothian,http://www.midlothian.gov.uk,-3.10680100000000,EH22 1LX,2009-12-23,fhis_exempt_en-GB,Exempt,,FHIS,
442854,Miners Welfare Club 88 Edmonstone Road Danderhall Midlothian,,,,Danderhall Playgroup,Hospitals/Childcare/Caring Premises,5,,,159147,,,55.91754800000000,MIXED/11/0049,783,foodandsafety@midlothian.gov.uk,Midlothian,http://www.midlothian.gov.uk,-3.11189700000000,EH22 1QU,2014-12-01,fhis_improvement_required_en-GB,Improvement Required,,FHIS,
442855,Danderhall Primary School 59 Edmonstone Road Danderhall Midlothian,,,,Danderhall Primary School,School/college/university,7845,,,157807,,,55.91578200000000,FOOD/05/0235,783,foodandsafety@midlothian.gov.uk,Midlothian,http://www.midlothian.gov.uk,-3.11039100000000,EH22 1QL,2014-10-24,fhis_pass_en-GB,Pass,,FHIS,
442856,Danderhall Primary School 59 Edmonstone Road Danderhall Midlothian,,,,Danderhall Primary School Nursery Class,Hospitals/Childcare/Caring Premises,5,,,157871,,,55.91578200000000,FOOD/07/0027,783,foodandsafety@midlothian.gov.uk,Midlothian,http://www.midlothian.gov.uk,-3.11039100000000,EH22 1QL,2014-01-29,fhis_pass_en-GB,Pass,,FHIS,
442857,Glencorse Golf Club Milton Bridge Penicuik Midlothian,,,,David Ross Catering,Restaurant/Cafe/Canteen,1,,,157891,,,55.84930700000000,FOOD/08/0021,783,foodandsafety@midlothian.gov.uk,Midlothian,http://www.midlothian.gov.uk,-3.20043200000000,EH26 0RD,2013-07-27,fhis_pass_en-GB,Pass,,FHIS,
442858,35 Glencross Gardens Penicuik Midlothian,,,,Dawn Holligan Childminder,Hospitals/Childcare/Caring Premises,5,,,341634,,,55.82887300000000,FOOD/12/0038,783,foodandsafety@midlothian.gov.uk,Midlothian,http://www.midlothian.gov.uk,-3.24301800000000,EH26 9HH,2014-10-30,fhis_exempt_en-GB,Exempt,,FHIS,
442859,44 Dundas Street Bonnyrigg Midlothian,,,,Day Today,Retailers - other,4613,,,159051,,,55.87437500000000,MIXED/06/0025,783,foodandsafety@midlothian.gov.uk,Midlothian,http://www.midlothian.gov.uk,-3.10460500000000,EH19 3AS,2014-02-25,fhis_pass_en-GB,Pass,,FHIS,
442860,106 Mayburn Avenue Loanhead,,,,Day Today Express,Retailers - other,4613,,,733804,,,55.88029300000000,MIXED/14/0006,783,foodandsafety@midlothian.gov.uk,Midlothian,http://www.midlothian.gov.uk,-3.15491900000000,EH20 9HB,2014-05-05,fhis_improvement_required_en-GB,Improvement Required,,FHIS,
442861,Dean Tavern 80 Main Street Newtongrange Midlothian,,,,Dean Tavern,Pub/bar/nightclub,7843,,,158916,,,55.86909300000000,MIXED/05/0631,783,foodandsafety@midlothian.gov.uk,Midlothian,http://www.midlothian.gov.uk,-3.06883500000000,EH22 4NA,2014-02-04,fhis_pass_en-GB,Pass,,FHIS,
442862,6 Lamb's Pend Penicuik Midlothian,,,,Deli-cious,Restaurant/Cafe/Canteen,1,,,564164,,,55.82655500000000,FOOD/12/0022,783,foodandsafety@midlothian.gov.uk,Midlothian,http://www.midlothian.gov.uk,-3.22228700000000,EH26 8HR,2015-01-06,fhis_pass_en-GB,Pass,,FHIS,
442863,28 Dryden Road Loanhead Midlothian,,,,Deli-Licious Catering Ltd,Other catering premises,7841,,,159132,,,55.87356100000000,MIXED/10/0049,783,foodandsafety@midlothian.gov.uk,Midlothian,http://www.midlothian.gov.uk,-3.16371700000000,EH20 9LZ,2014-04-03,fhis_pass_en-GB,Pass,,FHIS,
442864,31 Kippielaw Medway Dalkeith,,,,Dennys Chutney,Manufacturers/packers,7839,,,720055,,,55.88601300000000,FOOD/14/0062,783,foodandsafety@midlothian.gov.uk,Midlothian,http://www.midlothian.gov.uk,-3.05318500000000,EH22 4HX,2014-11-11,fhis_pass_en-GB,Pass,,FHIS,
442865,56 Clerk Street Loanhead Midlothian,,,,Dinos,Takeaway/sandwich shop,7844,,,158783,,,55.87841800000000,MIXED/05/0119,783,foodandsafety@midlothian.gov.uk,Midlothian,http://www.midlothian.gov.uk,-3.14890100000000,EH20 9RG,2014-02-27,fhis_pass_en-GB,Pass,,FHIS,
442866,Dobbie's Melville Nurseries Lasswade Midlothian,,,,Dobbies Farm Food Hall,Retailers - other,4613,,,158752,,,55.82099914550781,MIXED/04/0065,783,foodandsafety@midlothian.gov.uk,Midlothian,http://www.midlothian.gov.uk,-3.10899996757507,EH18 1AZ,2013-07-17,fhis_pass_en-GB,Pass,,FHIS,
442867,Dobbie's Melville Nurseries Lasswade Midlothian,,,,Dobbies Restaurant,Restaurant/Cafe/Canteen,1,,,158899,,,55.82099914550781,MIXED/05/0575,783,foodandsafety@midlothian.gov.uk,Midlothian,http://www.midlothian.gov.uk,-3.10899996757507,EH18 1AZ,2014-02-04,fhis_improvement_required_en-GB,Improvement Required,,FHIS,
442868,Easter Bush Research Centre Easter Bush Bilston Roslin Midlothian,,,,Dolly's,Restaurant/Cafe/Canteen,1,,,485272,,,55.86541600000000,MIXED/11/0057,783,foodandsafety@midlothian.gov.uk,Midlothian,http://www.midlothian.gov.uk,-3.19971500000000,EH25 9RG,2014-07-16,fhis_pass_en-GB,Pass,,FHIS,
442869,Drummond Grange Nursing Home 7 Kevock Road Lasswade Midlothian,,,,Drummond Grange Nursing Home,Hospitals/Childcare/Caring Premises,5,,,157818,,,55.87969900000000,FOOD/05/0552,783,foodandsafety@midlothian.gov.uk,Midlothian,http://www.midlothian.gov.uk,-3.12593700000000,EH18 1HT,2015-01-30,fhis_pass_en-GB,Pass,,FHIS,
442870,72 Dundas Street Bonnyrigg Midlothian,,,,Dundas Store,Retailers - other,4613,,,158797,,,55.87319100000000,MIXED/05/0185,783,foodandsafety@midlothian.gov.uk,Midlothian,http://www.midlothian.gov.uk,-3.10142300000000,EH19 3BB,2013-11-29,fhis_pass_en-GB,Pass,,FHIS,
442871,162 Eastfield Drive Kirkhill Penicuik Midlothian,,,,Eastfield Newsagents,Retailers - other,4613,,,158799,,,55.83069000000000,MIXED/05/0191,783,foodandsafety@midlothian.gov.uk,Midlothian,http://www.midlothian.gov.uk,-3.21216700000000,EH26 8DW,2012-05-24,fhis_pass_en-GB,Pass,,FHIS,
442872,65 Easthouses Road Easthouses Dalkeith Midlothian,,,,Easthouses Bowling Club,Pub/bar/nightclub,7843,,,158801,,,55.89365600000000,MIXED/05/0202,783,foodandsafety@midlothian.gov.uk,Midlothian,http://www.midlothian.gov.uk,-3.03793500000000,EH22 4EJ,2014-05-29,fhis_improvement_required_en-GB,Improvement Required,,FHIS,
442873,Easthouses Miners Institute Easthouses Road Easthouses Dalkeith,,,,Easthouses Miners Welfare And Social Club,Pub/bar/nightclub,7843,,,158800,,,55.88009500000000,MIXED/05/0200,783,foodandsafety@midlothian.gov.uk,Midlothian,http://www.midlothian.gov.uk,-3.04966800000000,EH22 4ED,2013-03-07,fhis_pass_en-GB,Pass,,FHIS,
442874,Dobbie's Melville Nurseries Lasswade Midlothian,,,,Edinburgh Butterfly And Insect World,Retailers - other,4613,,,158549,,,55.82099914550781,HELA/05/0576,783,foodandsafety@midlothian.gov.uk,Midlothian,http://www.midlothian.gov.uk,-3.10899996757507,EH18 1AZ,2013-04-15,fhis_exempt_en-GB,Exempt,,FHIS,
442875,46 Dalhousie Road Dalkeith,,,,Edinburgh College,Restaurant/Cafe/Canteen,1,,,157899,,,55.88349100000000,FOOD/08/0059,783,foodandsafety@midlothian.gov.uk,Midlothian,http://www.midlothian.gov.uk,-3.07976600000000,EH22 3NU,2013-09-27,fhis_pass_en-GB,Pass,,FHIS,
442876,111 Edmonstone Road Danderhall Midlothian,,,,Edmonstone Inn,Pub/bar/nightclub,7843,,,158809,,,55.91749900000000,MIXED/05/0238,783,foodandsafety@midlothian.gov.uk,Midlothian,http://www.midlothian.gov.uk,-3.11432800000000,EH22 1QX,2014-11-17,fhis_pass_en-GB,Pass,,FHIS,
442877,9 Gilmerton Road Dalkeith,,,,Elginhaugh Farm,Hotel/bed & breakfast/guest house,7842,,,720059,,,,MIXED/14/0056,783,foodandsafety@midlothian.gov.uk,Midlothian,http://www.midlothian.gov.uk,,,2014-10-27,fhis_pass_en-GB,Pass,,FHIS,
442878,Emily Court 153 Hunterfield Road Gorebridge Midlothian,,,,Emily Court (Sheltered Housing),Restaurant/Cafe/Canteen,1,,,158872,,,55.84847200000000,MIXED/05/0470,783,foodandsafety@midlothian.gov.uk,Midlothian,http://www.midlothian.gov.uk,-3.05529900000000,EH23 4AD,2014-01-30,fhis_exempt_en-GB,Exempt,,FHIS,
442879,Table Table Restaurant Melville Dykes Road Lasswade Midlothian,,,,Esk Valley Table Table,Restaurant/Cafe/Canteen,1,,,159142,,,55.88742000000000,MIXED/11/0027,783,foodandsafety@midlothian.gov.uk,Midlothian,http://www.midlothian.gov.uk,-3.09982800000000,EH18 1AN,2014-09-08,fhis_pass_en-GB,Pass,,FHIS,
442880,28 Eskbank Road Bonnyrigg Midlothian,,,,Eskbank Cakes,Other catering premises,7841,,,201458,,,55.87874700000000,FOOD/10/0031,783,foodandsafety@midlothian.gov.uk,Midlothian,http://www.midlothian.gov.uk,-3.09811200000000,EH19 3AW,2014-01-15,fhis_exempt_en-GB,Exempt,,FHIS,
442881,Glencorse Barracks Edinburgh Road Penicuik Midlothian,,,,ESS Support Services 2 SCOTS,Restaurant/Cafe/Canteen,1,,,157828,,,55.84375200000000,FOOD/05/0695,783,foodandsafety@midlothian.gov.uk,Midlothian,http://www.midlothian.gov.uk,-3.20423800000000,EH26 0NP,2011-07-28,fhis_pass_en-GB,Pass,,FHIS,
442882,4 Waverley Terrace Bonnyrigg Midlothian,,,,Ex Servicemans Club Bonnyrigg,Pub/bar/nightclub,7843,,,159008,,,55.87426900000000,MIXED/05/0904,783,foodandsafety@midlothian.gov.uk,Midlothian,http://www.midlothian.gov.uk,-3.10043100000000,EH19 3BE,2013-11-20,fhis_pass_en-GB,Pass,,FHIS,
442883,Fala Church Fala Pathhead Midlothian,,,,Fala Church Hall,Restaurant/Cafe/Canteen,1,,,158819,,,55.83892440795898,MIXED/05/0274,783,foodandsafety@midlothian.gov.uk,Midlothian,http://www.midlothian.gov.uk,-2.89884233474731,EH37 5SY,2009-11-24,fhis_exempt_en-GB,Exempt,,FHIS,
442884,Fala Hall Farm Fala Hall Road Fala Pathhead Midlothian,,,,Fala Hall Farm Bed And Breakfast,Hotel/bed & breakfast/guest house,7842,,,159082,,,55.84625200000000,MIXED/07/0065,783,foodandsafety@midlothian.gov.uk,Midlothian,http://www.midlothian.gov.uk,-2.89188800000000,EH37 5SZ,,fhis_awaiting_inspection_en-GB,Awaiting Inspection,,FHIS,
442885,2 - 3 Kentigern Mall Penicuik Midlothian,,,,Farmfoods,Retailers - other,4613,,,158891,,,55.82746200000000,MIXED/05/0551,783,foodandsafety@midlothian.gov.uk,Midlothian,http://www.midlothian.gov.uk,-3.22151800000000,EH26 8LE,2015-01-14,fhis_exempt_en-GB,Exempt,,FHIS,
442886,39 Jarnac Court Dalkeith Midlothian,,,,Farmfoods Freezer Centre,Retailers - other,4613,,,158881,,,55.89371900000000,MIXED/05/0493,783,foodandsafety@midlothian.gov.uk,Midlothian,http://www.midlothian.gov.uk,-3.07031100000000,EH22 1HU,2014-02-25,fhis_pass_en-GB,Pass,,FHIS,
442887,33 Milton Bridge Penicuik Midlothian,,,,Fishers Tryst,Pub/bar/nightclub,7843,,,158941,,,55.84930700000000,MIXED/05/0694,783,foodandsafety@midlothian.gov.uk,Midlothian,http://www.midlothian.gov.uk,-3.20043200000000,EH26 0RD,2014-04-02,fhis_exempt_en-GB,Exempt,,FHIS,
442888,Costco Costkea Way Loanhead Midlothian,,,,Fizz Experience Ltd,Retailers - other,4613,,,478406,,,55.87983700000000,FOOD/12/0063,783,foodandsafety@midlothian.gov.uk,Midlothian,http://www.midlothian.gov.uk,-3.16799700000000,EH20 9BY,2015-01-14,fhis_pass_en-GB,Pass,,FHIS,
442889,Flotterstone Inn Biggar Road Silverburn Penicuik Midlothian,,,,Flotterstone Inn,Pub/bar/nightclub,7843,,,158966,,,55.86128900000000,MIXED/05/0759,783,foodandsafety@midlothian.gov.uk,Midlothian,http://www.midlothian.gov.uk,-3.26019100000000,EH26 0PP,2014-06-05,fhis_pass_en-GB,Pass,,FHIS,
442890,Costco Costkea Way Loanhead Midlothian,,,,Food Court Cafe,Restaurant/Cafe/Canteen,1,,,564173,,,55.87983700000000,MIXED/13/0039,783,foodandsafety@midlothian.gov.uk,Midlothian,http://www.midlothian.gov.uk,-3.16799700000000,EH20 9BY,2014-11-27,fhis_pass_en-GB,Pass,,FHIS,
442891,1 High Street Penicuik Midlothian,,,,Food Lodge,Restaurant/Cafe/Canteen,1,,,158854,,,55.82629700000000,MIXED/05/0422,783,foodandsafety@midlothian.gov.uk,Midlothian,http://www.midlothian.gov.uk,-3.22113000000000,EH26 8HS,2014-03-28,fhis_improvement_required_en-GB,Improvement Required,,FHIS,
442892,Food Palace 2 - 4 Dundas Street Bonnyrigg Midlothian,,,,Food Palace Chinese Takeaway,Takeaway/sandwich shop,7844,,,158795,,,55.87437500000000,MIXED/05/0179,783,foodandsafety@midlothian.gov.uk,Midlothian,http://www.midlothian.gov.uk,-3.10460500000000,EH19 3AS,2015-02-04,fhis_pass_en-GB,Pass,,FHIS,
442893,Fordel Filling Station A6106 From Lauder Road To A68 Northern Bypass Dalkeith Midlothian,,,,Fordel Filling Station,Retailers - other,4613,,,158792,,,55.88976600000000,MIXED/05/0163,783,foodandsafety@midlothian.gov.uk,Midlothian,http://www.midlothian.gov.uk,-3.02479400000000,EH22 2PH,2014-02-03,fhis_pass_en-GB,Pass,,FHIS,
442894,The Roslin Institute Roslin Biotechnology Centre Roslin Midlothian,,,,Forest Friends Nursery,Hospitals/Childcare/Caring Premises,5,,,158986,,,55.86264700000000,MIXED/05/0817,783,foodandsafety@midlothian.gov.uk,Midlothian,http://www.midlothian.gov.uk,-3.15378800000000,EH25 9PS,2014-10-08,fhis_improvement_required_en-GB,Improvement Required,,FHIS,
442895,63 - 65 Clerk Street Loanhead Midlothian,,,,Forresters Arms,Pub/bar/nightclub,7843,,,158787,,,55.87841300000000,MIXED/05/0132,783,foodandsafety@midlothian.gov.uk,Midlothian,http://www.midlothian.gov.uk,-3.14938100000000,EH20 9RE,2012-03-22,fhis_pass_en-GB,Pass,,FHIS,
442896,113 High Street Dalkeith Midlothian,,,,Franco's,Takeaway/sandwich shop,7844,,,158840,,,55.89483200000000,MIXED/05/0393,783,foodandsafety@midlothian.gov.uk,Midlothian,http://www.midlothian.gov.uk,-3.06933500000000,EH22 1AX,2013-10-22,fhis_pass_en-GB,Pass,,FHIS,
442897,Frankie And Benny's 21 Straiton Mains Loanhead Midlothian,,,,Frankie And Bennys,Restaurant/Cafe/Canteen,1,,,159130,,,55.88463900000000,MIXED/10/0038,783,foodandsafety@midlothian.gov.uk,Midlothian,http://www.midlothian.gov.uk,-3.16288200000000,EH20 9PW,2014-02-26,fhis_pass_en-GB,Pass,,FHIS,
442898,Unit 7 Dryden Glen Loanhead,,,,Fratelli Catering,Takeaway/sandwich shop,7844,,,693811,,,55.87386400000000,MIXED/14/0039,783,foodandsafety@midlothian.gov.uk,Midlothian,http://www.midlothian.gov.uk,-3.16968800000000,EH20 9NA,2014-07-29,fhis_pass_en-GB,Pass,,FHIS,
442899,8 St Andrew Street Dalkeith,,,,Friendlies,Takeaway/sandwich shop,7844,,,158991,,,55.89347100000000,MIXED/05/0837,783,foodandsafety@midlothian.gov.uk,Midlothian,http://www.midlothian.gov.uk,-3.06875400000000,EH22 1AN,2014-12-18,fhis_improvement_required_en-GB,Improvement Required,,FHIS,
442900,Mayfield House McSence Business Park 32 Sycamore Road Mayfield Dalkeith,,,,Garvald Edinburgh,Other catering premises,7841,,,733807,,,55.87057300000000,MIXED/14/0035,783,foodandsafety@midlothian.gov.uk,Midlothian,http://www.midlothian.gov.uk,-3.04082800000000,EH22 5TA,2014-05-29,fhis_pass_en-GB,Pass,,FHIS,
442901,The Walled Cottage 15 Avenue Road Eskbank Dalkeith Midlothian,,,,Garvald Glenesk - Wall Cottage,Hospitals/Childcare/Caring Premises,5,,,158744,,,55.89009000000000,MIXED/04/0012,783,foodandsafety@midlothian.gov.uk,Midlothian,http://www.midlothian.gov.uk,-3.08250700000000,EH22 3BP,2013-10-31,fhis_pass_en-GB,Pass,,FHIS,
442902,67 Newton Church Road Danderhall Midlothian,,,,George Wilson,Retailers - other,4613,,,158950,,,55.91276800000000,MIXED/05/0721,783,foodandsafety@midlothian.gov.uk,Midlothian,http://www.midlothian.gov.uk,-3.10680100000000,EH22 1LX,2013-04-05,fhis_pass_en-GB,Pass,,FHIS,
442903,48 Gibraltar Gardens Dalkeith Midlothian,,,,Gibraltar News,Retailers - other,4613,,,159063,,,55.89556100000000,MIXED/06/0053,783,foodandsafety@midlothian.gov.uk,Midlothian,http://www.midlothian.gov.uk,-3.06407800000000,EH22 1EQ,2013-02-06,fhis_exempt_en-GB,Exempt,,FHIS,
442904,72 - 74 Lothian Street Bonnyrigg Midlothian,,,,Gigi's Restaurant,Restaurant/Cafe/Canteen,1,,,441852,,,55.87797700000000,MIXED/11/0035,783,foodandsafety@midlothian.gov.uk,Midlothian,http://www.midlothian.gov.uk,-3.10173500000000,EH19 3AQ,2013-06-18,fhis_pass_en-GB,Pass,,FHIS,
442905,Glencorse Golf Club Milton Bridge Penicuik Midlothian,,,,Glencorse Golf Club,Restaurant/Cafe/Canteen,1,,,158942,,,55.84930700000000,MIXED/05/0696,783,foodandsafety@midlothian.gov.uk,Midlothian,http://www.midlothian.gov.uk,-3.20043200000000,EH26 0RD,2014-09-05,fhis_exempt_en-GB,Exempt,,FHIS,
442906,Glencorse Primary School Grahams Road Auchendinny Penicuik Midlothian,,,,Glencorse Primary School,School/college/university,7845,,,157814,,,55.84638800000000,FOOD/05/0295,783,foodandsafety@midlothian.gov.uk,Midlothian,http://www.midlothian.gov.uk,-3.20214700000000,EH26 0QR,2012-12-03,fhis_pass_en-GB,Pass,,FHIS,
442907,19 High Street Bonnyrigg Midlothian,,,,Gloria's,Takeaway/sandwich shop,7844,,,158826,,,55.87548400000000,MIXED/05/0321,783,foodandsafety@midlothian.gov.uk,Midlothian,http://www.midlothian.gov.uk,-3.10617100000000,EH19 2DA,2013-11-29,fhis_pass_en-GB,Pass,,FHIS,
442908,Gojra Grocers 30 - 32 Barleyknowe Street Gorebridge Midlothian,,,,Gojra Grocers,Retailers - other,4613,,,158762,,,55.85104200000000,MIXED/05/0022,783,foodandsafety@midlothian.gov.uk,Midlothian,http://www.midlothian.gov.uk,-3.05206300000000,EH23 4FH,2014-10-24,fhis_pass_en-GB,Pass,,FHIS,
442909,4 Windsor Drive Kirkhill Penicuik Midlothian,,,,Golden Bell Chinese Carry Out,Takeaway/sandwich shop,7844,,,159014,,,55.83081700000000,MIXED/05/0922,783,foodandsafety@midlothian.gov.uk,Midlothian,http://www.midlothian.gov.uk,-3.21204400000000,EH26 8DS,2014-01-14,fhis_improvement_required_en-GB,Improvement Required,,FHIS,
442910,114-116 John Street Penicuik Midlothian,,,,Golden Goose,Pub/bar/nightclub,7843,,,159074,,,55.83065900000000,MIXED/07/0022,783,foodandsafety@midlothian.gov.uk,Midlothian,http://www.midlothian.gov.uk,-3.22438000000000,EH26 8NG,2014-11-25,fhis_improvement_required_en-GB,Improvement Required,,FHIS,
442911,Gorebridge Bowling Club Hunterfield Road Gorebridge Midlothian,,,,Gorebridge Bowling Club,Restaurant/Cafe/Canteen,1,,,158865,,,55.84347300000000,MIXED/05/0457,783,foodandsafety@midlothian.gov.uk,Midlothian,http://www.midlothian.gov.uk,-3.04829700000000,EH23 4TR,2014-11-13,fhis_pass_en-GB,Pass,,FHIS,
442912,Gorebridge Close Support Unit 23 Lady Brae Gorebridge Midlothian,,,,Gorebridge Close Support Unit,Hospitals/Childcare/Caring Premises,5,,,441850,,,55.84039100000000,FOOD/05/0562,783,foodandsafety@midlothian.gov.uk,Midlothian,http://www.midlothian.gov.uk,-3.04407800000000,EH23 4HT,2014-01-22,fhis_improvement_required_en-GB,Improvement Required,,FHIS,
442913,Gorebridge Leisure Centre Hunterfield Road Gorebridge Midlothian,,,,Gorebridge Leisure Centre,Retailers - other,4613,,,157900,,,55.84788600000000,FOOD/08/0081,783,foodandsafety@midlothian.gov.uk,Midlothian,http://www.midlothian.gov.uk,-3.05335100000000,EH23 4TX,2014-01-28,fhis_exempt_en-GB,Exempt,,FHIS,
442914,Gorebridge Primary School 2C Barleyknowe Lane Gorebridge Midlothian,,,,Gorebridge Primary School,School/college/university,7845,,,157887,,,55.84711500000000,FOOD/08/0009,783,foodandsafety@midlothian.gov.uk,Midlothian,http://www.midlothian.gov.uk,-3.05210000000000,EH23 4XA,2014-11-10,fhis_pass_en-GB,Pass,,FHIS,
442915,Gorebridge Primary School 2C Barleyknowe Lane Gorebridge Midlothian,,,,Gorebridge Primary School Nursery Class,Hospitals/Childcare/Caring Premises,5,,,157886,,,55.84711500000000,FOOD/07/0102,783,foodandsafety@midlothian.gov.uk,Midlothian,http://www.midlothian.gov.uk,-3.05210000000000,EH23 4XA,2013-11-12,fhis_improvement_required_en-GB,Improvement Required,,FHIS,
442916,112 Mayburn Avenue Loanhead Midlothian,,,,Gourmet Chinese Takeaway,Takeaway/sandwich shop,7844,,,159127,,,55.88029300000000,MIXED/10/0033,783,foodandsafety@midlothian.gov.uk,Midlothian,http://www.midlothian.gov.uk,-3.15491900000000,EH20 9HB,2014-11-05,fhis_pass_en-GB,Pass,,FHIS,
442917,Grapevine Stores 1 Mayfield Road Easthouses Dalkeith Midlothian,,,,Grapevine Stores,Retailers - other,4613,,,158934,,,55.87929200000000,MIXED/05/0680,783,foodandsafety@midlothian.gov.uk,Midlothian,http://www.midlothian.gov.uk,-3.04785600000000,EH22 4DN,2014-04-08,fhis_pass_en-GB,Pass,,FHIS,
442918,3 Greenhall Road Gorebridge Midlothian,,,,Greenhall Food Bar,Takeaway/sandwich shop,7844,,,159068,,,55.85006200000000,MIXED/06/0064,783,foodandsafety@midlothian.gov.uk,Midlothian,http://www.midlothian.gov.uk,-3.05526300000000,EH23 4AW,2015-01-15,fhis_improvement_required_en-GB,Improvement Required,,FHIS,
442919,17 Jarnac Court Dalkeith Midlothian,,,,Greggs Bakers,Retailers - other,4613,,,158879,,,55.89371900000000,MIXED/05/0484,783,foodandsafety@midlothian.gov.uk,Midlothian,http://www.midlothian.gov.uk,-3.07031100000000,EH22 1HU,2014-04-07,fhis_pass_en-GB,Pass,,FHIS,
442920,36 High Street Bonnyrigg Midlothian,,,,Greggs Bakers,Retailers - other,4613,,,201429,,,55.87529200000000,MIXED/05/0351,783,foodandsafety@midlothian.gov.uk,Midlothian,http://www.midlothian.gov.uk,-3.10656500000000,EH19 2AA,2014-02-10,fhis_pass_en-GB,Pass,,FHIS,
442921,Greggs Unit 4 John Street Penicuik Midlothian,,,,Greggs of Rutherglen,Retailers - other,4613,,,158888,,,55.82741400000000,MIXED/05/0541,783,foodandsafety@midlothian.gov.uk,Midlothian,http://www.midlothian.gov.uk,-3.22181900000000,EH26 8HN,2014-02-05,fhis_pass_en-GB,Pass,,FHIS,
442922,80 Clerk Street Loanhead Midlothian,,,,Greggs The Bakers,Retailers - other,4613,,,158785,,,55.87841800000000,MIXED/05/0124,783,foodandsafety@midlothian.gov.uk,Midlothian,http://www.midlothian.gov.uk,-3.14890100000000,EH20 9RG,2014-12-02,fhis_pass_en-GB,Pass,,FHIS,
442923,Happy Days Nursery 127 High Street Dalkeith Midlothian,,,,Happy Days Nursery,Hospitals/Childcare/Caring Premises,5,,,158843,,,55.89585600000000,MIXED/05/0399,783,foodandsafety@midlothian.gov.uk,Midlothian,http://www.midlothian.gov.uk,-3.06838700000000,EH22 1BE,2014-05-08,fhis_pass_en-GB,Pass,,FHIS,
442924,Harrow Hotel 2 - 4 Eskbank Road Dalkeith Midlothian,,,,Harrow Hotel,Pub/bar/nightclub,7843,,,158813,,,55.89316700000000,MIXED/05/0251,783,foodandsafety@midlothian.gov.uk,Midlothian,http://www.midlothian.gov.uk,-3.07271100000000,EH22 1HF,2014-07-01,fhis_pass_en-GB,Pass,,FHIS,
442925,Hawthorn Children and Family Centre 2F Bogwood Road Mayfield Dalkeith Midlothian,,,,Hawthorn Children And Families Centre,Hospitals/Childcare/Caring Premises,5,,,157861,,,55.87694500000000,FOOD/05/1032,783,foodandsafety@midlothian.gov.uk,Midlothian,http://www.midlothian.gov.uk,-3.04494700000000,EH22 5DQ,2014-02-17,fhis_improvement_required_en-GB,Improvement Required,,FHIS,
442926,Hawthornden Primary School Polton Avenue Road Bonnyrigg Midlothian,,,,Hawthornden Primary School,School/college/university,7845,,,157839,,,55.87045800000000,FOOD/05/0775,783,foodandsafety@midlothian.gov.uk,Midlothian,http://www.midlothian.gov.uk,-3.12045900000000,EH19 2NZ,2013-08-21,fhis_pass_en-GB,Pass,,FHIS,
442927,Pitcairn House 26 Broomieknowe Bonnyrigg Midlothian,,,,Heavenly Tiers,Other catering premises,7841,,,157910,,,55.87913600000000,FOOD/10/0046,783,foodandsafety@midlothian.gov.uk,Midlothian,http://www.midlothian.gov.uk,-3.11378800000000,EH18 1LN,2014-02-04,fhis_exempt_en-GB,Exempt,,FHIS,
442928,Highbank Residential Home 9A Bonnyrigg Road Eskbank Dalkeith Midlothian,,,,Highbank Residential Care Home,Hospitals/Childcare/Caring Premises,5,,,157792,,,55.88666700000000,FOOD/05/0053,783,foodandsafety@midlothian.gov.uk,Midlothian,http://www.midlothian.gov.uk,-3.08238000000000,EH22 3EY,2014-07-29,fhis_pass_en-GB,Pass,,FHIS,
442929,3A Straiton Mains Loanhead Midlothian,,,,Home Bargains,Retailers - other,4613,,,159134,,,55.88463900000000,MIXED/10/0068,783,foodandsafety@midlothian.gov.uk,Midlothian,http://www.midlothian.gov.uk,-3.16288200000000,EH20 9PW,2014-10-28,fhis_exempt_en-GB,Exempt,,FHIS,
442930,27-29 High Street Bonnyrigg Midlothian,,,,Hong Kong Chinese Takeaway,Takeaway/sandwich shop,7844,,,158834,,,55.87548400000000,MIXED/05/0352,783,foodandsafety@midlothian.gov.uk,Midlothian,http://www.midlothian.gov.uk,-3.10617100000000,EH19 2DA,2014-08-28,fhis_pass_en-GB,Pass,,FHIS,
442931,Dalkeith Baptist Church 8 North Wynd Dalkeith,,,,Horizons,Restaurant/Cafe/Canteen,1,,,633283,,,55.89410900000000,MIXED/13/0068,783,foodandsafety@midlothian.gov.uk,Midlothian,http://www.midlothian.gov.uk,-3.07185700000000,EH22 1JE,2014-01-13,fhis_improvement_required_en-GB,Improvement Required,,FHIS,
442932,The Horseshoe Bar 14 St Andrew Street Dalkeith Midlothian,,,,Horseshoe Bar,Pub/bar/nightclub,7843,,,158992,,,55.89347100000000,MIXED/05/0838,783,foodandsafety@midlothian.gov.uk,Midlothian,http://www.midlothian.gov.uk,-3.06875400000000,EH22 1AN,2012-11-15,fhis_pass_en-GB,Pass,,FHIS,
442933,Howgate Restaurant Ltd Penicuik Midlothian,,,,Howgate Restaurant,Restaurant/Cafe/Canteen,1,,,158967,,,55.80081500000000,MIXED/05/0760,783,foodandsafety@midlothian.gov.uk,Midlothian,http://www.midlothian.gov.uk,-3.20557600000000,EH26 8PY,2014-09-25,fhis_pass_en-GB,Pass,,FHIS,
442934,Howgate Kirk Howgate Penicuik Midlothian,,,,Howgate Village Hall,Restaurant/Cafe/Canteen,1,,,158864,,,55.80081500000000,MIXED/05/0455,783,foodandsafety@midlothian.gov.uk,Midlothian,http://www.midlothian.gov.uk,-3.20557600000000,EH26 8PY,2012-11-21,fhis_exempt_en-GB,Exempt,,FHIS,
442935,Mauricewood Primary School 11 Muirhead Place Glencorse Penicuik Midlothian,,,,Ickle World Childcare CIC,Hospitals/Childcare/Caring Premises,5,,,157863,,,55.84145600000000,FOOD/05/1036,783,foodandsafety@midlothian.gov.uk,Midlothian,http://www.midlothian.gov.uk,-3.21568000000000,EH26 0LE,2011-12-05,fhis_pass_en-GB,Pass,,FHIS,
442936,Strathesk Primary School 4 Eastfield Farm Road Penicuik Midlothian,,,,Ickle World Childcare CIC,Hospitals/Childcare/Caring Premises,5,,,159128,,,55.83657800000000,MIXED/10/0034,783,foodandsafety@midlothian.gov.uk,Midlothian,http://www.midlothian.gov.uk,-3.21742800000000,EH26 8EZ,2011-12-05,fhis_improvement_required_en-GB,Improvement Required,,FHIS,
442937,Walled Garden Bush House Bush Farm Road Bilston Roslin Midlothian,,,,Ideal Catering,Other catering premises,7841,,,157849,,,55.85931100000000,FOOD/05/0879,783,foodandsafety@midlothian.gov.uk,Midlothian,http://www.midlothian.gov.uk,-3.20650800000000,EH26 0BB,2014-08-26,fhis_pass_en-GB,Pass,,FHIS,
442938,Ikea Costkea Way Loanhead Midlothian,,,,Ikea Ltd,Restaurant/Cafe/Canteen,1,,,158904,,,55.87983700000000,MIXED/05/0589,783,foodandsafety@midlothian.gov.uk,Midlothian,http://www.midlothian.gov.uk,-3.16799700000000,EH20 9BY,2014-08-12,fhis_pass_en-GB,Pass,,FHIS,
442939,17-19 Eskbank Road Dalkeith Midlothian,,,,Itihaas,Restaurant/Cafe/Canteen,1,,,159091,,,55.89275800000000,MIXED/07/0127,783,foodandsafety@midlothian.gov.uk,Midlothian,http://www.midlothian.gov.uk,-3.07228400000000,EH22 1HD,2014-11-20,fhis_pass_en-GB,Pass,,FHIS,
442940,Karmarra 56 East Forth Street Cellardyke Fife,,,,J   K Anderson Fresh Fish SL60 XVE,Mobile caterer,7846,,,693809,,,56.22421700000000,MIXED/11/0010,783,foodandsafety@midlothian.gov.uk,Midlothian,http://www.midlothian.gov.uk,-2.68781600000000,KY10 3AR,2014-08-11,fhis_pass_en-GB,Pass,,FHIS,
442941,Sainsburys Supermarket Straiton Mains Loanhead Midlothian,,,,J Sainsbury Plc,Retailers - supermarkets/hypermarkets,7840,,,158902,,,55.88463900000000,MIXED/05/0586,783,foodandsafety@midlothian.gov.uk,Midlothian,http://www.midlothian.gov.uk,-3.16288200000000,EH20 9PW,2014-08-27,fhis_pass_en-GB,Pass,,FHIS,
442942,161 John Street Penicuik Midlothian,,,,Jackie's Takeaway,Takeaway/sandwich shop,7844,,,159136,,,55.83276000000000,MIXED/10/0096,783,foodandsafety@midlothian.gov.uk,Midlothian,http://www.midlothian.gov.uk,-3.22278500000000,EH26 8AT,2014-10-17,fhis_pass_en-GB,Pass,,FHIS,
442943,5 Edinburgh Road Penicuik Midlothian,,,,Jade Palace,Takeaway/sandwich shop,7844,,,158804,,,55.83498100000000,MIXED/05/0226,783,foodandsafety@midlothian.gov.uk,Midlothian,http://www.midlothian.gov.uk,-3.22077900000000,EH26 8NP,2014-03-06,fhis_improvement_required_en-GB,Improvement Required,,FHIS,
442944,2 Hopefield Park Bonnyrigg Midlothian,,,,James Cockburn And Son,Manufacturers/packers,7839,,,159053,,,55.87078900000000,MIXED/06/0027,783,foodandsafety@midlothian.gov.uk,Midlothian,http://www.midlothian.gov.uk,-3.11374100000000,EH19 2NE,2014-07-01,fhis_pass_en-GB,Pass,,FHIS,
442945,8 Woodburn Avenue Dalkeith Midlothian,,,,James Cockburn And Sons,Manufacturers/packers,7839,,,159017,,,55.89223300000000,MIXED/05/0927,783,foodandsafety@midlothian.gov.uk,Midlothian,http://www.midlothian.gov.uk,-3.05613500000000,EH22 2BP,2014-07-09,fhis_pass_en-GB,Pass,,FHIS,
442946,91 Crofters Gate East Whitburn West Lothian,,,,James Hercus,Retailers - other,4613,,,485271,,,55.86715300000000,FOOD/12/0072,783,foodandsafety@midlothian.gov.uk,Midlothian,http://www.midlothian.gov.uk,-3.65965600000000,EH47 8EP,2012-11-29,fhis_exempt_en-GB,Exempt,,FHIS,
442947,12 Woodburn Road Dalkeith Midlothian,,,,Jaz's Fish Bar,Takeaway/sandwich shop,7844,,,159110,,,55.89226500000000,MIXED/09/0017,783,foodandsafety@midlothian.gov.uk,Midlothian,http://www.midlothian.gov.uk,-3.05759100000000,EH22 2AT,2014-09-02,fhis_improvement_required_en-GB,Improvement Required,,FHIS,
442948,J B Foods Scotland Ltd Edgefield Industrial Estate Loanhead Midlothian,,,,JB Foods Scotland Ltd,Distributors/Transporters,7,,,201421,,,55.88348200000000,MIXED/05/0209,783,foodandsafety@midlothian.gov.uk,Midlothian,http://www.midlothian.gov.uk,-3.14922700000000,EH20 9TB,2014-01-17,fhis_pass_en-GB,Pass,,FHIS,
442949,9 Mayfield Place Mayfield Dalkeith Midlothian,,,,JCs Cafe,Restaurant/Cafe/Canteen,1,,,159146,,,55.87363600000000,MIXED/11/0038,783,foodandsafety@midlothian.gov.uk,Midlothian,http://www.midlothian.gov.uk,-3.04100700000000,EH22 5EE,2014-07-30,fhis_pass_en-GB,Pass,,FHIS,
442950,4 Kentigern Mall Penicuik Midlothian,,,,Jean's Place,Restaurant/Cafe/Canteen,1,,,159088,,,55.82746200000000,MIXED/07/0080,783,foodandsafety@midlothian.gov.uk,Midlothian,http://www.midlothian.gov.uk,-3.22151800000000,EH26 8LE,2014-08-13,fhis_pass_en-GB,Pass,,FHIS,
442951,64 - 66 Clerk Street Loanhead,,,,Joes Convenience,Retailers - other,4613,,,720057,,,55.87841800000000,MIXED/13/0013,783,foodandsafety@midlothian.gov.uk,Midlothian,http://www.midlothian.gov.uk,-3.14890100000000,EH20 9RG,2014-09-04,fhis_pass_en-GB,Pass,,FHIS,
442952,Justinlees Inn 1 - 5 Dalhousie Road Eskbank Dalkeith Midlothian,,,,Justinlees Inn,Pub/bar/nightclub,7843,,,158791,,,55.88783700000000,MIXED/05/0155,783,foodandsafety@midlothian.gov.uk,Midlothian,http://www.midlothian.gov.uk,-3.08019000000000,EH22 3AT,2014-10-29,fhis_pass_en-GB,Pass,,FHIS,
442953,117A Hunterfield Road Gorebridge Midlothian,,,,Kate's Bakery,Retailers - other,4613,,,158869,,,55.84728900000000,MIXED/05/0467,783,foodandsafety@midlothian.gov.uk,Midlothian,http://www.midlothian.gov.uk,-3.05383000000000,EH23 4TU,2013-12-17,fhis_improvement_required_en-GB,Improvement Required,,FHIS,
442954,140 High Street Dalkeith Midlothian,,,,Kebab Mahal,Takeaway/sandwich shop,7844,,,158845,,,55.89528500000000,MIXED/05/0404,783,foodandsafety@midlothian.gov.uk,Midlothian,http://www.midlothian.gov.uk,-3.06790800000000,EH22 1AY,2014-03-19,fhis_pass_en-GB,Pass,,FHIS,
442955,40 - 42 Hamilton Crescent Newtongrange,,,,Keystore,Retailers - other,4613,,,158824,,,55.87158500000000,MIXED/05/0298,783,foodandsafety@midlothian.gov.uk,Midlothian,http://www.midlothian.gov.uk,-3.05707700000000,EH22 4BU,2013-10-17,fhis_improvement_required_en-GB,Improvement Required,,FHIS,
442956,Kingsacre Golf Course A768 From High Street Lasswade To Wadingburn Road Loanhead Midlothian,,,,Kings Acre Golf Club,Restaurant/Cafe/Canteen,1,,,158900,,,55.89083900000000,MIXED/05/0578,783,foodandsafety@midlothian.gov.uk,Midlothian,http://www.midlothian.gov.uk,-3.11733700000000,EH18 1AU,2014-05-07,fhis_pass_en-GB,Pass,,FHIS,
442957,Kings Park Primary School 20 Croft Street Dalkeith Midlothian,,,,Kings Park After School Club,Hospitals/Childcare/Caring Premises,5,,,157802,,,55.89228900000000,FOOD/05/0147,783,foodandsafety@midlothian.gov.uk,Midlothian,http://www.midlothian.gov.uk,-3.07145500000000,EH22 3BA,2010-08-23,fhis_exempt_en-GB,Exempt,,FHIS,
442958,Kings Park Pavillion Eskbank Road Dalkeith,,,,Kings Park Pavillion,Restaurant/Cafe/Canteen,1,,,693807,,,,FOOD/14/0028,783,foodandsafety@midlothian.gov.uk,Midlothian,http://www.midlothian.gov.uk,,,2014-05-08,fhis_improvement_required_en-GB,Improvement Required,,FHIS,
442959,20 Croft Street Dalkeith Midlothian,,,,Kings Park Primary School,School/college/university,7845,,,201448,,,55.89228900000000,FOOD/05/0146,783,foodandsafety@midlothian.gov.uk,Midlothian,http://www.midlothian.gov.uk,-3.07145500000000,EH22 3BA,2013-11-26,fhis_pass_en-GB,Pass,,FHIS,
442960,Kings Park Primary School 20 Croft Street Dalkeith Midlothian,,,,Kings Park Primary School Nursery Class,Hospitals/Childcare/Caring Premises,5,,,157870,,,55.89228900000000,FOOD/07/0025,783,foodandsafety@midlothian.gov.uk,Midlothian,http://www.midlothian.gov.uk,-3.07145500000000,EH22 3BA,2013-10-21,fhis_pass_en-GB,Pass,,FHIS,
442961,Kirkhill Bowling Clubhouse Kirkhill Road Kirkhill Penicuik Midlothian,,,,Kirkhill Bowling Club,Other catering premises,7841,,,159115,,,55.82866800000000,MIXED/09/0042,783,foodandsafety@midlothian.gov.uk,Midlothian,http://www.midlothian.gov.uk,-3.21673400000000,EH26 8JB,2014-04-25,fhis_pass_en-GB,Pass,,FHIS,
442962,Kut Kost Foodstore Oak Crescent Mayfield Dalkeith Midlothian,,,,Kut Kost,Retailers - other,4613,,,158959,,,55.87036300000000,MIXED/05/0742,783,foodandsafety@midlothian.gov.uk,Midlothian,http://www.midlothian.gov.uk,-3.03697200000000,EH22 5JX,2014-07-07,fhis_improvement_required_en-GB,Improvement Required,,FHIS,
442963,Kwei Lin 114 - 118 Hunterfield Road Gorebridge Midlothian,,,,Kweilin,Restaurant/Cafe/Canteen,1,,,159041,,,55.84788600000000,MIXED/05/1034,783,foodandsafety@midlothian.gov.uk,Midlothian,http://www.midlothian.gov.uk,-3.05335100000000,EH23 4TX,2013-12-12,fhis_improvement_required_en-GB,Improvement Required,,FHIS,
442964,Ladywood Leisure Centre 14A Yarrow Court Kirkhill Penicuik Midlothian,,,,Ladywood Leisure Centre,Restaurant/Cafe/Canteen,1,,,157852,,,55.83724200000000,FOOD/05/0946,783,foodandsafety@midlothian.gov.uk,Midlothian,http://www.midlothian.gov.uk,-3.21294600000000,EH26 8HD,2013-10-29,fhis_pass_en-GB,Pass,,FHIS,
442965,Laird And Dog Hotel 5 High Street Lasswade Midlothian,,,,Laird And Dog Hotel,Restaurant/Cafe/Canteen,1,,,158853,,,55.88339000000000,MIXED/05/0420,783,foodandsafety@midlothian.gov.uk,Midlothian,http://www.midlothian.gov.uk,-3.11534900000000,EH18 1NA,2014-08-26,fhis_improvement_required_en-GB,Improvement Required,,FHIS,
442966,Dobbie And Co Ltd. Melville Nurseries Lasswade,,,,Lakeland,Retailers - other,4613,,,633285,,,55.89541800000000,MIXED/13/0083,783,foodandsafety@midlothian.gov.uk,Midlothian,http://www.midlothian.gov.uk,-3.09968600000000,EH18 1AZ,2014-01-22,fhis_improvement_required_en-GB,Improvement Required,,FHIS,
442967,Lasswade High School Centre 9 Eskdale Drive Bonnyrigg,,,,Lasswade Centre Cafe,Restaurant/Cafe/Canteen,1,,,564167,,,55.87378500000000,FOOD/13/0035,783,foodandsafety@midlothian.gov.uk,Midlothian,http://www.midlothian.gov.uk,-3.11727900000000,EH19 2LA,2014-02-10,fhis_pass_en-GB,Pass,,FHIS,
442968,Lasswade Parish Church 21 Polton Road Lasswade Midlothian,,,,Lasswade Church of Scotland,Restaurant/Cafe/Canteen,1,,,158972,,,55.88224200000000,MIXED/05/0779,783,foodandsafety@midlothian.gov.uk,Midlothian,http://www.midlothian.gov.uk,-3.11410100000000,EH18 1AA,2009-12-01,fhis_pass_en-GB,Pass,,FHIS,
442969,Lasswade High School 11 Eskdale Drive Bonnyrigg,,,,Lasswade High School Kitchen,School/college/university,7845,,,564166,,,55.87378500000000,FOOD/13/0034,783,foodandsafety@midlothian.gov.uk,Midlothian,http://www.midlothian.gov.uk,-3.11727900000000,EH19 2LA,2014-02-21,fhis_pass_en-GB,Pass,,FHIS,
442970,Lasswade Primary School 7A Pendreich Drive Bonnyrigg Midlothian,,,,Lasswade Primary School,School/college/university,7845,,,157833,,,55.87979700000000,FOOD/05/0754,783,foodandsafety@midlothian.gov.uk,Midlothian,http://www.midlothian.gov.uk,-3.09918100000000,EH19 2DU,2014-10-27,fhis_pass_en-GB,Pass,,FHIS,
442971,Lasswade Primary School 7A Pendreich Drive Bonnyrigg Midlothian,,,,Lasswade Primary School Nursery Class,Hospitals/Childcare/Caring Premises,5,,,157868,,,55.87979700000000,FOOD/07/0020,783,foodandsafety@midlothian.gov.uk,Midlothian,http://www.midlothian.gov.uk,-3.09918100000000,EH19 2DU,2013-11-19,fhis_improvement_required_en-GB,Improvement Required,,FHIS,
442972,Lasswade Rugby Club Rosewell Road Bonnyrigg Midlothian,,,,Lasswade Rugby Club,Restaurant/Cafe/Canteen,1,,,158982,,,55.86714300000000,MIXED/05/0808,783,foodandsafety@midlothian.gov.uk,Midlothian,http://www.midlothian.gov.uk,-3.11838200000000,EH19 3PR,2012-11-05,fhis_pass_en-GB,Pass,,FHIS,
442973,E And L Riding Centre 26 Kevock Road Lasswade Midlothian,,,,Lasswade Trough,Restaurant/Cafe/Canteen,1,,,159106,,,55.87781800000000,MIXED/08/0060,783,foodandsafety@midlothian.gov.uk,Midlothian,http://www.midlothian.gov.uk,-3.12525900000000,EH18 1HX,2014-05-21,fhis_improvement_required_en-GB,Improvement Required,,FHIS,
442974,147 Main Street Pathhead Midlothian,,,,L'Aurora,Takeaway/sandwich shop,7844,,,158756,,,55.86482000000000,MIXED/04/0096,783,foodandsafety@midlothian.gov.uk,Midlothian,http://www.midlothian.gov.uk,-2.96394600000000,EH37 5SQ,2014-01-24,fhis_pass_en-GB,Pass,,FHIS,
442975,Lawfield Primary School 26 Lawfield Road Mayfield Dalkeith Midlothian,,,,Lawfield Nursery Class,Hospitals/Childcare/Caring Premises,5,,,157889,,,55.87647100000000,FOOD/08/0016,783,foodandsafety@midlothian.gov.uk,Midlothian,http://www.midlothian.gov.uk,-3.04153000000000,EH22 5BB,2015-01-12,fhis_improvement_required_en-GB,Improvement Required,,FHIS,
442976,Lawfield Primary School 26 Lawfield Road Mayfield Dalkeith Midlothian,,,,Lawfield Primary School,School/college/university,7845,,,157896,,,55.87647100000000,FOOD/08/0041,783,foodandsafety@midlothian.gov.uk,Midlothian,http://www.midlothian.gov.uk,-3.04153000000000,EH22 5BB,2014-09-01,fhis_pass_en-GB,Pass,,FHIS,
442977,Leadburn Manor Fishery Rosemay Farm Leadburn West Linton,,,,Leadburn Manor,Restaurant/Cafe/Canteen,1,,,159135,,,55.73078000000000,MIXED/10/0092,783,foodandsafety@midlothian.gov.uk,Midlothian,http://www.midlothian.gov.uk,-3.33672000000000,EH46 8BE,,fhis_awaiting_inspection_en-GB,Awaiting Inspection,,FHIS,
442978,21 McKinnon Drive Mayfield Dalkeith,,,,Lesley Croker Childminder,Hospitals/Childcare/Caring Premises,5,,,583025,,,55.86562500000000,FOOD/13/0055,783,foodandsafety@midlothian.gov.uk,Midlothian,http://www.midlothian.gov.uk,-3.03409700000000,EH22 5RF,2014-03-24,fhis_pass_en-GB,Pass,,FHIS,
442979,Lidl 5 Newmills Road Dalkeith Midlothian,,,,Lidl UK,Retailers - supermarkets/hypermarkets,7840,,,201449,,,55.89276300000000,MIXED/05/0716,783,foodandsafety@midlothian.gov.uk,Midlothian,http://www.midlothian.gov.uk,-3.06863800000000,EH22 1DU,2011-10-12,fhis_pass_en-GB,Pass,,FHIS,
442980,Lidl 7 St Kentigern Way Penicuik Midlothian,,,,Lidl UK,Retailers - supermarkets/hypermarkets,7840,,,159113,,,55.82797300000000,MIXED/09/0037,783,foodandsafety@midlothian.gov.uk,Midlothian,http://www.midlothian.gov.uk,-3.21982500000000,EH26 8NB,2015-01-19,fhis_pass_en-GB,Pass,,FHIS,
442981,18 - 20 Woodburn Avenue Dalkeith Midlothian,,,,Lindsay And Gilmour Chemist,Retailers - other,4613,,,201456,,,55.89223300000000,MIXED/05/0933,783,foodandsafety@midlothian.gov.uk,Midlothian,http://www.midlothian.gov.uk,-3.05613500000000,EH22 2BP,2009-11-25,fhis_exempt_en-GB,Exempt,,FHIS,
442982,,,,,Little Button  Cakes,Manufacturers/packers,7839,,,300047,,,,FOOD/12/0011,783,foodandsafety@midlothian.gov.uk,Midlothian,http://www.midlothian.gov.uk,,,2014-05-22,fhis_pass_en-GB,Pass,,FHIS,
442983,46 Moorfoot View Bonnyrigg,,,,Little Hawthorn,Hospitals/Childcare/Caring Premises,5,,,655634,,,55.87179100000000,MIXED/13/0022,783,foodandsafety@midlothian.gov.uk,Midlothian,http://www.midlothian.gov.uk,-3.10622600000000,EH19 3EP,2014-04-09,fhis_pass_en-GB,Pass,,FHIS,
442984,Lloyds Pharmacy 17 Eskdaill Court Dalkeith Midlothian,,,,Lloyd Chemist,Retailers - other,4613,,,158815,,,55.89316500000000,MIXED/05/0262,783,foodandsafety@midlothian.gov.uk,Midlothian,http://www.midlothian.gov.uk,-3.06989600000000,EH22 1AG,2009-11-24,fhis_exempt_en-GB,Exempt,,FHIS,
442985,2 Bogwood Court Mayfield Dalkeith Midlothian,,,,Lloyds Chemist,Retailers - other,4613,,,158764,,,55.87460900000000,MIXED/05/0035,783,foodandsafety@midlothian.gov.uk,Midlothian,http://www.midlothian.gov.uk,-3.04282300000000,EH22 5DG,2009-11-05,fhis_exempt_en-GB,Exempt,,FHIS,
442986,Lloyds Pharmacy 32 - 34 High Street Bonnyrigg Midlothian,,,,Lloyds Chemist,Retailers - other,4613,,,158835,,,55.87529200000000,MIXED/05/0353,783,foodandsafety@midlothian.gov.uk,Midlothian,http://www.midlothian.gov.uk,-3.10656500000000,EH19 2AA,2009-11-24,fhis_exempt_en-GB,Exempt,,FHIS,
442987,105 Hunterfield Road Gorebridge Midlothian,,,,Lloyds Pharmacy,Retailers - other,4613,,,158868,,,55.84656100000000,MIXED/05/0466,783,foodandsafety@midlothian.gov.uk,Midlothian,http://www.midlothian.gov.uk,-3.05286800000000,EH23 4TS,2014-01-21,fhis_exempt_en-GB,Exempt,,FHIS,
442988,34 John Street Penicuik Midlothian,,,,Lloyds Pharmacy,Retailers - other,4613,,,158882,,,55.82751500000000,MIXED/05/0511,783,foodandsafety@midlothian.gov.uk,Midlothian,http://www.midlothian.gov.uk,-3.22242900000000,EH26 8AB,2009-12-01,fhis_exempt_en-GB,Exempt,,FHIS,
442989,Lloyds Pharmacy 35 Main Street Gorebridge Midlothian,,,,Lloyds Pharmacy,Retailers - other,4613,,,158913,,,55.84143200000000,MIXED/05/0621,783,foodandsafety@midlothian.gov.uk,Midlothian,http://www.midlothian.gov.uk,-3.04741200000000,EH23 4BX,2009-12-01,fhis_exempt_en-GB,Exempt,,FHIS,
442990,Loanhead Community Learning Centre 5 Mayburn Walk Loanhead Midlothian,,,,Loanhead After School Club,Hospitals/Childcare/Caring Premises,5,,,157827,,,55.88014400000000,FOOD/05/0669,783,foodandsafety@midlothian.gov.uk,Midlothian,http://www.midlothian.gov.uk,-3.15932700000000,EH20 9HG,2014-10-24,fhis_pass_en-GB,Pass,,FHIS,
442991,Loanhead Primary School 34 Edgefield Road Loanhead Midlothian,,,,Loanhead After School Club,Other catering premises,7841,,,157902,,,55.88124600000000,FOOD/09/0003,783,foodandsafety@midlothian.gov.uk,Midlothian,http://www.midlothian.gov.uk,-3.15104700000000,EH20 9DY,2014-03-11,fhis_improvement_required_en-GB,Improvement Required,,FHIS,
442992,Pavilion Rosewell Public Park Carnethie Street Rosewell Midlothian,,,,Loanhead After School Club Rosewell Satellite,Hospitals/Childcare/Caring Premises,5,,,157858,,,55.85367700000000,FOOD/05/0965,783,foodandsafety@midlothian.gov.uk,Midlothian,http://www.midlothian.gov.uk,-3.13484000000000,,2014-01-24,fhis_pass_en-GB,Pass,,FHIS,
442993,Loanhead Primary School 34 Edgefield Road Loanhead Midlothian,,,,Loanhead And St Margaret Primary Schools,School/college/university,7845,,,157895,,,55.88124600000000,FOOD/08/0038,783,foodandsafety@midlothian.gov.uk,Midlothian,http://www.midlothian.gov.uk,-3.15104700000000,EH20 9DY,2014-09-02,fhis_pass_en-GB,Pass,,FHIS,
442994,Loanhead Bowling Club Kennington Avenue Loanhead Midlothian,,,,Loanhead Bowling Club,Restaurant/Cafe/Canteen,1,,,159065,,,55.87732500000000,MIXED/06/0056,783,foodandsafety@midlothian.gov.uk,Midlothian,http://www.midlothian.gov.uk,-3.15424000000000,EH20 9HY,2010-06-28,fhis_pass_en-GB,Pass,,FHIS,
442995,Loanhead Community Learning Centre 5 Mayburn Walk Loanhead Midlothian,,,,Loanhead Community Learning Centre,Restaurant/Cafe/Canteen,1,,,157857,,,55.88014400000000,FOOD/05/0961,783,foodandsafety@midlothian.gov.uk,Midlothian,http://www.midlothian.gov.uk,-3.15932700000000,EH20 9HG,2011-08-18,fhis_pass_en-GB,Pass,,FHIS,
442996,Loanhead Ex Servicemens Club 10 Academy Lane Loanhead Midlothian,,,,Loanhead Ex-Servicemans Club,Pub/bar/nightclub,7843,,,159025,,,55.87874300000000,MIXED/05/0971,783,foodandsafety@midlothian.gov.uk,Midlothian,http://www.midlothian.gov.uk,-3.14581000000000,EH20 9RP,2009-11-03,fhis_pass_en-GB,Pass,,FHIS,
442997,Loanhead Leisure Centre George Avenue Loanhead Midlothian,,,,Loanhead Leisure Centre,Restaurant/Cafe/Canteen,1,,,157813,,,55.87876200000000,FOOD/05/0279,783,foodandsafety@midlothian.gov.uk,Midlothian,http://www.midlothian.gov.uk,-3.15437800000000,EH20 9LA,2014-01-30,fhis_exempt_en-GB,Exempt,,FHIS,
442998,47 Clerk Street Loanhead Midlothian,,,,Loanhead Masonic Lodge,Pub/bar/nightclub,7843,,,158781,,,55.87841300000000,MIXED/05/0116,783,foodandsafety@midlothian.gov.uk,Midlothian,http://www.midlothian.gov.uk,-3.14938100000000,EH20 9RE,2013-07-17,fhis_pass_en-GB,Pass,,FHIS,
442999,Loanhead Miners Social Club 74 The Loan Loanhead Midlothian,,,,Loanhead Miners Welfare,Pub/bar/nightclub,7843,,,159004,,,55.87686300000000,MIXED/05/0888,783,foodandsafety@midlothian.gov.uk,Midlothian,http://www.midlothian.gov.uk,-3.15270700000000,EH20 9AQ,2013-12-11,fhis_pass_en-GB,Pass,,FHIS,
443000,Loanhead Primary School 34 Edgefield Road Loanhead Midlothian,,,,Loanhead Nursery,School/college/university,7845,,,157903,,,55.88124600000000,FOOD/09/0025,783,foodandsafety@midlothian.gov.uk,Midlothian,http://www.midlothian.gov.uk,-3.15104700000000,EH20 9DY,2014-05-01,fhis_improvement_required_en-GB,Improvement Required,,FHIS,
443001,71-77 High Street Bonnyrigg Midlothian,,,,Lodge Dalhousie-Bonnyrigg,Pub/bar/nightclub,7843,,,158836,,,55.87669900000000,MIXED/05/0355,783,foodandsafety@midlothian.gov.uk,Midlothian,http://www.midlothian.gov.uk,-3.10697300000000,EH19 2DB,2014-05-21,fhis_pass_en-GB,Pass,,FHIS,
443002,Masonic Lodge 129 High Street Dalkeith Midlothian,,,,Lodge Dalkeith Kilwinning No.10,Pub/bar/nightclub,7843,,,158844,,,55.89585600000000,MIXED/05/0400,783,foodandsafety@midlothian.gov.uk,Midlothian,http://www.midlothian.gov.uk,-3.06838700000000,EH22 1BE,2014-11-25,fhis_improvement_required_en-GB,Improvement Required,,FHIS,
443003,LODGE ROSSLYN ST CLAIR NO 606 21 Main Street Roslin Midlothian,,,,Lodge Rosslyn St Clair No.606,Pub/bar/nightclub,7843,,,633279,,,55.85718000000000,MIXED/05/0656,783,foodandsafety@midlothian.gov.uk,Midlothian,http://www.midlothian.gov.uk,-3.16469700000000,EH25 9LD,2014-01-23,fhis_exempt_en-GB,Exempt,,FHIS,
443004,Lord Of The Noodles Bryans Road Newtongrange Midlothian,,,,Lord Of The Noodles,Takeaway/sandwich shop,7844,,,159002,,,55.87158500000000,MIXED/05/0876,783,foodandsafety@midlothian.gov.uk,Midlothian,http://www.midlothian.gov.uk,-3.05707700000000,EH22 4BU,2014-06-12,fhis_improvement_required_en-GB,Improvement Required,,FHIS,
443005,163D John Street Penicuik Midlothian,,,,Lothian Grocers,Retailers - other,4613,,,158885,,,55.83276000000000,MIXED/05/0535,783,foodandsafety@midlothian.gov.uk,Midlothian,http://www.midlothian.gov.uk,-3.22278500000000,EH26 8AT,2013-08-15,fhis_improvement_required_en-GB,Improvement Required,,FHIS,
443006,117 Biggar Road Silverburn Penicuik Midlothian,,,,Lothianburn Service Station,Retailers - other,4613,,,158742,,,55.89243200000000,MIXED/04/0007,783,foodandsafety@midlothian.gov.uk,Midlothian,http://www.midlothian.gov.uk,-3.20189200000000,EH10 7DU,2012-05-25,fhis_pass_en-GB,Pass,,FHIS,
443007,Glencorse Mains Farmhouse Penicuik,,,,Lucy Flett,Other catering premises,7841,,,733799,,,55.84937200000000,FOOD/14/0004,783,foodandsafety@midlothian.gov.uk,Midlothian,http://www.midlothian.gov.uk,-3.22111800000000,EH26 0NN,2014-05-14,fhis_exempt_en-GB,Exempt,,FHIS,
443008,124 Carnethie Street Rosewell Midlothian,,,,M & D Superstore,Retailers - other,4613,,,158777,,,55.85174800000000,MIXED/05/0093,783,foodandsafety@midlothian.gov.uk,Midlothian,http://www.midlothian.gov.uk,-3.13638900000000,EH24 9AL,2014-10-27,fhis_improvement_required_en-GB,Improvement Required,,FHIS,
443009,Charles Letts And Co Ltd Thornybank Industrial Estate Dalkeith Midlothian,,,,Mackenzie Catering,Restaurant/Cafe/Canteen,1,,,157850,,,55.82099914550781,FOOD/05/0898,783,foodandsafety@midlothian.gov.uk,Midlothian,http://www.midlothian.gov.uk,-3.10899996757507,EH22 2NE,2014-05-22,fhis_pass_en-GB,Pass,,FHIS,
443010,Penicuik North Kirk 95 John Street Penicuik,,,,Marchburn Playgroup,Hospitals/Childcare/Caring Premises,5,,,720061,,,55.82977300000000,MIXED/14/0069,783,foodandsafety@midlothian.gov.uk,Midlothian,http://www.midlothian.gov.uk,-3.22312300000000,EH26 8AG,2014-10-23,fhis_pass_en-GB,Pass,,FHIS,
443011,7 The Loan Loanhead Midlothian,,,,Mario's,Takeaway/sandwich shop,7844,,,159003,,,55.87776800000000,MIXED/05/0886,783,foodandsafety@midlothian.gov.uk,Midlothian,http://www.midlothian.gov.uk,-3.14921800000000,EH20 9AE,2013-10-25,fhis_pass_en-GB,Pass,,FHIS,
443012,Marks And Spencers Unit 1 Straiton Park Way Loanhead Midlothian,,,,Marks & Spencer Simply Food,Retailers - other,4613,,,159040,,,55.88667000000000,MIXED/05/1033,783,foodandsafety@midlothian.gov.uk,Midlothian,http://www.midlothian.gov.uk,-3.16283100000000,EH20 9QY,2013-11-18,fhis_pass_en-GB,Pass,,FHIS,
443013,Masons Arms 100 - 102 Clerk Street Loanhead,,,,Mason's Arms,Pub/bar/nightclub,7843,,,158786,,,55.87756500000000,MIXED/05/0131,783,foodandsafety@midlothian.gov.uk,Midlothian,http://www.midlothian.gov.uk,-3.14780500000000,EH20 9RB,2014-09-12,fhis_pass_en-GB,Pass,,FHIS,
443014,Mauricewood Primary School 11 Muirhead Place Glencorse Penicuik Midlothian,,,,Mauricewood Primary School,School/college/university,7845,,,157829,,,55.84145600000000,FOOD/05/0698,783,foodandsafety@midlothian.gov.uk,Midlothian,http://www.midlothian.gov.uk,-3.21568000000000,EH26 0LE,2013-12-16,fhis_pass_en-GB,Pass,,FHIS,
443015,Bogwood Road Mayfield Dalkeith Midlothian,,,,Mayfield & Easthouses Church,Restaurant/Cafe/Canteen,1,,,720056,,,,HELA/05/0050,783,foodandsafety@midlothian.gov.uk,Midlothian,http://www.midlothian.gov.uk,,EH22 5DF,2014-10-30,fhis_pass_en-GB,Pass,,FHIS,
443016,Mayfield After School Club Stone Avenue Mayfield Dalkeith Midlothian,,,,Mayfield After School Club,Other catering premises,7841,,,157848,,,55.86891900000000,FOOD/05/0858,783,foodandsafety@midlothian.gov.uk,Midlothian,http://www.midlothian.gov.uk,-3.04091200000000,EH22 5PB,2014-02-03,fhis_pass_en-GB,Pass,,FHIS,
443017,Mayfield Combined Schools Stone Avenue Mayfield Dalkeith Midlothian,,,,Mayfield Combined Primary,School/college/university,7845,,,157847,,,55.86891900000000,FOOD/05/0857,783,foodandsafety@midlothian.gov.uk,Midlothian,http://www.midlothian.gov.uk,-3.04091200000000,EH22 5PB,2014-05-06,fhis_pass_en-GB,Pass,,FHIS,
443018,Stone Place Mayfield Dalkeith Midlothian,,,,Mayfield Community Club,Pub/bar/nightclub,7843,,,159000,,,55.87152300000000,MIXED/05/0860,783,foodandsafety@midlothian.gov.uk,Midlothian,http://www.midlothian.gov.uk,-3.04224500000000,EH22 5PE,2014-12-17,fhis_pass_en-GB,Pass,,FHIS,
443019,16-17 Bogwood Court Mayfield Dalkeith Midlothian,,,,Mayfield Discount Store,Retailers - other,4613,,,158767,,,55.87460900000000,MIXED/05/0044,783,foodandsafety@midlothian.gov.uk,Midlothian,http://www.midlothian.gov.uk,-3.04282300000000,EH22 5DG,2013-07-17,fhis_pass_en-GB,Pass,,FHIS,
443020,Mayfield Gospel Hall Stone Avenue Mayfield Dalkeith Midlothian,,,,Mayfield Gospel Hall,Restaurant/Cafe/Canteen,1,,,201454,,,55.86953700000000,MIXED/05/0856,783,foodandsafety@midlothian.gov.uk,Midlothian,http://www.midlothian.gov.uk,-3.04219100000000,EH22 5PD,2012-03-20,fhis_pass_en-GB,Pass,,FHIS,
443021,Mayfield Nursery School Stone Avenue Mayfield Dalkeith Midlothian,,,,Mayfield Nursery School,Hospitals/Childcare/Caring Premises,5,,,157846,,,55.86891900000000,FOOD/05/0854,783,foodandsafety@midlothian.gov.uk,Midlothian,http://www.midlothian.gov.uk,-3.04091200000000,EH22 5PB,2014-05-08,fhis_improvement_required_en-GB,Improvement Required,,FHIS,
443022,54 High Street Bonnyrigg Midlothian,,,,Mayflower Takeaway,Takeaway/sandwich shop,7844,,,158829,,,55.87607800000000,MIXED/05/0336,783,foodandsafety@midlothian.gov.uk,Midlothian,http://www.midlothian.gov.uk,-3.10711500000000,EH19 2AB,2014-05-08,fhis_improvement_required_en-GB,Improvement Required,,FHIS,
443023,Mayshade Garden Centre Eskbank Road Bonnyrigg Midlothian,,,,Mayshade Garden Centre,Restaurant/Cafe/Canteen,1,,,158548,,,55.88214400000000,HELA/05/0055,783,foodandsafety@midlothian.gov.uk,Midlothian,http://www.midlothian.gov.uk,-3.09195700000000,EH22 3LA,2014-04-09,fhis_pass_en-GB,Pass,,FHIS,
443024,188 High Street Dalkeith Midlothian,,,,Maysons Arms,Pub/bar/nightclub,7843,,,158848,,,55.89616300000000,MIXED/05/0410,783,foodandsafety@midlothian.gov.uk,Midlothian,http://www.midlothian.gov.uk,-3.06710100000000,EH22 1AZ,2014-03-19,fhis_exempt_en-GB,Exempt,,FHIS,
443025,11 Jarnac Court Dalkeith Midlothian,,,,McColls,Retailers - other,4613,,,158877,,,55.89371900000000,MIXED/05/0481,783,foodandsafety@midlothian.gov.uk,Midlothian,http://www.midlothian.gov.uk,-3.07031100000000,EH22 1HU,2013-04-23,fhis_pass_en-GB,Pass,,FHIS,
443026,23 - 25 Main Street Gorebridge Midlothian,,,,McColls,Retailers - other,4613,,,159116,,,55.84143200000000,MIXED/09/0061,783,foodandsafety@midlothian.gov.uk,Midlothian,http://www.midlothian.gov.uk,-3.04741200000000,EH23 4BX,2014-03-05,fhis_pass_en-GB,Pass,,FHIS,
443027,59 - 63 Newton Church Road Danderhall Midlothian,,,,McColls,Retailers - other,4613,,,158949,,,55.91276800000000,MIXED/05/0720,783,foodandsafety@midlothian.gov.uk,Midlothian,http://www.midlothian.gov.uk,-3.10680100000000,EH22 1LX,2014-08-04,fhis_pass_en-GB,Pass,,FHIS,
443028,66 Stevenson Road Penicuik,,,,McDonald Childminding,Hospitals/Childcare/Caring Premises,5,,,733801,,,55.84387500000000,FOOD/14/0060,783,foodandsafety@midlothian.gov.uk,Midlothian,http://www.midlothian.gov.uk,-3.20906400000000,EH26 0RH,,fhis_awaiting_inspection_en-GB,Awaiting Inspection,,FHIS,
443029,McDonalds Restaurant Straiton Mains Loanhead Midlothian,,,,McDonald's,Restaurant/Cafe/Canteen,1,,,159001,,,55.88463900000000,MIXED/05/0863,783,foodandsafety@midlothian.gov.uk,Midlothian,http://www.midlothian.gov.uk,-3.16288200000000,EH20 9PW,2014-03-06,fhis_pass_en-GB,Pass,,FHIS,
443030,McSence Business Park 32 Sycamore Road Mayfield Dalkeith,,,,McSence Conference Centre,Restaurant/Cafe/Canteen,1,,,693812,,,55.87057300000000,MIXED/14/0049,783,foodandsafety@midlothian.gov.uk,Midlothian,http://www.midlothian.gov.uk,-3.04082900000000,EH22 5TA,,fhis_awaiting_inspection_en-GB,Awaiting Inspection,,FHIS,
443031,5 Meadow Place Bilston Roslin,,,,Meadow Deli   Bakery / Roslin Cakes And Snacks,Restaurant/Cafe/Canteen,1,,,642634,,,55.87081500000000,MIXED/14/0011,783,foodandsafety@midlothian.gov.uk,Midlothian,http://www.midlothian.gov.uk,-3.17840200000000,EH25 9RT,2014-08-27,fhis_pass_en-GB,Pass,,FHIS,
443032,Melville Castle Lasswade,,,,Melville Castle,Other catering premises,7841,,,670073,,,55.89447200000000,MIXED/12/0056,783,foodandsafety@midlothian.gov.uk,Midlothian,http://www.midlothian.gov.uk,-3.09192000000000,EH18 1AP,2014-05-07,fhis_pass_en-GB,Pass,,FHIS,
443033,Melville Golf Range And Golf Course Lasswade,,,,Melville Golf Centre,Retailers - other,4613,,,158898,,,55.88742000000000,MIXED/05/0573,783,foodandsafety@midlothian.gov.uk,Midlothian,http://www.midlothian.gov.uk,-3.09982800000000,EH18 1AN,2014-12-23,fhis_exempt_en-GB,Exempt,,FHIS,
443034,Melville Inn From Melville Nurseries To A772 Gilmerton Road Lasswade Midlothian,,,,Melville Inn,Pub/bar/nightclub,7843,,,159080,,,55.89672100000000,MIXED/07/0060,783,foodandsafety@midlothian.gov.uk,Midlothian,http://www.midlothian.gov.uk,-3.10175400000000,EH18 1AR,2014-01-28,fhis_pass_en-GB,Pass,,FHIS,
443035,54 Borthwick Castle Terrace North Middleton Gorebridge Midlothian,,,,Middleton Village Hall,Restaurant/Cafe/Canteen,1,,,159119,,,55.82042700000000,MIXED/09/0074,783,foodandsafety@midlothian.gov.uk,Midlothian,http://www.midlothian.gov.uk,-3.02568300000000,EH23 4QU,2014-10-31,fhis_pass_en-GB,Pass,,FHIS,
443036,Newbattle High School 64 Easthouses Road Easthouses Dalkeith Midlothian,,,,Midlothian Basket Service,Restaurant/Cafe/Canteen,1,,,157793,,,55.87551300000000,FOOD/05/0068,783,foodandsafety@midlothian.gov.uk,Midlothian,http://www.midlothian.gov.uk,-3.05382700000000,EH22 4EW,2013-10-01,fhis_pass_en-GB,Pass,,FHIS,
443037,70 Eskbank Road Bonnyrigg Midlothian,,,,Midlothian Community Hospital,Restaurant/Cafe/Canteen,1,,,157909,,,55.88023700000000,FOOD/10/0044,783,foodandsafety@midlothian.gov.uk,Midlothian,http://www.midlothian.gov.uk,-3.09014600000000,EH22 3ND,2014-03-06,fhis_pass_en-GB,Pass,,FHIS,
443038,Midlothian Indoor Bowling Club Old Edinburgh Road Dalkeith Midlothian,,,,Midlothian Indoor Bowling Club,Restaurant/Cafe/Canteen,1,,,158960,,,55.89363100000000,MIXED/05/0746,783,foodandsafety@midlothian.gov.uk,Midlothian,http://www.midlothian.gov.uk,-3.07315500000000,EH22 1JD,2012-12-04,fhis_pass_en-GB,Pass,,FHIS,
443039,Unit 18 Dryden Vale Bilston Glen Loanhead,,,,Mighty Leaf Tea (Somerset Distribution UK Ltd),Distributors/Transporters,7,,,456450,,,55.87368700000000,MIXED/12/0058,783,foodandsafety@midlothian.gov.uk,Midlothian,http://www.midlothian.gov.uk,-3.17124900000000,EH20 9HN,2014-09-02,fhis_pass_en-GB,Pass,,FHIS,
443040,Jewsons 44 - 46 Millerhill Dalkeith Midlothian,,,,Millerhill Munch Box,Mobile caterer,7846,,,185971,,,55.91375400000000,STTRAD/07/0066,783,foodandsafety@midlothian.gov.uk,Midlothian,http://www.midlothian.gov.uk,-3.08281500000000,EH22 1RZ,2015-01-06,fhis_pass_en-GB,Pass,,FHIS,
443041,31B Milton Bridge Penicuik Midlothian,,,,Milton Bridge Nursery,Hospitals/Childcare/Caring Premises,5,,,158940,,,55.84930700000000,MIXED/05/0693,783,foodandsafety@midlothian.gov.uk,Midlothian,http://www.midlothian.gov.uk,-3.20043200000000,EH26 0RD,2014-06-05,fhis_pass_en-GB,Pass,,FHIS,
443042,5 Mayfield Place Mayfield Dalkeith Midlothian,,,,Moon Stores,Retailers - other,4613,,,158932,,,55.87363600000000,MIXED/05/0673,783,foodandsafety@midlothian.gov.uk,Midlothian,http://www.midlothian.gov.uk,-3.04100700000000,EH22 5EE,2013-06-19,fhis_pass_en-GB,Pass,,FHIS,
443043,14-16 Polton Street Bonnyrigg Midlothian,,,,Moon Supermarket,Retailers - other,4613,,,158976,,,55.87434600000000,MIXED/05/0792,783,foodandsafety@midlothian.gov.uk,Midlothian,http://www.midlothian.gov.uk,-3.10583500000000,EH19 3HA,2013-02-22,fhis_pass_en-GB,Pass,,FHIS,
443044,Moorfoot Primary School 41 Borthwick Castle Road North Middleton Gorebridge Midlothian,,,,Moorfoot Primary School,School/college/university,7845,,,157883,,,55.82008500000000,FOOD/07/0099,783,foodandsafety@midlothian.gov.uk,Midlothian,http://www.midlothian.gov.uk,-3.02465300000000,EH23 4QS,2014-05-07,fhis_pass_en-GB,Pass,,FHIS,
443045,3 Main Street Gorebridge Midlothian,,,,Morelli's,Takeaway/sandwich shop,7844,,,158911,,,55.84143200000000,MIXED/05/0609,783,foodandsafety@midlothian.gov.uk,Midlothian,http://www.midlothian.gov.uk,-3.04741200000000,EH23 4BX,2014-12-10,fhis_improvement_required_en-GB,Improvement Required,,FHIS,
443046,45 Easthouses Road Easthouses Dalkeith Midlothian,,,,Morelli's Fast Food,Takeaway/sandwich shop,7844,,,159105,,,55.87960300000000,MIXED/08/0058,783,foodandsafety@midlothian.gov.uk,Midlothian,http://www.midlothian.gov.uk,-3.04931900000000,EH22 4EB,2014-12-10,fhis_improvement_required_en-GB,Improvement Required,,FHIS,
443047,Morrisons Supermarket Eskbank Road Dalkeith,,,,Morrisons,Retailers - supermarkets/hypermarkets,7840,,,733806,,,,MIXED/14/0019,783,foodandsafety@midlothian.gov.uk,Midlothian,http://www.midlothian.gov.uk,,,2014-05-27,fhis_pass_en-GB,Pass,,FHIS,
443048,Mount Esk Nursery School Dalhousie Gardens Bonnyrigg Midlothian,,,,Mount Esk Nursery School,Hospitals/Childcare/Caring Premises,5,,,159072,,,55.87192700000000,MIXED/07/0014,783,foodandsafety@midlothian.gov.uk,Midlothian,http://www.midlothian.gov.uk,-3.11703400000000,EH19 2LT,2014-02-19,fhis_improvement_required_en-GB,Improvement Required,,FHIS,
443049,4-6 Burnside Road Gorebridge Midlothian,,,,MSR Ltd  (TJ Mini Market),Retailers - other,4613,,,158772,,,55.84505600000000,MIXED/05/0073,783,foodandsafety@midlothian.gov.uk,Midlothian,http://www.midlothian.gov.uk,-3.04385200000000,EH23 4EU,2014-02-20,fhis_pass_en-GB,Pass,,FHIS,
443050,67 Clerk Street Loanhead Midlothian,,,,Munch Box,Restaurant/Cafe/Canteen,1,,,159050,,,55.87841300000000,MIXED/06/0021,783,foodandsafety@midlothian.gov.uk,Midlothian,http://www.midlothian.gov.uk,-3.14938100000000,EH20 9RE,2014-09-02,fhis_improvement_required_en-GB,Improvement Required,,FHIS,
443051,1 Castlelaw Crescent Bilston Roslin Midlothian,,,,Natural Spice,Takeaway/sandwich shop,7844,,,158778,,,55.86776800000000,MIXED/05/0101,783,foodandsafety@midlothian.gov.uk,Midlothian,http://www.midlothian.gov.uk,-3.18225700000000,EH25 9SP,2013-07-22,fhis_pass_en-GB,Pass,,FHIS,
443052,Navaar House Hotel 23 - 25 Bog Road Penicuik,,,,Navaar House Hotel,Hotel/bed & breakfast/guest house,7842,,,201425,,,55.82668100000000,MIXED/05/0978,783,foodandsafety@midlothian.gov.uk,Midlothian,http://www.midlothian.gov.uk,-3.22589900000000,EH26 9BY,2014-06-27,fhis_pass_en-GB,Pass,,FHIS,
443053,16A Woodburn Road Dalkeith Midlothian,,,,Naveco General Store,Retailers - other,4613,,,159021,,,55.89226500000000,MIXED/05/0939,783,foodandsafety@midlothian.gov.uk,Midlothian,http://www.midlothian.gov.uk,-3.05759100000000,EH22 2AT,2013-02-01,fhis_pass_en-GB,Pass,,FHIS,
443054,63-65 Woodburn Park Dalkeith Midlothian,,,,Naveco Premier Stores,Retailers - other,4613,,,159020,,,55.89398800000000,MIXED/05/0934,783,foodandsafety@midlothian.gov.uk,Midlothian,http://www.midlothian.gov.uk,-3.05360900000000,EH22 2DE,2014-06-04,fhis_improvement_required_en-GB,Improvement Required,,FHIS,
443055,Nazareth House Residential Home 13 Hillhead Bonnyrigg Midlothian,,,,Nazareth House,Hospitals/Childcare/Caring Premises,5,,,158861,,,55.88211500000000,MIXED/05/0444,783,foodandsafety@midlothian.gov.uk,Midlothian,http://www.midlothian.gov.uk,-3.11123600000000,EH19 2JF,2015-01-30,fhis_pass_en-GB,Pass,,FHIS,
443056,34 Cockpen Road Bonnyrigg,,,,Nellies Vintage Tea Party,Other catering premises,7841,,,708520,,,55.87165500000000,FOOD/14/0058,783,foodandsafety@midlothian.gov.uk,Midlothian,http://www.midlothian.gov.uk,-3.09727300000000,EH19 3LY,,fhis_awaiting_inspection_en-GB,Awaiting Inspection,,FHIS,
443057,29-31 Main Street Gorebridge Midlothian,,,,New Wong's Chinese Takeaway,Takeaway/sandwich shop,7844,,,158914,,,55.84143200000000,MIXED/05/0624,783,foodandsafety@midlothian.gov.uk,Midlothian,http://www.midlothian.gov.uk,-3.04741200000000,EH23 4BX,2014-03-31,fhis_pass_en-GB,Pass,,FHIS,
443058,Newbattle Abbey College Newbattle Road Eskbank Dalkeith Midlothian,,,,Newbattle Abbey College,School/college/university,7845,,,157830,,,55.88274500000000,FOOD/05/0706,783,foodandsafety@midlothian.gov.uk,Midlothian,http://www.midlothian.gov.uk,-3.06745200000000,EH22 3LL,2013-10-10,fhis_pass_en-GB,Pass,,FHIS,
443059,Newbattle Bowling Club Murderdean Road Newtongrange Midlothian,,,,Newbattle Bowling Club,Restaurant/Cafe/Canteen,1,,,158943,,,55.86467800000000,MIXED/05/0699,783,foodandsafety@midlothian.gov.uk,Midlothian,http://www.midlothian.gov.uk,-3.06719600000000,EH22 4PD,2014-11-04,fhis_pass_en-GB,Pass,,FHIS,
443060,Newbattle Golf Club House Abbey Road Dalkeith,,,,Newbattle Golf Club,Restaurant/Cafe/Canteen,1,,,201431,,,55.88846200000000,MIXED/05/0968,783,foodandsafety@midlothian.gov.uk,Midlothian,http://www.midlothian.gov.uk,-3.07242100000000,EH22 3AD,2014-04-01,fhis_pass_en-GB,Pass,,FHIS,
443061,Newbattle High School 64 Easthouses Road Easthouses Dalkeith Midlothian,,,,Newbattle High School,School/college/university,7845,,,157804,,,55.87551300000000,FOOD/05/0203,783,foodandsafety@midlothian.gov.uk,Midlothian,http://www.midlothian.gov.uk,-3.05382700000000,EH22 4EW,2015-01-13,fhis_pass_en-GB,Pass,,FHIS,
443062,Newbyres Village Care Home 20 Gore Avenue Gorebridge Midlothian,,,,Newbyres Village,Hospitals/Childcare/Caring Premises,5,,,157893,,,55.84470200000000,FOOD/08/0029,783,foodandsafety@midlothian.gov.uk,Midlothian,http://www.midlothian.gov.uk,-3.04850600000000,EH23 4TZ,2014-03-05,fhis_pass_en-GB,Pass,,FHIS,
443063,News Express 19 Eskdaill Court Dalkeith Midlothian,,,,News Express,Retailers - other,4613,,,159070,,,55.89316500000000,MIXED/07/0004,783,foodandsafety@midlothian.gov.uk,Midlothian,http://www.midlothian.gov.uk,-3.06989600000000,EH22 1AG,2013-05-24,fhis_pass_en-GB,Pass,,FHIS,
443064,Newton Church Hall Edmonstone Road Danderhall Midlothian,,,,Newton Parish Church Hall,Restaurant/Cafe/Canteen,1,,,158807,,,55.91336200000000,MIXED/05/0234,783,foodandsafety@midlothian.gov.uk,Midlothian,http://www.midlothian.gov.uk,-3.10569800000000,EH22 1QE,2007-06-12,fhis_pass_en-GB,Pass,,FHIS,
443065,68 Gardiner Place Newtongrange Midlothian,,,,Newton Store Two,Retailers - other,4613,,,158820,,,55.87266000000000,MIXED/05/0278,783,foodandsafety@midlothian.gov.uk,Midlothian,http://www.midlothian.gov.uk,-3.06268400000000,EH22 4RT,2014-07-22,fhis_improvement_required_en-GB,Improvement Required,,FHIS,
443066,128 Main Street Newtongrange Midlothian,,,,Newton Stores,Retailers - other,4613,,,158919,,,55.86461100000000,MIXED/05/0637,783,foodandsafety@midlothian.gov.uk,Midlothian,http://www.midlothian.gov.uk,-3.06663500000000,EH22 4PF,2013-12-02,fhis_improvement_required_en-GB,Improvement Required,,FHIS,
443067,Newtongrange Primary School Sixth Street Newtongrange Midlothian,,,,Newtongrange After School Club,Hospitals/Childcare/Caring Premises,5,,,157859,,,55.86671100000000,FOOD/05/0966,783,foodandsafety@midlothian.gov.uk,Midlothian,http://www.midlothian.gov.uk,-3.06274500000000,EH22 4LB,2014-01-28,fhis_exempt_en-GB,Exempt,,FHIS,
443068,26 Newbattle Road Eskbank Dalkeith Midlothian,,,,Newtongrange Masonic Hall,Pub/bar/nightclub,7843,,,158947,,,55.87124000000000,MIXED/05/0713,783,foodandsafety@midlothian.gov.uk,Midlothian,http://www.midlothian.gov.uk,-3.06791900000000,EH22 4RW,2012-04-11,fhis_pass_en-GB,Pass,,FHIS,
443069,Newtongrange Primary School Sixth Street Newtongrange Midlothian,,,,Newtongrange Primary School,School/college/university,7845,,,157845,,,55.86671100000000,FOOD/05/0831,783,foodandsafety@midlothian.gov.uk,Midlothian,http://www.midlothian.gov.uk,-3.06274500000000,EH22 4LB,2013-12-18,fhis_pass_en-GB,Pass,,FHIS,
443070,Newtongrange Star FC Dalhousie Road Newtongrange Midlothian,,,,Newtongrange Star,Restaurant/Cafe/Canteen,1,,,158955,,,55.89365600000000,MIXED/05/0728,783,foodandsafety@midlothian.gov.uk,Midlothian,http://www.midlothian.gov.uk,-3.03793500000000,EH22 4NG,2013-08-16,fhis_improvement_required_en-GB,Improvement Required,,FHIS,
443071,42 Mayfield Place Mayfield Dalkeith Midlothian,,,,Nisa,Retailers - other,4613,,,564170,,,55.87231900000000,MIXED/12/0050,783,foodandsafety@midlothian.gov.uk,Midlothian,http://www.midlothian.gov.uk,-3.04156300000000,EH22 5EB,2013-05-06,fhis_pass_en-GB,Pass,,FHIS,
443072,136 Main Street Newtongrange Midlothian,,,,Nitten Chippy,Takeaway/sandwich shop,7844,,,158920,,,55.86461100000000,MIXED/05/0640,783,foodandsafety@midlothian.gov.uk,Midlothian,http://www.midlothian.gov.uk,-3.06663500000000,EH22 4PF,2013-12-12,fhis_improvement_required_en-GB,Improvement Required,,FHIS,
443073,Penicuik North Kirk 95 John Street Penicuik Midlothian,,,,North Kirk Hall Cafe,Restaurant/Cafe/Canteen,1,,,158883,,,55.82977300000000,MIXED/05/0525,783,foodandsafety@midlothian.gov.uk,Midlothian,http://www.midlothian.gov.uk,-3.22312300000000,EH26 8AG,2012-11-21,fhis_pass_en-GB,Pass,,FHIS,
443074,Cornbank St James Primary School 34 Marchburn Drive Penicuik Midlothian,,,,Nursery Class,Hospitals/Childcare/Caring Premises,5,,,157879,,,55.83004600000000,FOOD/07/0036,783,foodandsafety@midlothian.gov.uk,Midlothian,http://www.midlothian.gov.uk,-3.23896800000000,EH26 9HE,2014-03-31,fhis_pass_en-GB,Pass,,FHIS,
443075,Mauricewood Primary School 11 Muirhead Place Glencorse Penicuik Midlothian,,,,Nursery Class,Hospitals/Childcare/Caring Premises,5,,,157878,,,55.84145600000000,FOOD/07/0034,783,foodandsafety@midlothian.gov.uk,Midlothian,http://www.midlothian.gov.uk,-3.21568000000000,EH26 0LE,2012-02-23,fhis_pass_en-GB,Pass,,FHIS,
443076,Moorfoot Primary School 41 Borthwick Castle Road North Middleton Gorebridge Midlothian,,,,Nursery Class,Hospitals/Childcare/Caring Premises,5,,,157885,,,55.82008500000000,FOOD/07/0101,783,foodandsafety@midlothian.gov.uk,Midlothian,http://www.midlothian.gov.uk,-3.02465300000000,EH23 4QS,2014-06-02,fhis_improvement_required_en-GB,Improvement Required,,FHIS,
443077,Newtongrange Primary School Sixth Street Newtongrange Midlothian,,,,Nursery Class,Hospitals/Childcare/Caring Premises,5,,,157877,,,55.86671100000000,FOOD/07/0033,783,foodandsafety@midlothian.gov.uk,Midlothian,http://www.midlothian.gov.uk,-3.06274500000000,EH22 4LB,2014-02-03,fhis_pass_en-GB,Pass,,FHIS,
443078,Paradykes Primary School 3 Mayburn Walk Loanhead Midlothian,,,,Nursery Class,Hospitals/Childcare/Caring Premises,5,,,157875,,,55.88014400000000,FOOD/07/0031,783,foodandsafety@midlothian.gov.uk,Midlothian,http://www.midlothian.gov.uk,-3.15932700000000,EH20 9HG,2014-10-13,fhis_pass_en-GB,Pass,,FHIS,
443079,Sacred Heart Roman Catholic Primary School 22A Crockett Gardens Penicuik Midlothian,,,,Nursery Class,Hospitals/Childcare/Caring Premises,5,,,157874,,,55.83079700000000,FOOD/07/0030,783,foodandsafety@midlothian.gov.uk,Midlothian,http://www.midlothian.gov.uk,-3.23219100000000,EH26 9BB,2012-02-23,fhis_improvement_required_en-GB,Improvement Required,,FHIS,
443080,St Andrews Primary School Stobhill Road Gowkshill Gorebridge Midlothian,,,,Nursery Class,Hospitals/Childcare/Caring Premises,5,,,157880,,,55.84321100000000,FOOD/07/0039,783,foodandsafety@midlothian.gov.uk,Midlothian,http://www.midlothian.gov.uk,-3.04531900000000,EH23 4DA,2014-11-21,fhis_pass_en-GB,Pass,,FHIS,
443081,St Marys RC Primary School Polton Street Bonnyrigg Midlothian,,,,Nursery Class,Hospitals/Childcare/Caring Premises,5,,,157873,,,55.87326700000000,FOOD/07/0029,783,foodandsafety@midlothian.gov.uk,Midlothian,http://www.midlothian.gov.uk,-3.10791400000000,EH19 3DG,2014-02-04,fhis_pass_en-GB,Pass,,FHIS,
443082,Tynewater Primary School 32 Crichton Road Pathhead Midlothian,,,,Nursery Class,Hospitals/Childcare/Caring Premises,5,,,157881,,,55.86595100000000,FOOD/07/0096,783,foodandsafety@midlothian.gov.uk,Midlothian,http://www.midlothian.gov.uk,-2.97328900000000,EH37 5RA,2014-01-30,fhis_improvement_required_en-GB,Improvement Required,,FHIS,
443083,Old Crown Inn 13 - 13A High Street Penicuik Midlothian,,,,Old Crown Inn,Pub/bar/nightclub,7843,,,158860,,,55.82629700000000,MIXED/05/0443,783,foodandsafety@midlothian.gov.uk,Midlothian,http://www.midlothian.gov.uk,-3.22113000000000,EH26 8HS,2014-07-09,fhis_pass_en-GB,Pass,,FHIS,
443084,Orchard House Whitehill Road Rosewell Midlothian,,,,Orchard House Bed And Breakfast,Hotel/bed & breakfast/guest house,7842,,,159078,,,55.84695300000000,MIXED/07/0053,783,foodandsafety@midlothian.gov.uk,Midlothian,http://www.midlothian.gov.uk,-3.13217700000000,EH24 9EQ,2010-08-03,fhis_pass_en-GB,Pass,,FHIS,
443085,Old Original Rosslyn Hotel Main Street Roslin Midlothian,,,,Original Hotel,Restaurant/Cafe/Canteen,1,,,158930,,,55.85722200000000,MIXED/05/0663,783,foodandsafety@midlothian.gov.uk,Midlothian,http://www.midlothian.gov.uk,-3.16404400000000,EH25 9LE,2014-12-12,fhis_pass_en-GB,Pass,,FHIS,
443086,The Stables From A68 And Prestonhall Mains Road To Oxenfoord Castle Pathhead Midlothian,,,,Oxenfoord Castle,Restaurant/Cafe/Canteen,1,,,158961,,,55.87988500000000,MIXED/05/0747,783,foodandsafety@midlothian.gov.uk,Midlothian,http://www.midlothian.gov.uk,-2.98481100000000,EH37 5UB,2013-07-30,fhis_pass_en-GB,Pass,,FHIS,
443087,4A Eskdale Drive Bonnyrigg Midlothian,,,,Pak News,Retailers - other,4613,,,159075,,,55.87472300000000,MIXED/07/0042,783,foodandsafety@midlothian.gov.uk,Midlothian,http://www.midlothian.gov.uk,-3.11685800000000,EH19 2LB,2013-07-04,fhis_improvement_required_en-GB,Improvement Required,,FHIS,
443088,29 South Street Dalkeith Midlothian,,,,Paperlace,Retailers - other,4613,,,158754,,,55.89373600000000,MIXED/04/0082,783,foodandsafety@midlothian.gov.uk,Midlothian,http://www.midlothian.gov.uk,-3.06933700000000,EH22 1AH,2014-02-07,fhis_exempt_en-GB,Exempt,,FHIS,
443089,Paradykes Primary School 3 Mayburn Walk Loanhead Midlothian,,,,Paradykes Primary School,School/college/university,7845,,,157826,,,55.88014400000000,FOOD/05/0668,783,foodandsafety@midlothian.gov.uk,Midlothian,http://www.midlothian.gov.uk,-3.15932700000000,EH20 9HG,2014-05-07,fhis_pass_en-GB,Pass,,FHIS,
443090,Community Centre 11 Main Street Pathhead,,,,Pathhead Cafe,Other catering premises,7841,,,564172,,,55.86827800000000,MIXED/13/0036,783,foodandsafety@midlothian.gov.uk,Midlothian,http://www.midlothian.gov.uk,-2.96876100000000,EH37 5PZ,2014-01-29,fhis_pass_en-GB,Pass,,FHIS,
443091,Community Centre 11 Main Street Pathhead Midlothian,,,,Pathhead Community Hall,Other catering premises,7841,,,158922,,,55.86827800000000,MIXED/05/0646,783,foodandsafety@midlothian.gov.uk,Midlothian,http://www.midlothian.gov.uk,-2.96876100000000,EH37 5PZ,2014-01-29,fhis_pass_en-GB,Pass,,FHIS,
443092,Pathhead Post Office 139 Main Street Pathhead Midlothian,,,,Pathhead General Store,Retailers - other,4613,,,158925,,,55.86677000000000,MIXED/05/0651,783,foodandsafety@midlothian.gov.uk,Midlothian,http://www.midlothian.gov.uk,-2.96627900000000,EH37 5PT,2012-09-05,fhis_pass_en-GB,Pass,,FHIS,
443093,Sports And Social Club 11 Main Street Pathhead Midlothian,,,,Pathhead Sports And Social Club,Pub/bar/nightclub,7843,,,158923,,,55.86827800000000,MIXED/05/0647,783,foodandsafety@midlothian.gov.uk,Midlothian,http://www.midlothian.gov.uk,-2.96876100000000,EH37 5PZ,2013-06-03,fhis_exempt_en-GB,Exempt,,FHIS,
443094,Midlothian Innovation Centre Bilston Midlothian EH26,,,,Pauline's Pantry,Restaurant/Cafe/Canteen,1,,,670075,,,,MIXED/14/0033,783,foodandsafety@midlothian.gov.uk,Midlothian,http://www.midlothian.gov.uk,,,2014-05-28,fhis_improvement_required_en-GB,Improvement Required,,FHIS,
443095,28 Bog Road South Penicuik Midlothian,,,,Penicuik Bowling Club,Pub/bar/nightclub,7843,,,201439,,,55.82626600000000,MIXED/05/0033,783,foodandsafety@midlothian.gov.uk,Midlothian,http://www.midlothian.gov.uk,-3.22432200000000,EH26 9BT,2014-04-09,fhis_pass_en-GB,Pass,,FHIS,
443096,Mactaggart Scott Ltd Hunter Avenue Loanhead Midlothian,,,,Penicuik Caterers,Restaurant/Cafe/Canteen,1,,,157824,,,55.87373100000000,FOOD/05/0584,783,foodandsafety@midlothian.gov.uk,Midlothian,http://www.midlothian.gov.uk,-3.10429900000000,EH20 9SP,2014-08-05,fhis_pass_en-GB,Pass,,FHIS,
443097,Penicuik Cricket Pavilion 48 Kirkhill Road Kirkhill Penicuik Midlothian,,,,Penicuik Cricket Club,Pub/bar/nightclub,7843,,,158893,,,55.82866800000000,MIXED/05/0557,783,foodandsafety@midlothian.gov.uk,Midlothian,http://www.midlothian.gov.uk,-3.21673400000000,EH26 8JB,2007-11-21,fhis_pass_en-GB,Pass,,FHIS,
443098,Penicuik High School 39A Carlops Road Penicuik Midlothian,,,,Penicuik High School (Kitchen),School/college/university,7845,,,157796,,,55.83016800000000,FOOD/05/0081,783,foodandsafety@midlothian.gov.uk,Midlothian,http://www.midlothian.gov.uk,-3.22945700000000,EH26 9EP,2013-11-25,fhis_pass_en-GB,Pass,,FHIS,
443099,Penicuik Rugby Football Club Old Pavilion Carlops Road Penicuik Midlothian,,,,Penicuik Rugby Club,Restaurant/Cafe/Canteen,1,,,158774,,,55.82408200000000,MIXED/05/0082,783,foodandsafety@midlothian.gov.uk,Midlothian,http://www.midlothian.gov.uk,-3.22434900000000,EH26 9DT,2009-12-03,fhis_pass_en-GB,Pass,,FHIS,
443100,8 West Street Penicuik Midlothian,,,,Penicuik South Church Halls,Other catering premises,7841,,,159011,,,55.82574300000000,MIXED/05/0913,783,foodandsafety@midlothian.gov.uk,Midlothian,http://www.midlothian.gov.uk,-3.22266100000000,EH26 9DL,2011-01-10,fhis_pass_en-GB,Pass,,FHIS,
443101,11 High Street Penicuik Midlothian,,,,Penicuik Wines,Retailers - other,4613,,,159131,,,55.82629700000000,MIXED/10/0039,783,foodandsafety@midlothian.gov.uk,Midlothian,http://www.midlothian.gov.uk,-3.22113000000000,EH26 8HS,2012-12-19,fhis_exempt_en-GB,Exempt,,FHIS,
443102,15 High Street Penicuik Midlothian,,,,Peniwok,Takeaway/sandwich shop,7844,,,158857,,,55.82629700000000,MIXED/05/0429,783,foodandsafety@midlothian.gov.uk,Midlothian,http://www.midlothian.gov.uk,-3.22113000000000,EH26 8HS,2014-12-15,fhis_improvement_required_en-GB,Improvement Required,,FHIS,
443103,3 Edinburgh Road Penicuik Midlothian,,,,Penny-Cook Take-away/ Little Italy,Takeaway/sandwich shop,7844,,,158803,,,55.83498100000000,MIXED/05/0225,783,foodandsafety@midlothian.gov.uk,Midlothian,http://www.midlothian.gov.uk,-3.22077900000000,EH26 8NP,2013-10-03,fhis_pass_en-GB,Pass,,FHIS,
443104,80A Pentland Terrace Penicuik Midlothian,,,,Pentland Bakery & Newsmarket,Retailers - other,4613,,,158970,,,55.83329600000000,MIXED/05/0773,783,foodandsafety@midlothian.gov.uk,Midlothian,http://www.midlothian.gov.uk,-3.22759200000000,EH26 0EE,2013-10-01,fhis_improvement_required_en-GB,Improvement Required,,FHIS,
443105,Pentland Plants Pentland Mains Loanhead Midlothian,,,,Pentland Plants Ltd,Restaurant/Cafe/Canteen,1,,,157823,,,55.87588900000000,FOOD/05/0583,783,foodandsafety@midlothian.gov.uk,Midlothian,http://www.midlothian.gov.uk,-3.17965900000000,EH20 9QG,2014-06-11,fhis_pass_en-GB,Pass,,FHIS,
443106,Pentland Inn Dryden Terrace Loanhead Midlothian,,,,Pentland Roadhouse,Pub/bar/nightclub,7843,,,158793,,,55.87685100000000,MIXED/05/0177,783,foodandsafety@midlothian.gov.uk,Midlothian,http://www.midlothian.gov.uk,-3.16552600000000,EH20 9JL,2013-07-08,fhis_pass_en-GB,Pass,,FHIS,
443107,2 Polton Street Bonnyrigg Midlothian,,,,Pia's Pizzeria,Takeaway/sandwich shop,7844,,,159098,,,55.87434600000000,MIXED/08/0026,783,foodandsafety@midlothian.gov.uk,Midlothian,http://www.midlothian.gov.uk,-3.10583500000000,EH19 3HA,2013-12-11,fhis_pass_en-GB,Pass,,FHIS,
443108,Pine Villa Nursing Home 4 Hawthorn Gardens Loanhead Midlothian,,,,Pine Villa Nursing Home,Hospitals/Childcare/Caring Premises,5,,,157816,,,55.88237200000000,FOOD/05/0311,783,foodandsafety@midlothian.gov.uk,Midlothian,http://www.midlothian.gov.uk,-3.15267900000000,EH20 9EE,2015-01-21,fhis_pass_en-GB,Pass,,FHIS,
443109,Pinocchios Nursery Eastfield Drive Kirkhill Penicuik Midlothian,,,,Pinocchio's Childrens Nurseries Ltd,Hospitals/Childcare/Caring Premises,5,,,159045,,,55.82374100000000,MIXED/05/1050,783,foodandsafety@midlothian.gov.uk,Midlothian,http://www.midlothian.gov.uk,-3.26474500000000,EH26 8EY,2014-11-28,fhis_improvement_required_en-GB,Improvement Required,,FHIS,
443110,Pinocchios Childrens Nursery Newbattle Road Eskbank Dalkeith Midlothian,,,,Pinocchio's Children's Nursery,Hospitals/Childcare/Caring Premises,5,,,158945,,,55.88475400000000,MIXED/05/0708,783,foodandsafety@midlothian.gov.uk,Midlothian,http://www.midlothian.gov.uk,-3.07714700000000,EH22 3AU,2014-06-06,fhis_pass_en-GB,Pass,,FHIS,
443111,Pinocchios Nursery 6 School Green Lasswade Midlothian,,,,Pinocchio's Nursery,Hospitals/Childcare/Caring Premises,5,,,158988,,,55.88280000000000,MIXED/05/0826,783,foodandsafety@midlothian.gov.uk,Midlothian,http://www.midlothian.gov.uk,-3.11691400000000,EH18 1NB,2014-08-15,fhis_pass_en-GB,Pass,,FHIS,
443112,Pittendreich Nursing Home Melville Dykes Road Lasswade Midlothian,,,,Pittendreich Care Centre,Hospitals/Childcare/Caring Premises,5,,,157821,,,55.88446600000000,FOOD/05/0571,783,foodandsafety@midlothian.gov.uk,Midlothian,http://www.midlothian.gov.uk,-3.10863300000000,EH18 1AH,2014-06-19,fhis_pass_en-GB,Pass,,FHIS,
443113,Unit 7 Straiton Mains Loanhead,,,,Poddingtons,Restaurant/Cafe/Canteen,1,,,720060,,,55.88463900000000,MIXED/14/0067,783,foodandsafety@midlothian.gov.uk,Midlothian,http://www.midlothian.gov.uk,-3.16288100000000,EH20 9PW,2014-10-23,fhis_pass_en-GB,Pass,,FHIS,
443114,Polton Bowling And Social Club Polton Bank Polton Bonnyrigg Midlothian,,,,Polton Bowling And Social Club,Pub/bar/nightclub,7843,,,158896,,,55.87176200000000,MIXED/05/0569,783,foodandsafety@midlothian.gov.uk,Midlothian,http://www.midlothian.gov.uk,-3.13700600000000,EH18 1JT,2007-12-04,fhis_exempt_en-GB,Exempt,,FHIS,
443115,Polton Inn Polton Road Lasswade Midlothian,,,,Polton Inn,Pub/bar/nightclub,7843,,,158971,,,55.87341900000000,MIXED/05/0778,783,foodandsafety@midlothian.gov.uk,Midlothian,http://www.midlothian.gov.uk,-3.12196700000000,EH18 1BS,2014-03-27,fhis_pass_en-GB,Pass,,FHIS,
443116,Poltonhall Community Centre Hopefield Park Bonnyrigg Midlothian,,,,Poltonhall Community Centre,Other catering premises,7841,,,157853,,,55.87078900000000,FOOD/05/0957,783,foodandsafety@midlothian.gov.uk,Midlothian,http://www.midlothian.gov.uk,-3.11374100000000,EH19 2NE,2013-02-11,fhis_exempt_en-GB,Exempt,,FHIS,
443117,Lasswade Centre Eskdale Drive Bonnyrigg,,,,Poltonhall Satellite Club - Aka Bonnyrigg After School Club,Other catering premises,7841,,,642633,,,55.87378500000000,FOOD/13/0057,783,foodandsafety@midlothian.gov.uk,Midlothian,http://www.midlothian.gov.uk,-3.11727900000000,EH19 2LA,2014-01-29,fhis_improvement_required_en-GB,Improvement Required,,FHIS,
443118,12 Hopefield Park Bonnyrigg Midlothian,,,,Poltonhall Stores,Retailers - other,4613,,,158862,,,55.87078900000000,MIXED/05/0451,783,foodandsafety@midlothian.gov.uk,Midlothian,http://www.midlothian.gov.uk,-3.11374100000000,EH19 2NE,2014-02-27,fhis_improvement_required_en-GB,Improvement Required,,FHIS,
443119,5 Station Road Gorebridge Midlothian,,,,Porter's Restaurant,Restaurant/Cafe/Canteen,1,,,158997,,,55.84001400000000,MIXED/05/0848,783,foodandsafety@midlothian.gov.uk,Midlothian,http://www.midlothian.gov.uk,-3.04719800000000,EH23 4JX,2008-01-07,fhis_pass_en-GB,Pass,,FHIS,
443120,Mount Esk Nursery School Dalhousie Gardens Bonnyrigg Midlothian,,,,Positive Steps,Hospitals/Childcare/Caring Premises,5,,,159036,,,55.87192700000000,MIXED/05/0998,783,foodandsafety@midlothian.gov.uk,Midlothian,http://www.midlothian.gov.uk,-3.11703400000000,EH19 2LT,2014-02-19,fhis_improvement_required_en-GB,Improvement Required,,FHIS,
443121,103A Burnside Road Gorebridge Midlothian,,,,Premier,Retailers - other,4613,,,159102,,,55.84814900000000,MIXED/08/0051,783,foodandsafety@midlothian.gov.uk,Midlothian,http://www.midlothian.gov.uk,-3.04679400000000,EH23 4ES,2013-07-03,fhis_pass_en-GB,Pass,,FHIS,
443122,Healthcare House Edgefield Road Loanhead Midlothian,,,,Primrose Lodge,Hospitals/Childcare/Caring Premises,5,,,157805,,,55.88124600000000,FOOD/05/0214,783,foodandsafety@midlothian.gov.uk,Midlothian,http://www.midlothian.gov.uk,-3.15104700000000,EH20 9DY,2014-01-28,fhis_exempt_en-GB,Exempt,,FHIS,
443123,Forestry Commission And Northern Research Station Bush Farm Road Bilston Roslin Midlothian,,,,R S Catering,Restaurant/Cafe/Canteen,1,,,159086,,,55.86317900000000,MIXED/07/0076,783,foodandsafety@midlothian.gov.uk,Midlothian,http://www.midlothian.gov.uk,-3.20154700000000,EH25 9SY,2014-01-16,fhis_pass_en-GB,Pass,,FHIS,
443124,Railway Tavern 12 High Street Penicuik Midlothian,,,,Railway Tavern,Pub/bar/nightclub,7843,,,158856,,,55.82639200000000,MIXED/05/0428,783,foodandsafety@midlothian.gov.uk,Midlothian,http://www.midlothian.gov.uk,-3.22241000000000,EH26 8HW,,fhis_awaiting_inspection_en-GB,Awaiting Inspection,,FHIS,
443125,10B Woodburn Road Dalkeith Midlothian,,,,Rajah's,Takeaway/sandwich shop,7844,,,158758,,,55.89226500000000,MIXED/05/0006,783,foodandsafety@midlothian.gov.uk,Midlothian,http://www.midlothian.gov.uk,-3.05759100000000,EH22 2AT,2013-12-12,fhis_improvement_required_en-GB,Improvement Required,,FHIS,
443126,3A Stone Place Mayfield Dalkeith Midlothian,,,,Rana Stores,Retailers - other,4613,,,159094,,,55.87039400000000,MIXED/08/0004,783,foodandsafety@midlothian.gov.uk,Midlothian,http://www.midlothian.gov.uk,-3.04291700000000,EH22 5PF,2013-04-12,fhis_improvement_required_en-GB,Improvement Required,,FHIS,
443127,24 Woodburn Avenue Dalkeith Midlothian,,,,Rankine's Bakers,Manufacturers/packers,7839,,,159018,,,55.89223300000000,MIXED/05/0930,783,foodandsafety@midlothian.gov.uk,Midlothian,http://www.midlothian.gov.uk,-3.05613500000000,EH22 2BP,2014-06-26,fhis_pass_en-GB,Pass,,FHIS,
443128,3 Bogwood Court Mayfield Dalkeith Midlothian,,,,Rankine's Bakers,Retailers - other,4613,,,158765,,,55.87460900000000,MIXED/05/0036,783,foodandsafety@midlothian.gov.uk,Midlothian,http://www.midlothian.gov.uk,-3.04282300000000,EH22 5DG,2014-06-02,fhis_improvement_required_en-GB,Improvement Required,,FHIS,
443129,Rathan House 45 Eskbank Road Dalkeith Midlothian,,,,Rathan House,Hotel/bed & breakfast/guest house,7842,,,157809,,,55.89040300000000,FOOD/05/0255,783,foodandsafety@midlothian.gov.uk,Midlothian,http://www.midlothian.gov.uk,-3.07653600000000,EH22 3BH,2014-11-10,fhis_exempt_en-GB,Exempt,,FHIS,
443130,Unit 46 Mayfield Industrial Estate Mayfield Dalkeith Midlothian,,,,Really Awesome Coffee,Mobile caterer,7846,,,611155,,,55.86686900000000,STTRAD/13/0078,783,foodandsafety@midlothian.gov.uk,Midlothian,http://www.midlothian.gov.uk,-3.05169200000000,EH22 4AD,2013-11-18,fhis_pass_en-GB,Pass,,FHIS,
443131,76 Clerk Street Loanhead Midlothian,,,,Robert Brown   Son,Manufacturers/packers,7839,,,159035,,,55.87841800000000,MIXED/05/0996,783,foodandsafety@midlothian.gov.uk,Midlothian,http://www.midlothian.gov.uk,-3.14890100000000,EH20 9RG,2014-07-08,fhis_improvement_required_en-GB,Improvement Required,,FHIS,
443132,2 Chapelhill Dirleton North Berwick,,,,Robert Doris (99 ICES),Mobile caterer,7846,,,201447,,,56.04395200000000,STTRAD/11/0011,783,foodandsafety@midlothian.gov.uk,Midlothian,http://www.midlothian.gov.uk,-2.78623000000000,EH39 5HF,2013-05-14,fhis_pass_en-GB,Pass,,FHIS,
443133,76 Clerk Street Loanhead Midlothian,,,,Robert's Butcher And Deli Mobile Shop,Mobile caterer,7846,,,185969,,,55.87841800000000,STTRAD/07/0017,783,foodandsafety@midlothian.gov.uk,Midlothian,http://www.midlothian.gov.uk,-3.14890100000000,EH20 9RG,2014-07-16,fhis_pass_en-GB,Pass,,FHIS,
443134,Society Of The Sacred Heart 27 Park Road Eskbank Dalkeith Midlothian,,,,Rosehill,Hospitals/Childcare/Caring Premises,5,,,158747,,,55.88989400000000,MIXED/04/0017,783,foodandsafety@midlothian.gov.uk,Midlothian,http://www.midlothian.gov.uk,-3.07509900000000,EH22 3DH,2014-10-30,fhis_exempt_en-GB,Exempt,,FHIS,
443135,24 Gorton Road Rosewell Midlothian,,,,Rosewell Miners Bowling Club,Restaurant/Cafe/Canteen,1,,,158823,,,55.85179000000000,MIXED/05/0292,783,foodandsafety@midlothian.gov.uk,Midlothian,http://www.midlothian.gov.uk,-3.13861100000000,EH24 9AF,2014-06-23,fhis_improvement_required_en-GB,Improvement Required,,FHIS,
443136,Rosewell Primary School 85 Carnethie Street Rosewell Midlothian,,,,Rosewell Primary School,School/college/university,7845,,,157797,,,55.85275700000000,FOOD/05/0090,783,foodandsafety@midlothian.gov.uk,Midlothian,http://www.midlothian.gov.uk,-3.13510900000000,EH24 9AN,2014-10-28,fhis_pass_en-GB,Pass,,FHIS,
443137,Rosewell Primary School 85 Carnethie Street Rosewell Midlothian,,,,Rosewell Primary School Nursery Class,Hospitals/Childcare/Caring Premises,5,,,157872,,,55.85275700000000,FOOD/07/0028,783,foodandsafety@midlothian.gov.uk,Midlothian,http://www.midlothian.gov.uk,-3.13510900000000,EH24 9AN,2013-11-11,fhis_pass_en-GB,Pass,,FHIS,
443138,122 Carnethie Street Rosewell Midlothian,,,,Rosewell Takeaway,Takeaway/sandwich shop,7844,,,158751,,,55.85150900000000,MIXED/04/0053,783,foodandsafety@midlothian.gov.uk,Midlothian,http://www.midlothian.gov.uk,-3.13595100000000,EH24 9AJ,2014-01-23,fhis_improvement_required_en-GB,Improvement Required,,FHIS,
443139,5 Prestonhall Road Rosewell Midlothian,,,,Rosewell Village Store,Retailers - other,4613,,,158979,,,55.85356800000000,MIXED/05/0798,783,foodandsafety@midlothian.gov.uk,Midlothian,http://www.midlothian.gov.uk,-3.13583600000000,EH24 9BE,2013-03-05,fhis_improvement_required_en-GB,Improvement Required,,FHIS,
443140,35 Main Street Roslin Midlothian,,,,Roslin Mini Market,Retailers - other,4613,,,158927,,,55.85772000000000,MIXED/05/0658,783,foodandsafety@midlothian.gov.uk,Midlothian,http://www.midlothian.gov.uk,-3.16559200000000,EH25 9LA,2014-10-22,fhis_pass_en-GB,Pass,,FHIS,
443141,Roslin Primary School Bilston Annexe Park Avenue Bilston Roslin Midlothian,,,,Roslin Primary - Annex,School/college/university,7845,,,157832,,,55.87020500000000,FOOD/05/0749,783,foodandsafety@midlothian.gov.uk,Midlothian,http://www.midlothian.gov.uk,-3.18394500000000,EH25 9SD,2013-09-25,fhis_pass_en-GB,Pass,,FHIS,
443142,Roslin Primary School 8 Pentland View Place Roslin Midlothian,,,,Roslin Primary School,School/college/university,7845,,,157838,,,55.85723200000000,FOOD/05/0774,783,foodandsafety@midlothian.gov.uk,Midlothian,http://www.midlothian.gov.uk,-3.17056200000000,EH25 9ND,2013-11-01,fhis_pass_en-GB,Pass,,FHIS,
443143,Roslin Primary School Bilston Annexe Park Avenue Bilston Roslin Midlothian,,,,Roslin Primary School Annex Nursery Class,Hospitals/Childcare/Caring Premises,5,,,157869,,,55.87020500000000,FOOD/07/0021,783,foodandsafety@midlothian.gov.uk,Midlothian,http://www.midlothian.gov.uk,-3.18394500000000,EH25 9SD,2013-12-03,fhis_improvement_required_en-GB,Improvement Required,,FHIS,
443144,Roslin Primary School 8 Pentland View Place Roslin Midlothian,,,,Roslin Primary School Nursery Class,Hospitals/Childcare/Caring Premises,5,,,157876,,,55.85723200000000,FOOD/07/0032,783,foodandsafety@midlothian.gov.uk,Midlothian,http://www.midlothian.gov.uk,-3.17056200000000,EH25 9ND,2014-05-09,fhis_improvement_required_en-GB,Improvement Required,,FHIS,
443145,Rosslyn Bowling Club Main Street Roslin Midlothian,,,,Rosslyn Bowling Club,Restaurant/Cafe/Canteen,1,,,158929,,,55.85972800000000,MIXED/05/0662,783,foodandsafety@midlothian.gov.uk,Midlothian,http://www.midlothian.gov.uk,-3.16796900000000,EH25 9LT,2013-11-11,fhis_pass_en-GB,Pass,,FHIS,
443146,Rosslyn Chapel Chapel Loan Roslin Midlothian,,,,Rosslyn Chapel,Restaurant/Cafe/Canteen,1,,,158985,,,55.85615400000000,MIXED/05/0815,783,foodandsafety@midlothian.gov.uk,Midlothian,http://www.midlothian.gov.uk,-3.15913900000000,EH25 9PU,2007-03-29,fhis_pass_en-GB,Pass,,FHIS,
443147,27 John Street Penicuik Midlothian,,,,Rowlands Pharmacy,Retailers - other,4613,,,159049,,,55.82741400000000,MIXED/06/0020,783,foodandsafety@midlothian.gov.uk,Midlothian,http://www.midlothian.gov.uk,-3.22181900000000,EH26 8HN,2011-10-25,fhis_exempt_en-GB,Exempt,,FHIS,
443148,48 High Street Bonnyrigg Midlothian,,,,Rowlands Pharmacy,Retailers - other,4613,,,159052,,,55.87607800000000,MIXED/06/0026,783,foodandsafety@midlothian.gov.uk,Midlothian,http://www.midlothian.gov.uk,-3.10711500000000,EH19 2AB,2012-02-22,fhis_exempt_en-GB,Exempt,,FHIS,
443149,55 Clerk Street Loanhead Midlothian,,,,Rowlands Pharmacy,Retailers - other,4613,,,159057,,,55.87841300000000,MIXED/06/0035,783,foodandsafety@midlothian.gov.uk,Midlothian,http://www.midlothian.gov.uk,-3.14938100000000,EH20 9RE,2009-11-24,fhis_exempt_en-GB,Exempt,,FHIS,
443150,Beatties Chemist 22 Edinburgh Road Penicuik Midlothian,,,,Rowlands Pharmacy,Retailers - other,4613,,,158759,,,55.83566300000000,MIXED/05/0007,783,foodandsafety@midlothian.gov.uk,Midlothian,http://www.midlothian.gov.uk,-3.22089700000000,EH26 8NW,2009-12-03,fhis_exempt_en-GB,Exempt,,FHIS,
443151,8 Bank Street Penicuik Midlothian,,,,Royal Balti,Takeaway/sandwich shop,7844,,,159059,,,55.82669800000000,MIXED/06/0040,783,foodandsafety@midlothian.gov.uk,Midlothian,http://www.midlothian.gov.uk,-3.22331300000000,EH26 9BG,2014-01-16,fhis_pass_en-GB,Pass,,FHIS,
443152,4 Wallace Crescent Roslin Midlothian,,,,Royal British Legion,Pub/bar/nightclub,7843,,,159007,,,55.85908100000000,MIXED/05/0902,783,foodandsafety@midlothian.gov.uk,Midlothian,http://www.midlothian.gov.uk,-3.16325200000000,EH25 9LN,2013-03-18,fhis_pass_en-GB,Pass,,FHIS,
443153,60-62 Kirkhill Road Kirkhill Penicuik Midlothian,,,,Royal British Legion Club,Pub/bar/nightclub,7843,,,158894,,,55.82941100000000,MIXED/05/0560,783,foodandsafety@midlothian.gov.uk,Midlothian,http://www.midlothian.gov.uk,-3.21340500000000,EH26 8JF,2012-11-01,fhis_pass_en-GB,Pass,,FHIS,
443154,58 Polton Street Bonnyrigg Midlothian,,,,Royal Oak,Pub/bar/nightclub,7843,,,158974,,,55.87378800000000,MIXED/05/0789,783,foodandsafety@midlothian.gov.uk,Midlothian,http://www.midlothian.gov.uk,-3.10700200000000,EH19 3DE,2011-10-28,fhis_pass_en-GB,Pass,,FHIS,
443155,Sacred Heart Roman Catholic Primary School 22A Crockett Gardens Penicuik Midlothian,,,,Sacred Heart RC Primary School,School/college/university,7845,,,157801,,,55.83079700000000,FOOD/05/0143,783,foodandsafety@midlothian.gov.uk,Midlothian,http://www.midlothian.gov.uk,-3.23219100000000,EH26 9BB,2012-12-04,fhis_pass_en-GB,Pass,,FHIS,
443156,27 Salters Road Dalkeith Midlothian,,,,Salters Inn,Pub/bar/nightclub,7843,,,158987,,,55.89611400000000,MIXED/05/0825,783,foodandsafety@midlothian.gov.uk,Midlothian,http://www.midlothian.gov.uk,-3.05305900000000,EH22 2DQ,2013-01-07,fhis_pass_en-GB,Pass,,FHIS,
443157,53 High Street Bonnyrigg Midlothian,,,,Scollon's Newsagent,Retailers - other,4613,,,159092,,,55.87669900000000,MIXED/07/0128,783,foodandsafety@midlothian.gov.uk,Midlothian,http://www.midlothian.gov.uk,-3.10697300000000,EH19 2DB,2010-06-03,fhis_pass_en-GB,Pass,,FHIS,
443158,18 Station Road Roslin Midlothian,,,,Scotmid,Retailers - supermarkets/hypermarkets,7840,,,158999,,,55.85881500000000,MIXED/05/0852,783,foodandsafety@midlothian.gov.uk,Midlothian,http://www.midlothian.gov.uk,-3.16469800000000,EH25 9LR,2014-07-15,fhis_pass_en-GB,Pass,,FHIS,
443159,6 Mayfield Place Mayfield Dalkeith Midlothian,,,,Scotmid,Retailers - supermarkets/hypermarkets,7840,,,158933,,,55.87281500000000,MIXED/05/0674,783,foodandsafety@midlothian.gov.uk,Midlothian,http://www.midlothian.gov.uk,-3.04143200000000,EH22 5JG,2014-08-26,fhis_pass_en-GB,Pass,,FHIS,
443160,70 - 71 Main Street Newtongrange Midlothian,,,,Scotmid,Retailers - other,4613,,,158915,,,55.86941600000000,MIXED/05/0626,783,foodandsafety@midlothian.gov.uk,Midlothian,http://www.midlothian.gov.uk,-3.06889200000000,EH22 4NE,2014-02-26,fhis_pass_en-GB,Pass,,FHIS,
443161,81 Clerk Street Loanhead Midlothian,,,,Scotmid,Retailers - other,4613,,,158753,,,55.87841300000000,MIXED/04/0069,783,foodandsafety@midlothian.gov.uk,Midlothian,http://www.midlothian.gov.uk,-3.14938100000000,EH20 9RE,2014-07-04,fhis_pass_en-GB,Pass,,FHIS,
443162,Scotmid 114 - 118 Hunterfield Road Gorebridge Midlothian,,,,Scotmid,Retailers - supermarkets/hypermarkets,7840,,,158870,,,55.84788600000000,MIXED/05/0468,783,foodandsafety@midlothian.gov.uk,Midlothian,http://www.midlothian.gov.uk,-3.05335100000000,EH23 4TX,2011-05-17,fhis_pass_en-GB,Pass,,FHIS,
443163,3A Greenhall Road Gorebridge Midlothian,,,,Sea Garden,Takeaway/sandwich shop,7844,,,159079,,,55.85006200000000,MIXED/07/0057,783,foodandsafety@midlothian.gov.uk,Midlothian,http://www.midlothian.gov.uk,-3.05526300000000,EH23 4AW,2015-01-30,fhis_pass_en-GB,Pass,,FHIS,
443164,55 Wallace Crescent Roslin Midlothian,,,,Seaveg,Importers/Exporters,14,,,157860,,,55.85908100000000,FOOD/05/0967,783,foodandsafety@midlothian.gov.uk,Midlothian,http://www.midlothian.gov.uk,-3.16325200000000,EH25 9LN,2014-03-03,fhis_exempt_en-GB,Exempt,,FHIS,
443165,32A Damhead Lothianburn Edinburgh,,,,Secret Herb Garden,Restaurant/Cafe/Canteen,1,,,670074,,,55.88455500000000,MIXED/14/0026,783,foodandsafety@midlothian.gov.uk,Midlothian,http://www.midlothian.gov.uk,-3.18676400000000,EH10 7EA,2014-05-23,fhis_pass_en-GB,Pass,,FHIS,
443166,23 John Street Penicuik Midlothian,,,,Semi-Chem,Retailers - other,4613,,,159069,,,55.82741400000000,MIXED/07/0003,783,foodandsafety@midlothian.gov.uk,Midlothian,http://www.midlothian.gov.uk,-3.22181900000000,EH26 8HN,2014-10-10,fhis_exempt_en-GB,Exempt,,FHIS,
443167,33-35 High Street Dalkeith Midlothian,,,,Semi-Chem,Retailers - other,4613,,,158851,,,55.89372100000000,MIXED/05/0416,783,foodandsafety@midlothian.gov.uk,Midlothian,http://www.midlothian.gov.uk,-3.07210300000000,EH22 1JB,2012-12-04,fhis_exempt_en-GB,Exempt,,FHIS,
443168,1 Dalhousie Place Bonnyrigg Midlothian,,,,Sergio's Fish And Chips,Takeaway/sandwich shop,7844,,,158789,,,55.87124800000000,MIXED/05/0151,783,foodandsafety@midlothian.gov.uk,Midlothian,http://www.midlothian.gov.uk,-3.11952300000000,EH19 2LN,2014-05-29,fhis_improvement_required_en-GB,Improvement Required,,FHIS,
443169,6 Bogwood Court Mayfield Dalkeith,,,,Sharons Edible Butterflies,Retailers - other,4613,,,708522,,,55.87460900000000,MIXED/14/0064,783,foodandsafety@midlothian.gov.uk,Midlothian,http://www.midlothian.gov.uk,-3.04282300000000,EH22 5DG,2015-01-21,fhis_pass_en-GB,Pass,,FHIS,
443170,Newtonloan Toll Filling Station Newtonloan Toll Gorebridge Midlothian,,,,Shell,Retailers - other,4613,,,158956,,,55.85695300000000,MIXED/05/0729,783,foodandsafety@midlothian.gov.uk,Midlothian,http://www.midlothian.gov.uk,-3.06484300000000,EH23 4LZ,2013-03-07,fhis_pass_en-GB,Pass,,FHIS,
443171,Easthouses Filling Station Mayfield Road Easthouses Dalkeith Midlothian,,,,Shell UK Ltd,Retailers - other,4613,,,159024,,,55.86686900000000,MIXED/05/0948,783,foodandsafety@midlothian.gov.uk,Midlothian,http://www.midlothian.gov.uk,-3.05169200000000,EH22 4AD,2014-12-22,fhis_pass_en-GB,Pass,,FHIS,
443172,Campend Farm Old Dalkeith Road Danderhall Midlothian,,,,Sheriffhall Takeaway,Restaurant/Cafe/Canteen,1,,,249072,,,55.90310200000000,MIXED/11/0073,783,foodandsafety@midlothian.gov.uk,Midlothian,http://www.midlothian.gov.uk,-3.09654500000000,EH22 1RS,2014-11-06,fhis_pass_en-GB,Pass,,FHIS,
443173,Bonnyrigg Primary School 1 Cockpen Road Bonnyrigg Midlothian,,,,"Sherwood Community Centre, Bonnyrigg ASC",School/college/university,7845,,,157913,,,,FOOD/10/0055,783,foodandsafety@midlothian.gov.uk,Midlothian,http://www.midlothian.gov.uk,,,2013-01-04,fhis_exempt_en-GB,Exempt,,FHIS,
443174,165 John Street Penicuik Midlothian,,,,Shottstown Miners Welfare,Pub/bar/nightclub,7843,,,158886,,,55.83276000000000,MIXED/05/0537,783,foodandsafety@midlothian.gov.uk,Midlothian,http://www.midlothian.gov.uk,-3.22278500000000,EH26 8AT,2014-03-14,fhis_pass_en-GB,Pass,,FHIS,
443175,122 Main Street Newtongrange Midlothian,,,,Sing Bo,Takeaway/sandwich shop,7844,,,158918,,,55.86461100000000,MIXED/05/0635,783,foodandsafety@midlothian.gov.uk,Midlothian,http://www.midlothian.gov.uk,-3.06663500000000,EH22 4PF,2013-11-13,fhis_pass_en-GB,Pass,,FHIS,
443176,Loanhead Miners Social Club 74 The Loan Loanhead Midlothian,,,,SN13TXM - Renault Master Van Toot For Fruit,Mobile caterer,7846,,,185973,,,55.87686300000000,STTRAD/08/0005,783,foodandsafety@midlothian.gov.uk,Midlothian,http://www.midlothian.gov.uk,-3.15270700000000,EH20 9AQ,2013-08-05,fhis_pass_en-GB,Pass,,FHIS,
443177,The Tile Man Ceramics 2 Newtonloan Toll Gorebridge,,,,Snax Xpress,Mobile caterer,7846,,,516016,,,55.85695300000000,MIXED/13/0008,783,foodandsafety@midlothian.gov.uk,Midlothian,http://www.midlothian.gov.uk,-3.06484300000000,EH23 4LZ,2013-03-04,fhis_pass_en-GB,Pass,,FHIS,
443178,2A Woodburn Avenue Dalkeith Midlothian,,,,Spar,Retailers - other,4613,,,159016,,,55.89223300000000,MIXED/05/0926,783,foodandsafety@midlothian.gov.uk,Midlothian,http://www.midlothian.gov.uk,-3.05613500000000,EH22 2BP,2014-05-22,fhis_pass_en-GB,Pass,,FHIS,
443179,9 Polton Street Bonnyrigg Midlothian,,,,Spar Store,Retailers - supermarkets/hypermarkets,7840,,,201435,,,55.87471800000000,MIXED/05/0784,783,foodandsafety@midlothian.gov.uk,Midlothian,http://www.midlothian.gov.uk,-3.10646900000000,EH19 3HB,2014-02-03,fhis_improvement_required_en-GB,Improvement Required,,FHIS,
443180,28 The Square Penicuik Midlothian,,,,Spice House,Takeaway/sandwich shop,7844,,,159005,,,55.82563600000000,MIXED/05/0897,783,foodandsafety@midlothian.gov.uk,Midlothian,http://www.midlothian.gov.uk,-3.22165200000000,EH26 8LH,2014-11-12,fhis_improvement_required_en-GB,Improvement Required,,FHIS,
443181,43 Edinburgh Road Penicuik Midlothian,,,,Spice Of Penicuik,Takeaway/sandwich shop,7844,,,159129,,,55.83498100000000,MIXED/10/0037,783,foodandsafety@midlothian.gov.uk,Midlothian,http://www.midlothian.gov.uk,-3.22077900000000,EH26 8NP,2014-02-05,fhis_improvement_required_en-GB,Improvement Required,,FHIS,
443182,Shawfair Park Hospital Easter Shawfair Danderhall Midlothian,,,,Spire Shawfair Park Hospital,Hospitals/Childcare/Caring Premises,5,,,201433,,,55.90860900000000,FOOD/11/0069,783,foodandsafety@midlothian.gov.uk,Midlothian,http://www.midlothian.gov.uk,-3.09766000000000,EH22 1FE,2013-12-12,fhis_improvement_required_en-GB,Improvement Required,,FHIS,
443183,Springfield Bank Nursing Home 36 - 38 Cockpen Crescent Bonnyrigg Midlothian,,,,Springfield Bank Care Centre - HC-One,Hospitals/Childcare/Caring Premises,5,,,157865,,,55.86621500000000,FOOD/06/0030,783,foodandsafety@midlothian.gov.uk,Midlothian,http://www.midlothian.gov.uk,-3.11570300000000,EH19 3PN,2014-10-22,fhis_pass_en-GB,Pass,,FHIS,
443184,I E Sprott Newsagent 70 Lothian Street Bonnyrigg Midlothian,,,,Sprotts,Retailers - other,4613,,,158907,,,55.87797700000000,MIXED/05/0598,783,foodandsafety@midlothian.gov.uk,Midlothian,http://www.midlothian.gov.uk,-3.10173500000000,EH19 3AQ,2014-11-19,fhis_pass_en-GB,Pass,,FHIS,
443185,St Andrews Primary School Stobhill Road Gowkshill Gorebridge Midlothian,,,,St Andrews Primary School,School/college/university,7845,,,157856,,,55.84321100000000,FOOD/05/0960,783,foodandsafety@midlothian.gov.uk,Midlothian,http://www.midlothian.gov.uk,-3.04531900000000,EH23 4DA,2013-05-17,fhis_pass_en-GB,Pass,,FHIS,
443186,St Davids RC Primary School Lauder Road Dalkeith Midlothian,,,,St Davids R.C. Primary School,School/college/university,7845,,,157822,,,55.88808400000000,FOOD/05/0581,783,foodandsafety@midlothian.gov.uk,Midlothian,http://www.midlothian.gov.uk,-3.05372000000000,EH22 2PU,2014-02-06,fhis_pass_en-GB,Pass,,FHIS,
443187,Saint Johns And Kings Park Church 31 Eskbank Road Dalkeith Midlothian,,,,St John's And Kings Park Church,Restaurant/Cafe/Canteen,1,,,159117,,,55.89211100000000,MIXED/09/0062,783,foodandsafety@midlothian.gov.uk,Midlothian,http://www.midlothian.gov.uk,-3.07327300000000,EH22 1HJ,2014-04-08,fhis_pass_en-GB,Pass,,FHIS,
443188,5 Rosedale Neuk Rosewell Midlothian,,,,St Josephs Service,Hospitals/Childcare/Caring Premises,5,,,201455,,,55.84674700000000,MIXED/05/0987,783,foodandsafety@midlothian.gov.uk,Midlothian,http://www.midlothian.gov.uk,-3.14084300000000,EH24 9DH,2014-07-21,fhis_exempt_en-GB,Exempt,,FHIS,
443189,St Leonards Church Dobbie's Road Bonnyrigg Midlothian,,,,St Leonards Episcopal Church Hall,Restaurant/Cafe/Canteen,1,,,158897,,,55.87657500000000,MIXED/05/0570,783,foodandsafety@midlothian.gov.uk,Midlothian,http://www.midlothian.gov.uk,-3.11574500000000,EH19 2BD,2014-04-08,fhis_pass_en-GB,Pass,,FHIS,
443190,St Margarets Church 1 Lady Brae Gorebridge Midlothian,,,,St Margarets RC Church,Restaurant/Cafe/Canteen,1,,,158895,,,55.84039100000000,MIXED/05/0561,783,foodandsafety@midlothian.gov.uk,Midlothian,http://www.midlothian.gov.uk,-3.04407800000000,EH23 4HT,2013-05-07,fhis_exempt_en-GB,Exempt,,FHIS,
443191,62A Polton Street Bonnyrigg Midlothian,,,,St Marys R C Primary School,School/college/university,7845,,,157840,,,55.87324900000000,FOOD/05/0790,783,foodandsafety@midlothian.gov.uk,Midlothian,http://www.midlothian.gov.uk,-3.10799400000000,EH19 3YD,2014-09-10,fhis_pass_en-GB,Pass,,FHIS,
443192,St Matthews Roman Catholic Church 36 Carnethie Street Rosewell Midlothian,,,,St Matthew's Church,Restaurant/Cafe/Canteen,1,,,159033,,,55.85463000000000,MIXED/05/0990,783,foodandsafety@midlothian.gov.uk,Midlothian,http://www.midlothian.gov.uk,-3.13468400000000,EH24 9AT,2014-04-08,fhis_pass_en-GB,Pass,,FHIS,
443193,St Matthews Roman Catholic Primary School 32 Carnethie Street Rosewell Midlothian,,,,St Matthews R C Primary School,School/college/university,7845,,,157798,,,55.85463000000000,FOOD/05/0096,783,foodandsafety@midlothian.gov.uk,Midlothian,http://www.midlothian.gov.uk,-3.13468400000000,EH24 9AT,2013-11-11,fhis_pass_en-GB,Pass,,FHIS,
443194,St Nicholas Buccleuch Church High Street Dalkeith Midlothian,,,,St Nicholas Buccleuch Parish Church,Restaurant/Cafe/Canteen,1,,,158841,,,55.89483200000000,MIXED/05/0397,783,foodandsafety@midlothian.gov.uk,Midlothian,http://www.midlothian.gov.uk,-3.06933500000000,EH22 1AX,2014-01-17,fhis_pass_en-GB,Pass,,FHIS,
443195,15 Rosedale Neuk Rosewell Midlothian,,,,St. Joseph Service,Hospitals/Childcare/Caring Premises,5,,,201437,,,55.84674700000000,MIXED/05/0988,783,foodandsafety@midlothian.gov.uk,Midlothian,http://www.midlothian.gov.uk,-3.14084300000000,EH24 9DH,2014-07-21,fhis_exempt_en-GB,Exempt,,FHIS,
443196,Farmhouse Slatebarns Roslin Midlothian,,,,Stable Snacks,Mobile caterer,7846,,,185982,,,55.85615400000000,STTRAD/10/0036,783,foodandsafety@midlothian.gov.uk,Midlothian,http://www.midlothian.gov.uk,-3.15913900000000,EH25 9PU,2013-09-13,fhis_awaiting_inspection_en-GB,Awaiting Inspection,,FHIS,
443197,The Stair Arms Hotel Pathhead,,,,Stair Arms Hotel,Restaurant/Cafe/Canteen,1,,,158964,,,55.87151500000000,MIXED/05/0752,783,foodandsafety@midlothian.gov.uk,Midlothian,http://www.midlothian.gov.uk,-2.97980500000000,EH37 5TX,2014-04-02,fhis_pass_en-GB,Pass,,FHIS,
443198,Star Chip Shop 5 Newbattle Road Newtongrange Midlothian,,,,Star Chip Shop,Takeaway/sandwich shop,7844,,,158946,,,55.87042500000000,MIXED/05/0709,783,foodandsafety@midlothian.gov.uk,Midlothian,http://www.midlothian.gov.uk,-3.06858400000000,EH22 4RA,2014-02-20,fhis_improvement_required_en-GB,Improvement Required,,FHIS,
443199,60 Queensway Penicuik Midlothian,,,,Stepping Forward,Hospitals/Childcare/Caring Premises,5,,,157866,,,55.83718600000000,FOOD/07/0002,783,foodandsafety@midlothian.gov.uk,Midlothian,http://www.midlothian.gov.uk,-3.22584600000000,EH26 0JJ,2014-03-03,fhis_improvement_required_en-GB,Improvement Required,,FHIS,
443200,47 Park Avenue Bilston Roslin Midlothian,,,,Stewart & Waterson,Retailers - other,4613,,,158962,,,55.86977800000000,MIXED/05/0748,783,foodandsafety@midlothian.gov.uk,Midlothian,http://www.midlothian.gov.uk,-3.18444300000000,EH25 9SE,2014-04-24,fhis_improvement_required_en-GB,Improvement Required,,FHIS,
443201,Stobhill Primary School 1 Bonnybank Road Gorebridge Midlothian,,,,Stobhill Nursery Class,Hospitals/Childcare/Caring Premises,5,,,157901,,,55.84531900000000,FOOD/09/0002,783,foodandsafety@midlothian.gov.uk,Midlothian,http://www.midlothian.gov.uk,-3.04256500000000,EH23 4DT,2014-05-19,fhis_improvement_required_en-GB,Improvement Required,,FHIS,
443202,Stobhill Primary School 1 Bonnybank Road Gorebridge Midlothian,,,,Stobhill Primary School,School/college/university,7845,,,157897,,,55.84531900000000,FOOD/08/0042,783,foodandsafety@midlothian.gov.uk,Midlothian,http://www.midlothian.gov.uk,-3.04256500000000,EH23 4DT,2013-05-29,fhis_pass_en-GB,Pass,,FHIS,
443203,25B Powdermill Brae Gorebridge Midlothian,,,,Stobsmill Inn,Pub/bar/nightclub,7843,,,158977,,,55.83807000000000,MIXED/05/0794,783,foodandsafety@midlothian.gov.uk,Midlothian,http://www.midlothian.gov.uk,-3.04542100000000,EH23 4HX,2014-01-15,fhis_pass_en-GB,Pass,,FHIS,
443204,72 Clerk Street Loanhead Midlothian,,,,Stotties,Restaurant/Cafe/Canteen,1,,,341636,,,55.87841800000000,MIXED/12/0039,783,foodandsafety@midlothian.gov.uk,Midlothian,http://www.midlothian.gov.uk,-3.14890100000000,EH20 9RG,2014-12-03,fhis_pass_en-GB,Pass,,FHIS,
443205,Strathcairn 3 Eskview Grove Dalkeith Midlothian,,,,Strathcairn,Hotel/bed & breakfast/guest house,7842,,,157811,,,55.89567600000000,FOOD/05/0270,783,foodandsafety@midlothian.gov.uk,Midlothian,http://www.midlothian.gov.uk,-3.07461900000000,EH22 1JW,2013-01-15,fhis_exempt_en-GB,Exempt,,FHIS,
443206,Strathesk Primary School 4 Eastfield Farm Road Penicuik Midlothian,,,,Strathesk Nursery,School/college/university,7845,,,157904,,,55.83657800000000,FOOD/09/0035,783,foodandsafety@midlothian.gov.uk,Midlothian,http://www.midlothian.gov.uk,-3.21742800000000,EH26 8EZ,2014-02-24,fhis_improvement_required_en-GB,Improvement Required,,FHIS,
443207,Strathesk Primary School 4 Eastfield Farm Road Penicuik Midlothian,,,,Strathesk Primary School Kitchen,School/college/university,7845,,,157892,,,55.83657800000000,FOOD/08/0027,783,foodandsafety@midlothian.gov.uk,Midlothian,http://www.midlothian.gov.uk,-3.21742800000000,EH26 8EZ,2013-11-13,fhis_pass_en-GB,Pass,,FHIS,
443208,37 Jarnac Court Dalkeith Midlothian,,,,Subway,Takeaway/sandwich shop,7844,,,159121,,,55.89371900000000,MIXED/10/0009,783,foodandsafety@midlothian.gov.uk,Midlothian,http://www.midlothian.gov.uk,-3.07031100000000,EH22 1HU,2014-08-27,fhis_pass_en-GB,Pass,,FHIS,
443209,Subway Unit 6B Straiton Mains Loanhead,,,,Subway,Takeaway/sandwich shop,7844,,,564178,,,55.88463900000000,MIXED/13/0049,783,foodandsafety@midlothian.gov.uk,Midlothian,http://www.midlothian.gov.uk,-3.16288200000000,EH20 9PW,2014-01-14,fhis_pass_en-GB,Pass,,FHIS,
443210,2 Mayfield Road Easthouses Dalkeith Midlothian,,,,Sunflower Chinese Takeaway,Takeaway/sandwich shop,7844,,,158935,,,55.87929200000000,MIXED/05/0681,783,foodandsafety@midlothian.gov.uk,Midlothian,http://www.midlothian.gov.uk,-3.04785600000000,EH22 4DN,2014-06-12,fhis_pass_en-GB,Pass,,FHIS,
443211,Superdrug Ltd 20 - 22 High Street Dalkeith Midlothian,,,,Superdrug Stores Plc,Retailers - other,4613,,,159085,,,55.89341000000000,MIXED/07/0074,783,foodandsafety@midlothian.gov.uk,Midlothian,http://www.midlothian.gov.uk,-3.07164600000000,EH22 1HR,2013-01-15,fhis_exempt_en-GB,Exempt,,FHIS,
443212,Temple Village Hall 30 Temple Village Gorebridge Midlothian,,,,Temple Village Hall,Restaurant/Cafe/Canteen,1,,,201436,,,55.81462600000000,MIXED/09/0055,783,foodandsafety@midlothian.gov.uk,Midlothian,http://www.midlothian.gov.uk,-3.09099100000000,EH23 4SQ,2014-03-24,fhis_pass_en-GB,Pass,,FHIS,
443213,Tesco 9 - 11 Edinburgh Road Penicuik Midlothian,,,,Tesco,Retailers - supermarkets/hypermarkets,7840,,,158805,,,55.83498100000000,MIXED/05/0228,783,foodandsafety@midlothian.gov.uk,Midlothian,http://www.midlothian.gov.uk,-3.22077900000000,EH26 8NP,2013-10-11,fhis_pass_en-GB,Pass,,FHIS,
443214,Tesco Stores Ltd Hardengreen Bonnyrigg Road Eskbank Dalkeith Midlothian,,,,Tesco Cafe (Costa),Restaurant/Cafe/Canteen,1,,,159042,,,55.88307600000000,MIXED/05/1037,783,foodandsafety@midlothian.gov.uk,Midlothian,http://www.midlothian.gov.uk,-3.08515800000000,EH22 3PP,2014-03-17,fhis_pass_en-GB,Pass,,FHIS,
443215,Tesco Stores Ltd Hardengreen Bonnyrigg Road Eskbank Dalkeith Midlothian,,,,Tesco Stores Ltd,Retailers - supermarkets/hypermarkets,7840,,,159030,,,55.88307600000000,MIXED/05/0982,783,foodandsafety@midlothian.gov.uk,Midlothian,http://www.midlothian.gov.uk,-3.08515800000000,EH22 3PP,2013-08-16,fhis_pass_en-GB,Pass,,FHIS,
443216,Tesco Filling Station Tesco Filling Station Access Road Dalkeith Midlothian,,,,Tesco Stores Ltd (Petrol Station),Retailers - other,4613,,,158741,,,55.88307600000000,MIXED/04/0004,783,foodandsafety@midlothian.gov.uk,Midlothian,http://www.midlothian.gov.uk,-3.08515800000000,EH22 3PP,2012-03-15,fhis_pass_en-GB,Pass,,FHIS,
443217,15 High Street Bonnyrigg Midlothian,,,,The Anvil Inn,Pub/bar/nightclub,7843,,,158825,,,55.87548400000000,MIXED/05/0319,783,foodandsafety@midlothian.gov.uk,Midlothian,http://www.midlothian.gov.uk,-3.10617100000000,EH19 2DA,2014-06-17,fhis_pass_en-GB,Pass,,FHIS,
443218,22 Dundas Street Bonnyrigg Midlothian,,,,The Baguette Bar,Takeaway/sandwich shop,7844,,,159101,,,55.87437500000000,MIXED/08/0046,783,foodandsafety@midlothian.gov.uk,Midlothian,http://www.midlothian.gov.uk,-3.10460500000000,EH19 3AS,2013-08-22,fhis_improvement_required_en-GB,Improvement Required,,FHIS,
443219,The Beeches Redwoods House Nursing Home Newbattle Road Eskbank Dalkeith Midlothian,,,,The Beeches Respite Centre,Hospitals/Childcare/Caring Premises,5,,,158953,,,55.87497600000000,MIXED/05/0726,783,foodandsafety@midlothian.gov.uk,Midlothian,http://www.midlothian.gov.uk,-3.06808600000000,EH22 4TJ,2014-10-06,fhis_exempt_en-GB,Exempt,,FHIS,
443220,3 Lothian Street Dalkeith Midlothian,,,,The Black Bull,Pub/bar/nightclub,7843,,,158908,,,55.89237300000000,MIXED/05/0601,783,foodandsafety@midlothian.gov.uk,Midlothian,http://www.midlothian.gov.uk,-3.06896300000000,EH22 1DS,2014-06-04,fhis_pass_en-GB,Pass,,FHIS,
443221,3 Lothian Street Dalkeith Midlothian,,,,The Black Bull Kitchen,Pub/bar/nightclub,7843,,,441853,,,55.89237300000000,MIXED/12/0042,783,foodandsafety@midlothian.gov.uk,Midlothian,http://www.midlothian.gov.uk,-3.06896300000000,EH22 1DS,2014-07-10,fhis_pass_en-GB,Pass,,FHIS,
443222,The Blacksmiths Forge 5 Newmills Road Dalkeith Midlothian,,,,The Blacksmiths Forge,Pub/bar/nightclub,7843,,,158750,,,55.89511200000000,MIXED/04/0050,783,foodandsafety@midlothian.gov.uk,Midlothian,http://www.midlothian.gov.uk,-3.06915100000000,EH22 1DH,2014-07-07,fhis_pass_en-GB,Pass,,FHIS,
443223,Blossom Garden 1 - 3 Buccleuch Street Dalkeith Midlothian,,,,The Blossom Garden,Restaurant/Cafe/Canteen,1,,,158769,,,55.89299000000000,MIXED/05/0064,783,foodandsafety@midlothian.gov.uk,Midlothian,http://www.midlothian.gov.uk,-3.07137900000000,EH22 1HB,2014-02-13,fhis_pass_en-GB,Pass,,FHIS,
443224,55 High Street Bonnyrigg Midlothian,,,,The Bombay Spice,Takeaway/sandwich shop,7844,,,158830,,,55.87669900000000,MIXED/05/0337,783,foodandsafety@midlothian.gov.uk,Midlothian,http://www.midlothian.gov.uk,-3.10697300000000,EH19 2DB,2013-05-21,fhis_pass_en-GB,Pass,,FHIS,
443225,18-20 Buccleuch Street Dalkeith Midlothian,,,,The Carlton Bingo Club,Restaurant/Cafe/Canteen,1,,,159031,,,55.89276400000000,MIXED/05/0986,783,foodandsafety@midlothian.gov.uk,Midlothian,http://www.midlothian.gov.uk,-3.07154800000000,EH22 1HA,2013-12-18,fhis_pass_en-GB,Pass,,FHIS,
443226,The Cockatoo Old Craighall Road Millerhill Dalkeith Midlothian,,,,The Cockatoo Family Fayre,Pub/bar/nightclub,7843,,,159009,,,55.91375400000000,MIXED/05/0905,783,foodandsafety@midlothian.gov.uk,Midlothian,http://www.midlothian.gov.uk,-3.08281500000000,EH22 1RZ,2014-09-10,fhis_pass_en-GB,Pass,,FHIS,
443227,Scotts Corner Community Centre Blackhall Terrace Glencorse Penicuik Midlothian,,,,The Coffee Pot,Restaurant/Cafe/Canteen,1,,,159054,,,55.84955100000000,MIXED/06/0028,783,foodandsafety@midlothian.gov.uk,Midlothian,http://www.midlothian.gov.uk,-3.20762700000000,EH26 0EW,2014-10-13,fhis_pass_en-GB,Pass,,FHIS,
443228,78 High Street Bonnyrigg Midlothian,,,,The Co-operative,Retailers - supermarkets/hypermarkets,7840,,,158833,,,55.87722900000000,MIXED/05/0349,783,foodandsafety@midlothian.gov.uk,Midlothian,http://www.midlothian.gov.uk,-3.10797900000000,EH19 2AE,2013-11-12,fhis_pass_en-GB,Pass,,FHIS,
443229,Co-operative Food Main Street Newtongrange Midlothian,,,,The Co-operative,Retailers - supermarkets/hypermarkets,7840,,,158917,,,55.86414000000000,MIXED/05/0634,783,foodandsafety@midlothian.gov.uk,Midlothian,http://www.midlothian.gov.uk,-3.06598300000000,EH22 4PB,2013-11-14,fhis_pass_en-GB,Pass,,FHIS,
443230,51 Clerk Street Loanhead Midlothian,,,,The Country Garden,Retailers - other,4613,,,158782,,,55.87841300000000,MIXED/05/0117,783,foodandsafety@midlothian.gov.uk,Midlothian,http://www.midlothian.gov.uk,-3.14938100000000,EH20 9RE,2009-11-24,fhis_pass_en-GB,Pass,,FHIS,
443231,Saint Johns And Kings Park Church 31 Eskbank Road Dalkeith Midlothian,,,,The Crescent Playgroup,Hospitals/Childcare/Caring Premises,5,,,157918,,,55.89211100000000,FOOD/11/0032,783,foodandsafety@midlothian.gov.uk,Midlothian,http://www.midlothian.gov.uk,-3.07327300000000,EH22 1HJ,2014-06-11,fhis_pass_en-GB,Pass,,FHIS,
443232,13 John Street Penicuik Midlothian,,,,The Factory Shop Limited,Retailers - other,4613,,,159124,,,55.82741400000000,MIXED/10/0021,783,foodandsafety@midlothian.gov.uk,Midlothian,http://www.midlothian.gov.uk,-3.22181900000000,EH26 8HN,2014-10-27,fhis_exempt_en-GB,Exempt,,FHIS,
443233,The Foresters 107 Main Street Pathhead,,,,The Foresters,Pub/bar/nightclub,7843,,,158924,,,55.86677000000000,MIXED/05/0650,783,foodandsafety@midlothian.gov.uk,Midlothian,http://www.midlothian.gov.uk,-2.96627900000000,EH37 5PT,2014-05-13,fhis_pass_en-GB,Pass,,FHIS,
443234,14 Speedwell Avenue Danderhall,,,,The Front Room Scotland Ltd,Manufacturers/packers,7839,,,733803,,,55.91581400000000,FOOD/15/0004,783,foodandsafety@midlothian.gov.uk,Midlothian,http://www.midlothian.gov.uk,-3.11480700000000,EH22 1RA,2015-01-29,fhis_pass_en-GB,Pass,,FHIS,
443235,Art Centre 4 West Street Penicuik Midlothian,,,,The Gallery Cafe,Restaurant/Cafe/Canteen,1,,,159010,,,55.82574300000000,MIXED/05/0910,783,foodandsafety@midlothian.gov.uk,Midlothian,http://www.midlothian.gov.uk,-3.22266100000000,EH26 9DL,2014-01-27,fhis_pass_en-GB,Pass,,FHIS,
443236,7 Bogwood Court Mayfield Dalkeith Midlothian,,,,The Golden Field,Takeaway/sandwich shop,7844,,,158766,,,55.87460900000000,MIXED/05/0039,783,foodandsafety@midlothian.gov.uk,Midlothian,http://www.midlothian.gov.uk,-3.04282300000000,EH22 5DG,2013-10-18,fhis_improvement_required_en-GB,Improvement Required,,FHIS,
443237,16 Hawthorn Gardens Loanhead Midlothian,,,,The Hawthorn Nursery,Hospitals/Childcare/Caring Premises,5,,,159048,,,55.88291200000000,MIXED/06/0017,783,foodandsafety@midlothian.gov.uk,Midlothian,http://www.midlothian.gov.uk,-3.15546100000000,EH20 9EG,2014-09-02,fhis_pass_en-GB,Pass,,FHIS,
443238,Soutra,,,,The House Of Soutra,Restaurant/Cafe/Canteen,1,,,583028,,,55.82413100000000,MIXED/13/0062,783,foodandsafety@midlothian.gov.uk,Midlothian,http://www.midlothian.gov.uk,-2.87427100000000,EH37 5TF,2015-01-19,fhis_pass_en-GB,Pass,,FHIS,
443239,62 Clerk Street Loanhead Midlothian,,,,The Joy Chinese Restaurant,Restaurant/Cafe/Canteen,1,,,158784,,,55.87841800000000,MIXED/05/0120,783,foodandsafety@midlothian.gov.uk,Midlothian,http://www.midlothian.gov.uk,-3.14890100000000,EH20 9RG,2014-09-02,fhis_improvement_required_en-GB,Improvement Required,,FHIS,
443240,The Juniperlea Blackshiels Fala Pathhead Midlothian,,,,The Juniperlea,Pub/bar/nightclub,7843,,,158763,,,55.83243100000000,MIXED/05/0032,783,foodandsafety@midlothian.gov.uk,Midlothian,http://www.midlothian.gov.uk,-2.88839500000000,EH37 5TE,2014-12-18,fhis_pass_en-GB,Pass,,FHIS,
443241,Loanhead Community Learning Centre 5 Mayburn Walk Loanhead Midlothian,,,,The Kabin,Restaurant/Cafe/Canteen,1,,,605999,,,55.88014400000000,MIXED/12/0009,783,foodandsafety@midlothian.gov.uk,Midlothian,http://www.midlothian.gov.uk,-3.15932700000000,EH20 9HG,2013-10-28,fhis_pass_en-GB,Pass,,FHIS,
443242,Leadburn Inn A701 From Peebles Road To Leadburn Penicuik Midlothian EH46 7BE EH46 7BD,,,,The Leadburn,Restaurant/Cafe/Canteen,1,,,159120,,,55.78795500000000,MIXED/10/0008,783,foodandsafety@midlothian.gov.uk,Midlothian,http://www.midlothian.gov.uk,-3.22292800000000,EH46 7BE,2014-10-30,fhis_pass_en-GB,Pass,,FHIS,
443243,22 Clerk Street Loanhead Midlothian,,,,The Lee Garden,Takeaway/sandwich shop,7844,,,158780,,,55.87955600000000,MIXED/05/0114,783,foodandsafety@midlothian.gov.uk,Midlothian,http://www.midlothian.gov.uk,-3.15013400000000,EH20 9DR,2014-07-07,fhis_pass_en-GB,Pass,,FHIS,
443244,The Mayfield Inn Bogwood Road Mayfield Dalkeith Midlothian,,,,The Mayfield Inn,Pub/bar/nightclub,7843,,,158768,,,55.87364700000000,MIXED/05/0046,783,foodandsafety@midlothian.gov.uk,Midlothian,http://www.midlothian.gov.uk,-3.04070300000000,EH22 5DY,2013-04-23,fhis_pass_en-GB,Pass,,FHIS,
443245,The Mayflower 30 - 34 Fountain Place Loanhead Midlothian,,,,The Mayflower,Pub/bar/nightclub,7843,,,159093,,,55.88024400000000,MIXED/07/0140,783,foodandsafety@midlothian.gov.uk,Midlothian,http://www.midlothian.gov.uk,-3.15061800000000,EH20 9DU,2014-06-18,fhis_pass_en-GB,Pass,,FHIS,
443246,4 Newtonloan Toll Gorebridge Midlothian,,,,The Memories Of India,Restaurant/Cafe/Canteen,1,,,159056,,,55.85695300000000,MIXED/06/0034,783,foodandsafety@midlothian.gov.uk,Midlothian,http://www.midlothian.gov.uk,-3.06484300000000,EH23 4LZ,2014-04-17,fhis_pass_en-GB,Pass,,FHIS,
443247,1 Firth Road Auchendinny Penicuik,,,,The Nest Cafe,Other catering premises,7841,,,633284,,,55.84772600000000,MIXED/13/0080,783,foodandsafety@midlothian.gov.uk,Midlothian,http://www.midlothian.gov.uk,-3.19108800000000,EH26 0QZ,2014-03-17,fhis_pass_en-GB,Pass,,FHIS,
443248,Wester Shawfair Dandehall  Dalkeith,,,,The Old Colliery,Other catering premises,7841,,,564177,,,55.90774200000000,MIXED/13/0046,783,foodandsafety@midlothian.gov.uk,Midlothian,http://www.midlothian.gov.uk,-3.10014700000000,EH22 1FD,2014-04-02,fhis_pass_en-GB,Pass,,FHIS,
443249,11 Main Street Gorebridge Midlothian,,,,The Orchid Take-Away,Takeaway/sandwich shop,7844,,,158912,,,55.84143200000000,MIXED/05/0611,783,foodandsafety@midlothian.gov.uk,Midlothian,http://www.midlothian.gov.uk,-3.04741200000000,EH23 4BX,2014-02-04,fhis_improvement_required_en-GB,Improvement Required,,FHIS,
443250,The Old Mill 2 - 4 West Mill Road Lasswade,,,,The Paper Mill,Restaurant/Cafe/Canteen,1,,,611154,,,55.88116800000000,MIXED/13/0056,783,foodandsafety@midlothian.gov.uk,Midlothian,http://www.midlothian.gov.uk,-3.11562100000000,EH18 1LX,2014-07-02,fhis_pass_en-GB,Pass,,FHIS,
443251,2 Newmills Road Dalkeith Midlothian,,,,The Park,Pub/bar/nightclub,7843,,,158948,,,55.89276300000000,MIXED/05/0714,783,foodandsafety@midlothian.gov.uk,Midlothian,http://www.midlothian.gov.uk,-3.06863800000000,EH22 1DU,2010-01-22,fhis_pass_en-GB,Pass,,FHIS,
443252,"16A Carnethy Avenue Penicuik EH26 8AR Contact Address: 19 Carlops Crescent, Penicuik,EH26 0DW",,,,The Pirates Kitchen,Takeaway/sandwich shop,7844,,,693810,,,,MIXED/14/0001,783,foodandsafety@midlothian.gov.uk,Midlothian,http://www.midlothian.gov.uk,,,2014-08-11,fhis_pass_en-GB,Pass,,FHIS,
443253,93 Clerk Street Loanhead Midlothian,,,,The Radhuni Restaurant,Restaurant/Cafe/Canteen,1,,,478411,,,55.87841300000000,MIXED/11/0075,783,foodandsafety@midlothian.gov.uk,Midlothian,http://www.midlothian.gov.uk,-3.14938100000000,EH20 9RE,2014-06-03,fhis_pass_en-GB,Pass,,FHIS,
443254,Brixwold Castle Hotel Cockpen Road Bonnyrigg Midlothian,,,,The Retreat Castle,Hotel/bed & breakfast/guest house,7842,,,201450,,,55.86928600000000,MIXED/05/1038,783,foodandsafety@midlothian.gov.uk,Midlothian,http://www.midlothian.gov.uk,-3.09493700000000,EH19 3HS,2013-06-27,fhis_pass_en-GB,Pass,,FHIS,
443255,The Roadhouse 136 John Street Penicuik Midlothian,,,,The Roadhouse,Pub/bar/nightclub,7843,,,159055,,,55.83267800000000,MIXED/06/0029,783,foodandsafety@midlothian.gov.uk,Midlothian,http://www.midlothian.gov.uk,-3.22370900000000,EH26 8NJ,2012-07-25,fhis_pass_en-GB,Pass,,FHIS,
443256,Rowan Tree Inn 5 Eskview Road Mayfield Dalkeith Midlothian,,,,The Rowantree,Pub/bar/nightclub,7843,,,158817,,,55.87150900000000,MIXED/05/0271,783,foodandsafety@midlothian.gov.uk,Midlothian,http://www.midlothian.gov.uk,-3.04067800000000,EH22 5EA,2013-07-09,fhis_improvement_required_en-GB,Improvement Required,,FHIS,
443257,The Royal British Legion 28 - 30 Buccleuch Street Dalkeith Midlothian,,,,The Royal British Legion,Pub/bar/nightclub,7843,,,158771,,,55.89276400000000,MIXED/05/0072,783,foodandsafety@midlothian.gov.uk,Midlothian,http://www.midlothian.gov.uk,-3.07154800000000,EH22 1HA,2009-11-24,fhis_pass_en-GB,Pass,,FHIS,
443258,34 High Street Penicuik Midlothian,,,,The Royal Hotel,Restaurant/Cafe/Canteen,1,,,158858,,,55.82671200000000,MIXED/05/0440,783,foodandsafety@midlothian.gov.uk,Midlothian,http://www.midlothian.gov.uk,-3.22096700000000,EH26 8HU,2014-02-05,fhis_improvement_required_en-GB,Improvement Required,,FHIS,
443259,Block 1 Sherwood Industrial Estate Bonnyrigg Midlothian,,,,The Sherwood Feast,Mobile caterer,7846,,,185980,,,55.87389200000000,STTRAD/10/0011,783,foodandsafety@midlothian.gov.uk,Midlothian,http://www.midlothian.gov.uk,-3.09735200000000,EH19 3LW,2014-10-22,fhis_improvement_required_en-GB,Improvement Required,,FHIS,
443260,92 High Street Dalkeith Midlothian,,,,The Ship Inn,Pub/bar/nightclub,7843,,,158839,,,55.89428500000000,MIXED/05/0386,783,foodandsafety@midlothian.gov.uk,Midlothian,http://www.midlothian.gov.uk,-3.06927200000000,EH22 1HZ,2014-04-22,fhis_exempt_en-GB,Exempt,,FHIS,
443261,The Steading Slatebarns Roslin Midlothian,,,,The Steading,Hotel/bed & breakfast/guest house,7842,,,157843,,,55.85615400000000,FOOD/05/0816,783,foodandsafety@midlothian.gov.uk,Midlothian,http://www.midlothian.gov.uk,-3.15913900000000,EH25 9PU,2009-12-17,fhis_pass_en-GB,Pass,,FHIS,
443262,The Sun Inn Dalkeith,,,,The Sun Inn,Restaurant/Cafe/Canteen,1,,,159037,,,55.87284800000000,MIXED/05/1000,783,foodandsafety@midlothian.gov.uk,Midlothian,http://www.midlothian.gov.uk,-3.07822400000000,EH22 4TR,2014-04-14,fhis_pass_en-GB,Pass,,FHIS,
443263,Easter Bush Veterinary Centre Bush Farm Road Bilston Roslin Midlothian,,,,The View,Restaurant/Cafe/Canteen,1,,,158984,,,55.86541600000000,MIXED/05/0811,783,foodandsafety@midlothian.gov.uk,Midlothian,http://www.midlothian.gov.uk,-3.19971500000000,EH25 9RG,2014-07-16,fhis_pass_en-GB,Pass,,FHIS,
443264,Dalkeith Water Tower Cemetery Road Dalkeith Midlothian,,,,The Water Tower Restaurant,Restaurant/Cafe/Canteen,1,,,159034,,,55.89138800000000,MIXED/05/0993,783,foodandsafety@midlothian.gov.uk,Midlothian,http://www.midlothian.gov.uk,-3.07691500000000,EH22 3DL,2009-11-30,fhis_pass_en-GB,Pass,,FHIS,
443265,140 Main Street Newtongrange,,,,The Wheelhouse,Restaurant/Cafe/Canteen,1,,,633282,,,55.86461100000000,MIXED/13/0054,783,foodandsafety@midlothian.gov.uk,Midlothian,http://www.midlothian.gov.uk,-3.06663500000000,EH22 4PF,2014-02-13,fhis_pass_en-GB,Pass,,FHIS,
443266,2/1 South Sloan Street Edinburgh,,,,Theresa's Munch Box - Reg SK08 TJZ,Mobile caterer,7846,,,201459,,,55.96299800000000,STTRAD/03/0019,783,foodandsafety@midlothian.gov.uk,Midlothian,http://www.midlothian.gov.uk,-3.17369000000000,EH6 8ST,2014-08-25,fhis_pass_en-GB,Pass,,FHIS,
443267,Dobbie's Melville Nurseries Lasswade Midlothian,,,,Thomas A Shaw,Retailers - other,4613,,,159081,,,55.82099914550781,MIXED/07/0062,783,foodandsafety@midlothian.gov.uk,Midlothian,http://www.midlothian.gov.uk,-3.10899996757507,EH18 1AZ,2011-03-04,fhis_pass_en-GB,Pass,,FHIS,
443268,Thornlea Nursing Home 21 Hawthorn Gardens Loanhead Midlothian,,,,Thornlea Nursing Home,Hospitals/Childcare/Caring Premises,5,,,157817,,,55.88274900000000,FOOD/05/0312,783,foodandsafety@midlothian.gov.uk,Midlothian,http://www.midlothian.gov.uk,-3.15651100000000,EH20 9EQ,2014-11-11,fhis_pass_en-GB,Pass,,FHIS,
443269,3 Hillside Cottages Cousland Dalkeith,,,,Tiffin Afternoon Tea McArthur,Other catering premises,7841,,,733802,,,55.90445900000000,FOOD/15/0001,783,foodandsafety@midlothian.gov.uk,Midlothian,http://www.midlothian.gov.uk,-2.99608700000000,EH22 2PA,,fhis_awaiting_inspection_en-GB,Awaiting Inspection,,FHIS,
443270,1 Straiton Mains Loanhead Midlothian,,,,TK MAXX,Retailers - other,4613,,,201461,,,55.88463900000000,MIXED/05/0864,783,foodandsafety@midlothian.gov.uk,Midlothian,http://www.midlothian.gov.uk,-3.16288200000000,EH20 9PW,2013-04-23,fhis_pass_en-GB,Pass,,FHIS,
443271,56 Campview Crescent Danderhall,,,,Toatie Tablet,Manufacturers/packers,7839,,,708518,,,55.91165500000000,FOOD/14/0021,783,foodandsafety@midlothian.gov.uk,Midlothian,http://www.midlothian.gov.uk,-3.10576100000000,EH22 1PX,2014-09-10,fhis_pass_en-GB,Pass,,FHIS,
443272,Toni's Fish Bar 122 High Street Dalkeith Midlothian,,,,Toni's Fish Bar,Takeaway/sandwich shop,7844,,,158842,,,55.89464800000000,MIXED/05/0398,783,foodandsafety@midlothian.gov.uk,Midlothian,http://www.midlothian.gov.uk,-3.06878600000000,EH22 1AU,2013-10-09,fhis_pass_en-GB,Pass,,FHIS,
443273,Top O The Toon Snooker Club 11 Clerk Street Loanhead Midlothian,,,,Top 'o' The Toon,Restaurant/Cafe/Canteen,1,,,158779,,,55.87940600000000,MIXED/05/0113,783,foodandsafety@midlothian.gov.uk,Midlothian,http://www.midlothian.gov.uk,-3.15080100000000,EH20 9DP,2014-03-26,fhis_exempt_en-GB,Exempt,,FHIS,
443274,Pathhead Primary School 208 Main Street Pathhead Midlothian,,,,Top Service,Restaurant/Cafe/Canteen,1,,,159118,,,55.86443900000000,MIXED/09/0063,783,foodandsafety@midlothian.gov.uk,Midlothian,http://www.midlothian.gov.uk,-2.96440000000000,EH37 5SG,2014-01-14,fhis_pass_en-GB,Pass,,FHIS,
443275,155 John Street Penicuik Midlothian,,,,Tower Fish Bar,Takeaway/sandwich shop,7844,,,158884,,,55.83276000000000,MIXED/05/0531,783,foodandsafety@midlothian.gov.uk,Midlothian,http://www.midlothian.gov.uk,-3.22278500000000,EH26 8AT,2014-02-11,fhis_pass_en-GB,Pass,,FHIS,
443276,Trust 2 Hawthorn Gardens Loanhead Midlothian,,,,Trust Housing Association,Restaurant/Cafe/Canteen,1,,,159064,,,55.88237200000000,MIXED/06/0055,783,foodandsafety@midlothian.gov.uk,Midlothian,http://www.midlothian.gov.uk,-3.15267900000000,EH20 9EE,2014-07-07,fhis_pass_en-GB,Pass,,FHIS,
443277,Tynewater Primary School 32 Crichton Road Pathhead Midlothian,,,,Tynewater After School Club,Other catering premises,7841,,,157890,,,55.86595100000000,FOOD/08/0017,783,foodandsafety@midlothian.gov.uk,Midlothian,http://www.midlothian.gov.uk,-2.97328900000000,EH37 5RA,2014-06-11,fhis_improvement_required_en-GB,Improvement Required,,FHIS,
443278,Tynewater Primary School 32 Crichton Road Pathhead Midlothian,,,,Tynewater Primary School,School/college/university,7845,,,157884,,,55.86595100000000,FOOD/07/0100,783,foodandsafety@midlothian.gov.uk,Midlothian,http://www.midlothian.gov.uk,-2.97328900000000,EH37 5RA,2014-12-10,fhis_pass_en-GB,Pass,,FHIS,
443279,Valleyfield House 17 High Street Penicuik Midlothian,,,,Valleyfield House Partnership,Retailers - other,4613,,,633274,,,55.82629700000000,FOOD/11/0031,783,foodandsafety@midlothian.gov.uk,Midlothian,http://www.midlothian.gov.uk,-3.22113000000000,EH26 8HS,2014-01-28,fhis_pass_en-GB,Pass,,FHIS,
443280,Flat 1 Glenesk 8 Avenue Road Eskbank Dalkeith Midlothian,,,,Viewpoint Housing Association Ltd,Hospitals/Childcare/Caring Premises,5,,,159061,,,55.89009000000000,MIXED/06/0046,783,foodandsafety@midlothian.gov.uk,Midlothian,http://www.midlothian.gov.uk,-3.08250700000000,EH22 3BP,2012-08-29,fhis_pass_en-GB,Pass,,FHIS,
443281,55 Powdermill Brae Gorebridge Midlothian,,,,Village Newsagent,Retailers - other,4613,,,158978,,,55.83685700000000,MIXED/05/0795,783,foodandsafety@midlothian.gov.uk,Midlothian,http://www.midlothian.gov.uk,-3.04431900000000,EH23 4HY,2014-02-18,fhis_improvement_required_en-GB,Improvement Required,,FHIS,
443282,Rosslyn Chapel Chapel Loan Roslin Midlothian,,,,Visitor Centre Cafe,Restaurant/Cafe/Canteen,1,,,201441,,,55.85615400000000,MIXED/11/0058,783,foodandsafety@midlothian.gov.uk,Midlothian,http://www.midlothian.gov.uk,-3.15913900000000,EH25 9PU,2014-06-11,fhis_pass_en-GB,Pass,,FHIS,
443283,98/8 Eastfield Drive Penicuik,,,,W A Boak & Son Fresh Foods Company,Retailers - other,4613,,,633281,,,55.83381700000000,MIXED/12/0057,783,foodandsafety@midlothian.gov.uk,Midlothian,http://www.midlothian.gov.uk,-3.21761400000000,EH26 8HJ,2014-02-05,fhis_pass_en-GB,Pass,,FHIS,
443284,WH Smith 67 - 71 High Street Dalkeith Midlothian,,,,W H Smith Plc,Retailers - other,4613,,,158852,,,55.89450000000000,MIXED/05/0418,783,foodandsafety@midlothian.gov.uk,Midlothian,http://www.midlothian.gov.uk,-3.07034900000000,EH22 1JA,2010-06-15,fhis_exempt_en-GB,Exempt,,FHIS,
443285,Waverley Hotel 68 - 70 Dundas Street Bonnyrigg Midlothian,,,,Waverley Hotel,Hotel/bed & breakfast/guest house,7842,,,159039,,,55.87319100000000,MIXED/05/1005,783,foodandsafety@midlothian.gov.uk,Midlothian,http://www.midlothian.gov.uk,-3.10142300000000,EH19 3BB,2012-11-07,fhis_pass_en-GB,Pass,,FHIS,
443286,Wellington School Penicuik Midlothian,,,,Wellington School,School/college/university,7845,,,157835,,,55.79738235473633,FOOD/05/0757,783,foodandsafety@midlothian.gov.uk,Midlothian,http://www.midlothian.gov.uk,-3.21660351753235,EH26 8PT,2014-03-06,fhis_improvement_required_en-GB,Improvement Required,,FHIS,
443287,Whitehill House 2 Carnethie Street Rosewell Midlothian,,,,Whitehill House Golf Club,Restaurant/Cafe/Canteen,1,,,158550,,,55.84621600000000,HELA/06/0006,783,foodandsafety@midlothian.gov.uk,Midlothian,http://www.midlothian.gov.uk,-3.12916900000000,EH24 9EG,2012-07-24,fhis_pass_en-GB,Pass,,FHIS,
443288,43 Carnethie Street Rosewell Midlothian,,,,Whitehill Welfare Football Club,Restaurant/Cafe/Canteen,1,,,158775,,,55.85386000000000,MIXED/05/0087,783,foodandsafety@midlothian.gov.uk,Midlothian,http://www.midlothian.gov.uk,-3.13437400000000,EH24 9AP,2014-05-13,fhis_pass_en-GB,Pass,,FHIS,
443289,20 Station Road Newtongrange Midlothian,,,,Whizkidz Nursery,Hospitals/Childcare/Caring Premises,5,,,158998,,,55.86920300000000,MIXED/05/0851,783,foodandsafety@midlothian.gov.uk,Midlothian,http://www.midlothian.gov.uk,-3.06960500000000,EH22 4NB,2014-12-02,fhis_pass_en-GB,Pass,,FHIS,
443290,William Hill Bookmakers John Street Penicuik Midlothian,,,,William Hill,Restaurant/Cafe/Canteen,1,,,158887,,,55.82741400000000,MIXED/05/0539,783,foodandsafety@midlothian.gov.uk,Midlothian,http://www.midlothian.gov.uk,-3.22181900000000,EH26 8HN,2009-12-03,fhis_exempt_en-GB,Exempt,,FHIS,
443291,Unit 24 Hardengreen Industrial Estate Eskbank Dalkeith Midlothian,,,,William Robertson And Sons Ltd,Manufacturers/packers,7839,,,157815,,,55.88388200000000,FOOD/05/0303,783,foodandsafety@midlothian.gov.uk,Midlothian,http://www.midlothian.gov.uk,-3.08134300000000,EH22 3NX,2014-02-12,fhis_pass_en-GB,Pass,,FHIS,
443292,Dalkeith House High Street Dalkeith Midlothian,,,,Wisconsin In Scotland,School/college/university,7845,,,158576,,,55.90131900000000,HMO/07/0137,783,foodandsafety@midlothian.gov.uk,Midlothian,http://www.midlothian.gov.uk,-3.06110100000000,EH22 2NA,2013-10-24,fhis_pass_en-GB,Pass,,FHIS,
443293,28 Woodburn Avenue Dalkeith Midlothian,,,,Woodburn House,Takeaway/sandwich shop,7844,,,159019,,,55.89223300000000,MIXED/05/0931,783,foodandsafety@midlothian.gov.uk,Midlothian,http://www.midlothian.gov.uk,-3.05613500000000,EH22 2BP,2013-11-20,fhis_pass_en-GB,Pass,,FHIS,
443294,Woodburn Primary School 5 Cousland Road Dalkeith Midlothian,,,,Woodburn Primary School,School/college/university,7845,,,157905,,,55.90166400000000,FOOD/09/0046,783,foodandsafety@midlothian.gov.uk,Midlothian,http://www.midlothian.gov.uk,-3.04497200000000,EH22 2PS,2013-09-18,fhis_pass_en-GB,Pass,,FHIS,
443295,Unit 1 Dalhousie Business Park Carrington Road Bonnyrigg Midlothian,,,,Worksnax,Other catering premises,7841,,,201430,,,55.86217900000000,MIXED/10/0004,783,foodandsafety@midlothian.gov.uk,Midlothian,http://www.midlothian.gov.uk,-3.08983100000000,EH19 3HY,2013-09-12,fhis_improvement_required_en-GB,Improvement Required,,FHIS,
443296,6 Lothian Street Dalkeith Midlothian,,,,Your Kitchen,Takeaway/sandwich shop,7844,,,158909,,,55.89237300000000,MIXED/05/0604,783,foodandsafety@midlothian.gov.uk,Midlothian,http://www.midlothian.gov.uk,-3.06896300000000,EH22 1DS,2014-09-01,fhis_pass_en-GB,Pass,,FHIS,
